station_id,dh_utc,temperature,pression,pression_variation_3h,humidite,point_de_rosee,visibilite,vent_moyen,vent_rafales,vent_rafales_10min,vent_direction,temperature_min,temperature_max,pluie_1h,pluie_3h,pluie_6h,pluie_12h,pluie_24h,ensoleillement,temperature_sol,temps_omm,source,radiations,neige_au_sol,nebulosite,raw_msg
07690,1996-01-01 00:00:00,6,997.4,1.2,93,5,20000,11.112,,,340,,,,0,,,,,,,wg-a,,,,AAXX 01004 07690 02570 /3406 10060 20050 39941 49974 52012 60006 81500 90000 333 60007=
07690,1996-01-01 03:00:00,6,997.6,0.2,93,5,20000,14.816,,,340,,,,,,,,,,,wg-a,,,,AAXX 01034 07690 12/70 03408 10060 20050 39943 49976 50002 60006 80000 90300=
07690,1996-01-01 06:00:00,6,998.4,0.8,87,4,20000,11.112,,,340,5.6,8.9,,,,,,,,,wg-a,,,,AAXX 01064 07690 32470 13406 10060 20040 39951 49984 51008 81500 90600 333 10089 20056=
07690,1996-01-01 09:00:00,10,1000.1,1.8,82,7,20000,18.52,,,50,,,,,,,,,,,wg-a,,,,AAXX 01094 07690 12470 50510 10100 20070 39969 40001 50018 60006 83502 90900=
07690,1996-01-01 12:00:00,13,999.7,-0.4,82,10,20000,3.704,,,340,,,,,,,,,,,wg-a,,,,AAXX 01124 07690 12470 63402 10130 20100 39965 49997 58004 60006 84850 91200=
07690,1996-01-01 15:00:00,13,999.3,-0.4,77,9,20000,11.112,,,100,,,,,,,,,,,wg-a,,,,AAXX 01154 07690 12470 61006 10130 20090 39961 49993 55004 60006 84570 91500=
07690,1996-01-01 18:00:00,13,1000.2,0.9,82,10,20000,14.816,,,100,5.6,14.4,,,,,,,,,wg-a,,,,AAXX 01184 07690 12470 51008 10130 20100 39970 40002 53009 60006 85530 91800 333 10144 20056=
07690,1996-01-01 21:00:00,10,1000.4,0.2,93,9,15000,11.112,,,320,,,,1,,,,,,21,wg-a,,,,AAXX 01214 07690 12465 /3206 10100 20090 39972 40004 51002 60017 72162 83530 92100=
07690,1996-01-02 00:00:00,9,1002.1,1.6,93,8,15000,7.408,,,300,,,,,,,,,,3,wg-a,,,,AAXX 02004 07690 12565 73004 10090 20080 39988 40021 53016 60016 70362 8657/ 90000=
07690,1996-01-02 03:00:00,8,1002.1,-0,93,7,15000,14.816,,,330,,,,,,,,,,,wg-a,,,,AAXX 02034 07690 12565 /3308 10080 20070 39988 40021 55000 60006 8357/ 90300=
07690,1996-01-02 06:00:00,8,1001.8,-0.3,87,6,20000,18.52,,,340,7.3,12.5,,,,,1,,,,wg-a,,,,AAXX 02064 07690 12570 /3410 10080 20060 39985 40018 55003 60014 81500 90600 333 10125 20073=
07690,1996-01-02 09:00:00,9,1003.1,1.3,81,6,40000,11.112,,,340,,,,,,,,,,,wg-a,,,,AAXX 02094 07690 12582 23406 10090 20060 39998 40031 51013 60006 81541 90900=
07690,1996-01-02 12:00:00,13,1004,1,82,10,500,22.224,,,90,,,,,,,,,,,wg-a,,,,AAXX 02124 07690 12400 60912 10130 20100 30008 40040 51010 60006 86800 91200=
07690,1996-01-02 15:00:00,13,1004.5,0.5,77,9,25000,18.52,,,100,,,,,,,,,,,wg-a,,,,AAXX 02154 07690 12475 /1010 10130 20090 30013 40045 53005 60006 85800 91500=
07690,1996-01-02 18:00:00,9,1006.1,1.5,93,8,20000,11.112,,,340,7.5,12.9,,,,,,,,,wg-a,,,,AAXX 02184 07690 12670 23406 10090 20080 30028 40061 53015 60006 82500 91800 333 10129 20075=
07690,1996-01-02 21:00:00,8,1009.1,3,93,7,20000,18.52,,,340,,,,,,,,,,,wg-a,,,,AAXX 02214 07690 12570 /3410 10080 20070 30058 40091 52030 60006 83500 92100=
07690,1996-01-03 00:00:00,8,1010.2,1.1,87,6,20000,18.52,,,340,,,,,,,,,,,wg-a,,,,AAXX 03004 07690 12/70 03410 10080 20060 30069 40102 51011 60006 80000 90000=
07690,1996-01-03 03:00:00,7,1011.2,1,87,5,0,22.224,,,340,,,,,,,,,,,wg-a,,,,AAXX 03034 07690 12/// /3412 10070 20050 30079 40112 51010 60006 90300=
07690,1996-01-03 06:00:00,7,1012.2,1,81,4,20000,22.224,,,330,7.1,9.3,,,,,,,,,wg-a,,,,AAXX 03064 07690 02/70 13312 10070 20040 30089 40122 53010 60006 80002 90600 333 10093 20071 60004=
07690,1996-01-03 09:00:00,9,1014,1.8,71,4,0,18.52,,,340,,,,,,,,,,,wg-a,,,,AAXX 03094 07690 12/// /3410 10090 20040 30107 40140 53018 60006 90900=
07690,1996-01-03 12:00:00,14,1013.7,-0.2,63,7,50000,7.408,,,140,,,,,,,,,,,wg-a,,,,AAXX 03124 07690 12684 21404 10140 20070 30105 40137 58002 60006 81102 91200=
07690,1996-01-03 15:00:00,14,1013.8,0.1,72,9,0,3.704,,,180,,,,,,,,,,,wg-a,,,,AAXX 03154 07690 12/// /1802 10140 20090 30106 40138 53001 60006 91500=
07690,1996-01-03 18:00:00,9,1014.6,0.7,93,8,0,11.112,,,320,6.9,14.7,,,,,,,,,wg-a,,,,AAXX 03184 07690 12/// /3206 10090 20080 30113 40146 53007 60006 91800 333 10147 20069=
07690,1996-01-03 21:00:00,8,1015.9,1.3,87,6,15000,22.224,,,340,,,,,,,,,,,wg-a,,,,AAXX 03214 07690 32/65 03412 10080 20060 30126 40159 51013 80000 92100=
07690,1996-01-04 00:00:00,8,1015.7,-0.2,76,4,15000,18.52,,,340,,,,,,,,,,,wg-a,,,,AAXX 04004 07690 12/65 03410 10080 20040 30124 40157 58002 60006 80000 90000=
07690,1996-01-04 03:00:00,8,1015.7,0,71,3,15000,25.928,,,330,,,,,,,,,,,wg-a,,,,AAXX 04034 07690 12/65 23314 10080 20030 30124 40157 50000 60006 80001 90300=
07690,1996-01-04 06:00:00,7,1015.8,0.1,66,1,20000,22.224,,,350,7.2,9,,,,,,,,,wg-a,,,,AAXX 04064 07690 12/70 13512 10070 20010 30125 40158 52001 60004 80001 90600 333 10090 20072=
07690,1996-01-04 09:00:00,9,1016.9,1.1,57,1,50000,25.928,,,340,,,,,,,,,,,wg-a,,,,AAXX 04094 07690 12/84 13414 10090 20010 30136 40169 51011 60006 80001 90900=
07690,1996-01-04 12:00:00,13,1015.4,-1.5,44,1,40000,14.816,,,330,,,,,,,,,,,wg-a,,,,AAXX 04124 07690 12/82 33308 10130 20010 30121 40154 58015 60006 80001 91200=
07690,1996-01-04 15:00:00,13,1015.1,-0.3,77,9,500,7.408,,,220,,,,,,,,,,,wg-a,,,,AAXX 04154 07690 12500 52204 10130 20090 30118 40151 55003 60006 81532 91500=
07690,1996-01-04 18:00:00,8,1014.2,-0.9,76,4,20000,14.816,,,340,7,14.8,,,,,,,,,wg-a,,,,AAXX 04184 07690 12/70 33408 10080 20040 30109 40142 56009 60006 80002 91800 333 10148 20070=
07690,1996-01-04 21:00:00,8,1013.4,-0.8,71,3,20000,18.52,,,340,,,,,,,,,,,wg-a,,,,AAXX 04214 07690 12/70 33410 10080 20030 30101 40134 56008 60006 80002 92100=
07690,1996-01-05 00:00:00,7,1012.3,-1.1,70,2,0,18.52,,,320,,,,,,,,,,,wg-a,,,,AAXX 05004 07690 12/// /3210 10070 20020 30090 40123 58011 60006 90000=
07690,1996-01-05 03:00:00,7,1011.1,-1.2,70,2,15000,18.52,,,340,,,,,,,,,,,wg-a,,,,AAXX 05034 07690 12565 53410 10070 20020 30078 40111 56012 60006 81502 90300=
07690,1996-01-05 06:00:00,6,1009.9,-1.2,75,2,15000,18.52,,,330,6.3,8.2,,,,,,,,,wg-a,,,,AAXX 05064 07690 02565 /3310 10060 20020 30066 40099 56012 60006 83502 90600 333 10082 20063 60004=
07690,1996-01-05 09:00:00,7,1009.3,-0.6,70,2,15000,14.816,,,350,,,,,,,,,,,wg-a,,,,AAXX 05094 07690 12565 73508 10070 20020 30060 40093 57006 60006 875// 90900=
07690,1996-01-05 12:00:00,9,1007.8,-1.5,66,3,12000,18.52,,,100,,,,,,,,,,61,wg-a,,,,AAXX 05124 07690 02462 81010 10090 20030 30045 40078 58015 61000 76162 875// 91200 333 6100=
07690,1996-01-05 15:00:00,7,1005.1,-2.7,93,6,3000,14.816,,,350,,,,2,,,,,,61,wg-a,,,,AAXX 05154 07690 12430 83508 10070 20060 30018 40051 56027 60027 76166 8752/ 91500=
07690,1996-01-05 18:00:00,7,1003.5,-1.6,100,7,6000,14.816,,,340,6.2,10.1,,9,,,,,,63,wg-a,,,,AAXX 05184 07690 12456 83408 10070 20070 30002 40035 56016 60097 76366 8552/ 91800 333 10101 20062=
07690,1996-01-05 21:00:00,7,1002.3,-1.2,100,7,6000,18.52,,,20,,,,8,,,,,,61,wg-a,,,,AAXX 05214 07690 12456 80210 10070 20070 39990 40023 58012 60087 76166 875// 92100=
07690,1996-01-06 00:00:00,7,1000.9,-1.4,93,6,7000,18.52,,,10,,,,7,,,,,,63,wg-a,,,,AAXX 06004 07690 02457 80110 10070 20060 39976 40009 58014 60166 76366 885// 90000 333 60077=
07690,1996-01-06 03:00:00,8,1000.1,-0.8,93,7,12000,11.112,,,360,,,,6,,,,,,61,wg-a,,,,AAXX 06034 07690 12562 83606 10080 20070 39968 40001 56008 60067 76166 848// 90300=
07690,1996-01-06 06:00:00,8,1000.5,0.4,93,7,15000,11.112,,,40,6.9,8.2,,1,,,34,,,21,wg-a,,,,AAXX 06064 07690 02465 80406 10080 20070 39972 40005 53004 60344 72162 848// 90600 333 10082 20069 60017=
07690,1996-01-06 09:00:00,9,1002.8,2.3,87,7,10000,14.816,,,330,,,,1,,,,,,60,wg-a,,,,AAXX 06094 07690 12560 83308 10090 20070 39995 40028 53023 60017 76062 8587/ 90900=
07690,1996-01-06 12:00:00,10,1003.2,0.4,87,8,20000,11.112,,,320,,,,,,,,,,3,wg-a,,,,AAXX 06124 07690 02370 83206 10100 20080 39999 40032 51004 60016 70362 8687/ 91200 333 61000=
07690,1996-01-06 15:00:00,10,1003.7,0.6,87,8,18000,7.408,,,330,,,,,,,,,,,wg-a,,,,AAXX 06154 07690 12368 83304 10100 20080 30005 40037 53006 60006 878// 91500=
07690,1996-01-06 18:00:00,10,1004.8,1,87,8,12000,11.112,,,340,8.2,10.1,,,,,,,,,wg-a,,,,AAXX 06184 07690 32362 83406 10100 20080 30015 40048 53010 878// 91800 333 10101 20082=
07690,1996-01-06 21:00:00,10,1006,1.2,87,8,8000,7.408,,,320,,,,,,,,,,,wg-a,,,,AAXX 06214 07690 12358 83204 10100 20080 30027 40060 53012 60006 875// 92100=
07690,1996-01-07 00:00:00,9,1006.8,0.8,100,9,8000,18.52,,,270,,,,1,,,,,,61,wg-a,,,,AAXX 07004 07690 02458 82710 10090 20090 30035 40068 53008 60016 76162 875// 90000 333 60017=
07690,1996-01-07 03:00:00,9,1006,-0.8,100,9,9000,7.408,,,50,,,,5,,,,,,61,wg-a,,,,AAXX 07034 07690 12359 80504 10090 20090 30027 40060 56008 60057 76166 875// 90300=
07690,1996-01-07 06:00:00,9,1004.9,-1.1,93,8,9000,11.112,,,20,8.8,10,,3,,,10,,,61,wg-a,,,,AAXX 07064 07690 02459 80206 10090 20080 30016 40049 56011 60104 76166 8657/ 90600 333 10100 20088 60037=
07690,1996-01-07 09:00:00,9,1004.6,-0.3,93,8,9000,7.408,,,50,,,,4,,,,,,61,wg-a,,,,AAXX 07094 07690 12459 80504 10090 20080 30013 40046 56003 60047 76162 8587/ 90900=
07690,1996-01-07 10:00:00,10,1004.8,1.4,93,9,15000,14.816,,,320,8.7,10.9,,0,,,,,,25,wg-a,,,,AAXX 07104 07690 12465 /3208 10100 20090 30015 40048 51014 60007 72586 83800 91000 333 10109 20087=
07690,1996-01-07 12:00:00,10,1003.3,-1.3,87,8,15000,11.112,,,10,,,,1,,,,,,15,wg-a,,,,AAXX 07124 07690 02465 80106 10100 20080 30000 40033 58013 60046 71562 8687/ 91200 333 60017=
07690,1996-01-07 15:00:00,11,1003.3,0.1,87,9,15000,7.408,,,280,,,,,,,,,,3,wg-a,,,,AAXX 07154 07690 02465 72804 10110 20090 30001 40033 53001 61000 70362 878// 91500 333 ////=
07690,1996-01-07 18:00:00,10,1004.8,1.4,93,9,15000,14.816,,,320,8.7,10.9,,0,,,,,,25,wg-a,,,,AAXX 07184 07690 12465 /3208 10100 20090 30015 40048 51014 60007 72586 83800 91800 333 10109 20087=
07690,1996-01-07 21:00:00,9,1006.8,2,93,8,15000,11.112,,,330,,,,,,,,,,,wg-a,,,,AAXX 07214 07690 12565 73306 10090 20080 30035 40068 52020 60006 875// 92100=
07690,1996-01-08 00:00:00,9,1007.5,0.7,87,7,15000,18.52,,,340,,,,,,,,,,,wg-a,,,,AAXX 08004 07690 12565 /3410 10090 20070 30042 40075 51007 60006 83500 90000=
07690,1996-01-08 03:00:00,8,1007.7,0.2,87,6,15000,18.52,,,320,,,,,,,,,,,wg-a,,,,AAXX 08034 07690 12565 23210 10080 20060 30044 40077 53002 60006 82502 90300=
07690,1996-01-08 09:00:00,9,1011.8,2,76,5,10000,22.224,,,340,,,,,,,,,,,wg-a,,,,AAXX 08094 07690 12/60 /3412 10090 20050 30085 40118 51020 60006 90900=
07690,1996-01-08 12:00:00,15,1012.2,0.5,67,9,40000,3.704,,,230,,,,,,,,,,,wg-a,,,,AAXX 08124 07690 12/82 02302 10150 20090 30090 40122 50005 60006 80000 91200=
07690,1996-01-08 15:00:00,14,1012.6,0.4,77,10,500,7.408,,,210,,,,,,,,,,,wg-a,,,,AAXX 08154 07690 12/00 12104 10140 20100 30094 40126 53004 60006 80001 91500=
07690,1996-01-08 18:00:00,9,1014.3,1.6,81,6,20000,11.112,,,340,7.3,15.3,,,,,,,,,wg-a,,,,AAXX 08184 07690 12/70 13406 10090 20060 30110 40143 53016 60006 80001 91800 333 10153 20073=
07690,1996-01-08 21:00:00,8,1015.8,1.5,81,5,20000,14.816,,,360,,,,,,,,,,,wg-a,,,,AAXX 08214 07690 12/70 03608 10080 20050 30125 40158 51015 60006 80000 92100=
07690,1996-01-09 00:00:00,8,1016.2,0.4,76,4,20000,11.112,,,340,,,,,,,,,,,wg-a,,,,AAXX 09004 07690 12/70 13406 10080 20040 30129 40162 52004 60006 80001 90000=
07690,1996-01-09 03:00:00,8,1016.2,0,76,4,20000,22.224,,,340,,,,,,,,,,,wg-a,,,,AAXX 09034 07690 12470 53412 10080 20040 30129 40162 50000 60006 85501 90300=
07690,1996-01-09 06:00:00,7,1016.7,0.5,76,3,11000,25.928,,,340,6.8,9.4,,,,,,,,,wg-a,,,,AAXX 09064 07690 02/61 /3414 10070 20030 30134 40167 53005 60006 90600 333 10094 20068 60004=
07690,1996-01-09 09:00:00,8,1016.8,0.1,71,3,11000,18.52,,,340,,,,,,,,,,,wg-a,,,,AAXX 09094 07690 12/61 /3410 10080 20030 30135 40168 53001 60006 90900=
07690,1996-01-09 12:00:00,14,1016,-0.7,72,9,500,31.484,,,90,,,,,,,,,,,wg-a,,,,AAXX 09124 07690 12500 /0917 10140 20090 30128 40160 58007 60006 85532 91200=
07690,1996-01-09 15:00:00,14,1014.4,-1.6,72,9,11000,31.484,,,80,,,,,,,,,,,wg-a,,,,AAXX 09154 07690 12/61 /0817 10140 20090 30112 40144 56016 60006 91500=
07690,1996-01-09 18:00:00,13,1013.6,-0.8,67,7,500,42.596,,,80,6.5,14.1,,,,,,,,,wg-a,,,,AAXX 09184 07690 12500 70823 10130 20070 30104 40136 56008 60006 86532 91800 333 10141 20065=
07690,1996-01-09 21:00:00,13,1012.6,-1,67,7,500,29.632,,,60,,,,,,,,,,,wg-a,,,,AAXX 09214 07690 12600 70616 10130 20070 30094 40126 58010 60006 875// 92100=
07690,1996-01-10 00:00:00,15,1011,-1.6,67,9,500,53.708,,,90,,,,,,,,,,,wg-a,,,,AAXX 10004 07690 12400 80929 10150 20090 30078 40110 56016 60006 8587/ 90000=
07690,1996-01-10 03:00:00,15,1010.1,-0.9,63,8,500,46.3,,72.228,80,,,,,,,,,,,wg-a,,,,AAXX 10034 07690 12400 70825 10150 20080 30069 40101 56009 60006 81832 90300 333 91039=
07690,1996-01-10 06:00:00,13,1010.4,0.3,88,11,6000,42.596,,66.672,80,10.8,16,,2,,,2,,,61,wg-a,,,,AAXX 10064 07690 02456 70823 10130 20110 30072 40104 53003 60024 76162 8587/ 90600 333 10160 20108 60027 91036=
07690,1996-01-10 09:00:00,12,1010.4,-0,94,11,8000,14.816,,,60,,,,7,,,,,,61,wg-a,,,,AAXX 10094 07690 12358 70608 10120 20110 30072 40104 55000 60077 76166 8587/ 90900=
07690,1996-01-10 12:00:00,13,1009.9,,88,11,500,29.632,,,80,,,,,,,,,,63,wg-a,,,,AAXX 10124 07690 32300 70816 10130 20110 30068 40099 76362 8587/ 91200=
07690,1996-01-10 15:00:00,12,1010.3,0.4,94,11,4000,25.928,,,80,,,,5,,,,,,63,wg-a,,,,AAXX 10154 07690 12340 80814 10120 20110 30072 40103 53004 60057 76362 8687/ 91500=
07690,1996-01-10 18:00:00,11,1011.7,1.4,94,10,9000,11.112,,,350,10.8,13.6,,5,,,,,,61,wg-a,,,,AAXX 10184 07690 12459 83506 10110 20100 30086 40117 51014 60057 76162 8587/ 91800 333 10136 20108=
07690,1996-01-10 21:00:00,10,1012.6,0.8,93,9,12000,11.112,,,20,,,,2,,,,,,60,wg-a,,,,AAXX 10214 07690 12462 80206 10100 20090 30094 40126 51008 60027 76066 8587/ 92100=
07690,1996-01-11 00:00:00,10,1012.9,0.3,93,9,15000,7.408,,,70,,,,2,,,,,,61,wg-a,,,,AAXX 11004 07690 02465 80704 10100 20090 30097 40129 50003 60046 76166 8382/ 90000 333 60027=
07690,1996-01-11 03:00:00,10,1012.5,-0.4,93,9,15000,7.408,,,360,,,,0,,,,,,3,wg-a,,,,AAXX 11034 07690 12465 83604 10100 20090 30093 40125 56004 60007 70362 8587/ 90300=
07690,1996-01-11 06:00:00,10,1011.4,-1,93,9,15000,11.112,,,330,9.4,10.8,,0,,,22,,,60,wg-a,,,,AAXX 11064 07690 02365 83306 10100 20090 30083 40114 55010 60224 76062 878// 90600 333 10108 20094 60007=
07690,1996-01-11 09:00:00,13,1012.1,0.7,94,12,6000,29.632,,,90,,,,3,,,,,,1,wg-a,,,,AAXX 11094 07690 12456 80916 10130 20120 30090 40121 52007 60037 70162 878// 90900=
07690,1996-01-11 12:00:00,13,1011.4,-0.7,94,12,500,25.928,,53.708,90,,,,1,,,,,,61,wg-a,,,,AAXX 11124 07690 02400 80914 10130 20120 30083 40114 58007 60056 76162 878// 91200 333 60017 91029=
07690,1996-01-11 15:00:00,14,1010.2,-1.2,88,12,8000,35.188,,,90,,,,0,,,,,,1,wg-a,,,,AAXX 11154 07690 12558 80919 10140 20120 30071 40102 55012 60007 70162 878// 91500=
07690,1996-01-11 18:00:00,14,1010.2,0,88,12,10000,31.484,,,90,9.8,14.1,,0,,,,,,21,wg-a,,,,AAXX 11184 07690 12560 80917 10140 20120 30071 40102 50000 60007 72162 875// 91800 333 10141 20098=
07690,1996-01-11 21:00:00,13,1010.5,0.3,100,13,7000,29.632,,,80,,,,7,,,,,,61,wg-a,,,,AAXX 11214 07690 12357 80816 10130 20130 30074 40105 50003 60077 76162 8557/ 92100=
07690,1996-01-12 00:00:00,13,1009.6,-0.9,94,12,9000,22.224,,,90,,,,4,,,,,,61,wg-a,,,,AAXX 12004 07690 02459 80912 10130 20120 30065 40096 56009 60116 76162 875// 90000 333 60047=
07690,1996-01-12 03:00:00,13,1007.6,-2,94,12,10000,31.484,,,80,,,,4,,,,,,61,wg-a,,,,AAXX 12034 07690 12460 80817 10130 20120 30045 40076 58020 60047 76166 8657/ 90300=
07690,1996-01-12 06:00:00,13,1007.4,-0.2,94,12,8000,35.188,,,100,12.9,13.7,,8,,,28,,,61,wg-a,,,,AAXX 12064 07690 02258 81019 10130 20120 30043 40074 55002 60284 76166 875// 90600 333 10137 20129 60087=
07690,1996-01-12 09:00:00,13,1007.9,0.5,94,12,3000,29.632,,,80,,,,6,,,,,,61,wg-a,,,,AAXX 12094 07690 12330 80816 10130 20120 30048 40079 53005 60067 76166 875// 90900=
07690,1996-01-12 12:00:00,13,1007.4,-0.5,94,12,500,29.632,,,90,,,,,,,,,,,wg-a,,,,AAXX 12124 07690 12/00 /0916 10130 20120 30043 40074 58005 60226 91200=
07690,1996-01-12 15:00:00,11,1007.7,0.3,94,10,12000,11.112,,,350,,,,1,,,,,,1,wg-a,,,,AAXX 12154 07690 12662 83506 10110 20100 30046 40077 53003 60017 70162 8457/ 91500=
07690,1996-01-13 00:00:00,15,1010.7,1.1,77,11,20000,25.928,,,70,,,,,,,,,,,wg-a,,,,AAXX 13004 07690 12570 70714 10150 20110 30076 40107 52011 60006 8483/ 90000=
07690,1996-01-13 03:00:00,11,1011.7,1,87,9,20000,14.816,,,340,,,,,,,,,,,wg-a,,,,AAXX 13034 07690 12570 73408 10110 20090 30086 40117 51010 60006 8353/ 90300=
07690,1996-01-13 06:00:00,11,1012.6,0.9,82,8,20000,14.816,,,340,10.4,15.3,,,,,24,,,,wg-a,,,,AAXX 13064 07690 02670 73408 10110 20080 30095 40126 52009 60006 82530 90600 333 10153 20104 60244=
07690,1996-01-13 09:00:00,12,1014.7,2.1,82,9,35000,14.816,,,340,,,,,,,,,,,wg-a,,,,AAXX 13094 07690 12681 73408 10120 20090 30116 40147 51021 60006 8257/ 90900=
07690,1996-01-13 12:00:00,17,1015.2,0.5,63,10,35000,18.52,,,80,,,,,,,,,,,wg-a,,,,AAXX 13124 07690 12681 70810 10170 20100 30121 40152 51005 60006 81572 91200=
07690,1996-01-13 15:00:00,15,1015.9,0.7,77,11,500,22.224,,50.004,90,,,,,,,,,,,wg-a,,,,AAXX 13154 07690 12600 70912 10150 20110 30128 40159 53007 60006 8353/ 91500 333 91027=
07690,1996-01-13 18:00:00,14,1017.5,1.6,82,11,20000,14.816,,,60,11.2,17.4,,,,,,,,,wg-a,,,,AAXX 13184 07690 12770 40608 10140 20110 30144 40175 51016 60006 81530 91800 333 10174 20112=
07690,1996-01-13 21:00:00,11,1018.6,1,87,9,10000,14.816,,,340,,,,,,,,,,,wg-a,,,,AAXX 13214 07690 12/60 /3408 10110 20090 30154 40186 51010 60006 92100=
07690,1996-01-14 00:00:00,11,1019,0.4,87,9,20000,14.816,,,340,,,,,,,,,,,wg-a,,,,AAXX 14004 07690 12/70 53408 10110 20090 30158 40190 52004 60006 80002 90000=
07690,1996-01-14 03:00:00,11,1019,-0,87,9,20000,14.816,,,340,,,,,,,,,,,wg-a,,,,AAXX 14034 07690 12/70 43408 10110 20090 30158 40190 55000 60006 80002 90300=
07690,1996-01-14 06:00:00,10,1019.4,0.4,87,8,10000,14.816,,,340,10.2,14.3,,,,,,,,,wg-a,,,,AAXX 14064 07690 02/60 /3408 10100 20080 30162 40194 53004 60006 90600 333 10143 20102 60004=
07690,1996-01-14 09:00:00,11,1021.2,1.8,82,8,35000,18.52,,,340,,,,,,,,,,14,wg-a,,,,AAXX 14094 07690 12581 73410 10110 20080 30180 40212 51018 60006 71411 81530 90900=
07690,1996-01-14 12:00:00,14,1020.9,-0.2,67,8,500,11.112,,,80,,,,,,,,,,,wg-a,,,,AAXX 14124 07690 12500 /0806 10140 20080 30178 40209 58002 60006 81830 91200=
07690,1996-01-14 15:00:00,14,1021,0.1,77,10,25000,14.816,,,80,,,,,,,,,,1,wg-a,,,,AAXX 14154 07690 02575 70808 10140 20100 30179 40210 53001 61000 70186 8183/ 91500 333 ////=
07690,1996-01-14 18:00:00,12,1022.1,1,82,9,20000,11.112,,,340,10,14.8,,,,,,,,3,wg-a,,,,AAXX 14184 07690 32770 53406 10120 20090 30189 40221 53010 70386 8253/ 91800 333 10148 20100=
07690,1996-01-14 21:00:00,11,1023.3,1.1,82,8,20000,11.112,,,340,,,,,,,,,,,wg-a,,,,AAXX 14214 07690 12770 /3406 10110 20080 30200 40233 51011 60006 8253/ 92100=
07690,1996-01-15 00:00:00,10,1023.1,-0.2,82,7,15000,18.52,,,340,,,,,,,,,,,wg-a,,,,AAXX 15004 07690 12/65 03410 10100 20070 30198 40231 58002 60006 80000 90000=
07690,1996-01-15 06:00:00,8,1024,0.5,87,6,10000,14.816,,,330,,,,,,,,,,,wg-a,,,,AAXX 15064 07690 02/60 /3308 10080 20060 30207 40240 53005 60006 90600 333 61000=
07690,1996-01-15 09:00:00,9,1024.8,0.9,76,5,25000,18.52,,,340,,,,,,,,,,,wg-a,,,,AAXX 15094 07690 12/75 03410 10090 20050 30216 40248 51009 60006 80000 90900=
07690,1996-01-15 12:00:00,13,1025.3,0.4,67,7,11000,11.112,,,120,,,,,,,,,,,wg-a,,,,AAXX 15124 07690 12/61 /1206 10130 20070 30220 40253 50004 60006 91200=
07690,1996-01-15 15:00:00,13,1025.1,-0.2,77,9,9000,14.816,,,120,,,,,,,,,,,wg-a,,,,AAXX 15154 07690 12459 71208 10130 20090 30218 40251 55002 60006 878// 91500=
07690,1996-01-15 18:00:00,12,1025.8,0.7,82,9,10000,7.408,,,310,,,,,,,,,,,wg-a,,,,AAXX 15184 07690 12460 73104 10120 20090 30225 40258 53007 60006 875// 91800=
07690,1996-01-15 21:00:00,12,1026.1,0.3,82,9,11000,11.112,,,300,,,,,,,,,,,wg-a,,,,AAXX 15214 07690 12/61 /3006 10120 20090 30228 40261 53003 60006 92100=
07690,1996-01-16 00:00:00,12,1026.4,0.4,88,10,12000,11.112,,,330,,,,,,,,,,,wg-a,,,,AAXX 16004 07690 12462 73306 10120 20100 30232 40264 51004 60006 875// 90000=
07690,1996-01-16 03:00:00,10,1026.6,0.2,76,6,12000,11.112,,,340,,,,,,,,,,,wg-a,,,,AAXX 16034 07690 12462 73406 10100 20060 30234 40266 50002 60006 875// 90300=
07690,1996-01-16 06:00:00,10,1026.8,0.2,76,6,12000,11.112,,,340,9.9,,,,,,,,,,wg-a,,,,AAXX 16064 07690 02462 73406 10100 20060 30236 40268 53002 60006 875// 90600 333 20099 60004=
07690,1996-01-16 09:00:00,10,1028.3,1.5,76,6,8000,14.816,,,330,,,,,,,,,,,wg-a,,,,AAXX 16094 07690 12558 73308 10100 20060 30251 40283 51015 60006 875// 90900=
07690,1996-01-16 12:00:00,12,1027.7,-0.6,82,9,10000,11.112,,,260,,,,,,,,,,,wg-a,,,,AAXX 16124 07690 12560 /2606 10120 20090 30245 40277 58006 60006 85800 91200=
07690,1996-01-16 15:00:00,13,1027.1,-0.6,77,9,12000,11.112,,,200,,,,,,,,,,,wg-a,,,,AAXX 16154 07690 12562 22006 10130 20090 30239 40271 55006 60006 82801 91500=
07690,1996-01-16 18:00:00,12,1027.7,0.6,71,7,15000,11.112,,,120,10,11.7,,,,,,,,,wg-a,,,,AAXX 16184 07690 12565 71206 10120 20070 30245 40277 51006 60006 87500 91800 333 10117 20100=
07690,1996-01-16 21:00:00,9,1028.7,1,93,8,15000,11.112,,,330,,,,,,,,,,,wg-a,,,,AAXX 16214 07690 12565 23306 10090 20080 30255 40287 51010 60006 82500 92100=
07690,1996-01-17 00:00:00,8,1028.4,-0.3,81,5,12000,11.112,,,350,,,,,,,,,,,wg-a,,,,AAXX 17004 07690 12562 23506 10080 20050 30252 40284 58003 60006 82500 90000=
07690,1996-01-17 03:00:00,8,1028,-0.4,76,4,15000,11.112,,,350,,,,,,,,,,,wg-a,,,,AAXX 17034 07690 12565 /3506 10080 20040 30248 40280 56004 60006 81500 90300=
07690,1996-01-17 06:00:00,7,1027.9,-0.1,76,3,15000,11.112,,,360,6.7,11.7,,,,,,,,,wg-a,,,,AAXX 17064 07690 02/65 /3606 10070 20030 30247 40279 55001 60006 80000 90600 333 10117 20067 60004=
07690,1996-01-17 09:00:00,8,1028.6,0.7,66,2,50000,22.224,,,340,,,,,,,,,,,wg-a,,,,AAXX 17094 07690 12/84 13412 10080 20020 30254 40286 51007 60006 80001 90900=
07690,1996-01-17 12:00:00,13,1028,-0.6,35,-2,50000,7.408,,,70,,,,,,,,,,,wg-a,,,,AAXX 17124 07690 12/84 20704 10130 21020 30248 40280 58006 60006 80001 91200=
07690,1996-01-17 15:00:00,14,1026.8,-1.2,41,1,40000,14.816,,,100,,,,,,,,,,,wg-a,,,,AAXX 17154 07690 12/82 /1008 10140 20010 30236 40268 56012 60006 80004 91500=
07690,1996-01-17 18:00:00,8,1026.6,-0.2,71,3,20000,18.52,,,330,6.4,14.5,,,,,,,,,wg-a,,,,AAXX 17184 07690 12/70 23310 10080 20030 30234 40266 56002 60006 80001 91800 333 10145 20064=
07690,1996-01-17 21:00:00,7,1026.4,-0.2,61,0,20000,14.816,,,350,,,,,,,,,,,wg-a,,,,AAXX 17214 07690 12/70 23508 10070 20000 30232 40264 56002 60006 80001 92100=
07690,1996-01-18 00:00:00,6,1026.3,-0.1,65,0,20000,18.52,,,330,,,,,,,,,,,wg-a,,,,AAXX 18004 07690 12/70 23310 10060 20000 30231 40263 55001 60006 80001 90000=
07690,1996-01-18 03:00:00,5,1025.4,-1,65,-1,20000,25.928,,,340,,,,,,,,,,,wg-a,,,,AAXX 18034 07690 12/70 03414 10050 21010 30221 40254 58010 60006 80000 90300=
07690,1996-01-18 06:00:00,5,1024.6,-0.8,60,-2,20000,29.632,,,320,4.8,8.2,,,,,,,,,wg-a,,,,AAXX 18064 07690 02/70 03216 10050 21020 30213 40246 56008 60006 80000 90600 333 10082 20048 60004=
07690,1996-01-18 09:00:00,6,1024.9,0.4,56,-2,50000,25.928,,,340,,,,,,,,,,,wg-a,,,,AAXX 18094 07690 12/84 13414 10060 21020 30217 40249 53004 60006 80002 90900=
07690,1996-01-18 12:00:00,13,1023.1,-1.8,44,1,50000,18.52,,,80,,,,,,,,,,,wg-a,,,,AAXX 18124 07690 12/84 10810 10130 20010 30199 40231 58018 60006 80002 91200=
07690,1996-01-18 15:00:00,13,1021.6,-1.5,47,2,50000,14.816,,,100,,,,,,,,,,,wg-a,,,,AAXX 18154 07690 12/84 11008 10130 20020 30184 40216 56015 60006 80002 91500=
07690,1996-01-18 18:00:00,7,1021.3,-0.3,76,3,50000,14.816,,,330,4.5,13.4,,,,,,,,,wg-a,,,,AAXX 18184 07690 12/84 13308 10070 20030 30181 40213 55003 60006 80002 91800 333 10134 20045=
07690,1996-01-18 21:00:00,6,1021,-0.3,70,1,500,18.52,,,330,,,,,,,,,,,wg-a,,,,AAXX 18214 07690 12/00 03310 10060 20010 30178 40210 58003 60006 80000 92100=
07690,1996-01-19 00:00:00,5,1020.4,-0.6,70,0,500,22.224,,,340,,,,,,,,,,,wg-a,,,,AAXX 19004 07690 12/00 03412 10050 20000 30172 40204 56006 60006 80000 90000=
07690,1996-01-19 03:00:00,4,1019,-1.4,70,-1,500,25.928,,,330,,,,,,,,,,,wg-a,,,,AAXX 19034 07690 12500 13314 10040 21010 30158 40190 58014 60006 81500 90300=
07690,1996-01-19 06:00:00,4,1017.8,-1.2,70,-1,500,25.928,,,340,3.7,7.4,,,,,,,,,wg-a,,,,AAXX 19064 07690 02500 13414 10040 21010 30146 40178 56012 60006 81500 90600 333 10074 20037 60004=
07690,1996-01-19 09:00:00,6,1017.7,-0.1,56,-2,40000,22.224,,,340,,,,,,,,,,,wg-a,,,,AAXX 19094 07690 12582 /3412 10060 21020 30145 40177 55001 60006 81531 90900=
07690,1996-01-19 12:00:00,11,1016.3,-1.4,54,2,40000,7.408,,,210,,,,,,,,,,,wg-a,,,,AAXX 19124 07690 12582 /2104 10110 20020 30131 40163 58014 60006 81531 91200=
07690,1996-01-19 18:00:00,8,1014.7,-0.1,81,5,15000,11.112,,,330,3.6,12.2,,,,,,,,,wg-a,,,,AAXX 19184 07690 12565 /3306 10080 20050 30115 40147 55001 60006 81500 91800 333 10122 20036=
07690,1996-01-19 21:00:00,7,1014.7,-0,76,3,15000,22.224,,,340,,,,,,,,,,,wg-a,,,,AAXX 19214 07690 12565 /3412 10070 20030 30115 40147 55000 60006 81500 92100=
07690,1996-01-20 00:00:00,6,1014.1,-0.6,75,2,20000,22.224,,,320,,,,,,,,,,,wg-a,,,,AAXX 20004 07690 12/70 /3212 10060 20020 30109 40141 58006 60006 80000 90000=
07690,1996-01-20 03:00:00,6,1013.3,-0.8,70,1,20000,18.52,,,320,,,,,,,,,,,wg-a,,,,AAXX 20034 07690 12570 33210 10060 20010 30101 40133 56008 60006 83500 90300=
07690,1996-01-20 06:00:00,6,1012.8,-0.5,65,0,20000,14.816,,,330,5.5,7.4,,,,,,,,,wg-a,,,,AAXX 20064 07690 02570 /3308 10060 20000 30096 40128 57005 60006 83500 90600 333 10074 20055 60004=
07690,1996-01-20 09:00:00,7,1013.3,0.5,57,-1,500,22.224,,,340,,,,,,,,,,,wg-a,,,,AAXX 20094 07690 12500 73412 10070 21010 30101 40133 53005 60006 878// 90900=
07690,1996-01-20 12:00:00,8,1013,-0.3,57,0,12000,18.52,,,340,,,,,,,,,,,wg-a,,,,AAXX 20124 07690 12562 73410 10080 20000 30098 40130 58003 60006 878// 91200=
07690,1996-01-20 15:00:00,10,1013.1,0.1,87,8,9000,22.224,,,100,,,,0,,,,,,60,wg-a,,,,AAXX 20154 07690 12559 81012 10100 20080 30099 40131 53001 60007 76062 8587/ 91500=
07690,1996-01-20 18:00:00,8,1014,0.9,76,4,10000,11.112,,,340,5.6,11.2,,,,,,,,21,wg-a,,,,AAXX 20184 07690 02560 83406 10080 20040 30108 40140 53009 61000 72162 8557/ 91800 333 10112 20056 ////=
07690,1996-01-20 21:00:00,7,1015.5,1.5,93,6,9000,14.816,,,340,,,,1,,,,,,61,wg-a,,,,AAXX 20214 07690 12559 83408 10070 20060 30123 40155 51015 60017 76162 8657/ 92100=
07690,1996-01-21 00:00:00,7,1016.1,0.6,93,6,13000,14.816,,,310,,,,2,,,,,,21,wg-a,,,,AAXX 21004 07690 02563 83108 10070 20060 30129 40161 51006 60036 72162 8657/ 90000 333 60027=
07690,1996-01-21 03:00:00,7,1015.9,-0.2,87,5,15000,14.816,,,320,,,,,,,,,,,wg-a,,,,AAXX 21034 07690 12565 /3208 10070 20050 30127 40159 56002 60006 84530 90300=
07690,1996-01-21 06:00:00,7,1016,0.1,87,5,15000,14.816,,,320,6.6,7.7,,,,,3,,,,wg-a,,,,AAXX 21064 07690 12565 73208 10070 20050 30128 40160 50001 60034 8457/ 90600 333 10077 20066=
07690,1996-01-21 09:00:00,8,1017.5,1.5,81,5,35000,18.52,,,330,,,,,,,,,,,wg-a,,,,AAXX 21094 07690 12681 73310 10080 20050 30143 40175 52015 60006 875// 90900=
07690,1996-01-21 12:00:00,13,1016.8,-0.6,67,7,25000,25.928,,,80,,,,,,,,,,,wg-a,,,,AAXX 21124 07690 12675 70814 10130 20070 30137 40168 58006 60006 8687/ 91200=
07690,1996-01-21 15:00:00,13,1016.4,-0.4,67,7,25000,29.632,,,80,,,,,,,,,,3,wg-a,,,,AAXX 21154 07690 02675 70816 10130 20070 30133 40164 56004 61000 70362 8482/ 91500 333 ////=
07690,1996-01-21 18:00:00,10,1017.4,0.9,87,8,15000,22.224,,,90,7.2,12.8,,0,,,,,,61,wg-a,,,,AAXX 21184 07690 12465 70912 10100 20080 30142 40174 53009 60007 76162 8557/ 91800 333 10128 20072=
07690,1996-01-21 21:00:00,9,1017.7,0.3,93,8,12000,11.112,,,310,,,,1,,,,,,61,wg-a,,,,AAXX 21214 07690 12562 83106 10090 20080 30145 40177 53003 60017 76166 8557/ 92100=
07690,1996-01-22 00:00:00,9,1017.7,0.3,93,8,12000,11.112,,,310,,,,1,,,,,,61,wg-a,,,,AAXX 22004 07690 12562 83106 10090 20080 30145 40177 53003 60017 76166 8557/ 90000=
07690,1996-01-22 03:00:00,9,1016.9,-0.6,87,7,15000,11.112,,,320,,,,,,,,,,21,wg-a,,,,AAXX 22034 07690 02565 83206 10090 20070 30137 40169 58006 61000 72162 875// 90300 333 ////=
07690,1996-01-22 06:00:00,9,1015.9,-1,87,7,15000,11.112,,,320,8.6,10.3,,0,,,2,,,3,wg-a,,,,AAXX 22064 07690 02665 73206 10090 20070 30127 40159 56010 60024 70361 875// 90600 333 10103 20086 60007=
07690,1996-01-22 09:00:00,10,1016.3,0.4,82,7,500,11.112,,,340,,,,,,,,,,,wg-a,,,,AAXX 22094 07690 12500 73406 10100 20070 30131 40163 50004 60006 8757/ 90900=
07690,1996-01-22 12:00:00,13,1015.4,-0.8,77,9,500,35.188,,,90,,,,,,,,,,,wg-a,,,,AAXX 22124 07690 12500 70919 10130 20090 30123 40154 58008 60006 8757/ 91200=
07690,1996-01-22 15:00:00,13,1014,-1.4,72,8,500,31.484,,,80,,,,,,,,,,,wg-a,,,,AAXX 22154 07690 12500 70817 10130 20080 30109 40140 58014 60006 8757/ 91500=
07690,1996-01-22 18:00:00,13,1014.5,0.5,77,9,25000,35.188,,,60,8.8,13.4,,,,,,,,,wg-a,,,,AAXX 22184 07690 12575 70619 10130 20090 30114 40145 53005 60006 8757/ 91800 333 10134 20088=
07690,1996-01-22 21:00:00,13,1013.9,-0.6,72,8,25000,38.892,,,60,,,,,,,,,,,wg-a,,,,AAXX 22214 07690 12575 70621 10130 20080 30108 40139 58006 60006 8257/ 92100=
07690,1996-01-23 00:00:00,10,1014.2,0.2,93,9,15000,14.816,,,350,,,,1,,,,,,61,wg-a,,,,AAXX 23004 07690 02565 83508 10100 20090 30110 40142 50002 60016 76162 8257/ 90000 333 60017=
07690,1996-01-23 03:00:00,10,1013,-1.2,87,8,20000,7.408,,,310,,,,,,,,,,2,wg-a,,,,AAXX 23034 07690 02570 83104 10100 20080 30098 40130 57012 61000 70262 8557/ 90300 333 ////=
07690,1996-01-23 06:00:00,12,1012.1,-0.8,82,9,20000,29.632,,,90,9.6,13.3,,,,,1,,,1,wg-a,,,,AAXX 23064 07690 12670 80916 10120 20090 30090 40121 58008 60014 70162 8557/ 90600 333 10133 20096=
07690,1996-01-23 09:00:00,13,1012.6,0.5,82,10,15000,29.632,,,80,,,,1,,,,,,60,wg-a,,,,AAXX 23094 07690 12565 80816 10130 20100 30095 40126 53005 60017 76062 8657/ 90900=
07690,1996-01-23 12:00:00,12,1012.4,-0.2,88,10,6000,22.224,,,100,,,,4,,,,,,63,wg-a,,,,AAXX 23124 07690 02456 81012 10120 20100 30093 40124 55002 60056 76362 878// 91200 333 60047=
07690,1996-01-23 15:00:00,12,1009.1,-3.3,82,9,15000,11.112,,,20,,,,1,,,,,,21,wg-a,,,,AAXX 23154 07690 12465 80206 10120 20090 30060 40091 56033 60017 72162 878// 91500=
07690,1996-01-23 18:00:00,10,1009.3,0.2,93,9,10000,11.112,,,360,9.7,12.9,,7,,,,,,61,wg-a,,,,AAXX 23184 07690 12360 83606 10100 20090 30062 40093 50002 60077 76162 878// 91800 333 10129 20097=
07690,1996-01-23 21:00:00,12,1008.1,-1.2,82,9,11000,18.52,,,40,,,,,,,,,,,wg-a,,,,AAXX 23214 07690 32/61 /0410 10120 20090 30050 40081 56012 92100=
07690,1996-01-24 00:00:00,10,1006.6,-1.5,93,9,8000,22.224,,,40,,,,10,,,,,,63,wg-a,,,,AAXX 24004 07690 02458 80412 10100 20090 30035 40066 58015 60126 76366 888// 90000 333 60107=
07690,1996-01-24 03:00:00,9,1006.1,-0.5,93,8,10000,11.112,,,350,,,,7,,,,,,63,wg-a,,,,AAXX 24034 07690 12460 83506 10090 20080 30030 40061 57005 60077 76366 888// 90300=
07690,1996-01-24 06:00:00,8,1006.2,-0,93,7,10000,7.408,,,360,8.1,11.6,,4,,,36,,,63,wg-a,,,,AAXX 24064 07690 02460 83604 10080 20070 30030 40062 55000 60364 76366 888// 90600 333 10116 20081 60047=
07690,1996-01-24 09:00:00,8,1007,0.8,100,8,10000,18.52,,,40,,,,5,,,,,,63,wg-a,,,,AAXX 24094 07690 12560 80410 10080 20080 30038 40070 53008 60057 76366 8587/ 90900=
07690,1996-01-24 12:00:00,10,1006.1,-0.8,87,8,20000,7.408,,,40,,,,0,,,,,,1,wg-a,,,,AAXX 24124 07690 02570 70404 10100 20080 30030 40061 58008 60056 70162 8587/ 91200 333 60007=
07690,1996-01-24 15:00:00,10,1005.2,-0.9,87,8,12000,7.408,,,340,,,,0,,,,,,3,wg-a,,,,AAXX 24154 07690 12562 73404 10100 20080 30021 40052 56009 60007 70362 8587/ 91500=
07690,1996-01-24 18:00:00,10,1004.7,-0.5,87,8,15000,11.112,,,20,8.1,10.4,,0,,,,,,1,wg-a,,,,AAXX 24184 07690 12565 /0206 10100 20080 30016 40047 58005 60007 70162 84870 91800 333 10104 20081=
07690,1996-01-24 21:00:00,9,1005.1,0.4,93,8,12000,11.112,,,350,,,,3,,,,,,61,wg-a,,,,AAXX 24214 07690 12262 83506 10090 20080 30020 40051 50004 60037 76162 8587/ 92100=
07690,1996-01-25 00:00:00,9,1004.9,-0.2,93,8,11000,7.408,,,20,,,,7,,,,,,61,wg-a,,,,AAXX 25004 07690 02461 80204 10090 20080 30018 40049 58002 60106 76162 8582/ 90000 333 60077=
07690,1996-01-25 03:00:00,9,1004,-0.9,93,8,9000,7.408,,,20,,,,1,,,,,,61,wg-a,,,,AAXX 25034 07690 12459 80204 10090 20080 30009 40040 58009 60017 76162 8787/ 90300=
07690,1996-01-25 06:00:00,8,1002.9,-1.1,100,8,12000,7.408,,,360,8.1,9.4,,6,,,23,,,61,wg-a,,,,AAXX 25064 07690 02462 83604 10080 20080 39998 40029 56011 60234 76162 8687/ 90600 333 10094 20081 60067=
07690,1996-01-25 09:00:00,8,1004.8,1.8,93,7,8000,12.964,,,330,,,,5,,,,,,61,wg-a,,,,AAXX 25094 07690 12358 83307 10080 20070 30016 40048 53018 60057 76166 878// 90900=
07690,1996-01-25 12:00:00,10,1004.5,-0.2,87,8,20000,11.112,,,340,,,,0,,,,,,3,wg-a,,,,AAXX 25124 07690 02470 73406 10100 20080 30014 40045 58002 60066 70362 878// 91200 333 60007=
07690,1996-01-25 15:00:00,12,1004.3,-0.2,82,9,20000,18.52,,,100,,,,,,,,,,,wg-a,,,,AAXX 25154 07690 12470 71010 10120 20090 30012 40043 56002 60006 878// 91500=
07690,1996-01-25 18:00:00,12,1005.3,1,82,9,20000,22.224,,,60,8,12.4,,,,,,,,,wg-a,,,,AAXX 25184 07690 32470 80612 10120 20090 30022 40053 51010 878// 91800 333 10124 20080=
07690,1996-01-25 21:00:00,10,1007.2,1.9,93,9,10000,14.816,,,30,,,,12,,,,,,63,wg-a,,,,AAXX 25214 07690 12460 80308 10100 20090 30041 40072 51019 60127 76362 8682/ 92100=
07690,1996-01-26 00:00:00,9,1007,-0.3,87,7,10000,14.816,,,30,,,,3,,,,,,61,wg-a,,,,AAXX 26004 07690 02460 /0308 10090 20070 30038 40070 58003 60166 76162 8582/ 90000 333 60037=
07690,1996-01-26 03:00:00,8,1006.6,-0.4,87,6,11000,14.816,,,340,,,,,,,,,,,wg-a,,,,AAXX 26034 07690 32/61 /3408 10080 20060 30034 40066 57004 90300=
07690,1996-01-26 06:00:00,8,1007.1,0.5,87,6,10000,14.816,,,350,7.8,12,,0,,,21,,,61,wg-a,,,,AAXX 26064 07690 02460 83508 10080 20060 30039 40071 53005 60214 76162 878// 90600 333 10120 20078 60007=
07690,1996-01-26 09:00:00,9,1008.5,1.4,81,6,40000,14.816,,,340,,,,,,,,,,1,wg-a,,,,AAXX 26094 07690 02582 /3408 10090 20060 30053 40085 53014 61000 70162 86800 90900 333 ////=
07690,1996-01-26 12:00:00,11,1008.3,-0.1,76,7,25000,11.112,,,320,,,,,,,,,,1,wg-a,,,,AAXX 26124 07690 02575 /3206 10110 20070 30052 40083 58001 61000 70162 83832 91200 333 ////=
07690,1996-01-26 15:00:00,13,1007.8,-0.5,77,9,25000,11.112,,,190,,,,,,,,,,,wg-a,,,,AAXX 26154 07690 12575 /1906 10130 20090 30047 40078 56005 60006 82502 91500=
07690,1996-01-26 18:00:00,11,1009.2,1.4,87,9,11000,11.112,,,270,7.8,13.7,,,,,,,,,wg-a,,,,AAXX 26184 07690 32461 /2706 10110 20090 30061 40092 53014 85800 91800 333 10137 20078=
07690,1996-01-26 21:00:00,9,1010.3,1,93,8,15000,14.816,,,320,,,,,,,,,,,wg-a,,,,AAXX 26214 07690 12565 /3208 10090 20080 30071 40103 53010 60006 81500 92100=
07690,1996-01-27 00:00:00,8,1010.9,0.6,87,6,20000,14.816,,,350,,,,,,,,,,,wg-a,,,,AAXX 27004 07690 12/70 03508 10080 20060 30077 40109 51006 60006 80000 90000=
07690,1996-01-27 03:00:00,7,1011.2,0.3,87,5,20000,18.52,,,340,,,,,,,,,,,wg-a,,,,AAXX 27034 07690 12/70 03410 10070 20050 30080 40112 50003 60006 80000 90300=
07690,1996-01-27 06:00:00,6,1012,0.8,87,4,20000,14.816,,,340,6.3,10.9,,,,,,,,,wg-a,,,,AAXX 27064 07690 12570 13408 10060 20040 30088 40120 53008 60004 81501 90600 333 10109 20063=
07690,1996-01-27 09:00:00,8,1014,2,76,4,50000,18.52,,,350,,,,,,,,,,,wg-a,,,,AAXX 27094 07690 12584 /3510 10080 20040 30108 40140 51020 60006 81531 90900=
07690,1996-01-27 12:00:00,11,1013.8,-0.2,66,5,40000,7.408,,,350,,,,,,,,,,,wg-a,,,,AAXX 27124 07690 12582 /3504 10110 20050 30106 40138 58002 60006 81132 91200=
07690,1996-01-27 15:00:00,12,1013.8,0.1,76,8,500,7.408,,,120,,,,,,,,,,,wg-a,,,,AAXX 27154 07690 12500 51204 10120 20080 30107 40138 53001 60006 81232 91500=
07690,1996-01-27 18:00:00,11,1014.9,1.1,82,8,15000,11.112,,,40,6.4,13.9,,,,,,,,,wg-a,,,,AAXX 27184 07690 12465 70406 10110 20080 30118 40149 53011 60006 8113/ 91800 333 10139 20064=
07690,1996-01-27 21:00:00,8,1016,1,87,6,15000,14.816,,,340,,,,,,,,,,,wg-a,,,,AAXX 27214 07690 12/65 53408 10080 20060 30128 40160 51010 60006 85050 92100=
07690,1996-01-28 00:00:00,8,1015.8,-0.2,81,5,15000,11.112,,,350,,,,,,,,,,,wg-a,,,,AAXX 28004 07690 12765 43506 10080 20050 30126 40158 58002 60006 83530 90000=
07690,1996-01-28 03:00:00,8,1015.5,-0.3,76,4,15000,14.816,,,340,,,,,,,,,,,wg-a,,,,AAXX 28034 07690 12765 63408 10080 20040 30123 40155 58003 60006 86500 90300=
07690,1996-01-28 06:00:00,8,1015,-0.5,76,4,15000,14.816,,,340,7.5,11.4,,,,,,,,,wg-a,,,,AAXX 28064 07690 02665 73408 10080 20040 30118 40150 56005 60006 875// 90600 333 10114 20075 60004=
07690,1996-01-28 09:00:00,8,1014.9,-0.1,76,4,40000,18.52,,,340,,,,,,,,,,,wg-a,,,,AAXX 28094 07690 12582 73410 10080 20040 30117 40149 58001 60006 8487/ 90900=
07690,1996-01-28 12:00:00,8,1014.3,-0.6,87,6,15000,22.224,,,340,,,,1,,,,,,61,wg-a,,,,AAXX 28124 07690 02465 83412 10080 20060 30111 40143 58006 60016 76162 8387/ 91200 333 60017=
07690,1996-01-28 15:00:00,10,1012.4,-1.9,82,7,500,14.816,,,20,,,,0,,,,,,3,wg-a,,,,AAXX 28154 07690 12400 80208 10100 20070 30092 40124 56019 60007 70362 8387/ 91500=
07690,1996-01-28 18:00:00,9,1012.5,0.1,87,7,10000,14.816,,,340,7.5,10.2,,1,,,,,,61,wg-a,,,,AAXX 28184 07690 12360 83408 10090 20070 30093 40125 53001 60017 76162 8387/ 91800 333 10102 20075=
07690,1996-01-29 00:00:00,9,1012.4,-0.6,87,7,14000,18.52,,,30,,,,6,,,,,,61,wg-a,,,,AAXX 29004 07690 02464 80310 10090 20070 30092 40124 58006 60096 76166 8682/ 90000 333 60067=
07690,1996-01-29 03:00:00,9,1011.6,-0.8,81,6,11000,14.816,,,20,,,,,,,,,,,wg-a,,,,AAXX 29034 07690 32/61 /0208 10090 20060 30084 40116 56008 90300=
07690,1996-01-29 06:00:00,9,1011.4,-0.2,81,6,15000,14.816,,,10,8,9.3,,0,,,13,,,1,wg-a,,,,AAXX 29064 07690 02465 80108 10090 20060 30082 40114 55002 60134 70162 8687/ 90600 333 10093 20080 60007=
07690,1996-01-29 09:00:00,9,1012.5,1.1,81,6,500,14.816,,,340,,,,,,,,,,,wg-a,,,,AAXX 29094 07690 12500 83408 10090 20060 30093 40125 53011 60006 878// 90900=
07690,1996-01-29 12:00:00,14,1011.6,-0.8,67,8,40000,31.484,,,80,,,,,,,,,,,wg-a,,,,AAXX 29124 07690 12582 70817 10140 20080 30085 40116 58008 60006 878// 91200=
07690,1996-01-29 15:00:00,14,1010.3,-1.3,63,7,40000,31.484,,,100,,,,,,,,,,,wg-a,,,,AAXX 29154 07690 12582 71017 10140 20070 30072 40103 55013 60006 8257/ 91500=
07690,1996-01-29 18:00:00,11,1011.5,1.2,82,8,20000,3.704,,,40,8.7,14.4,,,,,,,,,wg-a,,,,AAXX 29184 07690 12570 70402 10110 20080 30084 40115 53012 60006 8157/ 91800 333 10144 20087=
07690,1996-01-29 21:00:00,10,1012,0.5,87,8,20000,14.816,,,30,,,,0,,,,,,21,wg-a,,,,AAXX 29214 07690 12470 70308 10100 20080 30089 40120 50005 60007 72162 8357/ 92100=
07690,1996-01-30 00:00:00,10,1012.2,0.1,76,6,11000,25.928,,,80,,,,,,,,,,,wg-a,,,,AAXX 30004 07690 12/61 /0814 10100 20060 30090 40122 50001 60006 90000=
07690,1996-01-30 03:00:00,8,1011.7,-0.5,81,5,20000,22.224,,,340,,,,,,,,,,,wg-a,,,,AAXX 30034 07690 12570 33412 10080 20050 30085 40117 58005 60006 81501 90300=
07690,1996-01-30 06:00:00,8,1011.8,0.1,76,4,20000,22.224,,,340,7.7,13,,,,,,,,,wg-a,,,,AAXX 30064 07690 12/70 13412 10080 20040 30086 40118 53001 60004 81030 90600 333 10130 20077=
07690,1996-01-30 09:00:00,10,1013.4,1.6,66,4,50000,22.224,,,340,,,,,,,,,,,wg-a,,,,AAXX 30094 07690 12/84 33412 10100 20040 30102 40134 52016 60006 83031 90900=
07690,1996-01-30 12:00:00,16,1012.7,-0.6,51,6,40000,3.704,,,130,,,,,,,,,,,wg-a,,,,AAXX 30124 07690 12/82 11302 10160 20060 30096 40127 58006 60006 81031 91200=
07690,1996-01-30 15:00:00,15,1011.9,-0.8,63,8,35000,22.224,,,100,,,,,,,,,,,wg-a,,,,AAXX 30154 07690 12781 11012 10150 20080 30088 40119 56008 60006 81101 91500=
07690,1996-01-30 18:00:00,12,1013.4,1.5,71,7,25000,7.408,,,340,7.5,16.6,,,,,,,,,wg-a,,,,AAXX 30184 07690 12775 /3404 10120 20070 30103 40134 53015 60006 81502 91800 333 10166 20075=
07690,1996-01-30 21:00:00,10,1015,1.5,76,6,20000,14.816,,,50,,,,,,,,,,,wg-a,,,,AAXX 30214 07690 12/70 10508 10100 20060 30118 40150 51015 60006 80002 92100=
07690,1996-01-31 00:00:00,7,1016.2,1.2,87,5,20000,14.816,,,340,,,,,,,,,,,wg-a,,,,AAXX 31004 07690 12/70 23408 10070 20050 30130 40162 51012 60006 80002 90000=
07690,1996-01-31 03:00:00,6,1015.7,-0.5,81,3,20000,14.816,,,340,,,,,,,,,,,wg-a,,,,AAXX 31034 07690 12/70 13408 10060 20030 30125 40157 58005 60006 80002 90300=
07690,1996-01-31 06:00:00,4,1016.4,0.7,87,2,20000,7.408,,,340,4.4,11.9,,,,,,,,,wg-a,,,,AAXX 31064 07690 02/70 13404 10040 20020 30132 40164 53007 60006 80002 90600 333 10119 20044 60004=
07690,1996-01-31 09:00:00,9,1017.4,1,57,1,20000,31.484,,,80,,,,,,,,,,,wg-a,,,,AAXX 31094 07690 12770 20817 10090 20010 30142 40174 51010 60006 81530 90900=
07690,1996-01-31 12:00:00,11,1016.1,-1.3,50,1,11000,38.892,,,100,,,,,,,,,,,wg-a,,,,AAXX 31124 07690 12/61 /1021 10110 20010 30129 40161 58013 60006 91200=
07690,1996-01-31 15:00:00,10,1016.6,0.5,37,-4,20000,42.596,,70.376,100,,,,,,,,,,,wg-a,,,,AAXX 31154 07690 12570 /1023 10100 21040 30134 40166 53005 60006 81100 91500 333 91038=
07690,1996-01-31 18:00:00,8,1018.9,2.3,34,-7,20000,29.632,,51.856,90,4.3,12,,,,,,,,,wg-a,,,,AAXX 31184 07690 12770 /0916 10080 21070 30157 40189 53023 60006 81500 91800 333 10120 20043 91028=
07690,1996-01-31 21:00:00,8,1019.8,0.9,36,-6,25000,25.928,,,10,,,,,,,,,,,wg-a,,,,AAXX 31214 07690 12775 70114 10080 21060 30166 40198 50009 60006 875// 92100=
07690,1996-02-01 00:00:00,5,1020,0.2,56,-3,25000,18.52,,,20,,,,,,,,,,,wg-a,,,,AAXX 01004 07690 12775 70210 10050 21030 30168 40200 50002 60006 8453/ 90000=
07690,1996-02-01 03:00:00,5,1019.6,-0.4,56,-3,25000,7.408,,,340,,,,,,,,,,,wg-a,,,,AAXX 01034 07690 12775 /3404 10050 21030 30164 40196 57004 60006 81530 90300=
07690,1996-02-01 06:00:00,6,1019.6,-0,45,-5,25000,14.816,,,10,5,8.6,,,,,,,,,wg-a,,,,AAXX 01064 07690 02775 70108 10060 21050 30164 40196 55000 60006 875// 90600 333 10086 20050 60004=
07690,1996-02-01 09:00:00,6,1020,0.4,75,2,10000,18.52,,,30,,,,1,,,,,,61,wg-a,,,,AAXX 01094 07690 12660 80310 10060 20020 30168 40200 50004 60017 76162 888// 90900=
07690,1996-02-01 12:00:00,5,1019.3,-0.7,93,4,8000,14.816,,,360,,,,4,,,,,,61,wg-a,,,,AAXX 01124 07690 02558 83608 10050 20040 30161 40193 58007 60056 76162 888// 91200 333 60047=
07690,1996-02-01 15:00:00,7,1017.5,-1.8,81,4,20000,18.52,,,10,,,,1,,,,,,2,wg-a,,,,AAXX 01154 07690 12570 80110 10070 20040 30143 40175 56018 60017 70262 8687/ 91500=
07690,1996-02-01 18:00:00,6,1018,0.5,87,4,12000,14.816,,,340,4.9,8.6,,0,,,,,,61,wg-a,,,,AAXX 01184 07690 12562 83408 10060 20040 30148 40180 50005 60007 76162 888// 91800 333 10086 20049=
07690,1996-02-01 21:00:00,6,1017.8,-0.2,93,5,10000,14.816,,,40,,,,3,,,,,,61,wg-a,,,,AAXX 01214 07690 12660 80408 10060 20050 30146 40178 58002 60037 76166 888// 92100=
07690,1996-02-02 00:00:00,7,1015.5,-2.3,93,6,12000,14.816,,,40,,,,3,,,,,,61,wg-a,,,,AAXX 02004 07690 02462 80408 10070 20060 30123 40155 58023 60066 76166 8682/ 90000 333 60037=
07690,1996-02-02 03:00:00,7,1013.2,-2.3,93,6,15000,14.816,,,10,,,,5,,,,,,61,wg-a,,,,AAXX 02034 07690 12565 80108 10070 20060 30100 40132 58023 60057 76166 8482/ 90300=
07690,1996-02-02 06:00:00,8,1011.9,-1.3,93,7,10000,14.816,,,20,5.6,8.8,,5,,,22,,,61,wg-a,,,,AAXX 02064 07690 02560 80208 10080 20070 30087 40119 56013 60224 76166 8582/ 90600 333 10088 20056 60057=
07690,1996-02-02 09:00:00,8,1011.8,-0.1,93,7,9000,18.52,,,20,,,,3,,,,,,61,wg-a,,,,AAXX 02094 07690 12359 80210 10080 20070 30086 40118 57001 60037 76166 8587/ 90900=
07690,1996-02-02 12:00:00,9,1010.2,-1.6,87,7,7000,22.224,,,20,,,,5,,,,,,61,wg-a,,,,AAXX 02124 07690 02557 80212 10090 20070 30070 40102 58016 60086 76166 8487/ 91200 333 60057=
07690,1996-02-02 15:00:00,10,1008.5,-1.6,87,8,4000,22.224,,,20,,,,3,,,,,,10,wg-a,,,,AAXX 02154 07690 12540 80212 10100 20080 30054 40085 55016 60037 71066 8487/ 91500=
07690,1996-02-02 18:00:00,9,1009.4,0.8,87,7,10000,7.408,,,40,7.6,9.9,,2,,,,,,61,wg-a,,,,AAXX 02184 07690 12560 80404 10090 20070 30062 40094 53008 60027 76166 8487/ 91800 333 10099 20076=
07690,1996-02-02 21:00:00,8,1009.8,0.4,93,7,10000,11.112,,,350,,,,1,,,,,,61,wg-a,,,,AAXX 02214 07690 12460 83506 10080 20070 30066 40098 51004 60017 76166 8587/ 92100=
07690,1996-02-03 00:00:00,8,1009.7,-0.1,87,6,11000,11.112,,,320,,,,,,,,,,,wg-a,,,,AAXX 03004 07690 12/61 /3206 10080 20060 30065 40097 58001 60016 90000=
07690,1996-02-03 03:00:00,7,1008.9,-0.8,93,6,15000,22.224,,,330,,,,,,,,,,,wg-a,,,,AAXX 03034 07690 12565 73312 10070 20060 30057 40089 58008 60006 83532 90300=
07690,1996-02-03 06:00:00,7,1009,0.1,93,6,15000,14.816,,,340,7,9.3,,,,,15,,,,wg-a,,,,AAXX 03064 07690 12465 73408 10070 20060 30058 40090 53001 60154 875// 90600 333 10093 20070=
07690,1996-02-03 09:00:00,8,1009.6,0.6,87,6,20000,14.816,,,320,,,,,,,,,,,wg-a,,,,AAXX 03094 07690 12570 43208 10080 20060 30064 40096 53006 60006 84500 90900=
07690,1996-02-03 12:00:00,13,1008.9,-0.6,72,8,20000,7.408,,,240,,,,,,,,,,,wg-a,,,,AAXX 03124 07690 12570 42404 10130 20080 30058 40089 58006 60006 84101 91200=
07690,1996-02-03 15:00:00,13,1006.9,-2,72,8,25000,11.112,,,100,,,,,,,,,,,wg-a,,,,AAXX 03154 07690 12575 /1006 10130 20080 30038 40069 56020 60006 81100 91500=
07690,1996-02-03 18:00:00,11,1007.8,0.9,87,9,25000,18.52,,,70,7.2,14,,,,,,,,,wg-a,,,,AAXX 03184 07690 12575 /0710 10110 20090 30047 40078 53009 60006 81500 91800 333 10140 20072=
07690,1996-02-03 21:00:00,9,1008.2,0.3,87,7,20000,14.816,,,340,,,,,,,,,,,wg-a,,,,AAXX 03214 07690 12570 /3408 10090 20070 30050 40082 53003 60006 85500 92100=
07690,1996-02-04 00:00:00,8,1007.5,-0.7,87,6,20000,18.52,,,340,,,,,,,,,,,wg-a,,,,AAXX 04004 07690 12470 73410 10080 20060 30043 40075 58007 60006 875// 90000=
07690,1996-02-04 03:00:00,8,1005.6,-1.9,81,5,20000,22.224,,,340,,,,,,,,,,,wg-a,,,,AAXX 04034 07690 12570 /3412 10080 20050 30024 40056 57019 60006 81500 90300=
07690,1996-02-04 06:00:00,6,1005.1,-0.5,87,4,20000,14.816,,,340,6.4,11.3,,,,,,,,,wg-a,,,,AAXX 04064 07690 02570 /3408 10060 20040 30019 40051 56005 60006 81500 90600 333 10113 20064 60004=
07690,1996-02-04 09:00:00,8,1005.3,0.2,76,4,11000,18.52,,,340,,,,,,,,,,,wg-a,,,,AAXX 04094 07690 12/61 /3410 10080 20040 30021 40053 50002 60006 90900=
07690,1996-02-04 12:00:00,13,1003.5,-1.6,77,9,40000,14.816,,,130,,,,,,,,,,,wg-a,,,,AAXX 04124 07690 12582 41308 10130 20090 30004 40035 58016 60006 84100 91200=
07690,1996-02-04 15:00:00,13,1002.1,-1.5,77,9,40000,7.408,,,140,,,,,,,,,,,wg-a,,,,AAXX 04154 07690 12582 31404 10130 20090 39990 40021 56015 60006 83200 91500=
07690,1996-02-04 18:00:00,12,1002.4,0.3,71,7,40000,22.224,,,80,6.3,13.8,,,,,,,,,wg-a,,,,AAXX 04184 07690 12582 50812 10120 20070 39993 40024 53003 60006 85400 91800 333 10138 20063=
07690,1996-02-04 21:00:00,10,1003,0.6,82,7,20000,11.112,,,350,,,,,,,,,,,wg-a,,,,AAXX 04214 07690 12670 63506 10100 20070 39999 40030 50006 60006 84530 92100=
07690,1996-02-05 00:00:00,9,1001.7,-1.3,87,7,20000,14.816,,,340,,,,,,,,,,,wg-a,,,,AAXX 05004 07690 12570 43408 10090 20070 39986 40017 58013 60006 83530 90000=
07690,1996-02-05 03:00:00,8,1000.5,-1.2,81,5,20000,11.112,,,350,,,,,,,,,,13,wg-a,,,,AAXX 05034 07690 12570 63506 10080 20050 39974 40005 56012 60006 71391 83930 90300=
07690,1996-02-05 06:00:00,7,1000.5,-0.1,76,3,20000,14.816,,,340,6.9,11.8,,,,,,,,3,wg-a,,,,AAXX 05064 07690 02470 73408 10070 20030 39973 40005 55001 60006 70391 878// 90600 333 10118 20069 60004=
07690,1996-02-05 09:00:00,7,1001.2,0.7,76,3,25000,18.52,,,340,,,,,,,,,,,wg-a,,,,AAXX 05094 07690 12575 43410 10070 20030 39980 40012 51007 60006 84800 90900=
07690,1996-02-05 12:00:00,10,1000.8,-0.3,76,6,11000,22.224,,,260,,,,,,,,,,,wg-a,,,,AAXX 05124 07690 12/61 /2612 10100 20060 39977 40008 58003 60006 91200=
07690,1996-02-05 15:00:00,10,1000.3,-0.5,71,5,11000,25.928,,,240,,,,,,,,,,,wg-a,,,,AAXX 05154 07690 12/61 /2414 10100 20050 39972 40003 55005 60006 91500=
07690,1996-02-05 18:00:00,9,1001.8,1.5,66,3,20000,14.816,,,270,6.1,12,,,,,,,,,wg-a,,,,AAXX 05184 07690 12770 42708 10090 20030 39987 40018 51015 60006 84500 91800 333 10120 20061=
07690,1996-02-05 21:00:00,6,1002.6,0.7,81,3,15000,7.408,,,340,,,,,,,,,,,wg-a,,,,AAXX 05214 07690 12765 /3404 10060 20030 39994 40026 50007 60006 85500 92100=
07690,1996-02-06 00:00:00,5,1001.5,-1.1,87,3,15000,18.52,,,340,,,,,,,,,,,wg-a,,,,AAXX 06004 07690 12665 63410 10050 20030 39983 40015 58011 60006 86500 90000=
07690,1996-02-06 03:00:00,5,1000.4,-1.1,93,4,8000,11.112,,,270,,,,4,,,,,,60,wg-a,,,,AAXX 06034 07690 12258 72706 10050 20040 39972 40004 58011 60047 76062 875// 90300=
07690,1996-02-06 06:00:00,4,998.3,-2.1,93,3,10000,11.112,,,340,3.8,8.8,,3,,,7,,,60,wg-a,,,,AAXX 06064 07690 02260 73406 10040 20030 39951 49983 58021 60074 76062 875// 90600 333 10088 20038 60037=
07690,1996-02-06 09:00:00,5,997.3,-1,87,3,15000,18.52,,,340,,,,,,,,,,3,wg-a,,,,AAXX 06094 07690 02565 73410 10050 20030 39941 49973 58010 61000 70362 8581/ 90900 333 ////=
07690,1996-02-06 12:00:00,8,995.1,-2.1,53,-1,20000,22.224,,,70,,,,,,,,,,2,wg-a,,,,AAXX 06124 07690 02570 80712 10080 21010 39920 49951 56021 61000 70262 8112/ 91200 333 ////=
07690,1996-02-06 15:00:00,7,995.3,0.2,61,0,15000,18.52,,,80,,,,,,,,,,15,wg-a,,,,AAXX 06154 07690 12565 80810 10070 20000 39922 49953 53002 60006 71522 8382/ 91500=
07690,1996-02-06 18:00:00,6,997,1.6,70,1,13000,11.112,,,40,3.9,8.6,,,,,,,,,wg-a,,,,AAXX 06184 07690 32563 80406 10060 20010 39938 49970 53016 8282/ 91800 333 10086 20039=
07690,1996-02-06 21:00:00,6,998.9,1.9,81,3,15000,18.52,,,340,,,,,,,,,,,wg-a,,,,AAXX 06214 07690 12565 83410 10060 20030 39957 49989 52019 60006 8257/ 92100=
07690,1996-02-07 00:00:00,5,999.5,0.6,87,3,20000,7.408,,,320,,,,,,,,,,1,wg-a,,,,AAXX 07004 07690 02470 83204 10050 20030 39963 49995 50006 61000 70152 8183/ 90000 333 6100=
07690,1996-02-07 03:00:00,4,999.2,-0.3,93,3,20000,14.816,,,330,,,,,,,,,,,wg-a,,,,AAXX 07034 07690 12570 /3308 10040 20030 39960 49992 56003 60006 84570 90300=
07690,1996-02-07 06:00:00,5,999.5,0.3,87,3,20000,11.112,,,340,3.6,6.4,,,,,,,,,wg-a,,,,AAXX 07064 07690 02570 /3406 10050 20030 39963 49995 53003 61000 83570 90600 333 10064 20036 ////=
07690,1996-02-07 09:00:00,5,1000.1,0.6,93,4,8000,18.52,,,340,,,,0,,,,,,21,wg-a,,,,AAXX 07094 07690 12558 73410 10050 20040 39969 40001 51006 60007 72162 878// 90900=
07690,1996-02-07 12:00:00,6,999.9,-0.2,87,4,500,11.112,,,320,,,,0,,,,,,61,wg-a,,,,AAXX 07124 07690 02500 83206 10060 20040 39967 49999 58002 60016 76162 878// 91200 333 60007=
07690,1996-02-07 15:00:00,5,998,-1.9,93,4,6000,11.112,,,320,,,,2,,,,,,1,wg-a,,,,AAXX 07154 07690 12556 83206 10050 20040 39948 49980 56019 60027 70162 878// 91500=
07690,1996-02-07 21:00:00,4,995.8,-1.7,93,3,8000,7.408,,,340,,,0,,,,,,,61,wg-a,,,,AAXX 07214 07690 12458 83404 10040 20030 39926 49958 58017 60005 76166 875// 92100=
07690,1996-02-08 00:00:00,4,994.3,-1.1,100,4,8000,3.704,,,330,,,,,,,,,,61,wg-a,,,,AAXX 08004 07690 02458 83302 10040 20040 39911 49943 58011 61000 76166 875// 90000 333 ////=
07690,1996-02-08 03:00:00,4,993.1,-1.2,100,4,10000,3.704,,,10,,,,1,,,,,,2,wg-a,,,,AAXX 08034 07690 12460 80102 10040 20040 39899 49931 56012 60017 70262 875// 90300=
07690,1996-02-08 06:00:00,5,995.3,2.2,93,4,10000,11.112,,,340,3.9,4.8,,,,,6,,,1,wg-a,,,,AAXX 08064 07690 12560 /3406 10050 20040 39921 49953 52022 60064 70162 85500 90600 333 10048 20039=
07690,1996-02-08 09:00:00,5,998.2,2.9,87,3,12000,14.816,,,330,,,,,,,,,,,wg-a,,,,AAXX 08094 07690 12462 73308 10050 20030 39950 49982 53029 60006 875// 90900=
07690,1996-02-08 12:00:00,11,998,-0.1,66,5,15000,7.408,,,220,,,,,,,,,,,wg-a,,,,AAXX 08124 07690 12565 /2204 10110 20050 39949 49980 58001 60006 81101 91200=
07690,1996-02-08 15:00:00,12,998.4,0.4,67,6,20000,7.408,,,240,,,,,,,,,,,wg-a,,,,AAXX 08154 07690 12570 /2404 10120 20060 39953 49984 53004 60006 81100 91500=
07690,1996-02-08 18:00:00,10,1002.5,4.1,71,5,20000,14.816,,,40,4.3,11.9,,,,,,,,,wg-a,,,,AAXX 08184 07690 12570 /0408 10100 20050 39994 40025 53041 60006 81400 91800 333 10119 20043=
07690,1996-02-08 21:00:00,7,1006,3.4,45,-4,25000,11.112,,,270,,,,,,,,,,,wg-a,,,,AAXX 08214 07690 12/75 02706 10070 21040 30028 40060 51034 60006 80000 92100=
07690,1996-02-09 00:00:00,6,1008.3,2.3,45,-5,25000,18.52,,,340,,,,,,,,,,,wg-a,,,,AAXX 09004 07690 12/75 13410 10060 21050 30051 40083 51023 60006 81030 90000=
07690,1996-02-09 03:00:00,5,1010.2,1.9,52,-4,25000,18.52,,,340,,,,,,,,,,,wg-a,,,,AAXX 09034 07690 12/75 03410 10050 21040 30070 40102 51019 60006 80000 90300=
07690,1996-02-09 06:00:00,4,1012.7,2.5,52,-5,25000,29.632,,,340,4.2,9.4,,,,,,,,,wg-a,,,,AAXX 09064 07690 02675 23416 10040 21050 30095 40127 53025 60006 82800 90600 333 10094 20042 60004=
07690,1996-02-09 09:00:00,7,1014.7,2,45,-4,50000,22.224,,,330,,,,,,,,,,,wg-a,,,,AAXX 09094 07690 12684 /3312 10070 21040 30115 40147 51020 60006 81500 90900=
07690,1996-02-09 12:00:00,13,1014.8,0.2,47,2,10000,11.112,,,210,,,,,,,,,,,wg-a,,,,AAXX 09124 07690 12/60 /2106 10130 20020 30117 40148 50002 60006 91200=
07690,1996-02-09 15:00:00,11,1014.5,-0.3,54,2,40000,22.224,,,220,,,,,,,,,,,wg-a,,,,AAXX 09154 07690 12682 32212 10110 20020 30114 40145 56003 60006 81201 91500=
07690,1996-02-09 18:00:00,9,1015.7,1.1,61,2,20000,3.704,,,290,4.2,12.9,,,,,,,,,wg-a,,,,AAXX 09184 07690 12/70 22902 10090 20020 30125 40157 53011 60006 80001 91800 333 10129 20042=
07690,1996-02-09 21:00:00,6,1016.7,1,81,3,20000,14.816,,,320,,,,,,,,,,,wg-a,,,,AAXX 09214 07690 12/70 23208 10060 20030 30135 40167 51010 60006 81031 92100=
07690,1996-02-10 00:00:00,6,1017,0.3,75,2,20000,22.224,,,340,,,,,,,,,,,wg-a,,,,AAXX 10004 07690 12/70 33412 10060 20020 30138 40170 52003 60006 81032 90000=
07690,1996-02-10 03:00:00,6,1016.3,-0.7,70,1,20000,22.224,,,320,,,,,,,,,,,wg-a,,,,AAXX 10034 07690 12/70 33212 10060 20010 30131 40163 58007 60006 81032 90300=
07690,1996-02-10 06:00:00,6,1016.3,-0,70,1,20000,18.52,,,340,5.2,8.5,,,,,,,,,wg-a,,,,AAXX 10064 07690 02770 /3410 10060 20010 30131 40163 55000 60006 83550 90600 333 10085 20052 60004=
07690,1996-02-10 12:00:00,13,1015.9,-0.9,51,3,500,7.408,,,120,,,,,,,,,,,wg-a,,,,AAXX 10124 07690 12600 51204 10130 20030 30128 40159 58009 60006 83801 91200=
07690,1996-02-10 15:00:00,12,1014.9,-1,62,5,20000,11.112,,,190,,,,,,,,,,,wg-a,,,,AAXX 10154 07690 12670 /1906 10120 20050 30118 40149 56010 60006 82502 91500=
07690,1996-02-10 18:00:00,11,1015.8,0.8,76,7,20000,14.816,,,200,5.5,13.1,,,,,,,,,wg-a,,,,AAXX 10184 07690 12570 32008 10110 20070 30126 40158 53008 60006 8350/ 91800 333 10131 20055=
07690,1996-02-10 21:00:00,8,1016.1,0.3,81,5,20000,18.52,,,320,,,,,,,,,,,wg-a,,,,AAXX 10214 07690 12670 23210 10080 20050 30129 40161 51003 60006 82500 92100=
07690,1996-02-11 00:00:00,7,1016.2,0.1,81,4,20000,14.816,,,350,,,,,,,,,,,wg-a,,,,AAXX 11004 07690 12/70 /3508 10070 20040 30130 40162 53001 60006 80000 90000=
07690,1996-02-11 03:00:00,6,1015.9,-0.3,81,3,20000,22.224,,,320,,,,,,,,,,,wg-a,,,,AAXX 11034 07690 12570 23212 10060 20030 30127 40159 58003 60006 82500 90300=
07690,1996-02-11 06:00:00,6,1016.5,0.6,75,2,20000,22.224,,,340,5.6,11,,,,,,,,,wg-a,,,,AAXX 11064 07690 02670 33412 10060 20020 30133 40165 53006 60006 83500 90600 333 10110 20056 60004=
07690,1996-02-11 12:00:00,12,1016.7,-0.8,62,5,15000,11.112,,,130,,,,,,,,,,,wg-a,,,,AAXX 11124 07690 12665 41306 10120 20050 30136 40167 58008 60006 84800 91200=
07690,1996-02-11 15:00:00,11,1016.1,-0.7,76,7,15000,14.816,,,160,,,,,,,,,,,wg-a,,,,AAXX 11154 07690 12565 31608 10110 20070 30129 40161 56007 60006 83800 91500=
07690,1996-02-11 18:00:00,11,1016.7,0.6,76,7,12000,18.52,,,140,5.6,12.7,,,,,,,,3,wg-a,,,,AAXX 11184 07690 02562 71410 10110 20070 30135 40167 53006 61000 70386 878// 91800 333 10127 20056 ////=
07690,1996-02-11 21:00:00,10,1017.6,0.9,82,7,12000,11.112,,,80,,,,1,,,,,,13,wg-a,,,,AAXX 11214 07690 12562 60806 10100 20070 30144 40176 51009 60017 71386 86800 92100=
07690,1996-02-12 00:00:00,6,1017.5,-0.1,87,4,11000,14.816,,,340,,,,,,,,,,,wg-a,,,,AAXX 12004 07690 12/61 /3408 10060 20040 30143 40175 58001 60016 90000=
07690,1996-02-12 03:00:00,5,1016.8,-0.7,81,2,12000,18.52,,,340,,,,,,,,,,,wg-a,,,,AAXX 12034 07690 12/62 03410 10050 20020 30136 40168 56007 60006 80000 90300=
07690,1996-02-12 06:00:00,4,1016.8,-0,81,1,12000,25.928,,,340,4.4,10.7,,,,,1,,,,wg-a,,,,AAXX 12064 07690 12562 33414 10040 20010 30136 40168 55000 60014 83500 90600 333 10107 20044=
07690,1996-02-12 09:00:00,6,1017.8,1,65,0,500,22.224,,,340,,,,,,,,,,,wg-a,,,,AAXX 12094 07690 12500 /3412 10060 20000 30146 40178 51010 60006 84500 90900=
07690,1996-02-12 12:00:00,11,1015.6,-2.2,66,5,10000,7.408,,,170,,,,,,,,,,,wg-a,,,,AAXX 12124 07690 12560 /1704 10110 20050 30124 40156 58022 60006 81502 91200=
07690,1996-02-12 15:00:00,11,1012.4,-3.1,66,5,15000,11.112,,,210,,,,,,,,,,,wg-a,,,,AAXX 12154 07690 12565 /2106 10110 20050 30093 40124 56031 60006 81142 91500=
07690,1996-02-12 18:00:00,10,1010,-2.4,76,6,12000,11.112,,,290,4.2,12,,,,,,,,61,wg-a,,,,AAXX 12184 07690 02562 72906 10100 20060 30069 40100 56024 61000 76162 878// 91800 333 10120 20042 ////=
07690,1996-02-12 21:00:00,8,1006.4,-3.7,93,7,10000,18.52,,,330,,,,0,,,,,,61,wg-a,,,,AAXX 12214 07690 12560 83310 10080 20070 30032 40064 56037 60007 76162 8457/ 92100=
07690,1996-02-13 00:00:00,7,1003.7,-2.7,87,5,12000,18.52,,,320,,,,3,,,,,,1,wg-a,,,,AAXX 13004 07690 02662 /3210 10070 20050 30005 40037 56027 60036 70161 81500 90000 333 60037=
07690,1996-02-13 03:00:00,8,1000,-3.6,81,5,20000,11.112,,,320,,,,,,,,,,,wg-a,,,,AAXX 13034 07690 32/70 03206 10080 20050 39969 40000 58036 80000 90300=
07690,1996-02-13 06:00:00,11,998.9,-1.1,58,3,20000,31.484,,57.412,250,5.2,11.7,,,,,3,,,,wg-a,,,,AAXX 13064 07690 12570 /2517 10110 20030 39958 49989 56011 60034 81200 90600 333 10117 20052 91031=
07690,1996-02-13 09:00:00,13,999.5,0.6,38,-1,50000,25.928,,48.152,280,,,,,,,,,,,wg-a,,,,AAXX 13094 07690 12584 /2814 10130 21010 39964 49995 53006 60006 81500 90900 333 91026=
07690,1996-02-13 12:00:00,15,999.6,0.1,27,-4,50000,29.632,,48.152,300,,,,,,,,,,,wg-a,,,,AAXX 13124 07690 12584 /3016 10150 21040 39965 49996 50001 60006 81530 91200 333 91026=
07690,1996-02-13 15:00:00,15,999.1,-0.5,29,-3,50000,35.188,,53.708,290,,,,,,,,,,,wg-a,,,,AAXX 13154 07690 12584 /2919 10150 21030 39960 49991 57005 60006 81240 91500 333 91029=
07690,1996-02-13 18:00:00,12,1000.8,1.7,38,-2,500,7.408,,,270,10.8,15.1,,,,,,,,,wg-a,,,,AAXX 13184 07690 12/00 12704 10120 21020 39977 40008 53017 60006 81040 91800 333 10151 20108=
07690,1996-02-13 21:00:00,9,1002.1,1.3,46,-2,20000,7.408,,,340,,,,,,,,,,,wg-a,,,,AAXX 13214 07690 12/70 03404 10090 21020 39990 40021 51013 60006 80000 92100=
07690,1996-02-14 00:00:00,7,1003.6,1.4,45,-4,500,11.112,,,360,,,,,,,,,,,wg-a,,,,AAXX 14004 07690 12/00 03606 10070 21040 30004 40036 53014 60006 80000 90000=
07690,1996-02-14 03:00:00,7,1004.2,0.6,49,-3,500,14.816,,,350,,,,,,,,,,,wg-a,,,,AAXX 14034 07690 12/00 03508 10070 21030 30010 40042 53006 60006 80000 90300=
07690,1996-02-14 06:00:00,6,1005.7,1.5,49,-4,500,11.112,,,350,6,11.7,,,,,,,,,wg-a,,,,AAXX 14064 07690 02/00 13506 10060 21040 30025 40057 53015 60006 81030 90600 333 10117 20060 60004=
07690,1996-02-14 09:00:00,9,1008,2.3,43,-3,50000,22.224,,55.56,340,,,,,,,,,,,wg-a,,,,AAXX 14094 07690 12484 23412 10090 21030 30048 40080 51023 60006 81230 90900 333 91030=
07690,1996-02-14 12:00:00,9,1008,2.3,43,-3,50000,22.224,,,340,,,,,,,,,,,wg-a,,,,AAXX 14124 07690 12484 23412 10090 21030 30048 40080 51023 60006 81230 91200=
07690,1996-02-14 15:00:00,14,1010.7,1.5,18,-10,500,25.928,,,50,,,,,,,,,,,wg-a,,,,AAXX 14154 07690 12500 60514 10140 21100 30076 40107 53015 60006 82231 91500=
07690,1996-02-14 18:00:00,10,1013.8,3,46,-1,500,11.112,,,340,5.6,14.9,,,,,,,,,wg-a,,,,AAXX 14184 07690 12/00 /3406 10100 21010 30106 40138 53030 60006 83/31 91800 333 10149 20056=
07690,1996-02-14 21:00:00,8,1016.3,2.5,49,-2,20000,18.52,,,330,,,,,,,,,,,wg-a,,,,AAXX 14214 07690 12670 73310 10080 21020 30131 40163 51025 60006 81532 92100=
07690,1996-02-15 00:00:00,7,1018.2,1.9,49,-3,11000,14.816,,,330,,,,,,,,,,,wg-a,,,,AAXX 15004 07690 12/61 /3308 10070 21030 30150 40182 52019 60006 90000=
07690,1996-02-15 03:00:00,6,1018.9,0.7,49,-4,20000,22.224,,,340,,,,,,,,,,,wg-a,,,,AAXX 15034 07690 12/70 /3412 10060 21040 30157 40189 53007 60006 81030 90300=
07690,1996-02-15 06:00:00,5,1021.1,2.2,45,-6,20000,14.816,,,320,5.1,9.6,,,,,,,,,wg-a,,,,AAXX 15064 07690 02/70 13208 10050 21060 30179 40211 51022 60006 81030 90600 333 10096 20051 60004=
07690,1996-02-15 09:00:00,8,1022.8,1.7,36,-6,11000,14.816,,,340,,,,,,,,,,,wg-a,,,,AAXX 15094 07690 12/61 /3408 10080 21060 30196 40228 51017 60006 90900=
07690,1996-02-15 12:00:00,14,1022.5,-0.2,26,-5,40000,7.408,,,170,,,,,,,,,,,wg-a,,,,AAXX 15124 07690 12/82 31704 10140 21050 30194 40225 58002 60006 80002 91200=
07690,1996-02-15 15:00:00,14,1021.7,-0.8,31,-3,40000,18.52,,,130,,,,,,,,,,,wg-a,,,,AAXX 15154 07690 12/82 01310 10140 21030 30186 40217 55008 60006 80000 91500=
07690,1996-02-15 18:00:00,10,1022.6,0.8,40,-3,500,14.816,,,310,5.1,14.8,,,,,,,,,wg-a,,,,AAXX 15184 07690 12/00 03108 10100 21030 30194 40226 53008 60006 80000 91800 333 10148 20051=
07690,1996-02-15 21:00:00,7,1023.5,0.9,53,-2,25000,18.52,,,340,,,,,,,,,,,wg-a,,,,AAXX 15214 07690 12/75 03410 10070 21020 30203 40235 51009 60006 80000 92100=
07690,1996-02-16 00:00:00,6,1023.4,-0.1,52,-3,25000,18.52,,,340,,,,,,,,,,,wg-a,,,,AAXX 16004 07690 12/75 03410 10060 21030 30202 40234 58001 60006 80000 90000=
07690,1996-02-16 03:00:00,5,1022,-1.4,48,-5,25000,18.52,,,350,,,,,,,,,,,wg-a,,,,AAXX 16034 07690 12/75 03510 10050 21050 30188 40220 57014 60006 80000 90300=
07690,1996-02-16 06:00:00,4,1020.9,-1.2,56,-4,25000,25.928,,,320,4.3,10.4,,,,,,,,,wg-a,,,,AAXX 16064 07690 02/75 03214 10040 21040 30176 40209 58012 60006 80000 90600 333 10104 20043 60004=
07690,1996-02-16 09:00:00,7,1021.4,0.6,42,-5,40000,22.224,,,340,,,,,,,,,,,wg-a,,,,AAXX 16094 07690 12/82 13412 10070 21050 30182 40214 51006 60006 81030 90900=
07690,1996-02-16 12:00:00,13,1020.4,-1,47,2,40000,14.816,,,200,,,,,,,,,,,wg-a,,,,AAXX 16124 07690 12/82 12008 10130 20020 30172 40204 58010 60006 81030 91200=
07690,1996-02-16 15:00:00,12,1018.5,-1.9,50,2,25000,18.52,,,230,,,,,,,,,,,wg-a,,,,AAXX 16154 07690 12575 /2310 10120 20020 30153 40185 56019 60006 81530 91500=
07690,1996-02-16 18:00:00,9,1018.5,-0,76,5,20000,3.704,,,300,4.2,12.7,,,,,,,,,wg-a,,,,AAXX 16184 07690 12/70 13002 10090 20050 30153 40185 55000 60006 81030 91800 333 10127 20042=
07690,1996-02-16 21:00:00,7,1018.4,-0.1,66,1,10000,18.52,,,350,,,,,,,,,,,wg-a,,,,AAXX 16214 07690 12/60 /3510 10070 20010 30152 40184 58001 60006 92100=
07690,1996-02-17 00:00:00,6,1017.7,-0.7,65,0,10000,18.52,,,340,,,,,,,,,,,wg-a,,,,AAXX 17004 07690 12/60 /3410 10060 20000 30145 40177 57007 60006 90000=
07690,1996-02-17 03:00:00,6,1015.9,-1.8,61,-1,15000,18.52,,,320,,,,,,,,,,,wg-a,,,,AAXX 17034 07690 12/65 03210 10060 21010 30127 40159 58018 60006 80000 90300=
07690,1996-02-17 06:00:00,5,1014.4,-1.5,65,-1,20000,22.224,,,310,5,9.2,,,,,,,,,wg-a,,,,AAXX 17064 07690 02/70 13112 10050 21010 30112 40144 56015 60006 80001 90600 333 10092 20050 60004=
07690,1996-02-17 09:00:00,8,1013.5,-0.9,57,0,20000,11.112,,,340,,,,,,,,,,,wg-a,,,,AAXX 17094 07690 12/70 03406 10080 20000 30103 40135 58009 60006 80000 90900=
07690,1996-02-17 12:00:00,13,1012.4,-1,62,6,20000,18.52,,,120,,,,,,,,,,,wg-a,,,,AAXX 17124 07690 12/70 11210 10130 20060 30093 40124 58010 60006 80002 91200=
07690,1996-02-17 15:00:00,13,1010.8,-1.6,67,7,15000,11.112,,,130,,,,,,,,,,,wg-a,,,,AAXX 17154 07690 12/65 01306 10130 20070 30077 40108 56016 60006 80000 91500=
07690,1996-02-17 18:00:00,11,1012.4,1.6,76,7,20000,7.408,,,60,4.3,13.8,,,,,,,,,wg-a,,,,AAXX 17184 07690 12/70 00604 10110 20070 30093 40124 53016 60006 80000 91800 333 10138 20043=
07690,1996-02-17 21:00:00,8,1015.7,3.2,87,6,10000,14.816,,,320,,,,,,,,,,,wg-a,,,,AAXX 17214 07690 12560 /3208 10080 20060 30125 40157 51032 60006 81500 92100=
07690,1996-02-18 06:00:00,7,1015.9,-1.3,76,3,20000,18.52,,,310,6.1,11.1,,,,,,,,,wg-a,,,,AAXX 18064 07690 02/70 13110 10070 20030 30127 40159 58013 60006 80002 90600 333 10111 20061 60004=
07690,1996-02-18 12:00:00,11,1013.7,-1.2,54,2,40000,22.224,,,180,,,,,,,,,,,wg-a,,,,AAXX 18124 07690 12682 61812 10110 20020 30106 40137 58012 60006 81204 91200=
07690,1996-02-18 15:00:00,12,1010,-3.7,62,5,40000,3.704,,,90,,,,,,,,,,,wg-a,,,,AAXX 18154 07690 12/82 /0902 10120 20050 30069 40100 58037 60006 80002 91500=
07690,1996-02-18 18:00:00,9,1007.9,-2.2,76,5,20000,7.408,,,320,6.3,13,,,,,,,,,wg-a,,,,AAXX 18184 07690 12/70 43204 10090 20050 30047 40079 56022 60006 81032 91800 333 10130 20063=
07690,1996-02-18 21:00:00,10,1005.9,-1.9,66,4,10000,25.928,,,260,,,,,,,,,,,wg-a,,,,AAXX 18214 07690 12/60 /2614 10100 20040 30028 40059 58019 60006 92100=
07690,1996-02-19 00:00:00,7,1003.4,-2.6,76,3,15000,3.704,,,320,,,,,,,,,,,wg-a,,,,AAXX 19004 07690 12565 83202 10070 20030 30002 40034 58026 60006 81132 90000=
07690,1996-02-19 03:00:00,8,999.7,-3.6,71,3,20000,11.112,,,320,,,,,,,,,,,wg-a,,,,AAXX 19034 07690 12670 73206 10080 20030 39966 49997 58036 60006 81502 90300=
07690,1996-02-19 06:00:00,9,997.5,-2.2,76,5,20000,18.52,,,240,6.8,10,,,,,,,,,wg-a,,,,AAXX 19064 07690 02570 72410 10090 20050 39944 49975 56022 60006 82832 90600 333 10100 20068 60004=
07690,1996-02-19 09:00:00,9,996.6,-0.9,71,4,40000,22.224,,,260,,,,,,,,,,,wg-a,,,,AAXX 19094 07690 12482 72612 10090 20040 39935 49966 58009 60006 8117/ 90900=
07690,1996-02-19 12:00:00,12,994.1,-2.5,47,1,40000,31.484,,,270,,,,,,,,,,,wg-a,,,,AAXX 19124 07690 12582 /2717 10120 20010 39910 49941 58025 60006 81130 91200=
07690,1996-02-19 15:00:00,14,993.1,-1,23,-7,50000,31.484,,,300,,,,,,,,,,,wg-a,,,,AAXX 19154 07690 12584 /3017 10140 21070 39900 49931 55010 60006 81202 91500=
07690,1996-02-19 18:00:00,11,994.8,1.7,35,-4,20000,25.928,,,270,8.6,14.6,,,,,,,,,wg-a,,,,AAXX 19184 07690 12670 /2714 10110 21040 39917 49948 53017 60006 81530 91800 333 10146 20086=
07690,1996-02-19 21:00:00,9,996,1.2,57,1,20000,22.224,,,270,,,,,,,,,,,wg-a,,,,AAXX 19214 07690 12/70 12712 10090 20010 39929 49960 51012 60006 81030 92100=
07690,1996-02-20 00:00:00,6,996.1,0,61,-1,20000,11.112,,,270,,,,,,,,,,,wg-a,,,,AAXX 20004 07690 12/70 12706 10060 21010 39929 49961 50000 60006 81030 90000=
07690,1996-02-20 03:00:00,5,995.6,-0.5,56,-3,20000,7.408,,,360,,,,,,,,,,,wg-a,,,,AAXX 20034 07690 12/70 23604 10050 21030 39924 49956 58005 60006 81031 90300=
07690,1996-02-20 06:00:00,5,995.5,-0.1,56,-3,500,22.224,,,340,4.8,11.3,,,,,,,,,wg-a,,,,AAXX 20064 07690 02500 43412 10050 21030 39923 49955 57001 60006 81204 90600 333 10113 20048 60004=
07690,1996-02-20 09:00:00,9,997.3,1.9,71,4,500,25.928,,,80,,,,,,,,,,,wg-a,,,,AAXX 20094 07690 12500 /0814 10090 20040 39942 49973 51019 60006 83802 90900=
07690,1996-02-20 12:00:00,11,998.4,1.1,71,6,500,22.224,,,140,,,,,,,,,,,wg-a,,,,AAXX 20124 07690 12500 41412 10110 20060 39953 49984 51011 60006 82302 91200=
07690,1996-02-20 15:00:00,8,999.2,0.8,81,5,10000,7.408,,,20,,,,1,,,,,,80,wg-a,,,,AAXX 20154 07690 12360 70204 10080 20050 39961 49992 53008 60017 78096 839// 91500=
07690,1996-02-20 18:00:00,8,1000.6,1.4,81,5,8000,22.224,,,60,4.9,11.6,,,,,,,,61,wg-a,,,,AAXX 20184 07690 02558 70612 10080 20050 39975 40006 53014 61000 76196 869// 91800 333 10116 20049 ////=
07690,1996-02-20 21:00:00,6,1001.8,1.1,87,4,8000,22.224,,,70,,,,,,,,,,,wg-a,,,,AAXX 20214 07690 32/58 /0712 10060 20040 39986 40018 51011 92100=
07690,1996-02-21 00:00:00,5,1001.9,0.1,81,2,15000,14.816,,,280,,,,,,,,,,1,wg-a,,,,AAXX 21004 07690 02665 /2808 10050 20020 39987 40019 53001 60056 70161 81530 90000 333 61000=
07690,1996-02-21 03:00:00,4,1000.6,-1.3,87,2,15000,14.816,,,300,,,,,,,,,,,wg-a,,,,AAXX 21034 07690 12665 /3008 10040 20020 39974 40006 58013 60006 81530 90300=
07690,1996-02-21 06:00:00,3,1000.4,-0.2,87,1,15000,7.408,,,240,3.2,7.6,,,,,6,,,,wg-a,,,,AAXX 21064 07690 12665 /2404 10030 20010 39972 40004 55002 60064 81570 90600 333 10076 20032=
07690,1996-02-21 09:00:00,6,1001.5,1.1,70,1,40000,18.52,,,340,,,,,,,,,,,wg-a,,,,AAXX 21094 07690 12582 /3410 10060 20010 39983 40015 53011 60006 81830 90900=
07690,1996-02-21 12:00:00,8,1003.1,1.6,61,1,500,11.112,,,190,,,,,,,,,,,wg-a,,,,AAXX 21124 07690 12400 /1906 10080 20010 39999 40031 51016 60006 81232 91200=
07690,1996-02-21 15:00:00,8,1003.8,0.7,46,-3,500,0,,,0,,,,,,,,,,,wg-a,,,,AAXX 21154 07690 12500 /0000 10080 21030 30006 40038 52007 60006 81302 91500=
07690,1996-02-21 18:00:00,6,1005.6,1.8,70,1,20000,18.52,,,10,3.1,8.8,,,,,,,,,wg-a,,,,AAXX 21184 07690 12570 /0110 10060 20010 30024 40056 53018 60006 83803 91800 333 10088 20031=
07690,1996-02-21 21:00:00,5,1006.5,0.9,75,1,20000,11.112,,,320,,,,,,,,,,,wg-a,,,,AAXX 21214 07690 12670 23206 10050 20010 30033 40065 51009 60006 82500 92100=
07690,1996-02-22 00:00:00,4,1007.2,0.7,81,1,25000,14.816,,,310,,,,,,,,,,,wg-a,,,,AAXX 22004 07690 12675 13108 10040 20010 30040 40072 53007 60006 81500 90000=
07690,1996-02-22 03:00:00,3,1007.1,-0.1,81,0,25000,18.52,,,320,,,,,,,,,,,wg-a,,,,AAXX 22034 07690 12/75 03210 10030 20000 30039 40071 58001 60006 80000 90300=
07690,1996-02-22 06:00:00,3,1007.7,0.6,70,-2,10000,22.224,,,320,2.7,6.2,,,,,,,,,wg-a,,,,AAXX 22064 07690 02/60 /3212 10030 21020 30045 40077 53006 60006 90600 333 10062 20027 60004=
07690,1996-02-22 09:00:00,6,1009.2,1.5,56,-2,50000,22.224,,,340,,,,,,,,,,,wg-a,,,,AAXX 22094 07690 12584 /3412 10060 21020 30060 40092 52015 60006 81140 90900=
07690,1996-02-22 12:00:00,10,1008.9,-0.2,57,2,50000,18.52,,,200,,,,,,,,,,,wg-a,,,,AAXX 22124 07690 12584 /2010 10100 20020 30058 40089 58002 60006 81100 91200=
07690,1996-02-22 15:00:00,10,1008.2,-0.7,53,1,50000,25.928,,,210,,,,,,,,,,,wg-a,,,,AAXX 22154 07690 12584 22114 10100 20010 30051 40082 55007 60006 82230 91500=
07690,1996-02-22 18:00:00,9,1009.6,1.3,49,-1,500,22.224,,,200,2.5,10.6,,,,,,,,,wg-a,,,,AAXX 22184 07690 12500 22012 10090 21010 30064 40096 53013 60006 82230 91800 333 10106 20025=
07690,1996-02-22 21:00:00,5,1011.1,1.5,70,0,20000,3.704,,,360,,,,,,,,,,,wg-a,,,,AAXX 22214 07690 12570 /3602 10050 20000 30079 40111 51015 60006 81130 92100=
07690,1996-02-23 00:00:00,5,1012.1,1,75,1,20000,22.224,,,320,,,,,,,,,,,wg-a,,,,AAXX 23004 07690 12570 23212 10050 20010 30089 40121 51010 60006 82800 90000=
07690,1996-02-23 03:00:00,4,1011.5,-0.6,75,0,20000,14.816,,,320,,,,,,,,,,,wg-a,,,,AAXX 23034 07690 12/70 03208 10040 20000 30083 40115 58006 60006 80000 90300=
07690,1996-02-23 06:00:00,4,1011.8,0.3,65,-2,25000,18.52,,,320,3.8,8.7,,,,,,,,,wg-a,,,,AAXX 23064 07690 02575 33210 10040 21020 30086 40118 53003 60006 81831 90600 333 10087 20038 60004=
07690,1996-02-23 09:00:00,7,1012.5,0.7,53,-2,25000,14.816,,,340,,,,,,,,,,,wg-a,,,,AAXX 23094 07690 12675 /3408 10070 21020 30093 40125 51007 60006 81231 90900=
07690,1996-02-23 12:00:00,11,1011.7,-0.8,43,-1,500,7.408,,,150,,,,,,,,,,,wg-a,,,,AAXX 23124 07690 12600 /1504 10110 21010 30085 40117 58008 60006 83830 91200=
07690,1996-02-23 15:00:00,11,1010.7,-0.9,47,0,500,7.408,,,180,,,,,,,,,,,wg-a,,,,AAXX 23154 07690 12600 21804 10110 20000 30076 40107 56009 60006 82800 91500=
07690,1996-02-23 18:00:00,8,1011.4,0.6,61,1,25000,7.408,,,300,3.8,11.7,,,,,,,,,wg-a,,,,AAXX 23184 07690 12675 /3004 10080 20010 30082 40114 53006 60006 81800 91800 333 10117 20038=
07690,1996-02-23 21:00:00,4,1012.2,0.8,81,1,20000,18.52,,,340,,,,,,,,,,,wg-a,,,,AAXX 23214 07690 12570 /3410 10040 20010 30090 40122 53008 60006 81800 92100=
07690,1996-02-24 00:00:00,4,1013.5,1.3,75,0,20000,18.52,,,340,,,,,,,,,,,wg-a,,,,AAXX 24004 07690 12670 23410 10040 20000 30103 40135 53013 60006 82500 90000=
07690,1996-02-24 03:00:00,4,1014.2,0.7,70,-1,20000,18.52,,,350,,,,,,,,,,,wg-a,,,,AAXX 24034 07690 12570 /3510 10040 21010 30110 40142 51007 60006 85500 90300=
07690,1996-02-24 06:00:00,4,1015.5,1.3,65,-2,20000,11.112,,,360,3.3,7.7,,,,,,,,,wg-a,,,,AAXX 24064 07690 02570 43606 10040 21020 30123 40155 53013 60006 84800 90600 333 10077 20033 60004=
07690,1996-02-24 09:00:00,5,1016.9,1.4,56,-3,20000,18.52,,,340,,,,,,,,,,,wg-a,,,,AAXX 24094 07690 12570 73410 10050 21030 30137 40169 51014 60006 87800 90900=
07690,1996-02-24 12:00:00,10,1017.1,0.2,57,2,15000,7.408,,,190,,,,,,,,,,,wg-a,,,,AAXX 24124 07690 12565 /1904 10100 20020 30139 40171 50002 60006 85800 91200=
07690,1996-02-24 15:00:00,10,1015.9,-1.2,57,2,15000,11.112,,,190,,,,,,,,,,,wg-a,,,,AAXX 24154 07690 12565 /1906 10100 20020 30127 40159 57012 60006 81800 91500=
07690,1996-02-24 18:00:00,8,1016.8,0.9,76,4,15000,7.408,,,310,3.4,10.8,,,,,,,,,wg-a,,,,AAXX 24184 07690 12565 /3104 10080 20040 30136 40168 53009 60006 81100 91800 333 10108 20034=
07690,1996-02-24 21:00:00,5,1018,1.2,81,2,10000,18.52,,,330,,,,,,,,,,,wg-a,,,,AAXX 24214 07690 12660 23310 10050 20020 30148 40180 52012 60006 82500 92100=
07690,1996-02-25 00:00:00,5,1018.4,0.4,81,2,10000,22.224,,,340,,,,,,,,,,,wg-a,,,,AAXX 25004 07690 12760 43412 10050 20020 30152 40184 53004 60006 84500 90000=
07690,1996-02-25 03:00:00,5,1018.2,-0.2,75,1,12000,18.52,,,340,,,,,,,,,,,wg-a,,,,AAXX 25034 07690 12662 /3410 10050 20010 30150 40182 57002 60006 81500 90300=
07690,1996-02-25 06:00:00,5,1019,0.8,70,0,12000,25.928,,,340,4.8,8,,,,,,,,,wg-a,,,,AAXX 25064 07690 02662 53414 10050 20000 30158 40190 52008 60006 85500 90600 333 10080 20048 60004=
07690,1996-02-25 09:00:00,7,1020.3,1.3,61,0,500,22.224,,,340,,,,,,,,,,,wg-a,,,,AAXX 25094 07690 12500 73412 10070 20000 30171 40203 51013 60006 87500 90900=
07690,1996-02-25 12:00:00,13,1019.8,-0.5,54,4,500,14.816,,,100,,,,,,,,,,,wg-a,,,,AAXX 25124 07690 12600 41008 10130 20040 30166 40198 58005 60006 82830 91200=
07690,1996-02-25 14:00:00,12,1019.4,-0.4,67,6,20000,18.52,,,110,,,,,,,,,,,wg-a,,,,AAXX 25144 07690 12670 31110 10120 20060 30162 40194 55004 60006 82230 91400=
07690,1996-02-25 15:00:00,12,1019.4,-0.4,67,6,20000,18.52,,,110,,,,,,,,,,,wg-a,,,,AAXX 25154 07690 12670 31110 10120 20060 30162 40194 55004 60006 82230 91500=
07690,1996-02-25 18:00:00,11,1020.7,1.3,71,6,20000,25.928,,,90,4.8,13.3,,,,,,,,,wg-a,,,,AAXX 25184 07690 12570 30914 10110 20060 30175 40207 53013 60006 83800 91800 333 10133 20048=
07690,1996-02-25 21:00:00,7,1020.7,0,81,4,20000,14.816,,,320,,,,,,,,,,,wg-a,,,,AAXX 25214 07690 12570 /3208 10070 20040 30175 40207 50000 60006 81800 92100=
07690,1996-02-26 00:00:00,6,1020.6,-0.1,87,4,15000,14.816,,,340,,,,,,,,,,,wg-a,,,,AAXX 26004 07690 12665 33408 10060 20040 30174 40206 55001 60006 83500 90000=
07690,1996-02-26 03:00:00,6,1019.5,-1.1,75,2,20000,18.52,,,320,,,,,,,,,,,wg-a,,,,AAXX 26034 07690 12670 /3210 10060 20020 30163 40195 58011 60006 86500 90300=
07690,1996-02-26 06:00:00,6,1019.2,-0.3,75,2,500,18.52,,,340,5.6,10.7,,,,,,,,,wg-a,,,,AAXX 26064 07690 02500 /3410 10060 20020 30160 40192 56003 60006 85800 90600 333 10107 20056 60004=
07690,1996-02-26 09:00:00,12,1018.9,-0.3,62,5,500,38.892,,,80,,,,,,,,,,,wg-a,,,,AAXX 26094 07690 12500 /0821 10120 20050 30157 40189 58003 60006 85801 90900=
07690,1996-02-26 12:00:00,13,1018.1,-0.7,62,6,20000,46.3,,,90,,,,,,,,,,,wg-a,,,,AAXX 26124 07690 12570 70925 10130 20060 30150 40181 58007 60006 8387/ 91200=
07690,1996-02-26 15:00:00,11,1017.6,-0.6,66,5,20000,38.892,,,80,,,,,,,,,,1,wg-a,,,,AAXX 26154 07690 02570 70821 10110 20050 30144 40176 56006 61000 70186 8387/ 91500 333 ////=
07690,1996-02-26 18:00:00,9,1018.7,1.1,76,5,20000,14.816,,,30,5.8,12.9,,0,,,,,,60,wg-a,,,,AAXX 26184 07690 12570 80308 10090 20050 30155 40187 51011 60007 76086 8457/ 91800 333 10129 20058=
07690,1996-02-26 21:00:00,9,1018.7,-0,76,5,15000,14.816,,,360,,,,0,,,,,,61,wg-a,,,,AAXX 26214 07690 12665 83608 10090 20050 30155 40187 55000 60007 76162 8657/ 92100=
07690,1996-02-27 00:00:00,9,1018.1,-0.6,76,5,15000,14.816,,,30,,,,0,,,,,,2,wg-a,,,,AAXX 27004 07690 02665 80308 10090 20050 30149 40181 57006 60016 70262 8657/ 90000 333 60007=
07690,1996-02-27 03:00:00,10,1017.1,-1,66,4,15000,22.224,,,30,,,,,,,,,,61,wg-a,,,,AAXX 27034 07690 02265 80312 10100 20040 30139 40171 57010 61000 76162 878// 90300 333 ////=
07690,1996-02-27 06:00:00,10,1017.4,0.3,71,5,15000,22.224,,,40,8.8,10.4,,0,,,1,,,60,wg-a,,,,AAXX 27064 07690 02665 80412 10100 20050 30142 40174 53003 60014 76062 875// 90600 333 10104 20088 60007=
07690,1996-02-27 09:00:00,10,1018.1,0.7,71,5,20000,14.816,,,20,,,,,,,,,,2,wg-a,,,,AAXX 27094 07690 02570 80208 10100 20050 30149 40181 51007 61000 70262 878// 90900 333 ////=
07690,1996-02-27 12:00:00,12,1017.6,-0.4,62,5,500,11.112,,,10,,,,,,,,,,1,wg-a,,,,AAXX 27124 07690 02500 70106 10120 20050 30145 40176 58004 61000 70162 8587/ 91200 333 ////=
07690,1996-02-27 15:00:00,11,1016.8,-0.9,71,6,500,14.816,,,330,,,,,,,,,,,wg-a,,,,AAXX 27154 07690 12700 73308 10110 20060 30136 40168 56009 60006 8557/ 91500=
07690,1996-02-27 18:00:00,10,1017.6,0.8,76,6,20000,14.816,,,340,8.5,12.6,,,,,,,,,wg-a,,,,AAXX 27184 07690 32770 /3408 10100 20060 30144 40176 53008 81532 91800 333 10126 20085=
07690,1996-02-27 21:00:00,9,1017.4,-0.2,76,5,20000,14.816,,,330,,,,,,,,,,,wg-a,,,,AAXX 27214 07690 12/70 33308 10090 20050 30142 40174 58002 60006 80002 92100=
07690,1996-02-28 00:00:00,8,1017.4,-0,76,4,20000,18.52,,,340,,,,,,,,,,,wg-a,,,,AAXX 28004 07690 12/70 23410 10080 20040 30142 40174 55000 60006 80002 90000=
07690,1996-02-28 03:00:00,7,1017,-0.4,76,3,20000,25.928,,,330,,,,,,,,,,,wg-a,,,,AAXX 28034 07690 12/70 03314 10070 20030 30138 40170 58004 60006 80000 90300=
07690,1996-02-28 06:00:00,6,1017.6,0.6,75,2,10000,25.928,,,340,5.5,9.7,,,,,,,,,wg-a,,,,AAXX 28064 07690 02/60 /3414 10060 20020 30144 40176 53006 60006 90600 333 10097 20055 61000=
07690,1996-02-28 09:00:00,9,1017.8,0.2,61,2,20000,14.816,,,330,,,,,,,,,,,wg-a,,,,AAXX 28094 07690 12/70 33308 10090 20020 30146 40178 50002 60006 80001 90900=
07690,1996-02-28 12:00:00,13,1017.7,0,58,5,20000,11.112,,,150,,,,,,,,,,,wg-a,,,,AAXX 28124 07690 12570 /1506 10130 20050 30146 40177 50000 60006 81501 91200=
07690,1996-02-28 15:00:00,14,1017.1,-0.6,51,4,15000,7.408,,,130,,,,,,,,,,,wg-a,,,,AAXX 28154 07690 12/65 31304 10140 20040 30140 40171 56006 60006 80001 91500=
07690,1996-02-28 18:00:00,10,1018.4,1.2,76,6,12000,3.704,,,280,5.4,14,,,,,,,,,wg-a,,,,AAXX 28184 07690 12/62 12802 10100 20060 30152 40184 53012 60006 80001 91800 333 10140 20054=
07690,1996-02-28 21:00:00,8,1018.9,0.5,87,6,12000,18.52,,,340,,,,,,,,,,,wg-a,,,,AAXX 28214 07690 12/62 03410 10080 20060 30157 40189 51005 60006 80000 92100=
07690,1996-02-29 03:00:00,7,1018.7,-0.2,81,4,15000,14.816,,,350,,,,,,,,,,,wg-a,,,,AAXX 29034 07690 12/65 03508 10070 20040 30155 40187 58002 60006 80000 90300=
07690,1996-02-29 06:00:00,6,1019,0.3,81,3,20000,25.928,,,340,6.2,10.4,,,,,,,,,wg-a,,,,AAXX 29064 07690 02/70 03414 10060 20030 30158 40190 53003 60006 80000 90600 333 10104 20062 60004=
07690,1996-02-29 09:00:00,10,1020.4,1.4,62,3,25000,11.112,,,340,,,,,,,,,,,wg-a,,,,AAXX 29094 07690 12/75 13406 10100 20030 30172 40204 52014 60006 80001 90900=
07690,1996-02-29 12:00:00,14,1020.1,-0.2,63,7,25000,11.112,,,190,,,,,,,,,,,wg-a,,,,AAXX 29124 07690 12775 11906 10140 20070 30170 40201 58002 60006 81101 91200=
07690,1996-02-29 15:00:00,14,1019.5,-0.6,63,7,20000,14.816,,,210,,,,,,,,,,,wg-a,,,,AAXX 29154 07690 12770 /2108 10140 20070 30164 40195 56006 60006 8120/ 91500=
07690,1996-02-29 18:00:00,12,1020.4,0.8,76,8,15000,7.408,,,280,6.2,14.4,,,,,,,,,wg-a,,,,AAXX 29184 07690 12765 42804 10120 20080 30172 40204 53008 60006 84500 91800 333 10144 20062=
07690,1996-02-29 21:00:00,9,1020.2,-0.2,81,6,12000,18.52,,,340,,,,,,,,,,,wg-a,,,,AAXX 29214 07690 12/62 03410 10090 20060 30170 40202 58002 60006 80000 92100=
07690,1996-03-01 00:00:00,9,1019.2,-1,76,5,12000,11.112,,,350,,,,,,,,,,,wg-a,,,,AAXX 01004 07690 12/62 03506 10090 20050 30160 40192 56010 60006 80000 90000=
07690,1996-03-01 03:00:00,8,1017.8,-1.4,76,4,12000,14.816,,,340,,,,,,,,,,,wg-a,,,,AAXX 01034 07690 12/62 03408 10080 20040 30146 40178 58014 60006 80000 90300=
07690,1996-03-01 06:00:00,7,1016.6,-1.2,70,2,20000,22.224,,,340,7.3,11.5,,,,,,,,,wg-a,,,,AAXX 01064 07690 02/70 03412 10070 20020 30134 40166 56012 60006 80000 90600 333 10115 20073 60004=
07690,1996-03-01 09:00:00,11,1015.9,-0.7,58,3,20000,7.408,,,350,,,,,,,,,,,wg-a,,,,AAXX 01094 07690 12/70 23504 10110 20030 30127 40159 58007 60006 80001 90900=
07690,1996-03-01 12:00:00,14,1013.3,-2.5,72,9,10000,11.112,,,120,,,,,,,,,,,wg-a,,,,AAXX 01124 07690 12/60 11206 10140 20090 30102 40133 58025 60006 80001 91200=
07690,1996-03-01 15:00:00,14,1010.2,-3.1,72,9,6000,7.408,,,110,,,,,,,,,,,wg-a,,,,AAXX 01154 07690 12/56 01104 10140 20090 30071 40102 56031 60006 80000 91500=
07690,1996-03-01 18:00:00,11,1009.3,-0.9,82,8,15000,3.704,,,100,7.3,14.5,,,,,,,,,wg-a,,,,AAXX 01184 07690 12/65 01002 10110 20080 30062 40093 56009 60006 80000 91800 333 10145 20073=
07690,1996-03-01 19:00:00,11,1009.5,,82,8,15000,3.704,,,100,7.3,14.5,,,,,,,,,wg-a,,,,AAXX 01194 07690 12/65 01002 10110 20080 30062 40095 60006 80000 91900 333 10145 20073=
07690,1996-03-01 21:00:00,8,1008.4,-1,93,7,9000,14.816,,,120,,,,,,,,,,,wg-a,,,,AAXX 01214 07690 12/59 01208 10080 20070 30052 40084 57010 60006 80000 92100=
07690,1996-03-02 00:00:00,7,1008.3,-0.1,93,6,10000,14.816,,,120,,,,,,,,,,,wg-a,,,,AAXX 02004 07690 12460 /1208 10070 20060 30051 40083 55001 60006 85500 90000=
07690,1996-03-02 03:00:00,6,1008,-0.3,87,4,12000,14.816,,,120,,,,,,,,,,,wg-a,,,,AAXX 02034 07690 12562 /1208 10060 20040 30048 40080 56003 60006 82500 90300=
07690,1996-03-02 06:00:00,6,1009.7,1.7,87,4,10000,22.224,,,120,5.8,10.9,,,,,,,,,wg-a,,,,AAXX 02064 07690 02560 51212 10060 20040 30065 40097 53017 60006 85500 90600 333 10109 20058 60004=
07690,1996-03-02 09:00:00,12,1011,1.4,58,4,6000,42.596,,,120,,,,,,,,,,,wg-a,,,,AAXX 02094 07690 12556 21223 10120 20040 30079 40110 50014 60006 82500 90900=
07690,1996-03-02 12:00:00,12,1011.8,0.8,40,-1,10000,46.3,,,110,,,,,,,,,,,wg-a,,,,AAXX 02124 07690 12560 71125 10120 21010 30087 40118 52008 60006 8588/ 91200=
07690,1996-03-02 15:00:00,11,1012.8,1,47,0,15000,25.928,,64.82,90,,,,,,,,,,,wg-a,,,,AAXX 02154 07690 12565 70914 10110 20000 30097 40128 51010 60006 8583/ 91500 333 91035=
07690,1996-03-02 18:00:00,8,1014.1,1.2,61,1,10000,18.52,,,40,6.2,12.6,,,,,,,,,wg-a,,,,AAXX 02184 07690 12560 70410 10080 20010 30109 40141 53012 60006 8587/ 91800 333 10126 20062=
07690,1996-03-02 21:00:00,7,1014.5,0.4,70,2,10000,7.408,,,340,,,,,,,,,,,wg-a,,,,AAXX 02214 07690 12760 /3404 10070 20020 30113 40145 52004 60006 86500 92100=
07690,1996-03-03 00:00:00,7,1014,-0.5,70,2,10000,14.816,,,340,,,,,,,,,,,wg-a,,,,AAXX 03004 07690 12760 /3408 10070 20020 30108 40140 58005 60006 86500 90000=
07690,1996-03-03 03:00:00,7,1012.5,-1.5,70,2,15000,11.112,,,350,,,,,,,,,,,wg-a,,,,AAXX 03034 07690 12765 73506 10070 20020 30093 40125 58015 60006 875// 90300=
07690,1996-03-03 06:00:00,7,1012.2,-0.3,66,1,10000,18.52,,,320,6.5,8.4,,,,,,,,,wg-a,,,,AAXX 03064 07690 02760 73210 10070 20010 30090 40122 55003 60006 8453/ 90600 333 10084 20065 60004=
07690,1996-03-03 09:00:00,8,1012.9,0.7,66,2,15000,11.112,,,340,,,,,,,,,,,wg-a,,,,AAXX 03094 07690 12565 73406 10080 20020 30097 40129 51007 60006 8357/ 90900=
07690,1996-03-03 15:00:00,7,1011.4,-0.9,76,3,20000,18.52,,,120,,,,2,,,,,,60,wg-a,,,,AAXX 03154 07690 12470 71210 10070 20030 30082 40114 57009 60027 76062 878// 91500=
07690,1996-03-03 18:00:00,6,1012.7,1.3,87,4,10000,14.816,,,280,5.5,9.3,,1,,,,,,60,wg-a,,,,AAXX 03184 07690 12460 82808 10060 20040 30095 40127 53013 60017 76062 878// 91800 333 10093 20055=
07690,1996-03-03 21:00:00,5,1013.6,0.9,87,3,10000,18.52,,,330,,,,2,,,,,,60,wg-a,,,,AAXX 03214 07690 12260 83310 10050 20030 30104 40136 51009 60027 76066 878// 92100=
07690,1996-03-04 00:00:00,5,1013.6,0,81,2,11000,14.816,,,320,,,,,,,,,,,wg-a,,,,AAXX 04004 07690 12/61 /3208 10050 20020 30104 40136 50000 60026 90000=
07690,1996-03-04 03:00:00,5,1013.4,-0.2,81,2,15000,11.112,,,330,,,,,,,,,,,wg-a,,,,AAXX 04034 07690 12465 73306 10050 20020 30102 40134 58002 60006 878// 90300=
07690,1996-03-04 06:00:00,4,1014,0.6,75,0,20000,14.816,,,320,4.1,5.5,,,,,5,,,,wg-a,,,,AAXX 04064 07690 12570 73208 10040 20000 30108 40140 53006 60054 8587/ 90600 333 10055 20041=
07690,1996-03-04 09:00:00,8,1015,1,49,-2,500,7.408,,,10,,,,,,,,,,,wg-a,,,,AAXX 04094 07690 12500 20104 10080 21020 30118 40150 51010 60006 8283/ 90900=
07690,1996-03-04 12:00:00,11,1014,-1,28,-7,500,11.112,,,130,,,,,,,,,,,wg-a,,,,AAXX 04124 07690 12600 21306 10110 21070 30108 40140 58010 60006 82200 91200=
07690,1996-03-04 15:00:00,10,1012.9,-1.1,32,-6,35000,11.112,,,150,,,,,,,,,,,wg-a,,,,AAXX 04154 07690 12781 /1506 10100 21060 30097 40129 56011 60006 81200 91500=
07690,1996-03-04 18:00:00,8,1014.3,1.4,39,-5,500,3.704,,,200,4.4,10.9,,,,,,,,,wg-a,,,,AAXX 04184 07690 12700 /2002 10080 21050 30111 40143 53014 60006 81530 91800 333 10109 20044=
07690,1996-03-04 21:00:00,4,1016.6,2.3,65,-2,25000,14.816,,,320,,,,,,,,,,,wg-a,,,,AAXX 04214 07690 12/75 /3208 10040 21020 30134 40166 53023 60006 81030 92100=
07690,1996-03-05 00:00:00,4,1018.5,1.9,65,-2,25000,14.816,,,330,,,,,,,,,,,wg-a,,,,AAXX 05004 07690 12/75 03308 10040 21020 30153 40185 52019 60006 80000 90000=
07690,1996-03-05 03:00:00,4,1019.9,1.3,65,-2,25000,25.928,,,320,,,,,,,,,,,wg-a,,,,AAXX 05034 07690 12/75 03214 10040 21020 30166 40199 51013 60006 80000 90300=
07690,1996-03-05 06:00:00,3,1021.9,2,65,-3,25000,25.928,,,330,2.9,8.3,,,,,,,,,wg-a,,,,AAXX 05064 07690 02575 /3314 10030 21030 30186 40219 51020 60006 81100 90600 333 10083 20029 60004=
07690,1996-03-05 09:00:00,7,1023.9,2.1,49,-3,20000,14.816,,,340,,,,,,,,,,,wg-a,,,,AAXX 05094 07690 12570 /3408 10070 21030 30207 40239 51021 60006 81100 90900=
07690,1996-03-05 12:00:00,11,1023.9,0,40,-2,25000,14.816,,,180,,,,,,,,,,,wg-a,,,,AAXX 05124 07690 12575 /1808 10110 21020 30207 40239 50000 60006 81100 91200=
07690,1996-03-05 15:00:00,11,1022.7,-1.2,43,-1,25000,14.816,,,210,,,,,,,,,,,wg-a,,,,AAXX 05154 07690 12675 /2108 10110 21010 30195 40227 56012 60006 81500 91500=
07690,1996-03-05 18:00:00,9,1022.8,0.1,71,4,20000,18.52,,,220,2.9,11.2,,,,,,,,,wg-a,,,,AAXX 05184 07690 12670 /2210 10090 20040 30196 40228 53001 60006 81170 91800 333 10112 20029=
07690,1996-03-05 21:00:00,5,1023.1,0.2,75,1,18000,14.816,,,320,,,,,,,,,,,wg-a,,,,AAXX 05214 07690 12468 23208 10050 20010 30198 40231 53002 60006 82500 92100=
07690,1996-03-06 00:00:00,5,1023,-0.1,70,0,15000,11.112,,,310,,,,,,,,,,,wg-a,,,,AAXX 06004 07690 12/65 03106 10050 20000 30197 40230 58001 60006 80000 90000=
07690,1996-03-06 03:00:00,4,1021.5,-1.5,75,0,15000,22.224,,,320,,,,,,,,,,,wg-a,,,,AAXX 06034 07690 12/65 03212 10040 20000 30182 40215 58015 60006 80000 90300=
07690,1996-03-06 06:00:00,4,1021.1,-0.4,70,-1,15000,22.224,,,330,3.6,9.2,,,,,,,,,wg-a,,,,AAXX 06064 07690 02565 /3312 10040 21010 30178 40211 56004 60006 81500 90600 333 10092 20036 60004=
07690,1996-03-06 09:00:00,8,1021.5,0.5,53,-1,20000,18.52,,,340,,,,,,,,,,,wg-a,,,,AAXX 06094 07690 12670 33410 10080 21010 30183 40215 50005 60006 83500 90900=
07690,1996-03-06 12:00:00,12,1019.6,-1.9,54,3,25000,22.224,,,180,,,,,,,,,,,wg-a,,,,AAXX 06124 07690 12675 /1812 10120 20030 30164 40196 57019 60006 81530 91200=
07690,1996-03-06 15:00:00,12,1018.4,-1.2,50,2,25000,7.408,,,170,,,,,,,,,,,wg-a,,,,AAXX 06154 07690 12675 21704 10120 20020 30152 40184 56012 60006 82830 91500=
07690,1996-03-06 18:00:00,10,1018.1,-0.3,62,3,11000,3.704,,,90,3.7,12.5,,,,,,,,,wg-a,,,,AAXX 06184 07690 12661 /0902 10100 20030 30149 40181 56003 60006 85830 91800 333 10125 20037=
07690,1996-03-06 21:00:00,7,1017.3,-0.8,81,4,20000,11.112,,,320,,,,,,,,,,,wg-a,,,,AAXX 06214 07690 12570 33206 10070 20040 30141 40173 57008 60006 81130 92100=
07690,1996-03-07 00:00:00,7,1015.5,-1.8,81,4,20000,11.112,,,330,,,,,,,,,,,wg-a,,,,AAXX 07004 07690 12570 33306 10070 20040 30123 40155 58018 60006 82130 90000=
07690,1996-03-07 03:00:00,7,1013.7,-1.8,76,3,20000,11.112,,,320,,,,,,,,,,,wg-a,,,,AAXX 07034 07690 12570 73206 10070 20030 30105 40137 58018 60006 83870 90300=
07690,1996-03-07 06:00:00,7,1012.9,-0.8,87,5,12000,11.112,,,270,6.4,10.1,,2,,,2,,,61,wg-a,,,,AAXX 07064 07690 02562 82706 10070 20050 30097 40129 56008 60024 76196 84970 90600 333 10101 20064 60027=
07690,1996-03-07 09:00:00,7,1013.6,0.7,87,5,7000,25.928,,,120,,,,2,,,,,,61,wg-a,,,,AAXX 07094 07690 12257 81214 10070 20050 30104 40136 53007 60027 76166 8427/ 90900=
07690,1996-03-07 12:00:00,8,1014.1,0.5,87,6,6000,14.816,,,20,,,,3,,,,,,60,wg-a,,,,AAXX 07124 07690 02256 80208 10080 20060 30109 40141 51005 60056 76066 8427/ 91200 333 60037=
07690,1996-03-07 15:00:00,10,1013.3,-0.8,62,3,20000,35.188,,,100,,,,0,,,,,,3,wg-a,,,,AAXX 07154 07690 12570 71019 10100 20030 30101 40133 56008 60007 70362 8687/ 91500=
07690,1996-03-07 18:00:00,10,1015.2,1.9,40,-3,15000,29.632,,55.56,50,6.5,11,,,,,,,,1,wg-a,,,,AAXX 07184 07690 32565 30516 10100 21030 30120 40152 53019 70161 8253/ 91800 333 10110 20065 91030=
07690,1996-03-07 21:00:00,9,1017,1.8,40,-4,15000,22.224,,38.892,40,,,,,,,,,,,wg-a,,,,AAXX 07214 07690 12565 /0412 10090 21040 30138 40170 52018 60006 81530 92100 333 91021=
07690,1996-03-08 00:00:00,8,1017.7,0.7,53,-1,15000,25.928,,,60,,,,,,,,,,,wg-a,,,,AAXX 08004 07690 12565 /0614 10080 21010 30145 40177 51007 60006 81500 90000=
07690,1996-03-08 03:00:00,4,1018.3,0.6,70,-1,15000,18.52,,,340,,,,,,,,,,,wg-a,,,,AAXX 08034 07690 12/65 /3410 10040 21010 30151 40183 51006 60006 80001 90300=
07690,1996-03-08 06:00:00,3,1019.1,0.7,70,-2,15000,22.224,,,340,3.4,10.3,,,,,5,,,,wg-a,,,,AAXX 08064 07690 02565 13412 10030 21020 30158 40191 53007 60006 81501 90600 333 10103 20034 60054=
07690,1996-03-08 09:00:00,12,1020,1,44,0,500,50.004,,,90,,,,,,,,,,,wg-a,,,,AAXX 08094 07690 12/00 /0927 10120 20000 30168 40200 51010 60006 81030 90900=
07690,1996-03-08 12:00:00,13,1019.7,-0.2,47,2,500,50.004,,,100,,,,,,,,,,,wg-a,,,,AAXX 08124 07690 12/00 /1027 10130 20020 30166 40197 58002 60006 81030 91200=
07690,1996-03-08 15:00:00,13,1019.7,-0.1,41,0,500,38.892,,68.524,100,,,,,,,,,,,wg-a,,,,AAXX 08154 07690 12600 31021 10130 20000 30165 40197 58001 60006 81530 91500 333 91037=
07690,1996-03-08 18:00:00,12,1020.6,0.9,38,-2,10000,38.892,,,70,3.3,13.5,,,,,,,,,wg-a,,,,AAXX 08184 07690 12/60 /0721 10120 21020 30174 40206 53009 60006 91800 333 10135 20033=
07690,1996-03-08 21:00:00,10,1021.7,1.1,53,1,10000,18.52,,,50,,,,,,,,,,,wg-a,,,,AAXX 08214 07690 12/60 /0510 10100 20010 30185 40217 51011 60006 92100=
07690,1996-03-09 00:00:00,9,1022,0.3,49,-1,20000,25.928,,,60,,,,,,,,,,,wg-a,,,,AAXX 09004 07690 12/70 50614 10090 21010 30188 40220 53003 60006 85030 90000=
07690,1996-03-09 03:00:00,8,1021.9,-0.1,57,0,20000,22.224,,,60,,,,,,,,,,,wg-a,,,,AAXX 09034 07690 12/70 50612 10080 20000 30187 40219 58001 60006 85030 90300=
07690,1996-03-09 06:00:00,7,1021.8,-0.1,66,1,20000,11.112,,,320,7.1,11.8,,,,,,,,,wg-a,,,,AAXX 09064 07690 02/70 63206 10070 20010 30186 40218 55001 60006 86030 90600 333 10118 20071 60004=
07690,1996-03-09 09:00:00,11,1022.4,0.6,47,0,15000,18.52,,,100,,,,,,,,,,,wg-a,,,,AAXX 09094 07690 12865 51010 10110 20000 30192 40224 51006 60006 85070 90900=
07690,1996-03-09 12:00:00,12,1021.4,-1,50,2,12000,31.484,,,100,,,,,,,,,,,wg-a,,,,AAXX 09124 07690 12862 71017 10120 20020 30182 40214 58010 60006 87070 91200=
07690,1996-03-09 15:00:00,12,1019.6,-1.8,50,2,6000,31.484,,,100,,,,,,,,,,,wg-a,,,,AAXX 09154 07690 12856 31017 10120 20020 30164 40196 58018 60006 83070 91500=
07690,1996-03-09 18:00:00,10,1020.4,0.8,57,2,10000,31.484,,,70,6.9,12.8,,,,,,,,,wg-a,,,,AAXX 09184 07690 12/60 20717 10100 20020 30172 40204 53008 60006 82030 91800 333 10128 20069=
07690,1996-03-09 21:00:00,7,1020.5,0.1,70,2,10000,11.112,,,320,,,,,,,,,,,wg-a,,,,AAXX 09214 07690 12/60 43206 10070 20020 30173 40205 53001 60006 84030 92100=
07690,1996-03-10 00:00:00,7,1019.5,-1,70,2,10000,14.816,,,320,,,,,,,,,,,wg-a,,,,AAXX 10004 07690 12/60 33208 10070 20020 30163 40195 58010 60006 83030 90000=
07690,1996-03-10 03:00:00,6,1018,-1.5,81,3,10000,18.52,,,310,,,,,,,,,,,wg-a,,,,AAXX 10034 07690 12/60 33110 10060 20030 30148 40180 58015 60006 83030 90300=
07690,1996-03-10 06:00:00,6,1017.4,-0.6,75,2,8000,18.52,,,320,6.3,10.4,,,,,,,,,wg-a,,,,AAXX 10064 07690 02/58 73210 10060 20020 30142 40174 56006 60006 8703/ 90600 333 10104 20063 60004=
07690,1996-03-10 09:00:00,9,1017,-0.4,66,3,6000,11.112,,,340,,,,,,,,,,,wg-a,,,,AAXX 10094 07690 12/56 /3406 10090 20030 30138 40170 58004 60006 90900=
07690,1996-03-10 12:00:00,12,1015.6,-1.3,50,2,8000,11.112,,,120,,,,,,,,,,,wg-a,,,,AAXX 10124 07690 12/58 71206 10120 20020 30125 40156 58013 60006 8703/ 91200=
07690,1996-03-10 15:00:00,12,1014.5,-1.1,50,2,8000,14.816,,,120,,,,,,,,,,,wg-a,,,,AAXX 10154 07690 12/58 71208 10120 20020 30114 40145 56011 60006 8703/ 91500=
07690,1996-03-10 18:00:00,10,1015.3,0.7,62,3,9000,14.816,,,280,6.4,12.2,,,,,,,,,wg-a,,,,AAXX 10184 07690 12559 /2808 10100 20030 30121 40153 51007 60006 8553/ 91800 333 10122 20064=
07690,1996-03-10 21:00:00,7,1015.8,0.5,76,3,9000,7.408,,,310,,,,,,,,,,,wg-a,,,,AAXX 10214 07690 12/59 03104 10070 20030 30126 40158 53005 60006 80000 92100=
07690,1996-03-11 03:00:00,4,1013.8,-1.1,81,1,10000,18.52,,,340,,,,,,,,,,,wg-a,,,,AAXX 11034 07690 12/60 /3410 10040 20010 30106 40138 56011 60006 80000 90300=
07690,1996-03-11 06:00:00,4,1013,-0.8,75,0,8000,22.224,,,340,3.6,10,,,,,,,,,wg-a,,,,AAXX 11064 07690 02558 13412 10040 20000 30098 40130 55008 60006 81500 90600 333 10100 20036 60004=
07690,1996-03-11 09:00:00,8,1013.1,0.1,61,1,8000,11.112,,,330,,,,,,,,,,,wg-a,,,,AAXX 11094 07690 12/58 03306 10080 20010 30099 40131 52001 60006 80000 90900=
07690,1996-03-11 12:00:00,13,1012.1,-0.9,38,-1,10000,14.816,,,170,,,,,,,,,,,wg-a,,,,AAXX 11124 07690 12560 31708 10130 21010 30090 40121 57009 60006 81101 91200=
07690,1996-03-11 21:00:00,7,1009.2,-0.7,81,4,10000,14.816,,,320,,,,,,,,,,,wg-a,,,,AAXX 11214 07690 12/60 03208 10070 20040 30060 40092 58007 60006 80000 92100=
07690,1996-03-12 00:00:00,7,1007,-2.2,76,3,10000,22.224,,,310,,,,,,,,,,,wg-a,,,,AAXX 12004 07690 12/60 03112 10070 20030 30038 40070 58022 60006 80000 90000=
07690,1996-03-12 03:00:00,5,1004,-3,75,1,10000,22.224,,,320,,,,,,,,,,,wg-a,,,,AAXX 12034 07690 12/60 03212 10050 20010 30008 40040 58030 60006 80000 90300=
07690,1996-03-12 06:00:00,4,1002.4,-1.6,70,-1,12000,25.928,,,340,4.4,10.1,,,,,,,,,wg-a,,,,AAXX 12064 07690 02562 43414 10040 21010 39992 40024 56016 60006 81502 90600 333 10101 20044 60004=
07690,1996-03-12 09:00:00,8,1001.7,-0.7,53,-1,8000,22.224,,,330,,,,,,,,,,,wg-a,,,,AAXX 12094 07690 12558 /3312 10080 21010 39985 40017 56007 60006 81502 90900=
07690,1996-03-12 12:00:00,13,1000.3,-1.3,58,5,7000,14.816,,,140,,,,,,,,,,,wg-a,,,,AAXX 12124 07690 12657 /1408 10130 20050 39972 40003 56013 60006 82532 91200=
07690,1996-03-12 15:00:00,13,999.9,-0.4,54,4,7000,18.52,,,120,,,,,,,,,,,wg-a,,,,AAXX 12154 07690 12557 41210 10130 20040 39968 49999 55004 60006 82202 91500=
07690,1996-03-12 18:00:00,11,1001,1.1,62,4,8000,18.52,,,110,4.4,13.3,,,,,,,,,wg-a,,,,AAXX 12184 07690 12558 51110 10110 20040 39979 40010 53011 60006 83530 91800 333 10133 20044=
07690,1996-03-12 21:00:00,10,1002.7,1.7,66,4,10000,11.112,,,140,,,,,,,,,,,wg-a,,,,AAXX 12214 07690 12660 51406 10100 20040 39996 40027 51017 60006 82530 92100=
07690,1996-03-13 00:00:00,7,1004.5,1.7,81,4,10000,14.816,,,320,,,,,,,,,,,wg-a,,,,AAXX 13004 07690 12660 33208 10070 20040 30013 40045 51017 60006 83500 90000=
07690,1996-03-13 03:00:00,7,1004.8,0.3,76,3,10000,18.52,,,320,,,,,,,,,,,wg-a,,,,AAXX 13034 07690 12660 /3210 10070 20030 30016 40048 51003 60006 85500 90300=
07690,1996-03-13 06:00:00,6,1005.5,0.7,75,2,6000,22.224,,,340,5.8,10.8,,,,,,,,,wg-a,,,,AAXX 13064 07690 02756 /3412 10060 20020 30023 40055 53007 60006 81500 90600 333 10108 20058 60004=
07690,1996-03-13 09:00:00,9,1006.1,0.7,66,3,7000,11.112,,,330,,,,,,,,,,,wg-a,,,,AAXX 13094 07690 12757 /3306 10090 20030 30030 40061 51007 60006 83530 90900=
07690,1996-03-13 12:00:00,12,1006.5,0.4,58,4,7000,22.224,,,110,,,,,,,,,,,wg-a,,,,AAXX 13124 07690 12657 21112 10120 20040 30034 40065 53004 60006 82502 91200=
07690,1996-03-13 15:00:00,11,1006.5,-0,58,3,7000,18.52,,,110,,,,,,,,,,,wg-a,,,,AAXX 13154 07690 12657 /1110 10110 20030 30034 40065 55000 60006 83532 91500=
07690,1996-03-13 18:00:00,11,1006.6,0.1,54,2,9000,18.52,,,70,5.7,12.4,,,,,,,,,wg-a,,,,AAXX 13184 07690 12659 70710 10110 20020 30035 40066 53001 60006 8157/ 91800 333 10124 20057=
07690,1996-03-13 21:00:00,9,1007.7,1.1,71,4,15000,11.112,,,10,,,,,,,,,,,wg-a,,,,AAXX 13214 07690 12665 70106 10090 20040 30046 40077 51011 60006 8257/ 92100=
07690,1996-03-14 00:00:00,8,1008,0.2,87,6,8000,11.112,,,320,,,,1,,,,,,21,wg-a,,,,AAXX 14004 07690 02658 83206 10080 20060 30048 40080 51002 60016 72162 8257/ 90000 333 60017=
07690,1996-03-14 03:00:00,10,1006,-1.9,66,4,10000,25.928,,,350,,,,,,,,,,,wg-a,,,,AAXX 14034 07690 12660 83514 10100 20040 30029 40060 56019 60006 8257/ 90300=
07690,1996-03-14 06:00:00,9,1006.1,0.1,76,5,12000,14.816,,,360,8.2,10.9,,0,,,1,,,3,wg-a,,,,AAXX 14064 07690 02562 83608 10090 20050 30030 40061 53001 60014 70362 8557/ 90600 333 10109 20082 60007=
07690,1996-03-14 09:00:00,12,1006.3,0.2,82,9,12000,31.484,,,80,,,,,,,,,,60,wg-a,,,,AAXX 14094 07690 02562 80817 10120 20090 30032 40063 53002 61000 76062 8557/ 90900 333 ////=
07690,1996-03-14 12:00:00,12,1006.3,0,71,7,15000,31.484,,,80,,,,0,,,,,,21,wg-a,,,,AAXX 14124 07690 02465 80817 10120 20070 30032 40063 50000 60016 72162 8557/ 91200 333 60007=
07690,1996-03-14 15:00:00,11,1006.3,-0,87,9,6000,11.112,,,340,,,,0,,,,,,61,wg-a,,,,AAXX 14154 07690 12556 83406 10110 20090 30032 40063 55000 60007 76162 8557/ 91500=
07690,1996-03-14 18:00:00,9,1006.3,-0,93,8,9000,7.408,,,350,9.1,12.7,,4,,,,,,61,wg-a,,,,AAXX 14184 07690 12559 83504 10090 20080 30032 40063 55000 60047 76162 8557/ 91800 333 10127 20091=
07690,1996-03-14 21:00:00,10,1006.9,0.6,82,7,11000,14.816,,,10,,,,,,,,,,,wg-a,,,,AAXX 14214 07690 32/61 /0108 10100 20070 30038 40069 51006 92100=
07690,1996-03-15 00:00:00,10,1006.1,-0.8,82,7,12000,14.816,,,360,,,,3,,,,,,61,wg-a,,,,AAXX 15004 07690 02562 83608 10100 20070 30030 40061 56008 60066 76162 8587/ 90000 333 60037=
07690,1996-03-15 03:00:00,11,1004.6,-1.5,71,6,15000,22.224,,,10,,,,0,,,,,,60,wg-a,,,,AAXX 15034 07690 12565 80112 10110 20060 30015 40046 58015 60007 76062 8587/ 90300=
07690,1996-03-15 06:00:00,11,1003,-1.6,71,6,16000,18.52,,,20,9.1,11.7,,0,,,11,,,21,wg-a,,,,AAXX 15064 07690 02466 80210 10110 20060 39999 40030 57016 60114 72162 8582/ 90600 333 10117 20091 60007=
07690,1996-03-15 09:00:00,12,1003,0,67,6,12000,25.928,,40.744,40,,,,1,,,,,,61,wg-a,,,,AAXX 15094 07690 12562 80414 10120 20060 39999 40030 50000 60017 76162 8682/ 90900 333 91022=
07690,1996-03-15 12:00:00,14,1002,-1,55,5,15000,25.928,,,50,,,,0,,,,,,15,wg-a,,,,AAXX 15124 07690 02665 80514 10140 20050 39989 40020 58010 60016 71562 8652/ 91200 333 60007=
07690,1996-03-15 15:00:00,15,1000.4,-1.6,51,5,20000,35.188,,,70,,,,,,,,,,,wg-a,,,,AAXX 15154 07690 12770 70719 10150 20050 39973 40004 56016 60006 8252/ 91500=
07690,1996-03-15 18:00:00,14,1000.8,0.4,63,7,25000,25.928,,,60,10.8,15.8,,,,,,,,,wg-a,,,,AAXX 15184 07690 32/75 70614 10140 20070 39977 40008 53004 86072 91800 333 10158 20108=
07690,1996-03-15 21:00:00,11,1001.5,0.7,76,7,20000,7.408,,,340,,,,,,,,,,,wg-a,,,,AAXX 15214 07690 12/70 73404 10110 20070 39984 40015 51007 60006 86072 92100=
07690,1996-03-16 00:00:00,12,1001.3,-0.2,62,5,20000,11.112,,,60,,,,,,,,,,,wg-a,,,,AAXX 16004 07690 12/70 /0606 10120 20050 39982 40013 56002 60006 86070 90000=
07690,1996-03-16 03:00:00,10,1000.6,-0.7,76,6,20000,18.52,,,300,,,,,,,,,,,wg-a,,,,AAXX 16034 07690 12/70 /3010 10100 20060 39975 40006 58007 60006 86070 90300=
07690,1996-03-16 06:00:00,10,1001.4,0.8,76,6,20000,18.52,,,300,9.5,14.2,,,,,1,,,,wg-a,,,,AAXX 16064 07690 02/70 73010 10100 20060 39983 40014 53008 60006 8707/ 90600 333 10142 20095 60014=
07690,1996-03-16 12:00:00,13,1002.6,0.2,77,9,20000,22.224,,,220,,,,,,,,,,,wg-a,,,,AAXX 16124 07690 12670 72212 10130 20090 39995 40026 53002 60006 8187/ 91200=
07690,1996-03-16 15:00:00,12,1003,0.4,88,10,18000,18.52,,,220,,,,0,,,,,,,wg-a,,,,AAXX 16154 07690 12668 82210 10120 20100 39999 40030 53004 60007 8157/ 91500=
07690,1996-03-16 18:00:00,12,1004.8,1.8,88,10,18000,7.408,,,200,9.6,13.6,,,,,,,,21,wg-a,,,,AAXX 16184 07690 02568 82004 10120 20100 30017 40048 53018 61000 72162 8257/ 91800 333 10136 20096 ////=
07690,1996-03-16 21:00:00,11,1006.3,1.5,94,10,15000,3.704,,,310,,,,,,,,,,,wg-a,,,,AAXX 16214 07690 12565 /3102 10110 20100 30032 40063 53015 60006 8153/ 92100=
07690,1996-03-17 00:00:00,9,1007.4,1.1,93,8,10000,11.112,,,320,,,,,,,,,,,wg-a,,,,AAXX 17004 07690 12/60 03206 10090 20080 30043 40074 51011 60006 80000 90000=
07690,1996-03-17 03:00:00,10,1007.8,0.4,87,8,15000,14.816,,,320,,,,,,,,,,,wg-a,,,,AAXX 17034 07690 12765 73208 10100 20080 30047 40078 51004 60006 85530 90300=
07690,1996-03-17 06:00:00,10,1009.1,1.2,82,7,20000,11.112,,,340,9.3,11.9,,,,,,,,,wg-a,,,,AAXX 17064 07690 02770 /3406 10100 20070 30059 40091 53012 60006 84570 90600 333 10119 20093 60004=
07690,1996-03-17 12:00:00,14,1010.4,0.1,72,9,15000,14.816,,,200,,,,,,,,,,,wg-a,,,,AAXX 17124 07690 12565 72008 10140 20090 30073 40104 50001 60006 81232 91200=
07690,1996-03-17 15:00:00,14,1010.2,-0.2,82,11,12000,14.816,,,210,,,,,,,,,,,wg-a,,,,AAXX 17154 07690 12562 72108 10140 20110 30071 40102 56002 60006 8383/ 91500=
07690,1996-03-17 18:00:00,12,1010.9,0.7,88,10,12000,11.112,,,240,9.4,14.3,,,,,,,,,wg-a,,,,AAXX 17184 07690 12562 42406 10120 20100 30078 40109 53007 60006 81402 91800 333 10143 20094=
07690,1996-03-17 21:00:00,10,1011.7,0.8,93,9,12000,14.816,,,330,,,,,,,,,,,wg-a,,,,AAXX 17214 07690 12662 43308 10100 20090 30086 40117 52008 60006 81532 92100=
07690,1996-03-18 00:00:00,9,1012.5,0.7,81,6,15000,18.52,,,320,,,,,,,,,,,wg-a,,,,AAXX 18004 07690 12/65 23210 10090 20060 30093 40125 51007 60006 82030 90000=
07690,1996-03-18 03:00:00,9,1012.2,-0.3,81,6,15000,18.52,,,320,,,,,,,,,,,wg-a,,,,AAXX 18034 07690 12/65 23210 10090 20060 30090 40122 58003 60006 82030 90300=
07690,1996-03-18 06:00:00,9,1012.6,0.4,81,6,25000,22.224,,,340,8.9,11.6,,,,,,,,,wg-a,,,,AAXX 18064 07690 02775 /3412 10090 20060 30094 40126 53004 60006 81570 90600 333 10116 20089 60004=
07690,1996-03-18 09:00:00,13,1013.3,0.8,67,7,500,11.112,,,330,,,,,,,,,,,wg-a,,,,AAXX 18094 07690 12500 23306 10130 20070 30102 40133 52008 60006 81130 90900=
07690,1996-03-18 12:00:00,15,1012.5,-0.8,67,9,25000,25.928,,,220,,,,,,,,,,,wg-a,,,,AAXX 18124 07690 12575 32214 10150 20090 30094 40125 58008 60006 82930 91200=
07690,1996-03-18 15:00:00,14,1012.1,-0.4,67,8,20000,7.408,,,220,,,,,,,,,,29,wg-a,,,,AAXX 18154 07690 02570 42204 10140 20080 30090 40121 57004 61000 72998 82936 91500 333 ////=
07690,1996-03-18 18:00:00,12,1012.7,0.6,71,7,20000,11.112,,,320,9.2,15.3,,,,,,,,1,wg-a,,,,AAXX 18184 07690 32570 43206 10120 20070 30096 40127 53006 70198 81136 91800 333 10153 20092=
07690,1996-03-18 21:00:00,12,1013.6,0.9,71,7,20000,14.816,,,320,,,,,,,,,,,wg-a,,,,AAXX 18214 07690 12770 73208 10120 20070 30105 40136 51009 60006 8253/ 92100=
07690,1996-03-19 00:00:00,11,1013.7,0.1,71,6,20000,18.52,,,320,,,,,,,,,,,wg-a,,,,AAXX 19004 07690 12770 73210 10110 20060 30106 40137 53001 60006 8353/ 90000=
07690,1996-03-19 03:00:00,10,1013.2,-0.6,76,6,20000,18.52,,,320,,,,,,,,,,,wg-a,,,,AAXX 19034 07690 12770 /3210 10100 20060 30100 40132 58006 60006 8353/ 90300=
07690,1996-03-19 06:00:00,9,1013.5,0.3,76,5,20000,14.816,,,340,9.1,12.2,,,,,,,,,wg-a,,,,AAXX 19064 07690 02470 43408 10090 20050 30103 40135 53003 60006 84800 90600 333 10122 20091 61000=
07690,1996-03-19 09:00:00,13,1014,0.6,72,8,15000,11.112,,,340,,,,,,,,,,25,wg-a,,,,AAXX 19094 07690 02565 /3406 10130 20080 30109 40140 51006 61000 72586 86903 90900 333 ////=
07690,1996-03-19 12:00:00,14,1013.5,-0.5,67,8,20000,7.408,,,260,,,,,,,,,,1,wg-a,,,,AAXX 19124 07690 02570 32604 10140 20080 30104 40135 58005 61000 70186 8236/ 91200 333 ////=
07690,1996-03-19 18:00:00,13,1012.6,0.1,77,9,9000,3.704,,,140,9.1,15.1,,,,,,,,,wg-a,,,,AAXX 19184 07690 32659 41402 10130 20090 30095 40126 53001 83463 91800 333 10151 20091=
07690,1996-03-19 21:00:00,10,1012.8,0.1,93,9,7000,7.408,,,340,,,,,,,,,,,wg-a,,,,AAXX 19214 07690 12657 23404 10100 20090 30096 40128 51001 60006 82500 92100=
07690,1996-03-20 00:00:00,9,1012.7,-0.1,93,8,15000,7.408,,,300,,,,0,,,,,,,wg-a,,,,AAXX 20004 07690 02/65 13004 10090 20080 30095 40127 58001 60006 81030 90000 333 60007=
07690,1996-03-20 03:00:00,7,1012.1,-0.6,100,7,15000,11.112,,,340,,,,,,,,,,,wg-a,,,,AAXX 20034 07690 12/65 33406 10070 20070 30089 40121 58006 60006 83030 90300=
07690,1996-03-20 06:00:00,8,1012.3,0.2,87,6,15000,18.52,,,350,7.1,12.4,,,,,,,,,wg-a,,,,AAXX 20064 07690 12/65 43510 10080 20060 30091 40123 53002 60004 82031 90600 333 10124 20071=
07690,1996-03-20 09:00:00,13,1013,0.8,67,7,25000,7.408,,,230,,,,,,,,,,,wg-a,,,,AAXX 20094 07690 12575 22304 10130 20070 30099 40130 52008 60006 81202 90900=
07690,1996-03-20 12:00:00,13,1012.8,-0.2,82,10,15000,25.928,,,210,,,,,,,,,,,wg-a,,,,AAXX 20124 07690 12565 /2114 10130 20100 30097 40128 58002 60006 81232 91200=
07690,1996-03-20 15:00:00,12,1012,-0.8,88,10,25000,25.928,,,230,,,,,,,,,,,wg-a,,,,AAXX 20154 07690 12575 72314 10120 20100 30089 40120 55008 60006 8127/ 91500=
07690,1996-03-20 18:00:00,12,1012.5,0.5,94,11,18000,18.52,,,240,8.1,13.9,,,,,,,,,wg-a,,,,AAXX 20184 07690 12568 /2410 10120 20110 30094 40125 53005 60006 82532 91800 333 10139 20081=
07690,1996-03-20 21:00:00,10,1014,1.4,93,9,15000,7.408,,,300,,,,,,,,,,,wg-a,,,,AAXX 20214 07690 12465 23004 10100 20090 30108 40140 52014 60006 82500 92100=
07690,1996-03-21 00:00:00,9,1014,-0,87,7,15000,14.816,,,330,,,,0,,,,,,,wg-a,,,,AAXX 21004 07690 02665 /3308 10090 20070 30108 40140 54000 60006 81500 90000 333 60007=
07690,1996-03-21 03:00:00,9,1013.7,-0.3,81,6,20000,18.52,,,320,,,,,,,,,,,wg-a,,,,AAXX 21034 07690 12/70 03210 10090 20060 30105 40137 58003 60006 80000 90300=
07690,1996-03-21 06:00:00,8,1014.8,1.1,81,5,25000,14.816,,,340,8.3,12.2,,,,,,,,,wg-a,,,,AAXX 21064 07690 12675 33408 10080 20050 30116 40148 53011 60004 81531 90600 333 10122 20083=
07690,1996-03-21 09:00:00,12,1015.9,1.2,67,6,25000,11.112,,,340,,,,,,,,,,,wg-a,,,,AAXX 21094 07690 12675 73406 10120 20060 30128 40159 51012 60006 86502 90900=
07690,1996-03-21 12:00:00,15,1016,0.1,72,10,25000,11.112,,,150,,,,,,,,,,,wg-a,,,,AAXX 21124 07690 12575 61506 10150 20100 30129 40160 50001 60006 83502 91200=
07690,1996-03-21 15:00:00,14,1015.2,-0.8,82,11,25000,11.112,,,170,,,,,,,,,,,wg-a,,,,AAXX 21154 07690 12575 71706 10140 20110 30121 40152 56008 60006 85502 91500=
07690,1996-03-21 18:00:00,14,1015.9,0.7,88,12,15000,7.408,,,190,8.2,15.2,,,,,,,,,wg-a,,,,AAXX 21184 07690 12465 71904 10140 20120 30128 40159 53007 60006 875// 91800 333 10152 20082=
07690,1996-03-21 21:00:00,13,1016,0.1,88,11,15000,0,,,0,,,,,,,,,,,wg-a,,,,AAXX 21214 07690 12465 /0000 10130 20110 30129 40160 50001 60006 86500 92100=
07690,1996-03-22 00:00:00,10,1015.9,-0.2,93,9,15000,14.816,,,330,,,,,,,,,,,wg-a,,,,AAXX 22004 07690 12565 /3308 10100 20090 30127 40159 58002 60006 85500 90000=
07690,1996-03-22 03:00:00,9,1014.6,-1.3,100,9,15000,11.112,,,320,,,,,,,,,,,wg-a,,,,AAXX 22034 07690 12465 /3206 10090 20090 30114 40146 58013 60006 84500 90300=
07690,1996-03-22 06:00:00,8,1014.6,-0,93,7,10000,7.408,,,350,8.3,13.6,,,,,,,,,wg-a,,,,AAXX 22064 07690 02460 43504 10080 20070 30114 40146 55000 60006 81531 90600 333 10136 20083 60004=
07690,1996-03-22 09:00:00,14,1015.8,1.3,82,11,10000,18.52,,,100,,,,,,,,,,,wg-a,,,,AAXX 22094 07690 12460 51010 10140 20110 30127 40158 51013 60006 81501 90900=
07690,1996-03-22 12:00:00,15,1016.4,0.6,77,11,7000,14.816,,,120,,,,,,,,,,,wg-a,,,,AAXX 22124 07690 12557 /1208 10150 20110 30133 40164 51006 60006 81101 91200=
07690,1996-03-22 15:00:00,15,1016.2,-0.2,82,12,7000,11.112,,,140,,,,,,,,,,,wg-a,,,,AAXX 22154 07690 12/57 31406 10150 20120 30131 40162 56002 60006 80001 91500=
07690,1996-03-22 18:00:00,14,1017.5,1.3,88,12,8000,14.816,,,90,8.4,15.6,,,,,,,,,wg-a,,,,AAXX 22184 07690 12458 50908 10140 20120 30144 40175 52013 60006 83501 91800 333 10156 20084=
07690,1996-03-22 21:00:00,14,1018.8,1.3,82,11,10000,14.816,,,70,,,,,,,,,,,wg-a,,,,AAXX 22214 07690 12460 40708 10140 20110 30157 40188 52013 60006 84500 92100=
07690,1996-03-23 00:00:00,14,1018.8,0,88,12,10000,11.112,,,90,,,,,,,,,,,wg-a,,,,AAXX 23004 07690 12460 70906 10140 20120 30157 40188 50000 60006 878// 90000=
07690,1996-03-23 06:00:00,12,1018.7,0.3,94,11,9000,7.408,,,330,12.3,14,,,,,,,,,wg-a,,,,AAXX 23064 07690 02459 73304 10120 20110 30156 40187 53003 60006 875// 90600 333 10140 20123 60004=
07690,1996-03-23 09:00:00,15,1019.9,1.2,77,11,10000,7.408,,,120,,,,,,,,,,,wg-a,,,,AAXX 23094 07690 12560 71204 10150 20110 30168 40199 51012 60006 878// 90900=
07690,1996-03-23 12:00:00,15,1020.3,0.4,82,12,7000,14.816,,,110,,,,,,,,,,,wg-a,,,,AAXX 23124 07690 12557 71108 10150 20120 30172 40203 51004 60006 878// 91200=
07690,1996-03-23 15:00:00,14,1020.1,-0.2,88,12,7000,14.816,,,110,,,,,,,,,,,wg-a,,,,AAXX 23154 07690 12557 71108 10140 20120 30170 40201 56002 60006 878// 91500=
07690,1996-03-23 18:00:00,14,1020.7,0.6,88,12,7000,11.112,,,90,12.3,15.2,,,,,,,,,wg-a,,,,AAXX 23184 07690 12557 70906 10140 20120 30176 40207 51006 60006 875// 91800 333 10152 20123=
07690,1996-03-23 21:00:00,14,1021.9,1.2,82,11,12000,7.408,,,60,,,,,,,,,,,wg-a,,,,AAXX 23214 07690 12662 70604 10140 20110 30188 40219 51012 60006 875// 92100=
07690,1996-03-24 00:00:00,12,1022.4,0.4,94,11,12000,3.704,,,330,,,,,,,,,,,wg-a,,,,AAXX 24004 07690 12662 43302 10120 20110 30192 40224 51004 60006 84500 90000=
07690,1996-03-24 03:00:00,9,1021.8,-0.6,100,9,8000,11.112,,,290,,,,0,,,,,,,wg-a,,,,AAXX 24034 07690 12658 22906 10090 20090 30186 40218 58006 60007 82500 90300=
07690,1996-03-24 06:00:00,10,1022.6,0.8,93,9,8000,11.112,,,350,9,14,,,,,,,,,wg-a,,,,AAXX 24064 07690 12/58 /3506 10100 20090 30194 40226 53008 60004 80001 90600 333 10140 20090=
07690,1996-03-24 09:00:00,15,1022.7,0.2,77,11,8000,11.112,,,130,,,,,,,,,,,wg-a,,,,AAXX 24094 07690 12/58 01306 10150 20110 30196 40227 53002 60006 80000 90900=
07690,1996-03-24 12:00:00,16,1022,-0.7,68,10,6000,11.112,,,140,,,,,,,,,,,wg-a,,,,AAXX 24124 07690 12/56 31406 10160 20100 30189 40220 58007 60006 80001 91200=
07690,1996-03-24 15:00:00,15,1021.7,-0.3,77,11,8000,7.408,,,150,,,,,,,,,,,wg-a,,,,AAXX 24154 07690 12458 /1504 10150 20110 30186 40217 55003 60006 81532 91500=
07690,1996-03-24 21:00:00,12,1021.3,0,88,10,9000,7.408,,,340,,,,,,,,,,,wg-a,,,,AAXX 24214 07690 12459 /3404 10120 20100 30181 40213 50000 60006 81502 92100=
07690,1996-03-25 00:00:00,11,1020.4,-0.9,94,10,10000,11.112,,,340,,,,,,,,,,,wg-a,,,,AAXX 25004 07690 12460 83406 10110 20100 30172 40204 58009 60006 81532 90000=
07690,1996-03-25 03:00:00,12,1020,-0.4,88,10,10000,11.112,,,310,,,,,,,,,,,wg-a,,,,AAXX 25034 07690 12460 83106 10120 20100 30168 40200 57004 60006 8/500 90300=
07690,1996-03-25 06:00:00,11,1019.4,-0.6,87,9,6000,7.408,,,30,11.1,14,,,,,,,,,wg-a,,,,AAXX 25064 07690 02556 /0304 10110 20090 30162 40194 58006 60006 82831 90600 333 10140 20111 60004=
07690,1996-03-25 09:00:00,15,1019.1,-0.2,77,11,12000,22.224,,,90,,,,,,,,,,3,wg-a,,,,AAXX 25094 07690 02462 70912 10150 20110 30160 40191 55002 61000 70386 8780/ 90900 333 ////=
07690,1996-03-25 12:00:00,16,1018.6,-0.5,77,12,20000,25.928,,,100,,,,,,,,,,1,wg-a,,,,AAXX 25124 07690 02570 71014 10160 20120 30155 40186 58005 61000 70186 82882 91200 333 ////=
07690,1996-03-25 15:00:00,15,1017.4,-1.2,82,12,9000,22.224,,,90,,,,,,,,,,,wg-a,,,,AAXX 25154 07690 12459 70912 10150 20120 30143 40174 58012 60006 8588/ 91500=
07690,1996-03-25 18:00:00,14,1017.2,-0.2,88,12,8000,14.816,,,100,11.2,16.6,,,,,,,,,wg-a,,,,AAXX 25184 07690 32458 71008 10140 20120 30141 40172 55002 878// 91800 333 10166 20112=
07690,1996-03-25 21:00:00,13,1016.3,-0.9,94,12,10000,7.408,,,250,,,,,,,,,,,wg-a,,,,AAXX 25214 07690 12460 /2504 10130 20120 30132 40163 58009 60006 86500 92100=
07690,1996-03-26 00:00:00,13,1016,-0.3,94,12,10000,7.408,,,320,,,,,,,,,,,wg-a,,,,AAXX 26004 07690 12560 /3204 10130 20120 30129 40160 58003 60006 85500 90000=
07690,1996-03-26 03:00:00,13,1015.1,-0.9,88,11,10000,3.704,,,310,,,,,,,,,,,wg-a,,,,AAXX 26034 07690 12560 73102 10130 20110 30120 40151 55009 60006 875// 90300=
07690,1996-03-26 06:00:00,13,1015.1,-0,88,11,6000,7.408,,,340,12.7,14.3,,,,,,,,,wg-a,,,,AAXX 26064 07690 02456 83404 10130 20110 30120 40151 55000 60006 875// 90600 333 10143 20127 61000=
07690,1996-03-26 09:00:00,14,1014.1,-1,88,12,6000,7.408,,,60,,,,,,,,,,,wg-a,,,,AAXX 26094 07690 12456 80604 10140 20120 30110 40141 58010 60006 8553/ 90900=
07690,1996-03-26 12:00:00,15,1013,-1.1,82,12,12000,14.816,,,80,,,,,,,,,,,wg-a,,,,AAXX 26124 07690 12462 70808 10150 20120 30099 40130 55011 60006 8387/ 91200=
07690,1996-03-26 15:00:00,15,1011.6,-1.4,82,12,9000,7.408,,,140,,,,,,,,,,,wg-a,,,,AAXX 26154 07690 12459 71404 10150 20120 30085 40116 56014 60006 8687/ 91500=
07690,1996-03-26 18:00:00,14,1009.8,-1.8,82,11,9000,3.704,,,70,13.2,15.7,,,,,,,,,wg-a,,,,AAXX 26184 07690 12759 70702 10140 20110 30067 40098 56018 60006 8353/ 91800 333 10157 20132=
07690,1996-03-26 21:00:00,12,1009.2,-0.6,94,11,7000,7.408,,,300,,,,,,,,,,,wg-a,,,,AAXX 26214 07690 12457 /3004 10120 20110 30061 40092 56006 60006 81530 92100=
07690,1996-03-27 00:00:00,12,1007.8,-1.4,88,10,11000,11.112,,,320,,,,,,,,,,,wg-a,,,,AAXX 27004 07690 12461 73206 10120 20100 30047 40078 58014 60006 84830 90000=
07690,1996-03-27 03:00:00,11,1005.3,-2.5,94,10,12000,7.408,,,310,,,,,,,,,,,wg-a,,,,AAXX 27034 07690 12462 /3104 10110 20100 30022 40053 56025 60006 8383/ 90300=
07690,1996-03-27 06:00:00,11,1004.9,-0.4,87,9,9000,7.408,,,350,10.3,14.1,,,,,,,,,wg-a,,,,AAXX 27064 07690 02559 /3504 10110 20090 30018 40049 56004 60006 8183/ 90600 333 10141 20103 60004=
07690,1996-03-27 09:00:00,15,1004.2,-0.7,77,11,9000,11.112,,,180,,,,,,,,,,,wg-a,,,,AAXX 27094 07690 12559 /1806 10150 20110 30011 40042 58007 60006 81131 90900=
07690,1996-03-27 12:00:00,16,1003.8,-0.4,77,12,7000,11.112,,,140,,,,,,,,,,,wg-a,,,,AAXX 27124 07690 12557 31406 10160 20120 30007 40038 58004 60006 81131 91200=
07690,1996-03-27 15:00:00,15,1003.2,-0.6,82,12,7000,11.112,,,100,,,,,,,,,,,wg-a,,,,AAXX 27154 07690 12457 71006 10150 20120 30001 40032 56006 60006 8296/ 91500=
07690,1996-03-27 18:00:00,14,1004,0.8,94,13,4000,7.408,,,320,10.8,16.7,,1,,,,,,29,wg-a,,,,AAXX 27184 07690 12440 73204 10140 20130 30009 40040 53008 60017 72996 8387/ 91800 333 10167 20108=
07690,1996-03-27 21:00:00,13,1004.4,0.4,82,10,12000,14.816,,,310,,,,,,,,,,,wg-a,,,,AAXX 27214 07690 12/62 /3108 10130 20100 30013 40044 53004 60006 81030 92100=
07690,1996-03-28 00:00:00,12,1004.3,-0.1,82,9,12000,11.112,,,340,,,,,,,,,,,wg-a,,,,AAXX 28004 07690 12/62 13406 10120 20090 30012 40043 58001 60006 81030 90000=
07690,1996-03-28 03:00:00,12,1003.6,-0.7,82,9,15000,11.112,,,340,,,,,,,,,,,wg-a,,,,AAXX 28034 07690 12765 63406 10120 20090 30005 40036 58007 60006 86500 90300=
07690,1996-03-28 06:00:00,12,1004.5,0.9,82,9,9000,11.112,,,340,11.5,13.5,,,,,1,,,,wg-a,,,,AAXX 28064 07690 02659 53406 10120 20090 30014 40045 53009 60006 83830 90600 333 10135 20115 60014=
07690,1996-03-28 09:00:00,14,1006.2,1.7,72,9,15000,11.112,,,350,,,,,,,,,,,wg-a,,,,AAXX 28094 07690 12465 73506 10140 20090 30031 40062 53017 60006 878// 90900=
07690,1996-03-28 12:00:00,14,1007.9,1.7,77,10,12000,22.224,,57.412,110,,,,,,,,,,3,wg-a,,,,AAXX 28124 07690 02362 71112 10140 20100 30048 40079 51017 61000 70362 8583/ 91200 333 6100 91031=
07690,1996-03-28 15:00:00,12,1008.6,0.7,88,10,9000,7.408,,,210,,,,1,,,,,,60,wg-a,,,,AAXX 28154 07690 12459 82104 10120 20100 30055 40086 52007 60017 76086 878// 91500=
07690,1996-03-28 18:00:00,12,1009,0.4,88,10,10000,3.704,,,290,11.5,14.9,,,,,,,,2,wg-a,,,,AAXX 28184 07690 02460 82902 10120 20100 30059 40090 53004 61000 70286 875// 91800 333 10149 20115 ////=
07690,1996-03-29 00:00:00,10,1008.4,-0.5,93,9,10000,14.816,,,340,,,,,,,,,,,wg-a,,,,AAXX 29004 07690 12/60 03408 10100 20090 30053 40084 56005 60006 80000 90000=
07690,1996-03-29 03:00:00,9,1007.7,-0.8,87,7,10000,18.52,,,320,,,,,,,,,,,wg-a,,,,AAXX 29034 07690 12/60 03210 10090 20070 30045 40077 56008 60006 80000 90300=
07690,1996-03-29 06:00:00,8,1008.2,0.5,87,6,12000,22.224,,,340,8.1,12,,,,,1,,,,wg-a,,,,AAXX 29064 07690 02562 43412 10080 20060 30050 40082 53005 60006 84200 90600 333 10120 20081 60014=
07690,1996-03-29 09:00:00,12,1009.5,1.4,67,6,15000,11.112,,,340,,,,,,,,,,,wg-a,,,,AAXX 29094 07690 12465 /3406 10120 20060 30064 40095 51014 60006 85830 90900=
07690,1996-03-29 12:00:00,15,1009.1,-0.4,67,9,18000,14.816,,,200,,,,,,,,,,,wg-a,,,,AAXX 29124 07690 12568 /2008 10150 20090 30060 40091 58004 60006 81100 91200=
07690,1996-03-29 15:00:00,15,1007.8,-1.3,59,7,15000,11.112,,,160,,,,,,,,,,,wg-a,,,,AAXX 29154 07690 12565 /1606 10150 20070 30047 40078 58013 60006 81100 91500=
07690,1996-03-29 18:00:00,13,1007.6,-0.2,62,6,12000,7.408,,,50,8.2,15.2,,,,,,,,,wg-a,,,,AAXX 29184 07690 12462 /0504 10130 20060 30045 40076 57002 60006 81100 91800 333 10152 20082=
07690,1996-03-29 21:00:00,10,1007,-0.6,82,7,12000,11.112,,,330,,,,,,,,,,,wg-a,,,,AAXX 29214 07690 12/62 03306 10100 20070 30039 40070 58006 60006 80000 92100=
07690,1996-03-30 00:00:00,8,1006.2,-0.9,87,6,12000,14.816,,,340,,,,,,,,,,,wg-a,,,,AAXX 30004 07690 12/62 03408 10080 20060 30030 40062 58009 60006 80000 90000=
07690,1996-03-30 03:00:00,8,1005.6,-0.6,81,5,12000,18.52,,,340,,,,,,,,,,,wg-a,,,,AAXX 30034 07690 12/62 03410 10080 20050 30024 40056 58006 60006 80000 90300=
07690,1996-03-30 06:00:00,8,1005.6,-0,76,4,15000,22.224,,,340,7.4,13.3,,,,,,,,,wg-a,,,,AAXX 30064 07690 02/65 13412 10080 20040 30024 40056 55000 60006 80001 90600 333 10133 20074 60004=
07690,1996-03-30 09:00:00,13,1006.4,0.9,58,5,20000,0,,,0,,,,,,,,,,,wg-a,,,,AAXX 30094 07690 12570 /0000 10130 20050 30033 40064 51009 60006 81230 90900=
07690,1996-03-30 12:00:00,15,1006.3,-0.1,59,7,13000,14.816,,,160,,,,,,,,,,,wg-a,,,,AAXX 30124 07690 12563 51608 10150 20070 30032 40063 56001 60006 84830 91200=
07690,1996-03-30 15:00:00,14,1005.4,-0.9,63,7,12000,11.112,,,160,,,,,,,,,,,wg-a,,,,AAXX 30154 07690 12562 /1606 10140 20070 30023 40054 58009 60006 85460 91500=
07690,1996-03-30 18:00:00,11,1005.8,0.4,82,8,11000,3.704,,,240,7.6,15.4,,,,,,,,,wg-a,,,,AAXX 30184 07690 12761 32402 10110 20080 30027 40058 53004 60006 82432 91800 333 10154 20076=
07690,1996-03-30 21:00:00,9,1006.6,0.8,87,7,10000,14.816,,,330,,,,,,,,,,,wg-a,,,,AAXX 30214 07690 12/60 03308 10090 20070 30035 40066 53008 60006 80000 92100=
07690,1996-03-31 00:00:00,9,1007.8,1.1,76,5,10000,18.52,,,340,,,,,,,,,,,wg-a,,,,AAXX 31004 07690 12/60 /3410 10090 20050 30046 40078 51011 60006 80000 90000=
07690,1996-03-31 03:00:00,8,1008.6,0.8,76,4,14000,11.112,,,330,,,,,,,,,,,wg-a,,,,AAXX 31034 07690 12/64 03306 10080 20040 30054 40086 52008 60006 80000 90300=
07690,1996-03-31 06:00:00,8,1010.3,1.7,76,4,12000,18.52,,,340,7.7,11.3,,,,,,,,,wg-a,,,,AAXX 31064 07690 02/62 03410 10080 20040 30071 40103 53017 60006 80000 90600 333 10113 20077 60004=
07690,1996-03-31 09:00:00,13,1011.6,1.4,51,3,13000,7.408,,,330,,,,,,,,,,,wg-a,,,,AAXX 31094 07690 12663 /3304 10130 20030 30085 40116 51014 60006 81100 90900=
07690,1996-03-31 12:00:00,15,1011.4,-0.2,48,4,10000,11.112,,,160,,,,,,,,,,,wg-a,,,,AAXX 31124 07690 12760 /1606 10150 20040 30083 40114 58002 60006 81500 91200=
07690,1996-03-31 15:00:00,14,1010,-1.4,63,7,12000,11.112,,,200,,,,,,,,,,,wg-a,,,,AAXX 31154 07690 12662 /2006 10140 20070 30069 40100 56014 60006 81801 91500=
07690,1996-03-31 18:00:00,13,1010,-0,82,10,10000,22.224,,,230,8,15.1,,,,,,,,,wg-a,,,,AAXX 31184 07690 12560 72312 10130 20100 30069 40100 55000 60006 878// 91800 333 10151 20080=
07690,1996-03-31 21:00:00,11,1010,0,82,8,12000,3.704,,,290,,,,,,,,,,,wg-a,,,,AAXX 31214 07690 12/62 /2902 10110 20080 30069 40100 50000 60006 80000 92100=
07690,1996-04-01 00:00:00,9,1009.2,-0.9,87,7,12000,11.112,,,360,,,,,,,,,,,wg-a,,,,AAXX 01004 07690 12/62 13606 10090 20070 30060 40092 57009 60006 81030 90000=
07690,1996-04-01 03:00:00,10,1008,-1.1,76,6,11000,14.816,,,310,,,,,,,,,,,wg-a,,,,AAXX 01034 07690 12561 /3108 10100 20060 30049 40080 57011 60006 81530 90300=
07690,1996-04-01 06:00:00,9,1007.7,-0.4,76,5,6000,11.112,,,350,8.3,12.7,,,,,,,,,wg-a,,,,AAXX 01064 07690 02756 73506 10090 20050 30045 40077 56004 60006 8257/ 90600 333 10127 20083 60004=
07690,1996-04-01 09:00:00,9,1007.9,0.2,87,7,4000,11.112,,,340,,,,2,,,,,,61,wg-a,,,,AAXX 01094 07690 12540 83406 10090 20070 30047 40079 51002 60027 76162 8457/ 90900=
07690,1996-04-01 12:00:00,9,1005.3,-2.5,87,7,10000,25.928,,,30,,,,7,,,,,,10,wg-a,,,,AAXX 01124 07690 02560 80314 10090 20070 30022 40053 58025 60096 71062 8387/ 91200 333 60077=
07690,1996-04-01 15:00:00,8,1,,93,7,4000,14.816,,,360,,,,,,,,,,10,wg-a,,,,AAXX 01154 07690 32440 83608 10080 20070 710// 91500=
07690,1996-04-01 21:00:00,8,1001,-0.7,93,7,15000,22.224,,,330,,,,,,,,,,2,wg-a,,,,AAXX 01214 07690 02565 83312 10080 20070 39979 40010 57007 61000 70262 875// 92100 333 ////=
07690,1996-04-02 00:00:00,8,1000.2,-0.8,87,6,15000,18.52,,,340,,,,1,,,,,,1,wg-a,,,,AAXX 02004 07690 02565 83410 10080 20060 39971 40002 58008 60016 70162 8557/ 90000 333 60017=
07690,1996-04-02 03:00:00,9,999.5,-0.7,87,7,15000,7.408,,,300,,,,,,,,,,,wg-a,,,,AAXX 02034 07690 12665 73004 10090 20070 39964 49995 55007 60006 8757/ 90300=
07690,1996-04-02 06:00:00,9,999.6,0.1,81,6,25000,18.52,,,330,7.8,9,,,,,18,,,,wg-a,,,,AAXX 02064 07690 12675 73310 10090 20060 39965 49996 53001 60184 875// 90600 333 10090 20078=
07690,1996-04-02 09:00:00,12,1000.2,0.6,82,9,20000,11.112,,,270,,,,,,,,,,,wg-a,,,,AAXX 02094 07690 12570 /2706 10120 20090 39971 40002 53006 60006 86800 90900=
07690,1996-04-02 12:00:00,13,1000.3,0.1,82,10,15000,29.632,,,220,,,,,,,,,,,wg-a,,,,AAXX 02124 07690 12465 72216 10130 20100 39972 40003 51001 60006 878// 91200=
07690,1996-04-02 15:00:00,13,999.8,-0.5,82,10,12000,18.52,,,210,,,,,,,,,,,wg-a,,,,AAXX 02154 07690 12562 72110 10130 20100 39967 49998 58005 60006 878// 91500=
07690,1996-04-02 18:00:00,13,1000.6,0.8,82,10,10000,7.408,,,110,8.6,13.9,,,,,,,,,wg-a,,,,AAXX 02184 07690 12460 71104 10130 20100 39975 40006 53008 60006 87800 91800 333 10139 20086=
07690,1996-04-02 21:00:00,10,1002.2,1.6,82,7,10000,22.224,,,10,,,,,,,,,,1,wg-a,,,,AAXX 02214 07690 12460 70112 10100 20070 39991 40022 51016 60006 70192 879// 92100=
07690,1996-04-03 00:00:00,10,1001.6,-0.6,76,6,10000,22.224,,,20,,,,,,,,,,1,wg-a,,,,AAXX 03004 07690 12560 /0212 10100 20060 39985 40016 57006 60006 70192 86900 90000=
07690,1996-04-03 03:00:00,8,1001.4,-0.2,100,8,10000,14.816,,,310,,,,3,,,,,,21,wg-a,,,,AAXX 03034 07690 12560 73108 10080 20080 39983 40014 56002 60037 72162 875// 90300=
07690,1996-04-03 06:00:00,7,1001.9,0.4,93,6,10000,22.224,,,340,6.9,12.7,,3,,,6,,,61,wg-a,,,,AAXX 03064 07690 02460 73412 10070 20060 39987 40019 53004 60064 76162 879// 90600 333 10127 20069 60037=
07690,1996-04-03 09:00:00,8,1003.1,1.3,87,6,20000,11.112,,,330,,,,1,,,,,,21,wg-a,,,,AAXX 03094 07690 12470 73306 10080 20060 30000 40031 53013 60017 72162 879// 90900=
07690,1996-04-03 15:00:00,14,1006.2,2.1,47,3,20000,25.928,,,100,,,,,,,,,,25,wg-a,,,,AAXX 03154 07690 02670 51014 10140 20030 30031 40062 53021 61000 72586 85800 91500 333 ////=
07690,1996-04-03 18:00:00,12,1009.1,2.9,58,4,20000,18.52,,,80,6.9,14.3,,,,,,,,3,wg-a,,,,AAXX 03184 07690 32770 60810 10120 20040 30060 40091 53029 70386 84570 91800 333 10143 20069=
07690,1996-04-03 21:00:00,9,1011.8,2.6,81,6,15000,14.816,,,290,,,,,,,,,,,wg-a,,,,AAXX 03214 07690 12565 32908 10090 20060 30086 40118 51026 60006 81830 92100=
07690,1996-04-04 00:00:00,9,1012.5,0.6,81,6,15000,11.112,,,320,,,,,,,,,,,wg-a,,,,AAXX 04004 07690 12565 53206 10090 20060 30092 40125 51006 60006 83830 90000=
07690,1996-04-04 03:00:00,7,1013,0.6,81,4,15000,11.112,,,270,,,,,,,,,,,wg-a,,,,AAXX 04034 07690 12565 /2706 10070 20040 30098 40130 53006 60006 81530 90300=
07690,1996-04-04 06:00:00,7,1013,-0,76,3,500,22.224,,,340,6.3,12.2,,,,,1,,,,wg-a,,,,AAXX 04064 07690 02/00 13412 10070 20030 30098 40130 55000 60006 81030 90600 333 10122 20063 60014=
07690,1996-04-04 09:00:00,13,1013.1,0.2,54,4,25000,7.408,,,320,,,,,,,,,,,wg-a,,,,AAXX 04094 07690 12575 /3204 10130 20040 30100 40131 53002 60006 81200 90900=
07690,1996-04-04 12:00:00,13,1012.7,-0.4,67,7,500,22.224,,,200,,,,,,,,,,,wg-a,,,,AAXX 04124 07690 12600 /2012 10130 20070 30096 40127 58004 60006 81200 91200=
07690,1996-04-04 15:00:00,14,1012.8,0.1,67,8,25000,18.52,,,200,,,,,,,,,,,wg-a,,,,AAXX 04154 07690 12675 /2010 10140 20080 30097 40128 53001 60006 81260 91500=
07690,1996-04-04 18:00:00,12,1012.6,-0.2,71,7,25000,11.112,,,230,6.7,13.7,,,,,,,,,wg-a,,,,AAXX 04184 07690 12775 /2306 10120 20070 30095 40126 58002 60006 81400 91800 333 10137 20067=
07690,1996-04-04 21:00:00,10,1013.9,1.2,82,7,10000,11.112,,,330,,,,,,,,,,,wg-a,,,,AAXX 04214 07690 32/60 /3306 10100 20070 30107 40139 51012 92100=
07690,1996-04-05 00:00:00,9,1014.1,0.2,76,5,25000,7.408,,,340,,,,,,,,,,,wg-a,,,,AAXX 05004 07690 32/75 03404 10090 20050 30109 40141 50002 80000 90000=
07690,1996-04-05 03:00:00,8,1013.6,-0.5,87,6,25000,14.816,,,330,,,,,,,,,,,wg-a,,,,AAXX 05034 07690 32/75 03308 10080 20060 30104 40136 58005 80000 90300=
07690,1996-04-05 06:00:00,7,1014.1,0.5,87,5,25000,18.52,,,340,,13.6,,,,,,,,,wg-a,,,,AAXX 05064 07690 02/75 03410 10070 20050 30109 40141 53005 60006 80000 90600 333 10136 60004=
07690,1996-04-05 09:00:00,14,1014.8,0.8,72,9,500,7.408,,,140,,,,,,,,,,,wg-a,,,,AAXX 05094 07690 12/00 01404 10140 20090 30117 40148 51008 60006 80000 90900=
07690,1996-04-05 12:00:00,15,1015,0.2,67,9,500,7.408,,,120,,,,,,,,,,,wg-a,,,,AAXX 05124 07690 12700 21204 10150 20090 30119 40150 50002 60006 82800 91200=
07690,1996-04-05 15:00:00,15,1014.7,-0.3,59,7,500,11.112,,,110,,,,,,,,,,,wg-a,,,,AAXX 05154 07690 12700 41106 10150 20070 30116 40147 56003 60006 81130 91500=
07690,1996-04-05 18:00:00,14,1015.2,0.5,67,8,25000,3.704,,,100,7,15.9,,,,,,,,,wg-a,,,,AAXX 05184 07690 12875 21002 10140 20080 30121 40152 53005 60006 81031 91800 333 10159 20070=
07690,1996-04-05 21:00:00,10,1016.3,1,76,6,20000,14.816,,,330,,,,,,,,,,,wg-a,,,,AAXX 05214 07690 12/70 03308 10100 20060 30131 40163 51010 60006 80000 92100=
07690,1996-04-06 00:00:00,9,1016.6,0.3,76,5,20000,14.816,,,340,,,,,,,,,,,wg-a,,,,AAXX 06004 07690 12/70 03408 10090 20050 30134 40166 53003 60006 80000 90000=
07690,1996-04-06 03:00:00,9,1016.5,-0.1,71,4,20000,14.816,,,340,,,,,,,,,,,wg-a,,,,AAXX 06034 07690 12/70 63408 10090 20040 30133 40165 57001 60006 84031 90300=
07690,1996-04-06 06:00:00,9,1017.2,0.6,71,4,25000,22.224,,,330,8.9,13.8,,,,,,,,,wg-a,,,,AAXX 06064 07690 02775 53312 10090 20040 30139 40172 53006 60006 815/1 90600 333 10138 20089 60004=
07690,1996-04-06 09:00:00,15,1017.4,0.4,55,6,25000,7.408,,,330,,,,,,,,,,,wg-a,,,,AAXX 06094 07690 32675 /3304 10150 20060 30143 40174 53004 81502 90900=
07690,1996-04-06 12:00:00,15,1017.4,-0,67,9,25000,18.52,,,190,,,,,,,,,,,wg-a,,,,AAXX 06124 07690 32675 71910 10150 20090 30143 40174 55000 81508 91200=
07690,1996-04-06 15:00:00,16,1017.1,-0.3,63,9,11000,11.112,,,200,,,,,,,,,,,wg-a,,,,AAXX 06154 07690 12/61 /2006 10160 20090 30140 40171 58003 60006 91500=
07690,1996-04-06 18:00:00,13,1017.1,-0,88,11,25000,7.408,,,240,10.1,15.9,,,,,,,,,wg-a,,,,AAXX 06184 07690 32/75 72404 10130 20110 30140 40171 55000 83032 91800 333 10159 20101=
07690,1996-04-06 21:00:00,12,1017.6,0.4,71,7,15000,11.112,,,330,,,,,,,,,,,wg-a,,,,AAXX 06214 07690 12/65 23306 10120 20070 30144 40176 50004 60006 80002 92100=
07690,1996-04-07 00:00:00,12,1017.5,-0,71,7,15000,11.112,,,340,,,,,,,,,,,wg-a,,,,AAXX 07004 07690 12/65 73406 10120 20070 30144 40175 55000 60006 82032 90000=
07690,1996-04-07 03:00:00,12,1016.7,-0.8,71,7,15000,14.816,,,350,,,,,,,,,,,wg-a,,,,AAXX 07034 07690 12/65 63508 10120 20070 30136 40167 56008 60006 83042 90300=
07690,1996-04-07 06:00:00,12,1017.5,0.7,67,6,500,14.816,,,330,11.4,13.2,,,,,,,,,wg-a,,,,AAXX 07064 07690 02/00 73308 10120 20060 30143 40175 53007 60006 86012 90600 333 10132 20114 60004=
07690,1996-04-07 09:00:00,16,1018.4,1,63,9,25000,7.408,,,150,,,,,,,,,,,wg-a,,,,AAXX 07094 07690 12575 61504 10160 20090 30153 40184 53010 60006 81132 90900=
07690,1996-04-07 12:00:00,17,1018,-0.4,68,11,12000,14.816,,,110,,,,,,,,,,,wg-a,,,,AAXX 07124 07690 12562 /1108 10170 20110 30149 40180 58004 60006 81102 91200=
07690,1996-04-07 15:00:00,17,1018,-0,72,12,12000,7.408,,,130,,,,,,,,,,,wg-a,,,,AAXX 07154 07690 12562 /1304 10170 20120 30149 40180 55000 60006 81102 91500=
07690,1996-04-07 18:00:00,14,1018.4,0.4,82,11,12000,7.408,,,220,11.7,17,,,,,,,,,wg-a,,,,AAXX 07184 07690 12/62 42204 10140 20110 30153 40184 53004 60006 81031 91800 333 10170 20117=
07690,1996-04-07 21:00:00,13,1018.7,0.3,82,10,12000,14.816,,,340,,,,,,,,,,,wg-a,,,,AAXX 07214 07690 12/62 23408 10130 20100 30156 40187 51003 60006 80001 92100=
07690,1996-04-08 00:00:00,13,1019.3,0.6,72,8,12000,7.408,,,20,,,,,,,,,,,wg-a,,,,AAXX 08004 07690 12/62 20204 10130 20080 30162 40193 53006 60006 80001 90000=
07690,1996-04-08 03:00:00,11,1019,-0.4,82,8,12000,3.704,,,320,,,,,,,,,,,wg-a,,,,AAXX 08034 07690 12/62 23202 10110 20080 30158 40190 58004 60006 80001 90300=
07690,1996-04-08 06:00:00,11,1020,1,82,8,18000,3.704,,,330,10.7,14.1,,,,,,,,,wg-a,,,,AAXX 08064 07690 02568 23302 10110 20080 30168 40200 53010 60006 81531 90600 333 10141 20107 60004=
07690,1996-04-08 09:00:00,15,1021.2,1.3,82,12,8000,11.112,,,110,,,,,,,,,,,wg-a,,,,AAXX 08094 07690 12558 31106 10150 20120 30181 40212 53013 60006 81101 90900=
07690,1996-04-08 12:00:00,16,1020.9,-0.3,82,13,500,11.112,,,130,,,,,,,,,,,wg-a,,,,AAXX 08124 07690 12400 31306 10160 20130 30178 40209 58003 60006 83201 91200=
07690,1996-04-08 15:00:00,16,1020.1,-0.8,68,10,15000,11.112,,,170,,,,,,,,,,,wg-a,,,,AAXX 08154 07690 12565 /1706 10160 20100 30170 40201 56008 60006 81230 91500=
07690,1996-04-08 18:00:00,14,1020.5,0.4,94,13,500,7.408,,,230,11.6,16.6,,,,,,,,,wg-a,,,,AAXX 08184 07690 12500 /2304 10140 20130 30174 40205 53004 60006 81531 91800 333 10166 20116=
07690,1996-04-08 21:00:00,15,1019.9,-0.6,63,8,15000,18.52,,,330,,,,,,,,,,,wg-a,,,,AAXX 08214 07690 12/65 /3310 10150 20080 30168 40199 58006 60006 80001 92100=
07690,1996-04-09 03:00:00,12,1020,-0.3,71,7,15000,11.112,,,340,,,,,,,,,,,wg-a,,,,AAXX 09034 07690 12565 /3406 10120 20070 30168 40200 55003 60006 81500 90300=
07690,1996-04-09 06:00:00,12,1020.2,0.2,71,7,20000,11.112,,,330,11.8,15.7,,,,,,,,,wg-a,,,,AAXX 09064 07690 02670 33306 10120 20070 30170 40202 52002 60006 83800 90600 333 10157 20118 60004=
07690,1996-04-09 09:00:00,17,1021.1,1,63,10,20000,11.112,,,190,,,,,,,,,,,wg-a,,,,AAXX 09094 07690 12670 31906 10170 20100 30180 40211 51010 60006 82801 90900=
07690,1996-04-09 12:00:00,18,1021.3,0.2,56,9,10000,11.112,,,120,,,,,,,,,,,wg-a,,,,AAXX 09124 07690 32660 61206 10180 20090 30182 40213 52002 83901 91200=
07690,1996-04-09 15:00:00,17,1020.2,-1.1,68,11,20000,11.112,,,110,,,,,,,,,,,wg-a,,,,AAXX 09154 07690 12670 21106 10170 20110 30171 40202 58011 60006 82203 91500=
07690,1996-04-09 18:00:00,14,1020.3,0.1,82,11,20000,3.704,,,250,12.3,18.8,,,,,,,,,wg-a,,,,AAXX 09184 07690 32770 /2502 10140 20110 30172 40203 50001 81500 91800 333 10188 20123=
07690,1996-04-09 21:00:00,13,1020.6,0.2,77,9,20000,14.816,,,340,,,,,,,,,,,wg-a,,,,AAXX 09214 07690 12670 /3408 10130 20090 30174 40206 50002 60006 81500 92100=
07690,1996-04-10 00:00:00,12,1019.5,-1.1,82,9,20000,18.52,,,330,,,,,,,,,,,wg-a,,,,AAXX 10004 07690 12/70 03310 10120 20090 30163 40195 58011 60006 80000 90000=
07690,1996-04-10 03:00:00,12,1018.3,-1.2,71,7,10000,18.52,,,330,,,,,,,,,,,wg-a,,,,AAXX 10034 07690 12/60 /3310 10120 20070 30151 40183 56012 60006 90300=
07690,1996-04-10 06:00:00,12,1017.6,-0.7,67,6,25000,14.816,,,340,11.2,14,,,,,,,,,wg-a,,,,AAXX 10064 07690 12/75 13408 10120 20060 30144 40176 56007 60006 80001 90600 333 10140 20112=
07690,1996-04-10 09:00:00,16,1017.7,0.2,72,11,25000,14.816,,,100,,,,,,,,,,,wg-a,,,,AAXX 10094 07690 12675 /1008 10160 20110 30146 40177 53002 60006 81101 90900=
07690,1996-04-10 12:00:00,16,1016.9,-0.8,72,11,25000,11.112,,,170,,,,,,,,,,,wg-a,,,,AAXX 10124 07690 12675 31706 10160 20110 30138 40169 56008 60006 81202 91200=
07690,1996-04-10 15:00:00,16,1015.4,-1.5,77,12,7000,11.112,,,110,,,,,,,,,,,wg-a,,,,AAXX 10154 07690 12457 71106 10160 20120 30123 40154 58015 60006 81202 91500=
07690,1996-04-10 18:00:00,15,1014.5,-0.9,82,12,6000,11.112,,,100,11.7,16.7,,,,,,,,,wg-a,,,,AAXX 10184 07690 12456 71006 10150 20120 30114 40145 58009 60006 81532 91800 333 10167 20117=
07690,1996-04-10 21:00:00,15,1014.3,-0.2,82,12,10000,18.52,,,80,,,,,,,,,,,wg-a,,,,AAXX 10214 07690 12/60 60810 10150 20120 30112 40143 58002 60006 84032 92100=
07690,1996-04-11 00:00:00,14,1014,-0.3,88,12,10000,25.928,,,60,,,,,,,,,,,wg-a,,,,AAXX 11004 07690 12/60 /0614 10140 20120 30109 40140 58003 60006 80002 90000=
07690,1996-04-11 03:00:00,11,1013.3,-0.7,94,10,10000,11.112,,,340,,,,,,,,,,,wg-a,,,,AAXX 11034 07690 12560 33406 10110 20100 30102 40133 56007 60006 83500 90300=
07690,1996-04-11 06:00:00,12,1013.1,-0.2,88,10,500,11.112,,,330,11.3,14.8,,,,,,,,,wg-a,,,,AAXX 11064 07690 02500 43306 10120 20100 30100 40131 55002 60006 81501 90600 333 10148 20113 60004=
07690,1996-04-11 09:00:00,15,1013,-0.1,77,11,7000,3.704,,,80,,,,,,,,,,,wg-a,,,,AAXX 11094 07690 12657 /0802 10150 20110 30099 40130 58001 60006 82501 90900=
07690,1996-04-11 12:00:00,17,1011.7,-1.3,77,13,7000,14.816,,,100,,,,,,,,,,,wg-a,,,,AAXX 11124 07690 12557 /1008 10170 20130 30086 40117 58013 60006 81100 91200=
07690,1996-04-11 15:00:00,16,1010.2,-1.5,82,13,6000,14.816,,,130,,,,,,,,,,,wg-a,,,,AAXX 11154 07690 12456 61308 10160 20130 30071 40102 56015 60006 86500 91500=
07690,1996-04-11 18:00:00,15,1009.7,-0.5,82,12,10000,3.704,,,120,11.9,16.9,,,,,,,,,wg-a,,,,AAXX 11184 07690 12460 71202 10150 20120 30066 40097 58005 60006 8/500 91800 333 10169 20119=
07690,1996-04-11 21:00:00,14,1010,0.3,88,12,10000,7.408,,,40,,,,,,,,,,,wg-a,,,,AAXX 11214 07690 12660 /0404 10140 20120 30069 40100 52003 60006 81500 92100=
07690,1996-04-12 00:00:00,12,1009.8,-0.2,94,11,15000,3.704,,,350,,,,,,,,,,,wg-a,,,,AAXX 12004 07690 12/65 03502 10120 20110 30067 40098 58002 60006 80000 90000=
07690,1996-04-12 03:00:00,11,1009.1,-0.7,94,10,9000,11.112,,,330,,,,,,,,,,,wg-a,,,,AAXX 12034 07690 12559 /3306 10110 20100 30060 40091 56007 60006 81500 90300=
07690,1996-04-12 06:00:00,11,1010.1,1,94,10,6000,7.408,,,340,10.2,14.7,,0,,,,,,,wg-a,,,,AAXX 12064 07690 02456 53404 10110 20100 30070 40101 53010 60004 82532 90600 333 10147 20102 60007=
07690,1996-04-12 09:00:00,15,1010.5,0.4,82,12,7000,11.112,,,100,,,,,,,,,,,wg-a,,,,AAXX 12094 07690 12557 /1006 10150 20120 30074 40105 53004 60006 81501 90900=
07690,1996-04-12 12:00:00,16,1010.2,-0.3,77,12,7000,11.112,,,140,,,,,,,,,,,wg-a,,,,AAXX 12124 07690 12557 21406 10160 20120 30071 40102 58003 60006 81201 91200=
07690,1996-04-12 15:00:00,16,1010,-0.2,82,13,8000,11.112,,,180,,,,,,,,,,,wg-a,,,,AAXX 12154 07690 12/58 /1806 10160 20130 30069 40100 57002 60006 91500=
07690,1996-04-12 18:00:00,14,1010,-0,94,13,10000,14.816,,,220,10.5,16.7,,,,,,,,,wg-a,,,,AAXX 12184 07690 12760 32208 10140 20130 30069 40100 55000 60006 83500 91800 333 10167 20105=
07690,1996-04-12 21:00:00,13,1010.7,0.7,94,12,12000,0,,,0,,,,,,,,,,,wg-a,,,,AAXX 12214 07690 32/62 00000 10130 20120 30076 40107 51007 80000 92100=
07690,1996-04-13 03:00:00,12,1009.7,-1.3,82,9,12000,11.112,,,330,,,,,,,,,,,wg-a,,,,AAXX 13034 07690 12462 73306 10120 20090 30066 40097 56013 60006 875// 90300=
07690,1996-04-13 06:00:00,11,1010.3,0.6,82,8,7000,14.816,,,330,11.3,14.2,,,,,,,,,wg-a,,,,AAXX 13064 07690 02557 43308 10110 20080 30072 40103 53006 60006 81501 90600 333 10142 20113 60004=
07690,1996-04-13 09:00:00,16,1010.5,0.2,77,12,8000,7.408,,,130,,,,,,,,,,,wg-a,,,,AAXX 13094 07690 12/58 /1304 10160 20120 30074 40105 53002 60006 90900=
07690,1996-04-13 12:00:00,17,1009.7,-0.8,72,12,6000,14.816,,,110,,,,,,,,,,,wg-a,,,,AAXX 13124 07690 12656 61108 10170 20120 30066 40097 58008 60006 81531 91200=
07690,1996-04-13 14:00:00,15,1008.9,0,82,12,6000,18.52,,,90,11.5,16.8,,,,,,,,,wg-a,,,,AAXX 13144 07690 12456 80910 10150 20120 30058 40089 50000 60006 8357/ 91400 333 10168 20115=
07690,1996-04-13 15:00:00,16,1008.9,-0.8,82,13,6000,18.52,,,100,,,,,,,,,,,wg-a,,,,AAXX 13154 07690 12456 /1010 10160 20130 30058 40089 56008 60006 81532 91500=
07690,1996-04-13 18:00:00,15,1008.9,0,82,12,6000,18.52,,,90,11.5,16.8,,,,,,,,,wg-a,,,,AAXX 13184 07690 12456 80910 10150 20120 30058 40089 50000 60006 8357/ 91800 333 10168 20115=
07690,1996-04-13 21:00:00,15,1010.2,1.3,88,13,12000,3.704,,,350,,,,,,,,,,,wg-a,,,,AAXX 13214 07690 12462 83502 10150 20130 30071 40102 50013 60006 8357/ 92100=
07690,1996-04-14 00:00:00,13,1010.6,0.4,94,12,15000,3.704,,,300,,,,,,,,,,,wg-a,,,,AAXX 14004 07690 12465 73002 10130 20120 30075 40106 53004 60006 8257/ 90000=
07690,1996-04-14 03:00:00,12,1010.1,-0.5,94,11,15000,3.704,,,330,,,,,,,,,,,wg-a,,,,AAXX 14034 07690 12/65 /3302 10120 20110 30070 40101 55005 60006 80000 90300=
07690,1996-04-14 06:00:00,12,1012.1,2,94,11,6000,11.112,,,330,12.2,15.4,,,,,,,,,wg-a,,,,AAXX 14064 07690 02556 /3306 10120 20110 30090 40121 53020 60006 86500 90600 333 10154 20122 60004=
07690,1996-04-14 09:00:00,16,1013.1,1,77,12,10000,11.112,,,170,,,,,,,,,,,wg-a,,,,AAXX 14094 07690 12460 71706 10160 20120 30100 40131 53010 60006 82882 90900=
07690,1996-04-14 12:00:00,15,1013.5,0.4,88,13,9000,14.816,,,130,,,,,,,,,,,wg-a,,,,AAXX 14124 07690 12459 71308 10150 20130 30104 40135 50004 60006 878// 91200=
07690,1996-04-14 15:00:00,15,1013.7,0.2,82,12,10000,7.408,,,140,,,,1,,,,,,1,wg-a,,,,AAXX 14154 07690 12260 71404 10150 20120 30106 40137 51002 60017 70162 878// 91500=
07690,1996-04-14 18:00:00,14,1014.7,1,82,11,12000,3.704,,,30,12.2,16.4,,,,,,,,3,wg-a,,,,AAXX 14184 07690 32262 80302 10140 20110 30116 40147 53010 70362 878// 91800 333 10164 20122=
07690,1996-04-14 21:00:00,12,1016.4,1.7,94,11,8000,14.816,,,320,,,,3,,,,,,60,wg-a,,,,AAXX 14214 07690 12458 83208 10120 20110 30133 40164 51017 60037 76062 888// 92100=
07690,1996-04-15 00:00:00,12,1016.8,0.4,94,11,15000,18.52,,,330,,,,,,,,,,1,wg-a,,,,AAXX 15004 07690 02765 73310 10120 20110 30137 40168 53004 60036 70162 84532 90000 333 61000=
07690,1996-04-15 03:00:00,12,1016.9,0.1,88,10,15000,11.112,,,10,,,,,,,,,,,wg-a,,,,AAXX 15034 07690 12/65 /0106 10120 20100 30138 40169 53001 60006 86030 90300=
07690,1996-04-15 06:00:00,12,1018,1,76,8,500,11.112,,,340,11.3,13.7,,,,,4,,,,wg-a,,,,AAXX 15064 07690 12/00 /3406 10120 20080 30148 40180 53010 60044 81030 90600 333 10137 20113=
07690,1996-04-15 09:00:00,17,1018.8,0.9,55,8,500,11.112,,,120,,,,,,,,,,,wg-a,,,,AAXX 15094 07690 12600 /1206 10170 20080 30157 40188 53009 60006 81200 90900=
07690,1996-04-15 12:00:00,17,1018.9,0.1,68,11,35000,11.112,,,140,,,,,,,,,,,wg-a,,,,AAXX 15124 07690 12681 /1406 10170 20110 30158 40189 50001 60006 81300 91200=
07690,1996-04-15 15:00:00,17,1017.9,-1,63,10,35000,18.52,,,190,,,,,,,,,,,wg-a,,,,AAXX 15154 07690 12781 /1910 10170 20100 30148 40179 58010 60006 81263 91500=
07690,1996-04-15 21:00:00,13,1018.5,0.9,77,9,20000,11.112,,,340,,,,,,,,,,,wg-a,,,,AAXX 15214 07690 12/70 03406 10130 20090 30154 40185 51009 60006 80000 92100=
07690,1996-04-16 00:00:00,12,1018.4,-0.2,76,8,20000,14.816,,,340,,,,,,,,,,,wg-a,,,,AAXX 16004 07690 12/70 03408 10120 20080 30152 40184 58002 60006 80000 90000=
07690,1996-04-16 03:00:00,12,1017.1,-1.3,67,6,20000,18.52,,,360,,,,,,,,,,,wg-a,,,,AAXX 16034 07690 12/70 03610 10120 20060 30139 40171 56013 60006 80000 90300=
07690,1996-04-16 06:00:00,12,1017.7,0.6,62,5,25000,11.112,,,330,10.6,15.2,,,,,,,,,wg-a,,,,AAXX 16064 07690 02675 13306 10120 20050 30145 40177 53006 60006 81500 90600 333 10152 20106 60004=
07690,1996-04-16 12:00:00,17,1016.5,-1,68,11,25000,14.816,,,100,,,,,,,,,,,wg-a,,,,AAXX 16124 07690 12875 /1008 10170 20110 30134 40165 58010 60006 81100 91200=
07690,1996-04-16 15:00:00,16,1014.8,-1.7,77,12,20000,11.112,,,120,,,,,,,,,,,wg-a,,,,AAXX 16154 07690 12/70 21206 10160 20120 30117 40148 58017 60006 80001 91500=
07690,1996-04-16 18:00:00,14,1013.9,-0.9,82,11,15000,7.408,,,210,11.6,17.3,,,,,,,,,wg-a,,,,AAXX 16184 07690 12/65 52104 10140 20110 30108 40139 58009 60006 80001 91800 333 10173 20116=
07690,1996-04-16 21:00:00,12,1013.8,-0.1,88,10,12000,11.112,,,330,,,,,,,,,,,wg-a,,,,AAXX 16214 07690 12/62 53306 10120 20100 30107 40138 58001 60006 81031 92100=
07690,1996-04-17 00:00:00,10,1013.4,-0.5,87,8,10000,11.112,,,330,,,,,,,,,,,wg-a,,,,AAXX 17004 07690 12/60 /3306 10100 20080 30102 40134 56005 60006 90000=
07690,1996-04-17 06:00:00,10,1012.9,-0,71,5,12000,14.816,,,340,9.5,14.3,,,,,,,,,wg-a,,,,AAXX 17064 07690 02562 /3408 10100 20050 30097 40129 55000 60006 81112 90600 333 10143 20095 60004=
07690,1996-04-17 09:00:00,15,1013,0.2,67,9,8000,7.408,,,120,,,,,,,,,,,wg-a,,,,AAXX 17094 07690 12558 /1204 10150 20090 30099 40130 53002 60006 81132 90900=
07690,1996-04-17 12:00:00,15,1012.2,-0.8,77,11,12000,7.408,,,160,,,,,,,,,,,wg-a,,,,AAXX 17124 07690 12562 81604 10150 20110 30091 40122 57008 60006 8383/ 91200=
07690,1996-04-17 15:00:00,15,1011.6,-0.6,82,12,12000,11.112,,,190,,,,,,,,,,,wg-a,,,,AAXX 17154 07690 12562 81906 10150 20120 30085 40116 57006 60006 8383/ 91500=
07690,1996-04-17 18:00:00,14,1012.4,0.8,67,8,12000,14.816,,,260,10.2,15.9,,,,,,,,,wg-a,,,,AAXX 17184 07690 12562 72608 10140 20080 30093 40124 53008 60006 8383/ 91800 333 10159 20102=
07690,1996-04-17 21:00:00,12,1013.2,0.8,82,9,15000,7.408,,,260,,,,,,,,,,,wg-a,,,,AAXX 17214 07690 12/65 72604 10120 20090 30101 40132 51008 60006 8703/ 92100=
07690,1996-04-18 00:00:00,11,1013.7,0.5,87,9,15000,7.408,,,320,,,,,,,,,,,wg-a,,,,AAXX 18004 07690 12/65 43204 10110 20090 30106 40137 52005 60006 84030 90000=
07690,1996-04-18 03:00:00,10,1014.6,0.8,87,8,15000,7.408,,,330,,,,,,,,,,,wg-a,,,,AAXX 18034 07690 12/65 23304 10100 20080 30114 40146 53008 60006 80001 90300=
07690,1996-04-18 06:00:00,11,1016,1.4,76,7,20000,11.112,,,340,9.9,14.1,,0,,,,,,,wg-a,,,,AAXX 18064 07690 02/70 33406 10110 20070 30128 40160 53014 60004 81042 90600 333 10141 20099 60007=
07690,1996-04-18 12:00:00,17,1017.5,0.2,68,11,25000,14.816,,,180,,,,,,,,,,,wg-a,,,,AAXX 18124 07690 12675 31808 10170 20110 30144 40175 50002 60006 81102 91200=
07690,1996-04-18 15:00:00,17,1017.5,-0,72,12,20000,14.816,,,190,,,,,,,,,,,wg-a,,,,AAXX 18154 07690 12670 41908 10170 20120 30144 40175 55000 60006 81202 91500=
07690,1996-04-18 18:00:00,15,1018.2,0.7,77,11,20000,7.408,,,220,11.2,17.8,,,,,,,,,wg-a,,,,AAXX 18184 07690 12670 62204 10150 20110 30151 40182 51007 60006 81282 91800 333 10178 20112=
07690,1996-04-18 21:00:00,13,1019.1,0.9,77,9,15000,11.112,,,290,,,,,,,,,,,wg-a,,,,AAXX 18214 07690 12/65 22906 10130 20090 30160 40191 53009 60006 82030 92100=
07690,1996-04-19 00:00:00,14,1019.7,0.6,72,9,15000,11.112,,,350,,,,,,,,,,,wg-a,,,,AAXX 19004 07690 12/65 23506 10140 20090 30166 40197 53006 60006 82030 90000=
07690,1996-04-19 03:00:00,13,1019.7,-0,72,8,15000,18.52,,,350,,,,,,,,,,,wg-a,,,,AAXX 19034 07690 12/65 03510 10130 20080 30166 40197 55000 60006 80000 90300=
07690,1996-04-19 06:00:00,13,1021.1,1.4,67,7,500,11.112,,,340,12.2,15.2,,,,,,,,,wg-a,,,,AAXX 19064 07690 02/00 03406 10130 20070 30180 40211 53014 60006 80000 90600 333 10152 20122 60004=
07690,1996-04-19 09:00:00,17,1022.3,1.2,68,11,500,14.816,,,110,,,,,,,,,,,wg-a,,,,AAXX 19094 07690 12600 /1108 10170 20110 30192 40223 53012 60006 81101 90900=
07690,1996-04-19 12:00:00,18,1022,-0.3,68,12,15000,11.112,,,110,,,,,,,,,,,wg-a,,,,AAXX 19124 07690 12665 /1106 10180 20120 30189 40220 58003 60006 81201 91200=
07690,1996-04-19 15:00:00,18,1021.1,-0.9,73,13,13000,7.408,,,130,,,,,,,,,,,wg-a,,,,AAXX 19154 07690 12663 /1304 10180 20130 30180 40211 56009 60006 81201 91500=
07690,1996-04-19 18:00:00,16,1020.8,-0.3,82,13,20000,3.704,,,170,13.2,18.6,,,,,,,,,wg-a,,,,AAXX 19184 07690 12/70 11702 10160 20130 30177 40208 57003 60006 80001 91800 333 10186 20132=
07690,1996-04-19 21:00:00,13,1021.1,0.2,82,10,20000,14.816,,,330,,,,,,,,,,,wg-a,,,,AAXX 19214 07690 12/70 03308 10130 20100 30179 40211 50002 60006 80000 92100=
07690,1996-04-20 00:00:00,14,1020.8,-0.2,58,6,20000,14.816,,,340,,,,,,,,,,,wg-a,,,,AAXX 20004 07690 12/70 03408 10140 20060 30177 40208 58002 60006 80000 90000=
07690,1996-04-20 03:00:00,12,1020.7,-0.2,58,4,20000,11.112,,,340,,,,,,,,,,,wg-a,,,,AAXX 20034 07690 12/70 03406 10120 20040 30175 40207 56002 60006 80000 90300=
07690,1996-04-20 06:00:00,13,1020.9,0.2,54,4,20000,11.112,,,340,11.6,15.7,,,,,,,,,wg-a,,,,AAXX 20064 07690 02/70 13406 10130 20040 30177 40209 53002 60006 80001 90600 333 10157 20116 60004=
07690,1996-04-20 09:00:00,17,1021.3,0.5,68,11,20000,7.408,,,110,,,,,,,,,,,wg-a,,,,AAXX 20094 07690 12/70 11104 10170 20110 30182 40213 52005 60006 80001 90900=
07690,1996-04-20 12:00:00,17,1020.9,-0.4,88,15,10000,14.816,,,110,,,,,,,,,,,wg-a,,,,AAXX 20124 07690 12/60 21108 10170 20150 30178 40209 58004 60006 80001 91200=
07690,1996-04-20 15:00:00,18,1019.6,-1.3,73,13,35000,3.704,,,110,,,,,,,,,,,wg-a,,,,AAXX 20154 07690 12581 31102 10180 20130 30165 40196 58013 60006 81101 91500=
07690,1996-04-20 18:00:00,16,1019,-0.6,82,13,35000,3.704,,,210,12.9,18.8,,,,,,,,,wg-a,,,,AAXX 20184 07690 12/81 52102 10160 20130 30159 40190 56006 60006 80001 91800 333 10188 20129=
07690,1996-04-20 21:00:00,14,1019.1,0.1,58,6,20000,11.112,,,340,,,,,,,,,,,wg-a,,,,AAXX 20214 07690 12/70 13406 10140 20060 30160 40191 50001 60006 80001 92100=
07690,1996-04-21 00:00:00,14,1019,-0.1,51,4,20000,3.704,,,10,,,,,,,,,,,wg-a,,,,AAXX 21004 07690 12/70 10102 10140 20040 30159 40190 56001 60006 80001 90000=
07690,1996-04-21 03:00:00,12,1018.1,-1,62,5,25000,7.408,,,10,,,,,,,,,,,wg-a,,,,AAXX 21034 07690 12/75 20104 10120 20050 30149 40181 57010 60006 80001 90300=
07690,1996-04-21 06:00:00,13,1018,-0,54,4,35000,14.816,,,340,11.8,16.1,,,,,,,,,wg-a,,,,AAXX 21064 07690 02/81 23408 10130 20040 30149 40180 55000 60006 80001 90600 333 10161 20118 60004=
07690,1996-04-21 09:00:00,18,1018.5,0.5,68,12,25000,18.52,,,90,,,,,,,,,,,wg-a,,,,AAXX 21094 07690 12/75 60910 10180 20120 30154 40185 53005 60006 81086 90900=
07690,1996-04-21 12:00:00,18,1018,-0.5,68,12,10000,31.484,,,80,,,,,,,,,,,wg-a,,,,AAXX 21124 07690 12/60 70817 10180 20120 30149 40180 58005 60006 85087 91200=
07690,1996-04-21 15:00:00,18,1017.6,-0.4,68,12,13000,14.816,,,110,,,,,,,,,,,wg-a,,,,AAXX 21154 07690 12763 /1108 10180 20120 30145 40176 58004 60006 85282 91500=
07690,1996-04-21 18:00:00,18,1017.5,-0.1,56,9,15000,22.224,,,80,13.4,19,,,,,,,,,wg-a,,,,AAXX 21184 07690 12865 60812 10180 20090 30144 40175 58001 60006 84081 91800 333 10190 20134=
07690,1996-04-21 21:00:00,14,1017.8,0.3,82,11,15000,11.112,,,330,,,,,,,,,,,wg-a,,,,AAXX 21214 07690 12765 73306 10140 20110 30147 40178 51003 60006 81502 92100=
07690,1996-04-22 03:00:00,16,1016.6,-1.1,59,8,15000,25.928,,,70,,,,,,,,,,,wg-a,,,,AAXX 22034 07690 12865 /0714 10160 20080 30135 40166 56011 60006 82571 90300=
07690,1996-04-22 06:00:00,17,1016.2,-0.4,55,8,15000,35.188,,,70,12.3,17.5,,,,,,,,,wg-a,,,,AAXX 22064 07690 02/65 80719 10170 20080 30131 40162 56004 60006 8507/ 90600 333 10175 20123 60004=
07690,1996-04-22 09:00:00,18,1017.7,1.5,59,10,10000,46.3,,,90,,,,,,,,,,,wg-a,,,,AAXX 22094 07690 12/60 /0925 10180 20100 30146 40177 51015 60006 90900=
07690,1996-04-22 12:00:00,19,1016.7,-1,52,9,12000,50.004,,72.228,80,,,,,,,,,,,wg-a,,,,AAXX 22124 07690 12/62 70827 10190 20090 30136 40167 58010 60006 83032 91200 333 91039=
07690,1996-04-22 15:00:00,17,1016.8,0.1,68,11,12000,42.596,,79.636,90,,,,,,,,,,60,wg-a,,,,AAXX 22154 07690 02/62 80923 10170 20110 30137 40168 53001 61000 76062 8707/ 91500 333 //// 91043=
07690,1996-04-22 18:00:00,14,1017,0.2,94,13,6000,11.112,,79.636,350,14.2,19,,1,,,,,,60,wg-a,,,,AAXX 22184 07690 12556 83506 10140 20130 30139 40170 50002 60017 76062 8457/ 91800 333 10190 20142 91043=
07690,1996-04-22 21:00:00,15,1017.5,0.5,77,11,13000,22.224,,,10,,,,1,,,,,,63,wg-a,,,,AAXX 22214 07690 12763 80112 10150 20110 30144 40175 53005 60017 76362 8357/ 92100=
07690,1996-04-23 00:00:00,15,1016.5,-1,77,11,15000,11.112,,,30,,,,2,,,,,,21,wg-a,,,,AAXX 23004 07690 02565 80306 10150 20110 30134 40165 55010 60046 72162 8557/ 90000 333 60027=
07690,1996-04-23 03:00:00,14,1015,-1.5,82,11,15000,11.112,,,330,,,,,,,,,,,wg-a,,,,AAXX 23034 07690 12565 73306 10140 20110 30119 40150 58015 60006 875// 90300=
07690,1996-04-23 06:00:00,17,1014.7,-0.3,52,7,20000,50.004,,72.228,80,13.8,17.1,,,,,5,,,,wg-a,,,,AAXX 23064 07690 12770 70827 10170 20070 30116 40147 58003 60054 8257/ 90600 333 10171 20138 91039=
07690,1996-04-23 09:00:00,16,1015.6,0.9,72,11,9000,38.892,,,80,,,,0,,,,,,60,wg-a,,,,AAXX 23094 07690 12759 70821 10160 20110 30125 40156 53009 60007 76061 8157/ 90900=
07690,1996-04-23 12:00:00,14,1016.1,0.5,88,12,7000,11.112,,,20,,,,4,,,,,,10,wg-a,,,,AAXX 23124 07690 02457 80206 10140 20120 30130 40161 50005 60046 71061 8357/ 91200 333 60047=
07690,1996-04-23 15:00:00,14,1015.4,-0.7,94,13,8000,11.112,,,40,,,,2,,,,,,21,wg-a,,,,AAXX 23154 07690 12558 80406 10140 20130 30123 40154 58007 60027 72162 8557/ 91500=
07690,1996-04-23 18:00:00,14,1016.1,0.7,94,13,4000,7.408,,,330,13.7,18.2,,0,,,,,,60,wg-a,,,,AAXX 23184 07690 12440 83304 10140 20130 30130 40161 51007 60007 76062 8357/ 91800 333 10182 20137=
07690,1996-04-23 21:00:00,14,1017.1,1,94,13,10000,3.704,,,350,,,,0,,,,,,1,wg-a,,,,AAXX 23214 07690 12560 73502 10140 20130 30140 40171 53010 60007 70162 8557/ 92100=
07690,1996-04-24 00:00:00,14,1017.6,0.5,94,13,10000,3.704,,,360,,,,,,,,,,3,wg-a,,,,AAXX 24004 07690 12460 73602 10140 20130 30145 40176 50005 60006 70362 8587/ 90000=
07690,1996-04-24 03:00:00,13,1016.8,-0.8,100,13,10000,3.704,,,290,,,,,,,,,,21,wg-a,,,,AAXX 24034 07690 02460 72902 10130 20130 30137 40168 56008 61000 72162 878// 90300 333 ////=
07690,1996-04-24 06:00:00,13,1017.3,0.5,100,13,18000,7.408,,,330,12.4,13.8,,,,,7,,,1,wg-a,,,,AAXX 24064 07690 12468 /3304 10130 20130 30142 40173 53005 60074 70162 83802 90600 333 10138 20124=
07690,1996-04-24 09:00:00,16,1018.2,0.9,88,14,25000,18.52,,,210,,,,,,,,,,,wg-a,,,,AAXX 24094 07690 12575 /2110 10160 20140 30151 40182 52009 60006 82802 90900=
07690,1996-04-24 12:00:00,17,1018.7,0.5,77,13,20000,11.112,,,140,,,,,,,,,,,wg-a,,,,AAXX 24124 07690 12570 /1406 10170 20130 30156 40187 50005 60006 81808 91200=
07690,1996-04-24 15:00:00,17,1018.2,-0.5,77,13,10000,22.224,,,90,,,,,,,,,,,wg-a,,,,AAXX 24154 07690 12560 /0912 10170 20130 30151 40182 56005 60006 81202 91500=
07690,1996-04-24 18:00:00,16,1018.8,0.6,82,13,9000,14.816,,,100,13.4,18,,,,,,,,,wg-a,,,,AAXX 24184 07690 12559 /1008 10160 20130 30157 40188 53006 60006 85502 91800 333 10180 20134=
07690,1996-04-25 00:00:00,13,1018.6,-0.6,94,12,10000,11.112,,,330,,,,,,,,,,,wg-a,,,,AAXX 25004 07690 12/60 43306 10130 20120 30155 40186 56006 60006 80002 90000=
07690,1996-04-25 03:00:00,13,1018.3,-0.3,88,11,12000,11.112,,,330,,,,,,,,,,,wg-a,,,,AAXX 25034 07690 12/62 73306 10130 20110 30152 40183 58003 60006 80002 90300=
07690,1996-04-25 06:00:00,13,1018.9,0.6,88,11,12000,11.112,,,340,12.7,16.3,,,,,,,,,wg-a,,,,AAXX 25064 07690 02762 73406 10130 20110 30158 40189 53006 60006 81572 90600 333 10163 20127 60004=
07690,1996-04-25 09:00:00,16,1019.5,0.6,82,13,6000,14.816,,,80,,,,,,,,,,,wg-a,,,,AAXX 25094 07690 12556 80808 10160 20130 30164 40195 51006 60006 8487/ 90900=
07690,1996-04-25 12:00:00,16,1019.2,-0.3,88,14,8000,18.52,,,100,,,,,,,,,,,wg-a,,,,AAXX 25124 07690 12458 81010 10160 20140 30161 40192 58003 60006 8487/ 91200=
07690,1996-04-25 15:00:00,16,1018.7,-0.5,88,14,500,14.816,,,100,,,,,,,,,,60,wg-a,,,,AAXX 25154 07690 02400 81008 10160 20140 30156 40187 58005 61000 76062 8387/ 91500 333 ////=
07690,1996-04-25 18:00:00,15,1018.8,0.1,94,14,500,3.704,,,80,13.1,16.3,,0,,,,,,60,wg-a,,,,AAXX 25184 07690 12400 80802 10150 20140 30157 40188 52001 60007 76062 878// 91800 333 10163 20131=
07690,1996-04-25 21:00:00,14,1018.7,-0.1,94,13,10000,7.408,,,300,,,,0,,,,,,21,wg-a,,,,AAXX 25214 07690 12260 83004 10140 20130 30156 40187 58001 60007 72162 888// 92100=
07690,1996-04-26 00:00:00,14,1017.4,-1.3,94,13,8000,7.408,,,310,,,,,,,,,,1,wg-a,,,,AAXX 26004 07690 12458 83104 10140 20130 30143 40174 58013 60006 70162 8487/ 90000=
07690,1996-04-26 03:00:00,13,1016,-1.4,94,12,10000,7.408,,,330,,,,0,,,,,,,wg-a,,,,AAXX 26034 07690 12460 63304 10130 20120 30129 40160 56014 60007 83872 90300=
07690,1996-04-26 06:00:00,14,1015.8,-0.2,88,12,8000,18.52,,,330,12.7,15,,,,,1,,,,wg-a,,,,AAXX 26064 07690 12558 83310 10140 20120 30127 40158 57002 60014 8157/ 90600 333 10150 20127=
07690,1996-04-26 09:00:00,18,1016.1,0.3,68,12,9000,7.408,,,80,,,,,,,,,,,wg-a,,,,AAXX 26094 07690 12559 /0804 10180 20120 30130 40161 51003 60006 81170 90900=
07690,1996-04-26 12:00:00,17,1015.5,-0.6,82,14,15000,7.408,,,80,,,,0,,,,,,61,wg-a,,,,AAXX 26124 07690 02665 80804 10170 20140 30124 40155 58006 60006 76162 8127/ 91200 333 60007=
07690,1996-04-26 15:00:00,15,1014.6,-0.9,88,13,15000,3.704,,,190,,,,1,,,,,,60,wg-a,,,,AAXX 26154 07690 12465 81902 10150 20130 30115 40146 56009 60017 76062 8587/ 91500=
07690,1996-04-26 18:00:00,15,1013.5,-1.1,94,14,10000,7.408,,,310,13.8,18.3,,1,,,,,,60,wg-a,,,,AAXX 26184 07690 12360 83104 10150 20140 30104 40135 56011 60017 76062 8387/ 91800 333 10183 20138=
07690,1996-04-26 21:00:00,14,1013.8,0.3,100,14,11000,11.112,,,320,,,,,,,,,,,wg-a,,,,AAXX 26214 07690 32/61 /3206 10140 20140 30107 40138 52003 92100=
07690,1996-04-27 00:00:00,14,1013.4,-0.4,94,13,11000,7.408,,,50,,,,,,,,,,,wg-a,,,,AAXX 27004 07690 12/61 /0504 10140 20130 30103 40134 58004 60016 90000=
07690,1996-04-27 03:00:00,13,1011.7,-1.7,100,13,10000,3.704,,,340,,,,1,,,,,,60,wg-a,,,,AAXX 27034 07690 12460 83402 10130 20130 30086 40117 56017 60017 76066 8387/ 90300=
07690,1996-04-27 06:00:00,13,1011.2,-0.5,100,13,10000,14.816,,,330,12.9,14.7,,0,,,4,,,21,wg-a,,,,AAXX 27064 07690 02560 73308 10130 20130 30081 40112 56005 60044 72162 8357/ 90600 333 10147 20129 60007=
07690,1996-04-27 09:00:00,15,1011.1,-0.1,88,13,500,3.704,,,310,,,,0,,,,,,,wg-a,,,,AAXX 27094 07690 12600 83102 10150 20130 30080 40111 58001 60007 8457/ 90900=
07690,1996-04-27 12:00:00,17,1011.2,0.1,77,13,500,7.408,,,340,,,,,,,,,,,wg-a,,,,AAXX 27124 07690 12700 83404 10170 20130 30081 40112 50001 60006 8357/ 91200=
07690,1996-04-27 15:00:00,17,1010.7,-0.5,77,13,500,3.704,,,50,,,,,,,,,,,wg-a,,,,AAXX 27154 07690 12700 80502 10170 20130 30076 40107 57005 60006 8357/ 91500=
07690,1996-04-27 18:00:00,16,1011.4,0.7,82,13,15000,7.408,,,190,13,17.9,,0,,,,,,60,wg-a,,,,AAXX 27184 07690 12665 81904 10160 20130 30083 40114 53007 60007 76062 8357/ 91800 333 10179 20130=
07690,1996-04-27 21:00:00,14,1012.1,0.7,94,13,10000,11.112,,,340,,,,3,,,,,,61,wg-a,,,,AAXX 27214 07690 12260 83406 10140 20130 30090 40121 50007 60037 76166 8487/ 92100=
07690,1996-04-28 00:00:00,13,1010.3,-1.8,94,12,15000,11.112,,,360,,,,1,,,,,,21,wg-a,,,,AAXX 28004 07690 02665 83606 10130 20120 30072 40103 58018 60046 72162 8487/ 90000 333 60017=
07690,1996-04-28 03:00:00,14,1009.2,-1.1,82,11,15000,11.112,,,30,,,,0,,,,,,1,wg-a,,,,AAXX 28034 07690 12665 80306 10140 20110 30061 40092 58011 60007 70162 8357/ 90300=
07690,1996-04-28 06:00:00,13,1009.2,-0,94,12,500,11.112,,,340,12.6,15.8,,3,,,8,,,21,wg-a,,,,AAXX 28064 07690 02700 83406 10130 20120 30061 40092 54000 60084 72162 8557/ 90600 333 10158 20126 60037=
07690,1996-04-28 09:00:00,14,1008.9,-0.3,94,13,500,7.408,,,350,,,,,,,,,,,wg-a,,,,AAXX 28094 07690 12800 73504 10140 20130 30058 40089 58003 60006 8707/ 90900=
07690,1996-04-28 12:00:00,16,1008.2,-0.7,77,12,20000,11.112,,,60,,,,,,,,,,,wg-a,,,,AAXX 28124 07690 12770 /0606 10160 20120 30051 40082 58007 60006 8457/ 91200=
07690,1996-04-28 15:00:00,17,1007,-1.2,72,12,20000,14.816,,,70,,,,,,,,,,,wg-a,,,,AAXX 28154 07690 12770 70708 10170 20120 30039 40070 58012 60006 8257/ 91500=
07690,1996-04-28 18:00:00,16,1006.8,-0.2,82,13,15000,7.408,,,110,12.7,17,,,,,,,,,wg-a,,,,AAXX 28184 07690 12765 71104 10160 20130 30037 40068 55002 60006 8457/ 91800 333 10170 20127=
07690,1996-04-28 21:00:00,14,1007.1,0.3,94,13,15000,3.704,,,320,,,,,,,,,,2,wg-a,,,,AAXX 28214 07690 02765 73202 10140 20130 30040 40071 50003 61000 70262 8457/ 92100 333 ////=
07690,1996-04-29 00:00:00,13,1006.2,-0.9,94,12,15000,7.408,,,320,,,,,,,,,,2,wg-a,,,,AAXX 29004 07690 02765 73204 10130 20120 30031 40062 58009 61000 70262 8457/ 90000 333 ////=
07690,1996-04-29 03:00:00,13,1005.4,-0.8,94,12,10000,3.704,,,350,,,,,,,,,,,wg-a,,,,AAXX 29034 07690 12660 83502 10130 20120 30023 40054 57008 60006 8457/ 90300=
07690,1996-04-29 06:00:00,13,1005.3,-0.1,94,12,7000,7.408,,,330,12.5,16.4,,1,,,1,,,21,wg-a,,,,AAXX 29064 07690 02757 83304 10130 20120 30022 40053 55001 60014 72162 8357/ 90600 333 10164 20125 60017=
07690,1996-04-29 09:00:00,16,1006,0.7,88,14,6000,7.408,,,120,,,,,,,,,,,wg-a,,,,AAXX 29094 07690 12456 71204 10160 20140 30029 40060 51007 60006 8383/ 90900=
07690,1996-04-29 12:00:00,17,1005.6,-0.4,82,14,8000,11.112,,,140,,,,,,,,,,,wg-a,,,,AAXX 29124 07690 12458 71406 10170 20140 30025 40056 58004 60006 8113/ 91200=
07690,1996-04-29 15:00:00,18,1003.9,-1.6,68,12,10000,7.408,,,90,,,,,,,,,,,wg-a,,,,AAXX 29154 07690 12460 /0904 10180 20120 30009 40039 58016 60006 81230 91500=
07690,1996-04-29 18:00:00,16,1004.2,0.2,82,13,10000,3.704,,,140,12.8,17.9,,,,,,,,,wg-a,,,,AAXX 29184 07690 12460 51402 10160 20130 30011 40042 53002 60006 83830 91800 333 10179 20128=
07690,1996-04-29 21:00:00,13,1005.1,0.9,100,13,12000,3.704,,,260,,,,,,,,,,,wg-a,,,,AAXX 29214 07690 12362 42602 10130 20130 30020 40051 51009 60006 84800 92100=
07690,1996-04-30 00:00:00,13,1004.6,-0.5,100,13,10000,7.408,,,320,,,,,,,,,,,wg-a,,,,AAXX 30004 07690 12460 /3204 10130 20130 30015 40046 58005 60006 83800 90000=
07690,1996-04-30 03:00:00,12,1003.4,-1.2,100,12,10000,3.704,,,330,,,,,,,,,,,wg-a,,,,AAXX 30034 07690 12460 43302 10120 20120 30003 40034 56012 60006 84500 90300=
07690,1996-04-30 04:00:00,12,1003.1,-0.3,100,12,500,7.408,,,240,11.8,15.7,,,,,,,,,wg-a,,,,AAXX 30044 07690 02/00 42404 10120 20120 30000 40031 56003 60006 82031 90400 333 10157 20118 60004=
07690,1996-04-30 06:00:00,12,1003.1,-0.3,100,12,500,7.408,,,240,11.8,15.7,,,,,,,,,wg-a,,,,AAXX 30064 07690 02/00 42404 10120 20120 30000 40031 56003 60006 82031 90600 333 10157 20118 60004=
07690,1996-04-30 09:00:00,16,1003.5,0.4,82,13,12000,7.408,,,160,,,,,,,,,,,wg-a,,,,AAXX 30094 07690 12562 21604 10160 20130 30004 40035 53004 60006 81201 90900=
07690,1996-04-30 12:00:00,17,1002.2,-1.2,82,14,15000,14.816,,,170,,,,,,,,,,,wg-a,,,,AAXX 30124 07690 12465 41708 10170 20140 39992 40022 58012 60006 83301 91200=
07690,1996-04-30 15:00:00,17,1001.4,-0.8,82,14,15000,14.816,,,200,,,,,,,,,,,wg-a,,,,AAXX 30154 07690 12565 62008 10170 20140 39984 40014 58008 60006 82961 91500=
07690,1996-04-30 18:00:00,15,1001.3,-0.2,94,14,12000,14.816,,,240,12.3,17.5,,,,,,,,,wg-a,,,,AAXX 30184 07690 12462 72408 10150 20140 39982 40013 55002 60006 81663 91800 333 10175 20123=
07690,1996-05-01 00:00:00,13,1001.3,-0.4,94,12,15000,11.112,,,340,,,,,,,,,,,wg-a,,,,AAXX 01004 07690 12865 /3406 10130 20120 39982 40013 56004 60006 81030 90000=
07690,1996-05-01 03:00:00,13,1001.1,-0.2,88,11,15000,14.816,,,330,,,,0,,,,,,,wg-a,,,,AAXX 01034 07690 12865 /3308 10130 20110 39980 40011 55002 60007 81030 90300=
07690,1996-05-01 06:00:00,13,1001.6,0.5,82,10,20000,14.816,,,340,12.1,15.4,,,,,,,,,wg-a,,,,AAXX 01064 07690 12570 23408 10130 20100 39985 40016 53005 60004 81130 90600 333 10154 20121=
07690,1996-05-01 09:00:00,17,1002.8,1.3,77,13,20000,22.224,,,200,,,,,,,,,,,wg-a,,,,AAXX 01094 07690 12670 42012 10170 20130 39998 40028 53013 60006 82230 90900=
07690,1996-05-01 12:00:00,17,1003,0.2,82,14,15000,31.484,,,200,,,,,,,,,,,wg-a,,,,AAXX 01124 07690 12665 52017 10170 20140 30000 40030 50002 60006 83232 91200=
07690,1996-05-01 15:00:00,17,1002.9,-0.1,88,15,12000,25.928,,50.004,200,,,,,,,,,,,wg-a,,,,AAXX 01154 07690 12462 62014 10170 20150 39999 40029 56001 60006 85230 91500 333 91027=
07690,1996-05-01 18:00:00,16,1002.3,-0.7,94,15,500,25.928,,50.004,200,13,17.1,,,,,,,,25,wg-a,,,,AAXX 01184 07690 02300 72014 10160 20150 39992 40023 58007 61000 72586 8527/ 91800 333 10171 20130 //// 91027=
07690,1996-05-01 21:00:00,14,1003.3,1,82,11,11000,14.816,,,320,,,,,,,,,,,wg-a,,,,AAXX 01214 07690 12/61 /3208 10140 20110 30002 40033 53010 60006 92100=
07690,1996-05-02 00:00:00,13,1003.2,-0.1,82,10,11000,14.816,,,330,,,,,,,,,,,wg-a,,,,AAXX 02004 07690 12/61 /3308 10130 20100 30001 40032 58001 60006 90000=
07690,1996-05-02 03:00:00,11,1002.5,,94,10,15000,14.816,,,330,,,,,,,,,,,wg-a,,,,AAXX 02034 07690 12465 43308 10110 20100 39993 40025 60006 84500 90300=
07690,1996-05-02 06:00:00,11,1003.2,,94,10,11000,18.52,,,330,11,15.8,,0,,,,,,,wg-a,,,,AAXX 02064 07690 02/61 /3310 10110 20100 30001 40032 60004 90600 333 10158 20110 60007=
07690,1996-05-02 09:00:00,13,1003.6,0.4,94,12,12000,14.816,,,340,,,,1,,,,,,25,wg-a,,,,AAXX 02094 07690 12362 /3408 10130 20120 30005 40036 52004 60017 72586 84803 90900=
07690,1996-05-02 12:00:00,17,1002.7,-0.8,82,14,10000,14.816,,,120,,,,,,,,,,80,wg-a,,,,AAXX 02124 07690 02460 71208 10170 20140 39997 40027 58008 60016 78086 879// 91200 333 61000=
07690,1996-05-02 15:00:00,17,1001.6,-1.1,88,15,9000,29.632,,,190,,,,,,,,,,3,wg-a,,,,AAXX 02154 07690 02459 21916 10170 20150 39986 40016 58011 61000 70386 82360 91500 333 ////=
07690,1996-05-02 18:00:00,15,1001.4,-0.3,94,14,9000,25.928,,,210,11.3,18.1,,,,,,,,2,wg-a,,,,AAXX 02184 07690 32559 /2114 10150 20140 39983 40014 55003 70286 81360 91800 333 10181 20113=
07690,1996-05-02 21:00:00,12,1001.6,0.2,82,9,12000,18.52,,,330,,,,,,,,,,,wg-a,,,,AAXX 02214 07690 12562 /3310 10120 20090 39985 40016 50002 60006 81800 92100=
07690,1996-05-03 00:00:00,12,1001.5,-0.1,71,7,12000,11.112,,,310,,,,,,,,,,,wg-a,,,,AAXX 03004 07690 12562 63106 10120 20070 39984 40015 58001 60006 86900 90000=
07690,1996-05-03 03:00:00,10,1001.1,-0.4,76,6,12000,14.816,,,330,,,,,,,,,,,wg-a,,,,AAXX 03034 07690 12/62 13308 10100 20060 39980 40011 56004 60006 81030 90300=
07690,1996-05-03 06:00:00,11,1002.6,1.5,76,7,50000,11.112,,,290,9.2,15,,,,,,,,,wg-a,,,,AAXX 03064 07690 02/84 12906 10110 20070 39995 40026 53015 60006 81031 90600 333 10150 20092 60004=
07690,1996-05-03 09:00:00,16,1003.6,1,48,5,50000,29.632,,,240,,,,,,,,,,,wg-a,,,,AAXX 03094 07690 12684 22416 10160 20050 30005 40036 52010 60006 82880 90900=
07690,1996-05-03 12:00:00,17,1004.9,1.3,52,7,50000,38.892,,53.708,250,,,,,,,,,,,wg-a,,,,AAXX 03124 07690 12684 32521 10170 20070 30018 40049 50013 60006 83200 91200 333 91029=
07690,1996-05-03 15:00:00,16,1005.6,0.7,72,11,50000,38.892,,,210,,,,,,,,,,,wg-a,,,,AAXX 03154 07690 12684 32121 10160 20110 30025 40056 53007 60006 83200 91500=
07690,1996-05-03 18:00:00,15,1006.4,0.8,82,12,40000,38.892,,,220,10.9,17.6,,,,,,,,,wg-a,,,,AAXX 03184 07690 12682 42221 10150 20120 30033 40064 53008 60006 82801 91800 333 10176 20109=
07690,1996-05-03 21:00:00,13,1008.4,2,82,10,40000,14.816,,,260,,,,,,,,,,,wg-a,,,,AAXX 03214 07690 12/82 22608 10130 20100 30053 40084 51020 60006 80001 92100=
07690,1996-05-04 00:00:00,10,1008.7,0.3,87,8,20000,11.112,,,310,,,,,,,,,,,wg-a,,,,AAXX 04004 07690 12/70 23106 10100 20080 30056 40087 52003 60006 80001 90000=
07690,1996-05-04 03:00:00,9,1008.9,0.1,87,7,20000,18.52,,,330,,,,,,,,,,,wg-a,,,,AAXX 04034 07690 12/70 13310 10090 20070 30057 40089 51001 60006 80001 90300=
07690,1996-05-04 06:00:00,12,1010.2,1.4,67,6,50000,14.816,,,330,9.4,14.7,,,,,,,,,wg-a,,,,AAXX 04064 07690 02584 /3308 10120 20060 30071 40102 53014 60006 81201 90600 333 10147 20094 60004=
07690,1996-05-04 09:00:00,16,1011.9,1.7,63,9,50000,14.816,,,110,,,,,,,,,,,wg-a,,,,AAXX 04094 07690 12584 /1108 10160 20090 30088 40119 51017 60006 81200 90900=
07690,1996-05-04 12:00:00,18,1013.3,1.4,64,11,50000,11.112,,,120,,,,,,,,,,,wg-a,,,,AAXX 04124 07690 12684 /1206 10180 20110 30102 40133 51014 60006 81800 91200=
07690,1996-05-04 15:00:00,18,1013.3,0,68,12,50000,14.816,,,110,,,,,,,,,,,wg-a,,,,AAXX 04154 07690 12684 21108 10180 20120 30102 40133 50000 60006 81801 91500=
07690,1996-05-04 18:00:00,16,1014,0.7,77,12,50000,7.408,,,90,11.6,17.8,,,,,,,,,wg-a,,,,AAXX 04184 07690 12684 30904 10160 20120 30109 40140 53007 60006 82401 91800 333 10178 20116=
07690,1996-05-04 21:00:00,13,1015.1,1.1,82,10,20000,7.408,,,320,,,,,,,,,,,wg-a,,,,AAXX 04214 07690 12570 23204 10130 20100 30120 40151 51011 60006 81501 92100=
07690,1996-05-05 00:00:00,11,1015.5,0.3,87,9,20000,7.408,,,330,,,,,,,,,,,wg-a,,,,AAXX 05004 07690 12470 53304 10110 20090 30123 40155 53003 60006 85500 90000=
07690,1996-05-05 03:00:00,10,1014.6,-0.9,82,7,25000,18.52,,,330,,,,,,,,,,,wg-a,,,,AAXX 05034 07690 12475 33310 10100 20070 30114 40146 58009 60006 81530 90300=
07690,1996-05-05 06:00:00,12,1015.1,0.6,76,8,50000,14.816,,,340,10.3,16.4,,,,,,,,,wg-a,,,,AAXX 05064 07690 02484 /3408 10120 20080 30120 40151 53006 60006 81270 90600 333 10164 20103 60004=
07690,1996-05-05 09:00:00,18,1015.2,0.1,59,10,50000,14.816,,,90,,,,,,,,,,,wg-a,,,,AAXX 05094 07690 12584 30908 10180 20100 30121 40152 52001 60006 81131 90900=
07690,1996-05-05 12:00:00,18,1014.9,-0.3,68,12,40000,14.816,,,100,,,,,,,,,,,wg-a,,,,AAXX 05124 07690 12582 /1008 10180 20120 30118 40149 58003 60006 81231 91200=
07690,1996-05-05 15:00:00,18,1013.8,-1.1,52,8,40000,7.408,,,100,,,,,,,,,,,wg-a,,,,AAXX 05154 07690 12682 31004 10180 20080 30107 40138 58011 60006 81231 91500=
07690,1996-05-05 18:00:00,17,1013.2,-0.6,59,9,40000,7.408,,,200,12,18.8,,,,,,,,,wg-a,,,,AAXX 05184 07690 12682 52004 10170 20090 30101 40132 55006 60006 82530 91800 333 10188 20120=
07690,1996-05-05 21:00:00,15,1013.3,0.1,72,10,20000,7.408,,,330,,,,,,,,,,,wg-a,,,,AAXX 05214 07690 12/70 23304 10150 20100 30102 40133 52001 60006 82030 92100=
07690,1996-05-06 00:00:00,14,1013.2,-0.1,82,11,20000,14.816,,,330,,,,,,,,,,,wg-a,,,,AAXX 06004 07690 12/70 23308 10140 20110 30101 40132 58001 60006 82030 90000=
07690,1996-05-06 03:00:00,14,1012.5,-0.7,77,10,20000,18.52,,,340,,,,,,,,,,,wg-a,,,,AAXX 06034 07690 12/70 33410 10140 20100 30094 40125 58007 60006 83030 90300=
07690,1996-05-06 06:00:00,14,1012.7,0.2,72,9,40000,14.816,,,340,13.2,17.4,,,,,,,,,wg-a,,,,AAXX 06064 07690 02/82 /3408 10140 20090 30096 40127 53002 60006 86030 90600 333 10174 20132 60004=
07690,1996-05-06 09:00:00,18,1013,0.3,59,10,40000,11.112,,,160,,,,,,,,,,,wg-a,,,,AAXX 06094 07690 12882 /1606 10180 20100 30099 40130 52003 60006 81230 90900=
07690,1996-05-06 12:00:00,21,1012.2,-0.7,43,8,40000,11.112,,,150,,,,,,,,,,,wg-a,,,,AAXX 06124 07690 12682 21506 10210 20080 30092 40122 58007 60006 81230 91200=
07690,1996-05-06 15:00:00,19,1011.8,-0.4,64,12,35000,14.816,,,230,,,,,,,,,,,wg-a,,,,AAXX 06154 07690 12781 /2308 10190 20120 30088 40118 56004 60006 81800 91500=
07690,1996-05-06 21:00:00,15,1012.1,0.9,77,11,20000,11.112,,,320,,,,,,,,,,,wg-a,,,,AAXX 06214 07690 12/70 03206 10150 20110 30090 40121 53009 60006 80000 92100=
07690,1996-05-07 00:00:00,15,1011,-1.1,67,9,20000,11.112,,,330,,,,,,,,,,,wg-a,,,,AAXX 07004 07690 12/70 03306 10150 20090 30079 40110 56011 60006 80000 90000=
07690,1996-05-07 03:00:00,15,1010.3,-0.7,67,9,20000,22.224,,,330,,,,,,,,,,,wg-a,,,,AAXX 07034 07690 12/70 03312 10150 20090 30072 40103 55007 60006 80000 90300=
07690,1996-05-07 06:00:00,15,1011.4,1.1,72,10,25000,22.224,,,340,14,18.4,,,,,,,,,wg-a,,,,AAXX 07064 07690 02575 73412 10150 20100 30083 40114 53011 60006 8258/ 90600 333 10184 20140 60004=
07690,1996-05-07 09:00:00,19,1010.7,-0.7,56,10,25000,11.112,,,340,,,,,,,,,,,wg-a,,,,AAXX 07094 07690 12675 /3406 10190 20100 30076 40107 58007 60006 81888 90900=
07690,1996-05-07 12:00:00,20,1011,0.4,56,11,20000,14.816,,,110,,,,,,,,,,,wg-a,,,,AAXX 07124 07690 12670 /1108 10200 20110 30080 40110 50004 60006 82833 91200=
07690,1996-05-07 15:00:00,19,1011.4,0.4,68,13,15000,3.704,,,160,,,,,,,,,,,wg-a,,,,AAXX 07154 07690 12665 71602 10190 20130 30084 40114 51004 60006 81282 91500=
07690,1996-05-07 18:00:00,18,1011.7,0.2,68,12,10000,7.408,,,350,14.8,21.3,,,,,,,,,wg-a,,,,AAXX 07184 07690 12660 73504 10180 20120 30086 40117 50002 60006 8428/ 91800 333 10213 20148=
07690,1996-05-07 21:00:00,17,1012.1,0.4,72,12,10000,7.408,,,10,,,,,,,,,,1,wg-a,,,,AAXX 07214 07690 02660 30104 10170 20120 30090 40121 53004 61000 70186 8153/ 92100 333 ////=
07690,1996-05-08 00:00:00,14,1012.3,0.2,88,12,15000,7.408,,,330,,,,,,,,,,1,wg-a,,,,AAXX 08004 07690 02665 43304 10140 20120 30092 40123 50002 61000 70186 8153/ 90000 333 ////=
07690,1996-05-08 03:00:00,15,1011.7,-0.6,77,11,15000,11.112,,,340,,,,0,,,,,,,wg-a,,,,AAXX 08034 07690 12665 /3406 10150 20110 30086 40117 58006 60007 8153/ 90300=
07690,1996-05-08 06:00:00,15,1012.5,0.8,82,12,20000,3.704,,,330,14,18.1,,,,,,,,,wg-a,,,,AAXX 08064 07690 12570 73302 10150 20120 30094 40125 53008 60004 8587/ 90600 333 10181 20140=
07690,1996-05-08 09:00:00,18,1012.8,0.3,77,14,20000,11.112,,,100,,,,,,,,,,,wg-a,,,,AAXX 08094 07690 12570 71006 10180 20140 30097 40128 50003 60006 8783/ 90900=
07690,1996-05-08 12:00:00,14,1012.8,-0,88,12,8000,11.112,,,320,,,,2,,,,,,17,wg-a,,,,AAXX 08124 07690 02358 83206 10140 20120 30097 40128 55000 60026 71798 8/93/ 91200 333 60027=
07690,1996-05-08 15:00:00,15,1011.8,-1,94,14,11000,11.112,,,240,,,,,,,,,,,wg-a,,,,AAXX 08154 07690 32/61 /2406 10150 20140 30087 40118 58010 91500=
07690,1996-05-08 18:00:00,17,1010.9,-0.9,82,14,20000,7.408,,,250,13.9,18.9,,,,,,,,1,wg-a,,,,AAXX 08184 07690 32570 32504 10170 20140 30078 40109 55009 70198 81932 91800 333 10189 20139=
07690,1996-05-08 21:00:00,14,1010.8,-0.1,94,13,20000,7.408,,,330,,,,,,,,,,,wg-a,,,,AAXX 08214 07690 12/70 13304 10140 20130 30077 40108 58001 60006 80001 92100=
07690,1996-05-09 00:00:00,12,1009.2,-1.6,100,12,20000,11.112,,,320,,,,,,,,,,,wg-a,,,,AAXX 09004 07690 12/70 03206 10120 20120 30061 40092 58016 60006 80000 90000=
07690,1996-05-09 03:00:00,12,1008.1,-1.1,94,11,20000,11.112,,,330,,,,,,,,,,,wg-a,,,,AAXX 09034 07690 12/70 03306 10120 20110 30050 40081 56011 60006 80000 90300=
07690,1996-05-09 06:00:00,13,1007.8,-0.3,82,10,11000,22.224,,,330,11.6,16.8,,,,,3,,,,wg-a,,,,AAXX 09064 07690 02/61 /3312 10130 20100 30047 40078 58003 60006 90600 333 10168 20116 60034=
07690,1996-05-09 09:00:00,17,1007.1,-0.7,72,12,500,14.816,,,230,,,,,,,,,,,wg-a,,,,AAXX 09094 07690 12500 /2308 10170 20120 30040 40071 58007 60006 81231 90900=
07690,1996-05-09 12:00:00,18,1005.7,-1.3,77,14,20000,18.52,,,170,,,,,,,,,,,wg-a,,,,AAXX 09124 07690 12470 31710 10180 20140 30027 40057 56013 60006 81903 91200=
07690,1996-05-09 15:00:00,17,1005.4,-0.4,88,15,9000,11.112,,,70,,,,1,,,,,,80,wg-a,,,,AAXX 09154 07690 12359 70706 10170 20150 30023 40054 58004 60017 78098 8596/ 91500=
07690,1996-05-09 18:00:00,15,1005,-0.4,94,14,6000,3.704,,,230,13.1,18.3,,1,,,,,,16,wg-a,,,,AAXX 09184 07690 12456 72302 10150 20140 30019 40050 55004 60017 71698 8396/ 91800 333 10183 20131=
07690,1996-05-09 21:00:00,14,1005.2,0.2,100,14,10000,7.408,,,320,,,,,,,,,,,wg-a,,,,AAXX 09214 07690 12460 23204 10140 20140 30021 40052 53002 60006 82500 92100=
07690,1996-05-10 00:00:00,12,1004.3,-0.9,100,12,0,14.816,,,330,,,,,,,,,,,wg-a,,,,AAXX 10004 07690 12/// /3308 10120 20120 30012 40043 58009 60006 90000=
07690,1996-05-10 03:00:00,12,1003.5,-0.8,94,11,12000,11.112,,,330,,,,,,,,,,,wg-a,,,,AAXX 10034 07690 12462 33306 10120 20110 30004 40035 56008 60006 81502 90300=
07690,1996-05-10 06:00:00,13,1003.5,-0,88,11,20000,11.112,,,340,11.8,15.3,,,,,2,,,,wg-a,,,,AAXX 10064 07690 12570 33406 10130 20110 30004 40035 54000 60024 81232 90600 333 10153 20118=
07690,1996-05-10 09:00:00,17,1004.3,0.9,82,14,12000,7.408,,,110,,,,,,,,,,,wg-a,,,,AAXX 10094 07690 12462 71104 10170 20140 30013 40043 53009 60006 85850 90900=
07690,1996-05-10 12:00:00,18,1004.3,0,73,13,15000,11.112,,,140,,,,,,,,,,,wg-a,,,,AAXX 10124 07690 12465 31406 10180 20130 30013 40043 50000 60006 83800 91200=
07690,1996-05-10 15:00:00,18,1004.2,-0.1,77,14,15000,7.408,,,100,,,,,,,,,,,wg-a,,,,AAXX 10154 07690 12565 51004 10180 20140 30012 40042 58001 60006 83230 91500=
07690,1996-05-10 18:00:00,18,1004.7,0.5,77,14,15000,11.112,,,120,13.3,19,,,,,,,,,wg-a,,,,AAXX 10184 07690 12465 61206 10180 20140 30017 40047 53005 60006 82972 91800 333 10190 20133=
07690,1996-05-10 21:00:00,16,1006,1.2,88,14,12000,3.704,,,340,,,,,,,,,,,wg-a,,,,AAXX 10214 07690 12462 63402 10160 20140 30029 40060 51012 60006 85802 92100=
07690,1996-05-11 00:00:00,14,1005.3,-0.7,88,12,12000,7.408,,,340,,,,,,,,,,,wg-a,,,,AAXX 11004 07690 12462 23404 10140 20120 30022 40053 58007 60006 81501 90000=
07690,1996-05-11 03:00:00,13,1004.7,-0.6,88,11,15000,14.816,,,330,,,,,,,,,,,wg-a,,,,AAXX 11034 07690 12465 33308 10130 20110 30016 40047 58006 60006 81502 90300=
07690,1996-05-11 06:00:00,14,1005.3,0.6,82,11,500,18.52,,,330,12.7,18,,,,,,,,,wg-a,,,,AAXX 11064 07690 02/00 53310 10140 20110 30022 40053 53006 60006 82012 90600 333 10180 20127 60004=
07690,1996-05-11 09:00:00,18,1004.7,-0.5,68,12,25000,7.408,,,240,,,,,,,,,,,wg-a,,,,AAXX 11094 07690 12575 72404 10180 20120 30017 40047 56005 60006 82232 90900=
07690,1996-05-11 12:00:00,20,1004.4,-0.3,73,15,25000,22.224,,,200,,,,,,,,,,,wg-a,,,,AAXX 11124 07690 12575 72012 10200 20150 30014 40044 56003 60006 83932 91200=
07690,1996-05-11 15:00:00,19,1005,0.6,68,13,25000,22.224,,,230,,,,,,,,,,,wg-a,,,,AAXX 11154 07690 12575 72312 10190 20130 30020 40050 50006 60006 83252 91500=
07690,1996-05-11 18:00:00,18,1005.4,0.4,59,10,25000,11.112,,,340,14.3,20.5,,,,,,,,,wg-a,,,,AAXX 11184 07690 12575 63406 10180 20100 30024 40054 53004 60006 82272 91800 333 10205 20143=
07690,1996-05-11 21:00:00,16,1006.2,0.7,72,11,25000,18.52,,,330,,,,,,,,,,,wg-a,,,,AAXX 11214 07690 12575 43310 10160 20110 30031 40062 51007 60006 82802 92100=
07690,1996-05-12 00:00:00,15,1005.4,-0.8,77,11,25000,11.112,,,360,,,,,,,,,,,wg-a,,,,AAXX 12004 07690 12575 /3606 10150 20110 30023 40054 57008 60006 81500 90000=
07690,1996-05-12 03:00:00,14,1005.1,-0.3,77,10,25000,11.112,,,340,,,,,,,,,,,wg-a,,,,AAXX 12034 07690 12575 /3406 10140 20100 30020 40051 58003 60006 81500 90300=
07690,1996-05-12 06:00:00,14,1006.1,1,77,10,40000,14.816,,,340,13.4,18,,,,,,,,,wg-a,,,,AAXX 12064 07690 02582 73408 10140 20100 30030 40061 53010 60006 81274 90600 333 10180 20134 60004=
07690,1996-05-12 09:00:00,18,1006,0,77,14,25000,18.52,,,90,,,,,,,,,,,wg-a,,,,AAXX 12094 07690 12475 70910 10180 20140 30030 40060 50000 60006 82272 90900=
07690,1996-05-12 12:00:00,18,1005.5,-0.5,83,15,25000,14.816,,,120,,,,,,,,,,,wg-a,,,,AAXX 12124 07690 12475 71208 10180 20150 30025 40055 56005 60006 82382 91200=
07690,1996-05-12 15:00:00,16,1005.4,-0.2,94,15,9000,11.112,,,200,,,,1,,,,,,80,wg-a,,,,AAXX 12154 07690 12459 72006 10160 20150 30023 40054 55002 60017 78086 8598/ 91500=
07690,1996-05-12 18:00:00,16,1005.6,0.2,88,14,10000,7.408,,,40,13.9,19.1,,2,,,,,,60,wg-a,,,,AAXX 12184 07690 12260 80404 10160 20140 30025 40056 53002 60027 76086 8587/ 91800 333 10191 20139=
07690,1996-05-12 21:00:00,16,1007.3,1.7,88,14,10000,18.52,,,80,,,,0,,,,,,60,wg-a,,,,AAXX 12214 07690 12360 80810 10160 20140 30042 40073 51017 60007 76062 8387/ 92100=
07690,1996-05-13 00:00:00,15,1007.8,0.5,88,13,12000,7.408,,,100,,,,,,,,,,3,wg-a,,,,AAXX 13004 07690 02462 71004 10150 20130 30047 40078 51005 60016 70361 8253/ 90000 333 61000=
07690,1996-05-13 03:00:00,14,1008.3,0.5,94,13,12000,7.408,,,330,,,,,,,,,,,wg-a,,,,AAXX 13034 07690 12662 /3304 10140 20130 30052 40083 51005 60006 83530 90300=
07690,1996-05-13 06:00:00,14,1009.2,0.9,100,14,10000,7.408,,,320,13.6,16,,,,,3,,,,wg-a,,,,AAXX 13064 07690 12560 73204 10140 20140 30061 40092 53009 60034 83572 90600 333 10160 20136=
07690,1996-05-13 09:00:00,16,1010.5,1.3,88,14,20000,7.408,,,160,,,,,,,,,,,wg-a,,,,AAXX 13094 07690 12470 71604 10160 20140 30074 40105 53013 60006 81272 90900=
07690,1996-05-13 12:00:00,18,1011.2,0.7,77,14,20000,11.112,,,160,,,,,,,,,,,wg-a,,,,AAXX 13124 07690 12470 71606 10180 20140 30081 40112 52007 60006 81272 91200=
07690,1996-05-13 15:00:00,18,1011.2,-0,83,15,20000,11.112,,,160,,,,,,,,,,1,wg-a,,,,AAXX 13154 07690 02470 71606 10180 20150 30081 40112 55000 61000 70186 8127/ 91500 333 ////=
07690,1996-05-13 18:00:00,17,1011.8,0.6,82,14,15000,7.408,,,160,14.3,18.6,,,,,,,,1,wg-a,,,,AAXX 13184 07690 32465 71604 10170 20140 30087 40118 53006 70186 81572 91800 333 10186 20143=
07690,1996-05-13 21:00:00,16,1012.4,0.6,94,15,20000,0,,,0,,,,,,,,,,,wg-a,,,,AAXX 13214 07690 12/70 /0000 10160 20150 30093 40124 52006 60006 82032 92100=
07690,1996-05-14 00:00:00,14,1012.2,-0.2,94,13,11000,14.816,,,320,,,,,,,,,,,wg-a,,,,AAXX 14004 07690 12/61 /3208 10140 20130 30091 40122 58002 60006 90000=
07690,1996-05-14 03:00:00,14,1011.3,-0.9,88,12,15000,18.52,,,330,,,,,,,,,,,wg-a,,,,AAXX 14034 07690 12/65 23310 10140 20120 30082 40113 58009 60006 82070 90300=
07690,1996-05-14 06:00:00,15,1011,-0.3,82,12,25000,7.408,,,340,13,17.3,,,,,,,,,wg-a,,,,AAXX 14064 07690 12/75 13404 10150 20120 30079 40110 55003 60004 81030 90600 333 10173 20130=
07690,1996-05-14 09:00:00,18,1011.1,0.1,83,15,500,11.112,,,190,,,,,,,,,,,wg-a,,,,AAXX 14094 07690 12500 /1906 10180 20150 30080 40111 53001 60006 81100 90900=
07690,1996-05-14 12:00:00,20,1009.7,-1.3,73,15,40000,22.224,,,190,,,,,,,,,,,wg-a,,,,AAXX 14124 07690 12682 /1912 10200 20150 30067 40097 58013 60006 81201 91200=
07690,1996-05-14 15:00:00,18,1009.7,-0.1,77,14,500,18.52,,,210,,,,,,,,,,,wg-a,,,,AAXX 14154 07690 12600 /2110 10180 20140 30066 40097 57001 60006 81801 91500=
07690,1996-05-14 18:00:00,17,1009.7,-0,82,14,8000,14.816,,,200,15.4,19.8,,,,,,,,,wg-a,,,,AAXX 14184 07690 12458 32008 10170 20140 30066 40097 55000 60006 83401 91800 333 10198 20154=
07690,1996-05-14 21:00:00,16,1009.8,0.1,88,14,10000,11.112,,,210,,,,,,,,,,,wg-a,,,,AAXX 14214 07690 12460 52106 10160 20140 30067 40098 53001 60006 85501 92100=
07690,1996-05-15 00:00:00,16,1009.4,-0.4,82,13,10000,3.704,,,180,,,,,,,,,,,wg-a,,,,AAXX 15004 07690 12460 /1802 10160 20130 30063 40094 58004 60006 86500 90000=
07690,1996-05-15 03:00:00,16,1009.3,-0.1,82,13,10000,7.408,,,120,,,,,,,,,,,wg-a,,,,AAXX 15034 07690 12460 /1204 10160 20130 30062 40093 55001 60006 86500 90300=
07690,1996-05-15 06:00:00,15,1009.8,0.5,88,13,8000,7.408,,,50,15,16.7,,,,,,,,,wg-a,,,,AAXX 15064 07690 02458 80504 10150 20130 30067 40098 53005 60006 8557/ 90600 333 10167 20150 60004=
07690,1996-05-15 09:00:00,18,1010.3,0.5,73,13,10000,11.112,,,110,,,,,,,,,,,wg-a,,,,AAXX 15094 07690 12560 71106 10180 20130 30072 40103 51005 60006 875// 90900=
07690,1996-05-15 12:00:00,18,1010.3,0,77,14,8000,18.52,,,100,,,,,,,,,,,wg-a,,,,AAXX 15124 07690 12458 71010 10180 20140 30072 40103 50000 60006 8557/ 91200=
07690,1996-05-15 15:00:00,17,1010,-0.3,82,14,7000,7.408,,,100,,,,,,,,,,,wg-a,,,,AAXX 15154 07690 12457 71004 10170 20140 30069 40100 58003 60006 8657/ 91500=
07690,1996-05-15 18:00:00,17,1009.9,-0.1,88,15,7000,3.704,,,120,15.3,18.4,,,,,,,,,wg-a,,,,AAXX 15184 07690 12457 71202 10170 20150 30068 40099 55001 60006 875// 91800 333 10184 20153=
07690,1996-05-15 21:00:00,16,1010.7,0.8,88,14,10000,3.704,,,140,,,,,,,,,,,wg-a,,,,AAXX 15214 07690 12560 /1402 10160 20140 30076 40107 53008 60006 81500 92100=
07690,1996-05-16 00:00:00,14,1010.6,-0.1,100,14,10000,3.704,,,340,,,,,,,,,,,wg-a,,,,AAXX 16004 07690 12/60 /3402 10140 20140 30075 40106 58001 60006 90000=
07690,1996-05-16 03:00:00,14,1011.1,0.5,94,13,10000,7.408,,,340,,,,0,,,,,,,wg-a,,,,AAXX 16034 07690 12560 /3404 10140 20130 30080 40111 53005 60007 86500 90300=
07690,1996-05-16 06:00:00,15,1012.3,1.2,94,14,6000,7.408,,,320,13.6,17.2,,,,,,,,,wg-a,,,,AAXX 16064 07690 12556 33204 10150 20140 30092 40123 53012 60004 83500 90600 333 10172 20136=
07690,1996-05-16 09:00:00,18,1013.2,0.9,77,14,10000,18.52,,,190,,,,,,,,,,,wg-a,,,,AAXX 16094 07690 12560 /1910 10180 20140 30101 40132 51009 60006 81500 90900=
07690,1996-05-16 12:00:00,19,1013.7,0.5,78,15,13000,18.52,,,180,,,,,,,,,,,wg-a,,,,AAXX 16124 07690 12563 /1810 10190 20150 30106 40137 51005 60006 81500 91200=
07690,1996-05-16 15:00:00,19,1013.3,-0.4,78,15,15000,14.816,,,180,,,,,,,,,,,wg-a,,,,AAXX 16154 07690 12565 /1808 10190 20150 30102 40133 57004 60006 81500 91500=
07690,1996-05-16 18:00:00,18,1013.4,0.1,83,15,10000,7.408,,,180,15.3,19.5,,,,,,,,,wg-a,,,,AAXX 16184 07690 12460 21804 10180 20150 30103 40134 51001 60006 82500 91800 333 10195 20153=
07690,1996-05-16 21:00:00,16,1014.2,0.8,88,14,12000,3.704,,,70,,,,,,,,,,,wg-a,,,,AAXX 16214 07690 12/62 00702 10160 20140 30111 40142 51008 60006 80000 92100=
07690,1996-05-17 00:00:00,14,1013.5,-0.7,94,13,12000,7.408,,,340,,,,,,,,,,,wg-a,,,,AAXX 17004 07690 12/62 03404 10140 20130 30104 40135 58007 60006 80000 90000=
07690,1996-05-17 03:00:00,13,1013.4,-0.1,94,12,12000,11.112,,,330,,,,,,,,,,,wg-a,,,,AAXX 17034 07690 12462 /3306 10130 20120 30103 40134 58001 60006 81500 90300=
07690,1996-05-17 06:00:00,14,1013.7,0.3,94,13,10000,3.704,,,320,12.5,17.5,,,,,,,,,wg-a,,,,AAXX 17064 07690 02460 73202 10140 20130 30106 40137 53003 60006 86580 90600 333 10175 20125 60004=
07690,1996-05-17 09:00:00,18,1013.2,-0.5,77,14,20000,14.816,,,90,,,,,,,,,,,wg-a,,,,AAXX 17094 07690 12470 50908 10180 20140 30101 40132 56005 60006 81131 90900=
07690,1996-05-17 12:00:00,20,1012.6,-0.5,78,16,25000,22.224,,,90,,,,,,,,,,,wg-a,,,,AAXX 17124 07690 12675 /0912 10200 20160 30096 40126 58005 60006 81131 91200=
07690,1996-05-17 15:00:00,21,1011.8,-0.8,73,16,25000,29.632,,,90,,,,,,,,,,,wg-a,,,,AAXX 17154 07690 12575 /0916 10210 20160 30088 40118 58008 60006 81131 91500=
07690,1996-05-17 18:00:00,19,1011.2,-0.6,83,16,25000,29.632,,,80,13.8,20.9,,,,,,,,,wg-a,,,,AAXX 17184 07690 12575 /0816 10190 20160 30082 40112 57006 60006 81131 91800 333 10209 20138=
07690,1996-05-17 21:00:00,18,1011.8,0.5,83,15,15000,22.224,,,70,,,,,,,,,,,wg-a,,,,AAXX 17214 07690 12/65 30712 10180 20150 30087 40118 53005 60006 81032 92100=
07690,1996-05-18 00:00:00,15,1012.2,0.4,94,14,15000,7.408,,,290,,,,,,,,,,,wg-a,,,,AAXX 18004 07690 12/65 12904 10150 20140 30091 40122 53004 60006 80001 90000=
07690,1996-05-18 03:00:00,15,1011.3,-0.9,77,11,15000,14.816,,,330,,,,,,,,,,,wg-a,,,,AAXX 18034 07690 12/65 43308 10150 20110 30082 40113 57009 60006 84030 90300=
07690,1996-05-18 06:00:00,17,1011,-0.3,68,11,20000,7.408,,,20,14.2,19.2,,,,,,,,,wg-a,,,,AAXX 18064 07690 02470 /0204 10170 20110 30079 40110 56003 60006 81530 90600 333 10192 20142 60004=
07690,1996-05-18 09:00:00,19,1012.3,1.4,88,17,10000,14.816,,,90,,,,,,,,,,,wg-a,,,,AAXX 18094 07690 12460 70908 10190 20170 30093 40123 53014 60006 8683/ 90900=
07690,1996-05-18 12:00:00,20,1010.4,-1.9,83,17,8000,25.928,,,90,,,,,,,,,,,wg-a,,,,AAXX 18124 07690 12458 70914 10200 20170 30074 40104 56019 60006 8123/ 91200=
07690,1996-05-18 15:00:00,21,1009.8,-0.6,73,16,12000,29.632,,,90,,,,,,,,,,,wg-a,,,,AAXX 18154 07690 12562 70916 10210 20160 30068 40098 58006 60006 81232 91500=
07690,1996-05-18 18:00:00,19,1010,0.2,88,17,8000,14.816,,,110,16.5,21.4,,,,,,,,,wg-a,,,,AAXX 18184 07690 12458 71108 10190 20170 30070 40100 53002 60006 8183/ 91800 333 10214 20165=
07690,1996-05-18 21:00:00,18,1010.8,0.7,94,17,10000,18.52,,,100,,,,,,,,,,,wg-a,,,,AAXX 18214 07690 12460 31010 10180 20170 30077 40108 53007 60006 81130 92100=
07690,1996-05-19 00:00:00,18,1010.4,-0.4,94,17,10000,7.408,,,100,,,,,,,,,,,wg-a,,,,AAXX 19004 07690 12360 61004 10180 20170 30073 40104 58004 60006 85830 90000=
07690,1996-05-19 03:00:00,16,1009.7,-0.7,94,15,10000,7.408,,,340,,,,,,,,,,,wg-a,,,,AAXX 19034 07690 12360 73404 10160 20150 30066 40097 58007 60006 875// 90300=
07690,1996-05-19 06:00:00,18,1009.7,0,88,16,7000,14.816,,,90,15.5,18.9,,,,,,,,,wg-a,,,,AAXX 19064 07690 02357 70908 10180 20160 30066 40097 50000 60006 8553/ 90600 333 10189 20155 60004=
07690,1996-05-19 12:00:00,18,1010.2,-0.6,94,17,0,18.52,,,150,,,,,,,,,,,wg-a,,,,AAXX 19124 07690 12/// /1510 10180 20170 30071 40102 57006 60106 91200=
07690,1996-05-19 18:00:00,17,1009.3,-0.2,94,16,0,18.52,,,200,16.7,18.3,,,,,,,,,wg-a,,,,AAXX 19184 07690 32/// /2010 10170 20160 30062 40093 58002 91800 333 10183 20167=
07690,1996-05-19 21:00:00,16,1010.8,1.5,100,16,10000,14.816,,,210,,,,,,,,,,,wg-a,,,,AAXX 19214 07690 12260 /2108 10160 20160 30077 40108 53015 60006 83800 92100=
07690,1996-05-20 00:00:00,14,1010.7,-0.1,100,14,12000,3.704,,,260,,,,,,,,,,,wg-a,,,,AAXX 20004 07690 12462 /2602 10140 20140 30076 40107 55001 60006 81800 90000=
07690,1996-05-20 03:00:00,13,1010.7,-0,94,12,12000,11.112,,,280,,,,,,,,,,,wg-a,,,,AAXX 20034 07690 32/62 02806 10130 20120 30076 40107 55000 80000 90300=
07690,1996-05-20 06:00:00,13,1011.1,0.4,94,12,500,14.816,,,260,12.1,16.8,,,,,10,,,,wg-a,,,,AAXX 20064 07690 12500 /2608 10130 20120 30080 40111 51004 60104 81130 90600 333 10168 20121=
07690,1996-05-20 12:00:00,20,1011.1,-0.2,49,9,0,38.892,,,230,,,,,,,,,,,wg-a,,,,AAXX 20124 07690 12/// /2321 10200 20090 30081 40111 58002 60006 91200=
07690,1996-05-20 18:00:00,19,1012.6,1.2,68,13,0,31.484,,,220,13,21.7,,,,,,,,,wg-a,,,,AAXX 20184 07690 12/// /2217 10190 20130 30095 40126 53012 60006 91800 333 10217 20130=
07690,1996-05-20 21:00:00,18,1016.2,3.6,68,12,50000,31.484,,,80,,,,,,,,,,,wg-a,,,,AAXX 20214 07690 12/84 00817 10180 20120 30131 40162 53036 60006 80000 92100=
07690,1996-05-21 00:00:00,13,1017.8,1.6,82,10,50000,11.112,,,350,,,,,,,,,,,wg-a,,,,AAXX 21004 07690 12/84 03506 10130 20100 30147 40178 51016 60006 80000 90000=
07690,1996-05-21 03:00:00,12,1019,1.1,76,8,50000,18.52,,,330,,,,,,,,,,,wg-a,,,,AAXX 21034 07690 12/84 03310 10120 20080 30158 40190 53011 60006 80000 90300=
07690,1996-05-21 06:00:00,14,1020.3,1.4,63,7,500,22.224,,,330,11.8,19.2,,,,,,,,,wg-a,,,,AAXX 21064 07690 02/00 43312 10140 20070 30172 40203 53014 60006 80001 90600 333 10192 20118 60004=
07690,1996-05-21 09:00:00,18,1020.8,0.5,73,13,50000,14.816,,,190,,,,,,,,,,,wg-a,,,,AAXX 21094 07690 12684 61908 10180 20130 30177 40208 51005 60006 81101 90900=
07690,1996-05-21 12:00:00,19,1021.3,0.5,73,14,500,11.112,,,140,,,,,,,,,,,wg-a,,,,AAXX 21124 07690 12600 31406 10190 20140 30182 40213 50005 60006 81201 91200=
07690,1996-05-21 15:00:00,20,1020.3,-1,64,13,500,14.816,,,90,,,,,,,,,,,wg-a,,,,AAXX 21154 07690 12600 40908 10200 20130 30172 40203 57010 60006 81201 91500=
07690,1996-05-21 18:00:00,19,1019.5,-0.8,73,14,500,18.52,,,80,13.6,20.1,,,,,,,,,wg-a,,,,AAXX 21184 07690 12600 /0810 10190 20140 30164 40195 56008 60006 81200 91800 333 10201 20136=
07690,1996-05-21 21:00:00,15,1020.3,0.8,88,13,20000,11.112,,,320,,,,,,,,,,,wg-a,,,,AAXX 21214 07690 12/70 03206 10150 20130 30172 40203 53008 60006 80000 92100=
07690,1996-05-22 00:00:00,13,1020.7,0.4,88,11,25000,7.408,,,330,,,,,,,,,,,wg-a,,,,AAXX 22004 07690 12/75 53304 10130 20110 30176 40207 51004 60006 80001 90000=
07690,1996-05-22 03:00:00,12,1020.4,-0.4,88,10,25000,14.816,,,310,,,,,,,,,,,wg-a,,,,AAXX 22034 07690 12/75 53108 10120 20100 30172 40204 55004 60006 80002 90300=
07690,1996-05-22 06:00:00,14,1021.1,0.8,72,9,25000,18.52,,,330,12.3,18.8,,,,,,,,,wg-a,,,,AAXX 22064 07690 02475 /3310 10140 20090 30180 40211 53008 60006 81201 90600 333 10188 20123 60004=
07690,1996-05-22 09:00:00,18,1022.1,1,73,13,25000,14.816,,,190,,,,,,,,,,,wg-a,,,,AAXX 22094 07690 12575 31908 10180 20130 30190 40221 53010 60006 81202 90900=
07690,1996-05-22 12:00:00,20,1022.6,0.5,73,15,25000,14.816,,,150,,,,,,,,,,,wg-a,,,,AAXX 22124 07690 12575 21508 10200 20150 30195 40226 51005 60006 81201 91200=
07690,1996-05-22 18:00:00,18,1022.1,-0.2,83,15,500,7.408,,,200,14,19.9,,,,,,,,,wg-a,,,,AAXX 22184 07690 12700 /2004 10180 20150 30190 40221 55002 60006 81432 91800 333 10199 20140=
07690,1996-05-22 21:00:00,16,1022.7,0.6,82,13,20000,7.408,,,320,,,,,,,,,,,wg-a,,,,AAXX 22214 07690 12/70 33204 10160 20130 30196 40227 51006 60006 80002 92100=
07690,1996-05-23 00:00:00,14,1021.8,-0.9,88,12,20000,11.112,,,340,,,,,,,,,,,wg-a,,,,AAXX 23004 07690 12/70 33406 10140 20120 30187 40218 58009 60006 80002 90000=
07690,1996-05-23 03:00:00,14,1020.9,-0.9,82,11,20000,11.112,,,350,,,,,,,,,,,wg-a,,,,AAXX 23034 07690 12570 43506 10140 20110 30178 40209 56009 60006 81502 90300=
07690,1996-05-23 06:00:00,15,1021.4,0.5,77,11,500,7.408,,,340,13.2,18.4,,,,,,,,,wg-a,,,,AAXX 23064 07690 02500 /3404 10150 20110 30183 40214 53005 60006 81542 90600 333 10184 20132 60004=
07690,1996-05-23 09:00:00,19,1022.1,0.7,78,15,500,22.224,,,100,,,,,,,,,,,wg-a,,,,AAXX 23094 07690 12500 /1012 10190 20150 30190 40221 51007 60006 82542 90900=
07690,1996-05-23 12:00:00,20,1022.1,0,73,15,500,25.928,,,100,,,,,,,,,,,wg-a,,,,AAXX 23124 07690 12500 41014 10200 20150 30190 40221 50000 60006 82502 91200=
07690,1996-05-23 15:00:00,20,1021.5,-0.6,73,15,11000,22.224,,,90,,,,,,,,,,,wg-a,,,,AAXX 23154 07690 12/61 /0912 10200 20150 30184 40215 56006 60006 91500=
07690,1996-05-23 18:00:00,19,1021.5,-0,83,16,25000,18.52,,,80,14.7,20.3,,,,,,,,,wg-a,,,,AAXX 23184 07690 12475 60810 10190 20160 30184 40215 55000 60006 83502 91800 333 10203 20147=
07690,1996-05-23 21:00:00,18,1021.9,0.4,88,16,12000,14.816,,,90,,,,,,,,,,,wg-a,,,,AAXX 23214 07690 12462 /0908 10180 20160 30188 40219 52004 60006 81500 92100=
07690,1996-05-24 00:00:00,18,1021.5,-0.4,83,15,12000,11.112,,,90,,,,,,,,,,,wg-a,,,,AAXX 24004 07690 12462 /0906 10180 20150 30184 40215 58004 60006 86500 90000=
07690,1996-05-24 03:00:00,16,1020.6,-0.9,82,13,12000,7.408,,,350,,,,,,,,,,,wg-a,,,,AAXX 24034 07690 12462 /3504 10160 20130 30175 40206 56009 60006 86500 90300=
07690,1996-05-24 06:00:00,16,1021.2,0.6,82,13,12000,11.112,,,330,15.4,18.7,,,,,,,,,wg-a,,,,AAXX 24064 07690 02462 /3306 10160 20130 30181 40212 52006 60006 84800 90600 333 10187 20154 60004=
07690,1996-05-24 09:00:00,19,1021.4,0.2,78,15,15000,11.112,,,120,,,,,,,,,,,wg-a,,,,AAXX 24094 07690 12465 /1206 10190 20150 30183 40214 52002 60006 81100 90900=
07690,1996-05-24 12:00:00,20,1021.1,-0.3,73,15,20000,7.408,,,150,,,,,,,,,,,wg-a,,,,AAXX 24124 07690 12570 /1504 10200 20150 30180 40211 58003 60006 81101 91200=
07690,1996-05-24 15:00:00,20,1020.1,-1,73,15,20000,7.408,,,150,,,,,,,,,,,wg-a,,,,AAXX 24154 07690 12570 21504 10200 20150 30170 40201 56010 60006 82201 91500=
07690,1996-05-24 18:00:00,18,1019.1,-1,83,15,500,3.704,,,180,16.1,20.2,,,,,,,,,wg-a,,,,AAXX 24184 07690 12500 /1802 10180 20150 30160 40191 56010 60006 81230 91800 333 10202 20161=
07690,1996-05-24 21:00:00,16,1019.3,0.2,94,15,20000,7.408,,,240,,,,,,,,,,,wg-a,,,,AAXX 24214 07690 12/70 02404 10160 20150 30162 40193 53002 60006 80000 92100=
07690,1996-05-25 00:00:00,15,1018.6,-0.7,88,13,20000,7.408,,,330,,,,,,,,,,,wg-a,,,,AAXX 25004 07690 12/70 03304 10150 20130 30155 40186 58007 60006 80000 90000=
07690,1996-05-25 03:00:00,14,1017.6,-1,88,12,20000,14.816,,,330,,,,,,,,,,,wg-a,,,,AAXX 25034 07690 12/70 03308 10140 20120 30145 40176 58010 60006 80000 90300=
07690,1996-05-25 06:00:00,15,1017.7,0.1,82,12,20000,11.112,,,320,13.4,18.1,,,,,,,,,wg-a,,,,AAXX 25064 07690 02/70 13206 10150 20120 30146 40177 52001 60006 81031 90600 333 10181 20134 60004=
07690,1996-05-25 09:00:00,19,1017.7,-0,83,16,20000,14.816,,,170,,,,,,,,,,,wg-a,,,,AAXX 25094 07690 12470 31708 10190 20160 30146 40177 54000 60006 82501 90900=
07690,1996-05-25 12:00:00,21,1017.5,-0.1,64,14,25000,14.816,,,100,,,,,,,,,,,wg-a,,,,AAXX 25124 07690 12575 /1008 10210 20140 30145 40175 58001 60006 81242 91200=
07690,1996-05-25 15:00:00,19,1016.6,-1,83,16,500,22.224,,,230,,,,,,,,,,,wg-a,,,,AAXX 25154 07690 12500 72312 10190 20160 30135 40166 56010 60006 81212 91500=
07690,1996-05-25 18:00:00,19,1015.5,-1.1,83,16,15000,18.52,,,220,15.3,21.9,,,,,,,,,wg-a,,,,AAXX 25184 07690 12465 72210 10190 20160 30124 40155 56011 60006 81582 91800 333 10219 20153=
07690,1996-05-25 21:00:00,18,1015,-0.5,88,16,15000,7.408,,,320,,,,,,,,,,,wg-a,,,,AAXX 25214 07690 12/65 03204 10180 20160 30119 40150 56005 60006 80000 92100=
07690,1996-05-26 00:00:00,16,1013.4,-1.6,94,15,15000,11.112,,,310,,,,,,,,,,,wg-a,,,,AAXX 26004 07690 12/65 33106 10160 20150 30103 40134 58016 60006 81031 90000=
07690,1996-05-26 06:00:00,19,1013.5,1.6,88,17,15000,14.816,,,90,15.8,18.7,,,,,,,,,wg-a,,,,AAXX 26064 07690 02/65 50908 10190 20170 30104 40135 53016 60006 85070 90600 333 10187 20158 60004=
07690,1996-05-26 09:00:00,18,1014.9,1.4,88,16,15000,7.408,,,220,,,,,,,,,,,wg-a,,,,AAXX 26094 07690 12465 72204 10180 20160 30118 40149 51014 60006 81512 90900=
07690,1996-05-26 12:00:00,22,1015.4,0.6,69,16,12000,11.112,,,130,,,,,,,,,,,wg-a,,,,AAXX 26124 07690 12462 31306 10220 20160 30124 40154 51006 60006 8350/ 91200=
07690,1996-05-26 15:00:00,21,1015.5,0.1,83,18,12000,14.816,,,130,,,,,,,,,,,wg-a,,,,AAXX 26154 07690 12462 21308 10210 20180 30125 40155 53001 60006 82500 91500=
07690,1996-05-26 18:00:00,20,1015.8,0.2,83,17,12000,11.112,,,110,18.2,22,,,,,,,,,wg-a,,,,AAXX 26184 07690 12462 61106 10200 20170 30127 40158 52002 60006 82504 91800 333 10220 20182=
07690,1996-05-26 21:00:00,17,1016.3,0.5,94,16,12000,3.704,,,260,,,,,,,,,,,wg-a,,,,AAXX 26214 07690 12462 /2602 10170 20160 30132 40163 53005 60006 83502 92100=
07690,1996-05-27 00:00:00,17,1015.4,-0.9,94,16,12000,7.408,,,320,,,,,,,,,,,wg-a,,,,AAXX 27004 07690 12462 53204 10170 20160 30123 40154 58009 60006 82572 90000=
07690,1996-05-27 03:00:00,15,1014.3,-1.1,100,15,10000,11.112,,,330,,,,0,,,,,,,wg-a,,,,AAXX 27034 07690 12460 53306 10150 20150 30112 40143 57011 60007 81532 90300=
07690,1996-05-27 06:00:00,16,1013.2,-1.1,94,15,9000,11.112,,,340,14.8,19.5,,,,,,,,,wg-a,,,,AAXX 27064 07690 12459 73406 10160 20150 30101 40132 58011 60004 82572 90600 333 10195 20148=
07690,1996-05-27 09:00:00,20,1010.5,-2.6,73,15,12000,11.112,,,110,,,,,,,,,,,wg-a,,,,AAXX 27094 07690 12462 71106 10200 20150 30075 40105 58026 60006 81532 90900=
07690,1996-05-27 12:00:00,21,1007.2,-3.3,73,16,15000,25.928,,,80,,,,,,,,,,,wg-a,,,,AAXX 27124 07690 12565 /0814 10210 20160 30042 40072 58033 60006 81102 91200=
07690,1996-05-27 15:00:00,21,1006.2,-1,78,17,25000,22.224,,,110,,,,,,,,,,,wg-a,,,,AAXX 27154 07690 12575 /1112 10210 20170 30032 40062 56010 60006 81202 91500=
07690,1996-05-27 18:00:00,20,1006,-0.2,88,18,500,22.224,,,100,16,23.4,,,,,,,,,wg-a,,,,AAXX 27184 07690 12500 /1012 10200 20180 30030 40060 56002 60006 81202 91800 333 10234 20160=
07690,1996-05-27 21:00:00,19,1008.5,2.5,88,17,20000,22.224,,,100,,,,,,,,,,,wg-a,,,,AAXX 27214 07690 12/70 01012 10190 20170 30055 40085 53025 60006 80000 92100=
07690,1996-05-28 00:00:00,18,1010.9,2.3,94,17,20000,0,,,0,,,,,,,,,,,wg-a,,,,AAXX 28004 07690 12370 40000 10180 20170 30078 40109 51023 60006 84500 90000=
07690,1996-05-28 03:00:00,15,1011,0.1,88,13,20000,14.816,,,330,,,,,,,,,,,wg-a,,,,AAXX 28034 07690 12/70 13308 10150 20130 30079 40110 53001 60006 80002 90300=
07690,1996-05-28 06:00:00,18,1011.1,0.1,49,7,40000,18.52,,,330,13.6,19.8,,,,,,,,,wg-a,,,,AAXX 28064 07690 02/82 13310 10180 20070 30080 40111 53001 60006 80002 90600 333 10198 20136 60004=
07690,1996-05-28 09:00:00,21,1012,1,69,15,50000,11.112,,,110,,,,,,,,,,,wg-a,,,,AAXX 28094 07690 12/84 51106 10210 20150 30090 40120 51010 60006 80002 90900=
07690,1996-05-28 12:00:00,23,1011.9,-0.1,53,13,50000,11.112,,,180,,,,,,,,,,,wg-a,,,,AAXX 28124 07690 12584 31806 10230 20130 30089 40119 58001 60006 81502 91200=
07690,1996-05-28 15:00:00,23,1011.8,-0.1,57,14,50000,14.816,,,90,,,,,,,,,,,wg-a,,,,AAXX 28154 07690 12584 40908 10230 20140 30088 40118 56001 60006 81501 91500=
07690,1996-05-28 18:00:00,24,1012.6,0.8,36,8,50000,11.112,,,70,17.5,23.7,,,,,,,,,wg-a,,,,AAXX 28184 07690 12/84 50706 10240 20080 30096 40126 53008 60006 80001 91800 333 10237 20175=
07690,1996-05-28 21:00:00,19,1014.9,2.2,56,10,20000,3.704,,,110,,,,,,,,,,,wg-a,,,,AAXX 28214 07690 12/70 31102 10190 20100 30118 40149 53022 60006 80001 92100=
07690,1996-05-29 00:00:00,17,1015.9,1,59,9,0,14.816,,,340,,,,,,,,,,,wg-a,,,,AAXX 29004 07690 12/// /3408 10170 20090 30128 40159 51010 60006 90000=
07690,1996-05-29 03:00:00,16,1016,0.1,63,9,20000,22.224,,,340,,,,,,,,,,,wg-a,,,,AAXX 29034 07690 12/70 03412 10160 20090 30129 40160 53001 60006 80000 90300=
07690,1996-05-29 06:00:00,17,1017.5,1.5,63,10,50000,18.52,,,340,15.9,23.5,,,,,,,,,wg-a,,,,AAXX 29064 07690 02/84 13410 10170 20100 30144 40175 52015 60006 80001 90600 333 10235 20159 60004=
07690,1996-05-29 09:00:00,22,1019,1.6,53,12,50000,22.224,,,100,,,,,,,,,,,wg-a,,,,AAXX 29094 07690 12/84 11012 10220 20120 30160 40190 52016 60006 80001 90900=
07690,1996-05-29 12:00:00,22,1019.4,0.4,57,13,50000,18.52,,,110,,,,,,,,,,,wg-a,,,,AAXX 29124 07690 12/84 11110 10220 20130 30164 40194 53004 60006 80001 91200=
07690,1996-05-29 15:00:00,21,1018.7,-0.8,64,14,50000,7.408,,,160,,,,,,,,,,,wg-a,,,,AAXX 29154 07690 12/84 11604 10210 20140 30156 40187 58008 60006 80002 91500=
07690,1996-05-29 18:00:00,21,1019.3,0.6,53,11,50000,7.408,,,150,17.2,22.7,,,,,,,,,wg-a,,,,AAXX 29184 07690 12/84 11504 10210 20110 30162 40193 53006 60006 80001 91800 333 10227 20172=
07690,1996-05-29 21:00:00,17,1020.5,1.2,59,9,20000,14.816,,,330,,,,,,,,,,,wg-a,,,,AAXX 29214 07690 12/70 03308 10170 20090 30174 40205 53012 60006 80000 92100=
07690,1996-05-30 00:00:00,17,1020.7,0.2,55,8,20000,14.816,,,350,,,,,,,,,,,wg-a,,,,AAXX 30004 07690 12/70 03508 10170 20080 30176 40207 50002 60006 80000 90000=
07690,1996-05-30 03:00:00,15,1020.9,0.2,72,10,20000,3.704,,,340,,,,,,,,,,,wg-a,,,,AAXX 30034 07690 12/70 03402 10150 20100 30178 40209 51002 60006 80000 90300=
07690,1996-05-30 06:00:00,18,1021.4,0.5,59,10,20000,14.816,,,340,15.1,21.2,,,,,,,,,wg-a,,,,AAXX 30064 07690 02/70 13408 10180 20100 30183 40214 51005 60006 80001 90600 333 10212 20151 60004=
07690,1996-05-30 09:00:00,23,1022.2,0.9,47,11,20000,11.112,,,140,,,,,,,,,,,wg-a,,,,AAXX 30094 07690 12/70 11406 10230 20110 30192 40222 51009 60006 80001 90900=
07690,1996-05-30 12:00:00,22,1022.1,-0.1,60,14,500,11.112,,,170,,,,,,,,,,,wg-a,,,,AAXX 30124 07690 12/00 11706 10220 20140 30191 40221 58001 60006 80001 91200=
07690,1996-05-30 15:00:00,23,1021.3,-0.8,53,13,500,14.816,,,170,,,,,,,,,,,wg-a,,,,AAXX 30154 07690 12/00 11708 10230 20130 30183 40213 58008 60006 80001 91500=
07690,1996-05-30 18:00:00,21,1021.6,0.2,60,13,500,11.112,,,190,17.6,23.4,,,,,,,,,wg-a,,,,AAXX 30184 07690 12/00 11906 10210 20130 30185 40216 53002 60006 80001 91800 333 10234 20176=
07690,1996-05-30 21:00:00,18,1022.3,0.7,73,13,20000,11.112,,,320,,,,,,,,,,,wg-a,,,,AAXX 30214 07690 12/70 03206 10180 20130 30192 40223 51007 60006 80000 92100=
07690,1996-05-31 00:00:00,17,1022.1,-0.2,68,11,20000,14.816,,,340,,,,,,,,,,,wg-a,,,,AAXX 31004 07690 12/70 03408 10170 20110 30190 40221 58002 60006 80000 90000=
07690,1996-05-31 03:00:00,18,1021.6,-0.5,59,10,10000,7.408,,,350,,,,,,,,,,,wg-a,,,,AAXX 31034 07690 12/60 /3504 10180 20100 30185 40216 56005 60006 90300=
07690,1996-05-31 06:00:00,18,1022.5,0.9,68,12,25000,7.408,,,340,16,21,,,,,,,,,wg-a,,,,AAXX 31064 07690 02/75 13404 10180 20120 30194 40225 51009 60006 80001 90600 333 10210 20160 60004=
07690,1996-05-31 09:00:00,22,1022.7,0.2,69,16,25000,14.816,,,110,,,,,,,,,,,wg-a,,,,AAXX 31094 07690 12/75 11108 10220 20160 30196 40227 50002 60006 80001 90900=
07690,1996-05-31 12:00:00,23,1022.5,-0.1,65,16,25000,11.112,,,170,,,,,,,,,,,wg-a,,,,AAXX 31124 07690 12/75 11706 10230 20160 30195 40225 58001 60006 80001 91200=
07690,1996-05-31 15:00:00,22,1022.3,-0.2,78,18,25000,11.112,,,160,,,,,,,,,,,wg-a,,,,AAXX 31154 07690 12/75 11606 10220 20180 30193 40223 57002 60006 80001 91500=
07690,1996-05-31 18:00:00,20,1021.8,-0.6,83,17,25000,7.408,,,170,18.2,22.7,,,,,,,,,wg-a,,,,AAXX 31184 07690 12/75 11704 10200 20170 30187 40218 55006 60006 80001 91800 333 10227 20182=
07690,1996-05-31 21:00:00,18,1022.2,0.4,94,17,20000,3.704,,,220,,,,,,,,,,,wg-a,,,,AAXX 31214 07690 12/70 22202 10180 20170 30191 40222 53004 60006 80001 92100=
07690,1996-06-01 00:00:00,16,1022,-0.2,94,15,15000,11.112,,,320,,,,,,,,,,,wg-a,,,,AAXX 01004 07690 12/65 13206 10160 20150 30189 40220 58002 60006 80001 90000=
07690,1996-06-01 03:00:00,15,1020.9,-1.1,88,13,15000,14.816,,,330,,,,,,,,,,,wg-a,,,,AAXX 01034 07690 12465 43308 10150 20130 30178 40209 56011 60006 82502 90300=
07690,1996-06-01 06:00:00,16,1020.7,-0.2,82,13,15000,11.112,,,330,14.4,20.3,,,,,,,,,wg-a,,,,AAXX 01064 07690 02365 33306 10160 20130 30176 40207 58002 60006 81602 90600 333 10203 20144 60004=
07690,1996-06-01 09:00:00,21,1021.1,0.4,78,17,20000,14.816,,,120,,,,,,,,,,,wg-a,,,,AAXX 01094 07690 12470 41208 10210 20170 30180 40211 53004 60006 84200 90900=
07690,1996-06-01 12:00:00,21,1020.4,-0.6,73,16,15000,14.816,,,130,,,,,,,,,,,wg-a,,,,AAXX 01124 07690 12565 21308 10210 20160 30174 40204 58006 60006 82500 91200=
07690,1996-06-01 15:00:00,21,1019.6,-0.9,73,16,15000,11.112,,,140,,,,,,,,,,,wg-a,,,,AAXX 01154 07690 12665 31406 10210 20160 30165 40196 58009 60006 81502 91500=
07690,1996-06-01 18:00:00,20,1019,-0.6,78,16,15000,3.704,,,160,16.4,21.5,,,,,,,,,wg-a,,,,AAXX 01184 07690 12665 /1602 10200 20160 30159 40190 58006 60006 81502 91800 333 10215 20164=
07690,1996-06-01 21:00:00,18,1019.1,0.1,88,16,12000,7.408,,,230,,,,,,,,,,,wg-a,,,,AAXX 01214 07690 12462 42304 10180 20160 30160 40191 53001 60006 83502 92100=
07690,1996-06-02 00:00:00,17,1017.1,-2,88,15,12000,7.408,,,50,,,,,,,,,,,wg-a,,,,AAXX 02004 07690 12462 /0504 10170 20150 30140 40171 58020 60006 85500 90000=
07690,1996-06-02 03:00:00,16,1016.3,-0.8,94,15,12000,11.112,,,340,,,,,,,,,,,wg-a,,,,AAXX 02034 07690 12562 /3406 10160 20150 30132 40163 56008 60006 81530 90300=
07690,1996-06-02 06:00:00,17,1015.8,-0.5,88,15,10000,7.408,,,340,16,20,,,,,,,,,wg-a,,,,AAXX 02064 07690 02560 73404 10170 20150 30127 40158 58005 60006 8353/ 90600 333 10200 20160 60004=
07690,1996-06-02 09:00:00,21,1015.5,-0.2,69,15,15000,11.112,,,120,,,,,,,,,,,wg-a,,,,AAXX 02094 07690 12565 61206 10210 20150 30125 40155 57002 60006 82881 90900=
07690,1996-06-02 12:00:00,21,1015.1,-0.4,73,16,15000,11.112,,,120,,,,,,,,,,,wg-a,,,,AAXX 02124 07690 12465 71206 10210 20160 30121 40151 56004 60006 83882 91200=
07690,1996-06-02 15:00:00,22,1014,-1.1,73,17,20000,11.112,,,110,,,,,,,,,,,wg-a,,,,AAXX 02154 07690 12470 71106 10220 20170 30110 40140 56011 60006 82882 91500=
07690,1996-06-02 18:00:00,20,1013.4,-0.6,83,17,15000,7.408,,,120,16.9,21.8,,,,,,,,,wg-a,,,,AAXX 02184 07690 12465 71204 10200 20170 30104 40134 56006 60006 82572 91800 333 10218 20169=
07690,1996-06-02 21:00:00,20,1013.6,0.2,83,17,15000,7.408,,,130,,,,,,,,,,,wg-a,,,,AAXX 02214 07690 12465 81304 10200 20170 30106 40136 53002 60006 8387/ 92100=
07690,1996-06-03 00:00:00,17,1012.8,-0.9,77,13,15000,14.816,,,340,,,,0,,,,,,2,wg-a,,,,AAXX 03004 07690 02465 83408 10170 20130 30097 40128 58009 60006 70262 8387/ 90000 333 60007=
07690,1996-06-03 03:00:00,18,1012.1,-0.7,64,11,15000,11.112,,,330,,,,,,,,,,,wg-a,,,,AAXX 03034 07690 12565 83306 10180 20110 30090 40121 56007 60006 8357/ 90300=
07690,1996-06-03 06:00:00,20,1013.7,1.7,73,15,15000,29.632,,,80,17,20.5,,,,,,,,21,wg-a,,,,AAXX 03064 07690 02665 80816 10200 20150 30107 40137 53017 60004 72162 8357/ 90600 333 10205 20170 61000=
07690,1996-06-03 12:00:00,20,1015.7,1,78,16,10000,14.816,,,80,,,,1,,,,,,2,wg-a,,,,AAXX 03124 07690 02660 70808 10200 20160 30127 40157 53010 60026 70262 8557/ 91200 333 60017=
07690,1996-06-03 15:00:00,20,1016,0.2,78,16,12000,25.928,,53.708,80,,,,1,,,,,,2,wg-a,,,,AAXX 03154 07690 12562 70814 10200 20160 30129 40160 51002 60017 70262 8487/ 91500 333 91029=
07690,1996-06-03 18:00:00,18,1017.4,1.4,88,16,6000,18.52,,,50,16,20.1,,5,,,,,,60,wg-a,,,,AAXX 03184 07690 12556 80510 10180 20160 30143 40174 53014 60057 76062 8487/ 91800 333 10201 20160=
07690,1996-06-03 21:00:00,17,1017.5,0.1,94,16,12000,22.224,,,340,,,,,,,,,,21,wg-a,,,,AAXX 03214 07690 32662 83412 10170 20160 30144 40175 50001 72162 8387/ 92100=
07690,1996-06-04 00:00:00,18,1017.3,-0.3,88,16,15000,22.224,,,340,,,,,,,,,,2,wg-a,,,,AAXX 04004 07690 32665 /3412 10180 20160 30141 40173 58003 70262 8357/ 90000=
07690,1996-06-04 03:00:00,18,1018.4,1.2,83,15,15000,14.816,,,330,,,,0,,,,,,60,wg-a,,,,AAXX 04034 07690 12765 83308 10180 20150 30153 40184 53012 60007 76062 8357/ 90300=
07690,1996-06-04 06:00:00,19,1019,0.6,78,15,35000,22.224,,,340,16.7,20.1,,,,,8,,,3,wg-a,,,,AAXX 04064 07690 02581 73412 10190 20150 30159 40190 51006 60084 70362 8117/ 90600 333 10201 20167 61000=
07690,1996-06-04 09:00:00,25,1018.7,-0.2,54,15,35000,7.408,,,110,,,,,,,,,,,wg-a,,,,AAXX 04094 07690 12581 /1104 10250 20150 30157 40187 58002 60006 8117/ 90900=
07690,1996-06-04 12:00:00,23,1018.9,0.2,73,18,35000,18.52,,,190,,,,,,,,,,,wg-a,,,,AAXX 04124 07690 12681 /1910 10230 20180 30159 40189 53002 60006 8113/ 91200=
07690,1996-06-04 15:00:00,23,1019.3,0.4,65,16,35000,14.816,,,220,,,,,,,,,,,wg-a,,,,AAXX 04154 07690 12681 32208 10230 20160 30163 40193 50004 60006 81130 91500=
07690,1996-06-04 18:00:00,23,1019.9,0.6,61,15,35000,3.704,,,220,18.8,25.3,,,,,,,,,wg-a,,,,AAXX 04184 07690 12681 22202 10230 20150 30169 40199 53006 60006 81131 91800 333 10253 20188=
07690,1996-06-04 21:00:00,20,1021.4,1.4,78,16,20000,3.704,,,350,,,,,,,,,,,wg-a,,,,AAXX 04214 07690 12/70 03502 10200 20160 30183 40214 53014 60006 80000 92100=
07690,1996-06-05 00:00:00,17,1021.5,0.1,88,15,20000,18.52,,,330,,,,,,,,,,,wg-a,,,,AAXX 05004 07690 12/70 03310 10170 20150 30184 40215 50001 60006 80000 90000=
07690,1996-06-05 03:00:00,18,1020.7,-0.8,77,14,20000,22.224,,,340,,,,,,,,,,,wg-a,,,,AAXX 05034 07690 12670 13412 10180 20140 30176 40207 56008 60006 81500 90300=
07690,1996-06-05 06:00:00,20,1020.4,-0.3,64,13,40000,18.52,,,330,16.6,23.5,,,,,,,,,wg-a,,,,AAXX 05064 07690 02/82 13310 10200 20130 30173 40204 58003 60006 81040 90600 333 10235 20166 60004=
07690,1996-06-05 09:00:00,27,1020.8,0.5,34,10,500,7.408,,,80,,,,,,,,,,,wg-a,,,,AAXX 05094 07690 12/00 60804 10270 20100 30178 40208 51005 60006 85032 90900=
07690,1996-06-05 12:00:00,24,1020.6,-0.2,74,19,25000,14.816,,,210,,,,,,,,,,,wg-a,,,,AAXX 05124 07690 12775 22108 10240 20190 30176 40206 55002 60006 81230 91200=
07690,1996-06-05 15:00:00,28,1020.4,-0.2,48,16,20000,18.52,,38.892,100,,,,,,,,,,,wg-a,,,,AAXX 05154 07690 12770 /1010 10280 20160 30174 40204 56002 60006 81280 91500 333 91021=
07690,1996-06-05 18:00:00,25,1020.7,-0,54,15,20000,0,,,0,20.2,28.5,,,,,,,,,wg-a,,,,AAXX 05184 07690 12770 20000 10250 20150 30177 40207 54000 60006 81480 91800 333 10285 20202=
07690,1996-06-05 21:00:00,22,1021.5,0.8,73,17,15000,7.408,,,330,,,,,,,,,,,wg-a,,,,AAXX 05214 07690 12765 /3304 10220 20170 30185 40215 50008 60006 81500 92100=
07690,1996-06-06 00:00:00,21,1021.3,-0.3,73,16,15000,14.816,,,340,,,,,,,,,,,wg-a,,,,AAXX 06004 07690 12/65 03408 10210 20160 30182 40213 58003 60006 80000 90000=
07690,1996-06-06 03:00:00,19,1021.1,-0.2,78,15,15000,22.224,,,340,,,,,,,,,,,wg-a,,,,AAXX 06034 07690 12/65 03412 10190 20150 30180 40211 55002 60006 80000 90300=
07690,1996-06-06 06:00:00,21,1021.4,0.3,64,14,15000,22.224,,,330,19.1,25,,,,,,,,,wg-a,,,,AAXX 06064 07690 02/65 13312 10210 20140 30183 40214 51003 60006 80002 90600 333 10250 20191 60004=
07690,1996-06-06 09:00:00,27,1022,0.7,48,15,15000,7.408,,,110,,,,0,,,,,,,wg-a,,,,AAXX 06094 07690 12/65 01104 10270 20150 30190 40220 51007 60007 80000 90900=
07690,1996-06-06 12:00:00,26,1022,0,54,16,15000,7.408,,,90,,,,,,,,,,,wg-a,,,,AAXX 06124 07690 12665 10904 10260 20160 30190 40220 50000 60006 81100 91200=
07690,1996-06-06 15:00:00,27,1021.2,-0.8,48,15,15000,3.704,,,120,,,,,,,,,,,wg-a,,,,AAXX 06154 07690 12665 /1202 10270 20150 30182 40212 57008 60006 81200 91500=
07690,1996-06-06 18:00:00,25,1021.2,-0,57,16,20000,11.112,,,190,20.4,28.2,,,,,,,,,wg-a,,,,AAXX 06184 07690 12670 /1906 10250 20160 30182 40212 55000 60006 81500 91800 333 10282 20204=
07690,1996-06-06 21:00:00,22,1021.6,0.4,69,16,20000,14.816,,,330,,,,,,,,,,,wg-a,,,,AAXX 06214 07690 12/70 13308 10220 20160 30186 40216 50004 60006 81030 92100=
07690,1996-06-07 00:00:00,22,1020.9,-0.7,69,16,20000,14.816,,,340,,,,,,,,,,,wg-a,,,,AAXX 07004 07690 12/70 03408 10220 20160 30179 40209 56007 60006 80000 90000=
07690,1996-06-07 03:00:00,21,1021.2,0.2,73,16,20000,11.112,,,340,,,,,,,,,,,wg-a,,,,AAXX 07034 07690 12/70 03406 10210 20160 30181 40212 51002 60006 80000 90300=
07690,1996-06-07 06:00:00,23,1022.2,1.1,69,17,20000,7.408,,,90,20.3,25.2,,,,,,,,,wg-a,,,,AAXX 07064 07690 02/70 10904 10230 20170 30192 40222 51011 60006 81030 90600 333 10252 20203 60004=
07690,1996-06-07 09:00:00,24,1022.6,0.4,69,18,9000,7.408,,,130,,,,,,,,,,,wg-a,,,,AAXX 07094 07690 12/59 01304 10240 20180 30196 40226 51004 60006 80000 90900=
07690,1996-06-07 12:00:00,26,1022.4,-0.2,54,16,10000,11.112,,,130,,,,,,,,,,,wg-a,,,,AAXX 07124 07690 12560 /1306 10260 20160 30194 40224 58002 60006 81200 91200=
07690,1996-06-07 15:00:00,25,1021.8,-0.6,69,19,8000,11.112,,,170,,,,,,,,,,,wg-a,,,,AAXX 07154 07690 12658 21706 10250 20190 30188 40218 56006 60006 81301 91500=
07690,1996-06-07 18:00:00,23,1021.2,-0.6,78,19,10000,11.112,,,200,22.8,26.6,,,,,,,,,wg-a,,,,AAXX 07184 07690 12660 /2006 10230 20190 30182 40212 56006 60006 81280 91800 333 10266 20228=
07690,1996-06-07 21:00:00,20,1022.2,0.9,88,18,12000,3.704,,,250,,,,,,,,,,,wg-a,,,,AAXX 07214 07690 12762 /2502 10200 20180 30191 40222 53009 60006 81501 92100=
07690,1996-06-08 00:00:00,19,1021.8,-0.4,88,17,12000,7.408,,,340,,,,,,,,,,,wg-a,,,,AAXX 08004 07690 12762 /3404 10190 20170 30187 40218 58004 60006 81501 90000=
07690,1996-06-08 03:00:00,19,1021.9,0.1,83,16,12000,3.704,,,350,,,,,,,,,,,wg-a,,,,AAXX 08034 07690 12/62 03502 10190 20160 30188 40219 53001 60006 80000 90300=
07690,1996-06-08 06:00:00,21,1022.1,0.2,73,16,10000,18.52,,,330,18,22.9,,,,,,,,,wg-a,,,,AAXX 08064 07690 02/60 03310 10210 20160 30190 40221 50002 60006 80000 90600 333 10229 20180 60004=
07690,1996-06-08 09:00:00,22,1022.4,0.4,88,20,7000,18.52,,,200,,,,,,,,,,,wg-a,,,,AAXX 08094 07690 12557 /2010 10220 20200 30194 40224 51004 60006 81101 90900=
07690,1996-06-08 12:00:00,25,1022,-0.4,65,18,9000,11.112,,,120,,,,,,,,,,,wg-a,,,,AAXX 08124 07690 12659 /1206 10250 20180 30190 40220 58004 60006 81200 91200=
07690,1996-06-08 15:00:00,24,1021.4,-0.6,78,20,6000,11.112,,,120,,,,,,,,,,,wg-a,,,,AAXX 08154 07690 12656 /1206 10240 20200 30184 40214 56006 60006 81902 91500=
07690,1996-06-08 18:00:00,23,1020.9,-0.5,83,20,8000,7.408,,,160,20.6,25,,,,,,,,,wg-a,,,,AAXX 08184 07690 12758 21604 10230 20200 30179 40209 58005 60006 81902 91800 333 10250 20206=
07690,1996-06-08 21:00:00,21,1021.3,0.3,88,19,10000,0,,,0,,,,,,,,,,,wg-a,,,,AAXX 08214 07690 12/60 20000 10210 20190 30182 40213 53003 60006 80003 92100=
07690,1996-06-09 00:00:00,21,1020.6,-0.7,73,16,12000,14.816,,,340,,,,,,,,,,,wg-a,,,,AAXX 09004 07690 12/62 03408 10210 20160 30175 40206 57007 60006 80000 90000=
07690,1996-06-09 03:00:00,20,1020.3,-0.3,78,16,12000,7.408,,,350,,,,,,,,,,,wg-a,,,,AAXX 09034 07690 12/62 03504 10200 20160 30172 40203 56003 60006 80000 90300=
07690,1996-06-09 06:00:00,22,1020.8,0.6,83,19,10000,7.408,,,50,19.4,22.9,,,,,,,,,wg-a,,,,AAXX 09064 07690 02/60 00504 10220 20190 30178 40208 53006 60006 80000 90600 333 10229 20194 60004=
07690,1996-06-09 09:00:00,24,1021,0.2,78,20,7000,11.112,,,150,,,,,,,,,,,wg-a,,,,AAXX 09094 07690 12557 /1506 10240 20200 30180 40210 52002 60006 81200 90900=
07690,1996-06-09 12:00:00,25,1020.7,-0.3,79,21,500,11.112,,,150,,,,,,,,,,,wg-a,,,,AAXX 09124 07690 12500 /1506 10250 20210 30177 40207 58003 60006 81300 91200=
07690,1996-06-09 15:00:00,25,1020,-0.7,74,20,10000,11.112,,,150,,,,,,,,,,,wg-a,,,,AAXX 09154 07690 12660 /1506 10250 20200 30170 40200 58007 60006 81900 91500=
07690,1996-06-09 18:00:00,24,1019.6,-0.4,78,20,9000,3.704,,,150,22.1,25.4,,,,,,,,,wg-a,,,,AAXX 09184 07690 12659 /1502 10240 20200 30166 40196 55004 60006 81900 91800 333 10254 20221=
07690,1996-06-09 21:00:00,23,1020.2,0.6,83,20,10000,3.704,,,50,,,,,,,,,,,wg-a,,,,AAXX 09214 07690 12660 20502 10230 20200 30172 40202 53006 60006 81502 92100=
07690,1996-06-10 00:00:00,21,1019.8,-0.4,73,16,10000,11.112,,,360,,,,,,,,,,,wg-a,,,,AAXX 10004 07690 12660 /3606 10210 20160 30168 40198 57004 60006 81500 90000=
07690,1996-06-10 03:00:00,20,1020.3,0.4,78,16,10000,7.408,,,340,,,,,,,,,,,wg-a,,,,AAXX 10034 07690 12/60 03404 10200 20160 30172 40203 53004 60006 80000 90300=
07690,1996-06-10 06:00:00,22,1020.8,0.6,65,15,11000,7.408,,,60,19.5,23.9,,,,,,,,,wg-a,,,,AAXX 10064 07690 02/61 00604 10220 20150 30178 40208 53006 60006 80000 90600 333 10239 20195 60004=
07690,1996-06-10 09:00:00,24,1021.3,0.5,74,19,11000,11.112,,,120,,,,,,,,,,,wg-a,,,,AAXX 10094 07690 12/61 01206 10240 20190 30183 40213 52005 60006 80000 90900=
07690,1996-06-10 12:00:00,25,1021.2,-0.1,61,17,10000,11.112,,,140,,,,,,,,,,,wg-a,,,,AAXX 10124 07690 12560 /1406 10250 20170 30182 40212 58001 60006 81200 91200=
07690,1996-06-10 15:00:00,25,1020.6,-0.6,79,21,10000,7.408,,,170,,,,,,,,,,,wg-a,,,,AAXX 10154 07690 12660 /1704 10250 20210 30176 40206 58006 60006 81203 91500=
07690,1996-06-10 18:00:00,24,1020,-0.6,78,20,20000,7.408,,,200,22.5,25.4,,,,,,,,,wg-a,,,,AAXX 10184 07690 12/70 32004 10240 20200 30170 40200 56006 60006 80002 91800 333 10254 20225=
07690,1996-06-10 21:00:00,20,1021.5,1.4,88,18,10000,7.408,,,310,,,,,,,,,,,wg-a,,,,AAXX 10214 07690 12/60 03104 10200 20180 30184 40215 53014 60006 80000 92100=
07690,1996-06-11 00:00:00,21,1021.2,-0.3,64,14,10000,18.52,,,330,,,,,,,,,,,wg-a,,,,AAXX 11004 07690 12/60 03310 10210 20140 30181 40212 58003 60006 80000 90000=
07690,1996-06-11 03:00:00,21,1021,-0.2,60,13,12000,11.112,,,340,,,,,,,,,,,wg-a,,,,AAXX 11034 07690 12/62 13406 10210 20130 30179 40210 56002 60006 81030 90300=
07690,1996-06-11 06:00:00,23,1021.4,,57,14,25000,14.816,,,350,,,,,,,,,,,wg-a,,,,AAXX 11064 07690 12/75 13508 10230 20140 30182 40214 60006 90600=
07690,1996-06-11 09:00:00,26,1022.7,0.8,54,16,20000,7.408,,,130,,,,,,,,,,,wg-a,,,,AAXX 11094 07690 12670 /1304 10260 20160 30197 40227 51008 60006 81101 90900=
07690,1996-06-11 12:00:00,27,1022.7,0,54,17,18000,11.112,,,120,,,,,,,,,,,wg-a,,,,AAXX 11124 07690 12668 /1206 10270 20170 30197 40227 50000 60006 81301 91200=
07690,1996-06-11 15:00:00,26,1022.2,-0.5,70,20,15000,11.112,,,180,,,,,,,,,,,wg-a,,,,AAXX 11154 07690 12665 /1806 10260 20200 30192 40222 56005 60006 81902 91500=
07690,1996-06-11 18:00:00,24,1021.2,-1,83,21,8000,7.408,,,180,22.8,28.2,,,,,,,,,wg-a,,,,AAXX 11184 07690 12658 31804 10240 20210 30182 40212 56010 60006 81902 91800 333 10282 20228=
07690,1996-06-11 21:00:00,22,1022,0.8,78,18,10000,11.112,,,340,,,,,,,,,,,wg-a,,,,AAXX 11214 07690 12/60 23406 10220 20180 30190 40220 51008 60006 80002 92100=
07690,1996-06-12 00:00:00,23,1021.8,-0.2,57,14,10000,14.816,,,340,,,,,,,,,,,wg-a,,,,AAXX 12004 07690 12/60 23408 10230 20140 30188 40218 56002 60006 80002 90000=
07690,1996-06-12 03:00:00,22,1021.7,-0.2,57,13,10000,14.816,,,340,,,,,,,,,,,wg-a,,,,AAXX 12034 07690 12/60 03408 10220 20130 30186 40217 57002 60006 80000 90300=
07690,1996-06-12 06:00:00,22,1022.3,0.7,60,14,500,7.408,,,340,21.2,24.2,,,,,,,,,wg-a,,,,AAXX 12064 07690 02/00 03404 10220 20140 30193 40223 51007 60006 80000 90600 333 10242 20212 60004=
07690,1996-06-12 09:00:00,24,1022.8,0.5,83,21,6000,11.112,,,110,,,,,,,,,,,wg-a,,,,AAXX 12094 07690 12/56 01106 10240 20210 30198 40228 51005 60006 80000 90900=
07690,1996-06-12 12:00:00,26,1022.4,-0.4,65,19,9000,11.112,,,140,,,,,,,,,,,wg-a,,,,AAXX 12124 07690 12759 /1406 10260 20190 30194 40224 58004 60006 81100 91200=
07690,1996-06-12 15:00:00,25,1021.2,-1.2,83,22,7000,7.408,,,180,,,,,,,,,,,wg-a,,,,AAXX 12154 07690 12757 /1804 10250 20220 30182 40212 58012 60006 81900 91500=
07690,1996-06-12 18:00:00,24,1020.1,-1.1,89,22,9000,7.408,,,190,22.1,27.3,,,,,,,,,wg-a,,,,AAXX 12184 07690 12759 21904 10240 20220 30171 40201 56011 60006 81903 91800 333 10273 20221=
07690,1996-06-12 21:00:00,21,1020.5,0.4,88,19,10000,11.112,,,310,,,,,,,,,,,wg-a,,,,AAXX 12214 07690 12/60 23106 10210 20190 30175 40205 53004 60006 80002 92100=
07690,1996-06-13 00:00:00,21,1020.5,-0.1,69,15,10000,7.408,,,330,,,,,,,,,,,wg-a,,,,AAXX 13004 07690 12/60 23304 10210 20150 30174 40205 58001 60006 80002 90000=
07690,1996-06-13 03:00:00,22,1019.2,-1.2,65,15,15000,11.112,,,340,,,,,,,,,,,wg-a,,,,AAXX 13034 07690 12/65 33406 10220 20150 30162 40192 58012 60006 81032 90300=
07690,1996-06-13 06:00:00,23,1019.1,-0.1,61,15,12000,7.408,,,340,20.5,24,,,,,,,,,wg-a,,,,AAXX 13064 07690 02/62 /3404 10230 20150 30161 40191 58001 60006 81030 90600 333 10240 20205 60004=
07690,1996-06-13 09:00:00,25,1019.2,0.1,74,20,9000,7.408,,,130,,,,,,,,,,,wg-a,,,,AAXX 13094 07690 12/59 01304 10250 20200 30162 40192 50001 60006 80000 90900=
07690,1996-06-13 12:00:00,26,1018.7,-0.5,79,22,500,14.816,,,170,,,,,,,,,,,wg-a,,,,AAXX 13124 07690 12400 /1708 10260 20220 30157 40187 58005 60006 81800 91200=
07690,1996-06-13 15:00:00,25,1017.1,-1.6,83,22,4000,14.816,,,180,,,,,,,,,,10,wg-a,,,,AAXX 13154 07690 12440 /1808 10250 20220 30141 40171 57016 60006 71000 81900 91500=
07690,1996-06-13 18:00:00,23,1016.7,-0.4,89,21,3000,3.704,,,190,23.1,26.1,,,,,,,,10,wg-a,,,,AAXX 13184 07690 12430 71902 10230 20210 30137 40167 55004 60006 71011 81583 91800 333 10261 20231=
07690,1996-06-13 21:00:00,22,1016.6,-0.1,94,21,500,7.408,,,250,,,,,,,,,,,wg-a,,,,AAXX 13214 07690 12/00 /2504 10220 20210 30136 40166 56001 60006 80003 92100=
07690,1996-06-14 00:00:00,23,1016.9,0.3,94,22,3000,14.816,,,90,,,,,,,,,,,wg-a,,,,AAXX 14004 07690 12330 60908 10230 20220 30139 40169 51003 60006 84503 90000=
07690,1996-06-14 03:00:00,20,1016.6,-0.4,83,17,7000,11.112,,,320,,,,,,,,,,,wg-a,,,,AAXX 14034 07690 12457 23206 10200 20170 30135 40166 58004 60006 82500 90300=
07690,1996-06-14 06:00:00,20,1018.8,2.2,83,17,4000,11.112,,,50,19.2,23.9,,,,,,,,10,wg-a,,,,AAXX 14064 07690 02440 /0506 10200 20170 30157 40188 53022 60006 71011 85500 90600 333 10239 20192 60004=
07690,1996-06-14 09:00:00,25,1020.2,1.5,79,21,500,25.928,,,80,,,,,,,,,,,wg-a,,,,AAXX 14094 07690 12400 40814 10250 20210 30172 40202 53015 60006 84500 90900=
07690,1996-06-14 12:00:00,26,1019.2,-1,74,21,500,3.704,,,150,,,,,,,,,,,wg-a,,,,AAXX 14124 07690 12400 51502 10260 20210 30162 40192 58010 60006 82902 91200=
07690,1996-06-14 15:00:00,25,1019,-0,65,18,12000,7.408,,,170,,,,,,,,,,,wg-a,,,,AAXX 14154 07690 12662 71704 10250 20180 30160 40190 54000 60006 8397/ 91500=
07690,1996-06-14 18:00:00,23,1018.4,-0.6,73,18,15000,3.704,,,310,20.4,26.3,,,,,,,,,wg-a,,,,AAXX 14184 07690 12765 63102 10230 20180 30154 40184 55006 60006 82972 91800 333 10263 20204=
07690,1996-06-14 21:00:00,23,1019.2,0.8,61,15,10000,14.816,,,340,,,,,,,,,,,wg-a,,,,AAXX 14214 07690 32760 /3408 10230 20150 30162 40192 53008 81482 92100=
07690,1996-06-15 00:00:00,21,1019.2,0,64,14,15000,18.52,,,340,,,,,,,,,,,wg-a,,,,AAXX 15004 07690 32765 33410 10210 20140 30162 40192 50000 81502 90000=
07690,1996-06-15 03:00:00,20,1018.9,-0.4,68,14,15000,14.816,,,340,,,,,,,,,,,wg-a,,,,AAXX 15034 07690 12/65 03408 10200 20140 30158 40189 57004 60006 80000 90300=
07690,1996-06-15 06:00:00,20,1019.5,0.6,68,14,15000,18.52,,,330,,,,,,,,,,,wg-a,,,,AAXX 15064 07690 32765 23310 10200 20140 30164 40195 51006 81480 90600=
07690,1996-06-15 09:00:00,25,1019.8,0.4,54,15,18000,25.928,,,100,,,,,,,,,,,wg-a,,,,AAXX 15094 07690 12768 31014 10250 20150 30168 40198 50004 60006 81280 90900=
07690,1996-06-15 12:00:00,25,1019.9,0.1,54,15,20000,14.816,,,110,,,,,,,,,,,wg-a,,,,AAXX 15124 07690 12770 61108 10250 20150 30169 40199 52001 60006 81983 91200=
07690,1996-06-15 15:00:00,23,1019,-0.9,69,17,18000,7.408,,,60,,,,,,,,,,17,wg-a,,,,AAXX 15154 07690 12668 70604 10230 20170 30160 40190 58009 60006 71792 8396/ 91500=
07690,1996-06-15 18:00:00,22,1018.5,-0.5,69,16,12000,14.816,,,340,20.4,25.5,,,,,,,,1,wg-a,,,,AAXX 15184 07690 12662 73408 10220 20160 30155 40185 56005 60006 70192 8126/ 91800 333 10255 20204=
07690,1996-06-15 21:00:00,21,1018.4,-0.1,64,14,12000,11.112,,,350,,,,,,,,,,,wg-a,,,,AAXX 15214 07690 12662 33506 10210 20140 30154 40184 58001 60006 81531 92100=
07690,1996-06-16 00:00:00,20,1018.2,-0.3,64,13,12000,18.52,,,340,,,,,,,,,,,wg-a,,,,AAXX 16004 07690 12/62 03410 10200 20130 30151 40182 58003 60006 80000 90000=
07690,1996-06-16 06:00:00,19,1018.2,0.7,64,12,20000,18.52,,,340,18.1,22.5,,,,,,,,,wg-a,,,,AAXX 16064 07690 02/70 13410 10190 20120 30151 40182 51007 60006 81062 90600 333 10225 20181 60004=
07690,1996-06-16 09:00:00,24,1018.3,0.2,61,16,20000,14.816,,,100,,,,,,,,,,,wg-a,,,,AAXX 16094 07690 12570 /1008 10240 20160 30153 40183 51002 60006 81201 90900=
07690,1996-06-16 12:00:00,25,1018.1,-0.2,61,17,20000,11.112,,,120,,,,,,,,,,,wg-a,,,,AAXX 16124 07690 12670 /1206 10250 20170 30151 40181 58002 60006 81301 91200=
07690,1996-06-16 15:00:00,23,1017.2,-0.9,61,15,20000,3.704,,,120,,,,,,,,,,,wg-a,,,,AAXX 16154 07690 12670 71202 10230 20150 30142 40172 56009 60006 83963 91500=
07690,1996-06-16 18:00:00,22,1016.2,-1,65,15,20000,14.816,,,10,19.3,25.1,,,,,,,,,wg-a,,,,AAXX 16184 07690 12670 70108 10220 20150 30132 40162 56010 60006 8296/ 91800 333 10251 20193=
07690,1996-06-16 21:00:00,22,1016.3,0.1,60,14,15000,11.112,,,20,,,,,,,,,,,wg-a,,,,AAXX 16214 07690 12665 /0206 10220 20140 30133 40163 53001 60006 82960 92100=
07690,1996-06-17 00:00:00,22,1017.2,0.9,50,11,15000,18.52,,,40,,,,,,,,,,,wg-a,,,,AAXX 17004 07690 12665 /0410 10220 20110 30142 40172 53009 60006 81960 90000=
07690,1996-06-17 03:00:00,19,1017.7,0.4,73,14,15000,22.224,,,330,,,,0,,,,,,2,wg-a,,,,AAXX 17034 07690 12565 73312 10190 20140 30146 40177 50004 60007 70262 8397/ 90300=
07690,1996-06-17 06:00:00,23,1018.8,1.2,65,16,25000,14.816,,,90,18.2,23,,,,,,,,1,wg-a,,,,AAXX 17064 07690 12675 70908 10230 20160 30158 40188 53012 60004 70162 84870 90600 333 10230 20182=
07690,1996-06-17 09:00:00,24,1018.9,0.1,61,16,35000,18.52,,,180,,,,,,,,,,,wg-a,,,,AAXX 17094 07690 12681 /1810 10240 20160 30159 40189 53001 60006 81280 90900=
07690,1996-06-17 12:00:00,25,1019.4,0.5,57,16,40000,22.224,,,110,,,,,,,,,,,wg-a,,,,AAXX 17124 07690 12682 /1112 10250 20160 30164 40194 51005 60006 81280 91200=
07690,1996-06-17 15:00:00,25,1019,-0.4,54,15,40000,7.408,,,110,,,,1,,,,,,,wg-a,,,,AAXX 17154 07690 12682 21104 10250 20150 30160 40190 58004 60017 81230 91500=
07690,1996-06-17 18:00:00,22,1018.3,-0.7,73,17,40000,7.408,,,230,21.7,25.6,,,,,,,,,wg-a,,,,AAXX 17184 07690 32682 22304 10220 20170 30153 40183 56007 81230 91800 333 10256 20217=
07690,1996-06-17 21:00:00,21,1018.8,0.4,69,15,20000,7.408,,,320,,,,,,,,,,,wg-a,,,,AAXX 17214 07690 12870 23204 10210 20150 30157 40188 50004 60006 82030 92100=
07690,1996-06-18 00:00:00,19,1018.3,-0.5,68,13,20000,14.816,,,320,,,,,,,,,,,wg-a,,,,AAXX 18004 07690 12/70 03208 10190 20130 30152 40183 56005 60006 80000 90000=
07690,1996-06-18 03:00:00,19,1017.2,-1.1,68,13,25000,11.112,,,340,,,,,,,,,,,wg-a,,,,AAXX 18034 07690 12/75 13406 10190 20130 30141 40172 58011 60006 80001 90300=
07690,1996-06-18 06:00:00,20,1017,-0.2,68,14,25000,14.816,,,330,18.7,21.7,,,,,1,,,,wg-a,,,,AAXX 18064 07690 02/75 13308 10200 20140 30139 40170 58002 60006 80001 90600 333 10217 20187 60014=
07690,1996-06-18 09:00:00,24,1016.8,-0.1,65,17,20000,11.112,,,110,,,,,,,,,,,wg-a,,,,AAXX 18094 07690 12570 21106 10240 20170 30138 40168 58001 60006 81101 90900=
07690,1996-06-18 12:00:00,25,1016.4,-0.4,69,19,15000,11.112,,,130,,,,,,,,,,,wg-a,,,,AAXX 18124 07690 12665 /1306 10250 20190 30134 40164 58004 60006 81101 91200=
07690,1996-06-18 15:00:00,25,1014.7,-1.7,69,19,15000,14.816,,,170,,,,,,,,,,,wg-a,,,,AAXX 18154 07690 12665 /1708 10250 20190 30117 40147 57017 60006 81201 91500=
07690,1996-06-18 18:00:00,24,1012.7,-2,78,20,10000,22.224,,,80,20.3,25.4,,,,,,,,,wg-a,,,,AAXX 18184 07690 12560 /0812 10240 20200 30097 40127 56020 60006 81502 91800 333 10254 20203=
07690,1996-06-18 21:00:00,23,1013.1,0.4,83,20,12000,14.816,,,70,,,,,,,,,,,wg-a,,,,AAXX 18214 07690 12/62 20708 10230 20200 30101 40131 51004 60006 80002 92100=
07690,1996-06-19 00:00:00,19,1012.5,-0.6,94,18,12000,7.408,,,330,,,,,,,,,,,wg-a,,,,AAXX 19004 07690 12/62 23304 10190 20180 30095 40125 58006 60006 80002 90000=
07690,1996-06-19 03:00:00,18,1012,-0.6,94,17,12000,11.112,,,330,,,,,,,,,,,wg-a,,,,AAXX 19034 07690 12462 13306 10180 20170 30089 40120 56006 60006 81502 90300=
07690,1996-06-19 09:00:00,24,1012.4,0,78,20,9000,14.816,,,150,,,,,,,,,,,wg-a,,,,AAXX 19094 07690 12559 21508 10240 20200 30094 40124 50000 60006 81201 90900=
07690,1996-06-19 12:00:00,25,1012,-0.4,74,20,10000,11.112,,,150,,,,,,,,,,,wg-a,,,,AAXX 19124 07690 12560 /1506 10250 20200 30090 40120 58004 60006 81202 91200=
07690,1996-06-19 15:00:00,25,1010.8,-1.2,79,21,6000,11.112,,,130,,,,,,,,,,,wg-a,,,,AAXX 19154 07690 12456 51306 10250 20210 30078 40108 56012 60006 85202 91500=
07690,1996-06-19 18:00:00,23,1009.9,-0.9,89,21,4000,18.52,,,100,19.7,25.1,,,,,,,,,wg-a,,,,AAXX 19184 07690 12440 31010 10230 20210 30069 40099 55009 60006 82802 91800 333 10251 20197=
07690,1996-06-19 21:00:00,23,1010.6,0.7,89,21,8000,14.816,,,60,,,,,,,,,,,wg-a,,,,AAXX 19214 07690 12458 50608 10230 20210 30076 40106 53007 60006 83501 92100=
07690,1996-06-20 00:00:00,20,1010.1,-0.5,100,20,6000,7.408,,,260,,,,,,,,,,,wg-a,,,,AAXX 20004 07690 12456 /2604 10200 20200 30071 40101 58005 60006 84502 90000=
07690,1996-06-20 03:00:00,20,1009.5,-0.6,94,19,6000,7.408,,,320,,,,,,,,,,,wg-a,,,,AAXX 20034 07690 12456 23204 10200 20190 30065 40095 56006 60006 81501 90300=
07690,1996-06-20 06:00:00,21,1009.9,0.4,83,18,4000,11.112,,,330,19.1,23.6,,,,,,,,10,wg-a,,,,AAXX 20064 07690 02440 33306 10210 20180 30069 40099 50004 60006 71011 81502 90600 333 10236 20191 60004=
07690,1996-06-20 09:00:00,24,1009.9,0,78,20,4500,14.816,,,170,,,,,,,,,,10,wg-a,,,,AAXX 20094 07690 12545 21708 10240 20200 30069 40099 50000 60006 71000 81131 90900=
07690,1996-06-20 12:00:00,24,1009.8,-0.1,83,21,6000,22.224,,,200,,,,,,,,,,,wg-a,,,,AAXX 20124 07690 12356 72012 10240 20210 30068 40098 58001 60006 875// 91200=
07690,1996-06-20 15:00:00,23,1009.3,-0.5,89,21,500,25.928,,,200,,,,,,,,,,17,wg-a,,,,AAXX 20154 07690 12400 42014 10230 20210 30063 40093 58005 60006 71791 84930 91500=
07690,1996-06-20 18:00:00,23,1008,-1.3,89,21,500,11.112,,,220,20.6,25.1,,,,,,,,3,wg-a,,,,AAXX 20184 07690 02400 32206 10230 20210 30050 40080 56013 61000 70396 83501 91800 333 10251 20206 ////=
07690,1996-06-20 21:00:00,23,1008.9,0.9,89,21,8000,11.112,,,40,,,,,,,,,,,wg-a,,,,AAXX 20214 07690 12458 40406 10230 20210 30059 40089 53009 60006 82502 92100=
07690,1996-06-21 00:00:00,21,1008.9,0,94,20,6000,7.408,,,320,,,,,,,,,,,wg-a,,,,AAXX 21004 07690 12/56 33204 10210 20200 30059 40089 50000 60006 80002 90000=
07690,1996-06-21 03:00:00,20,1007.7,-1.2,100,20,500,7.408,,,310,,,,0,,,,,,10,wg-a,,,,AAXX 21034 07690 12400 73104 10200 20200 30047 40077 55012 60007 71098 8467/ 90300=
07690,1996-06-21 06:00:00,20,1008.5,0.8,94,19,500,7.408,,,330,19.4,23.6,,1,,,1,,,1,wg-a,,,,AAXX 21064 07690 02400 73304 10200 20190 30055 40085 51008 60014 70198 8297/ 90600 333 10236 20194 60017=
07690,1996-06-21 09:00:00,23,1008.1,-0,83,20,500,7.408,,,130,,,,0,,,,,,,wg-a,,,,AAXX 21094 07690 12600 /1304 10230 20200 30051 40081 54000 60007 8258/ 90900=
07690,1996-06-21 12:00:00,22,1008.6,0.5,88,20,7000,7.408,,,210,,,,,,,,,,,wg-a,,,,AAXX 21124 07690 12/57 /2104 10220 20200 30056 40086 53005 60016 91200=
07690,1996-06-21 18:00:00,24,1004.3,-1.7,54,14,15000,25.928,,,90,19.4,24.6,,,,,,,,1,wg-a,,,,AAXX 21184 07690 32665 /0914 10240 20140 30013 40043 56017 70186 81580 91800 333 10246 20194=
07690,1996-06-21 21:00:00,20,1003.7,-0.6,83,17,15000,18.52,,,320,,,,,,,,,,,wg-a,,,,AAXX 21214 07690 12765 53210 10200 20170 30007 40037 58006 60006 84530 92100=
07690,1996-06-22 00:00:00,19,1003.7,-0,83,16,15000,11.112,,,320,,,,,,,,,,,wg-a,,,,AAXX 22004 07690 12765 33206 10190 20160 30007 40037 55000 60006 82530 90000=
07690,1996-06-22 03:00:00,18,1002.1,-1.6,83,15,15000,14.816,,,270,,,,,,,,,,,wg-a,,,,AAXX 22034 07690 12765 42708 10180 20150 39991 40021 57016 60006 82530 90300=
07690,1996-06-22 06:00:00,19,1001.6,-0.5,73,14,500,14.816,,,290,17.9,23.9,,,,,1,,,,wg-a,,,,AAXX 22064 07690 02500 72908 10190 20140 39986 40016 56005 60006 8283/ 90600 333 10239 20179 60014=
07690,1996-06-22 09:00:00,20,1000.2,-1.4,68,14,40000,25.928,,,240,,,,,,,,,,,wg-a,,,,AAXX 22094 07690 12682 /2414 10200 20140 39972 40002 58014 60006 8153/ 90900=
07690,1996-06-22 12:00:00,27,999.2,-0.9,34,10,40000,14.816,,,150,,,,,,,,,,,wg-a,,,,AAXX 22124 07690 12682 /1508 10270 20100 39963 49992 56009 60006 81102 91200=
07690,1996-06-22 15:00:00,27,999.5,0.3,37,11,35000,22.224,,,200,,,,,,,,,,,wg-a,,,,AAXX 22154 07690 12581 /2012 10270 20110 39966 49995 53003 60006 81200 91500=
07690,1996-06-22 18:00:00,24,1002,2.4,54,14,20000,31.484,,,80,18.8,28.7,,,,,,,,,wg-a,,,,AAXX 22184 07690 12670 20817 10240 20140 39990 40020 53024 60006 82800 91800 333 10287 20188=
07690,1996-06-22 21:00:00,19,1008.2,6.2,73,14,20000,29.632,,,180,,,,,,,,,,,wg-a,,,,AAXX 22214 07690 12670 /1816 10190 20140 30052 40082 53062 60006 81100 92100=
07690,1996-06-23 00:00:00,17,1010.7,2.4,72,12,20000,3.704,,,350,,,,,,,,,,,wg-a,,,,AAXX 23004 07690 12/70 03502 10170 20120 30076 40107 51024 60006 80000 90000=
07690,1996-06-23 03:00:00,16,1011,0.3,59,8,20000,11.112,,,30,,,,,,,,,,,wg-a,,,,AAXX 23034 07690 12/70 00306 10160 20080 30079 40110 51003 60006 80000 90300=
07690,1996-06-23 06:00:00,17,1011.9,0.9,45,5,50000,18.52,,,350,14.9,24,,,,,,,,,wg-a,,,,AAXX 23064 07690 02/84 13510 10170 20050 30088 40119 51009 60006 80001 90600 333 10240 20149 60004=
07690,1996-06-23 09:00:00,21,1013.1,1.3,53,11,50000,14.816,,,120,,,,,,,,,,,wg-a,,,,AAXX 23094 07690 12684 21208 10210 20110 30101 40131 53013 60006 81102 90900=
07690,1996-06-23 12:00:00,22,1014.3,1.2,50,11,50000,18.52,,,160,,,,,,,,,,,wg-a,,,,AAXX 23124 07690 12684 /1610 10220 20110 30113 40143 53012 60006 81202 91200=
07690,1996-06-23 15:00:00,21,1014.4,0.1,46,9,40000,11.112,,,140,,,,,,,,,,,wg-a,,,,AAXX 23154 07690 12682 21406 10210 20090 30114 40144 53001 60006 81801 91500=
07690,1996-06-23 18:00:00,21,1014.8,0.4,49,10,40000,7.408,,,130,16.5,22.3,,,,,,,,,wg-a,,,,AAXX 23184 07690 12682 51304 10210 20100 30118 40148 53004 60006 83801 91800 333 10223 20165=
07690,1996-06-23 21:00:00,18,1016.1,1.2,59,10,20000,3.704,,,180,,,,,,,,,,,wg-a,,,,AAXX 23214 07690 12670 /1802 10180 20100 30130 40161 53012 60006 86500 92100=
07690,1996-06-24 00:00:00,16,1016.6,0.5,59,8,500,11.112,,,330,,,,,,,,,,,wg-a,,,,AAXX 24004 07690 12/00 /3306 10160 20080 30135 40166 51005 60006 80000 90000=
07690,1996-06-24 03:00:00,15,1016.1,-0.5,59,7,500,22.224,,,340,,,,,,,,,,,wg-a,,,,AAXX 24034 07690 12700 33412 10150 20070 30130 40161 56005 60006 81130 90300=
07690,1996-06-24 06:00:00,17,1017.4,1.3,52,7,500,14.816,,,330,14.5,20.8,,0,,,,,,,wg-a,,,,AAXX 24064 07690 02500 43308 10170 20070 30143 40174 51013 60004 81101 90600 333 10208 20145 60007=
07690,1996-06-24 09:00:00,22,1018.4,1.1,41,8,50000,11.112,,,140,,,,,,,,,,,wg-a,,,,AAXX 24094 07690 12584 31406 10220 20080 30154 40184 52011 60006 83801 90900=
07690,1996-06-24 12:00:00,23,1018.1,-0.3,47,11,11000,18.52,,,120,,,,,,,,,,,wg-a,,,,AAXX 24124 07690 12/61 /1210 10230 20110 30151 40181 58003 60006 91200=
07690,1996-06-24 15:00:00,21,1017.6,-0.5,53,11,40000,18.52,,,330,,,,,,,,,,,wg-a,,,,AAXX 24154 07690 12682 53310 10210 20110 30146 40176 58005 60006 84903 91500=
07690,1996-06-24 18:00:00,16,1018.6,0.9,88,14,10000,7.408,,,340,16.3,23.2,,1,,,,,,61,wg-a,,,,AAXX 24184 07690 12460 73404 10160 20140 30155 40186 53009 60017 76162 879// 91800 333 10232 20163=
07690,1996-06-24 21:00:00,15,1017.8,-0.8,77,11,11000,18.52,,,350,,,,,,,,,,,wg-a,,,,AAXX 24214 07690 32/61 /3510 10150 20110 30147 40178 56008 92100=
07690,1996-06-25 00:00:00,17,1018,0.2,77,13,20000,18.52,,,120,,,,,,,,,,2,wg-a,,,,AAXX 25004 07690 12670 31210 10170 20130 30149 40180 51002 60016 70261 81460 90000=
07690,1996-06-25 03:00:00,14,1017.8,-0.2,82,11,20000,18.52,,,330,,,,,,,,,,,wg-a,,,,AAXX 25034 07690 12470 53310 10140 20110 30147 40178 57002 60006 83550 90300=
07690,1996-06-25 06:00:00,15,1017.9,0.1,77,11,500,18.52,,,330,13.7,17.3,,,,,,,,,wg-a,,,,AAXX 25064 07690 02500 43310 10150 20110 30148 40179 53001 60006 84900 90600 333 10173 20137 60004=
07690,1996-06-25 09:00:00,19,1017.8,-0.1,73,14,500,14.816,,,230,,,,,,,,,,,wg-a,,,,AAXX 25094 07690 12500 /2308 10190 20140 30147 40178 58001 60006 81230 90900=
07690,1996-06-25 12:00:00,21,1017,-0.7,64,14,500,14.816,,,200,,,,,,,,,,,wg-a,,,,AAXX 25124 07690 12600 22008 10210 20140 30140 40170 58007 60006 81230 91200=
07690,1996-06-25 15:00:00,21,1016.3,-0.7,60,13,500,29.632,,,200,,,,,,,,,,,wg-a,,,,AAXX 25154 07690 12500 /2016 10210 20130 30133 40163 55007 60006 81830 91500=
07690,1996-06-25 18:00:00,19,1016.2,-0.2,68,13,15000,11.112,,,250,,,,,,,,,,,wg-a,,,,AAXX 25184 07690 12565 32506 10190 20130 30131 40162 57002 60006 81833 91800=
07690,1996-06-25 21:00:00,17,1016.7,0.5,77,13,20000,11.112,,,330,,,,,,,,,,,wg-a,,,,AAXX 25214 07690 12670 53306 10170 20130 30136 40167 51005 60006 81230 92100=
07690,1996-06-26 00:00:00,15,1016.4,-0.3,88,13,20000,7.408,,,330,,,,,,,,,,,wg-a,,,,AAXX 26004 07690 12670 43304 10150 20130 30133 40164 58003 60006 81530 90000=
07690,1996-06-26 03:00:00,16,1015.7,-0.7,77,12,20000,7.408,,,340,,,,,,,,,,,wg-a,,,,AAXX 26034 07690 32/70 43404 10160 20120 30126 40157 56007 84030 90300=
07690,1996-06-26 06:00:00,16,1016,0.3,77,12,20000,14.816,,,330,15.3,19.2,,,,,,,,,wg-a,,,,AAXX 26064 07690 32670 43308 10160 20120 30129 40160 53003 84180 90600 333 10192 20153=
07690,1996-06-26 09:00:00,21,1016.5,0.6,64,14,25000,7.408,,,150,,,,,,,,,,,wg-a,,,,AAXX 26094 07690 12575 51504 10210 20140 30135 40165 51006 60006 81280 90900=
07690,1996-06-26 12:00:00,22,1016.9,0.4,57,13,500,14.816,,,160,,,,,,,,,,,wg-a,,,,AAXX 26124 07690 12400 61608 10220 20130 30139 40169 53004 60006 82983 91200=
07690,1996-06-26 15:00:00,21,1016.8,-0.1,69,15,500,11.112,,,210,,,,,,,,,,,wg-a,,,,AAXX 26154 07690 12500 72106 10210 20150 30138 40168 56001 60006 81983 91500=
07690,1996-06-26 18:00:00,20,1017.1,0.2,64,13,500,7.408,,,320,16.7,22.4,,,,,,,,,wg-a,,,,AAXX 26184 07690 12500 /3204 10200 20130 30140 40171 53002 60006 81963 91800 333 10224 20167=
07690,1996-06-26 21:00:00,18,1018.2,1.1,73,13,20000,14.816,,,340,,,,,,,,,,,wg-a,,,,AAXX 26214 07690 12/70 33408 10180 20130 30151 40182 52011 60006 81032 92100=
07690,1996-06-27 00:00:00,17,1018.9,0.7,72,12,20000,18.52,,,340,,,,,,,,,,,wg-a,,,,AAXX 27004 07690 12/70 23410 10170 20120 30158 40189 51007 60006 82030 90000=
07690,1996-06-27 03:00:00,16,1019.1,0.2,77,12,20000,22.224,,,340,,,,,,,,,,,wg-a,,,,AAXX 27034 07690 12/70 03412 10160 20120 30160 40191 52002 60006 80000 90300=
07690,1996-06-27 06:00:00,17,1019.9,0.8,68,11,40000,18.52,,,340,15.3,20.5,,0,,,,,,,wg-a,,,,AAXX 27064 07690 02/82 13410 10170 20110 30168 40199 53008 60004 80001 90600 333 10205 20153 60007=
07690,1996-06-27 09:00:00,22,1020.8,1,57,13,40000,11.112,,,170,,,,,,,,,,,wg-a,,,,AAXX 27094 07690 12682 /1706 10220 20130 30178 40208 52010 60006 81101 90900=
07690,1996-06-27 12:00:00,23,1021.2,0.4,57,14,40000,18.52,,,170,,,,,,,,,,,wg-a,,,,AAXX 27124 07690 12682 21710 10230 20140 30182 40212 51004 60006 81201 91200=
07690,1996-06-27 15:00:00,22,1020.8,-0.4,69,16,40000,11.112,,,190,,,,,,,,,,,wg-a,,,,AAXX 27154 07690 12682 51906 10220 20160 30178 40208 58004 60006 81202 91500=
07690,1996-06-27 18:00:00,22,1021.1,0.3,78,18,40000,11.112,,,210,17.1,23.3,,,,,,,,,wg-a,,,,AAXX 27184 07690 12682 42106 10220 20180 30181 40211 53003 60006 81402 91800 333 10233 20171=
07690,1996-06-27 21:00:00,19,1022.1,0.9,83,16,20000,3.704,,,180,,,,,,,,,,,wg-a,,,,AAXX 27214 07690 12/70 41802 10190 20160 30190 40221 53009 60006 80002 92100=
07690,1996-06-28 00:00:00,18,1021.7,-0.4,77,14,20000,11.112,,,300,,,,,,,,,,,wg-a,,,,AAXX 28004 07690 12/70 43006 10180 20140 30186 40217 58004 60006 80002 90000=
07690,1996-06-28 03:00:00,17,1021.5,-0.2,77,13,20000,7.408,,,20,,,,,,,,,,,wg-a,,,,AAXX 28034 07690 12/70 20204 10170 20130 30184 40215 58002 60006 80002 90300=
07690,1996-06-28 06:00:00,19,1021.9,0.4,68,13,25000,11.112,,,340,16.5,21.4,,,,,,,,,wg-a,,,,AAXX 28064 07690 02675 /3406 10190 20130 30188 40219 53004 60006 81501 90600 333 10214 20165 60004=
07690,1996-06-28 09:00:00,22,1022.2,0.4,78,18,25000,11.112,,,150,,,,,,,,,,,wg-a,,,,AAXX 28094 07690 12575 31506 10220 20180 30192 40222 53004 60006 81101 90900=
07690,1996-06-28 12:00:00,23,1021.6,-0.6,73,18,20000,14.816,,,120,,,,,,,,,,,wg-a,,,,AAXX 28124 07690 12470 31208 10230 20180 30186 40216 58006 60006 82801 91200=
07690,1996-06-28 15:00:00,23,1020.4,-1.2,73,18,12000,11.112,,,140,,,,,,,,,,,wg-a,,,,AAXX 28154 07690 12462 21406 10230 20180 30174 40204 58012 60006 82101 91500=
07690,1996-06-28 18:00:00,22,1019.3,-1.1,78,18,9000,7.408,,,140,18.5,23.1,,,,,,,,,wg-a,,,,AAXX 28184 07690 12459 /1404 10220 20180 30163 40193 56011 60006 81400 91800 333 10231 20185=
07690,1996-06-28 21:00:00,21,1019.5,0.2,83,18,10000,11.112,,,80,,,,,,,,,,,wg-a,,,,AAXX 28214 07690 12560 /0806 10210 20180 30165 40195 53002 60006 81500 92100=
07690,1996-06-29 00:00:00,18,1019.1,-0.5,94,17,10000,7.408,,,330,,,,,,,,,,,wg-a,,,,AAXX 29004 07690 12460 23304 10180 20170 30160 40191 57005 60006 82500 90000=
07690,1996-06-29 03:00:00,17,1018.2,-0.9,94,16,10000,11.112,,,320,,,,,,,,,,,wg-a,,,,AAXX 29034 07690 12460 13206 10170 20160 30151 40182 56009 60006 81500 90300=
07690,1996-06-29 06:00:00,18,1017.9,-0.3,88,16,6000,11.112,,,330,16.7,21.6,,,,,,,,,wg-a,,,,AAXX 29064 07690 02556 /3306 10180 20160 30148 40179 55003 60006 81501 90600 333 10216 20167 60004=
07690,1996-06-29 09:00:00,22,1017.5,-0.3,78,18,8000,11.112,,,150,,,,,,,,,,,wg-a,,,,AAXX 29094 07690 12458 51506 10220 20180 30145 40175 58003 60006 83502 90900=
07690,1996-06-29 12:00:00,23,1016.7,-0.8,73,18,8000,11.112,,,160,,,,,,,,,,,wg-a,,,,AAXX 29124 07690 12458 31606 10230 20180 30137 40167 58008 60006 81502 91200=
07690,1996-06-29 15:00:00,23,1014.3,-2.4,73,18,7000,14.816,,,110,,,,,,,,,,,wg-a,,,,AAXX 29154 07690 12457 /1108 10230 20180 30113 40143 58024 60006 81502 91500=
07690,1996-06-29 18:00:00,23,1012.5,-1.8,78,19,8000,22.224,,,90,18.2,23.4,,,,,,,,,wg-a,,,,AAXX 29184 07690 12458 /0912 10230 20190 30095 40125 56018 60006 91800 333 10234 20182=
07690,1996-06-29 21:00:00,22,1012.4,-0.1,83,19,10000,18.52,,,90,,,,,,,,,,,wg-a,,,,AAXX 29214 07690 12460 /0910 10220 20190 30094 40124 56001 60006 81502 92100=
07690,1996-06-30 00:00:00,20,1012,-0.4,88,18,10000,11.112,,,90,,,,,,,,,,,wg-a,,,,AAXX 30004 07690 12460 70906 10200 20180 30090 40120 57004 60006 81532 90000=
07690,1996-06-30 03:00:00,18,1011.6,-0.5,94,17,8000,11.112,,,330,,,,,,,,,,,wg-a,,,,AAXX 30034 07690 12458 73306 10180 20170 30085 40116 56005 60006 83532 90300=
07690,1996-06-30 06:00:00,18,1011.8,0.2,88,16,500,14.816,,,330,17.4,22.6,,,,,,,,,wg-a,,,,AAXX 30064 07690 02400 /3308 10180 20160 30087 40118 53002 60006 81532 90600 333 10226 20174 60004=
07690,1996-06-30 09:00:00,23,1012.5,0.8,78,19,7000,14.816,,,180,,,,,,,,,,,wg-a,,,,AAXX 30094 07690 12457 /1808 10230 20190 30095 40125 53008 60006 81502 90900=
07690,1996-06-30 12:00:00,24,1013.2,0.7,69,18,15000,18.52,,,180,,,,,,,,,,,wg-a,,,,AAXX 30124 07690 12465 /1810 10240 20180 30102 40132 51007 60006 81502 91200=
07690,1996-06-30 15:00:00,24,1013.3,0.1,74,19,8000,18.52,,,180,,,,,,,,,,,wg-a,,,,AAXX 30154 07690 12558 21810 10240 20190 30103 40133 53001 60006 81502 91500=
07690,1996-06-30 18:00:00,22,1012.9,-0.4,83,19,8000,7.408,,,190,18.4,24.3,,,,,,,,,wg-a,,,,AAXX 30184 07690 12458 51904 10220 20190 30099 40129 56004 60006 83502 91800 333 10243 20184=
07690,1996-06-30 21:00:00,20,1013.4,0.5,94,19,10000,0,,,0,,,,,,,,,,,wg-a,,,,AAXX 30214 07690 12460 40000 10200 20190 30104 40134 51005 60006 84500 92100=
07690,1996-07-01 00:00:00,19,1012.1,-1.3,94,18,10000,3.704,,,30,,,,,,,,,,,wg-a,,,,AAXX 01004 07690 12460 20302 10190 20180 30091 40121 58013 60006 82500 90000=
07690,1996-07-01 03:00:00,18,1010.7,-1.5,94,17,10000,7.408,,,330,,,,,,,,,,,wg-a,,,,AAXX 01034 07690 12460 /3304 10180 20170 30076 40107 56015 60006 81500 90300=
07690,1996-07-01 06:00:00,19,1010.4,-0.2,94,18,9000,3.704,,,300,17.6,22,,,,,,,,,wg-a,,,,AAXX 01064 07690 02459 /3002 10190 20180 30074 40104 56002 60006 81501 90600 333 10220 20176 60004=
07690,1996-07-01 09:00:00,23,1010.2,-0.2,78,19,10000,14.816,,,180,,,,0,,,,,,,wg-a,,,,AAXX 01094 07690 12560 /1808 10230 20190 30072 40102 58002 60007 81202 90900=
07690,1996-07-01 12:00:00,23,1009.5,-0.7,78,19,12000,14.816,,,160,,,,,,,,,,,wg-a,,,,AAXX 01124 07690 12462 /1608 10230 20190 30065 40095 58007 60006 81200 91200=
07690,1996-07-01 15:00:00,24,1007.8,-1.7,74,19,12000,22.224,,,90,,,,0,,,,,,,wg-a,,,,AAXX 01154 07690 12662 30912 10240 20190 30048 40078 56017 60007 81232 91500=
07690,1996-07-01 18:00:00,23,1007.2,-0.6,73,18,20000,18.52,,,100,,,,,,,,,,,wg-a,,,,AAXX 01184 07690 12/70 31010 10230 20180 30042 40072 55006 60006 83032 91800=
07690,1996-07-02 00:00:00,21,1009,0.7,83,18,20000,14.816,,,80,,,,,,,,,,,wg-a,,,,AAXX 02004 07690 32/70 50808 10210 20180 30060 40090 53007 84032 90000=
07690,1996-07-02 03:00:00,19,1008.7,-0.3,88,17,20000,11.112,,,330,,,,,,,,,,,wg-a,,,,AAXX 02034 07690 12/70 63306 10190 20170 30057 40087 58003 60006 8603/ 90300=
07690,1996-07-02 06:00:00,19,1009.5,0.8,88,17,7000,7.408,,,320,18.6,23.1,,,,,,,,60,wg-a,,,,AAXX 02064 07690 02457 73204 10190 20170 30065 40095 53008 61000 76062 8157/ 90600 333 10231 20186 ////=
07690,1996-07-02 09:00:00,22,1009.4,-0.1,73,17,10000,11.112,,,320,,,,,,,,,,1,wg-a,,,,AAXX 02094 07690 02460 73206 10220 20170 30064 40094 58001 61000 70162 8153/ 90900 333 ////=
07690,1996-07-02 12:00:00,22,1009.9,0.5,83,19,10000,11.112,,,190,,,,,,,,,,60,wg-a,,,,AAXX 02124 07690 02560 81906 10220 20190 30069 40099 51005 61000 76062 8/87/ 91200 333 6100=
07690,1996-07-02 15:00:00,20,1008.8,-1.1,73,15,11000,14.816,,,330,,,,,,,,,,,wg-a,,,,AAXX 02154 07690 32/61 /3308 10200 20150 30058 40088 58011 91500=
07690,1996-07-02 18:00:00,21,1007.8,-1,56,12,40000,3.704,,,300,18.8,22.7,,,,,,,,2,wg-a,,,,AAXX 02184 07690 32582 /3002 10210 20120 30048 40078 58010 70262 81132 91800 333 10227 20188=
07690,1996-07-02 21:00:00,19,1008.3,0.5,78,15,20000,11.112,,,330,,,,,,,,,,,wg-a,,,,AAXX 02214 07690 12870 73306 10190 20150 30053 40083 53005 60006 82032 92100=
07690,1996-07-03 00:00:00,18,1009.1,0.7,83,15,20000,14.816,,,330,,,,,,,,,,,wg-a,,,,AAXX 03004 07690 12570 73308 10180 20150 30060 40091 52007 60006 82532 90000=
07690,1996-07-03 03:00:00,17,1009.8,0.7,77,13,20000,18.52,,,330,,,,,,,,,,,wg-a,,,,AAXX 03034 07690 12670 /3310 10170 20130 30067 40098 53007 60006 81500 90300=
07690,1996-07-03 06:00:00,18,1011.5,1.7,68,12,500,14.816,,,330,16.2,21.3,,,,,,,,,wg-a,,,,AAXX 03064 07690 02500 /3308 10180 20120 30084 40115 52017 60006 81200 90600 333 10213 20162 60004=
07690,1996-07-03 09:00:00,22,1012.5,1.1,69,16,40000,22.224,,,190,,,,,,,,,,,wg-a,,,,AAXX 03094 07690 12682 /1912 10220 20160 30095 40125 51011 60006 81200 90900=
07690,1996-07-03 12:00:00,24,1013.6,1.1,54,14,500,22.224,,,190,,,,,,,,,,,wg-a,,,,AAXX 03124 07690 12600 /1912 10240 20140 30106 40136 51011 60006 81200 91200=
07690,1996-07-03 15:00:00,23,1014.4,0.8,61,15,500,11.112,,,160,,,,0,,,,,,,wg-a,,,,AAXX 03154 07690 12600 /1606 10230 20150 30114 40144 51008 60007 81200 91500=
07690,1996-07-03 18:00:00,23,1014.6,0.2,53,13,40000,11.112,,,80,17.7,24.5,,,,,,,,,wg-a,,,,AAXX 03184 07690 32782 /0806 10230 20130 30116 40146 52002 81500 91800 333 10245 20177=
07690,1996-07-03 21:00:00,20,1016,1.3,64,13,20000,7.408,,,20,,,,,,,,,,,wg-a,,,,AAXX 03214 07690 12/70 00204 10200 20130 30129 40160 53013 60006 80000 92100=
07690,1996-07-04 00:00:00,17,1016.7,0.7,77,13,20000,11.112,,,330,,,,,,,,,,,wg-a,,,,AAXX 04004 07690 12/70 03306 10170 20130 30136 40167 52007 60006 80000 90000=
07690,1996-07-04 03:00:00,17,1016.7,-0,72,12,20000,14.816,,,330,,,,,,,,,,,wg-a,,,,AAXX 04034 07690 12/70 03308 10170 20120 30136 40167 55000 60006 80000 90300=
07690,1996-07-04 06:00:00,18,1017.7,1,73,13,20000,11.112,,,340,16.3,23.3,,,,,,,,,wg-a,,,,AAXX 04064 07690 02470 13406 10180 20130 30146 40177 53010 60006 81100 90600 333 10233 20163 60004=
07690,1996-07-04 09:00:00,22,1018.4,0.8,78,18,20000,11.112,,,110,,,,,,,,,,,wg-a,,,,AAXX 04094 07690 12470 /1106 10220 20180 30154 40184 53008 60006 81100 90900=
07690,1996-07-04 12:00:00,24,1018.5,0.1,69,18,25000,14.816,,,120,,,,,,,,,,,wg-a,,,,AAXX 04124 07690 12575 /1208 10240 20180 30155 40185 50001 60006 81800 91200=
07690,1996-07-04 15:00:00,24,1018.1,-0.4,69,18,25000,14.816,,,120,,,,,,,,,,,wg-a,,,,AAXX 04154 07690 12575 51208 10240 20180 30151 40181 58004 60006 85800 91500=
07690,1996-07-04 18:00:00,23,1017.8,-0.3,83,20,25000,11.112,,,110,18.2,23.8,,,,,,,,,wg-a,,,,AAXX 04184 07690 12575 71106 10230 20200 30148 40178 56003 60006 875// 91800 333 10238 20182=
07690,1996-07-04 21:00:00,22,1018.1,0.3,88,20,20000,0,,,0,,,,,,,,,,,wg-a,,,,AAXX 04214 07690 12470 60000 10220 20200 30151 40181 51003 60006 86800 92100=
07690,1996-07-05 00:00:00,21,1017,-1.1,88,19,20000,3.704,,,60,,,,,,,,,,,wg-a,,,,AAXX 05004 07690 12470 /0602 10210 20190 30140 40170 58011 60006 86500 90000=
07690,1996-07-05 03:00:00,20,1016.1,-0.9,94,19,20000,3.704,,,250,,,,,,,,,,,wg-a,,,,AAXX 05034 07690 12470 /2502 10200 20190 30131 40161 57009 60006 86500 90300=
07690,1996-07-05 06:00:00,20,1016.1,-0,94,19,15000,7.408,,,260,19.5,22.7,,,,,,,,,wg-a,,,,AAXX 05064 07690 02465 22604 10200 20190 30131 40161 55000 60006 81570 90600 333 10227 20195 60004=
07690,1996-07-05 09:00:00,23,1015.3,-0.8,78,19,20000,14.816,,,170,,,,,,,,,,,wg-a,,,,AAXX 05094 07690 12570 51708 10230 20190 30123 40153 57008 60006 81282 90900=
07690,1996-07-05 12:00:00,24,1015,-0.3,65,17,25000,14.816,,,200,,,,,,,,,,,wg-a,,,,AAXX 05124 07690 12575 /2008 10240 20170 30120 40150 58003 60006 81280 91200=
07690,1996-07-05 15:00:00,24,1013.1,-1.9,74,19,25000,18.52,,,200,,,,,,,,,,,wg-a,,,,AAXX 05154 07690 12575 72010 10240 20190 30101 40131 58019 60006 81280 91500=
07690,1996-07-05 18:00:00,23,1010.9,-2.2,73,18,25000,11.112,,,170,20,25.1,,,,,,,,,wg-a,,,,AAXX 05184 07690 12575 71706 10230 20180 30079 40109 56022 60006 8128/ 91800 333 10251 20200=
07690,1996-07-05 21:00:00,21,1010.6,-0.3,83,18,20000,7.408,,,30,,,,,,,,,,,wg-a,,,,AAXX 05214 07690 12570 20304 10210 20180 30076 40106 58003 60006 81280 92100=
07690,1996-07-06 00:00:00,19,1009.3,-1.3,94,18,20000,7.408,,,310,,,,,,,,,,,wg-a,,,,AAXX 06004 07690 12/70 /3104 10190 20180 30063 40093 56013 60006 81080 90000=
07690,1996-07-06 03:00:00,18,1008,-1.3,83,15,20000,11.112,,,350,,,,,,,,,,,wg-a,,,,AAXX 06034 07690 12/70 /3506 10180 20150 30050 40080 56013 60006 81080 90300=
07690,1996-07-06 06:00:00,20,1007.8,-0.2,73,15,40000,7.408,,,330,17.7,22.6,,,,,,,,,wg-a,,,,AAXX 06064 07690 02/82 13304 10200 20150 30048 40078 57002 60006 80001 90600 333 10226 20177 60004=
07690,1996-07-06 09:00:00,24,1006.8,-1,61,16,50000,29.632,,,230,,,,,,,,,,,wg-a,,,,AAXX 06094 07690 12784 12316 10240 20160 30038 40068 58010 60006 81101 90900=
07690,1996-07-06 12:00:00,26,1005.8,-1,51,15,50000,35.188,,53.708,210,,,,,,,,,,,wg-a,,,,AAXX 06124 07690 12684 22119 10260 20150 30028 40058 58010 60006 82200 91200 333 91029=
07690,1996-07-06 15:00:00,29,1005.3,-0.4,40,14,50000,25.928,,57.412,270,,,,,,,,,,,wg-a,,,,AAXX 06154 07690 12784 22714 10290 20140 30024 40053 55004 60006 82140 91500 333 91031=
07690,1996-07-06 18:00:00,26,1005,-0.4,48,14,50000,29.632,,57.412,240,19.6,30.4,,,,,,,,,wg-a,,,,AAXX 06184 07690 12784 /2416 10260 20140 30020 40050 55004 60006 81101 91800 333 10304 20196 91031=
07690,1996-07-06 21:00:00,24,1006.2,1.2,61,16,20000,18.52,,,240,,,,,,,,,,,wg-a,,,,AAXX 06214 07690 12/70 52410 10240 20160 30032 40062 51012 60006 84052 92100=
07690,1996-07-07 00:00:00,23,1006,-0.2,50,12,20000,11.112,,,300,,,,,,,,,,,wg-a,,,,AAXX 07004 07690 12/70 53006 10230 20120 30030 40060 58002 60006 84052 90000=
07690,1996-07-07 03:00:00,20,1005.3,-0.7,56,11,20000,11.112,,,300,,,,,,,,,,,wg-a,,,,AAXX 07034 07690 12/70 23006 10200 20110 30023 40053 58007 60006 81042 90300=
07690,1996-07-07 06:00:00,21,1004.8,-0.5,53,11,40000,11.112,,,330,19,26.3,,,,,,,,,wg-a,,,,AAXX 07064 07690 02782 73306 10210 20110 30018 40048 58005 60006 81542 90600 333 10263 20190 60004=
07690,1996-07-07 09:00:00,23,1005.2,0.4,65,16,40000,11.112,,,200,,,,,,,,,,,wg-a,,,,AAXX 07094 07690 12782 /2006 10230 20160 30022 40052 52004 60006 81582 90900=
07690,1996-07-07 12:00:00,21,1005,-0.2,83,18,500,22.224,,,220,,,,,,,,,,,wg-a,,,,AAXX 07124 07690 12400 72212 10210 20180 30020 40050 58002 60006 8588/ 91200=
07690,1996-07-07 15:00:00,22,1003.8,-1.2,73,17,500,7.408,,,140,,,,,,,,,,,wg-a,,,,AAXX 07154 07690 12400 71404 10220 20170 30008 40038 56012 60006 8587/ 91500=
07690,1996-07-07 18:00:00,22,1001.2,-2.6,78,18,500,18.52,,,110,20.8,23.9,,,,,,,,15,wg-a,,,,AAXX 07184 07690 12400 81110 10220 20180 39982 40012 58026 60006 71522 8688/ 91800 333 10239 20208=
07690,1996-07-07 21:00:00,17,1000.5,-0.7,88,15,15000,7.408,,,20,,,,23,,,,,,3,wg-a,,,,AAXX 07214 07690 12465 60204 10170 20150 39975 40005 55007 60237 70386 86260 92100=
07690,1996-07-08 00:00:00,17,1000.5,0,88,15,15000,22.224,,,230,,,,,,,,,,1,wg-a,,,,AAXX 08004 07690 12465 22312 10170 20150 39975 40005 50000 60236 70186 82260 90000=
07690,1996-07-08 03:00:00,16,999.1,-1.4,88,14,15000,29.632,,,250,,,,,,,,,,,wg-a,,,,AAXX 08034 07690 12565 12516 10160 20140 39961 49991 58014 60006 81800 90300=
07690,1996-07-08 06:00:00,16,998,-1.1,82,13,50000,14.816,,,290,15.4,21.8,,,,,23,,,,wg-a,,,,AAXX 08064 07690 12584 32908 10160 20130 39950 49980 58011 60234 81841 90600 333 10218 20154=
07690,1996-07-08 09:00:00,22,998.8,0.8,43,9,50000,14.816,,,320,,,,,,,,,,,wg-a,,,,AAXX 08094 07690 12584 43208 10220 20090 39958 49988 53008 60006 81131 90900=
07690,1996-07-08 12:00:00,23,1002.8,4,65,16,50000,35.188,,,100,,,,,,,,,,,wg-a,,,,AAXX 08124 07690 12584 41019 10230 20160 39998 40028 53040 60006 81101 91200=
07690,1996-07-08 15:00:00,22,1006.5,3.7,60,14,50000,11.112,,,110,,,,,,,,,,,wg-a,,,,AAXX 08154 07690 12584 31106 10220 20140 30035 40065 51037 60006 81131 91500=
07690,1996-07-08 18:00:00,22,1008.5,2,50,11,50000,3.704,,,130,16.4,26.1,,,,,,,,,wg-a,,,,AAXX 08184 07690 12684 21302 10220 20110 30055 40085 53020 60006 81101 91800 333 10261 20164=
07690,1996-07-08 21:00:00,18,1011.6,3,73,13,500,7.408,,,50,,,,,,,,,,,wg-a,,,,AAXX 08214 07690 12700 /0504 10180 20130 30085 40116 52030 60006 81500 92100=
07690,1996-07-09 00:00:00,18,1013.9,2.3,49,7,500,11.112,,,340,,,,,,,,,,,wg-a,,,,AAXX 09004 07690 12/00 23406 10180 20070 30108 40139 53023 60006 82070 90000=
07690,1996-07-09 03:00:00,17,1015,1.1,45,5,500,14.816,,,340,,,,,,,,,,,wg-a,,,,AAXX 09034 07690 12/00 13408 10170 20050 30119 40150 51011 60006 81030 90300=
07690,1996-07-09 06:00:00,17,1,,48,6,50000,11.112,,,340,16.2,22,,,,,,,,,wg-a,,,,AAXX 09064 07690 02/84 13406 10170 20060 60006 81032 90600 333 10220 20162 60004=
07690,1996-07-09 09:00:00,24,1018,,38,9,50000,11.112,,,130,,,,,,,,,,,wg-a,,,,AAXX 09094 07690 12684 31306 10240 20090 30150 40180 60006 82580 90900=
07690,1996-07-09 12:00:00,24,1018.7,0.7,57,15,50000,11.112,,,150,,,,,,,,,,,wg-a,,,,AAXX 09124 07690 12584 21506 10240 20150 30157 40187 50007 60006 81130 91200=
07690,1996-07-09 15:00:00,24,1018.5,-0.2,57,15,50000,14.816,,,160,,,,,,,,,,,wg-a,,,,AAXX 09154 07690 12584 /1608 10240 20150 30155 40185 56002 60006 81102 91500=
07690,1996-07-09 18:00:00,22,1018.8,0.3,57,13,50000,7.408,,,180,17.4,24.2,,,,,,,,,wg-a,,,,AAXX 09184 07690 12684 /1804 10220 20130 30158 40188 53003 60006 81500 91800 333 10242 20174=
07690,1996-07-09 21:00:00,18,1019.3,0.4,52,8,25000,11.112,,,340,,,,,,,,,,,wg-a,,,,AAXX 09214 07690 12/75 03406 10180 20080 30162 40193 52004 60006 80000 92100=
07690,1996-07-10 00:00:00,19,1019.5,0.2,49,8,25000,7.408,,,10,,,,,,,,,,,wg-a,,,,AAXX 10004 07690 12/75 00104 10190 20080 30164 40195 53002 60006 80000 90000=
07690,1996-07-10 03:00:00,18,1019.4,-0.1,56,9,25000,18.52,,,340,,,,,,,,,,,wg-a,,,,AAXX 10034 07690 12/75 03410 10180 20090 30163 40194 58001 60006 80000 90300=
07690,1996-07-10 06:00:00,19,1020.1,0.7,56,10,50000,14.816,,,330,17.2,22.6,,,,,,,,,wg-a,,,,AAXX 10064 07690 02/84 03308 10190 20100 30170 40201 53007 60006 80000 90600 333 10226 20172 60004=
07690,1996-07-10 09:00:00,24,1019,-1,47,12,50000,11.112,,,150,,,,,,,,,,,wg-a,,,,AAXX 10094 07690 12584 11506 10240 20120 30160 40190 58010 60006 81100 90900=
07690,1996-07-10 12:00:00,24,1018,-1,57,15,50000,14.816,,,150,,,,,,,,,,,wg-a,,,,AAXX 10124 07690 12584 /1508 10240 20150 30150 40180 58010 60006 81100 91200=
07690,1996-07-10 15:00:00,23,1017.4,-0.6,53,13,35000,11.112,,,170,,,,,,,,,,,wg-a,,,,AAXX 10154 07690 12681 21706 10230 20130 30144 40174 58006 60006 81130 91500=
07690,1996-07-10 18:00:00,22,1016.3,-1.1,60,14,35000,11.112,,,120,18.5,24.2,,,,,,,,,wg-a,,,,AAXX 10184 07690 12681 41206 10220 20140 30133 40163 56011 60006 81131 91800 333 10242 20185=
07690,1996-07-10 21:00:00,21,1017,0.7,69,15,500,7.408,,,110,,,,,,,,,,,wg-a,,,,AAXX 10214 07690 12/00 11104 10210 20150 30140 40170 53007 60006 8103/ 92100=
07690,1996-07-11 00:00:00,20,1017.5,0.4,64,13,500,11.112,,,60,,,,,,,,,,,wg-a,,,,AAXX 11004 07690 12400 10606 10200 20130 30144 40175 53004 60006 81500 90000=
07690,1996-07-11 03:00:00,16,1017.1,-0.4,72,11,25000,14.816,,,330,,,,,,,,,,,wg-a,,,,AAXX 11034 07690 12475 /3308 10160 20110 30140 40171 58004 60006 81500 90300=
07690,1996-07-11 06:00:00,19,1017.6,0.5,60,11,40000,11.112,,,350,15.6,22.2,,,,,,,,,wg-a,,,,AAXX 11064 07690 02582 13506 10190 20110 30145 40176 53005 60006 81130 90600 333 10222 20156 60004=
07690,1996-07-11 09:00:00,22,1017.7,0.2,69,16,40000,11.112,,,160,,,,,,,,,,,wg-a,,,,AAXX 11094 07690 12582 31606 10220 20160 30147 40177 52002 60006 81130 90900=
07690,1996-07-11 12:00:00,24,1017.6,-0.1,65,17,40000,11.112,,,140,,,,,,,,,,,wg-a,,,,AAXX 11124 07690 12582 /1406 10240 20170 30146 40176 58001 60006 81830 91200=
07690,1996-07-11 15:00:00,24,1017,-0.6,69,18,11000,11.112,,,180,,,,,,,,,,,wg-a,,,,AAXX 11154 07690 12/61 /1806 10240 20180 30140 40170 58006 60006 91500=
07690,1996-07-11 18:00:00,23,1016.8,-0.2,69,17,500,11.112,,,210,18.6,25,,,,,,,,,wg-a,,,,AAXX 11184 07690 12600 /2106 10230 20170 30138 40168 55002 60006 81800 91800 333 10250 20186=
07690,1996-07-11 21:00:00,20,1017.7,0.8,68,14,500,7.408,,,320,,,,,,,,,,,wg-a,,,,AAXX 11214 07690 12700 /3204 10200 20140 30146 40177 53008 60006 81500 92100=
07690,1996-07-12 00:00:00,19,1017.5,-0.2,64,12,25000,14.816,,,340,,,,,,,,,,,wg-a,,,,AAXX 12004 07690 12775 /3408 10190 20120 30144 40175 57002 60006 81500 90000=
07690,1996-07-12 03:00:00,19,1017,-0.5,64,12,25000,14.816,,,340,,,,,,,,,,,wg-a,,,,AAXX 12034 07690 12/75 13408 10190 20120 30139 40170 56005 60006 81030 90300=
07690,1996-07-12 06:00:00,20,1017.5,0.5,64,13,40000,11.112,,,340,18.6,23.4,,,,,,,,,wg-a,,,,AAXX 12064 07690 02/82 03406 10200 20130 30144 40175 52005 60006 80000 90600 333 10234 20186 60004=
07690,1996-07-12 09:00:00,23,1017.8,0.4,69,17,40000,14.816,,,120,,,,,,,,,,,wg-a,,,,AAXX 12094 07690 12/82 11208 10230 20170 30148 40178 51004 60006 80001 90900=
07690,1996-07-12 12:00:00,24,1017.7,-0.1,69,18,500,11.112,,,130,,,,,,,,,,,wg-a,,,,AAXX 12124 07690 12600 /1306 10240 20180 30147 40177 57001 60006 81201 91200=
07690,1996-07-12 15:00:00,23,1017.6,-0.1,78,19,500,11.112,,,120,,,,,,,,,,,wg-a,,,,AAXX 12154 07690 12600 /1206 10230 20190 30146 40176 57001 60006 81900 91500=
07690,1996-07-12 18:00:00,23,1017.7,0.1,78,19,20000,11.112,,,150,19.8,24.7,,,,,,,,,wg-a,,,,AAXX 12184 07690 12670 31506 10230 20190 30147 40177 53001 60006 81203 91800 333 10247 20198=
07690,1996-07-12 21:00:00,20,1019.1,1.3,88,18,13000,3.704,,,240,,,,,,,,,,,wg-a,,,,AAXX 12214 07690 12463 32402 10200 20180 30160 40191 53013 60006 81502 92100=
07690,1996-07-13 00:00:00,18,1019.3,0.2,88,16,13000,7.408,,,320,,,,,,,,,,,wg-a,,,,AAXX 13004 07690 12/63 03204 10180 20160 30162 40193 51002 60006 80000 90000=
07690,1996-07-13 03:00:00,17,1019.3,-0,88,15,10000,0,,,0,,,,,,,,,,,wg-a,,,,AAXX 13034 07690 12/60 /0000 10170 20150 30162 40193 55000 60006 90300=
07690,1996-07-13 06:00:00,19,1020.7,1.4,78,15,18000,7.408,,,330,17.4,22.7,,,,,,,,,wg-a,,,,AAXX 13064 07690 02468 63304 10190 20150 30176 40207 53014 60006 85502 90600 333 10227 20174 60004=
07690,1996-07-13 09:00:00,23,1021.4,0.8,78,19,25000,11.112,,,140,,,,,,,,,,,wg-a,,,,AAXX 13094 07690 12575 31406 10230 20190 30184 40214 51008 60006 81180 90900=
07690,1996-07-13 12:00:00,24,1021.7,0.3,78,20,500,11.112,,,170,,,,,,,,,,,wg-a,,,,AAXX 13124 07690 12500 21706 10240 20200 30187 40217 50003 60006 81330 91200=
07690,1996-07-13 15:00:00,24,1021.4,-0.3,74,19,500,11.112,,,170,,,,,,,,,,,wg-a,,,,AAXX 13154 07690 12500 /1706 10240 20190 30184 40214 58003 60006 81800 91500=
07690,1996-07-13 18:00:00,23,1021.2,-0.2,73,18,500,11.112,,,210,18.8,24.9,,,,,,,,,wg-a,,,,AAXX 13184 07690 12700 /2106 10230 20180 30182 40212 55002 60006 81500 91800 333 10249 20188=
07690,1996-07-13 21:00:00,21,1022.3,1,69,15,20000,11.112,,,330,,,,,,,,,,,wg-a,,,,AAXX 13214 07690 12/70 03306 10210 20150 30192 40223 53010 60006 80000 92100=
07690,1996-07-14 00:00:00,22,1022.4,0.2,57,13,25000,14.816,,,350,,,,,,,,,,,wg-a,,,,AAXX 14004 07690 12/75 03508 10220 20130 30194 40224 51002 60006 80000 90000=
07690,1996-07-14 03:00:00,22,1022,-0.5,57,13,25000,11.112,,,340,,,,,,,,,,,wg-a,,,,AAXX 14034 07690 12/75 03406 10220 20130 30189 40220 57005 60006 80000 90300=
07690,1996-07-14 06:00:00,22,1023.1,1.1,57,13,500,18.52,,,340,20.5,23.5,,,,,,,,,wg-a,,,,AAXX 14064 07690 02/00 53410 10220 20130 30200 40231 53011 60006 81032 90600 333 10235 20205 60004=
07690,1996-07-14 09:00:00,27,1023.3,0.3,48,15,25000,14.816,,,330,,,,,,,,,,,wg-a,,,,AAXX 14094 07690 12/75 63308 10270 20150 30203 40233 50003 60006 80002 90900=
07690,1996-07-14 12:00:00,27,1023.3,-0,58,18,25000,7.408,,,120,,,,,,,,,,,wg-a,,,,AAXX 14124 07690 12775 71204 10270 20180 30203 40233 55000 60006 81117 91200=
07690,1996-07-14 15:00:00,26,1022.1,-1.2,61,18,20000,3.704,,,210,,,,,,,,,,,wg-a,,,,AAXX 14154 07690 12770 /2102 10260 20180 30191 40221 58012 60006 81118 91500=
07690,1996-07-14 18:00:00,24,1021.2,-0.9,74,19,18000,11.112,,,220,21.8,29.1,,,,,,,,,wg-a,,,,AAXX 14184 07690 12768 32206 10240 20190 30182 40212 56009 60006 81131 91800 333 10291 20218=
07690,1996-07-14 21:00:00,23,1020.8,-0.4,73,18,15000,14.816,,,330,,,,,,,,,,,wg-a,,,,AAXX 14214 07690 12/65 03308 10230 20180 30178 40208 56004 60006 80000 92100=
07690,1996-07-15 00:00:00,23,1020.4,-0.4,65,16,15000,18.52,,,340,,,,,,,,,,,wg-a,,,,AAXX 15004 07690 12/65 03410 10230 20160 30174 40204 58004 60006 80000 90000=
07690,1996-07-15 03:00:00,23,1019.8,-0.6,65,16,15000,14.816,,,340,,,,,,,,,,,wg-a,,,,AAXX 15034 07690 12/65 13408 10230 20160 30168 40198 56006 60006 81031 90300=
07690,1996-07-15 06:00:00,22,1020.4,0.6,69,16,500,18.52,,,340,21.8,23.8,,,,,,,,,wg-a,,,,AAXX 15064 07690 02/00 53410 10220 20160 30174 40204 52006 60006 83082 90600 333 10238 20218 60004=
07690,1996-07-15 09:00:00,26,1021,0.6,58,17,20000,7.408,,,330,,,,,,,,,,,wg-a,,,,AAXX 15094 07690 12/70 63304 10260 20170 30180 40210 50006 60006 85082 90900=
07690,1996-07-15 12:00:00,27,1020.7,-0.3,62,19,12000,3.704,,,320,,,,,,,,,,,wg-a,,,,AAXX 15124 07690 12/62 63202 10270 20190 30177 40207 58003 60006 86090 91200=
07690,1996-07-15 15:00:00,27,1018.7,-2,70,21,12000,14.816,,,200,,,,,,,,,,,wg-a,,,,AAXX 15154 07690 12662 22008 10270 20210 30157 40187 56020 60006 81180 91500=
07690,1996-07-15 18:00:00,25,1018.1,-0.6,69,19,15000,14.816,,,220,22.4,29.3,,,,,,,,,wg-a,,,,AAXX 15184 07690 12/65 /2208 10250 20190 30151 40181 56006 60006 80002 91800 333 10293 20224=
07690,1996-07-15 21:00:00,23,1018.7,0.6,65,16,15000,7.408,,,330,,,,,,,,,,,wg-a,,,,AAXX 15214 07690 12/65 23304 10230 20160 30157 40187 52006 60006 80002 92100=
07690,1996-07-16 00:00:00,23,1,,65,16,15000,18.52,,,340,,,,,,,,,,,wg-a,,,,AAXX 16004 07690 12/65 23410 10230 20160 60006 80002 90000=
07690,1996-07-16 03:00:00,22,1017.5,,69,16,15000,14.816,,,340,,,,,,,,,,,wg-a,,,,AAXX 16034 07690 12/65 03408 10220 20160 30145 40175 60006 80000 90300=
07690,1996-07-16 06:00:00,23,1018.5,1,65,16,15000,11.112,,,340,21.5,24.8,,,,,,,,,wg-a,,,,AAXX 16064 07690 02/65 03406 10230 20160 30155 40185 53010 60006 80000 90600 333 10248 20215 60004=
07690,1996-07-16 09:00:00,27,1018.7,0.2,54,17,25000,11.112,,,140,,,,,,,,,,,wg-a,,,,AAXX 16094 07690 12675 /1406 10270 20170 30157 40187 53002 60006 81100 90900=
07690,1996-07-16 12:00:00,26,1018.4,-0.3,70,20,10000,11.112,,,160,,,,,,,,,,,wg-a,,,,AAXX 16124 07690 12660 /1606 10260 20200 30154 40184 58003 60006 81200 91200=
07690,1996-07-16 15:00:00,26,1017.3,-1.1,74,21,10000,11.112,,,170,,,,,,,,,,,wg-a,,,,AAXX 16154 07690 12660 /1706 10260 20210 30143 40173 58011 60006 81900 91500=
07690,1996-07-16 18:00:00,24,1016.6,-0.7,78,20,15000,3.704,,,190,22.7,27.6,,,,,,,,,wg-a,,,,AAXX 16184 07690 12765 31902 10240 20200 30136 40166 56007 60006 81203 91800 333 10276 20227=
07690,1996-07-16 21:00:00,22,1017,0.4,88,20,15000,0,,,0,,,,,,,,,,,wg-a,,,,AAXX 16214 07690 12765 /0000 10220 20200 30140 40170 53004 60006 81203 92100=
07690,1996-07-17 00:00:00,23,1017.3,-0,89,21,20000,7.408,,,110,,,,,,,,,,,wg-a,,,,AAXX 17004 07690 12770 31104 10230 20210 30143 40173 54000 60006 815/2 90000=
07690,1996-07-17 03:00:00,20,1016.9,-0,88,18,15000,3.704,,,350,,,,,,,,,,,wg-a,,,,AAXX 17034 07690 12365 /3502 10200 20180 30139 40169 54000 60006 81500 90300=
07690,1996-07-17 06:00:00,21,1017.3,0.4,83,18,8000,3.704,,,50,,,,,,,,,,,wg-a,,,,AAXX 17064 07690 12458 /0502 10210 20180 30143 40173 51004 60006 81580 90600=
07690,1996-07-17 09:00:00,25,1017.7,0.4,79,21,8000,14.816,,,90,,,,,,,,,,,wg-a,,,,AAXX 17094 07690 12458 /0908 10250 20210 30147 40177 51004 60006 81100 90900=
07690,1996-07-17 10:00:00,24,1015.8,-1.2,78,20,8000,3.704,,,90,21.1,26.1,,,,,,,,,wg-a,,,,AAXX 17104 07690 12/58 /0902 10240 20200 30128 40158 58012 60006 91000 333 10261 20211=
07690,1996-07-17 12:00:00,25,1017.8,0.1,83,22,8000,14.816,,,120,,,,,,,,,,,wg-a,,,,AAXX 17124 07690 12458 41208 10250 20220 30148 40178 50001 60006 84280 91200=
07690,1996-07-17 15:00:00,25,1017,-0.8,69,19,9000,11.112,,,50,,,,,,,,,,,wg-a,,,,AAXX 17154 07690 12559 /0506 10250 20190 30140 40170 58008 60006 82530 91500=
07690,1996-07-17 18:00:00,24,1015.8,-1.2,78,20,11000,3.704,,,90,21.1,26.1,,,,,,,,,wg-a,,,,AAXX 17184 07690 12/61 /0902 10240 20200 30128 40158 58012 60006 91800 333 10261 20211=
07690,1996-07-17 21:00:00,23,1016.9,1.1,83,20,6000,7.408,,,40,,,,,,,,,,,wg-a,,,,AAXX 17214 07690 12556 40404 10230 20200 30139 40169 53011 60006 81502 92100=
07690,1996-07-18 00:00:00,22,1017,0.1,83,19,10000,7.408,,,340,,,,,,,,,,,wg-a,,,,AAXX 18004 07690 12/60 33404 10220 20190 30140 40170 53001 60006 80002 90000=
07690,1996-07-18 03:00:00,22,1016.4,-0.6,78,18,10000,14.816,,,330,,,,,,,,,,,wg-a,,,,AAXX 18034 07690 12/60 33308 10220 20180 30134 40164 58006 60006 80002 90300=
07690,1996-07-18 06:00:00,22,1016.8,0.4,78,18,8000,14.816,,,350,21.3,24.1,,,,,,,,,wg-a,,,,AAXX 18064 07690 02558 23508 10220 20180 30138 40168 53004 60006 81501 90600 333 10241 20213 60004=
07690,1996-07-18 09:00:00,27,1016.7,-0.1,62,19,9000,14.816,,,150,,,,,,,,,,,wg-a,,,,AAXX 18094 07690 12559 /1508 10270 20190 30137 40167 58001 60006 81100 90900=
07690,1996-07-18 12:00:00,27,1016.5,-0.2,74,22,7000,18.52,,,200,,,,,,,,,,,wg-a,,,,AAXX 18124 07690 12557 /2010 10270 20220 30135 40165 57002 60006 81100 91200=
07690,1996-07-18 15:00:00,26,1015.8,-0.7,79,22,6000,14.816,,,200,,,,,,,,,,,wg-a,,,,AAXX 18154 07690 12/56 02008 10260 20220 30128 40158 58007 60006 80000 91500=
07690,1996-07-18 18:00:00,25,1015.4,-0.4,79,21,6000,7.408,,,220,22,27.2,,,,,,,,,wg-a,,,,AAXX 18184 07690 12756 52204 10250 20210 30124 40154 56004 60006 81532 91800 333 10272 20220=
07690,1996-07-18 21:00:00,22,1015.8,0.4,94,21,10000,7.408,,,220,,,,,,,,,,,wg-a,,,,AAXX 18214 07690 12760 32204 10220 20210 30128 40158 53004 60006 81502 92100=
07690,1996-07-19 00:00:00,21,1015.3,-0.5,88,19,12000,7.408,,,320,,,,,,,,,,,wg-a,,,,AAXX 19004 07690 12/62 03204 10210 20190 30123 40153 58005 60006 80000 90000=
07690,1996-07-19 03:00:00,21,1014.8,-0.5,83,18,10000,7.408,,,30,,,,,,,,,,,wg-a,,,,AAXX 19034 07690 12460 30304 10210 20180 30118 40148 56005 60006 83500 90300=
07690,1996-07-19 06:00:00,23,1015.4,0.6,89,21,500,11.112,,,70,20.3,24.7,,,,,,,,,wg-a,,,,AAXX 19064 07690 02300 30706 10230 20210 30124 40154 51006 60006 83800 90600 333 10247 20203 60004=
07690,1996-07-19 09:00:00,24,1016,0.6,83,21,7000,11.112,,,80,,,,,,,,,,,wg-a,,,,AAXX 19094 07690 12457 70806 10240 20210 30130 40160 51006 60006 878// 90900=
07690,1996-07-19 12:00:00,26,1015.9,-0.1,74,21,7000,14.816,,,90,,,,,,,,,,,wg-a,,,,AAXX 19124 07690 12457 20908 10260 20210 30129 40159 56001 60006 81802 91200=
07690,1996-07-19 15:00:00,26,1015.4,-0.5,79,22,8000,11.112,,,90,,,,,,,,,,,wg-a,,,,AAXX 19154 07690 12458 /0906 10260 20220 30124 40154 56005 60006 81500 91500=
07690,1996-07-19 18:00:00,25,1015.5,0.1,83,22,8000,11.112,,,100,22.6,26.4,,,,,,,,,wg-a,,,,AAXX 19184 07690 12458 51006 10250 20220 30125 40155 53001 60006 82582 91800 333 10264 20226=
07690,1996-07-19 21:00:00,24,1016.8,1.3,83,21,10000,3.704,,,140,,,,,,,,,,,wg-a,,,,AAXX 19214 07690 12/60 /1402 10240 20210 30138 40168 51013 60006 85030 92100=
07690,1996-07-20 00:00:00,22,1016.3,-0.5,88,20,10000,11.112,,,340,,,,,,,,,,,wg-a,,,,AAXX 20004 07690 12/60 /3406 10220 20200 30133 40163 58005 60006 85030 90000=
07690,1996-07-20 03:00:00,22,1015.7,-0.6,83,19,10000,11.112,,,340,,,,,,,,,,,wg-a,,,,AAXX 20034 07690 12/60 /3406 10220 20190 30127 40157 56006 60006 85030 90300=
07690,1996-07-20 06:00:00,22,1016.4,0.7,83,19,9000,7.408,,,330,21.6,24.6,,,,,,,,,wg-a,,,,AAXX 20064 07690 02/59 /3304 10220 20190 30134 40164 51007 60006 90600 333 10246 20216 60004=
07690,1996-07-20 09:00:00,26,1017.4,1,70,20,6000,7.408,,,110,,,,,,,,,,,wg-a,,,,AAXX 20094 07690 12556 /1104 10260 20200 30144 40174 51010 60006 82580 90900=
07690,1996-07-20 12:00:00,27,1017.7,0.3,58,18,9000,14.816,,,120,,,,,,,,,,,wg-a,,,,AAXX 20124 07690 12559 51208 10270 20180 30147 40177 51003 60006 81202 91200=
07690,1996-07-20 15:00:00,24,1017.7,0,65,17,8000,3.704,,,60,,,,,,,,,,17,wg-a,,,,AAXX 20154 07690 12558 70602 10240 20170 30147 40177 50000 60006 71792 83982 91500=
07690,1996-07-20 18:00:00,22,1017.6,-0.1,83,19,6000,11.112,,,330,22.2,26.9,,,,,,,,1,wg-a,,,,AAXX 20184 07690 02556 73306 10220 20190 30146 40176 58001 61000 70198 81982 91800 333 10269 20222 ////=
07690,1996-07-20 21:00:00,23,1018.4,0.8,73,18,10000,7.408,,,360,,,,,,,,,,,wg-a,,,,AAXX 20214 07690 12560 73604 10230 20180 30154 40184 50008 60006 81272 92100=
07690,1996-07-21 00:00:00,22,1019,0.6,78,18,15000,18.52,,,340,,,,,,,,,,,wg-a,,,,AAXX 21004 07690 12665 43410 10220 20180 30160 40190 51006 60006 84500 90000=
07690,1996-07-21 03:00:00,21,1018.7,-0.3,73,16,15000,14.816,,,340,,,,,,,,,,,wg-a,,,,AAXX 21034 07690 12765 /3408 10210 20160 30157 40187 57003 60006 86500 90300=
07690,1996-07-21 06:00:00,21,1019.8,1.1,78,17,15000,18.52,,,330,20.7,23,,,,,,,,,wg-a,,,,AAXX 21064 07690 02765 53310 10210 20170 30168 40198 51011 60006 81580 90600 333 10230 20207 61000=
07690,1996-07-21 09:00:00,25,1020.2,0.4,65,18,12000,11.112,,,200,,,,,,,,,,,wg-a,,,,AAXX 21094 07690 12762 22006 10250 20180 30172 40202 50004 60006 81280 90900=
07690,1996-07-21 12:00:00,26,1020.1,-0.1,54,16,15000,25.928,,,100,,,,,,,,,,,wg-a,,,,AAXX 21124 07690 12565 41014 10260 20160 30171 40201 58001 60006 81280 91200=
07690,1996-07-21 15:00:00,25,1019.8,-0.3,61,17,20000,11.112,,,120,,,,,,,,,,,wg-a,,,,AAXX 21154 07690 12570 /1206 10250 20170 30168 40198 55003 60006 81280 91500=
07690,1996-07-21 18:00:00,23,1019.4,-0.4,69,17,20000,3.704,,,190,21,26.1,,,,,,,,16,wg-a,,,,AAXX 21184 07690 12770 51902 10230 20170 30164 40194 58004 60006 71611 81960 91800 333 10261 20210=
07690,1996-07-21 21:00:00,21,1020.5,1,73,16,20000,18.52,,,330,,,,,,,,,,,wg-a,,,,AAXX 21214 07690 12/70 /3310 10210 20160 30174 40205 53010 60006 80002 92100=
07690,1996-07-22 00:00:00,21,1020.8,0.3,73,16,20000,14.816,,,340,,,,,,,,,,,wg-a,,,,AAXX 22004 07690 12/70 43408 10210 20160 30177 40208 53003 60006 84030 90000=
07690,1996-07-22 03:00:00,20,1020.7,-0.1,78,16,20000,14.816,,,340,,,,,,,,,,,wg-a,,,,AAXX 22034 07690 12/70 /3408 10200 20160 30176 40207 55001 60006 80000 90300=
07690,1996-07-22 06:00:00,21,1021.8,1.1,73,16,25000,11.112,,,340,20.2,22.9,,,,,,,,,wg-a,,,,AAXX 22064 07690 02875 73406 10210 20160 30187 40218 52011 60006 8707/ 90600 333 10229 20202 60004=
07690,1996-07-22 09:00:00,25,1022,0.3,69,19,20000,11.112,,,130,,,,,,,,,,,wg-a,,,,AAXX 22094 07690 12670 /1306 10250 20190 30190 40220 51003 60006 81230 90900=
07690,1996-07-22 12:00:00,26,1022.2,0.2,65,19,20000,18.52,,,110,,,,,,,,,,,wg-a,,,,AAXX 22124 07690 12670 /1110 10260 20190 30192 40222 51002 60006 81230 91200=
07690,1996-07-22 15:00:00,26,1021.6,-0.6,54,16,25000,11.112,,,140,,,,,,,,,,,wg-a,,,,AAXX 22154 07690 12775 /1406 10260 20160 30186 40216 58006 60006 81200 91500=
07690,1996-07-22 18:00:00,24,1021.1,-0.5,65,17,500,3.704,,,160,21.2,26.1,,,,,,,,,wg-a,,,,AAXX 22184 07690 12/00 11602 10240 20170 30181 40211 55005 60006 80001 91800 333 10261 20212=
07690,1996-07-22 21:00:00,21,1022.1,0.9,78,17,15000,0,,,0,,,,,,,,,,,wg-a,,,,AAXX 22214 07690 12/65 00000 10210 20170 30190 40221 52009 60006 80000 92100=
07690,1996-07-23 00:00:00,20,1022.2,0.1,73,15,15000,14.816,,,340,,,,,,,,,,,wg-a,,,,AAXX 23004 07690 12/65 03408 10200 20150 30191 40222 50001 60006 80000 90000=
07690,1996-07-23 03:00:00,20,1021.7,-0.5,73,15,15000,18.52,,,340,,,,,,,,,,,wg-a,,,,AAXX 23034 07690 12/65 03410 10200 20150 30186 40217 56005 60006 80000 90300=
07690,1996-07-23 06:00:00,21,1022.3,0.6,69,15,20000,14.816,,,340,19.6,23.6,,0,,,,,,,wg-a,,,,AAXX 23064 07690 02/70 03408 10210 20150 30192 40223 53006 60004 80000 90600 333 10236 20196 60007=
07690,1996-07-23 09:00:00,25,1022.2,0,65,18,15000,11.112,,,200,,,,,,,,,,,wg-a,,,,AAXX 23094 07690 12/65 02006 10250 20180 30192 40222 50000 60006 80000 90900=
07690,1996-07-23 12:00:00,26,1021.4,-0.8,58,17,20000,18.52,,,190,,,,,,,,,,,wg-a,,,,AAXX 23124 07690 12/70 01910 10260 20170 30184 40214 56008 60006 80000 91200=
07690,1996-07-23 15:00:00,26,1020.3,-1.1,65,19,20000,22.224,,,200,,,,,,,,,,,wg-a,,,,AAXX 23154 07690 12/70 02012 10260 20190 30173 40203 58011 60006 80000 91500=
07690,1996-07-23 18:00:00,25,1020.2,-0.1,74,20,20000,7.408,,,140,20.6,,,,,,,,,,wg-a,,,,AAXX 23184 07690 12/70 01404 10250 20200 30172 40202 55001 60006 80000 91800 333 20206=
07690,1996-07-23 21:00:00,24,1020.2,0,83,21,15000,7.408,,,160,,,,,,,,,,,wg-a,,,,AAXX 23214 07690 12/65 /1604 10240 20210 30172 40202 50000 60006 84030 92100=
07690,1996-07-24 00:00:00,21,1018.6,-1.6,88,19,15000,7.408,,,350,,,,,,,,,,,wg-a,,,,AAXX 24004 07690 12/65 /3504 10210 20190 30156 40186 58016 60006 81032 90000=
07690,1996-07-24 03:00:00,20,1016.4,-2.2,83,17,15000,7.408,,,340,,,,,,,,,,,wg-a,,,,AAXX 24034 07690 12/65 13404 10200 20170 30134 40164 58022 60006 80001 90300=
07690,1996-07-24 06:00:00,22,1017.6,1.2,73,17,20000,7.408,,,30,19.6,24.7,,,,,,,,,wg-a,,,,AAXX 24064 07690 02/70 10304 10220 20170 30146 40176 51012 60006 81032 90600 333 10247 20196 60004=
07690,1996-07-24 09:00:00,25,1018.4,0.8,69,19,25000,18.52,,,110,,,,,,,,,,,wg-a,,,,AAXX 24094 07690 12675 /1110 10250 20190 30154 40184 51008 60006 81200 90900=
07690,1996-07-24 12:00:00,26,1017.8,-0.6,79,22,10000,11.112,,,170,,,,,,,,,,,wg-a,,,,AAXX 24124 07690 12460 /1706 10260 20220 30148 40178 58006 60006 83200 91200=
07690,1996-07-24 15:00:00,26,1016.2,-1.6,84,23,12000,22.224,,,190,,,,,,,,,,,wg-a,,,,AAXX 24154 07690 12462 21912 10260 20230 30132 40162 58016 60006 82200 91500=
07690,1996-07-25 09:00:00,26,1012.4,-0.3,84,23,8000,22.224,,,100,,,,,,,,,,,wg-a,,,,AAXX 25094 07690 12458 /1012 10260 20230 30094 40124 58003 60006 81101 90900=
07690,1996-07-25 12:00:00,26,1012.4,0,84,23,8000,22.224,,,100,,,,,,,,,,,wg-a,,,,AAXX 25124 07690 12/58 /1012 10260 20230 30094 40124 50000 60006 91200=
07690,1996-07-25 15:00:00,26,1011.9,-0.5,84,23,7000,31.484,,,90,,,,,,,,,,,wg-a,,,,AAXX 25154 07690 12457 /0917 10260 20230 30089 40119 55005 60006 81101 91500=
07690,1996-07-25 18:00:00,25,1012.3,0.4,89,23,4000,7.408,,,100,23.3,27.1,,,,,,,,,wg-a,,,,AAXX 25184 07690 12340 31004 10250 20230 30093 40123 53004 60006 83601 91800 333 10271 20233=
07690,1996-07-25 21:00:00,23,1013.4,1.1,94,22,8000,3.704,,,230,,,,,,,,,,,wg-a,,,,AAXX 25214 07690 12/58 22302 10230 20220 30104 40134 51011 60006 80001 92100=
07690,1996-07-26 00:00:00,22,1013.7,0.3,94,21,9000,11.112,,,260,,,,,,,,,,,wg-a,,,,AAXX 26004 07690 12/59 02606 10220 20210 30107 40137 51003 60006 80000 90000=
07690,1996-07-26 03:00:00,22,1013.5,-0.2,88,20,9000,11.112,,,340,,,,,,,,,,,wg-a,,,,AAXX 26034 07690 12/59 03406 10220 20200 30105 40135 55002 60006 80000 90300=
07690,1996-07-26 06:00:00,22,1014,0.5,88,20,7000,11.112,,,330,21.2,24.7,,,,,,,,,wg-a,,,,AAXX 26064 07690 02/57 /3306 10220 20200 30110 40140 53005 60006 81030 90600 333 10247 20212 60004=
07690,1996-07-26 09:00:00,26,1015.3,1.3,84,23,9000,22.224,,,90,,,,,,,,,,,wg-a,,,,AAXX 26094 07690 12459 50912 10260 20230 30123 40153 51013 60006 81132 90900=
07690,1996-07-26 12:00:00,26,1014.7,-0.6,84,23,7000,18.52,,,100,,,,,,,,,,,wg-a,,,,AAXX 26124 07690 12/57 /1010 10260 20230 30117 40147 57006 60006 80000 91200=
07690,1996-07-26 15:00:00,27,1015,0.3,70,21,8000,3.704,,,130,,,,,,,,,,,wg-a,,,,AAXX 26154 07690 12458 61302 10270 20210 30120 40150 50003 60006 81182 91500=
07690,1996-07-26 18:00:00,28,1013.2,-1.8,66,21,10000,18.52,,,70,22.3,28,,,,,,,,,wg-a,,,,AAXX 26184 07690 12/60 /0710 10280 20210 30102 40132 58018 60006 81032 91800 333 10280 20223=
07690,1996-07-26 21:00:00,25,1015.6,2.4,74,20,10000,11.112,,,290,,,,,,,,,,,wg-a,,,,AAXX 26214 07690 12/60 42906 10250 20200 30126 40156 53024 60006 80002 92100=
07690,1996-07-27 00:00:00,25,1014.9,-0.7,69,19,10000,7.408,,,330,,,,,,,,,,,wg-a,,,,AAXX 27004 07690 12/60 /3304 10250 20190 30119 40149 58007 60006 90000=
07690,1996-07-27 03:00:00,26,1013.6,-1.3,65,19,12000,14.816,,,10,,,,,,,,,,1,wg-a,,,,AAXX 27034 07690 02/62 30108 10260 20190 30106 40136 56013 61000 70186 80002 90300 333 ////=
07690,1996-07-27 06:00:00,26,1015.2,1.6,70,20,15000,14.816,,61.116,20,24.6,29.1,,0,,,,,,2,wg-a,,,,AAXX 27064 07690 02565 70208 10260 20200 30122 40152 51016 60004 70286 81282 90600 333 10291 20246 60007 91033=
07690,1996-07-27 09:00:00,27,1017.8,2.6,70,21,7000,18.52,,,40,,,,0,,,,,,1,wg-a,,,,AAXX 27094 07690 12757 70410 10270 20210 30148 40178 52026 60007 70162 86502 90900=
07690,1996-07-27 12:00:00,28,1017.7,-0.1,66,21,10000,11.112,,,70,,,,,,,,,,3,wg-a,,,,AAXX 27124 07690 12760 70706 10280 20210 30147 40177 56001 60006 70362 8353/ 91200=
07690,1996-07-27 15:00:00,27,1017.1,-0.6,70,21,10000,11.112,,,100,,,,,,,,,,1,wg-a,,,,AAXX 27154 07690 02760 71006 10270 20210 30141 40171 55006 61000 70162 8453/ 91500 333 ////=
07690,1996-07-27 18:00:00,26,1016.9,-0.2,74,21,6000,7.408,,,40,25.8,28.8,,,,,,,,1,wg-a,,,,AAXX 27184 07690 32756 30404 10260 20210 30139 40169 58002 70161 81532 91800 333 10288 20258=
07690,1996-07-27 21:00:00,26,1016.4,-0.5,61,18,15000,7.408,,,30,,,,,,,,,,,wg-a,,,,AAXX 27214 07690 12765 40304 10260 20180 30134 40164 56005 60006 82580 92100=
07690,1996-07-28 00:00:00,25,1015.7,-0.7,61,17,15000,18.52,,,340,,,,,,,,,,,wg-a,,,,AAXX 28004 07690 12/65 43410 10250 20170 30127 40157 57007 60006 84082 90000=
07690,1996-07-28 03:00:00,22,1014.7,-1,83,19,10000,18.52,,,340,,,,1,,,,,,17,wg-a,,,,AAXX 28034 07690 12660 73410 10220 20190 30117 40147 58010 60017 71798 8538/ 90300=
07690,1996-07-28 06:00:00,20,1015.7,1,88,18,20000,14.816,,,330,20.3,27.4,,2,,,4,,,17,wg-a,,,,AAXX 28064 07690 02670 53308 10200 20180 30127 40157 53010 60044 71798 83983 90600 333 10274 20203 60027=
07690,1996-07-28 09:00:00,26,1016.3,0.6,70,20,20000,7.408,,,20,,,,,,,,,,,wg-a,,,,AAXX 28094 07690 12770 30204 10260 20200 30133 40163 50006 60006 81182 90900=
07690,1996-07-28 12:00:00,28,1015.7,-0.6,58,19,20000,29.632,,,90,,,,,,,,,,,wg-a,,,,AAXX 28124 07690 12770 /0916 10280 20190 30127 40157 58006 60006 81280 91200=
07690,1996-07-28 15:00:00,28,1015.9,0.2,55,18,25000,11.112,,,110,,,,,,,,,,,wg-a,,,,AAXX 28154 07690 12675 /1106 10280 20180 30129 40159 50002 60006 81280 91500=
07690,1996-07-28 18:00:00,24,1015.2,-0.7,78,20,25000,7.408,,,190,20.3,28.6,,,,,,,,,wg-a,,,,AAXX 28184 07690 12675 /1904 10240 20200 30122 40152 56007 60006 81280 91800 333 10286 20203=
07690,1996-07-28 21:00:00,23,1016.1,0.9,83,20,15000,3.704,,,250,,,,,,,,,,,wg-a,,,,AAXX 28214 07690 12/65 12502 10230 20200 30131 40161 51009 60006 81030 92100=
07690,1996-07-29 00:00:00,22,1015.7,-0.4,83,19,15000,14.816,,,330,,,,,,,,,,,wg-a,,,,AAXX 29004 07690 12/65 03308 10220 20190 30127 40157 58004 60006 80000 90000=
07690,1996-07-29 03:00:00,21,1015,-0.7,83,18,15000,14.816,,,340,,,,,,,,,,,wg-a,,,,AAXX 29034 07690 12/65 03408 10210 20180 30120 40150 56007 60006 80000 90300=
07690,1996-07-29 06:00:00,22,1015.9,0.9,73,17,20000,18.52,,,340,21.2,24.4,,0,,,,,,,wg-a,,,,AAXX 29064 07690 02/70 03410 10220 20170 30129 40159 53009 60004 80000 90600 333 10244 20212 60007=
07690,1996-07-29 09:00:00,26,1015.9,0,70,20,20000,14.816,,,200,,,,,,,,,,,wg-a,,,,AAXX 29094 07690 12570 /2008 10260 20200 30129 40159 50000 60006 81100 90900=
07690,1996-07-29 12:00:00,26,1015.4,-0.5,74,21,14000,22.224,,,190,,,,,,,,,,,wg-a,,,,AAXX 29124 07690 12664 /1912 10260 20210 30124 40154 58005 60006 81200 91200=
07690,1996-07-29 15:00:00,26,1014.3,-1.1,79,22,8000,14.816,,,180,,,,,,,,,,,wg-a,,,,AAXX 29154 07690 12558 /1808 10260 20220 30113 40143 58011 60006 81100 91500=
07690,1996-07-29 18:00:00,25,1013.3,-1,83,22,6000,7.408,,,130,22,26.8,,,,,,,,,wg-a,,,,AAXX 29184 07690 12456 /1304 10250 20220 30103 40133 56010 60006 81200 91800 333 10268 20220=
07690,1996-07-29 21:00:00,23,1013.3,-0,94,22,10000,3.704,,,220,,,,,,,,,,,wg-a,,,,AAXX 29214 07690 12460 32202 10230 20220 30103 40133 55000 60006 83500 92100=
07690,1996-07-30 00:00:00,22,1011.7,-1.6,94,21,10000,7.408,,,360,,,,,,,,,,,wg-a,,,,AAXX 30004 07690 12/60 53604 10220 20210 30087 40117 58016 60006 83031 90000=
07690,1996-07-30 03:00:00,21,1010.1,-1.6,94,20,10000,7.408,,,40,,,,,,,,,,,wg-a,,,,AAXX 30034 07690 12460 70404 10210 20200 30071 40101 56016 60006 85530 90300=
07690,1996-07-30 06:00:00,22,1009.7,-0.4,94,21,7000,18.52,,,90,20.8,24.7,,,,,,,,,wg-a,,,,AAXX 30064 07690 02457 70910 10220 20210 30067 40097 55004 60006 8257/ 90600 333 10247 20208 60004=
07690,1996-07-30 09:00:00,26,1011.5,1.8,61,18,9000,14.816,,,130,,,,,,,,,,,wg-a,,,,AAXX 30094 07690 12459 /1308 10260 20180 30085 40115 51018 60006 84232 90900=
07690,1996-07-30 12:00:00,26,1011.1,-0.4,65,19,18000,14.816,,,190,,,,,,,,,,,wg-a,,,,AAXX 30124 07690 12468 /1908 10260 20190 30081 40111 58004 60006 81201 91200=
07690,1996-07-30 15:00:00,25,1011.2,0.1,74,20,20000,7.408,,,150,,,,,,,,,,,wg-a,,,,AAXX 30154 07690 12570 /1504 10250 20200 30082 40112 50001 60006 81200 91500=
07690,1996-07-30 18:00:00,25,1011.4,0.2,69,19,18000,7.408,,,110,22.4,26.4,,,,,,,,,wg-a,,,,AAXX 30184 07690 12668 /1104 10250 20190 30084 40114 53002 60006 81800 91800 333 10264 20224=
07690,1996-07-30 21:00:00,22,1012.7,1.3,83,19,15000,11.112,,,320,,,,,,,,,,,wg-a,,,,AAXX 30214 07690 12665 /3206 10220 20190 30097 40127 53013 60006 81500 92100=
07690,1996-07-31 00:00:00,22,1012.5,-0.2,78,18,20000,11.112,,,340,,,,,,,,,,,wg-a,,,,AAXX 31004 07690 12/70 /3406 10220 20180 30095 40125 57002 60006 81030 90000=
07690,1996-07-31 03:00:00,23,1012.3,-0.2,69,17,20000,14.816,,,340,,,,,,,,,,,wg-a,,,,AAXX 31034 07690 12570 23408 10230 20170 30093 40123 55002 60006 81530 90300=
07690,1996-07-31 06:00:00,24,1013.8,1.5,61,16,500,14.816,,,340,21.6,24.7,,,,,,,,,wg-a,,,,AAXX 31064 07690 02/00 33408 10240 20160 30108 40138 53015 60006 83030 90600 333 10247 20216 60004=
07690,1996-07-31 09:00:00,28,1014.6,0.8,55,18,50000,18.52,,,170,,,,,,,,,,,wg-a,,,,AAXX 31094 07690 12584 /1710 10280 20180 30116 40146 51008 60006 81130 90900=
07690,1996-07-31 12:00:00,28,1015.7,1.1,62,20,50000,11.112,,,160,,,,,,,,,,,wg-a,,,,AAXX 31124 07690 12684 /1606 10280 20200 30127 40157 50011 60006 81800 91200=
07690,1996-07-31 15:00:00,29,1015.3,-0.4,58,20,50000,7.408,,,140,,,,,,,,,,,wg-a,,,,AAXX 31154 07690 12784 /1404 10290 20200 30123 40153 58004 60006 81500 91500=
07690,1996-07-31 18:00:00,27,1014.8,-0.5,51,16,40000,7.408,,,180,24,29.6,,,,,,,,,wg-a,,,,AAXX 31184 07690 12782 /1804 10270 20160 30118 40148 56005 60006 81500 91800 333 10296 20240=
07690,1996-07-31 21:00:00,23,1015.5,0.7,61,15,40000,7.408,,,330,,,,,,,,,,,wg-a,,,,AAXX 31214 07690 12/82 03304 10230 20150 30125 40155 51007 60006 80000 92100=
07690,1996-08-01 00:00:00,23,1015.5,-0,53,13,40000,14.816,,,340,,,,,,,,,,,wg-a,,,,AAXX 01004 07690 12/82 03408 10230 20130 30125 40155 54000 60006 80000 90000=
07690,1996-08-01 03:00:00,22,1016.1,0.6,57,13,40000,14.816,,,340,,,,,,,,,,,wg-a,,,,AAXX 01034 07690 12/82 03408 10220 20130 30131 40161 53006 60006 80000 90300=
07690,1996-08-01 06:00:00,22,1017.4,1.3,60,14,40000,11.112,,,340,21.3,27.4,,,,,,,,,wg-a,,,,AAXX 01064 07690 02/82 43406 10220 20140 30144 40174 53013 60006 80002 90600 333 10274 20213 60004=
07690,1996-08-01 09:00:00,27,1018.3,0.9,58,18,40000,11.112,,,130,,,,,,,,,,,wg-a,,,,AAXX 01094 07690 12/82 61306 10270 20180 30153 40183 51009 60006 80002 90900=
07690,1996-08-01 12:00:00,28,1018.2,-0.1,62,20,40000,11.112,,,120,,,,,,,,,,,wg-a,,,,AAXX 01124 07690 12782 21206 10280 20200 30152 40182 58001 60006 81101 91200=
07690,1996-08-01 15:00:00,28,1017.4,-0.8,62,20,40000,11.112,,,150,,,,,,,,,,,wg-a,,,,AAXX 01154 07690 12782 /1506 10280 20200 30144 40174 57008 60006 81201 91500=
07690,1996-08-01 18:00:00,26,1017.2,-0.2,74,21,500,7.408,,,190,22.3,28.3,,,,,,,,,wg-a,,,,AAXX 01184 07690 12/00 01904 10260 20210 30142 40172 56002 60006 80000 91800 333 10283 20223=
07690,1996-08-01 21:00:00,23,1017.9,0.7,83,20,20000,7.408,,,320,,,,,,,,,,,wg-a,,,,AAXX 01214 07690 12/70 03204 10230 20200 30149 40179 51007 60006 80000 92100=
07690,1996-08-02 00:00:00,22,1017.4,-0.5,69,16,20000,14.816,,,330,,,,,,,,,,,wg-a,,,,AAXX 02004 07690 12/70 33308 10220 20160 30144 40174 57005 60006 80001 90000=
07690,1996-08-02 03:00:00,22,1017.2,-0.2,65,15,20000,11.112,,,340,,,,,,,,,,,wg-a,,,,AAXX 02034 07690 12/70 23406 10220 20150 30142 40172 56002 60006 80001 90300=
07690,1996-08-02 06:00:00,22,1018.6,1.4,65,15,20000,11.112,,,330,21.1,26,,,,,,,,,wg-a,,,,AAXX 02064 07690 02/70 13306 10220 20150 30156 40186 53014 60006 80001 90600 333 10260 20211 60004=
07690,1996-08-02 09:00:00,26,1019.3,0.7,79,22,20000,11.112,,,110,,,,,,,,,,,wg-a,,,,AAXX 02094 07690 12/70 /1106 10260 20220 30163 40193 52007 60006 81082 90900=
07690,1996-08-02 12:00:00,27,1019.2,-0.1,79,23,10000,14.816,,,120,,,,,,,,,,,wg-a,,,,AAXX 02124 07690 12460 /1208 10270 20230 30162 40192 56001 60006 81282 91200=
07690,1996-08-02 15:00:00,26,1018.5,-0.7,79,22,7000,14.816,,,190,,,,,,,,,,,wg-a,,,,AAXX 02154 07690 12457 /1908 10260 20220 30155 40185 56007 60006 81283 91500=
07690,1996-08-02 18:00:00,25,1018,-0.5,89,23,8000,7.408,,,130,22.2,27.1,,,,,,,,,wg-a,,,,AAXX 02184 07690 12458 /1304 10250 20230 30150 40180 55005 60006 81201 91800 333 10271 20222=
07690,1996-08-02 21:00:00,24,1017.5,-0.5,89,22,12000,11.112,,,50,,,,,,,,,,,wg-a,,,,AAXX 02214 07690 12/62 /0506 10240 20220 30145 40175 58005 60006 80001 92100=
07690,1996-08-03 00:00:00,24,1017.4,-0.1,89,22,12000,11.112,,,70,,,,,,,,,,,wg-a,,,,AAXX 03004 07690 12362 30706 10240 20220 30144 40174 55001 60006 82570 90000=
07690,1996-08-03 03:00:00,21,1016.7,-0.7,88,19,12000,11.112,,,330,,,,,,,,,,,wg-a,,,,AAXX 03034 07690 12462 73306 10210 20190 30137 40167 58007 60006 81572 90300=
07690,1996-08-03 06:00:00,21,1016.7,0,83,18,8000,14.816,,,330,20.5,25.3,,,,,,,,,wg-a,,,,AAXX 03064 07690 02/58 23308 10210 20180 30137 40167 50000 60006 82030 90600 333 10253 20205 60004=
07690,1996-08-03 09:00:00,26,1016.5,-0.2,74,21,10000,14.816,,,130,,,,,,,,,,,wg-a,,,,AAXX 03094 07690 12460 /1308 10260 20210 30135 40165 55002 60006 81130 90900=
07690,1996-08-03 12:00:00,27,1016.3,-0.2,54,17,12000,11.112,,,150,,,,,,,,,,,wg-a,,,,AAXX 03124 07690 12562 /1506 10270 20170 30133 40163 58002 60006 81230 91200=
07690,1996-08-03 15:00:00,27,1014.8,-1.5,66,20,15000,14.816,,,130,,,,,,,,,,,wg-a,,,,AAXX 03154 07690 12665 /1308 10270 20200 30118 40148 58015 60006 81200 91500=
07690,1996-08-03 18:00:00,26,1014.2,-0.6,79,22,8000,22.224,,,100,21.4,27.4,,,,,,,,,wg-a,,,,AAXX 03184 07690 12458 /1012 10260 20220 30112 40142 56006 60006 81800 91800 333 10274 20214=
07690,1996-08-03 21:00:00,25,1015.1,0.9,83,22,10000,25.928,,,80,,,,,,,,,,,wg-a,,,,AAXX 03214 07690 12460 30814 10250 20220 30121 40151 51009 60006 83500 92100=
07690,1996-08-04 00:00:00,23,1015.6,0.5,89,21,10000,7.408,,,330,,,,,,,,,,,wg-a,,,,AAXX 04004 07690 12460 23304 10230 20210 30126 40156 51005 60006 82500 90000=
07690,1996-08-04 03:00:00,21,1014.7,-0.9,94,20,11000,18.52,,,330,,,,,,,,,,,wg-a,,,,AAXX 04034 07690 12/61 /3310 10210 20200 30117 40147 56009 60006 90300=
07690,1996-08-04 06:00:00,22,1015.3,0.6,78,18,10000,14.816,,,330,20.8,25.6,,,,,,,,,wg-a,,,,AAXX 04064 07690 02560 23308 10220 20180 30123 40153 53006 60006 82500 90600 333 10256 20208 60004=
07690,1996-08-04 09:00:00,26,1015.1,-0.2,79,22,18000,14.816,,,190,,,,,,,,,,,wg-a,,,,AAXX 04094 07690 12568 /1908 10260 20220 30121 40151 58002 60006 81200 90900=
07690,1996-08-04 12:00:00,27,1015.3,0.2,70,21,15000,14.816,,,160,,,,,,,,,,,wg-a,,,,AAXX 04124 07690 12565 /1608 10270 20210 30123 40153 53002 60006 81200 91200=
07690,1996-08-04 15:00:00,27,1014.4,-0.9,66,20,20000,7.408,,,180,,,,,,,,,,,wg-a,,,,AAXX 04154 07690 12570 /1804 10270 20200 30114 40144 58009 60006 81200 91500=
07690,1996-08-04 18:00:00,25,1014.2,-0.2,69,19,20000,3.704,,,160,21.8,27.3,,,,,,,,,wg-a,,,,AAXX 04184 07690 12670 21602 10250 20190 30112 40142 55002 60006 81880 91800 333 10273 20218=
07690,1996-08-04 21:00:00,23,1014.6,0.4,78,19,20000,7.408,,,330,,,,,,,,,,,wg-a,,,,AAXX 04214 07690 12/70 03304 10230 20190 30116 40146 51004 60006 80000 92100=
07690,1996-08-05 00:00:00,22,1014.7,0.1,73,17,20000,11.112,,,330,,,,,,,,,,,wg-a,,,,AAXX 05004 07690 12/70 03306 10220 20170 30117 40147 53001 60006 80000 90000=
07690,1996-08-05 03:00:00,21,1014,-0.7,69,15,20000,14.816,,,340,,,,,,,,,,,wg-a,,,,AAXX 05034 07690 12/70 03408 10210 20150 30110 40140 58007 60006 80000 90300=
07690,1996-08-05 06:00:00,21,1015,1,73,16,15000,18.52,,,330,20.3,25.3,,,,,,,,,wg-a,,,,AAXX 05064 07690 02565 73310 10210 20160 30120 40150 53010 60006 8488/ 90600 333 10253 20203 60004=
07690,1996-08-05 09:00:00,23,1014.8,-0.2,69,17,15000,22.224,,,20,,,,,,,,,,,wg-a,,,,AAXX 05094 07690 12565 70212 10230 20170 30118 40148 56002 60006 8487/ 90900=
07690,1996-08-05 12:00:00,27,1014.2,-0.6,70,21,15000,11.112,,,120,,,,,,,,,,,wg-a,,,,AAXX 05124 07690 12565 31206 10270 20210 30112 40142 58006 60006 8320/ 91200=
07690,1996-08-05 15:00:00,24,1014.2,-0,83,21,10000,3.704,,,240,,,,,,,,,,,wg-a,,,,AAXX 05154 07690 12460 72402 10240 20210 30112 40142 55000 60006 8397/ 91500=
07690,1996-08-05 18:00:00,23,1013.6,-0.6,78,19,10000,14.816,,,340,20.6,26.5,,,,,,,,,wg-a,,,,AAXX 05184 07690 12460 53408 10230 20190 30106 40136 56006 60006 82963 91800 333 10265 20206=
07690,1996-08-05 21:00:00,22,1014.4,0.8,78,18,15000,11.112,,,330,,,,,,,,,,,wg-a,,,,AAXX 05214 07690 12465 /3306 10220 20180 30114 40144 51008 60006 81202 92100=
07690,1996-08-06 00:00:00,21,1014.1,-0.3,83,18,15000,18.52,,,330,,,,,,,,,,,wg-a,,,,AAXX 06004 07690 12/65 13310 10210 20180 30111 40141 58003 60006 81070 90000=
07690,1996-08-06 03:00:00,20,1013.8,-0.3,83,17,15000,14.816,,,330,,,,,,,,,,,wg-a,,,,AAXX 06034 07690 12465 /3308 10200 20170 30108 40138 55003 60006 82502 90300=
07690,1996-08-06 06:00:00,20,1014.6,0.8,78,16,20000,18.52,,,340,19.4,22.6,,,,,,,,,wg-a,,,,AAXX 06064 07690 02470 43410 10200 20160 30116 40146 52008 60006 83502 90600 333 10226 20194 60004=
07690,1996-08-06 09:00:00,25,1015.1,0.5,74,20,20000,11.112,,,120,,,,,,,,,,,wg-a,,,,AAXX 06094 07690 12570 41206 10250 20200 30121 40151 53005 60006 82802 90900=
07690,1996-08-06 12:00:00,26,1015.6,0.5,74,21,12000,14.816,,,130,,,,,,,,,,,wg-a,,,,AAXX 06124 07690 12562 31308 10260 20210 30126 40156 53005 60006 82202 91200=
07690,1996-08-06 15:00:00,26,1015.5,-0.1,74,21,9000,11.112,,,150,,,,,,,,,,,wg-a,,,,AAXX 06154 07690 12459 41506 10260 20210 30125 40155 55001 60006 83260 91500=
07690,1996-08-06 18:00:00,25,1015.5,-0,79,21,10000,7.408,,,170,20,26.8,,,,,,,,,wg-a,,,,AAXX 06184 07690 12460 51704 10250 20210 30125 40155 55000 60006 84260 91800 333 10268 20200=
07690,1996-08-06 21:00:00,23,1016.4,0.9,89,21,10000,7.408,,,240,,,,,,,,,,,wg-a,,,,AAXX 06214 07690 12460 22404 10230 20210 30134 40164 51009 60006 82500 92100=
07690,1996-08-07 00:00:00,22,1016.1,-0.3,94,21,10000,3.704,,,310,,,,,,,,,,,wg-a,,,,AAXX 07004 07690 12460 /3102 10220 20210 30131 40161 58003 60006 81500 90000=
07690,1996-08-07 03:00:00,20,1016.3,0.2,94,19,10000,11.112,,,320,,,,,,,,,,,wg-a,,,,AAXX 07034 07690 12460 33206 10200 20190 30133 40163 51002 60006 81502 90300=
07690,1996-08-07 06:00:00,21,1016.8,0.5,88,19,9000,14.816,,,330,20,24.6,,,,,,,,,wg-a,,,,AAXX 07064 07690 02459 23308 10210 20190 30138 40168 53005 60006 81501 90600 333 10246 20200 60004=
07690,1996-08-07 09:00:00,25,1016.5,-0.3,74,20,12000,14.816,,,170,,,,,,,,,,,wg-a,,,,AAXX 07094 07690 12562 /1708 10250 20200 30135 40165 58003 60006 81130 90900=
07690,1996-08-07 12:00:00,27,1015.9,-0.6,66,20,25000,14.816,,,150,,,,,,,,,,,wg-a,,,,AAXX 07124 07690 12675 /1508 10270 20200 30129 40159 58006 60006 81201 91200=
07690,1996-08-07 15:00:00,26,1015.8,-0.1,74,21,25000,11.112,,,150,,,,,,,,,,,wg-a,,,,AAXX 07154 07690 12475 /1506 10260 20210 30128 40158 55001 60006 81202 91500=
07690,1996-08-07 18:00:00,24,1015.6,-0.2,83,21,15000,3.704,,,260,21,27.1,,,,,,,,,wg-a,,,,AAXX 07184 07690 12465 62602 10240 20210 30126 40156 55002 60006 84532 91800 333 10271 20210=
07690,1996-08-07 21:00:00,24,1015.1,-0.5,65,17,12000,18.52,,,330,,,,,,,,,,,wg-a,,,,AAXX 07214 07690 12662 23310 10240 20170 30121 40151 56005 60006 82900 92100=
07690,1996-08-08 00:00:00,22,1013.7,-1.4,73,17,15000,14.816,,,330,,,,,,,,,,,wg-a,,,,AAXX 08004 07690 12/65 23308 10220 20170 30107 40137 58014 60006 80001 90000=
07690,1996-08-08 03:00:00,22,1013.1,-0.6,69,16,15000,11.112,,,350,,,,,,,,,,,wg-a,,,,AAXX 08034 07690 12/65 03506 10220 20160 30101 40131 55006 60006 80000 90300=
07690,1996-08-08 06:00:00,21,1013.7,0.6,73,16,20000,18.52,,,330,20.8,24.6,,,,,,,,,wg-a,,,,AAXX 08064 07690 02570 63310 10210 20160 30107 40137 53006 60006 82582 90600 333 10246 20208 60004=
07690,1996-08-08 09:00:00,20,1013,-0.7,88,18,8000,22.224,,,330,,,,0,,,,,,80,wg-a,,,,AAXX 08094 07690 12358 73312 10200 20180 30100 40130 58007 60007 78098 8398/ 90900=
07690,1996-08-08 12:00:00,25,1013.4,0.4,79,21,15000,14.816,,,240,,,,0,,,,,,1,wg-a,,,,AAXX 08124 07690 02565 /2408 10250 20210 30104 40134 50004 60016 70198 81982 91200 333 60007=
07690,1996-08-08 15:00:00,27,1012,-1.4,70,21,12000,14.816,,,210,,,,0,,,,,,,wg-a,,,,AAXX 08154 07690 12562 /2108 10270 20210 30090 40120 58014 60007 81983 91500=
07690,1996-08-08 18:00:00,25,1011.7,-0.3,79,21,20000,22.224,,,210,19.6,26.9,,,,,,,,,wg-a,,,,AAXX 08184 07690 32670 32112 10250 20210 30087 40117 55003 81202 91800 333 10269 20196=
07690,1996-08-08 21:00:00,22,1013.8,2.1,88,20,20000,7.408,,,330,,,,,,,,,,,wg-a,,,,AAXX 08214 07690 32/70 03304 10220 20200 30108 40138 51021 80000 92100=
07690,1996-08-09 00:00:00,21,1014.1,0.3,83,18,15000,14.816,,,340,,,,,,,,,,,wg-a,,,,AAXX 09004 07690 12/65 03408 10210 20180 30111 40141 50003 60006 80000 90000=
07690,1996-08-09 03:00:00,21,1014.1,-0,78,17,15000,14.816,,,330,,,,,,,,,,,wg-a,,,,AAXX 09034 07690 12/65 03308 10210 20170 30111 40141 55000 60006 80000 90300=
07690,1996-08-09 06:00:00,21,1014.8,0.7,78,17,20000,14.816,,,340,19.7,24.8,,,,,1,,,,wg-a,,,,AAXX 09064 07690 12570 /3408 10210 20170 30118 40148 52007 60014 81501 90600 333 10248 20197=
07690,1996-08-09 12:00:00,26,1015.2,1.2,84,23,12000,16.668,,,180,,,,,,,,,,,wg-a,,,,AAXX 09124 07690 12562 /1809 10260 20230 30122 40152 51012 60006 81101 91200=
07690,1996-08-09 18:00:00,26,1013.9,-0.3,70,20,15000,11.112,,,200,20.7,28.5,,,,,,,,,wg-a,,,,AAXX 09184 07690 12665 22006 10260 20200 30109 40139 56003 60006 81131 91800 333 10285 20207=
07690,1996-08-09 21:00:00,23,1014.4,0.5,83,20,15000,7.408,,,330,,,,,,,,,,,wg-a,,,,AAXX 09214 07690 12/65 03304 10230 20200 30114 40144 50005 60006 80000 92100=
07690,1996-08-10 00:00:00,22,1014,-0.4,83,19,15000,11.112,,,330,,,,,,,,,,,wg-a,,,,AAXX 10004 07690 12/65 03306 10220 20190 30110 40140 57004 60006 80000 90000=
07690,1996-08-10 03:00:00,22,1013.4,-0.6,78,18,15000,14.816,,,340,,,,,,,,,,,wg-a,,,,AAXX 10034 07690 12/65 03408 10220 20180 30104 40134 57006 60006 80000 90300=
07690,1996-08-10 06:00:00,22,1013.9,0.5,78,18,20000,14.816,,,340,21.2,25.6,,,,,,,,,wg-a,,,,AAXX 10064 07690 02/70 03408 10220 20180 30109 40139 53005 60006 80000 90600 333 10256 20212 60004=
07690,1996-08-10 09:00:00,27,1014.3,0.4,66,20,20000,11.112,,,110,,,,,,,,,,,wg-a,,,,AAXX 10094 07690 12670 /1106 10270 20200 30113 40143 53004 60006 81101 90900=
07690,1996-08-10 12:00:00,28,1013.6,-0.7,66,21,15000,14.816,,,160,,,,,,,,,,,wg-a,,,,AAXX 10124 07690 12665 21608 10280 20210 30106 40136 58007 60006 82201 91200=
07690,1996-08-10 15:00:00,27,1012.4,-1.2,79,23,13000,11.112,,,140,,,,,,,,,,,wg-a,,,,AAXX 10154 07690 12663 /1406 10270 20230 30094 40124 58012 60006 81230 91500=
07690,1996-08-10 18:00:00,26,1011.6,-0.8,79,22,25000,3.704,,,130,21.8,28,,,,,,,,,wg-a,,,,AAXX 10184 07690 12675 41302 10260 20220 30086 40116 56008 60006 81281 91800 333 10280 20218=
07690,1996-08-10 21:00:00,24,1011.3,-0.3,89,22,20000,0,,,0,,,,,,,,,,,wg-a,,,,AAXX 10214 07690 12670 70000 10240 20220 30083 40113 58003 60006 81582 92100=
07690,1996-08-11 00:00:00,23,1011.8,0.5,89,21,20000,11.112,,,320,,,,,,,,,,17,wg-a,,,,AAXX 11004 07690 12670 /3206 10230 20210 30088 40118 53005 60006 71791 82962 90000=
07690,1996-08-11 03:00:00,21,1009.3,-2.5,78,17,12000,3.704,,,50,,,,3,,,,,,1,wg-a,,,,AAXX 11034 07690 12662 20502 10210 20170 30063 40093 56025 60037 70198 81960 90300=
07690,1996-08-11 06:00:00,21,1009.6,0.3,78,17,20000,14.816,,,320,20.7,25.8,,,,,3,,,3,wg-a,,,,AAXX 11064 07690 12670 33208 10210 20170 30066 40096 53003 60034 70398 81860 90600 333 10258 20207=
07690,1996-08-11 09:00:00,25,1009.6,0,69,19,40000,11.112,,,200,,,,,,,,,,,wg-a,,,,AAXX 11094 07690 12682 42006 10250 20190 30066 40096 50000 60006 81282 90900=
07690,1996-08-11 12:00:00,27,1008.6,-0.9,70,21,500,7.408,,,100,,,,,,,,,,,wg-a,,,,AAXX 11124 07690 12600 71004 10270 20210 30057 40086 56009 60006 81282 91200=
07690,1996-08-11 15:00:00,22,1009.7,1,78,18,9000,18.52,,50.004,340,,,,1,,,,,,60,wg-a,,,,AAXX 11154 07690 12359 73410 10220 20180 30067 40097 53010 60017 76098 8498/ 91500 333 91027=
07690,1996-08-11 18:00:00,22,1008,-1.7,73,17,25000,14.816,,50.004,320,20.8,27.3,,0,,,,,,1,wg-a,,,,AAXX 11184 07690 12775 33208 10220 20170 30050 40080 56017 60007 70198 81232 91800 333 10273 20208 91027=
07690,1996-08-11 21:00:00,19,1007.7,-0.3,88,17,25000,11.112,,,310,,,,,,,,,,,wg-a,,,,AAXX 11214 07690 12/75 23106 10190 20170 30047 40077 56003 60006 81031 92100=
07690,1996-08-12 00:00:00,19,1007.1,-0.6,83,16,25000,14.816,,,320,,,,,,,,,,13,wg-a,,,,AAXX 12004 07690 12575 23208 10190 20160 30041 40071 56006 60006 71300 81930 90000=
07690,1996-08-12 03:00:00,18,1006.7,-0.4,83,15,25000,14.816,,,320,,,,,,,,,,,wg-a,,,,AAXX 12034 07690 12/75 /3208 10180 20150 30037 40067 58004 60006 8//01 90300=
07690,1996-08-12 06:00:00,19,1006.9,0.2,73,14,50000,18.52,,,340,17.1,21.7,,,,,1,,,,wg-a,,,,AAXX 12064 07690 02584 33410 10190 20140 30039 40069 53002 60006 81230 90600 333 10217 20171 60014=
07690,1996-08-12 09:00:00,23,1006.6,-0.3,65,16,50000,11.112,,,210,,,,,,,,,,,wg-a,,,,AAXX 12094 07690 12584 42106 10230 20160 30036 40066 58003 60006 81232 90900=
07690,1996-08-12 12:00:00,28,1005.1,-1.4,45,15,50000,18.52,,,10,,,,,,,,,,,wg-a,,,,AAXX 12124 07690 12584 /0110 10280 20150 30022 40051 58014 60006 81230 91200=
07690,1996-08-12 15:00:00,28,1004.5,-0.6,42,14,50000,31.484,,,260,,,,,,,,,,,wg-a,,,,AAXX 12154 07690 12584 /2617 10280 20140 30016 40045 55006 60006 81200 91500=
07690,1996-08-12 18:00:00,26,1006.2,1.6,51,15,50000,31.484,,,80,18.9,29.4,,,,,,,,,wg-a,,,,AAXX 12184 07690 12684 /0817 10260 20150 30032 40062 53016 60006 81201 91800 333 10294 20189=
07690,1996-08-12 21:00:00,23,1009.2,3,83,20,500,7.408,,,110,,,,,,,,,,,wg-a,,,,AAXX 12214 07690 12/00 01104 10230 20200 30062 40092 51030 60006 80000 92100=
07690,1996-08-13 00:00:00,19,1009.7,0.5,68,13,500,22.224,,,330,,,,,,,,,,,wg-a,,,,AAXX 13004 07690 12400 13312 10190 20130 30067 40097 50005 60006 81500 90000=
07690,1996-08-13 03:00:00,19,1009.4,-0.3,60,11,10000,22.224,,,330,,,,,,,,,,,wg-a,,,,AAXX 13034 07690 12/60 /3312 10190 20110 30064 40094 57003 60006 90300=
07690,1996-08-13 06:00:00,19,1009.8,0.4,60,11,40000,14.816,,,340,18.3,26,,,,,,,,,wg-a,,,,AAXX 13064 07690 02682 /3408 10190 20110 30068 40098 51004 60006 81500 90600 333 10260 20183 60004=
07690,1996-08-13 09:00:00,23,1010.8,1,61,15,50000,7.408,,,210,,,,,,,,,,,wg-a,,,,AAXX 13094 07690 12584 22104 10230 20150 30078 40108 51010 60006 82800 90900=
07690,1996-08-13 12:00:00,26,1010.9,0.1,54,16,50000,14.816,,,110,,,,,,,,,,,wg-a,,,,AAXX 13124 07690 12684 21108 10260 20160 30079 40109 53001 60006 82200 91200=
07690,1996-08-13 15:00:00,26,1009.9,-1,61,18,50000,25.928,,,90,,,,,,,,,,,wg-a,,,,AAXX 13154 07690 12684 50914 10260 20180 30069 40099 58010 60006 82280 91500=
07690,1996-08-13 18:00:00,25,1009.9,-0,69,19,500,29.632,,,90,18.7,26.4,,,,,,,,,wg-a,,,,AAXX 13184 07690 12700 /0916 10250 20190 30069 40099 55000 60006 81201 91800 333 10264 20187=
07690,1996-08-14 00:00:00,19,1012.3,0.5,83,16,20000,14.816,,,330,,,,,,,,,,,wg-a,,,,AAXX 14004 07690 12/70 03308 10190 20160 30092 40123 50005 60006 80000 90000=
07690,1996-08-14 03:00:00,18,1012.2,-0.1,73,13,20000,22.224,,,330,,,,,,,,,,,wg-a,,,,AAXX 14034 07690 12/70 03312 10180 20130 30091 40122 58001 60006 80000 90300=
07690,1996-08-14 06:00:00,19,1012.5,0.3,64,12,500,22.224,,,330,17.6,24.7,,,,,,,,,wg-a,,,,AAXX 14064 07690 02500 /3312 10190 20120 30094 40125 51003 60006 81501 90600 333 10247 20176 60004=
07690,1996-08-14 09:00:00,24,1013.1,0.7,65,17,500,7.408,,,130,,,,0,,,,,,,wg-a,,,,AAXX 14094 07690 12500 21304 10240 20170 30101 40131 51007 60007 82100 90900=
07690,1996-08-14 12:00:00,25,1012.3,-0.8,69,19,500,14.816,,,100,,,,,,,,,,,wg-a,,,,AAXX 14124 07690 12500 21008 10250 20190 30093 40123 58008 60006 82201 91200=
07690,1996-08-14 15:00:00,25,1012.7,0.4,74,20,25000,25.928,,,110,,,,,,,,,,,wg-a,,,,AAXX 14154 07690 12475 41114 10250 20200 30097 40127 51004 60006 83231 91500=
07690,1996-08-14 18:00:00,24,1012.7,-0,65,17,25000,14.816,,,100,18.5,25.9,,,,,,,,,wg-a,,,,AAXX 14184 07690 32475 21008 10240 20170 30097 40127 55000 82230 91800 333 10259 20185=
07690,1996-08-14 21:00:00,23,1012.9,0.2,83,20,15000,11.112,,,100,,,,,,,,,,,wg-a,,,,AAXX 14214 07690 12565 31006 10230 20200 30099 40129 52002 60006 83501 92100=
07690,1996-08-15 00:00:00,20,1012.9,0,83,17,12000,14.816,,,330,,,,,,,,,,,wg-a,,,,AAXX 15004 07690 12562 23308 10200 20170 30099 40129 50000 60006 82501 90000=
07690,1996-08-15 03:00:00,19,1012.7,-0.2,88,17,15000,11.112,,,340,,,,,,,,,,,wg-a,,,,AAXX 15034 07690 12565 23406 10190 20170 30097 40127 58002 60006 82500 90300=
07690,1996-08-15 06:00:00,20,1013.1,0.4,78,16,25000,18.52,,,330,18.9,24,,,,,,,,,wg-a,,,,AAXX 15064 07690 02575 23310 10200 20160 30101 40131 53004 60006 81502 90600 333 10240 20189 60004=
07690,1996-08-15 09:00:00,24,1013.7,0.6,74,19,500,11.112,,,190,,,,,,,,,,,wg-a,,,,AAXX 15094 07690 12500 /1906 10240 20190 30107 40137 53006 60006 81202 90900=
07690,1996-08-15 12:00:00,25,1013.6,-0.1,69,19,500,14.816,,,170,,,,,,,,,,,wg-a,,,,AAXX 15124 07690 12500 21708 10250 20190 30106 40136 58001 60006 81202 91200=
07690,1996-08-15 15:00:00,25,1013.1,-0.5,74,20,25000,18.52,,,200,,,,,,,,,,,wg-a,,,,AAXX 15154 07690 12575 /2010 10250 20200 30101 40131 56005 60006 81903 91500=
07690,1996-08-15 18:00:00,23,1012.8,-0.3,83,20,25000,11.112,,,200,19.6,25.7,,,,,,,,,wg-a,,,,AAXX 15184 07690 12675 22006 10230 20200 30098 40128 55003 60006 82860 91800 333 10257 20196=
07690,1996-08-15 21:00:00,22,1014.5,1.7,83,19,20000,3.704,,,280,,,,,,,,,,,wg-a,,,,AAXX 15214 07690 12670 /2802 10220 20190 30115 40145 51017 60006 81500 92100=
07690,1996-08-16 00:00:00,21,1014.6,0.1,83,18,20000,14.816,,,330,,,,,,,,,,,wg-a,,,,AAXX 16004 07690 12570 23308 10210 20180 30116 40146 52001 60006 82500 90000=
07690,1996-08-16 06:00:00,22,1015.4,0.8,73,17,25000,11.112,,,340,20.8,23.4,,,,,,,,,wg-a,,,,AAXX 16064 07690 02/75 33406 10220 20170 30124 40154 53008 60006 83030 90600 333 10234 20208 60004=
07690,1996-08-16 09:00:00,26,1016,0.6,70,20,15000,11.112,,,140,,,,,,,,,,,wg-a,,,,AAXX 16094 07690 12665 /1406 10260 20200 30130 40160 52006 60006 81200 90900=
07690,1996-08-16 12:00:00,27,1015.8,-0.2,66,20,15000,14.816,,,150,,,,,,,,,,,wg-a,,,,AAXX 16124 07690 12665 /1508 10270 20200 30128 40158 56002 60006 81200 91200=
07690,1996-08-16 15:00:00,26,1015.9,0.1,74,21,15000,7.408,,,200,,,,,,,,,,,wg-a,,,,AAXX 16154 07690 12665 /2004 10260 20210 30129 40159 51001 60006 81200 91500=
07690,1996-08-16 18:00:00,24,1016,0.1,78,20,15000,7.408,,,240,21.9,27.1,,,,,,,,,wg-a,,,,AAXX 16184 07690 12665 /2404 10240 20200 30130 40160 51001 60006 81400 91800 333 10271 20219=
07690,1996-08-16 21:00:00,22,1016.8,0.8,78,18,15000,7.408,,,340,,,,,,,,,,,wg-a,,,,AAXX 16214 07690 12/65 03404 10220 20180 30138 40168 51008 60006 80000 92100=
07690,1996-08-17 06:00:00,22,1017.5,0.8,73,17,20000,14.816,,,340,21.2,24.3,,,,,,,,,wg-a,,,,AAXX 17064 07690 02/70 13408 10220 20170 30145 40175 53008 60006 80001 90600 333 10243 20212 60004=
07690,1996-08-17 09:00:00,28,1017.7,0.2,51,17,25000,7.408,,,120,,,,,,,,,,,wg-a,,,,AAXX 17094 07690 12675 /1204 10280 20170 30147 40177 52002 60006 81101 90900=
07690,1996-08-17 12:00:00,28,1017.2,-0.5,58,19,25000,11.112,,,150,,,,,,,,,,,wg-a,,,,AAXX 17124 07690 12675 /1506 10280 20190 30142 40172 58005 60006 81201 91200=
07690,1996-08-17 15:00:00,27,1016.6,-0.6,66,20,25000,11.112,,,140,,,,,,,,,,,wg-a,,,,AAXX 17154 07690 12675 /1406 10270 20200 30136 40166 56006 60006 81200 91500=
07690,1996-08-17 18:00:00,26,1016.1,-0.5,70,20,25000,3.704,,,150,21.9,28.3,,,,,,,,,wg-a,,,,AAXX 17184 07690 12/75 01502 10260 20200 30131 40161 56005 60006 80000 91800 333 10283 20219=
07690,1996-08-17 21:00:00,22,1016.3,0.2,83,19,15000,11.112,,,320,,,,,,,,,,,wg-a,,,,AAXX 17214 07690 12/65 03206 10220 20190 30133 40163 52002 60006 80000 92100=
07690,1996-08-18 00:00:00,21,1015.8,-0.5,78,17,15000,7.408,,,330,,,,,,,,,,,wg-a,,,,AAXX 18004 07690 12/65 03304 10210 20170 30128 40158 58005 60006 80000 90000=
07690,1996-08-18 03:00:00,21,1015.3,-0.5,73,16,15000,11.112,,,340,,,,,,,,,,,wg-a,,,,AAXX 18034 07690 12465 /3406 10210 20160 30123 40153 58005 60006 81500 90300=
07690,1996-08-18 06:00:00,21,1015.3,0,78,17,20000,11.112,,,330,20.1,25.6,,,,,,,,,wg-a,,,,AAXX 18064 07690 02570 33306 10210 20170 30123 40153 50000 60006 81580 90600 333 10256 20201 60004=
07690,1996-08-18 09:00:00,25,1016.1,0.8,79,21,12000,14.816,,,100,,,,,,,,,,,wg-a,,,,AAXX 18094 07690 12762 /1008 10250 20210 30131 40161 51008 60006 81230 90900=
07690,1996-08-18 12:00:00,27,1015.8,-0.3,74,22,8000,11.112,,,140,,,,,,,,,,,wg-a,,,,AAXX 18124 07690 12658 /1406 10270 20220 30128 40158 58003 60006 81180 91200=
07690,1996-08-18 15:00:00,26,1015.1,-0.7,74,21,10000,7.408,,,170,,,,,,,,,,,wg-a,,,,AAXX 18154 07690 12660 /1704 10260 20210 30121 40151 58007 60006 81180 91500=
07690,1996-08-18 18:00:00,24,1014.4,-0.7,83,21,15000,3.704,,,240,20.8,26.6,,,,,,,,,wg-a,,,,AAXX 18184 07690 12665 22402 10240 20210 30114 40144 57007 60006 81280 91800 333 10266 20208=
07690,1996-08-18 21:00:00,22,1015.4,1,73,17,20000,7.408,,,320,,,,,,,,,,,wg-a,,,,AAXX 18214 07690 12770 33204 10220 20170 30124 40154 53010 60006 81530 92100=
07690,1996-08-19 00:00:00,21,1015.5,0.1,69,15,11000,11.112,,,340,,,,,,,,,,,wg-a,,,,AAXX 19004 07690 12/61 /3406 10210 20150 30125 40155 52001 60006 90000=
07690,1996-08-19 03:00:00,22,1015.3,-0.2,60,14,20000,11.112,,,340,,,,,,,,,,,wg-a,,,,AAXX 19034 07690 12/70 03406 10220 20140 30123 40153 56002 60006 80000 90300=
07690,1996-08-19 06:00:00,22,1016.1,0.8,60,14,20000,11.112,,,340,20.7,24.1,,,,,,,,,wg-a,,,,AAXX 19064 07690 02470 33406 10220 20140 30131 40161 53008 60006 81530 90600 333 10241 20207 60004=
07690,1996-08-19 09:00:00,27,1017,0.9,62,19,15000,18.52,,,90,,,,0,,,,,,,wg-a,,,,AAXX 19094 07690 12565 /0910 10270 20190 30140 40170 51009 60007 81230 90900=
07690,1996-08-19 12:00:00,27,1016.6,-0.4,62,19,18000,14.816,,,120,,,,,,,,,,,wg-a,,,,AAXX 19124 07690 12668 31208 10270 20190 30136 40166 56004 60006 81230 91200=
07690,1996-08-19 15:00:00,26,1016.2,-0.4,65,19,12000,11.112,,,170,,,,,,,,,,,wg-a,,,,AAXX 19154 07690 12662 /1706 10260 20190 30132 40162 57004 60006 81901 91500=
07690,1996-08-19 18:00:00,24,1015.3,-0.9,78,20,10000,3.704,,,350,21.6,27.5,,,,,,,,,wg-a,,,,AAXX 19184 07690 32/60 33502 10240 20200 30123 40153 56009 81063 91800 333 10275 20216=
07690,1996-08-19 21:00:00,23,1015.9,0.6,69,17,15000,18.52,,,340,,,,,,,,,,,wg-a,,,,AAXX 19214 07690 12/65 33410 10230 20170 30129 40159 53006 60006 83030 92100=
07690,1996-08-20 00:00:00,22,1015.9,0,73,17,15000,14.816,,,350,,,,,,,,,,,wg-a,,,,AAXX 20004 07690 12/65 33508 10220 20170 30129 40159 50000 60006 83030 90000=
07690,1996-08-20 03:00:00,21,1015.3,-0.6,73,16,20000,18.52,,,340,,,,,,,,,,,wg-a,,,,AAXX 20034 07690 12/70 03410 10210 20160 30123 40153 58006 60006 80000 90300=
07690,1996-08-20 06:00:00,21,1015.7,0.4,73,16,500,18.52,,,340,20.4,25,,,,,,,,,wg-a,,,,AAXX 20064 07690 02/00 03410 10210 20160 30127 40157 53004 60006 80000 90600 333 10250 20204 60004=
07690,1996-08-20 09:00:00,27,1016.4,0.7,48,15,500,7.408,,,100,,,,,,,,,,,wg-a,,,,AAXX 20094 07690 12600 /1004 10270 20150 30134 40164 53007 60006 81100 90900=
07690,1996-08-20 12:00:00,28,1016.1,-0.3,62,20,25000,14.816,,,110,,,,,,,,,,,wg-a,,,,AAXX 20124 07690 12675 /1108 10280 20200 30131 40161 56003 60006 81201 91200=
07690,1996-08-20 15:00:00,27,1015.2,-0.9,62,19,25000,14.816,,,110,,,,,,,,,,,wg-a,,,,AAXX 20154 07690 12675 21108 10270 20190 30122 40152 58009 60006 81202 91500=
07690,1996-08-20 18:00:00,24,1014.3,-0.9,78,20,25000,7.408,,,250,21,27.9,,,,,,,,,wg-a,,,,AAXX 20184 07690 12/75 22504 10240 20200 30113 40143 56009 60006 80002 91800 333 10279 20210=
07690,1996-08-20 21:00:00,22,1015,0.7,69,16,15000,11.112,,,320,,,,,,,,,,,wg-a,,,,AAXX 20214 07690 12/65 03206 10220 20160 30120 40150 52007 60006 80000 92100=
07690,1996-08-21 00:00:00,22,1014.8,-0.2,57,13,15000,11.112,,,340,,,,,,,,,,,wg-a,,,,AAXX 21004 07690 12665 23406 10220 20130 30118 40148 58002 60006 82500 90000=
07690,1996-08-21 03:00:00,21,1013.6,-1.2,64,14,15000,14.816,,,340,,,,,,,,,,,wg-a,,,,AAXX 21034 07690 12/65 /3408 10210 20140 30106 40136 58012 60006 80002 90300=
07690,1996-08-21 06:00:00,21,1014.2,0.6,64,14,20000,22.224,,,330,20.4,24,,,,,,,,,wg-a,,,,AAXX 21064 07690 02/70 73312 10210 20140 30112 40142 53006 60006 85084 90600 333 10240 20204 60004=
07690,1996-08-21 09:00:00,26,1014.6,0.4,65,19,20000,7.408,,,80,,,,,,,,,,,wg-a,,,,AAXX 21094 07690 12/70 20804 10260 20190 30116 40146 51004 60006 82080 90900=
07690,1996-08-21 12:00:00,27,1013.6,-1,66,20,12000,25.928,,,90,,,,,,,,,,,wg-a,,,,AAXX 21124 07690 12662 /0914 10270 20200 30106 40136 57010 60006 82282 91200=
07690,1996-08-21 15:00:00,25,1013.1,-0.5,83,22,12000,18.52,,,90,,,,1,,,,,,17,wg-a,,,,AAXX 21154 07690 12462 70910 10250 20220 30101 40131 58005 60017 71798 8297/ 91500=
07690,1996-08-21 18:00:00,22,1012,-1.1,83,19,8000,18.52,,,330,20.8,27.1,,2,,,,,,60,wg-a,,,,AAXX 21184 07690 12558 73310 10220 20190 30090 40120 57011 60027 76098 8297/ 91800 333 10271 20208=
07690,1996-08-21 21:00:00,20,1011.5,-0.5,88,18,12000,18.52,,,330,,,,,,,,,,3,wg-a,,,,AAXX 21214 07690 02562 /3310 10200 20180 30085 40115 58005 61000 70361 81530 92100 333 ////=
07690,1996-08-22 00:00:00,18,1012.3,0.7,94,17,6000,29.632,,,280,,,,3,,,,,,81,wg-a,,,,AAXX 22004 07690 02556 72816 10180 20170 30092 40123 53007 60036 78196 8696/ 90000 333 60037=
07690,1996-08-22 03:00:00,19,1010.2,-2,88,17,15000,18.52,,,240,,,,1,,,,,,21,wg-a,,,,AAXX 22034 07690 12565 72410 10190 20170 30072 40102 55020 60017 72196 8327/ 90300=
07690,1996-08-22 06:00:00,18,1010.3,-0,88,16,40000,11.112,,,340,17.2,22.3,,0,,,7,,,21,wg-a,,,,AAXX 22064 07690 02482 /3406 10180 20160 30072 40103 55000 60074 72196 81532 90600 333 10223 20172 60007=
07690,1996-08-22 09:00:00,23,1011.1,0.9,69,17,40000,11.112,,,70,,,,,,,,,,,wg-a,,,,AAXX 22094 07690 12482 30706 10230 20170 30081 40111 51009 60006 81131 90900=
07690,1996-08-22 12:00:00,24,1011.5,0.4,69,18,35000,11.112,,,170,,,,,,,,,,,wg-a,,,,AAXX 22124 07690 12581 51706 10240 20180 30085 40115 53004 60006 81131 91200=
07690,1996-08-22 15:00:00,23,1011.6,0.1,78,19,10000,3.704,,,120,,,,,,,,,,61,wg-a,,,,AAXX 22154 07690 02560 /1202 10230 20190 30086 40116 51001 61000 76162 81362 91500 333 ////=
07690,1996-08-22 18:00:00,21,1011.6,-0,88,19,10000,11.112,,,240,17.9,24.8,,0,,,,,,1,wg-a,,,,AAXX 22184 07690 12560 /2406 10210 20190 30086 40116 54000 60007 70196 81100 91800 333 10248 20179=
07690,1996-08-22 21:00:00,20,1012.5,0.9,94,19,12000,14.816,,,330,,,,,,,,,,,wg-a,,,,AAXX 22214 07690 32/62 03308 10200 20190 30095 40125 51009 80000 92100=
07690,1996-08-23 00:00:00,19,1012.5,-0.1,88,17,12000,18.52,,,330,,,,,,,,,,,wg-a,,,,AAXX 23004 07690 12/62 03310 10190 20170 30094 40125 58001 60006 80000 90000=
07690,1996-08-23 03:00:00,18,1011.8,-0.7,88,16,12000,22.224,,,330,,,,,,,,,,,wg-a,,,,AAXX 23034 07690 12462 23312 10180 20160 30087 40118 56007 60006 82500 90300=
07690,1996-08-23 06:00:00,19,1011.9,0.1,83,16,500,18.52,,,340,17.5,21.2,,,,,,,,,wg-a,,,,AAXX 23064 07690 12400 /3410 10190 20160 30088 40119 53001 60004 81500 90600 333 10212 20175=
07690,1996-08-23 09:00:00,24,1012.7,0.9,65,17,25000,11.112,,,130,,,,,,,,,,,wg-a,,,,AAXX 23094 07690 12475 /1306 10240 20170 30097 40127 53009 60006 81100 90900=
07690,1996-08-23 12:00:00,25,1012.7,0,69,19,15000,11.112,,,130,,,,,,,,,,,wg-a,,,,AAXX 23124 07690 12565 /1306 10250 20190 30097 40127 50000 60006 81100 91200=
07690,1996-08-23 15:00:00,25,1012.2,-0.5,69,19,20000,11.112,,,150,,,,,,,,,,,wg-a,,,,AAXX 23154 07690 12570 /1506 10250 20190 30092 40122 56005 60006 81200 91500=
07690,1996-08-23 18:00:00,23,1012,-0.2,78,19,15000,7.408,,,70,18.6,25.2,,,,,,,,,wg-a,,,,AAXX 23184 07690 12565 /0704 10230 20190 30090 40120 57002 60006 81400 91800 333 10252 20186=
07690,1996-08-23 21:00:00,21,1012.6,0.6,88,19,15000,7.408,,,330,,,,,,,,,,,wg-a,,,,AAXX 23214 07690 12/65 03304 10210 20190 30096 40126 50006 60006 80000 92100=
07690,1996-08-24 00:00:00,19,1012.1,-0.5,94,18,15000,11.112,,,330,,,,,,,,,,,wg-a,,,,AAXX 24004 07690 12/65 23306 10190 20180 30091 40121 58005 60006 82030 90000=
07690,1996-08-24 03:00:00,18,1011.6,-0.6,100,18,15000,11.112,,,330,,,,,,,,,,,wg-a,,,,AAXX 24034 07690 12/65 03306 10180 20180 30085 40116 58006 60006 80000 90300=
07690,1996-08-24 06:00:00,19,1011.3,-0.2,88,17,18000,14.816,,,330,18.1,23.3,,,,,,,,,wg-a,,,,AAXX 24064 07690 02568 33308 10190 20170 30083 40113 56002 60006 81530 90600 333 10233 20181 60004=
07690,1996-08-24 09:00:00,24,1012.3,1,74,19,15000,3.704,,,150,,,,0,,,,,,,wg-a,,,,AAXX 24094 07690 12565 51502 10240 20190 30093 40123 51010 60007 81832 90900=
07690,1996-08-24 12:00:00,22,1011.6,-0.7,88,20,11000,3.704,,,220,,,,,,,,,,61,wg-a,,,,AAXX 24124 07690 02461 72202 10220 20200 30086 40116 58007 60006 76161 8387/ 91200 333 61000=
07690,1996-08-24 15:00:00,25,1010.2,-1.4,74,20,12000,11.112,,,180,,,,,,,,,,1,wg-a,,,,AAXX 24154 07690 02562 /1806 10250 20200 30072 40102 58014 61000 70161 81231 91500 333 ////=
07690,1996-08-24 18:00:00,24,1009.5,-0.7,78,20,25000,22.224,,,220,19.2,24.9,,0,,,,,,1,wg-a,,,,AAXX 24184 07690 12575 /2212 10240 20200 30065 40095 56007 60007 70161 81130 91800 333 10249 20192=
07690,1996-08-24 21:00:00,21,1009.9,0.4,94,20,25000,11.112,,,330,,,,,,,,,,,wg-a,,,,AAXX 24214 07690 12575 /3306 10210 20200 30069 40099 51004 60006 81500 92100=
07690,1996-08-25 00:00:00,20,1009.5,-0.4,78,16,20000,11.112,,,320,,,,,,,,,,,wg-a,,,,AAXX 25004 07690 12/70 03206 10200 20160 30065 40095 58004 60006 80000 90000=
07690,1996-08-25 03:00:00,19,1009.6,0.1,78,15,20000,18.52,,,330,,,,,,,,,,,wg-a,,,,AAXX 25034 07690 12/70 03310 10190 20150 30066 40096 51001 60006 80000 90300=
07690,1996-08-25 06:00:00,19,1010.6,1,68,13,11000,18.52,,,340,18.4,23.7,,,,,1,,,,wg-a,,,,AAXX 25064 07690 02/61 /3410 10190 20130 30076 40106 51010 60006 90600 333 10237 20184 60014=
07690,1996-08-25 09:00:00,24,1011.8,1.2,57,15,40000,7.408,,,250,,,,,,,,,,,wg-a,,,,AAXX 25094 07690 12682 22504 10240 20150 30088 40118 51012 60006 82202 90900=
07690,1996-08-25 12:00:00,26,1011.7,-0.1,70,20,500,18.52,,,170,,,,,,,,,,,wg-a,,,,AAXX 25124 07690 12500 21710 10260 20200 30087 40117 58001 60006 82202 91200=
07690,1996-08-25 15:00:00,26,1011.2,-0.5,65,19,40000,14.816,,,100,,,,,,,,,,,wg-a,,,,AAXX 25154 07690 12682 41008 10260 20190 30082 40112 58005 60006 82204 91500=
07690,1996-08-25 18:00:00,25,1011,-0.2,74,20,500,25.928,,,80,18.8,26.4,,,,,,,,,wg-a,,,,AAXX 25184 07690 12700 40814 10250 20200 30080 40110 55002 60006 81202 91800 333 10264 20188=
07690,1996-08-25 21:00:00,23,1012.3,1.3,73,18,500,18.52,,,60,,,,,,,,,,,wg-a,,,,AAXX 25214 07690 12/00 30610 10230 20180 30093 40123 51013 60006 80002 92100=
07690,1996-08-26 00:00:00,19,1012.6,0.2,83,16,500,18.52,,,330,,,,,,,,,,,wg-a,,,,AAXX 26004 07690 12/00 23310 10190 20160 30095 40126 53002 60006 80002 90000=
07690,1996-08-26 03:00:00,19,1012.7,0.1,73,14,20000,18.52,,,330,,,,,,,,,,,wg-a,,,,AAXX 26034 07690 12/70 13310 10190 20140 30096 40127 53001 60006 80002 90300=
07690,1996-08-26 06:00:00,19,1013.9,1.2,73,14,500,18.52,,,330,18.1,24.7,,,,,,,,,wg-a,,,,AAXX 26064 07690 02400 23310 10190 20140 30108 40139 53012 60006 81502 90600 333 10247 20181 60004=
07690,1996-08-26 09:00:00,24,1014.7,0.9,69,18,500,11.112,,,190,,,,,,,,,,,wg-a,,,,AAXX 26094 07690 12500 /1906 10240 20180 30117 40147 53009 60006 81242 90900=
07690,1996-08-26 12:00:00,26,1013.9,-0.8,54,16,500,14.816,,,120,,,,,,,,,,,wg-a,,,,AAXX 26124 07690 12500 /1208 10260 20160 30109 40139 58008 60006 81202 91200=
07690,1996-08-26 15:00:00,24,1013.4,-0.5,83,21,25000,25.928,,,200,,,,,,,,,,,wg-a,,,,AAXX 26154 07690 12575 /2014 10240 20210 30104 40134 57005 60006 81212 91500=
07690,1996-08-26 18:00:00,24,1013.6,0.2,83,21,20000,7.408,,,360,18.7,26.9,,,,,,,,,wg-a,,,,AAXX 26184 07690 12470 /3604 10240 20210 30106 40136 53002 60006 81962 91800 333 10269 20187=
07690,1996-08-26 21:00:00,20,1015,1.4,88,18,15000,18.52,,,250,,,,1,,,,,,21,wg-a,,,,AAXX 26214 07690 12465 72510 10200 20180 30120 40150 51014 60017 72162 8126/ 92100=
07690,1996-08-27 00:00:00,19,1014.5,-0.6,88,17,15000,11.112,,,290,,,,,,,,,,2,wg-a,,,,AAXX 27004 07690 12865 32906 10190 20170 30114 40145 57006 60016 70261 83060 90000=
07690,1996-08-27 03:00:00,18,1013.8,-0.7,88,16,15000,14.816,,,280,,,,,,,,,,,wg-a,,,,AAXX 27034 07690 12/65 52808 10180 20160 30107 40138 55007 60006 81032 90300=
07690,1996-08-27 06:00:00,19,1014.7,0.9,78,15,40000,11.112,,,340,18,23.8,,,,,1,,,,wg-a,,,,AAXX 27064 07690 12/82 23406 10190 20150 30116 40147 53009 60014 82031 90600 333 10238 20180=
07690,1996-08-27 09:00:00,24,1015.7,1.1,65,17,500,11.112,,,150,,,,,,,,,,,wg-a,,,,AAXX 27094 07690 12500 31506 10240 20170 30127 40157 51011 60006 81531 90900=
07690,1996-08-27 12:00:00,25,1015,-0.7,69,19,500,18.52,,,100,,,,,,,,,,,wg-a,,,,AAXX 27124 07690 12500 51010 10250 20190 30120 40150 58007 60006 81132 91200=
07690,1996-08-27 15:00:00,25,1014,-1,65,18,25000,18.52,,,110,,,,,,,,,,,wg-a,,,,AAXX 27154 07690 12475 41110 10250 20180 30110 40140 58010 60006 82101 91500=
07690,1996-08-27 21:00:00,21,1013.7,0.1,83,18,15000,14.816,,,320,,,,,,,,,,,wg-a,,,,AAXX 27214 07690 12565 73208 10210 20180 30107 40137 53001 60006 8157/ 92100=
07690,1996-08-28 00:00:00,20,1012.6,-1.1,78,16,15000,11.112,,,330,,,,1,,,,,,60,wg-a,,,,AAXX 28004 07690 02565 73306 10200 20160 30096 40126 58011 60016 76098 8497/ 90000 333 60017=
07690,1996-08-28 03:00:00,18,1010.2,-2.5,83,15,15000,14.816,,,320,,,,0,,,,,,1,wg-a,,,,AAXX 28034 07690 12665 /3208 10180 20150 30071 40102 56025 60007 70161 81500 90300=
07690,1996-08-28 06:00:00,18,1008.9,-1.3,77,14,40000,11.112,,,320,16.9,23.9,,,,,1,,,1,wg-a,,,,AAXX 28064 07690 12/82 13206 10180 20140 30058 40089 56013 60014 70161 80001 90600 333 10239 20169=
07690,1996-08-28 09:00:00,24,1009.4,0.6,65,17,50000,25.928,,,90,,,,,,,,,,,wg-a,,,,AAXX 28094 07690 12684 /0914 10240 20170 30064 40094 53006 60006 81100 90900=
07690,1996-08-28 12:00:00,25,1009.9,0.5,61,17,50000,11.112,,,150,,,,,,,,,,,wg-a,,,,AAXX 28124 07690 12684 21506 10250 20170 30069 40099 51005 60006 82200 91200=
07690,1996-08-28 15:00:00,25,1009.3,-0.6,57,16,40000,14.816,,,90,,,,,,,,,,,wg-a,,,,AAXX 28154 07690 12682 /0908 10250 20160 30063 40093 55006 60006 81200 91500=
07690,1996-08-28 18:00:00,25,1009.4,0.1,54,15,40000,22.224,,,80,18,26,,,,,,,,,wg-a,,,,AAXX 28184 07690 12682 /0812 10250 20150 30064 40094 53001 60006 81270 91800 333 10260 20180=
07690,1996-08-28 21:00:00,23,1011.1,1.7,73,18,20000,14.816,,,90,,,,,,,,,,,wg-a,,,,AAXX 28214 07690 12570 20908 10230 20180 30081 40111 51017 60006 82500 92100=
07690,1996-08-29 00:00:00,19,1012,0.8,60,11,20000,22.224,,,330,,,,,,,,,,,wg-a,,,,AAXX 29004 07690 12570 23312 10190 20110 30089 40120 51008 60006 82500 90000=
07690,1996-08-29 03:00:00,18,1011.9,-0.1,59,10,20000,22.224,,,330,,,,,,,,,,,wg-a,,,,AAXX 29034 07690 12/70 03312 10180 20100 30088 40119 56001 60006 80000 90300=
07690,1996-08-29 06:00:00,16,1012.4,0.5,59,8,40000,25.928,,,330,15.5,24.9,,,,,,,,,wg-a,,,,AAXX 29064 07690 02582 /3314 10160 20080 30093 40124 53005 60006 81500 90600 333 10249 20155 60004=
07690,1996-08-29 09:00:00,23,1013.3,1,61,15,40000,11.112,,,200,,,,,,,,,,,wg-a,,,,AAXX 29094 07690 12682 32006 10230 20150 30103 40133 53010 60006 82230 90900=
07690,1996-08-29 12:00:00,24,1013.1,-0.2,61,16,40000,11.112,,,170,,,,,,,,,,,wg-a,,,,AAXX 29124 07690 12682 21706 10240 20160 30101 40131 55002 60006 82200 91200=
07690,1996-08-29 15:00:00,24,1012.7,-0.4,61,16,40000,11.112,,,160,,,,,,,,,,,wg-a,,,,AAXX 29154 07690 12682 31606 10240 20160 30097 40127 57004 60006 82260 91500=
07690,1996-08-29 18:00:00,23,1013,0.3,61,15,40000,7.408,,,180,15.1,25,,,,,,,,,wg-a,,,,AAXX 29184 07690 12682 21804 10230 20150 30100 40130 53003 60006 82400 91800 333 10250 20151=
07690,1996-08-29 21:00:00,19,1014.1,1,78,15,20000,11.112,,,330,,,,,,,,,,,wg-a,,,,AAXX 29214 07690 12/70 /3306 10190 20150 30110 40141 50010 60006 80000 92100=
07690,1996-08-30 00:00:00,18,1014.7,0.6,77,14,20000,14.816,,,330,,,,,,,,,,,wg-a,,,,AAXX 30004 07690 12470 53308 10180 20140 30116 40147 53006 60006 85500 90000=
07690,1996-08-30 03:00:00,17,1014.3,-0.4,77,13,20000,18.52,,,340,,,,,,,,,,,wg-a,,,,AAXX 30034 07690 12470 23410 10170 20130 30112 40143 57004 60006 82500 90300=
07690,1996-08-30 06:00:00,18,1015.1,0.8,68,12,35000,11.112,,,340,17,23,,,,,,,,,wg-a,,,,AAXX 30064 07690 02481 /3406 10180 20120 30120 40151 53008 60006 81800 90600 333 10230 20170 60004=
07690,1996-08-30 09:00:00,23,1015.7,0.7,61,15,40000,11.112,,,130,,,,,,,,,,,wg-a,,,,AAXX 30094 07690 12582 /1306 10230 20150 30127 40157 53007 60006 81202 90900=
07690,1996-08-30 12:00:00,24,1015.5,-0.2,61,16,35000,14.816,,,120,,,,,,,,,,,wg-a,,,,AAXX 30124 07690 12581 /1208 10240 20160 30125 40155 57002 60006 81202 91200=
07690,1996-08-30 15:00:00,24,1015.2,-0.3,61,16,35000,11.112,,,130,,,,,,,,,,,wg-a,,,,AAXX 30154 07690 12581 /1306 10240 20160 30122 40152 56003 60006 81302 91500=
07690,1996-08-30 18:00:00,21,1015.3,0.1,78,17,500,7.408,,,250,17.6,24.8,,,,,,,,,wg-a,,,,AAXX 30184 07690 12500 72504 10210 20170 30123 40153 51001 60006 81362 91800 333 10248 20176=
07690,1996-08-30 21:00:00,20,1015.1,-0.2,73,15,15000,7.408,,,350,,,,,,,,,,,wg-a,,,,AAXX 30214 07690 12765 73504 10200 20150 30121 40151 56002 60006 81532 92100=
07690,1996-08-31 00:00:00,19,1015.6,0.4,73,14,15000,7.408,,,300,,,,,,,,,,,wg-a,,,,AAXX 31004 07690 12765 73004 10190 20140 30125 40156 51004 60006 82532 90000=
07690,1996-08-31 03:00:00,19,1015.2,-0.4,68,13,11000,18.52,,,330,,,,,,,,,,,wg-a,,,,AAXX 31034 07690 12/61 /3310 10190 20130 30121 40152 56004 60006 90300=
07690,1996-08-31 06:00:00,18,1015.4,0.2,68,12,50000,18.52,,,340,17.9,20.9,,,,,,,,,wg-a,,,,AAXX 31064 07690 02684 /3410 10180 20120 30123 40154 53002 60006 81900 90600 333 10209 20179 60004=
07690,1996-08-31 09:00:00,24,1016,0.7,50,13,40000,11.112,,,140,,,,0,,,,,,,wg-a,,,,AAXX 31094 07690 12682 21406 10240 20130 30130 40160 51007 60007 81101 90900=
07690,1996-08-31 12:00:00,25,1015.7,-0.3,57,16,40000,18.52,,,170,,,,,,,,,,,wg-a,,,,AAXX 31124 07690 12682 21710 10250 20160 30127 40157 57003 60006 81201 91200=
07690,1996-08-31 15:00:00,25,1015.6,-0.1,57,16,500,14.816,,,220,,,,,,,,,,,wg-a,,,,AAXX 31154 07690 12500 22208 10250 20160 30126 40156 58001 60006 82800 91500=
07690,1996-08-31 18:00:00,22,1015.5,-0.1,69,16,500,14.816,,,220,18.4,25.4,,,,,,,,,wg-a,,,,AAXX 31184 07690 32600 22208 10220 20160 30125 40155 56001 82830 91800 333 10254 20184=
07690,1996-08-31 21:00:00,21,1016.8,1.3,64,14,15000,11.112,,,340,,,,,,,,,,,wg-a,,,,AAXX 31214 07690 12665 43406 10210 20140 30138 40168 50013 60006 81580 92100=
07690,1996-09-01 00:00:00,20,1016.4,-0.5,64,13,15000,14.816,,,340,,,,,,,,,,,wg-a,,,,AAXX 01004 07690 12/65 /3408 10200 20130 30133 40164 56005 60006 85030 90000=
07690,1996-09-01 03:00:00,19,1016,-0.4,68,13,15000,14.816,,,330,,,,,,,,,,,wg-a,,,,AAXX 01034 07690 12/65 23308 10190 20130 30129 40160 56004 60006 82030 90300=
07690,1996-09-01 06:00:00,19,1016.2,0.2,68,13,10000,18.52,,,340,18.5,22.2,,,,,,,,,wg-a,,,,AAXX 01064 07690 02/60 /3410 10190 20130 30131 40162 53002 60006 90600 333 10222 20185 60004=
07690,1996-09-01 09:00:00,24,1016.4,0.3,57,15,20000,7.408,,,100,,,,,,,,,,,wg-a,,,,AAXX 01094 07690 12670 21004 10240 20150 30134 40164 51003 60006 81201 90900=
07690,1996-09-01 12:00:00,25,1015.9,-0.5,65,18,20000,14.816,,,150,,,,,,,,,,,wg-a,,,,AAXX 01124 07690 12670 31508 10250 20180 30129 40159 58005 60006 81202 91200=
07690,1996-09-01 15:00:00,24,1015.3,-0.6,65,17,20000,14.816,,,120,,,,,,,,,,,wg-a,,,,AAXX 01154 07690 12670 41208 10240 20170 30123 40153 57006 60006 83970 91500=
07690,1996-09-01 18:00:00,23,1014.8,-0.5,65,16,20000,18.52,,,90,18.7,25.3,,,,,,,,,wg-a,,,,AAXX 01184 07690 12570 /0910 10230 20160 30118 40148 56005 60006 84250 91800 333 10253 20187=
07690,1996-09-01 21:00:00,22,1015.3,0.5,69,16,20000,11.112,,,40,,,,,,,,,,,wg-a,,,,AAXX 01214 07690 12570 50406 10220 20160 30123 40153 51005 60006 82970 92100=
07690,1996-09-02 00:00:00,19,1015.8,0.4,88,17,20000,11.112,,,330,,,,,,,,,,,wg-a,,,,AAXX 02004 07690 12670 /3306 10190 20170 30127 40158 51004 60006 82970 90000=
07690,1996-09-02 03:00:00,18,1014.1,-1.7,83,15,20000,14.816,,,330,,,,,,,,,,,wg-a,,,,AAXX 02034 07690 12670 73308 10180 20150 30110 40141 58017 60006 8353/ 90300=
07690,1996-09-02 06:00:00,18,1013.7,-0.4,77,14,35000,7.408,,,340,17.7,23.4,,,,,,,,,wg-a,,,,AAXX 02064 07690 02481 43404 10180 20140 30106 40137 55004 60006 81830 90600 333 10234 20177 60004=
07690,1996-09-02 09:00:00,23,1013.1,-0.5,53,13,50000,7.408,,,240,,,,,,,,,,,wg-a,,,,AAXX 02094 07690 12684 22404 10230 20130 30101 40131 56005 60006 82232 90900=
07690,1996-09-02 10:00:00,18,1013.2,0.3,68,12,40000,11.112,,,340,17.7,,,,,,,,,1,wg-a,,,,AAXX 02104 07690 32482 53406 10180 20120 30101 40132 51003 70198 81263 91000 333 20177=
07690,1996-09-02 12:00:00,23,1012.5,-0.6,50,12,25000,25.928,,,100,,,,,,,,,,15,wg-a,,,,AAXX 02124 07690 12675 61014 10230 20120 30095 40125 56006 60006 71511 83903 91200=
07690,1996-09-02 15:00:00,18,1012.9,0.3,77,14,500,14.816,,,280,,,,2,,,,,,29,wg-a,,,,AAXX 02154 07690 12400 72808 10180 20140 30098 40129 50003 60027 72998 83903 91500=
07690,1996-09-02 18:00:00,18,1013.2,0.3,68,12,40000,11.112,,,340,17.7,24.7,,,,,,,,1,wg-a,,,,AAXX 02184 07690 32482 53406 10180 20120 30101 40132 51003 70198 81263 91800 333 10247 20177=
07690,1996-09-02 21:00:00,17,1014,0.8,68,11,500,18.52,,,330,,,,,,,,,,,wg-a,,,,AAXX 02214 07690 12400 33310 10170 20110 30109 40140 51008 60006 81130 92100=
07690,1996-09-03 00:00:00,17,1013.8,-0.2,63,10,500,22.224,,,330,,,,,,,,,,,wg-a,,,,AAXX 03004 07690 12700 43312 10170 20100 30107 40138 58002 60006 84500 90000=
07690,1996-09-03 03:00:00,16,1013.2,-0.6,72,11,20000,14.816,,,340,,,,0,,,,,,60,wg-a,,,,AAXX 03034 07690 12670 73408 10160 20110 30101 40132 56006 60007 76061 875// 90300=
07690,1996-09-03 06:00:00,16,1012.4,-0.8,72,11,20000,18.52,,,340,14.7,18.4,,1,,,3,,,2,wg-a,,,,AAXX 03064 07690 02570 73410 10160 20110 30093 40124 56008 60034 70261 8757/ 90600 333 10184 20147 60017=
07690,1996-09-03 09:00:00,18,1012.3,-0.1,64,11,18000,14.816,,,330,,,,0,,,,,,,wg-a,,,,AAXX 03094 07690 12568 73308 10180 20110 30092 40123 56001 60007 8557/ 90900=
07690,1996-09-03 12:00:00,18,1012.1,-0.2,73,13,18000,18.52,,,320,,,,0,,,,,,3,wg-a,,,,AAXX 03124 07690 02568 73210 10180 20130 30090 40121 58002 60016 70362 8497/ 91200 333 60007=
07690,1996-09-03 15:00:00,18,1011.6,-0.5,83,15,15000,14.816,,,330,,,,1,,,,,,60,wg-a,,,,AAXX 03154 07690 12465 83308 10180 20150 30085 40116 58005 60017 76062 8587/ 91500=
07690,1996-09-03 18:00:00,16,1010.2,-1.4,94,15,9000,22.224,,,10,15.7,19.2,,5,,,,,,80,wg-a,,,,AAXX 03184 07690 12259 80112 10160 20150 30071 40102 58014 60057 78096 879// 91800 333 10192 20157=
07690,1996-09-03 21:00:00,16,1012.1,1.9,94,15,7000,18.52,,,330,,,,13,,,,,,81,wg-a,,,,AAXX 03214 07690 12257 83310 10160 20150 30090 40121 53019 60137 78196 869// 92100=
07690,1996-09-04 03:00:00,15,1010.9,-0,100,15,12000,14.816,,,340,,,,3,,,,,,61,wg-a,,,,AAXX 04034 07690 12462 83408 10150 20150 30078 40109 55000 60037 76166 8387/ 90300=
07690,1996-09-04 06:00:00,15,1011.6,0.7,94,14,500,14.816,,,330,15,16.7,,0,,,41,,,21,wg-a,,,,AAXX 04064 07690 02400 /3308 10150 20140 30085 40116 53007 60414 72162 83870 90600 333 10167 20150 60007=
07690,1996-09-04 09:00:00,21,1012.1,0.6,64,14,40000,14.816,,,260,,,,,,,,,,,wg-a,,,,AAXX 04094 07690 12482 /2608 10210 20140 30091 40121 53006 60006 81830 90900=
07690,1996-09-04 12:00:00,23,1012.7,0.6,61,15,40000,18.52,,,190,,,,,,,,,,,wg-a,,,,AAXX 04124 07690 12682 31910 10230 20150 30097 40127 51006 60006 81230 91200=
07690,1996-09-04 15:00:00,23,1012.3,-0.4,65,16,40000,22.224,,,200,,,,,,,,,,,wg-a,,,,AAXX 04154 07690 12682 /2012 10230 20160 30093 40123 55004 60006 81200 91500=
07690,1996-09-04 18:00:00,21,1012.4,0.1,69,15,40000,18.52,,,230,15.5,23.6,,,,,,,,,wg-a,,,,AAXX 04184 07690 12582 32310 10210 20150 30094 40124 53001 60006 82402 91800 333 10236 20155=
07690,1996-09-04 21:00:00,18,1013.2,0.7,83,15,20000,14.816,,,340,,,,,,,,,,,wg-a,,,,AAXX 04214 07690 12/70 03408 10180 20150 30101 40132 51007 60006 80000 92100=
07690,1996-09-05 00:00:00,18,1012.9,-0.3,83,15,20000,11.112,,,330,,,,,,,,,,,wg-a,,,,AAXX 05004 07690 12/70 03306 10180 20150 30098 40129 55003 60006 80000 90000=
07690,1996-09-05 03:00:00,18,1011.7,-1.2,77,14,20000,22.224,,,320,,,,,,,,,,,wg-a,,,,AAXX 05034 07690 12/70 03212 10180 20140 30086 40117 56012 60006 80000 90300=
07690,1996-09-05 06:00:00,18,1011.6,-0.1,73,13,25000,18.52,,,330,17.3,21,,,,,,,,,wg-a,,,,AAXX 05064 07690 02/75 13310 10180 20130 30085 40116 56001 60006 81030 90600 333 10210 20173 60004=
07690,1996-09-05 09:00:00,21,1011.2,-0.3,78,17,500,11.112,,,190,,,,,,,,,,,wg-a,,,,AAXX 05094 07690 12/00 01906 10210 20170 30082 40112 58003 60006 80000 90900=
07690,1996-09-05 12:00:00,24,1009.7,-1.5,61,16,500,11.112,,,130,,,,,,,,,,,wg-a,,,,AAXX 05124 07690 12500 /1306 10240 20160 30067 40097 58015 60006 81200 91200=
07690,1996-09-05 15:00:00,25,1007.7,-2,65,18,12000,31.484,,,80,,,,,,,,,,,wg-a,,,,AAXX 05154 07690 12562 /0817 10250 20180 30047 40077 57020 60006 81230 91500=
07690,1996-09-05 18:00:00,23,1007.5,-0.2,78,19,10000,25.928,,,70,17.9,25.1,,,,,,,,,wg-a,,,,AAXX 05184 07690 12660 /0714 10230 20190 30045 40075 55002 60006 81202 91800 333 10251 20179=
07690,1996-09-05 21:00:00,22,1008.8,1.3,78,18,10000,25.928,,,80,,,,,,,,,,,wg-a,,,,AAXX 05214 07690 12460 /0814 10220 20180 30058 40088 52013 60006 81500 92100=
07690,1996-09-06 00:00:00,19,1009.1,0.3,88,17,10000,11.112,,,320,,,,,,,,,,,wg-a,,,,AAXX 06004 07690 12460 /3206 10190 20170 30061 40091 50003 60006 81500 90000=
07690,1996-09-06 03:00:00,18,1009,-0.2,88,16,10000,14.816,,,330,,,,,,,,,,,wg-a,,,,AAXX 06034 07690 12/60 03308 10180 20160 30059 40090 56002 60006 80000 90300=
07690,1996-09-06 06:00:00,17,1009.4,0.4,82,14,10000,14.816,,,330,17,22.9,,,,,,,,,wg-a,,,,AAXX 06064 07690 02/60 03308 10170 20140 30063 40094 53004 60006 80000 90600 333 10229 20170 60004=
07690,1996-09-06 09:00:00,23,1009.9,0.6,73,18,10000,11.112,,,140,,,,0,,,,,,,wg-a,,,,AAXX 06094 07690 12/60 /1406 10230 20180 30069 40099 52006 60007 80000 90900=
07690,1996-09-06 12:00:00,24,1010.5,0.6,69,18,9000,14.816,,,120,,,,,,,,,,,wg-a,,,,AAXX 06124 07690 12659 /1208 10240 20180 30075 40105 51006 60006 81100 91200=
07690,1996-09-06 15:00:00,24,1009.5,-1,65,17,9000,7.408,,,150,,,,,,,,,,,wg-a,,,,AAXX 06154 07690 12659 /1504 10240 20170 30065 40095 58010 60006 81100 91500=
07690,1996-09-06 18:00:00,22,1009.8,0.3,73,17,12000,11.112,,,210,17.4,24.2,,,,,,,,,wg-a,,,,AAXX 06184 07690 32/62 /2106 10220 20170 30068 40098 53003 80001 91800 333 10242 20174=
07690,1996-09-06 21:00:00,19,1009.4,-0.4,83,16,15000,11.112,,,340,,,,,,,,,,,wg-a,,,,AAXX 06214 07690 12/65 03406 10190 20160 30064 40094 58004 60006 80000 92100=
07690,1996-09-07 00:00:00,18,1008.9,-0.6,77,14,15000,18.52,,,340,,,,,,,,,,,wg-a,,,,AAXX 07004 07690 12/65 03410 10180 20140 30058 40089 57006 60006 80000 90000=
07690,1996-09-07 03:00:00,17,1007.8,-1.1,77,13,15000,14.816,,,330,,,,,,,,,,,wg-a,,,,AAXX 07034 07690 12465 43308 10170 20130 30047 40078 56011 60006 82502 90300=
07690,1996-09-07 06:00:00,16,1008.6,0.8,82,13,15000,22.224,,,330,16.1,21.6,,,,,,,,,wg-a,,,,AAXX 07064 07690 02465 /3312 10160 20130 30055 40086 53008 60006 83500 90600 333 10216 20161 60004=
07690,1996-09-07 09:00:00,22,1009.7,1.2,73,17,12000,7.408,,,200,,,,,,,,,,,wg-a,,,,AAXX 07094 07690 12562 /2004 10220 20170 30067 40097 53012 60006 81500 90900=
07690,1996-09-07 12:00:00,25,1010.1,0.4,36,9,15000,14.816,,,160,,,,,,,,,,,wg-a,,,,AAXX 07124 07690 12665 /1608 10250 20090 30071 40101 53004 60006 81800 91200=
07690,1996-09-07 15:00:00,25,1011.4,1.3,32,7,500,3.704,,,90,,,,,,,,,,,wg-a,,,,AAXX 07154 07690 12600 70902 10250 20070 30084 40114 53013 60006 8117/ 91500=
07690,1996-09-07 18:00:00,23,1013.4,2,50,12,40000,14.816,,,120,16.2,26.4,,,,,,,,,wg-a,,,,AAXX 07184 07690 12582 21208 10230 20120 30104 40134 53020 60006 81170 91800 333 10264 20162=
07690,1996-09-07 21:00:00,17,1014.8,1.3,72,12,20000,14.816,,,320,,,,,,,,,,,wg-a,,,,AAXX 07214 07690 12870 /3208 10170 20120 30117 40148 50013 60006 81030 92100=
07690,1996-09-08 00:00:00,17,1014.7,-0.1,63,10,20000,22.224,,,330,,,,,,,,,,,wg-a,,,,AAXX 08004 07690 12/70 03312 10170 20100 30116 40147 58001 60006 80000 90000=
07690,1996-09-08 03:00:00,16,1014.1,-0.6,63,9,20000,18.52,,,340,,,,,,,,,,,wg-a,,,,AAXX 08034 07690 12/70 03410 10160 20090 30110 40141 56006 60006 80000 90300=
07690,1996-09-08 06:00:00,15,1013.3,-0.8,63,8,40000,22.224,,,340,14.7,22.8,,0,,,,,,,wg-a,,,,AAXX 08064 07690 02/82 13412 10150 20080 30102 40133 56008 60004 81031 90600 333 10228 20147 60007=
07690,1996-09-08 09:00:00,21,1013.5,0.3,43,8,50000,3.704,,,330,,,,,,,,,,,wg-a,,,,AAXX 08094 07690 12/84 13302 10210 20080 30105 40135 50003 60006 80001 90900=
07690,1996-09-08 12:00:00,23,1012.3,-1.2,53,13,40000,25.928,,,190,,,,,,,,,,,wg-a,,,,AAXX 08124 07690 12682 /1914 10230 20130 30093 40123 58012 60006 81101 91200=
07690,1996-09-08 15:00:00,22,1011.1,-1.2,65,15,25000,29.632,,,200,,,,,,,,,,,wg-a,,,,AAXX 08154 07690 12575 42016 10220 20150 30081 40111 56012 60006 81101 91500=
07690,1996-09-08 18:00:00,21,1010.9,-0.2,73,16,20000,25.928,,,210,15.1,23.3,,,,,,,,,wg-a,,,,AAXX 08184 07690 12570 52114 10210 20160 30079 40109 56002 60006 85401 91800 333 10233 20151=
07690,1996-09-08 21:00:00,18,1012,1,83,15,20000,3.704,,,290,,,,,,,,,,,wg-a,,,,AAXX 08214 07690 12670 22902 10180 20150 30089 40120 51010 60006 82500 92100=
07690,1996-09-09 00:00:00,16,1012.4,0.4,94,15,20000,11.112,,,320,,,,,,,,,,,wg-a,,,,AAXX 09004 07690 12/70 03206 10160 20150 30093 40124 53004 60006 80000 90000=
07690,1996-09-09 03:00:00,16,1012.1,-0.3,88,14,11000,14.816,,,330,,,,,,,,,,,wg-a,,,,AAXX 09034 07690 12/61 /3308 10160 20140 30090 40121 55003 60006 90300=
07690,1996-09-09 06:00:00,16,1013.6,1.5,82,13,25000,7.408,,,10,15.5,20.9,,0,,,,,,29,wg-a,,,,AAXX 09064 07690 02375 /0104 10160 20130 30105 40136 52015 60004 72998 85960 90600 333 10209 20155 60007=
07690,1996-09-09 09:00:00,22,1013.7,0.2,50,11,25000,7.408,,,20,,,,,,,,,,,wg-a,,,,AAXX 09094 07690 12775 30204 10220 20110 30107 40137 53002 60006 82831 90900=
07690,1996-09-09 12:00:00,23,1014.3,0.6,50,12,500,29.632,,,100,,,,,,,,,,,wg-a,,,,AAXX 09124 07690 12700 31016 10230 20120 30113 40143 51006 60006 81201 91200=
07690,1996-09-09 15:00:00,23,1013.7,-0.6,44,10,500,29.632,,,90,,,,,,,,,,,wg-a,,,,AAXX 09154 07690 12600 30916 10230 20100 30107 40137 56006 60006 81261 91500=
07690,1996-09-09 18:00:00,22,1014.4,0.7,53,12,500,11.112,,,110,15.3,23.9,,,,,,,,,wg-a,,,,AAXX 09184 07690 12600 /1106 10220 20120 30114 40144 53007 60006 81101 91800 333 10239 20153=
07690,1996-09-09 21:00:00,17,1015.6,1.1,68,11,20000,18.52,,,330,,,,,,,,,,,wg-a,,,,AAXX 09214 07690 12/70 03310 10170 20110 30125 40156 52011 60006 80000 92100=
07690,1996-09-10 00:00:00,16,1015.5,-0.1,68,10,20000,18.52,,,340,,,,,,,,,,,wg-a,,,,AAXX 10004 07690 12/70 03410 10160 20100 30124 40155 58001 60006 80000 90000=
07690,1996-09-10 03:00:00,15,1014.7,-0.8,72,10,20000,18.52,,,340,,,,,,,,,,,wg-a,,,,AAXX 10034 07690 12/70 03410 10150 20100 30116 40147 56008 60006 80000 90300=
07690,1996-09-10 06:00:00,15,1015.2,0.5,67,9,50000,25.928,,,330,14.4,21.5,,,,,,,,,wg-a,,,,AAXX 10064 07690 02/84 03314 10150 20090 30121 40152 53005 60006 80000 90600 333 10215 20144 60004=
07690,1996-09-10 09:00:00,20,1015.9,0.7,53,10,50000,7.408,,,330,,,,,,,,,,,wg-a,,,,AAXX 10094 07690 12684 /3304 10200 20100 30128 40159 53007 60006 81100 90900=
07690,1996-09-10 12:00:00,23,1016.1,0.3,53,13,500,11.112,,,130,,,,,,,,,,,wg-a,,,,AAXX 10124 07690 12600 /1306 10230 20130 30131 40161 51003 60006 81200 91200=
07690,1996-09-10 15:00:00,23,1015,-1.1,57,14,500,11.112,,,140,,,,,,,,,,,wg-a,,,,AAXX 10154 07690 12600 21406 10230 20140 30120 40150 56011 60006 81232 91500=
07690,1996-09-10 18:00:00,21,1014.6,-0.4,64,14,500,7.408,,,160,14.7,23.3,,,,,,,,,wg-a,,,,AAXX 10184 07690 12600 21604 10210 20140 30116 40146 55004 60006 81502 91800 333 10233 20147=
07690,1996-09-10 21:00:00,17,1015.5,0.8,82,14,18000,11.112,,,330,,,,,,,,,,,wg-a,,,,AAXX 10214 07690 12/68 33306 10170 20140 30124 40155 51008 60006 80002 92100=
07690,1996-09-11 00:00:00,16,1015.4,-0.1,77,12,18000,14.816,,,340,,,,,,,,,,,wg-a,,,,AAXX 11004 07690 12/68 33408 10160 20120 30123 40154 55001 60006 80001 90000=
07690,1996-09-11 03:00:00,16,1014.8,-0.6,77,12,20000,11.112,,,350,,,,,,,,,,,wg-a,,,,AAXX 11034 07690 32/70 03506 10160 20120 30117 40148 58006 80000 90300=
07690,1996-09-11 06:00:00,16,1014.3,-0.5,72,11,35000,22.224,,,330,15.4,20.9,,,,,,,,,wg-a,,,,AAXX 11064 07690 12/81 13312 10160 20110 30112 40143 55005 60004 81041 90600 333 10209 20154=
07690,1996-09-11 09:00:00,22,1013.9,-0.3,50,11,35000,7.408,,,90,,,,,,,,,,,wg-a,,,,AAXX 11094 07690 12681 20904 10220 20110 30109 40139 58003 60006 81202 90900=
07690,1996-09-11 12:00:00,23,1013,-0.9,61,15,35000,18.52,,,100,,,,,,,,,,,wg-a,,,,AAXX 11124 07690 12681 21010 10230 20150 30100 40130 56009 60006 81202 91200=
07690,1996-09-11 15:00:00,23,1011.7,-1.3,61,15,35000,18.52,,,100,,,,,,,,,,,wg-a,,,,AAXX 11154 07690 12581 31010 10230 20150 30087 40117 56013 60006 81202 91500=
07690,1996-09-11 18:00:00,22,1010.5,-1.2,65,15,500,18.52,,,80,15.6,23.6,,,,,,,,,wg-a,,,,AAXX 11184 07690 12500 70810 10220 20150 30075 40105 56012 60006 81132 91800 333 10236 20156=
07690,1996-09-11 21:00:00,18,1010.6,0,77,14,15000,7.408,,,330,,,,,,,,,,,wg-a,,,,AAXX 11214 07690 12/65 53304 10180 20140 30075 40106 50000 60006 80001 92100=
07690,1996-09-12 00:00:00,18,1008.5,-2.1,73,13,15000,14.816,,,340,,,,,,,,,,,wg-a,,,,AAXX 12004 07690 12/65 73408 10180 20130 30054 40085 58021 60006 82032 90000=
07690,1996-09-12 03:00:00,18,1005.8,-2.6,77,14,15000,14.816,,,330,,,,,,,,,,21,wg-a,,,,AAXX 12034 07690 02/65 73308 10180 20140 30028 40058 56026 61000 72162 83072 90300 333 ////=
07690,1996-09-12 06:00:00,18,1005.3,-0.5,73,13,40000,14.816,,,330,17.3,21.5,,,,,,,,1,wg-a,,,,AAXX 12064 07690 02882 73308 10180 20130 30023 40053 58005 61000 70162 86081 90600 333 10215 20173 6100=
07690,1996-09-12 12:00:00,23,1002.1,-1.7,53,13,20000,11.112,,,180,,,,,,,,,,,wg-a,,,,AAXX 12124 07690 12/70 71806 10230 20130 39991 40021 56017 60006 84032 91200=
07690,1996-09-12 15:00:00,22,1001.2,-0.9,69,16,15000,11.112,,,180,,,,,,,,,,,wg-a,,,,AAXX 12154 07690 12665 71806 10220 20160 39982 40012 58009 60006 8483/ 91500=
07690,1996-09-12 18:00:00,19,998.7,-2.5,73,14,15000,14.816,,,230,17.8,23.3,,,,,,,,,wg-a,,,,AAXX 12184 07690 12/65 22308 10190 20140 39957 49987 56025 60006 81031 91800 333 10233 20178=
07690,1996-09-12 21:00:00,16,998.7,0,82,13,15000,11.112,,,340,,,,,,,,,,,wg-a,,,,AAXX 12214 07690 12/65 03406 10160 20130 39957 49987 50000 60006 80000 92100=
07690,1996-09-13 00:00:00,16,997.7,-1,82,13,15000,14.816,,,340,,,,,,,,,,,wg-a,,,,AAXX 13004 07690 12/65 03408 10160 20130 39947 49977 56010 60006 80000 90000=
07690,1996-09-13 03:00:00,16,997.7,0,77,12,15000,22.224,,,330,,,,,,,,,,,wg-a,,,,AAXX 13034 07690 12/65 03312 10160 20120 39947 49977 50000 60006 80000 90300=
07690,1996-09-13 06:00:00,17,998.1,0.4,59,9,50000,14.816,,,340,15.5,18.6,,,,,,,,,wg-a,,,,AAXX 13064 07690 02/84 03408 10170 20090 39951 49981 53004 60006 80000 90600 333 10186 20155 60004=
07690,1996-09-13 09:00:00,21,999.6,1.5,56,12,500,14.816,,,250,,,,,,,,,,,wg-a,,,,AAXX 13094 07690 12500 12508 10210 20120 39966 49996 52015 60006 81130 90900=
07690,1996-09-13 12:00:00,23,1000.9,1.3,65,16,25000,14.816,,,110,,,,,,,,,,,wg-a,,,,AAXX 13124 07690 12575 21108 10230 20160 39979 40009 52013 60006 82200 91200=
07690,1996-09-13 15:00:00,24,1001.7,0.8,44,11,25000,22.224,,,100,,,,,,,,,,,wg-a,,,,AAXX 13154 07690 12675 31012 10240 20110 39987 40017 53008 60006 83800 91500=
07690,1996-09-13 18:00:00,22,1004.4,2.7,43,9,20000,7.408,,,100,16.9,24.2,,,,,,,,,wg-a,,,,AAXX 13184 07690 12670 41004 10220 20090 30014 40044 52027 60006 83870 91800 333 10242 20169=
07690,1996-09-13 21:00:00,19,1007.1,2.7,52,9,15000,11.112,,,320,,,,,,,,,,,wg-a,,,,AAXX 13214 07690 12665 23206 10190 20090 30041 40071 51027 60006 82500 92100=
07690,1996-09-14 00:00:00,17,1009.1,1.9,45,5,25000,14.816,,,340,,,,,,,,,,,wg-a,,,,AAXX 14004 07690 12775 13408 10170 20050 30060 40091 51019 60006 81500 90000=
07690,1996-09-14 03:00:00,16,1010.2,1.1,42,3,20000,25.928,,,330,,,,,,,,,,,wg-a,,,,AAXX 14034 07690 12/70 /3314 10160 20030 30071 40102 51011 60006 80000 90300=
07690,1996-09-14 06:00:00,15,1011.9,1.7,44,3,50000,22.224,,,340,14.3,21.8,,,,,,,,,wg-a,,,,AAXX 14064 07690 02/84 03412 10150 20030 30088 40119 53017 60006 80000 90600 333 10218 20143 60004=
07690,1996-09-14 09:00:00,20,1013.4,1.5,37,5,50000,14.816,,,330,,,,,,,,,,,wg-a,,,,AAXX 14094 07690 12/84 03308 10200 20050 30103 40134 51015 60006 80000 90900=
07690,1996-09-14 12:00:00,23,1013.2,-0.1,47,11,50000,22.224,,,190,,,,,,,,,,,wg-a,,,,AAXX 14124 07690 12/84 01912 10230 20110 30102 40132 58001 60006 80000 91200=
07690,1996-09-14 15:00:00,22,1013.1,-0.1,60,14,50000,22.224,,,200,,,,,,,,,,,wg-a,,,,AAXX 14154 07690 12/84 /2012 10220 20140 30101 40131 55001 60006 80000 91500=
07690,1996-09-14 18:00:00,19,1013.6,0.4,73,14,50000,11.112,,,240,14.5,23.2,,,,,,,,0,wg-a,,,,AAXX 14184 07690 12/84 02406 10190 20140 30105 40136 53004 60006 700// 80000 91800 333 10232 20145=
07690,1996-09-14 21:00:00,17,1015.1,1.5,77,13,40000,7.408,,,330,,,,,,,,,,,wg-a,,,,AAXX 14214 07690 12/82 03304 10170 20130 30120 40151 51015 60006 80000 92100=
07690,1996-09-15 00:00:00,16,1016.2,1.1,72,11,40000,14.816,,,340,,,,,,,,,,,wg-a,,,,AAXX 15004 07690 12/82 03408 10160 20110 30131 40162 51011 60006 80000 90000=
07690,1996-09-15 03:00:00,15,1016,-0.2,72,10,40000,22.224,,,330,,,,,,,,,,,wg-a,,,,AAXX 15034 07690 12582 23312 10150 20100 30129 40160 58002 60006 82500 90300=
07690,1996-09-15 06:00:00,15,1016.7,0.7,67,9,50000,18.52,,,330,14.2,19.2,,,,,,,,,wg-a,,,,AAXX 15064 07690 02584 /3310 10150 20090 30136 40167 53007 60006 81841 90600 333 10192 20142 60004=
07690,1996-09-15 09:00:00,21,1017.5,0.8,64,14,50000,7.408,,,70,,,,,,,,,,,wg-a,,,,AAXX 15094 07690 12584 20704 10210 20140 30144 40175 53008 60006 82200 90900=
07690,1996-09-15 12:00:00,22,1017.6,0.2,57,13,40000,14.816,,,120,,,,,,,,,,,wg-a,,,,AAXX 15124 07690 12682 21208 10220 20130 30146 40176 53002 60006 82200 91200=
07690,1996-09-15 15:00:00,22,1017,-0.6,57,13,40000,7.408,,,120,,,,,,,,,,,wg-a,,,,AAXX 15154 07690 12682 21204 10220 20130 30140 40170 58006 60006 82200 91500=
07690,1996-09-15 18:00:00,19,1017.1,0,73,14,500,0,,,0,14.5,22.6,,,,,,,,,wg-a,,,,AAXX 15184 07690 12600 /0000 10190 20140 30140 40171 50000 60006 81400 91800 333 10226 20145=
07690,1996-09-15 21:00:00,17,1017.7,0.6,77,13,500,11.112,,,320,,,,,,,,,,,wg-a,,,,AAXX 15214 07690 12700 43206 10170 20130 30146 40177 51006 60006 84500 92100=
07690,1996-09-16 00:00:00,16,1017.5,-0.2,82,13,500,14.816,,,340,,,,,,,,,,,wg-a,,,,AAXX 16004 07690 12/00 03408 10160 20130 30144 40175 57002 60006 80000 90000=
07690,1996-09-16 03:00:00,15,1016.5,-1,82,12,500,18.52,,,330,,,,,,,,,,,wg-a,,,,AAXX 16034 07690 12/00 23310 10150 20120 30134 40165 56010 60006 80002 90300=
07690,1996-09-16 06:00:00,15,1016.2,-0.3,77,11,500,18.52,,,330,14.8,19,,,,,,,,,wg-a,,,,AAXX 16064 07690 02500 53310 10150 20110 30131 40162 56003 60006 85800 90600 333 10190 20148 60004=
07690,1996-09-16 09:00:00,20,1016.7,0.5,64,13,25000,3.704,,,290,,,,,,,,,,,wg-a,,,,AAXX 16094 07690 12575 22902 10200 20130 30136 40167 52005 60006 82800 90900=
07690,1996-09-16 12:00:00,22,1016.6,-0,65,15,500,14.816,,,140,,,,,,,,,,,wg-a,,,,AAXX 16124 07690 12500 /1408 10220 20150 30136 40166 55000 60006 81200 91200=
07690,1996-09-16 15:00:00,21,1016.2,-0.4,64,14,500,11.112,,,160,,,,,,,,,,,wg-a,,,,AAXX 16154 07690 12500 /1606 10210 20140 30132 40162 58004 60006 81200 91500=
07690,1996-09-16 18:00:00,19,1015.9,-0.4,73,14,500,3.704,,,220,15,22.7,,,,,,,,,wg-a,,,,AAXX 16184 07690 12500 /2202 10190 20140 30128 40159 55004 60006 81800 91800 333 10227 20150=
07690,1996-09-16 21:00:00,16,1015.6,-0.3,88,14,15000,7.408,,,320,,,,,,,,,,,wg-a,,,,AAXX 16214 07690 12465 /3204 10160 20140 30125 40156 58003 60006 81800 92100=
07690,1996-09-17 00:00:00,16,1015.6,-0.2,88,14,15000,7.408,,,320,,,,,,,,,,,wg-a,,,,AAXX 17004 07690 12465 /3204 10160 20140 30125 40156 58002 60006 85800 90000=
07690,1996-09-17 03:00:00,16,1014.5,-0.9,77,12,15000,11.112,,,350,,,,,,,,,,,wg-a,,,,AAXX 17034 07690 12565 53506 10160 20120 30114 40145 58009 60006 8/500 90300=
07690,1996-09-17 06:00:00,16,1013.7,-0.8,77,12,500,14.816,,,340,15.5,18.7,,,,,,,,,wg-a,,,,AAXX 17064 07690 02500 43408 10160 20120 30106 40137 57008 60006 83801 90600 333 10187 20155 60004=
07690,1996-09-17 09:00:00,21,1013.4,-0.2,64,14,500,7.408,,,100,,,,0,,,,,,,wg-a,,,,AAXX 17094 07690 12600 /1004 10210 20140 30104 40134 56002 60007 83204 90900=
07690,1996-09-17 12:00:00,22,1013.2,-0.2,88,20,500,14.816,,,150,,,,,,,,,,,wg-a,,,,AAXX 17124 07690 12500 81508 10220 20200 30102 40132 57002 60006 82201 91200=
07690,1996-09-17 15:00:00,21,1011.7,-1.5,60,13,500,11.112,,,120,,,,,,,,,,,wg-a,,,,AAXX 17154 07690 12500 71206 10210 20130 30087 40117 56015 60006 82807 91500=
07690,1996-09-17 18:00:00,20,1011,-0.7,68,14,20000,14.816,,,80,15.8,22.1,,,,,,,,,wg-a,,,,AAXX 17184 07690 32570 80808 10200 20140 30080 40110 56007 84877 91800 333 10221 20158=
07690,1996-09-18 00:00:00,16,1010,-0.9,72,11,20000,14.816,,,340,,,,,,,,,,,wg-a,,,,AAXX 18004 07690 12570 83408 10160 20110 30069 40100 58009 60006 8217/ 90000=
07690,1996-09-18 03:00:00,16,1007.9,-2.1,72,11,20000,18.52,,,330,,,,,,,,,,,wg-a,,,,AAXX 18034 07690 12570 /3310 10160 20110 30048 40079 57021 60006 8117/ 90300=
07690,1996-09-18 06:00:00,17,1007.1,-0.8,68,11,20000,11.112,,,10,16.1,20.3,,,,,,,,,wg-a,,,,AAXX 18064 07690 02470 80106 10170 20110 30040 40071 56008 60006 8187/ 90600 333 10203 20161 60004=
07690,1996-09-18 09:00:00,22,1006.4,-0.6,57,13,20000,35.188,,,90,,,,,,,,,,,wg-a,,,,AAXX 18094 07690 12570 /0919 10220 20130 30034 40064 56006 60006 81131 90900=
07690,1996-09-18 12:00:00,23,1005.5,-0.9,50,12,20000,31.484,,,100,,,,,,,,,,,wg-a,,,,AAXX 18124 07690 12670 /1017 10230 20120 30025 40055 58009 60006 83871 91200=
07690,1996-09-18 15:00:00,23,1004.1,-1.4,53,13,15000,42.596,,,100,,,,,,,,,,,wg-a,,,,AAXX 18154 07690 12665 /1023 10230 20130 30011 40041 56014 60006 82872 91500=
07690,1996-09-18 18:00:00,21,1005.5,1.4,69,15,20000,25.928,,,90,16.6,23.7,,,,,,,,,wg-a,,,,AAXX 18184 07690 12570 70914 10210 20150 30025 40055 53014 60006 8287/ 91800 333 10237 20166=
07690,1996-09-18 21:00:00,19,1005.7,0.2,68,13,20000,11.112,,,30,,,,,,,,,,,wg-a,,,,AAXX 18214 07690 12570 70306 10190 20130 30027 40057 50002 60006 8357/ 92100=
07690,1996-09-19 00:00:00,18,1005.7,0,73,13,20000,11.112,,,20,,,,,,,,,,,wg-a,,,,AAXX 19004 07690 12570 70206 10180 20130 30027 40057 50000 60006 8157/ 90000=
07690,1996-09-19 03:00:00,17,1004.8,-0.9,77,13,20000,11.112,,,340,,,,,,,,,,,wg-a,,,,AAXX 19034 07690 12570 73406 10170 20130 30018 40048 57009 60006 8157/ 90300=
07690,1996-09-19 06:00:00,17,1005.2,0.4,77,13,40000,11.112,,,10,16.8,20.6,,,,,,,,,wg-a,,,,AAXX 19064 07690 02582 70106 10170 20130 30022 40052 53004 60006 8157/ 90600 333 10206 20168 60004=
07690,1996-09-19 09:00:00,20,1005.2,-0,56,11,20000,46.3,,,90,,,,,,,,,,15,wg-a,,,,AAXX 19094 07690 12770 70925 10200 20110 30022 40052 55000 60006 71522 8457/ 90900=
07690,1996-09-19 12:00:00,19,1005.5,0.3,68,13,20000,35.188,,,100,,,,1,,,,,,61,wg-a,,,,AAXX 19124 07690 02670 81019 10190 20130 30025 40055 50003 60016 76162 8657/ 91200 333 60017=
07690,1996-09-19 15:00:00,16,1005,-0.6,77,12,500,18.52,,,20,,,,5,,,,,,10,wg-a,,,,AAXX 19154 07690 12500 80210 10160 20120 30019 40050 58006 60057 71062 878// 91500=
07690,1996-09-19 18:00:00,15,1005.3,0.3,88,13,8000,18.52,,,10,14.8,20.5,,5,,,,,,17,wg-a,,,,AAXX 19184 07690 12558 80110 10150 20130 30022 40053 53003 60057 71796 879// 91800 333 10205 20148=
07690,1996-09-19 21:00:00,15,1006.1,0.8,77,11,15000,22.224,,,20,,,,5,,,,,,61,wg-a,,,,AAXX 19214 07690 12565 /0212 10150 20110 30030 40061 50008 60057 76196 8497/ 92100=
07690,1996-09-20 00:00:00,15,1006.1,0,72,10,15000,11.112,,,340,,,,,,,,,,1,wg-a,,,,AAXX 20004 07690 02665 /3406 10150 20100 30030 40061 50000 60056 70196 83570 90000 333 61000=
07690,1996-09-20 03:00:00,15,1006,-0.1,77,11,15000,18.52,,,330,,,,,,,,,,,wg-a,,,,AAXX 20034 07690 12765 73310 10150 20110 30029 40060 57001 60006 83570 90300=
07690,1996-09-20 06:00:00,15,1006,0,77,11,50000,14.816,,,330,13.8,15.8,,,,,16,,,,wg-a,,,,AAXX 20064 07690 12584 /3308 10150 20110 30029 40060 50000 60164 83871 90600 333 10158 20138=
07690,1996-09-20 09:00:00,19,1006.7,0.8,68,13,40000,22.224,,,230,,,,,,,,,,,wg-a,,,,AAXX 20094 07690 12582 42312 10190 20130 30037 40067 51008 60006 84800 90900=
07690,1996-09-20 12:00:00,20,1006.3,-0.4,73,15,40000,31.484,,,210,,,,,,,,,,,wg-a,,,,AAXX 20124 07690 12582 42117 10200 20150 30033 40063 58004 60006 84200 91200=
07690,1996-09-20 15:00:00,20,1005.7,-0.6,73,15,500,31.484,,,220,,,,,,,,,,,wg-a,,,,AAXX 20154 07690 12600 52217 10200 20150 30027 40057 58006 60006 83202 91500=
07690,1996-09-20 18:00:00,18,1006,0.3,73,13,20000,29.632,,,250,14.8,20.2,,,,,,,,,wg-a,,,,AAXX 20184 07690 12770 72516 10180 20130 30030 40060 53003 60006 8357/ 91800 333 10202 20148=
07690,1996-09-20 21:00:00,16,1006.5,0.4,94,15,8000,7.408,,,10,,,,3,,,,,,61,wg-a,,,,AAXX 20214 07690 12558 80104 10160 20150 30034 40065 50004 60037 76162 885// 92100=
07690,1996-09-21 00:00:00,14,1004,-2.5,100,14,7000,18.52,,,20,,,,16,,,,,,63,wg-a,,,,AAXX 21004 07690 02257 80210 10140 20140 30009 40040 58025 60196 76362 885// 90000 333 60167=
07690,1996-09-21 03:00:00,14,1002.5,-1.5,100,14,2700,11.112,,,10,,,,6,,,,,,10,wg-a,,,,AAXX 21034 07690 12427 80106 10140 20140 39994 40025 57015 60067 71066 885// 90300=
07690,1996-09-21 06:00:00,14,1002.4,-0.1,94,13,10000,11.112,,,360,13.9,18.2,,2,,,27,,,21,wg-a,,,,AAXX 21064 07690 02460 73606 10140 20130 39993 40024 55001 60274 72162 875// 90600 333 10182 20139 60027=
07690,1996-09-21 09:00:00,16,1003.3,0.9,88,14,500,11.112,,,330,,,,,,,,,,,wg-a,,,,AAXX 21094 07690 12400 73306 10160 20140 30002 40033 51009 60006 878// 90900=
07690,1996-09-21 12:00:00,20,1002.8,-0.4,73,15,500,7.408,,,130,,,,,,,,,,,wg-a,,,,AAXX 21124 07690 12400 /1304 10200 20150 39998 40028 56004 60006 86570 91200=
07690,1996-09-21 15:00:00,20,1002.1,-0.7,68,14,500,11.112,,,110,,,,,,,,,,,wg-a,,,,AAXX 21154 07690 12500 51106 10200 20140 39991 40021 58007 60006 84802 91500=
07690,1996-09-21 18:00:00,18,1002.5,0.4,88,16,12000,18.52,,,90,14.2,21,,2,,,,,,60,wg-a,,,,AAXX 21184 07690 12462 70910 10180 20160 39995 40025 53004 60027 76086 878// 91800 333 10210 20142=
07690,1996-09-21 21:00:00,16,1003.1,0.5,94,15,12000,11.112,,,340,,,,0,,,,,,21,wg-a,,,,AAXX 21214 07690 12462 73406 10160 20150 30000 40031 50005 60007 72162 82871 92100=
07690,1996-09-22 00:00:00,15,1002.4,-0.7,100,15,12000,11.112,,,330,,,,,,,,,,3,wg-a,,,,AAXX 22004 07690 12562 73306 10150 20150 39993 40024 55007 60006 70361 8293/ 90000=
07690,1996-09-22 03:00:00,15,1001.3,-1.1,94,14,12000,14.816,,,330,,,,1,,,,,,60,wg-a,,,,AAXX 22034 07690 12562 83308 10150 20140 39982 40013 58011 60017 76062 8397/ 90300=
07690,1996-09-22 06:00:00,15,1000.7,-0.6,94,14,20000,7.408,,,340,14.9,18.2,,,,,3,,,1,wg-a,,,,AAXX 22064 07690 02570 73404 10150 20140 39976 40007 56006 60034 70162 8487/ 90600 333 10182 20149 61000=
07690,1996-09-22 09:00:00,15,1002,1.3,100,15,3500,7.408,,,20,,,,11,,,,,,63,wg-a,,,,AAXX 22094 07690 12235 80204 10150 20150 39989 40020 53013 60117 76362 8482/ 90900=
07690,1996-09-22 12:00:00,17,1001.2,-0.7,88,15,12000,7.408,,,30,,,,2,,,,,,21,wg-a,,,,AAXX 22124 07690 02462 70304 10170 20150 39982 40012 56007 60136 72162 8287/ 91200 333 60027=
07690,1996-09-22 15:00:00,17,1000.5,-0.7,88,15,500,11.112,,,360,,,,12,,,,,,81,wg-a,,,,AAXX 22154 07690 12200 73606 10170 20150 39975 40005 56007 60127 78198 8497/ 91500=
07690,1996-09-22 18:00:00,15,1001.3,0.7,94,14,2000,22.224,,,350,14.8,17.1,,59,,,,,,81,wg-a,,,,AAXX 22184 07690 12220 83512 10150 20140 39982 40013 51007 60597 78198 889// 91800 333 10171 20148=
07690,1996-09-22 21:00:00,15,1001.8,0.5,94,14,15000,14.816,,,330,,,,7,,,,,,21,wg-a,,,,AAXX 22214 07690 12465 83308 10150 20140 39987 40018 51005 60077 72196 8757/ 92100=
07690,1996-09-23 00:00:00,14,1001.3,-0.5,100,14,15000,11.112,,,330,,,,,,,,,,1,wg-a,,,,AAXX 23004 07690 12665 /3306 10140 20140 39982 40013 55005 60076 70196 82530 90000=
07690,1996-09-23 03:00:00,13,1000,-1.3,94,12,15000,18.52,,,340,,,,,,,,,,,wg-a,,,,AAXX 23034 07690 12665 23410 10130 20120 39969 40000 58013 60006 81532 90300=
07690,1996-09-23 06:00:00,14,999.1,-0.9,82,11,50000,14.816,,,340,13.1,14.8,,,,,90,,,,wg-a,,,,AAXX 23064 07690 12684 /3408 10140 20110 39960 49991 56009 60904 81232 90600 333 10148 20131=
07690,1996-09-23 09:00:00,18,999.4,0.4,73,13,50000,7.408,,,50,,,,,,,,,,,wg-a,,,,AAXX 23094 07690 12684 /0504 10180 20130 39964 49994 53004 60006 81201 90900=
07690,1996-09-23 12:00:00,21,999.5,0.1,60,13,50000,11.112,,,150,,,,,,,,,,,wg-a,,,,AAXX 23124 07690 12684 /1506 10210 20130 39965 49995 50001 60006 81800 91200=
07690,1996-09-23 21:00:00,16,1003,1.7,82,13,20000,11.112,,,320,,,,,,,,,,,wg-a,,,,AAXX 23214 07690 12/70 23206 10160 20130 39999 40030 51017 60006 80001 92100=
07690,1996-09-24 00:00:00,15,1003.4,0.4,82,12,20000,18.52,,,330,,,,,,,,,,,wg-a,,,,AAXX 24004 07690 12/70 /3310 10150 20120 30003 40034 51004 60006 80001 90000=
07690,1996-09-24 03:00:00,14,1003.1,-0.3,82,11,20000,18.52,,,330,,,,,,,,,,,wg-a,,,,AAXX 24034 07690 12/70 13310 10140 20110 30000 40031 57003 60006 80001 90300=
07690,1996-09-24 06:00:00,13,1003.8,0.7,82,10,25000,22.224,,,330,13.3,18.8,,,,,,,,,wg-a,,,,AAXX 24064 07690 02575 23312 10130 20100 30007 40038 53007 60006 81501 90600 333 10188 20133 60004=
07690,1996-09-24 09:00:00,19,1005.3,1.6,78,15,50000,14.816,,,90,,,,,,,,,,,wg-a,,,,AAXX 24094 07690 12484 20908 10190 20150 30023 40053 51016 60006 82800 90900=
07690,1996-09-24 12:00:00,21,1006.1,0.8,64,14,35000,11.112,,,110,,,,,,,,,,,wg-a,,,,AAXX 24124 07690 12581 /1106 10210 20140 30031 40061 51008 60006 81800 91200=
07690,1996-09-24 15:00:00,20,1005.6,-0.5,68,14,35000,11.112,,,110,,,,,,,,,,,wg-a,,,,AAXX 24154 07690 12681 /1106 10200 20140 30026 40056 58005 60006 81200 91500=
07690,1996-09-24 18:00:00,19,1006.2,0.6,73,14,500,18.52,,,80,13.4,21.3,,,,,,,,,wg-a,,,,AAXX 24184 07690 12/00 /0810 10190 20140 30032 40062 53006 60006 80001 91800 333 10213 20134=
07690,1996-09-24 21:00:00,15,1007.9,1.6,88,13,20000,14.816,,,320,,,,,,,,,,,wg-a,,,,AAXX 24214 07690 12/70 03208 10150 20130 30048 40079 51016 60006 80000 92100=
07690,1996-09-25 00:00:00,13,1008,0.1,94,12,20000,7.408,,,10,,,,,,,,,,,wg-a,,,,AAXX 25004 07690 12/70 30104 10130 20120 30049 40080 50001 60006 80001 90000=
07690,1996-09-25 03:00:00,14,1008.3,0.3,72,9,20000,22.224,,,330,,,,,,,,,,,wg-a,,,,AAXX 25034 07690 12/70 /3312 10140 20090 30052 40083 51003 60006 81031 90300=
07690,1996-09-25 06:00:00,14,1008.3,-0,67,8,500,22.224,,,340,13.3,18.9,,,,,,,,,wg-a,,,,AAXX 25064 07690 02600 73412 10140 20080 30052 40083 55000 60006 81532 90600 333 10189 20133 60004=
07690,1996-09-25 09:00:00,17,1009.8,1.5,68,11,20000,11.112,,,270,,,,0,,,,,,,wg-a,,,,AAXX 25094 07690 12670 82706 10170 20110 30067 40098 51015 60007 81472 90900=
07690,1996-09-25 12:00:00,20,1009.2,-0.5,56,11,20000,11.112,,,160,,,,,,,,,,,wg-a,,,,AAXX 25124 07690 12670 /1606 10200 20110 30062 40092 58005 60006 81232 91200=
07690,1996-09-25 15:00:00,21,1007.7,-1.5,46,9,20000,18.52,,,70,,,,,,,,,,,wg-a,,,,AAXX 25154 07690 12670 /0710 10210 20090 30047 40077 56015 60006 81202 91500=
07690,1996-09-25 18:00:00,20,1008.8,1.1,60,12,500,22.224,,,70,13.5,21.7,,,,,,,,13,wg-a,,,,AAXX 25184 07690 32500 /0712 10200 20120 30058 40088 53011 71300 81932 91800 333 10217 20135=
07690,1996-09-25 21:00:00,15,1010.5,1.6,77,11,20000,14.816,,,340,,,,,,,,,,13,wg-a,,,,AAXX 25214 07690 12570 /3408 10150 20110 30074 40105 51016 60006 71300 81900 92100=
07690,1996-09-26 00:00:00,14,1011.8,1.3,77,10,20000,14.816,,,340,,,,,,,,,,,wg-a,,,,AAXX 26004 07690 12/70 /3408 10140 20100 30087 40118 53013 60006 8//01 90000=
07690,1996-09-26 03:00:00,14,1012.6,0.8,77,10,20000,25.928,,,330,,,,,,,,,,,wg-a,,,,AAXX 26034 07690 12/70 13314 10140 20100 30095 40126 53008 60006 80002 90300=
07690,1996-09-26 06:00:00,13,1014,1.4,77,9,35000,25.928,,,330,13.2,20,,,,,,,,,wg-a,,,,AAXX 26064 07690 02581 /3314 10130 20090 30109 40140 53014 60006 81500 90600 333 10200 20132 60004=
07690,1996-09-26 09:00:00,18,1015.6,1.6,64,11,500,11.112,,,320,,,,,,,,,,,wg-a,,,,AAXX 26094 07690 12500 /3206 10180 20110 30125 40156 51016 60006 81100 90900=
07690,1996-09-26 12:00:00,21,1015.4,-0.1,60,13,25000,18.52,,,190,,,,,,,,,,,wg-a,,,,AAXX 26124 07690 12675 /1910 10210 20130 30124 40154 57001 60006 81200 91200=
07690,1996-09-26 15:00:00,21,1015.1,-0.3,60,13,15000,14.816,,,170,,,,,,,,,,,wg-a,,,,AAXX 26154 07690 12665 /1708 10210 20130 30121 40151 55003 60006 81200 91500=
07690,1996-09-26 18:00:00,18,1016.4,1.2,77,14,11000,11.112,,,220,13.4,21.3,,,,,,,,,wg-a,,,,AAXX 26184 07690 12461 42206 10180 20140 30133 40164 53012 60006 84801 91800 333 10213 20134=
07690,1996-09-26 21:00:00,17,1017.6,1.2,82,14,10000,7.408,,,340,,,,,,,,,,,wg-a,,,,AAXX 26214 07690 12560 /3404 10170 20140 30145 40176 51012 60006 85200 92100=
07690,1996-09-27 00:00:00,15,1018,0.4,88,13,15000,14.816,,,330,,,,,,,,,,,wg-a,,,,AAXX 27004 07690 12/65 /3308 10150 20130 30149 40180 51004 60006 80000 90000=
07690,1996-09-27 03:00:00,15,1017.7,-0.3,82,12,15000,18.52,,,330,,,,,,,,,,,wg-a,,,,AAXX 27034 07690 12/65 03310 10150 20120 30146 40177 57003 60006 80000 90300=
07690,1996-09-27 06:00:00,15,1017.7,-0,77,11,20000,11.112,,,340,14.9,18.4,,,,,,,,,wg-a,,,,AAXX 27064 07690 02/70 13406 10150 20110 30146 40177 54000 60006 81030 90600 333 10184 20149 60004=
07690,1996-09-27 09:00:00,19,1018.1,0.4,64,12,500,7.408,,,330,,,,,,,,,,,wg-a,,,,AAXX 27094 07690 12500 23304 10190 20120 30150 40181 51004 60006 81131 90900=
07690,1996-09-27 12:00:00,21,1017.3,-0.7,69,15,20000,11.112,,,170,,,,,,,,,,,wg-a,,,,AAXX 27124 07690 12670 21706 10210 20150 30143 40173 57007 60006 81831 91200=
07690,1996-09-27 15:00:00,21,1016.5,-0.8,69,15,15000,11.112,,,190,,,,,,,,,,,wg-a,,,,AAXX 27154 07690 12665 51906 10210 20150 30135 40165 56008 60006 81831 91500=
07690,1996-09-27 18:00:00,20,1016,-0.6,68,14,20000,11.112,,,40,14.9,21.9,,,,,,,,,wg-a,,,,AAXX 27184 07690 12670 /0406 10200 20140 30129 40160 56006 60006 81531 91800 333 10219 20149=
07690,1996-09-27 20:00:00,20,1016,-0.6,68,14,20000,11.112,,,40,14.9,21.9,,,,,,,,,wg-a,,,,AAXX 27204 07690 12670 20406 10200 20140 30129 40160 56006 60006 81531 92000 333 10219 20149=
07690,1996-09-27 21:00:00,16,1016.2,0.2,88,14,20000,11.112,,,310,,,,,,,,,,,wg-a,,,,AAXX 27214 07690 12670 13106 10160 20140 30131 40162 53002 60006 81500 92100=
07690,1996-09-28 00:00:00,15,1015.3,-0.9,88,13,20000,11.112,,,330,,,,,,,,,,,wg-a,,,,AAXX 28004 07690 12670 33306 10150 20130 30122 40153 56009 60006 81531 90000=
07690,1996-09-28 03:00:00,14,1016.5,1.2,94,13,20000,18.52,,,330,,,,,,,,,,,wg-a,,,,AAXX 28034 07690 12/70 03310 10140 20130 30134 40165 53012 60006 80000 90300=
07690,1996-09-28 06:00:00,14,1018.4,1.9,88,12,25000,14.816,,,340,13.7,19.6,,,,,,,,,wg-a,,,,AAXX 28064 07690 02/75 23408 10140 20120 30153 40184 53019 60006 80001 90600 333 10196 20137 60004=
07690,1996-09-28 12:00:00,23,1020.8,0.6,61,15,500,11.112,,,150,,,,,,,,,,,wg-a,,,,AAXX 28124 07690 12600 21506 10230 20150 30178 40208 50006 60006 81101 91200=
07690,1996-09-28 15:00:00,22,1020.9,0.1,69,16,25000,11.112,,,180,,,,,,,,,,,wg-a,,,,AAXX 28154 07690 12675 21806 10220 20160 30179 40209 50001 60006 81201 91500=
07690,1996-09-28 18:00:00,19,1022.2,1.2,83,16,25000,3.704,,,240,14,22.8,,,,,,,,,wg-a,,,,AAXX 28184 07690 12775 32402 10190 20160 30191 40222 53012 60006 81501 91800 333 10228 20140=
07690,1996-09-28 21:00:00,17,1023.4,1.2,88,15,13000,11.112,,,300,,,,,,,,,,,wg-a,,,,AAXX 28214 07690 12/63 23006 10170 20150 30203 40234 53012 60006 80001 92100=
07690,1996-09-29 00:00:00,18,1023.5,0.1,73,13,15000,14.816,,,330,,,,,,,,,,,wg-a,,,,AAXX 29004 07690 12/65 33308 10180 20130 30204 40235 51001 60006 80001 90000=
07690,1996-09-29 03:00:00,17,1023.1,-0.4,72,12,25000,22.224,,,330,,,,,,,,,,,wg-a,,,,AAXX 29034 07690 12/75 23312 10170 20120 30200 40231 58004 60006 80001 90300=
07690,1996-09-29 06:00:00,15,1024.6,1.5,82,12,35000,22.224,,,330,15.4,19.1,,,,,,,,,wg-a,,,,AAXX 29064 07690 02/81 43312 10150 20120 30215 40246 51015 60006 81031 90600 333 10191 20154 60004=
07690,1996-09-29 12:00:00,22,1025.7,-0.1,69,16,20000,11.112,,,130,,,,,,,,,,,wg-a,,,,AAXX 29124 07690 12570 /1306 10220 20160 30226 40257 58001 60006 81102 91200=
07690,1996-09-29 15:00:00,22,1025,-0.7,69,16,15000,11.112,,,170,,,,,,,,,,,wg-a,,,,AAXX 29154 07690 12565 31706 10220 20160 30219 40250 56007 60006 81101 91500=
07690,1996-09-29 18:00:00,19,1025,-0,83,16,12000,7.408,,,230,15.4,22.8,,,,,,,,,wg-a,,,,AAXX 29184 07690 12462 22304 10190 20160 30219 40250 55000 60006 82501 91800 333 10228 20154=
07690,1996-09-29 21:00:00,17,1024.9,-0.1,94,16,12000,11.112,,,330,,,,,,,,,,,wg-a,,,,AAXX 29214 07690 12/62 03306 10170 20160 30218 40249 58001 60006 80000 92100=
07690,1996-09-30 00:00:00,15,1024.3,-0.6,100,15,12000,7.408,,,320,,,,,,,,,,,wg-a,,,,AAXX 30004 07690 12/62 03204 10150 20150 30212 40243 57006 60006 80000 90000=
07690,1996-09-30 03:00:00,15,1022.8,-1.5,94,14,12000,7.408,,,340,,,,0,,,,,,,wg-a,,,,AAXX 30034 07690 12462 /3404 10150 20140 30197 40228 58015 60007 81500 90300=
07690,1996-09-30 06:00:00,15,1022.9,0.1,88,13,15000,14.816,,,340,14.4,18.6,,,,,,,,,wg-a,,,,AAXX 30064 07690 12465 /3408 10150 20130 30198 40229 53001 60004 81501 90600 333 10186 20144=
07690,1996-09-30 09:00:00,19,1023.5,0.6,78,15,15000,3.704,,,210,,,,,,,,,,,wg-a,,,,AAXX 30094 07690 12465 42102 10190 20150 30204 40235 52006 60006 84800 90900=
07690,1996-09-30 12:00:00,22,1022.4,-1.1,65,15,15000,7.408,,,150,,,,,,,,,,,wg-a,,,,AAXX 30124 07690 12565 21504 10220 20150 30193 40224 58011 60006 82100 91200=
07690,1996-09-30 15:00:00,21,1021,-1.4,69,15,18000,7.408,,,150,,,,,,,,,,,wg-a,,,,AAXX 30154 07690 12468 /1504 10210 20150 30179 40210 56014 60006 81100 91500=
07690,1996-09-30 18:00:00,19,1020.8,-0.2,83,16,15000,7.408,,,130,14.8,21.8,,,,,,,,,wg-a,,,,AAXX 30184 07690 12465 /1304 10190 20160 30177 40208 55002 60006 85500 91800 333 10218 20148=
07690,1996-09-30 21:00:00,18,1020.6,-0.2,88,16,15000,7.408,,,110,,,,,,,,,,,wg-a,,,,AAXX 30214 07690 12465 41104 10180 20160 30175 40206 58002 60006 84100 92100=
07690,1996-10-01 00:00:00,16,1019.1,-1.5,94,15,15000,7.408,,,340,,,,,,,,,,,wg-a,,,,AAXX 01004 07690 12465 33404 10160 20150 30160 40191 58015 60006 83100 90000=
07690,1996-10-01 03:00:00,15,1017.5,-1.6,88,13,15000,14.816,,,340,,,,,,,,,,,wg-a,,,,AAXX 01034 07690 12465 /3408 10150 20130 30144 40175 56016 60006 81100 90300=
07690,1996-10-01 06:00:00,15,1016.6,-0.9,82,12,15000,14.816,,,330,14.2,19.5,,,,,,,,,wg-a,,,,AAXX 01064 07690 02465 /3308 10150 20120 30135 40166 56009 60006 81800 90600 333 10195 20142 60004=
07690,1996-10-01 09:00:00,18,1016.4,-0.2,68,12,25000,11.112,,,30,,,,,,,,,,,wg-a,,,,AAXX 01094 07690 12675 70306 10180 20120 30133 40164 57002 60006 86571 90900=
07690,1996-10-01 12:00:00,22,1014.8,-1.5,65,15,25000,11.112,,,110,,,,,,,,,,,wg-a,,,,AAXX 01124 07690 12575 51106 10220 20150 30118 40148 58015 60006 83881 91200=
07690,1996-10-01 15:00:00,21,1012.9,-1.9,73,16,20000,11.112,,,120,,,,,,,,,,,wg-a,,,,AAXX 01154 07690 12570 /1206 10210 20160 30099 40129 56019 60006 82871 91500=
07690,1996-10-01 18:00:00,20,1011.3,-1.6,73,15,15000,22.224,,,160,14.7,21.8,,,,,,,,,wg-a,,,,AAXX 01184 07690 12465 81612 10200 20150 30083 40113 58016 60006 8687/ 91800 333 10218 20147=
07690,1996-10-01 21:00:00,16,1011,-0.4,94,15,10000,3.704,,,350,,,,,,,,,,63,wg-a,,,,AAXX 01214 07690 32460 83502 10160 20150 30079 40110 58004 76386 8582/ 92100=
07690,1996-10-02 00:00:00,16,1009.8,-1.2,100,16,15000,11.112,,,280,,,,,,,,,,3,wg-a,,,,AAXX 02004 07690 02465 82806 10160 20160 30067 40098 56012 61000 70386 8487/ 90000 333 ////=
07690,1996-10-02 03:00:00,15,1007.3,-2.5,94,14,15000,7.408,,,320,,,,,,,,,,,wg-a,,,,AAXX 02034 07690 12465 83204 10150 20140 30042 40073 56025 60006 8487/ 90300=
07690,1996-10-02 06:00:00,14,1006.1,-1.2,94,13,20000,3.704,,,260,13.7,18.8,,0,,,,,,,wg-a,,,,AAXX 02064 07690 12470 42602 10140 20130 30030 40061 58012 60007 82571 90600 333 10188 20137=
07690,1996-10-02 09:00:00,19,1006.6,0.6,78,15,20000,3.704,,,110,,,,,,,,,,,wg-a,,,,AAXX 02094 07690 12470 51102 10190 20150 30036 40066 52006 60006 82131 90900=
07690,1996-10-02 12:00:00,21,1007,0.4,69,15,40000,11.112,,,200,,,,,,,,,,,wg-a,,,,AAXX 02124 07690 12582 32006 10210 20150 30040 40070 51004 60006 82231 91200=
07690,1996-10-02 18:00:00,19,1009.9,2.2,64,12,18000,14.816,,,30,13.5,22.2,,,,,,,,,wg-a,,,,AAXX 02184 07690 12768 40308 10190 20120 30069 40099 53022 60006 82532 91800 333 10222 20135=
07690,1996-10-02 21:00:00,16,1011.7,1.7,72,11,15000,7.408,,,340,,,,,,,,,,,wg-a,,,,AAXX 02214 07690 12665 23404 10160 20110 30086 40117 51017 60006 82500 92100=
07690,1996-10-03 00:00:00,15,1013.2,1.5,77,11,15000,18.52,,,340,,,,,,,,,,,wg-a,,,,AAXX 03004 07690 12665 23410 10150 20110 30101 40132 52015 60006 82500 90000=
07690,1996-10-03 03:00:00,15,1013.8,0.6,77,11,15000,18.52,,,330,,,,,,,,,,17,wg-a,,,,AAXX 03034 07690 12465 73310 10150 20110 30107 40138 51006 60006 71791 8598/ 90300=
07690,1996-10-03 06:00:00,15,1017.1,3.3,72,10,500,14.816,,,330,14.6,18.9,,,,,,,,1,wg-a,,,,AAXX 03064 07690 02500 33308 10150 20100 30140 40171 53033 60006 70191 8198/ 90600 333 10189 20146 60004=
07690,1996-10-03 09:00:00,18,1019.1,2,56,9,40000,11.112,,,320,,,,,,,,,,,wg-a,,,,AAXX 03094 07690 12/82 13206 10180 20090 30160 40191 51020 60006 81080 90900=
07690,1996-10-03 12:00:00,22,1019.9,0.8,43,9,40000,14.816,,,190,,,,,,,,,,,wg-a,,,,AAXX 03124 07690 12582 /1908 10220 20090 30168 40199 51008 60006 81100 91200=
07690,1996-10-03 15:00:00,22,1020,0.2,46,10,40000,14.816,,,150,,,,,,,,,,,wg-a,,,,AAXX 03154 07690 12582 /1508 10220 20100 30170 40200 51002 60006 81100 91500=
07690,1996-10-03 18:00:00,18,1021.4,1.3,68,12,20000,11.112,,,290,14.5,22.4,,,,,,,,,wg-a,,,,AAXX 03184 07690 12570 /2906 10180 20120 30183 40214 53013 60006 81170 91800 333 10224 20145=
07690,1996-10-03 21:00:00,15,1022.2,0.8,72,10,20000,18.52,,,330,,,,,,,,,,,wg-a,,,,AAXX 03214 07690 12/70 03310 10150 20100 30191 40222 52008 60006 80000 92100=
07690,1996-10-04 00:00:00,14,1022.2,0,72,9,20000,14.816,,,340,,,,,,,,,,,wg-a,,,,AAXX 04004 07690 12/70 03408 10140 20090 30191 40222 50000 60006 80000 90000=
07690,1996-10-04 03:00:00,14,1020.9,-1.3,72,9,25000,18.52,,,340,,,,,,,,,,,wg-a,,,,AAXX 04034 07690 12/75 03410 10140 20090 30178 40209 58013 60006 80000 90300=
07690,1996-10-04 06:00:00,13,1019.9,-1,72,8,50000,25.928,,,330,13,18,,,,,,,,,wg-a,,,,AAXX 04064 07690 02/84 33314 10130 20080 30168 40199 58010 60006 80001 90600 333 10180 20130 60004=
07690,1996-10-04 09:00:00,18,1020.6,0.7,52,8,40000,11.112,,,330,,,,,,,,,,,wg-a,,,,AAXX 04094 07690 12/82 33306 10180 20080 30175 40206 53007 60006 80002 90900=
07690,1996-10-04 12:00:00,21,1018.2,-2.4,53,11,40000,14.816,,,200,,,,,,,,,,,wg-a,,,,AAXX 04124 07690 12582 /2008 10210 20110 30151 40182 58024 60006 81102 91200=
07690,1996-10-04 15:00:00,20,1016.2,-2,56,11,500,14.816,,,190,,,,,,,,,,,wg-a,,,,AAXX 04154 07690 12500 /1908 10200 20110 30131 40162 56020 60006 81102 91500=
07690,1996-10-04 18:00:00,19,1015.6,-0.6,64,12,500,7.408,,,170,13.1,21.3,,,,,,,,,wg-a,,,,AAXX 04184 07690 12500 11704 10190 20120 30125 40156 56006 60006 81532 91800 333 10213 20131=
07690,1996-10-04 21:00:00,15,1015.4,-0.2,82,12,11000,14.816,,,330,,,,,,,,,,,wg-a,,,,AAXX 04214 07690 12/61 /3308 10150 20120 30123 40154 58002 60006 92100=
07690,1996-10-05 00:00:00,14,1012.8,-2.6,82,11,20000,14.816,,,340,,,,,,,,,,,wg-a,,,,AAXX 05004 07690 12/70 03408 10140 20110 30097 40128 56026 60006 80000 90000=
07690,1996-10-05 03:00:00,14,1011.3,-1.5,77,10,20000,18.52,,,340,,,,,,,,,,,wg-a,,,,AAXX 05034 07690 12/70 33410 10140 20100 30082 40113 56015 60006 80001 90300=
07690,1996-10-05 06:00:00,13,1010.3,-1,82,10,35000,18.52,,,340,13,18.8,,,,,,,,,wg-a,,,,AAXX 05064 07690 02581 33410 10130 20100 30072 40103 56010 60006 81502 90600 333 10188 20130 60004=
07690,1996-10-05 09:00:00,17,1010.2,-0.1,68,11,35000,7.408,,,330,,,,,,,,,,,wg-a,,,,AAXX 05094 07690 12681 33304 10170 20110 30071 40102 58001 60006 82801 90900=
07690,1996-10-05 12:00:00,20,1008.8,-1.3,60,12,25000,11.112,,,160,,,,,,,,,,,wg-a,,,,AAXX 05124 07690 12675 41606 10200 20120 30058 40088 56013 60006 84800 91200=
07690,1996-10-05 15:00:00,20,1007.4,-1.4,64,13,25000,7.408,,,110,,,,,,,,,,,wg-a,,,,AAXX 05154 07690 12575 21104 10200 20130 30044 40074 56014 60006 82800 91500=
07690,1996-10-05 18:00:00,19,1007.3,-0.1,73,14,20000,14.816,,,90,13,20.4,,,,,,,,,wg-a,,,,AAXX 05184 07690 12570 /0908 10190 20140 30043 40073 55001 60006 86800 91800 333 10204 20130=
07690,1996-10-05 21:00:00,18,1007.5,0.2,68,12,20000,11.112,,,90,,,,,,,,,,,wg-a,,,,AAXX 05214 07690 12670 /0906 10180 20120 30045 40075 51002 60006 84500 92100=
07690,1996-10-06 00:00:00,14,1007.2,-0.4,94,13,20000,11.112,,,330,,,,,,,,,,,wg-a,,,,AAXX 06004 07690 12670 23306 10140 20130 30041 40072 57004 60006 82500 90000=
07690,1996-10-06 03:00:00,14,1007.2,-0,88,12,20000,14.816,,,340,,,,,,,,,,,wg-a,,,,AAXX 06034 07690 12470 43408 10140 20120 30041 40072 55000 60006 82502 90300=
07690,1996-10-06 06:00:00,13,1007.8,0.6,88,11,15000,22.224,,,330,13.2,18.9,,,,,,,,,wg-a,,,,AAXX 06064 07690 02565 33312 10130 20110 30047 40078 52006 60006 81531 90600 333 10189 20132 60004=
07690,1996-10-06 09:00:00,17,1009.5,1.7,68,11,25000,11.112,,,330,,,,,,,,,,,wg-a,,,,AAXX 06094 07690 12675 33306 10170 20110 30064 40095 51017 60006 81134 90900=
07690,1996-10-06 12:00:00,21,1008.9,-0.5,53,11,25000,38.892,,,110,,,,,,,,,,,wg-a,,,,AAXX 06124 07690 12675 /1121 10210 20110 30059 40089 58005 60006 82872 91200=
07690,1996-10-06 15:00:00,20,1009.9,1,60,12,25000,29.632,,64.82,100,,,,,,,,,,,wg-a,,,,AAXX 06154 07690 12675 71016 10200 20120 30069 40099 51010 60006 8387/ 91500 333 91035=
07690,1996-10-06 18:00:00,20,1010.8,0.9,37,5,15000,18.52,,,30,13.4,21.6,,,,,,,,,wg-a,,,,AAXX 06184 07690 12565 /0310 10200 20050 30078 40108 51009 60006 82570 91800 333 10216 20134=
07690,1996-10-06 21:00:00,20,1010.9,0.1,43,7,15000,22.224,,,30,,,,,,,,,,,wg-a,,,,AAXX 06214 07690 12565 /0312 10200 20070 30079 40109 53001 60006 81280 92100=
07690,1996-10-07 00:00:00,19,1010.7,-0.3,52,9,15000,22.224,,,30,,,,,,,,,,21,wg-a,,,,AAXX 07004 07690 02565 70312 10190 20090 30076 40107 58003 61000 72161 8157/ 90000 333 6100=
07690,1996-10-07 03:00:00,21,1008.8,-1.8,46,9,15000,35.188,,50.004,70,,,,,,,,,,,wg-a,,,,AAXX 07034 07690 12565 /0719 10210 20090 30058 40088 58018 60006 8158/ 90300 333 91027=
07690,1996-10-07 06:00:00,19,1010.6,1.8,73,14,8000,50.004,,62.968,80,16.5,21.7,,1,,,1,,,60,wg-a,,,,AAXX 07064 07690 02358 80827 10190 20140 30076 40106 52018 60014 76061 8487/ 90600 333 10217 20165 60017 91034=
07690,1996-10-07 09:00:00,20,1010.3,-0.3,49,9,500,29.632,,72.228,30,,,,2,,,,,,21,wg-a,,,,AAXX 07094 07690 12500 70316 10200 20090 30073 40103 58003 60027 72162 82872 90900 333 91039=
07690,1996-10-07 12:00:00,16,1011.3,0.9,82,13,7000,18.52,,72.228,20,,,,3,,,,,,61,wg-a,,,,AAXX 07124 07690 02557 80210 10160 20130 30082 40113 53009 60046 76162 8497/ 91200 333 60037 91039=
07690,1996-10-07 15:00:00,15,1011.7,0.4,94,14,4000,11.112,,,10,,,,21,,,,,,10,wg-a,,,,AAXX 07154 07690 12340 80106 10150 20140 30086 40117 50004 60217 71066 8597/ 91500=
07690,1996-10-07 18:00:00,16,1011.1,-0.6,77,12,15000,14.816,,,20,14.2,21.2,,5,,,,,,60,wg-a,,,,AAXX 07184 07690 12465 70208 10160 20120 30080 40111 58006 60057 76062 8397/ 91800 333 10212 20142=
07690,1996-10-07 21:00:00,15,1010.1,-1,82,12,15000,18.52,,,340,,,,1,,,,,,61,wg-a,,,,AAXX 07214 07690 12265 83410 10150 20120 30070 40101 56010 60017 76162 8797/ 92100=
07690,1996-10-08 00:00:00,16,1010.5,0.4,82,13,15000,31.484,,,60,,,,7,,,,,,61,wg-a,,,,AAXX 08004 07690 02365 80617 10160 20130 30074 40105 50004 60086 76162 8497/ 90000 333 60077=
07690,1996-10-08 03:00:00,14,1008.4,-2.1,94,13,15000,14.816,,,330,,,,3,,,,,,61,wg-a,,,,AAXX 08034 07690 12565 83308 10140 20130 30053 40084 58021 60037 76166 8787/ 90300=
07690,1996-10-08 06:00:00,14,1008.8,0.4,94,13,12000,3.704,,,340,13.6,16.1,,4,,,44,,,61,wg-a,,,,AAXX 08064 07690 02262 83402 10140 20130 30057 40088 53004 60444 76166 8782/ 90600 333 10161 20136 60047=
07690,1996-10-08 09:00:00,14,1008.8,0,94,13,7000,7.408,,,290,,,,8,,,,,,61,wg-a,,,,AAXX 08094 07690 12457 82904 10140 20130 30057 40088 50000 60087 76166 8587/ 90900=
07690,1996-10-08 12:00:00,14,1008.9,0.1,100,14,6000,14.816,,,320,,,,6,,,,,,61,wg-a,,,,AAXX 08124 07690 02556 83208 10140 20140 30058 40089 50001 60146 76166 8487/ 91200 333 60067=
07690,1996-10-08 15:00:00,16,1008.4,-0.5,94,15,25000,14.816,,,320,,,,2,,,,,,1,wg-a,,,,AAXX 08154 07690 12375 73208 10160 20150 30053 40084 56005 60027 70162 83672 91500=
07690,1996-10-08 18:00:00,16,1009.8,1.4,94,15,15000,7.408,,,310,13.5,16.4,,,,,,,,3,wg-a,,,,AAXX 08184 07690 32765 73104 10160 20150 30067 40098 53014 70362 82270 91800 333 10164 20135=
07690,1996-10-08 21:00:00,15,1010.9,1.1,94,14,15000,18.52,,,330,,,,1,,,,,,21,wg-a,,,,AAXX 08214 07690 12765 73310 10150 20140 30078 40109 51011 60017 72162 8357/ 92100=
07690,1996-10-09 00:00:00,16,1010.7,-0.2,82,13,20000,25.928,,,330,,,,,,,,,,21,wg-a,,,,AAXX 09004 07690 02570 73314 10160 20130 30076 40107 58002 60016 72162 8457/ 90000 333 61000=
07690,1996-10-09 03:00:00,16,1010.4,-0.3,77,12,20000,22.224,,,320,,,,,,,,,,,wg-a,,,,AAXX 09034 07690 12570 73212 10160 20120 30073 40104 55003 60006 8457/ 90300=
07690,1996-10-09 06:00:00,15,1011,0.6,77,11,20000,25.928,,,330,14.6,15.8,,,,,17,,,,wg-a,,,,AAXX 09064 07690 12770 /3314 10150 20110 30079 40110 53006 60174 84530 90600 333 10158 20146=
07690,1996-10-09 09:00:00,17,1012.5,1.5,72,12,20000,22.224,,,330,,,,,,,,,,,wg-a,,,,AAXX 09094 07690 12770 63312 10170 20120 30094 40125 51015 60006 84530 90900=
07690,1996-10-09 12:00:00,22,1012.1,-0.3,65,15,20000,11.112,,,180,,,,,,,,,,,wg-a,,,,AAXX 09124 07690 12770 31806 10220 20150 30091 40121 58003 60006 83530 91200=
07690,1996-10-09 15:00:00,20,1011.9,-0.2,73,15,500,25.928,,,210,,,,,,,,,,,wg-a,,,,AAXX 09154 07690 12600 /2114 10200 20150 30089 40119 55002 60006 81200 91500=
07690,1996-10-09 18:00:00,19,1013.3,1.3,73,14,500,7.408,,,180,14.9,22.3,,,,,,,,,wg-a,,,,AAXX 09184 07690 12600 21804 10190 20140 30102 40133 53013 60006 81502 91800 333 10223 20149=
07690,1996-10-09 21:00:00,16,1014.4,1.1,88,14,20000,11.112,,,340,,,,,,,,,,,wg-a,,,,AAXX 09214 07690 12/70 33406 10160 20140 30113 40144 53011 60006 81032 92100=
07690,1996-10-10 00:00:00,16,1014.5,0.1,82,13,20000,11.112,,,340,,,,,,,,,,,wg-a,,,,AAXX 10004 07690 12/70 33406 10160 20130 30114 40145 51001 60006 83030 90000=
07690,1996-10-10 03:00:00,16,1014.1,-0.4,77,12,20000,14.816,,,340,,,,,,,,,,,wg-a,,,,AAXX 10034 07690 12/70 33408 10160 20120 30110 40141 58004 60006 83030 90300=
07690,1996-10-10 06:00:00,15,1014.6,0.5,82,12,20000,11.112,,,340,15.3,18.5,,,,,,,,,wg-a,,,,AAXX 10064 07690 02/70 33406 10150 20120 30115 40146 53005 60006 83030 90600 333 10185 20153 60004=
07690,1996-10-10 09:00:00,19,1016,1.4,68,13,40000,3.704,,,310,,,,,,,,,,,wg-a,,,,AAXX 10094 07690 12682 53102 10190 20130 30129 40160 51014 60006 81130 90900=
07690,1996-10-10 12:00:00,21,1015.5,-0.4,69,15,25000,11.112,,,180,,,,,,,,,,,wg-a,,,,AAXX 10124 07690 12575 31806 10210 20150 30125 40155 58004 60006 81230 91200=
07690,1996-10-10 15:00:00,20,1015.6,0.1,73,15,8000,7.408,,,100,,,,,,,,,,,wg-a,,,,AAXX 10154 07690 12558 71004 10200 20150 30126 40156 53001 60006 8597/ 91500=
07690,1996-10-10 18:00:00,15,1016.6,0.9,94,14,8000,14.816,,,360,14.9,22.1,,5,,,,,,61,wg-a,,,,AAXX 10184 07690 12558 73608 10150 20140 30135 40166 51009 60057 76196 859// 91800 333 10221 20149=
07690,1996-10-10 21:00:00,15,1018.6,-0,94,14,9000,11.112,,,340,,,,11,,,,,,61,wg-a,,,,AAXX 10214 07690 12359 83406 10150 20140 30155 40186 54000 60117 76166 879// 92100=
07690,1996-10-11 00:00:00,15,1017.9,-0.7,88,13,10000,11.112,,,360,,,,3,,,,,,60,wg-a,,,,AAXX 11004 07690 02560 83606 10150 20130 30148 40179 55007 60146 76066 879// 90000 333 60037=
07690,1996-10-11 03:00:00,15,1017.2,-0.7,88,13,12000,18.52,,,30,,,,,,,,,,60,wg-a,,,,AAXX 11034 07690 02562 80310 10150 20130 30141 40172 58007 61000 76066 879// 90300 333 ////=
07690,1996-10-11 06:00:00,15,1017.2,0,82,12,20000,22.224,,,340,14.2,15.2,,,,,19,,,2,wg-a,,,,AAXX 11064 07690 02570 73412 10150 20120 30141 40172 50000 60194 70262 868// 90600 333 10152 20142 61000=
07690,1996-10-11 09:00:00,16,1019.1,1.9,77,12,500,14.816,,,320,,,,,,,,,,,wg-a,,,,AAXX 11094 07690 12700 73208 10160 20120 30160 40191 51019 60006 8357/ 90900=
07690,1996-10-11 12:00:00,21,1018,-1,53,11,25000,11.112,,,170,,,,,,,,,,,wg-a,,,,AAXX 11124 07690 12775 /1706 10210 20110 30150 40180 57010 60006 81100 91200=
07690,1996-10-11 15:00:00,20,1018,-0.1,64,13,18000,7.408,,,250,,,,,,,,,,,wg-a,,,,AAXX 11154 07690 12768 /2504 10200 20130 30149 40180 58001 60006 81200 91500=
07690,1996-10-11 18:00:00,17,1018.6,0.6,77,13,13000,7.408,,,300,14.8,21.7,,,,,,,,,wg-a,,,,AAXX 11184 07690 12763 /3004 10170 20130 30155 40186 53006 60006 81500 91800 333 10217 20148=
07690,1996-10-11 21:00:00,15,1019.1,0.5,77,11,15000,14.816,,,340,,,,,,,,,,,wg-a,,,,AAXX 11214 07690 12/65 03408 10150 20110 30160 40191 51005 60006 80000 92100=
07690,1996-10-12 00:00:00,14,1018.8,-0.3,77,10,20000,18.52,,,340,,,,,,,,,,,wg-a,,,,AAXX 12004 07690 12/70 03410 10140 20100 30157 40188 58003 60006 80000 90000=
07690,1996-10-12 03:00:00,14,1018,-0.8,77,10,20000,14.816,,,340,,,,,,,,,,,wg-a,,,,AAXX 12034 07690 12/70 03408 10140 20100 30149 40180 58008 60006 80000 90300=
07690,1996-10-12 06:00:00,13,1018.7,0.7,77,9,15000,22.224,,,330,12.7,16.5,,,,,,,,,wg-a,,,,AAXX 12064 07690 02/65 03312 10130 20090 30156 40187 53007 60006 80000 90600 333 10165 20127 60004=
07690,1996-10-12 09:00:00,16,1019.7,1,63,9,15000,18.52,,,330,,,,,,,,,,,wg-a,,,,AAXX 12094 07690 12/65 03310 10160 20090 30166 40197 51010 60006 80000 90900=
07690,1996-10-12 12:00:00,21,1019.4,-0.3,53,11,7000,14.816,,,100,,,,,,,,,,,wg-a,,,,AAXX 12124 07690 12657 /1008 10210 20110 30163 40194 58003 60006 81100 91200=
07690,1996-10-12 15:00:00,20,1018.6,-0.8,64,13,8000,7.408,,,80,,,,,,,,,,,wg-a,,,,AAXX 12154 07690 12658 /0804 10200 20130 30155 40186 56008 60006 81100 91500=
07690,1996-10-12 18:00:00,16,1018.8,0.2,82,13,10000,7.408,,,330,12.8,21.3,,,,,,,,,wg-a,,,,AAXX 12184 07690 12/60 03304 10160 20130 30157 40188 53002 60006 80000 91800 333 10213 20128=
07690,1996-10-12 21:00:00,14,1019.1,0.3,82,11,10000,18.52,,,340,,,,,,,,,,,wg-a,,,,AAXX 12214 07690 12460 /3410 10140 20110 30160 40191 53003 60006 81500 92100=
07690,1996-10-13 00:00:00,13,1018.2,-0.9,88,11,12000,18.52,,,340,,,,,,,,,,,wg-a,,,,AAXX 13004 07690 12462 /3410 10130 20110 30151 40182 58009 60006 81500 90000=
07690,1996-10-13 03:00:00,13,1017.5,-0.7,82,10,15000,22.224,,,330,,,,,,,,,,,wg-a,,,,AAXX 13034 07690 12/65 03312 10130 20100 30144 40175 58007 60006 80000 90300=
07690,1996-10-13 06:00:00,12,1016.9,-0.6,82,9,12000,22.224,,,340,12.3,16.1,,,,,,,,,wg-a,,,,AAXX 13064 07690 02462 /3412 10120 20090 30138 40169 58006 60006 81502 90600 333 10161 20123 60004=
07690,1996-10-13 09:00:00,19,1017,0.1,64,12,15000,35.188,,53.708,70,,,,,,,,,,,wg-a,,,,AAXX 13094 07690 12665 /0719 10190 20120 30139 40170 50001 60006 81132 90900 333 91029=
07690,1996-10-13 12:00:00,21,1015.2,-1.7,60,13,10000,42.596,,,90,,,,,,,,,,,wg-a,,,,AAXX 13124 07690 12660 /0923 10210 20130 30122 40152 58017 60006 82232 91200=
07690,1996-10-13 15:00:00,20,1014.5,-0.7,60,12,15000,46.3,,72.228,80,,,,,,,,,,,wg-a,,,,AAXX 13154 07690 12665 70825 10200 20120 30115 40145 57007 60006 82836 91500 333 91039=
07690,1996-10-13 18:00:00,20,1013.9,-0.6,53,10,15000,38.892,,,70,12.3,20.9,,,,,,,,,wg-a,,,,AAXX 13184 07690 12765 70721 10200 20100 30109 40139 56006 60006 82502 91800 333 10209 20123=
07690,1996-10-13 21:00:00,20,1013.3,-0.6,56,11,15000,35.188,,55.56,80,,,,,,,,,,,wg-a,,,,AAXX 13214 07690 12665 70819 10200 20110 30103 40133 55006 60006 82522 92100 333 91030=
07690,1996-10-14 00:00:00,17,1013.3,-0.1,82,14,15000,35.188,,,70,,,,,,,,,,60,wg-a,,,,AAXX 14004 07690 02565 80719 10170 20140 30102 40133 55001 61000 76062 8557/ 90000 333 6100=
07690,1996-10-14 03:00:00,17,1012.3,-1,72,12,15000,14.816,,,30,,,,0,,,,,,1,wg-a,,,,AAXX 14034 07690 12565 80308 10170 20120 30092 40123 58010 60007 70162 8387/ 90300=
07690,1996-10-14 06:00:00,19,1012.7,0.4,68,13,20000,38.892,,61.116,80,16.1,20.3,,,,,,,,3,wg-a,,,,AAXX 14064 07690 12570 70821 10190 20130 30096 40127 53004 60004 70362 8487/ 90600 333 10203 20161 91033=
07690,1996-10-14 09:00:00,18,1013.7,1,73,13,12000,42.596,,,80,,,,,,,,,,60,wg-a,,,,AAXX 14094 07690 02462 70823 10180 20130 30106 40137 51010 61000 76062 8587/ 90900 333 ////=
07690,1996-10-14 12:00:00,20,1012.8,-0.8,60,12,15000,31.484,,61.116,70,,,,,,,,,,3,wg-a,,,,AAXX 14124 07690 02565 70717 10200 20120 30098 40128 58008 61000 70362 8587/ 91200 333 6100 91033=
07690,1996-10-14 15:00:00,19,1011.1,-1.8,68,13,18000,11.112,,,10,,,,,,,,,,,wg-a,,,,AAXX 14154 07690 12568 80106 10190 20130 30080 40111 56018 60006 8487/ 91500=
07690,1996-10-14 18:00:00,18,1010.9,-0.2,68,12,15000,18.52,,,20,17.1,20.1,,,,,,,,3,wg-a,,,,AAXX 14184 07690 02565 80210 10180 20120 30078 40109 58002 61000 70362 8587/ 91800 333 10201 20171 ////=
07690,1996-10-14 21:00:00,19,1009.1,-1.7,60,11,15000,18.52,,,20,,,,,,,,,,21,wg-a,,,,AAXX 14214 07690 02665 70210 10190 20110 30061 40091 58017 61000 72162 8357/ 92100 333 ////=
07690,1996-10-15 00:00:00,21,1007.5,-1.6,64,14,15000,31.484,,,70,,,,,,,,,,2,wg-a,,,,AAXX 15004 07690 02665 70717 10210 20140 30045 40075 58016 61000 70262 8357/ 90000 333 ////=
07690,1996-10-15 03:00:00,20,1005.3,-2.2,78,16,15000,35.188,,,80,,,,0,,,,,,60,wg-a,,,,AAXX 15034 07690 12265 70819 10200 20160 30023 40053 58022 60007 76062 8657/ 90300=
07690,1996-10-15 06:00:00,16,1003.9,-1.5,82,13,20000,14.816,,,30,15.8,21.8,,0,,,,,,60,wg-a,,,,AAXX 15064 07690 02570 70308 10160 20130 30008 40039 58015 60004 76062 8257/ 90600 333 10218 20158 60007=
07690,1996-10-15 09:00:00,16,1004.9,1,88,14,500,18.52,,,320,,,,2,,,,,,61,wg-a,,,,AAXX 15094 07690 12200 83210 10160 20140 30018 40049 50010 60027 76162 889// 90900=
07690,1996-10-15 12:00:00,16,1003.8,-1.1,88,14,15000,18.52,,,20,,,,11,,,,,,60,wg-a,,,,AAXX 15124 07690 02265 80210 10160 20140 30007 40038 58011 60136 76062 889// 91200 333 60117=
07690,1996-10-15 15:00:00,16,1003.8,-1.1,88,14,15000,18.52,,,20,,,,11,,,,,,60,wg-a,,,,AAXX 15154 07690 02265 80210 10160 20140 30007 40038 58011 60136 76062 889// 91500 333 60117=
07690,1996-10-15 18:00:00,15,1004.1,0.6,100,15,12000,7.408,,,330,15,18,,3,,,,,,60,wg-a,,,,AAXX 15184 07690 12462 83304 10150 20150 30010 40041 53006 60037 76062 888// 91800 333 10180 20150=
07690,1996-10-15 21:00:00,15,1003.4,-0.7,94,14,10000,7.408,,,310,,,,1,,,,,,21,wg-a,,,,AAXX 15214 07690 12460 83104 10150 20140 30003 40034 55007 60017 72162 888// 92100=
07690,1996-10-16 00:00:00,15,1002.7,-0.7,94,14,10000,7.408,,,330,,,,1,,,,,,61,wg-a,,,,AAXX 16004 07690 02460 83304 10150 20140 39996 40027 58007 60016 76162 888// 90000 333 60017=
07690,1996-10-16 03:00:00,14,1001.6,-1.1,100,14,10000,3.704,,,350,,,,1,,,,,,61,wg-a,,,,AAXX 16034 07690 12360 83502 10140 20140 39985 40016 56011 60017 76166 888// 90300=
07690,1996-10-16 06:00:00,14,1001,-0.6,100,14,9000,7.408,,,330,13.9,15.4,,,,,18,,,21,wg-a,,,,AAXX 16064 07690 02359 83304 10140 20140 39979 40010 57006 60184 72162 888// 90600 333 10154 20139 61000=
07690,1996-10-16 09:00:00,16,1001.3,0.3,88,14,10000,7.408,,,330,,,,,,,,,,,wg-a,,,,AAXX 16094 07690 12360 73304 10160 20140 39982 40013 50003 60006 8787/ 90900=
07690,1996-10-16 12:00:00,18,1001.3,0.1,83,15,12000,7.408,,,140,,,,,,,,,,,wg-a,,,,AAXX 16124 07690 12462 71404 10180 20150 39983 40013 50001 60006 8387/ 91200=
07690,1996-10-16 15:00:00,16,1001.7,0.3,94,15,8000,7.408,,,170,,,,8,,,,,,61,wg-a,,,,AAXX 16154 07690 12358 71704 10160 20150 39986 40017 53003 60087 76186 8687/ 91500=
07690,1996-10-16 18:00:00,15,1002.5,0.8,100,15,15000,3.704,,,320,13.9,18.1,,1,,,,,,1,wg-a,,,,AAXX 16184 07690 12465 73202 10150 20150 39994 40025 53008 60017 70186 8487/ 91800 333 10181 20139=
07690,1996-10-16 21:00:00,15,1003.5,1,94,14,10000,7.408,,,340,,,,,,,,,,60,wg-a,,,,AAXX 16214 07690 02460 83404 10150 20140 30004 40035 53010 61000 76086 8327/ 92100 333 ////=
07690,1996-10-17 00:00:00,14,1003.8,0.3,100,14,18000,11.112,,,330,,,,0,,,,,,21,wg-a,,,,AAXX 17004 07690 02468 /3306 10140 20140 30007 40038 51003 60016 72186 8387/ 90000 333 60007=
07690,1996-10-17 03:00:00,14,1004.3,0.5,94,13,15000,14.816,,,330,,,,,,,,,,,wg-a,,,,AAXX 17034 07690 12565 83308 10140 20130 30012 40043 53005 60006 8357/ 90300=
07690,1996-10-17 06:00:00,14,1004.4,0.1,88,12,20000,14.816,,,340,13.5,15.2,,,,,9,,,,wg-a,,,,AAXX 17064 07690 12670 /3408 10140 20120 30013 40044 52001 60094 83570 90600 333 10152 20135=
07690,1996-10-17 09:00:00,17,1004.8,0.4,68,11,40000,11.112,,,330,,,,,,,,,,,wg-a,,,,AAXX 17094 07690 12582 43306 10170 20110 30017 40048 51004 60006 81201 90900=
07690,1996-10-17 12:00:00,19,1004.5,-0.2,64,12,40000,11.112,,,180,,,,,,,,,,,wg-a,,,,AAXX 17124 07690 12582 /1806 10190 20120 30015 40045 58002 60006 81201 91200=
07690,1996-10-17 15:00:00,20,1004.1,-0.4,64,13,40000,18.52,,,100,,,,,,,,,,,wg-a,,,,AAXX 17154 07690 12682 /1010 10200 20130 30011 40041 56004 60006 81200 91500=
07690,1996-10-17 18:00:00,17,1005.8,1.7,77,13,20000,18.52,,,100,13.4,20.1,,,,,,,,,wg-a,,,,AAXX 17184 07690 12470 /1010 10170 20130 30028 40058 53017 60006 81200 91800 333 10201 20134=
07690,1996-10-17 21:00:00,13,1007.3,1.4,82,10,15000,14.816,,,330,,,,,,,,,,,wg-a,,,,AAXX 17214 07690 12565 23308 10130 20100 30042 40073 51014 60006 82200 92100=
07690,1996-10-18 00:00:00,12,1008.3,1,67,6,15000,11.112,,,350,,,,,,,,,,,wg-a,,,,AAXX 18004 07690 12665 /3506 10120 20060 30052 40083 51010 60006 81100 90000=
07690,1996-10-18 06:00:00,11,1009.8,1,62,4,50000,22.224,,,330,10.8,17.4,,,,,,,,,wg-a,,,,AAXX 18064 07690 02584 13312 10110 20040 30067 40098 51010 60006 81200 90600 333 10174 20108 60004=
07690,1996-10-18 09:00:00,15,1012.1,2.3,51,5,50000,22.224,,,330,,,,,,,,,,,wg-a,,,,AAXX 18094 07690 12584 /3312 10150 20050 30090 40121 53023 60006 81200 90900=
07690,1996-10-18 12:00:00,19,1012.8,0.7,56,10,40000,11.112,,,170,,,,,,,,,,,wg-a,,,,AAXX 18124 07690 12582 /1706 10190 20100 30097 40128 51007 60006 81200 91200=
07690,1996-10-18 15:00:00,19,1013.8,1,49,8,50000,11.112,,,170,,,,,,,,,,,wg-a,,,,AAXX 18154 07690 12584 /1706 10190 20080 30107 40138 51010 60006 81400 91500=
07690,1996-10-18 18:00:00,14,1015.4,1.6,77,10,11000,11.112,,,330,10.8,19.5,,,,,,,,,wg-a,,,,AAXX 18184 07690 12/61 /3306 10140 20100 30123 40154 51016 60006 91800 333 10195 20108=
07690,1996-10-18 21:00:00,12,1016.3,0.9,82,9,25000,14.816,,,340,,,,,,,,,,,wg-a,,,,AAXX 18214 07690 12/75 13408 10120 20090 30132 40163 52009 60006 81030 92100=
07690,1996-10-19 00:00:00,13,1015.2,-1.1,77,9,25000,18.52,,,330,,,,,,,,,,,wg-a,,,,AAXX 19004 07690 12/75 03310 10130 20090 30121 40152 56011 60006 80000 90000=
07690,1996-10-19 03:00:00,11,1014.5,-0.7,82,8,25000,22.224,,,330,,,,,,,,,,,wg-a,,,,AAXX 19034 07690 12/75 03312 10110 20080 30114 40145 56007 60006 80000 90300=
07690,1996-10-19 06:00:00,11,1015.3,0.7,76,7,40000,25.928,,,330,10.7,14.1,,,,,,,,,wg-a,,,,AAXX 19064 07690 02582 33314 10110 20070 30121 40153 53007 60006 81530 90600 333 10141 20107 60004=
07690,1996-10-19 09:00:00,14,1016.7,1.5,67,8,35000,14.816,,,330,,,,0,,,,,,,wg-a,,,,AAXX 19094 07690 12581 53308 10140 20080 30136 40167 51015 60007 81132 90900=
07690,1996-10-19 12:00:00,19,1016,-0.7,64,12,35000,7.408,,,120,,,,,,,,,,,wg-a,,,,AAXX 19124 07690 12581 21204 10190 20120 30129 40160 56007 60006 81132 91200=
07690,1996-10-19 15:00:00,19,1016.7,0.7,60,11,35000,11.112,,,100,,,,,,,,,,,wg-a,,,,AAXX 19154 07690 12681 21006 10190 20110 30136 40167 53007 60006 81530 91500=
07690,1996-10-19 18:00:00,15,1018.8,2.1,77,11,25000,7.408,,,330,10.9,19.6,,,,,,,,,wg-a,,,,AAXX 19184 07690 32575 /3304 10150 20110 30157 40188 51021 81500 91800 333 10196 20109=
07690,1996-10-19 21:00:00,13,1020.3,1.5,77,9,15000,18.52,,,330,,,,,,,,,,,wg-a,,,,AAXX 19214 07690 12/65 03310 10130 20090 30172 40203 51015 60006 80000 92100=
07690,1996-10-20 00:00:00,13,1020.7,0.4,67,7,15000,25.928,,,330,,,,,,,,,,,wg-a,,,,AAXX 20004 07690 12/65 03314 10130 20070 30176 40207 51004 60006 80000 90000=
07690,1996-10-20 06:00:00,12,1022,1.3,54,3,50000,18.52,,,340,12.2,15.1,,,,,,,,,wg-a,,,,AAXX 20064 07690 02/84 33410 10120 20030 30188 40220 53013 60006 80004 90600 333 10151 20122 60004=
07690,1996-10-20 12:00:00,21,1023.1,-0.3,46,9,50000,11.112,,,190,,,,,,,,,,,wg-a,,,,AAXX 20124 07690 12/84 41906 10210 20090 30200 40231 58003 60006 80001 91200=
07690,1996-10-20 15:00:00,19,1022.6,-0.5,60,11,50000,11.112,,,230,,,,,,,,,,,wg-a,,,,AAXX 20154 07690 12/84 62306 10190 20110 30195 40226 57005 60006 80002 91500=
07690,1996-10-20 18:00:00,15,1022.2,-0.4,67,9,25000,14.816,,,320,12.2,21,,,,,,,,,wg-a,,,,AAXX 20184 07690 12/75 53208 10150 20090 30191 40222 55004 60006 82042 91800 333 10210 20122=
07690,1996-10-20 21:00:00,14,1020.7,-1.5,67,8,20000,14.816,,,330,,,,,,,,,,,wg-a,,,,AAXX 20214 07690 12/70 63308 10140 20080 30176 40207 56015 60006 82032 92100=
07690,1996-10-21 00:00:00,14,1018.4,-2.3,67,8,20000,11.112,,,340,,,,,,,,,,,wg-a,,,,AAXX 21004 07690 12/70 53406 10140 20080 30153 40184 58023 60006 83052 90000=
07690,1996-10-21 03:00:00,14,1016.7,-1.7,72,9,20000,14.816,,,340,,,,,,,,,,,wg-a,,,,AAXX 21034 07690 12/70 63408 10140 20090 30136 40167 56017 60006 85052 90300=
07690,1996-10-21 06:00:00,12,1016.5,-0.2,76,8,500,18.52,,,340,12.1,14.8,,,,,,,,,wg-a,,,,AAXX 21064 07690 02400 /3410 10120 20080 30134 40165 56002 60006 81542 90600 333 10148 20121 60004=
07690,1996-10-21 09:00:00,14,1016.7,0.2,72,9,7000,14.816,,,330,,,,,,,,,,,wg-a,,,,AAXX 21094 07690 12557 /3308 10140 20090 30136 40167 50002 60006 81542 90900=
07690,1996-10-21 12:00:00,19,1015.6,-1.1,68,13,20000,3.704,,,120,,,,,,,,,,,wg-a,,,,AAXX 21124 07690 12/70 /1202 10190 20130 30125 40156 57011 60006 80002 91200=
07690,1996-10-21 15:00:00,20,1014.5,-1.1,73,15,20000,14.816,,,100,,,,,,,,,,,wg-a,,,,AAXX 21154 07690 12470 /1008 10200 20150 30114 40145 56011 60006 82502 91500=
07690,1996-10-21 18:00:00,18,1014.9,0.4,83,15,20000,18.52,,,90,12,20,,,,,,,,,wg-a,,,,AAXX 21184 07690 12570 /0910 10180 20150 30118 40149 53004 60006 83502 91800 333 10200 20120=
07690,1996-10-21 21:00:00,18,1015.9,1,77,14,12000,18.52,,,80,,,,,,,,,,,wg-a,,,,AAXX 21214 07690 12562 /0810 10180 20140 30128 40159 53010 60006 85502 92100=
07690,1996-10-22 00:00:00,15,1016.6,0.7,94,14,12000,11.112,,,340,,,,,,,,,,,wg-a,,,,AAXX 22004 07690 12562 73406 10150 20140 30135 40166 51007 60006 86502 90000=
07690,1996-10-22 03:00:00,13,1016.2,-0.4,94,12,15000,14.816,,,340,,,,,,,,,,,wg-a,,,,AAXX 22034 07690 12565 43408 10130 20120 30131 40162 58004 60006 82502 90300=
07690,1996-10-22 06:00:00,12,1016.9,0.7,88,10,20000,18.52,,,330,12,18.6,,,,,,,,,wg-a,,,,AAXX 22064 07690 02570 33310 10120 20100 30138 40169 53007 60006 81502 90600 333 10186 20120 60004=
07690,1996-10-22 09:00:00,17,1017.8,0.9,59,9,25000,11.112,,,330,,,,,,,,,,,wg-a,,,,AAXX 22094 07690 12/75 33306 10170 20090 30147 40178 51009 60006 80002 90900=
07690,1996-10-22 12:00:00,20,1017.8,-0,73,15,500,14.816,,,110,,,,,,,,,,,wg-a,,,,AAXX 22124 07690 12/00 61108 10200 20150 30147 40178 54000 60006 80002 91200=
07690,1996-10-22 15:00:00,20,1017.2,-0.6,78,16,25000,7.408,,,160,,,,,,,,,,,wg-a,,,,AAXX 22154 07690 12575 /1604 10200 20160 30141 40172 57006 60006 81102 91500=
07690,1996-10-22 18:00:00,16,1018,0.8,100,16,15000,3.704,,,270,12.2,20.7,,,,,,,,,wg-a,,,,AAXX 22184 07690 12465 /2702 10160 20160 30149 40180 53008 60006 81502 91800 333 10207 20122=
07690,1996-10-22 21:00:00,15,1018.8,0.8,94,14,6000,3.704,,,330,,,,,,,,,,,wg-a,,,,AAXX 22214 07690 12456 23302 10150 20140 30157 40188 52008 60006 82500 92100=
07690,1996-10-23 00:00:00,12,1018.8,-0,94,11,12000,7.408,,,320,,,,,,,,,,,wg-a,,,,AAXX 23004 07690 12462 /3204 10120 20110 30157 40188 54000 60006 81500 90000=
07690,1996-10-23 03:00:00,13,1018.9,0.1,77,9,12000,18.52,,,340,,,,,,,,,,,wg-a,,,,AAXX 23034 07690 12462 /3410 10130 20090 30158 40189 53001 60006 81500 90300=
07690,1996-10-23 06:00:00,13,1019.9,1,72,8,12000,14.816,,,340,11.7,16.3,,,,,,,,,wg-a,,,,AAXX 23064 07690 02462 /3408 10130 20080 30168 40199 51010 60006 81500 90600 333 10163 20117 60004=
07690,1996-10-23 12:00:00,21,1021.6,0.1,69,15,15000,7.408,,,110,,,,,,,,,,,wg-a,,,,AAXX 23124 07690 12/65 11104 10210 20150 30185 40216 50001 60006 80001 91200=
07690,1996-10-23 15:00:00,20,1021.2,-0.4,73,15,7000,3.704,,,120,,,,,,,,,,,wg-a,,,,AAXX 23154 07690 12457 51202 10200 20150 30181 40212 55004 60006 85100 91500=
07690,1996-10-23 18:00:00,18,1022.7,1.5,77,14,10000,7.408,,,90,12.7,21,,,,,,,,,wg-a,,,,AAXX 23184 07690 12460 30904 10180 20140 30196 40227 53015 60006 83100 91800 333 10210 20127=
07690,1996-10-23 21:00:00,15,1024,1.3,94,14,8000,11.112,,,320,,,,,,,,,,,wg-a,,,,AAXX 23214 07690 12/58 03206 10150 20140 30209 40240 52013 60006 80000 92100=
07690,1996-10-24 00:00:00,14,1024.2,0.2,88,12,15000,14.816,,,340,,,,,,,,,,,wg-a,,,,AAXX 24004 07690 12/65 03408 10140 20120 30211 40242 51002 60006 80000 90000=
07690,1996-10-24 03:00:00,14,1024.2,-0.1,77,10,10000,18.52,,,330,,,,,,,,,,,wg-a,,,,AAXX 24034 07690 12460 /3310 10140 20100 30210 40242 58001 60006 81500 90300=
07690,1996-10-24 06:00:00,13,1024.3,0.1,77,9,10000,22.224,,,330,12.5,18,,,,,,,,,wg-a,,,,AAXX 24064 07690 02460 63312 10130 20090 30211 40243 50001 60006 86500 90600 333 10180 20125 60004=
07690,1996-10-24 09:00:00,15,1024.8,0.6,72,10,8000,14.816,,,330,,,,,,,,,,,wg-a,,,,AAXX 24094 07690 12558 /3308 10150 20100 30217 40248 50006 60006 81500 90900=
07690,1996-10-24 12:00:00,19,1023.5,-1.3,60,11,8000,11.112,,,100,,,,,,,,,,,wg-a,,,,AAXX 24124 07690 12558 71006 10190 20110 30204 40235 58013 60006 875// 91200=
07690,1996-10-24 15:00:00,18,1022.6,-0.9,68,12,9000,7.408,,,120,,,,,,,,,,,wg-a,,,,AAXX 24154 07690 12559 71204 10180 20120 30195 40226 56009 60006 875// 91500=
07690,1996-10-24 18:00:00,18,1022.9,0.3,68,12,10000,7.408,,,130,12.7,19.2,,,,,,,,,wg-a,,,,AAXX 24184 07690 12560 71304 10180 20120 30198 40229 53003 60006 875// 91800 333 10192 20127=
07690,1996-10-24 21:00:00,16,1023.9,1,82,13,7000,7.408,,,330,,,,,,,,,,,wg-a,,,,AAXX 24214 07690 12257 73304 10160 20130 30208 40239 53010 60006 875// 92100=
07690,1996-10-25 00:00:00,15,1024.3,0.4,88,13,9000,11.112,,,20,,,,,,,,,,,wg-a,,,,AAXX 25004 07690 12559 /0206 10150 20130 30212 40243 51004 60006 86500 90000=
07690,1996-10-25 03:00:00,13,1024.3,-0.1,94,12,10000,11.112,,,320,,,,,,,,,,,wg-a,,,,AAXX 25034 07690 12560 73206 10130 20120 30211 40243 58001 60006 875// 90300=
07690,1996-10-25 06:00:00,14,1024.1,-0.1,88,12,7000,11.112,,,330,13.1,17.6,,,,,,,,,wg-a,,,,AAXX 25064 07690 02757 73306 10140 20120 30210 40241 55001 60006 875// 90600 333 10176 20131 60004=
07690,1996-10-25 09:00:00,15,1024.5,0.4,88,13,500,11.112,,,320,,,,,,,,,,,wg-a,,,,AAXX 25094 07690 12700 73206 10150 20130 30214 40245 51004 60006 875// 90900=
07690,1996-10-25 12:00:00,16,1023.7,-0.8,77,12,4000,3.704,,,240,,,,,,,,,,10,wg-a,,,,AAXX 25124 07690 12640 72402 10160 20120 30206 40237 58008 60006 71022 875// 91200=
07690,1996-10-25 18:00:00,16,1024,0.8,82,13,9000,0,,,0,13.7,17.4,,,,,,,,,wg-a,,,,AAXX 25184 07690 12559 70000 10160 20130 30209 40240 53008 60006 875// 91800 333 10174 20137=
07690,1996-10-26 00:00:00,15,1025.2,-0,88,13,8000,7.408,,,340,,,,,,,,,,,wg-a,,,,AAXX 26004 07690 12558 73404 10150 20130 30221 40252 55000 60006 8455/ 90000=
07690,1996-10-26 06:00:00,15,1025.2,0.5,88,13,7000,11.112,,,330,14.5,16.9,,,,,,,,,wg-a,,,,AAXX 26064 07690 02557 73306 10150 20130 30221 40252 51005 60006 875// 90600 333 10169 20145 60004=
07690,1996-10-26 12:00:00,17,1025.4,-0.7,68,11,8000,11.112,,,70,,,,,,,,,,,wg-a,,,,AAXX 26124 07690 12558 70706 10170 20110 30223 40254 58007 60006 875// 91200=
07690,1996-10-26 15:00:00,17,1024.8,-0.6,68,11,9000,11.112,,,110,,,,,,,,,,,wg-a,,,,AAXX 26154 07690 12559 71106 10170 20110 30217 40248 56006 60006 875// 91500=
07690,1996-10-26 18:00:00,17,1025.6,0.8,68,11,8000,7.408,,,80,14.7,17.2,,,,,,,,,wg-a,,,,AAXX 26184 07690 12558 70804 10170 20110 30225 40256 53008 60006 875// 91800 333 10172 20147=
07690,1996-10-27 06:00:00,14,1026.1,0.2,94,13,6000,7.408,,,330,13.9,16.8,,,,,,,,,wg-a,,,,AAXX 27064 07690 02556 73304 10140 20130 30230 40261 51002 60006 875// 90600 333 10168 20139 60004=
07690,1996-10-27 09:00:00,14,1027.3,1.2,94,13,3000,11.112,,,330,,,,,,,,,,10,wg-a,,,,AAXX 27094 07690 12430 83306 10140 20130 30242 40273 51012 60006 71022 885// 90900=
07690,1996-10-27 12:00:00,16,1026.8,-0.5,82,13,4500,3.704,,,300,,,,,,,,,,10,wg-a,,,,AAXX 27124 07690 12545 83002 10160 20130 30237 40268 58005 60006 71022 885// 91200=
07690,1996-10-27 15:00:00,16,1025.9,-0.9,77,12,4000,7.408,,,290,,,,,,,,,,10,wg-a,,,,AAXX 27154 07690 12440 82904 10160 20120 30228 40259 56009 60006 71022 885// 91500=
07690,1996-10-27 18:00:00,15,1025.7,-0.2,88,13,7000,0,,,0,13.9,16.2,,,,,,,,,wg-a,,,,AAXX 27184 07690 12457 70000 10150 20130 30226 40257 56002 60006 875// 91800 333 10162 20139=
07690,1996-10-27 21:00:00,14,1025.3,-0.4,88,12,6000,7.408,,,320,,,,,,,,,,,wg-a,,,,AAXX 27214 07690 12556 73204 10140 20120 30222 40253 56004 60006 875// 92100=
07690,1996-10-28 00:00:00,13,1024.5,-0.9,94,12,10000,11.112,,,320,,,,,,,,,,,wg-a,,,,AAXX 28004 07690 12560 73206 10130 20120 30213 40245 58009 60006 875// 90000=
07690,1996-10-28 03:00:00,13,1022.8,-1.7,88,11,11000,11.112,,,320,,,,,,,,,,,wg-a,,,,AAXX 28034 07690 12/61 /3206 10130 20110 30196 40228 58017 60006 90300=
07690,1996-10-28 06:00:00,11,1021.4,-1.4,94,10,8000,11.112,,,320,10.8,14.8,,,,,,,,,wg-a,,,,AAXX 28064 07690 02658 23206 10110 20100 30182 40214 56014 60006 81501 90600 333 10148 20108 60004=
07690,1996-10-28 09:00:00,15,1020.5,-0.8,77,11,9000,7.408,,,290,,,,,,,,,,,wg-a,,,,AAXX 28094 07690 12/59 /2904 10150 20110 30174 40205 58008 60006 81031 90900=
07690,1996-10-28 12:00:00,19,1018.2,-2.3,64,12,10000,14.816,,,50,,,,,,,,,,,wg-a,,,,AAXX 28124 07690 12/60 10508 10190 20120 30151 40182 58023 60006 80002 91200=
07690,1996-10-28 15:00:00,19,1017,-1.2,83,16,9000,29.632,,,200,,,,,,,,,,,wg-a,,,,AAXX 28154 07690 12459 42016 10190 20160 30139 40170 55012 60006 81232 91500=
07690,1996-10-28 18:00:00,17,1017.4,0.4,77,13,13000,11.112,,,270,10.6,21.4,,,,,,,,,wg-a,,,,AAXX 28184 07690 12/63 72706 10170 20130 30143 40174 53004 60006 81032 91800 333 10214 20106=
07690,1996-10-28 21:00:00,14,1017.5,0.1,88,12,9000,11.112,,,330,,,,,,,,,,,wg-a,,,,AAXX 28214 07690 12/59 /3306 10140 20120 30144 40175 51001 60006 82032 92100=
07690,1996-10-29 00:00:00,13,1016.6,-0.9,88,11,10000,11.112,,,320,,,,,,,,,,,wg-a,,,,AAXX 29004 07690 12/60 33206 10130 20110 30135 40166 56009 60006 80002 90000=
07690,1996-10-29 03:00:00,12,1015.2,-1.4,88,10,12000,14.816,,,340,,,,,,,,,,,wg-a,,,,AAXX 29034 07690 12/62 33408 10120 20100 30121 40152 57014 60006 80002 90300=
07690,1996-10-29 06:00:00,12,1014.3,-0.9,82,9,8000,18.52,,,330,11.9,16.6,,,,,,,,,wg-a,,,,AAXX 29064 07690 02858 73310 10120 20090 30112 40143 58009 60006 81542 90600 333 10166 20119 60004=
07690,1996-10-29 09:00:00,15,1012.8,-1.5,72,10,7000,7.408,,,320,,,,,,,,,,,wg-a,,,,AAXX 29094 07690 12657 73204 10150 20100 30097 40128 56015 60006 8383/ 90900=
07690,1996-10-29 12:00:00,20,1010.6,-2.1,68,14,20000,25.928,,,240,,,,,,,,,,,wg-a,,,,AAXX 29124 07690 12670 72414 10200 20140 30076 40106 56021 60006 8353/ 91200=
07690,1996-10-29 15:00:00,19,1008.4,-2.2,68,13,10000,38.892,,90.748,220,,,,,,,,,,,wg-a,,,,AAXX 29154 07690 12/60 42221 10190 20130 30054 40084 56022 60006 84040 91500 333 91049=
07690,1996-10-29 18:00:00,18,1008.6,0.1,37,3,20000,7.408,,,170,12.2,20.2,,,,,,,,,wg-a,,,,AAXX 29184 07690 12/70 21704 10180 20030 30055 40086 53001 60006 80002 91800 333 10202 20122=
07690,1996-10-29 21:00:00,14,1011.4,2.8,58,6,20000,11.112,,,60,,,,,,,,,,,wg-a,,,,AAXX 29214 07690 12/70 10606 10140 20060 30083 40114 53028 60006 80001 92100=
07690,1996-10-30 00:00:00,13,1013.3,1.9,54,4,20000,22.224,,,330,,,,,,,,,,,wg-a,,,,AAXX 30004 07690 12/70 23312 10130 20040 30102 40133 51019 60006 80001 90000=
07690,1996-10-30 03:00:00,13,1014.5,1.2,51,3,20000,25.928,,,330,,,,,,,,,,,wg-a,,,,AAXX 30034 07690 12/70 03314 10130 20030 30114 40145 53012 60006 80000 90300=
07690,1996-10-30 06:00:00,12,1016.4,1.9,50,2,25000,18.52,,,340,12,17.7,,,,,,,,,wg-a,,,,AAXX 30064 07690 02/75 03410 10120 20020 30133 40164 53019 60006 80000 90600 333 10177 20120 60004=
07690,1996-10-30 09:00:00,16,1018.7,2.3,42,3,35000,22.224,,,330,,,,,,,,,,,wg-a,,,,AAXX 30094 07690 12/81 03312 10160 20030 30156 40187 51023 60006 80000 90900=
07690,1996-10-30 12:00:00,21,1019.1,0.4,49,10,35000,7.408,,,160,,,,,,,,,,,wg-a,,,,AAXX 30124 07690 12/81 11604 10210 20100 30160 40191 50004 60006 80002 91200=
07690,1996-10-30 15:00:00,20,1019.3,0.2,56,11,40000,14.816,,,210,,,,,,,,,,,wg-a,,,,AAXX 30154 07690 12/82 12108 10200 20110 30162 40193 53002 60006 80002 91500=
07690,1996-10-30 18:00:00,15,1021.6,2.3,72,10,20000,11.112,,,330,12.2,21.4,,,,,,,,,wg-a,,,,AAXX 30184 07690 12/70 03306 10150 20100 30185 40216 53023 60006 80000 91800 333 10214 20122=
07690,1996-10-30 21:00:00,13,1023.2,1.5,72,8,20000,22.224,,,330,,,,,,,,,,,wg-a,,,,AAXX 30214 07690 12/70 03312 10130 20080 30200 40232 51015 60006 80000 92100=
07690,1996-10-31 00:00:00,13,1024.3,1.1,62,6,20000,18.52,,,340,,,,,,,,,,,wg-a,,,,AAXX 31004 07690 12/70 03410 10130 20060 30211 40243 51011 60006 80000 90000=
07690,1996-10-31 03:00:00,12,1024.9,0.6,62,5,20000,14.816,,,340,,,,,,,,,,,wg-a,,,,AAXX 31034 07690 12/70 03408 10120 20050 30217 40249 51006 60006 80000 90300=
07690,1996-10-31 06:00:00,12,1025,0.1,62,5,20000,25.928,,,330,11.4,14.5,,,,,,,,,wg-a,,,,AAXX 31064 07690 02/70 33314 10120 20050 30218 40250 50001 60006 80002 90600 333 10145 20114 60004=
07690,1996-10-31 09:00:00,14,1026.1,1.1,55,5,40000,22.224,,,330,,,,,,,,,,,wg-a,,,,AAXX 31094 07690 12/82 43312 10140 20050 30229 40261 51011 60006 80001 90900=
07690,1996-10-31 12:00:00,20,1025.5,-0.5,56,11,40000,11.112,,,140,,,,,,,,,,,wg-a,,,,AAXX 31124 07690 12/82 51406 10200 20110 30224 40255 58005 60006 80001 91200=
07690,1996-10-31 15:00:00,18,1024.6,-0.9,73,13,20000,14.816,,,180,,,,,,,,,,,wg-a,,,,AAXX 31154 07690 12670 51808 10180 20130 30215 40246 56009 60006 81501 91500=
07690,1996-10-31 18:00:00,15,1024.6,0,82,12,20000,3.704,,,230,11.5,19.9,,,,,,,,,wg-a,,,,AAXX 31184 07690 12570 /2302 10150 20120 30215 40246 50000 60006 81500 91800 333 10199 20115=
07690,1996-10-31 21:00:00,12,1024.4,-0.3,94,11,9000,14.816,,,330,,,,,,,,,,,wg-a,,,,AAXX 31214 07690 12559 /3308 10120 20110 30212 40244 57003 60006 81500 92100=
07690,1996-11-01 00:00:00,11,1022.8,-1.6,87,9,10000,22.224,,,330,,,,,,,,,,,wg-a,,,,AAXX 01004 07690 12560 /3312 10110 20090 30196 40228 58016 60006 81501 90000=
07690,1996-11-01 03:00:00,11,1020.8,-2,76,7,10000,22.224,,,330,,,,,,,,,,,wg-a,,,,AAXX 01034 07690 12/60 13312 10110 20070 30176 40208 58020 60006 80001 90300=
07690,1996-11-01 06:00:00,10,1020.9,0.1,76,6,15000,22.224,,,330,9.6,14.8,,,,,,,,,wg-a,,,,AAXX 01064 07690 02465 /3312 10100 20060 30177 40209 53001 60006 81500 90600 333 10148 20096 60004=
07690,1996-11-01 09:00:00,13,1022.1,1.2,67,7,20000,18.52,,,330,,,,,,,,,,,wg-a,,,,AAXX 01094 07690 12/70 13310 10130 20070 30189 40221 51012 60006 80001 90900=
07690,1996-11-01 12:00:00,18,1022,0,73,13,20000,11.112,,,240,,,,,,,,,,,wg-a,,,,AAXX 01124 07690 12/70 42406 10180 20130 30189 40220 50000 60006 80001 91200=
07690,1996-11-01 15:00:00,19,1021.9,-0.1,56,10,20000,7.408,,,120,,,,,,,,,,,wg-a,,,,AAXX 01154 07690 12/70 /1204 10190 20100 30188 40219 55001 60006 80001 91500=
07690,1996-11-01 18:00:00,14,1023.6,1.7,82,11,20000,14.816,,,320,9.5,19.8,,,,,,,,,wg-a,,,,AAXX 01184 07690 12/70 13208 10140 20110 30205 40236 53017 60006 80001 91800 333 10198 20095=
07690,1996-11-01 21:00:00,12,1024.9,1.2,88,10,15000,14.816,,,340,,,,,,,,,,,wg-a,,,,AAXX 01214 07690 12/65 03408 10120 20100 30217 40249 51012 60006 80000 92100=
07690,1996-11-02 00:00:00,12,1025.4,0.5,82,9,12000,18.52,,,330,,,,,,,,,,,wg-a,,,,AAXX 02004 07690 12/62 13310 10120 20090 30222 40254 53005 60006 80001 90000=
07690,1996-11-02 03:00:00,12,1025.9,0.5,76,8,20000,14.816,,,340,,,,,,,,,,,wg-a,,,,AAXX 02034 07690 12/70 23408 10120 20080 30227 40259 51005 60006 80001 90300=
07690,1996-11-02 06:00:00,11,1026,0.1,76,7,20000,14.816,,,340,10.8,13.7,,,,,,,,,wg-a,,,,AAXX 02064 07690 02/70 33408 10110 20070 30228 40260 53001 60006 80001 90600 333 10137 20108 60004=
07690,1996-11-02 09:00:00,15,1027.6,1.6,63,8,20000,11.112,,,330,,,,,,,,,,,wg-a,,,,AAXX 02094 07690 12570 23306 10150 20080 30244 40276 51016 60006 81101 90900=
07690,1996-11-02 12:00:00,18,1026.5,-1,73,13,20000,7.408,,,190,,,,,,,,,,,wg-a,,,,AAXX 02124 07690 12/70 /1904 10180 20130 30234 40265 58010 60006 80000 91200=
07690,1996-11-02 15:00:00,18,1026.3,-0.2,77,14,15000,7.408,,,160,,,,,,,,,,,wg-a,,,,AAXX 02154 07690 12565 /1604 10180 20140 30232 40263 55002 60006 81500 91500=
07690,1996-11-02 18:00:00,16,1027.6,1.3,88,14,15000,0,,,0,10.7,19.2,,,,,,,,,wg-a,,,,AAXX 02184 07690 12465 70000 10160 20140 30245 40276 53013 60006 875// 91800 333 10192 20107=
07690,1996-11-02 21:00:00,15,1028,0.4,94,14,9000,3.704,,,300,,,,,,,,,,,wg-a,,,,AAXX 02214 07690 12559 73002 10150 20140 30249 40280 53004 60006 875// 92100=
07690,1996-11-03 00:00:00,13,1027.9,-0.2,88,11,10000,18.52,,,330,,,,,,,,,,,wg-a,,,,AAXX 03004 07690 12/60 03310 10130 20110 30247 40279 56002 60006 80000 90000=
07690,1996-11-03 03:00:00,12,1027.4,-0.5,88,10,15000,18.52,,,330,,,,,,,,,,,wg-a,,,,AAXX 03034 07690 12/65 03310 10120 20100 30242 40274 58005 60006 80000 90300=
07690,1996-11-03 06:00:00,11,1027.5,0.1,82,8,15000,18.52,,,330,11.2,15.8,,,,,,,,,wg-a,,,,AAXX 03064 07690 02465 /3310 10110 20080 30243 40275 53001 60006 81501 90600 333 10158 20112 60004=
07690,1996-11-03 09:00:00,14,1028.3,0.8,67,8,25000,14.816,,,330,,,,,,,,,,,wg-a,,,,AAXX 03094 07690 12/75 03308 10140 20080 30251 40283 51008 60006 80000 90900=
07690,1996-11-03 12:00:00,18,1027.1,-1.1,73,13,13000,18.52,,,200,,,,,,,,,,,wg-a,,,,AAXX 03124 07690 12563 /2010 10180 20130 30240 40271 58011 60006 81800 91200=
07690,1996-11-03 15:00:00,17,1026.3,-0.8,82,14,8000,14.816,,,180,,,,,,,,,,,wg-a,,,,AAXX 03154 07690 12558 61808 10170 20140 30232 40263 56008 60006 86800 91500=
07690,1996-11-03 18:00:00,16,1026.8,0.5,82,13,9000,7.408,,,200,11.2,18.4,,,,,,,,,wg-a,,,,AAXX 03184 07690 12459 72004 10160 20130 30237 40268 53005 60006 875// 91800 333 10184 20112=
07690,1996-11-03 21:00:00,15,1026.7,-0.1,88,13,12000,3.704,,,330,,,,,,,,,,,wg-a,,,,AAXX 03214 07690 12462 73302 10150 20130 30236 40267 57001 60006 875// 92100=
07690,1996-11-04 00:00:00,15,1026.3,-0.4,94,14,12000,3.704,,,320,,,,,,,,,,,wg-a,,,,AAXX 04004 07690 12562 73202 10150 20140 30232 40263 58004 60006 875// 90000=
07690,1996-11-04 03:00:00,15,1025.1,-1.2,88,13,10000,7.408,,,330,,,,,,,,,,,wg-a,,,,AAXX 04034 07690 12460 73304 10150 20130 30220 40251 58012 60006 875// 90300=
07690,1996-11-04 06:00:00,14,1025,-0.1,82,11,10000,11.112,,,340,14.1,15.8,,,,,,,,,wg-a,,,,AAXX 04064 07690 02460 73406 10140 20110 30219 40250 58001 60006 875// 90600 333 10158 20141 60004=
07690,1996-11-04 09:00:00,15,1025.2,0.2,72,10,20000,14.816,,,330,,,,,,,,,,,wg-a,,,,AAXX 04094 07690 12570 73308 10150 20100 30221 40252 50002 60006 875// 90900=
07690,1996-11-04 12:00:00,16,1024,-1.2,72,11,15000,14.816,,,220,,,,,,,,,,,wg-a,,,,AAXX 04124 07690 12565 72208 10160 20110 30209 40240 58012 60006 878// 91200=
07690,1996-11-04 15:00:00,17,1022.1,-1.9,72,12,10000,22.224,,,210,,,,,,,,,,,wg-a,,,,AAXX 04154 07690 12660 /2112 10170 20120 30190 40221 56019 60006 84501 91500=
07690,1996-11-04 18:00:00,15,1021.7,-0.4,82,12,15000,11.112,,,340,14,17.1,,,,,,,,,wg-a,,,,AAXX 04184 07690 12665 /3406 10150 20120 30186 40217 56004 60006 85501 91800 333 10171 20140=
07690,1996-11-04 21:00:00,13,1020.7,-1,88,11,15000,18.52,,,330,,,,,,,,,,,wg-a,,,,AAXX 04214 07690 12665 /3310 10130 20110 30176 40207 56010 60006 85500 92100=
07690,1996-11-05 00:00:00,13,1019.8,-0.9,82,10,15000,18.52,,,330,,,,,,,,,,,wg-a,,,,AAXX 05004 07690 12565 /3310 10130 20100 30167 40198 56009 60006 85500 90000=
07690,1996-11-05 03:00:00,13,1017.7,-2.1,82,10,20000,18.52,,,330,,,,,,,,,,,wg-a,,,,AAXX 05034 07690 12570 /3310 10130 20100 30146 40177 56021 60006 875// 90300=
07690,1996-11-05 06:00:00,13,1016.7,-1,82,10,18000,18.52,,,330,13.1,14.4,,,,,,,,60,wg-a,,,,AAXX 05064 07690 02568 /3310 10130 20100 30136 40167 56010 61000 76062 878// 90600 333 10144 20131 6100=
07690,1996-11-05 09:00:00,14,1016,-0.7,82,11,10000,14.816,,,340,,,,,,,,,,21,wg-a,,,,AAXX 05094 07690 02560 73408 10140 20110 30129 40160 58007 61000 72162 878// 90900 333 ////=
07690,1996-11-05 12:00:00,16,1013.9,-2.1,100,16,6000,31.484,,,170,,,,,,,,,,61,wg-a,,,,AAXX 05124 07690 02256 81717 10160 20160 30108 40139 58021 61000 76162 8487/ 91200 333 6100=
07690,1996-11-05 15:00:00,15,1013,-0.9,77,11,500,18.52,,,350,,,,1,,,,,,3,wg-a,,,,AAXX 05154 07690 12400 73510 10150 20110 30099 40130 55009 60017 70362 82270 91500=
07690,1996-11-05 18:00:00,13,1014.5,1.5,82,10,15000,7.408,,,10,13,16.9,,,,,,,,3,wg-a,,,,AAXX 05184 07690 32465 40104 10130 20100 30114 40145 53015 70361 84800 91800 333 10169 20130=
07690,1996-11-05 21:00:00,13,1017.1,2.6,77,9,11000,14.816,,,340,,,,,,,,,,,wg-a,,,,AAXX 05214 07690 12/61 /3408 10130 20090 30140 40171 53026 60006 92100=
07690,1996-11-06 00:00:00,12,1018.5,1.3,76,8,20000,22.224,,,330,,,,,,,,,,,wg-a,,,,AAXX 06004 07690 12570 23312 10120 20080 30153 40185 51013 60006 82500 90000=
07690,1996-11-06 03:00:00,11,1019.5,1,76,7,20000,22.224,,,330,,,,,,,,,,,wg-a,,,,AAXX 06034 07690 12570 /3312 10110 20070 30163 40195 51010 60006 81500 90300=
07690,1996-11-06 06:00:00,10,1021.3,1.8,76,6,50000,22.224,,,330,10.1,14.3,,,,,7,,,,wg-a,,,,AAXX 06064 07690 02584 /3312 10100 20060 30181 40213 51018 60006 81500 90600 333 10143 20101 60074=
07690,1996-11-06 09:00:00,13,1022.9,1.6,62,6,50000,25.928,,,330,,,,,,,,,,,wg-a,,,,AAXX 06094 07690 12584 /3314 10130 20060 30197 40229 51016 60006 81501 90900=
07690,1996-11-06 12:00:00,18,1022.2,-0.6,64,11,50000,11.112,,,210,,,,,,,,,,,wg-a,,,,AAXX 06124 07690 12584 /2106 10180 20110 30191 40222 58006 60006 81101 91200=
07690,1996-11-06 15:00:00,17,1021.3,-0.9,72,12,40000,22.224,,,210,,,,,,,,,,,wg-a,,,,AAXX 06154 07690 12682 /2112 10170 20120 30182 40213 56009 60006 81500 91500=
07690,1996-11-06 18:00:00,14,1022.2,0.9,82,11,20000,7.408,,,330,10,18.6,,,,,,,,,wg-a,,,,AAXX 06184 07690 12570 /3304 10140 20110 30191 40222 51009 60006 81500 91800 333 10186 20100=
07690,1996-11-06 21:00:00,11,1022.5,0.2,94,10,12000,14.816,,,330,,,,,,,,,,,wg-a,,,,AAXX 06214 07690 12/62 03308 10110 20100 30193 40225 53002 60006 80000 92100=
07690,1996-11-07 00:00:00,11,1022.5,0,82,8,10000,11.112,,,330,,,,,,,,,,,wg-a,,,,AAXX 07004 07690 12/60 /3306 10110 20080 30193 40225 50000 60006 90000=
07690,1996-11-07 03:00:00,11,1021.6,-0.9,82,8,15000,14.816,,,340,,,,,,,,,,,wg-a,,,,AAXX 07034 07690 12/65 03408 10110 20080 30184 40216 56009 60006 80000 90300=
07690,1996-11-07 06:00:00,10,1021.5,-0.1,82,7,25000,25.928,,,330,10.2,13.7,,,,,,,,,wg-a,,,,AAXX 07064 07690 02575 33314 10100 20070 30183 40215 55001 60006 83500 90600 333 10137 20102 60004=
07690,1996-11-07 09:00:00,13,1022.4,0.9,67,7,500,22.224,,,330,,,,,,,,,,,wg-a,,,,AAXX 07094 07690 12500 33312 10130 20070 30192 40224 52009 60006 82202 90900=
07690,1996-11-07 12:00:00,18,1020.9,-1.4,64,11,500,7.408,,,200,,,,,,,,,,,wg-a,,,,AAXX 07124 07690 12500 42004 10180 20110 30178 40209 58014 60006 82232 91200=
07690,1996-11-07 15:00:00,18,1019.6,-1.3,59,10,500,7.408,,,160,,,,,,,,,,,wg-a,,,,AAXX 07154 07690 12500 21604 10180 20100 30165 40196 56013 60006 81130 91500=
07690,1996-11-07 18:00:00,13,1018.3,-1.3,82,10,20000,11.112,,,330,10,18.1,,,,,,,,,wg-a,,,,AAXX 07184 07690 12/70 13306 10130 20100 30152 40183 56013 60006 80001 91800 333 10181 20100=
07690,1996-11-07 21:00:00,12,1016.6,-1.7,88,10,12000,18.52,,,330,,,,,,,,,,,wg-a,,,,AAXX 07214 07690 12/62 03310 10120 20100 30135 40166 56017 60006 80000 92100=
07690,1996-11-08 00:00:00,12,1015.9,-0.7,82,9,20000,11.112,,,330,,,,,,,,,,,wg-a,,,,AAXX 08004 07690 12/70 03306 10120 20090 30128 40159 55007 60006 80000 90000=
07690,1996-11-08 03:00:00,11,1016.6,0.6,82,8,20000,18.52,,,330,,,,,,,,,,,wg-a,,,,AAXX 08034 07690 12/70 03310 10110 20080 30134 40166 51006 60006 80000 90300=
07690,1996-11-08 06:00:00,10,1018.1,1.5,87,8,20000,25.928,,,330,9.9,12.8,,,,,,,,,wg-a,,,,AAXX 08064 07690 02/70 13314 10100 20080 30149 40181 53015 60006 80001 90600 333 10128 20099 60004=
07690,1996-11-08 09:00:00,14,1020.7,2.7,67,8,20000,22.224,,,330,,,,0,,,,,,,wg-a,,,,AAXX 08094 07690 12/70 03312 10140 20080 30176 40207 51027 60007 80000 90900=
07690,1996-11-08 12:00:00,19,1021.5,0.8,68,13,20000,14.816,,,190,,,,,,,,,,,wg-a,,,,AAXX 08124 07690 12670 /1908 10190 20130 30184 40215 50008 60006 81100 91200=
07690,1996-11-08 15:00:00,19,1022.4,0.9,64,12,10000,11.112,,,190,,,,,,,,,,,wg-a,,,,AAXX 08154 07690 12560 /1906 10190 20120 30193 40224 53009 60006 81100 91500=
07690,1996-11-08 18:00:00,14,1023.9,1.5,88,12,15000,11.112,,,330,10,20,,,,,,,,,wg-a,,,,AAXX 08184 07690 32/65 03306 10140 20120 30208 40239 53015 80000 91800 333 10200 20100=
07690,1996-11-08 21:00:00,12,1025.2,1.2,88,10,15000,14.816,,,340,,,,,,,,,,,wg-a,,,,AAXX 08214 07690 12/65 03408 10120 20100 30220 40252 53012 60006 80000 92100=
07690,1996-11-09 00:00:00,12,1025.9,0.7,76,8,15000,14.816,,,340,,,,,,,,,,,wg-a,,,,AAXX 09004 07690 12/65 03408 10120 20080 30227 40259 52007 60006 80000 90000=
07690,1996-11-09 03:00:00,11,1025.5,-0.4,76,7,15000,22.224,,,330,,,,,,,,,,,wg-a,,,,AAXX 09034 07690 12465 53312 10110 20070 30223 40255 58004 60006 85500 90300=
07690,1996-11-09 06:00:00,10,1027,1.5,71,5,20000,25.928,,,330,10.4,13.7,,,,,,,,,wg-a,,,,AAXX 09064 07690 02470 43314 10100 20050 30238 40270 51015 60006 84800 90600 333 10137 20104 60004=
07690,1996-11-09 09:00:00,13,1028.6,1.6,62,6,500,22.224,,,330,,,,,,,,,,,wg-a,,,,AAXX 09094 07690 12500 33312 10130 20060 30254 40286 51016 60006 83801 90900=
07690,1996-11-09 12:00:00,18,1028.2,-0.3,68,12,20000,14.816,,,100,,,,,,,,,,,wg-a,,,,AAXX 09124 07690 12570 21008 10180 20120 30251 40282 58003 60006 82201 91200=
07690,1996-11-09 15:00:00,17,1027.7,-0.5,68,11,15000,7.408,,,160,,,,,,,,,,,wg-a,,,,AAXX 09154 07690 12565 41604 10170 20110 30246 40277 56005 60006 82501 91500=
07690,1996-11-09 18:00:00,13,1027.7,-0.1,88,11,9000,11.112,,,330,10.4,18.1,,,,,,,,,wg-a,,,,AAXX 09184 07690 12559 /3306 10130 20110 30245 40277 57001 60006 82501 91800 333 10181 20104=
07690,1996-11-09 21:00:00,12,1027.3,-0.4,88,10,9000,14.816,,,340,,,,,,,,,,,wg-a,,,,AAXX 09214 07690 12559 43408 10120 20100 30241 40273 56004 60006 81501 92100=
07690,1996-11-10 00:00:00,12,1026.2,-1.1,82,9,10000,18.52,,,340,,,,,,,,,,,wg-a,,,,AAXX 10004 07690 12660 63410 10120 20090 30230 40262 58011 60006 85530 90000=
07690,1996-11-10 03:00:00,11,1024.4,-1.8,87,9,10000,18.52,,,340,,,,,,,,,,,wg-a,,,,AAXX 10034 07690 12660 53410 10110 20090 30212 40244 58018 60006 85500 90300=
07690,1996-11-10 06:00:00,12,1023,-1.4,76,8,10000,14.816,,,340,11.2,13.3,,,,,,,,,wg-a,,,,AAXX 10064 07690 02760 73408 10120 20080 30198 40230 56014 60006 875// 90600 333 10133 20112 60004=
07690,1996-11-10 09:00:00,13,1022.4,-0.5,72,8,18000,14.816,,,340,,,,,,,,,,,wg-a,,,,AAXX 10094 07690 12768 73408 10130 20080 30193 40224 58005 60006 85502 90900=
07690,1996-11-10 12:00:00,14,1020.5,-1.9,67,8,12000,11.112,,,330,,,,,,,,,,,wg-a,,,,AAXX 10124 07690 12662 83306 10140 20080 30174 40205 58019 60006 885// 91200=
07690,1996-11-10 15:00:00,12,1018.8,-1.7,100,12,4000,11.112,,,320,,,,4,,,,,,10,wg-a,,,,AAXX 10154 07690 12240 83206 10120 20120 30157 40188 56017 60047 71065 885// 91500=
07690,1996-11-10 18:00:00,11,1018.1,-0.8,100,11,7000,11.112,,,340,11.3,14.4,,1,,,,,,60,wg-a,,,,AAXX 10184 07690 12557 83406 10110 20110 30149 40181 58008 60017 76065 885// 91800 333 10144 20113=
07690,1996-11-10 21:00:00,11,1017,-1.1,100,11,500,14.816,,,340,,,,2,,,,,,61,wg-a,,,,AAXX 10214 07690 12400 83408 10110 20110 30138 40170 57011 60027 76162 885// 92100=
07690,1996-11-11 00:00:00,11,1015.4,-1.5,100,11,12000,14.816,,,330,,,,10,,,,,,3,wg-a,,,,AAXX 11004 07690 02262 83308 10110 20110 30123 40154 58015 60126 70362 885// 90000 333 60107=
07690,1996-11-11 03:00:00,14,1013,-2.4,88,12,12000,29.632,,,80,,,,,,,,,,61,wg-a,,,,AAXX 11034 07690 02462 80816 10140 20120 30099 40130 58024 61000 76162 885// 90300 333 ////=
07690,1996-11-11 06:00:00,14,1011.6,-1.4,88,12,12000,29.632,,,80,11,14.5,,0,,,17,,,61,wg-a,,,,AAXX 11064 07690 02462 80816 10140 20120 30085 40116 56014 60174 76162 885// 90600 333 10145 20110 60007=
07690,1996-11-11 09:00:00,15,1009.4,-2.2,88,13,7000,31.484,,57.412,90,,,,7,,,,,,10,wg-a,,,,AAXX 11094 07690 12157 80917 10150 20130 30063 40094 56022 60077 71062 888// 90900 333 91031=
07690,1996-11-11 12:00:00,16,1008.7,-0.7,82,13,15000,31.484,,57.412,90,,,,,,,,,,3,wg-a,,,,AAXX 11124 07690 02465 80917 10160 20130 30056 40087 58007 60076 70362 889// 91200 333 61000 91031=
07690,1996-11-11 15:00:00,17,1006.7,-2,68,11,18000,35.188,,,90,,,,,,,,,,,wg-a,,,,AAXX 11154 07690 12468 80919 10170 20110 30036 40067 56020 60006 879// 91500=
07690,1996-11-11 18:00:00,17,1006.7,0.1,94,16,15000,25.928,,,150,13.8,17.5,,,,,,,,21,wg-a,,,,AAXX 11184 07690 02465 81514 10170 20160 30037 40067 53001 61000 72162 879// 91800 333 10175 20138 ////=
07690,1996-11-11 21:00:00,17,1006.4,-0.3,94,16,15000,31.484,,,160,,,,,,,,,,60,wg-a,,,,AAXX 11214 07690 02465 81617 10170 20160 30034 40064 55003 61000 76062 8697/ 92100 333 ////=
07690,1996-11-12 00:00:00,17,1006.9,0.4,88,15,10000,22.224,,,140,,,,5,,,,,,61,wg-a,,,,AAXX 12004 07690 02460 81412 10170 20150 30038 40069 50004 60056 76162 8487/ 90000 333 60057=
07690,1996-11-12 03:00:00,15,1007.7,0.8,100,15,10000,14.816,,,30,,,,5,,,,,,61,wg-a,,,,AAXX 12034 07690 12360 80308 10150 20150 30046 40077 51008 60057 76166 8487/ 90300=
07690,1996-11-12 06:00:00,17,1007.6,-0.1,77,13,10000,25.928,,,90,14.7,17.7,,2,,,20,,,61,wg-a,,,,AAXX 12064 07690 02560 80914 10170 20130 30045 40076 55001 60204 76166 8487/ 90600 333 10177 20147 60027=
07690,1996-11-12 09:00:00,14,1009.3,1.7,94,13,12000,14.816,,,340,,,,2,,,,,,21,wg-a,,,,AAXX 12094 07690 12462 83408 10140 20130 30062 40093 51017 60027 72162 849// 90900=
07690,1996-11-12 12:00:00,15,1009.4,0.1,94,14,10000,7.408,,,20,,,,0,,,,,,1,wg-a,,,,AAXX 12124 07690 02460 80204 10150 20140 30063 40094 50001 60026 70162 8497/ 91200 333 60007=
07690,1996-11-12 15:00:00,16,1009.6,0.2,88,14,11000,11.112,,,330,,,,,,,,,,,wg-a,,,,AAXX 12154 07690 12/61 /3306 10160 20140 30065 40096 53002 60006 91500=
07690,1996-11-12 18:00:00,15,1009.6,-0,88,13,15000,11.112,,,340,14,17.3,,,,,,,,,wg-a,,,,AAXX 12184 07690 32565 73406 10150 20130 30065 40096 55000 8387/ 91800 333 10173 20140=
07690,1996-11-12 21:00:00,15,1009.1,-0.5,82,12,15000,11.112,,,330,,,,,,,,,,,wg-a,,,,AAXX 12214 07690 12765 /3306 10150 20120 30060 40091 56005 60006 8253/ 92100=
07690,1996-11-13 00:00:00,14,1008.9,-0.2,82,11,11000,14.816,,,340,,,,,,,,,,,wg-a,,,,AAXX 13004 07690 12/61 /3408 10140 20110 30058 40089 58002 60006 90000=
07690,1996-11-13 03:00:00,14,1007.9,-1,77,10,20000,18.52,,,350,,,,,,,,,,,wg-a,,,,AAXX 13034 07690 12770 73510 10140 20100 30048 40079 58010 60006 8355/ 90300=
07690,1996-11-13 06:00:00,14,1007.7,-0.2,77,10,20000,18.52,,,340,13.7,15,,,,,2,,,,wg-a,,,,AAXX 13064 07690 02770 83410 10140 20100 30046 40077 56002 60006 8357/ 90600 333 10150 20137 60024=
07690,1996-11-13 09:00:00,13,1009.8,2.1,94,12,18000,18.52,,,340,,,,1,,,,,,60,wg-a,,,,AAXX 13094 07690 12668 83410 10130 20120 30067 40098 51021 60017 76062 8357/ 90900=
07690,1996-11-13 12:00:00,14,1008.8,-1,88,12,20000,11.112,,,40,,,,1,,,,,,21,wg-a,,,,AAXX 13124 07690 02670 80406 10140 20120 30057 40088 55010 60026 72162 8257/ 91200 333 60017=
07690,1996-11-13 15:00:00,14,1007.6,-1.2,88,12,20000,18.52,,,340,,,,0,,,,,,1,wg-a,,,,AAXX 13154 07690 12670 73410 10140 20120 30045 40076 56012 60007 70162 8257/ 91500=
07690,1996-11-13 18:00:00,14,1008.3,0.7,88,12,15000,18.52,,,330,13.1,15.9,,0,,,,,,3,wg-a,,,,AAXX 13184 07690 12665 73310 10140 20120 30052 40083 53007 60007 70362 8557/ 91800 333 10159 20131=
07690,1996-11-13 21:00:00,15,1007.8,-0.5,82,12,15000,11.112,,,360,,,,,,,,,,,wg-a,,,,AAXX 13214 07690 12565 83606 10150 20120 30047 40078 58005 60006 8457/ 92100=
07690,1996-11-14 00:00:00,14,1007.4,-0.4,82,11,15000,14.816,,,330,,,,,,,,,,,wg-a,,,,AAXX 14004 07690 12665 73308 10140 20110 30043 40074 56004 60006 8357/ 90000=
07690,1996-11-14 03:00:00,14,1007.3,-0.1,88,12,18000,18.52,,,320,,,,,,,,,,,wg-a,,,,AAXX 14034 07690 12668 83210 10140 20120 30042 40073 56001 60006 8457/ 90300=
07690,1996-11-14 06:00:00,12,1007.6,0.3,100,12,18000,11.112,,,310,12.3,15.2,,1,,,3,,,21,wg-a,,,,AAXX 14064 07690 02668 /3106 10120 20120 30045 40076 53003 60034 72162 8357/ 90600 333 10152 20123 60017=
07690,1996-11-14 09:00:00,15,1008,0.4,82,12,35000,7.408,,,240,,,,,,,,,,,wg-a,,,,AAXX 14094 07690 12481 32404 10150 20120 30049 40080 51004 60006 82232 90900=
07690,1996-11-14 12:00:00,16,1008.1,0.1,77,12,40000,14.816,,,220,,,,,,,,,,,wg-a,,,,AAXX 14124 07690 12582 42208 10160 20120 30050 40081 51001 60006 82882 91200=
07690,1996-11-14 15:00:00,16,1007.9,-0.2,82,13,40000,18.52,,,200,,,,,,,,,,,wg-a,,,,AAXX 14154 07690 12582 /2010 10160 20130 30048 40079 55002 60006 82870 91500=
07690,1996-11-14 18:00:00,13,1008.7,0.8,94,12,20000,3.704,,,270,11.8,16.6,,,,,,,,,wg-a,,,,AAXX 14184 07690 12570 72702 10130 20120 30056 40087 51008 60006 82802 91800 333 10166 20118=
07690,1996-11-14 21:00:00,12,1010.2,1.5,100,12,15000,7.408,,,330,,,,,,,,,,,wg-a,,,,AAXX 14214 07690 12665 73304 10120 20120 30071 40102 51015 60006 8252/ 92100=
07690,1996-11-15 00:00:00,12,1011.4,1.2,94,11,15000,3.704,,,330,,,,,,,,,,,wg-a,,,,AAXX 15004 07690 12565 73302 10120 20110 30083 40114 53012 60006 8352/ 90000=
07690,1996-11-15 03:00:00,11,1011.2,-0.2,94,10,15000,7.408,,,330,,,,,,,,,,,wg-a,,,,AAXX 15034 07690 12465 73304 10110 20100 30081 40112 58002 60006 8257/ 90300=
07690,1996-11-15 06:00:00,11,1012.3,1.1,94,10,20000,11.112,,,340,11.2,13.4,,,,,,,,,wg-a,,,,AAXX 15064 07690 02470 73406 10110 20100 30092 40123 51011 60006 8457/ 90600 333 10134 20112 60004=
07690,1996-11-15 09:00:00,12,1014.9,2.6,88,10,25000,14.816,,,330,,,,,,,,,,,wg-a,,,,AAXX 15094 07690 12475 73308 10120 20100 30118 40149 52026 60006 8587/ 90900=
07690,1996-11-15 12:00:00,15,1015.9,1,82,12,12000,14.816,,,120,,,,,,,,,,,wg-a,,,,AAXX 15124 07690 12462 71208 10150 20120 30128 40159 51010 60006 8487/ 91200=
07690,1996-11-15 15:00:00,13,1016.6,0.7,88,11,12000,3.704,,,320,,,,,,,,,,3,wg-a,,,,AAXX 15154 07690 02462 73202 10130 20110 30135 40166 53007 61000 70362 8687/ 91500 333 ////=
07690,1996-11-15 18:00:00,12,1017.9,1.3,94,11,6000,11.112,,,330,11.2,15.2,,4,,,,,,63,wg-a,,,,AAXX 15184 07690 12256 83306 10120 20110 30148 40179 53013 60047 76386 8682/ 91800 333 10152 20112=
07690,1996-11-15 20:00:00,12,1017.9,1.3,94,11,6000,16.668,,,350,11.2,15.2,,4,,,,,,63,wg-a,,,,AAXX 15204 07690 12256 83509 10120 20110 30148 40179 53013 60047 76386 8682/ 92000 333 10152 20112=
07690,1996-11-15 21:00:00,12,1019.1,1.1,94,11,10000,11.112,,,350,,,,5,,,,,,60,wg-a,,,,AAXX 15214 07690 12260 83506 10120 20110 30159 40191 53011 60057 76066 878// 92100=
07690,1996-11-16 00:00:00,12,1018.5,-0.6,88,10,18000,18.52,,,340,,,,,,,,,,1,wg-a,,,,AAXX 16004 07690 02668 /3410 10120 20100 30153 40185 58006 60056 70162 85570 90000 333 61000=
07690,1996-11-16 03:00:00,13,1017.7,-0.7,82,10,15000,14.816,,,330,,,,1,,,,,,21,wg-a,,,,AAXX 16034 07690 12365 83308 10130 20100 30146 40177 58007 60017 72162 878// 90300=
07690,1996-11-16 06:00:00,12,1017.3,-0.4,94,11,15000,11.112,,,340,11.4,13.2,,1,,,11,,,60,wg-a,,,,AAXX 16064 07690 02365 83406 10120 20110 30142 40173 55004 60114 76062 878// 90600 333 10132 20114 60017=
07690,1996-11-16 09:00:00,12,1018.6,1.3,100,12,6000,22.224,,,330,,,,8,,,,,,63,wg-a,,,,AAXX 16094 07690 12456 83312 10120 20120 30155 40186 53013 60087 76366 889// 90900=
07690,1996-11-16 12:00:00,17,1015.4,-3.2,68,11,20000,22.224,,,20,,,,1,,,,,,3,wg-a,,,,AAXX 16124 07690 02770 70212 10170 20110 30123 40154 56032 60096 70362 8357/ 91200 333 60017=
07690,1996-11-16 15:00:00,16,1014.1,-1.3,68,10,20000,7.408,,,60,,,,,,,,,,,wg-a,,,,AAXX 16154 07690 12670 70604 10160 20100 30110 40141 56013 60006 83572 91500=
07690,1996-11-16 18:00:00,14,1013.9,-0.2,77,10,20000,11.112,,,340,11.6,18.3,,,,,,,,17,wg-a,,,,AAXX 16184 07690 02670 73406 10140 20100 30108 40139 58002 61000 71798 8497/ 91800 333 10183 20116 ////=
07690,1996-11-16 21:00:00,15,1013.9,-0,72,10,20000,11.112,,,330,,,,,,,,,,1,wg-a,,,,AAXX 16214 07690 12670 73306 10150 20100 30108 40139 55000 60006 70192 8557/ 92100=
07690,1996-11-17 00:00:00,15,1012.8,-1.1,72,10,15000,25.928,,,330,,,,,,,,,,17,wg-a,,,,AAXX 17004 07690 12465 73314 10150 20100 30097 40128 58011 60006 71792 8693/ 90000=
07690,1996-11-17 03:00:00,13,1012.3,-0.5,88,11,15000,11.112,,,330,,,,2,,,,,,80,wg-a,,,,AAXX 17034 07690 12265 83306 10130 20110 30092 40123 58005 60027 78098 878// 90300=
07690,1996-11-17 06:00:00,14,1012.1,-0.2,82,11,15000,14.816,,,40,12.7,15.6,,1,,,12,,,3,wg-a,,,,AAXX 17064 07690 02465 70408 10140 20110 30090 40121 56002 60124 70398 878// 90600 333 10156 20127 60017=
07690,1996-11-17 09:00:00,13,1011.1,-1,88,11,500,7.408,,,10,,,,,,,,,,,wg-a,,,,AAXX 17094 07690 12400 70104 10130 20110 30080 40111 58010 60006 878// 90900=
07690,1996-11-17 12:00:00,14,1009.2,-1.9,94,13,7000,29.632,,,80,,,,5,,,,,,61,wg-a,,,,AAXX 17124 07690 02457 70816 10140 20130 30061 40092 56019 60056 76186 879// 91200 333 60057=
07690,1996-11-17 15:00:00,13,1006.6,-2.6,94,12,12000,7.408,,,350,,,,4,,,,,,61,wg-a,,,,AAXX 17154 07690 12462 73504 10130 20120 30035 40066 56026 60047 76166 8257/ 91500=
07690,1996-11-17 18:00:00,13,1005,-1.6,94,12,15000,11.112,,,330,12.5,14.8,,1,,,,,,21,wg-a,,,,AAXX 17184 07690 12565 73306 10130 20120 30019 40050 56016 60017 72162 8687/ 91800 333 10148 20125=
07690,1996-11-17 21:00:00,13,1003.5,-1.5,94,12,6000,25.928,,,70,,,,7,,,,,,61,wg-a,,,,AAXX 17214 07690 12456 80714 10130 20120 30004 40035 57015 60077 76162 888// 92100=
07690,1996-11-18 00:00:00,10,1002.2,-1.3,93,9,10000,22.224,,,260,,,,22,,,,,,63,wg-a,,,,AAXX 18004 07690 02260 82612 10100 20090 39991 40022 56013 60296 76362 8/57/ 90000 333 60227=
07690,1996-11-18 03:00:00,9,999.2,-3,93,8,8000,14.816,,,340,,,,11,,,,,,61,wg-a,,,,AAXX 18034 07690 12458 83408 10090 20080 39961 49992 56030 60117 76166 8457/ 90300=
07690,1996-11-18 06:00:00,8,996.9,-2.3,93,7,10000,11.112,,,310,8.3,13.3,,0,,,50,,,61,wg-a,,,,AAXX 18064 07690 02460 83106 10080 20070 39938 49969 56023 60504 76162 8487/ 90600 333 10133 20083 60007=
07690,1996-11-18 09:00:00,9,997.4,0.5,93,8,20000,14.816,,,330,,,,1,,,,,,21,wg-a,,,,AAXX 18094 07690 12470 83308 10090 20080 39943 49974 51005 60017 72162 8687/ 90900=
07690,1996-11-18 12:00:00,9,996.3,-1.1,93,8,20000,11.112,,,250,,,,1,,,,,,61,wg-a,,,,AAXX 18124 07690 02470 82506 10090 20080 39932 49963 58011 60026 76162 8687/ 91200 333 60017=
07690,1996-11-18 15:00:00,9,995.6,-0.7,93,8,40000,11.112,,,280,,,,0,,,,,,21,wg-a,,,,AAXX 18154 07690 12482 /2806 10090 20080 39925 49956 55007 60007 72162 82272 91500=
07690,1996-11-18 18:00:00,8,996.8,1.2,93,7,500,3.704,,,280,7.8,9.5,,,,,,,,1,wg-a,,,,AAXX 18184 07690 32600 32802 10080 20070 39937 49968 53012 70161 81131 91800 333 10095 20078=
07690,1996-11-18 21:00:00,8,998.7,1.9,76,4,20000,14.816,,,330,,,,,,,,,,,wg-a,,,,AAXX 18214 07690 12/70 53308 10080 20040 39956 49987 53019 60006 80002 92100=
07690,1996-11-19 00:00:00,8,1001,2.3,71,3,20000,18.52,,,340,,,,,,,,,,,wg-a,,,,AAXX 19004 07690 12670 63410 10080 20030 39979 40010 51023 60006 83532 90000=
07690,1996-11-19 03:00:00,8,1001.8,0.8,71,3,20000,25.928,,,330,,,,,,,,,,,wg-a,,,,AAXX 19034 07690 12570 /3314 10080 20030 39987 40018 51008 60006 84530 90300=
07690,1996-11-19 06:00:00,7,1003.5,1.6,66,1,20000,22.224,,,330,6.7,8.6,,,,,,,,,wg-a,,,,AAXX 19064 07690 12570 /3312 10070 20010 30003 40035 53016 60006 81501 90600 333 10086 20067=
07690,1996-11-19 09:00:00,10,1004.9,1.5,57,2,50000,18.52,,,330,,,,,,,,,,,wg-a,,,,AAXX 19094 07690 12584 23310 10100 20020 30018 40049 51015 60006 81204 90900=
07690,1996-11-19 12:00:00,13,1003.9,-1,58,5,50000,18.52,,,200,,,,,,,,,,,wg-a,,,,AAXX 19124 07690 12684 22010 10130 20050 30008 40039 58010 60006 81201 91200=
07690,1996-11-19 15:00:00,12,1003.4,-0.5,54,3,50000,22.224,,,250,,,,,,,,,,,wg-a,,,,AAXX 19154 07690 12684 /2512 10120 20030 30003 40034 56005 60006 81412 91500=
07690,1996-11-19 18:00:00,9,1003.6,0.2,57,1,25000,7.408,,,300,7.2,14.1,,,,,,,,,wg-a,,,,AAXX 19184 07690 12575 73004 10090 20010 30005 40036 50002 60006 81832 91800 333 10141 20072=
07690,1996-11-19 21:00:00,7,1001.5,-2.2,87,5,15000,18.52,,,340,,,,4,,,,,,61,wg-a,,,,AAXX 19214 07690 12565 83410 10070 20050 39983 40015 58022 60047 76162 878// 92100=
07690,1996-11-20 00:00:00,7,997.6,-3.8,87,5,15000,18.52,,,330,,,,2,,,,,,21,wg-a,,,,AAXX 20004 07690 02565 83310 10070 20050 39945 49976 58038 60066 72162 878// 90000 333 60027=
07690,1996-11-20 03:00:00,7,996.6,-1,87,5,20000,18.52,,,320,,,,0,,,,,,,wg-a,,,,AAXX 20034 07690 12370 83210 10070 20050 39935 49966 58010 60007 8487/ 90300=
07690,1996-11-20 06:00:00,11,995.8,-0.8,76,7,20000,11.112,,,300,6.4,10.6,,,,,6,,,,wg-a,,,,AAXX 20064 07690 12470 /3006 10110 20070 39927 49958 56008 60064 85830 90600 333 10106 20064=
07690,1996-11-20 09:00:00,9,995.7,-0.1,81,6,40000,14.816,,,330,,,,,,,,,,,wg-a,,,,AAXX 20094 07690 12482 23308 10090 20060 39926 49957 58001 60006 81831 90900=
07690,1996-11-20 12:00:00,13,995.1,-0.6,58,5,50000,31.484,,,250,,,,,,,,,,,wg-a,,,,AAXX 20124 07690 12484 32517 10130 20050 39920 49951 58006 60006 81132 91200=
07690,1996-11-20 15:00:00,13,996.2,1.1,47,2,50000,22.224,,,290,,,,,,,,,,,wg-a,,,,AAXX 20154 07690 12484 22912 10130 20020 39931 49962 53011 60006 81130 91500=
07690,1996-11-20 18:00:00,11,998.6,2.4,62,4,500,31.484,,,270,8.8,14.5,,,,,,,,,wg-a,,,,AAXX 20184 07690 12800 /2717 10110 20040 39955 49986 51024 60006 81/30 91800 333 10145 20088=
07690,1996-11-20 21:00:00,10,999.1,0.5,57,2,500,31.484,,,250,,,,,,,,,,,wg-a,,,,AAXX 20214 07690 12/00 /2517 10100 20020 39960 49991 53005 60006 81030 92100=
07690,1996-11-21 00:00:00,11,1000.2,1.1,37,-3,500,31.484,,,300,,,,,,,,,,,wg-a,,,,AAXX 21004 07690 12500 /3017 10110 21030 39971 40002 51011 60006 81100 90000=
07690,1996-11-21 03:00:00,12,1001.3,1.1,30,-5,500,31.484,,,270,,,,,,,,,,,wg-a,,,,AAXX 21034 07690 12400 /2717 10120 21050 39982 40013 53011 60006 81100 90300=
07690,1996-11-21 06:00:00,9,1003.4,2.1,57,1,500,14.816,,40.744,260,9.1,12,,,,,,,,,wg-a,,,,AAXX 21064 07690 02500 /2608 10090 20010 30003 40034 53021 60006 81930 90600 333 10120 20091 60004 91022=
07690,1996-11-21 09:00:00,12,1005.9,2.5,38,-2,50000,29.632,,40.744,260,,,,,,,,,,,wg-a,,,,AAXX 21094 07690 12/84 22616 10120 21020 30028 40059 51025 60006 82030 90900 333 91022=
07690,1996-11-21 12:00:00,14,1006,0.1,31,-3,50000,29.632,,68.524,260,,,,,,,,,,,wg-a,,,,AAXX 21124 07690 12/84 12616 10140 21030 30029 40060 50001 60006 80002 91200 333 91037=
07690,1996-11-21 15:00:00,13,1006.4,0.4,26,-6,10000,25.928,,,280,,,,,,,,,,,wg-a,,,,AAXX 21154 07690 12/60 /2814 10130 21060 30033 40064 51004 60006 91500=
07690,1996-11-21 18:00:00,8,1007.9,1.4,46,-3,20000,11.112,,,290,8.4,13.8,,,,,,,,,wg-a,,,,AAXX 21184 07690 12670 32906 10080 21030 30047 40079 51014 60006 81501 91800 333 10138 20084=
07690,1996-11-21 21:00:00,8,1008,0.1,57,0,20000,14.816,,,280,,,,,,,,,,,wg-a,,,,AAXX 21214 07690 12/70 72808 10080 20000 30048 40080 50001 60006 8703/ 92100=
07690,1996-11-22 00:00:00,7,1007.5,-0.5,76,3,20000,14.816,,,330,,,,0,,,,,,61,wg-a,,,,AAXX 22004 07690 02670 83308 10070 20030 30043 40075 55005 60016 76161 8453/ 90000 333 60007=
07690,1996-11-22 03:00:00,6,1002.7,-4.8,87,4,10000,22.224,,,330,,,,4,,,,,,21,wg-a,,,,AAXX 22034 07690 12560 73312 10060 20040 39995 40027 58048 60047 72162 8457/ 90300=
07690,1996-11-22 06:00:00,6,1001.2,-1.5,87,4,15000,25.928,,,330,5.3,8.8,,,,,4,,,1,wg-a,,,,AAXX 22064 07690 12465 53314 10060 20040 39980 40012 56015 60044 70161 81532 90600 333 10088 20053=
07690,1996-11-22 09:00:00,8,1001.9,0.8,76,4,50000,11.112,,,320,,,,,,,,,,,wg-a,,,,AAXX 22094 07690 12484 /3206 10080 20040 39988 40019 53008 60006 81270 90900=
07690,1996-11-22 12:00:00,13,1005,3.1,67,7,11000,35.188,,,90,,,,,,,,,,,wg-a,,,,AAXX 22124 07690 12/61 /0919 10130 20070 30019 40050 53031 60006 91200=
07690,1996-11-22 15:00:00,13,1007.8,2.8,62,6,500,14.816,,,120,,,,,,,,,,,wg-a,,,,AAXX 22154 07690 12500 /1208 10130 20060 30047 40078 51028 60006 86800 91500=
07690,1996-11-22 18:00:00,13,1011.2,3.4,58,5,20000,18.52,,,160,6.3,14.2,,,,,,,,,wg-a,,,,AAXX 22184 07690 12570 /1610 10130 20050 30081 40112 53034 60006 86800 91800 333 10142 20063=
07690,1996-11-22 21:00:00,11,1013.9,2.6,76,7,20000,11.112,,,330,,,,,,,,,,,wg-a,,,,AAXX 22214 07690 12570 73306 10110 20070 30107 40139 53026 60006 878// 92100=
07690,1996-11-23 00:00:00,9,1014.2,0.3,87,7,20000,14.816,,,330,,,,,,,,,,,wg-a,,,,AAXX 23004 07690 12670 43308 10090 20070 30110 40142 53003 60006 82530 90000=
07690,1996-11-23 03:00:00,8,1013.6,-0.6,81,5,20000,18.52,,,320,,,,,,,,,,,wg-a,,,,AAXX 23034 07690 12670 43210 10080 20050 30104 40136 58006 60006 82530 90300=
07690,1996-11-23 06:00:00,8,1014.4,0.8,87,6,10000,18.52,,,340,7.9,12.8,,1,,,1,,,61,wg-a,,,,AAXX 23064 07690 02460 73410 10080 20060 30112 40144 53008 60014 76161 875// 90600 333 10128 20079 60017=
07690,1996-11-23 09:00:00,7,1014.8,0.4,93,6,15000,14.816,,,330,,,,1,,,,,,60,wg-a,,,,AAXX 23094 07690 12565 83308 10070 20060 30116 40148 50004 60017 76066 8487/ 90900=
07690,1996-11-23 12:00:00,10,1013.4,-1.4,82,7,25000,3.704,,,330,,,,0,,,,,,3,wg-a,,,,AAXX 23124 07690 02575 73302 10100 20070 30102 40134 58014 60016 70362 8683/ 91200 333 60007=
07690,1996-11-23 15:00:00,11,1011.9,-1.4,76,7,500,18.52,,,220,,,,,,,,,,,wg-a,,,,AAXX 23154 07690 12500 72210 10110 20070 30088 40119 58014 60006 87800 91500=
07690,1996-11-23 18:00:00,8,1010.8,-1.2,93,7,25000,3.704,,,330,7.4,12.2,,,,,,,,,wg-a,,,,AAXX 23184 07690 32575 23302 10080 20070 30076 40108 58012 82400 91800 333 10122 20074=
07690,1996-11-23 21:00:00,7,1011.5,0.7,87,5,15000,14.816,,,330,,,,,,,,,,,wg-a,,,,AAXX 23214 07690 12/65 03308 10070 20050 30083 40115 53007 60006 80000 92100=
07690,1996-11-24 00:00:00,6,1012.4,0.9,75,2,15000,3.704,,,300,,,,0,,,,,,,wg-a,,,,AAXX 24004 07690 02565 13002 10060 20020 30092 40124 51009 60006 81500 90000 333 60007=
07690,1996-11-24 03:00:00,7,1013.9,1.5,49,-3,20000,3.704,,,310,,,,,,,,,,,wg-a,,,,AAXX 24034 07690 12470 /3102 10070 21030 30107 40139 53015 60006 81500 90300=
07690,1996-11-24 06:00:00,7,1015.8,1.9,45,-4,500,11.112,,,340,5.3,8.2,,,,,1,,,,wg-a,,,,AAXX 24064 07690 02400 13406 10070 21040 30126 40158 53019 60006 81500 90600 333 10082 20053 60014=
07690,1996-11-24 09:00:00,10,1018.4,2.6,34,-5,60000,11.112,,,350,,,,,,,,,,,wg-a,,,,AAXX 24094 07690 12486 /3506 10100 21050 30152 40184 51026 60006 81502 90900=
07690,1996-11-24 12:00:00,13,1019.4,1.1,38,-1,60000,11.112,,,210,,,,,,,,,,,wg-a,,,,AAXX 24124 07690 12486 /2106 10130 21010 30163 40194 51011 60006 81101 91200=
07690,1996-11-24 15:00:00,13,1020,0.5,44,1,60000,14.816,,,230,,,,,,,,,,,wg-a,,,,AAXX 24154 07690 12486 12308 10130 20010 30168 40200 53005 60006 81102 91500=
07690,1996-11-24 18:00:00,7,1021.7,1.7,66,1,40000,18.52,,,320,6.6,14,,,,,,,,,wg-a,,,,AAXX 24184 07690 12482 /3210 10070 20010 30185 40217 51017 60006 81502 91800 333 10140 20066=
07690,1996-11-24 21:00:00,6,1022.5,0.8,61,-1,20000,22.224,,,330,,,,,,,,,,,wg-a,,,,AAXX 24214 07690 12/70 33312 10060 21010 30193 40225 51008 60006 80002 92100=
07690,1996-11-25 00:00:00,6,1021.6,-1.1,56,-2,20000,25.928,,,330,,,,,,,,,,,wg-a,,,,AAXX 25004 07690 12/70 43314 10060 21020 30182 40216 56011 60006 81031 90000=
07690,1996-11-25 03:00:00,5,1019,-2.4,56,-3,20000,25.928,,,330,,,,,,,,,,,wg-a,,,,AAXX 25034 07690 12/70 43314 10050 21030 30158 40190 58024 60006 81032 90300=
07690,1996-11-25 06:00:00,6,1016.6,-2.4,52,-3,20000,22.224,,,330,5,6.6,,,,,,,,,wg-a,,,,AAXX 25064 07690 02/70 73312 10060 21030 30134 40166 57024 60006 85072 90600 333 10066 20050 60004=
07690,1996-11-25 09:00:00,6,1014.8,-1.8,61,-1,25000,11.112,,,330,,,,,,,,,,,wg-a,,,,AAXX 25094 07690 12675 83306 10060 21010 30116 40148 56018 60006 8357/ 90900=
07690,1996-11-25 12:00:00,9,1010.8,-4,61,2,20000,7.408,,,330,,,,,,,,,,3,wg-a,,,,AAXX 25124 07690 02670 73304 10090 20020 30076 40108 58040 61000 70362 82572 91200 333 6100=
07690,1996-11-25 15:00:00,10,1007.9,-2.8,82,7,12000,7.408,,,250,,,,0,,,,,,60,wg-a,,,,AAXX 25154 07690 12262 82504 10100 20070 30048 40079 56028 60007 76062 8457/ 91500=
07690,1996-11-25 18:00:00,8,1005.9,-2.1,100,8,9000,7.408,,,80,5.4,10.6,,5,,,,,,61,wg-a,,,,AAXX 25184 07690 12359 80804 10080 20080 30027 40059 58021 60057 76162 878// 91800 333 10106 20054=
07690,1996-11-25 21:00:00,7,1003,-2.9,93,6,10000,11.112,,,330,,,,1,,,,,,3,wg-a,,,,AAXX 25214 07690 12460 43306 10070 20060 39998 40030 58029 60017 70361 84830 92100=
07690,1996-11-26 00:00:00,6,1000.2,-2.8,93,5,10000,14.816,,,340,,,,,,,,,,3,wg-a,,,,AAXX 26004 07690 12460 43408 10060 20050 39970 40002 58028 60016 70361 83530 90000=
07690,1996-11-26 03:00:00,5,998.7,-1.5,93,4,15000,14.816,,,330,,,,,,,,,,,wg-a,,,,AAXX 26034 07690 12565 /3308 10050 20040 39955 49987 58015 60006 81530 90300=
07690,1996-11-26 06:00:00,5,998.9,0.2,93,4,20000,18.52,,,340,5,8,,,,,6,,,,wg-a,,,,AAXX 26064 07690 12570 23410 10050 20040 39957 49989 53002 60064 82500 90600 333 10080 20050=
07690,1996-11-26 09:00:00,8,1000.5,1.7,81,5,40000,14.816,,,330,,,,,,,,,,,wg-a,,,,AAXX 26094 07690 12482 /3308 10080 20050 39974 40005 52017 60006 81500 90900=
07690,1996-11-26 12:00:00,14,999.4,-1.1,63,7,50000,7.408,,,320,,,,,,,,,,,wg-a,,,,AAXX 26124 07690 12684 13204 10140 20070 39963 49994 58011 60006 81100 91200=
07690,1996-11-26 15:00:00,15,999.9,0.5,41,2,50000,11.112,,,350,,,,,,,,,,,wg-a,,,,AAXX 26154 07690 12/84 /3506 10150 20020 39968 49999 53005 60006 80000 91500=
07690,1996-11-26 18:00:00,11,1001.3,1.4,47,0,20000,22.224,,,330,5.1,16.6,,,,,,,,,wg-a,,,,AAXX 26184 07690 12/70 03312 10110 20000 39982 40013 52014 60006 80000 91800 333 10166 20051=
07690,1996-11-26 21:00:00,10,1003.9,2.6,43,-2,20000,14.816,,,340,,,,,,,,,,,wg-a,,,,AAXX 26214 07690 12/70 03408 10100 21020 30008 40039 53026 60006 80000 92100=
07690,1996-11-27 00:00:00,9,1004.9,1,46,-2,25000,18.52,,,340,,,,,,,,,,,wg-a,,,,AAXX 27004 07690 12/75 03410 10090 21020 30018 40049 52010 60006 80000 90000=
07690,1996-11-27 03:00:00,7,1005.4,0.4,53,-2,25000,18.52,,,360,,,,,,,,,,,wg-a,,,,AAXX 27034 07690 12/75 03610 10070 21020 30022 40054 51004 60006 80000 90300=
07690,1996-11-27 06:00:00,7,1005.7,0.3,49,-3,25000,14.816,,,350,6.9,11.4,,,,,,,,,wg-a,,,,AAXX 27064 07690 02/75 03508 10070 21030 30025 40057 50003 60006 80000 90600 333 10114 20069 60004=
07690,1996-11-27 09:00:00,9,1007.1,1.4,43,-3,50000,25.928,,,320,,,,,,,,,,,wg-a,,,,AAXX 27094 07690 12784 /3214 10090 21030 30039 40071 51014 60006 81500 90900=
07690,1996-11-27 12:00:00,13,1006.5,-0.5,38,-1,35000,11.112,,,330,,,,,,,,,,,wg-a,,,,AAXX 27124 07690 12781 33306 10130 21010 30034 40065 58005 60006 81530 91200=
07690,1996-11-27 15:00:00,12,1004.5,-2,58,4,500,11.112,,,260,,,,,,,,,,,wg-a,,,,AAXX 27154 07690 12600 52606 10120 20040 30014 40045 56020 60006 81530 91500=
07690,1996-11-27 18:00:00,11,1003.6,-0.9,62,4,15000,18.52,,,240,6.7,15.6,,0,,,,,,,wg-a,,,,AAXX 27184 07690 12765 /2410 10110 20040 30005 40036 56009 60007 82530 91800 333 10156 20067=
07690,1996-11-28 00:00:00,11,999.1,-2.7,54,2,25000,29.632,,,290,,,,0,,,,,,2,wg-a,,,,AAXX 28004 07690 02/75 /2916 10110 20020 39960 49991 56027 60016 70286 81030 90000 333 60007=
07690,1996-11-28 03:00:00,8,998.3,-0.8,66,2,25000,11.112,,,40,,,,,,,,,,,wg-a,,,,AAXX 28034 07690 12575 /0406 10080 20020 39952 49983 56008 60006 81500 90300=
07690,1996-11-28 06:00:00,7,998.3,-0.1,66,1,500,11.112,,,330,6.1,12.4,,,,,1,,,,wg-a,,,,AAXX 28064 07690 12500 23306 10070 20010 39951 49983 57001 60014 82500 90600 333 10124 20061=
07690,1996-11-28 09:00:00,10,1000.4,2.2,71,5,15000,25.928,,,80,,,,,,,,,,,wg-a,,,,AAXX 28094 07690 12565 70814 10100 20050 39973 40004 51022 60006 878// 90900=
07690,1996-11-28 12:00:00,13,1001.1,0.7,58,5,15000,14.816,,,100,,,,,,,,,,,wg-a,,,,AAXX 28124 07690 12565 71008 10130 20050 39980 40011 50007 60006 83232 91200=
07690,1996-11-28 15:00:00,13,1002.4,1.3,62,6,20000,7.408,,,190,,,,,,,,,,,wg-a,,,,AAXX 28154 07690 12670 31904 10130 20060 39993 40024 52013 60006 83200 91500=
07690,1996-11-28 18:00:00,9,1005.1,2.7,87,7,4000,22.224,,,280,6.4,14.2,,1,,,,,,61,wg-a,,,,AAXX 28184 07690 12240 82812 10090 20070 30020 40051 53027 60017 76161 879// 91800 333 10142 20064=
07690,1996-11-28 21:00:00,8,1008.1,2.9,66,2,15000,18.52,,,340,,,,1,,,,,,1,wg-a,,,,AAXX 28214 07690 12765 53410 10080 20020 30049 40081 53029 60017 70162 84530 92100=
07690,1996-11-29 00:00:00,6,1010.3,2.2,56,-2,15000,22.224,,,330,,,,,,,,,,1,wg-a,,,,AAXX 29004 07690 12565 /3312 10060 21020 30071 40103 51022 60016 70161 81500 90000=
07690,1996-11-29 03:00:00,6,1011.6,1.3,52,-3,20000,14.816,,,340,,,,,,,,,,,wg-a,,,,AAXX 29034 07690 12/70 /3408 10060 21030 30084 40116 52013 60006 81030 90300=
07690,1996-11-29 06:00:00,5,1013.8,2.2,56,-3,20000,22.224,,,340,5,9.2,,,,,2,,,,wg-a,,,,AAXX 29064 07690 12570 13412 10050 21030 30106 40138 53022 60024 81530 90600 333 10092 20050=
07690,1996-11-29 09:00:00,7,1016.5,2.7,45,-4,35000,22.224,,,330,,,,,,,,,,,wg-a,,,,AAXX 29094 07690 12781 23312 10070 21040 30133 40165 53027 60006 82530 90900=
07690,1996-11-29 12:00:00,12,1016.4,-0.1,47,1,35000,7.408,,,220,,,,,,,,,,,wg-a,,,,AAXX 29124 07690 12781 /2204 10120 20010 30132 40164 58001 60006 81506 91200=
07690,1996-11-29 15:00:00,11,1015.3,-1.1,54,2,35000,25.928,,,250,,,,,,,,,,,wg-a,,,,AAXX 29154 07690 12781 62514 10110 20020 30121 40153 56011 60006 81546 91500=
07690,1996-11-29 18:00:00,6,1012.7,-2.6,70,1,25000,14.816,,,320,4.9,12.3,,,,,,,,,wg-a,,,,AAXX 29184 07690 12/75 43208 10060 20010 30095 40127 58026 60006 80006 91800 333 10123 20049=
07690,1996-11-29 21:00:00,5,1010.1,-2.6,75,1,20000,18.52,,,330,,,,,,,,,,,wg-a,,,,AAXX 29214 07690 12/70 33310 10050 20010 30069 40101 58026 60006 80001 92100=
07690,1996-11-30 00:00:00,5,1006.9,-3.2,75,1,15000,18.52,,,340,,,,,,,,,,,wg-a,,,,AAXX 30004 07690 12/65 33410 10050 20010 30037 40069 58032 60006 80001 90000=
07690,1996-11-30 03:00:00,5,1003.1,-3.8,65,-1,20000,14.816,,,340,,,,,,,,,,,wg-a,,,,AAXX 30034 07690 12/70 /3408 10050 21010 39999 40031 58038 60006 80002 90300=
07690,1996-11-30 06:00:00,5,1000.3,-2.8,75,1,20000,11.112,,,20,4.4,6.3,,,,,,,,,wg-a,,,,AAXX 30064 07690 02570 40206 10050 20010 39971 40003 58028 60006 82102 90600 333 10063 20044 60004=
07690,1996-11-30 09:00:00,14,998.1,-2.1,58,6,50000,3.704,,,230,,,,,,,,,,,wg-a,,,,AAXX 30094 07690 12584 /2302 10140 20060 39950 49981 56021 60006 81112 90900=
07690,1996-11-30 12:00:00,14,997.4,-0.7,72,9,50000,22.224,,,100,,,,,,,,,,,wg-a,,,,AAXX 30124 07690 12584 31012 10140 20090 39943 49974 58007 60006 81242 91200=
07690,1996-11-30 15:00:00,13,997.3,-0.1,67,7,50000,22.224,,,120,,,,,,,,,,,wg-a,,,,AAXX 30154 07690 12584 /1212 10130 20070 39942 49973 55001 60006 81240 91500=
07690,1996-11-30 18:00:00,11,998.9,1.6,71,6,20000,18.52,,,90,4.6,16.3,,,,,,,,,wg-a,,,,AAXX 30184 07690 12670 /0910 10110 20060 39958 49989 53016 60006 81500 91800 333 10163 20046=
07690,1996-11-30 21:00:00,9,1001.4,2.5,53,0,20000,18.52,,,320,,,,,,,,,,,wg-a,,,,AAXX 30214 07690 12/70 03210 10090 20000 39983 40014 51025 60006 80000 92100=
07690,1996-12-01 00:00:00,11,1003,1.6,40,-2,20000,25.928,,46.3,340,,,,,,,,,,,wg-a,,,,AAXX 01004 07690 12/70 03414 10110 21020 39999 40030 51016 60006 80000 90000 333 91025=
07690,1996-12-01 03:00:00,10,1006.3,3.3,37,-4,20000,3.704,,,320,,,,,,,,,,,wg-a,,,,AAXX 01034 07690 12/70 03202 10100 21040 30032 40063 51033 60006 80000 90300=
07690,1996-12-01 06:00:00,6,1007,0.6,65,0,25000,11.112,,,330,5.7,11.5,,,,,,,,,wg-a,,,,AAXX 01064 07690 02475 13306 10060 20000 30038 40070 53006 60006 81500 90600 333 10115 20057 60004=
07690,1996-12-01 09:00:00,11,1009.2,2.3,40,-2,60000,11.112,,,320,,,,,,,,,,,wg-a,,,,AAXX 01094 07690 12/86 13206 10110 21020 30061 40092 51023 60006 80002 90900=
07690,1996-12-01 12:00:00,15,1009.6,0.4,41,2,60000,11.112,,,270,,,,,,,,,,,wg-a,,,,AAXX 01124 07690 12/86 02706 10150 20020 30065 40096 50004 60006 80000 91200=
07690,1996-12-01 15:00:00,16,1010.2,0.6,48,5,60000,14.816,,,80,,,,,,,,,,,wg-a,,,,AAXX 01154 07690 12/86 10808 10160 20050 30071 40102 53006 60006 80002 91500=
07690,1996-12-01 18:00:00,9,1012.9,2.6,61,2,500,14.816,,,330,5.2,16.8,,,,,,,,,wg-a,,,,AAXX 01184 07690 12/00 13308 10090 20020 30097 40129 51026 60006 80002 91800 333 10168 20052=
07690,1996-12-01 21:00:00,8,1014.8,1.9,57,0,500,25.928,,,330,,,,,,,,,,,wg-a,,,,AAXX 01214 07690 12/00 03314 10080 20000 30116 40148 51019 60006 80000 92100=
07690,1996-12-02 00:00:00,8,1014.6,-0.2,49,-2,20000,25.928,,,330,,,,,,,,,,,wg-a,,,,AAXX 02004 07690 12/70 33314 10080 21020 30114 40146 58002 60006 80001 90000=
07690,1996-12-02 03:00:00,7,1013.2,-1.4,53,-2,20000,25.928,,,330,,,,,,,,,,,wg-a,,,,AAXX 02034 07690 12/70 53314 10070 21020 30100 40132 58014 60006 80001 90300=
07690,1996-12-02 06:00:00,7,1011.1,-2.1,53,-2,20000,25.928,,,330,6.7,8.7,,,,,,,,,wg-a,,,,AAXX 02064 07690 02/70 53314 10070 21020 30079 40111 56021 60006 81031 90600 333 10087 20067 60004=
07690,1996-12-02 09:00:00,8,1010.4,-0.7,53,-1,40000,25.928,,,330,,,,,,,,,,,wg-a,,,,AAXX 02094 07690 12/82 63314 10080 21010 30072 40104 55007 60006 83032 90900=
07690,1996-12-02 12:00:00,10,1007.3,-3,53,1,15000,14.816,,,320,,,,,,,,,,,wg-a,,,,AAXX 02124 07690 12/65 53208 10100 20010 30042 40073 58030 60006 81032 91200=
07690,1996-12-02 15:00:00,13,1008.1,0.8,62,6,35000,18.52,,,90,,,,,,,,,,,wg-a,,,,AAXX 02154 07690 12/81 60910 10130 20060 30050 40081 53008 60006 81032 91500=
07690,1996-12-02 18:00:00,8,1012.1,3.9,87,6,12000,14.816,,,320,6.6,13.1,,,,,,,,,wg-a,,,,AAXX 02184 07690 12/62 43208 10080 20060 30089 40121 51039 60006 81032 91800 333 10131 20066=
07690,1996-12-02 21:00:00,7,1014.8,2.7,87,5,12000,18.52,,,330,,,,,,,,,,,wg-a,,,,AAXX 02214 07690 12/62 03310 10070 20050 30116 40148 51027 60006 80000 92100=
07690,1996-12-03 00:00:00,7,1016.3,1.5,70,2,15000,25.928,,,330,,,,,,,,,,,wg-a,,,,AAXX 03004 07690 12/65 03314 10070 20020 30131 40163 51015 60006 80000 90000=
07690,1996-12-03 03:00:00,7,1017,0.7,57,-1,15000,29.632,,,330,,,,,,,,,,,wg-a,,,,AAXX 03034 07690 12/65 03316 10070 21010 30138 40170 50007 60006 80000 90300=
07690,1996-12-03 06:00:00,7,1016.8,-0.2,53,-2,15000,29.632,,,330,6.4,8,,,,,,,,,wg-a,,,,AAXX 03064 07690 02/65 43316 10070 21020 30136 40168 55002 60006 80002 90600 333 10080 20064 60004=
07690,1996-12-03 09:00:00,9,1017.2,0.4,49,-1,500,25.928,,,330,,,,,,,,,,,wg-a,,,,AAXX 03094 07690 12/00 43314 10090 21010 30140 40172 52004 60006 84031 90900=
07690,1996-12-03 12:00:00,13,1016.2,-0.9,41,0,40000,3.704,,,20,,,,,,,,,,,wg-a,,,,AAXX 03124 07690 12/82 10202 10130 20000 30131 40162 58009 60006 81030 91200=
07690,1996-12-03 15:00:00,14,1015.8,-0.4,55,5,40000,14.816,,,140,,,,,,,,,,,wg-a,,,,AAXX 03154 07690 12/82 21408 10140 20050 30127 40158 55004 60006 82030 91500=
07690,1996-12-03 18:00:00,8,1016.5,0.6,76,4,25000,14.816,,,330,7.3,15.5,,,,,,,,,wg-a,,,,AAXX 03184 07690 12575 23308 10080 20040 30133 40165 50006 60006 82530 91800 333 10155 20073=
07690,1996-12-03 21:00:00,8,1016.5,0,71,3,20000,18.52,,,330,,,,,,,,,,,wg-a,,,,AAXX 03214 07690 12570 33310 10080 20030 30133 40165 50000 60006 82801 92100=
07690,1996-12-04 00:00:00,7,1017.1,0.6,66,1,20000,18.52,,,340,,,,,,,,,,,wg-a,,,,AAXX 04004 07690 12/70 /3410 10070 20010 30139 40171 51006 60006 80000 90000=
07690,1996-12-04 03:00:00,6,1016.6,-0.5,65,0,20000,25.928,,,330,,,,,,,,,,,wg-a,,,,AAXX 04034 07690 12670 33314 10060 20000 30134 40166 58005 60006 83500 90300=
07690,1996-12-04 06:00:00,7,1016.7,0.1,61,0,25000,18.52,,,340,5.9,8.2,,,,,,,,,wg-a,,,,AAXX 04064 07690 02575 63410 10070 20000 30135 40167 53001 60006 84530 90600 333 10082 20059 60004=
07690,1996-12-04 09:00:00,8,1017.3,0.6,61,1,15000,18.52,,,340,,,,,,,,,,,wg-a,,,,AAXX 04094 07690 12565 73410 10080 20010 30141 40173 50006 60006 8583/ 90900=
07690,1996-12-04 12:00:00,11,1016.8,-0.5,66,5,15000,22.224,,,90,,,,,,,,,,21,wg-a,,,,AAXX 04124 07690 02565 80912 10110 20050 30136 40168 58005 61000 72162 8583/ 91200 333 6100=
07690,1996-12-04 15:00:00,12,1015.7,-1,50,2,15000,29.632,,,60,,,,,,,,,,,wg-a,,,,AAXX 04154 07690 12565 70616 10120 20020 30126 40157 56010 60006 8383/ 91500=
07690,1996-12-04 18:00:00,13,1016.2,0.5,67,7,20000,38.892,,,80,6.7,13.7,,,,,,,,,wg-a,,,,AAXX 04184 07690 32570 /0821 10130 20070 30131 40162 53005 84830 91800 333 10137 20067=
07690,1996-12-04 21:00:00,8,1017,0.7,71,3,20000,18.52,,,330,,,,,,,,,,,wg-a,,,,AAXX 04214 07690 12670 83310 10080 20030 30138 40170 51007 60006 8253/ 92100=
07690,1996-12-05 00:00:00,9,1016.7,-0.3,66,3,20000,18.52,,,330,,,,,,,,,,,wg-a,,,,AAXX 05004 07690 12770 73310 10090 20030 30135 40167 58003 60006 8357/ 90000=
07690,1996-12-05 03:00:00,9,1016.5,-0.2,66,3,20000,31.484,,,70,,,,,,,,,,,wg-a,,,,AAXX 05034 07690 12770 /0717 10090 20030 30133 40165 58002 60006 8157/ 90300=
07690,1996-12-05 06:00:00,7,1016.6,0.1,76,3,10000,22.224,,,330,6.9,12.9,,,,,,,,,wg-a,,,,AAXX 05064 07690 02/60 /3312 10070 20030 30134 40166 53001 60006 90600 333 10129 20069 61000=
07690,1996-12-05 09:00:00,12,1017.5,1,58,4,500,35.188,,,80,,,,,,,,,,,wg-a,,,,AAXX 05094 07690 12500 20819 10120 20040 30144 40175 51010 60006 81131 90900=
07690,1996-12-05 12:00:00,16,1015.4,-2.1,34,0,500,42.596,,,90,,,,,,,,,,,wg-a,,,,AAXX 05124 07690 32/00 50923 10160 20000 30123 40154 58021 81032 91200=
07690,1996-12-05 18:00:00,13,1015.8,,44,1,20000,38.892,,,90,6.8,15.6,,,,,,,,,wg-a,,,,AAXX 05184 07690 12/70 60921 10130 20010 30127 40158 60006 81032 91800 333 10156 20068=
07690,1996-12-05 21:00:00,15,1016.4,0.6,41,2,20000,42.596,,,90,,,,,,,,,,,wg-a,,,,AAXX 05214 07690 12/70 70923 10150 20020 30133 40164 51006 60006 83032 92100=
07690,1996-12-06 00:00:00,9,1016.5,-0,66,3,20000,18.52,,,330,,,,,,,,,,,wg-a,,,,AAXX 06004 07690 12670 73310 10090 20030 30133 40165 55000 60006 84532 90000=
07690,1996-12-06 03:00:00,11,1016.5,0,62,4,20000,31.484,,,80,,,,,,,,,,,wg-a,,,,AAXX 06034 07690 12670 70817 10110 20040 30133 40165 50000 60006 875// 90300=
07690,1996-12-06 06:00:00,14,1016.5,0.1,44,2,20000,42.596,,,80,9.2,14.7,,,,,,,,,wg-a,,,,AAXX 06064 07690 02670 70823 10140 20020 30134 40165 53001 60006 875// 90600 333 10147 20092 60004=
07690,1996-12-06 09:00:00,11,1018.3,1.7,58,3,500,14.816,,38.892,30,,,,,,,,,,,wg-a,,,,AAXX 06094 07690 12600 70308 10110 20030 30151 40183 51017 60006 875// 90900 333 91021=
07690,1996-12-06 12:00:00,15,1017.4,-0.8,55,6,500,35.188,,,80,,,,,,,,,,,wg-a,,,,AAXX 06124 07690 12600 70819 10150 20060 30143 40174 58008 60006 8453/ 91200=
07690,1996-12-06 15:00:00,15,1017.4,-0,63,8,500,35.188,,,90,,,,,,,,,,,wg-a,,,,AAXX 06154 07690 12500 70919 10150 20080 30143 40174 55000 60006 8353/ 91500=
07690,1996-12-06 18:00:00,15,1018.4,,55,6,20000,29.632,,,60,10,15.4,,,,,,,,,wg-a,,,,AAXX 06184 07690 12670 70616 10150 20060 30153 40184 60006 91800 333 10154 20100=
07690,1996-12-06 21:00:00,15,1018.6,0.2,63,8,20000,31.484,,,80,,,,,,,,,,,wg-a,,,,AAXX 06214 07690 12670 70817 10150 20080 30155 40186 51002 60006 8557/ 92100=
07690,1996-12-07 00:00:00,15,1019,0.4,63,8,20000,38.892,,,100,,,,,,,,,,,wg-a,,,,AAXX 07004 07690 12670 71021 10150 20080 30159 40190 53004 60006 8353/ 90000=
07690,1996-12-07 03:00:00,9,1019.8,0.7,93,8,12000,22.224,,,330,,,,3,,,,,,60,wg-a,,,,AAXX 07034 07690 12462 83312 10090 20080 30166 40198 50007 60037 76062 8687/ 90300=
07690,1996-12-07 06:00:00,11,1020.4,0.6,82,8,15000,11.112,,,340,9.1,15.6,,0,,,3,,,21,wg-a,,,,AAXX 07064 07690 02465 83406 10110 20080 30172 40204 53006 60034 72162 878// 90600 333 10156 20091 60007=
07690,1996-12-07 09:00:00,12,1021.6,1.2,82,9,20000,18.52,,,330,,,,,,,,,,,wg-a,,,,AAXX 07094 07690 12670 73310 10120 20090 30184 40216 52012 60006 84532 90900=
07690,1996-12-07 12:00:00,16,1020.5,-1,68,10,20000,35.188,,,90,,,,,,,,,,,wg-a,,,,AAXX 07124 07690 12570 70919 10160 20100 30174 40205 58010 60006 83502 91200=
07690,1996-12-07 15:00:00,16,1019.9,-0.6,72,11,15000,29.632,,,80,,,,,,,,,,,wg-a,,,,AAXX 07154 07690 12665 70816 10160 20110 30168 40199 56006 60006 82552 91500=
07690,1996-12-07 18:00:00,13,1020.5,0.6,77,9,15000,18.52,,,60,10.6,16.7,,,,,,,,,wg-a,,,,AAXX 07184 07690 12665 /0610 10130 20090 30174 40205 53006 60006 82572 91800 333 10167 20106=
07690,1996-12-07 21:00:00,16,1021.1,0.6,59,8,15000,35.188,,,80,,,,,,,,,,,wg-a,,,,AAXX 07214 07690 12/65 /0819 10160 20080 30180 40211 51006 60006 86070 92100=
07690,1996-12-08 00:00:00,13,1020.7,-0.4,72,8,15000,29.632,,,90,,,,,,,,,,,wg-a,,,,AAXX 08004 07690 12/65 /0916 10130 20080 30176 40207 56004 60006 86070 90000=
07690,1996-12-08 03:00:00,12,1018.8,-1.9,67,6,15000,25.928,,,70,,,,,,,,,,,wg-a,,,,AAXX 08034 07690 12/65 /0714 10120 20060 30157 40188 56019 60006 86070 90300=
07690,1996-12-08 06:00:00,17,1018.6,-0.2,39,3,15000,18.52,,,30,11.8,16.8,,,,,,,,,wg-a,,,,AAXX 08064 07690 02/65 70310 10170 20030 30155 40186 58002 60006 87070 90600 333 10168 20118 60004=
07690,1996-12-08 09:00:00,17,1019,0.4,45,5,500,31.484,,,80,,,,,,,,,,,wg-a,,,,AAXX 08094 07690 12600 70817 10170 20050 30159 40190 53004 60006 81570 90900=
07690,1996-12-08 12:00:00,17,1018.9,-0.1,55,8,25000,35.188,,,90,,,,,,,,,,60,wg-a,,,,AAXX 08124 07690 02675 80919 10170 20080 30158 40189 58001 61000 76062 81570 91200 333 6100=
07690,1996-12-08 15:00:00,16,1018.9,-0,51,6,20000,22.224,,57.412,60,,,,,,,,,,21,wg-a,,,,AAXX 08154 07690 02570 80612 10160 20060 30158 40189 55000 61000 72162 8487/ 91500 333 //// 91031=
07690,1996-12-08 18:00:00,14,1018.9,-0,63,7,20000,18.52,,,60,12.7,18,,,,,,,,60,wg-a,,,,AAXX 08184 07690 02470 80610 10140 20070 30158 40189 55000 61000 76062 8387/ 91800 333 10180 20127 ////=
07690,1996-12-08 21:00:00,15,1018.7,-0.2,51,5,20000,38.892,,,50,,,,0,,,,,,60,wg-a,,,,AAXX 08214 07690 12270 80521 10150 20050 30156 40187 58002 60007 76066 875// 92100=
07690,1996-12-09 00:00:00,14,1017.2,-1.5,58,6,18000,31.484,,,30,,,,,,,,,,60,wg-a,,,,AAXX 09004 07690 02568 80317 10140 20060 30141 40172 58015 60006 76062 875// 90000 333 61000=
07690,1996-12-09 03:00:00,14,1015.1,-2.1,51,4,18000,29.632,,,20,,,,0,,,,,,21,wg-a,,,,AAXX 09034 07690 12368 80216 10140 20040 30120 40151 56021 60007 72162 875// 90300=
07690,1996-12-09 06:00:00,15,1013.6,-1.5,44,3,20000,35.188,,,40,13.3,16.3,,,,,,,,1,wg-a,,,,AAXX 09064 07690 12870 /0419 10150 20030 30105 40136 56015 60004 70162 8757/ 90600 333 10163 20133=
07690,1996-12-09 09:00:00,15,1015.1,1.5,51,5,40000,38.892,,62.968,60,,,,1,,,,,,21,wg-a,,,,AAXX 09094 07690 12682 70621 10150 20050 30120 40151 53015 60017 72162 8557/ 90900 333 91034=
07690,1996-12-09 12:00:00,14,1015.1,-0,55,5,15000,35.188,,62.968,50,,,,,,,,,,21,wg-a,,,,AAXX 09124 07690 02565 70519 10140 20050 30120 40151 55000 60016 72162 8557/ 91200 333 61000 91034=
07690,1996-12-09 15:00:00,15,1014.4,-0.7,44,3,40000,22.224,,57.412,40,,,,,,,,,,,wg-a,,,,AAXX 09154 07690 12682 /0412 10150 20030 30113 40144 58007 60006 86531 91500 333 91031=
07690,1996-12-09 18:00:00,11,1013.9,-0.6,66,5,20000,14.816,,37.04,330,10.8,15.4,,,,,,,,,wg-a,,,,AAXX 09184 07690 32670 /3308 10110 20050 30107 40139 56006 84581 91800 333 10154 20108 91020=
07690,1996-12-09 21:00:00,10,1012.8,-1.1,71,5,20000,18.52,,,330,,,,,,,,,,,wg-a,,,,AAXX 09214 07690 12670 /3310 10100 20050 30096 40128 58011 60006 83570 92100=
07690,1996-12-10 00:00:00,9,1011.5,-1.3,81,6,15000,18.52,,,330,,,,1,,,,,,61,wg-a,,,,AAXX 10004 07690 02765 83310 10090 20060 30083 40115 57013 60016 76162 8457/ 90000 333 60017=
07690,1996-12-10 03:00:00,9,1009.1,-2.4,87,7,15000,14.816,,,330,,,,3,,,,,,61,wg-a,,,,AAXX 10034 07690 12665 83308 10090 20070 30059 40091 57024 60037 76166 8357/ 90300=
07690,1996-12-10 06:00:00,9,1008.4,-0.7,93,8,15000,11.112,,,340,8.3,11,,5,,,9,,,61,wg-a,,,,AAXX 10064 07690 02665 83406 10090 20080 30052 40084 58007 60094 76166 8357/ 90600 333 10110 20083 60057=
07690,1996-12-10 09:00:00,10,1008.9,0.6,87,8,10000,14.816,,,340,,,,3,,,,,,61,wg-a,,,,AAXX 10094 07690 12560 83408 10100 20080 30058 40089 53006 60037 76166 8357/ 90900=
07690,1996-12-10 12:00:00,12,1010.2,1.3,71,7,9000,25.928,,,30,,,,2,,,,,,61,wg-a,,,,AAXX 10124 07690 02559 80314 10120 20070 30071 40102 51013 60056 76162 8657/ 91200 333 60027=
07690,1996-12-10 15:00:00,11,1010.5,0.3,76,7,15000,22.224,,,10,,,,2,,,,,,1,wg-a,,,,AAXX 10154 07690 12565 70112 10110 20070 30074 40105 51003 60027 70162 8657/ 91500=
07690,1996-12-10 18:00:00,10,1011.6,1,76,6,20000,14.816,,,340,8.6,12,,,,,,,,2,wg-a,,,,AAXX 10184 07690 32670 33408 10100 20060 30084 40116 51010 70261 81170 91800 333 10120 20086=
07690,1996-12-10 21:00:00,9,1012.7,1.1,81,6,20000,14.816,,,340,,,,,,,,,,,wg-a,,,,AAXX 10214 07690 12670 /3408 10090 20060 30095 40127 52011 60006 85500 92100=
07690,1996-12-11 00:00:00,8,1012.7,0,81,5,20000,22.224,,,340,,,,,,,,,,,wg-a,,,,AAXX 11004 07690 12770 43412 10080 20050 30095 40127 50000 60006 84500 90000=
07690,1996-12-11 03:00:00,8,1012.7,-0,76,4,20000,29.632,,,330,,,,,,,,,,,wg-a,,,,AAXX 11034 07690 12870 /3316 10080 20040 30095 40127 55000 60006 81040 90300=
07690,1996-12-11 06:00:00,7,1013.3,0.6,76,3,20000,29.632,,,330,7.1,9.5,,,,,7,,,,wg-a,,,,AAXX 11064 07690 02770 23316 10070 20030 30101 40133 53006 60006 82500 90600 333 10095 20071 60074=
07690,1996-12-11 09:00:00,9,1014.3,1,71,4,50000,22.224,,,330,,,,,,,,,,,wg-a,,,,AAXX 11094 07690 12/84 33312 10090 20040 30111 40143 53010 60006 81031 90900=
07690,1996-12-11 12:00:00,16,1013.7,-0.5,59,8,50000,31.484,,,80,,,,,,,,,,,wg-a,,,,AAXX 11124 07690 12684 20817 10160 20080 30106 40137 58005 60006 81131 91200=
07690,1996-12-11 15:00:00,15,1013.9,0.2,63,8,50000,29.632,,,90,,,,,,,,,,,wg-a,,,,AAXX 11154 07690 12684 30916 10150 20080 30108 40139 53002 60006 81801 91500=
07690,1996-12-11 18:00:00,9,1014.7,0.7,81,6,20000,18.52,,,330,6.9,15.7,,,,,,,,,wg-a,,,,AAXX 11184 07690 12670 /3310 10090 20060 30115 40147 53007 60006 81500 91800 333 10157 20069=
07690,1996-12-11 21:00:00,8,1016.1,1.4,81,5,20000,25.928,,,330,,,,,,,,,,,wg-a,,,,AAXX 11214 07690 12670 /3314 10080 20050 30129 40161 51014 60006 81500 92100=
07690,1996-12-12 00:00:00,8,1015.9,-0.2,76,4,20000,18.52,,,340,,,,,,,,,,,wg-a,,,,AAXX 12004 07690 12/70 03410 10080 20040 30127 40159 58002 60006 80000 90000=
07690,1996-12-12 03:00:00,7,1016.2,0.3,81,4,20000,29.632,,,330,,,,,,,,,,,wg-a,,,,AAXX 12034 07690 12670 13316 10070 20040 30130 40162 53003 60006 81500 90300=
07690,1996-12-12 06:00:00,7,1016.3,0.1,76,3,20000,22.224,,,340,7.1,9.1,,,,,,,,,wg-a,,,,AAXX 12064 07690 02670 /3412 10070 20030 30131 40163 53001 60006 90600 333 10091 20071 60004=
07690,1996-12-12 09:00:00,8,1017.3,1,71,3,35000,22.224,,,340,,,,,,,,,,,wg-a,,,,AAXX 12094 07690 12581 73412 10080 20030 30141 40173 53010 60006 81578 90900=
07690,1996-12-12 12:00:00,8,1017,-0.3,87,6,6000,18.52,,,330,,,,1,,,,,,61,wg-a,,,,AAXX 12124 07690 02556 83310 10080 20060 30138 40170 58003 60016 76161 8387/ 91200 333 60017=
07690,1996-12-12 15:00:00,9,1015.9,-1.1,87,7,11000,18.52,,,330,,,,2,,,,,,61,wg-a,,,,AAXX 12154 07690 12561 73310 10090 20070 30127 40159 56011 60027 76162 8387/ 91500=
07690,1996-12-12 18:00:00,9,1016,0.1,81,6,15000,14.816,,,340,7,9.6,,1,,,,,,3,wg-a,,,,AAXX 12184 07690 12565 83408 10090 20060 30128 40160 53001 60017 70362 878// 91800 333 10096 20070=
07690,1996-12-12 21:00:00,9,1015.7,-0.3,81,6,15000,14.816,,,360,,,,,,,,,,,wg-a,,,,AAXX 12214 07690 12565 83608 10090 20060 30125 40157 56003 60006 878// 92100=
07690,1996-12-13 00:00:00,10,1014.1,-1.6,82,7,15000,14.816,,,10,,,,,,,,,,,wg-a,,,,AAXX 13004 07690 12565 70108 10100 20070 30109 40141 58016 60006 875// 90000=
07690,1996-12-13 03:00:00,9,1012.2,-1.9,87,7,15000,14.816,,,340,,,,0,,,,,,60,wg-a,,,,AAXX 13034 07690 12565 83408 10090 20070 30090 40122 58019 60007 76062 875// 90300=
07690,1996-12-13 06:00:00,9,1009.9,-2.3,93,8,9000,11.112,,,10,8.4,9.7,,4,,,8,,,60,wg-a,,,,AAXX 13064 07690 02559 80106 10090 20080 30067 40099 58023 60084 76062 875// 90600 333 10097 20084 60047=
07690,1996-12-13 09:00:00,9,1008.2,-1.7,100,9,6000,18.52,,,340,,,,10,,,,,,10,wg-a,,,,AAXX 13094 07690 12556 83410 10090 20090 30050 40082 56017 60107 71066 875// 90900=
07690,1996-12-13 12:00:00,10,1004.4,-3.7,93,9,6000,11.112,,,350,,,,10,,,,,,61,wg-a,,,,AAXX 13124 07690 02456 83506 10100 20090 30013 40044 58037 60206 76166 875// 91200 333 60107=
07690,1996-12-13 15:00:00,10,1002.4,-2,93,9,11000,11.112,,,320,,,,4,,,,,,60,wg-a,,,,AAXX 13154 07690 12361 83206 10100 20090 39993 40024 56020 60047 76066 875// 91500=
07690,1996-12-13 18:00:00,10,1000.9,-1.5,93,9,10000,11.112,,,340,8.6,10.1,,1,,,,,,21,wg-a,,,,AAXX 13184 07690 12360 83406 10100 20090 39978 40009 56015 60017 72165 875// 91800 333 10101 20086=
07690,1996-12-14 00:00:00,10,999.1,-0.8,93,9,7000,11.112,,,340,,,,3,,,,,,61,wg-a,,,,AAXX 14004 07690 02257 83406 10100 20090 39960 49991 56008 60036 76162 875// 90000 333 60037=
07690,1996-12-14 03:00:00,10,998.3,-0.8,93,9,10000,11.112,,,310,,,,2,,,,,,1,wg-a,,,,AAXX 14034 07690 12260 83106 10100 20090 39952 49983 56008 60027 70162 875// 90300=
07690,1996-12-14 06:00:00,10,998.1,-0.2,87,8,10000,14.816,,,330,9.4,11.4,,,,,30,,,1,wg-a,,,,AAXX 14064 07690 12360 83308 10100 20080 39950 49981 55002 60304 70162 875// 90600 333 10114 20094=
07690,1996-12-14 09:00:00,10,998.6,0.5,87,8,20000,14.816,,,330,,,,,,,,,,,wg-a,,,,AAXX 14094 07690 12470 /3308 10100 20080 39955 49986 53005 60006 85830 90900=
07690,1996-12-14 12:00:00,14,998.1,-0.5,77,10,20000,0,,,0,,,,,,,,,,,wg-a,,,,AAXX 14124 07690 12570 50000 10140 20100 39950 49981 58005 60006 82532 91200=
07690,1996-12-14 15:00:00,14,999,0.9,82,11,20000,14.816,,,80,,,,,,,,,,,wg-a,,,,AAXX 14154 07690 12570 70808 10140 20110 39959 49990 51009 60006 875// 91500=
07690,1996-12-14 18:00:00,11,1000.7,1.7,87,9,15000,14.816,,,330,9.3,14.3,,,,,,,,,wg-a,,,,AAXX 14184 07690 12565 73308 10110 20090 39976 40007 51017 60006 875// 91800 333 10143 20093=
07690,1996-12-14 21:00:00,11,1003.3,2.6,87,9,15000,7.408,,,350,,,,,,,,,,,wg-a,,,,AAXX 14214 07690 12465 73504 10110 20090 30002 40033 53026 60006 878// 92100=
07690,1996-12-15 00:00:00,10,1004.9,1.6,87,8,15000,11.112,,,330,,,,,,,,,,,wg-a,,,,AAXX 15004 07690 12465 /3306 10100 20080 30018 40049 51016 60006 86800 90000=
07690,1996-12-15 03:00:00,10,1006.5,1.6,82,7,15000,11.112,,,340,,,,,,,,,,,wg-a,,,,AAXX 15034 07690 12/65 /3406 10100 20070 30034 40065 51016 60006 80000 90300=
07690,1996-12-15 06:00:00,10,1008.1,1.6,76,6,25000,22.224,,,330,9.6,13,,,,,,,,,wg-a,,,,AAXX 15064 07690 02/75 13312 10100 20060 30050 40081 53016 60006 80003 90600 333 10130 20096 60004=
07690,1996-12-15 09:00:00,11,1010.7,2.6,71,6,40000,22.224,,,330,,,,,,,,,,,wg-a,,,,AAXX 15094 07690 12/82 03312 10110 20060 30076 40107 51026 60006 80000 90900=
07690,1996-12-15 12:00:00,14,1011.4,0.7,67,8,40000,11.112,,,310,,,,,,,,,,,wg-a,,,,AAXX 15124 07690 12/82 03106 10140 20080 30083 40114 50007 60006 80000 91200=
07690,1996-12-15 15:00:00,15,1011.8,0.4,72,10,500,7.408,,,220,,,,,,,,,,,wg-a,,,,AAXX 15154 07690 12/00 02204 10150 20100 30087 40118 53004 60006 80000 91500=
07690,1996-12-15 18:00:00,10,1013.3,1.4,87,8,500,18.52,,,330,9.4,16.7,,,,,,,,,wg-a,,,,AAXX 15184 07690 12/00 03310 10100 20080 30101 40133 53014 60006 80000 91800 333 10167 20094=
07690,1996-12-15 21:00:00,9,1014.2,0.9,87,7,20000,7.408,,,340,,,,,,,,,,,wg-a,,,,AAXX 15214 07690 12/70 03404 10090 20070 30110 40142 51009 60006 80000 92100=
07690,1996-12-16 00:00:00,9,1015.6,1.4,76,5,20000,22.224,,,330,,,,,,,,,,,wg-a,,,,AAXX 16004 07690 12/70 03312 10090 20050 30124 40156 51014 60006 80000 90000=
07690,1996-12-16 03:00:00,8,1015.9,0.3,76,4,20000,18.52,,,340,,,,,,,,,,,wg-a,,,,AAXX 16034 07690 12/70 03410 10080 20040 30127 40159 53003 60006 80000 90300=
07690,1996-12-16 06:00:00,7,1016.3,0.4,76,3,20000,22.224,,,330,7.4,9.8,,,,,,,,,wg-a,,,,AAXX 16064 07690 02/70 03312 10070 20030 30131 40163 53004 60006 80000 90600 333 10098 20074 60004=
07690,1996-12-16 09:00:00,9,1017.9,1.6,66,3,40000,22.224,,,330,,,,,,,,,,,wg-a,,,,AAXX 16094 07690 12482 /3312 10090 20030 30147 40179 52016 60006 81500 90900=
07690,1996-12-16 12:00:00,14,1018,0.2,67,8,40000,0,,,0,,,,,,,,,,,wg-a,,,,AAXX 16124 07690 12582 20000 10140 20080 30149 40180 50002 60006 82500 91200=
07690,1996-12-16 15:00:00,14,1017.9,-0.1,77,10,500,7.408,,,100,,,,,,,,,,,wg-a,,,,AAXX 16154 07690 12400 21004 10140 20100 30148 40179 55001 60006 82870 91500=
07690,1996-12-16 18:00:00,10,1019,1,93,9,20000,11.112,,,330,7.2,15.5,,,,,,,,,wg-a,,,,AAXX 16184 07690 12670 23306 10100 20090 30158 40190 51010 60006 81570 91800 333 10155 20072=
07690,1996-12-16 21:00:00,9,1020,1,87,7,20000,18.52,,,330,,,,,,,,,,,wg-a,,,,AAXX 16214 07690 12/70 53310 10090 20070 30168 40200 51010 60006 85030 92100=
07690,1996-12-17 00:00:00,10,1019.8,-0.2,76,6,20000,14.816,,,340,,,,,,,,,,,wg-a,,,,AAXX 17004 07690 12470 73408 10100 20060 30166 40198 58002 60006 878// 90000=
07690,1996-12-17 03:00:00,10,1019.4,-0.4,76,6,20000,18.52,,,330,,,,,,,,,,,wg-a,,,,AAXX 17034 07690 12470 73310 10100 20060 30162 40194 57004 60006 878// 90300=
07690,1996-12-17 06:00:00,10,1018.7,-0.7,76,6,20000,14.816,,,330,8.5,10.3,,,,,,,,,wg-a,,,,AAXX 17064 07690 02470 73308 10100 20060 30155 40187 57007 60006 878// 90600 333 10103 20085 60004=
07690,1996-12-17 09:00:00,11,1019.8,1.1,66,5,25000,18.52,,,330,,,,,,,,,,,wg-a,,,,AAXX 17094 07690 12575 23310 10110 20050 30166 40198 52011 60006 8183/ 90900=
07690,1996-12-17 12:00:00,14,1018.8,-0.9,67,8,25000,7.408,,,210,,,,,,,,,,,wg-a,,,,AAXX 17124 07690 12575 52104 10140 20080 30157 40188 58009 60006 81832 91200=
07690,1996-12-17 15:00:00,13,1017.7,-1.1,88,11,25000,7.408,,,210,,,,,,,,,,,wg-a,,,,AAXX 17154 07690 12475 32104 10130 20110 30146 40177 56011 60006 81832 91500=
07690,1996-12-17 18:00:00,11,1017.7,-0.1,94,10,12000,0,,,0,9.2,14.8,,,,,,,,,wg-a,,,,AAXX 17184 07690 12462 /0000 10110 20100 30145 40177 55001 60006 83500 91800 333 10148 20092=
07690,1996-12-17 21:00:00,10,1017.8,0.1,82,7,9000,14.816,,,330,,,,,,,,,,,wg-a,,,,AAXX 17214 07690 12559 23308 10100 20070 30146 40178 50001 60006 82500 92100=
07690,1996-12-18 00:00:00,9,1017.1,-0.7,76,5,10000,18.52,,,330,,,,,,,,,,,wg-a,,,,AAXX 18004 07690 12/60 03310 10090 20050 30139 40171 58007 60006 80000 90000=
07690,1996-12-18 03:00:00,8,1016.3,-0.8,76,4,12000,25.928,,,330,,,,,,,,,,,wg-a,,,,AAXX 18034 07690 12462 33314 10080 20040 30131 40163 56008 60006 83500 90300=
07690,1996-12-18 06:00:00,7,1015.4,-0.9,76,3,15000,18.52,,,340,7,11.3,,,,,,,,,wg-a,,,,AAXX 18064 07690 02765 33410 10070 20030 30122 40154 55009 60006 82530 90600 333 10113 20070 60004=
07690,1996-12-18 09:00:00,8,1015.7,0.3,71,3,20000,18.52,,,340,,,,,,,,,,,wg-a,,,,AAXX 18094 07690 12770 63410 10080 20030 30125 40157 53003 60006 86500 90900=
07690,1996-12-18 12:00:00,12,1013.9,-1.7,58,4,12000,7.408,,,320,,,,,,,,,,,wg-a,,,,AAXX 18124 07690 12762 33204 10120 20040 30108 40139 58017 60006 82550 91200=
07690,1996-12-18 15:00:00,12,1012.8,-1.1,88,10,7000,11.112,,,220,,,,,,,,,,,wg-a,,,,AAXX 18154 07690 12457 62206 10120 20100 30097 40128 56011 60006 85830 91500=
07690,1996-12-18 18:00:00,10,1013.1,0.2,87,8,7000,14.816,,,330,6.8,13.6,,,,,,,,,wg-a,,,,AAXX 18184 07690 12557 73308 10100 20080 30099 40131 53002 60006 875// 91800 333 10136 20068=
07690,1996-12-18 21:00:00,10,1013.1,0,76,6,10000,18.52,,,330,,,,,,,,,,,wg-a,,,,AAXX 18214 07690 12460 83310 10100 20060 30099 40131 50000 60006 878// 92100=
07690,1996-12-19 00:00:00,10,1012.5,-0.6,76,6,12000,18.52,,,330,,,,,,,,,,,wg-a,,,,AAXX 19004 07690 12462 83310 10100 20060 30093 40125 58006 60006 878// 90000=
07690,1996-12-19 03:00:00,10,1011.3,-1.2,76,6,12000,11.112,,,340,,,,0,,,,,,60,wg-a,,,,AAXX 19034 07690 12462 83406 10100 20060 30081 40113 56012 60007 76062 878// 90300=
07690,1996-12-19 06:00:00,10,1010.4,-0.9,76,6,12000,14.816,,,330,9.6,10.3,,,,,,,,1,wg-a,,,,AAXX 19064 07690 02462 83308 10100 20060 30072 40104 57009 60006 70162 878// 90600 333 10103 20096 60004=
07690,1996-12-19 09:00:00,10,1010.2,-0.2,87,8,8000,11.112,,,340,,,,1,,,,,,60,wg-a,,,,AAXX 19094 07690 12458 73406 10100 20080 30070 40102 58002 60017 76062 8387/ 90900=
07690,1996-12-19 12:00:00,11,1008,-2.1,87,9,15000,3.704,,,30,,,,0,,,,,,60,wg-a,,,,AAXX 19124 07690 02465 70302 10110 20090 30049 40080 58021 60016 76062 8387/ 91200 333 60007=
07690,1996-12-19 15:00:00,11,1006.1,-1.9,87,9,10000,14.816,,,10,,,,4,,,,,,60,wg-a,,,,AAXX 19154 07690 12560 80108 10110 20090 30030 40061 58019 60047 76066 8657/ 91500=
07690,1996-12-19 18:00:00,10,1005.8,-0.3,93,9,6000,18.52,,,50,9.6,11.3,,,,,,,,61,wg-a,,,,AAXX 19184 07690 02256 80510 10100 20090 30027 40058 58003 61000 76166 875// 91800 333 10113 20096 6008=
07690,1996-12-19 21:00:00,9,1004.4,-1.4,100,9,10000,11.112,,,340,,,,8,,,,,,63,wg-a,,,,AAXX 19214 07690 12460 83406 10090 20090 30013 40044 58014 60087 76366 8657/ 92100=
07690,1996-12-20 00:00:00,10,1002.5,-1.9,93,9,12000,7.408,,,90,,,,8,,,,,,61,wg-a,,,,AAXX 20004 07690 02462 80904 10100 20090 39994 40025 56019 60166 76166 8387/ 90000 333 60087=
07690,1996-12-20 03:00:00,9,1001.5,-1,100,9,12000,14.816,,,340,,,,6,,,,,,60,wg-a,,,,AAXX 20034 07690 12462 83408 10090 20090 39984 40015 58010 60067 76066 8587/ 90300=
07690,1996-12-20 06:00:00,9,1001.4,-0.1,93,8,9000,11.112,,,330,9,11.3,,,,,,,,21,wg-a,,,,AAXX 20064 07690 02459 83306 10090 20080 39983 40014 55001 61000 72162 8657/ 90600 333 10113 20090 6035=
07690,1996-12-20 09:00:00,10,1002.9,1.5,93,9,7000,14.816,,,330,,,,,,,,,,,wg-a,,,,AAXX 20094 07690 12257 83308 10100 20090 39998 40029 53015 60006 8757/ 90900=
07690,1996-12-20 12:00:00,12,1002.5,-0.4,88,10,12000,7.408,,,190,,,,,,,,,,,wg-a,,,,AAXX 20124 07690 12462 71904 10120 20100 39994 40025 58004 60006 8657/ 91200=
07690,1996-12-20 15:00:00,13,1002.7,0.2,88,11,7000,11.112,,,210,,,,,,,,,,,wg-a,,,,AAXX 20154 07690 12457 52106 10130 20110 39996 40027 53002 60006 84870 91500=
07690,1996-12-20 18:00:00,12,1003.9,1.2,94,11,10000,11.112,,,320,9.2,13.2,,,,,,,,,wg-a,,,,AAXX 20184 07690 12460 /3206 10120 20110 30008 40039 51012 60006 83870 91800 333 10132 20092=
07690,1996-12-20 21:00:00,10,1005.4,1.5,100,10,10000,14.816,,,320,,,,,,,,,,,wg-a,,,,AAXX 20214 07690 12560 /3208 10100 20100 30023 40054 53015 60006 81530 92100=
07690,1996-12-21 00:00:00,10,1005.8,0.4,87,8,10000,18.52,,,330,,,,0,,,,,,21,wg-a,,,,AAXX 21004 07690 02460 73310 10100 20080 30027 40058 50004 60006 72161 8587/ 90000 333 60007=
07690,1996-12-21 03:00:00,11,1006.2,0.4,82,8,10000,18.52,,,330,,,,,,,,,,,wg-a,,,,AAXX 21034 07690 12560 73310 10110 20080 30031 40062 53004 60006 8353/ 90300=
07690,1996-12-21 06:00:00,10,1007.2,1,82,7,10000,22.224,,,330,10,11.5,,,,,,,,,wg-a,,,,AAXX 21064 07690 02660 /3312 10100 20070 30041 40072 53010 60006 8150/ 90600 333 10115 20100 60004=
07690,1996-12-21 09:00:00,11,1009.5,2.3,76,7,500,18.52,,,330,,,,,,,,,,,wg-a,,,,AAXX 21094 07690 12400 73310 10110 20070 30064 40095 52023 60006 8387/ 90900=
07690,1996-12-21 12:00:00,11,1009.5,0,82,8,20000,14.816,,,340,,,,,,,,,,21,wg-a,,,,AAXX 21124 07690 02570 83408 10110 20080 30064 40095 50000 61000 72161 878// 91200 333 6100=
07690,1996-12-21 15:00:00,13,1008.9,-0.6,72,8,20000,14.816,,,350,,,,,,,,,,,wg-a,,,,AAXX 21154 07690 12470 83508 10130 20080 30058 40089 55006 60006 878// 91500=
07690,1996-12-21 18:00:00,14,1009.7,0.8,88,12,15000,25.928,,,80,10.1,14,,,,,,,,,wg-a,,,,AAXX 21184 07690 12465 80814 10140 20120 30066 40097 53008 60006 875// 91800 333 10140 20101=
07690,1996-12-21 21:00:00,12,1010.3,0.6,82,9,15000,18.52,,,340,,,,,,,,,,,wg-a,,,,AAXX 21214 07690 12465 73410 10120 20090 30072 40103 51006 60006 875// 92100=
07690,1996-12-22 00:00:00,11,1010.6,0.3,87,9,15000,14.816,,,330,,,,,,,,,,,wg-a,,,,AAXX 22004 07690 12665 23308 10110 20090 30075 40106 53003 60006 81501 90000=
07690,1996-12-22 03:00:00,11,1010.5,-0.1,82,8,15000,14.816,,,330,,,,,,,,,,,wg-a,,,,AAXX 22034 07690 12/65 73308 10110 20080 30074 40105 56001 60006 84032 90300=
07690,1996-12-22 06:00:00,10,1011,0.5,87,8,15000,18.52,,,330,10.2,13.8,,,,,,,,,wg-a,,,,AAXX 22064 07690 02/65 73310 10100 20080 30079 40110 53005 60006 8703/ 90600 333 10138 20102 61000=
07690,1996-12-22 09:00:00,11,1011.6,0.6,82,8,40000,14.816,,,330,,,,,,,,,,,wg-a,,,,AAXX 22094 07690 12782 73308 10110 20080 30085 40116 51006 60006 82572 90900=
07690,1996-12-22 12:00:00,16,1010.7,-0.9,72,11,40000,25.928,,,70,,,,,,,,,,,wg-a,,,,AAXX 22124 07690 12782 70714 10160 20110 30076 40107 58009 60006 81512 91200=
07690,1996-12-22 15:00:00,16,1009.5,-1.2,72,11,25000,29.632,,,70,,,,,,,,,,,wg-a,,,,AAXX 22154 07690 12575 /0716 10160 20110 30064 40095 58012 60006 82531 91500=
07690,1996-12-22 18:00:00,15,1009.5,0,77,11,20000,29.632,,,70,10.3,16.6,,,,,,,,,wg-a,,,,AAXX 22184 07690 12570 70716 10150 20110 30064 40095 50000 60006 875// 91800 333 10166 20103=
07690,1996-12-22 21:00:00,12,1009,-0.5,88,10,20000,18.52,,,70,,,,,,,,,,,wg-a,,,,AAXX 22214 07690 12570 70710 10120 20100 30059 40090 58005 60006 875// 92100=
07690,1996-12-23 00:00:00,11,1007.1,-1.9,94,10,9000,7.408,,,340,,,,2,,,,,,61,wg-a,,,,AAXX 23004 07690 02559 73404 10110 20100 30040 40071 56019 60026 76162 878// 90000 333 60027=
07690,1996-12-23 03:00:00,13,1003.7,-3.4,94,12,7000,29.632,,,100,,,,6,,,,,,61,wg-a,,,,AAXX 23034 07690 12157 81016 10130 20120 30006 40037 56034 60067 76166 878// 90300=
07690,1996-12-23 06:00:00,13,1002.1,-1.6,100,13,7000,22.224,,,110,10.8,15.1,,,,,,,,61,wg-a,,,,AAXX 23064 07690 02157 81112 10130 20130 39990 40021 56016 61000 76166 878// 90600 333 10151 20108 6014=
07690,1996-12-23 09:00:00,11,1001.7,-0.4,100,11,6000,14.816,,,330,,,,7,,,,,,21,wg-a,,,,AAXX 23094 07690 12456 83308 10110 20110 39986 40017 57004 60077 72162 875// 90900=
07690,1996-12-23 12:00:00,13,999.9,-1.8,88,11,15000,11.112,,,330,,,,,,,,,,3,wg-a,,,,AAXX 23124 07690 12365 73306 10130 20110 39968 49999 58018 60076 70362 875// 91200=
07690,1996-12-23 15:00:00,14,998.8,-1.1,94,13,7000,7.408,,,240,,,,,,,,,,,wg-a,,,,AAXX 23154 07690 12457 72404 10140 20130 39957 49988 56011 60006 878// 91500=
07690,1996-12-23 18:00:00,13,998.4,-0.4,88,11,10000,7.408,,,310,11.2,15.9,,,,,,,,,wg-a,,,,AAXX 23184 07690 12460 73104 10130 20110 39953 49984 55004 60006 86102 91800 333 10159 20112=
07690,1996-12-23 21:00:00,11,998.3,-0.1,87,9,12000,14.816,,,320,,,,,,,,,,,wg-a,,,,AAXX 23214 07690 12462 73208 10110 20090 39952 49983 56001 60006 878// 92100=
07690,1996-12-24 00:00:00,10,998.4,0.1,93,9,15000,14.816,,,330,,,,,,,,,,,wg-a,,,,AAXX 24004 07690 12465 63308 10100 20090 39953 49984 53001 60006 86501 90000=
07690,1996-12-24 03:00:00,10,997.4,-1,87,8,15000,22.224,,,330,,,,,,,,,,,wg-a,,,,AAXX 24034 07690 12565 43312 10100 20080 39943 49974 56010 60006 82534 90300=
07690,1996-12-24 06:00:00,10,997.1,-0.3,82,7,15000,18.52,,,330,9.6,12.5,,,,,,,,60,wg-a,,,,AAXX 24064 07690 02565 73310 10100 20070 39940 49971 56003 61000 76061 8157/ 90600 333 10125 20096 6007=
07690,1996-12-24 09:00:00,10,998.5,1.4,82,7,20000,14.816,,,330,,,,,,,,,,60,wg-a,,,,AAXX 24094 07690 02670 73308 10100 20070 39954 49985 53014 61000 76062 8487/ 90900 333 ////=
07690,1996-12-24 12:00:00,12,998.4,-0.1,71,7,20000,11.112,,,330,,,,,,,,,,3,wg-a,,,,AAXX 24124 07690 02470 83306 10120 20070 39953 49984 58001 61000 70362 8587/ 91200 333 ////=
07690,1996-12-24 15:00:00,11,998.1,-0.3,87,9,15000,7.408,,,330,,,,,,,,,,,wg-a,,,,AAXX 24154 07690 12465 83304 10110 20090 39950 49981 55003 60006 8787/ 91500=
07690,1996-12-24 18:00:00,13,997.4,-0.7,88,11,12000,29.632,,,70,9.8,12.9,,,,,,,,60,wg-a,,,,AAXX 24184 07690 02162 80716 10130 20110 39943 49974 58007 61000 76062 888// 91800 333 10129 20098 6000=
07690,1996-12-24 21:00:00,10,997.4,0,100,10,500,18.52,,,340,,,,13,,,,,,80,wg-a,,,,AAXX 24214 07690 12300 83410 10100 20100 39943 49974 50000 60137 78098 889// 92100=
07690,1996-12-25 00:00:00,9,999.1,1.7,100,9,7000,3.704,,,290,,,,26,,,,,,61,wg-a,,,,AAXX 25004 07690 02457 82902 10090 20090 39960 49991 50017 60396 76198 883// 90000 333 60267=
07690,1996-12-25 03:00:00,8,997.6,-1.5,87,6,15000,11.112,,,340,,,,3,,,,,,1,wg-a,,,,AAXX 25034 07690 12465 73406 10080 20060 39945 49976 56015 60037 70162 8783/ 90300=
07690,1996-12-25 06:00:00,8,997.6,-0,87,6,15000,18.52,,,330,7.7,12.6,,,,,42,,,2,wg-a,,,,AAXX 25064 07690 02465 /3310 10080 20060 39945 49976 55000 60006 70262 8683/ 90600 333 10126 20077 60424=
07690,1996-12-25 09:00:00,9,999.2,1.6,76,5,40000,18.52,,,330,,,,,,,,,,,wg-a,,,,AAXX 25094 07690 12582 53310 10090 20050 39961 49992 53016 60006 81532 90900=
07690,1996-12-25 12:00:00,13,998.9,-0.3,72,8,40000,3.704,,,230,,,,,,,,,,,wg-a,,,,AAXX 25124 07690 12582 22302 10130 20080 39958 49989 58003 60006 81832 91200=
07690,1996-12-25 15:00:00,13,999.1,0.2,77,9,40000,11.112,,,200,,,,,,,,,,,wg-a,,,,AAXX 25154 07690 12582 22006 10130 20090 39960 49991 53002 60006 81832 91500=
07690,1996-12-25 18:00:00,9,1001.1,2,87,7,20000,14.816,,,330,6.9,13.8,,,,,,,,,wg-a,,,,AAXX 25184 07690 12/70 13308 10090 20070 39980 40011 51020 60006 81030 91800 333 10138 20069=
07690,1996-12-25 21:00:00,8,1003.2,2.1,87,6,20000,18.52,,,340,,,,,,,,,,,wg-a,,,,AAXX 25214 07690 12/70 13410 10080 20060 30001 40032 53021 60006 81030 92100=
07690,1996-12-26 00:00:00,8,1005,1.7,81,5,20000,25.928,,,330,,,,,,,,,,,wg-a,,,,AAXX 26004 07690 12/70 23314 10080 20050 30018 40050 51017 60006 82030 90000=
07690,1996-12-26 03:00:00,8,1006.6,1.6,81,5,20000,22.224,,,320,,,,,,,,,,,wg-a,,,,AAXX 26034 07690 12570 73212 10080 20050 30034 40066 51016 60006 8453/ 90300=
07690,1996-12-26 06:00:00,8,1009.4,2.8,81,5,20000,18.52,,,320,7.4,8.5,,,,,,,,,wg-a,,,,AAXX 26064 07690 02570 73210 10080 20050 30062 40094 51028 60006 8553/ 90600 333 10085 20074 60004=
07690,1996-12-26 09:00:00,11,1013.1,3.7,62,4,15000,35.188,,,100,,,,,,,,,,,wg-a,,,,AAXX 26094 07690 12665 /1019 10110 20040 30099 40131 51037 60006 85530 90900=
07690,1996-12-26 12:00:00,11,1015.3,2.2,50,1,15000,31.484,,,100,,,,,,,,,,,wg-a,,,,AAXX 26124 07690 12665 /1017 10110 20010 30121 40153 51022 60006 86530 91200=
07690,1996-12-26 15:00:00,10,1018.3,3,66,4,11000,18.52,,,290,,,,,,,,,,,wg-a,,,,AAXX 26154 07690 12/61 /2910 10100 20040 30151 40183 53030 60006 91500=
07690,1996-12-26 18:00:00,9,1020.4,2.1,53,0,20000,31.484,,,90,7.3,11.7,,,,,,,,,wg-a,,,,AAXX 26184 07690 12670 20917 10090 20000 30172 40204 51021 60006 82500 91800 333 10117 20073=
07690,1996-12-26 21:00:00,8,1022.4,2,53,-1,20000,31.484,,,90,,,,,,,,,,,wg-a,,,,AAXX 26214 07690 12670 /0917 10080 21010 30192 40224 51020 60006 86500 92100=
07690,1996-12-27 00:00:00,7,1023.5,1.1,70,2,20000,11.112,,,280,,,,,,,,,,,wg-a,,,,AAXX 27004 07690 12670 /2806 10070 20020 30203 40235 51011 60006 85500 90000=
07690,1996-12-27 03:00:00,7,1024.1,0.6,70,2,20000,25.928,,,270,,,,,,,,,,,wg-a,,,,AAXX 27034 07690 12670 /2714 10070 20020 30209 40241 50006 60006 85500 90300=
07690,1996-12-27 06:00:00,7,1024.4,0.3,66,1,20000,22.224,,,270,6.6,9,,,,,,,,,wg-a,,,,AAXX 27064 07690 02570 72712 10070 20010 30212 40244 50003 60006 875// 90600 333 10090 20066 60004=
07690,1996-12-27 09:00:00,7,1024.9,0.5,70,2,15000,18.52,,,280,,,,,,,,,,,wg-a,,,,AAXX 27094 07690 12565 72810 10070 20020 30217 40249 53005 60006 875// 90900=
07690,1996-12-27 12:00:00,6,1024.3,-0.6,75,2,6000,7.408,,,70,,,,,,,,,,,wg-a,,,,AAXX 27124 07690 12556 80704 10060 20020 30211 40243 58006 60006 878// 91200=
07690,1996-12-27 15:00:00,5,1023.3,-1.1,81,2,10000,18.52,,,280,,,,,,,,,,1,wg-a,,,,AAXX 27154 07690 02460 82810 10050 20020 30200 40233 56011 61000 70162 878// 91500 333 ////=
07690,1996-12-27 18:00:00,5,1022.6,-0.6,52,-4,10000,14.816,,,150,4.4,7,,,,,,,,3,wg-a,,,,AAXX 27184 07690 12360 81508 10050 21040 30194 40226 56006 60006 70362 878// 91800 333 10070 20044=
07690,1996-12-27 21:00:00,5,1021.3,-1.4,45,-6,15000,11.112,,,160,,,,,,,,,,,wg-a,,,,AAXX 27214 07690 12565 81606 10050 21060 30180 40213 58014 60006 878// 92100=
07690,1996-12-28 00:00:00,4,1019.2,-2,48,-6,15000,0,,,0,,,,,,,,,,,wg-a,,,,AAXX 28004 07690 12665 80000 10040 21060 30160 40192 57020 60006 875// 90000=
07690,1996-12-28 03:00:00,3,1017.8,-1.5,70,-2,15000,7.408,,,100,,,,,,,,,,,wg-a,,,,AAXX 28034 07690 12465 71004 10030 21020 30145 40178 56015 60006 875// 90300=
07690,1996-12-28 06:00:00,2,1016.1,-1.7,87,0,15000,18.52,,,330,2.2,5.3,,,,,,,,70,wg-a,,,,AAXX 28064 07690 02565 83310 10020 20000 30128 40161 56017 61000 77072 878// 90600 333 10053 20022 6100=
07690,1996-12-28 09:00:00,4,1014.9,-1.1,41,-8,15000,29.632,,,90,,,,,,,,,,2,wg-a,,,,AAXX 28094 07690 02565 60916 10040 21080 30117 40149 58011 61000 70272 8487/ 90900 333 ////=
07690,1996-12-28 12:00:00,3,1013.7,-1.2,56,-5,15000,18.52,,61.116,20,,,,,,,,,,26,wg-a,,,,AAXX 28124 07690 02665 70210 10030 21050 30105 40137 58012 61000 72687 8587/ 91200 333 6100 91033=
07690,1996-12-28 15:00:00,4,1012.5,-1.2,56,-4,15000,35.188,,53.708,100,,,,,,,,,,3,wg-a,,,,AAXX 28154 07690 02465 81019 10040 21040 30093 40125 56012 61000 70372 8557/ 91500 333 //// 91029=
07690,1996-12-28 18:00:00,4,1013,0.5,44,-7,15000,35.188,,,70,2,4.2,,0,,,,,,2,wg-a,,,,AAXX 28184 07690 02565 80719 10040 21070 30098 40130 53005 60006 70272 8557/ 91800 333 10042 20020 60007=
07690,1996-12-28 21:00:00,1,1013,-0.1,86,-1,15000,14.816,,,340,,,,,,,,,,,wg-a,,,,AAXX 28214 07690 12665 53408 10010 21010 30097 40130 58001 60006 82530 92100=
07690,1996-12-29 00:00:00,0,1012.5,-0.5,86,-2,15000,18.52,,,340,,,,,,,,,,,wg-a,,,,AAXX 29004 07690 12665 43410 10000 21020 30092 40125 58005 60006 81530 90000=
07690,1996-12-29 03:00:00,0,1011.2,-1.3,80,-3,15000,18.52,,,330,,,,,,,,,,,wg-a,,,,AAXX 29034 07690 12565 53310 10000 21030 30079 40112 58013 60006 81530 90300=
07690,1996-12-29 06:00:00,0,1010.5,-0.7,80,-3,15000,7.408,,,350,-0.1,3.6,,,,,,,,,wg-a,,,,AAXX 29064 07690 02/65 63504 10000 21030 30072 40105 56007 60006 86030 90600 333 10036 21001 60004=
07690,1996-12-29 09:00:00,1,1010.1,-0.4,69,-4,20000,22.224,,,330,,,,,,,,,,,wg-a,,,,AAXX 29094 07690 12670 /3312 10010 21040 30068 40101 56004 60006 81500 90900=
07690,1996-12-29 12:00:00,5,1008.6,-1.4,56,-3,12000,18.52,,,250,,,,,,,,,,,wg-a,,,,AAXX 29124 07690 12662 /2510 10050 21030 30054 40086 58014 60006 81500 91200=
07690,1996-12-29 15:00:00,5,1008,-0.6,60,-2,20000,18.52,,,270,,,,,,,,,,,wg-a,,,,AAXX 29154 07690 12670 32710 10050 21020 30048 40080 55006 60006 83500 91500=
07690,1996-12-29 18:00:00,2,1007.4,-0.6,80,-1,18000,14.816,,,330,-0.4,6,,,,,,,,,wg-a,,,,AAXX 29184 07690 12/68 /3308 10020 21010 30042 40074 56006 60006 80000 91800 333 10060 21004=
07690,1996-12-29 21:00:00,0,1006.8,-0.7,86,-2,10000,14.816,,,320,,,,,,,,,,,wg-a,,,,AAXX 29214 07690 12/60 /3208 10000 21020 30035 40068 57007 60006 92100=
07690,1996-12-30 00:00:00,1,1004.9,-1.8,75,-3,15000,22.224,,,320,,,,,,,,,,,wg-a,,,,AAXX 30004 07690 12565 /3212 10010 21030 30017 40049 56018 60006 81500 90000=
07690,1996-12-30 03:00:00,1,1003.4,-1.5,75,-3,15000,22.224,,,330,,,,,,,,,,,wg-a,,,,AAXX 30034 07690 12565 33312 10010 21030 30002 40034 58015 60006 83500 90300=
07690,1996-12-30 06:00:00,0,1002.8,-0.6,69,-5,15000,22.224,,,330,0,1.5,,,,,,,,,wg-a,,,,AAXX 30064 07690 02565 53312 10000 21050 39996 40028 55006 60006 85500 90600 333 10015 20000 60004=
07690,1996-12-30 09:00:00,2,1002.5,-0.3,64,-4,500,25.928,,,330,,,,,,,,,,,wg-a,,,,AAXX 30094 07690 12600 63314 10020 21040 39993 40025 57003 60006 86500 90900=
07690,1996-12-30 12:00:00,5,1001,-1.5,52,-4,25000,22.224,,,340,,,,,,,,,,,wg-a,,,,AAXX 30124 07690 12575 53412 10050 21040 39978 40010 58015 60006 85500 91200=
07690,1996-12-30 15:00:00,6,1000.6,-0.4,56,-2,20000,18.52,,,330,,,,,,,,,,,wg-a,,,,AAXX 30154 07690 12470 /3310 10060 21020 39974 40006 56004 60006 86800 91500=
07690,1996-12-30 18:00:00,5,1001.4,0.8,60,-2,20000,18.52,,,330,-0.1,7.3,,,,,,,,,wg-a,,,,AAXX 30184 07690 12570 73310 10050 21020 39982 40014 53008 60006 878// 91800 333 10073 21001=
07690,1996-12-30 21:00:00,4,1002.6,1.2,65,-2,20000,18.52,,,330,,,,,,,,,,,wg-a,,,,AAXX 30214 07690 12470 73310 10040 21020 39994 40026 51012 60006 875// 92100=
07690,1996-12-31 00:00:00,3,1004.2,1.6,87,1,7000,18.52,,,330,,,,2,,,,,,61,wg-a,,,,AAXX 31004 07690 02257 83310 10030 20010 30010 40042 52016 60026 76162 878// 90000 333 60027=
07690,1996-12-31 03:00:00,3,1005,0.8,81,0,15000,14.816,,,340,,,,1,,,,,,3,wg-a,,,,AAXX 31034 07690 12565 73408 10030 20000 30018 40050 53008 60017 70362 875// 90300=
07690,1996-12-31 06:00:00,3,1006.4,1.4,75,-1,15000,22.224,,,330,2.1,4.7,,,,,3,,,2,wg-a,,,,AAXX 31064 07690 02565 73312 10030 21010 30032 40064 53014 60006 70262 875// 90600 333 10047 20021 60034=
07690,1996-12-31 09:00:00,4,1008.8,2.4,70,-1,15000,22.224,,,340,,,,,,,,,,,wg-a,,,,AAXX 31094 07690 12565 83412 10040 21010 30056 40088 53024 60006 8387/ 90900=
07690,1996-12-31 12:00:00,5,1009.2,0.4,70,0,15000,14.816,,,330,,,,,,,,,,,wg-a,,,,AAXX 31124 07690 12465 83308 10050 20000 30060 40092 50004 60006 8113/ 91200=
07690,1996-12-31 15:00:00,5,1008.4,-0.8,70,0,10000,18.52,,,20,,,,0,,,,,,60,wg-a,,,,AAXX 31154 07690 12460 80210 10050 20000 30052 40084 56008 60007 76062 8447/ 91500=
07690,1996-12-31 18:00:00,4,1007.9,-0.5,87,2,10000,18.52,,,10,3.1,5.3,,,,,,,,61,wg-a,,,,AAXX 31184 07690 02460 80110 10040 20020 30047 40079 58005 61000 76162 875// 91800 333 10053 20031 6006=
07690,1996-12-31 21:00:00,4,1005.7,-2.2,93,3,10000,14.816,,,340,,,,7,,,,,,61,wg-a,,,,AAXX 31214 07690 12560 83408 10040 20030 30025 40057 56022 60077 76166 875// 92100=
