station_id,dh_utc,temperature,pression,pression_variation_3h,humidite,point_de_rosee,visibilite,vent_moyen,vent_rafales,vent_rafales_10min,vent_direction,temperature_min,temperature_max,pluie_1h,pluie_3h,pluie_6h,pluie_12h,pluie_24h,ensoleillement,temperature_sol,temps_omm,source,radiations,neige_au_sol,nebulosite,raw_msg
07690,1997-01-01 00:00:00,4,1005,-0.7,93,3,12000,7.408,,,10,,,,13,,,,,,60,wg-a,,,,AAXX 01004 07690 02462 80104 10040 20030 30018 40050 56007 60206 76066 875// 90000 333 60137=
07690,1997-01-01 03:00:00,5,1006.8,1.8,93,4,20000,25.928,,,330,,,,,,,,,,60,wg-a,,,,AAXX 01034 07690 02470 83314 10050 20040 30036 40068 53018 61000 76062 875// 90300 333 ////=
07690,1997-01-01 06:00:00,5,1009,2.2,93,4,20000,22.224,,,330,3.5,5.7,,,,,,,,58,wg-a,,,,AAXX 01064 07690 02470 83312 10050 20040 30058 40090 53022 61000 75865 875// 90600 333 10057 20035 6027=
07690,1997-01-01 09:00:00,5,1012.1,3.1,93,4,11000,22.224,,,330,,,,,,,,,,3,wg-a,,,,AAXX 01094 07690 02461 83312 10050 20040 30089 40121 53031 61000 70365 875// 90900 333 ////=
07690,1997-01-01 12:00:00,7,1013.1,1,87,5,15000,18.52,,,340,,,,,,,,,,1,wg-a,,,,AAXX 01124 07690 02465 73410 10070 20050 30099 40131 50010 61000 70186 878// 91200 333 6100=
07690,1997-01-01 15:00:00,8,1014.2,1.1,87,6,10000,11.112,,,340,,,,,,,,,,1,wg-a,,,,AAXX 01154 07690 02560 /3406 10080 20060 30110 40142 52011 61000 70186 82500 91500 333 ////=
07690,1997-01-01 18:00:00,7,1015.2,1,81,4,20000,18.52,,,340,4.8,8.2,,,,,,,,3,wg-a,,,,AAXX 01184 07690 12570 /3410 10070 20040 30120 40152 53010 60006 70386 81530 91800 333 10082 20048=
07690,1997-01-01 21:00:00,6,1015.9,0.7,87,4,15000,11.112,,,340,,,,,,,,,,,wg-a,,,,AAXX 01214 07690 12465 /3406 10060 20040 30127 40159 53007 60006 81130 92100=
07690,1997-01-02 00:00:00,6,1015.7,-0.2,87,4,15000,14.816,,,330,,,,,,,,,,,wg-a,,,,AAXX 02004 07690 12765 73308 10060 20040 30125 40157 58002 60006 8453/ 90000=
07690,1997-01-02 03:00:00,6,1014.3,-1.4,87,4,15000,18.52,,,340,,,,,,,,,,,wg-a,,,,AAXX 02034 07690 12565 73410 10060 20040 30111 40143 58014 60006 8457/ 90300=
07690,1997-01-02 06:00:00,6,1013.8,-0.5,93,5,15000,18.52,,,340,5.6,6.5,,,,,,,,61,wg-a,,,,AAXX 02064 07690 02565 83410 10060 20050 30106 40138 56005 61000 76162 8327/ 90600 333 10065 20056 6002=
07690,1997-01-02 09:00:00,8,1011.8,-2,76,4,20000,22.224,,,330,,,,0,,,,,,1,wg-a,,,,AAXX 02094 07690 12670 73312 10080 20040 30086 40118 56020 60007 70162 8457/ 90900=
07690,1997-01-02 12:00:00,7,1009.6,-2.2,93,6,10000,22.224,,,330,,,,5,,,,,,61,wg-a,,,,AAXX 02124 07690 02560 73312 10070 20060 30064 40096 58022 60056 76162 8557/ 91200 333 60057=
07690,1997-01-02 15:00:00,8,1008.2,-1.4,93,7,4000,18.52,,,340,,,,6,,,,,,61,wg-a,,,,AAXX 02154 07690 12440 83410 10080 20070 30050 40082 55014 60067 76166 8557/ 91500=
07690,1997-01-02 18:00:00,8,1007.9,-0.3,87,6,12000,14.816,,,340,5.5,8.4,,,,,,,,60,wg-a,,,,AAXX 02184 07690 02462 83408 10080 20060 30047 40079 58003 61000 76066 875// 91800 333 10084 20055 6004=
07690,1997-01-02 21:00:00,7,1007.7,-0.2,93,6,12000,14.816,,,340,,,,2,,,,,,60,wg-a,,,,AAXX 02214 07690 12262 83408 10070 20060 30045 40077 58002 60027 76066 878// 92100=
07690,1997-01-03 00:00:00,12,1006.7,-0.9,82,9,20000,31.484,,,100,,,,,,,,,,21,wg-a,,,,AAXX 03004 07690 02570 81017 10120 20090 30036 40067 56009 60026 72162 875// 90000 333 61000=
07690,1997-01-03 03:00:00,8,1007.5,0.7,93,7,6000,18.52,,,330,,,,6,,,,,,61,wg-a,,,,AAXX 03034 07690 12256 83310 10080 20070 30043 40075 50007 60067 76162 878// 90300=
07690,1997-01-03 06:00:00,8,1007.5,-0,93,7,12000,14.816,,,330,7.1,12.5,,,,,,,,60,wg-a,,,,AAXX 03064 07690 02262 83308 10080 20070 30043 40075 55000 61000 76062 878// 90600 333 10125 20071 6025=
07690,1997-01-03 09:00:00,8,1007.6,0.1,93,7,500,7.408,,,350,,,,1,,,,,,25,wg-a,,,,AAXX 03094 07690 12200 83504 10080 20070 30044 40076 53001 60017 72586 878// 90900=
07690,1997-01-03 12:00:00,11,1005.6,-1.9,82,8,15000,22.224,,,70,,,,,,,,,,1,wg-a,,,,AAXX 03124 07690 12565 70712 10110 20080 30025 40056 58019 60016 70186 8555/ 91200=
07690,1997-01-03 15:00:00,12,1002.5,-3.1,76,8,10000,31.484,,,70,,,,1,,,,,,61,wg-a,,,,AAXX 03154 07690 12460 80717 10120 20080 39994 40025 56031 60017 76162 8587/ 91500=
07690,1997-01-03 18:00:00,12,999.9,-2.6,88,10,10000,46.3,,,80,7.5,13.1,,,,,,,,62,wg-a,,,,AAXX 03184 07690 02460 80825 10120 20100 39968 49999 56026 61000 76262 8587/ 91800 333 10131 20075 6004=
07690,1997-01-03 21:00:00,9,999.7,-0.2,93,8,10000,11.112,,,50,,,,16,,,,,,10,wg-a,,,,AAXX 03214 07690 12260 80506 10090 20080 39966 49997 58002 60167 71096 8497/ 92100=
07690,1997-01-04 00:00:00,7,999.7,0,87,5,12000,22.224,,,330,,,,0,,,,,,25,wg-a,,,,AAXX 04004 07690 02562 73312 10070 20050 39966 49997 50000 60166 72598 879// 90000 333 60007=
07690,1997-01-04 03:00:00,6,999,-0.8,87,4,15000,22.224,,,330,,,,,,,,,,17,wg-a,,,,AAXX 04034 07690 12565 53312 10060 20040 39958 49990 58008 60006 71791 84970 90300=
07690,1997-01-04 06:00:00,6,999.3,0.3,81,3,15000,11.112,,,350,5.3,12.2,,,,,23,,,13,wg-a,,,,AAXX 04064 07690 02565 73506 10060 20030 39961 49993 50003 60006 71398 8/900 90600 333 10122 20053 60234=
07690,1997-01-04 09:00:00,6,1000.6,1.3,87,4,6000,7.408,,,10,,,,2,,,,,,61,wg-a,,,,AAXX 04094 07690 12456 70104 10060 20040 39974 40006 53013 60027 76196 8596/ 90900=
07690,1997-01-04 12:00:00,7,999.5,-1.1,87,5,7000,14.816,,,40,,,,4,,,,,,61,wg-a,,,,AAXX 04124 07690 02457 80408 10070 20050 39963 49995 58011 60066 76196 8696/ 91200 333 60047=
07690,1997-01-04 15:00:00,7,998.9,-0.5,93,6,500,11.112,,,50,,,,6,,,,,,61,wg-a,,,,AAXX 04154 07690 12400 80506 10070 20060 39958 49989 55005 60067 76166 8696/ 91500=
07690,1997-01-04 18:00:00,5,1000,1,93,4,10000,7.408,,,360,5,7.7,,,,,,,,63,wg-a,,,,AAXX 04184 07690 02460 83604 10050 20040 39968 40000 53010 61000 76396 8696/ 91800 333 10077 20050 6003=
07690,1997-01-04 21:00:00,5,1001.5,1.5,87,3,15000,11.112,,,340,,,,2,,,,,,1,wg-a,,,,AAXX 04214 07690 12565 /3406 10050 20030 39983 40015 53015 60027 70196 83870 92100=
07690,1997-01-05 00:00:00,4,1002,0.5,93,3,20000,11.112,,,340,,,,,,,,,,1,wg-a,,,,AAXX 05004 07690 12570 33406 10040 20030 39988 40020 51005 60026 70196 81270 90000=
07690,1997-01-05 03:00:00,4,1003.8,1.8,93,3,20000,18.52,,,270,,,,,,,,,,,wg-a,,,,AAXX 05034 07690 12470 12710 10040 20030 30006 40038 53018 60006 81500 90300=
07690,1997-01-05 06:00:00,4,1005,1.2,87,2,20000,11.112,,,330,3.3,5,,,,,17,,,,wg-a,,,,AAXX 05064 07690 02470 43306 10040 20020 30018 40050 53012 60006 81530 90600 333 10050 20033 60174=
07690,1997-01-05 09:00:00,6,1007.9,2.9,81,3,40000,14.816,,,310,,,,0,,,,,,,wg-a,,,,AAXX 05094 07690 12582 /3108 10060 20030 30047 40079 53029 60007 81532 90900=
07690,1997-01-05 12:00:00,11,1007.3,-0.5,58,3,35000,7.408,,,250,,,,,,,,,,,wg-a,,,,AAXX 05124 07690 12581 32504 10110 20030 30042 40073 58005 60006 81232 91200=
07690,1997-01-05 15:00:00,9,1007.6,0.3,71,4,35000,14.816,,,210,,,,,,,,,,,wg-a,,,,AAXX 05154 07690 12581 32108 10090 20040 30045 40076 52003 60006 81802 91500=
07690,1997-01-05 18:00:00,6,1009.1,1.4,81,3,20000,11.112,,,340,3.7,11.2,,,,,,,,,wg-a,,,,AAXX 05184 07690 12/70 03406 10060 20030 30059 40091 53014 60006 80000 91800 333 10112 20037=
07690,1997-01-05 21:00:00,6,1010.5,1.4,70,1,20000,11.112,,,330,,,,,,,,,,,wg-a,,,,AAXX 05214 07690 12/70 13306 10060 20010 30073 40105 51014 60006 80002 92100=
07690,1997-01-06 00:00:00,5,1011.3,0.8,75,1,20000,18.52,,,320,,,,,,,,,,,wg-a,,,,AAXX 06004 07690 12570 23210 10050 20010 30081 40113 51008 60006 82540 90000=
07690,1997-01-06 03:00:00,5,1011,-0.3,75,1,20000,11.112,,,330,,,,,,,,,,,wg-a,,,,AAXX 06034 07690 12570 33306 10050 20010 30078 40110 56003 60006 81531 90300=
07690,1997-01-06 06:00:00,5,1010.8,-0.2,75,1,20000,22.224,,,340,4.8,6,,,,,,,,,wg-a,,,,AAXX 06064 07690 02570 /3412 10050 20010 30076 40108 58002 60006 81532 90600 333 10060 20048 60004=
07690,1997-01-06 09:00:00,6,1011.5,0.7,70,1,50000,18.52,,,340,,,,,,,,,,,wg-a,,,,AAXX 06094 07690 12584 73410 10060 20010 30083 40115 52007 60006 81272 90900=
07690,1997-01-06 12:00:00,8,1009.9,-1.6,66,2,500,14.816,,,330,,,,,,,,,,15,wg-a,,,,AAXX 06124 07690 12700 73308 10080 20020 30067 40099 58016 60006 71522 8457/ 91200=
07690,1997-01-06 15:00:00,10,1009,-0.9,71,5,10000,35.188,,,90,,,,,,,,,,60,wg-a,,,,AAXX 06154 07690 02560 70919 10100 20050 30058 40090 56009 61000 76062 8487/ 91500 333 ////=
07690,1997-01-06 18:00:00,8,1008.4,-0.6,76,4,15000,14.816,,,320,5.4,10.5,,0,,,,,,1,wg-a,,,,AAXX 06184 07690 02465 83208 10080 20040 30052 40084 56006 60006 70162 8257/ 91800 333 10105 20054 60007=
07690,1997-01-06 21:00:00,8,1008.9,0.5,76,4,12000,29.632,,,350,,,,1,,,,,,61,wg-a,,,,AAXX 06214 07690 12262 83516 10080 20040 30057 40089 53005 60017 76162 878// 92100=
07690,1997-01-07 00:00:00,8,1009,0.1,76,4,15000,22.224,,,10,,,,0,,,,,,61,wg-a,,,,AAXX 07004 07690 02565 80112 10080 20040 30058 40090 50001 60016 76162 8357/ 90000 333 60007=
07690,1997-01-07 03:00:00,9,1009.5,0.5,66,3,12000,25.928,,,10,,,,0,,,,,,60,wg-a,,,,AAXX 07034 07690 12562 80114 10090 20030 30063 40095 50005 60007 76062 878// 90300=
07690,1997-01-07 06:00:00,7,1009.6,0.1,81,4,12000,18.52,,,330,7,8.8,,,,,2,,,1,wg-a,,,,AAXX 07064 07690 02562 83310 10070 20040 30064 40096 53001 60006 70162 878// 90600 333 10088 20070 60024=
07690,1997-01-07 09:00:00,8,1011.5,1.9,76,4,20000,18.52,,,330,,,,,,,,,,,wg-a,,,,AAXX 07094 07690 12570 73310 10080 20040 30083 40115 53019 60006 81132 90900=
07690,1997-01-07 12:00:00,11,1011.4,0,62,4,20000,7.408,,,320,,,,,,,,,,,wg-a,,,,AAXX 07124 07690 12670 /3204 10110 20040 30083 40114 50000 60006 85502 91200=
07690,1997-01-07 15:00:00,11,1011.6,0.2,76,7,40000,11.112,,,230,,,,,,,,,,,wg-a,,,,AAXX 07154 07690 12882 72306 10110 20070 30085 40116 53002 60006 86502 91500=
07690,1997-01-07 18:00:00,8,1012.5,0.8,81,5,20000,18.52,,,330,7,13,,,,,,,,,wg-a,,,,AAXX 07184 07690 12870 /3310 10080 20050 30093 40125 53008 60006 81500 91800 333 10130 20070=
07690,1997-01-07 21:00:00,7,1013.1,0.6,81,4,20000,14.816,,,340,,,,,,,,,,,wg-a,,,,AAXX 07214 07690 12/70 03408 10070 20040 30099 40131 51006 60006 80000 92100=
07690,1997-01-08 00:00:00,6,1013.4,0.3,75,2,20000,18.52,,,330,,,,,,,,,,,wg-a,,,,AAXX 08004 07690 12/70 03310 10060 20020 30102 40134 51003 60006 80000 90000=
07690,1997-01-08 03:00:00,6,1012.5,-0.9,75,2,20000,25.928,,,330,,,,,,,,,,,wg-a,,,,AAXX 08034 07690 12/70 03314 10060 20020 30093 40125 58009 60006 80000 90300=
07690,1997-01-08 06:00:00,6,1011.3,-1.2,70,1,20000,22.224,,,340,5.4,8.3,,,,,,,,,wg-a,,,,AAXX 08064 07690 02/70 23412 10060 20010 30081 40113 58012 60006 81031 90600 333 10083 20054 60004=
07690,1997-01-08 09:00:00,6,1012.2,0.9,70,1,500,22.224,,,340,,,,,,,,,,,wg-a,,,,AAXX 08094 07690 12500 73412 10060 20010 30090 40122 51009 60006 81556 90900=
07690,1997-01-08 12:00:00,7,1010.6,-1.6,70,2,25000,18.52,,,330,,,,,,,,,,,wg-a,,,,AAXX 08124 07690 12575 73310 10070 20020 30074 40106 58016 60006 8487/ 91200=
07690,1997-01-08 15:00:00,6,1009.1,-1.5,93,5,8000,22.224,,,330,,,,3,,,,,,61,wg-a,,,,AAXX 08154 07690 12258 83312 10060 20050 30059 40091 58015 60037 76162 878// 91500=
07690,1997-01-08 18:00:00,6,1008.4,-0.7,93,5,4500,14.816,,,340,5.2,7.3,,,,,,,,61,wg-a,,,,AAXX 08184 07690 02245 83408 10060 20050 30052 40084 57007 61000 76162 888// 91800 333 10073 20052 6007=
07690,1997-01-08 21:00:00,6,1007.5,-0.9,93,5,8000,14.816,,,330,,,,8,,,,,,61,wg-a,,,,AAXX 08214 07690 12458 83308 10060 20050 30043 40075 57009 60087 76166 888// 92100=
07690,1997-01-09 00:00:00,6,1004.9,-2.6,93,5,11000,14.816,,,10,,,,7,,,,,,63,wg-a,,,,AAXX 09004 07690 02461 80108 10060 20050 30017 40049 58026 60156 76366 888// 90000 333 60077=
07690,1997-01-09 03:00:00,6,1003.6,-1.3,93,5,10000,14.816,,,330,,,,2,,,,,,61,wg-a,,,,AAXX 09034 07690 12460 83308 10060 20050 30004 40036 56013 60027 76162 888// 90300=
07690,1997-01-09 06:00:00,6,1002.5,-1.1,93,5,10000,11.112,,,340,5.4,6.1,,,,,,,,61,wg-a,,,,AAXX 09064 07690 02460 83406 10060 20050 39993 40025 56011 61000 76162 8587/ 90600 333 10061 20054 6032=
07690,1997-01-09 09:00:00,7,1002.3,-0.2,87,5,500,18.52,,,330,,,,1,,,,,,21,wg-a,,,,AAXX 09094 07690 12600 73310 10070 20050 39991 40023 55002 60017 72162 875// 90900=
07690,1997-01-09 12:00:00,9,1002,-0.2,76,5,500,14.816,,,330,,,,0,,,,,,3,wg-a,,,,AAXX 09124 07690 02400 73308 10090 20050 39989 40020 58002 60016 70362 8387/ 91200 333 60007=
07690,1997-01-09 15:00:00,10,1002.4,0.4,76,6,10000,11.112,,,320,,,,,,,,,,,wg-a,,,,AAXX 09154 07690 12460 73206 10100 20060 39993 40024 52004 60006 8187/ 91500=
07690,1997-01-09 18:00:00,8,1003.5,1.1,87,6,10000,14.816,,,330,5.9,9.6,,,,,,,,,wg-a,,,,AAXX 09184 07690 12460 73308 10080 20060 30004 40035 53011 60006 8187/ 91800 333 10096 20059=
07690,1997-01-09 21:00:00,8,1005.1,1.5,81,5,10000,18.52,,,330,,,,,,,,,,,wg-a,,,,AAXX 09214 07690 12/60 33310 10080 20050 30019 40051 51015 60006 8307/ 92100=
07690,1997-01-10 00:00:00,7,1005.5,0.4,81,4,20000,18.52,,,330,,,,,,,,,,,wg-a,,,,AAXX 10004 07690 12/70 33310 10070 20040 30023 40055 50004 60006 8303/ 90000=
07690,1997-01-10 03:00:00,6,1004.9,-0.6,81,3,20000,18.52,,,330,,,,,,,,,,,wg-a,,,,AAXX 10034 07690 12/70 73310 10060 20030 30017 40049 58006 60006 87030 90300=
07690,1997-01-10 06:00:00,7,1004.7,-0.2,76,3,20000,18.52,,,340,6.2,8.2,,,,,1,,,,wg-a,,,,AAXX 10064 07690 02470 73410 10070 20030 30015 40047 55002 60006 81530 90600 333 10082 20062 60014=
07690,1997-01-10 09:00:00,7,1006.1,1.4,81,4,12000,14.816,,,320,,,,1,,,,,,60,wg-a,,,,AAXX 10094 07690 12562 83208 10070 20040 30029 40061 53014 60017 76062 8787/ 90900=
07690,1997-01-10 12:00:00,10,1006.8,0.8,71,5,22000,11.112,,,330,,,,,,,,,,1,wg-a,,,,AAXX 10124 07690 02472 73306 10100 20050 30037 40068 50008 60016 70162 8487/ 91200 333 61000=
07690,1997-01-10 15:00:00,12,1007.7,0.9,71,7,25000,11.112,,,250,,,,,,,,,,,wg-a,,,,AAXX 10154 07690 12675 /2506 10120 20070 30046 40077 53009 60006 81532 91500=
07690,1997-01-10 18:00:00,8,1010.2,2.4,87,6,15000,14.816,,,320,6.3,13,,,,,,,,,wg-a,,,,AAXX 10184 07690 12/65 03208 10080 20060 30070 40102 53024 60006 80000 91800 333 10130 20063=
07690,1997-01-10 21:00:00,6,1012.2,2,87,4,15000,18.52,,,330,,,,,,,,,,,wg-a,,,,AAXX 10214 07690 12/65 03310 10060 20040 30090 40122 51020 60006 80000 92100=
07690,1997-01-11 00:00:00,7,1013.2,1,70,2,15000,25.928,,,330,,,,,,,,,,,wg-a,,,,AAXX 11004 07690 12/65 03314 10070 20020 30100 40132 51010 60006 80000 90000=
07690,1997-01-11 03:00:00,7,1013.8,0.6,66,1,15000,29.632,,,330,,,,,,,,,,,wg-a,,,,AAXX 11034 07690 12/65 03316 10070 20010 30106 40138 51006 60006 80000 90300=
07690,1997-01-11 06:00:00,6,1014.8,1,65,0,15000,22.224,,,330,5.8,7.7,,,,,1,,,,wg-a,,,,AAXX 11064 07690 02/65 03312 10060 20000 30116 40148 53010 60006 80000 90600 333 10077 20058 60014=
07690,1997-01-11 09:00:00,8,1016.3,1.5,57,0,50000,29.632,,,330,,,,,,,,,,,wg-a,,,,AAXX 11094 07690 12/84 /3316 10080 20000 30131 40163 51015 60006 80001 90900=
07690,1997-01-11 12:00:00,13,1016.2,0,44,1,50000,18.52,,,330,,,,,,,,,,,wg-a,,,,AAXX 11124 07690 12/84 13310 10130 20010 30131 40162 50000 60006 80001 91200=
07690,1997-01-11 15:00:00,14,1016,-0.2,58,6,50000,7.408,,,210,,,,,,,,,,,wg-a,,,,AAXX 11154 07690 12/84 12104 10140 20060 30129 40160 55002 60006 81040 91500=
07690,1997-01-11 18:00:00,9,1017.6,1.5,61,2,20000,18.52,,,330,6.1,14.6,,,,,,,,,wg-a,,,,AAXX 11184 07690 12/70 03310 10090 20020 30144 40176 51015 60006 80000 91800 333 10146 20061=
07690,1997-01-11 21:00:00,8,1018.9,1.3,57,0,20000,14.816,,,330,,,,,,,,,,,wg-a,,,,AAXX 11214 07690 12/70 03308 10080 20000 30157 40189 52013 60006 80000 92100=
07690,1997-01-12 00:00:00,7,1019.5,0.6,57,-1,20000,22.224,,,340,,,,,,,,,,,wg-a,,,,AAXX 12004 07690 12/70 03412 10070 21010 30163 40195 50006 60006 80000 90000=
07690,1997-01-12 03:00:00,6,1020,0.5,52,-3,20000,25.928,,,330,,,,,,,,,,,wg-a,,,,AAXX 12034 07690 12/70 03314 10060 21030 30168 40200 53005 60006 80000 90300=
07690,1997-01-12 06:00:00,6,1020.7,0.7,56,-2,25000,25.928,,,340,6.1,8.8,,,,,,,,,wg-a,,,,AAXX 12064 07690 02/75 03414 10060 21020 30175 40207 53007 60006 80000 90600 333 10088 20061 60004=
07690,1997-01-12 09:00:00,8,1021.8,1.1,42,-4,50000,31.484,,,330,,,,,,,,,,,wg-a,,,,AAXX 12094 07690 12/84 03317 10080 21040 30186 40218 52011 60006 80000 90900=
07690,1997-01-12 12:00:00,13,1021.5,-0.3,35,-2,10000,18.52,,,340,,,,,,,,,,,wg-a,,,,AAXX 12124 07690 12/60 /3410 10130 21020 30183 40215 58003 60006 91200=
07690,1997-01-12 15:00:00,14,1021.5,0.1,55,5,40000,7.408,,,250,,,,,,,,,,,wg-a,,,,AAXX 12154 07690 12/82 02504 10140 20050 30184 40215 53001 60006 80000 91500=
07690,1997-01-12 18:00:00,8,1022.2,0.6,57,0,20000,22.224,,,330,6,15.2,,,,,,,,,wg-a,,,,AAXX 12184 07690 12/70 03312 10080 20000 30190 40222 52006 60006 80000 91800 333 10152 20060=
07690,1997-01-12 21:00:00,8,1022.7,0.5,49,-2,25000,25.928,,,330,,,,,,,,,,,wg-a,,,,AAXX 12214 07690 12/75 03314 10080 21020 30195 40227 53005 60006 80000 92100=
07690,1997-01-13 00:00:00,8,1022.7,0,46,-3,25000,25.928,,,340,,,,,,,,,,,wg-a,,,,AAXX 13004 07690 12/75 03414 10080 21030 30195 40227 50000 60006 80000 90000=
07690,1997-01-13 03:00:00,7,1022.8,0.1,45,-4,25000,29.632,,,330,,,,,,,,,,,wg-a,,,,AAXX 13034 07690 12/75 03316 10070 21040 30196 40228 51001 60006 80000 90300=
07690,1997-01-13 06:00:00,6,1022.9,0.1,49,-4,25000,29.632,,,330,6.2,8.5,,,,,,,,,wg-a,,,,AAXX 13064 07690 02/75 03316 10060 21040 30197 40229 51001 60006 80000 90600 333 10085 20062 60004=
07690,1997-01-13 09:00:00,8,1024.1,1.2,39,-5,50000,22.224,,,330,,,,,,,,,,,wg-a,,,,AAXX 13094 07690 12/84 03312 10080 21050 30209 40241 51012 60006 80000 90900=
07690,1997-01-13 12:00:00,13,1023.6,-0.5,30,-4,50000,11.112,,,340,,,,,,,,,,,wg-a,,,,AAXX 13124 07690 12/84 03406 10130 21040 30204 40236 58005 60006 80000 91200=
07690,1997-01-13 15:00:00,13,1023.2,-0.4,58,5,50000,7.408,,,240,,,,,,,,,,,wg-a,,,,AAXX 13154 07690 12/84 02404 10130 20050 30200 40232 55004 60006 80000 91500=
07690,1997-01-13 18:00:00,9,1023.4,0.2,53,0,500,22.224,,,340,6,14.9,,,,,,,,,wg-a,,,,AAXX 13184 07690 12/00 03412 10090 20000 30202 40234 53002 60006 80000 91800 333 10149 20060=
07690,1997-01-13 21:00:00,8,1023.7,0.3,49,-2,20000,25.928,,,330,,,,,,,,,,,wg-a,,,,AAXX 13214 07690 12/70 03314 10080 21020 30205 40237 53003 60006 80000 92100=
07690,1997-01-14 00:00:00,8,1023.6,-0.1,46,-3,25000,22.224,,,340,,,,,,,,,,,wg-a,,,,AAXX 14004 07690 12/75 03412 10080 21030 30204 40236 58001 60006 80000 90000=
07690,1997-01-14 03:00:00,7,1023.5,-0.1,49,-3,500,22.224,,,340,,,,,,,,,,,wg-a,,,,AAXX 14034 07690 12/00 03412 10070 21030 30203 40235 58001 60006 80000 90300=
07690,1997-01-14 06:00:00,7,1023.4,-0.1,49,-3,500,18.52,,,350,6.4,8.6,,,,,,,,,wg-a,,,,AAXX 14064 07690 02/00 03510 10070 21030 30202 40234 56001 60006 80000 90600 333 10086 20064 60004=
07690,1997-01-14 09:00:00,8,1024.5,1.1,49,-2,60000,25.928,,,330,,,,,,,,,,,wg-a,,,,AAXX 14094 07690 12/86 03314 10080 21020 30213 40245 51011 60006 80000 90900=
07690,1997-01-14 12:00:00,15,1023.9,-0.5,55,6,50000,7.408,,,110,,,,,,,,,,,wg-a,,,,AAXX 14124 07690 12/84 01104 10150 20060 30208 40239 58005 60006 80000 91200=
07690,1997-01-14 15:00:00,14,1023.9,-0,63,7,35000,3.704,,,190,,,,,,,,,,,wg-a,,,,AAXX 14154 07690 12/81 01902 10140 20070 30208 40239 55000 60006 80000 91500=
07690,1997-01-14 18:00:00,8,1025,1,76,4,18000,22.224,,,330,6.4,15,,,,,,,,,wg-a,,,,AAXX 14184 07690 12/68 03312 10080 20040 30218 40250 53010 60006 80000 91800 333 10150 20064=
07690,1997-01-15 00:00:00,8,1025.7,0.5,57,0,20000,25.928,,,340,,,,,,,,,,,wg-a,,,,AAXX 15004 07690 12/70 03414 10080 20000 30225 40257 50005 60006 80000 90000=
07690,1997-01-15 03:00:00,7,1025.8,0.1,53,-2,20000,22.224,,,340,,,,,,,,,,,wg-a,,,,AAXX 15034 07690 12/70 03412 10070 21020 30226 40258 53001 60006 80000 90300=
07690,1997-01-15 06:00:00,7,1025.8,-0,57,-1,20000,18.52,,,340,6.7,8.4,,,,,,,,,wg-a,,,,AAXX 15064 07690 02/70 03410 10070 21010 30226 40258 55000 60006 80000 90600 333 10084 20067 60004=
07690,1997-01-15 09:00:00,8,1027,1.2,49,-2,50000,22.224,,,340,,,,,,,,,,,wg-a,,,,AAXX 15094 07690 12/84 13412 10080 21020 30238 40270 53012 60006 80001 90900=
07690,1997-01-15 12:00:00,13,1026.5,-0.5,38,-1,500,0,,,0,,,,,,,,,,,wg-a,,,,AAXX 15124 07690 12/00 10000 10130 21010 30233 40265 58005 60006 80001 91200=
07690,1997-01-15 15:00:00,15,1025.7,-0.7,59,7,35000,0,,,0,,,,,,,,,,,wg-a,,,,AAXX 15154 07690 12/81 00000 10150 20070 30226 40257 56007 60006 80000 91500=
07690,1997-01-15 18:00:00,8,1026.1,0.3,71,3,12000,14.816,,,340,6.5,15.9,,,,,,,,,wg-a,,,,AAXX 15184 07690 12/62 03408 10080 20030 30229 40261 53003 60006 80000 91800 333 10159 20065=
07690,1997-01-15 21:00:00,8,1026.1,0,61,1,15000,25.928,,,330,,,,,,,,,,,wg-a,,,,AAXX 15214 07690 12/65 03314 10080 20010 30229 40261 50000 60006 80000 92100=
07690,1997-01-16 00:00:00,7,1025.9,-0.2,61,0,20000,22.224,,,340,,,,,,,,,,,wg-a,,,,AAXX 16004 07690 12/70 03412 10070 20000 30227 40259 58002 60006 80000 90000=
07690,1997-01-16 03:00:00,7,1025.2,-0.7,57,-1,20000,22.224,,,340,,,,,,,,,,,wg-a,,,,AAXX 16034 07690 12/70 03412 10070 21010 30220 40252 56007 60006 80000 90300=
07690,1997-01-16 06:00:00,7,1024.5,-0.7,53,-2,20000,25.928,,,340,6.4,8.4,,,,,,,,,wg-a,,,,AAXX 16064 07690 02/70 03414 10070 21020 30213 40245 56007 60006 80000 90600 333 10084 20064 60004=
07690,1997-01-16 09:00:00,8,1025.5,1,53,-1,50000,18.52,,,330,,,,,,,,,,,wg-a,,,,AAXX 16094 07690 12/84 03310 10080 21010 30223 40255 51010 60006 80000 90900=
07690,1997-01-16 12:00:00,14,1024.5,-0.9,58,6,50000,7.408,,,100,,,,,,,,,,,wg-a,,,,AAXX 16124 07690 12/84 01004 10140 20060 30214 40245 58009 60006 80000 91200=
07690,1997-01-16 15:00:00,14,1023.6,-0.9,72,9,50000,7.408,,,130,,,,,,,,,,,wg-a,,,,AAXX 16154 07690 12/84 01304 10140 20090 30205 40236 56009 60006 80000 91500=
07690,1997-01-16 18:00:00,8,1024.2,0.5,87,6,20000,14.816,,,330,6.4,14.4,,,,,,,,,wg-a,,,,AAXX 16184 07690 12470 23308 10080 20060 30210 40242 53005 60006 82500 91800 333 10144 20064=
07690,1997-01-16 21:00:00,6,1024.5,0.3,81,3,12000,18.52,,,330,,,,,,,,,,,wg-a,,,,AAXX 16214 07690 12/62 03310 10060 20030 30213 40245 51003 60006 80000 92100=
07690,1997-01-17 00:00:00,6,1024.2,-0.3,65,0,12000,22.224,,,330,,,,,,,,,,,wg-a,,,,AAXX 17004 07690 12/62 03312 10060 20000 30210 40242 58003 60006 80000 90000=
07690,1997-01-17 03:00:00,6,1023.6,-0.6,61,-1,12000,25.928,,,330,,,,,,,,,,,wg-a,,,,AAXX 17034 07690 12462 23314 10060 21010 30204 40236 58006 60006 82500 90300=
07690,1997-01-17 06:00:00,5,1023.5,-0.2,65,-1,12000,25.928,,,330,4.9,8.1,,,,,,,,,wg-a,,,,AAXX 17064 07690 02562 23314 10050 21010 30202 40235 58002 60006 82500 90600 333 10081 20049 60004=
07690,1997-01-17 09:00:00,6,1023.9,0.5,61,-1,25000,25.928,,,330,,,,,,,,,,,wg-a,,,,AAXX 17094 07690 12575 43314 10060 21010 30207 40239 52005 60006 84500 90900=
07690,1997-01-17 12:00:00,13,1023,-0.9,72,8,25000,7.408,,,90,,,,,,,,,,,wg-a,,,,AAXX 17124 07690 12575 /0904 10130 20080 30198 40230 58009 60006 81502 91200=
07690,1997-01-17 15:00:00,13,1021.9,-1,77,9,25000,18.52,,,90,,,,,,,,,,,wg-a,,,,AAXX 17154 07690 12475 /0910 10130 20090 30188 40219 55010 60006 81502 91500=
07690,1997-01-17 18:00:00,10,1022.2,0.2,87,8,15000,11.112,,,20,4.7,13.6,,,,,,,,,wg-a,,,,AAXX 17184 07690 12465 70206 10100 20080 30190 40222 53002 60006 87500 91800 333 10136 20047=
07690,1997-01-17 21:00:00,9,1022.6,0.4,76,5,10000,14.816,,,330,,,,,,,,,,,wg-a,,,,AAXX 17214 07690 12460 73308 10090 20050 30194 40226 50004 60006 8553/ 92100=
07690,1997-01-18 00:00:00,8,1022.3,-0.3,76,4,12000,18.52,,,330,,,,,,,,,,,wg-a,,,,AAXX 18004 07690 12462 23310 10080 20040 30191 40223 56003 60006 81530 90000=
07690,1997-01-18 03:00:00,7,1022,-0.3,70,2,15000,22.224,,,340,,,,,,,,,,,wg-a,,,,AAXX 18034 07690 12465 43412 10070 20020 30188 40220 56003 60006 81530 90300=
07690,1997-01-18 06:00:00,6,1021.8,-0.2,75,2,15000,18.52,,,340,6.2,10,,,,,,,,,wg-a,,,,AAXX 18064 07690 02465 23410 10060 20020 30186 40218 55002 60006 81530 90600 333 10100 20062 60004=
07690,1997-01-18 09:00:00,8,1022.6,0.8,66,2,25000,18.52,,,340,,,,,,,,,,,wg-a,,,,AAXX 18094 07690 12575 33410 10080 20020 30194 40226 51008 60006 81501 90900=
07690,1997-01-18 12:00:00,13,1021.8,-0.8,77,9,10000,14.816,,,80,,,,,,,,,,,wg-a,,,,AAXX 18124 07690 12460 /0808 10130 20090 30186 40218 58008 60006 81530 91200=
07690,1997-01-18 15:00:00,12,1020.6,-1.2,82,9,20000,22.224,,,80,,,,,,,,,,,wg-a,,,,AAXX 18154 07690 12570 70812 10120 20090 30174 40206 56012 60006 8487/ 91500=
07690,1997-01-18 18:00:00,12,1020.5,-0.1,76,8,15000,22.224,,,80,6,13.1,,,,,,,,,wg-a,,,,AAXX 18184 07690 12765 /0812 10120 20080 30173 40205 58001 60006 8353/ 91800 333 10131 20060=
07690,1997-01-18 21:00:00,9,1020.8,0.3,87,7,9000,11.112,,,320,,,,,,,,,,,wg-a,,,,AAXX 18214 07690 12559 73206 10090 20070 30176 40208 51003 60006 8353/ 92100=
07690,1997-01-19 00:00:00,9,1019.8,-1,76,5,12000,11.112,,,330,,,,,,,,,,,wg-a,,,,AAXX 19004 07690 12562 73306 10090 20050 30166 40198 58010 60006 8557/ 90000=
07690,1997-01-19 03:00:00,8,1018.5,-1.3,93,7,8000,18.52,,,330,,,,2,,,,,,61,wg-a,,,,AAXX 19034 07690 12458 83310 10080 20070 30153 40185 58013 60027 76162 878// 90300=
07690,1997-01-19 06:00:00,8,1018.1,-0.4,93,7,4500,18.52,,,10,7.5,12,,,,,,,,10,wg-a,,,,AAXX 19064 07690 02245 80110 10080 20070 30149 40181 57004 61000 71062 878// 90600 333 10120 20075 6020=
07690,1997-01-19 09:00:00,8,1019,0.9,93,7,6000,18.52,,,330,,,,5,,,,,,61,wg-a,,,,AAXX 19094 07690 12256 83310 10080 20070 30158 40190 53009 60057 76166 8587/ 90900=
07690,1997-01-19 12:00:00,8,1018.2,-0.8,100,8,500,14.816,,,330,,,,3,,,,,,61,wg-a,,,,AAXX 19124 07690 02300 83308 10080 20080 30150 40182 58008 60096 76166 8582/ 91200 333 60037=
07690,1997-01-19 15:00:00,9,1017.4,-0.8,93,8,6000,11.112,,,340,,,,5,,,,,,61,wg-a,,,,AAXX 19154 07690 12256 83406 10090 20080 30142 40174 56008 60057 76166 8587/ 91500=
07690,1997-01-19 18:00:00,8,1017.4,0,100,8,9000,11.112,,,350,7.7,8.6,,,,,,,,61,wg-a,,,,AAXX 19184 07690 02259 83506 10080 20080 30142 40174 50000 61000 76166 8587/ 91800 333 10086 20077 6005=
07690,1997-01-19 21:00:00,8,1017.8,0.4,100,8,3000,11.112,,,340,,,,2,,,,,,10,wg-a,,,,AAXX 19214 07690 12130 83406 10080 20080 30146 40178 52004 60027 71065 8777/ 92100=
07690,1997-01-20 00:00:00,8,1017.2,-0.6,93,7,8000,11.112,,,340,,,,4,,,,,,51,wg-a,,,,AAXX 20004 07690 02258 83406 10080 20070 30140 40172 58006 60056 75165 8772/ 90000 333 60047=
07690,1997-01-20 03:00:00,8,1016,-1.2,100,8,4500,11.112,,,330,,,,5,,,,,,51,wg-a,,,,AAXX 20034 07690 12145 83306 10080 20080 30128 40160 56012 60057 75166 887// 90300=
07690,1997-01-20 06:00:00,8,1016.3,0.3,100,8,6000,18.52,,,340,7.7,8.4,,,,,,,,61,wg-a,,,,AAXX 20064 07690 02156 83410 10080 20080 30131 40163 52003 61000 76166 885// 90600 333 10084 20077 6037=
07690,1997-01-20 09:00:00,8,1017.5,1.2,93,7,15000,14.816,,,330,,,,3,,,,,,21,wg-a,,,,AAXX 20094 07690 12565 83308 10080 20070 30143 40175 53012 60037 72162 8/57/ 90900=
07690,1997-01-20 12:00:00,11,1017.4,-0.1,76,7,25000,11.112,,,10,,,,,,,,,,1,wg-a,,,,AAXX 20124 07690 12775 80106 10110 20070 30142 40174 58001 60036 70162 8357/ 91200=
07690,1997-01-20 15:00:00,13,1017.9,0.6,82,10,25000,7.408,,,70,,,,,,,,,,,wg-a,,,,AAXX 20154 07690 12675 80704 10130 20100 30148 40179 53006 60006 82572 91500=
07690,1997-01-20 18:00:00,10,1019.4,1.4,87,8,20000,11.112,,,330,7.7,12.8,,,,,,,,61,wg-a,,,,AAXX 20184 07690 02770 83306 10100 20080 30162 40194 53014 61000 76162 8257/ 91800 333 10128 20077 6000=
07690,1997-01-20 21:00:00,10,1020.4,1,87,8,15000,14.816,,,340,,,,0,,,,,,1,wg-a,,,,AAXX 20214 07690 12/65 53408 10100 20080 30172 40204 52010 60007 70162 85030 92100=
07690,1997-01-21 00:00:00,10,1020.8,0.4,82,7,15000,14.816,,,350,,,,,,,,,,1,wg-a,,,,AAXX 21004 07690 12/65 33508 10100 20070 30176 40208 50004 60006 70161 83030 90000=
07690,1997-01-21 03:00:00,10,1020.9,0.1,82,7,15000,14.816,,,340,,,,,,,,,,,wg-a,,,,AAXX 21034 07690 12/65 /3408 10100 20070 30177 40209 50001 60006 86070 90300=
07690,1997-01-21 06:00:00,10,1021.9,1,82,7,20000,11.112,,,330,9.7,10.6,,,,,4,,,,wg-a,,,,AAXX 21064 07690 02870 /3306 10100 20070 30187 40219 51010 60006 84030 90600 333 10106 20097 60044=
07690,1997-01-21 09:00:00,12,1023.8,1.9,76,8,500,7.408,,,10,,,,,,,,,,,wg-a,,,,AAXX 21094 07690 12700 /0104 10120 20080 30206 40238 51019 60006 81201 90900=
07690,1997-01-21 12:00:00,16,1024,0.3,72,11,18000,29.632,,,80,,,,,,,,,,,wg-a,,,,AAXX 21124 07690 12568 70816 10160 20110 30209 40240 50003 60006 81132 91200=
07690,1997-01-21 15:00:00,15,1024.3,0.3,77,11,15000,35.188,,,80,,,,,,,,,,,wg-a,,,,AAXX 21154 07690 12565 20819 10150 20110 30212 40243 53003 60006 81102 91500=
07690,1997-01-21 18:00:00,14,1025.4,1.1,82,11,15000,31.484,,,80,9.8,15.8,,,,,,,,,wg-a,,,,AAXX 21184 07690 12565 /0817 10140 20110 30223 40254 53011 60006 81502 91800 333 10158 20098=
07690,1997-01-21 21:00:00,14,1026.8,1.3,72,9,15000,29.632,,,60,,,,,,,,,,,wg-a,,,,AAXX 21214 07690 12/65 60616 10140 20090 30236 40268 53013 60006 80001 92100=
07690,1997-01-22 00:00:00,10,1027.2,0.4,87,8,20000,18.52,,,330,,,,,,,,,,,wg-a,,,,AAXX 22004 07690 12/70 63310 10100 20080 30240 40272 51004 60006 83051 90000=
07690,1997-01-22 03:00:00,10,1027,-0.2,82,7,20000,18.52,,,30,,,,,,,,,,,wg-a,,,,AAXX 22034 07690 12/70 70310 10100 20070 30238 40270 58002 60006 8707/ 90300=
07690,1997-01-22 06:00:00,10,1027.3,0.3,82,7,20000,11.112,,,340,10,14.8,,,,,,,,,wg-a,,,,AAXX 22064 07690 02/70 73406 10100 20070 30241 40273 53003 60006 8707/ 90600 333 10148 20100 60004=
07690,1997-01-22 09:00:00,12,1028.7,1.4,71,7,500,14.816,,,350,,,,,,,,,,,wg-a,,,,AAXX 22094 07690 12700 73508 10120 20070 30255 40287 51014 60006 8357/ 90900=
07690,1997-01-22 12:00:00,16,1028.2,-0.4,63,9,500,22.224,,,70,,,,,,,,,,,wg-a,,,,AAXX 22124 07690 12/00 70712 10160 20090 30251 40282 58004 60006 86072 91200=
07690,1997-01-22 15:00:00,14,1027.6,-0.7,63,7,500,11.112,,,50,,,,,,,,,,,wg-a,,,,AAXX 22154 07690 12800 70506 10140 20070 30244 40276 55007 60006 8157/ 91500=
07690,1997-01-22 18:00:00,12,1026.8,-0.8,76,8,20000,14.816,,,340,10.3,16,,,,,,,,,wg-a,,,,AAXX 22184 07690 12/70 /3408 10120 20080 30236 40268 55008 60006 86070 91800 333 10160 20103=
07690,1997-01-22 21:00:00,12,1026.7,-0.1,76,8,20000,14.816,,,330,,,,,,,,,,,wg-a,,,,AAXX 22214 07690 12570 73308 10120 20080 30235 40267 56001 60006 81531 92100=
07690,1997-01-23 03:00:00,10,1026,-0.2,82,7,20000,22.224,,,60,,,,,,,,,,,wg-a,,,,AAXX 23034 07690 12/70 10612 10100 20070 30228 40260 58002 60006 80002 90300=
07690,1997-01-23 06:00:00,10,1026.1,0.1,76,6,20000,11.112,,,350,9.4,12.4,,,,,,,,,wg-a,,,,AAXX 23064 07690 02/70 53506 10100 20060 30229 40261 50001 60006 83052 90600 333 10124 20094 60004=
07690,1997-01-23 09:00:00,11,1027.4,1.3,71,6,500,14.816,,,350,,,,,,,,,,,wg-a,,,,AAXX 23094 07690 12700 73508 10110 20060 30242 40274 53013 60006 8357/ 90900=
07690,1997-01-23 12:00:00,16,1026.5,-0.8,63,9,20000,35.188,,55.56,80,,,,,,,,,,,wg-a,,,,AAXX 23124 07690 12/70 60819 10160 20090 30234 40265 58008 60006 81032 91200 333 91030=
07690,1997-01-23 18:00:00,15,1025.4,0.8,63,8,20000,35.188,,,100,9.7,16.7,,,,,,,,,wg-a,,,,AAXX 23184 07690 12/70 31019 10150 20080 30223 40254 53008 60006 81032 91800 333 10167 20097=
07690,1997-01-23 21:00:00,14,1026.4,0.9,77,10,20000,22.224,,,80,,,,,,,,,,,wg-a,,,,AAXX 23214 07690 12/70 60812 10140 20100 30232 40264 53009 60006 84032 92100=
07690,1997-01-24 00:00:00,14,1026.1,-0.2,72,9,20000,25.928,,,70,,,,,,,,,,,wg-a,,,,AAXX 24004 07690 12/70 80714 10140 20090 30230 40261 57002 60006 80007 90000=
07690,1997-01-24 03:00:00,10,1025.8,-0.4,71,5,20000,18.52,,,330,,,,,,,,,,,wg-a,,,,AAXX 24034 07690 12/70 83310 10100 20050 30226 40258 58004 60006 81037 90300=
07690,1997-01-24 06:00:00,10,1026,0.2,71,5,20000,22.224,,,330,9.7,15.3,,,,,,,,,wg-a,,,,AAXX 24064 07690 02/70 73312 10100 20050 30228 40260 52002 60006 83032 90600 333 10153 20097 60004=
07690,1997-01-24 09:00:00,11,1026.9,0.9,66,5,40000,14.816,,,330,,,,,,,,,,,wg-a,,,,AAXX 24094 07690 12/82 23308 10110 20050 30237 40269 51009 60006 82071 90900=
07690,1997-01-24 12:00:00,16,1027.1,0.3,63,9,35000,7.408,,,110,,,,,,,,,,,wg-a,,,,AAXX 24124 07690 12681 21104 10160 20090 30240 40271 50003 60006 81131 91200=
07690,1997-01-24 15:00:00,15,1026.6,-0.5,72,10,20000,11.112,,,80,,,,,,,,,,,wg-a,,,,AAXX 24154 07690 12570 40806 10150 20100 30235 40266 55005 60006 81131 91500=
07690,1997-01-24 18:00:00,13,1027.3,0.6,88,11,12000,11.112,,,90,9.8,16.5,,,,,,,,,wg-a,,,,AAXX 24184 07690 12562 40906 10130 20110 30241 40273 53006 60006 81531 91800 333 10165 20098=
07690,1997-01-25 00:00:00,11,1026.6,-1.3,71,6,10000,18.52,,,340,,,,,,,,,,,wg-a,,,,AAXX 25004 07690 12/60 73410 10110 20060 30234 40266 58013 60006 8703/ 90000=
07690,1997-01-25 03:00:00,11,1026.5,-0.1,71,6,10000,22.224,,,330,,,,,,,,,,,wg-a,,,,AAXX 25034 07690 12560 73312 10110 20060 30233 40265 58001 60006 83302 90300=
07690,1997-01-25 06:00:00,10,1026.2,-0.3,76,6,15000,22.224,,,330,10.3,12.9,,,,,,,,,wg-a,,,,AAXX 25064 07690 02665 /3312 10100 20060 30230 40262 58003 60006 86500 90600 333 10129 20103 60004=
07690,1997-01-25 09:00:00,11,1027,0.8,66,5,500,18.52,,,340,,,,,,,,,,,wg-a,,,,AAXX 25094 07690 12600 /3410 10110 20050 30238 40270 53008 60006 85502 90900=
07690,1997-01-25 12:00:00,17,1025.8,-1.1,48,6,20000,11.112,,,120,,,,,,,,,,,wg-a,,,,AAXX 25124 07690 12670 /1206 10170 20060 30227 40258 58011 60006 81202 91200=
07690,1997-01-25 15:00:00,15,1024.2,-1.6,59,7,20000,3.704,,,230,,,,,,,,,,,wg-a,,,,AAXX 25154 07690 12670 /2302 10150 20070 30211 40242 57016 60006 81202 91500=
07690,1997-01-25 18:00:00,11,1024.9,0.6,76,7,10000,7.408,,,320,10.2,16.7,,,,,,,,,wg-a,,,,AAXX 25184 07690 12660 /3204 10110 20070 30217 40249 51006 60006 81502 91800 333 10167 20102=
07690,1997-01-25 21:00:00,10,1024.5,-0.4,82,7,12000,11.112,,,340,,,,,,,,,,,wg-a,,,,AAXX 25214 07690 12/62 33406 10100 20070 30213 40245 57004 60006 80001 92100=
07690,1997-01-26 00:00:00,11,1023.8,-0.7,71,6,15000,14.816,,,330,,,,,,,,,,,wg-a,,,,AAXX 26004 07690 12/65 13308 10110 20060 30206 40238 56007 60006 80001 90000=
07690,1997-01-26 03:00:00,9,1023.2,-0.6,76,5,15000,14.816,,,340,,,,,,,,,,,wg-a,,,,AAXX 26034 07690 12/65 13408 10090 20050 30200 40232 57006 60006 80001 90300=
07690,1997-01-26 06:00:00,8,1023.8,0.6,76,4,15000,22.224,,,330,8.1,10.8,,,,,,,,,wg-a,,,,AAXX 26064 07690 02365 53312 10080 20040 30206 40238 53006 60006 85500 90600 333 10108 20081 60004=
07690,1997-01-26 09:00:00,8,1024.7,0.9,76,4,20000,22.224,,,330,,,,,,,,,,,wg-a,,,,AAXX 26094 07690 12570 33312 10080 20040 30215 40247 51009 60006 81502 90900=
07690,1997-01-26 12:00:00,15,1024,-0.6,63,8,20000,7.408,,,200,,,,,,,,,,,wg-a,,,,AAXX 26124 07690 12/70 52004 10150 20080 30209 40240 58006 60006 81032 91200=
07690,1997-01-26 15:00:00,14,1023.5,-0.5,77,10,15000,14.816,,,210,,,,,,,,,,,wg-a,,,,AAXX 26154 07690 12765 /2108 10140 20100 30204 40235 55005 60006 81502 91500=
07690,1997-01-26 18:00:00,12,1024.8,1.2,88,10,12000,11.112,,,250,7.7,15.2,,,,,,,,,wg-a,,,,AAXX 26184 07690 12562 72506 10120 20100 30216 40248 53012 60006 875// 91800 333 10152 20077=
07690,1997-01-26 21:00:00,11,1026,1.2,82,8,12000,3.704,,,180,,,,,,,,,,,wg-a,,,,AAXX 26214 07690 12562 71802 10110 20080 30228 40260 52012 60006 875// 92100=
07690,1997-01-27 00:00:00,10,1026.1,0.1,87,8,12000,11.112,,,320,,,,,,,,,,,wg-a,,,,AAXX 27004 07690 12562 73206 10100 20080 30229 40261 50001 60006 86501 90000=
07690,1997-01-27 03:00:00,10,1026.2,0.1,82,7,12000,11.112,,,320,,,,,,,,,,,wg-a,,,,AAXX 27034 07690 12562 73206 10100 20070 30230 40262 50001 60006 875// 90300=
07690,1997-01-27 06:00:00,10,1026.6,0.4,82,7,12000,7.408,,,320,9.6,12.1,,,,,,,,,wg-a,,,,AAXX 27064 07690 02662 73204 10100 20070 30234 40266 53004 60006 875// 90600 333 10121 20096 60004=
07690,1997-01-27 09:00:00,10,1027.9,1.3,82,7,12000,3.704,,,230,,,,,,,,,,,wg-a,,,,AAXX 27094 07690 12462 72302 10100 20070 30247 40279 53013 60006 875// 90900=
07690,1997-01-27 12:00:00,12,1027.8,-0.1,67,6,12000,11.112,,,200,,,,,,,,,,,wg-a,,,,AAXX 27124 07690 12562 72006 10120 20060 30246 40278 58001 60006 878// 91200=
07690,1997-01-27 15:00:00,12,1026.8,-1,71,7,12000,11.112,,,190,,,,,,,,,,,wg-a,,,,AAXX 27154 07690 12562 71906 10120 20070 30236 40268 56010 60006 8587/ 91500=
07690,1997-01-27 18:00:00,11,1027,0.2,82,8,10000,0,,,0,9.6,12.7,,,,,,,,,wg-a,,,,AAXX 27184 07690 12560 70000 10110 20080 30238 40270 53002 60006 875// 91800 333 10127 20096=
07690,1997-01-27 21:00:00,10,1026.8,-0.2,82,7,8000,7.408,,,340,,,,,,,,,,,wg-a,,,,AAXX 27214 07690 12558 43404 10100 20070 30236 40268 58002 60006 84500 92100=
07690,1997-01-28 00:00:00,8,1026.3,-0.5,93,7,9000,14.816,,,330,,,,,,,,,,,wg-a,,,,AAXX 28004 07690 12559 43308 10080 20070 30231 40263 56005 60006 83530 90000=
07690,1997-01-28 03:00:00,8,1025.8,-0.5,87,6,10000,14.816,,,330,,,,,,,,,,,wg-a,,,,AAXX 28034 07690 12460 63308 10080 20060 30226 40258 56005 60006 83530 90300=
07690,1997-01-28 06:00:00,9,1026.6,0.8,81,6,10000,25.928,,,60,7.2,11.1,,,,,,,,,wg-a,,,,AAXX 28064 07690 02460 70614 10090 20060 30234 40266 53008 60006 875// 90600 333 10111 20072 60004=
07690,1997-01-28 09:00:00,12,1028.4,1.8,71,7,8000,35.188,,,80,,,,,,,,,,,wg-a,,,,AAXX 28094 07690 12458 80819 10120 20070 30252 40284 53018 60006 888// 90900=
07690,1997-01-28 12:00:00,12,1029.5,1.1,67,6,15000,29.632,,,90,,,,,,,,,,,wg-a,,,,AAXX 28124 07690 12565 80916 10120 20060 30263 40295 51011 60006 885// 91200=
07690,1997-01-28 15:00:00,11,1030.3,0.8,71,6,20000,3.704,,,350,,,,,,,,,,,wg-a,,,,AAXX 28154 07690 12670 83502 10110 20060 30271 40303 53008 60006 8752/ 91500=
07690,1997-01-28 18:00:00,9,1031.6,1.3,81,6,11000,18.52,,,330,9.2,12.3,,,,,,,,,wg-a,,,,AAXX 28184 07690 12/61 /3310 10090 20060 30284 40316 53013 60006 91800 333 10123 20092=
07690,1997-01-28 21:00:00,8,1032.9,1.3,81,5,10000,11.112,,,340,,,,,,,,,,,wg-a,,,,AAXX 28214 07690 12/60 /3406 10080 20050 30297 40329 51013 60006 80000 92100=
07690,1997-01-29 00:00:00,8,1032.9,-0,76,4,10000,22.224,,,330,,,,,,,,,,,wg-a,,,,AAXX 29004 07690 12/60 03312 10080 20040 30297 40329 54000 60006 80000 90000=
07690,1997-01-29 06:00:00,7,1031.7,-0.8,76,3,10000,25.928,,,330,7,9.3,,,,,,,,,wg-a,,,,AAXX 29064 07690 02/60 03314 10070 20030 30284 40317 58008 60006 80000 90600 333 10093 20070 60004=
07690,1997-01-29 09:00:00,9,1031.6,-0,61,2,28000,18.52,,,330,,,,,,,,,,,wg-a,,,,AAXX 29094 07690 12/78 03310 10090 20020 30284 40316 54000 60006 80000 90900=
07690,1997-01-29 12:00:00,14,1031,-0.6,55,5,20000,11.112,,,190,,,,,,,,,,,wg-a,,,,AAXX 29124 07690 12/70 01906 10140 20050 30278 40310 58006 60006 80000 91200=
07690,1997-01-29 15:00:00,13,1030.9,-0.1,72,8,12000,11.112,,,200,,,,,,,,,,,wg-a,,,,AAXX 29154 07690 12/62 02006 10130 20080 30277 40309 55001 60006 80000 91500=
07690,1997-01-29 18:00:00,10,1031.2,0.3,87,8,12000,7.408,,,330,6.9,14.5,,,,,,,,,wg-a,,,,AAXX 29184 07690 12/62 03304 10100 20080 30280 40312 53003 60006 80000 91800 333 10145 20069=
07690,1997-01-29 21:00:00,8,1032,0.8,81,5,10000,11.112,,,340,,,,,,,,,,,wg-a,,,,AAXX 29214 07690 12460 33406 10080 20050 30288 40320 51008 60006 83500 92100=
07690,1997-01-30 00:00:00,7,1032.7,0.6,81,4,10000,22.224,,,330,,,,,,,,,,,wg-a,,,,AAXX 30004 07690 12/60 /3312 10070 20040 30294 40327 51006 60006 80000 90000=
07690,1997-01-30 03:00:00,7,1032.2,-0.5,76,3,12000,22.224,,,340,,,,,,,,,,,wg-a,,,,AAXX 30034 07690 12462 /3412 10070 20030 30289 40322 58005 60006 81500 90300=
07690,1997-01-30 06:00:00,7,1032,-0.2,70,2,15000,22.224,,,330,6.5,10,,,,,,,,,wg-a,,,,AAXX 30064 07690 02465 /3312 10070 20020 30287 40320 55002 60006 81600 90600 333 10100 20065 60004=
07690,1997-01-30 09:00:00,8,1032.5,0.6,66,2,20000,22.224,,,330,,,,,,,,,,,wg-a,,,,AAXX 30094 07690 12470 /3312 10080 20020 30293 40325 53006 60006 81100 90900=
07690,1997-01-30 12:00:00,13,1031.8,-0.7,72,8,20000,11.112,,,190,,,,,,,,,,,wg-a,,,,AAXX 30124 07690 12470 /1906 10130 20080 30286 40318 58007 60006 81800 91200=
07690,1997-01-30 15:00:00,13,1030,-1.8,77,9,15000,14.816,,,200,,,,,,,,,,,wg-a,,,,AAXX 30154 07690 12465 /2008 10130 20090 30268 40300 56018 60006 81801 91500=
07690,1997-01-30 18:00:00,11,1030.2,0.2,87,9,12000,0,,,0,6.3,13.8,,,,,,,,,wg-a,,,,AAXX 30184 07690 12462 70000 10110 20090 30270 40302 52002 60006 875// 91800 333 10138 20063=
07690,1997-01-31 00:00:00,9,1029.4,-0.4,76,5,10000,11.112,,,340,,,,,,,,,,,wg-a,,,,AAXX 31004 07690 12560 23406 10090 20050 30262 40294 58004 60006 82500 90000=
07690,1997-01-31 03:00:00,8,1028.5,-0.9,76,4,12000,18.52,,,340,,,,,,,,,,,wg-a,,,,AAXX 31034 07690 12562 /3410 10080 20040 30253 40285 58009 60006 81500 90300=
07690,1997-01-31 12:00:00,13,1027.4,-1.5,62,6,16000,7.408,,,160,,,,,,,,,,,wg-a,,,,AAXX 31124 07690 12566 21604 10130 20060 30242 40274 58015 60006 82500 91200=
07690,1997-01-31 15:00:00,12,1025.8,-1.6,67,6,11000,7.408,,,160,,,,,,,,,,,wg-a,,,,AAXX 31154 07690 12561 /1604 10120 20060 30226 40258 56016 60006 85800 91500=
07690,1997-01-31 18:00:00,10,1025.6,-0.2,76,6,12000,3.704,,,40,6.3,13.5,,,,,,,,,wg-a,,,,AAXX 31184 07690 12662 30402 10100 20060 30224 40256 58002 60006 83500 91800 333 10135 20063=
07690,1997-01-31 21:00:00,7,1025.7,0.1,93,6,8000,7.408,,,330,,,,,,,,,,,wg-a,,,,AAXX 31214 07690 12/58 03304 10070 20060 30225 40257 53001 60006 80000 92100=
07690,1997-02-01 00:00:00,7,1025.5,-0.2,87,5,10000,14.816,,,340,,,,,,,,,,,wg-a,,,,AAXX 01004 07690 12/60 03408 10070 20050 30223 40255 58002 60006 80000 90000=
07690,1997-02-01 03:00:00,7,1024.7,-0.8,81,4,10000,18.52,,,340,,,,,,,,,,,wg-a,,,,AAXX 01034 07690 12/60 03410 10070 20040 30215 40247 58008 60006 80000 90300=
07690,1997-02-01 06:00:00,6,1024.7,-0,81,3,10000,25.928,,,330,6.1,10.1,,,,,,,,,wg-a,,,,AAXX 01064 07690 02560 13314 10060 20030 30215 40247 55000 60006 81530 90600 333 10101 20061 60004=
07690,1997-02-01 09:00:00,7,1025.7,1,70,2,18000,22.224,,,330,,,,,,,,,,,wg-a,,,,AAXX 01094 07690 12568 23312 10070 20020 30225 40257 52010 60006 82500 90900=
07690,1997-02-01 15:00:00,13,1024.8,-1,72,8,12000,7.408,,,210,,,,,,,,,,,wg-a,,,,AAXX 01154 07690 12562 22104 10130 20080 30216 40248 56010 60006 82800 91500=
07690,1997-02-01 18:00:00,9,1025.1,0.3,87,7,9000,7.408,,,320,5.6,14.3,,,,,,,,,wg-a,,,,AAXX 01184 07690 12559 23204 10090 20070 30219 40251 53003 60006 82500 91800 333 10143 20056=
07690,1997-02-01 21:00:00,7,1025.2,0.1,93,6,8000,14.816,,,340,,,,,,,,,,,wg-a,,,,AAXX 01214 07690 12/58 03408 10070 20060 30220 40252 53001 60006 80000 92100=
07690,1997-02-02 06:00:00,6,1025.2,-0,75,2,12000,25.928,,,330,5.8,9,,,,,,,,,wg-a,,,,AAXX 02064 07690 02562 73314 10060 20020 30220 40252 55000 60006 875// 90600 333 10090 20058 60004=
07690,1997-02-02 09:00:00,7,1026.4,1.2,66,1,12000,22.224,,,330,,,,,,,,,,,wg-a,,,,AAXX 02094 07690 12562 73312 10070 20010 30232 40264 53012 60006 875// 90900=
07690,1997-02-02 12:00:00,11,1026.2,-0.2,62,4,12000,7.408,,,330,,,,,,,,,,,wg-a,,,,AAXX 02124 07690 12662 73304 10110 20040 30230 40262 58002 60006 878// 91200=
07690,1997-02-02 15:00:00,13,1025.4,-0.8,67,7,15000,11.112,,,120,,,,,,,,,,,wg-a,,,,AAXX 02154 07690 12665 /1206 10130 20070 30222 40254 56008 60006 86801 91500=
07690,1997-02-02 18:00:00,10,1026,0.6,82,7,8000,7.408,,,280,6.1,12.6,,,,,,,,,wg-a,,,,AAXX 02184 07690 12458 72804 10100 20070 30228 40260 53006 60006 878// 91800 333 10126 20061=
07690,1997-02-02 21:00:00,9,1026.3,0.3,87,7,8000,11.112,,,330,,,,,,,,,,,wg-a,,,,AAXX 02214 07690 12558 73306 10090 20070 30231 40263 53003 60006 878// 92100=
07690,1997-02-03 00:00:00,10,1025.9,-0.4,87,8,10000,11.112,,,50,,,,,,,,,,,wg-a,,,,AAXX 03004 07690 12460 60506 10100 20080 30227 40259 58004 60006 86500 90000=
07690,1997-02-03 03:00:00,8,1025.2,-0.7,87,6,10000,11.112,,,330,,,,,,,,,,1,wg-a,,,,AAXX 03034 07690 02460 73306 10080 20060 30220 40252 57007 61000 70162 875// 90300 333 ////=
07690,1997-02-03 06:00:00,8,1025.1,-0.1,81,5,10000,14.816,,,330,7.8,10.4,,,,,,,,3,wg-a,,,,AAXX 03064 07690 02460 73308 10080 20050 30219 40251 55001 60006 70362 875// 90600 333 10104 20078 61000=
07690,1997-02-03 09:00:00,9,1026.1,1,66,3,9000,11.112,,,340,,,,,,,,,,,wg-a,,,,AAXX 03094 07690 12459 73406 10090 20030 30229 40261 53010 60006 875// 90900=
07690,1997-02-03 12:00:00,11,1025.9,-0.2,71,6,7000,11.112,,,120,,,,,,,,,,,wg-a,,,,AAXX 03124 07690 12457 71206 10110 20060 30227 40259 58002 60006 875// 91200=
07690,1997-02-03 15:00:00,11,1025.2,-0.7,76,7,7000,11.112,,,120,,,,,,,,,,,wg-a,,,,AAXX 03154 07690 12457 71206 10110 20070 30220 40252 55007 60006 875// 91500=
07690,1997-02-03 18:00:00,11,1026,0.8,76,7,10000,14.816,,,100,7.7,12.2,,,,,,,,,wg-a,,,,AAXX 03184 07690 12460 71008 10110 20070 30228 40260 53008 60006 875// 91800 333 10122 20077=
07690,1997-02-03 21:00:00,10,1026.7,0.7,76,6,12000,11.112,,,60,,,,,,,,,,,wg-a,,,,AAXX 03214 07690 12562 70606 10100 20060 30235 40267 51007 60006 875// 92100=
07690,1997-02-04 00:00:00,8,1026.9,0.2,93,7,8000,7.408,,,330,,,,,,,,,,,wg-a,,,,AAXX 04004 07690 12558 73304 10080 20070 30237 40269 50002 60006 875// 90000=
07690,1997-02-04 06:00:00,7,1026.5,0.1,76,3,10000,18.52,,,340,6.6,10.8,,,,,,,,,wg-a,,,,AAXX 04064 07690 02560 73410 10070 20030 30233 40265 53001 60006 875// 90600 333 10108 20066 60004=
07690,1997-02-04 09:00:00,7,1027.3,0.8,70,2,9000,18.52,,,330,,,,,,,,,,,wg-a,,,,AAXX 04094 07690 12559 63310 10070 20020 30241 40273 51008 60006 86800 90900=
07690,1997-02-04 12:00:00,13,1026.9,-0.4,62,6,8000,7.408,,,130,,,,,,,,,,,wg-a,,,,AAXX 04124 07690 12558 51304 10130 20060 30237 40269 58004 60006 85800 91200=
07690,1997-02-04 15:00:00,12,1025.3,-1.6,76,8,6000,7.408,,,160,,,,,,,,,,,wg-a,,,,AAXX 04154 07690 12556 51604 10120 20080 30221 40253 56016 60006 85800 91500=
07690,1997-02-04 18:00:00,11,1025.8,0.5,87,9,9000,7.408,,,230,6.3,13.3,,,,,,,,,wg-a,,,,AAXX 04184 07690 12459 72304 10110 20090 30226 40258 53005 60006 875// 91800 333 10133 20063=
07690,1997-02-04 21:00:00,9,1026.3,0.5,93,8,500,11.112,,,320,,,,,,,,,,,wg-a,,,,AAXX 04214 07690 12400 73206 10090 20080 30231 40263 51005 60006 875// 92100=
07690,1997-02-05 06:00:00,6,1022.6,-1.6,81,3,12000,14.816,,,330,6,11,,,,,,,,,wg-a,,,,AAXX 05064 07690 02562 /3308 10060 20030 30194 40226 56016 60006 81502 90600 333 10110 20060 60004=
07690,1997-02-05 09:00:00,7,1022.5,-0.1,76,3,9000,11.112,,,320,,,,,,,,,,,wg-a,,,,AAXX 05094 07690 12559 /3206 10070 20030 30193 40225 58001 60006 81532 90900=
07690,1997-02-05 12:00:00,11,1020.7,-1.8,62,4,8000,3.704,,,200,,,,,,,,,,,wg-a,,,,AAXX 05124 07690 12/58 72002 10110 20040 30175 40207 58018 60006 8707/ 91200=
07690,1997-02-05 15:00:00,12,1017.8,-2.9,67,6,10000,18.52,,,90,,,,,,,,,,,wg-a,,,,AAXX 05154 07690 12560 /0910 10120 20060 30146 40178 56029 60006 81141 91500=
07690,1997-02-05 18:00:00,10,1016.7,-1.1,82,7,10000,22.224,,,80,5.8,11.8,,,,,,,,,wg-a,,,,AAXX 05184 07690 12/60 /0812 10100 20070 30135 40167 56011 60006 81030 91800 333 10118 20058=
07690,1997-02-05 21:00:00,7,1017,0.3,87,5,7000,11.112,,,330,,,,,,,,,,,wg-a,,,,AAXX 05214 07690 12557 23306 10070 20050 30138 40170 52003 60006 82500 92100=
07690,1997-02-06 00:00:00,6,1019,2,93,5,8000,22.224,,,320,,,,,,,,,,,wg-a,,,,AAXX 06004 07690 12558 23212 10060 20050 30158 40190 53020 60006 82500 90000=
07690,1997-02-06 03:00:00,6,1019.8,0.8,87,4,10000,22.224,,,340,,,,,,,,,,,wg-a,,,,AAXX 06034 07690 12/60 03412 10060 20040 30166 40198 51008 60006 80000 90300=
07690,1997-02-06 06:00:00,6,1022.6,2.8,65,0,500,14.816,,,340,5.6,10.5,,,,,,,,,wg-a,,,,AAXX 06064 07690 02/00 03408 10060 20000 30194 40226 53028 60006 80000 90600 333 10105 20056 60004=
07690,1997-02-06 09:00:00,10,1025.9,3.3,57,2,40000,11.112,,,290,,,,,,,,,,,wg-a,,,,AAXX 06094 07690 12/82 02906 10100 20020 30227 40259 53033 60006 80000 90900=
07690,1997-02-06 12:00:00,18,1027.8,2,19,-6,40000,7.408,,,90,,,,,,,,,,,wg-a,,,,AAXX 06124 07690 12/82 00904 10180 21060 30247 40278 51020 60006 80000 91200=
07690,1997-02-06 15:00:00,17,1028.4,0.6,34,1,40000,11.112,,,130,,,,,,,,,,,wg-a,,,,AAXX 06154 07690 12/82 21306 10170 20010 30253 40284 53006 60006 80001 91500=
07690,1997-02-06 18:00:00,13,1030.7,2.2,58,5,500,3.704,,,360,5.6,18.8,,,,,,,,,wg-a,,,,AAXX 06184 07690 12/00 13602 10130 20050 30275 40307 53022 60006 80001 91800 333 10188 20056=
07690,1997-02-06 21:00:00,8,1032.1,1.4,61,1,20000,25.928,,,330,,,,,,,,,,,wg-a,,,,AAXX 06214 07690 12/70 03314 10080 20010 30289 40321 51014 60006 80000 92100=
07690,1997-02-07 00:00:00,8,1033.5,1.3,42,-4,20000,22.224,,,330,,,,,,,,,,,wg-a,,,,AAXX 07004 07690 12/70 03312 10080 21040 30302 40335 52013 60006 80000 90000=
07690,1997-02-07 03:00:00,6,1033,-0.5,49,-4,25000,25.928,,,340,,,,,,,,,,,wg-a,,,,AAXX 07034 07690 12/75 03414 10060 21040 30297 40330 58005 60006 80000 90300=
07690,1997-02-07 06:00:00,6,1033.5,0.5,49,-4,25000,29.632,,,330,5.9,12.5,,,,,,,,,wg-a,,,,AAXX 07064 07690 02/75 03316 10060 21040 30302 40335 53005 60006 80000 90600 333 10125 20059 60004=
07690,1997-02-07 09:00:00,9,1035,1.6,40,-4,40000,18.52,,,330,,,,,,,,,,,wg-a,,,,AAXX 07094 07690 12/82 03310 10090 21040 30318 40350 52016 60006 80000 90900=
07690,1997-02-07 12:00:00,15,1035.4,0.4,29,-3,500,7.408,,,230,,,,,,,,,,,wg-a,,,,AAXX 07124 07690 12/00 02304 10150 21030 30322 40354 50004 60006 80000 91200=
07690,1997-02-07 15:00:00,14,1034.1,-1.3,58,6,15000,7.408,,,180,,,,,,,,,,,wg-a,,,,AAXX 07154 07690 12/65 11804 10140 20060 30309 40341 56013 60006 80001 91500=
07690,1997-02-07 18:00:00,10,1034.8,0.7,76,6,15000,7.408,,,290,5.8,15.6,,,,,,,,,wg-a,,,,AAXX 07184 07690 12/65 02904 10100 20060 30316 40348 53007 60006 80000 91800 333 10156 20058=
07690,1997-02-07 21:00:00,7,1034.9,0,81,4,15000,18.52,,,330,,,,,,,,,,,wg-a,,,,AAXX 07214 07690 12/65 03310 10070 20040 30316 40349 50000 60006 80000 92100=
07690,1997-02-08 00:00:00,7,1034.5,-0.4,66,1,15000,22.224,,,340,,,,,,,,,,,wg-a,,,,AAXX 08004 07690 12/65 03412 10070 20010 30312 40345 58004 60006 80000 90000=
07690,1997-02-08 03:00:00,7,1033.6,-0.9,61,0,15000,22.224,,,330,,,,,,,,,,,wg-a,,,,AAXX 08034 07690 12/65 03312 10070 20000 30303 40336 56009 60006 80000 90300=
07690,1997-02-08 06:00:00,6,1033.7,0.1,65,0,15000,22.224,,,340,6.1,10,,,,,,,,,wg-a,,,,AAXX 08064 07690 02/65 03412 10060 20000 30304 40337 53001 60006 80000 90600 333 10100 20061 60004=
07690,1997-02-08 09:00:00,9,1033.9,0.3,49,-1,500,18.52,,,330,,,,,,,,,,,wg-a,,,,AAXX 08094 07690 12/00 03310 10090 21010 30307 40339 51003 60006 80000 90900=
07690,1997-02-08 12:00:00,13,1033.2,-0.7,54,4,15000,14.816,,,190,,,,,,,,,,,wg-a,,,,AAXX 08124 07690 12/65 01908 10130 20040 30300 40332 58007 60006 80000 91200=
07690,1997-02-08 15:00:00,15,1031.6,-1.6,51,5,10000,3.704,,,120,,,,,,,,,,,wg-a,,,,AAXX 08154 07690 12/60 01202 10150 20050 30284 40316 56016 60006 80000 91500=
07690,1997-02-08 18:00:00,9,1031.6,-0,71,4,10000,11.112,,,330,6.1,14.6,,,,,,,,,wg-a,,,,AAXX 08184 07690 12/60 03306 10090 20040 30284 40316 55000 60006 80000 91800 333 10146 20061=
07690,1997-02-08 21:00:00,7,1032.1,0.4,76,3,10000,11.112,,,340,,,,,,,,,,,wg-a,,,,AAXX 08214 07690 12/60 03406 10070 20030 30288 40321 53004 60006 80000 92100=
07690,1997-02-09 00:00:00,7,1032.1,0,70,2,10000,22.224,,,330,,,,,,,,,,,wg-a,,,,AAXX 09004 07690 12/60 03312 10070 20020 30288 40321 50000 60006 80000 90000=
07690,1997-02-09 03:00:00,6,1031.4,-0.7,70,1,10000,25.928,,,330,,,,,,,,,,,wg-a,,,,AAXX 09034 07690 12460 53314 10060 20010 30281 40314 58007 60006 85500 90300=
07690,1997-02-09 06:00:00,6,1031.1,-0.3,61,-1,10000,25.928,,,330,5.6,9.2,,,,,,,,,wg-a,,,,AAXX 09064 07690 02560 /3314 10060 21010 30278 40311 55003 60006 86500 90600 333 10092 20056 60004=
07690,1997-02-09 09:00:00,7,1031.9,0.8,61,0,12000,18.52,,,330,,,,,,,,,,,wg-a,,,,AAXX 09094 07690 12562 /3310 10070 20000 30286 40319 51008 60006 85500 90900=
07690,1997-02-09 12:00:00,13,1031.3,-0.5,62,6,15000,11.112,,,190,,,,,,,,,,,wg-a,,,,AAXX 09124 07690 12465 21906 10130 20060 30281 40313 58005 60006 81101 91200=
07690,1997-02-09 15:00:00,13,1030.2,-1.1,62,6,15000,3.704,,,110,,,,,,,,,,,wg-a,,,,AAXX 09154 07690 12565 31102 10130 20060 30270 40302 56011 60006 81131 91500=
07690,1997-02-09 18:00:00,10,1030.9,0.7,82,7,15000,3.704,,,350,5.5,13.5,,,,,,,,,wg-a,,,,AAXX 09184 07690 12565 23502 10100 20070 30277 40309 53007 60006 82101 91800 333 10135 20055=
07690,1997-02-09 21:00:00,8,1031.3,0.4,87,6,10000,18.52,,,340,,,,,,,,,,,wg-a,,,,AAXX 09214 07690 12560 73410 10080 20060 30281 40313 51004 60006 875// 92100=
07690,1997-02-10 00:00:00,8,1031,-0.3,81,5,10000,18.52,,,330,,,,,,,,,,,wg-a,,,,AAXX 10004 07690 12560 73310 10080 20050 30278 40310 56003 60006 875// 90000=
07690,1997-02-10 03:00:00,8,1029.8,-1.2,81,5,10000,22.224,,,330,,,,,,,,,,,wg-a,,,,AAXX 10034 07690 12560 73312 10080 20050 30266 40298 58012 60006 875// 90300=
07690,1997-02-10 06:00:00,9,1029.8,-0,76,5,10000,22.224,,,330,7.8,9.8,,,,,,,,,wg-a,,,,AAXX 10064 07690 02560 73312 10090 20050 30266 40298 55000 60006 875// 90600 333 10098 20078 60004=
07690,1997-02-10 09:00:00,9,1030.2,0.4,71,4,12000,18.52,,,330,,,,,,,,,,,wg-a,,,,AAXX 10094 07690 12662 73310 10090 20040 30270 40302 51004 60006 875// 90900=
07690,1997-02-10 12:00:00,12,1029.5,-0.7,62,5,12000,3.704,,,290,,,,,,,,,,,wg-a,,,,AAXX 10124 07690 12662 72902 10120 20050 30263 40295 58007 60006 875// 91200=
07690,1997-02-10 15:00:00,13,1028.3,-1.2,67,7,10000,14.816,,,200,,,,,,,,,,,wg-a,,,,AAXX 10154 07690 12560 /2008 10130 20070 30251 40283 56012 60006 86800 91500=
07690,1997-02-10 18:00:00,11,1028.3,-0,82,8,10000,7.408,,,230,8.5,12.9,,,,,,,,,wg-a,,,,AAXX 10184 07690 12560 72304 10110 20080 30251 40283 55000 60006 875// 91800 333 10129 20085=
07690,1997-02-11 00:00:00,10,1027.7,-0.4,76,6,9000,3.704,,,280,,,,,,,,,,,wg-a,,,,AAXX 11004 07690 12/59 /2802 10100 20060 30245 40277 55004 60006 90000=
07690,1997-02-11 03:00:00,8,1026,-1.7,81,5,10000,14.816,,,310,,,,,,,,,,,wg-a,,,,AAXX 11034 07690 12560 53108 10080 20050 30228 40260 56017 60006 82504 90300=
07690,1997-02-11 06:00:00,7,1025.2,-0.8,81,4,10000,14.816,,,330,,12.9,,,,,,,,,wg-a,,,,AAXX 11064 07690 02/60 73308 10070 20040 30220 40252 56008 60006 82032 90600 333 10129 60004=
07690,1997-02-11 09:00:00,9,1025.9,0.7,71,4,7000,11.112,,,320,,,,,,,,,,,wg-a,,,,AAXX 11094 07690 12/57 /3206 10090 20040 30227 40259 53007 60006 83032 90900=
07690,1997-02-11 12:00:00,13,1024.7,-1.2,67,7,10000,14.816,,,100,,,,,,,,,,,wg-a,,,,AAXX 11124 07690 12/60 31008 10130 20070 30215 40247 58012 60006 81032 91200=
07690,1997-02-11 15:00:00,13,1023.8,-0.9,77,9,12000,25.928,,,90,,,,,,,,,,,wg-a,,,,AAXX 11154 07690 12/62 60914 10130 20090 30206 40238 56009 60006 83031 91500=
07690,1997-02-11 18:00:00,12,1024.1,0.3,76,8,12000,14.816,,,70,9.5,13.9,,,,,,,,,wg-a,,,,AAXX 11184 07690 12/62 60708 10120 20080 30209 40241 53003 60006 80001 91800 333 10139 20095=
07690,1997-02-12 00:00:00,8,1023.7,-0.5,87,6,9000,14.816,,,330,,,,,,,,,,,wg-a,,,,AAXX 12004 07690 12559 33308 10080 20060 30205 40237 57005 60006 82501 90000=
07690,1997-02-12 06:00:00,8,1022,-0.4,81,5,12000,18.52,,,330,,11.8,,,,,,,,,wg-a,,,,AAXX 12064 07690 02562 /3310 10080 20050 30188 40220 57004 60006 81532 90600 333 10118 60004=
07690,1997-02-12 09:00:00,9,1022,0,81,6,7000,11.112,,,330,,,,,,,,,,,wg-a,,,,AAXX 12094 07690 12557 73306 10090 20060 30188 40220 50000 60006 81538 90900=
07690,1997-02-12 12:00:00,15,1020.9,-1,67,9,10000,7.408,,,110,,,,,,,,,,,wg-a,,,,AAXX 12124 07690 12560 /1104 10150 20090 30178 40209 58010 60006 81232 91200=
07690,1997-02-12 15:00:00,14,1019.1,-1.8,72,9,7000,7.408,,,110,,,,,,,,,,,wg-a,,,,AAXX 12154 07690 12557 31104 10140 20090 30160 40191 56018 60006 81242 91500=
07690,1997-02-12 18:00:00,12,1018.9,-0.3,82,9,10000,3.704,,,50,9.5,15.2,,,,,,,,,wg-a,,,,AAXX 12184 07690 12/60 70502 10120 20090 30157 40189 56003 60006 82042 91800 333 10152 20095=
07690,1997-02-13 00:00:00,8,1015.9,-2.6,87,6,9000,18.52,,,330,,,,,,,,,,,wg-a,,,,AAXX 13004 07690 12459 33310 10080 20060 30127 40159 58026 60006 81540 90000=
07690,1997-02-13 03:00:00,7,1014.2,-1.7,87,5,10000,11.112,,,340,,,,,,,,,,,wg-a,,,,AAXX 13034 07690 12/60 03406 10070 20050 30110 40142 56017 60006 80000 90300=
07690,1997-02-13 06:00:00,6,1013.7,-0.5,87,4,10000,14.816,,,330,,11.9,,,,,,,,,wg-a,,,,AAXX 13064 07690 02/60 33308 10060 20040 30105 40137 58005 60006 80002 90600 333 10119 60004=
07690,1997-02-13 09:00:00,9,1012.6,-1.1,76,5,9000,14.816,,,340,,,,,,,,,,,wg-a,,,,AAXX 13094 07690 12/59 /3408 10090 20050 30094 40126 58011 60006 82012 90900=
07690,1997-02-13 12:00:00,16,1010.9,-1.6,42,3,50000,35.188,,61.116,240,,,,,,,,,,,wg-a,,,,AAXX 13124 07690 12684 72419 10160 20030 30078 40109 56016 60006 81112 91200 333 91033=
07690,1997-02-13 18:00:00,16,1008.4,-1.4,34,0,500,31.484,,,270,6.3,17.8,,,,,,,,,wg-a,,,,AAXX 13184 07690 12500 22717 10160 20000 30053 40084 56014 60006 81101 91800 333 10178 20063=
07690,1997-02-13 21:00:00,15,1009.2,0.8,25,-5,25000,25.928,,,290,,,,,,,,,,,wg-a,,,,AAXX 13214 07690 12/75 32914 10150 21050 30061 40092 53008 60006 80001 92100=
07690,1997-02-14 00:00:00,12,1011.4,2.2,62,5,20000,14.816,,,110,,,,,,,,,,,wg-a,,,,AAXX 14004 07690 12/70 01108 10120 20050 30083 40114 53022 60006 80000 90000=
07690,1997-02-14 06:00:00,6,1010.1,-1.6,49,-4,20000,18.52,,,320,6,16,,,,,,,,,wg-a,,,,AAXX 14064 07690 02/70 13210 10060 21040 30069 40101 56016 60006 81031 90600 333 10160 20060 60004=
07690,1997-02-14 09:00:00,10,1008.9,-1.1,50,0,50000,7.408,,,350,,,,,,,,,,,wg-a,,,,AAXX 14094 07690 12584 33504 10100 20000 30058 40089 58011 60006 81101 90900=
07690,1997-02-14 12:00:00,15,1006.3,-2.6,63,8,50000,53.708,,57.412,230,,,,,,,,,,,wg-a,,,,AAXX 14124 07690 12584 /2329 10150 20080 30032 40063 58026 60006 81101 91200 333 91031=
07690,1997-02-14 18:00:00,15,1005.8,0.2,63,8,40000,38.892,,,240,6.5,16.8,,,,,,,,,wg-a,,,,AAXX 14184 07690 12/82 22421 10150 20080 30027 40058 50002 60006 80001 91800 333 10168 20065=
07690,1997-02-14 21:00:00,16,1005.3,-0.5,55,7,500,18.52,,,270,,,,,,,,,,,wg-a,,,,AAXX 14214 07690 12/00 32710 10160 20070 30022 40053 58005 60006 80001 92100=
07690,1997-02-15 00:00:00,14,1003.6,-1.7,72,9,500,25.928,,,230,,,,,,,,,,,wg-a,,,,AAXX 15004 07690 12500 22314 10140 20090 30005 40036 58017 60006 81501 90000=
07690,1997-02-15 03:00:00,12,1001.9,-1.7,71,7,20000,11.112,,,310,,,,,,,,,,,wg-a,,,,AAXX 15034 07690 12/70 73106 10120 20070 39988 40019 56017 60006 8707/ 90300=
07690,1997-02-15 06:00:00,12,1000.7,-1.2,82,9,20000,18.52,,,80,11.5,15.8,,,,,,,,,wg-a,,,,AAXX 15064 07690 02670 70810 10120 20090 39976 40007 56012 60006 83572 90600 333 10158 20115 60004=
07690,1997-02-15 09:00:00,14,1002.4,1.7,67,8,25000,22.224,,,80,,,,,,,,,,,wg-a,,,,AAXX 15094 07690 12575 40812 10140 20080 39993 40024 53017 60006 82832 90900=
07690,1997-02-15 12:00:00,16,1003,0.6,72,11,25000,11.112,,,240,,,,,,,,,,,wg-a,,,,AAXX 15124 07690 12675 32406 10160 20110 39999 40030 50006 60006 82132 91200=
07690,1997-02-15 15:00:00,15,1003,-0,72,10,25000,7.408,,,200,,,,,,,,,,,wg-a,,,,AAXX 15154 07690 12775 22004 10150 20100 39999 40030 55000 60006 81530 91500=
07690,1997-02-15 18:00:00,12,1005.4,2.4,82,9,25000,3.704,,,320,11.1,16.1,,,,,,,,,wg-a,,,,AAXX 15184 07690 12775 /3202 10120 20090 30023 40054 53024 60006 81500 91800 333 10161 20111=
07690,1997-02-15 21:00:00,10,1007.5,2.1,87,8,11000,11.112,,,330,,,,,,,,,,,wg-a,,,,AAXX 15214 07690 12/61 /3306 10100 20080 30044 40075 51021 60006 92100=
07690,1997-02-16 00:00:00,8,1009.7,2.1,81,5,15000,7.408,,,320,,,,,,,,,,,wg-a,,,,AAXX 16004 07690 12/65 03204 10080 20050 30065 40097 53021 60006 80000 90000=
07690,1997-02-16 03:00:00,7,1012.9,3.2,66,1,15000,14.816,,,320,,,,,,,,,,,wg-a,,,,AAXX 16034 07690 12/65 03208 10070 20010 30097 40129 53032 60006 80000 90300=
07690,1997-02-16 09:00:00,10,1019.3,2.8,43,-2,40000,14.816,,,330,,,,,,,,,,,wg-a,,,,AAXX 16094 07690 12/82 03308 10100 21020 30161 40193 51028 60006 80000 90900=
07690,1997-02-16 12:00:00,16,1020.3,1.1,31,-1,40000,14.816,,,110,,,,,,,,,,,wg-a,,,,AAXX 16124 07690 12782 /1108 10160 21010 30172 40203 50011 60006 81201 91200=
07690,1997-02-16 15:00:00,14,1020.8,0.5,38,0,40000,18.52,,,130,,,,,,,,,,,wg-a,,,,AAXX 16154 07690 12782 21310 10140 20000 30177 40208 53005 60006 82501 91500=
07690,1997-02-16 18:00:00,10,1022.4,1.5,66,4,500,7.408,,,260,6.9,16,,,,,,,,,wg-a,,,,AAXX 16184 07690 12/00 /2604 10100 20040 30192 40224 53015 60006 80000 91800 333 10160 20069=
07690,1997-02-16 21:00:00,7,1023.5,1.1,66,1,10000,14.816,,,320,,,,,,,,,,,wg-a,,,,AAXX 16214 07690 12/60 /3208 10070 20010 30203 40235 51011 60006 92100=
07690,1997-02-17 00:00:00,7,1023.6,0.1,61,0,25000,14.816,,,340,,,,,,,,,,,wg-a,,,,AAXX 17004 07690 12/75 53408 10070 20000 30204 40236 53001 60006 81031 90000=
07690,1997-02-17 03:00:00,7,1023.2,-0.4,61,0,25000,22.224,,,330,,,,,,,,,,,wg-a,,,,AAXX 17034 07690 12/75 63312 10070 20000 30200 40232 58004 60006 82031 90300=
07690,1997-02-17 06:00:00,6,1023.2,-0,61,-1,25000,22.224,,,340,6.1,10.2,,,,,,,,,wg-a,,,,AAXX 17064 07690 02575 53412 10060 21010 30200 40232 55000 60006 81501 90600 333 10102 20061 60004=
07690,1997-02-17 09:00:00,9,1024.4,1.2,53,0,500,18.52,,,330,,,,,,,,,,,wg-a,,,,AAXX 17094 07690 12600 /3310 10090 20000 30212 40244 51012 60006 81201 90900=
07690,1997-02-17 12:00:00,14,1023.9,-0.5,51,4,500,7.408,,,160,,,,,,,,,,,wg-a,,,,AAXX 17124 07690 12600 /1604 10140 20040 30207 40239 58005 60006 81201 91200=
07690,1997-02-17 15:00:00,13,1023.3,-0.6,54,4,20000,7.408,,,150,,,,,,,,,,,wg-a,,,,AAXX 17154 07690 12570 /1504 10130 20040 30201 40233 55006 60006 81800 91500=
07690,1997-02-17 18:00:00,11,1024.6,1.3,66,5,20000,11.112,,,110,5.9,13.8,,,,,,,,,wg-a,,,,AAXX 17184 07690 12470 /1106 10110 20050 30214 40246 53013 60006 81801 91800 333 10138 20059=
07690,1997-02-17 21:00:00,7,1026.2,1.6,87,5,20000,18.52,,,330,,,,,,,,,,,wg-a,,,,AAXX 17214 07690 12/70 03310 10070 20050 30230 40262 51016 60006 80000 92100=
07690,1997-02-18 00:00:00,7,1026.4,0.2,81,4,15000,14.816,,,330,,,,,,,,,,,wg-a,,,,AAXX 18004 07690 12/65 03308 10070 20040 30232 40264 53002 60006 80000 90000=
07690,1997-02-18 03:00:00,7,1025.9,-0.5,76,3,15000,22.224,,,330,,,,,,,,,,,wg-a,,,,AAXX 18034 07690 12/65 03312 10070 20030 30227 40259 58005 60006 80000 90300=
07690,1997-02-18 06:00:00,6,1025.8,-0.1,75,2,15000,22.224,,,330,6.2,11.4,,,,,,,,,wg-a,,,,AAXX 18064 07690 02/65 23312 10060 20020 30226 40258 56001 60006 81031 90600 333 10114 20062 60004=
07690,1997-02-18 09:00:00,9,1026.8,1,61,2,20000,18.52,,,330,,,,,,,,,,,wg-a,,,,AAXX 18094 07690 12/70 73310 10090 20020 30236 40268 51010 60006 82032 90900=
07690,1997-02-18 12:00:00,12,1025.6,-1.2,67,6,25000,14.816,,,200,,,,,,,,,,,wg-a,,,,AAXX 18124 07690 12675 72008 10120 20060 30224 40256 58012 60006 81532 91200=
07690,1997-02-18 15:00:00,13,1022.5,-3.1,82,10,20000,11.112,,,90,,,,,,,,,,,wg-a,,,,AAXX 18154 07690 12470 70906 10130 20100 30193 40225 56031 60006 81532 91500=
07690,1997-02-18 18:00:00,12,1021.6,-0.9,76,8,15000,11.112,,,80,6.3,13.1,,,,,,,,,wg-a,,,,AAXX 18184 07690 12565 70806 10120 20080 30184 40216 57009 60006 81572 91800 333 10131 20063=
07690,1997-02-18 21:00:00,8,1019.9,-1.7,87,6,9000,14.816,,,330,,,,,,,,,,,wg-a,,,,AAXX 18214 07690 12/59 23308 10080 20060 30167 40199 56017 60006 80001 92100=
07690,1997-02-19 00:00:00,7,1019.8,-0.1,87,5,12000,11.112,,,350,,,,,,,,,,,wg-a,,,,AAXX 19004 07690 12/62 23506 10070 20050 30166 40198 55001 60006 80001 90000=
07690,1997-02-19 06:00:00,5,1022.9,2.8,87,3,15000,14.816,,,320,5,11.5,,,,,,,,,wg-a,,,,AAXX 19064 07690 02665 23208 10050 20030 30197 40229 53028 60006 82500 90600 333 10115 20050 60004=
07690,1997-02-19 12:00:00,14,1027.1,0.7,72,9,15000,18.52,,,200,,,,,,,,,,,wg-a,,,,AAXX 19124 07690 12565 22010 10140 20090 30239 40271 51007 60006 81101 91200=
07690,1997-02-19 15:00:00,14,1027,-0.1,63,7,15000,18.52,,,210,,,,,,,,,,,wg-a,,,,AAXX 19154 07690 12565 22110 10140 20070 30238 40270 55001 60006 81130 91500=
07690,1997-02-19 18:00:00,11,1028.2,1.2,82,8,15000,11.112,,,260,5,15.3,,,,,,,,,wg-a,,,,AAXX 19184 07690 12/65 32606 10110 20080 30250 40282 53012 60006 80001 91800 333 10153 20050=
07690,1997-02-19 21:00:00,9,1028.7,0.5,76,5,15000,11.112,,,320,,,,,,,,,,,wg-a,,,,AAXX 19214 07690 12/65 23206 10090 20050 30255 40287 52005 60006 80001 92100=
07690,1997-02-20 00:00:00,8,1027.9,-0.8,71,3,15000,14.816,,,340,,,,,,,,,,,wg-a,,,,AAXX 20004 07690 12/65 23408 10080 20030 30247 40279 58008 60006 80001 90000=
07690,1997-02-20 03:00:00,7,1026.1,-1.8,76,3,15000,22.224,,,330,,,,,,,,,,,wg-a,,,,AAXX 20034 07690 12/65 33312 10070 20030 30229 40261 58018 60006 80002 90300=
07690,1997-02-20 06:00:00,7,1025.5,-0.6,76,3,20000,22.224,,,330,6.6,11.1,,,,,,,,,wg-a,,,,AAXX 20064 07690 02/70 13312 10070 20030 30223 40255 55006 60006 81032 90600 333 10111 20066 60004=
07690,1997-02-20 09:00:00,10,1027.2,1.7,62,3,500,22.224,,,330,,,,,,,,,,,wg-a,,,,AAXX 20094 07690 12/00 53312 10100 20030 30240 40272 51017 60006 81032 90900=
07690,1997-02-20 12:00:00,15,1027.2,0.1,63,8,500,7.408,,,130,,,,,,,,,,,wg-a,,,,AAXX 20124 07690 12/00 41304 10150 20080 30241 40272 50001 60006 80002 91200=
07690,1997-02-20 18:00:00,12,1026.2,0.5,76,8,25000,0,,,0,6.5,15.1,,,,,,,,,wg-a,,,,AAXX 20184 07690 12/75 30000 10120 20080 30230 40262 53005 60006 80002 91800 333 10151 20065=
07690,1997-02-20 21:00:00,8,1026.5,0.3,87,6,15000,14.816,,,330,,,,,,,,,,,wg-a,,,,AAXX 20214 07690 12465 43308 10080 20060 30233 40265 50003 60006 81502 92100=
07690,1997-02-21 00:00:00,7,1026.4,-0.1,87,5,15000,18.52,,,330,,,,,,,,,,,wg-a,,,,AAXX 21004 07690 12/65 23310 10070 20050 30232 40264 58001 60006 80002 90000=
07690,1997-02-21 03:00:00,7,1026.6,0.2,81,4,15000,22.224,,,330,,,,,,,,,,,wg-a,,,,AAXX 21034 07690 12465 /3312 10070 20040 30234 40266 51002 60006 81500 90300=
07690,1997-02-21 06:00:00,6,1027.7,1.1,81,3,15000,22.224,,,340,6.3,11.5,,,,,,,,,wg-a,,,,AAXX 21064 07690 02465 13412 10060 20030 30245 40277 51011 60006 81500 90600 333 10115 20063 60004=
07690,1997-02-21 12:00:00,15,1029.9,0.8,72,10,20000,25.928,,,90,,,,,,,,,,,wg-a,,,,AAXX 21124 07690 12470 /0914 10150 20100 30267 40299 50008 60006 83831 91200=
07690,1997-02-21 15:00:00,14,1029.4,-0.5,77,10,15000,11.112,,,90,,,,,,,,,,,wg-a,,,,AAXX 21154 07690 12465 70906 10140 20100 30262 40294 55005 60006 86801 91500=
07690,1997-02-21 18:00:00,13,1030.2,0.8,82,10,12000,3.704,,,160,6.3,15.2,,,,,,,,,wg-a,,,,AAXX 21184 07690 12662 /1602 10130 20100 30270 40302 53008 60006 85501 91800 333 10152 20063=
07690,1997-02-21 21:00:00,11,1031,0.8,94,10,15000,3.704,,,330,,,,,,,,,,,wg-a,,,,AAXX 21214 07690 12565 53302 10110 20100 30278 40310 52008 60006 85500 92100=
07690,1997-02-22 00:00:00,11,1031,-0,94,10,10000,3.704,,,340,,,,,,,,,,,wg-a,,,,AAXX 22004 07690 12560 73402 10110 20100 30278 40310 54000 60006 875// 90000=
07690,1997-02-22 03:00:00,11,1030.4,-0.6,76,7,10000,11.112,,,330,,,,,,,,,,,wg-a,,,,AAXX 22034 07690 12560 73306 10110 20070 30272 40304 58006 60006 875// 90300=
07690,1997-02-22 06:00:00,10,1031.1,0.7,76,6,10000,18.52,,,330,9.5,12.9,,,,,,,,,wg-a,,,,AAXX 22064 07690 02460 73310 10100 20060 30279 40311 51007 60006 875// 90600 333 10129 20095 60004=
07690,1997-02-22 09:00:00,10,1032.3,1.2,71,5,14000,14.816,,,330,,,,,,,,,,1,wg-a,,,,AAXX 22094 07690 02464 /3308 10100 20050 30291 40323 51012 61000 70152 86800 90900 333 ////=
07690,1997-02-22 15:00:00,14,1030.7,-0.9,72,9,11000,7.408,,,140,,,,,,,,,,,wg-a,,,,AAXX 22154 07690 12561 71404 10140 20090 30275 40307 56009 60006 878// 91500=
07690,1997-02-22 18:00:00,13,1030.5,-0.2,77,9,10000,7.408,,,110,9.2,15.6,,,,,,,,,wg-a,,,,AAXX 22184 07690 12460 71104 10130 20090 30273 40305 55002 60006 878// 91800 333 10156 20092=
07690,1997-02-22 21:00:00,13,1029.8,-0.7,72,8,15000,7.408,,,130,,,,,,,,,,,wg-a,,,,AAXX 22214 07690 12465 71304 10130 20080 30266 40298 58007 60006 875// 92100=
07690,1997-02-23 00:00:00,12,1029.3,-0.5,82,9,15000,3.704,,,320,,,,,,,,,,,wg-a,,,,AAXX 23004 07690 12565 73202 10120 20090 30261 40293 58005 60006 875// 90000=
07690,1997-02-23 03:00:00,11,1028,-1.3,87,9,15000,11.112,,,90,,,,,,,,,,,wg-a,,,,AAXX 23034 07690 12465 70906 10110 20090 30248 40280 57013 60006 875// 90300=
07690,1997-02-23 06:00:00,9,1026.7,-1.3,93,8,12000,11.112,,,330,9.1,13,,,,,,,,,wg-a,,,,AAXX 23064 07690 02462 /3306 10090 20080 30235 40267 56013 60006 85500 90600 333 10130 20091 61000=
07690,1997-02-23 12:00:00,15,1025.2,-1.5,55,6,20000,11.112,,,160,,,,,,,,,,,wg-a,,,,AAXX 23124 07690 12570 /1606 10150 20060 30221 40252 58015 60006 81131 91200=
07690,1997-02-23 15:00:00,14,1023.5,-1.7,67,8,11000,11.112,,,150,,,,,,,,,,,wg-a,,,,AAXX 23154 07690 12/61 /1506 10140 20080 30204 40235 56017 60006 91500=
07690,1997-02-23 18:00:00,13,1023.2,-0.4,72,8,20000,3.704,,,160,8.7,15,,,,,,,,,wg-a,,,,AAXX 23184 07690 12570 /1602 10130 20080 30200 40232 55004 60006 85831 91800 333 10150 20087=
07690,1997-02-23 21:00:00,12,1022.9,-0.3,82,9,20000,3.704,,,360,,,,,,,,,,,wg-a,,,,AAXX 23214 07690 12570 73602 10120 20090 30197 40229 58003 60006 878// 92100=
07690,1997-02-24 00:00:00,11,1021.9,-1,87,9,8000,3.704,,,300,,,,2,,,,,,61,wg-a,,,,AAXX 24004 07690 02458 73002 10110 20090 30187 40219 58010 60026 76162 8557/ 90000 333 60027=
07690,1997-02-24 06:00:00,10,1020.4,-0.6,93,9,10000,11.112,,,330,9.8,12.7,,,,,2,,,3,wg-a,,,,AAXX 24064 07690 02460 73306 10100 20090 30172 40204 56006 60006 70362 875// 90600 333 10127 20098 60024=
07690,1997-02-24 09:00:00,11,1020.8,0.4,87,9,7000,11.112,,,360,,,,,,,,,,,wg-a,,,,AAXX 24094 07690 12457 83606 10110 20090 30176 40208 51004 60006 875// 90900=
07690,1997-02-24 12:00:00,12,1020.6,-0.2,82,9,9000,11.112,,,200,,,,,,,,,,,wg-a,,,,AAXX 24124 07690 12459 82006 10120 20090 30174 40206 58002 60006 8583/ 91200=
07690,1997-02-24 15:00:00,12,1019.8,-0.8,88,10,8000,11.112,,,220,,,,,,,,,,,wg-a,,,,AAXX 24154 07690 12458 82206 10120 20100 30166 40198 56008 60006 8683/ 91500=
07690,1997-02-24 18:00:00,11,1020.8,1,94,10,10000,14.816,,,220,9.9,12.7,,,,,,,,,wg-a,,,,AAXX 24184 07690 12660 72208 10110 20100 30176 40208 53010 60006 875// 91800 333 10127 20099=
07690,1997-02-25 00:00:00,11,1022.1,0.3,94,10,10000,3.704,,,270,,,,,,,,,,,wg-a,,,,AAXX 25004 07690 12460 72702 10110 20100 30189 40221 52003 60006 875// 90000=
07690,1997-02-25 03:00:00,10,1021.4,-0.7,100,10,10000,3.704,,,310,,,,,,,,,,,wg-a,,,,AAXX 25034 07690 12660 /3102 10100 20100 30182 40214 58007 60006 86500 90300=
07690,1997-02-25 06:00:00,10,1021.7,0.3,93,9,10000,11.112,,,320,10,11.2,,,,,,,,,wg-a,,,,AAXX 25064 07690 02660 73206 10100 20090 30185 40217 53003 60006 875// 90600 333 10112 20100 60004=
07690,1997-02-25 09:00:00,13,1021.9,0.2,72,8,9000,11.112,,,330,,,,,,,,,,,wg-a,,,,AAXX 25094 07690 12/59 /3306 10130 20080 30187 40219 50002 60006 83031 90900=
07690,1997-02-25 12:00:00,15,1021.2,-0.6,82,12,10000,29.632,,,210,,,,,,,,,,,wg-a,,,,AAXX 25124 07690 12560 22116 10150 20120 30181 40212 58006 60006 81101 91200=
07690,1997-02-25 15:00:00,15,1020.6,-0.6,88,13,8000,29.632,,,210,,,,,,,,,,,wg-a,,,,AAXX 25154 07690 12558 /2116 10150 20130 30175 40206 55006 60006 83501 91500=
07690,1997-02-25 18:00:00,13,1021.3,0.7,94,12,7000,14.816,,,260,10.4,15.1,,,,,,,,,wg-a,,,,AAXX 25184 07690 12357 72608 10130 20120 30182 40213 53007 60006 875// 91800 333 10151 20104=
07690,1997-02-25 21:00:00,13,1022.3,1,94,12,7000,7.408,,,240,,,,,,,,,,,wg-a,,,,AAXX 25214 07690 12357 72404 10130 20120 30192 40223 52010 60006 875// 92100=
07690,1997-02-26 00:00:00,12,1021.4,-1,94,11,6000,3.704,,,270,,,,,,,,,,,wg-a,,,,AAXX 26004 07690 12556 72702 10120 20110 30182 40214 56010 60006 875// 90000=
07690,1997-02-26 03:00:00,11,1019.2,-2.2,100,11,6000,7.408,,,300,,,,,,,,,,,wg-a,,,,AAXX 26034 07690 12456 73004 10110 20110 30160 40192 58022 60006 86502 90300=
07690,1997-02-26 06:00:00,10,1018.6,-0.6,93,9,6000,11.112,,,320,9.5,13.3,,,,,,,,,wg-a,,,,AAXX 26064 07690 02456 /3206 10100 20090 30154 40186 56006 60006 84502 90600 333 10133 20095 60004=
07690,1997-02-26 09:00:00,13,1018,-0.5,82,10,7000,11.112,,,250,,,,,,,,,,,wg-a,,,,AAXX 26094 07690 12457 /2506 10130 20100 30149 40180 58005 60006 81502 90900=
07690,1997-02-26 15:00:00,22,1013.7,-1.2,33,5,40000,35.188,,66.672,270,,,,,,,,,,,wg-a,,,,AAXX 26154 07690 12582 /2719 10220 20050 30107 40137 55012 60006 81502 91500 333 91036=
07690,1997-02-26 18:00:00,18,1015.3,1.5,45,6,10000,25.928,,,260,9.2,23.1,,,,,,,,,wg-a,,,,AAXX 26184 07690 12/60 /2614 10180 20060 30122 40153 53015 60006 80002 91800 333 10231 20092=
07690,1997-02-27 00:00:00,14,1018.4,2,33,-2,500,35.188,,59.264,290,,,,,,,,,,,wg-a,,,,AAXX 27004 07690 12/00 02919 10140 21020 30153 40184 53020 60006 80000 90000 333 91032=
07690,1997-02-27 03:00:00,13,1021.5,3,26,-6,40000,22.224,,,300,,,,,,,,,,,wg-a,,,,AAXX 27034 07690 12/82 03012 10130 21060 30183 40215 51030 60006 80000 90300=
07690,1997-02-27 06:00:00,12,1024.9,3.4,30,-5,40000,29.632,,,300,12.1,17.9,,,,,,,,,wg-a,,,,AAXX 27064 07690 02582 13016 10120 21050 30217 40249 53034 60006 81500 90600 333 10179 20121 60004=
07690,1997-02-27 09:00:00,16,1026.7,1.9,16,-10,50000,29.632,,,350,,,,,,,,,,,wg-a,,,,AAXX 27094 07690 12784 /3516 10160 21100 30236 40267 51019 60006 81100 90900=
07690,1997-02-27 12:00:00,19,1027.6,0.9,9,-15,50000,14.816,,,30,,,,,,,,,,,wg-a,,,,AAXX 27124 07690 12/84 00308 10190 21150 30245 40276 50009 60006 80000 91200=
07690,1997-02-28 00:00:00,10,1032.2,0.5,34,-5,40000,18.52,,,340,,,,,,,,,,,wg-a,,,,AAXX 28004 07690 12/82 03410 10100 21050 30290 40322 50005 60006 80000 90000=
07690,1997-02-28 03:00:00,9,1032,-0.2,40,-4,500,14.816,,,340,,,,,,,,,,,wg-a,,,,AAXX 28034 07690 12/00 03408 10090 21040 30288 40320 58002 60006 80000 90300=
07690,1997-02-28 06:00:00,8,1033.1,1.1,46,-3,50000,25.928,,,330,8,14.1,,,,,,,,,wg-a,,,,AAXX 28064 07690 02/84 13314 10080 21030 30299 40331 51011 60006 80001 90600 333 10141 20080 60004=
07690,1997-02-28 12:00:00,17,1034.3,-0.8,23,-4,50000,11.112,,,170,,,,,,,,,,,wg-a,,,,AAXX 28124 07690 12/84 51706 10170 21040 30311 40343 58008 60006 80001 91200=
07690,1997-02-28 15:00:00,16,1033.4,-0.9,48,5,50000,11.112,,,180,,,,,,,,,,,wg-a,,,,AAXX 28154 07690 12/84 31806 10160 20050 30302 40334 56009 60006 80001 91500=
07690,1997-02-28 18:00:00,12,1033.7,0.3,71,7,50000,3.704,,,230,7.9,17.3,,,,,,,,,wg-a,,,,AAXX 28184 07690 12/84 32302 10120 20070 30305 40337 53003 60006 80001 91800 333 10173 20079=
07690,1997-02-28 21:00:00,9,1033.6,-0.1,61,2,25000,14.816,,,330,,,,,,,,,,,wg-a,,,,AAXX 28214 07690 12/75 03308 10090 20020 30304 40336 58001 60006 80000 92100=
07690,1997-03-01 00:00:00,8,1033,-0.6,66,2,20000,18.52,,,330,,,,,,,,,,,wg-a,,,,AAXX 01004 07690 12/70 03310 10080 20020 30298 40330 56006 60006 80000 90000=
07690,1997-03-01 03:00:00,8,1031.4,-1.6,57,0,25000,18.52,,,330,,,,,,,,,,,wg-a,,,,AAXX 01034 07690 12/75 33310 10080 20000 30282 40314 58016 60006 80001 90300=
07690,1997-03-01 06:00:00,8,1031.4,-0,49,-2,35000,14.816,,,330,7.3,11.9,,,,,,,,,wg-a,,,,AAXX 01064 07690 02/81 43308 10080 21020 30282 40314 54000 60006 81041 90600 333 10119 20073 60004=
07690,1997-03-01 09:00:00,12,1032.3,0.9,47,1,50000,7.408,,,330,,,,,,,,,,,wg-a,,,,AAXX 01094 07690 12684 53304 10120 20010 30291 40323 51009 60006 81131 90900=
07690,1997-03-01 12:00:00,15,1031.1,-1.2,67,9,50000,11.112,,,140,,,,,,,,,,,wg-a,,,,AAXX 01124 07690 12584 /1406 10150 20090 30279 40311 58012 60006 81134 91200=
07690,1997-03-01 15:00:00,14,1029.9,-1.2,67,8,50000,7.408,,,160,,,,,,,,,,,wg-a,,,,AAXX 01154 07690 12/84 71604 10140 20080 30267 40299 56012 60006 81032 91500=
07690,1997-03-01 18:00:00,12,1030,0.1,76,8,20000,0,,,0,7.8,15.5,,,,,,,,,wg-a,,,,AAXX 01184 07690 12/70 70000 10120 20080 30268 40300 53001 60006 82032 91800 333 10155 20078=
07690,1997-03-01 21:00:00,11,1030,-0,82,8,10000,7.408,,,320,,,,,,,,,,,wg-a,,,,AAXX 01214 07690 12/60 73204 10110 20080 30268 40300 54000 60006 82032 92100=
07690,1997-03-02 00:00:00,9,1029.4,-0.6,87,7,10000,11.112,,,310,,,,,,,,,,,wg-a,,,,AAXX 02004 07690 12/60 13106 10090 20070 30262 40294 56006 60006 80002 90000=
07690,1997-03-02 03:00:00,8,1028.7,-0.7,87,6,10000,14.816,,,330,,,,,,,,,,,wg-a,,,,AAXX 02034 07690 12460 43308 10080 20060 30255 40287 58007 60006 81502 90300=
07690,1997-03-02 06:00:00,8,1028.9,0.2,76,4,20000,11.112,,,340,7.7,11.8,,,,,,,,,wg-a,,,,AAXX 02064 07690 02/70 23406 10080 20040 30257 40289 53002 60006 82030 90600 333 10118 20077 60004=
07690,1997-03-02 09:00:00,14,1029.8,0.9,67,8,12000,0,,,0,,,,,,,,,,,wg-a,,,,AAXX 02094 07690 12/62 50000 10140 20080 30266 40298 51009 60006 84032 90900=
07690,1997-03-02 12:00:00,15,1029.1,-0.6,72,10,18000,11.112,,,170,,,,,,,,,,,wg-a,,,,AAXX 02124 07690 12/68 11706 10150 20100 30260 40291 58006 60006 80002 91200=
07690,1997-03-02 15:00:00,16,1028.6,-0.5,63,9,15000,7.408,,,140,,,,,,,,,,,wg-a,,,,AAXX 02154 07690 12665 /1404 10160 20090 30255 40286 56005 60006 81200 91500=
07690,1997-03-02 18:00:00,12,1029.4,0.7,76,8,12000,0,,,0,8.2,15.7,,,,,,,,,wg-a,,,,AAXX 02184 07690 12/62 00000 10120 20080 30262 40294 53007 60006 80000 91800 333 10157 20082=
07690,1997-03-02 21:00:00,10,1030,0.6,71,5,10000,18.52,,,320,,,,,,,,,,,wg-a,,,,AAXX 02214 07690 12/60 03210 10100 20050 30268 40300 51006 60006 80000 92100=
07690,1997-03-03 00:00:00,11,1029.9,-0.1,66,5,12000,18.52,,,320,,,,,,,,,,,wg-a,,,,AAXX 03004 07690 12/62 03210 10110 20050 30267 40299 58001 60006 80000 90000=
07690,1997-03-03 03:00:00,11,1029.8,-0.1,62,4,12000,14.816,,,330,,,,,,,,,,,wg-a,,,,AAXX 03034 07690 12/62 03308 10110 20040 30266 40298 58001 60006 80000 90300=
07690,1997-03-03 06:00:00,11,1030.6,0.8,62,4,20000,22.224,,,330,9.7,12.3,,,,,,,,,wg-a,,,,AAXX 03064 07690 02/70 13312 10110 20040 30274 40306 51008 60006 80001 90600 333 10123 20097 60004=
07690,1997-03-03 09:00:00,15,1032.1,1.5,67,9,20000,3.704,,,90,,,,,,,,,,,wg-a,,,,AAXX 03094 07690 12/70 10902 10150 20090 30289 40321 51015 60006 80001 90900=
07690,1997-03-03 12:00:00,16,1031.2,-0.8,63,9,11000,11.112,,,150,,,,,,,,,,,wg-a,,,,AAXX 03124 07690 12/61 11506 10160 20090 30281 40312 58008 60006 80001 91200=
07690,1997-03-03 15:00:00,15,1031.3,-0,77,11,7000,7.408,,,140,,,,,,,,,,,wg-a,,,,AAXX 03154 07690 12/57 21404 10150 20110 30281 40313 54000 60006 80001 91500=
07690,1997-03-03 18:00:00,13,1032,0.7,88,11,500,7.408,,,180,11,16.1,,,,,,,,,wg-a,,,,AAXX 03184 07690 12400 51804 10130 20110 30288 40320 53007 60006 84501 91800 333 10161 20110=
07690,1997-03-03 21:00:00,13,1032.6,0.6,88,11,9000,3.704,,,190,,,,,,,,,,,wg-a,,,,AAXX 03214 07690 12459 71902 10130 20110 30294 40326 51006 60006 875// 92100=
07690,1997-03-04 00:00:00,11,1032.1,-0.5,87,9,7000,7.408,,,320,,,,,,,,,,,wg-a,,,,AAXX 04004 07690 12457 73204 10110 20090 30289 40321 58005 60006 875// 90000=
07690,1997-03-04 03:00:00,9,1031.8,-0.3,87,7,500,14.816,,,320,,,,,,,,,,,wg-a,,,,AAXX 04034 07690 12400 73208 10090 20070 30286 40318 58003 60006 875// 90300=
07690,1997-03-04 06:00:00,8,1031.8,-0,81,5,500,14.816,,,330,7.8,13.1,,,,,,,,,wg-a,,,,AAXX 04064 07690 02400 /3308 10080 20050 30286 40318 55000 60006 85500 90600 333 10131 20078 60004=
07690,1997-03-04 09:00:00,11,1032.8,1,71,6,6000,7.408,,,320,,,,,,,,,,,wg-a,,,,AAXX 04094 07690 12456 73204 10110 20060 30296 40328 51010 60006 875// 90900=
07690,1997-03-04 15:00:00,15,1030.7,-1.3,72,10,6000,7.408,,,140,,,,,,,,,,,wg-a,,,,AAXX 04154 07690 12556 21404 10150 20100 30275 40307 56013 60006 82100 91500=
07690,1997-03-04 18:00:00,13,1030.8,0.1,82,10,7000,7.408,,,100,7.7,15.2,,,,,,,,,wg-a,,,,AAXX 04184 07690 12457 51004 10130 20100 30276 40308 53001 60006 85100 91800 333 10152 20077=
07690,1997-03-04 21:00:00,12,1030.9,0.1,88,10,7000,3.704,,,360,,,,,,,,,,,wg-a,,,,AAXX 04214 07690 12457 73602 10120 20100 30277 40309 51001 60006 875// 92100=
07690,1997-03-05 00:00:00,12,1030.1,-0.8,88,10,500,7.408,,,330,,,,,,,,,,,wg-a,,,,AAXX 05004 07690 12400 73304 10120 20100 30269 40301 58008 60006 875// 90000=
07690,1997-03-05 03:00:00,11,1029.1,-1,87,9,500,14.816,,,340,,,,,,,,,,,wg-a,,,,AAXX 05034 07690 12400 73408 10110 20090 30259 40291 58010 60006 875// 90300=
07690,1997-03-05 06:00:00,10,1029,-0.1,87,8,4500,14.816,,,330,9.6,13.2,,,,,,,,10,wg-a,,,,AAXX 05064 07690 02445 73308 10100 20080 30258 40290 55001 60006 71022 875// 90600 333 10132 20096 60004=
07690,1997-03-05 09:00:00,11,1028.7,-0.3,76,7,4500,7.408,,,330,,,,,,,,,,10,wg-a,,,,AAXX 05094 07690 12345 73304 10110 20070 30255 40287 57003 60006 71022 875// 90900=
07690,1997-03-05 12:00:00,14,1027.2,-1.5,77,10,4000,14.816,,,200,,,,,,,,,,10,wg-a,,,,AAXX 05124 07690 12340 /2008 10140 20100 30240 40272 58015 60006 71022 86500 91200=
07690,1997-03-05 15:00:00,13,1025.5,-1.7,82,10,3000,7.408,,,160,,,,,,,,,,10,wg-a,,,,AAXX 05154 07690 12330 71604 10130 20100 30223 40255 56017 60006 71022 875// 91500=
07690,1997-03-05 18:00:00,13,1025.1,-0.4,82,10,3500,7.408,,,70,9.1,13.9,,,,,,,,10,wg-a,,,,AAXX 05184 07690 12435 80704 10130 20100 30219 40251 57004 60006 71022 886// 91800 333 10139 20091=
07690,1997-03-06 00:00:00,13,1023.6,-0.9,88,11,3500,7.408,,,90,,,,,,,,,,10,wg-a,,,,AAXX 06004 07690 12335 70904 10130 20110 30204 40236 58009 60006 71022 875// 90000=
07690,1997-03-06 06:00:00,9,1022.4,0.1,87,7,0,14.816,,,330,9.1,13,,,,,,,,,wg-a,,,,AAXX 06064 07690 02/// /3308 10090 20070 30192 40224 51001 60006 90600 333 10130 20091 60004=
07690,1997-03-06 09:00:00,13,1023,0.6,72,8,7000,11.112,,,320,,,,,,,,,,,wg-a,,,,AAXX 06094 07690 12557 23206 10130 20080 30198 40230 51006 60006 82100 90900=
07690,1997-03-06 12:00:00,16,1022.2,-0.7,63,9,7000,14.816,,,120,,,,,,,,,,,wg-a,,,,AAXX 06124 07690 12/57 01208 10160 20090 30191 40222 58007 60006 80000 91200=
07690,1997-03-06 15:00:00,15,1022.5,0.3,67,9,8000,11.112,,,110,,,,,,,,,,,wg-a,,,,AAXX 06154 07690 12658 41106 10150 20090 30194 40225 53003 60006 81530 91500=
07690,1997-03-06 18:00:00,13,1024.4,1.8,82,10,6000,3.704,,,250,9.2,16.1,,,,,,,,,wg-a,,,,AAXX 06184 07690 12/56 /2502 10130 20100 30212 40244 51018 60006 85030 91800 333 10161 20092=
07690,1997-03-07 00:00:00,10,1025.7,0.3,82,7,12000,22.224,,,330,,,,,,,,,,,wg-a,,,,AAXX 07004 07690 12/62 33312 10100 20070 30225 40257 50003 60006 83030 90000=
07690,1997-03-07 06:00:00,9,1026.2,0.9,61,2,20000,25.928,,,330,9.4,12.5,,,,,,,,,wg-a,,,,AAXX 07064 07690 02/70 23314 10090 20020 30230 40262 51009 60006 82030 90600 333 10125 20094 60004=
07690,1997-03-07 09:00:00,13,1027.2,1,51,3,500,18.52,,,330,,,,,,,,,,,wg-a,,,,AAXX 07094 07690 12600 33310 10130 20030 30240 40272 51010 60006 81230 90900=
07690,1997-03-07 12:00:00,17,1026.5,-0.6,59,9,500,11.112,,,210,,,,,,,,,,,wg-a,,,,AAXX 07124 07690 12600 /2106 10170 20090 30234 40265 58006 60006 81230 91200=
07690,1997-03-07 15:00:00,18,1025.5,-1,42,5,25000,22.224,,,80,,,,,,,,,,,wg-a,,,,AAXX 07154 07690 12675 40812 10180 20050 30224 40255 56010 60006 81202 91500=
07690,1997-03-07 18:00:00,17,1026.6,1.1,48,6,20000,11.112,,,40,9.3,18.7,,,,,,,,,wg-a,,,,AAXX 07184 07690 12/70 40406 10170 20060 30235 40266 53011 60006 80002 91800 333 10187 20093=
07690,1997-03-07 21:00:00,11,1027.7,1,71,6,20000,14.816,,,330,,,,,,,,,,,wg-a,,,,AAXX 07214 07690 12/70 03308 10110 20060 30245 40277 52010 60006 80000 92100=
07690,1997-03-08 00:00:00,11,1027.9,0.2,58,3,20000,22.224,,,340,,,,,,,,,,,wg-a,,,,AAXX 08004 07690 12/70 03412 10110 20030 30247 40279 52002 60006 80000 90000=
07690,1997-03-08 03:00:00,10,1027.7,-0.2,53,1,25000,22.224,,,330,,,,,,,,,,,wg-a,,,,AAXX 08034 07690 12/75 03312 10100 20010 30245 40277 58002 60006 80000 90300=
07690,1997-03-08 06:00:00,9,1028.6,0.9,53,0,25000,25.928,,,330,9.2,16.6,,,,,,,,,wg-a,,,,AAXX 08064 07690 02/75 03314 10090 20000 30254 40286 53009 60006 80000 90600 333 10166 20092 60004=
07690,1997-03-08 09:00:00,13,1029.4,0.8,44,1,50000,18.52,,,320,,,,,,,,,,,wg-a,,,,AAXX 08094 07690 12/84 03210 10130 20010 30262 40294 52008 60006 80000 90900=
07690,1997-03-08 12:00:00,17,1029.2,-0.1,52,7,500,11.112,,,170,,,,,,,,,,,wg-a,,,,AAXX 08124 07690 12/00 01706 10170 20070 30261 40292 58001 60006 80000 91200=
07690,1997-03-08 15:00:00,16,1028.4,-0.8,63,9,25000,7.408,,,190,,,,,,,,,,,wg-a,,,,AAXX 08154 07690 12/75 01904 10160 20090 30253 40284 57008 60006 80000 91500=
07690,1997-03-08 18:00:00,14,1028.9,0.4,72,9,20000,3.704,,,180,9,17.1,,,,,,,,,wg-a,,,,AAXX 08184 07690 12/70 01802 10140 20090 30257 40289 53004 60006 80000 91800 333 10171 20090=
07690,1997-03-09 00:00:00,12,1029.9,0.4,62,5,12000,11.112,,,340,,,,,,,,,,,wg-a,,,,AAXX 09004 07690 12/62 03406 10120 20050 30267 40299 51004 60006 80000 90000=
07690,1997-03-09 03:00:00,11,1029.9,0,62,4,12000,18.52,,,330,,,,,,,,,,,wg-a,,,,AAXX 09034 07690 12/62 03310 10110 20040 30267 40299 50000 60006 80000 90300=
07690,1997-03-09 06:00:00,10,1031.7,1.8,62,3,20000,14.816,,,340,9.3,13.9,,,,,,,,,wg-a,,,,AAXX 09064 07690 02/70 13408 10100 20030 30285 40317 53018 60006 80002 90600 333 10139 20093 60004=
07690,1997-03-09 09:00:00,13,1032.9,1.2,58,5,15000,11.112,,,330,,,,,,,,,,,wg-a,,,,AAXX 09094 07690 12/65 03306 10130 20050 30297 40329 51012 60006 80000 90900=
07690,1997-03-09 12:00:00,16,1032.5,-0.3,68,10,12000,11.112,,,170,,,,,,,,,,,wg-a,,,,AAXX 09124 07690 12/62 11706 10160 20100 30294 40325 58003 60006 80001 91200=
07690,1997-03-09 15:00:00,17,1031.5,-1,55,8,15000,7.408,,,160,,,,,,,,,,,wg-a,,,,AAXX 09154 07690 12/65 31604 10170 20080 30284 40315 56010 60006 80001 91500=
07690,1997-03-09 18:00:00,13,1031.8,0.2,72,8,15000,0,,,0,9.4,17.7,,,,,,,,,wg-a,,,,AAXX 09184 07690 12565 10000 10130 20080 30286 40318 53002 60006 81501 91800 333 10177 20094=
07690,1997-03-10 00:00:00,10,1032.3,0.3,66,4,15000,14.816,,,330,,,,,,,,,,,wg-a,,,,AAXX 10004 07690 12/65 03308 10100 20040 30291 40323 53003 60006 80000 90000=
07690,1997-03-10 03:00:00,10,1031.8,-0.5,62,3,15000,14.816,,,340,,,,,,,,,,,wg-a,,,,AAXX 10034 07690 12/65 03408 10100 20030 30286 40318 58005 60006 80000 90300=
07690,1997-03-10 06:00:00,9,1032.3,0.5,61,2,25000,22.224,,,330,9.1,12.8,,,,,,,,,wg-a,,,,AAXX 10064 07690 02/75 03312 10090 20020 30291 40323 53005 60006 80000 90600 333 10128 20091 60004=
07690,1997-03-10 12:00:00,17,1030.8,-1.4,48,6,20000,14.816,,,200,,,,,,,,,,,wg-a,,,,AAXX 10124 07690 12/70 02008 10170 20060 30277 40308 58014 60006 80000 91200=
07690,1997-03-10 15:00:00,17,1029.1,-1.7,45,5,20000,7.408,,,180,,,,,,,,,,,wg-a,,,,AAXX 10154 07690 12/70 01804 10170 20050 30260 40291 56017 60006 80000 91500=
07690,1997-03-10 18:00:00,14,1028.1,-1.1,58,6,15000,3.704,,,260,9.1,17.5,,,,,,,,,wg-a,,,,AAXX 10184 07690 12/65 02602 10140 20060 30249 40281 56011 60006 80000 91800 333 10175 20091=
07690,1997-03-11 00:00:00,14,1027.2,-0.5,44,2,15000,11.112,,,340,,,,,,,,,,,wg-a,,,,AAXX 11004 07690 12/65 03406 10140 20020 30240 40272 55005 60006 80000 90000=
07690,1997-03-11 03:00:00,11,1028.1,0.9,54,2,10000,22.224,,,330,,,,,,,,,,,wg-a,,,,AAXX 11034 07690 12/60 /3312 10110 20020 30249 40281 51009 60006 90300=
07690,1997-03-11 06:00:00,10,1028.3,0.2,57,2,15000,22.224,,,330,10.2,14.4,,,,,,,,,wg-a,,,,AAXX 11064 07690 02/65 03312 10100 20020 30251 40283 53002 60006 80000 90600 333 10144 20102 60004=
07690,1997-03-11 09:00:00,15,1029.3,1.1,59,7,15000,7.408,,,100,,,,,,,,,,,wg-a,,,,AAXX 11094 07690 12/65 01004 10150 20070 30262 40293 51011 60006 80000 90900=
07690,1997-03-11 12:00:00,17,1028.6,-0.7,63,10,15000,7.408,,,200,,,,,,,,,,,wg-a,,,,AAXX 11124 07690 12/65 02004 10170 20100 30255 40286 58007 60006 80000 91200=
07690,1997-03-11 15:00:00,16,1027.8,-0.8,68,10,15000,11.112,,,220,,,,,,,,,,,wg-a,,,,AAXX 11154 07690 12/65 02206 10160 20100 30247 40278 56008 60006 80000 91500=
07690,1997-03-11 18:00:00,14,1029.1,1.2,77,10,12000,0,,,0,10.1,17.1,,,,,,,,,wg-a,,,,AAXX 11184 07690 12/62 00000 10140 20100 30259 40291 53012 60006 80000 91800 333 10171 20101=
07690,1997-03-12 00:00:00,13,1034.3,1.8,58,5,15000,11.112,,,60,,,,,,,,,,,wg-a,,,,AAXX 12004 07690 12/65 00606 10130 20050 30311 40343 51018 60006 80000 90000=
07690,1997-03-12 03:00:00,9,1033.7,-0.6,76,5,15000,11.112,,,340,,,,,,,,,,,wg-a,,,,AAXX 12034 07690 12/65 03406 10090 20050 30305 40337 58006 60006 80000 90300=
07690,1997-03-12 06:00:00,8,1033.7,0,76,4,15000,22.224,,,330,7.8,14.7,,,,,,,,,wg-a,,,,AAXX 12064 07690 02/65 03312 10080 20040 30305 40337 50000 60006 80000 90600 333 10147 20078 60004=
07690,1997-03-12 09:00:00,13,1032.7,-1,58,5,18000,14.816,,,320,,,,,,,,,,,wg-a,,,,AAXX 12094 07690 12/68 03208 10130 20050 30295 40327 58010 60006 80000 90900=
07690,1997-03-12 12:00:00,17,1029.9,-2.7,59,9,18000,18.52,,,180,,,,,,,,,,,wg-a,,,,AAXX 12124 07690 12/68 01810 10170 20090 30268 40299 58027 60006 80000 91200=
07690,1997-03-12 15:00:00,17,1027.8,-2.1,59,9,15000,11.112,,,90,,,,,,,,,,,wg-a,,,,AAXX 12154 07690 12/65 00906 10170 20090 30247 40278 56021 60006 80000 91500=
07690,1997-03-12 18:00:00,15,1027,-0.8,67,9,15000,18.52,,,80,7.9,17.1,,,,,,,,,wg-a,,,,AAXX 12184 07690 12/65 00810 10150 20090 30239 40270 55008 60006 80000 91800 333 10171 20079=
07690,1997-03-13 00:00:00,9,1027.4,0,87,7,10000,7.408,,,330,,,,,,,,,,,wg-a,,,,AAXX 13004 07690 12/60 03304 10090 20070 30242 40274 50000 60006 80000 90000=
07690,1997-03-13 03:00:00,8,1026,-1.4,87,6,12000,18.52,,,330,,,,,,,,,,,wg-a,,,,AAXX 13034 07690 12/62 03310 10080 20060 30228 40260 58014 60006 80000 90300=
07690,1997-03-13 06:00:00,8,1025.5,-0.5,76,4,15000,14.816,,,330,8.1,14.5,,,,,,,,,wg-a,,,,AAXX 13064 07690 02/65 03308 10080 20040 30223 40255 55005 60006 80000 90600 333 10145 20081 60004=
07690,1997-03-13 12:00:00,15,1024.4,-0.8,77,11,9000,14.816,,,100,,,,,,,,,,,wg-a,,,,AAXX 13124 07690 12/59 01008 10150 20110 30213 40244 58008 60006 80000 91200=
07690,1997-03-13 15:00:00,15,1022.3,-2.1,77,11,10000,7.408,,,170,,,,,,,,,,,wg-a,,,,AAXX 13154 07690 12/60 21704 10150 20110 30192 40223 56021 60006 80002 91500=
07690,1997-03-13 18:00:00,13,1022.3,-0,88,11,12000,7.408,,,200,8.4,15.7,,,,,,,,,wg-a,,,,AAXX 13184 07690 12462 /2004 10130 20110 30192 40223 55000 60006 81502 91800 333 10157 20084=
07690,1997-03-13 21:00:00,11,1022.2,-0.2,94,10,10000,3.704,,,320,,,,,,,,,,,wg-a,,,,AAXX 13214 07690 12460 33202 10110 20100 30190 40222 55002 60006 81502 92100=
07690,1997-03-14 00:00:00,10,1021.8,-0.4,93,9,9000,11.112,,,330,,,,,,,,,,,wg-a,,,,AAXX 14004 07690 12359 /3306 10100 20090 30186 40218 58004 60006 85500 90000=
07690,1997-03-14 06:00:00,8,1020.8,0.2,93,7,4000,14.816,,,330,7.8,13.3,,,,,,,,10,wg-a,,,,AAXX 14064 07690 02440 /3308 10080 20070 30176 40208 53002 60006 71011 81500 90600 333 10133 20078 60004=
07690,1997-03-14 09:00:00,14,1020.6,-0.1,72,9,6000,7.408,,,230,,,,,,,,,,,wg-a,,,,AAXX 14094 07690 12456 /2304 10140 20090 30175 40206 58001 60006 81500 90900=
07690,1997-03-14 12:00:00,15,1019.5,-1.1,72,10,7000,14.816,,,180,,,,,,,,,,,wg-a,,,,AAXX 14124 07690 12457 /1808 10150 20100 30164 40195 58011 60006 81500 91200=
07690,1997-03-14 15:00:00,14,1017.6,-1.9,82,11,500,14.816,,,200,,,,,,,,,,,wg-a,,,,AAXX 14154 07690 12400 22008 10140 20110 30145 40176 56019 60006 82500 91500=
07690,1997-03-14 18:00:00,14,1016.4,-1.2,82,11,7000,7.408,,,100,7.9,15,,,,,,,,,wg-a,,,,AAXX 14184 07690 12457 71004 10140 20110 30133 40164 56012 60006 875// 91800 333 10150 20079=
07690,1997-03-14 21:00:00,13,1015.7,-0.7,82,10,9000,7.408,,,110,,,,,,,,,,,wg-a,,,,AAXX 14214 07690 12459 71104 10130 20100 30126 40157 56007 60006 875// 92100=
07690,1997-03-15 00:00:00,13,1014.7,-1,88,11,10000,18.52,,,60,,,,,,,,,,,wg-a,,,,AAXX 15004 07690 12460 70610 10130 20110 30116 40147 56010 60006 875// 90000=
07690,1997-03-15 03:00:00,13,1016.3,1.6,82,10,10000,7.408,,,350,,,,,,,,,,3,wg-a,,,,AAXX 15034 07690 12460 83504 10130 20100 30132 40163 51016 60006 70392 8796/ 90300=
07690,1997-03-15 06:00:00,11,1016.8,0.4,87,9,500,22.224,,,330,10.6,13.7,,,,,,,,1,wg-a,,,,AAXX 15064 07690 02600 23312 10110 20090 30136 40168 53004 60006 70191 82500 90600 333 10137 20106 60004=
07690,1997-03-15 09:00:00,16,1019,2.3,55,7,9000,7.408,,,260,,,,,,,,,,,wg-a,,,,AAXX 15094 07690 12659 /2604 10160 20070 30159 40190 51023 60006 81100 90900=
07690,1997-03-15 12:00:00,20,1019.3,0.3,43,7,20000,14.816,,,170,,,,,,,,,,,wg-a,,,,AAXX 15124 07690 12670 /1708 10200 20070 30162 40193 50003 60006 81100 91200=
07690,1997-03-15 15:00:00,20,1019.1,-0.2,40,6,20000,11.112,,,200,,,,,,,,,,,wg-a,,,,AAXX 15154 07690 12670 /2006 10200 20060 30160 40191 58002 60006 81100 91500=
07690,1997-03-15 18:00:00,15,1019.5,0.4,63,8,20000,7.408,,,250,10.6,20.6,,,,,,,,,wg-a,,,,AAXX 15184 07690 12/70 12504 10150 20080 30164 40195 53004 60006 81030 91800 333 10206 20106=
07690,1997-03-15 21:00:00,13,1020.8,1.2,54,4,15000,14.816,,,330,,,,,,,,,,,wg-a,,,,AAXX 15214 07690 12/65 03308 10130 20040 30176 40208 53012 60006 80000 92100=
07690,1997-03-16 00:00:00,13,1020.8,0,47,2,15000,22.224,,,340,,,,,,,,,,,wg-a,,,,AAXX 16004 07690 12/65 03412 10130 20020 30176 40208 50000 60006 80000 90000=
07690,1997-03-16 03:00:00,13,1020.7,-0.1,47,2,20000,22.224,,,330,,,,,,,,,,,wg-a,,,,AAXX 16034 07690 12/70 03312 10130 20020 30175 40207 58001 60006 80000 90300=
07690,1997-03-16 06:00:00,12,1021.2,0.5,50,2,25000,25.928,,,330,11.7,14.7,,,,,,,,,wg-a,,,,AAXX 16064 07690 02/75 13314 10120 20020 30180 40212 51005 60006 80001 90600 333 10147 20117 60004=
07690,1997-03-16 12:00:00,17,1021.3,-0.2,72,12,50000,18.52,,,200,,,,,,,,,,,wg-a,,,,AAXX 16124 07690 12/84 32010 10170 20120 30182 40213 58002 60006 80001 91200=
07690,1997-03-16 18:00:00,16,1020.5,-0,63,9,50000,7.408,,,100,11.6,18.2,,,,,,,,,wg-a,,,,AAXX 16184 07690 12/84 01004 10160 20090 30174 40205 55000 60006 80000 91800 333 10182 20116=
07690,1997-03-16 21:00:00,12,1021,0.4,76,8,20000,7.408,,,340,,,,,,,,,,,wg-a,,,,AAXX 16214 07690 12/70 03404 10120 20080 30178 40210 51004 60006 80000 92100=
07690,1997-03-17 00:00:00,13,1020.7,-0.2,94,12,20000,11.112,,,70,,,,,,,,,,,wg-a,,,,AAXX 17004 07690 12270 30706 10130 20120 30176 40207 58002 60006 83600 90000=
07690,1997-03-17 03:00:00,9,1019.6,-1.2,87,7,20000,3.704,,,60,,,,,,,,,,,wg-a,,,,AAXX 17034 07690 12370 60602 10090 20070 30164 40196 57012 60006 86600 90300=
07690,1997-03-17 06:00:00,8,1019.9,0.3,87,6,500,11.112,,,330,8.2,15.9,,,,,,,,,wg-a,,,,AAXX 17064 07690 02300 43306 10080 20060 30167 40199 53003 60006 81602 90600 333 10159 20082 60004=
07690,1997-03-17 09:00:00,15,1020,0.2,77,11,10000,18.52,,,80,,,,,,,,,,,wg-a,,,,AAXX 17094 07690 12560 40810 10150 20110 30169 40200 51002 60006 81132 90900=
07690,1997-03-17 12:00:00,16,1019.3,-0.7,72,11,10000,18.52,,,110,,,,,,,,,,,wg-a,,,,AAXX 17124 07690 12560 /1110 10160 20110 30162 40193 58007 60006 81132 91200=
07690,1997-03-17 15:00:00,16,1018.1,-1.2,72,11,7000,11.112,,,140,,,,,,,,,,,wg-a,,,,AAXX 17154 07690 12/57 /1406 10160 20110 30150 40181 56012 60006 80002 91500=
07690,1997-03-17 18:00:00,13,1018.6,0.5,88,11,12000,0,,,0,8.2,16.4,,,,,,,,,wg-a,,,,AAXX 17184 07690 12/62 30000 10130 20110 30155 40186 53005 60006 80002 91800 333 10164 20082=
07690,1997-03-17 21:00:00,11,1018.9,0.2,94,10,10000,11.112,,,310,,,,,,,,,,,wg-a,,,,AAXX 17214 07690 12/60 03106 10110 20100 30157 40189 50002 60006 80000 92100=
07690,1997-03-18 00:00:00,10,1018.9,0,93,9,8000,7.408,,,320,,,,,,,,,,,wg-a,,,,AAXX 18004 07690 12/58 03204 10100 20090 30157 40189 50000 60006 80000 90000=
07690,1997-03-18 03:00:00,9,1018.1,-0.8,93,8,10000,3.704,,,290,,,,,,,,,,,wg-a,,,,AAXX 18034 07690 12260 12902 10090 20080 30149 40181 58008 60006 81600 90300=
07690,1997-03-18 06:00:00,8,1018.4,0.3,93,7,500,7.408,,,330,7.9,13.4,,,,,,,,,wg-a,,,,AAXX 18064 07690 02200 23304 10080 20070 30152 40184 52003 60006 82600 90600 333 10134 20079 60004=
07690,1997-03-18 09:00:00,13,1019.1,0.8,88,11,6000,14.816,,,90,,,,,,,,,,,wg-a,,,,AAXX 18094 07690 12456 /0908 10130 20110 30160 40191 51008 60006 86600 90900=
07690,1997-03-18 12:00:00,15,1018,-1.1,77,11,8000,14.816,,,120,,,,,,,,,,,wg-a,,,,AAXX 18124 07690 12458 /1208 10150 20110 30149 40180 58011 60006 86500 91200=
07690,1997-03-18 15:00:00,14,1015.6,-2.4,82,11,6000,11.112,,,170,,,,,,,,,,,wg-a,,,,AAXX 18154 07690 12456 71706 10140 20110 30125 40156 56024 60006 875// 91500=
07690,1997-03-18 18:00:00,13,1014,-1.6,88,11,7000,7.408,,,160,8.2,15.4,,,,,,,,,wg-a,,,,AAXX 18184 07690 12457 81604 10130 20110 30109 40140 56016 60006 886// 91800 333 10154 20082=
07690,1997-03-18 21:00:00,12,1012.4,-1.6,94,11,7000,7.408,,,180,,,,,,,,,,,wg-a,,,,AAXX 18214 07690 12357 81804 10120 20110 30093 40124 58016 60006 886// 92100=
07690,1997-03-19 00:00:00,12,1009.3,-3.1,94,11,7000,0,,,0,,,,,,,,,,,wg-a,,,,AAXX 19004 07690 12457 70000 10120 20110 30062 40093 58031 60006 875// 90000=
07690,1997-03-19 03:00:00,10,1005,-4.3,100,10,7000,7.408,,,250,,,,,,,,,,,wg-a,,,,AAXX 19034 07690 12457 42504 10100 20100 30019 40050 58043 60006 84500 90300=
07690,1997-03-19 06:00:00,16,1002.2,-2.8,36,1,500,25.928,,,280,9.5,15.9,,,,,,,,,wg-a,,,,AAXX 19064 07690 02/00 /2814 10160 20010 39991 40022 55028 60006 81030 90600 333 10159 20095 60004=
07690,1997-03-19 12:00:00,18,1000.8,-1.3,39,4,50000,14.816,,57.412,150,,,,,,,,,,,wg-a,,,,AAXX 19124 07690 12584 /1508 10180 20040 39978 40008 58013 60006 81130 91200 333 91031=
07690,1997-03-19 15:00:00,16,998.8,-2,72,11,500,25.928,,,90,,,,,,,,,,,wg-a,,,,AAXX 19154 07690 12500 /0914 10160 20110 39958 49988 55020 60006 81800 91500=
07690,1997-03-19 18:00:00,14,1001.4,2.5,77,10,40000,7.408,,,260,14.3,20.4,,,,,,,,,wg-a,,,,AAXX 19184 07690 12482 /2604 10140 20100 39983 40014 53025 60006 81400 91800 333 10204 20143=
07690,1997-03-19 21:00:00,14,1003.8,2.4,26,-5,20000,22.224,,,280,,,,,,,,,,,wg-a,,,,AAXX 19214 07690 12470 /2812 10140 21050 30007 40038 51024 60006 81500 92100=
07690,1997-03-20 00:00:00,13,1004.7,0.9,33,-3,500,22.224,,,350,,,,,,,,,,,wg-a,,,,AAXX 20004 07690 12/00 03512 10130 21030 30016 40047 53009 60006 80000 90000=
07690,1997-03-20 03:00:00,13,1005.6,0.9,28,-5,500,18.52,,,340,,,,,,,,,,,wg-a,,,,AAXX 20034 07690 12/00 03410 10130 21050 30025 40056 51009 60006 80000 90300=
07690,1997-03-20 06:00:00,10,1007.8,2.2,43,-2,50000,14.816,,,300,9.3,15.3,,,,,,,,,wg-a,,,,AAXX 20064 07690 02/84 03008 10100 21020 30047 40078 53022 60006 80000 90600 333 10153 20093 60004=
07690,1997-03-20 09:00:00,16,1009.5,1.7,27,-3,50000,14.816,,,330,,,,,,,,,,,wg-a,,,,AAXX 20094 07690 12/84 03308 10160 21030 30064 40095 51017 60006 80000 90900=
07690,1997-03-20 12:00:00,17,1008.9,-0.6,39,3,50000,25.928,,,200,,,,,,,,,,,wg-a,,,,AAXX 20124 07690 12684 12014 10170 20030 30058 40089 58006 60006 81100 91200=
07690,1997-03-20 15:00:00,16,1007.7,-1.2,55,7,50000,29.632,,,210,,,,,,,,,,,wg-a,,,,AAXX 20154 07690 12/84 /2116 10160 20070 30046 40077 56012 60006 80000 91500=
07690,1997-03-20 18:00:00,15,1007.9,0.2,55,6,50000,3.704,,,170,9.8,17.8,,,,,,,,,wg-a,,,,AAXX 20184 07690 12/84 01702 10150 20060 30048 40079 53002 60006 80000 91800 333 10178 20098=
07690,1997-03-20 21:00:00,11,1009.1,1.2,58,3,20000,7.408,,,340,,,,,,,,,,,wg-a,,,,AAXX 20214 07690 12/70 03404 10110 20030 30060 40091 53012 60006 80000 92100=
07690,1997-03-21 00:00:00,11,1010.4,1.3,50,1,20000,11.112,,,340,,,,,,,,,,,wg-a,,,,AAXX 21004 07690 12/70 03406 10110 20010 30073 40104 51013 60006 80000 90000=
07690,1997-03-21 03:00:00,9,1011.9,1.4,53,0,20000,18.52,,,320,,,,,,,,,,,wg-a,,,,AAXX 21034 07690 12470 23210 10090 20000 30087 40119 51014 60006 82100 90300=
07690,1997-03-21 06:00:00,8,1013.6,1.7,57,0,500,22.224,,,330,8.3,15.2,,,,,,,,,wg-a,,,,AAXX 21064 07690 02400 /3312 10080 20000 30104 40136 51017 60006 81100 90600 333 10152 20083 60004=
07690,1997-03-21 09:00:00,14,1015.3,-0,44,2,500,11.112,,,330,,,,,,,,,,,wg-a,,,,AAXX 21094 07690 12/00 13306 10140 20020 30122 40153 54000 60006 80001 90900=
07690,1997-03-21 12:00:00,16,1016.3,1,48,5,50000,11.112,,,190,,,,,,,,,,,wg-a,,,,AAXX 21124 07690 12584 /1906 10160 20050 30132 40163 51010 60006 81101 91200=
07690,1997-03-21 15:00:00,16,1015.4,-0.9,42,3,50000,11.112,,,130,,,,,,,,,,,wg-a,,,,AAXX 21154 07690 12/84 41306 10160 20030 30123 40154 57009 60006 80001 91500=
07690,1997-03-21 18:00:00,13,1015.6,0.2,67,7,50000,3.704,,,210,8.3,17.2,,,,,,,,,wg-a,,,,AAXX 21184 07690 12/84 32102 10130 20070 30125 40156 53002 60006 80001 91800 333 10172 20083=
07690,1997-03-21 21:00:00,10,1016.2,0.5,62,3,20000,14.816,,,330,,,,,,,,,,,wg-a,,,,AAXX 21214 07690 12/70 63308 10100 20030 30130 40162 50005 60006 84032 92100=
07690,1997-03-22 00:00:00,9,1016.1,-0.1,49,-1,20000,14.816,,,340,,,,,,,,,,,wg-a,,,,AAXX 22004 07690 12/70 73408 10090 21010 30129 40161 58001 60006 82032 90000=
07690,1997-03-22 06:00:00,9,1017.4,1.5,49,-1,500,18.52,,,340,8.7,12.6,,,,,,,,,wg-a,,,,AAXX 22064 07690 02400 53410 10090 21010 30142 40174 53015 60006 81502 90600 333 10126 20087 60004=
07690,1997-03-22 09:00:00,14,1018.9,1.6,67,8,35000,18.52,,,80,,,,,,,,,,,wg-a,,,,AAXX 22094 07690 12581 70810 10140 20080 30158 40189 52016 60006 81502 90900=
07690,1997-03-22 12:00:00,16,1019.2,0.3,68,10,35000,7.408,,,130,,,,,,,,,,,wg-a,,,,AAXX 22124 07690 12581 /1304 10160 20100 30161 40192 50003 60006 81502 91200=
07690,1997-03-22 15:00:00,16,1018.2,-1,59,8,35000,7.408,,,140,,,,,,,,,,,wg-a,,,,AAXX 22154 07690 12581 21404 10160 20080 30151 40182 57010 60006 81502 91500=
07690,1997-03-22 18:00:00,12,1018.2,-0,76,8,500,0,,,0,8.7,16.6,,,,,,,,,wg-a,,,,AAXX 22184 07690 12/00 00000 10120 20080 30151 40182 54000 60006 80000 91800 333 10166 20087=
07690,1997-03-22 21:00:00,10,1018.7,0.4,62,3,20000,18.52,,,330,,,,,,,,,,,wg-a,,,,AAXX 22214 07690 12/70 03310 10100 20030 30155 40187 51004 60006 80000 92100=
07690,1997-03-23 00:00:00,10,1018.6,-0.1,53,1,20000,18.52,,,340,,,,,,,,,,,wg-a,,,,AAXX 23004 07690 12/70 03410 10100 20010 30154 40186 58001 60006 80000 90000=
07690,1997-03-23 03:00:00,9,1018.5,-0.1,53,0,20000,14.816,,,340,,,,,,,,,,,wg-a,,,,AAXX 23034 07690 12/70 03408 10090 20000 30153 40185 58001 60006 80000 90300=
07690,1997-03-23 06:00:00,9,1018.9,0.4,53,0,500,14.816,,,340,8.6,12.3,,,,,,,,,wg-a,,,,AAXX 23064 07690 02/00 03408 10090 20000 30157 40189 53004 60006 80000 90600 333 10123 20086 60004=
07690,1997-03-23 09:00:00,15,1019.7,0.9,59,7,500,3.704,,,120,,,,,,,,,,,wg-a,,,,AAXX 23094 07690 12/00 11202 10150 20070 30166 40197 51009 60006 80001 90900=
07690,1997-03-23 12:00:00,16,1017.6,-2.1,63,9,25000,14.816,,,190,,,,,,,,,,,wg-a,,,,AAXX 23124 07690 12575 51908 10160 20090 30145 40176 58021 60006 81102 91200=
07690,1997-03-23 15:00:00,14,1015.1,-2.5,77,10,20000,22.224,,,220,,,,,,,,,,,wg-a,,,,AAXX 23154 07690 12570 72212 10140 20100 30120 40151 56025 60006 82132 91500=
07690,1997-03-23 18:00:00,13,1013.2,-1.9,77,9,10000,7.408,,,10,8.8,16,,,,,,,,,wg-a,,,,AAXX 23184 07690 12560 /0104 10130 20090 30101 40132 56019 60006 81532 91800 333 10160 20088=
07690,1997-03-23 21:00:00,10,1011.2,-2,87,8,12000,11.112,,,310,,,,,,,,,,,wg-a,,,,AAXX 23214 07690 12/62 23106 10100 20080 30081 40112 57020 60006 81031 92100=
07690,1997-03-24 00:00:00,13,1007.6,-3.6,58,5,12000,29.632,,,250,,,,,,,,,,,wg-a,,,,AAXX 24004 07690 12/62 42516 10130 20050 30045 40076 58036 60006 83031 90000=
07690,1997-03-24 03:00:00,10,1004.6,-3,66,4,12000,14.816,,,330,,,,,,,,,,,wg-a,,,,AAXX 24034 07690 12/62 13308 10100 20040 30015 40046 56030 60006 80001 90300=
07690,1997-03-24 06:00:00,8,1004.9,0.2,76,4,12000,18.52,,,330,8.2,14.1,,,,,,,,,wg-a,,,,AAXX 24064 07690 02/62 13310 10080 20040 30017 40049 53002 60006 81030 90600 333 10141 20082 60004=
07690,1997-03-24 09:00:00,15,1005.4,0.6,59,7,9000,11.112,,,220,,,,,,,,,,,wg-a,,,,AAXX 24094 07690 12559 /2206 10150 20070 30023 40054 51006 60006 81101 90900=
07690,1997-03-24 12:00:00,16,1005.8,0.4,63,9,9000,18.52,,,190,,,,,,,,,,,wg-a,,,,AAXX 24124 07690 12559 /1910 10160 20090 30027 40058 52004 60006 81100 91200=
07690,1997-03-24 15:00:00,14,1006.2,0.4,72,9,6000,11.112,,,220,,,,,,,,,,,wg-a,,,,AAXX 24154 07690 12556 52206 10140 20090 30031 40062 53004 60006 81130 91500=
07690,1997-03-24 18:00:00,13,1007.1,0.9,72,8,10000,7.408,,,230,8.2,16.1,,,,,,,,,wg-a,,,,AAXX 24184 07690 12/60 72304 10130 20080 30040 40071 53009 60006 8703/ 91800 333 10161 20082=
07690,1997-03-24 21:00:00,13,1008.8,1.7,72,8,12000,7.408,,,330,,,,,,,,,,,wg-a,,,,AAXX 24214 07690 12/62 73304 10130 20080 30057 40088 53017 60006 8708/ 92100=
07690,1997-03-25 00:00:00,11,1008.9,0.1,82,8,13000,11.112,,,320,,,,,,,,,,,wg-a,,,,AAXX 25004 07690 12/63 63206 10110 20080 30058 40089 50001 60006 86080 90000=
07690,1997-03-25 03:00:00,11,1009.5,0.6,82,8,13000,7.408,,,330,,,,,,,,,,,wg-a,,,,AAXX 25034 07690 12/63 53304 10110 20080 30064 40095 53006 60006 85030 90300=
07690,1997-03-25 06:00:00,11,1010.4,0.9,66,5,18000,11.112,,,330,10.5,12.9,,,,,,,,,wg-a,,,,AAXX 25064 07690 02/68 63306 10110 20050 30073 40104 53009 60006 86030 90600 333 10129 20105 60004=
07690,1997-03-25 09:00:00,14,1011.6,1.2,63,7,13000,11.112,,,160,,,,,,,,,,,wg-a,,,,AAXX 25094 07690 12563 21606 10140 20070 30085 40116 51012 60006 81180 90900=
07690,1997-03-25 12:00:00,16,1012.2,0.6,59,8,12000,14.816,,,160,,,,,,,,,,,wg-a,,,,AAXX 25124 07690 12562 31608 10160 20080 30091 40122 51006 60006 82230 91200=
07690,1997-03-25 15:00:00,14,1011.9,-0.3,67,8,10000,11.112,,,200,,,,,,,,,,,wg-a,,,,AAXX 25154 07690 12560 72006 10140 20080 30088 40119 56003 60006 878// 91500=
07690,1997-03-25 18:00:00,12,1013.7,1.8,94,11,4000,7.408,,,360,10.9,16.1,,,,,,,,61,wg-a,,,,AAXX 25184 07690 02540 83604 10120 20110 30106 40137 53018 61000 76161 8387/ 91800 333 10161 20109 6001=
07690,1997-03-25 21:00:00,10,1014.3,0.5,87,8,15000,18.52,,,340,,,,2,,,,,,1,wg-a,,,,AAXX 25214 07690 12665 /3410 10100 20080 30111 40143 53005 60027 70162 81530 92100=
07690,1997-03-26 00:00:00,10,1015.5,1.2,76,6,15000,22.224,,,330,,,,,,,,,,1,wg-a,,,,AAXX 26004 07690 12/65 03312 10100 20060 30123 40155 51012 60026 70161 80000 90000=
07690,1997-03-26 06:00:00,9,1017.2,1.2,76,5,500,14.816,,,350,8.8,12.3,,,,,3,,,,wg-a,,,,AAXX 26064 07690 02/00 03508 10090 20050 30140 40172 52012 60006 80000 90600 333 10123 20088 60034=
07690,1997-03-26 09:00:00,14,1019.3,2.2,58,6,50000,18.52,,,330,,,,,,,,,,,wg-a,,,,AAXX 26094 07690 12584 13310 10140 20060 30162 40193 51022 60006 81101 90900=
07690,1997-03-26 12:00:00,17,1020,0.7,59,9,50000,11.112,,,180,,,,,,,,,,,wg-a,,,,AAXX 26124 07690 12584 /1806 10170 20090 30169 40200 50007 60006 81101 91200=
07690,1997-03-26 18:00:00,13,1021.1,1,77,9,20000,7.408,,,260,9,18.2,,,,,,,,,wg-a,,,,AAXX 26184 07690 12/70 42604 10130 20090 30180 40211 53010 60006 80001 91800 333 10182 20090=
07690,1997-03-26 21:00:00,11,1022.1,0.9,76,7,15000,14.816,,,330,,,,,,,,,,,wg-a,,,,AAXX 26214 07690 12/65 13308 10110 20070 30189 40221 51009 60006 80001 92100=
07690,1997-03-27 00:00:00,11,1022.2,0.2,62,4,15000,22.224,,,330,,,,,,,,,,,wg-a,,,,AAXX 27004 07690 12/65 03312 10110 20040 30190 40222 52002 60006 80000 90000=
07690,1997-03-27 03:00:00,10,1021.1,-1.1,62,3,20000,22.224,,,330,,,,,,,,,,,wg-a,,,,AAXX 27034 07690 12/70 03312 10100 20030 30179 40211 58011 60006 80000 90300=
07690,1997-03-27 06:00:00,10,1022.5,1.4,62,3,40000,14.816,,,340,9.4,13.3,,,,,,,,,wg-a,,,,AAXX 27064 07690 02/82 23408 10100 20030 30193 40225 53014 60006 80001 90600 333 10133 20094 60004=
07690,1997-03-27 09:00:00,15,1023,0.6,63,8,35000,14.816,,,100,,,,,,,,,,,wg-a,,,,AAXX 27094 07690 12/81 11008 10150 20080 30199 40230 53006 60006 80001 90900=
07690,1997-03-27 12:00:00,16,1022.5,-0.5,72,11,500,11.112,,,110,,,,,,,,,,,wg-a,,,,AAXX 27124 07690 12500 11106 10160 20110 30194 40225 58005 60006 81101 91200=
07690,1997-03-27 15:00:00,16,1021.3,-1.2,63,9,18000,14.816,,,190,,,,,,,,,,,wg-a,,,,AAXX 27154 07690 12468 /1908 10160 20090 30182 40213 58012 60006 81500 91500=
07690,1997-03-27 18:00:00,14,1020.9,-0.4,77,10,9000,3.704,,,130,9.8,17,,,,,,,,,wg-a,,,,AAXX 27184 07690 12/59 /1302 10140 20100 30178 40209 57004 60006 80000 91800 333 10170 20098=
07690,1997-03-27 21:00:00,11,1020.9,-0.1,87,9,10000,11.112,,,320,,,,,,,,,,,wg-a,,,,AAXX 27214 07690 12/60 03206 10110 20090 30177 40209 58001 60006 80000 92100=
07690,1997-03-28 00:00:00,10,1019.4,-1.5,87,8,12000,18.52,,,330,,,,,,,,,,,wg-a,,,,AAXX 28004 07690 12/62 03310 10100 20080 30162 40194 58015 60006 80000 90000=
07690,1997-03-28 03:00:00,9,1017,-2.4,87,7,12000,18.52,,,330,,,,,,,,,,,wg-a,,,,AAXX 28034 07690 12462 43310 10090 20070 30138 40170 58024 60006 84500 90300=
07690,1997-03-28 06:00:00,9,1014.6,-2.4,81,6,8000,18.52,,,340,8.9,14,,,,,,,,,wg-a,,,,AAXX 28064 07690 02458 /3410 10090 20060 30114 40146 57024 60006 84500 90600 333 10140 20089 60004=
07690,1997-03-28 09:00:00,14,1012.4,-2.1,72,9,8000,3.704,,,40,,,,,,,,,,,wg-a,,,,AAXX 28094 07690 12558 /0402 10140 20090 30093 40124 58021 60006 85500 90900=
07690,1997-03-28 12:00:00,16,1008.9,-3.5,68,10,8000,14.816,,,110,,,,,,,,,,,wg-a,,,,AAXX 28124 07690 12/58 01108 10160 20100 30058 40089 58035 60006 80000 91200=
07690,1997-03-28 15:00:00,16,1005.3,-3.6,72,11,6000,14.816,,,110,,,,,,,,,,,wg-a,,,,AAXX 28154 07690 12556 /1108 10160 20110 30022 40053 56036 60006 81101 91500=
07690,1997-03-28 18:00:00,15,1004.6,-0.7,82,12,10000,14.816,,,90,8.9,16.1,,,,,,,,,wg-a,,,,AAXX 28184 07690 12460 30908 10150 20120 30015 40046 55007 60006 83100 91800 333 10161 20089=
07690,1997-03-28 21:00:00,14,1006.8,2.2,94,13,10000,14.816,,,270,,,,,,,,,,,wg-a,,,,AAXX 28214 07690 12460 32708 10140 20130 30037 40068 53022 60006 83500 92100=
07690,1997-03-29 00:00:00,14,1008.8,2,88,12,10000,18.52,,,280,,,,,,,,,,,wg-a,,,,AAXX 29004 07690 12460 42810 10140 20120 30057 40088 51020 60006 84500 90000=
07690,1997-03-29 03:00:00,10,1010.3,1.5,87,8,12000,11.112,,,330,,,,,,,,,,,wg-a,,,,AAXX 29034 07690 12662 /3306 10100 20080 30072 40103 53015 60006 81500 90300=
07690,1997-03-29 06:00:00,10,1012.7,2.3,82,7,500,18.52,,,330,9.7,14.7,,,,,,,,,wg-a,,,,AAXX 29064 07690 02600 23310 10100 20070 30095 40127 51023 60006 82500 90600 333 10147 20097 60004=
07690,1997-03-29 09:00:00,15,1013.2,0.6,48,4,40000,14.816,,,170,,,,,,,,,,,wg-a,,,,AAXX 29094 07690 12682 /1708 10150 20040 30101 40132 53006 60006 81500 90900=
07690,1997-03-29 12:00:00,16,1013.9,0.7,42,3,40000,18.52,,,180,,,,,,,,,,,wg-a,,,,AAXX 29124 07690 12682 /1810 10160 20030 30108 40139 50007 60006 81100 91200=
07690,1997-03-29 15:00:00,16,1013.3,-0.6,31,-1,40000,14.816,,,180,,,,,,,,,,,wg-a,,,,AAXX 29154 07690 12682 21808 10160 21010 30102 40133 56006 60006 82800 91500=
07690,1997-03-29 18:00:00,14,1013.5,0.2,58,6,40000,22.224,,,200,9.7,16.9,,,,,,,,,wg-a,,,,AAXX 29184 07690 12782 /2012 10140 20060 30104 40135 50002 60006 81500 91800 333 10169 20097=
07690,1997-03-29 21:00:00,11,1015.2,1.6,66,5,20000,11.112,,,330,,,,,,,,,,,wg-a,,,,AAXX 29214 07690 12/70 03306 10110 20050 30120 40152 53016 60006 80000 92100=
07690,1997-03-30 00:00:00,9,1015.9,0.7,71,4,20000,18.52,,,330,,,,,,,,,,,wg-a,,,,AAXX 30004 07690 12/70 03310 10090 20040 30127 40159 51007 60006 80000 90000=
07690,1997-03-30 03:00:00,8,1015.7,-0.2,71,3,20000,18.52,,,330,,,,,,,,,,,wg-a,,,,AAXX 30034 07690 12/70 03310 10080 20030 30125 40157 58002 60006 80000 90300=
07690,1997-03-30 06:00:00,8,1016.1,0.4,66,2,40000,22.224,,,330,8,13.6,,,,,,,,,wg-a,,,,AAXX 30064 07690 02/82 13312 10080 20020 30129 40161 53004 60006 80001 90600 333 10136 20080 60004=
07690,1997-03-30 09:00:00,15,1016.6,0.6,36,0,50000,7.408,,,320,,,,,,,,,,,wg-a,,,,AAXX 30094 07690 12/84 03204 10150 20000 30135 40166 51006 60006 80000 90900=
07690,1997-03-30 12:00:00,17,1014.7,-1.9,45,5,50000,29.632,,,190,,,,,,,,,,,wg-a,,,,AAXX 30124 07690 12684 11916 10170 20050 30116 40147 58019 60006 81500 91200=
07690,1997-03-30 15:00:00,16,1014.8,0.1,45,4,40000,29.632,,,200,,,,,,,,,,,wg-a,,,,AAXX 30154 07690 12682 /2016 10160 20040 30117 40148 53001 60006 81500 91500=
07690,1997-03-30 18:00:00,15,1015.9,1.1,51,5,40000,7.408,,,170,8.3,17.4,,,,,,,,,wg-a,,,,AAXX 30184 07690 12/82 01704 10150 20050 30128 40159 53011 60006 80000 91800 333 10174 20083=
07690,1997-03-30 21:00:00,10,1017.6,1.6,57,2,20000,11.112,,,330,,,,,,,,,,,wg-a,,,,AAXX 30214 07690 12/70 03306 10100 20020 30144 40176 51016 60006 80000 92100=
07690,1997-03-31 00:00:00,11,1018.9,1.3,43,-1,20000,14.816,,,340,,,,,,,,,,,wg-a,,,,AAXX 31004 07690 12/70 03408 10110 21010 30157 40189 51013 60006 80000 90000=
07690,1997-03-31 06:00:00,9,1021.8,2.4,53,0,40000,14.816,,,340,8.5,14.8,,,,,,,,,wg-a,,,,AAXX 31064 07690 02482 /3408 10090 20000 30186 40218 53024 60006 81100 90600 333 10148 20085 60004=
07690,1997-03-31 09:00:00,15,1023.6,1.9,48,4,50000,18.52,,,110,,,,,,,,,,,wg-a,,,,AAXX 31094 07690 12684 21110 10150 20040 30205 40236 52019 60006 82200 90900=
07690,1997-03-31 12:00:00,16,1022.9,-0.7,45,4,50000,14.816,,,140,,,,,,,,,,,wg-a,,,,AAXX 31124 07690 12684 /1408 10160 20040 30198 40229 58007 60006 81201 91200=
07690,1997-03-31 15:00:00,15,1021.6,-1.3,44,3,50000,11.112,,,160,,,,,,,,,,,wg-a,,,,AAXX 31154 07690 12684 /1606 10150 20030 30185 40216 56013 60006 81230 91500=
07690,1997-03-31 18:00:00,13,1021,-0.7,72,8,50000,14.816,,,230,8.5,15.8,,,,,,,,,wg-a,,,,AAXX 31184 07690 12/84 12308 10130 20080 30178 40210 58007 60006 81031 91800 333 10158 20085=
07690,1997-03-31 21:00:00,10,1020.3,-0.7,76,6,20000,7.408,,,310,,,,,,,,,,,wg-a,,,,AAXX 31214 07690 12/70 13104 10100 20060 30171 40203 58007 60006 81030 92100=
07690,1997-04-01 00:00:00,12,1019,-1.3,58,4,20000,11.112,,,230,,,,,,,,,,,wg-a,,,,AAXX 01004 07690 12/70 02306 10120 20040 30158 40190 56013 60006 80000 90000=
07690,1997-04-01 03:00:00,11,1018.3,-0.7,66,5,20000,11.112,,,20,,,,,,,,,,,wg-a,,,,AAXX 01034 07690 12/70 00206 10110 20050 30151 40183 58007 60006 80000 90300=
07690,1997-04-01 06:00:00,11,1018.8,0.5,62,4,20000,14.816,,,340,9.5,12.7,,,,,,,,,wg-a,,,,AAXX 01064 07690 02/70 03408 10110 20040 30156 40188 53005 60006 80000 90600 333 10127 20095 60004=
07690,1997-04-01 09:00:00,16,1018.7,-0,51,6,10000,11.112,,,170,,,,,,,,,,,wg-a,,,,AAXX 01094 07690 12/60 /1706 10160 20060 30156 40187 55000 60006 90900=
07690,1997-04-01 12:00:00,17,1018.3,-0.4,63,10,40000,11.112,,,210,,,,,,,,,,,wg-a,,,,AAXX 01124 07690 12782 /2106 10170 20100 30152 40183 58004 60006 81102 91200=
07690,1997-04-01 15:00:00,16,1016,-2.3,77,12,40000,14.816,,,200,,,,,,,,,,,wg-a,,,,AAXX 01154 07690 12782 22008 10160 20120 30129 40160 56023 60006 81102 91500=
07690,1997-04-01 18:00:00,14,1014.9,-1.1,77,10,40000,7.408,,,200,10.7,17,,,,,,,,,wg-a,,,,AAXX 01184 07690 12/82 12004 10140 20100 30118 40149 58011 60006 80002 91800 333 10170 20107=
07690,1997-04-01 21:00:00,11,1014.7,-0.2,71,6,20000,14.816,,,340,,,,,,,,,,,wg-a,,,,AAXX 01214 07690 12/70 03408 10110 20060 30116 40147 58002 60006 80000 92100=
07690,1997-04-02 00:00:00,14,1015.2,0.5,88,12,20000,31.484,,,70,,,,,,,,,,,wg-a,,,,AAXX 02004 07690 12/70 00717 10140 20120 30121 40152 53005 60006 80000 90000=
07690,1997-04-02 03:00:00,10,1015.7,0.4,66,4,20000,11.112,,,330,,,,,,,,,,,wg-a,,,,AAXX 02034 07690 12470 /3306 10100 20040 30125 40157 53004 60006 81500 90300=
07690,1997-04-02 06:00:00,9,1018.4,2.7,66,3,25000,18.52,,,330,8.5,14.1,,,,,,,,,wg-a,,,,AAXX 02064 07690 02475 /3310 10090 20030 30152 40184 51027 60006 81500 90600 333 10141 20085 60004=
07690,1997-04-02 09:00:00,16,1018.4,0.1,59,8,20000,7.408,,,150,,,,,,,,,,,wg-a,,,,AAXX 02094 07690 12/70 /1504 10160 20080 30153 40184 50001 60006 80000 90900=
07690,1997-04-02 12:00:00,17,1017.7,-0.7,68,11,20000,11.112,,,180,,,,,,,,,,,wg-a,,,,AAXX 02124 07690 12570 /1806 10170 20110 30146 40177 58007 60006 81100 91200=
07690,1997-04-02 18:00:00,14,1015.7,-0.6,72,9,20000,18.52,,,240,8.8,17,,,,,,,,,wg-a,,,,AAXX 02184 07690 12/70 12410 10140 20090 30126 40157 55006 60006 80001 91800 333 10170 20088=
07690,1997-04-02 21:00:00,12,1015.9,0.2,82,9,18000,11.112,,,330,,,,,,,,,,,wg-a,,,,AAXX 02214 07690 12/68 03306 10120 20090 30128 40159 50002 60006 80000 92100=
07690,1997-04-03 00:00:00,11,1014.6,-1.3,82,8,20000,18.52,,,320,,,,,,,,,,,wg-a,,,,AAXX 03004 07690 12/70 03210 10110 20080 30115 40146 58013 60006 80000 90000=
07690,1997-04-03 03:00:00,11,1013.8,-0.9,71,6,20000,18.52,,,330,,,,,,,,,,,wg-a,,,,AAXX 03034 07690 12/70 03310 10110 20060 30106 40138 56009 60006 80000 90300=
07690,1997-04-03 06:00:00,10,1013.6,-0.2,76,6,20000,11.112,,,330,9.4,14.1,,,,,,,,,wg-a,,,,AAXX 03064 07690 02/70 03306 10100 20060 30104 40136 55002 60006 80000 90600 333 10141 20094 60004=
07690,1997-04-03 09:00:00,15,1013.5,0,72,10,20000,18.52,,,90,,,,,,,,,,,wg-a,,,,AAXX 03094 07690 12570 /0910 10150 20100 30104 40135 50000 60006 81100 90900=
07690,1997-04-03 12:00:00,17,1012.1,-1.4,72,12,12000,18.52,,,110,,,,,,,,,,,wg-a,,,,AAXX 03124 07690 12462 /1110 10170 20120 30090 40121 58014 60006 81100 91200=
07690,1997-04-03 15:00:00,16,1010.4,-1.7,72,11,9000,14.816,,,120,,,,,,,,,,,wg-a,,,,AAXX 03154 07690 12459 /1208 10160 20110 30073 40104 58017 60006 81200 91500=
07690,1997-04-03 18:00:00,15,1009.8,-0.6,72,10,15000,11.112,,,90,9.9,17,,,,,,,,,wg-a,,,,AAXX 03184 07690 12565 /0906 10150 20100 30067 40098 56006 60006 81400 91800 333 10170 20099=
07690,1997-04-04 00:00:00,10,1009.5,-0.6,93,9,12000,11.112,,,330,,,,,,,,,,,wg-a,,,,AAXX 04004 07690 12462 /3306 10100 20090 30064 40095 58006 60006 81500 90000=
07690,1997-04-04 03:00:00,9,1008.6,-1,93,8,9000,7.408,,,330,,,,,,,,,,,wg-a,,,,AAXX 04034 07690 12459 63304 10090 20080 30054 40086 58010 60006 86500 90300=
07690,1997-04-04 06:00:00,10,1007.8,-0.7,87,8,7000,11.112,,,330,9,14.9,,,,,,,,,wg-a,,,,AAXX 04064 07690 02857 /3306 10100 20080 30047 40078 56007 60006 86070 90600 333 10149 20090 60004=
07690,1997-04-04 09:00:00,14,1008.1,0.3,82,11,7000,3.704,,,130,,,,,,,,,,,wg-a,,,,AAXX 04094 07690 12457 71302 10140 20110 30050 40081 51003 60006 8257/ 90900=
07690,1997-04-04 12:00:00,16,1007.6,-0.5,72,11,8000,11.112,,,110,,,,,,,,,,,wg-a,,,,AAXX 04124 07690 12/58 /1106 10160 20110 30045 40076 58005 60006 80002 91200=
07690,1997-04-04 15:00:00,16,1006.3,-1.3,72,11,7000,7.408,,,140,,,,,,,,,,,wg-a,,,,AAXX 04154 07690 12557 31404 10160 20110 30032 40063 56013 60006 81102 91500=
07690,1997-04-04 18:00:00,15,1007.7,1.4,82,12,500,3.704,,,80,9.8,16.1,,,,,,,,,wg-a,,,,AAXX 04184 07690 12400 70802 10150 20120 30046 40077 53014 60006 875// 91800 333 10161 20098=
07690,1997-04-04 21:00:00,12,1010.7,3,94,11,7000,7.408,,,350,,,,,,,,,,,wg-a,,,,AAXX 04214 07690 12457 23504 10120 20110 30076 40107 53030 60006 82500 92100=
07690,1997-04-05 00:00:00,11,1012.1,1.4,94,10,6000,11.112,,,320,,,,,,,,,,,wg-a,,,,AAXX 05004 07690 12456 23206 10110 20100 30090 40121 53014 60006 82500 90000=
07690,1997-04-05 03:00:00,10,1013.8,1.6,93,9,8000,18.52,,,330,,,,,,,,,,,wg-a,,,,AAXX 05034 07690 12/58 03310 10100 20090 30106 40138 53016 60006 80000 90300=
07690,1997-04-05 06:00:00,9,1017,3.2,93,8,14000,7.408,,,320,9.1,14.5,,,,,,,,,wg-a,,,,AAXX 05064 07690 02/64 /3204 10090 20080 30138 40170 51032 60006 80002 90600 333 10145 20091 60004=
07690,1997-04-05 09:00:00,16,1018.6,1.7,63,9,15000,11.112,,,200,,,,,,,,,,,wg-a,,,,AAXX 05094 07690 12565 22006 10160 20090 30155 40186 51017 60006 82100 90900=
07690,1997-04-05 12:00:00,17,1018.5,-0.1,52,7,500,14.816,,,180,,,,,,,,,,,wg-a,,,,AAXX 05124 07690 12600 21808 10170 20070 30154 40185 58001 60006 82501 91200=
07690,1997-04-05 15:00:00,16,1016.2,-2.3,63,9,500,18.52,,,200,,,,,,,,,,,wg-a,,,,AAXX 05154 07690 12600 32010 10160 20090 30131 40162 58023 60006 81501 91500=
07690,1997-04-05 18:00:00,15,1014.9,-1.3,72,10,500,11.112,,,200,9.5,16.9,,,,,,,,,wg-a,,,,AAXX 05184 07690 12/00 52006 10150 20100 30118 40149 58013 60006 80001 91800 333 10169 20095=
07690,1997-04-05 21:00:00,12,1014.2,-0.7,67,6,20000,11.112,,,340,,,,,,,,,,,wg-a,,,,AAXX 05214 07690 12/70 03406 10120 20060 30111 40142 56007 60006 80000 92100=
07690,1997-04-06 00:00:00,10,1013.5,-0.8,66,4,20000,14.816,,,340,,,,,,,,,,,wg-a,,,,AAXX 06004 07690 12/70 03408 10100 20040 30103 40135 58008 60006 80000 90000=
07690,1997-04-06 03:00:00,10,1011.7,-1.8,62,3,20000,14.816,,,340,,,,,,,,,,,wg-a,,,,AAXX 06034 07690 12/70 03408 10100 20030 30085 40117 56018 60006 80000 90300=
07690,1997-04-06 06:00:00,10,1012,0.3,62,3,20000,14.816,,,330,8.9,14.9,,,,,,,,,wg-a,,,,AAXX 06064 07690 02470 /3308 10100 20030 30088 40120 53003 60006 81500 90600 333 10149 20089 60004=
07690,1997-04-06 09:00:00,15,1012.3,0.4,72,10,500,11.112,,,90,,,,,,,,,,,wg-a,,,,AAXX 06094 07690 12500 20906 10150 20100 30092 40123 51004 60006 81101 90900=
07690,1997-04-06 12:00:00,17,1011.4,-0.9,68,11,500,14.816,,,110,,,,,,,,,,,wg-a,,,,AAXX 06124 07690 12/00 11108 10170 20110 30083 40114 58009 60006 80001 91200=
07690,1997-04-06 15:00:00,17,1010.8,-0.6,68,11,500,14.816,,,120,,,,,,,,,,,wg-a,,,,AAXX 06154 07690 12500 /1208 10170 20110 30077 40108 56006 60006 81100 91500=
07690,1997-04-06 18:00:00,15,1011.7,0.9,82,12,500,3.704,,,80,9.6,17,,,,,,,,,wg-a,,,,AAXX 06184 07690 12500 /0802 10150 20120 30086 40117 53009 60006 81100 91800 333 10170 20096=
07690,1997-04-06 21:00:00,12,1013.5,1.8,88,10,15000,7.408,,,350,,,,,,,,,,,wg-a,,,,AAXX 06214 07690 12/65 03504 10120 20100 30104 40135 53018 60006 80000 92100=
07690,1997-04-07 00:00:00,11,1014.9,1.3,87,9,15000,7.408,,,330,,,,,,,,,,,wg-a,,,,AAXX 07004 07690 12/65 03304 10110 20090 30117 40149 51013 60006 80000 90000=
07690,1997-04-07 03:00:00,10,1016.1,1.2,82,7,15000,14.816,,,330,,,,,,,,,,,wg-a,,,,AAXX 07034 07690 12/65 03308 10100 20070 30129 40161 53012 60006 80000 90300=
07690,1997-04-07 06:00:00,10,1018.9,2.8,71,5,500,22.224,,,330,9.2,14.8,,,,,,,,,wg-a,,,,AAXX 07064 07690 02/00 13312 10100 20050 30157 40189 53028 60006 80002 90600 333 10148 20092 60004=
07690,1997-04-07 12:00:00,18,1020.7,0.5,52,8,50000,18.52,,,110,,,,,,,,,,,wg-a,,,,AAXX 07124 07690 12/84 11110 10180 20080 30176 40207 51005 60006 80001 91200=
07690,1997-04-07 18:00:00,16,1021.7,0.8,48,5,500,7.408,,,100,10,18.3,,,,,,,,,wg-a,,,,AAXX 07184 07690 12/00 31004 10160 20050 30186 40217 53008 60006 80001 91800 333 10183 20100=
07690,1997-04-07 21:00:00,11,1023.7,1.9,58,3,20000,14.816,,,330,,,,,,,,,,,wg-a,,,,AAXX 07214 07690 12/70 33308 10110 20030 30205 40237 51019 60006 80001 92100=
07690,1997-04-08 00:00:00,11,1025.3,1.6,50,1,20000,18.52,,,330,,,,,,,,,,,wg-a,,,,AAXX 08004 07690 12570 33310 10110 20010 30221 40253 53016 60006 81501 90000=
07690,1997-04-08 03:00:00,14,1027,1.7,63,7,20000,38.892,,,100,,,,,,,,,,,wg-a,,,,AAXX 08034 07690 12570 51021 10140 20070 30238 40270 53017 60006 85501 90300=
07690,1997-04-08 06:00:00,12,1029,2,58,4,20000,38.892,,,90,10.9,15.7,,,,,,,,,wg-a,,,,AAXX 08064 07690 02570 /0921 10120 20040 30258 40290 53020 60006 85500 90600 333 10157 20109 60004=
07690,1997-04-08 09:00:00,13,1030,1,51,3,500,29.632,,,80,,,,,,,,,,,wg-a,,,,AAXX 08094 07690 12400 70816 10130 20030 30268 40300 53010 60006 875// 90900=
07690,1997-04-08 12:00:00,14,1029.7,-0.3,51,4,500,22.224,,,100,,,,,,,,,,,wg-a,,,,AAXX 08124 07690 12400 71012 10140 20040 30265 40297 58003 60006 8657/ 91200=
07690,1997-04-08 15:00:00,13,1028.6,-1.1,51,3,500,14.816,,,100,,,,,,,,,,,wg-a,,,,AAXX 08154 07690 12400 /1008 10130 20030 30254 40286 58011 60006 83570 91500=
07690,1997-04-08 18:00:00,12,1028.8,0.2,54,3,20000,7.408,,,90,12.3,14.1,,,,,,,,,wg-a,,,,AAXX 08184 07690 12570 70904 10120 20030 30256 40288 53002 60006 875// 91800 333 10141 20123=
07690,1997-04-08 21:00:00,12,1029.4,0.6,62,5,20000,11.112,,,330,,,,,,,,,,,wg-a,,,,AAXX 08214 07690 12570 /3306 10120 20050 30262 40294 51006 60006 86500 92100=
07690,1997-04-09 00:00:00,9,1029.9,0.5,76,5,20000,11.112,,,340,,,,,,,,,,,wg-a,,,,AAXX 09004 07690 12/70 03406 10090 20050 30267 40299 51005 60006 80000 90000=
07690,1997-04-09 03:00:00,8,1029.5,-0.4,76,4,20000,18.52,,,340,,,,,,,,,,,wg-a,,,,AAXX 09034 07690 12/70 03410 10080 20040 30263 40295 58004 60006 80000 90300=
07690,1997-04-09 06:00:00,8,1030.7,1.2,76,4,20000,22.224,,,330,7.3,12.4,,,,,,,,,wg-a,,,,AAXX 09064 07690 02/70 03312 10080 20040 30275 40307 53012 60006 80000 90600 333 10124 20073 60004=
07690,1997-04-09 09:00:00,15,1032,1.3,39,1,20000,7.408,,,90,,,,,,,,,,,wg-a,,,,AAXX 09094 07690 12/70 00904 10150 20010 30288 40320 53013 60006 80000 90900=
07690,1997-04-09 12:00:00,16,1032,0,48,5,20000,22.224,,,110,,,,,,,,,,,wg-a,,,,AAXX 09124 07690 12/70 01112 10160 20050 30288 40320 50000 60006 80000 91200=
07690,1997-04-09 15:00:00,15,1031,-1,55,6,20000,11.112,,,130,,,,,,,,,,,wg-a,,,,AAXX 09154 07690 12/70 01306 10150 20060 30278 40310 58010 60006 80000 91500=
07690,1997-04-09 18:00:00,13,1030.5,-0.5,62,6,20000,0,,,0,8,16.2,,,,,,,,,wg-a,,,,AAXX 09184 07690 12/70 00000 10130 20060 30273 40305 58005 60006 80000 91800 333 10162 20080=
07690,1997-04-09 21:00:00,10,1031.3,0.8,76,6,20000,14.816,,,320,,,,,,,,,,,wg-a,,,,AAXX 09214 07690 12/70 03208 10100 20060 30281 40313 51008 60006 80000 92100=
07690,1997-04-10 00:00:00,9,1031.6,0.3,76,5,20000,14.816,,,340,,,,,,,,,,,wg-a,,,,AAXX 10004 07690 12/70 03408 10090 20050 30284 40316 51003 60006 80000 90000=
07690,1997-04-10 03:00:00,8,1030.5,-1.1,71,3,20000,14.816,,,340,,,,,,,,,,,wg-a,,,,AAXX 10034 07690 12/70 03408 10080 20030 30273 40305 58011 60006 80000 90300=
07690,1997-04-10 06:00:00,8,1030.7,0.2,71,3,20000,18.52,,,330,7.3,12.9,,,,,,,,,wg-a,,,,AAXX 10064 07690 02570 13310 10080 20030 30275 40307 53002 60006 81501 90600 333 10129 20073 60004=
07690,1997-04-10 09:00:00,14,1030.5,-0.2,55,5,500,3.704,,,120,,,,,,,,,,,wg-a,,,,AAXX 10094 07690 12500 /1202 10140 20050 30273 40305 55002 60006 81101 90900=
07690,1997-04-10 12:00:00,16,1029.4,-1,59,8,11000,11.112,,,140,,,,,,,,,,,wg-a,,,,AAXX 10124 07690 12/61 /1406 10160 20080 30263 40294 58010 60006 91200=
07690,1997-04-10 18:00:00,14,1027.4,-0.5,67,8,500,14.816,,,210,7.8,16.6,,,,,,,,,wg-a,,,,AAXX 10184 07690 12/00 02108 10140 20080 30242 40274 57005 60006 80000 91800 333 10166 20078=
07690,1997-04-10 21:00:00,11,1028,0.6,82,8,20000,11.112,,,330,,,,,,,,,,,wg-a,,,,AAXX 10214 07690 12/70 03306 10110 20080 30248 40280 50006 60006 80000 92100=
07690,1997-04-11 00:00:00,10,1027.2,-0.8,82,7,20000,11.112,,,340,,,,,,,,,,,wg-a,,,,AAXX 11004 07690 12/70 03406 10100 20070 30240 40272 57008 60006 80000 90000=
07690,1997-04-11 03:00:00,9,1025.6,-1.6,81,6,20000,11.112,,,340,,,,,,,,,,,wg-a,,,,AAXX 11034 07690 12470 13406 10090 20060 30224 40256 57016 60006 81500 90300=
07690,1997-04-11 06:00:00,9,1024.7,-0.9,81,6,20000,14.816,,,330,8.8,13.4,,,,,,,,,wg-a,,,,AAXX 11064 07690 02470 43308 10090 20060 30215 40247 56009 60006 84500 90600 333 10134 20088 60004=
07690,1997-04-11 09:00:00,15,1022.9,-1.7,55,6,20000,11.112,,,140,,,,,,,,,,,wg-a,,,,AAXX 11094 07690 12570 21406 10150 20060 30198 40229 56017 60006 82500 90900=
07690,1997-04-11 12:00:00,15,1020.5,-2.4,63,8,20000,11.112,,,170,,,,,,,,,,,wg-a,,,,AAXX 11124 07690 12670 71706 10150 20080 30174 40205 58024 60006 8353/ 91200=
07690,1997-04-11 18:00:00,15,1012.6,-4,82,12,12000,14.816,,,70,9.1,17,,,,,,,,,wg-a,,,,AAXX 11184 07690 12462 30708 10150 20120 30095 40126 58040 60006 83500 91800 333 10170 20091=
07690,1997-04-11 21:00:00,15,1010.9,-1.7,77,11,12000,25.928,,,70,,,,,,,,,,,wg-a,,,,AAXX 11214 07690 12/62 00714 10150 20110 30078 40109 58017 60006 80000 92100=
07690,1997-04-12 00:00:00,10,1009.8,-1.1,93,9,12000,14.816,,,50,,,,,,,,,,,wg-a,,,,AAXX 12004 07690 12462 10508 10100 20090 30067 40098 56011 60006 81500 90000=
07690,1997-04-12 03:00:00,10,1009.5,-0.3,93,9,12000,14.816,,,50,,,,,,,,,,,wg-a,,,,AAXX 12034 07690 12462 60508 10100 20090 30064 40095 55003 60006 83502 90300=
07690,1997-04-12 06:00:00,11,1011.2,1.7,87,9,10000,18.52,,,320,10,15.1,,,,,,,,,wg-a,,,,AAXX 12064 07690 02460 73210 10110 20090 30081 40112 53017 60006 878// 90600 333 10151 20100 60004=
07690,1997-04-12 09:00:00,16,1012.2,1,77,12,10000,3.704,,,120,,,,,,,,,,,wg-a,,,,AAXX 12094 07690 12460 /1202 10160 20120 30091 40122 51010 60006 84800 90900=
07690,1997-04-12 12:00:00,18,1012.8,0.6,64,11,18000,11.112,,,120,,,,,,,,,,,wg-a,,,,AAXX 12124 07690 12468 41206 10180 20110 30097 40128 53006 60006 81232 91200=
07690,1997-04-12 15:00:00,18,1012.7,-0.1,56,9,20000,3.704,,,130,,,,,,,,,,25,wg-a,,,,AAXX 12154 07690 02570 71302 10180 20090 30096 40127 58001 61000 72586 82882 91500 333 ////=
07690,1997-04-12 18:00:00,17,1012.8,0.1,59,9,18000,3.704,,,110,10.5,18.9,,,,,,,,1,wg-a,,,,AAXX 12184 07690 12768 /1102 10170 20090 30097 40128 52001 60006 70186 81230 91800 333 10189 20105=
07690,1997-04-12 21:00:00,13,1013.9,1.1,77,9,15000,12.964,,,330,,,,,,,,,,,wg-a,,,,AAXX 12214 07690 12/65 03307 10130 20090 30108 40139 51011 60006 80000 92100=
07690,1997-04-12 23:00:00,12,1014.5,0.6,71,7,15000,18.52,,,340,,,,,,,,,,,wg-a,,,,AAXX 12234 07690 12/65 03410 10120 20070 30114 40145 50006 60006 80000 92300=
07690,1997-04-13 00:00:00,12,1014.5,0.6,71,7,15000,18.52,,,340,,,,,,,,,,,wg-a,,,,AAXX 13004 07690 12/65 /3410 10120 20070 30114 40145 50006 60006 80000 90000=
07690,1997-04-13 03:00:00,12,1015,0.5,71,7,10000,11.112,,,330,,,,,,,,,,,wg-a,,,,AAXX 13034 07690 12/60 /3306 10120 20070 30119 40150 53005 60006 90300=
07690,1997-04-13 06:00:00,11,1016.8,1.7,76,7,20000,11.112,,,330,10.9,16.5,,,,,,,,,wg-a,,,,AAXX 13064 07690 02570 63306 10110 20070 30136 40168 53017 60006 81530 90600 333 10165 20109 61000=
07690,1997-04-13 09:00:00,16,1018.2,1.5,72,11,15000,22.224,,,100,,,,,,,,,,,wg-a,,,,AAXX 13094 07690 12465 /1012 10160 20110 30151 40182 53015 60006 81830 90900=
07690,1997-04-13 12:00:00,17,1018.3,0.1,68,11,15000,18.52,,,90,,,,,,,,,,,wg-a,,,,AAXX 13124 07690 12465 /0910 10170 20110 30152 40183 50001 60006 81830 91200=
07690,1997-04-13 18:00:00,15,1018,0.2,59,7,500,11.112,,,100,11.5,17.6,,,,,,,,,wg-a,,,,AAXX 13184 07690 12/00 71006 10150 20070 30149 40180 53002 60006 8707/ 91800 333 10176 20115=
07690,1997-04-13 21:00:00,15,1019.1,1.1,67,9,15000,7.408,,,90,,,,,,,,,,,wg-a,,,,AAXX 13214 07690 12/65 70904 10150 20090 30160 40191 51011 60006 8707/ 92100=
07690,1997-04-14 00:00:00,12,1019,-0.2,82,9,15000,7.408,,,330,,,,,,,,,,,wg-a,,,,AAXX 14004 07690 12865 /3304 10120 20090 30158 40190 58002 60006 81070 90000=
07690,1997-04-14 03:00:00,10,1019.6,0.6,82,7,15000,11.112,,,330,,,,,,,,,,,wg-a,,,,AAXX 14034 07690 12/65 23306 10100 20070 30164 40196 51006 60006 82030 90300=
07690,1997-04-14 06:00:00,11,1020.4,0.8,71,6,25000,14.816,,,340,9.8,15.2,,,,,,,,,wg-a,,,,AAXX 14064 07690 02675 73408 10110 20060 30172 40204 51008 60006 81570 90600 333 10152 20098 60004=
07690,1997-04-14 09:00:00,15,1020.7,0.4,59,7,500,3.704,,,110,,,,,,,,,,,wg-a,,,,AAXX 14094 07690 12500 /1102 10150 20070 30176 40207 51004 60006 81170 90900=
07690,1997-04-14 12:00:00,17,1020.5,-0.2,59,9,500,22.224,,,100,,,,,,,,,,,wg-a,,,,AAXX 14124 07690 12500 21012 10170 20090 30174 40205 58002 60006 81130 91200=
07690,1997-04-14 15:00:00,16,1019.5,-1,68,10,500,14.816,,,110,,,,,,,,,,,wg-a,,,,AAXX 14154 07690 12500 21108 10160 20100 30164 40195 58010 60006 81130 91500=
07690,1997-04-14 18:00:00,14,1019.3,-0.2,77,10,500,3.704,,,140,11,17,,,,,,,,,wg-a,,,,AAXX 14184 07690 12500 31402 10140 20100 30162 40193 55002 60006 81130 91800 333 10170 20110=
07690,1997-04-14 21:00:00,12,1019.7,,88,10,20000,3.704,,,240,,,,,,,,,,,wg-a,,,,AAXX 14214 07690 12770 22402 10120 20100 30165 40197 60006 92100=
07690,1997-04-15 00:00:00,11,1018.3,-1.4,76,7,20000,14.816,,,330,,,,,,,,,,,wg-a,,,,AAXX 15004 07690 12570 53308 10110 20070 30151 40183 57014 60006 85500 90000=
07690,1997-04-15 03:00:00,10,1016.6,-1.7,71,5,20000,14.816,,,330,,,,,,,,,,,wg-a,,,,AAXX 15034 07690 12470 /3308 10100 20050 30134 40166 56017 60006 81500 90300=
07690,1997-04-15 06:00:00,10,1015.2,-1.4,71,5,25000,18.52,,,340,9.3,14.4,,,,,,,,,wg-a,,,,AAXX 15064 07690 02475 43410 10100 20050 30120 40152 56014 60006 84500 90600 333 10144 20093 60004=
07690,1997-04-15 09:00:00,15,1014,-1.1,67,9,15000,11.112,,,110,,,,,,,,,,,wg-a,,,,AAXX 15094 07690 12565 /1106 10150 20090 30109 40140 58011 60006 81800 90900=
07690,1997-04-15 12:00:00,16,1013,-1,68,10,12000,18.52,,,110,,,,,,,,,,,wg-a,,,,AAXX 15124 07690 12/62 01110 10160 20100 30099 40130 58010 60006 80000 91200=
07690,1997-04-15 15:00:00,16,1011.5,-1.5,68,10,12000,14.816,,,110,,,,,,,,,,,wg-a,,,,AAXX 15154 07690 12/62 01108 10160 20100 30084 40115 56015 60006 80000 91500=
07690,1997-04-15 18:00:00,15,1011.9,0.4,72,10,10000,18.52,,,90,9.8,16.3,,,,,,,,,wg-a,,,,AAXX 15184 07690 12/60 00910 10150 20100 30088 40119 53004 60006 80000 91800 333 10163 20098=
07690,1997-04-15 21:00:00,12,1012.5,0.6,88,10,10000,14.816,,,330,,,,,,,,,,,wg-a,,,,AAXX 15214 07690 12/60 03308 10120 20100 30094 40125 51006 60006 80000 92100=
07690,1997-04-16 00:00:00,11,1012.9,0.4,87,9,12000,11.112,,,340,,,,,,,,,,,wg-a,,,,AAXX 16004 07690 12/62 03406 10110 20090 30098 40129 52004 60006 80000 90000=
07690,1997-04-16 03:00:00,10,1012.9,-0.1,82,7,12000,14.816,,,330,,,,,,,,,,,wg-a,,,,AAXX 16034 07690 12/62 03308 10100 20070 30097 40129 55001 60006 80000 90300=
07690,1997-04-16 06:00:00,10,1013.3,0.4,82,7,20000,14.816,,,330,9.4,15,,,,,,,,,wg-a,,,,AAXX 16064 07690 02470 /3308 10100 20070 30101 40133 52004 60006 81500 90600 333 10150 20094 60004=
07690,1997-04-16 09:00:00,16,1013.7,0.5,68,10,20000,22.224,,,100,,,,,,,,,,,wg-a,,,,AAXX 16094 07690 12570 41012 10160 20100 30106 40137 53005 60006 82101 90900=
07690,1997-04-16 12:00:00,16,1012.6,-1.1,55,7,20000,18.52,,,110,,,,,,,,,,,wg-a,,,,AAXX 16124 07690 12570 51110 10160 20070 30095 40126 58011 60006 85501 91200=
07690,1997-04-16 15:00:00,15,1011.3,-1.3,55,6,20000,11.112,,,110,,,,,,,,,,,wg-a,,,,AAXX 16154 07690 12570 71106 10150 20060 30082 40113 58013 60006 878// 91500=
07690,1997-04-16 18:00:00,14,1011,-0.3,63,7,20000,7.408,,,330,10.1,17.1,,,,,,,,,wg-a,,,,AAXX 16184 07690 12670 73304 10140 20070 30079 40110 58003 60006 878// 91800 333 10171 20101=
07690,1997-04-16 21:00:00,13,1011.7,0.7,62,6,15000,3.704,,,330,,,,,,,,,,,wg-a,,,,AAXX 16214 07690 12665 73302 10130 20060 30086 40117 52007 60006 877// 92100=
07690,1997-04-17 00:00:00,14,1013.1,1.4,63,7,15000,42.596,,,100,,,,,,,,,,80,wg-a,,,,AAXX 17004 07690 02565 71023 10140 20070 30100 40131 51014 61000 78086 878// 90000 333 6100=
07690,1997-04-17 03:00:00,11,1013.8,0.6,62,4,15000,38.892,,,80,,,,,,,,,,21,wg-a,,,,AAXX 17034 07690 02565 70821 10110 20040 30106 40138 50006 61000 72186 878// 90300 333 ////=
07690,1997-04-17 06:00:00,12,1014,0.3,54,3,20000,31.484,,94.452,80,10.8,14.9,,,,,,,,2,wg-a,,,,AAXX 17064 07690 02570 70817 10120 20030 30109 40140 53003 60006 70286 8587/ 90600 333 10149 20108 61000 91051=
07690,1997-04-17 09:00:00,12,1015.4,1.4,44,0,20000,38.892,,,90,,,,,,,,,,,wg-a,,,,AAXX 17094 07690 12570 70921 10120 20000 30123 40154 52014 60006 8587/ 90900=
07690,1997-04-17 12:00:00,12,1016.3,0.9,38,-2,500,42.596,,68.524,80,,,,,,,,,,,wg-a,,,,AAXX 17124 07690 12500 /0823 10120 21020 30132 40163 50009 60006 82830 91200 333 91037=
07690,1997-04-17 15:00:00,13,1015.8,-0.5,38,-1,500,38.892,,,100,,,,,,,,,,,wg-a,,,,AAXX 17154 07690 12600 71021 10130 21010 30127 40158 55005 60006 81572 91500=
07690,1997-04-17 18:00:00,12,1016.7,0.9,47,1,500,22.224,,,80,11.1,13.7,,,,,,,,,wg-a,,,,AAXX 17184 07690 12/00 /0812 10120 20010 30136 40167 53009 60006 81032 91800 333 10137 20111=
07690,1997-04-17 21:00:00,8,1018.2,1.4,66,2,25000,18.52,,,330,,,,,,,,,,,wg-a,,,,AAXX 17214 07690 12/75 23310 10080 20020 30150 40182 51014 60006 80002 92100=
07690,1997-04-18 00:00:00,8,1018.6,0.4,66,2,20000,18.52,,,340,,,,,,,,,,,wg-a,,,,AAXX 18004 07690 12/70 23410 10080 20020 30154 40186 53004 60006 80002 90000=
07690,1997-04-18 03:00:00,7,1017.7,-0.9,66,1,20000,25.928,,,330,,,,,,,,,,,wg-a,,,,AAXX 18034 07690 12/70 03314 10070 20010 30145 40177 58009 60006 80000 90300=
07690,1997-04-18 06:00:00,7,1018.1,0.4,61,0,50000,22.224,,,340,6.2,12.4,,,,,,,,,wg-a,,,,AAXX 18064 07690 02/84 13412 10070 20000 30149 40181 53004 60006 80001 90600 333 10124 20062 60004=
07690,1997-04-18 12:00:00,15,1017.5,-0.6,39,1,50000,18.52,,,90,,,,,,,,,,,wg-a,,,,AAXX 18124 07690 12/84 10910 10150 20010 30144 40175 58006 60006 80001 91200=
07690,1997-04-18 15:00:00,15,1015.6,-1.9,31,-2,50000,14.816,,,90,,,,,,,,,,,wg-a,,,,AAXX 18154 07690 12684 20908 10150 21020 30125 40156 57019 60006 81101 91500=
07690,1997-04-18 18:00:00,14,1014.7,-0.9,38,0,50000,11.112,,,90,7,15.5,,,,,,,,,wg-a,,,,AAXX 18184 07690 12/84 20906 10140 20000 30116 40147 56009 60006 80001 91800 333 10155 20070=
07690,1997-04-18 21:00:00,9,1014.9,0.1,57,1,20000,18.52,,,330,,,,,,,,,,,wg-a,,,,AAXX 18214 07690 12/70 03310 10090 20010 30117 40149 50001 60006 80000 92100=
07690,1997-04-19 00:00:00,8,1013.8,-1.1,57,0,20000,18.52,,,330,,,,,,,,,,,wg-a,,,,AAXX 19004 07690 12/70 03310 10080 20000 30106 40138 56011 60006 80000 90000=
07690,1997-04-19 03:00:00,9,1011.8,-2,57,1,20000,7.408,,,340,,,,,,,,,,,wg-a,,,,AAXX 19034 07690 12/70 23404 10090 20010 30086 40118 58020 60006 80002 90300=
07690,1997-04-19 06:00:00,9,1011.3,-0.5,53,0,40000,14.816,,,330,8,13.5,,,,,,,,,wg-a,,,,AAXX 19064 07690 02/82 53308 10090 20000 30081 40113 58005 60006 81032 90600 333 10135 20080 60004=
07690,1997-04-19 09:00:00,14,1011.4,0.2,51,4,50000,11.112,,,160,,,,,,,,,,,wg-a,,,,AAXX 19094 07690 12/84 51606 10140 20040 30083 40114 53002 60006 80002 90900=
07690,1997-04-19 12:00:00,15,1010.3,-1.1,44,3,50000,11.112,,,150,,,,,,,,,,,wg-a,,,,AAXX 19124 07690 12/84 61506 10150 20030 30072 40103 58011 60006 80005 91200=
07690,1997-04-19 15:00:00,15,1008.8,-1.5,55,6,50000,11.112,,,180,,,,,,,,,,,wg-a,,,,AAXX 19154 07690 12784 71806 10150 20060 30057 40088 58015 60006 81506 91500=
07690,1997-04-19 18:00:00,13,1007.2,-1.6,62,6,50000,7.408,,,210,9.1,15.6,,,,,,,,,wg-a,,,,AAXX 19184 07690 12784 72104 10130 20060 30041 40072 58016 60006 8152/ 91800 333 10156 20091=
07690,1997-04-19 21:00:00,13,1007.8,0.6,62,6,15000,3.704,,,350,,,,,,,,,,,wg-a,,,,AAXX 19214 07690 12765 83502 10130 20060 30047 40078 50006 60006 8157/ 92100=
07690,1997-04-20 00:00:00,11,1007.4,-0.4,87,9,12000,11.112,,,330,,,,0,,,,,,60,wg-a,,,,AAXX 20004 07690 02662 83306 10110 20090 30043 40074 55004 60016 76062 8257/ 90000 333 60007=
07690,1997-04-20 03:00:00,10,1005.1,-2.3,100,10,10000,7.408,,,330,,,,4,,,,,,61,wg-a,,,,AAXX 20034 07690 12560 83304 10100 20100 30020 40051 58023 60047 76166 8587/ 90300=
07690,1997-04-20 06:00:00,10,1004.1,-1,93,9,6000,7.408,,,340,9.6,13.2,,,,,,,,61,wg-a,,,,AAXX 20064 07690 02356 83404 10100 20090 30010 40041 56010 61000 76166 8587/ 90600 333 10132 20096 6011=
07690,1997-04-20 09:00:00,11,1002.9,-1.2,94,10,12000,7.408,,,110,,,,1,,,,,,3,wg-a,,,,AAXX 20094 07690 12362 81104 10110 20100 39998 40029 56012 60017 70362 8687/ 90900=
07690,1997-04-20 12:00:00,12,1001.9,-1,88,10,20000,14.816,,,120,,,,,,,,,,1,wg-a,,,,AAXX 20124 07690 12470 81208 10120 20100 39988 40019 58010 60016 70162 878// 91200=
07690,1997-04-20 15:00:00,13,1000.5,-1.4,82,10,500,18.52,,,90,,,,,,,,,,,wg-a,,,,AAXX 20154 07690 12400 70910 10130 20100 39974 40005 58014 60006 878// 91500=
07690,1997-04-20 18:00:00,13,1000.7,0.2,82,10,15000,22.224,,,90,9.6,13.2,,,,,,,,,wg-a,,,,AAXX 20184 07690 12465 70912 10130 20100 39976 40007 53002 60006 878// 91800 333 10132 20096=
07690,1997-04-20 21:00:00,12,1001.6,0.9,88,10,15000,11.112,,,80,,,,,,,,,,,wg-a,,,,AAXX 20214 07690 12465 /0806 10120 20100 39985 40016 51009 60006 86800 92100=
07690,1997-04-21 00:00:00,10,1000.2,-1.4,93,9,15000,11.112,,,340,,,,,,,,,,,wg-a,,,,AAXX 21004 07690 12465 43406 10100 20090 39971 40002 58014 60006 84800 90000=
07690,1997-04-21 03:00:00,9,998.8,-1.4,87,7,15000,11.112,,,40,,,,,,,,,,,wg-a,,,,AAXX 21034 07690 12/65 00406 10090 20070 39957 49988 56014 60006 80000 90300=
07690,1997-04-21 06:00:00,12,997.8,-1,38,-2,40000,14.816,,,30,9.1,13.2,,,,,1,,,,wg-a,,,,AAXX 21064 07690 02782 /0308 10120 21020 39947 49978 56010 60006 81500 90600 333 10132 20091 60014=
07690,1997-04-21 09:00:00,16,997.1,-0.6,31,-1,50000,11.112,,,130,,,,,,,,,,,wg-a,,,,AAXX 21094 07690 12684 21306 10160 21010 39941 49971 55006 60006 81531 90900=
07690,1997-04-21 12:00:00,18,995.3,-1.8,28,-1,50000,31.484,,,100,,,,,,,,,,,wg-a,,,,AAXX 21124 07690 12684 21017 10180 21010 39923 49953 58018 60006 81501 91200=
07690,1997-04-21 15:00:00,18,994.3,-1,30,0,50000,35.188,,61.116,100,,,,,,,,,,,wg-a,,,,AAXX 21154 07690 12684 41019 10180 20000 39913 49943 56010 60006 82501 91500 333 91033=
07690,1997-04-21 18:00:00,15,996.3,1.9,48,4,500,31.484,,61.116,270,12.3,19,,,,,,,,,wg-a,,,,AAXX 21184 07690 12600 32717 10150 20040 39932 49963 53019 60006 82801 91800 333 10190 20123 91033=
07690,1997-04-21 21:00:00,12,998.4,2.1,67,6,20000,14.816,,,270,,,,,,,,,,,wg-a,,,,AAXX 21214 07690 12/70 /2708 10120 20060 39953 49984 51021 60006 80000 92100=
07690,1997-04-22 00:00:00,8,999.1,0.7,66,2,20000,14.816,,,330,,,,,,,,,,,wg-a,,,,AAXX 22004 07690 12/70 03308 10080 20020 39960 49991 51007 60006 80000 90000=
07690,1997-04-22 03:00:00,7,998.6,-0.5,61,0,20000,22.224,,,330,,,,,,,,,,,wg-a,,,,AAXX 22034 07690 12/70 03312 10070 20000 39955 49986 56005 60006 80000 90300=
07690,1997-04-22 06:00:00,8,999.5,0.9,53,-1,35000,22.224,,,340,6.9,14.6,,,,,,,,,wg-a,,,,AAXX 22064 07690 02581 /3412 10080 21010 39964 49995 53009 60006 81400 90600 333 10146 20069 60004=
07690,1997-04-22 09:00:00,14,1000.4,0.9,51,4,25000,11.112,,,160,,,,,,,,,,,wg-a,,,,AAXX 22094 07690 12575 /1606 10140 20040 39973 40004 51009 60006 81200 90900=
07690,1997-04-22 12:00:00,15,1001,0.6,63,8,20000,22.224,,,180,,,,,,,,,,,wg-a,,,,AAXX 22124 07690 12670 31812 10150 20080 39979 40010 52006 60006 83800 91200=
07690,1997-04-22 15:00:00,14,1002.1,1.1,67,8,9000,14.816,,,180,,,,,,,,,,,wg-a,,,,AAXX 22154 07690 12559 71808 10140 20080 39990 40021 53011 60006 878// 91500=
07690,1997-04-22 18:00:00,13,1003.8,1.7,72,8,10000,14.816,,,200,7.9,15.4,,,,,,,,,wg-a,,,,AAXX 22184 07690 12360 /2008 10130 20080 30007 40038 51017 60006 86500 91800 333 10154 20079=
07690,1997-04-22 21:00:00,11,1006.8,3,94,10,10000,11.112,,,330,,,,,,,,,,,wg-a,,,,AAXX 22214 07690 12560 /3306 10110 20100 30037 40068 51030 60006 85500 92100=
07690,1997-04-23 00:00:00,10,1009.5,2.6,87,8,15000,14.816,,,340,,,,,,,,,,,wg-a,,,,AAXX 23004 07690 12765 33408 10100 20080 30063 40095 51026 60006 83500 90000=
07690,1997-04-23 03:00:00,9,1010.8,1.3,87,7,15000,14.816,,,340,,,,,,,,,,,wg-a,,,,AAXX 23034 07690 12765 /3408 10090 20070 30076 40108 53013 60006 81500 90300=
07690,1997-04-23 06:00:00,9,1013.3,2.5,81,6,18000,22.224,,,330,8.6,13.3,,,,,,,,,wg-a,,,,AAXX 23064 07690 02568 /3312 10090 20060 30101 40133 53025 60006 81130 90600 333 10133 20086 60004=
07690,1997-04-23 09:00:00,15,1015.4,2.2,55,6,18000,14.816,,,100,,,,,,,,,,,wg-a,,,,AAXX 23094 07690 12568 21008 10150 20060 30123 40154 51022 60006 81230 90900=
07690,1997-04-23 12:00:00,16,1016.2,0.8,59,8,500,14.816,,,140,,,,,,,,,,,wg-a,,,,AAXX 23124 07690 12500 21408 10160 20080 30131 40162 51008 60006 81230 91200=
07690,1997-04-23 15:00:00,16,1016.5,0.3,59,8,500,11.112,,,170,,,,,,,,,,,wg-a,,,,AAXX 23154 07690 12500 61706 10160 20080 30134 40165 53003 60006 81230 91500=
07690,1997-04-23 18:00:00,14,1017.8,1.3,72,9,20000,11.112,,,210,9.2,16.5,,,,,,,,,wg-a,,,,AAXX 23184 07690 12570 72106 10140 20090 30147 40178 51013 60006 8123/ 91800 333 10165 20092=
07690,1997-04-23 21:00:00,13,1019.7,1.9,77,9,20000,7.408,,,260,,,,,,,,,,,wg-a,,,,AAXX 23214 07690 12/70 72604 10130 20090 30166 40197 51019 60006 8703/ 92100=
07690,1997-04-24 00:00:00,11,1020.5,0.7,82,8,20000,11.112,,,340,,,,,,,,,,,wg-a,,,,AAXX 24004 07690 12/70 /3406 10110 20080 30173 40205 51007 60006 80000 90000=
07690,1997-04-24 03:00:00,10,1020.9,0.4,82,7,20000,14.816,,,340,,,,,,,,,,,wg-a,,,,AAXX 24034 07690 12/70 03408 10100 20070 30177 40209 53004 60006 80000 90300=
07690,1997-04-24 06:00:00,11,1022.7,1.8,76,7,20000,14.816,,,330,9.8,13.7,,,,,,,,,wg-a,,,,AAXX 24064 07690 02570 53308 10110 20070 30195 40227 53018 60006 85800 90600 333 10137 20098 60004=
07690,1997-04-24 12:00:00,16,1023.9,-0.3,63,9,25000,18.52,,,100,,,,,,,,,,,wg-a,,,,AAXX 24124 07690 12575 41010 10160 20090 30208 40239 58003 60006 82261 91200=
07690,1997-04-24 18:00:00,14,1022.7,-0.5,77,10,20000,14.816,,,220,10.8,16.3,,,,,,,,,wg-a,,,,AAXX 24184 07690 12570 22208 10140 20100 30196 40227 55005 60006 81402 91800 333 10163 20108=
07690,1997-04-24 21:00:00,12,1023.2,0.4,82,9,15000,11.112,,,330,,,,,,,,,,,wg-a,,,,AAXX 24214 07690 12/65 03306 10120 20090 30200 40232 51004 60006 80000 92100=
07690,1997-04-25 00:00:00,11,1022.7,-0.5,82,8,15000,14.816,,,340,,,,,,,,,,,wg-a,,,,AAXX 25004 07690 12/65 03408 10110 20080 30195 40227 58005 60006 80000 90000=
07690,1997-04-25 03:00:00,10,1022.2,-0.5,82,7,15000,14.816,,,340,,,,,,,,,,,wg-a,,,,AAXX 25034 07690 12/65 03408 10100 20070 30190 40222 56005 60006 80000 90300=
07690,1997-04-25 06:00:00,10,1023.3,1.1,76,6,12000,18.52,,,330,9.5,14.1,,,,,,,,,wg-a,,,,AAXX 25064 07690 02462 /3310 10100 20060 30201 40233 53011 60006 81400 90600 333 10141 20095 60004=
07690,1997-04-25 09:00:00,15,1023.4,0.2,72,10,18000,11.112,,,150,,,,,,,,,,,wg-a,,,,AAXX 25094 07690 12468 41506 10150 20100 30203 40234 53002 60006 81501 90900=
07690,1997-04-25 12:00:00,16,1022.5,-0.9,63,9,15000,11.112,,,160,,,,,,,,,,,wg-a,,,,AAXX 25124 07690 12465 21606 10160 20090 30194 40225 58009 60006 81501 91200=
07690,1997-04-25 15:00:00,17,1019.9,-2.6,77,13,15000,31.484,,,210,,,,,,,,,,,wg-a,,,,AAXX 25154 07690 12465 32117 10170 20130 30168 40199 58026 60006 81501 91500=
07690,1997-04-25 18:00:00,16,1018.9,-1,77,12,15000,29.632,,,230,10.5,17.7,,,,,,,,,wg-a,,,,AAXX 25184 07690 12565 /2316 10160 20120 30158 40189 56010 60006 81502 91800 333 10177 20105=
07690,1997-04-25 21:00:00,14,1019.3,0.4,82,11,15000,3.704,,,300,,,,,,,,,,,wg-a,,,,AAXX 25214 07690 12/65 63002 10140 20110 30162 40193 51004 60006 81032 92100=
07690,1997-04-26 00:00:00,12,1018.9,-0.5,88,10,15000,11.112,,,330,,,,,,,,,,,wg-a,,,,AAXX 26004 07690 12/65 13306 10120 20100 30157 40189 58005 60006 80002 90000=
07690,1997-04-26 03:00:00,11,1016.8,-2.1,87,9,15000,14.816,,,330,,,,,,,,,,,wg-a,,,,AAXX 26034 07690 12/65 33308 10110 20090 30136 40168 58021 60006 80001 90300=
07690,1997-04-26 06:00:00,11,1016.6,-0.2,87,9,12000,7.408,,,320,10.4,15.8,,,,,,,,,wg-a,,,,AAXX 26064 07690 02/62 73204 10110 20090 30134 40166 55002 60006 82032 90600 333 10158 20104 60004=
07690,1997-04-26 09:00:00,16,1016.4,-0.1,72,11,12000,18.52,,,90,,,,,,,,,,,wg-a,,,,AAXX 26094 07690 12662 /0910 10160 20110 30133 40164 58001 60006 82502 90900=
07690,1997-04-26 12:00:00,17,1015.1,-1.3,68,11,9000,25.928,,,90,,,,,,,,,,,wg-a,,,,AAXX 26124 07690 12559 /0914 10170 20110 30120 40151 58013 60006 83102 91200=
07690,1997-04-26 15:00:00,17,1014,-1.1,82,14,7000,25.928,,,100,,,,,,,,,,,wg-a,,,,AAXX 26154 07690 12457 41014 10170 20140 30109 40140 58011 60006 83102 91500=
07690,1997-04-26 18:00:00,16,1014.4,0.4,88,14,500,14.816,,,90,11.2,18.2,,,,,,,,,wg-a,,,,AAXX 26184 07690 12400 80908 10160 20140 30113 40144 53004 60006 8263/ 91800 333 10182 20112=
07690,1997-04-26 21:00:00,15,1014.6,0.2,94,14,7000,11.112,,,90,,,,,,,,,,,wg-a,,,,AAXX 26214 07690 12457 70906 10150 20140 30115 40146 50002 60006 8557/ 92100=
07690,1997-04-27 00:00:00,15,1013.2,-1.4,94,14,8000,0,,,0,,,,,,,,,,60,wg-a,,,,AAXX 27004 07690 02458 70000 10150 20140 30101 40132 58014 61000 76062 875// 90000 333 6100=
07690,1997-04-27 03:00:00,14,1010,-3.2,100,14,4500,11.112,,,220,,,,1,,,,,,10,wg-a,,,,AAXX 27034 07690 12245 82206 10140 20140 30069 40100 58032 60017 71066 875// 90300=
07690,1997-04-27 06:00:00,14,1010.2,0.2,100,14,4500,7.408,,,230,14,15.8,,,,,,,,10,wg-a,,,,AAXX 27064 07690 02145 82304 10140 20140 30071 40102 53002 61000 71066 877// 90600 333 10158 20140 6005=
07690,1997-04-27 09:00:00,17,1007,-3.2,72,12,40000,25.928,,,260,,,,0,,,,,,1,wg-a,,,,AAXX 27094 07690 12582 /2614 10170 20120 30039 40070 56032 60007 70161 81132 90900=
07690,1997-04-27 12:00:00,22,1004.1,-2.8,41,8,50000,31.484,,53.708,260,,,,,,,,,,3,wg-a,,,,AAXX 27124 07690 12584 /2617 10220 20080 30011 40041 56028 60016 70361 81202 91200 333 91029=
07690,1997-04-27 18:00:00,16,1008.9,4.5,82,13,15000,14.816,,72.228,110,13.5,24.2,,,,,,,,,wg-a,,,,AAXX 27184 07690 12565 31108 10160 20130 30058 40089 51045 60006 81402 91800 333 10242 20135 91039=
07690,1997-04-27 21:00:00,14,1011.4,2.5,88,12,15000,3.704,,,270,,,,,,,,,,,wg-a,,,,AAXX 27214 07690 12565 22702 10140 20120 30083 40114 51025 60006 81502 92100=
07690,1997-04-28 00:00:00,13,1011.7,0.3,88,11,15000,14.816,,,340,,,,,,,,,,,wg-a,,,,AAXX 28004 07690 12565 13408 10130 20110 30086 40117 53003 60006 81500 90000=
07690,1997-04-28 03:00:00,12,1012.8,1.1,76,8,15000,14.816,,,330,,,,,,,,,,,wg-a,,,,AAXX 28034 07690 12/65 03308 10120 20080 30097 40128 53011 60006 80000 90300=
07690,1997-04-28 06:00:00,13,1014.7,1.9,62,6,50000,11.112,,,340,10.9,16.4,,,,,,,,,wg-a,,,,AAXX 28064 07690 02284 23406 10130 20060 30116 40147 53019 60006 81602 90600 333 10164 20109 60004=
07690,1997-04-28 12:00:00,18,1016.4,-0,68,12,50000,14.816,,,170,,,,,,,,,,,wg-a,,,,AAXX 28124 07690 12684 41708 10180 20120 30133 40164 55000 60006 81244 91200=
07690,1997-04-28 15:00:00,18,1015.1,-1.3,68,12,50000,11.112,,,180,,,,,,,,,,,wg-a,,,,AAXX 28154 07690 12684 71806 10180 20120 30120 40151 57013 60006 81202 91500=
07690,1997-04-28 18:00:00,17,1013.9,-1.2,63,10,50000,3.704,,,110,13,18.4,,,,,,,,,wg-a,,,,AAXX 28184 07690 12784 71102 10170 20100 30108 40139 58012 60006 81422 91800 333 10184 20130=
07690,1997-04-28 21:00:00,16,1013.3,-0.6,82,13,20000,3.704,,,100,,,,,,,,,,,wg-a,,,,AAXX 28214 07690 12/70 61002 10160 20130 30102 40133 56006 60006 84072 92100=
07690,1997-04-29 03:00:00,12,1009.6,-1.8,71,7,20000,11.112,,,310,,,,,,,,,,,wg-a,,,,AAXX 29034 07690 12/70 23106 10120 20070 30065 40096 56018 60006 81032 90300=
07690,1997-04-29 06:00:00,11,1008.4,-1.2,76,7,40000,11.112,,,330,10.8,17.1,,,,,,,,,wg-a,,,,AAXX 29064 07690 02582 53306 10110 20070 30053 40084 56012 60006 81532 90600 333 10171 20108 60004=
07690,1997-04-29 12:00:00,18,1009.2,0.5,59,10,50000,14.816,,,100,,,,,,,,,,,wg-a,,,,AAXX 29124 07690 12584 21008 10180 20100 30061 40092 50005 60006 82100 91200=
07690,1997-04-29 18:00:00,16,1009.8,0.8,82,13,50000,7.408,,,200,11.3,18.5,,,,,,,,,wg-a,,,,AAXX 29184 07690 12584 42004 10160 20130 30067 40098 51008 60006 82230 91800 333 10185 20113=
07690,1997-04-29 21:00:00,14,1010,0.2,82,11,20000,7.408,,,340,,,,,,,,,,,wg-a,,,,AAXX 29214 07690 12570 /3404 10140 20110 30069 40100 50002 60006 81500 92100=
07690,1997-04-30 00:00:00,14,1009.6,-0.4,77,10,20000,14.816,,,340,,,,,,,,,,,wg-a,,,,AAXX 30004 07690 12570 /3408 10140 20100 30065 40096 58004 60006 81500 90000=
07690,1997-04-30 03:00:00,15,1009.5,-0.1,63,8,20000,18.52,,,60,,,,,,,,,,,wg-a,,,,AAXX 30034 07690 12570 10610 10150 20080 30064 40095 55001 60006 81500 90300=
07690,1997-04-30 06:00:00,17,1011.9,2.4,63,10,20000,22.224,,,70,13.6,16.9,,,,,,,,,wg-a,,,,AAXX 30064 07690 02570 30712 10170 20100 30088 40119 53024 60006 81130 90600 333 10169 20136 60004=
07690,1997-04-30 09:00:00,17,1013.2,1.3,72,12,40000,18.52,,,240,,,,,,,,,,,wg-a,,,,AAXX 30094 07690 12582 52410 10170 20120 30101 40132 50013 60006 82330 90900=
07690,1997-04-30 12:00:00,20,1014.2,1,60,12,40000,18.52,,,210,,,,,,,,,,,wg-a,,,,AAXX 30124 07690 12582 42110 10200 20120 30111 40142 53010 60006 83340 91200=
07690,1997-04-30 15:00:00,20,1014.5,0.4,56,11,40000,18.52,,,200,,,,,,,,,,,wg-a,,,,AAXX 30154 07690 12682 /2010 10200 20110 30115 40145 51004 60006 81260 91500=
07690,1997-04-30 18:00:00,18,1015.2,0.6,64,11,40000,14.816,,,230,16.2,20.6,,,,,,,,,wg-a,,,,AAXX 30184 07690 12682 /2308 10180 20110 30121 40152 53006 60006 81102 91800 333 10206 20162=
07690,1997-04-30 21:00:00,16,1017.1,1.9,55,7,25000,14.816,,,340,,,,,,,,,,,wg-a,,,,AAXX 30214 07690 12675 23408 10160 20070 30140 40171 51019 60006 81560 92100=
07690,1997-05-01 00:00:00,16,1018,0.9,55,7,25000,11.112,,,340,,,,,,,,,,,wg-a,,,,AAXX 01004 07690 12775 /3406 10160 20070 30149 40180 53009 60006 82530 90000=
07690,1997-05-01 03:00:00,15,1018.2,0.2,59,7,25000,14.816,,,340,,,,,,,,,,,wg-a,,,,AAXX 01034 07690 12/75 23408 10150 20070 30151 40182 53002 60006 82030 90300=
07690,1997-05-01 06:00:00,15,1020.5,2.3,59,7,50000,11.112,,,330,14.1,17.8,,,,,,,,,wg-a,,,,AAXX 01064 07690 02884 23306 10150 20070 30174 40205 52023 60006 82080 90600 333 10178 20141 60004=
07690,1997-05-01 12:00:00,21,1021.5,0.3,40,7,50000,7.408,,,120,,,,,,,,,,,wg-a,,,,AAXX 01124 07690 12584 31204 10210 20070 30184 40215 51003 60006 81180 91200=
07690,1997-05-01 15:00:00,20,1021.6,0.1,56,11,50000,3.704,,,150,,,,,,,,,,,wg-a,,,,AAXX 01154 07690 12584 41502 10200 20110 30185 40216 52001 60006 82280 91500=
07690,1997-05-01 18:00:00,17,1022.4,0.8,72,12,40000,7.408,,,210,14.9,21.6,,,,,,,,,wg-a,,,,AAXX 01184 07690 12582 32104 10170 20120 30193 40224 52008 60006 81283 91800 333 10216 20149=
07690,1997-05-01 21:00:00,15,1024.1,1.7,63,8,20000,14.816,,,340,,,,,,,,,,,wg-a,,,,AAXX 01214 07690 12/70 03408 10150 20080 30210 40241 51017 60006 80000 92100=
07690,1997-05-02 00:00:00,15,1024.6,0.5,63,8,20000,18.52,,,340,,,,,,,,,,,wg-a,,,,AAXX 02004 07690 12/70 03410 10150 20080 30215 40246 51005 60006 80000 90000=
07690,1997-05-02 03:00:00,14,1025,0.4,63,7,20000,18.52,,,340,,,,,,,,,,,wg-a,,,,AAXX 02034 07690 12/70 03410 10140 20070 30219 40250 51004 60006 80000 90300=
07690,1997-05-02 06:00:00,14,1026.1,1.1,63,7,50000,25.928,,,340,13.3,17.3,,,,,,,,,wg-a,,,,AAXX 02064 07690 02/84 13414 10140 20070 30230 40261 51011 60006 80001 90600 333 10173 20133 60004=
07690,1997-05-02 09:00:00,21,1026.4,0.3,35,5,50000,11.112,,,170,,,,,,,,,,,wg-a,,,,AAXX 02094 07690 12/84 11706 10210 20050 30233 40264 51003 60006 80001 90900=
07690,1997-05-02 12:00:00,20,1026.1,-0.3,56,11,50000,14.816,,,180,,,,,,,,,,,wg-a,,,,AAXX 02124 07690 12584 /1808 10200 20110 30230 40261 58003 60006 81100 91200=
07690,1997-05-02 15:00:00,20,1024.5,-1.6,40,6,50000,7.408,,,140,,,,,,,,,,,wg-a,,,,AAXX 02154 07690 12684 21404 10200 20060 30214 40245 58016 60006 81101 91500=
07690,1997-05-02 18:00:00,19,1024.2,-0.3,56,10,50000,3.704,,,170,14.4,21.8,,,,,,,,,wg-a,,,,AAXX 02184 07690 12/84 21702 10190 20100 30211 40242 55003 60006 81031 91800 333 10218 20144=
07690,1997-05-02 21:00:00,15,1024.1,-0.1,63,8,500,14.816,,,330,,,,,,,,,,,wg-a,,,,AAXX 02214 07690 12/00 03308 10150 20080 30210 40241 58001 60006 80000 92100=
07690,1997-05-03 00:00:00,15,1023.9,-0.2,59,7,500,14.816,,,340,,,,,,,,,,,wg-a,,,,AAXX 03004 07690 12/00 03408 10150 20070 30208 40239 56002 60006 80000 90000=
07690,1997-05-03 06:00:00,16,1022.5,-0,55,7,50000,11.112,,,340,14.2,18.6,,,,,,,,,wg-a,,,,AAXX 03064 07690 02/84 13406 10160 20070 30194 40225 55000 60006 80001 90600 333 10186 20142 60004=
07690,1997-05-03 09:00:00,19,1022.2,-0.3,49,8,50000,14.816,,,170,,,,,,,,,,,wg-a,,,,AAXX 03094 07690 12/84 21708 10190 20080 30191 40222 55003 60006 80001 90900=
07690,1997-05-03 12:00:00,20,1020.1,-2.1,64,13,50000,14.816,,,200,,,,,,,,,,,wg-a,,,,AAXX 03124 07690 12/84 22008 10200 20130 30170 40201 58021 60006 80001 91200=
07690,1997-05-03 18:00:00,19,1016.7,-0.4,56,10,50000,31.484,,64.82,210,15.8,21.2,,,,,,,,,wg-a,,,,AAXX 03184 07690 12/84 12117 10190 20100 30136 40167 56004 60006 80001 91800 333 10212 20158 91035=
07690,1997-05-03 21:00:00,16,1018.2,1.5,77,12,20000,18.52,,,210,,,,,,,,,,,wg-a,,,,AAXX 03214 07690 12/70 02110 10160 20120 30151 40182 51015 60006 80000 92100=
07690,1997-05-04 00:00:00,13,1017.2,-1,72,8,20000,7.408,,,330,,,,,,,,,,,wg-a,,,,AAXX 04004 07690 12/70 03304 10130 20080 30141 40172 58010 60006 80000 90000=
07690,1997-05-04 06:00:00,13,1016,-0.1,72,8,22000,11.112,,,330,11.9,18.7,,,,,,,,,wg-a,,,,AAXX 04064 07690 02472 /3306 10130 20080 30129 40160 55001 60006 82532 90600 333 10187 20119 60004=
07690,1997-05-04 09:00:00,17,1016.2,0.2,82,14,18000,18.52,,,100,,,,,,,,,,,wg-a,,,,AAXX 04094 07690 12468 41010 10170 20140 30131 40162 51002 60006 82232 90900=
07690,1997-05-04 12:00:00,18,1016,-0.2,73,13,15000,14.816,,,110,,,,,,,,,,,wg-a,,,,AAXX 04124 07690 12565 61108 10180 20130 30129 40160 58002 60006 83932 91200=
07690,1997-05-04 15:00:00,18,1014.9,-1.1,73,13,15000,7.408,,,140,,,,,,,,,,,wg-a,,,,AAXX 04154 07690 12565 71404 10180 20130 30118 40149 58011 60006 8383/ 91500=
07690,1997-05-04 18:00:00,17,1014,-0.9,88,15,15000,7.408,,,180,13,18.7,,0,,,,,,1,wg-a,,,,AAXX 04184 07690 02365 71804 10170 20150 30109 40140 56009 60006 70162 8583/ 91800 333 10187 20130 60007=
07690,1997-05-05 00:00:00,15,1013.2,-0.9,88,13,15000,3.704,,,280,,,,,,,,,,,wg-a,,,,AAXX 05004 07690 12465 72802 10150 20130 30101 40132 58009 60006 86831 90000=
07690,1997-05-05 03:00:00,15,1011.6,-1.6,94,14,10000,7.408,,,80,,,,0,,,,,,1,wg-a,,,,AAXX 05034 07690 12460 /0804 10150 20140 30085 40116 58016 60007 70162 86800 90300=
07690,1997-05-05 06:00:00,15,1010.9,-0.7,94,14,500,7.408,,,100,14.1,16.7,,,,,,,,3,wg-a,,,,AAXX 05064 07690 02300 71004 10150 20140 30078 40109 55007 60006 70362 8553/ 90600 333 10167 20141 60004=
07690,1997-05-05 12:00:00,17,1008.6,-1.3,63,10,15000,22.224,,,30,,,,2,,,,,,29,wg-a,,,,AAXX 05124 07690 02465 /0312 10170 20100 30055 40086 58013 60026 72996 81130 91200 333 60027=
07690,1997-05-05 15:00:00,18,1006.6,-2,59,10,500,14.816,,,100,,,,,,,,,,,wg-a,,,,AAXX 05154 07690 12500 /1008 10180 20100 30035 40066 58020 60006 83530 91500=
07690,1997-05-05 18:00:00,17,1005.5,-1.1,68,11,25000,18.52,,,90,13.7,18.9,,,,,,,,,wg-a,,,,AAXX 05184 07690 12575 30910 10170 20110 30024 40055 56011 60006 82802 91800 333 10189 20137=
07690,1997-05-05 21:00:00,15,1005.4,-0.1,72,10,15000,11.112,,,40,,,,,,,,,,,wg-a,,,,AAXX 05214 07690 12565 60406 10150 20100 30023 40054 58001 60006 86800 92100=
07690,1997-05-06 00:00:00,14,1003.8,-1.6,72,9,15000,11.112,,,340,,,,,,,,,,,wg-a,,,,AAXX 06004 07690 12565 73406 10140 20090 30007 40038 58016 60006 875// 90000=
07690,1997-05-06 06:00:00,14,1000.2,-1.5,77,10,10000,11.112,,,340,13.4,17,,,,,2,,,,wg-a,,,,AAXX 06064 07690 02460 83406 10140 20100 39971 40002 56015 60006 875// 90600 333 10170 20134 60024=
07690,1997-05-06 09:00:00,18,997.7,-2.4,77,14,6000,11.112,,,90,,,,,,,,,,,wg-a,,,,AAXX 06094 07690 12356 /0906 10180 20140 39947 49977 56024 60006 86800 90900=
07690,1997-05-06 12:00:00,18,996.3,-1.4,64,11,500,29.632,,,240,,,,0,,,,,,25,wg-a,,,,AAXX 06124 07690 02600 /2416 10180 20110 39933 49963 56014 60006 72586 82230 91200 333 60007=
07690,1997-05-06 15:00:00,19,996.7,0.4,40,5,50000,53.708,,74.08,260,,,,,,,,,,,wg-a,,,,AAXX 06154 07690 12684 32629 10190 20050 39937 49967 53004 60006 83202 91500 333 91040=
07690,1997-05-06 18:00:00,16,999.7,2.9,63,9,500,25.928,,83.34,260,13.7,19.2,,0,,,,,,1,wg-a,,,,AAXX 06184 07690 02600 32614 10160 20090 39966 49997 51029 60006 70186 83200 91800 333 10192 20137 60007 91045=
07690,1997-05-06 21:00:00,14,1000.5,0.8,67,8,20000,29.632,,,230,,,,,,,,,,,wg-a,,,,AAXX 06214 07690 12570 12316 10140 20080 39974 40005 53008 60006 81500 92100=
07690,1997-05-07 00:00:00,13,1000.8,0.3,58,5,20000,29.632,,40.744,240,,,,,,,,,,,wg-a,,,,AAXX 07004 07690 12570 /2416 10130 20050 39977 40008 53003 60006 81500 90000 333 91022=
07690,1997-05-07 03:00:00,12,999.7,-1.1,54,3,20000,31.484,,,240,,,,,,,,,,,wg-a,,,,AAXX 07034 07690 12570 /2417 10120 20030 39966 49997 58011 60006 81530 90300=
07690,1997-05-07 06:00:00,11,1000.6,0.9,62,4,40000,25.928,,,250,10.9,15.6,,,,,1,,,,wg-a,,,,AAXX 07064 07690 02/82 22514 10110 20040 39975 40006 53009 60006 81032 90600 333 10156 20109 60014=
07690,1997-05-07 12:00:00,16,1000.4,-0.6,55,7,50000,42.596,,,210,,,,,,,,,,,wg-a,,,,AAXX 07124 07690 12684 72123 10160 20070 39973 40004 58006 60006 81226 91200=
07690,1997-05-07 15:00:00,15,999.1,-1.3,67,9,40000,42.596,,68.524,210,,,,,,,,,,,wg-a,,,,AAXX 07154 07690 12682 72123 10150 20090 39960 49991 56013 60006 81227 91500 333 91037=
07690,1997-05-07 18:00:00,14,998.9,-0.2,67,8,40000,35.188,,68.524,210,11.4,18,,,,,,,,,wg-a,,,,AAXX 07184 07690 12782 72119 10140 20080 39958 49989 55002 60006 81128 91800 333 10180 20114 91037=
07690,1997-05-07 21:00:00,14,1000,1.1,67,8,20000,25.928,,,200,,,,,,,,,,,wg-a,,,,AAXX 07214 07690 12570 72014 10140 20080 39969 40000 53011 60006 8117/ 92100=
07690,1997-05-08 00:00:00,12,998.8,-1.2,71,7,20000,11.112,,,30,,,,,,,,,,,wg-a,,,,AAXX 08004 07690 12/70 /0306 10120 20070 39957 49988 58012 60006 80000 90000=
07690,1997-05-08 03:00:00,11,998.8,-0,76,7,25000,11.112,,,30,,,,,,,,,,,wg-a,,,,AAXX 08034 07690 12575 70306 10110 20070 39957 49988 55000 60006 81530 90300=
07690,1997-05-08 06:00:00,12,1000.2,1.4,71,7,500,14.816,,,80,10.7,14.2,,,,,,,,,wg-a,,,,AAXX 08064 07690 02500 50808 10120 20070 39971 40002 53014 60006 83832 90600 333 10142 20107 60004=
07690,1997-05-08 09:00:00,15,1001.4,1.2,63,8,40000,18.52,,,180,,,,,,,,,,,wg-a,,,,AAXX 08094 07690 12582 21810 10150 20080 39983 40014 51012 60006 82232 90900=
07690,1997-05-08 12:00:00,18,1001.5,0.2,42,5,50000,22.224,,,160,,,,,,,,,,,wg-a,,,,AAXX 08124 07690 12684 /1612 10180 20050 39985 40015 50002 60006 81902 91200=
07690,1997-05-08 15:00:00,18,1001.7,0.2,42,5,40000,35.188,,,80,,,,,,,,,,,wg-a,,,,AAXX 08154 07690 12582 /0819 10180 20050 39987 40017 53002 60006 81900 91500=
07690,1997-05-08 18:00:00,16,1003.7,1.9,72,11,40000,7.408,,,260,12.3,19.2,,,,,,,,,wg-a,,,,AAXX 08184 07690 12682 22604 10160 20110 30006 40037 53019 60006 81242 91800 333 10192 20123=
07690,1997-05-09 00:00:00,14,1009.1,2.2,41,1,20000,7.408,,,270,,,,,,,,,,,wg-a,,,,AAXX 09004 07690 12/70 02704 10140 20010 30060 40091 53022 60006 80000 90000=
07690,1997-05-09 03:00:00,12,1010.3,1.2,50,2,20000,18.52,,,290,,,,,,,,,,,wg-a,,,,AAXX 09034 07690 12/70 12910 10120 20020 30072 40103 53012 60006 81030 90300=
07690,1997-05-09 06:00:00,13,1011.6,1.3,58,5,50000,11.112,,,220,11.3,16.3,,,,,,,,,wg-a,,,,AAXX 09064 07690 02784 42206 10130 20050 30085 40116 53013 60006 81141 90600 333 10163 20113 60004=
07690,1997-05-09 09:00:00,17,1011.9,0.3,52,7,50000,31.484,,,240,,,,,,,,,,,wg-a,,,,AAXX 09094 07690 12684 32417 10170 20070 30088 40119 53003 60006 81241 90900=
07690,1997-05-09 12:00:00,19,1012.6,0.7,43,6,50000,46.3,,72.228,250,,,,,,,,,,,wg-a,,,,AAXX 09124 07690 12784 42525 10190 20060 30095 40126 53007 60006 83240 91200 333 91039=
07690,1997-05-09 18:00:00,15,1013.5,-0.3,88,13,500,35.188,,,230,13.2,19.4,,,,,,,,,wg-a,,,,AAXX 09184 07690 12600 22319 10150 20130 30104 40135 56003 60006 81841 91800 333 10194 20132=
07690,1997-05-09 21:00:00,14,1015.2,1.7,88,12,15000,18.52,,,240,,,,,,,,,,,wg-a,,,,AAXX 09214 07690 12/65 /2410 10140 20120 30121 40152 51017 60006 81030 92100=
07690,1997-05-10 00:00:00,13,1015.9,0.7,82,10,15000,14.816,,,250,,,,,,,,,,,wg-a,,,,AAXX 10004 07690 12/65 32508 10130 20100 30128 40159 51007 60006 83030 90000=
07690,1997-05-10 03:00:00,10,1016.2,0.2,82,7,15000,14.816,,,330,,,,,,,,,,,wg-a,,,,AAXX 10034 07690 12/65 13308 10100 20070 30130 40162 52002 60006 81030 90300=
07690,1997-05-10 06:00:00,13,1016.7,0.6,62,6,20000,14.816,,,330,10,15.4,,,,,,,,,wg-a,,,,AAXX 10064 07690 02/70 13308 10130 20060 30136 40167 53006 60006 81031 90600 333 10154 20100 60004=
07690,1997-05-10 09:00:00,17,1018.2,1.5,68,11,500,22.224,,,220,,,,,,,,,,,wg-a,,,,AAXX 10094 07690 12700 22212 10170 20110 30151 40182 51015 60006 81532 90900=
07690,1997-05-10 12:00:00,18,1017.9,-0.3,68,12,500,29.632,,,210,,,,,,,,,,,wg-a,,,,AAXX 10124 07690 12500 22116 10180 20120 30148 40179 58003 60006 82800 91200=
07690,1997-05-10 15:00:00,18,1019.3,1.4,77,14,20000,25.928,,,100,,,,,,,,,,,wg-a,,,,AAXX 10154 07690 12470 41014 10180 20140 30162 40193 51014 60006 81801 91500=
07690,1997-05-10 18:00:00,16,1019.7,0.4,88,14,20000,11.112,,,100,13.2,19.1,,,,,,,,,wg-a,,,,AAXX 10184 07690 12470 51006 10160 20140 30166 40197 52004 60006 83802 91800 333 10191 20132=
07690,1997-05-11 00:00:00,13,1020.1,-0.3,88,11,15000,11.112,,,340,,,,,,,,,,,wg-a,,,,AAXX 11004 07690 12565 /3406 10130 20110 30170 40201 58003 60006 81500 90000=
07690,1997-05-11 03:00:00,14,1018.5,-1.6,63,7,15000,7.408,,,20,,,,,,,,,,,wg-a,,,,AAXX 11034 07690 12565 /0204 10140 20070 30154 40185 56016 60006 81500 90300=
07690,1997-05-11 06:00:00,16,1019.6,1.1,72,11,500,25.928,,,70,12.9,16.2,,,,,,,,,wg-a,,,,AAXX 11064 07690 02500 /0714 10160 20110 30165 40196 53011 60006 81502 90600 333 10162 20129 60004=
07690,1997-05-11 09:00:00,18,1018.6,-1,56,9,25000,35.188,,,80,,,,,,,,,,,wg-a,,,,AAXX 11094 07690 12775 70819 10180 20090 30155 40186 58010 60006 81132 90900=
07690,1997-05-11 12:00:00,17,1020.4,1.8,63,10,15000,29.632,,,70,,,,,,,,,,,wg-a,,,,AAXX 11124 07690 12765 70716 10170 20100 30173 40204 53018 60006 8257/ 91200=
07690,1997-05-11 15:00:00,15,1020.3,-0.1,88,13,8000,11.112,,,40,,,,3,,,,,,61,wg-a,,,,AAXX 11154 07690 12558 80406 10150 20130 30172 40203 58001 60037 76162 8387/ 91500=
07690,1997-05-11 18:00:00,15,1019.3,-1,88,13,500,11.112,,,70,14.2,18.7,,1,,,,,,2,wg-a,,,,AAXX 11184 07690 02700 70706 10150 20130 30162 40193 58010 60006 70262 82572 91800 333 10187 20142 60017=
07690,1997-05-11 21:00:00,15,1020.7,1.4,82,12,15000,3.704,,,320,,,,,,,,,,,wg-a,,,,AAXX 11214 07690 12765 /3202 10150 20120 30176 40207 53014 60006 83570 92100=
07690,1997-05-12 00:00:00,14,1020.7,-0,88,12,12000,7.408,,,350,,,,0,,,,,,61,wg-a,,,,AAXX 12004 07690 02762 73504 10140 20120 30176 40207 55000 60006 76161 8557/ 90000 333 60007=
07690,1997-05-12 06:00:00,15,1021.1,1.1,82,12,13000,14.816,,,340,13.7,16.6,,,,,,,,60,wg-a,,,,AAXX 12064 07690 02763 73408 10150 20120 30180 40211 53011 61000 76062 8557/ 90600 333 10166 20137 6005=
07690,1997-05-12 09:00:00,17,1022.5,1.4,72,12,20000,14.816,,,90,,,,,,,,,,3,wg-a,,,,AAXX 12094 07690 02770 80908 10170 20120 30194 40225 51014 61000 70362 8117/ 90900 333 ////=
07690,1997-05-12 12:00:00,15,1023.6,1.1,82,12,8000,22.224,,,80,,,,1,,,,,,61,wg-a,,,,AAXX 12124 07690 02558 80812 10150 20120 30205 40236 50011 60016 76162 8387/ 91200 333 60017=
07690,1997-05-12 15:00:00,15,1022.3,-1.3,88,13,9000,14.816,,,90,,,,0,,,,,,3,wg-a,,,,AAXX 12154 07690 12459 80908 10150 20130 30192 40223 58013 60007 70362 8457/ 91500=
07690,1997-05-12 18:00:00,15,1022.5,0.2,94,14,4000,3.704,,,280,14.6,17.3,,,,,,,,60,wg-a,,,,AAXX 12184 07690 02440 82802 10150 20140 30194 40225 51002 61000 76062 8457/ 91800 333 10173 20146 6001=
07690,1997-05-12 21:00:00,15,1022.3,-0.2,94,14,10000,14.816,,,340,,,,1,,,,,,1,wg-a,,,,AAXX 12214 07690 12760 43408 10150 20140 30192 40223 55002 60017 70161 82532 92100=
07690,1997-05-13 00:00:00,16,1021.1,-1.2,88,14,12000,18.52,,,340,,,,,,,,,,1,wg-a,,,,AAXX 13004 07690 12762 /3410 10160 20140 30180 40211 56012 60016 70161 83530 90000=
07690,1997-05-13 03:00:00,16,1020.6,-0.5,82,13,12000,22.224,,,340,,,,,,,,,,61,wg-a,,,,AAXX 13034 07690 02762 83412 10160 20130 30175 40206 58005 61000 76161 8357/ 90300 333 ////=
07690,1997-05-13 06:00:00,18,1020.5,-0.1,68,12,500,11.112,,27.78,330,14.4,18,,,,,4,,,1,wg-a,,,,AAXX 13064 07690 02700 83306 10180 20120 30174 40205 58001 60006 70161 8357/ 90600 333 10180 20144 60044 91015=
07690,1997-05-13 09:00:00,17,1021.8,1.3,82,14,500,11.112,,,60,,,,,,,,,,,wg-a,,,,AAXX 13094 07690 12700 80606 10170 20140 30187 40218 53013 60006 8357/ 90900=
07690,1997-05-13 12:00:00,22,1020.2,-1.5,60,14,20000,18.52,,,10,,,,,,,,,,21,wg-a,,,,AAXX 13124 07690 02770 80110 10220 20140 30172 40202 58015 61000 72162 8457/ 91200 333 6100=
07690,1997-05-13 15:00:00,21,1019.1,-1.2,60,13,20000,14.816,,,70,,,,,,,,,,,wg-a,,,,AAXX 13154 07690 12770 70708 10210 20130 30160 40191 56012 60006 8287/ 91500=
07690,1997-05-13 18:00:00,20,1017.7,-1.4,73,15,18000,14.816,,,330,17.4,24.3,,,,,,,,,wg-a,,,,AAXX 13184 07690 12/68 73308 10200 20150 30146 40177 56014 60006 84082 91800 333 10243 20174=
07690,1997-05-13 21:00:00,19,1018.2,0.5,68,13,15000,22.224,,,330,,,,,,,,,,,wg-a,,,,AAXX 13214 07690 12/65 73312 10190 20130 30151 40182 53005 60006 84032 92100=
07690,1997-05-14 00:00:00,19,1018.2,-0,64,12,15000,22.224,,,330,,,,,,,,,,,wg-a,,,,AAXX 14004 07690 12/65 /3312 10190 20120 30151 40182 54000 60006 82032 90000=
07690,1997-05-14 03:00:00,17,1018.1,-0.1,72,12,15000,22.224,,,330,,,,,,,,,,,wg-a,,,,AAXX 14034 07690 12/65 73312 10170 20120 30150 40181 58001 60006 82032 90300=
07690,1997-05-14 06:00:00,18,1018.6,0.5,68,12,25000,22.224,,,330,16.7,20.7,,,,,,,,,wg-a,,,,AAXX 14064 07690 02/75 73312 10180 20120 30155 40186 52005 60006 81032 90600 333 10207 20167 61000=
07690,1997-05-14 09:00:00,24,1018.3,-0.2,47,12,15000,7.408,,,90,,,,,,,,,,,wg-a,,,,AAXX 14094 07690 12/65 50904 10240 20120 30153 40183 58002 60006 81032 90900=
07690,1997-05-14 12:00:00,23,1018,-0.3,57,14,20000,14.816,,,190,,,,,,,,,,,wg-a,,,,AAXX 14124 07690 12670 /1908 10230 20140 30150 40180 55003 60006 81132 91200=
07690,1997-05-14 15:00:00,25,1016.8,-1.2,41,11,20000,7.408,,,90,,,,,,,,,,,wg-a,,,,AAXX 14154 07690 12670 /0904 10250 20110 30138 40168 56012 60006 81102 91500=
07690,1997-05-14 18:00:00,21,1016.9,0.1,69,15,11000,11.112,,,250,17.6,25.2,,,,,,,,,wg-a,,,,AAXX 14184 07690 12/61 /2506 10210 20150 30139 40169 53001 60006 91800 333 10252 20176=
07690,1997-05-14 21:00:00,20,1016.7,-0.3,56,11,15000,14.816,,,340,,,,,,,,,,,wg-a,,,,AAXX 14214 07690 12/65 23408 10200 20110 30136 40167 56003 60006 82080 92100=
07690,1997-05-15 00:00:00,20,1016.4,-0.3,53,10,15000,14.816,,,340,,,,,,,,,,,wg-a,,,,AAXX 15004 07690 12/65 /3408 10200 20100 30133 40164 56003 60006 82080 90000=
07690,1997-05-15 03:00:00,18,1015,-1.4,59,10,15000,25.928,,,330,,,,,,,,,,,wg-a,,,,AAXX 15034 07690 12/65 /3314 10180 20100 30119 40150 56014 60006 81080 90300=
07690,1997-05-15 06:00:00,19,1015.2,0.2,56,10,20000,22.224,,,330,18.1,22.3,,,,,,,,,wg-a,,,,AAXX 15064 07690 02670 /3312 10190 20100 30121 40152 53002 60006 81281 90600 333 10223 20181 60004=
07690,1997-05-15 09:00:00,23,1015.7,0.6,44,10,20000,11.112,,,70,,,,,,,,,,,wg-a,,,,AAXX 15094 07690 12570 /0706 10230 20100 30127 40157 50006 60006 81201 90900=
07690,1997-05-15 12:00:00,24,1015.3,-0.4,57,15,20000,7.408,,,120,,,,,,,,,,,wg-a,,,,AAXX 15124 07690 12670 31204 10240 20150 30123 40153 58004 60006 83200 91200=
07690,1997-05-15 15:00:00,25,1014.8,-0.5,47,13,15000,7.408,,,130,,,,,,,,,,,wg-a,,,,AAXX 15154 07690 12665 21304 10250 20130 30118 40148 56005 60006 81201 91500=
07690,1997-05-15 18:00:00,21,1014.8,-0,60,13,15000,3.704,,,170,19.1,25.6,,,,,,,,,wg-a,,,,AAXX 15184 07690 12665 /1702 10210 20130 30118 40148 55000 60006 81201 91800 333 10256 20191=
07690,1997-05-15 21:00:00,20,1015.5,0.6,64,13,15000,3.704,,,20,,,,,,,,,,,wg-a,,,,AAXX 15214 07690 12/65 30202 10200 20130 30124 40155 50006 60006 81032 92100=
07690,1997-05-16 00:00:00,18,1015.4,-0.1,73,13,15000,18.52,,,330,,,,,,,,,,,wg-a,,,,AAXX 16004 07690 12765 23310 10180 20130 30123 40154 58001 60006 82500 90000=
07690,1997-05-16 03:00:00,18,1014.9,-0.5,68,12,15000,14.816,,,330,,,,,,,,,,,wg-a,,,,AAXX 16034 07690 12765 23308 10180 20120 30118 40149 56005 60006 81502 90300=
07690,1997-05-16 06:00:00,19,1014.8,-0.1,64,12,18000,22.224,,,340,17.6,23.1,,,,,,,,,wg-a,,,,AAXX 16064 07690 02768 /3412 10190 20120 30117 40148 57001 60006 81582 90600 333 10231 20176 60004=
07690,1997-05-16 09:00:00,20,1015.7,0.9,73,15,20000,18.52,,,210,,,,,,,,,,,wg-a,,,,AAXX 16094 07690 12770 /2110 10200 20150 30126 40157 51009 60006 81282 90900=
07690,1997-05-16 12:00:00,21,1015.2,-0.4,69,15,11000,22.224,,,200,,,,,,,,,,,wg-a,,,,AAXX 16124 07690 12/61 /2012 10210 20150 30122 40152 58004 60006 91200=
07690,1997-05-16 18:00:00,21,1015,0.1,56,12,25000,3.704,,,200,18.8,22.3,,,,,,,,,wg-a,,,,AAXX 16184 07690 12775 /2002 10210 20120 30120 40150 53001 60006 81278 91800 333 10223 20188=
07690,1997-05-16 21:00:00,18,1015.8,0.7,88,16,15000,7.408,,,330,,,,,,,,,,,wg-a,,,,AAXX 16214 07690 12/65 73304 10180 20160 30127 40158 51007 60006 85022 92100=
07690,1997-05-17 00:00:00,18,1015.5,-0.3,77,14,15000,11.112,,,350,,,,,,,,,,,wg-a,,,,AAXX 17004 07690 12/65 /3506 10180 20140 30124 40155 58003 60006 85032 90000=
07690,1997-05-17 03:00:00,18,1015.8,0.3,68,12,15000,7.408,,,340,,,,,,,,,,,wg-a,,,,AAXX 17034 07690 12/65 73404 10180 20120 30127 40158 53003 60006 83032 90300=
07690,1997-05-17 06:00:00,18,1016.1,0.3,68,12,15000,11.112,,,350,16.4,20.9,,,,,,,,,wg-a,,,,AAXX 17064 07690 02665 43506 10180 20120 30130 40161 50003 60006 81132 90600 333 10209 20164 60004=
07690,1997-05-17 09:00:00,21,1016.7,0.7,69,15,12000,11.112,,,110,,,,,,,,,,,wg-a,,,,AAXX 17094 07690 12662 41106 10210 20150 30137 40167 51007 60006 81132 90900=
07690,1997-05-17 12:00:00,22,1016.1,-0.6,60,14,20000,11.112,,,140,,,,,,,,,,,wg-a,,,,AAXX 17124 07690 12670 /1406 10220 20140 30131 40161 58006 60006 81130 91200=
07690,1997-05-17 15:00:00,22,1014.8,-1.3,65,15,500,25.928,,,220,,,,,,,,,,,wg-a,,,,AAXX 17154 07690 12600 /2214 10220 20150 30118 40148 58013 60006 81130 91500=
07690,1997-05-17 18:00:00,20,1015.1,0.2,68,14,25000,25.928,,,220,17.9,22.9,,,,,,,,,wg-a,,,,AAXX 17184 07690 12675 62214 10200 20140 30120 40151 53002 60006 81132 91800 333 10229 20179=
07690,1997-05-18 00:00:00,18,1015.7,-0.5,83,15,15000,11.112,,,270,,,,,,,,,,21,wg-a,,,,AAXX 18004 07690 02565 72706 10180 20150 30126 40157 58005 61000 72161 8257/ 90000 333 6100=
07690,1997-05-18 03:00:00,16,1015,-0.7,94,15,15000,7.408,,,220,,,,,,,,,,,wg-a,,,,AAXX 18034 07690 12565 /2204 10160 20150 30119 40150 58007 60006 82570 90300=
07690,1997-05-18 06:00:00,17,1015.6,0.6,82,14,15000,11.112,,,270,16,19.4,,,,,,,,,wg-a,,,,AAXX 18064 07690 02565 22706 10170 20140 30125 40156 51006 60006 81570 90600 333 10194 20160 61000=
07690,1997-05-18 09:00:00,18,1015.8,0.2,88,16,20000,31.484,,,210,,,,,,,,,,,wg-a,,,,AAXX 18094 07690 12470 22117 10180 20160 30127 40158 51002 60006 82200 90900=
07690,1997-05-18 12:00:00,19,1015.6,-0.2,83,16,20000,35.188,,,200,,,,,,,,,,,wg-a,,,,AAXX 18124 07690 12470 22019 10190 20160 30125 40156 58002 60006 82200 91200=
07690,1997-05-18 18:00:00,18,1014.4,-0.2,83,15,10000,22.224,,,210,17.4,19.5,,,,,,,,,wg-a,,,,AAXX 18184 07690 12460 /2112 10180 20150 30113 40144 57002 60006 81800 91800 333 10195 20174=
07690,1997-05-18 21:00:00,17,1015.1,0.7,88,15,15000,3.704,,,20,,,,,,,,,,,wg-a,,,,AAXX 18214 07690 12/65 /0202 10170 20150 30120 40151 51007 60006 80000 92100=
07690,1997-05-19 00:00:00,15,1014.9,-0.2,94,14,15000,14.816,,,320,,,,,,,,,,,wg-a,,,,AAXX 19004 07690 12/65 03208 10150 20140 30118 40149 58002 60006 80000 90000=
07690,1997-05-19 03:00:00,14,1015,0.1,88,12,15000,7.408,,,340,,,,,,,,,,,wg-a,,,,AAXX 19034 07690 12/65 03404 10140 20120 30119 40150 53001 60006 80000 90300=
07690,1997-05-19 06:00:00,17,1015.4,0.4,68,11,9000,3.704,,,360,13,17.7,,,,,,,,,wg-a,,,,AAXX 19064 07690 02/59 53602 10170 20110 30123 40154 53004 60006 80002 90600 333 10177 20130 60004=
07690,1997-05-19 12:00:00,20,1016,-0.4,68,14,20000,11.112,,,140,,,,,,,,,,,wg-a,,,,AAXX 19124 07690 12570 /1406 10200 20140 30129 40160 58004 60006 81232 91200=
07690,1997-05-19 15:00:00,19,1015.2,-0.8,83,16,500,11.112,,,120,,,,,,,,,,,wg-a,,,,AAXX 19154 07690 12400 /1206 10190 20160 30121 40152 56008 60006 81802 91500=
07690,1997-05-19 18:00:00,18,1014.2,-1,83,15,20000,7.408,,,110,16.6,20.2,,,,,,,,,wg-a,,,,AAXX 19184 07690 12470 /1104 10180 20150 30111 40142 56010 60006 81502 91800 333 10202 20166=
07690,1997-05-19 21:00:00,17,1014.4,0.2,88,15,15000,3.704,,,70,,,,,,,,,,,wg-a,,,,AAXX 19214 07690 12465 20702 10170 20150 30113 40144 53002 60006 81502 92100=
07690,1997-05-20 00:00:00,15,1013.8,-0.6,88,13,15000,7.408,,,320,,,,,,,,,,,wg-a,,,,AAXX 20004 07690 12365 53204 10150 20130 30107 40138 56006 60006 85500 90000=
07690,1997-05-20 03:00:00,14,1012.3,-1.5,82,11,15000,14.816,,,340,,,,,,,,,,,wg-a,,,,AAXX 20034 07690 12465 /3408 10140 20110 30092 40123 56015 60006 81532 90300=
07690,1997-05-20 06:00:00,16,1013.2,0.9,77,12,15000,7.408,,,320,13.7,18.4,,,,,,,,,wg-a,,,,AAXX 20064 07690 02465 /3204 10160 20120 30101 40132 53009 60006 81532 90600 333 10184 20137 60004=
07690,1997-05-20 09:00:00,19,1012.6,-0.6,78,15,18000,11.112,,,170,,,,,,,,,,,wg-a,,,,AAXX 20094 07690 12268 71706 10190 20150 30095 40126 57006 60006 81188 90900=
07690,1997-05-20 12:00:00,20,1012.1,-0.4,73,15,25000,11.112,,,170,,,,,,,,,,,wg-a,,,,AAXX 20124 07690 12675 71706 10200 20150 30091 40121 55004 60006 8127/ 91200=
07690,1997-05-20 15:00:00,20,1010.8,-1.3,78,16,8000,7.408,,,130,,,,,,,,,,,wg-a,,,,AAXX 20154 07690 12458 81304 10200 20160 30078 40108 57013 60006 81838 91500=
07690,1997-05-20 18:00:00,19,1010,-0.8,88,17,7000,11.112,,,190,15.8,20.2,,,,,,,,,wg-a,,,,AAXX 20184 07690 12457 31906 10190 20170 30070 40100 56008 60006 81802 91800 333 10202 20158=
07690,1997-05-20 21:00:00,17,1010.2,0.1,94,16,8000,7.408,,,320,,,,,,,,,,,wg-a,,,,AAXX 20214 07690 12358 23204 10170 20160 30071 40102 50001 60006 82502 92100=
07690,1997-05-21 00:00:00,15,1008.8,-1.4,94,14,12000,7.408,,,340,,,,,,,,,,,wg-a,,,,AAXX 21004 07690 12/62 43404 10150 20140 30057 40088 57014 60006 80002 90000=
07690,1997-05-21 03:00:00,14,1008.8,-0,88,12,15000,7.408,,,60,,,,0,,,,,,,wg-a,,,,AAXX 21034 07690 12/65 20604 10140 20120 30057 40088 55000 60007 80002 90300=
07690,1997-05-21 06:00:00,16,1010,1.2,68,10,20000,11.112,,,330,12.9,18.7,,,,,,,,,wg-a,,,,AAXX 21064 07690 02470 33306 10160 20100 30069 40100 53012 60006 81502 90600 333 10187 20129 60004=
07690,1997-05-21 09:00:00,19,1010.1,0.2,83,16,10000,7.408,,,170,,,,,,,,,,,wg-a,,,,AAXX 21094 07690 12460 41704 10190 20160 30071 40101 50002 60006 82802 90900=
07690,1997-05-21 12:00:00,20,1009.7,-0.4,78,16,7000,14.816,,,100,,,,,,,,,,,wg-a,,,,AAXX 21124 07690 12457 71008 10200 20160 30067 40097 56004 60006 82106 91200=
07690,1997-05-21 15:00:00,20,1008.4,-1.3,78,16,8000,18.52,,,90,,,,,,,,,,,wg-a,,,,AAXX 21154 07690 12458 /0910 10200 20160 30054 40084 56013 60006 82836 91500=
07690,1997-05-21 18:00:00,19,1008.6,0.2,83,16,15000,7.408,,,100,15.7,20.4,,,,,,,,,wg-a,,,,AAXX 21184 07690 12565 21004 10190 20160 30056 40086 53002 60006 82902 91800 333 10204 20157=
07690,1997-05-21 21:00:00,18,1009.6,0.6,83,15,15000,11.112,,,80,,,,,,,,,,,wg-a,,,,AAXX 21214 07690 12465 /0806 10180 20150 30065 40096 51006 60006 81500 92100=
07690,1997-05-22 00:00:00,14,1008.3,-1,94,13,15000,7.408,,,330,,,,,,,,,,,wg-a,,,,AAXX 22004 07690 12465 /3304 10140 20130 30052 40083 58010 60006 81500 90000=
07690,1997-05-22 03:00:00,13,1008.1,-0.2,94,12,15000,11.112,,,340,,,,,,,,,,,wg-a,,,,AAXX 22034 07690 12365 33406 10130 20120 30050 40081 58002 60006 83500 90300=
07690,1997-05-22 06:00:00,15,1009.1,1,94,14,12000,0,,,0,12.3,18.6,,,,,,,,,wg-a,,,,AAXX 22064 07690 02362 /0000 10150 20140 30060 40091 53010 60006 84500 90600 333 10186 20123 60004=
07690,1997-05-22 09:00:00,19,1010.8,1.8,73,14,18000,7.408,,,120,,,,,,,,,,,wg-a,,,,AAXX 22094 07690 12568 21204 10190 20140 30078 40108 51018 60006 82100 90900=
07690,1997-05-22 12:00:00,20,1011.5,0.7,68,14,20000,14.816,,,100,,,,,,,,,,,wg-a,,,,AAXX 22124 07690 12570 21008 10200 20140 30085 40115 51007 60006 81201 91200=
07690,1997-05-22 18:00:00,19,1012,0.5,83,16,14000,3.704,,,130,15.4,20.6,,,,,,,,,wg-a,,,,AAXX 22184 07690 12564 /1302 10190 20160 30090 40120 53005 60006 81401 91800 333 10206 20154=
07690,1997-05-22 21:00:00,18,1013.8,1.7,88,16,15000,14.816,,,90,,,,,,,,,,,wg-a,,,,AAXX 22214 07690 12765 /0908 10180 20160 30107 40138 51017 60006 81501 92100=
07690,1997-05-23 00:00:00,16,1014.3,0.5,88,14,15000,11.112,,,320,,,,,,,,,,,wg-a,,,,AAXX 23004 07690 12465 /3206 10160 20140 30112 40143 50005 60006 83500 90000=
07690,1997-05-23 03:00:00,14,1014,-0.3,82,11,12000,14.816,,,340,,,,,,,,,,,wg-a,,,,AAXX 23034 07690 12462 /3408 10140 20110 30109 40140 58003 60006 86500 90300=
07690,1997-05-23 06:00:00,15,1015.6,1.6,72,10,15000,14.816,,,330,14.2,19,,,,,,,,,wg-a,,,,AAXX 23064 07690 02565 73308 10150 20100 30125 40156 53016 60006 875// 90600 333 10190 20142 60004=
07690,1997-05-23 09:00:00,19,1016.5,0.9,73,14,12000,11.112,,,140,,,,,,,,,,,wg-a,,,,AAXX 23094 07690 12562 41406 10190 20140 30134 40165 53009 60006 84800 90900=
07690,1997-05-23 12:00:00,20,1017.2,0.7,73,15,9000,14.816,,,150,,,,,,,,,,,wg-a,,,,AAXX 23124 07690 12459 51508 10200 20150 30141 40172 50007 60006 85800 91200=
07690,1997-05-23 18:00:00,18,1016.2,-0.2,83,15,12000,3.704,,,170,14.8,20.7,,,,,,,,,wg-a,,,,AAXX 23184 07690 12562 51702 10180 20150 30131 40162 55002 60006 84572 91800 333 10207 20148=
07690,1997-05-24 00:00:00,15,1016.9,-0.2,88,13,15000,14.816,,,320,,,,,,,,,,,wg-a,,,,AAXX 24004 07690 12/65 53208 10150 20130 30138 40169 58002 60006 81032 90000=
07690,1997-05-24 03:00:00,14,1016.6,-0.3,88,12,15000,7.408,,,330,,,,,,,,,,,wg-a,,,,AAXX 24034 07690 12/65 63304 10140 20120 30135 40166 58003 60006 81032 90300=
07690,1997-05-24 06:00:00,15,1017.4,0.8,88,13,10000,11.112,,,330,13.5,17.7,,,,,,,,,wg-a,,,,AAXX 24064 07690 02460 73306 10150 20130 30143 40174 53008 60006 82502 90600 333 10177 20135 60004=
07690,1997-05-24 09:00:00,19,1018.1,0.7,78,15,15000,11.112,,,110,,,,,,,,,,,wg-a,,,,AAXX 24094 07690 12465 /1106 10190 20150 30150 40181 51007 60006 81502 90900=
07690,1997-05-24 12:00:00,21,1018.2,0.2,73,16,15000,11.112,,,140,,,,,,,,,,,wg-a,,,,AAXX 24124 07690 12465 71406 10210 20160 30152 40182 50002 60006 81502 91200=
07690,1997-05-24 15:00:00,20,1017.8,-0.5,73,15,20000,11.112,,,100,,,,,,,,,,,wg-a,,,,AAXX 24154 07690 12570 /1006 10200 20150 30147 40178 58005 60006 81502 91500=
07690,1997-05-24 18:00:00,19,1017.3,-0.5,78,15,25000,7.408,,,130,15.2,20.9,,,,,,,,,wg-a,,,,AAXX 24184 07690 12/75 61304 10190 20150 30142 40173 56005 60006 81032 91800 333 10209 20152=
07690,1997-05-24 21:00:00,19,1018,0.7,78,15,25000,7.408,,,70,,,,,,,,,,,wg-a,,,,AAXX 24214 07690 12/75 70704 10190 20150 30149 40180 53007 60006 83032 92100=
07690,1997-05-25 00:00:00,16,1018.1,0.1,88,14,20000,7.408,,,320,,,,,,,,,,,wg-a,,,,AAXX 25004 07690 12/70 63204 10160 20140 30150 40181 50001 60006 85032 90000=
07690,1997-05-25 03:00:00,16,1018.1,-0,88,14,20000,11.112,,,340,,,,,,,,,,,wg-a,,,,AAXX 25034 07690 12/70 73406 10160 20140 30150 40181 55000 60006 8703/ 90300=
07690,1997-05-25 06:00:00,18,1019,0.9,77,14,25000,7.408,,,330,15.6,19.3,,,,,,,,,wg-a,,,,AAXX 25064 07690 02575 73304 10180 20140 30159 40190 51009 60006 8123/ 90600 333 10193 20156 60004=
07690,1997-05-25 09:00:00,21,1019.5,0.5,60,13,500,11.112,,,90,,,,,,,,,,,wg-a,,,,AAXX 25094 07690 12600 70906 10210 20130 30164 40195 53005 60006 81236 90900=
07690,1997-05-25 12:00:00,22,1019.7,0.3,57,13,500,11.112,,,100,,,,,,,,,,,wg-a,,,,AAXX 25124 07690 12600 /1006 10220 20130 30167 40197 50003 60006 81232 91200=
07690,1997-05-25 15:00:00,22,1019,-0.7,60,14,500,7.408,,,150,,,,,,,,,,,wg-a,,,,AAXX 25154 07690 12700 /1504 10220 20140 30160 40190 55007 60006 81282 91500=
07690,1997-05-25 18:00:00,22,1018.6,-0.4,50,11,25000,3.704,,,170,17.7,22.9,,,,,,,,21,wg-a,,,,AAXX 25184 07690 02/75 81702 10220 20110 30156 40186 55004 61000 72162 8707/ 91800 333 10229 20177 6100=
07690,1997-05-25 21:00:00,22,1018.8,0.2,60,14,20000,3.704,,,120,,,,,,,,,,,wg-a,,,,AAXX 25214 07690 12770 71202 10220 20140 30158 40188 53002 60006 8157/ 92100=
07690,1997-05-26 00:00:00,21,1018.2,-0.7,64,14,20000,14.816,,,340,,,,,,,,,,,wg-a,,,,AAXX 26004 07690 12/70 /3408 10210 20140 30151 40182 58007 60006 83031 90000=
07690,1997-05-26 06:00:00,20,1018.1,0.3,73,15,20000,18.52,,,330,18.5,22.2,,,,,,,,,wg-a,,,,AAXX 26064 07690 02/70 03310 10200 20150 30150 40181 50003 60006 80000 90600 333 10222 20185 61000=
07690,1997-05-26 09:00:00,21,1018.8,0.8,78,17,20000,14.816,,,170,,,,,,,,,,,wg-a,,,,AAXX 26094 07690 12570 /1708 10210 20170 30158 40188 53008 60006 81100 90900=
07690,1997-05-26 12:00:00,22,1018.2,-0.6,73,17,8000,14.816,,,120,,,,,,,,,,,wg-a,,,,AAXX 26124 07690 12558 /1208 10220 20170 30152 40182 58006 60006 81100 91200=
07690,1997-05-26 15:00:00,22,1017.6,-0.6,69,16,8000,11.112,,,120,,,,,,,,,,,wg-a,,,,AAXX 26154 07690 12558 /1206 10220 20160 30146 40176 57006 60006 81100 91500=
07690,1997-05-26 18:00:00,20,1017,-0.6,83,17,12000,3.704,,,190,19.5,22.3,,,,,,,,,wg-a,,,,AAXX 26184 07690 12/62 01902 10200 20170 30140 40170 56006 60006 80000 91800 333 10223 20195=
07690,1997-05-26 21:00:00,19,1017.1,0,78,15,15000,7.408,,,320,,,,,,,,,,,wg-a,,,,AAXX 26214 07690 12/65 03204 10190 20150 30140 40171 50000 60006 80000 92100=
07690,1997-05-27 00:00:00,17,1016.7,-0.4,82,14,15000,11.112,,,330,,,,,,,,,,,wg-a,,,,AAXX 27004 07690 12/65 03306 10170 20140 30136 40167 58004 60006 80000 90000=
07690,1997-05-27 03:00:00,17,1016,-0.7,77,13,15000,14.816,,,340,,,,,,,,,,,wg-a,,,,AAXX 27034 07690 12/65 03408 10170 20130 30129 40160 58007 60006 80000 90300=
07690,1997-05-27 06:00:00,18,1015.6,-0.4,77,14,18000,7.408,,,340,16.4,20.3,,,,,,,,,wg-a,,,,AAXX 27064 07690 02468 /3404 10180 20140 30125 40156 56004 60006 81601 90600 333 10203 20164 60004=
07690,1997-05-27 08:00:00,18,1015.6,-0.4,77,14,18000,7.408,,,340,16.4,20.3,,,,,,,,,wg-a,,,,AAXX 27084 07690 02468 /3404 10180 20140 30125 40156 56004 60006 81601 90800 333 10203 20164 60004=
07690,1997-05-27 09:00:00,22,1015.1,-0.4,60,14,18000,14.816,,,160,,,,,,,,,,,wg-a,,,,AAXX 27094 07690 12568 /1608 10220 20140 30121 40151 56004 60006 81100 90900=
07690,1997-05-27 12:00:00,22,1014.4,-0.7,73,17,20000,11.112,,,150,,,,,,,,,,,wg-a,,,,AAXX 27124 07690 12370 31506 10220 20170 30114 40144 58007 60006 83100 91200=
07690,1997-05-27 18:00:00,20,1012.5,-0.5,83,17,9000,7.408,,,110,18.4,22.3,,,,,,,,,wg-a,,,,AAXX 27184 07690 12359 31104 10200 20170 30095 40125 56005 60006 83100 91800 333 10223 20184=
07690,1997-05-28 00:00:00,17,1012.4,-0.4,94,16,8000,11.112,,,330,,,,,,,,,,,wg-a,,,,AAXX 28004 07690 12458 33306 10170 20160 30093 40124 58004 60006 83500 90000=
07690,1997-05-28 03:00:00,16,1011.4,-1,88,14,9000,14.816,,,330,,,,,,,,,,,wg-a,,,,AAXX 28034 07690 12459 /3308 10160 20140 30083 40114 58010 60006 81500 90300=
07690,1997-05-28 06:00:00,17,1010.9,-0.5,82,14,6000,7.408,,,340,15.2,20.1,,,,,,,,,wg-a,,,,AAXX 28064 07690 02/56 /3404 10170 20140 30078 40109 58005 60006 80001 90600 333 10201 20152 60004=
07690,1997-05-28 09:00:00,21,1010.8,0,69,15,12000,11.112,,,120,,,,,,,,,,,wg-a,,,,AAXX 28094 07690 12462 21206 10210 20150 30078 40108 50000 60006 81101 90900=
07690,1997-05-28 12:00:00,22,1010.7,-0.1,73,17,8000,18.52,,,100,,,,,,,,,,,wg-a,,,,AAXX 28124 07690 12458 21010 10220 20170 30077 40107 55001 60006 82100 91200=
07690,1997-05-28 18:00:00,22,1012.2,1.2,73,17,13000,11.112,,,70,16.8,22.3,,,,,,,,,wg-a,,,,AAXX 28184 07690 12463 /0706 10220 20170 30092 40122 53012 60006 81100 91800 333 10223 20168=
07690,1997-05-28 21:00:00,21,1015.1,2.9,78,17,10000,14.816,,,90,,,,,,,,,,,wg-a,,,,AAXX 28214 07690 12760 30908 10210 20170 30121 40151 52029 60006 83500 92100=
07690,1997-05-29 00:00:00,22,1017.2,2.1,57,13,20000,42.596,,,80,,,,,,,,,,,wg-a,,,,AAXX 29004 07690 12770 10823 10220 20130 30142 40172 53021 60006 815/0 90000=
07690,1997-05-29 03:00:00,20,1019,1.7,46,8,20000,35.188,,,80,,,,,,,,,,,wg-a,,,,AAXX 29034 07690 12770 30819 10200 20080 30159 40190 52017 60006 83500 90300=
07690,1997-05-29 06:00:00,21,1020.5,1.5,40,7,20000,35.188,,,70,20.4,22.8,,,,,,,,,wg-a,,,,AAXX 29064 07690 02470 20719 10210 20070 30174 40205 53015 60006 82500 90600 333 10228 20204 60004=
07690,1997-05-29 09:00:00,21,1022.3,1.8,49,10,11000,31.484,,,90,,,,,,,,,,,wg-a,,,,AAXX 29094 07690 12/61 /0917 10210 20100 30192 40223 53018 60006 90900=
07690,1997-05-29 12:00:00,22,1022.4,0.1,46,10,500,25.928,,,100,,,,,,,,,,,wg-a,,,,AAXX 29124 07690 12800 /1014 10220 20100 30193 40224 50001 60006 81030 91200=
07690,1997-05-29 15:00:00,21,1021.7,-0.7,43,8,35000,14.816,,,100,,,,,,,,,,,wg-a,,,,AAXX 29154 07690 12/81 01008 10210 20080 30186 40217 58007 60006 80000 91500=
07690,1997-05-29 18:00:00,20,1021.2,-0.5,40,6,10000,7.408,,,100,20.1,21.9,,,,,,,,,wg-a,,,,AAXX 29184 07690 12/60 /1004 10200 20060 30181 40212 55005 60006 91800 333 10219 20201=
07690,1997-05-29 21:00:00,17,1021.8,0.6,59,9,20000,7.408,,,330,,,,,,,,,,,wg-a,,,,AAXX 29214 07690 12/70 03304 10170 20090 30187 40218 52006 60006 80000 92100=
07690,1997-05-30 00:00:00,16,1021,-0.8,63,9,20000,14.816,,,340,,,,,,,,,,,wg-a,,,,AAXX 30004 07690 12/70 03408 10160 20090 30179 40210 56008 60006 80000 90000=
07690,1997-05-30 03:00:00,17,1019.9,-1.1,59,9,25000,14.816,,,340,,,,,,,,,,,wg-a,,,,AAXX 30034 07690 12/75 03408 10170 20090 30168 40199 58011 60006 80000 90300=
07690,1997-05-30 06:00:00,17,1019.7,-0.2,63,10,35000,14.816,,,330,16.1,20.1,,,,,,,,,wg-a,,,,AAXX 30064 07690 02/81 03308 10170 20100 30166 40197 56002 60006 80000 90600 333 10201 20161 60004=
07690,1997-05-30 09:00:00,21,1018.6,-1.1,56,12,500,11.112,,,160,,,,,,,,,,,wg-a,,,,AAXX 30094 07690 12/00 11606 10210 20120 30155 40186 58011 60006 80001 90900=
07690,1997-05-30 12:00:00,22,1017.4,-1.1,60,14,500,18.52,,,170,,,,,,,,,,,wg-a,,,,AAXX 30124 07690 12/00 51710 10220 20140 30144 40174 56011 60006 80002 91200=
07690,1997-05-30 15:00:00,22,1016.4,-1,53,12,11000,11.112,,,160,,,,,,,,,,,wg-a,,,,AAXX 30154 07690 12/61 /1606 10220 20120 30134 40164 56010 60006 91500=
07690,1997-05-30 18:00:00,21,1015.8,-0.6,53,11,500,7.408,,,170,17.4,23.2,,,,,,,,,wg-a,,,,AAXX 30184 07690 12/00 51704 10210 20110 30128 40158 55006 60006 80002 91800 333 10232 20174=
07690,1997-05-30 21:00:00,18,1016.5,0.6,68,12,10000,11.112,,,320,,,,,,,,,,,wg-a,,,,AAXX 30214 07690 12/60 /3206 10180 20120 30134 40165 51006 60006 92100=
07690,1997-05-31 00:00:00,16,1015.8,-0.7,72,11,20000,7.408,,,340,,,,,,,,,,,wg-a,,,,AAXX 31004 07690 12/70 03404 10160 20110 30127 40158 56007 60006 80000 90000=
07690,1997-05-31 03:00:00,15,1015.1,-0.7,77,11,25000,14.816,,,340,,,,,,,,,,,wg-a,,,,AAXX 31034 07690 12/75 23408 10150 20110 30120 40151 58007 60006 80001 90300=
07690,1997-05-31 06:00:00,17,1014.6,-0.5,68,11,25000,14.816,,,340,14.2,20.5,,,,,,,,,wg-a,,,,AAXX 31064 07690 02/75 33408 10170 20110 30115 40146 58005 60006 80002 90600 333 10205 20142 60004=
07690,1997-05-31 09:00:00,21,1014.7,0.2,64,14,10000,7.408,,,150,,,,,,,,,,,wg-a,,,,AAXX 31094 07690 12/60 /1504 10210 20140 30117 40147 53002 60006 90900=
07690,1997-05-31 12:00:00,22,1014,-0.7,53,12,20000,7.408,,,150,,,,,,,,,,,wg-a,,,,AAXX 31124 07690 12670 /1504 10220 20120 30110 40140 58007 60006 81282 91200=
07690,1997-05-31 15:00:00,22,1012.7,-1.3,60,14,10000,11.112,,,120,,,,,,,,,,,wg-a,,,,AAXX 31154 07690 12660 /1206 10220 20140 30097 40127 56013 60006 81202 91500=
07690,1997-05-31 18:00:00,21,1012.2,-0.5,64,14,12000,3.704,,,130,16.7,22.5,,,,,,,,,wg-a,,,,AAXX 31184 07690 12/62 71302 10210 20140 30092 40122 58005 60006 84082 91800 333 10225 20167=
07690,1997-05-31 21:00:00,20,1012.2,-0,68,14,15000,18.52,,,100,,,,,,,,,,,wg-a,,,,AAXX 31214 07690 12/65 61010 10200 20140 30092 40122 55000 60006 83031 92100=
07690,1997-06-01 00:00:00,17,1011.3,-1,72,12,15000,14.816,,,60,,,,,,,,,,,wg-a,,,,AAXX 01004 07690 12/65 70608 10170 20120 30082 40113 58010 60006 83032 90000=
07690,1997-06-01 03:00:00,17,1009.6,-1.7,72,12,15000,11.112,,,330,,,,,,,,,,,wg-a,,,,AAXX 01034 07690 12465 73306 10170 20120 30065 40096 56017 60006 8113/ 90300=
07690,1997-06-01 06:00:00,19,1008.6,-0.9,68,13,9000,42.596,,72.228,90,16.9,21,,,,,,,,80,wg-a,,,,AAXX 01064 07690 02459 80923 10190 20130 30056 40086 58009 61000 78086 8383/ 90600 333 10210 20169 6000 91039=
07690,1997-06-01 09:00:00,19,1007.7,-0.9,60,11,15000,18.52,,68.524,60,,,,1,,,,,,2,wg-a,,,,AAXX 01094 07690 12765 80610 10190 20110 30047 40077 55009 60017 70286 8353/ 90900 333 91037=
07690,1997-06-01 12:00:00,15,1006.1,-1.7,88,13,12000,22.224,,68.524,20,,,,8,,,,,,61,wg-a,,,,AAXX 01124 07690 02562 80212 10150 20130 30030 40061 58017 60086 76186 8487/ 91200 333 60087 91037=
07690,1997-06-01 15:00:00,13,1007.6,1.5,94,12,4000,11.112,,,340,,,,8,,,,,,10,wg-a,,,,AAXX 01154 07690 12540 83406 10130 20120 30045 40076 53015 60087 71062 875// 91500=
07690,1997-06-01 18:00:00,15,1008.1,0.5,72,10,12000,14.816,,,10,12.6,19.4,,,,,,,,61,wg-a,,,,AAXX 01184 07690 02462 80108 10150 20100 30050 40081 53005 61000 76162 8387/ 91800 333 10194 20126 6004=
07690,1997-06-01 21:00:00,13,1009.5,1.4,94,12,12000,7.408,,,340,,,,2,,,,,,61,wg-a,,,,AAXX 01214 07690 12562 83404 10130 20120 30064 40095 51014 60027 76166 8457/ 92100=
07690,1997-06-02 00:00:00,14,1009.5,0,88,12,14000,3.704,,,340,,,,0,,,,,,1,wg-a,,,,AAXX 02004 07690 02664 73402 10140 20120 30064 40095 50000 60026 70162 8357/ 90000 333 60007=
07690,1997-06-02 03:00:00,14,1010.1,0.6,82,11,15000,3.704,,,290,,,,0,,,,,,2,wg-a,,,,AAXX 02034 07690 12465 72902 10140 20110 30070 40101 53006 60007 70262 8387/ 90300=
07690,1997-06-02 06:00:00,14,1011,0.9,88,12,25000,11.112,,,350,13.1,14.9,,,,,23,,,3,wg-a,,,,AAXX 02064 07690 02575 73506 10140 20120 30079 40110 52009 60006 70362 8587/ 90600 333 10149 20131 60234=
07690,1997-06-02 09:00:00,16,1012.3,1.3,77,12,10000,3.704,,,320,,,,,,,,,,,wg-a,,,,AAXX 02094 07690 12660 73202 10160 20120 30092 40123 53013 60006 8657/ 90900=
07690,1997-06-02 12:00:00,19,1013.8,1.5,68,13,15000,7.408,,,160,,,,,,,,,,21,wg-a,,,,AAXX 02124 07690 02565 71604 10190 20130 30107 40138 51015 61000 72162 8687/ 91200 333 6100=
07690,1997-06-02 18:00:00,18,1014.3,0.4,73,13,500,7.408,,,180,14.1,19.2,,,,,,,,,wg-a,,,,AAXX 02184 07690 12600 31804 10180 20130 30112 40143 52004 60006 82432 91800 333 10192 20141=
07690,1997-06-02 21:00:00,15,1015.2,0.9,88,13,15000,7.408,,,320,,,,0,,,,,,,wg-a,,,,AAXX 02214 07690 12665 33204 10150 20130 30121 40152 53009 60007 83500 92100=
07690,1997-06-03 00:00:00,15,1015.2,0,88,13,15000,14.816,,,320,,,,,,,,,,,wg-a,,,,AAXX 03004 07690 12665 73208 10150 20130 30121 40152 50000 60006 875// 90000=
07690,1997-06-03 03:00:00,14,1014.2,-1,94,13,15000,11.112,,,330,,,,,,,,,,,wg-a,,,,AAXX 03034 07690 12665 33306 10140 20130 30111 40142 57010 60006 81502 90300=
07690,1997-06-03 06:00:00,16,1014.9,0.7,82,13,20000,11.112,,,330,13.7,18,,,,,,,,,wg-a,,,,AAXX 03064 07690 02670 33306 10160 20130 30118 40149 53007 60006 81102 90600 333 10180 20137 60004=
07690,1997-06-03 09:00:00,19,1015.1,0.2,73,14,20000,14.816,,,170,,,,,,,,,,,wg-a,,,,AAXX 03094 07690 12670 31708 10190 20140 30120 40151 53002 60006 81202 90900=
07690,1997-06-03 12:00:00,21,1015.4,0.4,73,16,20000,14.816,,,150,,,,,,,,,,,wg-a,,,,AAXX 03124 07690 12670 61508 10210 20160 30124 40154 50004 60006 85802 91200=
07690,1997-06-03 15:00:00,21,1014.6,-0.8,73,16,20000,22.224,,,90,,,,,,,,,,,wg-a,,,,AAXX 03154 07690 12670 30912 10210 20160 30116 40146 57008 60006 82201 91500=
07690,1997-06-03 18:00:00,20,1014,-0.6,78,16,20000,14.816,,,120,16,21.1,,,,,,,,,wg-a,,,,AAXX 03184 07690 12570 /1208 10200 20160 30110 40140 56006 60006 81831 91800 333 10211 20160=
07690,1997-06-03 21:00:00,19,1014.9,0.8,83,16,15000,22.224,,,70,,,,,,,,,,,wg-a,,,,AAXX 03214 07690 12465 /0712 10190 20160 30118 40149 53008 60006 81501 92100=
07690,1997-06-04 00:00:00,19,1015.4,0.5,83,16,15000,22.224,,,80,,,,,,,,,,,wg-a,,,,AAXX 04004 07690 12465 /0812 10190 20160 30123 40154 51005 60006 86500 90000=
07690,1997-06-04 03:00:00,17,1015.1,-0.3,88,15,12000,11.112,,,330,,,,,,,,,,,wg-a,,,,AAXX 04034 07690 12462 73306 10170 20150 30120 40151 58003 60006 875// 90300=
07690,1997-06-04 06:00:00,18,1015.8,0.7,88,16,12000,14.816,,,90,16.8,19.7,,,,,,,,,wg-a,,,,AAXX 04064 07690 02462 70908 10180 20160 30127 40158 53007 60006 875// 90600 333 10197 20168 60004=
07690,1997-06-04 09:00:00,20,1016.4,0.6,78,16,12000,22.224,,,100,,,,,,,,,,,wg-a,,,,AAXX 04094 07690 12462 71012 10200 20160 30133 40164 53006 60006 875// 90900=
07690,1997-06-04 12:00:00,20,1016.3,-0,83,17,11000,22.224,,,100,,,,,,,,,,,wg-a,,,,AAXX 04124 07690 12461 /1012 10200 20170 30133 40163 55000 60006 83501 91200=
07690,1997-06-04 15:00:00,20,1016.5,0.1,83,17,8000,11.112,,,90,,,,,,,,,,,wg-a,,,,AAXX 04154 07690 12358 70906 10200 20170 30134 40165 53001 60006 85502 91500=
07690,1997-06-04 18:00:00,21,1013.4,-3,73,16,10000,11.112,,,50,18.5,21,,,,,,,,61,wg-a,,,,AAXX 04184 07690 02360 80506 10210 20160 30104 40134 58030 61000 76162 8252/ 91800 333 10210 20185 6100=
07690,1997-06-04 21:00:00,19,1014.1,0.6,88,17,12000,0,,,0,,,,,,,,,,1,wg-a,,,,AAXX 04214 07690 02762 /0000 10190 20170 30110 40141 53006 61000 70162 81572 92100 333 ////=
07690,1997-06-05 00:00:00,18,1013.3,-0.8,94,17,10000,11.112,,,350,,,,0,,,,,,21,wg-a,,,,AAXX 05004 07690 02660 83506 10180 20170 30102 40133 58008 60016 72162 8357/ 90000 333 60007=
07690,1997-06-05 03:00:00,20,1009.4,-3.8,73,15,12000,14.816,,,50,,,,0,,,,,,21,wg-a,,,,AAXX 05034 07690 12662 80508 10200 20150 30064 40094 56038 60007 72162 8357/ 90300=
07690,1997-06-05 06:00:00,18,1008.8,-0.7,88,16,12000,14.816,,57.412,20,17.1,20.8,,,,,,,,21,wg-a,,,,AAXX 05064 07690 02362 80208 10180 20160 30057 40088 58007 61000 72162 8487/ 90600 333 10208 20171 6003 91031=
07690,1997-06-05 09:00:00,19,1008.6,-0.1,83,16,500,31.484,,,80,,,,,,,,,,,wg-a,,,,AAXX 05094 07690 32/00 /0817 10190 20160 30056 40086 58001 90900=
07690,1997-06-05 12:00:00,17,1009.6,0.9,100,17,3500,31.484,,79.636,80,,,,16,,,,,,63,wg-a,,,,AAXX 05124 07690 02435 80817 10170 20170 30065 40096 53009 60236 76362 875// 91200 333 60167 91043=
07690,1997-06-05 18:00:00,19,1009.2,0.7,83,16,15000,14.816,,,110,16.7,19.6,,,,,,,,1,wg-a,,,,AAXX 05184 07690 12565 31108 10190 20160 30062 40092 53007 60006 70161 82802 91800 333 10196 20167=
07690,1997-06-06 00:00:00,15,1011.2,0.4,100,15,15000,11.112,,,330,,,,0,,,,,,,wg-a,,,,AAXX 06004 07690 02665 23306 10150 20150 30081 40112 53004 60006 81502 90000 333 60007=
07690,1997-06-06 06:00:00,16,1012.3,1.2,94,15,20000,7.408,,,340,14.8,18.5,,,,,24,,,,wg-a,,,,AAXX 06064 07690 02470 73404 10160 20150 30092 40123 53012 60006 81872 90600 333 10185 20148 60244=
07690,1997-06-06 09:00:00,19,1013.1,0.9,83,16,500,14.816,,,170,,,,,,,,,,,wg-a,,,,AAXX 06094 07690 12400 71708 10190 20160 30101 40131 52009 60006 81872 90900=
07690,1997-06-06 12:00:00,21,1013.8,0.7,78,17,500,11.112,,,130,,,,,,,,,,,wg-a,,,,AAXX 06124 07690 12400 /1306 10210 20170 30108 40138 51007 60006 83802 91200=
07690,1997-06-06 15:00:00,21,1013,-0.8,78,17,500,11.112,,,140,,,,,,,,,,,wg-a,,,,AAXX 06154 07690 12400 31406 10210 20170 30100 40130 57008 60006 82202 91500=
07690,1997-06-06 18:00:00,20,1013.6,0.6,83,17,500,7.408,,,140,16.3,21.5,,,,,,,,,wg-a,,,,AAXX 06184 07690 12400 21404 10200 20170 30106 40136 53006 60006 81802 91800 333 10215 20163=
07690,1997-06-07 00:00:00,17,1014.7,0.1,94,16,15000,3.704,,,340,,,,,,,,,,,wg-a,,,,AAXX 07004 07690 12365 23402 10170 20160 30116 40147 50001 60006 82500 90000=
07690,1997-06-07 03:00:00,17,1014.5,-0.2,94,16,10000,3.704,,,310,,,,,,,,,,,wg-a,,,,AAXX 07034 07690 12460 73102 10170 20160 30114 40145 55002 60006 875// 90300=
07690,1997-06-07 06:00:00,18,1014.9,0.4,94,17,9000,0,,,0,16.7,20.5,,,,,,,,,wg-a,,,,AAXX 07064 07690 02459 70000 10180 20170 30118 40149 52004 60006 878// 90600 333 10205 20167 60004=
07690,1997-06-07 12:00:00,22,1015.8,0.3,73,17,15000,14.816,,,160,,,,,,,,,,,wg-a,,,,AAXX 07124 07690 12565 /1608 10220 20170 30128 40158 50003 60006 82202 91200=
07690,1997-06-07 15:00:00,21,1015.5,-0.3,78,17,15000,11.112,,,170,,,,,,,,,,,wg-a,,,,AAXX 07154 07690 12565 /1706 10210 20170 30125 40155 55003 60006 82802 91500=
07690,1997-06-07 18:00:00,21,1014.9,-0.6,78,17,15000,7.408,,,150,18.1,22.4,,,,,,,,,wg-a,,,,AAXX 07184 07690 12565 /1504 10210 20170 30119 40149 55006 60006 83802 91800 333 10224 20181=
07690,1997-06-07 21:00:00,19,1016.4,1.4,94,18,12000,3.704,,,170,,,,,,,,,,,wg-a,,,,AAXX 07214 07690 12462 71702 10190 20180 30133 40164 53014 60006 875// 92100=
07690,1997-06-08 00:00:00,19,1016.2,-0.2,94,18,15000,7.408,,,240,,,,,,,,,,,wg-a,,,,AAXX 08004 07690 12465 32404 10190 20180 30131 40162 56002 60006 81501 90000=
07690,1997-06-08 03:00:00,17,1015.7,-0.5,100,17,15000,11.112,,,340,,,,,,,,,,,wg-a,,,,AAXX 08034 07690 12465 63406 10170 20170 30126 40157 55005 60006 85501 90300=
07690,1997-06-08 06:00:00,19,1016.7,1,88,17,12000,7.408,,,330,16.7,20.9,,,,,,,,,wg-a,,,,AAXX 08064 07690 02462 23304 10190 20170 30136 40167 53010 60006 81501 90600 333 10209 20167 60004=
07690,1997-06-08 12:00:00,23,1017.7,0.6,78,19,13000,14.816,,,140,,,,,,,,,,,wg-a,,,,AAXX 08124 07690 12463 /1408 10230 20190 30147 40177 53006 60006 81502 91200=
07690,1997-06-08 15:00:00,23,1017.7,0,83,20,13000,14.816,,,100,,,,,,,,,,,wg-a,,,,AAXX 08154 07690 12363 21008 10230 20200 30147 40177 50000 60006 81502 91500=
07690,1997-06-08 18:00:00,22,1018.7,1,83,19,10000,11.112,,,100,18.6,23.5,,,,,,,,,wg-a,,,,AAXX 08184 07690 12360 71006 10220 20190 30157 40187 51010 60006 875// 91800 333 10235 20186=
07690,1997-06-09 00:00:00,20,1019.3,-0.6,94,19,12000,3.704,,,140,,,,,,,,,,,wg-a,,,,AAXX 09004 07690 12462 /1402 10200 20190 30162 40193 58006 60006 86500 90000=
07690,1997-06-09 03:00:00,21,1020,0.8,88,19,12000,11.112,,,100,,,,,,,,,,,wg-a,,,,AAXX 09034 07690 12362 71006 10210 20190 30170 40200 53008 60006 875// 90300=
07690,1997-06-09 06:00:00,20,1021,0.9,88,18,15000,7.408,,,320,19.2,22,,,,,,,,,wg-a,,,,AAXX 09064 07690 02465 63204 10200 20180 30179 40210 53009 60006 82502 90600 333 10220 20192 60004=
07690,1997-06-09 09:00:00,23,1021.8,0.9,73,18,18000,14.816,,,120,,,,,,,,,,,wg-a,,,,AAXX 09094 07690 12568 31208 10230 20180 30188 40218 51009 60006 81102 90900=
07690,1997-06-09 12:00:00,24,1022,0.2,65,17,500,11.112,,,160,,,,,,,,,,,wg-a,,,,AAXX 09124 07690 12600 /1606 10240 20170 30190 40220 51002 60006 81201 91200=
07690,1997-06-09 15:00:00,24,1020.8,-1.2,74,19,500,7.408,,,170,,,,,,,,,,,wg-a,,,,AAXX 09154 07690 12600 51704 10240 20190 30178 40208 56012 60006 81206 91500=
07690,1997-06-09 18:00:00,22,1019.7,-1.1,83,19,500,3.704,,,210,20.3,24.4,,,,,,,,,wg-a,,,,AAXX 09184 07690 12/00 /2102 10220 20190 30167 40197 56011 60006 80002 91800 333 10244 20203=
07690,1997-06-09 21:00:00,21,1020.2,0.5,83,18,20000,0,,,0,,,,,,,,,,,wg-a,,,,AAXX 09214 07690 12/70 50000 10210 20180 30172 40202 53005 60006 80002 92100=
07690,1997-06-10 00:00:00,20,1019.3,-1,83,17,20000,7.408,,,50,,,,,,,,,,,wg-a,,,,AAXX 10004 07690 12/70 30504 10200 20170 30162 40193 56010 60006 80002 90000=
07690,1997-06-10 06:00:00,22,1018.5,0.2,73,17,500,11.112,,,340,18.9,22.2,,,,,,,,,wg-a,,,,AAXX 10064 07690 02/00 13406 10220 20170 30155 40185 53002 60006 80002 90600 333 10222 20189 60004=
07690,1997-06-10 09:00:00,25,1018.1,-0.4,65,18,500,7.408,,,120,,,,,,,,,,,wg-a,,,,AAXX 10094 07690 12500 21204 10250 20180 30151 40181 58004 60006 81182 90900=
07690,1997-06-10 12:00:00,27,1017.3,-0.8,62,19,8000,18.52,,,100,,,,,,,,,,,wg-a,,,,AAXX 10124 07690 12558 51010 10270 20190 30143 40173 58008 60006 81182 91200=
07690,1997-06-10 18:00:00,26,1015.4,-0.9,58,17,10000,3.704,,,40,22.3,27.2,,,,,,,,,wg-a,,,,AAXX 10184 07690 12/60 70402 10260 20170 30124 40154 56009 60006 81082 91800 333 10272 20223=
07690,1997-06-10 21:00:00,24,1015,-0.4,69,18,13000,3.704,,,310,,,,,,,,,,,wg-a,,,,AAXX 10214 07690 12/63 /3102 10240 20180 30120 40150 55004 60006 83082 92100=
07690,1997-06-11 00:00:00,22,1013.5,-1.5,78,18,13000,14.816,,,340,,,,,,,,,,,wg-a,,,,AAXX 11004 07690 12/63 43408 10220 20180 30105 40135 58015 60006 80002 90000=
07690,1997-06-11 03:00:00,22,1013.6,0.1,73,17,12000,11.112,,,330,,,,,,,,,,,wg-a,,,,AAXX 11034 07690 12/62 /3306 10220 20170 30106 40136 51001 60006 81032 90300=
07690,1997-06-11 06:00:00,22,1013.7,0.1,78,18,11000,11.112,,,310,21.3,26.3,,,,,,,,,wg-a,,,,AAXX 11064 07690 02/61 /3106 10220 20180 30107 40137 53001 60006 90600 333 10263 20213 60004=
07690,1997-06-11 09:00:00,26,1012.7,-1,61,18,9000,11.112,,,90,,,,,,,,,,,wg-a,,,,AAXX 11094 07690 12/59 /0906 10260 20180 30097 40127 58010 60006 83032 90900=
07690,1997-06-11 12:00:00,26,1012.4,-0.3,61,18,12000,11.112,,,140,,,,,,,,,,,wg-a,,,,AAXX 11124 07690 12/62 31406 10260 20180 30094 40124 58003 60006 83030 91200=
07690,1997-06-11 18:00:00,24,1011.5,-0.7,74,19,15000,7.408,,,80,21.6,27.1,,,,,,,,,wg-a,,,,AAXX 11184 07690 12/65 10804 10240 20190 30085 40115 56007 60006 81032 91800 333 10271 20216=
07690,1997-06-11 21:00:00,22,1011.5,-0,78,18,15000,7.408,,,300,,,,,,,,,,,wg-a,,,,AAXX 11214 07690 12/65 23004 10220 20180 30085 40115 55000 60006 80002 92100=
07690,1997-06-12 00:00:00,19,1011,-0.5,88,17,15000,14.816,,,320,,,,,,,,,,,wg-a,,,,AAXX 12004 07690 12/65 13208 10190 20170 30080 40110 58005 60006 80002 90000=
07690,1997-06-12 03:00:00,19,1010.4,-0.6,78,15,15000,18.52,,,330,,,,,,,,,,,wg-a,,,,AAXX 12034 07690 12/65 13310 10190 20150 30074 40104 56006 60006 80002 90300=
07690,1997-06-12 06:00:00,21,1011,0.6,69,15,15000,14.816,,,330,18.2,23.8,,,,,,,,,wg-a,,,,AAXX 12064 07690 02/65 63308 10210 20150 30080 40110 51006 60006 80002 90600 333 10238 20182 60004=
07690,1997-06-12 09:00:00,24,1010.9,-0.1,69,18,15000,14.816,,,180,,,,,,,,,,,wg-a,,,,AAXX 12094 07690 12/65 51808 10240 20180 30079 40109 58001 60006 80002 90900=
07690,1997-06-12 12:00:00,24,1010.3,-0.6,78,20,15000,14.816,,,180,,,,,,,,,,,wg-a,,,,AAXX 12124 07690 12665 41808 10240 20200 30073 40103 58006 60006 81102 91200=
07690,1997-06-12 15:00:00,24,1009.7,-0.6,78,20,15000,11.112,,,200,,,,,,,,,,,wg-a,,,,AAXX 12154 07690 12665 42006 10240 20200 30067 40097 57006 60006 81202 91500=
07690,1997-06-12 18:00:00,23,1009,-0.7,83,20,12000,3.704,,,170,20.6,24.7,,,,,,,,,wg-a,,,,AAXX 12184 07690 12462 /1702 10230 20200 30060 40090 57007 60006 81402 91800 333 10247 20206=
07690,1997-06-12 21:00:00,21,1008.8,-0.2,94,20,15000,7.408,,,240,,,,,,,,,,,wg-a,,,,AAXX 12214 07690 12/65 52404 10210 20200 30058 40088 55002 60006 80002 92100=
07690,1997-06-13 00:00:00,20,1008.3,-0.5,94,19,15000,7.408,,,320,,,,,,,,,,,wg-a,,,,AAXX 13004 07690 12/65 53204 10200 20190 30053 40083 58005 60006 80002 90000=
07690,1997-06-13 06:00:00,22,1008.3,0.5,88,20,9000,11.112,,,70,19.7,22.7,,,,,,,,,wg-a,,,,AAXX 13064 07690 02459 /0706 10220 20200 30053 40083 50005 60006 83502 90600 333 10227 20197 60004=
07690,1997-06-13 09:00:00,23,1009.7,1.4,83,20,6000,18.52,,,120,,,,,,,,,,,wg-a,,,,AAXX 13094 07690 12456 71210 10230 20200 30067 40097 53014 60006 8325/ 90900=
07690,1997-06-13 12:00:00,24,1009.4,-0.3,78,20,500,7.408,,,120,,,,,,,,,,,wg-a,,,,AAXX 13124 07690 12400 /1204 10240 20200 30064 40094 56003 60006 83202 91200=
07690,1997-06-13 15:00:00,24,1008.6,-0.8,78,20,6000,7.408,,,120,,,,,,,,,,,wg-a,,,,AAXX 13154 07690 12456 /1204 10240 20200 30056 40086 57008 60006 82202 91500=
07690,1997-06-13 18:00:00,23,1008.3,-0.3,83,20,8000,3.704,,,90,22.1,24.4,,,,,,,,,wg-a,,,,AAXX 13184 07690 12458 /0902 10230 20200 30053 40083 55003 60006 83502 91800 333 10244 20221=
07690,1997-06-14 00:00:00,20,1008.8,-0.3,94,19,8000,11.112,,,330,,,,,,,,,,,wg-a,,,,AAXX 14004 07690 12458 63306 10200 20190 30058 40088 58003 60006 86500 90000=
07690,1997-06-14 03:00:00,19,1008.6,-0.2,94,18,7000,11.112,,,330,,,,,,,,,,,wg-a,,,,AAXX 14034 07690 12457 53306 10190 20180 30056 40086 55002 60006 85500 90300=
07690,1997-06-14 06:00:00,20,1009.4,0.8,88,18,500,11.112,,,330,18.9,22.6,,,,,,,,,wg-a,,,,AAXX 14064 07690 02400 73306 10200 20180 30064 40094 52008 60006 87502 90600 333 10226 20189 60004=
07690,1997-06-14 09:00:00,23,1009.8,0.4,83,20,6000,14.816,,,180,,,,,,,,,,,wg-a,,,,AAXX 14094 07690 12456 31808 10230 20200 30068 40098 52004 60006 83230 90900=
07690,1997-06-14 12:00:00,24,1009.9,0.1,83,21,8000,11.112,,,110,,,,,,,,,,,wg-a,,,,AAXX 14124 07690 12558 51106 10240 20210 30069 40099 50001 60006 82280 91200=
07690,1997-06-14 15:00:00,25,1008.7,-1.2,79,21,6000,22.224,,,90,,,,,,,,,,,wg-a,,,,AAXX 14154 07690 12756 20912 10250 20210 30057 40087 58012 60006 81580 91500=
07690,1997-06-14 18:00:00,24,1008.5,-0.2,83,21,6000,25.928,,,80,20.4,25.1,,,,,,,,,wg-a,,,,AAXX 14184 07690 12/56 00814 10240 20210 30055 40085 55002 60006 80000 91800 333 10251 20204=
07690,1997-06-14 21:00:00,23,1010.9,2.4,89,21,9000,22.224,,,90,,,,,,,,,,,wg-a,,,,AAXX 14214 07690 12459 /0912 10230 20210 30079 40109 53024 60006 81500 92100=
07690,1997-06-15 00:00:00,20,1012,1.1,94,19,10000,11.112,,,320,,,,,,,,,,,wg-a,,,,AAXX 15004 07690 12460 33206 10200 20190 30090 40120 51011 60006 83500 90000=
07690,1997-06-15 06:00:00,19,1013.3,1,68,13,15000,18.52,,,330,17.6,24,,,,,,,,,wg-a,,,,AAXX 15064 07690 02465 /3310 10190 20130 30102 40133 52010 60006 81500 90600 333 10240 20176 60004=
07690,1997-06-15 09:00:00,24,1014,0.8,78,20,15000,11.112,,,170,,,,,,,,,,,wg-a,,,,AAXX 15094 07690 12565 /1706 10240 20200 30110 40140 53008 60006 81100 90900=
07690,1997-06-15 12:00:00,25,1014.8,0.8,65,18,12000,11.112,,,120,,,,,,,,,,,wg-a,,,,AAXX 15124 07690 12562 /1206 10250 20180 30118 40148 51008 60006 81200 91200=
07690,1997-06-15 18:00:00,24,1014.5,0.1,65,17,500,3.704,,,140,19.4,25.3,,,,,,,,,wg-a,,,,AAXX 15184 07690 12/00 31402 10240 20170 30115 40145 53001 60006 80001 91800 333 10253 20194=
07690,1997-06-15 21:00:00,21,1015.2,0.7,78,17,15000,11.112,,,320,,,,,,,,,,,wg-a,,,,AAXX 15214 07690 12/65 33206 10210 20170 30122 40152 53007 60006 80001 92100=
07690,1997-06-16 00:00:00,20,1015.6,0.4,83,17,15000,11.112,,,330,,,,,,,,,,,wg-a,,,,AAXX 16004 07690 12/65 23306 10200 20170 30126 40156 50004 60006 80001 90000=
07690,1997-06-16 03:00:00,19,1015,-0.7,83,16,15000,11.112,,,340,,,,,,,,,,,wg-a,,,,AAXX 16034 07690 12/65 43406 10190 20160 30119 40150 56007 60006 82031 90300=
07690,1997-06-16 06:00:00,20,1015.8,0.8,78,16,12000,14.816,,,330,18.6,23.6,,,,,,,,,wg-a,,,,AAXX 16064 07690 02762 73308 10200 20160 30127 40158 53008 60006 8353/ 90600 333 10236 20186 60004=
07690,1997-06-16 09:00:00,22,1015.9,0.2,83,19,8000,11.112,,,190,,,,1,,,,,,21,wg-a,,,,AAXX 16094 07690 12358 /1906 10220 20190 30129 40159 53002 60017 72162 8288/ 90900=
07690,1997-06-16 12:00:00,25,1015.5,-0.4,69,19,10000,11.112,,,110,,,,,,,,,,1,wg-a,,,,AAXX 16124 07690 12460 /1106 10250 20190 30125 40155 58004 60016 70161 81282 91200=
07690,1997-06-16 15:00:00,25,1014.7,-0.8,74,20,9000,11.112,,,160,,,,,,,,,,,wg-a,,,,AAXX 16154 07690 12459 /1606 10250 20200 30117 40147 58008 60006 81282 91500=
07690,1997-06-16 18:00:00,24,1013.1,-1.6,74,19,9000,3.704,,,150,19.8,25.3,,,,,,,,,wg-a,,,,AAXX 16184 07690 12459 /1502 10240 20190 30101 40131 56016 60006 81282 91800 333 10253 20198=
07690,1997-06-17 00:00:00,20,1013.8,-1.3,94,19,12000,7.408,,,310,,,,,,,,,,1,wg-a,,,,AAXX 17004 07690 02762 33104 10200 20190 30108 40138 56013 60026 70198 82530 90000 333 61000=
07690,1997-06-17 03:00:00,19,1013,-0.9,94,18,15000,11.112,,,330,,,,,,,,,,,wg-a,,,,AAXX 17034 07690 12/65 13306 10190 20180 30099 40130 58009 60006 81030 90300=
07690,1997-06-17 06:00:00,22,1013.1,0.2,88,20,10000,18.52,,,80,18.2,23.8,,,,,3,,,,wg-a,,,,AAXX 17064 07690 02460 30810 10220 20200 30101 40131 53002 60006 81101 90600 333 10238 20182 60034=
07690,1997-06-17 09:00:00,24,1013.6,0.5,78,20,15000,14.816,,,100,,,,,,,,,,,wg-a,,,,AAXX 17094 07690 12465 21008 10240 20200 30106 40136 51005 60006 81101 90900=
07690,1997-06-17 12:00:00,25,1013.7,0.1,69,19,15000,11.112,,,130,,,,,,,,,,,wg-a,,,,AAXX 17124 07690 12565 /1306 10250 20190 30107 40137 50001 60006 81130 91200=
07690,1997-06-17 15:00:00,25,1012.6,-1.1,69,19,20000,18.52,,,100,,,,,,,,,,,wg-a,,,,AAXX 17154 07690 12670 /1010 10250 20190 30096 40126 58011 60006 81200 91500=
07690,1997-06-17 18:00:00,24,1012.2,-0.4,74,19,15000,14.816,,,100,22.4,25.4,,,,,,,,,wg-a,,,,AAXX 17184 07690 12665 21008 10240 20190 30092 40122 56004 60006 81201 91800 333 10254 20224=
07690,1997-06-17 21:00:00,23,1013.1,0.9,83,20,10000,14.816,,,80,,,,,,,,,,,wg-a,,,,AAXX 17214 07690 12/60 /0808 10230 20200 30101 40131 53009 60006 92100=
07690,1997-06-18 00:00:00,20,1013.6,0.5,88,18,15000,7.408,,,320,,,,,,,,,,,wg-a,,,,AAXX 18004 07690 12/65 13204 10200 20180 30106 40136 53005 60006 81032 90000=
07690,1997-06-18 03:00:00,19,1011.7,-1.9,88,17,15000,7.408,,,240,,,,,,,,,,,wg-a,,,,AAXX 18034 07690 12765 12404 10190 20170 30087 40117 56019 60006 81500 90300=
07690,1997-06-18 06:00:00,22,1011.9,0.2,83,19,10000,11.112,,,120,17.8,24.4,,,,,,,,,wg-a,,,,AAXX 18064 07690 02460 31206 10220 20190 30089 40119 53002 60006 81531 90600 333 10244 20178 60004=
07690,1997-06-18 09:00:00,24,1011.8,-0.1,74,19,15000,11.112,,,130,,,,,,,,,,,wg-a,,,,AAXX 18094 07690 12465 /1306 10240 20190 30088 40118 58001 60006 81101 90900=
07690,1997-06-18 12:00:00,25,1012,0.2,74,20,15000,14.816,,,100,,,,,,,,,,,wg-a,,,,AAXX 18124 07690 12465 21008 10250 20200 30090 40120 52002 60006 81101 91200=
07690,1997-06-18 15:00:00,25,1010.5,-1.5,65,18,20000,14.816,,,100,,,,,,,,,,,wg-a,,,,AAXX 18154 07690 12470 31008 10250 20180 30075 40105 56015 60006 81101 91500=
07690,1997-06-18 18:00:00,25,1009.2,-1.3,69,19,15000,14.816,,,80,22.2,25.6,,,,,,,,,wg-a,,,,AAXX 18184 07690 12/65 60808 10250 20190 30062 40092 56013 60006 80001 91800 333 10256 20222=
07690,1997-06-18 21:00:00,24,1010.7,1.5,74,19,15000,14.816,,,100,,,,,,,,,,,wg-a,,,,AAXX 18214 07690 12465 71008 10240 20190 30077 40107 53015 60006 83582 92100=
07690,1997-06-19 00:00:00,23,1010.4,-0.3,89,21,15000,14.816,,,70,,,,,,,,,,,wg-a,,,,AAXX 19004 07690 12465 70708 10230 20210 30074 40104 56003 60006 8457/ 90000=
07690,1997-06-19 03:00:00,23,1006.8,-3.6,61,15,10000,25.928,,,30,,,,0,,,,,,3,wg-a,,,,AAXX 19034 07690 12460 70314 10230 20150 30038 40068 58036 60007 70362 8398/ 90300=
07690,1997-06-19 06:00:00,19,1008,1.2,88,17,9000,11.112,,,300,19.3,24.7,,,,,,,,21,wg-a,,,,AAXX 19064 07690 02259 83006 10190 20170 30050 40080 53012 61000 72162 8398/ 90600 333 10247 20193 6002=
07690,1997-06-19 12:00:00,22,1003.6,-2.4,78,18,11000,25.928,,,190,,,,2,,,,,,1,wg-a,,,,AAXX 19124 07690 02461 /1914 10220 20180 30006 40036 56024 60136 70196 81182 91200 333 60027=
07690,1997-06-19 15:00:00,26,1001.7,-1.8,61,18,20000,25.928,,,60,,,,,,,,,,,wg-a,,,,AAXX 19154 07690 12470 30614 10260 20180 39988 40017 58018 60006 82202 91500=
07690,1997-06-19 18:00:00,24,1002.9,1.1,69,18,25000,25.928,,,90,17.7,26.1,,,,,,,,,wg-a,,,,AAXX 19184 07690 12575 30914 10240 20180 39999 40029 53011 60006 81101 91800 333 10261 20177=
07690,1997-06-19 21:00:00,22,1004.8,1.9,78,18,15000,14.816,,,100,,,,,,,,,,,wg-a,,,,AAXX 19214 07690 12565 21008 10220 20180 30018 40048 53019 60006 81501 92100=
07690,1997-06-20 00:00:00,18,1005.3,0.5,94,17,15000,14.816,,,330,,,,,,,,,,,wg-a,,,,AAXX 20004 07690 12465 33308 10180 20170 30023 40053 51005 60006 81501 90000=
07690,1997-06-20 03:00:00,17,1004.3,-1.1,77,13,15000,18.52,,,330,,,,,,,,,,,wg-a,,,,AAXX 20034 07690 12765 63310 10170 20130 30012 40043 56011 60006 83501 90300=
07690,1997-06-20 06:00:00,19,1004.9,0.7,68,13,15000,7.408,,,290,16.3,23.6,,,,,13,,,,wg-a,,,,AAXX 20064 07690 02765 42904 10190 20130 30019 40049 53007 60006 81541 90600 333 10236 20163 60134=
07690,1997-06-20 09:00:00,24,1005.7,0.8,50,13,50000,11.112,,,210,,,,,,,,,,,wg-a,,,,AAXX 20094 07690 12684 42106 10240 20130 30027 40057 51008 60006 81101 90900=
07690,1997-06-20 12:00:00,25,1004.6,-1.1,47,13,50000,46.3,,,250,,,,,,,,,,,wg-a,,,,AAXX 20124 07690 12684 /2525 10250 20130 30016 40046 58011 60006 81202 91200=
07690,1997-06-20 18:00:00,25,1004.1,-0,47,13,50000,38.892,,64.82,250,18.5,26.4,,,,,,,,,wg-a,,,,AAXX 20184 07690 12784 22521 10250 20130 30011 40041 55000 60006 81102 91800 333 10264 20185 91035=
07690,1997-06-20 21:00:00,23,1006.8,2.7,73,18,20000,29.632,,,80,,,,,,,,,,,wg-a,,,,AAXX 20214 07690 12/70 30816 10230 20180 30038 40068 53027 60006 81042 92100=
07690,1997-06-21 00:00:00,21,1008.2,1.4,78,17,20000,7.408,,,300,,,,,,,,,,,wg-a,,,,AAXX 21004 07690 12/70 33004 10210 20170 30052 40082 53014 60006 80002 90000=
07690,1997-06-21 03:00:00,17,1008.1,-0.2,88,15,20000,7.408,,,290,,,,,,,,,,,wg-a,,,,AAXX 21034 07690 12/70 12904 10170 20150 30050 40081 55002 60006 80002 90300=
07690,1997-06-21 06:00:00,19,1009.4,1.4,68,13,25000,7.408,,,330,16.7,25.5,,,,,,,,,wg-a,,,,AAXX 21064 07690 02/75 13304 10190 20130 30064 40094 51014 60006 81042 90600 333 10255 20167 60004=
07690,1997-06-21 09:00:00,22,1010.4,1,78,18,25000,18.52,,,210,,,,,,,,,,,wg-a,,,,AAXX 21094 07690 12475 /2110 10220 20180 30074 40104 50010 60006 81502 90900=
07690,1997-06-21 12:00:00,23,1010.1,-0.3,83,20,15000,22.224,,,170,,,,,,,,,,,wg-a,,,,AAXX 21124 07690 12465 /1712 10230 20200 30071 40101 58003 60006 81230 91200=
07690,1997-06-21 18:00:00,22,1008,-0.9,88,20,15000,11.112,,,190,18.7,23.9,,,,,,,,,wg-a,,,,AAXX 21184 07690 12365 61906 10220 20200 30050 40080 56009 60006 86200 91800 333 10239 20187=
07690,1997-06-21 21:00:00,22,1008.3,0.3,88,20,15000,7.408,,,130,,,,,,,,,,,wg-a,,,,AAXX 21214 07690 12365 31304 10220 20200 30053 40083 50003 60006 81580 92100=
07690,1997-06-22 00:00:00,19,1006.5,-1.8,94,18,12000,7.408,,,330,,,,,,,,,,,wg-a,,,,AAXX 22004 07690 12362 33304 10190 20180 30035 40065 58018 60006 81501 90000=
07690,1997-06-22 03:00:00,18,1004.8,-1.7,94,17,15000,14.816,,,330,,,,,,,,,,,wg-a,,,,AAXX 22034 07690 12/65 73308 10180 20170 30018 40048 56017 60006 8703/ 90300=
07690,1997-06-22 06:00:00,19,1004,-0.8,88,17,25000,11.112,,,320,17.8,22.4,,,,,,,,,wg-a,,,,AAXX 22064 07690 02775 73206 10190 20170 30010 40040 56008 60006 81282 90600 333 10224 20178 60004=
07690,1997-06-22 09:00:00,22,1004,0,83,19,15000,22.224,,,200,,,,,,,,,,,wg-a,,,,AAXX 22094 07690 12565 72012 10220 20190 30010 40040 50000 60006 83222 90900=
07690,1997-06-22 12:00:00,25,1003.8,-0.2,54,15,35000,25.928,,,200,,,,,,,,,,,wg-a,,,,AAXX 22124 07690 12681 /2014 10250 20150 30008 40038 58002 60006 82232 91200=
07690,1997-06-22 15:00:00,24,1003.5,-0.3,50,13,35000,25.928,,,240,,,,,,,,,,,wg-a,,,,AAXX 22154 07690 12681 52414 10240 20130 30005 40035 56003 60006 81232 91500=
07690,1997-06-22 18:00:00,23,1003.3,-0.2,50,12,35000,35.188,,,260,19.1,25.4,,,,,,,,,wg-a,,,,AAXX 22184 07690 12781 /2619 10230 20120 30003 40033 55002 60006 82580 91800 333 10254 20191=
07690,1997-06-22 21:00:00,22,1004.8,1.5,50,11,500,25.928,,,270,,,,,,,,,,,wg-a,,,,AAXX 22214 07690 12/00 12714 10220 20110 30018 40048 53015 60006 81030 92100=
07690,1997-06-23 00:00:00,20,1005,0.2,46,8,500,22.224,,,290,,,,,,,,,,,wg-a,,,,AAXX 23004 07690 12/00 02912 10200 20080 30020 40050 50002 60006 80000 90000=
07690,1997-06-23 03:00:00,18,1005.3,0.3,49,7,500,18.52,,,300,,,,,,,,,,,wg-a,,,,AAXX 23034 07690 12/00 03010 10180 20070 30023 40053 53003 60006 80000 90300=
07690,1997-06-23 06:00:00,18,1005.9,0.6,59,10,50000,18.52,,,230,17.1,23,,,,,,,,,wg-a,,,,AAXX 23064 07690 02/84 02310 10180 20100 30029 40059 53006 60006 80000 90600 333 10230 20171 60004=
07690,1997-06-23 09:00:00,24,1006.2,0.3,31,6,50000,7.408,,,190,,,,,,,,,,,wg-a,,,,AAXX 23094 07690 12484 21904 10240 20060 30032 40062 51003 60006 82800 90900=
07690,1997-06-23 12:00:00,25,1006.9,0.7,39,10,50000,25.928,,,90,,,,,,,,,,,wg-a,,,,AAXX 23124 07690 12584 20914 10250 20100 30039 40069 51007 60006 82200 91200=
07690,1997-06-23 18:00:00,22,1007.7,0.4,65,15,50000,14.816,,,120,17.9,25.8,,,,,,,,,wg-a,,,,AAXX 23184 07690 12584 /1208 10220 20150 30047 40077 53004 60006 81100 91800 333 10258 20179=
07690,1997-06-24 00:00:00,17,1010.3,0.4,77,13,20000,14.816,,,320,,,,,,,,,,,wg-a,,,,AAXX 24004 07690 12470 /3208 10170 20130 30072 40103 51004 60006 86500 90000=
07690,1997-06-24 03:00:00,16,1009.9,-0.4,72,11,20000,18.52,,,330,,,,,,,,,,,wg-a,,,,AAXX 24034 07690 12470 23310 10160 20110 30068 40099 57004 60006 82502 90300=
07690,1997-06-24 06:00:00,18,1011,1.1,56,9,35000,14.816,,,330,14.9,21.8,,,,,,,,,wg-a,,,,AAXX 24064 07690 02481 /3308 10180 20090 30079 40110 51011 60006 81800 90600 333 10218 20149 60004=
07690,1997-06-24 09:00:00,22,1011.6,0.7,65,15,40000,11.112,,,170,,,,,,,,,,,wg-a,,,,AAXX 24094 07690 12682 21706 10220 20150 30086 40116 51007 60006 82200 90900=
07690,1997-06-24 12:00:00,22,1011.5,-0.1,65,15,40000,11.112,,,140,,,,,,,,,,,wg-a,,,,AAXX 24124 07690 12682 21406 10220 20150 30085 40115 58001 60006 82200 91200=
07690,1997-06-24 15:00:00,23,1010.5,-1,69,17,35000,14.816,,,140,,,,,,,,,,,wg-a,,,,AAXX 24154 07690 12681 31408 10230 20170 30075 40105 56010 60006 83260 91500=
07690,1997-06-24 18:00:00,22,1009,-1.5,69,16,35000,7.408,,,90,18,23.2,,,,,,,,,wg-a,,,,AAXX 24184 07690 12681 20904 10220 20160 30060 40090 56015 60006 82200 91800 333 10232 20180=
07690,1997-06-24 21:00:00,21,1010.4,1.4,73,16,20000,14.816,,,70,,,,,,,,,,,wg-a,,,,AAXX 24214 07690 12/70 /0708 10210 20160 30074 40104 53014 60006 80000 92100=
07690,1997-06-25 00:00:00,17,1011.4,0.9,72,12,20000,14.816,,,320,,,,,,,,,,,wg-a,,,,AAXX 25004 07690 12470 33208 10170 20120 30083 40114 51009 60006 83500 90000=
07690,1997-06-25 03:00:00,17,1011.1,-0.3,68,11,20000,14.816,,,340,,,,,,,,,,,wg-a,,,,AAXX 25034 07690 12470 /3408 10170 20110 30080 40111 55003 60006 81500 90300=
07690,1997-06-25 06:00:00,19,1011,-0.1,60,11,20000,14.816,,,320,16.4,21.5,,,,,,,,,wg-a,,,,AAXX 25064 07690 02/70 /3208 10190 20110 30079 40110 57001 60006 81031 90600 333 10215 20164 60004=
07690,1997-06-25 09:00:00,22,1010.8,-0.1,78,18,500,22.224,,,110,,,,,,,,,,,wg-a,,,,AAXX 25094 07690 12400 21112 10220 20180 30078 40108 57001 60006 82101 90900=
07690,1997-06-25 12:00:00,22,1011.1,0.3,73,17,500,11.112,,,110,,,,,,,,,,,wg-a,,,,AAXX 25124 07690 12400 /1106 10220 20170 30081 40111 51003 60006 82101 91200=
07690,1997-06-25 15:00:00,23,1009.5,-1.6,61,15,500,18.52,,,100,,,,,,,,,,,wg-a,,,,AAXX 25154 07690 12500 /1010 10230 20150 30065 40095 58016 60006 82101 91500=
07690,1997-06-25 18:00:00,21,1008.6,-0.9,69,15,500,7.408,,,140,18.6,23.1,,,,,,,,,wg-a,,,,AAXX 25184 07690 12400 /1404 10210 20150 30056 40086 57009 60006 82872 91800 333 10231 20186=
07690,1997-06-25 21:00:00,19,1008.5,-0.1,94,18,20000,11.112,,,250,,,,,,,,,,,wg-a,,,,AAXX 25214 07690 12670 72506 10190 20180 30055 40085 55001 60006 81532 92100=
07690,1997-06-26 00:00:00,18,1006.2,-2.3,88,16,20000,7.408,,,280,,,,,,,,,,,wg-a,,,,AAXX 26004 07690 12670 72804 10180 20160 30032 40062 56023 60006 82532 90000=
07690,1997-06-26 03:00:00,17,1004.7,-1.6,82,14,20000,11.112,,,320,,,,,,,,,,,wg-a,,,,AAXX 26034 07690 12670 73206 10170 20140 30016 40047 56016 60006 81532 90300=
07690,1997-06-26 06:00:00,18,1004.2,-0.4,68,12,25000,7.408,,,270,16.2,21.3,,,,,,,,,wg-a,,,,AAXX 26064 07690 02775 72704 10180 20120 30012 40042 56004 60006 83532 90600 333 10213 20162 60004=
07690,1997-06-26 12:00:00,19,1003.5,-0.7,94,18,6000,11.112,,,240,,,,2,,,,,,60,wg-a,,,,AAXX 26124 07690 02256 72406 10190 20180 30005 40035 56007 60026 76086 8597/ 91200 333 60027=
07690,1997-06-26 15:00:00,20,1002,-1.5,88,18,9000,7.408,,,160,,,,0,,,,,,1,wg-a,,,,AAXX 26154 07690 12359 71604 10200 20180 39990 40020 56015 60007 70162 8457/ 91500=
07690,1997-06-26 18:00:00,20,1001,-1,94,19,6000,11.112,,,210,18.2,21.4,,,,,,,,3,wg-a,,,,AAXX 26184 07690 12356 72106 10200 20190 39980 40010 56010 60006 70362 8383/ 91800 333 10214 20182=
07690,1997-06-26 21:00:00,19,1001,-0,94,18,12000,11.112,,,220,,,,,,,,,,1,wg-a,,,,AAXX 26214 07690 02462 82206 10190 20180 39980 40010 55000 61000 70162 8353/ 92100 333 ////=
07690,1997-06-27 00:00:00,19,1000.3,-0.7,94,18,12000,7.408,,,340,,,,,,,,,,3,wg-a,,,,AAXX 27004 07690 02462 73404 10190 20180 39973 40003 58007 61000 70361 8187/ 90000 333 ////=
07690,1997-06-27 03:00:00,16,1000.7,0.4,94,15,9000,11.112,,,250,,,,9,,,,,,63,wg-a,,,,AAXX 27034 07690 12559 82506 10160 20150 39977 40007 50004 60097 76362 8657/ 90300=
07690,1997-06-27 06:00:00,16,1000.5,-0.2,100,16,6000,11.112,,,260,15.9,20.1,,,,,,,,63,wg-a,,,,AAXX 27064 07690 02356 82606 10160 20160 39975 40005 55002 61000 76362 8597/ 90600 333 10201 20159 6017=
07690,1997-06-27 12:00:00,19,1002.6,1,83,16,15000,7.408,,,330,,,,,,,,,,1,wg-a,,,,AAXX 27124 07690 12365 83304 10190 20160 39996 40026 51010 60056 70162 8387/ 91200=
07690,1997-06-27 18:00:00,20,1002.9,0.5,73,15,500,11.112,,,150,15.7,21.1,,,,,,,,,wg-a,,,,AAXX 27184 07690 12500 /1506 10200 20150 39999 40029 53005 60006 81232 91800 333 10211 20157=
07690,1997-06-28 00:00:00,17,1005,0.1,94,16,20000,11.112,,,330,,,,,,,,,,,wg-a,,,,AAXX 28004 07690 12570 /3306 10170 20160 30019 40050 50001 60006 81530 90000=
07690,1997-06-28 06:00:00,18,1006,0.9,77,14,500,7.408,,,340,15.5,20.3,,,,,5,,,,wg-a,,,,AAXX 28064 07690 02/00 /3404 10180 20140 30030 40060 53009 60006 80000 90600 333 10203 20155 60054=
07690,1997-06-28 09:00:00,22,1007.4,1.4,73,17,500,18.52,,,110,,,,,,,,,,,wg-a,,,,AAXX 28094 07690 12500 /1110 10220 20170 30044 40074 52014 60006 81132 90900=
07690,1997-06-28 12:00:00,22,1007.8,0.4,73,17,40000,7.408,,,100,,,,,,,,,,,wg-a,,,,AAXX 28124 07690 12682 /1004 10220 20170 30048 40078 50004 60006 81202 91200=
07690,1997-06-28 15:00:00,23,1007.8,-0,69,17,500,3.704,,,130,,,,,,,,,,,wg-a,,,,AAXX 28154 07690 12700 71302 10230 20170 30048 40078 55000 60006 81272 91500=
07690,1997-06-28 18:00:00,21,1007,-0.8,78,17,25000,7.408,,,220,18,23.5,,,,,,,,,wg-a,,,,AAXX 28184 07690 12475 72204 10210 20170 30040 40070 55008 60006 81136 91800 333 10235 20180=
07690,1997-06-28 21:00:00,20,1008.3,1.3,88,18,20000,3.704,,,200,,,,,,,,,,,wg-a,,,,AAXX 28214 07690 12570 82002 10200 20180 30053 40083 51013 60006 81576 92100=
07690,1997-06-29 00:00:00,20,1007.2,-1.1,88,18,20000,7.408,,,270,,,,0,,,,,,3,wg-a,,,,AAXX 29004 07690 02670 82704 10200 20180 30042 40072 55011 60006 70362 8157/ 90000 333 60007=
07690,1997-06-29 03:00:00,19,1007.6,0.4,94,18,12000,7.408,,,10,,,,3,,,,,,60,wg-a,,,,AAXX 29034 07690 12462 80104 10190 20180 30046 40076 50004 60037 76062 8452/ 90300=
07690,1997-06-29 06:00:00,18,1006.8,-0.8,94,17,3000,3.704,,,130,17.9,22.2,,,,,,,,63,wg-a,,,,AAXX 29064 07690 02230 81302 10180 20170 30038 40068 55008 61000 76386 8697/ 90600 333 10222 20179 6009=
07690,1997-06-29 09:00:00,19,1006.3,-0.5,94,18,12000,18.52,,,190,,,,14,,,,,,25,wg-a,,,,AAXX 29094 07690 12262 71910 10190 20180 30033 40063 55005 60147 72586 8/200 90900=
07690,1997-06-29 12:00:00,22,1006.2,-0.1,73,17,25000,29.632,,,200,,,,,,,,,,1,wg-a,,,,AAXX 29124 07690 12575 32016 10220 20170 30032 40062 58001 60146 70186 82230 91200=
07690,1997-06-29 15:00:00,21,1006.7,0.5,64,14,35000,38.892,,,210,,,,,,,,,,,wg-a,,,,AAXX 29154 07690 12681 22121 10210 20140 30037 40067 53005 60006 82200 91500=
07690,1997-06-29 18:00:00,20,1006.5,-0.2,68,14,35000,31.484,,,210,17.8,23.1,,,,,,,,,wg-a,,,,AAXX 29184 07690 12681 /2117 10200 20140 30035 40065 58002 60006 82203 91800 333 10231 20178=
07690,1997-06-29 21:00:00,18,1007.3,0.7,68,12,500,18.52,,,250,,,,,,,,,,,wg-a,,,,AAXX 29214 07690 12400 22510 10180 20120 30042 40073 52007 60006 81132 92100=
07690,1997-06-30 00:00:00,16,1007.4,0.1,72,11,500,14.816,,,270,,,,,,,,,,,wg-a,,,,AAXX 30004 07690 12/00 12708 10160 20110 30043 40074 50001 60006 81030 90000=
07690,1997-06-30 03:00:00,15,1007.4,-0,77,11,500,14.816,,,280,,,,,,,,,,,wg-a,,,,AAXX 30034 07690 12/00 12808 10150 20110 30043 40074 55000 60006 81030 90300=
07690,1997-06-30 06:00:00,16,1008.1,0.7,72,11,500,11.112,,,260,13.4,19.5,,,,,14,,,,wg-a,,,,AAXX 30064 07690 02500 32606 10160 20110 30050 40081 52007 60006 81131 90600 333 10195 20134 60144=
07690,1997-06-30 09:00:00,20,1008.3,0.3,64,13,50000,35.188,,,210,,,,,,,,,,,wg-a,,,,AAXX 30094 07690 12584 32119 10200 20130 30053 40083 53003 60006 81242 90900=
07690,1997-06-30 12:00:00,22,1008.2,-0.1,53,12,50000,38.892,,,230,,,,,,,,,,,wg-a,,,,AAXX 30124 07690 12784 32321 10220 20120 30052 40082 55001 60006 82202 91200=
07690,1997-06-30 15:00:00,20,1007.8,-0.4,68,14,40000,50.004,,64.82,210,,,,,,,,,,,wg-a,,,,AAXX 30154 07690 12782 32127 10200 20140 30048 40078 57004 60006 82202 91500 333 91035=
07690,1997-06-30 18:00:00,21,1008.8,1,56,12,40000,31.484,,64.82,240,16.3,22.5,,,,,,,,,wg-a,,,,AAXX 30184 07690 12782 32417 10210 20120 30058 40088 53010 60006 82203 91800 333 10225 20163 91035=
07690,1997-06-30 21:00:00,19,1010.9,2,64,12,500,18.52,,,260,,,,,,,,,,,wg-a,,,,AAXX 30214 07690 12700 /2610 10190 20120 30078 40109 51020 60006 81400 92100=
07690,1997-07-01 00:00:00,18,1010.6,-0.3,64,11,500,7.408,,,220,,,,,,,,,,,wg-a,,,,AAXX 01004 07690 12/00 02204 10180 20110 30075 40106 55003 60006 80000 90000=
07690,1997-07-01 03:00:00,17,1010.7,0.1,63,10,500,14.816,,,320,,,,,,,,,,,wg-a,,,,AAXX 01034 07690 12/00 13208 10170 20100 30076 40107 53001 60006 80002 90300=
07690,1997-07-01 06:00:00,17,1011.9,1.2,63,10,50000,11.112,,,320,14.6,21.2,,,,,,,,,wg-a,,,,AAXX 01064 07690 02/84 03206 10170 20100 30088 40119 53012 60006 80000 90600 333 10212 20146 60004=
07690,1997-07-01 12:00:00,21,1011.9,-0.1,64,14,40000,42.596,,64.82,210,,,,,,,,,,,wg-a,,,,AAXX 01124 07690 12582 42123 10210 20140 30089 40119 55001 60006 81202 91200 333 91035=
07690,1997-07-01 15:00:00,20,1011.6,-0.3,73,15,40000,42.596,,,210,,,,,,,,,,,wg-a,,,,AAXX 01154 07690 12682 52123 10200 20150 30086 40116 56003 60006 81232 91500=
07690,1997-07-01 18:00:00,19,1012.2,0.6,78,15,40000,35.188,,,210,17.2,21,,,,,,,,,wg-a,,,,AAXX 01184 07690 12682 /2119 10190 20150 30092 40122 52006 60006 81230 91800 333 10210 20172=
07690,1997-07-01 21:00:00,17,1014.3,2,88,15,20000,7.408,,,260,,,,,,,,,,,wg-a,,,,AAXX 01214 07690 12/70 /2604 10170 20150 30112 40143 51020 60006 81040 92100=
07690,1997-07-02 00:00:00,16,1015.1,0.8,88,14,20000,7.408,,,320,,,,,,,,,,,wg-a,,,,AAXX 02004 07690 12/70 03204 10160 20140 30120 40151 51008 60006 80000 90000=
07690,1997-07-02 03:00:00,16,1015.6,0.5,77,12,20000,7.408,,,30,,,,,,,,,,,wg-a,,,,AAXX 02034 07690 12/70 40304 10160 20120 30125 40156 53005 60006 82032 90300=
07690,1997-07-02 06:00:00,19,1016,0.4,78,15,500,18.52,,,60,15,19.4,,,,,,,,,wg-a,,,,AAXX 02064 07690 02500 70610 10190 20150 30129 40160 53004 60006 81532 90600 333 10194 20150 60004=
07690,1997-07-02 12:00:00,21,1016.9,1.2,73,16,15000,11.112,,,70,,,,,,,,,,60,wg-a,,,,AAXX 02124 07690 02565 80706 10210 20160 30139 40169 51012 61000 76062 8153/ 91200 333 6100=
07690,1997-07-02 15:00:00,19,1015.8,-0,88,17,12000,18.52,,,40,,,,1,,,,,,61,wg-a,,,,AAXX 02154 07690 12562 80410 10190 20170 30127 40158 54000 60017 76166 8157/ 91500=
07690,1997-07-02 18:00:00,19,1015.4,-0.4,83,16,10000,14.816,,,90,18.9,20.8,,,,,,,,1,wg-a,,,,AAXX 02184 07690 02460 80908 10190 20160 30123 40154 57004 60006 70162 8287/ 91800 333 10208 20189 61000=
07690,1997-07-02 21:00:00,19,1017.4,2,78,15,12000,14.816,,,70,,,,,,,,,,,wg-a,,,,AAXX 02214 07690 12462 70708 10190 20150 30143 40174 51020 60006 85872 92100=
07690,1997-07-03 00:00:00,18,1015.6,-1.8,83,15,15000,7.408,,,100,,,,,,,,,,25,wg-a,,,,AAXX 03004 07690 02665 /1004 10180 20150 30125 40156 58018 61000 72586 84870 90000 333 6100=
07690,1997-07-03 03:00:00,17,1015.4,-0.2,94,16,15000,11.112,,,10,,,,1,,,,,,2,wg-a,,,,AAXX 03034 07690 12665 70106 10170 20160 30123 40154 58002 60017 70262 8387/ 90300=
07690,1997-07-03 06:00:00,16,1015.6,0.2,94,15,15000,7.408,,,350,15.8,19.3,,,,,,,,61,wg-a,,,,AAXX 03064 07690 02565 73504 10160 20150 30125 40156 50002 61000 76162 8257/ 90600 333 10193 20158 6004=
07690,1997-07-03 12:00:00,22,1015.7,-0.7,78,18,500,11.112,,,150,,,,,,,,,,3,wg-a,,,,AAXX 03124 07690 12500 31506 10220 20180 30127 40157 58007 60006 70361 81270 91200=
07690,1997-07-03 15:00:00,22,1015.4,-0.3,78,18,500,14.816,,,120,,,,,,,,,,,wg-a,,,,AAXX 03154 07690 12500 21208 10220 20180 30124 40154 55003 60006 82230 91500=
07690,1997-07-03 18:00:00,22,1015.7,0.3,78,18,500,14.816,,,100,16.3,22.7,,,,,,,,,wg-a,,,,AAXX 03184 07690 12500 41008 10220 20180 30127 40157 53003 60006 81130 91800 333 10227 20163=
07690,1997-07-03 21:00:00,20,1016.8,1.1,88,18,25000,3.704,,,50,,,,,,,,,,,wg-a,,,,AAXX 03214 07690 12675 /0502 10200 20180 30138 40168 53011 60006 81400 92100=
07690,1997-07-04 00:00:00,18,1017,0.1,94,17,25000,11.112,,,330,,,,,,,,,,,wg-a,,,,AAXX 04004 07690 12675 /3306 10180 20170 30139 40170 50001 60006 81570 90000=
07690,1997-07-04 03:00:00,18,1015.9,-1.1,77,14,25000,11.112,,,350,,,,,,,,,,,wg-a,,,,AAXX 04034 07690 12/75 13506 10180 20140 30128 40159 57011 60006 81030 90300=
07690,1997-07-04 06:00:00,20,1017.3,1.4,68,14,40000,7.408,,,340,17.5,21.7,,,,,,,,,wg-a,,,,AAXX 04064 07690 02782 23404 10200 20140 30142 40173 53014 60006 81580 90600 333 10217 20175 60004=
07690,1997-07-04 09:00:00,22,1017.9,0.7,83,19,500,14.816,,,120,,,,,,,,,,,wg-a,,,,AAXX 04094 07690 12600 21208 10220 20190 30149 40179 51007 60006 82200 90900=
07690,1997-07-04 12:00:00,23,1018.3,0.4,73,18,500,18.52,,,110,,,,,,,,,,,wg-a,,,,AAXX 04124 07690 12500 /1110 10230 20180 30153 40183 51004 60006 81202 91200=
07690,1997-07-04 15:00:00,23,1017.8,-0.5,69,17,500,7.408,,,150,,,,,,,,,,,wg-a,,,,AAXX 04154 07690 12600 71504 10230 20170 30148 40178 58005 60006 81232 91500=
07690,1997-07-04 18:00:00,22,1016.6,-1.2,78,18,25000,7.408,,,100,19.6,23.1,,,,,,,,,wg-a,,,,AAXX 04184 07690 12675 /1004 10220 20180 30136 40166 58012 60006 81232 91800 333 10231 20196=
07690,1997-07-04 21:00:00,19,1016.9,0.2,88,17,15000,3.704,,,30,,,,,,,,,,,wg-a,,,,AAXX 04214 07690 12665 /0302 10190 20170 30138 40169 50002 60006 81232 92100=
07690,1997-07-05 00:00:00,18,1015.8,-1.1,94,17,15000,3.704,,,300,,,,,,,,,,,wg-a,,,,AAXX 05004 07690 12865 53002 10180 20170 30127 40158 56011 60006 81530 90000=
07690,1997-07-05 06:00:00,19,1013.7,-0.3,68,13,50000,29.632,,,250,17.4,21.8,,,,,,,,,wg-a,,,,AAXX 05064 07690 02684 /2516 10190 20130 30106 40137 58003 60006 81502 90600 333 10218 20174 60004=
07690,1997-07-05 09:00:00,22,1012.6,-1,60,14,50000,31.484,,,230,,,,,,,,,,,wg-a,,,,AAXX 05094 07690 12484 /2317 10220 20140 30096 40126 58010 60006 81200 90900=
07690,1997-07-05 12:00:00,25,1011.1,-1.5,39,10,50000,29.632,,,260,,,,,,,,,,,wg-a,,,,AAXX 05124 07690 12484 22616 10250 20100 30081 40111 58015 60006 82900 91200=
07690,1997-07-05 15:00:00,23,1012,0.9,57,14,50000,35.188,,68.524,100,,,,,,,,,,,wg-a,,,,AAXX 05154 07690 12584 31019 10230 20140 30090 40120 53009 60006 82902 91500 333 91037=
07690,1997-07-05 18:00:00,22,1015,3,57,13,50000,3.704,,68.524,30,18.5,28.2,,,,,,,,,wg-a,,,,AAXX 05184 07690 12584 30302 10220 20130 30120 40150 53030 60006 81162 91800 333 10282 20185 91037=
07690,1997-07-05 21:00:00,20,1016.5,1.4,73,15,20000,0,,,0,,,,,,,,,,,wg-a,,,,AAXX 05214 07690 12670 20000 10200 20150 30134 40165 52014 60006 81530 92100=
07690,1997-07-06 00:00:00,17,1016,-0.5,77,13,20000,14.816,,,320,,,,,,,,,,,wg-a,,,,AAXX 06004 07690 12/70 03208 10170 20130 30129 40160 58005 60006 80000 90000=
07690,1997-07-06 03:00:00,18,1015.9,-0.1,52,8,500,18.52,,,340,,,,,,,,,,,wg-a,,,,AAXX 06034 07690 12/00 23410 10180 20080 30128 40159 55001 60006 82040 90300=
07690,1997-07-06 06:00:00,19,1016.6,0.7,52,9,50000,11.112,,,340,16.1,22.4,,,,,,,,,wg-a,,,,AAXX 06064 07690 02/84 23406 10190 20090 30135 40166 53007 60006 81041 90600 333 10224 20161 60004=
07690,1997-07-06 09:00:00,23,1017.5,1,50,12,50000,7.408,,,150,,,,,,,,,,,wg-a,,,,AAXX 06094 07690 12/84 11504 10230 20120 30145 40175 53010 60006 80002 90900=
07690,1997-07-06 12:00:00,23,1017.4,-0.1,57,14,50000,14.816,,,190,,,,,,,,,,,wg-a,,,,AAXX 06124 07690 12684 /1908 10230 20140 30144 40174 58001 60006 81202 91200=
07690,1997-07-06 18:00:00,22,1017.3,0,60,14,50000,7.408,,,130,19.4,23.7,,,,,,,,,wg-a,,,,AAXX 06184 07690 12684 /1304 10220 20140 30143 40173 50000 60006 81200 91800 333 10237 20194=
07690,1997-07-06 21:00:00,19,1018,0.6,78,15,20000,7.408,,,290,,,,,,,,,,,wg-a,,,,AAXX 06214 07690 12670 /2904 10190 20150 30149 40180 53006 60006 81500 92100=
07690,1997-07-07 00:00:00,17,1017.1,-0.9,77,13,20000,11.112,,,320,,,,,,,,,,,wg-a,,,,AAXX 07004 07690 12/70 03206 10170 20130 30140 40171 56009 60006 80000 90000=
07690,1997-07-07 03:00:00,17,1016.5,-0.6,77,13,20000,7.408,,,20,,,,,,,,,,,wg-a,,,,AAXX 07034 07690 12/70 00204 10170 20130 30134 40165 58006 60006 80000 90300=
07690,1997-07-07 06:00:00,19,1016.1,-0.4,60,11,11000,14.816,,,330,16.3,22.2,,,,,,,,,wg-a,,,,AAXX 07064 07690 02/61 /3308 10190 20110 30130 40161 58004 60006 90600 333 10222 20163 60004=
07690,1997-07-07 09:00:00,23,1015.9,-0.1,61,15,50000,7.408,,,160,,,,,,,,,,,wg-a,,,,AAXX 07094 07690 12684 /1604 10230 20150 30129 40159 57001 60006 81200 90900=
07690,1997-07-07 12:00:00,24,1015.9,0,65,17,50000,7.408,,,180,,,,,,,,,,,wg-a,,,,AAXX 07124 07690 12684 /1804 10240 20170 30129 40159 50000 60006 81200 91200=
07690,1997-07-07 15:00:00,25,1015.1,-0.8,44,12,50000,11.112,,,170,,,,,,,,,,,wg-a,,,,AAXX 07154 07690 12684 /1706 10250 20120 30121 40151 58008 60006 81102 91500=
07690,1997-07-07 18:00:00,23,1015,-0.1,61,15,50000,11.112,,,230,19,25.1,,,,,,,,,wg-a,,,,AAXX 07184 07690 12684 /2306 10230 20150 30120 40150 57001 60006 81402 91800 333 10251 20190=
07690,1997-07-07 21:00:00,20,1016.1,1,56,11,20000,11.112,,,330,,,,,,,,,,,wg-a,,,,AAXX 07214 07690 12/70 13306 10200 20110 30130 40161 53010 60006 81070 92100=
07690,1997-07-08 00:00:00,19,1015.8,-0.3,52,9,20000,18.52,,,340,,,,,,,,,,,wg-a,,,,AAXX 08004 07690 12/70 03410 10190 20090 30127 40158 58003 60006 80000 90000=
07690,1997-07-08 06:00:00,21,1014.9,-0.2,49,10,50000,18.52,,,340,18.7,22.7,,,,,,,,,wg-a,,,,AAXX 08064 07690 02/84 13410 10210 20100 30119 40149 58002 60006 80002 90600 333 10227 20187 60004=
07690,1997-07-08 09:00:00,25,1015.2,0.3,39,10,50000,11.112,,,130,,,,,,,,,,,wg-a,,,,AAXX 08094 07690 12/84 01306 10250 20100 30122 40152 52003 60006 80000 90900=
07690,1997-07-08 12:00:00,24,1015.3,0.1,61,16,50000,14.816,,,170,,,,,,,,,,,wg-a,,,,AAXX 08124 07690 12784 /1708 10240 20160 30123 40153 52001 60006 81100 91200=
07690,1997-07-08 15:00:00,23,1014.8,-0.5,69,17,50000,7.408,,,150,,,,,,,,,,,wg-a,,,,AAXX 08154 07690 12784 /1504 10230 20170 30118 40148 57005 60006 81200 91500=
07690,1997-07-08 18:00:00,22,1014.1,-0.7,78,18,500,7.408,,,160,20.6,24.7,,,,,,,,,wg-a,,,,AAXX 08184 07690 12700 /1604 10220 20180 30111 40141 57007 60006 81200 91800 333 10247 20206=
07690,1997-07-08 21:00:00,20,1014.6,0.5,88,18,20000,3.704,,,230,,,,,,,,,,,wg-a,,,,AAXX 08214 07690 12/70 02302 10200 20180 30116 40146 53005 60006 80000 92100=
07690,1997-07-09 00:00:00,18,1014.5,-0.2,88,16,20000,3.704,,,320,,,,,,,,,,,wg-a,,,,AAXX 09004 07690 12/70 03202 10180 20160 30114 40145 58002 60006 80000 90000=
07690,1997-07-09 03:00:00,17,1014.3,-0.2,82,14,20000,7.408,,,340,,,,,,,,,,,wg-a,,,,AAXX 09034 07690 12470 33404 10170 20140 30112 40143 58002 60006 83500 90300=
07690,1997-07-09 06:00:00,19,1014.7,0.4,73,14,15000,11.112,,,330,16.9,22.4,,,,,,,,,wg-a,,,,AAXX 09064 07690 02465 /3306 10190 20140 30116 40147 51004 60006 81500 90600 333 10224 20169 60004=
07690,1997-07-09 12:00:00,23,1014.7,-0.3,73,18,9000,14.816,,,130,,,,,,,,,,,wg-a,,,,AAXX 09124 07690 12559 21308 10230 20180 30117 40147 58003 60006 81101 91200=
07690,1997-07-09 15:00:00,23,1013.8,-0.9,73,18,9000,11.112,,,140,,,,,,,,,,,wg-a,,,,AAXX 09154 07690 12459 21406 10230 20180 30108 40138 58009 60006 81101 91500=
07690,1997-07-09 18:00:00,22,1013.7,-0.1,78,18,11000,3.704,,,170,18.5,23.3,,,,,,,,,wg-a,,,,AAXX 09184 07690 12461 21702 10220 20180 30107 40137 55001 60006 81201 91800 333 10233 20185=
07690,1997-07-10 00:00:00,18,1013.6,-0.5,94,17,10000,3.704,,,10,,,,,,,,,,,wg-a,,,,AAXX 10004 07690 12/60 20102 10180 20170 30105 40136 56005 60006 80001 90000=
07690,1997-07-10 03:00:00,18,1013.6,-0,88,16,10000,7.408,,,330,,,,,,,,,,,wg-a,,,,AAXX 10034 07690 12460 53304 10180 20160 30105 40136 55000 60006 83501 90300=
07690,1997-07-10 06:00:00,19,1013.6,-0,83,16,7000,11.112,,,340,17.2,21.9,,,,,,,,21,wg-a,,,,AAXX 10064 07690 02257 73406 10190 20160 30105 40136 55000 61000 72161 82282 90600 333 10219 20172 6100=
07690,1997-07-10 09:00:00,22,1013.6,0.1,73,17,9000,11.112,,,90,,,,,,,,,,,wg-a,,,,AAXX 10094 07690 12359 70906 10220 20170 30106 40136 53001 60006 82882 90900=
07690,1997-07-10 12:00:00,24,1013.3,-0.3,69,18,9000,14.816,,,100,,,,,,,,,,,wg-a,,,,AAXX 10124 07690 12459 /1008 10240 20180 30103 40133 58003 60006 81982 91200=
07690,1997-07-10 18:00:00,22,1012.7,-0.6,78,18,18000,3.704,,,170,18.6,23.7,,,,,,,,,wg-a,,,,AAXX 10184 07690 12668 71702 10220 20180 30097 40127 58006 60006 81963 91800 333 10237 20186=
07690,1997-07-11 00:00:00,19,1013,-0.2,88,17,20000,7.408,,,240,,,,,,,,,,,wg-a,,,,AAXX 11004 07690 12770 22404 10190 20170 30099 40130 56002 60006 81560 90000=
07690,1997-07-11 06:00:00,19,1012.4,0.1,73,14,500,11.112,,,340,17.7,21.6,,,,,,,,,wg-a,,,,AAXX 11064 07690 02/00 13406 10190 20140 30094 40124 50001 60006 81030 90600 333 10216 20177 60004=
07690,1997-07-11 12:00:00,24,1013.2,0.3,69,18,500,11.112,,,120,,,,,,,,,,,wg-a,,,,AAXX 11124 07690 12400 21206 10240 20180 30102 40132 51003 60006 82100 91200=
07690,1997-07-11 15:00:00,23,1013.1,-0.1,73,18,20000,14.816,,,110,,,,,,,,,,,wg-a,,,,AAXX 11154 07690 12470 51108 10230 20180 30101 40131 55001 60006 82982 91500=
07690,1997-07-11 18:00:00,21,1012.2,-0.9,78,17,13000,11.112,,,260,19.3,24.4,,,,,,,,21,wg-a,,,,AAXX 11184 07690 02463 /2606 10210 20170 30092 40122 56009 61000 72161 82922 91800 333 10244 20193 6100=
07690,1997-07-11 21:00:00,21,1012.5,0.3,78,17,10000,11.112,,,340,,,,,,,,,,,wg-a,,,,AAXX 11214 07690 12460 43406 10210 20170 30095 40125 53003 60006 81263 92100=
07690,1997-07-12 00:00:00,20,1013.4,0.9,78,16,10000,11.112,,,40,,,,,,,,,,,wg-a,,,,AAXX 12004 07690 12460 70406 10200 20160 30104 40134 51009 60006 875// 90000=
07690,1997-07-12 03:00:00,18,1013.6,0.1,88,16,10000,11.112,,,340,,,,,,,,,,,wg-a,,,,AAXX 12034 07690 12460 23406 10180 20160 30105 40136 53001 60006 81532 90300=
07690,1997-07-12 06:00:00,20,1014,0.5,78,16,15000,7.408,,,340,18.2,21.8,,,,,,,,,wg-a,,,,AAXX 12064 07690 02465 /3404 10200 20160 30110 40140 53005 60006 81502 90600 333 10218 20182 61000=
07690,1997-07-12 09:00:00,23,1015,1,78,19,9000,14.816,,,100,,,,,,,,,,,wg-a,,,,AAXX 12094 07690 12459 21008 10230 20190 30120 40150 51010 60006 82800 90900=
07690,1997-07-12 12:00:00,24,1014.9,-0.1,78,20,7000,14.816,,,110,,,,,,,,,,,wg-a,,,,AAXX 12124 07690 12657 21108 10240 20200 30119 40149 58001 60006 81201 91200=
07690,1997-07-12 15:00:00,24,1014.8,-0.1,78,20,7000,11.112,,,170,,,,,,,,,,,wg-a,,,,AAXX 12154 07690 12657 21706 10240 20200 30118 40148 58001 60006 81901 91500=
07690,1997-07-12 18:00:00,23,1015,0.2,83,20,8000,3.704,,,170,19.9,25,,,,,,,,,wg-a,,,,AAXX 12184 07690 12658 31702 10230 20200 30120 40150 53002 60006 81263 91800 333 10250 20199=
07690,1997-07-12 21:00:00,22,1016.1,1.1,88,20,11000,0,,,0,,,,,,,,,,,wg-a,,,,AAXX 12214 07690 12/61 10000 10220 20200 30131 40161 53011 60006 81060 92100=
07690,1997-07-13 00:00:00,20,1016.2,0.1,88,18,12000,7.408,,,340,,,,,,,,,,,wg-a,,,,AAXX 13004 07690 12/62 03404 10200 20180 30132 40162 53001 60006 80000 90000=
07690,1997-07-13 06:00:00,20,1016.9,0.7,83,17,10000,11.112,,,330,18.8,23,,,,,,,,,wg-a,,,,AAXX 13064 07690 02460 /3306 10200 20170 30138 40169 53007 60006 81500 90600 333 10230 20188 60004=
07690,1997-07-13 09:00:00,24,1017.9,1.1,78,20,8000,7.408,,,150,,,,,,,,,,,wg-a,,,,AAXX 13094 07690 12458 /1504 10240 20200 30149 40179 53011 60006 81500 90900=
07690,1997-07-13 12:00:00,25,1017.2,-0.7,74,20,9000,14.816,,,130,,,,,,,,,,,wg-a,,,,AAXX 13124 07690 12459 /1308 10250 20200 30142 40172 56007 60006 81500 91200=
07690,1997-07-13 15:00:00,24,1016.8,-0.4,78,20,10000,7.408,,,130,,,,,,,,,,,wg-a,,,,AAXX 13154 07690 12560 71304 10240 20200 30138 40168 58004 60006 8/500 91500=
07690,1997-07-13 18:00:00,23,1016.7,-0.1,83,20,8000,3.704,,,170,20.1,25.1,,,,,,,,,wg-a,,,,AAXX 13184 07690 12458 51702 10230 20200 30137 40167 55001 60006 85500 91800 333 10251 20201=
07690,1997-07-13 21:00:00,21,1017,0.3,94,20,9000,7.408,,,210,,,,,,,,,,,wg-a,,,,AAXX 13214 07690 12459 /2104 10210 20200 30140 40170 51003 60006 81500 92100=
07690,1997-07-14 00:00:00,20,1017.4,0.3,94,19,9000,3.704,,,330,,,,,,,,,,,wg-a,,,,AAXX 14004 07690 12/59 03302 10200 20190 30143 40174 53003 60006 80000 90000=
07690,1997-07-14 03:00:00,19,1017.8,0.4,94,18,6000,11.112,,,330,,,,,,,,,,,wg-a,,,,AAXX 14034 07690 12456 /3306 10190 20180 30147 40178 53004 60006 85500 90300=
07690,1997-07-14 06:00:00,21,1017.6,-0.1,83,18,4500,11.112,,,330,19.1,22.8,,,,,,,,10,wg-a,,,,AAXX 14064 07690 02445 33306 10210 20180 30146 40176 55001 60006 71011 83500 90600 333 10228 20191 60004=
07690,1997-07-14 09:00:00,24,1018.9,1.3,83,21,500,7.408,,,180,,,,,,,,,,,wg-a,,,,AAXX 14094 07690 12400 71804 10240 20210 30159 40189 51013 60006 875// 90900=
07690,1997-07-14 12:00:00,26,1018.5,-0.4,74,21,500,11.112,,,130,,,,,,,,,,,wg-a,,,,AAXX 14124 07690 12400 41306 10260 20210 30155 40185 58004 60006 84500 91200=
07690,1997-07-14 15:00:00,25,1017.4,-1.1,79,21,500,14.816,,,190,,,,,,,,,,,wg-a,,,,AAXX 14154 07690 12400 51908 10250 20210 30144 40174 57011 60006 85500 91500=
07690,1997-07-14 18:00:00,24,1016,-1.4,83,21,500,7.408,,,170,20.7,26.1,,,,,,,,,wg-a,,,,AAXX 14184 07690 12400 /1704 10240 20210 30130 40160 58014 60006 81500 91800 333 10261 20207=
07690,1997-07-14 21:00:00,23,1017.1,1.1,89,21,8000,7.408,,,80,,,,,,,,,,,wg-a,,,,AAXX 14214 07690 12358 30804 10230 20210 30141 40171 53011 60006 83500 92100=
07690,1997-07-15 00:00:00,21,1016.8,-0.3,94,20,7000,3.704,,,320,,,,,,,,,,,wg-a,,,,AAXX 15004 07690 12357 33202 10210 20200 30138 40168 55003 60006 83500 90000=
07690,1997-07-15 06:00:00,21,1016.6,-0.8,88,19,7000,3.704,,,320,19.9,23.9,,,,,,,,,wg-a,,,,AAXX 15064 07690 02457 33202 10210 20190 30136 40166 57008 60006 81501 90600 333 10239 20199 60004=
07690,1997-07-15 09:00:00,25,1017.6,1,74,20,8000,7.408,,,100,,,,,,,,,,,wg-a,,,,AAXX 15094 07690 12458 31004 10250 20200 30146 40176 53010 60006 81101 90900=
07690,1997-07-15 12:00:00,26,1017.4,-0.2,74,21,7000,7.408,,,130,,,,,,,,,,,wg-a,,,,AAXX 15124 07690 12557 /1304 10260 20210 30144 40174 56002 60006 81101 91200=
07690,1997-07-15 18:00:00,25,1015.7,-1.1,83,22,7000,7.408,,,190,21.4,26.7,,,,,,,,,wg-a,,,,AAXX 15184 07690 12/57 /1904 10250 20220 30127 40157 56011 60006 91800 333 10267 20214=
07690,1997-07-15 21:00:00,23,1016,0.3,89,21,10000,3.704,,,330,,,,,,,,,,,wg-a,,,,AAXX 15214 07690 12/60 23302 10230 20210 30130 40160 53003 60006 80002 92100=
07690,1997-07-16 00:00:00,23,1016.3,0.3,65,16,10000,11.112,,,30,,,,,,,,,,,wg-a,,,,AAXX 16004 07690 12/60 20306 10230 20160 30133 40163 51003 60006 80002 90000=
07690,1997-07-16 03:00:00,22,1016.3,-0,65,15,10000,3.704,,,270,,,,,,,,,,,wg-a,,,,AAXX 16034 07690 12/60 02702 10220 20150 30133 40163 55000 60006 80000 90300=
07690,1997-07-16 06:00:00,24,1016.4,0.1,57,15,15000,11.112,,,20,21.2,25.2,,,,,,,,,wg-a,,,,AAXX 16064 07690 02/65 10206 10240 20150 30134 40164 50001 60006 80002 90600 333 10252 20212 60004=
07690,1997-07-16 12:00:00,28,1017.2,0.2,55,18,10000,7.408,,,70,,,,,,,,,,,wg-a,,,,AAXX 16124 07690 12/60 70704 10280 20180 30142 40172 50002 60006 80002 91200=
07690,1997-07-16 15:00:00,26,1015,-2.2,84,23,6000,11.112,,,120,,,,,,,,,,,wg-a,,,,AAXX 16154 07690 12/56 71206 10260 20230 30120 40150 55022 60006 81082 91500=
07690,1997-07-16 18:00:00,26,1014.3,-0.7,61,18,10000,3.704,,,150,24,29.8,,,,,,,,,wg-a,,,,AAXX 16184 07690 12/60 /1502 10260 20180 30113 40143 58007 60006 81082 91800 333 10298 20240=
07690,1997-07-17 00:00:00,24,1014,0.3,54,14,15000,11.112,,,340,,,,,,,,,,,wg-a,,,,AAXX 17004 07690 12/65 73406 10240 20140 30110 40140 51003 60006 81082 90000=
07690,1997-07-17 03:00:00,22,1011.9,-2.1,57,13,15000,7.408,,,350,,,,,,,,,,,wg-a,,,,AAXX 17034 07690 12/65 23504 10220 20130 30089 40119 58021 60006 81082 90300=
07690,1997-07-17 06:00:00,22,1011.3,-0.6,60,14,15000,14.816,,,330,21.3,27,,,,,,,,,wg-a,,,,AAXX 17064 07690 02/65 53308 10220 20140 30083 40113 55006 60006 81032 90600 333 10270 20213 60004=
07690,1997-07-17 09:00:00,26,1011.3,0,65,19,25000,7.408,,,150,,,,,,,,,,,wg-a,,,,AAXX 17094 07690 12575 51504 10260 20190 30083 40113 50000 60006 81130 90900=
07690,1997-07-17 12:00:00,27,1010.4,-0.9,74,22,8000,18.52,,,80,,,,,,,,,,,wg-a,,,,AAXX 17124 07690 12558 30810 10270 20220 30074 40104 58009 60006 82830 91200=
07690,1997-07-17 15:00:00,26,1009.2,-1.2,84,23,500,14.816,,,130,,,,,,,,,,,wg-a,,,,AAXX 17154 07690 12400 31308 10260 20230 30062 40092 58012 60006 83800 91500=
07690,1997-07-17 18:00:00,23,1007.8,-1.4,89,21,500,18.52,,,220,22.2,26.8,,,,,,,,,wg-a,,,,AAXX 17184 07690 12400 52210 10230 20210 30048 40078 56014 60006 83960 91800 333 10268 20222=
07690,1997-07-17 21:00:00,22,1007.5,-0.3,83,19,15000,3.704,,,300,,,,,,,,,,,wg-a,,,,AAXX 17214 07690 12565 /3002 10220 20190 30045 40075 55003 60006 82963 92100=
07690,1997-07-18 00:00:00,21,1005.6,-1.9,78,17,15000,11.112,,,330,,,,,,,,,,,wg-a,,,,AAXX 18004 07690 12865 /3306 10210 20170 30026 40056 58019 60006 81080 90000=
07690,1997-07-18 06:00:00,21,1004.7,-0.5,73,16,40000,14.816,,,330,19.3,23.1,,,,,,,,,wg-a,,,,AAXX 18064 07690 02/82 13308 10210 20160 30017 40047 58005 60006 81041 90600 333 10231 20193 60004=
07690,1997-07-18 09:00:00,25,1004.2,-0.5,65,18,40000,14.816,,,110,,,,,,,,,,,wg-a,,,,AAXX 18094 07690 12782 31108 10250 20180 30012 40042 56005 60006 81140 90900=
07690,1997-07-18 12:00:00,26,1004.4,0.2,74,21,15000,22.224,,,110,,,,,,,,,,,wg-a,,,,AAXX 18124 07690 12765 21112 10260 20210 30014 40044 53002 60006 81240 91200=
07690,1997-07-18 15:00:00,26,1004,-0.4,74,21,8000,29.632,,,100,,,,,,,,,,,wg-a,,,,AAXX 18154 07690 12558 /1016 10260 20210 30010 40040 56004 60006 81200 91500=
07690,1997-07-18 18:00:00,25,1005.3,1.3,74,20,25000,7.408,,,100,20.9,26.2,,,,,,,,,wg-a,,,,AAXX 18184 07690 12575 /1004 10250 20200 30023 40053 53013 60006 81200 91800 333 10262 20209=
07690,1997-07-18 21:00:00,24,1008.5,3.2,83,21,20000,18.52,,,80,,,,,,,,,,,wg-a,,,,AAXX 18214 07690 12670 20810 10240 20210 30055 40085 53032 60006 82500 92100=
07690,1997-07-19 00:00:00,20,1010.2,1.7,68,14,15000,11.112,,,320,,,,,,,,,,,wg-a,,,,AAXX 19004 07690 12465 33206 10200 20140 30072 40102 51017 60006 83500 90000=
07690,1997-07-19 03:00:00,20,1010.4,0.2,46,8,25000,22.224,,,330,,,,,,,,,,,wg-a,,,,AAXX 19034 07690 12/75 /3312 10200 20080 30074 40104 50002 60006 80000 90300=
07690,1997-07-19 06:00:00,21,1011.6,1.2,40,7,50000,22.224,,,330,19.3,24.7,,,,,,,,,wg-a,,,,AAXX 19064 07690 02584 /3312 10210 20070 30086 40116 53012 60006 81500 90600 333 10247 20193 60004=
07690,1997-07-19 09:00:00,26,1012.3,0.7,37,10,50000,7.408,,,160,,,,,,,,,,,wg-a,,,,AAXX 19094 07690 12684 11604 10260 20100 30093 40123 51007 60006 81102 90900=
07690,1997-07-19 12:00:00,27,1012.5,0.2,54,17,50000,11.112,,,150,,,,,,,,,,,wg-a,,,,AAXX 19124 07690 12784 /1506 10270 20170 30095 40125 51002 60006 81100 91200=
07690,1997-07-19 15:00:00,25,1012.3,-0.2,57,16,40000,14.816,,,160,,,,,,,,,,,wg-a,,,,AAXX 19154 07690 12782 /1608 10250 20160 30093 40123 56002 60006 81200 91500=
07690,1997-07-19 18:00:00,24,1013.1,0.8,57,15,40000,3.704,,,140,20.7,28.5,,,,,,,,,wg-a,,,,AAXX 19184 07690 12782 /1402 10240 20150 30101 40131 53008 60006 81400 91800 333 10285 20207=
07690,1997-07-19 21:00:00,21,1014.2,1.1,73,16,20000,3.704,,,20,,,,,,,,,,,wg-a,,,,AAXX 19214 07690 12/70 /0202 10210 20160 30112 40142 52011 60006 80000 92100=
07690,1997-07-20 00:00:00,19,1014.2,-0.1,73,14,20000,7.408,,,330,,,,,,,,,,,wg-a,,,,AAXX 20004 07690 12/70 13304 10190 20140 30111 40142 57001 60006 81030 90000=
07690,1997-07-20 03:00:00,18,1014.2,0,68,12,20000,14.816,,,330,,,,,,,,,,,wg-a,,,,AAXX 20034 07690 12/70 13308 10180 20120 30111 40142 50000 60006 81030 90300=
07690,1997-07-20 06:00:00,20,1015,0.8,60,12,40000,11.112,,,330,17.6,23.8,,,,,,,,,wg-a,,,,AAXX 20064 07690 02/82 03306 10200 20120 30119 40150 53008 60006 80000 90600 333 10238 20176 60004=
07690,1997-07-20 09:00:00,24,1015.7,0.8,69,18,40000,14.816,,,100,,,,,,,,,,,wg-a,,,,AAXX 20094 07690 12782 /1008 10240 20180 30127 40157 52008 60006 81101 90900=
07690,1997-07-20 12:00:00,25,1015.5,-0.2,69,19,20000,11.112,,,140,,,,,,,,,,,wg-a,,,,AAXX 20124 07690 12670 31406 10250 20190 30125 40155 58002 60006 81101 91200=
07690,1997-07-20 15:00:00,24,1014.5,-1,74,19,15000,11.112,,,110,,,,,,,,,,,wg-a,,,,AAXX 20154 07690 12665 /1106 10240 20190 30115 40145 57010 60006 81201 91500=
07690,1997-07-20 18:00:00,23,1014,-0.5,78,19,12000,7.408,,,120,20.1,24.9,,,,,,,,,wg-a,,,,AAXX 20184 07690 12462 21204 10230 20190 30110 40140 55005 60006 82802 91800 333 10249 20201=
07690,1997-07-20 21:00:00,23,1014.9,0.9,78,19,12000,7.408,,,100,,,,,,,,,,,wg-a,,,,AAXX 20214 07690 12462 31004 10230 20190 30119 40149 53009 60006 83500 92100=
07690,1997-07-21 00:00:00,20,1014.6,-0.3,88,18,12000,11.112,,,330,,,,,,,,,,,wg-a,,,,AAXX 21004 07690 12462 23306 10200 20180 30116 40146 58003 60006 82500 90000=
07690,1997-07-21 06:00:00,19,1014.3,0.2,73,14,20000,14.816,,,330,17.9,23.3,,,,,,,,,wg-a,,,,AAXX 21064 07690 02570 /3308 10190 20140 30112 40143 50002 60006 81501 90600 333 10233 20179 60004=
07690,1997-07-21 09:00:00,24,1015.4,1.2,69,18,20000,14.816,,,110,,,,,,,,,,,wg-a,,,,AAXX 21094 07690 12570 21108 10240 20180 30124 40154 51012 60006 82101 90900=
07690,1997-07-21 12:00:00,25,1015.7,0.3,69,19,20000,11.112,,,130,,,,,,,,,,,wg-a,,,,AAXX 21124 07690 12670 21306 10250 20190 30127 40157 51003 60006 81201 91200=
07690,1997-07-21 15:00:00,25,1015.3,-0.4,69,19,20000,7.408,,,180,,,,,,,,,,,wg-a,,,,AAXX 21154 07690 12670 21804 10250 20190 30123 40153 58004 60006 81201 91500=
07690,1997-07-21 18:00:00,24,1014.6,-0.7,74,19,20000,11.112,,,210,19.1,25,,,,,,,,,wg-a,,,,AAXX 21184 07690 12/70 22106 10240 20190 30116 40146 56007 60006 80001 91800 333 10250 20191=
07690,1997-07-21 21:00:00,21,1015.8,1.2,83,18,20000,7.408,,,240,,,,,,,,,,,wg-a,,,,AAXX 21214 07690 12/70 22404 10210 20180 30128 40158 53012 60006 80001 92100=
07690,1997-07-22 00:00:00,20,1016,0.1,78,16,10000,11.112,,,340,,,,,,,,,,,wg-a,,,,AAXX 22004 07690 12/60 /3406 10200 20160 30129 40160 50001 60006 90000=
07690,1997-07-22 03:00:00,19,1016.4,0.4,78,15,20000,14.816,,,330,,,,,,,,,,,wg-a,,,,AAXX 22034 07690 12/70 03308 10190 20150 30133 40164 53004 60006 80000 90300=
07690,1997-07-22 06:00:00,20,1017.4,1,73,15,20000,14.816,,,340,18.7,23.5,,,,,,,,,wg-a,,,,AAXX 22064 07690 02470 /3408 10200 20150 30143 40174 53010 60006 81501 90600 333 10235 20187 60004=
07690,1997-07-22 09:00:00,25,1017.4,0.1,69,19,20000,11.112,,,120,,,,,,,,,,,wg-a,,,,AAXX 22094 07690 12470 /1206 10250 20190 30144 40174 50001 60006 81502 90900=
07690,1997-07-22 12:00:00,26,1017.5,0.1,65,19,20000,18.52,,,110,,,,,,,,,,,wg-a,,,,AAXX 22124 07690 12470 21110 10260 20190 30145 40175 53001 60006 81532 91200=
07690,1997-07-22 15:00:00,25,1017.9,0.4,69,19,20000,14.816,,,120,,,,,,,,,,,wg-a,,,,AAXX 22154 07690 12470 41208 10250 20190 30149 40179 51004 60006 81532 91500=
07690,1997-07-22 18:00:00,24,1017.2,-0.7,74,19,20000,7.408,,,80,20.4,25.7,,,,,,,,,wg-a,,,,AAXX 22184 07690 12670 /0804 10240 20190 30142 40172 58007 60006 81501 91800 333 10257 20204=
07690,1997-07-22 21:00:00,23,1018.3,1.1,83,20,20000,3.704,,,100,,,,,,,,,,,wg-a,,,,AAXX 22214 07690 12770 /1002 10230 20200 30153 40183 53011 60006 81500 92100=
07690,1997-07-23 00:00:00,22,1017.6,-0.7,88,20,20000,7.408,,,210,,,,,,,,,,,wg-a,,,,AAXX 23004 07690 12770 22104 10220 20200 30146 40176 55007 60006 81530 90000=
07690,1997-07-23 03:00:00,22,1016.6,-1,73,17,20000,7.408,,,330,,,,,,,,,,,wg-a,,,,AAXX 23034 07690 12770 43304 10220 20170 30136 40166 56010 60006 81530 90300=
07690,1997-07-23 06:00:00,23,1017,0.4,73,18,20000,11.112,,,340,21.1,24.2,,,,,,,,,wg-a,,,,AAXX 23064 07690 02/70 13406 10230 20180 30140 40170 53004 60006 81031 90600 333 10242 20211 60004=
07690,1997-07-23 09:00:00,27,1016.9,-0.1,51,16,20000,14.816,,,90,,,,,,,,,,,wg-a,,,,AAXX 23094 07690 12/70 10908 10270 20160 30139 40169 58001 60006 80001 90900=
07690,1997-07-23 12:00:00,28,1016.1,-0.8,48,16,20000,22.224,,,100,,,,,,,,,,,wg-a,,,,AAXX 23124 07690 12670 /1012 10280 20160 30131 40161 58008 60006 81130 91200=
07690,1997-07-23 18:00:00,25,1015.9,0.2,69,19,20000,7.408,,,230,22.8,28.7,,,,,,,,,wg-a,,,,AAXX 23184 07690 12770 72304 10250 20190 30129 40159 53002 60006 81132 91800 333 10287 20228=
07690,1997-07-24 00:00:00,22,1014.5,-0.2,78,18,15000,14.816,,,320,,,,,,,,,,,wg-a,,,,AAXX 24004 07690 12/65 33208 10220 20180 30115 40145 58002 60006 81081 90000=
07690,1997-07-24 03:00:00,21,1014.6,0.1,78,17,15000,7.408,,,350,,,,,,,,,,,wg-a,,,,AAXX 24034 07690 12565 33504 10210 20170 30116 40146 50001 60006 81582 90300=
07690,1997-07-24 06:00:00,23,1013.8,-0.8,69,17,20000,7.408,,,310,20.6,25.9,,,,,,,,,wg-a,,,,AAXX 24064 07690 02570 /3104 10230 20170 30108 40138 55008 60006 81502 90600 333 10259 20206 60004=
07690,1997-07-24 09:00:00,26,1014.1,0.3,61,18,20000,11.112,,,90,,,,,,,,,,,wg-a,,,,AAXX 24094 07690 12/70 40906 10260 20180 30111 40141 50003 60006 81082 90900=
07690,1997-07-24 12:00:00,26,1013.4,-0.7,70,20,20000,14.816,,,90,,,,,,,,,,,wg-a,,,,AAXX 24124 07690 12570 30908 10260 20200 30104 40134 56007 60006 81302 91200=
07690,1997-07-24 15:00:00,26,1012.1,-1.3,70,20,18000,11.112,,,130,,,,,,,,,,,wg-a,,,,AAXX 24154 07690 12568 21306 10260 20200 30091 40121 58013 60006 81902 91500=
07690,1997-07-24 18:00:00,24,1011.8,-0.3,78,20,15000,7.408,,,220,22.8,27.4,,,,,,,,,wg-a,,,,AAXX 24184 07690 12665 32204 10240 20200 30088 40118 58003 60006 81963 91800 333 10274 20228=
07690,1997-07-24 21:00:00,23,1011.8,0,89,21,15000,7.408,,,290,,,,,,,,,,,wg-a,,,,AAXX 24214 07690 12665 72904 10230 20210 30088 40118 50000 60006 81963 92100=
07690,1997-07-25 00:00:00,23,1010.6,-1.2,78,19,15000,7.408,,,30,,,,,,,,,,,wg-a,,,,AAXX 25004 07690 12/65 20304 10230 20190 30076 40106 58012 60006 81032 90000=
07690,1997-07-25 03:00:00,23,1009.9,-0.7,73,18,15000,7.408,,,40,,,,,,,,,,,wg-a,,,,AAXX 25034 07690 12/65 /0404 10230 20180 30069 40099 58007 60006 80000 90300=
07690,1997-07-25 06:00:00,21,1010.1,0.2,69,15,25000,11.112,,,330,21.4,24.5,,,,,,,,,wg-a,,,,AAXX 25064 07690 02475 43306 10210 20150 30071 40101 51002 60006 81542 90600 333 10245 20214 60004=
07690,1997-07-25 09:00:00,26,1010.1,-0,61,18,15000,11.112,,,130,,,,,,,,,,,wg-a,,,,AAXX 25094 07690 12465 41306 10260 20180 30071 40101 55000 60006 81141 90900=
07690,1997-07-25 12:00:00,26,1008.8,-1.3,74,21,15000,14.816,,,100,,,,,,,,,,,wg-a,,,,AAXX 25124 07690 12465 /1008 10260 20210 30058 40088 58013 60006 81202 91200=
07690,1997-07-25 18:00:00,26,1007.3,-0.2,70,20,20000,14.816,,,80,21.2,26.7,,,,,,,,,wg-a,,,,AAXX 25184 07690 12670 40808 10260 20200 30043 40073 58002 60006 81201 91800 333 10267 20212=
07690,1997-07-25 21:00:00,24,1008.8,1.5,83,21,20000,0,,,0,,,,,,,,,,,wg-a,,,,AAXX 25214 07690 12/70 20000 10240 20210 30058 40088 51015 60006 80001 92100=
07690,1997-07-26 00:00:00,22,1009.7,0.9,88,20,20000,11.112,,,320,,,,,,,,,,,wg-a,,,,AAXX 26004 07690 12/70 03206 10220 20200 30067 40097 51009 60006 80000 90000=
07690,1997-07-26 03:00:00,20,1009.5,-0.2,88,18,20000,11.112,,,330,,,,,,,,,,,wg-a,,,,AAXX 26034 07690 12/70 03306 10200 20180 30065 40095 58002 60006 80000 90300=
07690,1997-07-26 06:00:00,21,1009.7,0.2,73,16,20000,11.112,,,350,19.4,25.5,,,,,,,,,wg-a,,,,AAXX 26064 07690 02/70 13506 10210 20160 30067 40097 52002 60006 80001 90600 333 10255 20194 60004=
07690,1997-07-26 09:00:00,26,1010.6,0.9,61,18,20000,7.408,,,160,,,,,,,,,,,wg-a,,,,AAXX 26094 07690 12/70 11604 10260 20180 30076 40106 51009 60006 80001 90900=
07690,1997-07-26 12:00:00,27,1011.1,0.5,66,20,17000,14.816,,,130,,,,,,,,,,,wg-a,,,,AAXX 26124 07690 12667 /1308 10270 20200 30081 40111 53005 60006 81202 91200=
07690,1997-07-26 18:00:00,26,1011.8,0.3,79,22,10000,3.704,,,170,21.5,27.3,,,,,,,,,wg-a,,,,AAXX 26184 07690 12/60 /1702 10260 20220 30088 40118 53003 60006 80001 91800 333 10273 20215=
07690,1997-07-26 21:00:00,24,1013.4,1.6,89,22,15000,3.704,,,170,,,,,,,,,,,wg-a,,,,AAXX 26214 07690 12/65 01702 10240 20220 30104 40134 51016 60006 80000 92100=
07690,1997-07-27 00:00:00,22,1014,0.6,73,17,15000,14.816,,,330,,,,,,,,,,,wg-a,,,,AAXX 27004 07690 12/65 03308 10220 20170 30110 40140 51006 60006 80000 90000=
07690,1997-07-27 03:00:00,23,1014.8,0.8,61,15,15000,7.408,,,340,,,,,,,,,,,wg-a,,,,AAXX 27034 07690 12/65 03404 10230 20150 30118 40148 53008 60006 80000 90300=
07690,1997-07-27 06:00:00,24,1016.2,1.4,57,15,20000,0,,,0,21.3,26,,,,,,,,,wg-a,,,,AAXX 27064 07690 02/70 30000 10240 20150 30132 40162 53014 60006 81031 90600 333 10260 20213 60004=
07690,1997-07-27 09:00:00,27,1017.3,1.1,74,22,11000,11.112,,,120,,,,,,,,,,,wg-a,,,,AAXX 27094 07690 12/61 /1206 10270 20220 30143 40173 51011 60006 90900=
07690,1997-07-27 12:00:00,28,1017.6,0.3,62,20,10000,7.408,,,150,,,,,,,,,,,wg-a,,,,AAXX 27124 07690 12660 31504 10280 20200 30146 40176 50003 60006 81101 91200=
07690,1997-07-27 15:00:00,27,1017,-0.6,74,22,15000,7.408,,,170,,,,,,,,,,,wg-a,,,,AAXX 27154 07690 12/65 61704 10270 20220 30140 40170 57006 60006 80002 91500=
07690,1997-07-27 18:00:00,26,1016.1,-0.9,79,22,20000,7.408,,,180,23.5,28.7,,,,,,,,,wg-a,,,,AAXX 27184 07690 12/70 51804 10260 20220 30131 40161 56009 60006 80002 91800 333 10287 20235=
07690,1997-07-28 00:00:00,22,1017,0,83,19,15000,7.408,,,320,,,,,,,,,,,wg-a,,,,AAXX 28004 07690 12/65 03204 10220 20190 30140 40170 50000 60006 80000 90000=
07690,1997-07-28 03:00:00,21,1017.2,0.2,78,17,15000,14.816,,,330,,,,,,,,,,,wg-a,,,,AAXX 28034 07690 12465 43308 10210 20170 30142 40172 53002 60006 83501 90300=
07690,1997-07-28 06:00:00,22,1018.3,1.1,73,17,15000,14.816,,,330,21,26.2,,,,,,,,,wg-a,,,,AAXX 28064 07690 02/65 23308 10220 20170 30153 40183 53011 60006 80002 90600 333 10262 20210 60004=
07690,1997-07-28 09:00:00,27,1019.1,0.8,70,21,15000,7.408,,,140,,,,0,,,,,,,wg-a,,,,AAXX 28094 07690 12665 51404 10270 20210 30161 40191 51008 60007 81202 90900=
07690,1997-07-28 12:00:00,27,1019.1,0,74,22,8000,11.112,,,150,,,,,,,,,,,wg-a,,,,AAXX 28124 07690 12658 31506 10270 20220 30161 40191 50000 60006 81301 91200=
07690,1997-07-28 15:00:00,28,1018.5,-0.6,58,19,10000,7.408,,,140,,,,,,,,,,,wg-a,,,,AAXX 28154 07690 12660 21404 10280 20190 30155 40185 57006 60006 81903 91500=
07690,1997-07-28 18:00:00,27,1017.7,-0.8,66,20,11000,7.408,,,250,22.1,28.7,,,,,,,,,wg-a,,,,AAXX 28184 07690 12761 /2504 10270 20200 30147 40177 58008 60006 83963 91800 333 10287 20221=
07690,1997-07-28 21:00:00,24,1018.6,0.9,69,18,15000,22.224,,,330,,,,,,,,,,,wg-a,,,,AAXX 28214 07690 12/65 23312 10240 20180 30156 40186 53009 60006 81031 92100=
07690,1997-07-29 00:00:00,23,1017.9,-0.7,73,18,15000,11.112,,,330,,,,,,,,,,,wg-a,,,,AAXX 29004 07690 12/65 03306 10230 20180 30149 40179 55007 60006 80000 90000=
07690,1997-07-29 03:00:00,22,1017.6,-0.3,73,17,15000,18.52,,,330,,,,,,,,,,,wg-a,,,,AAXX 29034 07690 12/65 03310 10220 20170 30146 40176 56003 60006 80000 90300=
07690,1997-07-29 06:00:00,22,1018,0.4,69,16,25000,18.52,,,330,21,26.9,,,,,,,,,wg-a,,,,AAXX 29064 07690 02/75 13310 10220 20160 30150 40180 53004 60006 81030 90600 333 10269 20210 60004=
07690,1997-07-29 09:00:00,27,1018.4,0.4,70,21,15000,7.408,,,140,,,,,,,,,,,wg-a,,,,AAXX 29094 07690 12/65 51404 10270 20210 30154 40184 52004 60006 80001 90900=
07690,1997-07-29 12:00:00,27,1017.6,-0.8,70,21,15000,14.816,,,170,,,,,,,,,,,wg-a,,,,AAXX 29124 07690 12665 /1708 10270 20210 30146 40176 58008 60006 81201 91200=
07690,1997-07-29 15:00:00,26,1016.6,-1,79,22,15000,14.816,,,200,,,,,,,,,,,wg-a,,,,AAXX 29154 07690 12465 /2008 10260 20220 30136 40166 56010 60006 81963 91500=
07690,1997-07-29 18:00:00,25,1016,-0.6,79,21,20000,7.408,,,170,21.9,27.5,,,,,,,,,wg-a,,,,AAXX 29184 07690 12470 31704 10250 20210 30130 40160 55006 60006 81961 91800 333 10275 20219=
07690,1997-07-29 21:00:00,24,1018.1,2.1,83,21,15000,3.704,,,80,,,,,,,,,,13,wg-a,,,,AAXX 29214 07690 12565 /0802 10240 20210 30151 40181 53021 60006 71311 82963 92100=
07690,1997-07-30 00:00:00,23,1017.2,-0.9,83,20,15000,7.408,,,30,,,,,,,,,,,wg-a,,,,AAXX 30004 07690 12/65 00304 10230 20200 30142 40172 56009 60006 80000 90000=
07690,1997-07-30 03:00:00,21,1017.2,0,88,19,15000,14.816,,,330,,,,,,,,,,,wg-a,,,,AAXX 30034 07690 12465 /3308 10210 20190 30142 40172 50000 60006 81500 90300=
07690,1997-07-30 06:00:00,23,1017.2,-0,73,18,20000,11.112,,,330,21.1,24.9,,,,,,,,,wg-a,,,,AAXX 30064 07690 02/70 03306 10230 20180 30142 40172 55000 60006 80000 90600 333 10249 20211 60004=
07690,1997-07-30 12:00:00,28,1017.2,-0.5,70,22,9000,11.112,,,160,,,,,,,,,,,wg-a,,,,AAXX 30124 07690 12459 21606 10280 20220 30142 40172 58005 60006 82100 91200=
07690,1997-07-30 18:00:00,26,1015.9,-0.5,79,22,13000,7.408,,,180,22.7,27.8,,,,,,,,,wg-a,,,,AAXX 30184 07690 12563 31804 10260 20220 30129 40159 56005 60006 81131 91800 333 10278 20227=
07690,1997-07-30 21:00:00,24,1016.4,0.5,83,21,15000,7.408,,,260,,,,,,,,,,,wg-a,,,,AAXX 30214 07690 12/65 12604 10240 20210 30134 40164 53005 60006 80001 92100=
07690,1997-07-31 00:00:00,23,1015.6,-0.8,78,19,15000,7.408,,,330,,,,,,,,,,,wg-a,,,,AAXX 31004 07690 12/65 03304 10230 20190 30126 40156 58008 60006 80000 90000=
07690,1997-07-31 03:00:00,23,1014.6,-1,73,18,15000,7.408,,,340,,,,,,,,,,,wg-a,,,,AAXX 31034 07690 12/65 03404 10230 20180 30116 40146 56010 60006 80000 90300=
07690,1997-07-31 06:00:00,24,1015.1,0.5,74,19,10000,7.408,,,30,22.2,26.1,,,,,,,,,wg-a,,,,AAXX 31064 07690 02/60 40304 10240 20190 30121 40151 53005 60006 80001 90600 333 10261 20222 60004=
07690,1997-07-31 09:00:00,27,1015,-0.1,74,22,10000,11.112,,,170,,,,,,,,,,,wg-a,,,,AAXX 31094 07690 12660 /1706 10270 20220 30120 40150 58001 60006 81102 90900=
07690,1997-07-31 12:00:00,28,1014.2,-0.8,62,20,15000,11.112,,,160,,,,,,,,,,,wg-a,,,,AAXX 31124 07690 12665 31606 10280 20200 30112 40142 58008 60006 81202 91200=
07690,1997-07-31 15:00:00,27,1012.8,-1.4,70,21,15000,14.816,,,180,,,,,,,,,,,wg-a,,,,AAXX 31154 07690 12665 /1808 10270 20210 30098 40128 57014 60006 81202 91500=
07690,1997-07-31 18:00:00,25,1010.9,-1.9,79,21,15000,3.704,,,180,23.9,28.3,,,,,,,,,wg-a,,,,AAXX 31184 07690 12665 /1802 10250 20210 30079 40109 58019 60006 81582 91800 333 10283 20239=
07690,1997-08-01 00:00:00,23,1007.9,-2.2,83,20,15000,3.704,,,110,,,,,,,,,,,wg-a,,,,AAXX 01004 07690 12465 71102 10230 20200 30049 40079 57022 60006 81172 90000=
07690,1997-08-01 03:00:00,22,1006.7,-1.2,88,20,15000,11.112,,,330,,,,,,,,,,,wg-a,,,,AAXX 01034 07690 12465 53306 10220 20200 30037 40067 56012 60006 83532 90300=
07690,1997-08-01 06:00:00,22,1006.5,-0.2,83,19,8000,11.112,,,330,21.5,25.3,,,,,,,,,wg-a,,,,AAXX 01064 07690 02558 73306 10220 20190 30035 40065 56002 60006 82572 90600 333 10253 20215 60004=
07690,1997-08-01 09:00:00,27,1006.9,0.5,66,20,12000,14.816,,,110,,,,,,,,,,,wg-a,,,,AAXX 01094 07690 12/62 51108 10270 20200 30040 40069 51005 60006 80002 90900=
07690,1997-08-01 12:00:00,28,1006.8,-0.1,70,22,8000,18.52,,,110,,,,,,,,,,,wg-a,,,,AAXX 01124 07690 12558 /1110 10280 20220 30039 40068 58001 60006 81102 91200=
07690,1997-08-01 18:00:00,26,1006.5,0.3,70,20,15000,3.704,,,100,22,27.8,,,,,,,,,wg-a,,,,AAXX 01184 07690 12565 11002 10260 20200 30035 40065 53003 60006 81101 91800 333 10278 20220=
07690,1997-08-01 21:00:00,26,1008.7,2.2,74,21,15000,14.816,,,70,,,,,,,,,,,wg-a,,,,AAXX 01214 07690 12665 /0708 10260 20210 30057 40087 53022 60006 81500 92100=
07690,1997-08-02 00:00:00,23,1010,1.3,83,20,15000,7.408,,,20,,,,,,,,,,,wg-a,,,,AAXX 02004 07690 12/65 00204 10230 20200 30070 40100 51013 60006 80000 90000=
07690,1997-08-02 06:00:00,22,1012.3,1.8,69,16,20000,14.816,,,340,21.1,26.1,,,,,,,,,wg-a,,,,AAXX 02064 07690 02/70 13408 10220 20160 30093 40123 53018 60006 80001 90600 333 10261 20211 60004=
07690,1997-08-02 09:00:00,27,1013.7,1.4,66,20,15000,11.112,,,120,,,,,,,,,,,wg-a,,,,AAXX 02094 07690 12665 /1206 10270 20200 30107 40137 53014 60006 81201 90900=
07690,1997-08-02 12:00:00,27,1014,0.3,74,22,9000,18.52,,,110,,,,,,,,,,,wg-a,,,,AAXX 02124 07690 12459 51110 10270 20220 30110 40140 53003 60006 84830 91200=
07690,1997-08-02 15:00:00,27,1013.8,-0.2,66,20,10000,14.816,,,110,,,,,,,,,,,wg-a,,,,AAXX 02154 07690 12660 41108 10270 20200 30108 40138 58002 60006 84800 91500=
07690,1997-08-02 18:00:00,26,1013.7,-0.1,65,19,15000,7.408,,,130,22.3,27.8,,,,,,,,,wg-a,,,,AAXX 02184 07690 12665 51304 10260 20190 30107 40137 55001 60006 85500 91800 333 10278 20223=
07690,1997-08-02 21:00:00,25,1014.4,0.7,74,20,15000,3.704,,,160,,,,,,,,,,,wg-a,,,,AAXX 02214 07690 12765 /1602 10250 20200 30114 40144 53007 60006 85500 92100=
07690,1997-08-03 00:00:00,23,1015.1,0.7,83,20,15000,7.408,,,320,,,,,,,,,,,wg-a,,,,AAXX 03004 07690 12665 /3204 10230 20200 30121 40151 51007 60006 85500 90000=
07690,1997-08-03 03:00:00,23,1014.8,-0.3,73,18,15000,11.112,,,330,,,,,,,,,,,wg-a,,,,AAXX 03034 07690 12665 /3306 10230 20180 30118 40148 56003 60006 82530 90300=
07690,1997-08-03 06:00:00,23,1015.6,0.8,78,19,20000,7.408,,,320,22.2,25.8,,,,,,,,,wg-a,,,,AAXX 03064 07690 02770 43204 10230 20190 30126 40156 51008 60006 81530 90600 333 10258 20222 60004=
07690,1997-08-03 09:00:00,25,1016.4,0.8,74,20,20000,11.112,,,180,,,,,,,,,,,wg-a,,,,AAXX 03094 07690 12570 71806 10250 20200 30134 40164 51008 60006 8313/ 90900=
07690,1997-08-03 12:00:00,28,1016.6,0.2,70,22,25000,14.816,,,150,,,,,,,,,,,wg-a,,,,AAXX 03124 07690 12575 21508 10280 20220 30136 40166 53002 60006 81130 91200=
07690,1997-08-03 15:00:00,27,1016.3,-0.3,74,22,9000,11.112,,,140,,,,,,,,,,,wg-a,,,,AAXX 03154 07690 12459 31406 10270 20220 30133 40163 58003 60006 81130 91500=
07690,1997-08-03 18:00:00,26,1016.7,0.4,74,21,12000,7.408,,,140,22.9,27.9,,,,,,,,,wg-a,,,,AAXX 03184 07690 12562 71404 10260 20210 30137 40167 53004 60006 8313/ 91800 333 10279 20229=
07690,1997-08-03 21:00:00,24,1017.1,0.4,83,21,10000,7.408,,,240,,,,,,,,,,,wg-a,,,,AAXX 03214 07690 12560 /2404 10240 20210 30141 40171 52004 60006 81800 92100=
07690,1997-08-04 03:00:00,22,1016.6,-0.8,88,20,12000,7.408,,,320,,,,,,,,,,,wg-a,,,,AAXX 04034 07690 12562 23204 10220 20200 30136 40166 58008 60006 82500 90300=
07690,1997-08-04 06:00:00,23,1017.6,1,83,20,9000,3.704,,,320,21.4,26,,,,,,,,,wg-a,,,,AAXX 04064 07690 02559 33202 10230 20200 30146 40176 53010 60006 82580 90600 333 10260 20214 60004=
07690,1997-08-04 09:00:00,26,1018.1,0.5,74,21,12000,7.408,,,160,,,,,,,,,,,wg-a,,,,AAXX 04094 07690 12562 71604 10260 20210 30151 40181 52005 60006 81882 90900=
07690,1997-08-04 12:00:00,28,1017.8,-0.3,66,21,12000,11.112,,,170,,,,,,,,,,,wg-a,,,,AAXX 04124 07690 12562 41706 10280 20210 30148 40178 58003 60006 81282 91200=
07690,1997-08-04 15:00:00,27,1017,-0.8,70,21,18000,11.112,,,140,,,,,,,,,,,wg-a,,,,AAXX 04154 07690 12668 21406 10270 20210 30140 40170 58008 60006 81182 91500=
07690,1997-08-04 18:00:00,26,1016.8,-0.2,74,21,18000,11.112,,,190,22.8,28.2,,,,,,,,,wg-a,,,,AAXX 04184 07690 12668 /1906 10260 20210 30138 40168 58002 60006 81582 91800 333 10282 20228=
07690,1997-08-04 21:00:00,24,1017.2,0.4,83,21,18000,11.112,,,240,,,,,,,,,,,wg-a,,,,AAXX 04214 07690 12/68 02406 10240 20210 30142 40172 51004 60006 80000 92100=
07690,1997-08-05 00:00:00,24,1016.3,-0.9,74,19,18000,11.112,,,330,,,,,,,,,,,wg-a,,,,AAXX 05004 07690 12/68 03306 10240 20190 30133 40163 58009 60006 80000 90000=
07690,1997-08-05 03:00:00,23,1016.3,-0,78,19,10000,7.408,,,10,,,,,,,,,,,wg-a,,,,AAXX 05034 07690 12/60 /0104 10230 20190 30133 40163 55000 60006 90300=
07690,1997-08-05 06:00:00,23,1016.9,0.6,78,19,18000,14.816,,,320,22.1,26,,,,,,,,,wg-a,,,,AAXX 05064 07690 02/68 63208 10230 20190 30139 40169 53006 60006 80001 90600 333 10260 20221 60004=
07690,1997-08-05 09:00:00,27,1016.4,-0.5,74,22,12000,11.112,,,140,,,,,,,,,,,wg-a,,,,AAXX 05094 07690 12662 71406 10270 20220 30134 40164 56005 60006 81182 90900=
07690,1997-08-05 12:00:00,27,1016.4,-0,74,22,10000,11.112,,,170,,,,,,,,,,,wg-a,,,,AAXX 05124 07690 12660 71706 10270 20220 30134 40164 55000 60006 81202 91200=
07690,1997-08-05 15:00:00,27,1015.1,-1.3,62,19,20000,18.52,,,200,,,,,,,,,,,wg-a,,,,AAXX 05154 07690 12570 72010 10270 20190 30121 40151 58013 60006 81286 91500=
07690,1997-08-05 18:00:00,26,1013.7,-1.4,79,22,15000,11.112,,,120,22.7,27.4,,,,,,,,,wg-a,,,,AAXX 05184 07690 12765 71206 10260 20220 30107 40137 56014 60006 81582 91800 333 10274 20227=
07690,1997-08-05 21:00:00,24,1014.2,0.5,89,22,15000,11.112,,,230,,,,,,,,,,,wg-a,,,,AAXX 05214 07690 12/65 72306 10240 20220 30112 40142 50005 60006 85082 92100=
07690,1997-08-06 00:00:00,23,1013.8,-0.4,89,21,10000,3.704,,,270,,,,,,,,,,,wg-a,,,,AAXX 06004 07690 12/60 /2702 10230 20210 30108 40138 58004 60006 84082 90000=
07690,1997-08-06 03:00:00,22,1012.9,-0.9,88,20,10000,7.408,,,340,,,,,,,,,,,wg-a,,,,AAXX 06034 07690 12/60 23404 10220 20200 30099 40129 56009 60006 82082 90300=
07690,1997-08-06 06:00:00,22,1012.6,-0.3,83,19,15000,14.816,,,330,21.2,26.3,,,,,,,,,wg-a,,,,AAXX 06064 07690 02465 /3308 10220 20190 30096 40126 55003 60006 81101 90600 333 10263 20212 60004=
07690,1997-08-06 09:00:00,26,1013.3,0.7,74,21,10000,7.408,,,140,,,,,,,,,,,wg-a,,,,AAXX 06094 07690 12460 21404 10260 20210 30103 40133 53007 60006 82101 90900=
07690,1997-08-06 12:00:00,27,1013,-0.3,74,22,9000,14.816,,,140,,,,,,,,,,,wg-a,,,,AAXX 06124 07690 12459 /1408 10270 20220 30100 40130 56003 60006 82272 91200=
07690,1997-08-06 15:00:00,26,1012.9,-0.1,79,22,7000,11.112,,,190,,,,,,,,,,,wg-a,,,,AAXX 06154 07690 12457 61906 10260 20220 30099 40129 56001 60006 83272 91500=
07690,1997-08-06 18:00:00,25,1011.8,-1.1,83,22,9000,14.816,,,220,22.2,27.5,,,,,,,,,wg-a,,,,AAXX 06184 07690 12459 32208 10250 20220 30088 40118 56011 60006 81282 91800 333 10275 20222=
07690,1997-08-06 21:00:00,24,1013.3,1.5,89,22,10000,7.408,,,240,,,,,,,,,,,wg-a,,,,AAXX 06214 07690 12460 52404 10240 20220 30103 40133 51015 60006 83830 92100=
07690,1997-08-07 00:00:00,22,1013.4,0.1,78,18,10000,14.816,,,330,,,,,,,,,,,wg-a,,,,AAXX 07004 07690 12460 53308 10220 20180 30104 40134 52001 60006 85530 90000=
07690,1997-08-07 03:00:00,22,1012.7,-0.7,78,18,15000,11.112,,,340,,,,,,,,,,,wg-a,,,,AAXX 07034 07690 12465 /3406 10220 20180 30097 40127 56007 60006 81500 90300=
07690,1997-08-07 06:00:00,22,1014.2,1.5,78,18,15000,18.52,,,330,21.2,24.7,,,,,,,,,wg-a,,,,AAXX 07064 07690 02465 23310 10220 20180 30112 40142 53015 60006 82800 90600 333 10247 20212 60004=
07690,1997-08-07 09:00:00,27,1014.2,-0,70,21,15000,11.112,,,130,,,,,,,,,,,wg-a,,,,AAXX 07094 07690 12465 21306 10270 20210 30112 40142 55000 60006 81102 90900=
07690,1997-08-07 12:00:00,27,1014.4,0.2,74,22,15000,18.52,,,160,,,,,,,,,,,wg-a,,,,AAXX 07124 07690 12565 /1610 10270 20220 30114 40144 50002 60006 81282 91200=
07690,1997-08-07 15:00:00,27,1013.2,-1.2,74,22,15000,14.816,,,180,,,,,,,,,,,wg-a,,,,AAXX 07154 07690 12565 21808 10270 20220 30102 40132 57012 60006 82900 91500=
07690,1997-08-07 18:00:00,25,1013.4,0.2,79,21,10000,18.52,,,210,22.1,27.5,,,,,,,,,wg-a,,,,AAXX 07184 07690 12560 /2110 10250 20210 30104 40134 53002 60006 81501 91800 333 10275 20221=
07690,1997-08-07 21:00:00,24,1015,1.6,89,22,10000,7.408,,,220,,,,,,,,,,,wg-a,,,,AAXX 07214 07690 12660 52204 10240 20220 30120 40150 53016 60006 85501 92100=
07690,1997-08-08 00:00:00,23,1015.4,0.4,78,19,12000,11.112,,,340,,,,,,,,,,,wg-a,,,,AAXX 08004 07690 12762 23406 10230 20190 30124 40154 51004 60006 82500 90000=
07690,1997-08-08 06:00:00,22,1016.1,0.6,73,17,15000,18.52,,,330,21.5,24.7,,,,,,,,,wg-a,,,,AAXX 08064 07690 02565 /3310 10220 20170 30131 40161 51006 60006 81500 90600 333 10247 20215 60004=
07690,1997-08-08 09:00:00,27,1016.6,0.5,74,22,20000,14.816,,,140,,,,,,,,,,,wg-a,,,,AAXX 08094 07690 12470 /1408 10270 20220 30136 40166 51005 60006 81100 90900=
07690,1997-08-08 12:00:00,27,1016.6,0,70,21,25000,14.816,,,130,,,,,,,,,,,wg-a,,,,AAXX 08124 07690 12575 21308 10270 20210 30136 40166 50000 60006 81101 91200=
07690,1997-08-08 15:00:00,27,1015.7,-0.9,74,22,500,11.112,,,120,,,,,,,,,,,wg-a,,,,AAXX 08154 07690 12500 41206 10270 20220 30127 40157 58009 60006 81101 91500=
07690,1997-08-08 18:00:00,26,1015.6,-0.1,79,22,500,3.704,,,160,22.2,27.8,,,,,,,,,wg-a,,,,AAXX 08184 07690 12500 21602 10260 20220 30126 40156 55001 60006 81101 91800 333 10278 20222=
07690,1997-08-09 00:00:00,23,1016.3,0.2,83,20,15000,11.112,,,330,,,,,,,,,,,wg-a,,,,AAXX 09004 07690 12/65 23306 10230 20200 30133 40163 50002 60006 82031 90000=
07690,1997-08-09 06:00:00,23,1016.3,0.4,78,19,20000,11.112,,,340,21.9,25.6,,,,,,,,,wg-a,,,,AAXX 09064 07690 02/70 13406 10230 20190 30133 40163 51004 60006 80001 90600 333 10256 20219 60004=
07690,1997-08-09 09:00:00,28,1016.4,0.1,62,20,20000,11.112,,,160,,,,,,,,,,,wg-a,,,,AAXX 09094 07690 12/70 11606 10280 20200 30134 40164 50001 60006 80001 90900=
07690,1997-08-09 12:00:00,28,1015.9,-0.5,70,22,25000,14.816,,,170,,,,,,,,,,,wg-a,,,,AAXX 09124 07690 12575 /1708 10280 20220 30129 40159 55005 60006 81100 91200=
07690,1997-08-09 15:00:00,29,1014.8,-1,62,21,25000,7.408,,,150,,,,,,,,,,,wg-a,,,,AAXX 09154 07690 12575 /1504 10290 20210 30119 40148 58010 60006 81100 91500=
07690,1997-08-09 18:00:00,27,1014.2,-0.7,79,23,25000,3.704,,,190,22.9,29.6,,,,,,,,,wg-a,,,,AAXX 09184 07690 12575 /1902 10270 20230 30112 40142 56007 60006 81100 91800 333 10296 20229=
07690,1997-08-09 21:00:00,25,1015,0.8,74,20,15000,7.408,,,330,,,,,,,,,,,wg-a,,,,AAXX 09214 07690 12/65 /3304 10250 20200 30120 40150 50008 60006 81031 92100=
07690,1997-08-10 00:00:00,25,1015.5,0.5,74,20,15000,7.408,,,340,,,,,,,,,,,wg-a,,,,AAXX 10004 07690 12/65 23404 10250 20200 30125 40155 52005 60006 81031 90000=
07690,1997-08-10 03:00:00,23,1015,-0.5,83,20,15000,7.408,,,330,,,,,,,,,,,wg-a,,,,AAXX 10034 07690 12/65 23304 10230 20200 30120 40150 58005 60006 81031 90300=
07690,1997-08-10 06:00:00,25,1015.5,0.5,69,19,18000,11.112,,,340,23,26.8,,,,,,,,,wg-a,,,,AAXX 10064 07690 02/68 23406 10250 20190 30125 40155 53005 60006 81032 90600 333 10268 20230 60004=
07690,1997-08-10 09:00:00,29,1016.1,0.6,62,21,10000,7.408,,,80,,,,,,,,,,,wg-a,,,,AAXX 10094 07690 12660 20804 10290 20210 30131 40161 53006 60006 81102 90900=
07690,1997-08-10 12:00:00,29,1016,-0,66,22,6000,14.816,,,110,,,,,,,,,,,wg-a,,,,AAXX 10124 07690 12556 /1108 10290 20220 30131 40160 54000 60006 81200 91200=
07690,1997-08-10 15:00:00,29,1015.2,-0.8,62,21,7000,14.816,,,100,,,,,,,,,,,wg-a,,,,AAXX 10154 07690 12757 21008 10290 20210 30123 40152 55008 60006 81963 91500=
07690,1997-08-10 18:00:00,29,1014.5,-0.8,58,20,12000,7.408,,,130,24.8,29.9,,,,,,,,,wg-a,,,,AAXX 10184 07690 12/62 /1304 10290 20200 30115 40145 58008 60006 81/63 91800 333 10299 20248=
07690,1997-08-10 21:00:00,27,1014.8,0.3,62,19,20000,7.408,,,30,,,,,,,,,,,wg-a,,,,AAXX 10214 07690 12/70 20304 10270 20190 30118 40148 50003 60006 80003 92100=
07690,1997-08-11 00:00:00,26,1014.2,-0.6,65,19,20000,14.816,,,20,,,,,,,,,,,wg-a,,,,AAXX 11004 07690 12/70 10208 10260 20190 30112 40142 58006 60006 80001 90000=
07690,1997-08-11 03:00:00,25,1014.6,0.4,65,18,20000,11.112,,,320,,,,,,,,,,,wg-a,,,,AAXX 11034 07690 12/70 13206 10250 20180 30116 40146 52004 60006 80001 90300=
07690,1997-08-11 06:00:00,27,1015.1,0.5,66,20,20000,35.188,,,90,24.6,29,,,,,,,,,wg-a,,,,AAXX 11064 07690 02/70 60919 10270 20200 30121 40151 53005 60006 84081 90600 333 10290 20246 60004=
07690,1997-08-11 09:00:00,27,1015.9,0.8,70,21,11000,35.188,,,70,,,,,,,,,,,wg-a,,,,AAXX 11094 07690 32/61 /0719 10270 20210 30129 40159 50008 90900=
07690,1997-08-11 12:00:00,22,1017.2,1.3,94,21,4000,18.52,,,340,,,,10,,,,,,10,wg-a,,,,AAXX 11124 07690 02440 83410 10220 20210 30142 40172 51013 60106 71096 8396/ 91200 333 60107=
07690,1997-08-11 18:00:00,19,1018.8,2.6,94,18,500,31.484,,64.82,330,18.9,27.3,,,,,,,,61,wg-a,,,,AAXX 11184 07690 02400 73317 10190 20180 30157 40188 51026 61000 76196 8396/ 91800 333 10273 20189 6011 91035=
07690,1997-08-11 21:00:00,20,1018.4,-0.4,78,16,15000,29.632,,,360,,,,2,,,,,,13,wg-a,,,,AAXX 11214 07690 12465 63616 10200 20160 30153 40184 55004 60027 71362 82960 92100=
07690,1997-08-12 00:00:00,21,1018.4,0.1,73,16,20000,18.52,,,330,,,,,,,,,,1,wg-a,,,,AAXX 12004 07690 12770 33310 10210 20160 30154 40184 50001 60026 70161 81530 90000=
07690,1997-08-12 03:00:00,21,1018.2,-0.2,73,16,20000,29.632,,,330,,,,,,,,,,,wg-a,,,,AAXX 12034 07690 12770 43316 10210 20160 30152 40182 58002 60006 81530 90300=
07690,1997-08-12 06:00:00,21,1019,0.8,73,16,500,22.224,,,340,18.4,21.2,,,,,25,,,,wg-a,,,,AAXX 12064 07690 02700 /3412 10210 20160 30160 40190 53008 60006 81530 90600 333 10212 20184 60254=
07690,1997-08-12 09:00:00,27,1020.2,1.2,54,17,25000,7.408,,,290,,,,,,,,,,,wg-a,,,,AAXX 12094 07690 12775 /2904 10270 20170 30172 40202 51012 60006 81100 90900=
07690,1997-08-12 12:00:00,28,1020.7,0.5,58,19,20000,11.112,,,150,,,,,,,,,,,wg-a,,,,AAXX 12124 07690 12670 /1506 10280 20190 30177 40207 51005 60006 81200 91200=
07690,1997-08-12 15:00:00,28,1020.6,-0.1,62,20,11000,11.112,,,240,,,,,,,,,,,wg-a,,,,AAXX 12154 07690 12/61 /2406 10280 20200 30176 40206 58001 60006 91500=
07690,1997-08-12 18:00:00,27,1020.1,-0.5,48,15,20000,3.704,,,140,21.3,28.7,,,,,,,,,wg-a,,,,AAXX 12184 07690 12770 31402 10270 20150 30171 40201 56005 60006 81531 91800 333 10287 20213=
07690,1997-08-12 21:00:00,24,1020.7,0.6,57,15,20000,14.816,,,340,,,,,,,,,,,wg-a,,,,AAXX 12214 07690 12/70 /3408 10240 20150 30177 40207 53006 60006 81030 92100=
07690,1997-08-13 00:00:00,23,1020.6,-0.1,69,17,15000,18.52,,,340,,,,,,,,,,,wg-a,,,,AAXX 13004 07690 12/65 43410 10230 20170 30176 40206 58001 60006 84031 90000=
07690,1997-08-13 03:00:00,24,1020.4,-0.2,65,17,15000,14.816,,,340,,,,,,,,,,,wg-a,,,,AAXX 13034 07690 12/65 33408 10240 20170 30174 40204 55002 60006 83031 90300=
07690,1997-08-13 06:00:00,23,1021.2,0.8,69,17,20000,18.52,,,330,22.6,26.9,,,,,,,,,wg-a,,,,AAXX 13064 07690 02/70 73310 10230 20170 30182 40212 53008 60006 8703/ 90600 333 10269 20226 60004=
07690,1997-08-13 09:00:00,25,1021.3,0.1,65,18,20000,7.408,,,330,,,,,,,,,,,wg-a,,,,AAXX 13094 07690 12/70 53304 10250 20180 30183 40213 51001 60006 85030 90900=
07690,1997-08-13 12:00:00,28,1020.8,-0.5,70,22,10000,14.816,,,120,,,,,,,,,,,wg-a,,,,AAXX 13124 07690 12660 /1208 10280 20220 30178 40208 56005 60006 81230 91200=
07690,1997-08-13 18:00:00,25,1019.9,-0.7,74,20,15000,7.408,,,240,23,28.4,,,,,,,,,wg-a,,,,AAXX 13184 07690 12765 /2404 10250 20200 30169 40199 57007 60006 81963 91800 333 10284 20230=
07690,1997-08-13 21:00:00,23,1020.4,0.5,78,19,15000,7.408,,,10,,,,,,,,,,,wg-a,,,,AAXX 13214 07690 12/65 30104 10230 20190 30174 40204 53005 60006 81062 92100=
07690,1997-08-14 00:00:00,24,1020.6,0.2,74,19,15000,11.112,,,340,,,,,,,,,,,wg-a,,,,AAXX 14004 07690 12/65 23406 10240 20190 30176 40206 53002 60006 80001 90000=
07690,1997-08-14 06:00:00,24,1021,0.8,69,18,18000,11.112,,,350,22.9,25,,,,,,,,,wg-a,,,,AAXX 14064 07690 02/68 23506 10240 20180 30180 40210 53008 60006 81032 90600 333 10250 20229 60004=
07690,1997-08-14 09:00:00,28,1021.5,0.5,62,20,20000,11.112,,,120,,,,,,,,,,,wg-a,,,,AAXX 14094 07690 12670 11206 10280 20200 30185 40215 51005 60006 81100 90900=
07690,1997-08-14 12:00:00,28,1020.6,-0.9,66,21,12000,14.816,,,110,,,,,,,,,,,wg-a,,,,AAXX 14124 07690 12662 /1108 10280 20210 30176 40206 58009 60006 91200=
07690,1997-08-14 15:00:00,28,1019.6,-1,66,21,13000,7.408,,,110,,,,,,,,,,,wg-a,,,,AAXX 14154 07690 12763 21104 10280 20210 30166 40196 58010 60006 81903 91500=
07690,1997-08-14 18:00:00,25,1018.8,-0.8,79,21,15000,7.408,,,220,23.5,28.5,,,,,,,,,wg-a,,,,AAXX 14184 07690 12665 32204 10250 20210 30158 40188 55008 60006 81263 91800 333 10285 20235=
07690,1997-08-14 21:00:00,23,1018.7,-0.1,83,20,10000,7.408,,,300,,,,,,,,,,,wg-a,,,,AAXX 14214 07690 12/60 13004 10230 20200 30157 40187 58001 60006 80003 92100=
07690,1997-08-15 00:00:00,23,1018.6,-0.1,78,19,12000,11.112,,,320,,,,,,,,,,,wg-a,,,,AAXX 15004 07690 12/62 03206 10230 20190 30156 40186 58001 60006 80000 90000=
07690,1997-08-15 03:00:00,23,1017.9,-0.7,73,18,12000,11.112,,,340,,,,,,,,,,,wg-a,,,,AAXX 15034 07690 12/62 03406 10230 20180 30149 40179 57007 60006 80000 90300=
07690,1997-08-15 06:00:00,23,1018.7,0.8,78,19,12000,11.112,,,340,22,25.1,,,,,,,,,wg-a,,,,AAXX 15064 07690 02562 33406 10230 20190 30157 40187 52008 60006 81181 90600 333 10251 20220 60004=
07690,1997-08-15 12:00:00,28,1018.8,-0.4,66,21,12000,14.816,,,180,,,,,,,,,,,wg-a,,,,AAXX 15124 07690 12662 21808 10280 20210 30158 40188 58004 60006 81201 91200=
07690,1997-08-15 15:00:00,27,1017.5,-1.3,79,23,8000,18.52,,,190,,,,,,,,,,,wg-a,,,,AAXX 15154 07690 12458 41910 10270 20230 30145 40175 58013 60006 82903 91500=
07690,1997-08-15 18:00:00,25,1016.9,-0.6,89,23,9000,7.408,,,190,22.5,28.3,,,,,,,,,wg-a,,,,AAXX 15184 07690 12459 71904 10250 20230 30139 40169 55006 60006 86503 91800 333 10283 20225=
07690,1997-08-15 21:00:00,25,1015.8,-1.1,89,23,12000,3.704,,,100,,,,,,,,,,,wg-a,,,,AAXX 15214 07690 12462 61002 10250 20230 30128 40158 58011 60006 84531 92100=
07690,1997-08-16 00:00:00,25,1015.7,-0.1,89,23,12000,11.112,,,80,,,,,,,,,,,wg-a,,,,AAXX 16004 07690 12462 /0806 10250 20230 30127 40157 58001 60006 84532 90000=
07690,1997-08-16 03:00:00,24,1015.3,-0.4,89,22,12000,11.112,,,330,,,,,,,,,,,wg-a,,,,AAXX 16034 07690 12462 73306 10240 20220 30123 40153 56004 60006 875// 90300=
07690,1997-08-16 06:00:00,23,1016.2,0.9,83,20,8000,11.112,,,20,22.7,25.5,,,,,,,,,wg-a,,,,AAXX 16064 07690 02558 70206 10230 20200 30132 40162 53009 60006 875// 90600 333 10255 20227 60004=
07690,1997-08-16 09:00:00,26,1017.1,0.9,74,21,10000,29.632,,,90,,,,,,,,,,,wg-a,,,,AAXX 16094 07690 12460 70916 10260 20210 30141 40171 51009 60006 878// 90900=
07690,1997-08-16 12:00:00,27,1017.6,0.5,70,21,10000,22.224,,,80,,,,,,,,,,,wg-a,,,,AAXX 16124 07690 12460 40812 10270 20210 30146 40176 51005 60006 83880 91200=
07690,1997-08-16 15:00:00,26,1016.3,-1.3,74,21,15000,11.112,,,100,,,,,,,,,,,wg-a,,,,AAXX 16154 07690 12565 61006 10260 20210 30133 40163 56013 60006 83903 91500=
07690,1997-08-16 18:00:00,26,1016.1,-0.2,70,20,15000,3.704,,,100,23.3,27.6,,,,,,,,,wg-a,,,,AAXX 16184 07690 12565 71002 10260 20200 30131 40161 58002 60006 81963 91800 333 10276 20233=
07690,1997-08-16 21:00:00,24,1016.3,0.2,78,20,9000,11.112,,,20,,,,,,,,,,17,wg-a,,,,AAXX 16214 07690 02559 70206 10240 20200 30133 40163 50002 61000 71798 8596/ 92100 333 ////=
07690,1997-08-17 00:00:00,22,1016.9,0.6,78,18,18000,11.112,,,340,,,,1,,,,,,1,wg-a,,,,AAXX 17004 07690 02468 /3406 10220 20180 30139 40169 53006 60016 70198 81563 90000 333 60017=
07690,1997-08-17 03:00:00,21,1015.5,-1.4,78,17,20000,22.224,,,330,,,,,,,,,,,wg-a,,,,AAXX 17034 07690 12870 73312 10210 20170 30125 40155 56014 60006 8703/ 90300=
07690,1997-08-17 06:00:00,21,1015.9,0.4,73,16,25000,18.52,,,330,20.9,26.4,,,,,1,,,,wg-a,,,,AAXX 17064 07690 02575 33310 10210 20160 30129 40159 53004 60006 82580 90600 333 10264 20209 60014=
07690,1997-08-17 09:00:00,26,1016.5,0.6,74,21,15000,22.224,,,100,,,,,,,,,,,wg-a,,,,AAXX 17094 07690 12465 61012 10260 20210 30135 40165 53006 60006 85880 90900=
07690,1997-08-17 12:00:00,25,1016.8,0.3,74,20,10000,25.928,,,110,,,,,,,,,,29,wg-a,,,,AAXX 17124 07690 02460 71114 10250 20200 30138 40168 53003 61000 72998 8698/ 91200 333 6100=
07690,1997-08-17 15:00:00,22,1017,0.2,94,21,7000,7.408,,,20,,,,1,,,,,,80,wg-a,,,,AAXX 17154 07690 12357 80204 10220 20210 30140 40170 53002 60017 78098 879// 91500=
07690,1997-08-17 18:00:00,21,1015.7,-1.3,88,19,15000,7.408,,,330,20.3,26.6,,,,,,,,25,wg-a,,,,AAXX 17184 07690 02765 43304 10210 20190 30127 40157 58013 61000 72598 81530 91800 333 10266 20203 6002=
07690,1997-08-17 21:00:00,20,1017.7,1.9,88,18,15000,11.112,,,330,,,,,,,,,,,wg-a,,,,AAXX 17214 07690 12/65 03306 10200 20180 30146 40177 51019 60006 80000 92100=
07690,1997-08-18 00:00:00,19,1016.9,-0.8,94,18,15000,18.52,,,340,,,,,,,,,,,wg-a,,,,AAXX 18004 07690 12/65 03410 10190 20180 30138 40169 58008 60006 80000 90000=
07690,1997-08-18 03:00:00,19,1015.8,-1.1,88,17,15000,18.52,,,340,,,,,,,,,,,wg-a,,,,AAXX 18034 07690 12/65 03410 10190 20170 30127 40158 58011 60006 80000 90300=
07690,1997-08-18 06:00:00,20,1016.2,0.4,78,16,35000,22.224,,,330,18.9,20.8,,,,,4,,,,wg-a,,,,AAXX 18064 07690 02/81 13312 10200 20160 30131 40162 53004 60006 80002 90600 333 10208 20189 60044=
07690,1997-08-18 09:00:00,25,1016.6,0.5,61,17,40000,3.704,,,230,,,,,,,,,,,wg-a,,,,AAXX 18094 07690 12582 12302 10250 20170 30136 40166 53005 60006 81102 90900=
07690,1997-08-18 12:00:00,26,1016.5,-0.1,65,19,500,14.816,,,180,,,,,,,,,,,wg-a,,,,AAXX 18124 07690 12500 31808 10260 20190 30135 40165 58001 60006 81202 91200=
07690,1997-08-18 15:00:00,26,1015.3,-1.2,70,20,15000,14.816,,,170,,,,,,,,,,,wg-a,,,,AAXX 18154 07690 12565 /1708 10260 20200 30123 40153 57012 60006 81901 91500=
07690,1997-08-18 18:00:00,24,1015.4,0.1,83,21,12000,11.112,,,210,19.9,26.7,,,,,,,,,wg-a,,,,AAXX 18184 07690 12462 62106 10240 20210 30124 40154 50001 60006 81263 91800 333 10267 20199=
07690,1997-08-18 21:00:00,23,1016.4,1,89,21,12000,7.408,,,310,,,,,,,,,,,wg-a,,,,AAXX 18214 07690 12462 73104 10230 20210 30134 40164 51010 60006 82983 92100=
07690,1997-08-19 00:00:00,22,1015.8,-0.6,88,20,10000,11.112,,,330,,,,,,,,,,,wg-a,,,,AAXX 19004 07690 12660 73306 10220 20200 30128 40158 58006 60006 8298/ 90000=
07690,1997-08-19 03:00:00,22,1015.5,-0.3,83,19,10000,7.408,,,350,,,,,,,,,,13,wg-a,,,,AAXX 19034 07690 12660 63504 10220 20190 30125 40155 58003 60006 71311 82982 90300=
07690,1997-08-19 06:00:00,21,1015.7,0.2,88,19,20000,11.112,,,340,20.9,23.9,,,,,,,,,wg-a,,,,AAXX 19064 07690 02570 43406 10210 20190 30127 40157 53002 60006 81232 90600 333 10239 20209 60004=
07690,1997-08-19 09:00:00,26,1016.4,0.7,70,20,500,11.112,,,140,,,,,,,,,,,wg-a,,,,AAXX 19094 07690 12500 31406 10260 20200 30134 40164 53007 60006 81201 90900=
07690,1997-08-19 12:00:00,27,1015.9,-0.5,70,21,25000,11.112,,,160,,,,,,,,,,,wg-a,,,,AAXX 19124 07690 12575 21606 10270 20210 30129 40159 58005 60006 82301 91200=
07690,1997-08-19 15:00:00,26,1015.7,-0.2,79,22,20000,3.704,,,120,,,,,,,,,,,wg-a,,,,AAXX 19154 07690 12570 /1202 10260 20220 30127 40157 57002 60006 82903 91500=
07690,1997-08-19 18:00:00,24,1015,-0.7,69,18,25000,11.112,,,330,21.4,27.5,,,,,,,,1,wg-a,,,,AAXX 19184 07690 02575 /3306 10240 20180 30120 40150 56007 60006 70186 81963 91800 333 10275 20214 61000=
07690,1997-08-19 21:00:00,23,1016.1,1.1,73,18,20000,11.112,,,330,,,,,,,,,,,wg-a,,,,AAXX 19214 07690 12770 /3306 10230 20180 30131 40161 52011 60006 81563 92100=
07690,1997-08-20 00:00:00,22,1015.7,-0.4,73,17,25000,22.224,,,330,,,,,,,,,,,wg-a,,,,AAXX 20004 07690 12/75 13312 10220 20170 30127 40157 58004 60006 81031 90000=
07690,1997-08-20 03:00:00,21,1015.7,-0,78,17,25000,14.816,,,350,,,,,,,,,,,wg-a,,,,AAXX 20034 07690 12/75 13508 10210 20170 30127 40157 55000 60006 80001 90300=
07690,1997-08-20 06:00:00,22,1017.2,1.5,69,16,25000,14.816,,,330,21,24,,,,,,,,,wg-a,,,,AAXX 20064 07690 02575 73308 10220 20160 30142 40172 53015 60006 8223/ 90600 333 10240 20210 61000=
07690,1997-08-20 09:00:00,25,1017.3,0.1,61,17,25000,14.816,,,320,,,,,,,,,,,wg-a,,,,AAXX 20094 07690 12575 53208 10250 20170 30143 40173 53001 60006 8113/ 90900=
07690,1997-08-20 12:00:00,28,1017.6,0.3,51,17,25000,14.816,,,160,,,,,,,,,,,wg-a,,,,AAXX 20124 07690 12675 21608 10280 20170 30146 40176 50003 60006 81201 91200=
07690,1997-08-20 15:00:00,27,1016.6,-1,62,19,25000,14.816,,,190,,,,,,,,,,,wg-a,,,,AAXX 20154 07690 12675 /1908 10270 20190 30136 40166 56010 60006 81900 91500=
07690,1997-08-20 18:00:00,24,1016.6,-0,78,20,20000,7.408,,,200,21.5,27.9,,,,,,,,,wg-a,,,,AAXX 20184 07690 12670 22004 10240 20200 30136 40166 55000 60006 81960 91800 333 10279 20215=
07690,1997-08-20 21:00:00,22,1018,1.4,88,20,15000,11.112,,,320,,,,,,,,,,,wg-a,,,,AAXX 20214 07690 12/65 43206 10220 20200 30150 40180 53014 60006 83032 92100=
07690,1997-08-21 00:00:00,22,1017.7,-0.3,78,18,15000,11.112,,,340,,,,,,,,,,13,wg-a,,,,AAXX 21004 07690 12765 63406 10220 20180 30147 40177 58003 60006 71311 81963 90000=
07690,1997-08-21 03:00:00,23,1018.1,0.4,65,16,15000,11.112,,,340,,,,,,,,,,,wg-a,,,,AAXX 21034 07690 12/65 33406 10230 20160 30151 40181 53004 60006 81082 90300=
07690,1997-08-21 06:00:00,21,1019,0.8,69,15,25000,18.52,,,330,20.8,,,,,,,,,,wg-a,,,,AAXX 21064 07690 12/75 /3310 10210 20150 30159 40190 51008 60006 83032 90600 333 20208=
07690,1997-08-21 07:00:00,21,1018,0.3,69,15,10000,18.52,,,330,20.8,,,,,,,,,,wg-a,,,,AAXX 21074 07690 12/60 63310 10210 20150 30159 40180 51003 60006 90700 333 20208=
07690,1997-08-21 09:00:00,26,1019.7,0.8,65,19,25000,14.816,,,100,,,,,,,,,,,wg-a,,,,AAXX 21094 07690 12675 /1008 10260 20190 30167 40197 52008 60006 81530 90900=
07690,1997-08-21 12:00:00,27,1019.2,-0.5,70,21,6000,11.112,,,150,,,,,,,,,,,wg-a,,,,AAXX 21124 07690 12656 51506 10270 20210 30162 40192 58005 60006 81202 91200=
07690,1997-08-21 18:00:00,23,1018.9,0.1,94,22,4000,11.112,,,290,21,27.7,,,,,,,,95,wg-a,,,,AAXX 21184 07690 02640 72906 10230 20220 30159 40189 53001 61000 79596 8396/ 91800 333 10277 20210 6000=
07690,1997-08-22 00:00:00,22,1019.5,0.5,78,18,15000,14.816,,,340,,,,,,,,,,1,wg-a,,,,AAXX 22004 07690 12765 23408 10220 20180 30165 40195 52005 60016 70196 81560 90000=
07690,1997-08-22 06:00:00,21,1020.1,0.8,78,17,25000,22.224,,,330,21,23.4,,,,,1,,,,wg-a,,,,AAXX 22064 07690 02675 /3312 10210 20170 30171 40201 51008 60006 81130 90600 333 10234 20210 60014=
07690,1997-08-22 09:00:00,26,1020.5,0.4,58,17,25000,11.112,,,330,,,,,,,,,,,wg-a,,,,AAXX 22094 07690 12575 /3306 10260 20170 30175 40205 51004 60006 81100 90900=
07690,1997-08-22 12:00:00,29,1020.3,-0.2,43,15,500,11.112,,,120,,,,,,,,,,,wg-a,,,,AAXX 22124 07690 12500 21206 10290 20150 30173 40203 58002 60006 82200 91200=
07690,1997-08-22 15:00:00,28,1018.9,-1.4,58,19,500,7.408,,,240,,,,,,,,,,,wg-a,,,,AAXX 22154 07690 12500 /2404 10280 20190 30159 40189 56014 60006 81200 91500=
07690,1997-08-22 18:00:00,26,1019,0.1,58,17,20000,3.704,,,240,21.4,29.1,,,,,,,,,wg-a,,,,AAXX 22184 07690 12670 32402 10260 20170 30160 40190 53001 60006 81201 91800 333 10291 20214=
07690,1997-08-22 21:00:00,23,1019.3,0.3,61,15,15000,14.816,,,340,,,,,,,,,,,wg-a,,,,AAXX 22214 07690 12/65 /3408 10230 20150 30163 40193 50003 60006 80001 92100=
07690,1997-08-23 00:00:00,22,1019.1,-0.2,65,15,15000,18.52,,,340,,,,,,,,,,,wg-a,,,,AAXX 23004 07690 12/65 13410 10220 20150 30161 40191 57002 60006 80001 90000=
07690,1997-08-23 03:00:00,21,1018.6,-0.5,69,15,15000,22.224,,,340,,,,,,,,,,,wg-a,,,,AAXX 23034 07690 12/65 03412 10210 20150 30156 40186 57005 60006 80000 90300=
07690,1997-08-23 06:00:00,21,1018.9,0.3,64,14,20000,14.816,,,340,20.5,25.5,,,,,,,,,wg-a,,,,AAXX 23064 07690 02/70 03408 10210 20140 30159 40189 53003 60006 80000 90600 333 10255 20205 60004=
07690,1997-08-23 09:00:00,27,1019.1,0.2,48,15,10000,3.704,,,140,,,,,,,,,,,wg-a,,,,AAXX 23094 07690 12/60 /1402 10270 20150 30161 40191 53002 60006 90900=
07690,1997-08-23 12:00:00,28,1018.6,-0.5,55,18,15000,11.112,,,130,,,,,,,,,,,wg-a,,,,AAXX 23124 07690 12665 31306 10280 20180 30156 40186 57005 60006 81201 91200=
07690,1997-08-23 15:00:00,27,1017.4,-1.2,62,19,10000,11.112,,,160,,,,,,,,,,,wg-a,,,,AAXX 23154 07690 12660 21606 10270 20190 30144 40174 58012 60006 81280 91500=
07690,1997-08-23 18:00:00,26,1017,-0.4,70,20,12000,7.408,,,160,21.2,28.4,,,,,,,,,wg-a,,,,AAXX 23184 07690 12662 31604 10260 20200 30140 40170 58004 60006 8/800 91800 333 10284 20212=
07690,1997-08-23 21:00:00,23,1016.9,-0.1,78,19,12000,11.112,,,340,,,,,,,,,,,wg-a,,,,AAXX 23214 07690 12762 43406 10230 20190 30139 40169 58001 60006 84500 92100=
07690,1997-08-24 00:00:00,23,1016.7,-0.2,65,16,15000,11.112,,,330,,,,,,,,,,,wg-a,,,,AAXX 24004 07690 12/65 /3306 10230 20160 30137 40167 56002 60006 80000 90000=
07690,1997-08-24 03:00:00,22,1016.7,-0,65,15,15000,18.52,,,330,,,,,,,,,,,wg-a,,,,AAXX 24034 07690 12/65 03310 10220 20150 30137 40167 55000 60006 80000 90300=
07690,1997-08-24 06:00:00,22,1016.8,0.1,69,16,25000,22.224,,,340,21.2,25.5,,,,,,,,,wg-a,,,,AAXX 24064 07690 02/75 03412 10220 20160 30138 40168 53001 60006 80000 90600 333 10255 20212 60004=
07690,1997-08-24 09:00:00,26,1017.3,0.5,58,17,20000,11.112,,,170,,,,,,,,,,,wg-a,,,,AAXX 24094 07690 12/70 01706 10260 20170 30143 40173 51005 60006 80000 90900=
07690,1997-08-24 12:00:00,28,1016.6,-0.7,62,20,12000,22.224,,,200,,,,,,,,,,,wg-a,,,,AAXX 24124 07690 12662 /2012 10280 20200 30136 40166 58007 60006 81200 91200=
07690,1997-08-24 15:00:00,27,1015.9,-0.7,70,21,10000,18.52,,,190,,,,,,,,,,,wg-a,,,,AAXX 24154 07690 12460 /1910 10270 20210 30129 40159 58007 60006 81200 91500=
07690,1997-08-24 18:00:00,25,1015.1,-0.8,89,23,9000,14.816,,,210,21.7,27.9,,,,,,,,,wg-a,,,,AAXX 24184 07690 12559 22108 10250 20230 30121 40151 56008 60006 81263 91800 333 10279 20217=
07690,1997-08-24 21:00:00,23,1015.3,0.2,94,22,12000,0,,,0,,,,,,,,,,,wg-a,,,,AAXX 24214 07690 12/62 00000 10230 20220 30123 40153 50002 60006 80000 92100=
07690,1997-08-25 00:00:00,21,1015.7,0.4,83,18,12000,14.816,,,330,,,,,,,,,,,wg-a,,,,AAXX 25004 07690 12762 23308 10210 20180 30127 40157 50004 60006 82500 90000=
07690,1997-08-25 03:00:00,21,1014.4,-1.3,73,16,12000,18.52,,,330,,,,,,,,,,,wg-a,,,,AAXX 25034 07690 12/62 03310 10210 20160 30114 40144 56013 60006 80000 90300=
07690,1997-08-25 06:00:00,21,1014.6,0.2,73,16,12000,14.816,,,330,20.3,24.9,,,,,,,,,wg-a,,,,AAXX 25064 07690 02462 23308 10210 20160 30116 40146 53002 60006 82500 90600 333 10249 20203 60004=
07690,1997-08-25 09:00:00,26,1014.6,-0,58,17,15000,7.408,,,190,,,,,,,,,,,wg-a,,,,AAXX 25094 07690 12565 /1904 10260 20170 30116 40146 55000 60006 81500 90900=
07690,1997-08-25 12:00:00,27,1014,-0.6,66,20,20000,18.52,,,190,,,,,,,,,,,wg-a,,,,AAXX 25124 07690 12570 /1910 10270 20200 30110 40140 58006 60006 81130 91200=
07690,1997-08-25 15:00:00,27,1012.7,-1.3,66,20,15000,14.816,,,200,,,,,,,,,,,wg-a,,,,AAXX 25154 07690 12565 32008 10270 20200 30097 40127 56013 60006 81101 91500=
07690,1997-08-25 18:00:00,24,1012,-0.7,74,19,15000,7.408,,,230,21,27.7,,,,,,,,,wg-a,,,,AAXX 25184 07690 12/65 42304 10240 20190 30090 40120 56007 60006 80001 91800 333 10277 20210=
07690,1997-08-26 00:00:00,21,1012.2,-0.1,64,14,20000,18.52,,,330,,,,,,,,,,,wg-a,,,,AAXX 26004 07690 12/70 23310 10210 20140 30092 40122 58001 60006 80002 90000=
07690,1997-08-26 03:00:00,21,1011.1,-1.1,60,13,20000,14.816,,,340,,,,,,,,,,,wg-a,,,,AAXX 26034 07690 12/70 73408 10210 20130 30081 40111 58011 60006 8703/ 90300=
07690,1997-08-26 06:00:00,21,1012.2,1.1,60,13,20000,18.52,,,330,20.5,24.5,,,,,,,,15,wg-a,,,,AAXX 26064 07690 02770 73310 10210 20130 30092 40122 53011 60006 71511 82572 90600 333 10245 20205 60004=
07690,1997-08-26 09:00:00,21,1011.6,-0.6,69,15,12000,22.224,,,340,,,,1,,,,,,3,wg-a,,,,AAXX 26094 07690 12/62 73412 10210 20150 30086 40116 58006 60017 70362 8707/ 90900=
07690,1997-08-26 12:00:00,24,1011.6,0,57,15,12000,14.816,,,320,,,,,,,,,,2,wg-a,,,,AAXX 26124 07690 12762 83208 10240 20150 30086 40116 50000 60016 70262 8757/ 91200=
07690,1997-08-26 18:00:00,24,1010.6,-0.3,61,16,20000,7.408,,,300,19.2,25.7,,,,,,,,3,wg-a,,,,AAXX 26184 07690 12470 /3004 10240 20160 30076 40106 56003 60006 70361 82831 91800 333 10257 20192=
07690,1997-08-26 21:00:00,21,1011.3,0.7,78,17,15000,11.112,,,330,,,,,,,,,,,wg-a,,,,AAXX 26214 07690 12565 23306 10210 20170 30083 40113 51007 60006 82500 92100=
07690,1997-08-27 00:00:00,20,1010.9,-0.4,78,16,15000,18.52,,,330,,,,,,,,,,,wg-a,,,,AAXX 27004 07690 12/65 03310 10200 20160 30079 40109 56004 60006 80000 90000=
07690,1997-08-27 06:00:00,20,1010.8,0.6,73,15,20000,22.224,,,330,19.2,23.8,,,,,1,,,,wg-a,,,,AAXX 27064 07690 02670 /3312 10200 20150 30078 40108 53006 60006 81101 90600 333 10238 20192 60014=
07690,1997-08-27 09:00:00,25,1011.1,0.3,57,16,20000,11.112,,,160,,,,,,,,,,,wg-a,,,,AAXX 27094 07690 12570 /1606 10250 20160 30081 40111 53003 60006 81101 90900=
07690,1997-08-27 12:00:00,26,1010.9,-0.2,70,20,20000,22.224,,,200,,,,,,,,,,,wg-a,,,,AAXX 27124 07690 12570 22012 10260 20200 30079 40109 58002 60006 81101 91200=
07690,1997-08-27 15:00:00,25,1010.3,-0.6,74,20,20000,22.224,,,210,,,,,,,,,,,wg-a,,,,AAXX 27154 07690 12570 /2112 10250 20200 30073 40103 58006 60006 83801 91500=
07690,1997-08-27 18:00:00,24,1010.4,0.1,78,20,12000,18.52,,,210,19.7,26.3,,,,,,,,,wg-a,,,,AAXX 27184 07690 12562 42110 10240 20200 30074 40104 53001 60006 82801 91800 333 10263 20197=
07690,1997-08-27 21:00:00,22,1011,0.6,88,20,12000,7.408,,,310,,,,,,,,,,,wg-a,,,,AAXX 27214 07690 12562 /3104 10220 20200 30080 40110 50006 60006 82832 92100=
07690,1997-08-28 00:00:00,22,1010,-1,83,19,12000,11.112,,,340,,,,,,,,,,,wg-a,,,,AAXX 28004 07690 12662 73406 10220 20190 30070 40100 56010 60006 8253/ 90000=
07690,1997-08-28 06:00:00,21,1007.2,-1.1,94,20,8000,11.112,,,350,20.2,23.7,,,,,,,,25,wg-a,,,,AAXX 28064 07690 02558 73506 10210 20200 30042 40072 58011 61000 72598 86832 90600 333 10237 20202 6005=
07690,1997-08-28 09:00:00,22,1007,-0.2,94,21,6000,11.112,,,320,,,,0,,,,,,25,wg-a,,,,AAXX 28094 07690 12456 83206 10220 20210 30040 40070 55002 60007 72586 8587/ 90900=
07690,1997-08-28 12:00:00,25,1005.1,-1.9,79,21,20000,25.928,,,260,,,,,,,,,,25,wg-a,,,,AAXX 28124 07690 02470 72614 10250 20210 30021 40051 56019 60016 72586 8387/ 91200 333 61000=
07690,1997-08-28 15:00:00,22,1005.3,0.2,78,18,35000,22.224,,,230,,,,,,,,,,25,wg-a,,,,AAXX 28154 07690 02581 72312 10220 20180 30023 40053 53002 61000 72586 8287/ 91500 333 ////=
07690,1997-08-28 18:00:00,23,1005.5,0.2,61,15,45000,35.188,,,250,20.6,25.5,,,,,,,,3,wg-a,,,,AAXX 28184 07690 12583 /2519 10230 20150 30025 40055 53002 60006 70386 81303 91800 333 10255 20206=
07690,1997-08-28 21:00:00,21,1006.4,0.9,49,10,20000,31.484,,,260,,,,,,,,,,,wg-a,,,,AAXX 28214 07690 32/70 02617 10210 20100 30034 40064 53009 80000 92100=
07690,1997-08-29 00:00:00,20,1006.9,0.5,53,10,20000,35.188,,,270,,,,,,,,,,,wg-a,,,,AAXX 29004 07690 12770 22719 10200 20100 30039 40069 53005 60006 82500 90000=
07690,1997-08-29 03:00:00,19,1007.9,1,52,9,20000,11.112,,,270,,,,,,,,,,,wg-a,,,,AAXX 29034 07690 12770 42706 10190 20090 30049 40079 53010 60006 84500 90300=
07690,1997-08-29 06:00:00,19,1009.6,1.7,52,9,50000,14.816,,,320,17.1,22.7,,,,,1,,,,wg-a,,,,AAXX 29064 07690 02784 /3208 10190 20090 30066 40096 53017 60006 81540 90600 333 10227 20171 60014=
07690,1997-08-29 09:00:00,24,1011,1.4,38,9,50000,14.816,,,200,,,,,,,,,,,wg-a,,,,AAXX 29094 07690 12784 /2008 10240 20090 30080 40110 51014 60006 81142 90900=
07690,1997-08-29 12:00:00,27,1012.2,1.2,34,10,50000,18.52,,,80,,,,,,,,,,,wg-a,,,,AAXX 29124 07690 12684 /0810 10270 20100 30092 40122 53012 60006 81242 91200=
07690,1997-08-29 15:00:00,26,1012.7,0.5,42,12,50000,14.816,,,100,,,,,,,,,,,wg-a,,,,AAXX 29154 07690 12684 /1008 10260 20120 30097 40127 53005 60006 81242 91500=
07690,1997-08-29 18:00:00,23,1013.7,1,73,18,50000,14.816,,,90,19.3,27.9,,,,,,,,,wg-a,,,,AAXX 29184 07690 12/84 30908 10230 20180 30107 40137 53010 60006 80002 91800 333 10279 20193=
07690,1997-08-30 00:00:00,20,1015.8,0.3,40,6,20000,11.112,,,360,,,,,,,,,,,wg-a,,,,AAXX 30004 07690 12/70 03606 10200 20060 30127 40158 51003 60006 80000 90000=
07690,1997-08-30 06:00:00,19,1016.9,0.7,46,7,60000,11.112,,,350,17.8,23.1,,,,,,,,,wg-a,,,,AAXX 30064 07690 02/86 33506 10190 20070 30138 40169 53007 60006 80002 90600 333 10231 20178 60004=
07690,1997-08-30 09:00:00,24,1017.2,0.4,36,8,60000,7.408,,,310,,,,,,,,,,,wg-a,,,,AAXX 30094 07690 12/86 13104 10240 20080 30142 40172 51004 60006 80001 90900=
07690,1997-08-30 12:00:00,25,1017.4,0.2,47,13,60000,11.112,,,190,,,,,,,,,,,wg-a,,,,AAXX 30124 07690 12/86 11906 10250 20130 30144 40174 50002 60006 81030 91200=
07690,1997-08-30 15:00:00,24,1017,-0.4,65,17,60000,7.408,,,130,,,,,,,,,,,wg-a,,,,AAXX 30154 07690 12786 /1304 10240 20170 30140 40170 55004 60006 81130 91500=
07690,1997-08-30 18:00:00,23,1017.2,0.2,73,18,50000,3.704,,,90,18.5,25.1,,,,,,,,,wg-a,,,,AAXX 30184 07690 12/84 /0902 10230 20180 30142 40172 50002 60006 81040 91800 333 10251 20185=
07690,1997-08-30 21:00:00,20,1017.7,0.4,78,16,20000,11.112,,,340,,,,,,,,,,,wg-a,,,,AAXX 30214 07690 12/70 03406 10200 20160 30146 40177 51004 60006 80000 92100=
07690,1997-08-31 00:00:00,18,1017.7,0,83,15,20000,14.816,,,330,,,,,,,,,,,wg-a,,,,AAXX 31004 07690 12/70 03308 10180 20150 30146 40177 50000 60006 80000 90000=
07690,1997-08-31 06:00:00,18,1018.4,1.3,77,14,35000,18.52,,,330,17.3,22.8,,,,,,,,,wg-a,,,,AAXX 31064 07690 02581 /3310 10180 20140 30153 40184 53013 60006 81530 90600 333 10228 20173 60004=
07690,1997-08-31 12:00:00,25,1018.8,0.3,74,20,20000,14.816,,,100,,,,,,,,,,,wg-a,,,,AAXX 31124 07690 12470 /1008 10250 20200 30158 40188 50003 60006 81100 91200=
07690,1997-08-31 15:00:00,25,1018,-0.8,74,20,15000,18.52,,,100,,,,,,,,,,,wg-a,,,,AAXX 31154 07690 12465 /1010 10250 20200 30150 40180 58008 60006 81200 91500=
07690,1997-08-31 18:00:00,23,1018,-0,83,20,10000,7.408,,,110,18.1,25.2,,,,,,,,,wg-a,,,,AAXX 31184 07690 12460 /1104 10230 20200 30150 40180 55000 60006 81200 91800 333 10252 20181=
07690,1997-08-31 21:00:00,22,1018.7,0.7,88,20,15000,3.704,,,90,,,,,,,,,,,wg-a,,,,AAXX 31214 07690 12465 30902 10220 20200 30157 40187 52007 60006 83500 92100=
07690,1997-09-01 00:00:00,20,1018.8,-0,94,19,15000,7.408,,,320,,,,,,,,,,,wg-a,,,,AAXX 01004 07690 12465 53204 10200 20190 30157 40188 55000 60006 85500 90000=
07690,1997-09-01 03:00:00,20,1018.4,-0.4,88,18,15000,14.816,,,330,,,,,,,,,,,wg-a,,,,AAXX 01034 07690 12465 73308 10200 20180 30153 40184 56004 60006 875// 90300=
07690,1997-09-01 06:00:00,19,1018.8,0.4,88,17,12000,18.52,,,330,19,23.2,,,,,,,,,wg-a,,,,AAXX 01064 07690 02462 63310 10190 20170 30157 40188 53004 60006 86500 90600 333 10232 20190 60004=
07690,1997-09-01 09:00:00,25,1019,0.3,74,20,15000,11.112,,,140,,,,,,,,,,,wg-a,,,,AAXX 01094 07690 12465 21406 10250 20200 30160 40190 52003 60006 82800 90900=
07690,1997-09-01 12:00:00,26,1018.3,-0.7,70,20,500,14.816,,,120,,,,,,,,,,,wg-a,,,,AAXX 01124 07690 12500 31208 10260 20200 30153 40183 58007 60006 81101 91200=
07690,1997-09-01 15:00:00,25,1018,-0.3,74,20,20000,11.112,,,160,,,,,,,,,,,wg-a,,,,AAXX 01154 07690 12470 /1606 10250 20200 30150 40180 57003 60006 82101 91500=
07690,1997-09-01 18:00:00,23,1017.2,-0.8,83,20,20000,7.408,,,190,19.3,25.7,,,,,,,,,wg-a,,,,AAXX 01184 07690 12570 21904 10230 20200 30142 40172 56008 60006 81901 91800 333 10257 20193=
07690,1997-09-01 21:00:00,21,1018.2,1,94,20,20000,7.408,,,290,,,,,,,,,,,wg-a,,,,AAXX 01214 07690 12/70 /2904 10210 20200 30152 40182 51010 60006 80001 92100=
07690,1997-09-02 00:00:00,19,1017.5,-0.8,94,18,20000,7.408,,,320,,,,,,,,,,,wg-a,,,,AAXX 02004 07690 12/70 13204 10190 20180 30144 40175 56008 60006 80001 90000=
07690,1997-09-02 03:00:00,20,1017.1,-0.4,88,18,15000,7.408,,,360,,,,0,,,,,,61,wg-a,,,,AAXX 02034 07690 12565 73604 10200 20180 30140 40171 58004 60007 76161 8387/ 90300=
07690,1997-09-02 06:00:00,20,1017.2,0.2,88,18,500,11.112,,,340,19.2,22.6,,,,,,,,14,wg-a,,,,AAXX 02064 07690 02400 73406 10200 20180 30142 40172 50002 60006 71461 82832 90600 333 10226 20192 60004=
07690,1997-09-02 09:00:00,23,1018.3,1.1,83,20,18000,11.112,,,220,,,,,,,,,,,wg-a,,,,AAXX 02094 07690 12568 72206 10230 20200 30153 40183 53011 60006 8188/ 90900=
07690,1997-09-02 12:00:00,23,1017.9,-0.4,78,19,18000,14.816,,,360,,,,0,,,,,,21,wg-a,,,,AAXX 02124 07690 02568 73608 10230 20190 30149 40179 58004 60006 72162 8187/ 91200 333 60007=
07690,1997-09-02 18:00:00,23,1016.5,-0.3,73,18,25000,7.408,,,200,20.3,24.2,,,,,,,,,wg-a,,,,AAXX 02184 07690 12/75 72004 10230 20180 30135 40165 58003 60006 8307/ 91800 333 10242 20203=
07690,1997-09-02 21:00:00,21,1017.2,0.7,83,18,20000,7.408,,,320,,,,,,,,,,,wg-a,,,,AAXX 02214 07690 12570 /3204 10210 20180 30142 40172 51007 60006 8153/ 92100=
07690,1997-09-03 00:00:00,20,1017.4,0.1,88,18,15000,11.112,,,340,,,,0,,,,,,80,wg-a,,,,AAXX 03004 07690 02465 83406 10200 20180 30143 40174 50001 60016 78086 8387/ 90000 333 60007=
07690,1997-09-03 03:00:00,19,1016.7,-0.7,94,18,15000,14.816,,,350,,,,0,,,,,,1,wg-a,,,,AAXX 03034 07690 12765 73508 10190 20180 30136 40167 58007 60007 70186 8357/ 90300=
07690,1997-09-03 06:00:00,19,1017.2,0.5,94,18,500,11.112,,,330,18.4,22.5,,,,,,,,21,wg-a,,,,AAXX 03064 07690 02400 73306 10190 20180 30141 40172 50005 61000 72186 8583/ 90600 333 10225 20184 6002=
07690,1997-09-03 09:00:00,22,1017.7,0.6,83,19,40000,7.408,,,310,,,,,,,,,,,wg-a,,,,AAXX 03094 07690 12582 /3104 10220 20190 30147 40177 51006 60006 83832 90900=
07690,1997-09-03 12:00:00,25,1017.3,-0.4,69,19,40000,14.816,,,240,,,,,,,,,,,wg-a,,,,AAXX 03124 07690 12682 32408 10250 20190 30143 40173 58004 60006 82232 91200=
07690,1997-09-03 18:00:00,23,1017.2,0.2,83,20,40000,7.408,,,260,18.6,26.2,,,,,,,,,wg-a,,,,AAXX 03184 07690 12782 32604 10230 20200 30142 40172 53002 60006 81402 91800 333 10262 20186=
07690,1997-09-03 21:00:00,21,1018,0.8,83,18,15000,11.112,,,310,,,,,,,,,,,wg-a,,,,AAXX 03214 07690 12/65 13106 10210 20180 30150 40180 50008 60006 80001 92100=
07690,1997-09-04 00:00:00,22,1017.4,-0.6,73,17,20000,22.224,,,330,,,,,,,,,,,wg-a,,,,AAXX 04004 07690 12/70 13312 10220 20170 30144 40174 56006 60006 80001 90000=
07690,1997-09-04 03:00:00,21,1016.8,-0.6,69,15,20000,18.52,,,350,,,,,,,,,,,wg-a,,,,AAXX 04034 07690 12/70 13510 10210 20150 30138 40168 56006 60006 80001 90300=
07690,1997-09-04 06:00:00,21,1017.4,0.6,64,14,35000,18.52,,,340,20.7,22.8,,,,,,,,,wg-a,,,,AAXX 04064 07690 02/81 13410 10210 20140 30144 40174 53006 60006 80002 90600 333 10228 20207 60004=
07690,1997-09-04 09:00:00,26,1018.1,0.7,51,15,35000,18.52,,,330,,,,,,,,,,,wg-a,,,,AAXX 04094 07690 12/81 13310 10260 20150 30151 40181 51007 60006 80002 90900=
07690,1997-09-04 15:00:00,27,1017.6,-0.5,66,20,35000,18.52,,,190,,,,,,,,,,,wg-a,,,,AAXX 04154 07690 12581 /1910 10270 20200 30146 40176 58005 60006 81102 91500=
07690,1997-09-04 18:00:00,25,1017.7,0.5,79,21,50000,0,,,0,21.2,28.7,,,,,,,,,wg-a,,,,AAXX 04184 07690 12/84 /0000 10250 20210 30147 40177 53005 60006 91800 333 10287 20212=
07690,1997-09-04 21:00:00,23,1018.3,0.6,69,17,20000,18.52,,,330,,,,,,,,,,,wg-a,,,,AAXX 04214 07690 12/70 23310 10230 20170 30153 40183 50006 60006 80002 92100=
07690,1997-09-05 00:00:00,23,1017.7,-0.6,65,16,20000,22.224,,,340,,,,,,,,,,,wg-a,,,,AAXX 05004 07690 12/70 23412 10230 20160 30147 40177 58006 60006 80002 90000=
07690,1997-09-05 03:00:00,22,1018.1,0.4,69,16,20000,11.112,,,340,,,,,,,,,,,wg-a,,,,AAXX 05034 07690 12/70 23406 10220 20160 30151 40181 53004 60006 80002 90300=
07690,1997-09-05 06:00:00,21,1019.3,1.2,69,15,500,14.816,,,330,20.8,24.8,,,,,,,,,wg-a,,,,AAXX 05064 07690 02500 13308 10210 20150 30163 40193 53012 60006 81502 90600 333 10248 20208 60004=
07690,1997-09-05 12:00:00,27,1020,-0.4,74,22,15000,11.112,,,140,,,,,,,,,,,wg-a,,,,AAXX 05124 07690 12665 /1406 10270 20220 30170 40200 58004 60006 81200 91200=
07690,1997-09-05 15:00:00,27,1019,-1,70,21,25000,11.112,,,160,,,,,,,,,,,wg-a,,,,AAXX 05154 07690 12675 /1606 10270 20210 30160 40190 58010 60006 81200 91500=
07690,1997-09-05 18:00:00,25,1019.1,0.1,83,22,12000,11.112,,,190,21.4,28,,,,,,,,,wg-a,,,,AAXX 05184 07690 12662 /1906 10250 20220 30161 40191 53001 60006 81100 91800 333 10280 20214=
07690,1997-09-05 21:00:00,22,1020.4,1.3,88,20,12000,7.408,,,320,,,,,,,,,,,wg-a,,,,AAXX 05214 07690 12/62 03204 10220 20200 30174 40204 51013 60006 80000 92100=
07690,1997-09-06 00:00:00,21,1020.3,-0.2,78,17,12000,11.112,,,330,,,,,,,,,,,wg-a,,,,AAXX 06004 07690 12/62 03306 10210 20170 30172 40203 56002 60006 80000 90000=
07690,1997-09-06 03:00:00,20,1019.9,-0.4,83,17,12000,11.112,,,330,,,,,,,,,,,wg-a,,,,AAXX 06034 07690 12/62 03306 10200 20170 30168 40199 55004 60006 80000 90300=
07690,1997-09-06 06:00:00,20,1020.5,0.6,78,16,11000,14.816,,,330,19.5,24.8,,,,,,,,,wg-a,,,,AAXX 06064 07690 02/61 /3308 10200 20160 30174 40205 52006 60006 90600 333 10248 20195 60004=
07690,1997-09-06 09:00:00,25,1021,0.6,79,21,11000,7.408,,,140,,,,,,,,,,,wg-a,,,,AAXX 06094 07690 12/61 01404 10250 20210 30180 40210 53006 60006 80000 90900=
07690,1997-09-06 12:00:00,26,1021,0,74,21,7000,11.112,,,120,,,,,,,,,,,wg-a,,,,AAXX 06124 07690 12557 /1206 10260 20210 30180 40210 50000 60006 81200 91200=
07690,1997-09-06 18:00:00,24,1019.6,-0.2,78,20,9000,3.704,,,160,19.9,26.7,,,,,,,,,wg-a,,,,AAXX 06184 07690 12459 /1602 10240 20200 30166 40196 58002 60006 81500 91800 333 10267 20199=
07690,1997-09-06 21:00:00,22,1020,0.4,88,20,10000,3.704,,,320,,,,,,,,,,,wg-a,,,,AAXX 06214 07690 12/60 03202 10220 20200 30170 40200 51004 60006 80000 92100=
07690,1997-09-07 00:00:00,21,1019.8,-0.2,88,19,10000,11.112,,,330,,,,,,,,,,,wg-a,,,,AAXX 07004 07690 12/60 03306 10210 20190 30168 40198 58002 60006 80000 90000=
07690,1997-09-07 03:00:00,20,1019.1,-0.8,94,19,10000,11.112,,,330,,,,,,,,,,,wg-a,,,,AAXX 07034 07690 12/60 03306 10200 20190 30160 40191 56008 60006 80000 90300=
07690,1997-09-07 06:00:00,20,1020.2,1.1,83,17,12000,14.816,,,330,19.5,23.7,,,,,,,,,wg-a,,,,AAXX 07064 07690 02462 23308 10200 20170 30171 40202 53011 60006 82500 90600 333 10237 20195 60004=
07690,1997-09-07 09:00:00,25,1021,0.9,79,21,12000,11.112,,,90,,,,,,,,,,,wg-a,,,,AAXX 07094 07690 12462 20906 10250 20210 30180 40210 53009 60006 82800 90900=
07690,1997-09-07 12:00:00,26,1020.3,-0.7,74,21,12000,14.816,,,110,,,,,,,,,,,wg-a,,,,AAXX 07124 07690 12462 21108 10260 20210 30173 40203 58007 60006 82800 91200=
07690,1997-09-07 15:00:00,26,1019.2,-1.1,79,22,12000,7.408,,,120,,,,,,,,,,,wg-a,,,,AAXX 07154 07690 12562 21204 10260 20220 30162 40192 58011 60006 82800 91500=
07690,1997-09-07 18:00:00,24,1019,-0.2,83,21,12000,7.408,,,180,20,26.5,,,,,,,,,wg-a,,,,AAXX 07184 07690 12462 21804 10240 20210 30160 40190 58002 60006 82900 91800 333 10265 20200=
07690,1997-09-07 21:00:00,24,1020.3,1.3,83,21,12000,7.408,,,120,,,,,,,,,,,wg-a,,,,AAXX 07214 07690 12462 /1204 10240 20210 30173 40203 50013 60006 85500 92100=
07690,1997-09-08 00:00:00,23,1020.4,0.1,83,20,12000,7.408,,,310,,,,,,,,,,,wg-a,,,,AAXX 08004 07690 12462 73104 10230 20200 30174 40204 50001 60006 875// 90000=
07690,1997-09-08 03:00:00,21,1020.5,-0,88,19,12000,11.112,,,330,,,,,,,,,,,wg-a,,,,AAXX 08034 07690 12462 43306 10210 20190 30174 40205 55000 60006 84500 90300=
07690,1997-09-08 06:00:00,21,1021.1,0.6,83,18,12000,14.816,,,330,20.2,24.4,,,,,,,,,wg-a,,,,AAXX 08064 07690 02462 23308 10210 20180 30180 40211 53006 60006 82130 90600 333 10244 20202 60004=
07690,1997-09-08 09:00:00,26,1021.8,0.8,70,20,15000,11.112,,,110,,,,,,,,,,,wg-a,,,,AAXX 08094 07690 12465 /1106 10260 20200 30188 40218 53008 60006 81100 90900=
07690,1997-09-08 12:00:00,27,1021.8,0,79,23,25000,11.112,,,170,,,,,,,,,,,wg-a,,,,AAXX 08124 07690 12575 /1706 10270 20230 30188 40218 50000 60006 81100 91200=
07690,1997-09-08 15:00:00,27,1020.4,-1.4,74,22,13000,11.112,,,210,,,,,,,,,,,wg-a,,,,AAXX 08154 07690 12563 /2106 10270 20220 30174 40204 56014 60006 81200 91500=
07690,1997-09-08 18:00:00,25,1019.8,-0.6,69,19,15000,11.112,,,220,20.6,27.2,,,,,,,,,wg-a,,,,AAXX 08184 07690 12/65 /2206 10250 20190 30168 40198 56006 60006 80000 91800 333 10272 20206=
07690,1997-09-08 21:00:00,22,1019.6,-0.2,78,18,12000,14.816,,,320,,,,,,,,,,,wg-a,,,,AAXX 08214 07690 12/62 03208 10220 20180 30166 40196 58002 60006 80000 92100=
07690,1997-09-09 03:00:00,21,1017.6,-1.1,73,16,12000,14.816,,,350,,,,,,,,,,,wg-a,,,,AAXX 09034 07690 12/62 03508 10210 20160 30146 40176 57011 60006 80000 90300=
07690,1997-09-09 06:00:00,21,1017.4,-0.2,69,15,12000,11.112,,,330,20.6,24.6,,,,,,,,,wg-a,,,,AAXX 09064 07690 02/62 03306 10210 20150 30144 40174 55002 60006 80000 90600 333 10246 20206 60004=
07690,1997-09-09 09:00:00,25,1017.2,-0.2,69,19,12000,7.408,,,240,,,,,,,,,,,wg-a,,,,AAXX 09094 07690 12/62 02404 10250 20190 30142 40172 58002 60006 80000 90900=
07690,1997-09-09 12:00:00,27,1016.3,-0.9,66,20,12000,14.816,,,170,,,,,,,,,,,wg-a,,,,AAXX 09124 07690 12/62 01708 10270 20200 30133 40163 58009 60006 80000 91200=
07690,1997-09-09 18:00:00,25,1013,-1.2,83,22,10000,18.52,,,80,21.3,27.2,,,,,,,,,wg-a,,,,AAXX 09184 07690 12/60 00810 10250 20220 30100 40130 56012 60006 80000 91800 333 10272 20213=
07690,1997-09-10 03:00:00,19,1012.2,-0.5,88,17,12000,14.816,,,40,,,,,,,,,,,wg-a,,,,AAXX 10034 07690 12/62 00408 10190 20170 30092 40122 56005 60006 80000 90300=
07690,1997-09-10 06:00:00,20,1012.9,0.7,78,16,12000,14.816,,,330,19.2,25.4,,,,,,,,,wg-a,,,,AAXX 10064 07690 02462 /3308 10200 20160 30099 40129 53007 60006 86500 90600 333 10254 20192 60004=
07690,1997-09-10 09:00:00,25,1013.9,1,74,20,12000,22.224,,,100,,,,,,,,,,,wg-a,,,,AAXX 10094 07690 12462 41012 10250 20200 30109 40139 53010 60006 84500 90900=
07690,1997-09-10 12:00:00,26,1014.4,0.5,70,20,15000,14.816,,,100,,,,,,,,,,,wg-a,,,,AAXX 10124 07690 12465 31008 10260 20200 30114 40144 51005 60006 83500 91200=
07690,1997-09-10 18:00:00,24,1014.6,0.5,74,19,25000,11.112,,,100,19.9,26.6,,,,,,,,,wg-a,,,,AAXX 10184 07690 12/75 11006 10240 20190 30116 40146 53005 60006 81030 91800 333 10266 20199=
07690,1997-09-11 00:00:00,19,1016.5,0.5,78,15,20000,11.112,,,330,,,,,,,,,,,wg-a,,,,AAXX 11004 07690 12/70 03306 10190 20150 30134 40165 51005 60006 80000 90000=
07690,1997-09-11 03:00:00,19,1016.5,0,73,14,20000,14.816,,,330,,,,,,,,,,,wg-a,,,,AAXX 11034 07690 12/70 03308 10190 20140 30134 40165 50000 60006 80000 90300=
07690,1997-09-11 06:00:00,19,1017.1,0.6,73,14,20000,18.52,,,330,18.8,24.4,,,,,,,,,wg-a,,,,AAXX 11064 07690 02570 33310 10190 20140 30140 40171 53006 60006 83500 90600 333 10244 20188 60004=
07690,1997-09-11 09:00:00,25,1018.1,1.1,69,19,18000,14.816,,,100,,,,,,,,,,,wg-a,,,,AAXX 11094 07690 12568 51008 10250 20190 30151 40181 51011 60006 85800 90900=
07690,1997-09-11 12:00:00,26,1017.6,-0.5,65,19,20000,14.816,,,140,,,,,,,,,,,wg-a,,,,AAXX 11124 07690 12570 21408 10260 20190 30146 40176 58005 60006 82800 91200=
07690,1997-09-11 15:00:00,26,1016.9,-0.7,65,19,15000,7.408,,,140,,,,,,,,,,,wg-a,,,,AAXX 11154 07690 12565 /1404 10260 20190 30139 40169 58007 60006 81830 91500=
07690,1997-09-11 18:00:00,24,1016.6,-0.3,74,19,15000,3.704,,,130,18.9,26.3,,,,,,,,,wg-a,,,,AAXX 11184 07690 12665 21302 10240 20190 30136 40166 56003 60006 82400 91800 333 10263 20189=
07690,1997-09-12 00:00:00,20,1017.1,-0.2,83,17,15000,14.816,,,340,,,,,,,,,,,wg-a,,,,AAXX 12004 07690 12/65 03408 10200 20170 30140 40171 55002 60006 80000 90000=
07690,1997-09-12 03:00:00,19,1016.6,-0.5,78,15,15000,18.52,,,340,,,,,,,,,,,wg-a,,,,AAXX 12034 07690 12565 /3410 10190 20150 30135 40166 58005 60006 81500 90300=
07690,1997-09-12 06:00:00,19,1016.7,0.1,78,15,18000,18.52,,,340,18.8,23.8,,,,,,,,,wg-a,,,,AAXX 12064 07690 02468 /3410 10190 20150 30136 40167 53001 60006 81800 90600 333 10238 20188 60004=
07690,1997-09-12 09:00:00,25,1016.3,-0.3,57,16,20000,7.408,,,330,,,,,,,,,,,wg-a,,,,AAXX 12094 07690 12570 /3304 10250 20160 30133 40163 56003 60006 81201 90900=
07690,1997-09-12 12:00:00,26,1015.7,-0.6,70,20,20000,14.816,,,180,,,,,,,,,,,wg-a,,,,AAXX 12124 07690 12570 21808 10260 20200 30127 40157 58006 60006 81232 91200=
07690,1997-09-12 18:00:00,23,1014.2,-0.5,83,20,15000,7.408,,,210,19.1,26.2,,,,,,,,,wg-a,,,,AAXX 12184 07690 12465 /2104 10230 20200 30112 40142 56005 60006 81530 91800 333 10262 20191=
07690,1997-09-12 21:00:00,21,1014,-0.2,94,20,15000,7.408,,,330,,,,,,,,,,,wg-a,,,,AAXX 12214 07690 12465 23304 10210 20200 30110 40140 58002 60006 81502 92100=
07690,1997-09-13 00:00:00,20,1013.7,-0.3,94,19,12000,11.112,,,310,,,,,,,,,,,wg-a,,,,AAXX 13004 07690 12462 23106 10200 20190 30107 40137 58003 60006 81802 90000=
07690,1997-09-13 03:00:00,19,1012.3,-1.4,94,18,15000,11.112,,,320,,,,,,,,,,,wg-a,,,,AAXX 13034 07690 12765 23206 10190 20180 30093 40123 58014 60006 82502 90300=
07690,1997-09-13 06:00:00,19,1012,-0.3,88,17,12000,14.816,,,330,18.7,23.4,,,,,,,,,wg-a,,,,AAXX 13064 07690 02762 33308 10190 20170 30090 40120 56003 60006 83532 90600 333 10234 20187 60004=
07690,1997-09-13 09:00:00,25,1012.3,0.3,61,17,10000,7.408,,,230,,,,0,,,,,,,wg-a,,,,AAXX 13094 07690 12560 32304 10250 20170 30093 40123 50003 60007 81180 90900=
07690,1997-09-13 12:00:00,26,1011.6,-0.7,79,22,8000,18.52,,,190,,,,,,,,,,,wg-a,,,,AAXX 13124 07690 12558 /1910 10260 20220 30086 40116 56007 60006 81283 91200=
07690,1997-09-13 15:00:00,27,1009.9,-1.7,70,21,7000,11.112,,,170,,,,,,,,,,1,wg-a,,,,AAXX 13154 07690 02557 21706 10270 20210 30069 40099 56017 61000 70161 81231 91500 333 ////=
07690,1997-09-13 18:00:00,24,1009.5,-0.4,83,21,12000,3.704,,,320,19.4,26.7,,,,,,,,2,wg-a,,,,AAXX 13184 07690 12/62 33202 10240 20210 30065 40095 55004 60006 70261 83031 91800 333 10267 20194=
07690,1997-09-14 00:00:00,20,1009.5,-0.8,94,19,12000,14.816,,,300,,,,,,,,,,,wg-a,,,,AAXX 14004 07690 12/62 33008 10200 20190 30065 40095 58008 60006 83030 90000=
07690,1997-09-14 03:00:00,21,1009.3,-0.2,69,15,12000,14.816,,,330,,,,,,,,,,,wg-a,,,,AAXX 14034 07690 12462 63308 10210 20150 30063 40093 58002 60006 83532 90300=
07690,1997-09-14 06:00:00,20,1010.3,1,64,13,15000,18.52,,,330,19.7,24.1,,,,,,,,,wg-a,,,,AAXX 14064 07690 02465 73310 10200 20130 30073 40103 53010 60006 84532 90600 333 10241 20197 60004=
07690,1997-09-14 12:00:00,26,1013.6,1,65,19,15000,11.112,,,200,,,,,,,,,,,wg-a,,,,AAXX 14124 07690 12565 32006 10260 20190 30106 40136 53010 60006 81201 91200=
07690,1997-09-14 15:00:00,26,1014.2,0.6,65,19,15000,11.112,,,210,,,,,,,,,,,wg-a,,,,AAXX 14154 07690 12665 32106 10260 20190 30112 40142 53006 60006 81201 91500=
07690,1997-09-14 18:00:00,23,1015.5,1.3,73,18,15000,7.408,,,220,20,26.4,,,,,,,,,wg-a,,,,AAXX 14184 07690 12565 52204 10230 20180 30125 40155 51013 60006 84201 91800 333 10264 20200=
07690,1997-09-14 21:00:00,22,1017.7,2.2,83,19,15000,3.704,,,190,,,,,,,,,,,wg-a,,,,AAXX 14214 07690 12565 51902 10220 20190 30147 40177 51022 60006 82231 92100=
07690,1997-09-15 03:00:00,20,1018.8,0.2,88,18,15000,7.408,,,330,,,,,,,,,,,wg-a,,,,AAXX 15034 07690 12465 /3304 10200 20180 30157 40188 51002 60006 85800 90300=
07690,1997-09-15 06:00:00,22,1020.3,1.6,65,15,500,11.112,,,40,20.1,23.1,,,,,,,,,wg-a,,,,AAXX 15064 07690 02400 /0406 10220 20150 30173 40203 53016 60006 86800 90600 333 10231 20201 60004=
07690,1997-09-15 09:00:00,23,1021.5,1.2,65,16,500,3.704,,,360,,,,,,,,,,3,wg-a,,,,AAXX 15094 07690 02500 53602 10230 20160 30185 40215 51012 61000 70362 82231 90900 333 ////=
07690,1997-09-15 12:00:00,26,1021.2,-0.3,48,14,500,31.484,,53.708,100,,,,,,,,,,1,wg-a,,,,AAXX 15124 07690 02600 31017 10260 20140 30182 40212 58003 61000 70161 81231 91200 333 //// 91029=
07690,1997-09-15 18:00:00,24,1021.1,0.4,44,11,35000,25.928,,,110,21.2,26.5,,,,,,,,,wg-a,,,,AAXX 15184 07690 12681 /1114 10240 20110 30181 40211 51004 60006 85501 91800 333 10265 20212=
07690,1997-09-15 21:00:00,22,1022.4,1.3,50,11,20000,7.408,,,360,,,,,,,,,,,wg-a,,,,AAXX 15214 07690 12670 33604 10220 20110 30194 40224 51013 60006 83500 92100=
07690,1997-09-16 00:00:00,18,1022.7,0.2,73,13,20000,18.52,,,330,,,,,,,,,,,wg-a,,,,AAXX 16004 07690 12/70 03310 10180 20130 30196 40227 50002 60006 80000 90000=
07690,1997-09-16 03:00:00,17,1022.4,-0.3,72,12,25000,18.52,,,330,,,,,,,,,,,wg-a,,,,AAXX 16034 07690 12/75 03310 10170 20120 30193 40224 58003 60006 80000 90300=
07690,1997-09-16 06:00:00,17,1022.9,0.5,68,11,25000,22.224,,,330,16.4,24.3,,,,,,,,,wg-a,,,,AAXX 16064 07690 02/75 03312 10170 20110 30198 40229 53005 60006 80000 90600 333 10243 20164 61000=
07690,1997-09-16 09:00:00,23,1023.2,0.4,50,12,500,7.408,,,270,,,,,,,,,,,wg-a,,,,AAXX 16094 07690 12/00 12704 10230 20120 30202 40232 51004 60006 80002 90900=
07690,1997-09-16 15:00:00,25,1021.8,-1,47,13,500,11.112,,,140,,,,,,,,,,,wg-a,,,,AAXX 16154 07690 12500 /1406 10250 20130 30188 40218 56010 60006 81102 91500=
07690,1997-09-16 18:00:00,21,1021.8,-0.1,69,15,500,7.408,,,260,16.7,25.4,,,,,,,,,wg-a,,,,AAXX 16184 07690 12/00 12604 10210 20150 30187 40218 58001 60006 81031 91800 333 10254 20167=
07690,1997-09-16 21:00:00,19,1022.6,0.8,68,13,20000,14.816,,,340,,,,,,,,,,,wg-a,,,,AAXX 16214 07690 12/70 03408 10190 20130 30195 40226 52008 60006 80000 92100=
07690,1997-09-17 00:00:00,18,1022.7,0.1,68,12,20000,14.816,,,340,,,,,,,,,,,wg-a,,,,AAXX 17004 07690 12/70 03408 10180 20120 30196 40227 52001 60006 80000 90000=
07690,1997-09-17 06:00:00,17,1022.7,0.2,68,11,500,25.928,,,330,16.5,20.7,,,,,,,,,wg-a,,,,AAXX 17064 07690 02/00 03314 10170 20110 30196 40227 53002 60006 80000 90600 333 10207 20165 60004=
07690,1997-09-17 12:00:00,25,1023.4,-0.2,50,14,500,14.816,,,130,,,,,,,,,,,wg-a,,,,AAXX 17124 07690 12/00 01308 10250 20140 30204 40234 56002 60006 80000 91200=
07690,1997-09-17 15:00:00,24,1022.4,-1,47,12,500,11.112,,,120,,,,,,,,,,,wg-a,,,,AAXX 17154 07690 12/00 01206 10240 20120 30194 40224 56010 60006 80000 91500=
07690,1997-09-17 18:00:00,21,1023.1,0.6,64,14,500,0,,,0,16.7,24.8,,,,,,,,,wg-a,,,,AAXX 17184 07690 12/00 00000 10210 20140 30200 40231 51006 60006 80000 91800 333 10248 20167=
07690,1997-09-18 00:00:00,18,1023.5,0,73,13,20000,14.816,,,340,,,,,,,,,,,wg-a,,,,AAXX 18004 07690 12/70 03408 10180 20130 30204 40235 50000 60006 80000 90000=
07690,1997-09-18 06:00:00,18,1022.8,0.1,68,12,500,18.52,,,340,17.3,21.3,,,,,,,,,wg-a,,,,AAXX 18064 07690 02/00 03410 10180 20120 30197 40228 53001 60006 80000 90600 333 10213 20173 60004=
07690,1997-09-18 09:00:00,23,1023.3,0.6,50,12,500,14.816,,,330,,,,,,,,,,,wg-a,,,,AAXX 18094 07690 12/00 03308 10230 20120 30203 40233 53006 60006 80000 90900=
07690,1997-09-18 12:00:00,25,1022.6,-0.7,54,15,500,22.224,,,200,,,,,,,,,,,wg-a,,,,AAXX 18124 07690 12/00 02012 10250 20150 30196 40226 58007 60006 80000 91200=
07690,1997-09-18 15:00:00,24,1021.3,-1.3,57,15,10000,18.52,,,200,,,,,,,,,,,wg-a,,,,AAXX 18154 07690 12/60 02010 10240 20150 30183 40213 56013 60006 80000 91500=
07690,1997-09-18 18:00:00,22,1021.2,-0.1,65,15,15000,7.408,,,200,17.7,25.3,,,,,,,,,wg-a,,,,AAXX 18184 07690 12/65 02004 10220 20150 30182 40212 55001 60006 80000 91800 333 10253 20177=
07690,1997-09-19 00:00:00,18,1021.5,-0.4,68,12,15000,14.816,,,330,,,,,,,,,,,wg-a,,,,AAXX 19004 07690 12/65 03308 10180 20120 30184 40215 57004 60006 80000 90000=
07690,1997-09-19 03:00:00,17,1020.9,-0.6,68,11,15000,18.52,,,330,,,,,,,,,,,wg-a,,,,AAXX 19034 07690 12/65 03310 10170 20110 30178 40209 56006 60006 80000 90300=
07690,1997-09-19 06:00:00,17,1021.1,0.2,68,11,20000,22.224,,,330,16.7,21.6,,,,,,,,,wg-a,,,,AAXX 19064 07690 02/70 03312 10170 20110 30180 40211 53002 60006 80000 90600 333 10216 20167 60004=
07690,1997-09-19 09:00:00,22,1021.2,0.2,60,14,20000,11.112,,,230,,,,,,,,,,,wg-a,,,,AAXX 19094 07690 12/70 02306 10220 20140 30182 40212 52002 60006 80000 90900=
07690,1997-09-19 12:00:00,24,1020.2,-1,57,15,20000,18.52,,,190,,,,,,,,,,,wg-a,,,,AAXX 19124 07690 12/70 01910 10240 20150 30172 40202 58010 60006 80000 91200=
07690,1997-09-19 15:00:00,24,1019,-1.2,69,18,12000,14.816,,,190,,,,,,,,,,,wg-a,,,,AAXX 19154 07690 12462 /1908 10240 20180 30160 40190 58012 60006 81100 91500=
07690,1997-09-19 18:00:00,22,1018.7,-0.3,73,17,10000,11.112,,,200,16.8,24.7,,,,,,,,,wg-a,,,,AAXX 19184 07690 12460 /2006 10220 20170 30157 40187 56003 60006 81100 91800 333 10247 20168=
07690,1997-09-20 00:00:00,18,1019.4,-0.3,88,16,12000,11.112,,,340,,,,,,,,,,,wg-a,,,,AAXX 20004 07690 12/62 03406 10180 20160 30163 40194 58003 60006 80000 90000=
07690,1997-09-20 03:00:00,17,1018.9,-0.5,88,15,12000,11.112,,,340,,,,,,,,,,,wg-a,,,,AAXX 20034 07690 12462 /3406 10170 20150 30158 40189 58005 60006 81500 90300=
07690,1997-09-20 06:00:00,17,1019.1,0.2,82,14,12000,11.112,,,330,16.8,22,,,,,,,,,wg-a,,,,AAXX 20064 07690 02462 /3306 10170 20140 30160 40191 53002 60006 81500 90600 333 10220 20168 60004=
07690,1997-09-20 09:00:00,23,1019.8,0.8,69,17,15000,7.408,,,100,,,,,,,,,,,wg-a,,,,AAXX 20094 07690 12465 /1004 10230 20170 30168 40198 53008 60006 81100 90900=
07690,1997-09-20 12:00:00,24,1020.1,0.3,69,18,10000,11.112,,,150,,,,,,,,,,,wg-a,,,,AAXX 20124 07690 12560 31506 10240 20180 30171 40201 50003 60006 81101 91200=
07690,1997-09-20 15:00:00,24,1019,-1.1,65,17,9000,7.408,,,140,,,,,,,,,,,wg-a,,,,AAXX 20154 07690 12559 /1404 10240 20170 30160 40190 56011 60006 81101 91500=
07690,1997-09-20 18:00:00,21,1019.1,0.1,83,18,15000,0,,,0,17.2,24.5,,,,,,,,,wg-a,,,,AAXX 20184 07690 12765 20000 10210 20180 30161 40191 53001 60006 81501 91800 333 10245 20172=
07690,1997-09-20 21:00:00,19,1020.2,1,88,17,12000,11.112,,,320,,,,,,,,,,,wg-a,,,,AAXX 20214 07690 12/62 13206 10190 20170 30171 40202 51010 60006 80001 92100=
07690,1997-09-21 00:00:00,18,1020.5,0.3,88,16,12000,14.816,,,320,,,,,,,,,,,wg-a,,,,AAXX 21004 07690 12/62 03208 10180 20160 30174 40205 50003 60006 80000 90000=
07690,1997-09-21 06:00:00,17,1020,0.1,82,14,10000,18.52,,,330,16.4,20.9,,,,,,,,,wg-a,,,,AAXX 21064 07690 02560 23310 10170 20140 30169 40200 53001 60006 81501 90600 333 10209 20164 60004=
07690,1997-09-21 09:00:00,23,1020.4,0.5,69,17,9000,3.704,,,120,,,,,,,,,,,wg-a,,,,AAXX 21094 07690 12/59 41202 10230 20170 30174 40204 51005 60006 80001 90900=
07690,1997-09-21 12:00:00,25,1019.9,-0.5,61,17,9000,14.816,,,200,,,,,,,,,,,wg-a,,,,AAXX 21124 07690 12659 /2008 10250 20170 30169 40199 58005 60006 81102 91200=
07690,1997-09-21 15:00:00,25,1019.2,-0.7,54,15,7000,7.408,,,110,,,,,,,,,,,wg-a,,,,AAXX 21154 07690 12657 31104 10250 20150 30162 40192 56007 60006 81102 91500=
07690,1997-09-21 18:00:00,23,1019.6,0.4,69,17,9000,3.704,,,100,17.4,25.7,,,,,,,,,wg-a,,,,AAXX 21184 07690 12859 /1002 10230 20170 30166 40196 53004 60006 81502 91800 333 10257 20174=
07690,1997-09-21 21:00:00,20,1020.7,1,78,16,12000,11.112,,,320,,,,,,,,,,,wg-a,,,,AAXX 21214 07690 12/62 03206 10200 20160 30176 40207 51010 60006 80000 92100=
07690,1997-09-22 00:00:00,19,1020.5,-0.2,78,15,12000,14.816,,,330,,,,,,,,,,,wg-a,,,,AAXX 22004 07690 12/62 03308 10190 20150 30174 40205 56002 60006 80000 90000=
07690,1997-09-22 03:00:00,18,1019.7,-0.8,77,14,12000,18.52,,,330,,,,,,,,,,,wg-a,,,,AAXX 22034 07690 12/62 63310 10180 20140 30166 40197 58008 60006 81072 90300=
07690,1997-09-22 06:00:00,18,1019.7,-0,68,12,9000,22.224,,,340,17.9,22.9,,,,,,,,,wg-a,,,,AAXX 22064 07690 02/59 33412 10180 20120 30166 40197 54000 60006 81072 90600 333 10229 20179 60004=
07690,1997-09-22 09:00:00,23,1020.4,0.8,50,12,10000,7.408,,,90,,,,0,,,,,,,wg-a,,,,AAXX 22094 07690 12/60 50904 10230 20120 30174 40204 51008 60007 83032 90900=
07690,1997-09-22 12:00:00,24,1019.8,-0.6,61,16,8000,7.408,,,110,,,,,,,,,,,wg-a,,,,AAXX 22124 07690 12/58 71104 10240 20160 30168 40198 55006 60006 83017 91200=
07690,1997-09-22 15:00:00,25,1018.8,-1,57,16,9000,7.408,,,150,,,,,,,,,,,wg-a,,,,AAXX 22154 07690 12/59 /1504 10250 20160 30158 40188 58010 60006 91500=
07690,1997-09-22 18:00:00,22,1019.2,0.4,73,17,9000,3.704,,,340,18.4,24.8,,,,,,,,,wg-a,,,,AAXX 22184 07690 12859 73402 10220 20170 30162 40192 51004 60006 81532 91800 333 10248 20184=
07690,1997-09-22 21:00:00,21,1019.5,0.2,64,14,15000,11.112,,,330,,,,,,,,,,,wg-a,,,,AAXX 22214 07690 12/65 23306 10210 20140 30164 40195 50002 60006 81021 92100=
07690,1997-09-23 00:00:00,20,1019,-0.5,60,12,15000,14.816,,,350,,,,,,,,,,,wg-a,,,,AAXX 23004 07690 12/65 33508 10200 20120 30159 40190 58005 60006 81021 90000=
07690,1997-09-23 03:00:00,19,1018.3,-0.7,60,11,15000,14.816,,,340,,,,,,,,,,,wg-a,,,,AAXX 23034 07690 12/65 33408 10190 20110 30152 40183 56007 60006 80001 90300=
07690,1997-09-23 06:00:00,19,1018.2,-0.1,60,11,15000,25.928,,,330,18.3,22.5,,,,,,,,,wg-a,,,,AAXX 23064 07690 02/65 43314 10190 20110 30151 40182 55001 60006 82032 90600 333 10225 20183 60004=
07690,1997-09-23 09:00:00,21,1018.3,0.2,53,11,20000,14.816,,,330,,,,,,,,,,,wg-a,,,,AAXX 23094 07690 12/70 53308 10210 20110 30153 40183 53002 60006 82032 90900=
07690,1997-09-23 12:00:00,25,1017.8,-0.5,61,17,18000,18.52,,,190,,,,,,,,,,,wg-a,,,,AAXX 23124 07690 12668 41910 10250 20170 30148 40178 56005 60006 81232 91200=
07690,1997-09-23 15:00:00,24,1017,-0.8,65,17,8000,11.112,,,220,,,,,,,,,,,wg-a,,,,AAXX 23154 07690 12658 22206 10240 20170 30140 40170 56008 60006 81282 91500=
07690,1997-09-23 18:00:00,21,1017.6,0.6,78,17,8000,11.112,,,250,18.4,25.1,,,,,,,,,wg-a,,,,AAXX 23184 07690 12658 22506 10210 20170 30146 40176 53006 60006 81232 91800 333 10251 20184=
07690,1997-09-24 00:00:00,18,1017.7,-0.5,73,13,10000,14.816,,,340,,,,,,,,,,,wg-a,,,,AAXX 24004 07690 12/60 13408 10180 20130 30146 40177 58005 60006 80001 90000=
07690,1997-09-24 06:00:00,17,1017.6,0.3,68,11,12000,22.224,,,340,16.4,21.1,,,,,,,,,wg-a,,,,AAXX 24064 07690 02/62 13412 10170 20110 30145 40176 53003 60006 80001 90600 333 10211 20164 60004=
07690,1997-09-24 12:00:00,24,1017.6,-0.5,61,16,15000,11.112,,,180,,,,,,,,,,,wg-a,,,,AAXX 24124 07690 12/65 21806 10240 20160 30146 40176 58005 60006 80002 91200=
07690,1997-09-24 15:00:00,24,1017.3,-0.3,61,16,10000,11.112,,,200,,,,,,,,,,,wg-a,,,,AAXX 24154 07690 12660 32006 10240 20160 30143 40173 55003 60006 81102 91500=
07690,1997-09-24 18:00:00,21,1017.7,0.4,83,18,10000,7.408,,,250,16.6,25.9,,,,,,,,,wg-a,,,,AAXX 24184 07690 12760 32504 10210 20180 30147 40177 53004 60006 81502 91800 333 10259 20166=
07690,1997-09-24 21:00:00,19,1018.9,1.1,73,14,15000,14.816,,,340,,,,,,,,,,,wg-a,,,,AAXX 24214 07690 12/65 03408 10190 20140 30158 40189 51011 60006 80000 92100=
07690,1997-09-25 00:00:00,19,1019.4,0.5,60,11,15000,14.816,,,340,,,,,,,,,,,wg-a,,,,AAXX 25004 07690 12/65 03408 10190 20110 30163 40194 53005 60006 80000 90000=
07690,1997-09-25 03:00:00,18,1019.9,0.5,64,11,15000,22.224,,,330,,,,,,,,,,,wg-a,,,,AAXX 25034 07690 12/65 03312 10180 20110 30168 40199 50005 60006 80000 90300=
07690,1997-09-25 06:00:00,17,1020.5,0.6,63,10,20000,25.928,,,330,16.9,20.5,,,,,,,,,wg-a,,,,AAXX 25064 07690 02/70 13314 10170 20100 30174 40205 52006 60006 80001 90600 333 10205 20169 60004=
07690,1997-09-25 09:00:00,23,1021.4,1,44,10,10000,11.112,,,330,,,,,,,,,,,wg-a,,,,AAXX 25094 07690 12/60 /3306 10230 20100 30184 40214 51010 60006 90900=
07690,1997-09-25 12:00:00,25,1021.2,-0.2,50,14,17000,11.112,,,170,,,,,,,,,,,wg-a,,,,AAXX 25124 07690 12/67 11706 10250 20140 30182 40212 58002 60006 80002 91200=
07690,1997-09-25 15:00:00,25,1020.2,-1,47,13,15000,11.112,,,140,,,,,,,,,,,wg-a,,,,AAXX 25154 07690 12/65 01406 10250 20130 30172 40202 56010 60006 80000 91500=
07690,1997-09-26 00:00:00,18,1021.3,-0.5,68,12,10000,22.224,,,330,,,,,,,,,,,wg-a,,,,AAXX 26004 07690 12/60 /3312 10180 20120 30182 40213 58005 60006 90000=
07690,1997-09-26 06:00:00,17,1021.5,0.6,63,10,10000,22.224,,,330,16.7,20.7,,,,,,,,,wg-a,,,,AAXX 26064 07690 02/60 /3312 10170 20100 30184 40215 53006 60006 90600 333 10207 20167 60004=
07690,1997-09-26 09:00:00,22,1021.9,0.4,53,12,20000,7.408,,,310,,,,,,,,,,,wg-a,,,,AAXX 26094 07690 12/70 03104 10220 20120 30188 40219 51004 60006 80000 90900=
07690,1997-09-26 12:00:00,24,1020.5,-1.3,57,15,8000,14.816,,,180,,,,,,,,,,,wg-a,,,,AAXX 26124 07690 12/58 01808 10240 20150 30175 40205 58013 60006 80000 91200=
07690,1997-09-26 15:00:00,24,1019.1,-1.4,57,15,8000,11.112,,,130,,,,,,,,,,,wg-a,,,,AAXX 26154 07690 12/58 01306 10240 20150 30161 40191 56014 60006 80000 91500=
07690,1997-09-26 18:00:00,22,1018.9,-0.2,69,16,10000,7.408,,,180,16.8,24.7,,,,,,,,,wg-a,,,,AAXX 26184 07690 12/60 11804 10220 20160 30159 40189 56002 60006 80001 91800 333 10247 20168=
07690,1997-09-26 21:00:00,18,1018.6,-0.4,83,15,10000,14.816,,,320,,,,,,,,,,,wg-a,,,,AAXX 26214 07690 12/60 13208 10180 20150 30155 40186 58004 60006 80001 92100=
07690,1997-09-27 00:00:00,18,1017.8,-0.8,77,14,10000,18.52,,,340,,,,,,,,,,,wg-a,,,,AAXX 27004 07690 12/60 03410 10180 20140 30147 40178 57008 60006 80000 90000=
07690,1997-09-27 03:00:00,17,1016.6,-1.2,82,14,10000,22.224,,,330,,,,,,,,,,,wg-a,,,,AAXX 27034 07690 12/60 03312 10170 20140 30135 40166 58012 60006 80000 90300=
07690,1997-09-27 06:00:00,17,1016.3,-0.3,77,13,9000,22.224,,,340,16.9,22.1,,,,,,,,,wg-a,,,,AAXX 27064 07690 02659 /3412 10170 20130 30132 40163 55003 60006 82530 90600 333 10221 20169 60004=
07690,1997-09-27 09:00:00,21,1016.3,0.1,64,14,9000,7.408,,,310,,,,,,,,,,,wg-a,,,,AAXX 27094 07690 12459 /3104 10210 20140 30133 40163 51001 60006 81130 90900=
07690,1997-09-27 12:00:00,23,1015,-1.3,65,16,6000,11.112,,,180,,,,,,,,,,,wg-a,,,,AAXX 27124 07690 12556 21806 10230 20160 30120 40150 58013 60006 81130 91200=
07690,1997-09-27 15:00:00,23,1013.4,-1.6,78,19,500,22.224,,,200,,,,,,,,,,,wg-a,,,,AAXX 27154 07690 12400 /2012 10230 20190 30104 40134 56016 60006 81100 91500=
07690,1997-09-27 18:00:00,21,1013.3,-0.1,88,19,9000,14.816,,,210,16.9,23.9,,,,,,,,,wg-a,,,,AAXX 27184 07690 12459 62108 10210 20190 30103 40133 55001 60006 86400 91800 333 10239 20169=
07690,1997-09-27 21:00:00,22,1013.4,0.1,88,20,10000,11.112,,,180,,,,,,,,,,,wg-a,,,,AAXX 27214 07690 12460 71806 10220 20200 30104 40134 50001 60006 875// 92100=
07690,1997-09-28 00:00:00,22,1013.7,0.3,83,19,10000,7.408,,,180,,,,,,,,,,,wg-a,,,,AAXX 28004 07690 12460 71804 10220 20190 30107 40137 52003 60006 875// 90000=
07690,1997-09-28 03:00:00,20,1013.6,-0.1,88,18,10000,3.704,,,160,,,,,,,,,,,wg-a,,,,AAXX 28034 07690 12460 /1602 10200 20180 30106 40136 58001 60006 83500 90300=
07690,1997-09-28 06:00:00,19,1014.1,0.4,94,18,7000,3.704,,,340,18.4,22.1,,,,,,,,,wg-a,,,,AAXX 28064 07690 02/57 /3402 10190 20180 30110 40141 53004 60006 90600 333 10221 20184 60004=
07690,1997-09-28 12:00:00,24,1014.6,-0.2,65,17,8000,14.816,,,170,,,,,,,,,,,wg-a,,,,AAXX 28124 07690 12458 /1708 10240 20170 30116 40146 58002 60006 81100 91200=
07690,1997-09-28 15:00:00,23,1014.6,-0,78,19,500,22.224,,,200,,,,,,,,,,,wg-a,,,,AAXX 28154 07690 12400 /2012 10230 20190 30116 40146 55000 60006 81200 91500=
07690,1997-09-28 21:00:00,20,1016.8,1.3,88,18,12000,7.408,,,340,,,,,,,,,,,wg-a,,,,AAXX 28214 07690 12462 33404 10200 20180 30138 40168 51013 60006 83500 92100=
07690,1997-09-29 00:00:00,20,1017.4,0.5,78,16,12000,11.112,,,320,,,,,,,,,,,wg-a,,,,AAXX 29004 07690 12462 23206 10200 20160 30143 40174 51005 60006 82500 90000=
07690,1997-09-29 03:00:00,19,1017.6,0.2,83,16,12000,14.816,,,330,,,,,,,,,,,wg-a,,,,AAXX 29034 07690 12662 /3308 10190 20160 30145 40176 53002 60006 85500 90300=
07690,1997-09-29 06:00:00,19,1018.8,1.2,78,15,8000,14.816,,,330,18.6,22,,,,,,,,,wg-a,,,,AAXX 29064 07690 02458 /3308 10190 20150 30157 40188 53012 60006 86531 90600 333 10220 20186 60004=
07690,1997-09-29 09:00:00,23,1020.1,1.4,73,18,9000,7.408,,,100,,,,,,,,,,,wg-a,,,,AAXX 29094 07690 12459 31004 10230 20180 30171 40201 51014 60006 83500 90900=
07690,1997-09-29 12:00:00,24,1020.1,-0,69,18,11000,11.112,,,140,,,,,,,,,,,wg-a,,,,AAXX 29124 07690 12661 /1406 10240 20180 30171 40201 55000 60006 81200 91200=
07690,1997-09-29 15:00:00,24,1019.8,-0.3,74,19,10000,7.408,,,130,,,,,,,,,,,wg-a,,,,AAXX 29154 07690 12/60 /1304 10240 20190 30168 40198 58003 60006 80000 91500=
07690,1997-09-29 18:00:00,22,1020.4,0.6,78,18,9000,0,,,0,18.7,24.6,,,,,,,,,wg-a,,,,AAXX 29184 07690 12/59 /0000 10220 20180 30174 40204 53006 60006 80002 91800 333 10246 20187=
07690,1997-09-29 21:00:00,19,1021.7,1.2,88,17,10000,11.112,,,330,,,,,,,,,,,wg-a,,,,AAXX 29214 07690 12/60 /3306 10190 20170 30186 40217 52012 60006 80000 92100=
07690,1997-09-30 00:00:00,18,1022.1,0.4,83,15,10000,11.112,,,330,,,,,,,,,,,wg-a,,,,AAXX 30004 07690 12/60 03306 10180 20150 30190 40221 53004 60006 80000 90000=
07690,1997-09-30 03:00:00,18,1021.9,-0.2,83,15,10000,18.52,,,330,,,,,,,,,,,wg-a,,,,AAXX 30034 07690 12/60 03310 10180 20150 30188 40219 58002 60006 80000 90300=
07690,1997-09-30 06:00:00,18,1022,0.1,77,14,6000,18.52,,,340,17.8,21.5,,,,,,,,,wg-a,,,,AAXX 30064 07690 02/56 23410 10180 20140 30189 40220 53001 60006 80001 90600 333 10215 20178 60004=
07690,1997-09-30 09:00:00,23,1022.3,0.4,61,15,8000,7.408,,,330,,,,,,,,,,,wg-a,,,,AAXX 30094 07690 12/58 /3304 10230 20150 30193 40223 50004 60006 80001 90900=
07690,1997-09-30 12:00:00,25,1021.4,-0.9,69,19,7000,14.816,,,170,,,,,,,,,,,wg-a,,,,AAXX 30124 07690 12/57 /1708 10250 20190 30184 40214 58009 60006 80001 91200=
07690,1997-09-30 15:00:00,24,1020.6,-0.8,74,19,7000,14.816,,,190,,,,,,,,,,,wg-a,,,,AAXX 30154 07690 12/57 21908 10240 20190 30176 40206 58008 60006 81022 91500=
07690,1997-09-30 18:00:00,22,1020.2,-0.4,88,20,8000,3.704,,,170,18.4,25.2,,,,,,,,,wg-a,,,,AAXX 30184 07690 12558 51702 10220 20200 30172 40202 55004 60006 82501 91800 333 10252 20184=
07690,1997-10-01 00:00:00,18,1019.6,-0.5,88,16,12000,14.816,,,330,,,,,,,,,,,wg-a,,,,AAXX 01004 07690 12/62 23308 10180 20160 30165 40196 57005 60006 80001 90000=
07690,1997-10-01 03:00:00,18,1018.4,-1.2,83,15,12000,18.52,,,340,,,,,,,,,,,wg-a,,,,AAXX 01034 07690 12/62 23410 10180 20150 30153 40184 58012 60006 80001 90300=
07690,1997-10-01 06:00:00,18,1017.6,-0.8,83,15,7000,14.816,,,330,17.5,22,,,,,,,,,wg-a,,,,AAXX 01064 07690 02557 33308 10180 20150 30145 40176 55008 60006 81501 90600 333 10220 20175 60004=
07690,1997-10-01 12:00:00,24,1015.7,-1.9,74,19,7000,18.52,,,190,,,,,,,,,,,wg-a,,,,AAXX 01124 07690 12557 /1910 10240 20190 30127 40157 58019 60006 81101 91200=
07690,1997-10-01 15:00:00,23,1014.5,-1.2,78,19,8000,7.408,,,130,,,,,,,,,,,wg-a,,,,AAXX 01154 07690 12558 41304 10230 20190 30115 40145 56012 60006 82801 91500=
07690,1997-10-01 18:00:00,22,1014.8,0.3,78,18,9000,11.112,,,90,17.9,23.9,,,,,,,,,wg-a,,,,AAXX 01184 07690 12459 50906 10220 20180 30118 40148 53003 60006 82801 91800 333 10239 20179=
07690,1997-10-01 21:00:00,19,1014.9,0,94,18,9000,11.112,,,330,,,,,,,,,,,wg-a,,,,AAXX 01214 07690 12459 /3306 10190 20180 30118 40149 50000 60006 81500 92100=
07690,1997-10-02 00:00:00,18,1014.1,-0.8,94,17,8000,11.112,,,330,,,,,,,,,,,wg-a,,,,AAXX 02004 07690 12458 13306 10180 20170 30110 40141 58008 60006 81500 90000=
07690,1997-10-02 03:00:00,17,1013,-1.1,94,16,8000,11.112,,,340,,,,,,,,,,,wg-a,,,,AAXX 02034 07690 12458 53406 10170 20160 30099 40130 57011 60006 85500 90300=
07690,1997-10-02 06:00:00,18,1012.3,-0.7,88,16,6000,11.112,,,340,17.1,22.2,,,,,,,,,wg-a,,,,AAXX 02064 07690 02456 /3406 10180 20160 30092 40123 56007 60006 86500 90600 333 10222 20171 60004=
07690,1997-10-02 12:00:00,24,1011,-1,69,18,8000,14.816,,,110,,,,,,,,,,,wg-a,,,,AAXX 02124 07690 12558 31108 10240 20180 30080 40110 58010 60006 83800 91200=
07690,1997-10-02 15:00:00,24,1009.9,-1.1,74,19,8000,11.112,,,110,,,,,,,,,,,wg-a,,,,AAXX 02154 07690 12558 /1106 10240 20190 30069 40099 56011 60006 81500 91500=
07690,1997-10-02 18:00:00,22,1009.2,-0.7,88,20,10000,7.408,,,70,17.8,24.9,,,,,,,,,wg-a,,,,AAXX 02184 07690 12/60 00704 10220 20200 30062 40092 57007 60006 80000 91800 333 10249 20178=
07690,1997-10-02 21:00:00,19,1009.3,0.1,94,18,10000,7.408,,,330,,,,,,,,,,,wg-a,,,,AAXX 02214 07690 12460 43304 10190 20180 30063 40093 53001 60006 84500 92100=
07690,1997-10-03 00:00:00,18,1009.4,0,88,16,12000,14.816,,,330,,,,,,,,,,,wg-a,,,,AAXX 03004 07690 12462 23308 10180 20160 30063 40094 50000 60006 82500 90000=
07690,1997-10-03 03:00:00,18,1009,-0.3,88,16,12000,18.52,,,330,,,,,,,,,,,wg-a,,,,AAXX 03034 07690 12562 /3310 10180 20160 30060 40090 58003 60006 86500 90300=
07690,1997-10-03 06:00:00,19,1009.8,0.8,78,15,9000,14.816,,,340,17.9,22.4,,,,,,,,,wg-a,,,,AAXX 03064 07690 02459 23408 10190 20150 30068 40098 52008 60006 82801 90600 333 10224 20179 60004=
07690,1997-10-03 09:00:00,24,1010.8,1,61,16,12000,7.408,,,120,,,,,,,,,,,wg-a,,,,AAXX 03094 07690 12/62 21204 10240 20160 30078 40108 51010 60006 80001 90900=
07690,1997-10-03 12:00:00,26,1011.1,0.3,65,19,9000,11.112,,,150,,,,,,,,,,,wg-a,,,,AAXX 03124 07690 12559 21506 10260 20190 30081 40111 51003 60006 81101 91200=
07690,1997-10-03 15:00:00,25,1011.3,0.2,69,19,9000,7.408,,,160,,,,,,,,,,,wg-a,,,,AAXX 03154 07690 12559 /1604 10250 20190 30083 40113 53002 60006 81100 91500=
07690,1997-10-03 18:00:00,21,1012.6,1.3,94,20,12000,3.704,,,230,18.9,25.9,,,,,,,,,wg-a,,,,AAXX 03184 07690 12/62 02302 10210 20200 30096 40126 53013 60006 80000 91800 333 10259 20189=
07690,1997-10-03 21:00:00,19,1014.7,2,73,14,12000,7.408,,,330,,,,,,,,,,,wg-a,,,,AAXX 03214 07690 12/62 03304 10190 20140 30116 40147 53020 60006 80000 92100=
07690,1997-10-04 00:00:00,17,1015.3,0.6,68,11,12000,14.816,,,330,,,,,,,,,,,wg-a,,,,AAXX 04004 07690 12/62 03308 10170 20110 30122 40153 51006 60006 80000 90000=
07690,1997-10-04 03:00:00,18,1015.8,0.5,56,9,12000,18.52,,,330,,,,,,,,,,,wg-a,,,,AAXX 04034 07690 12/62 03310 10180 20090 30127 40158 51005 60006 80000 90300=
07690,1997-10-04 06:00:00,18,1017.1,1.3,59,10,25000,18.52,,,330,16.9,21.4,,,,,,,,,wg-a,,,,AAXX 04064 07690 02775 13310 10180 20100 30140 40171 53013 60006 815/1 90600 333 10214 20169 60004=
07690,1997-10-04 09:00:00,23,1018.5,1.5,47,11,25000,14.816,,,330,,,,,,,,,,,wg-a,,,,AAXX 04094 07690 12/75 03308 10230 20110 30155 40185 51015 60006 80000 90900=
07690,1997-10-04 12:00:00,25,1019,0.5,61,17,12000,14.816,,,180,,,,,,,,,,,wg-a,,,,AAXX 04124 07690 12662 /1808 10250 20170 30160 40190 51005 60006 81100 91200=
07690,1997-10-04 18:00:00,21,1019.5,0.8,83,18,10000,7.408,,,270,17.8,25.7,,,,,,,,,wg-a,,,,AAXX 04184 07690 12/60 02704 10210 20180 30164 40195 51008 60006 80000 91800 333 10257 20178=
07690,1997-10-04 21:00:00,19,1019.4,-0.1,78,15,10000,14.816,,,340,,,,,,,,,,,wg-a,,,,AAXX 04214 07690 12/60 03408 10190 20150 30163 40194 57001 60006 80000 92100=
07690,1997-10-05 00:00:00,19,1019.3,-0.1,73,14,15000,18.52,,,340,,,,,,,,,,,wg-a,,,,AAXX 05004 07690 12/65 03410 10190 20140 30162 40193 58001 60006 80000 90000=
07690,1997-10-05 06:00:00,17,1018.8,-0,72,12,12000,18.52,,,340,17.3,20.6,,,,,,,,,wg-a,,,,AAXX 05064 07690 02/62 03410 10170 20120 30157 40188 55000 60006 80000 90600 333 10206 20173 60004=
07690,1997-10-05 12:00:00,25,1018.4,-1.1,65,18,9000,11.112,,,140,,,,,,,,,,,wg-a,,,,AAXX 05124 07690 12559 /1406 10250 20180 30154 40184 58011 60006 81100 91200=
07690,1997-10-05 15:00:00,24,1016.7,-1.7,74,19,7000,7.408,,,140,,,,,,,,,,,wg-a,,,,AAXX 05154 07690 12457 /1404 10240 20190 30137 40167 56017 60006 81500 91500=
07690,1997-10-05 18:00:00,22,1016.4,-0.3,83,19,12000,3.704,,,80,17.3,24.8,,,,,,,,,wg-a,,,,AAXX 05184 07690 12462 /0802 10220 20190 30134 40164 56003 60006 81500 91800 333 10248 20173=
07690,1997-10-05 21:00:00,19,1016.9,0.4,88,17,8000,14.816,,,330,,,,,,,,,,,wg-a,,,,AAXX 05214 07690 12458 23308 10190 20170 30138 40169 51004 60006 82500 92100=
07690,1997-10-06 00:00:00,18,1016.5,-0.4,83,15,15000,18.52,,,340,,,,,,,,,,,wg-a,,,,AAXX 06004 07690 12/65 03410 10180 20150 30134 40165 58004 60006 80000 90000=
07690,1997-10-06 03:00:00,17,1015.6,-0.9,77,13,15000,22.224,,,330,,,,,,,,,,,wg-a,,,,AAXX 06034 07690 12565 23312 10170 20130 30125 40156 58009 60006 82500 90300=
07690,1997-10-06 06:00:00,17,1014.8,-0.8,72,12,15000,14.816,,,350,17.1,21.7,,,,,,,,,wg-a,,,,AAXX 06064 07690 02865 /3508 10170 20120 30117 40148 56008 60006 81072 90600 333 10217 20171 60004=
07690,1997-10-06 09:00:00,23,1014.6,-0.1,78,19,12000,35.188,,,70,,,,,,,,,,,wg-a,,,,AAXX 06094 07690 12462 /0719 10230 20190 30116 40146 57001 60006 83802 90900=
07690,1997-10-06 12:00:00,24,1013.1,-1.5,74,19,12000,29.632,,53.708,80,,,,,,,,,,,wg-a,,,,AAXX 06124 07690 12562 40816 10240 20190 30101 40131 58015 60006 82272 91200 333 91029=
07690,1997-10-06 18:00:00,20,1011.3,-1,94,19,7000,7.408,,,340,17.1,24.7,,0,,,,,,1,wg-a,,,,AAXX 06184 07690 02557 /3404 10200 20190 30083 40113 58010 60006 70161 82530 91800 333 10247 20171 60007=
07690,1997-10-07 00:00:00,19,1011.5,-0.5,83,16,12000,14.816,,,330,,,,,,,,,,,wg-a,,,,AAXX 07004 07690 12562 33308 10190 20160 30085 40115 56005 60006 81580 90000=
07690,1997-10-07 03:00:00,19,1010.4,-1.1,78,15,12000,14.816,,,340,,,,,,,,,,,wg-a,,,,AAXX 07034 07690 12562 43408 10190 20150 30074 40104 56011 60006 81580 90300=
07690,1997-10-07 06:00:00,18,1010.4,0,83,15,20000,18.52,,,340,18.3,20.3,,,,,,,,,wg-a,,,,AAXX 07064 07690 02470 63410 10180 20150 30074 40104 50000 60006 84880 90600 333 10203 20183 60004=
07690,1997-10-07 09:00:00,22,1011.5,1.1,73,17,20000,7.408,,,60,,,,,,,,,,,wg-a,,,,AAXX 07094 07690 12570 70604 10220 20170 30085 40115 51011 60006 8388/ 90900=
07690,1997-10-07 12:00:00,23,1011.8,0.3,69,17,500,14.816,,,330,,,,,,,,,,,wg-a,,,,AAXX 07124 07690 12500 73308 10230 20170 30088 40118 50003 60006 8388/ 91200=
07690,1997-10-07 15:00:00,24,1011,-0.8,74,19,40000,11.112,,,100,,,,,,,,,,,wg-a,,,,AAXX 07154 07690 12582 71006 10240 20190 30080 40110 56008 60006 81282 91500=
07690,1997-10-07 18:00:00,22,1012.8,1.8,88,20,20000,14.816,,,90,18.4,23.9,,,,,,,,,wg-a,,,,AAXX 07184 07690 12570 /0908 10220 20200 30098 40128 53018 60006 81230 91800 333 10239 20184=
07690,1997-10-07 21:00:00,19,1013.6,0.7,88,17,20000,18.52,,,330,,,,,,,,,,,wg-a,,,,AAXX 07214 07690 12470 23310 10190 20170 30105 40136 52007 60006 82500 92100=
07690,1997-10-08 00:00:00,19,1013.2,-0.3,83,16,20000,14.816,,,330,,,,,,,,,,,wg-a,,,,AAXX 08004 07690 12/70 03308 10190 20160 30102 40132 55003 60006 80000 90000=
07690,1997-10-08 03:00:00,18,1013.9,0.6,83,15,20000,22.224,,,330,,,,,,,,,,,wg-a,,,,AAXX 08034 07690 12670 13312 10180 20150 30108 40139 51006 60006 81500 90300=
07690,1997-10-08 06:00:00,18,1014.9,1,83,15,20000,18.52,,,340,17.6,22.1,,,,,,,,,wg-a,,,,AAXX 08064 07690 02570 23410 10180 20150 30118 40149 53010 60006 81501 90600 333 10221 20176 60004=
07690,1997-10-08 12:00:00,25,1016.2,-0.1,69,19,11000,11.112,,,180,,,,,,,,,,,wg-a,,,,AAXX 08124 07690 12/61 /1806 10250 20190 30132 40162 58001 60006 91200=
07690,1997-10-08 18:00:00,22,1017,1.2,83,19,12000,7.408,,,180,17.6,25,,,,,,,,,wg-a,,,,AAXX 08184 07690 12462 71804 10220 20190 30140 40170 51012 60006 875// 91800 333 10250 20176=
07690,1997-10-08 21:00:00,21,1017.7,0.7,88,19,13000,3.704,,,20,,,,,,,,,,,wg-a,,,,AAXX 08214 07690 12463 50202 10210 20190 30147 40177 51007 60006 84530 92100=
07690,1997-10-09 00:00:00,19,1017.8,-0,88,17,13000,11.112,,,330,,,,,,,,,,,wg-a,,,,AAXX 09004 07690 12463 33306 10190 20170 30147 40178 54000 60006 82530 90000=
07690,1997-10-09 03:00:00,18,1017.4,-0.4,94,17,13000,18.52,,,330,,,,,,,,,,,wg-a,,,,AAXX 09034 07690 12/63 /3310 10180 20170 30143 40174 58004 60006 80000 90300=
07690,1997-10-09 06:00:00,18,1018.2,0.8,83,15,13000,18.52,,,330,18,22.1,,,,,,,,,wg-a,,,,AAXX 09064 07690 02463 /3310 10180 20150 30151 40182 53008 60006 86530 90600 333 10221 20180 60004=
07690,1997-10-09 12:00:00,24,1018,-0.9,74,19,9000,14.816,,,180,,,,,,,,,,,wg-a,,,,AAXX 09124 07690 12559 21808 10240 20190 30150 40180 58009 60006 82800 91200=
07690,1997-10-09 15:00:00,24,1017.6,-0.4,78,20,8000,11.112,,,190,,,,,,,,,,,wg-a,,,,AAXX 09154 07690 12458 51906 10240 20200 30146 40176 57004 60006 84801 91500=
07690,1997-10-09 18:00:00,22,1017.6,-0,94,21,10000,3.704,,,130,18.3,24.6,,,,,,,,,wg-a,,,,AAXX 09184 07690 12460 71302 10220 20210 30146 40176 55000 60006 875// 91800 333 10246 20183=
07690,1997-10-09 21:00:00,22,1017.7,0.1,88,20,10000,7.408,,,40,,,,,,,,,,,wg-a,,,,AAXX 09214 07690 12460 /0404 10220 20200 30147 40177 51001 60006 86500 92100=
07690,1997-10-10 00:00:00,20,1016.8,-0.9,94,19,10000,7.408,,,330,,,,,,,,,,,wg-a,,,,AAXX 10004 07690 12560 53304 10200 20190 30138 40168 56009 60006 85500 90000=
07690,1997-10-10 03:00:00,19,1015.6,-1.3,88,17,10000,14.816,,,330,,,,,,,,,,,wg-a,,,,AAXX 10034 07690 12460 73308 10190 20170 30125 40156 57013 60006 875// 90300=
07690,1997-10-10 06:00:00,19,1014.8,-0.8,83,16,9000,11.112,,,340,18.4,22.6,,,,,,,,,wg-a,,,,AAXX 10064 07690 02459 73406 10190 20160 30117 40148 56008 60006 878// 90600 333 10226 20184 60004=
07690,1997-10-10 09:00:00,21,1013.8,-0.9,78,17,7000,11.112,,,320,,,,,,,,,,,wg-a,,,,AAXX 10094 07690 12657 73206 10210 20170 30108 40138 58009 60006 87532 90900=
07690,1997-10-10 12:00:00,24,1010.9,-2.9,78,20,6000,18.52,,,200,,,,,,,,,,,wg-a,,,,AAXX 10124 07690 12/56 /2010 10240 20200 30079 40109 58029 60006 82042 91200=
07690,1997-10-10 15:00:00,27,1007.5,-3.4,54,17,40000,38.892,,,240,,,,,,,,,,,wg-a,,,,AAXX 10154 07690 12682 72421 10270 20170 30045 40075 56034 60006 84542 91500=
07690,1997-10-10 18:00:00,25,1005.7,-1.8,57,16,20000,22.224,,,260,19.4,28.5,,,,,,,,,wg-a,,,,AAXX 10184 07690 12670 /2612 10250 20160 30027 40057 56018 60006 81532 91800 333 10285 20194=
07690,1997-10-10 21:00:00,24,1004.8,-0.9,61,16,20000,14.816,,,290,,,,,,,,,,,wg-a,,,,AAXX 10214 07690 12/70 32908 10240 20160 30018 40048 58009 60006 80002 92100=
07690,1997-10-11 00:00:00,22,1004,-0.8,65,15,20000,7.408,,,20,,,,,,,,,,,wg-a,,,,AAXX 11004 07690 12/70 30204 10220 20150 30010 40040 55008 60006 80002 90000=
07690,1997-10-11 03:00:00,19,1004.5,0.5,88,17,20000,11.112,,,80,,,,,,,,,,,wg-a,,,,AAXX 11034 07690 12/70 00806 10190 20170 30015 40045 53005 60006 80000 90300=
07690,1997-10-11 06:00:00,17,1005.2,0.7,77,13,500,22.224,,,330,16.9,25,,,,,,,,,wg-a,,,,AAXX 11064 07690 02/00 13312 10170 20130 30022 40052 51007 60006 80002 90600 333 10250 20169 60004=
07690,1997-10-11 09:00:00,22,1006,0.8,65,15,40000,3.704,,,300,,,,,,,,,,,wg-a,,,,AAXX 11094 07690 12/82 33002 10220 20150 30030 40060 50008 60006 80002 90900=
07690,1997-10-11 12:00:00,26,1003.7,-2.3,58,17,500,11.112,,,140,,,,,,,,,,,wg-a,,,,AAXX 11124 07690 12500 /1406 10260 20170 30007 40037 58023 60006 81102 91200=
07690,1997-10-11 15:00:00,24,1002.3,-1.4,74,19,8000,14.816,,,110,,,,,,,,,,,wg-a,,,,AAXX 11154 07690 12658 31108 10240 20190 39993 40023 56014 60006 81502 91500=
07690,1997-10-11 18:00:00,22,1003.2,0.9,83,19,20000,11.112,,,60,17.2,25.9,,,,,,,,,wg-a,,,,AAXX 11184 07690 12670 20606 10220 20190 30002 40032 53009 60006 81570 91800 333 10259 20172=
07690,1997-10-11 21:00:00,18,1002.6,-0.6,94,17,15000,11.112,,,330,,,,,,,,,,,wg-a,,,,AAXX 11214 07690 12/65 03306 10180 20170 39996 40026 58006 60006 80000 92100=
07690,1997-10-12 00:00:00,23,999.4,-3.2,65,16,15000,38.892,,,260,,,,,,,,,,,wg-a,,,,AAXX 12004 07690 12/65 12621 10230 20160 39964 49994 58032 60006 80002 90000=
07690,1997-10-12 03:00:00,23,998.2,-1.2,61,15,15000,25.928,,,260,,,,,,,,,,,wg-a,,,,AAXX 12034 07690 12/65 12614 10230 20150 39952 49982 56012 60006 81030 90300=
07690,1997-10-12 06:00:00,21,997.5,-0.7,69,15,50000,38.892,,64.82,230,17.6,23.6,,,,,,,,,wg-a,,,,AAXX 12064 07690 02784 22321 10210 20150 39945 49975 55007 60006 81141 90600 333 10236 20176 60004 91035=
07690,1997-10-12 09:00:00,25,998.1,0.6,30,6,50000,31.484,,62.968,280,,,,,,,,,,,wg-a,,,,AAXX 12094 07690 12584 /2817 10250 20060 39951 49981 53006 60006 81200 90900 333 91034=
07690,1997-10-12 12:00:00,24,997,-1.1,31,6,50000,42.596,,75.932,280,,,,,,,,,,,wg-a,,,,AAXX 12124 07690 12684 /2823 10240 20060 39940 49970 56011 60006 81100 91200 333 91041=
07690,1997-10-12 18:00:00,20,998.3,1.7,37,5,50000,18.52,,83.34,290,20.4,25,,,,,,,,,wg-a,,,,AAXX 12184 07690 12584 /2910 10200 20050 39953 49983 53017 60006 81100 91800 333 10250 20204 91045=
07690,1997-10-12 21:00:00,19,1000.2,1.9,40,5,20000,14.816,,,310,,,,,,,,,,,wg-a,,,,AAXX 12214 07690 12/70 03108 10190 20050 39972 40002 53019 60006 80000 92100=
07690,1997-10-13 00:00:00,21,1002.3,2.1,35,5,20000,14.816,,,40,,,,,,,,,,,wg-a,,,,AAXX 13004 07690 12/70 00408 10210 20050 39993 40023 53021 60006 80000 90000=
07690,1997-10-13 03:00:00,17,1002.8,0.4,39,3,10000,29.632,,,330,,,,,,,,,,,wg-a,,,,AAXX 13034 07690 12/60 /3316 10170 20030 39997 40028 52004 60006 90300=
07690,1997-10-13 06:00:00,15,1004.4,1.6,55,6,20000,11.112,,,310,14.9,20.8,,,,,,,,,wg-a,,,,AAXX 13064 07690 02/70 33106 10150 20060 30013 40044 53016 60006 83030 90600 333 10208 20149 60004=
07690,1997-10-13 09:00:00,19,1006.2,1.9,46,7,50000,11.112,,,220,,,,,,,,,,,wg-a,,,,AAXX 13094 07690 12/84 22206 10190 20070 30032 40062 51019 60006 82080 90900=
07690,1997-10-13 12:00:00,21,1005.8,-0.4,43,8,50000,31.484,,,210,,,,,,,,,,,wg-a,,,,AAXX 13124 07690 12684 42117 10210 20080 30028 40058 58004 60006 82280 91200=
07690,1997-10-13 15:00:00,21,1004.4,-1.4,40,7,500,25.928,,,200,,,,,,,,,,,wg-a,,,,AAXX 13154 07690 12600 32014 10210 20070 30014 40044 56014 60006 82280 91500=
07690,1997-10-13 18:00:00,17,1004.9,0.4,52,7,20000,7.408,,,250,14.6,22.7,,,,,,,,,wg-a,,,,AAXX 13184 07690 12670 /2504 10170 20070 30018 40049 53004 60006 81832 91800 333 10227 20146=
07690,1997-10-13 21:00:00,17,1005.4,0.5,48,6,20000,11.112,,,330,,,,,,,,,,,wg-a,,,,AAXX 13214 07690 12770 73306 10170 20060 30023 40054 51005 60006 875// 92100=
07690,1997-10-14 00:00:00,17,1005.8,0.4,45,5,20000,7.408,,,290,,,,,,,,,,1,wg-a,,,,AAXX 14004 07690 02770 62904 10170 20050 30027 40058 51004 61000 70196 865/0 90000 333 6100=
07690,1997-10-14 03:00:00,14,1005.9,0.1,47,3,25000,18.52,,,340,,,,,,,,,,,wg-a,,,,AAXX 14034 07690 12775 /3410 10140 20030 30028 40059 53001 60006 81503 90300=
07690,1997-10-14 06:00:00,14,1007,1.1,41,1,50000,14.816,,,340,13.6,18.2,,,,,,,,,wg-a,,,,AAXX 14064 07690 02584 33408 10140 20010 30039 40070 53011 60006 83800 90600 333 10182 20136 61000=
07690,1997-10-14 09:00:00,18,1009,2,32,1,50000,7.408,,,320,,,,0,,,,,,,wg-a,,,,AAXX 14094 07690 12684 /3204 10180 20010 30059 40090 51020 60007 81830 90900=
07690,1997-10-14 12:00:00,20,1010.1,1.2,37,5,50000,22.224,,,210,,,,0,,,,,,,wg-a,,,,AAXX 14124 07690 02584 /2112 10200 20050 30071 40101 51012 60016 81130 91200 333 60007=
07690,1997-10-14 15:00:00,19,1010.5,0.3,49,8,40000,31.484,,,210,,,,2,,,,,,,wg-a,,,,AAXX 14154 07690 12582 /2117 10190 20080 30074 40105 53003 60027 81131 91500=
07690,1997-10-14 18:00:00,18,1012.3,1.8,52,8,500,22.224,,,220,13.3,20.7,,,,,,,,,wg-a,,,,AAXX 14184 07690 12500 22212 10180 20080 30092 40123 51018 60006 81501 91800 333 10207 20133=
07690,1997-10-14 21:00:00,14,1014.2,1.9,63,7,20000,14.816,,,340,,,,,,,,,,,wg-a,,,,AAXX 14214 07690 12570 /3408 10140 20070 30111 40142 53019 60006 81100 92100=
07690,1997-10-15 00:00:00,13,1014.5,0.3,58,5,20000,22.224,,,330,,,,,,,,,,,wg-a,,,,AAXX 15004 07690 12570 /3312 10130 20050 30114 40145 51003 60006 81100 90000=
07690,1997-10-15 03:00:00,12,1013.8,-0.7,58,4,20000,25.928,,,330,,,,,,,,,,,wg-a,,,,AAXX 15034 07690 12570 /3314 10120 20040 30107 40138 58007 60006 81100 90300=
07690,1997-10-15 06:00:00,12,1013.5,-0.3,58,4,40000,25.928,,,330,11.5,17.7,,,,,2,,,,wg-a,,,,AAXX 15064 07690 02582 /3314 10120 20040 30104 40135 58003 60006 81242 90600 333 10177 20115 60024=
07690,1997-10-15 09:00:00,16,1014.1,0.6,45,4,50000,18.52,,,340,,,,,,,,,,,wg-a,,,,AAXX 15094 07690 12684 /3410 10160 20040 30110 40141 51006 60006 82202 90900=
07690,1997-10-15 12:00:00,20,1012.9,-1.2,43,7,50000,11.112,,,130,,,,,,,,,,,wg-a,,,,AAXX 15124 07690 12684 51306 10200 20070 30098 40129 58012 60006 82802 91200=
07690,1997-10-15 18:00:00,17,1011.3,-0.3,55,8,40000,3.704,,,50,11.4,20.1,,,,,,,,,wg-a,,,,AAXX 15184 07690 12782 /0502 10170 20080 30082 40113 55003 60006 81502 91800 333 10201 20114=
07690,1997-10-15 21:00:00,13,1011.9,0.6,67,7,25000,18.52,,,330,,,,,,,,,,,wg-a,,,,AAXX 15214 07690 12575 /3310 10130 20070 30088 40119 51006 60006 81102 92100=
07690,1997-10-16 00:00:00,12,1012,0.1,71,7,25000,18.52,,,340,,,,,,,,,,,wg-a,,,,AAXX 16004 07690 12575 /3410 10120 20070 30089 40120 51001 60006 81500 90000=
07690,1997-10-16 03:00:00,12,1011.4,-0.6,67,6,25000,18.52,,,340,,,,,,,,,,,wg-a,,,,AAXX 16034 07690 12575 23410 10120 20060 30083 40114 58006 60006 81132 90300=
07690,1997-10-16 06:00:00,12,1011.9,0.5,62,5,35000,25.928,,,330,11.6,16.4,,,,,,,,,wg-a,,,,AAXX 16064 07690 02581 /3314 10120 20050 30088 40119 51005 60006 81800 90600 333 10164 20116 60004=
07690,1997-10-16 09:00:00,16,1013,1.1,51,6,50000,18.52,,,330,,,,,,,,,,,wg-a,,,,AAXX 16094 07690 12584 /3310 10160 20060 30099 40130 51011 60006 81201 90900=
07690,1997-10-16 12:00:00,21,1012.8,-0.1,53,11,40000,11.112,,,120,,,,,,,,,,,wg-a,,,,AAXX 16124 07690 12582 /1206 10210 20110 30098 40128 58001 60006 81201 91200=
07690,1997-10-16 15:00:00,20,1012.8,0,56,11,40000,11.112,,,120,,,,,,,,,,,wg-a,,,,AAXX 16154 07690 12582 31206 10200 20110 30098 40128 50000 60006 81401 91500=
07690,1997-10-16 18:00:00,17,1014.3,1.4,72,12,20000,7.408,,,330,11.9,20.8,,,,,,,,,wg-a,,,,AAXX 16184 07690 12570 43304 10170 20120 30112 40143 53014 60006 82801 91800 333 10208 20119=
07690,1997-10-17 00:00:00,14,1016.5,0.6,77,10,20000,11.112,,,330,,,,,,,,,,,wg-a,,,,AAXX 17004 07690 12570 53306 10140 20100 30134 40165 51006 60006 85401 90000=
07690,1997-10-17 03:00:00,14,1016.6,0.1,77,10,20000,14.816,,,340,,,,,,,,,,,wg-a,,,,AAXX 17034 07690 12570 23408 10140 20100 30135 40166 51001 60006 81530 90300=
07690,1997-10-17 06:00:00,14,1017.7,1.1,72,9,20000,14.816,,,340,13.4,16.5,,,,,,,,,wg-a,,,,AAXX 17064 07690 02570 23408 10140 20090 30146 40177 53011 60006 81830 90600 333 10165 20134 60004=
07690,1997-10-17 09:00:00,18,1019.1,1.4,59,10,40000,11.112,,,70,,,,,,,,,,,wg-a,,,,AAXX 17094 07690 12682 20706 10180 20100 30160 40191 51014 60006 82800 90900=
07690,1997-10-17 12:00:00,22,1019.3,0.3,65,15,25000,22.224,,,100,,,,,,,,,,,wg-a,,,,AAXX 17124 07690 12575 31012 10220 20150 30163 40193 50003 60006 83200 91200=
07690,1997-10-17 15:00:00,21,1019.6,0.2,69,15,20000,22.224,,,90,,,,,,,,,,,wg-a,,,,AAXX 17154 07690 12570 30912 10210 20150 30165 40196 52002 60006 83200 91500=
07690,1997-10-17 18:00:00,20,1020.9,1.3,73,15,20000,22.224,,,90,13.8,21.8,,,,,,,,,wg-a,,,,AAXX 17184 07690 12470 40912 10200 20150 30178 40209 53013 60006 84100 91800 333 10218 20138=
07690,1997-10-17 21:00:00,16,1022.3,1.4,88,14,20000,11.112,,,330,,,,,,,,,,,wg-a,,,,AAXX 17214 07690 12570 33306 10160 20140 30192 40223 53014 60006 83200 92100=
07690,1997-10-18 00:00:00,15,1023.1,0.8,88,13,20000,18.52,,,330,,,,,,,,,,,wg-a,,,,AAXX 18004 07690 12570 23310 10150 20130 30200 40231 53008 60006 82500 90000=
07690,1997-10-18 03:00:00,14,1023.5,0.4,88,12,20000,14.816,,,340,,,,,,,,,,,wg-a,,,,AAXX 18034 07690 12670 /3408 10140 20120 30204 40235 51004 60006 81500 90300=
07690,1997-10-18 06:00:00,14,1024.2,0.7,82,11,50000,22.224,,,330,14.2,19.9,,,,,,,,,wg-a,,,,AAXX 18064 07690 02584 33312 10140 20110 30211 40242 53007 60006 81501 90600 333 10199 20142 60004=
07690,1997-10-18 09:00:00,18,1025.7,1.5,64,11,50000,18.52,,,330,,,,,,,,,,,wg-a,,,,AAXX 18094 07690 12584 63310 10180 20110 30226 40257 51015 60006 85802 90900=
07690,1997-10-18 12:00:00,22,1024.8,-0.9,65,15,35000,22.224,,,100,,,,,,,,,,,wg-a,,,,AAXX 18124 07690 12581 21012 10220 20150 30217 40248 58009 60006 81201 91200=
07690,1997-10-18 15:00:00,21,1024.2,-0.6,73,16,500,22.224,,,90,,,,,,,,,,,wg-a,,,,AAXX 18154 07690 12500 /0912 10210 20160 30211 40242 56006 60006 81201 91500=
07690,1997-10-18 18:00:00,20,1024.6,0.4,78,16,15000,14.816,,,80,14.3,22.6,,,,,,,,,wg-a,,,,AAXX 18184 07690 12465 /0808 10200 20160 30215 40246 53004 60006 81200 91800 333 10226 20143=
07690,1997-10-18 21:00:00,15,1024.6,0,88,13,15000,14.816,,,340,,,,,,,,,,,wg-a,,,,AAXX 18214 07690 12/65 03408 10150 20130 30215 40246 50000 60006 80000 92100=
07690,1997-10-19 00:00:00,16,1023.8,-0.8,77,12,15000,11.112,,,340,,,,,,,,,,,wg-a,,,,AAXX 19004 07690 12/65 03406 10160 20120 30207 40238 58008 60006 80000 90000=
07690,1997-10-19 03:00:00,15,1023.1,-0.7,77,11,15000,18.52,,,340,,,,,,,,,,,wg-a,,,,AAXX 19034 07690 12/65 03410 10150 20110 30200 40231 58007 60006 80000 90300=
07690,1997-10-19 06:00:00,14,1022.7,-0.4,77,10,35000,22.224,,,330,14,19.7,,,,,,,,,wg-a,,,,AAXX 19064 07690 02/81 13312 10140 20100 30196 40227 56004 60006 81031 90600 333 10197 20140 60004=
07690,1997-10-19 09:00:00,18,1022.7,0,59,10,35000,14.816,,,330,,,,,,,,,,,wg-a,,,,AAXX 19094 07690 12/81 03308 10180 20100 30196 40227 50000 60006 80000 90900=
07690,1997-10-19 12:00:00,22,1021.2,-1.4,65,15,25000,11.112,,,160,,,,,,,,,,,wg-a,,,,AAXX 19124 07690 12675 /1606 10220 20150 30182 40212 58014 60006 81100 91200=
07690,1997-10-19 15:00:00,21,1019.4,-1.8,64,14,11000,11.112,,,190,,,,,,,,,,,wg-a,,,,AAXX 19154 07690 12661 /1906 10210 20140 30164 40194 57018 60006 81501 91500=
07690,1997-10-19 18:00:00,19,1019.1,-0.4,83,16,12000,7.408,,,250,14,22.3,,,,,,,,,wg-a,,,,AAXX 19184 07690 12462 32504 10190 20160 30160 40191 56004 60006 82501 91800 333 10223 20140=
07690,1997-10-19 21:00:00,15,1018.7,-0.4,88,13,12000,11.112,,,320,,,,,,,,,,,wg-a,,,,AAXX 19214 07690 12462 /3206 10150 20130 30156 40187 55004 60006 81501 92100=
07690,1997-10-20 00:00:00,15,1017.7,-1,88,13,12000,18.52,,,330,,,,,,,,,,,wg-a,,,,AAXX 20004 07690 12462 /3310 10150 20130 30146 40177 57010 60006 81501 90000=
07690,1997-10-20 03:00:00,15,1016.4,-1.3,82,12,12000,18.52,,,330,,,,,,,,,,,wg-a,,,,AAXX 20034 07690 12462 /3310 10150 20120 30133 40164 56013 60006 81501 90300=
07690,1997-10-20 06:00:00,15,1015.1,-1.3,77,11,15000,18.52,,,330,14.6,18.5,,,,,,,,,wg-a,,,,AAXX 20064 07690 02465 /3310 10150 20110 30120 40151 56013 60006 81501 90600 333 10185 20146 60004=
07690,1997-10-20 12:00:00,19,1013.1,-1.8,78,15,7000,7.408,,,210,,,,,,,,,,,wg-a,,,,AAXX 20124 07690 12657 82104 10190 20150 30100 40131 58018 60006 8357/ 91200=
07690,1997-10-20 15:00:00,18,1011,-2.1,100,18,1000,18.52,,,20,,,,12,,,,,,10,wg-a,,,,AAXX 20154 07690 12210 80210 10180 20180 30079 40110 58021 60127 71062 888// 91500=
07690,1997-10-20 18:00:00,18,1010.6,-0.3,100,18,10000,3.704,,,200,14.7,19.1,,7,,,,,,1,wg-a,,,,AAXX 20184 07690 02260 72002 10180 20180 30076 40106 55003 60006 70162 878// 91800 333 10191 20147 60077=
07690,1997-10-20 21:00:00,18,1010.2,-0.5,94,17,9000,7.408,,,320,,,,,,,,,,,wg-a,,,,AAXX 20214 07690 12459 63204 10180 20170 30071 40102 56005 60006 86870 92100=
07690,1997-10-21 00:00:00,17,1008.7,-1.5,94,16,12000,11.112,,,330,,,,,,,,,,,wg-a,,,,AAXX 21004 07690 12462 63306 10170 20160 30056 40087 56015 60006 83570 90000=
07690,1997-10-21 03:00:00,17,1007.4,-1.3,88,15,12000,11.112,,,340,,,,,,,,,,,wg-a,,,,AAXX 21034 07690 12462 73406 10170 20150 30043 40074 58013 60006 8357/ 90300=
07690,1997-10-21 06:00:00,17,1006.8,-0.6,88,15,20000,7.408,,,340,16.7,18.8,,,,,19,,,,wg-a,,,,AAXX 21064 07690 02470 /3404 10170 20150 30037 40068 56006 60006 82930 90600 333 10188 20167 60194=
07690,1997-10-21 09:00:00,18,1008,1.3,83,15,8000,11.112,,,330,,,,,,,,,,,wg-a,,,,AAXX 21094 07690 12458 73306 10180 20150 30050 40080 51013 60006 8687/ 90900=
07690,1997-10-21 12:00:00,20,1007.8,-0.2,78,16,12000,29.632,,,80,,,,,,,,,,,wg-a,,,,AAXX 21124 07690 12462 70816 10200 20160 30048 40078 58002 60006 878// 91200=
07690,1997-10-21 15:00:00,21,1007.7,-0.1,69,15,12000,29.632,,,90,,,,,,,,,,,wg-a,,,,AAXX 21154 07690 12562 /0916 10210 20150 30047 40077 58001 60006 83830 91500=
07690,1997-10-21 18:00:00,20,1008.8,1.1,78,16,12000,3.704,,,340,16.7,20.7,,,,,,,,,wg-a,,,,AAXX 21184 07690 12662 /3402 10200 20160 30058 40088 53011 60006 83530 91800 333 10207 20167=
07690,1997-10-21 21:00:00,18,1009.7,0.8,88,16,12000,7.408,,,330,,,,,,,,,,,wg-a,,,,AAXX 21214 07690 12562 73304 10180 20160 30066 40097 51008 60006 8583/ 92100=
07690,1997-10-22 00:00:00,17,1010.4,0.7,94,16,12000,11.112,,,330,,,,,,,,,,,wg-a,,,,AAXX 22004 07690 12662 53306 10170 20160 30073 40104 51007 60006 83530 90000=
07690,1997-10-22 03:00:00,16,1010.2,-0.2,94,15,12000,7.408,,,280,,,,,,,,,,,wg-a,,,,AAXX 22034 07690 12462 62804 10160 20150 30071 40102 55002 60006 83530 90300=
07690,1997-10-22 06:00:00,16,1010.6,0.4,94,15,11000,11.112,,,330,15.8,19.5,,,,,,,,,wg-a,,,,AAXX 22064 07690 02/61 /3306 10160 20150 30075 40106 51004 60006 90600 333 10195 20158 60004=
07690,1997-10-22 09:00:00,18,1011.6,1,88,16,9000,3.704,,,330,,,,,,,,,,,wg-a,,,,AAXX 22094 07690 12659 /3302 10180 20160 30085 40116 51010 60006 81530 90900=
07690,1997-10-22 12:00:00,21,1010.8,-0.7,73,16,7000,14.816,,,160,,,,,,,,,,,wg-a,,,,AAXX 22124 07690 12657 71608 10210 20160 30078 40108 57007 60006 8357/ 91200=
07690,1997-10-22 18:00:00,18,1010.5,-0,73,13,10000,0,,,0,15.9,21,,,,,,,,,wg-a,,,,AAXX 22184 07690 12560 70000 10180 20130 30074 40105 55000 60006 8587/ 91800 333 10210 20159=
07690,1997-10-22 21:00:00,17,1010.7,0.2,82,14,12000,7.408,,,340,,,,,,,,,,60,wg-a,,,,AAXX 22214 07690 02562 83404 10170 20140 30076 40107 53002 61000 76062 8587/ 92100 333 ////=
07690,1997-10-23 00:00:00,16,1010.5,-0.2,94,15,10000,11.112,,,330,,,,0,,,,,,3,wg-a,,,,AAXX 23004 07690 02460 83306 10160 20150 30074 40105 58002 60006 70362 8687/ 90000 333 60007=
07690,1997-10-23 03:00:00,16,1009.9,-0.6,94,15,9000,11.112,,,340,,,,,,,,,,,wg-a,,,,AAXX 23034 07690 12459 83406 10160 20150 30068 40099 58006 60006 8687/ 90300=
07690,1997-10-23 06:00:00,16,1009.8,-0.1,100,16,2000,7.408,,,50,16,18.3,,,,,,,,61,wg-a,,,,AAXX 23064 07690 02420 80504 10160 20160 30067 40098 58001 61000 76162 878// 90600 333 10183 20160 6001=
07690,1997-10-23 09:00:00,16,1010.4,0.6,100,16,3000,11.112,,,340,,,,1,,,,,,10,wg-a,,,,AAXX 23094 07690 12430 83406 10160 20160 30073 40104 50006 60017 71065 8687/ 90900=
07690,1997-10-23 12:00:00,17,1009.6,-0.8,94,16,8000,18.52,,,120,,,,0,,,,,,60,wg-a,,,,AAXX 23124 07690 02458 81210 10170 20160 30065 40096 58008 60016 76065 8587/ 91200 333 60007=
07690,1997-10-23 18:00:00,16,1008.9,0.3,100,16,500,7.408,,,340,16,17.3,,,,,,,,60,wg-a,,,,AAXX 23184 07690 02400 83404 10160 20160 30058 40089 53003 61000 76062 8587/ 91800 333 10173 20160 6000=
07690,1997-10-24 00:00:00,16,1008,-0.5,94,15,8000,7.408,,,330,,,,,,,,,,2,wg-a,,,,AAXX 24004 07690 02458 73304 10160 20150 30049 40080 58005 61000 70262 8687/ 90000 333 ////=
07690,1997-10-24 03:00:00,15,1007.3,-0.7,100,15,10000,11.112,,,330,,,,,,,,,,,wg-a,,,,AAXX 24034 07690 12460 33306 10150 20150 30042 40073 56007 60006 83800 90300=
07690,1997-10-24 06:00:00,15,1007.4,0.1,100,15,9000,7.408,,,320,14.9,16.4,,,,,2,,,,wg-a,,,,AAXX 24064 07690 02459 /3204 10150 20150 30043 40074 52001 60006 85801 90600 333 10164 20149 60024=
07690,1997-10-24 09:00:00,19,1007.8,0.5,68,13,20000,11.112,,,320,,,,0,,,,,,,wg-a,,,,AAXX 24094 07690 12570 /3206 10190 20130 30048 40078 51005 60007 81100 90900=
07690,1997-10-24 12:00:00,21,1007.7,-0.1,73,16,20000,18.52,,,200,,,,,,,,,,,wg-a,,,,AAXX 24124 07690 12570 /2010 10210 20160 30047 40077 58001 60006 81100 91200=
07690,1997-10-24 15:00:00,20,1008.5,0.8,78,16,20000,14.816,,,200,,,,,,,,,,,wg-a,,,,AAXX 24154 07690 12570 /2008 10200 20160 30055 40085 53008 60006 81130 91500=
07690,1997-10-24 18:00:00,18,1010.5,1.9,88,16,11000,0,,,0,15.2,21.9,,,,,,,,,wg-a,,,,AAXX 24184 07690 12461 20000 10180 20160 30074 40105 51019 60006 81130 91800 333 10219 20152=
07690,1997-10-24 21:00:00,17,1012.8,2.3,94,16,9000,11.112,,,330,,,,,,,,,,,wg-a,,,,AAXX 24214 07690 12559 /3306 10170 20160 30097 40128 53023 60006 84500 92100=
07690,1997-10-25 00:00:00,17,1014.1,1.3,88,15,10000,11.112,,,340,,,,,,,,,,,wg-a,,,,AAXX 25004 07690 12460 23406 10170 20150 30110 40141 51013 60006 82500 90000=
07690,1997-10-25 03:00:00,16,1015.6,1.5,88,14,10000,11.112,,,330,,,,,,,,,,,wg-a,,,,AAXX 25034 07690 12460 /3306 10160 20140 30125 40156 51015 60006 86500 90300=
07690,1997-10-25 06:00:00,15,1017.2,1.6,82,12,13000,18.52,,,330,15,17.7,,,,,,,,,wg-a,,,,AAXX 25064 07690 02563 43310 10150 20120 30141 40172 53016 60006 84500 90600 333 10177 20150 60004=
07690,1997-10-25 09:00:00,17,1019.2,2,77,13,12000,3.704,,,320,,,,,,,,,,,wg-a,,,,AAXX 25094 07690 12562 53202 10170 20130 30161 40192 51020 60006 85800 90900=
07690,1997-10-25 12:00:00,20,1019.5,0.3,60,12,9000,22.224,,,110,,,,,,,,,,,wg-a,,,,AAXX 25124 07690 12659 /1112 10200 20120 30164 40195 50003 60006 86500 91200=
07690,1997-10-25 15:00:00,19,1019.4,-0.1,60,11,9000,14.816,,,130,,,,,,,,,,,wg-a,,,,AAXX 25154 07690 12659 41308 10190 20110 30163 40194 57001 60006 84500 91500=
07690,1997-10-25 18:00:00,17,1020.2,0.8,72,12,9000,0,,,0,15,20.4,,,,,,,,,wg-a,,,,AAXX 25184 07690 12659 /0000 10170 20120 30171 40202 52008 60006 86500 91800 333 10204 20150=
07690,1997-10-25 21:00:00,14,1020.7,0.5,88,12,9000,14.816,,,340,,,,,,,,,,,wg-a,,,,AAXX 25214 07690 12659 /3408 10140 20120 30176 40207 52005 60006 81500 92100=
07690,1997-10-26 00:00:00,13,1020.7,0,88,11,9000,14.816,,,340,,,,,,,,,,,wg-a,,,,AAXX 26004 07690 12559 43408 10130 20110 30176 40207 50000 60006 84500 90000=
07690,1997-10-26 03:00:00,13,1019.7,-1,82,10,12000,22.224,,,330,,,,,,,,,,,wg-a,,,,AAXX 26034 07690 12562 /3312 10130 20100 30166 40197 58010 60006 81500 90300=
07690,1997-10-26 06:00:00,12,1019.6,-0.2,82,9,10000,22.224,,,340,12.3,16.9,,,,,,,,,wg-a,,,,AAXX 26064 07690 02560 /3412 10120 20090 30164 40196 55002 60006 81500 90600 333 10169 20123 60004=
07690,1997-10-26 09:00:00,15,1019.8,0.3,67,9,10000,18.52,,,330,,,,,,,,,,,wg-a,,,,AAXX 26094 07690 12560 /3310 10150 20090 30167 40198 50003 60006 81500 90900=
07690,1997-10-26 12:00:00,19,1018.5,-1.3,64,12,8000,11.112,,,170,,,,,,,,,,,wg-a,,,,AAXX 26124 07690 12558 /1706 10190 20120 30154 40185 58013 60006 81101 91200=
07690,1997-10-26 15:00:00,19,1017.3,-1.2,83,16,7000,14.816,,,190,,,,,,,,,,,wg-a,,,,AAXX 26154 07690 12457 /1908 10190 20160 30142 40173 56012 60006 86200 91500=
07690,1997-10-26 18:00:00,17,1017.4,0.1,82,14,10000,11.112,,,320,12.3,20.1,,,,,,,,,wg-a,,,,AAXX 26184 07690 12460 /3206 10170 20140 30143 40174 53001 60006 81200 91800 333 10201 20123=
07690,1997-10-26 21:00:00,14,1017.5,0.1,94,13,8000,11.112,,,330,,,,,,,,,,,wg-a,,,,AAXX 26214 07690 12/58 03306 10140 20130 30144 40175 53001 60006 80000 92100=
07690,1997-10-27 00:00:00,13,1016.9,-0.6,94,12,10000,14.816,,,330,,,,,,,,,,,wg-a,,,,AAXX 27004 07690 12/60 03308 10130 20120 30138 40169 58006 60006 80000 90000=
07690,1997-10-27 03:00:00,14,1016,-0.9,82,11,10000,14.816,,,330,,,,,,,,,,,wg-a,,,,AAXX 27034 07690 12/60 63308 10140 20110 30129 40160 58009 60006 86030 90300=
07690,1997-10-27 06:00:00,13,1015.4,-0.6,82,10,12000,3.704,,,350,12.8,16.8,,,,,,,,,wg-a,,,,AAXX 27064 07690 02/62 13502 10130 20100 30123 40154 56006 60006 81030 90600 333 10168 20128 60004=
07690,1997-10-27 09:00:00,17,1015.5,0.1,72,12,11000,3.704,,,310,,,,,,,,,,,wg-a,,,,AAXX 27094 07690 12561 33102 10170 20120 30124 40155 50001 60006 81209 90900=
07690,1997-10-27 12:00:00,20,1014.5,,56,11,12000,11.112,,,150,,,,,,,,,,,wg-a,,,,AAXX 27124 07690 12662 /1506 10200 20110 30114 40145 60006 8/10/ 91200=
07690,1997-10-27 18:00:00,17,1014.6,0.6,77,13,15000,3.704,,,300,13.1,20.2,,,,,,,,80,wg-a,,,,AAXX 27184 07690 02565 73002 10170 20130 30115 40146 53006 61000 78086 878// 91800 333 10202 20131 6100=
07690,1997-10-27 21:00:00,16,1015.1,0.5,88,14,12000,11.112,,,330,,,,0,,,,,,1,wg-a,,,,AAXX 27214 07690 12462 73306 10160 20140 30120 40151 52005 60007 70186 878// 92100=
07690,1997-10-28 00:00:00,15,1014.7,-0.4,88,13,12000,11.112,,,330,,,,,,,,,,1,wg-a,,,,AAXX 28004 07690 12562 /3306 10150 20130 30116 40147 58004 60016 70186 86800 90000=
07690,1997-10-28 03:00:00,14,1014.4,-0.3,88,12,14000,7.408,,,330,,,,,,,,,,,wg-a,,,,AAXX 28034 07690 12764 /3304 10140 20120 30113 40144 58003 60006 86500 90300=
07690,1997-10-28 06:00:00,16,1014.6,0.2,68,10,20000,38.892,,,100,13.3,17.1,,,,,,,,,wg-a,,,,AAXX 28064 07690 02770 71021 10160 20100 30115 40146 53002 60006 875// 90600 333 10171 20133 60004=
07690,1997-10-28 12:00:00,16,1016.5,0.2,55,7,20000,42.596,,64.82,100,,,,,,,,,,,wg-a,,,,AAXX 28124 07690 12570 /1023 10160 20070 30134 40165 50002 60006 86800 91200 333 91035=
07690,1997-10-28 15:00:00,15,1017.7,1.2,31,-2,20000,31.484,,64.82,40,,,,,,,,,,,wg-a,,,,AAXX 28154 07690 12570 50417 10150 21020 30146 40177 51012 60006 83830 91500 333 91035=
07690,1997-10-28 18:00:00,13,1019.7,1.9,28,-5,20000,22.224,,,30,12.6,16.9,,,,,,,,,wg-a,,,,AAXX 28184 07690 12570 50312 10130 21050 30165 40197 53019 60006 82830 91800 333 10169 20126=
07690,1997-10-28 21:00:00,12,1021.6,1.9,20,-10,20000,29.632,,,40,,,,,,,,,,,wg-a,,,,AAXX 28214 07690 12770 /0416 10120 21100 30184 40216 51019 60006 83530 92100=
07690,1997-10-29 00:00:00,11,1022.3,0.7,20,-11,20000,18.52,,,20,,,,,,,,,,,wg-a,,,,AAXX 29004 07690 12870 20210 10110 21110 30191 40223 53007 60006 82030 90000=
07690,1997-10-29 03:00:00,10,1022.5,0.2,18,-13,20000,14.816,,,30,,,,,,,,,,,wg-a,,,,AAXX 29034 07690 12/70 30308 10100 21130 30193 40225 53002 60006 83030 90300=
07690,1997-10-29 06:00:00,6,1022.8,0.3,49,-4,35000,11.112,,,330,6,12.6,,,,,,,,,wg-a,,,,AAXX 29064 07690 02/81 53306 10060 21040 30196 40228 53003 60006 84032 90600 333 10126 20060 60004=
07690,1997-10-29 09:00:00,9,1023.9,1.1,37,-5,25000,14.816,,,330,,,,,,,,,,,wg-a,,,,AAXX 29094 07690 12/75 63308 10090 21050 30207 40239 51011 60006 82012 90900=
07690,1997-10-29 12:00:00,16,1021.9,-1.9,10,-16,25000,22.224,,,60,,,,,,,,,,,wg-a,,,,AAXX 29124 07690 12/75 60612 10160 21160 30188 40219 58019 60006 81072 91200=
07690,1997-10-29 15:00:00,15,1021.5,-0.4,9,-17,500,22.224,,,40,,,,,,,,,,,wg-a,,,,AAXX 29154 07690 12/00 60412 10150 21170 30184 40215 55004 60006 80002 91500=
07690,1997-10-29 18:00:00,12,1022.1,0.5,30,-5,15000,22.224,,,30,5.9,16.8,,,,,,,,,wg-a,,,,AAXX 29184 07690 12/65 40312 10120 21050 30189 40221 53005 60006 80002 91800 333 10168 20059=
07690,1997-10-29 21:00:00,7,1022,-0.1,36,-7,15000,14.816,,,330,,,,,,,,,,,wg-a,,,,AAXX 29214 07690 12/65 23308 10070 21070 30188 40220 58001 60006 80002 92100=
07690,1997-10-30 00:00:00,6,1021,-1,36,-8,15000,22.224,,,330,,,,,,,,,,,wg-a,,,,AAXX 30004 07690 12/65 03312 10060 21080 30178 40210 58010 60006 80000 90000=
07690,1997-10-30 03:00:00,6,1020.2,-0.8,42,-6,15000,14.816,,,330,,,,,,,,,,,wg-a,,,,AAXX 30034 07690 12/65 03308 10060 21060 30170 40202 58008 60006 80000 90300=
07690,1997-10-30 06:00:00,5,1020.2,-0,48,-5,40000,25.928,,,330,5.2,12.1,,,,,,,,,wg-a,,,,AAXX 30064 07690 02/82 13314 10050 21050 30170 40202 55000 60006 81032 90600 333 10121 20052 60004=
07690,1997-10-30 09:00:00,11,1020.1,-0.1,30,-6,40000,14.816,,,320,,,,,,,,,,,wg-a,,,,AAXX 30094 07690 12/82 13208 10110 21060 30169 40201 58001 60006 81032 90900=
07690,1997-10-30 12:00:00,18,1018.6,-1.4,30,0,40000,14.816,,,230,,,,,,,,,,,wg-a,,,,AAXX 30124 07690 12/82 22308 10180 20000 30155 40186 58014 60006 81032 91200=
07690,1997-10-30 18:00:00,15,1019.4,1.2,29,-3,20000,14.816,,,110,5.3,18.1,,,,,,,,,wg-a,,,,AAXX 30184 07690 12/70 61108 10150 21030 30163 40194 53012 60006 84032 91800 333 10181 20053=
07690,1997-10-30 21:00:00,15,1020.5,1.1,39,1,20000,22.224,,,110,,,,,,,,,,,wg-a,,,,AAXX 30214 07690 12/70 71112 10150 20010 30174 40205 53011 60006 8703/ 92100=
07690,1997-10-31 00:00:00,10,1021.1,0.5,46,-1,20000,18.52,,,320,,,,,,,,,,,wg-a,,,,AAXX 31004 07690 12/70 73210 10100 21010 30179 40211 53005 60006 8703/ 90000=
07690,1997-10-31 03:00:00,10,1020.8,-0.3,46,-1,20000,18.52,,,330,,,,,,,,,,60,wg-a,,,,AAXX 31034 07690 02/70 /3310 10100 21010 30176 40208 58003 61000 76062 86070 90300 333 ////=
07690,1997-10-31 06:00:00,11,1020.5,-0.3,40,-2,500,18.52,,,330,10,15.5,,,,,,,,1,wg-a,,,,AAXX 31064 07690 02/00 73310 10110 21020 30173 40205 56003 60006 70162 8707/ 90600 333 10155 20100 61000=
07690,1997-10-31 12:00:00,17,1019.8,-2.1,39,3,35000,18.52,,,190,,,,,,,,,,,wg-a,,,,AAXX 31124 07690 12/81 11910 10170 20030 30167 40198 58021 60006 81030 91200=
07690,1997-10-31 15:00:00,16,1019.9,0.1,42,3,35000,11.112,,,200,,,,,,,,,,,wg-a,,,,AAXX 31154 07690 12/81 12006 10160 20030 30168 40199 52001 60006 81030 91500=
07690,1997-10-31 18:00:00,12,1020.6,0.6,62,5,20000,11.112,,,320,10.6,17.4,,,,,,,,,wg-a,,,,AAXX 31184 07690 12/70 43206 10120 20050 30174 40206 53006 60006 84030 91800 333 10174 20106=
07690,1997-10-31 21:00:00,11,1021.2,0.6,62,4,20000,18.52,,,340,,,,,,,,,,,wg-a,,,,AAXX 31214 07690 12/70 13410 10110 20040 30180 40212 51006 60006 81030 92100=
07690,1997-11-01 00:00:00,10,1020.5,-0.7,62,3,20000,18.52,,,340,,,,,,,,,,,wg-a,,,,AAXX 01004 07690 12/70 13410 10100 20030 30173 40205 57007 60006 81030 90000=
07690,1997-11-01 03:00:00,9,1019.9,-0.6,61,2,20000,22.224,,,340,,,,,,,,,,,wg-a,,,,AAXX 01034 07690 12/70 03412 10090 20020 30167 40199 58006 60006 80000 90300=
07690,1997-11-01 06:00:00,9,1020,0.1,61,2,25000,25.928,,,330,8.9,12.1,,,,,,,,,wg-a,,,,AAXX 01064 07690 02/75 13314 10090 20020 30168 40200 52001 60006 80002 90600 333 10121 20089 60004=
07690,1997-11-01 09:00:00,12,1021.2,1.2,54,3,20000,18.52,,,330,,,,,,,,,,,wg-a,,,,AAXX 01094 07690 12/70 23310 10120 20030 30180 40212 51012 60006 81032 90900=
07690,1997-11-01 12:00:00,17,1020,-1.1,55,8,20000,11.112,,,200,,,,,,,,,,,wg-a,,,,AAXX 01124 07690 12/70 62006 10170 20080 30169 40200 58011 60006 84032 91200=
07690,1997-11-01 15:00:00,17,1019.3,-0.7,48,6,12000,14.816,,,200,,,,,,,,,,,wg-a,,,,AAXX 01154 07690 12/62 52008 10170 20060 30162 40193 56007 60006 84032 91500=
07690,1997-11-01 18:00:00,13,1019.7,0.4,72,8,20000,7.408,,,320,8.9,18.6,,,,,,,,,wg-a,,,,AAXX 01184 07690 12/70 23204 10130 20080 30166 40197 53004 60006 80002 91800 333 10186 20089=
07690,1997-11-01 21:00:00,11,1019.1,-0.7,71,6,15000,22.224,,,330,,,,,,,,,,,wg-a,,,,AAXX 01214 07690 12/65 03312 10110 20060 30159 40191 56007 60006 80000 92100=
07690,1997-11-02 00:00:00,11,1018.6,-0.5,66,5,15000,22.224,,,330,,,,,,,,,,,wg-a,,,,AAXX 02004 07690 12/65 03312 10110 20050 30154 40186 58005 60006 80000 90000=
07690,1997-11-02 03:00:00,10,1017.7,-0.9,71,5,15000,22.224,,,330,,,,,,,,,,,wg-a,,,,AAXX 02034 07690 12/65 03312 10100 20050 30145 40177 58009 60006 80000 90300=
07690,1997-11-02 06:00:00,10,1017.2,-0.5,66,4,20000,22.224,,,330,9.6,12.8,,,,,,,,,wg-a,,,,AAXX 02064 07690 02/70 13312 10100 20040 30140 40172 56005 60006 81032 90600 333 10128 20096 60004=
07690,1997-11-02 12:00:00,18,1016.2,-1.2,56,9,20000,11.112,,,180,,,,,,,,,,,wg-a,,,,AAXX 02124 07690 12670 /1806 10180 20090 30131 40162 58012 60006 81100 91200=
07690,1997-11-02 15:00:00,18,1015.2,-1,56,9,20000,7.408,,,80,,,,,,,,,,,wg-a,,,,AAXX 02154 07690 12670 20804 10180 20090 30121 40152 56010 60006 81102 91500=
07690,1997-11-02 18:00:00,14,1015.4,0.2,77,10,15000,7.408,,,340,9.5,18.6,,,,,,,,,wg-a,,,,AAXX 02184 07690 12565 53404 10140 20100 30123 40154 53002 60006 85532 91800 333 10186 20095=
07690,1997-11-02 21:00:00,13,1015.7,0.3,72,8,10000,11.112,,,340,,,,,,,,,,,wg-a,,,,AAXX 02214 07690 12560 33406 10130 20080 30126 40157 53003 60006 82502 92100=
07690,1997-11-03 00:00:00,12,1015.4,-0.3,76,8,12000,18.52,,,330,,,,,,,,,,,wg-a,,,,AAXX 03004 07690 12562 /3310 10120 20080 30123 40154 58003 60006 82502 90000=
07690,1997-11-03 03:00:00,11,1015,-0.5,71,6,12000,22.224,,,330,,,,,,,,,,,wg-a,,,,AAXX 03034 07690 12462 33312 10110 20060 30118 40150 57005 60006 81502 90300=
07690,1997-11-03 06:00:00,10,1014.8,-0.2,71,5,15000,25.928,,,330,10.4,13.7,,,,,,,,,wg-a,,,,AAXX 03064 07690 02465 23314 10100 20050 30116 40148 55002 60006 81532 90600 333 10137 20104 60004=
07690,1997-11-03 09:00:00,14,1015.1,0.4,58,6,15000,22.224,,,330,,,,,,,,,,,wg-a,,,,AAXX 03094 07690 12665 33312 10140 20060 30120 40151 50004 60006 82530 90900=
07690,1997-11-03 12:00:00,18,1013.9,-1.2,73,13,10000,14.816,,,100,,,,,,,,,,,wg-a,,,,AAXX 03124 07690 12660 /1008 10180 20130 30108 40139 58012 60006 81200 91200=
07690,1997-11-03 15:00:00,18,1013.1,-0.8,73,13,9000,7.408,,,170,,,,,,,,,,,wg-a,,,,AAXX 03154 07690 12659 21704 10180 20130 30100 40131 55008 60006 82200 91500=
07690,1997-11-03 18:00:00,15,1013.3,0.2,88,13,15000,3.704,,,180,10.3,18.7,,,,,,,,,wg-a,,,,AAXX 03184 07690 12565 41802 10150 20130 30102 40133 53002 60006 84200 91800 333 10187 20103=
07690,1997-11-03 21:00:00,13,1013.4,0.1,94,12,8000,14.816,,,330,,,,,,,,,,,wg-a,,,,AAXX 03214 07690 12658 /3308 10130 20120 30103 40134 50001 60006 81200 92100=
07690,1997-11-04 00:00:00,13,1013,-0.4,88,11,10000,11.112,,,330,,,,,,,,,,60,wg-a,,,,AAXX 04004 07690 02460 73306 10130 20110 30099 40130 58004 61000 76061 8257/ 90000 333 6100=
07690,1997-11-04 03:00:00,13,1012.8,-0.2,88,11,11000,14.816,,,330,,,,,,,,,,,wg-a,,,,AAXX 04034 07690 32/61 /3308 10130 20110 30097 40128 58002 90300=
07690,1997-11-04 06:00:00,13,1012.8,-0,82,10,12000,11.112,,,340,12.6,15.3,,,,,,,,3,wg-a,,,,AAXX 04064 07690 02462 73406 10130 20100 30097 40128 55000 60006 70362 8387/ 90600 333 10153 20126 61000=
07690,1997-11-04 12:00:00,20,1012.7,-1,53,10,15000,38.892,,,100,,,,,,,,,,,wg-a,,,,AAXX 04124 07690 12765 71021 10200 20100 30096 40127 58010 60006 81572 91200=
07690,1997-11-04 18:00:00,19,1013.4,0.8,56,10,15000,29.632,,,90,13.4,19.9,,,,,,,,,wg-a,,,,AAXX 04184 07690 12/65 /0916 10190 20100 30103 40134 53008 60006 81072 91800 333 10199 20134=
07690,1997-11-04 21:00:00,14,1014.6,1.2,67,8,15000,14.816,,,330,,,,,,,,,,,wg-a,,,,AAXX 04214 07690 12765 53308 10140 20080 30115 40146 51012 60006 82532 92100=
07690,1997-11-05 00:00:00,14,1014.2,-0.4,58,6,15000,14.816,,,330,,,,,,,,,,,wg-a,,,,AAXX 05004 07690 12/65 /3308 10140 20060 30111 40142 55004 60006 85030 90000=
07690,1997-11-05 03:00:00,18,1012.7,-1.5,64,11,15000,35.188,,,80,,,,,,,,,,,wg-a,,,,AAXX 05034 07690 12665 70819 10180 20110 30096 40127 58015 60006 8457/ 90300=
07690,1997-11-05 06:00:00,17,1012.8,0.1,72,12,10000,35.188,,,100,13.3,18.9,,,,,,,,60,wg-a,,,,AAXX 05064 07690 02260 81019 10170 20120 30097 40128 52001 61000 76062 8657/ 90600 333 10189 20133 6000=
07690,1997-11-05 09:00:00,12,1013.6,0.8,94,11,3500,14.816,,,330,,,,1,,,,,,10,wg-a,,,,AAXX 05094 07690 12335 83308 10120 20110 30105 40136 50008 60017 71066 878// 90900=
07690,1997-11-05 12:00:00,13,1011.6,-2,94,12,3000,18.52,,,330,,,,3,,,,,,10,wg-a,,,,AAXX 05124 07690 02230 83310 10130 20120 30085 40116 58020 60056 71062 888// 91200 333 60037=
07690,1997-11-05 15:00:00,13,1010,-1.6,94,12,2000,14.816,,,330,,,,3,,,,,,10,wg-a,,,,AAXX 05154 07690 12220 83308 10130 20120 30069 40100 56016 60037 71066 888// 91500=
07690,1997-11-05 18:00:00,13,1009.4,-0.6,100,13,3000,14.816,,,320,11.7,16.8,,,,,,,,10,wg-a,,,,AAXX 05184 07690 02230 83208 10130 20130 30063 40094 56006 61000 71066 888// 91800 333 10168 20117 6006=
07690,1997-11-05 21:00:00,13,1008.4,-1,100,13,10000,22.224,,,80,,,,4,,,,,,61,wg-a,,,,AAXX 05214 07690 12460 80812 10130 20130 30053 40084 58010 60047 76166 8682/ 92100=
07690,1997-11-06 00:00:00,15,1006.9,-1.5,94,14,6000,29.632,,,80,,,,10,,,,,,61,wg-a,,,,AAXX 06004 07690 02456 80816 10150 20140 30038 40069 58015 60146 76166 878// 90000 333 60107=
07690,1997-11-06 06:00:00,15,1003.3,-1.5,100,15,8000,38.892,,,90,12.8,15.4,,,,,,,,63,wg-a,,,,AAXX 06064 07690 02258 80921 10150 20150 30002 40033 55015 61000 76366 888// 90600 333 10154 20128 6053=
07690,1997-11-06 12:00:00,16,1003,-1.3,94,15,2000,7.408,,,340,,,,9,,,,,,10,wg-a,,,,AAXX 06124 07690 02320 83404 10160 20150 39999 40030 58013 60106 71062 8682/ 91200 333 60097=
07690,1997-11-06 15:00:00,17,999.7,-3.2,94,16,500,35.188,,57.412,90,,,,8,,,,,,61,wg-a,,,,AAXX 06154 07690 12300 80919 10170 20160 39967 49997 56032 60087 76166 8682/ 91500 333 91031=
07690,1997-11-06 18:00:00,18,999.8,0.1,94,17,10000,29.632,,66.672,130,15.2,18,,,,,,,,61,wg-a,,,,AAXX 06184 07690 02260 81316 10180 20170 39968 49998 53001 61000 76166 8682/ 91800 333 10180 20152 6012 91036=
07690,1997-11-06 21:00:00,18,1000,0.2,94,17,9000,25.928,,,160,,,,0,,,,,,60,wg-a,,,,AAXX 06214 07690 12259 81614 10180 20170 39970 40000 50002 60007 76062 8687/ 92100=
07690,1997-11-07 00:00:00,14,1001.3,1.2,94,13,15000,3.704,,,340,,,,3,,,,,,3,wg-a,,,,AAXX 07004 07690 02465 13402 10140 20130 39982 40013 51012 60036 70386 81530 90000 333 60037=
07690,1997-11-07 03:00:00,13,1001.9,0.6,100,13,10000,14.816,,,330,,,,8,,,,,,29,wg-a,,,,AAXX 07034 07690 12360 /3308 10130 20130 39988 40019 53006 60087 72998 84800 90300=
07690,1997-11-07 06:00:00,13,1002.7,0.8,94,12,9000,14.816,,,330,12.6,18.4,,,,,40,,,1,wg-a,,,,AAXX 07064 07690 02359 73308 10130 20120 39996 40027 51008 60006 70198 879// 90600 333 10184 20126 60404=
07690,1997-11-07 09:00:00,14,1004.8,2.1,94,13,12000,7.408,,,320,,,,,,,,,,,wg-a,,,,AAXX 07094 07690 12562 53204 10140 20130 30017 40048 51021 60006 81232 90900=
07690,1997-11-07 12:00:00,18,1003.4,-1.3,64,11,500,7.408,,,150,,,,,,,,,,,wg-a,,,,AAXX 07124 07690 12500 61504 10180 20110 30004 40034 58013 60006 81232 91200=
07690,1997-11-07 18:00:00,16,1003.5,0.3,77,12,20000,14.816,,,70,12.2,18.1,,,,,,,,,wg-a,,,,AAXX 07184 07690 12470 /0708 10160 20120 30004 40035 53003 60006 81202 91800 333 10181 20122=
07690,1997-11-08 00:00:00,12,1003,-0.3,82,9,15000,22.224,,,330,,,,,,,,,,,wg-a,,,,AAXX 08004 07690 12/65 03312 10120 20090 39999 40030 57003 60006 80000 90000=
07690,1997-11-08 06:00:00,11,1003.1,0.7,76,7,15000,18.52,,,320,10.3,15.7,,,,,,,,,wg-a,,,,AAXX 08064 07690 02565 33210 10110 20070 30000 40031 53007 60006 81231 90600 333 10157 20103 60004=
07690,1997-11-08 09:00:00,14,1004.5,1.4,67,8,40000,14.816,,,300,,,,,,,,,,,wg-a,,,,AAXX 08094 07690 12/82 53008 10140 20080 30014 40045 51014 60006 82032 90900=
07690,1997-11-08 12:00:00,17,1003.5,-0.9,72,12,50000,31.484,,,220,,,,,,,,,,,wg-a,,,,AAXX 08124 07690 12584 /2217 10170 20120 30005 40035 57009 60006 81142 91200=
07690,1997-11-08 18:00:00,15,1006,2.2,67,9,40000,22.224,,,260,10.4,18.4,,,,,,,,,wg-a,,,,AAXX 08184 07690 12/82 12612 10150 20090 30029 40060 53022 60006 80001 91800 333 10184 20104=
07690,1997-11-08 21:00:00,13,1008.6,2.6,72,8,20000,11.112,,,300,,,,,,,,,,,wg-a,,,,AAXX 08214 07690 12/70 23006 10130 20080 30055 40086 53026 60006 82030 92100=
07690,1997-11-09 00:00:00,10,1009.5,0.9,76,6,20000,18.52,,,330,,,,,,,,,,,wg-a,,,,AAXX 09004 07690 12670 53310 10100 20060 30064 40095 51009 60006 81532 90000=
07690,1997-11-09 03:00:00,10,1008,-1.5,87,8,10000,18.52,,,330,,,,2,,,,,,61,wg-a,,,,AAXX 09034 07690 12560 83310 10100 20080 30049 40080 58015 60027 76162 8557/ 90300=
07690,1997-11-09 06:00:00,10,1006.6,-1.4,93,9,12000,22.224,,,340,9.2,14.7,,,,,,,,60,wg-a,,,,AAXX 09064 07690 02462 83412 10100 20090 30035 40066 57014 61000 76062 8557/ 90600 333 10147 20092 6019=
07690,1997-11-09 09:00:00,11,1004.2,-2.4,100,11,8000,25.928,,,330,,,,29,,,,,,80,wg-a,,,,AAXX 09094 07690 12258 83314 10110 20110 30011 40042 56024 60297 78096 879// 90900=
07690,1997-11-09 12:00:00,16,1003.8,-0.4,77,12,25000,11.112,,,340,,,,,,,,,,1,wg-a,,,,AAXX 09124 07690 02475 /3406 10160 20120 30007 40038 56004 60296 70196 8183/ 91200 333 61000=
07690,1997-11-09 15:00:00,17,1004.2,0.4,52,7,35000,29.632,,,250,,,,,,,,,,,wg-a,,,,AAXX 09154 07690 12581 62516 10170 20070 30011 40042 53004 60006 81244 91500=
07690,1997-11-09 18:00:00,15,1006.3,2.1,59,7,20000,31.484,,,250,9.8,20.5,,,,,,,,,wg-a,,,,AAXX 09184 07690 12/70 22517 10150 20070 30032 40063 53021 60006 80002 91800 333 10205 20098=
07690,1997-11-09 21:00:00,13,1008.4,2.1,72,8,20000,14.816,,,300,,,,,,,,,,,wg-a,,,,AAXX 09214 07690 12/70 03008 10130 20080 30053 40084 52021 60006 80000 92100=
07690,1997-11-10 00:00:00,12,1008.6,0.2,62,5,500,14.816,,,270,,,,,,,,,,,wg-a,,,,AAXX 10004 07690 12/00 02708 10120 20050 30055 40086 50002 60006 80000 90000=
07690,1997-11-10 03:00:00,9,1007.9,-0.8,76,5,500,14.816,,,320,,,,,,,,,,,wg-a,,,,AAXX 10034 07690 12/00 03208 10090 20050 30047 40079 56008 60006 80000 90300=
07690,1997-11-10 06:00:00,8,1007.9,-0,76,4,500,18.52,,,330,7.7,14.5,,,,,29,,,,wg-a,,,,AAXX 10064 07690 02/00 /3310 10080 20040 30047 40079 54000 60006 81070 90600 333 10145 20077 60294=
07690,1997-11-10 12:00:00,19,1006.8,-1.5,37,4,500,7.408,,,150,,,,,,,,,,,wg-a,,,,AAXX 10124 07690 12600 /1504 10190 20040 30038 40068 58015 60006 81230 91200=
07690,1997-11-10 15:00:00,16,1006.5,-0.4,77,12,500,18.52,,,200,,,,,,,,,,,wg-a,,,,AAXX 10154 07690 12600 32010 10160 20120 30034 40065 56004 60006 81202 91500=
07690,1997-11-10 18:00:00,13,1006.6,0.1,88,11,20000,3.704,,,310,8,19.1,,,,,,,,,wg-a,,,,AAXX 10184 07690 12570 43102 10130 20110 30035 40066 53001 60006 84800 91800 333 10191 20080=
07690,1997-11-11 00:00:00,11,1007.2,0.4,71,6,15000,14.816,,,320,,,,,,,,,,,wg-a,,,,AAXX 11004 07690 12765 23208 10110 20060 30041 40072 53004 60006 82500 90000=
07690,1997-11-11 03:00:00,10,1007.1,-0.1,76,6,15000,14.816,,,330,,,,,,,,,,,wg-a,,,,AAXX 11034 07690 12665 /3308 10100 20060 30040 40071 58001 60006 81800 90300=
07690,1997-11-11 06:00:00,9,1007.9,0.8,76,5,500,25.928,,,330,9.4,13.2,,,,,,,,,wg-a,,,,AAXX 11064 07690 02600 /3314 10090 20050 30048 40079 51008 60006 81202 90600 333 10132 20094 60004=
07690,1997-11-11 09:00:00,11,1007.7,-0.2,66,5,40000,22.224,,,340,,,,,,,,,,13,wg-a,,,,AAXX 11094 07690 12582 73412 10110 20050 30046 40077 58002 60006 71311 8197/ 90900=
07690,1997-11-11 12:00:00,12,1006.3,-1.4,71,7,500,18.52,,,340,,,,0,,,,,,3,wg-a,,,,AAXX 11124 07690 02500 73410 10120 20070 30032 40063 58014 60016 70396 83903 91200 333 60007=
07690,1997-11-11 15:00:00,11,1005.3,-1,87,9,7000,22.224,,,20,,,,7,,,,,,61,wg-a,,,,AAXX 11154 07690 12457 70212 10110 20090 30022 40053 56010 60077 76196 8697/ 91500=
07690,1997-11-11 18:00:00,10,1004.4,-0.9,93,9,15000,14.816,,,360,9.3,12.8,,,,,,,,17,wg-a,,,,AAXX 11184 07690 02465 73608 10100 20090 30013 40044 58009 61000 71796 879// 91800 333 10128 20093 6006=
07690,1997-11-11 21:00:00,11,1003.3,-1.1,94,10,10000,11.112,,,110,,,,12,,,,,,17,wg-a,,,,AAXX 11214 07690 12360 81106 10110 20100 30002 40033 57011 60127 71799 879// 92100=
07690,1997-11-12 00:00:00,11,1002.2,-1.1,94,10,10000,11.112,,,320,,,,6,,,,,,81,wg-a,,,,AAXX 12004 07690 02160 83206 10110 20100 39991 40022 56011 60186 78198 879// 90000 333 60067=
07690,1997-11-12 03:00:00,13,999.1,-3.1,94,12,9000,29.632,,,80,,,,2,,,,,,95,wg-a,,,,AAXX 12034 07690 12259 80816 10130 20120 39960 49991 58031 60027 79596 879// 90300=
07690,1997-11-12 06:00:00,11,998.8,-0.3,94,10,3000,18.52,,,330,10.2,13,,,,,,,,63,wg-a,,,,AAXX 12064 07690 02330 83310 10110 20100 39957 49988 58003 61000 76396 8657/ 90600 333 10130 20102 6049=
07690,1997-11-12 09:00:00,12,999.7,0.9,88,10,40000,14.816,,,330,,,,3,,,,,,3,wg-a,,,,AAXX 12094 07690 12482 /3308 10120 20100 39966 49997 53009 60037 70361 81930 90900=
07690,1997-11-12 12:00:00,15,1000.5,0.8,72,10,40000,25.928,,,230,,,,,,,,,,1,wg-a,,,,AAXX 12124 07690 12682 22314 10150 20100 39974 40005 50008 60036 70161 82230 91200=
07690,1997-11-12 15:00:00,15,1000.8,0.3,59,7,50000,31.484,,,250,,,,,,,,,,,wg-a,,,,AAXX 12154 07690 12584 22517 10150 20070 39977 40008 53003 60006 81230 91500=
07690,1997-11-12 18:00:00,12,1002.5,1.7,71,7,25000,22.224,,,250,10,16.2,,,,,,,,,wg-a,,,,AAXX 12184 07690 12875 /2512 10120 20070 39994 40025 51017 60006 81030 91800 333 10162 20100=
07690,1997-11-13 00:00:00,10,1003.2,-0.5,66,4,25000,7.408,,,360,,,,,,,,,,,wg-a,,,,AAXX 13004 07690 12/75 03604 10100 20040 30001 40032 57005 60006 80000 90000=
07690,1997-11-13 03:00:00,8,1003.5,0.3,71,3,25000,18.52,,,340,,,,,,,,,,,wg-a,,,,AAXX 13034 07690 12575 13410 10080 20030 30004 40035 51003 60006 81540 90300=
07690,1997-11-13 06:00:00,8,1003.9,0.3,66,2,50000,18.52,,,340,7.7,11.6,,,,,3,,,,wg-a,,,,AAXX 13064 07690 02484 /3410 10080 20020 30007 40039 53003 60006 81500 90600 333 10116 20077 60034=
07690,1997-11-13 09:00:00,11,1004.3,0.5,54,2,50000,22.224,,,330,,,,,,,,,,,wg-a,,,,AAXX 13094 07690 12584 /3312 10110 20020 30012 40043 51005 60006 81200 90900=
07690,1997-11-13 12:00:00,16,1003.5,-0.8,55,7,40000,11.112,,,220,,,,,,,,,,,wg-a,,,,AAXX 13124 07690 12582 /2206 10160 20070 30004 40035 58008 60006 81100 91200=
07690,1997-11-13 15:00:00,15,1003.2,-0.3,67,9,40000,7.408,,,180,,,,,,,,,,,wg-a,,,,AAXX 13154 07690 12682 /1804 10150 20090 30001 40032 55003 60006 81201 91500=
07690,1997-11-13 18:00:00,11,1003.6,0.4,82,8,15000,11.112,,,330,7.8,16.2,,,,,,,,,wg-a,,,,AAXX 13184 07690 12565 13306 10110 20080 30005 40036 53004 60006 81500 91800 333 10162 20078=
07690,1997-11-13 21:00:00,10,1003.9,0.3,71,5,20000,7.408,,,340,,,,,,,,,,,wg-a,,,,AAXX 13214 07690 12/70 03404 10100 20050 30008 40039 52003 60006 80000 92100=
07690,1997-11-14 00:00:00,9,1004.3,0.4,66,3,500,22.224,,,330,,,,,,,,,,,wg-a,,,,AAXX 14004 07690 12/00 03312 10090 20030 30012 40043 53004 60006 80000 90000=
07690,1997-11-14 03:00:00,8,1004.7,0.3,66,2,500,25.928,,,330,,,,,,,,,,,wg-a,,,,AAXX 14034 07690 12500 13314 10080 20020 30015 40047 52003 60006 81502 90300=
07690,1997-11-14 06:00:00,7,1006.2,1.5,66,1,21000,29.632,,,330,7,10.6,,,,,,,,,wg-a,,,,AAXX 14064 07690 02571 /3316 10070 20010 30030 40062 51015 60006 81500 90600 333 10106 20070 60004=
07690,1997-11-14 09:00:00,10,1008.9,2.8,53,1,50000,25.928,,,330,,,,,,,,,,,wg-a,,,,AAXX 14094 07690 12584 /3314 10100 20010 30058 40089 52028 60006 81200 90900=
07690,1997-11-14 12:00:00,17,1009.5,0.6,59,9,50000,25.928,,,100,,,,,,,,,,,wg-a,,,,AAXX 14124 07690 12584 41014 10170 20090 30064 40095 50006 60006 83201 91200=
07690,1997-11-14 15:00:00,17,1010.5,1,55,8,40000,11.112,,,100,,,,,,,,,,,wg-a,,,,AAXX 14154 07690 12682 21006 10170 20080 30074 40105 53010 60006 82401 91500=
07690,1997-11-14 18:00:00,12,1012.8,2.3,76,8,25000,14.816,,,330,7,17.1,,,,,,,,,wg-a,,,,AAXX 14184 07690 12675 53308 10120 20080 30097 40128 53023 60006 85500 91800 333 10171 20070=
07690,1997-11-14 21:00:00,10,1014.9,2,76,6,18000,22.224,,,330,,,,,,,,,,,wg-a,,,,AAXX 14214 07690 12568 23312 10100 20060 30117 40149 53020 60006 82500 92100=
07690,1997-11-15 00:00:00,10,1016.2,1.3,66,4,18000,14.816,,,340,,,,,,,,,,,wg-a,,,,AAXX 15004 07690 12468 /3408 10100 20040 30130 40162 52013 60006 81500 90000=
07690,1997-11-15 03:00:00,9,1016.8,0.6,66,3,25000,25.928,,,340,,,,,,,,,,,wg-a,,,,AAXX 15034 07690 12575 /3414 10090 20030 30136 40168 53006 60006 81500 90300=
07690,1997-11-15 06:00:00,8,1017.7,0.9,71,3,40000,11.112,,,350,8.2,11.4,,,,,,,,,wg-a,,,,AAXX 15064 07690 02/82 03506 10080 20030 30145 40177 51009 60006 80000 90600 333 10114 20082 60004=
07690,1997-11-15 09:00:00,11,1019.8,2.1,58,3,40000,22.224,,,330,,,,,,,,,,,wg-a,,,,AAXX 15094 07690 12582 /3312 10110 20030 30166 40198 51021 60006 81500 90900=
07690,1997-11-15 12:00:00,16,1019.1,-0.6,63,9,40000,7.408,,,240,,,,,,,,,,,wg-a,,,,AAXX 15124 07690 12582 /2404 10160 20090 30160 40191 58006 60006 81101 91200=
07690,1997-11-15 15:00:00,15,1018.9,-0.2,63,8,40000,11.112,,,200,,,,,,,,,,,wg-a,,,,AAXX 15154 07690 12582 22006 10150 20080 30158 40189 55002 60006 81101 91500=
07690,1997-11-15 18:00:00,11,1020.2,1.2,82,8,500,14.816,,,330,8.1,16.2,,,,,,,,,wg-a,,,,AAXX 15184 07690 12500 23308 10110 20080 30170 40202 53012 60006 81101 91800 333 10162 20081=
07690,1997-11-15 21:00:00,10,1020.4,0.2,76,6,11000,22.224,,,330,,,,,,,,,,,wg-a,,,,AAXX 15214 07690 12/61 /3312 10100 20060 30172 40204 51002 60006 92100=
07690,1997-11-16 00:00:00,9,1019.8,-0.6,76,5,25000,22.224,,,330,,,,,,,,,,,wg-a,,,,AAXX 16004 07690 12/75 /3312 10090 20050 30166 40198 58006 60006 80000 90000=
07690,1997-11-16 03:00:00,9,1018.7,-1.1,71,4,25000,25.928,,,330,,,,,,,,,,,wg-a,,,,AAXX 16034 07690 12/75 53314 10090 20040 30155 40187 58011 60006 80001 90300=
07690,1997-11-16 06:00:00,8,1017.2,-1.5,71,3,500,25.928,,,330,7.5,10.5,,,,,,,,,wg-a,,,,AAXX 16064 07690 02/00 33314 10080 20030 30140 40172 58015 60006 81031 90600 333 10105 20075 60004=
07690,1997-11-16 09:00:00,9,1016.6,-0.6,66,3,50000,22.224,,,330,,,,,,,,,,,wg-a,,,,AAXX 16094 07690 12584 /3312 10090 20030 30134 40166 58006 60006 81170 90900=
07690,1997-11-16 12:00:00,13,1014.2,-2.3,54,4,40000,7.408,,,320,,,,,,,,,,,wg-a,,,,AAXX 16124 07690 12582 73204 10130 20040 30111 40142 58023 60006 81270 91200=
07690,1997-11-16 15:00:00,14,1012.7,-1.5,63,7,25000,0,,,0,,,,,,,,,,,wg-a,,,,AAXX 16154 07690 12575 30000 10140 20070 30096 40127 56015 60006 81234 91500=
07690,1997-11-16 18:00:00,10,1013.4,0.6,76,6,11000,18.52,,,330,7.5,15.2,,,,,,,,,wg-a,,,,AAXX 16184 07690 12/61 53310 10100 20060 30102 40134 53006 60006 80001 91800 333 10152 20075=
07690,1997-11-16 21:00:00,9,1014.2,0.8,76,5,12000,22.224,,,330,,,,,,,,,,,wg-a,,,,AAXX 16214 07690 12562 /3312 10090 20050 30110 40142 53008 60006 82501 92100=
07690,1997-11-17 00:00:00,9,1014.6,0.4,71,4,12000,25.928,,,330,,,,,,,,,,,wg-a,,,,AAXX 17004 07690 12562 53314 10090 20040 30114 40146 53004 60006 81530 90000=
07690,1997-11-17 03:00:00,8,1014.6,0,76,4,11000,25.928,,,330,,,,,,,,,,,wg-a,,,,AAXX 17034 07690 12/61 /3314 10080 20040 30114 40146 50000 60006 90300=
07690,1997-11-17 06:00:00,8,1015,0.4,76,4,12000,25.928,,,330,8.1,9.5,,,,,,,,,wg-a,,,,AAXX 17064 07690 02/62 53314 10080 20040 30118 40150 51004 60006 80001 90600 333 10095 20081 60004=
07690,1997-11-17 09:00:00,11,1015.9,0.9,62,4,20000,25.928,,,330,,,,,,,,,,,wg-a,,,,AAXX 17094 07690 12/70 13314 10110 20040 30127 40159 51009 60006 81031 90900=
07690,1997-11-17 12:00:00,17,1014.9,-0.9,55,8,13000,18.52,,,100,,,,,,,,,,,wg-a,,,,AAXX 17124 07690 12663 21010 10170 20080 30118 40149 58009 60006 81131 91200=
07690,1997-11-17 15:00:00,15,1014.7,-0.2,67,9,13000,25.928,,,90,,,,,,,,,,,wg-a,,,,AAXX 17154 07690 12663 50914 10150 20090 30116 40147 55002 60006 83531 91500=
07690,1997-11-17 18:00:00,15,1015.1,0.4,63,8,10000,25.928,,,100,8.2,17.1,,,,,,,,,wg-a,,,,AAXX 17184 07690 12560 71014 10150 20080 30120 40151 51004 60006 878// 91800 333 10171 20082=
07690,1997-11-18 00:00:00,10,1015.8,-0.7,87,8,12000,11.112,,,330,,,,,,,,,,,wg-a,,,,AAXX 18004 07690 12/62 /3306 10100 20080 30126 40158 58007 60006 80000 90000=
07690,1997-11-18 06:00:00,8,1014.8,-0.3,87,6,12000,18.52,,,330,7.6,14.8,,,,,,,,,wg-a,,,,AAXX 18064 07690 02562 /3310 10080 20060 30116 40148 58003 60006 81500 90600 333 10148 20076 60004=
07690,1997-11-18 09:00:00,10,1014.8,0,71,5,9000,18.52,,,330,,,,,,,,,,,wg-a,,,,AAXX 18094 07690 12559 /3310 10100 20050 30116 40148 50000 60006 81500 90900=
07690,1997-11-18 12:00:00,15,1011.9,-2.8,59,7,12000,11.112,,,190,,,,,,,,,,,wg-a,,,,AAXX 18124 07690 12562 /1906 10150 20070 30088 40119 58028 60006 81500 91200=
07690,1997-11-18 15:00:00,14,1009.4,-2.5,72,9,18000,22.224,,,230,,,,,,,,,,,wg-a,,,,AAXX 18154 07690 12568 32312 10140 20090 30063 40094 56025 60006 83502 91500=
07690,1997-11-18 18:00:00,10,1006.6,-2.8,87,8,12000,14.816,,,330,7.6,16.2,,,,,,,,,wg-a,,,,AAXX 18184 07690 12562 /3308 10100 20080 30035 40066 56028 60006 81500 91800 333 10162 20076=
07690,1997-11-19 00:00:00,9,1003.5,-1.3,81,6,10000,22.224,,,330,,,,,,,,,,,wg-a,,,,AAXX 19004 07690 12/60 03312 10090 20060 30004 40035 57013 60006 80000 90000=
07690,1997-11-19 06:00:00,8,1003.1,0.1,76,4,15000,29.632,,,330,7.4,10.4,,,,,,,,,wg-a,,,,AAXX 19064 07690 02565 73316 10080 20040 39999 40031 53001 60006 83577 90600 333 10104 20074 60004=
07690,1997-11-19 09:00:00,10,1003.3,0.3,66,4,10000,18.52,,,330,,,,,,,,,,21,wg-a,,,,AAXX 19094 07690 02460 73310 10100 20040 30002 40033 53003 61000 72162 82572 90900 333 ////=
07690,1997-11-19 12:00:00,15,1002.1,-1.2,59,7,15000,42.596,,,90,,,,,,,,,,2,wg-a,,,,AAXX 19124 07690 02465 80923 10150 20070 39990 40021 58012 61000 70262 82572 91200 333 6100=
07690,1997-11-19 15:00:00,14,1002.4,0.3,58,6,20000,31.484,,,100,,,,,,,,,,,wg-a,,,,AAXX 19154 07690 12470 81017 10140 20060 39993 40024 53003 60006 82572 91500=
07690,1997-11-19 18:00:00,14,1003,0.6,55,5,20000,22.224,,,110,8,15.1,,,,,,,,,wg-a,,,,AAXX 19184 07690 12470 71112 10140 20050 39999 40030 53006 60006 81572 91800 333 10151 20080=
07690,1997-11-19 21:00:00,12,1004.2,1.2,71,7,15000,11.112,,,280,,,,,,,,,,,wg-a,,,,AAXX 19214 07690 12665 72806 10120 20070 30011 40042 51012 60006 8557/ 92100=
07690,1997-11-20 00:00:00,12,1004.7,0.5,71,7,15000,25.928,,,270,,,,,,,,,,,wg-a,,,,AAXX 20004 07690 12665 82714 10120 20070 30016 40047 53005 60006 875// 90000=
07690,1997-11-20 03:00:00,11,1005.3,0.6,76,7,15000,18.52,,,280,,,,,,,,,,,wg-a,,,,AAXX 20034 07690 12565 72810 10110 20070 30022 40053 53006 60006 875// 90300=
07690,1997-11-20 06:00:00,11,1006.3,1,82,8,15000,25.928,,,280,10.6,14.1,,,,,,,,,wg-a,,,,AAXX 20064 07690 02565 72814 10110 20080 30032 40063 51010 60006 875// 90600 333 10141 20106 61000=
07690,1997-11-20 09:00:00,11,1008.1,1.8,82,8,18000,18.52,,,280,,,,,,,,,,,wg-a,,,,AAXX 20094 07690 12568 82810 10110 20080 30050 40081 52018 60006 878// 90900=
07690,1997-11-20 12:00:00,11,1008.5,0.4,82,8,15000,18.52,,,260,,,,,,,,,,,wg-a,,,,AAXX 20124 07690 12565 82610 10110 20080 30054 40085 50004 60006 878// 91200=
07690,1997-11-20 15:00:00,12,1008.1,-0.4,71,7,15000,11.112,,,220,,,,,,,,,,,wg-a,,,,AAXX 20154 07690 12565 82206 10120 20070 30050 40081 58004 60006 878// 91500=
07690,1997-11-20 18:00:00,11,1008.9,0.8,82,8,11000,7.408,,,330,10.6,11.8,,,,,,,,,wg-a,,,,AAXX 20184 07690 12561 83304 10110 20080 30058 40089 53008 60006 875// 91800 333 10118 20106=
07690,1997-11-20 21:00:00,11,1008.9,0,82,8,11000,11.112,,,340,,,,,,,,,,,wg-a,,,,AAXX 20214 07690 12561 83406 10110 20080 30058 40089 50000 60006 875// 92100=
07690,1997-11-21 00:00:00,10,1008.8,-0.1,82,7,11000,11.112,,,340,,,,,,,,,,,wg-a,,,,AAXX 21004 07690 12561 83406 10100 20070 30057 40088 56001 60006 885// 90000=
07690,1997-11-21 03:00:00,10,1009.4,0.6,82,7,11000,14.816,,,340,,,,,,,,,,,wg-a,,,,AAXX 21034 07690 12561 83408 10100 20070 30063 40094 53006 60006 872// 90300=
07690,1997-11-21 06:00:00,9,1009.9,0.4,81,6,15000,14.816,,,340,8.8,10.9,,,,,,,,,wg-a,,,,AAXX 21064 07690 02565 73408 10090 20060 30067 40099 53004 60006 87200 90600 333 10109 20088 60004=
07690,1997-11-21 09:00:00,10,1011.1,1.2,76,6,22000,11.112,,,340,,,,,,,,,,,wg-a,,,,AAXX 21094 07690 12572 /3406 10100 20060 30079 40111 51012 60006 86800 90900=
07690,1997-11-21 12:00:00,13,1010.5,-0.5,67,7,20000,0,,,0,,,,,,,,,,,wg-a,,,,AAXX 21124 07690 12570 70000 10130 20070 30074 40105 58005 60006 83832 91200=
07690,1997-11-21 15:00:00,14,1010.4,-0.1,67,8,15000,7.408,,,80,,,,,,,,,,,wg-a,,,,AAXX 21154 07690 12565 70804 10140 20080 30073 40104 58001 60006 875// 91500=
07690,1997-11-21 18:00:00,13,1011,0.6,77,9,15000,7.408,,,20,9.1,14.4,,,,,,,,,wg-a,,,,AAXX 21184 07690 12565 80204 10130 20090 30079 40110 51006 60006 888// 91800 333 10144 20091=
07690,1997-11-21 21:00:00,11,1010.6,-0.4,82,8,10000,7.408,,,330,,,,,,,,,,,wg-a,,,,AAXX 21214 07690 12560 83304 10110 20080 30075 40106 58004 60006 8687/ 92100=
07690,1997-11-22 00:00:00,11,1010.1,-0.5,76,7,10000,18.52,,,330,,,,,,,,,,,wg-a,,,,AAXX 22004 07690 12460 83310 10110 20070 30070 40101 58005 60006 8587/ 90000=
07690,1997-11-22 03:00:00,10,1008.3,-1.8,82,7,15000,22.224,,,330,,,,,,,,,,,wg-a,,,,AAXX 22034 07690 12665 33312 10100 20070 30052 40083 57018 60006 82531 90300=
07690,1997-11-22 06:00:00,10,1007.9,-0.4,76,6,15000,14.816,,,340,9.5,12.7,,,,,,,,,wg-a,,,,AAXX 22064 07690 02765 /3408 10100 20060 30048 40079 56004 60006 82530 90600 333 10127 20095 60004=
07690,1997-11-22 09:00:00,10,1008.6,0.7,76,6,25000,22.224,,,330,,,,,,,,,,,wg-a,,,,AAXX 22094 07690 12575 73312 10100 20060 30055 40086 50007 60006 81832 90900=
07690,1997-11-22 12:00:00,15,1007,-1.6,59,7,25000,14.816,,,320,,,,,,,,,,,wg-a,,,,AAXX 22124 07690 12775 73208 10150 20070 30039 40070 56016 60006 81538 91200=
07690,1997-11-22 15:00:00,14,1006,-1,63,7,20000,11.112,,,330,,,,,,,,,,,wg-a,,,,AAXX 22154 07690 12770 73306 10140 20070 30029 40060 56010 60006 8157/ 91500=
07690,1997-11-22 18:00:00,11,1007.3,1.3,76,7,10000,14.816,,,320,9.3,15.1,,,,,,,,,wg-a,,,,AAXX 22184 07690 12/60 83208 10110 20070 30042 40073 53013 60006 8407/ 91800 333 10151 20093=
07690,1997-11-23 00:00:00,10,1008.3,0.4,66,4,12000,22.224,,,330,,,,,,,,,,,wg-a,,,,AAXX 23004 07690 12662 83312 10100 20040 30052 40083 50004 60006 8357/ 90000=
07690,1997-11-23 03:00:00,10,1008.4,0.1,62,3,15000,18.52,,,330,,,,,,,,,,,wg-a,,,,AAXX 23034 07690 12765 /3310 10100 20030 30053 40084 53001 60006 81572 90300=
07690,1997-11-23 06:00:00,9,1009.3,0.8,61,2,25000,22.224,,,340,9.2,10.9,,,,,,,,,wg-a,,,,AAXX 23064 07690 02775 63412 10090 20020 30061 40093 52008 60006 81572 90600 333 10109 20092 60004=
07690,1997-11-23 12:00:00,18,1010.9,-0.3,52,8,40000,7.408,,,210,,,,,,,,,,,wg-a,,,,AAXX 23124 07690 12682 22104 10180 20080 30078 40109 55003 60006 81802 91200=
07690,1997-11-23 15:00:00,17,1011.7,0.8,48,6,40000,11.112,,,190,,,,,,,,,,,wg-a,,,,AAXX 23154 07690 12682 21906 10170 20060 30086 40117 53008 60006 81802 91500=
07690,1997-11-23 18:00:00,11,1013.3,1.5,76,7,25000,11.112,,,330,9.1,18,,,,,,,,,wg-a,,,,AAXX 23184 07690 12/75 13306 10110 20070 30101 40133 53015 60006 80001 91800 333 10180 20091=
07690,1997-11-23 21:00:00,10,1014.2,0.9,71,5,25000,22.224,,,330,,,,,,,,,,,wg-a,,,,AAXX 23214 07690 12/75 03312 10100 20050 30110 40142 51009 60006 80000 92100=
07690,1997-11-24 00:00:00,10,1014,-0.2,62,3,25000,18.52,,,340,,,,,,,,,,,wg-a,,,,AAXX 24004 07690 12/75 03410 10100 20030 30108 40140 58002 60006 80000 90000=
07690,1997-11-24 03:00:00,9,1013.7,-0.3,66,3,25000,18.52,,,340,,,,,,,,,,,wg-a,,,,AAXX 24034 07690 12/75 03410 10090 20030 30105 40137 58003 60006 80000 90300=
07690,1997-11-24 06:00:00,8,1014,0.3,66,2,25000,22.224,,,330,8.2,10.6,,,,,,,,,wg-a,,,,AAXX 24064 07690 02/75 13312 10080 20020 30108 40140 53003 60006 80002 90600 333 10106 20082 60004=
07690,1997-11-24 09:00:00,11,1015.2,1.2,54,2,50000,18.52,,,330,,,,,,,,,,,wg-a,,,,AAXX 24094 07690 12/84 53310 10110 20020 30120 40152 51012 60006 80002 90900=
07690,1997-11-24 12:00:00,13,1014.4,-0.7,51,3,500,11.112,,,340,,,,,,,,,,,wg-a,,,,AAXX 24124 07690 12400 /3406 10130 20030 30113 40144 58007 60006 81122 91200=
07690,1997-11-24 15:00:00,14,1013.3,-1.1,72,9,35000,7.408,,,190,,,,,,,,,,,wg-a,,,,AAXX 24154 07690 12481 71904 10140 20090 30102 40133 56011 60006 8112/ 91500=
07690,1997-11-24 18:00:00,11,1013.2,-0.1,76,7,8000,14.816,,,330,8.1,15.3,,,,,,,,,wg-a,,,,AAXX 24184 07690 12458 73308 10110 20070 30101 40132 58001 60006 8217/ 91800 333 10153 20081=
07690,1997-11-24 21:00:00,11,1013.3,0.1,71,6,10000,14.816,,,350,,,,,,,,,,,wg-a,,,,AAXX 24214 07690 12460 83508 10110 20060 30102 40133 50001 60006 8287/ 92100=
07690,1997-11-25 00:00:00,11,1012.5,-0.8,71,6,10000,18.52,,,330,,,,,,,,,,,wg-a,,,,AAXX 25004 07690 12560 83310 10110 20060 30094 40125 58008 60006 8257/ 90000=
07690,1997-11-25 03:00:00,11,1011.9,-0.6,66,5,12000,18.52,,,330,,,,,,,,,,,wg-a,,,,AAXX 25034 07690 12562 83310 10110 20050 30088 40119 57006 60006 875// 90300=
07690,1997-11-25 06:00:00,10,1011.6,-0.4,82,7,12000,18.52,,,320,9.6,11.3,,0,,,,,,21,wg-a,,,,AAXX 25064 07690 02262 73210 10100 20070 30084 40116 58004 60004 72162 875// 90600 333 10113 20096 60007=
07690,1997-11-25 09:00:00,11,1011.6,0.1,76,7,25000,22.224,,,330,,,,,,,,,,,wg-a,,,,AAXX 25094 07690 12575 73312 10110 20070 30085 40116 53001 60006 8683/ 90900=
07690,1997-11-25 12:00:00,14,1011.1,-0.5,63,7,20000,11.112,,,330,,,,,,,,,,,wg-a,,,,AAXX 25124 07690 12670 73306 10140 20070 30080 40111 58005 60006 878// 91200=
07690,1997-11-25 18:00:00,12,1010.5,0.2,76,8,15000,14.816,,,330,10.1,15.2,,,,,,,,,wg-a,,,,AAXX 25184 07690 12465 73308 10120 20080 30074 40105 51002 60006 878// 91800 333 10152 20101=
07690,1997-11-25 21:00:00,12,1010.8,0.3,76,8,15000,11.112,,,330,,,,,,,,,,,wg-a,,,,AAXX 25214 07690 12665 73306 10120 20080 30077 40108 53003 60006 878// 92100=
07690,1997-11-26 00:00:00,11,1010.3,-0.5,82,8,15000,14.816,,,330,,,,,,,,,,21,wg-a,,,,AAXX 26004 07690 02565 83308 10110 20080 30072 40103 58005 61000 72162 888// 90000 333 6100=
07690,1997-11-26 03:00:00,11,1009.6,-0.7,82,8,11000,18.52,,,330,,,,,,,,,,,wg-a,,,,AAXX 26034 07690 32/61 /3310 10110 20080 30065 40096 56007 90300=
07690,1997-11-26 06:00:00,12,1009.3,-0.3,76,8,15000,11.112,,,340,10.9,12.3,,,,,,,,1,wg-a,,,,AAXX 26064 07690 02665 73406 10120 20080 30062 40093 55003 60006 70162 878// 90600 333 10123 20109 61000=
07690,1997-11-26 09:00:00,11,1010.1,0.8,87,9,20000,18.52,,,330,,,,1,,,,,,21,wg-a,,,,AAXX 26094 07690 12470 73310 10110 20090 30070 40101 53008 60017 72162 8557/ 90900=
07690,1997-11-26 12:00:00,16,1008.6,-1.5,63,9,500,29.632,,,70,,,,,,,,,,1,wg-a,,,,AAXX 26124 07690 12600 /0716 10160 20090 30055 40086 58015 60016 70162 81232 91200=
07690,1997-11-26 15:00:00,17,1008.9,0.3,63,10,35000,38.892,,,90,,,,,,,,,,,wg-a,,,,AAXX 26154 07690 12481 70921 10170 20100 30058 40089 53003 60006 84832 91500=
07690,1997-11-26 18:00:00,14,1009.1,0.2,72,9,25000,11.112,,,350,10.9,16.8,,,,,,,,,wg-a,,,,AAXX 26184 07690 12475 53506 10140 20090 30060 40091 51002 60006 81830 91800 333 10168 20109=
07690,1997-11-26 21:00:00,12,1010.6,1.5,88,10,11000,14.816,,,350,,,,0,,,,,,,wg-a,,,,AAXX 26214 07690 12/61 /3508 10120 20100 30075 40106 52015 60007 92100=
07690,1997-11-27 00:00:00,12,1010.9,0.3,88,10,15000,11.112,,,10,,,,0,,,,,,60,wg-a,,,,AAXX 27004 07690 02465 80106 10120 20100 30078 40109 51003 60016 76062 8587/ 90000 333 60007=
07690,1997-11-27 03:00:00,13,1011.1,0.2,77,9,15000,14.816,,,340,,,,,,,,,,3,wg-a,,,,AAXX 27034 07690 02665 83408 10130 20090 30080 40111 50002 61000 70362 8657/ 90300 333 ////=
07690,1997-11-27 06:00:00,12,1011.7,0.6,82,9,20000,14.816,,,330,11.7,16.4,,,,,,,,21,wg-a,,,,AAXX 27064 07690 02670 73308 10120 20090 30086 40117 53006 61000 72162 8557/ 90600 333 10164 20117 6002=
07690,1997-11-27 09:00:00,12,1011.7,0.6,82,9,20000,14.816,,,330,11.7,16.4,,,,,2,,,21,wg-a,,,,AAXX 27094 07690 02670 73308 10120 20090 30086 40117 53006 60024 72162 8557/ 90900 333 10164 20117 61000=
07690,1997-11-27 12:00:00,13,1013.7,0.5,77,9,25000,7.408,,,330,,,,0,,,,,,60,wg-a,,,,AAXX 27124 07690 02475 73304 10130 20090 30106 40137 52005 60006 76062 8687/ 91200 333 60007=
07690,1997-11-27 15:00:00,14,1013.9,0.2,77,10,9000,11.112,,,320,,,,0,,,,,,3,wg-a,,,,AAXX 27154 07690 12459 73206 10140 20100 30108 40139 53002 60007 70362 878// 91500=
07690,1997-11-27 18:00:00,12,1015.1,1.2,94,11,8000,14.816,,,330,11.9,14.5,,,,,,,,60,wg-a,,,,AAXX 27184 07690 02358 73308 10120 20110 30120 40151 51012 61000 76062 878// 91800 333 10145 20119 6001=
07690,1997-11-27 21:00:00,11,1016.5,1.3,82,8,10000,14.816,,,340,,,,,,,,,,1,wg-a,,,,AAXX 27214 07690 02460 /3408 10110 20080 30133 40165 51013 61000 70161 81500 92100 333 ////=
07690,1997-11-28 00:00:00,11,1016.4,-0.1,76,7,20000,18.52,,,340,,,,,,,,,,2,wg-a,,,,AAXX 28004 07690 02470 /3410 10110 20070 30132 40164 58001 61000 70261 81500 90000 333 ////=
07690,1997-11-28 03:00:00,10,1016.1,-0.3,76,6,20000,25.928,,,330,,,,,,,,,,,wg-a,,,,AAXX 28034 07690 12/70 03314 10100 20060 30129 40161 57003 60006 80000 90300=
07690,1997-11-28 06:00:00,10,1016.3,0.2,76,6,20000,25.928,,,330,9.4,11.9,,,,,1,,,,wg-a,,,,AAXX 28064 07690 02/70 03314 10100 20060 30131 40163 53002 60006 80000 90600 333 10119 20094 60014=
07690,1997-11-28 09:00:00,11,1017.3,1,71,6,40000,22.224,,,330,,,,,,,,,,,wg-a,,,,AAXX 28094 07690 12782 53312 10110 20060 30141 40173 53010 60006 81102 90900=
07690,1997-11-28 12:00:00,18,1015.9,-1.3,56,9,500,7.408,,,170,,,,,,,,,,,wg-a,,,,AAXX 28124 07690 12600 /1704 10180 20090 30128 40159 58013 60006 81102 91200=
07690,1997-11-28 15:00:00,15,1015.4,-0.5,77,11,500,18.52,,,200,,,,,,,,,,,wg-a,,,,AAXX 28154 07690 12600 /2010 10150 20110 30123 40154 57005 60006 82832 91500=
07690,1997-11-28 18:00:00,14,1015.5,0.1,82,11,18000,3.704,,,330,9.3,17.7,,,,,,,,,wg-a,,,,AAXX 28184 07690 12468 73302 10140 20110 30124 40155 50001 60006 8483/ 91800 333 10177 20093=
07690,1997-11-28 21:00:00,13,1015.4,-0.1,88,11,10000,11.112,,,320,,,,,,,,,,2,wg-a,,,,AAXX 28214 07690 02460 83206 10130 20110 30123 40154 58001 61000 70262 8387/ 92100 333 ////=
07690,1997-11-29 00:00:00,12,1014.1,-1.3,94,11,10000,7.408,,,310,,,,1,,,,,,60,wg-a,,,,AAXX 29004 07690 02460 83104 10120 20110 30110 40141 58013 60016 76062 8387/ 90000 333 60017=
07690,1997-11-29 03:00:00,11,1013.3,-0.8,100,11,8000,14.816,,,330,,,,2,,,,,,61,wg-a,,,,AAXX 29034 07690 12458 83308 10110 20110 30102 40133 57008 60027 76166 878// 90300=
07690,1997-11-29 06:00:00,11,1011.9,-1.4,94,10,10000,11.112,,,340,11.1,13.8,,,,,,,,60,wg-a,,,,AAXX 29064 07690 02360 83406 10110 20100 30088 40119 56014 61000 76066 878// 90600 333 10138 20111 6006=
07690,1997-11-29 09:00:00,12,1011.3,-0.6,88,10,25000,14.816,,,330,,,,,,,,,,2,wg-a,,,,AAXX 29094 07690 02375 83308 10120 20100 30082 40113 57006 61000 70262 878// 90900 333 ////=
07690,1997-11-29 15:00:00,14,1008.3,-1.3,82,11,15000,11.112,,,100,,,,,,,,,,,wg-a,,,,AAXX 29154 07690 12465 71006 10140 20110 30052 40083 56013 60006 878// 91500=
07690,1997-11-29 18:00:00,14,1007.6,-0.7,82,11,15000,11.112,,,80,11.1,14.4,,,,,,,,,wg-a,,,,AAXX 29184 07690 12465 70806 10140 20110 30045 40076 56007 60006 875// 91800 333 10144 20111=
07690,1997-11-29 21:00:00,12,1006.5,-1.1,88,10,9000,11.112,,,330,,,,,,,,,,,wg-a,,,,AAXX 29214 07690 12459 /3306 10120 20100 30034 40065 58011 60006 8557/ 92100=
07690,1997-11-30 00:00:00,10,1005,-1.5,87,8,11000,14.816,,,330,,,,,,,,,,,wg-a,,,,AAXX 30004 07690 12661 33308 10100 20080 30019 40050 58015 60006 81530 90000=
07690,1997-11-30 03:00:00,9,1004.3,-0.7,87,7,15000,22.224,,,330,,,,,,,,,,,wg-a,,,,AAXX 30034 07690 12665 /3312 10090 20070 30012 40043 56007 60006 81530 90300=
07690,1997-11-30 06:00:00,9,1004.2,-0.1,76,5,20000,11.112,,,340,8.9,13.9,,,,,,,,,wg-a,,,,AAXX 30064 07690 02670 23406 10090 20050 30011 40042 55001 60006 81501 90600 333 10139 20089 61000=
07690,1997-11-30 09:00:00,11,1004.2,-0,66,5,50000,22.224,,,330,,,,,,,,,,,wg-a,,,,AAXX 30094 07690 12/84 /3312 10110 20050 30011 40042 54000 60006 80001 90900=
07690,1997-11-30 12:00:00,16,1002.7,-1.5,55,7,40000,7.408,,,320,,,,,,,,,,,wg-a,,,,AAXX 30124 07690 12/82 13204 10160 20070 39996 40027 58015 60006 80001 91200=
07690,1997-11-30 18:00:00,11,1002.5,0.9,71,6,20000,14.816,,,330,8.7,17.2,,,,,,,,,wg-a,,,,AAXX 30184 07690 12/70 /3308 10110 20060 39994 40025 53009 60006 80000 91800 333 10172 20087=
07690,1997-11-30 21:00:00,11,1003.1,0.6,54,2,25000,18.52,,,340,,,,,,,,,,,wg-a,,,,AAXX 30214 07690 12/75 03410 10110 20020 30000 40031 53006 60006 80000 92100=
07690,1997-12-01 00:00:00,10,1002.6,-0.5,53,1,500,22.224,,,330,,,,,,,,,,,wg-a,,,,AAXX 01004 07690 12/00 03312 10100 20010 39995 40026 58005 60006 80000 90000=
07690,1997-12-01 03:00:00,10,1002.5,-0.1,46,-1,500,22.224,,,350,,,,,,,,,,,wg-a,,,,AAXX 01034 07690 12/00 03512 10100 21010 39994 40025 57001 60006 80000 90300=
07690,1997-12-01 06:00:00,9,1003.3,0.8,49,-1,500,18.52,,,340,9.4,11.4,,,,,,,,,wg-a,,,,AAXX 01064 07690 02/00 13410 10090 21010 30002 40033 53008 60006 81032 90600 333 10114 20094 60004=
07690,1997-12-01 09:00:00,12,1004.6,1.3,44,0,50000,11.112,,,340,,,,,,,,,,,wg-a,,,,AAXX 01094 07690 12/84 13406 10120 20000 30015 40046 53013 60006 81042 90900=
07690,1997-12-01 12:00:00,17,1004.3,-0.3,36,2,40000,11.112,,,320,,,,,,,,,,,wg-a,,,,AAXX 01124 07690 12/82 13206 10170 20020 30012 40043 58003 60006 80002 91200=
07690,1997-12-01 15:00:00,17,1004.9,0.6,36,2,35000,7.408,,,170,,,,,,,,,,,wg-a,,,,AAXX 01154 07690 12/81 11704 10170 20020 30018 40049 53006 60006 80002 91500=
07690,1997-12-01 18:00:00,10,1006.1,1.2,66,4,15000,18.52,,,330,9.2,18.2,,,,,,,,,wg-a,,,,AAXX 01184 07690 12/65 03310 10100 20040 30030 40061 52012 60006 80000 91800 333 10182 20092=
07690,1997-12-01 21:00:00,9,1006.6,0.4,61,2,15000,18.52,,,340,,,,,,,,,,,wg-a,,,,AAXX 01214 07690 12/65 03410 10090 20020 30034 40066 51004 60006 80000 92100=
07690,1997-12-02 00:00:00,9,1005.9,-0.7,57,1,20000,22.224,,,340,,,,,,,,,,,wg-a,,,,AAXX 02004 07690 12/70 03412 10090 20010 30027 40059 58007 60006 80000 90000=
07690,1997-12-02 03:00:00,9,1004.4,-1.5,53,0,20000,25.928,,,330,,,,,,,,,,,wg-a,,,,AAXX 02034 07690 12/70 33314 10090 20000 30012 40044 58015 60006 83030 90300=
07690,1997-12-02 06:00:00,7,1003,-1.4,61,0,20000,25.928,,,330,7.3,9.9,,,,,,,,,wg-a,,,,AAXX 02064 07690 02570 /3314 10070 20000 39998 40030 58014 60006 81530 90600 333 10099 20073 60004=
07690,1997-12-02 12:00:00,11,999.1,-2.5,54,2,12000,11.112,,,330,,,,,,,,,,3,wg-a,,,,AAXX 02124 07690 02562 73306 10110 20020 39960 49991 58025 61000 70361 8383/ 91200 333 6100=
07690,1997-12-02 15:00:00,13,995.4,-3.7,51,3,20000,42.596,,,260,,,,,,,,,,1,wg-a,,,,AAXX 02154 07690 02570 22623 10130 20030 39923 49954 56037 61000 70161 82230 91500 333 ////=
07690,1997-12-02 18:00:00,11,994.2,-1.2,58,3,20000,35.188,,,250,7.2,12.7,,,,,,,,1,wg-a,,,,AAXX 02184 07690 12570 /2519 10110 20030 39911 49942 58012 60006 70161 81130 91800 333 10127 20072=
07690,1997-12-02 21:00:00,9,992.3,-1.9,46,-2,20000,22.224,,,280,,,,,,,,,,,wg-a,,,,AAXX 02214 07690 12/70 02812 10090 21020 39892 49923 56019 60006 80000 92100=
07690,1997-12-03 00:00:00,9,990.8,-1.5,37,-5,40000,14.816,,,280,,,,,,,,,,,wg-a,,,,AAXX 03004 07690 12/82 02808 10090 21050 39877 49908 56015 60006 80000 90000=
07690,1997-12-03 03:00:00,9,990,-0.8,31,-7,40000,11.112,,,330,,,,,,,,,,,wg-a,,,,AAXX 03034 07690 12/82 03306 10090 21070 39869 49900 58008 60006 80000 90300=
07690,1997-12-03 06:00:00,8,990.8,0.8,29,-9,40000,3.704,,,280,7.3,11,,,,,,,,,wg-a,,,,AAXX 03064 07690 02/82 32802 10080 21090 39877 49908 53008 60006 81042 90600 333 10110 20073 61000=
07690,1997-12-03 09:00:00,9,992.6,1.8,34,-6,50000,18.52,,,350,,,,,,,,,,,wg-a,,,,AAXX 03094 07690 12684 43510 10090 21060 39895 49926 51018 60006 81532 90900=
07690,1997-12-03 12:00:00,13,993.9,1.3,38,-1,50000,11.112,,,330,,,,,,,,,,,wg-a,,,,AAXX 03124 07690 12684 /3306 10130 21010 39908 49939 50013 60006 81830 91200=
07690,1997-12-03 15:00:00,12,994.8,0.9,38,-2,50000,18.52,,,260,,,,,,,,,,,wg-a,,,,AAXX 03154 07690 12584 /2610 10120 21020 39917 49948 53009 60006 81100 91500=
07690,1997-12-04 00:00:00,7,1002.2,2.4,42,-5,20000,25.928,,,320,,,,,,,,,,,wg-a,,,,AAXX 04004 07690 12/70 03214 10070 21050 39990 40022 51024 60006 80000 90000=
07690,1997-12-04 03:00:00,6,1004,1.8,45,-5,20000,14.816,,,340,,,,,,,,,,,wg-a,,,,AAXX 04034 07690 12/70 03408 10060 21050 30008 40040 53018 60006 80000 90300=
07690,1997-12-04 06:00:00,6,1005.4,1.4,45,-5,20000,18.52,,,340,5.3,9,,,,,,,,,wg-a,,,,AAXX 04064 07690 02570 43410 10060 21050 30022 40054 53014 60006 81232 90600 333 10090 20053 60004=
07690,1997-12-04 09:00:00,7,1007.2,1.8,45,-4,40000,25.928,,,330,,,,,,,,,,,wg-a,,,,AAXX 04094 07690 12582 33314 10070 21040 30040 40072 52018 60006 81232 90900=
07690,1997-12-04 12:00:00,11,1007.3,0.2,40,-2,35000,14.816,,,330,,,,,,,,,,,wg-a,,,,AAXX 04124 07690 12581 63308 10110 21020 30042 40073 50002 60006 81232 91200=
07690,1997-12-04 15:00:00,11,1007.8,0.5,58,3,35000,0,,,0,,,,,,,,,,25,wg-a,,,,AAXX 04154 07690 02581 70000 10110 20030 30047 40078 53005 61000 72586 83808 91500 333 ////=
07690,1997-12-04 18:00:00,12,1009.6,1.8,62,5,25000,25.928,,,100,5.3,13.7,,,,,,,,25,wg-a,,,,AAXX 04184 07690 02475 71014 10120 20050 30065 40096 53018 61000 72586 878// 91800 333 10137 20053 6001=
07690,1997-12-04 21:00:00,7,1011,1.3,76,3,25000,18.52,,,340,,,,,,,,,,,wg-a,,,,AAXX 04214 07690 12575 53410 10070 20030 30078 40110 51013 60006 83802 92100=
07690,1997-12-05 00:00:00,7,1011.7,0.7,70,2,25000,22.224,,,330,,,,,,,,,,,wg-a,,,,AAXX 05004 07690 12575 73312 10070 20020 30085 40117 51007 60006 83832 90000=
07690,1997-12-05 03:00:00,7,1012,0.3,70,2,25000,25.928,,,330,,,,,,,,,,,wg-a,,,,AAXX 05034 07690 12575 73314 10070 20020 30088 40120 50003 60006 8183/ 90300=
07690,1997-12-05 06:00:00,6,1012.2,0.2,70,1,25000,18.52,,,340,6.3,11.8,,,,,1,,,,wg-a,,,,AAXX 05064 07690 02/75 13410 10060 20010 30090 40122 53002 60006 81031 90600 333 10118 20063 60014=
07690,1997-12-05 09:00:00,8,1013.3,1.1,57,0,35000,22.224,,,330,,,,,,,,,,,wg-a,,,,AAXX 05094 07690 12581 33312 10080 20000 30101 40133 51011 60006 81501 90900=
07690,1997-12-05 12:00:00,13,1012.8,-0.4,44,1,35000,11.112,,,320,,,,,,,,,,,wg-a,,,,AAXX 05124 07690 12681 33206 10130 20010 30097 40128 58004 60006 81101 91200=
07690,1997-12-05 15:00:00,14,1012.8,-0,44,2,35000,11.112,,,290,,,,,,,,,,,wg-a,,,,AAXX 05154 07690 12681 32906 10140 20020 30097 40128 55000 60006 81101 91500=
07690,1997-12-05 18:00:00,8,1014.4,1.5,71,3,20000,7.408,,,350,6.2,16.3,,,,,,,,,wg-a,,,,AAXX 05184 07690 12/70 33504 10080 20030 30112 40144 53015 60006 81031 91800 333 10163 20062=
07690,1997-12-05 21:00:00,8,1015.7,1.3,53,-1,20000,18.52,,,330,,,,,,,,,,,wg-a,,,,AAXX 05214 07690 12/70 13310 10080 21010 30125 40157 51013 60006 80001 92100=
07690,1997-12-06 00:00:00,6,1015.7,0,61,-1,20000,29.632,,,330,,,,,,,,,,,wg-a,,,,AAXX 06004 07690 12/70 03316 10060 21010 30125 40157 50000 60006 80000 90000=
07690,1997-12-06 03:00:00,6,1015.7,-0,56,-2,20000,25.928,,,330,,,,,,,,,,,wg-a,,,,AAXX 06034 07690 12/70 03314 10060 21020 30125 40157 54000 60006 80000 90300=
07690,1997-12-06 06:00:00,5,1016.1,0.4,60,-2,20000,25.928,,,330,4.8,8.1,,,,,,,,,wg-a,,,,AAXX 06064 07690 02570 13314 10050 21020 30129 40161 53004 60006 81500 90600 333 10081 20048 60004=
07690,1997-12-06 12:00:00,12,1016.8,-0.6,38,-2,500,3.704,,,320,,,,,,,,,,,wg-a,,,,AAXX 06124 07690 12/00 13202 10120 21020 30136 40168 58006 60006 80001 91200=
07690,1997-12-06 15:00:00,14,1016.1,-0.6,44,2,20000,3.704,,,240,,,,,,,,,,,wg-a,,,,AAXX 06154 07690 12/70 22402 10140 20020 30130 40161 55006 60006 80001 91500=
07690,1997-12-06 18:00:00,7,1018,1.8,70,2,10000,18.52,,,330,4.6,14.5,,,,,,,,,wg-a,,,,AAXX 06184 07690 12/60 03310 10070 20020 30148 40180 53018 60006 80000 91800 333 10145 20046=
07690,1997-12-06 21:00:00,7,1018.9,0.9,61,0,10000,22.224,,,340,,,,,,,,,,,wg-a,,,,AAXX 06214 07690 12/60 03412 10070 20000 30157 40189 53009 60006 80000 92100=
07690,1997-12-07 00:00:00,6,1019,0.1,61,-1,15000,29.632,,,330,,,,,,,,,,,wg-a,,,,AAXX 07004 07690 12/65 03316 10060 21010 30158 40190 50001 60006 80000 90000=
07690,1997-12-07 06:00:00,5,1018.7,0.3,56,-3,15000,29.632,,,330,4.7,7,,,,,,,,,wg-a,,,,AAXX 07064 07690 02465 13316 10050 21030 30155 40187 50003 60006 81100 90600 333 10070 20047 60004=
07690,1997-12-07 12:00:00,12,1018.6,-0.8,44,0,25000,7.408,,,300,,,,,,,,,,,wg-a,,,,AAXX 07124 07690 12575 /3004 10120 20000 30154 40186 58008 60006 81100 91200=
07690,1997-12-07 15:00:00,12,1017.3,-1.2,71,7,17000,14.816,,,220,,,,,,,,,,,wg-a,,,,AAXX 07154 07690 12567 /2208 10120 20070 30142 40173 56012 60006 81100 91500=
07690,1997-12-07 18:00:00,7,1017.4,-0,81,4,10000,18.52,,,330,4.7,14.1,,,,,,,,,wg-a,,,,AAXX 07184 07690 12/60 /3310 10070 20040 30142 40174 55000 60006 80000 91800 333 10141 20047=
07690,1997-12-07 21:00:00,6,1017.2,-0.2,75,2,11000,22.224,,,330,,,,,,,,,,,wg-a,,,,AAXX 07214 07690 12/61 03312 10060 20020 30140 40172 57002 60006 80000 92100=
07690,1997-12-08 00:00:00,6,1016.5,-0.7,65,0,12000,22.224,,,330,,,,,,,,,,,wg-a,,,,AAXX 08004 07690 12/62 03312 10060 20000 30133 40165 58007 60006 80000 90000=
07690,1997-12-08 03:00:00,6,1015.7,-0.8,61,-1,12000,25.928,,,330,,,,,,,,,,,wg-a,,,,AAXX 08034 07690 12/62 03314 10060 21010 30125 40157 56008 60006 80000 90300=
07690,1997-12-08 06:00:00,5,1015.4,-0.3,65,-1,15000,25.928,,,330,4.9,7.1,,,,,,,,,wg-a,,,,AAXX 08064 07690 02/65 03314 10050 21010 30122 40154 55003 60006 80000 90600 333 10071 20049 60004=
07690,1997-12-08 09:00:00,7,1016,0.6,53,-2,15000,18.52,,,330,,,,,,,,,,,wg-a,,,,AAXX 08094 07690 12865 63310 10070 21020 30128 40160 53006 60006 82031 90900=
07690,1997-12-08 12:00:00,11,1014.7,-1.3,54,2,13000,7.408,,,330,,,,,,,,,,,wg-a,,,,AAXX 08124 07690 12663 /3304 10110 20020 30115 40147 58013 60006 81271 91200=
07690,1997-12-08 15:00:00,12,1013.6,-1,67,6,20000,3.704,,,220,,,,,,,,,,,wg-a,,,,AAXX 08154 07690 12670 /2202 10120 20060 30105 40136 56010 60006 81274 91500=
07690,1997-12-08 18:00:00,8,1014,0.3,81,5,8000,18.52,,,330,4.9,12.9,,,,,,,,,wg-a,,,,AAXX 08184 07690 12858 23310 10080 20050 30108 40140 53003 60006 81072 91800 333 10129 20049=
07690,1997-12-08 21:00:00,8,1014.2,0.2,76,4,15000,18.52,,,340,,,,,,,,,,,wg-a,,,,AAXX 08214 07690 12665 23410 10080 20040 30110 40142 53002 60006 81572 92100=
07690,1997-12-09 00:00:00,7,1013.9,-0.3,76,3,15000,25.928,,,330,,,,,,,,,,,wg-a,,,,AAXX 09004 07690 12665 53314 10070 20030 30107 40139 57003 60006 82532 90000=
07690,1997-12-09 03:00:00,7,1013.8,-0.1,70,2,15000,22.224,,,330,,,,,,,,,,,wg-a,,,,AAXX 09034 07690 12665 33312 10070 20020 30106 40138 58001 60006 83500 90300=
07690,1997-12-09 06:00:00,7,1013.9,0.1,70,2,20000,22.224,,,330,6.7,8.1,,,,,,,,,wg-a,,,,AAXX 09064 07690 02570 73312 10070 20020 30107 40139 53001 60006 85502 90600 333 10081 20067 60004=
07690,1997-12-09 09:00:00,8,1015.3,1.4,71,3,10000,22.224,,,330,,,,,,,,,,,wg-a,,,,AAXX 09094 07690 12460 /3312 10080 20030 30121 40153 53014 60006 81532 90900=
07690,1997-12-09 12:00:00,11,1014.3,-0.9,62,4,10000,14.816,,,330,,,,,,,,,,,wg-a,,,,AAXX 09124 07690 12560 23308 10110 20040 30112 40143 58009 60006 81101 91200=
07690,1997-12-09 18:00:00,9,1016.5,1.9,81,6,8000,14.816,,,330,7.1,14.9,,,,,,,,,wg-a,,,,AAXX 09184 07690 12558 /3308 10090 20060 30133 40165 52019 60006 86500 91800 333 10149 20071=
07690,1997-12-09 21:00:00,8,1017.5,1,81,5,10000,22.224,,,340,,,,,,,,,,,wg-a,,,,AAXX 09214 07690 12560 23412 10080 20050 30143 40175 51010 60006 82500 92100=
07690,1997-12-10 00:00:00,8,1018,0.5,76,4,12000,25.928,,,330,,,,,,,,,,,wg-a,,,,AAXX 10004 07690 12562 /3314 10080 20040 30148 40180 50005 60006 81500 90000=
07690,1997-12-10 06:00:00,7,1019.7,0.9,70,2,12000,29.632,,,330,6.4,9.2,,,,,,,,,wg-a,,,,AAXX 10064 07690 02562 /3316 10070 20020 30165 40197 53009 60006 81502 90600 333 10092 20064 60004=
07690,1997-12-10 09:00:00,8,1021,1.3,66,2,15000,25.928,,,330,,,,,,,,,,,wg-a,,,,AAXX 10094 07690 12565 /3314 10080 20020 30178 40210 51013 60006 81504 90900=
07690,1997-12-10 12:00:00,13,1019.8,-1.2,51,3,10000,11.112,,,320,,,,,,,,,,,wg-a,,,,AAXX 10124 07690 12/60 73206 10130 20030 30166 40198 58012 60006 80004 91200=
07690,1997-12-10 18:00:00,10,1019.1,0,71,5,12000,14.816,,,330,6.4,13.7,,,,,,,,,wg-a,,,,AAXX 10184 07690 12/62 73308 10100 20050 30159 40191 50000 60006 84034 91800 333 10137 20064=
07690,1997-12-10 21:00:00,9,1018,-1.1,71,4,12000,14.816,,,330,,,,,,,,,,,wg-a,,,,AAXX 10214 07690 12/62 73308 10090 20040 30148 40180 57011 60006 85032 92100=
07690,1997-12-11 00:00:00,8,1017.7,-0.3,76,4,12000,18.52,,,330,,,,,,,,,,,wg-a,,,,AAXX 11004 07690 12/62 73310 10080 20040 30145 40177 56003 60006 85032 90000=
07690,1997-12-11 03:00:00,8,1017.6,-0.1,76,4,15000,25.928,,,330,,,,,,,,,,,wg-a,,,,AAXX 11034 07690 12/65 23314 10080 20040 30144 40176 56001 60006 81032 90300=
07690,1997-12-11 06:00:00,7,1017.5,-0.1,76,3,20000,18.52,,,340,7.4,9.8,,,,,,,,,wg-a,,,,AAXX 11064 07690 02570 23410 10070 20030 30143 40175 55001 60006 81501 90600 333 10098 20074 60004=
07690,1997-12-11 09:00:00,9,1018.1,0.6,66,3,20000,22.224,,,330,,,,,,,,,,,wg-a,,,,AAXX 11094 07690 12/70 73312 10090 20030 30149 40181 50006 60006 83032 90900=
07690,1997-12-11 12:00:00,11,1017.1,-1,62,4,9000,18.52,,,330,,,,,,,,,,4,wg-a,,,,AAXX 11124 07690 12659 73310 10110 20040 30139 40171 58010 60006 70411 81532 91200=
07690,1997-12-11 15:00:00,14,1015.9,-1.1,63,7,15000,3.704,,,160,,,,,,,,,,,wg-a,,,,AAXX 11154 07690 12665 /1602 10140 20070 30128 40159 56011 60006 81532 91500=
07690,1997-12-11 18:00:00,10,1014.8,-1.2,82,7,9000,14.816,,,330,7.1,14,,,,,,,,,wg-a,,,,AAXX 11184 07690 12659 /3308 10100 20070 30116 40148 58012 60006 81532 91800 333 10140 20071=
07690,1997-12-11 21:00:00,9,1012.9,-1.9,81,6,10000,18.52,,,340,,,,,,,,,,,wg-a,,,,AAXX 11214 07690 12460 /3410 10090 20060 30097 40129 58019 60006 81531 92100=
07690,1997-12-12 00:00:00,8,1010.8,-2.1,87,6,12000,14.816,,,330,,,,,,,,,,,wg-a,,,,AAXX 12004 07690 12/62 43308 10080 20060 30076 40108 58021 60006 81041 90000=
07690,1997-12-12 06:00:00,9,1006.8,-1.5,87,7,12000,14.816,,,350,8.1,11.1,,,,,,,,,wg-a,,,,AAXX 12064 07690 02/62 63508 10090 20070 30037 40068 56015 60006 86030 90600 333 10111 20081 60004=
07690,1997-12-12 09:00:00,11,1007.6,0.8,82,8,9000,11.112,,,340,,,,,,,,,,,wg-a,,,,AAXX 12094 07690 12/59 63406 10110 20080 30045 40076 51008 60006 83031 90900=
07690,1997-12-12 12:00:00,16,1007.5,-0.1,72,11,500,14.816,,,90,,,,,,,,,,,wg-a,,,,AAXX 12124 07690 12/00 20908 10160 20110 30044 40075 58001 60006 82031 91200=
07690,1997-12-12 18:00:00,11,1010.9,2.7,87,9,9000,11.112,,,320,8.5,16.4,,,,,,,,,wg-a,,,,AAXX 12184 07690 12/59 33206 10110 20090 30078 40109 53027 60006 80001 91800 333 10164 20085=
07690,1997-12-12 21:00:00,10,1012.8,1.8,46,-1,15000,14.816,,,340,,,,,,,,,,,wg-a,,,,AAXX 12214 07690 12/65 43408 10100 21010 30096 40128 51018 60006 80001 92100=
07690,1997-12-13 00:00:00,11,1013.1,0.3,35,-4,15000,18.52,,,340,,,,,,,,,,,wg-a,,,,AAXX 13004 07690 12/65 23410 10110 21040 30099 40131 51003 60006 80001 90000=
07690,1997-12-13 06:00:00,9,1014,0.7,37,-5,10000,11.112,,,340,8.6,10.8,,,,,,,,,wg-a,,,,AAXX 13064 07690 02/60 /3406 10090 21050 30108 40140 53007 60006 90600 333 10108 20086 60004=
07690,1997-12-13 09:00:00,11,1015.9,1.9,37,-3,50000,22.224,,,340,,,,,,,,,,,wg-a,,,,AAXX 13094 07690 12/84 53412 10110 21030 30127 40159 51019 60006 83071 90900=
07690,1997-12-13 12:00:00,15,1016.4,0.6,33,-1,50000,7.408,,,340,,,,,,,,,,,wg-a,,,,AAXX 13124 07690 12584 23404 10150 21010 30133 40164 51006 60006 81102 91200=
07690,1997-12-13 15:00:00,16,1018,1.6,51,6,35000,3.704,,,260,,,,,,,,,,,wg-a,,,,AAXX 13154 07690 12681 /2602 10160 20060 30149 40180 53016 60006 81102 91500=
07690,1997-12-13 18:00:00,9,1019.5,1.4,57,1,500,22.224,,,340,8.7,17.8,,,,,,,,,wg-a,,,,AAXX 13184 07690 12/00 13412 10090 20010 30163 40195 53014 60006 80002 91800 333 10178 20087=
07690,1997-12-14 00:00:00,8,1021.6,1,42,-4,20000,22.224,,,340,,,,,,,,,,,wg-a,,,,AAXX 14004 07690 12/70 03412 10080 21040 30184 40216 53010 60006 80000 90000=
07690,1997-12-14 03:00:00,7,1021.6,0,45,-4,20000,29.632,,,330,,,,,,,,,,,wg-a,,,,AAXX 14034 07690 12/70 03316 10070 21040 30184 40216 50000 60006 80000 90300=
07690,1997-12-14 06:00:00,6,1022,0.4,42,-6,20000,29.632,,,330,6.2,9.8,,,,,,,,,wg-a,,,,AAXX 14064 07690 02/70 03316 10060 21060 30188 40220 53004 60006 80000 90600 333 10098 20062 60004=
07690,1997-12-14 09:00:00,8,1022.6,0.6,39,-5,50000,29.632,,,330,,,,,,,,,,,wg-a,,,,AAXX 14094 07690 12/84 03316 10080 21050 30194 40226 53006 60006 80000 90900=
07690,1997-12-14 12:00:00,12,1020.6,-2,35,-3,35000,11.112,,,320,,,,,,,,,,,wg-a,,,,AAXX 14124 07690 12/81 13206 10120 21030 30174 40206 58020 60006 80002 91200=
07690,1997-12-14 15:00:00,14,1018.1,-2.4,51,4,500,22.224,,,210,,,,,,,,,,,wg-a,,,,AAXX 14154 07690 12500 /2112 10140 20040 30150 40181 56024 60006 81102 91500=
07690,1997-12-14 18:00:00,9,1016.8,-1.4,66,3,20000,11.112,,,320,5.7,15.4,,,,,,,,,wg-a,,,,AAXX 14184 07690 12670 /3206 10090 20030 30136 40168 56014 60006 86500 91800 333 10154 20057=
07690,1997-12-14 21:00:00,7,1014.9,-1.9,70,2,20000,22.224,,,330,,,,,,,,,,,wg-a,,,,AAXX 14214 07690 12570 /3312 10070 20020 30117 40149 56019 60006 81800 92100=
07690,1997-12-15 00:00:00,6,1013.2,-1.7,70,1,15000,25.928,,,330,,,,,,,,,,,wg-a,,,,AAXX 15004 07690 12465 /3314 10060 20010 30100 40132 58017 60006 81102 90000=
07690,1997-12-15 03:00:00,6,1011.7,-1.5,65,0,15000,25.928,,,340,,,,,,,,,,13,wg-a,,,,AAXX 15034 07690 12465 23414 10060 20000 30085 40117 56015 60006 71300 82930 90300=
07690,1997-12-15 06:00:00,6,1011.4,-0.3,61,-1,15000,22.224,,,330,5.8,9.4,,,,,,,,13,wg-a,,,,AAXX 15064 07690 02465 73312 10060 21010 30082 40114 55003 60006 71311 8593/ 90600 333 10094 20058 60004=
07690,1997-12-15 09:00:00,9,1012.8,1.4,49,-1,500,35.188,,,80,,,,,,,,,,,wg-a,,,,AAXX 15094 07690 12400 70819 10090 21010 30096 40128 53014 60006 8397/ 90900=
07690,1997-12-15 12:00:00,10,1012.8,0,40,-3,25000,18.52,,72.228,30,,,,,,,,,,15,wg-a,,,,AAXX 15124 07690 02575 80310 10100 21030 30096 40128 50000 61000 71562 8587/ 91200 333 6100 91039=
07690,1997-12-15 15:00:00,11,1012.5,-0.3,32,-5,500,22.224,,57.412,30,,,,,,,,,,,wg-a,,,,AAXX 15154 07690 12500 70312 10110 21050 30093 40125 56003 60006 8287/ 91500 333 91031=
07690,1997-12-15 18:00:00,10,1012.9,0.4,29,-7,25000,22.224,,,30,5.9,10.9,,,,,,,,,wg-a,,,,AAXX 15184 07690 12675 /0312 10100 21070 30097 40129 53004 60006 81932 91800 333 10109 20059=
07690,1997-12-16 00:00:00,5,1014.7,0.3,56,-3,20000,29.632,,,60,,,,,,,,,,,wg-a,,,,AAXX 16004 07690 12/70 /0616 10050 21030 30115 40147 51003 60006 85032 90000=
07690,1997-12-16 03:00:00,4,1014.4,-0.3,56,-4,20000,29.632,,,70,,,,,,,,,,,wg-a,,,,AAXX 16034 07690 12/70 /0716 10040 21040 30112 40144 58003 60006 81032 90300=
07690,1997-12-16 06:00:00,3,1015.2,0.7,56,-5,20000,11.112,,,10,2.6,10.1,,,,,,,,,wg-a,,,,AAXX 16064 07690 02/70 /0106 10030 21050 30119 40152 53007 60006 81030 90600 333 10101 20026 61000=
07690,1997-12-16 15:00:00,11,1016.1,-0.3,28,-7,25000,31.484,,75.932,60,,,,,,,,,,,wg-a,,,,AAXX 16154 07690 12575 80617 10110 21070 30129 40161 55003 60006 8187/ 91500 333 91041=
07690,1997-12-16 18:00:00,10,1016.2,0.1,29,-7,20000,25.928,,,50,2.4,11.1,,,,,,,,,wg-a,,,,AAXX 16184 07690 12570 80514 10100 21070 30130 40162 53001 60006 8157/ 91800 333 10111 20024=
07690,1997-12-16 21:00:00,7,1017.5,1.3,66,1,12000,35.188,,,40,,,,0,,,,,,61,wg-a,,,,AAXX 16214 07690 12262 80419 10070 20010 30143 40175 53013 60007 76162 859// 92100=
07690,1997-12-17 00:00:00,6,1016.9,-0.6,75,2,11000,22.224,,,20,,,,0,,,,,,,wg-a,,,,AAXX 17004 07690 02/61 /0212 10060 20020 30137 40169 55006 60016 90000 333 60007=
07690,1997-12-17 03:00:00,6,1016.5,-0.4,75,2,12000,14.816,,,30,,,,1,,,,,,21,wg-a,,,,AAXX 17034 07690 12462 80308 10060 20020 30133 40165 58004 60017 72162 8587/ 90300=
07690,1997-12-17 06:00:00,7,1016.1,-0.4,76,3,15000,18.52,,,20,5.4,10.5,,,,,,,,60,wg-a,,,,AAXX 17064 07690 02565 80210 10070 20030 30129 40161 55004 61000 76062 8657/ 90600 333 10105 20054 6002=
07690,1997-12-17 09:00:00,7,1016.7,0.6,81,4,20000,29.632,,,20,,,,2,,,,,,61,wg-a,,,,AAXX 17094 07690 12470 80216 10070 20040 30135 40167 52006 60027 76166 8687/ 90900=
07690,1997-12-17 12:00:00,6,1016.6,-0.1,87,4,12000,18.52,,,10,,,,2,,,,,,21,wg-a,,,,AAXX 17124 07690 02562 80110 10060 20040 30134 40166 58001 60046 72162 8657/ 91200 333 60027=
07690,1997-12-17 18:00:00,7,1016.8,0.7,87,5,12000,18.52,,,340,5.6,7.3,,,,,,,,61,wg-a,,,,AAXX 17184 07690 02562 83410 10070 20050 30136 40168 51007 61000 76162 8657/ 91800 333 10073 20056 6002=
07690,1997-12-17 21:00:00,7,1017.6,0.8,87,5,12000,22.224,,,330,,,,1,,,,,,60,wg-a,,,,AAXX 17214 07690 12462 83312 10070 20050 30144 40176 51008 60017 76066 8587/ 92100=
07690,1997-12-18 00:00:00,8,1017.6,0,81,5,12000,18.52,,,340,,,,,,,,,,1,wg-a,,,,AAXX 18004 07690 02462 83410 10080 20050 30144 40176 50000 60016 70162 8687/ 90000 333 61000=
07690,1997-12-18 03:00:00,7,1016.6,-1,93,6,15000,22.224,,,330,,,,,,,,,,60,wg-a,,,,AAXX 18034 07690 02465 83312 10070 20060 30134 40166 58010 61000 76062 8687/ 90300 333 ////=
07690,1997-12-18 06:00:00,8,1015.5,-1.1,87,6,15000,18.52,,,330,6.5,8.4,,,,,,,,21,wg-a,,,,AAXX 18064 07690 02465 83310 10080 20060 30123 40155 56011 61000 72162 8687/ 90600 333 10084 20065 6007=
07690,1997-12-18 09:00:00,8,1015.9,0.4,93,7,12000,11.112,,,350,,,,2,,,,,,60,wg-a,,,,AAXX 18094 07690 12562 83506 10080 20070 30127 40159 50004 60027 76062 8457/ 90900=
07690,1997-12-18 12:00:00,9,1014.6,-1.3,93,8,7000,18.52,,,340,,,,5,,,,,,61,wg-a,,,,AAXX 18124 07690 02557 83410 10090 20080 30114 40146 58013 60066 76162 8557/ 91200 333 60057=
07690,1997-12-18 15:00:00,9,1012.9,-1.7,93,8,7000,11.112,,,340,,,,10,,,,,,61,wg-a,,,,AAXX 18154 07690 12457 83406 10090 20080 30097 40129 58017 60107 76166 8557/ 91500=
07690,1997-12-18 18:00:00,11,1011.6,-1.2,94,10,10000,25.928,,,30,8.1,11.2,,,,,,,,61,wg-a,,,,AAXX 18184 07690 02560 80314 10110 20100 30085 40116 56012 61000 76166 8657/ 91800 333 10112 20081 6006=
07690,1997-12-18 21:00:00,10,1010.1,-1.5,93,9,10000,14.816,,,340,,,,8,,,,,,10,wg-a,,,,AAXX 18214 07690 12260 83408 10100 20090 30070 40101 58015 60087 71066 8757/ 92100=
07690,1997-12-19 00:00:00,11,1009.3,-0.8,87,9,12000,29.632,,,70,,,,4,,,,,,61,wg-a,,,,AAXX 19004 07690 02462 80716 10110 20090 30062 40093 58008 60126 76162 8757/ 90000 333 60047=
07690,1997-12-19 03:00:00,13,1007.9,-1.4,88,11,10000,25.928,,,80,,,,5,,,,,,60,wg-a,,,,AAXX 19034 07690 12260 80814 10130 20110 30048 40079 56014 60057 76066 8757/ 90300=
07690,1997-12-19 06:00:00,10,1008.4,0.5,93,9,14000,14.816,,,330,9.2,13.1,,,,,,,,51,wg-a,,,,AAXX 19064 07690 02364 83308 10100 20090 30053 40084 52005 61000 75165 875// 90600 333 10131 20092 6039=
07690,1997-12-19 09:00:00,9,1009.5,1,93,8,6000,22.224,,,330,,,,10,,,,,,10,wg-a,,,,AAXX 19094 07690 12256 83312 10090 20080 30063 40095 53010 60107 71086 878// 90900=
07690,1997-12-19 12:00:00,10,1007.9,-1.5,93,9,9000,14.816,,,360,,,,3,,,,,,10,wg-a,,,,AAXX 19124 07690 02259 83608 10100 20090 30048 40079 58015 60146 71086 878// 91200 333 60037=
07690,1997-12-19 15:00:00,10,1006.4,-1.5,93,9,9000,14.816,,,340,,,,2,,,,,,60,wg-a,,,,AAXX 19154 07690 12259 83408 10100 20090 30033 40064 56015 60027 76086 878// 91500=
07690,1997-12-19 18:00:00,12,1004.3,-2.1,94,11,6000,35.188,,,80,8.9,12.9,,,,,,,,63,wg-a,,,,AAXX 19184 07690 02456 80819 10120 20110 30012 40043 56021 61000 76386 8787/ 91800 333 10129 20089 6007=
07690,1997-12-19 21:00:00,13,1002.3,-2,94,12,500,35.188,,,90,,,,25,,,,,,63,wg-a,,,,AAXX 19214 07690 12200 80919 10130 20120 39992 40023 58020 60257 76366 878// 92100=
07690,1997-12-20 00:00:00,13,999.7,-2.6,100,13,500,35.188,,,120,,,,30,,,,,,61,wg-a,,,,AAXX 20004 07690 02200 81219 10130 20130 39966 49997 58026 60556 76166 878// 90000 333 60307=
07690,1997-12-20 03:00:00,10,999.5,-0.2,93,9,10000,14.816,,,330,,,,6,,,,,,60,wg-a,,,,AAXX 20034 07690 12460 83308 10100 20090 39964 49995 55002 60067 76066 8657/ 90300=
07690,1997-12-20 06:00:00,8,999,-0.5,93,7,20000,11.112,,,330,8.2,13.2,,,,,,,,21,wg-a,,,,AAXX 20064 07690 02470 /3306 10080 20070 39959 49990 58005 61000 72162 8587/ 90600 333 10132 20082 6089=
07690,1997-12-20 09:00:00,10,1001.1,2.1,82,7,12000,11.112,,,330,,,,,,,,,,,wg-a,,,,AAXX 20094 07690 12462 /3306 10100 20070 39980 40011 52021 60006 81800 90900=
07690,1997-12-20 15:00:00,14,1000.2,-0.3,72,9,40000,7.408,,,230,,,,,,,,,,,wg-a,,,,AAXX 20154 07690 12482 22304 10140 20090 39971 40002 55003 60006 81801 91500=
07690,1997-12-20 18:00:00,10,1001.3,1.1,82,7,20000,14.816,,,330,7.6,14.7,,,,,,,,,wg-a,,,,AAXX 20184 07690 12570 53308 10100 20070 39982 40013 51011 60006 85500 91800 333 10147 20076=
07690,1997-12-20 21:00:00,9,1003,1.7,87,7,25000,11.112,,,320,,,,,,,,,,,wg-a,,,,AAXX 20214 07690 12475 23206 10090 20070 39999 40030 51017 60006 81501 92100=
07690,1997-12-21 00:00:00,7,1003.6,0.5,93,6,25000,18.52,,,330,,,,,,,,,,,wg-a,,,,AAXX 21004 07690 12475 23310 10070 20060 30004 40036 51005 60006 81501 90000=
07690,1997-12-21 03:00:00,7,1004.3,0.7,81,4,25000,18.52,,,340,,,,,,,,,,,wg-a,,,,AAXX 21034 07690 12475 23410 10070 20040 30011 40043 51007 60006 82500 90300=
07690,1997-12-21 06:00:00,7,1005.5,1.2,81,4,25000,22.224,,,330,6.7,12,,,,,,,,,wg-a,,,,AAXX 21064 07690 02475 33312 10070 20040 30023 40055 53012 60006 82501 90600 333 10120 20067 60004=
07690,1997-12-21 09:00:00,8,1006.8,1.3,76,4,40000,22.224,,,330,,,,,,,,,,,wg-a,,,,AAXX 21094 07690 12582 /3312 10080 20040 30036 40068 53013 60006 81532 90900=
07690,1997-12-21 12:00:00,10,1005.8,-0.9,66,4,35000,11.112,,,330,,,,,,,,,,,wg-a,,,,AAXX 21124 07690 12581 /3306 10100 20040 30027 40058 58009 60006 81532 91200=
07690,1997-12-21 15:00:00,14,1005.9,0.1,63,7,500,7.408,,,70,,,,,,,,,,,wg-a,,,,AAXX 21154 07690 12500 /0704 10140 20070 30028 40059 53001 60006 81502 91500=
07690,1997-12-21 18:00:00,8,1006.9,0.9,87,6,20000,18.52,,,330,6.6,14.4,,,,,,,,,wg-a,,,,AAXX 21184 07690 12/70 03310 10080 20060 30037 40069 52009 60006 80000 91800 333 10144 20066=
07690,1997-12-21 21:00:00,8,1007.9,1,76,4,20000,22.224,,,330,,,,,,,,,,,wg-a,,,,AAXX 21214 07690 12/70 03312 10080 20040 30047 40079 51010 60006 80000 92100=
07690,1997-12-22 00:00:00,7,1008.4,0.5,76,3,20000,22.224,,,330,,,,,,,,,,,wg-a,,,,AAXX 22004 07690 12/70 03312 10070 20030 30052 40084 52005 60006 80000 90000=
07690,1997-12-22 03:00:00,7,1008.7,0.3,70,2,20000,25.928,,,330,,,,,,,,,,,wg-a,,,,AAXX 22034 07690 12/70 03314 10070 20020 30055 40087 50003 60006 80000 90300=
07690,1997-12-22 06:00:00,6,1009.2,0.5,75,2,20000,25.928,,,330,6.3,8.2,,,,,,,,,wg-a,,,,AAXX 22064 07690 02/70 03314 10060 20020 30060 40092 53005 60006 80000 90600 333 10082 20063 60004=
07690,1997-12-22 09:00:00,8,1011.7,2.5,61,1,50000,22.224,,,340,,,,,,,,,,,wg-a,,,,AAXX 22094 07690 12584 23412 10080 20010 30085 40117 53025 60006 82500 90900=
07690,1997-12-22 12:00:00,12,1010.8,-0.8,50,2,40000,14.816,,,310,,,,,,,,,,,wg-a,,,,AAXX 22124 07690 12682 /3108 10120 20020 30077 40108 58008 60006 81501 91200=
07690,1997-12-22 15:00:00,14,1011.9,1.1,67,8,20000,7.408,,,210,,,,,,,,,,,wg-a,,,,AAXX 22154 07690 12670 22104 10140 20080 30088 40119 53011 60006 81501 91500=
07690,1997-12-22 18:00:00,8,1013.4,1.4,81,5,500,18.52,,,330,6,14.4,,,,,,,,,wg-a,,,,AAXX 22184 07690 12/00 /3310 10080 20050 30102 40134 53014 60006 80000 91800 333 10144 20060=
07690,1997-12-22 21:00:00,8,1014.5,1.1,76,4,20000,18.52,,,330,,,,,,,,,,,wg-a,,,,AAXX 22214 07690 12570 /3310 10080 20040 30113 40145 53011 60006 81500 92100=
07690,1997-12-23 00:00:00,8,1015,0.5,71,3,20000,14.816,,,340,,,,,,,,,,,wg-a,,,,AAXX 23004 07690 12570 33408 10080 20030 30118 40150 51005 60006 81530 90000=
07690,1997-12-23 03:00:00,8,1015.2,0.2,71,3,20000,22.224,,,340,,,,,,,,,,,wg-a,,,,AAXX 23034 07690 12570 /3412 10080 20030 30120 40152 50002 60006 81570 90300=
07690,1997-12-23 06:00:00,8,1015.7,0.5,71,3,20000,22.224,,,330,7.5,8.2,,,,,,,,,wg-a,,,,AAXX 23064 07690 02570 /3312 10080 20030 30125 40157 53005 60006 81570 90600 333 10082 20075 60004=
07690,1997-12-23 09:00:00,8,1018.1,2.4,71,3,35000,25.928,,,330,,,,,,,,,,3,wg-a,,,,AAXX 23094 07690 02581 /3314 10080 20030 30149 40181 51024 61000 70362 83872 90900 333 ////=
07690,1997-12-23 12:00:00,12,1018.5,0.4,58,4,25000,7.408,,,320,,,,,,,,,,3,wg-a,,,,AAXX 23124 07690 02575 53204 10120 20040 30153 40185 50004 61000 70362 83832 91200 333 ////=
07690,1997-12-23 15:00:00,14,1019.5,1.1,67,8,25000,7.408,,,100,,,,,,,,,,,wg-a,,,,AAXX 23154 07690 12575 51004 10140 20080 30164 40195 53011 60006 82231 91500=
07690,1997-12-23 18:00:00,10,1022,2.4,82,7,15000,14.816,,,320,7.4,14.4,,,,,,,,,wg-a,,,,AAXX 23184 07690 12565 33208 10100 20070 30188 40220 53024 60006 83400 91800 333 10144 20074=
07690,1997-12-23 21:00:00,9,1023.9,1.9,81,6,15000,22.224,,,330,,,,,,,,,,,wg-a,,,,AAXX 23214 07690 12565 23312 10090 20060 30207 40239 51019 60006 82500 92100=
07690,1997-12-24 00:00:00,9,1025.4,1.5,76,5,15000,22.224,,,330,,,,,,,,,,,wg-a,,,,AAXX 24004 07690 12/65 03312 10090 20050 30222 40254 51015 60006 80000 90000=
07690,1997-12-24 03:00:00,8,1026.4,1,76,4,15000,22.224,,,340,,,,,,,,,,,wg-a,,,,AAXX 24034 07690 12/65 03412 10080 20040 30232 40264 51010 60006 80000 90300=
07690,1997-12-24 06:00:00,7,1026.7,0.3,76,3,15000,25.928,,,330,7.1,9.5,,,,,,,,,wg-a,,,,AAXX 24064 07690 02/65 13314 10070 20030 30235 40267 51003 60006 80002 90600 333 10095 20071 61000=
07690,1997-12-24 09:00:00,9,1029.1,2.4,66,3,40000,22.224,,,330,,,,,,,,,,,wg-a,,,,AAXX 24094 07690 12/82 23312 10090 20030 30259 40291 53024 60006 80002 90900=
07690,1997-12-24 12:00:00,13,1028.3,-0.8,51,3,500,7.408,,,310,,,,,,,,,,,wg-a,,,,AAXX 24124 07690 12/00 43104 10130 20030 30251 40283 58008 60006 80002 91200=
07690,1997-12-24 15:00:00,12,1027.6,-0.7,88,10,500,18.52,,,220,,,,,,,,,,,wg-a,,,,AAXX 24154 07690 12500 52210 10120 20100 30244 40276 56007 60006 81102 91500=
07690,1997-12-24 18:00:00,9,1028.1,0.5,81,6,20000,14.816,,,330,7.1,14.4,,,,,,,,,wg-a,,,,AAXX 24184 07690 12570 /3308 10090 20060 30249 40281 53005 60006 81102 91800 333 10144 20071=
07690,1997-12-24 21:00:00,9,1028.4,0.3,76,5,10000,14.816,,,330,,,,,,,,,,,wg-a,,,,AAXX 24214 07690 12560 /3308 10090 20050 30252 40284 53003 60006 81502 92100=
07690,1997-12-25 00:00:00,9,1027.7,-0.7,76,5,10000,18.52,,,330,,,,,,,,,,,wg-a,,,,AAXX 25004 07690 12/60 /3310 10090 20050 30245 40277 58007 60006 90000=
07690,1997-12-25 06:00:00,8,1025.8,-1,76,4,20000,22.224,,,340,7.6,9,,,,,,,,,wg-a,,,,AAXX 25064 07690 02570 73412 10080 20040 30226 40258 56010 60006 83530 90600 333 10090 20076 60004=
07690,1997-12-25 09:00:00,9,1027.4,1.6,71,4,20000,25.928,,,330,,,,,,,,,,,wg-a,,,,AAXX 25094 07690 12470 73314 10090 20040 30242 40274 51016 60006 85832 90900=
07690,1997-12-25 12:00:00,12,1025.6,-1.8,67,6,20000,14.816,,,330,,,,,,,,,,,wg-a,,,,AAXX 25124 07690 12570 53308 10120 20060 30224 40256 58018 60006 83832 91200=
07690,1997-12-25 18:00:00,10,1024.3,-0.3,87,8,15000,14.816,,,320,7.6,15.4,,,,,,,,,wg-a,,,,AAXX 25184 07690 12465 73208 10100 20080 30211 40243 55003 60006 855// 91800 333 10154 20076=
07690,1997-12-25 21:00:00,10,1023.2,-1.1,82,7,12000,18.52,,,330,,,,,,,,,,,wg-a,,,,AAXX 25214 07690 12462 73310 10100 20070 30200 40232 56011 60006 875// 92100=
07690,1997-12-26 00:00:00,11,1021.2,-2,76,7,12000,18.52,,,330,,,,,,,,,,,wg-a,,,,AAXX 26004 07690 12462 73310 10110 20070 30180 40212 58020 60006 875// 90000=
07690,1997-12-26 03:00:00,11,1018.7,-2.5,76,7,12000,18.52,,,330,,,,,,,,,,,wg-a,,,,AAXX 26034 07690 12462 73310 10110 20070 30155 40187 58025 60006 875// 90300=
07690,1997-12-26 06:00:00,10,1016.8,-1.9,82,7,12000,14.816,,,330,9.4,11.1,,,,,,,,,wg-a,,,,AAXX 26064 07690 02462 73308 10100 20070 30136 40168 56019 60006 875// 90600 333 10111 20094 60004=
07690,1997-12-26 09:00:00,11,1015.5,-1.3,76,7,15000,7.408,,,320,,,,,,,,,,,wg-a,,,,AAXX 26094 07690 12465 73204 10110 20070 30123 40155 57013 60006 8353/ 90900=
07690,1997-12-26 12:00:00,11,1013,-2.4,87,9,12000,7.408,,,250,,,,,,,,,,,wg-a,,,,AAXX 26124 07690 12562 72504 10110 20090 30099 40130 58024 60006 8453/ 91200=
07690,1997-12-26 18:00:00,10,1009.4,-1,82,7,10000,11.112,,,320,9.9,11.8,,,,,,,,,wg-a,,,,AAXX 26184 07690 12660 73206 10100 20070 30063 40094 55010 60006 8353/ 91800 333 10118 20099=
07690,1997-12-26 21:00:00,8,1009.2,-0.3,87,6,10000,14.816,,,310,,,,,,,,,,,wg-a,,,,AAXX 26214 07690 12/60 23108 10080 20060 30060 40092 58003 60006 80002 92100=
07690,1997-12-27 00:00:00,7,1007.9,-1.3,87,5,20000,14.816,,,330,,,,,,,,,,,wg-a,,,,AAXX 27004 07690 12/70 03308 10070 20050 30047 40079 58013 60006 80000 90000=
07690,1997-12-27 06:00:00,7,1006.4,-0.5,61,0,20000,11.112,,,330,5.9,10.1,,,,,,,,,wg-a,,,,AAXX 27064 07690 02/70 13306 10070 20000 30032 40064 55005 60006 80002 90600 333 10101 20059 60004=
07690,1997-12-27 09:00:00,10,1008,1.7,53,1,500,14.816,,,330,,,,,,,,,,,wg-a,,,,AAXX 27094 07690 12500 /3308 10100 20010 30049 40080 53017 60006 81532 90900=
07690,1997-12-27 12:00:00,15,1006.9,-1.1,55,6,500,14.816,,,250,,,,,,,,,,,wg-a,,,,AAXX 27124 07690 12500 12508 10150 20060 30038 40069 58011 60006 81132 91200=
07690,1997-12-27 15:00:00,15,1007.2,0.3,55,6,500,11.112,,,190,,,,,,,,,,,wg-a,,,,AAXX 27154 07690 12500 /1906 10150 20060 30041 40072 53003 60006 81130 91500=
07690,1997-12-27 21:00:00,9,1009.7,0.7,49,-1,500,11.112,,,340,,,,,,,,,,,wg-a,,,,AAXX 27214 07690 12/00 13406 10090 21010 30065 40097 50007 60006 81030 92100=
07690,1997-12-28 00:00:00,9,1009.5,-0.2,49,-1,500,18.52,,,340,,,,,,,,,,,wg-a,,,,AAXX 28004 07690 12/00 03410 10090 21010 30063 40095 58002 60006 80000 90000=
07690,1997-12-28 03:00:00,9,1009.9,0.4,46,-2,500,18.52,,,330,,,,,,,,,,,wg-a,,,,AAXX 28034 07690 12/00 03310 10090 21020 30067 40099 50004 60006 80000 90300=
07690,1997-12-28 06:00:00,8,1010.2,0.3,46,-3,500,11.112,,,350,7.5,10,,,,,,,,,wg-a,,,,AAXX 28064 07690 02/00 03506 10080 21030 30070 40102 53003 60006 80000 90600 333 10100 20075 60004=
07690,1997-12-28 09:00:00,9,1011.8,1.6,46,-2,50000,18.52,,,340,,,,,,,,,,,wg-a,,,,AAXX 28094 07690 12/84 /3410 10090 21020 30086 40118 51016 60006 80002 90900=
07690,1997-12-28 12:00:00,13,1010.2,-1.5,38,-1,50000,11.112,,,310,,,,,,,,,,,wg-a,,,,AAXX 28124 07690 12584 /3106 10130 21010 30071 40102 58015 60006 81201 91200=
07690,1997-12-28 15:00:00,15,1010.2,-0,51,5,35000,0,,,0,,,,,,,,,,,wg-a,,,,AAXX 28154 07690 12581 /0000 10150 20050 30071 40102 55000 60006 81231 91500=
07690,1997-12-28 18:00:00,8,1010.9,0.6,71,3,20000,11.112,,,330,7.2,15.4,,,,,,,,,wg-a,,,,AAXX 28184 07690 12/70 03306 10080 20030 30077 40109 53006 60006 80000 91800 333 10154 20072=
07690,1997-12-28 21:00:00,7,1011.3,0.4,66,1,15000,18.52,,,340,,,,,,,,,,,wg-a,,,,AAXX 28214 07690 12/65 23410 10070 20010 30081 40113 52004 60006 80002 92100=
07690,1997-12-29 03:00:00,6,1011.4,0.2,56,-2,15000,14.816,,,350,,,,,,,,,,,wg-a,,,,AAXX 29034 07690 12/65 03508 10060 21020 30082 40114 50002 60006 80000 90300=
07690,1997-12-29 06:00:00,6,1011.8,0.4,56,-2,15000,18.52,,,340,5.6,7.6,,,,,,,,,wg-a,,,,AAXX 29064 07690 02565 33410 10060 21020 30086 40118 53004 60006 83500 90600 333 10076 20056 60004=
07690,1997-12-29 09:00:00,7,1013.6,1.8,53,-2,50000,22.224,,,340,,,,,,,,,,,wg-a,,,,AAXX 29094 07690 12684 /3412 10070 21020 30104 40136 51018 60006 81500 90900=
07690,1997-12-29 12:00:00,12,1012.8,-0.7,38,-2,50000,14.816,,,320,,,,,,,,,,,wg-a,,,,AAXX 29124 07690 12684 /3208 10120 21020 30097 40128 58007 60006 81800 91200=
07690,1997-12-29 15:00:00,14,1012.8,-0,51,4,20000,3.704,,,230,,,,,,,,,,,wg-a,,,,AAXX 29154 07690 12670 /2302 10140 20040 30097 40128 55000 60006 81500 91500=
07690,1997-12-29 18:00:00,7,1014.2,1.3,76,3,500,18.52,,,330,5.2,14.3,,,,,,,,,wg-a,,,,AAXX 29184 07690 12600 23310 10070 20030 30110 40142 53013 60006 82500 91800 333 10143 20052=
07690,1997-12-30 00:00:00,6,1016.3,1,65,0,20000,22.224,,,340,,,,,,,,,,,wg-a,,,,AAXX 30004 07690 12570 33412 10060 20000 30131 40163 52010 60006 83530 90000=
07690,1997-12-30 03:00:00,6,1016.9,0.6,65,0,20000,25.928,,,330,,,,,,,,,,,wg-a,,,,AAXX 30034 07690 12570 /3314 10060 20000 30137 40169 50006 60006 81530 90300=
07690,1997-12-30 06:00:00,6,1017.6,0.7,61,-1,20000,25.928,,,330,5.2,7.5,,,,,,,,,wg-a,,,,AAXX 30064 07690 02570 73314 10060 21010 30144 40176 53007 60006 81531 90600 333 10075 20052 60004=
07690,1997-12-30 09:00:00,7,1019.4,1.8,57,-1,25000,25.928,,,330,,,,,,,,,,,wg-a,,,,AAXX 30094 07690 12575 73314 10070 21010 30162 40194 53018 60006 8387/ 90900=
07690,1997-12-30 12:00:00,8,1018.5,-0.9,53,-1,25000,22.224,,,330,,,,,,,,,,3,wg-a,,,,AAXX 30124 07690 02575 73312 10080 21010 30153 40185 58009 61000 70362 8587/ 91200 333 6100=
07690,1997-12-30 15:00:00,9,1017.7,-0.8,53,0,500,18.52,,,330,,,,,,,,,,,wg-a,,,,AAXX 30154 07690 12500 73310 10090 20000 30145 40177 56008 60006 83872 91500=
07690,1997-12-30 18:00:00,9,1018,0.3,57,1,11000,18.52,,,330,5.5,9,,,,,,,,,wg-a,,,,AAXX 30184 07690 12/61 /3310 10090 20010 30148 40180 53003 60006 91800 333 10090 20055=
07690,1997-12-31 00:00:00,8,1016.9,-1.2,66,2,15000,22.224,,,330,,,,,,,,,,21,wg-a,,,,AAXX 31004 07690 02465 83312 10080 20020 30137 40169 58012 61000 72162 8687/ 90000 333 6100=
07690,1997-12-31 06:00:00,9,1016.6,-0,61,2,15000,18.52,,,330,7.7,9.4,,,,,,,,,wg-a,,,,AAXX 31064 07690 02465 83310 10090 20020 30134 40166 55000 60006 878// 90600 333 10094 20077 61000=
07690,1997-12-31 09:00:00,10,1017.4,0.8,66,4,40000,14.816,,,330,,,,,,,,,,,wg-a,,,,AAXX 31094 07690 12582 73308 10100 20040 30142 40174 53008 60006 875// 90900=
07690,1997-12-31 12:00:00,13,1016.2,-1.1,62,6,500,14.816,,,330,,,,0,,,,,,,wg-a,,,,AAXX 31124 07690 02400 73308 10130 20060 30131 40162 58011 60006 875// 91200 333 60007=
07690,1997-12-31 18:00:00,11,1016,0.8,71,6,25000,18.52,,,330,9.1,12.8,,,,,,,,,wg-a,,,,AAXX 31184 07690 12475 73310 10110 20060 30128 40160 51008 60006 87500 91800 333 10128 20091=
07690,1997-12-31 21:00:00,10,1016.5,0.5,87,8,15000,18.52,,,330,,,,0,,,,,,60,wg-a,,,,AAXX 31214 07690 12465 73310 10100 20080 30133 40165 53005 60007 76065 875// 92100=
