station_id,dh_utc,temperature,pression,pression_variation_3h,humidite,point_de_rosee,visibilite,vent_moyen,vent_rafales,vent_rafales_10min,vent_direction,temperature_min,temperature_max,pluie_1h,pluie_3h,pluie_6h,pluie_12h,pluie_24h,ensoleillement,temperature_sol,temps_omm,source,radiations,neige_au_sol,nebulosite,raw_msg
07690,1998-01-01 00:00:00,10,1016.8,0.3,87,8,15000,25.928,,,80,,,,0,,,,,,1,wg-a,,,,AAXX 01004 07690 02465 /0814 10100 20080 30136 40168 50003 60016 70165 85530 90000 333 60007=
07690,1998-01-01 03:00:00,9,1017.1,0.3,87,7,15000,18.52,,,330,,,,,,,,,,,wg-a,,,,AAXX 01034 07690 12565 53310 10090 20070 30139 40171 50003 60006 83530 90300=
07690,1998-01-01 06:00:00,10,1018.3,1.2,82,7,15000,22.224,,,330,9.3,11.3,,,,,1,,,,wg-a,,,,AAXX 01064 07690 02565 53312 10100 20070 30151 40183 52012 60006 83530 90600 333 10113 20093 60014=
07690,1998-01-01 09:00:00,11,1020.1,1.8,82,8,25000,14.816,,,330,,,,,,,,,,,wg-a,,,,AAXX 01094 07690 12675 /3308 10110 20080 30169 40201 53018 60006 82531 90900=
07690,1998-01-01 12:00:00,15,1019.4,-0.6,67,9,25000,22.224,,,100,,,,,,,,,,,wg-a,,,,AAXX 01124 07690 12675 /1012 10150 20090 30163 40194 58006 60006 82531 91200=
07690,1998-01-01 18:00:00,12,1020.1,0.7,82,9,15000,7.408,,,340,9.4,16.1,,,,,,,,,wg-a,,,,AAXX 01184 07690 12665 33404 10120 20090 30169 40201 52007 60006 82531 91800 333 10161 20094=
07690,1998-01-01 21:00:00,10,1019.2,-0.9,87,8,15000,11.112,,,330,,,,,,,,,,,wg-a,,,,AAXX 01214 07690 12565 33306 10100 20080 30160 40192 56009 60006 81531 92100=
07690,1998-01-02 00:00:00,10,1018,-1.2,87,8,15000,14.816,,,340,,,,,,,,,,,wg-a,,,,AAXX 02004 07690 12565 73408 10100 20080 30148 40180 58012 60006 875// 90000=
07690,1998-01-02 06:00:00,10,1015,-1.8,82,7,20000,18.52,,,330,9.4,12.1,,,,,,,,,wg-a,,,,AAXX 02064 07690 02570 73310 10100 20070 30118 40150 56018 60006 878// 90600 333 10121 20094 60004=
07690,1998-01-02 09:00:00,11,1013.6,-1.4,76,7,15000,14.816,,,320,,,,0,,,,,,1,wg-a,,,,AAXX 02094 07690 12765 /3208 10110 20070 30104 40136 56014 60007 70186 84571 90900=
07690,1998-01-02 12:00:00,12,1011,-2.5,76,8,14000,11.112,,,320,,,,,,,,,,3,wg-a,,,,AAXX 02124 07690 12564 73206 10120 20080 30079 40110 58025 60006 70386 8687/ 91200=
07690,1998-01-02 15:00:00,11,1008.8,-2.2,82,8,9000,14.816,,,330,,,,0,,,,,,61,wg-a,,,,AAXX 02154 07690 12559 73308 10110 20080 30057 40088 56022 60007 76162 8687/ 91500=
07690,1998-01-02 18:00:00,10,1005.8,-3,93,9,11000,14.816,,,330,9.6,11.8,,,,,,,,21,wg-a,,,,AAXX 02184 07690 02461 73308 10100 20090 30027 40058 56030 61000 72162 875// 91800 333 10118 20096 6002=
07690,1998-01-02 21:00:00,9,1002.9,-2.9,93,8,20000,7.408,,,340,,,,0,,,,,,1,wg-a,,,,AAXX 02214 07690 12570 /3404 10090 20080 39998 40029 56029 60007 70161 83500 92100=
07690,1998-01-03 00:00:00,9,1005.2,2.3,81,6,20000,22.224,,,340,,,,,,,,,,1,wg-a,,,,AAXX 03004 07690 12770 /3412 10090 20060 30021 40052 53023 60006 70161 81500 90000=
07690,1998-01-03 03:00:00,7,1008.9,3.6,81,4,20000,18.52,,,320,,,,,,,,,,,wg-a,,,,AAXX 03034 07690 12770 /3210 10070 20040 30057 40089 51036 60006 81500 90300=
07690,1998-01-03 06:00:00,7,1011.1,2.2,81,4,20000,25.928,,,330,6.9,10.8,,,,,3,,,,wg-a,,,,AAXX 03064 07690 02570 /3314 10070 20040 30079 40111 53022 60006 81530 90600 333 10108 20069 60034=
07690,1998-01-03 09:00:00,9,1014.2,3.1,61,2,11000,25.928,,,330,,,,,,,,,,,wg-a,,,,AAXX 03094 07690 12/61 /3314 10090 20020 30110 40142 51031 60006 90900=
07690,1998-01-03 12:00:00,14,1014.1,0,58,6,40000,7.408,,,90,,,,,,,,,,,wg-a,,,,AAXX 03124 07690 12/82 60904 10140 20060 30110 40141 50000 60006 81032 91200=
07690,1998-01-03 15:00:00,15,1013.8,-0.3,55,6,40000,3.704,,,140,,,,,,,,,,,wg-a,,,,AAXX 03154 07690 12/82 /1402 10150 20060 30107 40138 57003 60006 80002 91500=
07690,1998-01-03 21:00:00,8,1014.6,0.1,71,3,500,22.224,,,330,,,,,,,,,,,wg-a,,,,AAXX 03214 07690 12/00 03312 10080 20030 30114 40146 50001 60006 80000 92100=
07690,1998-01-04 00:00:00,8,1013.4,-1.2,76,4,10000,7.408,,,280,,,,,,,,,,,wg-a,,,,AAXX 04004 07690 12/60 /2804 10080 20040 30102 40134 56012 60006 90000=
07690,1998-01-04 09:00:00,10,1018,3.2,82,7,25000,14.816,,,330,,,,,,,,,,,wg-a,,,,AAXX 04094 07690 12575 73308 10100 20070 30148 40180 53032 60006 81572 90900=
07690,1998-01-04 12:00:00,14,1016.9,-1,72,9,25000,3.704,,,290,,,,,,,,,,,wg-a,,,,AAXX 04124 07690 12/75 72902 10140 20090 30138 40169 58010 60006 8107/ 91200=
07690,1998-01-05 00:00:00,9,1015.5,-0.2,76,5,25000,14.816,,,310,,,,,,,,,,,wg-a,,,,AAXX 05004 07690 12/75 33108 10090 20050 30123 40155 58002 60006 81031 90000=
07690,1998-01-05 03:00:00,12,1014.5,-0.9,71,7,25000,14.816,,,260,,,,,,,,,,,wg-a,,,,AAXX 05034 07690 12775 32608 10120 20070 30114 40145 55009 60006 825/2 90300=
07690,1998-01-05 06:00:00,10,1014.6,-0,66,4,25000,3.704,,,330,8.1,13.1,,,,,,,,,wg-a,,,,AAXX 05064 07690 02575 23302 10100 20040 30114 40146 55000 60006 81531 90600 333 10131 20081 60004=
07690,1998-01-05 09:00:00,14,1016.7,2.2,82,11,50000,22.224,,,90,,,,,,,,,,,wg-a,,,,AAXX 05094 07690 12684 /0912 10140 20110 30136 40167 53022 60006 81102 90900=
07690,1998-01-05 12:00:00,16,1016.1,-0.6,68,10,50000,11.112,,,180,,,,,,,,,,,wg-a,,,,AAXX 05124 07690 12584 /1806 10160 20100 30130 40161 58006 60006 81102 91200=
07690,1998-01-05 15:00:00,15,1015.4,-0.7,51,5,50000,35.188,,,230,,,,,,,,,,,wg-a,,,,AAXX 05154 07690 12/84 52319 10150 20050 30123 40154 55007 60006 80002 91500=
07690,1998-01-05 21:00:00,11,1016.2,-0.4,66,5,20000,38.892,,,230,,,,,,,,,,,wg-a,,,,AAXX 05214 07690 12/70 42321 10110 20050 30130 40162 57004 60006 81032 92100=
07690,1998-01-06 00:00:00,11,1015.4,-0.8,66,5,20000,25.928,,,240,,,,,,,,,,,wg-a,,,,AAXX 06004 07690 12/70 12414 10110 20050 30122 40154 58008 60006 80002 90000=
07690,1998-01-06 06:00:00,13,1013.5,-0.3,51,3,20000,3.704,,,190,10.4,13.5,,,,,,,,,wg-a,,,,AAXX 06064 07690 02/70 41902 10130 20030 30104 40135 55003 60006 81032 90600 333 10135 20104 60004=
07690,1998-01-06 09:00:00,11,1015.5,1.9,58,3,50000,11.112,,,330,,,,,,,,,,,wg-a,,,,AAXX 06094 07690 12/84 /3306 10110 20030 30123 40155 53019 60006 81042 90900=
07690,1998-01-06 12:00:00,16,1016.2,0.8,63,9,50000,14.816,,,100,,,,,,,,,,,wg-a,,,,AAXX 06124 07690 12/84 41008 10160 20090 30131 40162 50008 60006 80002 91200=
07690,1998-01-06 18:00:00,12,1017.2,1.5,82,9,20000,3.704,,,40,8.6,16.4,,,,,,,,,wg-a,,,,AAXX 06184 07690 12/70 /0402 10120 20090 30140 40172 51015 60006 91800 333 10164 20086=
07690,1998-01-06 21:00:00,8,1019,1.8,93,7,15000,14.816,,,320,,,,,,,,,,,wg-a,,,,AAXX 06214 07690 12465 23208 10080 20070 30158 40190 51018 60006 82500 92100=
07690,1998-01-07 00:00:00,8,1020,1,81,5,15000,22.224,,,330,,,,,,,,,,,wg-a,,,,AAXX 07004 07690 12665 23312 10080 20050 30168 40200 51010 60006 82500 90000=
07690,1998-01-07 03:00:00,8,1020.3,0.3,76,4,15000,25.928,,,330,,,,,,,,,,,wg-a,,,,AAXX 07034 07690 12665 /3314 10080 20040 30171 40203 50003 60006 81500 90300=
07690,1998-01-07 06:00:00,8,1020.9,0.6,71,3,15000,22.224,,,330,7.8,12.1,,,,,,,,,wg-a,,,,AAXX 07064 07690 02665 33312 10080 20030 30177 40209 53006 60006 81502 90600 333 10121 20078 60004=
07690,1998-01-07 09:00:00,9,1022.8,1.9,66,3,35000,25.928,,,330,,,,,,,,,,,wg-a,,,,AAXX 07094 07690 12581 23314 10090 20030 30196 40228 53019 60006 82800 90900=
07690,1998-01-07 12:00:00,15,1022.3,-0.4,51,5,25000,7.408,,,260,,,,,,,,,,,wg-a,,,,AAXX 07124 07690 12575 /2604 10150 20050 30192 40223 58004 60006 81200 91200=
07690,1998-01-07 15:00:00,15,1022.7,0.4,67,9,20000,7.408,,,170,,,,,,,,,,,wg-a,,,,AAXX 07154 07690 12570 /1704 10150 20090 30196 40227 53004 60006 81400 91500=
07690,1998-01-07 18:00:00,11,1024.7,1.9,82,8,15000,11.112,,,340,7.6,15.2,,,,,,,,,wg-a,,,,AAXX 07184 07690 12/65 /3406 10110 20080 30215 40247 51019 60006 80000 91800 333 10152 20076=
07690,1998-01-07 21:00:00,10,1026,1.3,76,6,15000,14.816,,,340,,,,,,,,,,,wg-a,,,,AAXX 07214 07690 12465 /3408 10100 20060 30228 40260 51013 60006 81500 92100=
07690,1998-01-08 00:00:00,9,1027.1,1.1,76,5,15000,14.816,,,340,,,,,,,,,,,wg-a,,,,AAXX 08004 07690 12465 /3408 10090 20050 30239 40271 51011 60006 81500 90000=
07690,1998-01-08 03:00:00,8,1027.6,0.5,76,4,15000,18.52,,,340,,,,,,,,,,,wg-a,,,,AAXX 08034 07690 12565 /3410 10080 20040 30244 40276 51005 60006 81500 90300=
07690,1998-01-08 06:00:00,8,1028.5,0.9,71,3,15000,25.928,,,330,7.6,10.6,,,,,,,,,wg-a,,,,AAXX 08064 07690 02465 33314 10080 20030 30253 40285 53009 60006 83500 90600 333 10106 20076 60004=
07690,1998-01-08 09:00:00,9,1030.4,1.9,66,3,500,25.928,,,330,,,,,,,,,,,wg-a,,,,AAXX 08094 07690 12400 /3314 10090 20030 30272 40304 51019 60006 81502 90900=
07690,1998-01-08 15:00:00,14,1030.4,-0,82,11,20000,3.704,,,120,,,,,,,,,,,wg-a,,,,AAXX 08154 07690 12570 31202 10140 20110 30272 40304 55000 60006 83800 91500=
07690,1998-01-08 18:00:00,12,1031.6,1.2,82,9,20000,7.408,,,340,7.3,16.2,,,,,,,,,wg-a,,,,AAXX 08184 07690 12470 73404 10120 20090 30284 40316 52012 60006 878// 91800 333 10162 20073=
07690,1998-01-09 00:00:00,9,1032.8,0.3,76,5,10000,22.224,,,330,,,,,,,,,,,wg-a,,,,AAXX 09004 07690 12460 /3312 10090 20050 30296 40328 51003 60006 84500 90000=
07690,1998-01-09 03:00:00,8,1032.5,-0.3,76,4,12000,25.928,,,330,,,,,,,,,,,wg-a,,,,AAXX 09034 07690 12562 /3314 10080 20040 30293 40325 56003 60006 85500 90300=
07690,1998-01-09 06:00:00,8,1032.4,-0.1,76,4,12000,25.928,,,330,7.7,11.9,,,,,,,,,wg-a,,,,AAXX 09064 07690 02462 /3314 10080 20040 30292 40324 55001 60006 86500 90600 333 10119 20077 60004=
07690,1998-01-09 09:00:00,9,1033.4,1,66,3,20000,25.928,,,330,,,,,,,,,,,wg-a,,,,AAXX 09094 07690 12470 53314 10090 20030 30302 40334 53010 60006 85800 90900=
07690,1998-01-09 12:00:00,13,1033,-0.4,62,6,20000,11.112,,,320,,,,,,,,,,,wg-a,,,,AAXX 09124 07690 12570 /3206 10130 20060 30298 40330 58004 60006 81800 91200=
07690,1998-01-09 18:00:00,9,1032.7,0.2,87,7,10000,14.816,,,320,7.6,15.6,,,,,,,,,wg-a,,,,AAXX 09184 07690 12560 /3208 10090 20070 30295 40327 53002 60006 81500 91800 333 10156 20076=
07690,1998-01-10 00:00:00,7,1033.3,0.2,81,4,15000,25.928,,,330,,,,,,,,,,,wg-a,,,,AAXX 10004 07690 12565 /3314 10070 20040 30300 40333 51002 60006 81502 90000=
07690,1998-01-10 03:00:00,7,1032.6,-0.7,76,3,15000,25.928,,,330,,,,,,,,,,,wg-a,,,,AAXX 10034 07690 12/65 13314 10070 20030 30293 40326 58007 60006 80001 90300=
07690,1998-01-10 06:00:00,6,1032.6,-0,75,2,15000,25.928,,,330,6,9.3,,,,,,,,,wg-a,,,,AAXX 10064 07690 02565 23314 10060 20020 30293 40326 55000 60006 81531 90600 333 10093 20060 60004=
07690,1998-01-10 09:00:00,7,1033.3,0.7,66,1,20000,22.224,,,330,,,,,,,,,,,wg-a,,,,AAXX 10094 07690 12570 /3312 10070 20010 30300 40333 51007 60006 81801 90900=
07690,1998-01-10 12:00:00,13,1032.3,-0.9,58,5,20000,3.704,,,240,,,,,,,,,,,wg-a,,,,AAXX 10124 07690 12570 /2402 10130 20050 30291 40323 58009 60006 81801 91200=
07690,1998-01-10 15:00:00,13,1031.5,-0.8,77,9,15000,11.112,,,210,,,,,,,,,,,wg-a,,,,AAXX 10154 07690 12565 /2106 10130 20090 30283 40315 55008 60006 81801 91500=
07690,1998-01-10 18:00:00,11,1031.4,-0.1,82,8,12000,3.704,,,340,5.8,14.3,,,,,,,,,wg-a,,,,AAXX 10184 07690 12462 73402 10110 20080 30282 40314 58001 60006 878// 91800 333 10143 20058=
07690,1998-01-10 21:00:00,9,1031.3,-0.1,76,5,12000,18.52,,,330,,,,,,,,,,,wg-a,,,,AAXX 10214 07690 12562 /3310 10090 20050 30281 40313 57001 60006 81500 92100=
07690,1998-01-11 00:00:00,7,1031.3,-0.1,76,3,12000,22.224,,,330,,,,,,,,,,,wg-a,,,,AAXX 11004 07690 12562 /3312 10070 20030 30280 40313 58001 60006 86500 90000=
07690,1998-01-11 06:00:00,6,1030.8,-0.2,65,0,20000,25.928,,,330,5.5,11.1,,,,,,,,,wg-a,,,,AAXX 11064 07690 02570 23314 10060 20000 30275 40308 56002 60006 81501 90600 333 10111 20055 60004=
07690,1998-01-11 09:00:00,7,1031.4,0.6,61,0,25000,25.928,,,330,,,,,,,,,,,wg-a,,,,AAXX 11094 07690 12/75 /3314 10070 20000 30281 40314 51006 60006 81042 90900=
07690,1998-01-11 12:00:00,10,1030.4,-0.9,53,1,500,14.816,,,320,,,,,,,,,,,wg-a,,,,AAXX 11124 07690 12500 73208 10100 20010 30272 40304 58009 60006 81132 91200=
07690,1998-01-11 15:00:00,13,1029.5,-0.9,77,9,15000,18.52,,,90,,,,,,,,,,,wg-a,,,,AAXX 11154 07690 12565 /0910 10130 20090 30263 40295 56009 60006 81832 91500=
07690,1998-01-11 18:00:00,11,1029.3,-0.2,71,6,20000,11.112,,,40,5.4,14.3,,,,,,,,,wg-a,,,,AAXX 11184 07690 12470 70406 10110 20060 30261 40293 55002 60006 878// 91800 333 10143 20054=
07690,1998-01-12 00:00:00,7,1028.8,-0.7,70,2,11000,22.224,,,330,,,,,,,,,,,wg-a,,,,AAXX 12004 07690 12/61 /3312 10070 20020 30256 40288 58007 60006 90000=
07690,1998-01-12 03:00:00,6,1028.2,-0.7,65,0,15000,22.224,,,330,,,,,,,,,,,wg-a,,,,AAXX 12034 07690 12/65 53312 10060 20000 30249 40282 58007 60006 85030 90300=
07690,1998-01-12 06:00:00,6,1028.1,-0.1,65,0,15000,22.224,,,330,5.9,10.5,,,,,,,,,wg-a,,,,AAXX 12064 07690 02565 33312 10060 20000 30248 40281 55001 60006 83530 90600 333 10105 20059 60004=
07690,1998-01-12 09:00:00,7,1028.3,0.3,57,-1,25000,22.224,,,330,,,,,,,,,,,wg-a,,,,AAXX 12094 07690 12575 /3312 10070 21010 30251 40283 51003 60006 82531 90900=
07690,1998-01-12 12:00:00,14,1026.6,-1.7,67,8,20000,35.188,,,80,,,,,,,,,,,wg-a,,,,AAXX 12124 07690 12570 /0819 10140 20080 30234 40266 58017 60006 83552 91200=
07690,1998-01-12 15:00:00,13,1025.8,-0.8,77,9,15000,42.596,,,90,,,,,,,,,,,wg-a,,,,AAXX 12154 07690 12465 70923 10130 20090 30226 40258 56008 60006 83870 91500=
07690,1998-01-12 18:00:00,13,1025.3,-0.5,77,9,12000,42.596,,,80,5.6,14.3,,,,,,,,,wg-a,,,,AAXX 12184 07690 12462 50823 10130 20090 30221 40253 56005 60006 83870 91800 333 10143 20056=
07690,1998-01-12 21:00:00,12,1025.2,-0.1,76,8,12000,22.224,,,60,,,,,,,,,,,wg-a,,,,AAXX 12214 07690 12562 /0612 10120 20080 30220 40252 58001 60006 86100 92100=
07690,1998-01-13 00:00:00,9,1024.1,-1.1,76,5,12000,18.52,,,330,,,,,,,,,,,wg-a,,,,AAXX 13004 07690 12562 /3310 10090 20050 30209 40241 58011 60006 86500 90000=
07690,1998-01-13 12:00:00,11,1019.8,-1.6,54,2,12000,18.52,,,320,,,,,,,,,,,wg-a,,,,AAXX 13124 07690 12462 73210 10110 20020 30166 40198 58016 60006 8653/ 91200=
07690,1998-01-13 15:00:00,11,1018.8,-1,62,4,12000,3.704,,,350,,,,,,,,,,,wg-a,,,,AAXX 13154 07690 12562 83502 10110 20040 30156 40188 56010 60006 8453/ 91500=
07690,1998-01-13 21:00:00,10,1017.4,-0.7,76,6,13000,11.112,,,330,,,,,,,,,,21,wg-a,,,,AAXX 13214 07690 02463 73306 10100 20060 30142 40174 58007 61000 72162 8383/ 92100 333 ////=
07690,1998-01-14 00:00:00,10,1016.5,-0.9,82,7,13000,14.816,,,330,,,,1,,,,,,61,wg-a,,,,AAXX 14004 07690 02363 73308 10100 20070 30133 40165 58009 60016 76162 8267/ 90000 333 60017=
07690,1998-01-14 06:00:00,9,1014.5,-0.7,93,8,9000,7.408,,,340,8.5,10.8,,,,,,,,60,wg-a,,,,AAXX 14064 07690 02159 83404 10090 20080 30113 40145 56007 61000 76062 8757/ 90600 333 10108 20085 6008=
07690,1998-01-14 09:00:00,9,1015,0.5,87,7,15000,14.816,,,340,,,,0,,,,,,60,wg-a,,,,AAXX 14094 07690 12565 83408 10090 20070 30118 40150 53005 60007 76066 8687/ 90900=
07690,1998-01-14 12:00:00,10,1014.2,-0.8,82,7,15000,14.816,,,360,,,,1,,,,,,2,wg-a,,,,AAXX 14124 07690 02565 73608 10100 20070 30110 40142 58008 60026 70262 8557/ 91200 333 60017=
07690,1998-01-14 15:00:00,10,1013.9,-0.3,82,7,20000,14.816,,,340,,,,,,,,,,,wg-a,,,,AAXX 14154 07690 12570 73408 10100 20070 30107 40139 55003 60006 8687/ 91500=
07690,1998-01-14 18:00:00,9,1015.5,1.6,93,8,15000,18.52,,,330,8.6,10.6,,,,,,,,21,wg-a,,,,AAXX 14184 07690 02465 /3310 10090 20080 30123 40155 51016 61000 72162 86330 91800 333 10106 20086 6009=
07690,1998-01-14 21:00:00,8,1017.4,1.9,93,7,15000,11.112,,,340,,,,,,,,,,,wg-a,,,,AAXX 14214 07690 12665 23406 10080 20070 30142 40174 51019 60006 81230 92100=
07690,1998-01-15 00:00:00,9,1018.8,1.4,81,6,20000,14.816,,,330,,,,,,,,,,,wg-a,,,,AAXX 15004 07690 12670 /3308 10090 20060 30156 40188 51014 60006 84530 90000=
07690,1998-01-15 03:00:00,8,1020,1.2,81,5,25000,18.52,,,330,,,,,,,,,,,wg-a,,,,AAXX 15034 07690 12675 23310 10080 20050 30168 40200 53012 60006 81530 90300=
07690,1998-01-15 06:00:00,7,1021.1,1.1,81,4,25000,25.928,,,330,6.9,8.7,,,,,10,,,,wg-a,,,,AAXX 15064 07690 02575 13314 10070 20040 30179 40211 53011 60006 81500 90600 333 10087 20069 60104=
07690,1998-01-15 09:00:00,8,1023.2,2.1,76,4,50000,25.928,,,330,,,,,,,,,,,wg-a,,,,AAXX 15094 07690 12584 /3314 10080 20040 30200 40232 52021 60006 81200 90900=
07690,1998-01-15 12:00:00,13,1023,-0.2,58,5,40000,11.112,,,320,,,,,,,,,,,wg-a,,,,AAXX 15124 07690 12582 /3206 10130 20050 30198 40230 58002 60006 81100 91200=
07690,1998-01-15 15:00:00,14,1023.1,0.2,67,8,500,14.816,,,210,,,,,,,,,,,wg-a,,,,AAXX 15154 07690 12500 /2108 10140 20080 30200 40231 53002 60006 81101 91500=
07690,1998-01-15 18:00:00,9,1024,0.8,81,6,20000,14.816,,,330,6.8,15.1,,,,,,,,,wg-a,,,,AAXX 15184 07690 12570 /3308 10090 20060 30208 40240 53008 60006 81101 91800 333 10151 20068=
07690,1998-01-15 21:00:00,8,1024.2,0.2,81,5,15000,18.52,,,330,,,,,,,,,,,wg-a,,,,AAXX 15214 07690 12/65 13310 10080 20050 30210 40242 52002 60006 80001 92100=
07690,1998-01-16 00:00:00,8,1023.9,-0.3,81,5,20000,22.224,,,320,,,,,,,,,,,wg-a,,,,AAXX 16004 07690 12/70 13212 10080 20050 30207 40239 58003 60006 80001 90000=
07690,1998-01-16 03:00:00,7,1022.5,-1.4,81,4,20000,22.224,,,330,,,,,,,,,,,wg-a,,,,AAXX 16034 07690 12/70 13312 10070 20040 30193 40225 58014 60006 80001 90300=
07690,1998-01-16 06:00:00,6,1021,-1.5,81,3,20000,22.224,,,330,6.2,9,,,,,,,,,wg-a,,,,AAXX 16064 07690 02570 13312 10060 20030 30178 40210 56015 60006 81501 90600 333 10090 20062 60004=
07690,1998-01-16 09:00:00,7,1020.6,-0.4,76,3,500,22.224,,,330,,,,,,,,,,,wg-a,,,,AAXX 16094 07690 12500 73312 10070 20030 30174 40206 56004 60006 81502 90900=
07690,1998-01-16 12:00:00,8,1019.8,-0.8,81,5,7000,0,,,0,,,,0,,,,,,61,wg-a,,,,AAXX 16124 07690 02557 8//// 10080 20050 30166 40198 58008 60016 76161 8357/ 91200 333 60007=
07690,1998-01-16 15:00:00,8,1016.5,-3.3,87,6,20000,14.816,,,330,,,,2,,,,,,21,wg-a,,,,AAXX 16154 07690 12570 83308 10080 20060 30133 40165 58033 60027 72162 8357/ 91500=
07690,1998-01-16 21:00:00,7,1011.5,-2.4,81,4,20000,14.816,,,330,,,,,,,,,,,wg-a,,,,AAXX 16214 07690 12570 33308 10070 20040 30083 40115 56024 60006 81530 92100=
07690,1998-01-17 00:00:00,6,1012,0.5,87,4,20000,14.816,,,300,,,,,,,,,,,wg-a,,,,AAXX 17004 07690 12570 63008 10060 20040 30088 40120 52005 60006 81532 90000=
07690,1998-01-17 03:00:00,6,1013.1,1.1,87,4,20000,22.224,,,330,,,,,,,,,,,wg-a,,,,AAXX 17034 07690 12570 73312 10060 20040 30099 40131 51011 60006 8153/ 90300=
07690,1998-01-17 06:00:00,6,1013.8,0.7,81,3,20000,22.224,,,340,5.8,7.1,,,,,2,,,,wg-a,,,,AAXX 17064 07690 02570 23412 10060 20030 30106 40138 53007 60006 8153/ 90600 333 10071 20058 60024=
07690,1998-01-17 09:00:00,8,1016.2,2.4,66,2,50000,18.52,,,340,,,,,,,,,,,wg-a,,,,AAXX 17094 07690 12584 /3410 10080 20020 30130 40162 53024 60006 8153/ 90900=
07690,1998-01-17 12:00:00,14,1017.3,1.2,55,5,40000,7.408,,,200,,,,,,,,,,,wg-a,,,,AAXX 17124 07690 12/82 02004 10140 20050 30142 40173 51012 60006 80000 91200=
07690,1998-01-17 21:00:00,8,1022.9,1.4,61,1,25000,22.224,,,330,,,,,,,,,,,wg-a,,,,AAXX 17214 07690 12/75 03312 10080 20010 30197 40229 51014 60006 80000 92100=
07690,1998-01-18 00:00:00,8,1023.5,0.6,53,-1,20000,22.224,,,340,,,,,,,,,,,wg-a,,,,AAXX 18004 07690 12/70 03412 10080 21010 30203 40235 50006 60006 80000 90000=
07690,1998-01-18 03:00:00,7,1023.1,-0.4,53,-2,20000,25.928,,,330,,,,,,,,,,,wg-a,,,,AAXX 18034 07690 12/70 03314 10070 21020 30199 40231 58004 60006 80000 90300=
07690,1998-01-18 06:00:00,6,1023,-0.1,56,-2,20000,25.928,,,330,6.2,8.4,,,,,,,,,wg-a,,,,AAXX 18064 07690 02/70 33314 10060 21020 30198 40230 58001 60006 80001 90600 333 10084 20062 60004=
07690,1998-01-18 09:00:00,7,1023.2,0.2,53,-2,50000,29.632,,,330,,,,,,,,,,,wg-a,,,,AAXX 18094 07690 12/84 53316 10070 21020 30200 40232 53002 60006 81032 90900=
07690,1998-01-18 12:00:00,12,1021.8,-1.4,44,0,50000,11.112,,,320,,,,,,,,,,,wg-a,,,,AAXX 18124 07690 12/84 73206 10120 20000 30186 40218 58014 60006 81032 91200=
07690,1998-01-18 15:00:00,11,1020,-1.8,50,1,35000,11.112,,,320,,,,,,,,,,,wg-a,,,,AAXX 18154 07690 12781 73206 10110 20010 30168 40200 56018 60006 81572 91500=
07690,1998-01-18 18:00:00,10,1018,-2,76,6,20000,22.224,,,240,6,12.6,,,,,,,,,wg-a,,,,AAXX 18184 07690 12670 72412 10100 20060 30148 40180 56020 60006 8157/ 91800 333 10126 20060=
07690,1998-01-18 21:00:00,7,1015.7,-2.3,76,3,18000,14.816,,,320,,,,,,,,,,,wg-a,,,,AAXX 18214 07690 12668 83208 10070 20030 30125 40157 57023 60006 8357/ 92100=
07690,1998-01-19 00:00:00,7,1013.3,-2.4,70,2,18000,22.224,,,320,,,,,,,,,,,wg-a,,,,AAXX 19004 07690 12568 83212 10070 20020 30101 40133 58024 60006 8587/ 90000=
07690,1998-01-19 06:00:00,10,1006.6,-3.2,93,9,15000,11.112,,,330,6.9,10.7,,,,,,,,61,wg-a,,,,AAXX 19064 07690 02565 /3306 10100 20090 30035 40066 58032 61000 76162 8457/ 90600 333 10107 20069 6002=
07690,1998-01-19 09:00:00,8,1003,-3.6,81,5,20000,14.816,,,340,,,,,,,,,,1,wg-a,,,,AAXX 19094 07690 02470 /3408 10080 20050 39999 40030 56036 61000 70162 83831 90900 333 ////=
07690,1998-01-19 15:00:00,14,997.4,-2.9,63,7,500,46.3,,,220,,,,,,,,,,,wg-a,,,,AAXX 19154 07690 12500 22225 10140 20070 39943 49974 58029 60006 81130 91500=
07690,1998-01-19 18:00:00,12,1000,2.6,44,0,20000,11.112,,,320,8.1,15.3,,,,,,,,,wg-a,,,,AAXX 19184 07690 12570 /3206 10120 20000 39969 40000 53026 60006 81100 91800 333 10153 20081=
07690,1998-01-19 21:00:00,10,1001.5,1.5,37,-4,20000,18.52,,,290,,,,,,,,,,,wg-a,,,,AAXX 19214 07690 12/70 02910 10100 21040 39984 40015 51015 60006 80000 92100=
07690,1998-01-20 00:00:00,9,1002.4,0.9,43,-3,20000,11.112,,,340,,,,,,,,,,,wg-a,,,,AAXX 20004 07690 12/70 03406 10090 21030 39993 40024 53009 60006 80000 90000=
07690,1998-01-20 03:00:00,11,1001.4,-1,37,-3,20000,22.224,,,330,,,,,,,,,,,wg-a,,,,AAXX 20034 07690 12/70 03312 10110 21030 39983 40014 58010 60006 80000 90300=
07690,1998-01-20 06:00:00,11,1001.2,-0.2,50,1,20000,31.484,,,240,7.8,12.1,,,,,,,,,wg-a,,,,AAXX 20064 07690 02/70 02417 10110 20010 39981 40012 58002 60006 80000 90600 333 10121 20078 61000=
07690,1998-01-20 09:00:00,11,997.7,-3.5,32,-5,50000,18.52,,75.932,290,,,,,,,,,,,wg-a,,,,AAXX 20094 07690 12584 /2910 10110 21050 39946 49977 56035 60006 81200 90900 333 91041=
07690,1998-01-20 12:00:00,12,1000.5,2.8,16,-13,40000,29.632,,62.968,350,,,,,,,,,,,wg-a,,,,AAXX 20124 07690 12582 73516 10120 21130 39974 40005 53028 60006 878// 91200 333 91034=
07690,1998-01-20 21:00:00,7,1011,2,39,-6,25000,14.816,,,280,,,,,,,,,,,wg-a,,,,AAXX 20214 07690 12/75 02808 10070 21060 30078 40110 51020 60006 80000 92100=
07690,1998-01-21 00:00:00,6,1010.8,-0.2,36,-8,25000,18.52,,,330,,,,,,,,,,,wg-a,,,,AAXX 21004 07690 12/75 03310 10060 21080 30076 40108 55002 60006 80000 90000=
07690,1998-01-21 03:00:00,7,1011.7,0.9,31,-9,25000,14.816,,,360,,,,,,,,,,,wg-a,,,,AAXX 21034 07690 12675 /3608 10070 21090 30085 40117 52009 60006 81100 90300=
07690,1998-01-21 06:00:00,6,1013.3,1.6,42,-6,500,18.52,,,340,4.6,9,,,,,,,,,wg-a,,,,AAXX 21064 07690 02/00 13410 10060 21060 30101 40133 53016 60006 80002 90600 333 10090 20046 60004=
07690,1998-01-21 09:00:00,8,1015.3,2,36,-6,50000,18.52,,,330,,,,,,,,,,,wg-a,,,,AAXX 21094 07690 12684 /3310 10080 21060 30121 40153 51020 60006 81142 90900=
07690,1998-01-21 12:00:00,13,1015.5,0.3,38,-1,40000,7.408,,,220,,,,,,,,,,,wg-a,,,,AAXX 21124 07690 12682 52204 10130 21010 30124 40155 50003 60006 81132 91200=
07690,1998-01-21 15:00:00,14,1015.2,-0.3,47,3,50000,18.52,,,210,,,,,,,,,,,wg-a,,,,AAXX 21154 07690 12/84 32110 10140 20030 30121 40152 55003 60006 81042 91500=
07690,1998-01-21 21:00:00,7,1016.5,0.8,49,-3,20000,18.52,,,340,,,,,,,,,,,wg-a,,,,AAXX 21214 07690 12/70 03410 10070 21030 30133 40165 51008 60006 80000 92100=
07690,1998-01-22 00:00:00,6,1016.7,0.2,49,-4,20000,25.928,,,340,,,,,,,,,,,wg-a,,,,AAXX 22004 07690 12/70 03414 10060 21040 30135 40167 50002 60006 80000 90000=
07690,1998-01-22 03:00:00,5,1016.7,0,48,-5,20000,29.632,,,330,,,,,,,,,,,wg-a,,,,AAXX 22034 07690 12/70 03316 10050 21050 30135 40167 50000 60006 80000 90300=
07690,1998-01-22 06:00:00,5,1017,0.3,48,-5,20000,29.632,,,330,4.6,8.1,,,,,,,,,wg-a,,,,AAXX 22064 07690 02/70 13316 10050 21050 30138 40170 53003 60006 81030 90600 333 10081 20046 60004=
07690,1998-01-22 09:00:00,6,1017.5,0.5,42,-6,40000,22.224,,,340,,,,,,,,,,,wg-a,,,,AAXX 22094 07690 12/82 13412 10060 21060 30143 40175 51005 60006 81030 90900=
07690,1998-01-22 12:00:00,13,1016.8,-0.6,33,-3,40000,3.704,,,230,,,,,,,,,,,wg-a,,,,AAXX 22124 07690 12/82 02302 10130 21030 30137 40168 58006 60006 80000 91200=
07690,1998-01-22 15:00:00,13,1015.3,-1.5,41,0,40000,11.112,,,180,,,,,,,,,,,wg-a,,,,AAXX 22154 07690 12682 /1806 10130 20000 30122 40153 56015 60006 81100 91500=
07690,1998-01-22 18:00:00,7,1015.6,0.2,70,2,500,11.112,,,320,4.4,14.1,,,,,,,,,wg-a,,,,AAXX 22184 07690 12/00 03206 10070 20020 30124 40156 53002 60006 80000 91800 333 10141 20044=
07690,1998-01-23 03:00:00,5,1017.4,0.2,65,-1,20000,22.224,,,330,,,,,,,,,,,wg-a,,,,AAXX 23034 07690 12770 63312 10050 21010 30142 40174 50002 60006 81532 90300=
07690,1998-01-23 06:00:00,5,1016.9,-0.5,60,-2,20000,29.632,,,330,4.4,7.2,,,,,,,,,wg-a,,,,AAXX 23064 07690 02770 43316 10050 21020 30137 40169 56005 60006 81532 90600 333 10072 20044 60004=
07690,1998-01-23 09:00:00,6,1018.4,1.5,56,-2,500,25.928,,,330,,,,,,,,,,,wg-a,,,,AAXX 23094 07690 12700 /3314 10060 21020 30152 40184 51015 60006 81530 90900=
07690,1998-01-23 12:00:00,12,1018.4,0,44,0,40000,11.112,,,320,,,,,,,,,,,wg-a,,,,AAXX 23124 07690 12682 /3206 10120 20000 30152 40184 50000 60006 81550 91200=
07690,1998-01-23 15:00:00,13,1017.5,-0.8,47,2,40000,18.52,,,100,,,,,,,,,,,wg-a,,,,AAXX 23154 07690 12582 51010 10130 20020 30144 40175 56008 60006 81170 91500=
07690,1998-01-23 18:00:00,11,1018.2,0.6,50,1,500,7.408,,,300,4.5,14.9,,,,,,,,,wg-a,,,,AAXX 23184 07690 12800 73004 10110 20010 30150 40182 53006 60006 8707/ 91800 333 10149 20045=
07690,1998-01-23 21:00:00,8,1018.8,0.6,66,2,500,14.816,,,320,,,,,,,,,,,wg-a,,,,AAXX 23214 07690 12800 73208 10080 20020 30156 40188 51006 60006 8707/ 92100=
07690,1998-01-24 00:00:00,8,1018.8,0,53,-1,500,22.224,,,330,,,,,,,,,,,wg-a,,,,AAXX 24004 07690 12600 /3312 10080 21010 30156 40188 50000 60006 8550/ 90000=
07690,1998-01-24 03:00:00,7,1017.7,-1.1,57,-1,500,22.224,,,330,,,,,,,,,,,wg-a,,,,AAXX 24034 07690 12600 43312 10070 21010 30145 40177 57011 60006 84500 90300=
07690,1998-01-24 06:00:00,5,1016.6,-1.1,60,-2,500,25.928,,,330,5.4,10.8,,,,,,,,,wg-a,,,,AAXX 24064 07690 02600 23314 10050 21020 30134 40166 56011 60006 82500 90600 333 10108 20054 60004=
07690,1998-01-24 09:00:00,7,1016.4,-0.2,57,-1,40000,18.52,,,330,,,,,,,,,,,wg-a,,,,AAXX 24094 07690 12682 /3310 10070 21010 30132 40164 58002 60006 81500 90900=
07690,1998-01-24 12:00:00,13,1014.4,-1.9,47,2,40000,7.408,,,190,,,,,,,,,,,wg-a,,,,AAXX 24124 07690 12682 /1904 10130 20020 30113 40144 58019 60006 81100 91200=
07690,1998-01-24 18:00:00,8,1012.3,-0.6,76,4,500,7.408,,,320,4.9,13.3,,,,,,,,,wg-a,,,,AAXX 24184 07690 12500 23204 10080 20040 30091 40123 56006 60006 82500 91800 333 10133 20049=
07690,1998-01-24 21:00:00,8,1012.4,0.1,76,4,15000,11.112,,,340,,,,,,,,,,,wg-a,,,,AAXX 24214 07690 12565 /3406 10080 20040 30092 40124 51001 60006 86500 92100=
07690,1998-01-25 00:00:00,8,1012.4,-0,76,4,15000,11.112,,,340,,,,,,,,,,,wg-a,,,,AAXX 25004 07690 12565 /3406 10080 20040 30092 40124 55000 60006 86500 90000=
07690,1998-01-25 03:00:00,7,1012.3,-0.1,87,5,20000,14.816,,,330,,,,,,,,,,,wg-a,,,,AAXX 25034 07690 12570 73308 10070 20050 30091 40123 58001 60006 86570 90300=
07690,1998-01-25 06:00:00,7,1013.1,0.8,87,5,15000,18.52,,,330,6.5,8.4,,,,,,,,21,wg-a,,,,AAXX 25064 07690 02665 73310 10070 20050 30099 40131 53008 61000 72162 878// 90600 333 10084 20065 6001=
07690,1998-01-25 09:00:00,7,1015.3,2.2,87,5,10000,14.816,,,330,,,,1,,,,,,60,wg-a,,,,AAXX 25094 07690 12560 83308 10070 20050 30121 40153 51022 60017 76062 8587/ 90900=
07690,1998-01-25 12:00:00,11,1016.5,1.2,54,2,25000,22.224,,,90,,,,,,,,,,1,wg-a,,,,AAXX 25124 07690 02575 70912 10110 20020 30133 40165 51012 60016 70162 8337/ 91200 333 61000=
07690,1998-01-25 15:00:00,12,1017.1,0.6,50,2,500,35.188,,,80,,,,,,,,,,,wg-a,,,,AAXX 25154 07690 12500 /0819 10120 20020 30139 40171 52006 60006 81832 91500=
07690,1998-01-25 18:00:00,8,1018.9,1.8,76,4,500,14.816,,,330,6.5,12.2,,,,,,,,,wg-a,,,,AAXX 25184 07690 12700 53308 10080 20040 30157 40189 53018 60006 82532 91800 333 10122 20065=
07690,1998-01-25 21:00:00,6,1020.3,1.4,75,2,500,18.52,,,330,,,,,,,,,,,wg-a,,,,AAXX 25214 07690 12/00 /3310 10060 20020 30171 40203 51014 60006 80000 92100=
07690,1998-01-26 00:00:00,5,1021,0.7,81,2,20000,18.52,,,330,,,,,,,,,,,wg-a,,,,AAXX 26004 07690 12/70 03310 10050 20020 30178 40210 51007 60006 80000 90000=
07690,1998-01-26 03:00:00,5,1021,0,75,1,20000,22.224,,,330,,,,,,,,,,,wg-a,,,,AAXX 26034 07690 12/70 03312 10050 20010 30178 40210 50000 60006 80000 90300=
07690,1998-01-26 06:00:00,4,1021.1,-0,70,-1,20000,25.928,,,330,3.9,8,,,,,1,,,,wg-a,,,,AAXX 26064 07690 02/70 03314 10040 21010 30178 40211 55000 60006 80000 90600 333 10080 20039 60014=
07690,1998-01-26 09:00:00,6,1021.8,0.8,61,-1,500,22.224,,,330,,,,,,,,,,,wg-a,,,,AAXX 26094 07690 12/00 03312 10060 21010 30186 40218 51008 60006 80000 90900=
07690,1998-01-26 12:00:00,11,1021.1,-0.7,47,0,25000,11.112,,,150,,,,,,,,,,,wg-a,,,,AAXX 26124 07690 12/75 01506 10110 20000 30179 40211 58007 60006 80000 91200=
07690,1998-01-26 15:00:00,11,1020.4,-0.7,47,0,500,3.704,,,80,,,,,,,,,,,wg-a,,,,AAXX 26154 07690 12500 50802 10110 20000 30172 40204 55007 60006 85800 91500=
07690,1998-01-26 18:00:00,10,1020.6,0.2,53,1,20000,14.816,,,130,3.7,12.3,,,,,,,,,wg-a,,,,AAXX 26184 07690 12570 71308 10100 20010 30174 40206 53002 60006 875// 91800 333 10123 20037=
07690,1998-01-26 21:00:00,6,1021.3,0.7,75,2,20000,14.816,,,320,,,,,,,,,,,wg-a,,,,AAXX 26214 07690 12570 73208 10060 20020 30181 40213 51007 60006 875// 92100=
07690,1998-01-27 03:00:00,5,1020.6,-0.8,75,1,20000,18.52,,,330,,,,,,,,,,,wg-a,,,,AAXX 27034 07690 12570 /3310 10050 20010 30174 40206 58008 60006 85500 90300=
07690,1998-01-27 06:00:00,4,1020.3,-0.4,70,-1,20000,14.816,,,340,4,10,,,,,,,,,wg-a,,,,AAXX 27064 07690 02570 23408 10040 21010 30170 40203 56004 60006 82500 90600 333 10100 20040 60004=
07690,1998-01-27 09:00:00,6,1021,0.8,61,-1,25000,14.816,,,330,,,,,,,,,,,wg-a,,,,AAXX 27094 07690 12575 /3308 10060 21010 30178 40210 51008 60006 84800 90900=
07690,1998-01-27 12:00:00,10,1020,-1,43,-2,25000,18.52,,,100,,,,,,,,,,,wg-a,,,,AAXX 27124 07690 12675 21010 10100 21020 30168 40200 58010 60006 82800 91200=
07690,1998-01-27 15:00:00,10,1018.7,-1.3,43,-2,15000,18.52,,,120,,,,,,,,,,,wg-a,,,,AAXX 27154 07690 12765 /1210 10100 21020 30155 40187 56013 60006 81500 91500=
07690,1998-01-27 18:00:00,7,1018.5,-0.2,57,-1,12000,7.408,,,50,4,10.7,,,,,,,,,wg-a,,,,AAXX 27184 07690 12/62 /0504 10070 21010 30153 40185 56002 60006 80000 91800 333 10107 20040=
07690,1998-01-27 21:00:00,4,1018.7,0.2,75,0,12000,18.52,,,340,,,,,,,,,,,wg-a,,,,AAXX 27214 07690 12/62 03410 10040 20000 30155 40187 50002 60006 80000 92100=
07690,1998-01-28 00:00:00,4,1019.1,0.3,70,-1,12000,18.52,,,330,,,,,,,,,,,wg-a,,,,AAXX 28004 07690 12/62 03310 10040 21010 30158 40191 50003 60006 80000 90000=
07690,1998-01-28 03:00:00,3,1018.3,-0.8,75,-1,12000,18.52,,,340,,,,,,,,,,,wg-a,,,,AAXX 28034 07690 12/62 03410 10030 21010 30150 40183 58008 60006 80000 90300=
07690,1998-01-28 06:00:00,2,1017.7,-0.6,75,-2,15000,22.224,,,330,2.4,6.6,,,,,,,,,wg-a,,,,AAXX 28064 07690 02/65 03312 10020 21020 30144 40177 56006 60006 80000 90600 333 10066 20024 60004=
07690,1998-01-28 12:00:00,11,1017.7,-0.4,35,-4,20000,3.704,,,90,,,,,,,,,,,wg-a,,,,AAXX 28124 07690 12/70 00902 10110 21040 30145 40177 58004 60006 80000 91200=
07690,1998-01-28 15:00:00,10,1016.5,-1.2,46,-1,20000,7.408,,,150,,,,,,,,,,,wg-a,,,,AAXX 28154 07690 12/70 01504 10100 21010 30133 40165 56012 60006 80000 91500=
07690,1998-01-28 18:00:00,6,1016.5,-0,65,0,15000,11.112,,,330,2.4,11,,,,,,,,,wg-a,,,,AAXX 28184 07690 12/65 /3306 10060 20000 30133 40165 55000 60006 80000 91800 333 10110 20024=
07690,1998-01-28 21:00:00,4,1017,0.5,70,-1,15000,14.816,,,340,,,,,,,,,,,wg-a,,,,AAXX 28214 07690 12/65 03408 10040 21010 30138 40170 53005 60006 80000 92100=
07690,1998-01-29 00:00:00,3,1016.7,-0.4,70,-2,15000,18.52,,,340,,,,,,,,,,,wg-a,,,,AAXX 29004 07690 12/65 03410 10030 21020 30134 40167 58004 60006 80000 90000=
07690,1998-01-29 03:00:00,3,1016.2,-0.5,70,-2,15000,22.224,,,340,,,,,,,,,,,wg-a,,,,AAXX 29034 07690 12665 73412 10030 21020 30129 40162 58005 60006 87500 90300=
07690,1998-01-29 06:00:00,3,1015.8,-0.4,65,-3,15000,25.928,,,330,2.5,5.7,,,,,,,,,wg-a,,,,AAXX 29064 07690 02565 13314 10030 21030 30125 40158 55004 60006 81500 90600 333 10057 20025 60004=
07690,1998-01-29 09:00:00,4,1016.3,0.6,56,-4,20000,18.52,,,340,,,,,,,,,,,wg-a,,,,AAXX 29094 07690 12570 43410 10040 21040 30131 40163 52006 60006 83801 90900=
07690,1998-01-29 12:00:00,11,1016.6,0.3,50,1,20000,7.408,,,90,,,,,,,,,,,wg-a,,,,AAXX 29124 07690 12570 40904 10110 20010 30134 40166 50003 60006 82802 91200=
07690,1998-01-29 15:00:00,11,1015.8,-0.8,58,3,20000,7.408,,,160,,,,,,,,,,,wg-a,,,,AAXX 29154 07690 12570 31604 10110 20030 30126 40158 55008 60006 83800 91500=
07690,1998-01-29 18:00:00,8,1017.4,1.6,71,3,15000,7.408,,,330,2.2,11.5,,,,,,,,,wg-a,,,,AAXX 29184 07690 12565 /3304 10080 20030 30142 40174 53016 60006 86500 91800 333 10115 20022=
07690,1998-01-29 21:00:00,7,1018.7,1.3,76,3,10000,14.816,,,330,,,,,,,,,,,wg-a,,,,AAXX 29214 07690 12660 73308 10070 20030 30155 40187 51013 60006 875// 92100=
07690,1998-01-30 00:00:00,6,1019.5,0.8,70,1,10000,14.816,,,340,,,,,,,,,,,wg-a,,,,AAXX 30004 07690 12660 23408 10060 20010 30163 40195 51008 60006 82500 90000=
07690,1998-01-30 03:00:00,5,1019.2,-0.3,70,0,15000,18.52,,,340,,,,,,,,,,,wg-a,,,,AAXX 30034 07690 12665 23410 10050 20000 30160 40192 58003 60006 82500 90300=
07690,1998-01-30 06:00:00,5,1018.7,-0.5,65,-1,15000,25.928,,,330,4.6,7.9,,,,,,,,,wg-a,,,,AAXX 30064 07690 02565 23314 10050 21010 30155 40187 58005 60006 82500 90600 333 10079 20046 60004=
07690,1998-01-30 09:00:00,6,1019.4,0.7,56,-2,18000,22.224,,,340,,,,,,,,,,,wg-a,,,,AAXX 30094 07690 12568 23412 10060 21020 30162 40194 51007 60006 82500 90900=
07690,1998-01-30 21:00:00,7,1015.4,-0.2,76,3,10000,14.816,,,340,,,,,,,,,,,wg-a,,,,AAXX 30214 07690 12560 /3408 10070 20030 30122 40154 58002 60006 85500 92100=
07690,1998-01-31 03:00:00,5,1012.8,-1.4,70,0,10000,22.224,,,330,,,,,,,,,,,wg-a,,,,AAXX 31034 07690 12560 23312 10050 20000 30096 40128 58014 60006 82500 90300=
07690,1998-01-31 06:00:00,5,1012,-0.8,65,-1,10000,22.224,,,330,4.5,9,,,,,,,,,wg-a,,,,AAXX 31064 07690 02760 73312 10050 21010 30088 40120 56008 60006 875// 90600 333 10090 20045 60004=
07690,1998-01-31 12:00:00,11,1010.5,-1.7,62,4,7000,18.52,,,90,,,,,,,,,,,wg-a,,,,AAXX 31124 07690 12557 30910 10110 20040 30074 40105 58017 60006 83500 91200=
07690,1998-01-31 15:00:00,11,1008.9,-1.6,58,3,8000,11.112,,,90,,,,,,,,,,,wg-a,,,,AAXX 31154 07690 12558 /0906 10110 20030 30058 40089 56016 60006 82802 91500=
07690,1998-01-31 18:00:00,8,1008.9,-0.1,76,4,9000,14.816,,,330,4.6,11.8,,,,,,,,,wg-a,,,,AAXX 31184 07690 12/59 33308 10080 20040 30057 40089 55001 60006 81031 91800 333 10118 20046=
07690,1998-02-01 00:00:00,7,1008.9,-0.5,70,2,10000,14.816,,,340,,,,,,,,,,,wg-a,,,,AAXX 01004 07690 12/60 23408 10070 20020 30057 40089 56005 60006 80001 90000=
07690,1998-02-01 03:00:00,6,1008.4,-0.5,65,0,15000,14.816,,,340,,,,,,,,,,,wg-a,,,,AAXX 01034 07690 12/65 43408 10060 20000 30052 40084 58005 60006 80002 90300=
07690,1998-02-01 06:00:00,6,1008.7,0.3,61,-1,15000,22.224,,,330,5.7,7.7,,,,,,,,,wg-a,,,,AAXX 01064 07690 02465 63312 10060 21010 30055 40087 51003 60006 81132 90600 333 10077 20057 60004=
07690,1998-02-01 09:00:00,9,1010.2,1.5,43,-3,500,18.52,,,330,,,,,,,,,,,wg-a,,,,AAXX 01094 07690 12700 53310 10090 21030 30070 40102 51015 60006 81532 90900=
07690,1998-02-01 12:00:00,14,1009.6,-0.5,44,2,10000,11.112,,,210,,,,,,,,,,,wg-a,,,,AAXX 01124 07690 12/60 /2106 10140 20020 30065 40096 58005 60006 91200=
07690,1998-02-01 15:00:00,13,1009.4,-0.2,51,3,500,22.224,,,190,,,,,,,,,,,wg-a,,,,AAXX 01154 07690 12/00 /1912 10130 20030 30063 40094 55002 60006 81030 91500=
07690,1998-02-01 18:00:00,10,1011,1.5,57,2,20000,14.816,,,280,6.2,14.3,,,,,,,,,wg-a,,,,AAXX 01184 07690 12/70 02808 10100 20020 30078 40110 53015 60006 80000 91800 333 10143 20062=
07690,1998-02-01 21:00:00,10,1012.2,1.2,66,4,15000,11.112,,,280,,,,,,,,,,,wg-a,,,,AAXX 01214 07690 12665 72806 10100 20040 30090 40122 53012 60006 875// 92100=
07690,1998-02-02 00:00:00,6,1012.3,0.1,70,1,15000,14.816,,,320,,,,,,,,,,,wg-a,,,,AAXX 02004 07690 12565 73208 10060 20010 30091 40123 50001 60006 875// 90000=
07690,1998-02-02 03:00:00,6,1011.7,-0.6,65,0,15000,22.224,,,330,,,,,,,,,,,wg-a,,,,AAXX 02034 07690 12565 73312 10060 20000 30085 40117 58006 60006 875// 90300=
07690,1998-02-02 06:00:00,5,1010.6,-1.1,70,0,12000,25.928,,,330,5.2,10,,,,,,,,,wg-a,,,,AAXX 02064 07690 02562 73314 10050 20000 30074 40106 58011 60006 875// 90600 333 10100 20052 60004=
07690,1998-02-02 09:00:00,7,1011,0.4,61,0,12000,18.52,,,340,,,,,,,,,,,wg-a,,,,AAXX 02094 07690 12562 73410 10070 20000 30078 40110 50004 60006 82802 90900=
07690,1998-02-02 12:00:00,11,1010,-0.9,62,4,8000,29.632,,,90,,,,,,,,,,,wg-a,,,,AAXX 02124 07690 12558 70916 10110 20040 30069 40100 58009 60006 81202 91200=
07690,1998-02-02 15:00:00,10,1008.8,-1.2,66,4,8000,18.52,,,80,,,,,,,,,,,wg-a,,,,AAXX 02154 07690 12658 80810 10100 20040 30057 40088 56012 60006 8357/ 91500=
07690,1998-02-02 18:00:00,9,1008.9,-0,71,4,9000,7.408,,,80,4.9,12.9,,,,,,,,,wg-a,,,,AAXX 02184 07690 12559 70804 10090 20040 30057 40089 55000 60006 8253/ 91800 333 10129 20049=
07690,1998-02-02 21:00:00,7,1008.9,0,81,4,7000,11.112,,,330,,,,,,,,,,,wg-a,,,,AAXX 02214 07690 12557 /3306 10070 20040 30057 40089 50000 60006 81532 92100=
07690,1998-02-03 00:00:00,7,1008.6,-0.3,81,4,10000,11.112,,,330,,,,,,,,,,,wg-a,,,,AAXX 03004 07690 12560 83306 10070 20040 30054 40086 56003 60006 8657/ 90000=
07690,1998-02-03 03:00:00,7,1008,-0.6,76,3,10000,14.816,,,330,,,,,,,,,,,wg-a,,,,AAXX 03034 07690 12560 73308 10070 20030 30048 40080 58006 60006 875// 90300=
07690,1998-02-03 06:00:00,7,1007.6,-0.4,76,3,10000,18.52,,,330,6.8,9.1,,,,,,,,,wg-a,,,,AAXX 03064 07690 02560 73310 10070 20030 30044 40076 55004 60006 875// 90600 333 10091 20068 60004=
07690,1998-02-03 09:00:00,8,1007.4,-0.2,66,2,9000,14.816,,,340,,,,,,,,,,,wg-a,,,,AAXX 03094 07690 12559 83408 10080 20020 30042 40074 58002 60006 8657/ 90900=
07690,1998-02-03 12:00:00,11,1006.5,-0.8,58,3,8000,7.408,,,60,,,,,,,,,,,wg-a,,,,AAXX 03124 07690 12558 70604 10110 20030 30034 40065 58008 60006 8157/ 91200=
07690,1998-02-03 15:00:00,13,1004.3,-2.2,47,2,10000,14.816,,,90,,,,,,,,,,,wg-a,,,,AAXX 03154 07690 12/60 70908 10130 20020 30012 40043 56022 60006 85032 91500=
07690,1998-02-03 18:00:00,12,1003.9,-0.4,71,7,15000,35.188,,,90,6.8,13,,,,,,,,,wg-a,,,,AAXX 03184 07690 12565 70919 10120 20070 30008 40039 55004 60006 81532 91800 333 10130 20068=
07690,1998-02-03 21:00:00,8,1004.1,0.1,71,3,12000,14.816,,,340,,,,,,,,,,,wg-a,,,,AAXX 03214 07690 12562 73408 10080 20030 30009 40041 50001 60006 8157/ 92100=
07690,1998-02-04 00:00:00,9,1002.6,-1.4,61,2,12000,18.52,,,330,,,,,,,,,,,wg-a,,,,AAXX 04004 07690 12562 73310 10090 20020 39995 40026 57014 60006 8157/ 90000=
07690,1998-02-04 06:00:00,8,1002.4,0.1,61,1,12000,22.224,,,330,8.3,12.4,,,,,,,,,wg-a,,,,AAXX 04064 07690 02562 73312 10080 20010 39993 40024 53001 60006 8157/ 90600 333 10124 20083 60004=
07690,1998-02-04 12:00:00,10,1005.5,0.7,50,0,8000,14.816,,,320,,,,,,,,,,,wg-a,,,,AAXX 04124 07690 12758 73208 10100 20000 30024 40055 50007 60006 8357/ 91200=
07690,1998-02-04 15:00:00,13,1006.1,0.6,62,6,25000,14.816,,,220,,,,,,,,,,,wg-a,,,,AAXX 04154 07690 12775 72208 10130 20060 30030 40061 53006 60006 83572 91500=
07690,1998-02-04 18:00:00,10,1007.9,1.8,76,6,15000,7.408,,,290,8.4,13.3,,,,,,,,,wg-a,,,,AAXX 04184 07690 12765 /2904 10100 20060 30048 40079 53018 60006 81538 91800 333 10133 20084=
07690,1998-02-05 00:00:00,7,1009.6,0,66,1,15000,22.224,,,330,,,,,,,,,,,wg-a,,,,AAXX 05004 07690 12/65 13312 10070 20010 30064 40096 50000 60006 80002 90000=
07690,1998-02-05 03:00:00,7,1010.1,0.5,57,-1,20000,22.224,,,340,,,,,,,,,,,wg-a,,,,AAXX 05034 07690 12/70 23412 10070 21010 30069 40101 51005 60006 80001 90300=
07690,1998-02-05 06:00:00,6,1011.3,1.2,56,-2,20000,22.224,,,330,5.8,10.3,,,,,,,,,wg-a,,,,AAXX 05064 07690 02/70 13312 10060 21020 30081 40113 51012 60006 80001 90600 333 10103 20058 60004=
07690,1998-02-05 09:00:00,8,1013.4,2.1,53,-1,500,22.224,,,330,,,,,,,,,,,wg-a,,,,AAXX 05094 07690 12/00 03312 10080 21010 30102 40134 51021 60006 80000 90900=
07690,1998-02-05 12:00:00,14,1013.3,0,55,5,500,11.112,,,130,,,,,,,,,,,wg-a,,,,AAXX 05124 07690 12/00 01306 10140 20050 30102 40133 50000 60006 80000 91200=
07690,1998-02-05 15:00:00,14,1013.5,0.2,51,4,15000,11.112,,,150,,,,,,,,,,,wg-a,,,,AAXX 05154 07690 12/65 01506 10140 20040 30104 40135 53002 60006 80000 91500=
07690,1998-02-05 18:00:00,9,1015.3,1.7,76,5,10000,11.112,,,320,5.7,14.6,,,,,,,,,wg-a,,,,AAXX 05184 07690 12/60 13206 10090 20050 30121 40153 53017 60006 80001 91800 333 10146 20057=
07690,1998-02-06 00:00:00,7,1017.4,0.8,61,0,15000,25.928,,,330,,,,,,,,,,,wg-a,,,,AAXX 06004 07690 12/65 03314 10070 20000 30142 40174 51008 60006 80000 90000=
07690,1998-02-06 03:00:00,7,1017.8,0.4,53,-2,15000,25.928,,,330,,,,,,,,,,,wg-a,,,,AAXX 06034 07690 12/65 03314 10070 21020 30146 40178 51004 60006 80000 90300=
07690,1998-02-06 06:00:00,6,1018.5,0.7,49,-4,20000,22.224,,,340,5.9,9.4,,,,,,,,,wg-a,,,,AAXX 06064 07690 02/70 03412 10060 21040 30153 40185 53007 60006 80000 90600 333 10094 20059 60004=
07690,1998-02-06 12:00:00,14,1020.7,0.2,51,4,500,7.408,,,160,,,,,,,,,,,wg-a,,,,AAXX 06124 07690 12/00 01604 10140 20040 30176 40207 50002 60006 80000 91200=
07690,1998-02-06 15:00:00,14,1020.7,-0,58,6,500,7.408,,,190,,,,,,,,,,,wg-a,,,,AAXX 06154 07690 12/00 01904 10140 20060 30176 40207 55000 60006 80000 91500=
07690,1998-02-06 18:00:00,9,1021.7,0.9,81,6,12000,7.408,,,320,5.7,14.9,,,,,,,,,wg-a,,,,AAXX 06184 07690 12/62 13204 10090 20060 30185 40217 51009 60006 80001 91800 333 10149 20057=
07690,1998-02-06 21:00:00,8,1022.4,0.7,61,1,15000,18.52,,,340,,,,,,,,,,,wg-a,,,,AAXX 06214 07690 12/65 13410 10080 20010 30192 40224 51007 60006 80001 92100=
07690,1998-02-07 00:00:00,8,1023.2,0.8,49,-2,15000,11.112,,,350,,,,,,,,,,,wg-a,,,,AAXX 07004 07690 12/65 13506 10080 21020 30200 40232 53008 60006 80001 90000=
07690,1998-02-07 03:00:00,7,1023.4,0.2,42,-5,20000,25.928,,,340,,,,,,,,,,,wg-a,,,,AAXX 07034 07690 12/70 13414 10070 21050 30202 40234 50002 60006 80001 90300=
07690,1998-02-07 06:00:00,6,1024.1,0.7,45,-5,20000,18.52,,,330,5.9,9.2,,,,,,,,,wg-a,,,,AAXX 07064 07690 02/70 13310 10060 21050 30209 40241 53007 60006 80001 90600 333 10092 20059 60004=
07690,1998-02-07 09:00:00,8,1025.3,1.2,42,-4,40000,22.224,,,330,,,,,,,,,,,wg-a,,,,AAXX 07094 07690 12/82 13312 10080 21040 30221 40253 51012 60006 80001 90900=
07690,1998-02-07 12:00:00,14,1024.4,-0.8,55,5,500,11.112,,,180,,,,,,,,,,,wg-a,,,,AAXX 07124 07690 12/00 31806 10140 20050 30213 40244 58008 60006 80002 91200=
07690,1998-02-07 15:00:00,13,1022.2,-2.3,72,8,20000,3.704,,,90,,,,,,,,,,,wg-a,,,,AAXX 07154 07690 12/70 60902 10130 20080 30190 40222 58023 60006 82072 91500=
07690,1998-02-07 18:00:00,10,1020.7,-1.5,66,4,12000,11.112,,,340,5.4,14.8,,,,,,,,,wg-a,,,,AAXX 07184 07690 12/62 73406 10100 20040 30175 40207 56015 60006 83072 91800 333 10148 20054=
07690,1998-02-07 21:00:00,7,1020.4,-0.3,76,3,10000,11.112,,,330,,,,,,,,,,,wg-a,,,,AAXX 07214 07690 12/60 13306 10070 20030 30172 40204 55003 60006 80002 92100=
07690,1998-02-08 00:00:00,6,1020.6,0.2,65,0,15000,22.224,,,330,,,,,,,,,,,wg-a,,,,AAXX 08004 07690 12/65 23312 10060 20000 30174 40206 50002 60006 80001 90000=
07690,1998-02-08 03:00:00,4,1021.2,0.5,60,-3,15000,25.928,,,330,,,,,,,,,,,wg-a,,,,AAXX 08034 07690 12/65 23314 10040 21030 30179 40212 51005 60006 80001 90300=
07690,1998-02-08 06:00:00,5,1022.2,1,52,-4,15000,25.928,,,330,4.2,10.1,,,,,,,,,wg-a,,,,AAXX 08064 07690 02/65 33314 10050 21040 30189 40222 51010 60006 80001 90600 333 10101 20042 60004=
07690,1998-02-08 12:00:00,11,1024.8,0.5,35,-4,15000,14.816,,,330,,,,,,,,,,,wg-a,,,,AAXX 08124 07690 12/65 73308 10110 21040 30216 40248 50005 60006 84012 91200=
07690,1998-02-08 15:00:00,14,1025.5,0.7,58,6,10000,11.112,,,200,,,,,,,,,,,wg-a,,,,AAXX 08154 07690 12/60 42006 10140 20060 30223 40255 53007 60006 80002 91500=
07690,1998-02-08 18:00:00,9,1028,2.5,66,3,12000,11.112,,,320,4.8,14.5,,,,,,,,,wg-a,,,,AAXX 08184 07690 12/62 23206 10090 20030 30248 40280 51025 60006 81031 91800 333 10145 20048=
07690,1998-02-08 21:00:00,7,1029.8,1.8,70,2,12000,18.52,,,330,,,,,,,,,,,wg-a,,,,AAXX 08214 07690 12/62 13310 10070 20020 30266 40298 51018 60006 80001 92100=
07690,1998-02-09 00:00:00,7,1031,1.1,61,0,15000,18.52,,,330,,,,,,,,,,,wg-a,,,,AAXX 09004 07690 12/65 03310 10070 20000 30277 40310 51011 60006 80000 90000=
07690,1998-02-09 03:00:00,6,1031,0,61,-1,15000,22.224,,,330,,,,,,,,,,,wg-a,,,,AAXX 09034 07690 12/65 03312 10060 21010 30277 40310 50000 60006 80000 90300=
07690,1998-02-09 06:00:00,5,1031.3,0.3,65,-1,15000,25.928,,,330,5.3,8.9,,,,,,,,,wg-a,,,,AAXX 09064 07690 02/65 03314 10050 21010 30280 40313 53003 60006 80000 90600 333 10089 20053 60004=
07690,1998-02-09 09:00:00,8,1033.3,2,53,-1,25000,18.52,,,330,,,,,,,,,,,wg-a,,,,AAXX 09094 07690 12/75 13310 10080 21010 30300 40333 52020 60006 80001 90900=
07690,1998-02-09 12:00:00,14,1032.6,-0.6,44,2,25000,11.112,,,120,,,,,,,,,,,wg-a,,,,AAXX 09124 07690 12675 /1206 10140 20020 30294 40326 58006 60006 81101 91200=
07690,1998-02-09 15:00:00,14,1032,-0.6,44,2,500,11.112,,,110,,,,,,,,,,,wg-a,,,,AAXX 09154 07690 12/00 11106 10140 20020 30288 40320 56006 60006 80001 91500=
07690,1998-02-09 18:00:00,10,1032.9,0.9,62,3,500,7.408,,,10,5.1,14.3,,,,,,,,,wg-a,,,,AAXX 09184 07690 12/00 10104 10100 20030 30297 40329 53009 60006 80001 91800 333 10143 20051=
07690,1998-02-09 21:00:00,6,1033.6,0.6,75,2,20000,18.52,,,340,,,,,,,,,,,wg-a,,,,AAXX 09214 07690 12/70 03410 10060 20020 30303 40336 51006 60006 80000 92100=
07690,1998-02-10 00:00:00,7,1033.8,0.2,66,1,20000,18.52,,,330,,,,,,,,,,,wg-a,,,,AAXX 10004 07690 12/70 03310 10070 20010 30305 40338 53002 60006 80000 90000=
07690,1998-02-10 03:00:00,6,1033.5,-0.3,70,1,20000,18.52,,,330,,,,,,,,,,,wg-a,,,,AAXX 10034 07690 12/70 03310 10060 20010 30302 40335 56003 60006 80000 90300=
07690,1998-02-10 06:00:00,6,1033.5,-0,70,1,25000,25.928,,,330,5.8,9.5,,,,,,,,,wg-a,,,,AAXX 10064 07690 02/75 03314 10060 20010 30302 40335 55000 60006 80000 90600 333 10095 20058 60004=
07690,1998-02-10 12:00:00,14,1034.1,-0.7,55,5,500,14.816,,,190,,,,,,,,,,,wg-a,,,,AAXX 10124 07690 12/00 11908 10140 20050 30309 40341 58007 60006 80001 91200=
07690,1998-02-10 15:00:00,14,1033,-1.1,58,6,500,11.112,,,200,,,,,,,,,,,wg-a,,,,AAXX 10154 07690 12/00 12006 10140 20060 30298 40330 56011 60006 80001 91500=
07690,1998-02-10 18:00:00,10,1034.1,1.1,71,5,20000,3.704,,,210,5.7,14.2,,,,,,,,,wg-a,,,,AAXX 10184 07690 12/70 02102 10100 20050 30309 40341 53011 60006 80000 91800 333 10142 20057=
07690,1998-02-10 21:00:00,7,1034.6,0.4,76,3,15000,18.52,,,330,,,,,,,,,,,wg-a,,,,AAXX 10214 07690 12/65 03310 10070 20030 30313 40346 51004 60006 80000 92100=
07690,1998-02-11 00:00:00,7,1035,0.4,70,2,15000,18.52,,,330,,,,,,,,,,,wg-a,,,,AAXX 11004 07690 12/65 03310 10070 20020 30317 40350 53004 60006 80000 90000=
07690,1998-02-11 06:00:00,6,1034.7,0.1,56,-2,15000,22.224,,,330,6,9.9,,,,,,,,,wg-a,,,,AAXX 11064 07690 02/65 03312 10060 21020 30314 40347 53001 60006 80000 90600 333 10099 20060 60004=
07690,1998-02-11 12:00:00,14,1035,-0.6,67,8,15000,7.408,,,160,,,,,,,,,,,wg-a,,,,AAXX 11124 07690 12565 /1604 10140 20080 30318 40350 58006 60006 81100 91200=
07690,1998-02-11 15:00:00,14,1033.9,-1.1,72,9,12000,11.112,,,170,,,,,,,,,,,wg-a,,,,AAXX 11154 07690 12462 /1706 10140 20090 30307 40339 56011 60006 81500 91500=
07690,1998-02-11 18:00:00,11,1034.3,0.4,82,8,12000,0,,,0,6.1,14.7,,,,,,,,,wg-a,,,,AAXX 11184 07690 12462 /0000 10110 20080 30311 40343 53004 60006 81500 91800 333 10147 20061=
07690,1998-02-11 21:00:00,8,1034.9,0.5,87,6,8000,14.816,,,330,,,,,,,,,,,wg-a,,,,AAXX 11214 07690 12458 23308 10080 20060 30316 40349 51005 60006 82500 92100=
07690,1998-02-12 00:00:00,7,1034.8,-0.1,87,5,9000,14.816,,,330,,,,,,,,,,,wg-a,,,,AAXX 12004 07690 12459 /3308 10070 20050 30315 40348 58001 60006 81500 90000=
07690,1998-02-12 03:00:00,6,1034.1,-0.7,87,4,12000,22.224,,,330,,,,,,,,,,,wg-a,,,,AAXX 12034 07690 12/62 03312 10060 20040 30308 40341 56007 60006 80000 90300=
07690,1998-02-12 06:00:00,5,1034.1,-0,81,2,12000,22.224,,,330,5.4,10.6,,,,,,,,,wg-a,,,,AAXX 12064 07690 02562 /3312 10050 20020 30308 40341 55000 60006 81501 90600 333 10106 20054 60004=
07690,1998-02-12 09:00:00,10,1034.9,0.9,53,1,10000,11.112,,,330,,,,,,,,,,,wg-a,,,,AAXX 12094 07690 12460 /3306 10100 20010 30317 40349 51009 60006 81500 90900=
07690,1998-02-12 12:00:00,14,1034.1,-0.8,67,8,10000,7.408,,,160,,,,,,,,,,,wg-a,,,,AAXX 12124 07690 12/60 01604 10140 20080 30309 40341 58008 60006 80000 91200=
07690,1998-02-12 15:00:00,14,1032.8,-1.3,72,9,10000,7.408,,,110,,,,,,,,,,,wg-a,,,,AAXX 12154 07690 12560 11104 10140 20090 30296 40328 56013 60006 81500 91500=
07690,1998-02-12 18:00:00,12,1032.9,0.1,82,9,10000,11.112,,,60,5.4,14.4,,,,,,,,,wg-a,,,,AAXX 12184 07690 12/60 00606 10120 20090 30297 40329 53001 60006 80000 91800 333 10144 20054=
07690,1998-02-12 21:00:00,8,1033.2,0.3,87,6,7000,11.112,,,330,,,,,,,,,,,wg-a,,,,AAXX 12214 07690 12/57 03306 10080 20060 30300 40332 53003 60006 80000 92100=
07690,1998-02-13 00:00:00,6,1033.2,-0.1,93,5,10000,18.52,,,330,,,,,,,,,,,wg-a,,,,AAXX 13004 07690 12/60 13310 10060 20050 30299 40332 58001 60006 80002 90000=
07690,1998-02-13 03:00:00,6,1032.8,-0.4,87,4,10000,18.52,,,330,,,,,,,,,,,wg-a,,,,AAXX 13034 07690 12/60 /3310 10060 20040 30295 40328 58004 60006 90300=
07690,1998-02-13 09:00:00,9,1033.1,0.6,57,1,8000,18.52,,,330,,,,,,,,,,,wg-a,,,,AAXX 13094 07690 12458 /3310 10090 20010 30299 40331 51006 60006 81501 90900=
07690,1998-02-13 12:00:00,15,1032.3,-0.8,67,9,9000,7.408,,,150,,,,,,,,,,,wg-a,,,,AAXX 13124 07690 12459 /1504 10150 20090 30291 40323 58008 60006 81500 91200=
07690,1998-02-13 15:00:00,15,1031.5,-0.8,67,9,8000,7.408,,,120,,,,,,,,,,,wg-a,,,,AAXX 13154 07690 12458 /1204 10150 20090 30283 40315 56008 60006 81500 91500=
07690,1998-02-13 18:00:00,12,1031.7,0.2,82,9,10000,3.704,,,60,5.6,15,,,,,,,,,wg-a,,,,AAXX 13184 07690 12460 /0602 10120 20090 30285 40317 53002 60006 81500 91800 333 10150 20056=
07690,1998-02-13 21:00:00,8,1032.1,0.4,93,7,7000,14.816,,,320,,,,,,,,,,,wg-a,,,,AAXX 13214 07690 12457 33208 10080 20070 30289 40321 53004 60006 83500 92100=
07690,1998-02-14 00:00:00,7,1032,-0.1,93,6,9000,18.52,,,320,,,,,,,,,,,wg-a,,,,AAXX 14004 07690 12459 43210 10070 20060 30288 40320 58001 60006 84500 90000=
07690,1998-02-14 03:00:00,8,1032,-0,81,5,10000,14.816,,,330,,,,0,,,,,,,wg-a,,,,AAXX 14034 07690 12560 73308 10080 20050 30288 40320 54000 60007 875// 90300=
07690,1998-02-14 06:00:00,7,1032.5,0.4,76,3,10000,18.52,,,340,6.6,11.5,,,,,,,,,wg-a,,,,AAXX 14064 07690 02560 73410 10070 20030 30292 40325 53004 60006 875// 90600 333 10115 20066 60004=
07690,1998-02-14 09:00:00,8,1033.4,1,66,2,9000,18.52,,,330,,,,,,,,,,,wg-a,,,,AAXX 14094 07690 12559 73310 10080 20020 30302 40334 52010 60006 875// 90900=
07690,1998-02-14 12:00:00,15,1033.4,0,63,8,9000,11.112,,,200,,,,,,,,,,,wg-a,,,,AAXX 14124 07690 12559 32006 10150 20080 30302 40334 50000 60006 83500 91200=
07690,1998-02-14 15:00:00,13,1032.5,-0.9,72,8,10000,7.408,,,140,,,,,,,,,,,wg-a,,,,AAXX 14154 07690 12560 31404 10130 20080 30293 40325 56009 60006 82531 91500=
07690,1998-02-14 18:00:00,12,1032.5,-0,76,8,9000,3.704,,,240,6.5,15,,,,,,,,,wg-a,,,,AAXX 14184 07690 12559 72402 10120 20080 30293 40325 54000 60006 875// 91800 333 10150 20065=
07690,1998-02-14 21:00:00,12,1032.6,0.1,76,8,9000,7.408,,,310,,,,,,,,,,,wg-a,,,,AAXX 14214 07690 12559 73104 10120 20080 30294 40326 50001 60006 875// 92100=
07690,1998-02-15 00:00:00,11,1031.9,-0.7,82,8,10000,11.112,,,320,,,,,,,,,,,wg-a,,,,AAXX 15004 07690 12460 73206 10110 20080 30287 40319 56007 60006 875// 90000=
07690,1998-02-15 03:00:00,10,1030.2,-1.7,82,7,9000,14.816,,,30,,,,,,,,,,,wg-a,,,,AAXX 15034 07690 12459 70308 10100 20070 30270 40302 57017 60006 875// 90300=
07690,1998-02-15 06:00:00,11,1030,-0.2,76,7,9000,11.112,,,350,10.3,12.1,,,,,,,,,wg-a,,,,AAXX 15064 07690 02459 73506 10110 20070 30268 40300 55002 60006 875// 90600 333 10121 20103 60004=
07690,1998-02-15 09:00:00,11,1031,1,71,6,10000,14.816,,,360,,,,,,,,,,,wg-a,,,,AAXX 15094 07690 12560 73608 10110 20060 30278 40310 51010 60006 875// 90900=
07690,1998-02-15 12:00:00,15,1030.4,-0.6,59,7,7000,14.816,,,120,,,,,,,,,,,wg-a,,,,AAXX 15124 07690 12/57 /1208 10150 20070 30272 40304 58006 60006 80000 91200=
07690,1998-02-15 15:00:00,15,1029.5,-0.9,67,9,6000,11.112,,,130,,,,,,,,,,,wg-a,,,,AAXX 15154 07690 12/56 01306 10150 20090 30263 40295 55009 60006 80000 91500=
07690,1998-02-15 18:00:00,12,1030.4,0.9,82,9,10000,3.704,,,260,10.2,15.1,,,,,,,,,wg-a,,,,AAXX 15184 07690 12/60 32602 10120 20090 30272 40304 53009 60006 80001 91800 333 10151 20102=
07690,1998-02-15 21:00:00,9,1030.9,0.5,87,7,6000,14.816,,,330,,,,,,,,,,,wg-a,,,,AAXX 15214 07690 12/56 /3308 10090 20070 30277 40309 52005 60006 80001 92100=
07690,1998-02-16 00:00:00,8,1030.4,-0.5,87,6,8000,18.52,,,330,,,,,,,,,,,wg-a,,,,AAXX 16004 07690 12/58 03310 10080 20060 30272 40304 58005 60006 80000 90000=
07690,1998-02-16 03:00:00,9,1029.4,-1,71,4,10000,22.224,,,330,,,,,,,,,,,wg-a,,,,AAXX 16034 07690 12/60 03312 10090 20040 30262 40294 58010 60006 80000 90300=
07690,1998-02-16 06:00:00,8,1028.8,-0.6,71,3,10000,18.52,,,330,8.1,11.6,,,,,,,,,wg-a,,,,AAXX 16064 07690 02/60 13310 10080 20030 30256 40288 56006 60006 80001 90600 333 10116 20081 60004=
07690,1998-02-16 09:00:00,12,1029,0.2,54,3,9000,14.816,,,320,,,,,,,,,,,wg-a,,,,AAXX 16094 07690 12/59 23208 10120 20030 30258 40290 50002 60006 80001 90900=
07690,1998-02-16 12:00:00,15,1026.7,-2.2,77,11,6000,18.52,,,200,,,,,,,,,,,wg-a,,,,AAXX 16124 07690 12/56 22010 10150 20110 30236 40267 58022 60006 80001 91200=
07690,1998-02-16 15:00:00,15,1024.3,-2.4,82,12,3000,11.112,,,190,,,,,,,,,,10,wg-a,,,,AAXX 16154 07690 12/30 31906 10150 20120 30212 40243 56024 60006 71000 81071 91500=
07690,1998-02-16 18:00:00,13,1023.2,-1.2,88,11,8000,22.224,,,100,8.2,15.9,,,,,,,,,wg-a,,,,AAXX 16184 07690 12458 71012 10130 20110 30200 40232 56012 60006 8257/ 91800 333 10159 20082=
07690,1998-02-16 21:00:00,11,1022.2,-1,87,9,7000,11.112,,,20,,,,,,,,,,,wg-a,,,,AAXX 16214 07690 12557 20206 10110 20090 30190 40222 58010 60006 82500 92100=
07690,1998-02-17 00:00:00,9,1020.7,-1.5,93,8,7000,18.52,,,330,,,,,,,,,,,wg-a,,,,AAXX 17004 07690 12/57 /3310 10090 20080 30175 40207 56015 60006 90000=
07690,1998-02-17 03:00:00,9,1019.2,-1.5,81,6,9000,14.816,,,340,,,,,,,,,,,wg-a,,,,AAXX 17034 07690 12459 73408 10090 20060 30160 40192 56015 60006 875// 90300=
07690,1998-02-17 06:00:00,9,1019.5,0.3,81,6,9000,14.816,,,340,8.7,13.2,,,,,,,,,wg-a,,,,AAXX 17064 07690 02559 33408 10090 20060 30163 40195 53003 60006 83500 90600 333 10132 20087 60004=
07690,1998-02-17 09:00:00,10,1021.6,2.1,76,6,6000,14.816,,,330,,,,,,,,,,,wg-a,,,,AAXX 17094 07690 12556 73308 10100 20060 30184 40216 53021 60006 875// 90900=
07690,1998-02-17 12:00:00,15,1022.4,0.9,77,11,7000,11.112,,,90,,,,,,,,,,,wg-a,,,,AAXX 17124 07690 12557 /0906 10150 20110 30193 40224 50009 60006 81500 91200=
07690,1998-02-17 15:00:00,16,1023.2,0.8,72,11,7000,7.408,,,200,,,,,,,,,,,wg-a,,,,AAXX 17154 07690 12/57 02004 10160 20110 30201 40232 53008 60006 80000 91500=
07690,1998-02-17 18:00:00,14,1025.9,2.6,77,10,9000,11.112,,,330,8.5,17.2,,,,,,,,,wg-a,,,,AAXX 17184 07690 12/59 03306 10140 20100 30227 40259 53026 60006 80000 91800 333 10172 20085=
07690,1998-02-17 21:00:00,13,1028.1,2.2,67,7,10000,18.52,,,340,,,,,,,,,,,wg-a,,,,AAXX 17214 07690 12460 /3410 10130 20070 30249 40281 52022 60006 81500 92100=
07690,1998-02-18 00:00:00,12,1029.8,1.7,62,5,13000,29.632,,,330,,,,,,,,,,,wg-a,,,,AAXX 18004 07690 12/63 03316 10120 20050 30266 40298 51017 60006 80000 90000=
07690,1998-02-18 03:00:00,11,1030.7,0.9,58,3,20000,25.928,,,340,,,,,,,,,,,wg-a,,,,AAXX 18034 07690 12/70 03414 10110 20030 30275 40307 51009 60006 80000 90300=
07690,1998-02-18 06:00:00,10,1031.8,1.1,53,1,20000,29.632,,,330,10,13.9,,,,,,,,,wg-a,,,,AAXX 18064 07690 02/70 03316 10100 20010 30286 40318 51011 60006 80000 90600 333 10139 20100 60004=
07690,1998-02-18 09:00:00,13,1033,1.2,41,0,500,22.224,,,330,,,,,,,,,,,wg-a,,,,AAXX 18094 07690 12/00 03312 10130 20000 30298 40330 51012 60006 80000 90900=
07690,1998-02-18 12:00:00,17,1033.5,0.6,63,10,20000,18.52,,,100,,,,,,,,,,,wg-a,,,,AAXX 18124 07690 12/70 01010 10170 20100 30304 40335 50006 60006 80000 91200=
07690,1998-02-18 15:00:00,16,1033.4,-0.1,77,12,7000,3.704,,,90,,,,,,,,,,,wg-a,,,,AAXX 18154 07690 12/57 00902 10160 20120 30303 40334 56001 60006 80000 91500=
07690,1998-02-18 18:00:00,14,1034.2,0.7,88,12,7000,3.704,,,60,9.8,18.3,,,,,,,,,wg-a,,,,AAXX 18184 07690 12/57 /0602 10140 20120 30310 40342 53007 60006 80001 91800 333 10183 20098=
07690,1998-02-18 21:00:00,12,1034.3,0.1,67,6,8000,18.52,,,340,,,,,,,,,,,wg-a,,,,AAXX 18214 07690 12/58 03410 10120 20060 30311 40343 52001 60006 80000 92100=
07690,1998-02-19 00:00:00,10,1034.4,0.1,66,4,10000,14.816,,,340,,,,,,,,,,,wg-a,,,,AAXX 19004 07690 12/60 03408 10100 20040 30312 40344 50001 60006 80000 90000=
07690,1998-02-19 03:00:00,9,1032.9,-1.5,71,4,12000,18.52,,,340,,,,,,,,,,,wg-a,,,,AAXX 19034 07690 12/62 03410 10090 20040 30297 40329 58015 60006 80000 90300=
07690,1998-02-19 06:00:00,8,1031.7,-1.2,66,2,15000,22.224,,,340,8.2,13.8,,,,,,,,,wg-a,,,,AAXX 19064 07690 02/65 03412 10080 20020 30285 40317 56012 60006 80000 90600 333 10138 20082 60004=
07690,1998-02-19 09:00:00,11,1032.1,0.4,58,3,9000,18.52,,,330,,,,,,,,,,,wg-a,,,,AAXX 19094 07690 12/59 /3310 10110 20030 30289 40321 51004 60006 80001 90900=
07690,1998-02-19 12:00:00,15,1030.9,-1.2,72,10,9000,11.112,,,170,,,,,,,,,,,wg-a,,,,AAXX 19124 07690 12/59 /1706 10150 20100 30277 40309 58012 60006 80001 91200=
07690,1998-02-19 15:00:00,14,1028.9,-2,82,11,7000,11.112,,,110,,,,,,,,,,,wg-a,,,,AAXX 19154 07690 12557 /1106 10140 20110 30257 40289 56020 60006 81101 91500=
07690,1998-02-19 18:00:00,13,1028.6,-0.3,88,11,10000,14.816,,,80,8.1,14.9,,,,,,,,,wg-a,,,,AAXX 19184 07690 12460 50808 10130 20110 30254 40286 55003 60006 85500 91800 333 10149 20081=
07690,1998-02-19 21:00:00,9,1028.6,-0,87,7,10000,14.816,,,320,,,,,,,,,,,wg-a,,,,AAXX 19214 07690 12460 /3208 10090 20070 30254 40286 55000 60006 81500 92100=
07690,1998-02-20 00:00:00,9,1028.1,-0.5,81,6,12000,22.224,,,330,,,,,,,,,,,wg-a,,,,AAXX 20004 07690 12462 /3312 10090 20060 30249 40281 56005 60006 86500 90000=
07690,1998-02-20 03:00:00,8,1026.9,-1.2,81,5,12000,22.224,,,330,,,,,,,,,,,wg-a,,,,AAXX 20034 07690 12562 73312 10080 20050 30237 40269 56012 60006 875// 90300=
07690,1998-02-20 06:00:00,8,1027.4,0.5,76,4,10000,18.52,,,330,8.2,12.9,,,,,,,,,wg-a,,,,AAXX 20064 07690 02560 73310 10080 20040 30242 40274 52005 60006 875// 90600 333 10129 20082 60004=
07690,1998-02-20 09:00:00,11,1028.7,1.3,66,5,9000,18.52,,,330,,,,,,,,,,,wg-a,,,,AAXX 20094 07690 12559 73310 10110 20050 30255 40287 51013 60006 875// 90900=
07690,1998-02-20 12:00:00,16,1028.8,0.2,63,9,9000,7.408,,,140,,,,,,,,,,,wg-a,,,,AAXX 20124 07690 12559 /1404 10160 20090 30257 40288 50002 60006 81800 91200=
07690,1998-02-20 15:00:00,15,1028,-0.8,77,11,7000,7.408,,,110,,,,,,,,,,,wg-a,,,,AAXX 20154 07690 12557 71104 10150 20110 30249 40280 56008 60006 87800 91500=
07690,1998-02-20 18:00:00,14,1028.5,0.4,77,10,12000,3.704,,,30,8.4,16.3,,,,,,,,,wg-a,,,,AAXX 20184 07690 12562 /0302 10140 20100 30253 40285 53004 60006 85800 91800 333 10163 20084=
07690,1998-02-20 21:00:00,10,1028.6,0.1,87,8,7000,11.112,,,320,,,,,,,,,,,wg-a,,,,AAXX 20214 07690 12557 /3206 10100 20080 30254 40286 53001 60006 81500 92100=
07690,1998-02-21 00:00:00,8,1028.5,-0.1,93,7,9000,7.408,,,300,,,,,,,,,,,wg-a,,,,AAXX 21004 07690 12559 /3004 10080 20070 30253 40285 58001 60006 81500 90000=
07690,1998-02-21 03:00:00,8,1027.7,-0.8,93,7,9000,14.816,,,340,,,,,,,,,,,wg-a,,,,AAXX 21034 07690 12559 /3408 10080 20070 30245 40277 57008 60006 81500 90300=
07690,1998-02-21 06:00:00,8,1028.3,0.6,81,5,9000,18.52,,,340,7.9,13.9,,,,,,,,,wg-a,,,,AAXX 21064 07690 02559 /3410 10080 20050 30251 40283 51006 60006 81500 90600 333 10139 20079 60004=
07690,1998-02-21 09:00:00,11,1029.3,1,71,6,6000,11.112,,,330,,,,,,,,,,,wg-a,,,,AAXX 21094 07690 12456 /3306 10110 20060 30261 40293 53010 60006 86501 90900=
07690,1998-02-21 12:00:00,15,1029,-0.3,72,10,6000,3.704,,,130,,,,,,,,,,,wg-a,,,,AAXX 21124 07690 12456 61302 10150 20100 30258 40290 58003 60006 85501 91200=
07690,1998-02-21 15:00:00,14,1027.7,-1.3,77,10,7000,11.112,,,110,,,,,,,,,,,wg-a,,,,AAXX 21154 07690 12457 /1106 10140 20100 30245 40277 56013 60006 85500 91500=
07690,1998-02-21 18:00:00,13,1027.8,0.1,77,9,10000,3.704,,,140,8.3,15.1,,,,,,,,,wg-a,,,,AAXX 21184 07690 12460 /1402 10130 20090 30246 40278 53001 60006 86800 91800 333 10151 20083=
07690,1998-02-21 21:00:00,10,1027.6,-0.2,93,9,6000,7.408,,,330,,,,,,,,,,,wg-a,,,,AAXX 21214 07690 12556 53304 10100 20090 30244 40276 58002 60006 82501 92100=
07690,1998-02-22 00:00:00,9,1027.2,-0.4,93,8,7000,11.112,,,330,,,,,,,,,,,wg-a,,,,AAXX 22004 07690 12557 73306 10090 20080 30240 40272 56004 60006 8/5// 90000=
07690,1998-02-22 03:00:00,10,1025.5,-1.7,82,7,9000,11.112,,,330,,,,,,,,,,,wg-a,,,,AAXX 22034 07690 12559 83306 10100 20070 30223 40255 58017 60006 82572 90300=
07690,1998-02-22 06:00:00,11,1024.6,-0.9,82,8,9000,7.408,,,60,9,12.8,,,,,,,,3,wg-a,,,,AAXX 22064 07690 02559 70604 10110 20080 30214 40246 56009 60006 70362 8457/ 90600 333 10128 20090 61000=
07690,1998-02-22 09:00:00,11,1024.1,-0.5,82,8,6000,11.112,,,30,,,,,,,,,,61,wg-a,,,,AAXX 22094 07690 02456 80306 10110 20080 30209 40241 58005 61000 76162 8557/ 90900 333 ////=
07690,1998-02-22 12:00:00,10,1021.8,-2.3,93,9,4000,14.816,,,20,,,,11,,,,,,61,wg-a,,,,AAXX 22124 07690 02440 80208 10100 20090 30186 40218 58023 60116 76162 875// 91200 333 60117=
07690,1998-02-22 15:00:00,11,1019.7,-2.1,76,7,500,11.112,,,340,,,,0,,,,,,21,wg-a,,,,AAXX 22154 07690 12400 /3406 10110 20070 30165 40197 56021 60007 72162 86500 91500=
07690,1998-02-22 18:00:00,10,1019.1,-0.6,82,7,20000,11.112,,,320,9.6,12.4,,,,,,,,1,wg-a,,,,AAXX 22184 07690 12470 33206 10100 20070 30159 40191 58006 60006 70161 81270 91800 333 10124 20096=
07690,1998-02-22 21:00:00,8,1018.8,-0.3,87,6,15000,14.816,,,330,,,,,,,,,,,wg-a,,,,AAXX 22214 07690 12/65 13308 10080 20060 30156 40188 56003 60006 81030 92100=
07690,1998-02-23 00:00:00,7,1018.3,-0.5,87,5,12000,18.52,,,320,,,,,,,,,,,wg-a,,,,AAXX 23004 07690 12562 63210 10070 20050 30151 40183 58005 60006 84530 90000=
07690,1998-02-23 03:00:00,9,1017.4,-0.9,66,3,20000,14.816,,,330,,,,,,,,,,,wg-a,,,,AAXX 23034 07690 12570 73308 10090 20030 30142 40174 56009 60006 8583/ 90300=
07690,1998-02-23 06:00:00,9,1018.1,0.7,71,4,20000,18.52,,,50,6.9,9.5,,,,,11,,,,wg-a,,,,AAXX 23064 07690 02570 70510 10090 20040 30149 40181 53007 60006 8683/ 90600 333 10095 20069 60114=
07690,1998-02-23 09:00:00,13,1020.5,2.4,62,6,20000,31.484,,,100,,,,,,,,,,,wg-a,,,,AAXX 23094 07690 12570 41017 10130 20060 30173 40205 51024 60006 84900 90900=
07690,1998-02-23 12:00:00,14,1020.7,0.3,55,5,500,35.188,,,90,,,,,,,,,,,wg-a,,,,AAXX 23124 07690 12500 40919 10140 20050 30176 40207 52003 60006 82101 91200=
07690,1998-02-23 15:00:00,14,1021.2,0.5,55,5,500,14.816,,,140,,,,,,,,,,,wg-a,,,,AAXX 23154 07690 12500 /1408 10140 20050 30181 40212 53005 60006 82201 91500=
07690,1998-02-23 18:00:00,12,1022.2,0.9,71,7,20000,18.52,,,240,8.7,15.2,,,,,,,,61,wg-a,,,,AAXX 23184 07690 02470 82410 10120 20070 30190 40222 53009 61000 76161 8212/ 91800 333 10152 20087 6100=
07690,1998-02-23 21:00:00,10,1023.4,1.2,87,8,10000,11.112,,,330,,,,3,,,,,,61,wg-a,,,,AAXX 23214 07690 12560 83306 10100 20080 30202 40234 50012 60037 76166 8322/ 92100=
07690,1998-02-24 00:00:00,10,1022.6,-0.8,82,7,15000,22.224,,,330,,,,1,,,,,,21,wg-a,,,,AAXX 24004 07690 02565 73312 10100 20070 30194 40226 56008 60046 72162 8387/ 90000 333 60017=
07690,1998-02-24 03:00:00,10,1023,0.4,71,5,15000,22.224,,,340,,,,,,,,,,1,wg-a,,,,AAXX 24034 07690 02665 33412 10100 20050 30198 40230 51004 61000 70161 8143/ 90300 333 ////=
07690,1998-02-24 06:00:00,10,1024.3,1.3,66,4,25000,22.224,,,330,9.4,13.1,,,,,4,,,1,wg-a,,,,AAXX 24064 07690 02675 23312 10100 20040 30211 40243 53013 60006 70161 81530 90600 333 10131 20094 60044=
07690,1998-02-24 09:00:00,13,1025.6,1.3,58,5,25000,18.52,,,310,,,,,,,,,,,wg-a,,,,AAXX 24094 07690 12675 /3110 10130 20050 30224 40256 51013 60006 81200 90900=
07690,1998-02-24 12:00:00,18,1025.2,-0.3,52,8,25000,14.816,,,130,,,,,,,,,,,wg-a,,,,AAXX 24124 07690 12675 21308 10180 20080 30221 40252 58003 60006 82200 91200=
07690,1998-02-24 15:00:00,18,1024.6,-0.6,49,7,500,25.928,,,110,,,,,,,,,,,wg-a,,,,AAXX 24154 07690 12700 21114 10180 20070 30215 40246 55006 60006 82100 91500=
07690,1998-02-24 18:00:00,15,1026.5,1.9,59,7,20000,3.704,,,20,9.3,20.5,,,,,,,,,wg-a,,,,AAXX 24184 07690 12770 20202 10150 20070 30234 40265 53019 60006 81130 91800 333 10205 20093=
07690,1998-02-24 21:00:00,11,1027.9,1.3,66,5,15000,14.816,,,320,,,,,,,,,,,wg-a,,,,AAXX 24214 07690 12665 /3208 10110 20050 30247 40279 53013 60006 81500 92100=
07690,1998-02-25 00:00:00,10,1028.4,0.5,66,4,15000,18.52,,,330,,,,,,,,,,,wg-a,,,,AAXX 25004 07690 12/65 03310 10100 20040 30252 40284 51005 60006 80000 90000=
07690,1998-02-25 03:00:00,10,1028,-0.4,62,3,15000,22.224,,,330,,,,,,,,,,,wg-a,,,,AAXX 25034 07690 12/65 03312 10100 20030 30248 40280 57004 60006 80000 90300=
07690,1998-02-25 06:00:00,9,1028.3,0.3,66,3,20000,25.928,,,330,8.8,15.3,,,,,,,,,wg-a,,,,AAXX 25064 07690 02/70 33314 10090 20030 30251 40283 53003 60006 83030 90600 333 10153 20088 60004=
07690,1998-02-25 09:00:00,11,1029,0.7,58,3,20000,25.928,,,330,,,,,,,,,,,wg-a,,,,AAXX 25094 07690 12/70 63314 10110 20030 30258 40290 51007 60006 86070 90900=
07690,1998-02-25 12:00:00,16,1028.6,-0.3,48,5,15000,7.408,,,320,,,,,,,,,,,wg-a,,,,AAXX 25124 07690 12/65 53204 10160 20050 30255 40286 58003 60006 85070 91200=
07690,1998-02-25 18:00:00,13,1028.6,0.6,62,6,12000,7.408,,,350,8.9,18,,,,,,,,,wg-a,,,,AAXX 25184 07690 12862 63504 10130 20060 30254 40286 53006 60006 83572 91800 333 10180 20089=
07690,1998-02-25 21:00:00,11,1029.5,0.9,66,5,15000,14.816,,,340,,,,,,,,,,,wg-a,,,,AAXX 25214 07690 12/65 23408 10110 20050 30263 40295 53009 60006 80002 92100=
07690,1998-02-26 00:00:00,11,1030.1,0.6,66,5,15000,18.52,,,330,,,,,,,,,,,wg-a,,,,AAXX 26004 07690 12/65 03310 10110 20050 30269 40301 53006 60006 80000 90000=
07690,1998-02-26 03:00:00,10,1030.6,0.5,66,4,20000,22.224,,,330,,,,,,,,,,,wg-a,,,,AAXX 26034 07690 12/70 53312 10100 20040 30274 40306 51005 60006 81032 90300=
07690,1998-02-26 06:00:00,10,1031.1,0.5,62,3,20000,18.52,,,340,9.8,13.3,,,,,,,,,wg-a,,,,AAXX 26064 07690 02/70 43410 10100 20030 30279 40311 53005 60006 84030 90600 333 10133 20098 60004=
07690,1998-02-26 09:00:00,12,1032.4,1.3,58,4,25000,22.224,,,330,,,,,,,,,,,wg-a,,,,AAXX 26094 07690 12/75 03312 10120 20040 30292 40324 50013 60006 80000 90900=
07690,1998-02-26 12:00:00,17,1031.5,-0.8,52,7,25000,11.112,,,150,,,,,,,,,,,wg-a,,,,AAXX 26124 07690 12575 /1506 10170 20070 30284 40315 58008 60006 81100 91200=
07690,1998-02-26 15:00:00,16,1030.4,-1.1,63,9,20000,11.112,,,200,,,,,,,,,,,wg-a,,,,AAXX 26154 07690 12/70 /2006 10160 20090 30273 40304 56011 60006 80000 91500=
07690,1998-02-27 00:00:00,10,1029.6,-1.2,76,6,15000,14.816,,,330,,,,,,,,,,,wg-a,,,,AAXX 27004 07690 12/65 03308 10100 20060 30264 40296 58012 60006 80000 90000=
07690,1998-02-27 03:00:00,9,1028.6,-1,76,5,10000,18.52,,,330,,,,,,,,,,,wg-a,,,,AAXX 27034 07690 12/60 /3310 10090 20050 30254 40286 57010 60006 90300=
07690,1998-02-27 06:00:00,9,1027.4,-1.2,76,5,15000,18.52,,,330,8.8,12.5,,,,,,,,,wg-a,,,,AAXX 27064 07690 02/65 03310 10090 20050 30242 40274 56012 60006 80000 90600 333 10125 20088 60004=
07690,1998-02-27 09:00:00,12,1027.5,0.1,62,5,15000,14.816,,,330,,,,,,,,,,,wg-a,,,,AAXX 27094 07690 12/65 03308 10120 20050 30243 40275 50001 60006 80000 90900=
07690,1998-02-27 12:00:00,15,1026.1,-1.3,59,7,15000,11.112,,,180,,,,,,,,,,,wg-a,,,,AAXX 27124 07690 12/65 01806 10150 20070 30230 40261 58013 60006 80000 91200=
07690,1998-02-27 15:00:00,15,1023.8,-2.3,82,12,7000,11.112,,,180,,,,,,,,,,,wg-a,,,,AAXX 27154 07690 12457 /1806 10150 20120 30207 40238 56023 60006 81500 91500=
07690,1998-02-27 18:00:00,14,1023.3,-0.5,82,11,6000,7.408,,,150,8.7,15.3,,,,,,,,,wg-a,,,,AAXX 27184 07690 12456 /1504 10140 20110 30202 40233 56005 60006 85500 91800 333 10153 20087=
07690,1998-02-27 21:00:00,10,1022.6,-0.8,87,8,7000,11.112,,,330,,,,,,,,,,,wg-a,,,,AAXX 27214 07690 12457 53306 10100 20080 30194 40226 58008 60006 85500 92100=
07690,1998-02-28 00:00:00,9,1020.8,-1.8,93,8,9000,18.52,,,330,,,,,,,,,,,wg-a,,,,AAXX 28004 07690 12459 43310 10090 20080 30176 40208 56018 60006 84500 90000=
07690,1998-02-28 03:00:00,9,1018.9,-1.9,87,7,9000,18.52,,,340,,,,,,,,,,,wg-a,,,,AAXX 28034 07690 12459 73410 10090 20070 30157 40189 58019 60006 875// 90300=
07690,1998-02-28 06:00:00,8,1017.6,-1.3,81,5,8000,22.224,,,330,8.2,13.7,,,,,,,,,wg-a,,,,AAXX 28064 07690 02558 /3312 10080 20050 30144 40176 56013 60006 84500 90600 333 10137 20082 60004=
07690,1998-02-28 09:00:00,11,1016.8,-0.8,66,5,9000,18.52,,,330,,,,,,,,,,,wg-a,,,,AAXX 28094 07690 12559 /3310 10110 20050 30136 40168 58008 60006 81500 90900=
07690,1998-02-28 12:00:00,15,1014.9,-1.8,67,9,9000,11.112,,,130,,,,,,,,,,,wg-a,,,,AAXX 28124 07690 12/59 01306 10150 20090 30118 40149 58018 60006 80000 91200=
07690,1998-02-28 15:00:00,15,1011.7,-3.2,72,10,9000,22.224,,,90,,,,,,,,,,,wg-a,,,,AAXX 28154 07690 12/59 00912 10150 20100 30086 40117 56032 60006 80000 91500=
07690,1998-02-28 18:00:00,14,1012.1,0.4,77,10,10000,18.52,,,80,7.8,15.7,,,,,,,,,wg-a,,,,AAXX 28184 07690 12/60 00810 10140 20100 30090 40121 53004 60006 80000 91800 333 10157 20078=
07690,1998-02-28 21:00:00,10,1012.1,-0.1,87,8,7000,14.816,,,320,,,,,,,,,,,wg-a,,,,AAXX 28214 07690 12457 /3208 10100 20080 30089 40121 55001 60006 81500 92100=
07690,1998-03-01 00:00:00,9,1012.2,0.1,87,7,8000,18.52,,,330,,,,,,,,,,,wg-a,,,,AAXX 01004 07690 12458 33310 10090 20070 30090 40122 53001 60006 83500 90000=
07690,1998-03-01 03:00:00,8,1011.8,-0.4,87,6,9000,14.816,,,330,,,,,,,,,,,wg-a,,,,AAXX 01034 07690 12459 23308 10080 20060 30086 40118 56004 60006 82500 90300=
07690,1998-03-01 06:00:00,8,1012.4,0.6,81,5,8000,18.52,,,330,7.6,13.5,,,,,,,,,wg-a,,,,AAXX 01064 07690 02458 23310 10080 20050 30092 40124 53006 60006 81502 90600 333 10135 20076 60004=
07690,1998-03-01 09:00:00,11,1014.2,1.8,58,3,10000,14.816,,,330,,,,,,,,,,,wg-a,,,,AAXX 01094 07690 12560 53308 10110 20030 30110 40142 51018 60006 81530 90900=
07690,1998-03-01 12:00:00,16,1014.3,0.2,55,7,15000,7.408,,,190,,,,,,,,,,,wg-a,,,,AAXX 01124 07690 12565 /1904 10160 20070 30112 40143 50002 60006 81531 91200=
07690,1998-03-01 15:00:00,16,1013,-1.3,63,9,12000,11.112,,,110,,,,,,,,,,,wg-a,,,,AAXX 01154 07690 12/62 31106 10160 20090 30099 40130 56013 60006 80001 91500=
07690,1998-03-01 18:00:00,14,1014,1,77,10,20000,14.816,,,80,7.3,16.9,,,,,,,,,wg-a,,,,AAXX 01184 07690 12/70 30808 10140 20100 30109 40140 53010 60006 80001 91800 333 10169 20073=
07690,1998-03-01 21:00:00,9,1016.2,2.1,87,7,10000,11.112,,,320,,,,,,,,,,,wg-a,,,,AAXX 01214 07690 12/60 03206 10090 20070 30130 40162 53021 60006 80000 92100=
07690,1998-03-02 00:00:00,8,1017.6,1.4,76,4,10000,18.52,,,320,,,,,,,,,,,wg-a,,,,AAXX 02004 07690 12/60 03210 10080 20040 30144 40176 53014 60006 80000 90000=
07690,1998-03-02 03:00:00,8,1017.9,0.3,66,2,25000,22.224,,,330,,,,,,,,,,,wg-a,,,,AAXX 02034 07690 12/75 03312 10080 20020 30147 40179 51003 60006 80000 90300=
07690,1998-03-02 06:00:00,8,1019.7,1.8,53,-1,500,14.816,,,340,7.2,13.5,,,,,,,,,wg-a,,,,AAXX 02064 07690 02/00 23408 10080 21010 30165 40197 52018 60006 80002 90600 333 10135 20072 60004=
07690,1998-03-02 09:00:00,12,1021.9,2.2,47,1,500,14.816,,,330,,,,,,,,,,,wg-a,,,,AAXX 02094 07690 12/00 23308 10120 20010 30187 40219 51022 60006 80002 90900=
07690,1998-03-02 15:00:00,15,1021.9,-0.4,67,9,20000,14.816,,,110,,,,,,,,,,,wg-a,,,,AAXX 02154 07690 12670 31108 10150 20090 30188 40219 55004 60006 81501 91500=
07690,1998-03-02 18:00:00,13,1022.5,0.6,77,9,20000,11.112,,,90,7.7,16.5,,,,,,,,,wg-a,,,,AAXX 02184 07690 12670 /0906 10130 20090 30194 40225 53006 60006 81501 91800 333 10165 20077=
07690,1998-03-02 21:00:00,9,1024.1,1.5,87,7,20000,7.408,,,340,,,,,,,,,,,wg-a,,,,AAXX 02214 07690 12470 /3404 10090 20070 30209 40241 53015 60006 81500 92100=
07690,1998-03-03 00:00:00,10,1024.5,0.4,76,6,20000,18.52,,,330,,,,,,,,,,,wg-a,,,,AAXX 03004 07690 12570 /3310 10100 20060 30213 40245 51004 60006 86500 90000=
07690,1998-03-03 03:00:00,9,1024.1,-0.4,76,5,20000,18.52,,,330,,,,,,,,,,,wg-a,,,,AAXX 03034 07690 12670 /3310 10090 20050 30209 40241 58004 60006 81500 90300=
07690,1998-03-03 06:00:00,9,1024.9,0.8,76,5,20000,22.224,,,330,8.4,13.4,,,,,,,,,wg-a,,,,AAXX 03064 07690 02570 /3312 10090 20050 30217 40249 53008 60006 81501 90600 333 10134 20084 60004=
07690,1998-03-03 09:00:00,13,1026.4,1.5,62,6,20000,14.816,,,330,,,,,,,,,,,wg-a,,,,AAXX 03094 07690 12570 23308 10130 20060 30232 40264 51015 60006 82800 90900=
07690,1998-03-03 12:00:00,14,1026.4,0,63,7,20000,14.816,,,190,,,,,,,,,,,wg-a,,,,AAXX 03124 07690 12570 /1908 10140 20070 30232 40264 50000 60006 81200 91200=
07690,1998-03-03 15:00:00,15,1025.7,-0.6,72,10,15000,25.928,,,210,,,,,,,,,,,wg-a,,,,AAXX 03154 07690 12565 22114 10150 20100 30226 40257 56006 60006 82800 91500=
07690,1998-03-03 18:00:00,12,1026.1,0.3,88,10,14000,11.112,,,230,8.5,15.3,,,,,,,,,wg-a,,,,AAXX 03184 07690 12464 /2306 10120 20100 30229 40261 53003 60006 82831 91800 333 10153 20085=
07690,1998-03-03 21:00:00,11,1026.2,0.1,87,9,9000,11.112,,,330,,,,,,,,,,,wg-a,,,,AAXX 03214 07690 12459 53306 10110 20090 30230 40262 53001 60006 85500 92100=
07690,1998-03-04 00:00:00,9,1026.4,0.2,87,7,10000,14.816,,,330,,,,,,,,,,,wg-a,,,,AAXX 04004 07690 12560 /3308 10090 20070 30232 40264 53002 60006 81500 90000=
07690,1998-03-04 03:00:00,9,1025.4,-1,87,7,10000,14.816,,,330,,,,,,,,,,,wg-a,,,,AAXX 04034 07690 12460 33308 10090 20070 30222 40254 58010 60006 83500 90300=
07690,1998-03-04 06:00:00,8,1025.5,0.1,93,7,9000,11.112,,,320,8.3,12.2,,,,,,,,,wg-a,,,,AAXX 04064 07690 02459 23206 10080 20070 30223 40255 53001 60006 81502 90600 333 10122 20083 60004=
07690,1998-03-04 09:00:00,12,1026,0.5,76,8,8000,7.408,,,320,,,,,,,,,,,wg-a,,,,AAXX 04094 07690 12658 /3204 10120 20080 30228 40260 50005 60006 81502 90900=
07690,1998-03-04 12:00:00,15,1025.2,-0.7,77,11,9000,25.928,,,210,,,,,,,,,,,wg-a,,,,AAXX 04124 07690 12559 /2114 10150 20110 30221 40252 58007 60006 82502 91200=
07690,1998-03-04 15:00:00,15,1023.5,-1.7,77,11,10000,25.928,,,210,,,,,,,,,,,wg-a,,,,AAXX 04154 07690 12560 52114 10150 20110 30204 40235 56017 60006 82502 91500=
07690,1998-03-04 18:00:00,13,1023.2,-0.4,88,11,10000,22.224,,,230,8.3,15.3,,,,,,,,,wg-a,,,,AAXX 04184 07690 12560 72312 10130 20110 30200 40232 55004 60006 875// 91800 333 10153 20083=
07690,1998-03-04 21:00:00,12,1023,-0.2,88,10,12000,11.112,,,270,,,,,,,,,,,wg-a,,,,AAXX 04214 07690 12462 72706 10120 20100 30198 40230 58002 60006 83502 92100=
07690,1998-03-05 03:00:00,10,1019,-2.9,87,8,12000,18.52,,,330,,,,,,,,,,,wg-a,,,,AAXX 05034 07690 12462 73310 10100 20080 30158 40190 58029 60006 875// 90300=
07690,1998-03-05 06:00:00,10,1017.8,-1.2,82,7,8000,18.52,,,330,9.4,12.9,,,,,,,,,wg-a,,,,AAXX 05064 07690 02458 73310 10100 20070 30146 40178 58012 60006 877// 90600 333 10129 20094 60004=
07690,1998-03-05 09:00:00,13,1016.4,-1.3,82,10,9000,11.112,,,230,,,,,,,,,,,wg-a,,,,AAXX 05094 07690 12/59 42306 10130 20100 30133 40164 58013 60006 82042 90900=
07690,1998-03-05 12:00:00,20,1014.5,-1.9,43,7,15000,7.408,,,230,,,,,,,,,,,wg-a,,,,AAXX 05124 07690 12/65 52304 10200 20070 30114 40145 56019 60006 82072 91200=
07690,1998-03-05 15:00:00,16,1016.4,1.9,77,12,11000,29.632,,61.116,90,,,,,,,,,,,wg-a,,,,AAXX 05154 07690 12661 20916 10160 20120 30133 40164 53019 60006 81120 91500 333 91033=
07690,1998-03-05 18:00:00,15,1019.3,2.9,77,11,12000,22.224,,,70,10.1,22.6,,,,,,,,,wg-a,,,,AAXX 05184 07690 12/62 10712 10150 20110 30162 40193 53029 60006 80002 91800 333 10226 20101=
07690,1998-03-05 21:00:00,11,1023.2,3.8,87,9,12000,14.816,,,320,,,,,,,,,,,wg-a,,,,AAXX 05214 07690 12/62 03208 10110 20090 30200 40232 51038 60006 80000 92100=
07690,1998-03-06 00:00:00,11,1025.4,2.2,58,3,12000,22.224,,,330,,,,,,,,,,,wg-a,,,,AAXX 06004 07690 12/62 03312 10110 20030 30222 40254 53022 60006 80000 90000=
07690,1998-03-06 03:00:00,9,1025.5,0.1,46,-2,20000,22.224,,,330,,,,,,,,,,,wg-a,,,,AAXX 06034 07690 12/70 03312 10090 21020 30223 40255 50001 60006 80000 90300=
07690,1998-03-06 06:00:00,9,1025.8,0.3,46,-2,50000,25.928,,,330,8.5,14.8,,,,,,,,,wg-a,,,,AAXX 06064 07690 02784 53314 10090 21020 30226 40258 51003 60006 81501 90600 333 10148 20085 60004=
07690,1998-03-06 09:00:00,13,1027.2,1.4,35,-2,50000,18.52,,,330,,,,,,,,,,,wg-a,,,,AAXX 06094 07690 12/84 43310 10130 21020 30240 40272 51014 60006 80001 90900=
07690,1998-03-06 12:00:00,16,1026.5,-0.6,48,5,50000,18.52,,,200,,,,,,,,,,,wg-a,,,,AAXX 06124 07690 12/84 52010 10160 20050 30234 40265 58006 60006 80001 91200=
07690,1998-03-06 15:00:00,15,1024.8,-1.7,51,5,50000,11.112,,,180,,,,,,,,,,,wg-a,,,,AAXX 06154 07690 12/84 51806 10150 20050 30217 40248 56017 60006 80001 91500=
07690,1998-03-06 18:00:00,14,1023.9,-1,58,6,50000,7.408,,,90,8.5,17,,,,,,,,,wg-a,,,,AAXX 06184 07690 12/84 40904 10140 20060 30207 40239 56010 60006 80001 91800 333 10170 20085=
07690,1998-03-06 21:00:00,9,1023.6,-0.3,61,2,15000,11.112,,,330,,,,,,,,,,,wg-a,,,,AAXX 06214 07690 12/65 03306 10090 20020 30204 40236 57003 60006 80000 92100=
07690,1998-03-07 00:00:00,8,1022.8,-0.8,61,1,20000,14.816,,,330,,,,,,,,,,,wg-a,,,,AAXX 07004 07690 12/70 03308 10080 20010 30196 40228 56008 60006 80000 90000=
07690,1998-03-07 03:00:00,7,1021.8,-1,66,1,20000,14.816,,,330,,,,,,,,,,,wg-a,,,,AAXX 07034 07690 12/70 03308 10070 20010 30186 40218 58010 60006 80000 90300=
07690,1998-03-07 06:00:00,7,1021,-0.8,66,1,20000,22.224,,,330,6.7,13.6,,,,,,,,,wg-a,,,,AAXX 07064 07690 02/70 13312 10070 20010 30178 40210 57008 60006 80002 90600 333 10136 20067 60004=
07690,1998-03-07 12:00:00,15,1018.6,-1.9,63,8,35000,18.52,,,110,,,,,,,,,,,wg-a,,,,AAXX 07124 07690 12681 /1110 10150 20080 30155 40186 58019 60006 81100 91200=
07690,1998-03-07 15:00:00,15,1016.5,-2.1,67,9,500,22.224,,,90,,,,,,,,,,,wg-a,,,,AAXX 07154 07690 12600 /0912 10150 20090 30134 40165 56021 60006 81142 91500=
07690,1998-03-07 18:00:00,14,1015.6,-0.9,82,11,20000,18.52,,,90,6.7,15.9,,,,,,,,,wg-a,,,,AAXX 07184 07690 12/70 20910 10140 20110 30125 40156 56009 60006 82031 91800 333 10159 20067=
07690,1998-03-07 21:00:00,10,1014.6,-1.1,87,8,20000,7.408,,,320,,,,,,,,,,,wg-a,,,,AAXX 07214 07690 12/70 33204 10100 20080 30114 40146 57011 60006 80001 92100=
07690,1998-03-08 00:00:00,9,1013.4,-1.2,87,7,15000,7.408,,,350,,,,,,,,,,,wg-a,,,,AAXX 08004 07690 12765 23504 10090 20070 30102 40134 58012 60006 81501 90000=
07690,1998-03-08 03:00:00,8,1011.1,-2.3,93,7,15000,14.816,,,340,,,,,,,,,,,wg-a,,,,AAXX 08034 07690 12/65 03408 10080 20070 30079 40111 58023 60006 80000 90300=
07690,1998-03-08 06:00:00,16,1009.8,-1.2,36,1,40000,18.52,,,290,8.1,15.7,,,,,,,,,wg-a,,,,AAXX 08064 07690 02/82 42910 10160 20010 30067 40098 56012 60006 81031 90600 333 10157 20081 60004=
07690,1998-03-08 09:00:00,16,1009.3,-0.5,48,5,50000,31.484,,50.004,240,,,,,,,,,,,wg-a,,,,AAXX 08094 07690 12/84 32417 10160 20050 30062 40093 58005 60006 81042 90900 333 91027=
07690,1998-03-08 12:00:00,20,1007.2,-2,32,3,50000,35.188,,50.004,260,,,,,,,,,,,wg-a,,,,AAXX 08124 07690 12684 42619 10200 20030 30042 40072 58020 60006 81142 91200 333 91027=
07690,1998-03-08 15:00:00,18,1004.5,-2.7,49,7,50000,42.596,,,260,,,,,,,,,,,wg-a,,,,AAXX 08154 07690 12684 /2623 10180 20070 30015 40045 57027 60006 81142 91500=
07690,1998-03-08 18:00:00,14,1004.1,-0.5,72,9,20000,35.188,,,270,14.3,21.2,,,,,,,,,wg-a,,,,AAXX 08184 07690 12670 22719 10140 20090 30010 40041 55005 60006 81532 91800 333 10212 20143=
07690,1998-03-08 21:00:00,15,1001,-3.1,51,5,20000,42.596,,,260,,,,,,,,,,,wg-a,,,,AAXX 08214 07690 12570 /2623 10150 20050 39979 40010 56031 60006 81500 92100=
07690,1998-03-09 03:00:00,12,1002.4,2,76,8,500,11.112,,,320,,,,,,,,,,,wg-a,,,,AAXX 09034 07690 12500 /3206 10120 20080 39993 40024 51020 60006 81500 90300=
07690,1998-03-09 06:00:00,11,1003.3,0.9,54,2,500,11.112,,,330,9.3,16.1,,,,,,,,,wg-a,,,,AAXX 09064 07690 02500 23306 10110 20020 30002 40033 53009 60006 81530 90600 333 10161 20093 60004=
07690,1998-03-09 09:00:00,15,1005.1,1.8,39,1,40000,14.816,,,320,,,,,,,,,,,wg-a,,,,AAXX 09094 07690 12582 /3208 10150 20010 30020 40051 51018 60006 81530 90900=
07690,1998-03-09 12:00:00,16,1006.6,1.5,63,9,40000,11.112,,,160,,,,,,,,,,,wg-a,,,,AAXX 09124 07690 12582 /1606 10160 20090 30035 40066 53015 60006 81130 91200=
07690,1998-03-09 18:00:00,16,1008.1,1.6,45,4,40000,22.224,,,80,10.4,17.3,,,,,,,,,wg-a,,,,AAXX 09184 07690 12582 40812 10160 20040 30050 40081 53016 60006 81130 91800 333 10173 20104=
07690,1998-03-09 21:00:00,12,1012.3,4.2,67,6,20000,22.224,,,250,,,,2,,,,,,61,wg-a,,,,AAXX 09214 07690 12270 82512 10120 20060 30092 40123 53042 60027 76186 8553/ 92100=
07690,1998-03-10 00:00:00,12,1014.8,2.5,28,-6,20000,31.484,,,80,,,,1,,,,,,2,wg-a,,,,AAXX 10004 07690 02570 70817 10120 21060 30117 40148 53025 60036 70286 8553/ 90000 333 60017=
07690,1998-03-10 03:00:00,10,1018.8,3.9,13,-17,20000,14.816,,,50,,,,,,,,,,,wg-a,,,,AAXX 10034 07690 12570 /0508 10100 21170 30156 40188 51039 60006 81530 90300=
07690,1998-03-10 06:00:00,5,1022.8,4,60,-2,500,7.408,,,290,4.9,16.1,,,,,3,,,,wg-a,,,,AAXX 10064 07690 02500 /2904 10050 21020 30196 40228 53040 60006 81130 90600 333 10161 20049 60034=
07690,1998-03-10 09:00:00,12,1025.8,3,40,-1,50000,7.408,,,250,,,,,,,,,,,wg-a,,,,AAXX 10094 07690 12/84 02504 10120 21010 30226 40258 51030 60006 80000 90900=
07690,1998-03-10 12:00:00,12,1027.2,1.4,26,-7,50000,25.928,,50.004,110,,,,,,,,,,,wg-a,,,,AAXX 10124 07690 12684 /1114 10120 21070 30240 40272 51014 60006 81100 91200 333 91027=
07690,1998-03-10 15:00:00,12,1026,-1.2,30,-5,50000,3.704,,,130,,,,,,,,,,,wg-a,,,,AAXX 10154 07690 12784 /1302 10120 21050 30228 40260 56012 60006 81200 91500=
07690,1998-03-10 18:00:00,10,1026.1,0.1,53,1,500,25.928,,,230,5,12.6,,,,,,,,,wg-a,,,,AAXX 10184 07690 12700 32314 10100 20010 30229 40261 50001 60006 81501 91800 333 10126 20050=
07690,1998-03-10 21:00:00,7,1024.7,-1.4,53,-2,20000,11.112,,,330,,,,,,,,,,,wg-a,,,,AAXX 10214 07690 12/70 23306 10070 21020 30215 40247 58014 60006 80001 92100=
07690,1998-03-11 00:00:00,5,1022.7,-2.1,65,-1,20000,14.816,,,300,,,,,,,,,,,wg-a,,,,AAXX 11004 07690 12/70 03008 10050 21010 30194 40227 56021 60006 80000 90000=
07690,1998-03-11 03:00:00,5,1019,-3.6,60,-2,20000,14.816,,,330,,,,,,,,,,,wg-a,,,,AAXX 11034 07690 12/70 73308 10050 21020 30158 40190 58036 60006 83074 90300=
07690,1998-03-11 06:00:00,6,1016.8,-2.2,52,-3,25000,11.112,,,320,4.6,9.7,,,,,,,,,wg-a,,,,AAXX 11064 07690 02675 73206 10060 21030 30136 40168 56022 60006 8157/ 90600 333 10097 20046 60004=
07690,1998-03-11 09:00:00,10,1015.8,-1,43,-2,15000,3.704,,,150,,,,,,,,,,,wg-a,,,,AAXX 11094 07690 12465 51502 10100 21020 30126 40158 56010 60006 81532 90900=
07690,1998-03-11 12:00:00,9,1014.4,-1.4,61,2,10000,11.112,,,70,,,,0,,,,,,60,wg-a,,,,AAXX 11124 07690 02760 80706 10090 20020 30112 40144 58014 60006 76062 8153/ 91200 333 60007=
07690,1998-03-11 15:00:00,10,1011.5,-2.9,62,3,500,18.52,,,100,,,,0,,,,,,3,wg-a,,,,AAXX 11154 07690 12400 81010 10100 20030 30083 40115 56029 60007 70362 8453/ 91500=
07690,1998-03-11 18:00:00,10,1011.3,-0.2,57,2,500,25.928,,,90,5.8,10.5,,,,,,,,1,wg-a,,,,AAXX 11184 07690 12400 70914 10100 20020 30081 40113 56002 60006 70162 868// 91800 333 10105 20058=
07690,1998-03-11 21:00:00,7,1011.7,0.4,70,2,20000,14.816,,,330,,,,,,,,,,,wg-a,,,,AAXX 11214 07690 12770 33308 10070 20020 30085 40117 53004 60006 81531 92100=
07690,1998-03-12 00:00:00,6,1011.7,0,70,1,20000,18.52,,,330,,,,,,,,,,,wg-a,,,,AAXX 12004 07690 12/70 33310 10060 20010 30085 40117 50000 60006 83030 90000=
07690,1998-03-12 03:00:00,7,1011.1,-0.6,61,0,20000,14.816,,,330,,,,,,,,,,,wg-a,,,,AAXX 12034 07690 12770 73308 10070 20000 30079 40111 58006 60006 8457/ 90300=
07690,1998-03-12 06:00:00,6,1011.9,0.8,65,0,18000,14.816,,,330,5.9,10.4,,,,,,,,,wg-a,,,,AAXX 12064 07690 02568 33308 10060 20000 30087 40119 53008 60006 81530 90600 333 10104 20059 60004=
07690,1998-03-12 09:00:00,12,1012.8,1,54,3,20000,3.704,,,170,,,,,,,,,,,wg-a,,,,AAXX 12094 07690 12570 41702 10120 20030 30097 40128 51010 60006 81130 90900=
07690,1998-03-12 12:00:00,13,1013.4,0.6,54,4,20000,14.816,,,150,,,,,,,,,,,wg-a,,,,AAXX 12124 07690 12570 31508 10130 20040 30103 40134 51006 60006 81130 91200=
07690,1998-03-12 15:00:00,12,1013.4,-0,47,1,500,7.408,,,120,,,,,,,,,,,wg-a,,,,AAXX 12154 07690 12500 41204 10120 20010 30103 40134 55000 60006 81130 91500=
07690,1998-03-12 18:00:00,10,1014.8,1.3,71,5,20000,11.112,,,250,6.3,13.6,,,,,,,,,wg-a,,,,AAXX 12184 07690 12570 22506 10100 20050 30116 40148 53013 60006 81130 91800 333 10136 20063=
07690,1998-03-12 21:00:00,7,1016.1,1.3,70,2,20000,18.52,,,330,,,,,,,,,,,wg-a,,,,AAXX 12214 07690 12/70 /3310 10070 20020 30129 40161 51013 60006 80000 92100=
07690,1998-03-13 00:00:00,7,1017.2,1.1,70,2,20000,22.224,,,330,,,,,,,,,,,wg-a,,,,AAXX 13004 07690 12/70 13312 10070 20020 30140 40172 51011 60006 80001 90000=
07690,1998-03-13 03:00:00,6,1017,-0.2,75,2,20000,18.52,,,340,,,,,,,,,,,wg-a,,,,AAXX 13034 07690 12/70 03410 10060 20020 30138 40170 58002 60006 80000 90300=
07690,1998-03-13 06:00:00,6,1018.5,1.5,70,1,25000,25.928,,,330,5.7,9.8,,,,,,,,,wg-a,,,,AAXX 13064 07690 02/75 13314 10060 20010 30153 40185 53015 60006 80001 90600 333 10098 20057 60004=
07690,1998-03-13 09:00:00,10,1019.5,1,53,1,25000,11.112,,,330,,,,,,,,,,,wg-a,,,,AAXX 13094 07690 12/75 13306 10100 20010 30163 40195 51010 60006 80001 90900=
07690,1998-03-13 12:00:00,14,1020.1,0.7,55,5,25000,22.224,,,190,,,,,,,,,,,wg-a,,,,AAXX 13124 07690 12675 /1912 10140 20050 30170 40201 51007 60006 81201 91200=
07690,1998-03-13 15:00:00,14,1019.5,-0.6,55,5,18000,18.52,,,200,,,,,,,,,,,wg-a,,,,AAXX 13154 07690 12668 /2010 10140 20050 30164 40195 56006 60006 81101 91500=
07690,1998-03-13 18:00:00,11,1020.4,0.8,71,6,18000,11.112,,,260,5.7,14,,,,,,,,,wg-a,,,,AAXX 13184 07690 12/68 22606 10110 20060 30172 40204 52008 60006 82030 91800 333 10140 20057=
07690,1998-03-13 21:00:00,8,1021.6,1.2,81,5,15000,18.52,,,330,,,,,,,,,,,wg-a,,,,AAXX 13214 07690 12/65 03310 10080 20050 30184 40216 51012 60006 80000 92100=
07690,1998-03-14 00:00:00,8,1022.1,0.5,76,4,15000,22.224,,,330,,,,,,,,,,,wg-a,,,,AAXX 14004 07690 12/65 03312 10080 20040 30189 40221 51005 60006 80000 90000=
07690,1998-03-14 03:00:00,8,1021.6,-0.5,71,3,15000,11.112,,,350,,,,,,,,,,,wg-a,,,,AAXX 14034 07690 12/65 03506 10080 20030 30184 40216 58005 60006 80000 90300=
07690,1998-03-14 06:00:00,7,1021.8,0.2,70,2,20000,22.224,,,330,7.4,11.1,,,,,,,,,wg-a,,,,AAXX 14064 07690 02/70 23312 10070 20020 30186 40218 52002 60006 80001 90600 333 10111 20074 60004=
07690,1998-03-14 09:00:00,12,1022.2,0.4,50,2,500,11.112,,,330,,,,,,,,,,,wg-a,,,,AAXX 14094 07690 12/00 03306 10120 20020 30190 40222 51004 60006 80000 90900=
07690,1998-03-14 12:00:00,15,1021,-1.1,51,5,25000,22.224,,,190,,,,,,,,,,,wg-a,,,,AAXX 14124 07690 12675 /1912 10150 20050 30179 40210 58011 60006 81100 91200=
07690,1998-03-14 15:00:00,15,1018.8,-2.2,67,9,25000,22.224,,,210,,,,,,,,,,,wg-a,,,,AAXX 14154 07690 12/75 02112 10150 20090 30157 40188 56022 60006 80000 91500=
07690,1998-03-14 18:00:00,13,1018.3,-0.5,67,7,20000,7.408,,,180,7.4,15,,,,,,,,,wg-a,,,,AAXX 14184 07690 12/70 /1804 10130 20070 30152 40183 56005 60006 80000 91800 333 10150 20074=
07690,1998-03-14 21:00:00,10,1018.1,-0.3,82,7,20000,7.408,,,360,,,,,,,,,,,wg-a,,,,AAXX 14214 07690 12/70 03604 10100 20070 30149 40181 58003 60006 80000 92100=
07690,1998-03-15 00:00:00,9,1018,-0.1,81,6,20000,11.112,,,330,,,,,,,,,,,wg-a,,,,AAXX 15004 07690 12/70 03306 10090 20060 30148 40180 57001 60006 80000 90000=
07690,1998-03-15 03:00:00,9,1017.7,-0.3,66,3,20000,14.816,,,340,,,,,,,,,,,wg-a,,,,AAXX 15034 07690 12/70 03408 10090 20030 30145 40177 58003 60006 80000 90300=
07690,1998-03-15 06:00:00,9,1017,-0.7,61,2,500,22.224,,,320,8.3,12.9,,,,,,,,,wg-a,,,,AAXX 15064 07690 02/00 03212 10090 20020 30138 40170 56007 60006 80000 90600 333 10129 20083 60004=
07690,1998-03-15 09:00:00,14,1017.8,0.9,58,6,35000,11.112,,,100,,,,,,,,,,,wg-a,,,,AAXX 15094 07690 12/81 01006 10140 20060 30147 40178 51009 60006 80000 90900=
07690,1998-03-15 12:00:00,17,1018.7,0.9,63,10,500,3.704,,,210,,,,,,,,,,,wg-a,,,,AAXX 15124 07690 12500 /2102 10170 20100 30156 40187 50009 60006 81101 91200=
07690,1998-03-15 15:00:00,18,1017.9,-0.8,52,8,500,18.52,,,230,,,,,,,,,,,wg-a,,,,AAXX 15154 07690 12600 22310 10180 20080 30148 40179 55008 60006 81101 91500=
07690,1998-03-15 18:00:00,14,1017.4,-0.5,72,9,500,7.408,,,230,9,18.1,,,,,,,,,wg-a,,,,AAXX 15184 07690 12500 /2304 10140 20090 30143 40174 55005 60006 81501 91800 333 10181 20090=
07690,1998-03-15 21:00:00,11,1017.9,0.4,58,3,20000,14.816,,,330,,,,,,,,,,,wg-a,,,,AAXX 15214 07690 12/70 03308 10110 20030 30147 40179 53004 60006 80000 92100=
07690,1998-03-16 00:00:00,12,1018.3,0.4,47,1,20000,14.816,,,340,,,,,,,,,,,wg-a,,,,AAXX 16004 07690 12/70 03408 10120 20010 30151 40183 53004 60006 80000 90000=
07690,1998-03-16 06:00:00,11,1018.2,0.3,50,1,35000,18.52,,,340,10.5,13.5,,,,,,,,,wg-a,,,,AAXX 16064 07690 02/81 13410 10110 20010 30150 40182 53003 60006 80001 90600 333 10135 20105 60004=
07690,1998-03-16 09:00:00,16,1019.4,1.3,36,1,35000,7.408,,,320,,,,,,,,,,,wg-a,,,,AAXX 16094 07690 12581 23204 10160 20010 30163 40194 51013 60006 81101 90900=
07690,1998-03-16 12:00:00,17,1018.9,-0.5,52,7,40000,11.112,,,160,,,,,,,,,,,wg-a,,,,AAXX 16124 07690 12582 /1606 10170 20070 30158 40189 58005 60006 81100 91200=
07690,1998-03-16 15:00:00,17,1018.3,-0.6,59,9,40000,11.112,,,200,,,,,,,,,,,wg-a,,,,AAXX 16154 07690 12582 22006 10170 20090 30152 40183 56006 60006 81101 91500=
07690,1998-03-16 18:00:00,14,1018.6,0.3,82,11,500,3.704,,,110,10.5,18.4,,,,,,,,,wg-a,,,,AAXX 16184 07690 12/00 01102 10140 20110 30155 40186 51003 60006 80000 91800 333 10184 20105=
07690,1998-03-16 21:00:00,11,1019.9,1.2,76,7,20000,14.816,,,320,,,,,,,,,,,wg-a,,,,AAXX 16214 07690 12/70 03208 10110 20070 30167 40199 51012 60006 80000 92100=
07690,1998-03-17 00:00:00,10,1020.7,0.8,66,4,20000,7.408,,,340,,,,,,,,,,,wg-a,,,,AAXX 17004 07690 12/70 13404 10100 20040 30175 40207 51008 60006 80001 90000=
07690,1998-03-17 03:00:00,9,1020.6,-0.1,71,4,20000,11.112,,,330,,,,,,,,,,,wg-a,,,,AAXX 17034 07690 12/70 13306 10090 20040 30174 40206 58001 60006 80001 90300=
07690,1998-03-17 06:00:00,9,1021,0.4,71,4,500,11.112,,,330,8.3,14.3,,,,,,,,,wg-a,,,,AAXX 17064 07690 02400 13306 10090 20040 30178 40210 53004 60006 81500 90600 333 10143 20083 60004=
07690,1998-03-17 09:00:00,15,1021.7,0.8,72,10,20000,7.408,,,80,,,,,,,,,,,wg-a,,,,AAXX 17094 07690 12/70 /0804 10150 20100 30186 40217 50008 60006 80000 90900=
07690,1998-03-17 12:00:00,16,1021.5,-0.2,77,12,12000,11.112,,,130,,,,,,,,,,,wg-a,,,,AAXX 17124 07690 12/62 01306 10160 20120 30184 40215 55002 60006 80000 91200=
07690,1998-03-17 15:00:00,16,1020.2,-1.3,72,11,6000,7.408,,,170,,,,,,,,,,,wg-a,,,,AAXX 17154 07690 12556 11704 10160 20110 30171 40202 56013 60006 81500 91500=
07690,1998-03-17 18:00:00,13,1020,-0.2,88,11,9000,7.408,,,240,9.3,16.3,,,,,,,,,wg-a,,,,AAXX 17184 07690 12/59 02404 10130 20110 30169 40200 57002 60006 80000 91800 333 10163 20093=
07690,1998-03-17 21:00:00,11,1019.8,-0.3,94,10,8000,7.408,,,310,,,,,,,,,,,wg-a,,,,AAXX 17214 07690 12/58 03104 10110 20100 30166 40198 56003 60006 80000 92100=
07690,1998-03-18 00:00:00,12,1021,1.2,82,9,9000,7.408,,,30,,,,,,,,,,,wg-a,,,,AAXX 18004 07690 12/59 00304 10120 20090 30178 40210 53012 60006 80000 90000=
07690,1998-03-18 03:00:00,9,1022,1,87,7,9000,11.112,,,320,,,,,,,,,,,wg-a,,,,AAXX 18034 07690 12459 23206 10090 20070 30188 40220 51010 60006 82500 90300=
07690,1998-03-18 06:00:00,9,1024.6,2.6,81,6,7000,3.704,,,330,8.8,13.4,,,,,,,,,wg-a,,,,AAXX 18064 07690 02457 63302 10090 20060 30214 40246 53026 60006 86500 90600 333 10134 20088 60004=
07690,1998-03-18 09:00:00,15,1027.1,2.6,77,11,8000,11.112,,,100,,,,,,,,,,,wg-a,,,,AAXX 18094 07690 12558 41006 10150 20110 30240 40271 51026 60006 84500 90900=
07690,1998-03-18 12:00:00,17,1028,0.9,59,9,8000,3.704,,,90,,,,,,,,,,,wg-a,,,,AAXX 18124 07690 12/58 20902 10170 20090 30249 40280 51009 60006 80001 91200=
07690,1998-03-18 15:00:00,16,1027.9,-0.1,82,13,7000,7.408,,,120,,,,,,,,,,,wg-a,,,,AAXX 18154 07690 12/57 31204 10160 20130 30248 40279 55001 60006 80001 91500=
07690,1998-03-18 18:00:00,14,1028.5,0.5,88,12,8000,3.704,,,210,9.1,17.8,,,,,,,,,wg-a,,,,AAXX 18184 07690 12/58 32102 10140 20120 30253 40285 53005 60006 80001 91800 333 10178 20091=
07690,1998-03-18 21:00:00,12,1028.5,-0,76,8,10000,7.408,,,310,,,,,,,,,,,wg-a,,,,AAXX 18214 07690 12/60 03104 10120 20080 30253 40285 54000 60006 80000 92100=
07690,1998-03-19 00:00:00,10,1028.7,0.2,76,6,12000,11.112,,,310,,,,,,,,,,,wg-a,,,,AAXX 19004 07690 12/62 03106 10100 20060 30255 40287 50002 60006 80000 90000=
07690,1998-03-19 03:00:00,9,1027.2,-1.5,81,6,12000,14.816,,,330,,,,,,,,,,,wg-a,,,,AAXX 19034 07690 12/62 03308 10090 20060 30240 40272 58015 60006 80000 90300=
07690,1998-03-19 06:00:00,8,1026.9,-0.3,81,5,10000,11.112,,,330,8.4,13.5,,,,,,,,,wg-a,,,,AAXX 19064 07690 02/60 23306 10080 20050 30237 40269 58003 60006 80001 90600 333 10135 20084 60004=
07690,1998-03-19 09:00:00,14,1025.7,-1.1,77,10,8000,14.816,,,100,,,,,,,,,,,wg-a,,,,AAXX 19094 07690 12558 41008 10140 20100 30226 40257 58011 60006 81531 90900=
07690,1998-03-19 12:00:00,16,1023.8,-1.9,72,11,7000,18.52,,,110,,,,,,,,,,,wg-a,,,,AAXX 19124 07690 12557 /1110 10160 20110 30207 40238 58019 60006 82502 91200=
07690,1998-03-19 15:00:00,16,1023.7,-0.1,72,11,7000,25.928,,,80,,,,,,,,,,,wg-a,,,,AAXX 19154 07690 12457 20814 10160 20110 30206 40237 55001 60006 82800 91500=
07690,1998-03-19 18:00:00,14,1024.9,1.2,82,11,7000,22.224,,,90,8.3,16.2,,,,,,,,,wg-a,,,,AAXX 19184 07690 12457 60912 10140 20110 30218 40249 53012 60006 86500 91800 333 10162 20083=
07690,1998-03-19 21:00:00,14,1026.5,1.6,82,11,9000,11.112,,,90,,,,,,,,,,,wg-a,,,,AAXX 19214 07690 12459 70906 10140 20110 30234 40265 51016 60006 875// 92100=
07690,1998-03-20 00:00:00,11,1027.2,0.6,87,9,10000,14.816,,,330,,,,,,,,,,,wg-a,,,,AAXX 20004 07690 12560 /3308 10110 20090 30240 40272 51006 60006 81500 90000=
07690,1998-03-20 03:00:00,10,1026.2,-1,87,8,10000,14.816,,,330,,,,,,,,,,,wg-a,,,,AAXX 20034 07690 12/60 03308 10100 20080 30230 40262 58010 60006 80000 90300=
07690,1998-03-20 06:00:00,9,1026.3,0.1,81,6,7000,14.816,,,340,9.4,14.5,,,,,,,,,wg-a,,,,AAXX 20064 07690 02/57 /3408 10090 20060 30231 40263 51001 60006 80001 90600 333 10145 20094 60004=
07690,1998-03-20 09:00:00,15,1026.2,-0,63,8,8000,7.408,,,100,,,,,,,,,,,wg-a,,,,AAXX 20094 07690 12/58 21004 10150 20080 30231 40262 55000 60006 80001 90900=
07690,1998-03-20 12:00:00,16,1024.5,-1.7,68,10,9000,11.112,,,170,,,,,,,,,,,wg-a,,,,AAXX 20124 07690 12559 /1706 10160 20100 30214 40245 58017 60006 81100 91200=
07690,1998-03-20 15:00:00,16,1022.6,-1.9,68,10,9000,7.408,,,160,,,,,,,,,,,wg-a,,,,AAXX 20154 07690 12559 21604 10160 20100 30195 40226 56019 60006 82800 91500=
07690,1998-03-20 18:00:00,13,1021.3,-1.3,88,11,9000,7.408,,,210,9.4,16.5,,,,,,,,,wg-a,,,,AAXX 20184 07690 12559 22104 10130 20110 30182 40213 55013 60006 82800 91800 333 10165 20094=
07690,1998-03-20 21:00:00,11,1021.4,-0,82,8,9000,14.816,,,320,,,,,,,,,,,wg-a,,,,AAXX 20214 07690 12559 /3208 10110 20080 30182 40214 54000 60006 81500 92100=
07690,1998-03-21 00:00:00,10,1020.4,-1,82,7,9000,18.52,,,330,,,,,,,,,,,wg-a,,,,AAXX 21004 07690 12/59 23310 10100 20070 30172 40204 58010 60006 80001 90000=
07690,1998-03-21 03:00:00,10,1018.5,-1.9,76,6,10000,18.52,,,320,,,,,,,,,,,wg-a,,,,AAXX 21034 07690 12/60 /3210 10100 20060 30153 40185 58019 60006 80001 90300=
07690,1998-03-21 06:00:00,9,1017.4,-1.1,76,5,10000,18.52,,,330,9.1,13.4,,,,,,,,,wg-a,,,,AAXX 21064 07690 02/60 33310 10090 20050 30142 40174 57011 60006 80002 90600 333 10134 20091 60004=
07690,1998-03-21 09:00:00,15,1017.5,0.2,63,8,12000,7.408,,,100,,,,,,,,,,,wg-a,,,,AAXX 21094 07690 12/62 61004 10150 20080 30144 40175 50002 60006 80002 90900=
07690,1998-03-21 12:00:00,16,1016.9,-0.6,63,9,10000,14.816,,,190,,,,,,,,,,,wg-a,,,,AAXX 21124 07690 12560 /1908 10160 20090 30138 40169 56006 60006 81102 91200=
07690,1998-03-21 15:00:00,16,1016.2,-0.7,68,10,10000,11.112,,,190,,,,,,,,,,,wg-a,,,,AAXX 21154 07690 12/60 21906 10160 20100 30131 40162 55007 60006 81072 91500=
07690,1998-03-21 18:00:00,14,1018,1.8,77,10,20000,3.704,,,180,9.1,16.2,,,,,,,,,wg-a,,,,AAXX 21184 07690 12/70 /1802 10140 20100 30149 40180 53018 60006 83072 91800 333 10162 20091=
07690,1998-03-21 21:00:00,13,1021.2,3.2,62,6,15000,50.004,,,90,,,,,,,,,,,wg-a,,,,AAXX 21214 07690 12565 /0927 10130 20060 30181 40212 53032 60006 81530 92100=
07690,1998-03-22 00:00:00,11,1024.3,3,58,3,15000,46.3,,,100,,,,,,,,,,,wg-a,,,,AAXX 22004 07690 12665 31025 10110 20030 30211 40243 51030 60006 81170 90000=
07690,1998-03-22 03:00:00,11,1025,0.7,54,2,15000,38.892,,,90,,,,,,,,,,,wg-a,,,,AAXX 22034 07690 12665 70921 10110 20020 30218 40250 50007 60006 875// 90300=
07690,1998-03-22 06:00:00,10,1026.3,1.3,50,0,40000,31.484,,,90,10,14,,,,,,,,,wg-a,,,,AAXX 22064 07690 02682 70917 10100 20000 30231 40263 53013 60006 875// 90600 333 10140 20100 60004=
07690,1998-03-22 12:00:00,11,1026.8,-0.6,43,-1,500,7.408,,,120,,,,,,,,,,,wg-a,,,,AAXX 22124 07690 12600 71204 10110 21010 30236 40268 56006 60006 8753/ 91200=
07690,1998-03-22 15:00:00,11,1025.4,-1.4,47,0,500,7.408,,,110,,,,,,,,,,,wg-a,,,,AAXX 22154 07690 12600 71104 10110 20000 30222 40254 58014 60006 8753/ 91500=
07690,1998-03-22 18:00:00,9,1025.8,0.4,61,2,500,0,,,0,9.3,10.9,,,,,,,,,wg-a,,,,AAXX 22184 07690 12500 /0000 10090 20020 30226 40258 53004 60006 81500 91800 333 10109 20093=
07690,1998-03-22 21:00:00,6,1026.9,1.1,70,1,20000,14.816,,,330,,,,,,,,,,,wg-a,,,,AAXX 22214 07690 12670 33308 10060 20010 30237 40269 53011 60006 83500 92100=
07690,1998-03-23 00:00:00,6,1026.9,0,70,1,20000,14.816,,,340,,,,,,,,,,,wg-a,,,,AAXX 23004 07690 12670 /3408 10060 20010 30237 40269 50000 60006 86500 90000=
07690,1998-03-23 03:00:00,7,1026.2,-0.7,66,1,20000,14.816,,,340,,,,,,,,,,,wg-a,,,,AAXX 23034 07690 12670 53408 10070 20010 30230 40262 58007 60006 85500 90300=
07690,1998-03-23 06:00:00,7,1025.6,-0.6,70,2,20000,18.52,,,340,6,9.3,,,,,,,,,wg-a,,,,AAXX 23064 07690 02670 /3410 10070 20020 30224 40256 58006 60006 84500 90600 333 10093 20060 60004=
07690,1998-03-23 09:00:00,10,1025.3,-0.3,57,2,25000,11.112,,,330,,,,,,,,,,,wg-a,,,,AAXX 23094 07690 12575 73306 10100 20020 30221 40253 58003 60006 878// 90900=
07690,1998-03-23 12:00:00,11,1024.1,-1.2,58,3,20000,7.408,,,130,,,,,,,,,,15,wg-a,,,,AAXX 23124 07690 12570 71304 10110 20030 30209 40241 58012 60006 71511 878// 91200=
07690,1998-03-23 15:00:00,11,1021.6,-2.5,58,3,18000,7.408,,,70,,,,,,,,,,15,wg-a,,,,AAXX 23154 07690 12568 70704 10110 20030 30184 40216 56025 60006 71522 878// 91500=
07690,1998-03-23 18:00:00,11,1020.6,-1,66,5,15000,14.816,,,80,6.9,11.4,,,,,,,,,wg-a,,,,AAXX 23184 07690 12565 70808 10110 20050 30174 40206 56010 60006 878// 91800 333 10114 20069=
07690,1998-03-23 21:00:00,10,1019.8,-0.8,66,4,12000,22.224,,,100,,,,,,,,,,1,wg-a,,,,AAXX 23214 07690 02562 71012 10100 20040 30166 40198 57008 61000 70162 878// 92100 333 ////=
07690,1998-03-24 00:00:00,9,1018.3,-1.5,71,4,12000,22.224,,,100,,,,,,,,,,3,wg-a,,,,AAXX 24004 07690 02462 81012 10090 20040 30151 40183 57015 61000 70362 878// 90000 333 ////=
07690,1998-03-24 03:00:00,8,1016.1,-2.2,87,6,12000,7.408,,,300,,,,1,,,,,,61,wg-a,,,,AAXX 24034 07690 12462 83004 10080 20060 30129 40161 58022 60017 76162 878// 90300=
07690,1998-03-24 06:00:00,7,1015.4,-0.7,93,6,6000,7.408,,,360,6.7,11,,,,,2,,,3,wg-a,,,,AAXX 24064 07690 02456 43604 10070 20060 30122 40154 55007 60006 70361 84800 90600 333 10110 20067 60024=
07690,1998-03-24 09:00:00,11,1016.6,1.2,62,4,15000,11.112,,,220,,,,,,,,,,,wg-a,,,,AAXX 24094 07690 12565 22206 10110 20040 30134 40166 53012 60006 82801 90900=
07690,1998-03-24 12:00:00,14,1016.5,0,18,-10,40000,35.188,,72.228,70,,,,,,,,,,,wg-a,,,,AAXX 24124 07690 12582 30719 10140 21100 30134 40165 50000 60006 81130 91200 333 91039=
07690,1998-03-24 15:00:00,16,1016.8,0.3,18,-8,40000,18.52,,,110,,,,,,,,,,,wg-a,,,,AAXX 24154 07690 12582 31110 10160 21080 30137 40168 53003 60006 81131 91500=
07690,1998-03-24 18:00:00,12,1019.6,2.7,50,2,40000,18.52,,,270,6.6,15.9,,,,,,,,,wg-a,,,,AAXX 24184 07690 12582 22710 10120 20020 30164 40196 53027 60006 81130 91800 333 10159 20066=
07690,1998-03-24 21:00:00,8,1021.7,2.1,53,-1,25000,11.112,,,310,,,,,,,,,,,wg-a,,,,AAXX 24214 07690 12/75 03106 10080 21010 30185 40217 53021 60006 80000 92100=
07690,1998-03-25 00:00:00,6,1022.4,0.7,52,-3,25000,22.224,,,330,,,,,,,,,,,wg-a,,,,AAXX 25004 07690 12/75 03312 10060 21030 30192 40224 51007 60006 80000 90000=
07690,1998-03-25 03:00:00,5,1022.4,0,45,-6,25000,22.224,,,340,,,,,,,,,,,wg-a,,,,AAXX 25034 07690 12/75 03412 10050 21060 30192 40224 50000 60006 80000 90300=
07690,1998-03-25 06:00:00,5,1023.5,1,48,-5,500,22.224,,,330,4.8,11.9,,,,,,,,,wg-a,,,,AAXX 25064 07690 02600 /3312 10050 21050 30202 40235 53010 60006 81101 90600 333 10119 20048 60004=
07690,1998-03-25 09:00:00,11,1023.9,0.5,40,-2,500,3.704,,,120,,,,,,,,,,,wg-a,,,,AAXX 25094 07690 12600 21202 10110 21020 30207 40239 51005 60006 81132 90900=
07690,1998-03-25 12:00:00,13,1023.2,-0.7,41,0,500,18.52,,,130,,,,,,,,,,,wg-a,,,,AAXX 25124 07690 12600 /1310 10130 20000 30200 40232 55007 60006 81100 91200=
07690,1998-03-25 15:00:00,13,1023,-0.2,38,-1,500,14.816,,,110,,,,,,,,,,,wg-a,,,,AAXX 25154 07690 12600 /1108 10130 21010 30198 40230 58002 60006 81100 91500=
07690,1998-03-25 18:00:00,12,1024,1,44,0,20000,3.704,,,160,4.8,13.4,,,,,,,,,wg-a,,,,AAXX 25184 07690 12/70 11602 10120 20000 30208 40240 53010 60006 81032 91800 333 10134 20048=
07690,1998-03-25 21:00:00,7,1025.5,1.5,70,2,20000,3.704,,,340,,,,,,,,,,,wg-a,,,,AAXX 25214 07690 12/70 03402 10070 20020 30223 40255 51015 60006 80000 92100=
07690,1998-03-26 00:00:00,7,1025,-0.5,61,0,20000,14.816,,,340,,,,,,,,,,,wg-a,,,,AAXX 26004 07690 12/70 /3408 10070 20000 30218 40250 58005 60006 81030 90000=
07690,1998-03-26 03:00:00,6,1023.9,-1.1,65,0,20000,18.52,,,340,,,,,,,,,,,wg-a,,,,AAXX 26034 07690 12/70 03410 10060 20000 30207 40239 56011 60006 80000 90300=
07690,1998-03-26 06:00:00,6,1023.6,-0.3,65,0,20000,25.928,,,330,5.5,11.8,,,,,,,,,wg-a,,,,AAXX 26064 07690 02/70 03314 10060 20000 30204 40236 55003 60006 80000 90600 333 10118 20055 60004=
07690,1998-03-26 09:00:00,12,1023,-0.6,47,1,20000,7.408,,,280,,,,,,,,,,,wg-a,,,,AAXX 26094 07690 12/70 12804 10120 20010 30198 40230 58006 60006 80001 90900=
07690,1998-03-26 12:00:00,13,1020.8,-2.2,54,4,15000,14.816,,,170,,,,,,,,,,,wg-a,,,,AAXX 26124 07690 12/65 01708 10130 20040 30176 40208 58022 60006 80000 91200=
07690,1998-03-26 15:00:00,14,1019.1,-1.6,58,6,15000,11.112,,,150,,,,,,,,,,,wg-a,,,,AAXX 26154 07690 12565 /1506 10140 20060 30160 40191 58016 60006 81100 91500=
07690,1998-03-26 18:00:00,13,1019.3,0.2,67,7,15000,22.224,,,80,5.6,14.5,,,,,,,,,wg-a,,,,AAXX 26184 07690 12565 /0812 10130 20070 30162 40193 53002 60006 81500 91800 333 10145 20056=
07690,1998-03-27 00:00:00,8,1020.8,0.6,81,5,11000,18.52,,,330,,,,,,,,,,,wg-a,,,,AAXX 27004 07690 12561 23310 10080 20050 30176 40208 50006 60006 82500 90000=
07690,1998-03-27 03:00:00,7,1020.8,0,81,4,12000,18.52,,,340,,,,,,,,,,,wg-a,,,,AAXX 27034 07690 12562 23410 10070 20040 30176 40208 50000 60006 82500 90300=
07690,1998-03-27 06:00:00,7,1021.1,0.3,81,4,10000,18.52,,,340,7.1,12.9,,,,,,,,,wg-a,,,,AAXX 27064 07690 02/60 73410 10070 20040 30179 40211 53003 60006 82072 90600 333 10129 20071 60004=
07690,1998-03-27 09:00:00,12,1021.9,0.8,62,5,9000,3.704,,,320,,,,,,,,,,,wg-a,,,,AAXX 27094 07690 12/59 53202 10120 20050 30187 40219 53008 60006 80002 90900=
07690,1998-03-27 12:00:00,14,1021.1,-0.7,58,6,7000,22.224,,,190,,,,,,,,,,,wg-a,,,,AAXX 27124 07690 12657 41912 10140 20060 30180 40211 58007 60006 81102 91200=
07690,1998-03-27 15:00:00,14,1020.5,-0.6,55,5,7000,11.112,,,180,,,,,,,,,,,wg-a,,,,AAXX 27154 07690 12/57 41806 10140 20050 30174 40205 56006 60006 80002 91500=
07690,1998-03-27 18:00:00,12,1020.8,0.2,67,6,7000,3.704,,,190,7.3,14.6,,,,,,,,,wg-a,,,,AAXX 27184 07690 12/57 41902 10120 20060 30176 40208 53002 60006 80002 91800 333 10146 20073=
07690,1998-03-27 21:00:00,9,1022.1,1.3,81,6,8000,11.112,,,330,,,,,,,,,,,wg-a,,,,AAXX 27214 07690 12/58 03306 10090 20060 30189 40221 52013 60006 80000 92100=
07690,1998-03-28 00:00:00,9,1021.2,-0.9,76,5,10000,14.816,,,350,,,,,,,,,,,wg-a,,,,AAXX 28004 07690 12/60 03508 10090 20050 30180 40212 58009 60006 80000 90000=
07690,1998-03-28 03:00:00,9,1021.6,0.4,76,5,10000,14.816,,,320,,,,,,,,,,,wg-a,,,,AAXX 28034 07690 12/60 03208 10090 20050 30184 40216 53004 60006 80000 90300=
07690,1998-03-28 06:00:00,8,1021.9,0.3,76,4,9000,14.816,,,340,8.1,12.1,,,,,,,,,wg-a,,,,AAXX 28064 07690 02/59 03408 10080 20040 30187 40219 53003 60006 80000 90600 333 10121 20081 60004=
07690,1998-03-28 09:00:00,15,1021.8,-0,41,2,9000,11.112,,,100,,,,,,,,,,,wg-a,,,,AAXX 28094 07690 12/59 11006 10150 20020 30187 40218 55000 60006 80002 90900=
07690,1998-03-28 12:00:00,16,1021.8,-0,51,6,7000,7.408,,,140,,,,,,,,,,,wg-a,,,,AAXX 28124 07690 12/57 41404 10160 20060 30187 40218 55000 60006 80002 91200=
07690,1998-03-28 15:00:00,15,1019.9,-1.9,63,8,6000,11.112,,,190,,,,,,,,,,,wg-a,,,,AAXX 28154 07690 12/56 /1906 10150 20080 30168 40199 56019 60006 80002 91500=
07690,1998-03-28 18:00:00,13,1019.3,-0.6,77,9,6000,11.112,,,220,8.4,16.3,,,,,,,,,wg-a,,,,AAXX 28184 07690 12/56 72206 10130 20090 30162 40193 56006 60006 80002 91800 333 10163 20084=
07690,1998-03-28 21:00:00,11,1019.4,0,82,8,8000,7.408,,,320,,,,,,,,,,,wg-a,,,,AAXX 28214 07690 12/58 53204 10110 20080 30162 40194 50000 60006 80002 92100=
07690,1998-03-29 00:00:00,9,1018.7,-0.7,81,6,9000,14.816,,,330,,,,,,,,,,,wg-a,,,,AAXX 29004 07690 12/59 /3308 10090 20060 30155 40187 58007 60006 80000 90000=
07690,1998-03-29 03:00:00,8,1017.2,-1.5,81,5,9000,11.112,,,330,,,,,,,,,,,wg-a,,,,AAXX 29034 07690 12/59 03306 10080 20050 30140 40172 58015 60006 80000 90300=
07690,1998-03-29 06:00:00,8,1017.2,-0,76,4,9000,18.52,,,340,7.4,12.8,,,,,,,,,wg-a,,,,AAXX 29064 07690 02459 33410 10080 20040 30140 40172 55000 60006 82502 90600 333 10128 20074 60004=
07690,1998-03-29 12:00:00,15,1016.9,-0.5,67,9,9000,14.816,,,110,,,,,,,,,,,wg-a,,,,AAXX 29124 07690 12559 31108 10150 20090 30138 40169 58005 60006 8/100 91200=
07690,1998-03-29 15:00:00,15,1015.5,-1.4,67,9,9000,14.816,,,110,,,,,,,,,,,wg-a,,,,AAXX 29154 07690 12/59 /1108 10150 20090 30124 40155 56014 60006 91500=
07690,1998-03-29 18:00:00,14,1015.3,-0.2,77,10,9000,14.816,,,80,7.5,15.5,,,,,,,,,wg-a,,,,AAXX 29184 07690 12/59 30808 10140 20100 30122 40153 55002 60006 80001 91800 333 10155 20075=
07690,1998-03-29 21:00:00,11,1015.8,0.4,71,6,10000,11.112,,,330,,,,,,,,,,,wg-a,,,,AAXX 29214 07690 12/60 03306 10110 20060 30126 40158 51004 60006 80000 92100=
07690,1998-03-30 00:00:00,11,1016,0.2,54,2,15000,11.112,,,340,,,,,,,,,,,wg-a,,,,AAXX 30004 07690 12/65 23406 10110 20020 30128 40160 53002 60006 80001 90000=
07690,1998-03-30 15:00:00,15,1017.6,-0.4,72,10,12000,11.112,,,90,,,,,,,,,,,wg-a,,,,AAXX 30154 07690 12/62 /0906 10150 20100 30145 40176 56004 60006 80002 91500=
07690,1998-03-30 18:00:00,14,1018.2,0.6,77,10,15000,11.112,,,100,9.3,16.1,,,,,,,,,wg-a,,,,AAXX 30184 07690 12/65 21006 10140 20100 30151 40182 53006 60006 81072 91800 333 10161 20093=
07690,1998-03-30 21:00:00,11,1019.3,1,76,7,15000,14.816,,,320,,,,,,,,,,,wg-a,,,,AAXX 30214 07690 12/65 03208 10110 20070 30161 40193 51010 60006 80000 92100=
07690,1998-03-31 00:00:00,10,1020,0.7,82,7,15000,14.816,,,330,,,,,,,,,,,wg-a,,,,AAXX 31004 07690 12/65 03308 10100 20070 30168 40200 52007 60006 80000 90000=
07690,1998-03-31 03:00:00,9,1019.2,-0.8,81,6,15000,18.52,,,330,,,,,,,,,,,wg-a,,,,AAXX 31034 07690 12/65 03310 10090 20060 30160 40192 56008 60006 80000 90300=
07690,1998-03-31 06:00:00,10,1019.9,0.7,76,6,15000,22.224,,,330,9.1,14.2,,,,,,,,,wg-a,,,,AAXX 31064 07690 02/65 13312 10100 20060 30167 40199 53007 60006 80001 90600 333 10142 20091 60004=
07690,1998-03-31 09:00:00,17,1020.3,0.5,42,4,15000,7.408,,,120,,,,,,,,,,,wg-a,,,,AAXX 31094 07690 12/65 01204 10170 20040 30172 40203 52005 60006 80000 90900=
07690,1998-03-31 12:00:00,19,1019.9,-0.4,37,4,16000,3.704,,,140,,,,,,,,,,,wg-a,,,,AAXX 31124 07690 12/66 01402 10190 20040 30168 40199 58004 60006 80000 91200=
07690,1998-03-31 15:00:00,18,1018.6,-1.3,42,5,12000,11.112,,,170,,,,,,,,,,,wg-a,,,,AAXX 31154 07690 12/62 21706 10180 20050 30155 40186 56013 60006 80002 91500=
07690,1998-03-31 18:00:00,14,1018.7,0.1,77,10,18000,3.704,,,210,10.2,19.4,,,,,,,,,wg-a,,,,AAXX 31184 07690 12/68 32102 10140 20100 30156 40187 53001 60006 80004 91800 333 10194 20102=
07690,1998-03-31 21:00:00,11,1019.2,0.4,66,5,15000,14.816,,,320,,,,,,,,,,,wg-a,,,,AAXX 31214 07690 12/65 13208 10110 20050 30160 40192 51004 60006 80002 92100=
07690,1998-04-01 00:00:00,11,1019.3,0.1,58,3,15000,14.816,,,340,,,,,,,,,,,wg-a,,,,AAXX 01004 07690 12/65 33408 10110 20030 30161 40193 51001 60006 80002 90000=
07690,1998-04-01 03:00:00,12,1018.1,-1.2,50,2,15000,11.112,,,340,,,,,,,,,,,wg-a,,,,AAXX 01034 07690 12/65 33406 10120 20020 30149 40181 58012 60006 80002 90300=
07690,1998-04-01 06:00:00,11,1018.6,0.5,62,4,13000,11.112,,,330,10,14,,,,,,,,,wg-a,,,,AAXX 01064 07690 02563 /3306 10110 20040 30154 40186 53005 60006 85571 90600 333 10140 20100 60004=
07690,1998-04-01 09:00:00,15,1018.8,0.3,77,11,8000,14.816,,,100,,,,,,,,,,,wg-a,,,,AAXX 01094 07690 12458 61008 10150 20110 30157 40188 50003 60006 81582 90900=
07690,1998-04-01 12:00:00,15,1017.9,-0.9,77,11,6000,11.112,,,110,,,,,,,,,,,wg-a,,,,AAXX 01124 07690 12456 71106 10150 20110 30148 40179 58009 60006 81872 91200=
07690,1998-04-01 15:00:00,15,1017.1,-0.8,82,12,6000,7.408,,,140,,,,,,,,,,,wg-a,,,,AAXX 01154 07690 12456 71404 10150 20120 30140 40171 56008 60006 8188/ 91500=
07690,1998-04-01 18:00:00,14,1016.6,-0.5,82,11,10000,3.704,,,250,10.7,16.2,,,,,,,,,wg-a,,,,AAXX 01184 07690 12460 72502 10140 20110 30135 40166 55005 60006 8157/ 91800 333 10162 20107=
07690,1998-04-01 21:00:00,13,1016.9,0.3,88,11,12000,7.408,,,240,,,,,,,,,,,wg-a,,,,AAXX 01214 07690 12662 72404 10130 20110 30138 40169 50003 60006 8457/ 92100=
07690,1998-04-02 00:00:00,12,1015.8,-1.1,88,10,15000,3.704,,,300,,,,,,,,,,,wg-a,,,,AAXX 02004 07690 12665 /3002 10120 20100 30127 40158 56011 60006 81530 90000=
07690,1998-04-02 03:00:00,10,1014.1,-1.8,87,8,12000,7.408,,,340,,,,,,,,,,,wg-a,,,,AAXX 02034 07690 12662 23404 10100 20080 30109 40141 58018 60006 81530 90300=
07690,1998-04-02 06:00:00,11,1014.4,0.3,76,7,15000,18.52,,,330,10.2,14.1,,,,,,,,,wg-a,,,,AAXX 02064 07690 02565 53310 10110 20070 30112 40144 53003 60006 82531 90600 333 10141 20102 60004=
07690,1998-04-02 09:00:00,15,1014.3,-0,72,10,20000,14.816,,,190,,,,,,,,,,,wg-a,,,,AAXX 02094 07690 12570 /1908 10150 20100 30112 40143 55000 60006 81232 90900=
07690,1998-04-02 12:00:00,16,1013.3,-1,77,12,15000,18.52,,,200,,,,,,,,,,,wg-a,,,,AAXX 02124 07690 12565 /2010 10160 20120 30102 40133 58010 60006 81202 91200=
07690,1998-04-02 15:00:00,16,1010.9,-2.4,82,13,8000,31.484,,,200,,,,,,,,,,,wg-a,,,,AAXX 02154 07690 12458 52017 10160 20130 30078 40109 57024 60006 81232 91500=
07690,1998-04-02 18:00:00,14,1010.7,-0.2,94,13,7000,18.52,,,220,10.5,16.4,,,,,,,,,wg-a,,,,AAXX 02184 07690 12357 72210 10140 20130 30076 40107 55002 60006 81532 91800 333 10164 20105=
07690,1998-04-02 21:00:00,14,1011.4,0.7,88,12,10000,7.408,,,240,,,,,,,,,,,wg-a,,,,AAXX 02214 07690 12260 72404 10140 20120 30083 40114 51007 60006 875// 92100=
07690,1998-04-03 00:00:00,13,1010.4,-1,94,12,12000,0,,,0,,,,,,,,,,,wg-a,,,,AAXX 03004 07690 12562 70000 10130 20120 30073 40104 58010 60006 8253/ 90000=
07690,1998-04-03 03:00:00,12,1009.8,-0.6,94,11,11000,7.408,,,300,,,,,,,,,,,wg-a,,,,AAXX 03034 07690 12/61 /3004 10120 20110 30067 40098 56006 60006 90300=
07690,1998-04-03 06:00:00,11,1010.2,0.4,87,9,9000,14.816,,,340,10.6,14,,,,,,,,,wg-a,,,,AAXX 03064 07690 02559 43408 10110 20090 30071 40102 53004 60006 81501 90600 333 10140 20106 60004=
07690,1998-04-03 09:00:00,16,1011.9,1.7,72,11,11000,7.408,,,120,,,,,,,,,,,wg-a,,,,AAXX 03094 07690 12561 41204 10160 20110 30088 40119 51017 60006 81501 90900=
07690,1998-04-03 12:00:00,17,1012.6,0.7,72,12,7000,7.408,,,90,,,,,,,,,,,wg-a,,,,AAXX 03124 07690 12357 70904 10170 20120 30095 40126 50007 60006 86802 91200=
07690,1998-04-03 15:00:00,16,1012.1,-0.5,82,13,9000,11.112,,,90,,,,,,,,,,,wg-a,,,,AAXX 03154 07690 12359 70906 10160 20130 30090 40121 56005 60006 875// 91500=
07690,1998-04-03 18:00:00,16,1011.7,-0.4,88,14,6000,11.112,,,70,11,17.3,,,,,,,,20,wg-a,,,,AAXX 03184 07690 02356 70706 10160 20140 30086 40117 55004 61000 72052 875// 91800 333 10173 20110 6100=
07690,1998-04-03 21:00:00,15,1012.4,0.7,94,14,10000,11.112,,,110,,,,,,,,,,,wg-a,,,,AAXX 03214 07690 12560 71106 10150 20140 30093 40124 51007 60006 875// 92100=
07690,1998-04-04 00:00:00,15,1011.3,-1.1,94,14,7000,11.112,,,110,,,,,,,,,,,wg-a,,,,AAXX 04004 07690 12/57 /1106 10150 20140 30082 40113 58011 60006 90000=
07690,1998-04-04 03:00:00,15,1010.5,-0.8,94,14,10000,11.112,,,50,,,,,,,,,,,wg-a,,,,AAXX 04034 07690 12260 70506 10150 20140 30074 40105 56008 60006 875// 90300=
07690,1998-04-04 06:00:00,15,1009.7,-0.8,88,13,8000,7.408,,,50,14.4,15.5,,,,,,,,,wg-a,,,,AAXX 04064 07690 02458 70504 10150 20130 30066 40097 56008 60006 875// 90600 333 10155 20144 61000=
07690,1998-04-04 09:00:00,17,1009.5,-0.2,77,13,12000,11.112,,,150,,,,,,,,,,,wg-a,,,,AAXX 04094 07690 12462 /1506 10170 20130 30064 40095 57002 60006 84830 90900=
07690,1998-04-04 12:00:00,17,1008.7,-0.8,77,13,12000,7.408,,,120,,,,,,,,,,,wg-a,,,,AAXX 04124 07690 12462 71204 10170 20130 30056 40087 56008 60006 878// 91200=
07690,1998-04-04 15:00:00,17,1007.3,-1.4,82,14,12000,14.816,,,170,,,,,,,,,,,wg-a,,,,AAXX 04154 07690 12562 /1708 10170 20140 30042 40073 56014 60006 82232 91500=
07690,1998-04-04 18:00:00,15,1007.7,0.4,88,13,10000,14.816,,,230,13.9,18.5,,,,,,,,,wg-a,,,,AAXX 04184 07690 12260 72308 10150 20130 30046 40077 50004 60006 82532 91800 333 10185 20139=
07690,1998-04-04 21:00:00,15,1008.1,0.4,88,13,15000,18.52,,,230,,,,,,,,,,,wg-a,,,,AAXX 04214 07690 12565 72310 10150 20130 30050 40081 50004 60006 81532 92100=
07690,1998-04-05 00:00:00,14,1008.5,0.4,82,11,25000,14.816,,,230,,,,,,,,,,,wg-a,,,,AAXX 05004 07690 12575 /2308 10140 20110 30054 40085 53004 60006 81531 90000=
07690,1998-04-05 03:00:00,11,1008.4,-0.1,94,10,20000,11.112,,,330,,,,,,,,,,,wg-a,,,,AAXX 05034 07690 12/70 03306 10110 20100 30053 40084 55001 60006 80000 90300=
07690,1998-04-05 06:00:00,10,1009.6,1.2,93,9,15000,14.816,,,330,9.8,15,,,,,,,,,wg-a,,,,AAXX 05064 07690 02/65 53308 10100 20090 30065 40096 53012 60006 80002 90600 333 10150 20098 60004=
07690,1998-04-05 09:00:00,14,1010.9,1.3,72,9,15000,7.408,,,310,,,,,,,,,,,wg-a,,,,AAXX 05094 07690 12565 63104 10140 20090 30078 40109 51013 60006 8112/ 90900=
07690,1998-04-05 12:00:00,15,1011.6,0.7,88,13,15000,14.816,,,200,,,,,,,,,,,wg-a,,,,AAXX 05124 07690 12565 72008 10150 20130 30085 40116 53007 60006 8112/ 91200=
07690,1998-04-05 15:00:00,16,1010.7,-0.9,82,13,12000,7.408,,,130,,,,,,,,,,,wg-a,,,,AAXX 05154 07690 12562 71304 10160 20130 30076 40107 56009 60006 8112/ 91500=
07690,1998-04-05 18:00:00,,1,-0.4,,,9000,0,,,0,10.2,16.1,,,,,,,,95,wg-a,,,,AAXX 05184 07690 32259 7//// 1//// 2//// 30072 55004 79596 879// 91800 333 10161 20102=
07690,1998-04-05 21:00:00,13,1011.2,0.9,,,15000,7.408,,,340,,,,,,,,,,1,wg-a,,,,AAXX 05214 07690 32565 23404 10130 2//// 30081 40112 50009 70196 81530 92100=
07690,1998-04-06 00:00:00,12,1009.8,-1.4,,,15000,11.112,,,320,,,,,,,,,,3,wg-a,,,,AAXX 06004 07690 12465 53206 10120 2//// 30067 40098 58014 60006 70396 82530 90000=
07690,1998-04-06 03:00:00,11,1009.1,-0.7,,,15000,11.112,,,310,,,,,,,,,,,wg-a,,,,AAXX 06034 07690 32565 33106 10110 2//// 30060 40091 56007 83500 90300=
07690,1998-04-06 06:00:00,11,1009.7,0.5,,,40000,11.112,,,330,,,,,,,,,,,wg-a,,,,AAXX 06064 07690 12582 /3306 10110 2//// 30065 40097 53005 60006 81100 90600=
07690,1998-04-06 09:00:00,15,1010.9,1.3,59,7,40000,7.408,,,160,,,,,,,,,,,wg-a,,,,AAXX 06094 07690 32582 21604 10150 20070 30078 40109 53013 81102 90900=
07690,1998-04-06 12:00:00,19,1010.3,-0.6,49,8,40000,42.596,,,230,,,,,,,,,,,wg-a,,,,AAXX 06124 07690 12582 /2323 10190 20080 30072 40103 58006 60006 81202 91200=
07690,1998-04-06 15:00:00,16,1009.6,-0.7,68,10,500,61.116,,,220,,,,,,,,,,,wg-a,,,,AAXX 06154 07690 12500 42233 10160 20100 30065 40096 56007 60006 81201 91500=
07690,1998-04-06 18:00:00,15,1011.8,2.2,67,9,500,38.892,,,220,10.6,19.7,,,,,,,,,wg-a,,,,AAXX 06184 07690 12500 72221 10150 20090 30087 40118 51022 60006 81202 91800 333 10197 20106=
07690,1998-04-06 21:00:00,14,1012.9,1.1,72,9,20000,31.484,,,240,,,,,,,,,,,wg-a,,,,AAXX 06214 07690 12/70 82417 10140 20090 30098 40129 50011 60006 84052 92100=
07690,1998-04-07 00:00:00,13,1012.1,-0.8,77,9,20000,22.224,,,250,,,,,,,,,,,wg-a,,,,AAXX 07004 07690 12/70 82512 10130 20090 30090 40121 56008 60006 83032 90000=
07690,1998-04-07 03:00:00,12,1011.5,-0.6,82,9,20000,3.704,,,340,,,,,,,,,,,wg-a,,,,AAXX 07034 07690 12/70 83402 10120 20090 30084 40115 58006 60006 83032 90300=
07690,1998-04-07 06:00:00,11,1011.1,-0.4,87,9,9000,7.408,,,330,11.4,14.6,,,,,,,,61,wg-a,,,,AAXX 07064 07690 02259 83304 10110 20090 30080 40111 55004 61000 76162 868// 90600 333 10146 20114 6001=
07690,1998-04-07 12:00:00,10,1007.3,-2.3,93,9,7000,29.632,,,330,,,,7,,,,,,61,wg-a,,,,AAXX 07124 07690 02257 83316 10100 20090 30042 40073 58023 60176 76162 878// 91200 333 60077=
07690,1998-04-07 15:00:00,11,1005.4,-1.9,87,9,15000,22.224,,,330,,,,2,,,,,,1,wg-a,,,,AAXX 07154 07690 12365 73312 10110 20090 30023 40054 56019 60027 70162 875// 91500=
07690,1998-04-07 18:00:00,12,1005.4,-0,82,9,15000,14.816,,,330,10.2,12.3,,,,,,,,1,wg-a,,,,AAXX 07184 07690 12565 /3308 10120 20090 30023 40054 55000 60006 70162 82530 91800 333 10123 20102=
07690,1998-04-07 21:00:00,11,1007.1,1.7,82,8,15000,18.52,,,330,,,,,,,,,,,wg-a,,,,AAXX 07214 07690 12565 53310 10110 20080 30040 40071 51017 60006 81532 92100=
07690,1998-04-08 00:00:00,10,1007.6,0.5,82,7,15000,18.52,,,320,,,,,,,,,,,wg-a,,,,AAXX 08004 07690 12/65 43210 10100 20070 30045 40076 50005 60006 82031 90000=
07690,1998-04-08 03:00:00,10,1007.1,-0.5,76,6,15000,18.52,,,330,,,,,,,,,,,wg-a,,,,AAXX 08034 07690 12/65 53310 10100 20060 30040 40071 58005 60006 82032 90300=
07690,1998-04-08 06:00:00,10,1006.8,-0.3,71,5,500,7.408,,,280,9.5,11.6,,,,,19,,,,wg-a,,,,AAXX 08064 07690 02/00 72804 10100 20050 30037 40068 56003 60006 84032 90600 333 10116 20095 60194=
07690,1998-04-08 09:00:00,13,1006.9,0.1,72,8,25000,7.408,,,230,,,,,,,,,,,wg-a,,,,AAXX 08094 07690 12/75 72304 10130 20080 30038 40069 53001 60006 81032 90900=
07690,1998-04-08 12:00:00,15,1005.6,-1.3,67,9,10000,25.928,,,220,,,,,,,,,,,wg-a,,,,AAXX 08124 07690 12/60 /2214 10150 20090 30025 40056 58013 60006 91200=
07690,1998-04-08 15:00:00,15,1004.3,-1.3,72,10,40000,25.928,,,210,,,,,,,,,,,wg-a,,,,AAXX 08154 07690 12682 /2114 10150 20100 30012 40043 56013 60006 82232 91500=
07690,1998-04-08 18:00:00,14,1003.4,-0.9,82,11,500,18.52,,,230,10,16.2,,,,,,,,,wg-a,,,,AAXX 08184 07690 12600 /2310 10140 20110 30003 40034 56009 60006 81502 91800 333 10162 20100=
07690,1998-04-08 21:00:00,11,1003.9,0.5,87,9,20000,11.112,,,330,,,,,,,,,,,wg-a,,,,AAXX 08214 07690 12/70 43306 10110 20090 30008 40039 50005 60006 81032 92100=
07690,1998-04-09 00:00:00,9,1002.9,-1,87,7,20000,11.112,,,320,,,,,,,,,,,wg-a,,,,AAXX 09004 07690 12/70 /3206 10090 20070 39998 40029 58010 60006 81032 90000=
07690,1998-04-09 03:00:00,8,1002.2,-0.7,81,5,20000,7.408,,,320,,,,,,,,,,,wg-a,,,,AAXX 09034 07690 12570 53204 10080 20050 39991 40022 55007 60006 81532 90300=
07690,1998-04-09 06:00:00,8,1002.2,-0,81,5,500,18.52,,,330,7.8,13.7,,,,,,,,,wg-a,,,,AAXX 09064 07690 02500 /3310 10080 20050 39991 40022 55000 60006 81502 90600 333 10137 20078 60004=
07690,1998-04-09 09:00:00,14,1002.2,0,67,8,500,31.484,,,210,,,,,,,,,,,wg-a,,,,AAXX 09094 07690 12500 /2117 10140 20080 39991 40022 50000 60006 81102 90900=
07690,1998-04-09 12:00:00,15,1001.8,-0.4,67,9,500,42.596,,57.412,210,,,,,,,,,,,wg-a,,,,AAXX 09124 07690 12500 22123 10150 20090 39987 40018 58004 60006 82200 91200 333 91031=
07690,1998-04-09 15:00:00,15,1001.8,0,67,9,500,42.596,,,210,,,,,,,,,,,wg-a,,,,AAXX 09154 07690 12500 32123 10150 20090 39987 40018 50000 60006 82201 91500=
07690,1998-04-09 18:00:00,12,1002.5,0.7,76,8,11000,22.224,,,230,8.4,15.1,,,,,,,,,wg-a,,,,AAXX 09184 07690 12/61 /2312 10120 20080 39994 40025 51007 60006 91800 333 10151 20084=
07690,1998-04-09 21:00:00,14,1002.2,-0.3,82,11,15000,29.632,,,180,,,,2,,,,,,21,wg-a,,,,AAXX 09214 07690 12465 71816 10140 20110 39991 40022 58003 60027 72198 879// 92100=
07690,1998-04-10 00:00:00,14,1001.2,-1,88,12,15000,25.928,,,190,,,,,,,,,,13,wg-a,,,,AAXX 10004 07690 12465 51914 10140 20120 39981 40012 56010 60026 71398 82933 90000=
07690,1998-04-10 03:00:00,9,998.9,-2.3,87,7,15000,18.52,,,330,,,,0,,,,,,29,wg-a,,,,AAXX 10034 07690 12465 73310 10090 20070 39958 49989 58023 60007 72998 879// 90300=
07690,1998-04-10 06:00:00,11,997.7,-1.2,76,7,12000,29.632,,,300,8.6,14,,,,,3,,,16,wg-a,,,,AAXX 10064 07690 02462 83016 10110 20070 39946 49977 55012 60006 71698 879// 90600 333 10140 20086 60034=
07690,1998-04-10 09:00:00,9,998.2,0.5,87,7,7000,14.816,,,20,,,,2,,,,,,61,wg-a,,,,AAXX 10094 07690 12357 80208 10090 20070 39951 49982 51005 60027 76186 859// 90900=
07690,1998-04-10 12:00:00,11,996.8,-1.4,87,9,4000,29.632,,,210,,,,17,,,,,,10,wg-a,,,,AAXX 10124 07690 02240 82116 10110 20090 39937 49968 55014 60196 71098 879// 91200 333 60177=
07690,1998-04-10 15:00:00,12,996.7,-0.1,76,8,20000,22.224,,,210,,,,0,,,,,,3,wg-a,,,,AAXX 10154 07690 12370 72112 10120 20080 39936 49967 56001 60007 70396 85230 91500=
07690,1998-04-10 18:00:00,10,998,1.3,76,6,20000,11.112,,,330,8.9,13.3,,1,,,,,,1,wg-a,,,,AAXX 10184 07690 02570 63306 10100 20060 39949 49980 52013 60006 70198 83282 91800 333 10133 20089 60017=
07690,1998-04-11 00:00:00,8,1001.2,0.8,81,5,20000,18.52,,,330,,,,,,,,,,,wg-a,,,,AAXX 11004 07690 12570 /3310 10080 20050 39981 40012 50008 60006 81101 90000=
07690,1998-04-11 03:00:00,7,1001.4,0.1,81,4,25000,18.52,,,330,,,,,,,,,,,wg-a,,,,AAXX 11034 07690 12475 53310 10070 20040 39982 40014 51001 60006 82983 90300=
07690,1998-04-11 06:00:00,8,1001.4,0.1,76,4,500,22.224,,,340,7,10.1,,,,,,,,17,wg-a,,,,AAXX 11064 07690 02400 73412 10080 20040 39983 40014 53001 61000 71796 82970 90600 333 10101 20070 6021=
07690,1998-04-11 09:00:00,7,1001.6,0.1,87,5,10000,14.816,,,360,,,,2,,,,,,60,wg-a,,,,AAXX 11094 07690 12460 73608 10070 20050 39984 40016 51001 60027 76096 8587/ 90900=
07690,1998-04-11 12:00:00,8,1001.3,-0.2,87,6,500,22.224,,,340,,,,7,,,,,,21,wg-a,,,,AAXX 11124 07690 02400 /3412 10080 20060 39982 40013 56002 60086 72196 85960 91200 333 60077=
07690,1998-04-11 18:00:00,9,1000.9,0.3,76,5,500,35.188,,,240,6.5,11.6,,,,,,,,3,wg-a,,,,AAXX 11184 07690 12500 32419 10090 20050 39978 40009 53003 60006 70386 82203 91800 333 10116 20065=
07690,1998-04-12 00:00:00,7,1001.9,-0,76,3,20000,14.816,,,260,,,,,,,,,,13,wg-a,,,,AAXX 12004 07690 12570 22608 10070 20030 39987 40019 55000 60006 71300 82900 90000=
07690,1998-04-12 03:00:00,8,1000.5,-1.3,71,3,20000,38.892,,,250,,,,,,,,,,13,wg-a,,,,AAXX 12034 07690 12670 /2521 10080 20030 39974 40005 56013 60006 71311 81930 90300=
07690,1998-04-12 06:00:00,6,1001.1,0.5,75,2,40000,14.816,,,310,5.2,9.4,,,,,9,,,,wg-a,,,,AAXX 12064 07690 02682 /3108 10060 20020 39979 40011 53005 60006 81932 90600 333 10094 20052 60094=
07690,1998-04-12 09:00:00,12,1002.2,1.2,58,4,50000,25.928,,,220,,,,,,,,,,,wg-a,,,,AAXX 12094 07690 12684 /2214 10120 20040 39991 40022 53012 60006 81233 90900=
07690,1998-04-12 12:00:00,15,1002.2,-0,39,1,50000,29.632,,,270,,,,,,,,,,,wg-a,,,,AAXX 12124 07690 12684 52716 10150 20010 39991 40022 55000 60006 82202 91200=
07690,1998-04-12 15:00:00,15,1002.6,0.4,36,0,40000,38.892,,,260,,,,,,,,,,,wg-a,,,,AAXX 12154 07690 12682 52621 10150 20000 39995 40026 52004 60006 82962 91500=
07690,1998-04-12 18:00:00,12,1004.1,1.5,54,3,50000,31.484,,,270,6.2,16.3,,,,,,,,,wg-a,,,,AAXX 12184 07690 12684 32717 10120 20030 30010 40041 53015 60006 81262 91800 333 10163 20062=
07690,1998-04-12 21:00:00,10,1004.9,0.8,57,2,500,22.224,,,270,,,,,,,,,,,wg-a,,,,AAXX 12214 07690 12600 22712 10100 20020 30018 40049 51008 60006 82800 92100=
07690,1998-04-13 00:00:00,9,1005.5,0.5,66,3,500,31.484,,,260,,,,,,,,,,,wg-a,,,,AAXX 13004 07690 12/00 12617 10090 20030 30023 40055 53005 60006 81030 90000=
07690,1998-04-13 03:00:00,8,1004.5,-1,66,2,500,29.632,,,230,,,,,,,,,,,wg-a,,,,AAXX 13034 07690 12/00 02316 10080 20020 30013 40045 56010 60006 80000 90300=
07690,1998-04-13 06:00:00,8,1004.9,0.4,61,1,500,31.484,,,270,6.8,11.6,,,,,,,,,wg-a,,,,AAXX 13064 07690 02/00 02717 10080 20010 30017 40049 53004 60006 80000 90600 333 10116 20068 60004=
07690,1998-04-13 09:00:00,14,1005.3,0.5,26,-5,50000,25.928,,,300,,,,,,,,,,,wg-a,,,,AAXX 13094 07690 12584 33014 10140 21050 30022 40053 53005 60006 81101 90900=
07690,1998-04-13 12:00:00,14,1004.8,-0.5,41,1,50000,46.3,,,240,,,,,,,,,,,wg-a,,,,AAXX 13124 07690 12584 42425 10140 20010 30017 40048 58005 60006 81101 91200=
07690,1998-04-13 15:00:00,14,1003.8,-1,33,-2,11000,29.632,,79.636,290,,,,,,,,,,,wg-a,,,,AAXX 13154 07690 12561 32916 10140 21020 30007 40038 55010 60006 83100 91500 333 91043=
07690,1998-04-13 18:00:00,10,1003.2,-0.6,46,-1,50000,25.928,,79.636,250,7.8,14.6,,,,,,,,,wg-a,,,,AAXX 13184 07690 12584 22514 10100 21010 30001 40032 57006 60006 82130 91800 333 10146 20078 91043=
07690,1998-04-13 21:00:00,8,1004.4,1.1,46,-3,20000,18.52,,,280,,,,,,,,,,,wg-a,,,,AAXX 13214 07690 12/70 12810 10080 21030 30012 40044 53011 60006 81030 92100=
07690,1998-04-14 00:00:00,5,1005.2,0.8,65,-1,20000,11.112,,,330,,,,,,,,,,,wg-a,,,,AAXX 14004 07690 12/70 03306 10050 21010 30020 40052 51008 60006 80000 90000=
07690,1998-04-14 03:00:00,6,1005.4,0.2,45,-5,20000,7.408,,,340,,,,,,,,,,,wg-a,,,,AAXX 14034 07690 12/70 03404 10060 21050 30022 40054 53002 60006 80000 90300=
07690,1998-04-14 06:00:00,6,1007.2,1.8,45,-5,50000,18.52,,,330,4.7,10.3,,,,,,,,,wg-a,,,,AAXX 14064 07690 02/84 13310 10060 21050 30040 40072 53018 60006 80001 90600 333 10103 20047 60004=
07690,1998-04-14 09:00:00,11,1008.3,1.2,47,0,50000,14.816,,,220,,,,,,,,,,,wg-a,,,,AAXX 14094 07690 12684 /2208 10110 20000 30052 40083 51012 60006 81104 90900=
07690,1998-04-14 12:00:00,15,1008.2,-0.1,33,-1,50000,25.928,,,190,,,,,,,,,,,wg-a,,,,AAXX 14124 07690 12684 31914 10150 21010 30051 40082 58001 60006 81102 91200=
07690,1998-04-14 15:00:00,13,1008.3,0.1,58,5,50000,46.3,,,210,,,,0,,,,,,,wg-a,,,,AAXX 14154 07690 12684 52125 10130 20050 30052 40083 53001 60007 81802 91500=
07690,1998-04-14 18:00:00,11,1009.5,1.2,66,5,500,38.892,,,220,6.4,15.3,,,,,,,,,wg-a,,,,AAXX 14184 07690 12600 72221 10110 20050 30064 40095 53012 60006 81502 91800 333 10153 20064=
07690,1998-04-14 21:00:00,10,1012,2.4,71,5,20000,14.816,,,250,,,,,,,,,,,wg-a,,,,AAXX 14214 07690 12670 72508 10100 20050 30088 40120 51024 60006 81522 92100=
07690,1998-04-15 00:00:00,9,1011.8,-0.2,61,2,20000,7.408,,,340,,,,,,,,,,,wg-a,,,,AAXX 15004 07690 12470 83404 10090 20020 30086 40118 58002 60006 8157/ 90000=
07690,1998-04-15 03:00:00,7,1010.8,-1,87,5,20000,25.928,,,10,,,,4,,,,,,61,wg-a,,,,AAXX 15034 07690 12570 80114 10070 20050 30076 40108 58010 60047 76162 8157/ 90300=
07690,1998-04-15 06:00:00,6,1010.6,-0.2,93,5,500,31.484,,,330,6.2,11.2,,,,,,,,61,wg-a,,,,AAXX 15064 07690 02400 83317 10060 20050 30074 40106 56002 61000 76162 8157/ 90600 333 10112 20062 6009=
07690,1998-04-15 09:00:00,9,1010.1,-0.5,76,5,11000,18.52,,,10,,,,,,,,,,,wg-a,,,,AAXX 15094 07690 32/61 /0110 10090 20050 30069 40101 58005 90900=
07690,1998-04-15 12:00:00,12,1007.9,-2.1,62,5,40000,14.816,,,20,,,,,,,,,,1,wg-a,,,,AAXX 15124 07690 12782 70208 10120 20050 30048 40079 57021 60006 70162 8252/ 91200=
07690,1998-04-15 15:00:00,10,1005.9,-2,87,8,11000,14.816,,,30,,,,,,,,,,,wg-a,,,,AAXX 15154 07690 32/61 /0308 10100 20080 30028 40059 56020 91500=
07690,1998-04-15 18:00:00,9,1002.5,-3.4,81,6,12000,25.928,,,10,6.2,13.3,,,,,,,,61,wg-a,,,,AAXX 15184 07690 02462 80114 10090 20060 39994 40025 58034 61000 76162 875// 91800 333 10133 20062 6003=
07690,1998-04-15 21:00:00,7,1002.5,-0.1,93,6,15000,22.224,,,330,,,,14,,,,,,61,wg-a,,,,AAXX 15214 07690 12265 73312 10070 20060 39993 40025 58001 60147 76166 8657/ 92100=
07690,1998-04-16 00:00:00,8,1001,-1.4,81,5,15000,18.52,,,330,,,,,,,,,,3,wg-a,,,,AAXX 16004 07690 02465 73310 10080 20050 39979 40010 56014 60146 70361 8457/ 90000 333 61000=
07690,1998-04-16 06:00:00,7,1000.2,-0.1,87,5,50000,3.704,,,300,5.9,8.8,,,,,18,,,,wg-a,,,,AAXX 16064 07690 02584 /3002 10070 20050 39970 40002 55001 60006 81502 90600 333 10088 20059 60184=
07690,1998-04-16 09:00:00,12,1000.4,0.3,67,6,50000,11.112,,,190,,,,,,,,,,,wg-a,,,,AAXX 16094 07690 12584 31906 10120 20060 39973 40004 52003 60006 81202 90900=
07690,1998-04-16 12:00:00,15,999.2,-1.2,59,7,40000,35.188,,,220,,,,,,,,,,,wg-a,,,,AAXX 16124 07690 12582 42219 10150 20070 39961 49992 58012 60006 81201 91200=
07690,1998-04-16 15:00:00,14,998,-1.2,51,4,40000,42.596,,,240,,,,,,,,,,,wg-a,,,,AAXX 16154 07690 12582 72423 10140 20040 39949 49980 56012 60006 81522 91500=
07690,1998-04-16 18:00:00,12,998.7,0.7,67,6,500,38.892,,,230,6.9,16.2,,,,,,,,,wg-a,,,,AAXX 16184 07690 12500 /2321 10120 20060 39956 49987 53007 60006 81542 91800 333 10162 20069=
07690,1998-04-16 21:00:00,11,998.4,-0.3,71,6,15000,7.408,,,260,,,,,,,,,,61,wg-a,,,,AAXX 16214 07690 02565 72604 10110 20060 39953 49984 58003 61000 76162 8557/ 92100 333 ////=
07690,1998-04-17 00:00:00,8,995.7,-2.7,93,7,12000,18.52,,,340,,,,6,,,,,,61,wg-a,,,,AAXX 17004 07690 02562 83410 10080 20070 39926 49957 56027 60066 76162 875// 90000 333 60067=
07690,1998-04-17 03:00:00,8,993.3,-2.4,81,5,15000,18.52,,,330,,,,,,,,,,1,wg-a,,,,AAXX 17034 07690 02565 /3310 10080 20050 39902 49933 57024 61000 70161 81570 90300 333 ////=
07690,1998-04-17 06:00:00,9,993.1,-0.2,71,4,500,18.52,,,330,7.7,11.8,,,,,6,,,2,wg-a,,,,AAXX 17064 07690 02500 /3310 10090 20040 39900 49931 55002 60006 70261 81500 90600 333 10118 20077 60064=
07690,1998-04-17 09:00:00,14,993.5,0.4,67,8,500,18.52,,,100,,,,,,,,,,,wg-a,,,,AAXX 17094 07690 12500 /1010 10140 20080 39904 49935 53004 60006 81100 90900=
07690,1998-04-17 12:00:00,17,992.6,-0.8,42,4,500,31.484,,57.412,260,,,,,,,,,,,wg-a,,,,AAXX 17124 07690 12500 22617 10170 20040 39896 49926 58008 60006 82100 91200 333 91031=
07690,1998-04-17 15:00:00,17,991.7,-0.9,42,4,500,31.484,,57.412,260,,,,,,,,,,,wg-a,,,,AAXX 17154 07690 12500 32617 10170 20040 39887 49917 58009 60006 82101 91500 333 91031=
07690,1998-04-17 18:00:00,14,994,2.2,51,4,500,35.188,,,250,8.6,18.3,,,,,,,,,wg-a,,,,AAXX 17184 07690 12500 /2519 10140 20040 39909 49940 52022 60006 82101 91800 333 10183 20086=
07690,1998-04-18 00:00:00,11,995,-0.4,58,3,40000,18.52,,,260,,,,,,,,,,,wg-a,,,,AAXX 18004 07690 12/82 /2610 10110 20030 39919 49950 56004 60006 80002 90000=
07690,1998-04-18 03:00:00,9,994.5,-0.5,53,0,40000,3.704,,,210,,,,,,,,,,,wg-a,,,,AAXX 18034 07690 12/82 42102 10090 20000 39914 49945 57005 60006 80002 90300=
07690,1998-04-18 09:00:00,15,997.1,1.2,36,0,50000,11.112,,,110,,,,,,,,,,,wg-a,,,,AAXX 18094 07690 12584 /1106 10150 20000 39940 49971 51012 60006 81532 90900=
07690,1998-04-18 12:00:00,18,997,0,37,3,50000,18.52,,,170,,,,,,,,,,,wg-a,,,,AAXX 18124 07690 12584 /1710 10180 20030 39940 49970 50000 60006 81232 91200=
07690,1998-04-18 15:00:00,17,997.4,0.4,48,6,50000,31.484,,,80,,,,,,,,,,,wg-a,,,,AAXX 18154 07690 12484 40817 10170 20060 39944 49974 53004 60006 82902 91500=
07690,1998-04-18 18:00:00,15,999.6,2.1,51,5,40000,7.408,,,260,8.7,19.1,,,,,,,,,wg-a,,,,AAXX 18184 07690 12582 22604 10150 20050 39965 49996 53021 60006 81960 91800 333 10191 20087=
07690,1998-04-18 21:00:00,12,1002.2,2.6,47,1,20000,14.816,,,320,,,,,,,,,,,wg-a,,,,AAXX 18214 07690 12/70 13208 10120 20010 39991 40022 51026 60006 81063 92100=
07690,1998-04-19 00:00:00,11,1004.3,2.1,37,-3,20000,7.408,,,360,,,,,,,,,,,wg-a,,,,AAXX 19004 07690 12/70 03604 10110 21030 30012 40043 51021 60006 80000 90000=
07690,1998-04-19 03:00:00,10,1005,0.7,43,-2,20000,11.112,,,330,,,,,,,,,,,wg-a,,,,AAXX 19034 07690 12/70 53306 10100 21020 30019 40050 51007 60006 84032 90300=
07690,1998-04-19 06:00:00,10,1006.5,1.5,46,-1,40000,18.52,,,330,9.1,15.2,,,,,,,,,wg-a,,,,AAXX 19064 07690 02/82 13310 10100 21010 30034 40065 53015 60006 81040 90600 333 10152 20091 60004=
07690,1998-04-19 09:00:00,14,1007.5,1,41,1,50000,11.112,,,190,,,,,,,,,,,wg-a,,,,AAXX 19094 07690 12684 /1906 10140 20010 30044 40075 51010 60006 81141 90900=
07690,1998-04-19 12:00:00,16,1006.8,-0.7,42,3,50000,18.52,,,80,,,,,,,,,,,wg-a,,,,AAXX 19124 07690 12684 20810 10160 20030 30037 40068 58007 60006 81141 91200=
07690,1998-04-19 15:00:00,16,1006.8,-0,51,6,50000,31.484,,,90,,,,,,,,,,,wg-a,,,,AAXX 19154 07690 12784 20917 10160 20060 30037 40068 55000 60006 81101 91500=
07690,1998-04-19 18:00:00,15,1008.8,2,59,7,40000,29.632,,53.708,80,10.2,17.2,,,,,,,,,wg-a,,,,AAXX 19184 07690 12782 /0816 10150 20070 30057 40088 53020 60006 81101 91800 333 10172 20102 91029=
07690,1998-04-19 21:00:00,12,1011.9,3.1,62,5,40000,7.408,,,340,,,,,,,,,,,wg-a,,,,AAXX 19214 07690 12/82 03404 10120 20050 30088 40119 51031 60006 80000 92100=
07690,1998-04-20 00:00:00,9,1013.6,1.6,66,3,10000,14.816,,,330,,,,,,,,,,,wg-a,,,,AAXX 20004 07690 12/60 /3308 10090 20030 30104 40136 51016 60006 90000=
07690,1998-04-20 03:00:00,9,1014.6,1,57,1,20000,18.52,,,330,,,,,,,,,,,wg-a,,,,AAXX 20034 07690 12/70 03310 10090 20010 30114 40146 53010 60006 80000 90300=
07690,1998-04-20 06:00:00,10,1016.6,2,50,0,40000,18.52,,,330,8.1,14.9,,,,,,,,,wg-a,,,,AAXX 20064 07690 02782 /3310 10100 20000 30134 40166 53020 60006 81500 90600 333 10149 20081 60004=
07690,1998-04-20 09:00:00,15,1018.3,1.8,55,6,25000,11.112,,,130,,,,,,,,,,,wg-a,,,,AAXX 20094 07690 12575 31306 10150 20060 30152 40183 52018 60006 81501 90900=
07690,1998-04-20 12:00:00,16,1019.1,0.8,63,9,25000,11.112,,,160,,,,,,,,,,,wg-a,,,,AAXX 20124 07690 12575 31606 10160 20090 30160 40191 51008 60006 81101 91200=
07690,1998-04-20 15:00:00,16,1019,-0.1,63,9,20000,11.112,,,170,,,,,,,,,,,wg-a,,,,AAXX 20154 07690 12670 /1706 10160 20090 30159 40190 55001 60006 81201 91500=
07690,1998-04-20 18:00:00,14,1019.6,0.6,77,10,10000,7.408,,,180,10.1,16.2,,,,,,,,,wg-a,,,,AAXX 20184 07690 12460 31804 10140 20100 30165 40196 51006 60006 81801 91800 333 10162 20101=
07690,1998-04-20 21:00:00,12,1020.7,1,88,10,11000,3.704,,,310,,,,,,,,,,,wg-a,,,,AAXX 20214 07690 12/61 /3102 10120 20100 30175 40207 50010 60006 92100=
07690,1998-04-21 00:00:00,10,1020.6,-0.1,93,9,15000,7.408,,,330,,,,,,,,,,,wg-a,,,,AAXX 21004 07690 12/65 03304 10100 20090 30174 40206 56001 60006 80000 90000=
07690,1998-04-21 03:00:00,9,1019.7,-0.9,93,8,15000,14.816,,,330,,,,,,,,,,,wg-a,,,,AAXX 21034 07690 12465 43308 10090 20080 30165 40197 56009 60006 84500 90300=
07690,1998-04-21 06:00:00,10,1020.2,0.5,82,7,12000,14.816,,,340,9.1,14.3,,,,,,,,,wg-a,,,,AAXX 21064 07690 02462 /3408 10100 20070 30170 40202 53005 60006 81801 90600 333 10143 20091 60004=
07690,1998-04-21 09:00:00,15,1020.6,0.5,72,10,20000,11.112,,,130,,,,,,,,,,,wg-a,,,,AAXX 21094 07690 12570 /1306 10150 20100 30175 40206 53005 60006 81100 90900=
07690,1998-04-21 12:00:00,16,1020.2,-0.4,68,10,500,11.112,,,150,,,,,,,,,,,wg-a,,,,AAXX 21124 07690 12500 31506 10160 20100 30171 40202 57004 60006 82801 91200=
07690,1998-04-21 15:00:00,16,1019.3,-0.9,72,11,20000,11.112,,,140,,,,,,,,,,,wg-a,,,,AAXX 21154 07690 12470 21406 10160 20110 30162 40193 58009 60006 82800 91500=
07690,1998-04-21 18:00:00,15,1018.9,-0.4,77,11,20000,7.408,,,150,10.1,16.8,,,,,,,,,wg-a,,,,AAXX 21184 07690 12470 21504 10150 20110 30158 40189 56004 60006 82800 91800 333 10168 20101=
07690,1998-04-21 21:00:00,14,1019,0.1,82,11,20000,7.408,,,50,,,,,,,,,,,wg-a,,,,AAXX 21214 07690 12470 30504 10140 20110 30159 40190 50001 60006 83500 92100=
07690,1998-04-22 00:00:00,11,1018.9,-0.2,87,9,20000,11.112,,,330,,,,,,,,,,,wg-a,,,,AAXX 22004 07690 12470 53306 10110 20090 30157 40189 55002 60006 85500 90000=
07690,1998-04-22 03:00:00,10,1018.1,-0.8,93,9,20000,14.816,,,330,,,,,,,,,,,wg-a,,,,AAXX 22034 07690 12470 63308 10100 20090 30149 40181 56008 60006 86500 90300=
07690,1998-04-22 06:00:00,11,1017,-1.1,82,8,15000,11.112,,,330,10.1,14.7,,,,,,,,,wg-a,,,,AAXX 22064 07690 02/65 03306 10110 20080 30138 40170 55011 60006 80000 90600 333 10147 20101 60004=
07690,1998-04-22 09:00:00,16,1017,0.1,72,11,10000,14.816,,,90,,,,,,,,,,,wg-a,,,,AAXX 22094 07690 12560 /0908 10160 20110 30139 40170 50001 60006 81201 90900=
07690,1998-04-22 12:00:00,17,1016,-1,55,8,15000,22.224,,,100,,,,,,,,,,,wg-a,,,,AAXX 22124 07690 12665 /1012 10170 20080 30129 40160 56010 60006 81202 91200=
07690,1998-04-22 21:00:00,14,1013.3,0.6,63,7,20000,11.112,,,330,,,,,,,,,,,wg-a,,,,AAXX 22214 07690 12/70 63306 10140 20070 30102 40133 51006 60006 80002 92100=
07690,1998-04-23 00:00:00,15,1013,-0.3,55,6,20000,7.408,,,340,,,,,,,,,,,wg-a,,,,AAXX 23004 07690 12/70 63404 10150 20060 30099 40130 57003 60006 80002 90000=
07690,1998-04-23 03:00:00,13,1012.6,-0.4,72,8,20000,11.112,,,330,,,,,,,,,,,wg-a,,,,AAXX 23034 07690 12/70 73306 10130 20080 30095 40126 57004 60006 83032 90300=
07690,1998-04-23 06:00:00,13,1013.3,0.7,67,7,500,14.816,,,330,12.7,17.5,,,,,,,,,wg-a,,,,AAXX 23064 07690 02/00 73308 10130 20070 30102 40133 53007 60006 85032 90600 333 10175 20127 60004=
07690,1998-04-23 09:00:00,18,1014.1,0.8,64,11,15000,11.112,,,220,,,,0,,,,,,,wg-a,,,,AAXX 23094 07690 12665 52206 10180 20110 30110 40141 51008 60007 81132 90900=
07690,1998-04-23 12:00:00,19,1014.3,0.2,60,11,15000,11.112,,,200,,,,,,,,,,,wg-a,,,,AAXX 23124 07690 12665 /2006 10190 20110 30112 40143 51002 60016 81102 91200=
07690,1998-04-23 15:00:00,19,1014.3,0,64,12,11000,7.408,,,200,,,,,,,,,,,wg-a,,,,AAXX 23154 07690 12/61 /2004 10190 20120 30112 40143 50000 60006 91500=
07690,1998-04-23 18:00:00,18,1014.8,0.5,68,12,11000,7.408,,,240,13.4,20.2,,,,,,,,,wg-a,,,,AAXX 23184 07690 12/61 62404 10180 20120 30117 40148 53005 60006 82082 91800 333 10202 20134=
07690,1998-04-23 21:00:00,15,1016.2,1.4,77,11,10000,7.408,,,260,,,,,,,,,,,wg-a,,,,AAXX 23214 07690 12/60 52604 10150 20110 30131 40162 51014 60006 82032 92100=
07690,1998-04-24 00:00:00,14,1016.5,0.3,72,9,12000,14.816,,,340,,,,,,,,,,,wg-a,,,,AAXX 24004 07690 12/62 33408 10140 20090 30134 40165 53003 60006 80002 90000=
07690,1998-04-24 03:00:00,14,1016.3,-0.2,67,8,12000,14.816,,,340,,,,,,,,,,,wg-a,,,,AAXX 24034 07690 12/62 23408 10140 20080 30132 40163 56002 60006 80002 90300=
07690,1998-04-24 06:00:00,14,1017.2,0.9,67,8,15000,11.112,,,340,13.3,17.8,,,,,,,,,wg-a,,,,AAXX 24064 07690 02/65 43406 10140 20080 30141 40172 53009 60006 80002 90600 333 10178 20133 60004=
07690,1998-04-24 09:00:00,19,1018.4,1.2,52,9,12000,7.408,,,140,,,,,,,,,,,wg-a,,,,AAXX 24094 07690 12/62 11404 10190 20090 30153 40184 53012 60006 80002 90900=
07690,1998-04-24 12:00:00,20,1017.8,-0.6,56,11,9000,7.408,,,160,,,,,,,,,,,wg-a,,,,AAXX 24124 07690 12659 /1604 10200 20110 30147 40178 58006 60006 81102 91200=
07690,1998-04-24 18:00:00,18,1017.3,-0.2,59,10,10000,3.704,,,60,13.9,20.1,,,,,,,,,wg-a,,,,AAXX 24184 07690 12/60 20602 10180 20100 30142 40173 55002 60006 81042 91800 333 10201 20139=
07690,1998-04-25 00:00:00,14,1017.7,0.2,77,10,10000,3.704,,,350,,,,,,,,,,,wg-a,,,,AAXX 25004 07690 12/60 /3502 10140 20100 30146 40177 50002 60006 90000=
07690,1998-04-25 06:00:00,14,1018.2,0.2,77,10,13000,7.408,,,340,12.6,18.3,,,,,,,,,wg-a,,,,AAXX 25064 07690 02/63 /3404 10140 20100 30151 40182 53002 60006 80001 90600 333 10183 20126 60004=
07690,1998-04-25 12:00:00,19,1019.6,-0.1,68,13,12000,7.408,,,140,,,,,,,,,,,wg-a,,,,AAXX 25124 07690 12662 /1404 10190 20130 30165 40196 58001 60006 81101 91200=
07690,1998-04-25 18:00:00,17,1018.4,-0.4,82,14,15000,7.408,,,170,13.9,19.4,,,,,,,,,wg-a,,,,AAXX 25184 07690 12/65 51704 10170 20140 30153 40184 55004 60006 80001 91800 333 10194 20139=
07690,1998-04-26 00:00:00,14,1017.4,-0.7,88,12,15000,7.408,,,350,,,,,,,,,,,wg-a,,,,AAXX 26004 07690 12/65 33504 10140 20120 30143 40174 56007 60006 80001 90000=
07690,1998-04-26 06:00:00,13,1016.1,-0.4,88,11,8000,7.408,,,310,12.3,16.9,,,,,,,,,wg-a,,,,AAXX 26064 07690 02458 /3104 10130 20110 30130 40161 55004 60006 86500 90600 333 10169 20123 60004=
07690,1998-04-26 12:00:00,16,1014.1,-1.3,77,12,9000,7.408,,,140,,,,,,,,,,,wg-a,,,,AAXX 26124 07690 12359 71404 10160 20120 30110 40141 58013 60006 875// 91200=
07690,1998-04-26 18:00:00,15,1009.7,-2,82,12,9000,14.816,,,90,12.6,17,,,,,,,,,wg-a,,,,AAXX 26184 07690 12459 80908 10150 20120 30066 40097 56020 60006 84502 91800 333 10170 20126=
07690,1998-04-27 00:00:00,15,1006.4,-2.4,82,12,12000,18.52,,,80,,,,,,,,,,,wg-a,,,,AAXX 27004 07690 12462 30810 10150 20120 30033 40064 56024 60006 81532 90000=
07690,1998-04-27 06:00:00,17,1001.5,-0.9,72,12,12000,42.596,,,80,12.7,16.8,,,,,,,,,wg-a,,,,AAXX 27064 07690 02462 70823 10170 20120 39985 40015 55009 60006 8457/ 90600 333 10168 20127 60004=
07690,1998-04-27 09:00:00,16,1001.6,0.1,88,14,8000,31.484,,,90,,,,,,,,,,,wg-a,,,,AAXX 27094 07690 12458 70917 10160 20140 39986 40016 53001 60006 878// 90900=
07690,1998-04-27 12:00:00,16,1002.4,0.7,77,12,12000,18.52,,,170,,,,,,,,,,,wg-a,,,,AAXX 27124 07690 12462 61710 10160 20120 39993 40024 53007 60006 86872 91200=
07690,1998-04-27 15:00:00,16,1002.1,-0.3,72,11,12000,29.632,,,100,,,,,,,,,,,wg-a,,,,AAXX 27154 07690 12562 51016 10160 20110 39990 40021 58003 60006 84802 91500=
07690,1998-04-27 18:00:00,15,1002.1,0,72,10,15000,11.112,,,100,14.8,17.5,,,,,,,,,wg-a,,,,AAXX 27184 07690 12565 51006 10150 20100 39990 40021 50000 60006 83832 91800 333 10175 20148=
07690,1998-04-27 21:00:00,14,1003.4,1.3,77,10,15000,7.408,,,90,,,,,,,,,,,wg-a,,,,AAXX 27214 07690 12565 50904 10140 20100 30003 40034 51013 60006 83882 92100=
07690,1998-04-28 00:00:00,12,1002.9,-0.5,88,10,15000,14.816,,,320,,,,,,,,,,,wg-a,,,,AAXX 28004 07690 12565 33208 10120 20100 39998 40029 58005 60006 82501 90000=
07690,1998-04-28 03:00:00,10,1002.4,-0.5,82,7,15000,18.52,,,330,,,,,,,,,,,wg-a,,,,AAXX 28034 07690 12465 /3310 10100 20070 39993 40024 58005 60006 81500 90300=
07690,1998-04-28 06:00:00,11,1002.7,0.3,71,6,40000,14.816,,,330,9.6,14.9,,,,,,,,,wg-a,,,,AAXX 28064 07690 02582 23308 10110 20060 39996 40027 53003 60006 81830 90600 333 10149 20096 60004=
07690,1998-04-28 09:00:00,15,1003.3,0.6,63,8,40000,7.408,,,170,,,,,,,,,,,wg-a,,,,AAXX 28094 07690 12582 41704 10150 20080 30002 40033 53006 60006 81230 90900=
07690,1998-04-28 12:00:00,17,1003.7,0.4,55,8,20000,14.816,,,110,,,,,,,,,,,wg-a,,,,AAXX 28124 07690 12570 31108 10170 20080 30006 40037 50004 60006 83900 91200=
07690,1998-04-28 15:00:00,15,1004.9,1.2,51,5,500,22.224,,,30,,,,,,,,,,,wg-a,,,,AAXX 28154 07690 12500 /0312 10150 20050 30018 40049 53012 60006 83930 91500=
07690,1998-04-28 18:00:00,14,1005.3,0.4,63,7,500,7.408,,,40,11.3,17.2,,1,,,,,,2,wg-a,,,,AAXX 28184 07690 02400 40404 10140 20070 30022 40053 53004 60006 70261 83180 91800 333 10172 20113 60017=
07690,1998-04-28 21:00:00,12,1006.6,1.3,76,8,500,14.816,,,320,,,,,,,,,,,wg-a,,,,AAXX 28214 07690 12/00 /3208 10120 20080 30035 40066 51013 60006 81030 92100=
07690,1998-04-29 00:00:00,10,1006.3,-0.3,82,7,500,18.52,,,330,,,,,,,,,,,wg-a,,,,AAXX 29004 07690 12500 /3310 10100 20070 30032 40063 58003 60006 81500 90000=
07690,1998-04-29 03:00:00,9,1005.8,-0.5,81,6,500,18.52,,,330,,,,,,,,,,,wg-a,,,,AAXX 29034 07690 12500 /3310 10090 20060 30027 40058 56005 60006 81500 90300=
07690,1998-04-29 06:00:00,10,1006.1,0.3,76,6,50000,18.52,,,330,8.6,13.9,,,,,1,,,,wg-a,,,,AAXX 29064 07690 02584 /3310 10100 20060 30030 40061 53003 60006 81501 90600 333 10139 20086 60014=
07690,1998-04-29 09:00:00,15,1006.8,0.7,59,7,500,7.408,,,140,,,,,,,,,,,wg-a,,,,AAXX 29094 07690 12500 /1404 10150 20070 30037 40068 53007 60006 81102 90900=
07690,1998-04-29 12:00:00,15,1008.1,1.3,67,9,20000,14.816,,,110,,,,,,,,,,,wg-a,,,,AAXX 29124 07690 12570 71108 10150 20090 30050 40081 51013 60006 8388/ 91200=
07690,1998-04-29 18:00:00,12,1007.2,-0,82,9,3000,7.408,,,20,10.1,16.1,,,,,,,,10,wg-a,,,,AAXX 29184 07690 02230 80204 10120 20090 30041 40072 55000 61000 71062 8597/ 91800 333 10161 20101 6007=
07690,1998-04-29 21:00:00,12,1006.5,-0.7,76,8,8000,25.928,,,30,,,,12,,,,,,61,wg-a,,,,AAXX 29214 07690 12258 80314 10120 20080 30034 40065 58007 60127 76166 8697/ 92100=
07690,1998-04-30 00:00:00,11,1005.7,-0.8,94,10,8000,14.816,,,360,,,,9,,,,,,,wg-a,,,,AAXX 30004 07690 02/58 /3608 10110 20100 30026 40057 56008 60206 90000 333 60097=
07690,1998-04-30 03:00:00,11,1004.3,-1.4,87,9,11000,18.52,,,20,,,,,,,,,,,wg-a,,,,AAXX 30034 07690 32/61 /0210 10110 20090 30012 40043 56014 90300=
07690,1998-04-30 06:00:00,12,1003.5,-0.8,82,9,6000,22.224,,,30,10.6,12.3,,,,,,,,61,wg-a,,,,AAXX 30064 07690 02256 80312 10120 20090 30004 40035 55008 61000 76166 878// 90600 333 10123 20106 6045=
07690,1998-04-30 09:00:00,11,1005.1,1.6,87,9,10000,18.52,,,20,,,,14,,,,,,61,wg-a,,,,AAXX 30094 07690 12260 80210 10110 20090 30020 40051 51016 60147 76166 8582/ 90900=
07690,1998-04-30 12:00:00,13,1006,0.9,77,9,15000,14.816,,,350,,,,,,,,,,61,wg-a,,,,AAXX 30124 07690 02465 83508 10130 20090 30029 40060 51009 60146 76162 8582/ 91200 333 61000=
07690,1998-04-30 15:00:00,16,1006.8,0.8,59,8,18000,11.112,,,140,,,,,,,,,,3,wg-a,,,,AAXX 30154 07690 02568 71406 10160 20080 30037 40068 51008 61000 70362 8487/ 91500 333 ////=
07690,1998-04-30 18:00:00,14,1008.9,2.1,72,9,25000,18.52,,,130,10.3,15.9,,,,,,,,3,wg-a,,,,AAXX 30184 07690 12575 61310 10140 20090 30058 40089 53021 60006 70362 83832 91800 333 10159 20103=
07690,1998-04-30 21:00:00,13,1010.8,1.9,77,9,20000,7.408,,,100,,,,,,,,,,,wg-a,,,,AAXX 30214 07690 12570 /1004 10130 20090 30077 40108 52019 60006 84830 92100=
07690,1998-05-01 00:00:00,10,1011.2,0.4,93,9,20000,11.112,,,330,,,,,,,,,,13,wg-a,,,,AAXX 01004 07690 12470 /3306 10100 20090 30081 40112 51004 60006 71311 84880 90000=
07690,1998-05-01 03:00:00,9,1010.8,-0.5,93,8,25000,14.816,,,330,,,,,,,,,,13,wg-a,,,,AAXX 01034 07690 12575 33308 10090 20080 30076 40108 57005 60006 71300 81530 90300=
07690,1998-05-01 06:00:00,11,1011.1,0.4,82,8,35000,18.52,,,330,9.2,14.3,,,,,14,,,,wg-a,,,,AAXX 01064 07690 02481 23310 10110 20080 30080 40111 53004 60006 81903 90600 333 10143 20092 60144=
07690,1998-05-01 09:00:00,15,1012.2,1.1,63,8,40000,7.408,,,110,,,,,,,,,,,wg-a,,,,AAXX 01094 07690 12582 /1104 10150 20080 30091 40122 51011 60006 86800 90900=
07690,1998-05-01 12:00:00,14,1012,-0.2,77,10,500,11.112,,,120,,,,,,,,,,,wg-a,,,,AAXX 01124 07690 12500 71206 10140 20100 30089 40120 58002 60006 8787/ 91200=
07690,1998-05-01 15:00:00,16,1011.1,-0.9,68,10,500,14.816,,,90,,,,,,,,,,,wg-a,,,,AAXX 01154 07690 12600 40908 10160 20100 30080 40111 58009 60006 83830 91500=
07690,1998-05-01 18:00:00,15,1011.5,0.4,77,11,500,11.112,,,80,10.8,16.1,,,,,,,,,wg-a,,,,AAXX 01184 07690 12400 40806 10150 20110 30084 40115 53004 60006 83830 91800 333 10161 20108=
07690,1998-05-01 21:00:00,12,1012.2,0.7,82,9,20000,14.816,,,330,,,,,,,,,,13,wg-a,,,,AAXX 01214 07690 12470 23308 10120 20090 30091 40122 50007 60006 71311 82500 92100=
07690,1998-05-02 00:00:00,11,1011.7,-0.5,82,8,20000,14.816,,,340,,,,,,,,,,,wg-a,,,,AAXX 02004 07690 12570 /3408 10110 20080 30086 40117 57005 60006 81500 90000=
07690,1998-05-02 03:00:00,10,1011.5,-0.3,82,7,20000,18.52,,,340,,,,,,,,,,,wg-a,,,,AAXX 02034 07690 12/70 03410 10100 20070 30083 40115 55003 60006 80000 90300=
07690,1998-05-02 06:00:00,11,1011.9,0.5,76,7,50000,14.816,,,330,9.6,14.6,,,,,,,,,wg-a,,,,AAXX 02064 07690 02584 /3308 10110 20070 30088 40119 53005 60006 81100 90600 333 10146 20096 60004=
07690,1998-05-02 09:00:00,15,1012.7,0.8,67,9,50000,11.112,,,130,,,,,,,,,,,wg-a,,,,AAXX 02094 07690 12684 /1306 10150 20090 30096 40127 51008 60006 81201 90900=
07690,1998-05-02 12:00:00,17,1012.7,-0,68,11,40000,14.816,,,120,,,,,,,,,,,wg-a,,,,AAXX 02124 07690 12482 41208 10170 20110 30096 40127 54000 60006 83202 91200=
07690,1998-05-02 15:00:00,17,1011.4,-1.3,68,11,40000,11.112,,,120,,,,,,,,,,,wg-a,,,,AAXX 02154 07690 12582 21206 10170 20110 30083 40114 58013 60006 82202 91500=
07690,1998-05-02 18:00:00,15,1011,-0.4,77,11,40000,11.112,,,110,10.9,17.1,,,,,,,,,wg-a,,,,AAXX 02184 07690 12582 41106 10150 20110 30079 40110 55004 60006 82802 91800 333 10171 20109=
07690,1998-05-02 21:00:00,12,1011,-0,94,11,20000,11.112,,,320,,,,,,,,,,,wg-a,,,,AAXX 02214 07690 12770 /3206 10120 20110 30079 40110 55000 60006 81502 92100=
07690,1998-05-03 03:00:00,11,1006.5,-2.7,82,8,20000,11.112,,,340,,,,,,,,,,,wg-a,,,,AAXX 03034 07690 12/70 43406 10110 20080 30034 40065 58027 60006 80002 90300=
07690,1998-05-03 06:00:00,12,1005,-1.5,76,8,40000,11.112,,,340,10.6,15.1,,,,,,,,,wg-a,,,,AAXX 03064 07690 02/82 43406 10120 20080 30019 40050 58015 60006 82039 90600 333 10151 20106 60004=
07690,1998-05-03 09:00:00,17,1003.6,-1.3,68,11,40000,3.704,,,260,,,,,,,,,,,wg-a,,,,AAXX 03094 07690 12682 62602 10170 20110 30006 40036 56013 60006 81172 90900=
07690,1998-05-03 12:00:00,21,1001.6,-2,40,7,40000,7.408,,,140,,,,,,,,,,,wg-a,,,,AAXX 03124 07690 12682 /1404 10210 20070 39986 40016 58020 60006 82270 91200=
07690,1998-05-03 15:00:00,18,998.6,-3,59,10,40000,7.408,,,280,,,,,,,,,,,wg-a,,,,AAXX 03154 07690 12582 72804 10180 20100 39956 49986 56030 60006 84872 91500=
07690,1998-05-03 17:00:00,17,998,-0.6,72,12,500,22.224,,,240,12.4,20.8,,,,,,,,,wg-a,,,,AAXX 03174 07690 12600 72412 10170 20120 39950 49980 58006 60006 84872 91700 333 10208 20124=
07690,1998-05-03 18:00:00,17,998,-0.6,68,11,500,22.224,,,240,12.4,20.8,,,,,,,,,wg-a,,,,AAXX 03184 07690 12600 72412 10170 20110 39950 49980 58006 60006 84872 91800 333 10208 20124=
07690,1998-05-03 21:00:00,15,998.3,0.3,72,10,25000,7.408,,,310,,,,,,,,,,,wg-a,,,,AAXX 03214 07690 12575 83104 10150 20100 39953 49983 50003 60006 8487/ 92100=
07690,1998-05-04 00:00:00,14,996.5,-1.9,72,9,25000,22.224,,,330,,,,,,,,,,,wg-a,,,,AAXX 04004 07690 12575 83312 10140 20090 39934 49965 56019 60006 8387/ 90000=
07690,1998-05-04 03:00:00,15,995.3,-1.2,55,6,11000,22.224,,,340,,,,,,,,,,,wg-a,,,,AAXX 04034 07690 12/61 /3412 10150 20060 39922 49953 56012 60006 90300=
07690,1998-05-04 06:00:00,15,996.1,0.8,51,5,500,11.112,,,330,14.3,18.1,,,,,,,,,wg-a,,,,AAXX 04064 07690 02700 83306 10150 20050 39930 49961 53008 60006 8387/ 90600 333 10181 20143 60004=
07690,1998-05-04 09:00:00,18,996.6,0.6,52,8,500,7.408,,,320,,,,,,,,,,,wg-a,,,,AAXX 04094 07690 12500 83204 10180 20080 39936 49966 53006 60006 82832 90900=
07690,1998-05-04 12:00:00,19,996.9,0.3,64,12,500,11.112,,,150,,,,,,,,,,,wg-a,,,,AAXX 04124 07690 12500 81506 10190 20120 39939 49969 53003 60006 8253/ 91200=
07690,1998-05-04 15:00:00,17,998.2,1.3,77,13,25000,7.408,,,150,,,,,,,,,,,wg-a,,,,AAXX 04154 07690 12575 81504 10170 20130 39952 49982 53013 60006 8353/ 91500=
07690,1998-05-04 18:00:00,17,999.9,1.7,77,13,20000,11.112,,,80,14.9,19.4,,,,,,,,,wg-a,,,,AAXX 04184 07690 12570 80806 10170 20130 39969 49999 53017 60006 8187/ 91800 333 10194 20149=
07690,1998-05-04 21:00:00,15,1001.4,1.4,82,12,15000,7.408,,,310,,,,,,,,,,,wg-a,,,,AAXX 04214 07690 12765 73104 10150 20120 39983 40014 51014 60006 81872 92100=
07690,1998-05-05 00:00:00,16,1001.7,0.3,59,8,15000,14.816,,,350,,,,,,,,,,,wg-a,,,,AAXX 05004 07690 12765 83508 10160 20080 39986 40017 52003 60006 8257/ 90000=
07690,1998-05-05 03:00:00,15,1002.2,0.5,63,8,15000,7.408,,,330,,,,,,,,,,,wg-a,,,,AAXX 05034 07690 12765 /3304 10150 20080 39991 40022 51005 60006 82530 90300=
07690,1998-05-05 06:00:00,15,1003.2,1,63,8,500,11.112,,,340,14.4,16.8,,,,,,,,,wg-a,,,,AAXX 05064 07690 02/00 /3406 10150 20080 30001 40032 53010 60006 83072 90600 333 10168 20144 60004=
07690,1998-05-05 09:00:00,19,1004.1,1,64,12,20000,11.112,,,100,,,,,,,,,,,wg-a,,,,AAXX 05094 07690 12670 /1006 10190 20120 30011 40041 51010 60006 81102 90900=
07690,1998-05-05 12:00:00,19,1005,0.9,78,15,8000,11.112,,,140,,,,,,,,,,,wg-a,,,,AAXX 05124 07690 12658 /1406 10190 20150 30020 40050 51009 60006 81202 91200=
07690,1998-05-05 15:00:00,19,1005.3,0.3,73,14,8000,7.408,,,120,,,,,,,,,,,wg-a,,,,AAXX 05154 07690 12658 /1204 10190 20140 30023 40053 51003 60006 81202 91500=
07690,1998-05-05 18:00:00,17,1005.7,0.4,77,13,10000,3.704,,,120,15,19.4,,,,,,,,,wg-a,,,,AAXX 05184 07690 12660 41202 10170 20130 30027 40057 53004 60006 81502 91800 333 10194 20150=
07690,1998-05-05 21:00:00,16,1007,1.2,88,14,15000,7.408,,,160,,,,,,,,,,,wg-a,,,,AAXX 05214 07690 12/65 31604 10160 20140 30039 40070 53012 60006 82031 92100=
07690,1998-05-06 00:00:00,14,1007.9,0.9,82,11,15000,11.112,,,70,,,,,,,,,,,wg-a,,,,AAXX 06004 07690 12365 /0706 10140 20110 30048 40079 51009 60006 81500 90000=
07690,1998-05-06 03:00:00,12,1008.1,0.2,88,10,15000,11.112,,,330,,,,,,,,,,,wg-a,,,,AAXX 06034 07690 12365 43306 10120 20100 30050 40081 53002 60006 82530 90300=
07690,1998-05-06 06:00:00,13,1009.9,1.8,88,11,12000,3.704,,,50,11.8,17.5,,,,,,,,,wg-a,,,,AAXX 06064 07690 02462 30502 10130 20110 30068 40099 53018 60006 81580 90600 333 10175 20118 60004=
07690,1998-05-06 09:00:00,17,1011.6,1.7,77,13,7000,14.816,,,110,,,,,,,,,,,wg-a,,,,AAXX 06094 07690 12457 /1108 10170 20130 30085 40116 51017 60006 82880 90900=
07690,1998-05-06 12:00:00,18,1012.6,1,77,14,6000,14.816,,,110,,,,,,,,,,,wg-a,,,,AAXX 06124 07690 12456 51108 10180 20140 30095 40126 51010 60006 83801 91200=
07690,1998-05-06 15:00:00,18,1012.8,0.2,77,14,500,11.112,,,150,,,,,,,,,,,wg-a,,,,AAXX 06154 07690 12400 /1506 10180 20140 30097 40128 53002 60006 84882 91500=
07690,1998-05-06 18:00:00,16,1013.9,1.1,82,13,6000,7.408,,,130,13.5,18.2,,,,,,,,,wg-a,,,,AAXX 06184 07690 12456 71304 10160 20130 30108 40139 53011 60006 82582 91800 333 10182 20135=
07690,1998-05-06 21:00:00,16,1015.8,1.9,88,14,12000,7.408,,,70,,,,,,,,,,,wg-a,,,,AAXX 06214 07690 12/62 /0704 10160 20140 30127 40158 52019 60006 86080 92100=
07690,1998-05-07 00:00:00,14,1016.6,0.8,88,12,12000,0,,,0,,,,,,,,,,,wg-a,,,,AAXX 07004 07690 12/62 20000 10140 20120 30135 40166 53008 60006 82080 90000=
07690,1998-05-07 03:00:00,13,1017.4,0.8,88,11,10000,11.112,,,330,,,,,,,,,,,wg-a,,,,AAXX 07034 07690 12/60 /3306 10130 20110 30143 40174 52008 60006 90300=
07690,1998-05-07 06:00:00,15,1019.6,2.2,72,10,15000,3.704,,,10,12.5,16.4,,,,,,,,,wg-a,,,,AAXX 07064 07690 02/65 00102 10150 20100 30165 40196 53022 60006 80000 90600 333 10164 20125 60004=
07690,1998-05-07 09:00:00,18,1021.2,1.6,77,14,9000,11.112,,,140,,,,,,,,,,,wg-a,,,,AAXX 07094 07690 12559 11406 10180 20140 30181 40212 53016 60006 81100 90900=
07690,1998-05-07 12:00:00,18,1022.1,0.9,77,14,9000,7.408,,,170,,,,,,,,,,,wg-a,,,,AAXX 07124 07690 12559 /1704 10180 20140 30190 40221 51009 60006 81100 91200=
07690,1998-05-07 15:00:00,20,1022.3,0.2,73,15,9000,7.408,,,200,,,,,,,,,,,wg-a,,,,AAXX 07154 07690 12559 /2004 10200 20150 30192 40223 51002 60006 81100 91500=
07690,1998-05-07 18:00:00,18,1023.1,0.8,77,14,9000,7.408,,,190,14.8,20.7,,,,,,,,,wg-a,,,,AAXX 07184 07690 12/59 01904 10180 20140 30200 40231 53008 60006 80000 91800 333 10207 20148=
07690,1998-05-07 21:00:00,15,1024.7,1.6,88,13,10000,7.408,,,320,,,,,,,,,,,wg-a,,,,AAXX 07214 07690 12/60 03204 10150 20130 30216 40247 51016 60006 80000 92100=
07690,1998-05-08 00:00:00,14,1025.4,0.7,82,11,15000,7.408,,,340,,,,,,,,,,,wg-a,,,,AAXX 08004 07690 12/65 03404 10140 20110 30223 40254 51007 60006 80000 90000=
07690,1998-05-08 03:00:00,15,1025.4,0,67,9,15000,7.408,,,340,,,,,,,,,,,wg-a,,,,AAXX 08034 07690 12/65 03404 10150 20090 30223 40254 50000 60006 80000 90300=
07690,1998-05-08 06:00:00,16,1026.8,1.4,63,9,15000,7.408,,,330,13.9,17.6,,,,,,,,,wg-a,,,,AAXX 08064 07690 02/65 03304 10160 20090 30237 40268 53014 60006 80000 90600 333 10176 20139 60004=
07690,1998-05-08 09:00:00,19,1027.4,0.6,68,13,8000,7.408,,,120,,,,,,,,,,,wg-a,,,,AAXX 08094 07690 12658 11204 10190 20130 30243 40274 51006 60006 81200 90900=
07690,1998-05-08 12:00:00,20,1027.4,0,68,14,10000,14.816,,,190,,,,,,,,,,,wg-a,,,,AAXX 08124 07690 12660 /1908 10200 20140 30243 40274 50000 60006 81200 91200=
07690,1998-05-08 15:00:00,21,1026.7,-0.7,64,14,15000,11.112,,,190,,,,,,,,,,,wg-a,,,,AAXX 08154 07690 12665 21906 10210 20140 30236 40267 58007 60006 81201 91500=
07690,1998-05-08 18:00:00,18,1026.5,-0.2,83,15,15000,11.112,,,210,15.6,21.1,,,,,,,,,wg-a,,,,AAXX 08184 07690 12/65 42106 10180 20150 30234 40265 55002 60006 80001 91800 333 10211 20156=
07690,1998-05-08 21:00:00,16,1027.3,0.8,77,12,15000,11.112,,,340,,,,,,,,,,,wg-a,,,,AAXX 08214 07690 12/65 23406 10160 20120 30242 40273 51008 60006 80002 92100=
07690,1998-05-09 00:00:00,16,1026.7,-0.6,59,8,15000,14.816,,,350,,,,,,,,,,,wg-a,,,,AAXX 09004 07690 12/65 23508 10160 20080 30236 40267 57006 60006 81032 90000=
07690,1998-05-09 06:00:00,16,1026,0.3,55,7,500,18.52,,,340,15.5,18.3,,,,,,,,,wg-a,,,,AAXX 09064 07690 02/00 53410 10160 20070 30229 40260 53003 60006 81032 90600 333 10183 20155 60004=
07690,1998-05-09 09:00:00,23,1026,0,47,11,25000,11.112,,,100,,,,,,,,,,,wg-a,,,,AAXX 09094 07690 12/75 71006 10230 20110 30229 40260 50000 60006 80001 90900=
07690,1998-05-09 12:00:00,22,1025,-1,50,11,25000,7.408,,,140,,,,,,,,,,,wg-a,,,,AAXX 09124 07690 12675 /1404 10220 20110 30219 40250 58010 60006 81101 91200=
07690,1998-05-09 15:00:00,21,1023.8,-1.2,53,11,500,7.408,,,120,,,,,,,,,,,wg-a,,,,AAXX 09154 07690 12/00 /1204 10210 20110 30207 40238 58012 60006 80001 91500=
07690,1998-05-09 18:00:00,19,1022.4,-1.4,73,14,500,3.704,,,200,16.2,22.7,,,,,,,,,wg-a,,,,AAXX 09184 07690 12/00 32002 10190 20140 30193 40224 56014 60006 80001 91800 333 10227 20162=
07690,1998-05-10 00:00:00,19,1021.5,-0.6,46,7,15000,14.816,,,350,,,,,,,,,,,wg-a,,,,AAXX 10004 07690 12/65 03508 10190 20070 30184 40215 56006 60006 80000 90000=
07690,1998-05-10 03:00:00,18,1020.4,-1.1,52,8,15000,11.112,,,40,,,,,,,,,,,wg-a,,,,AAXX 10034 07690 12/65 00406 10180 20080 30173 40204 57011 60006 80000 90300=
07690,1998-05-10 06:00:00,18,1020.7,0.3,56,9,25000,25.928,,,330,16.2,19.4,,,,,,,,,wg-a,,,,AAXX 10064 07690 02/75 03314 10180 20090 30176 40207 53003 60006 80000 90600 333 10194 20162 60004=
07690,1998-05-10 09:00:00,22,1020.2,-0.4,60,14,20000,11.112,,,80,,,,,,,,,,,wg-a,,,,AAXX 10094 07690 12/70 00806 10220 20140 30172 40202 56004 60006 80000 90900=
07690,1998-05-10 12:00:00,23,1019.4,-0.8,53,13,12000,7.408,,,190,,,,,,,,,,,wg-a,,,,AAXX 10124 07690 12/62 01904 10230 20130 30164 40194 56008 60006 80000 91200=
07690,1998-05-10 15:00:00,24,1017.6,-1.8,54,14,10000,7.408,,,250,,,,,,,,,,,wg-a,,,,AAXX 10154 07690 12/60 02504 10240 20140 30146 40176 58018 60006 80000 91500=
07690,1998-05-10 18:00:00,22,1016.5,-1.1,53,12,15000,3.704,,,170,17.8,24.7,,,,,,,,,wg-a,,,,AAXX 10184 07690 12/65 01702 10220 20120 30135 40165 56011 60006 80000 91800 333 10247 20178=
07690,1998-05-10 21:00:00,20,1016.8,0.2,60,12,15000,14.816,,,340,,,,,,,,,,,wg-a,,,,AAXX 10214 07690 12/65 03408 10200 20120 30137 40168 53002 60006 80000 92100=
07690,1998-05-11 00:00:00,19,1016.5,-0.3,60,11,15000,18.52,,,340,,,,,,,,,,,wg-a,,,,AAXX 11004 07690 12/65 03410 10190 20110 30134 40165 58003 60006 80000 90000=
07690,1998-05-11 03:00:00,18,1016.3,-0.2,64,11,20000,18.52,,,340,,,,,,,,,,,wg-a,,,,AAXX 11034 07690 12/70 03410 10180 20110 30132 40163 56002 60006 80000 90300=
07690,1998-05-11 06:00:00,18,1016.9,0.6,64,11,20000,18.52,,,330,17.3,22.3,,,,,,,,,wg-a,,,,AAXX 11064 07690 02/70 13310 10180 20110 30138 40169 53006 60006 81030 90600 333 10223 20173 60004=
07690,1998-05-11 09:00:00,25,1017.6,0.8,36,9,15000,3.704,,,100,,,,,,,,,,,wg-a,,,,AAXX 11094 07690 12/65 11002 10250 20090 30146 40176 52008 60006 80002 90900=
07690,1998-05-11 12:00:00,25,1017.5,-0.1,36,9,20000,7.408,,,80,,,,,,,,,,,wg-a,,,,AAXX 11124 07690 12/70 10804 10250 20090 30145 40175 57001 60006 80001 91200=
07690,1998-05-11 15:00:00,26,1016.4,-1.1,32,8,25000,3.704,,,80,,,,,,,,,,,wg-a,,,,AAXX 11154 07690 12675 20802 10260 20080 30134 40164 58011 60006 81101 91500=
07690,1998-05-11 18:00:00,23,1016.1,-0.3,41,9,500,3.704,,,180,18.1,26.4,,,,,,,,,wg-a,,,,AAXX 11184 07690 12/00 21802 10230 20090 30131 40161 57003 60006 80001 91800 333 10264 20181=
07690,1998-05-11 21:00:00,20,1016.9,0.7,46,8,15000,14.816,,,340,,,,,,,,,,,wg-a,,,,AAXX 11214 07690 12/65 23408 10200 20080 30138 40169 51007 60006 81031 92100=
07690,1998-05-12 00:00:00,20,1017.1,0.2,46,8,15000,18.52,,,340,,,,,,,,,,,wg-a,,,,AAXX 12004 07690 12/65 63410 10200 20080 30140 40171 50002 60006 80008 90000=
07690,1998-05-12 03:00:00,19,1016.5,-0.6,49,8,15000,7.408,,,340,,,,,,,,,,,wg-a,,,,AAXX 12034 07690 12/65 33404 10190 20080 30134 40165 58006 60006 80008 90300=
07690,1998-05-12 06:00:00,19,1017.5,1,52,9,25000,22.224,,,340,18.6,22.5,,,,,,,,,wg-a,,,,AAXX 12064 07690 02/75 53412 10190 20090 30144 40175 53010 60006 80002 90600 333 10225 20186 60004=
07690,1998-05-12 09:00:00,24,1018.1,0.7,57,15,20000,11.112,,,100,,,,,,,,,,,wg-a,,,,AAXX 12094 07690 12/70 51006 10240 20150 30151 40181 53007 60006 80002 90900=
07690,1998-05-12 12:00:00,24,1018.3,0.2,57,15,20000,7.408,,,170,,,,,,,,,,,wg-a,,,,AAXX 12124 07690 12/70 61704 10240 20150 30153 40183 50002 60006 80002 91200=
07690,1998-05-12 15:00:00,23,1017.3,-1,65,16,20000,7.408,,,170,,,,,,,,,,,wg-a,,,,AAXX 12154 07690 12/70 71704 10230 20160 30143 40173 58010 60006 80002 91500=
07690,1998-05-12 18:00:00,21,1017.4,0.1,56,12,20000,3.704,,,230,19.2,25,,,,,,,,,wg-a,,,,AAXX 12184 07690 12/70 72302 10210 20120 30144 40174 53001 60006 80002 91800 333 10250 20192=
07690,1998-05-12 21:00:00,19,1018.6,1.1,60,11,15000,11.112,,,320,,,,,,,,,,,wg-a,,,,AAXX 12214 07690 12/65 63206 10190 20110 30155 40186 51011 60006 80002 92100=
07690,1998-05-13 00:00:00,19,1018.4,-0.2,52,9,15000,18.52,,,340,,,,,,,,,,,wg-a,,,,AAXX 13004 07690 12/65 53410 10190 20090 30153 40184 57002 60006 82032 90000=
07690,1998-05-13 03:00:00,17,1018.4,0,59,9,20000,14.816,,,330,,,,,,,,,,,wg-a,,,,AAXX 13034 07690 12/70 53308 10170 20090 30153 40184 50000 60006 80006 90300=
07690,1998-05-13 06:00:00,19,1019,0.6,52,9,25000,7.408,,,40,17.2,21.7,,,,,,,,,wg-a,,,,AAXX 13064 07690 02775 /0404 10190 20090 30159 40190 53006 60006 81531 90600 333 10217 20172 60004=
07690,1998-05-13 09:00:00,22,1019.4,0.5,65,15,20000,7.408,,,130,,,,,,,,,,,wg-a,,,,AAXX 13094 07690 12/70 51304 10220 20150 30164 40194 52005 60006 81031 90900=
07690,1998-05-13 12:00:00,25,1019,-0.4,39,10,20000,7.408,,,150,,,,,,,,,,,wg-a,,,,AAXX 13124 07690 12670 41504 10250 20100 30160 40190 57004 60006 81101 91200=
07690,1998-05-13 15:00:00,24,1017.8,-1.2,54,14,13000,7.408,,,170,,,,,,,,,,,wg-a,,,,AAXX 13154 07690 12663 21704 10240 20140 30148 40178 56012 60006 81101 91500=
07690,1998-05-13 18:00:00,23,1017.6,-0.2,57,14,500,3.704,,,140,19.4,25.2,,,,,,,,,wg-a,,,,AAXX 13184 07690 12/00 11402 10230 20140 30146 40176 55002 60006 81081 91800 333 10252 20194=
07690,1998-05-13 21:00:00,18,1017.3,-0.4,68,12,15000,18.52,,,330,,,,,,,,,,,wg-a,,,,AAXX 13214 07690 12/65 13310 10180 20120 30142 40173 56004 60006 80001 92100=
07690,1998-05-14 00:00:00,20,1016.2,-1.1,43,7,15000,14.816,,,340,,,,,,,,,,,wg-a,,,,AAXX 14004 07690 12/65 03408 10200 20070 30131 40162 56011 60006 80000 90000=
07690,1998-05-14 03:00:00,19,1015.4,-0.8,43,6,10000,14.816,,,350,,,,,,,,,,,wg-a,,,,AAXX 14034 07690 12/60 /3508 10190 20060 30123 40154 56008 60006 90300=
07690,1998-05-14 06:00:00,20,1015.2,-0.2,43,7,25000,14.816,,,350,17.4,22.8,,,,,,,,,wg-a,,,,AAXX 14064 07690 02/75 03508 10200 20070 30121 40152 56002 60006 80000 90600 333 10228 20174 60004=
07690,1998-05-14 09:00:00,24,1015.9,0.8,38,9,15000,7.408,,,90,,,,,,,,,,,wg-a,,,,AAXX 14094 07690 12765 /0904 10240 20090 30129 40159 53008 60006 81200 90900=
07690,1998-05-14 12:00:00,23,1015.5,-0.4,69,17,8000,7.408,,,140,,,,,,,,,,,wg-a,,,,AAXX 14124 07690 12758 /1404 10230 20170 30125 40155 58004 60006 81900 91200=
07690,1998-05-14 15:00:00,26,1013.3,-2.2,37,10,12000,18.52,,,90,,,,,,,,,,,wg-a,,,,AAXX 14154 07690 12762 /0910 10260 20100 30103 40133 56022 60006 81900 91500=
07690,1998-05-14 18:00:00,25,1012.9,-0.4,39,10,15000,14.816,,,90,19.9,27,,,,,,,,,wg-a,,,,AAXX 14184 07690 12/65 30908 10250 20100 30099 40129 58004 60006 81082 91800 333 10270 20199=
07690,1998-05-14 21:00:00,21,1013.6,0.7,53,11,15000,11.112,,,50,,,,,,,,,,,wg-a,,,,AAXX 14214 07690 12/65 10506 10210 20110 30106 40136 51007 60006 80001 92100=
07690,1998-05-15 00:00:00,22,1014.6,1,57,13,15000,11.112,,,140,,,,,,,,,,,wg-a,,,,AAXX 15004 07690 12565 21406 10220 20130 30116 40146 53010 60006 82900 90000=
07690,1998-05-15 03:00:00,17,1013.9,-0.8,88,15,10000,14.816,,,340,,,,3,,,,,,29,wg-a,,,,AAXX 15034 07690 12560 73408 10170 20150 30108 40139 58008 60037 72998 879// 90300=
07690,1998-05-15 06:00:00,19,1013.6,-0.3,73,14,500,7.408,,,350,16.7,25.5,,,,,3,,,3,wg-a,,,,AAXX 15064 07690 02/00 73504 10190 20140 30105 40136 55003 60006 70398 85072 90600 333 10255 20167 60034=
07690,1998-05-15 09:00:00,21,1013.5,0,64,14,15000,14.816,,,320,,,,,,,,,,,wg-a,,,,AAXX 15094 07690 12765 /3208 10210 20140 30105 40135 50000 60006 81280 90900=
07690,1998-05-15 12:00:00,23,1012.1,-1.4,69,17,20000,14.816,,,240,,,,,,,,,,,wg-a,,,,AAXX 15124 07690 12670 /2408 10230 20170 30091 40121 58014 60006 81280 91200=
07690,1998-05-15 15:00:00,21,1011,-1.1,78,17,15000,29.632,,,210,,,,,,,,,,,wg-a,,,,AAXX 15154 07690 12665 /2116 10210 20170 30080 40110 56011 60006 81980 91500=
07690,1998-05-15 18:00:00,20,1010,-1,73,15,20000,11.112,,,250,18.7,24.2,,,,,,,,,wg-a,,,,AAXX 15184 07690 12/70 32506 10200 20150 30070 40100 56010 60006 81083 91800 333 10242 20187=
07690,1998-05-15 21:00:00,19,1010,0,73,14,15000,14.816,,,330,,,,,,,,,,,wg-a,,,,AAXX 15214 07690 12/65 23308 10190 20140 30070 40100 50000 60006 81032 92100=
07690,1998-05-16 03:00:00,18,1009.6,-0,68,12,15000,7.408,,,20,,,,,,,,,,,wg-a,,,,AAXX 16034 07690 12/65 00204 10180 20120 30065 40096 55000 60006 80000 90300=
07690,1998-05-16 06:00:00,18,1010.4,0.8,68,12,20000,11.112,,,330,16.6,19.9,,,,,,,,,wg-a,,,,AAXX 16064 07690 02/70 /3306 10180 20120 30073 40104 51008 60006 81083 90600 333 10199 20166 60004=
07690,1998-05-16 09:00:00,21,1011.9,1.6,73,16,25000,29.632,,,80,,,,,,,,,,,wg-a,,,,AAXX 16094 07690 12475 /0816 10210 20160 30089 40119 53016 60006 81282 90900=
07690,1998-05-16 12:00:00,21,1012.9,1,64,14,20000,18.52,,,90,,,,,,,,,,,wg-a,,,,AAXX 16124 07690 12470 /0910 10210 20140 30099 40129 51010 60006 81280 91200=
07690,1998-05-16 15:00:00,20,1012.3,-0.6,68,14,18000,7.408,,,170,,,,,,,,,,,wg-a,,,,AAXX 16154 07690 12568 /1704 10200 20140 30093 40123 57006 60006 81280 91500=
07690,1998-05-16 18:00:00,18,1013.2,0.8,77,14,500,3.704,,,210,17.5,21.7,,,,,,,,17,wg-a,,,,AAXX 16184 07690 02300 82102 10180 20140 30101 40132 53008 61000 71798 8498/ 91800 333 10217 20175 6000=
07690,1998-05-16 21:00:00,17,1013.2,-0,88,15,8000,11.112,,,350,,,,2,,,,,,21,wg-a,,,,AAXX 16214 07690 12358 /3506 10170 20150 30101 40132 55000 60027 72198 84860 92100=
07690,1998-05-17 00:00:00,16,1012.8,-0.4,88,14,12000,11.112,,,330,,,,,,,,,,3,wg-a,,,,AAXX 17004 07690 12762 63306 10160 20140 30097 40128 58004 60026 70398 85530 90000=
07690,1998-05-17 03:00:00,16,1012.4,-0.4,82,13,12000,14.816,,,340,,,,,,,,,,,wg-a,,,,AAXX 17034 07690 12/62 /3408 10160 20130 30093 40124 57004 60006 86030 90300=
07690,1998-05-17 06:00:00,16,1012.8,0.4,82,13,15000,14.816,,,330,15.4,17.7,,,,,2,,,,wg-a,,,,AAXX 17064 07690 02/65 53308 10160 20130 30097 40128 53004 60006 85080 90600 333 10177 20154 60024=
07690,1998-05-17 09:00:00,20,1013.3,0.6,68,14,18000,11.112,,,110,,,,,,,,,,,wg-a,,,,AAXX 17094 07690 12568 /1106 10200 20140 30103 40133 51006 60006 81200 90900=
07690,1998-05-17 12:00:00,21,1013.2,-0.1,56,12,20000,11.112,,,150,,,,,,,,,,,wg-a,,,,AAXX 17124 07690 12570 /1506 10210 20120 30102 40132 58001 60006 81200 91200=
07690,1998-05-17 15:00:00,20,1013.1,-0.2,53,10,18000,7.408,,,170,,,,,,,,,,,wg-a,,,,AAXX 17154 07690 12568 71704 10200 20100 30100 40131 57002 60006 8298/ 91500=
07690,1998-05-17 18:00:00,16,1015.8,2.7,82,13,7000,18.52,,,100,15.9,21.3,,,,,,,,10,wg-a,,,,AAXX 17184 07690 02357 81010 10160 20130 30127 40158 51027 61000 71098 879// 91800 333 10213 20159 6008=
07690,1998-05-17 21:00:00,15,1017.6,1.8,94,14,8000,11.112,,,320,,,,2,,,,,,81,wg-a,,,,AAXX 17214 07690 12358 83206 10150 20140 30145 40176 53018 60027 78198 8787/ 92100=
07690,1998-05-18 00:00:00,14,1018.4,0.8,94,13,12000,11.112,,,340,,,,1,,,,,,25,wg-a,,,,AAXX 18004 07690 02462 83406 10140 20130 30153 40184 50008 60026 72598 8387/ 90000 333 60017=
07690,1998-05-18 03:00:00,14,1018,-0.4,88,12,20000,11.112,,,350,,,,,,,,,,,wg-a,,,,AAXX 18034 07690 12/70 /3506 10140 20120 30149 40180 56004 60006 84070 90300=
07690,1998-05-18 06:00:00,15,1019.1,1.1,82,12,500,14.816,,,330,13.3,16.6,,,,,10,,,,wg-a,,,,AAXX 18064 07690 02/00 23308 10150 20120 30160 40191 51011 60006 82030 90600 333 10166 20133 60104=
07690,1998-05-18 09:00:00,19,1019.5,0.4,64,12,25000,11.112,,,170,,,,,,,,,,,wg-a,,,,AAXX 18094 07690 12775 21706 10190 20120 30164 40195 51004 60006 81280 90900=
07690,1998-05-18 12:00:00,20,1018.9,-0.6,68,14,25000,22.224,,,200,,,,,,,,,,,wg-a,,,,AAXX 18124 07690 12675 /2012 10200 20140 30158 40189 57006 60006 81200 91200=
07690,1998-05-18 15:00:00,20,1019.2,0.3,64,13,22000,14.816,,,190,,,,,,,,,,,wg-a,,,,AAXX 18154 07690 12672 31908 10200 20130 30161 40192 53003 60006 83900 91500=
07690,1998-05-18 18:00:00,19,1019,-0.2,68,13,25000,3.704,,,160,15.1,20.6,,,,,,,,,wg-a,,,,AAXX 18184 07690 12575 31602 10190 20130 30159 40190 56002 60006 81980 91800 333 10206 20151=
07690,1998-05-18 21:00:00,17,1020.2,1.2,82,14,18000,11.112,,,310,,,,,,,,,,,wg-a,,,,AAXX 18214 07690 12668 53106 10170 20140 30171 40202 51012 60006 81980 92100=
07690,1998-05-19 00:00:00,17,1020.7,0.5,77,13,20000,7.408,,,40,,,,,,,,,,,wg-a,,,,AAXX 19004 07690 12/70 20404 10170 20130 30176 40207 53005 60006 82030 90000=
07690,1998-05-19 03:00:00,15,1020.4,-0.3,77,11,20000,11.112,,,340,,,,,,,,,,,wg-a,,,,AAXX 19034 07690 12/70 03406 10150 20110 30173 40204 58003 60006 80000 90300=
07690,1998-05-19 06:00:00,16,1019.9,-0.5,68,10,500,11.112,,,340,14.3,18.6,,,,,,,,,wg-a,,,,AAXX 19064 07690 02/00 03406 10160 20100 30168 40199 58005 60006 80000 90600 333 10186 20143 60004=
07690,1998-05-19 09:00:00,20,1019.5,-0.4,68,14,25000,14.816,,,200,,,,,,,,,,,wg-a,,,,AAXX 19094 07690 12575 /2008 10200 20140 30164 40195 58004 60006 81200 90900=
07690,1998-05-19 12:00:00,20,1019.5,0,73,15,25000,14.816,,,180,,,,,,,,,,,wg-a,,,,AAXX 19124 07690 12675 /1808 10200 20150 30164 40195 50000 60006 81200 91200=
07690,1998-05-19 15:00:00,21,1018.3,-1.2,69,15,20000,7.408,,,120,,,,,,,,,,,wg-a,,,,AAXX 19154 07690 12670 /1204 10210 20150 30152 40183 58012 60006 81900 91500=
07690,1998-05-19 18:00:00,20,1017.6,-0.7,68,14,500,11.112,,,100,16,21.1,,,,,,,,,wg-a,,,,AAXX 19184 07690 12700 /1006 10200 20140 30145 40176 56007 60006 81260 91800 333 10211 20160=
07690,1998-05-19 21:00:00,17,1018.3,0.7,82,14,20000,7.408,,,330,,,,,,,,,,,wg-a,,,,AAXX 19214 07690 12/70 03304 10170 20140 30152 40183 51007 60006 80000 92100=
07690,1998-05-20 00:00:00,16,1018,-0.3,77,12,20000,7.408,,,330,,,,,,,,,,,wg-a,,,,AAXX 20004 07690 12/70 03304 10160 20120 30149 40180 57003 60006 80000 90000=
07690,1998-05-20 03:00:00,15,1017.8,-0.2,82,12,20000,7.408,,,10,,,,,,,,,,,wg-a,,,,AAXX 20034 07690 12/70 00104 10150 20120 30147 40178 58002 60006 80000 90300=
07690,1998-05-20 06:00:00,16,1017.9,0.1,77,12,15000,7.408,,,340,14.3,20.1,,,,,,,,,wg-a,,,,AAXX 20064 07690 02/65 /3404 10160 20120 30148 40179 50001 60006 81081 90600 333 10201 20143 60004=
07690,1998-05-20 09:00:00,20,1018,0.1,73,15,13000,7.408,,,130,,,,,,,,,,,wg-a,,,,AAXX 20094 07690 12463 31304 10200 20150 30149 40180 51001 60006 81201 90900=
07690,1998-05-20 12:00:00,21,1017.2,-0.7,73,16,10000,11.112,,,160,,,,,,,,,,,wg-a,,,,AAXX 20124 07690 12460 41606 10210 20160 30142 40172 58007 60006 83130 91200=
07690,1998-05-20 15:00:00,21,1016,-1.2,64,14,10000,14.816,,,120,,,,,,,,,,,wg-a,,,,AAXX 20154 07690 12460 51208 10210 20140 30130 40160 58012 60006 81531 91500=
07690,1998-05-20 18:00:00,20,1015.3,-0.7,64,13,500,11.112,,,60,15.7,21.2,,,,,,,,,wg-a,,,,AAXX 20184 07690 12600 /0606 10200 20130 30123 40153 56007 60006 82830 91800 333 10212 20157=
07690,1998-05-20 21:00:00,17,1015.7,0.3,82,14,20000,3.704,,,300,,,,,,,,,,,wg-a,,,,AAXX 20214 07690 12770 /3002 10170 20140 30126 40157 53003 60006 81460 92100=
07690,1998-05-21 00:00:00,18,1015.5,-0.2,83,15,20000,18.52,,,80,,,,,,,,,,,wg-a,,,,AAXX 21004 07690 12/70 /0810 10180 20150 30124 40155 58002 60006 81080 90000=
07690,1998-05-21 03:00:00,14,1015.5,0,94,13,15000,11.112,,,320,,,,,,,,,,,wg-a,,,,AAXX 21034 07690 12465 /3206 10140 20130 30124 40155 50000 60006 81500 90300=
07690,1998-05-21 06:00:00,16,1016.1,0.6,82,13,11000,14.816,,,330,14.1,20.3,,,,,,,,,wg-a,,,,AAXX 21064 07690 02461 13308 10160 20130 30130 40161 53006 60006 81502 90600 333 10203 20141 60004=
07690,1998-05-21 09:00:00,20,1016.8,0.7,73,15,15000,7.408,,,150,,,,,,,,,,,wg-a,,,,AAXX 21094 07690 12465 /1504 10200 20150 30137 40168 51007 60006 81800 90900=
07690,1998-05-21 12:00:00,21,1016.3,-0.4,69,15,13000,14.816,,,140,,,,,,,,,,,wg-a,,,,AAXX 21124 07690 12463 41408 10210 20150 30133 40163 56004 60006 84800 91200=
07690,1998-05-21 15:00:00,21,1015.7,-0.6,69,15,12000,11.112,,,180,,,,,,,,,,,wg-a,,,,AAXX 21154 07690 12462 /1806 10210 20150 30127 40157 58006 60006 83900 91500=
07690,1998-05-21 18:00:00,19,1014.8,-1,83,16,10000,14.816,,,210,15.5,21.2,,,,,,,,,wg-a,,,,AAXX 21184 07690 12460 72108 10190 20160 30117 40148 56010 60006 83903 91800 333 10212 20155=
07690,1998-05-21 21:00:00,18,1014.1,-0.7,83,15,15000,11.112,,,320,,,,,,,,,,,wg-a,,,,AAXX 21214 07690 12565 33206 10180 20150 30110 40141 56007 60006 81502 92100=
07690,1998-05-22 00:00:00,16,1013.3,-0.8,82,13,15000,11.112,,,330,,,,,,,,,,,wg-a,,,,AAXX 22004 07690 12/65 03306 10160 20130 30102 40133 57008 60006 80000 90000=
07690,1998-05-22 03:00:00,15,1013,-0.3,82,12,15000,14.816,,,340,,,,,,,,,,,wg-a,,,,AAXX 22034 07690 12465 /3408 10150 20120 30099 40130 57003 60006 81500 90300=
07690,1998-05-22 06:00:00,16,1012.9,-0.1,77,12,15000,14.816,,,330,14.3,19,,,,,,,,,wg-a,,,,AAXX 22064 07690 02465 23308 10160 20120 30098 40129 58001 60006 82500 90600 333 10190 20143 60004=
07690,1998-05-22 09:00:00,21,1012.8,0,73,16,15000,25.928,,,90,,,,,,,,,,,wg-a,,,,AAXX 22094 07690 12465 20914 10210 20160 30098 40128 50000 60006 82500 90900=
07690,1998-05-22 12:00:00,21,1012.5,-0.3,78,17,9000,22.224,,,90,,,,,,,,,,,wg-a,,,,AAXX 22124 07690 12459 30912 10210 20170 30095 40125 58003 60006 82130 91200=
07690,1998-05-22 15:00:00,21,1011.6,-0.9,78,17,9000,18.52,,,90,,,,,,,,,,,wg-a,,,,AAXX 22154 07690 12559 /0910 10210 20170 30086 40116 58009 60006 82101 91500=
07690,1998-05-22 18:00:00,20,1011.5,-0.1,83,17,9000,14.816,,,90,15.6,21.3,,,,,,,,,wg-a,,,,AAXX 22184 07690 12559 20908 10200 20170 30085 40115 55001 60006 81130 91800 333 10213 20156=
07690,1998-05-22 21:00:00,19,1012.3,0.8,88,17,15000,18.52,,,70,,,,,,,,,,,wg-a,,,,AAXX 22214 07690 12565 50710 10190 20170 30093 40123 53008 60006 84502 92100=
07690,1998-05-23 00:00:00,19,1012,-0.3,88,17,10000,14.816,,,90,,,,,,,,,,,wg-a,,,,AAXX 23004 07690 12360 70908 10190 20170 30090 40120 58003 60006 875// 90000=
07690,1998-05-23 06:00:00,18,1012.2,0.8,83,15,7000,11.112,,,100,17.8,19.8,,,,,,,,,wg-a,,,,AAXX 23064 07690 02357 71006 10180 20150 30091 40122 53008 60006 875// 90600 333 10198 20178 60004=
07690,1998-05-23 09:00:00,20,1013,0.9,78,16,8000,22.224,,,90,,,,,,,,,,,wg-a,,,,AAXX 23094 07690 12458 70912 10200 20160 30100 40130 51009 60006 878// 90900=
07690,1998-05-23 12:00:00,21,1012.9,-0.1,78,17,6000,14.816,,,110,,,,,,,,,,,wg-a,,,,AAXX 23124 07690 12456 21108 10210 20170 30099 40129 57001 60006 82800 91200=
07690,1998-05-23 15:00:00,21,1012,-0.9,78,17,7000,7.408,,,140,,,,,,,,,,,wg-a,,,,AAXX 23154 07690 12457 51404 10210 20170 30090 40120 58009 60006 81130 91500=
07690,1998-05-23 18:00:00,20,1011.2,-0.8,83,17,9000,14.816,,,230,18.3,21.7,,,,,,,,,wg-a,,,,AAXX 23184 07690 12659 /2308 10200 20170 30082 40112 56008 60006 81530 91800 333 10217 20183=
07690,1998-05-23 21:00:00,18,1011.9,0.6,88,16,10000,3.704,,,260,,,,,,,,,,,wg-a,,,,AAXX 23214 07690 12660 42602 10180 20160 30088 40119 53006 60006 82530 92100=
07690,1998-05-24 00:00:00,17,1010.7,-1.2,88,15,12000,7.408,,,320,,,,,,,,,,,wg-a,,,,AAXX 24004 07690 12562 33204 10170 20150 30076 40107 56012 60006 82530 90000=
07690,1998-05-24 03:00:00,16,1009.5,-1.2,88,14,12000,7.408,,,340,,,,,,,,,,,wg-a,,,,AAXX 24034 07690 12562 /3404 10160 20140 30064 40095 56012 60006 81530 90300=
07690,1998-05-24 06:00:00,16,1009.4,-0.1,88,14,9000,7.408,,,330,15.2,19.7,,,,,,,,,wg-a,,,,AAXX 24064 07690 02459 33304 10160 20140 30063 40094 55001 60006 81532 90600 333 10197 20152 60004=
07690,1998-05-24 09:00:00,20,1008.7,-0.6,73,15,8000,7.408,,,140,,,,,,,,,,,wg-a,,,,AAXX 24094 07690 12458 /1404 10200 20150 30057 40087 58006 60006 81200 90900=
07690,1998-05-24 12:00:00,22,1008.3,-0.4,65,15,10000,18.52,,,120,,,,,,,,,,,wg-a,,,,AAXX 24124 07690 12460 /1210 10220 20150 30053 40083 55004 60006 81201 91200=
07690,1998-05-24 15:00:00,21,1007.3,-1,73,16,7000,25.928,,,90,,,,,,,,,,,wg-a,,,,AAXX 24154 07690 12457 40914 10210 20160 30043 40073 58010 60006 81202 91500=
07690,1998-05-24 18:00:00,20,1006.8,-0.5,73,15,10000,22.224,,,90,16.3,21.9,,,,,,,,,wg-a,,,,AAXX 24184 07690 12660 /0912 10200 20150 30038 40068 58005 60006 84530 91800 333 10219 20163=
07690,1998-05-24 21:00:00,19,1008.4,1.6,73,14,10000,18.52,,,50,,,,,,,,,,95,wg-a,,,,AAXX 24214 07690 02560 70510 10190 20140 30054 40084 53016 61000 79598 8493/ 92100 333 ////=
07690,1998-05-25 00:00:00,16,1007.4,-1.1,88,14,15000,14.816,,,330,,,,0,,,,,,21,wg-a,,,,AAXX 25004 07690 02565 43308 10160 20140 30043 40074 56011 60006 72198 83880 90000 333 60007=
07690,1998-05-25 03:00:00,15,1006.7,-0.7,82,12,15000,18.52,,,330,,,,,,,,,,,wg-a,,,,AAXX 25034 07690 12565 33310 10150 20120 30036 40067 58007 60006 81831 90300=
07690,1998-05-25 06:00:00,16,1006.9,0.2,77,12,11000,14.816,,,340,14.8,20.4,,,,,,,,,wg-a,,,,AAXX 25064 07690 02/61 /3408 10160 20120 30038 40069 51002 60006 90600 333 10204 20148 60004=
07690,1998-05-25 09:00:00,21,1007.2,0.4,60,13,20000,7.408,,,180,,,,,,,,,,,wg-a,,,,AAXX 25094 07690 12670 21804 10210 20130 30042 40072 52004 60006 81230 90900=
07690,1998-05-25 12:00:00,22,1007.3,0.1,57,13,500,11.112,,,170,,,,,,,,,,,wg-a,,,,AAXX 25124 07690 12600 31706 10220 20130 30043 40073 50001 60006 82230 91200=
07690,1998-05-25 15:00:00,20,1006.6,-0.7,68,14,500,18.52,,,200,,,,,,,,,,,wg-a,,,,AAXX 25154 07690 12600 72010 10200 20140 30036 40066 56007 60006 8393/ 91500=
07690,1998-05-25 18:00:00,18,1006.5,-0.1,83,15,13000,14.816,,,270,15.8,21.9,,,,,,,,15,wg-a,,,,AAXX 25184 07690 02563 72708 10180 20150 30035 40065 55001 60006 71561 8393/ 91800 333 10219 20158 61000=
07690,1998-05-25 21:00:00,18,1007.2,0.7,83,15,15000,7.408,,,290,,,,,,,,,,80,wg-a,,,,AAXX 25214 07690 02465 72904 10180 20150 30042 40072 53007 61000 78086 8386/ 92100 333 ////=
07690,1998-05-26 00:00:00,18,1006.8,-0.4,77,14,15000,11.112,,,340,,,,,,,,,,1,wg-a,,,,AAXX 26004 07690 02465 73406 10180 20140 30038 40068 57004 61000 70186 8386/ 90000 333 6100=
07690,1998-05-26 03:00:00,17,1006.7,-0.2,77,13,15000,7.408,,,10,,,,,,,,,,,wg-a,,,,AAXX 26034 07690 12765 /0104 10170 20130 30036 40067 58002 60006 8156/ 90300=
07690,1998-05-26 06:00:00,19,1007.2,0.6,73,14,15000,14.816,,,50,15.9,19.4,,,,,,,,,wg-a,,,,AAXX 26064 07690 02465 20508 10190 20140 30042 40072 53006 60006 81830 90600 333 10194 20159 61000=
07690,1998-05-26 09:00:00,21,1008.1,0.9,73,16,18000,22.224,,,90,,,,,,,,,,,wg-a,,,,AAXX 26094 07690 12468 /0912 10210 20160 30051 40081 52009 60006 81800 90900=
07690,1998-05-26 12:00:00,21,1008.3,0.2,73,16,12000,14.816,,,100,,,,,,,,,,,wg-a,,,,AAXX 26124 07690 12462 /1008 10210 20160 30053 40083 50002 60006 81980 91200=
07690,1998-05-26 15:00:00,21,1008.5,0.2,73,16,13000,11.112,,,160,,,,,,,,,,25,wg-a,,,,AAXX 26154 07690 02463 41606 10210 20160 30055 40085 50002 61000 72586 81983 91500 333 ////=
07690,1998-05-26 18:00:00,19,1008.5,0,73,14,15000,7.408,,,40,19,21.7,,,,,,,,1,wg-a,,,,AAXX 26184 07690 12465 20404 10190 20140 30055 40085 50000 60006 70186 81960 91800 333 10217 20190=
07690,1998-05-26 21:00:00,17,1010.1,1.5,82,14,20000,14.816,,,330,,,,,,,,,,,wg-a,,,,AAXX 26214 07690 12470 /3308 10170 20140 30070 40101 53015 60006 81500 92100=
07690,1998-05-27 00:00:00,15,1010.3,0.2,88,13,20000,14.816,,,330,,,,,,,,,,,wg-a,,,,AAXX 27004 07690 12470 /3308 10150 20130 30072 40103 50002 60006 81500 90000=
07690,1998-05-27 03:00:00,15,1010.1,-0.2,82,12,20000,18.52,,,330,,,,,,,,,,,wg-a,,,,AAXX 27034 07690 12470 /3310 10150 20120 30070 40101 56002 60006 81500 90300=
07690,1998-05-27 06:00:00,15,1011.4,1.3,82,12,15000,18.52,,,330,14.3,18.9,,,,,,,,,wg-a,,,,AAXX 27064 07690 02465 /3310 10150 20120 30083 40114 51013 60006 81800 90600 333 10189 20143 61000=
07690,1998-05-27 09:00:00,21,1011.8,0.5,60,13,10000,14.816,,,140,,,,,,,,,,,wg-a,,,,AAXX 27094 07690 12560 41408 10210 20130 30088 40118 50005 60006 82883 90900=
07690,1998-05-27 12:00:00,21,1012.3,0.5,69,15,8000,11.112,,,140,,,,0,,,,,,3,wg-a,,,,AAXX 27124 07690 02458 /1406 10210 20150 30093 40123 52005 60006 70386 84960 91200 333 60007=
07690,1998-05-27 15:00:00,20,1011.1,-1.2,78,16,15000,11.112,,,130,,,,,,,,,,25,wg-a,,,,AAXX 27154 07690 02465 71306 10200 20160 30081 40111 58012 61000 72586 8387/ 91500 333 ////=
07690,1998-05-27 18:00:00,20,1011.5,0.4,73,15,15000,14.816,,,90,15.3,21.2,,,,,,,,1,wg-a,,,,AAXX 27184 07690 12465 70908 10200 20150 30085 40115 53004 60006 70186 82882 91800 333 10212 20153=
07690,1998-05-27 21:00:00,19,1011.6,0.1,83,16,15000,14.816,,,80,,,,,,,,,,,wg-a,,,,AAXX 27214 07690 12465 70808 10190 20160 30086 40116 53001 60006 8387/ 92100=
07690,1998-05-28 00:00:00,17,1011.4,-0.3,77,13,15000,11.112,,,340,,,,,,,,,,,wg-a,,,,AAXX 28004 07690 12465 73406 10170 20130 30083 40114 58003 60006 8387/ 90000=
07690,1998-05-28 06:00:00,17,1009.5,-0.8,82,14,12000,11.112,,,40,15.2,20,,,,,,,,60,wg-a,,,,AAXX 28064 07690 02362 80406 10170 20140 30064 40095 58008 61000 76062 8387/ 90600 333 10200 20152 6001=
07690,1998-05-28 09:00:00,17,1008.5,-1,88,15,4500,31.484,,,60,,,,7,,,,,,10,wg-a,,,,AAXX 28094 07690 12245 80617 10170 20150 30054 40085 58010 60077 71066 8687/ 90900=
07690,1998-05-28 12:00:00,17,1007.7,-0.8,94,16,4000,38.892,,61.116,70,,,,18,,,,,,10,wg-a,,,,AAXX 28124 07690 02240 80721 10170 20160 30046 40077 58008 60256 71086 879// 91200 333 60187 91033=
07690,1998-05-28 15:00:00,17,1007.6,-0.1,88,15,6000,29.632,,68.524,100,,,,10,,,,,,61,wg-a,,,,AAXX 28154 07690 12356 71016 10170 20150 30045 40076 58001 60107 76186 873// 91500 333 91037=
07690,1998-05-28 18:00:00,17,1008.6,1,94,16,15000,7.408,,68.524,100,15.4,17.9,,,,,,,,1,wg-a,,,,AAXX 28184 07690 02365 61004 10170 20160 30055 40086 51010 60006 70186 84230 91800 333 10179 20154 61000 91037=
07690,1998-05-28 21:00:00,15,1010.1,1.5,94,14,11000,11.112,,,330,,,,,,,,,,,wg-a,,,,AAXX 28214 07690 12/61 /3306 10150 20140 30070 40101 53015 60006 92100=
07690,1998-05-29 00:00:00,14,1010.3,0.2,94,13,20000,7.408,,,320,,,,,,,,,,,wg-a,,,,AAXX 29004 07690 12470 43204 10140 20130 30072 40103 53002 60006 81530 90000=
07690,1998-05-29 03:00:00,14,1009.4,-0.9,94,13,20000,14.816,,,330,,,,,,,,,,,wg-a,,,,AAXX 29034 07690 12670 /3308 10140 20130 30063 40094 58009 60006 81530 90300=
07690,1998-05-29 06:00:00,16,1010.5,1.1,82,13,20000,11.112,,,340,13.6,17,,,,,35,,,,wg-a,,,,AAXX 29064 07690 02570 /3406 10160 20130 30074 40105 53011 60006 81800 90600 333 10170 20136 60354=
07690,1998-05-29 09:00:00,19,1011.2,0.8,78,15,20000,14.816,,,200,,,,,,,,,,,wg-a,,,,AAXX 29094 07690 12570 /2008 10190 20150 30082 40112 52008 60006 81200 90900=
07690,1998-05-29 12:00:00,21,1012.1,0.9,73,16,25000,14.816,,,180,,,,,,,,,,,wg-a,,,,AAXX 29124 07690 12575 21808 10210 20160 30091 40121 51009 60006 82200 91200=
07690,1998-05-29 15:00:00,21,1012.1,0,56,12,20000,14.816,,,160,,,,,,,,,,,wg-a,,,,AAXX 29154 07690 12570 21608 10210 20120 30091 40121 50000 60006 82800 91500=
07690,1998-05-29 18:00:00,19,1012.5,0.4,83,16,500,7.408,,,130,15.5,21,,,,,,,,,wg-a,,,,AAXX 29184 07690 12500 51304 10190 20160 30095 40125 53004 60006 82263 91800 333 10210 20155=
07690,1998-05-29 21:00:00,19,1014.1,1.5,78,15,20000,14.816,,,60,,,,,,,,,,,wg-a,,,,AAXX 29214 07690 12470 /0608 10190 20150 30110 40141 53015 60006 81560 92100=
07690,1998-05-30 00:00:00,15,1014.5,0.4,88,13,20000,11.112,,,330,,,,,,,,,,,wg-a,,,,AAXX 30004 07690 12/70 13306 10150 20130 30114 40145 51004 60006 80002 90000=
07690,1998-05-30 03:00:00,14,1014,-0.5,94,13,20000,14.816,,,330,,,,,,,,,,,wg-a,,,,AAXX 30034 07690 12/70 23308 10140 20130 30109 40140 56005 60006 80001 90300=
07690,1998-05-30 06:00:00,16,1014.6,0.6,82,13,25000,11.112,,,340,14,19.4,,,,,,,,,wg-a,,,,AAXX 30064 07690 02475 33406 10160 20130 30115 40146 53006 60006 81201 90600 333 10194 20140 60004=
07690,1998-05-30 09:00:00,20,1015.1,0.6,68,14,25000,11.112,,,140,,,,,,,,,,,wg-a,,,,AAXX 30094 07690 12575 71406 10200 20140 30121 40151 50006 60006 81232 90900=
07690,1998-05-30 12:00:00,18,1015.8,0.6,77,14,20000,18.52,,,190,,,,,,,,,,,wg-a,,,,AAXX 30124 07690 12570 71910 10180 20140 30127 40158 52006 60006 8387/ 91200=
07690,1998-05-30 15:00:00,20,1015.3,-0.4,64,13,25000,7.408,,,110,,,,,,,,,,,wg-a,,,,AAXX 30154 07690 12575 /1104 10200 20130 30123 40153 58004 60006 83830 91500=
07690,1998-05-30 18:00:00,20,1015.1,-0.3,78,16,25000,7.408,,,110,15.7,20.7,,,,,,,,,wg-a,,,,AAXX 30184 07690 12575 31104 10200 20160 30120 40151 55003 60006 81230 91800 333 10207 20157=
07690,1998-05-30 21:00:00,17,1016,0.9,94,16,20000,7.408,,,330,,,,,,,,,,,wg-a,,,,AAXX 30214 07690 12470 /3304 10170 20160 30129 40160 51009 60006 81530 92100=
07690,1998-05-31 00:00:00,16,1015.4,-0.6,88,14,20000,11.112,,,340,,,,,,,,,,,wg-a,,,,AAXX 31004 07690 12570 33406 10160 20140 30123 40154 58006 60006 83500 90000=
07690,1998-05-31 03:00:00,15,1015,-0.4,88,13,15000,7.408,,,340,,,,,,,,,,,wg-a,,,,AAXX 31034 07690 12465 63404 10150 20130 30119 40150 56004 60006 86500 90300=
07690,1998-05-31 06:00:00,16,1015.6,0.6,77,12,20000,14.816,,,330,15.1,19.5,,,,,,,,,wg-a,,,,AAXX 31064 07690 02470 73308 10160 20120 30125 40156 53006 60006 8287/ 90600 333 10195 20151 60004=
07690,1998-05-31 09:00:00,20,1015.5,-0,73,15,20000,14.816,,,110,,,,,,,,,,,wg-a,,,,AAXX 31094 07690 12570 /1108 10200 20150 30125 40155 54000 60006 84830 90900=
07690,1998-05-31 12:00:00,17,1016.4,0.8,82,14,2000,18.52,,,300,,,,8,,,,,,80,wg-a,,,,AAXX 31124 07690 02320 73010 10170 20140 30133 40164 53008 60086 78098 873// 91200 333 60087=
07690,1998-05-31 15:00:00,17,1015.3,-1.1,88,15,20000,11.112,,,10,,,,5,,,,,,25,wg-a,,,,AAXX 31154 07690 12470 /0106 10170 20150 30122 40153 55011 60057 72598 85800 91500=
07690,1998-05-31 18:00:00,18,1015.1,-0.2,77,14,20000,3.704,,,210,15.6,21,,,,,,,,2,wg-a,,,,AAXX 31184 07690 12570 32102 10180 20140 30120 40151 56002 60006 70298 83800 91800 333 10210 20156=
07690,1998-05-31 21:00:00,15,1016,0.9,94,14,15000,11.112,,,340,,,,,,,,,,1,wg-a,,,,AAXX 31214 07690 02565 /3406 10150 20140 30129 40160 52009 61000 70186 81500 92100 333 ////=
07690,1998-06-01 00:00:00,15,1015.8,-0.2,88,13,15000,18.52,,,330,,,,,,,,,,1,wg-a,,,,AAXX 01004 07690 02/65 03310 10150 20130 30127 40158 57002 61000 70186 80000 90000 333 ////=
07690,1998-06-01 03:00:00,14,1015.6,-0.2,82,11,15000,22.224,,,330,,,,,,,,,,,wg-a,,,,AAXX 01034 07690 12/65 23312 10140 20110 30125 40156 55002 60006 80002 90300=
07690,1998-06-01 06:00:00,15,1016.3,0.7,77,11,500,22.224,,,330,13.9,18,,,,,13,,,,wg-a,,,,AAXX 01064 07690 02500 /3312 10150 20110 30132 40163 53007 60006 81532 90600 333 10180 20139 60134=
07690,1998-06-01 09:00:00,20,1016.9,0.6,73,15,500,11.112,,,200,,,,,,,,,,,wg-a,,,,AAXX 01094 07690 12500 22006 10200 20150 30138 40169 51006 60006 81231 90900=
07690,1998-06-01 12:00:00,21,1016.9,0.1,78,17,25000,14.816,,,170,,,,,,,,,,,wg-a,,,,AAXX 01124 07690 12575 71708 10210 20170 30139 40169 50001 60006 8223/ 91200=
07690,1998-06-01 15:00:00,21,1016.9,0,73,16,25000,11.112,,,170,,,,,,,,,,,wg-a,,,,AAXX 01154 07690 12575 71706 10210 20160 30139 40169 50000 60006 8227/ 91500=
07690,1998-06-01 18:00:00,20,1016.7,-0.3,78,16,25000,7.408,,,170,15.3,21.7,,,,,,,,,wg-a,,,,AAXX 01184 07690 12575 71704 10200 20160 30136 40167 58003 60006 82472 91800 333 10217 20153=
07690,1998-06-01 21:00:00,17,1018.1,1.4,94,16,20000,3.704,,,250,,,,,,,,,,,wg-a,,,,AAXX 01214 07690 12570 32502 10170 20160 30150 40181 51014 60006 81502 92100=
07690,1998-06-02 00:00:00,16,1016.5,-1.6,94,15,20000,11.112,,,330,,,,0,,,,,,,wg-a,,,,AAXX 02004 07690 02/70 13306 10160 20150 30134 40165 58016 60006 80001 90000 333 60007=
07690,1998-06-02 03:00:00,16,1016.5,0,88,14,20000,7.408,,,40,,,,,,,,,,,wg-a,,,,AAXX 02034 07690 12/70 60404 10160 20140 30134 40165 50000 60006 81032 90300=
07690,1998-06-02 06:00:00,19,1017.3,0.8,83,16,12000,11.112,,,50,15.2,20.1,,,,,,,,,wg-a,,,,AAXX 02064 07690 02462 70506 10190 20160 30142 40173 51008 60006 81572 90600 333 10201 20152 60004=
07690,1998-06-02 09:00:00,21,1017.8,0.6,73,16,11000,14.816,,,80,,,,,,,,,,,wg-a,,,,AAXX 02094 07690 12/61 /0808 10210 20160 30148 40178 50006 60006 90900=
07690,1998-06-02 12:00:00,22,1016.6,-1.2,73,17,20000,22.224,,,100,,,,,,,,,,,wg-a,,,,AAXX 02124 07690 12570 /1012 10220 20170 30136 40166 56012 60006 81502 91200=
07690,1998-06-02 15:00:00,21,1016.8,0.2,83,18,12000,22.224,,,80,,,,0,,,,,,,wg-a,,,,AAXX 02154 07690 12462 70812 10210 20180 30138 40168 50002 60007 8487/ 91500=
07690,1998-06-02 18:00:00,21,1015.4,-1.4,78,17,12000,29.632,,,90,18.7,22.3,,,,,,,,1,wg-a,,,,AAXX 02184 07690 12762 70916 10210 20170 30124 40154 56014 60006 70186 82572 91800 333 10223 20187=
07690,1998-06-02 21:00:00,20,1016,0.6,83,17,13000,11.112,,,340,,,,,,,,,,,wg-a,,,,AAXX 02214 07690 12463 73406 10200 20170 30130 40160 53006 60006 81572 92100=
07690,1998-06-03 00:00:00,21,1014,-2,73,16,13000,7.408,,,340,,,,,,,,,,,wg-a,,,,AAXX 03004 07690 12/63 /3404 10210 20160 30110 40140 58020 60006 84072 90000=
07690,1998-06-03 03:00:00,19,1014.8,0.7,78,15,15000,14.816,,,310,,,,,,,,,,,wg-a,,,,AAXX 03034 07690 12865 33108 10190 20150 30117 40148 51007 60006 83070 90300=
07690,1998-06-03 06:00:00,20,1015.1,0.4,78,16,25000,7.408,,,30,17.8,21.3,,,,,,,,,wg-a,,,,AAXX 03064 07690 02775 40304 10200 20160 30121 40151 51004 60006 82280 90600 333 10213 20178 60004=
07690,1998-06-03 09:00:00,24,1015.4,0.3,54,14,20000,7.408,,,120,,,,,,,,,,,wg-a,,,,AAXX 03094 07690 12770 71204 10240 20140 30124 40154 51003 60006 81281 90900=
07690,1998-06-03 12:00:00,25,1014.8,-0.6,65,18,8000,25.928,,53.708,70,,,,,,,,,,,wg-a,,,,AAXX 03124 07690 12758 /0714 10250 20180 30118 40148 58006 60006 81281 91200 333 91029=
07690,1998-06-03 15:00:00,24,1015.9,1.1,65,17,8000,18.52,,,80,,,,,,,,,,,wg-a,,,,AAXX 03154 07690 12758 30810 10240 20170 30129 40159 50011 60006 81201 91500=
07690,1998-06-03 18:00:00,23,1015.4,-0.5,65,16,12000,7.408,,,70,20.5,26.3,,,,,,,,,wg-a,,,,AAXX 03184 07690 12/62 30704 10230 20160 30124 40154 55005 60006 83030 91800 333 10263 20205=
07690,1998-06-03 21:00:00,20,1015.6,0.2,83,17,15000,22.224,,,330,,,,,,,,,,,wg-a,,,,AAXX 03214 07690 12/65 13312 10200 20170 30126 40156 52002 60006 81030 92100=
07690,1998-06-04 00:00:00,21,1015.7,0.1,73,16,15000,11.112,,,340,,,,,,,,,,,wg-a,,,,AAXX 04004 07690 12/65 13406 10210 20160 30127 40157 53001 60006 81030 90000=
07690,1998-06-04 03:00:00,21,1015.5,-0.2,64,14,15000,11.112,,,340,,,,,,,,,,,wg-a,,,,AAXX 04034 07690 12765 23406 10210 20140 30125 40155 57002 60006 82500 90300=
07690,1998-06-04 06:00:00,22,1015.6,0.1,65,15,15000,14.816,,,340,19.7,23.2,,,,,,,,,wg-a,,,,AAXX 04064 07690 02765 /3408 10220 20150 30126 40156 50001 60006 83581 90600 333 10232 20197 60004=
07690,1998-06-04 09:00:00,25,1016.2,0.6,61,17,20000,11.112,,,150,,,,,,,,,,,wg-a,,,,AAXX 04094 07690 12/70 41506 10250 20170 30132 40162 53006 60006 80002 90900=
07690,1998-06-04 12:00:00,26,1015.2,-1,58,17,11000,29.632,,50.004,90,,,,,,,,,,,wg-a,,,,AAXX 04124 07690 12661 40916 10260 20170 30122 40152 58010 60006 81182 91200 333 91027=
07690,1998-06-04 15:00:00,26,1015.1,-0.1,61,18,11000,25.928,,,70,,,,,,,,,,,wg-a,,,,AAXX 04154 07690 12661 40714 10260 20180 30121 40151 55001 60006 81282 91500=
07690,1998-06-04 18:00:00,26,1015.1,0,54,16,15000,14.816,,,70,21.7,29.6,,,,,,,,80,wg-a,,,,AAXX 04184 07690 02765 60708 10260 20160 30121 40151 50000 61000 78086 81282 91800 333 10296 20217 6100=
07690,1998-06-04 21:00:00,24,1016.2,1.1,65,17,15000,14.816,,,70,,,,,,,,,,3,wg-a,,,,AAXX 04214 07690 02/65 70708 10240 20170 30132 40162 53011 61000 70386 8708/ 92100 333 ////=
07690,1998-06-05 00:00:00,22,1016.2,0,78,18,15000,11.112,,,20,,,,,,,,,,3,wg-a,,,,AAXX 05004 07690 02/65 20206 10220 20180 30132 40162 50000 61000 70386 82080 90000 333 ////=
07690,1998-06-05 03:00:00,19,1015.6,-0.7,88,17,15000,7.408,,,330,,,,,,,,,,,wg-a,,,,AAXX 05034 07690 12/65 13304 10190 20170 30125 40156 58007 60006 81080 90300=
07690,1998-06-05 06:00:00,22,1015.5,0,69,16,12000,7.408,,,360,18.1,25.8,,,,,,,,,wg-a,,,,AAXX 05064 07690 02/62 13604 10220 20160 30125 40155 50000 60006 81030 90600 333 10258 20181 61000=
07690,1998-06-05 09:00:00,28,1015.7,0.2,48,16,15000,31.484,,,80,,,,,,,,,,,wg-a,,,,AAXX 05094 07690 12/65 30817 10280 20160 30127 40157 53002 60006 80001 90900=
07690,1998-06-05 12:00:00,27,1015.8,0.1,51,16,15000,31.484,,,100,,,,,,,,,,,wg-a,,,,AAXX 05124 07690 12565 51017 10270 20160 30128 40158 50001 60006 81101 91200=
07690,1998-06-05 15:00:00,29,1015.2,-0.6,37,13,20000,31.484,,61.116,70,,,,,,,,,,,wg-a,,,,AAXX 05154 07690 12570 /0717 10290 20130 30122 40152 56006 60006 81101 91500 333 91033=
07690,1998-06-05 18:00:00,27,1014.2,-1,51,16,20000,22.224,,61.116,90,21.6,29.9,,,,,,,,,wg-a,,,,AAXX 05184 07690 12/70 30912 10270 20160 30112 40142 56010 60006 80001 91800 333 10299 20216 91033=
07690,1998-06-05 21:00:00,29,1014.9,0.7,35,12,20000,31.484,,,60,,,,,,,,,,,wg-a,,,,AAXX 05214 07690 12/70 40617 10290 20120 30119 40149 53007 60006 80001 92100=
07690,1998-06-06 00:00:00,24,1015,0.1,65,17,20000,18.52,,,90,,,,,,,,,,,wg-a,,,,AAXX 06004 07690 12/70 50910 10240 20170 30120 40150 50001 60006 81031 90000=
07690,1998-06-06 03:00:00,21,1013.8,-1.2,69,15,20000,14.816,,,310,,,,,,,,,,,wg-a,,,,AAXX 06034 07690 12/70 43108 10210 20150 30108 40138 55012 60006 80001 90300=
07690,1998-06-06 06:00:00,22,1014,0.2,60,14,20000,18.52,,,320,20.3,29.9,,,,,,,,,wg-a,,,,AAXX 06064 07690 02/70 53210 10220 20140 30110 40140 50002 60006 80001 90600 333 10299 20203 60004=
07690,1998-06-06 09:00:00,25,1014.9,0.9,65,18,7000,22.224,,,150,,,,,,,,,,,wg-a,,,,AAXX 06094 07690 12/57 71512 10250 20180 30119 40149 53009 60006 81038 90900=
07690,1998-06-06 12:00:00,25,1014.4,-0.5,57,16,9000,31.484,,50.004,70,,,,,,,,,,,wg-a,,,,AAXX 06124 07690 12759 80717 10250 20160 30114 40144 58005 60006 8252/ 91200 333 91027=
07690,1998-06-06 15:00:00,23,1015.2,0.8,73,18,9000,14.816,,,10,,,,,,,,,,60,wg-a,,,,AAXX 06154 07690 02559 80108 10230 20180 30122 40152 50008 61000 76062 8117/ 91500 333 ////=
07690,1998-06-06 18:00:00,22,1013.9,-1.3,73,17,10000,11.112,,,340,21.9,26.4,,,,,,,,1,wg-a,,,,AAXX 06184 07690 02760 83406 10220 20170 30109 40139 58013 60006 70162 8257/ 91800 333 10264 20219 61000=
07690,1998-06-06 21:00:00,22,1015.2,1.3,73,17,12000,7.408,,,320,,,,,,,,,,,wg-a,,,,AAXX 06214 07690 12562 73204 10220 20170 30122 40152 53013 60006 8153/ 92100=
07690,1998-06-07 00:00:00,20,1014.6,-0.6,83,17,12000,11.112,,,330,,,,,,,,,,,wg-a,,,,AAXX 07004 07690 12562 73306 10200 20170 30116 40146 58006 60006 8153/ 90000=
07690,1998-06-07 03:00:00,19,1013.9,-0.7,83,16,12000,7.408,,,300,,,,,,,,,,,wg-a,,,,AAXX 07034 07690 12562 73004 10190 20160 30109 40139 55007 60006 8153/ 90300=
07690,1998-06-07 06:00:00,19,1014.7,0.7,88,17,12000,11.112,,,330,18.8,23.4,,,,,,,,,wg-a,,,,AAXX 07064 07690 02462 73306 10190 20170 30116 40147 51007 60006 8387/ 90600 333 10234 20188 61000=
07690,1998-06-07 09:00:00,22,1015,0.4,83,19,7000,14.816,,,180,,,,,,,,,,,wg-a,,,,AAXX 07094 07690 12657 71808 10220 20190 30120 40150 52004 60006 8327/ 90900=
07690,1998-06-07 12:00:00,23,1015,0,78,19,13000,14.816,,,190,,,,,,,,,,,wg-a,,,,AAXX 07124 07690 12463 /1908 10230 20190 30120 40150 50000 60006 82232 91200=
07690,1998-06-07 15:00:00,22,1014,-1,83,19,13000,18.52,,,190,,,,,,,,,,,wg-a,,,,AAXX 07154 07690 12463 71910 10220 20190 30110 40140 58010 60006 82232 91500=
07690,1998-06-07 18:00:00,21,1013.4,-0.6,88,19,13000,14.816,,,210,19.3,23.3,,,,,,,,,wg-a,,,,AAXX 07184 07690 12463 72108 10210 20190 30104 40134 58006 60006 81232 91800 333 10233 20193=
07690,1998-06-07 21:00:00,19,1013.9,0.5,94,18,13000,7.408,,,270,,,,,,,,,,,wg-a,,,,AAXX 07214 07690 12563 32704 10190 20180 30109 40139 51005 60006 81102 92100=
07690,1998-06-08 00:00:00,18,1013.5,-0.5,94,17,13000,7.408,,,330,,,,,,,,,,,wg-a,,,,AAXX 08004 07690 12/63 03304 10180 20170 30104 40135 57005 60006 80000 90000=
07690,1998-06-08 03:00:00,16,1013.5,-0,94,15,15000,11.112,,,340,,,,,,,,,,,wg-a,,,,AAXX 08034 07690 12465 23406 10160 20150 30104 40135 55000 60006 81501 90300=
07690,1998-06-08 06:00:00,19,1014.5,1,68,13,18000,18.52,,,330,16,21,,,,,,,,,wg-a,,,,AAXX 08064 07690 02468 33310 10190 20130 30114 40145 52010 60006 81801 90600 333 10210 20160 60004=
07690,1998-06-08 09:00:00,23,1015.3,0.9,65,16,15000,11.112,,,230,,,,,,,,,,,wg-a,,,,AAXX 08094 07690 12565 /2306 10230 20160 30123 40153 51009 60006 85800 90900=
07690,1998-06-08 12:00:00,24,1016.1,0.8,69,18,15000,11.112,,,150,,,,,,,,,,,wg-a,,,,AAXX 08124 07690 12565 21506 10240 20180 30131 40161 53008 60006 82201 91200=
07690,1998-06-08 15:00:00,24,1016,-0.1,74,19,11000,11.112,,,110,,,,,,,,,,,wg-a,,,,AAXX 08154 07690 12561 31106 10240 20190 30130 40160 57001 60006 82201 91500=
07690,1998-06-08 18:00:00,23,1015.6,-0.4,78,19,10000,3.704,,,150,18.6,24.3,,,,,,,,,wg-a,,,,AAXX 08184 07690 12560 51502 10230 20190 30126 40156 56004 60006 82402 91800 333 10243 20186=
07690,1998-06-08 21:00:00,20,1016.6,1,88,18,12000,3.704,,,70,,,,,,,,,,,wg-a,,,,AAXX 08214 07690 12562 40702 10200 20180 30136 40166 53010 60006 81502 92100=
07690,1998-06-09 03:00:00,17,1016,-1.1,94,16,12000,3.704,,,340,,,,,,,,,,,wg-a,,,,AAXX 09034 07690 12462 /3402 10170 20160 30129 40160 58011 60006 81502 90300=
07690,1998-06-09 06:00:00,19,1016.6,0.6,88,17,8000,7.408,,,50,17.2,22.5,,,,,,,,,wg-a,,,,AAXX 09064 07690 02458 /0504 10190 20170 30135 40166 53006 60006 85502 90600 333 10225 20172 60004=
07690,1998-06-09 09:00:00,23,1016.6,0.1,73,18,10000,14.816,,,110,,,,,,,,,,,wg-a,,,,AAXX 09094 07690 12460 41108 10230 20180 30136 40166 51001 60006 81801 90900=
07690,1998-06-09 12:00:00,24,1015.8,-0.8,69,18,10000,14.816,,,110,,,,,,,,,,,wg-a,,,,AAXX 09124 07690 12460 21108 10240 20180 30128 40158 58008 60006 81201 91200=
07690,1998-06-09 15:00:00,23,1014.8,-1,78,19,10000,11.112,,,110,,,,,,,,,,,wg-a,,,,AAXX 09154 07690 12560 51106 10230 20190 30118 40148 57010 60006 81101 91500=
07690,1998-06-09 18:00:00,21,1013.9,-0.9,88,19,10000,3.704,,,170,18.6,24,,,,,,,,,wg-a,,,,AAXX 09184 07690 12560 41702 10210 20190 30109 40139 56009 60006 81502 91800 333 10240 20186=
07690,1998-06-09 21:00:00,20,1013.6,-0.3,88,18,13000,7.408,,,240,,,,,,,,,,,wg-a,,,,AAXX 09214 07690 12563 /2404 10200 20180 30106 40136 58003 60006 81532 92100=
07690,1998-06-10 00:00:00,19,1013.2,-0.5,88,17,13000,0,,,0,,,,,,,,,,,wg-a,,,,AAXX 10004 07690 12563 30000 10190 20170 30101 40132 58005 60006 81501 90000=
07690,1998-06-10 03:00:00,18,1012.1,-1.1,88,16,10000,7.408,,,330,,,,,,,,,,,wg-a,,,,AAXX 10034 07690 12460 /3304 10180 20160 30090 40121 58011 60006 86500 90300=
07690,1998-06-10 06:00:00,19,1011.9,-0.1,83,16,10000,11.112,,,340,17.6,21.3,,,,,,,,,wg-a,,,,AAXX 10064 07690 02460 23406 10190 20160 30089 40119 58001 60006 81531 90600 333 10213 20176 60004=
07690,1998-06-10 09:00:00,23,1011,-0.9,78,19,8000,11.112,,,160,,,,,,,,,,,wg-a,,,,AAXX 10094 07690 12558 /1606 10230 20190 30080 40110 56009 60006 82801 90900=
07690,1998-06-10 12:00:00,23,1010.2,-0.8,78,19,7000,14.816,,,180,,,,,,,,,,,wg-a,,,,AAXX 10124 07690 12457 71808 10230 20190 30072 40102 58008 60006 86902 91200=
07690,1998-06-10 15:00:00,22,1008.5,-1.7,78,18,10000,14.816,,,190,,,,,,,,,,,wg-a,,,,AAXX 10154 07690 12460 /1908 10220 20180 30055 40085 58017 60006 82860 91500=
07690,1998-06-10 18:00:00,20,1008,-0.5,88,18,500,14.816,,,210,19.2,23.7,,,,,,,,81,wg-a,,,,AAXX 10184 07690 02200 72108 10200 20180 30050 40080 55005 61000 78186 8597/ 91800 333 10237 20192 6005=
07690,1998-06-10 21:00:00,21,1007.5,-0.5,88,19,10000,7.408,,,100,,,,,,,,,,3,wg-a,,,,AAXX 10214 07690 02460 71004 10210 20190 30045 40075 55005 61000 70386 8657/ 92100 333 ////=
07690,1998-06-11 00:00:00,18,1005.3,-2.2,94,17,11000,11.112,,,340,,,,,,,,,,,wg-a,,,,AAXX 11004 07690 02/61 /3406 10180 20170 30023 40053 58022 61000 90000 333 ////=
07690,1998-06-11 03:00:00,17,1003.5,-1.8,88,15,20000,14.816,,,330,,,,,,,,,,,wg-a,,,,AAXX 11034 07690 12470 33308 10170 20150 30005 40035 58018 60006 83800 90300=
07690,1998-06-11 06:00:00,18,1002.4,-1.1,77,14,35000,11.112,,,290,16.5,20.7,,,,,5,,,,wg-a,,,,AAXX 11064 07690 02581 /2906 10180 20140 39994 40024 56011 60006 81100 90600 333 10207 20165 60054=
07690,1998-06-11 09:00:00,22,1000.7,-1.7,57,13,35000,31.484,,,240,,,,,,,,,,,wg-a,,,,AAXX 11094 07690 12581 /2417 10220 20130 39977 40007 58017 60006 81100 90900=
07690,1998-06-11 12:00:00,24,999.1,-1.6,47,12,35000,38.892,,,250,,,,,,,,,,,wg-a,,,,AAXX 11124 07690 12581 /2521 10240 20120 39961 49991 57016 60006 81100 91200=
07690,1998-06-11 15:00:00,25,997.9,-1.1,32,7,35000,42.596,,,280,,,,,,,,,,,wg-a,,,,AAXX 11154 07690 12581 /2823 10250 20070 39950 49979 55011 60006 81300 91500=
07690,1998-06-11 18:00:00,23,999.2,1.2,29,4,35000,38.892,,,290,17.6,26.1,,,,,,,,,wg-a,,,,AAXX 11184 07690 12581 /2921 10230 20040 39962 49992 53012 60006 81200 91800 333 10261 20176=
07690,1998-06-11 21:00:00,19,1000.6,1.4,46,7,500,18.52,,,260,,,,,,,,,,13,wg-a,,,,AAXX 11214 07690 12500 32610 10190 20070 39976 40006 53014 60006 71300 81960 92100=
07690,1998-06-12 00:00:00,16,1002.8,2.1,48,5,500,7.408,,,330,,,,,,,,,,,wg-a,,,,AAXX 12004 07690 12500 33304 10160 20050 39997 40028 51021 60006 81560 90000=
07690,1998-06-12 03:00:00,14,1003.3,0.5,63,7,20000,14.816,,,260,,,,,,,,,,29,wg-a,,,,AAXX 12034 07690 12470 42608 10140 20070 30002 40033 51005 60006 72990 81903 90300=
07690,1998-06-12 06:00:00,14,1003.5,0.2,67,8,50000,3.704,,,320,13.2,22.6,,,,,,,,3,wg-a,,,,AAXX 12064 07690 02484 63202 10140 20080 30004 40035 53002 60006 70391 81132 90600 333 10226 20132 60004=
07690,1998-06-12 09:00:00,19,1005.7,2.3,46,7,50000,7.408,,,40,,,,,,,,,,,wg-a,,,,AAXX 12094 07690 12484 70404 10190 20070 30027 40057 51023 60006 81232 90900=
07690,1998-06-12 12:00:00,21,1006.6,0.9,43,8,50000,14.816,,,190,,,,,,,,,,,wg-a,,,,AAXX 12124 07690 12584 71908 10210 20080 30036 40066 51009 60006 81131 91200=
07690,1998-06-12 15:00:00,22,1006.8,0.2,46,10,50000,25.928,,,90,,,,,,,,,,,wg-a,,,,AAXX 12154 07690 12584 30914 10220 20100 30038 40068 53002 60006 81141 91500=
07690,1998-06-12 18:00:00,21,1007.8,1,56,12,50000,14.816,,,90,13.8,22.9,,,,,,,,,wg-a,,,,AAXX 12184 07690 12584 20908 10210 20120 30048 40078 53010 60006 81140 91800 333 10229 20138=
07690,1998-06-12 21:00:00,17,1010.1,2.2,59,9,25000,11.112,,,310,,,,,,,,,,,wg-a,,,,AAXX 12214 07690 12575 /3106 10170 20090 30070 40101 53022 60006 81200 92100=
07690,1998-06-13 00:00:00,18,1011.1,1,39,4,25000,14.816,,,340,,,,,,,,,,,wg-a,,,,AAXX 13004 07690 12575 /3408 10180 20040 30080 40111 51010 60006 81500 90000=
07690,1998-06-13 03:00:00,16,1011.3,0.2,39,2,25000,18.52,,,340,,,,,,,,,,,wg-a,,,,AAXX 13034 07690 12/75 13410 10160 20020 30082 40113 52002 60006 81030 90300=
07690,1998-06-13 06:00:00,16,1013.2,1.9,39,2,50000,18.52,,,340,14.8,20.9,,,,,,,,,wg-a,,,,AAXX 13064 07690 02/84 03410 10160 20020 30101 40132 51019 60006 80000 90600 333 10209 20148 60004=
07690,1998-06-13 12:00:00,22,1013.7,-0.1,43,9,50000,14.816,,,140,,,,,,,,,,,wg-a,,,,AAXX 13124 07690 12584 /1408 10220 20090 30107 40137 58001 60006 81100 91200=
07690,1998-06-13 15:00:00,21,1013.5,-0.2,49,10,50000,11.112,,,170,,,,,,,,,,,wg-a,,,,AAXX 13154 07690 12584 21706 10210 20100 30105 40135 55002 60006 81130 91500=
07690,1998-06-13 18:00:00,21,1012.3,-1.2,56,12,50000,14.816,,,70,16.3,22,,,,,,,,,wg-a,,,,AAXX 13184 07690 12584 20708 10210 20120 30093 40123 57012 60006 81130 91800 333 10220 20163=
07690,1998-06-13 21:00:00,16,1012.9,0.5,63,9,500,14.816,,,330,,,,,,,,,,,wg-a,,,,AAXX 13214 07690 12/00 03308 10160 20090 30098 40129 53005 60006 80000 92100=
07690,1998-06-14 00:00:00,15,1013,0.1,67,9,500,11.112,,,330,,,,,,,,,,,wg-a,,,,AAXX 14004 07690 12/00 03306 10150 20090 30099 40130 50001 60006 80000 90000=
07690,1998-06-14 03:00:00,14,1012.8,-0.2,67,8,20000,11.112,,,340,,,,,,,,,,,wg-a,,,,AAXX 14034 07690 12/70 33406 10140 20080 30097 40128 56002 60006 81032 90300=
07690,1998-06-14 06:00:00,16,1013.7,0.9,63,9,35000,18.52,,,330,13.4,20.7,,,,,,,,,wg-a,,,,AAXX 14064 07690 02581 33310 10160 20090 30106 40137 52009 60006 82202 90600 333 10207 20134 60004=
07690,1998-06-14 09:00:00,20,1013.6,-0,60,12,40000,11.112,,,160,,,,,,,,,,,wg-a,,,,AAXX 14094 07690 12482 /1606 10200 20120 30106 40136 54000 60006 81200 90900=
07690,1998-06-14 12:00:00,21,1013.5,-0.1,64,14,20000,18.52,,,110,,,,,,,,,,,wg-a,,,,AAXX 14124 07690 12470 21110 10210 20140 30105 40135 58001 60006 82200 91200=
07690,1998-06-14 15:00:00,21,1012.6,-0.9,64,14,20000,25.928,,,90,,,,,,,,,,,wg-a,,,,AAXX 14154 07690 12470 40914 10210 20140 30096 40126 58009 60006 81202 91500=
07690,1998-06-14 18:00:00,21,1012.3,-0.3,69,15,25000,14.816,,,110,15.5,22.2,,,,,,,,,wg-a,,,,AAXX 14184 07690 12675 31108 10210 20150 30093 40123 55003 60006 81202 91800 333 10222 20155=
07690,1998-06-15 00:00:00,16,1013.2,0.2,88,14,25000,7.408,,,340,,,,,,,,,,,wg-a,,,,AAXX 15004 07690 12475 /3404 10160 20140 30101 40132 51002 60006 81132 90000=
07690,1998-06-15 03:00:00,16,1013.4,0.2,82,13,25000,14.816,,,330,,,,,,,,,,,wg-a,,,,AAXX 15034 07690 12475 73308 10160 20130 30103 40134 52002 60006 82532 90300=
07690,1998-06-15 06:00:00,17,1013.8,0.4,77,13,20000,7.408,,,330,15.6,20.6,,,,,,,,,wg-a,,,,AAXX 15064 07690 02570 73304 10170 20130 30107 40138 53004 60006 8551/ 90600 333 10206 20156 60004=
07690,1998-06-15 09:00:00,20,1013.4,-0.3,60,12,500,11.112,,,170,,,,,,,,,,,wg-a,,,,AAXX 15094 07690 12400 71706 10200 20120 30104 40134 56003 60006 81832 90900=
07690,1998-06-15 12:00:00,21,1012,-1.4,64,14,40000,42.596,,57.412,210,,,,,,,,,,,wg-a,,,,AAXX 15124 07690 12582 /2123 10210 20140 30090 40120 56014 60006 81802 91200 333 91031=
07690,1998-06-15 15:00:00,21,1011.5,-0.5,69,15,500,42.596,,,210,,,,,,,,,,,wg-a,,,,AAXX 15154 07690 12600 /2123 10210 20150 30085 40115 58005 60006 81802 91500=
07690,1998-06-15 18:00:00,20,1011.3,-0.2,68,14,500,31.484,,,220,16.8,22.3,,,,,,,,,wg-a,,,,AAXX 15184 07690 12600 /2217 10200 20140 30083 40113 56002 60006 81202 91800 333 10223 20168=
07690,1998-06-15 21:00:00,20,1013,1.7,73,15,25000,11.112,,,60,,,,,,,,,,,wg-a,,,,AAXX 15214 07690 12/75 /0606 10200 20150 30100 40130 53017 60006 80002 92100=
07690,1998-06-16 00:00:00,16,1014.6,1.5,72,11,25000,11.112,,,310,,,,,,,,,,,wg-a,,,,AAXX 16004 07690 12/75 03106 10160 20110 30115 40146 52015 60006 80000 90000=
07690,1998-06-16 03:00:00,14,1014.9,0.3,77,10,25000,18.52,,,330,,,,,,,,,,,wg-a,,,,AAXX 16034 07690 12475 /3310 10140 20100 30118 40149 51003 60006 81500 90300=
07690,1998-06-16 06:00:00,16,1016.4,1.5,68,10,12000,18.52,,,320,13.9,21.3,,,,,,,,,wg-a,,,,AAXX 16064 07690 02462 /3210 10160 20100 30133 40164 51015 60006 81200 90600 333 10213 20139 60004=
07690,1998-06-16 09:00:00,20,1017.3,0.9,78,16,20000,22.224,,,200,,,,,,,,,,,wg-a,,,,AAXX 16094 07690 12470 22012 10200 20160 30142 40173 51009 60006 82100 90900=
07690,1998-06-16 12:00:00,21,1018,0.8,69,15,20000,14.816,,,150,,,,,,,,,,,wg-a,,,,AAXX 16124 07690 12570 21508 10210 20150 30150 40180 51008 60006 82100 91200=
07690,1998-06-16 15:00:00,21,1017.7,-0.3,69,15,20000,11.112,,,110,,,,,,,,,,,wg-a,,,,AAXX 16154 07690 12570 21106 10210 20150 30147 40177 58003 60006 82100 91500=
07690,1998-06-16 18:00:00,21,1017.5,-0.3,69,15,20000,14.816,,,110,16.3,21.7,,,,,,,,,wg-a,,,,AAXX 16184 07690 12570 21108 10210 20150 30144 40175 55003 60006 82200 91800 333 10217 20163=
07690,1998-06-16 21:00:00,19,1018.8,1.3,78,15,20000,7.408,,,80,,,,,,,,,,,wg-a,,,,AAXX 16214 07690 12670 /0804 10190 20150 30157 40188 53013 60006 81400 92100=
07690,1998-06-17 00:00:00,16,1019.1,0.3,82,13,20000,11.112,,,320,,,,,,,,,,,wg-a,,,,AAXX 17004 07690 12/70 03206 10160 20130 30160 40191 51003 60006 80000 90000=
07690,1998-06-17 03:00:00,15,1019.6,0.5,82,12,20000,14.816,,,330,,,,,,,,,,,wg-a,,,,AAXX 17034 07690 12470 /3308 10150 20120 30165 40196 53005 60006 81800 90300=
07690,1998-06-17 06:00:00,17,1021.1,1.5,68,11,20000,14.816,,,330,14.6,20.5,,,,,,,,,wg-a,,,,AAXX 17064 07690 02770 23308 10170 20110 30180 40211 53015 60006 81502 90600 333 10205 20146 60004=
07690,1998-06-17 09:00:00,21,1022.1,1,73,16,15000,11.112,,,110,,,,,,,,,,,wg-a,,,,AAXX 17094 07690 12565 21106 10210 20160 30190 40221 51010 60006 81102 90900=
07690,1998-06-17 12:00:00,22,1022.3,0.2,69,16,15000,11.112,,,120,,,,,,,,,,,wg-a,,,,AAXX 17124 07690 12565 /1206 10220 20160 30192 40223 50002 60006 81202 91200=
07690,1998-06-17 15:00:00,22,1021.7,-0.5,69,16,12000,11.112,,,200,,,,,,,,,,,wg-a,,,,AAXX 17154 07690 12562 /2006 10220 20160 30187 40217 57005 60006 81202 91500=
07690,1998-06-17 18:00:00,22,1021.5,-0.2,69,16,12000,11.112,,,240,17.3,22.7,,,,,,,,,wg-a,,,,AAXX 17184 07690 12562 32406 10220 20160 30185 40215 57002 60006 81501 91800 333 10227 20173=
07690,1998-06-17 21:00:00,20,1022.4,0.8,73,15,25000,0,,,0,,,,,,,,,,,wg-a,,,,AAXX 17214 07690 12/75 50000 10200 20150 30193 40224 52008 60006 85041 92100=
07690,1998-06-18 00:00:00,18,1022.5,0.1,73,13,25000,11.112,,,350,,,,,,,,,,,wg-a,,,,AAXX 18004 07690 12/75 23506 10180 20130 30194 40225 51001 60006 82040 90000=
07690,1998-06-18 03:00:00,16,1022.5,-0,82,13,15000,11.112,,,340,,,,,,,,,,,wg-a,,,,AAXX 18034 07690 12465 /3406 10160 20130 30194 40225 54000 60006 81501 90300=
07690,1998-06-18 06:00:00,19,1023.2,0.7,78,15,20000,7.408,,,50,16.4,21.7,,,,,,,,,wg-a,,,,AAXX 18064 07690 02470 30504 10190 20150 30201 40232 53007 60006 81101 90600 333 10217 20164 60004=
07690,1998-06-18 09:00:00,22,1023.9,0.7,73,17,15000,18.52,,,100,,,,,,,,,,,wg-a,,,,AAXX 18094 07690 12465 /1010 10220 20170 30208 40239 51007 60006 81201 90900=
07690,1998-06-18 12:00:00,22,1024.3,0.4,73,17,15000,11.112,,,130,,,,,,,,,,,wg-a,,,,AAXX 18124 07690 12465 31306 10220 20170 30212 40243 51004 60006 81201 91200=
07690,1998-06-18 15:00:00,23,1023.4,-0.8,57,14,500,7.408,,,140,,,,,,,,,,,wg-a,,,,AAXX 18154 07690 12500 41404 10230 20140 30204 40234 58008 60006 81202 91500=
07690,1998-06-18 18:00:00,21,1022.8,-0.7,69,15,500,7.408,,,160,19.1,22.6,,,,,,,,,wg-a,,,,AAXX 18184 07690 12/00 11604 10210 20150 30197 40228 55007 60006 80001 91800 333 10226 20191=
07690,1998-06-18 21:00:00,18,1023.5,0.7,88,16,25000,3.704,,,240,,,,,,,,,,,wg-a,,,,AAXX 18214 07690 12/75 02402 10180 20160 30204 40235 52007 60006 80000 92100=
07690,1998-06-19 00:00:00,17,1022.7,-0.8,77,13,25000,11.112,,,330,,,,,,,,,,,wg-a,,,,AAXX 19004 07690 12/75 03306 10170 20130 30196 40227 56008 60006 80000 90000=
07690,1998-06-19 03:00:00,17,1022.2,-0.5,72,12,25000,7.408,,,340,,,,,,,,,,,wg-a,,,,AAXX 19034 07690 12/75 13404 10170 20120 30191 40222 56005 60006 80001 90300=
07690,1998-06-19 06:00:00,19,1022.9,0.7,68,13,18000,7.408,,,340,16.6,21.2,,,,,,,,,wg-a,,,,AAXX 19064 07690 02/68 23404 10190 20130 30198 40229 51007 60006 80001 90600 333 10212 20166 60004=
07690,1998-06-19 09:00:00,22,1023.2,0.3,73,17,20000,11.112,,,130,,,,,,,,,,,wg-a,,,,AAXX 19094 07690 12570 /1306 10220 20170 30201 40232 52003 60006 81501 90900=
07690,1998-06-19 12:00:00,22,1023.3,0.1,73,17,18000,14.816,,,170,,,,,,,,,,,wg-a,,,,AAXX 19124 07690 12468 /1708 10220 20170 30202 40233 51001 60006 81501 91200=
07690,1998-06-19 15:00:00,23,1022.1,-1.1,61,15,500,7.408,,,170,,,,,,,,,,,wg-a,,,,AAXX 19154 07690 12600 31704 10230 20150 30191 40221 57011 60006 81101 91500=
07690,1998-06-19 18:00:00,22,1021.9,-0.3,69,16,500,7.408,,,170,18.8,23.3,,,,,,,,,wg-a,,,,AAXX 19184 07690 12/00 11704 10220 20160 30188 40219 55003 60006 81031 91800 333 10233 20188=
07690,1998-06-19 21:00:00,19,1022.9,1,88,17,500,7.408,,,220,,,,,,,,,,,wg-a,,,,AAXX 19214 07690 12/00 02204 10190 20170 30198 40229 53010 60006 80000 92100=
07690,1998-06-20 00:00:00,18,1023.1,0.2,77,14,500,11.112,,,330,,,,,,,,,,,wg-a,,,,AAXX 20004 07690 12/00 03306 10180 20140 30200 40231 51002 60006 80000 90000=
07690,1998-06-20 03:00:00,17,1023.4,0.3,77,13,500,7.408,,,330,,,,,,,,,,,wg-a,,,,AAXX 20034 07690 12/00 03304 10170 20130 30203 40234 52003 60006 80000 90300=
07690,1998-06-20 06:00:00,19,1024.2,0.8,73,14,500,3.704,,,320,16.9,21.5,,,,,,,,,wg-a,,,,AAXX 20064 07690 02/00 13202 10190 20140 30211 40242 53008 60006 80001 90600 333 10215 20169 60004=
07690,1998-06-20 09:00:00,23,1025.1,1,73,18,500,11.112,,,140,,,,,,,,,,,wg-a,,,,AAXX 20094 07690 12/00 11406 10230 20180 30221 40251 51010 60006 80001 90900=
07690,1998-06-20 12:00:00,24,1025.2,0.1,65,17,500,11.112,,,160,,,,,,,,,,,wg-a,,,,AAXX 20124 07690 12500 41606 10240 20170 30222 40252 50001 60006 81101 91200=
07690,1998-06-20 15:00:00,23,1024.5,-0.7,78,19,500,11.112,,,180,,,,,,,,,,,wg-a,,,,AAXX 20154 07690 12/00 41806 10230 20190 30215 40245 58007 60006 80001 91500=
07690,1998-06-20 18:00:00,23,1024.5,-0.1,61,15,500,11.112,,,200,19.2,24.3,,,,,,,,,wg-a,,,,AAXX 20184 07690 12/00 22006 10230 20150 30214 40245 55001 60006 80001 91800 333 10243 20192=
07690,1998-06-20 21:00:00,20,1025,0.5,83,17,20000,7.408,,,230,,,,,,,,,,,wg-a,,,,AAXX 20214 07690 12/70 02304 10200 20170 30219 40250 53005 60006 80000 92100=
07690,1998-06-21 00:00:00,18,1025,-0,83,15,20000,3.704,,,320,,,,,,,,,,,wg-a,,,,AAXX 21004 07690 12/70 03202 10180 20150 30219 40250 54000 60006 80000 90000=
07690,1998-06-21 03:00:00,17,1024.1,-0.9,82,14,20000,7.408,,,320,,,,,,,,,,,wg-a,,,,AAXX 21034 07690 12/70 03204 10170 20140 30210 40241 58009 60006 80000 90300=
07690,1998-06-21 06:00:00,19,1024.7,0.6,83,16,10000,3.704,,,330,16.4,22.5,,,,,,,,,wg-a,,,,AAXX 21064 07690 02360 23302 10190 20160 30216 40247 53006 60006 82600 90600 333 10225 20164 60004=
07690,1998-06-21 09:00:00,22,1024.7,0.1,78,18,10000,11.112,,,120,,,,,,,,,,,wg-a,,,,AAXX 21094 07690 12460 /1206 10220 20180 30217 40247 51001 60006 81100 90900=
07690,1998-06-21 12:00:00,24,1024.6,-0.1,61,16,12000,11.112,,,150,,,,,,,,,,,wg-a,,,,AAXX 21124 07690 12562 /1506 10240 20160 30216 40246 58001 60006 81100 91200=
07690,1998-06-21 15:00:00,24,1023.5,-1.1,74,19,15000,14.816,,,110,,,,,,,,,,,wg-a,,,,AAXX 21154 07690 12465 /1108 10240 20190 30205 40235 57011 60006 81100 91500=
07690,1998-06-21 18:00:00,24,1022.6,-0.9,69,18,20000,18.52,,,80,19,24.3,,,,,,,,,wg-a,,,,AAXX 21184 07690 12470 10810 10240 20180 30196 40226 56009 60006 81600 91800 333 10243 20190=
07690,1998-06-21 21:00:00,22,1023.3,0.7,78,18,20000,18.52,,,80,,,,,,,,,,,wg-a,,,,AAXX 21214 07690 12/70 00810 10220 20180 30203 40233 53007 60006 80000 92100=
07690,1998-06-22 00:00:00,18,1023,-0.4,88,16,20000,14.816,,,330,,,,,,,,,,,wg-a,,,,AAXX 22004 07690 12/70 03308 10180 20160 30199 40230 58004 60006 80000 90000=
07690,1998-06-22 03:00:00,17,1022.1,-0.9,94,16,20000,14.816,,,320,,,,,,,,,,,wg-a,,,,AAXX 22034 07690 12/70 23208 10170 20160 30190 40221 56009 60006 80001 90300=
07690,1998-06-22 06:00:00,19,1021.8,-0.3,83,16,9000,11.112,,,330,17,23.6,,,,,,,,,wg-a,,,,AAXX 22064 07690 02559 43306 10190 20160 30187 40218 58003 60006 82501 90600 333 10236 20170 60004=
07690,1998-06-22 09:00:00,22,1021.7,0,78,18,10000,11.112,,,120,,,,,,,,,,,wg-a,,,,AAXX 22094 07690 12460 41206 10220 20180 30187 40217 50000 60006 82201 90900=
07690,1998-06-22 12:00:00,24,1021,-0.7,69,18,10000,14.816,,,120,,,,,,,,,,,wg-a,,,,AAXX 22124 07690 12560 51208 10240 20180 30180 40210 58007 60006 83802 91200=
07690,1998-06-22 15:00:00,24,1019.5,-1.5,65,17,15000,14.816,,,120,,,,,,,,,,,wg-a,,,,AAXX 22154 07690 12565 41208 10240 20170 30165 40195 56015 60006 82801 91500=
07690,1998-06-22 18:00:00,23,1018.4,-1.1,78,19,12000,11.112,,,120,18.8,24.6,,,,,,,,,wg-a,,,,AAXX 22184 07690 12462 41206 10230 20190 30154 40184 56011 60006 81502 91800 333 10246 20188=
07690,1998-06-22 21:00:00,22,1018.6,0.2,83,19,12000,11.112,,,100,,,,,,,,,,,wg-a,,,,AAXX 22214 07690 12462 /1006 10220 20190 30156 40186 50002 60006 85502 92100=
07690,1998-06-23 00:00:00,22,1017.9,-0.7,83,19,12000,14.816,,,100,,,,,,,,,,,wg-a,,,,AAXX 23004 07690 12462 71008 10220 20190 30149 40179 58007 60006 878// 90000=
07690,1998-06-23 03:00:00,22,1016.8,-1.1,83,19,12000,11.112,,,100,,,,,,,,,,,wg-a,,,,AAXX 23034 07690 12462 71006 10220 20190 30138 40168 57011 60006 875// 90300=
07690,1998-06-23 06:00:00,21,1017.1,0.3,83,18,7000,7.408,,,70,20.8,22.8,,,,,,,,,wg-a,,,,AAXX 23064 07690 02457 70704 10210 20180 30141 40171 53003 60006 875// 90600 333 10228 20208 60004=
07690,1998-06-23 09:00:00,23,1016.6,-0.5,73,18,8000,18.52,,,110,,,,,,,,,,1,wg-a,,,,AAXX 23094 07690 02458 71110 10230 20180 30136 40166 58005 61000 70152 875// 90900 333 ////=
07690,1998-06-23 12:00:00,23,1016.5,-0.1,78,19,9000,14.816,,,120,,,,,,,,,,1,wg-a,,,,AAXX 23124 07690 02459 71208 10230 20190 30135 40165 58001 61000 70152 875// 91200 333 ////=
07690,1998-06-23 15:00:00,23,1015.9,-0.6,78,19,9000,7.408,,,130,,,,,,,,,,,wg-a,,,,AAXX 23154 07690 12459 71304 10230 20190 30129 40159 56006 60006 875// 91500=
07690,1998-06-23 21:00:00,22,1015.4,0.2,83,19,10000,7.408,,,90,,,,,,,,,,,wg-a,,,,AAXX 23214 07690 12460 70904 10220 20190 30124 40154 52002 60006 875// 92100=
07690,1998-06-24 00:00:00,22,1014.8,-0.6,83,19,11000,11.112,,,100,,,,,,,,,,,wg-a,,,,AAXX 24004 07690 12461 71006 10220 20190 30118 40148 58006 60006 875// 90000=
07690,1998-06-24 03:00:00,22,1013.8,-1,83,19,10000,11.112,,,100,,,,,,,,,,,wg-a,,,,AAXX 24034 07690 12460 71006 10220 20190 30108 40138 56010 60006 874// 90300=
07690,1998-06-24 06:00:00,22,1014.1,0.3,83,19,500,14.816,,,90,21.6,22.3,,,,,,,,,wg-a,,,,AAXX 24064 07690 02400 80908 10220 20190 30111 40141 53003 60006 875// 90600 333 10223 20216 61000=
07690,1998-06-24 09:00:00,23,1014.4,0.3,78,19,500,18.52,,,100,,,,,,,,,,,wg-a,,,,AAXX 24094 07690 12400 81010 10230 20190 30114 40144 52003 60006 875// 90900=
07690,1998-06-24 12:00:00,23,1014,-0.4,78,19,500,22.224,,,90,,,,,,,,,,,wg-a,,,,AAXX 24124 07690 12400 70912 10230 20190 30110 40140 58004 60006 87501 91200=
07690,1998-06-24 15:00:00,23,1013.1,-0.9,78,19,9000,14.816,,,120,,,,,,,,,,,wg-a,,,,AAXX 24154 07690 12559 /1208 10230 20190 30101 40131 56009 60006 81101 91500=
07690,1998-06-24 18:00:00,22,1012.5,-0.6,83,19,9000,3.704,,,110,21.8,23.8,,,,,,,,,wg-a,,,,AAXX 24184 07690 12/59 /1102 10220 20190 30095 40125 56006 60006 80001 91800 333 10238 20218=
07690,1998-06-24 21:00:00,20,1013.1,0.6,94,19,8000,0,,,0,,,,,,,,,,,wg-a,,,,AAXX 24214 07690 12458 40000 10200 20190 30101 40131 53006 60006 81531 92100=
07690,1998-06-25 00:00:00,19,1013.3,0.2,94,18,8000,11.112,,,320,,,,,,,,,,,wg-a,,,,AAXX 25004 07690 12458 /3206 10190 20180 30103 40133 51002 60006 81500 90000=
07690,1998-06-25 03:00:00,19,1013,-0.3,94,18,8000,11.112,,,340,,,,,,,,,,,wg-a,,,,AAXX 25034 07690 12458 33406 10190 20180 30100 40130 56003 60006 83500 90300=
07690,1998-06-25 06:00:00,21,1013.6,0.6,83,18,500,3.704,,,30,18.8,22.4,,,,,,,,,wg-a,,,,AAXX 25064 07690 02400 /0302 10210 20180 30106 40136 52006 60006 81501 90600 333 10224 20188 60004=
07690,1998-06-25 09:00:00,24,1014.2,0.6,78,20,4500,11.112,,,150,,,,,,,,,,10,wg-a,,,,AAXX 25094 07690 12445 21506 10240 20200 30112 40142 52006 60006 71000 82500 90900=
07690,1998-06-25 12:00:00,25,1014,-0.2,69,19,8000,11.112,,,160,,,,,,,,,,,wg-a,,,,AAXX 25124 07690 12558 /1606 10250 20190 30110 40140 58002 60006 81201 91200=
07690,1998-06-25 15:00:00,25,1013.4,-0.6,69,19,9000,11.112,,,170,,,,,,,,,,,wg-a,,,,AAXX 25154 07690 12659 /1706 10250 20190 30104 40134 56006 60006 81201 91500=
07690,1998-06-25 18:00:00,24,1013.1,-0.3,78,20,9000,14.816,,,210,21,25.6,,,,,,,,,wg-a,,,,AAXX 25184 07690 12659 /2108 10240 20200 30101 40131 55003 60006 81400 91800 333 10256 20210=
07690,1998-06-25 21:00:00,21,1014.1,1,88,19,12000,7.408,,,260,,,,,,,,,,,wg-a,,,,AAXX 25214 07690 12662 /2604 10210 20190 30111 40141 53010 60006 81400 92100=
07690,1998-06-26 00:00:00,20,1014,-0.1,83,17,10000,11.112,,,340,,,,,,,,,,,wg-a,,,,AAXX 26004 07690 12/60 03406 10200 20170 30110 40140 57001 60006 80000 90000=
07690,1998-06-26 03:00:00,20,1013.8,-0.2,78,16,12000,7.408,,,340,,,,,,,,,,,wg-a,,,,AAXX 26034 07690 12/62 03404 10200 20160 30108 40138 55002 60006 80000 90300=
07690,1998-06-26 06:00:00,21,1015.4,1.6,78,17,10000,7.408,,,50,19.1,23.7,,,,,,,,,wg-a,,,,AAXX 26064 07690 02360 30504 10210 20170 30124 40154 51016 60006 83500 90600 333 10237 20191 60004=
07690,1998-06-26 09:00:00,24,1016.1,0.7,78,20,9000,18.52,,,100,,,,,,,,,,,wg-a,,,,AAXX 26094 07690 12459 /1010 10240 20200 30131 40161 52007 60006 81101 90900=
07690,1998-06-26 12:00:00,25,1016.1,0,74,20,10000,11.112,,,130,,,,,,,,,,,wg-a,,,,AAXX 26124 07690 12460 41306 10250 20200 30131 40161 50000 60006 81101 91200=
07690,1998-06-26 15:00:00,25,1015.7,-0.4,74,20,10000,11.112,,,150,,,,,,,,,,,wg-a,,,,AAXX 26154 07690 12560 21506 10250 20200 30127 40157 57004 60006 81201 91500=
07690,1998-06-26 18:00:00,23,1015.3,-0.4,83,20,10000,7.408,,,150,21.1,25.5,,,,,,,,,wg-a,,,,AAXX 26184 07690 12660 /1504 10230 20200 30123 40153 56004 60006 81200 91800 333 10255 20211=
07690,1998-06-26 21:00:00,21,1015.6,0.3,94,20,10000,3.704,,,250,,,,,,,,,,,wg-a,,,,AAXX 26214 07690 12/60 12502 10210 20200 30126 40156 53003 60006 80001 92100=
07690,1998-06-27 00:00:00,20,1015.9,0.3,88,18,10000,7.408,,,300,,,,,,,,,,,wg-a,,,,AAXX 27004 07690 12/60 63004 10200 20180 30129 40159 53003 60006 84031 90000=
07690,1998-06-27 03:00:00,19,1015.6,-0.4,88,17,10000,11.112,,,320,,,,,,,,,,,wg-a,,,,AAXX 27034 07690 12460 23206 10190 20170 30125 40156 58004 60006 82600 90300=
07690,1998-06-27 06:00:00,20,1016,0.5,88,18,8000,7.408,,,330,18.7,23.5,,,,,,,,,wg-a,,,,AAXX 27064 07690 02458 43304 10200 20180 30130 40160 53005 60006 83601 90600 333 10235 20187 60004=
07690,1998-06-27 09:00:00,24,1015.8,-0.2,78,20,8000,11.112,,,140,,,,,,,,,,,wg-a,,,,AAXX 27094 07690 12458 21406 10240 20200 30128 40158 55002 60006 82600 90900=
07690,1998-06-27 12:00:00,25,1015.9,0.1,74,20,8000,14.816,,,140,,,,,,,,,,,wg-a,,,,AAXX 27124 07690 12458 /1408 10250 20200 30129 40159 50001 60006 81800 91200=
07690,1998-06-27 15:00:00,25,1015.4,-0.5,74,20,8000,11.112,,,120,,,,,,,,,,,wg-a,,,,AAXX 27154 07690 12458 21206 10250 20200 30124 40154 58005 60006 82800 91500=
07690,1998-06-27 18:00:00,24,1015.1,-0.3,78,20,9000,3.704,,,140,20.3,25.4,,,,,,,,,wg-a,,,,AAXX 27184 07690 12459 21402 10240 20200 30121 40151 55003 60006 82800 91800 333 10254 20203=
07690,1998-06-27 21:00:00,22,1015.1,0,88,20,15000,7.408,,,240,,,,,,,,,,,wg-a,,,,AAXX 27214 07690 12/65 02404 10220 20200 30121 40151 50000 60006 80000 92100=
07690,1998-06-28 00:00:00,21,1014.8,-0.3,88,19,15000,3.704,,,330,,,,,,,,,,,wg-a,,,,AAXX 28004 07690 12/65 03302 10210 20190 30118 40148 56003 60006 80000 90000=
07690,1998-06-28 03:00:00,20,1014.8,-0,88,18,15000,11.112,,,320,,,,,,,,,,,wg-a,,,,AAXX 28034 07690 12365 63206 10200 20180 30118 40148 54000 60006 86500 90300=
07690,1998-06-28 06:00:00,21,1015.6,0.8,88,19,8000,7.408,,,330,19.8,24.3,,,,,,,,,wg-a,,,,AAXX 28064 07690 02458 /3304 10210 20190 30126 40156 53008 60006 81500 90600 333 10243 20198 60004=
07690,1998-06-28 09:00:00,25,1015.9,0.3,79,21,8000,18.52,,,100,,,,,,,,,,,wg-a,,,,AAXX 28094 07690 12458 21010 10250 20210 30129 40159 51003 60006 82100 90900=
07690,1998-06-28 12:00:00,26,1016.3,0.4,74,21,8000,14.816,,,120,,,,,,,,,,,wg-a,,,,AAXX 28124 07690 12458 21208 10260 20210 30133 40163 51004 60006 82800 91200=
07690,1998-06-28 18:00:00,24,1015.1,-0.7,83,21,9000,7.408,,,140,21.2,26.3,,,,,,,,,wg-a,,,,AAXX 28184 07690 12559 21404 10240 20210 30121 40151 55007 60006 82800 91800 333 10263 20212=
07690,1998-06-28 21:00:00,24,1015.5,0.4,83,21,10000,3.704,,,60,,,,,,,,,,,wg-a,,,,AAXX 28214 07690 12460 /0602 10240 20210 30125 40155 53004 60006 81500 92100=
07690,1998-06-29 00:00:00,21,1015.3,-0.2,88,19,10000,7.408,,,340,,,,,,,,,,,wg-a,,,,AAXX 29004 07690 12/60 03404 10210 20190 30123 40153 55002 60006 80000 90000=
07690,1998-06-29 06:00:00,21,1016.3,1.1,83,18,6000,11.112,,,330,19.5,24.3,,,,,,,,,wg-a,,,,AAXX 29064 07690 02456 43306 10210 20180 30133 40163 51011 60006 83501 90600 333 10243 20195 60004=
07690,1998-06-29 09:00:00,26,1016.7,0.4,74,21,9000,11.112,,,100,,,,,,,,,,,wg-a,,,,AAXX 29094 07690 12559 21006 10260 20210 30137 40167 52004 60006 82500 90900=
07690,1998-06-29 12:00:00,26,1016.1,-0.6,74,21,9000,14.816,,,100,,,,,,,,,,,wg-a,,,,AAXX 29124 07690 12459 21008 10260 20210 30131 40161 58006 60006 82800 91200=
07690,1998-06-29 15:00:00,26,1016.1,-0,74,21,9000,11.112,,,160,,,,,,,,,,,wg-a,,,,AAXX 29154 07690 12459 /1606 10260 20210 30131 40161 55000 60006 86800 91500=
07690,1998-06-29 18:00:00,25,1015.2,-0.9,74,20,10000,3.704,,,160,20.8,26.4,,,,,,,,,wg-a,,,,AAXX 29184 07690 12560 /1602 10250 20200 30122 40152 56009 60006 81500 91800 333 10264 20208=
07690,1998-06-29 21:00:00,22,1015.4,0.2,88,20,12000,3.704,,,180,,,,,,,,,,,wg-a,,,,AAXX 29214 07690 12/62 01802 10220 20200 30124 40154 50002 60006 80000 92100=
07690,1998-06-30 00:00:00,21,1015.2,-0.2,88,19,12000,7.408,,,340,,,,,,,,,,,wg-a,,,,AAXX 30004 07690 12/62 03404 10210 20190 30122 40152 56002 60006 80000 90000=
07690,1998-06-30 03:00:00,21,1014.2,-1,88,19,12000,11.112,,,340,,,,,,,,,,,wg-a,,,,AAXX 30034 07690 12/62 03406 10210 20190 30112 40142 56010 60006 80000 90300=
07690,1998-06-30 06:00:00,22,1014.1,-0.1,83,19,7000,7.408,,,340,20,24.7,,,,,,,,,wg-a,,,,AAXX 30064 07690 02/57 /3404 10220 20190 30111 40141 55001 60006 82032 90600 333 10247 20200 60004=
07690,1998-06-30 09:00:00,25,1013.6,-0.5,74,20,7000,7.408,,,130,,,,,,,,,,,wg-a,,,,AAXX 30094 07690 12457 /1304 10250 20200 30106 40136 58005 60006 81101 90900=
07690,1998-06-30 12:00:00,26,1012.7,-0.9,79,22,6000,11.112,,,150,,,,,,,,,,,wg-a,,,,AAXX 30124 07690 12456 /1506 10260 20220 30097 40127 58009 60006 81100 91200=
07690,1998-06-30 15:00:00,26,1012.1,-0.6,79,22,500,11.112,,,150,,,,,,,,,,,wg-a,,,,AAXX 30154 07690 12400 /1506 10260 20220 30091 40121 58006 60006 81100 91500=
07690,1998-06-30 18:00:00,25,1010.8,-1.3,79,21,500,11.112,,,100,21.8,27.3,,,,,,,,,wg-a,,,,AAXX 30184 07690 12/00 21006 10250 20210 30078 40108 56013 60006 80001 91800 333 10273 20218=
07690,1998-06-30 21:00:00,25,1011.6,0.8,83,22,9000,11.112,,,70,,,,,,,,,,,wg-a,,,,AAXX 30214 07690 12459 30706 10250 20220 30086 40116 53008 60006 81501 92100=
07690,1998-07-01 00:00:00,23,1010.9,-0.7,89,21,8000,7.408,,,90,,,,,,,,,,,wg-a,,,,AAXX 01004 07690 12458 50904 10230 20210 30079 40109 56007 60006 83501 90000=
07690,1998-07-01 03:00:00,24,1011.2,0.3,83,21,8000,7.408,,,40,,,,,,,,,,,wg-a,,,,AAXX 01034 07690 12458 70404 10240 20210 30082 40112 53003 60006 875// 90300=
07690,1998-07-01 06:00:00,24,1011.2,-0,83,21,4500,11.112,,,100,22.4,25.2,,,,,,,,10,wg-a,,,,AAXX 01064 07690 02445 /1006 10240 20210 30082 40112 55000 60006 71022 83502 90600 333 10252 20224 60004=
07690,1998-07-01 09:00:00,26,1009.8,-1.4,79,22,6000,18.52,,,90,,,,,,,,,,,wg-a,,,,AAXX 01094 07690 12456 /0910 10260 20220 30068 40098 56014 60006 82882 90900=
07690,1998-07-01 12:00:00,27,1008.9,-0.8,79,23,6000,31.484,,,80,,,,,,,,,,,wg-a,,,,AAXX 01124 07690 12456 20817 10270 20230 30060 40089 57008 60006 81182 91200=
07690,1998-07-01 15:00:00,27,1006.6,-2.3,74,22,500,31.484,,,90,,,,,,,,,,,wg-a,,,,AAXX 01154 07690 12400 50917 10270 20220 30037 40066 56023 60006 81182 91500=
07690,1998-07-01 18:00:00,26,1006.5,-0.2,79,22,7000,22.224,,,90,24.2,27.8,,,,,,,,,wg-a,,,,AAXX 01184 07690 12457 /0912 10260 20220 30035 40065 55002 60006 81102 91800 333 10278 20242=
07690,1998-07-01 21:00:00,25,1007.8,1.3,83,22,12000,11.112,,,120,,,,,,,,,,,wg-a,,,,AAXX 01214 07690 12462 71206 10250 20220 30048 40078 51013 60006 8553/ 92100=
07690,1998-07-02 00:00:00,23,1007.3,-0.5,89,21,8000,35.188,,,220,,,,,,,,,,,wg-a,,,,AAXX 02004 07690 12/58 /2219 10230 20210 30043 40073 56005 60006 90000=
07690,1998-07-02 03:00:00,22,1006.7,-0.6,88,20,10000,18.52,,,240,,,,,,,,,,,wg-a,,,,AAXX 02034 07690 12460 /2410 10220 20200 30037 40067 55006 60006 81500 90300=
07690,1998-07-02 06:00:00,23,1007.7,1,83,20,10000,11.112,,,280,21.2,25.9,,,,,,,,,wg-a,,,,AAXX 02064 07690 02/60 02806 10230 20200 30047 40077 52010 60006 80000 90600 333 10259 20212 60004=
07690,1998-07-02 09:00:00,26,1007.7,0,74,21,15000,35.188,,,200,,,,,,,,,,,wg-a,,,,AAXX 02094 07690 12/65 02019 10260 20210 30047 40077 50000 60006 80000 90900=
07690,1998-07-02 12:00:00,26,1007.3,-0.4,74,21,20000,46.3,,,210,,,,,,,,,,,wg-a,,,,AAXX 02124 07690 12670 /2125 10260 20210 30043 40073 58004 60006 81100 91200=
07690,1998-07-02 18:00:00,25,1008.6,0.6,79,21,15000,25.928,,72.228,240,23,27.3,,,,,,,,,wg-a,,,,AAXX 02184 07690 12665 /2414 10250 20210 30056 40086 53006 60006 81100 91800 333 10273 20230 91039=
07690,1998-07-03 00:00:00,21,1010.1,0.5,83,18,12000,7.408,,,300,,,,,,,,,,,wg-a,,,,AAXX 03004 07690 12/62 03004 10210 20180 30071 40101 51005 60006 80000 90000=
07690,1998-07-03 03:00:00,19,1009.2,-0.9,88,17,11000,7.408,,,290,,,,,,,,,,,wg-a,,,,AAXX 03034 07690 12/61 /2904 10190 20170 30062 40092 56009 60006 90300=
07690,1998-07-03 06:00:00,21,1010.5,1.3,78,17,12000,3.704,,,280,19.1,25.1,,,,,,,,,wg-a,,,,AAXX 03064 07690 02262 22802 10210 20170 30075 40105 53013 60006 81180 90600 333 10251 20191 60004=
07690,1998-07-03 09:00:00,25,1010.7,0.2,74,20,12000,11.112,,,190,,,,,,,,,,,wg-a,,,,AAXX 03094 07690 12462 /1906 10250 20200 30077 40107 51002 60006 81100 90900=
07690,1998-07-03 12:00:00,26,1008.9,-1.8,74,21,10000,42.596,,64.82,210,,,,,,,,,,,wg-a,,,,AAXX 03124 07690 12560 /2123 10260 20210 30059 40089 58018 60006 81100 91200 333 91035=
07690,1998-07-03 15:00:00,31,1008.4,-0.4,31,12,500,46.3,,68.524,260,,,,,,,,,,,wg-a,,,,AAXX 03154 07690 12500 22625 10310 20120 30055 40084 55004 60006 82100 91500 333 91037=
07690,1998-07-03 18:00:00,29,1009.2,0.8,37,13,500,29.632,,68.524,270,20.8,31.6,,,,,,,,,wg-a,,,,AAXX 03184 07690 12500 /2716 10290 20130 30063 40092 53008 60006 81100 91800 333 10316 20208 91037=
07690,1998-07-04 00:00:00,22,1013,1.4,73,17,20000,7.408,,,300,,,,,,,,,,,wg-a,,,,AAXX 04004 07690 12/70 03004 10220 20170 30100 40130 51014 60006 80000 90000=
07690,1998-07-04 03:00:00,20,1013.3,0.2,49,9,20000,14.816,,,340,,,,,,,,,,,wg-a,,,,AAXX 04034 07690 12/70 03408 10200 20090 30102 40133 53002 60006 80000 90300=
07690,1998-07-04 06:00:00,22,1014.4,1.2,50,11,500,11.112,,,330,19.4,29,,,,,,,,,wg-a,,,,AAXX 04064 07690 02/00 03306 10220 20110 30114 40144 53012 60006 80000 90600 333 10290 20194 60004=
07690,1998-07-04 09:00:00,26,1015.7,1.3,51,15,500,7.408,,,170,,,,,,,,,,,wg-a,,,,AAXX 04094 07690 12600 /1704 10260 20150 30127 40157 51013 60006 81100 90900=
07690,1998-07-04 12:00:00,27,1016.5,0.8,54,17,500,18.52,,,190,,,,,,,,,,,wg-a,,,,AAXX 04124 07690 12600 /1910 10270 20170 30135 40165 51008 60006 81100 91200=
07690,1998-07-04 15:00:00,26,1015.5,-1,54,16,50000,14.816,,,180,,,,,,,,,,,wg-a,,,,AAXX 04154 07690 12684 /1808 10260 20160 30125 40155 58010 60006 81100 91500=
07690,1998-07-04 18:00:00,27,1015.2,-0.3,45,14,50000,3.704,,,110,22.1,27.7,,,,,,,,,wg-a,,,,AAXX 04184 07690 12684 /1102 10270 20140 30122 40152 57003 60006 81130 91800 333 10277 20221=
07690,1998-07-04 21:00:00,22,1014.8,-0.4,53,12,500,11.112,,,320,,,,,,,,,,,wg-a,,,,AAXX 04214 07690 12/00 03206 10220 20120 30118 40148 56004 60006 80000 92100=
07690,1998-07-05 00:00:00,21,1014,-0.8,53,11,500,7.408,,,350,,,,,,,,,,,wg-a,,,,AAXX 05004 07690 12/00 03504 10210 20110 30110 40140 58008 60006 80000 90000=
07690,1998-07-05 03:00:00,21,1013.1,-0.9,53,11,500,3.704,,,340,,,,,,,,,,,wg-a,,,,AAXX 05034 07690 12600 13402 10210 20110 30101 40131 57009 60006 81100 90300=
07690,1998-07-05 06:00:00,21,1013.3,0.2,56,12,500,7.408,,,340,19.2,26.6,,,,,,,,,wg-a,,,,AAXX 05064 07690 02500 /3404 10210 20120 30103 40133 53002 60006 81500 90600 333 10266 20192 60004=
07690,1998-07-05 09:00:00,25,1014,0.7,61,17,500,14.816,,,110,,,,,,,,,,,wg-a,,,,AAXX 05094 07690 12700 /1108 10250 20170 30110 40140 52007 60006 81200 90900=
07690,1998-07-05 12:00:00,25,1013.9,-0.1,74,20,9000,11.112,,,110,,,,,,,,,,,wg-a,,,,AAXX 05124 07690 12659 /1106 10250 20200 30109 40139 58001 60006 81200 91200=
07690,1998-07-05 15:00:00,25,1012.9,-1,74,20,9000,11.112,,,160,,,,,,,,,,,wg-a,,,,AAXX 05154 07690 12659 /1606 10250 20200 30099 40129 56010 60006 81200 91500=
07690,1998-07-05 18:00:00,25,1011.7,-1.2,69,19,10000,7.408,,,110,21.2,25.9,,,,,,,,,wg-a,,,,AAXX 05184 07690 12/60 /1104 10250 20190 30087 40117 56012 60006 80000 91800 333 10259 20212=
07690,1998-07-05 21:00:00,23,1012.5,0.8,78,19,12000,7.408,,,60,,,,,,,,,,,wg-a,,,,AAXX 05214 07690 12/62 00604 10230 20190 30095 40125 53008 60006 80000 92100=
07690,1998-07-06 00:00:00,23,1012.5,0,83,20,20000,18.52,,,70,,,,,,,,,,,wg-a,,,,AAXX 06004 07690 12/70 00710 10230 20200 30095 40125 50000 60006 80000 90000=
07690,1998-07-06 03:00:00,20,1011.9,-0.6,78,16,20000,7.408,,,20,,,,,,,,,,,wg-a,,,,AAXX 06034 07690 12/70 00204 10200 20160 30089 40119 58006 60006 80000 90300=
07690,1998-07-06 06:00:00,23,1012,0.1,78,19,20000,18.52,,,60,18.7,25,,,,,,,,,wg-a,,,,AAXX 06064 07690 02470 30610 10230 20190 30090 40120 53001 60006 83500 90600 333 10250 20187 60004=
07690,1998-07-06 12:00:00,25,1012.2,-0.4,74,20,10000,22.224,,,100,,,,,,,,,,,wg-a,,,,AAXX 06124 07690 12560 /1012 10250 20200 30092 40122 58004 60006 81100 91200=
07690,1998-07-06 15:00:00,25,1011.3,-0.9,74,20,7000,14.816,,,140,,,,,,,,,,,wg-a,,,,AAXX 06154 07690 12457 61408 10250 20200 30083 40113 56009 60006 86800 91500=
07690,1998-07-06 18:00:00,22,1010.2,-1.1,88,20,9000,7.408,,,180,22.3,25.5,,,,,,,,,wg-a,,,,AAXX 06184 07690 12459 41804 10220 20200 30072 40102 55011 60006 84800 91800 333 10255 20223=
07690,1998-07-06 21:00:00,21,1010.5,0.3,88,19,9000,0,,,0,,,,,,,,,,,wg-a,,,,AAXX 06214 07690 12459 20000 10210 20190 30075 40105 53003 60006 82500 92100=
07690,1998-07-07 00:00:00,21,1009.8,-0.7,88,19,10000,3.704,,,330,,,,,,,,,,,wg-a,,,,AAXX 07004 07690 12560 23302 10210 20190 30068 40098 58007 60006 82500 90000=
07690,1998-07-07 03:00:00,20,1009.1,-0.7,94,19,10000,7.408,,,240,,,,,,,,,,,wg-a,,,,AAXX 07034 07690 12560 /2404 10200 20190 30061 40091 55007 60006 85502 90300=
07690,1998-07-07 06:00:00,21,1008.8,-0.3,88,19,500,0,,,0,20,22.4,,,,,,,,,wg-a,,,,AAXX 07064 07690 02400 /0000 10210 20190 30058 40088 55003 60006 82582 90600 333 10224 20200 60004=
07690,1998-07-07 09:00:00,24,1007.6,-1.2,78,20,8000,7.408,,,130,,,,,,,,,,,wg-a,,,,AAXX 07094 07690 12458 51304 10240 20200 30046 40076 56012 60006 82581 90900=
07690,1998-07-07 12:00:00,25,1006,-1.6,74,20,15000,11.112,,,150,,,,,,,,,,,wg-a,,,,AAXX 07124 07690 12465 21506 10250 20200 30030 40060 58016 60006 82300 91200=
07690,1998-07-07 15:00:00,23,1004.6,-1.4,78,19,8000,0,,,0,,,,,,,,,,13,wg-a,,,,AAXX 07154 07690 12458 /0000 10230 20190 30016 40046 55014 60006 71311 82980 91500=
07690,1998-07-07 18:00:00,24,1002.4,-2.2,74,19,15000,11.112,,,190,21,25.3,,,,,,,,1,wg-a,,,,AAXX 07184 07690 02565 31906 10240 20190 39994 40024 56022 60006 70186 81181 91800 333 10253 20210 61000=
07690,1998-07-07 21:00:00,22,1001.7,-0.7,83,19,20000,11.112,,,50,,,,,,,,,,,wg-a,,,,AAXX 07214 07690 12/70 /0506 10220 20190 39987 40017 58007 60006 80000 92100=
07690,1998-07-08 00:00:00,20,1001.9,0.2,83,17,20000,7.408,,,310,,,,,,,,,,,wg-a,,,,AAXX 08004 07690 12/70 /3104 10200 20170 39989 40019 50002 60006 80000 90000=
07690,1998-07-08 03:00:00,18,1001,-0.9,88,16,20000,11.112,,,300,,,,,,,,,,,wg-a,,,,AAXX 08034 07690 12/70 13006 10180 20160 39980 40010 56009 60006 81030 90300=
07690,1998-07-08 06:00:00,22,1002.5,1.5,78,18,15000,11.112,,,60,17.7,23.7,,,,,,,,,wg-a,,,,AAXX 08064 07690 02/65 10606 10220 20180 39995 40025 53015 60006 81030 90600 333 10237 20177 61000=
07690,1998-07-08 09:00:00,25,1004.9,2.4,74,20,18000,11.112,,,180,,,,,,,,,,,wg-a,,,,AAXX 08094 07690 12568 /1806 10250 20200 30019 40049 52024 60006 81200 90900=
07690,1998-07-08 12:00:00,26,1006.2,1.3,54,16,25000,25.928,,,200,,,,,,,,,,,wg-a,,,,AAXX 08124 07690 12675 /2014 10260 20160 30032 40062 51013 60006 81200 91200=
07690,1998-07-08 15:00:00,26,1005.9,-0.3,48,14,35000,11.112,,,170,,,,,,,,,,,wg-a,,,,AAXX 08154 07690 12681 /1706 10260 20140 30029 40059 56003 60006 81200 91500=
07690,1998-07-08 18:00:00,26,1005.1,-0.8,42,12,35000,22.224,,,70,22.4,27.1,,,,,,,,,wg-a,,,,AAXX 08184 07690 12681 /0712 10260 20120 30021 40051 56008 60006 81200 91800 333 10271 20224=
07690,1998-07-08 21:00:00,21,1007.2,2.1,56,12,500,7.408,,,340,,,,,,,,,,,wg-a,,,,AAXX 08214 07690 12/00 03404 10210 20120 30042 40072 53021 60006 80000 92100=
07690,1998-07-09 00:00:00,20,1008.8,1.6,60,12,20000,14.816,,,340,,,,,,,,,,,wg-a,,,,AAXX 09004 07690 12/70 03408 10200 20120 30058 40088 51016 60006 80000 90000=
07690,1998-07-09 03:00:00,19,1009.8,1,64,12,20000,14.816,,,340,,,,,,,,,,,wg-a,,,,AAXX 09034 07690 12/70 03408 10190 20120 30068 40098 51010 60006 80000 90300=
07690,1998-07-09 06:00:00,21,1011,1.2,49,10,40000,18.52,,,340,18.7,25.9,,,,,,,,,wg-a,,,,AAXX 09064 07690 02/82 13410 10210 20100 30080 40110 53012 60006 81030 90600 333 10259 20187 60004=
07690,1998-07-09 09:00:00,25,1012.3,1.3,39,10,40000,14.816,,,190,,,,,,,,,,,wg-a,,,,AAXX 09094 07690 12/82 11908 10250 20100 30093 40123 53013 60006 80002 90900=
07690,1998-07-09 12:00:00,26,1013,0.7,39,11,40000,14.816,,,140,,,,,,,,,,,wg-a,,,,AAXX 09124 07690 12682 /1408 10260 20110 30100 40130 51007 60006 81202 91200=
07690,1998-07-09 15:00:00,25,1012.6,-0.4,54,15,40000,11.112,,,140,,,,,,,,,,,wg-a,,,,AAXX 09154 07690 12682 /1406 10250 20150 30096 40126 58004 60006 81202 91500=
07690,1998-07-09 18:00:00,24,1012.1,-0.5,65,17,500,14.816,,,200,20.6,26.6,,,,,,,,,wg-a,,,,AAXX 09184 07690 12/00 12008 10240 20170 30091 40121 56005 60006 80002 91800 333 10266 20206=
07690,1998-07-09 21:00:00,21,1012.9,0.8,69,15,20000,0,,,0,,,,,,,,,,,wg-a,,,,AAXX 09214 07690 12/70 00000 10210 20150 30099 40129 53008 60006 80000 92100=
07690,1998-07-10 00:00:00,20,1012.7,-0.2,78,16,20000,7.408,,,340,,,,,,,,,,,wg-a,,,,AAXX 10004 07690 12/70 03404 10200 20160 30097 40127 57002 60006 80000 90000=
07690,1998-07-10 03:00:00,19,1012.4,-0.4,73,14,500,11.112,,,340,,,,,,,,,,,wg-a,,,,AAXX 10034 07690 12400 /3406 10190 20140 30093 40124 56004 60006 81500 90300=
07690,1998-07-10 06:00:00,20,1012.9,0.6,68,14,500,11.112,,,340,18.5,23.9,,,,,,,,,wg-a,,,,AAXX 10064 07690 02500 33406 10200 20140 30099 40129 53006 60006 83100 90600 333 10239 20185 60004=
07690,1998-07-10 09:00:00,24,1013.4,0.5,69,18,20000,22.224,,,110,,,,,,,,,,,wg-a,,,,AAXX 10094 07690 12470 /1112 10240 20180 30104 40134 53005 60006 81100 90900=
07690,1998-07-10 12:00:00,24,1013.9,0.5,74,19,12000,14.816,,,120,,,,,,,,,,,wg-a,,,,AAXX 10124 07690 12462 41208 10240 20190 30109 40139 50005 60006 84800 91200=
07690,1998-07-10 15:00:00,25,1013.6,-0.3,65,18,10000,25.928,,,100,,,,,,,,,,,wg-a,,,,AAXX 10154 07690 12460 /1014 10250 20180 30106 40136 55003 60006 81200 91500=
07690,1998-07-10 18:00:00,23,1013,-0.6,78,19,8000,22.224,,,100,19.9,25,,,,,,,,,wg-a,,,,AAXX 10184 07690 12458 /1012 10230 20190 30100 40130 56006 60006 81100 91800 333 10250 20199=
07690,1998-07-10 21:00:00,22,1013.5,0.5,83,19,11000,18.52,,,90,,,,,,,,,,,wg-a,,,,AAXX 10214 07690 12461 30910 10220 20190 30105 40135 53005 60006 83800 92100=
07690,1998-07-11 00:00:00,22,1013.3,-0.2,83,19,11000,11.112,,,110,,,,,,,,,,,wg-a,,,,AAXX 11004 07690 12461 /1106 10220 20190 30103 40133 58002 60006 85800 90000=
07690,1998-07-11 03:00:00,21,1012.5,-0.8,88,19,12000,0,,,0,,,,,,,,,,,wg-a,,,,AAXX 11034 07690 12462 70000 10210 20190 30095 40125 57008 60006 878// 90300=
07690,1998-07-11 06:00:00,21,1013.2,0.7,88,19,9000,3.704,,,290,19.9,23.2,,,,,,,,,wg-a,,,,AAXX 11064 07690 02459 /2902 10210 20190 30102 40132 51007 60006 84801 90600 333 10232 20199 60004=
07690,1998-07-11 09:00:00,24,1013.3,0.1,74,19,9000,11.112,,,150,,,,,,,,,,,wg-a,,,,AAXX 11094 07690 12459 51506 10240 20190 30103 40133 50001 60006 82231 90900=
07690,1998-07-11 12:00:00,25,1013.3,0,69,19,9000,11.112,,,120,,,,,,,,,,,wg-a,,,,AAXX 11124 07690 12559 71206 10250 20190 30103 40133 50000 60006 81232 91200=
07690,1998-07-11 15:00:00,25,1012.9,-0.4,65,18,12000,11.112,,,140,,,,,,,,,,,wg-a,,,,AAXX 11154 07690 12562 71406 10250 20180 30099 40129 57004 60006 81132 91500=
07690,1998-07-11 18:00:00,24,1012.6,-0.3,74,19,8000,7.408,,,110,21.1,25.7,,,,,,,,,wg-a,,,,AAXX 11184 07690 12558 /1104 10240 20190 30096 40126 57003 60006 81102 91800 333 10257 20211=
07690,1998-07-11 21:00:00,23,1013.2,0.6,78,19,12000,7.408,,,80,,,,,,,,,,,wg-a,,,,AAXX 11214 07690 12/62 20804 10230 20190 30102 40132 51006 60006 80002 92100=
07690,1998-07-12 00:00:00,20,1013.3,0.1,88,18,12000,11.112,,,330,,,,,,,,,,,wg-a,,,,AAXX 12004 07690 12462 43306 10200 20180 30103 40133 50001 60006 84500 90000=
07690,1998-07-12 03:00:00,19,1012.5,-0.8,88,17,12000,14.816,,,320,,,,,,,,,,,wg-a,,,,AAXX 12034 07690 12/62 03208 10190 20170 30095 40125 56008 60006 80000 90300=
07690,1998-07-12 06:00:00,20,1013.1,0.6,88,18,9000,11.112,,,330,18.9,24,,,,,,,,,wg-a,,,,AAXX 12064 07690 02459 73306 10200 20180 30101 40131 52006 60006 875// 90600 333 10240 20189 60004=
07690,1998-07-12 09:00:00,24,1013.8,0.7,78,20,11000,18.52,,,90,,,,,,,,,,,wg-a,,,,AAXX 12094 07690 12461 /0910 10240 20200 30108 40138 51007 60006 85800 90900=
07690,1998-07-12 12:00:00,25,1014,0.2,74,20,15000,18.52,,,110,,,,,,,,,,,wg-a,,,,AAXX 12124 07690 12565 21110 10250 20200 30110 40140 50002 60006 82501 91200=
07690,1998-07-12 15:00:00,24,1014.1,0.1,74,19,18000,22.224,,,100,,,,,,,,,,,wg-a,,,,AAXX 12154 07690 12568 51012 10240 20190 30111 40141 52001 60006 85801 91500=
07690,1998-07-12 18:00:00,23,1013.7,-0.4,78,19,20000,7.408,,,120,19.9,25.7,,,,,,,,,wg-a,,,,AAXX 12184 07690 12470 51204 10230 20190 30107 40137 58004 60006 85500 91800 333 10257 20199=
07690,1998-07-12 21:00:00,23,1014.3,0.6,78,19,20000,7.408,,,120,,,,,,,,,,,wg-a,,,,AAXX 12214 07690 12470 71204 10230 20190 30113 40143 53006 60006 875// 92100=
07690,1998-07-13 00:00:00,23,1014.3,0,78,19,20000,7.408,,,120,,,,,,,,,,,wg-a,,,,AAXX 13004 07690 12470 71204 10230 20190 30113 40143 50000 60006 875// 90000=
07690,1998-07-13 06:00:00,23,1014.2,0.6,83,20,12000,14.816,,,100,22,23.1,,,,,,,,,wg-a,,,,AAXX 13064 07690 02462 71008 10230 20200 30112 40142 53006 60006 875// 90600 333 10231 20220 60004=
07690,1998-07-13 09:00:00,25,1014.3,0.1,74,20,10000,18.52,,,100,,,,,,,,,,,wg-a,,,,AAXX 13094 07690 12460 /1010 10250 20200 30113 40143 52001 60006 86500 90900=
07690,1998-07-13 12:00:00,24,1013.5,-0.8,74,19,10000,14.816,,,100,,,,,,,,,,,wg-a,,,,AAXX 13124 07690 12460 /1008 10240 20190 30105 40135 58008 60006 86500 91200=
07690,1998-07-13 15:00:00,24,1012.5,-1,74,19,10000,7.408,,,150,,,,,,,,,,,wg-a,,,,AAXX 13154 07690 12460 71504 10240 20190 30095 40125 57010 60006 875// 91500=
07690,1998-07-13 18:00:00,23,1011.1,-1.4,83,20,12000,7.408,,,200,22.9,25.2,,,,,,,,,wg-a,,,,AAXX 13184 07690 12462 72004 10230 20200 30081 40111 57014 60006 875// 91800 333 10252 20229=
07690,1998-07-13 21:00:00,23,1010.4,-0.7,83,20,12000,7.408,,,180,,,,,,,,,,,wg-a,,,,AAXX 13214 07690 12462 71804 10230 20200 30074 40104 58007 60006 878// 92100=
07690,1998-07-14 00:00:00,21,1008.6,-1.8,88,19,12000,3.704,,,310,,,,,,,,,,,wg-a,,,,AAXX 14004 07690 12562 63102 10210 20190 30056 40086 58018 60006 82531 90000=
07690,1998-07-14 03:00:00,20,1008.5,-0.1,94,19,12000,7.408,,,260,,,,,,,,,,,wg-a,,,,AAXX 14034 07690 12462 72604 10200 20190 30055 40085 55001 60006 8357/ 90300=
07690,1998-07-14 06:00:00,21,1007.4,-1.1,88,19,9000,3.704,,,280,20.4,23.1,,,,,,,,,wg-a,,,,AAXX 14064 07690 02459 72802 10210 20190 30044 40074 56011 60006 83872 90600 333 10231 20204 60004=
07690,1998-07-14 09:00:00,24,1006.3,-1.1,74,19,12000,11.112,,,170,,,,,,,,,,,wg-a,,,,AAXX 14094 07690 12562 /1706 10240 20190 30033 40063 58011 60006 82232 90900=
07690,1998-07-14 12:00:00,27,1005.3,-0.9,54,17,20000,25.928,,,80,,,,,,,,,,,wg-a,,,,AAXX 14124 07690 12670 30814 10270 20170 30024 40053 58009 60006 82202 91200=
07690,1998-07-14 15:00:00,26,1004.2,-1.1,65,19,40000,35.188,,,100,,,,,,,,,,,wg-a,,,,AAXX 14154 07690 12682 21019 10260 20190 30013 40042 56011 60006 82301 91500=
07690,1998-07-14 18:00:00,25,1005.8,1.5,74,20,20000,35.188,,,80,21.1,27.3,,,,,,,,,wg-a,,,,AAXX 14184 07690 12670 20819 10250 20200 30028 40058 53015 60006 82900 91800 333 10273 20211=
07690,1998-07-14 21:00:00,23,1007.2,1.4,78,19,15000,29.632,,,80,,,,,,,,,,,wg-a,,,,AAXX 14214 07690 12565 20816 10230 20190 30042 40072 51014 60006 82500 92100=
07690,1998-07-15 00:00:00,23,1009,1.8,73,18,15000,18.52,,,90,,,,,,,,,,,wg-a,,,,AAXX 15004 07690 12565 /0910 10230 20180 30060 40090 51018 60006 81500 90000=
07690,1998-07-15 03:00:00,21,1009.9,0.9,83,18,15000,11.112,,,330,,,,,,,,,,,wg-a,,,,AAXX 15034 07690 12565 53306 10210 20180 30069 40099 53009 60006 85500 90300=
07690,1998-07-15 06:00:00,22,1011.4,1.5,69,16,15000,7.408,,,340,20.9,24.7,,,,,,,,,wg-a,,,,AAXX 15064 07690 02465 23404 10220 20160 30084 40114 53015 60006 81801 90600 333 10247 20209 60004=
07690,1998-07-15 09:00:00,24,1012.4,1,65,17,20000,14.816,,,180,,,,,,,,,,,wg-a,,,,AAXX 15094 07690 12570 /1808 10240 20170 30094 40124 51010 60006 81200 90900=
07690,1998-07-15 12:00:00,25,1013.2,0.8,61,17,20000,14.816,,,180,,,,,,,,,,,wg-a,,,,AAXX 15124 07690 12670 /1808 10250 20170 30102 40132 51008 60006 81200 91200=
07690,1998-07-15 15:00:00,25,1013.2,-0,57,16,25000,14.816,,,180,,,,,,,,,,,wg-a,,,,AAXX 15154 07690 12675 21808 10250 20160 30102 40132 55000 60006 81880 91500=
07690,1998-07-15 18:00:00,24,1013.3,0.1,65,17,500,7.408,,,200,21.5,25.7,,,,,,,,,wg-a,,,,AAXX 15184 07690 12500 32004 10240 20170 30103 40133 53001 60006 81801 91800 333 10257 20215=
07690,1998-07-15 21:00:00,21,1014.5,1.2,73,16,20000,11.112,,,330,,,,,,,,,,,wg-a,,,,AAXX 15214 07690 12570 23306 10210 20160 30115 40145 52012 60006 81501 92100=
07690,1998-07-16 00:00:00,20,1015.2,0.7,68,14,20000,14.816,,,340,,,,,,,,,,,wg-a,,,,AAXX 16004 07690 12/70 03408 10200 20140 30122 40152 53007 60006 80000 90000=
07690,1998-07-16 03:00:00,19,1014.6,-0.7,73,14,25000,14.816,,,350,,,,,,,,,,,wg-a,,,,AAXX 16034 07690 12/75 03508 10190 20140 30115 40146 56007 60006 80000 90300=
07690,1998-07-16 06:00:00,21,1015.7,1.2,64,14,40000,11.112,,,340,18.9,24,,,,,,,,,wg-a,,,,AAXX 16064 07690 02482 13406 10210 20140 30127 40157 53012 60006 81500 90600 333 10240 20189 60004=
07690,1998-07-16 09:00:00,24,1015.8,0.1,74,19,40000,11.112,,,140,,,,,,,,,,,wg-a,,,,AAXX 16094 07690 12782 /1406 10240 20190 30128 40158 51001 60006 81500 90900=
07690,1998-07-16 12:00:00,25,1015.8,0,65,18,40000,14.816,,,150,,,,,,,,,,,wg-a,,,,AAXX 16124 07690 12682 /1508 10250 20180 30128 40158 50000 60006 81100 91200=
07690,1998-07-16 15:00:00,25,1014.3,-1.5,61,17,500,14.816,,,90,,,,,,,,,,,wg-a,,,,AAXX 16154 07690 12700 /0908 10250 20170 30113 40143 58015 60006 81200 91500=
07690,1998-07-16 18:00:00,24,1012.9,-1.4,65,17,500,14.816,,,90,21.1,25.7,,,,,,,,,wg-a,,,,AAXX 16184 07690 12/00 /0908 10240 20170 30099 40129 56014 60006 80000 91800 333 10257 20211=
07690,1998-07-16 21:00:00,23,1013.6,0.7,78,19,20000,22.224,,,80,,,,,,,,,,,wg-a,,,,AAXX 16214 07690 12/70 00812 10230 20190 30106 40136 53007 60006 80000 92100=
07690,1998-07-17 03:00:00,18,1013.9,-0.3,77,14,11000,18.52,,,320,,,,,,,,,,,wg-a,,,,AAXX 17034 07690 12/61 /3210 10180 20140 30108 40139 57003 60006 90300=
07690,1998-07-17 06:00:00,20,1014.6,0.8,73,15,10000,14.816,,,330,18,24.4,,,,,,,,,wg-a,,,,AAXX 17064 07690 02460 53308 10200 20150 30116 40146 53008 60006 85800 90600 333 10244 20180 60004=
07690,1998-07-17 09:00:00,24,1014.9,0.3,69,18,15000,11.112,,,210,,,,,,,,,,,wg-a,,,,AAXX 17094 07690 12565 22106 10240 20180 30119 40149 51003 60006 82500 90900=
07690,1998-07-17 12:00:00,25,1014.9,-0,65,18,12000,18.52,,,140,,,,,,,,,,,wg-a,,,,AAXX 17124 07690 12662 /1410 10250 20180 30119 40149 54000 60006 81100 91200=
07690,1998-07-17 15:00:00,25,1015,0.1,65,18,10000,11.112,,,120,,,,,,,,,,,wg-a,,,,AAXX 17154 07690 12660 /1206 10250 20180 30120 40150 50001 60006 81100 91500=
07690,1998-07-17 18:00:00,24,1014.6,-0.4,69,18,13000,7.408,,,120,19.9,25.7,,,,,,,,,wg-a,,,,AAXX 17184 07690 12/63 01204 10240 20180 30116 40146 56004 60006 80000 91800 333 10257 20199=
07690,1998-07-17 21:00:00,23,1015.6,1,78,19,13000,7.408,,,80,,,,,,,,,,,wg-a,,,,AAXX 17214 07690 12/63 00804 10230 20190 30126 40156 53010 60006 80000 92100=
07690,1998-07-18 00:00:00,20,1015.6,0,83,17,13000,11.112,,,330,,,,,,,,,,,wg-a,,,,AAXX 18004 07690 12/63 03306 10200 20170 30126 40156 50000 60006 80000 90000=
07690,1998-07-18 03:00:00,19,1015,-0.7,83,16,15000,14.816,,,340,,,,,,,,,,,wg-a,,,,AAXX 18034 07690 12/65 03408 10190 20160 30119 40150 56007 60006 80000 90300=
07690,1998-07-18 06:00:00,20,1016.1,1.1,78,16,12000,18.52,,,330,18.5,24.2,,,,,,,,,wg-a,,,,AAXX 18064 07690 02462 53310 10200 20160 30130 40161 52011 60006 85800 90600 333 10242 20185 60004=
07690,1998-07-18 09:00:00,24,1016.6,0.6,74,19,9000,14.816,,,150,,,,,,,,,,,wg-a,,,,AAXX 18094 07690 12459 71508 10240 20190 30136 40166 53006 60006 878// 90900=
07690,1998-07-18 12:00:00,25,1016.7,0.1,69,19,7000,14.816,,,120,,,,,,,,,,,wg-a,,,,AAXX 18124 07690 12457 71208 10250 20190 30137 40167 50001 60006 878// 91200=
07690,1998-07-18 15:00:00,25,1016.3,-0.4,74,20,9000,11.112,,,150,,,,,,,,,,,wg-a,,,,AAXX 18154 07690 12459 /1506 10250 20200 30133 40163 56004 60006 86800 91500=
07690,1998-07-18 18:00:00,23,1016.1,-0.2,83,20,9000,3.704,,,150,19.6,25.5,,,,,,,,,wg-a,,,,AAXX 18184 07690 12459 /1502 10230 20200 30131 40161 55002 60006 86800 91800 333 10255 20196=
07690,1998-07-18 21:00:00,23,1017.3,1.2,83,20,15000,0,,,0,,,,,,,,,,,wg-a,,,,AAXX 18214 07690 12565 70000 10230 20200 30143 40173 53012 60006 875// 92100=
07690,1998-07-19 03:00:00,22,1016.6,-0.5,88,20,12000,0,,,0,,,,,,,,,,,wg-a,,,,AAXX 19034 07690 12462 70000 10220 20200 30136 40166 55005 60006 875// 90300=
07690,1998-07-19 06:00:00,22,1017.5,0.9,83,19,10000,3.704,,,90,21.3,23.4,,,,,,,,,wg-a,,,,AAXX 19064 07690 02460 /0902 10220 20190 30145 40175 51009 60006 86500 90600 333 10234 20213 60004=
07690,1998-07-19 09:00:00,25,1018.6,1.1,74,20,9000,11.112,,,130,,,,,,,,,,,wg-a,,,,AAXX 19094 07690 12459 /1306 10250 20200 30156 40186 53011 60006 86500 90900=
07690,1998-07-19 12:00:00,26,1018.6,-0,70,20,8000,18.52,,,130,,,,,,,,,,,wg-a,,,,AAXX 19124 07690 12558 51310 10260 20200 30156 40186 54000 60006 85500 91200=
07690,1998-07-19 15:00:00,25,1018.2,-0.4,74,20,9000,11.112,,,140,,,,,,,,,,,wg-a,,,,AAXX 19154 07690 12559 61406 10250 20200 30152 40182 56004 60006 86500 91500=
07690,1998-07-19 18:00:00,24,1017.8,-0.4,78,20,9000,3.704,,,160,22.1,26.3,,,,,,,,,wg-a,,,,AAXX 19184 07690 12559 21602 10240 20200 30148 40178 57004 60006 82500 91800 333 10263 20221=
07690,1998-07-19 21:00:00,22,1018.5,0.7,83,19,10000,7.408,,,320,,,,,,,,,,,wg-a,,,,AAXX 19214 07690 12560 /3204 10220 20190 30155 40185 51007 60006 81500 92100=
07690,1998-07-20 00:00:00,21,1019.1,0.6,88,19,10000,11.112,,,320,,,,,,,,,,,wg-a,,,,AAXX 20004 07690 12560 /3206 10210 20190 30161 40191 50006 60006 81500 90000=
07690,1998-07-20 03:00:00,20,1018.5,-0.7,94,19,10000,7.408,,,340,,,,,,,,,,,wg-a,,,,AAXX 20034 07690 12/60 03404 10200 20190 30154 40185 56007 60006 80000 90300=
07690,1998-07-20 06:00:00,22,1018.7,0.3,83,19,8000,11.112,,,330,19.9,23.6,,,,,,,,,wg-a,,,,AAXX 20064 07690 02/58 03306 10220 20190 30157 40187 53003 60006 80000 90600 333 10236 20199 60004=
07690,1998-07-20 09:00:00,26,1018.2,-0.5,74,21,8000,11.112,,,140,,,,,,,,,,,wg-a,,,,AAXX 20094 07690 12/58 01406 10260 20210 30152 40182 58005 60006 80000 90900=
07690,1998-07-20 12:00:00,28,1017.7,-0.5,55,18,8000,7.408,,,130,,,,,,,,,,,wg-a,,,,AAXX 20124 07690 12/58 01304 10280 20180 30147 40177 58005 60006 80000 91200=
07690,1998-07-20 15:00:00,30,1016.4,-1.2,66,23,12000,7.408,,,180,,,,,,,,,,,wg-a,,,,AAXX 20154 07690 12662 /1804 10300 20230 30135 40164 56012 60006 81200 91500=
07690,1998-07-20 18:00:00,28,1015.4,-1.1,42,14,15000,3.704,,,140,22.4,29.5,,,,,,,,,wg-a,,,,AAXX 20184 07690 12/65 /1402 10280 20140 30124 40154 57011 60006 80000 91800 333 10295 20224=
07690,1998-07-20 21:00:00,24,1015.4,-0,69,18,20000,7.408,,,340,,,,,,,,,,,wg-a,,,,AAXX 20214 07690 12/70 03404 10240 20180 30124 40154 54000 60006 80000 92100=
07690,1998-07-21 00:00:00,23,1014.7,-0.7,73,18,20000,14.816,,,330,,,,,,,,,,,wg-a,,,,AAXX 21004 07690 12/70 03308 10230 20180 30117 40147 58007 60006 80000 90000=
07690,1998-07-21 03:00:00,23,1014,-0.7,61,15,20000,14.816,,,330,,,,,,,,,,,wg-a,,,,AAXX 21034 07690 12/70 03308 10230 20150 30110 40140 56007 60006 80000 90300=
07690,1998-07-21 06:00:00,24,1014.1,0.1,54,14,20000,14.816,,,340,22.7,28.2,,,,,,,,,wg-a,,,,AAXX 21064 07690 02/70 03408 10240 20140 30111 40141 50001 60006 80000 90600 333 10282 20227 60004=
07690,1998-07-21 09:00:00,28,1014.7,0.6,58,19,15000,7.408,,,130,,,,,,,,,,,wg-a,,,,AAXX 21094 07690 12/65 01304 10280 20190 30117 40147 53006 60006 80000 90900=
07690,1998-07-21 12:00:00,28,1014.9,0.2,62,20,25000,7.408,,,140,,,,,,,,,,,wg-a,,,,AAXX 21124 07690 12675 /1404 10280 20200 30119 40149 51002 60006 81200 91200=
07690,1998-07-21 15:00:00,29,1013.8,-1.1,55,19,25000,22.224,,,110,,,,,,,,,,,wg-a,,,,AAXX 21154 07690 12675 /1112 10290 20190 30108 40138 56011 60006 81200 91500=
07690,1998-07-21 18:00:00,26,1013.7,-0.1,79,22,10000,3.704,,,160,23.8,29.2,,,,,,,,,wg-a,,,,AAXX 21184 07690 12660 21602 10260 20220 30107 40137 55001 60006 81102 91800 333 10292 20238=
07690,1998-07-21 21:00:00,24,1014.3,0.6,89,22,15000,7.408,,,60,,,,,,,,,,,wg-a,,,,AAXX 21214 07690 12665 20604 10240 20220 30113 40143 53006 60006 81402 92100=
07690,1998-07-22 00:00:00,22,1014.4,0.1,78,18,15000,11.112,,,330,,,,,,,,,,,wg-a,,,,AAXX 22004 07690 12/65 13306 10220 20180 30114 40144 53001 60006 80002 90000=
07690,1998-07-22 03:00:00,21,1014.3,-0.1,73,16,15000,7.408,,,330,,,,,,,,,,,wg-a,,,,AAXX 22034 07690 12/65 33304 10210 20160 30113 40143 55001 60006 80002 90300=
07690,1998-07-22 06:00:00,23,1014.8,0.5,53,13,20000,14.816,,,330,20.7,25.7,,,,,,,,,wg-a,,,,AAXX 22064 07690 02/70 13308 10230 20130 30118 40148 51005 60006 80002 90600 333 10257 20207 60004=
07690,1998-07-22 09:00:00,27,1015.5,0.7,58,18,20000,11.112,,,180,,,,,,,,,,,wg-a,,,,AAXX 22094 07690 12/70 11806 10270 20180 30125 40155 51007 60006 80001 90900=
07690,1998-07-22 12:00:00,27,1015.7,0.2,70,21,15000,18.52,,,100,,,,,,,,,,,wg-a,,,,AAXX 22124 07690 12665 /1010 10270 20210 30127 40157 52002 60006 81201 91200=
07690,1998-07-22 15:00:00,27,1015.3,-0.4,70,21,12000,14.816,,,110,,,,,,,,,,,wg-a,,,,AAXX 22154 07690 12662 /1108 10270 20210 30123 40153 56004 60006 81200 91500=
07690,1998-07-22 18:00:00,26,1015.3,-0,70,20,15000,7.408,,,120,23.4,28.6,,,,,,,,,wg-a,,,,AAXX 22184 07690 12/65 /1204 10260 20200 30123 40153 55000 60006 80000 91800 333 10286 20234=
07690,1998-07-22 21:00:00,23,1015.7,0.4,83,20,12000,7.408,,,310,,,,,,,,,,,wg-a,,,,AAXX 22214 07690 12/62 03104 10230 20200 30127 40157 52004 60006 80000 92100=
07690,1998-07-23 00:00:00,22,1015.3,-0.4,83,19,12000,11.112,,,320,,,,,,,,,,,wg-a,,,,AAXX 23004 07690 12462 /3206 10220 20190 30123 40153 55004 60006 81500 90000=
07690,1998-07-23 03:00:00,23,1014.7,-0.6,65,16,12000,7.408,,,340,,,,,,,,,,,wg-a,,,,AAXX 23034 07690 12/62 03404 10230 20160 30117 40147 56006 60006 80000 90300=
07690,1998-07-23 06:00:00,24,1015.3,0.6,57,15,15000,11.112,,,340,21.6,26.2,,,,,,,,,wg-a,,,,AAXX 23064 07690 02/65 /3406 10240 20150 30123 40153 51006 60006 80001 90600 333 10262 20216 60004=
07690,1998-07-23 09:00:00,29,1015.3,-0,52,18,15000,11.112,,,140,,,,,,,,,,,wg-a,,,,AAXX 23094 07690 12565 11406 10290 20180 30123 40153 55000 60006 81100 90900=
07690,1998-07-23 12:00:00,28,1015,-0.3,66,21,15000,11.112,,,160,,,,,,,,,,,wg-a,,,,AAXX 23124 07690 12565 /1606 10280 20210 30120 40150 58003 60006 81200 91200=
07690,1998-07-23 15:00:00,29,1014.6,-0.3,62,21,12000,11.112,,,180,,,,,,,,,,,wg-a,,,,AAXX 23154 07690 12662 /1806 10290 20210 30117 40146 56003 60006 81200 91500=
07690,1998-07-23 18:00:00,27,1014.1,-0.6,74,22,9000,7.408,,,130,24,28.9,,,,,,,,,wg-a,,,,AAXX 23184 07690 12/59 01304 10270 20220 30111 40141 56006 60006 80000 91800 333 10289 20240=
07690,1998-07-23 21:00:00,25,1014.3,0.2,83,22,10000,3.704,,,100,,,,,,,,,,,wg-a,,,,AAXX 23214 07690 12460 /1002 10250 20220 30113 40143 52002 60006 81500 92100=
07690,1998-07-24 00:00:00,23,1013.9,-0.4,83,20,9000,3.704,,,50,,,,,,,,,,,wg-a,,,,AAXX 24004 07690 12459 /0502 10230 20200 30109 40139 55004 60006 81500 90000=
07690,1998-07-24 03:00:00,21,1013.5,-0.4,83,18,10000,11.112,,,320,,,,,,,,,,,wg-a,,,,AAXX 24034 07690 12360 43206 10210 20180 30105 40135 55004 60006 84500 90300=
07690,1998-07-24 06:00:00,22,1014.2,0.7,69,16,9000,14.816,,,330,20.6,26.8,,,,,,,,,wg-a,,,,AAXX 24064 07690 02359 23308 10220 20160 30112 40142 53007 60006 82600 90600 333 10268 20206 60004=
07690,1998-07-24 09:00:00,26,1014.2,-0,79,22,9000,14.816,,,160,,,,,,,,,,,wg-a,,,,AAXX 24094 07690 12/59 01608 10260 20220 30112 40142 55000 60006 80000 90900=
07690,1998-07-24 12:00:00,28,1014.3,0.1,70,22,9000,14.816,,,140,,,,,,,,,,,wg-a,,,,AAXX 24124 07690 12459 /1408 10280 20220 30113 40143 51001 60006 81100 91200=
07690,1998-07-24 15:00:00,27,1013.7,-0.6,79,23,9000,7.408,,,140,,,,,,,,,,,wg-a,,,,AAXX 24154 07690 12/59 01404 10270 20230 30107 40137 58006 60006 80000 91500=
07690,1998-07-24 18:00:00,27,1013,-0.7,70,21,10000,7.408,,,90,22,28,,,,,,,,,wg-a,,,,AAXX 24184 07690 12/60 00904 10270 20210 30100 40130 57007 60006 80000 91800 333 10280 20220=
07690,1998-07-24 21:00:00,26,1013.8,0.8,79,22,15000,11.112,,,80,,,,,,,,,,,wg-a,,,,AAXX 24214 07690 12/65 00806 10260 20220 30108 40138 53008 60006 80000 92100=
07690,1998-07-25 00:00:00,22,1013.6,-0.2,83,19,15000,14.816,,,330,,,,,,,,,,,wg-a,,,,AAXX 25004 07690 12/65 03308 10220 20190 30106 40136 58002 60006 80000 90000=
07690,1998-07-25 03:00:00,21,1013.2,-0.4,78,17,15000,11.112,,,330,,,,,,,,,,,wg-a,,,,AAXX 25034 07690 12/65 03306 10210 20170 30102 40132 56004 60006 80000 90300=
07690,1998-07-25 06:00:00,22,1013.4,0.2,73,17,9000,14.816,,,330,20.7,26.7,,,,,,,,,wg-a,,,,AAXX 25064 07690 02459 23308 10220 20170 30104 40134 53002 60006 82500 90600 333 10267 20207 60004=
07690,1998-07-25 09:00:00,26,1013.6,0.2,74,21,9000,11.112,,,140,,,,,,,,,,,wg-a,,,,AAXX 25094 07690 12459 /1406 10260 20210 30106 40136 52002 60006 81100 90900=
07690,1998-07-25 12:00:00,28,1013.4,-0.2,70,22,7000,14.816,,,120,,,,,,,,,,,wg-a,,,,AAXX 25124 07690 12457 /1208 10280 20220 30104 40134 58002 60006 81800 91200=
07690,1998-07-25 15:00:00,27,1012.7,-0.7,79,23,7000,11.112,,,130,,,,,,,,,,,wg-a,,,,AAXX 25154 07690 12557 /1306 10270 20230 30097 40127 58007 60006 81800 91500=
07690,1998-07-25 18:00:00,26,1011.9,-0.8,79,22,7000,7.408,,,130,21.8,27.9,,,,,,,,,wg-a,,,,AAXX 25184 07690 12557 /1304 10260 20220 30089 40119 56008 60006 81500 91800 333 10279 20218=
07690,1998-07-25 21:00:00,26,1013,1.1,84,23,10000,11.112,,,80,,,,,,,,,,,wg-a,,,,AAXX 25214 07690 12460 10806 10260 20230 30100 40130 53011 60006 81500 92100=
07690,1998-07-26 00:00:00,23,1013.2,0.2,89,21,10000,11.112,,,330,,,,,,,,,,,wg-a,,,,AAXX 26004 07690 12460 /3306 10230 20210 30102 40132 53002 60006 81500 90000=
07690,1998-07-26 03:00:00,22,1013,-0.2,88,20,9000,14.816,,,330,,,,,,,,,,,wg-a,,,,AAXX 26034 07690 12559 /3308 10220 20200 30100 40130 58002 60006 81500 90300=
07690,1998-07-26 06:00:00,22,1013.6,0.6,83,19,9000,14.816,,,330,21.3,26.2,,,,,,,,,wg-a,,,,AAXX 26064 07690 02459 /3308 10220 20190 30106 40136 51006 60006 81180 90600 333 10262 20213 60004=
07690,1998-07-26 09:00:00,27,1014,0.4,74,22,7000,7.408,,,160,,,,,,,,,,,wg-a,,,,AAXX 26094 07690 12557 21604 10270 20220 30110 40140 52004 60006 82500 90900=
07690,1998-07-26 12:00:00,28,1013.5,-0.5,74,23,7000,14.816,,,130,,,,,,,,,,,wg-a,,,,AAXX 26124 07690 12557 /1308 10280 20230 30105 40135 58005 60006 81880 91200=
07690,1998-07-26 15:00:00,27,1013.5,-0,79,23,6000,14.816,,,150,,,,,,,,,,,wg-a,,,,AAXX 26154 07690 12456 61508 10270 20230 30105 40135 54000 60006 86800 91500=
07690,1998-07-26 18:00:00,26,1012.7,-0.8,84,23,6000,7.408,,,120,22.2,28.2,,,,,,,,,wg-a,,,,AAXX 26184 07690 12456 71204 10260 20230 30097 40127 56008 60006 878// 91800 333 10282 20222=
07690,1998-07-26 21:00:00,25,1013.1,0.4,89,23,10000,3.704,,,140,,,,,,,,,,,wg-a,,,,AAXX 26214 07690 12460 /1402 10250 20230 30101 40131 50004 60006 81800 92100=
07690,1998-07-27 09:00:00,27,1012.3,-0.5,79,23,7000,11.112,,,140,,,,,,,,,,,wg-a,,,,AAXX 27094 07690 12457 31406 10270 20230 30093 40123 58005 60006 82201 90900=
07690,1998-07-27 12:00:00,28,1011.6,-0.6,74,23,6000,14.816,,,160,,,,,,,,,,,wg-a,,,,AAXX 27124 07690 12456 /1608 10280 20230 30087 40116 55006 60006 83880 91200=
07690,1998-07-27 15:00:00,27,1010.4,-1.3,74,22,9000,7.408,,,150,,,,,,,,,,,wg-a,,,,AAXX 27154 07690 12459 71504 10270 20220 30074 40104 57013 60006 82502 91500=
07690,1998-07-27 18:00:00,27,1009.4,-1,74,22,13000,7.408,,,90,23.5,28.5,,,,,,,,,wg-a,,,,AAXX 27184 07690 12763 /0904 10270 20220 30064 40094 56010 60006 82232 91800 333 10285 20235=
07690,1998-07-27 21:00:00,25,1008.8,-0.6,83,22,13000,0,,,0,,,,,,,,,,,wg-a,,,,AAXX 27214 07690 12/63 60000 10250 20220 30058 40088 55006 60006 83032 92100=
07690,1998-07-28 00:00:00,24,1008,-0.8,89,22,10000,7.408,,,340,,,,,,,,,,17,wg-a,,,,AAXX 28004 07690 12660 73404 10240 20220 30050 40080 56008 60006 71792 83362 90000=
07690,1998-07-28 03:00:00,21,1006.8,-1.2,88,19,15000,11.112,,,330,,,,,,,,,,3,wg-a,,,,AAXX 28034 07690 12465 /3306 10210 20190 30038 40068 58012 60006 70391 81502 90300=
07690,1998-07-28 06:00:00,22,1007.3,0.5,73,17,18000,18.52,,,330,20.7,26.7,,,,,,,,1,wg-a,,,,AAXX 28064 07690 02468 /3310 10220 20170 30043 40073 53005 60006 70191 81502 90600 333 10267 20207 60004=
07690,1998-07-28 09:00:00,27,1007.9,0.6,66,20,15000,22.224,,,210,,,,,,,,,,,wg-a,,,,AAXX 28094 07690 12465 32112 10270 20200 30049 40079 53006 60006 81232 90900=
07690,1998-07-28 12:00:00,28,1007.7,-0.1,66,21,10000,22.224,,,180,,,,,,,,,,,wg-a,,,,AAXX 28124 07690 12460 51812 10280 20210 30048 40077 58001 60006 81232 91200=
07690,1998-07-28 15:00:00,29,1006.6,-1.1,52,18,10000,14.816,,,100,,,,,,,,,,,wg-a,,,,AAXX 28154 07690 12460 41008 10290 20180 30037 40066 58011 60006 81230 91500=
07690,1998-07-28 18:00:00,27,1006,-0.6,74,22,500,29.632,,,80,21.9,28.7,,,,,,,,,wg-a,,,,AAXX 28184 07690 12600 /0816 10270 20220 30031 40060 56006 60006 81230 91800 333 10287 20219=
07690,1998-07-28 21:00:00,26,1007.1,1,79,22,12000,22.224,,,70,,,,,,,,,,,wg-a,,,,AAXX 28214 07690 12/62 30712 10260 20220 30041 40071 51010 60006 80002 92100=
07690,1998-07-29 00:00:00,21,1008.1,1,73,16,12000,11.112,,,330,,,,,,,,,,,wg-a,,,,AAXX 29004 07690 12462 /3306 10210 20160 30051 40081 51010 60006 81500 90000=
07690,1998-07-29 03:00:00,20,1007.7,-0.4,78,16,12000,14.816,,,320,,,,,,,,,,,wg-a,,,,AAXX 29034 07690 12462 /3208 10200 20160 30047 40077 56004 60006 81500 90300=
07690,1998-07-29 06:00:00,23,1007.9,0.2,53,13,15000,11.112,,,330,20.1,27.3,,,,,,,,,wg-a,,,,AAXX 29064 07690 02565 /3306 10230 20130 30049 40079 53002 60006 81501 90600 333 10273 20201 60004=
07690,1998-07-29 09:00:00,26,1009.4,1.5,70,20,500,14.816,,,140,,,,,,,,,,,wg-a,,,,AAXX 29094 07690 12/00 01408 10260 20200 30064 40094 53015 60006 80000 90900=
07690,1998-07-29 12:00:00,28,1010,0.7,58,19,20000,14.816,,,120,,,,,,,,,,,wg-a,,,,AAXX 29124 07690 12470 /1208 10280 20190 30071 40100 51007 60006 81100 91200=
07690,1998-07-29 15:00:00,29,1009.7,-0.3,52,18,20000,14.816,,,110,,,,,,,,,,,wg-a,,,,AAXX 29154 07690 12570 /1108 10290 20180 30068 40097 58003 60006 81400 91500=
07690,1998-07-29 18:00:00,27,1009.9,0.1,66,20,500,7.408,,,120,22.8,29.4,,,,,,,,,wg-a,,,,AAXX 29184 07690 12400 /1204 10270 20200 30069 40099 51001 60006 81100 91800 333 10294 20228=
07690,1998-07-29 21:00:00,23,1010.9,1,89,21,25000,3.704,,,250,,,,,,,,,,,wg-a,,,,AAXX 29214 07690 12/75 /2502 10230 20210 30079 40109 51010 60006 80000 92100=
07690,1998-07-30 00:00:00,21,1010.9,-0,73,16,25000,11.112,,,330,,,,,,,,,,,wg-a,,,,AAXX 30004 07690 12475 13306 10210 20160 30079 40109 55000 60006 81500 90000=
07690,1998-07-30 03:00:00,21,1010.5,-0.4,69,15,25000,14.816,,,340,,,,,,,,,,,wg-a,,,,AAXX 30034 07690 12475 13408 10210 20150 30075 40105 58004 60006 81600 90300=
07690,1998-07-30 06:00:00,22,1011.7,1.2,65,15,25000,11.112,,,330,20.7,26.7,,,,,,,,,wg-a,,,,AAXX 30064 07690 02475 /3306 10220 20150 30087 40117 53012 60006 81500 90600 333 10267 20207 60004=
07690,1998-07-30 09:00:00,26,1012.1,0.4,74,21,25000,18.52,,,100,,,,,,,,,,,wg-a,,,,AAXX 30094 07690 12475 /1010 10260 20210 30091 40121 51004 60006 81100 90900=
07690,1998-07-30 12:00:00,27,1011.9,-0.2,70,21,11000,14.816,,,110,,,,,,,,,,,wg-a,,,,AAXX 30124 07690 12/61 /1108 10270 20210 30089 40119 58002 60006 91200=
07690,1998-07-30 15:00:00,26,1011.5,-0.4,74,21,500,11.112,,,150,,,,,,,,,,,wg-a,,,,AAXX 30154 07690 12500 /1506 10260 20210 30085 40115 55004 60006 81100 91500=
07690,1998-07-30 18:00:00,26,1011.3,-0.2,70,20,500,11.112,,,120,22.3,27.1,,,,,,,,,wg-a,,,,AAXX 30184 07690 12500 /1206 10260 20200 30083 40113 55002 60006 81200 91800 333 10271 20223=
07690,1998-07-30 21:00:00,25,1012.4,1.1,79,21,20000,14.816,,,80,,,,,,,,,,,wg-a,,,,AAXX 30214 07690 12470 /0808 10250 20210 30094 40124 52011 60006 81100 92100=
07690,1998-07-31 00:00:00,22,1012.3,-0.1,88,20,20000,11.112,,,330,,,,,,,,,,,wg-a,,,,AAXX 31004 07690 12470 23306 10220 20200 30093 40123 58001 60006 82100 90000=
07690,1998-07-31 03:00:00,22,1012.3,-0,83,19,20000,14.816,,,320,,,,,,,,,,,wg-a,,,,AAXX 31034 07690 12470 43208 10220 20190 30093 40123 55000 60006 84100 90300=
07690,1998-07-31 06:00:00,22,1012.7,0.4,78,18,10000,11.112,,,330,21.3,25.7,,,,,,,,,wg-a,,,,AAXX 31064 07690 02460 33306 10220 20180 30097 40127 53004 60006 83500 90600 333 10257 20213 60004=
07690,1998-07-31 09:00:00,26,1013.6,0.9,74,21,11000,11.112,,,130,,,,,,,,,,,wg-a,,,,AAXX 31094 07690 12561 71306 10260 20210 30106 40136 53009 60006 8383/ 90900=
07690,1998-07-31 12:00:00,27,1013.6,-0,74,22,12000,14.816,,,170,,,,,,,,,,,wg-a,,,,AAXX 31124 07690 12462 21708 10270 20220 30106 40136 54000 60006 81802 91200=
07690,1998-07-31 15:00:00,26,1013.3,-0.3,79,22,11000,11.112,,,180,,,,,,,,,,,wg-a,,,,AAXX 31154 07690 12461 /1806 10260 20220 30103 40133 56003 60006 81800 91500=
07690,1998-07-31 18:00:00,25,1012.9,-0.4,79,21,25000,7.408,,,170,22.2,27.5,,,,,,,,,wg-a,,,,AAXX 31184 07690 12475 /1704 10250 20210 30099 40129 56004 60006 81800 91800 333 10275 20222=
07690,1998-07-31 21:00:00,23,1013.6,0.7,89,21,15000,3.704,,,100,,,,,,,,,,,wg-a,,,,AAXX 31214 07690 12/65 /1002 10230 20210 30106 40136 50007 60006 80000 92100=
07690,1998-08-01 00:00:00,23,1013.5,-0.1,83,20,15000,11.112,,,100,,,,,,,,,,,wg-a,,,,AAXX 01004 07690 12465 41006 10230 20200 30105 40135 57001 60006 84500 90000=
07690,1998-08-01 03:00:00,22,1012.6,-0.9,88,20,15000,11.112,,,330,,,,,,,,,,,wg-a,,,,AAXX 01034 07690 12465 /3306 10220 20200 30096 40126 56009 60006 85500 90300=
07690,1998-08-01 06:00:00,23,1013.1,0.5,78,19,12000,7.408,,,350,22,24.9,,,,,,,,,wg-a,,,,AAXX 01064 07690 02462 /3504 10230 20190 30101 40131 53005 60006 86500 90600 333 10249 20220 60004=
07690,1998-08-01 09:00:00,26,1013.6,0.5,79,22,12000,18.52,,,90,,,,,,,,,,,wg-a,,,,AAXX 01094 07690 12462 50910 10260 20220 30106 40136 51005 60006 82880 90900=
07690,1998-08-01 12:00:00,27,1013.1,-0.5,70,21,10000,11.112,,,110,,,,,,,,,,,wg-a,,,,AAXX 01124 07690 12560 51106 10270 20210 30101 40131 58005 60006 81882 91200=
07690,1998-08-01 15:00:00,27,1012.1,-1,74,22,6000,14.816,,,100,,,,,,,,,,,wg-a,,,,AAXX 01154 07690 12456 51008 10270 20220 30091 40121 58010 60006 83280 91500=
07690,1998-08-01 18:00:00,26,1011.9,-0.2,79,22,500,7.408,,,100,22.7,27.8,,,,,,,,,wg-a,,,,AAXX 01184 07690 12400 21004 10260 20220 30089 40119 55002 60006 82280 91800 333 10278 20227=
07690,1998-08-01 21:00:00,23,1012.6,0.7,94,22,10000,3.704,,,270,,,,,,,,,,,wg-a,,,,AAXX 01214 07690 12460 22702 10230 20220 30096 40126 53007 60006 81530 92100=
07690,1998-08-02 00:00:00,22,1012.4,-0.2,83,19,10000,11.112,,,340,,,,,,,,,,,wg-a,,,,AAXX 02004 07690 12460 /3406 10220 20190 30094 40124 58002 60006 85500 90000=
07690,1998-08-02 03:00:00,21,1012.2,-0.2,83,18,12000,14.816,,,330,,,,,,,,,,,wg-a,,,,AAXX 02034 07690 12462 /3308 10210 20180 30092 40122 56002 60006 83500 90300=
07690,1998-08-02 06:00:00,21,1013.4,1.2,78,17,15000,14.816,,,330,20.7,25.6,,,,,,,,,wg-a,,,,AAXX 02064 07690 02465 53308 10210 20170 30104 40134 51012 60006 85800 90600 333 10256 20207 60004=
07690,1998-08-02 09:00:00,26,1014.4,1,74,21,15000,11.112,,,120,,,,,,,,,,,wg-a,,,,AAXX 02094 07690 12565 21206 10260 20210 30114 40144 51010 60006 81201 90900=
07690,1998-08-02 12:00:00,27,1014.7,0.3,74,22,10000,11.112,,,130,,,,,,,,,,,wg-a,,,,AAXX 02124 07690 12460 /1306 10270 20220 30117 40147 53003 60006 81202 91200=
07690,1998-08-02 15:00:00,27,1015.1,0.4,70,21,13000,11.112,,,100,,,,,,,,,,,wg-a,,,,AAXX 02154 07690 12463 /1006 10270 20210 30121 40151 51004 60006 81202 91500=
07690,1998-08-02 18:00:00,26,1015,-0.1,74,21,20000,3.704,,,130,21,27.4,,,,,,,,,wg-a,,,,AAXX 02184 07690 12470 /1302 10260 20210 30120 40150 55001 60006 81203 91800 333 10274 20210=
07690,1998-08-02 21:00:00,23,1016.5,1.5,89,21,15000,0,,,0,,,,,,,,,,,wg-a,,,,AAXX 02214 07690 12465 70000 10230 20210 30135 40165 53015 60006 8158/ 92100=
07690,1998-08-03 00:00:00,23,1015.8,-0.7,89,21,10000,11.112,,,340,,,,1,,,,,,60,wg-a,,,,AAXX 03004 07690 02360 73406 10230 20210 30128 40158 56007 60016 76086 8587/ 90000 333 60017=
07690,1998-08-03 03:00:00,20,1015.4,-0.4,94,19,10000,22.224,,,30,,,,8,,,,,,61,wg-a,,,,AAXX 03034 07690 12360 80312 10200 20190 30124 40154 58004 60087 76186 878// 90300=
07690,1998-08-03 06:00:00,20,1017.2,1.8,94,19,10000,11.112,,,280,19.8,25.6,,,,,,,,61,wg-a,,,,AAXX 03064 07690 02360 72806 10200 20190 30142 40172 53018 61000 76186 878// 90600 333 10256 20198 6015=
07690,1998-08-03 12:00:00,21,1016.4,-1.2,88,19,7000,11.112,,,330,,,,2,,,,,,91,wg-a,,,,AAXX 03124 07690 02357 83306 10210 20190 30134 40164 56012 60056 79196 8537/ 91200 333 60027=
07690,1998-08-03 15:00:00,22,1014.9,-1.5,88,20,12000,7.408,,,350,,,,3,,,,,,21,wg-a,,,,AAXX 03154 07690 12562 73504 10220 20200 30119 40149 58015 60037 72162 878// 91500=
07690,1998-08-03 18:00:00,21,1015.8,0.9,94,20,8000,18.52,,,230,19.8,22.1,,,,,,,,80,wg-a,,,,AAXX 03184 07690 02258 82310 10210 20200 30128 40158 53009 61000 78096 883// 91800 333 10221 20198 6012=
07690,1998-08-03 21:00:00,20,1018.2,2.4,100,20,12000,14.816,,,290,,,,7,,,,,,95,wg-a,,,,AAXX 03214 07690 12262 82908 10200 20200 30152 40182 53024 60077 79598 889// 92100=
07690,1998-08-04 00:00:00,20,1018.4,0.1,94,19,20000,7.408,,,300,,,,0,,,,,,3,wg-a,,,,AAXX 04004 07690 02470 63004 10200 20190 30153 40184 51001 60086 70398 86800 90000 333 60007=
07690,1998-08-04 03:00:00,19,1017.5,-0.9,100,19,20000,3.704,,,290,,,,,,,,,,,wg-a,,,,AAXX 04034 07690 12470 /2902 10190 20190 30144 40175 57009 60006 84830 90300=
07690,1998-08-04 06:00:00,20,1018.3,0.8,94,19,20000,11.112,,,240,19.2,21.4,,,,,27,,,,wg-a,,,,AAXX 04064 07690 02470 72406 10200 20190 30152 40183 53008 60006 8687/ 90600 333 10214 20192 60274=
07690,1998-08-04 09:00:00,22,1019.4,1.2,83,19,20000,7.408,,,220,,,,,,,,,,,wg-a,,,,AAXX 04094 07690 12470 72204 10220 20190 30164 40194 50012 60006 8693/ 90900=
07690,1998-08-04 12:00:00,25,1019.4,0,69,19,25000,22.224,,,230,,,,,,,,,,,wg-a,,,,AAXX 04124 07690 12575 42312 10250 20190 30164 40194 50000 60006 81232 91200=
07690,1998-08-04 18:00:00,22,1018.8,-0.7,83,19,25000,14.816,,,220,19.6,25.5,,,,,,,,,wg-a,,,,AAXX 04184 07690 12575 42208 10220 20190 30158 40188 57007 60006 82802 91800 333 10255 20196=
07690,1998-08-05 00:00:00,21,1017,-1.7,83,18,15000,11.112,,,320,,,,,,,,,,,wg-a,,,,AAXX 05004 07690 12765 23206 10210 20180 30140 40170 56017 60006 81581 90000=
07690,1998-08-05 03:00:00,21,1016.1,-0.9,83,18,15000,11.112,,,330,,,,,,,,,,,wg-a,,,,AAXX 05034 07690 12765 /3306 10210 20180 30131 40161 58009 60006 81501 90300=
07690,1998-08-05 06:00:00,23,1015.5,-0.6,69,17,25000,18.52,,,340,20.2,22.8,,,,,,,,,wg-a,,,,AAXX 05064 07690 02/75 13410 10230 20170 30125 40155 56006 60006 81032 90600 333 10228 20202 60004=
07690,1998-08-05 09:00:00,29,1015.5,0,52,18,40000,11.112,,,330,,,,,,,,,,,wg-a,,,,AAXX 05094 07690 12/82 43306 10290 20180 30125 40155 50000 60006 84030 90900=
07690,1998-08-05 12:00:00,29,1016,0.5,52,18,25000,7.408,,,130,,,,,,,,,,,wg-a,,,,AAXX 05124 07690 12675 21304 10290 20180 30130 40160 53005 60006 82980 91200=
07690,1998-08-05 15:00:00,28,1015.2,-0.8,74,23,25000,7.408,,,220,,,,,,,,,,,wg-a,,,,AAXX 05154 07690 12675 42204 10280 20230 30122 40152 58008 60006 81903 91500=
07690,1998-08-05 18:00:00,30,1014.2,-0.9,55,20,25000,7.408,,,110,22.8,30.1,,,,,,,,,wg-a,,,,AAXX 05184 07690 12775 /1104 10300 20200 30113 40142 58009 60006 81203 91800 333 10301 20228=
07690,1998-08-05 21:00:00,27,1016.5,2.2,66,20,20000,14.816,,,40,,,,,,,,,,,wg-a,,,,AAXX 05214 07690 12/70 40408 10270 20200 30135 40165 53022 60006 80002 92100=
07690,1998-08-06 00:00:00,24,1018.1,1.6,78,20,20000,11.112,,,330,,,,,,,,,,,wg-a,,,,AAXX 06004 07690 12/70 23306 10240 20200 30151 40181 50016 60006 80002 90000=
07690,1998-08-06 03:00:00,23,1017.6,-0.5,69,17,20000,18.52,,,330,,,,,,,,,,,wg-a,,,,AAXX 06034 07690 12/70 03310 10230 20170 30146 40176 56005 60006 80000 90300=
07690,1998-08-06 06:00:00,23,1017.8,0.2,65,16,20000,22.224,,,330,22.4,30,,,,,,,,,wg-a,,,,AAXX 06064 07690 02/70 /3312 10230 20160 30148 40178 53002 60006 80000 90600 333 10300 20224 60004=
07690,1998-08-06 09:00:00,29,1018.9,1.1,52,18,20000,11.112,,,170,,,,,,,,,,,wg-a,,,,AAXX 06094 07690 12/70 01706 10290 20180 30159 40189 51011 60006 80000 90900=
07690,1998-08-06 12:00:00,29,1018.5,-0.4,62,21,20000,18.52,,,200,,,,,,,,,,,wg-a,,,,AAXX 06124 07690 12570 /2010 10290 20210 30155 40185 58004 60006 81100 91200=
07690,1998-08-06 15:00:00,29,1017.5,-1,66,22,20000,7.408,,,180,,,,,,,,,,,wg-a,,,,AAXX 06154 07690 12670 /1804 10290 20220 30145 40175 56010 60006 81100 91500=
07690,1998-08-06 18:00:00,27,1017.1,-0.4,74,22,25000,14.816,,,210,23.3,30.4,,,,,,,,,wg-a,,,,AAXX 06184 07690 12775 /2108 10270 20220 30141 40171 55004 60006 81500 91800 333 10304 20233=
07690,1998-08-06 21:00:00,25,1018.7,1.6,79,21,15000,3.704,,,270,,,,,,,,,,,wg-a,,,,AAXX 06214 07690 12/65 02702 10250 20210 30157 40187 51016 60006 80000 92100=
07690,1998-08-07 00:00:00,24,1018.2,-0.5,74,19,15000,11.112,,,340,,,,,,,,,,,wg-a,,,,AAXX 07004 07690 12/65 03406 10240 20190 30152 40182 58005 60006 80000 90000=
07690,1998-08-07 03:00:00,23,1017.6,-0.6,73,18,15000,18.52,,,330,,,,,,,,,,,wg-a,,,,AAXX 07034 07690 12/65 03310 10230 20180 30146 40176 55006 60006 80000 90300=
07690,1998-08-07 06:00:00,23,1018.1,0.5,73,18,10000,18.52,,,330,22.4,26.8,,,,,,,,,wg-a,,,,AAXX 07064 07690 02/60 /3310 10230 20180 30151 40181 53005 60006 90600 333 10268 20224 60004=
07690,1998-08-07 09:00:00,28,1018.4,0.3,62,20,20000,11.112,,,210,,,,,,,,,,,wg-a,,,,AAXX 07094 07690 12/70 02106 10280 20200 30154 40184 53003 60006 80000 90900=
07690,1998-08-07 12:00:00,29,1018.6,0.2,58,20,20000,11.112,,,150,,,,,,,,,,,wg-a,,,,AAXX 07124 07690 12/70 01506 10290 20200 30156 40186 51002 60006 80000 91200=
07690,1998-08-07 15:00:00,29,1017.9,-0.7,66,22,20000,7.408,,,200,,,,,,,,,,,wg-a,,,,AAXX 07154 07690 12670 /2004 10290 20220 30149 40179 58007 60006 81100 91500=
07690,1998-08-07 18:00:00,28,1017.5,-0.4,55,18,20000,7.408,,,220,23,29.9,,,,,,,,,wg-a,,,,AAXX 07184 07690 12/70 02204 10280 20180 30145 40175 55004 60006 80000 91800 333 10299 20230=
07690,1998-08-07 21:00:00,24,1018.2,0.7,65,17,20000,11.112,,,330,,,,,,,,,,,wg-a,,,,AAXX 07214 07690 12/70 03306 10240 20170 30152 40182 53007 60006 80000 92100=
07690,1998-08-08 00:00:00,24,1017.9,-0.3,61,16,20000,14.816,,,340,,,,,,,,,,,wg-a,,,,AAXX 08004 07690 12/70 03408 10240 20160 30149 40179 58003 60006 80000 90000=
07690,1998-08-08 03:00:00,24,1017.1,-0.8,61,16,20000,18.52,,,330,,,,,,,,,,,wg-a,,,,AAXX 08034 07690 12/70 03310 10240 20160 30141 40171 58008 60006 80000 90300=
07690,1998-08-08 09:00:00,28,1017.6,0.4,66,21,25000,11.112,,,110,,,,,,,,,,,wg-a,,,,AAXX 08094 07690 12/75 01106 10280 20210 30146 40176 53004 60006 80000 90900=
07690,1998-08-08 12:00:00,29,1017.7,0.1,52,18,20000,14.816,,,100,,,,,,,,,,,wg-a,,,,AAXX 08124 07690 12770 11008 10290 20180 30147 40177 51001 60006 81100 91200=
07690,1998-08-08 15:00:00,29,1016.8,-0.9,52,18,15000,7.408,,,180,,,,,,,,,,,wg-a,,,,AAXX 08154 07690 12765 /1804 10290 20180 30138 40168 58009 60006 81202 91500=
07690,1998-08-08 18:00:00,27,1016.2,-0.6,66,20,20000,7.408,,,230,24.2,30,,,,,,,,,wg-a,,,,AAXX 08184 07690 12770 /2304 10270 20200 30132 40162 56006 60006 81232 91800 333 10300 20242=
07690,1998-08-08 21:00:00,24,1016.5,0.3,69,18,15000,11.112,,,330,,,,,,,,,,,wg-a,,,,AAXX 08214 07690 12/65 03306 10240 20180 30135 40165 52003 60006 80000 92100=
07690,1998-08-09 00:00:00,25,1016.2,-0.3,61,17,15000,11.112,,,340,,,,,,,,,,,wg-a,,,,AAXX 09004 07690 12/65 03406 10250 20170 30132 40162 58003 60006 80000 90000=
07690,1998-08-09 03:00:00,24,1015.8,-0.4,61,16,15000,11.112,,,330,,,,,,,,,,,wg-a,,,,AAXX 09034 07690 12/65 03306 10240 20160 30128 40158 58004 60006 80000 90300=
07690,1998-08-09 06:00:00,25,1015.9,0.1,57,16,20000,11.112,,,340,23,27.1,,,,,,,,,wg-a,,,,AAXX 09064 07690 02/70 13406 10250 20160 30129 40159 53001 60006 80002 90600 333 10271 20230 60004=
07690,1998-08-09 09:00:00,29,1016,0.1,45,16,10000,11.112,,,150,,,,,,,,,,,wg-a,,,,AAXX 09094 07690 12/60 /1506 10290 20160 30130 40160 52001 60006 90900=
07690,1998-08-09 12:00:00,29,1015.7,-0.3,62,21,15000,14.816,,,180,,,,,,,,,,,wg-a,,,,AAXX 09124 07690 12765 21808 10290 20210 30127 40157 58003 60006 81102 91200=
07690,1998-08-09 15:00:00,29,1015,-0.7,62,21,13000,11.112,,,120,,,,,,,,,,,wg-a,,,,AAXX 09154 07690 12763 21206 10290 20210 30120 40150 58007 60006 81202 91500=
07690,1998-08-09 18:00:00,27,1013.8,-1.2,70,21,12000,7.408,,,120,24.6,29.6,,,,,,,,,wg-a,,,,AAXX 09184 07690 12/62 21204 10270 20210 30108 40138 56012 60006 8//02 91800 333 10296 20246=
07690,1998-08-09 21:00:00,26,1014.6,0.8,79,22,12000,7.408,,,50,,,,,,,,,,,wg-a,,,,AAXX 09214 07690 12/62 00504 10260 20220 30116 40146 51008 60006 80000 92100=
07690,1998-08-10 00:00:00,23,1015.3,0.7,83,20,15000,7.408,,,310,,,,,,,,,,,wg-a,,,,AAXX 10004 07690 12/65 13104 10230 20200 30123 40153 51007 60006 80002 90000=
07690,1998-08-10 03:00:00,21,1016,0.7,83,18,15000,11.112,,,320,,,,,,,,,,,wg-a,,,,AAXX 10034 07690 12/65 13206 10210 20180 30130 40160 51007 60006 80002 90300=
07690,1998-08-10 06:00:00,22,1017.4,1.4,78,18,9000,7.408,,,330,20.6,26.9,,,,,,,,,wg-a,,,,AAXX 10064 07690 02459 33304 10220 20180 30144 40174 53014 60006 81502 90600 333 10269 20206 60004=
07690,1998-08-10 09:00:00,27,1018,0.6,74,22,7000,11.112,,,110,,,,,,,,,,,wg-a,,,,AAXX 10094 07690 12/57 31106 10270 20220 30150 40180 51006 60006 80002 90900=
07690,1998-08-10 12:00:00,28,1018.5,0.5,74,23,6000,11.112,,,120,,,,,,,,,,,wg-a,,,,AAXX 10124 07690 12556 31206 10280 20230 30155 40185 53005 60006 81201 91200=
07690,1998-08-10 15:00:00,28,1018,-0.5,74,23,10000,7.408,,,140,,,,,,,,,,,wg-a,,,,AAXX 10154 07690 12660 31404 10280 20230 30150 40180 58005 60006 81201 91500=
07690,1998-08-10 18:00:00,27,1017.4,-0.6,66,20,20000,11.112,,,200,22.4,28.2,,,,,,,,,wg-a,,,,AAXX 10184 07690 12/70 32006 10270 20200 30144 40174 56006 60006 80001 91800 333 10282 20224=
07690,1998-08-10 21:00:00,23,1018.3,0.9,83,20,20000,11.112,,,310,,,,,,,,,,,wg-a,,,,AAXX 10214 07690 12/70 33106 10230 20200 30153 40183 52009 60006 80001 92100=
07690,1998-08-11 00:00:00,21,1018.1,-0.2,83,18,20000,11.112,,,320,,,,,,,,,,,wg-a,,,,AAXX 11004 07690 12/70 03206 10210 20180 30151 40181 58002 60006 80000 90000=
07690,1998-08-11 03:00:00,21,1018,-0.2,60,13,20000,11.112,,,340,,,,,,,,,,,wg-a,,,,AAXX 11034 07690 12/70 03406 10210 20130 30149 40180 57002 60006 80000 90300=
07690,1998-08-11 06:00:00,23,1018.6,0.7,53,13,20000,14.816,,,340,20.3,26.6,,,,,,,,,wg-a,,,,AAXX 11064 07690 02/70 03408 10230 20130 30156 40186 53007 60006 80000 90600 333 10266 20203 60004=
07690,1998-08-11 09:00:00,28,1019,0.4,51,17,20000,7.408,,,120,,,,,,,,,,,wg-a,,,,AAXX 11094 07690 12570 /1204 10280 20170 30160 40190 51004 60006 81501 90900=
07690,1998-08-11 12:00:00,28,1018.6,-0.4,70,22,9000,14.816,,,190,,,,,,,,,,,wg-a,,,,AAXX 11124 07690 12659 /1908 10280 20220 30156 40186 58004 60006 81201 91200=
07690,1998-08-11 15:00:00,27,1018,-0.6,79,23,6000,14.816,,,190,,,,,,,,,,,wg-a,,,,AAXX 11154 07690 12656 /1908 10270 20230 30150 40180 56006 60006 81901 91500=
07690,1998-08-11 18:00:00,26,1017.6,-0.4,84,23,7000,11.112,,,200,22.7,28.2,,,,,,,,,wg-a,,,,AAXX 11184 07690 12657 /2006 10260 20230 30146 40176 55004 60006 81203 91800 333 10282 20227=
07690,1998-08-11 21:00:00,23,1017.7,0.1,89,21,10000,11.112,,,290,,,,,,,,,,,wg-a,,,,AAXX 11214 07690 12/60 02906 10230 20210 30147 40177 53001 60006 80000 92100=
07690,1998-08-12 00:00:00,21,1017,-0.7,73,16,12000,11.112,,,330,,,,,,,,,,,wg-a,,,,AAXX 12004 07690 12/62 03306 10210 20160 30140 40170 58007 60006 80000 90000=
07690,1998-08-12 03:00:00,23,1016.4,-0.6,50,12,12000,11.112,,,350,,,,,,,,,,,wg-a,,,,AAXX 12034 07690 12/62 03506 10230 20120 30134 40164 58006 60006 80000 90300=
07690,1998-08-12 06:00:00,23,1017,0.6,57,14,20000,7.408,,,340,20.5,25.5,,,,,,,,,wg-a,,,,AAXX 12064 07690 02/70 03404 10230 20140 30140 40170 53006 60006 80000 90600 333 10255 20205 60004=
07690,1998-08-12 09:00:00,27,1017.1,0.1,66,20,10000,11.112,,,100,,,,,,,,,,,wg-a,,,,AAXX 12094 07690 12/60 01006 10270 20200 30141 40171 52001 60006 80000 90900=
07690,1998-08-12 12:00:00,29,1016.2,-0.9,58,20,9000,14.816,,,150,,,,,,,,,,,wg-a,,,,AAXX 12124 07690 12559 /1508 10290 20200 30132 40162 58009 60006 81200 91200=
07690,1998-08-12 18:00:00,27,1014,-0.6,74,22,15000,11.112,,,200,22.9,29.3,,,,,,,,,wg-a,,,,AAXX 12184 07690 12/65 32006 10270 20220 30110 40140 56006 60006 82/43 91800 333 10293 20229=
07690,1998-08-12 21:00:00,23,1014.2,0.2,78,19,13000,11.112,,,300,,,,,,,,,,,wg-a,,,,AAXX 12214 07690 12/63 23006 10230 20190 30112 40142 52002 60006 80003 92100=
07690,1998-08-13 00:00:00,22,1013.4,-0.8,65,15,15000,18.52,,,330,,,,,,,,,,,wg-a,,,,AAXX 13004 07690 12/65 23310 10220 20150 30104 40134 58008 60006 80002 90000=
07690,1998-08-13 06:00:00,23,1012,-0.1,47,11,20000,18.52,,,330,21,26.5,,,,,,,,,wg-a,,,,AAXX 13064 07690 02/70 13310 10230 20110 30090 40120 56001 60006 80001 90600 333 10265 20210 60004=
07690,1998-08-13 09:00:00,27,1012.1,0.1,66,20,15000,11.112,,,190,,,,,,,,,,,wg-a,,,,AAXX 13094 07690 12/65 21906 10270 20200 30091 40121 52001 60006 80001 90900=
07690,1998-08-13 12:00:00,27,1011.7,-0.4,79,23,6000,14.816,,,180,,,,,,,,,,,wg-a,,,,AAXX 13124 07690 12656 41808 10270 20230 30087 40117 58004 60006 81102 91200=
07690,1998-08-13 15:00:00,27,1010.8,-0.9,84,24,3500,14.816,,,190,,,,,,,,,,10,wg-a,,,,AAXX 13154 07690 12635 31908 10270 20240 30078 40108 56009 60006 71000 81202 91500=
07690,1998-08-13 18:00:00,26,1009.7,-1.1,84,23,3500,7.408,,,160,23.3,28,,,,,,,,10,wg-a,,,,AAXX 13184 07690 12635 21604 10260 20230 30067 40097 56011 60006 71000 81902 91800 333 10280 20233=
07690,1998-08-13 21:00:00,24,1010,0.3,94,23,4000,3.704,,,100,,,,,,,,,,10,wg-a,,,,AAXX 13214 07690 12340 31002 10240 20230 30070 40100 50003 60006 71000 83500 92100=
07690,1998-08-14 00:00:00,25,1009.7,-0.3,83,22,6000,7.408,,,80,,,,,,,,,,,wg-a,,,,AAXX 14004 07690 12456 40804 10250 20220 30067 40097 57003 60006 84500 90000=
07690,1998-08-14 03:00:00,22,1009.5,-0.2,78,18,6000,11.112,,,320,,,,,,,,,,,wg-a,,,,AAXX 14034 07690 12456 43206 10220 20180 30065 40095 56002 60006 84500 90300=
07690,1998-08-14 06:00:00,21,1010,0.5,78,17,6000,14.816,,,330,20.8,25.4,,,,,,,,,wg-a,,,,AAXX 14064 07690 02456 /3308 10210 20170 30070 40100 53005 60006 81500 90600 333 10254 20208 60004=
07690,1998-08-14 09:00:00,26,1010.8,0.8,74,21,7000,14.816,,,110,,,,,,,,,,,wg-a,,,,AAXX 14094 07690 12457 /1108 10260 20210 30078 40108 53008 60006 86800 90900=
07690,1998-08-14 12:00:00,28,1010.6,-0.1,70,22,6000,18.52,,,100,,,,,,,,,,,wg-a,,,,AAXX 14124 07690 12456 /1010 10280 20220 30077 40106 58001 60006 81100 91200=
07690,1998-08-14 15:00:00,27,1010.3,-0.3,84,24,500,18.52,,,90,,,,,,,,,,,wg-a,,,,AAXX 14154 07690 12400 /0910 10270 20240 30074 40103 58003 60006 81100 91500=
07690,1998-08-15 03:00:00,24,1013.6,0.6,89,22,9000,7.408,,,70,,,,,,,,,,,wg-a,,,,AAXX 15034 07690 12359 70704 10240 20220 30106 40136 53006 60006 875// 90300=
07690,1998-08-15 06:00:00,23,1014.7,1.1,83,20,7000,14.816,,,320,22.8,25.9,,,,,,,,,wg-a,,,,AAXX 15064 07690 02457 43208 10230 20200 30117 40147 53011 60006 84800 90600 333 10259 20228 60004=
07690,1998-08-15 09:00:00,27,1015.7,1,74,22,8000,11.112,,,150,,,,,,,,,,,wg-a,,,,AAXX 15094 07690 12558 21506 10270 20220 30127 40157 51010 60006 82200 90900=
07690,1998-08-15 12:00:00,28,1015.7,0,70,22,500,14.816,,,160,,,,,,,,,,,wg-a,,,,AAXX 15124 07690 12500 /1608 10280 20220 30127 40157 50000 60006 81200 91200=
07690,1998-08-15 15:00:00,28,1015.6,-0.1,74,23,7000,11.112,,,150,,,,,,,,,,,wg-a,,,,AAXX 15154 07690 12557 /1506 10280 20230 30126 40156 58001 60006 81200 91500=
07690,1998-08-15 18:00:00,26,1016.2,0.6,84,23,7000,3.704,,,120,23.1,28.3,,,,,,,,,wg-a,,,,AAXX 15184 07690 12/57 21202 10260 20230 30132 40162 53006 60006 81063 91800 333 10283 20231=
07690,1998-08-16 15:00:00,28,1018.5,-0.6,74,23,6000,14.816,,,110,,,,,,,,,,,wg-a,,,,AAXX 16154 07690 12756 41108 10280 20230 30155 40185 55006 60006 82530 91500=
07690,1998-08-16 21:00:00,25,1017.6,-0.5,61,17,10000,18.52,,,320,,,,,,,,,,,wg-a,,,,AAXX 16214 07690 12660 23210 10250 20170 30146 40176 58005 60006 81280 92100=
07690,1998-08-17 00:00:00,25,1017.1,-0.5,83,22,12000,14.816,,,100,,,,,,,,,,,wg-a,,,,AAXX 17004 07690 12/62 51008 10250 20220 30141 40171 56005 60006 85080 90000=
07690,1998-08-17 03:00:00,23,1016.7,-0.4,69,17,12000,7.408,,,340,,,,0,,,,,,,wg-a,,,,AAXX 17034 07690 12462 33404 10230 20170 30137 40167 56004 60007 81580 90300=
07690,1998-08-17 06:00:00,23,1017,0.3,65,16,20000,14.816,,,340,21.9,25.4,,,,,,,,,wg-a,,,,AAXX 17064 07690 02/70 /3408 10230 20160 30140 40170 53003 60006 81080 90600 333 10254 20219 60004=
07690,1998-08-17 09:00:00,28,1017.2,0.2,58,19,15000,14.816,,,120,,,,,,,,,,,wg-a,,,,AAXX 17094 07690 12/65 01208 10280 20190 30142 40172 53002 60006 80000 90900=
07690,1998-08-17 12:00:00,28,1016.7,-0.5,74,23,9000,14.816,,,110,,,,,,,,,,,wg-a,,,,AAXX 17124 07690 12659 31108 10280 20230 30137 40167 58005 60006 81232 91200=
07690,1998-08-17 15:00:00,28,1015.1,-1.6,74,23,9000,11.112,,,100,,,,,,,,,,,wg-a,,,,AAXX 17154 07690 12559 21006 10280 20230 30121 40151 56016 60006 82360 91500=
07690,1998-08-17 18:00:00,27,1014.8,-0.3,74,22,11000,7.408,,,140,22.6,28.7,,,,,,,,,wg-a,,,,AAXX 17184 07690 12761 21404 10270 20220 30118 40148 55003 60006 81963 91800 333 10287 20226=
07690,1998-08-17 21:00:00,24,1015.3,0.5,89,22,10000,7.408,,,270,,,,,,,,,,,wg-a,,,,AAXX 17214 07690 12/60 /2704 10240 20220 30123 40153 50005 60006 80000 92100=
07690,1998-08-18 00:00:00,24,1014.5,-0.8,69,18,15000,11.112,,,340,,,,,,,,,,,wg-a,,,,AAXX 18004 07690 12/65 33406 10240 20180 30115 40145 56008 60006 80001 90000=
07690,1998-08-18 03:00:00,23,1014.1,-0.4,73,18,15000,14.816,,,330,,,,,,,,,,,wg-a,,,,AAXX 18034 07690 12465 33308 10230 20180 30111 40141 55004 60006 81501 90300=
07690,1998-08-18 06:00:00,23,1014.6,0.5,73,18,13000,11.112,,,330,22.6,26.8,,,,,,,,,wg-a,,,,AAXX 18064 07690 02563 /3306 10230 20180 30116 40146 53005 60006 81532 90600 333 10268 20226 60004=
07690,1998-08-18 09:00:00,27,1014.8,0.2,70,21,8000,7.408,,,190,,,,,,,,,,,wg-a,,,,AAXX 18094 07690 12558 71904 10270 20210 30118 40148 51002 60006 83232 90900=
07690,1998-08-18 12:00:00,27,1012.7,-2.1,79,23,9000,3.704,,,160,,,,,,,,,,,wg-a,,,,AAXX 18124 07690 12759 /1602 10270 20230 30097 40127 58021 60006 81530 91200=
07690,1998-08-18 15:00:00,27,1012.2,-0.5,74,22,9000,29.632,,,200,,,,,,,,,,17,wg-a,,,,AAXX 18154 07690 12559 62016 10270 20220 30092 40122 56005 60006 71791 82380 91500=
07690,1998-08-18 18:00:00,26,1012.2,-0,79,22,12000,14.816,,,90,22.8,28.3,,,,,,,,3,wg-a,,,,AAXX 18184 07690 12562 70908 10260 20220 30092 40122 55000 60006 70391 83360 91800 333 10283 20228=
07690,1998-08-18 21:00:00,23,1013.1,0.9,73,18,15000,11.112,,,310,,,,,,,,,,,wg-a,,,,AAXX 18214 07690 12565 23106 10230 20180 30101 40131 50009 60006 81260 92100=
07690,1998-08-19 00:00:00,22,1013.5,0.4,78,18,15000,7.408,,,360,,,,,,,,,,,wg-a,,,,AAXX 19004 07690 12565 23604 10220 20180 30105 40135 53004 60006 81260 90000=
07690,1998-08-19 03:00:00,21,1013,-0.5,78,17,15000,11.112,,,340,,,,,,,,,,,wg-a,,,,AAXX 19034 07690 12/65 03406 10210 20170 30100 40130 56005 60006 80000 90300=
07690,1998-08-19 06:00:00,21,1013.7,0.7,78,17,500,14.816,,,330,20.2,26.6,,,,,,,,,wg-a,,,,AAXX 19064 07690 02/00 03308 10210 20170 30107 40137 53007 60006 80000 90600 333 10266 20202 60004=
07690,1998-08-19 09:00:00,26,1014.1,0.4,61,18,500,11.112,,,110,,,,,,,,,,,wg-a,,,,AAXX 19094 07690 12600 /1106 10260 20180 30111 40141 51004 60006 81200 90900=
07690,1998-08-19 12:00:00,27,1014.6,0.5,66,20,500,14.816,,,110,,,,,,,,,,,wg-a,,,,AAXX 19124 07690 12600 21108 10270 20200 30116 40146 53005 60006 82300 91200=
07690,1998-08-19 15:00:00,27,1013.8,-0.8,74,22,15000,7.408,,,150,,,,,,,,,,,wg-a,,,,AAXX 19154 07690 12665 21504 10270 20220 30108 40138 57008 60006 82302 91500=
07690,1998-08-19 18:00:00,25,1013.7,-0.1,83,22,15000,3.704,,,160,21.3,27.7,,,,,,,,,wg-a,,,,AAXX 19184 07690 12665 41602 10250 20220 30107 40137 55001 60006 81262 91800 333 10277 20213=
07690,1998-08-19 21:00:00,24,1015.3,1.6,89,22,12000,3.704,,,260,,,,,,,,,,,wg-a,,,,AAXX 19214 07690 12662 22602 10240 20220 30123 40153 51016 60006 81280 92100=
07690,1998-08-20 00:00:00,24,1014.9,-0.4,69,18,11000,11.112,,,340,,,,,,,,,,,wg-a,,,,AAXX 20004 07690 12/61 /3406 10240 20180 30119 40149 55004 60006 90000=
07690,1998-08-20 03:00:00,23,1015.3,0.4,78,19,12000,11.112,,,320,,,,,,,,,,,wg-a,,,,AAXX 20034 07690 12462 33206 10230 20190 30123 40153 53004 60006 82580 90300=
07690,1998-08-20 06:00:00,23,1015.4,0.1,73,18,12000,14.816,,,340,22.1,25.2,,,,,,,,,wg-a,,,,AAXX 20064 07690 02462 53408 10230 20180 30124 40154 53001 60006 81532 90600 333 10252 20221 60004=
07690,1998-08-20 09:00:00,26,1016.3,0.9,79,22,17000,7.408,,,140,,,,,,,,,,,wg-a,,,,AAXX 20094 07690 12567 51404 10260 20220 30133 40163 53009 60006 81182 90900=
07690,1998-08-20 12:00:00,28,1015.6,-0.7,70,22,15000,14.816,,,150,,,,,,,,,,,wg-a,,,,AAXX 20124 07690 12565 31508 10280 20220 30126 40156 58007 60006 82963 91200=
07690,1998-08-20 15:00:00,26,1015.1,-0.5,79,22,15000,7.408,,,120,,,,,,,,,,3,wg-a,,,,AAXX 20154 07690 12565 51204 10260 20220 30121 40151 58005 60006 70391 82963 91500=
07690,1998-08-20 18:00:00,25,1014.1,-1,83,22,11000,11.112,,,210,22.6,28.1,,,,,,,,1,wg-a,,,,AAXX 20184 07690 12661 72106 10250 20220 30111 40141 56010 60006 70191 83502 91800 333 10281 20226=
07690,1998-08-20 21:00:00,23,1014.2,0.1,89,21,11000,7.408,,,310,,,,,,,,,,,wg-a,,,,AAXX 20214 07690 12661 33104 10230 20210 30112 40142 53001 60006 81502 92100=
07690,1998-08-21 00:00:00,22,1013.2,-1,88,20,11000,11.112,,,330,,,,,,,,,,,wg-a,,,,AAXX 21004 07690 12661 33306 10220 20200 30102 40132 56010 60006 82502 90000=
07690,1998-08-21 03:00:00,21,1012.5,-0.7,83,18,11000,18.52,,,330,,,,,,,,,,,wg-a,,,,AAXX 21034 07690 12/61 /3310 10210 20180 30095 40125 58007 60006 90300=
07690,1998-08-21 06:00:00,21,1012.8,0.3,78,17,11000,22.224,,,330,21,25,,,,,,,,,wg-a,,,,AAXX 21064 07690 02461 73312 10210 20170 30098 40128 53003 60006 87500 90600 333 10250 20210 60004=
07690,1998-08-21 09:00:00,26,1012.6,-0.2,70,20,12000,11.112,,,220,,,,,,,,,,,wg-a,,,,AAXX 21094 07690 12462 32206 10260 20200 30096 40126 58002 60006 81202 90900=
07690,1998-08-21 12:00:00,28,1011.1,-1.4,62,20,10000,18.52,,,140,,,,,,,,,,,wg-a,,,,AAXX 21124 07690 12660 31410 10280 20200 30082 40111 57014 60006 81202 91200=
07690,1998-08-21 15:00:00,28,1009.5,-1.6,55,18,20000,25.928,,,70,,,,,,,,,,,wg-a,,,,AAXX 21154 07690 12670 20714 10280 20180 30066 40095 56016 60006 81241 91500=
07690,1998-08-21 18:00:00,26,1008.4,-1.2,74,21,12000,22.224,,,80,21.4,28.3,,,,,,,,,wg-a,,,,AAXX 21184 07690 12662 30812 10260 20210 30054 40084 56012 60006 81241 91800 333 10283 20214=
07690,1998-08-21 21:00:00,24,1009.1,0.7,83,21,15000,7.408,,,60,,,,,,,,,,,wg-a,,,,AAXX 21214 07690 12/65 20604 10240 20210 30061 40091 52007 60006 82030 92100=
07690,1998-08-22 00:00:00,21,1008.5,-0.6,88,19,15000,7.408,,,320,,,,,,,,,,,wg-a,,,,AAXX 22004 07690 12/65 03204 10210 20190 30055 40085 58006 60006 80000 90000=
07690,1998-08-22 03:00:00,21,1007.7,-0.8,83,18,12000,14.816,,,330,,,,,,,,,,,wg-a,,,,AAXX 22034 07690 12462 /3308 10210 20180 30047 40077 56008 60006 81500 90300=
07690,1998-08-22 06:00:00,21,1008.1,0.4,83,18,12000,11.112,,,340,20.5,26.1,,,,,,,,,wg-a,,,,AAXX 22064 07690 02462 23406 10210 20180 30051 40081 53004 60006 82501 90600 333 10261 20205 60004=
07690,1998-08-22 09:00:00,27,1008,0,74,22,10000,18.52,,,140,,,,,,,,,,,wg-a,,,,AAXX 22094 07690 12560 41410 10270 20220 30051 40080 50000 60006 83231 90900=
07690,1998-08-22 12:00:00,28,1007.9,-0.1,70,22,10000,14.816,,,130,,,,,,,,,,,wg-a,,,,AAXX 22124 07690 12560 21308 10280 20220 30050 40079 58001 60006 81201 91200=
07690,1998-08-22 18:00:00,26,1007,-0.3,74,21,15000,3.704,,,140,21.1,27.9,,,,,,,,,wg-a,,,,AAXX 22184 07690 12565 31402 10260 20210 30040 40070 57003 60006 81801 91800 333 10279 20211=
07690,1998-08-22 21:00:00,23,1007.2,0.2,83,20,15000,7.408,,,310,,,,,,,,,,,wg-a,,,,AAXX 22214 07690 12/65 03104 10230 20200 30042 40072 51002 60006 80000 92100=
07690,1998-08-23 00:00:00,22,1006.5,-0.7,88,20,15000,7.408,,,330,,,,,,,,,,,wg-a,,,,AAXX 23004 07690 12/65 03304 10220 20200 30035 40065 57007 60006 80000 90000=
07690,1998-08-23 03:00:00,21,1006.2,-0.3,88,19,15000,14.816,,,320,,,,,,,,,,,wg-a,,,,AAXX 23034 07690 12/65 03208 10210 20190 30032 40062 55003 60006 80000 90300=
07690,1998-08-23 06:00:00,22,1007.7,1.5,83,19,10000,11.112,,,320,20.7,25.9,,,,,,,,,wg-a,,,,AAXX 23064 07690 02460 23206 10220 20190 30047 40077 53015 60006 81101 90600 333 10259 20207 60004=
07690,1998-08-23 09:00:00,27,1009.9,2.2,74,22,13000,7.408,,,180,,,,,,,,,,,wg-a,,,,AAXX 23094 07690 12463 31804 10270 20220 30069 40099 53022 60006 83100 90900=
07690,1998-08-23 12:00:00,28,1010.5,0.7,70,22,15000,14.816,,,130,,,,,,,,,,,wg-a,,,,AAXX 23124 07690 12565 /1308 10280 20220 30076 40105 51007 60006 81100 91200=
07690,1998-08-23 15:00:00,28,1010.6,0.1,70,22,13000,18.52,,,100,,,,,,,,,,,wg-a,,,,AAXX 23154 07690 12563 /1010 10280 20220 30077 40106 51001 60006 81100 91500=
07690,1998-08-23 18:00:00,26,1011,0.3,84,23,13000,7.408,,,120,21.6,28.6,,,,,,,,,wg-a,,,,AAXX 23184 07690 12563 /1204 10260 20230 30080 40110 53003 60006 81100 91800 333 10286 20216=
07690,1998-08-23 21:00:00,25,1012.2,1.2,83,22,15000,3.704,,,110,,,,,,,,,,,wg-a,,,,AAXX 23214 07690 12465 /1102 10250 20220 30092 40122 51012 60006 81500 92100=
07690,1998-08-24 00:00:00,23,1012,-0.2,89,21,15000,7.408,,,320,,,,,,,,,,,wg-a,,,,AAXX 24004 07690 12/65 03204 10230 20210 30090 40120 58002 60006 80000 90000=
07690,1998-08-24 03:00:00,21,1011.4,-0.6,94,20,15000,11.112,,,330,,,,,,,,,,,wg-a,,,,AAXX 24034 07690 12/65 03306 10210 20200 30084 40114 57006 60006 80000 90300=
07690,1998-08-24 06:00:00,22,1011.7,0.3,78,18,15000,14.816,,,330,20.8,26.1,,,,,,,,,wg-a,,,,AAXX 24064 07690 02465 33308 10220 20180 30087 40117 53003 60006 82530 90600 333 10261 20208 60004=
07690,1998-08-24 09:00:00,26,1011.2,-0.5,74,21,15000,14.816,,,190,,,,,,,,,,,wg-a,,,,AAXX 24094 07690 12465 21908 10260 20210 30082 40112 56005 60006 82800 90900=
07690,1998-08-24 12:00:00,28,1010,-1.1,66,21,15000,14.816,,,150,,,,,,,,,,,wg-a,,,,AAXX 24124 07690 12465 31508 10280 20210 30071 40100 58011 60006 82840 91200=
07690,1998-08-24 15:00:00,27,1008.2,-1.8,70,21,25000,22.224,,,100,,,,,,,,,,,wg-a,,,,AAXX 24154 07690 12475 21012 10270 20210 30053 40082 58018 60006 81141 91500=
07690,1998-08-24 18:00:00,26,1007.2,-1.1,74,21,500,14.816,,,100,21.6,27.9,,,,,,,,,wg-a,,,,AAXX 24184 07690 12400 41008 10260 20210 30042 40072 56011 60006 81540 91800 333 10279 20216=
07690,1998-08-24 21:00:00,25,1008.6,1.4,83,22,500,14.816,,,60,,,,,,,,,,,wg-a,,,,AAXX 24214 07690 12400 20608 10250 20220 30056 40086 53014 60006 81540 92100=
07690,1998-08-25 00:00:00,23,1010,1.4,89,21,500,7.408,,,330,,,,,,,,,,,wg-a,,,,AAXX 25004 07690 12400 53304 10230 20210 30070 40100 51014 60006 84540 90000=
07690,1998-08-25 03:00:00,22,1010.1,0.1,83,19,500,14.816,,,320,,,,,,,,,,,wg-a,,,,AAXX 25034 07690 12400 53208 10220 20190 30071 40101 52001 60006 85480 90300=
07690,1998-08-25 06:00:00,21,1011.5,1.4,73,16,20000,14.816,,,340,21,25.6,,,,,,,,,wg-a,,,,AAXX 25064 07690 02570 53408 10210 20160 30085 40115 53014 60006 85530 90600 333 10256 20210 60004=
07690,1998-08-25 09:00:00,27,1013.1,1.6,58,18,20000,11.112,,,170,,,,,,,,,,,wg-a,,,,AAXX 25094 07690 12470 /1706 10270 20180 30101 40131 53016 60006 81200 90900=
07690,1998-08-25 12:00:00,28,1013.7,0.6,62,20,20000,22.224,,,200,,,,,,,,,,,wg-a,,,,AAXX 25124 07690 12470 /2012 10280 20200 30107 40137 51006 60006 81200 91200=
07690,1998-08-25 15:00:00,28,1013.6,-0.1,51,17,500,14.816,,,200,,,,,,,,,,,wg-a,,,,AAXX 25154 07690 12400 /2008 10280 20170 30106 40136 57001 60006 81200 91500=
07690,1998-08-25 18:00:00,26,1013.4,-0.2,54,16,500,7.408,,,200,21.3,28.7,,,,,,,,,wg-a,,,,AAXX 25184 07690 12500 /2004 10260 20160 30104 40134 55002 60006 81500 91800 333 10287 20213=
07690,1998-08-25 21:00:00,23,1014.8,1.4,57,14,25000,11.112,,,330,,,,,,,,,,,wg-a,,,,AAXX 25214 07690 12/75 03306 10230 20140 30118 40148 51014 60006 80000 92100=
07690,1998-08-26 00:00:00,22,1014.8,0,57,13,25000,18.52,,,340,,,,,,,,,,,wg-a,,,,AAXX 26004 07690 12/75 03410 10220 20130 30118 40148 50000 60006 80000 90000=
07690,1998-08-26 03:00:00,22,1014.2,-0.6,53,12,25000,18.52,,,340,,,,,,,,,,,wg-a,,,,AAXX 26034 07690 12/75 03410 10220 20120 30112 40142 57006 60006 80000 90300=
07690,1998-08-26 06:00:00,22,1014.7,0.5,57,13,35000,18.52,,,340,21.2,26.1,,,,,,,,,wg-a,,,,AAXX 26064 07690 02/81 /3410 10220 20130 30117 40147 52005 60006 80000 90600 333 10261 20212 60004=
07690,1998-08-26 09:00:00,27,1015,0.3,62,19,500,11.112,,,110,,,,,,,,,,,wg-a,,,,AAXX 26094 07690 12/00 11106 10270 20190 30120 40150 51003 60006 81030 90900=
07690,1998-08-26 12:00:00,27,1014.3,-0.7,66,20,500,14.816,,,140,,,,,,,,,,,wg-a,,,,AAXX 26124 07690 12500 /1408 10270 20200 30113 40143 58007 60006 81200 91200=
07690,1998-08-26 15:00:00,26,1012.6,-1.7,61,18,500,11.112,,,130,,,,,,,,,,,wg-a,,,,AAXX 26154 07690 12500 /1306 10260 20180 30096 40126 58017 60006 81202 91500=
07690,1998-08-26 18:00:00,25,1011.4,-1.2,61,17,500,3.704,,,170,21.6,27.4,,,,,,,,,wg-a,,,,AAXX 26184 07690 12/00 11702 10250 20170 30084 40114 58012 60006 80002 91800 333 10274 20216=
07690,1998-08-26 21:00:00,22,1011.5,0.1,73,17,20000,7.408,,,320,,,,,,,,,,,wg-a,,,,AAXX 26214 07690 12/70 03204 10220 20170 30085 40115 53001 60006 80000 92100=
07690,1998-08-27 00:00:00,20,1010.5,-1,78,16,20000,14.816,,,320,,,,,,,,,,,wg-a,,,,AAXX 27004 07690 12/70 03208 10200 20160 30075 40105 58010 60006 80000 90000=
07690,1998-08-27 03:00:00,19,1009.5,-1,78,15,20000,18.52,,,330,,,,,,,,,,,wg-a,,,,AAXX 27034 07690 12470 53310 10190 20150 30065 40095 56010 60006 85500 90300=
07690,1998-08-27 06:00:00,19,1009.5,-0,78,15,15000,14.816,,,330,18.6,24.7,,,,,,,,,wg-a,,,,AAXX 27064 07690 02465 53308 10190 20150 30065 40095 55000 60006 81132 90600 333 10247 20186 60004=
07690,1998-08-27 09:00:00,25,1009,-0.5,69,19,15000,11.112,,,110,,,,,,,,,,,wg-a,,,,AAXX 27094 07690 12565 41106 10250 20190 30060 40090 56005 60006 83232 90900=
07690,1998-08-27 12:00:00,26,1007.3,-1.7,65,19,25000,18.52,,,110,,,,,,,,,,,wg-a,,,,AAXX 27124 07690 12575 21110 10260 20190 30043 40073 58017 60006 81202 91200=
07690,1998-08-27 15:00:00,26,1005.9,-1.4,65,19,25000,14.816,,,120,,,,,,,,,,,wg-a,,,,AAXX 27154 07690 12575 /1208 10260 20190 30029 40059 58014 60006 81202 91500=
07690,1998-08-27 18:00:00,25,1004.6,-1.3,69,19,25000,14.816,,,100,19.4,26.9,,,,,,,,,wg-a,,,,AAXX 27184 07690 12675 51008 10250 20190 30016 40046 57013 60006 81402 91800 333 10269 20194=
07690,1998-08-27 21:00:00,25,1005.2,0.6,69,19,12000,14.816,,,80,,,,,,,,,,,wg-a,,,,AAXX 27214 07690 12562 40808 10250 20190 30022 40052 51006 60006 84500 92100=
07690,1998-08-28 00:00:00,21,1004.3,-0.9,83,18,12000,14.816,,,330,,,,,,,,,,,wg-a,,,,AAXX 28004 07690 12562 43308 10210 20180 30013 40043 57009 60006 84500 90000=
07690,1998-08-28 03:00:00,21,1003.6,-0.7,78,17,12000,14.816,,,330,,,,,,,,,,,wg-a,,,,AAXX 28034 07690 12562 43308 10210 20170 30006 40036 57007 60006 84500 90300=
07690,1998-08-28 06:00:00,21,1004.7,1.1,78,17,15000,14.816,,,340,20.1,25.1,,,,,,,,,wg-a,,,,AAXX 28064 07690 02565 53408 10210 20170 30017 40047 53011 60006 82580 90600 333 10251 20201 60004=
07690,1998-08-28 09:00:00,26,1005.4,0.7,61,18,25000,14.816,,,190,,,,,,,,,,,wg-a,,,,AAXX 28094 07690 12675 21908 10260 20180 30024 40054 53007 60006 81270 90900=
07690,1998-08-28 12:00:00,26,1006.7,1.3,45,13,15000,18.52,,,100,,,,,,,,,,80,wg-a,,,,AAXX 28124 07690 02565 71010 10260 20130 30037 40067 51013 61000 78098 8396/ 91200 333 6100=
07690,1998-08-28 15:00:00,23,1008.2,1.5,69,17,20000,22.224,,,260,,,,,,,,,,1,wg-a,,,,AAXX 28154 07690 02670 /2612 10230 20170 30052 40082 51015 61000 70196 82963 91500 333 ////=
07690,1998-08-28 18:00:00,22,1009.4,1.2,69,16,500,22.224,,,260,20.9,27,,,,,,,,3,wg-a,,,,AAXX 28184 07690 12600 /2612 10220 20160 30064 40094 53012 60006 70396 84400 91800 333 10270 20209=
07690,1998-08-28 21:00:00,20,1011.4,2,78,16,20000,7.408,,,320,,,,,,,,,,,wg-a,,,,AAXX 28214 07690 12/70 03204 10200 20160 30084 40114 51020 60006 80000 92100=
07690,1998-08-29 00:00:00,18,1012.2,0.7,83,15,20000,14.816,,,330,,,,,,,,,,,wg-a,,,,AAXX 29004 07690 12/70 03308 10180 20150 30091 40122 51007 60006 80000 90000=
07690,1998-08-29 03:00:00,18,1012.4,0.2,73,13,20000,18.52,,,330,,,,,,,,,,,wg-a,,,,AAXX 29034 07690 12570 23310 10180 20130 30093 40124 53002 60006 82500 90300=
07690,1998-08-29 06:00:00,18,1012.8,0.4,68,12,25000,22.224,,,330,17.3,22.4,,,,,,,,,wg-a,,,,AAXX 29064 07690 02575 /3312 10180 20120 30097 40128 52004 60006 84800 90600 333 10224 20173 61000=
07690,1998-08-29 09:00:00,24,1014,1.3,54,14,25000,14.816,,,160,,,,,,,,,,,wg-a,,,,AAXX 29094 07690 12475 21608 10240 20140 30110 40140 53013 60006 82800 90900=
07690,1998-08-29 12:00:00,24,1014.4,0.4,50,13,25000,14.816,,,140,,,,,,,,,,,wg-a,,,,AAXX 29124 07690 12675 71408 10240 20130 30114 40144 51004 60006 878// 91200=
07690,1998-08-29 15:00:00,23,1014.5,0.1,50,12,20000,14.816,,,150,,,,,,,,,,,wg-a,,,,AAXX 29154 07690 12470 /1508 10230 20120 30115 40145 51001 60006 84800 91500=
07690,1998-08-29 18:00:00,22,1014.8,0.3,60,14,20000,7.408,,,200,17.6,24.7,,,,,,,,,wg-a,,,,AAXX 29184 07690 12670 52004 10220 20140 30118 40148 53003 60006 85501 91800 333 10247 20176=
07690,1998-08-29 21:00:00,19,1016.1,1.2,73,14,20000,11.112,,,330,,,,,,,,,,,wg-a,,,,AAXX 29214 07690 12670 33306 10190 20140 30130 40161 51012 60006 82530 92100=
07690,1998-08-30 00:00:00,18,1016.6,0.5,77,14,20000,14.816,,,330,,,,,,,,,,,wg-a,,,,AAXX 30004 07690 12670 33308 10180 20140 30135 40166 50005 60006 82230 90000=
07690,1998-08-30 03:00:00,19,1016.6,-0,73,14,25000,14.816,,,330,,,,,,,,,,,wg-a,,,,AAXX 30034 07690 12675 53308 10190 20140 30135 40166 55000 60006 85500 90300=
07690,1998-08-30 06:00:00,19,1017.3,0.7,68,13,25000,14.816,,,330,18.2,21.5,,,,,,,,,wg-a,,,,AAXX 30064 07690 02575 /3308 10190 20130 30142 40173 53007 60006 85800 90600 333 10215 20182 60004=
07690,1998-08-30 09:00:00,24,1017.8,0.6,50,13,20000,7.408,,,160,,,,,,,,,,,wg-a,,,,AAXX 30094 07690 12570 31604 10240 20130 30148 40178 51006 60006 83800 90900=
07690,1998-08-30 12:00:00,24,1017.5,-0.3,65,17,25000,18.52,,,180,,,,,,,,,,,wg-a,,,,AAXX 30124 07690 12575 61810 10240 20170 30145 40175 56003 60006 85802 91200=
07690,1998-08-30 15:00:00,24,1016.7,-0.8,61,16,25000,22.224,,,220,,,,,,,,,,,wg-a,,,,AAXX 30154 07690 12575 72212 10240 20160 30137 40167 56008 60006 82802 91500=
07690,1998-08-30 18:00:00,22,1016.2,-0.5,69,16,25000,18.52,,,210,18.8,24.7,,,,,,,,,wg-a,,,,AAXX 30184 07690 12575 32110 10220 20160 30132 40162 57005 60006 82202 91800 333 10247 20188=
07690,1998-08-30 21:00:00,20,1016.6,0.3,73,15,20000,11.112,,,320,,,,,,,,,,,wg-a,,,,AAXX 30214 07690 12470 /3206 10200 20150 30135 40166 52003 60006 81500 92100=
07690,1998-08-31 00:00:00,19,1016.5,-0.1,73,14,20000,14.816,,,340,,,,,,,,,,,wg-a,,,,AAXX 31004 07690 12470 /3408 10190 20140 30134 40165 58001 60006 81500 90000=
07690,1998-08-31 03:00:00,18,1015.5,-1,73,13,20000,18.52,,,340,,,,,,,,,,,wg-a,,,,AAXX 31034 07690 12/70 03410 10180 20130 30124 40155 56010 60006 80000 90300=
07690,1998-08-31 06:00:00,18,1016.3,0.8,73,13,20000,18.52,,,330,17.3,22.9,,,,,,,,,wg-a,,,,AAXX 31064 07690 02470 /3310 10180 20130 30132 40163 53008 60006 81100 90600 333 10229 20173 60004=
07690,1998-08-31 09:00:00,24,1016.7,0.5,61,16,500,11.112,,,140,,,,,,,,,,,wg-a,,,,AAXX 31094 07690 12500 41406 10240 20160 30137 40167 53005 60006 82101 90900=
07690,1998-08-31 12:00:00,25,1015.9,-0.8,57,16,11000,18.52,,,160,,,,,,,,,,,wg-a,,,,AAXX 31124 07690 12/61 /1610 10250 20160 30129 40159 57008 60006 91200=
07690,1998-08-31 15:00:00,24,1014.8,-1.1,74,19,20000,22.224,,,180,,,,,,,,,,,wg-a,,,,AAXX 31154 07690 12470 71812 10240 20190 30118 40148 58011 60006 87500 91500=
07690,1998-08-31 18:00:00,25,1013.9,-0.9,74,20,20000,11.112,,,40,17.6,25.2,,,,,,,,,wg-a,,,,AAXX 31184 07690 12470 /0406 10250 20200 30109 40139 57009 60006 85500 91800 333 10252 20176=
07690,1998-08-31 21:00:00,22,1014.7,0.8,78,18,20000,7.408,,,20,,,,,,,,,,,wg-a,,,,AAXX 31214 07690 12470 20204 10220 20180 30117 40147 51008 60006 81502 92100=
07690,1998-09-01 00:00:00,20,1015.3,0.6,88,18,20000,11.112,,,340,,,,,,,,,,,wg-a,,,,AAXX 01004 07690 12470 /3406 10200 20180 30123 40153 52006 60006 81501 90000=
07690,1998-09-01 03:00:00,20,1015.7,0.4,83,17,15000,14.816,,,50,,,,,,,,,,,wg-a,,,,AAXX 01034 07690 12465 /0508 10200 20170 30127 40157 53004 60006 86500 90300=
07690,1998-09-01 06:00:00,20,1017.2,1.5,83,17,12000,14.816,,,340,19.2,24.7,,,,,,,,,wg-a,,,,AAXX 01064 07690 02462 73408 10200 20170 30142 40172 53015 60006 875// 90600 333 10247 20192 60004=
07690,1998-09-01 09:00:00,24,1017.7,0.5,74,19,13000,18.52,,,60,,,,,,,,,,,wg-a,,,,AAXX 01094 07690 12563 /0610 10240 20190 30147 40177 50005 60006 83801 90900=
07690,1998-09-01 12:00:00,25,1017.8,0.1,74,20,20000,22.224,,,110,,,,,,,,,,,wg-a,,,,AAXX 01124 07690 12570 /1112 10250 20200 30148 40178 53001 60006 81802 91200=
07690,1998-09-01 15:00:00,25,1017.3,-0.5,74,20,18000,18.52,,,90,,,,,,,,,,,wg-a,,,,AAXX 01154 07690 12568 /0910 10250 20200 30143 40173 58005 60006 82802 91500=
07690,1998-09-01 18:00:00,24,1017.9,0.6,74,19,25000,14.816,,,90,20.3,25.9,,,,,,,,,wg-a,,,,AAXX 01184 07690 12675 /0908 10240 20190 30149 40179 51006 60006 81501 91800 333 10259 20203=
07690,1998-09-01 21:00:00,22,1018.3,0.4,83,19,15000,11.112,,,330,,,,,,,,,,,wg-a,,,,AAXX 01214 07690 12565 /3306 10220 20190 30153 40183 51004 60006 81500 92100=
07690,1998-09-02 00:00:00,20,1018,-0.4,88,18,15000,14.816,,,330,,,,,,,,,,,wg-a,,,,AAXX 02004 07690 12565 /3308 10200 20180 30149 40180 58004 60006 81500 90000=
07690,1998-09-02 03:00:00,20,1017.5,-0.5,83,17,11000,11.112,,,330,,,,,,,,,,,wg-a,,,,AAXX 02034 07690 12/61 /3306 10200 20170 30144 40175 58005 60006 90300=
07690,1998-09-02 06:00:00,20,1017.7,0.3,83,17,20000,14.816,,,330,19.6,23.9,,,,,,,,,wg-a,,,,AAXX 02064 07690 02470 /3308 10200 20170 30147 40177 53003 60006 81101 90600 333 10239 20196 60004=
07690,1998-09-02 09:00:00,25,1017.8,0.1,79,21,13000,31.484,,,90,,,,,,,,,,,wg-a,,,,AAXX 02094 07690 12563 /0917 10250 20210 30148 40178 53001 60006 81100 90900=
07690,1998-09-02 12:00:00,26,1016.9,-0.9,74,21,13000,31.484,,,90,,,,,,,,,,,wg-a,,,,AAXX 02124 07690 12563 20917 10260 20210 30139 40169 58009 60006 81101 91200=
07690,1998-09-02 15:00:00,26,1015.9,-1,65,19,15000,25.928,,50.004,80,,,,,,,,,,,wg-a,,,,AAXX 02154 07690 12565 30814 10260 20190 30129 40159 58010 60006 81101 91500 333 91027=
07690,1998-09-02 18:00:00,25,1015.8,-0.1,69,19,15000,25.928,,50.004,80,20.3,26.5,,,,,,,,,wg-a,,,,AAXX 02184 07690 12/65 50814 10250 20190 30128 40158 55001 60006 81012 91800 333 10265 20203 91027=
07690,1998-09-02 21:00:00,22,1015.8,0,83,19,15000,11.112,,,320,,,,,,,,,,,wg-a,,,,AAXX 02214 07690 12/65 43206 10220 20190 30128 40158 50000 60006 80002 92100=
07690,1998-09-03 00:00:00,21,1015.4,-0.4,83,18,15000,14.816,,,330,,,,,,,,,,,wg-a,,,,AAXX 03004 07690 12/65 43308 10210 20180 30124 40154 58004 60006 81032 90000=
07690,1998-09-03 03:00:00,21,1015.1,-0.3,83,18,15000,14.816,,,320,,,,,,,,,,,wg-a,,,,AAXX 03034 07690 12/65 53208 10210 20180 30121 40151 55003 60006 83032 90300=
07690,1998-09-03 06:00:00,22,1015,-0.1,73,17,12000,14.816,,,330,20.7,25.2,,,,,,,,61,wg-a,,,,AAXX 03064 07690 02662 73308 10220 20170 30120 40150 58001 61000 76161 8757/ 90600 333 10252 20207 6100=
07690,1998-09-03 09:00:00,26,1015.1,0.1,61,18,9000,7.408,,,110,,,,,,,,,,1,wg-a,,,,AAXX 03094 07690 02559 /1104 10260 20180 30121 40151 51001 61000 70161 84570 90900 333 ////=
07690,1998-09-03 12:00:00,27,1013.8,-1.3,62,19,12000,14.816,,,170,,,,,,,,,,2,wg-a,,,,AAXX 03124 07690 02562 21708 10270 20190 30108 40138 58013 61000 70261 81101 91200 333 ////=
07690,1998-09-03 15:00:00,27,1013.1,-0.7,62,19,12000,11.112,,,140,,,,,,,,,,,wg-a,,,,AAXX 03154 07690 12562 21406 10270 20190 30101 40131 58007 60006 81101 91500=
07690,1998-09-03 18:00:00,25,1012.8,-0.3,79,21,12000,14.816,,,100,21.3,27.6,,,,,,,,,wg-a,,,,AAXX 03184 07690 12/62 41008 10250 20210 30098 40128 55003 60006 80001 91800 333 10276 20213=
07690,1998-09-04 00:00:00,21,1013.3,-0.5,83,18,15000,14.816,,,340,,,,,,,,,,,wg-a,,,,AAXX 04004 07690 12465 /3408 10210 20180 30103 40133 58005 60006 81502 90000=
07690,1998-09-04 03:00:00,20,1012.7,-0.6,83,17,12000,14.816,,,340,,,,,,,,,,,wg-a,,,,AAXX 04034 07690 12462 13408 10200 20170 30097 40127 57006 60006 81501 90300=
07690,1998-09-04 06:00:00,21,1012.6,-0.1,78,17,13000,18.52,,,330,20,24.6,,,,,,,,,wg-a,,,,AAXX 04064 07690 02563 73310 10210 20170 30096 40126 55001 60006 84530 90600 333 10246 20200 61000=
07690,1998-09-04 09:00:00,25,1013.4,0.8,69,19,13000,7.408,,,150,,,,,,,,,,,wg-a,,,,AAXX 04094 07690 12463 71504 10250 20190 30104 40134 51008 60006 8553/ 90900=
07690,1998-09-04 12:00:00,25,1012.4,-1,79,21,9000,11.112,,,170,,,,,,,,,,,wg-a,,,,AAXX 04124 07690 12559 /1706 10250 20210 30094 40124 56010 60006 81136 91200=
07690,1998-09-04 15:00:00,25,1011.5,-0.9,79,21,9000,7.408,,,170,,,,,,,,,,,wg-a,,,,AAXX 04154 07690 12459 /1704 10250 20210 30085 40115 58009 60006 81131 91500=
07690,1998-09-04 18:00:00,23,1010,-1.5,83,20,9000,7.408,,,190,20.9,26.9,,,,,,,,,wg-a,,,,AAXX 04184 07690 12459 /1904 10230 20200 30070 40100 56015 60006 82131 91800 333 10269 20209=
07690,1998-09-04 21:00:00,22,1009.4,-0.6,94,21,10000,7.408,,,260,,,,,,,,,,,wg-a,,,,AAXX 04214 07690 12460 72604 10220 20210 30064 40094 58006 60006 8553/ 92100=
07690,1998-09-05 00:00:00,21,1007.1,-2.3,94,20,6000,25.928,,,170,,,,4,,,,,,63,wg-a,,,,AAXX 05004 07690 02356 81714 10210 20200 30041 40071 58023 60046 76362 8593/ 90000 333 60047=
07690,1998-09-05 03:00:00,20,1004.9,-2.2,94,19,10000,3.704,,,80,,,,29,,,,,,2,wg-a,,,,AAXX 05034 07690 12260 70802 10200 20190 30019 40049 56022 60297 70296 8553/ 90300=
07690,1998-09-05 06:00:00,19,1003.9,-1,100,19,15000,7.408,,,300,19.4,23.2,,,,,33,,,1,wg-a,,,,AAXX 05064 07690 02365 53004 10190 20190 30009 40039 56010 60006 70196 83532 90600 333 10232 20194 60334=
07690,1998-09-05 09:00:00,24,1003.7,-0.2,69,18,50000,14.816,,,250,,,,,,,,,,,wg-a,,,,AAXX 05094 07690 12584 22508 10240 20180 30007 40037 55002 60006 81102 90900=
07690,1998-09-05 12:00:00,30,1003.2,-0.4,38,14,50000,11.112,,,160,,,,,,,,,,,wg-a,,,,AAXX 05124 07690 12684 41606 10300 20140 30003 40032 56004 60006 81102 91200=
07690,1998-09-05 15:00:00,26,1003.8,0.6,70,20,50000,29.632,,,100,,,,,,,,,,,wg-a,,,,AAXX 05154 07690 12684 41016 10260 20200 30009 40038 53006 60006 81102 91500=
07690,1998-09-05 18:00:00,25,1005.4,1.5,74,20,40000,3.704,,,130,19.4,30.8,,,,,,,,,wg-a,,,,AAXX 05184 07690 12682 /1302 10250 20200 30024 40054 51015 60006 81202 91800 333 10308 20194=
07690,1998-09-05 21:00:00,21,1007.6,2.2,83,18,25000,14.816,,,330,,,,,,,,,,,wg-a,,,,AAXX 05214 07690 12/75 13308 10210 20180 30046 40076 51022 60006 80002 92100=
07690,1998-09-06 00:00:00,19,1008.1,0.5,73,14,25000,14.816,,,330,,,,,,,,,,,wg-a,,,,AAXX 06004 07690 12/75 33308 10190 20140 30051 40081 50005 60006 80002 90000=
07690,1998-09-06 03:00:00,20,1008.1,-0,53,10,25000,18.52,,,330,,,,,,,,,,,wg-a,,,,AAXX 06034 07690 12575 43310 10200 20100 30051 40081 54000 60006 81502 90300=
07690,1998-09-06 06:00:00,19,1009.4,1.3,52,9,50000,18.52,,,330,18.7,24.5,,,,,,,,,wg-a,,,,AAXX 06064 07690 02484 /3310 10190 20090 30064 40094 51013 60006 81502 90600 333 10245 20187 60004=
07690,1998-09-06 09:00:00,25,1010.7,1.3,50,14,50000,7.408,,,120,,,,,,,,,,,wg-a,,,,AAXX 06094 07690 12484 /1204 10250 20140 30077 40107 53013 60006 81500 90900=
07690,1998-09-06 12:00:00,25,1010.3,-0.4,69,19,500,11.112,,,150,,,,,,,,,,,wg-a,,,,AAXX 06124 07690 12400 /1506 10250 20190 30073 40103 58004 60006 81200 91200=
07690,1998-09-06 15:00:00,25,1009.2,-1.1,65,18,500,14.816,,,160,,,,,,,,,,,wg-a,,,,AAXX 06154 07690 12400 /1608 10250 20180 30062 40092 58011 60006 81200 91500=
07690,1998-09-06 18:00:00,24,1008.9,-0.3,65,17,40000,11.112,,,80,19,25.7,,,,,,,,,wg-a,,,,AAXX 06184 07690 12482 /0806 10240 20170 30059 40089 58003 60006 81400 91800 333 10257 20190=
07690,1998-09-06 21:00:00,20,1009.9,1,83,17,40000,7.408,,,350,,,,,,,,,,,wg-a,,,,AAXX 06214 07690 12/82 13504 10200 20170 30069 40099 50010 60006 80001 92100=
07690,1998-09-07 00:00:00,19,1009.6,-0.3,83,16,500,11.112,,,330,,,,,,,,,,,wg-a,,,,AAXX 07004 07690 12400 43306 10190 20160 30066 40096 58003 60006 84100 90000=
07690,1998-09-07 03:00:00,18,1008.7,-0.9,83,15,25000,14.816,,,330,,,,,,,,,,,wg-a,,,,AAXX 07034 07690 12475 73308 10180 20150 30057 40087 56009 60006 81506 90300=
07690,1998-09-07 06:00:00,19,1009.3,0.6,78,15,25000,14.816,,,340,18,23.7,,,,,,,,,wg-a,,,,AAXX 07064 07690 02475 73408 10190 20150 30063 40093 53006 60006 81572 90600 333 10237 20180 60004=
07690,1998-09-07 09:00:00,23,1009.2,-0.1,73,18,500,18.52,,,70,,,,0,,,,,,,wg-a,,,,AAXX 07094 07690 12500 /0710 10230 20180 30062 40092 58001 60007 82812 90900=
07690,1998-09-07 12:00:00,23,1008.2,-1,78,19,15000,18.52,,,80,,,,,,,,,,60,wg-a,,,,AAXX 07124 07690 02565 80810 10230 20190 30052 40082 58010 61000 76062 8397/ 91200 333 6100=
07690,1998-09-07 15:00:00,17,1007.9,-0.4,94,16,2800,7.408,,,200,,,,25,,,,,,10,wg-a,,,,AAXX 07154 07690 12228 82004 10170 20160 30048 40079 56004 60257 71098 879// 91500=
07690,1998-09-07 18:00:00,18,1007.6,-0.2,94,17,9000,11.112,,,10,17.3,24.1,,,,,,,,60,wg-a,,,,AAXX 07184 07690 02459 80106 10180 20170 30046 40076 55002 61000 76098 8497/ 91800 333 10241 20173 6006=
07690,1998-09-07 21:00:00,17,1006.9,-0.7,94,16,10000,18.52,,,350,,,,7,,,,,,80,wg-a,,,,AAXX 07214 07690 12460 83510 10170 20160 30039 40069 58007 60077 78096 879// 92100=
07690,1998-09-08 00:00:00,17,1007.7,0.7,94,16,10000,11.112,,,340,,,,1,,,,,,61,wg-a,,,,AAXX 08004 07690 02560 83406 10170 20160 30046 40077 50007 60096 76196 8787/ 90000 333 60017=
07690,1998-09-08 03:00:00,17,1007,-0.7,94,16,10000,11.112,,,300,,,,1,,,,,,21,wg-a,,,,AAXX 08034 07690 12460 83006 10170 20160 30039 40070 57007 60017 72162 8587/ 90300=
07690,1998-09-08 06:00:00,18,1007.8,0.8,88,16,40000,14.816,,,330,16.6,18,,,,,41,,,1,wg-a,,,,AAXX 08064 07690 02482 23308 10180 20160 30047 40078 51008 60006 70161 8183/ 90600 333 10180 20166 60414=
07690,1998-09-08 09:00:00,22,1008.9,1.2,69,16,50000,11.112,,,230,,,,,,,,,,,wg-a,,,,AAXX 08094 07690 12584 /2306 10220 20160 30059 40089 53012 60006 8124/ 90900=
07690,1998-09-08 12:00:00,24,1009.2,0.3,57,15,40000,25.928,,,210,,,,,,,,,,,wg-a,,,,AAXX 08124 07690 12682 /2114 10240 20150 30062 40092 51003 60006 8180/ 91200=
07690,1998-09-08 15:00:00,24,1009.6,0.4,65,17,40000,25.928,,,190,,,,,,,,,,,wg-a,,,,AAXX 08154 07690 12682 /1914 10240 20170 30066 40096 53004 60006 8140/ 91500=
07690,1998-09-08 18:00:00,21,1010.8,1.2,83,18,500,7.408,,,250,17.5,24.6,,,,,,,,,wg-a,,,,AAXX 08184 07690 12600 /2504 10210 20180 30078 40108 51012 60006 8150/ 91800 333 10246 20175=
07690,1998-09-08 21:00:00,20,1012.1,1.3,78,16,20000,11.112,,,340,,,,,,,,,,,wg-a,,,,AAXX 08214 07690 12/70 03406 10200 20160 30091 40121 51013 60006 80000 92100=
07690,1998-09-09 00:00:00,19,1013,0.9,83,16,10000,14.816,,,340,,,,,,,,,,,wg-a,,,,AAXX 09004 07690 12/60 /3408 10190 20160 30100 40130 52009 60006 90000=
07690,1998-09-09 03:00:00,19,1013.2,0.1,83,16,25000,14.816,,,340,,,,,,,,,,,wg-a,,,,AAXX 09034 07690 12/75 13408 10190 20160 30101 40132 53001 60006 80001 90300=
07690,1998-09-09 06:00:00,19,1014.6,1.4,78,15,40000,14.816,,,330,18.3,21.3,,,,,,,,,wg-a,,,,AAXX 09064 07690 02/82 13308 10190 20150 30115 40146 53014 60006 80001 90600 333 10213 20183 60004=
07690,1998-09-09 09:00:00,25,1015.6,1.1,61,17,40000,7.408,,,100,,,,,,,,,,,wg-a,,,,AAXX 09094 07690 12682 /1004 10250 20170 30126 40156 52011 60006 81202 90900=
07690,1998-09-09 12:00:00,25,1015.6,0,65,18,40000,11.112,,,170,,,,,,,,,,,wg-a,,,,AAXX 09124 07690 12682 /1706 10250 20180 30126 40156 50000 60006 81200 91200=
07690,1998-09-09 15:00:00,25,1014.9,-0.7,65,18,500,11.112,,,170,,,,,,,,,,,wg-a,,,,AAXX 09154 07690 12600 /1706 10250 20180 30119 40149 56007 60006 81202 91500=
07690,1998-09-09 18:00:00,23,1014.6,-0.3,73,18,500,7.408,,,210,19.1,25.9,,,,,,,,,wg-a,,,,AAXX 09184 07690 12/00 22104 10230 20180 30116 40146 57003 60006 81042 91800 333 10259 20191=
07690,1998-09-09 21:00:00,20,1015.8,1.2,83,17,20000,11.112,,,330,,,,,,,,,,,wg-a,,,,AAXX 09214 07690 12/70 03306 10200 20170 30128 40158 51012 60006 80000 92100=
07690,1998-09-10 00:00:00,20,1015.5,-0.4,78,16,20000,14.816,,,330,,,,,,,,,,,wg-a,,,,AAXX 10004 07690 12/70 03308 10200 20160 30124 40155 58004 60006 80000 90000=
07690,1998-09-10 03:00:00,20,1014.6,-0.8,78,16,20000,14.816,,,330,,,,,,,,,,,wg-a,,,,AAXX 10034 07690 12/70 03308 10200 20160 30116 40146 57008 60006 80000 90300=
07690,1998-09-10 06:00:00,20,1014.9,0.3,78,16,500,14.816,,,340,19.3,22.7,,,,,,,,,wg-a,,,,AAXX 10064 07690 02/00 13408 10200 20160 30119 40149 53003 60006 80001 90600 333 10227 20193 60004=
07690,1998-09-10 09:00:00,26,1015.3,0.4,54,16,500,7.408,,,130,,,,,,,,,,,wg-a,,,,AAXX 10094 07690 12500 21304 10260 20160 30123 40153 52004 60006 82800 90900=
07690,1998-09-10 12:00:00,26,1014.7,-0.6,61,18,500,11.112,,,140,,,,,,,,,,,wg-a,,,,AAXX 10124 07690 12500 21406 10260 20180 30117 40147 58006 60006 81131 91200=
07690,1998-09-10 15:00:00,25,1013.6,-1.1,69,19,500,11.112,,,160,,,,,,,,,,,wg-a,,,,AAXX 10154 07690 12500 31606 10250 20190 30106 40136 58011 60006 81101 91500=
07690,1998-09-10 18:00:00,23,1012.7,-0.9,73,18,500,7.408,,,180,19.8,26.4,,,,,,,,,wg-a,,,,AAXX 10184 07690 12500 /1804 10230 20180 30097 40127 56009 60006 81101 91800 333 10264 20198=
07690,1998-09-10 21:00:00,20,1012.8,0.1,88,18,15000,11.112,,,330,,,,,,,,,,,wg-a,,,,AAXX 10214 07690 12/65 13306 10200 20180 30098 40128 50001 60006 80002 92100=
07690,1998-09-11 00:00:00,19,1012.2,-0.7,88,17,15000,14.816,,,330,,,,,,,,,,,wg-a,,,,AAXX 11004 07690 12/65 13308 10190 20170 30091 40122 58007 60006 80002 90000=
07690,1998-09-11 03:00:00,18,1010.8,-1.4,88,16,15000,14.816,,,330,,,,,,,,,,,wg-a,,,,AAXX 11034 07690 12/65 43308 10180 20160 30077 40108 56014 60006 81083 90300=
07690,1998-09-11 06:00:00,19,1009.9,-0.8,83,16,18000,11.112,,,340,17.9,22.9,,,,,,,,,wg-a,,,,AAXX 11064 07690 02568 73406 10190 20160 30069 40099 55008 60006 81284 90600 333 10229 20179 60004=
07690,1998-09-11 09:00:00,20,1009.8,-0.1,83,17,11000,14.816,,,320,,,,,,,,,,,wg-a,,,,AAXX 11094 07690 32/61 /3208 10200 20170 30068 40098 58001 90900=
07690,1998-09-11 12:00:00,19,1008.6,-1.2,94,18,9000,7.408,,,330,,,,0,,,,,,21,wg-a,,,,AAXX 11124 07690 02459 83304 10190 20180 30056 40086 58012 60016 72162 8587/ 91200 333 60007=
07690,1998-09-11 15:00:00,19,1006.4,-2.2,88,17,6000,7.408,,,360,,,,0,,,,,,21,wg-a,,,,AAXX 11154 07690 12656 83604 10190 20170 30034 40064 58022 60007 72162 8457/ 91500=
07690,1998-09-11 18:00:00,19,1004,-2.4,88,17,9000,11.112,,,360,18.5,20,,1,,,,,,3,wg-a,,,,AAXX 11184 07690 02459 83606 10190 20170 30010 40040 58024 60006 70362 8557/ 91800 333 10200 20185 60017=
07690,1998-09-11 21:00:00,17,1001.7,-2.3,94,16,20000,14.816,,,320,,,,4,,,,,,25,wg-a,,,,AAXX 11214 07690 12370 83208 10170 20160 39987 40017 58023 60047 72586 8787/ 92100=
07690,1998-09-12 00:00:00,18,998.4,-3.3,94,17,20000,11.112,,,230,,,,,,,,,,21,wg-a,,,,AAXX 12004 07690 02470 82306 10180 20170 39954 49984 56033 60046 72186 8257/ 90000 333 61000=
07690,1998-09-12 03:00:00,16,995.2,-3.2,88,14,25000,7.408,,,290,,,,,,,,,,,wg-a,,,,AAXX 12034 07690 12/75 42904 10160 20140 39922 49952 57032 60006 81032 90300=
07690,1998-09-12 06:00:00,16,993.4,-1.8,82,13,40000,14.816,,,300,15.4,18.7,,,,,6,,,,wg-a,,,,AAXX 12064 07690 02/82 53008 10160 20130 39904 49934 56018 60006 82032 90600 333 10187 20154 60064=
07690,1998-09-12 09:00:00,21,992,-1.4,46,9,50000,14.816,,,320,,,,,,,,,,,wg-a,,,,AAXX 12094 07690 12/84 43208 10210 20090 39890 49920 56014 60006 80002 90900=
07690,1998-09-12 12:00:00,25,990.8,-1.1,47,13,50000,25.928,,,80,,,,,,,,,,,wg-a,,,,AAXX 12124 07690 12684 20814 10250 20130 39879 49908 56011 60006 81302 91200=
07690,1998-09-12 15:00:00,23,992.2,1.3,47,11,50000,22.224,,57.412,110,,,,,,,,,,,wg-a,,,,AAXX 12154 07690 12584 31112 10230 20110 39892 49922 53013 60006 83900 91500 333 91031=
07690,1998-09-12 18:00:00,21,993.2,1,35,5,50000,11.112,,57.412,290,16.2,25.9,,,,,,,,,wg-a,,,,AAXX 12184 07690 12684 /2906 10210 20050 39902 49932 52010 60006 81400 91800 333 10259 20162 91031=
07690,1998-09-12 21:00:00,18,995.6,2.4,37,3,500,11.112,,,290,,,,,,,,,,,wg-a,,,,AAXX 12214 07690 12/00 02906 10180 20030 39926 49956 51024 60006 80000 92100=
07690,1998-09-13 00:00:00,18,995,-0.6,39,4,500,25.928,,,310,,,,,,,,,,,wg-a,,,,AAXX 13004 07690 12600 23114 10180 20040 39920 49950 58006 60006 81540 90000=
07690,1998-09-13 03:00:00,16,994.8,-0.2,55,7,500,22.224,,,280,,,,,,,,,,,wg-a,,,,AAXX 13034 07690 12/00 12812 10160 20070 39918 49948 58002 60006 81040 90300=
07690,1998-09-13 06:00:00,16,995.3,0.5,59,8,500,35.188,,64.82,260,15.6,20.7,,,,,,,,,wg-a,,,,AAXX 13064 07690 02500 /2619 10160 20080 39923 49953 53005 60006 81240 90600 333 10207 20156 60004 91035=
07690,1998-09-13 09:00:00,20,994.2,-1.1,49,9,50000,38.892,,,250,,,,,,,,,,,wg-a,,,,AAXX 13094 07690 12584 /2521 10200 20090 39912 49942 56011 60006 81242 90900=
07690,1998-09-13 12:00:00,21,993.1,-1.1,46,9,50000,50.004,,72.228,250,,,,,,,,,,,wg-a,,,,AAXX 13124 07690 12584 /2527 10210 20090 39901 49931 56011 60006 81242 91200 333 91039=
07690,1998-09-13 15:00:00,21,994.2,1.1,38,6,50000,53.708,,74.08,260,,,,,,,,,,,wg-a,,,,AAXX 13154 07690 12584 /2629 10210 20060 39912 49942 53011 60006 81242 91500 333 91040=
07690,1998-09-13 18:00:00,18,996.6,2.4,49,7,35000,42.596,,57.412,260,16.3,21.5,,,,,,,,,wg-a,,,,AAXX 13184 07690 12581 /2623 10180 20070 39936 49966 51024 60006 81242 91800 333 10215 20163 91031=
07690,1998-09-13 21:00:00,17,996.8,0.2,32,0,20000,22.224,,,260,,,,,,,,,,,wg-a,,,,AAXX 13214 07690 12/70 02612 10170 20000 39938 49968 51002 60006 80000 92100=
07690,1998-09-14 00:00:00,17,997.3,0.5,34,1,20000,11.112,,,340,,,,,,,,,,,wg-a,,,,AAXX 14004 07690 12/70 03406 10170 20010 39943 49973 51005 60006 80000 90000=
07690,1998-09-14 03:00:00,13,997.9,0.5,47,2,20000,7.408,,,290,,,,,,,,,,,wg-a,,,,AAXX 14034 07690 12/70 02904 10130 20020 39948 49979 51005 60006 80000 90300=
07690,1998-09-14 06:00:00,13,999.1,1.2,54,4,50000,11.112,,,270,12.4,17.7,,,,,,,,,wg-a,,,,AAXX 14064 07690 02/84 12706 10130 20040 39960 49991 53012 60006 81070 90600 333 10177 20124 60004=
07690,1998-09-14 09:00:00,20,999.1,0.1,37,5,50000,7.408,,,180,,,,0,,,,,,,wg-a,,,,AAXX 14094 07690 12684 /1804 10200 20050 39961 49991 53001 60007 81241 90900=
07690,1998-09-14 12:00:00,23,999.9,0.8,33,6,50000,22.224,,,100,,,,,,,,,,,wg-a,,,,AAXX 14124 07690 12484 /1012 10230 20060 39969 49999 53008 60006 81241 91200=
07690,1998-09-14 15:00:00,22,1001.5,1.6,41,8,50000,25.928,,,90,,,,,,,,,,,wg-a,,,,AAXX 14154 07690 12684 20914 10220 20080 39985 40015 53016 60006 81440 91500=
07690,1998-09-14 18:00:00,18,1004,2.5,68,12,40000,3.704,,,230,13.3,23.6,,,,,,,,,wg-a,,,,AAXX 14184 07690 12582 /2302 10180 20120 30010 40040 52025 60006 81500 91800 333 10236 20133=
07690,1998-09-14 21:00:00,16,1006.3,2.2,63,9,20000,11.112,,,290,,,,,,,,,,,wg-a,,,,AAXX 14214 07690 12/70 22906 10160 20090 30032 40063 51022 60006 80002 92100=
07690,1998-09-15 00:00:00,14,1007.2,0.9,47,3,500,7.408,,,300,,,,,,,,,,,wg-a,,,,AAXX 15004 07690 12/00 03004 10140 20030 30041 40072 51009 60006 80000 90000=
07690,1998-09-15 03:00:00,14,1007.2,-0,47,3,10000,11.112,,,310,,,,,,,,,,,wg-a,,,,AAXX 15034 07690 12/60 /3106 10140 20030 30041 40072 55000 60006 90300=
07690,1998-09-15 06:00:00,14,1007.9,0.7,47,3,40000,22.224,,,330,12.7,18.3,,,,,,,,,wg-a,,,,AAXX 15064 07690 02/82 13312 10140 20030 30048 40079 53007 60006 81032 90600 333 10183 20127 60004=
07690,1998-09-15 09:00:00,20,1008.5,0.7,40,6,50000,11.112,,,250,,,,,,,,,,,wg-a,,,,AAXX 15094 07690 12/84 12506 10200 20060 30055 40085 53007 60006 81030 90900=
07690,1998-09-15 12:00:00,23,1009.3,0.8,33,6,50000,11.112,,,130,,,,,,,,,,,wg-a,,,,AAXX 15124 07690 12684 11306 10230 20060 30063 40093 52008 60006 81100 91200=
07690,1998-09-15 15:00:00,22,1009.5,0.2,41,8,50000,14.816,,,100,,,,,,,,,,,wg-a,,,,AAXX 15154 07690 12684 /1008 10220 20080 30065 40095 52002 60006 81100 91500=
07690,1998-09-15 18:00:00,21,1010.4,0.9,40,7,50000,11.112,,,80,13.9,23.5,,,,,,,,,wg-a,,,,AAXX 15184 07690 12/84 10806 10210 20070 30074 40104 51009 60006 81040 91800 333 10235 20139=
07690,1998-09-16 00:00:00,14,1012,-0.2,67,8,500,18.52,,,330,,,,,,,,,,,wg-a,,,,AAXX 16004 07690 12/00 03310 10140 20080 30089 40120 58002 60006 80000 90000=
07690,1998-09-16 06:00:00,14,1010.6,-0,63,7,50000,18.52,,,330,13.2,20.7,,,,,,,,,wg-a,,,,AAXX 16064 07690 02584 /3310 10140 20070 30075 40106 55000 60006 81501 90600 333 10207 20132 60004=
07690,1998-09-16 09:00:00,21,1011.1,0.6,56,12,50000,7.408,,,130,,,,,,,,,,,wg-a,,,,AAXX 16094 07690 12484 31304 10210 20120 30081 40111 53006 60006 81501 90900=
07690,1998-09-16 12:00:00,23,1009.8,-1.3,50,12,50000,14.816,,,150,,,,,,,,,,,wg-a,,,,AAXX 16124 07690 12484 41508 10230 20120 30068 40098 56013 60006 81102 91200=
07690,1998-09-16 18:00:00,20,1008,-0.5,73,15,40000,11.112,,,110,13.6,22.8,,,,,,,,,wg-a,,,,AAXX 16184 07690 12482 31106 10200 20150 30050 40080 56005 60006 81501 91800 333 10228 20136=
07690,1998-09-17 00:00:00,16,1007.5,-0.3,82,13,25000,18.52,,,330,,,,,,,,,,,wg-a,,,,AAXX 17004 07690 12575 33310 10160 20130 30044 40075 57003 60006 83500 90000=
07690,1998-09-17 03:00:00,15,1006.2,-1.3,88,13,25000,18.52,,,330,,,,,,,,,,,wg-a,,,,AAXX 17034 07690 12475 23310 10150 20130 30031 40062 58013 60006 82500 90300=
07690,1998-09-17 06:00:00,15,1007,0.8,77,11,35000,18.52,,,340,14.7,20.1,,,,,,,,,wg-a,,,,AAXX 17064 07690 02481 73410 10150 20110 30039 40070 53008 60006 81582 90600 333 10201 20147 60004=
07690,1998-09-17 09:00:00,19,1007.7,0.8,64,12,500,7.408,,,320,,,,,,,,,,,wg-a,,,,AAXX 17094 07690 12500 /3204 10190 20120 30047 40077 53008 60006 81102 90900=
07690,1998-09-17 12:00:00,22,1007.7,-0,65,15,500,18.52,,,180,,,,,,,,,,,wg-a,,,,AAXX 17124 07690 12500 31810 10220 20150 30047 40077 55000 60006 81202 91200=
07690,1998-09-17 15:00:00,23,1007.4,-0.3,61,15,500,3.704,,,140,,,,,,,,,,,wg-a,,,,AAXX 17154 07690 12500 /1402 10230 20150 30044 40074 55003 60006 81201 91500=
07690,1998-09-17 18:00:00,21,1008.9,1.5,73,16,20000,3.704,,,190,14.8,23.2,,,,,,,,,wg-a,,,,AAXX 17184 07690 12670 /1902 10210 20160 30059 40089 53015 60006 81201 91800 333 10232 20148=
07690,1998-09-18 00:00:00,18,1012.7,1.6,64,11,20000,14.816,,,330,,,,,,,,,,,wg-a,,,,AAXX 18004 07690 12/70 03308 10180 20110 30096 40127 52016 60006 80000 90000=
07690,1998-09-18 03:00:00,17,1013.7,1,68,11,20000,14.816,,,340,,,,,,,,,,,wg-a,,,,AAXX 18034 07690 12/70 03408 10170 20110 30106 40137 51010 60006 80000 90300=
07690,1998-09-18 06:00:00,17,1015.1,1.4,63,10,50000,25.928,,,330,16.2,20.6,,,,,,,,,wg-a,,,,AAXX 18064 07690 02/84 13314 10170 20100 30120 40151 53014 60006 80001 90600 333 10206 20162 60004=
07690,1998-09-18 09:00:00,23,1016.8,1.8,44,10,40000,7.408,,,320,,,,,,,,,,,wg-a,,,,AAXX 18094 07690 12682 23204 10230 20100 30138 40168 53018 60006 81101 90900=
07690,1998-09-18 12:00:00,24,1017.7,0.9,50,13,40000,18.52,,,190,,,,,,,,,,,wg-a,,,,AAXX 18124 07690 12682 21910 10240 20130 30147 40177 53009 60006 81101 91200=
07690,1998-09-18 15:00:00,24,1017.5,-0.2,47,12,40000,14.816,,,190,,,,,,,,,,,wg-a,,,,AAXX 18154 07690 12682 /1908 10240 20120 30145 40175 58002 60006 81101 91500=
07690,1998-09-18 18:00:00,20,1018.8,1.2,68,14,500,7.408,,,250,16.9,24.8,,,,,,,,,wg-a,,,,AAXX 18184 07690 12/00 /2504 10200 20140 30157 40188 52012 60006 80001 91800 333 10248 20169=
07690,1998-09-18 21:00:00,17,1020.8,2,63,10,20000,14.816,,,340,,,,,,,,,,,wg-a,,,,AAXX 18214 07690 12/70 03408 10170 20100 30177 40208 51020 60006 80000 92100=
07690,1998-09-19 00:00:00,17,1021.2,0.4,63,10,20000,22.224,,,330,,,,,,,,,,,wg-a,,,,AAXX 19004 07690 12/70 03312 10170 20100 30181 40212 50004 60006 80000 90000=
07690,1998-09-19 03:00:00,17,1022.1,0.9,55,8,20000,14.816,,,350,,,,,,,,,,,wg-a,,,,AAXX 19034 07690 12/70 03508 10170 20080 30190 40221 52009 60006 80000 90300=
07690,1998-09-19 06:00:00,17,1023.1,1,59,9,50000,11.112,,,340,16.2,20.1,,,,,,,,,wg-a,,,,AAXX 19064 07690 02/84 03406 10170 20090 30200 40231 53010 60006 80000 90600 333 10201 20162 60004=
07690,1998-09-19 09:00:00,22,1024.1,1,50,11,50000,3.704,,,360,,,,,,,,,,,wg-a,,,,AAXX 19094 07690 12/84 13602 10220 20110 30210 40241 52010 60006 80001 90900=
07690,1998-09-19 12:00:00,24,1024.8,0.8,57,15,50000,11.112,,,140,,,,,,,,,,,wg-a,,,,AAXX 19124 07690 12684 /1406 10240 20150 30218 40248 50008 60006 81101 91200=
07690,1998-09-19 15:00:00,23,1023.8,-1,65,16,11000,14.816,,,110,,,,,,,,,,,wg-a,,,,AAXX 19154 07690 12/61 /1108 10230 20160 30208 40238 57010 60006 91500=
07690,1998-09-19 18:00:00,21,1024.3,0.4,73,16,40000,3.704,,,80,16.5,24.7,,,,,,,,,wg-a,,,,AAXX 19184 07690 12/82 10802 10210 20160 30212 40243 53004 60006 80001 91800 333 10247 20165=
07690,1998-09-19 21:00:00,18,1024.7,0.4,77,14,20000,14.816,,,330,,,,,,,,,,,wg-a,,,,AAXX 19214 07690 12/70 03308 10180 20140 30216 40247 50004 60006 80000 92100=
07690,1998-09-20 00:00:00,17,1024.9,0.2,72,12,20000,18.52,,,330,,,,,,,,,,,wg-a,,,,AAXX 20004 07690 12/70 03310 10170 20120 30218 40249 51002 60006 80000 90000=
07690,1998-09-20 03:00:00,17,1024.9,-0,72,12,20000,14.816,,,330,,,,,,,,,,,wg-a,,,,AAXX 20034 07690 12570 13308 10170 20120 30218 40249 55000 60006 81500 90300=
07690,1998-09-20 06:00:00,17,1025.8,0.9,68,11,25000,22.224,,,330,16.7,21.1,,,,,,,,,wg-a,,,,AAXX 20064 07690 02475 /3312 10170 20110 30227 40258 53009 60006 85800 90600 333 10211 20167 60004=
07690,1998-09-20 09:00:00,18,1026.5,0.7,64,11,25000,14.816,,,340,,,,,,,,,,,wg-a,,,,AAXX 20094 07690 12675 73408 10180 20110 30234 40265 53007 60006 875// 90900=
07690,1998-09-20 12:00:00,20,1025.7,-0.8,64,13,500,7.408,,,330,,,,,,,,,,,wg-a,,,,AAXX 20124 07690 12600 73304 10200 20130 30226 40257 58008 60006 875// 91200=
07690,1998-09-20 15:00:00,22,1024.2,-1.5,46,10,35000,11.112,,,110,,,,,,,,,,,wg-a,,,,AAXX 20154 07690 12681 /1106 10220 20100 30211 40242 56015 60006 81270 91500=
07690,1998-09-20 18:00:00,21,1024.7,0.5,49,10,35000,7.408,,,100,17.1,22.1,,,,,,,,,wg-a,,,,AAXX 20184 07690 12881 51004 10210 20100 30216 40247 53005 60006 85500 91800 333 10221 20171=
07690,1998-09-20 21:00:00,16,1025,0.3,72,11,20000,14.816,,,330,,,,,,,,,,,wg-a,,,,AAXX 20214 07690 12570 /3308 10160 20110 30219 40250 50003 60006 81500 92100=
07690,1998-09-21 00:00:00,17,1024.8,-0.2,68,11,20000,14.816,,,340,,,,,,,,,,,wg-a,,,,AAXX 21004 07690 12570 /3408 10170 20110 30217 40248 58002 60006 81500 90000=
07690,1998-09-21 03:00:00,16,1024.1,-0.7,72,11,20000,22.224,,,330,,,,,,,,,,,wg-a,,,,AAXX 21034 07690 12570 /3312 10160 20110 30210 40241 58007 60006 81500 90300=
07690,1998-09-21 06:00:00,16,1024.1,0,68,10,20000,22.224,,,330,15.5,20.6,,,,,,,,,wg-a,,,,AAXX 21064 07690 02/70 33312 10160 20100 30210 40241 50000 60006 82072 90600 333 10206 20155 60004=
07690,1998-09-21 09:00:00,21,1023.8,-0.3,49,10,25000,14.816,,,330,,,,,,,,,,,wg-a,,,,AAXX 21094 07690 12775 33308 10210 20100 30207 40238 58003 60006 81232 90900=
07690,1998-09-21 12:00:00,24,1022.8,-0.9,38,9,25000,7.408,,,140,,,,,,,,,,,wg-a,,,,AAXX 21124 07690 12675 /1404 10240 20090 30198 40228 58009 60006 81234 91200=
07690,1998-09-21 15:00:00,22,1021.3,-1.5,53,12,25000,7.408,,,150,,,,,,,,,,,wg-a,,,,AAXX 21154 07690 12775 71504 10220 20120 30183 40213 56015 60006 81234 91500=
07690,1998-09-21 18:00:00,19,1020.8,-0.6,68,13,20000,3.704,,,180,15.8,24.4,,,,,,,,,wg-a,,,,AAXX 21184 07690 12/70 61802 10190 20130 30177 40208 56006 60006 81032 91800 333 10244 20158=
07690,1998-09-21 21:00:00,18,1021.3,0.5,56,9,25000,14.816,,,340,,,,,,,,,,,wg-a,,,,AAXX 21214 07690 12875 33408 10180 20090 30182 40213 51005 60006 81031 92100=
07690,1998-09-22 00:00:00,16,1021.3,0,68,10,15000,18.52,,,330,,,,,,,,,,,wg-a,,,,AAXX 22004 07690 12665 33310 10160 20100 30182 40213 50000 60006 81531 90000=
07690,1998-09-22 03:00:00,16,1020.3,-1,63,9,25000,14.816,,,340,,,,,,,,,,,wg-a,,,,AAXX 22034 07690 12/75 03408 10160 20090 30172 40203 56010 60006 80000 90300=
07690,1998-09-22 06:00:00,16,1020.5,0.2,63,9,25000,18.52,,,330,15.5,19,,,,,,,,,wg-a,,,,AAXX 22064 07690 02/75 03310 10160 20090 30174 40205 53002 60006 80000 90600 333 10190 20155 60004=
07690,1998-09-22 09:00:00,20,1021.4,0.9,56,11,25000,7.408,,,330,,,,,,,,,,,wg-a,,,,AAXX 22094 07690 12575 23304 10200 20110 30183 40214 51009 60006 82100 90900=
07690,1998-09-22 12:00:00,22,1020.7,-0.6,57,13,25000,11.112,,,160,,,,,,,,,,,wg-a,,,,AAXX 22124 07690 12575 21606 10220 20130 30177 40207 58006 60006 82400 91200=
07690,1998-09-22 15:00:00,22,1019.8,-0.9,60,14,25000,11.112,,,110,,,,,,,,,,,wg-a,,,,AAXX 22154 07690 12475 21106 10220 20140 30168 40198 56009 60006 82800 91500=
07690,1998-09-22 18:00:00,20,1019.5,-0.4,64,13,20000,3.704,,,30,15.5,22.8,,,,,,,,,wg-a,,,,AAXX 22184 07690 12570 20302 10200 20130 30164 40195 56004 60006 82800 91800 333 10228 20155=
07690,1998-09-22 21:00:00,17,1019.9,0.4,77,13,20000,18.52,,,330,,,,,,,,,,,wg-a,,,,AAXX 22214 07690 12/70 /3310 10170 20130 30168 40199 51004 60006 80000 92100=
07690,1998-09-23 00:00:00,17,1019.3,-0.6,77,13,20000,11.112,,,340,,,,,,,,,,,wg-a,,,,AAXX 23004 07690 12/70 03406 10170 20130 30162 40193 57006 60006 80000 90000=
07690,1998-09-23 06:00:00,16,1019.6,0.6,72,11,20000,18.52,,,340,15.5,19.7,,,,,,,,,wg-a,,,,AAXX 23064 07690 02/70 03410 10160 20110 30165 40196 53006 60006 80000 90600 333 10197 20155 60004=
07690,1998-09-23 09:00:00,21,1020.6,1,53,11,15000,7.408,,,50,,,,,,,,,,,wg-a,,,,AAXX 23094 07690 12/65 00504 10210 20110 30175 40206 53010 60006 80000 90900=
07690,1998-09-23 12:00:00,23,1020,-0.5,53,13,10000,18.52,,,100,,,,,,,,,,,wg-a,,,,AAXX 23124 07690 12560 11010 10230 20130 30170 40200 58005 60006 81100 91200=
07690,1998-09-23 15:00:00,22,1019.4,-0.6,50,11,12000,11.112,,,100,,,,,,,,,,,wg-a,,,,AAXX 23154 07690 12/62 01006 10220 20110 30164 40194 58006 60006 80000 91500=
07690,1998-09-23 18:00:00,20,1019.6,0.1,60,12,12000,0,,,0,15.8,23.1,,,,,,,,,wg-a,,,,AAXX 23184 07690 12/62 20000 10200 20120 30165 40196 53001 60006 80001 91800 333 10231 20158=
07690,1998-09-23 21:00:00,17,1020,0.4,68,11,12000,11.112,,,340,,,,,,,,,,,wg-a,,,,AAXX 23214 07690 12/62 13406 10170 20110 30169 40200 50004 60006 80001 92100=
07690,1998-09-24 00:00:00,17,1019.4,-0.6,68,11,12000,14.816,,,340,,,,,,,,,,,wg-a,,,,AAXX 24004 07690 12/62 13408 10170 20110 30163 40194 58006 60006 80001 90000=
07690,1998-09-24 03:00:00,16,1018.6,-0.8,72,11,12000,11.112,,,340,,,,,,,,,,,wg-a,,,,AAXX 24034 07690 12/62 13406 10160 20110 30155 40186 57008 60006 80001 90300=
07690,1998-09-24 06:00:00,16,1018.6,-0,68,10,12000,22.224,,,330,15.9,19.5,,,,,,,,,wg-a,,,,AAXX 24064 07690 02/62 13312 10160 20100 30155 40186 55000 60006 81030 90600 333 10195 20159 60004=
07690,1998-09-24 09:00:00,22,1019.1,0.6,57,13,12000,14.816,,,70,,,,,,,,,,,wg-a,,,,AAXX 24094 07690 12662 40708 10220 20130 30161 40191 50006 60006 81132 90900=
07690,1998-09-24 12:00:00,24,1018.3,-0.8,57,15,11000,29.632,,53.708,90,,,,,,,,,,,wg-a,,,,AAXX 24124 07690 12661 70916 10240 20150 30153 40183 56008 60006 81172 91200 333 91029=
07690,1998-09-24 15:00:00,23,1017.2,-1.1,69,17,10000,25.928,,,70,,,,,,,,,,,wg-a,,,,AAXX 24154 07690 12660 70714 10230 20170 30142 40172 56011 60006 8117/ 91500=
07690,1998-09-24 18:00:00,22,1016.4,-0.8,73,17,10000,22.224,,,90,16,24.1,,,,,,,,,wg-a,,,,AAXX 24184 07690 12660 /0912 10220 20170 30134 40164 56008 60006 81530 91800 333 10241 20160=
07690,1998-09-24 21:00:00,22,1016.8,0.4,53,12,11000,38.892,,,90,,,,,,,,,,,wg-a,,,,AAXX 24214 07690 12/61 /0921 10220 20120 30138 40168 50004 60006 92100=
07690,1998-09-25 00:00:00,22,1016.3,-0.5,60,14,15000,35.188,,,90,,,,,,,,,,,wg-a,,,,AAXX 25004 07690 12465 70919 10220 20140 30133 40163 58005 60006 8157/ 90000=
07690,1998-09-25 03:00:00,20,1015.3,-1,73,15,15000,38.892,,,90,,,,,,,,,,,wg-a,,,,AAXX 25034 07690 12/65 70921 10200 20150 30123 40153 56010 60006 8707/ 90300=
07690,1998-09-25 06:00:00,20,1015.2,-0.1,73,15,7000,25.928,,,70,20.2,23.6,,,,,,,,,wg-a,,,,AAXX 25064 07690 02457 /0714 10200 20150 30122 40152 55001 60006 81530 90600 333 10236 20202 60004=
07690,1998-09-25 09:00:00,22,1015.3,0.1,57,13,18000,31.484,,,90,,,,,,,,,,,wg-a,,,,AAXX 25094 07690 12468 70917 10220 20130 30123 40153 50001 60006 8157/ 90900=
07690,1998-09-25 12:00:00,23,1014.8,-0.5,57,14,15000,25.928,,,100,,,,,,,,,,,wg-a,,,,AAXX 25124 07690 12665 71014 10230 20140 30118 40148 55005 60006 8113/ 91200=
07690,1998-09-25 15:00:00,22,1014.5,-0.3,60,14,7000,18.52,,,110,,,,,,,,,,,wg-a,,,,AAXX 25154 07690 12/57 /1110 10220 20140 30115 40145 55003 60006 91500=
07690,1998-09-25 18:00:00,20,1015,0.5,73,15,10000,3.704,,,120,18,23.9,,,,,,,,,wg-a,,,,AAXX 25184 07690 12/60 61202 10200 20150 30120 40150 51005 60006 81036 91800 333 10239 20180=
07690,1998-09-25 21:00:00,17,1015.3,0.2,82,14,10000,11.112,,,330,,,,,,,,,,,wg-a,,,,AAXX 25214 07690 12/60 73306 10170 20140 30122 40153 50002 60006 80006 92100=
07690,1998-09-26 00:00:00,17,1014.9,-0.4,77,13,10000,14.816,,,330,,,,,,,,,,,wg-a,,,,AAXX 26004 07690 12/60 73308 10170 20130 30118 40149 58004 60006 80006 90000=
07690,1998-09-26 03:00:00,16,1014.2,-0.7,77,12,10000,14.816,,,330,,,,,,,,,,,wg-a,,,,AAXX 26034 07690 12560 53308 10160 20120 30111 40142 57007 60006 81502 90300=
07690,1998-09-26 06:00:00,16,1013,-1.2,77,12,10000,14.816,,,330,15.6,20.1,,,,,,,,,wg-a,,,,AAXX 26064 07690 02760 73308 10160 20120 30099 40130 58012 60006 84872 90600 333 10201 20156 60004=
07690,1998-09-26 09:00:00,21,1011.6,-1.3,56,12,12000,25.928,,,60,,,,,,,,,,16,wg-a,,,,AAXX 26094 07690 12662 70614 10210 20120 30086 40116 58013 60006 71622 8396/ 90900=
07690,1998-09-26 12:00:00,18,1011,-0.7,88,16,7000,18.52,,,20,,,,8,,,,,,29,wg-a,,,,AAXX 26124 07690 02257 70210 10180 20160 30079 40110 58007 60086 72998 8297/ 91200 333 60087=
07690,1998-09-26 15:00:00,21,1007.7,-3.2,60,13,15000,22.224,,,10,,,,,,,,,,,wg-a,,,,AAXX 26154 07690 12765 70112 10210 20130 30047 40077 58032 60006 8157/ 91500=
07690,1998-09-26 18:00:00,19,1007.9,0.2,78,15,15000,11.112,,,20,16.1,21.1,,,,,,,,,wg-a,,,,AAXX 26184 07690 12665 70206 10190 20150 30049 40079 50002 60006 8257/ 91800 333 10211 20161=
07690,1998-09-26 21:00:00,20,1008.7,0.8,88,18,12000,22.224,,,140,,,,,,,,,,13,wg-a,,,,AAXX 26214 07690 02462 61412 10200 20180 30057 40087 51008 61000 71398 85930 92100 333 ////=
07690,1998-09-27 00:00:00,17,1009.1,0.3,88,15,15000,18.52,,,330,,,,,,,,,,13,wg-a,,,,AAXX 27004 07690 02465 53310 10170 20150 30060 40091 50003 61000 71398 83330 90000 333 ////=
07690,1998-09-27 03:00:00,16,1007.2,-1.9,88,14,20000,22.224,,,330,,,,,,,,,,13,wg-a,,,,AAXX 27034 07690 12470 /3312 10160 20140 30041 40072 58019 60006 71311 81903 90300=
07690,1998-09-27 06:00:00,16,1006.7,-0.5,88,14,25000,22.224,,,330,16.1,20.4,,,,,8,,,13,wg-a,,,,AAXX 27064 07690 02575 23312 10160 20140 30036 40067 55005 60006 71311 81903 90600 333 10204 20161 60084=
07690,1998-09-27 09:00:00,19,1007.6,1,78,15,2000,18.52,,,330,,,,0,,,,,,21,wg-a,,,,AAXX 27094 07690 12520 43310 10190 20150 30046 40076 50010 60007 72161 81930 90900=
07690,1998-09-27 12:00:00,22,1006.6,-1,78,18,20000,14.816,,,130,,,,,,,,,,3,wg-a,,,,AAXX 27124 07690 12470 41308 10220 20180 30036 40066 57010 60006 70361 81933 91200=
07690,1998-09-27 15:00:00,17,1006.4,-0.3,82,14,20000,14.816,,,10,,,,4,,,,,,29,wg-a,,,,AAXX 27154 07690 12370 70108 10170 20140 30033 40064 58003 60047 72996 8597/ 91500=
07690,1998-09-27 18:00:00,16,1007,0.6,88,14,20000,14.816,,,300,16.1,22.6,,,,,,,,1,wg-a,,,,AAXX 27184 07690 12570 /3008 10160 20140 30039 40070 53006 60006 70196 81532 91800 333 10226 20161=
07690,1998-09-27 21:00:00,15,1006.6,-0.4,88,13,20000,11.112,,,300,,,,,,,,,,,wg-a,,,,AAXX 27214 07690 12470 33006 10150 20130 30035 40066 58004 60006 81532 92100=
07690,1998-09-28 00:00:00,15,1005,-1.6,82,12,20000,14.816,,,320,,,,,,,,,,,wg-a,,,,AAXX 28004 07690 12/70 33208 10150 20120 30019 40050 58016 60006 81032 90000=
07690,1998-09-28 03:00:00,14,1004.8,-0.2,82,11,20000,11.112,,,330,,,,,,,,,,,wg-a,,,,AAXX 28034 07690 12/70 13306 10140 20110 30017 40048 55002 60006 81040 90300=
07690,1998-09-28 09:00:00,21,1005.7,0.8,53,11,50000,11.112,,,70,,,,,,,,,,,wg-a,,,,AAXX 28094 07690 12/84 10706 10210 20110 30027 40057 51008 60006 81041 90900=
07690,1998-09-28 12:00:00,22,1004.8,-0.9,57,13,40000,22.224,,,80,,,,,,,,,,,wg-a,,,,AAXX 28124 07690 12782 /0812 10220 20130 30018 40048 58009 60006 81140 91200=
07690,1998-09-28 15:00:00,22,1003.9,-0.9,69,16,40000,25.928,,,100,,,,,,,,,,,wg-a,,,,AAXX 28154 07690 12782 /1014 10220 20160 30009 40039 56009 60006 81240 91500=
07690,1998-09-28 18:00:00,20,1004.9,1,83,17,20000,18.52,,,80,13.5,22,,,,,,,,,wg-a,,,,AAXX 28184 07690 12/70 20810 10200 20170 30019 40049 53010 60006 82040 91800 333 10220 20135=
07690,1998-09-28 21:00:00,16,1006.6,1.6,88,14,20000,14.816,,,320,,,,,,,,,,,wg-a,,,,AAXX 28214 07690 12/70 03208 10160 20140 30035 40066 51016 60006 80000 92100=
07690,1998-09-29 00:00:00,15,1007.2,0.6,88,13,20000,18.52,,,330,,,,,,,,,,,wg-a,,,,AAXX 29004 07690 12470 /3310 10150 20130 30041 40072 51006 60006 81500 90000=
07690,1998-09-29 03:00:00,15,1007.5,0.3,82,12,20000,22.224,,,330,,,,,,,,,,,wg-a,,,,AAXX 29034 07690 12470 63312 10150 20120 30044 40075 53003 60006 86400 90300=
07690,1998-09-29 06:00:00,14,1008.1,0.6,77,10,25000,22.224,,,330,14.3,19.9,,,,,,,,,wg-a,,,,AAXX 29064 07690 02475 /3312 10140 20100 30050 40081 51006 60006 81500 90600 333 10199 20143 60004=
07690,1998-09-29 09:00:00,19,1009.5,1.5,64,12,500,7.408,,,330,,,,,,,,,,,wg-a,,,,AAXX 29094 07690 12500 /3304 10190 20120 30065 40095 51015 60006 81101 90900=
07690,1998-09-29 12:00:00,21,1009,-0.5,78,17,500,22.224,,,190,,,,,,,,,,,wg-a,,,,AAXX 29124 07690 12500 /1912 10210 20170 30060 40090 58005 60006 81201 91200=
07690,1998-09-29 15:00:00,21,1008.4,-0.6,73,16,500,14.816,,,190,,,,,,,,,,,wg-a,,,,AAXX 29154 07690 12500 31908 10210 20160 30054 40084 56006 60006 82439 91500=
07690,1998-09-29 18:00:00,20,1008.9,0.5,78,16,25000,3.704,,,130,14.4,21.4,,,,,,,,,wg-a,,,,AAXX 29184 07690 12675 /1302 10200 20160 30059 40089 53005 60006 81470 91800 333 10214 20144=
07690,1998-09-29 21:00:00,17,1010,1,88,15,20000,11.112,,,330,,,,,,,,,,,wg-a,,,,AAXX 29214 07690 12670 /3306 10170 20150 30069 40100 52010 60006 81570 92100=
07690,1998-09-30 00:00:00,17,1009.9,-0.1,82,14,20000,14.816,,,340,,,,,,,,,,,wg-a,,,,AAXX 30004 07690 12670 73408 10170 20140 30068 40099 58001 60006 83570 90000=
07690,1998-09-30 03:00:00,17,1008.9,-1,88,15,9000,7.408,,,320,,,,1,,,,,,61,wg-a,,,,AAXX 30034 07690 12359 83204 10170 20150 30058 40089 56010 60017 76162 878// 90300=
07690,1998-09-30 06:00:00,16,1007.6,-1.3,94,15,4000,18.52,,,30,16,19.7,,,,,,,,61,wg-a,,,,AAXX 30064 07690 02240 80310 10160 20150 30045 40076 58013 61000 76162 888// 90600 333 10197 20160 6004=
07690,1998-09-30 12:00:00,18,1005,-0.3,94,17,15000,3.704,,,330,,,,55,,,,,,25,wg-a,,,,AAXX 30124 07690 02365 /3302 10180 20170 30020 40050 56003 61166 72598 872// 91200 333 60557=
07690,1998-09-30 15:00:00,20,1004.6,-0.4,94,19,15000,18.52,,,60,,,,,,,,,,,wg-a,,,,AAXX 30154 07690 12465 80610 10200 20190 30016 40046 55004 60006 8553/ 91500=
07690,1998-09-30 18:00:00,18,1004.8,0.2,94,17,9000,7.408,,,340,15.8,20.5,,,,,,,,21,wg-a,,,,AAXX 30184 07690 02359 73404 10180 20170 30018 40048 52002 61000 72162 8557/ 91800 333 10205 20158 6100=
07690,1998-09-30 21:00:00,18,1005.4,0.6,94,17,11000,7.408,,,330,,,,,,,,,,,wg-a,,,,AAXX 30214 07690 12461 73304 10180 20170 30024 40054 53006 60006 875// 92100=
07690,1998-10-01 00:00:00,17,1005.3,-0.2,88,15,12000,14.816,,,330,,,,,,,,,,,wg-a,,,,AAXX 01004 07690 12462 /3308 10170 20150 30022 40053 56002 60006 86500 90000=
07690,1998-10-01 03:00:00,15,1004.9,-0.4,94,14,12000,18.52,,,330,,,,,,,,,,,wg-a,,,,AAXX 01034 07690 12462 33310 10150 20140 30018 40049 56004 60006 83500 90300=
07690,1998-10-01 06:00:00,15,1005.2,0.3,88,13,20000,18.52,,,330,14.6,18.2,,,,,117,,,,wg-a,,,,AAXX 01064 07690 02470 33310 10150 20130 30021 40052 50003 60006 82830 90600 333 10182 20146 61174=
07690,1998-10-01 09:00:00,19,1006.4,1.3,78,15,20000,7.408,,,300,,,,,,,,,,,wg-a,,,,AAXX 01094 07690 12470 43004 10190 20150 30034 40064 51013 60006 82831 90900=
07690,1998-10-01 12:00:00,21,1005.5,-0.9,60,13,500,31.484,,,230,,,,,,,,,,,wg-a,,,,AAXX 01124 07690 12400 62317 10210 20130 30025 40055 58009 60006 81231 91200=
07690,1998-10-01 18:00:00,17,1006,1.2,77,13,500,18.52,,,240,14.8,22.2,,,,,,,,,wg-a,,,,AAXX 01184 07690 12400 /2410 10170 20130 30029 40060 53012 60006 81400 91800 333 10222 20148=
07690,1998-10-01 21:00:00,14,1006.5,0.5,88,12,25000,14.816,,,320,,,,,,,,,,,wg-a,,,,AAXX 01214 07690 12675 /3208 10140 20120 30034 40065 50005 60006 81500 92100=
07690,1998-10-02 00:00:00,13,1006,-0.5,82,10,25000,18.52,,,330,,,,,,,,,,,wg-a,,,,AAXX 02004 07690 12/75 03310 10130 20100 30029 40060 58005 60006 80000 90000=
07690,1998-10-02 03:00:00,13,1005.5,-0.5,77,9,25000,14.816,,,300,,,,,,,,,,,wg-a,,,,AAXX 02034 07690 12875 23008 10130 20090 30024 40055 55005 60006 82030 90300=
07690,1998-10-02 06:00:00,13,1005.7,0.2,77,9,35000,11.112,,,320,12.7,17.2,,,,,,,,,wg-a,,,,AAXX 02064 07690 02881 43206 10130 20090 30026 40057 53002 60006 83041 90600 333 10172 20127 60004=
07690,1998-10-02 09:00:00,19,1006.2,0.6,64,12,50000,11.112,,,240,,,,,,,,,,,wg-a,,,,AAXX 02094 07690 12584 72406 10190 20120 30032 40062 53006 60006 8114/ 90900=
07690,1998-10-02 12:00:00,19,1005.7,-0.5,64,12,40000,29.632,,,220,,,,,,,,,,,wg-a,,,,AAXX 02124 07690 12582 72216 10190 20120 30027 40057 58005 60006 8483/ 91200=
07690,1998-10-02 15:00:00,19,1004.8,-0.9,68,13,500,29.632,,,230,,,,,,,,,,,wg-a,,,,AAXX 02154 07690 12400 42316 10190 20130 30018 40048 56009 60006 83830 91500=
07690,1998-10-02 18:00:00,17,1006,1.1,77,13,20000,31.484,,,240,13.5,20.3,,,,,,,,,wg-a,,,,AAXX 02184 07690 12470 22417 10170 20130 30029 40060 53011 60006 81833 91800 333 10203 20135=
07690,1998-10-02 21:00:00,15,1006.5,0.5,82,12,20000,11.112,,,270,,,,,,,,,,,wg-a,,,,AAXX 02214 07690 12570 62706 10150 20120 30034 40065 51005 60006 81172 92100=
07690,1998-10-03 00:00:00,13,1005.5,-1,82,10,20000,14.816,,,330,,,,,,,,,,13,wg-a,,,,AAXX 03004 07690 12/70 23308 10130 20100 30024 40055 56010 60006 71311 81043 90000=
07690,1998-10-03 03:00:00,13,1005.6,0.1,82,10,20000,14.816,,,330,,,,,,,,,,,wg-a,,,,AAXX 03034 07690 12/70 23308 10130 20100 30025 40056 50001 60006 82043 90300=
07690,1998-10-03 06:00:00,13,1006.1,0.5,77,9,20000,18.52,,,340,12.3,16.8,,,,,,,,,wg-a,,,,AAXX 03064 07690 02570 33410 10130 20090 30030 40061 53005 60006 81130 90600 333 10168 20123 60004=
07690,1998-10-03 09:00:00,17,1007.1,1,63,10,500,11.112,,,330,,,,,,,,,,,wg-a,,,,AAXX 03094 07690 12500 43306 10170 20100 30040 40071 53010 60006 83830 90900=
07690,1998-10-03 12:00:00,20,1006.9,-0.1,64,13,25000,14.816,,,110,,,,,,,,,,,wg-a,,,,AAXX 03124 07690 12575 /1108 10200 20130 30039 40069 58001 60006 81200 91200=
07690,1998-10-03 15:00:00,20,1006.6,-0.3,64,13,25000,7.408,,,140,,,,,,,,,,,wg-a,,,,AAXX 03154 07690 12575 /1404 10200 20130 30036 40066 58003 60006 81200 91500=
07690,1998-10-03 18:00:00,17,1007.2,0.5,77,13,20000,0,,,0,13.1,20.8,,,,,,,,,wg-a,,,,AAXX 03184 07690 12570 /0000 10170 20130 30041 40072 53005 60006 81230 91800 333 10208 20131=
07690,1998-10-03 21:00:00,14,1007.2,0,88,12,20000,11.112,,,340,,,,,,,,,,,wg-a,,,,AAXX 03214 07690 12570 /3406 10140 20120 30041 40072 50000 60006 81500 92100=
07690,1998-10-04 00:00:00,14,1006.7,-0.5,88,12,20000,18.52,,,330,,,,,,,,,,,wg-a,,,,AAXX 04004 07690 12570 23310 10140 20120 30036 40067 56005 60006 81540 90000=
07690,1998-10-04 03:00:00,14,1005.3,-1.4,82,11,20000,22.224,,,330,,,,,,,,,,,wg-a,,,,AAXX 04034 07690 12670 73312 10140 20110 30022 40053 56014 60006 8213/ 90300=
07690,1998-10-04 06:00:00,14,1005.2,-0.1,77,10,35000,18.52,,,330,13.6,17.2,,,,,,,,,wg-a,,,,AAXX 04064 07690 02481 63310 10140 20100 30021 40052 55001 60006 81872 90600 333 10172 20136 60004=
07690,1998-10-04 09:00:00,17,1005.9,0.7,68,11,40000,11.112,,,310,,,,,,,,,,,wg-a,,,,AAXX 04094 07690 12482 73106 10170 20110 30028 40059 50007 60006 81272 90900=
07690,1998-10-04 12:00:00,19,1005.6,-0.2,64,12,40000,11.112,,,220,,,,,,,,,,,wg-a,,,,AAXX 04124 07690 12682 72206 10190 20120 30026 40056 58002 60006 81876 91200=
07690,1998-10-04 15:00:00,18,1004.9,-0.7,64,11,35000,22.224,,,250,,,,,,,,,,,wg-a,,,,AAXX 04154 07690 12681 82512 10180 20110 30019 40049 56007 60006 8487/ 91500=
07690,1998-10-04 18:00:00,15,1005.7,0.7,88,13,15000,14.816,,,230,14,19.2,,,,,,,,61,wg-a,,,,AAXX 04184 07690 02565 82308 10150 20130 30026 40057 53007 61000 76162 8587/ 91800 333 10192 20140 6001=
07690,1998-10-04 21:00:00,14,1005.6,-0.1,94,13,8000,11.112,,,340,,,,2,,,,,,80,wg-a,,,,AAXX 04214 07690 12358 83406 10140 20130 30025 40056 58001 60027 78086 873// 92100=
07690,1998-10-05 00:00:00,14,1004.8,-0.8,94,13,10000,11.112,,,40,,,,3,,,,,,60,wg-a,,,,AAXX 05004 07690 02360 80406 10140 20130 30017 40048 55008 60066 76086 8782/ 90000 333 60037=
07690,1998-10-05 03:00:00,15,1003,-1.8,88,13,9000,7.408,,,10,,,,1,,,,,,61,wg-a,,,,AAXX 05034 07690 12359 80104 10150 20130 39999 40030 56018 60017 76166 878// 90300=
07690,1998-10-05 06:00:00,15,1002.9,-0.1,88,13,12000,7.408,,,340,13.7,15.3,,,,,,,,21,wg-a,,,,AAXX 05064 07690 02362 83404 10150 20130 39998 40029 55001 61000 72162 878// 90600 333 10153 20137 6007=
07690,1998-10-05 09:00:00,15,1004.2,1.3,94,14,10000,11.112,,,40,,,,3,,,,,,21,wg-a,,,,AAXX 05094 07690 12460 80406 10150 20140 30011 40042 51013 60037 72162 888// 90900=
07690,1998-10-05 12:00:00,16,1004.4,0.2,94,15,10000,11.112,,,40,,,,,,,,,,2,wg-a,,,,AAXX 05124 07690 02460 80406 10160 20150 30013 40044 50002 60036 70262 888// 91200 333 61000=
07690,1998-10-05 15:00:00,17,1004.3,0,88,15,10000,14.816,,,70,,,,5,,,,,,21,wg-a,,,,AAXX 05154 07690 12360 80708 10170 20150 30013 40043 50000 60057 72162 888// 91500=
07690,1998-10-05 18:00:00,17,1005.5,1.2,94,16,12000,14.816,,,70,14.5,17.4,,,,,,,,21,wg-a,,,,AAXX 05184 07690 02362 80708 10170 20160 30025 40055 51012 61000 72162 888// 91800 333 10174 20145 6000=
07690,1998-10-05 21:00:00,16,1006.4,0.8,94,15,12000,11.112,,,330,,,,,,,,,,,wg-a,,,,AAXX 05214 07690 12462 73306 10160 20150 30033 40064 53008 60006 875// 92100=
07690,1998-10-06 00:00:00,16,1004.1,-2.3,94,15,10000,0,,,330,,,,,,,,,,60,wg-a,,,,AAXX 06004 07690 12260 733// 10160 20150 30010 40041 58023 60006 76062 875// 90000=
07690,1998-10-06 03:00:00,18,1002.8,-1.2,83,15,15000,35.188,,,80,,,,5,,,,,,61,wg-a,,,,AAXX 06034 07690 12265 80819 10180 20150 39998 40028 56012 60057 76166 8357/ 90300=
07690,1998-10-06 06:00:00,19,1004.1,1.3,83,16,15000,25.928,,72.228,110,15.2,18.8,,,,,,,,21,wg-a,,,,AAXX 06064 07690 02265 /1114 10190 20160 30011 40041 53013 61000 72162 85570 90600 333 10188 20152 6015 91039=
07690,1998-10-06 09:00:00,20,1006.5,2.4,78,16,20000,3.704,,,250,,,,,,,,,,,wg-a,,,,AAXX 06094 07690 12570 /2502 10200 20160 30035 40065 53024 60006 82272 90900=
07690,1998-10-06 12:00:00,19,1007.6,1.1,78,15,35000,11.112,,,190,,,,,,,,,,,wg-a,,,,AAXX 06124 07690 12581 /1906 10190 20150 30046 40076 51011 60006 82212 91200=
07690,1998-10-06 15:00:00,21,1008.5,0.9,60,13,35000,7.408,,,150,,,,,,,,,,,wg-a,,,,AAXX 06154 07690 12581 41504 10210 20130 30055 40085 53009 60006 82261 91500=
07690,1998-10-06 18:00:00,17,1009.4,0.8,88,15,25000,3.704,,,340,17.4,21,,,,,,,,,wg-a,,,,AAXX 06184 07690 12475 43402 10170 20150 30063 40094 52008 60006 82460 91800 333 10210 20174=
07690,1998-10-06 21:00:00,15,1009.8,0.4,94,14,500,11.112,,,340,,,,7,,,,,,80,wg-a,,,,AAXX 06214 07690 12300 83406 10150 20140 30067 40098 53004 60077 78086 873// 92100=
07690,1998-10-07 00:00:00,14,1009.4,-0.4,94,13,20000,11.112,,,340,,,,1,,,,,,1,wg-a,,,,AAXX 07004 07690 02670 33406 10140 20130 30063 40094 58004 60086 70198 83580 90000 333 60017=
07690,1998-10-07 03:00:00,14,1008.4,-1,88,12,20000,18.52,,,330,,,,,,,,,,,wg-a,,,,AAXX 07034 07690 12470 53310 10140 20120 30053 40084 58010 60006 84880 90300=
07690,1998-10-07 06:00:00,14,1008.5,0.1,82,11,20000,18.52,,,330,13.5,17.3,,,,,8,,,15,wg-a,,,,AAXX 07064 07690 02570 53310 10140 20110 30054 40085 53001 60006 71511 85800 90600 333 10173 20135 60084=
07690,1998-10-07 09:00:00,14,1009,0.5,82,11,500,14.816,,,320,,,,,,,,,,61,wg-a,,,,AAXX 07094 07690 02400 63208 10140 20110 30059 40090 51005 61000 76196 86400 90900 333 ////=
07690,1998-10-07 12:00:00,20,1007.9,-1,73,15,15000,7.408,,,140,,,,,,,,,,3,wg-a,,,,AAXX 07124 07690 02465 21404 10200 20150 30049 40079 58010 61000 70396 81302 91200 333 6100=
07690,1998-10-07 15:00:00,19,1008.3,0.4,78,15,20000,7.408,,,170,,,,,,,,,,,wg-a,,,,AAXX 07154 07690 12470 51704 10190 20150 30053 40083 53004 60006 82903 91500=
07690,1998-10-07 18:00:00,17,1009,0.6,88,15,15000,7.408,,,320,13.6,20.5,,,,,,,,,wg-a,,,,AAXX 07184 07690 12465 /3204 10170 20150 30059 40090 51006 60006 84800 91800 333 10205 20136=
07690,1998-10-07 21:00:00,14,1009.5,0.5,82,11,15000,14.816,,,340,,,,,,,,,,,wg-a,,,,AAXX 07214 07690 12565 23408 10140 20110 30064 40095 53005 60006 81130 92100=
07690,1998-10-08 00:00:00,13,1009.6,0.1,88,11,15000,14.816,,,340,,,,1,,,,,,80,wg-a,,,,AAXX 08004 07690 02265 /3408 10130 20110 30065 40096 50001 60016 78098 8397/ 90000 333 60017=
07690,1998-10-08 03:00:00,12,1009.5,-0.1,94,11,8000,18.52,,,330,,,,22,,,,,,81,wg-a,,,,AAXX 08034 07690 12258 73310 10120 20110 30064 40095 58001 60227 78199 8797/ 90300=
07690,1998-10-08 06:00:00,12,1010.5,1,88,10,500,14.816,,,330,12,16.8,,,,,25,,,13,wg-a,,,,AAXX 08064 07690 02200 53308 10120 20100 30074 40105 53010 60006 71398 84970 90600 333 10168 20120 60254=
07690,1998-10-08 09:00:00,18,1012.7,2.2,73,13,25000,29.632,,,80,,,,,,,,,,,wg-a,,,,AAXX 08094 07690 12475 70816 10180 20130 30096 40127 52022 60006 8588/ 90900=
07690,1998-10-08 12:00:00,17,1013.7,1,82,14,3000,29.632,,,80,,,,4,,,,,,16,wg-a,,,,AAXX 08124 07690 02230 70816 10170 20140 30106 40137 51010 60046 71698 879// 91200 333 60047=
07690,1998-10-08 15:00:00,18,1014.3,0.6,73,13,12000,18.52,,,70,,,,1,,,,,,1,wg-a,,,,AAXX 08154 07690 12462 /0710 10180 20130 30112 40143 50006 60017 70198 8488/ 91500=
07690,1998-10-08 18:00:00,17,1015.9,1.6,77,13,10000,18.52,,,80,12.1,19,,,,,,,,13,wg-a,,,,AAXX 08184 07690 12560 /0810 10170 20130 30128 40159 53016 60006 71398 86900 91800 333 10190 20121=
07690,1998-10-08 21:00:00,15,1017.8,1.9,82,12,15000,7.408,,,60,,,,,,,,,,17,wg-a,,,,AAXX 08214 07690 02565 /0604 10150 20120 30147 40178 53019 61000 71798 84970 92100 333 ////=
07690,1998-10-09 00:00:00,13,1018.3,0.5,94,12,15000,11.112,,,350,,,,1,,,,,,25,wg-a,,,,AAXX 09004 07690 02565 73506 10130 20120 30152 40183 52005 60016 72598 879// 90000 333 60017=
07690,1998-10-09 03:00:00,13,1018.7,0.4,94,12,8000,11.112,,,230,,,,12,,,,,,80,wg-a,,,,AAXX 09034 07690 12358 72306 10130 20120 30156 40187 53004 60127 78096 879// 90300=
07690,1998-10-09 06:00:00,12,1020.3,1.5,100,12,6000,22.224,,,350,12.1,17.8,,,,,,,,80,wg-a,,,,AAXX 09064 07690 02356 83512 10120 20120 30171 40203 51015 61000 78096 879// 90600 333 10178 20121 6090=
07690,1998-10-09 09:00:00,13,1021.5,1.3,88,11,8000,22.224,,,10,,,,6,,,,,,61,wg-a,,,,AAXX 09094 07690 12358 70112 10130 20110 30184 40215 51013 60067 76166 873// 90900=
07690,1998-10-09 12:00:00,17,1021.1,-0.4,72,12,40000,11.112,,,40,,,,,,,,,,1,wg-a,,,,AAXX 09124 07690 02482 60406 10170 20120 30180 40211 58004 60066 70162 83831 91200 333 61000=
07690,1998-10-09 15:00:00,19,1020.4,-0.7,68,13,40000,11.112,,,90,,,,,,,,,,,wg-a,,,,AAXX 09154 07690 12582 30906 10190 20130 30173 40204 57007 60006 82831 91500=
07690,1998-10-09 18:00:00,16,1020.4,-0,82,13,20000,7.408,,,360,12.2,19.1,,,,,,,,,wg-a,,,,AAXX 09184 07690 12570 53604 10160 20130 30173 40204 55000 60006 84833 91800 333 10191 20122=
07690,1998-10-09 21:00:00,14,1021,0.6,82,11,15000,14.816,,,340,,,,,,,,,,13,wg-a,,,,AAXX 09214 07690 12565 53408 10140 20110 30179 40210 51006 60006 71322 84903 92100=
07690,1998-10-10 00:00:00,13,1020.6,-0.4,82,10,20000,18.52,,,340,,,,,,,,,,,wg-a,,,,AAXX 10004 07690 12570 /3410 10130 20100 30175 40206 58004 60006 81800 90000=
07690,1998-10-10 03:00:00,12,1019.9,-0.8,88,10,20000,22.224,,,330,,,,,,,,,,,wg-a,,,,AAXX 10034 07690 12570 /3312 10120 20100 30167 40199 58008 60006 81200 90300=
07690,1998-10-10 06:00:00,12,1019.5,-0.4,82,9,500,22.224,,,330,11.5,15.8,,,,,6,,,,wg-a,,,,AAXX 10064 07690 02500 /3312 10120 20090 30163 40195 56004 60006 81500 90600 333 10158 20115 60064=
07690,1998-10-10 09:00:00,16,1020.2,0.8,72,11,40000,14.816,,,320,,,,,,,,,,,wg-a,,,,AAXX 10094 07690 12/82 03208 10160 20110 30171 40202 51008 60006 80000 90900=
07690,1998-10-10 12:00:00,20,1018.5,-1.7,64,13,40000,31.484,,,210,,,,,,,,,,,wg-a,,,,AAXX 10124 07690 12582 /2117 10200 20130 30154 40185 58017 60006 81101 91200=
07690,1998-10-10 15:00:00,20,1016.9,-1.6,56,11,40000,38.892,,,220,,,,,,,,,,,wg-a,,,,AAXX 10154 07690 12682 /2221 10200 20110 30138 40169 56016 60006 81101 91500=
07690,1998-10-10 18:00:00,16,1017.4,0.5,72,11,40000,25.928,,,250,11.6,20.3,,,,,,,,,wg-a,,,,AAXX 10184 07690 12/82 /2514 10160 20110 30143 40174 53005 60006 80000 91800 333 10203 20116=
07690,1998-10-10 21:00:00,13,1018,0.6,77,9,500,11.112,,,330,,,,,,,,,,,wg-a,,,,AAXX 10214 07690 12/00 03306 10130 20090 30149 40180 53006 60006 80000 92100=
07690,1998-10-11 00:00:00,11,1018.2,0.1,82,8,500,7.408,,,320,,,,,,,,,,,wg-a,,,,AAXX 11004 07690 12/00 13204 10110 20080 30150 40182 50001 60006 80001 90000=
07690,1998-10-11 03:00:00,11,1017.3,-0.9,82,8,500,18.52,,,320,,,,,,,,,,,wg-a,,,,AAXX 11034 07690 12/00 13210 10110 20080 30141 40173 56009 60006 80002 90300=
07690,1998-10-11 06:00:00,12,1016.7,-0.6,71,7,40000,18.52,,,340,10.8,16.1,,,,,,,,,wg-a,,,,AAXX 11064 07690 02582 /3410 10120 20070 30135 40167 58006 60006 81501 90600 333 10161 20108 60004=
07690,1998-10-11 09:00:00,17,1017.4,0.8,52,7,50000,3.704,,,340,,,,,,,,,,,wg-a,,,,AAXX 11094 07690 12584 23402 10170 20070 30143 40174 51008 60006 81101 90900=
07690,1998-10-11 12:00:00,19,1016.2,-1.2,64,12,500,11.112,,,160,,,,,,,,,,,wg-a,,,,AAXX 11124 07690 12500 /1606 10190 20120 30131 40162 58012 60006 81201 91200=
07690,1998-10-11 15:00:00,18,1014.6,-1.6,68,12,500,3.704,,,130,,,,,,,,,,,wg-a,,,,AAXX 11154 07690 12500 51302 10180 20120 30115 40146 56016 60006 83802 91500=
07690,1998-10-11 18:00:00,16,1014.1,-0.5,82,13,20000,3.704,,,50,11.4,19.3,,,,,,,,,wg-a,,,,AAXX 11184 07690 12670 /0502 10160 20130 30110 40141 56005 60006 83502 91800 333 10193 20114=
07690,1998-10-11 21:00:00,13,1013.2,-0.9,88,11,20000,14.816,,,330,,,,,,,,,,,wg-a,,,,AAXX 11214 07690 12670 33308 10130 20110 30101 40132 58009 60006 81502 92100=
07690,1998-10-12 00:00:00,13,1012.1,-1.1,88,11,20000,7.408,,,360,,,,,,,,,,,wg-a,,,,AAXX 12004 07690 12670 73604 10130 20110 30090 40121 56011 60006 82532 90000=
07690,1998-10-12 03:00:00,14,1010.3,-1.8,82,11,20000,14.816,,,340,,,,,,,,,,,wg-a,,,,AAXX 12034 07690 12570 73408 10140 20110 30072 40103 56018 60006 875// 90300=
07690,1998-10-12 06:00:00,13,1010,-0.3,82,10,20000,18.52,,,340,12.7,15.6,,,,,,,,,wg-a,,,,AAXX 12064 07690 02570 33410 10130 20100 30069 40100 58003 60006 83501 90600 333 10156 20127 60004=
07690,1998-10-12 09:00:00,17,1010.7,0.7,68,11,20000,11.112,,,300,,,,,,,,,,,wg-a,,,,AAXX 12094 07690 12470 23006 10170 20110 30076 40107 51007 60006 81101 90900=
07690,1998-10-12 12:00:00,20,1009.1,-1.5,64,13,20000,11.112,,,180,,,,,,,,,,,wg-a,,,,AAXX 12124 07690 12470 /1806 10200 20130 30061 40091 58015 60006 81101 91200=
07690,1998-10-12 15:00:00,20,1007.8,-1.3,64,13,15000,7.408,,,140,,,,,,,,,,,wg-a,,,,AAXX 12154 07690 12465 /1404 10200 20130 30048 40078 56013 60006 81401 91500=
07690,1998-10-12 18:00:00,18,1008.4,0.5,73,13,15000,3.704,,,90,12.9,20.2,,,,,,,,,wg-a,,,,AAXX 12184 07690 12665 30902 10180 20130 30053 40084 53005 60006 81501 91800 333 10202 20129=
07690,1998-10-12 21:00:00,14,1010.8,2.4,88,12,12000,14.816,,,320,,,,,,,,,,,wg-a,,,,AAXX 12214 07690 12662 /3208 10140 20120 30077 40108 53024 60006 82500 92100=
07690,1998-10-13 00:00:00,14,1012.5,1.7,88,12,12000,22.224,,,330,,,,,,,,,,,wg-a,,,,AAXX 13004 07690 12/62 /3312 10140 20120 30094 40125 51017 60006 80000 90000=
07690,1998-10-13 03:00:00,13,1013.8,1.3,82,10,15000,22.224,,,330,,,,,,,,,,,wg-a,,,,AAXX 13034 07690 12/65 03312 10130 20100 30107 40138 52013 60006 80000 90300=
07690,1998-10-13 06:00:00,12,1015.8,2,71,7,40000,25.928,,,330,12,17.6,,,,,,,,,wg-a,,,,AAXX 13064 07690 02/82 13314 10120 20070 30127 40158 51020 60006 80001 90600 333 10176 20120 60004=
07690,1998-10-13 09:00:00,16,1018.4,2.6,51,6,50000,18.52,,,330,,,,,,,,,,,wg-a,,,,AAXX 13094 07690 12/84 13310 10160 20060 30153 40184 51026 60006 80001 90900=
07690,1998-10-13 12:00:00,20,1018.5,0.1,46,8,50000,25.928,,,200,,,,,,,,,,,wg-a,,,,AAXX 13124 07690 12/84 22014 10200 20080 30154 40185 50001 60006 80002 91200=
07690,1998-10-13 15:00:00,20,1018.7,0.2,40,6,50000,29.632,,,210,,,,,,,,,,,wg-a,,,,AAXX 13154 07690 12/84 32116 10200 20060 30156 40187 53002 60006 80002 91500=
07690,1998-10-13 18:00:00,16,1020.1,1.4,55,7,500,7.408,,,340,12.1,20.6,,,,,,,,,wg-a,,,,AAXX 13184 07690 12/00 33404 10160 20070 30170 40201 53014 60006 82041 91800 333 10206 20121=
07690,1998-10-13 21:00:00,14,1021.2,1.1,58,6,500,14.816,,,340,,,,,,,,,,,wg-a,,,,AAXX 13214 07690 12/00 43408 10140 20060 30181 40212 53011 60006 80001 92100=
07690,1998-10-14 00:00:00,14,1022.2,1,63,7,500,18.52,,,330,,,,,,,,,,,wg-a,,,,AAXX 14004 07690 12/00 73310 10140 20070 30191 40222 51010 60006 84072 90000=
07690,1998-10-14 03:00:00,13,1022.2,-0.1,67,7,500,14.816,,,340,,,,,,,,,,,wg-a,,,,AAXX 14034 07690 12/00 03408 10130 20070 30190 40222 55001 60006 80000 90300=
07690,1998-10-14 06:00:00,12,1022.9,0.7,71,7,50000,14.816,,,340,12.2,15.8,,,,,,,,,wg-a,,,,AAXX 14064 07690 02584 /3408 10120 20070 30197 40229 53007 60006 81500 90600 333 10158 20122 60004=
07690,1998-10-14 09:00:00,17,1023.8,1,55,8,40000,7.408,,,320,,,,,,,,,,,wg-a,,,,AAXX 14094 07690 12582 /3204 10170 20080 30207 40238 51010 60006 81100 90900=
07690,1998-10-14 12:00:00,20,1023.7,-0.1,56,11,50000,11.112,,,110,,,,,,,,,,,wg-a,,,,AAXX 14124 07690 12584 /1106 10200 20110 30206 40237 58001 60006 81100 91200=
07690,1998-10-14 15:00:00,20,1023,-0.7,64,13,50000,7.408,,,160,,,,,,,,,,,wg-a,,,,AAXX 14154 07690 12584 11604 10200 20130 30199 40230 56007 60006 81500 91500=
07690,1998-10-14 18:00:00,16,1023.9,0.9,88,14,500,3.704,,,210,12.3,20.6,,,,,,,,,wg-a,,,,AAXX 14184 07690 12/00 /2102 10160 20140 30208 40239 53009 60006 80000 91800 333 10206 20123=
07690,1998-10-14 21:00:00,14,1024.4,0.5,88,12,15000,14.816,,,340,,,,,,,,,,,wg-a,,,,AAXX 14214 07690 12/65 03408 10140 20120 30213 40244 51005 60006 80000 92100=
07690,1998-10-15 00:00:00,13,1024.4,-0.1,77,9,15000,14.816,,,340,,,,,,,,,,,wg-a,,,,AAXX 15004 07690 12/65 03408 10130 20090 30212 40244 58001 60006 80000 90000=
07690,1998-10-15 03:00:00,12,1023.4,-1,76,8,15000,18.52,,,340,,,,,,,,,,,wg-a,,,,AAXX 15034 07690 12465 /3410 10120 20080 30202 40234 58010 60006 81500 90300=
07690,1998-10-15 06:00:00,12,1023.9,0.5,76,8,11000,22.224,,,330,11.7,16.4,,,,,,,,,wg-a,,,,AAXX 15064 07690 02/61 /3312 10120 20080 30207 40239 53005 60006 90600 333 10164 20117 60004=
07690,1998-10-15 12:00:00,20,1022.8,-1.3,68,14,0,11.112,,,110,,,,,,,,,,,wg-a,,,,AAXX 15124 07690 12/// /1106 10200 20140 30197 40228 58013 60006 91200=
07690,1998-10-15 18:00:00,18,1022.3,0.5,77,14,20000,7.408,,,100,12.1,20.3,,,,,,,,,wg-a,,,,AAXX 15184 07690 12470 71004 10180 20140 30192 40223 53005 60006 875// 91800 333 10203 20121=
07690,1998-10-15 21:00:00,17,1022.7,0.4,88,15,9000,3.704,,,290,,,,,,,,,,,wg-a,,,,AAXX 15214 07690 12459 72902 10170 20150 30196 40227 53004 60006 875// 92100=
07690,1998-10-16 00:00:00,16,1022.7,0,88,14,9000,7.408,,,340,,,,,,,,,,,wg-a,,,,AAXX 16004 07690 12459 73404 10160 20140 30196 40227 50000 60006 875// 90000=
07690,1998-10-16 03:00:00,16,1021.9,-0.8,88,14,12000,7.408,,,330,,,,,,,,,,,wg-a,,,,AAXX 16034 07690 12462 73304 10160 20140 30188 40219 58008 60006 875// 90300=
07690,1998-10-16 06:00:00,15,1022.4,0.5,88,13,12000,14.816,,,330,14.5,18.5,,,,,,,,,wg-a,,,,AAXX 16064 07690 02462 73308 10150 20130 30193 40224 51005 60006 875// 90600 333 10185 20145 60004=
07690,1998-10-16 09:00:00,18,1023.7,1.3,68,12,14000,7.408,,,330,,,,,,,,,,,wg-a,,,,AAXX 16094 07690 12564 73304 10180 20120 30206 40237 51013 60006 878// 90900=
07690,1998-10-16 12:00:00,21,1022.6,-1.1,69,15,11000,14.816,,,210,,,,,,,,,,,wg-a,,,,AAXX 16124 07690 12/61 /2108 10210 20150 30195 40226 58011 60006 91200=
07690,1998-10-16 15:00:00,19,1021.7,-0.9,73,14,13000,14.816,,,210,,,,,,,,,,,wg-a,,,,AAXX 16154 07690 12563 /2108 10190 20140 30186 40217 56009 60006 82802 91500=
07690,1998-10-16 18:00:00,18,1021.9,0.2,83,15,15000,7.408,,,200,14.6,21.6,,,,,,,,,wg-a,,,,AAXX 16184 07690 12465 72004 10180 20150 30188 40219 53002 60006 86802 91800 333 10216 20146=
07690,1998-10-16 21:00:00,15,1022.5,0.6,94,14,12000,3.704,,,340,,,,,,,,,,,wg-a,,,,AAXX 16214 07690 12462 33402 10150 20140 30194 40225 53006 60006 81502 92100=
07690,1998-10-17 00:00:00,14,1021.6,-0.9,94,13,10000,11.112,,,320,,,,,,,,,,,wg-a,,,,AAXX 17004 07690 12460 33206 10140 20130 30185 40216 58009 60006 81502 90000=
07690,1998-10-17 03:00:00,14,1020.7,-0.9,94,13,9000,11.112,,,340,,,,,,,,,,,wg-a,,,,AAXX 17034 07690 12459 43406 10140 20130 30176 40207 58009 60006 81502 90300=
07690,1998-10-17 06:00:00,13,1020.5,-0.2,94,12,9000,18.52,,,330,13.2,17.6,,,,,,,,,wg-a,,,,AAXX 17064 07690 02359 43310 10130 20120 30174 40205 57002 60006 82832 90600 333 10176 20132 60004=
07690,1998-10-17 09:00:00,19,1020.6,0.1,68,13,10000,3.704,,,100,,,,,,,,,,,wg-a,,,,AAXX 17094 07690 12460 31002 10190 20130 30175 40206 50001 60006 81131 90900=
07690,1998-10-17 12:00:00,21,1019.8,-0.8,69,15,10000,7.408,,,190,,,,,,,,,,,wg-a,,,,AAXX 17124 07690 12460 31904 10210 20150 30167 40198 58008 60006 81101 91200=
07690,1998-10-17 15:00:00,20,1018.3,-1.5,73,15,9000,11.112,,,160,,,,,,,,,,,wg-a,,,,AAXX 17154 07690 12459 /1606 10200 20150 30152 40183 56015 60006 81130 91500=
07690,1998-10-17 18:00:00,17,1018.3,-0,82,14,15000,3.704,,,140,13.4,21.8,,,,,,,,,wg-a,,,,AAXX 17184 07690 12465 /1402 10170 20140 30152 40183 55000 60006 81500 91800 333 10218 20134=
07690,1998-10-17 21:00:00,15,1018.9,0.6,94,14,9000,11.112,,,330,,,,,,,,,,,wg-a,,,,AAXX 17214 07690 12559 73306 10150 20140 30158 40189 52006 60006 875// 92100=
07690,1998-10-18 00:00:00,15,1018,-0.9,88,13,12000,18.52,,,340,,,,,,,,,,,wg-a,,,,AAXX 18004 07690 12562 73410 10150 20130 30149 40180 56009 60006 875// 90000=
07690,1998-10-18 03:00:00,15,1016.7,-1.3,82,12,15000,14.816,,,340,,,,,,,,,,,wg-a,,,,AAXX 18034 07690 12665 /3408 10150 20120 30136 40167 58013 60006 83572 90300=
07690,1998-10-18 06:00:00,14,1016.4,-0.3,88,12,12000,14.816,,,330,14.4,16.8,,,,,,,,,wg-a,,,,AAXX 18064 07690 02462 /3308 10140 20120 30133 40164 55003 60006 82572 90600 333 10168 20144 60004=
07690,1998-10-18 09:00:00,18,1017.1,0.7,77,14,13000,0,,,0,,,,,,,,,,,wg-a,,,,AAXX 18094 07690 12463 40000 10180 20140 30140 40171 50007 60006 82870 90900=
07690,1998-10-18 12:00:00,21,1015.9,-1.1,69,15,12000,7.408,,,100,,,,,,,,,,,wg-a,,,,AAXX 18124 07690 12562 21004 10210 20150 30129 40159 58011 60006 82102 91200=
07690,1998-10-18 15:00:00,20,1014.2,-1.7,78,16,13000,11.112,,,80,,,,0,,,,,,,wg-a,,,,AAXX 18154 07690 12463 20806 10200 20160 30112 40142 56017 60007 81130 91500=
07690,1998-10-18 18:00:00,19,1013.9,-0.4,83,16,12000,14.816,,,80,14.4,20.7,,,,,,,,,wg-a,,,,AAXX 18184 07690 12562 20808 10190 20160 30108 40139 55004 60006 81530 91800 333 10207 20144=
07690,1998-10-18 21:00:00,15,1013.5,-0.4,88,13,9000,11.112,,,330,,,,,,,,,,,wg-a,,,,AAXX 18214 07690 12459 /3306 10150 20130 30104 40135 58004 60006 81502 92100=
07690,1998-10-19 00:00:00,15,1013,-0.5,88,13,11000,14.816,,,330,,,,,,,,,,,wg-a,,,,AAXX 19004 07690 12761 33308 10150 20130 30099 40130 58005 60006 81502 90000=
07690,1998-10-19 03:00:00,14,1010.6,-2.4,94,13,8000,14.816,,,340,,,,2,,,,,,61,wg-a,,,,AAXX 19034 07690 12358 73408 10140 20130 30075 40106 58024 60027 76161 878// 90300=
07690,1998-10-19 06:00:00,14,1010.1,-0.5,94,13,10000,18.52,,,340,14,18.7,,,,,5,,,3,wg-a,,,,AAXX 19064 07690 02460 83410 10140 20130 30070 40101 58005 60006 70361 878// 90600 333 10187 20140 60054=
07690,1998-10-19 09:00:00,14,1010.1,0,94,13,15000,11.112,,,20,,,,3,,,,,,3,wg-a,,,,AAXX 19094 07690 12465 80206 10140 20130 30070 40101 50000 60037 70362 8657/ 90900=
07690,1998-10-19 12:00:00,17,1009.2,-0.9,88,15,6000,11.112,,,230,,,,,,,,,,3,wg-a,,,,AAXX 19124 07690 12456 72306 10170 20150 30061 40092 56009 60036 70362 8567/ 91200=
07690,1998-10-19 15:00:00,18,1008.8,-0.4,73,13,15000,0,,,0,,,,,,,,,,,wg-a,,,,AAXX 19154 07690 12465 70000 10180 20130 30057 40088 55004 60006 8587/ 91500=
07690,1998-10-19 18:00:00,17,1009.8,1,82,14,12000,11.112,,,60,14.1,18,,,,,,,,,wg-a,,,,AAXX 19184 07690 12462 /0606 10170 20140 30067 40098 53010 60006 83402 91800 333 10180 20141=
07690,1998-10-19 21:00:00,14,1011.2,1.4,88,12,12000,18.52,,,330,,,,,,,,,,,wg-a,,,,AAXX 19214 07690 12462 53310 10140 20120 30081 40112 51014 60006 84502 92100=
07690,1998-10-20 00:00:00,14,1012,0.8,82,11,20000,11.112,,,340,,,,,,,,,,,wg-a,,,,AAXX 20004 07690 12770 23406 10140 20110 30089 40120 52008 60006 82500 90000=
07690,1998-10-20 03:00:00,13,1011.4,-0.6,82,10,20000,22.224,,,330,,,,,,,,,,,wg-a,,,,AAXX 20034 07690 12/70 03312 10130 20100 30083 40114 58006 60006 80000 90300=
07690,1998-10-20 06:00:00,13,1013,1.6,77,9,500,18.52,,,340,12.6,17,,,,,3,,,,wg-a,,,,AAXX 20064 07690 02700 /3410 10130 20090 30099 40130 53016 60006 81502 90600 333 10170 20126 60034=
07690,1998-10-20 09:00:00,16,1015.5,2.5,63,9,35000,14.816,,,340,,,,,,,,,,,wg-a,,,,AAXX 20094 07690 12/81 13408 10160 20090 30124 40155 51025 60006 81030 90900=
07690,1998-10-20 12:00:00,20,1016.5,1,68,14,500,11.112,,,120,,,,,,,,,,,wg-a,,,,AAXX 20124 07690 12500 /1206 10200 20140 30134 40165 50010 60006 81100 91200=
07690,1998-10-20 15:00:00,19,1017.3,0.8,64,12,500,7.408,,,160,,,,,,,,,,,wg-a,,,,AAXX 20154 07690 12500 /1604 10190 20120 30142 40173 53008 60006 81101 91500=
07690,1998-10-20 18:00:00,15,1019.6,2.3,82,12,500,7.408,,,320,12.5,20.3,,,,,,,,,wg-a,,,,AAXX 20184 07690 12500 /3204 10150 20120 30165 40196 53023 60006 81100 91800 333 10203 20125=
07690,1998-10-20 21:00:00,13,1022.5,2.8,88,11,15000,14.816,,,330,,,,,,,,,,,wg-a,,,,AAXX 20214 07690 12/65 03308 10130 20110 30193 40225 52028 60006 80000 92100=
07690,1998-10-21 00:00:00,13,1024.2,1.7,77,9,20000,14.816,,,340,,,,,,,,,,,wg-a,,,,AAXX 21004 07690 12/70 03408 10130 20090 30210 40242 51017 60006 80000 90000=
07690,1998-10-21 03:00:00,12,1024.9,0.7,76,8,20000,18.52,,,340,,,,,,,,,,,wg-a,,,,AAXX 21034 07690 12/70 03410 10120 20080 30217 40249 51007 60006 80000 90300=
07690,1998-10-21 06:00:00,12,1026.1,1.2,71,7,25000,25.928,,,330,11.5,15.2,,,,,,,,,wg-a,,,,AAXX 21064 07690 02475 /3314 10120 20070 30229 40261 53012 60006 81502 90600 333 10152 20115 60004=
07690,1998-10-21 09:00:00,15,1027.7,1.7,63,8,35000,18.52,,,330,,,,,,,,,,,wg-a,,,,AAXX 21094 07690 12481 23310 10150 20080 30246 40277 51017 60006 81832 90900=
07690,1998-10-21 12:00:00,20,1027.7,0,49,9,35000,7.408,,,140,,,,,,,,,,,wg-a,,,,AAXX 21124 07690 12581 /1404 10200 20090 30246 40277 50000 60006 81102 91200=
07690,1998-10-21 15:00:00,19,1027.9,0.2,52,9,25000,7.408,,,120,,,,,,,,,,,wg-a,,,,AAXX 21154 07690 12575 71204 10190 20090 30248 40279 53002 60006 81802 91500=
07690,1998-10-21 18:00:00,15,1028.9,0.9,72,10,11000,7.408,,,320,11.4,20.4,,,,,,,,,wg-a,,,,AAXX 21184 07690 12/61 /3204 10150 20100 30257 40289 53009 60006 91800 333 10204 20114=
07690,1998-10-21 21:00:00,13,1029.4,0.5,82,10,500,14.816,,,330,,,,,,,,,,,wg-a,,,,AAXX 21214 07690 12/00 23308 10130 20100 30262 40294 52005 60006 80002 92100=
07690,1998-10-22 00:00:00,12,1029.5,0.1,82,9,20000,18.52,,,330,,,,,,,,,,,wg-a,,,,AAXX 22004 07690 12/70 03310 10120 20090 30263 40295 50001 60006 80000 90000=
07690,1998-10-22 03:00:00,11,1029,-0.5,82,8,20000,22.224,,,330,,,,,,,,,,,wg-a,,,,AAXX 22034 07690 12/70 03312 10110 20080 30258 40290 58005 60006 80000 90300=
07690,1998-10-22 06:00:00,11,1029.4,0.4,82,8,500,22.224,,,330,10.9,14.6,,,,,,,,,wg-a,,,,AAXX 22064 07690 02500 23312 10110 20080 30262 40294 51004 60006 81571 90600 333 10146 20109 60004=
07690,1998-10-22 09:00:00,15,1030.5,1.1,67,9,500,14.816,,,330,,,,,,,,,,,wg-a,,,,AAXX 22094 07690 12500 33308 10150 20090 30273 40305 51011 60006 81801 90900=
07690,1998-10-22 12:00:00,19,1030,-0.4,64,12,500,7.408,,,150,,,,,,,,,,,wg-a,,,,AAXX 22124 07690 12500 31504 10190 20120 30269 40300 58004 60006 82801 91200=
07690,1998-10-22 15:00:00,18,1028.7,-1.3,77,14,15000,18.52,,,210,,,,,,,,,,,wg-a,,,,AAXX 22154 07690 12565 62110 10180 20140 30256 40287 56013 60006 85801 91500=
07690,1998-10-22 18:00:00,16,1029.1,0.4,88,14,15000,14.816,,,240,10.9,19.3,,,,,,,,,wg-a,,,,AAXX 22184 07690 12465 /2408 10160 20140 30260 40291 53004 60006 86501 91800 333 10193 20109=
07690,1998-10-22 21:00:00,15,1029.3,0.2,88,13,15000,11.112,,,320,,,,,,,,,,,wg-a,,,,AAXX 22214 07690 12465 33206 10150 20130 30262 40293 52002 60006 81501 92100=
07690,1998-10-23 00:00:00,13,1028.5,-0.9,94,12,15000,14.816,,,330,,,,,,,,,,,wg-a,,,,AAXX 23004 07690 12/65 03308 10130 20120 30253 40285 58009 60006 80000 90000=
07690,1998-10-23 03:00:00,13,1027.8,-0.7,82,10,15000,18.52,,,330,,,,,,,,,,,wg-a,,,,AAXX 23034 07690 12/65 03310 10130 20100 30246 40278 58007 60006 80000 90300=
07690,1998-10-23 06:00:00,12,1026.9,-0.9,82,9,15000,18.52,,,330,12.1,16.2,,,,,,,,,wg-a,,,,AAXX 23064 07690 02465 23310 10120 20090 30237 40269 58009 60006 82501 90600 333 10162 20121 60004=
07690,1998-10-23 09:00:00,15,1027.3,0.5,67,9,18000,18.52,,,330,,,,,,,,,,,wg-a,,,,AAXX 23094 07690 12468 33310 10150 20090 30242 40273 50005 60006 82202 90900=
07690,1998-10-23 12:00:00,19,1025.6,-1.7,64,12,18000,11.112,,,160,,,,,,,,,,,wg-a,,,,AAXX 23124 07690 12468 21606 10190 20120 30225 40256 58017 60006 81202 91200=
07690,1998-10-23 15:00:00,19,1023.4,-2.2,78,15,18000,22.224,,,60,,,,,,,,,,,wg-a,,,,AAXX 23154 07690 12568 40612 10190 20150 30203 40234 56022 60006 82802 91500=
07690,1998-10-23 18:00:00,16,1022.5,-0.9,88,14,15000,7.408,,,350,12,19.7,,,,,,,,,wg-a,,,,AAXX 23184 07690 12565 /3504 10160 20140 30194 40225 56009 60006 81502 91800 333 10197 20120=
07690,1998-10-23 21:00:00,14,1021.2,-1.3,88,12,15000,14.816,,,340,,,,,,,,,,,wg-a,,,,AAXX 23214 07690 12465 23408 10140 20120 30181 40212 56013 60006 82500 92100=
07690,1998-10-24 00:00:00,13,1019.2,-2,88,11,15000,14.816,,,330,,,,,,,,,,,wg-a,,,,AAXX 24004 07690 12465 43308 10130 20110 30161 40192 58020 60006 84500 90000=
07690,1998-10-24 03:00:00,13,1015.7,-3.5,82,10,15000,18.52,,,330,,,,,,,,,,,wg-a,,,,AAXX 24034 07690 12/65 /3310 10130 20100 30126 40157 58035 60006 80000 90300=
07690,1998-10-24 06:00:00,12,1016.1,0.4,88,10,12000,18.52,,,320,12,16.3,,,,,,,,,wg-a,,,,AAXX 24064 07690 02462 /3210 10120 20100 30130 40161 53004 60006 83530 90600 333 10163 20120 60004=
07690,1998-10-24 09:00:00,15,1016.8,0.7,77,11,7000,14.816,,,330,,,,,,,,,,,wg-a,,,,AAXX 24094 07690 12557 73308 10150 20110 30137 40168 50007 60006 85831 90900=
07690,1998-10-24 12:00:00,18,1015.2,-1.6,77,14,8000,3.704,,,230,,,,,,,,,,,wg-a,,,,AAXX 24124 07690 12858 /2302 10180 20140 30121 40152 58016 60006 8157/ 91200=
07690,1998-10-24 15:00:00,19,1013.2,-2,78,15,8000,7.408,,,220,,,,,,,,,,,wg-a,,,,AAXX 24154 07690 12/58 72204 10190 20150 30101 40132 58020 60006 81041 91500=
07690,1998-10-24 18:00:00,17,1012.9,-0.3,88,15,10000,3.704,,,40,11.7,20.5,,,,,,,,,wg-a,,,,AAXX 24184 07690 12/60 70402 10170 20150 30098 40129 56003 60006 85047 91800 333 10205 20117=
07690,1998-10-24 21:00:00,15,1012.5,-0.4,88,13,8000,11.112,,,330,,,,,,,,,,,wg-a,,,,AAXX 24214 07690 12458 73306 10150 20130 30094 40125 58004 60006 8453/ 92100=
07690,1998-10-25 00:00:00,14,1011.1,-1.4,88,12,8000,11.112,,,330,,,,,,,,,,,wg-a,,,,AAXX 25004 07690 12458 73306 10140 20120 30080 40111 57014 60006 8253/ 90000=
07690,1998-10-25 03:00:00,14,1006.7,-4.4,82,11,8000,11.112,,,330,,,,,,,,,,,wg-a,,,,AAXX 25034 07690 12458 73306 10140 20110 30036 40067 58044 60006 8253/ 90300=
07690,1998-10-25 06:00:00,14,1004.3,-2.4,88,12,15000,18.52,,,330,13.3,17.2,,,,,,,,,wg-a,,,,AAXX 25064 07690 02465 73310 10140 20120 30012 40043 58024 60006 8257/ 90600 333 10172 20133 60004=
07690,1998-10-25 09:00:00,20,1001.7,-2.5,73,15,35000,42.596,,,250,,,,,,,,,,,wg-a,,,,AAXX 25094 07690 12481 72523 10200 20150 39987 40017 58025 60006 81832 90900=
07690,1998-10-25 12:00:00,24,1001.2,-0.5,41,10,40000,38.892,,64.82,270,,,,,,,,,,,wg-a,,,,AAXX 25124 07690 12582 /2721 10240 20100 39982 40012 58005 60006 81842 91200 333 91035=
07690,1998-10-25 15:00:00,20,1000.8,-0.4,56,11,40000,35.188,,61.116,250,,,,,,,,,,,wg-a,,,,AAXX 25154 07690 12582 72519 10200 20110 39978 40008 56004 60006 8157/ 91500 333 91033=
07690,1998-10-25 18:00:00,19,1002.8,2,37,4,40000,29.632,,50.004,290,13.8,23.9,,,,,,,,,wg-a,,,,AAXX 25184 07690 12582 /2916 10190 20040 39998 40028 53020 60006 8157/ 91800 333 10239 20138 91027=
07690,1998-10-25 21:00:00,16,1005,2.1,55,7,25000,7.408,,,40,,,,,,,,,,,wg-a,,,,AAXX 25214 07690 12/75 00404 10160 20070 30019 40050 51021 60006 80000 92100=
07690,1998-10-26 00:00:00,17,1005.2,0.2,36,2,25000,3.704,,,300,,,,,,,,,,,wg-a,,,,AAXX 26004 07690 12/75 03002 10170 20020 30021 40052 52002 60006 80000 90000=
07690,1998-10-26 03:00:00,14,1005.6,0.4,44,2,25000,22.224,,,330,,,,,,,,,,,wg-a,,,,AAXX 26034 07690 12/75 03312 10140 20020 30025 40056 50004 60006 80000 90300=
07690,1998-10-26 06:00:00,14,1008,2.4,41,1,50000,14.816,,,340,12.5,19.4,,,,,,,,,wg-a,,,,AAXX 26064 07690 02584 /3408 10140 20010 30049 40080 53024 60006 81500 90600 333 10194 20125 60004=
07690,1998-10-26 09:00:00,17,1010.5,2.5,42,4,50000,11.112,,,330,,,,,,,,,,,wg-a,,,,AAXX 26094 07690 12584 /3306 10170 20040 30074 40105 51025 60006 81800 90900=
07690,1998-10-26 12:00:00,21,1010.7,0.3,38,6,50000,7.408,,,150,,,,,,,,,,,wg-a,,,,AAXX 26124 07690 12584 /1504 10210 20060 30077 40107 51003 60006 81100 91200=
07690,1998-10-26 15:00:00,20,1011.2,0.5,43,7,40000,11.112,,,80,,,,,,,,,,,wg-a,,,,AAXX 26154 07690 12582 /0806 10200 20070 30082 40112 53005 60006 81101 91500=
07690,1998-10-26 18:00:00,15,1013.1,1.8,67,9,40000,14.816,,,310,13.5,21.4,,,,,,,,,wg-a,,,,AAXX 26184 07690 12682 /3108 10150 20090 30100 40131 51018 60006 81402 91800 333 10214 20135=
07690,1998-10-27 00:00:00,13,1014.6,1.5,51,3,15000,3.704,,,260,,,,,,,,,,,wg-a,,,,AAXX 27004 07690 12/65 02602 10130 20030 30115 40146 53015 60006 80000 90000=
07690,1998-10-27 03:00:00,14,1016,1.4,38,0,15000,11.112,,,350,,,,,,,,,,,wg-a,,,,AAXX 27034 07690 12/65 03506 10140 20000 30129 40160 53014 60006 80000 90300=
07690,1998-10-27 06:00:00,13,1018.9,2.9,44,1,40000,11.112,,,350,12.3,15.8,,,,,,,,,wg-a,,,,AAXX 27064 07690 02/82 13506 10130 20010 30158 40189 51029 60006 80001 90600 333 10158 20123 60004=
07690,1998-10-27 09:00:00,17,1020.8,1.9,34,1,50000,18.52,,,320,,,,,,,,,,,wg-a,,,,AAXX 27094 07690 12/84 03210 10170 20010 30177 40208 51019 60006 80000 90900=
07690,1998-10-27 12:00:00,21,1021.2,0.4,40,7,35000,11.112,,,120,,,,,,,,,,,wg-a,,,,AAXX 27124 07690 12/81 01206 10210 20070 30181 40212 50004 60006 80000 91200=
07690,1998-10-27 15:00:00,19,1021.4,0.2,43,6,40000,3.704,,,140,,,,,,,,,,,wg-a,,,,AAXX 27154 07690 12/82 71402 10190 20060 30183 40214 53002 60006 81032 91500=
07690,1998-10-27 18:00:00,15,1021.8,0.4,67,9,20000,11.112,,,340,12.9,20.7,,,,,,,,,wg-a,,,,AAXX 27184 07690 12/70 43406 10150 20090 30187 40218 51004 60006 82032 91800 333 10207 20129=
07690,1998-10-27 21:00:00,14,1022.4,0.6,67,8,20000,7.408,,,340,,,,,,,,,,,wg-a,,,,AAXX 27214 07690 12/70 73404 10140 20080 30193 40224 51006 60006 84032 92100=
07690,1998-10-28 00:00:00,13,1022.7,0.2,62,6,20000,11.112,,,330,,,,,,,,,,,wg-a,,,,AAXX 28004 07690 12/70 73306 10130 20060 30195 40227 51002 60006 86032 90000=
07690,1998-10-28 03:00:00,11,1021.3,-1.4,71,6,25000,11.112,,,330,,,,,,,,,,,wg-a,,,,AAXX 28034 07690 12/75 23306 10110 20060 30181 40213 58014 60006 81042 90300=
07690,1998-10-28 06:00:00,11,1019.2,-2.1,62,4,50000,11.112,,,330,10,15.1,,,,,,,,,wg-a,,,,AAXX 28064 07690 02/84 43306 10110 20040 30160 40192 58021 60006 81042 90600 333 10151 20100 60004=
07690,1998-10-28 09:00:00,17,1018.3,-0.8,48,6,50000,11.112,,,320,,,,,,,,,,,wg-a,,,,AAXX 28094 07690 12684 /3206 10170 20060 30152 40183 58008 60006 81142 90900=
07690,1998-10-28 12:00:00,22,1016.3,-1.9,46,10,50000,22.224,,,70,,,,,,,,,,,wg-a,,,,AAXX 28124 07690 12/84 /0712 10220 20100 30133 40163 58019 60006 81042 91200=
07690,1998-10-28 18:00:00,18,1017.9,1.3,83,15,20000,18.52,,,90,10.9,22.9,,,,,,,,,wg-a,,,,AAXX 28184 07690 12/70 20910 10180 20150 30148 40179 53013 60006 80002 91800 333 10229 20109=
07690,1998-10-28 21:00:00,13,1018.4,0.5,88,11,20000,18.52,,,330,,,,,,,,,,,wg-a,,,,AAXX 28214 07690 12/70 03310 10130 20110 30153 40184 51005 60006 80000 92100=
07690,1998-10-29 00:00:00,13,1017.5,-0.9,82,10,20000,18.52,,,340,,,,,,,,,,,wg-a,,,,AAXX 29004 07690 12/70 03410 10130 20100 30144 40175 58009 60006 80000 90000=
07690,1998-10-29 06:00:00,11,1015.4,-0.4,82,8,500,14.816,,,330,10.3,18.3,,,,,,,,,wg-a,,,,AAXX 29064 07690 02/00 13308 10110 20080 30122 40154 57004 60006 81032 90600 333 10183 20103 60004=
07690,1998-10-29 09:00:00,16,1015.1,-0.2,63,9,40000,11.112,,,320,,,,,,,,,,,wg-a,,,,AAXX 29094 07690 12/82 13206 10160 20090 30120 40151 58002 60006 81030 90900=
07690,1998-10-29 12:00:00,22,1011.5,-3.5,57,13,40000,50.004,,,220,,,,,,,,,,,wg-a,,,,AAXX 29124 07690 12/82 32227 10220 20130 30085 40115 58035 60006 80001 91200=
07690,1998-10-29 18:00:00,18,1011.6,-1,42,5,500,25.928,,,270,10.5,22,,,,,,,,,wg-a,,,,AAXX 29184 07690 12/00 /2714 10180 20050 30085 40116 56010 60006 85030 91800 333 10220 20105=
07690,1998-10-29 21:00:00,16,1015.9,4.3,45,4,20000,11.112,,,340,,,,,,,,,,,wg-a,,,,AAXX 29214 07690 12/70 53406 10160 20040 30128 40159 51043 60006 85030 92100=
07690,1998-10-30 00:00:00,14,1018,2.1,41,1,40000,25.928,,,330,,,,,,,,,,,wg-a,,,,AAXX 30004 07690 12/82 03314 10140 20010 30149 40180 51021 60006 80000 90000=
07690,1998-10-30 03:00:00,14,1018.2,0.2,38,0,20000,18.52,,,340,,,,,,,,,,,wg-a,,,,AAXX 30034 07690 12/70 03410 10140 20000 30151 40182 50002 60006 80000 90300=
07690,1998-10-30 06:00:00,12,1017.9,-0.4,44,0,40000,25.928,,,330,12.3,19.6,,,,,,,,,wg-a,,,,AAXX 30064 07690 02/82 13314 10120 20000 30147 40179 58004 60006 81031 90600 333 10196 20123 60004=
07690,1998-10-30 12:00:00,19,1015.6,-2.2,46,7,40000,14.816,,,210,,,,,,,,,,,wg-a,,,,AAXX 30124 07690 12/82 42108 10190 20070 30125 40156 58022 60006 80001 91200=
07690,1998-10-30 15:00:00,20,1014,-1.6,40,6,40000,7.408,,,110,,,,,,,,,,,wg-a,,,,AAXX 30154 07690 12/82 71104 10200 20060 30109 40140 56016 60006 84041 91500=
07690,1998-10-30 18:00:00,14,1014,-0,67,8,500,11.112,,,330,12.2,19.6,,,,,,,,,wg-a,,,,AAXX 30184 07690 12/00 73306 10140 20080 30109 40140 55000 60006 81042 91800 333 10196 20122=
07690,1998-10-30 21:00:00,11,1014.4,0.3,71,6,20000,18.52,,,330,,,,,,,,,,,wg-a,,,,AAXX 30214 07690 12/70 23310 10110 20060 30112 40144 52003 60006 80001 92100=
07690,1998-10-31 00:00:00,11,1014.4,-0,62,4,20000,18.52,,,330,,,,,,,,,,,wg-a,,,,AAXX 31004 07690 12/70 23310 10110 20040 30112 40144 54000 60006 80001 90000=
07690,1998-10-31 03:00:00,11,1013.9,-0.5,58,3,20000,18.52,,,320,,,,,,,,,,,wg-a,,,,AAXX 31034 07690 12/70 33210 10110 20030 30107 40139 56005 60006 80001 90300=
07690,1998-10-31 06:00:00,11,1014.5,0.6,58,3,40000,18.52,,,330,9.8,14,,,,,,,,,wg-a,,,,AAXX 31064 07690 02582 53310 10110 20030 30113 40145 53006 60006 81101 90600 333 10140 20098 60004=
07690,1998-10-31 09:00:00,14,1015.4,1,44,2,50000,7.408,,,330,,,,,,,,,,,wg-a,,,,AAXX 31094 07690 12/84 53304 10140 20020 30123 40154 50010 60006 81031 90900=
07690,1998-10-31 12:00:00,18,1014.5,-0.9,64,11,40000,7.408,,,150,,,,,,,,,,,wg-a,,,,AAXX 31124 07690 12482 51504 10180 20110 30114 40145 58009 60006 81131 91200=
07690,1998-10-31 15:00:00,18,1013,-1.5,59,10,40000,7.408,,,140,,,,,,,,,,,wg-a,,,,AAXX 31154 07690 12482 41404 10180 20100 30099 40130 56015 60006 81441 91500=
07690,1998-10-31 18:00:00,13,1012.5,-0.5,82,10,20000,11.112,,,320,10.5,18.8,,,,,,,,,wg-a,,,,AAXX 31184 07690 12470 /3206 10130 20100 30094 40125 55005 60006 81541 91800 333 10188 20105=
07690,1998-10-31 21:00:00,11,1012,-0.5,87,9,15000,14.816,,,340,,,,,,,,,,,wg-a,,,,AAXX 31214 07690 12/65 23408 10110 20090 30089 40120 58005 60006 80001 92100=
07690,1998-11-01 00:00:00,10,1010.2,-1.8,87,8,500,11.112,,,330,,,,,,,,,,,wg-a,,,,AAXX 01004 07690 12/00 13306 10100 20080 30071 40102 58018 60006 81042 90000=
07690,1998-11-01 03:00:00,11,1007.6,-2.6,76,7,25000,11.112,,,320,,,,,,,,,,,wg-a,,,,AAXX 01034 07690 12/75 /3206 10110 20070 30045 40076 58026 60006 83042 90300=
07690,1998-11-01 06:00:00,10,1005,-2.6,76,6,40000,11.112,,,320,9.7,13,,,,,,,,,wg-a,,,,AAXX 01064 07690 02582 73206 10100 20060 30019 40050 56026 60006 81572 90600 333 10130 20097 60004=
07690,1998-11-01 09:00:00,18,1004.4,-0.5,64,11,50000,31.484,,,250,,,,,,,,,,,wg-a,,,,AAXX 01094 07690 12584 /2517 10180 20110 30014 40044 58005 60006 81832 90900=
07690,1998-11-01 12:00:00,22,1002.4,-2,46,10,50000,38.892,,61.116,260,,,,,,,,,,,wg-a,,,,AAXX 01124 07690 12584 /2621 10220 20100 39994 40024 58020 60006 81232 91200 333 91033=
07690,1998-11-01 15:00:00,20,1001.3,-1.1,60,12,40000,46.3,,,240,,,,,,,,,,,wg-a,,,,AAXX 01154 07690 12482 /2425 10200 20120 39983 40013 56011 60006 81200 91500=
07690,1998-11-02 00:00:00,12,1004.6,0.7,88,10,20000,14.816,,,330,,,,,,,,,,,wg-a,,,,AAXX 02004 07690 12/70 13308 10120 20100 30015 40046 51007 60006 80001 90000=
07690,1998-11-02 03:00:00,11,1005.2,0.6,82,8,20000,18.52,,,330,,,,,,,,,,,wg-a,,,,AAXX 02034 07690 12/70 23310 10110 20080 30021 40052 53006 60006 82070 90300=
07690,1998-11-02 06:00:00,11,1006.5,1.3,71,6,11000,25.928,,,330,10.6,19.1,,,,,,,,,wg-a,,,,AAXX 02064 07690 02/61 /3314 10110 20060 30034 40065 53013 60006 90600 333 10191 20106 60004=
07690,1998-11-02 09:00:00,15,1008.1,1.6,55,6,25000,18.52,,,330,,,,,,,,,,,wg-a,,,,AAXX 02094 07690 12475 23310 10150 20060 30050 40081 51016 60006 82800 90900=
07690,1998-11-02 12:00:00,20,1008,0,68,14,20000,11.112,,,180,,,,,,,,,,,wg-a,,,,AAXX 02124 07690 12570 51806 10200 20140 30050 40080 50000 60006 82502 91200=
07690,1998-11-02 15:00:00,18,1006.5,-1.5,73,13,20000,3.704,,,150,,,,,,,,,,,wg-a,,,,AAXX 02154 07690 12570 71502 10180 20130 30035 40065 56015 60006 83502 91500=
07690,1998-11-02 18:00:00,15,1006.7,0.1,88,13,15000,11.112,,,340,10.8,20.1,,,,,,,,,wg-a,,,,AAXX 02184 07690 12565 /3406 10150 20130 30036 40067 53001 60006 81532 91800 333 10201 20108=
07690,1998-11-02 21:00:00,12,1007.3,0.6,88,10,15000,7.408,,,270,,,,,,,,,,,wg-a,,,,AAXX 02214 07690 12/65 02704 10120 20100 30042 40073 52006 60006 80000 92100=
07690,1998-11-03 00:00:00,11,1007.3,0,87,9,15000,18.52,,,320,,,,0,,,,,,,wg-a,,,,AAXX 03004 07690 02/65 53210 10110 20090 30042 40073 50000 60006 81042 90000 333 60007=
07690,1998-11-03 03:00:00,12,1006.4,-0.9,82,9,15000,14.816,,,340,,,,,,,,,,,wg-a,,,,AAXX 03034 07690 12465 63408 10120 20090 30033 40064 58009 60006 83532 90300=
07690,1998-11-03 06:00:00,14,1006.7,0.3,72,9,15000,11.112,,,330,10.9,15.1,,,,,,,,60,wg-a,,,,AAXX 03064 07690 02465 73306 10140 20090 30036 40067 53003 61000 76062 8153/ 90600 333 10151 20109 6000=
07690,1998-11-03 09:00:00,12,1006.8,0.1,94,11,4000,11.112,,,350,,,,4,,,,,,61,wg-a,,,,AAXX 03094 07690 12440 83506 10120 20110 30037 40068 50001 60047 76162 878// 90900=
07690,1998-11-03 12:00:00,13,1005.3,-1.5,94,12,4000,18.52,,,330,,,,3,,,,,,60,wg-a,,,,AAXX 03124 07690 02440 83310 10130 20120 30022 40053 58015 60076 76062 878// 91200 333 60037=
07690,1998-11-03 15:00:00,15,1004.3,-1,94,14,4000,7.408,,,240,,,,0,,,,,,10,wg-a,,,,AAXX 03154 07690 12440 82404 10150 20140 30012 40043 56010 60007 71062 8482/ 91500=
07690,1998-11-03 18:00:00,14,1004.5,0.2,88,12,10000,18.52,,,320,12.1,15.7,,,,,,,,1,wg-a,,,,AAXX 03184 07690 12460 83210 10140 20120 30014 40045 53002 60006 70162 8117/ 91800 333 10157 20121=
07690,1998-11-03 21:00:00,14,1004.9,0.4,88,12,12000,11.112,,,310,,,,,,,,,,,wg-a,,,,AAXX 03214 07690 12462 73106 10140 20120 30018 40049 51004 60006 8387/ 92100=
07690,1998-11-04 00:00:00,14,1004.6,-0.3,88,12,15000,14.816,,,320,,,,,,,,,,,wg-a,,,,AAXX 04004 07690 12465 73208 10140 20120 30015 40046 58003 60006 8487/ 90000=
07690,1998-11-04 03:00:00,13,1003.1,-1.5,94,12,12000,14.816,,,340,,,,2,,,,,,61,wg-a,,,,AAXX 04034 07690 12262 83408 10130 20120 30000 40031 58015 60027 76162 8557/ 90300=
07690,1998-11-04 06:00:00,13,1001.8,-1.3,94,12,10000,18.52,,,320,12.8,14.1,,,,,,,,21,wg-a,,,,AAXX 04064 07690 02260 83210 10130 20120 39987 40018 58013 61000 72162 8687/ 90600 333 10141 20128 6018=
07690,1998-11-04 12:00:00,19,1001.4,-0.5,83,16,20000,14.816,,,230,,,,,,,,,,1,wg-a,,,,AAXX 04124 07690 12470 /2308 10190 20160 39984 40014 58005 60036 70186 83830 91200=
07690,1998-11-04 15:00:00,17,1001.9,0.5,82,14,500,29.632,,,250,,,,,,,,,,,wg-a,,,,AAXX 04154 07690 12500 72516 10170 20140 39989 40019 53005 60006 8683/ 91500=
07690,1998-11-04 18:00:00,15,1004.1,2.1,88,13,15000,14.816,,,250,13.1,19.5,,,,,,,,,wg-a,,,,AAXX 04184 07690 12565 72508 10150 20130 30010 40041 53021 60006 8683/ 91800 333 10195 20131=
07690,1998-11-04 21:00:00,15,1005.4,1.3,77,11,25000,22.224,,,250,,,,,,,,,,,wg-a,,,,AAXX 04214 07690 12775 72512 10150 20110 30023 40054 53013 60006 8357/ 92100=
07690,1998-11-05 00:00:00,13,1006.5,1.1,82,10,25000,14.816,,,230,,,,,,,,,,,wg-a,,,,AAXX 05004 07690 12575 82308 10130 20100 30034 40065 53011 60006 8383/ 90000=
07690,1998-11-05 03:00:00,13,1007.2,0.7,72,8,25000,14.816,,,300,,,,,,,,,,,wg-a,,,,AAXX 05034 07690 12775 73008 10130 20080 30041 40072 51007 60006 82532 90300=
07690,1998-11-05 06:00:00,12,1008.7,1.5,67,6,40000,0,,,0,11.2,15.6,,,,,3,,,,wg-a,,,,AAXX 05064 07690 02/82 70000 10120 20060 30056 40087 53015 60006 8707/ 90600 333 10156 20112 60034=
07690,1998-11-05 09:00:00,15,1012.2,3.5,55,6,50000,14.816,,,20,,,,,,,,,,,wg-a,,,,AAXX 05094 07690 12/84 60208 10150 20060 30091 40122 51035 60006 8607/ 90900=
07690,1998-11-05 12:00:00,19,1013.8,1.6,49,8,500,14.816,,,100,,,,,,,,,,,wg-a,,,,AAXX 05124 07690 12/00 31008 10190 20080 30107 40138 51016 60006 80001 91200=
07690,1998-11-05 15:00:00,17,1015.1,1.3,63,10,500,14.816,,,100,,,,,,,,,,,wg-a,,,,AAXX 05154 07690 12/00 21008 10170 20100 30120 40151 53013 60006 80001 91500=
07690,1998-11-05 18:00:00,14,1017.2,2.1,82,11,500,3.704,,,20,11.5,19.6,,,,,,,,,wg-a,,,,AAXX 05184 07690 12/00 30202 10140 20110 30141 40172 53021 60006 80001 91800 333 10196 20115=
07690,1998-11-05 21:00:00,12,1019.3,2,82,9,20000,14.816,,,330,,,,,,,,,,,wg-a,,,,AAXX 05214 07690 12570 53308 10120 20090 30161 40193 53020 60006 81502 92100=
07690,1998-11-06 00:00:00,11,1020,0.7,71,6,20000,18.52,,,330,,,,,,,,,,,wg-a,,,,AAXX 06004 07690 12570 43310 10110 20060 30168 40200 51007 60006 82502 90000=
07690,1998-11-06 03:00:00,10,1020.9,0.9,71,5,20000,25.928,,,330,,,,,,,,,,,wg-a,,,,AAXX 06034 07690 12570 43314 10100 20050 30177 40209 51009 60006 83502 90300=
07690,1998-11-06 06:00:00,9,1021.6,0.7,71,4,20000,25.928,,,330,9.4,13.7,,,,,,,,,wg-a,,,,AAXX 06064 07690 02570 23314 10090 20040 30184 40216 51007 60006 81501 90600 333 10137 20094 60004=
07690,1998-11-06 09:00:00,13,1022.6,1,51,3,35000,22.224,,,330,,,,,,,,,,,wg-a,,,,AAXX 06094 07690 12481 /3312 10130 20030 30194 40226 51010 60006 81100 90900=
07690,1998-11-06 12:00:00,19,1021.3,-1.2,46,7,40000,11.112,,,210,,,,,,,,,,,wg-a,,,,AAXX 06124 07690 12/82 02106 10190 20070 30182 40213 58012 60006 80000 91200=
07690,1998-11-06 15:00:00,17,1021.1,-0.2,52,7,40000,18.52,,,230,,,,,,,,,,,wg-a,,,,AAXX 06154 07690 12/82 02310 10170 20070 30180 40211 55002 60006 80000 91500=
07690,1998-11-06 18:00:00,11,1021.8,0.6,71,6,20000,11.112,,,330,9.3,19.5,,,,,,,,,wg-a,,,,AAXX 06184 07690 12/70 03306 10110 20060 30186 40218 53006 60006 80000 91800 333 10195 20093=
07690,1998-11-06 21:00:00,11,1022.8,1,66,5,20000,14.816,,,340,,,,,,,,,,,wg-a,,,,AAXX 06214 07690 12/70 03408 10110 20050 30196 40228 52010 60006 80000 92100=
07690,1998-11-07 00:00:00,11,1023.1,0.3,58,3,20000,14.816,,,350,,,,,,,,,,,wg-a,,,,AAXX 07004 07690 12/70 03508 10110 20030 30199 40231 51003 60006 80000 90000=
07690,1998-11-07 03:00:00,10,1023,-0.1,62,3,20000,22.224,,,340,,,,,,,,,,,wg-a,,,,AAXX 07034 07690 12/70 03412 10100 20030 30198 40230 57001 60006 80000 90300=
07690,1998-11-07 06:00:00,8,1024.1,1.1,66,2,500,22.224,,,330,8.4,11.4,,,,,,,,,wg-a,,,,AAXX 07064 07690 02400 13312 10080 20020 30209 40241 51011 60006 81500 90600 333 10114 20084 60004=
07690,1998-11-07 09:00:00,12,1026,1.9,50,2,50000,25.928,,,330,,,,,,,,,,,wg-a,,,,AAXX 07094 07690 12584 /3314 10120 20020 30228 40260 51019 60006 81500 90900=
07690,1998-11-07 12:00:00,19,1026.1,0.2,56,10,500,3.704,,,140,,,,,,,,,,,wg-a,,,,AAXX 07124 07690 12500 31402 10190 20100 30230 40261 50002 60006 83200 91200=
07690,1998-11-07 15:00:00,16,1026.6,0.5,59,8,9000,11.112,,,140,,,,,,,,,,,wg-a,,,,AAXX 07154 07690 12559 /1406 10160 20080 30235 40266 53005 60006 81100 91500=
07690,1998-11-07 18:00:00,11,1027.8,1.1,87,9,9000,11.112,,,320,8.4,18.7,,,,,,,,,wg-a,,,,AAXX 07184 07690 12/59 03206 10110 20090 30246 40278 53011 60006 80000 91800 333 10187 20084=
07690,1998-11-07 21:00:00,10,1029,1.2,87,8,9000,18.52,,,340,,,,,,,,,,,wg-a,,,,AAXX 07214 07690 12/59 03410 10100 20080 30258 40290 53012 60006 80000 92100=
07690,1998-11-08 00:00:00,10,1029.5,0.5,76,6,15000,25.928,,,330,,,,,,,,,,,wg-a,,,,AAXX 08004 07690 12/65 03314 10100 20060 30263 40295 50005 60006 80000 90000=
07690,1998-11-08 03:00:00,9,1029.3,-0.2,76,5,15000,25.928,,,330,,,,,,,,,,,wg-a,,,,AAXX 08034 07690 12/65 03314 10090 20050 30261 40293 56002 60006 80000 90300=
07690,1998-11-08 06:00:00,8,1029.5,0.2,76,4,500,25.928,,,330,8.2,11.2,,,,,,,,,wg-a,,,,AAXX 08064 07690 02/00 03314 10080 20040 30263 40295 52002 60006 80000 90600 333 10112 20082 60004=
07690,1998-11-08 09:00:00,11,1030.1,0.6,62,4,35000,22.224,,,330,,,,,,,,,,,wg-a,,,,AAXX 08094 07690 12/81 03312 10110 20040 30269 40301 51006 60006 80000 90900=
07690,1998-11-08 12:00:00,17,1028.9,-1.1,59,9,25000,18.52,,,190,,,,,,,,,,,wg-a,,,,AAXX 08124 07690 12/75 11910 10170 20090 30258 40289 58011 60006 80001 91200=
07690,1998-11-08 15:00:00,16,1027.3,-1.6,72,11,25000,18.52,,,210,,,,,,,,,,,wg-a,,,,AAXX 08154 07690 12575 /2110 10160 20110 30242 40273 56016 60006 81101 91500=
07690,1998-11-08 18:00:00,12,1027.2,-0.2,82,9,15000,14.816,,,330,8.1,16.7,,,,,,,,,wg-a,,,,AAXX 08184 07690 12/65 23308 10120 20090 30240 40272 55002 60006 80001 91800 333 10167 20081=
07690,1998-11-08 21:00:00,11,1026.6,-0.6,76,7,15000,18.52,,,340,,,,,,,,,,,wg-a,,,,AAXX 08214 07690 12/65 03410 10110 20070 30234 40266 55006 60006 80000 92100=
07690,1998-11-09 00:00:00,9,1026.1,-0.5,81,6,15000,18.52,,,330,,,,,,,,,,,wg-a,,,,AAXX 09004 07690 12/65 13310 10090 20060 30229 40261 58005 60006 80002 90000=
07690,1998-11-09 03:00:00,8,1024.8,-1.3,76,4,15000,25.928,,,330,,,,,,,,,,,wg-a,,,,AAXX 09034 07690 12/65 03314 10080 20040 30216 40248 57013 60006 80000 90300=
07690,1998-11-09 06:00:00,7,1024.4,-0.4,70,2,15000,18.52,,,330,7.1,12.2,,,,,,,,,wg-a,,,,AAXX 09064 07690 02465 53310 10070 20020 30212 40244 56004 60006 85500 90600 333 10122 20071 60004=
07690,1998-11-09 09:00:00,10,1024.7,0.3,57,2,15000,22.224,,,330,,,,,,,,,,,wg-a,,,,AAXX 09094 07690 12565 /3312 10100 20020 30215 40247 53003 60006 81100 90900=
07690,1998-11-09 12:00:00,17,1023.6,-1,63,10,12000,7.408,,,200,,,,,,,,,,,wg-a,,,,AAXX 09124 07690 12562 22004 10170 20100 30205 40236 58010 60006 82400 91200=
07690,1998-11-09 15:00:00,16,1022.5,-1.1,68,10,12000,7.408,,,70,,,,,,,,,,,wg-a,,,,AAXX 09154 07690 12562 /0704 10160 20100 30194 40225 56011 60006 81500 91500=
07690,1998-11-09 18:00:00,11,1022.6,-0,82,8,12000,11.112,,,330,6.9,17.8,,,,,,,,,wg-a,,,,AAXX 09184 07690 12562 /3306 10110 20080 30194 40226 55000 60006 81500 91800 333 10178 20069=
07690,1998-11-09 21:00:00,10,1022.8,0.2,82,7,15000,22.224,,,330,,,,,,,,,,,wg-a,,,,AAXX 09214 07690 12565 23312 10100 20070 30196 40228 51002 60006 82500 92100=
07690,1998-11-10 00:00:00,10,1021.7,-1.1,76,6,15000,22.224,,,330,,,,,,,,,,,wg-a,,,,AAXX 10004 07690 12565 33312 10100 20060 30185 40217 56011 60006 81530 90000=
07690,1998-11-10 03:00:00,9,1019.9,-1.8,81,6,15000,18.52,,,340,,,,,,,,,,,wg-a,,,,AAXX 10034 07690 12665 33410 10090 20060 30167 40199 58018 60006 81530 90300=
07690,1998-11-10 06:00:00,9,1019.5,-0.4,76,5,15000,25.928,,,330,9,11.3,,,,,,,,,wg-a,,,,AAXX 10064 07690 02565 33314 10090 20050 30163 40195 58004 60006 81532 90600 333 10113 20090 60004=
07690,1998-11-10 09:00:00,11,1018.7,-0.8,71,6,9000,18.52,,,330,,,,,,,,,,,wg-a,,,,AAXX 10094 07690 12559 /3310 10110 20060 30155 40187 58008 60006 83130 90900=
07690,1998-11-10 12:00:00,15,1015.7,-2.9,77,11,10000,11.112,,,200,,,,,,,,,,,wg-a,,,,AAXX 10124 07690 12560 /2006 10150 20110 30126 40157 58029 60006 81131 91200=
07690,1998-11-10 15:00:00,14,1012.6,-3.1,82,11,6000,7.408,,,360,,,,,,,,,,21,wg-a,,,,AAXX 10154 07690 02556 73604 10140 20110 30095 40126 55031 61000 72162 81171 91500 333 ////=
07690,1998-11-10 18:00:00,12,1011.9,-0.7,88,10,6000,14.816,,,330,9,15.6,,,,,,,,3,wg-a,,,,AAXX 10184 07690 12556 63308 10120 20100 30088 40119 55007 60006 70362 81501 91800 333 10156 20090=
07690,1998-11-10 21:00:00,10,1012,0,93,9,8000,18.52,,,320,,,,,,,,,,,wg-a,,,,AAXX 10214 07690 12/58 /3210 10100 20090 30088 40120 50000 60006 80000 92100=
07690,1998-11-11 00:00:00,10,1011.4,-0.5,87,8,10000,22.224,,,330,,,,,,,,,,,wg-a,,,,AAXX 11004 07690 12560 /3312 10100 20080 30083 40114 58005 60006 81500 90000=
07690,1998-11-11 03:00:00,10,1010.3,-1.1,87,8,13000,22.224,,,330,,,,,,,,,,,wg-a,,,,AAXX 11034 07690 12563 /3312 10100 20080 30072 40103 57011 60006 81500 90300=
07690,1998-11-11 06:00:00,10,1010.5,0.2,76,6,15000,14.816,,,330,9.9,12,,,,,,,,,wg-a,,,,AAXX 11064 07690 02565 /3308 10100 20060 30074 40105 53002 60006 81530 90600 333 10120 20099 61000=
07690,1998-11-11 09:00:00,13,1012.4,1.9,62,6,20000,14.816,,,330,,,,,,,,,,,wg-a,,,,AAXX 11094 07690 12570 /3308 10130 20060 30093 40124 51019 60006 81530 90900=
07690,1998-11-11 12:00:00,18,1012.5,0.1,64,11,18000,11.112,,,250,,,,,,,,,,,wg-a,,,,AAXX 11124 07690 12468 /2506 10180 20110 30094 40125 50001 60006 81130 91200=
07690,1998-11-11 15:00:00,18,1012.7,0.2,45,6,40000,14.816,,,190,,,,,,,,,,,wg-a,,,,AAXX 11154 07690 12582 /1908 10180 20060 30096 40127 53002 60006 81230 91500=
07690,1998-11-11 18:00:00,12,1014.2,1.5,71,7,40000,14.816,,,320,9.4,19.9,,,,,,,,,wg-a,,,,AAXX 11184 07690 12/82 03208 10120 20070 30111 40142 53015 60006 80000 91800 333 10199 20094=
07690,1998-11-11 21:00:00,11,1015.3,1,71,6,20000,18.52,,,330,,,,,,,,,,,wg-a,,,,AAXX 11214 07690 12/70 03310 10110 20060 30121 40153 53010 60006 80000 92100=
07690,1998-11-12 00:00:00,10,1014.9,-0.4,76,6,20000,22.224,,,330,,,,,,,,,,,wg-a,,,,AAXX 12004 07690 12/70 03312 10100 20060 30117 40149 58004 60006 80000 90000=
07690,1998-11-12 03:00:00,10,1013.7,-1.2,71,5,20000,22.224,,,330,,,,,,,,,,,wg-a,,,,AAXX 12034 07690 12/70 03312 10100 20050 30105 40137 58012 60006 80000 90300=
07690,1998-11-12 06:00:00,10,1012.9,-0.8,71,5,20000,22.224,,,330,9.5,11.7,,,,,,,,,wg-a,,,,AAXX 12064 07690 02570 63312 10100 20050 30097 40129 56008 60006 81531 90600 333 10117 20095 60004=
07690,1998-11-12 12:00:00,17,1011.8,-1.5,42,4,20000,11.112,,,100,,,,,,,,,,,wg-a,,,,AAXX 12124 07690 12670 71006 10170 20040 30087 40118 58015 60006 81232 91200=
07690,1998-11-12 15:00:00,15,1010.7,-1.1,51,5,25000,11.112,,,110,,,,,,,,,,,wg-a,,,,AAXX 12154 07690 12575 71106 10150 20050 30076 40107 56011 60006 82872 91500=
07690,1998-11-12 18:00:00,12,1010.5,-0.2,71,7,10000,0,,,0,9.4,17,,,,,,,,,wg-a,,,,AAXX 12184 07690 12560 60000 10120 20070 30074 40105 58002 60006 8483/ 91800 333 10170 20094=
07690,1998-11-13 06:00:00,8,1012.2,1.4,71,3,20000,25.928,,,330,7.2,11.5,,,,,,,,,wg-a,,,,AAXX 13064 07690 02470 /3314 10080 20030 30090 40122 53014 60006 85500 90600 333 10115 20072 60004=
07690,1998-11-13 09:00:00,10,1012.7,0.5,57,2,20000,22.224,,,330,,,,,,,,,,,wg-a,,,,AAXX 13094 07690 12570 23312 10100 20020 30095 40127 50005 60006 81401 90900=
07690,1998-11-13 12:00:00,15,1011.2,-1.4,59,7,15000,14.816,,,180,,,,,,,,,,,wg-a,,,,AAXX 13124 07690 12565 /1808 10150 20070 30081 40112 58014 60006 82801 91200=
07690,1998-11-13 15:00:00,8,1012.2,1.4,71,3,20000,25.928,,,330,7.2,11.5,,,,,,,,,wg-a,,,,AAXX 13154 07690 02470 /3314 10080 20030 30090 40122 53014 60006 85500 91500 333 10115 20072 60004=
07690,1998-11-13 18:00:00,11,1009.6,0,76,7,15000,11.112,,,330,7.5,15.8,,,,,,,,,wg-a,,,,AAXX 13184 07690 12665 /3306 10110 20070 30065 40096 50000 60006 8311/ 91800 333 10158 20075=
07690,1998-11-13 21:00:00,10,1009.4,-0.3,76,6,12000,11.112,,,340,,,,,,,,,,,wg-a,,,,AAXX 13214 07690 12662 33406 10100 20060 30062 40094 58003 60006 82510 92100=
07690,1998-11-14 00:00:00,10,1009.2,-0.1,76,6,12000,18.52,,,330,,,,,,,,,,,wg-a,,,,AAXX 14004 07690 12662 83310 10100 20060 30061 40092 58001 60006 8657/ 90000=
07690,1998-11-14 03:00:00,10,1008.2,-1,76,6,12000,11.112,,,340,,,,,,,,,,60,wg-a,,,,AAXX 14034 07690 02662 83406 10100 20060 30051 40082 58010 61000 76062 8657/ 90300 333 ////=
07690,1998-11-14 06:00:00,9,1007.9,-0.4,87,7,13000,7.408,,,340,8.9,11.1,,,,,,,,60,wg-a,,,,AAXX 14064 07690 02563 83404 10090 20070 30047 40079 55004 61000 76062 8687/ 90600 333 10111 20089 6000=
07690,1998-11-14 09:00:00,10,1007.5,-0.3,87,8,18000,3.704,,,250,,,,,,,,,,21,wg-a,,,,AAXX 14094 07690 02468 82502 10100 20080 30044 40075 58003 61000 72162 8657/ 90900 333 ////=
07690,1998-11-14 12:00:00,12,1005.5,-2,76,8,12000,7.408,,,40,,,,,,,,,,1,wg-a,,,,AAXX 14124 07690 02462 80404 10120 20080 30024 40055 58020 61000 70162 8687/ 91200 333 ////=
07690,1998-11-14 15:00:00,13,1004.3,-1.2,77,9,20000,7.408,,,90,,,,,,,,,,,wg-a,,,,AAXX 14154 07690 12570 60904 10130 20090 30012 40043 56012 60006 82532 91500=
07690,1998-11-14 18:00:00,10,1003.8,-0.5,87,8,10000,7.408,,,330,8.9,12.5,,,,,,,,,wg-a,,,,AAXX 14184 07690 12460 53304 10100 20080 30007 40038 55005 60006 83840 91800 333 10125 20089=
07690,1998-11-14 21:00:00,9,1004.1,0.3,81,6,15000,7.408,,,350,,,,,,,,,,,wg-a,,,,AAXX 14214 07690 12565 23504 10090 20060 30010 40041 50003 60006 81540 92100=
07690,1998-11-15 00:00:00,8,1006.4,2.2,66,2,15000,3.704,,,340,,,,,,,,,,,wg-a,,,,AAXX 15004 07690 12/65 03402 10080 20020 30032 40064 53022 60006 80000 90000=
07690,1998-11-15 03:00:00,9,1006.8,0.4,53,0,20000,7.408,,,260,,,,,,,,,,,wg-a,,,,AAXX 15034 07690 12/70 02604 10090 20000 30036 40068 50004 60006 80000 90300=
07690,1998-11-15 06:00:00,10,1007.5,0.8,46,-1,500,7.408,,,350,6.7,11.2,,,,,,,,,wg-a,,,,AAXX 15064 07690 02/00 03504 10100 21010 30044 40075 52008 60006 80000 90600 333 10112 20067 61000=
07690,1998-11-15 09:00:00,14,1008.7,1.2,41,1,40000,7.408,,,270,,,,,,,,,,,wg-a,,,,AAXX 15094 07690 12/82 02704 10140 20010 30056 40087 53012 60006 80000 90900=
07690,1998-11-15 12:00:00,16,1008.6,-0.1,51,6,50000,22.224,,,100,,,,,,,,,,,wg-a,,,,AAXX 15124 07690 12584 11012 10160 20060 30055 40086 57001 60006 81100 91200=
07690,1998-11-15 15:00:00,17,1009.8,1.2,48,6,50000,11.112,,,100,,,,,,,,,,,wg-a,,,,AAXX 15154 07690 12684 /1006 10170 20060 30067 40098 53012 60006 81100 91500=
07690,1998-11-15 21:00:00,9,1014.1,1.5,53,0,10000,18.52,,,330,,,,,,,,,,,wg-a,,,,AAXX 15214 07690 12/60 03310 10090 20000 30109 40141 51015 60006 80000 92100=
07690,1998-11-16 00:00:00,9,1014.8,0.7,46,-2,15000,18.52,,,330,,,,,,,,,,,wg-a,,,,AAXX 16004 07690 12/65 03310 10090 21020 30116 40148 51007 60006 80000 90000=
07690,1998-11-16 03:00:00,9,1014.8,-0,40,-4,15000,11.112,,,350,,,,,,,,,,,wg-a,,,,AAXX 16034 07690 12/65 03506 10090 21040 30116 40148 55000 60006 80000 90300=
07690,1998-11-16 06:00:00,8,1015,0.2,42,-4,500,14.816,,,340,7.5,10.2,,,,,,,,,wg-a,,,,AAXX 16064 07690 02/00 03408 10080 21040 30118 40150 50002 60006 80000 90600 333 10102 20075 60004=
07690,1998-11-16 09:00:00,11,1015.5,0.5,37,-3,50000,18.52,,,340,,,,,,,,,,,wg-a,,,,AAXX 16094 07690 12484 13410 10110 21030 30123 40155 50005 60006 81200 90900=
07690,1998-11-16 12:00:00,16,1014.5,-0.9,45,4,40000,3.704,,,90,,,,,,,,,,,wg-a,,,,AAXX 16124 07690 12482 /0902 10160 20040 30114 40145 58009 60006 81200 91200=
07690,1998-11-16 15:00:00,16,1014,-0.5,39,2,40000,7.408,,,160,,,,,,,,,,,wg-a,,,,AAXX 16154 07690 12482 /1604 10160 20020 30109 40140 55005 60006 81200 91500=
07690,1998-11-16 18:00:00,10,1015.5,1.4,66,4,20000,14.816,,,330,7.4,16.9,,,,,,,,,wg-a,,,,AAXX 16184 07690 12470 /3308 10100 20040 30123 40155 53014 60006 81400 91800 333 10169 20074=
07690,1998-11-17 00:00:00,8,1018.6,1.4,46,-3,20000,14.816,,,340,,,,,,,,,,,wg-a,,,,AAXX 17004 07690 12470 /3408 10080 21030 30154 40186 51014 60006 81100 90000=
07690,1998-11-17 03:00:00,7,1019.4,0.8,45,-4,20000,29.632,,,330,,,,,,,,,,,wg-a,,,,AAXX 17034 07690 12/70 /3316 10070 21040 30162 40194 51008 60006 80000 90300=
07690,1998-11-17 06:00:00,6,1020,0.6,49,-4,60000,25.928,,,330,6.1,9.5,,,,,,,,,wg-a,,,,AAXX 17064 07690 02/86 13314 10060 21040 30168 40200 51006 60006 80001 90600 333 10095 20061 60004=
07690,1998-11-17 09:00:00,9,1020.8,0.8,34,-6,40000,18.52,,,330,,,,,,,,,,,wg-a,,,,AAXX 17094 07690 12/82 13310 10090 21060 30176 40208 51008 60006 80002 90900=
07690,1998-11-17 12:00:00,15,1019.6,-1.1,39,1,40000,11.112,,,210,,,,,,,,,,,wg-a,,,,AAXX 17124 07690 12/82 12106 10150 20010 30165 40196 58011 60006 80002 91200=
07690,1998-11-17 15:00:00,14,1018.3,-1.3,55,5,40000,25.928,,,220,,,,,,,,,,,wg-a,,,,AAXX 17154 07690 12682 /2214 10140 20050 30152 40183 56013 60006 81202 91500=
07690,1998-11-17 18:00:00,9,1019,0.6,71,4,20000,3.704,,,240,6,15.6,,,,,,,,,wg-a,,,,AAXX 17184 07690 12670 /2402 10090 20040 30158 40190 53006 60006 81100 91800 333 10156 20060=
07690,1998-11-17 21:00:00,7,1019.2,0.2,66,1,20000,14.816,,,340,,,,,,,,,,,wg-a,,,,AAXX 17214 07690 12/70 03408 10070 20010 30160 40192 51002 60006 80000 92100=
07690,1998-11-18 00:00:00,7,1019.3,0.1,57,-1,20000,22.224,,,330,,,,,,,,,,,wg-a,,,,AAXX 18004 07690 12/70 03312 10070 21010 30161 40193 50001 60006 80000 90000=
07690,1998-11-18 03:00:00,6,1018.8,-0.5,56,-2,20000,25.928,,,330,,,,,,,,,,,wg-a,,,,AAXX 18034 07690 12/70 03314 10060 21020 30156 40188 57005 60006 80000 90300=
07690,1998-11-18 06:00:00,6,1018.6,-0.2,56,-2,20000,25.928,,,330,5.7,9,,,,,,,,,wg-a,,,,AAXX 18064 07690 02570 33314 10060 21020 30154 40186 55002 60006 81571 90600 333 10090 20057 60004=
07690,1998-11-18 09:00:00,7,1019.4,0.8,53,-2,40000,22.224,,,330,,,,,,,,,,,wg-a,,,,AAXX 18094 07690 12582 /3312 10070 21020 30162 40194 52008 60006 82812 90900=
07690,1998-11-18 12:00:00,13,1018.3,-1,38,-1,35000,25.928,,,90,,,,,,,,,,,wg-a,,,,AAXX 18124 07690 12581 /0914 10130 21010 30152 40183 58010 60006 81152 91200=
07690,1998-11-18 15:00:00,13,1017.7,-0.6,41,0,50000,29.632,,,90,,,,,,,,,,,wg-a,,,,AAXX 18154 07690 12584 /0916 10130 20000 30146 40177 56006 60006 81132 91500=
07690,1998-11-18 18:00:00,8,1018.4,0.6,61,1,25000,11.112,,,360,5.6,13.3,,,,,,,,,wg-a,,,,AAXX 18184 07690 12575 /3606 10080 20010 30152 40184 53006 60006 81531 91800 333 10133 20056=
07690,1998-11-18 21:00:00,6,1019,0.6,65,0,20000,18.52,,,340,,,,,,,,,,,wg-a,,,,AAXX 18214 07690 12/70 33410 10060 20000 30158 40190 53006 60006 80002 92100=
07690,1998-11-19 00:00:00,6,1018.8,-0.2,61,-1,20000,22.224,,,340,,,,,,,,,,,wg-a,,,,AAXX 19004 07690 12/70 43412 10060 21010 30156 40188 58002 60006 82072 90000=
07690,1998-11-19 03:00:00,6,1017.9,-0.9,56,-2,20000,14.816,,,340,,,,,,,,,,,wg-a,,,,AAXX 19034 07690 12/70 /3408 10060 21020 30147 40179 57009 60006 81030 90300=
07690,1998-11-19 12:00:00,14,1017.3,-1.1,41,1,500,7.408,,,200,,,,,,,,,,,wg-a,,,,AAXX 19124 07690 12500 /2004 10140 20010 30142 40173 58011 60006 81100 91200=
07690,1998-11-19 15:00:00,13,1016.4,-0.9,51,3,500,11.112,,,220,,,,,,,,,,,wg-a,,,,AAXX 19154 07690 12500 /2206 10130 20030 30133 40164 56009 60006 81100 91500=
07690,1998-11-19 18:00:00,7,1017.3,0.8,76,3,500,14.816,,,320,4.8,14.4,,,,,,,,,wg-a,,,,AAXX 19184 07690 12/00 13208 10070 20030 30141 40173 53008 60006 80001 91800 333 10144 20048=
07690,1998-11-19 21:00:00,6,1018.3,1,70,1,25000,18.52,,,340,,,,,,,,,,,wg-a,,,,AAXX 19214 07690 12/75 03410 10060 20010 30151 40183 52010 60006 80000 92100=
07690,1998-11-20 00:00:00,5,1018.5,0.2,70,0,25000,25.928,,,330,,,,,,,,,,,wg-a,,,,AAXX 20004 07690 12/75 03314 10050 20000 30153 40185 53002 60006 80000 90000=
07690,1998-11-20 03:00:00,5,1018.5,0,60,-2,25000,25.928,,,330,,,,,,,,,,,wg-a,,,,AAXX 20034 07690 12/75 03314 10050 21020 30153 40185 50000 60006 80000 90300=
07690,1998-11-20 06:00:00,5,1019.4,0.9,56,-3,500,25.928,,,330,4.2,7,,,,,,,,,wg-a,,,,AAXX 20064 07690 02500 33314 10050 21030 30162 40194 53009 60006 81130 90600 333 10070 20042 60004=
07690,1998-11-20 09:00:00,7,1021,1.6,49,-3,40000,18.52,,,330,,,,,,,,,,,wg-a,,,,AAXX 20094 07690 12582 23310 10070 21030 30178 40210 51016 60006 81130 90900=
07690,1998-11-20 12:00:00,12,1020.5,-0.5,32,-4,40000,25.928,,,110,,,,,,,,,,,wg-a,,,,AAXX 20124 07690 12582 21114 10120 21040 30173 40205 58005 60006 82100 91200=
07690,1998-11-20 15:00:00,11,1020.2,-0.3,37,-3,20000,22.224,,,120,,,,,,,,,,,wg-a,,,,AAXX 20154 07690 12670 51212 10110 21030 30170 40202 55003 60006 85400 91500=
07690,1998-11-20 18:00:00,9,1021.9,1.7,46,-2,15000,18.52,,,90,4.5,12.4,,,,,,,,21,wg-a,,,,AAXX 20184 07690 02565 80910 10090 21020 30187 40219 53017 61000 72161 88800 91800 333 10124 20045 6100=
07690,1998-11-20 21:00:00,5,1023.5,1.5,81,2,15000,18.52,,,330,,,,1,,,,,,1,wg-a,,,,AAXX 20214 07690 12565 43310 10050 20020 30202 40235 51015 60017 70161 84800 92100=
07690,1998-11-21 00:00:00,4,1023.8,0.3,81,1,15000,22.224,,,330,,,,,,,,,,1,wg-a,,,,AAXX 21004 07690 12/65 03312 10040 20010 30205 40238 51003 60016 70161 80000 90000=
07690,1998-11-21 06:00:00,2,1024.3,0.2,69,-3,15000,18.52,,,340,1.5,9.2,,,,,1,,,,wg-a,,,,AAXX 21064 07690 02565 13410 10020 21030 30210 40243 53002 60006 81100 90600 333 10092 20015 60014=
07690,1998-11-21 09:00:00,4,1025.5,1.2,56,-4,35000,22.224,,,330,,,,,,,,,,,wg-a,,,,AAXX 21094 07690 12581 /3312 10040 21040 30222 40255 51012 60006 81100 90900=
07690,1998-11-21 12:00:00,11,1024,-1.4,25,-8,35000,14.816,,,140,,,,,,,,,,,wg-a,,,,AAXX 21124 07690 12581 31408 10110 21080 30208 40240 58014 60006 83100 91200=
07690,1998-11-21 15:00:00,9,1023.2,-0.8,29,-8,35000,11.112,,,90,,,,,,,,,,,wg-a,,,,AAXX 21154 07690 12581 /0906 10090 21080 30200 40232 55008 60006 86500 91500=
07690,1998-11-21 18:00:00,4,1023.9,0.6,56,-4,20000,14.816,,,340,1.4,10.9,,,,,,,,,wg-a,,,,AAXX 21184 07690 12570 33408 10040 21040 30206 40239 53006 60006 83500 91800 333 10109 20014=
07690,1998-11-21 21:00:00,2,1024.4,0.5,69,-3,20000,18.52,,,330,,,,,,,,,,,wg-a,,,,AAXX 21214 07690 12570 /3310 10020 21030 30211 40244 53005 60006 81500 92100=
07690,1998-11-22 00:00:00,1,1024.1,-0.3,64,-5,10000,14.816,,,330,,,,,,,,,,,wg-a,,,,AAXX 22004 07690 12/60 /3308 10010 21050 30208 40241 58003 60006 90000=
07690,1998-11-22 03:00:00,4,1023.9,0.6,56,-4,20000,14.816,,,340,1.4,10.9,,,,,,,,,wg-a,,,,AAXX 22034 07690 12570 33408 10040 21040 30206 40239 53006 60006 83500 90300 333 10109 20014=
07690,1998-11-22 06:00:00,0,1023.2,-0.2,59,-7,20000,18.52,,,330,0.2,4,,,,,,,,,wg-a,,,,AAXX 22064 07690 02470 13310 10000 21070 30199 40232 55002 60006 81500 90600 333 10040 20002 60004=
07690,1998-11-22 09:00:00,3,1023.6,0.4,44,-8,25000,11.112,,,330,,,,,,,,,,,wg-a,,,,AAXX 22094 07690 12/75 /3306 10030 21080 30203 40236 51004 60006 81030 90900=
07690,1998-11-22 12:00:00,9,1021.3,-2.2,15,-16,25000,18.52,,,50,,,,,,,,,,,wg-a,,,,AAXX 22124 07690 12/75 10510 10090 21160 30181 40213 58022 60006 81032 91200=
07690,1998-11-22 15:00:00,9,1020.1,-1.2,17,-15,25000,0,,,0,,,,,,,,,,,wg-a,,,,AAXX 22154 07690 12/75 00000 10090 21150 30169 40201 56012 60006 80000 91500=
07690,1998-11-22 18:00:00,4,1020.6,0.4,44,-7,20000,18.52,,,340,0.1,10.1,,,,,,,,,wg-a,,,,AAXX 22184 07690 12670 /3410 10040 21070 30173 40206 51004 60006 81100 91800 333 10101 20001=
07690,1998-11-23 00:00:00,2,1018.6,-1.1,44,-9,20000,22.224,,,330,,,,,,,,,,,wg-a,,,,AAXX 23004 07690 12/70 03312 10020 21090 30153 40186 58011 60006 80000 90000=
07690,1998-11-23 03:00:00,2,1017,-1.6,44,-9,20000,29.632,,,330,,,,,,,,,,,wg-a,,,,AAXX 23034 07690 12/70 03316 10020 21090 30137 40170 58016 60006 80000 90300=
07690,1998-11-23 06:00:00,1,1016.9,-0.1,44,-10,20000,29.632,,,330,1.2,3.7,,,,,,,,,wg-a,,,,AAXX 23064 07690 02/70 03316 10010 21100 30136 40169 55001 60006 80000 90600 333 10037 20012 60004=
07690,1998-11-23 09:00:00,5,1016.5,-0.3,33,-10,40000,22.224,,,330,,,,,,,,,,,wg-a,,,,AAXX 23094 07690 12/82 03312 10050 21100 30133 40165 56003 60006 80000 90900=
07690,1998-11-23 12:00:00,11,1015.1,-1.4,32,-5,20000,7.408,,,210,,,,,,,,,,,wg-a,,,,AAXX 23124 07690 12770 /2104 10110 21050 30119 40151 58014 60006 81500 91200=
07690,1998-11-23 15:00:00,12,1013.2,-1.8,38,-2,35000,18.52,,,240,,,,,,,,,,,wg-a,,,,AAXX 23154 07690 12781 /2410 10120 21020 30101 40132 56018 60006 81501 91500=
07690,1998-11-23 18:00:00,5,1013.1,-0.2,45,-6,25000,14.816,,,330,1.1,13.4,,,,,,,,,wg-a,,,,AAXX 23184 07690 12/75 03308 10050 21060 30099 40131 55002 60006 80000 91800 333 10134 20011=
07690,1998-11-23 21:00:00,4,1013.3,0.2,44,-7,20000,22.224,,,330,,,,,,,,,,,wg-a,,,,AAXX 23214 07690 12/70 03312 10040 21070 30101 40133 51002 60006 80000 92100=
07690,1998-11-24 00:00:00,4,1013.7,0.4,41,-8,20000,25.928,,,330,,,,,,,,,,,wg-a,,,,AAXX 24004 07690 12670 /3314 10040 21080 30105 40137 51004 60006 81500 90000=
07690,1998-11-24 03:00:00,5,1013.7,0,38,-8,20000,25.928,,,330,,,,,,,,,,,wg-a,,,,AAXX 24034 07690 12670 73314 10050 21080 30105 40137 50000 60006 87500 90300=
07690,1998-11-24 06:00:00,5,1014.6,0.9,41,-7,20000,29.632,,,330,3.8,5.1,,,,,,,,,wg-a,,,,AAXX 24064 07690 02670 73316 10050 21070 30114 40146 53009 60006 87500 90600 333 10051 20038 60004=
07690,1998-11-24 09:00:00,7,1016,1.4,39,-6,15000,25.928,,,330,,,,,,,,,,,wg-a,,,,AAXX 24094 07690 12665 83314 10070 21060 30128 40160 51014 60006 8451/ 90900=
07690,1998-11-24 12:00:00,7,1016.6,0.6,70,2,20000,14.816,,,330,,,,0,,,,,,60,wg-a,,,,AAXX 24124 07690 02570 83308 10070 20020 30134 40166 50006 60006 76062 875// 91200 333 60007=
07690,1998-11-24 15:00:00,9,1016.6,-0,61,2,20000,7.408,,,10,,,,,,,,,,1,wg-a,,,,AAXX 24154 07690 02670 70104 10090 20020 30134 40166 55000 61000 70162 8353/ 91500 333 ////=
07690,1998-11-24 18:00:00,8,1017.8,1.2,61,1,15000,14.816,,,320,5.1,9.6,,,,,,,,3,wg-a,,,,AAXX 24184 07690 12565 73208 10080 20010 30146 40178 52012 60006 70362 8653/ 91800 333 10096 20051=
07690,1998-11-24 21:00:00,7,1018.1,0.3,66,1,15000,18.52,,,330,,,,,,,,,,,wg-a,,,,AAXX 24214 07690 12565 /3310 10070 20010 30149 40181 52003 60006 83530 92100=
07690,1998-11-25 00:00:00,6,1018.1,0,65,0,11000,22.224,,,330,,,,,,,,,,,wg-a,,,,AAXX 25004 07690 12/61 /3312 10060 20000 30149 40181 50000 60006 90000=
07690,1998-11-25 03:00:00,6,1017.4,-0.7,65,0,20000,25.928,,,330,,,,,,,,,,,wg-a,,,,AAXX 25034 07690 12570 73314 10060 20000 30142 40174 56007 60006 8153/ 90300=
07690,1998-11-25 06:00:00,7,1017.1,-0.3,57,-1,25000,22.224,,,330,5.7,7.5,,,,,,,,,wg-a,,,,AAXX 25064 07690 02775 73312 10070 21010 30139 40171 56003 60006 8453/ 90600 333 10075 20057 60004=
07690,1998-11-25 09:00:00,8,1017.3,0.2,53,-1,15000,22.224,,,330,,,,,,,,,,,wg-a,,,,AAXX 25094 07690 12/65 53312 10080 21010 30141 40173 50002 60006 83032 90900=
07690,1998-11-25 12:00:00,12,1015.7,-1.5,47,1,15000,3.704,,,240,,,,,,,,,,,wg-a,,,,AAXX 25124 07690 12765 72402 10120 20010 30126 40157 58015 60006 81536 91200=
07690,1998-11-25 15:00:00,11,1014.4,-1.4,66,5,12000,14.816,,,220,,,,,,,,,,,wg-a,,,,AAXX 25154 07690 12662 82208 10110 20050 30112 40144 56014 60006 82576 91500=
07690,1998-11-25 18:00:00,10,1014.4,-0,76,6,12000,14.816,,,260,6.4,12.8,,,,,,,,60,wg-a,,,,AAXX 25184 07690 02562 82608 10100 20060 30112 40144 55000 61000 76062 8357/ 91800 333 10128 20064 6100=
07690,1998-11-25 21:00:00,8,1013.6,-0.8,87,6,12000,3.704,,,360,,,,1,,,,,,60,wg-a,,,,AAXX 25214 07690 12662 83602 10080 20060 30104 40136 57008 60017 76066 8557/ 92100=
07690,1998-11-26 00:00:00,8,1013,-0.6,81,5,12000,11.112,,,10,,,,,,,,,,3,wg-a,,,,AAXX 26004 07690 02462 70106 10080 20050 30098 40130 58006 60016 70362 8557/ 90000 333 61000=
07690,1998-11-26 03:00:00,7,1012.7,-0.3,87,5,15000,14.816,,,330,,,,1,,,,,,60,wg-a,,,,AAXX 26034 07690 12565 83308 10070 20050 30095 40127 55003 60017 76062 8557/ 90300=
07690,1998-11-26 06:00:00,7,1012.6,-0.1,87,5,15000,11.112,,,340,6.6,9.5,,,,,,,,21,wg-a,,,,AAXX 26064 07690 02565 83406 10070 20050 30094 40126 55001 61000 72162 8657/ 90600 333 10095 20066 6004=
07690,1998-11-26 09:00:00,8,1014.2,1.6,81,5,40000,7.408,,,340,,,,,,,,,,2,wg-a,,,,AAXX 26094 07690 02482 73404 10080 20050 30110 40142 53016 61000 70262 8387/ 90900 333 ////=
07690,1998-11-26 12:00:00,11,1014.4,0.2,71,6,500,11.112,,,330,,,,,,,,,,1,wg-a,,,,AAXX 26124 07690 02400 /3306 10110 20060 30112 40144 50002 61000 70162 81430 91200 333 ////=
07690,1998-11-26 15:00:00,13,1015.3,1,62,6,500,11.112,,,210,,,,,,,,,,,wg-a,,,,AAXX 26154 07690 12400 /2106 10130 20060 30122 40153 53010 60006 81830 91500=
07690,1998-11-26 18:00:00,9,1017.2,1.8,76,5,20000,11.112,,,320,6.7,14,,,,,,,,,wg-a,,,,AAXX 26184 07690 12470 13206 10090 20050 30140 40172 52018 60006 81500 91800 333 10140 20067=
07690,1998-11-26 21:00:00,7,1018,0.8,87,5,20000,22.224,,,330,,,,,,,,,,,wg-a,,,,AAXX 26214 07690 12/70 03312 10070 20050 30148 40180 51008 60006 80000 92100=
07690,1998-11-27 00:00:00,7,1017.5,-0.5,81,4,20000,22.224,,,330,,,,,,,,,,,wg-a,,,,AAXX 27004 07690 12/70 03312 10070 20040 30143 40175 58005 60006 80000 90000=
07690,1998-11-27 03:00:00,7,1016.6,-0.9,76,3,20000,22.224,,,330,,,,,,,,,,,wg-a,,,,AAXX 27034 07690 12/70 73312 10070 20030 30134 40166 56009 60006 87032 90300=
07690,1998-11-27 06:00:00,7,1016.4,-0.2,76,3,20000,22.224,,,330,6.4,8.6,,,,,,,,,wg-a,,,,AAXX 27064 07690 02/70 73312 10070 20030 30132 40164 55002 60006 86032 90600 333 10086 20064 61000=
07690,1998-11-27 09:00:00,9,1016.2,-0.2,61,2,40000,18.52,,,340,,,,,,,,,,,wg-a,,,,AAXX 27094 07690 12/82 13410 10090 20020 30130 40162 56002 60006 81032 90900=
07690,1998-11-27 12:00:00,15,1013.9,-2.2,55,6,40000,11.112,,,190,,,,,,,,,,,wg-a,,,,AAXX 27124 07690 12682 11906 10150 20060 30108 40139 58022 60006 81132 91200=
07690,1998-11-27 15:00:00,13,1012.5,-1.4,62,6,500,7.408,,,180,,,,,,,,,,,wg-a,,,,AAXX 27154 07690 12600 /1804 10130 20060 30094 40125 56014 60006 81232 91500=
07690,1998-11-27 18:00:00,8,1013.1,0.5,87,6,20000,14.816,,,320,6.5,15.2,,,,,,,,,wg-a,,,,AAXX 27184 07690 12570 43208 10080 20060 30099 40131 52005 60006 83530 91800 333 10152 20065=
07690,1998-11-27 21:00:00,8,1013.9,0.8,76,4,12000,22.224,,,330,,,,,,,,,,,wg-a,,,,AAXX 27214 07690 12562 /3312 10080 20040 30107 40139 51008 60006 84530 92100=
07690,1998-11-28 00:00:00,8,1014,0.1,71,3,12000,14.816,,,330,,,,,,,,,,,wg-a,,,,AAXX 28004 07690 12562 23308 10080 20030 30108 40140 50001 60006 82500 90000=
07690,1998-11-28 03:00:00,6,1014.4,0.4,70,1,12000,22.224,,,330,,,,,,,,,,,wg-a,,,,AAXX 28034 07690 12/62 03312 10060 20010 30112 40144 51004 60006 80000 90300=
07690,1998-11-28 06:00:00,6,1015.5,1.1,61,-1,20000,29.632,,,330,6,8.2,,,,,,,,,wg-a,,,,AAXX 28064 07690 02570 13316 10060 21010 30123 40155 52011 60006 81500 90600 333 10082 20060 60004=
07690,1998-11-28 12:00:00,16,1015.9,-0.7,42,3,40000,11.112,,,220,,,,,,,,,,,wg-a,,,,AAXX 28124 07690 12/82 02206 10160 20030 30128 40159 58007 60006 80000 91200=
07690,1998-11-28 15:00:00,14,1015.7,-0.2,55,5,50000,22.224,,,220,,,,,,,,,,,wg-a,,,,AAXX 28154 07690 12/84 02212 10140 20050 30126 40157 55002 60006 80000 91500=
07690,1998-11-28 18:00:00,8,1016.2,0.4,66,2,25000,14.816,,,320,5.7,15.5,,,,,,,,,wg-a,,,,AAXX 28184 07690 12/75 03208 10080 20020 30130 40162 50004 60006 80000 91800 333 10155 20057=
07690,1998-11-28 21:00:00,7,1015.3,-0.9,57,-1,20000,18.52,,,340,,,,,,,,,,,wg-a,,,,AAXX 28214 07690 12/70 03410 10070 21010 30121 40153 57009 60006 80000 92100=
07690,1998-11-29 00:00:00,6,1013.9,-1.4,56,-2,20000,18.52,,,330,,,,,,,,,,,wg-a,,,,AAXX 29004 07690 12/70 23310 10060 21020 30107 40139 58014 60006 80001 90000=
07690,1998-11-29 03:00:00,6,1012.4,-1.5,52,-3,20000,25.928,,,330,,,,,,,,,,,wg-a,,,,AAXX 29034 07690 12/70 43314 10060 21030 30092 40124 57015 60006 80002 90300=
07690,1998-11-29 06:00:00,5,1011,-1.4,52,-4,20000,25.928,,,330,5,7.9,,,,,,,,,wg-a,,,,AAXX 29064 07690 02/70 33314 10050 21040 30078 40110 56014 60006 81032 90600 333 10079 20050 60004=
07690,1998-11-29 09:00:00,7,1010.9,-0.1,45,-4,40000,22.224,,,330,,,,,,,,,,,wg-a,,,,AAXX 29094 07690 12582 73312 10070 21040 30077 40109 55001 60006 81172 90900=
07690,1998-11-29 12:00:00,13,1009.3,-1.5,51,3,35000,18.52,,,80,,,,,,,,,,,wg-a,,,,AAXX 29124 07690 12581 /0810 10130 20030 30062 40093 58015 60006 81102 91200=
07690,1998-11-29 15:00:00,12,1008.8,-0.5,44,0,35000,25.928,,,90,,,,,,,,,,,wg-a,,,,AAXX 29154 07690 12581 60914 10120 20000 30057 40088 56005 60006 81872 91500=
07690,1998-11-29 18:00:00,8,1009.4,0.5,61,1,25000,14.816,,,330,4.8,13.5,,,,,,,,,wg-a,,,,AAXX 29184 07690 12575 73308 10080 20010 30062 40094 53005 60006 81572 91800 333 10135 20048=
07690,1998-11-29 21:00:00,7,1010.4,1,57,-1,25000,11.112,,,330,,,,,,,,,,,wg-a,,,,AAXX 29214 07690 12/75 33306 10070 21010 30072 40104 51010 60006 80002 92100=
07690,1998-11-30 00:00:00,6,1010.8,0.4,61,-1,20000,14.816,,,340,,,,,,,,,,,wg-a,,,,AAXX 30004 07690 12/70 13408 10060 21010 30076 40108 50004 60006 80002 90000=
07690,1998-11-30 03:00:00,5,1011.3,0.5,60,-2,25000,18.52,,,340,,,,,,,,,,,wg-a,,,,AAXX 30034 07690 12/75 03410 10050 21020 30081 40113 53005 60006 80000 90300=
07690,1998-11-30 06:00:00,4,1011.5,0.2,65,-2,25000,22.224,,,340,3.8,8,,,,,,,,,wg-a,,,,AAXX 30064 07690 02/75 43412 10040 21020 30083 40115 53002 60006 83032 90600 333 10080 20038 60004=
07690,1998-11-30 09:00:00,5,1013,1.5,60,-2,15000,22.224,,,330,,,,,,,,,,,wg-a,,,,AAXX 30094 07690 12/65 63312 10050 21020 30098 40130 51015 60006 86032 90900=
07690,1998-11-30 12:00:00,8,1012.1,-0.9,53,-1,10000,18.52,,,330,,,,,,,,,,,wg-a,,,,AAXX 30124 07690 12560 73310 10080 21010 30089 40121 58009 60006 81532 91200=
07690,1998-11-30 15:00:00,10,1011.3,-0.8,50,0,15000,14.816,,,330,,,,,,,,,,,wg-a,,,,AAXX 30154 07690 12565 73308 10100 20000 30081 40113 55008 60006 875// 91500=
07690,1998-11-30 18:00:00,9,1012.8,1.5,53,0,10000,14.816,,,330,3.8,9.8,,,,,,,,,wg-a,,,,AAXX 30184 07690 12560 73308 10090 20000 30096 40128 53015 60006 875// 91800 333 10098 20038=
07690,1998-11-30 21:00:00,8,1013.6,0.8,49,-2,15000,14.816,,,330,,,,,,,,,,,wg-a,,,,AAXX 30214 07690 12465 73308 10080 21020 30104 40136 51008 60006 8352/ 92100=
07690,1998-12-01 00:00:00,9,1013.9,0.3,46,-2,15000,22.224,,,20,,,,,,,,,,,wg-a,,,,AAXX 01004 07690 12465 70212 10090 21020 30107 40139 53003 60006 8357/ 90000=
07690,1998-12-01 03:00:00,11,1014.5,0.6,43,-1,15000,18.52,,,360,,,,,,,,,,60,wg-a,,,,AAXX 01034 07690 02465 83610 10110 21010 30113 40145 51006 61000 76062 8557/ 90300 333 ////=
07690,1998-12-01 06:00:00,13,1015.4,1,35,-2,15000,29.632,,,30,7.9,13,,,,,,,,21,wg-a,,,,AAXX 01064 07690 02565 70316 10130 21020 30123 40154 53010 61000 72162 8357/ 90600 333 10130 20079 6100=
07690,1998-12-01 12:00:00,15,1016.6,-0.3,41,2,500,22.224,,50.004,90,,,,,,,,,,,wg-a,,,,AAXX 01124 07690 12700 70912 10150 20020 30135 40166 58003 60006 83572 91200 333 91027=
07690,1998-12-01 15:00:00,14,1016.6,-0,58,6,25000,18.52,,,140,,,,,,,,,,,wg-a,,,,AAXX 01154 07690 12775 71410 10140 20060 30135 40166 55000 60006 8227/ 91500=
07690,1998-12-01 18:00:00,12,1017.5,0.8,71,7,20000,18.52,,,270,11.7,16,,,,,,,,,wg-a,,,,AAXX 01184 07690 12770 /2710 10120 20070 30143 40175 51008 60006 8457/ 91800 333 10160 20117=
07690,1998-12-01 21:00:00,8,1018.8,1.3,76,4,20000,22.224,,,330,,,,,,,,,,,wg-a,,,,AAXX 01214 07690 12770 33312 10080 20040 30156 40188 51013 60006 8153/ 92100=
07690,1998-12-02 00:00:00,7,1019.3,0.5,70,2,20000,18.52,,,340,,,,,,,,,,,wg-a,,,,AAXX 02004 07690 12/70 43410 10070 20020 30161 40193 51005 60006 84030 90000=
07690,1998-12-02 03:00:00,6,1019.5,0.2,65,0,20000,22.224,,,330,,,,,,,,,,,wg-a,,,,AAXX 02034 07690 12/70 43312 10060 20000 30163 40195 50002 60006 84030 90300=
07690,1998-12-02 06:00:00,6,1020.2,0.7,65,0,20000,18.52,,,340,5.6,11.8,,,,,,,,,wg-a,,,,AAXX 02064 07690 02/70 53410 10060 20000 30170 40202 53007 60006 85030 90600 333 10118 20056 60004=
07690,1998-12-02 09:00:00,8,1021.3,1.1,57,0,500,18.52,,,330,,,,,,,,,,,wg-a,,,,AAXX 02094 07690 12/00 13310 10080 20000 30181 40213 51011 60006 81032 90900=
07690,1998-12-02 12:00:00,14,1020.1,-1.1,47,3,25000,29.632,,,100,,,,,,,,,,,wg-a,,,,AAXX 02124 07690 12/75 11016 10140 20030 30170 40201 58011 60006 80002 91200=
07690,1998-12-02 15:00:00,13,1019.2,-0.9,51,3,20000,31.484,,,90,,,,,,,,,,,wg-a,,,,AAXX 02154 07690 12770 20917 10130 20030 30161 40192 56009 60006 81132 91500=
07690,1998-12-02 18:00:00,8,1020.3,1,66,2,15000,14.816,,,330,5.4,14.4,,,,,,,,,wg-a,,,,AAXX 02184 07690 12/65 13308 10080 20020 30171 40203 53010 60006 80001 91800 333 10144 20054=
07690,1998-12-02 21:00:00,7,1020.6,0.3,61,0,15000,22.224,,,330,,,,,,,,,,,wg-a,,,,AAXX 02214 07690 12/65 /3312 10070 20000 30174 40206 53003 60006 86030 92100=
07690,1998-12-03 00:00:00,7,1019.7,-0.9,61,0,15000,18.52,,,330,,,,,,,,,,,wg-a,,,,AAXX 03004 07690 12765 /3310 10070 20000 30165 40197 58009 60006 86500 90000=
07690,1998-12-03 03:00:00,7,1018.1,-1.6,53,-2,20000,18.52,,,330,,,,,,,,,,,wg-a,,,,AAXX 03034 07690 12770 /3310 10070 21020 30149 40181 56016 60006 85530 90300=
07690,1998-12-03 06:00:00,8,1016.3,-1.8,49,-2,20000,22.224,,,330,6,7.8,,,,,,,,,wg-a,,,,AAXX 03064 07690 02770 73312 10080 21020 30131 40163 58018 60006 875// 90600 333 10078 20060 60004=
07690,1998-12-03 09:00:00,9,1015.8,-0.5,46,-2,35000,22.224,,,330,,,,,,,,,,,wg-a,,,,AAXX 03094 07690 12781 73312 10090 21020 30126 40158 58005 60006 875// 90900=
07690,1998-12-03 12:00:00,12,1012.8,-2.9,44,0,35000,14.816,,,40,,,,,,,,,,,wg-a,,,,AAXX 03124 07690 12781 70408 10120 20000 30097 40128 58029 60006 875// 91200=
07690,1998-12-03 15:00:00,14,1010.4,-2.4,36,-1,35000,22.224,,,40,,,,,,,,,,,wg-a,,,,AAXX 03154 07690 12781 70412 10140 21010 30073 40104 56024 60006 8583/ 91500=
07690,1998-12-03 21:00:00,8,1005.3,-2.4,57,0,25000,18.52,,,330,,,,,,,,,,,wg-a,,,,AAXX 03214 07690 12/75 73310 10080 20000 30021 40053 58024 60006 84032 92100=
07690,1998-12-04 00:00:00,14,1001.5,-3.7,31,-3,20000,22.224,,,10,,,,,,,,,,,wg-a,,,,AAXX 04004 07690 12/70 70112 10140 21030 39984 40015 58037 60006 85036 90000=
07690,1998-12-04 03:00:00,12,997.8,-3.7,40,-1,20000,25.928,,,10,,,,,,,,,,,wg-a,,,,AAXX 04034 07690 12/70 70114 10120 21010 39947 49978 56037 60006 83036 90300=
07690,1998-12-04 06:00:00,12,998.1,0.3,47,1,20000,11.112,,,350,8.1,14.6,,,,,,,,,wg-a,,,,AAXX 04064 07690 02770 73506 10120 20010 39950 49981 53003 60006 8757/ 90600 333 10146 20081 60004=
07690,1998-12-04 12:00:00,14,997.9,-0.3,51,4,50000,29.632,,,200,,,,,,,,,,,wg-a,,,,AAXX 04124 07690 12/84 52016 10140 20040 39948 49979 58003 60006 80001 91200=
07690,1998-12-04 15:00:00,14,998,0.1,55,5,50000,22.224,,,220,,,,,,,,,,,wg-a,,,,AAXX 04154 07690 12584 /2212 10140 20050 39949 49980 53001 60006 81101 91500=
07690,1998-12-04 18:00:00,8,998.5,0.5,66,2,20000,7.408,,,320,7.8,15.1,,,,,,,,,wg-a,,,,AAXX 04184 07690 12/70 13204 10080 20020 39954 49985 50005 60006 80001 91800 333 10151 20078=
07690,1998-12-04 21:00:00,7,999.3,0.8,66,1,25000,11.112,,,330,,,,,,,,,,,wg-a,,,,AAXX 04214 07690 12/75 03306 10070 20010 39962 49993 51008 60006 80000 92100=
07690,1998-12-05 00:00:00,7,1000.2,0.8,61,0,20000,14.816,,,330,,,,,,,,,,,wg-a,,,,AAXX 05004 07690 12/70 03308 10070 20000 39970 40002 51008 60006 80000 90000=
07690,1998-12-05 03:00:00,6,1001.4,1.2,56,-2,25000,22.224,,,330,,,,,,,,,,,wg-a,,,,AAXX 05034 07690 12/75 53312 10060 21020 39982 40014 52012 60006 85030 90300=
07690,1998-12-05 06:00:00,6,1003.2,1.8,56,-2,25000,25.928,,,330,5.7,8,,,,,,,,,wg-a,,,,AAXX 05064 07690 02575 33314 10060 21020 30000 40032 53018 60006 83100 90600 333 10080 20057 60004=
07690,1998-12-05 09:00:00,8,1006.3,3.1,49,-2,40000,22.224,,,330,,,,,,,,,,,wg-a,,,,AAXX 05094 07690 12582 /3312 10080 21020 30031 40063 51031 60006 81100 90900=
07690,1998-12-05 12:00:00,14,1006.3,0.1,44,2,35000,7.408,,,240,,,,,,,,,,,wg-a,,,,AAXX 05124 07690 12581 /2404 10140 20020 30032 40063 50001 60006 81102 91200=
07690,1998-12-05 15:00:00,13,1005.8,-0.5,41,0,500,7.408,,,200,,,,,,,,,,,wg-a,,,,AAXX 05154 07690 12600 /2004 10130 20000 30027 40058 55005 60006 81432 91500=
07690,1998-12-05 18:00:00,7,1008.7,2.8,66,1,500,18.52,,,330,5.5,14.8,,,,,,,,,wg-a,,,,AAXX 05184 07690 12500 13310 10070 20010 30055 40087 53028 60006 81500 91800 333 10148 20055=
07690,1998-12-05 21:00:00,7,1011.4,2.7,49,-3,500,25.928,,,330,,,,,,,,,,,wg-a,,,,AAXX 05214 07690 12500 /3314 10070 21030 30082 40114 51027 60006 81500 92100=
07690,1998-12-06 00:00:00,7,1013.1,1.7,42,-5,20000,11.112,,,330,,,,,,,,,,,wg-a,,,,AAXX 06004 07690 12570 73306 10070 21050 30099 40131 51017 60006 875// 90000=
07690,1998-12-06 03:00:00,7,1012,-1.1,36,-7,25000,11.112,,,330,,,,,,,,,,,wg-a,,,,AAXX 06034 07690 12575 /3306 10070 21070 30088 40120 58011 60006 86500 90300=
07690,1998-12-06 06:00:00,6,1012.4,0.4,36,-8,25000,25.928,,,340,5.4,7.4,,,,,,,,,wg-a,,,,AAXX 06064 07690 02575 33414 10060 21080 30092 40124 53004 60006 83500 90600 333 10074 20054 60004=
07690,1998-12-06 09:00:00,7,1013.7,1.3,31,-9,50000,14.816,,,10,,,,,,,,,,,wg-a,,,,AAXX 06094 07690 12584 /0108 10070 21090 30105 40137 52013 60006 81100 90900=
07690,1998-12-06 12:00:00,14,1013,-0.6,31,-3,50000,7.408,,,270,,,,,,,,,,,wg-a,,,,AAXX 06124 07690 12584 /2704 10140 21030 30099 40130 58006 60006 81100 91200=
07690,1998-12-06 15:00:00,13,1013.7,0.7,33,-3,40000,7.408,,,170,,,,,,,,,,,wg-a,,,,AAXX 06154 07690 12582 /1704 10130 21030 30106 40137 53007 60006 81400 91500=
07690,1998-12-06 18:00:00,6,1016.2,2.4,49,-4,20000,22.224,,,110,5.1,13.9,,,,,,,,,wg-a,,,,AAXX 06184 07690 12470 /1112 10060 21040 30130 40162 53024 60006 81500 91800 333 10139 20051=
07690,1998-12-06 21:00:00,5,1018,1.8,48,-5,15000,25.928,,,330,,,,,,,,,,,wg-a,,,,AAXX 06214 07690 12565 23314 10050 21050 30148 40180 51018 60006 82500 92100=
07690,1998-12-07 00:00:00,5,1018.8,0.8,45,-6,15000,22.224,,,320,,,,,,,,,,,wg-a,,,,AAXX 07004 07690 12565 /3212 10050 21060 30156 40188 51008 60006 81500 90000=
07690,1998-12-07 03:00:00,5,1019.7,0.9,45,-6,15000,22.224,,,330,,,,,,,,,,,wg-a,,,,AAXX 07034 07690 12/65 /3312 10050 21060 30165 40197 51009 60006 86030 90300=
07690,1998-12-07 06:00:00,4,1020.6,0.8,44,-7,15000,25.928,,,330,3.9,6.5,,,,,,,,,wg-a,,,,AAXX 07064 07690 02765 43314 10040 21070 30173 40206 53008 60006 84500 90600 333 10065 20039 60004=
07690,1998-12-07 09:00:00,5,1022.7,2.1,41,-7,11000,22.224,,,330,,,,,,,,,,,wg-a,,,,AAXX 07094 07690 12761 /3312 10050 21070 30194 40227 51021 60006 86500 90900=
07690,1998-12-07 12:00:00,9,1022.5,-0.1,37,-5,12000,11.112,,,320,,,,,,,,,,,wg-a,,,,AAXX 07124 07690 12762 /3206 10090 21050 30193 40225 58001 60006 85500 91200=
07690,1998-12-07 15:00:00,10,1022.4,-0.1,53,1,20000,22.224,,,250,,,,,,,,,,,wg-a,,,,AAXX 07154 07690 12670 /2512 10100 20010 30192 40224 55001 60006 85800 91500=
07690,1998-12-07 18:00:00,6,1023.2,0.8,61,-1,15000,7.408,,,270,3.6,12.7,,,,,,,,,wg-a,,,,AAXX 07184 07690 12665 22704 10060 21010 30200 40232 51008 60006 82500 91800 333 10127 20036=
07690,1998-12-07 21:00:00,4,1024.6,1.3,60,-3,15000,18.52,,,330,,,,,,,,,,,wg-a,,,,AAXX 07214 07690 12/65 03310 10040 21030 30213 40246 51013 60006 80000 92100=
07690,1998-12-08 00:00:00,4,1025.3,0.7,56,-4,15000,25.928,,,330,,,,,,,,,,,wg-a,,,,AAXX 08004 07690 12/65 03314 10040 21040 30220 40253 50007 60006 80000 90000=
07690,1998-12-08 03:00:00,3,1025.8,0.5,56,-5,15000,18.52,,,340,,,,,,,,,,,wg-a,,,,AAXX 08034 07690 12/65 03410 10030 21050 30225 40258 51005 60006 80000 90300=
07690,1998-12-08 06:00:00,3,1026.2,0.4,56,-5,15000,25.928,,,330,2.7,5.7,,,,,,,,,wg-a,,,,AAXX 08064 07690 02665 13314 10030 21050 30229 40262 53004 60006 81500 90600 333 10057 20027 60004=
07690,1998-12-08 09:00:00,5,1027.6,1.4,48,-5,40000,22.224,,,330,,,,,,,,,,,wg-a,,,,AAXX 08094 07690 12/82 03312 10050 21050 30243 40276 53014 60006 80000 90900=
07690,1998-12-08 12:00:00,12,1027,-0.5,47,1,500,11.112,,,230,,,,,,,,,,,wg-a,,,,AAXX 08124 07690 12/00 02306 10120 20010 30238 40270 58005 60006 80000 91200=
07690,1998-12-08 18:00:00,6,1026.9,0.8,61,-1,15000,11.112,,,270,2.8,12.3,,,,,,,,,wg-a,,,,AAXX 08184 07690 12565 /2706 10060 21010 30237 40269 51008 60006 81100 91800 333 10123 20028=
07690,1998-12-08 21:00:00,3,1027.4,0.4,60,-4,15000,22.224,,,330,,,,,,,,,,,wg-a,,,,AAXX 08214 07690 12565 /3312 10030 21040 30241 40274 50004 60006 81500 92100=
07690,1998-12-09 00:00:00,3,1027.9,0.5,60,-4,15000,25.928,,,340,,,,,,,,,,,wg-a,,,,AAXX 09004 07690 12665 23414 10030 21040 30246 40279 51005 60006 82500 90000=
07690,1998-12-09 03:00:00,3,1028,0.1,52,-6,15000,29.632,,,330,,,,,,,,,,,wg-a,,,,AAXX 09034 07690 12565 /3316 10030 21060 30247 40280 50001 60006 81501 90300=
07690,1998-12-09 06:00:00,4,1027.8,-0.2,48,-6,25000,25.928,,,340,3.1,6.2,,,,,,,,,wg-a,,,,AAXX 09064 07690 02575 73414 10040 21060 30245 40278 55002 60006 8153/ 90600 333 10062 20031 60004=
07690,1998-12-09 09:00:00,6,1028.8,1,45,-5,500,22.224,,,330,,,,,,,,,,,wg-a,,,,AAXX 09094 07690 12/00 73312 10060 21050 30255 40288 51010 60006 86072 90900=
07690,1998-12-09 12:00:00,8,1028.1,-0.6,42,-4,25000,18.52,,,330,,,,,,,,,,,wg-a,,,,AAXX 09124 07690 12775 73310 10080 21040 30249 40281 58006 60006 8351/ 91200=
07690,1998-12-09 15:00:00,8,1027.7,-0.4,46,-3,12000,22.224,,,330,,,,,,,,,,,wg-a,,,,AAXX 09154 07690 12662 73312 10080 21030 30245 40277 55004 60006 8157/ 91500=
07690,1998-12-09 18:00:00,7,1027.7,-0,49,-3,12000,18.52,,,330,4.2,8.6,,,,,,,,,wg-a,,,,AAXX 09184 07690 12562 73310 10070 21030 30245 40277 55000 60006 8157/ 91800 333 10086 20042=
07690,1998-12-09 21:00:00,7,1027,-0.7,49,-3,12000,18.52,,,330,,,,,,,,,,,wg-a,,,,AAXX 09214 07690 12462 73310 10070 21030 30238 40270 58007 60006 8157/ 92100=
07690,1998-12-10 00:00:00,7,1026.2,-0.8,53,-2,11000,22.224,,,330,,,,,,,,,,,wg-a,,,,AAXX 10004 07690 12/61 /3312 10070 21020 30230 40262 58008 60006 90000=
07690,1998-12-10 06:00:00,5,1024,-0.7,60,-2,15000,25.928,,,330,4.8,7.2,,,,,,,,,wg-a,,,,AAXX 10064 07690 02565 23314 10050 21020 30207 40240 56007 60006 81830 90600 333 10072 20048 60004=
07690,1998-12-10 09:00:00,6,1024.4,0.5,56,-2,35000,11.112,,,340,,,,,,,,,,,wg-a,,,,AAXX 10094 07690 12581 73406 10060 21020 30212 40244 53005 60006 878// 90900=
07690,1998-12-10 12:00:00,12,1022.7,-1.7,54,3,20000,3.704,,,360,,,,,,,,,,,wg-a,,,,AAXX 10124 07690 12470 23602 10120 20030 30195 40227 58017 60006 82800 91200=
07690,1998-12-10 15:00:00,12,1020.9,-1.8,62,5,25000,3.704,,,180,,,,,,,,,,,wg-a,,,,AAXX 10154 07690 12475 /1802 10120 20050 30177 40209 56018 60006 81100 91500=
07690,1998-12-10 18:00:00,7,1020.4,-0.5,81,4,15000,14.816,,,330,4.6,13.8,,,,,,,,,wg-a,,,,AAXX 10184 07690 12565 33308 10070 20040 30172 40204 56005 60006 83100 91800 333 10138 20046=
07690,1998-12-10 21:00:00,6,1020,-0.4,75,2,15000,18.52,,,330,,,,,,,,,,,wg-a,,,,AAXX 10214 07690 12565 63310 10060 20020 30168 40200 57004 60006 84502 92100=
07690,1998-12-11 03:00:00,6,1017.6,-1.3,65,0,15000,22.224,,,330,,,,,,,,,,,wg-a,,,,AAXX 11034 07690 12565 73312 10060 20000 30144 40176 58013 60006 8357/ 90300=
07690,1998-12-11 06:00:00,5,1016.2,-1.4,81,2,15000,22.224,,,330,5.2,6.9,,,,,,,,60,wg-a,,,,AAXX 11064 07690 02565 83312 10050 20020 30130 40162 58014 61000 76062 8557/ 90600 333 10069 20052 6000=
07690,1998-12-11 09:00:00,7,1016,-0.2,66,1,20000,22.224,,,330,,,,,,,,,,1,wg-a,,,,AAXX 11094 07690 02470 73312 10070 20010 30128 40160 55002 61000 70162 878// 90900 333 ////=
07690,1998-12-11 12:00:00,7,1015.8,-0.2,87,5,7000,14.816,,,330,,,,1,,,,,,61,wg-a,,,,AAXX 11124 07690 02457 83308 10070 20050 30126 40158 55002 60016 76162 878// 91200 333 60017=
07690,1998-12-11 15:00:00,9,1016,0.2,81,6,7000,14.816,,,320,,,,1,,,,,,1,wg-a,,,,AAXX 11154 07690 12457 73208 10090 20060 30128 40160 53002 60017 70162 8353/ 91500=
07690,1998-12-11 18:00:00,7,1017.7,1.7,87,5,12000,18.52,,,330,5.4,9.3,,,,,,,,1,wg-a,,,,AAXX 11184 07690 12762 /3310 10070 20050 30145 40177 53017 60006 70161 81500 91800 333 10093 20054=
07690,1998-12-11 21:00:00,6,1019.6,1.9,81,3,12000,22.224,,,330,,,,,,,,,,,wg-a,,,,AAXX 11214 07690 12/62 03312 10060 20030 30164 40196 51019 60006 80000 92100=
07690,1998-12-12 00:00:00,6,1020.4,0.8,81,3,20000,25.928,,,330,,,,,,,,,,,wg-a,,,,AAXX 12004 07690 12/70 03314 10060 20030 30172 40204 51008 60006 80000 90000=
07690,1998-12-12 03:00:00,6,1021.5,1.1,70,1,20000,29.632,,,330,,,,,,,,,,,wg-a,,,,AAXX 12034 07690 12/70 03316 10060 20010 30183 40215 51011 60006 80000 90300=
07690,1998-12-12 06:00:00,5,1023.2,1.6,70,0,20000,25.928,,,330,5,7.1,,,,,2,,,,wg-a,,,,AAXX 12064 07690 02/70 03314 10050 20000 30199 40232 52016 60006 80000 90600 333 10071 20050 60024=
07690,1998-12-12 09:00:00,7,1025.5,2.4,53,-2,50000,22.224,,,330,,,,,,,,,,,wg-a,,,,AAXX 12094 07690 12/84 33312 10070 21020 30223 40255 51024 60006 82031 90900=
07690,1998-12-12 12:00:00,12,1025.4,-0.1,47,1,50000,7.408,,,320,,,,,,,,,,,wg-a,,,,AAXX 12124 07690 12/84 23204 10120 20010 30222 40254 58001 60006 82030 91200=
07690,1998-12-12 15:00:00,12,1025.6,0.2,71,7,50000,3.704,,,230,,,,,,,,,,,wg-a,,,,AAXX 12154 07690 12784 /2302 10120 20070 30224 40256 53002 60006 81530 91500=
07690,1998-12-12 18:00:00,8,1026.5,0.9,76,4,500,22.224,,,330,4.8,15.5,,,,,,,,,wg-a,,,,AAXX 12184 07690 12500 43312 10080 20040 30233 40265 52009 60006 81130 91800 333 10155 20048=
07690,1998-12-12 21:00:00,8,1027.1,0.6,66,2,15000,18.52,,,330,,,,,,,,,,,wg-a,,,,AAXX 12214 07690 12/65 33310 10080 20020 30239 40271 52006 60006 83030 92100=
07690,1998-12-13 00:00:00,7,1027.6,0.5,66,1,15000,18.52,,,340,,,,,,,,,,,wg-a,,,,AAXX 13004 07690 12/65 23410 10070 20010 30244 40276 50005 60006 82030 90000=
07690,1998-12-13 03:00:00,6,1028.1,0.4,65,0,15000,25.928,,,330,,,,,,,,,,,wg-a,,,,AAXX 13034 07690 12565 43314 10060 20000 30248 40281 53004 60006 84500 90300=
07690,1998-12-13 06:00:00,6,1028.2,0.1,61,-1,15000,25.928,,,330,5.8,8,,,,,,,,,wg-a,,,,AAXX 13064 07690 02465 33314 10060 21010 30249 40282 53001 60006 81531 90600 333 10080 20058 60004=
07690,1998-12-13 09:00:00,8,1029.4,1.3,57,0,500,22.224,,,330,,,,,,,,,,,wg-a,,,,AAXX 13094 07690 12500 73312 10080 20000 30262 40294 53013 60006 81532 90900=
07690,1998-12-13 12:00:00,15,1029,-0.4,59,7,500,3.704,,,200,,,,,,,,,,,wg-a,,,,AAXX 13124 07690 12/00 72002 10150 20070 30258 40290 58004 60006 81042 91200=
07690,1998-12-13 15:00:00,13,1028.7,-0.3,77,9,500,7.408,,,220,,,,,,,,,,,wg-a,,,,AAXX 13154 07690 12/00 72204 10130 20090 30255 40287 55003 60006 81042 91500=
07690,1998-12-13 18:00:00,8,1029.5,0.8,76,4,12000,22.224,,,330,5.8,15.7,,,,,,,,,wg-a,,,,AAXX 13184 07690 12/62 23312 10080 20040 30263 40295 51008 60006 80002 91800 333 10157 20058=
07690,1998-12-13 21:00:00,7,1029.9,0.4,76,3,12000,18.52,,,330,,,,,,,,,,,wg-a,,,,AAXX 13214 07690 12562 /3310 10070 20030 30267 40299 50004 60006 81530 92100=
07690,1998-12-14 00:00:00,6,1030.2,0.2,81,3,12000,22.224,,,330,,,,,,,,,,,wg-a,,,,AAXX 14004 07690 12462 53312 10060 20030 30269 40302 50002 60006 81501 90000=
07690,1998-12-14 06:00:00,6,1029.6,-0.4,70,1,15000,22.224,,,330,5.2,7.8,,,,,,,,,wg-a,,,,AAXX 14064 07690 02565 73312 10060 20010 30263 40296 56004 60006 81502 90600 333 10078 20052 60004=
07690,1998-12-14 09:00:00,7,1029.7,0.2,61,0,9000,18.52,,,330,,,,,,,,,,,wg-a,,,,AAXX 14094 07690 12459 /3310 10070 20000 30265 40297 53002 60006 81672 90900=
07690,1998-12-14 12:00:00,10,1028.5,-1.2,50,0,9000,14.816,,,330,,,,,,,,,,,wg-a,,,,AAXX 14124 07690 12459 73308 10100 20000 30253 40285 58012 60006 8457/ 91200=
07690,1998-12-14 15:00:00,9,1027.6,,61,2,6000,14.816,,,330,,,,,,,,,,,wg-a,,,,AAXX 14154 07690 32456 73308 10090 20020 30243 40276 83572 91500=
07690,1998-12-14 18:00:00,8,1027.2,-0.4,76,4,9000,18.52,,,330,5.8,9.7,,,,,,,,,wg-a,,,,AAXX 14184 07690 12459 73310 10080 20040 30239 40272 58004 60006 85572 91800 333 10097 20058=
07690,1998-12-15 00:00:00,6,1027.5,-0,70,1,12000,22.224,,,330,,,,,,,,,,,wg-a,,,,AAXX 15004 07690 12462 33312 10060 20010 30241 40275 54000 60006 81502 90000=
07690,1998-12-15 06:00:00,5,1027.8,0.5,65,-1,20000,22.224,,,330,4.6,8.4,,,,,,,,,wg-a,,,,AAXX 15064 07690 02570 /3312 10050 21010 30244 40278 53005 60006 81502 90600 333 10084 20046 60004=
07690,1998-12-15 09:00:00,8,1028.7,0.9,46,-3,12000,18.52,,,330,,,,,,,,,,,wg-a,,,,AAXX 15094 07690 12/62 33310 10080 21030 30253 40287 51009 60006 81032 90900=
07690,1998-12-15 12:00:00,14,1028.1,-0.5,72,9,8000,11.112,,,190,,,,,,,,,,,wg-a,,,,AAXX 15124 07690 12/58 31906 10140 20090 30248 40281 58005 60006 80002 91200=
07690,1998-12-15 15:00:00,13,1027.8,-0.3,82,10,10000,11.112,,,200,,,,,,,,,,,wg-a,,,,AAXX 15154 07690 12760 32006 10130 20100 30245 40278 55003 60006 81501 91500=
07690,1998-12-15 18:00:00,8,1028.5,0.6,81,5,8000,11.112,,,320,4.5,15.3,,,,,,,,,wg-a,,,,AAXX 15184 07690 12458 53206 10080 20050 30251 40285 52006 60006 83501 91800 333 10153 20045=
07690,1998-12-15 21:00:00,6,1028.8,0.3,81,3,7000,14.816,,,330,,,,,,,,,,,wg-a,,,,AAXX 15214 07690 12457 /3308 10060 20030 30254 40288 51003 60006 83500 92100=
07690,1998-12-16 00:00:00,5,1029.1,0.3,75,1,8000,18.52,,,320,,,,,,,,,,,wg-a,,,,AAXX 16004 07690 12458 /3210 10050 20010 30257 40291 51003 60006 86500 90000=
07690,1998-12-16 03:00:00,4,1028.1,-1,81,1,7000,18.52,,,320,,,,,,,,,,,wg-a,,,,AAXX 16034 07690 12157 /3210 10040 20010 30247 40281 58010 60006 85600 90300=
07690,1998-12-16 06:00:00,4,1026.8,-1.3,65,-2,10000,14.816,,,320,3.4,8.3,,,,,,,,,wg-a,,,,AAXX 16064 07690 02260 73208 10040 21020 30234 40268 56013 60006 875// 90600 333 10083 20034 60004=
07690,1998-12-16 09:00:00,6,1028.1,1.3,52,-3,7000,18.52,,,330,,,,,,,,,,,wg-a,,,,AAXX 16094 07690 12457 33310 10060 21030 30247 40281 53013 60006 83500 90900=
07690,1998-12-16 12:00:00,14,1025.8,-2.2,58,6,8000,7.408,,,240,,,,,,,,,,,wg-a,,,,AAXX 16124 07690 12/58 /2404 10140 20060 30225 40258 58022 60006 80001 91200=
07690,1998-12-16 15:00:00,13,1025.9,0.1,72,8,9000,7.408,,,200,,,,,,,,,,,wg-a,,,,AAXX 16154 07690 12/59 42004 10130 20080 30226 40259 53001 60006 80001 91500=
07690,1998-12-16 18:00:00,8,1026.9,1,87,6,7000,14.816,,,330,4.3,14.6,,,,,,,,,wg-a,,,,AAXX 16184 07690 12/57 /3308 10080 20060 30236 40269 53010 60006 80000 91800 333 10146 20043=
07690,1998-12-16 21:00:00,6,1028.4,1.4,87,4,4000,18.52,,,330,,,,,,,,,,,wg-a,,,,AAXX 16214 07690 12/40 /3310 10060 20040 30250 40284 53014 60006 92100=
07690,1998-12-17 00:00:00,5,1028.1,-0.3,75,1,12000,22.224,,,330,,,,,,,,,,,wg-a,,,,AAXX 17004 07690 12/62 03312 10050 20010 30247 40281 56003 60006 80000 90000=
07690,1998-12-17 03:00:00,4,1027.3,-0.8,75,0,20000,14.816,,,330,,,,,,,,,,,wg-a,,,,AAXX 17034 07690 12/70 03308 10040 20000 30239 40273 58008 60006 80000 90300=
07690,1998-12-17 06:00:00,5,1027.7,0.4,65,-1,17000,22.224,,,330,4.3,8,,,,,,,,,wg-a,,,,AAXX 17064 07690 02/67 03312 10050 21010 30243 40277 53004 60006 80000 90600 333 10080 20043 60004=
07690,1998-12-17 12:00:00,14,1028.5,0,36,-1,15000,3.704,,,360,,,,,,,,,,,wg-a,,,,AAXX 17124 07690 12/65 63602 10140 21010 30252 40285 50000 60006 81032 91200=
07690,1998-12-17 18:00:00,9,1029.8,1.4,66,3,11000,22.224,,,320,4.9,15.8,,,,,,,,,wg-a,,,,AAXX 17184 07690 12/61 33212 10090 20030 30264 40298 51014 60006 80002 91800 333 10158 20049=
07690,1998-12-17 21:00:00,9,1029.6,-0.1,57,1,12000,22.224,,,330,,,,,,,,,,,wg-a,,,,AAXX 17214 07690 12/62 03312 10090 20010 30263 40296 58001 60006 80000 92100=
07690,1998-12-18 00:00:00,9,1028.6,-1,53,0,15000,29.632,,,330,,,,,,,,,,,wg-a,,,,AAXX 18004 07690 12/65 03316 10090 20000 30253 40286 58010 60006 80000 90000=
07690,1998-12-18 03:00:00,8,1027.6,-1.1,53,-1,15000,29.632,,,330,,,,,,,,,,,wg-a,,,,AAXX 18034 07690 12/65 03316 10080 21010 30242 40276 56011 60006 80000 90300=
07690,1998-12-18 06:00:00,8,1027.5,-0.1,49,-2,15000,29.632,,,330,7.6,9.4,,,,,,,,,wg-a,,,,AAXX 18064 07690 02/65 13316 10080 21020 30241 40275 55001 60006 80001 90600 333 10094 20076 60004=
07690,1998-12-18 09:00:00,9,1028.7,1.3,46,-2,50000,29.632,,,330,,,,,,,,,,,wg-a,,,,AAXX 18094 07690 12/84 23316 10090 21020 30254 40287 51013 60006 80001 90900=
07690,1998-12-18 12:00:00,14,1026.4,-2.3,38,0,500,14.816,,,320,,,,,,,,,,,wg-a,,,,AAXX 18124 07690 12/00 23208 10140 20000 30231 40264 58023 60006 80001 91200=
07690,1998-12-18 15:00:00,15,1025.3,-1.1,63,8,35000,18.52,,,220,,,,,,,,,,,wg-a,,,,AAXX 18154 07690 12/81 52210 10150 20080 30220 40253 56011 60006 80002 91500=
07690,1998-12-18 18:00:00,9,1024.2,-1.1,66,3,25000,22.224,,,330,7.4,16.8,,,,,,,,,wg-a,,,,AAXX 18184 07690 12/75 53312 10090 20030 30209 40242 58011 60006 80002 91800 333 10168 20074=
07690,1998-12-18 21:00:00,9,1023.4,-0.8,53,0,20000,14.816,,,330,,,,,,,,,,,wg-a,,,,AAXX 18214 07690 12/70 23308 10090 20000 30201 40234 58008 60006 80002 92100=
07690,1998-12-19 00:00:00,8,1021.8,-1.6,49,-2,20000,18.52,,,330,,,,,,,,,,,wg-a,,,,AAXX 19004 07690 12/70 03310 10080 21020 30185 40218 58016 60006 80000 90000=
07690,1998-12-19 03:00:00,6,1020,-1.9,56,-2,20000,22.224,,,320,,,,,,,,,,,wg-a,,,,AAXX 19034 07690 12/70 03212 10060 21020 30166 40200 56019 60006 80000 90300=
07690,1998-12-19 06:00:00,5,1017.9,-2.1,65,-1,500,18.52,,,340,4.8,9.3,,,,,,,,,wg-a,,,,AAXX 19064 07690 02/00 53410 10050 21010 30145 40179 56021 60006 81031 90600 333 10093 20048 60004=
07690,1998-12-19 09:00:00,6,1017.3,-0.5,56,-2,35000,22.224,,,330,,,,,,,,,,,wg-a,,,,AAXX 19094 07690 12/81 13312 10060 21020 30140 40173 58005 60006 80001 90900=
07690,1998-12-19 12:00:00,13,1014.3,-2.9,67,7,12000,7.408,,,100,,,,,,,,,,,wg-a,,,,AAXX 19124 07690 12462 51004 10130 20070 30111 40143 58029 60006 81132 91200=
07690,1998-12-19 15:00:00,13,1013,-1.3,72,8,10000,11.112,,,120,,,,,,,,,,,wg-a,,,,AAXX 19154 07690 12460 61206 10130 20080 30098 40130 56013 60006 84132 91500=
07690,1998-12-19 18:00:00,9,1012.9,-0.2,87,7,8000,11.112,,,320,4.3,13.7,,,,,,,,,wg-a,,,,AAXX 19184 07690 12558 63206 10090 20070 30096 40129 57002 60006 81132 91800 333 10137 20043=
07690,1998-12-19 21:00:00,8,1012.5,-0.4,87,6,8000,18.52,,,330,,,,,,,,,,,wg-a,,,,AAXX 19214 07690 12458 73310 10080 20060 30092 40125 58004 60006 878// 92100=
07690,1998-12-20 00:00:00,8,1011.3,-1.2,81,5,12000,14.816,,,340,,,,,,,,,,,wg-a,,,,AAXX 20004 07690 12562 53408 10080 20050 30080 40113 58012 60006 82502 90000=
07690,1998-12-20 03:00:00,7,1010.2,-1.1,70,2,12000,22.224,,,330,,,,,,,,,,,wg-a,,,,AAXX 20034 07690 12562 53312 10070 20020 30069 40102 56011 60006 82502 90300=
07690,1998-12-20 06:00:00,7,1008.2,-2,66,1,12000,25.928,,,330,6.1,9.4,,,,,,,,,wg-a,,,,AAXX 20064 07690 02562 73314 10070 20010 30049 40082 58020 60006 875// 90600 333 10094 20061 60004=
07690,1998-12-20 09:00:00,8,1006.9,-1.3,53,-1,12000,22.224,,,330,,,,,,,,,,,wg-a,,,,AAXX 20094 07690 12662 73312 10080 21010 30036 40069 58013 60006 8657/ 90900=
07690,1998-12-20 12:00:00,10,1004.8,-2.1,57,2,11000,11.112,,,320,,,,,,,,,,,wg-a,,,,AAXX 20124 07690 12661 83206 10100 20020 30015 40048 57021 60006 8657/ 91200=
07690,1998-12-20 15:00:00,8,1001.4,-3.4,76,4,6000,14.816,,,340,,,,0,,,,,,60,wg-a,,,,AAXX 20154 07690 12556 83408 10080 20040 39981 40014 56034 60007 76062 875// 91500=
07690,1998-12-20 18:00:00,8,999.7,-1.7,81,5,12000,14.816,,,330,6.5,10.4,,,,,,,,3,wg-a,,,,AAXX 20184 07690 02462 83308 10080 20050 39964 49997 58017 60006 70362 8552/ 91800 333 10104 20065 61000=
07690,1998-12-20 21:00:00,6,999.8,0.1,93,5,6000,11.112,,,30,,,,8,,,,,,63,wg-a,,,,AAXX 20214 07690 12356 80306 10060 20050 39965 49998 53001 60087 76362 8687/ 92100=
07690,1998-12-21 00:00:00,6,999.5,-0.3,93,5,10000,7.408,,,320,,,,8,,,,,,61,wg-a,,,,AAXX 21004 07690 02260 83204 10060 20050 39962 49995 58003 60166 76162 8687/ 90000 333 60087=
07690,1998-12-21 06:00:00,6,998.8,0.2,93,5,15000,22.224,,,320,5.5,7.8,,,,,18,,,1,wg-a,,,,AAXX 21064 07690 02465 /3212 10060 20050 39955 49988 53002 60006 70162 8387/ 90600 333 10078 20055 60184=
07690,1998-12-21 09:00:00,7,1000.2,1.4,81,4,500,22.224,,,330,,,,,,,,,,,wg-a,,,,AAXX 21094 07690 12500 33312 10070 20040 39969 40002 53014 60006 81832 90900=
07690,1998-12-21 12:00:00,13,1001.1,1,67,7,10000,11.112,,,310,,,,,,,,,,,wg-a,,,,AAXX 21124 07690 12560 /3106 10130 20070 39979 40011 53010 60006 81830 91200=
07690,1998-12-21 15:00:00,12,1004.3,3.2,67,6,500,7.408,,,230,,,,,,,,,,,wg-a,,,,AAXX 21154 07690 12700 52304 10120 20060 30011 40043 53032 60006 83530 91500=
07690,1998-12-21 18:00:00,8,1008.4,4,76,4,12000,18.52,,,330,5.5,14.6,,,,,,,,,wg-a,,,,AAXX 21184 07690 12/62 /3310 10080 20040 30051 40084 52040 60006 80000 91800 333 10146 20055=
07690,1998-12-21 21:00:00,6,1011.6,3.2,70,1,15000,18.52,,,330,,,,,,,,,,,wg-a,,,,AAXX 21214 07690 12/65 03310 10060 20010 30083 40116 53032 60006 80000 92100=
07690,1998-12-22 00:00:00,5,1014.4,2.8,70,0,50000,14.816,,,320,,,,,,,,,,,wg-a,,,,AAXX 22004 07690 12/84 /3208 10050 20000 30111 40144 52028 60006 90000=
07690,1998-12-22 03:00:00,5,1016.7,2.2,65,-1,20000,22.224,,,330,,,,,,,,,,,wg-a,,,,AAXX 22034 07690 12870 33312 10050 21010 30133 40167 53022 60006 83030 90300=
07690,1998-12-22 06:00:00,4,1018.5,1.8,65,-2,20000,25.928,,,330,3.6,7.6,,,,,,,,,wg-a,,,,AAXX 22064 07690 02670 /3314 10040 21020 30151 40185 51018 60006 81500 90600 333 10076 20036 60004=
07690,1998-12-22 09:00:00,5,1021.2,2.7,60,-2,40000,25.928,,,330,,,,,,,,,,,wg-a,,,,AAXX 22094 07690 12782 /3314 10050 21020 30178 40212 51027 60006 81500 90900=
07690,1998-12-22 12:00:00,12,1021.1,0,40,-1,35000,7.408,,,190,,,,,,,,,,,wg-a,,,,AAXX 22124 07690 12781 /1904 10120 21010 30178 40211 50000 60006 81500 91200=
07690,1998-12-22 15:00:00,13,1021.8,0.7,51,3,35000,7.408,,,220,,,,,,,,,,,wg-a,,,,AAXX 22154 07690 12681 /2204 10130 20030 30185 40218 53007 60006 81530 91500=
07690,1998-12-22 18:00:00,6,1023,1.1,75,2,20000,18.52,,,320,3.5,12.9,,,,,,,,,wg-a,,,,AAXX 22184 07690 12/70 /3210 10060 20020 30196 40230 53011 60006 81030 91800 333 10129 20035=
07690,1998-12-22 21:00:00,5,1024.1,1.1,70,0,20000,22.224,,,330,,,,,,,,,,,wg-a,,,,AAXX 22214 07690 12/70 03312 10050 20000 30207 40241 53011 60006 80000 92100=
07690,1998-12-23 00:00:00,4,1025,0.9,75,0,20000,22.224,,,330,,,,,,,,,,,wg-a,,,,AAXX 23004 07690 12/70 03312 10040 20000 30216 40250 51009 60006 80000 90000=
07690,1998-12-23 03:00:00,4,1025.8,0.8,70,-1,20000,25.928,,,330,,,,,,,,,,,wg-a,,,,AAXX 23034 07690 12/70 03314 10040 21010 30224 40258 51008 60006 80000 90300=
07690,1998-12-23 06:00:00,3,1026.2,0.4,75,-1,20000,22.224,,,330,3.1,5.7,,,,,,,,,wg-a,,,,AAXX 23064 07690 02570 /3312 10030 21010 30228 40262 53004 60006 81500 90600 333 10057 20031 60004=
07690,1998-12-23 09:00:00,5,1027.8,1.6,65,-1,25000,25.928,,,330,,,,,,,,,,,wg-a,,,,AAXX 23094 07690 12675 53314 10050 21010 30244 40278 52016 60006 81531 90900=
07690,1998-12-23 12:00:00,10,1026.7,-1,53,1,25000,3.704,,,330,,,,,,,,,,,wg-a,,,,AAXX 23124 07690 12675 53302 10100 20010 30234 40267 58010 60006 81532 91200=
07690,1998-12-23 15:00:00,10,1025.9,-0.8,57,2,500,11.112,,,90,,,,,,,,,,,wg-a,,,,AAXX 23154 07690 12600 40906 10100 20020 30226 40259 56008 60006 82502 91500=
07690,1998-12-23 18:00:00,6,1026.7,0.7,75,2,15000,14.816,,,320,2.9,11.7,,,,,,,,,wg-a,,,,AAXX 23184 07690 12665 33208 10060 20020 30233 40267 52007 60006 83500 91800 333 10117 20029=
07690,1998-12-23 21:00:00,5,1027.2,0.5,75,1,15000,22.224,,,330,,,,,,,,,,0,wg-a,,,,AAXX 23214 07690 32465 53312 10050 20010 30238 40272 52005 700// 85800 92100=
07690,1998-12-24 00:00:00,5,1026.9,-0.3,75,1,15000,22.224,,,330,,,,,,,,,,0,wg-a,,,,AAXX 24004 07690 32465 23312 10050 20010 30235 40269 58003 700// 81570 90000=
07690,1998-12-24 03:00:00,4,1025.8,-1.1,75,0,15000,14.816,,,340,,,,,,,,,,0,wg-a,,,,AAXX 24034 07690 32465 73408 10040 20000 30224 40258 58011 700// 875// 90300=
07690,1998-12-24 06:00:00,5,1025.1,-0.7,70,0,15000,22.224,,,340,4.1,6,,,,,,,,0,wg-a,,,,AAXX 24064 07690 12465 73412 10050 20000 30217 40251 56007 60004 700// 8353/ 90600 333 10060 20041=
07690,1998-12-24 12:00:00,8,1023.3,-1.8,57,0,20000,11.112,,,330,,,,,,,,,,3,wg-a,,,,AAXX 24124 07690 32470 73306 10080 20000 30200 40233 58018 70362 8353/ 91200=
07690,1998-12-24 15:00:00,7,1022.9,-0.4,87,5,6000,14.816,,,90,,,,2,,,,,,61,wg-a,,,,AAXX 24154 07690 12156 80908 10070 20050 30196 40229 55004 60027 76162 8527/ 91500=
07690,1998-12-24 18:00:00,6,1023.1,0.1,87,4,9000,14.816,,,330,4.6,8.7,,2,,,,,,21,wg-a,,,,AAXX 24184 07690 12459 83308 10060 20040 30197 40231 53001 60027 72162 8527/ 91800 333 10087 20046=
07690,1998-12-24 21:00:00,6,1023.6,0.5,81,3,12000,14.816,,,340,,,,,,,,,,0,wg-a,,,,AAXX 24214 07690 32462 83408 10060 20030 30202 40236 51005 700// 878// 92100=
07690,1998-12-25 00:00:00,6,1024.4,0.8,81,3,12000,18.52,,,330,,,,,,,,,,0,wg-a,,,,AAXX 25004 07690 32662 73310 10060 20030 30210 40244 51008 700// 8553/ 90000=
07690,1998-12-25 03:00:00,6,1025.7,1.3,75,2,15000,18.52,,,330,,,,,,,,,,0,wg-a,,,,AAXX 25034 07690 32465 83310 10060 20020 30223 40257 51013 700// 8587/ 90300=
07690,1998-12-25 06:00:00,5,1027,1.3,81,2,15000,18.52,,,330,5.4,6.1,,,,,3,,,0,wg-a,,,,AAXX 25064 07690 12565 43310 10050 20020 30236 40270 53013 60034 700// 8113/ 90600 333 10061 20054=
07690,1998-12-25 09:00:00,6,1028.9,1.9,75,2,500,22.224,,,330,,,,,,,,,,0,wg-a,,,,AAXX 25094 07690 32500 /3312 10060 20020 30255 40289 51019 700// 81530 90900=
07690,1998-12-25 12:00:00,12,1028.6,-0.2,47,1,500,11.112,,,80,,,,,,,,,,0,wg-a,,,,AAXX 25124 07690 32/00 00806 10120 20010 30253 40286 58002 700// 80000 91200=
07690,1998-12-25 15:00:00,12,1028.8,0.2,58,4,25000,11.112,,,100,,,,,,,,,,0,wg-a,,,,AAXX 25154 07690 32575 11006 10120 20040 30255 40288 53002 700// 81500 91500=
07690,1998-12-25 18:00:00,6,1029.8,0.9,81,3,15000,14.816,,,320,4.6,12.4,,,,,,,,0,wg-a,,,,AAXX 25184 07690 32/65 03208 10060 20030 30264 40298 51009 700// 80000 91800 333 10124 20046=
07690,1998-12-25 21:00:00,5,1030,0.2,81,2,15000,22.224,,,330,,,,,,,,,,0,wg-a,,,,AAXX 25214 07690 32/65 03312 10050 20020 30266 40300 53002 700// 80000 92100=
07690,1998-12-26 00:00:00,5,1029.4,-0.6,75,1,25000,22.224,,,330,,,,,,,,,,,wg-a,,,,AAXX 26004 07690 12/75 /3312 10050 20010 30260 40294 58006 60006 90000=
07690,1998-12-26 03:00:00,4,1029.7,0.3,75,0,15000,25.928,,,330,,,,,,,,,,,wg-a,,,,AAXX 26034 07690 12/65 03314 10040 20000 30263 40297 53003 60006 80000 90300=
07690,1998-12-26 06:00:00,4,1028.7,-1,75,0,20000,22.224,,,330,3.8,6,,,,,,,,,wg-a,,,,AAXX 26064 07690 02/70 23312 10040 20000 30253 40287 56010 60006 80002 90600 333 10060 20038 60004=
07690,1998-12-26 09:00:00,5,1029.5,0.8,65,-1,40000,22.224,,,330,,,,,,,,,,,wg-a,,,,AAXX 26094 07690 12482 33312 10050 21010 30261 40295 53008 60006 81502 90900=
07690,1998-12-26 12:00:00,11,1028.4,-1,58,3,500,3.704,,,100,,,,,,,,,,,wg-a,,,,AAXX 26124 07690 12400 /1002 10110 20030 30251 40284 58010 60006 81132 91200=
07690,1998-12-26 15:00:00,11,1027.5,-0.9,66,5,500,0,,,0,,,,,,,,,,,wg-a,,,,AAXX 26154 07690 12400 /0000 10110 20050 30242 40275 55009 60006 81132 91500=
07690,1998-12-26 18:00:00,6,1028.5,0.9,81,3,12000,18.52,,,330,3.6,11.9,,,,,,,,,wg-a,,,,AAXX 26184 07690 12/62 /3310 10060 20030 30251 40285 51009 60006 80000 91800 333 10119 20036=
07690,1998-12-26 21:00:00,5,1027.9,-0.6,81,2,12000,22.224,,,330,,,,,,,,,,,wg-a,,,,AAXX 26214 07690 12/62 23312 10050 20020 30245 40279 56006 60006 82030 92100=
07690,1998-12-27 00:00:00,5,1026.7,-1.2,75,1,15000,22.224,,,330,,,,,,,,,,,wg-a,,,,AAXX 27004 07690 12/65 23312 10050 20010 30233 40267 58012 60006 80002 90000=
07690,1998-12-27 03:00:00,4,1026.2,-0.5,75,0,15000,22.224,,,330,,,,,,,,,,,wg-a,,,,AAXX 27034 07690 12565 /3312 10040 20000 30228 40262 56005 60006 81500 90300=
07690,1998-12-27 06:00:00,4,1025.3,-0.9,75,0,15000,22.224,,,330,3.9,5.8,,,,,,,,,wg-a,,,,AAXX 27064 07690 02465 /3312 10040 20000 30219 40253 55009 60006 81530 90600 333 10058 20039 60004=
07690,1998-12-27 09:00:00,6,1025.1,-0.2,65,0,20000,22.224,,,330,,,,,,,,,,,wg-a,,,,AAXX 27094 07690 12570 53312 10060 20000 30217 40251 56002 60006 82541 90900=
07690,1998-12-27 12:00:00,10,1023.9,-1.1,76,6,12000,7.408,,,270,,,,,,,,,,,wg-a,,,,AAXX 27124 07690 12662 72704 10100 20060 30206 40239 58011 60006 87541 91200=
07690,1998-12-27 15:00:00,11,1022.8,-1.1,76,7,8000,3.704,,,310,,,,,,,,,,,wg-a,,,,AAXX 27154 07690 12/58 /3102 10110 20070 30195 40228 56011 60006 91500=
07690,1998-12-27 18:00:00,8,1023.4,0.6,81,5,9000,18.52,,,320,4,10.9,,,,,,,,,wg-a,,,,AAXX 27184 07690 12759 73210 10080 20050 30201 40234 51006 60006 87501 91800 333 10109 20040=
07690,1998-12-27 21:00:00,7,1023.7,0.2,81,4,10000,22.224,,,330,,,,,,,,,,,wg-a,,,,AAXX 27214 07690 12460 /3312 10070 20040 30203 40237 53002 60006 81800 92100=
07690,1998-12-28 00:00:00,6,1023.3,-0.4,81,3,10000,25.928,,,330,,,,,,,,,,,wg-a,,,,AAXX 28004 07690 12460 23314 10060 20030 30199 40233 58004 60006 82500 90000=
07690,1998-12-28 06:00:00,7,1022.8,0.1,70,2,12000,25.928,,,330,6.3,7.4,,,,,,,,,wg-a,,,,AAXX 28064 07690 02462 73314 10070 20020 30194 40228 53001 60006 878// 90600 333 10074 20063 60004=
07690,1998-12-28 09:00:00,7,1023.2,0.4,70,2,25000,25.928,,,330,,,,,,,,,,,wg-a,,,,AAXX 28094 07690 12575 73314 10070 20020 30198 40232 53004 60006 878// 90900=
07690,1998-12-28 12:00:00,9,1022.1,-1,66,3,25000,14.816,,,330,,,,,,,,,,,wg-a,,,,AAXX 28124 07690 12575 73308 10090 20030 30188 40221 58010 60006 8553/ 91200=
07690,1998-12-28 18:00:00,9,1021.6,0.5,66,3,12000,11.112,,,330,6.3,10.4,,,,,,,,,wg-a,,,,AAXX 28184 07690 12562 73306 10090 20030 30183 40216 53005 60006 875// 91800 333 10104 20063=
07690,1998-12-28 21:00:00,9,1021.4,-0.2,71,4,11000,14.816,,,330,,,,,,,,,,,wg-a,,,,AAXX 28214 07690 12561 73308 10090 20040 30181 40214 55002 60006 875// 92100=
07690,1998-12-29 00:00:00,7,1021.2,-0.2,93,6,8000,14.816,,,330,,,,1,,,,,,61,wg-a,,,,AAXX 29004 07690 02558 83308 10070 20060 30179 40212 58002 60016 76162 885// 90000 333 60017=
07690,1998-12-29 03:00:00,8,1020.1,-1.1,81,5,12000,14.816,,,330,,,,,,,,,,1,wg-a,,,,AAXX 29034 07690 02662 83308 10080 20050 30168 40201 58011 61000 70162 875// 90300 333 ////=
07690,1998-12-29 06:00:00,8,1020.3,0.2,76,4,15000,14.816,,,330,7,9,,,,,1,,,3,wg-a,,,,AAXX 29064 07690 02665 83308 10080 20040 30170 40203 53002 60006 70362 8657/ 90600 333 10090 20070 60014=
07690,1998-12-29 09:00:00,9,1021.4,1.1,71,4,12000,14.816,,,330,,,,,,,,,,,wg-a,,,,AAXX 29094 07690 12562 73308 10090 20040 30181 40214 53011 60006 878// 90900=
07690,1998-12-29 12:00:00,11,1020.7,-0.7,66,5,10000,11.112,,,80,,,,,,,,,,,wg-a,,,,AAXX 29124 07690 12560 70806 10110 20050 30174 40207 58007 60006 8587/ 91200=
07690,1998-12-29 15:00:00,12,1019.7,-1,71,7,25000,14.816,,,90,,,,,,,,,,,wg-a,,,,AAXX 29154 07690 12675 50908 10120 20070 30164 40197 56010 60006 83531 91500=
07690,1998-12-29 18:00:00,12,1020.4,0.7,67,6,15000,29.632,,,90,8.1,12.9,,,,,,,,,wg-a,,,,AAXX 29184 07690 12665 70916 10120 20060 30171 40204 53007 60006 875// 91800 333 10129 20081=
07690,1998-12-29 21:00:00,9,1020.2,-0.2,81,6,15000,14.816,,,330,,,,,,,,,,0,wg-a,,,,AAXX 29214 07690 32665 73308 10090 20060 30169 40202 58002 700// 875// 92100=
07690,1998-12-30 00:00:00,10,1020.2,-0,76,6,15000,14.816,,,330,,,,,,,,,,0,wg-a,,,,AAXX 30004 07690 32665 73308 10100 20060 30169 40202 55000 700// 875// 90000=
07690,1998-12-30 03:00:00,9,1019.8,-0.4,76,5,15000,14.816,,,330,,,,,,,,,,0,wg-a,,,,AAXX 30034 07690 32665 73308 10090 20050 30165 40198 57004 700// 875// 90300=
07690,1998-12-30 06:00:00,9,1020.1,0.3,76,5,15000,18.52,,,330,8.6,12.1,,,,,,,,0,wg-a,,,,AAXX 30064 07690 12565 73310 10090 20050 30168 40201 53003 60004 700// 875// 90600 333 10121 20086=
07690,1998-12-30 09:00:00,9,1020.9,0.8,76,5,35000,14.816,,,330,,,,,,,,,,0,wg-a,,,,AAXX 30094 07690 32581 83308 10090 20050 30176 40209 53008 700// 875// 90900=
07690,1998-12-30 12:00:00,11,1020.1,-0.8,71,6,20000,11.112,,,40,,,,,,,,,,0,wg-a,,,,AAXX 30124 07690 32470 70406 10110 20060 30168 40201 58008 700// 878// 91200=
07690,1998-12-30 15:00:00,13,1019.6,-0.5,58,5,35000,25.928,,,70,,,,,,,,,,0,wg-a,,,,AAXX 30154 07690 32481 /0714 10130 20050 30163 40196 55005 700// 82830 91500=
07690,1998-12-30 18:00:00,11,1020.3,0.7,66,5,20000,22.224,,,60,8.5,13.3,,,,,,,,0,wg-a,,,,AAXX 30184 07690 32670 /0612 10110 20050 30170 40203 53007 700// 81530 91800 333 10133 20085=
07690,1998-12-30 21:00:00,9,1020.5,0.2,66,3,25000,29.632,,,70,,,,,,,,,,0,wg-a,,,,AAXX 30214 07690 32775 50716 10090 20030 30172 40205 53002 700// 83530 92100=
07690,1998-12-31 00:00:00,7,1020,-0.5,76,3,20000,18.52,,,330,,,,,,,,,,,wg-a,,,,AAXX 31004 07690 32/70 /3310 10070 20030 30167 40200 58005 90000=
07690,1998-12-31 03:00:00,8,1019.2,-0.8,66,2,20000,18.52,,,330,,,,,,,,,,0,wg-a,,,,AAXX 31034 07690 32670 73310 10080 20020 30159 40192 58008 700// 8557/ 90300=
07690,1998-12-31 06:00:00,12,1018.3,-0.9,71,7,25000,38.892,,,80,6.9,12.4,,,,,,,,0,wg-a,,,,AAXX 31064 07690 12575 70821 10120 20070 30150 40183 56009 60004 700// 8557/ 90600 333 10124 20069=
07690,1998-12-31 12:00:00,13,1016.8,-1.9,67,7,500,42.596,,,80,,,,,,,,,,0,wg-a,,,,AAXX 31124 07690 32500 80823 10130 20070 30135 40168 58019 700// 8187/ 91200=
07690,1998-12-31 18:00:00,9,1015.1,-0.7,87,7,10000,22.224,,,40,9.2,13.5,,8,,,,,,61,wg-a,,,,AAXX 31184 07690 12460 80412 10090 20070 30118 40151 58007 60087 76162 8682/ 91800 333 10135 20092=
07690,1998-12-31 21:00:00,9,1014.7,-0.4,87,7,10000,14.816,,,20,,,,6,,,,,,61,wg-a,,,,AAXX 31214 07690 12360 80208 10090 20070 30114 40147 58004 60067 76166 872// 92100=
