station_id,dh_utc,temperature,pression,pression_variation_3h,humidite,point_de_rosee,visibilite,vent_moyen,vent_rafales,vent_rafales_10min,vent_direction,temperature_min,temperature_max,pluie_1h,pluie_3h,pluie_6h,pluie_12h,pluie_24h,ensoleillement,temperature_sol,temps_omm,source,radiations,neige_au_sol,nebulosite,raw_msg
07181,1997-02-23 06:00:00,8,1024.9,-1.1,93,7,500,22.224,,,180,7,,,,,,,,,10,wg-a,,,,AAXX 23064 07181 12500 71812 10080 20070 30241 40249 57011 60006 71021 83528 90600 333 20070=
07181,1997-03-01 12:00:00,16,1028.6,-1,55,7,28000,0,,,180,,,,,,,,,,,wg-a,,,,AAXX 01124 07181 12/78 /18// 10160 20070 30034 40286 58010 60006 91200=
07181,1997-04-07 18:00:00,9,1034.8,1.1,31,-7,65000,0,,,170,,,,,,,,,,14,wg-a,,,,AAXX 07184 07181 12487 317// 10090 21070 39701 40348 52011 60006 71411 8/400 91800=
07181,1997-05-07 18:00:00,9,1001.5,-0.1,,,20000,11.112,,,340,4.2,10.3,,,,,,,,1,wg-a,,,,AAXX 07184 07181 32670 53406 10090 2//// 39763 40015 57001 70187 81802 91800 333 10103 20042=
07181,1997-08-19 12:00:00,28,1016,-0.8,45,15,13000,3.704,,,260,,,,,,,,,,,wg-a,,,,AAXX 19124 07181 12663 22602 10280 20150 39921 40160 56008 60006 81201 91200=
07181,1997-08-29 00:00:00,13,1018.3,1.2,88,11,24000,18.52,,,340,,,,,,,,,,,wg-a,,,,AAXX 29004 07181 12574 23410 10130 20110 30175 40183 52012 60006 82110 90000=
07181,1997-10-18 12:00:00,18,1022.5,-1.2,73,13,2100,18.52,,,180,,,,,,,,,,1,wg-a,,,,AAXX 18124 07181 12/21 21810 10180 20130 39976 40225 58012 60006 70141 80001 91200=
