station_id,dh_utc,temperature,pression,pression_variation_3h,humidite,point_de_rosee,visibilite,vent_moyen,vent_rafales,vent_rafales_10min,vent_direction,temperature_min,temperature_max,pluie_1h,pluie_3h,pluie_6h,pluie_12h,pluie_24h,ensoleillement,temperature_sol,temps_omm,source,radiations,neige_au_sol,nebulosite,raw_msg
07181,1999-03-23 13:00:00,5,1015.5,-0.1,100,5,500,29.632,,,230,,,0,,,,,,,51,wg-a,,,,AAXX 23134 07181 12200 82316 10050 20050 39731 40155 58001 60005 75155 885// 91300=
07181,1999-03-23 14:00:00,6,1015.7,0.2,100,6,500,22.224,,,230,,,,,,,,,,51,wg-a,,,,AAXX 23144 07181 02200 82312 10060 20060 39734 40157 53002 61000 75155 885// 91400 333 ////=
07181,1999-03-23 15:00:00,6,1015.5,0.1,100,6,6000,22.224,,,230,,,,0,,,,,,50,wg-a,,,,AAXX 23154 07181 12256 82312 10060 20060 39733 40155 52001 60007 75055 885// 91500=
07181,1999-03-23 16:00:00,6,1015.9,0.6,100,6,6000,18.52,,,240,,,,,,,,,,50,wg-a,,,,AAXX 23164 07181 02256 82410 10060 20060 39737 40159 53006 61000 75055 885// 91600 333 ////=
07181,1999-03-23 17:00:00,7,1016,0.5,100,7,6000,22.224,,,230,,,,,,,,,,20,wg-a,,,,AAXX 23174 07181 02256 82312 10070 20070 39739 40160 53005 61000 72052 887// 91700 333 ////=
07181,1999-03-23 18:00:00,7,1016.5,1.1,100,7,6000,22.224,,,240,1,7,,,,,,,,3,wg-a,,,,AAXX 23184 07181 02256 82412 10070 20070 39744 40165 53011 61000 70352 885// 91800 333 10070 20010 ////=
07181,1999-03-23 19:00:00,7,1017.2,1.3,100,7,10000,22.224,,,230,,,,,,,,,,0,wg-a,,,,AAXX 23194 07181 32260 82312 10070 20070 39750 40172 53013 700// 885// 91900=
07181,1999-03-23 20:00:00,7,1017.6,1.5,100,7,10000,22.224,,,230,,,,,,,,,,0,wg-a,,,,AAXX 23204 07181 32260 72312 10070 20070 39754 40176 51015 700// 875// 92000=
07181,1999-03-23 21:00:00,7,1017.9,1.3,100,7,10000,22.224,,,240,,,,,,,,,,0,wg-a,,,,AAXX 23214 07181 32460 72412 10070 20070 39757 40179 51013 700// 875// 92100=
07181,1999-03-23 22:00:00,7,1018.1,0.9,100,7,10000,18.52,,,230,,,,,,,,,,0,wg-a,,,,AAXX 23224 07181 32460 72310 10070 20070 39759 40181 51009 700// 875// 92200=
07181,1999-03-23 23:00:00,7,1018.1,0.5,100,7,10000,11.112,,,230,,,,,,,,,,0,wg-a,,,,AAXX 23234 07181 32260 82306 10070 20070 39759 40181 51005 700// 885// 92300=
07181,1999-03-24 00:00:00,7,1018.1,0.2,100,7,10000,11.112,,,230,,,,,,,,,,0,wg-a,,,,AAXX 24004 07181 32260 82306 10070 20070 39759 40181 51002 700// 885// 90000=
07181,1999-03-24 01:00:00,7,1018.1,-0,100,7,11000,7.408,,,210,,,,,,,,,,,wg-a,,,,AAXX 24014 07181 32/61 /2104 10070 20070 39759 40181 54000 90100=
07181,1999-03-24 02:00:00,7,1017.6,-0.5,100,7,8000,11.112,,,210,,,,,,,,,,0,wg-a,,,,AAXX 24024 07181 32458 82106 10070 20070 39754 40176 58005 700// 885// 90200=
07181,1999-03-24 03:00:00,7,1017.3,-0.8,100,7,8000,7.408,,,200,,,,,,,,,,0,wg-a,,,,AAXX 24034 07181 32458 82004 10070 20070 39751 40173 58008 700// 885// 90300=
07181,1999-03-24 04:00:00,7,1017.1,-1,100,7,8000,7.408,,,190,,,,,,,,,,0,wg-a,,,,AAXX 24044 07181 32458 81904 10070 20070 39749 40171 56010 700// 885// 90400=
07181,1999-03-24 05:00:00,6,1017,-0.6,100,6,8000,7.408,,,150,,,,,,,,,,0,wg-a,,,,AAXX 24054 07181 32358 71504 10060 20060 39748 40170 56006 700// 875// 90500=
07181,1999-03-24 06:00:00,6,1017.1,-0.3,100,6,4000,3.704,,,210,5.8,7.1,,,,,1,,,10,wg-a,,,,AAXX 24064 07181 12440 52102 10060 20060 39748 40171 56003 60014 71022 84501 90600 333 10071 20058=
07181,1999-03-24 07:00:00,6,1017.1,-0.1,100,6,500,11.112,,,180,,,,,,,,,,0,wg-a,,,,AAXX 24074 07181 32300 71806 10060 20060 39748 40171 56001 700// 876// 90700=
07181,1999-03-24 08:00:00,7,1017.1,0.1,93,6,7000,7.408,,,170,,,,,,,,,,0,wg-a,,,,AAXX 24084 07181 32357 71704 10070 20060 39749 40171 53001 700// 877// 90800=
07181,1999-03-24 09:00:00,8,1016.3,-0.5,87,6,10000,11.112,,,150,,,,,,,,,,0,wg-a,,,,AAXX 24094 07181 32460 /1506 10080 20060 39743 40163 58005 700// 85200 90900=
07181,1999-03-24 10:00:00,9,1015.5,-1,81,6,15000,11.112,,,150,,,,,,,,,,0,wg-a,,,,AAXX 24104 07181 32465 31506 10090 20060 39738 40155 58010 700// 83200 91000=
07181,1999-03-24 11:00:00,11,1014.6,-1.8,71,6,20000,11.112,,,170,,,,,,,,,,0,wg-a,,,,AAXX 24114 07181 32570 31706 10110 20060 39731 40146 58018 700// 83200 91100=
07181,1999-03-24 12:00:00,12,1013.7,-1.9,62,5,20000,7.408,,,150,,,,,,,,,,0,wg-a,,,,AAXX 24124 07181 32670 21504 10120 20050 39724 40137 58019 700// 82501 91200=
07181,1999-03-24 13:00:00,13,1012.8,-2.1,62,6,20000,11.112,,,130,,,,,,,,,,0,wg-a,,,,AAXX 24134 07181 32770 21306 10130 20060 39717 40128 57021 700// 82501 91300=
07181,1999-03-24 14:00:00,14,1012,-2.1,55,5,25000,11.112,,,140,,,,,,,,,,0,wg-a,,,,AAXX 24144 07181 32/75 11406 10140 20050 39710 40120 57021 700// 80001 91400=
07181,1999-03-24 19:00:00,10,1008.9,-1.8,82,7,20000,7.408,,,130,,,,,,,,,,0,wg-a,,,,AAXX 24194 07181 32/70 11304 10100 20070 39676 40089 56018 700// 80001 91900=
07181,1999-03-24 20:00:00,10,1008.4,-1.4,82,7,20000,11.112,,,130,,,,,,,,,,0,wg-a,,,,AAXX 24204 07181 32/70 11306 10100 20070 39671 40084 56014 700// 80001 92000=
07181,1999-03-24 21:00:00,10,1008.2,-1,82,7,20000,14.816,,,140,,,,,,,,,,0,wg-a,,,,AAXX 24214 07181 32/70 11408 10100 20070 39669 40082 56010 700// 80001 92100=
07181,1999-03-24 22:00:00,9,1008.2,-0.8,87,7,20000,11.112,,,150,,,,,,,,,,0,wg-a,,,,AAXX 24224 07181 32/70 11506 10090 20070 39668 40082 56008 700// 80001 92200=
07181,1999-03-24 23:00:00,9,1008.1,-0.6,81,6,20000,11.112,,,140,,,,,,,,,,0,wg-a,,,,AAXX 24234 07181 32/70 11406 10090 20060 39665 40081 58006 700// 80001 92300=
07181,1999-03-25 00:00:00,7,1007.9,-0.8,81,4,20000,3.704,,,130,,,,,,,,,,0,wg-a,,,,AAXX 25004 07181 32/70 11302 10070 20040 39661 40079 58008 700// 80001 90000=
07181,1999-03-25 01:00:00,10,1007.3,-0.9,66,4,20000,18.52,,,180,,,,,,,,,,0,wg-a,,,,AAXX 25014 07181 32/70 11810 10100 20040 39659 40073 56009 700// 80001 90100=
07181,1999-03-25 02:00:00,10,1006.6,-1.2,62,3,20000,22.224,,,190,,,,,,,,,,0,wg-a,,,,AAXX 25024 07181 32/70 11912 10100 20030 39653 40066 58012 700// 80001 90200=
07181,1999-03-25 03:00:00,9,1006.7,-0.9,66,3,20000,14.816,,,180,,,,,,,,,,0,wg-a,,,,AAXX 25034 07181 32/70 11808 10090 20030 39652 40067 56009 700// 80001 90300=
07181,1999-03-25 04:00:00,9,1006.4,-1,61,2,20000,18.52,,,180,,,,,,,,,,0,wg-a,,,,AAXX 25044 07181 32/70 11810 10090 20020 39649 40064 56010 700// 80001 90400=
07181,1999-03-25 05:00:00,10,1006.2,-0.5,50,0,20000,18.52,,,180,,,,,,,,,,0,wg-a,,,,AAXX 25054 07181 32/70 31810 10100 20000 39648 40062 57005 700// 80001 90500=
07181,1999-03-25 06:00:00,8,1006.6,-0.2,61,1,20000,14.816,,,170,7.2,11.8,,,,,,,,0,wg-a,,,,AAXX 25064 07181 12770 51708 10080 20010 39650 40066 55002 60004 700// 82501 90600 333 10118 20072=
07181,1999-03-25 07:00:00,10,1006.4,0.2,57,2,20000,22.224,,,190,,,,,,,,,,0,wg-a,,,,AAXX 25074 07181 32770 71912 10100 20020 39651 40064 53002 700// 85501 90700=
07181,1999-03-25 08:00:00,11,1006.3,0.3,54,2,20000,22.224,,,200,,,,,,,,,,0,wg-a,,,,AAXX 25084 07181 32770 72012 10110 20020 39651 40063 51003 700// 86501 90800=
07181,1999-03-25 10:00:00,11,1005.2,-0.9,71,6,15000,14.816,,,160,,,,,,,,,,21,wg-a,,,,AAXX 25104 07181 02765 71608 10110 20060 39642 40052 58009 61000 72162 865// 91000 333 ////=
07181,1999-03-25 11:00:00,13,1004.7,-1.3,58,5,20000,14.816,,,200,,,,,,,,,,0,wg-a,,,,AAXX 25114 07181 32670 72008 10130 20050 39638 40047 58013 700// 8453/ 91100=
07181,1999-03-25 12:00:00,13,1004.2,-1.4,58,5,20000,22.224,,,210,,,,,,,,,,3,wg-a,,,,AAXX 25124 07181 02670 72112 10130 20050 39634 40042 56014 61000 70362 8553/ 91200 333 ////=
07181,1999-03-25 14:00:00,15,1002.4,-1.8,55,6,20000,0,,,0,,,,,,,,,,0,wg-a,,,,AAXX 25144 07181 32670 /0000 10150 20060 39620 40024 58018 700// 82531 91400=
07181,1999-03-25 15:00:00,15,1002,-1.8,51,5,20000,18.52,,,170,,,,,,,,,,0,wg-a,,,,AAXX 25154 07181 32670 71710 10150 20050 39616 40020 56018 700// 8453/ 91500=
07181,1999-03-25 16:00:00,14,1002.2,-0.9,58,6,13000,22.224,,,220,,,,,,,,,,60,wg-a,,,,AAXX 25164 07181 02663 82212 10140 20060 39617 40022 55009 61000 76062 8553/ 91600 333 ////=
07181,1999-03-25 17:00:00,12,1002.8,-0.1,82,9,8000,11.112,,,240,,,0,,,,,,,60,wg-a,,,,AAXX 25174 07181 12658 82406 10120 20090 39619 40028 55001 60005 76066 8457/ 91700=
07181,1999-03-25 18:00:00,11,1002.5,-0.1,82,8,12000,11.112,,,170,7.8,15.6,,1,,,,,,21,wg-a,,,,AAXX 25184 07181 12662 81706 10110 20080 39615 40025 58001 60017 72162 8657/ 91800 333 10156 20078=
07181,1999-03-25 19:00:00,11,1002.7,-0,82,8,12000,14.816,,,190,,,,,,,,,,0,wg-a,,,,AAXX 25194 07181 32562 81908 10110 20080 39617 40027 54000 700// 8657/ 91900=
07181,1999-03-25 20:00:00,11,1002.5,-0.4,82,8,12000,22.224,,,200,,,,,,,,,,21,wg-a,,,,AAXX 25204 07181 02562 82012 10110 20080 39615 40025 56004 61000 72162 8457/ 92000 333 ////=
07181,1999-03-25 22:00:00,9,1002.6,-0.3,93,8,12000,22.224,,51.856,190,,,0,,,,,,,60,wg-a,,,,AAXX 25224 07181 12562 81912 10090 20080 39614 40026 55003 60005 76066 8557/ 92200 333 91028=
07181,1999-03-25 23:00:00,10,1002.4,-0.2,87,8,12000,25.928,,,190,,,,,,,,,,21,wg-a,,,,AAXX 25234 07181 02562 81914 10100 20080 39613 40024 56002 61000 72162 8557/ 92300 333 ////=
07181,1999-03-26 00:00:00,10,1002.1,-0.4,82,7,15000,29.632,,51.856,200,,,,0,,,,,,1,wg-a,,,,AAXX 26004 07181 12565 72016 10100 20070 39609 40021 58004 60007 70162 8357/ 90000 333 91028=
07181,1999-03-26 01:00:00,9,1002,-0.6,87,7,15000,22.224,,,200,,,,,,,,,,0,wg-a,,,,AAXX 26014 07181 32565 72012 10090 20070 39608 40020 57006 700// 8357/ 90100=
07181,1999-03-26 02:00:00,9,1001.8,-0.8,93,8,15000,22.224,,,210,,,,,,,,,,0,wg-a,,,,AAXX 26024 07181 32565 72112 10090 20080 39605 40018 56008 700// 8657/ 90200=
07181,1999-03-26 03:00:00,9,1001.6,-0.6,93,8,15000,18.52,,,200,,,,0,,,,,,0,wg-a,,,,AAXX 26034 07181 12565 72010 10090 20080 39603 40016 58006 60007 700// 8657/ 90300=
07181,1999-03-26 04:00:00,9,1001.4,-0.6,93,8,15000,18.52,,,220,,,,,,,,,,0,wg-a,,,,AAXX 26044 07181 32465 72210 10090 20080 39602 40014 56006 700// 8657/ 90400=
07181,1999-03-26 05:00:00,8,1001.7,-0.1,93,7,12000,11.112,,,180,,,,,,,,,,0,wg-a,,,,AAXX 26054 07181 32462 71806 10080 20070 39604 40017 55001 700// 865// 90500=
07181,1999-03-26 06:00:00,8,1001.9,0.3,93,7,8000,11.112,,,180,8,11.1,,,,,1,,,1,wg-a,,,,AAXX 26064 07181 12458 81806 10080 20070 39606 40019 53003 60014 70162 8557/ 90600 333 10111 20080=
07181,1999-03-26 07:00:00,8,1001.8,0.3,93,7,11000,14.816,,,180,,,,,,,,,,0,wg-a,,,,AAXX 26074 07181 32461 81808 10080 20070 39605 40018 50003 700// 8557/ 90700=
07181,1999-03-26 08:00:00,9,1001.9,0.3,93,8,11000,11.112,,,170,,,,,,,,,,0,wg-a,,,,AAXX 26084 07181 32461 81706 10090 20080 39607 40019 52003 700// 8587/ 90800=
07181,1999-03-26 09:00:00,10,1001.8,0.2,87,8,11000,14.816,,,190,,,,,,,,,,0,wg-a,,,,AAXX 26094 07181 32461 81908 10100 20080 39608 40018 53002 700// 8587/ 90900=
07181,1999-03-26 10:00:00,11,1001.7,0.2,82,8,11000,18.52,,,190,,,,,,,,,,0,wg-a,,,,AAXX 26104 07181 32461 81910 10110 20080 39607 40017 50002 700// 878// 91000=
07181,1999-03-26 11:00:00,10,1002,0.2,87,8,12000,14.816,,,190,,,,,,,,,,21,wg-a,,,,AAXX 26114 07181 02462 81908 10100 20080 39609 40020 53002 61000 72162 878// 91100 333 ////=
07181,1999-03-26 12:00:00,11,1001.5,-0.2,82,8,15000,18.52,,,180,,,,,,,,,,2,wg-a,,,,AAXX 26124 07181 02465 81810 10110 20080 39606 40015 58002 61000 70262 878// 91200 333 ////=
07181,1999-03-26 17:00:00,8,1002.7,1.4,93,7,15000,18.52,,,270,,,,,,,,,,0,wg-a,,,,AAXX 26174 07181 32465 82710 10080 20070 39613 40027 53014 700// 8787/ 91700=
07181,1999-03-26 18:00:00,8,1003.2,1.7,93,7,10000,11.112,,,250,7.7,11.2,,0,,,,,,60,wg-a,,,,AAXX 26184 07181 12460 82506 10080 20070 39617 40032 51017 60007 76062 8787/ 91800 333 10112 20077=
07181,1999-03-26 19:00:00,7,1004.1,2,93,6,12000,18.52,,,270,,,0,,,,,,,21,wg-a,,,,AAXX 26194 07181 12462 82710 10070 20060 39625 40041 52020 60005 72162 8587/ 91900=
07181,1999-03-26 20:00:00,7,1004.6,1.7,93,6,12000,18.52,,,280,,,,,,,,,,0,wg-a,,,,AAXX 26204 07181 32462 82810 10070 20060 39630 40046 53017 700// 878// 92000=
07181,1999-03-26 21:00:00,7,1004.8,1.4,93,6,12000,7.408,,,290,,,,0,,,,,,2,wg-a,,,,AAXX 26214 07181 12462 82904 10070 20060 39631 40048 51014 60007 70262 878// 92100=
07181,1999-03-26 22:00:00,7,1004.8,0.6,93,6,12000,7.408,,,260,,,,,,,,,,0,wg-a,,,,AAXX 26224 07181 32462 82604 10070 20060 39631 40048 51006 700// 878// 92200=
07181,1999-03-26 23:00:00,6,1004.5,-0.3,100,6,12000,3.704,,,270,,,,,,,,,,0,wg-a,,,,AAXX 26234 07181 32462 82702 10060 20060 39627 40045 58003 700// 878// 92300=
07181,1999-03-27 00:00:00,6,1004.3,-0.5,100,6,12000,3.704,,,230,,,,,,,,,,1,wg-a,,,,AAXX 27004 07181 32462 82302 10060 20060 39626 40043 58005 70162 878// 90000=
07181,1999-03-27 01:00:00,6,1004.3,-0.6,100,6,12000,7.408,,,310,,,,,,,,,,0,wg-a,,,,AAXX 27014 07181 32462 83104 10060 20060 39625 40043 56006 700// 878// 90100=
07181,1999-03-27 02:00:00,5,1004.3,-0.3,100,5,12000,7.408,,,320,,,,,,,,,,0,wg-a,,,,AAXX 27024 07181 32462 83204 10050 20050 39624 40043 57003 700// 878// 90200=
07181,1999-03-27 03:00:00,5,1004.3,-0.3,93,4,10000,11.112,,,310,,,,,,,,,,0,wg-a,,,,AAXX 27034 07181 32460 83106 10050 20040 39623 40043 57003 700// 8587/ 90300=
07181,1999-03-27 07:00:00,4,1004.8,0.5,93,3,500,7.408,,,360,,,,,,,,,,0,wg-a,,,,AAXX 27074 07181 32300 83604 10040 20030 39627 40048 53005 700// 8557/ 90700=
07181,1999-03-27 08:00:00,4,1005.2,0.8,93,3,500,7.408,,,10,,,,,,,,,,0,wg-a,,,,AAXX 27084 07181 32300 80104 10040 20030 39631 40052 53008 700// 8557/ 90800=
07181,1999-03-27 09:00:00,4,1005.1,0.5,93,3,500,14.816,,,350,,,,,,,,,,0,wg-a,,,,AAXX 27094 07181 32300 83508 10040 20030 39630 40051 50005 700// 8557/ 90900=
07181,1999-03-27 10:00:00,5,1004.7,0.1,87,3,6000,14.816,,,340,,,,,,,,,,0,wg-a,,,,AAXX 27104 07181 32356 83408 10050 20030 39628 40047 50001 700// 8557/ 91000=
07181,1999-03-27 11:00:00,6,1004.5,-0.5,81,3,7000,14.816,,,350,,,,,,,,,,0,wg-a,,,,AAXX 27114 07181 32457 83508 10060 20030 39626 40045 58005 700// 8657/ 91100=
07181,1999-03-27 12:00:00,6,1004.2,-0.6,81,3,7000,14.816,,,350,,,,,,,,,,0,wg-a,,,,AAXX 27124 07181 32457 83508 10060 20030 39624 40042 57006 700// 8657/ 91200=
07181,1999-03-27 13:00:00,6,1004.2,-0.4,87,4,7000,14.816,,,340,,,,,,,,,,0,wg-a,,,,AAXX 27134 07181 32557 83408 10060 20040 39624 40042 56004 700// 8657/ 91300=
07181,1999-03-27 14:00:00,5,1004.1,-0.4,87,3,6000,14.816,,,360,,,0,,,,,,,61,wg-a,,,,AAXX 27144 07181 12556 83608 10050 20030 39622 40041 57004 60005 76162 875// 91400=
07181,1999-03-30 13:00:00,14,1019.3,-1.2,47,3,18000,7.408,,,50,,,,,,,,,,0,wg-a,,,,AAXX 30134 07181 32668 20504 10140 20030 39781 40193 58012 700// 82100 91300=
07181,1999-03-30 14:00:00,15,1018.6,-1.5,44,3,18000,3.704,,,40,,,,,,,,,,0,wg-a,,,,AAXX 30144 07181 32668 /0402 10150 20030 39775 40186 58015 700// 81100 91400=
07181,1999-03-30 15:00:00,15,1018.2,-1.4,51,5,18000,7.408,,,80,,,,,,,,,,0,wg-a,,,,AAXX 30154 07181 32768 10804 10150 20050 39772 40182 56014 700// 81100 91500=
07181,1999-03-30 16:00:00,14,1018.2,-1.1,55,5,18000,7.408,,,100,,,,,,,,,,0,wg-a,,,,AAXX 30164 07181 32768 11004 10140 20050 39770 40182 56011 700// 81100 91600=
07181,1999-03-30 17:00:00,14,1018.4,-0.4,55,5,18000,7.408,,,100,,,,,,,,,,0,wg-a,,,,AAXX 30174 07181 32768 11004 10140 20050 39771 40184 55004 700// 81100 91700=
07181,1999-03-30 18:00:00,12,1018.9,0.2,62,5,10000,7.408,,,100,1.8,15.8,,,,,,,,0,wg-a,,,,AAXX 30184 07181 32/60 21004 10120 20050 39774 40189 53002 700// 80001 91800 333 10158 20018=
07181,1999-03-30 19:00:00,10,1019.7,0.9,71,5,10000,7.408,,,110,,,,,,,,,,0,wg-a,,,,AAXX 30194 07181 32/60 21104 10100 20050 39779 40197 53009 700// 80001 91900=
07181,1999-03-30 20:00:00,9,1020.1,1,76,5,10000,7.408,,,120,,,,,,,,,,0,wg-a,,,,AAXX 30204 07181 32/60 21204 10090 20050 39781 40201 51010 700// 80001 92000=
07181,1999-03-30 21:00:00,9,1020.2,0.8,76,5,10000,7.408,,,150,,,,,,,,,,0,wg-a,,,,AAXX 30214 07181 32/60 21504 10090 20050 39782 40202 51008 700// 80001 92100=
07181,1999-03-30 22:00:00,8,1020.5,0.4,81,5,10000,7.408,,,140,,,,,,,,,,0,wg-a,,,,AAXX 30224 07181 32/60 21404 10080 20050 39783 40205 51004 700// 80001 92200=
07181,1999-03-31 00:00:00,5,1020.9,-0,93,4,10000,3.704,,,100,,,,,,,,,,0,wg-a,,,,AAXX 31004 07181 32/60 21002 10050 20040 39782 40209 54000 700// 80001 90000=
07181,1999-03-31 01:00:00,4,1020.8,-0.2,100,4,10000,0,,,0,,,,,,,,,,0,wg-a,,,,AAXX 31014 07181 32/60 20000 10040 20040 39781 40208 56002 700// 80001 90100=
07181,1999-03-31 02:00:00,4,1020.8,-0.1,93,3,6000,3.704,,,290,,,,,,,,,,0,wg-a,,,,AAXX 31024 07181 32/56 02902 10040 20030 39780 40208 58001 700// 80000 90200=
07181,1999-03-31 03:00:00,3,1020.8,-0.3,100,3,3000,0,,,0,,,,,,,,,,10,wg-a,,,,AAXX 31034 07181 32/30 00000 10030 20030 39779 40208 57003 71000 80000 90300=
07181,1999-03-31 05:00:00,3,1020.9,-0.1,100,3,600,0,,,0,,,,,,,,,,41,wg-a,,,,AAXX 31054 07181 32/06 20000 10030 20030 39779 40209 55001 74140 80001 90500=
07181,1999-03-31 06:00:00,2,1021.3,0.3,100,2,500,0,,,0,1.6,11.9,,,,,,,,41,wg-a,,,,AAXX 31064 07181 12/05 /0000 10020 20020 39782 40213 53003 60004 74141 80001 90600 333 10119 20016=
07181,1999-03-31 07:00:00,4,1021,0.5,100,4,1000,0,,,0,,,,,,,,,,40,wg-a,,,,AAXX 31074 07181 32/10 /0000 10040 20040 39783 40210 52005 74042 80001 90700=
07181,1999-03-31 08:00:00,6,1020.9,0.6,100,6,1000,3.704,,,330,,,,,,,,,,40,wg-a,,,,AAXX 31084 07181 32/10 /3302 10060 20060 39785 40209 51006 74022 80001 90800=
07181,1999-03-31 09:00:00,10,1020.5,0.4,82,7,500,3.704,,,20,,,,,,,,,,2,wg-a,,,,AAXX 31094 07181 32/00 /0202 10100 20070 39786 40205 52004 70242 80001 90900=
07181,1999-03-31 10:00:00,13,1019.7,0,62,6,0,14.816,,,100,,,,,,,,,,0,wg-a,,,,AAXX 31104 07181 32/// /1008 10130 20060 39783 40197 50000 700// 80001 91000=
07181,1999-03-31 11:00:00,14,1019.1,-0.7,58,6,8000,11.112,,,120,,,,,,,,,,0,wg-a,,,,AAXX 31114 07181 32/58 /1206 10140 20060 39778 40191 58007 700// 80001 91100=
07181,1999-03-31 12:00:00,15,1018.4,-1.3,59,7,11000,14.816,,,90,,,,,,,,,,2,wg-a,,,,AAXX 31124 07181 32/61 50908 10150 20070 39773 40184 58013 70242 80001 91200=
07181,1999-03-31 13:00:00,16,1017.7,-1.5,51,6,12000,14.816,,,90,,,,,,,,,,0,wg-a,,,,AAXX 31134 07181 32/62 50908 10160 20060 39768 40177 57015 700// 80001 91300=
07181,1999-03-31 14:00:00,17,1016.9,-1.6,52,7,13000,18.52,,,100,,,,,,,,,,0,wg-a,,,,AAXX 31144 07181 32/63 51010 10170 20070 39762 40169 58016 700// 80001 91400=
07181,1999-04-01 04:00:00,6,1015.9,-0.7,93,5,4000,7.408,,,120,,,,,,,,,,10,wg-a,,,,AAXX 01044 07181 32/40 21204 10060 20050 39737 40159 57007 71000 80001 90400=
07181,1999-04-01 05:00:00,6,1016.1,-0.4,93,5,4000,11.112,,,120,,,,,,,,,,10,wg-a,,,,AAXX 01054 07181 32/40 21206 10060 20050 39738 40161 55004 71000 80001 90500=
07181,1999-04-01 06:00:00,6,1016.3,0.1,87,4,3500,7.408,,,140,5.6,14.6,,0,,,,,,10,wg-a,,,,AAXX 01064 07181 02/35 /1404 10060 20040 39740 40163 53001 60004 71000 80001 90600 333 10146 20056 60007=
07181,1999-04-01 07:00:00,7,1016,0.2,87,5,3500,7.408,,,120,,,,,,,,,,10,wg-a,,,,AAXX 01074 07181 32/35 /1204 10070 20050 39739 40160 50002 71000 80001 90700=
07181,1999-04-01 08:00:00,10,1015.8,0.3,71,5,500,7.408,,,120,,,,,,,,,,10,wg-a,,,,AAXX 01084 07181 32/00 /1204 10100 20050 39741 40158 52003 710// 80001 90800=
07181,1999-04-01 09:00:00,12,1015.4,0.1,67,6,0,11.112,,,80,,,,,,,,,,0,wg-a,,,,AAXX 01094 07181 32/// /0806 10120 20060 39741 40154 53001 700// 80001 90900=
07181,1999-04-01 10:00:00,15,1014.9,0,59,7,10000,11.112,,,130,,,,,,,,,,0,wg-a,,,,AAXX 01104 07181 32/60 /1306 10150 20070 39739 40149 50000 700// 80001 91000=
07181,1999-04-01 11:00:00,17,1014.1,-0.7,48,6,10000,11.112,,,140,,,,,,,,,,0,wg-a,,,,AAXX 01114 07181 32/60 11406 10170 20060 39734 40141 58007 700// 80001 91100=
07181,1999-04-01 12:00:00,18,1013.4,-1.2,49,7,12000,18.52,,,150,,,,,,,,,,0,wg-a,,,,AAXX 01124 07181 32/62 11510 10180 20070 39729 40134 58012 700// 80001 91200=
07181,1999-04-01 13:00:00,18,1012.8,-1.5,49,7,12000,14.816,,,100,,,,,,,,,,0,wg-a,,,,AAXX 01134 07181 32/62 11008 10180 20070 39724 40128 57015 700// 80001 91300=
07181,1999-04-01 14:00:00,19,1012.3,-1.4,43,6,12000,18.52,,,90,,,,,,,,,,0,wg-a,,,,AAXX 01144 07181 32762 20910 10190 20060 39720 40123 56014 700// 81101 91400=
07181,1999-04-01 15:00:00,19,1011.8,-1.4,43,6,15000,14.816,,29.632,70,,,,,,,,,,0,wg-a,,,,AAXX 01154 07181 32765 20708 10190 20060 39715 40118 57014 700// 81101 91500 333 91016=
07181,1999-04-01 16:00:00,18,1011.4,-1.3,42,5,15000,14.816,,,80,,,,,,,,,,0,wg-a,,,,AAXX 01164 07181 32/65 10808 10180 20050 39711 40114 57013 700// 80001 91600=
07181,1999-04-01 17:00:00,17,1011.6,-0.9,42,4,15000,18.52,,,80,,,,,,,,,,0,wg-a,,,,AAXX 01174 07181 32/65 10810 10170 20040 39711 40116 56009 700// 80001 91700=
07181,1999-04-01 18:00:00,16,1011.9,-0.3,39,2,15000,14.816,,,90,5.7,18.9,,,,,,,,0,wg-a,,,,AAXX 01184 07181 32/65 10908 10160 20020 39712 40119 55003 700// 80001 91800 333 10189 20057=
07181,1999-04-01 19:00:00,15,1012.5,0.5,44,3,15000,18.52,,,100,,,,,,,,,,0,wg-a,,,,AAXX 01194 07181 32/65 21010 10150 20030 39716 40125 53005 700// 80001 91900=
07181,1999-04-01 20:00:00,14,1013,0.8,51,4,15000,11.112,,,110,,,,,,,,,,0,wg-a,,,,AAXX 01204 07181 32/65 21106 10140 20040 39719 40130 53008 700// 80001 92000=
07181,1999-04-01 21:00:00,13,1013.2,0.8,54,4,15000,11.112,,,110,,,,,,,,,,0,wg-a,,,,AAXX 01214 07181 32/65 21106 10130 20040 39720 40132 51008 700// 80001 92100=
07181,1999-04-01 22:00:00,12,1013.4,0.4,58,4,15000,11.112,,,120,,,,,,,,,,0,wg-a,,,,AAXX 01224 07181 32/65 21206 10120 20040 39720 40134 51004 700// 80001 92200=
07181,1999-04-01 23:00:00,10,1013.8,0.4,66,4,15000,11.112,,,140,,,,,,,,,,0,wg-a,,,,AAXX 01234 07181 32/65 21406 10100 20040 39723 40138 53004 700// 80001 92300=
07181,1999-04-02 00:00:00,10,1014.1,0.4,66,4,15000,11.112,,,150,,,,,,,,,,0,wg-a,,,,AAXX 02004 07181 32/65 21506 10100 20040 39724 40141 53004 700// 80001 90000=
07181,1999-04-02 01:00:00,10,1013.9,0.2,62,3,15000,14.816,,,160,,,,,,,,,,0,wg-a,,,,AAXX 02014 07181 32/65 21608 10100 20030 39722 40139 50002 700// 80001 90100=
07181,1999-04-02 02:00:00,9,1014.2,0.1,66,3,15000,7.408,,,190,,,,,,,,,,0,wg-a,,,,AAXX 02024 07181 32/65 21904 10090 20030 39724 40142 53001 700// 80001 90200=
07181,1999-04-02 03:00:00,9,1013.9,-0.3,61,2,15000,11.112,,,160,,,,,,,,,,0,wg-a,,,,AAXX 02034 07181 32/65 41606 10090 20020 39721 40139 58003 700// 80001 90300=
07181,1999-04-02 04:00:00,8,1014,-0.1,66,2,10000,11.112,,,160,,,,,,,,,,,wg-a,,,,AAXX 02044 07181 32/60 /1606 10080 20020 39721 40140 58001 90400=
07181,1999-04-02 05:00:00,8,1014,-0.3,66,2,12000,14.816,,,170,,,,,,,,,,0,wg-a,,,,AAXX 02054 07181 32/62 41708 10080 20020 39721 40140 56003 700// 81031 90500=
07181,1999-04-02 06:00:00,8,1014.5,0.5,66,2,15000,11.112,,,160,7.3,15.9,,,,,,,,0,wg-a,,,,AAXX 02064 07181 12/65 41606 10080 20020 39726 40145 53005 60004 700// 82081 90600 333 10159 20073=
07181,1999-04-02 07:00:00,10,1014.9,1.2,71,5,15000,7.408,,,190,,,,,,,,,,0,wg-a,,,,AAXX 02074 07181 32765 51904 10100 20050 39733 40149 53012 700// 83501 90700=
07181,1999-04-02 08:00:00,12,1015.2,1.7,67,6,15000,14.816,,,220,,,,,,,,,,0,wg-a,,,,AAXX 02084 07181 32765 52208 10120 20060 39738 40152 52017 700// 85500 90800=
07181,1999-04-02 09:00:00,13,1015.5,1.7,72,8,15000,18.52,,,230,,,,,,,,,,0,wg-a,,,,AAXX 02094 07181 32765 52310 10130 20080 39743 40155 51017 700// 85500 90900=
07181,1999-04-02 10:00:00,13,1015.9,1.5,82,10,10000,14.816,,,230,,,,,,,,,,,wg-a,,,,AAXX 02104 07181 32/60 /2308 10130 20100 39748 40159 52015 91000=
07181,1999-04-02 11:00:00,14,1016.4,1.5,77,10,7000,14.816,,,260,,,,,,,,,,0,wg-a,,,,AAXX 02114 07181 32457 72608 10140 20100 39753 40164 52015 700// 87500 91100=
07181,1999-04-02 12:00:00,14,1016.7,1.3,77,10,7000,14.816,,,290,,,,,,,,,,0,wg-a,,,,AAXX 02124 07181 32457 72908 10140 20100 39756 40167 51013 700// 87500 91200=
07181,1999-04-02 13:00:00,15,1016.6,0.8,67,9,7000,14.816,,,290,,,,,,,,,,0,wg-a,,,,AAXX 02134 07181 32457 72908 10150 20090 39756 40166 51008 700// 878// 91300=
07181,1999-04-02 14:00:00,15,1017,0.7,72,10,7000,18.52,,,260,,,,,,,,,,0,wg-a,,,,AAXX 02144 07181 32457 72610 10150 20100 39760 40170 53007 700// 878// 91400=
07181,1999-04-02 16:00:00,12,1018.3,1.3,88,10,10000,22.224,,,280,,,,,,,,,,0,wg-a,,,,AAXX 02164 07181 32460 72812 10120 20100 39769 40183 53013 700// 8627/ 91600=
07181,1999-04-02 19:00:00,10,1020.3,1.6,87,8,15000,11.112,,,250,,,,,,,,,,0,wg-a,,,,AAXX 02194 07181 32565 72506 10100 20080 39785 40203 53016 700// 8487/ 91900=
07181,1999-04-02 20:00:00,10,1020.8,1.8,93,9,11000,11.112,,,240,,,,,,,,,,,wg-a,,,,AAXX 02204 07181 32/61 /2406 10100 20090 39790 40208 51018 92000=
07181,1999-04-02 21:00:00,10,1021.2,1.5,93,9,15000,7.408,,,160,,,,,,,,,,21,wg-a,,,,AAXX 02214 07181 02765 71604 10100 20090 39793 40212 51015 61000 72162 875// 92100 333 ////=
07181,1999-04-02 22:00:00,10,1021.7,1.3,93,9,12000,7.408,,,180,,,,,,,,,,60,wg-a,,,,AAXX 02224 07181 02762 71804 10100 20090 39798 40217 52013 61000 76062 8657/ 92200 333 ////=
07181,1999-04-02 23:00:00,9,1021.9,0.9,93,8,11000,7.408,,,210,,,,,,,,,,21,wg-a,,,,AAXX 02234 07181 02761 62104 10090 20080 39799 40219 51009 61000 72162 82530 92300 333 ////=
07181,1999-04-03 00:00:00,8,1022.6,1.1,100,8,11000,11.112,,,220,,,,,,,,,,2,wg-a,,,,AAXX 03004 07181 02761 62206 10080 20080 39804 40226 52011 61000 70262 82530 90000 333 ////=
07181,1999-04-03 01:00:00,8,1022.4,0.4,100,8,7000,11.112,,,200,,,,,,,,,,0,wg-a,,,,AAXX 03014 07181 32/57 /2006 10080 20080 39802 40224 50004 700// 82031 90100=
07181,1999-04-03 02:00:00,7,1022.5,0.2,100,7,4000,11.112,,,210,,,,,,,,,,10,wg-a,,,,AAXX 03024 07181 32/40 22106 10070 20070 39801 40225 50002 71011 80001 90200=
07181,1999-04-03 03:00:00,7,1022.2,-0.5,100,7,4000,11.112,,,170,,,,,,,,,,10,wg-a,,,,AAXX 03034 07181 32/40 21706 10070 20070 39799 40222 57005 71011 80001 90300=
07181,1999-04-03 04:00:00,6,1022.5,-0.3,93,5,3000,7.408,,,200,,,,,,,,,,,wg-a,,,,AAXX 03044 07181 32/30 /2004 10060 20050 39799 40225 56003 90400=
07181,1999-04-03 05:00:00,6,1022.5,-0.1,100,6,3000,11.112,,,200,,,,,,,,,,10,wg-a,,,,AAXX 03054 07181 32/30 72006 10060 20060 39800 40225 55001 71022 84031 90500=
07181,1999-04-03 06:00:00,5,1023,0.4,100,5,800,14.816,,,150,4.9,10.8,,0,,,,,,44,wg-a,,,,AAXX 03064 07181 02/08 71508 10050 20050 39803 40230 53004 60004 74441 83031 90600 333 10108 20049 60007=
07181,1999-04-03 07:00:00,6,1023.1,0.7,100,6,2000,7.408,,,140,,,,,,,,,,40,wg-a,,,,AAXX 03074 07181 32/20 /1404 10060 20060 39806 40231 53007 74042 82031 90700=
07181,1999-04-03 08:00:00,8,1023.3,1,100,8,4000,7.408,,,140,,,,,,,,,,40,wg-a,,,,AAXX 03084 07181 32140 /1404 10080 20080 39810 40233 53010 74022 82631 90800=
07181,1999-04-03 09:00:00,11,1022.8,0.8,87,9,15000,11.112,,,230,,,,,,,,,,3,wg-a,,,,AAXX 03094 07181 32465 72306 10110 20090 39811 40228 51008 70342 81131 90900=
07181,1999-04-03 10:00:00,13,1022.7,0.6,82,10,15000,11.112,,,230,,,,,,,,,,0,wg-a,,,,AAXX 03104 07181 32465 72306 10130 20100 39812 40227 51006 700// 8217/ 91000=
07181,1999-04-03 11:00:00,14,1022.4,0,77,10,15000,11.112,,,210,,,,,,,,,,0,wg-a,,,,AAXX 03114 07181 32465 72106 10140 20100 39810 40224 50000 700// 83102 91100=
07181,1999-04-03 12:00:00,14,1022.3,-0.1,72,9,15000,18.52,,,240,,,,,,,,,,3,wg-a,,,,AAXX 03124 07181 32465 72410 10140 20090 39810 40223 58001 70342 85202 91200=
07181,1999-04-03 13:00:00,15,1022,-0.4,67,9,17000,18.52,,,240,,,,,,,,,,0,wg-a,,,,AAXX 03134 07181 32467 72410 10150 20090 39808 40220 57004 700// 8527/ 91300=
07181,1999-04-03 14:00:00,14,1021.6,-0.7,72,9,20000,18.52,,,240,,,,,,,,,,25,wg-a,,,,AAXX 03144 07181 02570 72410 10140 20090 39803 40216 58007 61000 72586 8523/ 91400 333 ////=
07181,1999-04-03 15:00:00,14,1021.6,-0.7,67,8,25000,18.52,,,230,,,,,,,,,,1,wg-a,,,,AAXX 03154 07181 02575 72310 10140 20080 39803 40216 56007 61000 70186 8683/ 91500 333 ////=
07181,1999-04-03 16:00:00,14,1021.4,-0.7,67,8,25000,22.224,,,230,,,,,,,,,,0,wg-a,,,,AAXX 03164 07181 32575 72312 10140 20080 39801 40214 56007 700// 878// 91600=
07181,1999-04-03 17:00:00,13,1021.7,-0,77,9,25000,18.52,,,230,,,,,,,,,,0,wg-a,,,,AAXX 03174 07181 32575 72310 10130 20090 39803 40217 55000 700// 878// 91700=
07181,1999-04-03 18:00:00,13,1022.1,0.3,77,9,25000,22.224,,,220,4.9,15.5,,,,,,,,1,wg-a,,,,AAXX 03184 07181 32575 72212 10130 20090 39806 40221 53003 70186 878// 91800 333 10155 20049=
07181,1999-04-03 19:00:00,12,1022.6,0.8,82,9,20000,14.816,,,220,,,,,,,,,,0,wg-a,,,,AAXX 03194 07181 32470 72208 10120 20090 39809 40226 53008 700// 878// 91900=
07181,1999-04-03 20:00:00,12,1022.7,0.7,82,9,15000,14.816,,,210,,,,,,,,,,0,wg-a,,,,AAXX 03204 07181 32465 72108 10120 20090 39810 40227 51007 700// 878// 92000=
07181,1999-04-03 21:00:00,11,1022.8,0.5,94,10,15000,14.816,,,220,,,,,,,,,,0,wg-a,,,,AAXX 03214 07181 32465 72208 10110 20100 39811 40228 51005 700// 878// 92100=
07181,1999-04-03 22:00:00,11,1023.1,0.4,94,10,15000,22.224,,,220,,,,,,,,,,0,wg-a,,,,AAXX 03224 07181 32465 72212 10110 20100 39813 40231 53004 700// 878// 92200=
07181,1999-04-03 23:00:00,11,1023.1,0.3,94,10,10000,14.816,,,230,,,,,,,,,,0,wg-a,,,,AAXX 03234 07181 32460 72308 10110 20100 39813 40231 51003 700// 878// 92300=
07181,1999-04-04 00:00:00,11,1023.2,0.3,100,11,7000,18.52,,,230,,,,,,,,,,50,wg-a,,,,AAXX 04004 07181 02457 72310 10110 20110 39814 40232 51003 61000 75052 877// 90000 333 ////=
07181,1999-04-04 01:00:00,11,1023.3,0.2,100,11,7000,11.112,,,240,,,,,,,,,,50,wg-a,,,,AAXX 04014 07181 02457 72406 10110 20110 39815 40233 53002 61000 75055 877// 90100 333 ////=
07181,1999-04-04 02:00:00,11,1023.5,0.4,100,11,12000,11.112,,,270,,,,,,,,,,20,wg-a,,,,AAXX 04024 07181 02462 72706 10110 20110 39817 40235 53004 61000 72052 875// 90200 333 ////=
07181,1999-04-04 03:00:00,10,1023.8,0.5,100,10,13000,11.112,,,270,,,,,,,,,,1,wg-a,,,,AAXX 04034 07181 02463 72706 10100 20100 39819 40238 53005 61000 70152 875// 90300 333 ////=
07181,1999-04-04 04:00:00,10,1024,0.5,93,9,13000,14.816,,,260,,,,,,,,,,0,wg-a,,,,AAXX 04044 07181 32463 /2608 10100 20090 39820 40240 51005 700// 86500 90400=
07181,1999-04-04 05:00:00,9,1024.4,0.6,93,8,12000,11.112,,,260,,,,,,,,,,0,wg-a,,,,AAXX 04054 07181 32462 72606 10090 20080 39823 40244 53006 700// 875// 90500=
07181,1999-04-04 06:00:00,10,1024.9,1,93,9,6000,18.52,,,270,9.1,12.5,,,,,,,,3,wg-a,,,,AAXX 04064 07181 02256 72710 10100 20090 39829 40249 53010 61000 70352 875// 90600 333 10125 20091 ////=
07181,1999-04-04 07:00:00,10,1025.6,1.5,93,9,500,14.816,,,270,,,,,,,,,,0,wg-a,,,,AAXX 04074 07181 32200 72708 10100 20090 39835 40256 53015 700// 875// 90700=
07181,1999-04-04 08:00:00,10,1026.2,1.8,100,10,2200,14.816,,,280,,,,,,,,,,10,wg-a,,,,AAXX 04084 07181 02222 72808 10100 20100 39841 40262 52018 61000 71052 875// 90800 333 ////=
07181,1999-04-04 09:00:00,10,1026.9,1.9,100,10,1500,14.816,,,270,,,,,,,,,,10,wg-a,,,,AAXX 04094 07181 02215 72708 10100 20100 39848 40269 53019 61000 71052 875// 90900 333 ////=
07181,1999-04-04 10:00:00,10,1027.3,1.7,100,10,1500,14.816,,,270,,,,,,,,,,10,wg-a,,,,AAXX 04104 07181 02215 72708 10100 20100 39852 40273 51017 61000 71055 875// 91000 333 ////=
07181,1999-04-04 11:00:00,11,1027.4,1.3,94,10,4000,14.816,,,270,,,,,,,,,,10,wg-a,,,,AAXX 04114 07181 02240 72708 10110 20100 39854 40274 51013 61000 71055 875// 91100 333 ////=
07181,1999-04-04 12:00:00,12,1027.2,0.6,88,10,500,14.816,,,290,,,,,,,,,,20,wg-a,,,,AAXX 04124 07181 02300 72908 10120 20100 39854 40272 51006 61000 72052 878// 91200 333 ////=
07181,1999-04-04 13:00:00,12,1027,0,82,9,8000,22.224,,,280,,,,,,,,,,0,wg-a,,,,AAXX 04134 07181 32358 72812 10120 20090 39852 40270 50000 700// 878// 91300=
07181,1999-04-04 14:00:00,12,1026.7,-0.5,88,10,8000,14.816,,,260,,,,,,,,,,80,wg-a,,,,AAXX 04144 07181 02458 72608 10120 20100 39849 40267 58005 61000 78086 878// 91400 333 ////=
07181,1999-04-04 15:00:00,13,1026.8,-0.3,77,9,8000,22.224,,,270,,,,,,,,,,80,wg-a,,,,AAXX 04154 07181 02458 72712 10130 20090 39851 40268 55003 61000 78086 878// 91500 333 ////=
07181,1999-04-04 16:00:00,13,1026.7,-0.2,82,10,8000,18.52,,,260,,,,,,,,,,25,wg-a,,,,AAXX 04164 07181 02458 72610 10130 20100 39850 40267 56002 61000 72586 878// 91600 333 ////=
07181,1999-04-04 17:00:00,12,1027.1,0.4,88,10,8000,18.52,,,260,,,,,,,,,,0,wg-a,,,,AAXX 04174 07181 32558 72610 10120 20100 39853 40271 53004 700// 878// 91700=
07181,1999-04-04 18:00:00,12,1027.5,0.5,88,10,8000,14.816,,,260,9.6,13.5,,,,,,,,2,wg-a,,,,AAXX 04184 07181 02558 72608 10120 20100 39856 40275 53005 61000 70286 878// 91800 333 10135 20096 ////=
07181,1999-04-04 19:00:00,11,1028.4,1.4,94,10,8000,11.112,,,260,,,1,,,,,,,25,wg-a,,,,AAXX 04194 07181 12558 72606 10110 20100 39864 40284 53014 60015 72522 878// 91900=
07181,1999-04-04 20:00:00,10,1029.1,1.7,100,10,8000,7.408,,,270,,,,,,,,,,0,wg-a,,,,AAXX 04204 07181 32558 72704 10100 20100 39870 40291 53017 700// 878// 92000=
07181,1999-04-04 21:00:00,10,1029.5,1.7,93,9,8000,7.408,,,270,,,,1,,,,,,1,wg-a,,,,AAXX 04214 07181 12558 72704 10100 20090 39873 40295 51017 60017 70186 878// 92100=
07181,1999-04-04 22:00:00,8,1029.8,0.9,100,8,8000,11.112,,,260,,,,,,,,,,0,wg-a,,,,AAXX 04224 07181 32658 72606 10080 20080 39873 40298 51009 700// 875// 92200=
07181,1999-04-04 23:00:00,8,1030.1,0.5,93,7,8000,11.112,,,260,,,,,,,,,,0,wg-a,,,,AAXX 04234 07181 32658 72606 10080 20070 39875 40301 51005 700// 875// 92300=
07181,1999-04-05 00:00:00,7,1030.2,0.2,100,7,7000,11.112,,,260,,,,,,,,,,1,wg-a,,,,AAXX 05004 07181 32657 /2606 10070 20070 39875 40302 52002 70186 83502 90000=
07181,1999-04-05 01:00:00,7,1030,0,100,7,800,11.112,,,240,,,,,,,,,,44,wg-a,,,,AAXX 05014 07181 32608 /2406 10070 20070 39873 40300 50000 74442 83502 90100=
07181,1999-04-05 02:00:00,6,1030.1,-0.2,100,6,800,7.408,,,300,,,,,,,,,,44,wg-a,,,,AAXX 05024 07181 32608 /3004 10060 20060 39873 40301 57002 74444 83502 90200=
07181,1999-04-05 03:00:00,7,1029.5,-0.7,100,7,100,7.408,,,160,,,,0,,,,,,44,wg-a,,,,AAXX 05034 07181 12601 41604 10070 20070 39868 40295 58007 60007 74441 81502 90300=
07181,1999-04-05 04:00:00,6,1030.2,-0,100,6,100,7.408,,,190,,,,,,,,,,44,wg-a,,,,AAXX 05044 07181 32601 41904 10060 20060 39873 40302 55000 74444 81502 90400=
07181,1999-04-05 05:00:00,7,1030.1,0.1,100,7,800,11.112,,,200,,,,,,,,,,42,wg-a,,,,AAXX 05054 07181 32408 22006 10070 20070 39874 40301 53001 74244 81602 90500=
07181,1999-04-05 06:00:00,7,1030.3,0.9,100,7,2000,7.408,,,180,5.7,11.6,,,,,1,,,10,wg-a,,,,AAXX 05064 07181 12520 61804 10070 20070 39877 40303 51009 60014 71041 84502 90600 333 10116 20057=
07181,1999-04-05 07:00:00,8,1030.7,0.9,100,8,2000,3.704,,,220,,,,,,,,,,10,wg-a,,,,AAXX 05074 07181 32520 72202 10080 20080 39882 40307 53009 71022 86502 90700=
07181,1999-04-05 08:00:00,9,1030.8,1,100,9,3000,3.704,,,220,,,,,,,,,,10,wg-a,,,,AAXX 05084 07181 32230 72202 10090 20090 39884 40308 51010 71022 875// 90800=
07181,1999-04-05 09:00:00,11,1030.7,0.9,100,11,6000,3.704,,,240,,,,,,,,,,0,wg-a,,,,AAXX 05094 07181 32256 72402 10110 20110 39886 40307 51009 700// 86502 90900=
07181,1999-04-05 10:00:00,12,1030.4,0.3,88,10,9000,7.408,,,240,,,,,,,,,,,wg-a,,,,AAXX 05104 07181 32/59 /2404 10120 20100 39885 40304 50003 91000=
07181,1999-04-05 11:00:00,14,1030,-0.1,72,9,10000,3.704,,,210,,,,,,,,,,0,wg-a,,,,AAXX 05114 07181 32460 72102 10140 20090 39883 40300 58001 700// 86802 91100=
07181,1999-04-05 12:00:00,14,1029.8,-0.4,67,8,10000,3.704,,,50,,,,,,,,,,0,wg-a,,,,AAXX 05124 07181 32560 70502 10140 20080 39882 40298 57004 700// 86802 91200=
07181,1999-04-05 13:00:00,15,1028.9,-1,67,9,11000,3.704,,,250,,,,,,,,,,,wg-a,,,,AAXX 05134 07181 32/61 /2502 10150 20090 39875 40289 58010 91300=
07181,1999-04-05 14:00:00,16,1028.5,-1.1,59,8,11000,7.408,,,210,,,,,,,,,,,wg-a,,,,AAXX 05144 07181 32/61 /2104 10160 20080 39872 40285 58011 91400=
07181,1999-04-05 15:00:00,16,1028.3,-1.2,63,9,12000,7.408,,,300,,,,,,,,,,0,wg-a,,,,AAXX 05154 07181 32562 73004 10160 20090 39870 40283 56012 700// 84202 91500=
07181,1999-04-05 16:00:00,16,1028.1,-0.7,63,9,12000,0,,,0,,,,,,,,,,0,wg-a,,,,AAXX 05164 07181 32662 70000 10160 20090 39868 40281 56007 700// 85502 91600=
07181,1999-04-05 17:00:00,16,1028.2,-0.4,63,9,12000,7.408,,,300,,,,,,,,,,0,wg-a,,,,AAXX 05174 07181 32662 73004 10160 20090 39868 40282 56004 700// 84532 91700=
07181,1999-04-05 18:00:00,15,1028.2,-0.3,67,9,12000,3.704,,,350,7.5,16.6,,,,,,,,0,wg-a,,,,AAXX 05184 07181 32662 73502 10150 20090 39867 40282 56003 700// 82532 91800 333 10166 20075=
07181,1999-04-05 20:00:00,12,1028.8,0.1,82,9,10000,11.112,,,150,,,,,,,,,,,wg-a,,,,AAXX 05204 07181 32/60 /1506 10120 20090 39869 40288 53001 92000=
07181,1999-04-05 21:00:00,11,1028.4,-0.3,87,9,15000,11.112,,,160,,,,,,,,,,0,wg-a,,,,AAXX 05214 07181 32/65 51606 10110 20090 39864 40284 58003 700// 82032 92100=
07181,1999-04-05 22:00:00,10,1028.7,-0.3,87,8,10000,3.704,,,170,,,,,,,,,,,wg-a,,,,AAXX 05224 07181 32/60 /1702 10100 20080 39866 40287 55003 92200=
07181,1999-04-05 23:00:00,10,1028.6,-0.5,87,8,15000,3.704,,,190,,,,,,,,,,0,wg-a,,,,AAXX 05234 07181 32/65 41902 10100 20080 39864 40286 56005 700// 82032 92300=
07181,1999-04-06 00:00:00,10,1028.1,-0.5,87,8,15000,7.408,,,150,,,,,,,,,,0,wg-a,,,,AAXX 06004 07181 32/65 41504 10100 20080 39859 40281 58005 700// 81032 90000=
07181,1999-04-06 01:00:00,9,1028,-0.9,93,8,15000,7.408,,,180,,,,,,,,,,0,wg-a,,,,AAXX 06014 07181 32/65 41804 10090 20080 39857 40280 57009 700// 80002 90100=
07181,1999-04-06 03:00:00,9,1027,-1.2,87,7,15000,11.112,,,200,,,,,,,,,,0,wg-a,,,,AAXX 06034 07181 32/65 42006 10090 20070 39847 40270 58012 700// 80002 90300=
07181,1999-04-06 05:00:00,9,1026.8,-0.6,87,7,15000,11.112,,,200,,,,,,,,,,0,wg-a,,,,AAXX 06054 07181 32/65 32006 10090 20070 39846 40268 56006 700// 81031 90500=
07181,1999-04-06 06:00:00,9,1026.7,-0.2,93,8,15000,7.408,,,160,8.6,14.6,,,,,,,,0,wg-a,,,,AAXX 06064 07181 12/65 31604 10090 20080 39845 40267 57002 60004 700// 81031 90600 333 10146 20086=
07181,1999-04-06 07:00:00,12,1026.3,-0.1,82,9,15000,7.408,,,200,,,,,,,,,,0,wg-a,,,,AAXX 06074 07181 32765 42004 10120 20090 39845 40263 57001 700// 81531 90700=
07181,1999-04-06 09:00:00,15,1025.5,-0.4,67,9,17000,14.816,,,220,,,,,,,,,,0,wg-a,,,,AAXX 06094 07181 32767 72208 10150 20090 39841 40255 55004 700// 8553/ 90900=
07181,1999-04-06 10:00:00,17,1024.5,-1,63,10,20000,11.112,,,190,,,,,,,,,,0,wg-a,,,,AAXX 06104 07181 32770 61906 10170 20100 39835 40245 58010 700// 82532 91000=
07181,1999-04-06 11:00:00,19,1023.7,-1.1,52,9,20000,22.224,,,240,,,,,,,,,,0,wg-a,,,,AAXX 06114 07181 32/70 62412 10190 20090 39829 40237 58011 700// 81032 91100=
07181,1999-04-06 12:00:00,20,1022.6,-2,53,10,20000,22.224,,,220,,,,,,,,,,0,wg-a,,,,AAXX 06124 07181 32/70 72212 10200 20100 39821 40226 58020 700// 81032 91200=
07181,1999-04-06 13:00:00,21,1021.3,-2.5,49,10,25000,22.224,,,220,,,,,,,,,,0,wg-a,,,,AAXX 06134 07181 32575 72212 10210 20100 39810 40213 58025 700// 81132 91300=
07181,1999-04-06 14:00:00,21,1020.6,-2.6,49,10,25000,22.224,,,240,,,,,,,,,,0,wg-a,,,,AAXX 06144 07181 32675 72412 10210 20100 39803 40206 56026 700// 83232 91400=
07181,1999-04-06 15:00:00,19,1020.2,-2.4,60,11,20000,29.632,,40.744,270,,,,,,,,,,25,wg-a,,,,AAXX 06154 07181 02670 72716 10190 20110 39797 40202 56024 61000 72586 85232 91500 333 //// 91022=
07181,1999-04-06 16:00:00,19,1019.8,-1.7,56,10,20000,25.928,,,270,,,,,,,,,,0,wg-a,,,,AAXX 06164 07181 32670 72714 10190 20100 39793 40198 56017 700// 83232 91600=
07181,1999-04-06 17:00:00,18,1020,-1,59,10,20000,22.224,,,280,,,,,,,,,,0,wg-a,,,,AAXX 06174 07181 32670 72812 10180 20100 39793 40200 56010 700// 84232 91700=
07181,1999-04-06 18:00:00,16,1019.5,-1.1,63,9,20000,22.224,,,260,9.4,21.4,,,,,,,,25,wg-a,,,,AAXX 06184 07181 02670 72612 10160 20090 39786 40195 58011 61000 72586 84832 91800 333 10214 20094 ////=
07181,1999-04-06 19:00:00,14,1019.9,-0.6,77,10,15000,14.816,,,260,,,,,,,,,,13,wg-a,,,,AAXX 06194 07181 32665 72608 10140 20100 39787 40199 55006 71322 84832 91900=
07181,1999-04-06 20:00:00,14,1020.1,-0.5,77,10,15000,14.816,,,240,,,,,,,,,,13,wg-a,,,,AAXX 06204 07181 32665 /2408 10140 20100 39788 40201 55005 71322 82131 92000=
07181,1999-04-06 21:00:00,14,1019.8,-0.1,82,11,15000,14.816,,,290,,,,,,,,,,0,wg-a,,,,AAXX 06214 07181 32665 /2908 10140 20110 39785 40198 58001 700// 82101 92100=
07181,1999-04-06 22:00:00,13,1019.6,-0.5,88,11,15000,7.408,,,290,,,,,,,,,,0,wg-a,,,,AAXX 06224 07181 32665 72904 10130 20110 39782 40196 58005 700// 84801 92200=
07181,1999-04-06 23:00:00,13,1019.2,-1,88,11,15000,11.112,,,280,,,,,,,,,,0,wg-a,,,,AAXX 06234 07181 32665 72806 10130 20110 39778 40192 58010 700// 84801 92300=
07181,1999-04-07 00:00:00,12,1018.6,-1.3,88,10,15000,11.112,,,280,,,,,,,,,,,wg-a,,,,AAXX 07004 07181 32665 72806 10120 20100 39772 40186 58013 84801 90000=
07181,1999-04-07 01:00:00,11,1018.1,-1.6,94,10,10000,14.816,,,290,,,0,,,,,,,80,wg-a,,,,AAXX 07014 07181 12460 72908 10110 20100 39766 40181 58016 60005 78086 878// 90100=
07181,1999-04-07 02:00:00,11,1018.1,-1.3,87,9,10000,18.52,,,290,,,,,,,,,,25,wg-a,,,,AAXX 07024 07181 02460 72910 10110 20090 39765 40181 56013 61000 72586 878// 90200 333 ////=
07181,1999-04-07 03:00:00,10,1018,-1,82,7,10000,18.52,,,300,,,,0,,,,,,2,wg-a,,,,AAXX 07034 07181 12460 73010 10100 20070 39762 40180 56010 60007 70286 878// 90300=
07181,1999-04-07 04:00:00,9,1017.9,-0.6,81,6,15000,14.816,,,280,,,,,,,,,,0,wg-a,,,,AAXX 07044 07181 32565 72808 10090 20060 39760 40179 58006 700// 84801 90400=
07181,1999-04-07 05:00:00,9,1018.1,-0.4,81,6,15000,11.112,,,300,,,,,,,,,,0,wg-a,,,,AAXX 07054 07181 32265 73006 10090 20060 39761 40181 55004 700// 84572 90500=
07181,1999-04-07 06:00:00,8,1018.2,-0,87,6,15000,11.112,,,270,8.1,15.9,,,,,,,,1,wg-a,,,,AAXX 07064 07181 12365 72706 10080 20060 39762 40182 55000 60004 70186 84572 90600 333 10159 20081=
07181,1999-04-07 07:00:00,8,1018.7,0.7,93,7,15000,18.52,,,250,,,,,,,,,,0,wg-a,,,,AAXX 07074 07181 32465 72510 10080 20070 39767 40187 53007 700// 84872 90700=
07181,1999-04-07 08:00:00,9,1018.8,0.8,87,7,13000,22.224,,,270,,,,,,,,,,0,wg-a,,,,AAXX 07084 07181 32463 72712 10090 20070 39769 40188 53008 700// 8687/ 90800=
07181,1999-04-07 09:00:00,9,1018.8,0.7,87,7,13000,18.52,,,280,,,,0,,,,,,25,wg-a,,,,AAXX 07094 07181 12463 72810 10090 20070 39769 40188 51007 60007 72586 86802 90900=
07181,1999-04-07 10:00:00,10,1018.9,0.3,76,6,13000,29.632,,,260,,,,,,,,,,0,wg-a,,,,AAXX 07104 07181 32463 72616 10100 20060 39770 40189 51003 700// 86802 91000=
07181,1999-04-07 11:00:00,10,1018,-0.6,76,6,13000,22.224,,,270,,,,,,,,,,0,wg-a,,,,AAXX 07114 07181 32463 72712 10100 20060 39763 40180 58006 700// 86802 91100=
07181,1999-04-07 12:00:00,9,1018.1,-0.7,93,8,13000,14.816,,,300,,,,1,,,,,,25,wg-a,,,,AAXX 07124 07181 12463 73008 10090 20080 39762 40181 58007 60017 72586 878// 91200=
07181,1999-04-08 06:00:00,6,1021.5,1.6,93,5,4000,7.408,,,290,5.4,,,,,,1,,,10,wg-a,,,,AAXX 08064 07181 12440 /2904 10060 20050 39955 40215 53016 60014 71011 85600 90600 333 20054=
07181,1999-04-08 20:00:00,10,1024.5,1.5,71,5,15000,14.816,,,30,,,,,,,,,,0,wg-a,,,,AAXX 08204 07181 32765 70308 10100 20050 39824 40245 53015 700// 875// 92000=
07181,1999-04-08 21:00:00,9,1025.1,1.6,71,4,15000,11.112,,,30,,,,,,,,,,0,wg-a,,,,AAXX 08214 07181 32765 70306 10090 20040 39829 40251 52016 700// 875// 92100=
07181,1999-04-08 22:00:00,8,1025.4,1.3,76,4,15000,11.112,,,50,,,,,,,,,,0,wg-a,,,,AAXX 08224 07181 32765 70506 10080 20040 39831 40254 51013 700// 875// 92200=
07181,1999-04-08 23:00:00,8,1025.5,0.7,76,4,15000,3.704,,,70,,,,,,,,,,0,wg-a,,,,AAXX 08234 07181 32765 70702 10080 20040 39831 40255 51007 700// 875// 92300=
07181,1999-04-09 00:00:00,6,1025.7,0.2,87,4,15000,3.704,,,30,,,,,,,,,,0,wg-a,,,,AAXX 09004 07181 32765 70302 10060 20040 39831 40257 51002 700// 875// 90000=
07181,1999-04-09 01:00:00,5,1025.7,-0.2,93,4,15000,7.408,,,20,,,,,,,,,,0,wg-a,,,,AAXX 09014 07181 32765 70204 10050 20040 39829 40257 58002 700// 875// 90100=
07181,1999-04-09 02:00:00,4,1025.6,-0.5,93,3,15000,3.704,,,320,,,,,,,,,,0,wg-a,,,,AAXX 09024 07181 32765 73202 10040 20030 39826 40256 58005 700// 875// 90200=
07181,1999-04-09 03:00:00,3,1025.7,-0.5,100,3,15000,3.704,,,340,,,,,,,,,,0,wg-a,,,,AAXX 09034 07181 32765 73402 10030 20030 39826 40257 56005 700// 875// 90300=
07181,1999-04-09 04:00:00,3,1026,-0.1,93,2,15000,3.704,,,10,,,,,,,,,,0,wg-a,,,,AAXX 09044 07181 32765 40102 10030 20020 39828 40260 55001 700// 84500 90400=
07181,1999-04-09 05:00:00,2,1026.4,0.4,93,1,2000,3.704,,,60,,,,,,,,,,40,wg-a,,,,AAXX 09054 07181 32/20 20602 10020 20010 39830 40264 53004 74000 80001 90500=
07181,1999-04-09 06:00:00,3,1026.5,0.7,100,3,3000,7.408,,,340,1.6,10.7,,,,,,,,10,wg-a,,,,AAXX 09064 07181 12/30 33404 10030 20030 39833 40265 53007 60004 71011 80001 90600 333 10107 20016=
07181,1999-04-09 08:00:00,8,1026,0.6,81,5,6000,7.408,,,40,,,,,,,,,,0,wg-a,,,,AAXX 09084 07181 32/56 50404 10080 20050 39836 40260 51006 700// 80001 90800=
07181,1999-04-09 09:00:00,9,1026.2,0.6,81,6,7000,11.112,,,300,,,,,,,,,,0,wg-a,,,,AAXX 09094 07181 32457 /3006 10090 20060 39839 40262 52006 700// 83101 90900=
07181,1999-04-09 10:00:00,10,1026,0.3,76,6,10000,11.112,,,320,,,,,,,,,,0,wg-a,,,,AAXX 09104 07181 32460 73206 10100 20060 39839 40260 52003 700// 85102 91000=
07181,1999-04-09 11:00:00,11,1025.8,0.2,62,4,15000,11.112,,,20,,,,,,,,,,0,wg-a,,,,AAXX 09114 07181 32565 70206 10110 20040 39838 40258 50002 700// 878// 91100=
07181,1999-04-09 12:00:00,12,1025.3,-0.4,54,3,17000,11.112,,,360,,,,,,,,,,0,wg-a,,,,AAXX 09124 07181 32567 73606 10120 20030 39835 40253 58004 700// 86802 91200=
07181,1999-04-09 13:00:00,13,1024.8,-0.8,54,4,20000,14.816,,,40,,,,,,,,,,0,wg-a,,,,AAXX 09134 07181 32570 70408 10130 20040 39831 40248 58008 700// 85802 91300=
07181,1999-04-09 14:00:00,13,1024.3,-1.1,54,4,20000,7.408,,,50,,,,,,,,,,0,wg-a,,,,AAXX 09144 07181 32670 /0504 10130 20040 39827 40243 58011 700// 83502 91400=
07181,1999-04-09 16:00:00,13,1023.8,-0.9,54,4,20000,14.816,,,350,,,,,,,,,,0,wg-a,,,,AAXX 09164 07181 32670 33508 10130 20040 39822 40238 56009 700// 82101 91600=
07181,1999-04-09 17:00:00,13,1023.9,-0.5,54,4,17000,14.816,,,350,,,,,,,,,,0,wg-a,,,,AAXX 09174 07181 32667 23508 10130 20040 39822 40239 56005 700// 81101 91700=
07181,1999-04-09 18:00:00,11,1024,-0.2,62,4,17000,7.408,,,360,2.7,14,,,,,,,,0,wg-a,,,,AAXX 09184 07181 32/67 23604 10110 20040 39822 40240 56002 700// 80001 91800 333 10140 20027=
07181,1999-04-09 19:00:00,9,1024.5,0.1,71,4,17000,3.704,,,50,,,,,,,,,,0,wg-a,,,,AAXX 09194 07181 32/67 10502 10090 20040 39823 40245 53001 700// 80001 91900=
07181,1999-04-09 20:00:00,8,1024.6,0.1,76,4,17000,3.704,,,80,,,,,,,,,,0,wg-a,,,,AAXX 09204 07181 32/67 10802 10080 20040 39823 40246 52001 700// 80001 92000=
07181,1999-04-09 22:00:00,6,1024.6,-0.4,81,3,12000,3.704,,,290,,,,,,,,,,0,wg-a,,,,AAXX 09224 07181 32/62 02902 10060 20030 39819 40246 58004 700// 80000 92200=
07181,1999-04-10 00:00:00,5,1024.4,-0.5,87,3,12000,7.408,,,270,,,,,,,,,,0,wg-a,,,,AAXX 10004 07181 32/62 02704 10050 20030 39815 40244 57005 700// 80000 90000=
07181,1999-04-10 01:00:00,3,1023.9,-1,93,2,10000,3.704,,,230,,,,,,,,,,0,wg-a,,,,AAXX 10014 07181 32/60 02302 10030 20020 39809 40239 58010 700// 80000 90100=
07181,1999-04-10 02:00:00,3,1023.5,-1.1,93,2,10000,3.704,,,250,,,,,,,,,,0,wg-a,,,,AAXX 10024 07181 32/60 02502 10030 20020 39805 40235 58011 700// 80000 90200=
07181,1999-04-10 03:00:00,3,1023.1,-1.4,93,2,10000,3.704,,,220,,,,,,,,,,0,wg-a,,,,AAXX 10034 07181 32/60 02202 10030 20020 39801 40231 56014 700// 80000 90300=
07181,1999-04-10 04:00:00,3,1022.9,-1,93,2,8000,7.408,,,220,,,,,,,,,,0,wg-a,,,,AAXX 10044 07181 32/58 /2204 10030 20020 39799 40229 56010 700// 80001 90400=
07181,1999-04-10 05:00:00,3,1022.9,-0.6,93,2,8000,3.704,,,220,,,,,,,,,,,wg-a,,,,AAXX 10054 07181 32/58 /2202 10030 20020 39799 40229 56006 90500=
07181,1999-04-10 06:00:00,5,1022.5,-0.3,87,3,10000,7.408,,,160,2.6,11.1,,,,,,,,0,wg-a,,,,AAXX 10064 07181 12/60 41604 10050 20030 39798 40225 56003 60004 700// 80001 90600 333 10111 20026=
07181,1999-04-10 07:00:00,6,1022.4,-0,93,5,10000,3.704,,,260,,,,,,,,,,0,wg-a,,,,AAXX 10074 07181 32/60 52602 10060 20050 39799 40224 55000 700// 80001 90700=
07181,1999-04-10 08:00:00,10,1021.6,-0.2,76,6,11000,3.704,,,230,,,,,,,,,,0,wg-a,,,,AAXX 10084 07181 32/61 52302 10100 20060 39797 40216 58002 700// 80001 90800=
07181,1999-04-10 09:00:00,13,1021.1,-0.2,58,5,12000,7.408,,,250,,,,,,,,,,0,wg-a,,,,AAXX 10094 07181 32/62 52504 10130 20050 39796 40211 58002 700// 80001 90900=
07181,1999-04-10 10:00:00,14,1020.6,-0.6,55,5,13000,7.408,,,280,,,,,,,,,,0,wg-a,,,,AAXX 10104 07181 32663 /2804 10140 20050 39793 40206 58006 700// 81101 91000=
07181,1999-04-10 11:00:00,15,1019.7,-1.1,51,5,15000,11.112,,,190,,,,,,,,,,0,wg-a,,,,AAXX 10114 07181 32665 /1906 10150 20050 39786 40197 58011 700// 82101 91100=
07181,1999-04-10 12:00:00,17,1018.7,-1.8,45,5,15000,3.704,,,220,,,,,,,,,,0,wg-a,,,,AAXX 10124 07181 32665 42202 10170 20050 39778 40187 58018 700// 83101 91200=
07181,1999-04-10 13:00:00,17,1017.9,-2.2,45,5,18000,11.112,,27.78,290,,,,,,,,,,0,wg-a,,,,AAXX 10134 07181 32668 32906 10170 20050 39771 40179 57022 700// 83101 91300 333 91015=
07181,1999-04-10 14:00:00,17,1017.3,-2,45,5,18000,18.52,,,300,,,,,,,,,,0,wg-a,,,,AAXX 10144 07181 32768 53010 10170 20050 39766 40173 56020 700// 85500 91400=
07181,1999-04-10 15:00:00,16,1017.3,-1.4,55,7,15000,18.52,,,310,,,,,,,,,,0,wg-a,,,,AAXX 10154 07181 32665 73110 10160 20070 39764 40173 56014 700// 875// 91500=
07181,1999-04-10 16:00:00,15,1017.4,-0.7,63,8,10000,22.224,,,280,,,,,,,,,,0,wg-a,,,,AAXX 10164 07181 32660 72812 10150 20080 39764 40174 56007 700// 878// 91600=
07181,1999-04-10 17:00:00,14,1017.4,-0.3,67,8,10000,18.52,,,290,,,,,,,,,,0,wg-a,,,,AAXX 10174 07181 32660 72910 10140 20080 39763 40174 56003 700// 878// 91700=
07181,1999-04-10 18:00:00,13,1017.6,-0.1,72,8,8000,18.52,,,280,4.7,17.4,,,,,,,,0,wg-a,,,,AAXX 10184 07181 32658 /2810 10130 20080 39763 40176 57001 700// 84801 91800 333 10174 20047=
07181,1999-04-10 19:00:00,12,1018.1,0.2,82,9,8000,14.816,,,290,,,,,,,,,,0,wg-a,,,,AAXX 10194 07181 32758 /2908 10120 20090 39766 40181 53002 700// 84501 91900=
07181,1999-04-10 20:00:00,11,1018.4,0.5,87,9,8000,14.816,,,280,,,,,,,,,,0,wg-a,,,,AAXX 10204 07181 32758 72808 10110 20090 39768 40184 53005 700// 84501 92000=
07181,1999-04-10 21:00:00,11,1018.6,0.6,76,7,12000,18.52,,,270,,,,,,,,,,0,wg-a,,,,AAXX 10214 07181 32662 72710 10110 20070 39769 40186 51006 700// 85501 92100=
07181,1999-04-10 22:00:00,10,1018.6,0.2,82,7,12000,18.52,,,260,,,,,,,,,,0,wg-a,,,,AAXX 10224 07181 32662 72610 10100 20070 39768 40186 50002 700// 875// 92200=
07181,1999-04-10 23:00:00,10,1018.3,-0.3,87,8,12000,18.52,,,260,,,,,,,,,,0,wg-a,,,,AAXX 10234 07181 32662 72610 10100 20080 39765 40183 58003 700// 875// 92300=
07181,1999-04-11 00:00:00,10,1018,-0.7,87,8,12000,14.816,,,250,,,,,,,,,,0,wg-a,,,,AAXX 11004 07181 32662 72508 10100 20080 39762 40180 58007 700// 875// 90000=
07181,1999-04-11 01:00:00,10,1017.6,-1,87,8,10000,14.816,,,240,,,,,,,,,,0,wg-a,,,,AAXX 11014 07181 32660 72408 10100 20080 39758 40176 58010 700// 875// 90100=
07181,1999-04-11 02:00:00,9,1017.3,-1,100,9,6000,14.816,,,280,,,,,,,,,,0,wg-a,,,,AAXX 11024 07181 32456 72808 10090 20090 39755 40173 57010 700// 875// 90200=
07181,1999-04-11 04:00:00,7,1017.9,-0.1,93,6,8000,7.408,,,280,,,0,,,,,,,60,wg-a,,,,AAXX 11044 07181 12458 72804 10070 20060 39757 40179 56001 60005 76066 878// 90400=
07181,1999-04-11 05:00:00,7,1018.1,0.4,100,7,10000,14.816,,,280,,,,,,,,,,60,wg-a,,,,AAXX 11054 07181 02260 72808 10070 20070 39759 40181 52004 61000 76066 878// 90500 333 ////=
07181,1999-04-11 06:00:00,7,1018.6,0.7,93,6,9000,18.52,,,300,6.7,12.8,,0,,,1,,,60,wg-a,,,,AAXX 11064 07181 02259 73010 10070 20060 39764 40186 53007 60014 76062 878// 90600 333 10128 20067 60007=
07181,1999-04-11 07:00:00,7,1018.9,1,93,6,9000,22.224,,,290,,,,,,,,,,21,wg-a,,,,AAXX 11074 07181 02459 72912 10070 20060 39767 40189 53010 61000 72162 878// 90700 333 ////=
07181,1999-04-11 08:00:00,7,1019.7,1.5,87,5,9000,22.224,,,300,,,,,,,,,,21,wg-a,,,,AAXX 11084 07181 32359 73012 10070 20050 39774 40197 53015 72122 878// 90800=
07181,1999-04-11 09:00:00,7,1020.6,1.8,87,5,10000,18.52,,,310,,,,,,,,,,1,wg-a,,,,AAXX 11094 07181 02360 83110 10070 20050 39782 40206 53018 61000 70162 878// 90900 333 ////=
07181,1999-04-11 10:00:00,7,1020.9,1.9,87,5,12000,14.816,,,280,,,,,,,,,,0,wg-a,,,,AAXX 11104 07181 32362 82808 10070 20050 39786 40209 51019 700// 878// 91000=
07181,1999-04-11 11:00:00,9,1020.6,1.2,76,5,12000,22.224,,,300,,,,,,,,,,0,wg-a,,,,AAXX 11114 07181 32362 83012 10090 20050 39786 40206 51012 700// 878// 91100=
07181,1999-04-11 12:00:00,9,1020.5,0.3,76,5,15000,25.928,,,280,,,,,,,,,,25,wg-a,,,,AAXX 11124 07181 02465 82814 10090 20050 39785 40205 50003 61000 72586 878// 91200 333 ////=
07181,1999-04-11 13:00:00,10,1020.4,-0.1,66,4,15000,25.928,,,280,,,,,,,,,,0,wg-a,,,,AAXX 11134 07181 32465 72814 10100 20040 39785 40204 57001 700// 878// 91300=
07181,1999-04-11 14:00:00,9,1020.4,-0.2,71,4,15000,22.224,,,280,,,,,,,,,,80,wg-a,,,,AAXX 11144 07181 02565 72812 10090 20040 39784 40204 57002 61000 78086 878// 91400 333 ////=
07181,1999-04-11 15:00:00,10,1020.1,-0.3,57,2,15000,22.224,,,290,,,,,,,,,,25,wg-a,,,,AAXX 11154 07181 02565 72912 10100 20020 39782 40201 58003 61000 72586 878// 91500 333 ////=
07181,1999-04-11 16:00:00,10,1020.1,-0.3,62,3,18000,22.224,,,280,,,,,,,,,,0,wg-a,,,,AAXX 11164 07181 32568 72812 10100 20030 39782 40201 56003 700// 878// 91600=
07181,1999-04-11 17:00:00,9,1020.2,-0.2,66,3,20000,22.224,,,250,,,,,,,,,,0,wg-a,,,,AAXX 11174 07181 32570 72512 10090 20030 39782 40202 56002 700// 878// 91700=
07181,1999-04-11 18:00:00,8,1020.2,-0.1,76,4,20000,14.816,,,250,6.5,11.1,,,,,,,,1,wg-a,,,,AAXX 11184 07181 32670 72508 10080 20040 39781 40202 58001 70186 878// 91800 333 10111 20065=
07181,1999-04-11 19:00:00,8,1020.1,-0.2,76,4,20000,14.816,,,250,,,,,,,,,,0,wg-a,,,,AAXX 11194 07181 32670 72508 10080 20040 39780 40201 58002 700// 878// 91900=
07181,1999-04-11 20:00:00,8,1020.2,-0.2,76,4,20000,11.112,,,220,,,,,,,,,,0,wg-a,,,,AAXX 11204 07181 32770 52206 10080 20040 39780 40202 56002 700// 85500 92000=
07181,1999-04-11 21:00:00,7,1020,-0.5,76,3,20000,14.816,,,220,,,,,,,,,,0,wg-a,,,,AAXX 11214 07181 32770 52208 10070 20030 39776 40200 58005 700// 85500 92100=
07181,1999-04-11 22:00:00,5,1019.3,-1.2,81,2,20000,14.816,,,220,,,,,,,,,,0,wg-a,,,,AAXX 11224 07181 32770 52208 10050 20020 39768 40193 58012 700// 85500 92200=
07181,1999-04-11 23:00:00,5,1018.4,-2.2,87,3,20000,14.816,,,220,,,,,,,,,,0,wg-a,,,,AAXX 11234 07181 32770 52208 10050 20030 39758 40184 58022 700// 85500 92300=
07181,1999-04-12 00:00:00,5,1017.3,-2.8,87,3,20000,14.816,,,210,,,,,,,,,,0,wg-a,,,,AAXX 12004 07181 32770 52108 10050 20030 39748 40173 58028 700// 85500 90000=
07181,1999-04-12 01:00:00,5,1016.2,-3.1,87,3,20000,18.52,,,210,,,,,,,,,,0,wg-a,,,,AAXX 12014 07181 32770 52110 10050 20030 39737 40162 58031 700// 85500 90100=
07181,1999-04-12 02:00:00,4,1014.8,-3.5,87,2,15000,14.816,,,210,,,,,,,,,,0,wg-a,,,,AAXX 12024 07181 32765 22108 10040 20020 39723 40148 58035 700// 82200 90200=
07181,1999-04-12 03:00:00,4,1013.6,-3.6,87,2,15000,18.52,,,210,,,,,,,,,,0,wg-a,,,,AAXX 12034 07181 32765 22110 10040 20020 39712 40136 57036 700// 82500 90300=
07181,1999-04-12 04:00:00,5,1011.9,-4.1,87,3,15000,25.928,,,210,,,,,,,,,,0,wg-a,,,,AAXX 12044 07181 32/65 62114 10050 20030 39696 40119 58041 700// 83032 90400=
07181,1999-04-12 06:00:00,6,1008.9,-4.3,87,4,15000,25.928,,44.448,210,4.2,8.4,,,,,,,,0,wg-a,,,,AAXX 12064 07181 12465 72114 10060 20040 39669 40089 57043 60004 700// 8483/ 90600 333 10084 20042 91024=
07181,1999-04-12 07:00:00,7,1007.5,-3.9,81,4,20000,29.632,,,210,,,,,,,,,,0,wg-a,,,,AAXX 12074 07181 32470 72116 10070 20040 39657 40075 58039 700// 8483/ 90700=
07181,1999-04-12 08:00:00,6,1007,-3.5,87,4,8000,31.484,,55.56,210,,,1,,,,,,,60,wg-a,,,,AAXX 12084 07181 12458 72117 10060 20040 39650 40070 56035 60015 76062 875// 90800 333 91030=
07181,1999-04-12 09:00:00,5,1006,-2.8,100,5,8000,29.632,,,210,,,,3,,,,,,60,wg-a,,,,AAXX 12094 07181 12458 72116 10050 20050 39641 40060 56028 60037 76062 875// 90900=
07181,1999-04-12 10:00:00,6,1005,-2.6,93,5,9000,31.484,,57.412,210,,,2,,,,,,,60,wg-a,,,,AAXX 12104 07181 12359 72117 10060 20050 39631 40050 58026 60025 76066 878// 91000 333 91031=
07181,1999-04-12 11:00:00,6,1003.8,-3,93,5,500,29.632,,50.004,210,,,1,,,,,,,60,wg-a,,,,AAXX 12114 07181 12300 72116 10060 20050 39620 40038 58030 60015 76066 878// 91100 333 91027=
07181,1999-04-12 12:00:00,7,1002.6,-3.1,93,6,4000,29.632,,50.004,210,,,,3,,,,,,60,wg-a,,,,AAXX 12124 07181 12340 72116 10070 20060 39610 40026 57031 60037 76062 878// 91200 333 91027=
07181,1999-04-12 13:00:00,7,1001.4,-3.1,100,7,500,31.484,,48.152,200,,,1,,,,,,,60,wg-a,,,,AAXX 12134 07181 12200 72017 10070 20070 39600 40014 56031 60015 76066 878// 91300 333 91026=
07181,1999-04-12 14:00:00,7,1000.7,-2.7,100,7,500,22.224,,,210,,,1,,,,,,,60,wg-a,,,,AAXX 12144 07181 12200 72112 10070 20070 39593 40007 56027 60015 76066 878// 91400=
07181,1999-04-12 15:00:00,8,999.3,-2.9,93,7,15000,25.928,,44.448,190,,,,3,,,,,,21,wg-a,,,,AAXX 12154 07181 12265 71914 10080 20070 39581 49993 58029 60037 72162 872// 91500 333 91024=
07181,1999-04-12 16:00:00,8,998.5,-2.7,93,7,15000,22.224,,,200,,,,,,,,,,25,wg-a,,,,AAXX 12164 07181 32265 72012 10080 20070 39573 49985 58027 72522 878// 91600=
07181,1999-04-12 17:00:00,7,998.6,-2.1,93,6,8000,7.408,,,230,,,4,,,,,,,80,wg-a,,,,AAXX 12174 07181 12358 62304 10070 20060 39572 49986 56021 60045 78086 86900 91700=
07181,1999-04-12 18:00:00,7,998.4,-1,93,6,15000,14.816,,,200,5.3,8.6,,4,,,,,,25,wg-a,,,,AAXX 12184 07181 12465 72008 10070 20060 39571 49984 56010 60047 72586 87900 91800 333 10086 20053=
07181,1999-04-12 19:00:00,7,998.7,-0,93,6,15000,11.112,,,210,,,,,,,,,,25,wg-a,,,,AAXX 12194 07181 32465 72106 10070 20060 39573 49987 55000 72522 87900 91900=
07181,1999-04-12 20:00:00,7,999.2,0.5,93,6,12000,22.224,,,230,,,2,,,,,,,80,wg-a,,,,AAXX 12204 07181 12462 72312 10070 20060 39577 49992 53005 60025 78087 87900 92000=
07181,1999-04-12 21:00:00,6,999.3,0.6,100,6,12000,11.112,,,210,,,,2,,,,,,25,wg-a,,,,AAXX 12214 07181 12462 72106 10060 20060 39577 49993 51006 60027 72587 879// 92100=
07181,1999-04-12 22:00:00,6,999.2,0.4,100,6,12000,14.816,,,240,,,1,,,,,,,80,wg-a,,,,AAXX 12224 07181 12462 72408 10060 20060 39577 49992 51004 60015 78086 872// 92200=
07181,1999-04-12 23:00:00,6,999.5,0.2,100,6,11000,22.224,,,240,,,,,,,,,,,wg-a,,,,AAXX 12234 07181 32/61 /2412 10060 20060 39579 49995 53002 92300=
07181,1999-04-13 00:00:00,6,999.8,0.5,93,5,12000,22.224,,,260,,,,1,,,,,,2,wg-a,,,,AAXX 13004 07181 12462 72612 10060 20050 39582 49998 53005 60017 70287 872// 90000=
07181,1999-04-13 01:00:00,6,999.7,0.4,93,5,12000,25.928,,,250,,,,,,,,,,0,wg-a,,,,AAXX 13014 07181 32462 /2514 10060 20050 39581 49997 50004 700// 86200 90100=
07181,1999-04-13 02:00:00,5,999.9,0.3,93,4,12000,22.224,,,250,,,,,,,,,,0,wg-a,,,,AAXX 13024 07181 32462 /2512 10050 20040 39582 49999 51003 700// 86200 90200=
07181,1999-04-13 03:00:00,6,1000,0.2,93,5,12000,22.224,,,250,,,,,,,,,,0,wg-a,,,,AAXX 13034 07181 32462 /2512 10060 20050 39584 40000 53002 700// 86200 90300=
07181,1999-04-13 04:00:00,5,1000.4,0.6,100,5,12000,25.928,,,260,,,2,,,,,,,80,wg-a,,,,AAXX 13044 07181 12462 /2614 10050 20050 39587 40004 53006 60025 78086 86200 90400=
07181,1999-04-13 05:00:00,5,1000.8,0.9,100,5,12000,22.224,,,260,,,,,,,,,,25,wg-a,,,,AAXX 13054 07181 02462 82612 10050 20050 39591 40008 53009 61000 72586 878// 90500 333 ////=
07181,1999-04-13 06:00:00,6,1001.7,1.6,93,5,12000,22.224,,,270,5.1,7.3,,2,,,18,,,80,wg-a,,,,AAXX 13064 07181 02462 82712 10060 20050 39600 40017 53016 60184 78086 878// 90600 333 10073 20051 60027=
07181,1999-04-13 07:00:00,6,1002.7,2.2,93,5,12000,29.632,,,280,,,0,,,,,,,80,wg-a,,,,AAXX 13074 07181 12362 72816 10060 20050 39609 40027 53022 60005 78086 878// 90700=
07181,1999-04-13 08:00:00,6,1003.7,2.8,93,5,13000,29.632,,,290,,,0,,,,,,,25,wg-a,,,,AAXX 13084 07181 12463 72916 10060 20050 39619 40037 53028 60005 72586 878// 90800=
07181,1999-04-13 09:00:00,6,1004.4,2.7,93,5,15000,22.224,,,290,,,,0,,,,,,3,wg-a,,,,AAXX 13094 07181 12465 72912 10060 20050 39627 40044 51027 60007 70386 872// 90900=
07181,1999-04-13 10:00:00,7,1005.1,2.5,87,5,20000,25.928,,,300,,,,,,,,,,0,wg-a,,,,AAXX 13104 07181 32470 73014 10070 20050 39634 40051 51025 700// 878// 91000=
07181,1999-04-13 11:00:00,6.7,1005.6,2,78,3.1,20000,25.928,,,280,,,,,,,,,,,og-post,,,,AAXX 13114 07181 32470 72814 10067 20031 39639 40056 51020 878// 333 85815 85656=
07181,1999-04-13 12:00:00,7,1005.7,1.3,70,2,25000,35.188,,,300,,,,,,,,,,1,wg-a,,,,AAXX 13124 07181 32475 /3019 10070 20020 39640 40057 51013 70186 86800 91200=
07181,1999-04-13 13:00:00,10,1005.1,0.4,53,1,25000,35.188,,,280,,,,,,,,,,0,wg-a,,,,AAXX 13134 07181 32575 /2819 10100 20010 39638 40051 50004 700// 86800 91300=
07181,1999-04-13 14:00:00,8,1005.4,-0,57,0,25000,31.484,,51.856,280,,,,,,,,,,0,wg-a,,,,AAXX 13144 07181 32575 72817 10080 20000 39639 40054 54000 700// 879// 91400 333 91028=
07181,1999-04-13 15:00:00,10,1004.5,-0.8,57,2,25000,25.928,,,250,,,,,,,,,,0,wg-a,,,,AAXX 13154 07181 32575 62514 10100 20020 39632 40045 58008 700// 86900 91500=
07181,1999-04-13 16:00:00,8,1004.2,-1.1,61,1,25000,22.224,,,270,,,,,,,,,,0,wg-a,,,,AAXX 13164 07181 32575 82712 10080 20010 39627 40042 58011 700// 879// 91600=
07181,1999-04-13 17:00:00,6,1004.3,-1.4,87,4,8000,22.224,,50.004,240,,,,,,,,,,25,wg-a,,,,AAXX 13174 07181 02558 82412 10060 20040 39625 40043 56014 61000 72586 879// 91700 333 //// 91027=
07181,1999-04-13 18:00:00,6,1003.5,-1.5,75,2,20000,25.928,,,240,5.3,9.7,,,,,,,,1,wg-a,,,,AAXX 13184 07181 02570 /2414 10060 20020 39617 40035 58015 61000 70186 85900 91800 333 10097 20053 ////=
07181,1999-04-13 19:00:00,4,1004.3,-0.5,93,3,500,42.596,,,240,,,1,,,,,,,80,wg-a,,,,AAXX 13194 07181 12500 82423 10040 20030 39622 40043 55005 60015 78086 879// 91900=
07181,1999-04-13 20:00:00,4,1005.1,0.4,87,2,15000,25.928,,38.892,270,,,1,,,,,,,25,wg-a,,,,AAXX 13204 07181 12565 /2714 10040 20020 39629 40051 53004 60015 72586 86900 92000 333 91021=
07181,1999-04-13 21:00:00,2,1006.3,2.1,87,0,15000,31.484,,,270,,,,3,,,,,,25,wg-a,,,,AAXX 13214 07181 12565 /2717 10020 20000 39638 40063 53021 60037 72586 85900 92100=
07181,1999-04-13 22:00:00,2,1006.6,1.9,87,0,15000,31.484,,,270,,,,,,,,,,25,wg-a,,,,AAXX 13224 07181 32565 /2717 10020 20000 39641 40066 51019 72522 85900 92200=
07181,1999-04-13 23:00:00,1,1006.8,1.3,86,-1,15000,22.224,,,260,,,,,,,,,,0,wg-a,,,,AAXX 13234 07181 32665 32612 10010 21010 39642 40068 51013 700// 83200 92300=
07181,1999-04-14 00:00:00,1,1007,0.5,86,-1,11000,14.816,,,240,,,,,,,,,,,wg-a,,,,AAXX 14004 07181 32/61 /2408 10010 21010 39643 40070 51005 90000=
07181,1999-04-14 01:00:00,2,1006.4,-0.3,87,0,15000,14.816,,,220,,,,,,,,,,0,wg-a,,,,AAXX 14014 07181 32565 72208 10020 20000 39638 40064 58003 700// 85802 90100=
07181,1999-04-14 02:00:00,2,1006,-0.7,93,1,15000,29.632,,,240,,,0,,,,,,,0,wg-a,,,,AAXX 14024 07181 12565 72416 10020 20010 39635 40060 58007 60005 700// 86802 90200=
07181,1999-04-14 03:00:00,2,1005.6,-1.2,93,1,15000,22.224,,,230,,,,1,,,,,,61,wg-a,,,,AAXX 14034 07181 12565 82312 10020 20010 39631 40056 56012 60017 76162 878// 90300=
07181,1999-04-14 04:00:00,2,1005.1,-1.1,100,2,15000,22.224,,,230,,,0,,,,,,,21,wg-a,,,,AAXX 14044 07181 12465 82312 10020 20020 39627 40051 58011 60005 72162 878// 90400=
07181,1999-04-14 05:00:00,2,1004.2,-1.6,100,2,12000,18.52,,,210,,,,,,,,,,0,wg-a,,,,AAXX 14054 07181 32462 82110 10020 20020 39619 40042 58016 700// 878// 90500=
07181,1999-04-14 06:00:00,3,1003.8,-1.5,93,2,15000,14.816,,,200,0.5,5.7,,0,,,4,,,3,wg-a,,,,AAXX 14064 07181 02265 82008 10030 20020 39616 40038 56015 60044 70362 878// 90600 333 10057 20005 60007=
07181,1999-04-14 07:00:00,4,1002.5,-2.3,93,3,10000,14.816,,,180,,,,,,,,,,60,wg-a,,,,AAXX 14074 07181 02260 81808 10040 20030 39604 40025 58023 61000 76062 878// 90700 333 ////=
07181,1999-04-14 08:00:00,4,1000.9,-2.9,100,4,7000,25.928,,,200,,,0,,,,,,,61,wg-a,,,,AAXX 14084 07181 12257 82014 10040 20040 39590 40009 58029 60005 76166 878// 90800=
07181,1999-04-14 09:00:00,4,999.2,-4.2,93,3,7000,29.632,,61.116,200,,,,2,,,,,,61,wg-a,,,,AAXX 14094 07181 12257 82016 10040 20030 39574 49992 58042 60027 76162 878// 90900 333 91033=
07181,1999-04-14 10:00:00,5,997.8,-4.3,93,4,8000,31.484,,62.968,200,,,2,,,,,,,61,wg-a,,,,AAXX 14104 07181 12258 82017 10050 20040 39561 49978 56043 60025 76166 878// 91000 333 91034=
07181,1999-04-14 11:00:00,7,996,-4.2,87,5,11000,42.596,,68.524,210,,,0,,,,,,,60,wg-a,,,,AAXX 14114 07181 12461 82123 10070 20050 39548 49960 56042 60005 76066 878// 91100 333 91037=
07181,1999-04-14 12:00:00,9,994.8,-3.6,71,4,15000,42.596,,74.08,200,,,,2,,,,,,21,wg-a,,,,AAXX 14124 07181 12465 82023 10090 20040 39538 49948 56036 60027 72162 878// 91200 333 91040=
07181,1999-04-14 13:00:00,11,993.4,-3.4,66,5,18000,50.004,,77.784,210,,,,,,,,,,0,wg-a,,,,AAXX 14134 07181 32468 82127 10110 20050 39527 49934 56034 700// 858// 91300 333 91042=
07181,1999-04-14 14:00:00,11,992.5,-2.9,58,3,20000,38.892,,75.932,200,,,,,,,,,,0,wg-a,,,,AAXX 14144 07181 32470 72021 10110 20030 39519 49925 56029 700// 86202 91400 333 91041=
07181,1999-04-14 15:00:00,10,991.8,-2.7,66,4,20000,38.892,,74.08,200,,,,,,,,,,0,wg-a,,,,AAXX 14154 07181 32470 72021 10100 20040 39511 49918 56027 700// 85272 91500 333 91040=
07181,1999-04-14 16:00:00,10,990.8,-2.5,66,4,20000,50.004,,70.376,210,,,,,,,,,,0,wg-a,,,,AAXX 14164 07181 32570 72127 10100 20040 39502 49908 58025 700// 84272 91600 333 91038=
07181,1999-04-14 17:00:00,9,990.6,-2.1,76,5,11000,38.892,,64.82,200,,,0,,,,,,,60,wg-a,,,,AAXX 14174 07181 12361 82021 10090 20050 39498 49906 56021 60005 76062 8527/ 91700 333 91035=
07181,1999-04-14 18:00:00,9,990.2,-1.6,71,4,15000,46.3,,70.376,200,2.9,10.9,,0,,,,,,60,wg-a,,,,AAXX 14184 07181 12365 82025 10090 20040 39495 49902 56016 60007 76062 8487/ 91800 333 10109 20029 91038=
07181,1999-04-14 19:00:00,10,990.8,-0.1,66,4,7000,46.3,,70.376,220,,,,,,,,,,60,wg-a,,,,AAXX 14194 07181 02357 82225 10100 20040 39501 49908 55001 61000 76062 875// 91900 333 //// 91038=
07181,1999-04-14 21:00:00,4,995.8,4.5,93,3,7000,31.484,,,270,,,,3,,,,,,60,wg-a,,,,AAXX 14214 07181 12257 82717 10040 20030 39540 49958 53045 60037 76062 875// 92100=
07181,1999-04-14 22:00:00,3,997,5,93,2,8000,22.224,,,250,,,0,,,,,,,60,wg-a,,,,AAXX 14224 07181 12258 82512 10030 20020 39551 49970 51050 60005 76066 875// 92200=
07181,1999-04-14 23:00:00,3,998,3.5,93,2,8000,25.928,,,250,,,,,,,,,,60,wg-a,,,,AAXX 14234 07181 02258 82514 10030 20020 39560 49980 51035 61000 76066 875// 92300 333 ////=
07181,1999-04-15 00:00:00,3,998.8,2.8,93,2,13000,25.928,,,230,,,,0,,,,,,21,wg-a,,,,AAXX 15004 07181 12263 82314 10030 20020 39568 49988 51028 60007 72162 875// 90000=
07181,1999-04-15 01:00:00,3,999.6,2.5,93,2,13000,25.928,,,230,,,,,,,,,,0,wg-a,,,,AAXX 15014 07181 32363 82314 10030 20020 39576 49996 51025 700// 875// 90100=
07181,1999-04-15 02:00:00,3,1000.4,2.3,87,1,13000,25.928,,,230,,,,,,,,,,0,wg-a,,,,AAXX 15024 07181 32463 82314 10030 20010 39583 40004 51023 700// 878// 90200=
07181,1999-04-15 03:00:00,2,1001,2,93,1,13000,22.224,,,240,,,,,,,,,,0,wg-a,,,,AAXX 15034 07181 32463 82412 10020 20010 39588 40010 51020 700// 878// 90300=
07181,1999-04-15 04:00:00,2,1001.4,1.6,93,1,15000,18.52,,,230,,,,,,,,,,0,wg-a,,,,AAXX 15044 07181 32465 82310 10020 20010 39592 40014 51016 700// 878// 90400=
07181,1999-04-15 05:00:00,2,1002.3,1.7,87,0,12000,22.224,,,220,,,,,,,,,,0,wg-a,,,,AAXX 15054 07181 32462 72212 10020 20000 39600 40023 53017 700// 875// 90500=
07181,1999-04-15 06:00:00,2,1003.1,2,87,0,12000,25.928,,,230,2.1,9.8,,,,,8,,,0,wg-a,,,,AAXX 15064 07181 12462 72314 10020 20000 39608 40031 53020 60084 700// 878// 90600 333 10098 20021=
07181,1999-04-15 07:00:00,3,1003.8,2.3,81,0,15000,22.224,,,220,,,,,,,,,,0,wg-a,,,,AAXX 15074 07181 32465 72212 10030 20000 39615 40038 51023 700// 878// 90700=
07181,1999-04-15 08:00:00,2,1004.5,2.1,87,0,11000,22.224,,,230,,,,,,,,,,,wg-a,,,,AAXX 15084 07181 32/61 /2312 10020 20000 39621 40045 51021 90800=
07181,1999-04-15 09:00:00,3,1004.9,1.8,87,1,10000,22.224,,,230,,,,,,,,,,26,wg-a,,,,AAXX 15094 07181 02460 72312 10030 20010 39626 40049 51018 61000 72687 878// 90900 333 ////=
07181,1999-04-15 10:00:00,3,1005.4,1.6,87,1,8000,22.224,,,240,,,,,,,,,,,wg-a,,,,AAXX 15104 07181 32/58 /2412 10030 20010 39631 40054 51016 91000=
07181,1999-04-15 11:00:00,4,1005.6,1.3,75,0,15000,25.928,,,230,,,,,,,,,,0,wg-a,,,,AAXX 15114 07181 32465 72314 10040 20000 39634 40056 51013 700// 878// 91100=
07181,1999-04-15 12:00:00,5,1005.6,0.9,65,-1,15000,25.928,,,250,,,,,,,,,,1,wg-a,,,,AAXX 15124 07181 02465 72514 10050 21010 39635 40056 51009 61000 70187 878// 91200 333 ////=
07181,1999-04-15 13:00:00,5,1005.5,0.4,65,-1,11000,22.224,,,240,,,,,,,,,,,wg-a,,,,AAXX 15134 07181 32/61 /2412 10050 21010 39635 40055 51004 91300=
07181,1999-04-15 14:00:00,6,1005.2,0,65,0,15000,22.224,,,240,,,,,,,,,,0,wg-a,,,,AAXX 15144 07181 32565 72412 10060 20000 39634 40052 50000 700// 868// 91400=
07181,1999-04-15 15:00:00,7,1004.8,-0.4,57,-1,15000,18.52,,,220,,,,,,,,,,0,wg-a,,,,AAXX 15154 07181 32565 72210 10070 21010 39631 40048 58004 700// 85201 91500=
07181,1999-04-15 16:00:00,8,1004.7,-0.4,49,-2,15000,18.52,,,260,,,,,,,,,,0,wg-a,,,,AAXX 15164 07181 32565 /2610 10080 21020 39631 40047 56004 700// 85201 91600=
07181,1999-04-15 17:00:00,8,1005,-0,49,-2,15000,22.224,,,190,,,,,,,,,,0,wg-a,,,,AAXX 15174 07181 32665 /1912 10080 21020 39634 40050 55000 700// 85201 91700=
07181,1999-04-15 18:00:00,6,1005.8,0.8,65,0,15000,18.52,,,190,2.1,8,,,,,,,,0,wg-a,,,,AAXX 15184 07181 32665 61910 10060 20000 39639 40058 53008 700// 84201 91800 333 10080 20021=
07181,1999-04-15 19:00:00,4,1006.6,1.3,81,1,15000,14.816,,,170,,,,,,,,,,0,wg-a,,,,AAXX 15194 07181 32665 61708 10040 20010 39644 40066 53013 700// 84201 91900=
07181,1999-04-15 20:00:00,4,1007.2,1.5,81,1,15000,11.112,,,180,,,,,,,,,,0,wg-a,,,,AAXX 15204 07181 32665 /1806 10040 20010 39649 40072 52015 700// 84201 92000=
07181,1999-04-15 21:00:00,3,1007.5,1.3,87,1,15000,14.816,,,190,,,,,,,,,,0,wg-a,,,,AAXX 15214 07181 32665 /1908 10030 20010 39652 40075 51013 700// 83201 92100=
07181,1999-04-15 22:00:00,3,1007.4,0.6,87,1,15000,11.112,,,160,,,,,,,,,,0,wg-a,,,,AAXX 15224 07181 32665 /1606 10030 20010 39650 40074 50006 700// 83201 92200=
07181,1999-04-15 23:00:00,3,1007.3,0,87,1,15000,14.816,,,160,,,,,,,,,,0,wg-a,,,,AAXX 15234 07181 32665 41608 10030 20010 39649 40073 50000 700// 81501 92300=
07181,1999-04-16 00:00:00,3,1007.1,-0.5,87,1,15000,14.816,,,180,,,,,,,,,,0,wg-a,,,,AAXX 16004 07181 32665 41808 10030 20010 39647 40071 57005 700// 81501 90000=
07181,1999-04-16 02:00:00,3,1007,-0.3,87,1,15000,14.816,,,200,,,,,,,,,,0,wg-a,,,,AAXX 16024 07181 32665 /2008 10030 20010 39646 40070 56003 700// 82501 90200=
07181,1999-04-16 05:00:00,2,1007.7,0.5,87,0,11000,11.112,,,200,,,,,,,,,,0,wg-a,,,,AAXX 16054 07181 32461 52006 10020 20000 39651 40077 51005 700// 84801 90500=
07181,1999-04-16 06:00:00,3,1007.8,0.3,93,2,15000,11.112,,,210,1.7,6.1,,,,,,,,0,wg-a,,,,AAXX 16064 07181 12465 42106 10030 20020 39653 40078 53003 60004 700// 84801 90600 333 10061 20017=
07181,1999-04-16 07:00:00,3,1008,0.5,93,2,15000,14.816,,,220,,,,,,,,,,0,wg-a,,,,AAXX 16074 07181 32565 52208 10030 20020 39656 40080 53005 700// 85800 90700=
07181,1999-04-16 08:00:00,4,1008.4,1,87,2,15000,7.408,,,160,,,,,,,,,,0,wg-a,,,,AAXX 16084 07181 32465 71604 10040 20020 39661 40084 53010 700// 878// 90800=
07181,1999-04-16 09:00:00,6,1008.1,0.8,75,2,20000,11.112,,,250,,,,,,,,,,0,wg-a,,,,AAXX 16094 07181 32470 72506 10060 20020 39661 40081 51008 700// 878// 90900=
07181,1999-04-16 10:00:00,7,1007.7,0.3,61,0,20000,11.112,,,230,,,,,,,,,,0,wg-a,,,,AAXX 16104 07181 32570 72306 10070 20000 39659 40077 50003 700// 86802 91000=
07181,1999-04-16 11:00:00,9,1007,-0.7,46,-2,20000,18.52,,,250,,,,,,,,,,0,wg-a,,,,AAXX 16114 07181 32570 72510 10090 21020 39654 40070 58007 700// 85202 91100=
07181,1999-04-16 12:00:00,10,1006.2,-1.3,46,-1,20000,11.112,,,210,,,,,,,,,,0,wg-a,,,,AAXX 16124 07181 32570 72106 10100 21010 39648 40062 58013 700// 85202 91200=
07181,1999-04-16 13:00:00,8,1006.1,-1.3,57,0,20000,18.52,,,320,,,,,,,,,,0,wg-a,,,,AAXX 16134 07181 32570 73210 10080 20000 39646 40061 56013 700// 85202 91300=
07181,1999-04-16 14:00:00,9,1005.7,-1.1,49,-1,20000,3.704,,,260,,,,,,,,,,0,wg-a,,,,AAXX 16144 07181 32570 72602 10090 21010 39643 40057 56011 700// 85202 91400=
07181,1999-04-16 15:00:00,11,1005.1,-0.9,40,-2,20000,11.112,,,280,,,,,,,,,,0,wg-a,,,,AAXX 16154 07181 32570 72806 10110 21020 39639 40051 58009 700// 85202 91500=
07181,1999-04-16 16:00:00,10,1004.9,-1,50,0,20000,14.816,,,260,,,,,,,,,,0,wg-a,,,,AAXX 16164 07181 32570 72608 10100 20000 39636 40049 57010 700// 86202 91600=
07181,1999-04-16 17:00:00,9,1005,-0.7,49,-1,20000,7.408,,,200,,,,,,,,,,0,wg-a,,,,AAXX 16174 07181 32570 72004 10090 21010 39636 40050 56007 700// 84202 91700=
07181,1999-04-16 18:00:00,7,1005.6,-0,66,1,20000,7.408,,,130,2.5,10.8,,,,,,,,0,wg-a,,,,AAXX 16184 07181 32570 /1304 10070 20010 39639 40056 55000 700// 83802 91800 333 10108 20025=
07181,1999-04-16 19:00:00,6,1005.9,0.4,70,1,20000,3.704,,,220,,,,,,,,,,0,wg-a,,,,AAXX 16194 07181 32570 /2202 10060 20010 39640 40059 53004 700// 83802 91900=
07181,1999-04-16 20:00:00,4,1006.3,0.5,81,1,20000,7.408,,,240,,,,,,,,,,0,wg-a,,,,AAXX 16204 07181 32670 /2404 10040 20010 39641 40063 51005 700// 82502 92000=
07181,1999-04-16 21:00:00,3,1006.5,0.2,81,0,20000,0,,,0,,,,,,,,,,0,wg-a,,,,AAXX 16214 07181 32670 /0000 10030 20000 39641 40065 51002 700// 82502 92100=
07181,1999-04-16 23:00:00,2,1006.3,-0.2,93,1,20000,3.704,,,220,,,,,,,,,,0,wg-a,,,,AAXX 16234 07181 32/70 52202 10020 20010 39639 40063 58002 700// 80002 92300=
07181,1999-04-17 00:00:00,1,1006.5,-0.3,86,-1,20000,7.408,,,160,,,,,,,,,,0,wg-a,,,,AAXX 17004 07181 32/70 51604 10010 21010 39638 40065 57003 700// 80002 90000=
07181,1999-04-17 01:00:00,1,1006,-0.6,93,0,20000,7.408,,,160,,,,,,,,,,0,wg-a,,,,AAXX 17014 07181 32/70 51604 10010 20000 39634 40060 58006 700// 80002 90100=
07181,1999-04-17 02:00:00,0,1005.7,-0.9,93,-1,20000,0,,,0,,,,,,,,,,0,wg-a,,,,AAXX 17024 07181 32/70 50000 10000 21010 39630 40057 58009 700// 80002 90200=
07181,1999-04-17 03:00:00,2,1005.6,-0.7,87,0,20000,7.408,,,190,,,,,,,,,,0,wg-a,,,,AAXX 17034 07181 32/70 31904 10020 20000 39631 40056 55007 700// 80002 90300=
07181,1999-04-17 04:00:00,0,1005.7,-0.4,93,-1,20000,7.408,,,160,,,,,,,,,,0,wg-a,,,,AAXX 17044 07181 32670 31604 10000 21010 39630 40057 56004 700// 82502 90400=
07181,1999-04-17 05:00:00,-1,1006.5,0.5,93,-2,12000,0,,,0,,,,,,,,,,0,wg-a,,,,AAXX 17054 07181 32662 30000 11010 21020 39635 40065 53005 700// 82502 90500=
07181,1999-04-17 06:00:00,0,1006.8,0.9,100,0,12000,3.704,,,80,-1.2,7.4,,,,,,,,0,wg-a,,,,AAXX 17064 07181 12662 30802 10000 20000 39640 40068 53009 60004 700// 82502 90600 333 10074 21012=
07181,1999-04-17 07:00:00,4,1006.4,1.2,81,1,20000,3.704,,,160,,,,,,,,,,0,wg-a,,,,AAXX 17074 07181 32670 21602 10040 20010 39642 40064 51012 700// 81502 90700=
07181,1999-04-17 08:00:00,7,1006,0.7,70,2,11000,3.704,,,200,,,,,,,,,,,wg-a,,,,AAXX 17084 07181 32/61 /2002 10070 20020 39642 40060 51007 90800=
07181,1999-04-17 09:00:00,8,1005.9,0.3,57,0,25000,3.704,,,320,,,,,,,,,,0,wg-a,,,,AAXX 17094 07181 32575 33202 10080 20000 39643 40059 51003 700// 82202 90900=
07181,1999-04-17 10:00:00,8,1006,0.1,57,0,25000,7.408,,,90,,,,,,,,,,0,wg-a,,,,AAXX 17104 07181 32575 50904 10080 20000 39643 40060 52001 700// 85900 91000=
07181,1999-04-17 11:00:00,9,1005.6,0,57,1,25000,7.408,,,160,,,,,,,,,,0,wg-a,,,,AAXX 17114 07181 32575 /1604 10090 20010 39642 40056 50000 700// 86900 91100=
07181,1999-04-17 12:00:00,11,1005.4,-0.1,43,-1,25000,3.704,,,340,,,,,,,,,,0,wg-a,,,,AAXX 17124 07181 32675 73402 10110 21010 39642 40054 57001 700// 879// 91200=
07181,1999-04-17 13:00:00,8,1006.6,0.7,61,1,25000,14.816,,,160,,,,,,,,,,0,wg-a,,,,AAXX 17134 07181 32675 71608 10080 20010 39650 40066 53007 700// 879// 91300=
07181,1999-04-17 14:00:00,10,1005.9,0.4,53,1,25000,3.704,,,210,,,,,,,,,,0,wg-a,,,,AAXX 17144 07181 32675 72102 10100 20010 39646 40059 50004 700// 879// 91400=
07181,1999-04-17 15:00:00,10,1006.2,0.7,53,1,25000,22.224,,,320,,,,,,,,,,0,wg-a,,,,AAXX 17154 07181 32675 /3212 10100 20010 39649 40062 51007 700// 86900 91500=
07181,1999-04-17 16:00:00,10,1006.7,0.3,50,0,25000,14.816,,,280,,,,,,,,,,0,wg-a,,,,AAXX 17164 07181 32675 /2808 10100 20000 39653 40067 53003 700// 86900 91600=
07181,1999-04-17 17:00:00,8,1007.7,1.5,66,2,25000,11.112,,,340,,,,,,,,,,0,wg-a,,,,AAXX 17174 07181 32675 63406 10080 20020 39661 40077 53015 700// 86900 91700=
07181,1999-04-17 18:00:00,8,1008.1,1.5,66,2,25000,7.408,,,300,0.1,11.3,,,,,,,,0,wg-a,,,,AAXX 17184 07181 32675 63004 10080 20020 39664 40081 51015 700// 86902 91800 333 10113 20001=
07181,1999-04-17 19:00:00,6,1009,1.7,70,1,25000,3.704,,,290,,,,,,,,,,0,wg-a,,,,AAXX 17194 07181 32775 72902 10060 20010 39670 40090 51017 700// 85502 91900=
07181,1999-04-17 20:00:00,5,1009.9,1.6,81,2,25000,3.704,,,330,,,,,,,,,,0,wg-a,,,,AAXX 17204 07181 32775 33302 10050 20020 39677 40099 53016 700// 82502 92000=
07181,1999-04-17 21:00:00,4,1010.2,1.5,87,2,25000,0,,,0,,,,,,,,,,0,wg-a,,,,AAXX 17214 07181 32775 30000 10040 20020 39679 40102 51015 700// 81502 92100=
07181,1999-04-17 22:00:00,3,1010.4,1,87,1,25000,3.704,,,180,,,,,,,,,,0,wg-a,,,,AAXX 17224 07181 32775 31802 10030 20010 39680 40104 51010 700// 81502 92200=
07181,1999-04-17 23:00:00,4,1010.8,0.7,87,2,25000,11.112,,,220,,,,,,,,,,0,wg-a,,,,AAXX 17234 07181 32775 32206 10040 20020 39684 40108 53007 700// 82502 92300=
07181,1999-04-18 00:00:00,3,1010.8,0.4,87,1,25000,7.408,,,200,,,,,,,,,,0,wg-a,,,,AAXX 18004 07181 32875 32004 10030 20010 39683 40108 50004 700// 82032 90000=
07181,1999-04-18 01:00:00,3,1010.9,0.4,93,2,25000,11.112,,,240,,,,,,,,,,0,wg-a,,,,AAXX 18014 07181 32775 32406 10030 20020 39684 40109 51004 700// 82530 90100=
07181,1999-04-18 02:00:00,4,1011.1,0.2,87,2,15000,11.112,,,230,,,,,,,,,,0,wg-a,,,,AAXX 18024 07181 32865 72306 10040 20020 39686 40111 53002 700// 83032 90200=
07181,1999-04-18 03:00:00,4,1011,0.3,87,2,15000,7.408,,,280,,,,,,,,,,0,wg-a,,,,AAXX 18034 07181 32865 72804 10040 20020 39686 40110 51003 700// 85032 90300=
07181,1999-04-18 04:00:00,4,1011.5,0.6,87,2,15000,7.408,,,290,,,,,,,,,,0,wg-a,,,,AAXX 18044 07181 32865 72904 10040 20020 39690 40115 53006 700// 85032 90400=
07181,1999-04-18 05:00:00,3,1012.1,0.9,93,2,12000,11.112,,,250,,,,,,,,,,0,wg-a,,,,AAXX 18054 07181 32662 72506 10030 20020 39695 40121 53009 700// 84532 90500=
07181,1999-04-18 06:00:00,4,1012.4,1.3,93,3,10000,7.408,,,260,2.8,8.1,,,,,,,,0,wg-a,,,,AAXX 18064 07181 12660 72604 10040 20030 39699 40124 52013 60004 700// 85532 90600 333 10081 20028=
07181,1999-04-18 07:00:00,4,1012.7,1.3,93,3,10000,11.112,,,300,,,,,,,,,,0,wg-a,,,,AAXX 18074 07181 32660 73006 10040 20030 39703 40127 51013 700// 84532 90700=
07181,1999-04-18 08:00:00,5,1013.1,1.3,93,4,10000,11.112,,,290,,,,,,,,,,0,wg-a,,,,AAXX 18084 07181 32660 72906 10050 20040 39708 40131 53013 700// 83502 90800=
07181,1999-04-18 09:00:00,7,1013.5,1.5,70,2,11000,18.52,,,320,,,,,,,,,,0,wg-a,,,,AAXX 18094 07181 32561 73210 10070 20020 39714 40135 53015 700// 85202 90900=
07181,1999-04-18 10:00:00,8,1013.6,1.4,61,1,12000,22.224,,,280,,,,,,,,,,0,wg-a,,,,AAXX 18104 07181 32562 /2812 10080 20010 39717 40136 51014 700// 85202 91000=
07181,1999-04-18 11:00:00,8,1013.9,1.1,57,0,12000,22.224,,,300,,,,,,,,,,0,wg-a,,,,AAXX 18114 07181 32562 73012 10080 20000 39719 40139 51011 700// 86202 91100=
07181,1999-04-18 12:00:00,6,1015.4,1.7,75,2,12000,29.632,,,280,,,,,,,,,,80,wg-a,,,,AAXX 18124 07181 02562 72816 10060 20020 39731 40154 53017 61000 78086 86202 91200 333 ////=
07181,1999-04-18 13:00:00,7,1015.2,1.5,76,3,12000,14.816,,,290,,,0,,,,,,,25,wg-a,,,,AAXX 18134 07181 12562 72908 10070 20030 39732 40152 51015 60005 72586 86202 91300=
07181,1999-04-18 14:00:00,9,1015.3,1.5,66,3,12000,18.52,,,250,,,,,,,,,,0,wg-a,,,,AAXX 18144 07181 32562 72510 10090 20030 39734 40153 51015 700// 86202 91400=
07181,1999-04-18 15:00:00,6,1016.4,1,75,2,12000,18.52,,,280,,,,0,,,,,,3,wg-a,,,,AAXX 18154 07181 12562 72810 10060 20020 39741 40164 53010 60007 70386 86302 91500=
07181,1999-04-18 16:00:00,8,1016.2,0.9,66,2,12000,22.224,,,270,,,,,,,,,,0,wg-a,,,,AAXX 18164 07181 32562 /2712 10080 20020 39741 40162 51009 700// 85302 91600=
07181,1999-04-18 17:00:00,7,1016.4,0.9,70,2,12000,14.816,,,280,,,,,,,,,,0,wg-a,,,,AAXX 18174 07181 32562 72808 10070 20020 39743 40164 51009 700// 86902 91700=
07181,1999-04-18 19:00:00,3,1018.4,1.5,93,2,12000,7.408,,,150,,,,,,,,,,0,wg-a,,,,AAXX 18194 07181 32562 51504 10030 20020 39756 40184 53015 700// 84202 91900=
07181,1999-04-18 20:00:00,4,1019,1.9,93,3,12000,7.408,,,310,,,,,,,,,,0,wg-a,,,,AAXX 18204 07181 32562 /3104 10040 20030 39762 40190 51019 700// 84202 92000=
07181,1999-04-18 21:00:00,3,1019,1.1,100,3,12000,7.408,,,210,,,,0,,,,,,25,wg-a,,,,AAXX 18214 07181 12562 /2104 10030 20030 39761 40190 50011 60007 72522 84802 92100=
07181,1999-04-18 22:00:00,2,1019.2,0.6,100,2,12000,7.408,,,180,,,,,,,,,,0,wg-a,,,,AAXX 18224 07181 32562 71804 10020 20020 39762 40192 51006 700// 85802 92200=
07181,1999-04-18 23:00:00,3,1018.9,-0.2,93,2,12000,11.112,,,220,,,,,,,,,,0,wg-a,,,,AAXX 18234 07181 32562 72206 10030 20020 39760 40189 58002 700// 85802 92300=
07181,1999-04-19 00:00:00,3,1018.4,-0.5,100,3,12000,7.408,,,200,,,,,,,,,,2,wg-a,,,,AAXX 19004 07181 32562 72004 10030 20030 39756 40184 58005 70286 85802 90000=
07181,1999-04-19 02:00:00,3,1018.4,-0.5,93,2,12000,14.816,,,220,,,,,,,,,,0,wg-a,,,,AAXX 19024 07181 32562 72208 10030 20020 39755 40184 56005 700// 85832 90200=
07181,1999-04-19 03:00:00,2,1018.4,-0.2,100,2,12000,7.408,,,200,,,,0,,,,,,60,wg-a,,,,AAXX 19034 07181 12562 72004 10020 20020 39754 40184 58002 60007 76086 878// 90300=
07181,1999-04-19 04:00:00,2,1018.1,-0.5,93,1,12000,7.408,,,160,,,1,,,,,,,60,wg-a,,,,AAXX 19044 07181 12062 71604 10020 20010 39751 40181 58005 60015 76066 8587/ 90400=
07181,1999-04-19 05:00:00,2,1018.3,-0.2,100,2,12000,0,,,0,,,0,,,,,,,60,wg-a,,,,AAXX 19054 07181 12162 70000 10020 20020 39753 40183 55002 60005 76066 878// 90500=
07181,1999-04-19 06:00:00,2,1018.6,0.2,100,2,3000,3.704,,,190,1.6,3.8,,1,,,3,,,40,wg-a,,,,AAXX 19064 07181 02030 71902 10020 20020 39756 40186 53002 60034 74086 878// 90600 333 10038 20016 60017=
07181,1999-04-19 07:00:00,3,1018.5,0.5,100,3,6000,7.408,,,250,,,0,,,,,,,21,wg-a,,,,AAXX 19074 07181 12056 72504 10030 20030 39756 40185 51005 60005 72162 878// 90700=
07181,1999-04-19 08:00:00,4,1018.7,0.6,93,3,8000,3.704,,,300,,,,,,,,,,0,wg-a,,,,AAXX 19084 07181 32158 73002 10040 20030 39759 40187 52006 700// 872// 90800=
07181,1999-04-19 09:00:00,5,1018.8,0.6,87,3,9000,3.704,,,40,,,,0,,,,,,16,wg-a,,,,AAXX 19094 07181 12259 70402 10050 20030 39762 40188 53006 60007 71662 872// 90900=
07181,1999-04-19 10:00:00,5,1019,0.8,87,3,8000,7.408,,,330,,,,,,,,,,25,wg-a,,,,AAXX 19104 07181 02258 73304 10050 20030 39764 40190 51008 61000 72586 872// 91000 333 ////=
07181,1999-04-19 11:00:00,5,1018.9,0.4,87,3,8000,14.816,,,250,,,,,,,,,,16,wg-a,,,,AAXX 19114 07181 02258 72508 10050 20030 39763 40189 50004 61000 71686 872// 91100 333 ////=
07181,1999-04-19 12:00:00,5,1018.6,-0.1,87,3,500,7.408,,,210,,,,1,,,,,,16,wg-a,,,,AAXX 19124 07181 12200 /2104 10050 20030 39761 40186 58001 60017 71686 86800 91200=
07181,1999-04-19 13:00:00,5,1018.9,-0,87,3,12000,11.112,,,190,,,1,,,,,,,29,wg-a,,,,AAXX 19134 07181 12262 71906 10050 20030 39764 40189 55000 60015 72998 879// 91300=
07181,1999-04-19 14:00:00,4,1019,0.1,93,3,12000,11.112,,,30,,,,,,,,,,25,wg-a,,,,AAXX 19144 07181 02262 60306 10040 20030 39764 40190 53001 61000 72586 86900 91400 333 ////=
07181,1999-04-19 15:00:00,6,1018.5,0,87,4,15000,11.112,,,200,,,,1,,,,,,1,wg-a,,,,AAXX 19154 07181 12265 52006 10060 20040 39761 40185 50000 60017 70198 84901 91500=
07181,1999-04-19 16:00:00,7,1018.2,-0.4,76,3,20000,3.704,,,320,,,,,,,,,,25,wg-a,,,,AAXX 19164 07181 02470 33202 10070 20030 39760 40182 58004 61000 72586 83900 91600 333 ////=
07181,1999-04-19 17:00:00,7,1018.4,-0.2,70,2,25000,3.704,,,210,,,,,,,,,,0,wg-a,,,,AAXX 19174 07181 32475 32102 10070 20020 39762 40184 55002 700// 83900 91700=
07181,1999-04-19 18:00:00,6,1018.8,0.3,81,3,20000,11.112,,,260,2.2,7.5,,,,,,,,3,wg-a,,,,AAXX 19184 07181 02470 42606 10060 20030 39764 40188 53003 61000 70398 84900 91800 333 10075 20022 ////=
07181,1999-04-19 19:00:00,4,1019.3,0.6,93,3,20000,7.408,,,160,,,,,,,,,,0,wg-a,,,,AAXX 19194 07181 32570 21604 10040 20030 39766 40193 52006 700// 82400 91900=
07181,1999-04-19 20:00:00,3,1019.5,0.5,93,2,20000,11.112,,,170,,,,,,,,,,0,wg-a,,,,AAXX 19204 07181 32570 /1706 10030 20020 39767 40195 51005 700// 81500 92000=
07181,1999-04-19 21:00:00,3,1019.5,0.1,93,2,20000,11.112,,,160,,,,,,,,,,0,wg-a,,,,AAXX 19214 07181 32/70 /1606 10030 20020 39765 40195 50001 700// 80000 92100=
07181,1999-04-19 22:00:00,2,1019.5,-0.2,93,1,20000,11.112,,,160,,,,,,,,,,0,wg-a,,,,AAXX 19224 07181 32/70 01606 10020 20010 39764 40195 58002 700// 80000 92200=
07181,1999-04-20 00:00:00,2,1018.8,-0.8,93,1,15000,11.112,,,140,,,,0,,,,,,0,wg-a,,,,AAXX 20004 07181 12/65 21406 10020 20010 39757 40188 58008 60007 700// 80001 90000=
07181,1999-04-20 01:00:00,1,1018.3,-1.2,100,1,15000,11.112,,,160,,,,,,,,,,0,wg-a,,,,AAXX 20014 07181 32/65 51606 10010 20010 39752 40183 57012 700// 80001 90100=
07181,1999-04-20 03:00:00,1,1017.4,-1.5,93,0,15000,7.408,,,150,,,,,,,,,,0,wg-a,,,,AAXX 20034 07181 32/65 71504 10010 20000 39742 40174 56015 700// 84031 90300=
07181,1999-04-20 04:00:00,1,1016.8,-1.5,93,0,12000,7.408,,,150,,,,,,,,,,0,wg-a,,,,AAXX 20044 07181 32/62 71504 10010 20000 39737 40168 56015 700// 85032 90400=
07181,1999-04-20 05:00:00,1,1016.3,-1.4,93,0,8000,11.112,,,140,,,,,,,,,,40,wg-a,,,,AAXX 20054 07181 32/58 71406 10010 20000 39732 40163 58014 74022 85032 90500=
07181,1999-04-20 06:00:00,2,1016.1,-1.1,93,1,9000,11.112,,,150,0.4,6,,,,,3,,,0,wg-a,,,,AAXX 20064 07181 12/59 71506 10020 20010 39731 40161 56011 60034 700// 85072 90600 333 10060 20004=
07181,1999-04-20 07:00:00,3,1015.6,-0.8,93,2,10000,11.112,,,140,,,,,,,,,,0,wg-a,,,,AAXX 20074 07181 32660 71406 10030 20020 39729 40156 56008 700// 8357/ 90700=
07181,1999-04-20 08:00:00,4,1014.9,-0.8,93,3,10000,11.112,,,150,,,,,,,,,,60,wg-a,,,,AAXX 20084 07181 02660 71506 10040 20030 39724 40149 58008 61000 76062 8357/ 90800 333 ////=
07181,1999-04-20 09:00:00,6,1014.1,-1.2,81,3,10000,18.52,,,140,,,,,,,,,,21,wg-a,,,,AAXX 20094 07181 02660 71410 10060 20030 39719 40141 58012 61000 72162 8257/ 90900 333 ////=
07181,1999-04-20 10:00:00,8,1013.4,-1.4,76,4,10000,14.816,,,140,,,,,,,,,,,wg-a,,,,AAXX 20104 07181 32/60 /1408 10080 20040 39715 40134 56014 91000=
07181,1999-04-20 11:00:00,10,1012.1,-1.8,76,6,15000,22.224,,,140,,,,,,,,,,0,wg-a,,,,AAXX 20114 07181 32565 61412 10100 20060 39706 40121 58018 700// 85830 91100=
07181,1999-04-20 12:00:00,12,1011.1,-2,62,5,15000,22.224,,,180,,,,,,,,,,3,wg-a,,,,AAXX 20124 07181 32565 71812 10120 20050 39699 40111 58020 70362 8683/ 91200=
07181,1999-04-20 13:00:00,12,1010.4,-2.2,67,6,11000,22.224,,,170,,,,,,,,,,,wg-a,,,,AAXX 20134 07181 32/61 /1712 10120 20060 39693 40104 56022 91300=
07181,1999-04-20 14:00:00,12,1010.1,-1.6,67,6,15000,25.928,,35.188,180,,,,,,,,,,0,wg-a,,,,AAXX 20144 07181 32565 71814 10120 20060 39690 40101 56016 700// 875// 91400 333 91019=
07181,1999-04-20 15:00:00,12,1009.6,-1.4,71,7,15000,22.224,,,180,,,,,,,,,,0,wg-a,,,,AAXX 20154 07181 32565 71812 10120 20070 39685 40096 56014 700// 875// 91500=
07181,1999-04-20 16:00:00,12,1009.2,-1.2,71,7,11000,18.52,,,160,,,,,,,,,,,wg-a,,,,AAXX 20164 07181 32/61 /1610 10120 20070 39681 40092 58012 91600=
07181,1999-04-20 17:00:00,11,1009,-1.2,82,8,15000,18.52,,,170,,,,,,,,,,0,wg-a,,,,AAXX 20174 07181 32565 81710 10110 20080 39678 40090 56012 700// 8653/ 91700=
07181,1999-04-20 18:00:00,11,1008.3,-1.4,87,9,15000,14.816,,,160,1.6,12.7,,,,,,,,0,wg-a,,,,AAXX 20184 07181 32565 81608 10110 20090 39671 40083 58014 700// 8651/ 91800 333 10127 20016=
07181,1999-04-20 19:00:00,10,1007.9,-1.5,93,9,15000,14.816,,,160,,,,,,,,,,60,wg-a,,,,AAXX 20194 07181 02565 81608 10100 20090 39666 40079 58015 61000 76062 8651/ 91900 333 ////=
07181,1999-04-20 20:00:00,10,1007.5,-1.6,93,9,12000,14.816,,,160,,,0,,,,,,,60,wg-a,,,,AAXX 20204 07181 12562 81608 10100 20090 39662 40075 56016 60005 76066 8682/ 92000=
07181,1999-04-20 21:00:00,10,1006.9,-1.4,93,9,12000,18.52,,,170,,,,0,,,,,,60,wg-a,,,,AAXX 20214 07181 12462 81710 10100 20090 39657 40069 57014 60007 76062 875// 92100=
07181,1999-04-20 22:00:00,10,1006.6,-1.2,93,9,8000,18.52,,,190,,,,,,,,,,60,wg-a,,,,AAXX 20224 07181 02458 81910 10100 20090 39654 40066 56012 61000 76066 875// 92200 333 ////=
07181,1999-04-20 23:00:00,10,1006.3,-1.1,100,10,7000,18.52,,,200,,,1,,,,,,,60,wg-a,,,,AAXX 20234 07181 12457 82010 10100 20100 39651 40063 56011 60015 76066 875// 92300=
07181,1999-04-21 00:00:00,10,1005.9,-1,100,10,7000,18.52,,,200,,,,1,,,,,,60,wg-a,,,,AAXX 21004 07181 12457 82010 10100 20100 39647 40059 58010 60017 76062 875// 90000=
07181,1999-04-21 01:00:00,10,1005.3,-1.2,100,10,7000,22.224,,,200,,,0,,,,,,,60,wg-a,,,,AAXX 21014 07181 12357 82012 10100 20100 39642 40053 58012 60005 76066 875// 90100=
07181,1999-04-21 02:00:00,11,1005.1,-1.1,94,10,7000,22.224,,,200,,,0,,,,,,,60,wg-a,,,,AAXX 21024 07181 12257 82012 10110 20100 39640 40051 56011 60005 76066 875// 90200=
07181,1999-04-21 03:00:00,11,1005.2,-0.6,94,10,7000,18.52,,,210,,,,2,,,,,,60,wg-a,,,,AAXX 21034 07181 12257 82110 10110 20100 39641 40052 55006 60027 76066 875// 90300=
07181,1999-04-21 04:00:00,11,1005.3,-0,94,10,8000,25.928,,,220,,,0,,,,,,,60,wg-a,,,,AAXX 21044 07181 12258 82214 10110 20100 39642 40053 55000 60005 76066 875// 90400=
07181,1999-04-21 05:00:00,11,1005.7,0.6,94,10,11000,22.224,,,230,,,,,,,,,,21,wg-a,,,,AAXX 21054 07181 02261 72312 10110 20100 39646 40057 53006 61000 72162 878// 90500 333 ////=
07181,1999-04-21 06:00:00,10,1006.5,1.2,100,10,12000,11.112,,,260,9.7,10.7,,0,,,3,,,1,wg-a,,,,AAXX 21064 07181 02262 72606 10100 20100 39653 40065 53012 60034 70162 8687/ 90600 333 10107 20097 60007=
07181,1999-04-21 08:00:00,12,1006.8,1.2,82,9,15000,25.928,,,250,,,,,,,,,,0,wg-a,,,,AAXX 21084 07181 32465 72514 10120 20090 39658 40068 50012 700// 8583/ 90800=
07181,1999-04-21 09:00:00,12,1006.9,0.6,82,9,15000,25.928,,,230,,,,,,,,,,0,wg-a,,,,AAXX 21094 07181 32465 72314 10120 20090 39659 40069 51006 700// 878// 90900=
07181,1999-04-21 10:00:00,12,1007.2,0.3,71,7,15000,25.928,,,240,,,,,,,,,,0,wg-a,,,,AAXX 21104 07181 32465 72414 10120 20070 39662 40072 53003 700// 86801 91000=
07181,1999-04-21 11:00:00,14,1006.7,0.2,63,7,15000,29.632,,,250,,,,,,,,,,0,wg-a,,,,AAXX 21114 07181 32465 /2516 10140 20070 39660 40067 50002 700// 86800 91100=
07181,1999-04-21 13:00:00,15,1006.2,-0.6,55,6,15000,25.928,,,250,,,,,,,,,,0,wg-a,,,,AAXX 21134 07181 32565 /2514 10150 20060 39656 40062 58006 700// 86800 91300=
07181,1999-04-21 14:00:00,16,1005.4,-1,51,6,15000,25.928,,,220,,,,,,,,,,0,wg-a,,,,AAXX 21144 07181 32565 /2214 10160 20060 39650 40054 58010 700// 86800 91400=
07181,1999-04-21 15:00:00,13,1006.2,-0.7,58,5,15000,42.596,,,280,,,,,,,,,,0,wg-a,,,,AAXX 21154 07181 32565 /2823 10130 20050 39653 40062 55007 700// 86800 91500=
07181,1999-04-21 16:00:00,13,1006.3,-0.1,67,7,15000,18.52,,,260,,,,,,,,,,0,wg-a,,,,AAXX 21164 07181 32565 52610 10130 20070 39655 40063 55001 700// 85800 91600=
07181,1999-04-21 17:00:00,14,1006.1,0.4,63,7,15000,22.224,,,220,,,,,,,,,,0,wg-a,,,,AAXX 21174 07181 32565 62212 10140 20070 39654 40061 50004 700// 86900 91700=
07181,1999-04-21 18:00:00,11,1007.3,0.9,82,8,15000,25.928,,,230,10.2,16.7,,0,,,,,,25,wg-a,,,,AAXX 21184 07181 12565 62314 10110 20080 39662 40073 53009 60007 72511 86900 91800 333 10167 20102=
07181,1999-04-21 23:00:00,10,1009.9,1.3,82,7,15000,25.928,,42.596,200,,,,,,,,,,0,wg-a,,,,AAXX 21234 07181 32565 62014 10100 20070 39685 40099 51013 700// 84802 92300 333 91023=
07181,1999-04-22 00:00:00,10,1010.4,1.4,82,7,15000,29.632,,,220,,,,,,,,,,0,wg-a,,,,AAXX 22004 07181 32565 62216 10100 20070 39690 40104 51014 700// 84802 90000=
07181,1999-04-22 01:00:00,9,1010.6,0.8,87,7,15000,25.928,,,210,,,,,,,,,,0,wg-a,,,,AAXX 22014 07181 32565 /2114 10090 20070 39690 40106 51008 700// 86800 90100=
07181,1999-04-22 02:00:00,9,1010.7,0.6,87,7,15000,18.52,,,200,,,,,,,,,,0,wg-a,,,,AAXX 22024 07181 32565 /2010 10090 20070 39691 40107 51006 700// 86800 90200=
07181,1999-04-22 03:00:00,8,1011.1,0.4,93,7,15000,25.928,,,220,,,,,,,,,,0,wg-a,,,,AAXX 22034 07181 32565 72214 10080 20070 39694 40111 53004 700// 878// 90300=
07181,1999-04-22 04:00:00,7,1011.8,0.9,93,6,15000,22.224,,,230,,,,,,,,,,0,wg-a,,,,AAXX 22044 07181 32565 /2312 10070 20060 39699 40118 53009 700// 86800 90400=
07181,1999-04-22 05:00:00,7,1012.5,1.4,93,6,15000,14.816,,,220,,,,,,,,,,0,wg-a,,,,AAXX 22054 07181 32565 52208 10070 20060 39705 40125 53014 700// 83801 90500=
07181,1999-04-22 06:00:00,8,1012.6,1.4,87,6,15000,25.928,,,220,6.9,11.2,,,,,,,,0,wg-a,,,,AAXX 22064 07181 12465 62214 10080 20060 39708 40126 51014 60004 700// 86800 90600 333 10112 20069=
07181,1999-04-22 07:00:00,10,1012.6,1.2,82,7,15000,29.632,,,220,,,,,,,,,,0,wg-a,,,,AAXX 22074 07181 32465 72216 10100 20070 39711 40126 51012 700// 878// 90700=
07181,1999-04-22 08:00:00,11,1013,1.1,76,7,15000,29.632,,,230,,,,,,,,,,0,wg-a,,,,AAXX 22084 07181 32565 72316 10110 20070 39716 40130 53011 700// 872// 90800=
07181,1999-04-22 09:00:00,12,1013.2,1.1,71,7,15000,31.484,,,230,,,,,,,,,,0,wg-a,,,,AAXX 22094 07181 32565 72317 10120 20070 39719 40132 52011 700// 84201 90900=
07181,1999-04-22 10:00:00,11,1013.8,1.2,76,7,20000,29.632,,,260,,,,,,,,,,80,wg-a,,,,AAXX 22104 07181 02570 72616 10110 20070 39723 40138 51012 61000 78086 85201 91000 333 ////=
07181,1999-04-22 11:00:00,13,1013.4,0.6,67,7,20000,29.632,,,240,,,,,,,,,,25,wg-a,,,,AAXX 22114 07181 02570 72416 10130 20070 39722 40134 50006 61000 72586 85201 91100 333 ////=
07181,1999-04-22 12:00:00,14,1013.2,0.3,63,7,25000,29.632,,,230,,,,,,,,,,1,wg-a,,,,AAXX 22124 07181 02575 72316 10140 20070 39722 40132 51003 61000 70186 878// 91200 333 ////=
07181,1999-04-22 13:00:00,14,1012.9,-0.4,58,6,25000,25.928,,,220,,,,,,,,,,0,wg-a,,,,AAXX 22134 07181 32575 72214 10140 20060 39719 40129 58004 700// 878// 91300=
07181,1999-04-22 14:00:00,15,1012.6,-0.5,51,5,25000,31.484,,,220,,,,,,,,,,0,wg-a,,,,AAXX 22144 07181 32575 72217 10150 20050 39717 40126 58005 700// 85801 91400=
07181,1999-04-22 15:00:00,15,1012.4,-0.7,51,5,25000,25.928,,,200,,,,,,,,,,0,wg-a,,,,AAXX 22154 07181 32575 72014 10150 20050 39715 40124 56007 700// 879// 91500=
07181,1999-04-22 16:00:00,11,1013.9,0.6,82,8,20000,29.632,,,260,,,0,,,,,,,25,wg-a,,,,AAXX 22164 07181 12570 72616 10110 20080 39725 40139 53006 60005 72522 879// 91600=
07181,1999-04-22 17:00:00,11,1013.8,0.7,82,8,20000,18.52,,,240,,,0,,,,,,,0,wg-a,,,,AAXX 22174 07181 12570 72410 10110 20080 39724 40138 53007 60005 700// 85901 91700=
07181,1999-04-22 18:00:00,11,1014.1,1.2,76,7,20000,22.224,,,220,8.3,15.6,,0,,,,,,1,wg-a,,,,AAXX 22184 07181 12570 72212 10110 20070 39727 40141 51012 60007 70186 84901 91800 333 10156 20083=
07181,1999-04-22 19:00:00,9,1014.8,0.5,87,7,20000,14.816,,,220,,,0,,,,,,,25,wg-a,,,,AAXX 22194 07181 12570 72208 10090 20070 39730 40148 53005 60005 72586 84901 91900=
07181,1999-04-22 20:00:00,8,1015.5,1.1,93,7,20000,14.816,,,220,,,,,,,,,,0,wg-a,,,,AAXX 22204 07181 32670 42208 10080 20070 39735 40155 53011 700// 82501 92000=
07181,1999-04-22 21:00:00,8,1015.8,1.2,93,7,20000,18.52,,,220,,,,0,,,,,,1,wg-a,,,,AAXX 22214 07181 12670 52210 10080 20070 39739 40158 53012 60007 70186 83501 92100=
07181,1999-04-22 22:00:00,8,1015.8,0.8,93,7,20000,14.816,,,220,,,,,,,,,,0,wg-a,,,,AAXX 22224 07181 32670 /2208 10080 20070 39738 40158 50008 700// 84501 92200=
07181,1999-04-22 23:00:00,7,1015.9,0.3,93,6,20000,11.112,,,210,,,,,,,,,,0,wg-a,,,,AAXX 22234 07181 32670 42106 10070 20060 39738 40159 51003 700// 82501 92300=
07181,1999-04-23 00:00:00,7,1015.9,-0.2,87,5,20000,11.112,,,190,,,,,,,,,,1,wg-a,,,,AAXX 23004 07181 32670 31906 10070 20050 39737 40159 57002 70186 82501 90000=
07181,1999-04-23 01:00:00,6,1015.5,-0.5,93,5,20000,11.112,,,210,,,,,,,,,,0,wg-a,,,,AAXX 23014 07181 32670 32106 10060 20050 39733 40155 58005 700// 82501 90100=
07181,1999-04-23 02:00:00,7,1014.8,-1,93,6,20000,14.816,,,200,,,,,,,,,,0,wg-a,,,,AAXX 23024 07181 32670 32008 10070 20060 39728 40148 58010 700// 82501 90200=
07181,1999-04-23 03:00:00,6,1014.7,-1.2,93,5,20000,11.112,,,160,,,,,,,,,,0,wg-a,,,,AAXX 23034 07181 32670 31606 10060 20050 39725 40147 56012 700// 82501 90300=
07181,1999-04-23 04:00:00,5,1014.3,-1.3,100,5,20000,11.112,,,150,,,,,,,,,,0,wg-a,,,,AAXX 23044 07181 32770 21506 10050 20050 39720 40143 57013 700// 81501 90400=
07181,1999-04-23 05:00:00,5,1014.2,-0.9,100,5,10000,11.112,,,160,,,,,,,,,,,wg-a,,,,AAXX 23054 07181 32/60 /1606 10050 20050 39719 40142 56009 90500=
07181,1999-04-23 06:00:00,7,1013.8,-0.7,93,6,20000,11.112,,,140,5.1,11,,,,,1,,,0,wg-a,,,,AAXX 23064 07181 12/70 31406 10070 20060 39718 40138 56007 60014 700// 80001 90600 333 10110 20051=
07181,1999-04-23 07:00:00,9,1013.6,-0.2,87,7,10000,11.112,,,150,,,,,,,,,,,wg-a,,,,AAXX 23074 07181 32/60 /1506 10090 20070 39718 40136 56002 90700=
07181,1999-04-23 08:00:00,11,1013,-0.3,82,8,20000,14.816,,,150,,,,,,,,,,0,wg-a,,,,AAXX 23084 07181 32470 51508 10110 20080 39716 40130 58003 700// 82131 90800=
07181,1999-04-23 09:00:00,13,1012.5,-0.4,77,9,20000,14.816,,,160,,,,,,,,,,0,wg-a,,,,AAXX 23094 07181 32470 61608 10130 20090 39714 40125 58004 700// 84231 90900=
07181,1999-04-23 10:00:00,14,1012.1,-0.7,72,9,20000,14.816,,,150,,,,,,,,,,0,wg-a,,,,AAXX 23104 07181 32570 71508 10140 20090 39711 40121 58007 700// 8623/ 91000=
07181,1999-04-23 11:00:00,14,1011.7,-0.8,63,7,20000,18.52,,,160,,,,,,,,,,0,wg-a,,,,AAXX 23114 07181 32570 71610 10140 20070 39708 40117 58008 700// 872// 91100=
07181,1999-04-23 12:00:00,14,1011.7,-0.6,63,7,20000,22.224,,,210,,,,,,,,,,16,wg-a,,,,AAXX 23124 07181 32570 72112 10140 20070 39708 40117 56006 716// 8523/ 91200=
07181,1999-04-23 13:00:00,14,1011.4,-0.6,63,7,20000,22.224,,,250,,,,,,,,,,25,wg-a,,,,AAXX 23134 07181 02570 72512 10140 20070 39705 40114 57006 61000 72586 8427/ 91300 333 ////=
07181,1999-04-23 14:00:00,13,1011.5,-0.4,82,10,18000,11.112,,,210,,,1,,,,,,,25,wg-a,,,,AAXX 23144 07181 12568 72106 10130 20100 39704 40115 58004 60015 72586 85202 91400=
07181,1999-04-23 15:00:00,14,1010.9,-0.7,58,6,20000,22.224,,,200,,,,1,,,,,,1,wg-a,,,,AAXX 23154 07181 12670 72012 10140 20060 39701 40109 57007 60017 70186 84202 91500=
07181,1999-04-23 16:00:00,13,1011.3,-0.3,72,8,11000,29.632,,,230,,,,,,,,,,,wg-a,,,,AAXX 23164 07181 32/61 /2316 10130 20080 39702 40113 55003 91600=
07181,1999-04-23 17:00:00,12,1011.7,0.1,67,6,20000,22.224,,,220,,,,,,,,,,0,wg-a,,,,AAXX 23174 07181 32670 72212 10120 20060 39705 40117 53001 700// 86802 91700=
07181,1999-04-23 18:00:00,11,1012,0.6,76,7,20000,18.52,,,200,6.9,15.6,,,,,,,,1,wg-a,,,,AAXX 23184 07181 32670 /2010 10110 20070 39707 40120 53006 70186 83502 91800 333 10156 20069=
07181,1999-04-23 19:00:00,10,1012.5,0.8,82,7,20000,7.408,,,180,,,,,,,,,,0,wg-a,,,,AAXX 23194 07181 32670 /1804 10100 20070 39710 40125 52008 700// 83502 91900=
07181,1999-04-23 20:00:00,10,1013,1,87,8,20000,14.816,,,200,,,,,,,,,,21,wg-a,,,,AAXX 23204 07181 02570 72008 10100 20080 39715 40130 53010 61000 72162 86502 92000 333 ////=
07181,1999-04-23 21:00:00,9,1013.1,0.8,93,8,20000,7.408,,,180,,,,,,,,,,1,wg-a,,,,AAXX 23214 07181 02570 51804 10090 20080 39715 40131 51008 61000 70162 84502 92100 333 ////=
07181,1999-04-23 22:00:00,9,1013.5,0.8,87,7,20000,14.816,,,200,,,,,,,,,,0,wg-a,,,,AAXX 23224 07181 32670 42008 10090 20070 39718 40135 51008 700// 82502 92200=
07181,1999-04-23 23:00:00,8,1014,0.6,81,5,20000,14.816,,,220,,,,,,,,,,0,wg-a,,,,AAXX 23234 07181 32670 42208 10080 20050 39721 40140 53006 700// 82502 92300=
07181,1999-04-24 00:00:00,8,1014.1,0.7,81,5,20000,14.816,,,220,,,,,,,,,,3,wg-a,,,,AAXX 24004 07181 32570 72208 10080 20050 39722 40141 51007 70361 86502 90000=
07181,1999-04-24 01:00:00,8,1014.1,0.4,81,5,20000,22.224,,40.744,230,,,,,,,,,,0,wg-a,,,,AAXX 24014 07181 32570 72312 10080 20050 39722 40141 51004 700// 86502 90100 333 91022=
07181,1999-04-24 02:00:00,8,1014.4,0.3,81,5,20000,25.928,,,230,,,,,,,,,,0,wg-a,,,,AAXX 24024 07181 32470 72314 10080 20050 39724 40144 53003 700// 86502 90200=
07181,1999-04-24 03:00:00,7,1014.8,0.6,93,6,20000,18.52,,,220,,,,,,,,,,0,wg-a,,,,AAXX 24034 07181 32470 72210 10070 20060 39728 40148 53006 700// 85502 90300=
07181,1999-04-24 04:00:00,7,1014.7,0.5,87,5,20000,18.52,,,210,,,,,,,,,,0,wg-a,,,,AAXX 24044 07181 32470 72110 10070 20050 39727 40147 50005 700// 84502 90400=
07181,1999-04-24 05:00:00,7,1015.1,0.7,87,5,11000,18.52,,,210,,,,,,,,,,,wg-a,,,,AAXX 24054 07181 32/61 /2110 10070 20050 39731 40151 52007 90500=
07181,1999-04-24 06:00:00,8,1015.5,0.7,87,6,13000,18.52,,,220,7,11.3,,,,,1,,,0,wg-a,,,,AAXX 24064 07181 12463 72210 10080 20060 39735 40155 53007 60014 700// 875// 90600 333 10113 20070=
07181,1999-04-24 07:00:00,8,1016,1.3,87,6,13000,25.928,,,220,,,,,,,,,,0,wg-a,,,,AAXX 24074 07181 32463 72214 10080 20060 39740 40160 53013 700// 875// 90700=
07181,1999-04-24 08:00:00,8,1016.4,1.3,87,6,15000,14.816,,,220,,,,,,,,,,0,wg-a,,,,AAXX 24084 07181 32465 72208 10080 20060 39744 40164 52013 700// 875// 90800=
07181,1999-04-24 09:00:00,9,1016.8,1.4,87,7,18000,18.52,,,250,,,,,,,,,,0,wg-a,,,,AAXX 24094 07181 32468 72510 10090 20070 39749 40168 52014 700// 875// 90900=
07181,1999-04-24 10:00:00,8,1017.5,1.5,87,6,25000,14.816,,,260,,,,,,,,,,0,wg-a,,,,AAXX 24104 07181 32475 72608 10080 20060 39755 40175 53015 700// 875// 91000=
07181,1999-04-24 11:00:00,8,1017.8,1.4,87,6,25000,18.52,,,230,,,,,,,,,,0,wg-a,,,,AAXX 24114 07181 32475 72310 10080 20060 39758 40178 51014 700// 875// 91100=
07181,1999-04-24 12:00:00,8.6,1018,1.1,85,6.2,25000,14.816,,,220,,,,,,,,,,,og-post,,,,AAXX 24124 07181 32475 72208 10086 20062 39760 40180 51011 875// 333 87616=
07181,1999-04-24 13:00:00,9,1018.3,0.9,81,6,25000,14.816,,,240,,,,,,,,,,0,wg-a,,,,AAXX 24134 07181 32475 72408 10090 20060 39764 40183 53009 700// 875// 91300=
07181,1999-04-24 14:00:00,10,1018.2,0.6,76,6,25000,11.112,,,200,,,,,,,,,,0,wg-a,,,,AAXX 24144 07181 32575 72006 10100 20060 39764 40182 51006 700// 875// 91400=
07181,1999-04-24 15:00:00,10,1018.1,0.3,71,5,15000,7.408,,,230,,,,,,,,,,0,wg-a,,,,AAXX 24154 07181 32565 72304 10100 20050 39763 40181 50003 700// 875// 91500=
07181,1999-04-24 16:00:00,10,1018.2,-0,76,6,20000,3.704,,,280,,,,,,,,,,0,wg-a,,,,AAXX 24164 07181 32470 72802 10100 20060 39764 40182 55000 700// 878// 91600=
07181,1999-04-24 18:00:00,9,1018.5,0.3,81,6,20000,7.408,,,200,7.5,9.9,,,,,,,,0,wg-a,,,,AAXX 24184 07181 32470 72004 10090 20060 39766 40185 53003 700// 878// 91800 333 10099 20075=
07181,1999-04-24 19:00:00,9,1019,0.6,81,6,20000,7.408,,,210,,,,,,,,,,0,wg-a,,,,AAXX 24194 07181 32470 /2104 10090 20060 39770 40190 53006 700// 86800 91900=
07181,1999-04-24 20:00:00,8,1019.5,0.9,87,6,20000,7.408,,,160,,,,,,,,,,0,wg-a,,,,AAXX 24204 07181 32470 /1604 10080 20060 39773 40195 53009 700// 86800 92000=
07181,1999-04-24 21:00:00,7,1019.4,0.6,87,5,20000,7.408,,,140,,,,,,,,,,0,wg-a,,,,AAXX 24214 07181 32570 /1404 10070 20050 39772 40194 50006 700// 86800 92100=
07181,1999-04-24 22:00:00,7,1019.4,0.2,87,5,20000,7.408,,,160,,,,,,,,,,0,wg-a,,,,AAXX 24224 07181 32570 /1604 10070 20050 39772 40194 51002 700// 86800 92200=
07181,1999-04-24 23:00:00,7,1019.6,-0,87,5,20000,3.704,,,170,,,,,,,,,,0,wg-a,,,,AAXX 24234 07181 32770 41702 10070 20050 39773 40196 55000 700// 84500 92300=
07181,1999-04-25 00:00:00,6,1019.6,0,93,5,20000,3.704,,,130,,,,,,,,,,0,wg-a,,,,AAXX 25004 07181 32770 41302 10060 20050 39772 40196 50000 700// 84500 90000=
07181,1999-04-25 01:00:00,5,1019.4,-0.3,93,4,20000,11.112,,,150,,,,,,,,,,0,wg-a,,,,AAXX 25014 07181 32770 41506 10050 20040 39769 40194 58003 700// 84500 90100=
07181,1999-04-25 02:00:00,4,1019.4,-0.6,100,4,20000,11.112,,,150,,,,,,,,,,0,wg-a,,,,AAXX 25024 07181 32770 41506 10040 20040 39767 40194 58006 700// 84500 90200=
07181,1999-04-25 03:00:00,4,1018.8,-1.1,100,4,15000,11.112,,,160,,,,,,,,,,0,wg-a,,,,AAXX 25034 07181 32765 31606 10040 20040 39761 40188 58011 700// 83500 90300=
07181,1999-04-25 04:00:00,3,1018.7,-1.1,93,2,10000,7.408,,,150,,,,,,,,,,0,wg-a,,,,AAXX 25044 07181 32760 21504 10030 20020 39758 40187 58011 700// 81501 90400=
07181,1999-04-25 05:00:00,3,1018.7,-0.8,100,3,6000,11.112,,,160,,,,,,,,,,40,wg-a,,,,AAXX 25054 07181 32/56 41606 10030 20030 39759 40187 55008 74000 82031 90500=
07181,1999-04-25 06:00:00,5,1018.4,-0.2,100,5,7000,0,,,0,2.4,9.2,,,,,,,,40,wg-a,,,,AAXX 25064 07181 12/57 20000 10050 20050 39759 40184 56002 60004 74000 81031 90600 333 10092 20024=
07181,1999-04-25 07:00:00,7,1018.3,0.3,93,6,8000,3.704,,,80,,,,,,,,,,40,wg-a,,,,AAXX 25074 07181 32/58 30802 10070 20060 39761 40183 53003 74000 82031 90700=
07181,1999-04-25 08:00:00,10,1017.8,0.1,76,6,10000,7.408,,,100,,,,,,,,,,28,wg-a,,,,AAXX 25084 07181 32/60 31004 10100 20060 39760 40178 50001 72800 83031 90800=
07181,1999-04-25 09:00:00,11,1017.6,0.1,66,5,12000,14.816,,,110,,,,,,,,,,0,wg-a,,,,AAXX 25094 07181 32462 41108 10110 20050 39760 40176 51001 700// 81130 90900=
07181,1999-04-25 10:00:00,12,1017.1,-0.5,67,6,15000,14.816,,,100,,,,,,,,,,0,wg-a,,,,AAXX 25104 07181 32465 41008 10120 20060 39756 40171 58005 700// 81130 91000=
07181,1999-04-25 11:00:00,14,1015.8,-1.4,55,5,20000,14.816,,,80,,,,,,,,,,0,wg-a,,,,AAXX 25114 07181 32570 /0808 10140 20050 39746 40158 58014 700// 82131 91100=
07181,1999-04-25 12:00:00,15,1015,-2,59,7,25000,18.52,,,80,,,,,,,,,,0,wg-a,,,,AAXX 25124 07181 32575 /0810 10150 20070 39740 40150 58020 700// 84101 91200=
07181,1999-04-25 13:00:00,15,1014.4,-2.1,59,7,25000,7.408,,,100,,,,,,,,,,0,wg-a,,,,AAXX 25134 07181 32575 71004 10150 20070 39735 40144 56021 700// 84131 91300=
07181,1999-04-25 14:00:00,14,1013.6,-1.9,63,7,25000,14.816,,,90,,,,,,,,,,0,wg-a,,,,AAXX 25144 07181 32575 70908 10140 20070 39727 40136 58019 700// 878// 91400=
07181,1999-04-25 15:00:00,15,1013.1,-1.8,55,6,25000,11.112,,,80,,,,,,,,,,0,wg-a,,,,AAXX 25154 07181 32575 70806 10150 20060 39722 40131 57018 700// 878// 91500=
07181,1999-04-25 16:00:00,15,1012.7,-1.7,59,7,25000,11.112,,,90,,,,,,,,,,0,wg-a,,,,AAXX 25164 07181 32575 70906 10150 20070 39718 40127 56017 700// 878// 91600=
07181,1999-04-25 17:00:00,15,1012.4,-1.2,59,7,25000,11.112,,,80,,,,,,,,,,0,wg-a,,,,AAXX 25174 07181 32575 /0806 10150 20070 39715 40124 56012 700// 86800 91700=
07181,1999-04-25 18:00:00,14,1012.4,-0.8,63,7,25000,3.704,,,80,4.9,15.1,,,,,,,,0,wg-a,,,,AAXX 25184 07181 32675 /0802 10140 20070 39714 40124 56008 700// 83601 91800 333 10151 20049=
07181,1999-04-25 19:00:00,11,1012.8,-0.3,76,7,20000,3.704,,,80,,,,,,,,,,0,wg-a,,,,AAXX 25194 07181 32670 /0802 10110 20070 39715 40128 55003 700// 82501 91900=
07181,1999-04-25 20:00:00,10,1012.8,-0.2,82,7,20000,7.408,,,80,,,,,,,,,,0,wg-a,,,,AAXX 25204 07181 32670 /0804 10100 20070 39713 40128 58002 700// 81501 92000=
07181,1999-04-25 21:00:00,10,1012.8,-0.2,82,7,20000,11.112,,,100,,,,,,,,,,0,wg-a,,,,AAXX 25214 07181 32/70 51006 10100 20070 39712 40128 58002 700// 80001 92100=
07181,1999-04-25 22:00:00,10,1012.7,-0.4,82,7,20000,11.112,,,150,,,,,,,,,,0,wg-a,,,,AAXX 25224 07181 32/70 51506 10100 20070 39711 40127 56004 700// 80001 92200=
07181,1999-04-25 23:00:00,9,1012.7,-0.3,87,7,20000,7.408,,,140,,,,,,,,,,0,wg-a,,,,AAXX 25234 07181 32/70 51404 10090 20070 39710 40127 57003 700// 80001 92300=
07181,1999-04-26 00:00:00,8,1012.6,-0.5,93,7,20000,7.408,,,130,,,,,,,,,,0,wg-a,,,,AAXX 26004 07181 32/70 71304 10080 20070 39707 40126 58005 700// 83031 90000=
07181,1999-04-26 01:00:00,7,1012.2,-0.9,93,6,20000,3.704,,,170,,,,,,,,,,0,wg-a,,,,AAXX 26014 07181 32/70 71702 10070 20060 39702 40122 58009 700// 83031 90100=
07181,1999-04-26 02:00:00,7,1012.1,-0.9,93,6,20000,7.408,,,130,,,,,,,,,,0,wg-a,,,,AAXX 26024 07181 32/70 71304 10070 20060 39701 40121 56009 700// 83031 90200=
07181,1999-04-26 03:00:00,6,1012,-0.7,100,6,20000,7.408,,,140,,,,0,,,,,,0,wg-a,,,,AAXX 26034 07181 12/70 71404 10060 20060 39700 40120 56007 60007 700// 83032 90300=
07181,1999-04-26 04:00:00,7,1012.1,-0.1,93,6,15000,11.112,,,160,,,,,,,,,,0,wg-a,,,,AAXX 26044 07181 32/65 71606 10070 20060 39701 40121 55001 700// 83032 90400=
07181,1999-04-26 05:00:00,7,1012.2,0.2,100,7,6000,7.408,,,170,,,,,,,,,,0,wg-a,,,,AAXX 26054 07181 32756 71704 10070 20070 39703 40122 53002 700// 81532 90500=
07181,1999-04-26 06:00:00,8,1012.6,0.7,93,7,6000,7.408,,,160,6,13.8,,,,,,,,0,wg-a,,,,AAXX 26064 07181 12756 71604 10080 20070 39707 40126 53007 60004 700// 81532 90600 333 10138 20060=
07181,1999-04-26 07:00:00,9,1012.6,0.9,93,8,7000,3.704,,,140,,,,,,,,,,0,wg-a,,,,AAXX 26074 07181 32/57 81402 10090 20080 39710 40126 53009 700// 83037 90700=
07181,1999-04-26 08:00:00,12,1012.5,1,76,8,7000,3.704,,,150,,,,,,,,,,0,wg-a,,,,AAXX 26084 07181 32757 81502 10120 20080 39713 40125 51010 700// 81537 90800=
07181,1999-04-26 09:00:00,13,1012.9,1.1,77,9,11000,7.408,,,140,,,,,,,,,,0,wg-a,,,,AAXX 26094 07181 32561 81404 10130 20090 39718 40129 53011 700// 81837 90900=
07181,1999-04-26 10:00:00,15,1012.5,0.7,67,9,11000,3.704,,,110,,,,,,,,,,0,wg-a,,,,AAXX 26104 07181 32561 81102 10150 20090 39717 40125 50007 700// 83837 91000=
07181,1999-04-26 11:00:00,16,1012.2,0.2,55,7,11000,3.704,,,250,,,,,,,,,,0,wg-a,,,,AAXX 26114 07181 32561 82502 10160 20070 39715 40122 50002 700// 83837 91100=
07181,1999-04-26 12:00:00,16,1012.1,-0.4,55,7,11000,11.112,,,270,,,,,,,,,,0,wg-a,,,,AAXX 26124 07181 32561 82706 10160 20070 39714 40121 57004 700// 83837 91200=
07181,1999-04-26 13:00:00,17,1011.7,-0.5,55,8,15000,11.112,,,330,,,,,,,,,,0,wg-a,,,,AAXX 26134 07181 32565 83306 10170 20080 39712 40117 57005 700// 8387/ 91300=
07181,1999-04-26 14:00:00,18,1011.2,-0.7,49,7,15000,11.112,,,80,,,,,,,,,,0,wg-a,,,,AAXX 26144 07181 32565 80806 10180 20070 39708 40112 58007 700// 83878 91400=
07181,1999-04-26 15:00:00,18,1011,-0.8,49,7,20000,3.704,,,340,,,,,,,,,,0,wg-a,,,,AAXX 26154 07181 32570 73402 10180 20070 39706 40110 57008 700// 83878 91500=
07181,1999-04-26 16:00:00,17,1011.3,-0.4,55,8,25000,11.112,,,10,,,,,,,,,,0,wg-a,,,,AAXX 26164 07181 32675 70106 10170 20080 39708 40113 55004 700// 82878 91600=
07181,1999-04-26 17:00:00,17,1011.3,-0,55,8,25000,11.112,,,330,,,,,,,,,,0,wg-a,,,,AAXX 26174 07181 32675 73306 10170 20080 39708 40113 55000 700// 83878 91700=
07181,1999-04-26 18:00:00,16,1011.8,0.5,68,10,25000,11.112,,,330,7.7,18.5,,,,,,,,0,wg-a,,,,AAXX 26184 07181 32675 73306 10160 20100 39711 40118 53005 700// 83888 91800 333 10185 20077=
07181,1999-04-26 19:00:00,14,1013.2,1.4,67,8,11000,25.928,,44.448,160,,,,,,,,,,,wg-a,,,,AAXX 26194 07181 32/61 /1614 10140 20080 39722 40132 53014 91900 333 91024=
07181,1999-04-26 20:00:00,11,1013.9,1.7,87,9,15000,14.816,,,180,,,,,,,,,,25,wg-a,,,,AAXX 26204 07181 02665 71808 10110 20090 39725 40139 52017 61000 72586 84208 92000 333 ////=
07181,1999-04-26 21:00:00,11,1014.2,1.6,94,10,15000,3.704,,,200,,,,,,,,,,1,wg-a,,,,AAXX 26214 07181 02665 72002 10110 20100 39727 40142 51016 61000 70186 83278 92100 333 ////=
07181,1999-04-26 22:00:00,11,1014,0.4,94,10,11000,7.408,,,300,,,,,,,,,,,wg-a,,,,AAXX 26224 07181 32/61 /3004 10110 20100 39726 40140 50004 92200=
07181,1999-04-26 23:00:00,11,1014.2,0.3,87,9,15000,11.112,,,350,,,,,,,,,,0,wg-a,,,,AAXX 26234 07181 32665 73506 10110 20090 39728 40142 52003 700// 82278 92300=
07181,1999-04-27 00:00:00,11,1014.1,-0.1,87,9,15000,7.408,,,340,,,,,,,,,,1,wg-a,,,,AAXX 27004 07181 32765 73404 10110 20090 39726 40141 58001 70186 82278 90000=
07181,1999-04-27 01:00:00,10,1013.9,-0.2,93,9,15000,3.704,,,350,,,,,,,,,,0,wg-a,,,,AAXX 27014 07181 32765 73502 10100 20090 39724 40139 58002 700// 83578 90100=
07181,1999-04-27 03:00:00,9,1013.9,-0.4,93,8,12000,3.704,,,350,,,,,,,,,,0,wg-a,,,,AAXX 27034 07181 32762 73502 10090 20080 39722 40139 58004 700// 8457/ 90300=
07181,1999-04-27 04:00:00,8,1014,-0.2,100,8,2000,7.408,,,360,,,,,,,,,,10,wg-a,,,,AAXX 27044 07181 32/20 73604 10080 20080 39722 40140 58002 71022 82031 90400=
07181,1999-04-27 06:00:00,9,1015,1,100,9,500,11.112,,,320,7.4,15.5,,,,,,,,0,wg-a,,,,AAXX 27064 07181 02/00 73206 10090 20090 39732 40150 53010 61000 700// 82031 90600 333 10155 20074 ////=
07181,1999-04-27 07:00:00,11,1014.9,1.3,94,10,7000,3.704,,,310,,,,,,,,,,0,wg-a,,,,AAXX 27074 07181 32/57 73102 10110 20100 39735 40149 51013 700// 81031 90700=
07181,1999-04-27 08:00:00,14,1014.8,0.9,67,8,9000,14.816,,,70,,,,,,,,,,0,wg-a,,,,AAXX 27084 07181 32/59 70708 10140 20080 39737 40148 51009 700// 82031 90800=
07181,1999-04-27 09:00:00,16,1014.5,0.5,59,8,15000,14.816,,,70,,,,,,,,,,0,wg-a,,,,AAXX 27094 07181 32/65 70708 10160 20080 39737 40145 51005 700// 82031 90900=
07181,1999-04-27 10:00:00,17,1014.3,0.2,55,8,15000,18.52,,,80,,,,,,,,,,0,wg-a,,,,AAXX 27104 07181 32765 70810 10170 20080 39737 40143 51002 700// 81101 91000=
07181,1999-04-27 11:00:00,18,1014,-0.1,52,8,15000,18.52,,,60,,,,,,,,,,0,wg-a,,,,AAXX 27114 07181 32765 70610 10180 20080 39736 40140 58001 700// 81101 91100=
07181,1999-04-27 12:00:00,19,1013.6,-0.4,43,6,20000,18.52,,,80,,,,,,,,,,0,wg-a,,,,AAXX 27124 07181 32770 60810 10190 20060 39733 40136 58004 700// 83101 91200=
07181,1999-04-27 13:00:00,19,1013.5,-0.5,49,8,20000,14.816,,42.596,60,,,,,,,,,,0,wg-a,,,,AAXX 27134 07181 32770 60608 10190 20080 39732 40135 57005 700// 84101 91300 333 91023=
07181,1999-04-27 14:00:00,19,1013.2,-0.7,49,8,20000,18.52,,,40,,,,,,,,,,0,wg-a,,,,AAXX 27144 07181 32770 60410 10190 20080 39729 40132 57007 700// 84201 91400=
07181,1999-04-27 15:00:00,19,1012.9,-0.7,46,7,20000,18.52,,,30,,,,,,,,,,0,wg-a,,,,AAXX 27154 07181 32770 60310 10190 20070 39726 40129 58007 700// 84201 91500=
07181,1999-04-27 16:00:00,19,1013.1,-0.4,46,7,20000,22.224,,,60,,,,,,,,,,0,wg-a,,,,AAXX 27164 07181 32770 60612 10190 20070 39728 40131 55004 700// 83201 91600=
07181,1999-04-27 17:00:00,18,1013.5,0.2,49,7,20000,18.52,,,60,,,,,,,,,,0,wg-a,,,,AAXX 27174 07181 32770 40610 10180 20070 39731 40135 53002 700// 81201 91700=
07181,1999-04-27 18:00:00,17,1014.3,1.1,52,7,20000,18.52,,,50,8.8,19.5,,,,,,,,0,wg-a,,,,AAXX 27184 07181 32770 40510 10170 20070 39737 40143 53011 700// 81201 91800 333 10195 20088=
07181,1999-04-27 19:00:00,15,1015.4,1.7,63,8,11000,18.52,,,40,,,,,,,,,,0,wg-a,,,,AAXX 27194 07181 32761 40410 10150 20080 39745 40154 53017 700// 81201 91900=
07181,1999-04-27 20:00:00,14,1016.8,2.6,67,8,12000,14.816,,,50,,,,,,,,,,0,wg-a,,,,AAXX 27204 07181 32762 60508 10140 20080 39757 40168 53026 700// 83202 92000=
07181,1999-04-27 21:00:00,13,1017.4,2.5,72,8,12000,18.52,,,40,,,,,,,,,,0,wg-a,,,,AAXX 27214 07181 32762 40410 10130 20080 39762 40174 51025 700// 82502 92100=
07181,1999-04-27 22:00:00,13,1017.9,2.1,72,8,15000,18.52,,,60,,,,,,,,,,0,wg-a,,,,AAXX 27224 07181 32765 30610 10130 20080 39766 40179 51021 700// 82502 92200=
07181,1999-04-27 23:00:00,12,1018.3,1.1,71,7,15000,14.816,,,50,,,,,,,,,,0,wg-a,,,,AAXX 27234 07181 32765 30508 10120 20070 39768 40183 51011 700// 82502 92300=
07181,1999-04-28 00:00:00,11,1018.4,0.6,76,7,15000,18.52,,,60,,,,,,,,,,0,wg-a,,,,AAXX 28004 07181 32765 30610 10110 20070 39768 40184 51006 700// 82502 90000=
07181,1999-04-28 01:00:00,10,1018.7,0.4,82,7,15000,14.816,,,60,,,,,,,,,,0,wg-a,,,,AAXX 28014 07181 32765 30608 10100 20070 39770 40187 52004 700// 82502 90100=
07181,1999-04-28 02:00:00,10,1018.8,0.2,87,8,15000,18.52,,,60,,,,,,,,,,0,wg-a,,,,AAXX 28024 07181 32765 20610 10100 20080 39770 40188 52002 700// 81502 90200=
07181,1999-04-28 03:00:00,10,1018.8,0.2,87,8,15000,14.816,,,40,,,,,,,,,,0,wg-a,,,,AAXX 28034 07181 32765 20408 10100 20080 39770 40188 51002 700// 81502 90300=
07181,1999-04-28 04:00:00,8,1018.7,-0.3,93,7,6000,14.816,,,40,,,,,,,,,,0,wg-a,,,,AAXX 28044 07181 32156 20408 10080 20070 39767 40187 58003 700// 81502 90400=
07181,1999-04-28 05:00:00,7,1019.4,0.1,93,6,2500,3.704,,,340,,,,,,,,,,40,wg-a,,,,AAXX 28054 07181 32/25 /3402 10070 20060 39771 40194 53001 74000 80001 90500=
07181,1999-04-28 06:00:00,9,1019.2,0.3,93,8,6000,18.52,,,60,6.8,17.1,,,,,,,,0,wg-a,,,,AAXX 28064 07181 12256 20610 10090 20080 39773 40192 53003 60004 700// 82100 90600 333 10171 20068=
07181,1999-04-28 07:00:00,11,1019.4,1,82,8,7000,22.224,,38.892,70,,,,,,,,,,0,wg-a,,,,AAXX 28074 07181 32357 50712 10110 20080 39777 40194 52010 700// 85100 90700 333 91021=
07181,1999-04-28 08:00:00,11,1019.6,0.9,87,9,9000,25.928,,,80,,,,,,,,,,0,wg-a,,,,AAXX 28084 07181 32459 /0814 10110 20090 39780 40196 53009 700// 86100 90800=
07181,1999-04-28 09:00:00,12,1019.8,1,82,9,10000,25.928,,42.596,70,,,,,,,,,,0,wg-a,,,,AAXX 28094 07181 32460 40714 10120 20090 39783 40198 51010 700// 84100 90900 333 91023=
07181,1999-04-28 10:00:00,15,1019.5,0.7,72,10,12000,14.816,,,60,,,,,,,,,,0,wg-a,,,,AAXX 28104 07181 32462 /0608 10150 20100 39784 40195 51007 700// 84100 91000=
07181,1999-04-28 11:00:00,16,1018.6,-0.3,63,9,15000,22.224,,,60,,,,,,,,,,0,wg-a,,,,AAXX 28114 07181 32465 40612 10160 20090 39777 40186 58003 700// 83101 91100=
07181,1999-04-28 12:00:00,17,1017.5,-1.6,59,9,15000,25.928,,,50,,,,,,,,,,0,wg-a,,,,AAXX 28124 07181 32565 50514 10170 20090 39767 40175 58016 700// 83102 91200=
07181,1999-04-28 13:00:00,18,1016.8,-2.2,56,9,15000,22.224,,46.3,60,,,,,,,,,,0,wg-a,,,,AAXX 28134 07181 32565 50612 10180 20090 39762 40168 56022 700// 83102 91300 333 91025=
07181,1999-04-28 14:00:00,18,1016.5,-1.8,56,9,17000,25.928,,,70,,,,,,,,,,0,wg-a,,,,AAXX 28144 07181 32667 /0714 10180 20090 39759 40165 56018 700// 83202 91400=
07181,1999-04-28 15:00:00,18,1016,-1.2,56,9,17000,22.224,,40.744,70,,,,,,,,,,0,wg-a,,,,AAXX 28154 07181 32667 /0712 10180 20090 39755 40160 56012 700// 83202 91500 333 91022=
07181,1999-04-28 16:00:00,18,1015.8,-0.9,52,8,20000,22.224,,38.892,70,,,,,,,,,,0,wg-a,,,,AAXX 28164 07181 32670 50712 10180 20080 39753 40158 56009 700// 83202 91600 333 91021=
07181,1999-04-28 17:00:00,17,1015.6,-0.9,55,8,20000,25.928,,,50,,,,,,,,,,0,wg-a,,,,AAXX 28174 07181 32770 40514 10170 20080 39750 40156 56009 700// 82101 91700=
07181,1999-04-28 19:00:00,15,1015.8,-0.5,63,8,18000,22.224,,,70,,,,,,,,,,0,wg-a,,,,AAXX 28194 07181 32/68 40712 10150 20080 39748 40158 56005 700// 80001 91900=
07181,1999-04-28 20:00:00,14,1016.1,-0.1,67,8,15000,14.816,,,60,,,,,,,,,,0,wg-a,,,,AAXX 28204 07181 32/65 30608 10140 20080 39749 40161 55001 700// 80001 92000=
07181,1999-04-28 21:00:00,13,1015.8,-0.3,72,8,15000,22.224,,,70,,,,,,,,,,0,wg-a,,,,AAXX 28214 07181 32/65 20712 10130 20080 39746 40158 58003 700// 80001 92100=
07181,1999-04-28 22:00:00,12,1015.4,-0.7,76,8,15000,18.52,,,70,,,,,,,,,,0,wg-a,,,,AAXX 28224 07181 32/65 20710 10120 20080 39741 40154 58007 700// 80001 92200=
07181,1999-04-28 23:00:00,12,1015.1,-1.2,76,8,15000,22.224,,,60,,,,,,,,,,0,wg-a,,,,AAXX 28234 07181 32/65 00612 10120 20080 39737 40151 58012 700// 80000 92300=
07181,1999-04-29 00:00:00,11,1014.5,-1.5,82,8,15000,22.224,,,70,,,,,,,,,,0,wg-a,,,,AAXX 29004 07181 32/65 00712 10110 20080 39731 40145 58015 700// 80000 90000=
07181,1999-04-29 01:00:00,11,1013.6,-1.9,82,8,15000,22.224,,,70,,,,,,,,,,0,wg-a,,,,AAXX 29014 07181 32/65 00712 10110 20080 39722 40136 58019 700// 80000 90100=
07181,1999-04-29 02:00:00,11,1013.1,-2,82,8,15000,22.224,,,70,,,,,,,,,,0,wg-a,,,,AAXX 29024 07181 32/65 00712 10110 20080 39717 40131 56020 700// 80000 90200=
07181,1999-04-29 03:00:00,11,1012.1,-2.4,82,8,15000,29.632,,,60,,,,,,,,,,0,wg-a,,,,AAXX 29034 07181 32/65 00616 10110 20080 39707 40121 58024 700// 80000 90300=
07181,1999-04-29 04:00:00,10,1012.1,-1.6,87,8,10000,22.224,,,70,,,,,,,,,,0,wg-a,,,,AAXX 29044 07181 32/60 20712 10100 20080 39706 40121 56016 700// 80001 90400=
07181,1999-04-29 05:00:00,10,1012.1,-1.1,87,8,8000,22.224,,,70,,,,,,,,,,0,wg-a,,,,AAXX 29054 07181 32/58 20712 10100 20080 39706 40121 56011 700// 81031 90500=
07181,1999-04-29 06:00:00,10.5,1012,-0.1,85,8.1,9000,18.52,,,70,9.6,16.1,,,,,0,,9,,og-post,,,,AAXX 29064 07181 32959 20710 10105 20081 39706 40120 56001 80001 333 10161 20096 30009 55/// 70000 82075=
07181,1999-04-29 07:00:00,12,1011.8,-0,82,9,10000,18.52,,,60,,,,,,,,,,0,wg-a,,,,AAXX 29074 07181 32/60 50610 10120 20090 39706 40118 54000 700// 84031 90700=
07181,1999-04-29 08:00:00,13,1011.2,-0.4,77,9,10000,25.928,,,60,,,,,,,,,,,wg-a,,,,AAXX 29084 07181 32/60 /0614 10130 20090 39702 40112 58004 90800=
07181,1999-04-29 09:00:00,15,1010.9,-0.4,67,9,11000,18.52,,,70,,,,,,,,,,0,wg-a,,,,AAXX 29094 07181 32761 40710 10150 20090 39702 40109 57004 700// 81530 90900=
07181,1999-04-29 10:00:00,16,1010.9,-0.2,68,10,10000,14.816,,31.484,60,,,,,,,,,,,wg-a,,,,AAXX 29104 07181 32/60 /0608 10160 20100 39704 40109 55002 91000 333 91017=
07181,1999-04-29 11:00:00,18,1010.5,-0.1,56,9,10000,18.52,,,60,,,,,,,,,,,wg-a,,,,AAXX 29114 07181 32/60 /0610 10180 20090 39701 40105 58001 91100=
07181,1999-04-29 12:00:00,19,1010,-0.4,43,6,15000,22.224,,44.448,70,,,,,,,,,,0,wg-a,,,,AAXX 29124 07181 32765 60712 10190 20060 39698 40100 58004 700// 82580 91200 333 91024=
07181,1999-04-29 13:00:00,20,1010,-0.5,40,6,10000,14.816,,,110,,,,,,,,,,,wg-a,,,,AAXX 29134 07181 32/60 /1108 10200 20060 39699 40100 55005 91300=
07181,1999-04-29 14:00:00,21,1009.8,-0.2,38,6,15000,14.816,,,120,,,,,,,,,,0,wg-a,,,,AAXX 29144 07181 32865 51208 10210 20060 39699 40098 56002 700// 82081 91400=
07181,1999-04-29 15:00:00,21,1009.6,-0.1,38,6,15000,11.112,,,70,,,,,,,,,,0,wg-a,,,,AAXX 29154 07181 32865 50706 10210 20060 39697 40096 58001 700// 82081 91500=
07181,1999-04-29 16:00:00,20,1009.9,-0,43,7,15000,11.112,,,110,,,,,,,,,,0,wg-a,,,,AAXX 29164 07181 32865 51106 10200 20070 39699 40099 55000 700// 82081 91600=
07181,1999-04-29 17:00:00,20,1009.7,-0.2,43,7,15000,11.112,,,90,,,,,,,,,,0,wg-a,,,,AAXX 29174 07181 32865 70906 10200 20070 39697 40097 57002 700// 84081 91700=
07181,1999-04-29 18:00:00,19,1009.8,-0.1,49,8,20000,7.408,,,70,10.6,21,,,,,,,,0,wg-a,,,,AAXX 29184 07181 32770 60704 10190 20080 39696 40098 58001 700// 83502 91800 333 10210 20106=
07181,1999-04-29 20:00:00,15,1011.2,0.7,67,9,20000,7.408,,,340,,,,,,,,,,0,wg-a,,,,AAXX 29204 07181 32770 63404 10150 20090 39704 40112 53007 700// 83532 92000=
07181,1999-04-29 21:00:00,14,1011.4,0.9,72,9,20000,3.704,,,60,,,,,,,,,,0,wg-a,,,,AAXX 29214 07181 32770 60602 10140 20090 39705 40114 51009 700// 83532 92100=
07181,1999-04-29 22:00:00,13,1012,1,82,10,20000,3.704,,,40,,,,,,,,,,0,wg-a,,,,AAXX 29224 07181 32770 60402 10130 20100 39709 40120 51010 700// 83532 92200=
07181,1999-04-29 23:00:00,13,1012.3,0.8,77,9,15000,7.408,,,360,,,,,,,,,,0,wg-a,,,,AAXX 29234 07181 32765 63604 10130 20090 39712 40123 53008 700// 83532 92300=
07181,1999-04-30 00:00:00,13,1013,1.4,77,9,0,7.408,,,160,,,,,,,,,,,wg-a,,,,AAXX 30004 07181 32/// /1604 10130 20090 39719 40130 53014 90000=
07181,1999-04-30 02:00:00,10,1013.2,0.5,93,9,15000,7.408,,,160,,,,,,,,,,0,wg-a,,,,AAXX 30024 07181 32765 61604 10100 20090 39717 40132 51005 700// 83532 90200=
07181,1999-04-30 04:00:00,10,1013.4,0.4,93,9,10000,14.816,,,200,,,,,,,,,,0,wg-a,,,,AAXX 30044 07181 32760 42008 10100 20090 39719 40134 51004 700// 83502 90400=
07181,1999-04-30 05:00:00,11,1013.5,0.4,94,10,14000,14.816,,,200,,,,,,,,,,0,wg-a,,,,AAXX 30054 07181 32764 32008 10110 20100 39721 40135 52004 700// 83500 90500=
07181,1999-04-30 06:00:00,12,1013.9,0.7,88,10,16000,11.112,,,180,9.1,18.6,,,,,,,,0,wg-a,,,,AAXX 30064 07181 12766 41806 10120 20100 39726 40139 53007 60004 700// 83530 90600 333 10186 20091=
07181,1999-04-30 07:00:00,13,1014.2,1.2,88,11,16000,11.112,,,170,,,,,,,,,,0,wg-a,,,,AAXX 30074 07181 32466 71706 10130 20110 39731 40142 53012 700// 8553/ 90700=
07181,1999-04-30 08:00:00,13,1014.5,1.3,88,11,11000,7.408,,,230,,,,,,,,,,,wg-a,,,,AAXX 30084 07181 32/61 /2304 10130 20110 39734 40145 51013 90800=
07181,1999-04-30 09:00:00,14,1014.7,1.1,82,11,16000,7.408,,,250,,,,,,,,,,0,wg-a,,,,AAXX 30094 07181 32566 82504 10140 20110 39737 40147 51011 700// 875// 90900=
07181,1999-04-30 10:00:00,15,1015,1,77,11,16000,3.704,,,150,,,,,,,,,,0,wg-a,,,,AAXX 30104 07181 32566 81502 10150 20110 39741 40150 53010 700// 878// 91000=
07181,1999-04-30 11:00:00,15,1015.1,0.8,82,12,18000,11.112,,,200,,,,,,,,,,0,wg-a,,,,AAXX 30114 07181 32568 82006 10150 20120 39742 40151 51008 700// 878// 91100=
07181,1999-04-30 12:00:00,16,1014.9,0.5,72,11,18000,3.704,,,180,,,,,,,,,,0,wg-a,,,,AAXX 30124 07181 32568 81802 10160 20110 39742 40149 51005 700// 878// 91200=
07181,1999-04-30 13:00:00,16,1015,0.2,77,12,18000,7.408,,,160,,,,,,,,,,0,wg-a,,,,AAXX 30134 07181 32568 81604 10160 20120 39743 40150 52002 700// 878// 91300=
07181,1999-04-30 14:00:00,16,1015.1,0.2,77,12,16000,11.112,,,150,,,,,,,,,,0,wg-a,,,,AAXX 30144 07181 32566 81506 10160 20120 39744 40151 53002 700// 878// 91400=
07181,1999-04-30 15:00:00,16,1015.1,0.2,77,12,16000,14.816,,,140,,,,,,,,,,0,wg-a,,,,AAXX 30154 07181 32666 71408 10160 20120 39744 40151 51002 700// 878// 91500=
07181,1999-04-30 16:00:00,16,1014.9,-0.1,77,12,16000,14.816,,,150,,,,,,,,,,0,wg-a,,,,AAXX 30164 07181 32666 41508 10160 20120 39742 40149 58001 700// 83201 91600=
07181,1999-04-30 17:00:00,15,1015,-0.2,82,12,16000,14.816,,,160,,,,,,,,,,0,wg-a,,,,AAXX 30174 07181 32666 41608 10150 20120 39742 40150 57002 700// 83201 91700=
07181,1999-04-30 18:00:00,14,1015.5,0.1,88,12,15000,7.408,,,160,11.8,16.4,,,,,,,,0,wg-a,,,,AAXX 30184 07181 32665 21604 10140 20120 39745 40155 53001 700// 82800 91800 333 10164 20118=
07181,1999-04-30 19:00:00,13,1016.1,0.7,94,12,8000,7.408,,,170,,,,,,,,,,0,wg-a,,,,AAXX 30194 07181 32758 /1704 10130 20120 39749 40161 53007 700// 81500 91900=
07181,1999-04-30 20:00:00,12,1016.5,1,100,12,10000,11.112,,,170,,,,,,,,,,,wg-a,,,,AAXX 30204 07181 32/60 /1706 10120 20120 39752 40165 52010 92000=
07181,1999-04-30 23:00:00,11,1017.1,0.3,94,10,8000,11.112,,,180,,,,,,,,,,0,wg-a,,,,AAXX 30234 07181 32758 /1806 10110 20100 39755 40171 52003 700// 81500 92300=
07181,1999-05-01 00:00:00,10,1017,-0,100,10,6000,11.112,,,170,,,,,,,,,,0,wg-a,,,,AAXX 01004 07181 32756 /1706 10100 20100 39754 40170 54000 700// 81500 90000=
07181,1999-05-01 02:00:00,10,1016.9,-0.3,100,10,6000,7.408,,,160,,,,,,,,,,0,wg-a,,,,AAXX 01024 07181 32756 41604 10100 20100 39752 40169 57003 700// 84500 90200=
07181,1999-05-01 03:00:00,10,1016.9,-0.2,100,10,500,11.112,,,170,,,,,,,,,,0,wg-a,,,,AAXX 01034 07181 32700 /1706 10100 20100 39752 40169 56002 700// 85500 90300=
07181,1999-05-01 04:00:00,10,1016.9,-0.1,100,10,500,7.408,,,160,,,,,,,,,,0,wg-a,,,,AAXX 01044 07181 32700 /1604 10100 20100 39752 40169 56001 700// 85530 90400=
07181,1999-05-01 05:00:00,11,1017.2,0.4,100,11,6000,7.408,,,180,,,,,,,,,,0,wg-a,,,,AAXX 01054 07181 32656 71804 10110 20110 39756 40172 53004 700// 86530 90500=
07181,1999-05-01 06:00:00,11,1017.3,0.6,100,11,6000,7.408,,,200,9.4,14.3,,,,,,,,0,wg-a,,,,AAXX 01064 07181 12656 72004 10110 20110 39758 40173 53006 60004 700// 8653/ 90600 333 10143 20094=
07181,1999-05-01 07:00:00,13,1017.3,0.9,94,12,8000,7.408,,,220,,,,,,,,,,0,wg-a,,,,AAXX 01074 07181 32658 72204 10130 20120 39761 40173 51009 700// 8553/ 90700=
07181,1999-05-01 08:00:00,14,1017.4,0.7,88,12,9000,7.408,,,230,,,,,,,,,,0,wg-a,,,,AAXX 01084 07181 32659 /2304 10140 20120 39763 40174 52007 700// 82530 90800=
07181,1999-05-01 09:00:00,16,1017.5,0.9,82,13,10000,7.408,,,240,,,,,,,,,,0,wg-a,,,,AAXX 01094 07181 32660 52404 10160 20130 39767 40175 53009 700// 82530 90900=
07181,1999-05-01 10:00:00,18,1017.4,0.7,73,13,12000,7.408,,,220,,,,,,,,,,0,wg-a,,,,AAXX 01104 07181 32662 52204 10180 20130 39768 40174 51007 700// 83230 91000=
07181,1999-05-01 11:00:00,18,1016.9,0.1,77,14,11000,11.112,,,330,,,0,,,,,,,80,wg-a,,,,AAXX 01114 07181 12661 73306 10180 20140 39764 40169 50001 60005 78086 85230 91100=
07181,1999-05-01 12:00:00,19,1016.5,-0.6,73,14,11000,11.112,,,360,,,,1,,,,,,25,wg-a,,,,AAXX 01124 07181 12661 73606 10190 20140 39761 40165 58006 60017 72586 85230 91200=
07181,1999-05-01 23:00:00,11,1018.4,0.1,87,9,12000,0,,,0,,,,,,,,,,0,wg-a,,,,AAXX 01234 07181 32/62 10000 10110 20090 39768 40184 51001 700// 80001 92300=
07181,1999-05-02 00:00:00,10,1018.4,-0.2,93,9,12000,3.704,,,160,,,,0,,,,,,0,wg-a,,,,AAXX 02004 07181 12/62 11602 10100 20090 39767 40184 57002 60007 700// 80001 90000=
07181,1999-05-02 01:00:00,10,1018.6,0.1,93,9,12000,0,,,0,,,,,,,,,,0,wg-a,,,,AAXX 02014 07181 32/62 10000 10100 20090 39769 40186 53001 700// 80001 90100=
07181,1999-05-02 02:00:00,9,1019.1,0.3,93,8,12000,0,,,0,,,,,,,,,,0,wg-a,,,,AAXX 02024 07181 32/62 00000 10090 20080 39771 40191 53003 700// 80000 90200=
07181,1999-05-02 03:00:00,8,1019.2,0.5,100,8,8000,7.408,,,30,,,,,,,,,,0,wg-a,,,,AAXX 02034 07181 32/58 00304 10080 20080 39772 40192 51005 700// 80000 90300=
07181,1999-05-02 04:00:00,8,1019.1,0.1,100,8,2000,3.704,,,10,,,,,,,,,,10,wg-a,,,,AAXX 02044 07181 32/20 00102 10080 20080 39770 40191 50001 71000 80000 90400=
07181,1999-05-02 05:00:00,8,1019.4,0.2,100,8,1000,3.704,,,320,,,,,,,,,,10,wg-a,,,,AAXX 02054 07181 32/10 03202 10080 20080 39773 40194 53002 71000 80000 90500=
07181,1999-05-02 06:00:00,8,1019.4,0.2,100,8,500,0,,,0,6.9,19.1,,,,,,,,44,wg-a,,,,AAXX 02064 07181 32/05 00000 10080 20080 39774 40194 53002 74440 80000 90600 333 10191 20069=
07181,1999-05-02 07:00:00,10,1019.2,0.5,100,10,1000,3.704,,,330,,,,,,,,,,10,wg-a,,,,AAXX 02074 07181 32/10 /3302 10100 20100 39775 40192 51005 71040 80001 90700=
07181,1999-05-02 10:00:00,18,1018.4,0.4,68,12,9000,14.816,,,40,,,,,,,,,,0,wg-a,,,,AAXX 02104 07181 32/59 20408 10180 20120 39779 40184 50004 700// 80001 91000=
07181,1999-05-02 11:00:00,19,1018.2,0.1,60,11,10000,11.112,,,50,,,,,,,,,,0,wg-a,,,,AAXX 02114 07181 32560 30506 10190 20110 39778 40182 50001 700// 82101 91100=
07181,1999-05-02 12:00:00,21,1017.7,-0.5,53,11,10000,14.816,,,80,,,,,,,,,,2,wg-a,,,,AAXX 02124 07181 32660 30808 10210 20110 39775 40177 58005 70240 82101 91200=
07181,1999-05-02 13:00:00,21,1017.3,-0.8,46,9,12000,14.816,,,70,,,,,,,,,,0,wg-a,,,,AAXX 02134 07181 32662 30708 10210 20090 39771 40173 58008 700// 82101 91300=
07181,1999-05-02 14:00:00,21,1017,-1,43,8,13000,14.816,,,60,,,,,,,,,,0,wg-a,,,,AAXX 02144 07181 32663 30608 10210 20080 39768 40170 57010 700// 82101 91400=
07181,1999-05-02 15:00:00,21,1016.4,-1.2,43,8,13000,11.112,,,80,,,,,,,,,,0,wg-a,,,,AAXX 02154 07181 32663 20806 10210 20080 39763 40164 58012 700// 81101 91500=
07181,1999-05-02 16:00:00,21,1016.2,-1,46,9,13000,14.816,,,70,,,,,,,,,,0,wg-a,,,,AAXX 02164 07181 32663 20708 10210 20090 39761 40162 56010 700// 81101 91600=
07181,1999-05-02 17:00:00,20,1016.1,-0.9,46,8,13000,14.816,,,40,,,,,,,,,,0,wg-a,,,,AAXX 02174 07181 32763 20408 10200 20080 39759 40161 56009 700// 81101 91700=
07181,1999-05-02 18:00:00,19,1016.5,-0.2,49,8,15000,11.112,,,50,8.2,21.5,,,,,,,,0,wg-a,,,,AAXX 02184 07181 32765 20506 10190 20080 39761 40165 55002 700// 81101 91800 333 10215 20082=
07181,1999-05-02 19:00:00,17,1017,0.2,55,8,15000,7.408,,,70,,,,,,,,,,0,wg-a,,,,AAXX 02194 07181 32765 20704 10170 20080 39763 40170 53002 700// 81501 91900=
07181,1999-05-02 20:00:00,15,1017.7,0.8,67,9,15000,7.408,,,70,,,,,,,,,,0,wg-a,,,,AAXX 02204 07181 32765 20704 10150 20090 39767 40177 53008 700// 81501 92000=
07181,1999-05-02 22:00:00,15,1017.9,0.5,63,8,13000,14.816,,,90,,,,,,,,,,0,wg-a,,,,AAXX 02224 07181 32/63 00908 10150 20080 39768 40179 51005 700// 80000 92200=
07181,1999-05-03 01:00:00,11,1018.9,0.4,66,5,10000,3.704,,,240,,,,,,,,,,,wg-a,,,,AAXX 03014 07181 32/60 /2402 10110 20050 39772 40189 51004 90100=
07181,1999-05-03 03:00:00,9,1018.6,-0.5,81,6,10000,3.704,,,20,,,,,,,,,,0,wg-a,,,,AAXX 03034 07181 32/60 00202 10090 20060 39767 40186 58005 700// 80000 90300=
07181,1999-05-03 04:00:00,7,1019.2,-0.3,87,5,10000,7.408,,,260,,,,,,,,,,0,wg-a,,,,AAXX 03044 07181 32/60 02604 10070 20050 39769 40192 55003 700// 80000 90400=
07181,1999-05-03 05:00:00,7,1019.2,-0.1,100,7,10000,7.408,,,340,,,,,,,,,,0,wg-a,,,,AAXX 03054 07181 32/60 03404 10070 20070 39770 40192 55001 700// 80000 90500=
07181,1999-05-03 06:00:00,9,1019.3,0.7,93,8,10000,3.704,,,270,5.9,19.3,,0,,,,,,0,wg-a,,,,AAXX 03064 07181 02/60 12702 10090 20080 39774 40193 53007 60004 700// 80001 90600 333 10193 20059 60007=
07181,1999-05-03 08:00:00,16,1018,0.1,68,10,11000,7.408,,,80,,,,,,,,,,0,wg-a,,,,AAXX 03084 07181 32/61 20804 10160 20100 39771 40180 51001 700// 80001 90800=
07181,1999-05-03 09:00:00,18,1017.6,-0.4,52,8,12000,22.224,,,50,,,,,,,,,,0,wg-a,,,,AAXX 03094 07181 32/62 20512 10180 20080 39770 40176 56004 700// 80001 90900=
07181,1999-05-03 10:00:00,19,1017.5,-0,52,9,12000,22.224,,,40,,,,,,,,,,0,wg-a,,,,AAXX 03104 07181 32/62 20412 10190 20090 39771 40175 55000 700// 80001 91000=
07181,1999-05-03 11:00:00,21,1017,-0.3,43,8,15000,18.52,,,50,,,,,,,,,,0,wg-a,,,,AAXX 03114 07181 32/65 20510 10210 20080 39768 40170 58003 700// 80001 91100=
07181,1999-05-03 12:00:00,22,1016.3,-0.8,38,7,18000,14.816,,,60,,,,,,,,,,0,wg-a,,,,AAXX 03124 07181 32/68 20608 10220 20070 39762 40163 58008 700// 80001 91200=
07181,1999-05-03 13:00:00,22,1015.7,-1.3,38,7,20000,18.52,,,80,,,,,,,,,,0,wg-a,,,,AAXX 03134 07181 32/70 20810 10220 20070 39758 40157 58013 700// 80001 91300=
07181,1999-05-03 14:00:00,23,1014.7,-2,36,7,20000,25.928,,,50,,,,,,,,,,0,wg-a,,,,AAXX 03144 07181 32/70 20514 10230 20070 39748 40147 58020 700// 80001 91400=
07181,1999-05-03 15:00:00,22,1013.9,-2.2,38,7,20000,22.224,,,50,,,,,,,,,,0,wg-a,,,,AAXX 03154 07181 32/70 50512 10220 20070 39740 40139 58022 700// 80002 91500=
07181,1999-05-03 16:00:00,22,1013.3,-2.4,41,8,20000,14.816,,42.596,60,,,,,,,,,,0,wg-a,,,,AAXX 03164 07181 32/70 70608 10220 20080 39734 40133 56024 700// 80002 91600 333 91023=
07181,1999-05-03 17:00:00,21,1012.7,-2.1,43,8,20000,22.224,,,50,,,,,,,,,,0,wg-a,,,,AAXX 03174 07181 32/70 70512 10210 20080 39727 40127 56021 700// 80002 91700=
07181,1999-05-03 18:00:00,20,1013.1,-1.1,43,7,20000,18.52,,,60,9.2,22.9,,,,,,,,0,wg-a,,,,AAXX 03184 07181 32/70 70610 10200 20070 39729 40131 55011 700// 80002 91800 333 10229 20092=
07181,1999-05-03 19:00:00,19,1013.2,-0.6,43,6,20000,22.224,,,60,,,,,,,,,,0,wg-a,,,,AAXX 03194 07181 32/70 70612 10190 20060 39728 40132 56006 700// 80002 91900=
07181,1999-05-03 20:00:00,18,1013.7,0.5,45,6,15000,22.224,,44.448,70,,,,,,,,,,0,wg-a,,,,AAXX 03204 07181 32/65 70712 10180 20060 39732 40137 53005 700// 80002 92000 333 91024=
07181,1999-05-03 21:00:00,17,1013.3,-0.2,48,6,15000,25.928,,,60,,,,,,,,,,0,wg-a,,,,AAXX 03214 07181 32/65 70614 10170 20060 39727 40133 58002 700// 81032 92100=
07181,1999-05-03 22:00:00,16,1012.8,-0.7,48,5,15000,22.224,,40.744,70,,,,,,,,,,0,wg-a,,,,AAXX 03224 07181 32/65 70712 10160 20050 39721 40128 58007 700// 82032 92200 333 91022=
07181,1999-05-03 23:00:00,16,1012.6,-1.3,48,5,15000,22.224,,,70,,,,,,,,,,0,wg-a,,,,AAXX 03234 07181 32/65 70712 10160 20050 39719 40126 56013 700// 82032 92300=
07181,1999-05-04 00:00:00,16,1011.5,-1.9,51,6,15000,25.928,,42.596,70,,,,,,,,,,0,wg-a,,,,AAXX 04004 07181 32/65 70714 10160 20060 39708 40115 58019 700// 82032 90000 333 91023=
07181,1999-05-04 02:00:00,15,1010.5,-2.2,55,6,15000,22.224,,,70,,,,,,,,,,0,wg-a,,,,AAXX 04024 07181 32/65 70712 10150 20060 39697 40105 56022 700// 83032 90200=
07181,1999-05-04 03:00:00,14,1010,-1.6,58,6,15000,29.632,,,60,,,,,,,,,,0,wg-a,,,,AAXX 04034 07181 32/65 70616 10140 20060 39692 40100 56016 700// 83032 90300=
07181,1999-05-04 04:00:00,14,1009.4,-1.7,63,7,15000,22.224,,42.596,60,,,,,,,,,,0,wg-a,,,,AAXX 04044 07181 32/65 70612 10140 20070 39685 40094 58017 700// 83032 90400 333 91023=
07181,1999-05-04 05:00:00,13,1009.1,-1.5,62,6,15000,29.632,,48.152,60,,,,,,,,,,0,wg-a,,,,AAXX 04054 07181 32765 80616 10130 20060 39682 40091 56015 700// 81532 90500 333 91026=
07181,1999-05-04 06:00:00,13,1008.6,-1.5,67,7,15000,25.928,,44.448,70,13.1,20,,,,,,,,0,wg-a,,,,AAXX 04064 07181 12865 80714 10130 20070 39677 40086 56015 60004 700// 85032 90600 333 10200 20131 91024=
07181,1999-05-04 07:00:00,14,1008.3,-1,63,7,15000,31.484,,,60,,,,,,,,,,0,wg-a,,,,AAXX 04074 07181 32765 70617 10140 20070 39675 40083 56010 700// 83532 90700=
07181,1999-05-04 08:00:00,15,1007.7,-1.1,59,7,20000,25.928,,48.152,60,,,,,,,,,,0,wg-a,,,,AAXX 04084 07181 32770 70614 10150 20070 39671 40077 56011 700// 8353/ 90800 333 91026=
07181,1999-05-04 09:00:00,15,1007.2,-1.1,59,7,20000,29.632,,51.856,70,,,,,,,,,,0,wg-a,,,,AAXX 04094 07181 32870 70716 10150 20070 39666 40072 58011 700// 85032 90900 333 91028=
07181,1999-05-04 10:00:00,17,1006.7,-1.2,55,8,20000,25.928,,50.004,60,,,,,,,,,,0,wg-a,,,,AAXX 04104 07181 32870 70614 10170 20080 39663 40067 56012 700// 83032 91000 333 91027=
07181,1999-05-04 11:00:00,16,1006.4,-1.1,59,8,10000,14.816,,,70,,,,,,,,,,,wg-a,,,,AAXX 04114 07181 32/60 /0708 10160 20080 39660 40064 56011 91100=
07181,1999-05-04 12:00:00,17,1006.3,-0.6,59,9,20000,18.52,,,90,,,,,,,,,,0,wg-a,,,,AAXX 04124 07181 32/70 70910 10170 20090 39660 40063 56006 700// 83032 91200=
07181,1999-05-04 13:00:00,17,1005.6,-0.9,55,8,20000,25.928,,,80,,,,,,,,,,0,wg-a,,,,AAXX 04134 07181 32/70 70814 10170 20080 39654 40056 58009 700// 83032 91300=
07181,1999-05-04 17:00:00,17,1005.3,-0.2,55,8,18000,22.224,,,80,,,,,,,,,,0,wg-a,,,,AAXX 04174 07181 32/68 70812 10170 20080 39651 40053 56002 700// 82031 91700=
07181,1999-05-04 18:00:00,16,1005.3,0.1,55,7,18000,29.632,,55.56,80,13.3,18.3,,,,,,,,0,wg-a,,,,AAXX 04184 07181 32/68 70816 10160 20070 39650 40053 50001 700// 82031 91800 333 10183 20133 91030=
07181,1999-05-04 19:00:00,16,1006,0.4,55,7,10000,22.224,,38.892,80,,,,,,,,,,,wg-a,,,,AAXX 04194 07181 32/60 /0812 10160 20070 39655 40060 53004 91900 333 91021=
07181,1999-05-04 20:00:00,15,1006.2,0.6,59,7,10000,14.816,,42.596,70,,,,,,,,,,,wg-a,,,,AAXX 04204 07181 32/60 /0708 10150 20070 39657 40062 53006 92000 333 91023=
07181,1999-05-04 21:00:00,15,1006.3,0.7,59,7,18000,18.52,,,80,,,,,,,,,,0,wg-a,,,,AAXX 04214 07181 32/68 50810 10150 20070 39657 40063 51007 700// 84031 92100=
07181,1999-05-04 22:00:00,14,1006.6,0.4,63,7,10000,7.408,,,70,,,,,,,,,,,wg-a,,,,AAXX 04224 07181 32/60 /0704 10140 20070 39659 40066 52004 92200=
07181,1999-05-04 23:00:00,14,1006.6,0.2,67,8,18000,11.112,,,80,,,,,,,,,,0,wg-a,,,,AAXX 04234 07181 32/68 50806 10140 20080 39659 40066 52002 700// 83031 92300=
07181,1999-05-05 00:00:00,14,1006.6,0.2,67,8,18000,11.112,,,110,,,,,,,,,,0,wg-a,,,,AAXX 05004 07181 32/68 51106 10140 20080 39659 40066 51002 700// 83031 90000=
07181,1999-05-05 01:00:00,13,1006.9,0.1,72,8,18000,7.408,,,100,,,,,,,,,,0,wg-a,,,,AAXX 05014 07181 32/68 41004 10130 20080 39660 40069 53001 700// 83031 90100=
07181,1999-05-05 02:00:00,13,1007.1,0.3,77,9,18000,7.408,,,120,,,,,,,,,,0,wg-a,,,,AAXX 05024 07181 32/68 61204 10130 20090 39662 40071 53003 700// 84031 90200=
07181,1999-05-05 03:00:00,12,1007.3,0.4,82,9,18000,7.408,,,120,,,,,,,,,,0,wg-a,,,,AAXX 05034 07181 32/68 61204 10120 20090 39663 40073 52004 700// 83031 90300=
07181,1999-05-05 04:00:00,11,1007.6,0.4,82,8,10000,7.408,,,130,,,,,,,,,,,wg-a,,,,AAXX 05044 07181 32/60 /1304 10110 20080 39664 40076 51004 90400=
07181,1999-05-05 05:00:00,10,1008,0.5,93,9,12000,7.408,,,130,,,,,,,,,,0,wg-a,,,,AAXX 05054 07181 32762 51304 10100 20090 39667 40080 53005 700// 81531 90500=
07181,1999-05-05 06:00:00,12,1008.1,0.7,82,9,12000,11.112,,,160,9.8,16.2,,,,,,,,0,wg-a,,,,AAXX 05064 07181 12762 61606 10120 20090 39670 40081 53007 60004 700// 81531 90600 333 10162 20098=
07181,1999-05-05 07:00:00,14,1008.4,1.2,82,11,12000,11.112,,,210,,,,,,,,,,0,wg-a,,,,AAXX 05074 07181 32762 62106 10140 20110 39676 40084 53012 700// 81531 90700=
07181,1999-05-05 08:00:00,16,1008.5,1.3,77,12,12000,14.816,,,240,,,,,,,,,,0,wg-a,,,,AAXX 05084 07181 32762 72408 10160 20120 39680 40085 53013 700// 81531 90800=
07181,1999-05-05 09:00:00,16,1008.7,1.3,72,11,12000,11.112,,,190,,,,,,,,,,0,wg-a,,,,AAXX 05094 07181 32562 71906 10160 20110 39683 40087 51013 700// 82831 90900=
07181,1999-05-05 10:00:00,18,1008.7,0.8,68,12,14000,14.816,,,240,,,,,,,,,,0,wg-a,,,,AAXX 05104 07181 32564 72408 10180 20120 39684 40087 51008 700// 8483/ 91000=
07181,1999-05-05 11:00:00,18,1008.8,0.6,68,12,14000,7.408,,,190,,,,,,,,,,0,wg-a,,,,AAXX 05114 07181 32564 71904 10180 20120 39686 40088 51006 700// 8583/ 91100=
07181,1999-05-05 12:00:00,19,1009.1,0.7,68,13,15000,11.112,,,220,,,,,,,,,,0,wg-a,,,,AAXX 05124 07181 32565 82206 10190 20130 39690 40091 53007 700// 8683/ 91200=
07181,1999-05-05 13:00:00,18,1009.7,1,73,13,15000,11.112,,,220,,,,,,,,,,0,wg-a,,,,AAXX 05134 07181 32565 82206 10180 20130 39694 40097 53010 700// 878// 91300=
07181,1999-05-05 14:00:00,17,1010,1,82,14,15000,7.408,,,230,,,,,,,,,,61,wg-a,,,,AAXX 05144 07181 02565 82304 10170 20140 39696 40100 51010 61000 76162 878// 91400 333 ////=
07181,1999-05-05 15:00:00,18,1009.9,0.7,77,14,15000,7.408,,,280,,,,,,,,,,21,wg-a,,,,AAXX 05154 07181 02565 82804 10180 20140 39697 40099 51007 61000 72162 878// 91500 333 ////=
07181,1999-05-05 17:00:00,17,1010.5,0.5,72,12,15000,11.112,,,270,,,,,,,,,,0,wg-a,,,,AAXX 05174 07181 32665 82706 10170 20120 39701 40105 53005 700// 878// 91700=
07181,1999-05-05 18:00:00,16,1011.2,1,82,13,12000,11.112,,,230,11.5,18.8,,,,,,,,1,wg-a,,,,AAXX 05184 07181 32662 82306 10160 20130 39707 40112 53010 70162 878// 91800 333 10188 20115=
07181,1999-05-05 19:00:00,16,1012,1.6,82,13,12000,11.112,,,240,,,,,,,,,,0,wg-a,,,,AAXX 05194 07181 32662 82406 10160 20130 39714 40120 53016 700// 878// 91900=
07181,1999-05-05 20:00:00,15,1012.8,2,94,14,10000,7.408,,,230,,,,,,,,,,0,wg-a,,,,AAXX 05204 07181 32660 82304 10150 20140 39721 40128 53020 700// 878// 92000=
07181,1999-05-05 21:00:00,15,1013.4,1.9,94,14,10000,7.408,,,250,,,,,,,,,,0,wg-a,,,,AAXX 05214 07181 32660 82504 10150 20140 39726 40134 51019 700// 878// 92100=
07181,1999-05-05 22:00:00,14,1013.9,1.6,94,13,10000,11.112,,,250,,,,,,,,,,0,wg-a,,,,AAXX 05224 07181 32660 82506 10140 20130 39730 40139 51016 700// 878// 92200=
07181,1999-05-05 23:00:00,14,1014.4,1.3,94,13,8000,7.408,,,220,,,,,,,,,,0,wg-a,,,,AAXX 05234 07181 32658 82204 10140 20130 39734 40144 51013 700// 878// 92300=
07181,1999-05-06 00:00:00,14,1014.6,1,94,13,7000,11.112,,,230,,,,,,,,,,0,wg-a,,,,AAXX 06004 07181 32657 82306 10140 20130 39736 40146 51010 700// 878// 90000=
07181,1999-05-06 02:00:00,13,1015.1,0.5,100,13,500,11.112,,,210,,,,,,,,,,0,wg-a,,,,AAXX 06024 07181 32600 82106 10130 20130 39739 40151 52005 700// 878// 90200=
07181,1999-05-06 03:00:00,13,1015.3,0.5,94,12,500,11.112,,,230,,,,,,,,,,0,wg-a,,,,AAXX 06034 07181 32500 82306 10130 20120 39741 40153 53005 700// 875// 90300=
07181,1999-05-06 04:00:00,13,1015.7,0.8,100,13,3000,14.816,,,230,,,,,,,,,,10,wg-a,,,,AAXX 06044 07181 32230 72308 10130 20130 39745 40157 53008 71022 877// 90400=
07181,1999-05-06 05:00:00,12,1016,0.8,100,12,3000,11.112,,,210,,,,,,,,,,10,wg-a,,,,AAXX 06054 07181 32230 62106 10120 20120 39747 40160 52008 71022 86500 90500=
07181,1999-05-06 06:00:00,13,1016.3,1,94,12,4500,11.112,,,210,12.1,16.2,,,,,,,,10,wg-a,,,,AAXX 06064 07181 12245 72106 10130 20120 39751 40163 52010 60004 71022 875// 90600 333 10162 20121=
07181,1999-05-06 07:00:00,14,1016.6,1,94,13,6000,11.112,,,240,,,,,,,,,,0,wg-a,,,,AAXX 06074 07181 32456 72406 10140 20130 39755 40166 53010 700// 878// 90700=
07181,1999-05-06 08:00:00,15,1016.7,1.1,88,13,11000,14.816,,,250,,,,,,,,,,0,wg-a,,,,AAXX 06084 07181 32461 /2508 10150 20130 39758 40167 51011 700// 86800 90800=
07181,1999-05-06 09:00:00,17,1016.3,0.6,68,11,12000,14.816,,,250,,,,,,,,,,0,wg-a,,,,AAXX 06094 07181 32562 /2508 10170 20110 39757 40163 50006 700// 85201 90900=
07181,1999-05-06 10:00:00,18,1016.4,0.4,64,11,12000,18.52,,,240,,,,,,,,,,0,wg-a,,,,AAXX 06104 07181 32562 /2410 10180 20110 39759 40164 51004 700// 85201 91000=
07181,1999-05-06 11:00:00,19,1016.1,-0.1,60,11,18000,18.52,,,230,,,,,,,,,,0,wg-a,,,,AAXX 06114 07181 32568 /2310 10190 20110 39757 40161 58001 700// 85201 91100=
07181,1999-05-06 12:00:00,20,1016.2,0.2,53,10,18000,18.52,,33.336,230,,,,,,,,,,0,wg-a,,,,AAXX 06124 07181 32668 /2310 10200 20100 39759 40162 52002 700// 85201 91200 333 91018=
07181,1999-05-06 13:00:00,20,1015.9,-0.2,53,10,18000,22.224,,,270,,,,,,,,,,0,wg-a,,,,AAXX 06134 07181 32668 62712 10200 20100 39757 40159 57002 700// 84201 91300=
07181,1999-05-06 15:00:00,20,1015.5,-0.6,46,8,18000,18.52,,,290,,,,,,,,,,0,wg-a,,,,AAXX 06154 07181 32668 /2910 10200 20080 39753 40155 56006 700// 83801 91500=
07181,1999-05-06 16:00:00,20,1015.4,-0.5,49,9,18000,11.112,,,290,,,,,,,,,,0,wg-a,,,,AAXX 06164 07181 32768 /2906 10200 20090 39752 40154 56005 700// 83801 91600=
07181,1999-05-06 17:00:00,20,1015.4,-0.3,49,9,18000,11.112,,,300,,,,,,,,,,0,wg-a,,,,AAXX 06174 07181 32768 53006 10200 20090 39751 40154 57003 700// 82801 91700=
07181,1999-05-06 18:00:00,19,1015.5,-0.2,52,9,18000,7.408,,,340,13,20.8,,,,,,,,0,wg-a,,,,AAXX 06184 07181 32768 43404 10190 20090 39751 40155 56002 700// 82801 91800 333 10208 20130=
07181,1999-05-06 19:00:00,16,1016,-0,63,9,18000,3.704,,,20,,,,,,,,,,0,wg-a,,,,AAXX 06194 07181 32768 40202 10160 20090 39752 40160 55000 700// 82801 91900=
07181,1999-05-06 20:00:00,13,1016.5,0.2,82,10,18000,3.704,,,80,,,,,,,,,,0,wg-a,,,,AAXX 06204 07181 32768 30802 10130 20100 39753 40165 53002 700// 81501 92000=
07181,1999-05-06 21:00:00,14,1016.6,0.3,72,9,18000,7.408,,,100,,,,,,,,,,0,wg-a,,,,AAXX 06214 07181 32768 31004 10140 20090 39754 40166 52003 700// 81501 92100=
07181,1999-05-06 22:00:00,13,1016.4,0,77,9,15000,7.408,,,140,,,,,,,,,,0,wg-a,,,,AAXX 06224 07181 32765 31404 10130 20090 39752 40164 50000 700// 81501 92200=
07181,1999-05-06 23:00:00,12,1016.3,-0.4,82,9,15000,7.408,,,140,,,,,,,,,,0,wg-a,,,,AAXX 06234 07181 32765 31404 10120 20090 39749 40163 58004 700// 81501 92300=
07181,1999-05-07 00:00:00,12,1016,-0.8,82,9,15000,11.112,,,140,,,,,,,,,,0,wg-a,,,,AAXX 07004 07181 32765 31406 10120 20090 39746 40160 58008 700// 81501 90000=
07181,1999-05-07 02:00:00,10,1015.6,-1,87,8,13000,11.112,,,130,,,,,,,,,,0,wg-a,,,,AAXX 07024 07181 32763 31306 10100 20080 39739 40156 57010 700// 81501 90200=
07181,1999-05-07 03:00:00,10,1015.2,-1,93,9,13000,11.112,,,150,,,,,,,,,,0,wg-a,,,,AAXX 07034 07181 32763 31506 10100 20090 39736 40152 56010 700// 81501 90300=
07181,1999-05-07 04:00:00,10,1014.7,-1.1,93,9,7000,14.816,,,140,,,,,,,,,,0,wg-a,,,,AAXX 07044 07181 32757 31408 10100 20090 39731 40147 58011 700// 81501 90400=
07181,1999-05-07 05:00:00,9,1015,-0.7,93,8,300,7.408,,,100,,,,,,,,,,44,wg-a,,,,AAXX 07054 07181 32/03 31004 10090 20080 39732 40150 55007 74440 82031 90500=
07181,1999-05-07 15:00:00,21,1008.3,-1.7,64,14,20000,11.112,,,250,,,,,,,,,,25,wg-a,,,,AAXX 07154 07181 02670 72506 10210 20140 39685 40083 56017 61000 72586 878// 91500 333 ////=
07181,1999-05-07 16:00:00,21,1007.6,-1.7,60,13,20000,18.52,,,230,,,,,,,,,,0,wg-a,,,,AAXX 07164 07181 32670 72310 10210 20130 39679 40076 56017 700// 83832 91600=
07181,1999-05-07 17:00:00,21,1007.3,-1.4,60,13,15000,11.112,,,240,,,,,,,,,,13,wg-a,,,,AAXX 07174 07181 32565 72406 10210 20130 39675 40073 57014 71322 86902 91700=
07181,1999-05-07 18:00:00,17,1008.4,-0.4,88,15,10000,18.52,,35.188,240,9.7,23,,1,,,,,,80,wg-a,,,,AAXX 07184 07181 12560 72410 10170 20150 39681 40084 55004 60017 78098 879// 91800 333 10230 20097 91019=
07181,1999-05-07 19:00:00,16,1008.8,0.4,88,14,15000,14.816,,,230,,,0,,,,,,,29,wg-a,,,,AAXX 07194 07181 12565 72308 10160 20140 39683 40088 53004 60005 72998 879// 91900=
07181,1999-05-07 20:00:00,15,1009.5,1.4,94,14,15000,11.112,,,220,,,1,,,,,,,25,wg-a,,,,AAXX 07204 07181 12665 72206 10150 20140 39689 40095 52014 60015 72586 878// 92000=
07181,1999-05-07 21:00:00,15,1009.6,0.9,94,14,15000,7.408,,,170,,,,1,,,,,,25,wg-a,,,,AAXX 07214 07181 12665 /1704 10150 20140 39690 40096 51009 60017 72598 85800 92100=
07181,1999-05-07 22:00:00,15,1009.8,0.9,94,14,15000,11.112,,,190,,,,,,,,,,25,wg-a,,,,AAXX 07224 07181 32765 41906 10150 20140 39692 40098 51009 72511 83501 92200=
07181,1999-05-07 23:00:00,14,1010.1,0.5,100,14,15000,14.816,,,190,,,,,,,,,,25,wg-a,,,,AAXX 07234 07181 32665 /1908 10140 20140 39694 40101 53005 72511 82802 92300=
07181,1999-05-08 00:00:00,14,1010,0.3,94,13,15000,18.52,,,210,,,,,,,,,,1,wg-a,,,,AAXX 08004 07181 32765 72110 10140 20130 39693 40100 50003 70198 8553/ 90000=
07181,1999-05-08 01:00:00,14,1009.9,0,94,13,12000,18.52,,,210,,,,,,,,,,80,wg-a,,,,AAXX 08014 07181 02562 72110 10140 20130 39692 40099 50000 61000 78086 878// 90100 333 ////=
07181,1999-05-08 02:00:00,14,1010.2,-0,100,14,10000,18.52,,,220,,,0,,,,,,,60,wg-a,,,,AAXX 08024 07181 12560 72210 10140 20140 39694 40102 55000 60005 76086 878// 90200=
07181,1999-05-08 03:00:00,14,1010.4,0.3,94,13,10000,25.928,,,220,,,,0,,,,,,60,wg-a,,,,AAXX 08034 07181 12460 72214 10140 20130 39696 40104 53003 60007 76086 878// 90300=
07181,1999-05-08 04:00:00,13,1011.4,1.2,94,12,10000,18.52,,,270,,,,,,,,,,21,wg-a,,,,AAXX 08044 07181 02460 72710 10130 20120 39704 40114 53012 61000 72162 872// 90400 333 ////=
07181,1999-05-08 05:00:00,13,1012,1.5,94,12,8000,14.816,,,260,,,,,,,,,,0,wg-a,,,,AAXX 08054 07181 32458 72608 10130 20120 39709 40120 53015 700// 878// 90500=
07181,1999-05-08 06:00:00,13,1012.8,2.1,94,12,8000,14.816,,,270,12.5,16.9,,,,,2,,,3,wg-a,,,,AAXX 08064 07181 02458 72708 10130 20120 39717 40128 52021 60024 70386 878// 90600 333 10169 20125 61000=
07181,1999-05-08 07:00:00,13,1013.5,2,94,12,8000,14.816,,,270,,,,,,,,,,0,wg-a,,,,AAXX 08074 07181 32458 82708 10130 20120 39724 40135 53020 700// 878// 90700=
07181,1999-05-08 08:00:00,13,1014.2,2.2,94,12,10000,18.52,,,300,,,,,,,,,,0,wg-a,,,,AAXX 08084 07181 32460 83010 10130 20120 39731 40142 51022 700// 878// 90800=
07181,1999-05-08 09:00:00,13,1015.1,2.2,94,12,10000,11.112,,,270,,,,0,,,,,,0,wg-a,,,,AAXX 08094 07181 12460 82706 10130 20120 39739 40151 53022 60007 700// 878// 90900=
07181,1999-05-08 10:00:00,13,1015.5,2,94,12,15000,11.112,,,290,,,,,,,,,,0,wg-a,,,,AAXX 08104 07181 32565 82906 10130 20120 39744 40155 51020 700// 878// 91000=
07181,1999-05-08 11:00:00,14,1015.4,1.3,82,11,20000,14.816,,,290,,,,,,,,,,0,wg-a,,,,AAXX 08114 07181 32570 82908 10140 20110 39744 40154 51013 700// 878// 91100=
07181,1999-05-08 12:00:00,15,1015.3,0.5,77,11,25000,11.112,,,300,,,,,,,,,,1,wg-a,,,,AAXX 08124 07181 32575 73006 10150 20110 39744 40153 51005 70162 878// 91200=
07181,1999-05-08 13:00:00,17,1015.4,0.3,68,11,25000,18.52,,,260,,,,,,,,,,0,wg-a,,,,AAXX 08134 07181 32575 /2610 10170 20110 39747 40154 53003 700// 85800 91300=
07181,1999-05-08 14:00:00,17,1015.4,0.4,59,9,25000,18.52,,,270,,,,,,,,,,0,wg-a,,,,AAXX 08144 07181 32575 52710 10170 20090 39748 40154 53004 700// 84201 91400=
07181,1999-05-08 15:00:00,18,1015.5,0.5,49,7,25000,22.224,,,270,,,,,,,,,,0,wg-a,,,,AAXX 08154 07181 32675 52712 10180 20070 39749 40155 51005 700// 84201 91500=
07181,1999-05-08 16:00:00,17,1015.8,0.4,48,6,25000,22.224,,,300,,,,,,,,,,0,wg-a,,,,AAXX 08164 07181 32675 43012 10170 20060 39751 40158 53004 700// 83201 91600=
07181,1999-05-08 17:00:00,17,1016,0.5,48,6,25000,22.224,,,260,,,,,,,,,,0,wg-a,,,,AAXX 08174 07181 32775 32612 10170 20060 39753 40160 53005 700// 82501 91700=
07181,1999-05-08 18:00:00,16,1016.7,0.9,51,6,25000,14.816,,,270,12.4,17.9,,,,,,,,0,wg-a,,,,AAXX 08184 07181 32775 32708 10160 20060 39758 40167 53009 700// 81501 91800 333 10179 20124=
07181,1999-05-08 19:00:00,13,1017.8,1.4,62,6,25000,7.408,,,240,,,,,,,,,,0,wg-a,,,,AAXX 08194 07181 32/75 22404 10130 20060 39765 40178 53014 700// 80001 91900=
07181,1999-05-08 20:00:00,12,1018.7,1.8,71,7,25000,11.112,,,200,,,,,,,,,,0,wg-a,,,,AAXX 08204 07181 32/75 22006 10120 20070 39771 40187 53018 700// 80001 92000=
07181,1999-05-08 22:00:00,10,1019.7,1.4,76,6,15000,11.112,,,200,,,,,,,,,,0,wg-a,,,,AAXX 08224 07181 32/65 22006 10100 20060 39779 40197 51014 700// 80001 92200=
07181,1999-05-08 23:00:00,10,1020.1,1.1,76,6,15000,11.112,,,200,,,,,,,,,,0,wg-a,,,,AAXX 08234 07181 32/65 22006 10100 20060 39782 40201 51011 700// 80001 92300=
07181,1999-05-09 01:00:00,9,1019.9,0,81,6,15000,11.112,,,220,,,,,,,,,,0,wg-a,,,,AAXX 09014 07181 32/65 22206 10090 20060 39779 40199 50000 700// 80001 90100=
07181,1999-05-09 02:00:00,9,1020,-0.2,81,6,15000,7.408,,,170,,,,,,,,,,0,wg-a,,,,AAXX 09024 07181 32/65 01704 10090 20060 39780 40200 55002 700// 80000 90200=
07181,1999-05-09 03:00:00,7,1020.4,0.1,93,6,15000,7.408,,,160,,,,,,,,,,0,wg-a,,,,AAXX 09034 07181 32/65 01604 10070 20060 39781 40204 53001 700// 80000 90300=
07181,1999-05-09 05:00:00,8,1020.6,0.4,87,6,20000,14.816,,,160,,,,,,,,,,0,wg-a,,,,AAXX 09054 07181 32/70 31608 10080 20060 39784 40206 53004 700// 80001 90500=
07181,1999-05-09 06:00:00,10,1020.5,0.6,87,8,25000,3.704,,,150,6.5,15.8,,,,,,,,0,wg-a,,,,AAXX 09064 07181 12/75 61502 10100 20080 39787 40205 53006 60004 700// 80001 90600 333 10158 20065=
07181,1999-05-09 07:00:00,13,1020.1,0.6,77,9,25000,7.408,,,140,,,,,,,,,,0,wg-a,,,,AAXX 09074 07181 32/75 51404 10130 20090 39787 40201 51006 700// 80001 90700=
07181,1999-05-09 08:00:00,16,1019.7,0.4,63,9,25000,3.704,,,170,,,,,,,,,,0,wg-a,,,,AAXX 09084 07181 32575 41702 10160 20090 39788 40197 51004 700// 81101 90800=
07181,1999-05-09 09:00:00,18,1019.5,0.1,52,8,25000,3.704,,,200,,,,,,,,,,0,wg-a,,,,AAXX 09094 07181 32675 42002 10180 20080 39788 40195 52001 700// 83201 90900=
07181,1999-05-09 11:00:00,19,1018.7,-0.7,46,7,25000,11.112,,,140,,,,,,,,,,0,wg-a,,,,AAXX 09114 07181 32675 51406 10190 20070 39781 40187 58007 700// 84201 91100=
07181,1999-05-09 12:00:00,20,1018,-1.2,43,7,25000,11.112,,,130,,,,,,,,,,0,wg-a,,,,AAXX 09124 07181 32675 51306 10200 20070 39776 40180 58012 700// 84201 91200=
07181,1999-05-09 13:00:00,20,1017.4,-1.4,40,6,25000,7.408,,,140,,,,,,,,,,0,wg-a,,,,AAXX 09134 07181 32675 51404 10200 20060 39771 40174 58014 700// 84101 91300=
07181,1999-05-09 15:00:00,20,1016.3,-1.6,43,7,25000,7.408,,,130,,,,,,,,,,0,wg-a,,,,AAXX 09154 07181 32775 41304 10200 20070 39760 40163 58016 700// 81101 91500=
07181,1999-05-09 16:00:00,20,1015.8,-1.5,43,7,25000,7.408,,,170,,,,,,,,,,0,wg-a,,,,AAXX 09164 07181 32/75 41704 10200 20070 39756 40158 56015 700// 80001 91600=
07181,1999-05-09 17:00:00,20,1015.4,-1.4,43,7,10000,11.112,,,110,,,,,,,,,,,wg-a,,,,AAXX 09174 07181 32/60 /1106 10200 20070 39752 40154 56014 91700=
07181,1999-05-09 18:00:00,20,1015.2,-1.1,46,8,25000,7.408,,,100,10.1,20.5,,,,,,,,0,wg-a,,,,AAXX 09184 07181 32/75 31004 10200 20080 39749 40152 56011 700// 80001 91800 333 10205 20101=
07181,1999-05-09 19:00:00,17,1015.5,-0.7,59,9,25000,7.408,,,90,,,,,,,,,,0,wg-a,,,,AAXX 09194 07181 32/75 30904 10170 20090 39749 40155 56007 700// 80001 91900=
07181,1999-05-09 20:00:00,15,1015.8,-0.3,72,10,25000,7.408,,,140,,,,,,,,,,0,wg-a,,,,AAXX 09204 07181 32/75 31404 10150 20100 39749 40158 56003 700// 80001 92000=
07181,1999-05-09 21:00:00,14,1015.9,-0.1,72,9,25000,11.112,,,150,,,,,,,,,,0,wg-a,,,,AAXX 09214 07181 32/75 31506 10140 20090 39748 40159 58001 700// 80001 92100=
07181,1999-05-09 22:00:00,13,1016.1,-0.1,77,9,10000,11.112,,,160,,,,,,,,,,,wg-a,,,,AAXX 09224 07181 32/60 /1606 10130 20090 39748 40161 57001 92200=
07181,1999-05-09 23:00:00,12,1016,-0.3,82,9,25000,7.408,,,170,,,,,,,,,,0,wg-a,,,,AAXX 09234 07181 32/75 21704 10120 20090 39746 40160 58003 700// 80001 92300=
07181,1999-05-10 00:00:00,11,1015.9,-0.4,82,8,25000,7.408,,,220,,,,,,,,,,,wg-a,,,,AAXX 10004 07181 32/75 22204 10110 20080 39744 40159 58004 80001 90000=
07181,1999-05-10 01:00:00,11,1015.6,-0.7,87,9,25000,3.704,,,160,,,,,,,,,,0,wg-a,,,,AAXX 10014 07181 32/75 51602 10110 20090 39741 40156 58007 700// 80001 90100=
07181,1999-05-10 02:00:00,12,1015,-1,82,9,25000,14.816,,,180,,,,,,,,,,0,wg-a,,,,AAXX 10024 07181 32/75 51808 10120 20090 39736 40150 58010 700// 80001 90200=
07181,1999-05-10 03:00:00,13,1014.8,-0.7,88,11,25000,11.112,,,190,,,,,,,,,,0,wg-a,,,,AAXX 10034 07181 32/75 61906 10130 20110 39737 40148 55007 700// 81031 90300=
07181,1999-05-10 04:00:00,13,1014.5,-0.7,88,11,20000,14.816,,,160,,,,,,,,,,0,wg-a,,,,AAXX 10044 07181 32/70 71608 10130 20110 39734 40145 56007 700// 84031 90400=
07181,1999-05-10 05:00:00,14,1014.6,-0,82,11,20000,11.112,,,200,,,,,,,,,,0,wg-a,,,,AAXX 10054 07181 32/70 72006 10140 20110 39736 40146 55000 700// 84031 90500=
07181,1999-05-10 06:00:00,15,1014.3,-0.2,72,10,20000,18.52,,,190,10.2,19.5,,,,,,,,0,wg-a,,,,AAXX 10064 07181 12770 71910 10150 20100 39735 40143 56002 60004 700// 84531 90600 333 10195 20102=
07181,1999-05-10 07:00:00,16,1014.4,0.2,68,10,20000,25.928,,,200,,,,,,,,,,0,wg-a,,,,AAXX 10074 07181 32770 72014 10160 20100 39736 40144 51002 700// 81531 90700=
07181,1999-05-10 08:00:00,17,1014.9,0.7,63,10,20000,22.224,,,220,,,,,,,,,,0,wg-a,,,,AAXX 10084 07181 32770 72212 10170 20100 39743 40149 53007 700// 82531 90800=
07181,1999-05-10 09:00:00,17,1015.2,1.1,68,11,20000,22.224,,,250,,,,,,,,,,0,wg-a,,,,AAXX 10094 07181 32770 82512 10170 20110 39746 40152 53011 700// 8757/ 90900=
07181,1999-05-10 10:00:00,15,1015.2,0.8,94,14,18000,7.408,,,220,,,0,,,,,,,60,wg-a,,,,AAXX 10104 07181 12668 82204 10150 20140 39744 40152 50008 60005 76062 8457/ 91000=
07181,1999-05-10 11:00:00,14,1016.9,1.6,94,13,11000,22.224,,,230,,,,,,,,,,,wg-a,,,,AAXX 10114 07181 32/61 /2312 10140 20130 39759 40169 53016 91100=
07181,1999-05-10 12:00:00,15,1015.7,0.2,88,13,15000,3.704,,,230,,,,2,,,,,,21,wg-a,,,,AAXX 10124 07181 12565 82302 10150 20130 39748 40157 50002 60027 72162 8687/ 91200=
07181,1999-05-10 13:00:00,16,1016,0.9,88,14,18000,14.816,,,220,,,,,,,,,,21,wg-a,,,,AAXX 10134 07181 32568 82208 10160 20140 39753 40160 51009 72122 878// 91300=
07181,1999-05-10 14:00:00,15,1016.2,-0.6,94,14,14000,14.816,,,230,,,2,,,,,,,25,wg-a,,,,AAXX 10144 07181 12564 72308 10150 20140 39753 40162 56006 60025 72586 878// 91400=
07181,1999-05-10 15:00:00,18,1015.7,0.4,77,14,25000,22.224,,,250,,,,2,,,,,,1,wg-a,,,,AAXX 10154 07181 12575 62512 10180 20140 39752 40157 50004 60027 70186 84831 91500=
07181,1999-05-10 16:00:00,18,1015.6,-0.2,73,13,25000,14.816,,,230,,,,,,,,,,0,wg-a,,,,AAXX 10164 07181 32575 /2308 10180 20130 39751 40156 58002 700// 84831 91600=
07181,1999-05-10 17:00:00,18,1015.4,-0.3,77,14,25000,14.816,,,250,,,,,,,,,,0,wg-a,,,,AAXX 10174 07181 32675 /2508 10180 20140 39750 40154 57003 700// 83831 91700=
07181,1999-05-10 18:00:00,17,1015.6,-0.3,72,12,25000,11.112,,,230,14.1,18.4,,,,,,,,1,wg-a,,,,AAXX 10184 07181 32675 /2306 10170 20120 39749 40156 57003 70186 82532 91800 333 10184 20141=
07181,1999-05-10 19:00:00,15,1016.3,0.3,88,13,25000,7.408,,,240,,,,,,,,,,0,wg-a,,,,AAXX 10194 07181 32675 /2404 10150 20130 39754 40163 53003 700// 82532 91900=
07181,1999-05-10 20:00:00,15,1017.1,1.2,88,13,25000,11.112,,,220,,,,,,,,,,0,wg-a,,,,AAXX 10204 07181 32675 /2206 10150 20130 39762 40171 53012 700// 83532 92000=
07181,1999-05-10 21:00:00,15,1017.2,1.3,82,12,20000,14.816,,,250,,,,,,,,,,0,wg-a,,,,AAXX 10214 07181 32670 72508 10150 20120 39762 40172 51013 700// 83832 92100=
07181,1999-05-10 22:00:00,14,1017.6,1,72,9,20000,18.52,,48.152,220,,,0,,,,,,,25,wg-a,,,,AAXX 10224 07181 12670 72210 10140 20090 39764 40176 51010 60005 72586 84832 92200 333 91026=
07181,1999-05-10 23:00:00,13,1017.4,-0.1,82,10,20000,11.112,,,230,,,,,,,,,,0,wg-a,,,,AAXX 10234 07181 32670 72306 10130 20100 39761 40174 58001 700// 81332 92300=
07181,1999-05-11 00:00:00,12,1017.6,0,88,10,20000,14.816,,,220,,,,0,,,,,,2,wg-a,,,,AAXX 11004 07181 12670 72208 10120 20100 39762 40176 50000 60007 70286 81332 90000=
07181,1999-05-11 01:00:00,12,1017.3,-0.4,94,11,11000,14.816,,,220,,,,,,,,,,,wg-a,,,,AAXX 11014 07181 32/61 /2208 10120 20110 39760 40173 56004 90100=
07181,1999-05-11 02:00:00,12,1017.3,-0.2,88,10,20000,14.816,,,220,,,,,,,,,,0,wg-a,,,,AAXX 11024 07181 32770 72208 10120 20100 39759 40173 58002 700// 81232 90200=
07181,1999-05-11 03:00:00,13,1017.4,-0.1,82,10,20000,18.52,,,240,,,,,,,,,,0,wg-a,,,,AAXX 11034 07181 32770 72410 10130 20100 39761 40174 55001 700// 81232 90300=
07181,1999-05-11 04:00:00,12,1017.1,-0.2,94,11,20000,11.112,,,220,,,,,,,,,,0,wg-a,,,,AAXX 11044 07181 32770 72206 10120 20110 39758 40171 58002 700// 81232 90400=
07181,1999-05-11 05:00:00,12,1017,-0.2,94,11,20000,14.816,,,230,,,,,,,,,,0,wg-a,,,,AAXX 11054 07181 32770 72308 10120 20110 39757 40170 58002 700// 8653/ 90500=
07181,1999-05-11 06:00:00,13,1016.9,-0.5,88,11,20000,11.112,,,210,12,16.5,,,,,4,,,0,wg-a,,,,AAXX 11064 07181 12770 72106 10130 20110 39756 40169 56005 60044 700// 875// 90600 333 10165 20120=
07181,1999-05-11 07:00:00,13,1017,-0,88,11,15000,11.112,,,210,,,,,,,,,,60,wg-a,,,,AAXX 11074 07181 02465 72106 10130 20110 39758 40170 55000 61000 76062 8683/ 90700 333 ////=
07181,1999-05-11 08:00:00,13,1017,0.1,94,12,10000,14.816,,,220,,,0,,,,,,,60,wg-a,,,,AAXX 11084 07181 12460 72208 10130 20120 39758 40170 53001 60005 76066 8587/ 90800=
07181,1999-05-11 09:00:00,13,1016.8,0,94,12,10000,11.112,,,240,,,,1,,,,,,60,wg-a,,,,AAXX 11094 07181 12360 72406 10130 20120 39756 40168 50000 60017 76062 875// 90900=
07181,1999-05-11 10:00:00,13,1016.3,-0.7,94,12,8000,7.408,,,230,,,1,,,,,,,60,wg-a,,,,AAXX 11104 07181 12358 72304 10130 20120 39751 40163 58007 60015 76066 8587/ 91000=
07181,1999-05-11 11:00:00,13,1015.7,-1.2,100,13,7000,7.408,,,200,,,1,,,,,,,60,wg-a,,,,AAXX 11114 07181 12357 82004 10130 20130 39746 40157 58012 60015 76066 878// 91100=
07181,1999-05-11 12:00:00,13,1015.2,-1.5,100,13,8000,18.52,,,240,,,,4,,,,,,60,wg-a,,,,AAXX 11124 07181 12458 82410 10130 20130 39741 40152 57015 60047 76062 878// 91200=
07181,1999-05-11 13:00:00,14,1014.8,-1.3,94,13,15000,11.112,,,250,,,0,,,,,,,60,wg-a,,,,AAXX 11134 07181 12465 82506 10140 20130 39738 40148 56013 60005 76066 878// 91300=
07181,1999-05-11 15:00:00,13,1014.9,-0.3,100,13,6000,18.52,,,260,,,,2,,,,,,60,wg-a,,,,AAXX 11154 07181 12256 82610 10130 20130 39738 40149 55003 60027 76066 877// 91500=
07181,1999-05-11 16:00:00,14,1014.5,-0.3,94,13,12000,14.816,,,230,,,1,,,,,,,60,wg-a,,,,AAXX 11164 07181 12262 82308 10140 20130 39735 40145 58003 60015 76066 877// 91600=
07181,1999-05-11 17:00:00,13,1014.1,-0.6,100,13,12000,11.112,,,230,,,0,,,,,,,60,wg-a,,,,AAXX 11174 07181 12262 82306 10130 20130 39731 40141 58006 60005 76066 877// 91700=
07181,1999-05-11 18:00:00,13,1014.3,-0.6,100,13,12000,14.816,,,250,12.6,13.8,,1,,,,,,60,wg-a,,,,AAXX 11184 07181 12162 82508 10130 20130 39732 40143 55006 60017 76066 877// 91800 333 10138 20126=
07181,1999-05-11 19:00:00,13,1014,-0.7,94,12,15000,14.816,,,210,,,1,,,,,,,60,wg-a,,,,AAXX 11194 07181 12365 82108 10130 20120 39728 40140 57007 60015 76066 8557/ 91900=
07181,1999-05-11 20:00:00,13,1014.2,-0,94,12,17000,11.112,,,200,,,,,,,,,,21,wg-a,,,,AAXX 11204 07181 02367 82006 10130 20120 39731 40142 55000 61000 72162 8557/ 92000 333 ////=
07181,1999-05-11 21:00:00,12,1014.3,-0.1,100,12,8000,11.112,,,220,,,,1,,,,,,60,wg-a,,,,AAXX 11214 07181 12258 82206 10120 20120 39731 40143 56001 60017 76062 875// 92100=
07181,1999-05-11 22:00:00,12,1013.9,-0.1,100,12,10000,0,,,0,,,0,,,,,,,60,wg-a,,,,AAXX 11224 07181 12260 80000 10120 20120 39727 40139 58001 60005 76066 875// 92200=
07181,1999-05-11 23:00:00,12,1013.7,-0.6,100,12,10000,11.112,,,220,,,0,,,,,,,60,wg-a,,,,AAXX 11234 07181 12260 82206 10120 20120 39725 40137 58006 60005 76066 875// 92300=
07181,1999-05-12 00:00:00,12,1013.8,-0.5,100,12,10000,11.112,,,220,,,,1,,,,,,60,wg-a,,,,AAXX 12004 07181 12260 82206 10120 20120 39726 40138 55005 60017 76062 8657/ 90000=
07181,1999-05-12 01:00:00,12,1013.4,-0.5,100,12,10000,11.112,,,200,,,1,,,,,,,60,wg-a,,,,AAXX 12014 07181 12260 82006 10120 20120 39722 40134 58005 60015 76066 8657/ 90100=
07181,1999-05-12 02:00:00,12,1013,-0.6,100,12,8000,11.112,,,200,,,1,,,,,,,60,wg-a,,,,AAXX 12024 07181 12258 82006 10120 20120 39719 40130 58006 60015 76066 8757/ 90200=
07181,1999-05-12 03:00:00,12,1012.8,-0.9,100,12,8000,7.408,,,180,,,,2,,,,,,60,wg-a,,,,AAXX 12034 07181 12258 81804 10120 20120 39717 40128 56009 60027 76066 875// 90300=
07181,1999-05-12 04:00:00,12,1012.7,-0.6,100,12,4000,7.408,,,190,,,1,,,,,,,60,wg-a,,,,AAXX 12044 07181 12240 81904 10120 20120 39716 40127 56006 60015 76066 877// 90400=
07181,1999-05-12 05:00:00,13,1013.2,0.2,100,13,1200,7.408,,,240,,,1,,,,,,,51,wg-a,,,,AAXX 12054 07181 12212 82404 10130 20130 39721 40132 53002 60015 75166 877// 90500=
07181,1999-05-12 06:00:00,13,1013.7,0.9,100,13,2500,11.112,,,260,12.1,13.1,,3,,,15,,,10,wg-a,,,,AAXX 12064 07181 02225 82606 10130 20130 39726 40137 53009 60154 71066 877// 90600 333 10131 20121 60037=
07181,1999-05-12 07:00:00,13,1013.7,1.1,100,13,15000,11.112,,,260,,,0,,,,,,,21,wg-a,,,,AAXX 12074 07181 12065 82606 10130 20130 39727 40137 51011 60005 72165 877// 90700=
07181,1999-05-12 08:00:00,14,1014.1,1,94,13,8000,14.816,,,280,,,,,,,,,,60,wg-a,,,,AAXX 12084 07181 02258 82808 10140 20130 39731 40141 51010 61000 76062 878// 90800 333 ////=
07181,1999-05-12 09:00:00,14,1013.9,0.4,94,13,15000,11.112,,,240,,,,0,,,,,,21,wg-a,,,,AAXX 12094 07181 12365 82406 10140 20130 39730 40139 50004 60007 72165 878// 90900=
07181,1999-05-12 10:00:00,16,1013.6,0.2,82,13,15000,14.816,,,220,,,,,,,,,,0,wg-a,,,,AAXX 12104 07181 32265 82208 10160 20130 39729 40136 50002 700// 872// 91000=
07181,1999-05-12 11:00:00,16,1013.7,-0,82,13,15000,22.224,,,260,,,,,,,,,,0,wg-a,,,,AAXX 12114 07181 32465 82612 10160 20130 39731 40137 55000 700// 878// 91100=
07181,1999-05-12 12:00:00,17,1013.1,-0.4,72,12,20000,18.52,,,270,,,,,,,,,,1,wg-a,,,,AAXX 12124 07181 32470 72710 10170 20120 39726 40131 58004 70165 878// 91200=
07181,1999-05-12 13:00:00,17,1012.9,-0.6,72,12,20000,18.52,,,250,,,,,,,,,,0,wg-a,,,,AAXX 12134 07181 32470 82510 10170 20120 39723 40129 58006 700// 87801 91300=
07181,1999-05-12 14:00:00,17,1012.8,-0.8,72,12,25000,22.224,,,280,,,,,,,,,,0,wg-a,,,,AAXX 12144 07181 32475 82812 10170 20120 39723 40128 56008 700// 872// 91400=
07181,1999-05-12 15:00:00,17,1012.6,-0.5,72,12,25000,18.52,,,270,,,,,,,,,,0,wg-a,,,,AAXX 12154 07181 32575 82710 10170 20120 39721 40126 56005 700// 86802 91500=
07181,1999-05-12 16:00:00,16,1012.7,-0.3,72,11,25000,14.816,,,260,,,,,,,,,,0,wg-a,,,,AAXX 12164 07181 32575 82608 10160 20110 39720 40127 58003 700// 8483/ 91600=
07181,1999-05-12 17:00:00,15,1013.1,-0,77,11,25000,18.52,,,280,,,,,,,,,,60,wg-a,,,,AAXX 12174 07181 02575 82810 10150 20110 39723 40131 55000 61000 76062 8387/ 91700 333 ////=
07181,1999-05-12 18:00:00,13,1013.8,0.6,88,11,9000,22.224,,,270,12.7,17.4,,1,,,,,,61,wg-a,,,,AAXX 12184 07181 12459 82712 10130 20110 39727 40138 53006 60017 76162 8387/ 91800 333 10174 20127=
07181,1999-05-12 19:00:00,12,1014.2,0.9,88,10,15000,18.52,,,270,,,1,,,,,,,61,wg-a,,,,AAXX 12194 07181 12265 82710 10120 20100 39729 40142 51009 60015 76166 8387/ 91900=
07181,1999-05-12 20:00:00,11,1014.2,0.4,94,10,15000,11.112,,,250,,,1,,,,,,,61,wg-a,,,,AAXX 12204 07181 12265 82506 10110 20100 39727 40142 50004 60015 76166 8387/ 92000=
07181,1999-05-12 21:00:00,10,1014,-0.2,100,10,15000,14.816,,,240,,,,1,,,,,,21,wg-a,,,,AAXX 12214 07181 12465 72408 10100 20100 39725 40140 58002 60017 72162 8487/ 92100=
07181,1999-05-12 23:00:00,9,1015.3,0.8,100,9,15000,18.52,,,260,,,,,,,,,,0,wg-a,,,,AAXX 12234 07181 32765 82610 10090 20090 39735 40153 53008 700// 8457/ 92300=
07181,1999-05-13 00:00:00,8,1015.6,1.2,100,8,15000,18.52,,,250,,,,,,,,,,2,wg-a,,,,AAXX 13004 07181 32765 82510 10080 20080 39737 40156 51012 70262 8457/ 90000=
07181,1999-05-13 04:00:00,7,1016.1,0.3,100,7,15000,7.408,,,200,,,,,,,,,,0,wg-a,,,,AAXX 13044 07181 32765 82004 10070 20070 39740 40161 51003 700// 8557/ 90400=
07181,1999-05-13 05:00:00,8,1016.2,0.3,100,8,7000,14.816,,,220,,,,,,,,,,0,wg-a,,,,AAXX 13054 07181 32257 72208 10080 20080 39742 40162 53003 700// 875// 90500=
07181,1999-05-13 06:00:00,9,1016.1,0.3,100,9,6000,11.112,,,220,6.8,12.6,,,,,3,,,1,wg-a,,,,AAXX 13064 07181 12256 72206 10090 20090 39743 40161 53003 60034 70162 84701 90600 333 10126 20068=
07181,1999-05-13 07:00:00,10,1016,0.4,100,10,8000,14.816,,,230,,,,,,,,,,0,wg-a,,,,AAXX 13074 07181 32258 72308 10100 20100 39744 40160 51004 700// 877// 90700=
07181,1999-05-13 08:00:00,11,1016.2,0.5,94,10,12000,14.816,,,260,,,,,,,,,,0,wg-a,,,,AAXX 13084 07181 32262 72608 10110 20100 39747 40162 53005 700// 877// 90800=
07181,1999-05-13 09:00:00,12,1016,0.3,88,10,20000,22.224,,,250,,,,,,,,,,0,wg-a,,,,AAXX 13094 07181 32370 72512 10120 20100 39746 40160 50003 700// 877// 90900=
07181,1999-05-13 10:00:00,12,1015.8,0.1,88,10,20000,18.52,,,240,,,,,,,,,,0,wg-a,,,,AAXX 13104 07181 32470 72410 10120 20100 39745 40158 50001 700// 878// 91000=
07181,1999-05-13 11:00:00,13,1015.5,-0.4,82,10,20000,11.112,,,260,,,,,,,,,,0,wg-a,,,,AAXX 13114 07181 32470 72606 10130 20100 39743 40155 58004 700// 878// 91100=
07181,1999-05-13 12:00:00,13,1015.3,-0.5,82,10,20000,14.816,,,260,,,,,,,,,,0,wg-a,,,,AAXX 13124 07181 32470 72608 10130 20100 39741 40153 58005 700// 878// 91200=
07181,1999-05-13 13:00:00,14,1014.7,-0.8,77,10,20000,11.112,,,250,,,,,,,,,,0,wg-a,,,,AAXX 13134 07181 32470 72506 10140 20100 39737 40147 58008 700// 86802 91300=
07181,1999-05-13 14:00:00,15,1014.3,-0.9,72,10,20000,11.112,,,240,,,,,,,,,,0,wg-a,,,,AAXX 13144 07181 32570 72406 10150 20100 39734 40143 58009 700// 878// 91400=
07181,1999-05-13 15:00:00,16,1013.5,-1.3,77,12,20000,14.816,,,250,,,,,,,,,,0,wg-a,,,,AAXX 13154 07181 32570 72508 10160 20120 39728 40135 58013 700// 86802 91500=
07181,1999-05-13 16:00:00,16,1012.9,-1.5,68,10,20000,18.52,,,260,,,,,,,,,,0,wg-a,,,,AAXX 13164 07181 32570 72610 10160 20100 39722 40129 58015 700// 86802 91600=
07181,1999-05-13 17:00:00,15,1012.6,-1.6,72,10,20000,11.112,,,250,,,,,,,,,,0,wg-a,,,,AAXX 13174 07181 32570 72506 10150 20100 39718 40126 56016 700// 86802 91700=
07181,1999-05-13 18:00:00,14,1012.1,-1.5,82,11,20000,3.704,,,250,9.3,15.7,,,,,,,,0,wg-a,,,,AAXX 13184 07181 32670 72502 10140 20110 39713 40121 56015 700// 86802 91800 333 10157 20093=
07181,1999-05-13 19:00:00,14,1012.3,-0.9,82,11,20000,7.408,,,160,,,,,,,,,,0,wg-a,,,,AAXX 13194 07181 32670 71604 10140 20110 39713 40123 56009 700// 86802 91900=
07181,1999-05-13 20:00:00,13,1012.2,-0.7,94,12,15000,7.408,,,150,,,0,,,,,,,60,wg-a,,,,AAXX 13204 07181 12765 71504 10130 20120 39711 40122 56007 60005 76062 86502 92000=
07181,1999-05-13 21:00:00,12,1012.2,-0.3,100,12,12000,7.408,,,160,,,,1,,,,,,61,wg-a,,,,AAXX 13214 07181 12762 71604 10120 20120 39710 40122 58003 60017 76162 86502 92100=
07181,1999-05-13 22:00:00,12,1012.2,-0.3,94,11,12000,3.704,,,180,,,1,,,,,,,61,wg-a,,,,AAXX 13224 07181 12662 71802 10120 20110 39710 40122 56003 60015 76166 875// 92200=
07181,1999-05-13 23:00:00,12,1012.1,-0.2,94,11,12000,7.408,,,180,,,2,,,,,,,61,wg-a,,,,AAXX 13234 07181 12662 71804 10120 20110 39709 40121 57002 60025 76166 875// 92300=
07181,1999-05-14 02:00:00,11,1011.8,-0.3,100,11,12000,3.704,,,210,,,,,,,,,,0,wg-a,,,,AAXX 14024 07181 32662 72102 10110 20110 39706 40118 56003 700// 875// 90200=
07181,1999-05-14 03:00:00,11,1011.9,-0,100,11,12000,11.112,,,240,,,,,,,,,,0,wg-a,,,,AAXX 14034 07181 32662 72406 10110 20110 39706 40119 54000 700// 875// 90300=
07181,1999-05-14 04:00:00,11,1012.1,0.2,100,11,8000,11.112,,,250,,,,,,,,,,0,wg-a,,,,AAXX 14044 07181 32358 72506 10110 20110 39708 40121 53002 700// 85502 90400=
07181,1999-05-14 05:00:00,11,1012,0.1,100,11,10000,7.408,,,260,,,,,,,,,,0,wg-a,,,,AAXX 14054 07181 32360 72604 10110 20110 39707 40120 50001 700// 8687/ 90500=
07181,1999-05-14 06:00:00,11,1011.8,-0.1,100,11,10000,11.112,,,240,10.8,14.4,,,,,4,,,0,wg-a,,,,AAXX 14064 07181 12360 72406 10110 20110 39705 40118 58001 60044 700// 8687/ 90600 333 10144 20108=
07181,1999-05-14 07:00:00,12,1011.8,-0.2,94,11,12000,11.112,,,250,,,,,,,,,,0,wg-a,,,,AAXX 14074 07181 32362 72506 10120 20110 39706 40118 55002 700// 8687/ 90700=
07181,1999-05-14 12:00:00,16,1011.1,-0.4,68,10,12000,14.816,,,260,,,,,,,,,,0,wg-a,,,,AAXX 14124 07181 32562 72608 10160 20100 39705 40111 58004 700// 84232 91200=
07181,1999-05-14 13:00:00,17,1011,-0.6,55,8,15000,14.816,,,280,,,,,,,,,,0,wg-a,,,,AAXX 14134 07181 32565 /2808 10170 20080 39705 40110 56006 700// 83202 91300=
07181,1999-05-14 14:00:00,15,1011.6,0.2,77,11,15000,25.928,,,330,,,,,,,,,,0,wg-a,,,,AAXX 14144 07181 32665 73314 10150 20110 39709 40116 53002 700// 83232 91400=
07181,1999-05-14 15:00:00,15,1011.8,0.5,72,10,15000,22.224,,,310,,,,,,,,,,0,wg-a,,,,AAXX 14154 07181 32665 73112 10150 20100 39710 40118 53005 700// 85802 91500=
07181,1999-05-14 16:00:00,15,1011.9,0.6,72,10,15000,18.52,,,330,,,,,,,,,,0,wg-a,,,,AAXX 14164 07181 32665 73310 10150 20100 39711 40119 51006 700// 878// 91600=
07181,1999-05-14 17:00:00,15,1012.1,0.4,67,9,15000,11.112,,,320,,,,,,,,,,0,wg-a,,,,AAXX 14174 07181 32665 73206 10150 20090 39713 40121 53004 700// 878// 91700=
07181,1999-05-14 18:00:00,14,1012.5,0.6,72,9,15000,11.112,,,300,11.1,17.8,,,,,,,,0,wg-a,,,,AAXX 14184 07181 32665 73006 10140 20090 39716 40125 53006 700// 878// 91800 333 10178 20111=
07181,1999-05-14 19:00:00,13,1012.7,0.6,77,9,15000,7.408,,,270,,,,,,,,,,0,wg-a,,,,AAXX 14194 07181 32665 72704 10130 20090 39717 40127 51006 700// 878// 91900=
07181,1999-05-14 20:00:00,12,1013.2,0.7,82,9,15000,11.112,,,260,,,,,,,,,,0,wg-a,,,,AAXX 14204 07181 32665 /2606 10120 20090 39720 40132 52007 700// 86800 92000=
07181,1999-05-14 21:00:00,12,1013.5,0.6,82,9,15000,11.112,,,290,,,,,,,,,,0,wg-a,,,,AAXX 14214 07181 32665 /2906 10120 20090 39722 40135 53006 700// 86800 92100=
07181,1999-05-14 22:00:00,11,1013.8,0.7,87,9,15000,3.704,,,200,,,,,,,,,,0,wg-a,,,,AAXX 14224 07181 32765 62002 10110 20090 39724 40138 51007 700// 86500 92200=
07181,1999-05-14 23:00:00,11,1013.9,0.4,82,8,15000,7.408,,,220,,,,,,,,,,0,wg-a,,,,AAXX 14234 07181 32765 32204 10110 20080 39724 40139 51004 700// 83500 92300=
07181,1999-05-15 00:00:00,10,1014.1,0.3,87,8,15000,7.408,,,240,,,,,,,,,,0,wg-a,,,,AAXX 15004 07181 32765 32404 10100 20080 39725 40141 51003 700// 83500 90000=
07181,1999-05-15 01:00:00,8,1014.1,-0.2,93,7,15000,3.704,,,260,,,,,,,,,,0,wg-a,,,,AAXX 15014 07181 32765 32602 10080 20070 39722 40141 58002 700// 83500 90100=
07181,1999-05-15 02:00:00,7,1014,-0.4,100,7,15000,3.704,,,210,,,,,,,,,,0,wg-a,,,,AAXX 15024 07181 32765 12102 10070 20070 39720 40140 58004 700// 81500 90200=
07181,1999-05-15 03:00:00,6,1014.6,-0.1,100,6,9000,3.704,,,260,,,,,,,,,,0,wg-a,,,,AAXX 15034 07181 32759 32602 10060 20060 39724 40146 55001 700// 82501 90300=
07181,1999-05-15 04:00:00,6,1014.5,0.1,100,6,9000,3.704,,,250,,,,,,,,,,0,wg-a,,,,AAXX 15044 07181 32759 42502 10060 20060 39723 40145 53001 700// 83501 90400=
07181,1999-05-15 05:00:00,7,1014.6,0.5,100,7,9000,3.704,,,320,,,0,,,,,,,0,wg-a,,,,AAXX 15054 07181 12/59 43202 10070 20070 39725 40146 51005 60005 700// 82031 90500=
07181,1999-05-15 06:00:00,9,1014.4,0.3,100,9,11000,7.408,,,330,6,14.1,,0,,,,,,0,wg-a,,,,AAXX 15064 07181 02/61 43304 10090 20090 39727 40144 53003 60004 700// 82031 90600 333 10141 20060 60007=
07181,1999-05-15 07:00:00,11,1014.6,0.8,87,9,15000,7.408,,,310,,,,,,,,,,0,wg-a,,,,AAXX 15074 07181 32/65 23104 10110 20090 39731 40146 53008 700// 81031 90700=
07181,1999-05-15 08:00:00,13,1014.4,0.8,77,9,20000,11.112,,,350,,,,,,,,,,0,wg-a,,,,AAXX 15084 07181 32570 23506 10130 20090 39733 40144 52008 700// 81101 90800=
07181,1999-05-15 09:00:00,14,1014.4,0.7,55,5,20000,14.816,,,10,,,,,,,,,,0,wg-a,,,,AAXX 15094 07181 32670 20108 10140 20050 39734 40144 51007 700// 82100 90900=
07181,1999-05-15 10:00:00,15,1014,0.1,63,8,20000,14.816,,,340,,,,,,,,,,0,wg-a,,,,AAXX 15104 07181 32670 33408 10150 20080 39732 40140 50001 700// 83100 91000=
07181,1999-05-15 11:00:00,17,1013.9,-0.1,48,6,25000,3.704,,,80,,,,,,,,,,0,wg-a,,,,AAXX 15114 07181 32675 40802 10170 20060 39732 40139 58001 700// 84200 91100=
07181,1999-05-15 12:00:00,17,1013.8,-0.2,48,6,25000,11.112,,,360,,,,,,,,,,0,wg-a,,,,AAXX 15124 07181 32675 43606 10170 20060 39732 40138 56002 700// 84200 91200=
07181,1999-05-15 13:00:00,17,1014,0.1,55,8,25000,14.816,,,30,,,,,,,,,,0,wg-a,,,,AAXX 15134 07181 32675 50308 10170 20080 39733 40140 53001 700// 85800 91300=
07181,1999-05-15 14:00:00,16,1014,0.1,55,7,25000,18.52,,,360,,,,,,,,,,0,wg-a,,,,AAXX 15144 07181 32675 /3610 10160 20070 39733 40140 52001 700// 86800 91400=
07181,1999-05-15 15:00:00,16,1013.9,0,55,7,25000,14.816,,,360,,,,,,,,,,0,wg-a,,,,AAXX 15154 07181 32675 73608 10160 20070 39732 40139 50000 700// 878// 91500=
07181,1999-05-15 16:00:00,16,1013.9,-0.1,55,7,25000,14.816,,,10,,,,,,,,,,0,wg-a,,,,AAXX 15164 07181 32675 70108 10160 20070 39732 40139 57001 700// 878// 91600=
07181,1999-05-15 17:00:00,15,1014.3,0.2,59,7,25000,18.52,,,10,,,,,,,,,,0,wg-a,,,,AAXX 15174 07181 32675 /0110 10150 20070 39735 40143 53002 700// 86800 91700=
07181,1999-05-15 18:00:00,14,1014.6,0.4,67,8,25000,11.112,,,20,9,17.5,,,,,,,,0,wg-a,,,,AAXX 15184 07181 32675 /0206 10140 20080 39736 40146 53004 700// 86800 91800 333 10175 20090=
07181,1999-05-15 19:00:00,13,1015,0.7,72,8,25000,14.816,,,30,,,,,,,,,,0,wg-a,,,,AAXX 15194 07181 32675 /0308 10130 20080 39739 40150 52007 700// 85800 91900=
07181,1999-05-15 20:00:00,12,1015.9,1,71,7,25000,11.112,,,40,,,,,,,,,,0,wg-a,,,,AAXX 15204 07181 32775 40406 10120 20070 39745 40159 53010 700// 84500 92000=
07181,1999-05-15 21:00:00,11,1016.6,1.4,76,7,25000,11.112,,,40,,,,,,,,,,0,wg-a,,,,AAXX 15214 07181 32775 20406 10110 20070 39750 40166 53014 700// 82500 92100=
07181,1999-05-15 22:00:00,10,1017.3,1.6,71,5,25000,14.816,,,30,,,,,,,,,,0,wg-a,,,,AAXX 15224 07181 32775 10308 10100 20050 39755 40173 51016 700// 81500 92200=
07181,1999-05-15 23:00:00,9,1017.7,1.3,71,4,25000,11.112,,,50,,,,,,,,,,0,wg-a,,,,AAXX 15234 07181 32775 30506 10090 20040 39758 40177 51013 700// 81501 92300=
07181,1999-05-16 00:00:00,8,1018,1,71,3,25000,14.816,,,40,,,,,,,,,,0,wg-a,,,,AAXX 16004 07181 32775 30408 10080 20030 39760 40180 51010 700// 81501 90000=
07181,1999-05-16 01:00:00,8,1018,0.4,66,2,25000,14.816,,,50,,,,,,,,,,0,wg-a,,,,AAXX 16014 07181 32775 30508 10080 20020 39759 40180 50004 700// 81501 90100=
07181,1999-05-16 02:00:00,6,1018.6,0.3,81,3,20000,7.408,,,360,,,,,,,,,,0,wg-a,,,,AAXX 16024 07181 32770 23604 10060 20030 39761 40186 52003 700// 81501 90200=
07181,1999-05-16 03:00:00,4,1019,0.2,87,2,15000,3.704,,,340,,,,,,,,,,0,wg-a,,,,AAXX 16034 07181 32/65 23402 10040 20020 39762 40190 53002 700// 80001 90300=
07181,1999-05-16 04:00:00,3,1018.9,0.1,93,2,13000,3.704,,,310,,,,,,,,,,0,wg-a,,,,AAXX 16044 07181 32/63 23102 10030 20020 39760 40189 50001 700// 80001 90400=
07181,1999-05-16 05:00:00,4,1019.1,0.2,93,3,13000,3.704,,,360,,,,,,,,,,0,wg-a,,,,AAXX 16054 07181 32/63 13602 10040 20030 39763 40191 53002 700// 80001 90500=
07181,1999-05-16 06:00:00,6,1019,0.4,81,3,15000,7.408,,,20,2.6,14.2,,,,,,,,0,wg-a,,,,AAXX 16064 07181 12/65 10204 10060 20030 39766 40190 53004 60004 700// 80001 90600 333 10142 20026=
07181,1999-05-16 07:00:00,9,1018.5,0.6,66,3,15000,22.224,,,50,,,,,,,,,,0,wg-a,,,,AAXX 16074 07181 32/65 10512 10090 20030 39766 40185 51006 700// 80001 90700=
07181,1999-05-16 08:00:00,11,1018.3,0.3,62,4,15000,18.52,,,50,,,,,,,,,,0,wg-a,,,,AAXX 16084 07181 32565 /0510 10110 20040 39766 40183 51003 700// 81100 90800=
07181,1999-05-16 09:00:00,12,1018.1,-0,54,3,25000,14.816,,,60,,,,,,,,,,0,wg-a,,,,AAXX 16094 07181 32575 30608 10120 20030 39766 40181 54000 700// 83100 90900=
07181,1999-05-16 10:00:00,13,1018,-0,51,3,25000,14.816,,,50,,,,,,,,,,0,wg-a,,,,AAXX 16104 07181 32575 40508 10130 20030 39766 40180 54000 700// 84100 91000=
07181,1999-05-16 11:00:00,14,1017.7,-0.2,47,3,25000,14.816,,,80,,,,,,,,,,0,wg-a,,,,AAXX 16114 07181 32675 40808 10140 20030 39764 40177 58002 700// 84100 91100=
07181,1999-05-16 12:00:00,14,1017.2,-0.5,51,4,25000,22.224,,,80,,,,,,,,,,0,wg-a,,,,AAXX 16124 07181 32675 40812 10140 20040 39761 40172 58005 700// 84100 91200=
07181,1999-05-16 13:00:00,15,1016.7,-0.9,48,4,25000,11.112,,,60,,,,,,,,,,0,wg-a,,,,AAXX 16134 07181 32675 40606 10150 20040 39757 40167 58009 700// 84100 91300=
07181,1999-05-16 14:00:00,15,1016.2,-1.2,48,4,25000,14.816,,,40,,,,,,,,,,0,wg-a,,,,AAXX 16144 07181 32675 40408 10150 20040 39752 40162 58012 700// 84100 91400=
07181,1999-05-16 15:00:00,15,1016,-1.1,48,4,25000,18.52,,,60,,,,,,,,,,0,wg-a,,,,AAXX 16154 07181 32675 40610 10150 20040 39750 40160 56011 700// 84100 91500=
07181,1999-05-16 16:00:00,15,1015.5,-1.1,48,4,25000,18.52,,,50,,,,,,,,,,0,wg-a,,,,AAXX 16164 07181 32775 50510 10150 20040 39746 40155 56011 700// 85801 91600=
07181,1999-05-16 18:00:00,14,1014.9,-1.2,51,4,25000,14.816,,,60,6.4,15.7,,,,,,,,0,wg-a,,,,AAXX 16184 07181 32775 30608 10140 20040 39738 40149 56012 700// 83501 91800 333 10157 20064=
07181,1999-05-16 19:00:00,12,1015.3,-0.7,58,4,25000,11.112,,,50,,,,,,,,,,0,wg-a,,,,AAXX 16194 07181 32775 50506 10120 20040 39739 40153 55007 700// 85501 91900=
07181,1999-05-16 20:00:00,11,1015.5,0.1,62,4,25000,14.816,,,60,,,,,,,,,,0,wg-a,,,,AAXX 16204 07181 32775 40608 10110 20040 39740 40155 53001 700// 84501 92000=
07181,1999-05-16 21:00:00,10,1015.7,0.2,66,4,25000,14.816,,,60,,,,,,,,,,0,wg-a,,,,AAXX 16214 07181 32775 40608 10100 20040 39740 40157 51002 700// 84501 92100=
07181,1999-05-16 22:00:00,9,1015.7,0,71,4,25000,14.816,,,50,,,,,,,,,,0,wg-a,,,,AAXX 16224 07181 32775 40508 10090 20040 39739 40157 50000 700// 84501 92200=
07181,1999-05-16 23:00:00,8,1015.1,-0.8,71,3,25000,11.112,,,40,,,,,,,,,,0,wg-a,,,,AAXX 16234 07181 32775 30406 10080 20030 39732 40151 58008 700// 82501 92300=
07181,1999-05-17 00:00:00,8,1014.7,-1.2,71,3,25000,11.112,,,50,,,,,,,,,,0,wg-a,,,,AAXX 17004 07181 32775 30506 10080 20030 39728 40147 58012 700// 82501 90000=
07181,1999-05-17 01:00:00,7,1014.6,-1.4,76,3,25000,7.408,,,300,,,,,,,,,,0,wg-a,,,,AAXX 17014 07181 32775 33004 10070 20030 39725 40146 56014 700// 82501 90100=
07181,1999-05-17 02:00:00,7,1013.9,-1.4,81,4,25000,7.408,,,350,,,,,,,,,,0,wg-a,,,,AAXX 17024 07181 32775 33504 10070 20040 39718 40139 58014 700// 82501 90200=
07181,1999-05-17 03:00:00,7,1013.6,-1.2,81,4,25000,7.408,,,340,,,,,,,,,,0,wg-a,,,,AAXX 17034 07181 32775 33404 10070 20040 39716 40136 56012 700// 82501 90300=
07181,1999-05-17 04:00:00,5,1014,-0.9,87,3,20000,3.704,,,280,,,,,,,,,,0,wg-a,,,,AAXX 17044 07181 32770 32802 10050 20030 39716 40140 56009 700// 82501 90400=
07181,1999-05-17 05:00:00,7,1012.8,-0.9,81,4,10000,18.52,,,60,,,,,,,,,,,wg-a,,,,AAXX 17054 07181 32/60 /0610 10070 20040 39709 40128 58009 90500=
07181,1999-05-17 06:00:00,9,1013.1,-0.2,76,5,20000,22.224,,,60,4.8,13.8,,,,,,,,0,wg-a,,,,AAXX 17064 07181 12770 40612 10090 20050 39714 40131 55002 60004 700// 82581 90600 333 10138 20048=
07181,1999-05-17 07:00:00,10,1012.7,-0.4,71,5,20000,14.816,,,70,,,,,,,,,,0,wg-a,,,,AAXX 17074 07181 32770 50708 10100 20050 39712 40127 56004 700// 81581 90700=
07181,1999-05-17 08:00:00,12,1011.9,-0.2,67,6,10000,22.224,,,70,,,,,,,,,,,wg-a,,,,AAXX 17084 07181 32/60 /0712 10120 20060 39707 40119 58002 90800=
07181,1999-05-17 09:00:00,13,1011.4,-1,62,6,25000,22.224,,40.744,70,,,,,,,,,,0,wg-a,,,,AAXX 17094 07181 32/75 40712 10130 20060 39704 40114 58010 700// 83031 90900 333 91022=
07181,1999-05-17 10:00:00,15,1011,-1,59,7,10000,22.224,,46.3,70,,,,,,,,,,,wg-a,,,,AAXX 17104 07181 32/60 /0712 10150 20070 39702 40110 56010 91000 333 91025=
07181,1999-05-17 11:00:00,15,1010.8,-0.7,55,6,10000,22.224,,,80,,,,,,,,,,,wg-a,,,,AAXX 17114 07181 32/60 /0812 10150 20060 39700 40108 56007 91100=
07181,1999-05-17 12:00:00,15,1011.2,-0,55,6,25000,29.632,,44.448,70,,,,,,,,,,0,wg-a,,,,AAXX 17124 07181 32875 70716 10150 20060 39704 40112 55000 700// 86081 91200 333 91024=
07181,1999-05-17 13:00:00,15,1010.8,-0.2,63,8,25000,18.52,,,90,,,,,,,,,,0,wg-a,,,,AAXX 17134 07181 32775 70910 10150 20080 39700 40108 58002 700// 8258/ 91300=
07181,1999-05-17 14:00:00,15,1010,-0.8,63,8,25000,25.928,,42.596,90,,,,,,,,,,0,wg-a,,,,AAXX 17144 07181 32775 70914 10150 20080 39692 40100 58008 700// 8358/ 91400 333 91023=
07181,1999-05-17 15:00:00,15,1009.9,-1.2,63,8,20000,18.52,,,90,,,,,,,,,,0,wg-a,,,,AAXX 17154 07181 32670 70910 10150 20080 39692 40099 56012 700// 8458/ 91500=
07181,1999-05-17 16:00:00,14,1010,-0.8,72,9,11000,14.816,,,100,,,,,,,,,,,wg-a,,,,AAXX 17164 07181 32/61 /1008 10140 20090 39692 40100 56008 91600=
07181,1999-05-17 17:00:00,13,1009.8,-0.4,82,10,9000,18.52,,,100,,,0,,,,,,,60,wg-a,,,,AAXX 17174 07181 12659 81010 10130 20100 39688 40098 58004 60005 76066 8457/ 91700=
07181,1999-05-17 18:00:00,12,1009.2,-1,88,10,9000,22.224,,,90,8.8,15.5,,2,,,,,,61,wg-a,,,,AAXX 17184 07181 12359 /0912 10120 20100 39682 40092 58010 60027 76162 8387/ 91800 333 10155 20088=
07181,1999-05-17 19:00:00,12,1008.9,-1.3,88,10,11000,22.224,,44.448,80,,,0,,,,,,,21,wg-a,,,,AAXX 17194 07181 12661 80812 10120 20100 39679 40089 56013 60005 72162 8457/ 91900 333 91024=
07181,1999-05-17 20:00:00,12,1009.3,-0.6,88,10,12000,25.928,,,80,,,,,,,,,,0,wg-a,,,,AAXX 17204 07181 32662 80814 10120 20100 39682 40093 55006 700// 8357/ 92000=
07181,1999-05-17 21:00:00,12,1009.5,0.2,88,10,12000,22.224,,38.892,50,,,,1,,,,,,1,wg-a,,,,AAXX 17214 07181 12762 /0512 10120 20100 39684 40095 53002 60017 70162 86500 92100 333 91021=
07181,1999-05-17 22:00:00,12,1009,0.1,82,9,12000,25.928,,,70,,,,,,,,,,0,wg-a,,,,AAXX 17224 07181 32762 60714 10120 20090 39680 40090 50001 700// 86500 92200=
07181,1999-05-17 23:00:00,13,1008.9,-0.3,72,8,12000,18.52,,,70,,,,,,,,,,0,wg-a,,,,AAXX 17234 07181 32762 60710 10130 20080 39679 40089 58003 700// 86500 92300=
07181,1999-05-18 00:00:00,13,1009.5,0.1,72,8,12000,18.52,,,70,,,,,,,,,,3,wg-a,,,,AAXX 18004 07181 32762 70710 10130 20080 39685 40095 53001 70362 875// 90000=
07181,1999-05-18 02:00:00,12,1010.5,1.4,76,8,12000,11.112,,,80,,,0,,,,,,,21,wg-a,,,,AAXX 18024 07181 12762 70806 10120 20080 39693 40105 51014 60005 72122 8453/ 90200=
07181,1999-05-18 04:00:00,11,1011.1,0.7,76,7,15000,7.408,,,120,,,,,,,,,,0,wg-a,,,,AAXX 18044 07181 32665 71204 10110 20070 39698 40111 53007 700// 84532 90400=
07181,1999-05-18 05:00:00,11,1011.5,0.9,82,8,15000,11.112,,,130,,,,,,,,,,0,wg-a,,,,AAXX 18054 07181 32665 71306 10110 20080 39702 40115 53009 700// 85532 90500=
07181,1999-05-18 06:00:00,11,1012.1,1.3,82,8,18000,11.112,,,120,11,12.7,,,,,3,,,2,wg-a,,,,AAXX 18064 07181 12668 81206 10110 20080 39708 40121 53013 60034 70262 85532 90600 333 10127 20110=
07181,1999-05-18 07:00:00,11,1012.3,1.2,82,8,18000,14.816,,,110,,,,,,,,,,0,wg-a,,,,AAXX 18074 07181 32668 81108 10110 20080 39710 40123 51012 700// 8553/ 90700=
07181,1999-05-18 09:00:00,12,1013.1,1.1,88,10,15000,7.408,,,160,,,,0,,,,,,3,wg-a,,,,AAXX 18094 07181 12665 81604 10120 20100 39719 40131 53011 60007 70362 8657/ 90900=
07181,1999-05-18 10:00:00,12,1013.5,1.3,94,11,8000,7.408,,,110,,,2,,,,,,,61,wg-a,,,,AAXX 18104 07181 12658 81104 10120 20110 39723 40135 53013 60025 76162 8687/ 91000=
07181,1999-05-18 11:00:00,13,1013.6,1.3,94,12,8000,3.704,,,80,,,0,,,,,,,60,wg-a,,,,AAXX 18114 07181 12458 80802 10130 20120 39725 40136 51013 60005 76066 878// 91100=
07181,1999-05-18 12:00:00,12,1014,0.9,100,12,500,14.816,,,90,,,,5,,,,,,61,wg-a,,,,AAXX 18124 07181 12400 80908 10120 20120 39728 40140 51009 60057 76162 878// 91200=
07181,1999-05-18 13:00:00,12,1014,0.4,94,11,6000,14.816,,,100,,,2,,,,,,,60,wg-a,,,,AAXX 18134 07181 12256 81008 10120 20110 39727 40140 50004 60025 76066 878// 91300=
07181,1999-05-18 14:00:00,12,1013.6,-0.2,94,11,7000,22.224,,,80,,,0,,,,,,,21,wg-a,,,,AAXX 18144 07181 12257 80812 10120 20110 39723 40136 58002 60005 72162 8687/ 91400=
07181,1999-05-18 16:00:00,15,1012.7,-0.8,82,12,14000,11.112,,35.188,90,,,,,,,,,,0,wg-a,,,,AAXX 18164 07181 32464 70906 10150 20120 39719 40127 56008 700// 83872 91600 333 91019=
07181,1999-05-18 17:00:00,15,1012.2,-0.9,82,12,18000,18.52,,,90,,,,,,,,,,0,wg-a,,,,AAXX 18174 07181 32568 70910 10150 20120 39714 40122 58009 700// 83802 91700=
07181,1999-05-18 18:00:00,14,1012,-0.9,82,11,18000,11.112,,,100,10.9,15,,,,,,,,1,wg-a,,,,AAXX 18184 07181 32/68 41006 10140 20110 39711 40120 58009 70161 80002 91800 333 10150 20109=
07181,1999-05-18 19:00:00,13,1012,-0.9,88,11,10000,18.52,,,100,,,,,,,,,,,wg-a,,,,AAXX 18194 07181 32/60 /1010 10130 20110 39710 40120 56009 91900=
07181,1999-05-18 20:00:00,12,1012.5,-0.1,88,10,15000,3.704,,,100,,,,,,,,,,0,wg-a,,,,AAXX 18204 07181 32765 41002 10120 20100 39713 40125 55001 700// 81462 92000=
07181,1999-05-18 21:00:00,12,1011.6,-0.6,94,11,15000,14.816,,,90,,,,,,,,,,0,wg-a,,,,AAXX 18214 07181 32765 50908 10120 20110 39705 40116 58006 700// 82462 92100=
07181,1999-05-18 22:00:00,12,1011.8,-0.4,88,10,10000,3.704,,,100,,,,,,,,,,,wg-a,,,,AAXX 18224 07181 32/60 /1002 10120 20100 39706 40118 58004 92200=
07181,1999-05-18 23:00:00,12,1012.3,-0.2,88,10,11000,7.408,,,140,,,,,,,,,,,wg-a,,,,AAXX 18234 07181 32/61 /1404 10120 20100 39711 40123 55002 92300=
07181,1999-05-19 00:00:00,11,1012.3,0.5,94,10,7000,14.816,,,130,,,,0,,,,,,80,wg-a,,,,AAXX 19004 07181 12557 /1308 10110 20100 39710 40123 50005 60007 78086 84902 90000=
07181,1999-05-19 01:00:00,12,1012.7,0.9,94,11,7000,11.112,,,190,,,,,,,,,,,wg-a,,,,AAXX 19014 07181 32/57 /1906 10120 20110 39715 40127 52009 90100=
07181,1999-05-19 03:00:00,11,1011.4,-0.9,94,10,11000,11.112,,,100,,,,1,,,,,,25,wg-a,,,,AAXX 19034 07181 12561 /1006 10110 20100 39701 40114 58009 60017 72586 83802 90300=
07181,1999-05-19 04:00:00,10,1012.8,-0.3,93,9,6000,11.112,,,250,,,,,,,,,,,wg-a,,,,AAXX 19044 07181 32/56 /2506 10100 20090 39712 40128 55003 90400=
07181,1999-05-19 05:00:00,10,1012.4,1.2,100,10,6000,7.408,,,190,,,,,,,,,,0,wg-a,,,,AAXX 19054 07181 32556 71904 10100 20100 39709 40124 50012 700// 8487/ 90500=
07181,1999-05-19 06:00:00,11,1011.5,0.1,100,11,500,7.408,,,320,9.1,14.2,,,,,9,,,3,wg-a,,,,AAXX 19064 07181 12000 73204 10110 20110 39702 40115 50001 60094 70386 8487/ 90600 333 10142 20091=
07181,1999-05-19 07:00:00,11,1012,-0.4,100,11,500,3.704,,,80,,,,,,,,,,0,wg-a,,,,AAXX 19074 07181 32100 70802 10110 20110 39708 40120 55004 700// 8487/ 90700=
07181,1999-05-19 08:00:00,12,1012,-0,100,12,4000,3.704,,,230,,,,,,,,,,60,wg-a,,,,AAXX 19084 07181 02140 72302 10120 20120 39709 40120 55000 61000 76062 8487/ 90800 333 ////=
07181,1999-05-19 09:00:00,14,1012.2,1.2,94,13,9000,11.112,,,130,,,,,,,,,,21,wg-a,,,,AAXX 19094 07181 02259 71306 10140 20130 39714 40122 51012 61000 72162 8587/ 90900 333 ////=
07181,1999-05-19 10:00:00,13,1012.6,0.8,94,12,9000,18.52,,,250,,,,,,,,,,60,wg-a,,,,AAXX 19104 07181 02459 72510 10130 20120 39716 40126 53008 61000 76062 8687/ 91000 333 ////=
07181,1999-05-19 11:00:00,13,1012.8,0.9,94,12,11000,18.52,,,260,,,0,,,,,,,60,wg-a,,,,AAXX 19114 07181 12461 72610 10130 20120 39718 40128 51009 60005 76066 8687/ 91100=
07181,1999-05-19 12:00:00,13,1012.7,0.2,88,11,11000,11.112,,,250,,,,0,,,,,,60,wg-a,,,,AAXX 19124 07181 12461 72506 10130 20110 39716 40127 50002 60007 76062 8687/ 91200=
07181,1999-05-19 13:00:00,12,1013.2,0.4,100,12,8000,7.408,,,140,,,1,,,,,,,21,wg-a,,,,AAXX 19134 07181 12458 71404 10120 20120 39720 40132 53004 60015 72162 8627/ 91300=
07181,1999-05-19 14:00:00,12,1013.9,0.8,94,11,9000,11.112,,,150,,,1,,,,,,,61,wg-a,,,,AAXX 19144 07181 12459 71506 10120 20110 39726 40139 53008 60015 76162 8627/ 91400=
07181,1999-05-19 15:00:00,11,1013.1,0.2,100,11,9000,14.816,,,130,,,,4,,,,,,61,wg-a,,,,AAXX 19154 07181 12259 71308 10110 20110 39718 40131 50002 60047 76162 8687/ 91500=
07181,1999-05-19 16:00:00,13,1012.3,-0.8,94,12,9000,14.816,,,140,,,,,,,,,,21,wg-a,,,,AAXX 19164 07181 02259 71408 10130 20120 39712 40123 58008 61000 72162 8687/ 91600 333 ////=
07181,1999-05-19 17:00:00,13,1012,-1.7,94,12,12000,7.408,,,150,,,,,,,,,,0,wg-a,,,,AAXX 19174 07181 32262 71504 10130 20120 39709 40120 56017 700// 8487/ 91700=
07181,1999-05-19 18:00:00,12,1012.1,-0.8,94,11,12000,7.408,,,150,10.9,14.4,,,,,,,,1,wg-a,,,,AAXX 19184 07181 02362 71504 10120 20110 39710 40121 55008 61000 70162 8487/ 91800 333 10144 20109 ////=
07181,1999-05-19 19:00:00,11,1012.5,-0,100,11,12000,11.112,,,170,,,,,,,,,,0,wg-a,,,,AAXX 19194 07181 32462 71706 10110 20110 39712 40125 55000 700// 8487/ 91900=
07181,1999-05-19 20:00:00,11,1012.8,0.5,94,10,12000,11.112,,,190,,,,,,,,,,0,wg-a,,,,AAXX 19204 07181 32462 /1906 10110 20100 39714 40128 53005 700// 85870 92000=
07181,1999-05-19 21:00:00,10,1013.1,0.6,100,10,10000,3.704,,,140,,,,,,,,,,0,wg-a,,,,AAXX 19214 07181 32460 /1402 10100 20100 39716 40131 52006 700// 85870 92100=
07181,1999-05-19 22:00:00,9,1013.4,0.5,100,9,10000,11.112,,,180,,,,,,,,,,0,wg-a,,,,AAXX 19224 07181 32460 /1806 10090 20090 39717 40134 51005 700// 85870 92200=
07181,1999-05-19 23:00:00,10,1012.8,-0.1,100,10,10000,14.816,,,220,,,,,,,,,,0,wg-a,,,,AAXX 19234 07181 32460 62208 10100 20100 39713 40128 58001 700// 84870 92300=
07181,1999-05-20 00:00:00,10,1012.9,-0.2,100,10,10000,11.112,,,190,,,,,,,,,,0,wg-a,,,,AAXX 20004 07181 32760 41906 10100 20100 39714 40129 57002 700// 84500 90000=
07181,1999-05-20 01:00:00,10,1012.9,-0.3,93,9,10000,14.816,,,180,,,0,,,,,,,0,wg-a,,,,AAXX 20014 07181 12760 41808 10100 20090 39714 40129 56003 60005 700// 84500 90100=
07181,1999-05-20 02:00:00,10,1012.6,-0.2,93,9,10000,11.112,,,210,,,,,,,,,,0,wg-a,,,,AAXX 20024 07181 32760 42106 10100 20090 39711 40126 58002 700// 84500 90200=
07181,1999-05-20 03:00:00,10,1012.5,-0.4,93,9,10000,7.408,,,190,,,,0,,,,,,0,wg-a,,,,AAXX 20034 07181 12760 41904 10100 20090 39710 40125 58004 60007 700// 84500 90300=
07181,1999-05-20 04:00:00,9,1012.7,-0.3,100,9,11000,11.112,,,160,,,,,,,,,,0,wg-a,,,,AAXX 20044 07181 32761 71606 10090 20090 39711 40127 55003 700// 875// 90400=
07181,1999-05-20 05:00:00,10,1012.5,-0.1,100,10,12000,14.816,,,190,,,,,,,,,,0,wg-a,,,,AAXX 20054 07181 32262 71908 10100 20100 39710 40125 57001 700// 875// 90500=
07181,1999-05-20 06:00:00,11,1012.2,-0.1,94,10,12000,14.816,,,200,9.1,12.3,,,,,4,,,3,wg-a,,,,AAXX 20064 07181 12262 72008 10110 20100 39709 40122 58001 60044 70361 8453/ 90600 333 10123 20091=
07181,1999-05-20 07:00:00,12,1012.4,-0,88,10,20000,18.52,,,220,,,,,,,,,,0,wg-a,,,,AAXX 20074 07181 32470 72210 10120 20100 39711 40124 55000 700// 877// 90700=
07181,1999-05-20 08:00:00,13,1012.1,-0,88,11,20000,22.224,,,220,,,,,,,,,,0,wg-a,,,,AAXX 20084 07181 32470 72212 10130 20110 39710 40121 54000 700// 8653/ 90800=
07181,1999-05-20 09:00:00,14,1011.8,0,77,10,20000,18.52,,,190,,,,,,,,,,0,wg-a,,,,AAXX 20094 07181 32470 71910 10140 20100 39709 40118 50000 700// 872// 90900=
07181,1999-05-20 10:00:00,16,1011.3,-0.4,72,11,20000,18.52,,,250,,,,,,,,,,0,wg-a,,,,AAXX 20104 07181 32570 72510 10160 20110 39707 40113 58004 700// 8623/ 91000=
07181,1999-05-20 11:00:00,15,1011,-0.7,72,10,20000,22.224,,,240,,,,,,,,,,0,wg-a,,,,AAXX 20114 07181 32570 72412 10150 20100 39703 40110 58007 700// 85232 91100=
07181,1999-05-20 12:00:00,17,1010.4,-1,59,9,25000,18.52,,,230,,,,,,,,,,0,wg-a,,,,AAXX 20124 07181 32575 72310 10170 20090 39699 40104 58010 700// 878// 91200=
07181,1999-05-20 13:00:00,17,1010,-1.1,63,10,25000,18.52,,,210,,,,,,,,,,0,wg-a,,,,AAXX 20134 07181 32575 72110 10170 20100 39696 40100 56011 700// 878// 91300=
07181,1999-05-20 14:00:00,15,1010.3,-0.7,77,11,20000,14.816,,,210,,,,,,,,,,0,wg-a,,,,AAXX 20144 07181 32570 72108 10150 20110 39696 40103 56007 700// 878// 91400=
07181,1999-05-20 15:00:00,16,1010,-0.4,72,11,10000,18.52,,,260,,,,,,,,,,0,wg-a,,,,AAXX 20154 07181 32460 72610 10160 20110 39695 40100 56004 700// 879// 91500=
07181,1999-05-20 16:00:00,14,1010.4,-0,88,12,20000,11.112,,,210,,,,,,,,,,95,wg-a,,,,AAXX 20164 07181 02470 72106 10140 20120 39696 40104 55000 61000 79598 879// 91600 333 ////=
07181,1999-05-20 17:00:00,12,1011,0.3,100,12,15000,7.408,,,180,,,11,,,,,,,29,wg-a,,,,AAXX 20174 07181 12465 71804 10120 20120 39699 40110 53003 60115 72998 878// 91700=
07181,1999-05-20 18:00:00,13,1011.2,0.7,88,11,18000,14.816,,,270,11,17.4,,11,,,,,,1,wg-a,,,,AAXX 20184 07181 12568 72708 10130 20110 39702 40112 53007 60117 70198 878// 91800 333 10174 20110=
07181,1999-05-20 19:00:00,12,1011.7,1,94,11,18000,11.112,,,300,,,,,,,,,,0,wg-a,,,,AAXX 20194 07181 32568 73006 10120 20110 39706 40117 53010 700// 878// 91900=
07181,1999-05-20 20:00:00,12,1012.1,1,94,11,18000,3.704,,,330,,,,,,,,,,0,wg-a,,,,AAXX 20204 07181 32568 73302 10120 20110 39709 40121 52010 700// 878// 92000=
07181,1999-05-20 21:00:00,11,1012.3,0.8,100,11,15000,3.704,,,220,,,,,,,,,,0,wg-a,,,,AAXX 20214 07181 32565 /2202 10110 20110 39710 40123 51008 700// 86800 92100=
07181,1999-05-20 22:00:00,11,1012.6,0.7,100,11,14000,7.408,,,240,,,,,,,,,,0,wg-a,,,,AAXX 20224 07181 32664 72404 10110 20110 39713 40126 52007 700// 878// 92200=
07181,1999-05-20 23:00:00,11,1013,0.7,100,11,14000,7.408,,,230,,,,,,,,,,0,wg-a,,,,AAXX 20234 07181 32464 72304 10110 20110 39716 40130 53007 700// 878// 92300=
07181,1999-05-21 00:00:00,10,1013,0.5,100,10,14000,14.816,,,240,,,,,,,,,,0,wg-a,,,,AAXX 21004 07181 32464 72408 10100 20100 39715 40130 50005 700// 878// 90000=
07181,1999-05-21 01:00:00,10,1013.3,0.4,100,10,12000,11.112,,,240,,,,,,,,,,0,wg-a,,,,AAXX 21014 07181 32662 52406 10100 20100 39717 40133 51004 700// 85800 90100=
07181,1999-05-21 03:00:00,10,1013.5,0.5,100,10,7000,7.408,,,240,,,,,,,,,,0,wg-a,,,,AAXX 21034 07181 32457 72404 10100 20100 39720 40135 51005 700// 875// 90300=
07181,1999-05-21 04:00:00,9,1013.7,0.4,100,9,6000,11.112,,,240,,,,,,,,,,0,wg-a,,,,AAXX 21044 07181 32256 /2406 10090 20090 39721 40137 51004 700// 85530 90400=
07181,1999-05-21 05:00:00,10,1014.3,0.8,100,10,8000,7.408,,,210,,,,,,,,,,,wg-a,,,,AAXX 21054 07181 32/58 /2104 10100 20100 39727 40143 53008 90500=
07181,1999-05-21 06:00:00,10,1014.7,1.2,100,10,7000,7.408,,,210,9.2,13.2,,,,,11,,,0,wg-a,,,,AAXX 21064 07181 12257 72104 10100 20100 39732 40147 53012 60114 700// 875// 90600 333 10132 20092=
07181,1999-05-21 07:00:00,11,1015,1.5,100,11,6000,11.112,,,250,,,,,,,,,,0,wg-a,,,,AAXX 21074 07181 32256 72506 10110 20110 39736 40150 51015 700// 877// 90700=
07181,1999-05-21 08:00:00,12,1015.1,1.1,94,11,6000,11.112,,,280,,,,,,,,,,,wg-a,,,,AAXX 21084 07181 32/56 /2806 10120 20110 39738 40151 51011 90800=
07181,1999-05-21 09:00:00,14,1014.8,0.6,82,11,7000,14.816,,,300,,,,,,,,,,0,wg-a,,,,AAXX 21094 07181 32457 /3008 10140 20110 39738 40148 51006 700// 85201 90900=
07181,1999-05-21 10:00:00,16,1014.6,0.3,68,10,11000,14.816,,,310,,,,,,,,,,0,wg-a,,,,AAXX 21104 07181 32461 /3108 10160 20100 39739 40146 51003 700// 82101 91000=
07181,1999-05-21 11:00:00,17,1014.8,0.4,59,9,11000,31.484,,,320,,,,,,,,,,,wg-a,,,,AAXX 21114 07181 32/61 /3217 10170 20090 39742 40148 53004 91100=
07181,1999-05-21 12:00:00,17,1015.2,0.8,68,11,11000,25.928,,,290,,,,,,,,,,0,wg-a,,,,AAXX 21124 07181 32561 72914 10170 20110 39746 40152 53008 700// 84231 91200=
07181,1999-05-21 13:00:00,17,1015.4,0.8,72,12,9000,18.52,,,300,,,,,,,,,,0,wg-a,,,,AAXX 21134 07181 32559 73010 10170 20120 39747 40154 51008 700// 8323/ 91300=
07181,1999-05-21 14:00:00,18,1015.1,0.4,68,12,9000,25.928,,,310,,,,,,,,,,0,wg-a,,,,AAXX 21144 07181 32559 53114 10180 20120 39746 40151 50004 700// 85200 91400=
07181,1999-05-21 15:00:00,18,1014.8,-0.2,64,11,10000,29.632,,,300,,,,,,,,,,0,wg-a,,,,AAXX 21154 07181 32560 43016 10180 20110 39744 40148 58002 700// 84200 91500=
07181,1999-05-21 16:00:00,19,1014.9,-0.2,64,12,11000,25.928,,,300,,,,,,,,,,,wg-a,,,,AAXX 21164 07181 32/61 /3014 10190 20120 39745 40149 55002 91600=
07181,1999-05-21 17:00:00,18,1015.2,0.1,64,11,10000,22.224,,,300,,,,,,,,,,0,wg-a,,,,AAXX 21174 07181 32560 /3012 10180 20110 39747 40152 53001 700// 83130 91700=
07181,1999-05-21 18:00:00,17,1015.8,0.8,72,12,10000,22.224,,,290,10.4,18.8,,,,,,,,0,wg-a,,,,AAXX 21184 07181 32560 42912 10170 20120 39752 40158 53008 700// 81130 91800 333 10188 20104=
07181,1999-05-21 19:00:00,15,1016.7,1.2,82,12,10000,7.408,,,250,,,,,,,,,,0,wg-a,,,,AAXX 21194 07181 32/60 32504 10150 20120 39757 40167 53012 700// 82031 91900=
07181,1999-05-21 20:00:00,14,1017.2,1.4,88,12,10000,11.112,,,280,,,,,,,,,,0,wg-a,,,,AAXX 21204 07181 32/60 32806 10140 20120 39761 40172 51014 700// 82031 92000=
07181,1999-05-21 21:00:00,13,1017.7,1.2,88,11,10000,11.112,,,260,,,,,,,,,,0,wg-a,,,,AAXX 21214 07181 32/60 32606 10130 20110 39764 40177 51012 700// 82031 92100=
07181,1999-05-21 22:00:00,13,1017.8,0.8,88,11,10000,11.112,,,270,,,,,,,,,,,wg-a,,,,AAXX 21224 07181 32/60 /2706 10130 20110 39765 40178 51008 92200=
07181,1999-05-21 23:00:00,13,1017.6,0.3,88,11,10000,11.112,,,270,,,,,,,,,,0,wg-a,,,,AAXX 21234 07181 32/60 52706 10130 20110 39764 40176 50003 700// 84031 92300=
07181,1999-05-22 00:00:00,13,1017.6,-0.1,88,11,10000,11.112,,,280,,,,,,,,,,0,wg-a,,,,AAXX 22004 07181 32/60 52806 10130 20110 39763 40176 58001 700// 84031 90000=
07181,1999-05-22 01:00:00,12,1017.8,-0.1,94,11,10000,14.816,,,280,,,,,,,,,,,wg-a,,,,AAXX 22014 07181 32/60 /2808 10120 20110 39764 40178 55001 90100=
07181,1999-05-22 02:00:00,12,1017.7,-0.1,94,11,10000,14.816,,,270,,,,,,,,,,,wg-a,,,,AAXX 22024 07181 32/60 /2708 10120 20110 39763 40177 57001 90200=
07181,1999-05-22 03:00:00,12,1017.6,-0.1,94,11,10000,18.52,,,270,,,,,,,,,,0,wg-a,,,,AAXX 22034 07181 32760 62710 10120 20110 39762 40176 58001 700// 82531 90300=
07181,1999-05-22 04:00:00,12,1017.7,-0.1,94,11,11000,14.816,,,280,,,,,,,,,,,wg-a,,,,AAXX 22044 07181 32/61 /2808 10120 20110 39763 40177 55001 90400=
07181,1999-05-22 05:00:00,12,1017.8,0.1,94,11,12000,18.52,,,250,,,,,,,,,,0,wg-a,,,,AAXX 22054 07181 32462 72510 10120 20110 39764 40178 53001 700// 8783/ 90500=
07181,1999-05-22 06:00:00,12,1018,0.4,94,11,9000,18.52,,,260,11.9,17.3,,,,,,,,0,wg-a,,,,AAXX 22064 07181 12459 72610 10120 20110 39766 40180 53004 60004 700// 878// 90600 333 10173 20119=
07181,1999-05-22 07:00:00,12,1018.3,0.6,100,12,3000,14.816,,,260,,,0,,,,,,,10,wg-a,,,,AAXX 22074 07181 12330 82608 10120 20120 39769 40183 53006 60005 71065 875// 90700=
07181,1999-05-22 08:00:00,12,1018.5,0.7,100,12,500,18.52,,,300,,,1,,,,,,,51,wg-a,,,,AAXX 22084 07181 12200 83010 10120 20120 39771 40185 52007 60015 75166 875// 90800=
07181,1999-05-22 09:00:00,13,1018.4,0.5,94,12,10000,18.52,,,280,,,,1,,,,,,21,wg-a,,,,AAXX 22094 07181 12260 82810 10130 20120 39771 40184 51005 60017 72165 878// 90900=
07181,1999-05-22 10:00:00,12,1018.7,0.4,94,11,10000,22.224,,,310,,,,,,,,,,0,wg-a,,,,AAXX 22104 07181 32460 83112 10120 20110 39773 40187 52004 700// 878// 91000=
07181,1999-05-22 11:00:00,12,1018.9,0.4,94,11,10000,18.52,,,270,,,,,,,,,,0,wg-a,,,,AAXX 22114 07181 32460 82710 10120 20110 39775 40189 53004 700// 878// 91100=
07181,1999-05-22 12:00:00,13,1019,0.6,82,10,15000,14.816,,,290,,,,,,,,,,1,wg-a,,,,AAXX 22124 07181 32465 72908 10130 20100 39777 40190 52006 70165 85801 91200=
07181,1999-05-22 13:00:00,16,1018.6,0.4,59,8,15000,25.928,,,280,,,,,,,,,,0,wg-a,,,,AAXX 22134 07181 32465 72814 10160 20080 39777 40186 51004 700// 85801 91300=
07181,1999-05-22 14:00:00,14,1019.5,0.8,63,7,15000,22.224,,,300,,,,,,,,,,0,wg-a,,,,AAXX 22144 07181 32565 73012 10140 20070 39783 40195 53008 700// 85801 91400=
07181,1999-05-22 15:00:00,13,1020.4,1.3,67,7,15000,22.224,,,310,,,,,,,,,,0,wg-a,,,,AAXX 22154 07181 32665 73112 10130 20070 39790 40204 53013 700// 85501 91500=
07181,1999-05-22 16:00:00,14,1020.3,1.3,63,7,15000,18.52,,,280,,,,,,,,,,0,wg-a,,,,AAXX 22164 07181 32665 72810 10140 20070 39790 40203 51013 700// 85501 91600=
07181,1999-05-22 17:00:00,14,1020.7,1.1,63,7,15000,22.224,,,280,,,,,,,,,,0,wg-a,,,,AAXX 22174 07181 32665 72812 10140 20070 39794 40207 51011 700// 84801 91700=
07181,1999-05-22 18:00:00,13,1021.3,0.9,67,7,15000,18.52,,,290,11.9,15.8,,,,,,,,0,wg-a,,,,AAXX 22184 07181 32765 72910 10130 20070 39799 40213 53009 700// 84501 91800 333 10158 20119=
07181,1999-05-22 19:00:00,11,1021.9,1.2,82,8,15000,11.112,,,260,,,,,,,,,,0,wg-a,,,,AAXX 22194 07181 32765 72606 10110 20080 39802 40219 51012 700// 84501 91900=
07181,1999-05-22 20:00:00,10,1022.8,1.4,82,7,15000,7.408,,,240,,,,,,,,,,0,wg-a,,,,AAXX 22204 07181 32765 72404 10100 20070 39808 40228 53014 700// 84501 92000=
07181,1999-05-22 21:00:00,9,1023.1,1.1,93,8,15000,7.408,,,210,,,,,,,,,,0,wg-a,,,,AAXX 22214 07181 32765 42104 10090 20080 39810 40231 51011 700// 82501 92100=
07181,1999-05-22 22:00:00,8,1023.4,1,93,7,12000,7.408,,,230,,,,,,,,,,0,wg-a,,,,AAXX 22224 07181 32/62 22304 10080 20070 39812 40234 51010 700// 80001 92200=
07181,1999-05-22 23:00:00,8,1023.7,0.6,93,7,12000,7.408,,,210,,,,,,,,,,0,wg-a,,,,AAXX 22234 07181 32662 22104 10080 20070 39814 40237 52006 700// 81501 92300=
07181,1999-05-23 01:00:00,9,1023.5,0.2,93,8,12000,11.112,,,210,,,,,,,,,,0,wg-a,,,,AAXX 23014 07181 32662 /2106 10090 20080 39814 40235 51002 700// 86500 90100=
07181,1999-05-23 02:00:00,9,1023.5,-0,93,8,12000,11.112,,,210,,,,,,,,,,0,wg-a,,,,AAXX 23024 07181 32662 72106 10090 20080 39814 40235 55000 700// 87500 90200=
07181,1999-05-23 03:00:00,9,1023.6,0.3,93,8,10000,7.408,,,210,,,,,,,,,,0,wg-a,,,,AAXX 23034 07181 32660 72104 10090 20080 39816 40236 53003 700// 875// 90300=
07181,1999-05-23 04:00:00,9,1023.9,0.4,100,9,10000,7.408,,,240,,,,,,,,,,0,wg-a,,,,AAXX 23044 07181 32660 72404 10090 20090 39818 40239 53004 700// 875// 90400=
07181,1999-05-23 05:00:00,10,1024.1,0.7,93,9,10000,7.408,,,250,,,,,,,,,,0,wg-a,,,,AAXX 23054 07181 32660 82504 10100 20090 39821 40241 53007 700// 875// 90500=
07181,1999-05-23 06:00:00,10,1024.4,0.9,93,9,10000,7.408,,,260,7.2,12.9,,0,,,2,,,0,wg-a,,,,AAXX 23064 07181 02660 82604 10100 20090 39825 40244 53009 60024 700// 875// 90600 333 10129 20072 60007=
07181,1999-05-23 07:00:00,11,1024.7,1,87,9,11000,3.704,,,310,,,,,,,,,,0,wg-a,,,,AAXX 23074 07181 32661 83102 10110 20090 39828 40247 52010 700// 875// 90700=
07181,1999-05-23 08:00:00,13,1024.5,0.8,77,9,12000,3.704,,,240,,,,,,,,,,0,wg-a,,,,AAXX 23084 07181 32562 52402 10130 20090 39829 40245 51008 700// 85800 90800=
07181,1999-05-23 09:00:00,14,1024.4,0.5,63,7,12000,7.408,,,260,,,,,,,,,,0,wg-a,,,,AAXX 23094 07181 32562 /2604 10140 20070 39830 40244 51005 700// 86200 90900=
07181,1999-05-23 10:00:00,15,1024.2,0.1,55,6,12000,7.408,,,360,,,,,,,,,,0,wg-a,,,,AAXX 23104 07181 32562 /3604 10150 20060 39829 40242 50001 700// 86200 91000=
07181,1999-05-23 11:00:00,17,1023.7,-0.2,55,8,12000,7.408,,,200,,,,,,,,,,0,wg-a,,,,AAXX 23114 07181 32562 /2004 10170 20080 39827 40237 58002 700// 86200 91100=
07181,1999-05-23 12:00:00,16,1023.8,-0.4,59,8,12000,3.704,,,340,,,,,,,,,,0,wg-a,,,,AAXX 23124 07181 32662 /3402 10160 20080 39826 40238 57004 700// 86200 91200=
07181,1999-05-23 13:00:00,17,1023.4,-0.5,59,9,12000,11.112,,,310,,,,,,,,,,0,wg-a,,,,AAXX 23134 07181 32662 73106 10170 20090 39824 40234 57005 700// 872// 91300=
07181,1999-05-23 14:00:00,17,1023.2,-0.5,55,8,12000,3.704,,,300,,,,,,,,,,0,wg-a,,,,AAXX 23144 07181 32662 /3002 10170 20080 39822 40232 58005 700// 86200 91400=
07181,1999-05-23 15:00:00,18,1022.9,-0.6,52,8,12000,3.704,,,240,,,,,,,,,,0,wg-a,,,,AAXX 23154 07181 32662 /2402 10180 20080 39820 40229 57006 700// 86200 91500=
07181,1999-05-23 16:00:00,18,1022.8,-0.5,56,9,12000,11.112,,,280,,,,,,,,,,0,wg-a,,,,AAXX 23164 07181 32662 /2806 10180 20090 39819 40228 56005 700// 86200 91600=
07181,1999-05-23 17:00:00,17,1022.7,-0.4,63,10,12000,7.408,,,330,,,,,,,,,,0,wg-a,,,,AAXX 23174 07181 32762 63304 10170 20100 39818 40227 56004 700// 86500 91700=
07181,1999-05-23 20:00:00,15,1023.6,0.5,72,10,12000,7.408,,,330,,,,,,,,,,0,wg-a,,,,AAXX 23204 07181 32762 73304 10150 20100 39823 40236 53005 700// 875// 92000=
07181,1999-05-23 21:00:00,14,1023.8,0.4,77,10,12000,3.704,,,360,,,,,,,,,,0,wg-a,,,,AAXX 23214 07181 32762 73602 10140 20100 39824 40238 53004 700// 875// 92100=
07181,1999-05-23 22:00:00,14,1023.7,0.3,77,10,12000,3.704,,,20,,,,,,,,,,0,wg-a,,,,AAXX 23224 07181 32762 60202 10140 20100 39823 40237 50003 700// 86500 92200=
07181,1999-05-24 00:00:00,12,1023.7,-0.4,88,10,12000,7.408,,,160,,,,,,,,,,0,wg-a,,,,AAXX 24004 07181 32762 51604 10120 20100 39820 40237 58004 700// 85500 90000=
07181,1999-05-24 01:00:00,11,1023.6,-0.5,87,9,12000,7.408,,,160,,,,,,,,,,0,wg-a,,,,AAXX 24014 07181 32762 31604 10110 20090 39818 40236 58005 700// 83500 90100=
07181,1999-05-24 02:00:00,10,1023.5,-0.7,93,9,12000,7.408,,,160,,,,,,,,,,0,wg-a,,,,AAXX 24024 07181 32762 31604 10100 20090 39816 40235 56007 700// 83500 90200=
07181,1999-05-24 03:00:00,10,1023.3,-0.6,93,9,12000,3.704,,,160,,,,,,,,,,0,wg-a,,,,AAXX 24034 07181 32762 31602 10100 20090 39814 40233 57006 700// 83500 90300=
07181,1999-05-24 04:00:00,10,1023.2,-0.5,93,9,12000,3.704,,,140,,,,,,,,,,0,wg-a,,,,AAXX 24044 07181 32762 61402 10100 20090 39813 40232 56005 700// 86500 90400=
07181,1999-05-24 05:00:00,11,1023,-0.3,94,10,12000,0,,,0,,,,,,,,,,0,wg-a,,,,AAXX 24054 07181 32662 70000 10110 20100 39813 40230 56003 700// 87500 90500=
07181,1999-05-24 06:00:00,12,1022.9,-0.1,94,11,12000,3.704,,,170,9.8,16,,,,,,,,0,wg-a,,,,AAXX 24064 07181 12662 71702 10120 20110 39813 40229 56001 60004 700// 875// 90600 333 10160 20098=
07181,1999-05-24 07:00:00,14,1022.7,0.1,82,11,12000,3.704,,,140,,,,,,,,,,0,wg-a,,,,AAXX 24074 07181 32562 71402 10140 20110 39814 40227 53001 700// 878// 90700=
07181,1999-05-24 08:00:00,16,1022.5,0.1,59,8,15000,0,,,0,,,,,,,,,,0,wg-a,,,,AAXX 24084 07181 32565 /0000 10160 20080 39814 40225 52001 700// 86800 90800=
07181,1999-05-24 09:00:00,17,1022.1,-0.1,59,9,18000,7.408,,,70,,,,,,,,,,0,wg-a,,,,AAXX 24094 07181 32568 50704 10170 20090 39812 40221 58001 700// 85800 90900=
07181,1999-05-24 10:00:00,18,1021.6,-0.5,56,9,20000,7.408,,,110,,,,,,,,,,0,wg-a,,,,AAXX 24104 07181 32670 /1104 10180 20090 39809 40216 58005 700// 85200 91000=
07181,1999-05-24 11:00:00,19,1021.3,-0.7,52,9,25000,7.408,,,110,,,,,,,,,,0,wg-a,,,,AAXX 24114 07181 32675 /1104 10190 20090 39807 40213 57007 700// 85200 91100=
07181,1999-05-24 12:00:00,20,1020.8,-0.8,53,10,25000,7.408,,,210,,,,,,,,,,0,wg-a,,,,AAXX 24124 07181 32675 /2104 10200 20100 39804 40208 57008 700// 85200 91200=
07181,1999-05-24 13:00:00,19,1020.5,-0.9,56,10,25000,11.112,,,330,,,,,,,,,,0,wg-a,,,,AAXX 24134 07181 32675 43306 10190 20100 39800 40205 58009 700// 84100 91300=
07181,1999-05-24 14:00:00,21,1019.8,-1.1,53,11,25000,7.408,,,320,,,,,,,,,,0,wg-a,,,,AAXX 24144 07181 32675 43204 10210 20110 39796 40198 58011 700// 84100 91400=
07181,1999-05-24 15:00:00,20,1019.7,-1.1,53,10,25000,7.408,,,340,,,,,,,,,,0,wg-a,,,,AAXX 24154 07181 32675 /3404 10200 20100 39793 40197 56011 700// 83109 91500=
07181,1999-05-24 16:00:00,20,1019.4,-1,56,11,25000,14.816,,,30,,,,,,,,,,0,wg-a,,,,AAXX 24164 07181 32675 /0308 10200 20110 39790 40194 56010 700// 82102 91600=
07181,1999-05-24 17:00:00,20,1019.3,-0.7,56,11,25000,11.112,,,340,,,,,,,,,,0,wg-a,,,,AAXX 24174 07181 32675 43406 10200 20110 39789 40193 56007 700// 82102 91700=
07181,1999-05-24 18:00:00,18,1019.5,-0.4,68,12,25000,14.816,,,10,12.5,21.3,,,,,,,,0,wg-a,,,,AAXX 24184 07181 32675 40108 10180 20120 39789 40195 56004 700// 82102 91800 333 10213 20125=
07181,1999-05-24 19:00:00,16,1019.8,-0.1,72,11,20000,11.112,,,30,,,,,,,,,,0,wg-a,,,,AAXX 24194 07181 32770 50306 10160 20110 39789 40198 56001 700// 82102 91900=
07181,1999-05-24 20:00:00,15,1020.2,0.2,77,11,15000,7.408,,,30,,,,,,,,,,0,wg-a,,,,AAXX 24204 07181 32/65 50304 10150 20110 39791 40202 53002 700// 80002 92000=
07181,1999-05-24 21:00:00,13,1020.4,0.1,88,11,15000,3.704,,,100,,,,,,,,,,0,wg-a,,,,AAXX 24214 07181 32/65 51002 10130 20110 39790 40204 50001 700// 80002 92100=
07181,1999-05-24 22:00:00,13,1020.3,0,82,10,15000,3.704,,,110,,,,,,,,,,0,wg-a,,,,AAXX 24224 07181 32765 31102 10130 20100 39789 40203 50000 700// 81501 92200=
07181,1999-05-24 23:00:00,11,1020.6,-0.1,94,10,15000,3.704,,,230,,,,,,,,,,0,wg-a,,,,AAXX 24234 07181 32765 32302 10110 20100 39790 40206 55001 700// 81501 92300=
07181,1999-05-25 00:00:00,11,1020.3,-0.4,94,10,15000,11.112,,,200,,,,,,,,,,,wg-a,,,,AAXX 25004 07181 32765 52006 10110 20100 39786 40203 58004 82530 90000=
07181,1999-05-25 02:00:00,11,1020.4,-0.3,94,10,15000,3.704,,,220,,,,,,,,,,0,wg-a,,,,AAXX 25024 07181 32765 72202 10110 20100 39787 40204 56003 700// 8453/ 90200=
07181,1999-05-25 03:00:00,11,1019.9,-0.4,94,10,12000,7.408,,,170,,,,,,,,,,0,wg-a,,,,AAXX 25034 07181 32762 71704 10110 20100 39782 40199 58004 700// 8453/ 90300=
07181,1999-05-25 04:00:00,11,1020.2,-0.2,94,10,12000,11.112,,,220,,,,,,,,,,0,wg-a,,,,AAXX 25044 07181 32762 62206 10110 20100 39785 40202 55002 700// 81531 90400=
07181,1999-05-25 05:00:00,11,1020.4,-0,94,10,11000,11.112,,,220,,,,,,,,,,0,wg-a,,,,AAXX 25054 07181 32/61 62206 10110 20100 39787 40204 55000 700// 82031 90500=
07181,1999-05-25 06:00:00,13,1020.3,0.7,94,12,12000,3.704,,,250,10.3,17.9,,0,,,,,,0,wg-a,,,,AAXX 25064 07181 02562 72502 10130 20120 39789 40203 51007 60004 700// 878// 90600 333 10179 20103 60007=
07181,1999-05-25 07:00:00,14,1020.3,0.6,94,13,11000,7.408,,,290,,,,,,,,,,,wg-a,,,,AAXX 25074 07181 32/61 /2904 10140 20130 39791 40203 52006 90700=
07181,1999-05-25 08:00:00,16,1019.9,0.3,82,13,12000,11.112,,,340,,,,,,,,,,0,wg-a,,,,AAXX 25084 07181 32462 53406 10160 20130 39790 40199 50003 700// 83230 90800=
07181,1999-05-25 09:00:00,17,1019.9,0.2,77,13,12000,11.112,,,320,,,,,,,,,,0,wg-a,,,,AAXX 25094 07181 32462 63206 10170 20130 39791 40199 51002 700// 86200 90900=
07181,1999-05-25 10:00:00,17,1020.1,0.2,72,12,12000,14.816,,,320,,,,,,,,,,0,wg-a,,,,AAXX 25104 07181 32462 73208 10170 20120 39793 40201 53002 700// 878// 91000=
07181,1999-05-25 11:00:00,18,1019.9,0.2,68,12,15000,14.816,,,340,,,,,,,,,,0,wg-a,,,,AAXX 25114 07181 32465 73408 10180 20120 39792 40199 50002 700// 878// 91100=
07181,1999-05-25 12:00:00,17,1019.9,0.1,72,12,15000,14.816,,,330,,,,,,,,,,0,wg-a,,,,AAXX 25124 07181 32565 73308 10170 20120 39792 40199 51001 700// 86801 91200=
07181,1999-05-25 13:00:00,18,1019.7,-0.2,73,13,11000,14.816,,,320,,,,,,,,,,,wg-a,,,,AAXX 25134 07181 32/61 /3208 10180 20130 39791 40197 57002 91300=
07181,1999-05-25 14:00:00,18,1019.6,-0.2,64,11,15000,18.52,,,300,,,,,,,,,,0,wg-a,,,,AAXX 25144 07181 32565 73010 10180 20110 39790 40196 58002 700// 84201 91400=
07181,1999-05-25 15:00:00,18,1019.8,-0,68,12,15000,25.928,,,330,,,,,,,,,,0,wg-a,,,,AAXX 25154 07181 32565 /3314 10180 20120 39792 40198 55000 700// 84201 91500=
07181,1999-05-25 16:00:00,18,1019.7,-0.1,68,12,15000,22.224,,,330,,,,,,,,,,0,wg-a,,,,AAXX 25164 07181 32565 33312 10180 20120 39790 40197 58001 700// 82101 91600=
07181,1999-05-25 17:00:00,17,1019.8,0,68,11,11000,18.52,,,320,,,,,,,,,,,wg-a,,,,AAXX 25174 07181 32/61 /3210 10170 20110 39790 40198 50000 91700=
07181,1999-05-25 18:00:00,16,1020.1,-0.1,72,11,15000,14.816,,,330,12.8,18.6,,,,,,,,0,wg-a,,,,AAXX 25184 07181 32765 43308 10160 20110 39791 40201 55001 700// 83501 91800 333 10186 20128=
07181,1999-05-25 20:00:00,13,1021.1,0.7,82,10,10000,3.704,,,310,,,,,,,,,,,wg-a,,,,AAXX 25204 07181 32/60 /3102 10130 20100 39797 40211 53007 92000=
07181,1999-05-25 21:00:00,11,1021.4,0.6,94,10,15000,7.408,,,260,,,,,,,,,,0,wg-a,,,,AAXX 25214 07181 32/65 32604 10110 20100 39797 40214 51006 700// 80001 92100=
07181,1999-05-25 22:00:00,10,1021.6,0.3,93,9,10000,7.408,,,280,,,,,,,,,,,wg-a,,,,AAXX 25224 07181 32/60 /2804 10100 20090 39797 40216 51003 92200=
07181,1999-05-25 23:00:00,9,1021.8,0.1,93,8,10000,3.704,,,190,,,,,,,,,,,wg-a,,,,AAXX 25234 07181 32/60 /1902 10090 20080 39798 40218 53001 92300=
07181,1999-05-26 01:00:00,7,1021.6,-0.4,100,7,10000,7.408,,,220,,,,,,,,,,,wg-a,,,,AAXX 26014 07181 32/60 /2204 10070 20070 39793 40216 58004 90100=
07181,1999-05-26 02:00:00,7,1021.3,-0.8,100,7,6000,0,,,0,,,,,,,,,,11,wg-a,,,,AAXX 26024 07181 32/56 /0000 10070 20070 39790 40213 58008 71100 80001 90200=
07181,1999-05-26 04:00:00,7,1021.2,-0.5,100,7,500,7.408,,,210,,,0,,,,,,,11,wg-a,,,,AAXX 26044 07181 12/00 22104 10070 20070 39788 40212 55005 60005 71100 80001 90400=
07181,1999-05-26 05:00:00,8,1020.9,-0.2,100,8,6000,0,,,0,,,,,,,,,,11,wg-a,,,,AAXX 26054 07181 32/56 20000 10080 20080 39788 40209 56002 71100 80001 90500=
07181,1999-05-26 06:00:00,10,1020.7,0.2,100,10,12000,0,,,0,6.3,15.7,,0,,,,,,0,wg-a,,,,AAXX 26064 07181 02/62 20000 10100 20100 39789 40207 52002 60004 700// 81031 90600 333 10157 20063 60007=
07181,1999-05-26 07:00:00,12,1020.5,0.2,94,11,14000,3.704,,,290,,,,,,,,,,0,wg-a,,,,AAXX 26074 07181 32/64 22902 10120 20110 39790 40205 53002 700// 81031 90700=
07181,1999-05-26 08:00:00,15,1020.1,0.3,82,12,15000,3.704,,,330,,,,,,,,,,0,wg-a,,,,AAXX 26084 07181 32/65 23302 10150 20120 39791 40201 52003 700// 80001 90800=
07181,1999-05-26 09:00:00,17,1020.1,0.4,63,10,20000,7.408,,,320,,,,,,,,,,0,wg-a,,,,AAXX 26094 07181 32570 23204 10170 20100 39793 40201 53004 700// 81101 90900=
07181,1999-05-26 10:00:00,19,1019.8,0.2,60,11,20000,3.704,,,30,,,,,,,,,,0,wg-a,,,,AAXX 26104 07181 32670 20302 10190 20110 39792 40198 50002 700// 81101 91000=
07181,1999-05-26 11:00:00,19,1019.4,-0.2,56,10,20000,3.704,,,310,,,,,,,,,,0,wg-a,,,,AAXX 26114 07181 32670 23102 10190 20100 39789 40194 58002 700// 81101 91100=
07181,1999-05-26 12:00:00,21,1018.5,-1,49,10,20000,3.704,,,220,,,,,,,,,,0,wg-a,,,,AAXX 26124 07181 32770 22202 10210 20100 39783 40185 58010 700// 81101 91200=
07181,1999-05-26 13:00:00,21,1018,-1.4,40,7,20000,3.704,,,340,,,,,,,,,,0,wg-a,,,,AAXX 26134 07181 32770 23402 10210 20070 39778 40180 58014 700// 81101 91300=
07181,1999-05-26 14:00:00,22,1017.3,-1.6,38,7,20000,7.408,,,320,,,,,,,,,,0,wg-a,,,,AAXX 26144 07181 32770 23204 10220 20070 39773 40173 56016 700// 81101 91400=
07181,1999-05-26 15:00:00,23,1016.9,-1.3,38,8,20000,7.408,,,340,,,,,,,,,,0,wg-a,,,,AAXX 26154 07181 32770 23404 10230 20080 39770 40169 56013 700// 81101 91500=
07181,1999-05-26 16:00:00,23,1017,-0.8,41,9,25000,7.408,,,150,,,,,,,,,,0,wg-a,,,,AAXX 26164 07181 32775 31504 10230 20090 39770 40170 56008 700// 81101 91600=
07181,1999-05-26 17:00:00,22,1016.9,-0.5,41,8,25000,7.408,,,140,,,,,,,,,,0,wg-a,,,,AAXX 26174 07181 32/75 31404 10220 20080 39768 40169 56005 700// 80001 91700=
07181,1999-05-26 18:00:00,22,1016.9,-0.2,43,9,20000,11.112,,,40,10.4,23.1,,,,,,,,0,wg-a,,,,AAXX 26184 07181 32/70 30406 10220 20090 39768 40169 57002 700// 80001 91800 333 10231 20104=
07181,1999-05-26 19:00:00,20,1017.1,-0.2,49,9,20000,7.408,,,60,,,,,,,,,,0,wg-a,,,,AAXX 26194 07181 32/70 30604 10200 20090 39768 40171 56002 700// 80001 91900=
07181,1999-05-26 20:00:00,17,1018,0.4,59,9,20000,7.408,,,90,,,,,,,,,,0,wg-a,,,,AAXX 26204 07181 32/70 20904 10170 20090 39772 40180 53004 700// 80001 92000=
07181,1999-05-26 22:00:00,14,1018.7,0.8,63,7,20000,7.408,,,120,,,,,,,,,,0,wg-a,,,,AAXX 26224 07181 32/70 11204 10140 20070 39776 40187 51008 700// 80001 92200=
07181,1999-05-27 00:00:00,12,1018.8,-0.3,71,7,20000,3.704,,,330,,,,,,,,,,0,wg-a,,,,AAXX 27004 07181 32/70 13302 10120 20070 39773 40188 58003 700// 80001 90000=
07181,1999-05-27 02:00:00,10,1018.4,-0.8,82,7,20000,0,,,0,,,,,,,,,,0,wg-a,,,,AAXX 27024 07181 32/70 10000 10100 20070 39767 40184 58008 700// 80001 90200=
07181,1999-05-27 04:00:00,9,1018.4,-0.4,87,7,12000,0,,,0,,,,,,,,,,0,wg-a,,,,AAXX 27044 07181 32/62 10000 10090 20070 39766 40184 56004 700// 80001 90400=
07181,1999-05-27 05:00:00,11,1018.2,-0.1,82,8,12000,7.408,,,150,,,,,,,,,,0,wg-a,,,,AAXX 27054 07181 32/62 01504 10110 20080 39766 40182 56001 700// 80000 90500=
07181,1999-05-27 06:00:00,14,1018.1,0.3,72,9,12000,3.704,,,150,9,21.5,,,,,,,,0,wg-a,,,,AAXX 27064 07181 32/62 01502 10140 20090 39769 40181 53003 700// 80000 90600 333 10215 20090=
07181,1999-05-27 07:00:00,17,1017.8,0.5,72,12,13000,7.408,,,140,,,,,,,,,,0,wg-a,,,,AAXX 27074 07181 32/63 01404 10170 20120 39771 40178 53005 700// 80000 90700=
07181,1999-05-27 11:00:00,25,1015.2,,57,16,13000,7.408,,,160,,,,,,,,,,0,wg-a,,,,AAXX 27114 07181 32/63 11604 10250 20160 39757 40152 700// 80001 91100=
07181,1999-05-27 12:00:00,26,1014.5,-1.4,51,15,13000,11.112,,,120,,,,,,,,,,0,wg-a,,,,AAXX 27124 07181 32663 21206 10260 20150 39751 40145 57014 700// 81101 91200=
07181,1999-05-27 13:00:00,27,1014.1,-1.4,48,15,13000,11.112,,,120,,,,,,,,,,0,wg-a,,,,AAXX 27134 07181 32663 21206 10270 20150 39749 40141 56014 700// 82101 91300=
07181,1999-05-27 14:00:00,27,1013.8,-1.1,42,13,13000,14.816,,,180,,,,,,,,,,0,wg-a,,,,AAXX 27144 07181 32663 21808 10270 20130 39746 40138 56011 700// 82101 91400=
07181,1999-05-27 15:00:00,28,1013.5,-0.7,40,13,13000,22.224,,,180,,,,,,,,,,0,wg-a,,,,AAXX 27154 07181 32663 21812 10280 20130 39744 40135 57007 700// 82101 91500=
07181,1999-05-27 16:00:00,28,1013.4,-0.6,40,13,11000,18.52,,,170,,,,,,,,,,,wg-a,,,,AAXX 27164 07181 32/61 /1710 10280 20130 39743 40134 56006 91600=
07181,1999-05-27 17:00:00,26,1013.7,-0.2,45,13,13000,14.816,,,190,,,,,,,,,,0,wg-a,,,,AAXX 27174 07181 32763 21908 10260 20130 39744 40137 55002 700// 81101 91700=
07181,1999-05-27 18:00:00,25,1014,0.2,50,14,13000,14.816,,,180,13.6,27.9,,,,,,,,0,wg-a,,,,AAXX 27184 07181 32763 31808 10250 20140 39746 40140 53002 700// 81101 91800 333 10279 20136=
07181,1999-05-27 19:00:00,23,1015,0.9,61,15,13000,7.408,,,170,,,,,,,,,,0,wg-a,,,,AAXX 27194 07181 32/63 41704 10230 20150 39752 40150 53009 700// 82081 91900=
07181,1999-05-27 20:00:00,20,1016.3,1.7,73,15,13000,7.408,,,160,,,,,,,,,,0,wg-a,,,,AAXX 27204 07181 32/63 51604 10200 20150 39761 40163 53017 700// 83081 92000=
07181,1999-05-27 21:00:00,20,1016.5,1.6,68,14,13000,11.112,,,150,,,,,,,,,,0,wg-a,,,,AAXX 27214 07181 32/63 41506 10200 20140 39762 40165 51016 700// 83081 92100=
07181,1999-05-27 22:00:00,18,1017.1,1.4,77,14,13000,11.112,,,170,,,,,,,,,,0,wg-a,,,,AAXX 27224 07181 32/63 31706 10180 20140 39766 40171 51014 700// 82081 92200=
07181,1999-05-27 23:00:00,18,1017.8,1.1,73,13,13000,11.112,,,160,,,,,,,,,,0,wg-a,,,,AAXX 27234 07181 32/63 31606 10180 20130 39772 40178 53011 700// 82081 92300=
07181,1999-05-28 00:00:00,18,1018.5,1.7,68,12,13000,14.816,,,210,,,,,,,,,,0,wg-a,,,,AAXX 28004 07181 32/63 42108 10180 20120 39779 40185 53017 700// 83081 90000=
07181,1999-05-28 02:00:00,17,1019,1.1,77,13,10000,11.112,,,220,,,,,,,,,,,wg-a,,,,AAXX 28024 07181 32/60 /2206 10170 20130 39783 40190 51011 90200=
07181,1999-05-28 03:00:00,18,1019.2,0.7,77,14,11000,11.112,,,220,,,,,,,,,,,wg-a,,,,AAXX 28034 07181 32/61 /2206 10180 20140 39786 40192 52007 90300=
07181,1999-05-28 04:00:00,17,1020.8,1.8,82,14,15000,29.632,,,240,,,,,,,,,,0,wg-a,,,,AAXX 28044 07181 32765 72416 10170 20140 39800 40208 53018 700// 8398/ 90400=
07181,1999-05-28 05:00:00,16,1022.3,3,94,15,500,18.52,,,250,,,2,,,,,,,80,wg-a,,,,AAXX 28054 07181 12700 72510 10160 20150 39813 40223 53030 60025 78098 8398/ 90500=
07181,1999-05-28 06:00:00,15,1023.2,3.5,100,15,500,7.408,,,210,15.2,25.3,,8,,,8,,,80,wg-a,,,,AAXX 28064 07181 02700 72104 10150 20150 39821 40232 51035 60084 78098 8398/ 90600 333 10253 20152 60087=
07181,1999-05-28 07:00:00,15,1023.7,2.5,100,15,500,14.816,,,240,,,6,,,,,,,61,wg-a,,,,AAXX 28074 07181 12700 72408 10150 20150 39825 40237 51025 60065 76186 8297/ 90700=
07181,1999-05-28 08:00:00,16,1023.7,1.3,94,15,8000,0,,,0,,,1,,,,,,,60,wg-a,,,,AAXX 28084 07181 12058 70000 10160 20150 39826 40237 51013 60015 76066 8397/ 90800=
07181,1999-05-28 09:00:00,18,1023.9,1,94,17,9000,7.408,,,290,,,,7,,,,,,21,wg-a,,,,AAXX 28094 07181 12259 72904 10180 20170 39831 40239 53010 60077 72186 8687/ 90900=
07181,1999-05-28 10:00:00,20,1023.6,0.6,83,17,15000,7.408,,,230,,,,,,,,,,0,wg-a,,,,AAXX 28104 07181 32465 72304 10200 20170 39831 40236 51006 700// 872// 91000=
07181,1999-05-28 12:00:00,22,1022.8,-0.5,69,16,20000,7.408,,,180,,,,,,,,,,1,wg-a,,,,AAXX 28124 07181 32570 /1804 10220 20160 39826 40228 58005 70186 86200 91200=
07181,1999-05-28 13:00:00,21,1022.5,-0.8,73,16,25000,7.408,,,210,,,,,,,,,,0,wg-a,,,,AAXX 28134 07181 32575 /2104 10210 20160 39823 40225 58008 700// 86200 91300=
07181,1999-05-28 14:00:00,22,1021.7,-1.3,69,16,25000,7.408,,,160,,,,,,,,,,0,wg-a,,,,AAXX 28144 07181 32575 /1604 10220 20160 39816 40217 58013 700// 85200 91400=
07181,1999-05-28 15:00:00,23,1021.3,-1.3,61,15,25000,7.408,,,140,,,,,,,,,,0,wg-a,,,,AAXX 28154 07181 32575 /1404 10230 20150 39813 40213 57013 700// 85200 91500=
07181,1999-05-28 16:00:00,23,1020.8,-1.5,61,15,25000,7.408,,,150,,,,,,,,,,0,wg-a,,,,AAXX 28164 07181 32675 31504 10230 20150 39808 40208 56015 700// 83200 91600=
07181,1999-05-28 17:00:00,23,1020.6,-1,61,15,25000,11.112,,,90,,,,,,,,,,0,wg-a,,,,AAXX 28174 07181 32675 20906 10230 20150 39806 40206 56010 700// 82200 91700=
07181,1999-05-28 18:00:00,22,1020.6,-0.8,65,15,25000,7.408,,,100,14.9,23.3,,,,,,,,0,wg-a,,,,AAXX 28184 07181 32675 21004 10220 20150 39805 40206 56008 700// 81501 91800 333 10233 20149=
07181,1999-05-28 19:00:00,21,1020.7,-0.3,73,16,25000,7.408,,,100,,,,,,,,,,0,wg-a,,,,AAXX 28194 07181 32/75 21004 10210 20160 39805 40207 56003 700// 80002 91900=
07181,1999-05-28 20:00:00,19,1021.4,0.2,78,15,25000,7.408,,,120,,,,,,,,,,0,wg-a,,,,AAXX 28204 07181 32/75 21204 10190 20150 39808 40214 53002 700// 80002 92000=
07181,1999-05-28 22:00:00,17,1021.4,0.1,88,15,25000,11.112,,,100,,,,,,,,,,0,wg-a,,,,AAXX 28224 07181 32/75 31006 10170 20150 39806 40214 50001 700// 80002 92200=
07181,1999-05-28 23:00:00,17,1021.1,-0.5,88,15,25000,7.408,,,100,,,,,,,,,,0,wg-a,,,,AAXX 28234 07181 32/75 51004 10170 20150 39803 40211 58005 700// 80002 92300=
07181,1999-05-29 00:00:00,17,1020.8,-0.9,88,15,25000,11.112,,,120,,,,,,,,,,0,wg-a,,,,AAXX 29004 07181 32/75 51206 10170 20150 39800 40208 57009 700// 80002 90000=
07181,1999-05-29 01:00:00,16,1020.6,-0.9,94,15,25000,7.408,,,100,,,,,,,,,,0,wg-a,,,,AAXX 29014 07181 32/75 71004 10160 20150 39797 40206 57009 700// 80002 90100=
07181,1999-05-29 02:00:00,16,1020.1,-1.1,94,15,25000,11.112,,,100,,,,,,,,,,0,wg-a,,,,AAXX 29024 07181 32/75 41006 10160 20150 39792 40201 58011 700// 80002 90200=
07181,1999-05-29 03:00:00,16,1019.8,-1.1,88,14,7000,11.112,,,120,,,,,,,,,,0,wg-a,,,,AAXX 29034 07181 32/57 41206 10160 20140 39789 40198 57011 700// 80002 90300=
07181,1999-05-29 04:00:00,15,1020,-0.8,94,14,7000,7.408,,,150,,,,,,,,,,0,wg-a,,,,AAXX 29044 07181 32757 41504 10150 20140 39789 40200 56008 700// 81502 90400=
07181,1999-05-29 05:00:00,15,1019.9,-0.3,94,14,12000,11.112,,,140,,,,,,,,,,0,wg-a,,,,AAXX 29054 07181 32862 51406 10150 20140 39789 40199 56003 700// 82082 90500=
07181,1999-05-29 06:00:00,17,1019.5,-0.1,88,15,15000,11.112,,,100,14.6,22.3,,,,,7,,,0,wg-a,,,,AAXX 29064 07181 12865 51006 10170 20150 39788 40195 58001 60074 700// 82082 90600 333 10223 20146=
07181,1999-05-29 07:00:00,19,1019.4,-0,83,16,15000,11.112,,,140,,,,,,,,,,0,wg-a,,,,AAXX 29074 07181 32765 61406 10190 20160 39789 40194 55000 700// 83582 90700=
07181,1999-05-29 08:00:00,21,1019,-0.1,69,15,20000,11.112,,,170,,,,,,,,,,0,wg-a,,,,AAXX 29084 07181 32770 31706 10210 20150 39788 40190 57001 700// 81531 90800=
07181,1999-05-29 09:00:00,22,1018.3,-0.4,69,16,20000,14.816,,,130,,,,,,,,,,0,wg-a,,,,AAXX 29094 07181 32770 31308 10220 20160 39784 40183 58004 700// 81531 90900=
07181,1999-05-29 10:00:00,24,1017.7,-0.8,61,16,20000,14.816,,,140,,,,,,,,,,0,wg-a,,,,AAXX 29104 07181 32770 21408 10240 20160 39781 40177 58008 700// 81501 91000=
07181,1999-05-29 11:00:00,26,1017.1,-1.1,58,17,20000,11.112,,,180,,,,,,,,,,0,wg-a,,,,AAXX 29114 07181 32770 21806 10260 20170 39777 40171 57011 700// 81501 91100=
07181,1999-05-29 12:00:00,27,1016.5,-1.2,54,17,20000,11.112,,,180,,,,,,,,,,0,wg-a,,,,AAXX 29124 07181 32670 21806 10270 20170 39772 40165 58012 700// 81231 91200=
07181,1999-05-29 13:00:00,28,1015.9,-1.3,48,16,20000,18.52,,,180,,,,,,,,,,0,wg-a,,,,AAXX 29134 07181 32670 31810 10280 20160 39768 40159 57013 700// 81231 91300=
07181,1999-05-29 14:00:00,28,1015.5,-1.3,42,14,20000,18.52,,,200,,,,,,,,,,0,wg-a,,,,AAXX 29144 07181 32670 32010 10280 20140 39764 40155 56013 700// 81231 91400=
07181,1999-05-29 15:00:00,28,1014.9,-1.4,42,14,20000,22.224,,,180,,,,,,,,,,0,wg-a,,,,AAXX 29154 07181 32670 51812 10280 20140 39758 40149 58014 700// 82202 91500=
07181,1999-05-29 16:00:00,27,1014.7,-1.3,39,12,20000,22.224,,42.596,200,,,,,,,,,,0,wg-a,,,,AAXX 29164 07181 32770 42012 10270 20120 39755 40147 56013 700// 81202 91600 333 91023=
07181,1999-05-29 17:00:00,27,1014.8,-0.9,42,13,20000,18.52,,,200,,,,,,,,,,0,wg-a,,,,AAXX 29174 07181 32670 32010 10270 20130 39755 40148 56009 700// 82901 91700=
07181,1999-05-29 18:00:00,25,1015,-0.2,50,14,20000,11.112,,,180,17.1,28.2,,,,,,,,0,wg-a,,,,AAXX 29184 07181 32670 21806 10250 20140 39756 40150 55002 700// 81901 91800 333 10282 20171=
07181,1999-05-29 19:00:00,23,1014.8,-0.4,57,14,20000,7.408,,,170,,,,,,,,,,0,wg-a,,,,AAXX 29194 07181 32670 21704 10230 20140 39751 40148 58004 700// 81901 91900=
07181,1999-05-29 20:00:00,20,1015.6,-0,68,14,20000,11.112,,,170,,,,,,,,,,0,wg-a,,,,AAXX 29204 07181 32/70 31706 10200 20140 39755 40156 55000 700// 80001 92000=
07181,1999-05-29 21:00:00,19,1016.1,0.2,73,14,20000,11.112,,,150,,,,,,,,,,0,wg-a,,,,AAXX 29214 07181 32/70 31506 10190 20140 39758 40161 53002 700// 80001 92100=
07181,1999-05-29 22:00:00,20,1016.2,0.9,68,14,20000,7.408,,,160,,,,,,,,,,0,wg-a,,,,AAXX 29224 07181 32/70 41604 10200 20140 39760 40162 51009 700// 80001 92200=
07181,1999-05-29 23:00:00,19,1016.1,0.3,73,14,20000,11.112,,,160,,,,,,,,,,0,wg-a,,,,AAXX 29234 07181 32/70 51606 10190 20140 39758 40161 50003 700// 82031 92300=
07181,1999-05-30 00:00:00,18,1015.9,-0.3,77,14,20000,11.112,,,170,,,,,,,,,,0,wg-a,,,,AAXX 30004 07181 32/70 41706 10180 20140 39755 40159 58003 700// 82031 90000=
07181,1999-05-30 01:00:00,17,1015.8,-0.7,82,14,20000,7.408,,,170,,,,,,,,,,0,wg-a,,,,AAXX 30014 07181 32/70 31704 10170 20140 39753 40158 57007 700// 81031 90100=
07181,1999-05-30 02:00:00,17,1015.5,-0.9,82,14,20000,11.112,,,150,,,,,,,,,,0,wg-a,,,,AAXX 30024 07181 32/70 31506 10170 20140 39749 40155 58009 700// 81031 90200=
07181,1999-05-30 03:00:00,18,1014.8,-1.1,73,13,20000,11.112,,,160,,,,,,,,,,0,wg-a,,,,AAXX 30034 07181 32/70 61606 10180 20130 39744 40148 58011 700// 84031 90300=
07181,1999-05-30 04:00:00,17,1014.8,-1,77,13,20000,7.408,,,150,,,,,,,,,,0,wg-a,,,,AAXX 30044 07181 32/70 51504 10170 20130 39743 40148 56010 700// 83031 90400=
07181,1999-05-30 05:00:00,17,1015.1,-0.3,77,13,20000,7.408,,,150,,,,,,,,,,0,wg-a,,,,AAXX 30054 07181 32/70 71504 10170 20130 39746 40151 55003 700// 86031 90500=
07181,1999-05-30 06:00:00,18,1014.7,-0.1,77,14,20000,7.408,,,160,16.7,25.4,,,,,,,,0,wg-a,,,,AAXX 30064 07181 12/70 71604 10180 20140 39743 40147 58001 60004 700// 8703/ 90600 333 10254 20167=
07181,1999-05-30 07:00:00,20,1014.6,0.1,64,13,20000,11.112,,,180,,,,,,,,,,0,wg-a,,,,AAXX 30074 07181 32/70 71806 10200 20130 39744 40146 51001 700// 8703/ 90700=
07181,1999-05-30 08:00:00,22,1014.8,0.3,57,13,20000,14.816,,,200,,,,,,,,,,0,wg-a,,,,AAXX 30084 07181 32770 72008 10220 20130 39749 40148 53003 700// 8253/ 90800=
07181,1999-05-30 09:00:00,24,1014.6,0.7,47,12,20000,25.928,,,210,,,,,,,,,,0,wg-a,,,,AAXX 30094 07181 32770 72114 10240 20120 39750 40146 52007 700// 81532 90900=
07181,1999-05-30 10:00:00,24,1014.5,0.4,50,13,25000,22.224,,,200,,,,,,,,,,0,wg-a,,,,AAXX 30104 07181 32775 72012 10240 20130 39748 40145 50004 700// 81532 91000=
07181,1999-05-30 11:00:00,24,1014.5,-0,54,14,25000,14.816,,,210,,,,,,,,,,0,wg-a,,,,AAXX 30114 07181 32675 72108 10240 20140 39749 40145 54000 700// 81232 91100=
07181,1999-05-30 12:00:00,24,1014.4,-0.2,54,14,25000,18.52,,,170,,,,,,,,,,0,wg-a,,,,AAXX 30124 07181 32675 71710 10240 20140 39748 40144 56002 700// 81232 91200=
07181,1999-05-30 13:00:00,23,1015.1,0.5,57,14,20000,22.224,,,230,,,,,,,,,,0,wg-a,,,,AAXX 30134 07181 32570 72312 10230 20140 39753 40151 53005 700// 8683/ 91300=
07181,1999-05-30 14:00:00,23,1014.5,-0.1,65,16,20000,18.52,,,220,,,,,,,,,,0,wg-a,,,,AAXX 30144 07181 32570 /2210 10230 20160 39748 40145 58001 700// 81230 91400=
07181,1999-05-30 16:00:00,25,1014,-0.7,57,16,20000,18.52,,,230,,,,,,,,,,0,wg-a,,,,AAXX 30164 07181 32870 22310 10250 20160 39746 40140 56007 700// 81081 91600=
07181,1999-05-30 17:00:00,25,1013.6,-0.7,47,13,20000,22.224,,,230,,,,,,,,,,0,wg-a,,,,AAXX 30174 07181 32870 22312 10250 20130 39741 40136 58007 700// 81081 91700=
07181,1999-05-30 18:00:00,24,1014.1,-0.2,54,14,20000,11.112,,,240,18.2,25.4,,,,,,,,0,wg-a,,,,AAXX 30184 07181 32570 22406 10240 20140 39745 40141 55002 700// 81281 91800 333 10254 20182=
07181,1999-05-30 19:00:00,21,1014.7,0.2,64,14,20000,11.112,,,220,,,,,,,,,,0,wg-a,,,,AAXX 30194 07181 32570 32206 10210 20140 39748 40147 53002 700// 81381 91900=
07181,1999-05-30 20:00:00,20,1015.9,1.6,68,14,20000,11.112,,,260,,,,,,,,,,0,wg-a,,,,AAXX 30204 07181 32570 32606 10200 20140 39757 40159 53016 700// 82381 92000=
07181,1999-05-30 21:00:00,19,1016.7,1.9,78,15,20000,7.408,,,220,,,,,,,,,,0,wg-a,,,,AAXX 30214 07181 32670 22204 10190 20150 39764 40167 53019 700// 81281 92100=
07181,1999-05-30 22:00:00,18,1017.7,2.4,77,14,20000,7.408,,,330,,,,,,,,,,0,wg-a,,,,AAXX 30224 07181 32670 23304 10180 20140 39772 40177 51024 700// 81281 92200=
07181,1999-05-31 00:00:00,16,1018.3,1.1,94,15,20000,3.704,,,270,,,,,,,,,,,wg-a,,,,AAXX 31004 07181 32870 22702 10160 20150 39775 40183 51011 81/81 90000=
07181,1999-05-31 04:00:00,15,1019.2,0.3,94,14,12000,11.112,,,200,,,,,,,,,,11,wg-a,,,,AAXX 31044 07181 32662 22006 10150 20140 39782 40192 53003 71100 81581 90400=
07181,1999-05-31 05:00:00,16,1019.5,0.7,94,15,9000,7.408,,,220,,,,,,,,,,0,wg-a,,,,AAXX 31054 07181 32/59 32204 10160 20150 39786 40195 53007 700// 81081 90500=
07181,1999-05-31 06:00:00,16,1020.2,1.5,94,15,8000,3.704,,,300,14.5,24,,,,,,,,0,wg-a,,,,AAXX 31064 07181 12/58 43002 10160 20150 39793 40202 53015 60004 700// 81081 90600 333 10240 20145=
07181,1999-05-31 07:00:00,15,1021,1.8,100,15,900,14.816,,,360,,,,,,,,,,46,wg-a,,,,AAXX 31074 07181 32009 73608 10150 20150 39800 40210 53018 74641 877// 90700=
07181,1999-05-31 08:00:00,16,1020.9,1.5,94,15,6000,14.816,,,350,,,,,,,,,,10,wg-a,,,,AAXX 31084 07181 32256 /3508 10160 20150 39801 40209 51015 71042 86100 90800=
07181,1999-05-31 09:00:00,19,1021.1,1.3,83,16,9000,7.408,,,330,,,,,,,,,,1,wg-a,,,,AAXX 31094 07181 32459 53304 10190 20160 39806 40211 51013 70141 82131 90900=
07181,1999-05-31 10:00:00,21,1020.6,0.4,69,15,10000,7.408,,,360,,,,,,,,,,0,wg-a,,,,AAXX 31104 07181 32460 53604 10210 20150 39804 40206 50004 700// 81131 91000=
07181,1999-05-31 11:00:00,23,1020.3,0.2,61,15,12000,7.408,,,330,,,,,,,,,,0,wg-a,,,,AAXX 31114 07181 32562 53304 10230 20150 39803 40203 50002 700// 81131 91100=
07181,1999-05-31 12:00:00,22,1020.4,-0.4,60,14,12000,11.112,,,350,,,,,,,,,,3,wg-a,,,,AAXX 31124 07181 32562 63506 10220 20140 39802 40204 56004 70341 81131 91200=
07181,1999-05-31 13:00:00,22,1020.2,-0.3,60,14,12000,7.408,,,340,,,,,,,,,,0,wg-a,,,,AAXX 31134 07181 32562 73404 10220 20140 39801 40202 57003 700// 81131 91300=
07181,1999-05-31 14:00:00,23,1019.5,-0.8,57,14,12000,11.112,,,360,,,,,,,,,,0,wg-a,,,,AAXX 31144 07181 32662 73606 10230 20140 39795 40195 58008 700// 81131 91400=
07181,1999-05-31 15:00:00,23,1018.7,-1.4,57,14,12000,11.112,,,40,,,,,,,,,,0,wg-a,,,,AAXX 31154 07181 32662 /0406 10230 20140 39788 40187 58014 700// 81131 91500=
07181,1999-05-31 16:00:00,23,1018.5,-1.5,57,14,12000,11.112,,,350,,,,,,,,,,0,wg-a,,,,AAXX 31164 07181 32662 /3506 10230 20140 39786 40185 56015 700// 81131 91600=
07181,1999-05-31 17:00:00,23,1018.4,-1,50,12,11000,7.408,,,350,,,,,,,,,,,wg-a,,,,AAXX 31174 07181 32/61 /3504 10230 20120 39785 40184 56010 91700=
07181,1999-05-31 18:00:00,23,1018.9,0.1,50,12,15000,7.408,,,40,15.2,23.4,,,,,,,,0,wg-a,,,,AAXX 31184 07181 32/65 60404 10230 20120 39789 40189 53001 700// 82031 91800 333 10234 20152=
07181,1999-05-31 19:00:00,21,1019.3,0.6,64,14,15000,3.704,,,100,,,,,,,,,,0,wg-a,,,,AAXX 31194 07181 32/65 71002 10210 20140 39792 40193 53006 700// 85031 91900=
07181,1999-05-31 20:00:00,19,1019.7,0.8,78,15,10000,3.704,,,80,,,,,,,,,,,wg-a,,,,AAXX 31204 07181 32/60 /0802 10190 20150 39793 40197 51008 92000=
07181,1999-05-31 21:00:00,18,1020.1,0.6,83,15,15000,3.704,,,120,,,,,,,,,,0,wg-a,,,,AAXX 31214 07181 32/65 51202 10180 20150 39795 40201 51006 700// 84031 92100=
07181,1999-05-31 22:00:00,17,1019.8,-0.1,82,14,10000,3.704,,,60,,,,,,,,,,,wg-a,,,,AAXX 31224 07181 32/60 /0602 10170 20140 39791 40198 58001 92200=
07181,1999-06-01 00:00:00,15,1020.1,-0.5,88,13,15000,0,,,0,,,,,,,,,,0,wg-a,,,,AAXX 01004 07181 32/65 30000 10150 20130 39790 40201 56005 700// 82031 90000=
07181,1999-06-01 01:00:00,14,1020.3,0.1,94,13,10000,3.704,,,320,,,,,,,,,,,wg-a,,,,AAXX 01014 07181 32/60 /3202 10140 20130 39792 40203 53001 90100=
07181,1999-06-01 02:00:00,13,1020.3,-0.2,100,13,10000,0,,,0,,,,,,,,,,,wg-a,,,,AAXX 01024 07181 32/60 /0000 10130 20130 39790 40203 57002 90200=
07181,1999-06-01 03:00:00,13,1020.3,-0.1,94,12,6000,3.704,,,280,,,,,,,,,,0,wg-a,,,,AAXX 01034 07181 32/56 32802 10130 20120 39789 40203 58001 700// 80001 90300=
07181,1999-06-01 04:00:00,12,1020.4,-0.3,100,12,1000,3.704,,,310,,,,,,,,,,,wg-a,,,,AAXX 01044 07181 32/10 /3102 10120 20120 39789 40204 56003 90400=
07181,1999-06-01 05:00:00,13,1020.1,-0.2,100,13,7000,3.704,,,160,,,,,,,,,,0,wg-a,,,,AAXX 01054 07181 32/57 31602 10130 20130 39788 40201 57002 700// 81031 90500=
07181,1999-06-01 06:00:00,16,1019.7,-0.1,88,14,10000,3.704,,,170,12,22.5,,0,,,,,,0,wg-a,,,,AAXX 01064 07181 02/60 41702 10160 20140 39788 40197 57001 60004 700// 80001 90600 333 10225 20120 60007=
07181,1999-06-01 07:00:00,18,1019.6,0.1,83,15,10000,3.704,,,90,,,,,,,,,,0,wg-a,,,,AAXX 01074 07181 32/60 40902 10180 20150 39790 40196 53001 700// 80001 90700=
07181,1999-06-01 08:00:00,21,1019.3,0.3,73,16,11000,3.704,,,60,,,,,,,,,,0,wg-a,,,,AAXX 01084 07181 32/61 40602 10210 20160 39791 40193 53003 700// 81031 90800=
07181,1999-06-01 09:00:00,23,1018.7,0,69,17,12000,3.704,,29.632,70,,,,,,,,,,0,wg-a,,,,AAXX 01094 07181 32/62 40702 10230 20170 39788 40187 50000 700// 83031 90900 333 91016=
07181,1999-06-01 10:00:00,24,1018.5,-0.3,57,15,13000,3.704,,,80,,,,,,,,,,0,wg-a,,,,AAXX 01104 07181 32/63 50802 10240 20150 39787 40185 58003 700// 85030 91000=
07181,1999-06-01 11:00:00,24,1018.4,-0.4,57,15,15000,7.408,,,110,,,,,,,,,,0,wg-a,,,,AAXX 01114 07181 32565 51104 10240 20150 39787 40184 56004 700// 81130 91100=
07181,1999-06-01 12:00:00,24,1017.7,-0.8,61,16,15000,7.408,,,110,,,,,,,,,,0,wg-a,,,,AAXX 01124 07181 32565 /1104 10240 20160 39780 40177 58008 700// 81130 91200=
07181,1999-06-01 13:00:00,25,1017.1,-1.2,54,15,18000,11.112,,,100,,,,,,,,,,0,wg-a,,,,AAXX 01134 07181 32568 /1006 10250 20150 39775 40171 58012 700// 81131 91300=
07181,1999-06-01 14:00:00,26,1016.4,-1.7,54,16,18000,7.408,,,80,,,,,,,,,,0,wg-a,,,,AAXX 01144 07181 32/68 /0804 10260 20160 39770 40164 56017 700// 81031 91400=
07181,1999-06-01 15:00:00,26,1015.8,-1.6,54,16,20000,14.816,,,150,,,,,,,,,,0,wg-a,,,,AAXX 01154 07181 32/70 41508 10260 20160 39764 40158 58016 700// 81081 91500=
07181,1999-06-01 16:00:00,26,1015.2,-1.6,58,17,20000,7.408,,38.892,100,,,,,,,,,,0,wg-a,,,,AAXX 01164 07181 32/70 31004 10260 20170 39759 40152 57016 700// 80001 91600 333 91021=
07181,1999-06-01 17:00:00,26,1014.5,-1.8,58,17,20000,7.408,,,90,,,,,,,,,,0,wg-a,,,,AAXX 01174 07181 32/70 30904 10260 20170 39752 40145 58018 700// 80001 91700=
07181,1999-06-01 18:00:00,25,1014.2,-1.6,57,16,20000,7.408,,,90,15.8,26.2,,,,,,,,0,wg-a,,,,AAXX 01184 07181 32670 60904 10250 20160 39748 40142 56016 700// 81332 91800 333 10262 20158=
07181,1999-06-01 19:00:00,24,1014.6,-0.9,65,17,20000,3.704,,,110,,,,,,,,,,0,wg-a,,,,AAXX 01194 07181 32570 71102 10240 20170 39750 40146 55009 700// 82332 91900=
07181,1999-06-01 20:00:00,23,1014.3,-0.6,69,17,20000,7.408,,,90,,,,,,,,,,17,wg-a,,,,AAXX 01204 07181 32570 70904 10230 20170 39746 40143 57006 71792 82332 92000=
07181,1999-06-01 21:00:00,22,1014.6,-0,73,17,20000,3.704,,,70,,,,,,,,,,17,wg-a,,,,AAXX 01214 07181 32570 /0702 10220 20170 39748 40146 54000 71792 81332 92100=
07181,1999-06-01 22:00:00,21,1014.9,-0.1,83,18,12000,0,,,0,,,,,,,,,,80,wg-a,,,,AAXX 01224 07181 02562 70000 10210 20180 39749 40149 55001 61000 78086 83332 92200 333 ////=
07181,1999-06-01 23:00:00,20,1015.6,0.9,88,18,12000,3.704,,,200,,,,,,,,,,80,wg-a,,,,AAXX 01234 07181 02662 72002 10200 20180 39755 40156 53009 61000 78086 81332 92300 333 ////=
07181,1999-06-02 00:00:00,19,1013.8,-1.1,94,18,12000,7.408,,,60,,,,0,,,,,,25,wg-a,,,,AAXX 02004 07181 12662 70604 10190 20180 39737 40138 58011 60007 72598 81332 90000=
07181,1999-06-02 01:00:00,19,1013.2,-1.9,88,17,12000,11.112,,,150,,,,,,,,,,0,wg-a,,,,AAXX 02014 07181 32662 71506 10190 20170 39730 40132 58019 700// 81332 90100=
07181,1999-06-02 02:00:00,19,1013,-2.7,94,18,10000,7.408,,,130,,,,,,,,,,,wg-a,,,,AAXX 02024 07181 32/60 /1304 10190 20180 39728 40130 56027 90200=
07181,1999-06-02 03:00:00,18,1012.6,-1.4,94,17,20000,7.408,,,170,,,,,,,,,,12,wg-a,,,,AAXX 02034 07181 32/70 /1704 10180 20170 39723 40126 56014 712// 84032 90300=
07181,1999-06-02 04:00:00,18,1012.1,-1.1,94,17,20000,11.112,,,140,,,,,,,,,,12,wg-a,,,,AAXX 02044 07181 32670 /1406 10180 20170 39719 40121 58011 712// 82502 90400=
07181,1999-06-02 05:00:00,20,1011.8,-1,78,16,20000,14.816,,,180,,,,,,,,,,0,wg-a,,,,AAXX 02054 07181 32770 61808 10200 20160 39718 40118 56010 700// 82532 90500=
07181,1999-06-02 06:00:00,21,1011.2,-0.9,73,16,15000,14.816,,,180,17.7,25.3,,,,,,,,0,wg-a,,,,AAXX 02064 07181 12765 61808 10210 20160 39714 40112 57009 60004 700// 82532 90600 333 10253 20177=
07181,1999-06-02 07:00:00,22,1011.4,-0.2,69,16,15000,25.928,,,210,,,,,,,,,,0,wg-a,,,,AAXX 02074 07181 32765 62114 10220 20160 39717 40114 55002 700// 85502 90700=
07181,1999-06-02 08:00:00,24,1011.1,-0.2,65,17,15000,29.632,,,240,,,,,,,,,,0,wg-a,,,,AAXX 02084 07181 32765 52416 10240 20170 39716 40111 56002 700// 82532 90800=
07181,1999-06-02 09:00:00,25,1010.8,0.1,65,18,20000,22.224,,,230,,,,,,,,,,0,wg-a,,,,AAXX 02094 07181 32570 /2312 10250 20180 39715 40108 50001 700// 82802 90900=
07181,1999-06-02 10:00:00,26,1010.9,-0,61,18,20000,29.632,,,250,,,,,,,,,,0,wg-a,,,,AAXX 02104 07181 32570 72516 10260 20180 39717 40109 55000 700// 86802 91000=
07181,1999-06-02 11:00:00,24,1011,-0,69,18,20000,22.224,,,240,,,,,,,,,,0,wg-a,,,,AAXX 02114 07181 32570 72412 10240 20180 39716 40110 54000 700// 86802 91100=
07181,1999-06-02 12:00:00,21,1012.3,1,78,17,8000,29.632,,,270,,,,0,,,,,,80,wg-a,,,,AAXX 02124 07181 12558 72716 10210 20170 39725 40123 53010 60007 78086 8698/ 91200=
07181,1999-06-02 13:00:00,18,1012.7,0.7,77,14,12000,31.484,,44.448,280,,,0,,,,,,,60,wg-a,,,,AAXX 02134 07181 12562 72817 10180 20140 39724 40127 52007 60005 76086 879// 91300 333 91024=
07181,1999-06-02 14:00:00,16,1013.4,1.1,88,14,12000,14.816,,,260,,,2,,,,,,,61,wg-a,,,,AAXX 02144 07181 12562 72608 10160 20140 39727 40134 51011 60025 76186 879// 91400=
07181,1999-06-02 15:00:00,16,1013.5,0.4,88,14,20000,11.112,,,190,,,,2,,,,,,21,wg-a,,,,AAXX 02154 07181 12470 71906 10160 20140 39729 40135 53004 60027 72186 878// 91500=
07181,1999-06-02 16:00:00,16,1013.3,0.3,88,14,20000,14.816,,,190,,,0,,,,,,,21,wg-a,,,,AAXX 02164 07181 12470 71908 10160 20140 39727 40133 50003 60005 72162 83832 91600=
07181,1999-06-02 17:00:00,17,1012.3,-0.8,88,15,20000,25.928,,,210,,,,,,,,,,0,wg-a,,,,AAXX 02174 07181 32470 /2114 10170 20150 39719 40123 58008 700// 81132 91700=
07181,1999-06-02 18:00:00,18,1013.1,-0.1,83,15,20000,18.52,,,200,15.3,25.8,,0,,,,,,1,wg-a,,,,AAXX 02184 07181 12470 52010 10180 20150 39728 40131 55001 60007 70186 81132 91800 333 10258 20153=
07181,1999-06-02 19:00:00,17,1014.2,0.9,88,15,17000,18.52,,,190,,,,,,,,,,0,wg-a,,,,AAXX 02194 07181 32467 /1910 10170 20150 39736 40142 53009 700// 82132 91900=
07181,1999-06-02 20:00:00,16,1015.4,2.8,94,15,6000,25.928,,,240,,,0,,,,,,,95,wg-a,,,,AAXX 02204 07181 12256 72414 10160 20150 39747 40154 53028 60005 79598 879// 92000=
07181,1999-06-02 21:00:00,14,1016.4,2.6,94,13,15000,18.52,,,240,,,,1,,,,,,29,wg-a,,,,AAXX 02214 07181 12465 72410 10140 20130 39754 40164 51026 60017 72998 85801 92100=
07181,1999-06-02 22:00:00,14,1016.9,2.2,94,13,15000,18.52,,,230,,,,,,,,,,0,wg-a,,,,AAXX 02224 07181 32665 32310 10140 20130 39758 40169 51022 700// 82501 92200=
07181,1999-06-02 23:00:00,13,1017.1,1.3,100,13,13000,18.52,,,220,,,,,,,,,,0,wg-a,,,,AAXX 02234 07181 32663 52210 10130 20130 39760 40171 51013 700// 85500 92300=
07181,1999-06-03 00:00:00,13,1017.5,0.9,100,13,13000,18.52,,,220,,,,,,,,,,3,wg-a,,,,AAXX 03004 07181 32563 32210 10130 20130 39763 40175 51009 70398 82801 90000=
07181,1999-06-03 01:00:00,13,1017.5,0.4,94,12,13000,14.816,,,220,,,,,,,,,,0,wg-a,,,,AAXX 03014 07181 32663 42208 10130 20120 39762 40175 50004 700// 84500 90100=
07181,1999-06-03 02:00:00,13,1017.4,0.1,94,12,13000,18.52,,,220,,,,,,,,,,0,wg-a,,,,AAXX 03024 07181 32663 /2210 10130 20120 39761 40174 50001 700// 85500 90200=
07181,1999-06-03 03:00:00,12,1017.6,-0.1,100,12,10000,14.816,,,230,,,,,,,,,,0,wg-a,,,,AAXX 03034 07181 32460 32308 10120 20120 39762 40176 55001 700// 83800 90300=
07181,1999-06-03 04:00:00,12,1017.6,-0.1,94,11,12000,14.816,,,220,,,,,,,,,,0,wg-a,,,,AAXX 03044 07181 32462 32208 10120 20110 39761 40176 57001 700// 81101 90400=
07181,1999-06-03 05:00:00,12,1017.4,-0.1,94,11,12000,14.816,,,220,,,,,,,,,,0,wg-a,,,,AAXX 03054 07181 32462 42208 10120 20110 39760 40174 58001 700// 81101 90500=
07181,1999-06-03 06:00:00,13,1016.9,-0.5,94,12,15000,18.52,,,220,11.4,17.7,,,,,3,,,0,wg-a,,,,AAXX 03064 07181 12465 32210 10130 20120 39757 40169 58005 60034 700// 81101 90600 333 10177 20114=
07181,1999-06-03 07:00:00,15,1016.6,-0.5,82,12,15000,18.52,,,220,,,,,,,,,,0,wg-a,,,,AAXX 03074 07181 32465 32210 10150 20120 39756 40166 57005 700// 8/100 90700=
07181,1999-06-03 08:00:00,17,1015.8,-0.9,72,12,15000,14.816,,,240,,,,,,,,,,0,wg-a,,,,AAXX 03084 07181 32465 42408 10170 20120 39751 40158 58009 700// 84100 90800=
07181,1999-06-03 09:00:00,18,1015,-1.2,68,12,18000,18.52,,,180,,,,,,,,,,0,wg-a,,,,AAXX 03094 07181 32468 21810 10180 20120 39745 40150 58012 700// 82100 90900=
07181,1999-06-03 10:00:00,19,1014.4,-1.4,68,13,20000,14.816,,,200,,,,,,,,,,0,wg-a,,,,AAXX 03104 07181 32570 22008 10190 20130 39742 40144 56014 700// 81101 91000=
07181,1999-06-03 11:00:00,21,1013.6,-1.5,53,11,20000,14.816,,,210,,,,,,,,,,0,wg-a,,,,AAXX 03114 07181 32570 42108 10210 20110 39736 40136 57015 700// 83201 91100=
07181,1999-06-03 12:00:00,22,1012.8,-1.6,53,12,20000,25.928,,,210,,,,,,,,,,0,wg-a,,,,AAXX 03124 07181 32570 42114 10220 20120 39729 40128 58016 700// 83201 91200=
07181,1999-06-03 13:00:00,22,1011.7,-2.2,53,12,20000,22.224,,,190,,,,,,,,,,0,wg-a,,,,AAXX 03134 07181 32670 51912 10220 20120 39720 40117 58022 700// 84231 91300=
07181,1999-06-03 22:00:00,13,1012.5,-0.1,94,12,15000,29.632,,,220,,,,,,,,,,0,wg-a,,,,AAXX 03224 07181 32765 42216 10130 20120 39715 40125 58001 700// 82530 92200=
07181,1999-06-04 03:00:00,12,1013.4,0.3,88,10,12000,25.928,,44.448,230,,,,,,,,,,0,wg-a,,,,AAXX 04034 07181 32462 72314 10120 20100 39722 40134 53003 700// 878// 90300 333 91024=
07181,1999-06-04 04:00:00,12,1013.4,0.1,88,10,15000,29.632,,46.3,230,,,,,,,,,,0,wg-a,,,,AAXX 04044 07181 32465 72316 10120 20100 39721 40134 52001 700// 878// 90400 333 91025=
07181,1999-06-04 05:00:00,12,1013.6,0.5,88,10,8000,29.632,,,240,,,,,,,,,,0,wg-a,,,,AAXX 04054 07181 32458 72416 10120 20100 39724 40136 52005 700// 878// 90500=
07181,1999-06-04 06:00:00,12,1013.8,0.4,94,11,9000,29.632,,50.004,250,11.6,15,,,,,8,,,25,wg-a,,,,AAXX 04064 07181 12459 72516 10120 20110 39726 40138 53004 60084 72511 872// 90600 333 10150 20116 91027=
07181,1999-06-04 07:00:00,13,1014.5,1.3,82,10,20000,25.928,,,250,,,,,,,,,,0,wg-a,,,,AAXX 04074 07181 32470 72514 10130 20100 39734 40145 53013 700// 872// 90700=
07181,1999-06-04 08:00:00,15,1014.6,1.3,72,10,25000,29.632,,,250,,,,,,,,,,0,wg-a,,,,AAXX 04084 07181 32475 72516 10150 20100 39737 40146 53013 700// 86801 90800=
07181,1999-06-04 10:00:00,15,1014.8,0.5,82,12,25000,25.928,,,250,,,,,,,,,,25,wg-a,,,,AAXX 04104 07181 02475 72514 10150 20120 39739 40148 51005 61000 72586 878// 91000 333 ////=
07181,1999-06-04 11:00:00,16,1014.6,0.1,68,10,25000,29.632,,,240,,,,,,,,,,0,wg-a,,,,AAXX 04114 07181 32475 72416 10160 20100 39738 40146 50001 700// 878// 91100=
07181,1999-06-04 12:00:00,14,1014.6,-0.3,82,11,12000,18.52,,,270,,,,1,,,,,,25,wg-a,,,,AAXX 04124 07181 12462 82710 10140 20110 39736 40146 58003 60017 72586 878// 91200=
07181,1999-06-04 13:00:00,14,1014.8,-0.2,88,12,20000,18.52,,35.188,250,,,,,,,,,,0,wg-a,,,,AAXX 04134 07181 32570 82510 10140 20120 39737 40148 55002 700// 878// 91300 333 91019=
07181,1999-06-04 14:00:00,15,1014.3,-0.3,88,13,20000,25.928,,,230,,,0,,,,,,,0,wg-a,,,,AAXX 04144 07181 12470 82314 10150 20130 39735 40143 57003 60005 700// 878// 91400=
07181,1999-06-04 15:00:00,16,1013.6,-0.6,82,13,25000,25.928,,,230,,,,0,,,,,,0,wg-a,,,,AAXX 04154 07181 12475 62314 10160 20130 39730 40136 58006 60007 700// 83832 91500=
07181,1999-06-04 16:00:00,17,1013.3,-0.9,77,13,25000,22.224,,,220,,,,,,,,,,0,wg-a,,,,AAXX 04164 07181 32575 /2212 10170 20130 39728 40133 57009 700// 86200 91600=
07181,1999-06-04 17:00:00,17,1013.1,-0.9,72,12,25000,22.224,,,220,,,,,,,,,,0,wg-a,,,,AAXX 04174 07181 32575 /2212 10170 20120 39726 40131 56009 700// 83202 91700=
07181,1999-06-04 18:00:00,16,1013.4,-0.3,77,12,25000,22.224,,,220,12,17.5,,,,,,,,0,wg-a,,,,AAXX 04184 07181 32575 /2212 10160 20120 39727 40134 55003 700// 84802 91800 333 10175 20120=
07181,1999-06-04 19:00:00,15,1013,-0.6,77,11,25000,14.816,,,200,,,,,,,,,,0,wg-a,,,,AAXX 04194 07181 32675 82008 10150 20110 39722 40130 58006 700// 878// 91900=
07181,1999-06-04 20:00:00,14,1013.1,-0.4,82,11,15000,25.928,,42.596,220,,,,,,,,,,25,wg-a,,,,AAXX 04204 07181 32665 82214 10140 20110 39722 40131 58004 72522 878// 92000 333 91023=
07181,1999-06-04 21:00:00,14,1012.6,-1,82,11,15000,18.52,,,190,,,,,,,,,,1,wg-a,,,,AAXX 04214 07181 02665 81910 10140 20110 39717 40126 57010 61000 70186 8587/ 92100 333 ////=
07181,1999-06-04 22:00:00,15,1012.1,-0.9,77,11,15000,25.928,,,210,,,,,,,,,,0,wg-a,,,,AAXX 04224 07181 32665 82114 10150 20110 39713 40121 58009 700// 875// 92200=
07181,1999-06-04 23:00:00,13,1012.2,-1,94,12,8000,22.224,,,230,,,0,,,,,,,61,wg-a,,,,AAXX 04234 07181 12458 82312 10130 20120 39712 40122 56010 60005 76166 8683/ 92300=
07181,1999-06-05 00:00:00,13,1011.1,-1.5,94,12,8000,18.52,,,210,,,,0,,,,,,21,wg-a,,,,AAXX 05004 07181 12458 82110 10130 20120 39702 40111 58015 60007 72186 8683/ 90000=
07181,1999-06-05 01:00:00,13,1010.4,-1.8,94,12,15000,22.224,,,230,,,,,,,,,,0,wg-a,,,,AAXX 05014 07181 32465 82312 10130 20120 39695 40104 58018 700// 8683/ 90100=
07181,1999-06-05 02:00:00,14,1009.6,-2.4,88,12,15000,14.816,,,200,,,,,,,,,,0,wg-a,,,,AAXX 05024 07181 32465 82008 10140 20120 39688 40096 56024 700// 8683/ 90200=
07181,1999-06-05 03:00:00,14,1008.9,-2.1,88,12,15000,14.816,,,210,,,,,,,,,,0,wg-a,,,,AAXX 05034 07181 32465 72108 10140 20120 39681 40089 57021 700// 83532 90300=
07181,1999-06-05 04:00:00,14,1008.4,-1.9,88,12,15000,14.816,,,210,,,,,,,,,,0,wg-a,,,,AAXX 05044 07181 32565 82108 10140 20120 39676 40084 56019 700// 8787/ 90400=
07181,1999-06-05 06:00:00,14,1007.4,-1.5,88,12,15000,22.224,,,200,12.9,16,,0,,,1,,,,wg-a,,,,AAXX 05064 07181 02565 82012 10140 20120 39666 40074 56015 60014 8687/ 90600 333 10160 20129 60007=
07181,1999-06-05 07:00:00,13,1007.2,-1.2,94,12,7000,25.928,,,200,,,1,,,,,,,61,wg-a,,,,AAXX 05074 07181 12557 82014 10130 20120 39664 40072 56012 60015 76162 878// 90700=
07181,1999-06-05 08:00:00,10,1009.6,1.2,93,9,8000,18.52,,,270,,,2,,,,,,,61,wg-a,,,,AAXX 05084 07181 12458 82710 10100 20090 39682 40096 53012 60025 76166 878// 90800=
07181,1999-06-05 09:00:00,10,1010.4,2.4,100,10,9000,25.928,,,260,,,,4,,,,,,61,wg-a,,,,AAXX 05094 07181 12459 82614 10100 20100 39690 40104 53024 60047 76162 878// 90900=
07181,1999-06-05 10:00:00,10,1011.1,3.3,100,10,12000,22.224,,,250,,,0,,,,,,,60,wg-a,,,,AAXX 05104 07181 12462 82512 10100 20100 39697 40111 51033 60005 76066 878// 91000=
07181,1999-06-05 11:00:00,10,1010.5,1,100,10,11000,22.224,,,190,,,0,,,,,,,60,wg-a,,,,AAXX 05114 07181 12461 81912 10100 20100 39692 40105 50010 60005 76066 878// 91100=
07181,1999-06-05 12:00:00,11,1010.7,0.4,94,10,12000,14.816,,,180,,,,1,,,,,,60,wg-a,,,,AAXX 05124 07181 12462 71808 10110 20100 39694 40107 51004 60017 76062 878// 91200=
07181,1999-06-05 13:00:00,12,1010.8,-0.1,88,10,15000,18.52,,,190,,,0,,,,,,,21,wg-a,,,,AAXX 05134 07181 12465 71910 10120 20100 39696 40108 55001 60005 72162 8587/ 91300=
07181,1999-06-05 16:00:00,12,1010.3,-0.5,82,9,15000,22.224,,,200,,,,,,,,,,0,wg-a,,,,AAXX 05164 07181 32465 72012 10120 20090 39691 40103 56005 700// 878// 91600=
07181,1999-06-05 17:00:00,11,1009.6,-0.9,87,9,15000,18.52,,,180,,,,,,,,,,0,wg-a,,,,AAXX 05174 07181 32565 71810 10110 20090 39684 40096 58009 700// 8687/ 91700=
07181,1999-06-05 18:00:00,11,1009.5,-1,87,9,15000,18.52,,,180,10,13.5,,,,,,,,2,wg-a,,,,AAXX 05184 07181 32565 71810 10110 20090 39682 40095 58010 70262 8687/ 91800 333 10135 20100=
07181,1999-06-05 19:00:00,10,1009.7,-0.7,93,9,15000,14.816,,,180,,,,,,,,,,0,wg-a,,,,AAXX 05194 07181 32565 71808 10100 20090 39684 40097 55007 700// 8687/ 91900=
07181,1999-06-05 20:00:00,10,1009.8,-0,93,9,15000,18.52,,,190,,,,,,,,,,0,wg-a,,,,AAXX 05204 07181 32565 71910 10100 20090 39684 40098 55000 700// 8687/ 92000=
07181,1999-06-05 21:00:00,10,1009.9,0.3,87,8,15000,14.816,,,200,,,,,,,,,,0,wg-a,,,,AAXX 05214 07181 32565 72008 10100 20080 39685 40099 51003 700// 878// 92100=
07181,1999-06-05 22:00:00,10,1009.9,0.1,87,8,15000,25.928,,,190,,,,,,,,,,0,wg-a,,,,AAXX 05224 07181 32565 71914 10100 20080 39685 40099 52001 700// 878// 92200=
07181,1999-06-06 00:00:00,10,1009.9,-0,87,8,15000,25.928,,44.448,190,,,,,,,,,,0,wg-a,,,,AAXX 06004 07181 32565 71914 10100 20080 39685 40099 55000 700// 878// 90000 333 91024=
07181,1999-06-06 01:00:00,10,1009.9,-0,87,8,15000,22.224,,,200,,,,,,,,,,0,wg-a,,,,AAXX 06014 07181 32565 72012 10100 20080 39685 40099 55000 700// 878// 90100=
07181,1999-06-06 02:00:00,10,1009.5,0.1,87,8,15000,22.224,,,200,,,,,,,,,,0,wg-a,,,,AAXX 06024 07181 32565 72012 10100 20080 39681 40095 50001 700// 878// 90200=
07181,1999-06-06 03:00:00,10,1009.3,-0.6,87,8,15000,22.224,,,190,,,,,,,,,,0,wg-a,,,,AAXX 06034 07181 32565 71912 10100 20080 39679 40093 58006 700// 878// 90300=
07181,1999-06-06 06:00:00,10,1009.8,0.5,87,8,15000,25.928,,,190,9.6,10.7,,,,,6,,,0,wg-a,,,,AAXX 06064 07181 12465 71914 10100 20080 39684 40098 51005 60064 700// 878// 90600 333 10107 20096=
07181,1999-06-06 07:00:00,11,1010.3,0.7,87,9,15000,29.632,,,210,,,,,,,,,,0,wg-a,,,,AAXX 06074 07181 32465 72116 10110 20090 39690 40103 53007 700// 878// 90700=
07181,1999-06-06 08:00:00,12,1010,0.5,82,9,20000,29.632,,,200,,,,,,,,,,0,wg-a,,,,AAXX 06084 07181 32470 72016 10120 20090 39689 40100 50005 700// 878// 90800=
07181,1999-06-06 09:00:00,13,1010,0.7,77,9,20000,31.484,,53.708,220,,,,,,,,,,0,wg-a,,,,AAXX 06094 07181 32470 72217 10130 20090 39691 40100 51007 700// 878// 90900 333 91029=
07181,1999-06-06 10:00:00,14,1010.2,0.3,72,9,20000,29.632,,,220,,,,,,,,,,0,wg-a,,,,AAXX 06104 07181 32470 72216 10140 20090 39693 40102 53003 700// 878// 91000=
07181,1999-06-06 11:00:00,13,1010.5,0.7,72,8,15000,38.892,,,240,,,,,,,,,,80,wg-a,,,,AAXX 06114 07181 02565 72421 10130 20080 39696 40105 53007 61000 78086 878// 91100 333 ////=
07181,1999-06-06 12:00:00,15,1010.5,0.7,72,10,15000,22.224,,,250,,,,,,,,,,25,wg-a,,,,AAXX 06124 07181 02565 72512 10150 20100 39698 40105 52007 61000 72586 878// 91200 333 ////=
07181,1999-06-06 13:00:00,16,1010.9,1,63,9,11000,25.928,,50.004,210,,,,,,,,,,,wg-a,,,,AAXX 06134 07181 32/61 /2114 10160 20090 39703 40109 53010 91300 333 91027=
07181,1999-06-06 14:00:00,17,1010.9,0.8,55,8,25000,29.632,,50.004,250,,,,,,,,,,0,wg-a,,,,AAXX 06144 07181 32575 /2516 10170 20080 39704 40109 51008 700// 86800 91400 333 91027=
07181,1999-06-06 15:00:00,18,1011,0.8,49,7,25000,29.632,,,260,,,,,,,,,,0,wg-a,,,,AAXX 06154 07181 32575 /2616 10180 20070 39706 40110 51008 700// 86800 91500=
07181,1999-06-06 16:00:00,18,1011.5,0.8,45,6,25000,25.928,,,260,,,,,,,,,,0,wg-a,,,,AAXX 06164 07181 32675 /2614 10180 20060 39711 40115 53008 700// 86800 91600=
07181,1999-06-06 17:00:00,17,1012,1.1,48,6,25000,22.224,,,260,,,,,,,,,,0,wg-a,,,,AAXX 06174 07181 32675 52612 10170 20060 39715 40120 53011 700// 84801 91700=
07181,1999-06-06 18:00:00,17,1012.5,1.3,48,6,25000,14.816,,,260,10.2,18.3,,,,,,,,0,wg-a,,,,AAXX 06184 07181 32675 42608 10170 20060 39719 40125 51013 700// 83801 91800 333 10183 20102=
07181,1999-06-06 20:00:00,12,1014.2,1.4,71,7,25000,3.704,,,220,,,,,,,,,,0,wg-a,,,,AAXX 06204 07181 32775 52202 10120 20070 39729 40142 53014 700// 83502 92000=
07181,1999-06-06 22:00:00,10,1015.2,1.4,82,7,20000,11.112,,,140,,,,,,,,,,0,wg-a,,,,AAXX 06224 07181 32770 51406 10100 20070 39736 40152 51014 700// 83502 92200=
07181,1999-06-06 23:00:00,9,1015.7,1,87,7,15000,11.112,,,150,,,,,,,,,,0,wg-a,,,,AAXX 06234 07181 32765 51506 10090 20070 39739 40157 51010 700// 83502 92300=
07181,1999-06-07 00:00:00,9,1015.5,0.2,87,7,15000,11.112,,,160,,,,,,,,,,,wg-a,,,,AAXX 07004 07181 32765 51606 10090 20070 39737 40155 50002 83502 90000=
07181,1999-06-07 01:00:00,9,1015.4,0,93,8,15000,11.112,,,160,,,,,,,,,,0,wg-a,,,,AAXX 07014 07181 32765 51606 10090 20080 39736 40154 50000 700// 83502 90100=
07181,1999-06-07 03:00:00,9,1015.3,-0.1,100,9,15000,7.408,,,170,,,,,,,,,,0,wg-a,,,,AAXX 07034 07181 32765 71704 10090 20090 39736 40153 55001 700// 85502 90300=
07181,1999-06-07 04:00:00,9,1015.5,0.2,100,9,15000,11.112,,,150,,,,,,,,,,0,wg-a,,,,AAXX 07044 07181 32765 71506 10090 20090 39738 40155 53002 700// 875// 90400=
07181,1999-06-07 05:00:00,10,1015.7,0.6,93,9,15000,0,,,0,,,,,,,,,,0,wg-a,,,,AAXX 07054 07181 32565 70000 10100 20090 39741 40157 53006 700// 878// 90500=
07181,1999-06-07 06:00:00,12,1015.5,0.5,88,10,20000,3.704,,,160,8.1,16.5,,,,,,,,0,wg-a,,,,AAXX 07064 07181 12570 71602 10120 20100 39741 40155 51005 60004 700// 878// 90600 333 10165 20081=
07181,1999-06-07 07:00:00,13,1015.6,0.6,88,11,20000,11.112,,,170,,,,,,,,,,0,wg-a,,,,AAXX 07074 07181 32570 71706 10130 20110 39744 40156 52006 700// 878// 90700=
07181,1999-06-07 08:00:00,14,1015.9,0.7,82,11,20000,7.408,,,170,,,,,,,,,,0,wg-a,,,,AAXX 07084 07181 32470 71704 10140 20110 39748 40159 53007 700// 878// 90800=
07181,1999-06-07 09:00:00,15,1015.8,0.8,82,12,20000,11.112,,,250,,,,,,,,,,0,wg-a,,,,AAXX 07094 07181 32470 72506 10150 20120 39749 40158 51008 700// 878// 90900=
07181,1999-06-07 10:00:00,16,1015.9,0.7,72,11,20000,14.816,,,210,,,,,,,,,,0,wg-a,,,,AAXX 07104 07181 32470 72108 10160 20110 39751 40159 51007 700// 878// 91000=
07181,1999-06-07 11:00:00,17,1015.5,0,68,11,20000,18.52,,,170,,,,,,,,,,0,wg-a,,,,AAXX 07114 07181 32570 71710 10170 20110 39748 40155 50000 700// 878// 91100=
07181,1999-06-07 15:00:00,19,1014.1,-0.8,56,10,20000,14.816,,,240,,,,,,,,,,1,wg-a,,,,AAXX 07154 07181 02570 42408 10190 20100 39738 40141 58008 61000 70186 83201 91500 333 ////=
07181,1999-06-07 16:00:00,20,1014,-0.8,56,11,20000,7.408,,,270,,,,,,,,,,0,wg-a,,,,AAXX 07164 07181 32570 52704 10200 20110 39738 40140 56008 700// 83201 91600=
07181,1999-06-07 17:00:00,19,1013.8,-0.7,60,11,20000,11.112,,,210,,,,,,,,,,0,wg-a,,,,AAXX 07174 07181 32570 /2106 10190 20110 39735 40138 56007 700// 85901 91700=
07181,1999-06-07 18:00:00,15,1014.6,-0,82,12,18000,3.704,,,190,11.6,19.8,,2,,,,,,29,wg-a,,,,AAXX 07184 07181 12568 81902 10150 20120 39738 40146 55000 60027 72998 85902 91800 333 10198 20116=
07181,1999-06-07 19:00:00,15,1015.2,0.5,82,12,18000,11.112,,,240,,,,,,,,,,29,wg-a,,,,AAXX 07194 07181 32568 82406 10150 20120 39743 40152 53005 72922 85902 91900=
07181,1999-06-07 20:00:00,13,1017.2,2.5,88,11,12000,14.816,,,250,,,,,,,,,,80,wg-a,,,,AAXX 07204 07181 02562 82508 10130 20110 39760 40172 53025 61000 78086 879// 92000 333 ////=
07181,1999-06-07 21:00:00,12,1017.6,2.4,94,11,12000,11.112,,,240,,,,1,,,,,,80,wg-a,,,,AAXX 07214 07181 12562 82406 10120 20110 39762 40176 51024 60017 78086 879// 92100=
07181,1999-06-07 23:00:00,12,1018.1,0.6,94,11,12000,14.816,,,210,,,0,,,,,,,60,wg-a,,,,AAXX 07234 07181 12562 82108 10120 20110 39766 40181 52006 60005 76066 872// 92300=
07181,1999-06-08 00:00:00,11,1018.2,0.5,100,11,12000,14.816,,,200,,,,1,,,,,,21,wg-a,,,,AAXX 08004 07181 12562 82008 10110 20110 39767 40182 51005 60017 72186 878// 90000=
07181,1999-06-08 02:00:00,11,1018.7,0.5,100,11,12000,11.112,,,210,,,,,,,,,,0,wg-a,,,,AAXX 08024 07181 32562 82106 10110 20110 39771 40187 51005 700// 878// 90200=
07181,1999-06-08 06:00:00,11,1020.7,2,94,10,15000,18.52,,,260,9.8,15.1,,,,,4,,,,wg-a,,,,AAXX 08064 07181 12265 72610 10110 20100 39791 40207 51020 60044 878// 90600 333 10151 20098=
07181,1999-06-08 07:00:00,12,1021.2,2.1,88,10,15000,25.928,,,240,,,,,,,,,,0,wg-a,,,,AAXX 08074 07181 32365 /2414 10120 20100 39797 40212 51021 700// 86200 90700=
07181,1999-06-08 09:00:00,13,1022.1,1.5,77,9,8000,22.224,,,260,,,,,,,,,,80,wg-a,,,,AAXX 08094 07181 02458 72612 10130 20090 39806 40221 52015 61000 78086 878// 90900 333 ////=
07181,1999-06-08 10:00:00,12,1023,1.7,88,10,12000,18.52,,,300,,,0,,,,,,,25,wg-a,,,,AAXX 08104 07181 12462 73010 10120 20100 39814 40230 53017 60005 72586 878// 91000=
07181,1999-06-08 15:00:00,15,1024,0.4,59,7,15000,18.52,,,260,,,,,,,,,,0,wg-a,,,,AAXX 08154 07181 32665 62610 10150 20070 39827 40240 53004 700// 86800 91500=
07181,1999-06-08 16:00:00,15,1024.2,0.6,59,7,15000,18.52,,,280,,,,,,,,,,0,wg-a,,,,AAXX 08164 07181 32665 62810 10150 20070 39829 40242 53006 700// 85801 91600=
07181,1999-06-08 17:00:00,14,1024.4,0.6,63,7,20000,14.816,,,270,,,,,,,,,,0,wg-a,,,,AAXX 08174 07181 32670 72708 10140 20070 39830 40244 51006 700// 86801 91700=
07181,1999-06-08 18:00:00,14,1024.6,0.5,63,7,25000,14.816,,,280,11.1,16.1,,,,,,,,0,wg-a,,,,AAXX 08184 07181 32675 72808 10140 20070 39832 40246 52005 700// 878// 91800 333 10161 20111=
07181,1999-06-08 19:00:00,13,1025,0.6,77,9,25000,3.704,,,250,,,,,,,,,,0,wg-a,,,,AAXX 08194 07181 32675 72502 10130 20090 39835 40250 53006 700// 878// 91900=
07181,1999-06-08 23:00:00,9,1027,0.9,87,7,25000,7.408,,,220,,,,,,,,,,0,wg-a,,,,AAXX 08234 07181 32775 42204 10090 20070 39848 40270 51009 700// 82501 92300=
07181,1999-06-09 11:00:00,15,1026.5,-0.3,59,7,20000,3.704,,,330,,,,,,,,,,0,wg-a,,,,AAXX 09114 07181 32670 /3302 10150 20070 39851 40265 58003 700// 86200 91100=
07181,1999-06-09 14:00:00,17,1025.9,-0.3,55,8,20000,11.112,,,360,,,,,,,,,,0,wg-a,,,,AAXX 09144 07181 32770 73606 10170 20080 39848 40259 56003 700// 85802 91400=
07181,1999-06-09 16:00:00,18,1025.2,-0.6,45,6,20000,7.408,,,320,,,,,,,,,,0,wg-a,,,,AAXX 09164 07181 32770 63204 10180 20060 39842 40252 58006 700// 84802 91600=
07181,1999-06-09 17:00:00,17,1025,-0.9,52,7,20000,7.408,,,20,,,,,,,,,,0,wg-a,,,,AAXX 09174 07181 32770 50204 10170 20070 39839 40250 56009 700// 83802 91700=
07181,1999-06-09 18:00:00,17,1024.9,-0.5,55,8,20000,3.704,,,60,11,17.6,,,,,,,,0,wg-a,,,,AAXX 09184 07181 32770 40602 10170 20080 39839 40249 56005 700// 81131 91800 333 10176 20110=
07181,1999-06-09 19:00:00,16,1025.1,-0.3,59,8,20000,7.408,,,20,,,,,,,,,,0,wg-a,,,,AAXX 09194 07181 32770 30204 10160 20080 39839 40251 56003 700// 81131 91900=
07181,1999-06-09 20:00:00,13,1025.7,0.2,72,8,20000,7.408,,,20,,,,,,,,,,0,wg-a,,,,AAXX 09204 07181 32770 20204 10130 20080 39841 40257 53002 700// 81501 92000=
07181,1999-06-09 22:00:00,11,1026.8,0.9,82,8,20000,0,,,0,,,,,,,,,,0,wg-a,,,,AAXX 09224 07181 32/70 30000 10110 20080 39848 40268 53009 700// 82031 92200=
07181,1999-06-10 00:00:00,9,1026.7,0,93,8,17000,0,,,0,,,,,,,,,,0,wg-a,,,,AAXX 10004 07181 32/67 20000 10090 20080 39844 40267 50000 700// 81031 90000=
07181,1999-06-10 01:00:00,8,1026.4,-0.8,93,7,17000,3.704,,,340,,,,,,,,,,0,wg-a,,,,AAXX 10014 07181 32/67 13402 10080 20070 39840 40264 58008 700// 80001 90100=
07181,1999-06-10 04:00:00,7,1026.1,-0.4,100,7,13000,0,,,0,,,,,,,,,,0,wg-a,,,,AAXX 10044 07181 32/63 20000 10070 20070 39836 40261 58004 700// 81031 90400=
07181,1999-06-10 05:00:00,9,1025.6,-0.7,100,9,13000,3.704,,,340,,,,,,,,,,0,wg-a,,,,AAXX 10054 07181 32/63 43402 10090 20090 39834 40256 56007 700// 81031 90500=
07181,1999-06-10 06:00:00,10,1025.9,-0,93,9,13000,0,,,0,6.5,17.1,,,,,,,,0,wg-a,,,,AAXX 10064 07181 12863 60000 10100 20090 39838 40259 55000 60004 700// 82031 90600 333 10171 20065=
07181,1999-06-10 07:00:00,12,1025.5,0.1,94,11,13000,3.704,,,330,,,,,,,,,,0,wg-a,,,,AAXX 10074 07181 32863 63302 10120 20110 39837 40255 53001 700// 82031 90700=
07181,1999-06-10 09:00:00,17,1024.6,-0.2,63,10,20000,11.112,,,30,,,,,,,,,,0,wg-a,,,,AAXX 10094 07181 32570 /0306 10170 20100 39836 40246 58002 700// 81139 90900=
07181,1999-06-10 10:00:00,17,1024.4,-0.3,59,9,25000,11.112,,,20,,,,,,,,,,0,wg-a,,,,AAXX 10104 07181 32575 70206 10170 20090 39834 40244 58003 700// 81209 91000=
07181,1999-06-10 11:00:00,19,1023.7,-1,49,8,25000,11.112,,,10,,,,,,,,,,0,wg-a,,,,AAXX 10114 07181 32675 70106 10190 20080 39829 40237 58010 700// 81239 91100=
07181,1999-06-10 12:00:00,19,1022.7,-1.5,49,8,25000,11.112,,,350,,,,,,,,,,0,wg-a,,,,AAXX 10124 07181 32675 73506 10190 20080 39821 40227 58015 700// 82239 91200=
07181,1999-06-10 13:00:00,19,1022.6,-1.4,46,7,25000,11.112,,,20,,,,,,,,,,0,wg-a,,,,AAXX 10134 07181 32675 60206 10190 20070 39820 40226 56014 700// 84202 91300=
07181,1999-06-10 14:00:00,20,1022.3,-1.1,46,8,25000,11.112,,,10,,,,,,,,,,0,wg-a,,,,AAXX 10144 07181 32675 70106 10200 20080 39818 40223 56011 700// 878// 91400=
07181,1999-06-10 15:00:00,19,1022.1,-0.6,52,9,25000,14.816,,,350,,,,,,,,,,0,wg-a,,,,AAXX 10154 07181 32675 73508 10190 20090 39815 40221 58006 700// 878// 91500=
07181,1999-06-10 16:00:00,19,1021.8,-0.8,56,10,25000,18.52,,,340,,,,,,,,,,0,wg-a,,,,AAXX 10164 07181 32675 73410 10190 20100 39812 40218 58008 700// 878// 91600=
07181,1999-06-10 17:00:00,19,1021.8,-0.7,49,8,11000,14.816,,,350,,,,,,,,,,,wg-a,,,,AAXX 10174 07181 32/61 /3508 10190 20080 39811 40218 56007 91700=
07181,1999-06-10 18:00:00,18,1022.1,-0.2,59,10,25000,29.632,,,350,9.7,20.8,,,,,,,,0,wg-a,,,,AAXX 10184 07181 32675 53516 10180 20100 39813 40221 55002 700// 85800 91800 333 10208 20097=
07181,1999-06-10 19:00:00,16,1022.6,0.4,68,10,25000,11.112,,,340,,,,,,,,,,0,wg-a,,,,AAXX 10194 07181 32775 53406 10160 20100 39816 40226 53004 700// 85500 91900=
07181,1999-06-10 21:00:00,13,1023.5,0.7,82,10,25000,7.408,,,360,,,,,,,,,,0,wg-a,,,,AAXX 10214 07181 32775 33604 10130 20100 39820 40235 51007 700// 83500 92100=
07181,1999-06-10 22:00:00,12,1023.7,0.5,88,10,25000,3.704,,,260,,,,,,,,,,0,wg-a,,,,AAXX 10224 07181 32775 32602 10120 20100 39821 40237 51005 700// 83500 92200=
07181,1999-06-10 23:00:00,11,1023.6,0,87,9,25000,3.704,,,330,,,,,,,,,,0,wg-a,,,,AAXX 10234 07181 32775 33302 10110 20090 39818 40236 50000 700// 83500 92300=
07181,1999-06-11 03:00:00,10,1023.2,-0.5,93,9,10000,7.408,,,320,,,,,,,,,,0,wg-a,,,,AAXX 11034 07181 32760 63204 10100 20090 39812 40232 56005 700// 84501 90300=
07181,1999-06-11 04:00:00,10,1023.2,-0.1,93,9,9000,7.408,,,340,,,,,,,,,,0,wg-a,,,,AAXX 11044 07181 32759 /3404 10100 20090 39813 40232 55001 700// 85501 90400=
07181,1999-06-11 05:00:00,11,1023.2,-0,94,10,10000,7.408,,,330,,,,,,,,,,0,wg-a,,,,AAXX 11054 07181 32760 53304 10110 20100 39813 40232 55000 700// 84530 90500=
07181,1999-06-11 07:00:00,12,1023.7,0.7,88,10,6000,7.408,,,340,,,,,,,,,,0,wg-a,,,,AAXX 11074 07181 32756 /3404 10120 20100 39820 40237 53007 700// 86500 90700=
07181,1999-06-11 08:00:00,14,1023.2,0.6,82,11,7000,7.408,,,340,,,,,,,,,,0,wg-a,,,,AAXX 11084 07181 32757 33404 10140 20110 39819 40232 50006 700// 83500 90800=
07181,1999-06-11 09:00:00,17,1022.8,0.1,68,11,9000,11.112,,,340,,,,,,,,,,0,wg-a,,,,AAXX 11094 07181 32559 33406 10170 20110 39818 40228 50001 700// 83800 90900=
07181,1999-06-11 10:00:00,17,1022.7,-0.2,63,10,13000,14.816,,,360,,,,,,,,,,0,wg-a,,,,AAXX 11104 07181 32563 53608 10170 20100 39818 40227 56002 700// 85800 91000=
07181,1999-06-11 11:00:00,18,1022.4,-0.3,56,9,15000,18.52,,,340,,,,,,,,,,0,wg-a,,,,AAXX 11114 07181 32565 /3410 10180 20090 39816 40224 58003 700// 85800 91100=
07181,1999-06-11 12:00:00,18,1022,-0.6,56,9,15000,11.112,,,340,,,,,,,,,,0,wg-a,,,,AAXX 11124 07181 32665 /3406 10180 20090 39812 40220 58006 700// 85800 91200=
07181,1999-06-11 13:00:00,19,1021.6,-0.8,56,10,20000,22.224,,,320,,,,,,,,,,0,wg-a,,,,AAXX 11134 07181 32670 /3212 10190 20100 39810 40216 57008 700// 85200 91300=
07181,1999-06-11 14:00:00,19,1021.5,-0.7,49,8,20000,18.52,,,340,,,,,,,,,,0,wg-a,,,,AAXX 11144 07181 32670 /3410 10190 20080 39809 40215 56007 700// 85200 91400=
07181,1999-06-12 07:00:00,13,1022.6,0.1,82,10,10000,7.408,,,50,,,,,,,,,,0,wg-a,,,,AAXX 12074 07181 32760 50504 10130 20100 39811 40226 53001 700// 85500 90700=
07181,1999-06-12 08:00:00,14,1022.4,0.2,77,10,12000,7.408,,,60,,,,,,,,,,0,wg-a,,,,AAXX 12084 07181 32762 50604 10140 20100 39811 40224 52002 700// 85500 90800=
07181,1999-06-12 09:00:00,16,1021.9,0,72,11,17000,7.408,,,60,,,,,,,,,,0,wg-a,,,,AAXX 12094 07181 32767 30604 10160 20110 39809 40219 50000 700// 83500 90900=
07181,1999-06-12 10:00:00,18,1021.5,-0.3,59,10,17000,11.112,,,50,,,,,,,,,,0,wg-a,,,,AAXX 12104 07181 32567 50506 10180 20100 39808 40215 58003 700// 82130 91000=
07181,1999-06-12 11:00:00,19,1021.1,-0.5,56,10,17000,11.112,,,60,,,,,,,,,,0,wg-a,,,,AAXX 12114 07181 32667 50606 10190 20100 39806 40211 57005 700// 84230 91100=
07181,1999-06-12 12:00:00,19,1021.1,-0.5,52,9,20000,14.816,,,340,,,,,,,,,,0,wg-a,,,,AAXX 12124 07181 32670 63408 10190 20090 39804 40211 58005 700// 84230 91200=
07181,1999-06-12 13:00:00,20,1020.8,-0.5,53,10,20000,14.816,,,20,,,,,,,,,,0,wg-a,,,,AAXX 12134 07181 32670 50208 10200 20100 39803 40208 56005 700// 84230 91300=
07181,1999-06-12 14:00:00,20,1020.6,-0.5,43,7,20000,11.112,,,50,,,,,,,,,,0,wg-a,,,,AAXX 12144 07181 32670 60506 10200 20070 39801 40206 57005 700// 86800 91400=
07181,1999-06-12 15:00:00,19,1020.4,-0.6,52,9,20000,3.704,,,130,,,,,,,,,,0,wg-a,,,,AAXX 12154 07181 32670 71302 10190 20090 39798 40204 58006 700// 878// 91500=
07181,1999-06-12 16:00:00,18,1020.4,-0.6,59,10,20000,7.408,,,130,,,,,,,,,,0,wg-a,,,,AAXX 12164 07181 32670 /1304 10180 20100 39797 40204 56006 700// 86800 91600=
07181,1999-06-12 17:00:00,18,1020.1,-0.6,64,11,20000,11.112,,,130,,,,,,,,,,0,wg-a,,,,AAXX 12174 07181 32670 /1306 10180 20110 39795 40201 56006 700// 86800 91700=
07181,1999-06-12 19:00:00,16,1020.3,-0.4,77,12,20000,3.704,,,130,,,,,,,,,,0,wg-a,,,,AAXX 12194 07181 32770 51302 10160 20120 39793 40203 56004 700// 85500 91900=
07181,1999-06-12 20:00:00,15,1020.6,-0,82,12,20000,0,,,0,,,,,,,,,,0,wg-a,,,,AAXX 12204 07181 32770 60000 10150 20120 39795 40206 55000 700// 86500 92000=
07181,1999-06-12 21:00:00,14,1020.9,0.2,88,12,20000,3.704,,,140,,,,,,,,,,0,wg-a,,,,AAXX 12214 07181 32770 61402 10140 20120 39796 40209 53002 700// 86500 92100=
07181,1999-06-12 22:00:00,13,1021,0.3,88,11,15000,7.408,,,160,,,,,,,,,,0,wg-a,,,,AAXX 12224 07181 32765 41604 10130 20110 39796 40210 51003 700// 82501 92200=
07181,1999-06-12 23:00:00,13,1020.8,-0.2,88,11,13000,11.112,,,160,,,,,,,,,,0,wg-a,,,,AAXX 12234 07181 32763 31606 10130 20110 39793 40208 58002 700// 82501 92300=
07181,1999-06-13 00:00:00,12,1020.4,-0.7,88,10,12000,11.112,,,150,,,,,,,,,,0,wg-a,,,,AAXX 13004 07181 32762 21506 10120 20100 39789 40204 58007 700// 81501 90000=
07181,1999-06-13 01:00:00,12,1020.1,-1,88,10,12000,7.408,,,180,,,,,,,,,,0,wg-a,,,,AAXX 13014 07181 32762 21804 10120 20100 39786 40201 57010 700// 81501 90100=
07181,1999-06-13 02:00:00,10,1020.1,-1,93,9,8000,3.704,,,170,,,,,,,,,,,wg-a,,,,AAXX 13024 07181 32/58 /1702 10100 20090 39783 40201 56010 90200=
07181,1999-06-13 07:00:00,15,1019.4,0.5,88,13,8000,7.408,,,200,,,,,,,,,,0,wg-a,,,,AAXX 13074 07181 32758 /2004 10150 20130 39784 40194 53005 700// 82501 90700=
07181,1999-06-13 08:00:00,16,1019.4,0.6,77,12,12000,11.112,,,320,,,,,,,,,,0,wg-a,,,,AAXX 13084 07181 32562 73206 10160 20120 39786 40194 52006 700// 84801 90800=
07181,1999-06-13 09:00:00,16,1019.8,0.6,77,12,12000,11.112,,,300,,,,,,,,,,0,wg-a,,,,AAXX 13094 07181 32562 73006 10160 20120 39788 40198 52006 700// 84801 90900=
07181,1999-06-13 10:00:00,17,1019.5,0.3,72,12,15000,0,,,0,,,,,,,,,,0,wg-a,,,,AAXX 13104 07181 32565 70000 10170 20120 39787 40195 50003 700// 85801 91000=
07181,1999-06-13 11:00:00,18,1019.2,-0.1,64,11,15000,0,,,0,,,,,,,,,,0,wg-a,,,,AAXX 13114 07181 32565 70000 10180 20110 39785 40192 58001 700// 85801 91100=
07181,1999-06-13 12:00:00,20,1018.5,-0.7,56,11,11000,3.704,,,320,,,,,,,,,,,wg-a,,,,AAXX 13124 07181 32/61 /3202 10200 20110 39781 40185 58007 91200=
07181,1999-06-13 13:00:00,22,1017.6,-1.2,50,11,20000,11.112,,,260,,,,,,,,,,0,wg-a,,,,AAXX 13134 07181 32670 62606 10220 20110 39775 40176 58012 700// 83801 91300=
07181,1999-06-13 14:00:00,22,1017.3,-1.2,46,10,20000,7.408,,,280,,,,,,,,,,0,wg-a,,,,AAXX 13144 07181 32670 72804 10220 20100 39773 40173 56012 700// 84801 91400=
07181,1999-06-13 15:00:00,17,1019,0.2,55,8,20000,35.188,,51.856,290,,,,,,,,,,21,wg-a,,,,AAXX 13154 07181 32670 82919 10170 20080 39783 40190 53002 72162 878// 91500 333 91028=
07181,1999-06-13 16:00:00,15,1020.2,1.6,77,11,20000,18.52,,,280,,,,,,,,,,21,wg-a,,,,AAXX 13164 07181 02670 82810 10150 20110 39791 40202 53016 61000 72162 878// 91600 333 ////=
07181,1999-06-13 17:00:00,14,1020,1.5,82,11,20000,14.816,,,300,,,,,,,,,,0,wg-a,,,,AAXX 13174 07181 32670 83008 10140 20110 39788 40200 50015 700// 878// 91700=
07181,1999-06-13 18:00:00,14,1019.3,-0.1,82,11,20000,3.704,,,20,12.3,22.5,,0,,,,,,1,wg-a,,,,AAXX 13184 07181 12670 80202 10140 20110 39782 40193 58001 60007 70162 878// 91800 333 10225 20123=
07181,1999-06-13 20:00:00,13,1020.7,0.5,88,11,20000,7.408,,,150,,,,,,,,,,0,wg-a,,,,AAXX 13204 07181 32670 71504 10130 20110 39793 40207 53005 700// 86801 92000=
07181,1999-06-13 23:00:00,11,1020.6,-0.3,100,11,20000,7.408,,,170,,,,,,,,,,0,wg-a,,,,AAXX 13234 07181 32670 71704 10110 20110 39790 40206 58003 700// 84801 92300=
07181,1999-06-14 00:00:00,10,1021.1,-0.2,100,10,20000,3.704,,,240,,,,,,,,,,0,wg-a,,,,AAXX 14004 07181 32670 72402 10100 20100 39793 40211 55002 700// 84801 90000=
07181,1999-06-14 01:00:00,10,1021.2,0.1,100,10,20000,11.112,,,240,,,,,,,,,,0,wg-a,,,,AAXX 14014 07181 32670 72406 10100 20100 39794 40212 53001 700// 84801 90100=
07181,1999-06-14 02:00:00,10,1021.3,0.4,100,10,20000,7.408,,,310,,,,,,,,,,0,wg-a,,,,AAXX 14024 07181 32670 73104 10100 20100 39794 40213 51004 700// 84801 90200=
07181,1999-06-14 03:00:00,10,1021,-0.1,100,10,14000,7.408,,,320,,,,,,,,,,0,wg-a,,,,AAXX 14034 07181 32764 73204 10100 20100 39792 40210 58001 700// 83531 90300=
07181,1999-06-14 04:00:00,10,1020.8,-0.4,100,10,12000,3.704,,,320,,,,,,,,,,0,wg-a,,,,AAXX 14044 07181 32762 73202 10100 20100 39790 40208 58004 700// 83531 90400=
07181,1999-06-14 05:00:00,11,1020.9,-0.2,100,11,12000,7.408,,,140,,,,,,,,,,0,wg-a,,,,AAXX 14054 07181 32762 71404 10110 20110 39792 40209 55002 700// 84531 90500=
07181,1999-06-14 06:00:00,11,1021.1,0.3,100,11,11000,3.704,,,300,9.8,14.6,,,,,,,,0,wg-a,,,,AAXX 14064 07181 12761 73002 10110 20110 39795 40211 53003 60004 700// 8453/ 90600 333 10146 20098=
07181,1999-06-14 08:00:00,15,1020.8,0.5,88,13,11000,3.704,,,30,,,,,,,,,,0,wg-a,,,,AAXX 14084 07181 32461 70302 10150 20130 39797 40208 53005 700// 878// 90800=
07181,1999-06-14 09:00:00,15,1020.8,0.3,88,13,8000,11.112,,,360,,,,,,,,,,0,wg-a,,,,AAXX 14094 07181 32458 73606 10150 20130 39798 40208 53003 700// 878// 90900=
07181,1999-06-14 10:00:00,15,1020.9,0.6,94,14,6000,11.112,,,340,,,,,,,,,,0,wg-a,,,,AAXX 14104 07181 32456 73406 10150 20140 39799 40209 51006 700// 878// 91000=
07181,1999-06-14 11:00:00,17,1020.6,0.1,82,14,8000,7.408,,,350,,,,,,,,,,0,wg-a,,,,AAXX 14114 07181 32458 73504 10170 20140 39798 40206 50001 700// 878// 91100=
07181,1999-06-14 13:00:00,17,1020.5,-0.1,88,15,8000,11.112,,,20,,,0,,,,,,,25,wg-a,,,,AAXX 14134 07181 12558 70206 10170 20150 39798 40205 56001 60005 72586 878// 91300=
07181,1999-06-14 14:00:00,19,1019.9,-0.4,73,14,8000,11.112,,,80,,,,,,,,,,0,wg-a,,,,AAXX 14144 07181 32558 70806 10190 20140 39794 40199 58004 700// 879// 91400=
07181,1999-06-14 17:00:00,16,1020.5,0.2,88,14,11000,7.408,,,320,,,,,,,,,,0,wg-a,,,,AAXX 14174 07181 32561 73204 10160 20140 39796 40205 52002 700// 84802 91700=
07181,1999-06-14 18:00:00,16,1020.8,0.7,88,14,12000,3.704,,,110,11.4,20.3,,,,,,,,1,wg-a,,,,AAXX 14184 07181 32662 71102 10160 20140 39799 40208 51007 70198 8483/ 91800 333 10203 20114=
07181,1999-06-14 19:00:00,16,1021.1,0.4,88,14,12000,11.112,,,330,,,,,,,,,,0,wg-a,,,,AAXX 14194 07181 32762 73306 10160 20140 39802 40211 53004 700// 8453/ 91900=
07181,1999-06-14 20:00:00,15,1021.8,1.1,94,14,12000,11.112,,,360,,,,,,,,,,0,wg-a,,,,AAXX 14204 07181 32762 73606 10150 20140 39807 40218 53011 700// 8453/ 92000=
07181,1999-06-14 23:00:00,14,1022.8,0.7,94,13,12000,7.408,,,360,,,,,,,,,,0,wg-a,,,,AAXX 14234 07181 32762 43604 10140 20130 39814 40228 51007 700// 82530 92300=
07181,1999-06-15 00:00:00,13,1022.7,0.2,100,13,0,7.408,,,360,,,,,,,,,,,wg-a,,,,AAXX 15004 07181 32/// /3604 10130 20130 39813 40227 50002 90000=
07181,1999-06-15 02:00:00,13,1022.8,-0.1,100,13,500,3.704,,,360,,,,,,,,,,0,wg-a,,,,AAXX 15024 07181 32700 43602 10130 20130 39813 40228 57001 700// 82530 90200=
07181,1999-06-15 05:00:00,12,1023.8,0.9,100,12,800,3.704,,,350,,,,,,,,,,42,wg-a,,,,AAXX 15054 07181 32/08 23502 10120 20120 39822 40238 53009 74244 81031 90500=
07181,1999-06-15 06:00:00,13,1024,1.2,100,13,2500,3.704,,,340,11,16.8,,,,,2,,,10,wg-a,,,,AAXX 15064 07181 12225 33402 10130 20130 39825 40240 52012 60024 71041 81601 90600 333 10168 20110=
07181,1999-06-15 07:00:00,15,1023.9,1.2,100,15,6000,7.408,,,350,,,,,,,,,,0,wg-a,,,,AAXX 15074 07181 32256 33504 10150 20150 39828 40239 51012 700// 81601 90700=
07181,1999-06-15 08:00:00,18,1024,1.1,73,13,9000,11.112,,,30,,,,,,,,,,0,wg-a,,,,AAXX 15084 07181 32/59 30306 10180 20130 39833 40240 53011 700// 80001 90800=
07181,1999-06-15 10:00:00,22,1023.3,0.2,53,12,15000,14.816,,,50,,,,,,,,,,0,wg-a,,,,AAXX 15104 07181 32665 /0508 10220 20120 39830 40233 50002 700// 81100 91000=
07181,1999-06-15 11:00:00,22,1023.2,-0.4,50,11,15000,22.224,,,40,,,,,,,,,,0,wg-a,,,,AAXX 15114 07181 32665 20412 10220 20110 39829 40232 57004 700// 82100 91100=
07181,1999-06-15 12:00:00,23,1023,-0.4,44,10,15000,18.52,,,60,,,,,,,,,,0,wg-a,,,,AAXX 15124 07181 32665 20610 10230 20100 39828 40230 56004 700// 82100 91200=
07181,1999-06-15 13:00:00,23,1022.6,-0.5,47,11,15000,18.52,,,50,,,,,,,,,,0,wg-a,,,,AAXX 15134 07181 32665 30510 10230 20110 39825 40226 58005 700// 83200 91300=
07181,1999-06-15 16:00:00,23,1021.5,-1,41,9,15000,18.52,,,40,,,,,,,,,,0,wg-a,,,,AAXX 15164 07181 32765 40410 10230 20090 39815 40215 58010 700// 84200 91600=
07181,1999-06-15 17:00:00,23,1021.5,-0.9,44,10,15000,14.816,,,50,,,,,,,,,,0,wg-a,,,,AAXX 15174 07181 32765 40508 10230 20100 39815 40215 56009 700// 83201 91700=
07181,1999-06-15 18:00:00,22,1022,-0.1,46,10,15000,11.112,,,50,13.2,23.7,,,,,,,,0,wg-a,,,,AAXX 15184 07181 32765 40506 10220 20100 39818 40220 55001 700// 83501 91800 333 10237 20132=
07181,1999-06-15 19:00:00,20,1022.4,0.4,53,10,15000,7.408,,,70,,,,,,,,,,0,wg-a,,,,AAXX 15194 07181 32765 40704 10200 20100 39819 40224 53004 700// 83501 91900=
07181,1999-06-15 20:00:00,17,1023.2,0.8,63,10,15000,7.408,,,100,,,,,,,,,,0,wg-a,,,,AAXX 15204 07181 32765 41004 10170 20100 39823 40232 53008 700// 83501 92000=
07181,1999-06-15 21:00:00,16,1023.7,0.8,68,10,15000,7.408,,,110,,,,,,,,,,0,wg-a,,,,AAXX 15214 07181 32765 41104 10160 20100 39826 40237 53008 700// 83501 92100=
07181,1999-06-15 22:00:00,14,1024.1,0.9,77,10,12000,3.704,,,330,,,,,,,,,,0,wg-a,,,,AAXX 15224 07181 32762 33302 10140 20100 39828 40241 51009 700// 83500 92200=
07181,1999-06-15 23:00:00,14,1024.2,0.5,77,10,12000,7.408,,,360,,,,,,,,,,0,wg-a,,,,AAXX 15234 07181 32762 33604 10140 20100 39828 40242 51005 700// 83500 92300=
07181,1999-06-16 00:00:00,12,1024.3,0.1,94,11,12000,3.704,,,50,,,,,,,,,,0,wg-a,,,,AAXX 16004 07181 32762 30502 10120 20110 39827 40243 50001 700// 83500 90000=
07181,1999-06-16 01:00:00,12,1024.2,-0.3,94,11,12000,3.704,,,350,,,,,,,,,,0,wg-a,,,,AAXX 16014 07181 32762 33502 10120 20110 39825 40242 58003 700// 83500 90100=
07181,1999-06-16 02:00:00,11,1024.1,-0.5,94,10,10000,3.704,,,360,,,0,,,,,,,0,wg-a,,,,AAXX 16024 07181 12760 33602 10110 20100 39823 40241 58005 60005 700// 83500 90200=
07181,1999-06-16 03:00:00,11,1024,-0.5,100,11,500,7.408,,,340,,,,,,,,,,0,wg-a,,,,AAXX 16034 07181 32/00 03404 10110 20110 39822 40240 56005 700// 80000 90300=
07181,1999-06-16 04:00:00,10,1024.1,-0.3,100,10,4000,3.704,,,320,,,,,,,,,,40,wg-a,,,,AAXX 16044 07181 32/40 03202 10100 20100 39822 40241 56003 74000 80000 90400=
07181,1999-06-16 06:00:00,14,1023.3,-0.2,88,12,8000,3.704,,,340,10.4,22,,,,,,,,0,wg-a,,,,AAXX 16064 07181 12/58 /3402 10140 20120 39820 40233 58002 60004 700// 80001 90600 333 10220 20104=
07181,1999-06-16 07:00:00,16,1023.3,0.1,82,13,12000,7.408,,,320,,,,,,,,,,0,wg-a,,,,AAXX 16074 07181 32/62 13204 10160 20130 39823 40233 53001 700// 80001 90700=
07181,1999-06-16 08:00:00,19,1022.7,-0.1,60,11,13000,7.408,,,70,,,,,,,,,,0,wg-a,,,,AAXX 16084 07181 32/63 10704 10190 20110 39821 40227 57001 700// 80001 90800=
07181,1999-06-16 10:00:00,22,1022.1,-0.4,46,10,20000,11.112,,,60,,,,,,,,,,0,wg-a,,,,AAXX 16104 07181 32670 20606 10220 20100 39819 40221 57004 700// 82100 91000=
07181,1999-06-16 11:00:00,22,1022,-0.3,46,10,20000,11.112,,,60,,,,,,,,,,0,wg-a,,,,AAXX 16114 07181 32670 50606 10220 20100 39818 40220 58003 700// 85200 91100=
07181,1999-06-16 12:00:00,22,1021.8,-0.5,46,10,20000,14.816,,,30,,,,,,,,,,0,wg-a,,,,AAXX 16124 07181 32670 40308 10220 20100 39816 40218 57005 700// 84200 91200=
07181,1999-06-16 13:00:00,23,1020.9,-1,44,10,20000,18.52,,,30,,,,,,,,,,0,wg-a,,,,AAXX 16134 07181 32670 40310 10230 20100 39809 40209 58010 700// 84200 91300=
07181,1999-06-16 14:00:00,23,1020.9,-1,44,10,20000,3.704,,,50,,,,,,,,,,0,wg-a,,,,AAXX 16144 07181 32670 40502 10230 20100 39808 40209 56010 700// 84800 91400=
07181,1999-06-16 15:00:00,22,1021.2,-0.6,50,11,20000,11.112,,,60,,,,,,,,,,0,wg-a,,,,AAXX 16154 07181 32670 50606 10220 20110 39810 40212 55006 700// 85800 91500=
07181,1999-06-16 16:00:00,23,1020.5,-0.4,47,11,20000,7.408,,,80,,,,,,,,,,0,wg-a,,,,AAXX 16164 07181 32670 40804 10230 20110 39805 40205 58004 700// 84800 91600=
07181,1999-06-16 17:00:00,23,1020.5,-0.4,44,10,20000,14.816,,,50,,,,,,,,,,0,wg-a,,,,AAXX 16174 07181 32770 20508 10230 20100 39804 40205 58004 700// 82800 91700=
07181,1999-06-16 18:00:00,22,1020.5,-0.6,50,11,20000,11.112,,,40,13.9,23.5,,,,,,,,0,wg-a,,,,AAXX 16184 07181 32770 10406 10220 20110 39804 40205 56006 700// 81500 91800 333 10235 20139=
07181,1999-06-16 19:00:00,21,1020.7,-0.1,53,11,20000,3.704,,,60,,,,,,,,,,0,wg-a,,,,AAXX 16194 07181 32770 10602 10210 20110 39804 40207 56001 700// 81500 91900=
07181,1999-06-16 20:00:00,18,1021.4,0.3,68,12,20000,7.408,,,60,,,,,,,,,,0,wg-a,,,,AAXX 16204 07181 32770 10604 10180 20120 39807 40214 53003 700// 81500 92000=
07181,1999-06-16 22:00:00,15,1022.1,0.5,77,11,10000,3.704,,,120,,,,,,,,,,,wg-a,,,,AAXX 16224 07181 32/60 /1202 10150 20110 39809 40221 50005 92200=
07181,1999-06-16 23:00:00,14,1022.2,0.1,82,11,20000,3.704,,,250,,,,,,,,,,0,wg-a,,,,AAXX 16234 07181 32770 12502 10140 20110 39808 40222 50001 700// 81500 92300=
07181,1999-06-17 00:00:00,12,1022.2,-0.4,88,10,15000,0,,,0,,,,,,,,,,0,wg-a,,,,AAXX 17004 07181 32/65 10000 10120 20100 39806 40222 58004 700// 80001 90000=
07181,1999-06-17 01:00:00,12,1021.9,-0.6,88,10,13000,0,,,0,,,,,,,,,,0,wg-a,,,,AAXX 17014 07181 32/63 10000 10120 20100 39803 40219 58006 700// 80001 90100=
07181,1999-06-17 02:00:00,11,1021.7,-0.8,94,10,12000,0,,,0,,,,,,,,,,0,wg-a,,,,AAXX 17024 07181 32/62 10000 10110 20100 39800 40217 58008 700// 80001 90200=
07181,1999-06-17 03:00:00,11,1021.4,-0.9,94,10,10000,0,,,0,,,,,,,,,,0,wg-a,,,,AAXX 17034 07181 32/60 00000 10110 20100 39797 40214 57009 700// 80000 90300=
07181,1999-06-17 04:00:00,10,1021.5,-0.6,100,10,9000,3.704,,,280,,,,,,,,,,11,wg-a,,,,AAXX 17044 07181 32259 /2802 10100 20100 39797 40215 56006 71100 81600 90400=
07181,1999-06-17 05:00:00,12,1021.5,-0.1,94,11,11000,0,,,0,,,,,,,,,,11,wg-a,,,,AAXX 17054 07181 32261 /0000 10120 20110 39799 40215 55001 71100 81600 90500=
07181,1999-06-17 06:00:00,15,1020.9,0.1,88,13,11000,0,,,0,10.1,22.1,,,,,,,,0,wg-a,,,,AAXX 17064 07181 12261 20000 10150 20130 39798 40209 50001 60004 700// 81630 90600 333 10221 20101=
07181,1999-06-17 07:00:00,19,1020.3,0.1,68,13,11000,3.704,,,80,,,,,,,,,,0,wg-a,,,,AAXX 17074 07181 32261 20802 10190 20130 39798 40203 51001 700// 81680 90700=
07181,1999-06-17 08:00:00,21,1020.2,-0,60,13,15000,3.704,,,40,,,,,,,,,,0,wg-a,,,,AAXX 17084 07181 32/65 20402 10210 20130 39799 40202 55000 700// 82080 90800=
07181,1999-06-17 11:00:00,23,1019.4,-0.4,50,12,25000,7.408,,,330,,,,,,,,,,0,wg-a,,,,AAXX 17114 07181 32675 33304 10230 20120 39795 40194 57004 700// 82201 91100=
07181,1999-06-17 13:00:00,25,1018.9,-0.5,36,9,25000,7.408,,,290,,,,,,,,,,0,wg-a,,,,AAXX 17134 07181 32675 42904 10250 20090 39792 40189 56005 700// 8/800 91300=
07181,1999-06-17 14:00:00,25,1018.7,-0.5,41,11,25000,11.112,,,320,,,,,,,,,,0,wg-a,,,,AAXX 17144 07181 32675 63206 10250 20110 39790 40187 57005 700// 86800 91400=
07181,1999-06-17 15:00:00,24,1018.8,-0.4,47,12,25000,11.112,,,320,,,,,,,,,,0,wg-a,,,,AAXX 17154 07181 32675 73206 10240 20120 39789 40188 57004 700// 86802 91500=
07181,1999-06-17 16:00:00,24,1018.3,-0.7,57,15,25000,11.112,,,300,,,,,,,,,,0,wg-a,,,,AAXX 17164 07181 32675 73006 10240 20150 39785 40183 58007 700// 86802 91600=
07181,1999-06-17 17:00:00,24,1017.7,-1,50,13,25000,14.816,,,300,,,,,,,,,,0,wg-a,,,,AAXX 17174 07181 32775 63008 10240 20130 39780 40177 58010 700// 84802 91700=
07181,1999-06-17 18:00:00,24,1017.7,-1,54,14,25000,18.52,,,300,14.9,25.9,,,,,,,,0,wg-a,,,,AAXX 17184 07181 32675 63010 10240 20140 39779 40177 56010 700// 84802 91800 333 10259 20149=
07181,1999-06-17 19:00:00,21,1018.4,-0.2,64,14,25000,18.52,,,320,,,,,,,,,,0,wg-a,,,,AAXX 17194 07181 32775 63210 10210 20140 39783 40184 55002 700// 82802 91900=
07181,1999-06-17 20:00:00,19,1019.2,0.7,73,14,18000,11.112,,,310,,,,,,,,,,0,wg-a,,,,AAXX 17204 07181 32/68 63106 10190 20140 39787 40192 53007 700// 83032 92000=
07181,1999-06-17 21:00:00,18,1019.7,1.1,77,14,15000,11.112,,,300,,,,,,,,,,0,wg-a,,,,AAXX 17214 07181 32/65 43006 10180 20140 39790 40197 51011 700// 82032 92100=
07181,1999-06-17 22:00:00,16,1020.2,1,82,13,15000,7.408,,,320,,,,,,,,,,0,wg-a,,,,AAXX 17224 07181 32/65 43204 10160 20130 39793 40202 51010 700// 82032 92200=
07181,1999-06-17 23:00:00,16,1020.2,0.6,82,13,15000,18.52,,,340,,,,,,,,,,0,wg-a,,,,AAXX 17234 07181 32/65 43410 10160 20130 39793 40202 51006 700// 82032 92300=
07181,1999-06-18 00:00:00,15,1020.7,0.6,88,13,15000,18.52,,,340,,,,,,,,,,0,wg-a,,,,AAXX 18004 07181 32/65 43410 10150 20130 39796 40207 52006 700// 82032 90000=
07181,1999-06-18 02:00:00,13,1021.2,0.4,88,11,15000,11.112,,,360,,,,,,,,,,0,wg-a,,,,AAXX 18024 07181 32/65 43606 10130 20110 39797 40212 51004 700// 82032 90200=
07181,1999-06-18 03:00:00,12,1021.4,0.2,88,10,10000,11.112,,,360,,,,,,,,,,0,wg-a,,,,AAXX 18034 07181 32/60 73606 10120 20100 39798 40214 53002 700// 85032 90300=
07181,1999-06-18 04:00:00,11,1021.9,0.6,94,10,10000,7.408,,,360,,,,,,,,,,0,wg-a,,,,AAXX 18044 07181 32760 73604 10110 20100 39802 40219 53006 700// 81532 90400=
07181,1999-06-18 05:00:00,12,1022.1,0.8,88,10,12000,18.52,,,340,,,,,,,,,,0,wg-a,,,,AAXX 18054 07181 32762 73410 10120 20100 39805 40221 53008 700// 81532 90500=
07181,1999-06-18 07:00:00,13,1022.3,0.7,82,10,15000,18.52,,,10,,,,,,,,,,0,wg-a,,,,AAXX 18074 07181 32465 70110 10130 20100 39809 40223 51007 700// 82802 90700=
07181,1999-06-18 08:00:00,14,1022.5,0.7,72,9,15000,14.816,,,360,,,,,,,,,,0,wg-a,,,,AAXX 18084 07181 32565 73608 10140 20090 39812 40225 52007 700// 82802 90800=
07181,1999-06-18 09:00:00,15,1022.2,0.3,67,9,11000,14.816,,,10,,,,,,,,,,,wg-a,,,,AAXX 18094 07181 32/61 /0108 10150 20090 39811 40222 50003 90900=
07181,1999-06-18 10:00:00,16,1022.1,0.2,63,9,20000,22.224,,,340,,,,,,,,,,0,wg-a,,,,AAXX 18104 07181 32570 73412 10160 20090 39811 40221 51002 700// 84202 91000=
07181,1999-06-18 11:00:00,17,1022.1,-0,52,7,20000,14.816,,,350,,,,,,,,,,0,wg-a,,,,AAXX 18114 07181 32670 73508 10170 20070 39812 40221 55000 700// 84202 91100=
07181,1999-06-18 12:00:00,18,1021.8,-0.1,49,7,20000,18.52,,,350,,,,,,,,,,0,wg-a,,,,AAXX 18124 07181 32670 73510 10180 20070 39810 40218 58001 700// 84202 91200=
07181,1999-06-18 13:00:00,18,1021.6,-0.2,49,7,20000,14.816,,,340,,,,,,,,,,0,wg-a,,,,AAXX 18134 07181 32670 73408 10180 20070 39809 40216 58002 700// 84202 91300=
07181,1999-06-18 14:00:00,20,1021,-0.7,46,8,20000,18.52,,,340,,,,,,,,,,0,wg-a,,,,AAXX 18144 07181 32770 73410 10200 20080 39805 40210 58007 700// 84202 91400=
07181,1999-06-18 15:00:00,20,1020.8,-0.7,43,7,20000,18.52,,,340,,,,,,,,,,0,wg-a,,,,AAXX 18154 07181 32770 73410 10200 20070 39803 40208 58007 700// 84202 91500=
07181,1999-06-18 16:00:00,19,1020.5,-1,43,6,10000,14.816,,,30,,,,,,,,,,,wg-a,,,,AAXX 18164 07181 32/60 /0308 10190 20060 39799 40205 57010 91600=
07181,1999-06-18 17:00:00,19,1020.5,-0.6,46,7,20000,11.112,,,40,,,,,,,,,,0,wg-a,,,,AAXX 18174 07181 32770 70406 10190 20070 39799 40205 56006 700// 8213/ 91700=
07181,1999-06-18 18:00:00,18,1020.7,-0.3,49,7,20000,11.112,,,40,12.2,20,,,,,,,,0,wg-a,,,,AAXX 18184 07181 32770 70406 10180 20070 39800 40207 55003 700// 8213/ 91800 333 10200 20122=
07181,1999-06-18 19:00:00,17,1021.1,0.3,48,6,20000,7.408,,,40,,,,,,,,,,0,wg-a,,,,AAXX 18194 07181 32770 70404 10170 20060 39802 40211 53003 700// 8213/ 91900=
07181,1999-06-18 20:00:00,16,1021.6,0.6,51,6,20000,7.408,,,50,,,,,,,,,,0,wg-a,,,,AAXX 18204 07181 32770 70504 10160 20060 39805 40216 53006 700// 82532 92000=
07181,1999-06-18 21:00:00,13,1022.6,1.1,67,7,20000,11.112,,,20,,,,,,,,,,0,wg-a,,,,AAXX 18214 07181 32770 70206 10130 20070 39811 40226 53011 700// 81532 92100=
07181,1999-06-18 22:00:00,12,1023,1.1,71,7,20000,7.408,,,20,,,,,,,,,,0,wg-a,,,,AAXX 18224 07181 32770 30204 10120 20070 39813 40230 51011 700// 81502 92200=
07181,1999-06-18 23:00:00,11,1023,0.7,71,6,10000,3.704,,,320,,,,,,,,,,,wg-a,,,,AAXX 18234 07181 32/60 /3202 10110 20060 39812 40230 50007 92300=
07181,1999-06-19 00:00:00,10,1023.2,0.1,76,6,0,7.408,,,30,,,,,,,,,,,wg-a,,,,AAXX 19004 07181 32/// /0304 10100 20060 39812 40232 51001 90000=
07181,1999-06-19 02:00:00,8,1023.3,-0.2,81,5,10000,3.704,,,340,,,,,,,,,,,wg-a,,,,AAXX 19024 07181 32/60 /3402 10080 20050 39810 40233 58002 90200=
07181,1999-06-19 03:00:00,7,1023.4,-0.2,93,6,15000,7.408,,,350,,,,,,,,,,0,wg-a,,,,AAXX 19034 07181 32/65 03504 10070 20060 39810 40234 56002 700// 80000 90300=
07181,1999-06-19 04:00:00,7,1023.5,-0.1,93,6,15000,3.704,,,340,,,,,,,,,,0,wg-a,,,,AAXX 19044 07181 32/65 03402 10070 20060 39810 40235 56001 700// 80000 90400=
07181,1999-06-19 05:00:00,8,1023.6,0.3,93,7,10000,3.704,,,350,,,,,,,,,,,wg-a,,,,AAXX 19054 07181 32/60 /3502 10080 20070 39813 40236 53003 90500=
07181,1999-06-19 06:00:00,10,1023.4,0.4,82,7,15000,3.704,,,350,6.3,18,,,,,,,,0,wg-a,,,,AAXX 19064 07181 32/65 03502 10100 20070 39814 40234 53004 700// 80000 90600 333 10180 20063=
07181,1999-06-19 07:00:00,13,1023.1,0.5,72,8,15000,7.408,,,350,,,,,,,,,,0,wg-a,,,,AAXX 19074 07181 32/65 13504 10130 20080 39815 40231 51005 700// 80001 90700=
07181,1999-06-19 08:00:00,15,1022.7,0.2,67,9,15000,11.112,,,350,,,,,,,,,,0,wg-a,,,,AAXX 19084 07181 32465 /3506 10150 20090 39815 40227 51002 700// 81101 90800=
07181,1999-06-19 09:00:00,17,1022.4,0,48,6,15000,14.816,,,30,,,,,,,,,,0,wg-a,,,,AAXX 19094 07181 32565 20308 10170 20060 39814 40224 50000 700// 82101 90900=
07181,1999-06-19 10:00:00,18,1022,-0.3,49,7,15000,14.816,,,10,,,,,,,,,,0,wg-a,,,,AAXX 19104 07181 32565 20108 10180 20070 39812 40220 58003 700// 82101 91000=
07181,1999-06-19 11:00:00,19,1021.6,-0.6,43,6,15000,11.112,,,360,,,,,,,,,,0,wg-a,,,,AAXX 19114 07181 32665 /3606 10190 20060 39809 40216 58006 700// 81101 91100=
07181,1999-06-19 12:00:00,19,1021.2,-0.8,40,5,15000,11.112,,,10,,,,,,,,,,0,wg-a,,,,AAXX 19124 07181 32665 /0106 10190 20050 39806 40212 58008 700// 81101 91200=
07181,1999-06-19 13:00:00,20,1020.8,-0.9,43,7,20000,11.112,,,40,,,,,,,,,,0,wg-a,,,,AAXX 19134 07181 32770 20406 10200 20070 39803 40208 57009 700// 82101 91300=
07181,1999-06-19 14:00:00,21,1020.3,-1,38,6,20000,7.408,,,300,,,,,,,,,,0,wg-a,,,,AAXX 19144 07181 32770 23004 10210 20060 39799 40203 58010 700// 82101 91400=
07181,1999-06-19 15:00:00,20,1020.3,-0.8,43,7,20000,14.816,,,50,,,,,,,,,,0,wg-a,,,,AAXX 19154 07181 32770 40508 10200 20070 39798 40203 56008 700// 84100 91500=
07181,1999-06-19 16:00:00,20,1020.1,-0.7,43,7,20000,14.816,,,360,,,,,,,,,,0,wg-a,,,,AAXX 19164 07181 32770 43608 10200 20070 39796 40201 56007 700// 84100 91600=
07181,1999-06-19 17:00:00,20,1019.8,-0.6,43,7,20000,11.112,,,30,,,,,,,,,,0,wg-a,,,,AAXX 19174 07181 32770 40306 10200 20070 39793 40198 58006 700// 84400 91700=
07181,1999-06-19 19:00:00,18,1019.6,-0.7,56,9,20000,3.704,,,160,,,,,,,,,,0,wg-a,,,,AAXX 19194 07181 32770 21602 10180 20090 39789 40196 56007 700// 81501 91900=
07181,1999-06-19 20:00:00,16,1020.1,-0.1,63,9,20000,7.408,,,180,,,,,,,,,,0,wg-a,,,,AAXX 19204 07181 32/70 21804 10160 20090 39792 40201 55001 700// 80001 92000=
07181,1999-06-19 21:00:00,14,1020.6,0.2,72,9,20000,7.408,,,200,,,,,,,,,,0,wg-a,,,,AAXX 19214 07181 32/70 22004 10140 20090 39793 40206 53002 700// 80001 92100=
07181,1999-06-19 22:00:00,13,1020.7,0.4,72,8,20000,7.408,,,190,,,,,,,,,,0,wg-a,,,,AAXX 19224 07181 32/70 21904 10130 20080 39793 40207 51004 700// 80001 92200=
07181,1999-06-19 23:00:00,12,1020.5,-0.2,76,8,20000,7.408,,,220,,,,,,,,,,0,wg-a,,,,AAXX 19234 07181 32/70 22204 10120 20080 39790 40205 58002 700// 80001 92300=
07181,1999-06-20 01:00:00,12,1019.7,-1.2,76,8,20000,14.816,,,220,,,,,,,,,,0,wg-a,,,,AAXX 20014 07181 32/70 22208 10120 20080 39781 40197 58012 700// 80001 90100=
07181,1999-06-20 02:00:00,12,1019.2,-1.3,76,8,20000,11.112,,,200,,,,,,,,,,0,wg-a,,,,AAXX 20024 07181 32/70 22006 10120 20080 39777 40192 57013 700// 80001 90200=
07181,1999-06-20 03:00:00,11,1018.9,-1.3,82,8,15000,11.112,,,180,,,,,,,,,,0,wg-a,,,,AAXX 20034 07181 32/65 21806 10110 20080 39773 40189 56013 700// 80001 90300=
07181,1999-06-20 04:00:00,10,1019.2,-0.7,87,8,15000,7.408,,,220,,,,,,,,,,0,wg-a,,,,AAXX 20044 07181 32/65 22204 10100 20080 39774 40192 55007 700// 80001 90400=
07181,1999-06-20 05:00:00,12,1018.6,-0.6,76,8,15000,11.112,,,210,,,,,,,,,,0,wg-a,,,,AAXX 20054 07181 32/65 22106 10120 20080 39771 40186 56006 700// 80001 90500=
07181,1999-06-20 06:00:00,14,1018.2,-0.3,72,9,15000,14.816,,,220,9.9,18.6,,,,,,,,0,wg-a,,,,AAXX 20064 07181 12/65 52208 10140 20090 39770 40182 58003 60004 700// 80001 90600 333 10186 20099=
07181,1999-06-20 08:00:00,18,1017.3,-0.4,56,9,15000,14.816,,,230,,,,,,,,,,0,wg-a,,,,AAXX 20084 07181 32/65 72308 10180 20090 39767 40173 57004 700// 83031 90800=
07181,1999-06-20 09:00:00,19,1017.2,-0.3,52,9,15000,18.52,,,240,,,,,,,,,,0,wg-a,,,,AAXX 20094 07181 32/65 72410 10190 20090 39767 40172 56003 700// 83031 90900=
07181,1999-06-20 10:00:00,19,1016.5,-0.7,49,8,15000,22.224,,,220,,,,,,,,,,0,wg-a,,,,AAXX 20104 07181 32/65 72212 10190 20080 39761 40165 58007 700// 84031 91000=
07181,1999-06-20 11:00:00,20,1016.2,-0.8,49,9,15000,25.928,,,240,,,,,,,,,,0,wg-a,,,,AAXX 20114 07181 32/65 72414 10200 20090 39759 40162 58008 700// 84031 91100=
07181,1999-06-20 12:00:00,18,1016.1,-1.2,52,8,15000,22.224,,,240,,,,,,,,,,0,wg-a,,,,AAXX 20124 07181 32/65 72412 10180 20080 39755 40161 56012 700// 85031 91200=
07181,1999-06-20 13:00:00,18,1015.7,-0.9,64,11,15000,25.928,,,240,,,,,,,,,,0,wg-a,,,,AAXX 20134 07181 32665 72414 10180 20110 39752 40157 58009 700// 83231 91300=
07181,1999-06-20 14:00:00,18,1015.3,-1,68,12,15000,25.928,,,260,,,,,,,,,,0,wg-a,,,,AAXX 20144 07181 32665 72614 10180 20120 39749 40153 56010 700// 83231 91400=
07181,1999-06-20 15:00:00,18,1015.2,-0.8,68,12,15000,25.928,,,270,,,,,,,,,,0,wg-a,,,,AAXX 20154 07181 32665 72714 10180 20120 39747 40152 56008 700// 83231 91500=
07181,1999-06-20 16:00:00,17,1015,-0.8,72,12,15000,22.224,,,260,,,,,,,,,,0,wg-a,,,,AAXX 20164 07181 32665 72612 10170 20120 39744 40150 57008 700// 872// 91600=
07181,1999-06-20 21:00:00,14,1013.9,-0.9,94,13,8000,22.224,,,230,,,,1,,,,,,21,wg-a,,,,AAXX 20214 07181 12258 72312 10140 20130 39729 40139 56009 60017 72162 878// 92100=
07181,1999-06-20 22:00:00,14,1013.3,-0.7,94,13,12000,22.224,,,230,,,,,,,,,,0,wg-a,,,,AAXX 20224 07181 32262 72312 10140 20130 39724 40133 58007 700// 878// 92200=
07181,1999-06-20 23:00:00,14,1012.7,-1.4,94,13,8000,22.224,,,240,,,1,,,,,,,60,wg-a,,,,AAXX 20234 07181 12358 72412 10140 20130 39718 40127 58014 60015 76062 878// 92300=
07181,1999-06-21 00:00:00,12,1012.7,-1.3,100,12,8000,11.112,,,270,,,,,,,,,,,wg-a,,,,AAXX 21004 07181 32/58 /2706 10120 20120 39716 40127 56013 90000=
07181,1999-06-21 01:00:00,12,1013,-0.6,100,12,12000,18.52,,,280,,,0,,,,,,,21,wg-a,,,,AAXX 21014 07181 12362 72810 10120 20120 39718 40130 55006 60005 72162 875// 90100=
07181,1999-06-21 02:00:00,11,1012.6,-0.5,94,10,15000,18.52,,,290,,,,,,,,,,0,wg-a,,,,AAXX 21024 07181 32465 62910 10110 20100 39713 40126 58005 700// 86500 90200=
07181,1999-06-21 03:00:00,11,1013.1,0.1,94,10,15000,18.52,,,300,,,,0,,,,,,3,wg-a,,,,AAXX 21034 07181 12465 73010 10110 20100 39717 40131 53001 60007 70362 87500 90300=
07181,1999-06-21 04:00:00,10,1013.3,-0,100,10,15000,11.112,,,300,,,,,,,,,,0,wg-a,,,,AAXX 21044 07181 32465 73006 10100 20100 39718 40133 55000 700// 875// 90400=
07181,1999-06-21 05:00:00,10,1013.8,1,100,10,6000,11.112,,,300,,,,,,,,,,0,wg-a,,,,AAXX 21054 07181 32256 73006 10100 20100 39723 40138 53010 700// 875// 90500=
07181,1999-06-21 07:00:00,12,1014.9,1.8,88,10,10000,14.816,,,310,,,,,,,,,,0,wg-a,,,,AAXX 21074 07181 32260 73108 10120 20100 39736 40149 53018 700// 878// 90700=
07181,1999-06-21 08:00:00,14,1015,1.6,82,11,12000,11.112,,,270,,,,,,,,,,0,wg-a,,,,AAXX 21084 07181 32462 72706 10140 20110 39739 40150 51016 700// 878// 90800=
07181,1999-06-21 09:00:00,12,1015.4,1.3,88,10,8000,22.224,,,280,,,,,,,,,,25,wg-a,,,,AAXX 21094 07181 02458 72812 10120 20100 39741 40154 51013 61000 72586 878// 90900 333 ////=
07181,1999-06-21 10:00:00,14,1015.1,0.4,82,11,15000,14.816,,,260,,,,,,,,,,0,wg-a,,,,AAXX 21104 07181 32465 72608 10140 20110 39740 40151 50004 700// 878// 91000=
07181,1999-06-21 12:00:00,17,1014.3,-0.4,48,6,15000,25.928,,,300,,,,,,,,,,1,wg-a,,,,AAXX 21124 07181 32465 73014 10170 20060 39737 40143 58004 70186 878// 91200=
07181,1999-06-21 13:00:00,10,1017.3,1.5,82,7,500,42.596,,,300,,,2,,,,,,,80,wg-a,,,,AAXX 21134 07181 12400 73023 10100 20070 39755 40173 53015 60025 78086 879// 91300=
07181,1999-06-21 14:00:00,12,1016.8,1.3,88,10,15000,25.928,,37.04,310,,,4,,,,,,,25,wg-a,,,,AAXX 21144 07181 12565 73114 10120 20100 39754 40168 53013 60045 72586 878// 91400 333 91020=
07181,1999-06-21 18:00:00,12,1018,1.3,71,7,20000,18.52,,,310,8.9,17.6,,,,,,,,2,wg-a,,,,AAXX 21184 07181 32570 73110 10120 20070 39765 40180 53013 70286 878// 91800 333 10176 20089=
07181,1999-06-21 19:00:00,11,1018.6,1.4,76,7,20000,18.52,,,320,,,,,,,,,,0,wg-a,,,,AAXX 21194 07181 32570 73210 10110 20070 39770 40186 53014 700// 878// 91900=
07181,1999-06-21 20:00:00,11,1019.5,1.8,76,7,20000,22.224,,,340,,,,,,,,,,0,wg-a,,,,AAXX 21204 07181 32570 73412 10110 20070 39778 40195 53018 700// 878// 92000=
07181,1999-06-21 22:00:00,9,1020.8,1.8,87,7,20000,14.816,,,280,,,,,,,,,,0,wg-a,,,,AAXX 21224 07181 32770 72808 10090 20070 39788 40208 51018 700// 875// 92200=
07181,1999-06-21 23:00:00,8,1021.1,1.2,93,7,20000,11.112,,,300,,,,,,,,,,0,wg-a,,,,AAXX 21234 07181 32770 73006 10080 20070 39790 40211 51012 700// 875// 92300=
07181,1999-06-22 00:00:00,7,1022,1.4,93,6,20000,3.704,,,330,,,,,,,,,,0,wg-a,,,,AAXX 22004 07181 32770 73302 10070 20060 39796 40220 52014 700// 875// 90000=
07181,1999-06-22 01:00:00,7,1022.1,0.9,93,6,20000,7.408,,,320,,,,,,,,,,0,wg-a,,,,AAXX 22014 07181 32770 73204 10070 20060 39797 40221 51009 700// 875// 90100=
07181,1999-06-22 02:00:00,6,1022.7,1.1,93,5,20000,7.408,,,320,,,,,,,,,,0,wg-a,,,,AAXX 22024 07181 32770 73204 10060 20050 39801 40227 51011 700// 875// 90200=
07181,1999-06-22 03:00:00,5,1022.9,0.6,100,5,20000,3.704,,,300,,,,0,,,,,,0,wg-a,,,,AAXX 22034 07181 12770 33002 10050 20050 39802 40229 52006 60007 700// 83500 90300=
07181,1999-06-22 04:00:00,5,1023.4,1,100,5,12000,3.704,,,300,,,,,,,,,,0,wg-a,,,,AAXX 22044 07181 32762 33002 10050 20050 39807 40234 53010 700// 83500 90400=
07181,1999-06-22 05:00:00,6,1023.6,1,100,6,12000,7.408,,,240,,,,,,,,,,11,wg-a,,,,AAXX 22054 07181 32762 32404 10060 20060 39811 40236 53010 71100 83500 90500=
07181,1999-06-22 06:00:00,8,1023.6,1.1,93,7,12000,7.408,,,300,5,12.2,,,,,7,,,0,wg-a,,,,AAXX 22064 07181 12262 33004 10080 20070 39813 40236 51011 60074 700// 83500 90600 333 10122 20050=
07181,1999-06-22 08:00:00,12,1023.6,0.8,71,7,20000,11.112,,,20,,,,,,,,,,0,wg-a,,,,AAXX 22084 07181 32470 40206 10120 20070 39819 40236 53008 700// 84200 90800=
07181,1999-06-22 09:00:00,12,1023.5,0.5,71,7,20000,11.112,,,310,,,,,,,,,,0,wg-a,,,,AAXX 22094 07181 32570 /3106 10120 20070 39818 40235 50005 700// 86200 90900=
07181,1999-06-22 10:00:00,14,1023.3,0.3,55,5,25000,3.704,,,70,,,,,,,,,,0,wg-a,,,,AAXX 22104 07181 32575 /0702 10140 20050 39819 40233 51003 700// 86200 91000=
07181,1999-06-22 11:00:00,15,1023,-0.1,55,6,25000,3.704,,,360,,,,,,,,,,0,wg-a,,,,AAXX 22114 07181 32675 /3602 10150 20060 39818 40230 57001 700// 86200 91100=
07181,1999-06-22 12:00:00,15,1022.8,-0.3,51,5,25000,0,,,0,,,,,,,,,,0,wg-a,,,,AAXX 22124 07181 32675 70000 10150 20050 39815 40228 58003 700// 878// 91200=
07181,1999-06-22 13:00:00,17,1022,-0.8,42,4,25000,3.704,,22.224,110,,,,,,,,,,0,wg-a,,,,AAXX 22134 07181 32675 71102 10170 20040 39811 40220 58008 700// 878// 91300 333 91012=
07181,1999-06-22 14:00:00,16,1022.3,-0.6,48,5,25000,11.112,,,340,,,,,,,,,,0,wg-a,,,,AAXX 22144 07181 32675 73406 10160 20050 39812 40223 55006 700// 878// 91400=
07181,1999-06-22 17:00:00,16,1022,-0.3,48,5,25000,7.408,,,10,,,,,,,,,,0,wg-a,,,,AAXX 22174 07181 32775 60104 10160 20050 39809 40220 58003 700// 86800 91700=
07181,1999-06-22 18:00:00,17,1022.1,-0.1,45,5,25000,3.704,,,30,7.8,17.6,,,,,,,,0,wg-a,,,,AAXX 22184 07181 32775 50302 10170 20050 39811 40221 55001 700// 85800 91800 333 10176 20078=
07181,1999-06-22 19:00:00,15,1022.2,-0,55,6,25000,3.704,,,330,,,,,,,,,,0,wg-a,,,,AAXX 22194 07181 32775 23302 10150 20060 39810 40222 54000 700// 81501 91900=
07181,1999-06-22 20:00:00,12,1023,0.4,67,6,25000,3.704,,,40,,,,,,,,,,0,wg-a,,,,AAXX 22204 07181 32775 20402 10120 20060 39813 40230 53004 700// 81501 92000=
07181,1999-06-22 22:00:00,9,1023.7,0.5,81,6,25000,3.704,,,60,,,,,,,,,,0,wg-a,,,,AAXX 22224 07181 32/75 20602 10090 20060 39815 40237 51005 700// 80001 92200=
07181,1999-06-22 23:00:00,8,1023.5,-0.1,81,5,25000,3.704,,,10,,,,,,,,,,0,wg-a,,,,AAXX 22234 07181 32/75 20102 10080 20050 39812 40235 58001 700// 80001 92300=
07181,1999-06-23 00:00:00,7,1023.7,-0.3,87,5,25000,0,,,0,,,,,,,,,,0,wg-a,,,,AAXX 23004 07181 32/75 20000 10070 20050 39812 40237 57003 700// 80001 90000=
07181,1999-06-23 01:00:00,6,1023.5,-0.5,93,5,25000,0,,,0,,,,,,,,,,0,wg-a,,,,AAXX 23014 07181 32/75 20000 10060 20050 39810 40235 56005 700// 80001 90100=
07181,1999-06-23 02:00:00,5,1023.5,-0.4,100,5,15000,0,,,0,,,,,,,,,,0,wg-a,,,,AAXX 23024 07181 32/65 10000 10050 20050 39808 40235 58004 700// 80001 90200=
07181,1999-06-23 04:00:00,5,1023.7,-0.1,100,5,15000,0,,,0,,,,,,,,,,11,wg-a,,,,AAXX 23044 07181 32/65 /0000 10050 20050 39809 40237 55001 71100 81031 90400=
07181,1999-06-23 05:00:00,7,1023.5,0.2,93,6,15000,0,,,0,,,,,,,,,,11,wg-a,,,,AAXX 23054 07181 32/65 /0000 10070 20060 39810 40235 53002 71100 80001 90500=
07181,1999-06-23 06:00:00,10,1023,0.3,82,7,15000,3.704,,,350,4.9,16.7,,,,,,,,0,wg-a,,,,AAXX 23064 07181 12/65 13502 10100 20070 39810 40230 51003 60004 700// 80001 90600 333 10167 20049=
07181,1999-06-23 07:00:00,12,1022.7,0.2,82,9,15000,3.704,,,340,,,,,,,,,,0,wg-a,,,,AAXX 23074 07181 32/65 23402 10120 20090 39811 40227 52002 700// 81031 90700=
07181,1999-06-23 09:00:00,17,1022,0.1,48,6,15000,11.112,,,90,,,,,,,,,,0,wg-a,,,,AAXX 23094 07181 32565 30906 10170 20060 39811 40220 51001 700// 81101 90900=
07181,1999-06-23 10:00:00,18,1021.8,-0.1,39,4,15000,11.112,,,100,,,,,,,,,,0,wg-a,,,,AAXX 23104 07181 32565 31006 10180 20040 39810 40218 58001 700// 81101 91000=
07181,1999-06-23 11:00:00,18,1021.4,-0.4,42,5,25000,11.112,,,10,,,,,,,,,,0,wg-a,,,,AAXX 23114 07181 32575 40106 10180 20050 39807 40214 58004 700// 83101 91100=
07181,1999-06-23 12:00:00,19,1021.1,-0.6,40,5,25000,14.816,,,50,,,,,,,,,,0,wg-a,,,,AAXX 23124 07181 32675 40508 10190 20050 39805 40211 58006 700// 83101 91200=
07181,1999-06-23 13:00:00,19,1020.9,-0.7,37,4,25000,11.112,,,40,,,,,,,,,,0,wg-a,,,,AAXX 23134 07181 32775 40406 10190 20040 39803 40209 56007 700// 83101 91300=
07181,1999-06-23 15:00:00,20,1020.5,-0.4,37,5,25000,14.816,,,30,,,,,,,,,,0,wg-a,,,,AAXX 23154 07181 32775 50308 10200 20050 39801 40205 56004 700// 83430 91500=
07181,1999-06-23 16:00:00,20,1020.4,-0.3,37,5,25000,14.816,,,50,,,,,,,,,,0,wg-a,,,,AAXX 23164 07181 32775 40508 10200 20050 39800 40204 57003 700// 82530 91600=
07181,1999-06-23 17:00:00,20,1020.5,-0.2,37,5,25000,18.52,,,60,,,,,,,,,,0,wg-a,,,,AAXX 23174 07181 32775 40610 10200 20050 39800 40205 56002 700// 82530 91700=
07181,1999-06-23 18:00:00,20,1020.9,0.3,40,6,25000,11.112,,,30,9.6,20.5,,,,,,,,0,wg-a,,,,AAXX 23184 07181 32775 30306 10200 20060 39804 40209 53003 700// 81530 91800 333 10205 20096=
07181,1999-06-23 19:00:00,18,1021.5,0.7,45,6,25000,11.112,,,30,,,,,,,,,,0,wg-a,,,,AAXX 23194 07181 32775 20306 10180 20060 39807 40215 53007 700// 81530 91900=
07181,1999-06-23 20:00:00,15,1022.3,1.1,55,6,20000,7.408,,,50,,,,,,,,,,0,wg-a,,,,AAXX 23204 07181 32/70 10504 10150 20060 39811 40223 52011 700// 80001 92000=
07181,1999-06-23 22:00:00,12,1023.6,1.2,71,7,15000,3.704,,,20,,,,,,,,,,0,wg-a,,,,AAXX 23224 07181 32/65 10202 10120 20070 39819 40236 52012 700// 80001 92200=
07181,1999-06-23 23:00:00,11,1023.8,0.8,76,7,15000,3.704,,,340,,,,,,,,,,0,wg-a,,,,AAXX 23234 07181 32/65 13402 10110 20070 39819 40238 51008 700// 80001 92300=
07181,1999-06-24 00:00:00,10,1024,0.5,82,7,15000,3.704,,,330,,,,,,,,,,0,wg-a,,,,AAXX 24004 07181 32/65 13302 10100 20070 39820 40240 51005 700// 80001 90000=
07181,1999-06-24 01:00:00,9,1024,0,87,7,15000,3.704,,,330,,,,,,,,,,0,wg-a,,,,AAXX 24014 07181 32/65 13302 10090 20070 39819 40240 50000 700// 80001 90100=
07181,1999-06-24 02:00:00,8,1024.5,0.3,87,6,10000,3.704,,,20,,,,,,,,,,,wg-a,,,,AAXX 24024 07181 32/60 /0202 10080 20060 39822 40245 53003 90200=
07181,1999-06-24 03:00:00,7,1024.6,0.2,93,6,12000,3.704,,,10,,,,,,,,,,0,wg-a,,,,AAXX 24034 07181 32/62 10102 10070 20060 39822 40246 53002 700// 80001 90300=
07181,1999-06-24 04:00:00,7,1024.6,0.3,93,6,12000,3.704,,,360,,,,,,,,,,0,wg-a,,,,AAXX 24044 07181 32/62 03602 10070 20060 39822 40246 51003 700// 80000 90400=
07181,1999-06-24 05:00:00,9,1024.7,0.3,93,8,12000,3.704,,,330,,,,,,,,,,0,wg-a,,,,AAXX 24054 07181 32/62 03302 10090 20080 39825 40247 53003 700// 80000 90500=
07181,1999-06-24 06:00:00,11,1024.6,0.5,87,9,12000,7.408,,,330,7,19.5,,,,,,,,0,wg-a,,,,AAXX 24064 07181 32/62 03304 10110 20090 39827 40246 53005 700// 80000 90600 333 10195 20070=
07181,1999-06-24 07:00:00,14,1024.3,0.6,77,10,10000,7.408,,,330,,,,,,,,,,,wg-a,,,,AAXX 24074 07181 32/60 /3304 10140 20100 39828 40243 51006 90700=
07181,1999-06-24 08:00:00,17,1023.8,0.3,68,11,15000,7.408,,,350,,,,,,,,,,0,wg-a,,,,AAXX 24084 07181 32/65 03504 10170 20110 39828 40238 51003 700// 80000 90800=
07181,1999-06-24 09:00:00,19,1023.2,-0.2,46,7,18000,11.112,,,80,,,,,,,,,,0,wg-a,,,,AAXX 24094 07181 32/68 00806 10190 20070 39825 40232 58002 700// 80000 90900=
07181,1999-06-24 10:00:00,20,1023,-0.4,40,6,20000,7.408,,,80,,,,,,,,,,0,wg-a,,,,AAXX 24104 07181 32/70 00804 10200 20060 39824 40230 58004 700// 80000 91000=
07181,1999-06-24 11:00:00,21,1022.9,-0.4,40,7,20000,7.408,,,120,,,,,,,,,,0,wg-a,,,,AAXX 24114 07181 32770 11204 10210 20070 39824 40229 56004 700// 81100 91100=
07181,1999-06-24 12:00:00,21,1022.3,-0.5,43,8,20000,11.112,,,350,,,,,,,,,,0,wg-a,,,,AAXX 24124 07181 32770 13506 10210 20080 39820 40223 58005 700// 81100 91200=
07181,1999-06-24 13:00:00,22,1022.1,-0.6,43,9,20000,7.408,,,80,,,,,,,,,,0,wg-a,,,,AAXX 24134 07181 32770 10804 10220 20090 39818 40221 58006 700// 81100 91300=
07181,1999-06-24 14:00:00,23,1021.7,-0.9,38,8,20000,11.112,,,10,,,,,,,,,,0,wg-a,,,,AAXX 24144 07181 32770 10106 10230 20080 39815 40217 56009 700// 81100 91400=
07181,1999-06-24 16:00:00,22,1021.2,-0.8,41,8,20000,11.112,,,70,,,,,,,,,,0,wg-a,,,,AAXX 24164 07181 32770 10706 10220 20080 39810 40212 56008 700// 81100 91600=
07181,1999-06-24 17:00:00,22,1021.2,-0.5,41,8,20000,11.112,,,40,,,,,,,,,,0,wg-a,,,,AAXX 24174 07181 32870 10406 10220 20080 39810 40212 56005 700// 81500 91700=
07181,1999-06-24 18:00:00,22,1021.1,-0.4,41,8,20000,14.816,,,30,10.9,23,,,,,,,,0,wg-a,,,,AAXX 24184 07181 32/70 00308 10220 20080 39808 40211 57004 700// 80000 91800 333 10230 20109=
07181,1999-06-24 19:00:00,20,1021.3,-0.2,46,8,20000,11.112,,,40,,,,,,,,,,0,wg-a,,,,AAXX 24194 07181 32/70 00406 10200 20080 39808 40213 57002 700// 80000 91900=
07181,1999-06-24 20:00:00,18,1021.7,-0.1,52,8,20000,7.408,,,60,,,,,,,,,,0,wg-a,,,,AAXX 24204 07181 32/70 10604 10180 20080 39809 40217 55001 700// 80001 92000=
07181,1999-06-24 22:00:00,14,1022.3,0.2,67,8,20000,3.704,,,120,,,,,,,,,,0,wg-a,,,,AAXX 24224 07181 32/70 11202 10140 20080 39810 40223 51002 700// 80001 92200=
07181,1999-06-24 23:00:00,14,1022,-0.3,67,8,20000,7.408,,,70,,,,,,,,,,0,wg-a,,,,AAXX 24234 07181 32/70 00704 10140 20080 39806 40220 58003 700// 80000 92300=
07181,1999-06-25 00:00:00,12,1022.2,-0.4,76,8,20000,7.408,,,340,,,,,,,,,,0,wg-a,,,,AAXX 25004 07181 32/70 03404 10120 20080 39806 40222 57004 700// 80000 90000=
07181,1999-06-25 01:00:00,10,1022.2,-0.6,87,8,20000,7.408,,,320,,,,,,,,,,0,wg-a,,,,AAXX 25014 07181 32/70 03204 10100 20080 39804 40222 56006 700// 80000 90100=
07181,1999-06-25 04:00:00,8,1022,-0.5,100,8,12000,7.408,,,330,,,,,,,,,,0,wg-a,,,,AAXX 25044 07181 32/62 33304 10080 20080 39799 40220 58005 700// 80001 90400=
07181,1999-06-25 05:00:00,10,1021.9,-0.4,93,9,10000,7.408,,,350,,,0,,,,,,,0,wg-a,,,,AAXX 25054 07181 12/60 43504 10100 20090 39800 40219 55004 60005 700// 80001 90500=
07181,1999-06-25 06:00:00,12,1021.5,-0.2,88,10,11000,3.704,,,320,8.2,21.5,,0,,,,,,0,wg-a,,,,AAXX 25064 07181 02/61 33202 10120 20100 39799 40215 56002 60004 700// 80001 90600 333 10215 20082 60007=
07181,1999-06-25 07:00:00,15,1021,0,77,11,11000,3.704,,,330,,,,,,,,,,0,wg-a,,,,AAXX 25074 07181 32/61 23302 10150 20110 39799 40210 50000 700// 80001 90700=
07181,1999-06-25 08:00:00,18,1020.3,-0.3,59,10,12000,7.408,,,60,,,,,,,,,,0,wg-a,,,,AAXX 25084 07181 32/62 10604 10180 20100 39797 40203 58003 700// 80001 90800=
07181,1999-06-25 09:00:00,21,1019.3,-0.9,49,10,10000,11.112,,,70,,,,,,,,,,,wg-a,,,,AAXX 25094 07181 32/60 /0706 10210 20100 39790 40193 58009 90900=
07181,1999-06-25 10:00:00,22,1018.7,-1.3,43,9,13000,11.112,,,110,,,,,,,,,,0,wg-a,,,,AAXX 25104 07181 32/63 11106 10220 20090 39786 40187 58013 700// 80001 91000=
07181,1999-06-25 11:00:00,22,1018.4,-1.3,43,9,15000,3.704,,29.632,80,,,,,,,,,,0,wg-a,,,,AAXX 25114 07181 32/65 10802 10220 20090 39784 40184 56013 700// 80001 91100 333 91016=
07181,1999-06-25 12:00:00,24,1017.7,-1.2,36,8,15000,7.408,,,90,,,,,,,,,,0,wg-a,,,,AAXX 25124 07181 32/65 10904 10240 20080 39778 40177 58012 700// 80001 91200=
07181,1999-06-25 13:00:00,24,1016.9,-1.5,34,7,15000,3.704,,,90,,,,,,,,,,0,wg-a,,,,AAXX 25134 07181 32/65 10902 10240 20070 39771 40169 58015 700// 80001 91300=
07181,1999-06-25 14:00:00,24,1016.4,-1.7,36,8,15000,11.112,,,70,,,,,,,,,,0,wg-a,,,,AAXX 25144 07181 32/65 10706 10240 20080 39767 40164 56017 700// 80001 91400=
07181,1999-06-25 15:00:00,25,1015.9,-1.5,34,8,15000,7.408,,,70,,,,,,,,,,0,wg-a,,,,AAXX 25154 07181 32/65 10704 10250 20080 39763 40159 56015 700// 80001 91500=
07181,1999-06-25 16:00:00,25,1015.4,-1.3,32,7,15000,11.112,,,70,,,,,,,,,,0,wg-a,,,,AAXX 25164 07181 32/65 10706 10250 20070 39758 40154 58013 700// 80001 91600=
07181,1999-06-25 17:00:00,25,1015.1,-1.2,32,7,15000,0,,,0,,,,,,,,,,0,wg-a,,,,AAXX 25174 07181 32/65 10000 10250 20070 39755 40151 56012 700// 80001 91700=
07181,1999-06-25 18:00:00,24,1015,-1,36,8,15000,7.408,,,100,11.7,25.1,,,,,,,,0,wg-a,,,,AAXX 25184 07181 32/65 01004 10240 20080 39753 40150 56010 700// 80000 91800 333 10251 20117=
07181,1999-06-25 19:00:00,23,1014.6,-1,44,10,15000,7.408,,,60,,,,,,,,,,0,wg-a,,,,AAXX 25194 07181 32/65 00604 10230 20100 39748 40146 58010 700// 80000 91900=
07181,1999-06-25 20:00:00,19,1015.3,-0.5,52,9,15000,7.408,,,80,,,,,,,,,,0,wg-a,,,,AAXX 25204 07181 32/65 00804 10190 20090 39750 40153 55005 700// 80000 92000=
07181,1999-06-25 22:00:00,16,1015.5,-0.1,63,9,15000,7.408,,,110,,,,,,,,,,0,wg-a,,,,AAXX 25224 07181 32/65 01104 10160 20090 39747 40155 58001 700// 80000 92200=
07181,1999-06-26 00:00:00,14,1014.7,-1.3,72,9,15000,3.704,,,100,,,,,,,,,,0,wg-a,,,,AAXX 26004 07181 32/65 01002 10140 20090 39737 40147 58013 700// 80000 90000=
07181,1999-06-26 01:00:00,15,1014.1,-1.5,67,9,15000,11.112,,,140,,,,,,,,,,0,wg-a,,,,AAXX 26014 07181 32/65 01406 10150 20090 39732 40141 56015 700// 80000 90100=
07181,1999-06-26 03:00:00,13,1013.5,-1.3,77,9,15000,7.408,,,170,,,,,,,,,,0,wg-a,,,,AAXX 26034 07181 32/65 01704 10130 20090 39724 40135 56013 700// 80000 90300=
07181,1999-06-26 04:00:00,11,1013.2,-1.4,87,9,15000,3.704,,,80,,,,,,,,,,0,wg-a,,,,AAXX 26044 07181 32/65 30802 10110 20090 39718 40132 58014 700// 82032 90400=
07181,1999-06-26 06:00:00,15,1011.7,-1.4,82,12,15000,7.408,,,150,10.8,23.8,,,,,,,,0,wg-a,,,,AAXX 26064 07181 12/65 61504 10150 20120 39710 40117 56014 60004 700// 82032 90600 333 10238 20108=
07181,1999-06-26 07:00:00,17,1011,-1.2,72,12,15000,11.112,,,150,,,,,,,,,,0,wg-a,,,,AAXX 26074 07181 32/65 61506 10170 20120 39706 40110 56012 700// 82032 90700=
07181,1999-06-26 08:00:00,20,1010.2,-0.8,68,14,15000,11.112,,,150,,,,,,,,,,0,wg-a,,,,AAXX 26084 07181 32/65 61506 10200 20140 39703 40102 58008 700// 82032 90800=
07181,1999-06-26 09:00:00,23,1009.6,-0.9,47,11,15000,14.816,,,190,,,,,,,,,,0,wg-a,,,,AAXX 26094 07181 32/65 61908 10230 20110 39701 40096 56009 700// 82032 90900=
07181,1999-06-26 10:00:00,23,1009.6,-0.6,50,12,15000,22.224,,,230,,,,,,,,,,0,wg-a,,,,AAXX 26104 07181 32/65 72312 10230 20120 39700 40096 56006 700// 82032 91000=
07181,1999-06-26 13:00:00,20,1010,0.1,64,13,20000,29.632,,,190,,,,,,,,,,0,wg-a,,,,AAXX 26134 07181 32570 71916 10200 20130 39701 40100 50001 700// 81132 91300=
07181,1999-06-26 14:00:00,19,1010.3,-0.3,78,15,20000,22.224,,,200,,,,,,,,,,0,wg-a,,,,AAXX 26144 07181 32570 72012 10190 20150 39702 40103 55003 700// 8183/ 91400=
07181,1999-06-26 15:00:00,18,1010.5,-0,83,15,20000,22.224,,,200,,,,,,,,,,0,wg-a,,,,AAXX 26154 07181 32570 72012 10180 20150 39702 40105 55000 700// 8683/ 91500=
07181,1999-06-26 16:00:00,18,1010,-0.3,88,16,9000,25.928,,,210,,,,,,,,,,61,wg-a,,,,AAXX 26164 07181 02559 72114 10180 20160 39698 40100 58003 61000 76162 8683/ 91600 333 ////=
07181,1999-06-26 19:00:00,16,1009.7,-0.5,100,16,7000,11.112,,,200,,,0,,,,,,,61,wg-a,,,,AAXX 26194 07181 12457 72006 10160 20160 39693 40097 55005 60005 76162 8687/ 91900=
07181,1999-06-26 20:00:00,16,1009.6,-0.3,94,15,8000,11.112,,,180,,,0,,,,,,,21,wg-a,,,,AAXX 26204 07181 12458 71806 10160 20150 39691 40096 57003 60005 72162 8687/ 92000=
07181,1999-06-26 23:00:00,15,1009.1,-0.6,94,14,9000,14.816,,,200,,,,,,,,,,0,wg-a,,,,AAXX 26234 07181 32459 72008 10150 20140 39685 40091 58006 700// 878// 92300=
07181,1999-06-27 00:00:00,15,1009.3,-0.3,94,14,6000,14.816,,,260,,,,2,,,,,,95,wg-a,,,,AAXX 27004 07181 12456 72608 10150 20140 39687 40093 55003 60027 79598 879// 90000=
07181,1999-06-27 01:00:00,15,1009.4,0.1,100,15,9000,18.52,,,200,,,2,,,,,,,80,wg-a,,,,AAXX 27014 07181 12459 72010 10150 20150 39688 40094 53001 60025 78098 879// 90100=
07181,1999-06-27 02:00:00,15,1009.1,0,100,15,9000,14.816,,,200,,,6,,,,,,,81,wg-a,,,,AAXX 27024 07181 12459 72008 10150 20150 39685 40091 50000 60065 78199 879// 90200=
07181,1999-06-27 03:00:00,15,1009,-0.3,100,15,9000,11.112,,,170,,,,8,,,,,,17,wg-a,,,,AAXX 27034 07181 12459 71706 10150 20150 39684 40090 58003 60087 71799 879// 90300=
07181,1999-06-27 04:00:00,15,1008.8,-0.5,100,15,8000,11.112,,,170,,,,,,,,,,29,wg-a,,,,AAXX 27044 07181 32458 71706 10150 20150 39683 40088 56005 72992 879// 90400=
07181,1999-06-27 05:00:00,16,1009,-0,94,15,7000,11.112,,,190,,,,,,,,,,0,wg-a,,,,AAXX 27054 07181 32457 71906 10160 20150 39685 40090 55000 700// 81101 90500=
07181,1999-06-27 08:00:00,18,1008.6,-0.1,83,15,10000,11.112,,,200,,,,,,,,,,0,wg-a,,,,AAXX 27084 07181 32460 /2006 10180 20150 39684 40086 57001 700// 86200 90800=
07181,1999-06-27 09:00:00,19,1008.1,-0.4,78,15,10000,14.816,,,210,,,,,,,,,,0,wg-a,,,,AAXX 27094 07181 32460 /2108 10190 20150 39681 40081 58004 700// 85200 90900=
07181,1999-06-27 10:00:00,20,1007.8,-0.4,68,14,12000,22.224,,,190,,,,,,,,,,0,wg-a,,,,AAXX 27104 07181 32462 71912 10200 20140 39680 40078 58004 700// 878// 91000=
07181,1999-06-27 11:00:00,21,1007.4,-0.7,64,14,12000,25.928,,,190,,,,,,,,,,0,wg-a,,,,AAXX 27114 07181 32562 71914 10210 20140 39677 40074 57007 700// 872// 91100=
07181,1999-06-27 12:00:00,20,1007.4,-0.5,73,15,10000,22.224,,,210,,,,,,,,,,0,wg-a,,,,AAXX 27124 07181 32560 72112 10200 20150 39676 40074 57005 700// 8583/ 91200=
07181,1999-06-27 13:00:00,18,1007.2,-0.9,88,16,15000,11.112,,,170,,,2,,,,,,,29,wg-a,,,,AAXX 27134 07181 12465 /1706 10180 20160 39671 40072 58009 60025 72998 84202 91300=
07181,1999-06-27 14:00:00,20,1006.4,-1,78,16,15000,11.112,,,210,,,,,,,,,,0,wg-a,,,,AAXX 27144 07181 32465 72106 10200 20160 39667 40064 58010 700// 81132 91400=
07181,1999-06-27 15:00:00,21,1005.6,-1.6,64,14,15000,18.52,,,200,,,,2,,,,,,2,wg-a,,,,AAXX 27154 07181 12465 72010 10210 20140 39660 40056 58016 60027 70298 81132 91500=
07181,1999-06-27 16:00:00,21,1005.4,-1.3,64,14,15000,18.52,,,200,,,,,,,,,,0,wg-a,,,,AAXX 27164 07181 32465 72010 10210 20140 39658 40054 56013 700// 83832 91600=
07181,1999-06-27 17:00:00,20,1006,-0.5,73,15,10000,11.112,,,210,,,,,,,,,,13,wg-a,,,,AAXX 27174 07181 32460 72106 10200 20150 39662 40060 55005 71322 879// 91700=
07181,1999-06-27 18:00:00,15,1007.6,1,94,14,10000,11.112,,,230,14.4,21.9,,6,,,,,,29,wg-a,,,,AAXX 27184 07181 12460 72306 10150 20140 39670 40076 53010 60067 72998 84832 91800 333 10219 20144=
07181,1999-06-27 19:00:00,14,1008,1.6,100,14,12000,18.52,,,210,,,,,,,,,,0,wg-a,,,,AAXX 27194 07181 32462 72110 10140 20140 39674 40080 52016 700// 84802 91900=
07181,1999-06-27 20:00:00,14,1008.6,1.6,94,13,12000,14.816,,,210,,,,,,,,,,0,wg-a,,,,AAXX 27204 07181 32762 72108 10140 20130 39678 40086 51016 700// 84502 92000=
07181,1999-06-27 21:00:00,14,1010.2,2.4,94,13,12000,22.224,,,210,,,,,,,,,,0,wg-a,,,,AAXX 27214 07181 32762 72112 10140 20130 39694 40102 53024 700// 84502 92100=
07181,1999-06-27 23:00:00,13,1011.8,3,94,12,12000,18.52,,,220,,,,,,,,,,0,wg-a,,,,AAXX 27234 07181 32762 72210 10130 20120 39708 40118 51030 700// 84502 92300=
07181,1999-06-28 00:00:00,12,1011.9,1.4,100,12,12000,18.52,,,220,,,,,,,,,,,wg-a,,,,AAXX 28004 07181 32762 52210 10120 20120 39708 40119 51014 83532 90000=
07181,1999-06-28 02:00:00,12,1012.6,0.6,94,11,12000,18.52,,,230,,,,,,,,,,0,wg-a,,,,AAXX 28024 07181 32762 52310 10120 20110 39714 40126 53006 700// 82530 90200=
07181,1999-06-28 03:00:00,12,1013.2,1.1,94,11,12000,14.816,,,230,,,,,,,,,,0,wg-a,,,,AAXX 28034 07181 32762 42308 10120 20110 39719 40132 53011 700// 82530 90300=
07181,1999-06-28 04:00:00,12,1013.7,1.3,94,11,15000,18.52,,,220,,,,,,,,,,0,wg-a,,,,AAXX 28044 07181 32465 /2210 10120 20110 39724 40137 53013 700// 85800 90400=
07181,1999-06-28 05:00:00,11,1014.7,1.9,94,10,25000,18.52,,,220,,,,,,,,,,0,wg-a,,,,AAXX 28054 07181 32475 62210 10110 20100 39733 40147 53019 700// 85830 90500=
07181,1999-06-28 06:00:00,12,1015.3,2.1,94,11,25000,22.224,,,220,11.1,14.9,,,,,8,,,0,wg-a,,,,AAXX 28064 07181 12475 52212 10120 20110 39740 40153 53021 60084 700// 85800 90600 333 10149 20111=
07181,1999-06-28 07:00:00,13,1015.9,2.4,88,11,25000,22.224,,,240,,,,,,,,,,0,wg-a,,,,AAXX 28074 07181 32475 62412 10130 20110 39748 40159 51024 700// 86800 90700=
07181,1999-06-28 08:00:00,14,1016.4,2.1,77,10,25000,29.632,,,230,,,,,,,,,,0,wg-a,,,,AAXX 28084 07181 32475 72316 10140 20100 39754 40164 51021 700// 878// 90800=
07181,1999-06-28 09:00:00,15,1016.8,1.9,67,9,25000,29.632,,,240,,,,,,,,,,0,wg-a,,,,AAXX 28094 07181 32575 72416 10150 20090 39759 40168 51019 700// 872// 90900=
07181,1999-06-28 10:00:00,16,1016.7,1.1,63,9,25000,22.224,,44.448,240,,,,,,,,,,0,wg-a,,,,AAXX 28104 07181 32575 72412 10160 20090 39759 40167 51011 700// 878// 91000 333 91024=
07181,1999-06-28 11:00:00,17,1016.9,0.9,68,11,25000,25.928,,,230,,,,,,,,,,0,wg-a,,,,AAXX 28114 07181 32575 72314 10170 20110 39763 40169 51009 700// 878// 91100=
07181,1999-06-28 12:00:00,17,1017,0.4,59,9,25000,22.224,,,240,,,,,,,,,,0,wg-a,,,,AAXX 28124 07181 32575 72412 10170 20090 39763 40170 52004 700// 878// 91200=
07181,1999-06-28 13:00:00,17,1017.5,0.9,55,8,25000,29.632,,,250,,,,,,,,,,0,wg-a,,,,AAXX 28134 07181 32675 72516 10170 20080 39768 40175 53009 700// 878// 91300=
07181,1999-06-28 14:00:00,18,1017.8,0.9,56,9,25000,25.928,,,250,,,,,,,,,,0,wg-a,,,,AAXX 28144 07181 32675 72514 10180 20090 39772 40178 53009 700// 878// 91400=
07181,1999-06-28 15:00:00,19,1017.8,1,52,9,25000,25.928,,,240,,,,,,,,,,0,wg-a,,,,AAXX 28154 07181 32675 72414 10190 20090 39773 40178 51010 700// 878// 91500=
07181,1999-06-28 16:00:00,18,1018.1,0.7,59,10,25000,18.52,,,240,,,,,,,,,,0,wg-a,,,,AAXX 28164 07181 32675 72410 10180 20100 39775 40181 51007 700// 878// 91600=
07181,1999-06-28 17:00:00,17,1018.3,0.4,63,10,25000,22.224,,,250,,,,,,,,,,0,wg-a,,,,AAXX 28174 07181 32675 72512 10170 20100 39776 40183 52004 700// 878// 91700=
07181,1999-06-28 18:00:00,17,1018.7,0.6,63,10,25000,14.816,,,230,12,18.8,,,,,,,,0,wg-a,,,,AAXX 28184 07181 32675 72308 10170 20100 39779 40187 53006 700// 878// 91800 333 10188 20120=
07181,1999-06-28 19:00:00,16,1019.2,0.8,68,10,25000,11.112,,,200,,,,,,,,,,0,wg-a,,,,AAXX 28194 07181 32675 72006 10160 20100 39783 40192 53008 700// 878// 91900=
07181,1999-06-28 20:00:00,15,1019.5,0.9,72,10,25000,11.112,,,180,,,,,,,,,,0,wg-a,,,,AAXX 28204 07181 32775 71806 10150 20100 39785 40195 51009 700// 86502 92000=
07181,1999-06-28 21:00:00,15,1019.6,0.6,72,10,25000,7.408,,,170,,,,,,,,,,0,wg-a,,,,AAXX 28214 07181 32775 71704 10150 20100 39785 40196 51006 700// 85502 92100=
07181,1999-06-28 22:00:00,14,1019.8,0.3,77,10,25000,11.112,,,170,,,,,,,,,,0,wg-a,,,,AAXX 28224 07181 32775 71706 10140 20100 39786 40198 51003 700// 85502 92200=
07181,1999-06-28 23:00:00,14,1019.6,0,77,10,20000,11.112,,,180,,,,,,,,,,0,wg-a,,,,AAXX 28234 07181 32770 71806 10140 20100 39785 40196 50000 700// 85502 92300=
07181,1999-06-29 00:00:00,14,1019.9,0.1,77,10,20000,11.112,,,180,,,,,,,,,,,wg-a,,,,AAXX 29004 07181 32770 71806 10140 20100 39786 40199 52001 83502 90000=
07181,1999-06-29 01:00:00,14,1019.6,-0.3,82,11,20000,11.112,,,170,,,,,,,,,,0,wg-a,,,,AAXX 29014 07181 32770 71706 10140 20110 39783 40196 58003 700// 81502 90100=
07181,1999-06-29 02:00:00,14,1019.2,-0.5,82,11,20000,11.112,,,160,,,,,,,,,,0,wg-a,,,,AAXX 29024 07181 32770 71606 10140 20110 39780 40192 58005 700// 81502 90200=
07181,1999-06-29 03:00:00,13,1019.2,-0.7,88,11,20000,11.112,,,160,,,,,,,,,,0,wg-a,,,,AAXX 29034 07181 32770 71606 10130 20110 39779 40192 56007 700// 83502 90300=
07181,1999-06-29 04:00:00,13,1018.9,-0.7,88,11,20000,7.408,,,140,,,,,,,,,,0,wg-a,,,,AAXX 29044 07181 32770 71404 10130 20110 39776 40189 57007 700// 875// 90400=
07181,1999-06-29 05:00:00,14,1019,-0.2,82,11,20000,11.112,,,180,,,,,,,,,,0,wg-a,,,,AAXX 29054 07181 32770 71806 10140 20110 39778 40190 55002 700// 85532 90500=
07181,1999-06-29 06:00:00,15,1019.3,0.4,77,11,20000,11.112,,,210,12.6,16.7,,,,,,,,0,wg-a,,,,AAXX 29064 07181 12770 82106 10150 20110 39783 40193 53004 60004 700// 8657/ 90600 333 10167 20126=
07181,1999-06-29 07:00:00,16,1019.4,0.9,77,12,20000,11.112,,,190,,,,,,,,,,0,wg-a,,,,AAXX 29074 07181 32770 81906 10160 20120 39785 40194 52009 700// 8657/ 90700=
07181,1999-06-29 08:00:00,18,1019,0.6,68,12,20000,14.816,,,190,,,,,,,,,,0,wg-a,,,,AAXX 29084 07181 32770 61908 10180 20120 39784 40190 50006 700// 83572 90800=
07181,1999-06-29 09:00:00,20,1018.6,-0.1,60,12,20000,14.816,,,220,,,,,,,,,,0,wg-a,,,,AAXX 29094 07181 32770 62208 10200 20120 39782 40186 58001 700// 83572 90900=
07181,1999-06-29 10:00:00,21,1018.1,-0.5,64,14,25000,22.224,,,230,,,,,,,,,,0,wg-a,,,,AAXX 29104 07181 32675 62312 10210 20140 39780 40181 58005 700// 83872 91000=
07181,1999-06-29 11:00:00,22,1017.8,-0.6,57,13,25000,18.52,,,240,,,,,,,,,,0,wg-a,,,,AAXX 29114 07181 32675 62410 10220 20130 39778 40178 57006 700// 83132 91100=
07181,1999-06-29 13:00:00,24,1017,-0.7,54,14,25000,18.52,,,210,,,,,,,,,,0,wg-a,,,,AAXX 29134 07181 32675 /2110 10240 20140 39773 40170 58007 700// 83102 91300=
07181,1999-06-29 14:00:00,24,1016.9,-0.6,54,14,25000,18.52,,,210,,,,,,,,,,0,wg-a,,,,AAXX 29144 07181 32675 72110 10240 20140 39772 40169 56006 700// 84102 91400=
07181,1999-06-29 15:00:00,24,1017.1,-0.3,54,14,25000,25.928,,44.448,230,,,,,,,,,,0,wg-a,,,,AAXX 29154 07181 32675 72314 10240 20140 39773 40171 55003 700// 84102 91500 333 91024=
07181,1999-06-29 16:00:00,23,1017,-0.1,57,14,25000,22.224,,,240,,,,,,,,,,0,wg-a,,,,AAXX 29164 07181 32675 72412 10230 20140 39772 40170 57001 700// 84102 91600=
07181,1999-06-29 17:00:00,22,1017.4,0.2,60,14,25000,22.224,,,240,,,,,,,,,,0,wg-a,,,,AAXX 29174 07181 32675 72412 10220 20140 39774 40174 53002 700// 84102 91700=
07181,1999-06-29 18:00:00,21,1017.6,0.2,64,14,25000,18.52,,,220,15.1,24.3,,,,,,,,0,wg-a,,,,AAXX 29184 07181 32675 72210 10210 20140 39775 40176 53002 700// 84102 91800 333 10243 20151=
07181,1999-06-29 19:00:00,20,1017.9,0.5,73,15,20000,22.224,,,220,,,,,,,,,,0,wg-a,,,,AAXX 29194 07181 32670 82212 10200 20150 39777 40179 52005 700// 85202 91900=
07181,1999-06-29 20:00:00,19,1018.6,0.8,78,15,20000,11.112,,,210,,,,,,,,,,0,wg-a,,,,AAXX 29204 07181 32770 82106 10190 20150 39782 40186 53008 700// 85502 92000=
07181,1999-06-29 21:00:00,19,1018.9,0.9,78,15,20000,14.816,,,210,,,,,,,,,,0,wg-a,,,,AAXX 29214 07181 32770 52108 10190 20150 39784 40189 52009 700// 84502 92100=
07181,1999-06-29 22:00:00,18,1019.2,0.9,83,15,18000,18.52,,,210,,,,,,,,,,0,wg-a,,,,AAXX 29224 07181 32768 62110 10180 20150 39786 40192 51009 700// 82532 92200=
07181,1999-06-29 23:00:00,17,1018.9,0.1,88,15,18000,18.52,,,210,,,,,,,,,,0,wg-a,,,,AAXX 29234 07181 32768 62110 10170 20150 39783 40189 50001 700// 82532 92300=
07181,1999-06-30 00:00:00,17,1018.8,-0.3,88,15,0,18.52,,,200,,,,,,,,,,,wg-a,,,,AAXX 30004 07181 32/// /2010 10170 20150 39781 40188 58003 90000=
07181,1999-06-30 01:00:00,17,1018.7,-0.6,88,15,15000,14.816,,,220,,,,,,,,,,0,wg-a,,,,AAXX 30014 07181 32665 72208 10170 20150 39780 40187 56006 700// 86802 90100=
07181,1999-06-30 02:00:00,16,1018.4,-0.6,94,15,15000,14.816,,,220,,,,,,,,,,0,wg-a,,,,AAXX 30024 07181 32665 72208 10160 20150 39777 40184 58006 700// 86802 90200=
07181,1999-06-30 03:00:00,16,1018.4,-0.5,94,15,15000,14.816,,,220,,,,,,,,,,0,wg-a,,,,AAXX 30034 07181 32665 72208 10160 20150 39776 40184 57005 700// 86802 90300=
07181,1999-06-30 04:00:00,16,1018.7,-0.1,94,15,15000,18.52,,,250,,,,,,,,,,0,wg-a,,,,AAXX 30044 07181 32665 72510 10160 20150 39779 40187 55001 700// 86802 90400=
07181,1999-06-30 05:00:00,16,1018.9,0.4,94,15,15000,14.816,,,220,,,,,,,,,,0,wg-a,,,,AAXX 30054 07181 32365 72208 10160 20150 39781 40189 53004 700// 878// 90500=
07181,1999-06-30 06:00:00,17,1019.3,1,82,14,15000,22.224,,,250,15.9,21.4,,,,,,,,0,wg-a,,,,AAXX 30064 07181 12365 72512 10170 20140 39786 40193 53010 60004 700// 878// 90600 333 10214 20159=
07181,1999-06-30 07:00:00,17,1019.3,0.7,82,14,15000,18.52,,,250,,,,,,,,,,0,wg-a,,,,AAXX 30074 07181 32365 72510 10170 20140 39786 40193 51007 700// 878// 90700=
07181,1999-06-30 09:00:00,18,1019.9,0.7,77,14,15000,25.928,,,250,,,,,,,,,,0,wg-a,,,,AAXX 30094 07181 32465 72514 10180 20140 39793 40199 53007 700// 878// 90900=
07181,1999-06-30 10:00:00,19,1019.8,0.7,73,14,15000,29.632,,,260,,,,,,,,,,0,wg-a,,,,AAXX 30104 07181 32465 72616 10190 20140 39793 40198 51007 700// 878// 91000=
07181,1999-06-30 11:00:00,19,1020.1,0.4,73,14,15000,29.632,,,230,,,,,,,,,,0,wg-a,,,,AAXX 30114 07181 32465 72316 10190 20140 39796 40201 53004 700// 878// 91100=
07181,1999-06-30 12:00:00,19,1020.4,0.6,68,13,15000,29.632,,,260,,,,,,,,,,0,wg-a,,,,AAXX 30124 07181 32465 72616 10190 20130 39799 40204 53006 700// 878// 91200=
07181,1999-06-30 14:00:00,20,1019.8,-0.1,73,15,15000,22.224,,,260,,,,,,,,,,0,wg-a,,,,AAXX 30144 07181 32565 72612 10200 20150 39795 40198 58001 700// 878// 91400=
07181,1999-06-30 15:00:00,20,1020.3,-0,68,14,15000,25.928,,,270,,,,,,,,,,0,wg-a,,,,AAXX 30154 07181 32565 72714 10200 20140 39799 40203 55000 700// 878// 91500=
07181,1999-06-30 16:00:00,18,1020.8,0.3,77,14,15000,25.928,,,250,,,,,,,,,,0,wg-a,,,,AAXX 30164 07181 32565 72514 10180 20140 39802 40208 53003 700// 878// 91600=
07181,1999-06-30 17:00:00,18,1021,0.8,77,14,15000,11.112,,,260,,,,,,,,,,0,wg-a,,,,AAXX 30174 07181 32565 72606 10180 20140 39803 40210 51008 700// 86832 91700=
07181,1999-06-30 18:00:00,18,1021,0.5,77,14,20000,14.816,,,240,16.7,21.3,,,,,,,,0,wg-a,,,,AAXX 30184 07181 32570 72408 10180 20140 39804 40210 51005 700// 84802 91800 333 10213 20167=
07181,1999-06-30 19:00:00,17,1021.6,0.6,82,14,20000,11.112,,,260,,,,,,,,,,0,wg-a,,,,AAXX 30194 07181 32570 72606 10170 20140 39808 40216 53006 700// 83802 91900=
07181,1999-06-30 20:00:00,16,1022.1,0.8,88,14,20000,11.112,,,260,,,,,,,,,,0,wg-a,,,,AAXX 30204 07181 32570 72606 10160 20140 39811 40221 53008 700// 83802 92000=
07181,1999-06-30 21:00:00,15,1022.7,1.2,94,14,20000,11.112,,,280,,,,,,,,,,0,wg-a,,,,AAXX 30214 07181 32670 /2806 10150 20140 39816 40227 53012 700// 82802 92100=
07181,1999-06-30 22:00:00,14,1023,0.9,94,13,20000,3.704,,,240,,,,,,,,,,0,wg-a,,,,AAXX 30224 07181 32670 /2402 10140 20130 39817 40230 51009 700// 82802 92200=
07181,1999-06-30 23:00:00,14,1022.8,0.3,94,13,10000,3.704,,,180,,,,,,,,,,,wg-a,,,,AAXX 30234 07181 32/60 /1802 10140 20130 39814 40228 50003 92300=
07181,1999-07-01 00:00:00,13,1022.6,-0.5,94,12,20000,7.408,,,200,,,,,,,,,,0,wg-a,,,,AAXX 01004 07181 32770 52004 10130 20120 39811 40226 58005 700// 82502 90000=
07181,1999-07-01 01:00:00,12,1022.7,-0.6,100,12,20000,7.408,,,220,,,,,,,,,,0,wg-a,,,,AAXX 01014 07181 32770 52204 10120 20120 39811 40227 56006 700// 82502 90100=
07181,1999-07-01 02:00:00,11,1022.4,-0.7,100,11,20000,3.704,,,200,,,,,,,,,,0,wg-a,,,,AAXX 01024 07181 32770 52002 10110 20110 39807 40224 58007 700// 82502 90200=
07181,1999-07-01 03:00:00,12,1022.3,-0.4,94,11,7000,7.408,,,190,,,,0,,,,,,0,wg-a,,,,AAXX 01034 07181 12757 /1904 10120 20110 39807 40223 57004 60007 700// 85500 90300=
07181,1999-07-01 04:00:00,12,1022.2,-0.5,100,12,7000,7.408,,,180,,,,,,,,,,0,wg-a,,,,AAXX 01044 07181 32757 71804 10120 20120 39806 40222 56005 700// 875// 90400=
07181,1999-07-01 05:00:00,13,1022,-0.1,94,12,8000,3.704,,,180,,,,,,,,,,0,wg-a,,,,AAXX 01054 07181 32758 71802 10130 20120 39806 40220 57001 700// 875// 90500=
07181,1999-07-01 06:00:00,14,1021.8,-0.1,100,14,8000,7.408,,,250,11,18.3,,,,,,,,0,wg-a,,,,AAXX 01064 07181 12758 72504 10140 20140 39806 40218 56001 60004 700// 875// 90600 333 10183 20110=
07181,1999-07-01 07:00:00,17,1021.5,-0,82,14,15000,11.112,,,210,,,,,,,,,,0,wg-a,,,,AAXX 01074 07181 32265 /2106 10170 20140 39806 40215 54000 700// 82801 90700=
07181,1999-07-01 08:00:00,19,1021.2,-0,68,13,20000,18.52,,,240,,,,,,,,,,0,wg-a,,,,AAXX 01084 07181 32570 /2410 10190 20130 39806 40212 54000 700// 83101 90800=
07181,1999-07-01 09:00:00,20,1020.5,-0.5,64,13,25000,18.52,,,240,,,,,,,,,,0,wg-a,,,,AAXX 01094 07181 32575 /2410 10200 20130 39801 40205 58005 700// 84101 90900=
07181,1999-07-01 10:00:00,20,1020.7,-0.3,60,12,25000,18.52,,,250,,,,,,,,,,0,wg-a,,,,AAXX 01104 07181 32575 /2510 10200 20120 39803 40207 55003 700// 84101 91000=
07181,1999-07-01 11:00:00,22,1020.2,-0.6,57,13,25000,18.52,,,250,,,,,,,,,,0,wg-a,,,,AAXX 01114 07181 32675 /2510 10220 20130 39800 40202 56006 700// 84101 91100=
07181,1999-07-01 12:00:00,22,1019.7,-0.4,57,13,25000,18.52,,,240,,,,,,,,,,0,wg-a,,,,AAXX 01124 07181 32675 /2410 10220 20130 39797 40197 58004 700// 84101 91200=
07181,1999-07-01 13:00:00,23,1019.2,-1,53,13,25000,22.224,,,240,,,,,,,,,,0,wg-a,,,,AAXX 01134 07181 32775 62412 10230 20130 39793 40192 58010 700// 84101 91300=
07181,1999-07-01 14:00:00,24,1018.7,-1.1,50,13,25000,11.112,,,280,,,,,,,,,,0,wg-a,,,,AAXX 01144 07181 32775 62806 10240 20130 39789 40187 58011 700// 83801 91400=
07181,1999-07-01 15:00:00,23,1018.6,-1.1,53,13,25000,11.112,,,260,,,,,,,,,,0,wg-a,,,,AAXX 01154 07181 32775 72606 10230 20130 39786 40186 56011 700// 878// 91500=
07181,1999-07-01 16:00:00,23,1018.1,-1.1,57,14,25000,14.816,,,230,,,,,,,,,,0,wg-a,,,,AAXX 01164 07181 32775 72308 10230 20140 39782 40181 57011 700// 878// 91600=
07181,1999-07-01 17:00:00,23,1017.9,-0.9,61,15,20000,11.112,,,310,,,,,,,,,,0,wg-a,,,,AAXX 01174 07181 32770 73106 10230 20150 39780 40179 56009 700// 878// 91700=
07181,1999-07-01 18:00:00,22,1017.9,-0.7,60,14,20000,14.816,,,320,14.2,23.9,,,,,,,,0,wg-a,,,,AAXX 01184 07181 32770 73208 10220 20140 39779 40179 56007 700// 878// 91800 333 10239 20142=
07181,1999-07-01 19:00:00,20,1018.3,-0.1,68,14,20000,11.112,,,320,,,,,,,,,,0,wg-a,,,,AAXX 01194 07181 32770 73206 10200 20140 39781 40183 55001 700// 878// 91900=
07181,1999-07-01 20:00:00,20,1018.5,0.2,68,14,18000,3.704,,,330,,,,,,,,,,0,wg-a,,,,AAXX 01204 07181 32768 73302 10200 20140 39782 40185 53002 700// 878// 92000=
07181,1999-07-01 21:00:00,19,1018.7,0.4,78,15,18000,7.408,,,320,,,,,,,,,,0,wg-a,,,,AAXX 01214 07181 32768 73204 10190 20150 39783 40187 51004 700// 875// 92100=
07181,1999-07-01 22:00:00,18,1018.9,0.2,83,15,18000,3.704,,,40,,,,,,,,,,0,wg-a,,,,AAXX 01224 07181 32768 60402 10180 20150 39783 40189 51002 700// 86500 92200=
07181,1999-07-01 23:00:00,17,1019,0.2,88,15,18000,3.704,,,90,,,,,,,,,,0,wg-a,,,,AAXX 01234 07181 32768 60902 10170 20150 39784 40190 52002 700// 86500 92300=
07181,1999-07-02 00:00:00,16,1019,-0.1,88,14,18000,3.704,,,120,,,,,,,,,,0,wg-a,,,,AAXX 02004 07181 32768 61202 10160 20140 39782 40190 58001 700// 86500 90000=
07181,1999-07-02 05:00:00,15,1018.2,-0.5,94,14,13000,7.408,,,160,,,,,,,,,,40,wg-a,,,,AAXX 02054 07181 32763 /1604 10150 20140 39773 40182 56005 74011 81501 90500=
07181,1999-07-02 07:00:00,20,1017.5,-0.1,78,16,15000,3.704,,,140,,,,,,,,,,0,wg-a,,,,AAXX 02074 07181 32665 /1402 10200 20160 39773 40175 56001 700// 81501 90700=
07181,1999-07-02 08:00:00,22,1017.4,0.1,69,16,15000,3.704,,,200,,,,,,,,,,0,wg-a,,,,AAXX 02084 07181 32565 72002 10220 20160 39774 40174 53001 700// 82201 90800=
07181,1999-07-02 09:00:00,22,1017.1,-0.1,65,15,20000,3.704,,,10,,,,,,,,,,0,wg-a,,,,AAXX 02094 07181 32570 70102 10220 20150 39772 40171 58001 700// 84201 90900=
07181,1999-07-02 10:00:00,24,1016.7,-0.3,54,14,25000,3.704,,,360,,,,,,,,,,0,wg-a,,,,AAXX 02104 07181 32675 73602 10240 20140 39770 40167 58003 700// 84201 91000=
07181,1999-07-02 11:00:00,24,1016.1,-1,57,15,25000,7.408,,,30,,,,,,,,,,0,wg-a,,,,AAXX 02114 07181 32675 /0304 10240 20150 39764 40161 58010 700// 83201 91100=
07181,1999-07-02 12:00:00,25,1015.4,-1.2,54,15,25000,3.704,,,50,,,,,,,,,,0,wg-a,,,,AAXX 02124 07181 32675 /0502 10250 20150 39760 40154 58012 700// 83201 91200=
07181,1999-07-02 13:00:00,26,1015,-1.4,51,15,25000,3.704,,,90,,,,,,,,,,0,wg-a,,,,AAXX 02134 07181 32675 50902 10260 20150 39756 40150 56014 700// 83201 91300=
07181,1999-07-02 15:00:00,27,1013.9,-1.3,48,15,25000,7.408,,,100,,,,,,,,,,0,wg-a,,,,AAXX 02154 07181 32775 51004 10270 20150 39747 40139 58013 700// 83201 91500=
07181,1999-07-02 16:00:00,27,1013.5,-1.3,51,16,25000,7.408,,,170,,,,,,,,,,0,wg-a,,,,AAXX 02164 07181 32775 31704 10270 20160 39743 40135 58013 700// 82201 91600=
07181,1999-07-02 17:00:00,26,1013.3,-1.2,51,15,25000,7.408,,,140,,,,,,,,,,0,wg-a,,,,AAXX 02174 07181 32775 21404 10260 20150 39741 40133 56012 700// 81201 91700=
07181,1999-07-02 19:00:00,25,1013,-0.7,54,15,25000,7.408,,,90,,,,,,,,,,0,wg-a,,,,AAXX 02194 07181 32/75 20904 10250 20150 39736 40130 58007 700// 80001 91900=
07181,1999-07-02 20:00:00,22,1013.9,-0,65,15,25000,7.408,,,110,,,,,,,,,,0,wg-a,,,,AAXX 02204 07181 32/75 21104 10220 20150 39741 40139 55000 700// 80001 92000=
07181,1999-07-02 21:00:00,21,1014.2,0.3,69,15,25000,7.408,,,140,,,,,,,,,,0,wg-a,,,,AAXX 02214 07181 32/75 21404 10210 20150 39742 40142 53003 700// 80001 92100=
07181,1999-07-02 22:00:00,19,1014.3,0.5,73,14,25000,11.112,,,150,,,,,,,,,,0,wg-a,,,,AAXX 02224 07181 32/75 11506 10190 20140 39741 40143 50005 700// 80001 92200=
07181,1999-07-02 23:00:00,19,1014,-0.3,73,14,25000,11.112,,,130,,,,,,,,,,0,wg-a,,,,AAXX 02234 07181 32/75 01306 10190 20140 39738 40140 58003 700// 80000 92300=
07181,1999-07-03 00:00:00,18,1013.8,-0.8,77,14,25000,7.408,,,150,,,,,,,,,,,wg-a,,,,AAXX 03004 07181 32/75 01504 10180 20140 39734 40138 58008 80000 90000=
07181,1999-07-03 01:00:00,17,1013.2,-1.4,82,14,25000,7.408,,,120,,,,,,,,,,0,wg-a,,,,AAXX 03014 07181 32/75 01204 10170 20140 39727 40132 58014 700// 80000 90100=
07181,1999-07-03 02:00:00,16,1012.8,-1.6,94,15,10000,11.112,,,140,,,,,,,,,,,wg-a,,,,AAXX 03024 07181 32/60 /1406 10160 20150 39722 40128 58016 90200=
07181,1999-07-03 03:00:00,16,1012.4,-1.6,88,14,15000,11.112,,,160,,,,,,,,,,0,wg-a,,,,AAXX 03034 07181 32/65 21606 10160 20140 39718 40124 56016 700// 81031 90300=
07181,1999-07-03 04:00:00,15,1012.3,-1.1,94,14,15000,7.408,,,180,,,,,,,,,,0,wg-a,,,,AAXX 03044 07181 32/65 21804 10150 20140 39716 40123 56011 700// 81031 90400=
07181,1999-07-03 05:00:00,17,1011.8,-0.8,88,15,15000,11.112,,,150,,,,,,,,,,0,wg-a,,,,AAXX 03054 07181 32/65 31506 10170 20150 39714 40118 56008 700// 81031 90500=
07181,1999-07-03 06:00:00,21,1011,-0.6,69,15,20000,14.816,,,180,14.8,26.1,,,,,,,,0,wg-a,,,,AAXX 03064 07181 12570 /1808 10210 20150 39712 40110 57006 60004 700// 81201 90600 333 10261 20148=
07181,1999-07-03 07:00:00,23,1011,-0.1,65,16,20000,18.52,,,200,,,,,,,,,,0,wg-a,,,,AAXX 03074 07181 32/70 52010 10230 20160 39715 40110 55001 700// 80001 90700=
07181,1999-07-03 08:00:00,25,1010.7,-0,57,16,20000,18.52,,,210,,,,,,,,,,0,wg-a,,,,AAXX 03084 07181 32/70 52110 10250 20160 39714 40107 55000 700// 80001 90800=
07181,1999-07-03 11:00:00,29,1010.4,0.3,58,20,20000,22.224,,,230,,,,,,,,,,0,wg-a,,,,AAXX 03114 07181 32/70 52312 10290 20200 39717 40104 53003 700// 81032 91100=
07181,1999-07-03 12:00:00,29,1010.4,0.4,58,20,20000,14.816,,,240,,,,,,,,,,0,wg-a,,,,AAXX 03124 07181 32670 /2408 10290 20200 39717 40104 51004 700// 81132 91200=
07181,1999-07-03 13:00:00,28,1010.7,0.4,55,18,20000,18.52,,,280,,,,,,,,,,0,wg-a,,,,AAXX 03134 07181 32670 /2810 10280 20180 39719 40107 52004 700// 81132 91300=
07181,1999-07-03 14:00:00,29,1010.6,0.1,55,19,20000,18.52,,,260,,,,,,,,,,0,wg-a,,,,AAXX 03144 07181 32670 /2610 10290 20190 39718 40106 50001 700// 81132 91400=
07181,1999-07-03 15:00:00,29,1010.8,0.3,48,17,20000,18.52,,37.04,260,,,,,,,,,,0,wg-a,,,,AAXX 03154 07181 32670 42610 10290 20170 39720 40108 52003 700// 81232 91500 333 91020=
07181,1999-07-03 16:00:00,28,1010.6,-0.1,48,16,20000,14.816,,,260,,,,,,,,,,0,wg-a,,,,AAXX 03164 07181 32670 42608 10280 20160 39718 40106 58001 700// 82232 91600=
07181,1999-07-03 17:00:00,28,1010.4,-0.3,48,16,20000,14.816,,,300,,,,,,,,,,0,wg-a,,,,AAXX 03174 07181 32670 33008 10280 20160 39715 40104 58003 700// 81231 91700=
07181,1999-07-03 18:00:00,26,1010.8,-0.3,54,16,20000,14.816,,,330,21,29.6,,,,,,,,0,wg-a,,,,AAXX 03184 07181 32/70 33308 10260 20160 39717 40108 55003 700// 81031 91800 333 10296 20210=
07181,1999-07-03 19:00:00,24,1011.3,0.1,61,16,20000,7.408,,,340,,,,,,,,,,0,wg-a,,,,AAXX 03194 07181 32/70 33404 10240 20160 39719 40113 53001 700// 81031 91900=
07181,1999-07-03 20:00:00,22,1011.7,0.5,69,16,20000,3.704,,,30,,,,,,,,,,0,wg-a,,,,AAXX 03204 07181 32670 40302 10220 20160 39720 40117 51005 700// 82231 92000=
07181,1999-07-03 21:00:00,21,1012.1,0.5,73,16,20000,0,,,0,,,,,,,,,,0,wg-a,,,,AAXX 03214 07181 32770 30000 10210 20160 39722 40121 52005 700// 81231 92100=
07181,1999-07-03 22:00:00,20,1012.2,0.3,78,16,20000,0,,,0,,,,,,,,,,0,wg-a,,,,AAXX 03224 07181 32770 30000 10200 20160 39722 40122 51003 700// 81101 92200=
07181,1999-07-03 23:00:00,20,1011.7,-0.3,78,16,17000,7.408,,,130,,,,,,,,,,17,wg-a,,,,AAXX 03234 07181 32667 41304 10200 20160 39717 40117 58003 71790 82901 92300=
07181,1999-07-04 00:00:00,20,1011.8,-0.4,78,16,17000,11.112,,,160,,,,,,,,,,29,wg-a,,,,AAXX 04004 07181 32/67 31606 10200 20160 39718 40118 55004 72990 81031 90000=
07181,1999-07-04 01:00:00,19,1011.7,-0.6,83,16,17000,0,,,0,,,,,,,,,,13,wg-a,,,,AAXX 04014 07181 32767 40000 10190 20160 39716 40117 56006 71300 82131 90100=
07181,1999-07-04 02:00:00,19,1011.9,0.1,88,17,15000,11.112,,,280,,,,,,,,,,17,wg-a,,,,AAXX 04024 07181 32665 42806 10190 20170 39718 40119 53001 71790 82931 90200=
07181,1999-07-04 03:00:00,19,1011.7,-0.2,88,17,15000,3.704,,,280,,,,,,,,,,17,wg-a,,,,AAXX 04034 07181 32665 72802 10190 20170 39716 40117 57002 71791 86901 90300=
07181,1999-07-04 04:00:00,19,1011.2,-0.5,88,17,15000,7.408,,,60,,,,,,,,,,29,wg-a,,,,AAXX 04044 07181 32665 70604 10190 20170 39711 40112 58005 72992 85801 90400=
07181,1999-07-04 05:00:00,19,1011.7,-0.2,88,17,15000,7.408,,,90,,,,,,,,,,0,wg-a,,,,AAXX 04054 07181 32665 70904 10190 20170 39716 40117 55002 700// 878// 90500=
07181,1999-07-04 07:00:00,22,1010.9,0.1,78,18,15000,7.408,,,90,,,,,,,,,,0,wg-a,,,,AAXX 04074 07181 32665 70904 10220 20180 39712 40109 50001 700// 84801 90700=
07181,1999-07-04 09:00:00,25,1010.3,-0.3,61,17,15000,11.112,,,100,,,,,,,,,,0,wg-a,,,,AAXX 04094 07181 32765 61006 10250 20170 39710 40103 58003 700// 81531 90900=
07181,1999-07-04 10:00:00,26,1010,-0.3,61,18,18000,7.408,,,110,,,,,,,,,,0,wg-a,,,,AAXX 04104 07181 32668 /1104 10260 20180 39709 40100 58003 700// 82101 91000=
07181,1999-07-04 11:00:00,26,1009.5,-1,61,18,20000,3.704,,,100,,,,,,,,,,0,wg-a,,,,AAXX 04114 07181 32670 71002 10260 20180 39705 40095 56010 700// 85201 91100=
07181,1999-07-04 12:00:00,28,1008.9,-0.9,55,18,20000,11.112,,,120,,,,,,,,,,0,wg-a,,,,AAXX 04124 07181 32670 71206 10280 20180 39701 40089 58009 700// 85201 91200=
07181,1999-07-04 13:00:00,29,1008.2,-1.4,55,19,20000,3.704,,,140,,,,,,,,,,0,wg-a,,,,AAXX 04134 07181 32670 71402 10290 20190 39695 40082 58014 700// 85201 91300=
07181,1999-07-04 14:00:00,28,1007.4,-1.7,62,20,20000,14.816,,,110,,,,,,,,,,0,wg-a,,,,AAXX 04144 07181 32670 71108 10280 20200 39688 40074 58017 700// 84201 91400=
07181,1999-07-04 15:00:00,29,1006.6,-2.1,55,19,20000,11.112,,,120,,,,,,,,,,0,wg-a,,,,AAXX 04154 07181 32670 71206 10290 20190 39680 40066 58021 700// 84281 91500=
07181,1999-07-04 16:00:00,30,1006.1,-1.9,46,17,11000,11.112,,,160,,,,,,,,,,,wg-a,,,,AAXX 04164 07181 32/61 /1606 10300 20170 39676 40061 56019 91600=
07181,1999-07-04 17:00:00,29,1005.6,-1.8,40,14,20000,18.52,,,170,,,,,,,,,,0,wg-a,,,,AAXX 04174 07181 32770 51710 10290 20140 39670 40056 56018 700// 82281 91700=
07181,1999-07-04 18:00:00,27,1005.3,-1.5,51,16,20000,7.408,,,140,19.9,29.7,,,,,,,,0,wg-a,,,,AAXX 04184 07181 32770 51404 10270 20160 39665 40053 58015 700// 82281 91800 333 10297 20199=
07181,1999-07-04 19:00:00,26,1005.7,-0.9,61,18,20000,7.408,,,170,,,,,,,,,,0,wg-a,,,,AAXX 04194 07181 32770 61704 10260 20180 39667 40057 55009 700// 83281 91900=
07181,1999-07-04 20:00:00,24,1005.6,-0.7,61,16,20000,7.408,,,160,,,,,,,,,,0,wg-a,,,,AAXX 04204 07181 32770 81604 10240 20160 39663 40056 56007 700// 81181 92000=
07181,1999-07-04 21:00:00,23,1005.5,-0.4,61,15,20000,11.112,,,150,,,,,,,,,,0,wg-a,,,,AAXX 04214 07181 32770 51506 10230 20150 39661 40055 58004 700// 81181 92100=
07181,1999-07-04 22:00:00,22,1005.2,-1,65,15,20000,11.112,,,140,,,,,,,,,,0,wg-a,,,,AAXX 04224 07181 32770 51406 10220 20150 39657 40052 57010 700// 81181 92200=
07181,1999-07-04 23:00:00,19,1006.7,0.5,88,17,20000,14.816,,,320,,,,,,,,,,0,wg-a,,,,AAXX 04234 07181 32770 53208 10190 20170 39668 40067 53005 700// 81181 92300=
07181,1999-07-05 00:00:00,18,1006.3,0.2,94,17,20000,7.408,,,340,,,,,,,,,,0,wg-a,,,,AAXX 05004 07181 32770 43404 10180 20170 39663 40063 50002 700// 81101 90000=
07181,1999-07-05 01:00:00,17,1006.5,0.7,94,16,20000,7.408,,,70,,,,,,,,,,0,wg-a,,,,AAXX 05014 07181 32770 40704 10170 20160 39664 40065 51007 700// 81101 90100=
07181,1999-07-05 02:00:00,17,1006.7,-0.3,94,16,20000,11.112,,,150,,,,,,,,,,0,wg-a,,,,AAXX 05024 07181 32770 71506 10170 20160 39665 40067 55003 700// 83582 90200=
07181,1999-07-05 04:00:00,16,1008.7,2,100,16,15000,18.52,,,290,,,,,,,,,,0,wg-a,,,,AAXX 05044 07181 32465 82910 10160 20160 39684 40087 53020 700// 875// 90400=
07181,1999-07-05 05:00:00,17,1009.1,2.3,94,16,17000,11.112,,,240,,,,,,,,,,0,wg-a,,,,AAXX 05054 07181 32367 82406 10170 20160 39688 40091 51023 700// 8453/ 90500=
07181,1999-07-05 06:00:00,17,1009.6,1.5,94,16,17000,11.112,,,230,16.3,27.1,,,,,,,,0,wg-a,,,,AAXX 05064 07181 12367 82306 10170 20160 39693 40096 51015 60004 700// 8453/ 90600 333 10271 20163=
07181,1999-07-05 07:00:00,17,1010.5,1.8,88,15,17000,18.52,,,270,,,,,,,,,,0,wg-a,,,,AAXX 05074 07181 32367 82710 10170 20150 39702 40105 53018 700// 877// 90700=
07181,1999-07-05 08:00:00,17,1011.4,2.2,88,15,15000,18.52,,,260,,,,,,,,,,80,wg-a,,,,AAXX 05084 07181 02365 82610 10170 20150 39710 40114 53022 61000 78086 872// 90800 333 ////=
07181,1999-07-05 09:00:00,17,1011.4,1.7,88,15,20000,11.112,,,300,,,,,,,,,,25,wg-a,,,,AAXX 05094 07181 02370 83006 10170 20150 39710 40114 51017 61000 72586 872// 90900 333 ////=
07181,1999-07-05 10:00:00,18,1011.9,1.5,83,15,20000,11.112,,,260,,,,,,,,,,0,wg-a,,,,AAXX 05104 07181 32370 82606 10180 20150 39717 40119 51015 700// 872// 91000=
07181,1999-07-05 11:00:00,19,1012,0.8,83,16,20000,11.112,,,280,,,,,,,,,,25,wg-a,,,,AAXX 05114 07181 02370 82806 10190 20160 39718 40120 53008 61000 72586 878// 91100 333 ////=
07181,1999-07-05 12:00:00,20,1011.9,0.9,73,15,20000,11.112,,,270,,,,,,,,,,1,wg-a,,,,AAXX 05124 07181 02470 72706 10200 20150 39719 40119 51009 61000 70186 878// 91200 333 ////=
07181,1999-07-05 13:00:00,19,1012.3,0.4,83,16,20000,11.112,,,250,,,0,,,,,,,25,wg-a,,,,AAXX 05134 07181 12470 72506 10190 20160 39721 40123 53004 60005 72586 878// 91300=
07181,1999-07-05 14:00:00,22,1011.2,-0.3,69,16,20000,7.408,,,280,,,,,,,,,,0,wg-a,,,,AAXX 05144 07181 32570 52804 10220 20160 39715 40112 58003 700// 85800 91400=
07181,1999-07-05 15:00:00,22,1010.7,-0.9,69,16,20000,11.112,,,320,,,,0,,,,,,3,wg-a,,,,AAXX 05154 07181 12570 63206 10220 20160 39710 40107 58009 60007 70386 86900 91500=
07181,1999-07-05 16:00:00,19,1010.6,-1.5,88,17,13000,11.112,,,330,,,1,,,,,,,80,wg-a,,,,AAXX 05164 07181 12463 73306 10190 20170 39706 40106 56015 60015 78098 879// 91600=
07181,1999-07-05 19:00:00,18,1011,0.2,94,17,15000,11.112,,,140,,,,,,,,,,0,wg-a,,,,AAXX 05194 07181 32365 71406 10180 20170 39708 40110 53002 700// 878// 91900=
07181,1999-07-05 20:00:00,18,1011.5,0.2,94,17,15000,11.112,,,130,,,,,,,,,,0,wg-a,,,,AAXX 05204 07181 32465 71306 10180 20170 39712 40115 53002 700// 8583/ 92000=
07181,1999-07-05 21:00:00,17,1011.3,0.9,100,17,15000,3.704,,,130,,,,,,,,,,0,wg-a,,,,AAXX 05214 07181 32665 71302 10170 20170 39710 40113 50009 700// 8253/ 92100=
07181,1999-07-05 22:00:00,17,1011.4,0.2,94,16,15000,3.704,,,200,,,,,,,,,,0,wg-a,,,,AAXX 05224 07181 32665 72002 10170 20160 39710 40114 51002 700// 82531 92200=
07181,1999-07-06 00:00:00,16,1011.6,0.1,100,16,15000,7.408,,,170,,,,,,,,,,0,wg-a,,,,AAXX 06004 07181 32665 71704 10160 20160 39711 40116 50001 700// 82531 90000=
07181,1999-07-06 01:00:00,16,1011.6,0.1,100,16,15000,11.112,,,230,,,,,,,,,,0,wg-a,,,,AAXX 06014 07181 32565 72306 10160 20160 39711 40116 51001 700// 8353/ 90100=
07181,1999-07-06 02:00:00,16,1011.7,-0.6,100,16,15000,11.112,,,220,,,,,,,,,,0,wg-a,,,,AAXX 06024 07181 32565 72206 10160 20160 39712 40117 55006 700// 8353/ 90200=
07181,1999-07-06 04:00:00,16,1011.4,-0.2,100,16,15000,7.408,,,200,,,,,,,,,,21,wg-a,,,,AAXX 06044 07181 02465 72004 10160 20160 39709 40114 58002 61000 72162 8453/ 90400 333 ////=
07181,1999-07-06 05:00:00,16,1011.6,-0.1,100,16,10000,11.112,,,220,,,,,,,,,,0,wg-a,,,,AAXX 06054 07181 32460 72206 10160 20160 39711 40116 55001 700// 8653/ 90500=
07181,1999-07-06 07:00:00,16,1012.1,0.7,100,16,1500,14.816,,,230,,,5,,,,,,,61,wg-a,,,,AAXX 06074 07181 12215 82308 10160 20160 39716 40121 53007 60055 76162 875// 90700=
07181,1999-07-06 08:00:00,15,1013.3,1.5,100,15,4000,18.52,,,320,,,15,,,,,,,10,wg-a,,,,AAXX 06084 07181 12240 83210 10150 20150 39726 40133 53015 60155 71096 875// 90800=
07181,1999-07-06 09:00:00,15,1014.2,2.1,94,14,4000,18.52,,,250,,,,21,,,,,,61,wg-a,,,,AAXX 06094 07181 12240 82510 10150 20140 39734 40142 53021 60217 76196 875// 90900=
07181,1999-07-06 10:00:00,15,1014.9,2.4,94,14,500,11.112,,,280,,,9,,,,,,,10,wg-a,,,,AAXX 06104 07181 12200 82806 10150 20140 39740 40149 51024 60095 71066 875// 91000=
07181,1999-07-06 11:00:00,14,1015.6,2,100,14,8000,14.816,,,270,,,3,,,,,,,61,wg-a,,,,AAXX 06114 07181 12258 82708 10140 20140 39746 40156 51020 60035 76166 8672/ 91100=
07181,1999-07-06 12:00:00,15,1015.8,1.5,94,14,13000,7.408,,,220,,,,14,,,,,,61,wg-a,,,,AAXX 06124 07181 12263 82204 10150 20140 39749 40158 51015 60147 76196 8652/ 91200=
07181,1999-07-06 13:00:00,15,1016.1,1.2,100,15,13000,14.816,,,270,,,1,,,,,,,61,wg-a,,,,AAXX 06134 07181 12363 72708 10150 20150 39752 40161 51012 60015 76166 8682/ 91300=
07181,1999-07-06 14:00:00,15,1016.5,1.1,94,14,13000,14.816,,,290,,,0,,,,,,,21,wg-a,,,,AAXX 06144 07181 12463 72908 10150 20140 39757 40165 53011 60005 72162 8682/ 91400=
07181,1999-07-07 10:00:00,19,1023.2,0.6,78,15,9000,11.112,,,310,,,,,,,,,,0,wg-a,,,,AAXX 07104 07181 32359 73106 10190 20150 39826 40232 51006 700// 877// 91000=
07181,1999-07-07 11:00:00,20,1023.3,0.5,78,16,10000,18.52,,,300,,,,,,,,,,0,wg-a,,,,AAXX 07114 07181 32460 73010 10200 20160 39828 40233 52005 700// 86202 91100=
07181,1999-07-07 12:00:00,20,1023.3,0.3,78,16,10000,18.52,,,320,,,,,,,,,,0,wg-a,,,,AAXX 07124 07181 32460 83210 10200 20160 39828 40233 51003 700// 86202 91200=
07181,1999-07-07 13:00:00,20,1023.3,0.3,83,17,10000,22.224,,,300,,,,,,,,,,0,wg-a,,,,AAXX 07134 07181 32460 83012 10200 20170 39829 40233 51003 700// 85202 91300=
07181,1999-07-07 14:00:00,21,1023,-0.1,73,16,11000,22.224,,,330,,,,,,,,,,0,wg-a,,,,AAXX 07144 07181 32561 73312 10210 20160 39827 40230 58001 700// 85202 91400=
07181,1999-07-07 15:00:00,21,1023,-0.1,69,15,11000,18.52,,,340,,,,,,,,,,0,wg-a,,,,AAXX 07154 07181 32561 73410 10210 20150 39827 40230 58001 700// 85232 91500=
07181,1999-07-07 16:00:00,19,1023.6,0.1,73,14,11000,18.52,,,340,,,,,,,,,,0,wg-a,,,,AAXX 07164 07181 32561 73410 10190 20140 39830 40236 53001 700// 83232 91600=
07181,1999-07-07 17:00:00,19,1023.7,0.4,68,13,11000,14.816,,,330,,,,,,,,,,0,wg-a,,,,AAXX 07174 07181 32561 73308 10190 20130 39831 40237 53004 700// 82232 91700=
07181,1999-07-07 18:00:00,19,1024.2,0.8,78,15,11000,11.112,,,350,15.7,21.6,,,,,,,,0,wg-a,,,,AAXX 07184 07181 32561 73506 10190 20150 39835 40242 53008 700// 81232 91800 333 10216 20157=
07181,1999-07-07 19:00:00,19,1024.6,0.9,78,15,11000,7.408,,,20,,,,,,,,,,0,wg-a,,,,AAXX 07194 07181 32561 70204 10190 20150 39839 40246 53009 700// 81232 91900=
07181,1999-07-07 20:00:00,18,1025.4,1.5,83,15,11000,3.704,,,360,,,,,,,,,,0,wg-a,,,,AAXX 07204 07181 32561 73602 10180 20150 39846 40254 53015 700// 81232 92000=
07181,1999-07-07 22:00:00,16,1026.2,1.1,94,15,12000,3.704,,,360,,,,,,,,,,0,wg-a,,,,AAXX 07224 07181 32/62 53602 10160 20150 39850 40262 51011 700// 82032 92200=
07181,1999-07-08 00:00:00,15,1026.4,0.3,100,15,0,7.408,,,340,,,,,,,,,,,wg-a,,,,AAXX 08004 07181 32/// /3404 10150 20150 39851 40264 51003 90000=
07181,1999-07-08 01:00:00,14,1026.4,0,100,14,8000,7.408,,,320,,,,,,,,,,,wg-a,,,,AAXX 08014 07181 32/58 /3204 10140 20140 39850 40264 50000 90100=
07181,1999-07-08 04:00:00,13,1026.9,0.4,100,13,300,7.408,,,340,,,,,,,,,,44,wg-a,,,,AAXX 08044 07181 32/03 /3404 10130 20130 39854 40269 53004 74442 81032 90400=
07181,1999-07-08 05:00:00,13,1027.3,0.7,100,13,800,3.704,,,340,,,,,,,,,,42,wg-a,,,,AAXX 08054 07181 32008 /3402 10130 20130 39857 40273 53007 74244 82702 90500=
07181,1999-07-08 06:00:00,14,1027.4,0.8,100,14,400,7.408,,,350,13.2,19.1,,,,,,,,44,wg-a,,,,AAXX 08064 07181 12004 73504 10140 20140 39859 40274 51008 60004 74441 84702 90600 333 10191 20132=
07181,1999-07-08 07:00:00,15,1027.4,0.6,100,15,2000,11.112,,,360,,,,,,,,,,10,wg-a,,,,AAXX 08074 07181 32120 73606 10150 20150 39860 40274 51006 71042 84702 90700=
07181,1999-07-08 08:00:00,16,1027.2,0.4,94,15,6000,7.408,,,350,,,,,,,,,,10,wg-a,,,,AAXX 08084 07181 32256 /3504 10160 20150 39861 40272 51004 710// 83102 90800=
07181,1999-07-08 09:00:00,19,1026.9,0.3,83,16,7000,11.112,,,30,,,,,,,,,,3,wg-a,,,,AAXX 08094 07181 32457 /0306 10190 20160 39862 40269 52003 70342 84201 90900=
07181,1999-07-08 10:00:00,21,1026.5,0.1,69,15,8000,11.112,,,40,,,,,,,,,,0,wg-a,,,,AAXX 08104 07181 32558 60406 10210 20150 39861 40265 50001 700// 85201 91000=
07181,1999-07-08 11:00:00,22,1026.2,-0.3,60,14,12000,11.112,,,50,,,,,,,,,,0,wg-a,,,,AAXX 08114 07181 32562 /0506 10220 20140 39858 40262 58003 700// 85801 91100=
07181,1999-07-08 12:00:00,23,1025.6,-0.8,57,14,13000,11.112,,,20,,,,,,,,,,1,wg-a,,,,AAXX 08124 07181 32563 60206 10230 20140 39854 40256 58008 70142 85801 91200=
07181,1999-07-08 13:00:00,23,1025.3,-1,57,14,13000,22.224,,,40,,,,,,,,,,0,wg-a,,,,AAXX 08134 07181 32563 60412 10230 20140 39851 40253 57010 700// 85801 91300=
07181,1999-07-08 14:00:00,23,1025,-0.9,57,14,13000,11.112,,,30,,,,,,,,,,0,wg-a,,,,AAXX 08144 07181 32563 70306 10230 20140 39849 40250 56009 700// 878// 91400=
07181,1999-07-08 15:00:00,18,1025.8,-0.4,88,16,2500,25.928,,,360,,,,1,,,,,,80,wg-a,,,,AAXX 08154 07181 12525 73614 10180 20160 39850 40258 55004 60017 78086 879// 91500=
07181,1999-07-08 16:00:00,20,1025,-0.6,88,18,13000,7.408,,,50,,,1,,,,,,,25,wg-a,,,,AAXX 08164 07181 12563 60504 10200 20180 39845 40250 58006 60015 72586 86900 91600=
07181,1999-07-08 17:00:00,21,1024.8,-0.5,73,16,13000,7.408,,,60,,,,,,,,,,0,wg-a,,,,AAXX 08174 07181 32563 40604 10210 20160 39844 40248 58005 700// 84900 91700=
07181,1999-07-08 18:00:00,21,1024.3,-1,69,15,13000,18.52,,,350,13.7,23.4,,1,,,,,,3,wg-a,,,,AAXX 08184 07181 12563 43510 10210 20150 39840 40243 56010 60017 70386 84900 91800 333 10234 20137=
07181,1999-07-08 19:00:00,18,1025.8,0.4,83,15,13000,14.816,,,90,,,,,,,,,,0,wg-a,,,,AAXX 08194 07181 32563 60908 10180 20150 39849 40258 53004 700// 86900 91900=
07181,1999-07-08 20:00:00,17,1025.7,0.4,88,15,12000,14.816,,,80,,,,,,,,,,0,wg-a,,,,AAXX 08204 07181 32562 60808 10170 20150 39848 40257 53004 700// 86900 92000=
07181,1999-07-08 21:00:00,16,1026.1,1,94,15,12000,7.408,,,70,,,,,,,,,,0,wg-a,,,,AAXX 08214 07181 32762 30704 10160 20150 39850 40261 51010 700// 83500 92100=
07181,1999-07-08 22:00:00,16,1026,-0,88,14,12000,14.816,,,60,,,,,,,,,,0,wg-a,,,,AAXX 08224 07181 32762 20608 10160 20140 39849 40260 54000 700// 82500 92200=
07181,1999-07-09 04:00:00,13,1025.2,-0.5,94,12,4000,7.408,,,10,,,,,,,,,,10,wg-a,,,,AAXX 09044 07181 32/40 00104 10130 20120 39836 40252 56005 71000 80000 90400=
07181,1999-07-09 05:00:00,14,1025,0.1,100,14,500,14.816,,,40,,,,,,,,,,0,wg-a,,,,AAXX 09054 07181 32300 /0408 10140 20140 39837 40250 53001 700// 81100 90500=
07181,1999-07-09 06:00:00,16,1024.8,0.2,88,14,7000,14.816,,,80,12.7,21.5,,,,,1,,,0,wg-a,,,,AAXX 09064 07181 12357 20808 10160 20140 39838 40248 53002 60014 700// 82100 90600 333 10215 20127=
07181,1999-07-09 07:00:00,17,1024.4,-0.1,88,15,10000,14.816,,,70,,,,,,,,,,0,wg-a,,,,AAXX 09074 07181 32360 20708 10170 20150 39835 40244 58001 700// 82100 90700=
07181,1999-07-09 09:00:00,20,1023.6,-0.7,73,15,18000,18.52,,,60,,,,,,,,,,0,wg-a,,,,AAXX 09094 07181 32568 30610 10200 20150 39831 40236 57007 700// 83100 90900=
07181,1999-07-09 10:00:00,21,1023.3,-0.6,64,14,20000,14.816,,,70,,,,,,,,,,0,wg-a,,,,AAXX 09104 07181 32570 40708 10210 20140 39829 40233 58006 700// 84200 91000=
07181,1999-07-09 11:00:00,21,1022.8,-0.9,60,13,20000,14.816,,,80,,,,,,,,,,0,wg-a,,,,AAXX 09114 07181 32570 /0808 10210 20130 39825 40228 58009 700// 85200 91100=
07181,1999-07-09 12:00:00,21,1022.6,-0.8,64,14,20000,25.928,,,60,,,,,,,,,,0,wg-a,,,,AAXX 09124 07181 32670 /0614 10210 20140 39823 40226 57008 700// 85200 91200=
07181,1999-07-09 13:00:00,21,1022.4,-0.9,60,13,20000,14.816,,,80,,,,,,,,,,0,wg-a,,,,AAXX 09134 07181 32670 /0808 10210 20130 39820 40224 56009 700// 85200 91300=
07181,1999-07-09 14:00:00,22,1022,-0.7,53,12,25000,22.224,,33.336,60,,,,,,,,,,0,wg-a,,,,AAXX 09144 07181 32675 /0612 10220 20120 39818 40220 57007 700// 86800 91400 333 91018=
07181,1999-07-09 15:00:00,22,1021.7,-0.8,53,12,25000,14.816,,,70,,,,,,,,,,0,wg-a,,,,AAXX 09154 07181 32675 60708 10220 20120 39815 40217 57008 700// 86800 91500=
07181,1999-07-09 16:00:00,21,1021.2,-1,56,12,11000,18.52,,,60,,,,,,,,,,,wg-a,,,,AAXX 09164 07181 32/61 /0610 10210 20120 39810 40212 58010 91600=
07181,1999-07-09 17:00:00,22,1021.1,-0.9,53,12,25000,25.928,,,70,,,,,,,,,,0,wg-a,,,,AAXX 09174 07181 32675 60714 10220 20120 39809 40211 56009 700// 86800 91700=
07181,1999-07-09 18:00:00,21,1021.1,-0.7,60,13,25000,18.52,,,60,16.2,22.1,,,,,,,,0,wg-a,,,,AAXX 09184 07181 32675 /0610 10210 20130 39808 40211 56007 700// 86800 91800 333 10221 20162=
07181,1999-07-09 19:00:00,20,1021.1,-0.3,64,13,25000,11.112,,,70,,,,,,,,,,0,wg-a,,,,AAXX 09194 07181 32775 60706 10200 20130 39807 40211 57003 700// 86800 91900=
07181,1999-07-09 20:00:00,19,1021.3,-0.1,73,14,20000,22.224,,,70,,,,,,,,,,0,wg-a,,,,AAXX 09204 07181 32770 60712 10190 20140 39808 40213 55001 700// 86800 92000=
07181,1999-07-09 21:00:00,18,1021.5,-0,77,14,20000,18.52,,,70,,,,,,,,,,0,wg-a,,,,AAXX 09214 07181 32770 30710 10180 20140 39808 40215 55000 700// 83800 92100=
07181,1999-07-09 22:00:00,17,1021.2,-0.3,82,14,20000,18.52,,,60,,,,,,,,,,0,wg-a,,,,AAXX 09224 07181 32770 30610 10170 20140 39804 40212 58003 700// 83800 92200=
07181,1999-07-09 23:00:00,16,1020.6,-1.1,88,14,20000,18.52,,,70,,,,,,,,,,0,wg-a,,,,AAXX 09234 07181 32770 20710 10160 20140 39797 40206 58011 700// 82500 92300=
07181,1999-07-10 00:00:00,16,1019.9,-1.8,88,14,20000,7.408,,,30,,,,,,,,,,0,wg-a,,,,AAXX 10004 07181 32770 20304 10160 20140 39790 40199 58018 700// 82500 90000=
07181,1999-07-10 01:00:00,16,1019.2,-2.1,88,14,20000,14.816,,,40,,,,,,,,,,0,wg-a,,,,AAXX 10014 07181 32770 20408 10160 20140 39783 40192 57021 700// 82500 90100=
07181,1999-07-10 04:00:00,16,1018.1,-1,82,13,15000,11.112,,,40,,,,,,,,,,0,wg-a,,,,AAXX 10044 07181 32765 70406 10160 20130 39773 40181 58010 700// 81537 90400=
07181,1999-07-10 05:00:00,17,1018,-0.8,77,13,18000,14.816,,,40,,,,,,,,,,0,wg-a,,,,AAXX 10054 07181 32768 70408 10170 20130 39773 40180 56008 700// 8353/ 90500=
07181,1999-07-10 06:00:00,17,1017.9,-0.4,72,12,18000,18.52,,,50,14.8,20.5,,,,,,,,0,wg-a,,,,AAXX 10064 07181 12768 70510 10170 20120 39773 40179 56004 60004 700// 8453/ 90600 333 10205 20148=
07181,1999-07-10 07:00:00,18,1017.5,-0.4,73,13,18000,14.816,,,50,,,,,,,,,,0,wg-a,,,,AAXX 10074 07181 32768 70508 10180 20130 39769 40175 58004 700// 8653/ 90700=
07181,1999-07-10 08:00:00,19,1016.9,-0.7,73,14,18000,22.224,,,60,,,,,,,,,,0,wg-a,,,,AAXX 10084 07181 32768 70612 10190 20140 39766 40169 58007 700// 8653/ 90800=
07181,1999-07-10 09:00:00,20,1016.7,-0.8,73,15,18000,25.928,,,60,,,,,,,,,,0,wg-a,,,,AAXX 10094 07181 32568 70614 10200 20150 39765 40167 56008 700// 8683/ 90900=
07181,1999-07-10 10:00:00,21,1016.6,-0.4,69,15,18000,22.224,,,60,,,,,,,,,,0,wg-a,,,,AAXX 10104 07181 32568 70612 10210 20150 39765 40166 56004 700// 8683/ 91000=
07181,1999-07-10 11:00:00,21,1016.3,-0.4,73,16,20000,25.928,,,50,,,,,,,,,,0,wg-a,,,,AAXX 10114 07181 32570 70514 10210 20160 39762 40163 58004 700// 878// 91100=
07181,1999-07-10 15:00:00,22,1015.2,-0.5,73,17,15000,18.52,,,50,,,,,,,,,,0,wg-a,,,,AAXX 10154 07181 32565 70510 10220 20170 39754 40152 56005 700// 878// 91500=
07181,1999-07-10 16:00:00,21,1015.4,-0.2,78,17,12000,22.224,,,50,,,,,,,,,,0,wg-a,,,,AAXX 10164 07181 32562 70512 10210 20170 39755 40154 55002 700// 878// 91600=
07181,1999-07-10 17:00:00,20,1015.1,-0.4,83,17,12000,14.816,,,40,,,,,,,,,,0,wg-a,,,,AAXX 10174 07181 32562 70408 10200 20170 39751 40151 58004 700// 878// 91700=
07181,1999-07-10 18:00:00,21,1015,-0.4,83,18,12000,7.408,,,20,17.3,22.4,,,,,,,,0,wg-a,,,,AAXX 10184 07181 32562 70204 10210 20180 39750 40150 58004 700// 878// 91800 333 10224 20173=
07181,1999-07-10 19:00:00,20,1015.2,-0.4,88,18,4000,11.112,,,20,,,0,,,,,,,10,wg-a,,,,AAXX 10194 07181 12540 70206 10200 20180 39751 40152 55004 60005 71062 878// 91900=
07181,1999-07-10 20:00:00,19,1015,-0.3,94,18,500,11.112,,,10,,,0,,,,,,,21,wg-a,,,,AAXX 10204 07181 12500 70106 10190 20180 39748 40150 58003 60005 72162 878// 92000=
07181,1999-07-10 21:00:00,19,1015,-0.2,94,18,500,11.112,,,360,,,,1,,,,,,2,wg-a,,,,AAXX 10214 07181 12500 73606 10190 20180 39748 40150 58002 60017 70262 878// 92100=
07181,1999-07-10 22:00:00,19,1015,-0.4,94,18,500,11.112,,,360,,,,,,,,,,0,wg-a,,,,AAXX 10224 07181 32500 73606 10190 20180 39747 40150 56004 700// 878// 92200=
07181,1999-07-10 23:00:00,19,1014.6,-0.5,94,18,6000,11.112,,,20,,,,,,,,,,0,wg-a,,,,AAXX 10234 07181 32556 70206 10190 20180 39743 40146 58005 700// 878// 92300=
07181,1999-07-11 00:00:00,19,1014.3,-0.7,94,18,6000,7.408,,,100,,,,1,,,,,,61,wg-a,,,,AAXX 11004 07181 12556 71004 10190 20180 39741 40143 58007 60017 76162 878// 90000=
07181,1999-07-11 01:00:00,18,1014.1,-0.9,100,18,6000,3.704,,,360,,,0,,,,,,,61,wg-a,,,,AAXX 11014 07181 12556 73602 10180 20180 39738 40141 56009 60005 76166 878// 90100=
07181,1999-07-11 02:00:00,18,1013.8,-0.8,94,17,7000,7.408,,,60,,,,,,,,,,21,wg-a,,,,AAXX 11024 07181 02557 70604 10180 20170 39735 40138 58008 61000 72162 875// 90200 333 ////=
07181,1999-07-11 04:00:00,17,1014,-0.2,100,17,6000,11.112,,,60,,,,,,,,,,0,wg-a,,,,AAXX 11044 07181 32656 /0606 10170 20170 39736 40140 55002 700// 85500 90400=
07181,1999-07-11 05:00:00,18,1014.2,0.4,94,17,6000,11.112,,,30,,,,,,,,,,0,wg-a,,,,AAXX 11054 07181 32656 50306 10180 20170 39739 40142 53004 700// 84501 90500=
07181,1999-07-11 06:00:00,19,1014.1,0.3,88,17,7000,14.816,,,50,17.4,20.5,,,,,2,,,1,wg-a,,,,AAXX 11064 07181 12557 50508 10190 20170 39738 40141 50003 60024 70162 84801 90600 333 10205 20174=
07181,1999-07-11 07:00:00,20,1013.9,0.3,88,18,9000,18.52,,,60,,,,,,,,,,0,wg-a,,,,AAXX 11074 07181 32559 50610 10200 20180 39739 40139 51003 700// 84801 90700=
07181,1999-07-11 08:00:00,21,1014,0.2,83,18,11000,18.52,,,60,,,,,,,,,,0,wg-a,,,,AAXX 11084 07181 32561 50610 10210 20180 39741 40140 53002 700// 82231 90800=
07181,1999-07-11 09:00:00,22,1013.6,0.1,83,19,11000,25.928,,,50,,,,,,,,,,0,wg-a,,,,AAXX 11094 07181 32561 50514 10220 20190 39739 40136 50001 700// 83231 90900=
07181,1999-07-11 10:00:00,23,1013.9,0.3,73,18,12000,18.52,,,50,,,,,,,,,,0,wg-a,,,,AAXX 11104 07181 32562 70510 10230 20180 39742 40139 53003 700// 872// 91000=
07181,1999-07-11 11:00:00,23,1014.1,0.3,73,18,12000,18.52,,,60,,,,,,,,,,0,wg-a,,,,AAXX 11114 07181 32562 70610 10230 20180 39744 40141 53003 700// 8623/ 91100=
07181,1999-07-11 12:00:00,23,1013.7,0.2,73,18,12000,18.52,,,60,,,,,,,,,,0,wg-a,,,,AAXX 11124 07181 32562 70610 10230 20180 39741 40137 50002 700// 84232 91200=
07181,1999-07-11 13:00:00,24,1013.3,-0.4,65,17,12000,14.816,,,70,,,,,,,,,,0,wg-a,,,,AAXX 11134 07181 32562 70708 10240 20170 39738 40133 58004 700// 84232 91300=
07181,1999-07-11 14:00:00,25,1013,-0.8,61,17,12000,18.52,,,60,,,,,,,,,,0,wg-a,,,,AAXX 11144 07181 32662 /0610 10250 20170 39736 40130 56008 700// 83202 91400=
07181,1999-07-11 15:00:00,25,1012.9,-0.6,61,17,12000,14.816,,,50,,,,,,,,,,0,wg-a,,,,AAXX 11154 07181 32662 70508 10250 20170 39735 40129 56006 700// 82232 91500=
07181,1999-07-11 16:00:00,23,1013.1,-0.3,69,17,12000,18.52,,,60,,,,,,,,,,0,wg-a,,,,AAXX 11164 07181 32662 70610 10230 20170 39735 40131 56003 700// 82232 91600=
07181,1999-07-11 17:00:00,23,1013.1,-0.1,73,18,12000,7.408,,,50,,,,,,,,,,0,wg-a,,,,AAXX 11174 07181 32662 70504 10230 20180 39735 40131 56001 700// 8323/ 91700=
07181,1999-07-11 18:00:00,23,1013.2,0.1,73,18,12000,0,,,0,18.6,25.3,,,,,,,,0,wg-a,,,,AAXX 11184 07181 32662 70000 10230 20180 39736 40132 53001 700// 8323/ 91800 333 10253 20186=
07181,1999-07-11 19:00:00,23,1013,0,73,18,12000,0,,,0,,,,,,,,,,0,wg-a,,,,AAXX 11194 07181 32662 70000 10230 20180 39735 40130 50000 700// 8323/ 91900=
07181,1999-07-11 20:00:00,21,1013.5,0.2,88,19,12000,3.704,,,120,,,,,,,,,,0,wg-a,,,,AAXX 11204 07181 32762 71202 10210 20190 39737 40135 53002 700// 83532 92000=
07181,1999-07-11 21:00:00,20,1014,0.4,88,18,12000,7.408,,,150,,,,,,,,,,0,wg-a,,,,AAXX 11214 07181 32762 71504 10200 20180 39740 40140 53004 700// 83532 92100=
07181,1999-07-11 22:00:00,20,1013.9,0.4,88,18,12000,3.704,,,350,,,,,,,,,,0,wg-a,,,,AAXX 11224 07181 32762 73502 10200 20180 39739 40139 50004 700// 83532 92200=
07181,1999-07-11 23:00:00,19,1013.9,0,94,18,12000,3.704,,,330,,,,,,,,,,0,wg-a,,,,AAXX 11234 07181 32762 73302 10190 20180 39737 40139 50000 700// 83532 92300=
07181,1999-07-12 00:00:00,18,1013.7,-0.6,100,18,0,7.408,,,70,,,,,,,,,,,wg-a,,,,AAXX 12004 07181 32/// /0704 10180 20180 39734 40137 58006 90000=
07181,1999-07-12 02:00:00,17,1013.2,-0.9,100,17,4000,3.704,,,320,,,,,,,,,,10,wg-a,,,,AAXX 12024 07181 32740 /3202 10170 20170 39728 40132 57009 71022 81502 90200=
07181,1999-07-12 03:00:00,16,1013.5,-0.4,100,16,3000,3.704,,,320,,,,,,,,,,10,wg-a,,,,AAXX 12034 07181 32730 /3202 10160 20160 39730 40135 55004 71022 81502 90300=
07181,1999-07-12 04:00:00,17,1013.4,-0.2,100,17,2500,7.408,,,20,,,,,,,,,,10,wg-a,,,,AAXX 12044 07181 32725 /0204 10170 20170 39729 40134 56002 71022 81532 90400=
07181,1999-07-12 05:00:00,17,1013.1,-0.1,100,17,3000,0,,,0,,,,,,,,,,10,wg-a,,,,AAXX 12054 07181 32730 70000 10170 20170 39727 40131 58001 71022 8153/ 90500=
07181,1999-07-12 06:00:00,17,1013.1,-0.3,100,17,3000,3.704,,,320,16.2,23.5,,,,,,,,10,wg-a,,,,AAXX 12064 07181 12730 73202 10170 20170 39727 40131 56003 60004 71022 8153/ 90600 333 10235 20162=
07181,1999-07-12 07:00:00,18,1013.1,-0.1,100,18,4000,7.408,,,360,,,,,,,,,,10,wg-a,,,,AAXX 12074 07181 32740 73604 10180 20180 39728 40131 55001 71022 8153/ 90700=
07181,1999-07-12 08:00:00,21,1012.8,0.2,88,19,6000,3.704,,,190,,,,,,,,,,0,wg-a,,,,AAXX 12084 07181 32456 /1902 10210 20190 39729 40128 53002 700// 82130 90800=
07181,1999-07-12 09:00:00,22,1012.4,0,83,19,9000,3.704,,,160,,,,,,,,,,0,wg-a,,,,AAXX 12094 07181 32459 /1602 10220 20190 39727 40124 50000 700// 85230 90900=
07181,1999-07-12 10:00:00,23,1011.9,-0.4,78,19,10000,3.704,,,330,,,,,,,,,,0,wg-a,,,,AAXX 12104 07181 32460 /3302 10230 20190 39724 40119 58004 700// 86200 91000=
07181,1999-07-12 11:00:00,24,1011.6,-0.7,74,19,10000,3.704,,,60,,,,,,,,,,0,wg-a,,,,AAXX 12114 07181 32560 /0602 10240 20190 39722 40116 57007 700// 86200 91100=
07181,1999-07-12 14:00:00,22,1011.3,-0.6,88,20,12000,7.408,,,160,,,0,,,,,,,29,wg-a,,,,AAXX 12144 07181 12562 /1604 10220 20200 39716 40113 57006 60005 72998 85230 91400=
07181,1999-07-12 15:00:00,23,1010.4,-0.9,83,20,12000,7.408,,,170,,,,10,,,,,,1,wg-a,,,,AAXX 12154 07181 12562 /1704 10230 20200 39710 40104 58009 60107 70198 84230 91500=
07181,1999-07-12 16:00:00,24,1010,-1.2,74,19,12000,7.408,,,180,,,,,,,,,,0,wg-a,,,,AAXX 12164 07181 32662 51804 10240 20190 39707 40100 57012 700// 83230 91600=
07181,1999-07-12 17:00:00,24,1009.5,-1.4,74,19,12000,3.704,,,180,,,,,,,,,,0,wg-a,,,,AAXX 12174 07181 32662 51802 10240 20190 39702 40095 56014 700// 8/800 91700=
07181,1999-07-12 18:00:00,24,1009.5,-0.8,74,19,12000,3.704,,,90,17.4,25.4,,,,,,,,1,wg-a,,,,AAXX 12184 07181 32662 50902 10240 20190 39702 40095 56008 70198 8/800 91800 333 10254 20174=
07181,1999-07-12 19:00:00,23,1009.7,-0.4,83,20,12000,3.704,,,70,,,,,,,,,,0,wg-a,,,,AAXX 12194 07181 32662 50702 10230 20200 39703 40097 55004 700// 84880 91900=
07181,1999-07-12 20:00:00,21,1009.9,0,94,20,10000,7.408,,,360,,,,,,,,,,0,wg-a,,,,AAXX 12204 07181 32660 63604 10210 20200 39702 40099 50000 700// 85880 92000=
07181,1999-07-12 21:00:00,21,1010.1,0.1,88,19,18000,3.704,,,180,,,,,,,,,,0,wg-a,,,,AAXX 12214 07181 32668 51802 10210 20190 39703 40101 52001 700// 84880 92100=
07181,1999-07-12 22:00:00,20,1010.3,0.1,94,19,18000,7.408,,,140,,,,,,,,,,0,wg-a,,,,AAXX 12224 07181 32668 /1404 10200 20190 39704 40103 53001 700// 86800 92200=
07181,1999-07-12 23:00:00,19,1010.1,-0.1,94,18,15000,11.112,,,170,,,,,,,,,,0,wg-a,,,,AAXX 12234 07181 32765 31706 10190 20180 39701 40101 58001 700// 81431 92300=
07181,1999-07-13 00:00:00,19,1009.8,-0.5,94,18,15000,11.112,,,180,,,,,,,,,,0,wg-a,,,,AAXX 13004 07181 32765 31806 10190 20180 39698 40098 58005 700// 81431 90000=
07181,1999-07-13 01:00:00,19,1009.3,-1.1,94,18,15000,3.704,,,200,,,,,,,,,,0,wg-a,,,,AAXX 13014 07181 32765 42002 10190 20180 39693 40093 58011 700// 81431 90100=
07181,1999-07-13 02:00:00,18,1009.2,-1,100,18,500,3.704,,,220,,,,,,,,,,0,wg-a,,,,AAXX 13024 07181 32/00 /2202 10180 20180 39691 40092 56010 700// 83032 90200=
07181,1999-07-13 03:00:00,18,1009.1,-0.9,100,18,3000,7.408,,,230,,,,,,,,,,10,wg-a,,,,AAXX 13034 07181 32/30 52304 10180 20180 39689 40091 56009 71011 83032 90300=
07181,1999-07-13 04:00:00,17,1008.9,-0.6,100,17,500,7.408,,,240,,,,,,,,,,44,wg-a,,,,AAXX 13044 07181 32/05 52404 10170 20170 39687 40089 57006 74442 84032 90400=
07181,1999-07-13 05:00:00,18,1008.7,-0.5,100,18,500,3.704,,,250,,,,,,,,,,44,wg-a,,,,AAXX 13054 07181 32705 52502 10180 20180 39686 40087 56005 74444 82532 90500=
07181,1999-07-13 06:00:00,19,1008.7,-0.2,100,19,4000,11.112,,,220,17,24,,,,,10,,,10,wg-a,,,,AAXX 13064 07181 12040 32206 10190 20190 39687 40087 55002 60104 71041 83500 90600 333 10240 20170=
07181,1999-07-13 07:00:00,21,1008.1,-0.2,88,19,8000,0,,,0,,,,,,,,,,0,wg-a,,,,AAXX 13074 07181 32058 30000 10210 20190 39685 40081 58002 700// 83500 90700=
07181,1999-07-13 08:00:00,24,1007.6,-0.2,74,19,10000,3.704,,,160,,,,,,,,,,0,wg-a,,,,AAXX 13084 07181 32460 31602 10240 20190 39684 40076 58002 700// 83800 90800=
07181,1999-07-13 09:00:00,25,1007.6,-0.2,69,19,12000,7.408,,,210,,,,,,,,,,0,wg-a,,,,AAXX 13094 07181 32562 52104 10250 20190 39685 40076 55002 700// 85800 90900=
07181,1999-07-13 10:00:00,24,1007.4,-0.3,74,19,12000,11.112,,,180,,,,,,,,,,0,wg-a,,,,AAXX 13104 07181 32562 71806 10240 20190 39682 40074 58003 700// 878// 91000=
07181,1999-07-13 11:00:00,20,1008.3,-0,83,17,7000,11.112,,,220,,,1,,,,,,,80,wg-a,,,,AAXX 13114 07181 12557 72206 10200 20170 39684 40083 55000 60015 78098 878// 91100=
07181,1999-07-13 12:00:00,19,1008.1,-0.3,94,18,12000,11.112,,,190,,,,2,,,,,,61,wg-a,,,,AAXX 13124 07181 12562 71906 10190 20180 39682 40081 56003 60027 76198 879// 91200=
07181,1999-07-13 13:00:00,18,1008.1,-0.1,94,17,12000,22.224,,,220,,,0,,,,,,,29,wg-a,,,,AAXX 13134 07181 12562 72212 10180 20170 39681 40081 58001 60005 72996 879// 91300=
07181,1999-07-13 14:00:00,18,1007.5,-0.9,94,17,12000,14.816,,,200,,,,,,,,,,0,wg-a,,,,AAXX 13144 07181 32562 72008 10180 20170 39675 40075 58009 700// 879// 91400=
07181,1999-07-13 15:00:00,19,1007.5,-0.6,94,18,12000,11.112,,,220,,,,1,,,,,,1,wg-a,,,,AAXX 13154 07181 12562 72206 10190 20180 39676 40075 55006 60017 70196 85902 91500=
07181,1999-07-13 16:00:00,21,1006.7,-1,88,19,12000,14.816,,,240,,,,,,,,,,0,wg-a,,,,AAXX 13164 07181 32562 72408 10210 20190 39671 40067 56010 700// 85802 91600=
07181,1999-07-13 17:00:00,21,1006.4,-0.6,94,20,12000,11.112,,,220,,,,,,,,,,0,wg-a,,,,AAXX 13174 07181 32562 72206 10210 20200 39669 40064 58006 700// 85802 91700=
07181,1999-07-13 18:00:00,21,1006.8,-0.4,94,20,12000,11.112,,,260,18,25.5,,,,,,,,1,wg-a,,,,AAXX 13184 07181 32562 72606 10210 20200 39672 40068 55004 70196 85802 91800 333 10255 20180=
07181,1999-07-13 19:00:00,21,1006.6,-0.1,88,19,10000,7.408,,,230,,,,,,,,,,0,wg-a,,,,AAXX 13194 07181 32760 72304 10210 20190 39670 40066 57001 700// 85502 91900=
07181,1999-07-13 20:00:00,20,1006.9,0.2,88,18,8000,11.112,,,240,,,,,,,,,,0,wg-a,,,,AAXX 13204 07181 32758 72406 10200 20180 39671 40069 51002 700// 85502 92000=
07181,1999-07-13 21:00:00,19,1007.2,0.1,94,18,8000,11.112,,,240,,,,,,,,,,0,wg-a,,,,AAXX 13214 07181 32758 72406 10190 20180 39673 40072 53001 700// 85502 92100=
07181,1999-07-13 22:00:00,19,1007.3,0.4,94,18,8000,14.816,,,240,,,,,,,,,,60,wg-a,,,,AAXX 13224 07181 02558 72408 10190 20180 39674 40073 52004 61000 76062 85902 92200 333 ////=
07181,1999-07-13 23:00:00,16,1008.3,0.8,94,15,500,11.112,,,330,,,4,,,,,,,80,wg-a,,,,AAXX 13234 07181 12500 73306 10160 20150 39679 40083 53008 60045 78086 879// 92300=
07181,1999-07-14 00:00:00,16,1007.6,-0.1,94,15,500,7.408,,,270,,,,,,,,,,,wg-a,,,,AAXX 14004 07181 32/00 /2704 10160 20150 39672 40076 58001 90000=
07181,1999-07-14 02:00:00,15,1008.6,0.2,94,14,15000,14.816,,,280,,,,,,,,,,0,wg-a,,,,AAXX 14024 07181 32565 62808 10150 20140 39681 40086 53002 700// 86500 90200=
07181,1999-07-14 03:00:00,14,1008.8,0.9,94,13,7000,11.112,,,260,,,,0,,,,,,0,wg-a,,,,AAXX 14034 07181 12557 /2606 10140 20130 39681 40088 51009 60007 700// 85500 90300=
07181,1999-07-14 04:00:00,14,1009.3,0.9,100,14,7000,14.816,,,260,,,,,,,,,,0,wg-a,,,,AAXX 14044 07181 32557 /2608 10140 20140 39686 40093 53009 700// 85500 90400=
07181,1999-07-14 05:00:00,15,1009.7,0.9,94,14,8000,18.52,,,260,,,,,,,,,,0,wg-a,,,,AAXX 14054 07181 32658 32610 10150 20140 39690 40097 53009 700// 83500 90500=
07181,1999-07-14 06:00:00,16,1010,1.4,94,15,8000,22.224,,,260,13.6,21,,,,,8,,,0,wg-a,,,,AAXX 14064 07181 12458 /2612 10160 20150 39695 40100 52014 60084 700// 86800 90600 333 10210 20136=
07181,1999-07-14 07:00:00,17,1010.7,1.7,82,14,9000,25.928,,,280,,,,,,,,,,0,wg-a,,,,AAXX 14074 07181 32459 72814 10170 20140 39703 40107 53017 700// 86802 90700=
07181,1999-07-14 09:00:00,16,1012.1,2.1,88,14,11000,22.224,,,270,,,,,,,,,,0,wg-a,,,,AAXX 14094 07181 32461 72712 10160 20140 39716 40121 52021 700// 878// 90900=
07181,1999-07-14 10:00:00,18,1012,1.5,77,14,12000,25.928,,,280,,,,,,,,,,0,wg-a,,,,AAXX 14104 07181 32562 72814 10180 20140 39718 40120 51015 700// 878// 91000=
07181,1999-07-27 14:00:00,27,1013.9,-0.8,51,16,18000,14.816,,,70,,,,,,,,,,0,wg-a,,,,AAXX 27144 07181 32668 70708 10270 20160 39747 40139 56008 700// 82101 91400=
07181,1999-07-27 15:00:00,27,1013.1,-1,51,16,18000,18.52,,,70,,,,,,,,,,0,wg-a,,,,AAXX 27154 07181 32768 70710 10270 20160 39740 40131 58010 700// 82101 91500=
07181,1999-07-27 16:00:00,27,1013.2,-0.7,51,16,18000,18.52,,,70,,,,,,,,,,0,wg-a,,,,AAXX 27164 07181 32768 70710 10270 20160 39741 40132 55007 700// 82131 91600=
07181,1999-07-27 17:00:00,26,1013.2,-0.8,58,17,18000,18.52,,35.188,60,,,,,,,,,,0,wg-a,,,,AAXX 27174 07181 32/68 70610 10260 20170 39739 40132 56008 700// 85031 91700 333 91019=
07181,1999-07-27 18:00:00,25,1013.4,-0,57,16,18000,14.816,,,80,16.5,27.3,,,,,,,,0,wg-a,,,,AAXX 27184 07181 32/68 70808 10250 20160 39740 40134 54000 700// 85031 91800 333 10273 20165=
07181,1999-07-27 19:00:00,24,1013.6,-0,61,16,13000,18.52,,,70,,,,,,,,,,0,wg-a,,,,AAXX 27194 07181 32/63 60710 10240 20160 39741 40136 55000 700// 83031 91900=
07181,1999-07-27 20:00:00,23,1014.3,0.7,69,17,13000,11.112,,,70,,,,,,,,,,0,wg-a,,,,AAXX 27204 07181 32/63 70706 10230 20170 39746 40143 53007 700// 84081 92000=
07181,1999-07-27 21:00:00,22,1014.5,0.7,69,16,15000,22.224,,,60,,,,,,,,,,0,wg-a,,,,AAXX 27214 07181 32/65 50612 10220 20160 39747 40145 52007 700// 82031 92100=
07181,1999-07-27 22:00:00,21,1014.8,0.8,73,16,15000,22.224,,,60,,,,,,,,,,0,wg-a,,,,AAXX 27224 07181 32/65 50612 10210 20160 39749 40148 51008 700// 82031 92200=
07181,1999-07-28 00:00:00,20,1014.8,0,73,15,15000,14.816,,,60,,,,,,,,,,0,wg-a,,,,AAXX 28004 07181 32/65 60608 10200 20150 39747 40148 50000 700// 84031 90000=
07181,1999-07-28 02:00:00,19,1014.9,-0.3,78,15,12000,14.816,,,50,,,,,,,,,,0,wg-a,,,,AAXX 28024 07181 32/62 40508 10190 20150 39746 40149 56003 700// 82031 90200=
07181,1999-07-28 03:00:00,18,1014.9,-0.2,83,15,12000,11.112,,,50,,,,,,,,,,0,wg-a,,,,AAXX 28034 07181 32/62 60506 10180 20150 39745 40149 58002 700// 82031 90300=
07181,1999-07-28 04:00:00,17,1014.8,-0.4,88,15,12000,11.112,,,60,,,,,,,,,,0,wg-a,,,,AAXX 28044 07181 32562 /0606 10170 20150 39743 40148 58004 700// 82231 90400=
07181,1999-07-28 05:00:00,17,1015.3,0.2,82,14,14000,3.704,,,120,,,,,,,,,,0,wg-a,,,,AAXX 28054 07181 32564 /1202 10170 20140 39748 40153 53002 700// 82231 90500=
07181,1999-07-28 06:00:00,18,1015.1,0.2,83,15,15000,7.408,,,80,17.2,24.9,,,,,,,,0,wg-a,,,,AAXX 28064 07181 12565 /0804 10180 20150 39747 40151 53002 60004 700// 82231 90600 333 10249 20172=
07181,1999-07-28 07:00:00,18,1015.2,0.5,83,15,15000,11.112,,,60,,,,,,,,,,0,wg-a,,,,AAXX 28074 07181 32565 /0606 10180 20150 39748 40152 51005 700// 82231 90700=
07181,1999-07-28 08:00:00,20,1015.2,0.2,78,16,15000,18.52,,,100,,,,,,,,,,0,wg-a,,,,AAXX 28084 07181 32565 /1010 10200 20160 39750 40152 53002 700// 81231 90800=
07181,1999-07-28 09:00:00,22,1014.9,0.3,69,16,18000,11.112,,,110,,,,,,,,,,0,wg-a,,,,AAXX 28094 07181 32/68 /1106 10220 20160 39750 40149 51003 700// 81031 90900=
07181,1999-07-28 10:00:00,24,1014.5,0.1,65,17,18000,14.816,,,80,,,,,,,,,,0,wg-a,,,,AAXX 28104 07181 32668 /0808 10240 20170 39749 40145 50001 700// 81101 91000=
07181,1999-07-28 11:00:00,25,1014.3,-0.2,57,16,18000,14.816,,,60,,,,,,,,,,0,wg-a,,,,AAXX 28114 07181 32668 /0608 10250 20160 39748 40143 58002 700// 81101 91100=
07181,1999-07-28 12:00:00,26,1013.9,-0.4,58,17,11000,14.816,,,70,,,,,,,,,,,wg-a,,,,AAXX 28124 07181 32/61 /0708 10260 20170 39746 40139 58004 91200=
07181,1999-07-28 13:00:00,26,1013.6,-0.5,58,17,18000,18.52,,,70,,,,,,,,,,0,wg-a,,,,AAXX 28134 07181 32668 /0710 10260 20170 39744 40136 58005 700// 81101 91300=
07181,1999-07-28 14:00:00,27,1013.6,-0.4,54,17,20000,22.224,,38.892,40,,,,,,,,,,0,wg-a,,,,AAXX 28144 07181 32770 /0412 10270 20170 39744 40136 56004 700// 81101 91400 333 91021=
07181,1999-07-28 15:00:00,27,1013.2,-0.5,54,17,20000,18.52,,,60,,,,,,,,,,0,wg-a,,,,AAXX 28154 07181 32770 50610 10270 20170 39741 40132 58005 700// 82201 91500=
07181,1999-07-28 16:00:00,27,1013.2,-0.4,51,16,20000,18.52,,,70,,,,,,,,,,0,wg-a,,,,AAXX 28164 07181 32770 50710 10270 20160 39740 40132 58004 700// 82201 91600=
07181,1999-07-28 17:00:00,26.5,1013.2,-0.4,51,15.5,20000,18.52,,,70,,,,,,,,,,,og-post,,,,AAXX 28174 07181 32770 50710 10265 20155 39740 40132 56004 81201 333 81850 85075=
07181,1999-07-28 18:00:00,26,1013.8,0.3,51,15,20000,14.816,,35.188,70,17.7,27.3,,,,,,,,0,wg-a,,,,AAXX 28184 07181 32/70 50708 10260 20150 39744 40138 53003 700// 80001 91800 333 10273 20177 91019=
07181,1999-07-28 19:00:00,24,1014.5,0.9,54,14,18000,11.112,,,70,,,,,,,,,,0,wg-a,,,,AAXX 28194 07181 32/68 40706 10240 20140 39749 40145 53009 700// 80001 91900=
07181,1999-07-28 20:00:00,23,1015.3,1.5,57,14,15000,14.816,,,70,,,,,,,,,,0,wg-a,,,,AAXX 28204 07181 32/65 30708 10230 20140 39755 40153 53015 700// 80001 92000=
07181,1999-07-28 21:00:00,22,1015.8,1.5,57,13,15000,14.816,,,70,,,,,,,,,,0,wg-a,,,,AAXX 28214 07181 32/65 20708 10220 20130 39759 40158 51015 700// 80001 92100=
07181,1999-07-28 22:00:00,21,1016.2,1.2,60,13,15000,14.816,,,70,,,,,,,,,,0,wg-a,,,,AAXX 28224 07181 32/65 10708 10210 20130 39761 40162 51012 700// 81030 92200=
07181,1999-07-28 23:00:00,20,1016.4,0.7,60,12,15000,11.112,,,70,,,,,,,,,,0,wg-a,,,,AAXX 28234 07181 32/65 10706 10200 20120 39762 40164 51007 700// 81030 92300=
07181,1999-07-29 00:00:00,19,1016.6,0.3,60,11,15000,7.408,,,40,,,,,,,,,,0,wg-a,,,,AAXX 29004 07181 32/65 10404 10190 20110 39762 40166 51003 700// 81030 90000=
07181,1999-07-29 01:00:00,15,1017,0,82,12,15000,7.408,,,300,,,,,,,,,,0,wg-a,,,,AAXX 29014 07181 32/65 13004 10150 20120 39761 40170 50000 700// 81030 90100=
07181,1999-07-29 02:00:00,15,1017.1,-0.1,82,12,15000,7.408,,,310,,,,,,,,,,0,wg-a,,,,AAXX 29024 07181 32/65 33104 10150 20120 39761 40171 57001 700// 82031 90200=
07181,1999-07-29 03:00:00,14,1017.3,-0,82,11,15000,3.704,,,330,,,,,,,,,,0,wg-a,,,,AAXX 29034 07181 32665 23302 10140 20110 39762 40173 55000 700// 82100 90300=
07181,1999-07-29 04:00:00,13,1017.6,0.2,88,11,15000,3.704,,,340,,,,,,,,,,0,wg-a,,,,AAXX 29044 07181 32665 33402 10130 20110 39763 40176 53002 700// 82101 90400=
07181,1999-07-29 05:00:00,13,1017.6,0.3,88,11,15000,3.704,,,330,,,,,,,,,,0,wg-a,,,,AAXX 29054 07181 32665 33302 10130 20110 39764 40176 52003 700// 82101 90500=
07181,1999-07-29 06:00:00,15,1017.5,0.3,82,12,15000,7.408,,,330,12.8,25.5,,,,,,,,0,wg-a,,,,AAXX 29064 07181 12665 43304 10150 20120 39765 40175 52003 60004 700// 83501 90600 333 10255 20128=
07181,1999-07-29 07:00:00,17,1017.2,0.3,77,13,15000,7.408,,,360,,,,,,,,,,0,wg-a,,,,AAXX 29074 07181 32765 43604 10170 20130 39766 40172 52003 700// 83501 90700=
07181,1999-07-29 09:00:00,22,1016.5,-0,57,13,15000,11.112,,,60,,,,,,,,,,0,wg-a,,,,AAXX 29094 07181 32765 30606 10220 20130 39766 40165 54000 700// 81501 90900=
07181,1999-07-29 10:00:00,24,1016.3,-0,54,14,15000,11.112,,,70,,,,,,,,,,0,wg-a,,,,AAXX 29104 07181 32/65 40706 10240 20140 39766 40163 54000 700// 80001 91000=
07181,1999-07-29 11:00:00,26,1015.8,,39,11,15000,14.816,,,80,,,,,,,,,,0,wg-a,,,,AAXX 29114 07181 32765 /0808 10260 20110 39763 40158 700// 81101 91100=
07181,1999-07-29 12:00:00,26,1015.2,-0.8,37,10,15000,14.816,,,80,,,,,,,,,,0,wg-a,,,,AAXX 29124 07181 32765 40808 10260 20100 39758 40152 58008 700// 81101 91200=
07181,1999-07-29 13:00:00,27,1015,-0.9,34,10,15000,14.816,,,70,,,,,,,,,,0,wg-a,,,,AAXX 29134 07181 32765 40708 10270 20100 39757 40150 56009 700// 82101 91300=
07181,1999-07-29 14:00:00,27,1014.8,-0.8,39,12,15000,14.816,,,60,,,,,,,,,,0,wg-a,,,,AAXX 29144 07181 32765 50608 10270 20120 39755 40148 56008 700// 82501 91400=
07181,1999-07-29 15:00:00,27,1014.6,-0.5,34,10,15000,14.816,,,60,,,,,,,,,,0,wg-a,,,,AAXX 29154 07181 32765 40608 10270 20100 39753 40146 58005 700// 81501 91500=
07181,1999-07-29 16:00:00,26,1014.5,-0.5,39,11,15000,14.816,,,50,,,,,,,,,,0,wg-a,,,,AAXX 29164 07181 32765 40508 10260 20110 39752 40145 56005 700// 81501 91600=
07181,1999-07-29 17:00:00,26,1014.3,-0.6,37,10,15000,14.816,,,70,,,,,,,,,,0,wg-a,,,,AAXX 29174 07181 32765 30708 10260 20100 39749 40143 58006 700// 81501 91700=
07181,1999-07-29 19:00:00,23,1014.7,-0.2,47,11,15000,11.112,,,50,,,,,,,,,,0,wg-a,,,,AAXX 29194 07181 32/65 20506 10230 20110 39750 40147 55002 700// 80001 91900=
07181,1999-07-29 20:00:00,21,1015.5,0.5,53,11,15000,7.408,,,70,,,,,,,,,,0,wg-a,,,,AAXX 29204 07181 32/65 20704 10210 20110 39754 40155 53005 700// 80001 92000=
07181,1999-07-29 21:00:00,20,1015.9,0.8,53,10,15000,7.408,,,80,,,,,,,,,,0,wg-a,,,,AAXX 29214 07181 32/65 20804 10200 20100 39756 40159 52008 700// 80001 92100=
07181,1999-07-29 23:00:00,17,1015.9,-0.1,68,11,15000,7.408,,,60,,,,,,,,,,0,wg-a,,,,AAXX 29234 07181 32/65 20604 10170 20110 39753 40159 58001 700// 80001 92300=
07181,1999-07-30 00:00:00,16,1015.8,-0.6,68,10,500,3.704,,,340,,,,,,,,,,,wg-a,,,,AAXX 30004 07181 32/00 /3402 10160 20100 39750 40158 58006 90000=
07181,1999-07-30 02:00:00,14,1015.9,-0.5,82,11,15000,0,,,0,,,,,,,,,,0,wg-a,,,,AAXX 30024 07181 32/65 00000 10140 20110 39748 40159 56005 700// 80000 90200=
07181,1999-07-30 03:00:00,13,1016.1,-0.2,82,10,15000,3.704,,,30,,,,,,,,,,0,wg-a,,,,AAXX 30034 07181 32/65 00302 10130 20100 39748 40161 56002 700// 80000 90300=
07181,1999-07-30 04:00:00,12,1016,-0.2,88,10,15000,0,,,0,,,,,,,,,,0,wg-a,,,,AAXX 30044 07181 32/65 10000 10120 20100 39746 40160 58002 700// 80001 90400=
07181,1999-07-30 05:00:00,12,1016,-0.1,88,10,15000,3.704,,,40,,,,,,,,,,0,wg-a,,,,AAXX 30054 07181 32/65 10402 10120 20100 39747 40160 55001 700// 80001 90500=
07181,1999-07-30 06:00:00,15,1015.7,0.1,77,11,15000,0,,,0,11.8,25.3,,,,,,,,0,wg-a,,,,AAXX 30064 07181 12/65 10000 10150 20110 39749 40157 53001 60004 700// 80001 90600 333 10253 20118=
07181,1999-07-30 07:00:00,18,1015.5,0.4,68,12,18000,0,,,0,,,,,,,,,,0,wg-a,,,,AAXX 30074 07181 32/68 20000 10180 20120 39750 40155 52004 700// 80001 90700=
07181,1999-07-30 08:00:00,21,1015.1,0.4,56,12,20000,3.704,,,60,,,,,,,,,,0,wg-a,,,,AAXX 30084 07181 32/70 20602 10210 20120 39751 40151 51004 700// 80001 90800=
07181,1999-07-30 09:00:00,23,1014.6,0,53,13,20000,7.408,,,70,,,,,,,,,,0,wg-a,,,,AAXX 30094 07181 32/70 20704 10230 20130 39749 40146 50000 700// 81031 90900=
07181,1999-07-30 10:00:00,25,1014.3,-0.2,41,11,20000,11.112,,,90,,,,,,,,,,0,wg-a,,,,AAXX 30104 07181 32/70 20906 10250 20110 39748 40143 58002 700// 81031 91000=
07181,1999-07-30 11:00:00,26,1014,-0.5,34,9,20000,14.816,,,100,,,,,,,,,,0,wg-a,,,,AAXX 30114 07181 32770 21008 10260 20090 39746 40140 57005 700// 81101 91100=
07181,1999-07-30 12:00:00,27,1013.6,-0.6,32,9,20000,14.816,,,100,,,,,,,,,,0,wg-a,,,,AAXX 30124 07181 32/70 21008 10270 20090 39743 40136 58006 700// 81031 91200=
07181,1999-07-30 13:00:00,27,1013.3,-0.7,32,9,20000,7.408,,,70,,,,,,,,,,0,wg-a,,,,AAXX 30134 07181 32770 30704 10270 20090 39741 40133 57007 700// 82131 91300=
07181,1999-07-30 14:00:00,28,1012.9,-0.8,32,10,10000,11.112,,,40,,,,,,,,,,,wg-a,,,,AAXX 30144 07181 32/60 /0406 10280 20100 39738 40129 57008 91400=
07181,1999-07-30 15:00:00,27,1012.7,-0.8,34,10,20000,11.112,,,80,,,,,,,,,,0,wg-a,,,,AAXX 30154 07181 32/70 30806 10270 20100 39735 40127 58008 700// 82031 91500=
07181,1999-07-30 16:00:00,27,1012.4,-0.8,34,10,20000,14.816,,,60,,,,,,,,,,0,wg-a,,,,AAXX 30164 07181 32/70 30608 10270 20100 39733 40124 56008 700// 82031 91600=
07181,1999-07-30 17:00:00,27,1012.5,-0.5,32,9,10000,14.816,,,60,,,,,,,,,,,wg-a,,,,AAXX 30174 07181 32/60 /0608 10270 20090 39733 40125 56005 91700=
07181,1999-07-30 18:00:00,26,1012.9,-0,37,10,20000,11.112,,,70,15.4,27.8,,,,,,,,0,wg-a,,,,AAXX 30184 07181 32/70 10706 10260 20100 39735 40129 55000 700// 80001 91800 333 10278 20154=
07181,1999-07-30 19:00:00,24,1013.1,0.2,41,10,10000,7.408,,,80,,,,,,,,,,,wg-a,,,,AAXX 30194 07181 32/60 /0804 10240 20100 39735 40131 52002 91900=
07181,1999-07-30 20:00:00,21,1013.8,0.5,49,10,10000,7.408,,,90,,,,,,,,,,,wg-a,,,,AAXX 30204 07181 32/60 /0904 10210 20100 39738 40138 53005 92000=
07181,1999-07-30 21:00:00,20,1014.3,0.6,56,11,20000,7.408,,,90,,,,,,,,,,0,wg-a,,,,AAXX 30214 07181 32/70 00904 10200 20110 39741 40143 53006 700// 80000 92100=
07181,1999-07-30 22:00:00,20,1014.4,0.7,53,10,20000,7.408,,,80,,,,,,,,,,0,wg-a,,,,AAXX 30224 07181 32/70 00804 10200 20100 39742 40144 51007 700// 80000 92200=
07181,1999-07-30 23:00:00,18,1014.5,0.3,59,10,10000,7.408,,,90,,,,,,,,,,,wg-a,,,,AAXX 30234 07181 32/60 /0904 10180 20100 39741 40145 50003 92300=
07181,1999-07-31 00:00:00,16,1014.6,-0.2,68,10,20000,3.704,,,360,,,,,,,,,,0,wg-a,,,,AAXX 31004 07181 32/70 03602 10160 20100 39739 40146 58002 700// 80000 90000=
07181,1999-07-31 01:00:00,16,1014.4,-0.6,68,10,20000,3.704,,,300,,,,,,,,,,0,wg-a,,,,AAXX 31014 07181 32/70 03002 10160 20100 39736 40144 58006 700// 80000 90100=
07181,1999-07-31 03:00:00,14,1014.6,-0.4,77,10,20000,3.704,,,350,,,,,,,,,,0,wg-a,,,,AAXX 31034 07181 32/70 23502 10140 20100 39735 40146 56004 700// 80001 90300=
07181,1999-07-31 04:00:00,12,1014.8,-0,88,10,12000,0,,,0,,,,,,,,,,0,wg-a,,,,AAXX 31044 07181 32/62 20000 10120 20100 39736 40148 55000 700// 80001 90400=
07181,1999-07-31 05:00:00,13,1015,0.3,88,11,12000,0,,,0,,,,,,,,,,0,wg-a,,,,AAXX 31054 07181 32/62 20000 10130 20110 39738 40150 53003 700// 80001 90500=
07181,1999-07-31 06:00:00,15,1014.9,0.5,82,12,12000,0,,,0,12.1,25.7,,,,,,,,0,wg-a,,,,AAXX 31064 07181 12/62 20000 10150 20120 39740 40149 53005 60004 700// 80001 90600 333 10257 20121=
07181,1999-07-31 07:00:00,18,1014.5,0.5,73,13,15000,3.704,,,360,,,,,,,,,,0,wg-a,,,,AAXX 31074 07181 32/65 53602 10180 20130 39741 40145 51005 700// 80001 90700=
07181,1999-07-31 08:00:00,22,1014.2,0.5,53,12,18000,11.112,,,60,,,,,,,,,,0,wg-a,,,,AAXX 31084 07181 32/68 50606 10220 20120 39743 40142 52005 700// 80001 90800=
07181,1999-07-31 12:00:00,27,1012.5,-1,37,11,20000,14.816,,,70,,,,,,,,,,0,wg-a,,,,AAXX 31124 07181 32770 60708 10270 20110 39733 40125 57010 700// 82101 91200=
07181,1999-07-31 13:00:00,27,1012.2,-1,32,9,20000,18.52,,,60,,,,,,,,,,0,wg-a,,,,AAXX 31134 07181 32770 60610 10270 20090 39730 40122 56010 700// 82101 91300=
07181,1999-07-31 14:00:00,27,1012.1,-0.7,30,8,20000,14.816,,,100,,,,,,,,,,0,wg-a,,,,AAXX 31144 07181 32870 61008 10270 20080 39729 40121 56007 700// 82101 91400=
07181,1999-07-31 16:00:00,27,1011.4,-0.8,28,7,20000,14.816,,,50,,,,,,,,,,0,wg-a,,,,AAXX 31164 07181 32870 60508 10270 20070 39722 40114 58008 700// 82101 91600=
07181,1999-07-31 17:00:00,26,1011.3,-0.8,34,9,25000,11.112,,,80,,,,,,,,,,0,wg-a,,,,AAXX 31174 07181 32875 50806 10260 20090 39721 40113 56008 700// 81101 91700=
07181,1999-07-31 18:00:00,26,1011.5,-0.3,37,10,25000,11.112,,,60,14.9,27,,,,,,,,0,wg-a,,,,AAXX 31184 07181 32875 50606 10260 20100 39722 40115 55003 700// 81101 91800 333 10270 20149=
07181,1999-07-31 19:00:00,23,1012.1,0.3,44,10,25000,7.408,,,70,,,,,,,,,,0,wg-a,,,,AAXX 31194 07181 32/75 40704 10230 20100 39725 40121 53003 700// 80001 91900=
07181,1999-07-31 20:00:00,21,1012.9,0.8,49,10,20000,7.408,,,70,,,,,,,,,,0,wg-a,,,,AAXX 31204 07181 32/70 20704 10210 20100 39729 40129 53008 700// 80001 92000=
07181,1999-07-31 21:00:00,20,1013.5,1.1,53,10,20000,7.408,,,90,,,,,,,,,,0,wg-a,,,,AAXX 31214 07181 32/70 20904 10200 20100 39733 40135 53011 700// 80001 92100=
07181,1999-07-31 22:00:00,19,1013.7,0.9,56,10,20000,3.704,,,310,,,,,,,,,,0,wg-a,,,,AAXX 31224 07181 32/70 23102 10190 20100 39734 40137 51009 700// 80001 92200=
07181,1999-07-31 23:00:00,17,1014.1,0.6,68,11,20000,3.704,,,20,,,,,,,,,,0,wg-a,,,,AAXX 31234 07181 32/70 20202 10170 20110 39735 40141 51006 700// 81031 92300=
07181,1999-08-01 01:00:00,15,1014.2,-0.1,72,10,20000,3.704,,,30,,,,,,,,,,0,wg-a,,,,AAXX 01014 07181 32/70 30302 10150 20100 39733 40142 58001 700// 82031 90100=
07181,1999-08-01 02:00:00,14,1014.4,-0.1,77,10,20000,0,,,0,,,,,,,,,,0,wg-a,,,,AAXX 01024 07181 32/70 30000 10140 20100 39734 40144 55001 700// 82031 90200=
07181,1999-08-01 03:00:00,14,1014.5,0.1,82,11,20000,0,,,0,,,,,,,,,,0,wg-a,,,,AAXX 01034 07181 32/70 30000 10140 20110 39735 40145 53001 700// 82031 90300=
07181,1999-08-01 04:00:00,13,1014.8,0.4,88,11,20000,0,,,0,,,,,,,,,,0,wg-a,,,,AAXX 01044 07181 32/70 50000 10130 20110 39737 40148 53004 700// 83031 90400=
07181,1999-08-01 05:00:00,14,1015,0.6,82,11,20000,3.704,,,20,,,,,,,,,,0,wg-a,,,,AAXX 01054 07181 32/70 20202 10140 20110 39740 40150 53006 700// 82031 90500=
07181,1999-08-01 06:00:00,16,1015.1,0.9,82,13,20000,3.704,,,10,13,25.5,,,,,,,,0,wg-a,,,,AAXX 01064 07181 12/70 20102 10160 20130 39744 40151 53009 60004 700// 82031 90600 333 10255 20130=
07181,1999-08-01 07:00:00,19,1015,1,64,12,20000,7.408,,,60,,,,,,,,,,0,wg-a,,,,AAXX 01074 07181 32/70 20604 10190 20120 39747 40150 52010 700// 82031 90700=
07181,1999-08-01 08:00:00,22,1014.8,0.9,50,11,20000,7.408,,,100,,,,,,,,,,0,wg-a,,,,AAXX 01084 07181 32/70 21004 10220 20110 39749 40148 51009 700// 81031 90800=
07181,1999-08-01 11:00:00,27,1013.8,-0.3,34,10,20000,14.816,,,100,,,,,,,,,,0,wg-a,,,,AAXX 01114 07181 32670 21008 10270 20100 39746 40138 58003 700// 81101 91100=
07181,1999-08-01 12:00:00,27,1013.7,-0.5,28,7,20000,14.816,,,120,,,,,,,,,,0,wg-a,,,,AAXX 01124 07181 32770 21208 10270 20070 39745 40137 57005 700// 82101 91200=
07181,1999-08-01 13:00:00,28,1013.3,-0.7,25,6,20000,14.816,,,50,,,,,,,,,,0,wg-a,,,,AAXX 01134 07181 32770 30508 10280 20060 39742 40133 57007 700// 83101 91300=
07181,1999-08-01 14:00:00,28,1013.1,-0.6,27,7,20000,14.816,,,90,,,,,,,,,,0,wg-a,,,,AAXX 01144 07181 32770 30908 10280 20070 39740 40131 58006 700// 83101 91400=
07181,1999-08-01 15:00:00,27,1013.2,-0.5,30,8,20000,11.112,,,50,,,,,,,,,,0,wg-a,,,,AAXX 01154 07181 32770 30506 10270 20080 39740 40132 56005 700// 82101 91500=
07181,1999-08-01 16:00:00,28,1012.9,-0.4,27,7,20000,7.408,,,80,,,,,,,,,,0,wg-a,,,,AAXX 01164 07181 32770 30804 10280 20070 39738 40129 57004 700// 82101 91600=
07181,1999-08-01 17:00:00,28,1012.7,-0.4,27,7,20000,7.408,,,80,,,,,,,,,,0,wg-a,,,,AAXX 01174 07181 32770 20804 10280 20070 39736 40127 58004 700// 81501 91700=
07181,1999-08-01 20:00:00,22,1014.4,0.9,46,10,20000,7.408,,,80,,,,,,,,,,0,wg-a,,,,AAXX 01204 07181 32770 10804 10220 20100 39745 40144 53009 700// 81501 92000=
07181,1999-08-01 22:00:00,20,1015.3,1.2,49,9,20000,7.408,,,100,,,,,,,,,,0,wg-a,,,,AAXX 01224 07181 32770 11004 10200 20090 39751 40153 51012 700// 81501 92200=
07181,1999-08-01 23:00:00,19,1015.3,0.5,52,9,20000,7.408,,,110,,,,,,,,,,0,wg-a,,,,AAXX 01234 07181 32770 11104 10190 20090 39750 40153 50005 700// 81501 92300=
07181,1999-08-02 00:00:00,18,1015.4,0,56,9,20000,0,,,0,,,,,,,,,,0,wg-a,,,,AAXX 02004 07181 32770 10000 10180 20090 39749 40154 50000 700// 81501 90000=
07181,1999-08-02 01:00:00,16,1015.5,-0.4,68,10,20000,0,,,0,,,,,,,,,,0,wg-a,,,,AAXX 02014 07181 32/70 00000 10160 20100 39747 40155 58004 700// 80000 90100=
07181,1999-08-02 03:00:00,14,1015.7,-0.3,77,10,10000,0,,,0,,,,,,,,,,,wg-a,,,,AAXX 02034 07181 32/60 /0000 10140 20100 39746 40157 56003 90300=
07181,1999-08-02 04:00:00,13,1015.8,-0.1,82,10,20000,0,,,0,,,,,,,,,,0,wg-a,,,,AAXX 02044 07181 32/70 10000 10130 20100 39746 40158 57001 700// 80001 90400=
07181,1999-08-02 05:00:00,13,1015.9,-0,88,11,20000,3.704,,,170,,,,,,,,,,0,wg-a,,,,AAXX 02054 07181 32/70 11702 10130 20110 39747 40159 55000 700// 80001 90500=
07181,1999-08-02 07:00:00,20,1015.3,0.4,53,10,20000,3.704,,,90,,,,,,,,,,0,wg-a,,,,AAXX 02074 07181 32770 10902 10200 20100 39750 40153 52004 700// 81501 90700=
07181,1999-08-02 08:00:00,22,1015,0.4,53,12,20000,3.704,,,70,,,,,,,,,,0,wg-a,,,,AAXX 02084 07181 32770 10702 10220 20120 39751 40150 51004 700// 81501 90800=
07181,1999-08-02 10:00:00,27,1014,-0.3,42,13,20000,11.112,,,70,,,,,,,,,,0,wg-a,,,,AAXX 02104 07181 32670 10706 10270 20130 39747 40140 58003 700// 81101 91000=
07181,1999-08-02 11:00:00,27,1013.4,-0.9,37,11,20000,7.408,,,90,,,,,,,,,,0,wg-a,,,,AAXX 02114 07181 32670 20904 10270 20110 39742 40134 58009 700// 81201 91100=
07181,1999-08-02 12:00:00,28,1012.8,-1.2,35,11,20000,14.816,,,100,,,,,,,,,,0,wg-a,,,,AAXX 02124 07181 32770 41008 10280 20110 39738 40128 58012 700// 83201 91200=
07181,1999-08-02 13:00:00,28,1012.4,-1.3,32,10,20000,7.408,,,40,,,,,,,,,,0,wg-a,,,,AAXX 02134 07181 32770 60404 10280 20100 39734 40124 56013 700// 83201 91300=
07181,1999-08-02 14:00:00,29,1011.8,-1.3,29,9,20000,14.816,,,120,,,,,,,,,,0,wg-a,,,,AAXX 02144 07181 32770 61208 10290 20090 39729 40118 58013 700// 83201 91400=
07181,1999-08-02 15:00:00,29,1011.5,-1.2,35,12,20000,18.52,,,100,,,,,,,,,,0,wg-a,,,,AAXX 02154 07181 32770 61010 10290 20120 39726 40115 56012 700// 83201 91500=
07181,1999-08-02 16:00:00,28,1011.4,-1,32,10,20000,11.112,,,100,,,,,,,,,,0,wg-a,,,,AAXX 02164 07181 32770 61006 10280 20100 39724 40114 56010 700// 83202 91600=
07181,1999-08-02 17:00:00,28,1011.2,-0.8,32,10,20000,14.816,,,90,,,,,,,,,,0,wg-a,,,,AAXX 02174 07181 32770 60908 10280 20100 39721 40112 57008 700// 82202 91700=
07181,1999-08-02 18:00:00,27,1011.3,-0.5,39,12,20000,7.408,,,90,16.1,29.4,,,,,,,,0,wg-a,,,,AAXX 02184 07181 32770 60904 10270 20120 39721 40113 56005 700// 82202 91800 333 10294 20161=
07181,1999-08-02 19:00:00,24,1011.5,-0.4,50,13,20000,7.408,,,100,,,,,,,,,,0,wg-a,,,,AAXX 02194 07181 32/70 71004 10240 20130 39720 40115 56004 700// 80002 91900=
07181,1999-08-02 20:00:00,22,1012,0.1,53,12,20000,7.408,,,140,,,,,,,,,,0,wg-a,,,,AAXX 02204 07181 32/70 71404 10220 20120 39722 40120 53001 700// 80002 92000=
07181,1999-08-02 21:00:00,21,1012.2,0.2,56,12,20000,7.408,,,140,,,,,,,,,,0,wg-a,,,,AAXX 02214 07181 32/70 71404 10210 20120 39723 40122 53002 700// 80002 92100=
07181,1999-08-02 22:00:00,20,1012,0,60,12,20000,7.408,,,100,,,,,,,,,,0,wg-a,,,,AAXX 02224 07181 32/70 71004 10200 20120 39720 40120 50000 700// 80002 92200=
07181,1999-08-02 23:00:00,19,1011.9,-0.4,64,12,20000,11.112,,,150,,,,,,,,,,0,wg-a,,,,AAXX 02234 07181 32/70 71506 10190 20120 39718 40119 58004 700// 80002 92300=
07181,1999-08-03 00:00:00,18,1011.9,-0.7,68,12,20000,7.408,,,130,,,,,,,,,,0,wg-a,,,,AAXX 03004 07181 32/70 51304 10180 20120 39716 40119 56007 700// 80002 90000=
07181,1999-08-03 01:00:00,18,1011.7,-0.6,68,12,15000,7.408,,,200,,,,,,,,,,0,wg-a,,,,AAXX 03014 07181 32765 52004 10180 20120 39714 40117 57006 700// 85502 90100=
07181,1999-08-03 02:00:00,17,1012.2,-0,77,13,15000,7.408,,,230,,,,,,,,,,0,wg-a,,,,AAXX 03024 07181 32765 52304 10170 20130 39718 40122 55000 700// 84502 90200=
07181,1999-08-03 04:00:00,18,1012.1,0.4,77,14,13000,11.112,,,220,,,,,,,,,,0,wg-a,,,,AAXX 03044 07181 32763 72206 10180 20140 39718 40121 51004 700// 84502 90400=
07181,1999-08-03 05:00:00,18,1012.6,0.5,83,15,13000,11.112,,,230,,,,,,,,,,0,wg-a,,,,AAXX 03054 07181 32763 72306 10180 20150 39723 40126 53005 700// 84532 90500=
07181,1999-08-03 06:00:00,17,1013.3,1.3,94,16,9000,7.408,,,210,16.5,26.5,,1,,,1,,,61,wg-a,,,,AAXX 03064 07181 02759 82104 10170 20160 39729 40133 53013 60014 761// 8457/ 90600 333 10265 20165 60017=
07181,1999-08-03 07:00:00,17,1013,0.8,94,16,8000,0,,,0,,,0,,,,,,,61,wg-a,,,,AAXX 03074 07181 12558 80000 10170 20160 39726 40130 50008 60005 76166 8487/ 90700=
07181,1999-08-03 08:00:00,17,1013.2,0.5,100,17,500,3.704,,,250,,,1,,,,,,,12,wg-a,,,,AAXX 03084 07181 12200 82502 10170 20170 39728 40132 51005 60015 71266 8557/ 90800=
07181,1999-08-03 09:00:00,17,1013.6,0.3,100,17,3500,11.112,,,210,,,,4,,,,,,61,wg-a,,,,AAXX 03094 07181 12135 82106 10170 20170 39732 40136 53003 60047 76166 877// 90900=
07181,1999-08-03 10:00:00,17,1013.8,0.8,100,17,4000,3.704,,,240,,,3,,,,,,,61,wg-a,,,,AAXX 03104 07181 12240 82402 10170 20170 39734 40138 52008 60035 76166 877// 91000=
07181,1999-08-03 11:00:00,20,1013.4,0.6,94,19,15000,3.704,,,180,,,,,,,,,,21,wg-a,,,,AAXX 03114 07181 02465 71802 10200 20190 39734 40134 51006 61000 72162 8623/ 91100 333 ////=
07181,1999-08-03 12:00:00,21,1013,-0.1,83,18,15000,3.704,,,230,,,,3,,,,,,3,wg-a,,,,AAXX 03124 07181 12465 72302 10210 20180 39731 40130 58001 60037 70362 8623/ 91200=
07181,1999-08-03 13:00:00,19,1013.6,-0,94,18,6000,14.816,,,280,,,3,,,,,,,0,wg-a,,,,AAXX 03134 07181 12456 72808 10190 20180 39734 40136 55000 60035 700// 8623/ 91300=
07181,1999-08-03 14:00:00,20,1013.5,-0,88,18,20000,11.112,,,260,,,,,,,,,,25,wg-a,,,,AAXX 03144 07181 32470 72606 10200 20180 39734 40135 55000 72522 8583/ 91400=
07181,1999-08-03 15:00:00,21,1013.3,0.3,83,18,25000,7.408,,,270,,,,3,,,,,,3,wg-a,,,,AAXX 03154 07181 12475 72704 10210 20180 39734 40133 51003 60037 70386 878// 91500=
07181,1999-08-03 16:00:00,22,1012.8,-0.3,73,17,25000,7.408,,,240,,,,,,,,,,0,wg-a,,,,AAXX 03164 07181 32575 72404 10220 20170 39731 40128 58003 700// 84831 91600=
07181,1999-08-03 17:00:00,23,1012.7,-0.4,65,16,25000,7.408,,,240,,,,,,,,,,0,wg-a,,,,AAXX 03174 07181 32475 52404 10230 20160 39730 40127 58004 700// 83801 91700=
07181,1999-08-03 18:00:00,23,1012.6,-0.5,65,16,25000,3.704,,,250,17,22.8,,,,,,,,1,wg-a,,,,AAXX 03184 07181 32575 /2502 10230 20160 39729 40126 56005 70186 81201 91800 333 10228 20170=
07181,1999-08-03 19:00:00,21,1012.8,-0.2,78,17,25000,3.704,,,130,,,,,,,,,,0,wg-a,,,,AAXX 03194 07181 32575 /1302 10210 20170 39729 40128 56002 700// 81201 91900=
07181,1999-08-03 20:00:00,18,1013.4,0.2,94,17,25000,7.408,,,130,,,,,,,,,,0,wg-a,,,,AAXX 03204 07181 32575 /1304 10180 20170 39732 40134 53002 700// 81201 92000=
07181,1999-08-03 21:00:00,18,1013.7,0.4,88,16,25000,7.408,,,140,,,,,,,,,,0,wg-a,,,,AAXX 03214 07181 32/75 21404 10180 20160 39733 40137 53004 700// 80001 92100=
07181,1999-08-03 22:00:00,17,1013.7,0.3,94,16,25000,7.408,,,130,,,,,,,,,,0,wg-a,,,,AAXX 03224 07181 32/75 01304 10170 20160 39732 40137 50003 700// 80000 92200=
07181,1999-08-03 23:00:00,16,1013.8,0,94,15,20000,7.408,,,130,,,,,,,,,,0,wg-a,,,,AAXX 03234 07181 32/70 01304 10160 20150 39732 40138 50000 700// 80000 92300=
07181,1999-08-04 00:00:00,16,1013.7,-0.2,100,16,20000,11.112,,,150,,,,,,,,,,0,wg-a,,,,AAXX 04004 07181 32/70 01506 10160 20160 39731 40137 57002 700// 80000 90000=
07181,1999-08-04 02:00:00,15,1013.3,-0.6,100,15,10000,7.408,,,80,,,,,,,,,,0,wg-a,,,,AAXX 04024 07181 32/60 30804 10150 20150 39726 40133 58006 700// 80001 90200=
07181,1999-08-04 04:00:00,14,1013.1,-0.6,100,14,400,3.704,,,60,,,,,,,,,,41,wg-a,,,,AAXX 04044 07181 32004 /0602 10140 20140 39722 40131 57006 74141 82631 90400=
07181,1999-08-04 05:00:00,13,1013.2,-0.4,100,13,600,3.704,,,100,,,,,,,,,,41,wg-a,,,,AAXX 04054 07181 32006 /1002 10130 20130 39722 40132 56004 74144 82631 90500=
07181,1999-08-04 06:00:00,14,1012.6,-0.6,100,14,4000,3.704,,,50,13.4,22.4,,,,,10,,,10,wg-a,,,,AAXX 04064 07181 12040 50502 10140 20140 39718 40126 58006 60104 71041 81631 90600 333 10224 20134=
07181,1999-08-04 07:00:00,18,1012.4,-0.1,100,18,500,3.704,,,360,,,,,,,,,,10,wg-a,,,,AAXX 04074 07181 32000 53602 10180 20180 39721 40124 55001 710// 81631 90700=
07181,1999-08-04 08:00:00,20,1011.9,-0.3,83,17,7000,7.408,,,80,,,,,,,,,,0,wg-a,,,,AAXX 04084 07181 32457 40804 10200 20170 39719 40119 56003 700// 81631 90800=
07181,1999-08-04 09:00:00,22,1011.2,-0.3,73,17,9000,11.112,,,80,,,,,,,,,,0,wg-a,,,,AAXX 04094 07181 32459 40806 10220 20170 39715 40112 58003 700// 81631 90900=
07181,1999-08-04 10:00:00,23,1010.7,-0.9,73,18,9000,14.816,,,100,,,,,,,,,,0,wg-a,,,,AAXX 04104 07181 32459 41008 10230 20180 39712 40107 58009 700// 81131 91000=
07181,1999-08-04 11:00:00,25,1009.8,-1.3,65,18,18000,11.112,,,90,,,,,,,,,,0,wg-a,,,,AAXX 04114 07181 32568 40906 10250 20180 39706 40098 58013 700// 82131 91100=
07181,1999-08-05 12:00:00,26,1012.1,0.2,54,16,20000,18.52,,,230,,,,,,,,,,0,wg-a,,,,AAXX 05124 07181 32570 72310 10260 20160 39729 40121 53002 700// 86801 91200=
07181,1999-08-05 13:00:00,25,1012.1,-0,57,16,25000,14.816,,,260,,,,,,,,,,0,wg-a,,,,AAXX 05134 07181 32575 72608 10250 20160 39728 40121 54000 700// 86801 91300=
07181,1999-08-05 15:00:00,26,1012.2,-0,51,15,500,14.816,,,260,,,,,,,,,,0,wg-a,,,,AAXX 05154 07181 32600 72608 10260 20150 39729 40122 55000 700// 84802 91500=
07181,1999-08-05 16:00:00,26,1011.9,-0.1,51,15,500,18.52,,,270,,,,,,,,,,0,wg-a,,,,AAXX 05164 07181 32600 72710 10260 20150 39727 40119 58001 700// 83802 91600=
07181,1999-08-05 17:00:00,25,1012,-0.2,54,15,500,11.112,,,280,,,,,,,,,,0,wg-a,,,,AAXX 05174 07181 32600 72806 10250 20150 39726 40120 58002 700// 83802 91700=
07181,1999-08-05 18:00:00,24,1012.1,-0.3,57,15,500,11.112,,,280,19.8,26.6,,,,,,,,0,wg-a,,,,AAXX 05184 07181 32600 72806 10240 20150 39726 40121 56003 700// 83802 91800 333 10266 20198=
07181,1999-08-05 19:00:00,22,1012.5,0.1,60,14,500,3.704,,,290,,,,,,,,,,0,wg-a,,,,AAXX 05194 07181 32700 72902 10220 20140 39728 40125 53001 700// 82502 91900=
07181,1999-08-05 20:00:00,20,1013.4,0.7,73,15,20000,3.704,,,150,,,,,,,,,,0,wg-a,,,,AAXX 05204 07181 32770 71502 10200 20150 39733 40134 53007 700// 82502 92000=
07181,1999-08-05 21:00:00,20,1013.5,0.8,73,15,20000,0,,,0,,,,,,,,,,0,wg-a,,,,AAXX 05214 07181 32770 70000 10200 20150 39734 40135 51008 700// 82502 92100=
07181,1999-08-05 22:00:00,19,1013.8,0.8,73,14,18000,3.704,,,200,,,,,,,,,,0,wg-a,,,,AAXX 05224 07181 32768 62002 10190 20140 39736 40138 51008 700// 81502 92200=
07181,1999-08-05 23:00:00,18,1013.8,0.2,83,15,18000,0,,,0,,,,,,,,,,0,wg-a,,,,AAXX 05234 07181 32768 60000 10180 20150 39735 40138 50002 700// 81502 92300=
07181,1999-08-06 00:00:00,17,1014.4,0.5,82,14,18000,3.704,,,180,,,,,,,,,,,wg-a,,,,AAXX 06004 07181 32768 61802 10170 20140 39739 40144 53005 81502 90000=
07181,1999-08-06 01:00:00,18,1013.8,-0.2,83,15,18000,3.704,,,140,,,,,,,,,,0,wg-a,,,,AAXX 06014 07181 32768 41402 10180 20150 39734 40138 58002 700// 81502 90100=
07181,1999-08-06 02:00:00,18,1013.7,-0.2,77,14,18000,7.408,,,150,,,,,,,,,,0,wg-a,,,,AAXX 06024 07181 32/68 41504 10180 20140 39733 40137 58002 700// 80002 90200=
07181,1999-08-06 03:00:00,17,1013.6,-0.8,82,14,18000,3.704,,,130,,,,,,,,,,0,wg-a,,,,AAXX 06034 07181 32/68 41302 10170 20140 39731 40136 56008 700// 80002 90300=
07181,1999-08-06 04:00:00,15,1013.8,-0.3,94,14,18000,0,,,0,,,,,,,,,,0,wg-a,,,,AAXX 06044 07181 32768 40000 10150 20140 39731 40138 56003 700// 82502 90400=
07181,1999-08-06 05:00:00,15,1013.6,-0.4,94,14,13000,3.704,,,80,,,,,,,,,,0,wg-a,,,,AAXX 06054 07181 32763 40802 10150 20140 39729 40136 57004 700// 82502 90500=
07181,1999-08-06 06:00:00,19,1012.4,-0.9,78,15,13000,3.704,,,80,15.1,24.1,,,,,,,,0,wg-a,,,,AAXX 06064 07181 12763 40802 10190 20150 39722 40124 58009 60004 700// 82502 90600 333 10241 20151=
07181,1999-08-06 07:00:00,22,1012.2,-0.7,65,15,15000,7.408,,,120,,,,,,,,,,0,wg-a,,,,AAXX 06074 07181 32765 51204 10220 20150 39724 40122 55007 700// 81502 90700=
07181,1999-08-06 08:00:00,24,1011.9,-0.5,57,15,15000,11.112,,,90,,,,,,,,,,0,wg-a,,,,AAXX 06084 07181 32765 50906 10240 20150 39724 40119 56005 700// 81502 90800=
07181,1999-08-06 09:00:00,25,1011.2,-0.3,61,17,15000,14.816,,,100,,,,,,,,,,0,wg-a,,,,AAXX 06094 07181 32765 61008 10250 20170 39719 40112 58003 700// 81502 90900=
07181,1999-08-06 10:00:00,26,1010.5,-1,58,17,15000,14.816,,,110,,,,,,,,,,0,wg-a,,,,AAXX 06104 07181 32665 /1108 10260 20170 39714 40105 58010 700// 81132 91000=
07181,1999-08-06 11:00:00,27,1009.4,-1.9,54,17,15000,11.112,,,100,,,,,,,,,,0,wg-a,,,,AAXX 06114 07181 32665 /1006 10270 20170 39705 40094 58019 700// 82132 91100=
07181,1999-08-06 12:00:00,27,1008.4,-2.4,58,18,15000,14.816,,,100,,,,,,,,,,0,wg-a,,,,AAXX 06124 07181 32665 71008 10270 20180 39695 40084 58024 700// 83132 91200=
07181,1999-08-06 13:00:00,26,1007.9,-2.5,61,18,15000,14.816,,,90,,,,,,,,,,0,wg-a,,,,AAXX 06134 07181 32665 70908 10260 20180 39689 40079 56025 700// 84232 91300=
07181,1999-08-06 14:00:00,26,1007.3,-2.2,65,19,12000,11.112,,,140,,,,,,,,,,95,wg-a,,,,AAXX 06144 07181 02662 71406 10260 20190 39683 40073 56022 61000 79598 8593/ 91400 333 ////=
07181,1999-08-06 15:00:00,22,1007.6,-1.3,94,21,15000,7.408,,,20,,,,10,,,,,,29,wg-a,,,,AAXX 06154 07181 12665 70204 10220 20210 39682 40076 56013 60107 72998 8593/ 91500=
07181,1999-08-06 16:00:00,24,1006.5,-1.5,89,22,15000,11.112,,,50,,,,,,,,,,0,wg-a,,,,AAXX 06164 07181 32665 50506 10240 20220 39674 40065 58015 700// 83930 91600=
07181,1999-08-06 17:00:00,25,1005,-2.2,79,21,15000,11.112,,,50,,,,,,,,,,0,wg-a,,,,AAXX 06174 07181 32665 30506 10250 20210 39661 40050 58022 700// 81901 91700=
07181,1999-08-06 19:00:00,22,1004.2,-2.5,83,19,15000,7.408,,,80,,,,,,,,,,0,wg-a,,,,AAXX 06194 07181 32/65 70804 10220 20190 39649 40042 56025 700// 83032 91900=
07181,1999-08-06 20:00:00,19,1007,0.9,94,18,4000,35.188,,55.56,240,,,3,,,,,,,81,wg-a,,,,AAXX 06204 07181 12240 72419 10190 20180 39670 40070 53009 60035 78198 879// 92000 333 91030=
07181,1999-08-06 21:00:00,18,1006.5,0.8,100,18,15000,3.704,,,260,,,,6,,,,,,29,wg-a,,,,AAXX 06214 07181 12265 72602 10180 20180 39665 40065 53008 60067 72998 8553/ 92100=
07181,1999-08-06 22:00:00,18,1007.7,2.8,100,18,15000,18.52,,,190,,,0,,,,,,,0,wg-a,,,,AAXX 06224 07181 12265 71910 10180 20180 39677 40077 51028 60005 700// 8553/ 92200=
07181,1999-08-06 23:00:00,18,1008.3,1.2,94,17,15000,25.928,,,190,,,,,,,,,,0,wg-a,,,,AAXX 06234 07181 32265 71914 10180 20170 39682 40083 53012 700// 8553/ 92300=
07181,1999-08-07 00:00:00,17,1008.2,1.5,94,16,15000,18.52,,,200,,,,,,,,,,2,wg-a,,,,AAXX 07004 07181 32265 72010 10170 20160 39680 40082 50015 70298 8553/ 90000=
07181,1999-08-07 02:00:00,17,1007.3,-1.1,94,16,15000,18.52,,,220,,,,,,,,,,0,wg-a,,,,AAXX 07024 07181 32265 72210 10170 20160 39671 40073 58011 700// 8653/ 90200=
07181,1999-08-07 06:00:00,17,1009,1.4,100,17,12000,18.52,,,220,16.7,23.2,,,,,16,,,0,wg-a,,,,AAXX 07064 07181 12462 72210 10170 20170 39688 40090 53014 60164 700// 878// 90600 333 10232 20167=
07181,1999-08-07 07:00:00,18,1009.3,1.5,94,17,15000,18.52,,,230,,,,,,,,,,0,wg-a,,,,AAXX 07074 07181 32465 72310 10180 20170 39691 40093 51015 700// 878// 90700=
07181,1999-08-07 08:00:00,19,1009.5,1.4,88,17,20000,22.224,,,230,,,,,,,,,,0,wg-a,,,,AAXX 07084 07181 32470 72312 10190 20170 39694 40095 51014 700// 878// 90800=
07181,1999-08-07 09:00:00,20,1009,0.4,83,17,25000,25.928,,,230,,,,,,,,,,0,wg-a,,,,AAXX 07094 07181 32475 /2314 10200 20170 39692 40090 50004 700// 85202 90900=
07181,1999-08-07 10:00:00,22,1008.9,0.2,69,16,25000,25.928,,,230,,,,,,,,,,0,wg-a,,,,AAXX 07104 07181 32575 /2314 10220 20160 39693 40089 51002 700// 86200 91000=
07181,1999-08-07 11:00:00,23,1008.3,-0.6,61,15,25000,14.816,,,260,,,,,,,,,,0,wg-a,,,,AAXX 07114 07181 32575 /2608 10230 20150 39688 40083 58006 700// 86200 91100=
07181,1999-08-07 12:00:00,23,1007.9,-0.7,61,15,25000,14.816,,,250,,,,,,,,,,0,wg-a,,,,AAXX 07124 07181 32575 /2508 10230 20150 39685 40079 58007 700// 86200 91200=
07181,1999-08-07 13:00:00,24,1007.3,-1.3,54,14,25000,14.816,,,220,,,,,,,,,,0,wg-a,,,,AAXX 07134 07181 32675 72208 10240 20140 39680 40073 57013 700// 86201 91300=
07181,1999-08-07 14:00:00,24,1006.8,-1.2,54,14,60000,11.112,,,260,,,,,,,,,,,wg-a,,,,AAXX 07144 07181 32/86 /2606 10240 20140 39676 40068 58012 91400=
07181,1999-08-07 15:00:00,25,1006.2,-1.5,54,15,25000,11.112,,,230,,,,,,,,,,0,wg-a,,,,AAXX 07154 07181 32675 /2306 10250 20150 39670 40062 58015 700// 85201 91500=
07181,1999-08-07 16:00:00,24,1005.7,-1.6,54,14,25000,11.112,,,210,,,,,,,,,,0,wg-a,,,,AAXX 07164 07181 32675 42106 10240 20140 39664 40057 58016 700// 83201 91600=
07181,1999-08-07 17:00:00,24,1005,-1.8,54,14,50000,11.112,,,200,,,,,,,,,,,wg-a,,,,AAXX 07174 07181 32/84 /2006 10240 20140 39658 40050 57018 91700=
07181,1999-08-07 19:00:00,22,1004.1,-1.7,73,17,25000,3.704,,,130,,,,,,,,,,0,wg-a,,,,AAXX 07194 07181 32675 /1302 10220 20170 39647 40041 56017 700// 81501 91900=
07181,1999-08-07 20:00:00,20,1004.2,-1.3,78,16,25000,7.408,,,130,,,,,,,,,,0,wg-a,,,,AAXX 07204 07181 32775 31304 10200 20160 39645 40042 56013 700// 81501 92000=
07181,1999-08-07 22:00:00,18,1003.3,-1.3,88,16,25000,7.408,,,80,,,,,,,,,,0,wg-a,,,,AAXX 07224 07181 32775 50804 10180 20160 39634 40033 58013 700// 81531 92200=
07181,1999-08-07 23:00:00,19,1002.4,-1.9,83,16,25000,7.408,,,90,,,,,,,,,,0,wg-a,,,,AAXX 07234 07181 32775 50904 10190 20160 39626 40024 58019 700// 81531 92300=
07181,1999-08-08 00:00:00,19,1001.8,-2.1,83,16,25000,11.112,,,100,,,,,,,,,,0,wg-a,,,,AAXX 08004 07181 32775 51006 10190 20160 39621 40018 56021 700// 81531 90000=
07181,1999-08-08 01:00:00,18,1000.5,-2.7,88,16,25000,3.704,,,50,,,,,,,,,,0,wg-a,,,,AAXX 08014 07181 32775 60502 10180 20160 39607 40005 58027 700// 81531 90100=
07181,1999-08-08 02:00:00,18,1000.5,-1.9,88,16,25000,11.112,,,100,,,,,,,,,,0,wg-a,,,,AAXX 08024 07181 32775 /1006 10180 20160 39607 40005 56019 700// 81931 90200=
07181,1999-08-08 04:00:00,18,1000.2,-0.3,94,17,10000,11.112,,,200,,,1,,,,,,,61,wg-a,,,,AAXX 08044 07181 12660 82006 10180 20170 39604 40002 57003 60015 76162 8557/ 90400=
07181,1999-08-08 05:00:00,18,1000.2,-0.3,100,18,10000,22.224,,,160,,,0,,,,,,,21,wg-a,,,,AAXX 08054 07181 12260 81612 10180 20180 39604 40002 56003 60005 72162 8657/ 90500=
07181,1999-08-08 06:00:00,19,1000.9,0.8,94,18,12000,22.224,,,180,17.1,23.7,,2,,,3,,,3,wg-a,,,,AAXX 08064 07181 02262 81812 10190 20180 39612 40009 53008 60034 70362 8657/ 90600 333 10237 20171 60027=
07181,1999-08-08 07:00:00,19,1001.5,1.4,94,18,17000,22.224,,,200,,,,,,,,,,0,wg-a,,,,AAXX 08074 07181 32267 72012 10190 20180 39618 40015 53014 700// 8257/ 90700=
07181,1999-08-08 08:00:00,20,1001.7,1.7,88,18,25000,22.224,,,200,,,,,,,,,,0,wg-a,,,,AAXX 08084 07181 32475 /2012 10200 20180 39621 40017 51017 700// 82802 90800=
07181,1999-08-08 09:00:00,22,1001.8,1.3,78,18,25000,22.224,,,210,,,,,,,,,,0,wg-a,,,,AAXX 08094 07181 32475 52112 10220 20180 39625 40018 51013 700// 84802 90900=
07181,1999-08-08 10:00:00,23,1002,1,65,16,500,25.928,,,230,,,,,,,,,,0,wg-a,,,,AAXX 08104 07181 32500 52314 10230 20160 39628 40020 52010 700// 85800 91000=
07181,1999-08-08 11:00:00,25,1001.7,0.6,54,15,500,18.52,,,230,,,,,,,,,,0,wg-a,,,,AAXX 08114 07181 32600 52310 10250 20150 39627 40017 50006 700// 85800 91100=
07181,1999-08-08 12:00:00,25,1001.8,0.4,50,14,500,18.52,,,250,,,,,,,,,,0,wg-a,,,,AAXX 08124 07181 32600 52510 10250 20140 39629 40018 51004 700// 85800 91200=
07181,1999-08-08 13:00:00,25,1002.1,0.3,47,13,500,22.224,,,240,,,,,,,,,,0,wg-a,,,,AAXX 08134 07181 32600 52412 10250 20130 39631 40021 53003 700// 85800 91300=
07181,1999-08-08 16:00:00,26,1002,0,48,14,500,11.112,,,270,,,,,,,,,,0,wg-a,,,,AAXX 08164 07181 32600 32706 10260 20140 39631 40020 50000 700// 83800 91600=
07181,1999-08-08 17:00:00,25,1001.7,-0.4,50,14,500,3.704,,,260,,,,,,,,,,0,wg-a,,,,AAXX 08174 07181 32600 22602 10250 20140 39628 40017 58004 700// 81201 91700=
07181,1999-08-08 18:00:00,25,1002,-0.3,50,14,500,7.408,,,270,18.6,26.6,,,,,,,,0,wg-a,,,,AAXX 08184 07181 32600 32704 10250 20140 39630 40020 55003 700// 82201 91800 333 10266 20186=
07181,1999-08-08 19:00:00,22,1002.4,-0,69,16,20000,3.704,,,110,,,,,,,,,,80,wg-a,,,,AAXX 08194 07181 02670 51102 10220 20160 39631 40024 55000 61000 78086 85900 91900 333 ////=
07181,1999-08-08 22:00:00,16,1006.1,2.6,94,15,17000,7.408,,,170,,,0,,,,,,,0,wg-a,,,,AAXX 08224 07181 12767 21704 10160 20150 39657 40061 51026 60005 700// 81501 92200=
07181,1999-08-08 23:00:00,15,1005.8,0.3,100,15,15000,7.408,,,220,,,,,,,,,,0,wg-a,,,,AAXX 08234 07181 32765 22204 10150 20150 39654 40058 50003 700// 81501 92300=
07181,1999-08-09 00:00:00,15,1005.8,0.4,100,15,15000,11.112,,,170,,,,0,,,,,,3,wg-a,,,,AAXX 09004 07181 12765 41706 10150 20150 39654 40058 51004 60007 70398 84500 90000=
07181,1999-08-09 01:00:00,15,1005.5,-0.6,100,15,15000,11.112,,,160,,,,,,,,,,0,wg-a,,,,AAXX 09014 07181 32765 31606 10150 20150 39651 40055 57006 700// 83500 90100=
07181,1999-08-09 04:00:00,15,1005.6,0.1,100,15,20000,14.816,,,160,,,0,,,,,,,0,wg-a,,,,AAXX 09044 07181 12670 /1608 10150 20150 39652 40056 53001 60005 700// 85530 90400=
07181,1999-08-09 05:00:00,15,1006.3,0.8,94,14,20000,11.112,,,170,,,,,,,,,,0,wg-a,,,,AAXX 09054 07181 32670 51706 10150 20140 39658 40063 53008 700// 84530 90500=
07181,1999-08-09 06:00:00,16,1006.4,1.3,94,15,20000,11.112,,,170,14.5,24.8,,0,,,13,,,0,wg-a,,,,AAXX 09064 07181 02770 51706 10160 20150 39661 40064 51013 60134 700// 84530 90600 333 10248 20145 60007=
07181,1999-08-09 07:00:00,18,1006.2,1,94,17,25000,7.408,,,140,,,,,,,,,,0,wg-a,,,,AAXX 09074 07181 32775 41404 10180 20170 39662 40062 51010 700// 84500 90700=
07181,1999-08-09 08:00:00,21,1006,0.5,78,17,25000,14.816,,,180,,,,,,,,,,0,wg-a,,,,AAXX 09084 07181 32775 41808 10210 20170 39663 40060 51005 700// 84500 90800=
07181,1999-08-09 09:00:00,20,1006.1,0.3,83,17,35000,18.52,,,200,,,,,,,,,,0,wg-a,,,,AAXX 09094 07181 32681 42010 10200 20170 39664 40061 52003 700// 84800 90900=
07181,1999-08-09 10:00:00,24,1005.5,0.1,69,18,500,18.52,,,220,,,,,,,,,,0,wg-a,,,,AAXX 09104 07181 32500 42210 10240 20180 39663 40055 50001 700// 84230 91000=
07181,1999-08-09 11:00:00,25,1005,-0.4,61,17,500,22.224,,,200,,,,,,,,,,0,wg-a,,,,AAXX 09114 07181 32500 52012 10250 20170 39659 40050 58004 700// 85200 91100=
07181,1999-08-09 12:00:00,24,1005,-0.5,69,18,500,11.112,,,220,,,,0,,,,,,25,wg-a,,,,AAXX 09124 07181 12500 52206 10240 20180 39659 40050 56005 60007 72586 85200 91200=
07181,1999-08-09 13:00:00,26,1004.7,-0.6,54,16,500,14.816,,,240,,,,,,,,,,0,wg-a,,,,AAXX 09134 07181 32500 52408 10260 20160 39657 40047 56006 700// 85200 91300=
07181,1999-08-09 15:00:00,25,1004.4,-0.6,50,14,500,22.224,,,180,,,,,,,,,,0,wg-a,,,,AAXX 09154 07181 32500 51812 10250 20140 39653 40044 56006 700// 85200 91500=
07181,1999-08-09 16:00:00,25,1004.1,-0.7,50,14,60000,18.52,,,210,,,,,,,,,,,wg-a,,,,AAXX 09164 07181 32/86 /2110 10250 20140 39650 40041 57007 91600=
07181,1999-08-09 17:00:00,23,1004.3,-0.4,65,16,20000,7.408,,,230,,,1,,,,,,,25,wg-a,,,,AAXX 09174 07181 12570 52304 10230 20160 39650 40043 56004 60015 72586 85200 91700=
07181,1999-08-09 18:00:00,22,1004.9,0.1,73,17,20000,14.816,,,200,16.3,27.1,,1,,,,,,1,wg-a,,,,AAXX 09184 07181 12570 62008 10220 20170 39654 40049 53001 60017 70186 86200 91800 333 10271 20163=
07181,1999-08-09 19:00:00,21,1006.8,2.1,64,14,500,14.816,,,330,,,,,,,,,,0,wg-a,,,,AAXX 09194 07181 32600 /3308 10210 20140 39671 40068 53021 700// 86400 91900=
07181,1999-08-09 20:00:00,19,1007.7,2.7,73,14,500,3.704,,,330,,,,,,,,,,0,wg-a,,,,AAXX 09204 07181 32600 63302 10190 20140 39677 40077 53027 700// 86400 92000=
07181,1999-08-09 21:00:00,18,1008,2.5,77,14,500,7.408,,,260,,,,,,,,,,0,wg-a,,,,AAXX 09214 07181 32700 32604 10180 20140 39679 40080 51025 700// 82501 92100=
07181,1999-08-09 22:00:00,17,1008.3,0.9,82,14,500,3.704,,,160,,,,,,,,,,0,wg-a,,,,AAXX 09224 07181 32700 41602 10170 20140 39680 40083 51009 700// 84500 92200=
07181,1999-08-09 23:00:00,16,1008.9,0.7,88,14,500,11.112,,,150,,,,,,,,,,0,wg-a,,,,AAXX 09234 07181 32700 51506 10160 20140 39684 40089 53007 700// 85500 92300=
07181,1999-08-10 00:00:00,16,1009,0.7,88,14,500,14.816,,,160,,,,,,,,,,0,wg-a,,,,AAXX 10004 07181 32700 41608 10160 20140 39686 40090 53007 700// 84500 90000=
07181,1999-08-10 01:00:00,16,1008.6,0.1,88,14,500,11.112,,,160,,,,,,,,,,0,wg-a,,,,AAXX 10014 07181 32700 21606 10160 20140 39681 40086 50001 700// 82500 90100=
07181,1999-08-10 03:00:00,17,1008.9,-0,88,15,500,18.52,,,200,,,,,,,,,,0,wg-a,,,,AAXX 10034 07181 32700 52010 10170 20150 39686 40089 55000 700// 85500 90300=
07181,1999-08-10 04:00:00,16,1009.2,0.6,88,14,15000,14.816,,,240,,,,,,,,,,0,wg-a,,,,AAXX 10044 07181 32665 42408 10160 20140 39687 40092 52006 700// 84500 90400=
07181,1999-08-10 05:00:00,16,1009.6,0.9,94,15,7000,18.52,,,200,,,0,,,,,,,80,wg-a,,,,AAXX 10054 07181 12357 /2010 10160 20150 39691 40096 52009 60005 78086 86800 90500=
07181,1999-08-10 06:00:00,16,1010.3,1.2,94,15,17000,22.224,,,200,15.2,21.8,,0,,,1,,,25,wg-a,,,,AAXX 10064 07181 02367 72012 10160 20150 39698 40103 53012 60014 72586 878// 90600 333 10218 20152 60007=
07181,1999-08-10 07:00:00,18,1010.3,1.4,88,16,20000,25.928,,,230,,,,,,,,,,0,wg-a,,,,AAXX 10074 07181 32470 72314 10180 20160 39701 40103 51014 700// 878// 90700=
07181,1999-08-10 08:00:00,18,1010.7,1.4,83,15,17000,29.632,,,220,,,,,,,,,,0,wg-a,,,,AAXX 10084 07181 32467 72216 10180 20150 39705 40107 51014 700// 878// 90800=
07181,1999-08-10 09:00:00,19,1010.5,0.6,73,14,25000,31.484,,,240,,,,,,,,,,0,wg-a,,,,AAXX 10094 07181 32475 /2417 10190 20140 39704 40105 50006 700// 86800 90900=
07181,1999-08-10 10:00:00,20,1010.8,0.7,68,14,25000,31.484,,,230,,,,,,,,,,0,wg-a,,,,AAXX 10104 07181 32575 /2317 10200 20140 39708 40108 52007 700// 85800 91000=
07181,1999-08-10 11:00:00,21,1010.9,0.6,69,15,25000,29.632,,,240,,,,,,,,,,0,wg-a,,,,AAXX 10114 07181 32575 52416 10210 20150 39711 40109 53006 700// 85800 91100=
07181,1999-08-10 12:00:00,22,1011,0.9,65,15,25000,29.632,,,230,,,,,,,,,,25,wg-a,,,,AAXX 10124 07181 02575 /2316 10220 20150 39713 40110 51009 61000 72586 86800 91200 333 ////=
07181,1999-08-10 13:00:00,22,1011.2,0.7,60,14,25000,25.928,,,240,,,,,,,,,,0,wg-a,,,,AAXX 10134 07181 32575 52414 10220 20140 39715 40112 51007 700// 85800 91300=
07181,1999-08-10 19:00:00,20,1014.3,2,68,14,25000,11.112,,,270,,,,,,,,,,0,wg-a,,,,AAXX 10194 07181 32575 /2706 10200 20140 39741 40143 53020 700// 86800 91900=
07181,1999-08-10 20:00:00,18,1014.8,2.3,77,14,25000,7.408,,,250,,,,,,,,,,0,wg-a,,,,AAXX 10204 07181 32575 /2504 10180 20140 39744 40148 51023 700// 83830 92000=
07181,1999-08-10 21:00:00,16,1015.7,2,100,16,12000,3.704,,,290,,,,5,,,,,,29,wg-a,,,,AAXX 10214 07181 12562 72902 10160 20160 39750 40157 51020 60057 72998 8583/ 92100=
07181,1999-08-10 22:00:00,16,1015.6,0.9,100,16,15000,11.112,,,200,,,,,,,,,,0,wg-a,,,,AAXX 10224 07181 32665 62006 10160 20160 39750 40156 51009 700// 8483/ 92200=
07181,1999-08-10 23:00:00,16,1015.9,0.8,94,15,15000,11.112,,,210,,,,,,,,,,0,wg-a,,,,AAXX 10234 07181 32665 62106 10160 20150 39752 40159 51008 700// 8383/ 92300=
07181,1999-08-11 00:00:00,16,1016.3,0.5,94,15,15000,11.112,,,210,,,,,,,,,,3,wg-a,,,,AAXX 11004 07181 32465 72106 10160 20150 39755 40163 53005 70398 872// 90000=
07181,1999-08-11 01:00:00,16,1016.4,0.7,94,15,12000,7.408,,,250,,,,,,,,,,0,wg-a,,,,AAXX 11014 07181 32362 72504 10160 20150 39757 40164 52007 700// 877// 90100=
07181,1999-08-11 03:00:00,16,1016.8,0.5,94,15,7000,3.704,,,270,,,,,,,,,,0,wg-a,,,,AAXX 11034 07181 32357 72702 10160 20150 39760 40168 52005 700// 877// 90300=
07181,1999-08-11 04:00:00,16,1017.1,0.6,94,15,500,7.408,,,260,,,,,,,,,,0,wg-a,,,,AAXX 11044 07181 32300 72604 10160 20150 39763 40171 53006 700// 878// 90400=
07181,1999-08-11 05:00:00,16,1017.3,0.7,94,15,500,7.408,,,270,,,,,,,,,,0,wg-a,,,,AAXX 11054 07181 32300 72704 10160 20150 39765 40173 52007 700// 85802 90500=
07181,1999-08-11 06:00:00,16,1017.7,0.9,94,15,6000,7.408,,,270,15.4,20.6,,,,,1,,,0,wg-a,,,,AAXX 11064 07181 12356 72704 10160 20150 39769 40177 53009 60014 700// 878// 90600 333 10206 20154=
07181,1999-08-11 07:00:00,16,1018,0.9,100,16,9000,7.408,,,290,,,,,,,,,,0,wg-a,,,,AAXX 11074 07181 32259 72904 10160 20160 39772 40180 53009 700// 872// 90700=
07181,1999-08-11 08:00:00,16,1018.5,1.2,94,15,12000,14.816,,,270,,,,,,,,,,21,wg-a,,,,AAXX 11084 07181 02362 82708 10160 20150 39777 40185 53012 61000 72162 878// 90800 333 ////=
07181,1999-08-11 10:00:00,17,1018.6,0.8,88,15,15000,14.816,,,240,,,,,,,,,,0,wg-a,,,,AAXX 11104 07181 32465 82408 10170 20150 39780 40186 51008 700// 872// 91000=
07181,1999-08-11 11:00:00,17,1018.8,0.4,94,16,15000,11.112,,,240,,,,,,,,,,0,wg-a,,,,AAXX 11114 07181 32465 82406 10170 20160 39781 40188 51004 700// 878// 91100=
07181,1999-08-11 12:00:00,17,1019,0.3,94,16,7000,14.816,,,340,,,,0,,,,,,61,wg-a,,,,AAXX 11124 07181 12257 83408 10170 20160 39783 40190 53003 60007 76162 872// 91200=
07181,1999-08-11 13:00:00,17,1019.3,0.6,94,16,9000,14.816,,,330,,,0,,,,,,,80,wg-a,,,,AAXX 11134 07181 12359 73308 10170 20160 39786 40193 53006 60005 78086 878// 91300=
07181,1999-08-11 14:00:00,18,1019,0.3,88,16,15000,14.816,,,360,,,,,,,,,,25,wg-a,,,,AAXX 11144 07181 02465 73608 10180 20160 39784 40190 50003 61000 72586 878// 91400 333 ////=
07181,1999-08-11 17:00:00,18,1019.1,0.1,83,15,20000,7.408,,,10,,,,,,,,,,0,wg-a,,,,AAXX 11174 07181 32570 70104 10180 20150 39785 40191 52001 700// 878// 91700=
07181,1999-08-11 21:00:00,14,1019.9,0.1,94,13,20000,0,,,0,,,,,,,,,,0,wg-a,,,,AAXX 11214 07181 32570 50000 10140 20130 39788 40199 50001 700// 82801 92100=
07181,1999-08-12 05:00:00,13,1018.2,-0.5,100,13,1500,3.704,,,10,,,,,,,,,,10,wg-a,,,,AAXX 12054 07181 32315 70102 10130 20130 39770 40182 56005 71042 876// 90500=
07181,1999-08-12 06:00:00,14,1018.4,0.1,100,14,1100,3.704,,,10,12.2,17.3,,,,,1,,,10,wg-a,,,,AAXX 12064 07181 12311 80102 10140 20140 39773 40184 53001 60014 71042 876// 90600 333 10173 20122=
07181,1999-08-12 07:00:00,14,1018.4,0.2,100,14,2200,7.408,,,60,,,,,,,,,,10,wg-a,,,,AAXX 12074 07181 32122 70604 10140 20140 39773 40184 53002 71022 877// 90700=
07181,1999-08-12 08:00:00,15,1018.2,0.2,88,13,6000,7.408,,,60,,,,,,,,,,10,wg-a,,,,AAXX 12084 07181 32456 70604 10150 20130 39772 40182 50002 710// 86808 90800=
07181,1999-08-12 09:00:00,16,1018,-0.1,82,13,9000,11.112,,,100,,,,,,,,,,0,wg-a,,,,AAXX 12094 07181 32459 71006 10160 20130 39772 40180 57001 700// 86808 90900=
07181,1999-08-12 10:00:00,16,1017.9,-0.2,82,13,10000,3.704,,,30,,,,,,,,,,0,wg-a,,,,AAXX 12104 07181 32460 70302 10160 20130 39771 40179 57002 700// 84808 91000=
07181,1999-08-12 11:00:00,17,1017.7,-0.1,77,13,11000,11.112,,,60,,,,,,,,,,0,wg-a,,,,AAXX 12114 07181 32461 80606 10170 20130 39771 40177 57001 700// 878// 91100=
07181,1999-08-12 12:00:00,18,1017.4,-0.4,73,13,11000,11.112,,,70,,,,,,,,,,0,wg-a,,,,AAXX 12124 07181 32561 70706 10180 20130 39768 40174 58004 700// 8583/ 91200=
07181,1999-08-12 13:00:00,17,1017.6,-0.2,77,13,11000,11.112,,,30,,,,,,,,,,0,wg-a,,,,AAXX 12134 07181 32561 70306 10170 20130 39769 40176 55002 700// 8683/ 91300=
07181,1999-08-12 14:00:00,17,1017.2,-0.6,72,12,22000,11.112,,,20,,,,,,,,,,,wg-a,,,,AAXX 12144 07181 32/72 /0206 10170 20120 39765 40172 58006 91400=
07181,1999-08-12 16:00:00,18,1016.6,-0.8,68,12,15000,11.112,,,30,,,,,,,,,,0,wg-a,,,,AAXX 12164 07181 32765 70306 10180 20120 39761 40166 56008 700// 8453/ 91600=
07181,1999-08-12 17:00:00,18,1016.8,-0.3,64,11,15000,7.408,,,10,,,,,,,,,,0,wg-a,,,,AAXX 12174 07181 32765 70104 10180 20110 39762 40168 55003 700// 8553/ 91700=
07181,1999-08-12 18:00:00,17,1016.7,0,68,11,15000,7.408,,,10,13.6,18,,,,,,,,0,wg-a,,,,AAXX 12184 07181 32765 70104 10170 20110 39761 40167 50000 700// 8353/ 91800 333 10180 20136=
07181,1999-08-12 20:00:00,16,1017.7,0.7,77,12,12000,7.408,,,330,,,,,,,,,,0,wg-a,,,,AAXX 12204 07181 32762 63304 10160 20120 39769 40177 53007 700// 81531 92000=
07181,1999-08-12 21:00:00,14,1018,0.8,82,11,12000,7.408,,,360,,,,,,,,,,0,wg-a,,,,AAXX 12214 07181 32/62 43604 10140 20110 39769 40180 51008 700// 82031 92100=
07181,1999-08-12 22:00:00,13,1018.1,0.6,88,11,12000,7.408,,,320,,,,,,,,,,0,wg-a,,,,AAXX 12224 07181 32762 33204 10130 20110 39769 40181 51006 700// 81530 92200=
07181,1999-08-12 23:00:00,13,1018.2,-0,88,11,12000,3.704,,,350,,,,,,,,,,0,wg-a,,,,AAXX 12234 07181 32762 33502 10130 20110 39769 40182 54000 700// 83500 92300=
07181,1999-08-13 00:00:00,13,1018.1,-0.1,88,11,14000,7.408,,,350,,,,,,,,,,,wg-a,,,,AAXX 13004 07181 32/64 /3504 10130 20110 39768 40181 58001 90000=
07181,1999-08-13 01:00:00,13,1017.9,-0.3,88,11,12000,3.704,,,310,,,,,,,,,,0,wg-a,,,,AAXX 13014 07181 32762 33102 10130 20110 39766 40179 58003 700// 83500 90100=
07181,1999-08-13 02:00:00,12,1017.9,-0.4,94,11,12000,0,,,0,,,,,,,,,,0,wg-a,,,,AAXX 13024 07181 32762 30000 10120 20110 39765 40179 57004 700// 83500 90200=
07181,1999-08-13 04:00:00,10,1018,-0.3,100,10,7000,3.704,,,20,,,,,,,,,,0,wg-a,,,,AAXX 13044 07181 32/57 30202 10100 20100 39763 40180 55003 700// 80001 90400=
07181,1999-08-13 05:00:00,10,1018.1,-0.1,100,10,6000,3.704,,,360,,,,,,,,,,0,wg-a,,,,AAXX 13054 07181 32/56 /3602 10100 20100 39764 40181 55001 700// 80001 90500=
07181,1999-08-13 06:00:00,11,1018,0.2,94,10,6000,0,,,0,9.9,17.4,,,,,,,,0,wg-a,,,,AAXX 13064 07181 12/56 /0000 10110 20100 39764 40180 51002 60004 700// 80001 90600 333 10174 20099=
07181,1999-08-13 07:00:00,12,1018.1,0.4,94,11,6000,7.408,,,320,,,,,,,,,,0,wg-a,,,,AAXX 13074 07181 32/56 /3204 10120 20110 39767 40181 53004 700// 80002 90700=
07181,1999-08-13 08:00:00,15,1017.5,0.1,82,12,10000,0,,,0,,,,,,,,,,0,wg-a,,,,AAXX 13084 07181 32/60 /0000 10150 20120 39765 40175 50001 700// 80002 90800=
07181,1999-08-13 09:00:00,17,1017.2,0.2,72,12,13000,3.704,,,310,,,,,,,,,,0,wg-a,,,,AAXX 13094 07181 32563 33102 10170 20120 39766 40172 51002 700// 81201 90900=
07181,1999-08-13 10:00:00,19,1016.9,-0.2,60,11,15000,3.704,,,290,,,,,,,,,,0,wg-a,,,,AAXX 13104 07181 32565 32902 10190 20110 39765 40169 56002 700// 82201 91000=
07181,1999-08-13 11:00:00,20,1016.5,-0.3,49,9,17000,11.112,,,320,,,,,,,,,,0,wg-a,,,,AAXX 13114 07181 32667 53206 10200 20090 39762 40165 58003 700// 83202 91100=
07181,1999-08-13 12:00:00,20,1016.2,-0.7,49,9,20000,3.704,,,240,,,,,,,,,,0,wg-a,,,,AAXX 13124 07181 32670 42402 10200 20090 39759 40162 58007 700// 83202 91200=
07181,1999-08-13 13:00:00,21,1015.6,-1,46,9,20000,7.408,,,320,,,,,,,,,,0,wg-a,,,,AAXX 13134 07181 32670 53204 10210 20090 39755 40156 58010 700// 83232 91300=
07181,1999-08-13 14:00:00,21,1015.3,-1,46,9,20000,7.408,,,300,,,,,,,,,,0,wg-a,,,,AAXX 13144 07181 32670 /3004 10210 20090 39752 40153 57010 700// 8213/ 91400=
07181,1999-08-13 15:00:00,21,1015.1,-0.9,49,10,20000,11.112,,,280,,,,,,,,,,0,wg-a,,,,AAXX 13154 07181 32670 52806 10210 20100 39750 40151 56009 700// 83130 91500=
07181,1999-08-13 16:00:00,21,1014.5,-1.1,49,10,20000,3.704,,,290,,,,,,,,,,0,wg-a,,,,AAXX 13164 07181 32670 32902 10210 20100 39744 40145 58011 700// 82130 91600=
07181,1999-08-13 17:00:00,20,1014.3,-1,53,10,20000,7.408,,,290,,,,,,,,,,0,wg-a,,,,AAXX 13174 07181 32770 52904 10200 20100 39742 40143 57010 700// 81131 91700=
07181,1999-08-13 18:00:00,20,1014.1,-1.1,53,10,20000,3.704,,,290,10.8,21.4,,,,,,,,0,wg-a,,,,AAXX 13184 07181 32770 42902 10200 20100 39739 40141 56011 700// 81131 91800 333 10214 20108=
07181,1999-08-13 19:00:00,17,1014.5,-0.5,72,12,20000,3.704,,,140,,,,,,,,,,0,wg-a,,,,AAXX 13194 07181 32770 41402 10170 20120 39739 40145 56005 700// 81131 91900=
07181,1999-08-13 20:00:00,15,1014.9,-0.2,82,12,15000,3.704,,,150,,,,,,,,,,0,wg-a,,,,AAXX 13204 07181 32/65 31502 10150 20120 39740 40149 55002 700// 81031 92000=
07181,1999-08-13 21:00:00,14,1015,0.1,82,11,13000,7.408,,,150,,,,,,,,,,0,wg-a,,,,AAXX 13214 07181 32/63 21504 10140 20110 39740 40150 52001 700// 80001 92100=
07181,1999-08-13 22:00:00,14,1014.5,-0.4,77,10,13000,11.112,,,150,,,,,,,,,,0,wg-a,,,,AAXX 13224 07181 32/63 01506 10140 20100 39735 40145 58004 700// 80000 92200=
07181,1999-08-13 23:00:00,13,1014.3,-0.8,82,10,13000,11.112,,,150,,,,,,,,,,0,wg-a,,,,AAXX 13234 07181 32/63 11506 10130 20100 39732 40143 58008 700// 80001 92300=
07181,1999-08-14 00:00:00,13,1013.7,-1.4,82,10,13000,7.408,,,200,,,,,,,,,,0,wg-a,,,,AAXX 14004 07181 32/63 32004 10130 20100 39726 40137 58014 700// 80001 90000=
07181,1999-08-14 01:00:00,13,1012.9,-1.6,82,10,13000,3.704,,,150,,,,,,,,,,0,wg-a,,,,AAXX 14014 07181 32/63 51502 10130 20100 39719 40129 58016 700// 83031 90100=
07181,1999-08-14 02:00:00,13,1012.3,-1.9,82,10,10000,7.408,,,160,,,,,,,,,,0,wg-a,,,,AAXX 14024 07181 32/60 61604 10130 20100 39713 40123 57019 700// 83032 90200=
07181,1999-08-14 03:00:00,14,1011.7,-1.8,82,11,13000,7.408,,,160,,,,,,,,,,0,wg-a,,,,AAXX 14034 07181 32/63 61604 10140 20110 39708 40117 56018 700// 85032 90300=
07181,1999-08-14 04:00:00,16,1011,-1.5,68,10,13000,14.816,,,190,,,,,,,,,,0,wg-a,,,,AAXX 14044 07181 32/63 71908 10160 20100 39704 40110 56015 700// 85032 90400=
07181,1999-08-14 05:00:00,16,1010.7,-1.2,68,10,15000,18.52,,,190,,,,,,,,,,0,wg-a,,,,AAXX 14054 07181 32865 71910 10160 20100 39701 40107 56012 700// 8353/ 90500=
07181,1999-08-14 06:00:00,16,1010.5,-0.9,72,11,17000,18.52,,,200,12.8,19.9,,,,,,,,0,wg-a,,,,AAXX 14064 07181 12767 72010 10160 20110 39699 40105 56009 60004 700// 8357/ 90600 333 10199 20128=
07181,1999-08-14 07:00:00,16,1010.2,-0.7,72,11,20000,22.224,,,210,,,,,,,,,,,wg-a,,,,AAXX 14074 07181 32/70 /2112 10160 20110 39697 40102 56007 90700=
07181,1999-08-14 08:00:00,17,1010.1,-0.4,72,12,20000,22.224,,,210,,,,,,,,,,0,wg-a,,,,AAXX 14084 07181 32570 82112 10170 20120 39697 40101 56004 700// 8587/ 90800=
07181,1999-08-14 10:00:00,20,1009.3,-0.4,68,14,20000,31.484,,,240,,,,,,,,,,0,wg-a,,,,AAXX 14104 07181 32570 72417 10200 20140 39693 40093 58004 700// 8583/ 91000=
07181,1999-08-14 12:00:00,19,1008.7,-0.9,78,15,25000,29.632,,,230,,,,,,,,,,25,wg-a,,,,AAXX 14124 07181 32575 82316 10190 20150 39687 40087 56009 72522 878// 91200=
07181,1999-08-14 13:00:00,18,1008.5,-0.9,77,14,15000,25.928,,,220,,,0,,,,,,,25,wg-a,,,,AAXX 14134 07181 12565 82214 10180 20140 39684 40085 56009 60005 72522 8687/ 91300=
07181,1999-08-14 14:00:00,18,1008.4,-0.7,83,15,15000,25.928,,,220,,,0,,,,,,,60,wg-a,,,,AAXX 14144 07181 12665 82214 10180 20150 39682 40084 57007 60005 76066 8687/ 91400=
07181,1999-08-14 16:00:00,17,1007.5,-1.1,88,15,15000,29.632,,,210,,,,,,,,,,60,wg-a,,,,AAXX 14164 07181 02665 82116 10170 20150 39673 40075 58011 61000 76066 8687/ 91600 333 ////=
07181,1999-08-14 17:00:00,17,1007,-1.4,88,15,8000,25.928,,,210,,,,,,,,,,60,wg-a,,,,AAXX 14174 07181 02458 82114 10170 20150 39668 40070 58014 61000 76066 868// 91700 333 ////=
07181,1999-08-14 18:00:00,16,1006.3,-1.9,94,15,12000,29.632,,,200,15.9,21.6,,0,,,,,,21,wg-a,,,,AAXX 14184 07181 12462 82016 10160 20150 39660 40063 58019 60007 72162 878// 91800 333 10216 20159=
07181,1999-08-14 19:00:00,17,1006.2,-1.3,94,16,12000,29.632,,,210,,,,,,,,,,0,wg-a,,,,AAXX 14194 07181 32462 82116 10170 20160 39660 40062 56013 700// 872// 91900=
07181,1999-08-14 20:00:00,16,1005.9,-1.1,100,16,12000,31.484,,,210,,,0,,,,,,,0,wg-a,,,,AAXX 14204 07181 12462 82117 10160 20160 39657 40059 56011 60005 700// 872// 92000=
07181,1999-08-14 21:00:00,16,1006,-0.2,100,16,3000,22.224,,,230,,,,1,,,,,,80,wg-a,,,,AAXX 14214 07181 12430 82312 10160 20160 39658 40060 55002 60017 78086 872// 92100=
07181,1999-08-14 22:00:00,15,1005.9,-0.6,94,14,12000,22.224,,,220,,,7,,,,,,,25,wg-a,,,,AAXX 14224 07181 12562 52212 10150 20140 39654 40059 58006 60075 72586 85800 92200=
07181,1999-08-14 23:00:00,14,1007.2,0.9,100,14,8000,18.52,,,260,,,4,,,,,,,80,wg-a,,,,AAXX 14234 07181 12458 72610 10140 20140 39666 40072 53009 60045 78086 878// 92300=
07181,1999-08-15 00:00:00,15,1007.4,1,94,14,12000,7.408,,,250,,,,11,,,,,,25,wg-a,,,,AAXX 15004 07181 12462 72504 10150 20140 39668 40074 53010 60117 72586 877// 90000=
07181,1999-08-15 01:00:00,15,1008,2,94,14,12000,14.816,,,280,,,,,,,,,,0,wg-a,,,,AAXX 15014 07181 32462 72808 10150 20140 39674 40080 51020 700// 877// 90100=
07181,1999-08-15 02:00:00,14,1008.9,1.6,94,13,20000,11.112,,,260,,,,,,,,,,0,wg-a,,,,AAXX 15024 07181 32670 72606 10140 20130 39682 40089 53016 700// 876// 90200=
07181,1999-08-15 03:00:00,14,1009.5,1.9,94,13,20000,11.112,,,260,,,,,,,,,,0,wg-a,,,,AAXX 15034 07181 32470 72606 10140 20130 39687 40095 51019 700// 875// 90300=
07181,1999-08-15 04:00:00,13,1010.2,1.9,94,12,15000,14.816,,,250,,,,,,,,,,0,wg-a,,,,AAXX 15044 07181 32465 72508 10130 20120 39693 40102 51019 700// 85802 90400=
07181,1999-08-15 05:00:00,13,1010.6,1.5,94,12,15000,18.52,,,260,,,,,,,,,,0,wg-a,,,,AAXX 15054 07181 32465 72610 10130 20120 39697 40106 51015 700// 84202 90500=
07181,1999-08-15 06:00:00,13,1011.2,1.6,94,12,15000,18.52,,,260,12.8,16.7,,,,,14,,,0,wg-a,,,,AAXX 15064 07181 12465 72610 10130 20120 39703 40112 52016 60144 700// 84202 90600 333 10167 20128=
07181,1999-08-15 07:00:00,14,1011.6,1.4,88,12,17000,22.224,,,260,,,,,,,,,,0,wg-a,,,,AAXX 15074 07181 32467 /2612 10140 20120 39707 40116 52014 700// 85201 90700=
07181,1999-08-15 08:00:00,15,1011.9,1.5,82,12,20000,25.928,,,260,,,,,,,,,,0,wg-a,,,,AAXX 15084 07181 32470 62614 10150 20120 39712 40119 51015 700// 84201 90800=
07181,1999-08-15 09:00:00,16,1012,1.2,77,12,20000,18.52,,,250,,,,,,,,,,0,wg-a,,,,AAXX 15094 07181 32570 /2510 10160 20120 39715 40120 51012 700// 83202 90900=
07181,1999-08-15 10:00:00,17,1012.1,0.9,68,11,20000,29.632,,,250,,,,,,,,,,0,wg-a,,,,AAXX 15104 07181 32570 /2516 10170 20110 39716 40121 51009 700// 85202 91000=
07181,1999-08-15 11:00:00,18,1012.2,0.6,59,10,20000,22.224,,,260,,,,,,,,,,0,wg-a,,,,AAXX 15114 07181 32670 /2612 10180 20100 39718 40122 51006 700// 85202 91100=
07181,1999-08-15 12:00:00,19,1011.9,0.1,56,10,25000,25.928,,,250,,,,,,,,,,0,wg-a,,,,AAXX 15124 07181 32675 /2514 10190 20100 39716 40119 50001 700// 83202 91200=
07181,1999-08-15 13:00:00,19,1011.8,-0.1,52,9,25000,22.224,,,260,,,,,,,,,,0,wg-a,,,,AAXX 15134 07181 32675 72612 10190 20090 39715 40118 58001 700// 85802 91300=
07181,1999-08-15 14:00:00,18,1011.8,-0.3,59,10,25000,18.52,,,260,,,,,,,,,,0,wg-a,,,,AAXX 15144 07181 32675 72610 10180 20100 39715 40118 56003 700// 878// 91400=
07181,1999-08-15 15:00:00,20,1011.2,-0.4,56,11,25000,18.52,,,250,,,,,,,,,,0,wg-a,,,,AAXX 15154 07181 32675 72510 10200 20110 39712 40112 58004 700// 85802 91500=
07181,1999-08-15 16:00:00,19,1011.4,-0.3,52,9,500,18.52,,,250,,,,,,,,,,0,wg-a,,,,AAXX 15164 07181 32600 72510 10190 20090 39712 40114 57003 700// 878// 91600=
07181,1999-08-15 17:00:00,18,1011.1,-0.7,59,10,500,14.816,,,240,,,,,,,,,,0,wg-a,,,,AAXX 15174 07181 32600 72408 10180 20100 39708 40111 58007 700// 878// 91700=
07181,1999-08-15 18:00:00,17,1011.3,-0.3,63,10,500,14.816,,,240,13.3,20.3,,,,,,,,0,wg-a,,,,AAXX 15184 07181 32600 72408 10170 20100 39709 40113 55003 700// 8583/ 91800 333 10203 20133=
07181,1999-08-15 19:00:00,17,1011.3,-0.4,68,11,500,11.112,,,200,,,,,,,,,,0,wg-a,,,,AAXX 15194 07181 32700 72006 10170 20110 39708 40113 56004 700// 8483/ 91900=
07181,1999-08-15 20:00:00,16,1011.7,0.3,72,11,25000,11.112,,,190,,,,,,,,,,0,wg-a,,,,AAXX 15204 07181 32875 71906 10160 20110 39711 40117 53003 700// 8353/ 92000=
07181,1999-08-15 21:00:00,15,1011.9,0.3,77,11,25000,14.816,,,210,,,,,,,,,,0,wg-a,,,,AAXX 15214 07181 32875 72108 10150 20110 39712 40119 53003 700// 8253/ 92100=
07181,1999-08-15 22:00:00,15,1012.3,0.7,77,11,25000,11.112,,,220,,,,,,,,,,0,wg-a,,,,AAXX 15224 07181 32775 72206 10150 20110 39715 40123 52007 700// 8113/ 92200=
07181,1999-08-15 23:00:00,14,1012.1,0.2,82,11,25000,7.408,,,230,,,,,,,,,,0,wg-a,,,,AAXX 15234 07181 32775 72304 10140 20110 39713 40121 50002 700// 8113/ 92300=
07181,1999-08-16 00:00:00,14,1012,-0.1,82,11,20000,7.408,,,230,,,,,,,,,,0,wg-a,,,,AAXX 16004 07181 32/70 72304 10140 20110 39711 40120 58001 700// 8707/ 90000=
07181,1999-08-16 01:00:00,14,1011.6,-0.8,88,12,20000,11.112,,,200,,,,,,,,,,0,wg-a,,,,AAXX 16014 07181 32/70 72006 10140 20120 39707 40116 58008 700// 8707/ 90100=
07181,1999-08-16 02:00:00,14,1011.3,-0.9,88,12,20000,11.112,,,180,,,,,,,,,,0,wg-a,,,,AAXX 16024 07181 32/70 71806 10140 20120 39704 40113 58009 700// 8707/ 90200=
07181,1999-08-16 04:00:00,13,1011.2,-0.4,94,12,17000,7.408,,,180,,,0,,,,,,,60,wg-a,,,,AAXX 16044 07181 12667 71804 10130 20120 39703 40112 55004 60005 76066 8557/ 90400=
07181,1999-08-16 05:00:00,13,1011.6,0.2,94,12,8000,7.408,,,200,,,0,,,,,,,60,wg-a,,,,AAXX 16054 07181 12558 82004 10130 20120 39706 40116 53002 60005 76066 8557/ 90500=
07181,1999-08-16 06:00:00,13,1011.2,0.1,100,13,12000,7.408,,,160,12.7,17.3,,1,,,1,,,60,wg-a,,,,AAXX 16064 07181 02162 81604 10130 20130 39702 40112 50001 60014 76062 8557/ 90600 333 10173 20127 60017=
07181,1999-08-16 07:00:00,13,1011,-0.3,100,13,15000,7.408,,,150,,,,,,,,,,21,wg-a,,,,AAXX 16074 07181 02165 71504 10130 20130 39700 40110 58003 61000 72162 875// 90700 333 ////=
07181,1999-08-16 08:00:00,13,1010.7,-0.8,100,13,18000,11.112,,,140,,,,,,,,,,0,wg-a,,,,AAXX 16084 07181 32268 71406 10130 20130 39698 40107 56008 700// 875// 90800=
07181,1999-08-16 09:00:00,14,1010.8,-0.2,100,14,20000,7.408,,,170,,,,,,,,,,1,wg-a,,,,AAXX 16094 07181 02270 71704 10140 20140 39700 40108 55002 61000 70162 875// 90900 333 ////=
07181,1999-08-16 10:00:00,15,1010.7,-0,94,14,20000,11.112,,,190,,,,,,,,,,0,wg-a,,,,AAXX 16104 07181 32370 71906 10150 20140 39700 40107 55000 700// 878// 91000=
07181,1999-08-16 11:00:00,15,1010,-0.4,94,14,20000,7.408,,,180,,,,,,,,,,0,wg-a,,,,AAXX 16114 07181 32470 71804 10150 20140 39694 40100 58004 700// 878// 91100=
07181,1999-08-16 12:00:00,16,1008.9,-1.5,88,14,20000,3.704,,,160,,,,,,,,,,3,wg-a,,,,AAXX 16124 07181 32470 71602 10160 20140 39685 40089 58015 70362 878// 91200=
07181,1999-08-16 13:00:00,16,1008.6,-1.8,94,15,20000,3.704,,,360,,,0,,,,,,,25,wg-a,,,,AAXX 16134 07181 12470 73602 10160 20150 39682 40086 56018 60005 72586 878// 91300=
07181,1999-08-16 14:00:00,16,1008.3,-1.5,94,15,20000,7.408,,,160,,,1,,,,,,,25,wg-a,,,,AAXX 16144 07181 12470 71604 10160 20150 39679 40083 56015 60015 72586 878// 91400=
07181,1999-08-16 15:00:00,17,1007.9,-0.9,88,15,20000,7.408,,,210,,,,1,,,,,,1,wg-a,,,,AAXX 16154 07181 12570 72104 10170 20150 39676 40079 57009 60017 70186 8483/ 91500=
07181,1999-08-16 16:00:00,15,1007.9,-0.9,94,14,3500,11.112,,,60,,,10,,,,,,,80,wg-a,,,,AAXX 16164 07181 12435 80606 10150 20140 39673 40079 57009 60105 78086 8633/ 91600=
07181,1999-08-16 17:00:00,15,1007.7,-0.8,94,14,25000,7.408,,,180,,,1,,,,,,,25,wg-a,,,,AAXX 16174 07181 12575 71804 10150 20140 39671 40077 56008 60015 72586 8583/ 91700=
07181,1999-08-16 18:00:00,15,1007.8,-0.3,94,14,25000,7.408,,,200,12.7,16.9,,11,,,,,,1,wg-a,,,,AAXX 16184 07181 12575 72004 10150 20140 39673 40078 55003 60117 70186 8483/ 91800 333 10169 20127=
07181,1999-08-16 19:00:00,14,1008.2,0.2,100,14,20000,7.408,,,200,,,,,,,,,,0,wg-a,,,,AAXX 16194 07181 32670 52004 10140 20140 39675 40082 53002 700// 84230 91900=
07181,1999-08-16 20:00:00,14,1008.3,0.5,100,14,20000,14.816,,,210,,,0,,,,,,,0,wg-a,,,,AAXX 16204 07181 12570 /2108 10140 20140 39676 40083 51005 60005 700// 83230 92000=
07181,1999-08-16 21:00:00,14,1008.9,0.9,94,13,20000,18.52,,,230,,,,0,,,,,,1,wg-a,,,,AAXX 16214 07181 12670 /2310 10140 20130 39682 40089 53009 60007 70186 83230 92100=
07181,1999-08-16 22:00:00,14,1009.9,1.6,94,13,2500,18.52,,,300,,,1,,,,,,,81,wg-a,,,,AAXX 16224 07181 12425 83010 10140 20130 39691 40099 53016 60015 78186 872// 92200=
07181,1999-08-16 23:00:00,13,1009.7,1.2,100,13,40000,14.816,,,230,,,,,,,,,,,wg-a,,,,AAXX 16234 07181 32/82 /2308 10130 20130 39688 40097 50012 92300=
07181,1999-08-17 00:00:00,13,1009.8,0.6,94,12,20000,14.816,,,230,,,,2,,,,,,2,wg-a,,,,AAXX 17004 07181 12570 52308 10130 20120 39688 40098 51006 60027 70286 83830 90000=
07181,1999-08-17 01:00:00,13,1009.6,-0.4,100,13,26000,14.816,,,250,,,,,,,,,,,wg-a,,,,AAXX 17014 07181 32/76 /2508 10130 20130 39687 40096 56004 90100=
07181,1999-08-17 02:00:00,13,1009.7,-0.1,94,12,20000,14.816,,,250,,,,,,,,,,0,wg-a,,,,AAXX 17024 07181 32770 62508 10130 20120 39687 40097 57001 700// 82530 90200=
07181,1999-08-17 05:00:00,12,1010.2,0.4,100,12,18000,3.704,,,120,,,,,,,,,,0,wg-a,,,,AAXX 17054 07181 32368 81202 10120 20120 39691 40102 53004 700// 82132 90500=
07181,1999-08-17 06:00:00,13,1010.4,0.8,94,12,18000,7.408,,,200,12,15.3,,,,,15,,,0,wg-a,,,,AAXX 17064 07181 12368 82004 10130 20120 39694 40104 53008 60154 700// 85132 90600 333 10153 20120=
07181,1999-08-17 07:00:00,13,1010.4,0.9,100,13,18000,7.408,,,230,,,,,,,,,,0,wg-a,,,,AAXX 17074 07181 32468 82304 10130 20130 39695 40104 51009 700// 8713/ 90700=
07181,1999-08-17 08:00:00,14,1010.9,1,94,13,20000,14.816,,,240,,,,,,,,,,0,wg-a,,,,AAXX 17084 07181 32370 82408 10140 20130 39701 40109 53010 700// 8613/ 90800=
07181,1999-08-17 09:00:00,15,1011,0.9,94,14,20000,11.112,,,250,,,,,,,,,,0,wg-a,,,,AAXX 17094 07181 32470 82506 10150 20140 39703 40110 53009 700// 8617/ 90900=
07181,1999-08-17 10:00:00,16,1010.8,0.8,82,13,25000,14.816,,,240,,,,,,,,,,0,wg-a,,,,AAXX 17104 07181 32475 82408 10160 20130 39703 40108 51008 700// 872// 91000=
07181,1999-08-17 11:00:00,16,1010.7,0.1,77,12,25000,14.816,,,260,,,,,,,,,,0,wg-a,,,,AAXX 17114 07181 32475 82608 10160 20120 39702 40107 50001 700// 878// 91100=
07181,1999-08-17 12:00:00,17,1010.2,-0.4,72,12,25000,14.816,,,240,,,,,,,,,,0,wg-a,,,,AAXX 17124 07181 32575 82408 10170 20120 39699 40102 58004 700// 878// 91200=
07181,1999-08-17 13:00:00,18,1010,-0.5,68,12,25000,14.816,,,240,,,,,,,,,,0,wg-a,,,,AAXX 17134 07181 32575 72408 10180 20120 39698 40100 57005 700// 85831 91300=
07181,1999-08-17 14:00:00,18,1009.9,-0.5,68,12,25000,18.52,,,250,,,,,,,,,,0,wg-a,,,,AAXX 17144 07181 32575 72510 10180 20120 39697 40099 56005 700// 86831 91400=
07181,1999-08-17 15:00:00,18,1009.7,-0.4,59,10,25000,18.52,,,250,,,,,,,,,,0,wg-a,,,,AAXX 17154 07181 32575 72510 10180 20100 39695 40097 58004 700// 83831 91500=
07181,1999-08-17 16:00:00,18,1009.4,-0.6,59,10,25000,14.816,,,260,,,,,,,,,,0,wg-a,,,,AAXX 17164 07181 32575 82608 10180 20100 39692 40094 58006 700// 8287/ 91600=
07181,1999-08-17 17:00:00,18,1009.3,-0.7,59,10,25000,7.408,,,280,,,,,,,,,,0,wg-a,,,,AAXX 17174 07181 32575 82804 10180 20100 39690 40093 57007 700// 8287/ 91700=
07181,1999-08-17 18:00:00,17,1009.4,-0.5,68,11,25000,3.704,,,300,12.6,19.1,,,,,,,,0,wg-a,,,,AAXX 17184 07181 32575 73002 10170 20110 39690 40094 56005 700// 81131 91800 333 10191 20126=
07181,1999-08-17 19:00:00,15,1009.5,-0.3,88,13,25000,3.704,,,90,,,,,,,,,,0,wg-a,,,,AAXX 17194 07181 32675 80902 10150 20130 39689 40095 56003 700// 81131 91900=
07181,1999-08-17 20:00:00,14,1009.8,-0,88,12,20000,7.408,,,130,,,,,,,,,,0,wg-a,,,,AAXX 17204 07181 32/70 81304 10140 20120 39690 40098 55000 700// 85031 92000=
07181,1999-08-17 21:00:00,13,1009.2,-0.7,88,11,20000,11.112,,,160,,,,,,,,,,0,wg-a,,,,AAXX 17214 07181 32/70 81606 10130 20110 39683 40092 58007 700// 85031 92100=
07181,1999-08-17 22:00:00,13,1008.8,-0.9,94,12,20000,11.112,,,150,,,,,,,,,,0,wg-a,,,,AAXX 17224 07181 32/70 81506 10130 20120 39680 40088 58009 700// 85031 92200=
07181,1999-08-17 23:00:00,13,1008.5,-1.3,88,11,20000,11.112,,,150,,,,,,,,,,0,wg-a,,,,AAXX 17234 07181 32/70 71506 10130 20110 39677 40085 56013 700// 84031 92300=
07181,1999-08-18 00:00:00,13,1007.9,-1.2,94,12,20000,7.408,,,160,,,,,,,,,,0,wg-a,,,,AAXX 18004 07181 32/70 71604 10130 20120 39671 40079 58012 700// 84031 90000=
07181,1999-08-18 01:00:00,13,1007.2,-1.6,88,11,20000,11.112,,,150,,,,,,,,,,0,wg-a,,,,AAXX 18014 07181 32/70 71506 10130 20110 39664 40072 58016 700// 84031 90100=
07181,1999-08-18 02:00:00,13,1006.8,-1.7,88,11,20000,14.816,,,150,,,,,,,,,,0,wg-a,,,,AAXX 18024 07181 32770 71508 10130 20110 39660 40068 56017 700// 84531 90200=
07181,1999-08-18 03:00:00,14,1006.4,-1.4,82,11,20000,11.112,,,170,,,,,,,,,,0,wg-a,,,,AAXX 18034 07181 32770 71706 10140 20110 39657 40064 56014 700// 84531 90300=
07181,1999-08-18 04:00:00,14,1006.1,-0.9,77,10,20000,18.52,,,190,,,,,,,,,,0,wg-a,,,,AAXX 18044 07181 32670 71910 10140 20100 39655 40061 56009 700// 84531 90400=
07181,1999-08-18 05:00:00,14,1006,-0.7,82,11,25000,11.112,,,160,,,,,,,,,,0,wg-a,,,,AAXX 18054 07181 32575 71606 10140 20110 39653 40060 56007 700// 86801 90500=
07181,1999-08-18 06:00:00,14,1005.8,-0.5,88,12,25000,14.816,,,170,12.8,16.9,,,,,,,,0,wg-a,,,,AAXX 18064 07181 12575 71708 10140 20120 39652 40058 56005 60004 700// 84831 90600 333 10169 20128=
07181,1999-08-18 07:00:00,16,1005.6,-0.3,82,13,25000,18.52,,,190,,,,,,,,,,0,wg-a,,,,AAXX 18074 07181 32575 61910 10160 20130 39652 40056 56003 700// 83830 90700=
07181,1999-08-18 08:00:00,18,1004.8,-0.5,73,13,20000,29.632,,,200,,,,,,,,,,0,wg-a,,,,AAXX 18084 07181 32570 72016 10180 20130 39648 40048 58005 700// 8583/ 90800=
07181,1999-08-18 09:00:00,18,1004.9,-0.3,77,14,20000,25.928,,,220,,,,,,,,,,21,wg-a,,,,AAXX 18094 07181 02570 72214 10180 20140 39649 40049 55003 61000 72162 878// 90900 333 ////=
07181,1999-08-18 10:00:00,18,1005.2,-0,83,15,12000,25.928,,,240,,,0,,,,,,,60,wg-a,,,,AAXX 18104 07181 12562 72414 10180 20150 39652 40052 55000 60005 76062 8587/ 91000=
07181,1999-08-18 11:00:00,18,1004.8,0,83,15,20000,31.484,,,210,,,0,,,,,,,21,wg-a,,,,AAXX 18114 07181 12570 72117 10180 20150 39648 40048 50000 60005 72162 878// 91100=
07181,1999-08-18 12:00:00,20,1004.5,-0.1,73,15,20000,35.188,,,210,,,,1,,,,,,1,wg-a,,,,AAXX 18124 07181 12570 /2119 10200 20150 39648 40045 58001 60017 70162 84830 91200=
07181,1999-08-18 13:00:00,20,1004,-0.9,64,13,20000,38.892,,,220,,,,,,,,,,0,wg-a,,,,AAXX 18134 07181 32570 72221 10200 20130 39643 40040 58009 700// 8683/ 91300=
07181,1999-08-18 14:00:00,17,1004.5,-0.4,82,14,20000,22.224,,,220,,,0,,,,,,,25,wg-a,,,,AAXX 18144 07181 12570 72212 10170 20140 39644 40045 55004 60005 72586 8683/ 91400=
07181,1999-08-18 15:00:00,19,1003.8,-0.8,78,15,20000,35.188,,,220,,,,0,,,,,,25,wg-a,,,,AAXX 18154 07181 12570 /2219 10190 20150 39640 40038 56008 60007 72586 8423/ 91500=
07181,1999-08-18 16:00:00,20,1004,-0,68,14,17000,42.596,,62.968,230,,,,,,,,,,0,wg-a,,,,AAXX 18164 07181 32567 52323 10200 20140 39643 40040 55000 700// 85900 91600 333 91034=
07181,1999-08-18 17:00:00,19,1004.8,0.5,68,13,25000,25.928,,,230,,,,,,,,,,0,wg-a,,,,AAXX 18174 07181 32575 42314 10190 20130 39649 40048 53005 700// 84200 91700=
07181,1999-08-18 18:00:00,18,1005.5,1.5,73,13,25000,18.52,,,230,13.9,21.3,,,,,,,,1,wg-a,,,,AAXX 18184 07181 32575 42310 10180 20130 39655 40055 53015 70186 84200 91800 333 10213 20139=
07181,1999-08-18 19:00:00,17,1006.7,2.2,72,12,20000,22.224,,,220,,,,,,,,,,0,wg-a,,,,AAXX 18194 07181 32570 32212 10170 20120 39665 40067 53022 700// 83200 91900=
07181,1999-08-18 20:00:00,16,1008.1,2.8,77,12,20000,25.928,,,220,,,,,,,,,,0,wg-a,,,,AAXX 18204 07181 32570 /2214 10160 20120 39677 40081 53028 700// 81200 92000=
07181,1999-08-18 22:00:00,15,1009.8,2.7,77,11,20000,25.928,,,220,,,,,,,,,,0,wg-a,,,,AAXX 18224 07181 32570 /2214 10150 20110 39692 40098 51027 700// 81200 92200=
07181,1999-08-18 23:00:00,15,1010.6,2.1,72,10,60000,22.224,,,220,,,,,,,,,,,wg-a,,,,AAXX 18234 07181 32/86 /2212 10150 20100 39698 40106 52021 92300=
07181,1999-08-19 00:00:00,14,1011.1,1.9,82,11,20000,18.52,,,210,,,,,,,,,,0,wg-a,,,,AAXX 19004 07181 32770 12110 10140 20110 39702 40111 51019 700// 81500 90000=
07181,1999-08-19 01:00:00,13,1011.9,1.7,82,10,20000,18.52,,,210,,,,,,,,,,0,wg-a,,,,AAXX 19014 07181 32770 22110 10130 20100 39709 40119 53017 700// 81501 90100=
07181,1999-08-19 02:00:00,13,1012.5,1.6,82,10,20000,18.52,,,210,,,,,,,,,,0,wg-a,,,,AAXX 19024 07181 32770 22110 10130 20100 39714 40125 53016 700// 81501 90200=
07181,1999-08-19 03:00:00,13,1013,1.7,82,10,20000,22.224,,,210,,,,,,,,,,0,wg-a,,,,AAXX 19034 07181 32570 22112 10130 20100 39719 40130 51017 700// 82800 90300=
07181,1999-08-19 04:00:00,12,1013.4,1.3,88,10,20000,18.52,,,220,,,,,,,,,,0,wg-a,,,,AAXX 19044 07181 32670 32210 10120 20100 39722 40134 51013 700// 82501 90400=
07181,1999-08-19 07:00:00,14,1014.7,1.5,82,11,11000,29.632,,,220,,,,,,,,,,,wg-a,,,,AAXX 19074 07181 32/61 /2216 10140 20110 39737 40147 53015 90700=
07181,1999-08-19 08:00:00,15,1015.3,1.8,72,10,20000,29.632,,,220,,,,,,,,,,0,wg-a,,,,AAXX 19084 07181 32570 /2216 10150 20100 39744 40153 53018 700// 86500 90800=
07181,1999-08-19 09:00:00,16,1015.2,1.4,68,10,25000,29.632,,,220,,,,,,,,,,0,wg-a,,,,AAXX 19094 07181 32575 /2216 10160 20100 39745 40152 51014 700// 86200 90900=
07181,1999-08-19 10:00:00,18,1015.2,1,59,10,500,29.632,,,230,,,,,,,,,,0,wg-a,,,,AAXX 19104 07181 32600 /2316 10180 20100 39747 40152 51010 700// 85202 91000=
07181,1999-08-19 11:00:00,18,1015.4,0.5,59,10,500,22.224,,,250,,,,,,,,,,0,wg-a,,,,AAXX 19114 07181 32600 /2512 10180 20100 39749 40154 53005 700// 85202 91100=
07181,1999-08-19 12:00:00,19,1015.3,0.4,52,9,500,29.632,,,240,,,,,,,,,,0,wg-a,,,,AAXX 19124 07181 32600 /2416 10190 20090 39749 40153 51004 700// 85202 91200=
07181,1999-08-19 13:00:00,20,1015.3,0.3,49,9,19000,31.484,,,230,,,,,,,,,,,wg-a,,,,AAXX 19134 07181 32/69 /2317 10200 20090 39750 40153 51003 91300=
07181,1999-08-19 14:00:00,19,1015.2,0,56,10,50000,22.224,,,250,,,,,,,,,,,wg-a,,,,AAXX 19144 07181 32/84 /2512 10190 20100 39749 40152 50000 91400=
07181,1999-08-19 15:00:00,20,1015.5,0.3,49,9,500,18.52,,,250,,,,,,,,,,0,wg-a,,,,AAXX 19154 07181 32700 52510 10200 20090 39752 40155 53003 700// 83230 91500=
07181,1999-08-19 16:00:00,19,1015.7,0.3,56,10,500,18.52,,,250,,,,,,,,,,0,wg-a,,,,AAXX 19164 07181 32700 52510 10190 20100 39753 40157 53003 700// 83230 91600=
07181,1999-08-19 17:00:00,19,1015.5,0.2,56,10,500,18.52,,,240,,,,,,,,,,0,wg-a,,,,AAXX 19174 07181 32700 42410 10190 20100 39751 40155 50002 700// 83230 91700=
07181,1999-08-19 18:00:00,18,1015.7,-0,59,10,500,18.52,,,240,12.8,20,,,,,,,,0,wg-a,,,,AAXX 19184 07181 32700 32410 10180 20100 39752 40157 54000 700// 83500 91800 333 10200 20128=
07181,1999-08-19 19:00:00,16,1016.3,0.2,68,10,60000,14.816,,,210,,,,,,,,,,,wg-a,,,,AAXX 19194 07181 32/86 /2108 10160 20100 39755 40163 53002 91900=
07181,1999-08-19 20:00:00,14,1017.2,1,77,10,500,11.112,,,220,,,,,,,,,,0,wg-a,,,,AAXX 19204 07181 32700 32206 10140 20100 39761 40172 53010 700// 82501 92000=
07181,1999-08-19 21:00:00,14,1017.7,1.4,77,10,500,18.52,,,200,,,,,,,,,,0,wg-a,,,,AAXX 19214 07181 32/00 32010 10140 20100 39766 40177 53014 700// 80001 92100=
07181,1999-08-19 22:00:00,14,1017.9,1.2,77,10,55000,14.816,,,200,,,,,,,,,,,wg-a,,,,AAXX 19224 07181 32/85 /2008 10140 20100 39767 40179 51012 92200=
07181,1999-08-19 23:00:00,13,1018,0.6,82,10,500,11.112,,,210,,,,,,,,,,0,wg-a,,,,AAXX 19234 07181 32/00 32106 10130 20100 39767 40180 51006 700// 80001 92300=
07181,1999-08-20 00:00:00,12,1018.2,0.2,82,9,500,11.112,,,210,,,,,,,,,,0,wg-a,,,,AAXX 20004 07181 32/00 32106 10120 20090 39768 40182 52002 700// 80001 90000=
07181,1999-08-20 01:00:00,12,1018.6,0.4,82,9,55000,11.112,,,220,,,,,,,,,,,wg-a,,,,AAXX 20014 07181 32/85 /2206 10120 20090 39771 40186 53004 90100=
07181,1999-08-20 02:00:00,12,1018.7,0.5,82,9,500,7.408,,,210,,,,,,,,,,0,wg-a,,,,AAXX 20024 07181 32/00 22104 10120 20090 39772 40187 52005 700// 80001 90200=
07181,1999-08-20 04:00:00,11,1019.6,0.8,87,9,500,11.112,,,190,,,,,,,,,,0,wg-a,,,,AAXX 20044 07181 32/00 41906 10110 20090 39779 40196 53008 700// 80001 90400=
07181,1999-08-20 05:00:00,11,1019.9,1,87,9,25000,11.112,,,200,,,,,,,,,,0,wg-a,,,,AAXX 20054 07181 32/75 12006 10110 20090 39782 40199 51010 700// 81031 90500=
07181,1999-08-20 06:00:00,12,1020,0.9,88,10,25000,7.408,,,240,10.5,18.1,,,,,,,,0,wg-a,,,,AAXX 20064 07181 12/75 12404 10120 20100 39785 40200 52009 60004 700// 81031 90600 333 10181 20105=
07181,1999-08-20 07:00:00,14,1020.2,1.1,82,11,25000,7.408,,,240,,,,,,,,,,0,wg-a,,,,AAXX 20074 07181 32/75 12404 10140 20110 39790 40202 53011 700// 81031 90700=
07181,1999-08-20 08:00:00,16,1020.1,0.9,72,11,500,7.408,,,280,,,,,,,,,,0,wg-a,,,,AAXX 20084 07181 32400 22804 10160 20110 39791 40201 51009 700// 81101 90800=
07181,1999-08-21 03:00:00,10,1022.2,-0.3,93,9,15000,0,,,0,,,,0,,,,,,0,wg-a,,,,AAXX 21034 07181 12/65 20000 10100 20090 39802 40222 58003 60007 700// 80001 90300=
07181,1999-08-21 04:00:00,10,1022.1,-0.3,93,9,8000,7.408,,,360,,,,,,,,,,0,wg-a,,,,AAXX 21044 07181 32/58 /3604 10100 20090 39802 40221 56003 700// 80001 90400=
07181,1999-08-21 05:00:00,9,1022.3,-0,100,9,8000,3.704,,,350,,,,,,,,,,0,wg-a,,,,AAXX 21054 07181 32758 /3502 10090 20090 39803 40223 55000 700// 81102 90500=
07181,1999-08-21 07:00:00,11,1022.4,0.5,100,11,500,7.408,,,10,,,,,,,,,,44,wg-a,,,,AAXX 21074 07181 32205 /0104 10110 20110 39807 40224 53005 74442 86600 90700=
07181,1999-08-21 08:00:00,14,1022.2,0.6,94,13,6000,7.408,,,360,,,,,,,,,,28,wg-a,,,,AAXX 21084 07181 32256 33604 10140 20130 39809 40222 53006 72841 82101 90800=
07181,1999-08-21 09:00:00,17,1022,0.7,77,13,11000,11.112,,,360,,,,,,,,,,1,wg-a,,,,AAXX 21094 07181 32461 33606 10170 20130 39811 40220 51007 70141 83100 90900=
07181,1999-08-21 10:00:00,17,1021.5,0,77,13,20000,14.816,,,30,,,,,,,,,,0,wg-a,,,,AAXX 21104 07181 32570 40308 10170 20130 39807 40215 50000 700// 84200 91000=
07181,1999-08-21 11:00:00,19,1021.1,-0.3,60,11,25000,11.112,,,30,,,,,,,,,,0,wg-a,,,,AAXX 21114 07181 32575 40306 10190 20110 39806 40211 58003 700// 84200 91100=
07181,1999-08-21 12:00:00,19,1021.1,-0.6,60,11,25000,11.112,,,40,,,,,,,,,,1,wg-a,,,,AAXX 21124 07181 32675 40406 10190 20110 39805 40211 56006 70141 84200 91200=
07181,1999-08-21 13:00:00,19,1020.7,-0.5,60,11,25000,14.816,,,60,,,,,,,,,,0,wg-a,,,,AAXX 21134 07181 32675 40608 10190 20110 39802 40207 58005 700// 84200 91300=
07181,1999-08-21 14:00:00,20,1020.4,-0.7,53,10,25000,11.112,,,30,,,,,,,,,,0,wg-a,,,,AAXX 21144 07181 32675 40306 10200 20100 39799 40204 58007 700// 84200 91400=
07181,1999-08-21 15:00:00,21,1019.7,-1.1,49,10,25000,14.816,,,40,,,,,,,,,,0,wg-a,,,,AAXX 21154 07181 32675 40408 10210 20100 39794 40197 58011 700// 84201 91500=
07181,1999-08-21 16:00:00,20,1019.8,-0.8,53,10,25000,11.112,,,50,,,,,,,,,,0,wg-a,,,,AAXX 21164 07181 32675 40506 10200 20100 39794 40198 56008 700// 83202 91600=
07181,1999-08-21 17:00:00,20,1019.5,-0.7,53,10,25000,11.112,,,30,,,,,,,,,,0,wg-a,,,,AAXX 21174 07181 32775 30306 10200 20100 39792 40195 56007 700// 82201 91700=
07181,1999-08-21 18:00:00,18,1019.8,-0.2,59,10,25000,7.408,,,30,9.8,21.1,,,,,,,,,wg-a,,,,AAXX 21184 07181 32775 30304 10180 20100 39792 40198 57002 81209 91800 333 10211 20098=
07181,1999-08-21 19:00:00,17,1020.2,-0.1,63,10,40000,7.408,,,30,,,,,,,,,,,wg-a,,,,AAXX 21194 07181 32/82 /0304 10170 20100 39793 40202 55001 91900=
07181,1999-08-21 20:00:00,15,1020.7,0.4,72,10,25000,11.112,,,40,,,,,,,,,,0,wg-a,,,,AAXX 21204 07181 32/75 20406 10150 20100 39796 40207 53004 700// 80002 92000=
07181,1999-08-21 21:00:00,14,1021.2,0.7,72,9,25000,7.408,,,40,,,,,,,,,,0,wg-a,,,,AAXX 21214 07181 32/75 20404 10140 20090 39799 40212 53007 700// 80002 92100=
07181,1999-08-21 22:00:00,14,1021.6,0.9,72,9,25000,14.816,,,30,,,,,,,,,,0,wg-a,,,,AAXX 21224 07181 32/75 20308 10140 20090 39802 40216 52009 700// 80002 92200=
07181,1999-08-21 23:00:00,13,1022,0.9,77,9,25000,7.408,,,50,,,,,,,,,,0,wg-a,,,,AAXX 21234 07181 32/75 10504 10130 20090 39805 40220 52009 700// 80002 92300=
07181,1999-08-22 00:00:00,13,1021.6,0.3,77,9,25000,14.816,,,80,,,,,,,,,,0,wg-a,,,,AAXX 22004 07181 32/75 10808 10130 20090 39802 40216 50003 700// 80002 90000=
07181,1999-08-22 01:00:00,12,1021.5,-0.3,76,8,45000,18.52,,,60,,,,,,,,,,,wg-a,,,,AAXX 22014 07181 32/83 /0610 10120 20080 39799 40215 58003 90100=
07181,1999-08-22 02:00:00,10,1021.7,-0.7,87,8,25000,3.704,,,310,,,,,,,,,,0,wg-a,,,,AAXX 22024 07181 32/75 13102 10100 20080 39798 40217 56007 700// 80002 90200=
07181,1999-08-22 04:00:00,8,1021.7,-0.4,100,8,20000,0,,,0,,,,,,,,,,0,wg-a,,,,AAXX 22044 07181 32/70 10000 10080 20080 39795 40217 57004 700// 80002 90400=
07181,1999-08-22 05:00:00,8,1021.9,-0.1,100,8,20000,7.408,,,10,,,,,,,,,,0,wg-a,,,,AAXX 22054 07181 32/70 20104 10080 20080 39797 40219 55001 700// 80002 90500=
07181,1999-08-22 06:00:00,10,1021.8,0.3,93,9,25000,0,,,0,7.9,18.4,,,,,,,,0,wg-a,,,,AAXX 22064 07181 12/75 30000 10100 20090 39799 40218 53003 60004 700// 80002 90600 333 10184 20079=
07181,1999-08-22 07:00:00,13,1021.2,0.3,77,9,25000,11.112,,,60,,,,,,,,,,0,wg-a,,,,AAXX 22074 07181 32/75 70606 10130 20090 39798 40212 50003 700// 80002 90700=
07181,1999-08-22 08:00:00,15,1020.9,0.1,67,9,25000,11.112,,,40,,,,,,,,,,0,wg-a,,,,AAXX 22084 07181 32/75 70406 10150 20090 39798 40209 51001 700// 80002 90800=
07181,1999-08-22 09:00:00,17,1020.6,-0.1,68,11,25000,18.52,,,50,,,,,,,,,,0,wg-a,,,,AAXX 22094 07181 32/75 70510 10170 20110 39798 40206 56001 700// 80002 90900=
07181,1999-08-22 10:00:00,19,1020,-0.4,52,9,25000,18.52,,,50,,,,,,,,,,0,wg-a,,,,AAXX 22104 07181 32/75 70510 10190 20090 39794 40200 58004 700// 80002 91000=
07181,1999-08-22 11:00:00,20,1019.5,-0.7,49,9,25000,18.52,,,60,,,,,,,,,,0,wg-a,,,,AAXX 22114 07181 32675 70610 10200 20090 39791 40195 58007 700// 81202 91100=
07181,1999-08-22 12:00:00,20,1019.5,-0.8,49,9,25000,18.52,,,70,,,,,,,,,,0,wg-a,,,,AAXX 22124 07181 32675 70710 10200 20090 39790 40195 56008 700// 81202 91200=
07181,1999-08-22 13:00:00,20,1019.1,-0.7,53,10,25000,18.52,,,60,,,,,,,,,,0,wg-a,,,,AAXX 22134 07181 32675 /0610 10200 20100 39787 40191 57007 700// 81202 91300=
07181,1999-08-22 14:00:00,20,1018.6,-0.8,49,9,25000,14.816,,,60,,,,,,,,,,0,wg-a,,,,AAXX 22144 07181 32/75 50608 10200 20090 39783 40186 58008 700// 80002 91400=
07181,1999-08-22 15:00:00,21,1018.3,-1,46,9,25000,14.816,,,60,,,,,,,,,,0,wg-a,,,,AAXX 22154 07181 32/75 50608 10210 20090 39780 40183 57010 700// 81032 91500=
07181,1999-08-22 17:00:00,20,1017.9,-0.8,53,10,25000,7.408,,,60,,,,,,,,,,0,wg-a,,,,AAXX 22174 07181 32/75 60604 10200 20100 39775 40179 57008 700// 82032 91700=
07181,1999-08-22 19:00:00,17,1018.3,-0.3,63,10,25000,7.408,,,80,,,,,,,,,,0,wg-a,,,,AAXX 22194 07181 32/75 70804 10170 20100 39775 40183 55003 700// 83032 91900=
07181,1999-08-22 20:00:00,15,1018.7,0.2,67,9,25000,7.408,,,70,,,,,,,,,,0,wg-a,,,,AAXX 22204 07181 32/75 70704 10150 20090 39777 40187 53002 700// 83032 92000=
07181,1999-08-22 21:00:00,15,1018.7,0.5,67,9,25000,7.408,,,70,,,,,,,,,,0,wg-a,,,,AAXX 22214 07181 32/75 50704 10150 20090 39776 40187 50005 700// 80002 92100=
07181,1999-08-22 22:00:00,13,1019.1,0.2,77,9,25000,3.704,,,20,,,,,,,,,,0,wg-a,,,,AAXX 22224 07181 32/75 30202 10130 20090 39777 40191 51002 700// 80002 92200=
07181,1999-08-22 23:00:00,14,1018.7,-0.2,72,9,25000,3.704,,,80,,,,,,,,,,0,wg-a,,,,AAXX 22234 07181 32/75 60802 10140 20090 39775 40187 58002 700// 86030 92300=
07181,1999-08-23 00:00:00,13,1018.5,-0.4,72,8,25000,7.408,,,60,,,,,,,,,,0,wg-a,,,,AAXX 23004 07181 32/75 60604 10130 20080 39772 40185 58004 700// 86030 90000=
07181,1999-08-23 01:00:00,12,1018.7,-0.4,76,8,25000,0,,,0,,,,,,,,,,0,wg-a,,,,AAXX 23014 07181 32/75 30000 10120 20080 39773 40187 55004 700// 80002 90100=
07181,1999-08-23 02:00:00,11,1018.6,-0.6,82,8,25000,3.704,,,100,,,,,,,,,,0,wg-a,,,,AAXX 23024 07181 32/75 31002 10110 20080 39769 40186 58006 700// 80002 90200=
07181,1999-08-23 03:00:00,10,1018.5,-0.4,87,8,25000,0,,,0,,,,,,,,,,0,wg-a,,,,AAXX 23034 07181 32/75 30000 10100 20080 39768 40185 58004 700// 80002 90300=
07181,1999-08-23 04:00:00,9,1018.6,-0.6,93,8,25000,3.704,,,50,,,,,,,,,,0,wg-a,,,,AAXX 23044 07181 32/75 70502 10090 20080 39767 40186 56006 700// 81032 90400=
07181,1999-08-23 05:00:00,9,1018.9,0.1,93,8,25000,3.704,,,180,,,,,,,,,,0,wg-a,,,,AAXX 23054 07181 32/75 71802 10090 20080 39770 40189 53001 700// 82032 90500=
07181,1999-08-23 06:00:00,10,1018.7,0.2,93,9,25000,0,,,0,8.7,18,,,,,,,,0,wg-a,,,,AAXX 23064 07181 12/75 70000 10100 20090 39770 40187 53002 60004 700// 82032 90600 333 10180 20087=
07181,1999-08-23 07:00:00,14,1018.2,0.3,72,9,25000,3.704,,,10,,,,,,,,,,0,wg-a,,,,AAXX 23074 07181 32/75 70102 10140 20090 39770 40182 51003 700// 82032 90700=
07181,1999-08-23 08:00:00,16,1018,0.1,63,9,25000,3.704,,,70,,,,,,,,,,0,wg-a,,,,AAXX 23084 07181 32/75 70702 10160 20090 39771 40180 53001 700// 81032 90800=
07181,1999-08-23 09:00:00,18,1017.7,0.1,64,11,25000,7.408,,,70,,,,,,,,,,0,wg-a,,,,AAXX 23094 07181 32/75 70704 10180 20110 39771 40177 52001 700// 81032 90900=
07181,1999-08-23 10:00:00,19,1017.7,0.3,60,11,25000,3.704,,,70,,,,,,,,,,0,wg-a,,,,AAXX 23104 07181 32/75 70702 10190 20110 39773 40177 53003 700// 82032 91000=
07181,1999-08-23 11:00:00,21,1017.1,-0.1,56,12,25000,7.408,,,90,,,,,,,,,,0,wg-a,,,,AAXX 23114 07181 32/75 70904 10210 20120 39770 40171 58001 700// 82032 91100=
07181,1999-08-23 12:00:00,22,1016.8,-0.2,57,13,25000,3.704,,,110,,,,,,,,,,0,wg-a,,,,AAXX 23124 07181 32675 71102 10220 20130 39769 40168 58002 700// 81132 91200=
07181,1999-08-23 13:00:00,22,1016.6,-0.6,53,12,25000,3.704,,,100,,,,,,,,,,0,wg-a,,,,AAXX 23134 07181 32675 71002 10220 20120 39767 40166 56006 700// 81132 91300=
07181,1999-08-23 14:00:00,23,1016.1,-0.7,53,13,25000,7.408,,,90,,,,,,,,,,0,wg-a,,,,AAXX 23144 07181 32775 70904 10230 20130 39763 40161 58007 700// 81132 91400=
07181,1999-08-23 15:00:00,23,1016.2,-0.5,50,12,25000,7.408,,,160,,,,,,,,,,0,wg-a,,,,AAXX 23154 07181 32775 71604 10230 20120 39764 40162 55005 700// 81132 91500=
07181,1999-08-23 16:00:00,23,1016,-0.5,50,12,25000,7.408,,,120,,,,,,,,,,0,wg-a,,,,AAXX 23164 07181 32/75 71204 10230 20120 39762 40160 56005 700// 83032 91600=
07181,1999-08-23 17:00:00,22,1015.9,-0.3,65,15,25000,7.408,,,60,,,,,,,,,,0,wg-a,,,,AAXX 23174 07181 32/75 70604 10220 20150 39760 40159 58003 700// 83032 91700=
07181,1999-08-23 18:00:00,21,1016,-0.4,64,14,25000,7.408,,,90,10.2,23.3,,,,,,,,0,wg-a,,,,AAXX 23184 07181 32/75 70904 10210 20140 39760 40160 56004 700// 83032 91800 333 10233 20102=
07181,1999-08-23 19:00:00,20,1016.6,0.1,68,14,25000,7.408,,,120,,,,,,,,,,0,wg-a,,,,AAXX 23194 07181 32/75 71204 10200 20140 39763 40166 53001 700// 83032 91900=
07181,1999-08-23 20:00:00,19,1017.1,0.7,68,13,25000,7.408,,,160,,,,,,,,,,0,wg-a,,,,AAXX 23204 07181 32/75 71604 10190 20130 39767 40171 53007 700// 83032 92000=
07181,1999-08-23 21:00:00,18,1017,0.5,73,13,25000,11.112,,,150,,,,,,,,,,0,wg-a,,,,AAXX 23214 07181 32/75 71506 10180 20130 39765 40170 50005 700// 83032 92100=
07181,1999-08-23 23:00:00,17,1016.8,-0.5,82,14,25000,3.704,,,100,,,,,,,,,,0,wg-a,,,,AAXX 23234 07181 32/75 71002 10170 20140 39762 40168 58005 700// 85032 92300=
07181,1999-08-24 00:00:00,17,1016.6,-0.6,82,14,25000,3.704,,,90,,,,,,,,,,0,wg-a,,,,AAXX 24004 07181 32/75 70902 10170 20140 39759 40166 58006 700// 85032 90000=
07181,1999-08-24 01:00:00,16,1016.7,-0.5,88,14,25000,11.112,,,160,,,,,,,,,,0,wg-a,,,,AAXX 24014 07181 32/75 71606 10160 20140 39760 40167 55005 700// 85032 90100=
07181,1999-08-24 03:00:00,17,1016.3,-0.2,82,14,25000,3.704,,,270,,,,,,,,,,0,wg-a,,,,AAXX 24034 07181 32775 72702 10170 20140 39757 40163 58002 700// 83532 90300=
07181,1999-08-24 05:00:00,16,1016.6,0.1,94,15,12000,7.408,,,150,,,,,,,,,,60,wg-a,,,,AAXX 24054 07181 02762 81504 10160 20150 39759 40166 53001 61000 76066 83532 90500 333 ////=
07181,1999-08-24 06:00:00,16,1016.7,0.3,94,15,12000,0,,,0,15.9,21.1,,0,,,,,,21,wg-a,,,,AAXX 24064 07181 02762 80000 10160 20150 39760 40167 53003 60004 72162 83572 90600 333 10211 20159 60007=
07181,1999-08-24 07:00:00,17,1016.7,0.6,88,15,15000,3.704,,,100,,,,,,,,,,0,wg-a,,,,AAXX 24074 07181 32765 81002 10170 20150 39761 40167 51006 700// 82572 90700=
07181,1999-08-24 08:00:00,18,1016.9,0.5,88,16,15000,3.704,,,100,,,,,,,,,,0,wg-a,,,,AAXX 24084 07181 32765 81002 10180 20160 39764 40169 53005 700// 82572 90800=
07181,1999-08-24 09:00:00,19,1017,0.7,83,16,15000,3.704,,,120,,,,,,,,,,0,wg-a,,,,AAXX 24094 07181 32765 71202 10190 20160 39767 40170 53007 700// 81572 90900=
07181,1999-08-24 10:00:00,21,1016.7,0.6,78,17,15000,7.408,,,150,,,,,,,,,,0,wg-a,,,,AAXX 24104 07181 32765 71504 10210 20170 39767 40167 51006 700// 81572 91000=
07181,1999-08-24 11:00:00,22,1016.3,0.1,73,17,18000,11.112,,,160,,,,,,,,,,0,wg-a,,,,AAXX 24114 07181 32568 71606 10220 20170 39765 40163 50001 700// 82872 91100=
07181,1999-08-24 12:00:00,23,1016.1,-0.3,69,17,20000,11.112,,,150,,,,,,,,,,0,wg-a,,,,AAXX 24124 07181 32570 71506 10230 20170 39764 40161 58003 700// 82872 91200=
07181,1999-08-24 13:00:00,24,1015.9,-0.4,61,16,20000,11.112,,,160,,,,,,,,,,0,wg-a,,,,AAXX 24134 07181 32670 71606 10240 20160 39763 40159 56004 700// 83872 91300=
07181,1999-08-24 14:00:00,25,1015.7,-0.3,57,16,20000,7.408,,,130,,,,,,,,,,0,wg-a,,,,AAXX 24144 07181 32670 71304 10250 20160 39762 40157 57003 700// 83872 91400=
07181,1999-08-24 19:00:00,21,1015.9,0.3,78,17,20000,7.408,,,100,,,,,,,,,,0,wg-a,,,,AAXX 24194 07181 32/70 21004 10210 20170 39759 40159 53003 700// 81031 91900=
07181,1999-08-24 20:00:00,20,1016.1,0.6,83,17,18000,7.408,,,130,,,,,,,,,,0,wg-a,,,,AAXX 24204 07181 32/68 21304 10200 20170 39760 40161 52006 700// 81031 92000=
07181,1999-08-24 21:00:00,20,1016.3,0.6,78,16,18000,7.408,,,100,,,,,,,,,,0,wg-a,,,,AAXX 24214 07181 32/68 21004 10200 20160 39761 40163 51006 700// 81031 92100=
07181,1999-08-24 23:00:00,19,1016.4,-0,88,17,18000,7.408,,,120,,,,,,,,,,0,wg-a,,,,AAXX 24234 07181 32/68 21204 10190 20170 39760 40164 54000 700// 81031 92300=
07181,1999-08-25 00:00:00,19,1015.7,-0.7,88,17,7000,11.112,,,110,,,,,,,,,,,wg-a,,,,AAXX 25004 07181 32/57 /1106 10190 20170 39754 40157 58007 90000=
07181,1999-08-25 01:00:00,18,1015.8,-0.6,94,17,12000,7.408,,,100,,,,,,,,,,0,wg-a,,,,AAXX 25014 07181 32/62 21004 10180 20170 39753 40158 58006 700// 81031 90100=
07181,1999-08-25 02:00:00,17,1015.7,-0.8,100,17,12000,0,,,0,,,,,,,,,,0,wg-a,,,,AAXX 25024 07181 32/62 20000 10170 20170 39752 40157 56008 700// 81031 90200=
07181,1999-08-25 04:00:00,16,1015.6,-0.4,100,16,4000,11.112,,,90,,,,,,,,,,10,wg-a,,,,AAXX 25044 07181 32/40 30906 10160 20160 39749 40156 58004 71000 80001 90400=
07181,1999-08-25 05:00:00,16,1015.9,-0,100,16,4000,7.408,,,100,,,,,,,,,,10,wg-a,,,,AAXX 25054 07181 32/40 41004 10160 20160 39752 40159 55000 71000 81031 90500=
07181,1999-08-25 06:00:00,17,1015.9,-0,94,16,4500,3.704,,,130,15.6,23.1,,,,,,,,10,wg-a,,,,AAXX 25064 07181 12745 /1302 10170 20160 39753 40159 55000 60004 71011 81531 90600 333 10231 20156=
07181,1999-08-25 07:00:00,19,1015.5,0.4,94,18,7000,7.408,,,100,,,,,,,,,,0,wg-a,,,,AAXX 25074 07181 32/57 /1004 10190 20180 39753 40155 51004 700// 82032 90700=
07181,1999-08-25 08:00:00,21,1015.7,0.5,88,19,8000,7.408,,,120,,,,,,,,,,0,wg-a,,,,AAXX 25084 07181 32/58 /1204 10210 20190 39757 40157 53005 700// 82032 90800=
07181,1999-08-25 09:00:00,23,1015.3,0.3,73,18,10000,7.408,,,120,,,,,,,,,,0,wg-a,,,,AAXX 25094 07181 32/60 /1204 10230 20180 39756 40153 50003 700// 82032 90900=
07181,1999-08-25 12:00:00,29,1014.2,-0.3,52,18,18000,14.816,,,200,,,,,,,,,,0,wg-a,,,,AAXX 25124 07181 32/68 42008 10290 20180 39753 40142 55003 700// 81032 91200=
07181,1999-08-25 13:00:00,29,1012.7,-1.1,52,18,20000,11.112,,,120,,,,,,,,,,0,wg-a,,,,AAXX 25134 07181 32770 61206 10290 20180 39738 40127 58011 700// 82532 91300=
07181,1999-08-25 14:00:00,29,1012.1,-1.2,55,19,20000,18.52,,,150,,,,,,,,,,0,wg-a,,,,AAXX 25144 07181 32770 41510 10290 20190 39733 40121 58012 700// 81582 91400=
07181,1999-08-25 15:00:00,30,1011.1,-2.9,52,19,20000,18.52,,,150,,,,,,,,,,0,wg-a,,,,AAXX 25154 07181 32770 21510 10300 20190 39724 40111 56029 700// 81501 91500=
07181,1999-08-25 16:00:00,29,1010.5,-2,55,19,20000,18.52,,,140,,,,,,,,,,0,wg-a,,,,AAXX 25164 07181 32/70 21410 10290 20190 39718 40105 58020 700// 81031 91600=
07181,1999-08-25 17:00:00,29,1010.7,-1.3,55,19,20000,18.52,,,180,,,,,,,,,,0,wg-a,,,,AAXX 25174 07181 32/70 21810 10290 20190 39720 40107 55013 700// 81031 91700=
07181,1999-08-25 18:00:00,27,1010.8,-0.5,66,20,17000,7.408,,,120,16.5,29.8,,,,,,,,,wg-a,,,,AAXX 25184 07181 32767 31204 10270 20200 39719 40108 56005 81531 91800 333 10298 20165=
07181,1999-08-25 19:00:00,25,1011.4,0.4,69,19,17000,11.112,,,150,,,,,,,,,,0,wg-a,,,,AAXX 25194 07181 32667 71506 10250 20190 39722 40114 53004 700// 83932 91900=
07181,1999-08-25 20:00:00,26,1011.4,0.2,65,19,17000,18.52,,,170,,,,,,,,,,13,wg-a,,,,AAXX 25204 07181 32667 71710 10260 20190 39722 40114 53002 71322 83932 92000=
07181,1999-08-25 22:00:00,25,1011.2,-0.4,54,15,15000,18.52,,,320,,,0,,,,,,,29,wg-a,,,,AAXX 25224 07181 12665 73210 10250 20150 39718 40112 58004 60005 72998 8393/ 92200=
07181,1999-08-26 14:00:00,20,1015.7,-0.6,94,19,25000,11.112,,,140,,,,,,,,,,0,wg-a,,,,AAXX 26144 07181 32375 71406 10200 20190 39757 40157 55006 700// 81132 91400=
07181,1999-08-26 15:00:00,21,1015.6,0.2,88,19,25000,11.112,,,140,,,,,,,,,,0,wg-a,,,,AAXX 26154 07181 32575 71406 10210 20190 39757 40156 53002 700// 84832 91500=
07181,1999-08-26 16:00:00,21,1015.4,0.1,88,19,25000,14.816,,,180,,,0,,,,,,,0,wg-a,,,,AAXX 26164 07181 12575 /1808 10210 20190 39755 40154 50001 60005 700// 84232 91600=
07181,1999-08-26 17:00:00,22,1015.1,-0.4,83,19,25000,14.816,,,180,,,,,,,,,,0,wg-a,,,,AAXX 26174 07181 32575 /1808 10220 20190 39753 40151 58004 700// 84832 91700=
07181,1999-08-26 18:00:00,21,1015.7,-0,88,19,20000,11.112,,,190,17.1,21.9,,0,,,,,,16,wg-a,,,,AAXX 26184 07181 12570 /1906 10210 20190 39757 40157 55000 60007 716// 85930 91800 333 10219 20171=
07181,1999-08-26 19:00:00,20,1016.6,1,94,19,25000,7.408,,,290,,,,,,,,,,,wg-a,,,,AAXX 26194 07181 32/75 /2904 10200 20190 39765 40166 53010 91900=
07181,1999-08-26 20:00:00,19,1016.9,1.3,88,17,15000,7.408,,,170,,,0,,,,,,,17,wg-a,,,,AAXX 26204 07181 12465 71704 10190 20170 39766 40169 51013 60005 71798 879// 92000=
07181,1999-08-26 21:00:00,19,1017,1,94,18,15000,11.112,,,190,,,,0,,,,,,1,wg-a,,,,AAXX 26214 07181 12565 /1906 10190 20180 39767 40170 51010 60007 70198 84280 92100=
07181,1999-08-26 22:00:00,18,1017.3,0.4,100,18,15000,7.408,,,160,,,,,,,,,,0,wg-a,,,,AAXX 26224 07181 32565 /1604 10180 20180 39769 40173 53004 700// 82280 92200=
07181,1999-08-26 23:00:00,18,1017.6,0.5,94,17,10000,7.408,,,220,,,,,,,,,,0,wg-a,,,,AAXX 26234 07181 32/60 42204 10180 20170 39771 40176 53005 700// 82081 92300=
07181,1999-08-27 00:00:00,17,1017.8,0.5,100,17,10000,3.704,,,170,,,,,,,,,,1,wg-a,,,,AAXX 27004 07181 32/60 41702 10170 20170 39772 40178 51005 70198 82081 90000=
07181,1999-08-27 01:00:00,17,1018,0.5,100,17,11000,11.112,,,190,,,,,,,,,,,wg-a,,,,AAXX 27014 07181 32/61 /1906 10170 20170 39774 40180 52005 90100=
07181,1999-08-27 02:00:00,17,1018,0.2,94,16,9000,7.408,,,180,,,,,,,,,,0,wg-a,,,,AAXX 27024 07181 32659 41804 10170 20160 39773 40180 50002 700// 82501 90200=
07181,1999-08-27 06:00:00,16,1018.7,0.5,100,16,6000,3.704,,,160,14.6,20.8,,,,,11,,,0,wg-a,,,,AAXX 27064 07181 12356 41602 10160 20160 39779 40187 53005 60114 700// 81131 90600 333 10208 20146=
07181,1999-08-27 07:00:00,17,1019,0.9,100,17,500,0,,,0,,,,,,,,,,0,wg-a,,,,AAXX 27074 07181 32200 50000 10170 20170 39784 40190 53009 700// 82731 90700=
07181,1999-08-27 08:00:00,18,1019.3,1.1,100,18,500,3.704,,,260,,,,,,,,,,0,wg-a,,,,AAXX 27084 07181 32200 /2602 10180 20180 39788 40193 53011 700// 82731 90800=
07181,1999-08-27 09:00:00,21,1018.8,0.8,88,19,7000,3.704,,,290,,,,,,,,,,0,wg-a,,,,AAXX 27094 07181 32257 52902 10210 20190 39787 40188 50008 700// 82731 90900=
07181,1999-08-27 10:00:00,21,1018.8,0.3,88,19,9000,3.704,,,50,,,,,,,,,,0,wg-a,,,,AAXX 27104 07181 32359 70502 10210 20190 39787 40188 51003 700// 84231 91000=
07181,1999-08-27 11:00:00,23,1018.2,-0.4,78,19,15000,3.704,,,150,,,,,,,,,,0,wg-a,,,,AAXX 27114 07181 32465 71502 10230 20190 39784 40182 58004 700// 84231 91100=
07181,1999-08-27 12:00:00,23,1018,-0.5,78,19,20000,11.112,,,360,,,,,,,,,,0,wg-a,,,,AAXX 27124 07181 32570 83606 10230 20190 39782 40180 58005 700// 85231 91200=
07181,1999-08-30 14:00:00,23,1016.5,-1.2,53,13,500,7.408,,,60,,,,,,,,,,0,wg-a,,,,AAXX 30144 07181 32600 50604 10230 20130 39767 40165 58012 700// 83101 91400=
07181,1999-08-30 15:00:00,23,1016.2,-1.2,53,13,500,7.408,,,50,,,,,,,,,,0,wg-a,,,,AAXX 30154 07181 32600 50504 10230 20130 39764 40162 56012 700// 83101 91500=
07181,1999-08-30 16:00:00,23,1016.1,-0.9,50,12,500,7.408,,,10,,,,,,,,,,0,wg-a,,,,AAXX 30164 07181 32700 50104 10230 20120 39763 40161 56009 700// 83101 91600=
07181,1999-08-30 17:00:00,23,1016.1,-0.5,50,12,500,3.704,,,20,,,,,,,,,,0,wg-a,,,,AAXX 30174 07181 32700 50202 10230 20120 39762 40161 56005 700// 83101 91700=
07181,1999-08-30 18:00:00,21,1016.2,-0.3,56,12,500,3.704,,,30,11.1,23.6,,,,,,,,0,wg-a,,,,AAXX 30184 07181 32700 50302 10210 20120 39761 40162 57003 700// 83401 91800 333 10236 20111=
07181,1999-08-30 19:00:00,18,1017,0.2,83,15,20000,0,,,0,,,,,,,,,,0,wg-a,,,,AAXX 30194 07181 32770 50000 10180 20150 39765 40170 53002 700// 83401 91900=
07181,1999-08-30 20:00:00,16,1017.7,0.7,88,14,20000,3.704,,,340,,,,,,,,,,0,wg-a,,,,AAXX 30204 07181 32770 43402 10160 20140 39769 40177 53007 700// 83501 92000=
07181,1999-08-30 21:00:00,16,1017.9,0.9,82,13,20000,3.704,,,220,,,,,,,,,,0,wg-a,,,,AAXX 30214 07181 32770 42202 10160 20130 39770 40179 51009 700// 83501 92100=
07181,1999-08-30 22:00:00,15,1017.8,0.4,88,13,20000,3.704,,,230,,,,,,,,,,0,wg-a,,,,AAXX 30224 07181 32770 32302 10150 20130 39769 40178 50004 700// 82501 92200=
07181,1999-08-30 23:00:00,15,1017.7,-0.2,82,12,15000,3.704,,,260,,,,,,,,,,0,wg-a,,,,AAXX 30234 07181 32765 32602 10150 20120 39767 40177 58002 700// 81501 92300=
07181,1999-08-31 00:00:00,14,1017.6,-0.5,88,12,15000,0,,,0,,,,,,,,,,0,wg-a,,,,AAXX 31004 07181 32765 30000 10140 20120 39765 40176 58005 700// 81501 90000=
07181,1999-08-31 01:00:00,13,1017.5,-0.6,94,12,15000,0,,,0,,,,,,,,,,0,wg-a,,,,AAXX 31014 07181 32765 30000 10130 20120 39763 40175 57006 700// 81501 90100=
07181,1999-08-31 02:00:00,13,1017.6,-0.4,94,12,12000,0,,,0,,,,,,,,,,0,wg-a,,,,AAXX 31024 07181 32/62 10000 10130 20120 39763 40176 56004 700// 80001 90200=
07181,1999-08-31 04:00:00,13,1017.7,0.1,94,12,500,3.704,,,340,,,,,,,,,,0,wg-a,,,,AAXX 31044 07181 32700 /3402 10130 20120 39764 40177 52001 700// 85500 90400=
07181,1999-08-31 05:00:00,13,1017.9,0.3,94,12,3000,3.704,,,360,,,,,,,,,,10,wg-a,,,,AAXX 31054 07181 32730 /3602 10130 20120 39766 40179 53003 71022 85501 90500=
07181,1999-08-31 06:00:00,13,1018.2,0.5,100,13,3000,3.704,,,360,12.1,20.8,,,,,,,,10,wg-a,,,,AAXX 31064 07181 12730 63602 10130 20130 39769 40182 53005 60004 71011 83501 90600 333 10208 20121=
07181,1999-08-31 07:00:00,14,1018.8,1.2,94,13,3000,7.408,,,360,,,,,,,,,,10,wg-a,,,,AAXX 31074 07181 32730 63604 10140 20130 39776 40188 53012 71022 84501 90700=
07181,1999-08-31 08:00:00,16,1018.7,1.2,88,14,4000,3.704,,,350,,,,,,,,,,10,wg-a,,,,AAXX 31084 07181 32740 /3502 10160 20140 39778 40187 51012 71022 84501 90800=
07181,1999-08-31 09:00:00,19,1018.2,0.9,78,15,6000,3.704,,,30,,,,,,,,,,0,wg-a,,,,AAXX 31094 07181 32756 50302 10190 20150 39778 40182 51009 700// 83502 90900=
07181,1999-08-31 10:00:00,20,1018.3,0.4,73,15,6000,7.408,,,350,,,,,,,,,,0,wg-a,,,,AAXX 31104 07181 32756 53504 10200 20150 39780 40183 52004 700// 82502 91000=
07181,1999-08-31 11:00:00,21,1018,0.1,69,15,8000,11.112,,,360,,,,,,,,,,0,wg-a,,,,AAXX 31114 07181 32558 53606 10210 20150 39779 40180 50001 700// 82102 91100=
07181,1999-08-31 12:00:00,21,1017.9,0,64,14,11000,11.112,,,320,,,,,,,,,,0,wg-a,,,,AAXX 31124 07181 32561 53206 10210 20140 39778 40179 50000 700// 83202 91200=
07181,1999-08-31 13:00:00,22,1017.5,-0.5,57,13,11000,11.112,,,320,,,,,,,,,,0,wg-a,,,,AAXX 31134 07181 32561 53206 10220 20130 39775 40175 58005 700// 82202 91300=
07181,1999-08-31 14:00:00,22,1017.3,-0.5,60,14,13000,14.816,,,330,,,,,,,,,,0,wg-a,,,,AAXX 31144 07181 32663 53308 10220 20140 39774 40173 57005 700// 83202 91400=
07181,1999-08-31 15:00:00,22,1017.3,-0.5,57,13,13000,11.112,,,10,,,,,,,,,,0,wg-a,,,,AAXX 31154 07181 32663 50106 10220 20130 39773 40173 56005 700// 83202 91500=
07181,1999-08-31 16:00:00,22,1017.3,-0.2,57,13,13000,11.112,,,360,,,,,,,,,,0,wg-a,,,,AAXX 31164 07181 32663 43606 10220 20130 39773 40173 56002 700// 81102 91600=
07181,1999-08-31 19:00:00,18,1018.5,0.6,64,11,15000,7.408,,,360,,,,,,,,,,0,wg-a,,,,AAXX 31194 07181 32/65 33604 10180 20110 39779 40185 53006 700// 80001 91900=
07181,1999-08-31 20:00:00,17,1019.3,1.2,77,13,15000,7.408,,,60,,,,,,,,,,0,wg-a,,,,AAXX 31204 07181 32/65 30604 10170 20130 39785 40193 53012 700// 80001 92000=
07181,1999-08-31 21:00:00,16,1019.8,1.2,77,12,15000,7.408,,,70,,,,,,,,,,0,wg-a,,,,AAXX 31214 07181 32/65 30704 10160 20120 39788 40198 52012 700// 80001 92100=
07181,1999-08-31 23:00:00,14,1020.5,0.8,82,11,15000,0,,,0,,,,,,,,,,0,wg-a,,,,AAXX 31234 07181 32/65 30000 10140 20110 39793 40205 52008 700// 80001 92300=
07181,1999-09-01 00:00:00,12.6,1006.4,1.4,96,12,,12,,,240,,,,0.2,,,,,,25,,,,7,
07181,1999-09-01 01:00:00,12.8,1006.9,1,94,11.9,,14,,,240,,,,,,,,,,,,,,7,
07181,1999-09-01 02:00:00,12.4,1007.6,1.3,90,10.8,,14,,,240,,,,,,,,,,,,,,7,
07181,1999-09-01 03:00:00,12.1,1008,1.4,89,10.3,24076,14,,,240,,,,,,,,,,,,,,7,
07181,1999-09-01 04:00:00,11.7,1008.4,1.2,90,10.1,24076,14,,,240,,,,,,,,,,,,,,7,
07181,1999-09-01 05:00:00,11.6,1008.7,0.9,91,10.2,24076,16,,,230,,,,,,,,,,,,,,8,
07181,1999-09-01 06:00:00,11.7,1009.8,1.7,89,9.9,24076,14,,,240,11.6,13.1,,,,,6.6,,11,,,,,8,
07181,1999-09-01 07:00:00,11.4,1010.8,2.3,95,10.6,,14,,,240,,,,,,,,,,58,,,,8,
07181,1999-09-01 08:00:00,12.1,1011.5,2.8,91,10.7,14816,14,,,230,,,,,,,,,,25,,,,8,
07181,1999-09-01 09:00:00,12.5,1012.2,2.4,89,10.7,,16,,,230,,,,,,,,,,1,,,,7,
07181,1999-09-01 10:00:00,14.3,1012,1.6,82,11.3,,16,,,240,,,,,,,,,,,,,,7,
07181,1999-09-01 11:00:00,13.8,1012.4,1.1,88,11.8,,12,,,250,,,0.2,,,,,,,25,,,,6,
07181,1999-09-01 12:00:00,14.9,1012.3,0.4,76,10.7,,16,53.708,,230,,,,0.2,,,,,,1,,,,7,
07181,1999-09-01 13:00:00,14.7,1012.1,0.1,79,11.1,,17,,,230,,,,,,,,,,,,,,6,
07181,1999-09-01 14:00:00,14.8,1012.1,-0.2,74,10.2,,16,,,230,,,,,,,,,,,,,,7,
07181,1999-09-01 15:00:00,14.6,1012,-0.3,76,10.4,,14,,,220,,,,,,,,,,,,,,7,
07181,1999-09-01 16:00:00,14.5,1011.9,-0.2,78,10.7,,14,,,210,,,,,,,,,,,,,,6,
07181,1999-09-01 17:00:00,13.9,1012,-0.2,78,10.1,,12,,,210,,,,,,,,,,,,,,5,
07181,1999-09-01 18:00:00,13.6,1012.2,-0,80,10.2,,10,,,200,11.4,16.4,,,,,,,,,,,,6,
07181,1999-09-01 19:00:00,17,1022.5,0.9,77,13,20000,7.408,,,60,,,,,,,,,,0,wg-a,,,,AAXX 01194 07181 32/70 40604 10170 20130 39816 40225 53009 700// 82032 91900=
07181,1999-09-01 20:00:00,13.1,1012.1,0,84,10.5,59264,14,,,210,,,,,,,,,,,,,,,
07181,1999-09-01 21:00:00,15,1023.1,1,82,12,20000,7.408,,,80,,,,,,,,,,0,wg-a,,,,AAXX 01214 07181 32/70 20804 10150 20120 39819 40231 51010 700// 80002 92100=
07181,1999-09-01 22:00:00,14,1023.1,0.2,88,12,20000,7.408,,,70,,,,,,,,,,0,wg-a,,,,AAXX 01224 07181 32/70 00704 10140 20120 39818 40231 50002 700// 80000 92200=
07181,1999-09-02 00:00:00,14,1022.7,-0.4,94,13,20000,7.408,,,90,,,,,,,,,,0,wg-a,,,,AAXX 02004 07181 32/70 00904 10140 20130 39815 40227 58004 700// 80000 90000=
07181,1999-09-02 04:00:00,13,1022.4,-0.7,94,12,9000,3.704,,,90,,,0,,,,,,,0,wg-a,,,,AAXX 02044 07181 12/59 20902 10130 20120 39809 40224 56007 60005 700// 80001 90400=
07181,1999-09-02 05:00:00,13,1022.1,-0.7,94,12,7000,7.408,,,70,,,,,,,,,,0,wg-a,,,,AAXX 02054 07181 32/57 20704 10130 20120 39806 40221 57007 700// 80001 90500=
07181,1999-09-02 06:00:00,13,1022.5,0.1,100,13,8000,7.408,,,30,12.6,18.9,,0,,,,,,0,wg-a,,,,AAXX 02064 07181 02/58 20304 10130 20130 39811 40225 53001 60004 700// 80001 90600 333 10189 20126 60007=
07181,1999-09-02 07:00:00,15,1023,0.9,82,12,8000,3.704,,,70,,,,,,,,,,0,wg-a,,,,AAXX 02074 07181 32/58 30702 10150 20120 39818 40230 53009 700// 82031 90700=
07181,1999-09-02 08:00:00,17,1023,1.6,77,13,15000,11.112,,,60,,,,,,,,,,0,wg-a,,,,AAXX 02084 07181 32/65 30606 10170 20130 39822 40230 51016 700// 81031 90800=
07181,1999-09-02 10:00:00,20,1022.3,-0.1,49,9,25000,18.52,,,50,,,,,,,,,,0,wg-a,,,,AAXX 02104 07181 32/75 20510 10200 20090 39817 40223 58001 700// 81031 91000=
07181,1999-09-02 11:00:00,20,1021.9,-0.8,46,8,500,18.52,,,70,,,,,,,,,,0,wg-a,,,,AAXX 02114 07181 32/00 20710 10200 20080 39814 40219 56008 700// 80001 91100=
07181,1999-09-02 12:00:00,21,1021.1,-1,46,9,500,25.928,,,50,,,,,,,,,,0,wg-a,,,,AAXX 02124 07181 32/00 30514 10210 20090 39808 40211 58010 700// 80001 91200=
07181,1999-09-02 13:00:00,21,1020.6,-1.4,43,8,500,22.224,,,60,,,,,,,,,,0,wg-a,,,,AAXX 02134 07181 32/00 50612 10210 20080 39803 40206 58014 700// 80001 91300=
07181,1999-09-02 14:00:00,21,1020.2,-1.5,40,7,500,22.224,,,60,,,,,,,,,,0,wg-a,,,,AAXX 02144 07181 32/00 50612 10210 20070 39799 40202 56015 700// 80001 91400=
07181,1999-09-02 15:00:00,21,1019.7,-1.4,40,7,500,18.52,,,60,,,,,,,,,,0,wg-a,,,,AAXX 02154 07181 32/00 50610 10210 20070 39794 40197 57014 700// 80001 91500=
07181,1999-09-02 16:00:00,21,1019.3,-1.3,46,9,500,18.52,,,50,,,,,,,,,,0,wg-a,,,,AAXX 02164 07181 32/00 50510 10210 20090 39790 40193 57013 700// 80001 91600=
07181,1999-09-02 17:00:00,20,1019.1,-1.2,49,9,500,18.52,,,60,,,,,,,,,,0,wg-a,,,,AAXX 02174 07181 32/00 50610 10200 20090 39787 40191 56012 700// 80001 91700=
07181,1999-09-02 18:00:00,19,1019.2,-0.7,46,7,500,11.112,,,70,13.5,21.4,,,,,,,,0,wg-a,,,,AAXX 02184 07181 32/00 50706 10190 20070 39787 40192 56007 700// 80001 91800 333 10214 20135=
07181,1999-09-02 19:00:00,18,1019.4,-0.3,52,8,500,14.816,,,70,,,,,,,,,,0,wg-a,,,,AAXX 02194 07181 32/00 20708 10180 20080 39787 40194 56003 700// 80001 91900=
07181,1999-09-02 23:00:00,14,1019.1,-0.9,67,8,500,11.112,,,70,,,,,,,,,,0,wg-a,,,,AAXX 02234 07181 32/00 10706 10140 20080 39779 40191 58009 700// 80001 92300=
07181,1999-09-03 00:00:00,15,1018.4,-1.3,63,8,500,14.816,,,70,,,,,,,,,,0,wg-a,,,,AAXX 03004 07181 32/00 10708 10150 20080 39773 40184 58013 700// 80001 90000=
07181,1999-09-03 01:00:00,14,1018.1,-1.3,67,8,500,14.816,,,70,,,,,,,,,,0,wg-a,,,,AAXX 03014 07181 32/00 10708 10140 20080 39769 40181 58013 700// 80001 90100=
07181,1999-09-03 02:00:00,14,1017.4,-1.7,67,8,500,11.112,,,60,,,,,,,,,,0,wg-a,,,,AAXX 03024 07181 32/00 10606 10140 20080 39762 40174 58017 700// 80001 90200=
07181,1999-09-03 04:00:00,12,1016.5,-1.8,82,9,15000,18.52,,,60,,,,,,,,,,0,wg-a,,,,AAXX 03044 07181 32/65 10610 10120 20090 39751 40165 57018 700// 80001 90400=
07181,1999-09-03 05:00:00,12,1016.5,-1,82,9,15000,22.224,,,60,,,,,,,,,,0,wg-a,,,,AAXX 03054 07181 32/65 10612 10120 20090 39752 40165 55010 700// 80001 90500=
07181,1999-09-03 06:00:00,13,1016.9,-0.2,82,10,15000,18.52,,,60,12,18.9,,,,,,,,0,wg-a,,,,AAXX 03064 07181 12/65 10610 10130 20100 39756 40169 55002 60004 700// 80001 90600 333 10189 20120=
07181,1999-09-03 07:00:00,14,1016.6,0.4,77,10,20000,25.928,,,70,,,,,,,,,,0,wg-a,,,,AAXX 03074 07181 32470 /0714 10140 20100 39755 40166 50004 700// 81101 90700=
07181,1999-09-03 08:00:00,15,1016.3,0.2,72,10,20000,25.928,,,70,,,,,,,,,,0,wg-a,,,,AAXX 03084 07181 32570 /0714 10150 20100 39754 40163 50002 700// 81101 90800=
07181,1999-09-03 10:00:00,18,1015.8,-0.2,64,11,20000,29.632,,,70,,,,,,,,,,0,wg-a,,,,AAXX 03104 07181 32570 /0716 10180 20110 39753 40158 56002 700// 81100 91000=
07181,1999-09-03 11:00:00,18,1015.8,-0.1,59,10,20000,25.928,,,80,,,,,,,,,,0,wg-a,,,,AAXX 03114 07181 32570 /0814 10180 20100 39753 40158 56001 700// 81100 91100=
07181,1999-09-03 13:00:00,20,1015.2,-0.3,53,10,20000,22.224,,,80,,,,,,,,,,0,wg-a,,,,AAXX 03134 07181 32670 /0812 10200 20100 39750 40152 58003 700// 81100 91300=
07181,1999-09-03 14:00:00,21,1014.7,-0.7,53,11,20000,22.224,,,80,,,,,,,,,,0,wg-a,,,,AAXX 03144 07181 32/70 /0812 10210 20110 39746 40147 58007 700// 80000 91400=
07181,1999-09-03 17:00:00,21,1014.6,-0,53,11,25000,11.112,,,70,,,,,,,,,,0,wg-a,,,,AAXX 03174 07181 32/75 10706 10210 20110 39746 40146 55000 700// 80001 91700=
07181,1999-09-03 18:00:00,20,1015,0.2,56,11,25000,11.112,,,80,12.9,21.3,,,,,,,,0,wg-a,,,,AAXX 03184 07181 32/75 10806 10200 20110 39748 40150 53002 700// 80001 91800 333 10213 20129=
07181,1999-09-03 19:00:00,19,1015.7,0.8,56,10,25000,14.816,,,80,,,,,,,,,,0,wg-a,,,,AAXX 03194 07181 32/75 10808 10190 20100 39753 40157 53008 700// 80001 91900=
07181,1999-09-03 20:00:00,18,1016.2,1,64,11,25000,7.408,,,90,,,,,,,,,,0,wg-a,,,,AAXX 03204 07181 32/75 10904 10180 20110 39756 40162 53010 700// 80001 92000=
07181,1999-09-03 22:00:00,15,1016.8,0.6,77,11,25000,7.408,,,60,,,,,,,,,,0,wg-a,,,,AAXX 03224 07181 32/75 10604 10150 20110 39759 40168 51006 700// 80001 92200=
07181,1999-09-03 23:00:00,14,1017.2,0.5,82,11,25000,3.704,,,90,,,,,,,,,,0,wg-a,,,,AAXX 03234 07181 32/75 10902 10140 20110 39761 40172 53005 700// 80001 92300=
07181,1999-09-04 00:00:00,13,1017.2,0.2,88,11,16000,0,,,0,,,,,,,,,,,wg-a,,,,AAXX 04004 07181 32/66 /0000 10130 20110 39759 40172 50002 90000=
07181,1999-09-04 02:00:00,11,1017.4,-0.2,94,10,20000,0,,,0,,,,,,,,,,0,wg-a,,,,AAXX 04024 07181 32/70 10000 10110 20100 39759 40174 56002 700// 80001 90200=
07181,1999-09-04 04:00:00,10,1017.7,0.1,93,9,12000,0,,,0,,,,,,,,,,0,wg-a,,,,AAXX 04044 07181 32/62 10000 10100 20090 39760 40177 53001 700// 80001 90400=
07181,1999-09-04 05:00:00,10,1018,0.4,100,10,9000,3.704,,,250,,,,,,,,,,0,wg-a,,,,AAXX 04054 07181 32/59 /2502 10100 20100 39763 40180 53004 700// 80001 90500=
07181,1999-09-04 06:00:00,11,1018.1,0.6,94,10,7000,0,,,0,9.6,19.6,,,,,,,,0,wg-a,,,,AAXX 04064 07181 12/57 /0000 10110 20100 39765 40181 53006 60004 700// 80001 90600 333 10196 20096=
07181,1999-09-04 07:00:00,13,1018.1,0.8,94,12,10000,0,,,0,,,,,,,,,,0,wg-a,,,,AAXX 04074 07181 32/60 20000 10130 20120 39768 40181 52008 700// 80001 90700=
07181,1999-09-04 08:00:00,16,1017.7,0.6,82,13,12000,3.704,,,80,,,,,,,,,,0,wg-a,,,,AAXX 04084 07181 32/62 30802 10160 20130 39769 40177 51006 700// 80001 90800=
07181,1999-09-04 09:00:00,18,1017.9,0.8,73,13,12000,11.112,,,60,,,,,,,,,,0,wg-a,,,,AAXX 04094 07181 32/62 50606 10180 20130 39773 40179 53008 700// 81031 90900=
07181,1999-09-04 10:00:00,19,1017.4,0.2,73,14,12000,3.704,,,70,,,,,,,,,,0,wg-a,,,,AAXX 04104 07181 32/62 60702 10190 20140 39770 40174 50002 700// 81031 91000=
07181,1999-09-04 12:00:00,21,1016.3,-1,69,15,15000,7.408,,,10,,,,,,,,,,0,wg-a,,,,AAXX 04124 07181 32/65 60104 10210 20150 39763 40163 56010 700// 82031 91200=
07181,1999-09-04 13:00:00,22,1015.9,-1,60,14,20000,7.408,,,40,,,,,,,,,,0,wg-a,,,,AAXX 04134 07181 32/70 60404 10220 20140 39760 40159 56010 700// 82031 91300=
07181,1999-09-04 14:00:00,23,1015.6,-0.6,57,14,20000,3.704,,,50,,,,,,,,,,0,wg-a,,,,AAXX 04144 07181 32/70 60502 10230 20140 39759 40156 56006 700// 83031 91400=
07181,1999-09-04 15:00:00,22,1015.7,-0.5,65,15,20000,7.408,,,80,,,,,,,,,,0,wg-a,,,,AAXX 04154 07181 32/70 70804 10220 20150 39758 40157 56005 700// 83031 91500=
07181,1999-09-04 16:00:00,23,1015.5,-0.3,57,14,20000,11.112,,,60,,,,,,,,,,0,wg-a,,,,AAXX 04164 07181 32/70 70606 10230 20140 39757 40155 57003 700// 84031 91600=
07181,1999-09-04 17:00:00,21,1015.7,-0.2,69,15,20000,3.704,,,70,,,,,,,,,,0,wg-a,,,,AAXX 04174 07181 32/70 70702 10210 20150 39757 40157 56002 700// 85031 91700=
07181,1999-09-04 18:00:00,20,1016,-0,73,15,20000,3.704,,,90,10.5,23.5,,,,,,,,0,wg-a,,,,AAXX 04184 07181 32/70 60902 10200 20150 39758 40160 55000 700// 83031 91800 333 10235 20105=
07181,1999-09-04 19:00:00,18,1016.5,0.3,83,15,15000,7.408,,,100,,,,,,,,,,0,wg-a,,,,AAXX 04194 07181 32/65 61004 10180 20150 39760 40165 53003 700// 82031 91900=
07181,1999-09-04 20:00:00,17,1016.7,0.4,88,15,15000,7.408,,,100,,,,,,,,,,0,wg-a,,,,AAXX 04204 07181 32/65 51004 10170 20150 39761 40167 52004 700// 81031 92000=
07181,1999-09-04 21:00:00,17,1016.8,0.3,82,14,15000,3.704,,,80,,,,,,,,,,0,wg-a,,,,AAXX 04214 07181 32/65 50802 10170 20140 39761 40168 51003 700// 81031 92100=
07181,1999-09-04 22:00:00,16,1016.6,-0.1,94,15,11000,0,,,0,,,,,,,,,,0,wg-a,,,,AAXX 04224 07181 32/61 50000 10160 20150 39759 40166 58001 700// 80001 92200=
07181,1999-09-04 23:00:00,16,1016.5,-0.4,88,14,7000,0,,,0,,,,,,,,,,,wg-a,,,,AAXX 04234 07181 32/57 /0000 10160 20140 39757 40165 58004 92300=
07181,1999-09-05 00:00:00,14,1016.5,-0.6,94,13,11000,3.704,,,130,,,,,,,,,,0,wg-a,,,,AAXX 05004 07181 32/61 31302 10140 20130 39755 40165 57006 700// 80001 90000=
07181,1999-09-05 01:00:00,14,1016.5,-0.5,94,13,8000,0,,,0,,,,,,,,,,,wg-a,,,,AAXX 05014 07181 32/58 /0000 10140 20130 39754 40165 56005 90100=
07181,1999-09-05 02:00:00,14,1016.1,-0.7,94,13,9000,3.704,,,200,,,,,,,,,,0,wg-a,,,,AAXX 05024 07181 32/59 /2002 10140 20130 39750 40161 58007 700// 80001 90200=
07181,1999-09-05 03:00:00,14,1016,-0.6,94,13,8000,3.704,,,210,,,,,,,,,,0,wg-a,,,,AAXX 05034 07181 32/58 /2102 10140 20130 39749 40160 57006 700// 80001 90300=
07181,1999-09-05 05:00:00,13,1015.9,-0.3,100,13,500,7.408,,,120,,,0,,,,,,,0,wg-a,,,,AAXX 05054 07181 12/00 51204 10130 20130 39747 40159 57003 60005 700// 82031 90500=
07181,1999-09-05 06:00:00,13,1016.1,0.1,100,13,500,11.112,,,140,12.6,19.9,,0,,,,,,0,wg-a,,,,AAXX 05064 07181 02/00 41406 10130 20130 39750 40161 53001 60004 700// 80001 90600 333 10199 20126 60007=
07181,1999-09-05 07:00:00,16,1016.1,0.5,94,15,500,7.408,,,140,,,,,,,,,,0,wg-a,,,,AAXX 05074 07181 32/00 41404 10160 20150 39753 40161 53005 700// 80001 90700=
07181,1999-09-05 09:00:00,21,1015.3,0.3,73,16,8000,7.408,,,160,,,,,,,,,,0,wg-a,,,,AAXX 05094 07181 32/58 21604 10210 20160 39753 40153 51003 700// 80001 90900=
07181,1999-09-05 10:00:00,23,1015,-0.1,65,16,10000,7.408,,,180,,,,,,,,,,0,wg-a,,,,AAXX 05104 07181 32560 21804 10230 20160 39752 40150 58001 700// 81101 91000=
07181,1999-09-05 11:00:00,24,1014.3,-0.5,61,16,12000,7.408,,,130,,,,,,,,,,0,wg-a,,,,AAXX 05114 07181 32562 31304 10240 20160 39748 40143 58005 700// 83101 91100=
07181,1999-09-05 12:00:00,25,1013.9,-0.9,54,15,12000,7.408,,,150,,,,,,,,,,0,wg-a,,,,AAXX 05124 07181 32662 41504 10250 20150 39744 40139 58009 700// 84101 91200=
07181,1999-09-05 13:00:00,25,1013.5,-1.1,50,14,15000,7.408,,,190,,,,,,,,,,0,wg-a,,,,AAXX 05134 07181 32665 41904 10250 20140 39741 40135 56011 700// 84101 91300=
07181,1999-09-05 14:00:00,25,1013,-1.3,47,13,20000,11.112,,,180,,,,,,,,,,0,wg-a,,,,AAXX 05144 07181 32770 41806 10250 20130 39735 40130 58013 700// 83101 91400=
07181,1999-09-05 15:00:00,24,1012.6,-1.3,54,14,25000,14.816,,,180,,,,,,,,,,0,wg-a,,,,AAXX 05154 07181 32775 41808 10240 20140 39731 40126 58013 700// 83101 91500=
07181,1999-09-05 16:00:00,24,1012.4,-1.2,50,13,25000,11.112,,,180,,,,,,,,,,0,wg-a,,,,AAXX 05164 07181 32775 41806 10240 20130 39729 40124 56012 700// 82101 91600=
07181,1999-09-05 18:00:00,21,1012.6,-0.4,64,14,500,7.408,,,150,13.4,25.3,,,,,,,,0,wg-a,,,,AAXX 05184 07181 32700 71504 10210 20140 39727 40126 56004 700// 81132 91800 333 10253 20134=
07181,1999-09-05 19:00:00,19,1013.1,-0,73,14,20000,11.112,,,150,,,,,,,,,,0,wg-a,,,,AAXX 05194 07181 32770 71506 10190 20140 39729 40131 55000 700// 81932 91900=
07181,1999-09-05 20:00:00,18,1013.6,0.5,73,13,20000,7.408,,,240,,,,,,,,,,0,wg-a,,,,AAXX 05204 07181 32/70 72404 10180 20130 39732 40136 53005 700// 85032 92000=
07181,1999-09-05 21:00:00,17,1013.6,0.4,77,13,20000,3.704,,,70,,,,,,,,,,0,wg-a,,,,AAXX 05214 07181 32/70 70702 10170 20130 39731 40136 50004 700// 85032 92100=
07181,1999-09-05 22:00:00,16,1013.6,0.1,82,13,20000,7.408,,,140,,,,,,,,,,0,wg-a,,,,AAXX 05224 07181 32/70 71404 10160 20130 39730 40136 50001 700// 85032 92200=
07181,1999-09-05 23:00:00,16,1013.4,-0.4,82,13,20000,7.408,,,150,,,,,,,,,,0,wg-a,,,,AAXX 05234 07181 32/70 31504 10160 20130 39728 40134 58004 700// 82032 92300=
07181,1999-09-06 00:00:00,16,1013.3,-0.5,82,13,20000,3.704,,,150,,,,,,,,,,0,wg-a,,,,AAXX 06004 07181 32/70 31502 10160 20130 39726 40133 58005 700// 82032 90000=
07181,1999-09-06 01:00:00,16,1013,-0.6,82,13,20000,11.112,,,160,,,,,,,,,,0,wg-a,,,,AAXX 06014 07181 32/70 31606 10160 20130 39724 40130 57006 700// 82032 90100=
07181,1999-09-06 02:00:00,17,1013,-0.3,77,13,15000,7.408,,,190,,,,,,,,,,0,wg-a,,,,AAXX 06024 07181 32/65 61904 10170 20130 39725 40130 55003 700// 83032 90200=
07181,1999-09-06 03:00:00,16,1012.5,-0.7,88,14,15000,11.112,,,140,,,,,,,,,,,wg-a,,,,AAXX 06034 07181 32/65 /1406 10160 20140 39719 40125 58007 90300=
07181,1999-09-06 04:00:00,16,1012,-0.9,88,14,11000,11.112,,,150,,,,,,,,,,60,wg-a,,,,AAXX 06044 07181 02661 71506 10160 20140 39715 40120 58009 61000 76062 8253/ 90400 333 ////=
07181,1999-09-06 05:00:00,16,1012.4,-0.6,88,14,11000,7.408,,,200,,,,,,,,,,21,wg-a,,,,AAXX 06054 07181 02661 72004 10160 20140 39719 40124 55006 61000 72162 8353/ 90500 333 ////=
07181,1999-09-06 06:00:00,16,1013,0.5,94,15,10000,7.408,,,200,15.2,21.1,,1,,,1,,,29,wg-a,,,,AAXX 06064 07181 02660 72004 10160 20150 39724 40130 53005 60014 72998 83483 90600 333 10211 20152 60017=
07181,1999-09-06 07:00:00,17,1013.1,1.1,88,15,12000,11.112,,,180,,,,,,,,,,0,wg-a,,,,AAXX 06074 07181 32762 71806 10170 20150 39726 40131 51011 700// 82582 90700=
07181,1999-09-06 08:00:00,18,1013.5,1.2,83,15,15000,22.224,,,220,,,,,,,,,,0,wg-a,,,,AAXX 06084 07181 32765 82212 10180 20150 39731 40135 52012 700// 81532 90800=
07181,1999-09-06 09:00:00,18,1013.8,1.1,83,15,15000,14.816,,,230,,,,,,,,,,0,wg-a,,,,AAXX 06094 07181 32465 82308 10180 20150 39735 40138 53011 700// 8583/ 90900=
07181,1999-09-06 10:00:00,16,1014.6,1.3,94,15,2500,22.224,,,220,,,4,,,,,,,80,wg-a,,,,AAXX 06104 07181 12225 82212 10160 20150 39739 40146 51013 60045 78086 879// 91000=
07181,1999-09-06 11:00:00,17,1014.4,0.8,94,16,7000,11.112,,,240,,,1,,,,,,,80,wg-a,,,,AAXX 06114 07181 12257 82406 10170 20160 39739 40144 51008 60015 78088 8483/ 91100=
07181,1999-09-06 12:00:00,17,1014.2,0.2,94,16,15000,11.112,,,190,,,,5,,,,,,25,wg-a,,,,AAXX 06124 07181 12365 71906 10170 20160 39737 40142 50002 60057 72586 8483/ 91200=
07181,1999-09-06 13:00:00,20,1013.4,-0.6,83,17,20000,3.704,,,170,,,,,,,,,,0,wg-a,,,,AAXX 06134 07181 32470 /1702 10200 20170 39733 40134 58006 700// 82231 91300=
07181,1999-09-06 16:00:00,21,1012.1,-1.1,73,16,500,14.816,,,180,,,,,,,,,,0,wg-a,,,,AAXX 06164 07181 32500 /1808 10210 20160 39722 40121 56011 700// 83232 91600=
07181,1999-09-06 17:00:00,20,1012.1,-0.5,78,16,12000,14.816,,,160,,,,,,,,,,16,wg-a,,,,AAXX 06174 07181 32562 71608 10200 20160 39720 40121 56005 71692 879// 91700=
07181,1999-09-06 18:00:00,19,1013.2,0.8,83,16,500,3.704,,,350,15.7,21.5,,,,,,,,16,wg-a,,,,AAXX 06184 07181 32500 73502 10190 20160 39730 40132 53008 71691 879// 91800 333 10215 20157=
07181,1999-09-06 19:00:00,17,1012.8,0.2,100,17,8000,18.52,,,190,,,3,,,,,,,80,wg-a,,,,AAXX 06194 07181 12558 71910 10170 20170 39724 40128 50002 60035 78099 8596/ 91900=
07181,1999-09-06 20:00:00,17,1013.7,1.2,94,16,7000,22.224,,,200,,,2,,,,,,,80,wg-a,,,,AAXX 06204 07181 12557 72012 10170 20160 39732 40137 51012 60025 78099 8596/ 92000=
07181,1999-09-06 22:00:00,14,1015.3,1.9,94,13,1500,3.704,,,200,,,15,,,,,,,81,wg-a,,,,AAXX 06224 07181 12515 72002 10140 20130 39743 40153 53019 60155 78199 859// 92200=
07181,1999-09-06 23:00:00,15,1014.3,0.3,100,15,8000,11.112,,,190,,,4,,,,,,,80,wg-a,,,,AAXX 06234 07181 12558 71906 10150 20150 39735 40143 50003 60045 78099 859// 92300=
07181,1999-09-07 00:00:00,14,1014.7,0.4,100,14,7000,25.928,,,230,,,,21,,,,,,80,wg-a,,,,AAXX 07004 07181 12557 72314 10140 20140 39738 40147 51004 60217 78098 879// 90000=
07181,1999-09-07 01:00:00,15,1013.7,-1.4,94,14,10000,18.52,,,180,,,2,,,,,,,25,wg-a,,,,AAXX 07014 07181 12560 71810 10150 20140 39729 40137 58014 60025 72586 878// 90100=
07181,1999-09-07 02:00:00,15,1013.5,-0.7,100,15,10000,14.816,,,200,,,0,,,,,,,0,wg-a,,,,AAXX 07024 07181 12360 52008 10150 20150 39728 40135 58007 60005 700// 83832 90200=
07181,1999-09-07 04:00:00,14,1013.9,0.1,100,14,8000,7.408,,,180,,,,,,,,,,0,wg-a,,,,AAXX 07044 07181 32858 21804 10140 20140 39730 40139 53001 700// 82500 90400=
07181,1999-09-07 05:00:00,14,1014.4,0.6,100,14,8000,11.112,,,190,,,,,,,,,,0,wg-a,,,,AAXX 07054 07181 32258 21906 10140 20140 39734 40144 53006 700// 81731 90500=
07181,1999-09-07 06:00:00,14,1014.8,1.1,100,14,8000,14.816,,,190,13.9,18.8,,,,,37,,,3,wg-a,,,,AAXX 07064 07181 12258 31908 10140 20140 39739 40148 53011 60374 70386 81731 90600 333 10188 20139=
07181,1999-09-07 07:00:00,15,1015.3,1.5,100,15,8000,11.112,,,200,,,,,,,,,,0,wg-a,,,,AAXX 07074 07181 32258 62006 10150 20150 39745 40153 53015 700// 82731 90700=
07181,1999-09-07 08:00:00,17,1015.7,1.7,94,16,9000,14.816,,,200,,,,,,,,,,0,wg-a,,,,AAXX 07084 07181 32259 62008 10170 20160 39751 40157 53017 700// 83831 90800=
07181,1999-09-07 10:00:00,19,1015.8,1.1,88,17,12000,14.816,,,220,,,,,,,,,,0,wg-a,,,,AAXX 07104 07181 32462 52208 10190 20170 39756 40158 51011 700// 84201 91000=
07181,1999-09-07 11:00:00,21,1015.6,0.5,78,17,10000,18.52,,,230,,,,,,,,,,0,wg-a,,,,AAXX 07114 07181 32460 52310 10210 20170 39756 40156 51005 700// 84201 91100=
07181,1999-09-07 12:00:00,22,1015.5,0.3,73,17,10000,14.816,,,240,,,,,,,,,,0,wg-a,,,,AAXX 07124 07181 32560 52408 10220 20170 39756 40155 51003 700// 85201 91200=
07181,1999-09-07 13:00:00,23,1015.5,0.1,69,17,12000,14.816,,,260,,,,,,,,,,0,wg-a,,,,AAXX 07134 07181 32562 52608 10230 20170 39757 40155 53001 700// 85201 91300=
07181,1999-09-07 14:00:00,23,1015.7,0.4,65,16,12000,11.112,,,260,,,,,,,,,,0,wg-a,,,,AAXX 07144 07181 32662 /2606 10230 20160 39760 40157 53004 700// 85201 91400=
07181,1999-09-07 16:00:00,22,1016.7,1.1,69,16,12000,11.112,,,300,,,,,,,,,,0,wg-a,,,,AAXX 07164 07181 32662 /3006 10220 20160 39768 40167 53011 700// 83201 91600=
07181,1999-09-07 19:00:00,18,1018.8,1.4,83,15,12000,7.408,,,320,,,,,,,,,,0,wg-a,,,,AAXX 07194 07181 32/62 53204 10180 20150 39782 40188 53014 700// 80001 91900=
07181,1999-09-07 20:00:00,16,1019.5,1.8,94,15,10000,3.704,,,340,,,,,,,,,,0,wg-a,,,,AAXX 07204 07181 32/60 53402 10160 20150 39787 40195 53018 700// 80001 92000=
07181,1999-09-07 22:00:00,15,1020.6,1.4,94,14,10000,3.704,,,210,,,,,,,,,,0,wg-a,,,,AAXX 07224 07181 32/60 42102 10150 20140 39796 40206 51014 700// 80001 92200=
07181,1999-09-07 23:00:00,14,1021.1,1.1,94,13,9000,3.704,,,170,,,,,,,,,,0,wg-a,,,,AAXX 07234 07181 32/59 41702 10140 20130 39798 40211 51011 700// 80001 92300=
07181,1999-09-08 00:00:00,14,1021.2,0.6,88,12,500,3.704,,,210,,,,,,,,,,,wg-a,,,,AAXX 08004 07181 32/00 /2102 10140 20120 39799 40212 51006 90000=
07181,1999-09-08 02:00:00,12,1021.4,0,94,11,500,3.704,,,190,,,,,,,,,,0,wg-a,,,,AAXX 08024 07181 32/00 31902 10120 20110 39798 40214 50000 700// 80001 90200=
07181,1999-09-08 04:00:00,11,1021.4,-0.1,100,11,3000,3.704,,,180,,,,,,,,,,10,wg-a,,,,AAXX 08044 07181 32630 /1802 10110 20110 39797 40214 55001 71000 81501 90400=
07181,1999-09-08 05:00:00,11,1021.5,-0,100,11,2500,3.704,,,200,,,,,,,,,,10,wg-a,,,,AAXX 08054 07181 32525 42002 10110 20110 39798 40215 55000 71000 82501 90500=
07181,1999-09-08 06:00:00,12,1021.6,0.4,100,12,4000,3.704,,,160,10.7,19.4,,,,,,,,10,wg-a,,,,AAXX 08064 07181 12540 21602 10120 20120 39800 40216 53004 60004 71000 81501 90600 333 10194 20107=
07181,1999-09-08 07:00:00,13,1021.4,0.4,100,13,500,0,,,0,,,,,,,,,,10,wg-a,,,,AAXX 08074 07181 32500 /0000 10130 20130 39801 40214 52004 710// 86500 90700=
07181,1999-09-08 08:00:00,15,1021.4,0.6,100,15,6000,0,,,0,,,,,,,,,,0,wg-a,,,,AAXX 08084 07181 32556 20000 10150 20150 39804 40214 53006 700// 82500 90800=
07181,1999-09-08 10:00:00,21,1020.7,0.3,64,14,9000,3.704,,,70,,,,,,,,,,0,wg-a,,,,AAXX 08104 07181 32/59 /0702 10210 20140 39804 40207 50003 700// 80000 91000=
07181,1999-09-08 11:00:00,22,1020,-0.5,65,15,10000,7.408,,,100,,,,,,,,,,,wg-a,,,,AAXX 08114 07181 32/60 /1004 10220 20150 39799 40200 58005 91100=
07181,1999-09-08 14:00:00,24,1018.5,-1.1,61,16,15000,7.408,,,90,,,,,,,,,,0,wg-a,,,,AAXX 08144 07181 32665 20904 10240 20160 39788 40185 56011 700// 82100 91400=
07181,1999-09-08 16:00:00,24,1017.7,-1.1,57,15,15000,7.408,,,100,,,,,,,,,,0,wg-a,,,,AAXX 08164 07181 32/65 01004 10240 20150 39780 40177 58011 700// 80000 91600=
07181,1999-09-08 17:00:00,24,1017.6,-0.9,61,16,15000,3.704,,,20,,,,,,,,,,0,wg-a,,,,AAXX 08174 07181 32/65 00202 10240 20160 39779 40176 56009 700// 80000 91700=
07181,1999-09-08 18:00:00,22,1018,-0.4,73,17,12000,3.704,,,360,11.5,24.3,,,,,,,,0,wg-a,,,,AAXX 08184 07181 32/62 03602 10220 20170 39780 40180 55004 700// 80000 91800 333 10243 20115=
07181,1999-09-08 19:00:00,19,1018.8,0.5,88,17,12000,3.704,,,20,,,,,,,,,,,wg-a,,,,AAXX 08194 07181 32/62 /0202 10190 20170 39785 40188 53005 91900=
07181,1999-09-08 20:00:00,18,1019.3,0.8,94,17,12000,3.704,,,80,,,,,,,,,,0,wg-a,,,,AAXX 08204 07181 32/62 00802 10180 20170 39787 40193 53008 700// 80000 92000=
07181,1999-09-08 22:00:00,16,1019.8,0.5,94,15,10000,0,,,0,,,,,,,,,,,wg-a,,,,AAXX 08224 07181 32/60 /0000 10160 20150 39790 40198 51005 92200=
07181,1999-09-08 23:00:00,16,1019.9,0.3,94,15,10000,0,,,0,,,,,,,,,,0,wg-a,,,,AAXX 08234 07181 32/60 00000 10160 20150 39790 40199 51003 700// 80000 92300=
07181,1999-09-09 00:00:00,15,1020.2,0.1,94,14,7000,0,,,0,,,,,,,,,,0,wg-a,,,,AAXX 09004 07181 32/57 00000 10150 20140 39791 40202 53001 700// 80000 90000=
07181,1999-09-09 01:00:00,15,1020.2,0.1,94,14,4200,0,,,0,,,,,,,,,,,wg-a,,,,AAXX 09014 07181 32/42 /0000 10150 20140 39791 40202 52001 90100=
07181,1999-09-09 02:00:00,15,1020.3,0.2,100,15,500,0,,,0,,,,,,,,,,0,wg-a,,,,AAXX 09024 07181 32/00 00000 10150 20150 39792 40203 52002 700// 80000 90200=
07181,1999-09-09 04:00:00,13,1020.8,0.4,100,13,2500,3.704,,,180,,,,,,,,,,10,wg-a,,,,AAXX 09044 07181 32/25 21802 10130 20130 39795 40208 51004 71000 80001 90400=
07181,1999-09-09 05:00:00,14,1021,0.6,100,14,1000,3.704,,,200,,,0,,,,,,,10,wg-a,,,,AAXX 09054 07181 12/10 /2002 10140 20140 39798 40210 52006 60005 71000 80001 90500=
07181,1999-09-09 07:00:00,16,1021.7,1.3,100,16,3500,3.704,,,240,,,,,,,,,,10,wg-a,,,,AAXX 09074 07181 32/35 02402 10160 20160 39808 40217 53013 71000 80000 90700=
07181,1999-09-09 08:00:00,18,1021.9,1.5,94,17,7000,3.704,,,240,,,,,,,,,,0,wg-a,,,,AAXX 09084 07181 32/57 02402 10180 20170 39813 40219 51015 700// 80000 90800=
07181,1999-09-09 10:00:00,23,1022.5,1.7,73,18,13000,11.112,,,340,,,,,,,,,,0,wg-a,,,,AAXX 09104 07181 32563 13406 10230 20180 39825 40225 52017 700// 81101 91000=
07181,1999-09-09 11:00:00,24,1022.4,1.2,61,16,15000,11.112,,,350,,,,,,,,,,0,wg-a,,,,AAXX 09114 07181 32565 /3506 10240 20160 39825 40224 51012 700// 81101 91100=
07181,1999-09-09 12:00:00,25,1022.2,0.4,57,16,18000,7.408,,,20,,,,,,,,,,0,wg-a,,,,AAXX 09124 07181 32668 /0204 10250 20160 39824 40222 50004 700// 81100 91200=
07181,1999-09-09 13:00:00,25,1022,-0.2,57,16,20000,7.408,,,320,,,,,,,,,,0,wg-a,,,,AAXX 09134 07181 32670 /3204 10250 20160 39823 40220 58002 700// 81100 91300=
07181,1999-09-09 14:00:00,26,1021.9,-0.3,51,15,20000,7.408,,,350,,,,,,,,,,0,wg-a,,,,AAXX 09144 07181 32670 23504 10260 20150 39822 40219 57003 700// 81101 91400=
07181,1999-09-09 16:00:00,25,1021.9,-0.1,50,14,20000,7.408,,,340,,,,,,,,,,0,wg-a,,,,AAXX 09164 07181 32770 33404 10250 20140 39822 40219 56001 700// 81101 91600=
07181,1999-09-09 17:00:00,24,1022.5,0.5,61,16,20000,7.408,,,330,,,,,,,,,,0,wg-a,,,,AAXX 09174 07181 32770 33304 10240 20160 39827 40225 53005 700// 81101 91700=
07181,1999-09-09 18:00:00,22,1022.9,0.6,73,17,15000,3.704,,,350,14,25.9,,,,,,,,0,wg-a,,,,AAXX 09184 07181 32765 33502 10220 20170 39828 40229 53006 700// 81501 91800 333 10259 20140=
07181,1999-09-09 19:00:00,20,1023.8,1.1,83,17,15000,0,,,0,,,,,,,,,,0,wg-a,,,,AAXX 09194 07181 32765 30000 10200 20170 39833 40238 52011 700// 81501 91900=
07181,1999-09-09 20:00:00,19,1024.3,1,83,16,15000,3.704,,,340,,,,,,,,,,0,wg-a,,,,AAXX 09204 07181 32/65 33402 10190 20160 39837 40243 53010 700// 80001 92000=
07181,1999-09-09 22:00:00,17,1024.9,0.7,94,16,11000,0,,,0,,,,,,,,,,0,wg-a,,,,AAXX 09224 07181 32/61 30000 10170 20160 39840 40249 51007 700// 80001 92200=
07181,1999-09-09 23:00:00,17,1025.1,0.4,88,15,11000,3.704,,,220,,,,,,,,,,0,wg-a,,,,AAXX 09234 07181 32/61 32202 10170 20150 39841 40251 51004 700// 80001 92300=
07181,1999-09-10 00:00:00,16,1025.2,0.2,94,15,8000,3.704,,,240,,,,,,,,,,0,wg-a,,,,AAXX 10004 07181 32/58 32402 10160 20150 39841 40252 51002 700// 80001 90000=
07181,1999-09-10 01:00:00,15,1025.2,0,94,14,8000,0,,,0,,,,,,,,,,0,wg-a,,,,AAXX 10014 07181 32/58 30000 10150 20140 39840 40252 50000 700// 80001 90100=
07181,1999-09-10 02:00:00,15,1025.3,-0.1,94,14,7000,0,,,0,,,,,,,,,,0,wg-a,,,,AAXX 10024 07181 32/57 30000 10150 20140 39840 40253 57001 700// 80001 90200=
07181,1999-09-10 04:00:00,14,1025.4,0,94,13,500,3.704,,,340,,,,,,,,,,0,wg-a,,,,AAXX 10044 07181 32/00 33402 10140 20130 39840 40254 50000 700// 80001 90400=
07181,1999-09-10 05:00:00,14,1025.5,0.1,100,14,3500,0,,,0,,,0,,,,,,,10,wg-a,,,,AAXX 10054 07181 12/35 30000 10140 20140 39841 40255 52001 60005 71000 80001 90500=
07181,1999-09-10 06:00:00,14,1025.8,0.2,100,14,2500,0,,,0,13.3,21.9,,0,,,,,,10,wg-a,,,,AAXX 10064 07181 02/25 30000 10140 20140 39843 40258 53002 60004 71000 80001 90600 333 10219 20133 60007=
07181,1999-09-10 07:00:00,15,1025.5,0.3,100,15,2500,0,,,0,,,,,,,,,,10,wg-a,,,,AAXX 10074 07181 32/25 30000 10150 20150 39843 40255 51003 71000 80001 90700=
07181,1999-09-10 08:00:00,18,1025.5,0.5,88,16,7000,3.704,,,310,,,,,,,,,,10,wg-a,,,,AAXX 10084 07181 32/57 23102 10180 20160 39846 40255 53005 710// 80001 90800=
07181,1999-09-10 10:00:00,24,1024.6,0.3,61,16,8000,11.112,,,40,,,,,,,,,,0,wg-a,,,,AAXX 10104 07181 32/58 20406 10240 20160 39846 40246 50003 700// 80001 91000=
07181,1999-09-10 11:00:00,25,1024,-0.4,57,16,10000,11.112,,,90,,,,,,,,,,0,wg-a,,,,AAXX 10114 07181 32/60 20906 10250 20160 39842 40240 58004 700// 80001 91100=
07181,1999-09-10 12:00:00,26,1023.6,-0.8,54,16,15000,14.816,,,70,,,,,,,,,,0,wg-a,,,,AAXX 10124 07181 32/65 20708 10260 20160 39839 40236 58008 700// 80001 91200=
07181,1999-09-10 13:00:00,27,1023,-1.2,51,16,15000,11.112,,,80,,,,,,,,,,0,wg-a,,,,AAXX 10134 07181 32/65 20806 10270 20160 39834 40230 58012 700// 80001 91300=
07181,1999-09-10 14:00:00,27,1022.4,-1.3,48,15,15000,11.112,,,50,,,,,,,,,,0,wg-a,,,,AAXX 10144 07181 32765 20506 10270 20150 39829 40224 58013 700// 81101 91400=
07181,1999-09-10 16:00:00,26,1021.7,-1.3,48,14,15000,11.112,,,50,,,,,,,,,,0,wg-a,,,,AAXX 10164 07181 32/65 20506 10260 20140 39821 40217 56013 700// 80001 91600=
07181,1999-09-10 17:00:00,25,1021.7,-1,50,14,15000,11.112,,,60,,,,,,,,,,0,wg-a,,,,AAXX 10174 07181 32/65 20606 10250 20140 39819 40217 56010 700// 80001 91700=
07181,1999-09-10 18:00:00,22,1021.9,-0.6,65,15,15000,7.408,,,70,13.6,27.2,,,,,,,,0,wg-a,,,,AAXX 10184 07181 32/65 20704 10220 20150 39818 40219 56006 700// 80001 91800 333 10272 20136=
07181,1999-09-10 19:00:00,21,1022.2,-0.2,69,15,15000,11.112,,,90,,,,,,,,,,0,wg-a,,,,AAXX 10194 07181 32/65 20906 10210 20150 39819 40222 55002 700// 80001 91900=
07181,1999-09-10 20:00:00,22,1022.2,0.1,65,15,15000,11.112,,,100,,,,,,,,,,0,wg-a,,,,AAXX 10204 07181 32/65 21006 10220 20150 39820 40222 53001 700// 80001 92000=
07181,1999-09-10 22:00:00,19,1022.3,-0.2,73,14,10000,3.704,,,210,,,,,,,,,,0,wg-a,,,,AAXX 10224 07181 32/60 22102 10190 20140 39817 40223 58002 700// 80001 92200=
07181,1999-09-10 23:00:00,19,1022.2,-0.4,73,14,10000,0,,,0,,,,,,,,,,0,wg-a,,,,AAXX 10234 07181 32/60 20000 10190 20140 39816 40222 57004 700// 80001 92300=
07181,1999-09-11 00:00:00,18,1022,-0.6,77,14,10000,3.704,,,110,,,,,,,,,,0,wg-a,,,,AAXX 11004 07181 32/60 21102 10180 20140 39813 40220 58006 700// 80001 90000=
07181,1999-09-11 02:00:00,15,1021.8,,88,13,7000,0,,,0,,,,,,,,,,0,wg-a,,,,AAXX 11024 07181 32/57 20000 10150 20130 39807 40218 700// 80001 90200=
07181,1999-09-11 04:00:00,14,1021.4,-0.8,94,13,500,0,,,0,,,,,,,,,,0,wg-a,,,,AAXX 11044 07181 32/00 20000 10140 20130 39801 40214 58008 700// 80001 90400=
07181,1999-09-11 05:00:00,13,1021.5,-0.5,100,13,500,3.704,,,220,,,,,,,,,,0,wg-a,,,,AAXX 11054 07181 32/00 22202 10130 20130 39802 40215 55005 700// 80001 90500=
07181,1999-09-11 08:00:00,19,1020.5,-0.1,83,16,8000,7.408,,,120,,,,,,,,,,0,wg-a,,,,AAXX 11084 07181 32/58 01204 10190 20160 39801 40205 58001 700// 80000 90800=
07181,1999-09-11 12:00:00,26,1018.1,-1.3,54,16,13000,11.112,,,160,,,,,,,,,,0,wg-a,,,,AAXX 11124 07181 32/63 01606 10260 20160 39787 40181 57013 700// 80000 91200=
07181,1999-09-11 13:00:00,27,1017.5,-1.4,48,15,13000,11.112,,,150,,,,,,,,,,0,wg-a,,,,AAXX 11134 07181 32/63 01506 10270 20150 39782 40175 57014 700// 80000 91300=
07181,1999-09-11 14:00:00,28,1016.7,-1.6,45,15,13000,11.112,,,160,,,,,,,,,,0,wg-a,,,,AAXX 11144 07181 32/63 01606 10280 20150 39775 40167 58016 700// 80000 91400=
07181,1999-09-11 16:00:00,27,1016.3,-1.2,48,15,13000,11.112,,,170,,,,,,,,,,0,wg-a,,,,AAXX 11164 07181 32/63 01706 10270 20150 39770 40163 56012 700// 80000 91600=
07181,1999-09-11 17:00:00,26,1016.2,-0.7,54,16,13000,7.408,,,170,,,,,,,,,,0,wg-a,,,,AAXX 11174 07181 32/63 01704 10260 20160 39768 40162 56007 700// 80000 91700=
07181,1999-09-11 18:00:00,23,1016.4,-0.5,69,17,13000,7.408,,,140,14.2,27.9,,,,,,,,0,wg-a,,,,AAXX 11184 07181 32/63 01404 10230 20170 39766 40164 58005 700// 80000 91800 333 10279 20142=
07181,1999-09-11 19:00:00,21,1016.9,-0.2,69,15,13000,11.112,,,140,,,,,,,,,,0,wg-a,,,,AAXX 11194 07181 32/63 01406 10210 20150 39768 40169 55002 700// 80000 91900=
07181,1999-09-11 20:00:00,20,1016.9,-0.1,73,15,13000,11.112,,,140,,,,,,,,,,0,wg-a,,,,AAXX 11204 07181 32/63 01406 10200 20150 39767 40169 56001 700// 80000 92000=
07181,1999-09-11 22:00:00,19,1017.1,-0,83,16,13000,11.112,,,150,,,,,,,,,,0,wg-a,,,,AAXX 11224 07181 32/63 01506 10190 20160 39768 40171 55000 700// 80000 92200=
07181,1999-09-11 23:00:00,17,1017.5,0.2,88,15,12000,3.704,,,120,,,,,,,,,,0,wg-a,,,,AAXX 11234 07181 32/62 01202 10170 20150 39769 40175 53002 700// 80000 92300=
07181,1999-09-12 00:00:00,17,1017.4,0,88,15,12000,3.704,,,160,,,,,,,,,,0,wg-a,,,,AAXX 12004 07181 32/62 01602 10170 20150 39767 40174 50000 700// 80000 90000=
07181,1999-09-12 02:00:00,17,1016.8,-0.7,88,15,12000,7.408,,,160,,,,,,,,,,0,wg-a,,,,AAXX 12024 07181 32/62 01604 10170 20150 39762 40168 56007 700// 80000 90200=
07181,1999-09-12 04:00:00,16,1017,-0,94,15,12000,11.112,,,150,,,,,,,,,,0,wg-a,,,,AAXX 12044 07181 32/62 01506 10160 20150 39763 40170 55000 700// 80000 90400=
07181,1999-09-12 05:00:00,16,1017.1,0.1,88,14,10000,11.112,,,160,,,,,,,,,,0,wg-a,,,,AAXX 12054 07181 32/60 11606 10160 20140 39763 40171 51001 700// 80001 90500=
07181,1999-09-12 14:00:00,29,1014,-1.2,40,14,25000,7.408,,,150,,,,,,,,,,0,wg-a,,,,AAXX 12144 07181 32675 /1504 10290 20140 39750 40140 58012 700// 81100 91400=
07181,1999-09-12 16:00:00,28,1013,-1.6,45,15,25000,3.704,,,70,,,,,,,,,,0,wg-a,,,,AAXX 12164 07181 32775 10702 10280 20150 39740 40130 56016 700// 81100 91600=
07181,1999-09-12 17:00:00,26,1013,-1.2,51,15,20000,3.704,,,30,,,,,,,,,,0,wg-a,,,,AAXX 12174 07181 32770 20302 10260 20150 39738 40130 56012 700// 82900 91700=
07181,1999-09-12 18:00:00,23,1013.4,-0.7,69,17,20000,7.408,,,90,16.6,28.9,,,,,,,,0,wg-a,,,,AAXX 12184 07181 32770 20904 10230 20170 39738 40134 56007 700// 81401 91800 333 10289 20166=
07181,1999-09-12 19:00:00,22,1013.9,-0,65,15,15000,7.408,,,110,,,,,,,,,,0,wg-a,,,,AAXX 12194 07181 32765 21104 10220 20150 39740 40139 55000 700// 81501 91900=
07181,1999-09-12 20:00:00,22,1013.9,0.2,65,15,15000,7.408,,,150,,,,,,,,,,0,wg-a,,,,AAXX 12204 07181 32/65 11504 10220 20150 39740 40139 52002 700// 80001 92000=
07181,1999-09-12 22:00:00,19,1013.8,-0.4,83,16,15000,3.704,,,190,,,,,,,,,,0,wg-a,,,,AAXX 12224 07181 32/65 11902 10190 20160 39736 40138 58004 700// 80001 92200=
07181,1999-09-12 23:00:00,17,1013.7,-0.7,88,15,12000,3.704,,,190,,,,,,,,,,0,wg-a,,,,AAXX 12234 07181 32/62 11902 10170 20150 39733 40137 57007 700// 80001 92300=
07181,1999-09-13 00:00:00,17,1013.4,-0.7,88,15,12000,7.408,,,110,,,,,,,,,,,wg-a,,,,AAXX 13004 07181 32/62 11104 10170 20150 39730 40134 58007 80001 90000=
07181,1999-09-13 01:00:00,17,1012.7,-1.3,88,15,12000,7.408,,,140,,,,,,,,,,0,wg-a,,,,AAXX 13014 07181 32/62 11404 10170 20150 39723 40127 58013 700// 80001 90100=
07181,1999-09-13 02:00:00,17,1012.2,-1.5,88,15,12000,0,,,0,,,,,,,,,,0,wg-a,,,,AAXX 13024 07181 32/62 10000 10170 20150 39718 40122 58015 700// 80001 90200=
07181,1999-09-13 04:00:00,16,1011.7,-1.2,94,15,7000,3.704,,,130,,,,,,,,,,0,wg-a,,,,AAXX 13044 07181 32/57 /1302 10160 20150 39711 40117 56012 700// 80001 90400=
07181,1999-09-13 05:00:00,16,1011.6,-0.8,94,15,7000,7.408,,,140,,,,,,,,,,0,wg-a,,,,AAXX 13054 07181 32/57 31404 10160 20150 39710 40116 56008 700// 80001 90500=
07181,1999-09-13 07:00:00,18,1011,-0.3,88,16,9000,3.704,,,160,,,,,,,,,,0,wg-a,,,,AAXX 13074 07181 32/59 21602 10180 20160 39708 40110 58003 700// 80001 90700=
07181,1999-09-13 08:00:00,21,1010.8,-0,73,16,12000,7.408,,,110,,,,,,,,,,,wg-a,,,,AAXX 13084 07181 32/62 /1104 10210 20160 39710 40108 55000 90800=
07181,1999-09-13 11:00:00,27,1009.6,-0.4,51,16,20000,14.816,,,180,,,,,,,,,,0,wg-a,,,,AAXX 13114 07181 32/70 41808 10270 20160 39706 40096 58004 700// 80001 91100=
07181,1999-09-13 15:00:00,28,1008.3,-0.8,48,16,20000,7.408,,,220,,,,,,,,,,0,wg-a,,,,AAXX 13154 07181 32770 42204 10280 20160 39695 40083 57008 700// 83201 91500=
07181,1999-09-13 18:00:00,23,1009.1,0.1,73,18,20000,3.704,,,80,15.8,28.9,,,,,,,,0,wg-a,,,,AAXX 13184 07181 32870 30802 10230 20180 39696 40091 53001 700// 81061 91800 333 10289 20158=
07181,1999-09-13 19:00:00,22,1009.7,0.5,73,17,15000,7.408,,,120,,,,,,,,,,0,wg-a,,,,AAXX 13194 07181 32/65 31204 10220 20170 39700 40097 53005 700// 80001 91900=
07181,1999-09-13 20:00:00,20,1010.1,0.7,78,16,13000,0,,,0,,,,,,,,,,,wg-a,,,,AAXX 13204 07181 32/63 /0000 10200 20160 39702 40101 53007 92000=
07181,1999-09-13 21:00:00,18,1010.5,0.7,88,16,11000,7.408,,,310,,,,,,,,,,0,wg-a,,,,AAXX 13214 07181 32/61 03104 10180 20160 39703 40105 51007 700// 80000 92100=
07181,1999-09-13 22:00:00,18,1010.5,0.3,88,16,10000,3.704,,,350,,,,,,,,,,,wg-a,,,,AAXX 13224 07181 32/60 /3502 10180 20160 39703 40105 51003 92200=
07181,1999-09-13 23:00:00,17,1010.8,0.3,94,16,9000,0,,,0,,,,,,,,,,,wg-a,,,,AAXX 13234 07181 32/59 /0000 10170 20160 39705 40108 53003 92300=
07181,1999-09-14 00:00:00,17,1010.7,0,94,16,10000,11.112,,,130,,,,,,,,,,0,wg-a,,,,AAXX 14004 07181 32/60 01306 10170 20160 39703 40107 50000 700// 80000 90000=
07181,1999-09-14 01:00:00,17,1010.6,-0.1,94,16,6000,3.704,,,110,,,,,,,,,,,wg-a,,,,AAXX 14014 07181 32/56 /1102 10170 20160 39702 40106 58001 90100=
07181,1999-09-14 02:00:00,16,1010.8,-0.2,94,15,10000,7.408,,,180,,,0,,,,,,,0,wg-a,,,,AAXX 14024 07181 12/60 31804 10160 20150 39703 40108 55002 60005 700// 80001 90200=
07181,1999-09-14 03:00:00,17,1010.8,0.1,88,15,8000,11.112,,,130,,,,0,,,,,,0,wg-a,,,,AAXX 14034 07181 12/58 31306 10170 20150 39704 40108 53001 60007 700// 80001 90300=
07181,1999-09-14 04:00:00,17,1010.9,0.3,88,15,8000,14.816,,,160,,,,,,,,,,0,wg-a,,,,AAXX 14044 07181 32/58 31608 10170 20150 39705 40109 52003 700// 80001 90400=
07181,1999-09-14 05:00:00,16,1011.2,0.4,88,14,9000,11.112,,,160,,,,,,,,,,0,wg-a,,,,AAXX 14054 07181 32659 61606 10160 20140 39707 40112 53004 700// 82532 90500=
07181,1999-09-14 06:00:00,16,1011.9,0.9,88,14,10000,7.408,,,180,15.4,22.9,,,,,,,,0,wg-a,,,,AAXX 14064 07181 12/60 51804 10160 20140 39713 40119 53009 60004 700// 83032 90600 333 10229 20154=
07181,1999-09-14 07:00:00,19,1011.9,1.2,73,14,11000,11.112,,,180,,,,,,,,,,0,wg-a,,,,AAXX 14074 07181 32/61 41806 10190 20140 39717 40119 53012 700// 82032 90700=
07181,1999-09-14 08:00:00,20,1012.2,1.5,68,14,12000,11.112,,,180,,,,,,,,,,0,wg-a,,,,AAXX 14084 07181 32862 51806 10200 20140 39722 40122 51015 700// 84032 90800=
07181,1999-09-14 09:00:00,23,1012.3,1.3,57,14,13000,18.52,,,220,,,,,,,,,,0,wg-a,,,,AAXX 14094 07181 32/63 32210 10230 20140 39726 40123 52013 700// 82032 90900=
07181,1999-09-14 10:00:00,24,1012,0.8,57,15,13000,11.112,,,200,,,,,,,,,,0,wg-a,,,,AAXX 14104 07181 32/63 22006 10240 20150 39725 40120 50008 700// 81032 91000=
07181,1999-09-14 11:00:00,25,1011.5,0,54,15,15000,11.112,,,200,,,,,,,,,,0,wg-a,,,,AAXX 14114 07181 32/65 22006 10250 20150 39722 40115 50000 700// 80002 91100=
07181,1999-09-14 13:00:00,25,1011.1,-0.7,47,13,15000,14.816,,,210,,,,,,,,,,0,wg-a,,,,AAXX 14134 07181 32765 42108 10250 20130 39718 40111 56007 700// 81132 91300=
07181,1999-09-14 14:00:00,27,1010.8,-0.5,42,13,15000,18.52,,,210,,,,,,,,,,0,wg-a,,,,AAXX 14144 07181 32765 42110 10270 20130 39717 40108 56005 700// 81132 91400=
07181,1999-09-14 15:00:00,26.6,1010.6,-0.5,41,12.3,15000,14.816,,,190,,,,,,,,,,,og-post,,,,AAXX 14154 07181 32765 51908 10266 20123 39715 40106 57005 81132 333 81850 84075=
07181,1999-09-14 16:00:00,26.2,1010.8,-0.2,44,13,15000,14.816,,,170,,,,,,,,,,,og-post,,,,AAXX 14164 07181 32765 51708 10262 20130 39716 40108 55002 81132 333 81850 84075=
07181,1999-09-14 17:00:00,24.3,1011.2,0.1,51,13.5,15000,11.112,,,240,,,,,,,,,,,og-post,,,,AAXX 14174 07181 32965 42406 10243 20135 39718 40112 53001 81032 333 81360 84075=
07181,1999-09-14 18:00:00,22,1012,0.8,64,14.9,15000,7.408,,,290,15.6,27.2,,,,,,,,,og-post,,,,AAXX 14184 07181 32965 52904 10220 20149 39723 40120 53008 82032 333 10272 20156 82360 85075=
07181,1999-09-14 19:00:00,19.8,1012.8,1.1,75,15.2,15000,3.704,,,350,,,,,,,,,,,og-post,,,,AAXX 14194 07181 32965 53502 10198 20152 39727 40128 53011 82032 333 82360 85075=
07181,1999-09-14 20:00:00,19.3,1013.3,1.4,78,15.4,15000,3.704,,,340,,,,,,,,,,,og-post,,,,AAXX 14204 07181 32965 53402 10193 20154 39732 40133 52014 82032 333 82360 85075=
07181,1999-09-14 21:00:00,17.8,1013.9,1.2,84,15.1,15000,,,,,,,,,,,,,,,og-post,,,,AAXX 14214 07181 32965 40000 10178 20151 39735 40139 51012 82032 333 81360 84075=
07181,1999-09-14 22:00:00,16.6,1014.3,1,90,15,15000,7.408,,,250,,,,,,,,,,,og-post,,,,AAXX 14224 07181 32965 52504 10166 20150 39737 40143 51010 83032 333 83360 84075=
07181,1999-09-14 23:00:00,16.7,1014.8,1,86,14.3,15000,7.408,,,270,,,,,,,,,,,og-post,,,,AAXX 14234 07181 32965 52704 10167 20143 39742 40148 53010 83032 333 83360 84075=
07181,1999-09-15 00:00:00,16.9,1014.5,0.5,85,14.4,26000,3.704,,,200,,,,,,,,,,,og-post,,,,AAXX 15004 07181 36/76 /2002 10169 20144 39740 40145 50005=
07181,1999-09-15 01:00:00,16.5,1014.4,0.1,87,14.3,23000,3.704,,,170,,,,,,,,,,,og-post,,,,AAXX 15014 07181 36/73 /1702 10165 20143 39738 40144 50001=
07181,1999-09-15 02:00:00,16.1,1013.9,-0.9,90,14.5,12000,7.408,,,150,,,,,,,,,,,og-post,,,,AAXX 15024 07181 32962 61504 10161 20145 39733 40139 58009 85032 333 85359 84073=
07181,1999-09-15 03:00:00,15.7,1013.7,-1,91,14.2,12000,3.704,,,340,,,,,,,,,,,og-post,,,,AAXX 15034 07181 32962 63402 10157 20142 39730 40137 58010 85032 333 83359 84073=
07181,1999-09-15 04:00:00,15,1013.5,-1,94,14,15000,7.408,,,160,,,,,,,,,,0,wg-a,,,,AAXX 15044 07181 32/65 61604 10150 20140 39728 40135 56010 700// 85032 90400=
07181,1999-09-15 05:00:00,15,1013.4,-0.6,100,15,10000,0,,,0,,,0,,,,,,,21,wg-a,,,,AAXX 15054 07181 12160 80000 10150 20150 39727 40134 56006 60005 72162 84532 90500=
07181,1999-09-15 06:00:00,15,1013,-0.8,94,14,1500,11.112,,,10,14.7,22,,2,,,2,,,10,wg-a,,,,AAXX 15064 07181 02115 80106 10150 20140 39722 40130 58008 60024 71062 878// 90600 333 10220 20147 60027=
07181,1999-09-15 07:00:00,15,1013.6,-0,100,15,500,3.704,,,260,,,,,,,,,,,wg-a,,,,AAXX 15074 07181 32/00 /2602 10150 20150 39728 40136 55000 90700=
07181,1999-09-15 08:00:00,15,1013.1,-0.3,100,15,2000,3.704,,,350,,,2,,,,,,,10,wg-a,,,,AAXX 15084 07181 12120 83502 10150 20150 39724 40131 56003 60025 71066 878// 90800=
07181,1999-09-15 09:00:00,16,1013,0.2,100,16,4000,11.112,,,20,,,,2,,,,,,10,wg-a,,,,AAXX 15094 07181 12140 80206 10160 20160 39724 40130 51002 60027 71062 85832 90900=
07181,1999-09-15 10:00:00,17,1012.9,-0.4,94,16,6000,11.112,,,350,,,,,,,,,,0,wg-a,,,,AAXX 15104 07181 32256 73506 10170 20160 39724 40129 56004 700// 8583/ 91000=
07181,1999-09-15 11:00:00,18,1012.3,-0.4,94,17,10000,11.112,,,320,,,,,,,,,,0,wg-a,,,,AAXX 15114 07181 32260 73206 10180 20170 39720 40123 58004 700// 8583/ 91100=
07181,1999-09-15 12:00:00,19,1012.1,-0.4,88,17,11000,11.112,,,300,,,,,,,,,,1,wg-a,,,,AAXX 15124 07181 32461 83006 10190 20170 39720 40121 57004 70162 8587/ 91200=
07181,1999-09-15 13:00:00,19,1012.2,-0.3,83,16,12000,14.816,,,300,,,,,,,,,,0,wg-a,,,,AAXX 15134 07181 32462 83008 10190 20160 39721 40122 55003 700// 8427/ 91300=
07181,1999-09-15 14:00:00,18,1012.3,0,88,16,12000,18.52,,,290,,,,,,,,,,0,wg-a,,,,AAXX 15144 07181 32462 82910 10180 20160 39720 40123 50000 700// 8527/ 91400=
07181,1999-09-15 15:00:00,17,1012.7,0.2,88,15,11000,18.52,,,300,,,,,,,,,,0,wg-a,,,,AAXX 15154 07181 32461 83010 10170 20150 39722 40127 53002 700// 878// 91500=
07181,1999-09-15 16:00:00,16,1013.1,0.3,94,15,8000,14.816,,,290,,,,,,,,,,60,wg-a,,,,AAXX 15164 07181 02258 82908 10160 20150 39724 40131 53003 61000 76062 878// 91600 333 ////=
07181,1999-09-15 17:00:00,15,1013.5,0.8,94,14,7000,14.816,,,300,,,,,,,,,,21,wg-a,,,,AAXX 15174 07181 02357 83008 10150 20140 39728 40135 53008 61000 72162 878// 91700 333 ////=
07181,1999-09-15 18:00:00,14,1014.4,1.2,94,13,6000,14.816,,,290,13.8,19.3,,,,,,,,1,wg-a,,,,AAXX 15184 07181 02256 82908 10140 20130 39734 40144 53012 61000 70162 875// 91800 333 10193 20138 ////=
07181,1999-09-15 19:00:00,14,1014.7,1.3,94,13,12000,11.112,,,290,,,,,,,,,,0,wg-a,,,,AAXX 15194 07181 32262 82906 10140 20130 39737 40147 51013 700// 875// 91900=
07181,1999-09-15 20:00:00,14,1014.8,1,94,13,15000,3.704,,,280,,,,,,,,,,0,wg-a,,,,AAXX 15204 07181 32265 72802 10140 20130 39738 40148 51010 700// 8553/ 92000=
07181,1999-09-15 21:00:00,13,1015.2,0.7,94,12,15000,11.112,,,250,,,,,,,,,,0,wg-a,,,,AAXX 15214 07181 32265 72506 10130 20120 39741 40152 52007 700// 8553/ 92100=
07181,1999-09-15 22:00:00,13,1015.2,0.4,94,12,15000,3.704,,,290,,,0,,,,,,,0,wg-a,,,,AAXX 15224 07181 12565 72902 10130 20120 39741 40152 51004 60005 700// 8453/ 92200=
07181,1999-09-16 00:00:00,13,1015,-0.3,94,12,15000,7.408,,,280,,,,0,,,,,,0,wg-a,,,,AAXX 16004 07181 12565 72804 10130 20120 39738 40150 57003 60007 700// 8353/ 90000=
07181,1999-09-16 01:00:00,13,1015.2,-0.1,94,12,10000,3.704,,,290,,,,,,,,,,0,wg-a,,,,AAXX 16014 07181 32560 /2902 10130 20120 39740 40152 55001 700// 82530 90100=
07181,1999-09-16 02:00:00,13,1015.3,0.3,94,12,7000,3.704,,,270,,,,,,,,,,0,wg-a,,,,AAXX 16024 07181 32357 42702 10130 20120 39741 40153 53003 700// 82730 90200=
07181,1999-09-16 03:00:00,13,1015.2,0.2,94,12,7000,3.704,,,250,,,,,,,,,,0,wg-a,,,,AAXX 16034 07181 32357 /2502 10130 20120 39740 40152 50002 700// 82730 90300=
07181,1999-09-16 04:00:00,12,1015.1,-0.1,100,12,7000,7.408,,,240,,,,,,,,,,0,wg-a,,,,AAXX 16044 07181 32357 62404 10120 20120 39739 40151 58001 700// 84730 90400=
07181,1999-09-16 05:00:00,11,1015.6,0.1,100,11,3500,3.704,,,240,,,,,,,,,,10,wg-a,,,,AAXX 16054 07181 32335 /2402 10110 20110 39742 40156 53001 71022 85700 90500=
07181,1999-09-16 06:00:00,11,1015.8,0.3,100,11,3700,0,,,0,10.7,13.8,,,,,2,,,10,wg-a,,,,AAXX 16064 07181 12337 50000 10110 20110 39743 40158 53003 60024 71011 84730 90600 333 10138 20107=
07181,1999-09-16 07:00:00,12,1015.6,0.4,100,12,500,3.704,,,230,,,,,,,,,,10,wg-a,,,,AAXX 16074 07181 32200 /2302 10120 20120 39743 40156 51004 710// 86700 90700=
07181,1999-09-16 08:00:00,14,1015.3,0.1,94,13,8000,3.704,,,260,,,,,,,,,,0,wg-a,,,,AAXX 16084 07181 32258 /2602 10140 20130 39743 40153 51001 700// 85701 90800=
07181,1999-09-16 09:00:00,16,1014.9,-0.1,82,13,11000,7.408,,,180,,,,,,,,,,0,wg-a,,,,AAXX 16094 07181 32461 51804 10160 20130 39742 40149 58001 700// 84201 90900=
07181,1999-09-16 10:00:00,16,1014.8,-0.2,72,11,18000,7.408,,,170,,,,,,,,,,0,wg-a,,,,AAXX 16104 07181 32568 51704 10160 20110 39741 40148 58002 700// 84201 91000=
07181,1999-09-16 11:00:00,18,1014.2,-0.6,64,11,27000,7.408,,,240,,,,,,,,,,,wg-a,,,,AAXX 16114 07181 32/77 /2404 10180 20110 39737 40142 58006 91100=
07181,1999-09-16 12:00:00,19,1013.6,-0.9,56,10,25000,11.112,,,250,,,,,,,,,,0,wg-a,,,,AAXX 16124 07181 32675 52506 10190 20100 39733 40136 58009 700// 84201 91200=
07181,1999-09-16 13:00:00,19,1013.1,-1.2,56,10,25000,3.704,,,200,,,,,,,,,,0,wg-a,,,,AAXX 16134 07181 32675 42002 10190 20100 39729 40131 57012 700// 83201 91300=
07181,1999-09-16 14:00:00,20,1012.4,-1.4,46,8,25000,11.112,,,240,,,,,,,,,,0,wg-a,,,,AAXX 16144 07181 32775 22406 10200 20080 39723 40124 58014 700// 81101 91400=
07181,1999-09-16 15:00:00,20,1012.1,-1.3,49,9,25000,7.408,,,240,,,,,,,,,,0,wg-a,,,,AAXX 16154 07181 32/75 22404 10200 20090 39720 40121 56013 700// 80001 91500=
07181,1999-09-16 16:00:00,20,1011.8,-1.1,53,10,45000,7.408,,,200,,,,,,,,,,,wg-a,,,,AAXX 16164 07181 32/83 /2004 10200 20100 39718 40118 56011 91600=
07181,1999-09-16 17:00:00,19,1011.9,-0.6,52,9,45000,7.408,,,230,,,,,,,,,,,wg-a,,,,AAXX 16174 07181 32/83 /2304 10190 20090 39717 40119 56006 91700=
07181,1999-09-16 18:00:00,17.1,1012.3,-0.2,62,9.8,30000,7.408,,,160,10.8,20.6,,,,,,,,,og-post,,,,AAXX 16184 07181 32980 11604 10171 20098 39718 40123 55002 80001 333 10206 20108 81073=
07181,1999-09-16 19:00:00,15,1012.7,0.1,75,10.6,40000,11.112,,,150,,,,,,,,,,,og-post,,,,AAXX 16194 07181 36/82 /1506 10150 20106 39719 40127 53001=
07181,1999-09-16 20:00:00,14.1,1012.7,0.1,79,10.5,25000,11.112,,,150,,,,,,,,,,,og-post,,,,AAXX 16204 07181 32975 31506 10141 20105 39718 40127 50001 80001 333 83073=
07181,1999-09-16 21:00:00,13.3,1012.7,-0.1,83,10.5,20000,7.408,,,200,,,,,,,,,,,og-post,,,,AAXX 16214 07181 32970 42004 10133 20105 39717 40127 58001 80001 333 84073=
07181,1999-09-16 22:00:00,13.1,1012.3,-0.6,84,10.5,20000,11.112,,,160,,,,,,,,,,,og-post,,,,AAXX 16224 07181 36/70 /1606 10131 20105 39713 40123 58006=
07181,1999-09-16 23:00:00,12.8,1012.2,-0.7,86,10.5,20000,7.408,,,170,,,,,,,,,,,og-post,,,,AAXX 16234 07181 32970 51704 10128 20105 39711 40122 58007 82031 333 82360 85073=
07181,1999-09-17 00:00:00,11.7,1012.1,-0.8,90,10.1,15000,7.408,,,150,,,,,,,,,,,og-post,,,,AAXX 17004 07181 32965 51504 10117 20101 39709 40121 56008 82031 333 82360 85073=
07181,1999-09-17 01:00:00,11.8,1011.7,-0.8,90,10.2,14000,11.112,,,150,,,,,,,,,,,og-post,,,,AAXX 17014 07181 36/64 /1506 10118 20102 39705 40117 58008=
07181,1999-09-17 02:00:00,11.7,1011.5,-0.8,91,10.3,15000,11.112,,,150,,,,,,,,,,,og-post,,,,AAXX 17024 07181 32965 51506 10117 20103 39703 40115 57008 82031 333 82360 85073=
07181,1999-09-17 03:00:00,11.8,1011.1,-1,91,10.4,15000,11.112,,,150,,,,,,,,,,,og-post,,,,AAXX 17034 07181 32965 51506 10118 20104 39699 40111 57010 82031 333 82360 85073=
07181,1999-09-17 05:00:00,11.1,1010.6,-0.9,95,10.3,8000,3.704,,,190,,,,,,,,,,,og-post,,,,AAXX 17054 07181 32958 61902 10111 20103 39694 40106 56009 82031 333 82360 86073=
07181,1999-09-17 06:00:00,11.1,1010.7,-0.4,96,10.5,8000,7.408,,,130,10.9,17,,,,,0,,8,,og-post,,,,AAXX 17064 07181 32658 71304 10111 20105 39695 40107 55004 84531 333 10170 20109 31008 55/// 70000 84636 85360 86075=
07181,1999-09-17 07:00:00,12.1,1010.4,-0.1,97,11.6,8000,3.704,,,230,,,,,,,,,,,og-post,,,,AAXX 17074 07181 32658 72302 10121 20116 39693 40104 58001 84531 333 84640 85360 86075=
07181,1999-09-17 08:00:00,13.6,1010.5,0.2,92,12.3,9000,7.408,,,230,,,,,,,,,,,og-post,,,,AAXX 17084 07181 32659 72304 10136 20123 39696 40105 53002 875// 333 87643=
07181,1999-09-17 10:00:00,14.2,1010.7,0.6,86,11.9,15000,11.112,,,280,,,,,,,,,,,og-post,,,,AAXX 17104 07181 32465 72806 10142 20119 39699 40107 50006 878// 333 82816 87643=
07181,1999-09-17 11:00:00,14,1011,0.6,90,12.4,15000,14.816,,,260,,,,,,,,,,,og-post,,,,AAXX 17114 07181 32465 72608 10140 20124 39702 40110 51006 878// 333 85813 87630=
07181,1999-09-17 12:00:00,14,1010.6,-0.2,87,11.9,15000,7.408,,,270,,,,,,,,,,,og-post,,,,AAXX 17124 07181 32465 72704 10140 20119 39698 40106 58002 878// 333 83813 87636=
07181,1999-09-17 13:00:00,13.7,1011,0.2,90,12.1,12000,11.112,,,280,,,,,,,,,,60,og-post,,,,AAXX 17134 07181 21462 72806 10137 20121 39701 40110 52002 76062 878// 333 69905 85812 87636=
07181,1999-09-17 14:00:00,13.7,1011.2,0.1,85,11.2,12000,7.408,,,240,,,,,,,,,,60,og-post,,,,AAXX 17144 07181 21462 72404 10137 20112 39703 40112 53001 76066 878// 333 69905 82812 87636=
07181,1999-09-17 15:00:00,13.9,1011.4,0.7,89,12.1,15000,11.112,,,250,,,,,,,,,,21,og-post,,,,AAXX 17154 07181 21465 72506 10139 20121 39705 40114 51007 72162 878// 333 69907 84812 87636=
07181,1999-09-17 16:00:00,13.4,1011.6,0.6,96,12.8,12000,7.408,,,240,,,0.6,,,,,,,60,og-post,,,,AAXX 17164 07181 21462 72404 10134 20128 39707 40116 52006 76062 878// 333 69965 85810 87636=
07181,1999-09-17 17:00:00,13.1,1011.8,0.5,95,12.3,12000,7.408,,,250,,,0.2,,,,,,,60,og-post,,,,AAXX 17174 07181 21462 82504 10131 20123 39708 40118 51005 76066 878// 333 69925 85810 87646=
07181,1999-09-17 18:00:00,12.8,1011.6,0.1,95,12,29000,3.704,,,270,11.1,14.3,,0.8,,0.8,,,,,og-post,,,,AAXX 17184 07181 /6/79 /2702 10128 20120 39706 40116 50001 69982 333 10143 20111 69987=
07181,1999-09-17 19:00:00,12.5,1012.1,0.3,96,11.9,15000,3.704,,,280,,,,,,,,,,21,og-post,,,,AAXX 17194 07181 21565 72802 10125 20119 39710 40121 53003 72162 8523/ 333 69905 84820 85360=
07181,1999-09-17 20:00:00,12,1012.7,0.7,94,11,15000,7.408,,,170,,,,,,,,,,0,wg-a,,,,AAXX 17204 07181 32465 51704 10120 20110 39715 40127 53007 700// 8323/ 92000=
07181,1999-09-17 21:00:00,11,1012.9,0.9,100,11,15000,7.408,,,150,,,,,,,,,,1,wg-a,,,,AAXX 17214 07181 02/65 41504 10110 20110 39715 40129 51009 61000 70161 84030 92100 333 ////=
07181,1999-09-17 22:00:00,10,1012.7,0.3,100,10,4000,7.408,,,150,,,,,,,,,,40,wg-a,,,,AAXX 17224 07181 32/40 /1504 10100 20100 39713 40127 50003 74000 81030 92200=
07181,1999-09-17 23:00:00,9,1013.1,-0.1,100,9,900,7.408,,,200,,,,,,,,,,44,wg-a,,,,AAXX 17234 07181 32/09 02004 10090 20090 39714 40131 55001 74440 80000 92300=
07181,1999-09-18 00:00:00,10,1013.1,-0,100,10,200,3.704,,,170,,,,,,,,,,,wg-a,,,,AAXX 18004 07181 32/02 /1702 10100 20100 39715 40131 55000 90000=
07181,1999-09-18 02:00:00,11,1012.5,-0.3,100,11,900,7.408,,,230,,,,,,,,,,44,wg-a,,,,AAXX 18024 07181 32109 82304 10110 20110 39711 40125 58003 74444 887// 90200=
07181,1999-09-18 04:00:00,10,1011.5,-1.1,100,10,700,3.704,,,220,,,,,,,,,,44,wg-a,,,,AAXX 18044 07181 32107 82202 10100 20100 39701 40115 58011 74444 887// 90400=
07181,1999-09-18 05:00:00,10,1011.8,-0.7,100,10,200,3.704,,,120,,,,,,,,,,44,wg-a,,,,AAXX 18054 07181 32102 81202 10100 20100 39704 40118 55007 74444 887// 90500=
07181,1999-09-18 06:00:00,10,1012.3,0.5,100,10,200,3.704,,,130,8.8,12.8,,,,,1,,,44,wg-a,,,,AAXX 18064 07181 12002 81302 10100 20100 39708 40123 53005 60014 74444 887// 90600 333 10128 20088=
07181,1999-09-18 07:00:00,10,1012,0.5,100,10,300,11.112,,,110,,,,,,,,,,42,wg-a,,,,AAXX 18074 07181 32103 81106 10100 20100 39706 40120 50005 74244 887// 90700=
07181,1999-09-18 08:00:00,10,1012.4,0.6,100,10,900,7.408,,,130,,,,,,,,,,42,wg-a,,,,AAXX 18084 07181 32109 81304 10100 20100 39710 40124 52006 74244 887// 90800=
07181,1999-09-18 09:00:00,11,1012.4,0.2,100,11,2000,7.408,,,180,,,,,,,,,,10,wg-a,,,,AAXX 18094 07181 32120 81804 10110 20110 39710 40124 53002 71042 887// 90900=
07181,1999-09-18 10:00:00,12,1011.7,0,100,12,7000,3.704,,,70,,,,,,,,,,0,wg-a,,,,AAXX 18104 07181 32157 80702 10120 20120 39706 40117 50000 700// 875// 91000=
07181,1999-09-18 11:00:00,14,1010.2,-1.6,88,12,15000,7.408,,,130,,,,,,,,,,0,wg-a,,,,AAXX 18114 07181 32465 /1304 10140 20120 39694 40102 58016 700// 85201 91100=
07181,1999-09-18 12:00:00,17,1009.5,-1.9,68,11,20000,7.408,,,170,,,,,,,,,,1,wg-a,,,,AAXX 18124 07181 32470 31704 10170 20110 39691 40095 56019 70141 83101 91200=
07181,1999-09-18 13:00:00,18,1008.4,-2.4,64,11,25000,11.112,,,100,,,,,,,,,,0,wg-a,,,,AAXX 18134 07181 32575 31006 10180 20110 39682 40084 56024 700// 82101 91300=
07181,1999-09-18 14:00:00,19,1007.6,-1.8,60,11,500,7.408,,,140,,,,,,,,,,0,wg-a,,,,AAXX 18144 07181 32600 31404 10190 20110 39676 40076 58018 700// 81104 91400=
07181,1999-09-18 15:00:00,19,1007,-2.1,56,10,35000,7.408,,,100,,,,,,,,,,0,wg-a,,,,AAXX 18154 07181 32681 41004 10190 20100 39670 40070 56021 700// 81104 91500=
07181,1999-09-18 16:00:00,20,1006.5,-1.6,56,11,40000,7.408,,,90,,,,,,,,,,0,wg-a,,,,AAXX 18164 07181 32782 40904 10200 20110 39666 40065 56016 700// 81104 91600=
07181,1999-09-18 17:00:00,18,1006.4,-1.3,64,11,40000,7.408,,,80,,,,,,,,,,0,wg-a,,,,AAXX 18174 07181 32782 50804 10180 20110 39663 40064 56013 700// 81104 91700=
07181,1999-09-18 18:00:00,16,1006.1,-1.3,72,11,25000,7.408,,,90,9.6,19.8,,,,,,,,0,wg-a,,,,AAXX 18184 07181 32/75 50904 10160 20110 39657 40061 58013 700// 80002 91800 333 10198 20096=
07181,1999-09-18 19:00:00,14,1006.5,-0.8,88,12,25000,7.408,,,70,,,,,,,,,,0,wg-a,,,,AAXX 18194 07181 32/75 50704 10140 20120 39658 40065 55008 700// 80002 91900=
07181,1999-09-18 20:00:00,14,1006.1,-0.9,82,11,20000,3.704,,,80,,,,,,,,,,0,wg-a,,,,AAXX 18204 07181 32/70 70802 10140 20110 39654 40061 56009 700// 80002 92000=
07181,1999-09-18 21:00:00,14,1005.7,-0.6,82,11,20000,7.408,,,120,,,,,,,,,,0,wg-a,,,,AAXX 18214 07181 32770 71204 10140 20110 39651 40057 58006 700// 81502 92100=
07181,1999-09-18 22:00:00,14,1005.1,-1.4,82,11,20000,11.112,,,110,,,,,,,,,,0,wg-a,,,,AAXX 18224 07181 32770 51106 10140 20110 39644 40051 58014 700// 81502 92200=
07181,1999-09-18 23:00:00,12,1005,-1.3,88,10,20000,7.408,,,110,,,,,,,,,,0,wg-a,,,,AAXX 18234 07181 32770 51104 10120 20100 39641 40050 57013 700// 81502 92300=
07181,1999-09-19 00:00:00,12,1004.5,-1.5,94,11,20000,11.112,,,120,,,,,,,,,,0,wg-a,,,,AAXX 19004 07181 32770 51206 10120 20110 39636 40045 56015 700// 81502 90000=
07181,1999-09-19 01:00:00,13,1003.9,-1.1,88,11,20000,7.408,,,110,,,,,,,,,,0,wg-a,,,,AAXX 19014 07181 32770 51104 10130 20110 39633 40039 57011 700// 81502 90100=
07181,1999-09-19 02:00:00,13,1003.8,-1,88,11,20000,14.816,,,150,,,,,,,,,,0,wg-a,,,,AAXX 19024 07181 32/70 71508 10130 20110 39631 40038 56010 700// 81032 90200=
07181,1999-09-19 03:00:00,12,1003.5,-0.9,88,10,20000,11.112,,,100,,,,,,,,,,0,wg-a,,,,AAXX 19034 07181 32/70 71006 10120 20100 39627 40035 58009 700// 81032 90300=
07181,1999-09-19 04:00:00,12,1003,-1.1,88,10,15000,11.112,,,140,,,,,,,,,,0,wg-a,,,,AAXX 19044 07181 32/65 71406 10120 20100 39622 40030 58011 700// 82032 90400=
07181,1999-09-19 05:00:00,12,1002.7,-1.2,94,11,15000,11.112,,,140,,,,,,,,,,0,wg-a,,,,AAXX 19054 07181 32/65 71406 10120 20110 39619 40027 56012 700// 82032 90500=
07181,1999-09-19 07:00:00,14,1002.2,-0.4,82,11,20000,7.408,,,130,,,,,,,,,,0,wg-a,,,,AAXX 19074 07181 32/70 71304 10140 20110 39618 40022 56004 700// 84032 90700=
07181,1999-09-19 08:00:00,15,1001.6,-0.6,82,12,20000,7.408,,,90,,,,,,,,,,0,wg-a,,,,AAXX 19084 07181 32/70 70904 10150 20120 39613 40016 58006 700// 84032 90800=
07181,1999-09-19 09:00:00,17,1001.4,-0.4,77,13,20000,7.408,,,140,,,,,,,,,,0,wg-a,,,,AAXX 19094 07181 32/70 71404 10170 20130 39614 40014 55004 700// 84032 90900=
07181,1999-09-19 10:00:00,17,1001.1,-0.8,82,14,15000,11.112,,,110,,,0,,,,,,,21,wg-a,,,,AAXX 19104 07181 12865 71106 10170 20140 39610 40011 56008 60005 72162 85072 91000=
07181,1999-09-19 11:00:00,19,1000,-1,78,15,20000,11.112,,,140,,,,,,,,,,21,wg-a,,,,AAXX 19114 07181 02870 71406 10190 20150 39603 40000 58010 61000 72162 85072 91100 333 ////=
07181,1999-09-19 12:00:00,19,999.3,-1.8,78,15,20000,7.408,,,90,,,,0,,,,,,1,wg-a,,,,AAXX 19124 07181 12/70 70904 10190 20150 39596 49993 58018 60007 70162 86072 91200=
07181,1999-09-19 13:00:00,20,998.5,-2,73,15,20000,11.112,,,100,,,,,,,,,,0,wg-a,,,,AAXX 19134 07181 32/70 71006 10200 20150 39590 49985 56020 700// 83072 91300=
07181,1999-09-19 14:00:00,21,998.5,-1.2,73,16,20000,11.112,,,130,,,,,,,,,,0,wg-a,,,,AAXX 19144 07181 32/70 71306 10210 20160 39591 49985 55012 700// 84072 91400=
07181,1999-09-19 15:00:00,19,998.2,-1,83,16,11000,7.408,,,120,,,,0,,,,,,61,wg-a,,,,AAXX 19154 07181 12661 71204 10190 20160 39586 49982 56010 60007 76162 8257/ 91500=
07181,1999-09-19 16:00:00,18,996.7,-2,83,15,15000,11.112,,,80,,,0,,,,,,,21,wg-a,,,,AAXX 19164 07181 12865 70806 10180 20150 39570 49967 58020 60005 72162 8707/ 91600=
07181,1999-09-19 17:00:00,18,996,-2.8,77,14,40000,14.816,,,80,,,,,,,,,,,wg-a,,,,AAXX 19174 07181 32/82 /0808 10180 20140 39563 49960 58028 91700=
07181,1999-09-19 18:00:00,18,995.4,-2.8,77,14,15000,11.112,,,80,13.2,20.8,,0,,,,,,1,wg-a,,,,AAXX 19184 07181 12/65 70806 10180 20140 39558 49954 56028 60007 70162 86072 91800 333 10208 20132=
07181,1999-09-19 19:00:00,18,996.2,-0.5,83,15,15000,7.408,,,100,,,,,,,,,,,wg-a,,,,AAXX 19194 07181 32/65 /1004 10180 20150 39565 49962 55005 91900=
07181,1999-09-19 20:00:00,17,995,-1,88,15,11000,3.704,,,40,,,,,,,,,,0,wg-a,,,,AAXX 19204 07181 32761 80402 10170 20150 39553 49950 58010 700// 8257/ 92000=
07181,1999-09-19 21:00:00,16,994.8,-0.8,88,14,10000,0,,,0,,,,,,,,,,0,wg-a,,,,AAXX 19214 07181 32760 80000 10160 20140 39550 49948 58008 700// 8357/ 92100=
07181,1999-09-19 22:00:00,16,995.5,-0.9,88,14,10000,3.704,,,220,,,,,,,,,,60,wg-a,,,,AAXX 19224 07181 02760 82202 10160 20140 39556 49955 55009 61000 76062 8357/ 92200 333 ////=
07181,1999-09-19 23:00:00,15,995.1,-0.2,94,14,10000,3.704,,,250,,,0,,,,,,,60,wg-a,,,,AAXX 19234 07181 12760 82502 10150 20140 39551 49951 58002 60005 76066 8357/ 92300=
07181,1999-09-20 00:00:00,16,994.5,-0.4,88,14,10000,7.408,,,190,,,,0,,,,,,60,wg-a,,,,AAXX 20004 07181 12760 81904 10160 20140 39546 49945 58004 60007 76062 8457/ 90000=
07181,1999-09-20 01:00:00,15,993.9,-1.6,94,14,19000,7.408,,,130,,,,,,,,,,,wg-a,,,,AAXX 20014 07181 32/69 /1304 10150 20140 39540 49939 58016 90100=
07181,1999-09-20 02:00:00,15,993.6,-1.4,94,14,10000,7.408,,,170,,,0,,,,,,,60,wg-a,,,,AAXX 20024 07181 12760 81704 10150 20140 39537 49936 56014 60005 76066 8457/ 90200=
07181,1999-09-20 03:00:00,15,993.4,-1.2,94,14,10000,11.112,,,100,,,,1,,,,,,60,wg-a,,,,AAXX 20034 07181 12760 81006 10150 20140 39534 49934 56012 60017 76066 8457/ 90300=
07181,1999-09-20 04:00:00,15,994.2,0.2,94,14,10000,7.408,,,180,,,0,,,,,,,60,wg-a,,,,AAXX 20044 07181 12760 81804 10150 20140 39542 49942 53002 60005 76066 8457/ 90400=
07181,1999-09-20 05:00:00,15,995,1.3,94,14,10000,18.52,,,160,,,1,,,,,,,60,wg-a,,,,AAXX 20054 07181 12660 81610 10150 20140 39550 49950 53013 60015 76066 8457/ 90500=
07181,1999-09-20 06:00:00,15,994.7,1.2,94,14,20000,7.408,,,180,14.5,18.2,,1,,,,,,,wg-a,,,,AAXX 20064 07181 12/70 /1804 10150 20140 39546 49947 50012 60017 90600 333 10182 20145=
07181,1999-09-20 07:00:00,15,995.9,1.6,94,14,15000,14.816,,,180,,,,,,,,,,0,wg-a,,,,AAXX 20074 07181 32465 71808 10150 20140 39558 49959 53016 700// 8577/ 90700=
07181,1999-09-20 08:00:00,14,997.1,1.9,94,13,15000,14.816,,,200,,,,,,,,,,0,wg-a,,,,AAXX 20084 07181 32465 72008 10140 20130 39569 49971 53019 700// 8357/ 90800=
07181,1999-09-20 09:00:00,14,997.9,3,94,13,500,14.816,,,170,,,,,,,,,,21,wg-a,,,,AAXX 20094 07181 02500 71708 10140 20130 39576 49979 51030 61000 72162 8687/ 90900 333 ////=
07181,1999-09-20 10:00:00,15,998.2,2.2,88,13,500,18.52,,,190,,,,,,,,,,0,wg-a,,,,AAXX 20104 07181 32500 71910 10150 20130 39580 49982 51022 700// 8687/ 91000=
07181,1999-09-20 11:00:00,17,998.3,1.5,77,13,500,22.224,,,190,,,,,,,,,,0,wg-a,,,,AAXX 20114 07181 32500 71912 10170 20130 39584 49983 51015 700// 85231 91100=
07181,1999-09-20 13:00:00,17,998.9,1,68,11,500,18.52,,,190,,,,,,,,,,0,wg-a,,,,AAXX 20134 07181 32500 71910 10170 20110 39590 49989 51010 700// 878// 91300=
07181,1999-09-20 14:00:00,17,999,0.7,72,12,55000,18.52,,,160,,,,,,,,,,,wg-a,,,,AAXX 20144 07181 32/85 /1610 10170 20120 39591 49990 51007 91400=
07181,1999-09-20 15:00:00,18,999,0.2,73,13,500,14.816,,,170,,,,,,,,,,0,wg-a,,,,AAXX 20154 07181 32700 71708 10180 20130 39592 49990 53002 700// 86801 91500=
07181,1999-09-20 16:00:00,18,999.1,0.3,68,12,500,18.52,,,180,,,,,,,,,,0,wg-a,,,,AAXX 20164 07181 32700 41810 10180 20120 39593 49991 52003 700// 82801 91600=
07181,1999-09-20 17:00:00,17,999.5,0.5,72,12,500,7.408,,,150,,,,,,,,,,0,wg-a,,,,AAXX 20174 07181 32700 31504 10170 20120 39596 49995 53005 700// 81201 91700=
07181,1999-09-20 18:00:00,15,1000.1,0.7,82,12,500,11.112,,,150,14.2,18.4,,,,,,,,0,wg-a,,,,AAXX 20184 07181 32700 31506 10150 20120 39599 40001 53007 700// 81201 91800 333 10184 20142=
07181,1999-09-20 19:00:00,15,1001.1,1.4,82,12,500,11.112,,,150,,,,,,,,,,0,wg-a,,,,AAXX 20194 07181 32700 51506 10150 20120 39607 40011 53014 700// 83530 91900=
07181,1999-09-20 20:00:00,16,1001.4,1.6,72,11,500,14.816,,,190,,,,,,,,,,0,wg-a,,,,AAXX 20204 07181 32700 51908 10160 20110 39612 40014 53016 700// 83530 92000=
07181,1999-09-20 21:00:00,15,1001.7,1.5,77,11,500,14.816,,,200,,,,,,,,,,0,wg-a,,,,AAXX 20214 07181 32/00 52008 10150 20110 39614 40017 51015 700// 83071 92100=
07181,1999-09-20 22:00:00,14,1002.6,1.4,77,10,500,14.816,,,210,,,,,,,,,,0,wg-a,,,,AAXX 20224 07181 32/00 52108 10140 20100 39621 40026 53014 700// 83071 92200=
07181,1999-09-20 23:00:00,14,1003.1,1.3,72,9,500,18.52,,,200,,,,,,,,,,0,wg-a,,,,AAXX 20234 07181 32/00 42010 10140 20090 39625 40031 53013 700// 82031 92300=
07181,1999-09-21 00:00:00,14,1003.4,1.4,77,10,500,14.816,,,170,,,,,,,,,,0,wg-a,,,,AAXX 21004 07181 32/00 51708 10140 20100 39628 40034 51014 700// 83031 90000=
07181,1999-09-21 01:00:00,13,1003.4,0.6,82,10,500,14.816,,,160,,,,,,,,,,0,wg-a,,,,AAXX 21014 07181 32/00 51608 10130 20100 39627 40034 50006 700// 83031 90100=
07181,1999-09-21 02:00:00,12,1003.1,-0.2,88,10,25000,14.816,,,150,,,,,,,,,,0,wg-a,,,,AAXX 21024 07181 32/75 21508 10120 20100 39623 40031 58002 700// 80001 90200=
07181,1999-09-21 03:00:00,12,1003,-0.6,88,10,25000,18.52,,,160,,,,,,,,,,0,wg-a,,,,AAXX 21034 07181 32/75 21610 10120 20100 39622 40030 57006 700// 80001 90300=
07181,1999-09-21 04:00:00,12,1002.7,-0.8,82,9,25000,18.52,,,160,,,,,,,,,,0,wg-a,,,,AAXX 21044 07181 32/75 21610 10120 20090 39619 40027 56008 700// 80001 90400=
07181,1999-09-21 05:00:00,12,1002.7,-0.4,82,9,20000,18.52,,,160,,,,,,,,,,0,wg-a,,,,AAXX 21054 07181 32870 31610 10120 20090 39619 40027 56004 700// 82031 90500=
07181,1999-09-21 06:00:00,12,1003,-0,82,9,20000,18.52,,,170,11.6,15.9,,,,,,,,0,wg-a,,,,AAXX 21064 07181 12870 61710 10120 20090 39622 40030 55000 60004 700// 8/030 90600 333 10159 20116=
07181,1999-09-21 07:00:00,13,1003.4,0.8,82,10,20000,18.52,,,170,,,,,,,,,,0,wg-a,,,,AAXX 21074 07181 32770 71710 10130 20100 39627 40034 53008 700// 8553/ 90700=
07181,1999-09-21 08:00:00,14,1003.8,1.4,77,10,15000,25.928,,,190,,,,,,,,,,25,wg-a,,,,AAXX 21084 07181 02665 71914 10140 20100 39633 40038 53014 61000 72586 8583/ 90800 333 ////=
07181,1999-09-21 09:00:00,15,1004.4,1.7,77,11,20000,29.632,,,200,,,,,,,,,,3,wg-a,,,,AAXX 21094 07181 02570 72016 10150 20110 39639 40044 53017 61000 70386 8583/ 90900 333 ////=
07181,1999-09-21 10:00:00,15,1004.9,1.8,82,12,25000,29.632,,,200,,,,,,,,,,0,wg-a,,,,AAXX 21104 07181 32575 72016 10150 20120 39645 40049 52018 700// 878// 91000=
07181,1999-09-21 11:00:00,16,1005,1.4,77,12,25000,29.632,,50.004,200,,,,,,,,,,15,wg-a,,,,AAXX 21114 07181 32575 72016 10160 20120 39647 40050 51014 71522 878// 91100 333 91027=
07181,1999-09-21 12:00:00,17,1004.8,0.7,72,12,500,29.632,,,190,,,,,,,,,,2,wg-a,,,,AAXX 21124 07181 32500 71916 10170 20120 39646 40048 50007 70286 878// 91200=
07181,1999-09-21 13:00:00,18,1004.5,0,68,12,35000,29.632,,,190,,,,,,,,,,0,wg-a,,,,AAXX 21134 07181 32581 71916 10180 20120 39645 40045 50000 700// 878// 91300=
07181,1999-09-21 14:00:00,19,1004.4,-0.2,64,12,35000,25.928,,,200,,,,,,,,,,0,wg-a,,,,AAXX 21144 07181 32681 72014 10190 20120 39645 40044 56002 700// 84802 91400=
07181,1999-09-21 15:00:00,19,1004,-0.5,64,12,25000,22.224,,,180,,,,,,,,,,25,wg-a,,,,AAXX 21154 07181 02675 71812 10190 20120 39641 40040 58005 61000 72586 83202 91500 333 ////=
07181,1999-09-21 16:00:00,18,1004.4,-0.1,73,13,25000,18.52,,,170,,,,,,,,,,0,wg-a,,,,AAXX 21164 07181 32675 71710 10180 20130 39644 40044 55001 700// 82202 91600=
07181,1999-09-21 17:00:00,17,1004.2,-0.4,72,12,20000,18.52,,,170,,,,,,,,,,0,wg-a,,,,AAXX 21174 07181 32670 81710 10170 20120 39641 40042 56004 700// 81132 91700=
07181,1999-09-21 18:00:00,17,1004.7,0.4,72,12,20000,18.52,,,170,12.3,19.3,,,,,,,,1,wg-a,,,,AAXX 21184 07181 32670 81710 10170 20120 39645 40047 53004 70186 8483/ 91800 333 10193 20123=
07181,1999-09-21 19:00:00,15,1005.7,0.9,82,12,20000,18.52,,,190,,,0,,,,,,,80,wg-a,,,,AAXX 21194 07181 12570 81910 10150 20120 39653 40057 53009 60005 78086 8483/ 91900=
07181,1999-09-21 20:00:00,14,1005.9,1.2,94,13,15000,7.408,,,150,,,,,,,,,,21,wg-a,,,,AAXX 21204 07181 02565 81504 10140 20130 39653 40059 51012 61000 72162 8483/ 92000 333 ////=
07181,1999-09-21 21:00:00,14,1006,0.9,94,13,15000,18.52,,,180,,,,0,,,,,,25,wg-a,,,,AAXX 21214 07181 12665 81810 10140 20130 39654 40060 51009 60007 72586 8483/ 92100=
07181,1999-09-21 22:00:00,14,1006,0.1,94,13,12000,14.816,,,180,,,0,,,,,,,60,wg-a,,,,AAXX 21224 07181 12462 81808 10140 20130 39654 40060 52001 60005 76062 8553/ 92200=
07181,1999-09-21 23:00:00,14,1006,0.1,94,13,12000,29.632,,,190,,,0,,,,,,,60,wg-a,,,,AAXX 21234 07181 12462 81916 10140 20130 39654 40060 51001 60005 76066 8553/ 92300=
07181,1999-09-22 00:00:00,15,1006.6,0.6,88,13,12000,29.632,,,200,,,,0,,,,,,21,wg-a,,,,AAXX 22004 07181 12462 82016 10150 20130 39660 40066 53006 60007 72186 8553/ 90000=
07181,1999-09-22 01:00:00,15,1007.1,1.2,88,13,15000,22.224,,,200,,,,,,,,,,0,wg-a,,,,AAXX 22014 07181 32465 82012 10150 20130 39666 40071 53012 700// 8553/ 90100=
07181,1999-09-22 02:00:00,15,1007.4,1.4,88,13,15000,14.816,,,200,,,,,,,,,,0,wg-a,,,,AAXX 22024 07181 32465 82008 10150 20130 39668 40074 51014 700// 8553/ 90200=
07181,1999-09-22 03:00:00,15,1007.4,0.9,88,13,15000,14.816,,,200,,,,,,,,,,0,wg-a,,,,AAXX 22034 07181 32465 72008 10150 20130 39669 40074 51009 700// 8453/ 90300=
07181,1999-09-22 04:00:00,15,1007.4,0.3,88,13,20000,18.52,,,210,,,,,,,,,,0,wg-a,,,,AAXX 22044 07181 32770 62110 10150 20130 39669 40074 51003 700// 82531 90400=
07181,1999-09-22 05:00:00,15,1007.7,0.3,88,13,20000,18.52,,,180,,,,,,,,,,0,wg-a,,,,AAXX 22054 07181 32770 61810 10150 20130 39671 40077 53003 700// 81531 90500=
07181,1999-09-22 06:00:00,15,1008.1,0.7,88,13,20000,14.816,,,180,13.9,17,,,,,1,,,0,wg-a,,,,AAXX 22064 07181 12670 71808 10150 20130 39676 40081 53007 60014 700// 8553/ 90600 333 10170 20139=
07181,1999-09-22 07:00:00,16,1008.1,0.8,82,13,20000,22.224,,,180,,,,,,,,,,0,wg-a,,,,AAXX 22074 07181 32670 71812 10160 20130 39677 40081 51008 700// 8553/ 90700=
07181,1999-09-22 08:00:00,17,1008.3,0.9,77,13,20000,22.224,,,200,,,,,,,,,,0,wg-a,,,,AAXX 22084 07181 32670 72012 10170 20130 39680 40083 51009 700// 8653/ 90800=
07181,1999-09-22 09:00:00,17,1008.7,0.8,82,14,20000,18.52,,,200,,,,,,,,,,21,wg-a,,,,AAXX 22094 07181 02670 72010 10170 20140 39684 40087 53008 61000 72162 8653/ 90900 333 ////=
07181,1999-09-22 10:00:00,18,1008.9,1,77,14,20000,18.52,,,200,,,,,,,,,,0,wg-a,,,,AAXX 22104 07181 32670 72010 10180 20140 39687 40089 52010 700// 875// 91000=
07181,1999-09-22 11:00:00,19,1009,0.9,73,14,20000,22.224,,,190,,,,,,,,,,0,wg-a,,,,AAXX 22114 07181 32670 71912 10190 20140 39689 40090 51009 700// 875// 91100=
07181,1999-09-22 12:00:00,18,1009.7,1.1,83,15,20000,22.224,,,210,,,,,,,,,,60,wg-a,,,,AAXX 22124 07181 02670 72112 10180 20150 39695 40097 53011 61000 76062 8653/ 91200 333 ////=
07181,1999-09-22 13:00:00,17,1009.8,0.8,94,16,7000,25.928,,,200,,,0,,,,,,,60,wg-a,,,,AAXX 22134 07181 12557 82014 10170 20160 39695 40098 51008 60005 76066 875// 91300=
07181,1999-09-22 14:00:00,17,1009.8,0.6,94,16,20000,18.52,,,190,,,0,,,,,,,21,wg-a,,,,AAXX 22144 07181 12670 71910 10170 20160 39695 40098 51006 60005 72162 8653/ 91400=
07181,1999-09-22 15:00:00,17,1009.6,-0.2,94,16,15000,14.816,,,150,,,,1,,,,,,60,wg-a,,,,AAXX 22154 07181 12665 71508 10170 20160 39693 40096 58002 60017 76062 8553/ 91500=
07181,1999-09-22 16:00:00,18,1009.6,-0.1,94,17,15000,14.816,,,160,,,,,,,,,,21,wg-a,,,,AAXX 22164 07181 02765 71608 10180 20170 39694 40096 55001 61000 72162 8557/ 91600 333 ////=
07181,1999-09-22 17:00:00,17,1009.4,-0.3,94,16,15000,14.816,,,160,,,,,,,,,,0,wg-a,,,,AAXX 22174 07181 32665 71608 10170 20160 39692 40094 57003 700// 82572 91700=
07181,1999-09-22 18:00:00,17,1009.6,-0,94,16,15000,11.112,,,130,15.2,19,,,,,,,,1,wg-a,,,,AAXX 22184 07181 02/65 71306 10170 20160 39693 40096 54000 61000 70162 85072 91800 333 10190 20152 ////=
07181,1999-09-22 19:00:00,17,1010,0.3,94,16,15000,11.112,,,130,,,,,,,,,,0,wg-a,,,,AAXX 22194 07181 32/65 71306 10170 20160 39697 40100 53003 700// 85072 91900=
07181,1999-09-22 20:00:00,17,1009.9,0.4,88,15,15000,14.816,,,140,,,,,,,,,,0,wg-a,,,,AAXX 22204 07181 32/65 71408 10170 20150 39696 40099 50004 700// 8707/ 92000=
07181,1999-09-22 21:00:00,17,1009.9,0.3,88,15,15000,14.816,,,150,,,,,,,,,,0,wg-a,,,,AAXX 22214 07181 32/65 71508 10170 20150 39696 40099 51003 700// 84072 92100=
07181,1999-09-22 22:00:00,17,1009.9,-0.1,88,15,15000,14.816,,,160,,,,,,,,,,0,wg-a,,,,AAXX 22224 07181 32/65 61608 10170 20150 39696 40099 56001 700// 83072 92200=
07181,1999-09-22 23:00:00,18,1009.6,-0.2,88,16,15000,18.52,,,180,,,,,,,,,,0,wg-a,,,,AAXX 22234 07181 32/65 61810 10180 20160 39694 40096 58002 700// 83072 92300=
07181,1999-09-23 00:00:00,19,1009.5,-0.1,83,16,15000,25.928,,,190,,,,,,,,,,0,wg-a,,,,AAXX 23004 07181 32765 71914 10190 20160 39695 40095 55001 700// 84572 90000=
07181,1999-09-23 01:00:00,19,1009.2,-0.4,78,15,29000,25.928,,,190,,,,,,,,,,,wg-a,,,,AAXX 23014 07181 32/79 /1914 10190 20150 39692 40092 58004 90100=
07181,1999-09-23 02:00:00,19,1009.1,-0.3,83,16,15000,29.632,,,200,,,,,,,,,,0,wg-a,,,,AAXX 23024 07181 32765 72016 10190 20160 39691 40091 58003 700// 84572 90200=
07181,1999-09-23 04:00:00,19,1009.2,-0,83,16,20000,29.632,,,190,,,,,,,,,,0,wg-a,,,,AAXX 23044 07181 32/70 71916 10190 20160 39692 40092 55000 700// 85072 90400=
07181,1999-09-23 05:00:00,19,1009.6,0.4,83,16,500,18.52,,,200,,,,,,,,,,0,wg-a,,,,AAXX 23054 07181 32600 82010 10190 20160 39695 40096 53004 700// 8357/ 90500=
07181,1999-09-23 06:00:00,19,1010.7,1.8,83,16,500,22.224,,,210,16.8,19.3,,,,,1,,,0,wg-a,,,,AAXX 23064 07181 12600 82112 10190 20160 39706 40107 53018 60014 700// 8687/ 90600 333 10193 20168=
07181,1999-09-23 07:00:00,18,1012.1,2.6,83,15,20000,18.52,,,260,,,0,,,,,,,80,wg-a,,,,AAXX 23074 07181 12570 82610 10180 20150 39718 40121 53026 60005 78086 878// 90700=
07181,1999-09-23 08:00:00,18,1012.7,2.8,88,16,20000,11.112,,,190,,,,,,,,,,25,wg-a,,,,AAXX 23084 07181 02570 71906 10180 20160 39723 40127 51028 61000 72586 8487/ 90800 333 ////=
07181,1999-09-23 09:00:00,17,1013.8,2.7,94,16,15000,22.224,,,180,,,,0,,,,,,80,wg-a,,,,AAXX 23094 07181 12565 71812 10170 20160 39733 40138 51027 60007 78086 8597/ 90900=
07181,1999-09-23 10:00:00,18,1013.5,1.4,94,17,20000,18.52,,,170,,,0,,,,,,,25,wg-a,,,,AAXX 23104 07181 12670 /1710 10180 20170 39732 40135 50014 60005 72586 82930 91000=
07181,1999-09-23 11:00:00,21,1013.3,1.1,78,17,500,29.632,,,200,,,,,,,,,,0,wg-a,,,,AAXX 23114 07181 32500 42016 10210 20170 39734 40133 51011 700// 83230 91100=
07181,1999-09-23 12:00:00,22,1013.2,0.2,73,17,500,25.928,,,220,,,,0,,,,,,3,wg-a,,,,AAXX 23124 07181 12500 52214 10220 20170 39735 40132 53002 60007 70386 85200 91200=
07181,1999-09-23 13:00:00,23,1013.1,0.2,61,15,500,18.52,,,220,,,,,,,,,,0,wg-a,,,,AAXX 23134 07181 32600 /2210 10230 20150 39734 40131 50002 700// 85200 91300=
07181,1999-09-23 14:00:00,23,1012.9,-0.2,61,15,500,14.816,,,220,,,,,,,,,,0,wg-a,,,,AAXX 23144 07181 32600 /2208 10230 20150 39732 40129 58002 700// 85200 91400=
07181,1999-09-23 15:00:00,23,1012.7,-0.5,53,13,500,14.816,,,230,,,,,,,,,,0,wg-a,,,,AAXX 23154 07181 32600 /2308 10230 20130 39730 40127 58005 700// 86200 91500=
07181,1999-09-23 16:00:00,23,1012.6,-0.5,57,14,15000,7.408,,,230,,,,,,,,,,17,wg-a,,,,AAXX 23164 07181 32465 /2304 10230 20140 39729 40126 56005 71792 86900 91600=
07181,1999-09-23 17:00:00,21,1013.2,-0,73,16,15000,14.816,,,200,,,,,,,,,,1,wg-a,,,,AAXX 23174 07181 32465 62008 10210 20160 39732 40132 55000 70192 86900 91700=
07181,1999-09-23 18:00:00,18,1014.2,0.8,83,15,20000,11.112,,,180,16.8,23.7,,,,,,,,1,wg-a,,,,AAXX 23184 07181 32570 51806 10180 20150 39738 40142 53008 70192 84230 91800 333 10237 20168=
07181,1999-09-23 19:00:00,17,1015,1.6,88,15,20000,18.52,,,210,,,,,,,,,,0,wg-a,,,,AAXX 23194 07181 32770 42110 10170 20150 39745 40150 53016 700// 81231 91900=
07181,1999-09-23 20:00:00,17,1015.7,1.9,88,15,500,14.816,,,210,,,,,,,,,,0,wg-a,,,,AAXX 23204 07181 32700 62108 10170 20150 39751 40157 52019 700// 81231 92000=
07181,1999-09-23 21:00:00,16,1016.1,1.6,88,14,500,18.52,,,210,,,,,,,,,,0,wg-a,,,,AAXX 23214 07181 32600 12110 10160 20140 39754 40161 51016 700// 81900 92100=
07181,1999-09-23 22:00:00,16,1016.7,1.4,88,14,500,14.816,,,200,,,,,,,,,,0,wg-a,,,,AAXX 23224 07181 32700 /2008 10160 20140 39759 40167 51014 700// 81100 92200=
07181,1999-09-24 00:00:00,15,1017.7,1.4,94,14,500,11.112,,,230,,,,,,,,,,0,wg-a,,,,AAXX 24004 07181 32700 12306 10150 20140 39768 40177 53014 700// 81100 90000=
07181,1999-09-24 01:00:00,15,1018.3,1.5,94,14,500,14.816,,,210,,,,,,,,,,0,wg-a,,,,AAXX 24014 07181 32700 12108 10150 20140 39774 40183 53015 700// 81100 90100=
07181,1999-09-24 03:00:00,15,1018.4,0.6,94,14,500,18.52,,,190,,,,,,,,,,0,wg-a,,,,AAXX 24034 07181 32700 11910 10150 20140 39774 40184 50006 700// 81100 90300=
07181,1999-09-24 04:00:00,15,1018.5,0.1,94,14,6000,7.408,,,200,,,,,,,,,,0,wg-a,,,,AAXX 24044 07181 32/56 /2004 10150 20140 39775 40185 51001 700// 80001 90400=
07181,1999-09-24 05:00:00,13,1019.3,0.3,94,12,2500,7.408,,,210,,,,,,,,,,10,wg-a,,,,AAXX 24054 07181 32125 32104 10130 20120 39780 40193 53003 71000 81701 90500=
07181,1999-09-24 06:00:00,12,1019.5,0.7,100,12,500,3.704,,,110,12.1,17.8,,0,,,1,,,44,wg-a,,,,AAXX 24064 07181 02105 /1102 10120 20120 39781 40195 52007 60014 74441 84701 90600 333 10178 20121 60007=
07181,1999-09-24 07:00:00,14,1019.7,1,100,14,100,7.408,,,180,,,,,,,,,,44,wg-a,,,,AAXX 24074 07181 32/01 91804 10140 20140 39785 40197 51010 74442 89/// 90700=
07181,1999-09-24 08:00:00,15,1020,0.9,100,15,2500,3.704,,,140,,,,,,,,,,28,wg-a,,,,AAXX 24084 07181 32125 /1402 10150 20150 39789 40200 53009 72842 85701 90800=
07181,1999-09-24 09:00:00,18,1019.6,0.9,88,16,10000,7.408,,,160,,,,,,,,,,1,wg-a,,,,AAXX 24094 07181 32260 /1604 10180 20160 39790 40196 51009 70142 81131 90900=
07181,1999-09-24 10:00:00,20,1018.9,0.1,78,16,15000,11.112,,,160,,,,,,,,,,0,wg-a,,,,AAXX 24104 07181 32465 /1606 10200 20160 39786 40189 50001 700// 81101 91000=
07181,1999-09-24 11:00:00,21,1018.4,-0.6,78,17,25000,11.112,,,150,,,,,,,,,,0,wg-a,,,,AAXX 24114 07181 32675 /1506 10210 20170 39783 40184 58006 700// 81102 91100=
07181,1999-09-24 12:00:00,21,1017.7,-1.4,78,17,25000,11.112,,,150,,,,,,,,,,2,wg-a,,,,AAXX 24124 07181 32675 71506 10210 20170 39776 40177 58014 70242 81102 91200=
07181,1999-09-24 13:00:00,22,1017,-1.5,69,16,25000,18.52,,,170,,,,,,,,,,0,wg-a,,,,AAXX 24134 07181 32575 71710 10220 20160 39771 40170 58015 700// 83832 91300=
07181,1999-09-24 14:00:00,22,1016.4,-1.8,69,16,25000,18.52,,,170,,,,,,,,,,0,wg-a,,,,AAXX 24144 07181 32575 71710 10220 20160 39765 40164 56018 700// 83832 91400=
07181,1999-09-24 15:00:00,21,1016.1,-1.5,73,16,25000,14.816,,,190,,,,,,,,,,0,wg-a,,,,AAXX 24154 07181 32575 71908 10210 20160 39761 40161 56015 700// 8383/ 91500=
07181,1999-09-24 16:00:00,21,1015.5,-1.6,78,17,20000,11.112,,,170,,,,,,,,,,0,wg-a,,,,AAXX 24164 07181 32570 71706 10210 20170 39755 40155 57016 700// 8383/ 91600=
07181,1999-09-24 17:00:00,20,1015.3,-1.3,83,17,15000,11.112,,,160,,,,,,,,,,0,wg-a,,,,AAXX 24174 07181 32565 71606 10200 20170 39752 40153 56013 700// 84802 91700=
07181,1999-09-24 18:00:00,18,1015.8,-0.6,94,17,15000,7.408,,,170,12.2,22.5,,,,,,,,0,wg-a,,,,AAXX 24184 07181 32765 71704 10180 20170 39755 40158 55006 700// 84502 91800 333 10225 20122=
07181,1999-09-24 19:00:00,17,1015.8,-0.2,94,16,10000,11.112,,,150,,,,,,,,,,0,wg-a,,,,AAXX 24194 07181 32860 61506 10170 20160 39753 40158 56002 700// 83502 91900=
07181,1999-09-24 20:00:00,18,1015.9,0.3,94,17,10000,14.816,,,180,,,,,,,,,,0,wg-a,,,,AAXX 24204 07181 32860 61808 10180 20170 39755 40159 51003 700// 83032 92000=
07181,1999-09-24 21:00:00,19,1016.2,0.4,88,17,10000,18.52,,,200,,,,,,,,,,0,wg-a,,,,AAXX 24214 07181 32860 62010 10190 20170 39759 40162 53004 700// 83032 92100=
07181,1999-09-24 22:00:00,19,1016.2,0.6,88,17,10000,14.816,,,200,,,,,,,,,,0,wg-a,,,,AAXX 24224 07181 32860 62008 10190 20170 39759 40162 51006 700// 83032 92200=
07181,1999-09-24 23:00:00,18,1016.1,0.2,94,17,10000,7.408,,,210,,,,,,,,,,0,wg-a,,,,AAXX 24234 07181 32860 62104 10180 20170 39757 40161 50002 700// 83032 92300=
07181,1999-09-25 00:00:00,18,1015.9,-0.4,94,17,10000,7.408,,,240,,,,,,,,,,0,wg-a,,,,AAXX 25004 07181 32660 72404 10180 20170 39755 40159 58004 700// 81532 90000=
07181,1999-09-25 01:00:00,18,1015.4,-0.9,94,17,10000,18.52,,,190,,,,,,,,,,0,wg-a,,,,AAXX 25014 07181 32560 71910 10180 20170 39750 40154 58009 700// 82532 90100=
07181,1999-09-25 02:00:00,17,1015.5,-0.8,94,16,8000,18.52,,38.892,230,,,4,,,,,,,80,wg-a,,,,AAXX 25024 07181 12458 72310 10170 20160 39749 40155 56008 60045 78098 879// 90200 333 91021=
07181,1999-09-25 03:00:00,16,1014.9,-1.3,94,15,7000,11.112,,,170,,,,11,,,,,,80,wg-a,,,,AAXX 25034 07181 12557 71706 10160 20150 39742 40149 58013 60117 78098 879// 90300=
07181,1999-09-25 04:00:00,15,1014.4,-1.4,94,14,12000,11.112,,,150,,,0,,,,,,,29,wg-a,,,,AAXX 25044 07181 12562 71506 10150 20140 39736 40144 58014 60005 72986 879// 90400=
07181,1999-09-25 05:00:00,15,1013.8,-1.9,100,15,12000,11.112,,,150,,,0,,,,,,,60,wg-a,,,,AAXX 25054 07181 12562 71506 10150 20150 39730 40138 56019 60005 76062 85932 90500=
07181,1999-09-25 06:00:00,15,1013.4,-1.5,100,15,10000,7.408,,,130,14.6,19,,0,,,11,,,21,wg-a,,,,AAXX 25064 07181 02560 81304 10150 20150 39727 40134 56015 60114 72198 8487/ 90600 333 10190 20146 60007=
07181,1999-09-25 07:00:00,15,1013.8,-0.5,100,15,11000,11.112,,,170,,,,,,,,,,0,wg-a,,,,AAXX 25074 07181 32461 81706 10150 20150 39731 40138 55005 700// 8487/ 90700=
07181,1999-09-25 09:00:00,16,1014.7,1.4,100,16,6000,7.408,,,270,,,,0,,,,,,51,wg-a,,,,AAXX 25094 07181 12356 82704 10160 20160 39741 40147 53014 60007 75165 877// 90900=
07181,1999-09-25 10:00:00,16,1014.4,0.7,100,16,18000,18.52,,,210,,,,,,,,,,,wg-a,,,,AAXX 25104 07181 32/68 /2110 10160 20160 39738 40144 50007 91000=
07181,1999-09-25 11:00:00,17,1013.9,0,94,16,15000,18.52,,,210,,,,,,,,,,21,wg-a,,,,AAXX 25114 07181 02365 82110 10170 20160 39734 40139 50000 61000 72162 8487/ 91100 333 ////=
07181,1999-09-25 12:00:00,17,1013,-1.5,94,16,15000,11.112,,,230,,,,2,,,,,,3,wg-a,,,,AAXX 25124 07181 12865 82306 10170 20160 39726 40130 58015 60027 70365 8477/ 91200=
07181,1999-09-25 13:00:00,18,1012.3,-1.8,88,16,15000,14.816,,,230,,,,,,,,,,0,wg-a,,,,AAXX 25134 07181 32465 82308 10180 20160 39720 40123 58018 700// 8428/ 91300=
07181,1999-09-25 14:00:00,18,1011.8,-1.8,88,16,15000,11.112,,,240,,,,,,,,,,0,wg-a,,,,AAXX 25144 07181 32465 82406 10180 20160 39716 40118 56018 700// 8428/ 91400=
07181,1999-09-25 15:00:00,18,1011.2,-1.6,88,16,20000,7.408,,,220,,,,,,,,,,0,wg-a,,,,AAXX 25154 07181 32470 72204 10180 20160 39710 40112 57016 700// 8428/ 91500=
07181,1999-09-25 16:00:00,18,1010.6,-1.6,88,16,20000,3.704,,,220,,,,,,,,,,0,wg-a,,,,AAXX 25164 07181 32470 /2202 10180 20160 39704 40106 58016 700// 8327/ 91600=
07181,1999-09-25 17:00:00,17,1010.2,-1.7,94,16,20000,3.704,,,180,,,,,,,,,,0,wg-a,,,,AAXX 25174 07181 32470 81802 10170 20160 39699 40102 56017 700// 82271 91700=
07181,1999-09-25 18:00:00,16,1009.7,-1.7,100,16,3000,7.408,,,130,15.2,18.3,,,,,,,,40,wg-a,,,,AAXX 25184 07181 32430 81304 10160 20160 39693 40097 57017 74022 81271 91800 333 10183 20152=
07181,1999-09-25 19:00:00,16,1010,-0.9,94,15,15000,3.704,,,140,,,,,,,,,,0,wg-a,,,,AAXX 25194 07181 32465 81402 10160 20150 39695 40100 55009 700// 81771 91900=
07181,1999-09-25 20:00:00,16,1009.8,-0.6,100,16,20000,7.408,,,140,,,,,,,,,,0,wg-a,,,,AAXX 25204 07181 32870 81404 10160 20160 39693 40098 56006 700// 85071 92000=
07181,1999-09-25 21:00:00,16,1009.3,-0.5,94,15,8000,11.112,,,160,,,,0,,,,,,60,wg-a,,,,AAXX 25214 07181 12858 81606 10160 20150 39688 40093 58005 60007 76062 86071 92100=
07181,1999-09-25 22:00:00,16,1009.3,-0.7,94,15,8000,11.112,,,170,,,0,,,,,,,60,wg-a,,,,AAXX 25224 07181 12658 81706 10160 20150 39688 40093 56007 60005 76062 84771 92200=
07181,1999-09-25 23:00:00,15,1008.7,-1.1,100,15,8000,7.408,,,150,,,1,,,,,,,60,wg-a,,,,AAXX 25234 07181 12458 81504 10150 20150 39682 40087 58011 60015 76066 86501 92300=
07181,1999-09-26 00:00:00,15,1008.4,-0.9,100,15,8000,11.112,,,180,,,,1,,,,,,60,wg-a,,,,AAXX 26004 07181 12458 81806 10150 20150 39679 40084 58009 60017 76062 86501 90000=
07181,1999-09-26 05:00:00,14,1008.4,-0,94,13,15000,18.52,,,240,,,,,,,,,,0,wg-a,,,,AAXX 26054 07181 32365 82410 10140 20130 39677 40084 55000 700// 878// 90500=
07181,1999-09-26 06:00:00,14,1009.2,0.9,94,13,15000,11.112,,,250,13.7,16.1,,,,,4,,,1,wg-a,,,,AAXX 26064 07181 12465 72506 10140 20130 39684 40092 53009 60044 70162 8687/ 90600 333 10161 20137=
07181,1999-09-26 07:00:00,14,1009.7,1.5,94,13,15000,11.112,,,240,,,,,,,,,,0,wg-a,,,,AAXX 26074 07181 32465 72406 10140 20130 39689 40097 53015 700// 8687/ 90700=
07181,1999-09-26 08:00:00,14,1010.2,1.7,94,13,10000,18.52,,,230,,,,,,,,,,0,wg-a,,,,AAXX 26084 07181 32460 72310 10140 20130 39694 40102 51017 700// 8687/ 90800=
07181,1999-09-26 09:00:00,14,1010.5,1.3,100,14,7000,11.112,,,240,,,,0,,,,,,61,wg-a,,,,AAXX 26094 07181 12357 82406 10140 20140 39697 40105 51013 60007 76162 888// 90900=
07181,1999-09-26 10:00:00,15,1010.5,1,94,14,15000,14.816,,,250,,,2,,,,,,,21,wg-a,,,,AAXX 26104 07181 12465 72508 10150 20140 39699 40105 51010 60025 72162 86830 91000=
07181,1999-09-26 11:00:00,17,1010,0.2,82,14,500,25.928,,,250,,,,,,,,,,0,wg-a,,,,AAXX 26114 07181 32400 72514 10170 20140 39696 40100 50002 700// 86201 91100=
07181,1999-09-26 12:00:00,17,1010,-0.1,72,12,500,22.224,,,230,,,,2,,,,,,1,wg-a,,,,AAXX 26124 07181 12500 72312 10170 20120 39696 40100 58001 60027 70162 8/800 91200=
07181,1999-09-26 13:00:00,16,1009.9,-0.5,82,13,500,14.816,,,280,,,,,,,,,,0,wg-a,,,,AAXX 26134 07181 32500 72808 10160 20130 39694 40099 56005 700// 86801 91300=
07181,1999-09-26 14:00:00,17,1009.6,-0.4,72,12,500,22.224,,,240,,,,,,,,,,0,wg-a,,,,AAXX 26144 07181 32600 72412 10170 20120 39692 40096 58004 700// 86801 91400=
07181,1999-09-26 15:00:00,17,1009.3,-0.6,72,12,500,14.816,,,240,,,,,,,,,,0,wg-a,,,,AAXX 26154 07181 32600 72408 10170 20120 39690 40093 57006 700// 83231 91500=
07181,1999-09-26 16:00:00,17,1009.4,-0.4,68,11,500,18.52,,,230,,,,,,,,,,0,wg-a,,,,AAXX 26164 07181 32600 62310 10170 20110 39690 40094 56004 700// 84801 91600=
07181,1999-09-26 17:00:00,16,1009.8,0.1,72,11,500,14.816,,,220,,,,,,,,,,0,wg-a,,,,AAXX 26174 07181 32600 /2208 10160 20110 39693 40098 53001 700// 84801 91700=
07181,1999-09-26 18:00:00,15,1010.4,0.7,77,11,500,22.224,,,220,13.2,18.4,,,,,,,,0,wg-a,,,,AAXX 26184 07181 32600 42212 10150 20110 39697 40104 53007 700// 82801 91800 333 10184 20132=
07181,1999-09-26 19:00:00,13,1010.9,0.9,82,10,500,14.816,,,200,,,,,,,,,,0,wg-a,,,,AAXX 26194 07181 32800 32008 10130 20100 39699 40109 51009 700// 82031 91900=
07181,1999-09-26 20:00:00,14,1010.7,0.6,82,11,500,14.816,,,200,,,,,,,,,,0,wg-a,,,,AAXX 26204 07181 32800 32008 10140 20110 39699 40107 51006 700// 82031 92000=
07181,1999-09-26 21:00:00,14,1011.1,0.6,82,11,500,7.408,,,240,,,,,,,,,,0,wg-a,,,,AAXX 26214 07181 32600 52404 10140 20110 39703 40111 53006 700// 84530 92100=
07181,1999-09-26 22:00:00,13,1011.5,0.6,94,12,20000,18.52,,,200,,,1,,,,,,,61,wg-a,,,,AAXX 26224 07181 12670 72010 10130 20120 39705 40115 53006 60015 76162 875// 92200=
07181,1999-09-26 23:00:00,13,1011.7,0.8,94,12,15000,14.816,,,190,,,0,,,,,,,61,wg-a,,,,AAXX 26234 07181 12665 71908 10130 20120 39707 40117 51008 60005 76166 8453/ 92300=
07181,1999-09-27 00:00:00,13,1011.7,0.4,94,12,15000,18.52,,,210,,,,1,,,,,,21,wg-a,,,,AAXX 27004 07181 12565 72110 10130 20120 39707 40117 51004 60017 72161 8453/ 90000=
07181,1999-09-27 01:00:00,12,1011.8,0.2,94,11,15000,18.52,,,210,,,,,,,,,,0,wg-a,,,,AAXX 27014 07181 32665 32110 10120 20110 39707 40118 51002 700// 83500 90100=
07181,1999-09-27 04:00:00,12,1010.7,-1.1,94,11,15000,18.52,,,190,,,,,,,,,,0,wg-a,,,,AAXX 27044 07181 32865 71910 10120 20110 39696 40107 56011 700// 8703/ 90400=
07181,1999-09-27 05:00:00,12,1010.4,-1,94,11,15000,18.52,,,180,,,,,,,,,,0,wg-a,,,,AAXX 27054 07181 32865 51810 10120 20110 39693 40104 56010 700// 85030 90500=
07181,1999-09-27 06:00:00,12,1010.1,-0.8,94,11,15000,14.816,,,180,11.9,14.5,,,,,3,,,0,wg-a,,,,AAXX 27064 07181 12865 61808 10120 20110 39690 40101 58008 60034 700// 84031 90600 333 10145 20119=
07181,1999-09-27 07:00:00,13,1009.8,-0.7,88,11,20000,18.52,,,200,,,,,,,,,,0,wg-a,,,,AAXX 27074 07181 32870 62010 10130 20110 39689 40098 56007 700// 84031 90700=
07181,1999-09-27 08:00:00,14,1009.8,-0.2,88,12,25000,18.52,,,210,,,,,,,,,,0,wg-a,,,,AAXX 27084 07181 32875 72110 10140 20120 39691 40098 55002 700// 84031 90800=
07181,1999-09-27 09:00:00,16,1009.9,0.4,82,13,25000,25.928,,,210,,,,,,,,,,0,wg-a,,,,AAXX 27094 07181 32475 72114 10160 20130 39694 40099 53004 700// 81131 90900=
07181,1999-09-27 10:00:00,17,1009.5,0.2,72,12,500,25.928,,,200,,,,,,,,,,0,wg-a,,,,AAXX 27104 07181 32400 72014 10170 20120 39691 40095 50002 700// 81131 91000=
07181,1999-09-27 11:00:00,18,1009.1,-0.2,68,12,500,29.632,,,210,,,,,,,,,,0,wg-a,,,,AAXX 27114 07181 32500 72116 10180 20120 39689 40091 58002 700// 82132 91100=
07181,1999-09-27 12:00:00,20,1008.3,-1.1,56,11,500,31.484,,,210,,,,,,,,,,0,wg-a,,,,AAXX 27124 07181 32600 72117 10200 20110 39683 40083 58011 700// 83132 91200=
07181,1999-09-27 13:00:00,20,1007.4,-1.6,60,12,500,22.224,,,200,,,,,,,,,,0,wg-a,,,,AAXX 27134 07181 32600 72012 10200 20120 39675 40074 58016 700// 8317/ 91300=
07181,1999-09-27 14:00:00,19,1007.3,-1.6,64,12,500,22.224,,,190,,,,,,,,,,0,wg-a,,,,AAXX 27144 07181 32600 71912 10190 20120 39673 40073 56016 700// 8587/ 91400=
07181,1999-09-27 16:00:00,15,1007.6,-0.4,88,13,7000,22.224,,,260,,,0,,,,,,,60,wg-a,,,,AAXX 27164 07181 12457 82612 10150 20130 39671 40076 55004 60005 76062 878// 91600=
07181,1999-09-27 17:00:00,14,1007.3,-0.6,94,13,15000,18.52,,,210,,,1,,,,,,,21,wg-a,,,,AAXX 27174 07181 12265 82110 10140 20130 39667 40073 58006 60015 72162 8783/ 91700=
07181,1999-09-27 18:00:00,14,1007.2,-0.4,94,13,15000,22.224,,,200,11.9,20,,1,,,,,,1,wg-a,,,,AAXX 27184 07181 12265 82012 10140 20130 39666 40072 58004 60017 70162 8553/ 91800 333 10200 20119=
07181,1999-09-27 19:00:00,14,1007.6,-0.1,94,13,15000,14.816,,,200,,,,,,,,,,0,wg-a,,,,AAXX 27194 07181 32665 82008 10140 20130 39670 40076 55001 700// 8553/ 91900=
07181,1999-09-27 20:00:00,14.4,1007.4,0.1,92,13.1,20000,18.52,,,190,,,,,,,,,,,og-post,,,,AAXX 27204 07181 32670 71910 10144 20131 39668 40074 50001 84532 333 84645 85358 87075=
07181,1999-09-27 21:00:00,14.5,1007.1,-0.1,92,13.2,20000,18.52,,,200,,,,,,,,,,,og-post,,,,AAXX 27214 07181 32670 72010 10145 20132 39665 40071 58001 84532 333 84645 85358 87075=
07181,1999-09-27 22:00:00,14.1,1007.2,-0.4,94,13.1,8000,25.928,,,210,,,1,,,,,,,60,og-post,,,,AAXX 27224 07181 21558 72114 10141 20131 39666 40072 55004 76062 8583/ 333 60015 83820 85640 87357=
07181,1999-09-27 23:00:00,14,1007.3,-0.2,95,13.2,12000,18.52,,,210,,,0.2,,,,,,,21,og-post,,,,AAXX 27234 07181 21562 72110 10140 20132 39666 40073 56002 72162 8583/ 333 69925 83820 85640 87357=
07181,1999-09-28 00:00:00,14,1007.1,-0.1,94,13,12000,18.52,,,210,,,,1,1,,,,,2,og-post,,,,AAXX 28004 07181 /1562 72110 10140 20130 39664 40071 58001 60011 70262 8583/ 333 60017 83820 85640 87357=
07181,1999-09-28 01:00:00,13.9,1007,-0.3,93,12.8,15000,18.52,,,210,,,,,,,,,,,og-post,,,,AAXX 28014 07181 32465 72110 10139 20128 39663 40070 58003 8583/ 333 83815 85640 87357=
07181,1999-09-28 02:00:00,14,1006.5,-0.7,93,12.9,15000,22.224,,,220,,,,,,,,,,,og-post,,,,AAXX 28024 07181 32465 72212 10140 20129 39659 40065 58007 8583/ 333 84815 85640 87357=
07181,1999-09-28 03:00:00,13.8,1006.5,-0.6,92,12.5,15000,22.224,,,220,,,,,,,,,,,og-post,,,,AAXX 28034 07181 32465 72212 10138 20125 39658 40065 57006 878// 333 85815 87640=
07181,1999-09-28 04:00:00,13.2,1006.2,-0.8,91,11.8,15000,18.52,,,210,,,,,,,,,,,og-post,,,,AAXX 28044 07181 32465 52110 10132 20118 39655 40062 56008 84830 333 83815 84650=
07181,1999-09-28 05:00:00,13.6,1005.6,-1,88,11.7,15000,22.224,,,200,,,,,,,,,,,og-post,,,,AAXX 28054 07181 32565 62012 10136 20117 39649 40056 58010 85830 333 81820 85636 85359=
07181,1999-09-28 14:00:00,15,1010,0.6,79,11.4,20000,22.224,,,240,,,,,,,,,,,og-post,,,,AAXX 28144 07181 32570 72412 10150 20114 39693 40100 53006 87800 333 83821 86650=
07181,1999-09-28 15:00:00,15.2,1010.2,0.8,77,11.2,20000,22.224,,,240,,,,,,,,,,,og-post,,,,AAXX 28154 07181 32570 72412 10152 20112 39696 40102 52008 878// 333 83823 86650=
07181,1999-09-28 16:00:00,15,1010.7,0.9,77,11,20000,18.52,,,250,,,,,,,,,,,og-post,,,,AAXX 28164 07181 32570 72510 10150 20110 39700 40107 53009 878// 333 83826 86656=
07181,1999-09-28 18:00:00,14,1012,1.5,84,11.3,20000,14.816,,,200,11.7,16.2,,,,4,,,,,og-post,,,,AAXX 28184 07181 12670 72008 10140 20113 39711 40120 53015 60042 85502 333 10162 20117 82633 84650 86073=
07181,1999-09-28 20:00:00,13.3,1013,1.5,87,11.2,20000,11.112,,,190,,,,,,,,,,,og-post,,,,AAXX 28204 07181 32770 71906 10133 20112 39720 40130 51015 8453/ 333 84656 85363=
07181,1999-09-28 22:00:00,13.7,1012.9,0.3,87,11.6,20000,18.52,,,220,,,,,,,,,,,og-post,,,,AAXX 28224 07181 32670 72210 10137 20116 39719 40129 51003 8353/ 333 83633 86360=
07181,1999-09-28 23:00:00,13.8,1012.5,-0.4,91,12.4,20000,22.224,,,220,,,,,,,,,,,og-post,,,,AAXX 28234 07181 32670 72212 10138 20124 39716 40125 58004 8353/ 333 83633 86360=
07181,1999-09-29 00:00:00,14,1012.4,-0.3,91,12.6,20000,25.928,,,220,,,,,,,,,,,og-post,,,,AAXX 29004 07181 32470 72214 10140 20126 39715 40124 58003 875// 333 83613 86656=
07181,1999-09-29 01:00:00,13.9,1011.8,-1,91,12.5,20000,22.224,,,210,,,,,,,,,,,og-post,,,,AAXX 29014 07181 32470 72112 10139 20125 39709 40118 58010 875// 333 83613 86633=
07181,1999-09-29 02:00:00,14,1011.4,-1,94,13,15000,31.484,,,210,,,,,,,,,,,og-post,,,,AAXX 29024 07181 32565 82117 10140 20130 39706 40114 58010 875// 333 84620 87633=
07181,1999-09-29 03:00:00,14.6,1011,-1.2,91,13.1,10000,22.224,,,210,,,,,,,,,,60,og-post,,,,AAXX 29034 07181 21460 82112 10146 20131 39703 40110 56012 76062 878// 333 69907 84616 86636=
07181,1999-09-29 04:00:00,14.5,1010.8,-0.8,93,13.4,10000,29.632,,,220,,,0.2,,,,,,,60,og-post,,,,AAXX 29044 07181 21460 82216 10145 20134 39701 40108 56008 76066 878// 333 69925 83611 87616=
07181,1999-09-29 05:00:00,14.7,1010.4,-0.9,90,13.1,10000,29.632,,,210,,,,,,,,,,60,og-post,,,,AAXX 29054 07181 21460 82116 10147 20131 39697 40104 58009 76066 888// 333 69905 82810 87614=
07181,1999-09-29 07:00:00,14.2,1009.6,-1.2,95,13.4,10000,25.928,,,200,,,0.2,,,,,,,21,og-post,,,,AAXX 29074 07181 21360 82014 10142 20134 39689 40096 58012 72162 888// 333 69925 83808 85633 87462=
07181,1999-09-29 08:00:00,14.2,1009.8,-0.6,96,13.6,6000,25.928,,,210,,,0.2,,,,,,,51,og-post,,,,AAXX 29084 07181 21356 82114 10142 20136 39691 40098 55006 75152 887// 333 69925 83706 87711=
07181,1999-09-29 09:00:00,14.2,1009.9,-0.6,98,13.9,6000,29.632,,,210,,,,1,,,,,,58,og-post,,,,AAXX 29094 07181 21256 82116 10142 20139 39692 40099 55006 75865 887// 333 60017 84705 87708=
07181,1999-09-29 10:00:00,14.6,1008.9,-0.6,96,14,7000,42.596,61.116,,210,,,1,,,,,,,58,og-post,,,,AAXX 29104 07181 21257 82123 10146 20140 39683 40089 58006 75866 887// 333 60015 84705 87715 91133=
07181,1999-09-29 11:00:00,14.6,1009.1,-0.6,96,14,7000,38.892,61.116,61.116,210,,,0.8,,,,,,,61,og-post,,,,AAXX 29114 07181 21357 82121 10146 20140 39685 40091 55006 76166 887// 333 69985 82708 87710 91033 91133=
07181,1999-09-29 12:00:00,14.5,1008.1,-1.7,96,13.9,9000,46.3,68.524,68.524,200,,,,4,5,,,,,61,og-post,,,,AAXX 29124 07181 /1359 82025 10145 20139 39675 40081 58017 60051 76165 8677/ 333 60047 83708 86710 87358 91037 91137=
07181,1999-09-29 13:00:00,14,1008.1,-0.9,95,13.2,8000,38.892,72.228,61.116,210,,,0.4,,,,,,,61,og-post,,,,AAXX 29134 07181 21358 82121 10140 20132 39674 40081 58009 76166 887// 333 69945 82708 87710 91033 91139=
07181,1999-09-29 14:00:00,14.1,1007.7,-1.5,96,13.5,8000,31.484,61.116,,210,,,1,,,,,,,61,og-post,,,,AAXX 29144 07181 21358 82117 10141 20135 39670 40077 56015 76166 887// 333 60015 82709 87711 91133=
07181,1999-09-29 15:00:00,14.3,1007.1,-1,97,13.8,8000,29.632,72.228,,210,,,,2,,,,,,61,og-post,,,,AAXX 29154 07181 21358 82116 10143 20138 39665 40071 58010 76166 887// 333 60027 83706 87710 91139=
07181,1999-09-29 16:00:00,14.3,1006.6,-1.4,98,14,4000,29.632,,,210,,,3,,,,,,,61,og-post,,,,AAXX 29164 07181 21340 82116 10143 20140 39660 40066 58014 76166 887// 333 60035 82707 87712=
07181,1999-09-29 17:00:00,14.6,1005.6,-1.9,98,14.3,4000,35.188,50.004,,200,,,3,,,,,,,61,og-post,,,,AAXX 29174 07181 21340 82019 10146 20143 39651 40056 58019 76166 887// 333 60035 82708 87715 91127=
07181,1999-09-29 18:00:00,14.9,1005.5,-1.4,97,14.4,9000,29.632,72.228,,210,13.9,14.9,,7,,13,,,,60,og-post,,,,AAXX 29184 07181 /1359 82116 10149 20144 39651 40055 56014 60132 76066 887// 333 10149 20139 60077 82708 87711 91139=
07181,1999-09-29 19:00:00,15,1005,-1.4,99,14.8,7000,29.632,,,210,,,0.8,,,,,,,61,og-post,,,,AAXX 29194 07181 21257 82116 10150 20148 39646 40050 56014 76166 887// 333 69985 84705 87707=
07181,1999-09-29 20:00:00,15.1,1004.8,-0.7,99,14.9,9000,29.632,,,210,,,,,,,,,,61,og-post,,,,AAXX 29204 07181 21259 82116 10151 20149 39644 40048 58007 76166 887// 333 69905 87705=
07181,1999-09-29 21:00:00,15.4,1004.1,-1.3,99,15.2,7000,29.632,,,210,,,,3,,,,,,61,og-post,,,,AAXX 29214 07181 21257 82116 10154 20152 39638 40041 58013 76166 887// 333 60037 84705 87712=
07181,1999-09-29 22:00:00,15.5,1004.1,-0.8,99,15.3,7000,18.52,,,230,,,2,,,,,,,61,og-post,,,,AAXX 29224 07181 21257 82310 10155 20153 39638 40041 56008 76166 887// 333 60025 84705 87710=
07181,1999-09-29 23:00:00,15.3,1003.4,-1.3,98,15,7000,18.52,,,210,,,1,,,,,,,61,og-post,,,,AAXX 29234 07181 21257 82110 10153 20150 39631 40034 58013 76166 887// 333 60015 84705 87710=
07181,1999-09-30 00:00:00,15.3,1002.8,-1.3,99,15.1,7000,22.224,,,210,,,,5,8,,,,,61,og-post,,,,AAXX 30004 07181 /1257 82112 10153 20151 39625 40028 58013 60081 76166 887// 333 60057 84705 87710=
07181,1999-09-30 01:00:00,15.2,1002.4,-1.7,99,15,7000,22.224,,,220,,,1,,,,,,,61,og-post,,,,AAXX 30014 07181 21257 82212 10152 20150 39621 40024 56017 76166 887// 333 60015 82705 87713=
07181,1999-09-30 02:00:00,14.8,1001.4,-2,98,14.5,7000,25.928,,,210,,,2,,,,,,,61,og-post,,,,AAXX 30024 07181 21257 82114 10148 20145 39611 40014 58020 76166 887// 333 60025 82705 87713=
07181,1999-09-30 03:00:00,14.6,1000.2,-2.6,98,14.3,800,22.224,,,210,,,,3,,,,,,,og-post,,,,AAXX 30034 07181 26/8/ /2112 10146 20143 39599 40002 58026 333 60037=
07181,1999-09-30 04:00:00,14.5,1000.1,-2.3,97,14,9000,29.632,,,200,,,1,,,,,,,61,og-post,,,,AAXX 30044 07181 21459 82016 10145 20140 39598 40001 56023 76166 8577/ 333 60015 85710 87357=
07181,1999-09-30 05:00:00,13.7,999.8,-1.7,94,12.8,10000,29.632,,,210,,,1,,,,,,,61,og-post,,,,AAXX 30054 07181 21460 82116 10137 20128 39594 49998 56017 76166 878// 333 60015 85812 87657=
07181,1999-09-30 06:00:00,13.2,1000.1,-0.3,97,12.7,8000,25.928,,,200,13.2,15.6,,3,,15,28,,13,61,og-post,,,,AAXX 30064 07181 /1158 82014 10132 20127 39596 40001 55003 60152 76166 878// 333 10156 20132 32013 55/// 60037 70280 82702 85812 87657=
07181,1999-09-30 07:00:00,12.8,999.5,-0.8,97,12.3,7000,22.224,,,200,,,2,,,,,,,61,og-post,,,,AAXX 30074 07181 21157 82012 10128 20123 39590 49995 58008 76166 878// 333 60025 82702 84812 87656=
07181,1999-09-30 08:00:00,12.7,999.7,-0.2,96,12.1,8000,25.928,,,200,,,0.8,,,,,,,61,og-post,,,,AAXX 30084 07181 21158 82014 10127 20121 39592 49997 57002 76166 878// 333 69985 81702 83812 87650=
07181,1999-09-30 09:00:00,12.6,1000,-0.2,97,12.1,6000,25.928,,,210,,,,5,,,,,,61,og-post,,,,AAXX 30094 07181 21456 82114 10126 20121 39594 40000 55002 76166 8582/ 333 60057 83810 84640 87457=
07181,1999-09-30 10:00:00,13,999.3,-0.2,96,12.4,25000,18.52,,,210,,,0.2,,,,,,,21,og-post,,,,AAXX 30104 07181 21475 82110 10130 20124 39588 49993 58002 72162 8582/ 333 69925 83810 85640 87458=
07181,1999-09-30 11:00:00,13.9,999.2,-0.3,95,13.1,25000,25.928,,,200,,,0.4,,,,,,,25,og-post,,,,AAXX 30114 07181 21475 82014 10139 20131 39589 49992 58003 72586 878// 333 69945 84810 86640 87358=
07181,1999-09-30 12:00:00,14.6,1000,0.3,90,13,30000,31.484,53.708,,230,,,,0.6,6,,,,,3,og-post,,,,AAXX 30124 07181 /1480 82317 10146 20130 39597 40000 53003 60061 70386 878// 333 69967 85813 87650 91129=
07181,1999-09-30 13:00:00,14.9,1000.4,1.3,82,11.9,11000,35.188,,,220,,,,,,,,,,15,og-post,,,,AAXX 30134 07181 31461 72219 10149 20119 39601 40004 53013 71522 878// 333 85813 87650=
07181,1999-09-30 14:00:00,15.7,1000.7,1.6,77,11.7,12000,29.632,61.116,,230,,,,,,,,,,15,og-post,,,,AAXX 30144 07181 31462 62316 10157 20117 39605 40007 51016 71522 86800 333 84815 85650 91133=
07181,1999-09-30 16:00:00,13.8,1002,1.4,85,11.3,12000,25.928,,,220,,,,,,,,,,15,og-post,,,,AAXX 30164 07181 31462 62214 10138 20113 39615 40020 53014 71522 86800=
07181,1999-09-30 17:00:00,13.1,1002.7,1.6,93,12,20000,14.816,,,230,,,0.2,,,,,,,25,og-post,,,,AAXX 30174 07181 21470 62308 10131 20120 39621 40027 53016 72586 86800 333 69925 82815 86656=
07181,1999-09-30 18:00:00,12.3,1003.2,1.4,93,11.2,15000,18.52,61.116,,220,12.3,16.1,,0.2,,6,,,,1,og-post,,,,AAXX 30184 07181 /1465 62210 10123 20112 39624 40032 51014 60062 70186 83830 333 10161 20123 69927 81815 83656 86358 91133=
07181,1999-09-30 19:00:00,12.6,1004,1.8,93,11.5,15000,25.928,,,220,,,,,,,,,,,og-post,,,,AAXX 30194 07181 32465 62214 10126 20115 39633 40040 53018 84830 333 81815 84650 86359=
07181,1999-09-30 20:00:00,12.6,1004.7,1.8,95,11.8,15000,25.928,,,220,,,,,,,,,,25,og-post,,,,AAXX 30204 07181 21465 62214 10126 20118 39639 40047 53018 72586 86800 333 69905 83813 85645=
07181,1999-09-30 21:00:00,12.6,1005,1.8,95,11.8,15000,25.928,,,220,,,,,,,,,,2,og-post,,,,AAXX 30214 07181 21465 52214 10126 20118 39642 40050 51018 70286 85800 333 69907 83813 85650=
07181,1999-09-30 22:00:00,13,1005.9,1.8,94,12.1,15000,25.928,,,230,,,,,,,,,,,og-post,,,,AAXX 30224 07181 32465 62314 10130 20121 39651 40059 53018 86800 333 84812 86650=
07181,1999-09-30 23:00:00,12.6,1006.2,1.5,96,12,12000,18.52,,,240,,,0.2,,,,,,,80,og-post,,,,AAXX 30234 07181 21462 72410 10126 20120 39654 40062 52015 78086 878// 333 69925 85812 87640=
07181,1999-10-01 00:00:00,12.6,1006.4,1.4,96,12,15000,22.224,,,240,,,,0.2,0.2,,,,,25,og-post,,,,AAXX 01004 07181 /1465 72412 10126 20120 39656 40064 51014 69921 72586 878// 333 69927 85811 87640=
07181,1999-10-01 01:00:00,12.8,1006.9,1,94,11.9,15000,25.928,,,240,,,,,,,,,,,og-post,,,,AAXX 01014 07181 32465 72414 10128 20119 39661 40069 53010 878// 333 85811 87640=
07181,1999-10-01 02:00:00,12.4,1007.6,1.3,90,10.8,15000,25.928,,,240,,,,,,,,,,,og-post,,,,AAXX 01024 07181 32565 72414 10124 20108 39667 40076 53013 8683/ 333 83820 85646 87357=
07181,1999-10-01 03:00:00,12.1,1008,1.4,89,10.3,20000,25.928,,,240,,,,,,,,,,,og-post,,,,AAXX 01034 07181 32570 72414 10121 20103 39670 40080 51014 8683/ 333 83823 85650 87358=
07181,1999-10-01 04:00:00,11.7,1008.4,1.2,90,10.1,20000,25.928,,,240,,,,,,,,,,,og-post,,,,AAXX 01044 07181 32570 72414 10117 20101 39673 40084 51012 878// 333 84820 87650=
07181,1999-10-01 05:00:00,11.6,1008.7,0.9,91,10.2,20000,29.632,,,230,,,,,,,,,,,og-post,,,,AAXX 01054 07181 32470 82316 10116 20102 39676 40087 52009 888// 333 86816 87650=
07181,1999-10-01 06:00:00,11.7,1009.8,1.7,89,9.9,20000,25.928,,,240,11.6,13.1,,,,0.2,6.6,,11,,og-post,,,,AAXX 01064 07181 12470 82414 10117 20099 39687 40098 53017 69922 877// 333 10131 20116 31011 55/// 70066 87816=
07181,1999-10-01 07:00:00,11.4,1010.8,2.3,95,10.6,10000,25.928,,,240,,,,,,,,,,58,og-post,,,,AAXX 01074 07181 21460 82414 10114 20106 39696 40108 53023 75865 878// 333 69905 83811 87616=
07181,1999-10-01 08:00:00,12.1,1011.5,2.8,91,10.7,12000,25.928,,,230,,,,,,,,,,25,og-post,,,,AAXX 01084 07181 21462 82314 10121 20107 39704 40115 51028 72586 878// 333 69905 85811 87616=
07181,1999-10-01 09:00:00,12.5,1012.2,2.4,89,10.7,15000,29.632,,,230,,,,,,,,,,1,og-post,,,,AAXX 01094 07181 21465 72316 10125 20107 39711 40122 51024 70186 878// 333 69907 84815 86633=
07181,1999-10-01 10:00:00,14.3,1012,1.6,82,11.3,15000,29.632,,,240,,,,,,,,,,,og-post,,,,AAXX 01104 07181 32465 72416 10143 20113 39712 40120 51016 8523/ 333 85818 87356=
07181,1999-10-01 11:00:00,13.8,1012.4,1.1,88,11.8,15000,22.224,,,250,,,0.2,,,,,,,25,og-post,,,,AAXX 01114 07181 21465 62512 10138 20118 39715 40124 51011 72586 86800 333 69925 83818 85650=
07181,1999-10-01 12:00:00,14.9,1012.3,0.4,76,10.7,15000,29.632,53.708,,230,,,,0.2,0.2,,,,,1,og-post,,,,AAXX 01124 07181 /1565 72316 10149 20107 39715 40123 51004 69921 70186 878// 333 69927 84820 86656 91129=
07181,1999-10-01 13:00:00,14.7,1012.1,0.1,79,11.1,15000,31.484,,,230,,,,,,,,,,,og-post,,,,AAXX 01134 07181 32565 62317 10147 20111 39713 40121 50001 86800 333 84826 85656=
07181,1999-10-01 14:00:00,14.8,1012.1,-0.2,74,10.2,15000,29.632,,,230,,,,,,,,,,,og-post,,,,AAXX 01144 07181 32565 72316 10148 20102 39713 40121 57002 878// 333 83826 86656=
07181,1999-10-01 15:00:00,14.6,1012,-0.3,76,10.4,15000,25.928,,,220,,,,,,,,,,,og-post,,,,AAXX 01154 07181 32565 72214 10146 20104 39712 40120 56003 878// 333 83830 87656=
07181,1999-10-01 16:00:00,14.5,1011.9,-0.2,78,10.7,15000,25.928,,,210,,,,,,,,,,,og-post,,,,AAXX 01164 07181 32565 62114 10145 20107 39711 40119 58002 86800 333 82830 86650=
07181,1999-10-01 17:00:00,13.9,1012,-0.2,78,10.1,15000,22.224,,,210,,,,,,,,,,,og-post,,,,AAXX 01174 07181 32665 52112 10139 20101 39711 40120 56002 84501 333 84646=
07181,1999-10-01 18:00:00,13.6,1012.2,-0,80,10.2,15000,18.52,,,200,11.4,16.4,,,,0.2,,,,,og-post,,,,AAXX 01184 07181 12765 62010 10136 20102 39712 40122 55000 69922 86500 333 10164 20114 86650=
07181,1999-10-01 20:00:00,13.1,1012.1,0,84,10.5,50000,25.928,,,210,,,,,,,,,,,og-post,,,,AAXX 01204 07181 36/84 /2114 10131 20105 39711 40121 50000=
07181,1999-10-01 21:00:00,13,1012.1,-0.2,88,11,15000,25.928,,,210,,,,,,,,,,0,wg-a,,,,AAXX 01214 07181 32565 62114 10130 20110 39710 40121 58002 700// 86500 92100=
07181,1999-10-01 22:00:00,13,1011.5,-0.9,88,11,50000,22.224,,,210,,,,,,,,,,,wg-a,,,,AAXX 01224 07181 32/84 /2112 10130 20110 39704 40115 58009 92200=
07181,1999-10-01 23:00:00,13,1011.1,-1,88,11,50000,29.632,,,210,,,,,,,,,,,wg-a,,,,AAXX 01234 07181 32/84 /2116 10130 20110 39701 40111 58010 92300=
07181,1999-10-02 00:00:00,13.4,1010.7,-1.2,88,11.5,10000,18.52,,,210,,,,,,,,,,,og-post,,,,AAXX 02004 07181 32460 72110 10134 20115 39698 40107 56012 875// 333 87616=
07181,1999-10-02 01:00:00,13.2,1010,-1.3,91,11.8,45000,22.224,,,190,,,,,,,,,,,og-post,,,,AAXX 02014 07181 36/83 /1912 10132 20118 39691 40100 58013=
07181,1999-10-02 02:00:00,13.4,1009.1,-1.8,89,11.6,55000,22.224,,,210,,,,,,,,,,,og-post,,,,AAXX 02024 07181 36/85 /2112 10134 20116 39683 40091 58018=
07181,1999-10-02 03:00:00,13.2,1008.3,-2.3,91,11.8,10000,18.52,,,210,,,,,,,,,,,og-post,,,,AAXX 02034 07181 32460 72110 10132 20118 39675 40083 58023 875// 333 87615=
07181,1999-10-02 04:00:00,13.3,1008,-1.9,90,11.7,10000,22.224,,,210,,,,,,,,,,,og-post,,,,AAXX 02044 07181 32460 72112 10133 20117 39672 40080 56019 875// 333 87613=
07181,1999-10-02 05:00:00,12.9,1007.6,-1.5,93,11.8,10000,22.224,,,210,,,,,,,,,,,og-post,,,,AAXX 02054 07181 32460 72112 10129 20118 39668 40076 56015 875// 333 87613=
07181,1999-10-02 06:00:00,12.6,1007.6,-0.8,94,11.7,15000,22.224,,,220,12.4,13.6,,,,,0.2,,11,20,og-post,,,,AAXX 02064 07181 /1465 62212 10126 20117 39667 40076 56008 69902 72052 86530 333 10136 20124 31011 55/// 69907 70002 85611 83360=
07181,1999-10-02 07:00:00,13.4,1007.2,-0.8,89,11.6,15000,31.484,,,210,,,,,,,,,,,og-post,,,,AAXX 02074 07181 32465 72117 10134 20116 39664 40072 56008 8653/ 333 83613 85643 85364=
07181,1999-10-02 08:00:00,14.3,1007,-0.4,85,11.8,15000,35.188,53.708,,220,,,,,,,,,,,og-post,,,,AAXX 02084 07181 32465 72219 10143 20118 39664 40070 56004 878// 333 84816 87640 91129=
07181,1999-10-02 09:00:00,14.6,1007,-0.3,83,11.7,20000,35.188,53.708,,210,,,,,,,,,,,og-post,,,,AAXX 02094 07181 32470 82119 10146 20117 39664 40070 56003 885// 333 88616 91129=
07181,1999-10-02 10:00:00,14.8,1006.9,-0.1,81,11.6,20000,35.188,57.412,,220,,,,,,,,,,,og-post,,,,AAXX 02104 07181 32570 82219 10148 20116 39663 40069 58001 885// 333 88620 91131=
07181,1999-10-02 11:00:00,14.9,1006.7,-0.2,79,11.3,15000,35.188,57.412,57.412,220,,,,,,,,,,,og-post,,,,AAXX 02114 07181 32565 82219 10149 20113 39662 40067 58002 885// 333 88621 91031 91131=
07181,1999-10-02 12:00:00,15.3,1006.1,-0.8,78,11.5,15000,31.484,57.412,,210,,,,,,,,,,,og-post,,,,AAXX 02124 07181 32565 82117 10153 20115 39656 40061 58008 885// 333 88623 91131=
07181,1999-10-02 13:00:00,13.9,1006.1,-0.8,87,11.8,9000,35.188,53.708,53.708,210,,,0.4,,,,,,,61,og-post,,,,AAXX 02134 07181 21559 82119 10139 20118 39655 40061 57008 76162 885// 333 69945 86621 88656 91029 91129=
07181,1999-10-02 14:00:00,13.4,1005.9,-1,95,12.6,9000,29.632,,,200,,,2,,,,,,,61,og-post,,,,AAXX 02144 07181 21559 82016 10134 20126 39652 40059 56010 76166 885// 333 60025 82820 88656=
07181,1999-10-02 15:00:00,14.1,1004.8,-1.4,90,12.5,10000,25.928,53.708,,190,,,,2,,,,,,21,og-post,,,,AAXX 02154 07181 21460 71914 10141 20125 39642 40048 58014 72162 878// 333 60027 81816 85640 85650 91129=
07181,1999-10-02 16:00:00,14.5,1004,-2,86,12.2,10000,29.632,,,180,,,,,,,,,,21,og-post,,,,AAXX 02164 07181 31660 71816 10145 20122 39635 40040 58020 72122 878// 333 84833=
07181,1999-10-02 17:00:00,14.6,1003.7,-2,83,11.7,10000,35.188,,,190,,,,,,,,,,,og-post,,,,AAXX 02174 07181 32660 81919 10146 20117 39632 40037 56020 885// 333 88633=
07181,1999-10-02 18:00:00,14.9,1003,-1.6,,,10000,31.484,53.708,,190,12.6,15.5,,,,2,,,,1,og-post,,,,AAXX 02184 07181 11660 81917 1014920115 39626 40030 56016 60022 70162 885// 333 10155 20126 88638 91129=
07181,1999-10-02 19:00:00,15,1002.5,-1.4,78,11.2,10000,38.892,64.82,,190,,,,,,,,,,,og-post,,,,AAXX 02194 07181 32660 71921 10150 20112 39621 40025 58014 875// 333 85638 85656 91135=
07181,1999-10-02 20:00:00,15,1002.5,-1,82,12,10000,38.892,64.82,61.116,210,,,,,,,,,,,og-post,,,,AAXX 02204 07181 32660 72121 10150 20120 39622 40025 55010 875// 333 85636 85650 91033 91135=
07181,1999-10-02 21:00:00,15.1,1002.7,-0.2,82,12.1,10000,35.188,64.82,,200,,,,,,,,,,61,og-post,,,,AAXX 02214 07181 21560 72019 10151 20121 39624 40027 55002 76162 875// 333 69907 84621 87630 91135=
07181,1999-10-02 22:00:00,12.6,1004.4,1.5,96,12,7000,22.224,68.524,,270,,,1,,,,,,,61,og-post,,,,AAXX 02224 07181 21457 82712 10126 20120 39636 40044 53015 76166 885// 333 60015 84610 88630 91137=
07181,1999-10-02 23:00:00,9.9,1006.2,2.8,94,9,7000,18.52,50.004,,250,,,2,,,,,,,61,og-post,,,,AAXX 02234 07181 21457 82510 10099 20090 39650 40062 53028 76166 885// 333 60025 84613 88630 91127=
07181,1999-10-03 00:00:00,9.6,1006.5,2.8,96,9,7000,14.816,68.524,,240,,,,4,4,,,,,61,og-post,,,,AAXX 03004 07181 /1457 82408 10096 20090 39652 40065 51028 60041 76162 885// 333 60047 86613 88650 91137=
07181,1999-10-03 01:00:00,9.1,1007,2,93,8,7000,14.816,,,250,,,,,,,,,,61,og-post,,,,AAXX 03014 07181 21457 82508 10091 20080 39656 40070 51020 76166 885// 333 69905 86613 88650=
07181,1999-10-03 02:00:00,9,1006.7,0.3,97,8.5,10000,14.816,,,230,,,0.6,,,,,,,21,og-post,,,,AAXX 03024 07181 21460 82308 10090 20085 39653 40067 50003 72162 885// 333 69965 86613 88650=
07181,1999-10-03 03:00:00,9,1007,0.4,97,8.5,50000,18.52,,,200,,,,0.6,,,,,,,og-post,,,,AAXX 03034 07181 26/84 /2010 10090 20085 39656 40070 51004 333 69967=
07181,1999-10-03 04:00:00,9,1007.3,0.3,97,8.5,45000,18.52,,,210,,,,,,,,,,,og-post,,,,AAXX 03044 07181 36/83 /2110 10090 20085 39659 40073 53003=
07181,1999-10-03 05:00:00,9,1006.8,0.1,97,8.5,10000,14.816,,,210,,,,,,,,,,60,og-post,,,,AAXX 03054 07181 21460 82108 10090 20085 39654 40068 50001 76062 885// 333 69905 87712=
07181,1999-10-03 06:00:00,9,1007,0,97,8.5,10000,14.816,,,220,8.8,15.5,,,,4,6.6,,8,21,og-post,,,,AAXX 03064 07181 /1460 72208 10090 20085 39656 40070 50000 60042 72162 8657/ 333 10155 20088 32008 55/// 69907 70066 86611 86361=
07181,1999-10-03 07:00:00,9.1,1007.6,0.3,96,8.5,12000,18.52,,,210,,,,,,,,,,,og-post,,,,AAXX 03074 07181 32462 62110 10091 20085 39662 40076 53003 84170 333 84811 86361=
07181,1999-10-03 08:00:00,9.7,1008.9,2.1,95,8.9,15000,22.224,,,210,,,,,,,,,,,og-post,,,,AAXX 03084 07181 32465 72112 10097 20089 39675 40089 53021 8483/ 333 83811 83650 86362=
07181,1999-10-03 09:00:00,10.7,1009.2,2.3,88,8.8,15000,22.224,,,220,,,,,,,,,,,og-post,,,,AAXX 03094 07181 32465 72212 10107 20088 39679 40092 51023 8483/ 333 84813 86362=
07181,1999-10-03 10:00:00,12.4,1009.3,2.1,75,8.1,15000,25.928,,,220,,,,,,,,,,,og-post,,,,AAXX 03104 07181 32565 72214 10124 20081 39683 40093 51021 878// 333 85820 84650=
07181,1999-10-03 11:00:00,11.9,1009.3,0.7,77,8,15000,25.928,,,220,,,,,,,,,,80,og-post,,,,AAXX 03114 07181 21565 72214 10119 20080 39682 40093 50007 78086 878// 333 69905 85820 86656=
07181,1999-10-03 12:00:00,13.7,1008.9,0.2,66,7.5,15000,29.632,,,210,,,,,,,,,,25,og-post,,,,AAXX 03124 07181 /1565 62116 10137 20075 39681 40089 50002 69901 72586 86800 333 69907 84825 85656=
07181,1999-10-03 13:00:00,12.7,1008.9,-0.4,69,7.2,15000,29.632,,,210,,,,,,,,,,,og-post,,,,AAXX 03134 07181 32565 52116 10127 20072 39679 40089 58004 85200 333 85830=
07181,1999-10-03 14:00:00,11.5,1009,-0.3,86,9.2,12000,18.52,,,220,,,0.2,,,,,,,80,og-post,,,,AAXX 03144 07181 21562 62210 10115 20092 39679 40090 56003 78086 86800 333 69925 85825 85650=
07181,1999-10-03 15:00:00,10.1,1009.8,0.3,83,7.3,12000,29.632,,,240,,,,0.4,,,,,,80,og-post,,,,AAXX 03154 07181 21462 72416 10101 20073 39684 40098 53003 78086 878// 333 69947 82815 85820 87650=
07181,1999-10-03 16:00:00,9.3,1009.7,0.3,92,8.1,15000,18.52,,,220,,,0.8,,,,,,,80,og-post,,,,AAXX 03164 07181 21465 72210 10093 20081 39682 40097 50003 78086 879// 333 69985 81810 82925 84830 86650=
07181,1999-10-03 17:00:00,9.5,1010.7,1.3,92,8.3,15000,11.112,,,220,,,,,,,,,,25,og-post,,,,AAXX 03174 07181 21465 72206 10095 20083 39692 40107 53013 72586 879// 333 69905 81810 83926 85850=
07181,1999-10-03 18:00:00,8.6,1011.2,1.1,92,7.4,15000,11.112,,,230,8.6,14,,0.8,,1,,,,1,og-post,,,,AAXX 03184 07181 /1565 52306 10086 20074 39695 40112 53011 60012 70186 84803 333 10140 20086 69987 83830 84656 85075=
07181,1999-10-03 19:00:00,7.8,1011.9,1.9,96,7.2,15000,18.52,,,230,,,,,,,,,,,og-post,,,,AAXX 03194 07181 32565 32310 10078 20072 39701 40119 51019 83800 333 82830 83656=
07181,1999-10-03 20:00:00,7.6,1012.1,1.1,95,6.9,20000,18.52,,,240,,,0.2,,,,,,,25,og-post,,,,AAXX 03204 07181 21570 32410 10076 20069 39703 40121 51011 72586 83800 333 69925 82830 83656=
07181,1999-10-03 22:00:00,6.8,1013.2,1.1,95,6.1,20000,18.52,,,230,,,,,,,,,,,og-post,,,,AAXX 03224 07181 32770 12310 10068 20061 39712 40132 53011 81500 333 81656=
07181,1999-10-03 23:00:00,6.6,1013.6,1.2,95,5.9,60000,18.52,,,210,,,,,,,,,,,og-post,,,,AAXX 03234 07181 36/86 /2110 10066 20059 39715 40136 51012=
07181,1999-10-04 00:00:00,7.2,1013.4,0.7,94,6.3,20000,22.224,,,200,,,,,0.2,,,,,3,og-post,,,,AAXX 04004 07181 11570 52012 10072 20063 39714 40134 50007 69921 70386 85800 333 82830 85650=
07181,1999-10-04 01:00:00,6.9,1013.3,0.1,95,6.2,20000,18.52,,,210,,,,,,,,,,,og-post,,,,AAXX 04014 07181 32570 52110 10069 20062 39713 40133 50001 85800 333 82830 85650=
07181,1999-10-04 02:00:00,7.4,1013.2,-0.2,93,6.3,20000,25.928,,,220,,,,,,,,,,,og-post,,,,AAXX 04024 07181 32570 52214 10074 20063 39713 40132 56002 85800 333 82830 85650=
07181,1999-10-04 03:00:00,7,1013,-0.4,95,6.3,20000,22.224,,,220,,,,,,,,,,,og-post,,,,AAXX 04034 07181 32570 62212 10070 20063 39710 40130 58004 86800 333 83825 86650=
07181,1999-10-04 04:00:00,7.7,1012.9,-0.3,96,7.1,20000,22.224,,,210,,,,,,,,,,,og-post,,,,AAXX 04044 07181 32470 72112 10077 20071 39710 40129 57003 878// 333 84811 87645=
07181,1999-10-04 05:00:00,8.1,1012.9,-0.2,96,7.5,20000,22.224,,,210,,,,,,,,,,,og-post,,,,AAXX 04054 07181 32370 82112 10081 20075 39711 40129 55002 872// 333 87809=
07181,1999-10-04 06:00:00,8.5,1013,0.3,96,7.9,35000,22.224,,,220,6.4,8.6,,,,0.2,,,5,,og-post,,,,AAXX 04064 07181 16/81 /2212 10085 20079 39713 40130 53003 69922 333 10086 20064 3/005 55/// 70014=
07181,1999-10-04 07:00:00,8.8,1013.2,0.5,95,8,10000,22.224,,,240,,,,,,,,,,80,og-post,,,,AAXX 04074 07181 21360 82412 10088 20080 39715 40132 53005 78086 872// 333 69905 87809=
07181,1999-10-04 08:00:00,8.6,1013.7,0.8,96,8,20000,22.224,,,260,,,0.6,,,,,,,25,og-post,,,,AAXX 04084 07181 21370 82612 10086 20080 39719 40137 53008 72586 878// 333 69965 82708 85810 86626=
07181,1999-10-04 09:00:00,9.3,1014,1,93,8.2,20000,18.52,,,260,,,,0.6,,,,,,1,og-post,,,,AAXX 04094 07181 21470 82610 10093 20082 39723 40140 53010 70186 878// 333 69967 85811 86633=
07181,1999-10-04 10:00:00,9.5,1014.2,1.1,92,8.3,20000,14.816,,,260,,,,,,,,,,,og-post,,,,AAXX 04104 07181 32470 82608 10095 20083 39726 40142 51011 878// 333 86811 86626=
07181,1999-10-04 11:00:00,10.2,1013.8,0.4,88,8.3,25000,14.816,,,250,,,,,,,,,,,og-post,,,,AAXX 04114 07181 32475 62508 10102 20083 39723 40138 50004 86300 333 81911 85813=
07181,1999-10-04 12:00:00,10.9,1013.4,-0.3,73,6.3,25000,14.816,,,260,,,,,0.6,,,,,1,og-post,,,,AAXX 04124 07181 11475 72608 10109 20063 39720 40134 58003 69961 70186 878// 333 84816 83656=
07181,1999-10-04 13:00:00,8.8,1014.3,-0.1,85,6.4,25000,14.816,,,330,,,,,,,,,,25,og-post,,,,AAXX 04134 07181 21575 73308 10088 20064 39725 40143 55001 72586 873// 333 69905 82920 83823 85640=
07181,1999-10-04 16:00:00,9.7,1014.9,0.7,78,6.1,30000,14.816,,,290,,,,,,,,,,,og-post,,,,AAXX 04164 07181 32580 72908 10097 20061 39732 40149 53007 84201 333 84823 86073=
07181,1999-10-04 17:00:00,8.2,1015.9,1.6,82,5.3,30000,11.112,,,280,,,,,,,,,,,og-post,,,,AAXX 04174 07181 32580 62806 10082 20053 39740 40159 53016 83201 333 83823 85073=
07181,1999-10-04 18:00:00,7.2,1017,2,90,5.7,25000,3.704,,,270,7.2,11.5,,,,0.6,,,,1,og-post,,,,AAXX 04184 07181 11575 62702 10072 20057 39749 40170 53020 69962 70186 83801 333 10115 20072 82823 83643=
07181,1999-10-04 19:00:00,5.5,1018,2.4,95,4.8,25000,7.408,,,230,,,,,,,,,,,og-post,,,,AAXX 04194 07181 32575 32304 10055 20048 39756 40180 51024 83800 333 81830 83650=
07181,1999-10-04 20:00:00,6,1018.9,2.5,93,5,25000,11.112,,,240,,,,,,,,,,0,wg-a,,,,AAXX 04204 07181 32575 /2406 10060 20050 39765 40189 52025 700// 85800 92000=
07181,1999-10-04 21:00:00,6.5,1019.2,2,95,5.8,25000,11.112,,,250,,,,,,,,,,,og-post,,,,AAXX 04214 07181 32475 72506 10065 20058 39769 40192 51020 872// 333 83816 85826=
07181,1999-10-04 22:00:00,6.5,1019.5,1.6,96,5.9,20000,11.112,,,250,,,0.6,,,,,,,81,og-post,,,,AAXX 04224 07181 21470 72506 10065 20059 39772 40195 51016 78186 872// 333 69965 83813 85826=
07181,1999-10-05 00:00:00,6.7,1019.8,0.6,99,6.6,10000,11.112,,,240,,,,0.8,0.8,,,,,25,og-post,,,,AAXX 05004 07181 /1360 72406 10067 20066 39775 40198 51006 69981 72586 877// 333 69987 87708=
07181,1999-10-05 01:00:00,6.7,1019.9,0.4,98,6.4,10000,11.112,,,250,,,,,,,,,,,og-post,,,,AAXX 05014 07181 36/60 /2506 10067 20064 39776 40199 51004=
07181,1999-10-05 02:00:00,6.8,1019.9,0.2,99,6.7,10000,7.408,,,260,,,,,,,,,,,og-post,,,,AAXX 05024 07181 32360 82604 10068 20067 39776 40199 51002 887// 333 87706 88810=
07181,1999-10-05 03:00:00,7,1020.1,0.3,99,6.9,10000,11.112,,,270,,,,0.2,,,,,,25,og-post,,,,AAXX 05034 07181 21360 82706 10070 20069 39778 40201 53003 72522 887// 333 69927 87706 88812=
07181,1999-10-05 04:00:00,6.9,1020.5,0.6,99,6.8,5000,11.112,,,290,,,1,,,,,,,81,og-post,,,,AAXX 05044 07181 21250 82906 10069 20068 39782 40205 53006 78186 877// 333 60015 87703=
07181,1999-10-05 05:00:00,6.8,1020.9,1,100,6.8,5000,11.112,,,290,,,1,,,,,,,61,og-post,,,,AAXX 05054 07181 21250 82906 10068 20068 39786 40209 53010 76186 877// 333 60015 83703 86706=
07181,1999-10-05 06:00:00,6.7,1021.4,1.2,100,6.7,5000,11.112,,,290,5.3,7.2,,4,,5,5.4,,3,61,og-post,,,,AAXX 05064 07181 /1350 82906 10067 20067 39790 40214 52012 60052 76186 887// 333 10072 20053 32003 55/// 60047 70054 86706 86713=
07181,1999-10-05 07:00:00,6.7,1022.1,1.5,100,6.7,5000,11.112,,,300,,,1,,,,,,,61,og-post,,,,AAXX 05074 07181 21250 83006 10067 20067 39797 40221 53015 76166 877// 333 60015 87706=
07181,1999-10-05 08:00:00,7,1022.6,1.6,100,7,5000,11.112,,,300,,,1,,,,,,,61,og-post,,,,AAXX 05084 07181 21250 83006 10070 20070 39802 40226 53016 76166 877// 333 60015 82704 86707=
07181,1999-10-05 09:00:00,7.7,1023,1.7,98,7.4,14000,11.112,,,310,,,,2,,,,,,21,og-post,,,,AAXX 05094 07181 21364 83106 10077 20074 39807 40230 51017 72162 887// 333 60027 83708 85616 87633=
07181,1999-10-05 10:00:00,8,1023.3,1.3,93,6.9,18000,11.112,,,300,,,,,,,,,,,og-post,,,,AAXX 05104 07181 32468 83006 10080 20069 39810 40233 51013 888// 333 86810 86618=
07181,1999-10-05 11:00:00,8.1,1023.7,1.2,93,7,20000,11.112,,,300,,,,,,,,,,,og-post,,,,AAXX 05114 07181 32470 83006 10081 20070 39814 40237 51012 888// 333 85811 86626=
07181,1999-10-05 12:00:00,9,1023.4,0.6,87,7,20000,11.112,,,290,,,,,2,,,,,1,og-post,,,,AAXX 05124 07181 11470 82906 10090 20070 39813 40234 50006 60021 70162 888// 333 86812 86633=
07181,1999-10-05 13:00:00,8.4,1023.6,0.4,92,7.2,18000,14.816,,,330,,,0.2,,,,,,,80,og-post,,,,AAXX 05134 07181 21468 83308 10084 20072 39814 40236 51004 78086 888// 333 69925 86811 86633=
07181,1999-10-05 14:00:00,9.3,1023.7,0.2,89,7.6,20000,11.112,,,310,,,,,,,,,,25,og-post,,,,AAXX 05144 07181 21470 83106 10093 20076 39816 40237 53002 72586 888// 333 69905 85813 86643=
07181,1999-10-05 15:00:00,9.6,1023.9,0.6,88,7.7,25000,11.112,,,310,,,,0.2,,,,,,1,og-post,,,,AAXX 05154 07181 21475 83106 10096 20077 39819 40239 53006 70186 878// 333 69927 84813 86650=
07181,1999-10-05 16:00:00,9.5,1024.3,0.8,89,7.8,25000,7.408,,,300,,,,,,,,,,,og-post,,,,AAXX 05164 07181 32475 83004 10095 20078 39822 40243 53008 878// 333 83813 86650=
07181,1999-10-05 17:00:00,8.9,1024.7,0.9,88,7,20000,7.408,,,280,,,,,,,,,,,og-post,,,,AAXX 05174 07181 32570 72804 10089 20070 39825 40247 52009 878// 333 82820 86650=
07181,1999-10-05 19:00:00,7.5,1025.7,1.1,92,6.3,15000,3.704,,,250,,,,,,,,,,,og-post,,,,AAXX 05194 07181 32765 62502 10075 20063 39833 40257 53011 86500 333 86656=
07181,1999-10-05 20:00:00,6.5,1026.2,1.1,91,5.1,15000,7.408,,,340,,,,,,,,,,,og-post,,,,AAXX 05204 07181 32765 43404 10065 20051 39836 40262 51011 84500 333 84656=
07181,1999-10-05 21:00:00,5.1,1026.6,0.9,94,4.2,15000,3.704,,,330,,,,,,,,,,,og-post,,,,AAXX 05214 07181 32765 43302 10051 20042 39838 40266 51009 84500 333 84656=
07181,1999-10-05 22:00:00,5.3,1026.8,0.7,98,5,15000,3.704,,,310,,,,,,,,,,,og-post,,,,AAXX 05224 07181 32765 43102 10053 20050 39840 40268 51007 84500 333 84656=
07181,1999-10-05 23:00:00,4.2,1027.1,0.5,97,3.8,13000,3.704,,,330,,,,,,,,,,,og-post,,,,AAXX 05234 07181 32763 43302 10042 20038 39841 40271 51005 84500 333 84656=
07181,1999-10-06 00:00:00,3.4,1027.3,0.4,98,3.1,12000,,,,,,,,,,,,,,,og-post,,,,AAXX 06004 07181 32762 40000 10034 20031 39842 40273 51004 84500 333 84656=
07181,1999-10-06 01:00:00,4.2,1027.1,0.1,100,4.2,12000,,,,,,,,,,,,,,,og-post,,,,AAXX 06014 07181 32762 30000 10042 20042 39841 40271 50001 83500 333 83656=
07181,1999-10-06 02:00:00,3.2,1027.4,0.1,100,3.2,8000,3.704,,,320,,,,,,,,,,,og-post,,,,AAXX 06024 07181 32758 13202 10032 20032 39842 40274 52001 81500 333 81656=
07181,1999-10-06 04:00:00,2.8,1027.9,0.5,100,2.8,200,,,,,,,,,,,,,,46,og-post,,,,AAXX 06044 07181 31702 10000 10028 20028 39846 40279 53005 74640 81500 333 81656=
07181,1999-10-06 05:00:00,3.5,1027.8,0.5,100,3.5,200,,,,,,,,,,,,,,47,og-post,,,,AAXX 06054 07181 31/02 90000 10035 20035 39847 40278 52005 74744=
07181,1999-10-06 06:00:00,3.6,1028.5,1,100,3.6,100,3.704,,,360,2.3,8.1,,,,,,,-3,47,og-post,,,,AAXX 06064 07181 31/01 93602 10036 20036 39853 40285 53010 74741 333 10081 20023 31103 55/// 70026=
07181,1999-10-06 07:00:00,3.9,1028.8,1.1,100,3.9,100,3.704,,,320,,,,,,,,,,47,og-post,,,,AAXX 06074 07181 31/01 93202 10039 20039 39857 40288 53011 74744=
07181,1999-10-06 08:00:00,4.8,1029.1,1.4,100,4.8,100,3.704,,,320,,,,,,,,,,47,og-post,,,,AAXX 06084 07181 31/01 93202 10048 20048 39861 40291 51014 74744=
07181,1999-10-06 09:00:00,5.8,1029,0.9,100,5.8,200,3.704,,,20,,,,,,,,,,43,og-post,,,,AAXX 06094 07181 31/02 90202 10058 20058 39862 40290 51009 74344=
07181,1999-10-06 10:00:00,7,1029,0.7,100,7,1500,3.704,,,350,,,,,,,,,,28,og-post,,,,AAXX 06104 07181 31015 73502 10070 20070 39864 40290 51007 72842 877// 333 87700=
07181,1999-10-06 11:00:00,7.9,1028.8,0.2,100,7.9,5000,3.704,,,320,,,,,,,,,,,og-post,,,,AAXX 06114 07181 32150 53202 10079 20079 39863 40288 50002 85100 333 85803=
07181,1999-10-06 12:00:00,9.8,1028.2,-0.2,94,8.9,12000,7.408,,,320,,,,,,,,,,1,og-post,,,,AAXX 06124 07181 31462 53204 10098 20089 39860 40282 58002 70142 85200 333 85813=
07181,1999-10-06 13:00:00,-16,1027.5,-0.8,127,5.3,20000,7.408,,,330,,,,,,,,,,,og-post,,,,AAXX 06134 07181 32570 53304 1116 20053 39856 40275 58008 85200 333 85825=
07181,1999-10-06 14:00:00,12.1,1027.2,-0.9,61,4.8,20000,7.408,,,10,,,,,,,,,,,og-post,,,,AAXX 06144 07181 32670 50104 10121 20048 39854 40272 56009 85200 333 85833=
07181,1999-10-06 15:00:00,11.1,1027.3,-0.7,67,5.2,20000,7.408,,,20,,,,,,,,,,,og-post,,,,AAXX 06154 07181 32670 50204 10111 20052 39853 40273 56007 85800 333 83840 83656=
07181,1999-10-06 16:00:00,11.4,1027.2,-0.3,65,5.1,20000,7.408,,,30,,,,,,,,,,,og-post,,,,AAXX 06164 07181 32670 40304 10114 20051 39853 40272 56003 84800 333 82840 83656=
07181,1999-10-06 17:00:00,9.4,1027.5,-0.1,72,4.6,20000,7.408,,,20,,,,,,,,,,,og-post,,,,AAXX 06174 07181 32670 20204 10094 20046 39853 40275 56001 82800 333 81840=
07181,1999-10-06 18:00:00,8,1028.3,0.5,82,5.1,20000,7.408,,,40,3.5,12.6,,,,,,,,,og-post,,,,AAXX 06184 07181 32770 20404 10080 20051 39858 40283 53005 82500 333 10126 20035 82656=
07181,1999-10-06 19:00:00,6.2,1028.9,0.8,87,4.2,20000,7.408,,,50,,,,,,,,,,,og-post,,,,AAXX 06194 07181 32770 10504 10062 20042 39861 40289 53008 81500 333 81656=
07181,1999-10-06 20:00:00,5.3,1029.1,0.9,89,3.6,20000,7.408,,,40,,,,,,,,,,,og-post,,,,AAXX 06204 07181 32770 10404 10053 20036 39862 40291 51009 81500 333 81656=
07181,1999-10-06 21:00:00,4.8,1029.3,0.5,89,3.1,15000,,,,,,,,,,,,,,,og-post,,,,AAXX 06214 07181 32965 00000 10048 20031 39863 40293 51005=
07181,1999-10-06 22:00:00,3.6,1029.5,0.2,95,2.9,29000,,,,,,,,,,,,,,,og-post,,,,AAXX 06224 07181 36/79 /0000 10036 20029 39863 40295 51002=
07181,1999-10-06 23:00:00,3.1,1029.6,0.1,97,2.7,10000,,,,,,,,,,,,,,,og-post,,,,AAXX 06234 07181 32960 00000 10031 20027 39863 40296 51001=
07181,1999-10-07 00:00:00,3.4,1029,-0.5,99,3.3,13000,,,,,,,,,,,,,,,og-post,,,,AAXX 07004 07181 36/63 /0000 10034 20033 39858 40290 58005=
07181,1999-10-07 01:00:00,2.6,1029.1,-0.5,99,2.5,10000,,,,,,,,,,,,,,,og-post,,,,AAXX 07014 07181 36/60 /0000 10026 20025 39858 40291 57005=
07181,1999-10-07 02:00:00,2.3,1029.2,-0.5,100,2.3,8000,,,,,,,,,,,,,,,og-post,,,,AAXX 07024 07181 32958 00000 10023 20023 39858 40292 56005=
07181,1999-10-07 03:00:00,1.3,1029.6,0.2,100,1.3,6000,,,,,,,,,,,,,,,og-post,,,,AAXX 07034 07181 36/56 /0000 10013 20013 39860 40296 53002=
07181,1999-10-07 04:00:00,1.7,1029.7,0.4,100,1.7,3000,,,,,,,,,,,,,,10,og-post,,,,AAXX 07044 07181 31930 00000 10017 20017 39862 40297 53004 71000=
07181,1999-10-07 12:00:00,10.9,1029.3,-0.3,68,5.2,15000,3.704,,,50,,,,,,,,,,1,og-post,,,,AAXX 07124 07181 31465 30502 10109 20052 39872 40293 58003 70140 83202 333 83815=
07181,1999-10-07 13:00:00,13.6,1028.5,-0.7,58,5.5,15000,7.408,,,50,,,,,,,,,,,og-post,,,,AAXX 07134 07181 32565 30504 10136 20055 39868 40285 58007 83800 333 81831 83640=
07181,1999-10-07 14:00:00,12.2,1028.4,-1,63,5.4,15000,3.704,,,40,,,,,,,,,,,og-post,,,,AAXX 07144 07181 32665 30402 10122 20054 39865 40284 57010 83800 333 82840 83650=
07181,1999-10-07 15:00:00,12.5,1028.1,-0.9,58,4.5,20000,3.704,,,270,,,,,,,,,,,og-post,,,,AAXX 07154 07181 32770 32702 10125 20045 39863 40281 56009 83500 333 83650=
07181,1999-10-07 16:00:00,12.4,1028.1,-0.5,57,4.1,25000,,,,,,,,,,,,,,,og-post,,,,AAXX 07164 07181 32775 30000 10124 20041 39863 40281 56005 83500 333 83650=
07181,1999-10-07 17:00:00,10.4,1028.6,-0,81,7.3,25000,3.704,,,110,,,,,,,,,,,og-post,,,,AAXX 07174 07181 32775 31102 10104 20073 39865 40286 55000 81502 333 81650 83075=
07181,1999-10-07 18:00:00,8.2,1029.1,0.3,84,5.7,15000,7.408,,,150,1.8,13.8,,,,,,,,,og-post,,,,AAXX 07184 07181 32965 31504 10082 20057 39866 40291 53003 80002 333 10138 20018 83075=
07181,1999-10-07 19:00:00,7.2,1029.1,0.2,86,5,15000,11.112,,,150,,,,,,,,,,,og-post,,,,AAXX 07194 07181 32965 31506 10072 20050 39865 40291 50002 80002 333 83075=
07181,1999-10-07 20:00:00,6.2,1029.8,0.5,85,3.9,15000,3.704,,,220,,,,,,,,,,,og-post,,,,AAXX 07204 07181 32965 32202 10062 20039 39870 40298 53005 80002 333 83075=
07181,1999-10-07 21:00:00,6.1,1029.5,0.1,90,4.6,29000,7.408,,,190,,,,,,,,,,,og-post,,,,AAXX 07214 07181 36/79 /1904 10061 20046 39867 40295 50001=
07181,1999-10-07 22:00:00,6.7,1029.5,0.3,86,4.5,15000,7.408,,,210,,,,,,,,,,,og-post,,,,AAXX 07224 07181 32965 42104 10067 20045 39868 40295 51003 82031 333 82363 83075=
07181,1999-10-07 23:00:00,5.8,1029.6,-0.3,93,4.8,15000,7.408,,,210,,,,,,,,,,,og-post,,,,AAXX 07234 07181 32965 42104 10058 20048 39867 40296 56003 82032 333 82363 83075=
07181,1999-10-08 00:00:00,6.4,1029.3,-0.2,90,4.9,15000,7.408,,,180,,,,,,,,,,,og-post,,,,AAXX 08004 07181 32765 41804 10064 20049 39865 40293 58002 82502 333 82650 83075=
07181,1999-10-08 01:00:00,5.6,1029.4,-0.3,93,4.6,15000,3.704,,,250,,,,,,,,,,,og-post,,,,AAXX 08014 07181 32765 42502 10056 20046 39865 40294 56003 82502 333 82650 83075=
07181,1999-10-08 02:00:00,5.2,1029.2,-0.4,94,4.3,9000,11.112,,,190,,,,,,,,,,,og-post,,,,AAXX 08024 07181 32759 41906 10052 20043 39863 40292 57004 82502 333 82650 83075=
07181,1999-10-08 03:00:00,5,1029.2,-0.3,94,4.1,9000,7.408,,,190,,,,,,,,,,,og-post,,,,AAXX 08034 07181 32759 41904 10050 20041 39862 40292 58003 82502 333 82650 83075=
07181,1999-10-08 04:00:00,5.6,1029.1,-0.3,93,4.6,9000,7.408,,,210,,,,,,,,,,,og-post,,,,AAXX 08044 07181 32759 42104 10056 20046 39862 40291 56003 82502 333 82650 83075=
07181,1999-10-08 05:00:00,5.9,1028.7,-0.4,92,4.7,12000,11.112,,,210,,,,,,,,,,,og-post,,,,AAXX 08054 07181 32662 72106 10059 20047 39859 40287 58004 86530 333 86643 83360=
07181,1999-10-08 06:00:00,6.7,1028.7,-0.2,89,5,12000,14.816,,,220,4.7,8.2,,,,,0,,1,,og-post,,,,AAXX 08064 07181 32662 72208 10067 20050 39860 40287 55002 86530 333 10082 20047 3/001 55/// 70000 86643 83360=
07181,1999-10-08 07:00:00,7.4,1028.9,0.1,87,5.4,20000,14.816,,,200,,,,,,,,,,,og-post,,,,AAXX 08074 07181 32670 72008 10074 20054 39863 40289 53001 875// 333 87646=
07181,1999-10-08 08:00:00,8.1,1029,0.6,85,5.7,20000,11.112,,,210,,,,,,,,,,,og-post,,,,AAXX 08084 07181 32670 72106 10081 20057 39865 40290 53006 875// 333 87640=
07181,1999-10-08 09:00:00,9.2,1028.8,0.5,82,6.3,20000,22.224,,,210,,,,,,,,,,,og-post,,,,AAXX 08094 07181 32670 72112 10092 20063 39865 40288 51005 86501 333 86643 86075=
07181,1999-10-08 10:00:00,11.1,1028.3,0,78,7.4,20000,18.52,,,220,,,,,,,,,,,og-post,,,,AAXX 08104 07181 32670 72210 10111 20074 39863 40283 50000 86501 333 86646 86075=
07181,1999-10-08 11:00:00,11.8,1028,-0.4,75,7.5,20000,22.224,,,220,,,,,,,,,,,og-post,,,,AAXX 08114 07181 32670 72212 10118 20075 39861 40280 58004 86501 333 86640 87075=
07181,1999-10-08 12:00:00,11.6,1027.6,-0.8,75,7.3,20000,29.632,,,230,,,,,,,,,,,og-post,,,,AAXX 08124 07181 32570 82316 10116 20073 39857 40276 58008 875// 333 83630 86640=
07181,1999-10-08 13:00:00,10.7,1027.2,-1.1,87,8.6,9000,25.928,,,230,,,,,,,,,,60,og-post,,,,AAXX 08134 07181 21559 82314 10107 20086 39852 40272 58011 76062 875// 333 69905 87626=
07181,1999-10-08 14:00:00,10.5,1027,-1.1,91,9.1,10000,18.52,,,220,,,0.2,,,,,,,60,og-post,,,,AAXX 08144 07181 21560 82210 10105 20091 39850 40270 56011 76066 875// 333 69925 86623 87646=
07181,1999-10-08 16:00:00,10,1026.3,-1,96,9.4,10000,22.224,,,210,,,0.2,,,,,,,21,og-post,,,,AAXX 08164 07181 21560 82112 10100 20094 39842 40263 58010 72162 875// 333 69925 84620 87630=
07181,1999-10-08 17:00:00,10.2,1026.5,-0.5,95,9.4,10000,18.52,,,220,,,,,,,,,,21,og-post,,,,AAXX 08174 07181 31460 82210 10102 20094 39845 40265 55005 72122 875// 333 84616 87623=
07181,1999-10-08 18:00:00,10.5,1026.6,-0,94,9.6,7000,22.224,,,230,6.6,12.1,,0.2,,0.8,,,,50,og-post,,,,AAXX 08184 07181 /1457 82312 10105 20096 39846 40266 55000 69982 75065 877// 333 10121 20066 69927 87710=
07181,1999-10-08 19:00:00,10.1,1026.7,0.4,98,9.8,6000,18.52,,,230,,,,,,,,,,20,og-post,,,,AAXX 08194 07181 21356 82310 10101 20098 39846 40267 51004 72052 877// 333 69905 87708=
07181,1999-10-08 20:00:00,10.3,1026.8,0.3,99,10.1,2000,18.52,,,230,,,,,,,,,,50,og-post,,,,AAXX 08204 07181 21220 82310 10103 20101 39848 40268 53003 75052 877// 333 69905 87703=
07181,1999-10-08 21:00:00,10.7,1026.7,0.1,99,10.5,7000,14.816,,,220,,,,,,,,,,20,og-post,,,,AAXX 08214 07181 21357 82208 10107 20105 39847 40267 50001 72052 877// 333 69907 87707=
07181,1999-10-08 22:00:00,10.8,1026.7,0.2,98,10.5,5000,22.224,,,240,,,,,,,,,,,og-post,,,,AAXX 08224 07181 32350 82412 10108 20105 39848 40267 51002 875// 333 85708 87620=
07181,1999-10-08 23:00:00,10.6,1026.5,-0.3,99,10.4,2800,18.52,,,220,,,,,,,,,,,og-post,,,,AAXX 08234 07181 36/28 /2210 10106 20104 39845 40265 58003=
07181,1999-10-09 00:00:00,10.7,1026.3,-0.3,100,10.7,3000,18.52,,,220,,,,,,,,,,50,og-post,,,,AAXX 09004 07181 /1230 82210 10107 20107 39844 40263 58003 69901 75052 877// 333 69907 87703=
07181,1999-10-09 01:00:00,10.8,1026.3,-0.4,100,10.8,1900,14.816,,,230,,,,,,,,,,,og-post,,,,AAXX 09014 07181 26/19 /2308 10108 20108 39844 40263 56004 333 69905=
07181,1999-10-09 02:00:00,10.8,1025.7,-0.7,100,10.8,4100,14.816,,,230,,,0.2,,,,,,,,og-post,,,,AAXX 09024 07181 26/41 /2308 10108 20108 39838 40257 58007 333 69925=
07181,1999-10-09 03:00:00,10.8,1025.4,-0.9,100,10.8,3900,11.112,,,230,,,,0.2,,,,,,,og-post,,,,AAXX 09034 07181 26/39 /2306 10108 20108 39835 40254 58009 333 69927=
07181,1999-10-09 04:00:00,10.8,1025.6,-0.7,99,10.6,5000,7.408,,,250,,,,,,,,,,,og-post,,,,AAXX 09044 07181 32450 82504 10108 20106 39837 40256 55007 875// 333 85710 87633=
07181,1999-10-09 05:00:00,10.7,1025.8,0.1,99,10.5,3000,11.112,,,240,,,,,,,,,,10,og-post,,,,AAXX 09054 07181 31430 82406 10107 20105 39839 40258 53001 71022 875// 333 85710 87636=
07181,1999-10-09 06:00:00,10.4,1025.9,0.4,98,10.1,4000,11.112,,,240,10.1,10.9,,,,0.2,1,,10,10,og-post,,,,AAXX 09064 07181 11440 82406 10104 20101 39839 40259 51004 69922 71052 875// 333 10109 20101 32010 55/// 70010 82710 87640=
07181,1999-10-09 07:00:00,10.6,1026.5,0.8,96,10,5000,14.816,,,240,,,,,,,,,,,og-post,,,,AAXX 09074 07181 32450 82408 10106 20100 39845 40265 53008 875// 333 81710 87640=
07181,1999-10-09 11:00:00,14.2,1026.1,-0,74,9.6,18000,18.52,,,240,,,,,,,,,,,og-post,,,,AAXX 09114 07181 32568 72410 10142 20096 39847 40261 55000 86501 333 85820 84640=
07181,1999-10-09 13:00:00,13.5,1025.6,-0.6,76,9.4,18000,14.816,,,240,,,,,,,,,,,og-post,,,,AAXX 09134 07181 32568 82408 10135 20094 39841 40256 58006 872// 333 87825=
07181,1999-10-09 14:00:00,13.5,1025.9,-0.3,78,9.7,18000,14.816,,,250,,,,,,,,,,,og-post,,,,AAXX 09144 07181 32568 82508 10135 20097 39844 40259 55003 872// 333 87828=
07181,1999-10-09 15:00:00,13.5,1025.9,-0,78,9.7,18000,14.816,,,260,,,,,,,,,,,og-post,,,,AAXX 09154 07181 32568 82608 10135 20097 39844 40259 55000 875// 333 87623=
07181,1999-10-09 16:00:00,12.9,1026.1,0.4,83,10.1,18000,11.112,,,260,,,,,,,,,,,og-post,,,,AAXX 09164 07181 32568 82606 10129 20101 39845 40261 51004 875// 333 87620=
07181,1999-10-09 17:00:00,12.6,1026.3,0.2,86,10.3,13000,14.816,,,250,,,,,,,,,,,og-post,,,,AAXX 09174 07181 32463 82508 10126 20103 39846 40263 53002 885// 333 88615=
07181,1999-10-09 18:00:00,12,1027.1,0.9,90,10.4,13000,11.112,,,240,10.3,14.7,,,,,,,,,og-post,,,,AAXX 09184 07181 32463 82406 10120 20104 39853 40271 53009 885// 333 10147 20103 88612=
07181,1999-10-09 19:00:00,11.8,1027.2,0.9,92,10.5,13000,14.816,,,240,,,,,,,,,,,og-post,,,,AAXX 09194 07181 32463 82408 10118 20105 39854 40272 52009 885// 333 88610=
07181,1999-10-09 20:00:00,11.5,1027.7,1.2,96,10.9,12000,14.816,,,240,,,,,,,,,,,og-post,,,,AAXX 09204 07181 32462 82408 10115 20109 39858 40277 51012 885// 333 88610=
07181,1999-10-09 21:00:00,11.6,1027.8,0.6,94,10.7,12000,18.52,,,250,,,,,,,,,,,og-post,,,,AAXX 09214 07181 32362 82510 10116 20107 39859 40278 52006 887// 333 88708=
07181,1999-10-09 22:00:00,11.6,1027.5,0.2,94,10.7,12000,11.112,,,240,,,,,,,,,,,og-post,,,,AAXX 09224 07181 32462 82406 10116 20107 39856 40275 50002 887// 333 88710=
07181,1999-10-09 23:00:00,11.8,1027.6,-0,93,10.7,12000,14.816,,,250,,,,,,,,,,,og-post,,,,AAXX 09234 07181 32462 82508 10118 20107 39858 40276 55000 885// 333 88611=
07181,1999-10-10 00:00:00,11.6,1027.8,-0,94,10.7,12000,7.408,,,260,,,,,,,,,,,og-post,,,,AAXX 10004 07181 32462 82604 10116 20107 39859 40278 55000 885// 333 88610=
07181,1999-10-10 01:00:00,11.5,1027.5,0,94,10.6,12000,7.408,,,250,,,,,,,,,,,og-post,,,,AAXX 10014 07181 32362 82504 10115 20106 39856 40275 50000 885/ 333 88708=
07181,1999-10-10 03:00:00,11,1027.2,-0.6,98,10.7,9000,14.816,,,220,,,,,,,,,,50,og-post,,,,AAXX 10034 07181 21259 82208 10110 20107 39853 40272 56006 75052 887// 333 69907 88706=
07181,1999-10-10 04:00:00,10.6,1027.3,-0.3,99,10.4,6000,14.816,,,220,,,0.2,,,,,,,50,og-post,,,,AAXX 10044 07181 21156 82208 10106 20104 39853 40273 56003 75055 887// 333 69925 82702 87706=
07181,1999-10-10 05:00:00,10.6,1027.4,0.1,100,10.6,3000,7.408,,,230,,,,,,,,,,50,og-post,,,,AAXX 10054 07181 21130 82304 10106 20106 39854 40274 53001 75055 887// 333 69905 83702 88705=
07181,1999-10-10 07:00:00,10.7,1027.9,0.6,99,10.5,8000,11.112,,,230,,,,,,,,,,,og-post,,,,AAXX 10074 07181 32358 82306 10107 20105 39859 40279 53006 885// 333 84706 87620=
07181,1999-10-10 08:00:00,10.9,1028.3,0.9,98,10.6,8000,11.112,,,220,,,,,,,,,,,og-post,,,,AAXX 10084 07181 32358 82206 10109 20106 39863 40283 53009 885// 333 83706 87620=
07181,1999-10-10 09:00:00,11.3,1028.3,1,97,10.8,8000,14.816,,,210,,,,,,,,,,,og-post,,,,AAXX 10094 07181 32358 82108 10113 20108 39864 40283 51010 885// 333 83706 87620=
07181,1999-10-10 10:00:00,11.7,1028.4,0.6,94,10.8,8000,11.112,,,240,,,,,,,,,,,og-post,,,,AAXX 10104 07181 32358 82406 10117 20108 39865 40284 51006 885// 333 85706 87620=
07181,1999-10-10 11:00:00,12.1,1028,-0.1,89,10.3,11000,11.112,,,230,,,,,,,,,,,og-post,,,,AAXX 10114 07181 32361 82306 10121 20103 39862 40280 58001 885// 333 82708 87613=
07181,1999-10-10 12:00:00,12,1027.7,-0.5,87,9.9,15000,11.112,,,270,,,,,,,,,,,og-post,,,,AAXX 10124 07181 32465 82706 10120 20099 39859 40277 58005 885// 333 88615=
07181,1999-10-10 13:00:00,12,1027.4,-0.9,86,9.7,15000,11.112,,,260,,,,,,,,,,,og-post,,,,AAXX 10134 07181 32465 82606 10120 20097 39856 40274 57009 875// 333 87615=
07181,1999-10-10 14:00:00,12.1,1027,-1,84,9.5,15000,11.112,,,210,,,,,,,,,,,og-post,,,,AAXX 10144 07181 32465 82106 10121 20095 39852 40270 58010 875// 333 87616=
07181,1999-10-10 15:00:00,12.4,1026.7,-0.9,84,9.8,15000,11.112,,,190,,,,,,,,,,,og-post,,,,AAXX 10154 07181 32565 81906 10124 20098 39850 40267 56009 875// 333 87620=
07181,1999-10-10 16:00:00,12.2,1026.6,-0.7,86,9.9,15000,11.112,,,190,,,,,,,,,,,og-post,,,,AAXX 10164 07181 32565 81906 10122 20099 39849 40266 56007 875// 333 87620=
07181,1999-10-10 17:00:00,11.9,1026.9,-0.1,87,9.8,15000,11.112,,,150,,,,,,,,,,,og-post,,,,AAXX 10174 07181 32565 81506 10119 20098 39851 40269 55001 875// 333 87620=
07181,1999-10-10 18:00:00,11.8,1027.2,0.4,87,9.7,15000,11.112,,,200,10.5,12.4,,,,,,,,,og-post,,,,AAXX 10184 07181 32565 82006 10118 20097 39854 40272 53004 875// 333 10124 20105 87626=
07181,1999-10-10 19:00:00,11.6,1027.4,0.6,88,9.7,15000,11.112,,,200,,,,,,,,,,,og-post,,,,AAXX 10194 07181 32565 82006 10116 20097 39855 40274 51006 875// 333 87630=
07181,1999-10-10 20:00:00,11.8,1027.1,0.2,86,9.5,15000,11.112,,,180,,,,,,,,,,,og-post,,,,AAXX 10204 07181 32565 81806 10118 20095 39853 40271 50002 875// 333 87630=
07181,1999-10-10 21:00:00,11.2,1027.1,-0.2,91,9.8,15000,14.816,,,170,,,,,,,,,,,og-post,,,,AAXX 10214 07181 32565 81708 10112 20098 39852 40271 58002 875// 333 87630=
07181,1999-10-10 22:00:00,11.1,1027.2,-0.2,91,9.7,15000,7.408,,,160,,,,,,,,,,,og-post,,,,AAXX 10224 07181 32665 81604 10111 20097 39853 40272 55002 875// 333 87633=
07181,1999-10-10 23:00:00,11.2,1027,-0.2,90,9.6,15000,7.408,,,160,,,,,,,,,,,og-post,,,,AAXX 10234 07181 32665 81604 10112 20096 39851 40270 58002 875// 333 87633=
07181,1999-10-11 00:00:00,11.1,1026.8,-0.3,90,9.5,17000,7.408,,,150,,,,,,,,,,,og-post,,,,AAXX 11004 07181 36/67 /1504 10111 20095 39849 40268 58003=
07181,1999-10-11 01:00:00,11,1027,-0.2,90,9.4,15000,7.408,,,220,,,,,,,,,,,og-post,,,,AAXX 11014 07181 32665 82204 10110 20094 39851 40270 55002 875// 333 87633=
07181,1999-10-11 03:00:00,10.6,1027.1,0.2,92,9.4,15000,11.112,,,230,,,,,,,,,,,og-post,,,,AAXX 11034 07181 32665 82306 10106 20094 39851 40271 52002 875// 333 87636=
07181,1999-10-11 04:00:00,10.8,1026.9,-0.2,91,9.4,15000,7.408,,,200,,,,,,,,,,,og-post,,,,AAXX 11044 07181 32665 82004 10108 20094 39849 40269 57002 875// 333 87636=
07181,1999-10-11 05:00:00,10.8,1026.8,-0.1,92,9.6,12000,7.408,,,230,,,,,,,,,,,og-post,,,,AAXX 11054 07181 32662 82304 10108 20096 39848 40268 58001 875// 333 87646=
07181,1999-10-11 06:00:00,10.6,1026.9,-0.2,91,9.2,12000,11.112,,,200,10.6,11.8,,,,,0,,10,,og-post,,,,AAXX 11064 07181 32462 82006 10106 20092 39849 40269 55002 875// 333 10118 20106 31010 55/// 70000 82715 87646=
07181,1999-10-11 07:00:00,11.4,1026.8,-0,90,9.8,15000,3.704,,,170,,,,,,,,,,,og-post,,,,AAXX 11074 07181 32665 61702 10114 20098 39849 40268 55000 86500 333 86646=
07181,1999-10-11 08:00:00,12.8,1027.1,0.6,87,10.7,12000,11.112,,,220,,,,,,,,,,,og-post,,,,AAXX 11084 07181 32662 72206 10128 20107 39854 40271 53006 875// 333 83636 87646=
07181,1999-10-11 09:00:00,14.3,1027.3,0.9,84,11.6,15000,11.112,,,230,,,,,,,,,,,og-post,,,,AAXX 11094 07181 32665 72306 10143 20116 39858 40273 53009 875// 333 83636 87650=
07181,1999-10-11 10:00:00,14.5,1027.3,1,84,11.8,15000,14.816,,,230,,,,,,,,,,,og-post,,,,AAXX 11104 07181 32465 82308 10145 20118 39859 40273 51010 878// 333 83816 84633 87650=
07181,1999-10-11 11:00:00,14.6,1027.3,0.5,85,12.1,15000,14.816,,,230,,,,,,,,,,,og-post,,,,AAXX 11114 07181 32465 82308 10146 20121 39859 40273 51005 878// 333 83813 86633=
07181,1999-10-11 12:00:00,15.6,1026.7,-0.3,83,12.7,15000,14.816,,,230,,,,,,,,,,,og-post,,,,AAXX 11124 07181 32465 82308 10156 20127 39855 40267 58003 878// 333 84813 87630=
07181,1999-10-11 13:00:00,15.9,1026.5,-0.6,80,12.5,15000,11.112,,,280,,,,,,,,,,,og-post,,,,AAXX 11134 07181 32465 82806 10159 20125 39853 40265 58006 872// 333 87813=
07181,1999-10-11 14:00:00,16.2,1026.2,-0.8,79,12.6,20000,11.112,,,260,,,,,,,,,,,og-post,,,,AAXX 11144 07181 32470 72606 10162 20126 39851 40262 56008 878// 333 86815 86650=
07181,1999-10-11 15:00:00,15.6,1026.3,-0.4,84,12.9,20000,11.112,,,270,,,,,,,,,,,og-post,,,,AAXX 11154 07181 32470 72706 10156 20129 39851 40263 56004 878// 333 84813 87630=
07181,1999-10-11 16:00:00,14.9,1026.2,-0.4,88,12.9,20000,7.408,,,280,,,,,,,,,,,og-post,,,,AAXX 11164 07181 32470 72804 10149 20129 39849 40262 57004 86801 333 81813 86630 86075=
07181,1999-10-11 17:00:00,14.5,1026.4,-0.1,91,13,20000,3.704,,,220,,,,,,,,,,,og-post,,,,AAXX 11174 07181 32770 72202 10145 20130 39850 40264 55001 875// 333 87650=
07181,1999-10-11 18:00:00,13.8,1026.6,-0,93,12.7,20000,3.704,,,250,10.6,16.5,,,,,,,,,og-post,,,,AAXX 11184 07181 32770 72502 10138 20127 39851 40266 55000 875// 333 10165 20106 87650=
07181,1999-10-11 19:00:00,13.2,1026.9,0.4,96,12.6,20000,3.704,,,250,,,,,,,,,,,og-post,,,,AAXX 11194 07181 32770 72502 10132 20126 39853 40269 53004 875// 333 87650=
07181,1999-10-11 20:00:00,12.6,1027.4,0.7,98,12.3,12000,3.704,,,210,,,,,,,,,,,og-post,,,,AAXX 11204 07181 32762 62102 10126 20123 39857 40274 53007 86500 333 86650=
07181,1999-10-11 21:00:00,12.5,1027.2,0.4,99,12.3,12000,3.704,,,200,,,,,,,,,,,og-post,,,,AAXX 11214 07181 32762 62002 10125 20123 39855 40272 50004 86500 333 86650=
07181,1999-10-11 22:00:00,12.2,1027.1,0.1,99,12,12000,3.704,,,170,,,,,,,,,,,og-post,,,,AAXX 11224 07181 32762 61702 10122 20120 39854 40271 50001 86500 333 86650=
07181,1999-10-11 23:00:00,12.4,1027.1,-0.3,99,12.2,11000,3.704,,,190,,,,,,,,,,,og-post,,,,AAXX 11234 07181 36/61 /1902 10124 20122 39854 40271 56003=
07181,1999-10-12 00:00:00,12.3,1026.9,-0.3,99,12.1,10000,,,,,,,,,,,,,,,og-post,,,,AAXX 12004 07181 32360 70000 10123 20121 39852 40269 58003 875// 333 83608 87657=
07181,1999-10-12 01:00:00,12.6,1026.8,-0.3,99,12.4,9000,,,,,,,,,,,,,,,og-post,,,,AAXX 12014 07181 32359 80000 10126 20124 39851 40268 58003 877// 333 87707=
07181,1999-10-12 02:00:00,12.4,1026.6,-0.5,99,12.2,6000,,,,,,,,,,,,,,,og-post,,,,AAXX 12024 07181 32256 80000 10124 20122 39849 40266 57005 877// 333 87705=
07181,1999-10-12 03:00:00,12.2,1026.5,-0.4,99,12,5000,,,,,,,,,,,,,,,og-post,,,,AAXX 12034 07181 36/50 /0000 10122 20120 39848 40265 57004=
07181,1999-10-12 04:00:00,12.3,1026.6,-0.2,99,12.1,5000,,,,,,,,,,,,,,,og-post,,,,AAXX 12044 07181 32250 80000 10123 20121 39849 40266 55002 877// 333 87705=
07181,1999-10-12 05:00:00,12.1,1026.8,0.2,100,12.1,5000,,,,,,,,,,,,,,,og-post,,,,AAXX 12054 07181 32350 80000 10121 20121 39851 40268 53002 887// 333 86706 85626=
07181,1999-10-12 06:00:00,11.9,1027,0.4,100,11.9,2500,3.704,,,30,11.7,13.8,,,,,0,,9,10,og-post,,,,AAXX 12064 07181 31325 80302 10119 20119 39852 40270 52004 71022 877// 333 10138 20117 3/009 55/// 70000 86706 85630=
07181,1999-10-12 07:00:00,12.3,1027.2,0.6,100,12.3,3000,,,,,,,,,,,,,,10,og-post,,,,AAXX 12074 07181 31330 80000 10123 20123 39855 40272 53006 71022 877// 333 83706 85611=
07181,1999-10-12 08:00:00,13.3,1027.6,0.9,98,13,5000,3.704,,,30,,,,,,,,,,,og-post,,,,AAXX 12084 07181 32350 80302 10133 20130 39860 40276 53009 877// 333 82706 85612 85650=
07181,1999-10-12 09:00:00,14.2,1027.8,1.1,91,12.8,5000,3.704,,,10,,,,,,,,,,,og-post,,,,AAXX 12094 07181 32250 80102 10142 20128 39863 40278 52011 878// 333 83705 84812 85650=
07181,1999-10-12 10:00:00,14.2,1028.1,1.1,92,12.9,5000,11.112,,,360,,,,,,,,,,,og-post,,,,AAXX 12104 07181 32250 83606 10142 20129 39866 40281 51011 888// 333 84705 85816 86650=
07181,1999-10-12 11:00:00,14.7,1028,0.6,90,13.1,7000,11.112,,,20,,,,,,,,,,,og-post,,,,AAXX 12114 07181 32357 70206 10147 20131 39866 40280 51006 878// 333 83706 85811 86650=
07181,1999-10-12 13:00:00,15.7,1026.9,-0.9,83,12.8,10000,14.816,,,40,,,,,,,,,,,og-post,,,,AAXX 12134 07181 32460 60408 10157 20128 39857 40269 58009 86200 333 82813 85820=
07181,1999-10-12 14:00:00,15.1,1026.6,-1.3,81,11.9,10000,11.112,,,360,,,,,,,,,,,og-post,,,,AAXX 12144 07181 32460 63606 10151 20119 39853 40266 56013 86200 333 83813 85820=
07181,1999-10-12 15:00:00,14.7,1026.5,-1,83,11.8,12000,11.112,,,30,,,,,,,,,,,og-post,,,,AAXX 12154 07181 32462 40306 10147 20118 39851 40265 56010 84200 333 84815=
07181,1999-10-12 16:00:00,13.7,1026.5,-0.7,86,11.4,14000,11.112,,,50,,,,,,,,,,,og-post,,,,AAXX 12164 07181 32464 70506 10137 20114 39850 40265 56007 872// 333 87813=
07181,1999-10-12 17:00:00,12.2,1027.3,0.2,91,10.8,12000,7.408,,,40,,,,,,,,,,,og-post,,,,AAXX 12174 07181 32562 60404 10122 20108 39855 40273 53002 86200 333 86823=
07181,1999-10-12 18:00:00,10.9,1027.7,0.6,95,10.1,10000,7.408,,,60,10.9,16.3,,,,,,,,,og-post,,,,AAXX 12184 07181 32560 20604 10109 20101 39857 40277 53006 82200 333 10163 20109 82823=
07181,1999-10-12 19:00:00,10.5,1028,1,96,9.9,10000,11.112,,,60,,,,,,,,,,,og-post,,,,AAXX 12194 07181 32560 10606 10105 20099 39860 40280 51010 81100 333 81823=
07181,1999-10-12 20:00:00,9.9,1028.1,0.5,98,9.6,10000,7.408,,,60,,,,,,,,,,,og-post,,,,AAXX 12204 07181 32560 10604 10099 20096 39860 40281 51005 81100 333 81823=
07181,1999-10-12 21:00:00,10.5,1028.3,0.5,98,10.2,10000,7.408,,,60,,,,,,,,,,,og-post,,,,AAXX 12214 07181 32960 00604 10105 20102 39862 40283 51005=
07181,1999-10-12 22:00:00,9.7,1028.1,-0.1,98,9.4,5000,7.408,,,40,,,,,,,,,,,og-post,,,,AAXX 12224 07181 36/50 /0404 10097 20094 39859 40281 58001=
07181,1999-10-12 23:00:00,8.6,1028,-0.3,98,8.3,5000,7.408,,,10,,,,,,,,,,,og-post,,,,AAXX 12234 07181 32950 00104 10086 20083 39857 40280 58003=
07181,1999-10-13 00:00:00,7.7,1028,-0.7,98,7.4,5000,3.704,,,10,,,,,,,,,,,og-post,,,,AAXX 13004 07181 32950 00102 10077 20074 39855 40280 56007=
07181,1999-10-13 01:00:00,7.9,1027.4,-0.9,96,7.3,5000,11.112,,,70,,,,,,,,,,,og-post,,,,AAXX 13014 07181 32950 00706 10079 20073 39850 40274 58009=
07181,1999-10-13 02:00:00,8,1027.2,-0.9,92,6.8,5000,7.408,,,50,,,,,,,,,,,og-post,,,,AAXX 13024 07181 32950 00504 10080 20068 39848 40272 57009=
07181,1999-10-13 03:00:00,5.8,1027.6,-0.7,95,5.1,5000,3.704,,,10,,,,,,,,,,,og-post,,,,AAXX 13034 07181 32950 00102 10058 20051 39848 40276 56007=
07181,1999-10-13 04:00:00,4.9,1027.7,-0.2,97,4.5,5000,7.408,,,30,,,,,,,,,,,og-post,,,,AAXX 13044 07181 32950 00304 10049 20045 39848 40277 56002=
07181,1999-10-13 05:00:00,4.8,1027.7,-0,98,4.5,5000,7.408,,,60,,,,,,,,,,,og-post,,,,AAXX 13054 07181 32950 20604 10048 20045 39848 40277 54000 80001 333 82075=
07181,1999-10-13 06:00:00,4.4,1027.7,-0.1,98,4.1,3000,3.704,,,360,4.2,10.9,,,,,0,,0,10,og-post,,,,AAXX 13064 07181 31930 33602 10044 20041 39847 40277 58001 71000 80001 333 10109 20042 31000 55/// 70000 83075=
07181,1999-10-13 07:00:00,5.7,1027.4,-0.2,100,5.7,4000,,,,,,,,,,,,,,10,og-post,,,,AAXX 13074 07181 31940 50000 10057 20057 39846 40274 58002 71011 82031 333 82360 85075=
07181,1999-10-13 08:00:00,7,1027.8,0.4,99,6.9,5000,7.408,,,280,,,,,,,,,,,og-post,,,,AAXX 13084 07181 32150 52804 10070 20069 39852 40278 53004 81731 333 82702 85075=
07181,1999-10-13 09:00:00,7.7,1027.8,0.6,98,7.4,7000,3.704,,,320,,,,,,,,,,,og-post,,,,AAXX 13094 07181 32157 53202 10077 20074 39853 40278 53006 81731 333 81702 85075=
07181,1999-10-13 10:00:00,9.9,1027.6,0.9,97,9.4,8000,3.704,,,270,,,,,,,,,,,og-post,,,,AAXX 13104 07181 32158 52702 10099 20094 39855 40276 51009 81731 333 81702 85075=
07181,1999-10-13 11:00:00,12.8,1027.1,0.2,80,9.4,9000,7.408,,,50,,,,,,,,,,,og-post,,,,AAXX 13114 07181 32459 50504 10128 20094 39854 40271 50002 81131 333 81816 85075=
07181,1999-10-13 12:00:00,14.2,1026.2,-0.5,76,10,10000,7.408,,,30,,,,,,,,,,,og-post,,,,AAXX 13124 07181 32560 60304 10142 20100 39848 40262 58005 82131 333 82820 85075=
07181,1999-10-13 13:00:00,14.6,1025.8,-1.1,74,10,11000,11.112,,,60,,,,,,,,,,,og-post,,,,AAXX 13134 07181 32561 60606 10146 20100 39844 40258 58011 83131 333 83820 85075=
07181,1999-10-13 14:00:00,14.1,1025.9,-0.9,76,9.9,11000,7.408,,,60,,,,,,,,,,,og-post,,,,AAXX 13144 07181 32561 60604 10141 20099 39845 40259 55009 82531 333 82623 85075=
07181,1999-10-13 15:00:00,13.8,1025.7,-0.6,78,10,13000,,,,,,,,,,,,,,,og-post,,,,AAXX 13154 07181 36/63 ///// 10138 20100 39842 40257 56006=
07181,1999-10-13 16:00:00,13,1025.8,-0.2,82,10,11000,7.408,,,40,,,,,,,,,,,og-post,,,,AAXX 13164 07181 32561 60404 10130 20100 39842 40258 58002 82531 333 84623 85075=
07181,1999-10-13 17:00:00,11.4,1026.3,-0.1,88,9.5,11000,7.408,,,40,,,,,,,,,,,og-post,,,,AAXX 13174 07181 32561 60404 10114 20095 39844 40263 55001 81531 333 81623 85075=
07181,1999-10-13 19:00:00,8.9,1026.6,0.2,95,8.1,12000,,,,,,,,,,,,,,,og-post,,,,AAXX 13194 07181 32962 4//// 10089 20081 39844 40266 50002 80002 333 84075=
07181,1999-10-13 20:00:00,8.9,1026.8,0.2,97,8.4,5000,,,,,,,,,,,,,,,og-post,,,,AAXX 13204 07181 32950 3//// 10089 20084 39846 40268 53002 80002 333 83075=
07181,1999-10-13 21:00:00,8.5,1026.9,0.1,97,8.1,5000,,,,,,,,,,,,,,,og-post,,,,AAXX 13214 07181 32950 2//// 10085 20081 39846 40269 53001 80002 333 82075=
07181,1999-10-13 22:00:00,8.2,1027,0.2,97,7.8,5000,,,,,,,,,,,,,,,og-post,,,,AAXX 13224 07181 32950 2//// 10082 20078 39846 40270 51002 80002 333 82075=
07181,1999-10-13 23:00:00,6.7,1027.3,0.1,97,6.3,5000,,,,,,,,,,,,,,,og-post,,,,AAXX 13234 07181 32950 0//// 10067 20063 39847 40273 53001=
07181,1999-10-14 00:00:00,5.9,1027.3,0,96,5.3,5000,,,,,,,,0.2,0.2,,,,,,og-post,,,,AAXX 14004 07181 /2950 0//// 10059 20053 39846 40273 50000 69921 333 69927=
07181,1999-10-14 01:00:00,4.2,1027.7,0.1,99,4.1,2800,,,,,,,,,,,,,,,og-post,,,,AAXX 14014 07181 36/28 ///// 10042 20041 39847 40277 52001=
07181,1999-10-14 02:00:00,3.7,1027.6,-0.2,100,3.7,1500,,,,,,,,,,,,,,40,og-post,,,,AAXX 14024 07181 31915 0//// 10037 20037 39845 40276 58002 74000=
07181,1999-10-14 03:00:00,3,1027.5,-0.3,100,3,200,,,,,,,,,,,,,,,og-post,,,,AAXX 14034 07181 36/02 ///// 10030 20030 39843 40275 58003=
07181,1999-10-14 04:00:00,2.8,1027.5,-0.4,100,2.8,2000,,,,,,,,,,,,,,40,og-post,,,,AAXX 14044 07181 31920 0//// 10028 20028 39843 40275 56004 74000=
07181,1999-10-14 05:00:00,2.6,1027.2,-0.6,100,2.6,100,,,,,,,,,,,,,,42,og-post,,,,AAXX 14054 07181 31101 5//// 10026 20026 39839 40272 58006 74241 85600 333 85702=
07181,1999-10-14 06:00:00,2.2,1027.2,-0.4,100,2.2,500,,,,,1.8,10,,,,0.2,0.2,,-2,46,og-post,,,,AAXX 14064 07181 11200 6//// 10022 20022 39839 40272 57004 69922 74641 86600 333 10100 20018 3/102 55/// 70002 86703=
07181,1999-10-14 07:00:00,2.7,1027.7,0.1,100,2.7,100,,,,,,,,,,,,,,42,og-post,,,,AAXX 14074 07181 31101 70000 10027 20027 39844 40277 53001 74244 876// 333 83702 87703=
07181,1999-10-14 08:00:00,4.3,1027.9,1,100,4.3,100,11.112,,,360,,,,,,,,,,42,og-post,,,,AAXX 14084 07181 31201 63606 10043 20043 39849 40279 53010 74244 86600 333 86703=
07181,1999-10-14 09:00:00,6.2,1027.5,0.9,100,6.2,300,3.704,,,360,,,,,,,,,,42,og-post,,,,AAXX 14094 07181 31203 63602 10062 20062 39848 40275 50009 74244 84601 333 84703 85075=
07181,1999-10-14 10:00:00,7.8,1027.1,0.3,100,7.8,500,,,,,,,,,,,,,,42,og-post,,,,AAXX 14104 07181 31105 60000 10078 20078 39847 40271 50003 74244 86600 333 83702 85703=
07181,1999-10-14 11:00:00,9.9,1026.7,-0.3,100,9.9,1600,,,,,,,,,,,,,,28,og-post,,,,AAXX 14114 07181 31316 20000 10099 20099 39846 40267 57003 72841 82100 333 82808=
07181,1999-10-14 13:00:00,14,1024.8,-1.3,69,8.4,11000,14.816,,,60,,,,,,,,,,,og-post,,,,AAXX 14134 07181 32561 10608 10140 20084 39834 40248 58013 81100 333 81823=
07181,1999-10-14 14:00:00,14.6,1024.3,-1.6,68,8.8,12000,11.112,,,70,,,,,,,,,,,og-post,,,,AAXX 14144 07181 32962 00706 10146 20088 39830 40243 56016=
07181,1999-10-14 16:00:00,13.4,1024,-0.9,71,8.3,12000,7.408,,,50,,,,,,,,,,,og-post,,,,AAXX 14164 07181 32962 10504 10134 20083 39825 40240 56009 80001 333 81075=
07181,1999-10-14 17:00:00,11.5,1024.3,-0.5,79,8,12000,3.704,,,40,,,,,,,,,,,og-post,,,,AAXX 14174 07181 32962 20402 10115 20080 39825 40243 56005 80001 333 82075=
07181,1999-10-14 19:00:00,9.3,1024.7,0.1,83,6.6,12000,11.112,,,60,,,,,,,,,,,og-post,,,,AAXX 14194 07181 32962 20606 10093 20066 39826 40247 52001 81031 333 81359=
07181,1999-10-14 20:00:00,9.6,1024.5,-0.1,80,6.3,12000,11.112,,,60,,,,,,,,,,,og-post,,,,AAXX 14204 07181 32962 20606 10096 20063 39824 40245 58001 80001 333 82075=
07181,1999-10-14 22:00:00,7.8,1024.4,-0.5,86,5.6,12000,7.408,,,50,,,,,,,,,,,og-post,,,,AAXX 14224 07181 32962 00504 10078 20056 39821 40244 58005=
07181,1999-10-14 23:00:00,7.8,1024,-0.7,88,5.9,12000,3.704,,,350,,,,,,,,,,,og-post,,,,AAXX 14234 07181 32962 03502 10078 20059 39817 40240 58007=
07181,1999-10-15 01:00:00,7.5,1023.8,-0.7,88,5.6,12000,7.408,,,60,,,,,,,,,,,og-post,,,,AAXX 15014 07181 32962 00604 10075 20056 39814 40238 56007=
07181,1999-10-15 02:00:00,6.6,1023.4,-0.8,93,5.6,7000,11.112,,,60,,,,,,,,,,,og-post,,,,AAXX 15024 07181 32957 00606 10066 20056 39809 40234 58008=
07181,1999-10-15 04:00:00,3.5,1023,-1.3,97,3.1,6000,11.112,,,60,,,,,,,,,,,og-post,,,,AAXX 15044 07181 32956 00606 10035 20031 39801 40230 56013=
07181,1999-10-15 05:00:00,3.8,1023,-0.8,98,3.5,2000,3.704,,,260,,,,,,,,,,,og-post,,,,AAXX 15054 07181 32920 02602 10038 20035 39801 40230 56008=
07181,1999-10-15 07:00:00,5.8,1022.7,-0,99,5.7,1800,14.816,,,70,,,,,,,,,,28,og-post,,,,AAXX 15074 07181 31218 70708 10058 20057 39801 40227 54000 72841 877// 333 87704=
07181,1999-10-15 08:00:00,6.9,1022.5,-0,99,6.8,1500,11.112,,,60,,,,,,,,,,10,og-post,,,,AAXX 15084 07181 31215 70606 10069 20068 39801 40225 54000 71022 877// 333 87705=
07181,1999-10-15 09:00:00,7.9,1022.1,-0.2,96,7.3,5000,11.112,,,60,,,,,,,,,,1,og-post,,,,AAXX 15094 07181 31350 70606 10079 20073 39799 40221 58002 70141 877// 333 87706=
07181,1999-10-15 10:00:00,8.5,1022.1,-0.1,90,7,7000,11.112,,,100,,,,,,,,,,,og-post,,,,AAXX 15104 07181 32357 71006 10085 20070 39800 40221 55001 85601 333 85708 85075=
07181,1999-10-15 11:00:00,11.3,1021.6,-0.2,78,7.6,9000,7.408,,,80,,,,,,,,,,,og-post,,,,AAXX 15114 07181 32459 70804 10113 20076 39799 40216 56002 82101 333 82811 86075=
07181,1999-10-15 12:00:00,12.8,1020.9,-0.5,71,7.7,12000,11.112,,,90,,,,,,,,,,1,og-post,,,,AAXX 15124 07181 31462 70906 10128 20077 39794 40209 58005 70141 82101 333 82816 86075=
07181,1999-10-15 13:00:00,13.7,1020.5,-0.8,67,7.7,15000,11.112,,,70,,,,,,,,,,,og-post,,,,AAXX 15134 07181 32565 70706 10137 20077 39792 40205 58008 82101 333 82823 86075=
07181,1999-10-15 14:00:00,14.5,1020,-1.1,59,6.6,18000,14.816,,,60,,,,,,,,,,,og-post,,,,AAXX 15144 07181 32568 60608 10145 20066 39788 40200 56011 81101 333 81826 86075=
07181,1999-10-15 15:00:00,13.9,1020,-0.7,63,7,18000,11.112,,,60,,,,,,,,,,,og-post,,,,AAXX 15154 07181 32968 60606 10139 20070 39787 40200 56007 80001 333 86075=
07181,1999-10-15 16:00:00,12.6,1020,-0.7,68,6.9,40000,11.112,,,60,,,,,,,,,,,og-post,,,,AAXX 15164 07181 36/82 /0606 10126 20069 39785 40200 56007=
07181,1999-10-15 17:00:00,10.7,1020.6,0.1,79,7.2,14000,7.408,,,50,,,,,,,,,,,og-post,,,,AAXX 15174 07181 32964 60504 10107 20072 39789 40206 53001 80001 333 86075=
07181,1999-10-15 18:00:00,9.1,1021.2,0.5,87,7.1,14000,7.408,,,70,1.8,14.6,,,,,,,,,og-post,,,,AAXX 15184 07181 32964 50704 10091 20071 39792 40212 53005 80001 333 10146 20018 85075=
07181,1999-10-15 19:00:00,9.6,1021.1,0.7,84,7,17000,11.112,,,80,,,,,,,,,,,og-post,,,,AAXX 15194 07181 36/67 /0806 10096 20070 39792 40211 51007=
07181,1999-10-15 20:00:00,8.4,1021.5,0.5,88,6.5,14000,11.112,,,70,,,,,,,,,,,og-post,,,,AAXX 15204 07181 32964 50706 10084 20065 39794 40215 51005 80001 333 85075=
07181,1999-10-15 21:00:00,8.2,1021.8,0.4,88,6.3,14000,11.112,,,80,,,,,,,,,,,og-post,,,,AAXX 15214 07181 32964 50806 10082 20063 39796 40218 53004 80001 333 85075=
07181,1999-10-15 22:00:00,8,1021.7,0.3,90,6.5,14000,7.408,,,80,,,,,,,,,,,og-post,,,,AAXX 15224 07181 32964 50804 10080 20065 39795 40217 50003 80001 333 85075=
07181,1999-10-15 23:00:00,7,1021.6,-0.1,94,6.1,9000,7.408,,,80,,,,,,,,,,,og-post,,,,AAXX 15234 07181 36/59 /0804 10070 20061 39793 40216 58001=
07181,1999-10-16 00:00:00,7.1,1021.8,-0.1,96,6.5,14000,3.704,,,70,,,,,,,,,,,og-post,,,,AAXX 16004 07181 32964 50702 10071 20065 39795 40218 55001 80001 333 85075=
07181,1999-10-16 01:00:00,7,1021.7,-0.1,96,6.4,5000,3.704,,,60,,,,,,,,,,,og-post,,,,AAXX 16014 07181 36/50 /0602 10070 20064 39794 40217 56001=
07181,1999-10-16 02:00:00,5.5,1021.9,0,98,5.2,3000,3.704,,,300,,,,,,,,,,10,og-post,,,,AAXX 16024 07181 31930 53002 10055 20052 39793 40219 50000 71022 80001 333 85075=
07181,1999-10-16 03:00:00,5.1,1021.9,-0.2,98,4.8,700,3.704,,,40,,,,,,,,,,,og-post,,,,AAXX 16034 07181 36/07 /0402 10051 20048 39793 40219 56002=
07181,1999-10-16 04:00:00,5.4,1022,-0,99,5.3,3000,3.704,,,40,,,,,,,,,,10,og-post,,,,AAXX 16044 07181 31930 50402 10054 20053 39794 40220 55000 71022 80001 333 85075=
07181,1999-10-16 05:00:00,4.6,1022.4,0.4,98,4.3,200,3.704,,,10,,,,,,,,,,,og-post,,,,AAXX 16054 07181 36/02 /0102 10046 20043 39797 40224 53004=
07181,1999-10-16 06:00:00,3.5,1022.7,0.5,99,3.4,600,3.704,,,340,3.5,9.6,,,,,0,,-1,46,og-post,,,,AAXX 16064 07181 31906 53402 10035 20034 39798 40227 52005 74642 80001 333 10096 20035 3/101 55/// 70000 85075=
07181,1999-10-16 07:00:00,3.7,1022.9,0.6,98,3.4,2000,3.704,,,70,,,,,,,,,,28,og-post,,,,AAXX 16074 07181 31920 50702 10037 20034 39800 40229 51006 72842 80001 333 85075=
07181,1999-10-16 08:00:00,6.8,1022.7,0.6,98,6.5,8000,14.816,,,60,,,,,,,,,,,og-post,,,,AAXX 16084 07181 32958 50608 10068 20065 39803 40227 53006 80001 333 85075=
07181,1999-10-16 09:00:00,8.6,1022.1,0.2,79,5.2,11000,14.816,,,50,,,,,,,,,,2,og-post,,,,AAXX 16094 07181 31961 50508 10086 20052 39800 40221 50002 70242 80001 333 85075=
07181,1999-10-16 10:00:00,10.3,1021.7,-0.2,71,5.3,13000,18.52,,,60,,,,,,,,,,,og-post,,,,AAXX 16104 07181 32963 50610 10103 20053 39798 40217 58002 80001 333 85075=
07181,1999-10-16 11:00:00,12,1021.1,-0.8,64,5.4,15000,14.816,,,60,,,,,,,,,,,og-post,,,,AAXX 16114 07181 32965 40608 10120 20054 39795 40211 57008 80001 333 84075=
07181,1999-10-16 12:00:00,13,1020.2,-1.2,56,4.4,15000,14.816,,,60,,,,,,,,,,2,og-post,,,,AAXX 16124 07181 31965 40608 10130 20044 39788 40202 58012 70241 80001 333 84075=
07181,1999-10-16 13:00:00,12.8,1019.6,-1.6,59,5,23000,14.816,,,50,,,,,,,,,,,og-post,,,,AAXX 16134 07181 36/73 /0508 10128 20050 39782 40196 58016=
07181,1999-10-16 14:00:00,13.2,1019.4,-1.5,56,4.6,15000,14.816,,,50,,,,,,,,,,,og-post,,,,AAXX 16144 07181 32965 50508 10132 20046 39780 40194 56015 80001 333 85075=
07181,1999-10-16 16:00:00,12,1019.1,-0.6,57,3.8,15000,11.112,,,60,,,,,,,,,,,og-post,,,,AAXX 16164 07181 32965 50606 10120 20038 39776 40191 56006 80001 333 85075=
07181,1999-10-16 18:00:00,9.4,1019.5,-0.1,69,4,15000,14.816,,,80,3.5,13.4,,,,,,,,,og-post,,,,AAXX 16184 07181 32965 50808 10094 20040 39776 40195 55001 80001 333 10134 20035 85075=
07181,1999-10-16 19:00:00,8.6,1019.9,0.2,68,3,15000,14.816,,,90,,,,,,,,,,,og-post,,,,AAXX 16194 07181 32965 50908 10086 20030 39778 40199 53002 80001 333 85075=
07181,1999-10-16 20:00:00,8,1020,0.3,67,2.3,15000,14.816,,,80,,,,,,,,,,,og-post,,,,AAXX 16204 07181 32965 50808 10080 20023 39778 40200 51003 80001 333 85075=
07181,1999-10-16 21:00:00,7.1,1019.9,0,71,2.2,15000,14.816,,,90,,,,,,,,,,,og-post,,,,AAXX 16214 07181 32965 40908 10071 20022 39776 40199 50000 80001 333 84075=
07181,1999-10-16 22:00:00,6.4,1019.9,-0.3,72,1.7,15000,11.112,,,80,,,,,,,,,,,og-post,,,,AAXX 16224 07181 32965 40806 10064 20017 39775 40199 58003 80001 333 84075=
07181,1999-10-16 23:00:00,5.2,1020,-0.4,78,1.7,15000,11.112,,,60,,,,,,,,,,,og-post,,,,AAXX 16234 07181 32965 40606 10052 20017 39774 40200 56004 80001 333 84075=
07181,1999-10-17 00:00:00,4,1019.9,-0.5,85,1.7,14000,14.816,,,70,,,,,,,,,,,og-post,,,,AAXX 17004 07181 36/64 /0708 10040 20017 39771 40199 58005=
07181,1999-10-17 01:00:00,3.3,1019.6,-0.7,89,1.7,12000,11.112,,,70,,,,,,,,,,,og-post,,,,AAXX 17014 07181 36/62 /0706 10033 20017 39768 40196 58007=
07181,1999-10-17 02:00:00,2.5,1019.6,-0.8,90,1,8000,,,,,,,,,,,,,,,og-post,,,,AAXX 17024 07181 36/58 /0000 10025 20010 39766 40196 56008=
07181,1999-10-17 03:00:00,1.5,1019.5,-0.7,92,0.3,10000,3.704,,,90,,,,,,,,,,,og-post,,,,AAXX 17034 07181 36/60 /0902 10015 20003 39764 40195 56007=
07181,1999-10-17 04:00:00,2.1,1019.3,-0.5,94,1.2,12000,11.112,,,80,,,,,,,,,,,og-post,,,,AAXX 17044 07181 32962 30806 10021 20012 39763 40193 56005 80001 333 83075=
07181,1999-10-17 05:00:00,2.2,1019.2,-0.4,93,1.2,12000,7.408,,,80,,,,,,,,,,,og-post,,,,AAXX 17054 07181 32962 30804 10022 20012 39762 40192 56004 80001 333 83075=
07181,1999-10-17 06:00:00,1.9,1019.1,-0.3,94,1,12000,7.408,,,70,1.5,9.4,,,,,0,,-5,,og-post,,,,AAXX 17064 07181 32962 30704 10019 20010 39761 40191 57003 80001 333 10094 20015 31105 55/// 70000 83075=
07181,1999-10-17 07:00:00,2.3,1019.5,0.2,92,1.1,10000,7.408,,,60,,,,,,,,,,,og-post,,,,AAXX 17074 07181 32760 60604 10023 20011 39765 40195 53002 81501 333 81656 86075=
07181,1999-10-17 08:00:00,4.1,1020,1.1,84,1.6,10000,7.408,,,80,,,,,,,,,,,og-post,,,,AAXX 17084 07181 32960 60804 10041 20016 39773 40200 53011 80001 333 86075=
07181,1999-10-17 10:00:00,7.8,1019.5,0.8,70,2.7,12000,14.816,,,90,,,,,,,,,,,og-post,,,,AAXX 17104 07181 32962 60908 10078 20027 39773 40195 51008 80001 333 86075=
07181,1999-10-17 11:00:00,9.6,1019,-0.2,62,2.7,12000,18.52,,,70,,,,,,,,,,,og-post,,,,AAXX 17114 07181 32962 60710 10096 20027 39771 40190 58002 80001 333 86075=
07181,1999-10-17 12:00:00,11,1018.5,-0.4,55,2.3,15000,18.52,,,80,,,,,,,,,,,og-post,,,,AAXX 17124 07181 32965 60810 10110 20023 39768 40185 58004 80001 333 86075=
07181,1999-10-17 13:00:00,11.7,1017.6,-1.2,43,-0.4,15000,18.52,,,70,,,,,,,,,,,og-post,,,,AAXX 17134 07181 32965 40710 10117 21004 39761 40176 58012 80001 333 84075=
07181,1999-10-17 14:00:00,11.9,1017.5,-1.1,45,0.4,20000,14.816,,,70,,,,,,,,,,,og-post,,,,AAXX 17144 07181 32970 30708 10119 20004 39760 40175 56011 80001 333 83075=
07181,1999-10-17 15:00:00,11.1,1017.2,-1.2,51,1.4,25000,18.52,,,70,,,,,,,,,,,og-post,,,,AAXX 17154 07181 32975 20710 10111 20014 39756 40172 56012 80001 333 82075=
07181,1999-10-17 16:00:00,9.7,1017.3,-0.6,55,1.1,25000,22.224,,,80,,,,,,,,,,,og-post,,,,AAXX 17164 07181 32975 20812 10097 20011 39755 40173 57006 80001 333 82075=
07181,1999-10-17 17:00:00,8.5,1017.8,-0.2,56,0.2,25000,25.928,,,70,,,,,,,,,,,og-post,,,,AAXX 17174 07181 32975 20714 10085 20002 39758 40178 55002 80001 333 82075=
07181,1999-10-17 18:00:00,7.8,1018.2,0.5,57,-0.2,25000,22.224,,,70,1.9,12.1,,,,,,,,,og-post,,,,AAXX 17184 07181 32975 20712 10078 21002 39761 40182 53005 80001 333 10121 20019 82075=
07181,1999-10-17 19:00:00,7.1,1018.2,0.5,58,-0.6,25000,25.928,,,80,,,,,,,,,,,og-post,,,,AAXX 17194 07181 32975 20814 10071 21006 39760 40182 50005 80001 333 82075=
07181,1999-10-17 20:00:00,6.5,1018.2,0.1,61,-0.5,25000,25.928,,,70,,,,,,,,,,,og-post,,,,AAXX 17204 07181 32975 20714 10065 21005 39759 40182 50001 80001 333 82075=
07181,1999-10-17 21:00:00,5.6,1018.8,0.2,65,-0.4,25000,18.52,,,80,,,,,,,,,,,og-post,,,,AAXX 17214 07181 32975 20810 10056 21004 39763 40188 53002 80001 333 82075=
07181,1999-10-17 22:00:00,4.9,1018.6,0,70,-0.1,25000,22.224,,,70,,,,,,,,,,,og-post,,,,AAXX 17224 07181 32975 20712 10049 21001 39760 40186 50000 80001 333 82075=
07181,1999-10-17 23:00:00,4.1,1018.5,-0.1,76,0.3,25000,18.52,,,70,,,,,,,,,,,og-post,,,,AAXX 17234 07181 32975 20710 10041 20003 39758 40185 58001 80001 333 82075=
07181,1999-10-18 00:00:00,3.4,1018.5,-0.6,79,0.1,20000,11.112,,,80,,,,,,,,,,,og-post,,,,AAXX 18004 07181 32970 00806 10034 20001 39757 40185 56006=
07181,1999-10-18 01:00:00,2.7,1018.2,-0.7,82,-0.1,20000,22.224,,,70,,,,,,,,,,,og-post,,,,AAXX 18014 07181 32970 00712 10027 21001 39753 40182 58007=
07181,1999-10-18 02:00:00,2.2,1017.4,-1.3,84,-0.2,20000,18.52,,,70,,,,,,,,,,,og-post,,,,AAXX 18024 07181 32970 00710 10022 21002 39745 40174 58013=
07181,1999-10-18 03:00:00,1.7,1017.1,-1.6,85,-0.5,19000,22.224,,,80,,,,,,,,,,,og-post,,,,AAXX 18034 07181 36/69 /0812 10017 21005 39741 40171 57016=
07181,1999-10-18 04:00:00,1.4,1016.5,-1.8,84,-1,15000,22.224,,,70,,,,,,,,,,,og-post,,,,AAXX 18044 07181 32965 00712 10014 21010 39735 40165 56018=
07181,1999-10-18 05:00:00,1.1,1016.5,-1.1,84,-1.3,15000,22.224,,,70,,,,,,,,,,,og-post,,,,AAXX 18054 07181 32965 00712 10011 21013 39734 40165 56011=
07181,1999-10-18 06:00:00,0.8,1016.9,-0.3,83,-1.7,15000,22.224,,,70,0.8,7.8,,,,,0,,0,,og-post,,,,AAXX 18064 07181 32965 20712 10008 21017 39738 40169 55003 80002 333 10078 20008 30000 55/// 70000 82075=
07181,1999-10-18 07:00:00,1.2,1016.8,0.2,79,-2,15000,22.224,,,70,,,,,,,,,,,og-post,,,,AAXX 18074 07181 32965 20712 10012 21020 39737 40168 52002 80002 333 82075=
07181,1999-10-18 08:00:00,3.1,1015.8,-0.3,68,-2.2,20000,22.224,,,60,,,,,,,,,,,og-post,,,,AAXX 18084 07181 32970 20612 10031 21022 39731 40158 58003 80002 333 82075=
07181,1999-10-18 09:00:00,5.2,1015.3,-0.9,56,-2.8,20000,22.224,,,60,,,,,,,,,,,og-post,,,,AAXX 18094 07181 32970 20612 10052 21028 39729 40153 58009 80002 333 82075=
07181,1999-10-18 10:00:00,7,1014.9,-0.9,50,-2.7,25000,29.632,,,60,,,,,,,,,,,og-post,,,,AAXX 18104 07181 32975 20616 10070 21027 39728 40149 56009 80002 333 82075=
07181,1999-10-18 11:00:00,8,1014.2,-0.9,45,-3.2,25000,29.632,50.004,,60,,,,,,,,,,,og-post,,,,AAXX 18114 07181 32975 20616 10080 21032 39722 40142 58009 80002 333 82075 91127=
07181,1999-10-18 12:00:00,8.7,1013.1,-1.6,44,-2.9,25000,31.484,53.708,,60,,,,,,,,,,,og-post,,,,AAXX 18124 07181 32975 20617 10087 21029 39713 40131 58016 80002 333 82075 91129=
07181,1999-10-18 14:00:00,8.9,1013.1,-0.9,45,-2.4,25000,29.632,53.708,53.708,70,,,,,,,,,,,og-post,,,,AAXX 18144 07181 32975 20716 10089 21024 39713 40131 56009 80002 333 82075 91029 91129=
07181,1999-10-18 15:00:00,8.8,1013,-0.1,49,-1.3,25000,29.632,53.708,50.004,70,,,,,,,,,,,og-post,,,,AAXX 18154 07181 32975 20716 10088 21013 39712 40130 58001 80002 333 82075 91027 91129=
07181,1999-10-18 16:00:00,8.1,1013,-0.2,50,-1.7,25000,25.928,,,70,,,,,,,,,,,og-post,,,,AAXX 18164 07181 32975 20714 10081 21017 39711 40130 58002 80002 333 82075=
07181,1999-10-18 17:00:00,7.2,1012.9,-0.4,51,-2.2,25000,29.632,,50.004,70,,,,,,,,,,,og-post,,,,AAXX 18174 07181 32975 20716 10072 21022 39709 40129 58004 80002 333 82075 91027=
07181,1999-10-18 18:00:00,6.5,1013.5,0.2,52,-2.6,25000,22.224,53.708,,70,0.7,9.1,,,,,,,,,og-post,,,,AAXX 18184 07181 32975 20712 10065 21026 39714 40135 53002 80002 333 10091 20007 82075 91129=
07181,1999-10-18 19:00:00,5.9,1013.3,0,55,-2.4,25000,18.52,,,70,,,,,,,,,,,og-post,,,,AAXX 18194 07181 32975 20710 10059 21024 39711 40133 50000 80002 333 82075=
07181,1999-10-18 20:00:00,5.4,1013.4,0.2,57,-2.4,25000,25.928,,,70,,,,,,,,,,,og-post,,,,AAXX 18204 07181 32975 20714 10054 21024 39711 40134 51002 80002 333 82075=
07181,1999-10-18 21:00:00,5.1,1013.4,-0.3,58,-2.5,25000,18.52,,,80,,,,,,,,,,,og-post,,,,AAXX 18214 07181 32975 20810 10051 21025 39711 40134 56003 80002 333 82075=
07181,1999-10-18 22:00:00,4.2,1013.4,-0.2,63,-2.2,15000,14.816,,,80,,,,,,,,,,,og-post,,,,AAXX 18224 07181 32965 20808 10042 21022 39709 40134 58002 80002 333 82075=
07181,1999-10-18 23:00:00,3.9,1013.2,-0.4,64,-2.3,15000,18.52,,,70,,,,,,,,,,,og-post,,,,AAXX 18234 07181 32965 20710 10039 21023 39707 40132 58004 80002 333 82075=
07181,1999-10-19 00:00:00,3.4,1013.1,-0.6,68,-1.9,15000,14.816,,,80,,,,,,,,,,,og-post,,,,AAXX 19004 07181 32965 20808 10034 21019 39705 40131 57006 80002 333 82075=
07181,1999-10-19 02:00:00,2.4,1012.4,-1,72,-2.1,15000,22.224,,,80,,,,,,,,,,,og-post,,,,AAXX 19024 07181 32965 20812 10024 21021 39697 40124 58010 80002 333 82075=
07181,1999-10-19 04:00:00,1.7,1012,-1.1,75,-2.2,15000,14.816,,,80,,,,,,,,,,,og-post,,,,AAXX 19044 07181 32965 20808 10017 21022 39692 40120 56011 80002 333 82075=
07181,1999-10-19 05:00:00,1.4,1011.9,-0.6,77,-2.2,15000,18.52,,,80,,,,,,,,,,,og-post,,,,AAXX 19054 07181 32965 20810 10014 21022 39691 40119 56006 80002 333 82075=
07181,1999-10-19 06:00:00,0.7,1012.2,-0.2,81,-2.2,11000,14.816,,,80,0.7,6.5,,,,,0,,0,,og-post,,,,AAXX 19064 07181 32961 30808 10007 21022 39692 40122 55002 82032 333 10065 20007 30000 55/// 70000 82360=
07181,1999-10-19 07:00:00,0.9,1012,-0.1,81,-2,11000,14.816,,,80,,,,,,,,,,,og-post,,,,AAXX 19074 07181 32661 30808 10009 21020 39691 40120 57001 82532 333 82640=
07181,1999-10-19 08:00:00,1.8,1012,0.1,76,-2,11000,18.52,,,70,,,,,,,,,,,og-post,,,,AAXX 19084 07181 32661 40710 10018 21020 39692 40120 52001 82532 333 82640 83360=
07181,1999-10-19 09:00:00,2.6,1011.7,-0.1,75,-1.4,11000,14.816,,,80,,,,,,,,,,,og-post,,,,AAXX 19094 07181 32661 50808 10026 21014 39691 40117 57001 83532 333 83640 84360=
07181,1999-10-19 10:00:00,4,1011.3,-0.2,69,-1.2,11000,18.52,,,60,,,,,,,,,,,og-post,,,,AAXX 19104 07181 32661 60610 10040 21012 39689 40113 58002 84532 333 84646 84360=
07181,1999-10-19 11:00:00,4.9,1011,-0.5,68,-0.5,11000,14.816,,,80,,,,,,,,,,,og-post,,,,AAXX 19114 07181 32661 60808 10049 21005 39687 40110 58005 84532 333 84646 84360=
07181,1999-10-19 12:00:00,5.2,1010.4,-0.9,69,0,11000,14.816,,,80,,,,,,,,,,60,og-post,,,,AAXX 19124 07181 /1561 70808 10052 20000 39682 40104 58009 69901 76061 8553/ 333 69907 85626 86360=
07181,1999-10-19 13:00:00,5.7,1009.8,-1.2,67,0.1,11000,11.112,,,70,,,,,,,,,,60,og-post,,,,AAXX 19134 07181 21561 70706 10057 20001 39677 40098 58012 76066 8553/ 333 69905 86623 87360=
07181,1999-10-19 14:00:00,4.9,1009.8,-1.1,81,1.9,8000,14.816,,,70,,,1,,,,,,,61,og-post,,,,AAXX 19144 07181 21558 80708 10049 20019 39676 40098 56011 76166 875// 333 60015 87623=
07181,1999-10-19 15:00:00,4.6,1009.8,-0.6,89,2.9,5000,14.816,,,80,,,,4,,,,,,61,og-post,,,,AAXX 19154 07181 21550 80808 10046 20029 39676 40098 56006 76166 875// 333 60047 87625=
07181,1999-10-19 16:00:00,4.7,1009.6,-0.3,87,2.7,6000,14.816,,,80,,,0.4,,,,,,,60,og-post,,,,AAXX 19164 07181 21556 80808 10047 20027 39674 40096 58003 76066 875// 333 69945 87621=
07181,1999-10-19 17:00:00,4.9,1009.7,-0.1,84,2.4,6000,7.408,,,100,,,,,,,,,,60,og-post,,,,AAXX 19174 07181 21556 81004 10049 20024 39675 40097 55001 76066 875// 333 69905 87623=
07181,1999-10-19 18:00:00,5,1009.8,-0,84,2.5,8000,11.112,,,90,0.5,5.8,,0.4,,4,,,,1,og-post,,,,AAXX 19184 07181 /1558 80906 10050 20025 39676 40098 55000 60042 70162 875// 333 10058 20005 69947 87625=
07181,1999-10-19 19:00:00,5.2,1009.5,0,83,2.6,9000,7.408,,,80,,,,,,,,,,,og-post,,,,AAXX 19194 07181 32559 80804 10052 20026 39674 40095 50000 875// 333 87626=
07181,1999-10-19 20:00:00,5,1009.6,-0.1,86,2.9,9000,11.112,,,80,,,,,,,,,,60,og-post,,,,AAXX 19204 07181 21459 80806 10050 20029 39674 40096 58001 76062 875// 333 69905 87616=
07181,1999-10-19 21:00:00,4.7,1009.4,-0.4,88,2.9,9000,11.112,,,80,,,,0.2,,,,,,60,og-post,,,,AAXX 19214 07181 21559 80806 10047 20029 39672 40094 57004 76062 875// 333 69927 87623=
07181,1999-10-19 22:00:00,4.8,1009.3,-0.3,87,2.8,8000,7.408,,,60,,,,,,,,,,60,og-post,,,,AAXX 19224 07181 21558 80604 10048 20028 39671 40093 58003 76066 875// 333 69905 87620=
07181,1999-10-19 23:00:00,4.5,1009.4,-0.2,92,3.3,4100,3.704,,,70,,,0.4,,,,,,,,og-post,,,,AAXX 19234 07181 26/41 /0702 10045 20033 39672 40094 55002 333 69945=
07181,1999-10-20 00:00:00,4.4,1009.4,-0,93,3.4,4800,14.816,,,70,,,,0.4,0.6,,,,,,og-post,,,,AAXX 20004 07181 /6/48 /0708 10044 20034 39672 40094 55000 69961 333 69947=
07181,1999-10-20 01:00:00,4.3,1009.5,0.1,95,3.6,3700,7.408,,,100,,,0.2,,,,,,,,og-post,,,,AAXX 20014 07181 26/37 /1004 10043 20036 39672 40095 51001 333 69925=
07181,1999-10-20 02:00:00,4.2,1009.4,-0.1,97,3.8,3000,11.112,,,90,,,,,,,,,,10,og-post,,,,AAXX 20024 07181 31130 80906 10042 20038 39671 40094 58001 71022 875// 333 84703 87606=
07181,1999-10-20 03:00:00,4,1009.3,-0.2,97,3.6,3000,14.816,,,100,,,,0.2,,,,,,10,og-post,,,,AAXX 20034 07181 21230 81008 10040 20036 39670 40093 58002 71062 877// 333 69927 87703=
07181,1999-10-20 04:00:00,4,1009.3,-0.2,98,3.7,3000,11.112,,,100,,,,,,,,,,10,og-post,,,,AAXX 20044 07181 31230 81006 10040 20037 39670 40093 56002 71022 877// 333 87704=
07181,1999-10-20 05:00:00,3.9,1009.1,-0.3,98,3.6,2500,14.816,,,100,,,,,,,,,,10,og-post,,,,AAXX 20054 07181 31125 81008 10039 20036 39668 40091 58003 71022 877// 333 87702=
07181,1999-10-20 06:00:00,4.1,1009.2,-0.1,99,4,500,11.112,,,100,3.9,5.2,,,,0.8,5,,4,50,og-post,,,,AAXX 20064 07181 /1105 81006 10041 20040 39669 40092 55001 69982 75065 887// 333 10052 20039 32004 55/// 69907 70050 88701=
07181,1999-10-20 07:00:00,4.3,1009.3,0.1,100,4.3,300,3.704,,,90,,,,,,,,,,50,og-post,,,,AAXX 20074 07181 21103 80902 10043 20043 39671 40093 53001 75055 877// 333 69905 87701=
07181,1999-10-20 08:00:00,4.6,1009.1,0.1,99,4.5,700,14.816,,,100,,,,,,,,,,42,og-post,,,,AAXX 20084 07181 21107 81008 10046 20045 39669 40091 50001 74254 887// 333 69905 86701 86704=
07181,1999-10-20 09:00:00,5.3,1009,0,99,5.2,1500,14.816,,,100,,,,,,,,,,28,og-post,,,,AAXX 20094 07181 21115 81008 10053 20052 39669 40090 50000 72854 877// 333 69907 87702=
07181,1999-10-20 10:00:00,6.2,1008.4,-0.6,97,5.8,2500,14.816,,,100,,,,,,,,,,10,og-post,,,,AAXX 20104 07181 31125 71008 10062 20058 39665 40084 58006 71022 877// 333 81702 83703 85657=
07181,1999-10-20 11:00:00,7.9,1007.8,-0.7,89,6.2,4500,11.112,,,80,,,,,,,,,,10,og-post,,,,AAXX 20114 07181 31245 70806 10079 20062 39662 40078 58007 71022 877// 333 81704 85705 85657=
07181,1999-10-20 12:00:00,8.3,1006.8,-1.6,89,6.6,6000,11.112,,,90,,,,,,,,,,1,og-post,,,,AAXX 20124 07181 11356 70906 10083 20066 39653 40068 58016 69901 70154 8573/ 333 85707 84360=
07181,1999-10-20 13:00:00,10,1005.8,-1.9,84,7.4,8000,14.816,,,70,,,,,,,,,,,og-post,,,,AAXX 20134 07181 32358 70708 10100 20074 39646 40058 58019 84701 333 84709 85073=
07181,1999-10-20 14:00:00,9.9,1005.1,-2.3,84,7.3,10000,14.816,,,80,,,,,,,,,,,og-post,,,,AAXX 20144 07181 32460 70808 10099 20073 39639 40051 56023 81101 333 81813 87073=
07181,1999-10-20 15:00:00,9.7,1004.9,-1.6,84,7.1,12000,18.52,,,60,,,,,,,,,,,og-post,,,,AAXX 20154 07181 32662 80610 10097 20071 39637 40049 56016 82502 333 82640 87073=
07181,1999-10-20 16:00:00,8.8,1004.7,-1.3,83,6.1,12000,18.52,,,60,,,,,,,,,,,og-post,,,,AAXX 20164 07181 32862 80610 10088 20061 39633 40047 56013 85502 333 85656 87073=
07181,1999-10-20 17:00:00,7.9,1004.7,-0.7,85,5.5,8000,14.816,,,70,,,,,,,,,,,og-post,,,,AAXX 20174 07181 32858 80708 10079 20055 39632 40047 56007 85502 333 85656 87073=
07181,1999-10-20 18:00:00,7.8,1004.1,-1.1,81,4.7,8000,22.224,,,80,4,10.1,,,,,,,,,og-post,,,,AAXX 20184 07181 12858 80812 10078 20047 39626 40041 58011 69902 85502 333 10101 20040 85656 87073=
07181,1999-10-20 19:00:00,7.6,1004.9,-0,79,4.2,10000,11.112,,,60,,,,,,,,,,,og-post,,,,AAXX 20194 07181 32960 80606 10076 20042 39633 40049 55000 85072 333 85359 87073=
07181,1999-10-20 20:00:00,7.4,1004.2,-0.6,79,4,10000,14.816,,,50,,,,,,,,,,,og-post,,,,AAXX 20204 07181 32960 80508 10074 20040 39626 40042 58006 85072 333 85358 87073=
07181,1999-10-20 21:00:00,7.4,1004,-0.2,78,3.8,10000,14.816,,,60,,,,,,,,,,,og-post,,,,AAXX 20214 07181 32960 80608 10074 20038 39624 40040 58002 85072 333 85358 87073=
07181,1999-10-20 22:00:00,7.3,1003.6,-1.3,78,3.7,10000,7.408,,,40,,,,,,,,,,,og-post,,,,AAXX 20224 07181 32960 80404 10073 20037 39620 40036 56013 85072 333 85358 87073=
07181,1999-10-20 23:00:00,7.2,1003.2,-1,79,3.8,12000,14.816,,,80,,,,,,,,,,,og-post,,,,AAXX 20234 07181 36/62 /0808 10072 20038 39616 40032 58010=
07181,1999-10-21 00:00:00,6.5,1002.8,-1.2,88,4.7,9000,7.408,,,70,,,,1,1,,,,,61,og-post,,,,AAXX 21004 07181 /1659 80704 10065 20047 39612 40028 57012 60011 76162 8257/ 333 60017 82643 87358=
07181,1999-10-21 01:00:00,6,1002.7,-1,93,5,9000,3.704,,,70,,,0.2,,,,,,,61,og-post,,,,AAXX 21014 07181 21659 80702 10060 20050 39610 40027 56010 76166 8257/ 333 69925 82643 87358=
07181,1999-10-21 02:00:00,5.9,1002.1,-1.2,88,4.1,9000,7.408,,,90,,,,,,,,,,61,og-post,,,,AAXX 21024 07181 21659 80904 10059 20041 39604 40021 58012 76166 8257/ 333 69905 82643 87358=
07181,1999-10-21 03:00:00,5.8,1001.7,-1.2,84,3.3,9000,11.112,,,70,,,,0.2,,,,,,61,og-post,,,,AAXX 21034 07181 21659 80706 10058 20033 39600 40017 58012 76166 8257/ 333 69927 82643 87358=
07181,1999-10-21 04:00:00,5.5,1000.7,-2,85,3.2,8000,7.408,,,40,,,,,,,,,,21,og-post,,,,AAXX 21044 07181 21658 80404 10055 20032 39590 40007 58020 72162 8257/ 333 69905 82643 87358=
07181,1999-10-21 05:00:00,5.5,1001,-1.1,87,3.5,8000,7.408,,,100,,,,,,,,,,,og-post,,,,AAXX 21054 07181 32658 81004 10055 20035 39593 40010 55011 8257/ 333 82643 87358=
07181,1999-10-21 06:00:00,5.3,1000.6,-1.1,83,2.7,6000,7.408,,,100,5.3,7.8,,,,1,1.2,,5,3,og-post,,,,AAXX 21064 07181 /1656 81004 10053 20027 39589 40006 56011 60012 70362 8357/ 333 10078 20053 32005 55/// 69907 70012 83640 87458=
07181,1999-10-21 07:00:00,5.6,1001.1,0.4,79,2.3,7000,7.408,,,90,,,,,,,,,,,og-post,,,,AAXX 21074 07181 32657 70904 10056 20023 39594 40011 53004 8257/ 333 82640 87458=
07181,1999-10-21 08:00:00,6.2,1001,0.1,81,3.2,8000,7.408,,,60,,,,,,,,,,,og-post,,,,AAXX 21084 07181 32958 70604 10062 20032 39594 40010 53001 8707/ 333 87458=
07181,1999-10-21 09:00:00,6.3,1001.2,0.7,79,2.9,8000,7.408,,,110,,,,,,,,,,,og-post,,,,AAXX 21094 07181 32858 71104 10063 20029 39596 40012 51007 8707/ 333 87458=
07181,1999-10-21 10:00:00,6.5,1001.6,0.6,80,3.3,9000,14.816,,,100,,,,,,,,,,,og-post,,,,AAXX 21104 07181 32859 71008 10065 20033 39600 40016 53006 8707/ 333 87458=
07181,1999-10-21 11:00:00,8.1,1001.1,0.4,75,3.9,9000,7.408,,,70,,,,,,,,,,,og-post,,,,AAXX 21114 07181 32959 70704 10081 20039 39598 40011 50004 85032 333 85359 87075=
07181,1999-10-21 12:00:00,8.9,1001.9,1,71,3.9,9000,14.816,,,110,,,,,,,,,,,og-post,,,,AAXX 21124 07181 32959 71108 10089 20039 39606 40019 53010 85032 333 85359 87075=
07181,1999-10-21 14:00:00,9.5,1001.2,0.3,76,5.5,8000,14.816,,,110,,,,,,,,,,,og-post,,,,AAXX 21144 07181 32958 71108 10095 20055 39601 40012 51003 8703/ 333 87359=
07181,1999-10-21 15:00:00,9.3,1002.2,0.4,79,5.9,9000,11.112,,,110,,,,,,,,,,,og-post,,,,AAXX 21154 07181 32559 81106 10093 20059 39610 40022 53004 8357/ 333 83623 87459=
07181,1999-10-21 16:00:00,9.9,1002.4,1.3,80,6.6,9000,11.112,,,120,,,,,,,,,,,og-post,,,,AAXX 21164 07181 32559 71206 10099 20066 39613 40024 53013 82532 333 82626 84359 85075=
07181,1999-10-21 17:00:00,8.8,1003.6,2.2,87,6.8,6000,11.112,,,130,,,,,,,,,,,og-post,,,,AAXX 21174 07181 32556 51306 10088 20068 39623 40036 53022 83530 333 83623 83359=
07181,1999-10-21 18:00:00,8.2,1004.5,2.1,92,7,6000,14.816,,,130,5.3,10.1,,,,,,,,,og-post,,,,AAXX 21184 07181 32956 31308 10082 20070 39631 40045 53021 81032 333 10101 20053 81359 83075=
07181,1999-10-21 19:00:00,7.9,1004.9,2.1,93,6.8,6000,7.408,,,140,,,,,,,,,,,og-post,,,,AAXX 21194 07181 32956 21404 10079 20068 39634 40049 51021 80002 333 82075=
07181,1999-10-21 20:00:00,8.1,1005.1,1.3,94,7.2,5000,11.112,,,160,,,,,,,,,,,og-post,,,,AAXX 21204 07181 32950 21606 10081 20072 39636 40051 51013 80002 333 82075=
07181,1999-10-21 21:00:00,7.7,1005.5,0.8,97,7.3,4000,11.112,,,160,,,,,,,,,,10,og-post,,,,AAXX 21214 07181 31940 21606 10077 20073 39639 40055 52008 71000 80002 333 82075=
07181,1999-10-21 22:00:00,8,1005.8,0.9,98,7.7,2500,7.408,,,180,,,,,,,,,,10,og-post,,,,AAXX 21224 07181 31325 41804 10080 20077 39643 40058 53009 71000 84600 333 84706=
07181,1999-10-21 23:00:00,8.8,1005.6,0.6,98,8.5,5000,11.112,,,160,,,0.2,,,,,,,,og-post,,,,AAXX 21234 07181 22950 01606 10088 20085 39642 40056 50006 333 69925=
07181,1999-10-22 00:00:00,8.3,1006.1,0.7,98,8,3000,7.408,,,140,,,,0.2,0.2,,,,,10,og-post,,,,AAXX 22004 07181 /1930 01404 10083 20080 39646 40061 52007 69921 71000 333 69927=
07181,1999-10-22 01:00:00,7.8,1006,0.1,98,7.5,3000,11.112,,,110,,,,,,,,,,10,og-post,,,,AAXX 22014 07181 31930 21106 10078 20075 39644 40060 50001 71000 80002 333 82075=
07181,1999-10-22 02:00:00,7.4,1005.9,0.1,98,7.1,3000,11.112,,,130,,,,,,,,,,10,og-post,,,,AAXX 22024 07181 31930 21306 10074 20071 39643 40059 50001 71000 80002 333 82075=
07181,1999-10-22 03:00:00,7.3,1005.9,-0.3,98,7,3100,3.704,,,150,,,,,,,,,,,og-post,,,,AAXX 22034 07181 36/31 /1502 10073 20070 39643 40059 56003=
07181,1999-10-22 04:00:00,7,1005.8,-0.3,98,6.7,4000,11.112,,,140,,,,,,,,,,10,og-post,,,,AAXX 22044 07181 31940 21406 10070 20067 39641 40058 58003 71000 80002 333 82075=
07181,1999-10-22 05:00:00,6.9,1005.2,-0.8,98,6.6,4000,11.112,,,90,,,,,,,,,,10,og-post,,,,AAXX 22054 07181 31940 60906 10069 20066 39635 40052 58008 71011 82032 333 82360 86075=
07181,1999-10-22 06:00:00,6.8,1004.4,-1.5,98,6.5,5000,11.112,,,120,6.7,9,,,,0.2,0.2,,3,,og-post,,,,AAXX 22064 07181 12150 61206 10068 20065 39628 40044 58015 69922 81732 333 10090 20067 31003 55/// 70002 81702 86075=
07181,1999-10-22 07:00:00,6.6,1004.7,-1.1,97,6.2,6000,11.112,,,110,,,,,,,,,,,og-post,,,,AAXX 22074 07181 32156 61106 10066 20062 39630 40047 55011 82732 333 82702 86075=
07181,1999-10-22 08:00:00,9.7,1004.5,-0.2,95,8.9,9000,7.408,,,110,,,,,,,,,,,og-post,,,,AAXX 22084 07181 32159 61104 10097 20089 39633 40045 55002 81732 333 81702 83360 85075=
07181,1999-10-22 09:00:00,11.9,1003.7,0,84,9.3,11000,11.112,,,100,,,,,,,,,,,og-post,,,,AAXX 22094 07181 32961 71006 10119 20093 39628 40037 50000 84032 333 84360 85075=
07181,1999-10-22 10:00:00,12.8,1003.3,-0.4,80,9.4,12000,14.816,,,150,,,,,,,,,,,og-post,,,,AAXX 22104 07181 32962 71508 10128 20094 39626 40033 58004 84032 333 84360 85075=
07181,1999-10-22 11:00:00,15.8,1002.4,-1.2,71,10.6,15000,18.52,,,160,,,,,,,,,,,og-post,,,,AAXX 22114 07181 32965 71610 10158 20106 39621 40024 57012 84032 333 84360 85075=
07181,1999-10-22 12:00:00,17.4,1001,-1.8,52,7.5,15000,29.632,,,170,,,,,,,,,,,og-post,,,,AAXX 22124 07181 32665 71716 10174 20075 39610 40010 58018 82232 333 82840 84360 85075=
07181,1999-10-22 13:00:00,17.6,1000,-2.5,56,8.7,15000,29.632,,,160,,,,,,,,,,,og-post,,,,AAXX 22134 07181 32665 71616 10176 20087 39601 40000 58025 82232 333 82840 84360 85075=
07181,1999-10-22 14:00:00,17,1000.4,-1.7,58,8.7,15000,25.928,,,190,,,,,,,,,,,og-post,,,,AAXX 22144 07181 32665 71914 10170 20087 39604 40004 55017 82232 333 82840 85360 85075=
07181,1999-10-22 15:00:00,16.8,1000.7,-0.4,60,9,15000,31.484,61.116,57.412,200,,,,,,,,,,,og-post,,,,AAXX 22154 07181 32665 72017 10168 20090 39606 40007 55004 82232 333 82840 85360 85075 91031 91133=
07181,1999-10-22 16:00:00,14.7,1000.5,0.1,78,10.9,15000,25.928,57.412,,180,,,0.2,,,,,,,60,og-post,,,,AAXX 22164 07181 21665 71814 10147 20109 39602 40005 50001 76062 82232 333 69925 82840 86360 85075 91131=
07181,1999-10-22 17:00:00,13.8,1000.9,-0,82,10.8,15000,7.408,,,190,,,,,,,,,,21,og-post,,,,AAXX 22174 07181 21665 71904 10138 20108 39604 40009 54000 72162 81232 333 69905 81840 84360 85075=
07181,1999-10-22 18:00:00,13.2,1000.6,-0.5,86,10.9,40000,11.112,61.116,,140,6.6,17.7,,0.2,,0.2,,,,,og-post,,,,AAXX 22184 07181 /6/82 /1406 10132 20109 39601 40006 56005 69922 333 10177 20066 69927 91133=
07181,1999-10-22 19:00:00,13.6,999.9,-0.7,85,11.1,15000,11.112,,,150,,,0.2,,,,,,,60,og-post,,,,AAXX 22194 07181 21665 71506 10136 20111 39595 49999 58007 76062 8493/ 333 69925 81940 83656 85360=
07181,1999-10-22 20:00:00,13.4,1001.2,0.3,94,12.5,2800,18.52,,,190,,,5,,,,,,,,og-post,,,,AAXX 22204 07181 26/28 /1910 10134 20125 39607 40012 53003 333 60055=
07181,1999-10-22 21:00:00,13,1001.1,0.4,94,12.1,12000,18.52,,,160,,,,8,,,,,,61,og-post,,,,AAXX 22214 07181 21662 71610 10130 20121 39605 40011 53004 76162 8397/ 333 60087 83933 86360=
07181,1999-10-22 22:00:00,12.7,1001.9,1.8,95,11.9,15000,14.816,,,160,,,,,,,,,,21,og-post,,,,AAXX 22224 07181 21565 71608 10127 20119 39613 40019 51018 72162 8387/ 333 69905 83820 84650 86360=
07181,1999-10-22 23:00:00,12.5,1002,0.6,94,11.6,15000,22.224,,,170,,,,,,,,,,,og-post,,,,AAXX 22234 07181 32465 71712 10125 20116 39613 40020 53006 8587/ 333 83813 84650 86360=
07181,1999-10-23 00:00:00,12.4,1001.4,0.2,93,11.3,15000,25.928,,,170,,,,,8,,,,,3,og-post,,,,AAXX 23004 07181 /1465 71714 10124 20113 39607 40014 50002 60081 70362 878// 333 69907 83813 86646=
07181,1999-10-23 01:00:00,12.3,1001.9,-0.1,91,10.9,60000,14.816,,,180,,,,,,,,,,,og-post,,,,AAXX 23014 07181 36/86 /1808 10123 20109 39612 40019 55001=
07181,1999-10-23 02:00:00,12,1002.5,0.4,92,10.7,15000,22.224,,,180,,,,,,,,,,,og-post,,,,AAXX 23024 07181 32465 71812 10120 20107 39617 40025 53004 878// 333 86810 87640=
07181,1999-10-23 03:00:00,11.6,1001.7,0.2,91,10.2,60000,18.52,,,180,,,,,,,,,,,og-post,,,,AAXX 23034 07181 36/86 /1810 10116 20102 39609 40017 50002=
07181,1999-10-23 04:00:00,11.4,1002.5,0.4,90,9.8,15000,22.224,,,190,,,,,,,,,,,og-post,,,,AAXX 23044 07181 32465 71912 10114 20098 39616 40025 53004 878// 333 84810 86640=
07181,1999-10-23 05:00:00,10.9,1002.5,-0.1,93,9.8,15000,18.52,,,180,,,,,,,,,,,og-post,,,,AAXX 23054 07181 32465 71810 10109 20098 39616 40025 56001 878// 333 83810 87656=
07181,1999-10-23 06:00:00,10.7,1002.5,0.6,90,9.1,15000,18.52,,,180,10.6,14.1,,,,8,8.4,,10,,og-post,,,,AAXX 23064 07181 12565 71810 10107 20091 39615 40025 50006 60082 878// 333 10141 20106 32010 55/// 70084 83823 86656=
07181,1999-10-23 09:00:00,12.4,1003.3,1,85,10,30000,18.52,,,190,,,,,,,,,,,og-post,,,,AAXX 23094 07181 32480 71910 10124 20100 39625 40033 53010 85802 333 83811 84656 85075=
07181,1999-10-23 10:00:00,13.9,1003,0.9,77,9.9,30000,25.928,,,200,,,,,,,,,,,og-post,,,,AAXX 23104 07181 32480 72014 10139 20099 39625 40030 51009 85802 333 83815 83656 85075=
07181,1999-10-23 11:00:00,15.3,1002.7,0.4,71,10.1,30000,29.632,,,210,,,,,,,,,,,og-post,,,,AAXX 23114 07181 32480 72116 10153 20101 39624 40027 50004 85802 333 84818 83656 85075=
07181,1999-10-23 12:00:00,15.9,1002.5,-0.2,69,10.2,30000,25.928,,,210,,,,,,,,,,,og-post,,,,AAXX 23124 07181 32580 72114 10159 20102 39623 40025 58002 86802 333 85820 83656 85075=
07181,1999-10-23 14:00:00,15.9,1002.2,-0.4,70,10.4,30000,22.224,,,190,,,,,,,,,,,og-post,,,,AAXX 23144 07181 32580 71912 10159 20104 39620 40022 58004 86802 333 85823 83656 85075=
07181,1999-10-23 15:00:00,15.3,1002.1,-0.5,72,10.3,30000,22.224,,,190,,,,,,,,,,,og-post,,,,AAXX 23154 07181 32580 61912 10153 20103 39618 40021 58005 83202 333 83826 84075=
07181,1999-10-23 16:00:00,13.6,1002,-0.7,80,10.2,30000,14.816,,,170,,,,,,,,,,,og-post,,,,AAXX 23164 07181 32580 61708 10136 20102 39615 40020 58007 83202 333 84830 84075=
07181,1999-10-23 17:00:00,12,1002.9,0.1,85,9.6,30000,7.408,,,200,,,0.2,,,,,,,80,og-post,,,,AAXX 23174 07181 21480 62004 10120 20096 39621 40029 53001 78086 84202 333 69925 83816 82933 84650 85075=
07181,1999-10-23 18:00:00,11.2,1003.2,0.5,93,10.1,15000,11.112,,,170,10.4,16.1,,0.2,,0.2,,,,25,og-post,,,,AAXX 23184 07181 /1565 71706 10112 20101 39623 40032 53005 69922 72586 86802 333 10161 20104 69927 83826 84650 85075=
07181,1999-10-23 19:00:00,10.9,1003.7,1.2,91,9.5,15000,22.224,,,190,,,2,,,,,,,80,og-post,,,,AAXX 23194 07181 21465 71912 10109 20095 39627 40037 51012 78086 85902 333 60025 83811 83956 86075=
07181,1999-10-23 20:00:00,9.8,1003.2,0,93,8.7,30000,11.112,,,170,,,0.2,,,,,,,25,og-post,,,,AAXX 23204 07181 21780 31706 10098 20087 39621 40032 50000 72586 8253/ 333 69925 82656 83360=
07181,1999-10-23 21:00:00,9.4,1002.9,-0.6,93,8.3,30000,18.52,,,160,,,,2,,,,,,2,og-post,,,,AAXX 23214 07181 21780 31610 10094 20083 39617 40029 58006 70286 82530 333 60027 82656 83360=
07181,1999-10-23 22:00:00,9.7,1002.5,-1.3,92,8.5,30000,11.112,,,180,,,,,,,,,,,og-post,,,,AAXX 23224 07181 32980 01806 10097 20085 39614 40025 56013=
07181,1999-10-23 23:00:00,9.5,1001.8,-1.4,95,8.7,30000,14.816,,,160,,,,,,,,,,,og-post,,,,AAXX 23234 07181 32980 01608 10095 20087 39607 40018 58014=
07181,1999-10-24 00:00:00,9.2,1001.3,-1.6,94,8.3,30000,14.816,,,140,,,,,2,,,,,2,og-post,,,,AAXX 24004 07181 11980 01408 10092 20083 39601 40013 58016 60021 70286=
07181,1999-10-24 01:00:00,9.4,1000.4,-2.1,92,8.2,30000,14.816,,,150,,,,,,,,,,,og-post,,,,AAXX 24014 07181 32980 01508 10094 20082 39593 40004 58021=
07181,1999-10-24 02:00:00,9,999.4,-2.4,92,7.8,35000,14.816,,,150,,,,,,,,,,,og-post,,,,AAXX 24024 07181 36/81 /1508 10090 20078 39583 49994 58024=
07181,1999-10-24 03:00:00,9.6,998.2,-2.9,88,7.7,30000,11.112,,,140,,,,,,,,,,,og-post,,,,AAXX 24034 07181 32980 71406 10096 20077 39572 49982 58029 83052 333 83360 87073=
07181,1999-10-24 04:00:00,8.6,997.5,-2.9,90,7.1,30000,11.112,,,120,,,,,,,,,,,og-post,,,,AAXX 24044 07181 32980 31206 10086 20071 39564 49975 56029 83050 333 83360=
07181,1999-10-24 05:00:00,9.4,996.2,-3,86,7.2,30000,14.816,,,140,,,,,,,,,,,og-post,,,,AAXX 24054 07181 32980 31408 10094 20072 39553 49962 57030 83050 333 83361=
07181,1999-10-24 06:00:00,9.9,994.9,-3.1,81,6.8,30000,11.112,,,150,8.6,12,,,,2,2.6,,7,,og-post,,,,AAXX 24064 07181 12980 71506 10099 20068 39541 49949 58031 60022 8703/ 333 10120 20086 32007 55/// 70026 87360=
07181,1999-10-24 07:00:00,11.2,995,-2,73,6.5,25000,18.52,,,150,,,,,,,,,,,og-post,,,,AAXX 24074 07181 32975 81510 10112 20065 39544 49950 55020 86032 333 86358 87073=
07181,1999-10-24 08:00:00,11,995.5,-0.5,83,8.2,12000,11.112,,,180,,,1,,,,,,,61,og-post,,,,AAXX 24084 07181 21762 81806 10110 20082 39548 49955 55005 76162 8657/ 333 60015 86650 86358=
07181,1999-10-24 09:00:00,11.1,994.6,-0.1,89,9.4,15000,11.112,,,150,,,,2,,,,,,21,og-post,,,,AAXX 24094 07181 21665 81506 10111 20094 39540 49946 58001 72162 878// 333 60027 82833 86650=
07181,1999-10-24 10:00:00,11,994.6,-0.4,92,9.8,15000,11.112,,,230,,,1,,,,,,,80,og-post,,,,AAXX 24104 07181 21665 82306 10110 20098 39540 49946 58004 78086 878// 333 60015 84833 86650=
07181,1999-10-24 11:00:00,11.7,994.8,-0.5,90,10.1,12000,7.408,,,310,,,0.6,,,,,,,25,og-post,,,,AAXX 24114 07181 21562 83104 10117 20101 39543 49948 55005 72586 878// 333 69965 85826 86640=
07181,1999-10-24 12:00:00,11.9,994.1,-0.3,93,10.8,12000,7.408,,,150,,,,3,5,,,,,60,og-post,,,,AAXX 24124 07181 /1562 81504 10119 20108 39537 49941 58003 60051 76086 878// 333 60037 85820 86640=
07181,1999-10-24 13:00:00,11.1,994.7,0.1,92,9.8,8000,29.632,53.708,53.708,270,,,4,,,,,,,60,og-post,,,,AAXX 24134 07181 21458 82716 10111 20098 39541 49947 53001 76086 888// 333 60045 81913 85820 85640 91029 91129=
07181,1999-10-24 14:00:00,10.8,994.1,-0.8,95,10,25000,7.408,,,130,,,0.6,,,,,,,21,og-post,,,,AAXX 24144 07181 21575 71304 10108 20100 39535 49941 57008 72162 8687/ 333 69965 83823 85640 85358=
07181,1999-10-24 15:00:00,10.4,995,0.6,94,9.5,25000,11.112,53.708,,150,,,,5,,,,,,3,og-post,,,,AAXX 24154 07181 21575 71506 10104 20095 39543 49950 53006 70386 8687/ 333 60057 83823 85640 85358 91129=
07181,1999-10-24 16:00:00,10.1,995.5,0.6,92,8.9,25000,18.52,,,150,,,0.2,,,,,,,,og-post,,,,AAXX 24164 07181 22575 71510 10101 20089 39547 49955 53006 84871 333 69925 81823 84640 85358=
07181,1999-10-24 17:00:00,9.9,996.2,1.9,93,8.8,25000,14.816,,,170,,,,,,,,,,,og-post,,,,AAXX 24174 07181 32575 61708 10099 20088 39554 49962 51019 84871 333 81823 84640=
07181,1999-10-24 18:00:00,9.9,997,1.8,94,9,25000,11.112,53.708,,180,9.8,12.1,,,,9,,,,1,og-post,,,,AAXX 24184 07181 11675 61806 10099 20090 39561 49970 53018 60092 70186 83571 333 10121 20098 83640 84360 91129=
07181,1999-10-24 19:00:00,9.9,996.2,0.7,92,8.7,25000,7.408,,,140,,,,,,,,,,,og-post,,,,AAXX 24194 07181 32975 61404 10099 20087 39554 49962 50007 85031 333 85360=
07181,1999-10-24 20:00:00,9.8,996.1,-0.1,94,8.9,25000,14.816,,,150,,,,,,,,,,,og-post,,,,AAXX 24204 07181 32975 51508 10098 20089 39553 49961 58001 84031 333 84360=
07181,1999-10-24 21:00:00,11,997.9,1.1,92,9.8,20000,14.816,,,190,,,,0.2,,,,,,60,og-post,,,,AAXX 24214 07181 21770 71908 10110 20098 39572 49979 53011 76062 8557/ 333 69927 85650 85360=
07181,1999-10-24 22:00:00,10.1,997.1,0.9,94,9.2,40000,22.224,,,160,,,,,,,,,,,og-post,,,,AAXX 24224 07181 26/82 /1612 10101 20092 39563 49971 50009 333 69905=
07181,1999-10-24 23:00:00,9.8,998.1,1.9,93,8.7,20000,11.112,,,150,,,,,,,,,,,og-post,,,,AAXX 24234 07181 32970 61506 10098 20087 39572 49981 51019 86070 333 86360=
07181,1999-10-25 00:00:00,9.4,997.9,-0.3,94,8.5,20000,14.816,,,150,,,,,0.2,,,,,3,og-post,,,,AAXX 25004 07181 11970 61508 10094 20085 39569 49979 56003 69921 70362 86070 333 86360=
07181,1999-10-25 01:00:00,9.7,998.7,1.4,94,8.8,20000,14.816,,,160,,,,,,,,,,,og-post,,,,AAXX 25014 07181 32770 71608 10097 20088 39577 49987 51014 82570 333 82650 86360=
07181,1999-10-25 02:00:00,10.1,998.3,0.2,91,8.7,50000,14.816,,,180,,,,,,,,,,,og-post,,,,AAXX 25024 07181 36/84 /1808 10101 20087 39574 49983 52002=
07181,1999-10-25 03:00:00,9.8,998.5,0.7,93,8.7,20000,14.816,,,200,,,,,,,,,,,og-post,,,,AAXX 25034 07181 32470 72008 10098 20087 39576 49985 51007 85770 333 84710 83650 85360=
07181,1999-10-25 04:00:00,10.3,998.3,-0.3,90,8.7,15000,25.928,,,170,,,,,,,,,,,og-post,,,,AAXX 25044 07181 32465 71714 10103 20087 39574 49983 56003 85702 333 83710 83650 85075=
07181,1999-10-25 05:00:00,10.2,998.4,0.1,90,8.6,15000,22.224,,,170,,,,,,,,,,,og-post,,,,AAXX 25054 07181 32465 71712 10102 20086 39575 49984 51001 82732 333 82710 85075=
07181,1999-10-25 06:00:00,9.8,998.4,-0.1,92,8.6,15000,14.816,,,180,9.2,11.1,,,,0.2,9.6,,8,,og-post,,,,AAXX 25064 07181 12465 71808 10098 20086 39575 49984 56001 69922 82732 333 10111 20092 32008 55/// 70096 82713 84360 87075=
07181,1999-10-25 07:00:00,10.3,998.9,0.6,89,8.6,20000,18.52,,,190,,,,,,,,,,,og-post,,,,AAXX 25074 07181 32470 71910 10103 20086 39580 49989 53006 83532 333 82713 83650 87075=
07181,1999-10-25 08:00:00,10.8,999.6,1.2,86,8.6,20000,22.224,,,170,,,,,,,,,,,og-post,,,,AAXX 25084 07181 32470 71712 10108 20086 39587 49996 53012 875// 333 81713 87646=
07181,1999-10-25 09:00:00,10.8,1000.9,2.5,88,8.9,20000,22.224,,,160,,,,,,,,,,,og-post,,,,AAXX 25094 07181 32470 71612 10108 20089 39600 40009 53025 875// 333 81715 87650=
07181,1999-10-25 10:00:00,11,1001.9,3,89,9.3,20000,14.816,,,190,,,,,,,,,,,og-post,,,,AAXX 25104 07181 32470 71908 10110 20093 39610 40019 53030 8353/ 333 81715 83643 87359=
07181,1999-10-25 11:00:00,13,1001.8,2.5,78,9.3,25000,18.52,,,170,,,,,,,,,,,og-post,,,,AAXX 25114 07181 32475 71710 10130 20093 39612 40018 51025 84802 333 83816 83650 85075=
07181,1999-10-25 12:00:00,13.8,1002.3,1.8,76,9.6,25000,25.928,,,200,,,,,,,,,,,og-post,,,,AAXX 25124 07181 32475 72014 10138 20096 39618 40023 51018 86202 333 86816 83075=
07181,1999-10-25 13:00:00,13.7,1003,1.4,78,9.9,25000,31.484,,,180,,,,,,,,,,,og-post,,,,AAXX 25134 07181 32475 71817 10137 20099 39624 40030 53014 85232 333 85816 83075=
07181,1999-10-25 17:00:00,11.6,1005.8,2.1,89,9.8,25000,14.816,,,170,,,,,,,,,,,og-post,,,,AAXX 25174 07181 32575 31708 10116 20098 39648 40058 53021 83300 333 81923 83630=
07181,1999-10-25 18:00:00,11.2,1007.1,3,90,9.6,25000,14.816,,,190,9.7,14.3,,,,,,,,,og-post,,,,AAXX 25184 07181 32775 11908 10112 20096 39660 40071 53030 81500 333 10143 20097 81650=
07181,1999-10-25 23:00:00,9.5,1010.9,2.2,90,7.9,25000,7.408,,,220,,,,,,,,,,,og-post,,,,AAXX 25234 07181 32975 02204 10095 20079 39694 40109 51022=
07181,1999-10-26 00:00:00,10.6,1011.2,1.7,85,8.2,40000,18.52,,,190,,,,,,,,,,,og-post,,,,AAXX 26004 07181 36/82 /1910 10106 20082 39698 40112 51017=
07181,1999-10-26 02:00:00,10,1012.1,1.2,87,7.9,25000,11.112,,,180,,,,,,,,,,,og-post,,,,AAXX 26024 07181 32975 01806 10100 20079 39706 40121 51012=
07181,1999-10-26 07:00:00,8.6,1015.5,2.1,93,7.5,20000,18.52,,,190,,,,,,,,,,,og-post,,,,AAXX 26074 07181 32970 21910 10086 20075 39737 40155 53021 80001 333 82075=
07181,1999-10-26 08:00:00,11.1,1016,2.6,81,8,20000,22.224,,,200,,,,,,,,,,,og-post,,,,AAXX 26084 07181 32970 22012 10111 20080 39745 40160 51026 80001 333 82075=
07181,1999-10-26 09:00:00,12.7,1016.8,2.6,78,9,20000,22.224,,,220,,,,,,,,,,,og-post,,,,AAXX 26094 07181 32470 22212 10127 20090 39755 40168 53026 82500 333 82613=
07181,1999-10-26 10:00:00,14.3,1017.1,2.3,74,9.7,20000,25.928,,,220,,,,,,,,,,,og-post,,,,AAXX 26104 07181 32570 42214 10143 20097 39760 40171 51023 84500 333 84620=
07181,1999-10-26 11:00:00,14,1018.1,2.4,72,9,20000,25.928,,,250,,,,,,,,,,,og-post,,,,AAXX 26114 07181 32570 52514 10140 20090 39769 40181 51024 85500 333 85625=
07181,1999-10-26 12:00:00,15.8,1017.9,1.5,67,9.7,20000,25.928,,,240,,,,,,,,,,,og-post,,,,AAXX 26124 07181 32570 42414 10158 20097 39770 40179 51015 84500 333 84628=
07181,1999-10-26 13:00:00,14.9,1018.4,1.3,63,7.9,20000,18.52,,,240,,,,,,,,,,,og-post,,,,AAXX 26134 07181 32570 32410 10149 20079 39773 40184 51013 83500 333 83630=
07181,1999-10-26 14:00:00,15.9,1018.7,0.9,58,7.7,20000,25.928,,,250,,,,,,,,,,,og-post,,,,AAXX 26144 07181 32670 32514 10159 20077 39778 40187 53009 83500 333 83633=
07181,1999-10-26 15:00:00,15.5,1019.6,1.6,60,7.8,20000,18.52,,,260,,,,,,,,,,,og-post,,,,AAXX 26154 07181 32670 32610 10155 20078 39786 40196 53016 83500 333 83633=
07181,1999-10-26 16:00:00,13.9,1020.3,1.7,66,7.7,20000,7.408,,,280,,,,,,,,,,,og-post,,,,AAXX 26164 07181 32670 12804 10139 20077 39790 40203 51017 81500 333 81636=
07181,1999-10-26 17:00:00,11.1,1021.2,1.7,87,9,20000,7.408,,,10,,,,,,,,,,,og-post,,,,AAXX 26174 07181 32970 00104 10111 20090 39795 40212 51017=
07181,1999-10-26 18:00:00,10.2,1022.2,1.7,91,8.8,20000,7.408,,,330,6.6,16.4,,,,,,,,,og-post,,,,AAXX 26184 07181 32970 03304 10102 20088 39803 40222 53017 333 10164 20066=
07181,1999-10-26 19:00:00,9.9,1023.2,2.3,95,9.1,20000,3.704,,,260,,,,,,,,,,,og-post,,,,AAXX 26194 07181 32970 02602 10099 20091 39813 40232 53023=
07181,1999-10-26 20:00:00,9.2,1024.1,2.5,96,8.6,20000,11.112,,,210,,,,,,,,,,,og-post,,,,AAXX 26204 07181 32970 02106 10092 20086 39820 40241 51025=
07181,1999-10-26 21:00:00,8.3,1024.8,2.2,96,7.7,20000,11.112,,,160,,,,,,,,,,,og-post,,,,AAXX 26214 07181 32970 01606 10083 20077 39825 40248 51022=
07181,1999-10-26 22:00:00,8.9,1025.1,1.6,97,8.4,15000,7.408,,,200,,,,,,,,,,,og-post,,,,AAXX 26224 07181 32965 02004 10089 20084 39829 40251 51016=
07181,1999-10-26 23:00:00,8.4,1025.6,1.3,97,8,12000,11.112,,,210,,,0.2,,,,,,,,og-post,,,,AAXX 26234 07181 22962 02106 10084 20080 39833 40256 51013 333 69925=
07181,1999-10-27 00:00:00,7.9,1026.1,1.2,98,7.6,10000,11.112,,,220,,,,0.2,0.2,,,,,,og-post,,,,AAXX 27004 07181 /2960 02206 10079 20076 39837 40261 52012 69921 333 69927=
07181,1999-10-27 01:00:00,7.9,1026,0.7,98,7.6,10000,14.816,,,220,,,,,,,,,,,og-post,,,,AAXX 27014 07181 32960 02208 10079 20076 39836 40260 50007=
07181,1999-10-27 02:00:00,7.5,1026.1,0.4,98,7.2,4300,11.112,,,200,,,,,,,,,,,og-post,,,,AAXX 27024 07181 36/43 /2006 10075 20072 39837 40261 51004=
07181,1999-10-27 03:00:00,7.3,1026.8,0.6,99,7.2,7000,7.408,,,190,,,,,,,,,,,og-post,,,,AAXX 27034 07181 32957 01904 10073 20072 39843 40268 53006=
07181,1999-10-27 04:00:00,7,1027.4,1.2,99,6.9,6000,7.408,,,210,,,,,,,,,,,og-post,,,,AAXX 27044 07181 32956 02104 10070 20069 39848 40274 53012=
07181,1999-10-27 05:00:00,6.9,1027.8,1.5,99,6.8,3500,7.408,,,190,,,,,,,,,,40,og-post,,,,AAXX 27054 07181 31935 01904 10069 20068 39852 40278 51015 74000=
07181,1999-10-27 06:00:00,6.9,1028.1,1.2,99,6.8,200,7.408,,,190,6.1,10.2,,,,0.2,,,-0,41,og-post,,,,AAXX 27064 07181 11902 01904 10069 20068 39855 40281 51012 69922 74140 333 10102 20061 31100 55/// 70002=
07181,1999-10-27 07:00:00,6.7,1028.9,1.4,99,6.6,1300,11.112,,,170,,,,,,,,,,40,og-post,,,,AAXX 27074 07181 31913 01706 10067 20066 39862 40289 53014 74040=
07181,1999-10-27 08:00:00,8.8,1029.2,1.6,99,8.7,5000,7.408,,,180,,,0.2,,,,,,,40,og-post,,,,AAXX 27084 07181 21950 11804 10088 20087 39868 40292 53016 74000 80001 333 69925 81075=
07181,1999-10-27 09:00:00,11.7,1029.1,1.7,94,10.8,9000,3.704,,,210,,,,0.2,,,,,,40,og-post,,,,AAXX 27094 07181 21959 12102 10117 20108 39872 40291 51017 74040 80001 333 69927 81075=
07181,1999-10-27 10:00:00,13.6,1029.1,1.2,72,8.7,11000,11.112,,,210,,,,,,,,,,,og-post,,,,AAXX 27104 07181 32961 12106 10136 20087 39874 40291 51012 80001 333 81075=
07181,1999-10-27 11:00:00,15.4,1028.7,0.5,64,8.6,13000,11.112,,,230,,,,,,,,,,,og-post,,,,AAXX 27114 07181 32963 22306 10154 20086 39873 40287 50005 80001 333 82075=
07181,1999-10-27 12:00:00,16.3,1028,-0.5,51,6.2,15000,7.408,,,240,,,,,0.2,,,,,3,og-post,,,,AAXX 27124 07181 11565 32404 10163 20062 39867 40280 58005 69921 70340 81101 333 81820 83075=
07181,1999-10-27 13:00:00,17,1027.6,-0.9,51,6.8,20000,3.704,,,270,,,,,,,,,,,og-post,,,,AAXX 27134 07181 32570 22702 10170 20068 39865 40276 58009 81101 333 81825=
07181,1999-10-27 14:00:00,16.9,1027.4,-1,56,8.1,25000,3.704,,,180,,,,,,,,,,,og-post,,,,AAXX 27144 07181 32575 21802 10169 20081 39863 40274 56010 81101 333 81825=
07181,1999-10-27 15:00:00,16.8,1027.4,-0.5,53,7.2,25000,3.704,,,180,,,,,,,,,,,og-post,,,,AAXX 27154 07181 32975 21802 10168 20072 39862 40274 56005 80001 333 82075=
07181,1999-10-27 16:00:00,15.1,1027.4,-0.5,59,7.2,25000,3.704,,,170,,,,,,,,,,,og-post,,,,AAXX 27164 07181 32975 21702 10151 20072 39860 40274 57005 80001 333 82075=
07181,1999-10-27 17:00:00,11.8,1027.6,-0.6,77,7.9,20000,7.408,,,120,,,,,,,,,,,og-post,,,,AAXX 27174 07181 32970 21204 10118 20079 39857 40276 58006 80001 333 82075=
07181,1999-10-27 18:00:00,10.5,1028,-0.3,86,8.3,20000,11.112,,,140,6.3,17.4,,,,0.2,,,,,og-post,,,,AAXX 27184 07181 12970 21406 10105 20083 39859 40280 55003 69922 80001 333 10174 20063 82075=
07181,1999-10-27 19:00:00,9.6,1028,-0.2,90,8,20000,11.112,,,140,,,,,,,,,,,og-post,,,,AAXX 27194 07181 32970 21406 10096 20080 39858 40280 56002 80001 333 82075=
07181,1999-10-27 20:00:00,9,1027.9,-0.1,90,7.4,20000,11.112,,,120,,,,,,,,,,,og-post,,,,AAXX 27204 07181 32970 21206 10090 20074 39856 40279 58001 80001 333 82075=
07181,1999-10-27 21:00:00,8.5,1028.1,-0.2,92,7.3,20000,,,,,,,,,,,,,,,og-post,,,,AAXX 27214 07181 32970 20000 10085 20073 39857 40281 55002 80001 333 82075=
07181,1999-10-27 22:00:00,8.2,1027.7,-0.5,93,7.1,20000,7.408,,,110,,,,,,,,,,,og-post,,,,AAXX 27224 07181 32970 21104 10082 20071 39853 40277 58005 80001 333 82075=
07181,1999-10-27 23:00:00,6.9,1027.7,-0.5,95,6.2,12000,11.112,,,160,,,,,,,,,,,og-post,,,,AAXX 27234 07181 32962 21606 10069 20062 39851 40277 58005 80001 333 82075=
07181,1999-10-28 00:00:00,6.2,1027.6,-0.8,96,5.6,12000,3.704,,,160,,,,,,,,,,,og-post,,,,AAXX 28004 07181 32962 21602 10062 20056 39849 40276 56008 80001 333 82075=
07181,1999-10-28 01:00:00,6.1,1027.1,-0.9,98,5.8,12000,14.816,,,140,,,,,,,,,,,og-post,,,,AAXX 28014 07181 32962 21408 10061 20058 39844 40271 58009 80001 333 82075=
07181,1999-10-28 02:00:00,6.1,1026.6,-1.2,98,5.8,8000,3.704,,,150,,,,,,,,,,,og-post,,,,AAXX 28024 07181 32958 21502 10061 20058 39839 40266 58012 80001 333 82075=
07181,1999-10-28 03:00:00,6,1026.1,-1.5,98,5.7,7000,3.704,,,150,,,,,,,,,,40,og-post,,,,AAXX 28034 07181 31957 21502 10060 20057 39834 40261 57015 74000 80001 333 82075=
07181,1999-10-28 04:00:00,6.4,1026,-1,99,6.3,9000,7.408,,,130,,,,,,,,,,,og-post,,,,AAXX 28044 07181 32959 51304 10064 20063 39834 40260 56010 80001 333 85075=
07181,1999-10-28 05:00:00,6.5,1025.9,-0.6,96,5.9,12000,11.112,,,140,,,,,,,,,,,og-post,,,,AAXX 28054 07181 32962 41406 10065 20059 39833 40259 56006 80001 333 84075=
07181,1999-10-28 06:00:00,6,1025.7,-0.4,95,5.3,12000,11.112,,,150,5.7,10.5,,,,,0.2,,0,,og-post,,,,AAXX 28064 07181 32762 61506 10060 20053 39830 40257 58004 81531 333 10105 20057 30000 55/// 70002 81650 85075=
07181,1999-10-28 07:00:00,6.2,1026,-0,97,5.8,13000,11.112,,,160,,,,,,,,,,,og-post,,,,AAXX 28074 07181 32963 61606 10062 20058 39834 40260 55000 82031 333 82360 85075=
07181,1999-10-28 08:00:00,9.1,1025.8,0.3,94,8.2,13000,7.408,,,180,,,,,,,,,,,og-post,,,,AAXX 28084 07181 32963 61804 10091 20082 39836 40258 53003 82031 333 82360 85075=
07181,1999-10-28 09:00:00,13,1025.8,1.2,85,10.5,13000,11.112,,,230,,,,,,,,,,,og-post,,,,AAXX 28094 07181 32963 72306 10130 20105 39842 40258 53012 84031 333 84360 85075=
07181,1999-10-28 10:00:00,14.7,1025.3,0.6,77,10.7,15000,18.52,,,210,,,,,,,,,,,og-post,,,,AAXX 28104 07181 32965 72110 10147 20107 39840 40253 50006 85031 333 85360 86075=
07181,1999-10-28 11:00:00,15.9,1025.1,0.3,68,10,15000,18.52,,,220,,,,,,,,,,,og-post,,,,AAXX 28114 07181 32965 72210 10159 20100 39839 40251 50003 85031 333 85360 86075=
07181,1999-10-28 12:00:00,15,1025.4,-0.1,77,11,15000,14.816,,,220,,,,,,,,,,,og-post,,,,AAXX 28124 07181 32965 72208 10150 20110 39841 40254 55001 85031 333 85360 86075=
07181,1999-10-28 13:00:00,14.6,1024.8,-0.5,83,11.7,15000,7.408,,,200,,,,,,,,,,,og-post,,,,AAXX 28134 07181 32965 72004 10146 20117 39835 40248 58005 85031 333 85360 86075=
07181,1999-10-28 14:00:00,15.3,1024.6,-0.5,82,12.2,15000,14.816,,,220,,,,,,,,,,,og-post,,,,AAXX 28144 07181 32965 72208 10153 20122 39834 40246 58005 85031 333 85360 85075=
07181,1999-10-28 15:00:00,14.9,1024.9,-0.5,83,12,15000,11.112,,,230,,,,,,,,,,,og-post,,,,AAXX 28154 07181 32965 72306 10149 20120 39836 40249 55005 85031 333 85360 85075=
07181,1999-10-28 16:00:00,14.4,1025.1,0.3,86,12.1,15000,7.408,,,230,,,,,,,,,,,og-post,,,,AAXX 28164 07181 32965 72304 10144 20121 39838 40251 53003 85031 333 85360 85075=
07181,1999-10-28 17:00:00,13.4,1025.8,0.9,91,12,15000,7.408,,,240,,,,,,,,,,,og-post,,,,AAXX 28174 07181 32965 72404 10134 20120 39843 40258 53009 85031 333 85360 85075=
07181,1999-10-28 18:00:00,13.1,1025.6,0.5,93,12,15000,7.408,,,170,5.5,16.5,,,,,,,,,og-post,,,,AAXX 28184 07181 32965 71704 10131 20120 39841 40256 50005 85031 333 10165 20055 85360 85075=
07181,1999-10-28 19:00:00,13.1,1026.2,0.8,93,12,15000,7.408,,,180,,,,,,,,,,,og-post,,,,AAXX 28194 07181 32965 71804 10131 20120 39846 40262 52008 85031 333 85360 85075=
07181,1999-10-28 20:00:00,12.7,1026.9,0.9,95,11.9,15000,7.408,,,170,,,,,,,,,,,og-post,,,,AAXX 28204 07181 32965 71704 10127 20119 39852 40269 53009 85031 333 85359 85075=
07181,1999-10-28 21:00:00,12.9,1026.9,1.2,95,12.1,15000,7.408,,,210,,,,0.4,,,,,,60,og-post,,,,AAXX 28214 07181 21965 72104 10129 20121 39853 40269 51012 76062 85072 333 69947 85359 85075=
07181,1999-10-28 22:00:00,12.2,1027.1,0.8,96,11.6,12000,3.704,,,130,,,,,,,,,,60,og-post,,,,AAXX 28224 07181 21962 71302 10122 20116 39854 40271 51008 76066 85072 333 69905 85359 85075=
07181,1999-10-28 23:00:00,12,1026.9,-0.1,97,11.5,8000,3.704,,,40,,,,,,,,,,60,og-post,,,,AAXX 28234 07181 21958 70402 10120 20115 39851 40269 58001 76066 85072 333 69905 85359 85075=
07181,1999-10-29 00:00:00,11.8,1027.6,0.5,98,11.5,5000,3.704,,,210,,,,2,2,,,,,60,og-post,,,,AAXX 29004 07181 /1950 82102 10118 20115 39858 40276 53005 60021 76062 8707/ 333 60027 87359=
07181,1999-10-29 01:00:00,11.9,1026.8,-0.4,98,11.6,600,7.408,,,20,,,0.8,,,,,,,,og-post,,,,AAXX 29014 07181 26/06 /0204 10119 20116 39850 40268 58004 333 69985=
07181,1999-10-29 02:00:00,11.4,1026.6,-0.3,98,11.1,500,3.704,,,110,,,,,,,,,,42,og-post,,,,AAXX 29024 07181 21905 81102 10114 20111 39848 40266 58003 74264 8707/ 333 69905 87359=
07181,1999-10-29 03:00:00,11.6,1026.6,-1,99,11.4,100,7.408,,,70,,,,0.8,,,,,,,og-post,,,,AAXX 29034 07181 26/01 /0704 10116 20114 39848 40266 56010 333 69987=
07181,1999-10-29 04:00:00,11.5,1026.3,-0.5,99,11.3,100,7.408,,,120,,,,,,,,,,47,og-post,,,,AAXX 29044 07181 31/01 91204 10115 20113 39845 40263 58005 74744=
07181,1999-10-29 05:00:00,9.9,1026.8,-0.1,99,9.7,100,,,,,,,0.2,,,,,,,44,og-post,,,,AAXX 29054 07181 21001 50000 10099 20097 39847 40268 55001 74444 85700 333 69925 85701=
07181,1999-10-29 06:00:00,10.9,1027.1,0.4,99,10.7,500,3.704,,,20,9.8,13.2,,0.2,,3,,,9,47,og-post,,,,AAXX 29064 07181 /1/00 90202 10109 20107 39852 40271 53004 60032 74764 333 10132 20098 32009 55/// 69927 70030=
07181,1999-10-29 07:00:00,10.9,1027.4,0.9,99,10.7,500,3.704,,,110,,,,,,,,,,45,og-post,,,,AAXX 29074 07181 31/00 91102 10109 20107 39854 40274 52009 74544=
07181,1999-10-29 08:00:00,10.9,1027.8,1.1,99,10.7,100,7.408,,,100,,,,,,,,,,43,og-post,,,,AAXX 29084 07181 31/01 91004 10109 20107 39858 40278 51011 74344=
07181,1999-10-29 09:00:00,11.3,1027.6,0.5,99,11.1,100,11.112,,,80,,,,,,,,,,43,og-post,,,,AAXX 29094 07181 31/01 90806 10113 20111 39857 40276 50005 74344=
07181,1999-10-29 10:00:00,11.6,1027.4,0.2,99,11.4,200,7.408,,,90,,,,,,,,,,43,og-post,,,,AAXX 29104 07181 31/02 90904 10116 20114 39856 40274 50002 74344=
07181,1999-10-29 11:00:00,12,1027.2,-0.4,99,11.8,400,7.408,,,70,,,,,,,,,,43,og-post,,,,AAXX 29114 07181 31/04 90704 10120 20118 39854 40272 58004 74344=
07181,1999-10-29 12:00:00,12,1026.4,-1,99,11.8,200,11.112,,,80,,,,,,,,,,47,og-post,,,,AAXX 29124 07181 31/02 90806 10120 20118 39847 40264 58010 74744=
07181,1999-10-29 13:00:00,12.1,1025.7,-1.6,99,11.9,3500,11.112,,,80,,,,,,,,,,28,og-post,,,,AAXX 29134 07181 31135 80806 10121 20119 39840 40257 58016 72842 877// 333 82702 87703=
07181,1999-10-29 14:00:00,13.2,1024.5,-2.4,99,13,6000,7.408,,,70,,,,,,,,,,,og-post,,,,AAXX 29144 07181 32356 80704 10132 20130 39830 40245 58024 877// 333 87708=
07181,1999-10-29 15:00:00,13.8,1024,-2.1,96,13.2,7000,7.408,,,60,,,,,,,,,,1,og-post,,,,AAXX 29154 07181 31357 30604 10138 20132 39826 40240 56021 70141 82730 333 82708=
07181,1999-10-29 16:00:00,13.3,1023.3,-2.1,94,12.4,7000,7.408,,,50,,,,,,,,,,,og-post,,,,AAXX 29164 07181 32857 60504 10133 20124 39819 40233 56021 82031 333 82358 86075=
07181,1999-10-29 17:00:00,12.7,1023.1,-1.4,95,11.9,6000,3.704,,,90,,,,,,,,,,,og-post,,,,AAXX 29174 07181 32856 60902 10127 20119 39816 40231 56014 82031 333 82358 86075=
07181,1999-10-29 18:00:00,12.6,1022.4,-1.7,93,11.5,4000,7.408,,,100,10.8,14,,,,,,,,10,og-post,,,,AAXX 29184 07181 31840 61004 10126 20115 39809 40224 57017 71041 82031 333 10140 20108 82358 86075=
07181,1999-10-29 19:00:00,12.1,1021.8,-1.6,95,11.3,4000,7.408,,,100,,,,,,,,,,10,og-post,,,,AAXX 29194 07181 31940 61004 10121 20113 39803 40218 58016 71022 82031 333 82363 86075=
07181,1999-10-29 20:00:00,11.8,1021.4,-1.8,96,11.2,2500,7.408,,,110,,,,,,,,,,10,og-post,,,,AAXX 29204 07181 31925 61104 10118 20112 39798 40214 56018 71022 82031 333 82363 86075=
07181,1999-10-29 21:00:00,11.7,1020.9,-1.6,97,11.2,2000,7.408,,,90,,,,,,,,,,10,og-post,,,,AAXX 29214 07181 31920 60904 10117 20112 39793 40209 56016 71022 82031 333 82363 86075=
07181,1999-10-29 22:00:00,11.6,1019.9,-1.9,97,11.1,2000,11.112,,,100,,,,,,,,,,10,og-post,,,,AAXX 29224 07181 31920 61006 10116 20111 39784 40199 58019 71022 82031 333 82363 86075=
07181,1999-10-29 23:00:00,11.7,1019.4,-1.9,97,11.2,2300,7.408,,,100,,,,,,,,,,,og-post,,,,AAXX 29234 07181 36/23 /1004 10117 20112 39779 40194 57019=
07181,1999-10-30 00:00:00,10.7,1019.6,-1.4,98,10.4,500,7.408,,,80,,,,,,,,,,,og-post,,,,AAXX 30004 07181 36/05 /0804 10107 20104 39779 40196 56014=
07181,1999-10-30 01:00:00,10.6,1018.7,-1.3,98,10.3,600,,,,,,,,,,,,,,,og-post,,,,AAXX 30014 07181 36/06 /0000 10106 20103 39771 40187 58013=
07181,1999-10-30 02:00:00,10.4,1018,-1.5,98,10.1,900,11.112,,,130,,,,,,,,,,44,og-post,,,,AAXX 30024 07181 31909 61306 10104 20101 39764 40180 58015 74444 84031 333 84363 86075=
07181,1999-10-30 04:00:00,10.3,1016.5,-2.2,99,10.1,4500,11.112,,,110,,,,,,,,,,,og-post,,,,AAXX 30044 07181 36/45 /1106 10103 20101 39749 40165 58022=
07181,1999-10-30 05:00:00,10.2,1016.2,-1.8,99,10,2000,7.408,,,110,,,,,,,,,,10,og-post,,,,AAXX 30054 07181 31920 31104 10102 20100 39746 40162 56018 71011 81031 333 81363 83075=
07181,1999-10-30 07:00:00,10.3,1015.7,-0.8,98,10,12000,7.408,,,160,,,,,,,,,,,og-post,,,,AAXX 30074 07181 36/62 /1604 10103 20100 39741 40157 55008=
07181,1999-10-30 10:00:00,18.4,1014.5,0,57,9.7,15000,14.816,,,190,,,,,,,,,,,og-post,,,,AAXX 30104 07181 32965 21908 10184 20097 39741 40145 50000 81031 333 81363=
07181,1999-10-30 11:00:00,18.7,1013.7,-1.1,56,9.8,18000,22.224,,,180,,,,,,,,,,,og-post,,,,AAXX 30114 07181 32968 21812 10187 20098 39734 40137 58011 81031 333 81362=
07181,1999-10-30 12:00:00,20.8,1012.8,-1.3,49,9.7,18000,22.224,,,200,,,,,,,,,,,og-post,,,,AAXX 30124 07181 32968 22012 10208 20097 39728 40128 58013 80001 333 81075=
07181,1999-10-30 13:00:00,21.7,1012.3,-1.7,44,8.9,18000,11.112,,,220,,,,,,,,,,,og-post,,,,AAXX 30134 07181 32968 32206 10217 20089 39724 40123 56017 82031 333 82362=
07181,1999-10-30 14:00:00,20.7,1012.1,-1.3,49,9.6,20000,18.52,,,190,,,,,,,,,,,og-post,,,,AAXX 30144 07181 36/70 /1910 10207 20096 39721 40121 56013=
07181,1999-10-30 15:00:00,20,1012,-0.9,52,9.9,18000,14.816,,,160,,,,,,,,,,,og-post,,,,AAXX 30154 07181 32968 21608 10200 20099 39719 40120 56009 81031 333 81362=
07181,1999-10-30 16:00:00,17.8,1012.2,-0.6,61,10.2,15000,11.112,,,180,,,,,,,,,,,og-post,,,,AAXX 30164 07181 32965 41806 10178 20102 39718 40122 56006 81031 333 81362 84075=
07181,1999-10-30 17:00:00,17.9,1012.1,-0.4,61,10.3,10000,18.52,,,190,,,,,,,,,,,og-post,,,,AAXX 30174 07181 32960 51910 10179 20103 39717 40121 56004 80001 333 85075=
07181,1999-10-30 18:00:00,17.5,1012.3,-0,63,10.4,10000,25.928,,,200,9.7,21.8,,,,,,,,,og-post,,,,AAXX 30184 07181 32960 52014 10175 20104 39719 40123 55000 83031 333 10218 20097 83362 85075=
07181,1999-10-30 19:00:00,17.5,1012.2,-0,64,10.6,10000,22.224,,,210,,,,,,,,,,,og-post,,,,AAXX 30194 07181 32960 62112 10175 20106 39718 40122 54000 83031 333 83361 85075=
07181,1999-10-30 20:00:00,17.2,1011.7,-0.4,66,10.8,10000,18.52,,,190,,,,,,,,,,,og-post,,,,AAXX 30204 07181 32960 61910 10172 20108 39713 40117 58004 83031 333 83361 85075=
07181,1999-10-30 21:00:00,17.5,1012.3,-0,66,11.1,15000,29.632,,,200,,,,,,,,,,17,og-post,,,,AAXX 30214 07181 31665 72016 10175 20111 39719 40123 55000 71792 81981 333 81936 85360 86075=
07181,1999-10-30 22:00:00,13,1014.1,1.2,96,12.4,6000,18.52,64.82,,200,,,8,,,,,,,91,og-post,,,,AAXX 30224 07181 21456 72010 10130 20124 39730 40141 53012 79198 8648/ 333 60085 82811 85633 86360 91135=
07181,1999-10-30 23:00:00,13.5,1014.1,1.8,97,13,15000,18.52,,,200,,,1,,,,,,,,og-post,,,,AAXX 30234 07181 26/65 /2010 10135 20130 39731 40141 51018 333 60015=
07181,1999-10-31 00:00:00,14.1,1014.7,1.9,95,13.3,5000,25.928,64.82,,220,,,,10,10,,,,,60,og-post,,,,AAXX 31004 07181 /1450 72214 10141 20133 39738 40147 51019 60101 76098 858// 333 60107 83811 86633 91135=
07181,1999-10-31 01:00:00,12.1,1017.7,3.3,88,10.2,35000,22.224,,,270,,,2,,,,,,,,og-post,,,,AAXX 31014 07181 26/81 /2712 10121 20102 39763 40177 53033 333 60025=
07181,1999-10-31 02:00:00,11,1019.1,4.4,89,9.3,45000,22.224,,,250,,,,,,,,,,,og-post,,,,AAXX 31024 07181 26/83 /2512 10110 20093 39775 40191 53044 333 69905=
07181,1999-10-31 03:00:00,10.2,1020.4,4.8,88,8.3,15000,22.224,,,250,,,,2,,,,,,21,og-post,,,,AAXX 31034 07181 21465 72512 10102 20083 39786 40204 51048 72162 878// 333 60027 84615 86623=
07181,1999-10-31 04:00:00,10,1021.8,3.6,88,8.1,28000,22.224,,,250,,,,,,,,,,,og-post,,,,AAXX 31044 07181 36/78 /2512 10100 20081 39799 40218 53036=
07181,1999-10-31 05:00:00,9.6,1022.7,3.2,88,7.7,20000,22.224,,,250,,,,,,,,,,,og-post,,,,AAXX 31054 07181 32470 72512 10096 20077 39807 40227 51032 878// 333 83816 85630=
07181,1999-10-31 06:00:00,8.7,1023.7,2.9,90,7.2,20000,18.52,,,250,8.7,17.7,,,,12,11.8,,8,1,og-post,,,,AAXX 31064 07181 11470 32510 10087 20072 39815 40237 51029 60122 70161 83700 333 10177 20087 31008 55/// 70118 83816=
07181,1999-10-31 07:00:00,8.8,1024.6,2.5,90,7.3,20000,18.52,,,250,,,,,,,,,,,og-post,,,,AAXX 31074 07181 32570 32510 10088 20073 39824 40246 53025 83700 333 83820=
07181,1999-10-31 08:00:00,9.7,1025.6,2.8,90,8.1,20000,18.52,,,240,,,,,,,,,,,og-post,,,,AAXX 31084 07181 32470 52410 10097 20081 39835 40256 53028 85100 333 85811=
07181,1999-10-31 09:00:00,11.1,1026.1,2.7,82,8.1,20000,18.52,,,250,,,,,,,,,,,og-post,,,,AAXX 31094 07181 32470 72510 10111 20081 39842 40261 51027 871// 333 87815=
07181,1999-10-31 10:00:00,12.7,1026.5,2.4,75,8.4,20000,22.224,,,250,,,,,,,,,,,og-post,,,,AAXX 31104 07181 32570 62512 10127 20084 39848 40265 51024 86100 333 86820=
07181,1999-10-31 11:00:00,13.1,1026.6,1.5,68,7.3,20000,22.224,,,230,,,,,,,,,,,og-post,,,,AAXX 31114 07181 32570 52312 10131 20073 39850 40266 51015 85100 333 85825=
07181,1999-10-31 12:00:00,14.5,1026,0.4,60,6.8,20000,18.52,,,230,,,,,,,,,,,og-post,,,,AAXX 31124 07181 32570 32310 10145 20068 39846 40260 50004 83100 333 83830=
07181,1999-10-31 13:00:00,14.8,1026,-0.2,57,6.4,25000,14.816,,,220,,,,,,,,,,,og-post,,,,AAXX 31134 07181 32675 32208 10148 20064 39846 40260 58002 83100 333 83840=
07181,1999-10-31 14:00:00,13.7,1026.3,-0.3,58,5.6,25000,18.52,,,220,,,,,,,,,,,og-post,,,,AAXX 31144 07181 32675 42210 10137 20056 39847 40263 55003 84100 333 84840=
07181,1999-10-31 15:00:00,14.2,1026.1,0,56,5.6,25000,18.52,,,210,,,,,,,,,,,og-post,,,,AAXX 31154 07181 32675 32110 10142 20056 39846 40261 50000 83100 333 83845=
07181,1999-10-31 16:00:00,11.8,1026.4,0,64,5.2,25000,7.408,,,190,,,,,,,,,,,og-post,,,,AAXX 31164 07181 32675 31904 10118 20052 39846 40264 50000 83500 333 83645=
07181,1999-10-31 17:00:00,10.1,1026.7,-0.1,77,6.3,25000,7.408,,,140,,,,,,,,,,,og-post,,,,AAXX 31174 07181 32675 21404 10101 20063 39846 40267 56001 82500 333 82645=
07181,1999-10-31 18:00:00,8.9,1027,0.1,83,6.2,25000,11.112,,,150,8.6,15,,,,,,,,,og-post,,,,AAXX 31184 07181 32775 11506 10089 20062 39847 40270 53001 81500 333 10150 20086 81650=
07181,1999-10-31 19:00:00,8.3,1027,0,86,6.1,25000,11.112,,,140,,,,,,,,,,,og-post,,,,AAXX 31194 07181 32775 11406 10083 20061 39846 40270 50000 81500 333 81650=
07181,1999-10-31 20:00:00,7.7,1027,-0.1,86,5.5,20000,7.408,,,140,,,,,,,,,,,og-post,,,,AAXX 31204 07181 32970 01404 10077 20055 39845 40270 58001=
07181,1999-10-31 21:00:00,7.3,1026.7,-0.5,88,5.4,20000,11.112,,,140,,,,,,,,,,,og-post,,,,AAXX 31214 07181 32970 01406 10073 20054 39842 40267 58005=
07181,1999-10-31 22:00:00,6.4,1026.1,-1.1,92,5.2,20000,7.408,,,140,,,,,,,,,,,og-post,,,,AAXX 31224 07181 32970 01404 10064 20052 39835 40261 58011=
07181,1999-10-31 23:00:00,6,1025.6,-1.6,94,5.1,20000,7.408,,,130,,,,,,,,,,,og-post,,,,AAXX 31234 07181 32970 01304 10060 20051 39829 40256 58016=
07181,1999-11-01 00:00:00,5.1,1025.3,-1.7,95,4.4,20000,11.112,,,120,,,,,,,,,,,og-post,,,,AAXX 01004 07181 32970 01206 10051 20044 39825 40253 56017=
07181,1999-11-01 01:00:00,5,1024.9,-1.4,95,4.3,20000,7.408,,,130,,,,,,,,,,,og-post,,,,AAXX 01014 07181 32970 01304 10050 20043 39821 40249 56014=
07181,1999-11-01 02:00:00,4,1024.4,-1.4,97,3.6,11000,11.112,,,140,,,,,,,,,,,og-post,,,,AAXX 01024 07181 32961 01406 10040 20036 39815 40244 58014=
07181,1999-11-01 03:00:00,4,1023.7,-1.7,98,3.7,10000,14.816,,,140,,,,,,,,,,,og-post,,,,AAXX 01034 07181 32960 01408 10040 20037 39808 40237 58017=
07181,1999-11-01 04:00:00,4.1,1023.7,-1.3,98,3.8,10000,3.704,,,150,,,,,,,,,,,og-post,,,,AAXX 01044 07181 32960 01502 10041 20038 39808 40237 56013=
07181,1999-11-01 05:00:00,3.9,1023.6,-0.8,98,3.6,10000,7.408,,,140,,,,,,,,,,,og-post,,,,AAXX 01054 07181 32960 01404 10039 20036 39807 40236 56008=
07181,1999-11-01 06:00:00,4.2,1022.6,-1,97,3.8,10000,3.704,,,40,3.1,8.9,,,,,0,,-1,,og-post,,,,AAXX 01064 07181 32960 10402 10042 20038 39798 40226 58010 80001 333 10089 20031 31101 55/// 70000 81075=
07181,1999-11-01 07:00:00,5.2,1022.7,-0.8,95,4.5,15000,18.52,,,150,,,,,,,,,,,og-post,,,,AAXX 01074 07181 32965 31510 10052 20045 39800 40227 55008 80001 333 83075=
07181,1999-11-01 08:00:00,10.7,1021.9,-0.6,77,6.8,20000,18.52,,,190,,,,,,,,,,,og-post,,,,AAXX 01084 07181 32970 61910 10107 20068 39801 40219 55006 80001 333 86075=
07181,1999-11-01 09:00:00,12.4,1021.3,0,66,6.2,20000,22.224,,,200,,,,,,,,,,,og-post,,,,AAXX 01094 07181 32970 62012 10124 20062 39798 40213 50000 80001 333 86075=
07181,1999-11-01 10:00:00,13.7,1021.3,-0,66,7.5,25000,14.816,,,190,,,,,,,,,,,og-post,,,,AAXX 01104 07181 32975 71908 10137 20075 39800 40213 55000 80002 333 87075=
07181,1999-11-01 11:00:00,14.1,1020.9,-0.5,67,8.1,25000,18.52,,,170,,,,,,,,,,,og-post,,,,AAXX 01114 07181 32975 71710 10141 20081 39796 40209 58005 84032 333 84360 87075=
07181,1999-11-01 12:00:00,15.8,1020.1,-0.7,61,8.3,25000,22.224,,,200,,,,,,,,,,,og-post,,,,AAXX 01124 07181 32775 72012 10158 20083 39791 40201 58007 81532 333 81650 84360 87075=
07181,1999-11-01 13:00:00,16.7,1019.4,-1.4,58,8.4,25000,18.52,,,180,,,,,,,,,,,og-post,,,,AAXX 01134 07181 32575 71810 10167 20084 39786 40194 58014 81232 333 81830 84360 87075=
07181,1999-11-01 14:00:00,16.5,1018.9,-1.5,60,8.7,25000,25.928,,,190,,,,,,,,,,,og-post,,,,AAXX 01144 07181 32575 71914 10165 20087 39781 40189 57015 81232 333 81830 85358 87075=
07181,1999-11-01 15:00:00,16.5,1018.7,-1.2,61,9,25000,22.224,,,200,,,,,,,,,,,og-post,,,,AAXX 01154 07181 32775 72012 10165 20090 39779 40187 56012 84532 333 84656 85358 87075=
07181,1999-11-01 16:00:00,16.2,1018.1,-1.3,67,10.1,25000,25.928,,,190,,,,,,,,,,,og-post,,,,AAXX 01164 07181 32775 71914 10162 20101 39773 40181 58013 84532 333 84656 85358 87075=
07181,1999-11-01 17:00:00,16.1,1018.4,-0.5,73,11.3,25000,22.224,,,180,,,,,,,,,,,og-post,,,,AAXX 01174 07181 32775 71812 10161 20113 39776 40184 55005 84532 333 84656 85358 87075=
07181,1999-11-01 18:00:00,16.6,1018.6,-0.1,71,11.3,25000,29.632,,,190,4.1,17,,,,,,,,,og-post,,,,AAXX 01184 07181 32775 71916 10166 20113 39778 40186 55001 82532 333 10170 20041 82656 85358 87075=
07181,1999-11-01 19:00:00,16.8,1018.7,0.6,69,11.1,25000,25.928,,,190,,,,,,,,,,,og-post,,,,AAXX 01194 07181 32675 71914 10168 20111 39779 40187 51006 82532 333 82643 85358 87075=
07181,1999-11-01 20:00:00,17,1018.7,0.4,68,11.1,25000,18.52,,,210,,,,,,,,,,,og-post,,,,AAXX 01204 07181 32675 72110 10170 20111 39780 40187 51004 8553/ 333 85643 85358=
07181,1999-11-01 21:00:00,16.3,1019,0.4,74,11.7,15000,22.224,,,210,,,,,,,,,,,og-post,,,,AAXX 01214 07181 32665 72112 10163 20117 39782 40190 53004 8553/ 333 85646 85358=
07181,1999-11-01 22:00:00,16.7,1018.7,0,71,11.4,15000,25.928,,,200,,,,,,,,,,,og-post,,,,AAXX 01224 07181 32665 72014 10167 20114 39779 40187 50000 8557/ 333 85643 87458=
07181,1999-11-01 23:00:00,15.7,1018.8,-0.1,79,12.1,17000,25.928,,,200,,,,,,,,,,,og-post,,,,AAXX 01234 07181 36/67 /2014 10157 20121 39779 40188 58001=
07181,1999-11-02 00:00:00,15.4,1018.2,-0.9,83,12.5,18000,29.632,,,200,,,,,,,,,,,og-post,,,,AAXX 02004 07181 /6/68 /2016 10154 20125 39773 40182 58009 69901 333 69907=
07181,1999-11-02 01:00:00,14.2,1018.4,-0.6,93,13.1,6000,25.928,,,200,,,0.8,,,,,,,,og-post,,,,AAXX 02014 07181 26/56 /2014 10142 20131 39773 40184 57006 333 69985=
07181,1999-11-02 02:00:00,13.9,1018.3,-0.7,96,13.3,9000,18.52,,,200,,,1,,,,,,,,og-post,,,,AAXX 02024 07181 26/59 /2010 10139 20133 39772 40183 56007 333 60015=
07181,1999-11-02 03:00:00,14.1,1017.9,-0.5,94,13.1,6000,22.224,,,210,,,,2,,,,,,61,og-post,,,,AAXX 02034 07181 21556 82112 10141 20131 39768 40179 58005 76166 875// 333 60027 85626 86640 87646=
07181,1999-11-02 04:00:00,13.8,1017.4,-1,96,13.2,5000,29.632,,,210,,,0.8,,,,,,,61,og-post,,,,AAXX 02044 07181 21650 82116 10138 20132 39763 40174 58010 76166 875// 333 69985 87633=
07181,1999-11-02 05:00:00,13.7,1016.7,-1.6,96,13.1,5000,22.224,,,180,,,2,,,,,,,61,og-post,,,,AAXX 02054 07181 21350 81812 10137 20131 39756 40167 58016 76166 875// 333 60025 82708 87633=
07181,1999-11-02 06:00:00,13.5,1016.2,-1.7,96,12.9,5000,14.816,,,160,13.5,17.1,,3,,6,5.6,,13,60,og-post,,,,AAXX 02064 07181 /1350 81608 10135 20129 39751 40162 57017 60062 76062 875// 333 10171 20135 32013 55/// 60037 70056 82708 87636=
07181,1999-11-02 07:00:00,13.7,1016.3,-1.1,94,12.8,5000,18.52,,,180,,,0.6,,,,,,,61,og-post,,,,AAXX 02074 07181 21350 81810 10137 20128 39752 40163 55011 76166 875// 333 69965 82708 87656=
07181,1999-11-02 08:00:00,13.9,1016.8,0.1,94,12.9,5000,22.224,,,200,,,1,,,,,,,61,og-post,,,,AAXX 02084 07181 21350 82012 10139 20129 39757 40168 53001 76166 8557/ 333 60015 82708 85636 88359=
07181,1999-11-02 09:00:00,13.7,1017.3,1.1,96,13.1,3000,18.52,,,210,,,,4,,,,,,61,og-post,,,,AAXX 02094 07181 21330 82110 10137 20131 39762 40173 53011 76166 875// 333 60047 84707 84616 87633=
07181,1999-11-02 10:00:00,13.8,1017.8,1.5,97,13.3,5000,25.928,,,210,,,1,,,,,,,61,og-post,,,,AAXX 02104 07181 21250 82114 10138 20133 39767 40178 52015 76166 875// 333 60015 85706 86615=
07181,1999-11-02 11:00:00,13.8,1018,1.2,95,13,15000,14.816,,,250,,,,,,,,,,21,og-post,,,,AAXX 02114 07181 21265 82508 10138 20130 39769 40180 51012 72162 875// 333 69905 85706 86626=
07181,1999-11-02 12:00:00,13.3,1018.7,1.3,96,12.7,9000,11.112,,,310,,,,2,6,,,,,61,og-post,,,,AAXX 02124 07181 /1259 83106 10133 20127 39775 40187 53013 60061 76162 875// 333 60027 85706 87636=
07181,1999-11-02 13:00:00,12.9,1019.4,1.4,97,12.4,13000,7.408,,,320,,,0.4,,,,,,,21,og-post,,,,AAXX 02134 07181 21163 83204 10129 20124 39781 40194 53014 72162 875// 333 69945 82703 85704 87636=
07181,1999-11-02 14:00:00,12.4,1019.8,1.5,97,11.9,9000,11.112,,,340,,,,,,,,,,60,og-post,,,,AAXX 02144 07181 21159 83406 10124 20119 39784 40198 51015 76062 875// 333 69905 82702 83704 87650=
07181,1999-11-02 15:00:00,11.6,1021,1.9,97,11.1,1500,18.52,,,330,,,,3,,,,,,63,og-post,,,,AAXX 02154 07181 21115 83310 10116 20111 39794 40210 53019 76362 88// 333 60037 86702 85616 88650=
07181,1999-11-02 16:00:00,10.3,1021.8,1.9,96,9.7,15000,7.408,,,350,,,0.6,,,,,,,60,og-post,,,,AAXX 02164 07181 21165 83504 10103 20097 39800 40218 53019 76066 885// 333 69965 82703 87623=
07181,1999-11-02 17:00:00,10.4,1023.4,3.1,98,10.1,12000,11.112,,,310,,,,,,,,,,60,og-post,,,,AAXX 02174 07181 21362 83106 10104 20101 39815 40234 53031 76066 885// 333 69905 84708 87630=
07181,1999-11-02 18:00:00,10.2,1024.8,3.4,98,9.9,12000,11.112,,,290,10.2,13.9,,0.6,,10,,,,60,og-post,,,,AAXX 02184 07181 /1362 82906 10102 20099 39828 40248 53034 60102 76062 885// 333 10139 20102 69967 84708 87630=
07181,1999-11-02 19:00:00,10.1,1025.2,3.2,98,9.8,3000,7.408,,,300,,,0.8,,,,,,,61,og-post,,,,AAXX 02194 07181 21130 83004 10101 20098 39832 40252 51032 76166 885// 333 69985 85702 86623=
07181,1999-11-02 20:00:00,9.9,1026.1,2.5,98,9.6,5000,7.408,,,310,,,1,,,,,,,61,og-post,,,,AAXX 02204 07181 21150 83104 10099 20096 39840 40261 51025 76166 887// 333 60015 87702=
07181,1999-11-02 21:00:00,9.9,1027,2.1,98,9.6,8000,7.408,,,290,,,,2,,,,,,21,og-post,,,,AAXX 02214 07181 21358 82904 10099 20096 39849 40270 53021 72162 885// 333 60027 84707 85613 88650=
07181,1999-11-02 22:00:00,9.4,1027.9,2.5,96,8.8,10000,11.112,,,320,,,,,,,,,,,og-post,,,,AAXX 02224 07181 32460 83206 10094 20088 39857 40279 52025 885// 333 87611=
07181,1999-11-02 23:00:00,8.4,1028.8,2.4,95,7.6,15000,11.112,,,320,,,,,,,,,,,og-post,,,,AAXX 02234 07181 32465 73206 10084 20076 39864 40288 51024 8553/ 333 84611 84623 87360=
07181,1999-11-03 00:00:00,7.2,1029.1,1.6,97,6.8,15000,7.408,,,290,,,,,2,,,,,1,og-post,,,,AAXX 03004 07181 11465 52904 10072 20068 39865 40291 51016 60021 70162 83530 333 83613 85360=
07181,1999-11-03 01:00:00,5.8,1029.6,1,97,5.4,14000,3.704,,,280,,,,,,,,,,,og-post,,,,AAXX 03014 07181 36/64 /2802 10058 20054 39867 40296 51010=
07181,1999-11-03 02:00:00,5.3,1029.9,0.6,98,5,8000,3.704,,,170,,,,,,,,,,,og-post,,,,AAXX 03024 07181 32458 31702 10053 20050 39870 40299 53006 81530 333 81613 83360=
07181,1999-11-03 03:00:00,4.2,1030.4,0.8,98,3.9,8000,3.704,,,210,,,,,,,,,,,og-post,,,,AAXX 03034 07181 32458 32102 10042 20039 39873 40304 53008 81530 333 81613 83360=
07181,1999-11-03 04:00:00,3.7,1031.2,1.2,99,3.6,6000,3.704,,,230,,,,,,,,,,,og-post,,,,AAXX 03044 07181 32456 32302 10037 20036 39879 40312 53012 81530 333 81613 83360=
07181,1999-11-03 05:00:00,3.3,1031.7,1.4,99,3.2,6000,3.704,,,210,,,,,,,,,,,og-post,,,,AAXX 03054 07181 32556 32102 10033 20032 39884 40317 53014 81502 333 81623 83075=
07181,1999-11-03 06:00:00,3.2,1032.3,1.6,99,3.1,3000,3.704,,,250,3,10.3,,,,2,12,,-1,40,og-post,,,,AAXX 03064 07181 11930 32502 10032 20031 39889 40323 51016 60022 74011 80002 333 10103 20030 31101 55/// 70120 83075=
07181,1999-11-03 07:00:00,2.9,1033,1.6,99,2.8,700,3.704,,,230,,,,,,,,,,46,og-post,,,,AAXX 03074 07181 31907 32302 10029 20028 39895 40330 53016 74640 80002 333 83075=
07181,1999-11-03 08:00:00,4,1033.3,1.6,99,3.9,200,,,,,,,,,,,,,,46,og-post,,,,AAXX 03084 07181 31902 30000 10040 20039 39900 40333 52016 74644 80002 333 83075=
07181,1999-11-03 09:00:00,5,1033.5,1.5,99,4.9,200,3.704,,,300,,,,,,,,,,42,og-post,,,,AAXX 03094 07181 31902 33002 10050 20049 39904 40335 51015 74240 80002 333 83075=
07181,1999-11-03 10:00:00,6.3,1033.4,1,99,6.2,500,,,,,,,,,,,,,,42,og-post,,,,AAXX 03104 07181 31105 40000 10063 20062 39905 40334 51010 74244 83702 333 83702 83075=
07181,1999-11-03 11:00:00,7.7,1033,0.3,99,7.6,5000,3.704,,,20,,,,,,,,,,28,og-post,,,,AAXX 03114 07181 31150 30202 10077 20076 39903 40330 50003 72841 82101 333 82703=
07181,1999-11-03 12:00:00,9,1032.4,-0.5,84,6.4,7000,7.408,,,350,,,,,,,,,,1,og-post,,,,AAXX 03124 07181 31357 33504 10090 20064 39899 40324 58005 70141 82101 333 82706=
07181,1999-11-03 13:00:00,9.9,1031.8,-1,72,5.1,35000,11.112,,,340,,,,,,,,,,,og-post,,,,AAXX 03134 07181 36/81 /3406 10099 20051 39895 40318 58010=
07181,1999-11-03 14:00:00,9.5,1031.5,-1.2,78,5.9,15000,3.704,,,90,,,,,,,,,,,og-post,,,,AAXX 03144 07181 32565 40902 10095 20059 39891 40315 57012 84200 333 84821=
07181,1999-11-03 15:00:00,9.8,1031,-1.2,73,5.2,15000,7.408,,,20,,,,,,,,,,,og-post,,,,AAXX 03154 07181 32665 40204 10098 20052 39887 40310 57012 84200 333 84833=
07181,1999-11-03 16:00:00,8.6,1031.2,-0.8,73,4,15000,7.408,,,50,,,,,,,,,,,og-post,,,,AAXX 03164 07181 32665 10504 10086 20040 39887 40312 56008 81200 333 81833=
07181,1999-11-03 17:00:00,6.6,1031.5,-0.4,81,3.6,35000,7.408,,,50,,,,,,,,,,,og-post,,,,AAXX 03174 07181 36/81 /0504 10066 20036 39887 40315 56004=
07181,1999-11-03 18:00:00,5.6,1031.5,-0.2,85,3.3,15000,7.408,,,70,2.7,10.2,,,,,,,,,og-post,,,,AAXX 03184 07181 32965 00704 10056 20033 39885 40315 58002 333 10102 20027=
07181,1999-11-03 19:00:00,4.3,1031.3,-0.6,94,3.4,9000,7.408,,,30,,,,,,,,,,,og-post,,,,AAXX 03194 07181 32959 00304 10043 20034 39881 40313 58006=
07181,1999-11-03 20:00:00,3.8,1031.1,-0.8,95,3.1,5000,7.408,,,20,,,,,,,,,,,og-post,,,,AAXX 03204 07181 32950 00204 10038 20031 39879 40311 57008=
07181,1999-11-03 21:00:00,1.8,1031.4,-0.7,97,1.4,600,3.704,,,360,,,,,,,,,,46,og-post,,,,AAXX 03214 07181 31906 03602 10018 20014 39878 40314 56007 74640=
07181,1999-11-03 22:00:00,1.2,1031.2,-0.6,98,0.9,100,3.704,,,10,,,,,,,,,,,og-post,,,,AAXX 03224 07181 36/01 /0102 10012 20009 39875 40312 58006=
07181,1999-11-03 23:00:00,2,1030.6,-0.8,99,1.9,100,7.408,,,360,,,,,,,,,,46,og-post,,,,AAXX 03234 07181 31901 03604 10020 20019 39871 40306 58008 74644=
07181,1999-11-04 00:00:00,3.2,1029.9,-1.2,99,3.1,100,7.408,,,360,,,,,,,,,,44,og-post,,,,AAXX 04004 07181 31901 03604 10032 20031 39866 40299 58012 74440=
07181,1999-11-04 01:00:00,3.4,1029.4,-1.3,99,3.3,100,7.408,,,10,,,,,,,,,,44,og-post,,,,AAXX 04014 07181 31901 00104 10034 20033 39862 40294 57013 74444=
07181,1999-11-04 03:00:00,2.8,1028,-1.9,99,2.7,100,11.112,,,10,,,,,,,,,,44,og-post,,,,AAXX 04034 07181 31901 00106 10028 20027 39847 40280 58019 74444=
07181,1999-11-04 04:00:00,2.6,1027.9,-1.6,99,2.5,200,7.408,,,350,,,,,,,,,,,og-post,,,,AAXX 04044 07181 36/02 /3504 10026 20025 39846 40279 56016=
07181,1999-11-04 06:00:00,2.1,1026.8,-1.2,100,2.1,100,11.112,,,20,1,5.5,,,,,,,-2,47,og-post,,,,AAXX 04064 07181 31/01 90206 10021 20021 39835 40268 58012 74744 333 10055 20010 31102 70000=
07181,1999-11-04 07:00:00,2,1026.8,-1.1,100,2,200,7.408,,,10,,,,,,,,,,43,og-post,,,,AAXX 04074 07181 31/02 90104 10020 20020 39835 40268 56011 74344=
07181,1999-11-04 08:00:00,2.6,1026.5,-0.7,100,2.6,700,7.408,,,20,,,,,,,,,,42,og-post,,,,AAXX 04084 07181 31007 70204 10026 20026 39833 40265 56007 74244 877// 333 87701=
07181,1999-11-04 09:00:00,4.6,1025.8,-0.6,100,4.6,6000,7.408,,,10,,,,,,,,,,28,og-post,,,,AAXX 04094 07181 31056 20104 10046 20046 39829 40258 58006 72841 82700 333 82701=
07181,1999-11-04 10:00:00,6.6,1024.8,-1.2,88,4.8,10000,14.816,,,50,,,,,,,,,,,og-post,,,,AAXX 04104 07181 32460 20508 10066 20048 39823 40248 58012 82800 333 82810=
07181,1999-11-04 11:00:00,7.7,1024.1,-1.6,79,4.3,12000,11.112,,,350,,,,,,,,,,,og-post,,,,AAXX 04114 07181 32462 23506 10077 20043 39817 40241 58016 82800 333 82812=
07181,1999-11-04 12:00:00,9.4,1023.1,-1.9,74,5,12000,11.112,,,30,,,,,,,,,,1,og-post,,,,AAXX 04124 07181 31462 30306 10094 20050 39810 40231 58019 70141 83800 333 83815=
07181,1999-11-04 13:00:00,8.9,1022.5,-1.9,77,5.1,11000,11.112,,,70,,,,,,,,,,,og-post,,,,AAXX 04134 07181 32461 50706 10089 20051 39804 40225 57019 85100 333 85815=
07181,1999-11-04 14:00:00,8.9,1022.2,-1.6,80,5.6,11000,11.112,,,100,,,,,,,,,,,og-post,,,,AAXX 04144 07181 32461 61006 10089 20056 39801 40222 56016 86100 333 86813=
07181,1999-11-04 15:00:00,8.7,1021.9,-1.2,83,6,11000,11.112,,,50,,,,,,,,,,,og-post,,,,AAXX 04154 07181 32461 60506 10087 20060 39798 40219 56012 86800 333 84813 85626=
07181,1999-11-04 16:00:00,8.7,1021.3,-1.2,82,5.8,11000,11.112,,,70,,,,,,,,,,,og-post,,,,AAXX 04164 07181 32461 70706 10087 20058 39792 40213 58012 878// 333 82813 87628=
07181,1999-11-04 17:00:00,8.4,1021.3,-0.9,83,5.7,9000,7.408,,,70,,,,,,,,,,,og-post,,,,AAXX 04174 07181 32459 70704 10084 20057 39792 40213 56009 878// 333 82813 87626=
07181,1999-11-04 18:00:00,8.1,1021.8,-0.2,85,5.7,10000,7.408,,,60,1.9,9.6,,,,,,,,,og-post,,,,AAXX 04184 07181 32460 70604 10081 20057 39796 40218 55002 878// 333 10096 20019 81813 87626=
07181,1999-11-04 19:00:00,7.9,1021.1,-0.3,86,5.7,10000,,,,,,,,,,,,,,,og-post,,,,AAXX 04194 07181 32560 70000 10079 20057 39789 40211 58003 875// 333 87623=
07181,1999-11-04 20:00:00,7.5,1020.4,-1,89,5.8,8000,3.704,,,140,,,,,,,,,,,og-post,,,,AAXX 04204 07181 32558 71402 10075 20058 39782 40204 58010 875// 333 87621=
07181,1999-11-04 21:00:00,7.3,1020.7,-1.2,90,5.8,7000,3.704,,,310,,,,,,,,,,,og-post,,,,AAXX 04214 07181 32557 73102 10073 20058 39784 40207 55012 875// 333 87623=
07181,1999-11-04 22:00:00,7.1,1020,-1.2,91,5.7,7000,3.704,,,120,,,,,,,,,,,og-post,,,,AAXX 04224 07181 32557 71202 10071 20057 39777 40200 57012 875// 333 87625=
07181,1999-11-04 23:00:00,7.1,1019.6,-0.8,93,6,7000,3.704,,,140,,,,,,,,,,,og-post,,,,AAXX 04234 07181 32557 71402 10071 20060 39774 40196 58008 875// 333 87625=
07181,1999-11-05 00:00:00,7,1019.3,-1.3,92,5.8,7000,,,,,,,,,,,,,,,og-post,,,,AAXX 05004 07181 32557 70000 10070 20058 39771 40193 56013 875// 333 87625=
07181,1999-11-05 01:00:00,7,1019.3,-0.6,93,5.9,7000,7.408,,,160,,,,,,,,,,,og-post,,,,AAXX 05014 07181 32557 71604 10070 20059 39771 40193 56006 875// 333 87626=
07181,1999-11-05 02:00:00,6.9,1018.9,-0.7,94,6,6000,7.408,,,170,,,,,,,,,,,og-post,,,,AAXX 05024 07181 32556 71704 10069 20060 39767 40189 58007 875// 333 87626=
07181,1999-11-05 03:00:00,6.8,1018.9,-0.5,92,5.6,6000,7.408,,,170,,,,,,,,,,,og-post,,,,AAXX 05034 07181 32256 71704 10068 20056 39766 40189 58005 875// 333 82706 87626=
07181,1999-11-05 04:00:00,6.6,1017.6,-1.7,92,5.4,7000,14.816,,,170,,,,,,,,,,,og-post,,,,AAXX 05044 07181 32257 71708 10066 20054 39754 40176 58017 875// 333 81706 87625=
07181,1999-11-05 05:00:00,6.5,1017.1,-1.8,89,4.8,8000,18.52,,,180,,,,,,,,,,,og-post,,,,AAXX 05054 07181 32258 71810 10065 20048 39749 40171 58018 875// 333 82706 87625=
07181,1999-11-05 06:00:00,6.7,1016.7,-2.1,88,4.9,8000,18.52,,,190,6.2,8.1,,,,,0,,6,,og-post,,,,AAXX 05064 07181 32458 71910 10067 20049 39745 40167 56021 875// 333 10081 20062 32006 55/// 70000 87611=
07181,1999-11-05 07:00:00,6.8,1016.6,-1,88,5,9000,14.816,,,200,,,,,,,,,,,og-post,,,,AAXX 05074 07181 32459 82008 10068 20050 39744 40166 56010 875// 333 85611 85625=
07181,1999-11-05 08:00:00,7.1,1016.1,-0.9,88,5.3,12000,18.52,,,190,,,,,,,,,,,og-post,,,,AAXX 05084 07181 32462 81910 10071 20053 39740 40161 57009 875// 333 87610=
07181,1999-11-05 09:00:00,7.9,1014.8,-1.6,86,5.7,10000,14.816,,,180,,,,,,,,,,,og-post,,,,AAXX 05094 07181 32460 71808 10079 20057 39729 40148 58016 875// 333 87611=
07181,1999-11-05 10:00:00,8.5,1014.3,-1.9,82,5.6,10000,22.224,,,170,,,,,,,,,,,og-post,,,,AAXX 05104 07181 32460 71712 10085 20056 39725 40143 57019 83502 333 83611 87075=
07181,1999-11-05 11:00:00,9.1,1013.9,-1.8,80,5.8,10000,18.52,,,180,,,,,,,,,,,og-post,,,,AAXX 05114 07181 32460 71810 10091 20058 39722 40139 56018 81532 333 81611 85360 87075=
07181,1999-11-05 12:00:00,10.1,1012.8,-1.6,76,6.1,10000,18.52,,,190,,,,,,,,,,,og-post,,,,AAXX 05124 07181 32460 71910 10101 20061 39713 40128 58016 81532 333 81611 85363 87075=
07181,1999-11-05 13:00:00,10.3,1011.6,-2.3,77,6.5,12000,18.52,,,170,,,,,,,,,,,og-post,,,,AAXX 05134 07181 32962 71710 10103 20065 39702 40116 58023 86032 333 86363 87075=
07181,1999-11-05 14:00:00,11.4,1011.1,-2.4,71,6.3,12000,18.52,,,190,,,,,,,,,,,og-post,,,,AAXX 05144 07181 32962 71910 10114 20063 39698 40111 56024 86032 333 86363 87075=
07181,1999-11-05 15:00:00,11.1,1010,-2.6,73,6.4,15000,18.52,,,170,,,,,,,,,,,og-post,,,,AAXX 05154 07181 32965 81710 10111 20064 39687 40100 57026 8703/ 333 87363=
07181,1999-11-05 16:00:00,10.5,1009.8,-1.7,77,6.6,15000,14.816,,,170,,,,,,,,,,,og-post,,,,AAXX 05164 07181 32765 71708 10105 20066 39685 40098 56017 8457/ 333 84650 87460=
07181,1999-11-05 17:00:00,11.5,1009.2,-1.8,68,5.8,15000,29.632,,,190,,,,,,,,,,,og-post,,,,AAXX 05174 07181 32665 71916 10115 20058 39680 40092 56018 8457/ 333 84640 87460=
07181,1999-11-05 19:00:00,12.7,1006.8,-2.6,66,6.5,15000,29.632,,,180,,,,,,,,,,,og-post,,,,AAXX 05194 07181 32665 71816 10127 20065 39659 40068 58026 8357/ 333 83640 87460=
07181,1999-11-05 20:00:00,12.6,1006.6,-2.3,66,6.4,15000,25.928,,,200,,,,,,,,,,,og-post,,,,AAXX 05204 07181 32965 72014 10126 20064 39657 40066 56023 85032 333 85363 87075=
07181,1999-11-05 21:00:00,13,1005.9,-2.2,59,5.2,15000,35.188,53.708,,190,,,,,,,,,,,og-post,,,,AAXX 05214 07181 32965 71919 10130 20052 39651 40059 56022 85032 333 85363 87075 91129=
07181,1999-11-05 22:00:00,13,1005.5,-1.2,57,4.7,15000,35.188,,,200,,,,,,,,,,,og-post,,,,AAXX 05224 07181 32665 72019 10130 20047 39647 40055 58012 85530 333 83640 86656 85363=
07181,1999-11-05 23:00:00,10.1,1007.9,0.9,85,7.7,7000,25.928,57.412,,250,,,0.4,,,,,,,61,og-post,,,,AAXX 05234 07181 21457 82514 10101 20077 39666 40079 53009 76162 875// 333 69945 83615 87640 91131=
07181,1999-11-06 00:00:00,8.4,1007.9,1.2,89,6.7,12000,25.928,57.412,,230,,,,2,2,,,,,61,og-post,,,,AAXX 06004 07181 /1462 82314 10084 20067 39663 40079 53012 60021 76162 875// 333 60027 83615 87640 91131=
07181,1999-11-06 01:00:00,7.8,1008,1.6,84,5.3,12000,29.632,,,240,,,0.2,,,,,,,21,og-post,,,,AAXX 06014 07181 21662 82416 10078 20053 39663 40080 51016 72162 875// 333 69925 87643=
07181,1999-11-06 02:00:00,7.6,1007.6,-0.7,88,5.7,12000,25.928,,,230,,,,,,,,,,,og-post,,,,AAXX 06024 07181 32462 82314 10076 20057 39659 40076 58007 8757/ 333 86616 87359=
07181,1999-11-06 03:00:00,7.5,1007.4,-0.6,89,5.8,40000,22.224,,,230,,,,0.2,,,,,,,og-post,,,,AAXX 06034 07181 26/82 /2312 10075 20058 39657 40074 58006 333 69927=
07181,1999-11-06 04:00:00,7.3,1007.6,-0.4,89,5.6,40000,22.224,,,240,,,,,,,,,,,og-post,,,,AAXX 06044 07181 36/82 /2412 10073 20056 39659 40076 55004=
07181,1999-11-06 05:00:00,7.3,1008.1,0.5,88,5.4,12000,14.816,,,230,,,,,,,,,,,og-post,,,,AAXX 06054 07181 32462 82308 10073 20054 39664 40081 53005 8557/ 333 85614 87358=
07181,1999-11-06 06:00:00,7.4,1008.8,1.3,86,5.2,12000,18.52,,,230,7.1,13.3,,,,2,2.4,,6,3,og-post,,,,AAXX 06064 07181 11462 82310 10074 20052 39670 40088 53013 60022 70362 8657/ 333 10133 20071 32006 55/// 70024 86614 87458=
07181,1999-11-06 08:00:00,7,1010.1,1.8,89,5.3,12000,18.52,,,220,,,,,,,,,,25,og-post,,,,AAXX 06084 07181 21462 72210 10070 20053 39682 40101 53018 72586 878// 333 69905 86818 85636=
07181,1999-11-06 10:00:00,8.3,1011.1,2,91,6.9,13000,18.52,,,250,,,,,,,,,,25,og-post,,,,AAXX 06104 07181 21563 62510 10083 20069 39694 40111 53020 72586 86800 333 69905 85823 85650=
07181,1999-11-06 11:00:00,8.2,1012,2,79,4.8,9000,25.928,,,240,,,,,,,,,,,og-post,,,,AAXX 06114 07181 32459 72414 10082 20048 39702 40120 53020 878// 333 86816 85650=
07181,1999-11-06 12:00:00,7.6,1012.5,2.1,83,4.9,20000,18.52,,,260,,,,0.2,0.4,,,,,25,og-post,,,,AAXX 06124 07181 /1470 72610 10076 20049 39706 40125 51021 69941 72586 878// 333 69927 86816 84650=
07181,1999-11-06 13:00:00,8.3,1012.7,1.5,75,4.1,20000,22.224,,,260,,,,,,,,,,,og-post,,,,AAXX 06134 07181 32470 72612 10083 20041 39709 40127 51015 878// 333 86816 84650=
07181,1999-11-06 14:00:00,7.8,1013.2,1.1,76,3.8,20000,18.52,,,280,,,,,,,,,,,og-post,,,,AAXX 06144 07181 32570 72810 10078 20038 39713 40132 52011 878// 333 86823 84643=
07181,1999-11-06 16:00:00,7.1,1015.2,2.2,74,2.8,20000,14.816,,,260,,,,,,,,,,,og-post,,,,AAXX 06164 07181 32570 62608 10071 20028 39731 40152 53022 86800 333 83826 86650=
07181,1999-11-06 17:00:00,5.4,1016.7,3,80,2.2,25000,11.112,,,260,,,,,,,,,,,og-post,,,,AAXX 06174 07181 32575 52606 10054 20022 39743 40167 53030 85800 333 82830 85650=
07181,1999-11-06 18:00:00,5.7,1017.8,3.1,85,3.4,25000,11.112,,,270,5,8.9,,,,0.4,,,,,og-post,,,,AAXX 06184 07181 12675 52706 10057 20034 39754 40178 53031 69942 85800 333 10089 20050 82833 85650=
07181,1999-11-06 19:00:00,4.6,1018.8,3.1,88,2.8,25000,11.112,,,260,,,,,,,,,,,og-post,,,,AAXX 06194 07181 32675 52606 10046 20028 39762 40188 51031 85800 333 82833 85650=
07181,1999-11-06 20:00:00,3.1,1020.1,2.9,91,1.8,25000,7.408,,,260,,,,,,,,,,,og-post,,,,AAXX 06204 07181 32675 32604 10031 20018 39772 40201 51029 83800 333 81833 83650=
07181,1999-11-06 22:00:00,2.5,1021,1.8,95,1.8,25000,,,,,,,,,,,,,,,og-post,,,,AAXX 06224 07181 32775 50000 10025 20018 39780 40210 51018 85500 333 85650=
07181,1999-11-06 23:00:00,2.1,1021.7,1.4,95,1.4,25000,3.704,,,280,,,,,,,,,,,og-post,,,,AAXX 06234 07181 32775 32802 10021 20014 39786 40217 53014 83500 333 83650=
07181,1999-11-07 00:00:00,2.1,1021.7,1,94,1.2,25000,11.112,,,190,,,,,,,,,,,og-post,,,,AAXX 07004 07181 32775 21906 10021 20012 39786 40217 51010 82500 333 82650=
07181,1999-11-07 01:00:00,1.6,1022.5,1.3,96,1,19000,7.408,,,210,,,,,,,,,,,og-post,,,,AAXX 07014 07181 36/69 /2104 10016 20010 39793 40225 53013=
07181,1999-11-07 02:00:00,1.6,1023,1.1,97,1.2,25000,14.816,,,190,,,,,,,,,,,og-post,,,,AAXX 07024 07181 32775 21908 10016 20012 39797 40230 53011 82500 333 82650=
07181,1999-11-07 04:00:00,1.3,1024.7,2,97,0.9,25000,11.112,,,210,,,,,,,,,,,og-post,,,,AAXX 07044 07181 32775 22106 10013 20009 39813 40247 53020 82500 333 82650=
07181,1999-11-07 05:00:00,0.8,1025.4,2.2,98,0.5,25000,7.408,,,220,,,,,,,,,,,og-post,,,,AAXX 07054 07181 32775 22204 10008 20005 39819 40254 51022 82500 333 82650=
07181,1999-11-07 06:00:00,0.7,1025.9,2,98,0.4,8000,11.112,,,220,0.5,5.7,,,,,0.4,,-3,,og-post,,,,AAXX 07064 07181 32758 22206 10007 20004 39824 40259 51020 82500 333 10057 20005 31103 55/// 70004 82650=
07181,1999-11-07 07:00:00,0.4,1026.8,1.9,98,0.1,6000,7.408,,,230,,,,,,,,,,,og-post,,,,AAXX 07074 07181 32756 32304 10004 20001 39832 40268 53019 83500 333 83650=
07181,1999-11-07 08:00:00,2,1027,1.7,99,1.9,3000,11.112,,,230,,,,,,,,,,10,og-post,,,,AAXX 07084 07181 31830 22306 10020 20019 39836 40270 51017 71000 82500 333 82656=
07181,1999-11-07 09:00:00,3.5,1027.2,1.7,96,2.9,2500,11.112,,,230,,,,,,,,,,10,og-post,,,,AAXX 07094 07181 31625 32306 10035 20029 39841 40272 51017 71000 83500 333 83636=
07181,1999-11-07 10:00:00,5.1,1027.3,1.2,90,3.6,14000,7.408,,,240,,,,,,,,,,,og-post,,,,AAXX 07104 07181 36/64 /2404 10051 20036 39844 40273 51012=
07181,1999-11-07 11:00:00,6.5,1027.2,0.9,85,4.2,18000,3.704,,,250,,,,,,,,,,,og-post,,,,AAXX 07114 07181 36/68 /2502 10065 20042 39845 40272 51009=
07181,1999-11-07 12:00:00,7.5,1027,0.4,81,4.5,15000,7.408,,,260,,,,,,,,,,,og-post,,,,AAXX 07124 07181 32465 52604 10075 20045 39845 40270 51004 85200 333 85813=
07181,1999-11-07 13:00:00,7.6,1027.4,0.5,70,2.5,28000,14.816,,,310,,,,,,,,,,,og-post,,,,AAXX 07134 07181 36/78 /3108 10076 20025 39849 40274 53005=
07181,1999-11-07 14:00:00,7.3,1027.9,0.8,74,3,30000,11.112,,,300,,,,,,,,,,,og-post,,,,AAXX 07144 07181 36/80 /3006 10073 20030 39853 40279 53008=
07181,1999-11-07 15:00:00,7.1,1028.3,1.2,75,3,20000,7.408,,,280,,,,,,,,,,,og-post,,,,AAXX 07154 07181 32670 72804 10071 20030 39857 40283 52012 875// 333 87635=
07181,1999-11-07 16:00:00,6.8,1028.8,1.2,78,3.2,27000,3.704,,,290,,,,,,,,,,,og-post,,,,AAXX 07164 07181 36/77 /2902 10068 20032 39861 40288 52012=
07181,1999-11-07 17:00:00,4.9,1029.8,1.5,81,1.9,18000,3.704,,,270,,,,,,,,,,,og-post,,,,AAXX 07174 07181 32668 42702 10049 20019 39868 40298 53015 84500 333 84636=
07181,1999-11-07 18:00:00,4.9,1030.5,1.7,81,1.9,18000,7.408,,,270,0.1,8.8,,,,,,,,,og-post,,,,AAXX 07184 07181 32668 72704 10049 20019 39874 40305 53017 875// 333 10088 20001 87643=
07181,1999-11-07 19:00:00,5,1030.9,1.7,81,2,23000,7.408,,,260,,,,,,,,,,,og-post,,,,AAXX 07194 07181 36/73 /2604 10050 20020 39878 40309 51017=
07181,1999-11-07 20:00:00,5.2,1030.9,1.1,81,2.2,15000,7.408,,,240,,,,,,,,,,,og-post,,,,AAXX 07204 07181 32565 72404 10052 20022 39879 40309 51011 875// 333 87630=
07181,1999-11-07 21:00:00,5,1031.1,0.6,84,2.5,15000,7.408,,,230,,,,,,,,,,,og-post,,,,AAXX 07214 07181 32565 72304 10050 20025 39880 40311 51006 875// 333 87626=
07181,1999-11-07 22:00:00,5.2,1030.9,0.1,82,2.4,21000,7.408,,,250,,,,,,,,,,,og-post,,,,AAXX 07224 07181 36/71 /2504 10052 20024 39879 40309 50001=
07181,1999-11-07 23:00:00,5.3,1031.2,0.3,83,2.7,15000,3.704,,,240,,,,,,,,,,,og-post,,,,AAXX 07234 07181 32565 72402 10053 20027 39882 40312 53003 875// 333 87628=
07181,1999-11-08 00:00:00,5.1,1031.3,0.2,85,2.8,15000,7.408,,,250,,,,,,,,,,,og-post,,,,AAXX 08004 07181 32665 72504 10051 20028 39882 40313 53002 875// 333 87638=
07181,1999-11-08 01:00:00,5.2,1031,0.1,86,3.1,12000,3.704,,,250,,,,,,,,,,,og-post,,,,AAXX 08014 07181 32662 72502 10052 20031 39880 40310 50001 875// 333 87643=
07181,1999-11-08 02:00:00,5,1031.5,0.2,87,3,12000,3.704,,,250,,,,,,,,,,,og-post,,,,AAXX 08024 07181 32662 72502 10050 20030 39884 40315 53002 875// 333 87643=
07181,1999-11-08 03:00:00,4.8,1031.5,0.2,88,3,18000,3.704,,,260,,,,,,,,,,,og-post,,,,AAXX 08034 07181 36/68 /2602 10048 20030 39884 40315 53002=
07181,1999-11-08 04:00:00,4.3,1031.7,0.5,88,2.5,12000,3.704,,,290,,,,,,,,,,,og-post,,,,AAXX 08044 07181 32662 72902 10043 20025 39885 40317 51005 875// 333 87648=
07181,1999-11-08 05:00:00,3.2,1031.8,0,92,2,12000,3.704,,,220,,,,,,,,,,,og-post,,,,AAXX 08054 07181 32762 22202 10032 20020 39884 40318 50000 82500 333 82650=
07181,1999-11-08 06:00:00,2.9,1032.1,0.3,94,2,10000,7.408,,,170,2.8,5.3,,,,,0,,-2,,og-post,,,,AAXX 08064 07181 32660 61704 10029 20020 39887 40321 53003 86500 333 10053 20028 31102 55/// 70000 86648=
07181,1999-11-08 07:00:00,3.2,1032.1,0.2,94,2.3,10000,7.408,,,160,,,,,,,,,,,og-post,,,,AAXX 08074 07181 32660 71604 10032 20023 39887 40321 53002 8453/ 333 84648 87360=
07181,1999-11-08 08:00:00,4.4,1032,0.4,93,3.4,11000,7.408,,,230,,,,,,,,,,,og-post,,,,AAXX 08084 07181 32661 72304 10044 20034 39888 40320 51004 8153/ 333 81648 87359=
07181,1999-11-08 09:00:00,5.6,1031.8,0.1,84,3.1,12000,7.408,,,230,,,,,,,,,,,og-post,,,,AAXX 08094 07181 32862 72304 10056 20031 39888 40318 52001 8703/ 333 87358=
07181,1999-11-08 10:00:00,6.5,1031.6,0,79,3.1,15000,7.408,,,260,,,,,,,,,,,og-post,,,,AAXX 08104 07181 32865 72604 10065 20031 39887 40316 50000 8453/ 333 84657 87360=
07181,1999-11-08 11:00:00,7.8,1031.4,-0.1,72,3.1,15000,11.112,,,300,,,,,,,,,,,og-post,,,,AAXX 08114 07181 32465 73006 10078 20031 39887 40314 57001 8483/ 333 81816 84656 87359=
07181,1999-11-08 12:00:00,8.3,1030.7,-0.6,72,3.6,20000,11.112,,,320,,,,,,,,,,,og-post,,,,AAXX 08124 07181 32570 73206 10083 20036 39882 40307 58006 8483/ 333 81820 84656 87359=
07181,1999-11-08 13:00:00,8.5,1030.5,-0.7,70,3.4,20000,11.112,,,330,,,,,,,,,,,og-post,,,,AAXX 08134 07181 32570 73306 10085 20034 39880 40305 58007 8483/ 333 81825 84656 87359=
07181,1999-11-08 14:00:00,8.2,1030.7,-0.6,71,3.3,20000,14.816,,,320,,,,,,,,,,,og-post,,,,AAXX 08144 07181 32570 73208 10082 20033 39881 40307 55006 8583/ 333 82830 85650 87359=
07181,1999-11-08 15:00:00,6.9,1031.1,0.1,87,4.9,6000,11.112,,,330,,,,,,,,,,60,og-post,,,,AAXX 08154 07181 21556 73306 10069 20049 39883 40311 53001 76062 878// 333 69907 84823 87635=
07181,1999-11-08 16:00:00,6,1031.1,0.2,96,5.4,2000,3.704,,,290,,,,,,,,,,60,og-post,,,,AAXX 08164 07181 21120 72902 10060 20054 39882 40311 50002 76066 878// 333 69905 82702 85611 87620=
07181,1999-11-08 17:00:00,5.9,1031.2,0.2,97,5.5,2000,3.704,,,250,,,0.2,,,,,,,58,og-post,,,,AAXX 08174 07181 21120 72502 10059 20055 39883 40312 51002 75866 875// 333 69925 83702 87613=
07181,1999-11-08 18:00:00,5.8,1031.3,0.1,98,5.5,2000,7.408,,,240,2.6,8.8,,0.6,,0.6,,,,58,og-post,,,,AAXX 08184 07181 /1120 72404 10058 20055 39884 40313 53001 69962 75865 877// 333 10088 20026 69967 87702=
07181,1999-11-08 19:00:00,5.8,1031.1,0,98,5.5,2000,7.408,,,250,,,0.4,,,,,,,58,og-post,,,,AAXX 08194 07181 21120 72504 10058 20055 39882 40311 50000 75866 877// 333 69945 87702=
07181,1999-11-08 20:00:00,6,1031.1,-0.1,99,5.9,1500,3.704,,,270,,,0.2,,,,,,,58,og-post,,,,AAXX 08204 07181 21015 82702 10060 20059 39882 40311 58001 75866 887// 333 69925 88701=
07181,1999-11-08 21:00:00,6.1,1031.1,-0.2,99,6,1500,3.704,,,310,,,,1,,,,,,58,og-post,,,,AAXX 08214 07181 21015 83102 10061 20060 39882 40311 56002 75866 887// 333 60017 88701=
07181,1999-11-08 22:00:00,6.3,1031,-0,99,6.2,1200,7.408,,,310,,,,,,,,,,58,og-post,,,,AAXX 08224 07181 21012 83104 10063 20062 39882 40310 54000 75866 887// 333 69905 88701=
07181,1999-11-08 23:00:00,6.4,1031,-0,99,6.3,300,3.704,,,360,,,0.2,,,,,,,58,og-post,,,,AAXX 08234 07181 21003 83602 10064 20063 39882 40310 54000 75866 887// 333 69925 88701=
07181,1999-11-09 00:00:00,6.5,1030.8,-0.2,99,6.4,300,7.408,,,320,,,,0.2,1,,,,,44,og-post,,,,AAXX 09004 07181 /1103 83204 10065 20064 39880 40308 58002 60011 74465 887// 333 69927 88702=
07181,1999-11-09 01:00:00,6.6,1030.6,-0.4,99,6.5,300,7.408,,,300,,,,,,,,,,44,og-post,,,,AAXX 09014 07181 31103 83004 10066 20065 39878 40306 58004 74444 887// 333 88702=
07181,1999-11-09 02:00:00,6.7,1030.4,-0.5,99,6.6,200,7.408,,,330,,,,,,,,,,44,og-post,,,,AAXX 09024 07181 31102 83304 10067 20066 39877 40304 56005 74444 887// 333 88702=
07181,1999-11-09 03:00:00,6.8,1030.1,-0.6,99,6.7,200,3.704,,,330,,,,,,,,,,46,og-post,,,,AAXX 09034 07181 31102 83302 10068 20067 39874 40301 58006 74644 887// 333 88702=
07181,1999-11-09 04:00:00,6.8,1030.4,-0.1,99,6.7,100,7.408,,,350,,,,,,,,,,47,og-post,,,,AAXX 09044 07181 31/01 93504 10068 20067 39877 40304 55001 74744=
07181,1999-11-09 05:00:00,6.8,1030.1,-0.3,99,6.7,400,3.704,,,340,,,0.2,,,,,,,43,og-post,,,,AAXX 09054 07181 21/04 93402 10068 20067 39874 40301 57003 74344 333 69925=
07181,1999-11-09 06:00:00,6.9,1030.3,0.2,99,6.8,200,3.704,,,10,5.7,6.9,,0.2,,2,2.2,,6,42,og-post,,,,AAXX 09064 07181 /1002 80102 10069 20068 39876 40303 51002 60022 74244 887// 333 10069 20057 32006 55/// 69927 70022 88701=
07181,1999-11-09 07:00:00,6.8,1030.5,0.1,99,6.7,400,,,,,,,,,,,,,,50,og-post,,,,AAXX 09074 07181 21004 80000 10068 20067 39878 40305 53001 75054 887// 333 69905 88701=
07181,1999-11-09 08:00:00,6.8,1030.8,0.7,99,6.7,1000,3.704,,,90,,,1,,,,,,,58,og-post,,,,AAXX 09084 07181 21110 80902 10068 20067 39881 40308 53007 75865 887// 333 60015 88702=
07181,1999-11-09 09:00:00,7.1,1030.8,0.5,99,7,3000,3.704,,,130,,,,2,,,,,,21,og-post,,,,AAXX 09094 07181 21130 81302 10071 20070 39881 40308 51005 72154 875// 333 60027 83702 87623=
07181,1999-11-09 10:00:00,7.5,1030.5,0.1,99,7.4,3000,3.704,,,290,,,,,,,,,,10,og-post,,,,AAXX 09104 07181 31030 82902 10075 20074 39879 40305 50001 71022 875// 333 85701 87623=
07181,1999-11-09 11:00:00,8,1030.8,0.1,99,7.9,5000,7.408,,,360,,,,,,,,,,,og-post,,,,AAXX 09114 07181 32250 73604 10080 20079 39882 40308 53001 875// 333 85704 87626=
07181,1999-11-09 12:00:00,8.4,1030.5,-0.1,96,7.8,8000,7.408,,,10,,,,,2,,,,,1,og-post,,,,AAXX 09124 07181 11358 70104 10084 20078 39880 40305 57001 60021 70165 875// 333 85706 87638=
07181,1999-11-09 13:00:00,8.7,1030.2,-0.1,86,6.5,10000,11.112,,,10,,,,,,,,,,,og-post,,,,AAXX 09134 07181 32360 70106 10087 20065 39878 40302 58001 878// 333 84809 85633=
07181,1999-11-09 14:00:00,9.1,1029.9,-0.7,80,5.8,13000,11.112,,,10,,,,,,,,,,,og-post,,,,AAXX 09144 07181 32463 70106 10091 20058 39875 40299 58007 878// 333 84812 86633=
07181,1999-11-09 15:00:00,8.7,1030.2,-0.3,79,5.3,13000,11.112,,,30,,,,,,,,,,,og-post,,,,AAXX 09154 07181 32463 70306 10087 20053 39877 40302 55003 878// 333 84815 86633=
07181,1999-11-09 16:00:00,8.3,1030.1,-0.2,83,5.6,13000,7.408,,,10,,,,,,,,,,,og-post,,,,AAXX 09164 07181 32563 70104 10083 20056 39876 40301 56002 878// 333 82820 87640=
07181,1999-11-09 17:00:00,8,1030.4,0.3,81,4.9,13000,11.112,,,20,,,,,,,,,,,og-post,,,,AAXX 09174 07181 32563 70206 10080 20049 39878 40304 52003 875// 333 87626=
07181,1999-11-09 18:00:00,7.6,1030.5,0.2,85,5.2,13000,7.408,,,350,6.8,9.2,,,,2,,,,,og-post,,,,AAXX 09184 07181 12563 73504 10076 20052 39879 40305 53002 60022 875// 333 10092 20068 85623 87640=
07181,1999-11-09 19:00:00,7.2,1030.6,0.3,89,5.5,10000,3.704,,,10,,,,,,,,,,,og-post,,,,AAXX 09194 07181 32460 70102 10072 20055 39879 40306 51003 875// 333 85616 87633=
07181,1999-11-09 20:00:00,7,1030.5,0,89,5.3,10000,7.408,,,10,,,,,,,,,,,og-post,,,,AAXX 09204 07181 32460 70104 10070 20053 39878 40305 50000 8653/ 333 84616 85633 86359=
07181,1999-11-09 21:00:00,6.6,1030.5,-0.2,88,4.8,10000,7.408,,,20,,,,,,,,,,,og-post,,,,AAXX 09214 07181 32560 70204 10066 20048 39877 40305 58002 8655/ 333 83620 84357 87359=
07181,1999-11-09 22:00:00,6,1030.4,-0.4,92,4.8,9000,7.408,,,340,,,,,,,,,,,og-post,,,,AAXX 09224 07181 32459 73404 10060 20048 39875 40304 58004 8653/ 333 84616 87359=
07181,1999-11-09 23:00:00,6.1,1030.1,-0.5,90,4.6,9000,11.112,,,340,,,,,,,,,,,og-post,,,,AAXX 09234 07181 32459 73406 10061 20046 39873 40301 58005 875// 333 87615=
07181,1999-11-10 00:00:00,6.2,1029.9,-0.6,96,5.6,9000,14.816,,,340,,,,0.2,0.2,,,,,60,og-post,,,,AAXX 10004 07181 /1459 73408 10062 20056 39871 40299 57006 69921 76062 875// 333 69927 87612=
07181,1999-11-10 03:00:00,6.4,1028.6,-1.2,96,5.8,5000,14.816,,,360,,,,0.2,,,,,,21,og-post,,,,AAXX 10034 07181 21450 73608 10064 20058 39859 40286 56012 72162 875// 333 69927 87610=
07181,1999-11-10 04:00:00,6.3,1028.6,-0.7,92,5.1,9000,11.112,,,350,,,,,,,,,,,og-post,,,,AAXX 10044 07181 32459 73506 10063 20051 39859 40286 56007 875// 333 85614 87650=
07181,1999-11-10 05:00:00,5.4,1028.6,-0.6,93,4.4,10000,18.52,,,340,,,,,,,,,,,og-post,,,,AAXX 10054 07181 32460 73410 10054 20044 39857 40286 56006 875// 333 83616 87656=
07181,1999-11-10 06:00:00,5,1028.4,-0.4,94,4.1,10000,14.816,,,330,5,7.6,,,,0.4,2.2,,5,3,og-post,,,,AAXX 10064 07181 11460 73308 10050 20041 39855 40284 58004 69942 70362 875// 333 10076 20050 31005 55/// 70022 83618 86648=
07181,1999-11-10 07:00:00,5.1,1028,-0.8,94,4.2,10000,14.816,,,350,,,,,,,,,,,og-post,,,,AAXX 10074 07181 32360 83508 10051 20042 39851 40280 58008 885// 333 83708 85618 86650=
07181,1999-11-10 08:00:00,5.4,1027.7,-0.8,94,4.5,11000,18.52,,,350,,,,,,,,,,,og-post,,,,AAXX 10084 07181 32361 73510 10054 20045 39849 40277 57008 875// 333 84707 83615 86657=
07181,1999-11-10 09:00:00,6.2,1027.5,-0.7,93,5.2,11000,18.52,,,350,,,,,,,,,,,og-post,,,,AAXX 10094 07181 32361 73510 10062 20052 39848 40275 56007 875// 333 86708 86656=
07181,1999-11-10 10:00:00,6.6,1027.7,-0.1,90,5.1,9000,18.52,,,350,,,,,,,,,,,og-post,,,,AAXX 10104 07181 32359 73510 10066 20051 39850 40277 55001 875// 333 85709 83616 86640=
07181,1999-11-10 11:00:00,6.5,1026.9,-0.6,93,5.5,8000,14.816,,,20,,,,,,,,,,58,og-post,,,,AAXX 10114 07181 21358 80208 10065 20055 39843 40269 58006 75865 875// 333 69905 84708 85613=
07181,1999-11-10 12:00:00,6.7,1027,-0.4,89,5,8000,18.52,,,10,,,,0.2,0.2,,,,,60,og-post,,,,AAXX 10124 07181 /1458 80110 10067 20050 39844 40270 58004 69921 76065 878// 333 69927 85813 86640=
07181,1999-11-10 13:00:00,6.7,1026.8,-0.8,90,5.2,8000,14.816,,,10,,,0.2,,,,,,,60,og-post,,,,AAXX 10134 07181 21458 70108 10067 20052 39842 40268 56008 76066 875// 333 69925 84615 86625=
07181,1999-11-10 14:00:00,6.5,1026.7,-0.2,87,4.5,18000,18.52,,,360,,,,,,,,,,,og-post,,,,AAXX 10144 07181 26/68 /3610 10065 20045 39841 40267 58002 333 69905=
07181,1999-11-10 15:00:00,6.5,1026.6,-0.4,86,4.3,10000,18.52,,,10,,,,0.2,,,,,,60,og-post,,,,AAXX 10154 07181 21460 70110 10065 20043 39840 40266 56004 76062 875// 333 69927 87616=
07181,1999-11-10 16:00:00,6,1026.9,-0,88,4.2,10000,18.52,,,20,,,,,,,,,,,og-post,,,,AAXX 10164 07181 26/60 /0210 10060 20042 39842 40269 55000 333 69905=
07181,1999-11-10 17:00:00,5.5,1027.2,0.3,92,4.3,8000,18.52,,,20,,,0.2,,,,,,,60,og-post,,,,AAXX 10174 07181 21458 70210 10055 20043 39844 40272 53003 76066 875// 333 69925 87618=
07181,1999-11-10 18:00:00,5.2,1027.7,0.8,95,4.5,6000,14.816,,,10,4.9,6.9,,0.6,,1,,,,60,og-post,,,,AAXX 10184 07181 /1356 80108 10052 20045 39848 40277 53008 60012 76062 875// 333 10069 20049 69967 83706 87618=
07181,1999-11-10 19:00:00,4.9,1027.5,0.4,96,4.3,5000,14.816,,,20,,,0.2,,,,,,,60,og-post,,,,AAXX 10194 07181 21350 80208 10049 20043 39846 40275 50004 76066 885// 333 69925 85706 87616=
07181,1999-11-10 20:00:00,4.6,1027.4,0,97,4.2,5000,18.52,,,20,,,0.2,,,,,,,60,og-post,,,,AAXX 10204 07181 21350 80210 10046 20042 39844 40274 50000 76066 875// 333 69925 87706=
07181,1999-11-10 21:00:00,4.7,1027.4,-0.3,97,4.3,5000,18.52,,,10,,,,0.4,,,,,,60,og-post,,,,AAXX 10214 07181 21250 80110 10047 20043 39845 40274 55003 76066 875// 333 69947 87705=
07181,1999-11-10 22:00:00,4.8,1027.4,-0.1,96,4.2,8000,14.816,,,20,,,,,,,,,,21,og-post,,,,AAXX 10224 07181 21358 80208 10048 20042 39845 40274 56001 72162 875// 333 69905 85708 85633=
07181,1999-11-10 23:00:00,4.8,1027.2,-0.1,97,4.4,6000,14.816,,,20,,,,,,,,,,60,og-post,,,,AAXX 10234 07181 21356 80208 10048 20044 39843 40272 58001 76062 875// 333 69905 87707=
07181,1999-11-11 00:00:00,5,1027,-0.4,96,4.4,6000,14.816,,,20,,,,,0.4,,,,,60,og-post,,,,AAXX 11004 07181 /1356 80208 10050 20044 39841 40270 58004 69941 76062 877// 333 69907 87708=
07181,1999-11-11 01:00:00,5,1027,-0.4,94,4.1,10000,14.816,,,30,,,0.2,,,,,,,,og-post,,,,AAXX 11014 07181 26/60 /0308 10050 20041 39841 40270 56004 333 69925=
07181,1999-11-11 02:00:00,4.6,1026.8,-0.4,95,3.9,15000,18.52,,,40,,,,,,,,,,,og-post,,,,AAXX 11024 07181 26/65 /0410 10046 20039 39839 40268 57004 333 69905=
07181,1999-11-11 03:00:00,4.3,1027,-0.1,93,3.3,15000,14.816,,,40,,,,0.2,,,,,,21,og-post,,,,AAXX 11034 07181 21465 80408 10043 20033 39840 40270 55001 72162 877// 333 69927 87713=
07181,1999-11-11 04:00:00,3.8,1027.5,0.3,89,2.2,50000,14.816,,,50,,,,,,,,,,,og-post,,,,AAXX 11044 07181 36/84 /0508 10038 20022 39844 40275 53003=
07181,1999-11-11 05:00:00,3.7,1027.5,0.5,91,2.4,15000,11.112,,,40,,,,,,,,,,,og-post,,,,AAXX 11054 07181 32465 80406 10037 20024 39844 40275 51005 877// 333 87711=
07181,1999-11-11 06:00:00,3.7,1027.6,0.5,90,2.2,15000,14.816,,,40,3.7,5.2,,,,0.6,1.6,,3,2,og-post,,,,AAXX 11064 07181 11465 80408 10037 20022 39845 40276 51005 69962 70262 877// 333 10052 20037 31003 55/// 70016 87711=
07181,1999-11-11 07:00:00,3.7,1027.6,0.1,90,2.2,11000,14.816,,,40,,,,,,,,,,,og-post,,,,AAXX 11074 07181 32461 80408 10037 20022 39845 40276 52001 877// 333 87710=
07181,1999-11-11 08:00:00,3.6,1027.7,0.2,88,1.8,12000,18.52,,,50,,,,,,,,,,,og-post,,,,AAXX 11084 07181 32462 80510 10036 20018 39846 40277 52002 875// 333 87611=
07181,1999-11-11 09:00:00,3.5,1028.2,0.5,90,2,12000,18.52,,,50,,,,,,,,,,,og-post,,,,AAXX 11094 07181 32362 80510 10035 20020 39850 40282 53005 875// 333 87608=
07181,1999-11-11 10:00:00,3.3,1028.3,0.6,94,2.4,12000,18.52,,,50,,,,,,,,,,,og-post,,,,AAXX 11104 07181 32362 80510 10033 20024 39851 40283 52006 875// 333 87607=
07181,1999-11-11 11:00:00,3.5,1028.3,0.5,93,2.5,12000,14.816,,,60,,,,,,,,,,,og-post,,,,AAXX 11114 07181 32362 80608 10035 20025 39851 40283 51005 875// 333 87607=
07181,1999-11-11 12:00:00,3.7,1028,-0.1,92,2.5,12000,22.224,,,60,,,,,,,,,,,og-post,,,,AAXX 11124 07181 32362 80612 10037 20025 39849 40280 58001 875// 333 87608=
07181,1999-11-11 13:00:00,4.4,1027.2,-0.9,86,2.3,15000,18.52,,,50,,,,,,,,,,,og-post,,,,AAXX 11134 07181 32465 80510 10044 20023 39842 40272 58009 878// 333 84813 87633=
07181,1999-11-11 14:00:00,4.6,1026.9,-1.2,81,1.6,15000,18.52,,,60,,,,,,,,,,,og-post,,,,AAXX 11144 07181 32465 80610 10046 20016 39839 40269 58012 878// 333 84815 87640=
07181,1999-11-11 15:00:00,4.7,1027.1,-0.8,79,1.4,15000,18.52,,,70,,,,,,,,,,,og-post,,,,AAXX 11154 07181 32565 80710 10047 20014 39841 40271 55008 878// 333 84820 87640=
07181,1999-11-11 16:00:00,5.1,1026.6,-0.5,73,0.7,15000,25.928,,,70,,,,,,,,,,,og-post,,,,AAXX 11164 07181 32565 80714 10051 20007 39837 40266 58005 878// 333 82825 87630=
07181,1999-11-11 17:00:00,5,1026.9,0.1,74,0.8,15000,18.52,,,70,,,,,,,,,,,og-post,,,,AAXX 11174 07181 32565 80710 10050 20008 39840 40269 53001 875// 333 87626=
07181,1999-11-11 18:00:00,4.6,1027,-0.1,77,0.9,15000,18.52,,,60,3.3,5.3,,,,,,,,,og-post,,,,AAXX 11184 07181 32565 80610 10046 20009 39840 40270 56001 875// 333 10053 20033 87625=
07181,1999-11-11 19:00:00,4.1,1027.4,0.6,84,1.6,15000,25.928,,,60,,,,,,,,,,,og-post,,,,AAXX 11194 07181 32565 80614 10041 20016 39843 40274 52006 875// 333 87623=
07181,1999-11-11 20:00:00,3.9,1027.5,0.4,85,1.6,15000,18.52,,,60,,,,,,,,,,,og-post,,,,AAXX 11204 07181 32465 80610 10039 20016 39844 40275 53004 875// 333 87615=
07181,1999-11-11 21:00:00,3.4,1028,0.8,88,1.6,15000,18.52,,,60,,,,,,,,,,,og-post,,,,AAXX 11214 07181 32465 50610 10034 20016 39848 40280 53008 85500 333 85613=
07181,1999-11-11 22:00:00,2.9,1028.2,0.6,90,1.4,12000,11.112,,,60,,,,,,,,,,,og-post,,,,AAXX 11224 07181 32462 30606 10029 20014 39849 40282 52006 83500 333 83613=
07181,1999-11-11 23:00:00,2.5,1028.2,0.5,91,1.2,12000,11.112,,,70,,,,,,,,,,,og-post,,,,AAXX 11234 07181 32462 30706 10025 20012 39849 40282 51005 83500 333 82613=
07181,1999-11-12 00:00:00,2,1028.3,0.1,93,1,12000,7.408,,,60,,,,,,,,,,,og-post,,,,AAXX 12004 07181 32462 10604 10020 20010 39849 40283 51001 81500 333 81613=
07181,1999-11-12 01:00:00,1.5,1028.4,-0,94,0.6,10000,7.408,,,60,,,,,,,,,,,og-post,,,,AAXX 12014 07181 32460 10604 10015 20006 39849 40284 54000 81500 333 81613=
07181,1999-11-12 02:00:00,1.2,1028.3,-0.1,95,0.5,6000,7.408,,,70,,,,,,,,,,,og-post,,,,AAXX 12024 07181 32456 10704 10012 20005 39848 40283 58001 81500 333 81613=
07181,1999-11-12 03:00:00,1.2,1028.1,-0.3,96,0.6,5000,7.408,,,60,,,,,,,,,,,og-post,,,,AAXX 12034 07181 32950 00604 10012 20006 39846 40281 58003=
07181,1999-11-12 04:00:00,0.9,1028.1,-0.4,97,0.5,5000,11.112,,,60,,,,,,,,,,,og-post,,,,AAXX 12044 07181 32950 00606 10009 20005 39845 40281 57004=
07181,1999-11-12 05:00:00,0.5,1028.3,-0.2,97,0.1,3000,7.408,,,60,,,,,,,,,,,og-post,,,,AAXX 12054 07181 32930 00604 10005 20001 39846 40283 55002=
07181,1999-11-12 06:00:00,0.5,1028.4,0.1,98,0.2,2000,7.408,,,70,0.2,4.6,,,,,,,-3,,og-post,,,,AAXX 12064 07181 32920 00704 10005 20002 39847 40284 53001 333 10046 20002 31103 55/// 70000=
07181,1999-11-12 07:00:00,0.8,1028.4,0.3,98,0.5,2000,7.408,,,70,,,,,,,,,,10,og-post,,,,AAXX 12074 07181 31220 40704 10008 20005 39848 40284 52003 71000 84700 333 84705=
07181,1999-11-12 08:00:00,1.2,1028.6,0.4,98,0.9,3600,7.408,,,60,,,,,,,,,,,og-post,,,,AAXX 12084 07181 36/36 /0604 10012 20009 39850 40286 53004=
07181,1999-11-12 10:00:00,4.6,1028.2,0.4,83,2,3500,7.408,,,80,,,,,,,,,,10,og-post,,,,AAXX 12104 07181 31435 30804 10046 20020 39852 40282 53004 71000 83100 333 83810=
07181,1999-11-12 11:00:00,4.4,1028.2,0.2,83,1.8,5000,7.408,,,80,,,,,,,,,,,og-post,,,,AAXX 12114 07181 32450 30804 10044 20018 39852 40282 53002 83100 333 83813=
07181,1999-11-12 12:00:00,5.7,1027.5,0,77,2,8000,14.816,,,50,,,,,,,,,,,og-post,,,,AAXX 12124 07181 32458 20508 10057 20020 39847 40275 50000 81101 333 81815=
07181,1999-11-12 13:00:00,7,1026.6,-1.2,68,1.5,9000,14.816,,,80,,,,,,,,,,,og-post,,,,AAXX 12134 07181 32959 30808 10070 20015 39840 40266 58012 80001 333 83075=
07181,1999-11-12 14:00:00,7.1,1026,-1.7,69,1.8,15000,18.52,,,50,,,,,,,,,,,og-post,,,,AAXX 12144 07181 36/65 /0510 10071 20018 39835 40260 57017=
07181,1999-11-12 15:00:00,,1026.2,-1.2,,1.6,10000,14.816,,,60,,,,,,,,,,,og-post,,,,AAXX 12154 07181 32960 10608 20016 39835 40262 56012 80001 333 81075=
07181,1999-11-12 16:00:00,4.8,1026.1,-0.8,77,1.1,13000,11.112,,,60,,,,,,,,,,,og-post,,,,AAXX 12164 07181 36/63 /0606 10048 20011 39832 40261 56008=
07181,1999-11-12 17:00:00,4,1026,-0.5,81,1,11000,11.112,,,60,,,,,,,,,,,og-post,,,,AAXX 12174 07181 36/61 /0606 10040 20010 39830 40260 58005=
07181,1999-11-12 18:00:00,3.3,1025.9,-0.7,83,0.7,8000,18.52,,,60,0.5,7.2,,,,,,,,,og-post,,,,AAXX 12184 07181 32958 20610 10033 20007 39828 40259 56007 80001 333 10072 20005 82075=
07181,1999-11-12 19:00:00,3.2,1025.9,-0.4,83,0.6,9000,14.816,,,60,,,,,,,,,,,og-post,,,,AAXX 12194 07181 36/59 /0608 10032 20006 39828 40259 56004=
07181,1999-11-12 20:00:00,3,1025.7,-0.5,82,0.2,8000,18.52,,,60,,,,,,,,,,,og-post,,,,AAXX 12204 07181 32958 40610 10030 20002 39825 40257 58005 80001 333 84075=
07181,1999-11-12 21:00:00,2.5,1025.5,-0.5,84,0.1,8000,11.112,,,50,,,,,,,,,,,og-post,,,,AAXX 12214 07181 32958 40506 10025 20001 39823 40255 58005 80001 333 84075=
07181,1999-11-12 22:00:00,2.3,1025.3,-0.8,84,-0.1,8000,14.816,,,50,,,,,,,,,,,og-post,,,,AAXX 12224 07181 32958 20508 10023 21001 39820 40253 57008 80001 333 82075=
07181,1999-11-12 23:00:00,2.1,1025,-0.8,86,0,8000,14.816,,,50,,,,,,,,,,,og-post,,,,AAXX 12234 07181 32958 20508 10021 20000 39817 40250 58008 80001 333 82075=
07181,1999-11-13 00:00:00,1.5,1024.9,-0.8,89,-0.1,8000,11.112,,,50,,,,,,,,,,,og-post,,,,AAXX 13004 07181 32958 20506 10015 21001 39815 40249 56008 80001 333 82075=
07181,1999-11-13 01:00:00,1.3,1024.5,-0.9,90,-0.2,6000,7.408,,,50,,,,,,,,,,,og-post,,,,AAXX 13014 07181 36/56 /0504 10013 21002 39811 40245 58009=
07181,1999-11-13 02:00:00,0.8,1024.2,-0.9,92,-0.3,5000,7.408,,,40,,,,,,,,,,,og-post,,,,AAXX 13024 07181 32950 20404 10008 21003 39808 40242 58009 80001 333 82075=
07181,1999-11-13 03:00:00,0.6,1024.1,-0.9,94,-0.3,4900,7.408,,,40,,,,,,,,,,,og-post,,,,AAXX 13034 07181 36/49 /0404 10006 21003 39806 40241 56009=
07181,1999-11-13 04:00:00,0.5,1023.5,-1.1,94,-0.4,4000,7.408,,,40,,,,,,,,,,10,og-post,,,,AAXX 13044 07181 31940 20404 10005 21004 39800 40235 58011 71000 80001 333 82075=
07181,1999-11-13 05:00:00,-0.1,1023.2,-1.1,96,-0.7,3000,7.408,,,30,,,,,,,,,,10,og-post,,,,AAXX 13054 07181 31930 20304 11001 21007 39797 40232 58011 71000 80001 333 82075=
07181,1999-11-13 06:00:00,-0.1,1023.2,-0.9,95,-0.8,2000,7.408,,,40,-0.4,3.4,,,,,0,,-2,10,og-post,,,,AAXX 13064 07181 31420 30404 11001 21008 39797 40232 56009 71000 82701 333 10034 21004 31102 55/// 70000 82710=
07181,1999-11-13 07:00:00,0.1,1023.1,-0.4,96,-0.5,4200,7.408,,,50,,,,,,,,,,,og-post,,,,AAXX 13074 07181 36/42 /0504 10001 21005 39796 40231 56004=
07181,1999-11-13 08:00:00,1,1023.2,0.1,93,0,1500,14.816,,,70,,,,,,,,,,10,og-post,,,,AAXX 13084 07181 31315 70708 10010 20000 39798 40232 53001 71022 877// 333 87707=
07181,1999-11-13 09:00:00,1,1022.8,-0.2,92,-0.1,1500,18.52,,,60,,,,,,,,,,10,og-post,,,,AAXX 13094 07181 31315 70610 10010 21001 39795 40228 58002 71011 877// 333 87706=
07181,1999-11-13 10:00:00,1.5,1022.6,-0.3,91,0.2,2000,18.52,,,60,,,,,,,,,,10,og-post,,,,AAXX 13104 07181 31320 70610 10015 20002 39793 40226 58003 71022 877// 333 87707=
07181,1999-11-13 11:00:00,2,1022,-1,88,0.2,2000,14.816,,,60,,,,,,,,,,10,og-post,,,,AAXX 13114 07181 31320 70608 10020 20002 39788 40220 58010 71022 877// 333 87708=
07181,1999-11-13 13:00:00,2.5,1020.4,-1.9,85,0.2,3000,18.52,,,60,,,,,,,,,,10,og-post,,,,AAXX 13134 07181 31430 70610 10025 20002 39774 40204 58019 71022 877// 333 87710=
07181,1999-11-13 14:00:00,2.8,1019.7,-2,85,0.5,4000,14.816,,,60,,,,,,,,,,10,og-post,,,,AAXX 13144 07181 31440 80608 10028 20005 39768 40197 56020 71022 888// 333 88611=
07181,1999-11-13 15:00:00,2.9,1019.4,-1.5,84,0.5,4000,14.816,,,60,,,,,,,,,,10,og-post,,,,AAXX 13154 07181 31440 80608 10029 20005 39765 40194 56015 71022 888// 333 88611=
07181,1999-11-13 16:00:00,3,1019.1,-1.2,84,0.6,4500,11.112,,,50,,,,,,,,,,10,og-post,,,,AAXX 13164 07181 31445 80506 10030 20006 39762 40191 56012 71022 888// 333 88612=
07181,1999-11-13 17:00:00,2.8,1018.8,-0.9,84,0.4,6000,14.816,,,50,,,,,,,,,,,og-post,,,,AAXX 13174 07181 36/56 /0508 10028 20004 39759 40188 57009=
07181,1999-11-13 18:00:00,2.7,1018.9,-0.5,84,0.3,4500,11.112,,,70,-0.2,3,,,,,,,,10,og-post,,,,AAXX 13184 07181 31445 80706 10027 20003 39760 40189 55005 71022 888// 333 10030 21002 88612=
07181,1999-11-13 19:00:00,2.4,1018.6,-0.6,84,0,4500,18.52,,,60,,,,,,,,,,10,og-post,,,,AAXX 13194 07181 31445 80610 10024 20000 39756 40186 58006 71022 888// 333 88611=
07181,1999-11-13 20:00:00,1.9,1018.4,-0.5,87,0,4500,14.816,,,50,,,,,,,,,,10,og-post,,,,AAXX 13204 07181 31445 80508 10019 20000 39754 40184 58005 71022 888// 333 88611=
07181,1999-11-14 04:00:00,-0.3,1017.1,-0.2,92,-1.4,4500,7.408,,,20,,,,,,,,,,10,og-post,,,,AAXX 14044 07181 31345 80204 11003 21014 39738 40171 58002 71022 887// 333 88708=
07181,1999-11-14 05:00:00,-0.2,1016.7,-0.9,95,-0.9,4500,7.408,,,70,,,,,,,,,,10,og-post,,,,AAXX 14054 07181 31345 80704 11002 21009 39734 40167 56009 71022 887// 333 88706=
07181,1999-11-14 06:00:00,1.3,1016.5,-0.1,95,0.6,4500,11.112,,,30,-0.8,2.7,,,,,0,,-3,10,og-post,,,,AAXX 14064 07181 31345 80306 10013 20006 39735 40165 58001 71022 887// 333 10027 21008 30103 55/// 70000 88706=
07181,1999-11-14 07:00:00,1.4,1016.9,0.1,93,0.4,4500,7.408,,,20,,,,,,,,,,10,og-post,,,,AAXX 14074 07181 31245 80204 10014 20004 39739 40169 53001 71022 887// 333 88706=
07181,1999-11-14 08:00:00,1.7,1016.9,0.5,92,0.5,4500,7.408,,,30,,,,,,,,,,10,og-post,,,,AAXX 14084 07181 31345 80304 10017 20005 39739 40169 51005 71022 887// 333 88708=
07181,1999-11-14 10:00:00,2.6,1016.9,0.2,90,1.1,4500,7.408,,,10,,,,,,,,,,10,og-post,,,,AAXX 14104 07181 31445 80104 10026 20011 39741 40169 53002 71022 887// 333 88710=
07181,1999-11-14 11:00:00,2.8,1016.6,-0.1,94,1.9,2000,,,,,,,,,,,,,,50,og-post,,,,AAXX 14114 07181 21320 80000 10028 20019 39738 40166 58001 75052 887// 333 69905 88709=
07181,1999-11-14 12:00:00,2.9,1016.2,-0.3,96,2.3,1500,3.704,,,280,,,,,,,,,,50,og-post,,,,AAXX 14124 07181 /1215 82802 10029 20023 39734 40162 58003 69901 75052 887// 333 69907 88705=
07181,1999-11-14 13:00:00,3.6,1015.4,-1.3,95,2.9,1500,3.704,,,240,,,,,,,,,,20,og-post,,,,AAXX 14134 07181 21215 82402 10036 20029 39728 40154 58013 72052 887// 333 69905 88705=
07181,1999-11-14 14:00:00,3.8,1015.4,-1,95,3.1,2000,7.408,,,340,,,,,,,,,,10,og-post,,,,AAXX 14144 07181 31220 83404 10038 20031 39728 40154 56010 71022 885// 333 85705 87620=
07181,1999-11-14 15:00:00,3.9,1015.3,-0.7,96,3.3,2000,7.408,,,350,,,,,,,,,,10,og-post,,,,AAXX 14154 07181 21220 83504 10039 20033 39727 40153 56007 71052 885// 333 69907 84705 87618=
07181,1999-11-14 16:00:00,3.8,1015.1,-0.3,96,3.2,2000,3.704,,,260,,,,,,,,,,10,og-post,,,,AAXX 14164 07181 31220 82602 10038 20032 39725 40151 58003 71022 885// 333 84705 87625=
07181,1999-11-14 17:00:00,3.8,1015.1,-0.3,96,3.2,2000,3.704,,,220,,,,,,,,,,10,og-post,,,,AAXX 14174 07181 31320 82202 10038 20032 39725 40151 56003 71022 885// 333 84707 87630=
07181,1999-11-14 18:00:00,4,1015.4,0.2,97,3.6,2000,,,,,1.2,4,,,,,,,,10,og-post,,,,AAXX 14184 07181 11220 80000 10040 20036 39729 40154 53002 69902 71052 885// 333 10040 20012 85704 87620=
07181,1999-11-14 19:00:00,4.1,1015.4,0.4,98,3.8,2000,3.704,,,230,,,,,,,,,,10,og-post,,,,AAXX 14194 07181 31220 82302 10041 20038 39729 40154 52004 71022 887// 333 87704=
07181,1999-11-14 20:00:00,4.3,1015.5,0.5,98,4,2000,3.704,,,230,,,,,,,,,,10,og-post,,,,AAXX 14204 07181 31220 82302 10043 20040 39730 40155 51005 71022 887// 333 87703=
07181,1999-11-14 21:00:00,4.4,1015.9,0.5,98,4.1,2000,3.704,,,350,,,,,,,,,,10,og-post,,,,AAXX 14214 07181 31220 83502 10044 20041 39734 40159 53005 71022 885// 333 84703 87648=
07181,1999-11-14 22:00:00,4.4,1015.8,0.4,99,4.3,2000,3.704,,,340,,,,,,,,,,10,og-post,,,,AAXX 14224 07181 31220 73402 10044 20043 39733 40158 50004 71022 875// 333 83703 87650=
07181,1999-11-14 23:00:00,3.7,1016.2,0.6,99,3.6,700,7.408,,,10,,,,,,,,,,,og-post,,,,AAXX 14234 07181 36/07 /0104 10037 20036 39736 40162 51006=
07181,1999-11-15 00:00:00,4,1016.4,0.4,98,3.7,5000,14.816,,,50,,,,,,,,,,,og-post,,,,AAXX 15004 07181 32250 70508 10040 20037 39738 40164 53004 875// 333 85703 87620=
07181,1999-11-15 01:00:00,3.9,1016.5,0.6,83,1.3,7000,14.816,,,70,,,,,,,,,,,og-post,,,,AAXX 15014 07181 32257 70708 10039 20013 39739 40165 51006 875// 333 83703 87630=
07181,1999-11-15 02:00:00,3.2,1017.1,0.7,82,0.4,9000,11.112,,,40,,,,,,,,,,,og-post,,,,AAXX 15024 07181 32259 70406 10032 20004 39743 40171 53007 875// 333 83703 87635=
07181,1999-11-15 03:00:00,2.4,1017.2,0.5,83,-0.2,12000,14.816,,,40,,,,,,,,,,,og-post,,,,AAXX 15034 07181 32462 70408 10024 21002 39743 40172 51005 878// 333 82815 87656=
07181,1999-11-15 04:00:00,1.1,1018,1,80,-2,15000,14.816,,,50,,,,,,,,,,,og-post,,,,AAXX 15044 07181 32465 70508 10011 21020 39749 40180 53010 878// 333 85815 87656=
07181,1999-11-15 05:00:00,0.3,1018.6,1,81,-2.6,20000,18.52,,,50,,,,,,,,,,,og-post,,,,AAXX 15054 07181 32470 30510 10003 21026 39753 40186 53010 83800 333 81816 83656=
07181,1999-11-15 06:00:00,-0.4,1019.2,1.5,83,-2.9,20000,14.816,,,50,-0.4,4.6,,,,,0,,-1,,og-post,,,,AAXX 15064 07181 32570 10508 11004 21029 39758 40192 51015 81500 333 10046 21004 30101 55/// 79999 81623=
07181,1999-11-15 07:00:00,-0.9,1019.8,1.4,84,-3.3,20000,18.52,,,50,,,,,,,,,,,og-post,,,,AAXX 15074 07181 32570 10510 11009 21033 39763 40198 53014 81500 333 81623=
07181,1999-11-15 08:00:00,-0.2,1020.2,1.5,79,-3.4,20000,18.52,,,60,,,,,,,,,,,og-post,,,,AAXX 15084 07181 32470 20610 11002 21034 39768 40202 52015 81800 333 81815=
07181,1999-11-15 10:00:00,1.3,1020.4,0.9,67,-4.1,20000,22.224,,,60,,,,,,,,,,,og-post,,,,AAXX 15104 07181 32570 10612 10013 21041 39772 40204 51009 81100 333 81820=
07181,1999-11-15 11:00:00,2,1020.1,0.2,62,-4.5,20000,25.928,,,70,,,,,,,,,,,og-post,,,,AAXX 15114 07181 32570 10714 10020 21045 39770 40201 50002 81100 333 81826=
07181,1999-11-15 12:00:00,2.6,1019.5,-0.5,61,-4.1,20000,18.52,,,60,,,,,,,,,,,og-post,,,,AAXX 15124 07181 32570 10610 10026 21041 39765 40195 58005 81100 333 81830=
07181,1999-11-15 13:00:00,3.1,1019.4,-0.7,58,-4.3,20000,25.928,,,50,,,,,,,,,,,og-post,,,,AAXX 15134 07181 32570 10514 10031 21043 39765 40194 56007 81100 333 81830=
07181,1999-11-15 14:00:00,3.1,1019.5,-0.4,59,-4.1,20000,22.224,,,60,,,,,,,,,,,og-post,,,,AAXX 15144 07181 32570 20612 10031 21041 39766 40195 55004 82100 333 82831=
07181,1999-11-15 15:00:00,2.7,1019.7,0.2,61,-4.1,20000,25.928,,,60,,,,,,,,,,,og-post,,,,AAXX 15154 07181 32670 20614 10027 21041 39767 40197 53002 82100 333 82833=
07181,1999-11-15 16:00:00,1.7,1020.3,0.6,66,-4,20000,18.52,,,70,,,,,,,,,,,og-post,,,,AAXX 15164 07181 32670 20710 10017 21040 39771 40203 53006 82100 333 82833=
07181,1999-11-15 17:00:00,0.8,1020.7,0.8,68,-4.4,20000,14.816,,,70,,,,,,,,,,,og-post,,,,AAXX 15174 07181 32670 20708 10008 21044 39774 40207 53008 82100 333 82833=
07181,1999-11-15 18:00:00,-0.4,1020.9,0.7,73,-4.6,20000,11.112,,,40,-1,3.3,,,,,,,,,og-post,,,,AAXX 15184 07181 32670 10406 11004 21046 39774 40209 51007 81100 333 10033 21010 81840=
07181,1999-11-15 19:00:00,-0.7,1020.6,0,72,-5.1,20000,14.816,,,60,,,,,,,,,,,og-post,,,,AAXX 15194 07181 32770 10608 11007 21051 39771 40206 50000 81500 333 81650=
07181,1999-11-15 20:00:00,-1,1020.6,-0.4,73,-5.2,20000,7.408,,,40,,,,,,,,,,,og-post,,,,AAXX 15204 07181 32970 00404 11010 21052 39770 40206 58004=
07181,1999-11-15 21:00:00,-1.4,1020.3,-0.7,75,-5.2,20000,14.816,,,60,,,,,,,,,,,og-post,,,,AAXX 15214 07181 32970 00608 11014 21052 39767 40203 57007=
07181,1999-11-15 22:00:00,-1.4,1020.1,-0.6,77,-4.9,20000,14.816,,,70,,,,,,,,,,,og-post,,,,AAXX 15224 07181 32970 00708 11014 21049 39765 40201 58006=
07181,1999-11-15 23:00:00,-1.8,1020,-0.7,80,-4.8,20000,11.112,,,80,,,,,,,,,,,og-post,,,,AAXX 15234 07181 32970 00806 11018 21048 39763 40200 56007=
07181,1999-11-16 00:00:00,-2.2,1019.3,-1.1,82,-4.8,20000,11.112,,,70,,,,,,,,,,,og-post,,,,AAXX 16004 07181 32970 00706 11022 21048 39756 40193 58011=
07181,1999-11-16 01:00:00,-2.7,1019.2,-1.1,86,-4.7,20000,7.408,,,70,,,,,,,,,,,og-post,,,,AAXX 16014 07181 32970 00704 11027 21047 39754 40192 57011=
07181,1999-11-16 02:00:00,-4.3,1019,-1.3,91,-5.5,20000,3.704,,,20,,,,,,,,,,,og-post,,,,AAXX 16024 07181 32970 00202 11043 21055 39750 40190 56013=
07181,1999-11-16 03:00:00,-5.4,1018.7,-1.1,94,-6.2,20000,3.704,,,10,,,,,,,,,,,og-post,,,,AAXX 16034 07181 32970 00102 11054 21062 39745 40187 58011=
07181,1999-11-16 04:00:00,-5.9,1018.7,-1,94,-6.7,12000,3.704,,,250,,,,,,,,,,,og-post,,,,AAXX 16044 07181 32962 02502 11059 21067 39744 40187 56010=
07181,1999-11-16 05:00:00,-6,1018.6,-0.7,95,-6.7,12000,3.704,,,340,,,,,,,,,,,og-post,,,,AAXX 16054 07181 32962 03402 11060 21067 39743 40186 56007=
07181,1999-11-16 06:00:00,-6,1018.2,-0.6,96,-6.5,6000,3.704,,,60,-6.2,-0.3,,,,,,,-11,,og-post,,,,AAXX 16064 07181 32956 00602 11060 21065 39739 40182 58006 333 11003 21062 34111 55/// 70000=
07181,1999-11-16 07:00:00,-6.4,1018.5,-0.3,95,-7.1,4000,3.704,,,40,,,,,,,,,,10,og-post,,,,AAXX 16074 07181 31540 20402 11064 21071 39741 40185 55003 71000 82500 333 82625=
07181,1999-11-16 08:00:00,-5,1018.3,-0.1,97,-5.4,4000,,,,,,,,,,,,,,10,og-post,,,,AAXX 16084 07181 31540 30000 11050 21054 39742 40183 55001 71000 83500 333 83622=
07181,1999-11-16 09:00:00,-3.5,1018.1,0.3,96,-4,4000,3.704,,,230,,,,,,,,,,10,og-post,,,,AAXX 16094 07181 31540 72302 11035 21040 39742 40181 51003 71011 875// 333 87620=
07181,1999-11-16 10:00:00,-2.4,1017.7,-0.1,96,-2.9,4500,3.704,,,230,,,,,,,,,,10,og-post,,,,AAXX 16104 07181 31445 72302 11024 21029 39740 40177 58001 71022 875// 333 87618=
07181,1999-11-16 11:00:00,-1.2,1017.2,-0.5,94,-2,5000,3.704,,,300,,,,,,,,,,,og-post,,,,AAXX 16114 07181 32450 73002 11012 21020 39737 40172 58005 875// 333 87618=
07181,1999-11-16 12:00:00,-0.1,1016.7,-0.8,83,-2.6,7000,7.408,,,260,,,,,,,,,,,og-post,,,,AAXX 16124 07181 32457 72604 11001 21026 39734 40167 58008 878// 333 82812 86620=
07181,1999-11-16 13:00:00,-0.1,1016.3,-1,84,-2.5,10000,7.408,,,280,,,,,,,,,,,og-post,,,,AAXX 16134 07181 32460 72804 11001 21025 39730 40163 58010 878// 333 82812 87615=
07181,1999-11-16 14:00:00,0.4,1016,-0.9,77,-3.1,10000,14.816,,,270,,,,,,,,,,,og-post,,,,AAXX 16144 07181 32460 72708 10004 21031 39728 40160 56009 878// 333 82812 87619=
07181,1999-11-16 15:00:00,-0.1,1016.2,-0.5,74,-4.2,10000,14.816,,,270,,,,,,,,,,,og-post,,,,AAXX 16154 07181 32460 72708 11001 21042 39729 40162 55005 875// 333 87619=
07181,1999-11-16 16:00:00,-0.5,1016.2,-0.1,78,-3.9,10000,14.816,,,240,,,,,,,,,,,og-post,,,,AAXX 16164 07181 32460 72408 11005 21039 39729 40162 56001 875// 333 87616=
07181,1999-11-16 17:00:00,-0.9,1016.6,0.4,79,-4.1,10000,14.816,,,250,,,,,,,,,,,og-post,,,,AAXX 16174 07181 32460 82508 11009 21041 39732 40166 53004 885// 333 88618=
07181,1999-11-16 18:00:00,-0.9,1016.7,0.4,82,-3.6,10000,11.112,,,260,-6.5,0.4,,,,,,,,,og-post,,,,AAXX 16184 07181 32460 72606 11009 21036 39733 40167 53004 875// 333 10004 21065 87615=
07181,1999-11-16 19:00:00,-1,1016.6,0.3,83,-3.5,10000,11.112,,,240,,,,,,,,,,,og-post,,,,AAXX 16194 07181 32460 72406 11010 21035 39732 40166 50003 875// 333 84615 87650=
07181,1999-11-16 20:00:00,-0.9,1016.2,-0.4,83,-3.4,10000,14.816,,,210,,,,,,,,,,,og-post,,,,AAXX 16204 07181 32460 72108 11009 21034 39728 40162 58004 875// 333 82615 87643=
07181,1999-11-16 21:00:00,-0.7,1016,-0.6,83,-3.2,10000,14.816,,,210,,,,,,,,,,70,og-post,,,,AAXX 16214 07181 21560 82108 11007 21032 39727 40160 57006 77072 885// 333 69907 88629=
07181,1999-11-16 22:00:00,-0.7,1015.7,-0.8,88,-2.4,3000,14.816,,,220,,,,,,,,,,70,og-post,,,,AAXX 16224 07181 21530 82208 11007 21024 39724 40157 56008 77077 885// 333 69905 88624=
07181,1999-11-16 23:00:00,-1.1,1015.4,-0.8,95,-1.8,1000,18.52,,,210,,,0.2,,,,,,,70,og-post,,,,AAXX 16234 07181 21410 82110 11011 21018 39720 40154 58008 77077 885// 333 69925 88616=
07181,1999-11-17 00:00:00,-1,1015.1,-0.9,96,-1.6,3000,18.52,,,210,,,,0.4,0.4,,,,,70,og-post,,,,AAXX 17004 07181 /1430 82110 11010 21016 39718 40151 56009 69941 77072 885// 333 69947 88610 93101=
07181,1999-11-17 01:00:00,-0.7,1015,-0.7,96,-1.3,3000,22.224,,,230,,,,,,,,,,70,og-post,,,,AAXX 17014 07181 21230 82312 11007 21013 39717 40150 56007 77077 887// 333 69905 88606=
07181,1999-11-17 02:00:00,-0.5,1014.7,-0.5,98,-0.8,1000,11.112,,,220,,,,,,,,,,70,og-post,,,,AAXX 17024 07181 21110 82206 11005 21008 39715 40147 57005 77077 887// 333 69905 88601=
07181,1999-11-17 03:00:00,-0.3,1014.4,-0.6,99,-0.4,500,14.816,,,220,,,,,,,,,,46,og-post,,,,AAXX 17034 07181 21205 82208 11003 21004 39712 40144 58006 74674 887// 333 69907 88704=
07181,1999-11-17 04:00:00,-0.2,1014.3,-0.6,99,-0.3,500,11.112,,,220,,,,,,,,,,44,og-post,,,,AAXX 17044 07181 31105 82206 11002 21003 39711 40143 56006 74444 887// 333 88702=
07181,1999-11-17 05:00:00,-0.1,1014.3,-0.4,99,-0.2,500,14.816,,,220,,,,,,,,,,44,og-post,,,,AAXX 17054 07181 31205 82208 11001 21002 39711 40143 56004 74444 887// 333 88704=
07181,1999-11-17 06:00:00,0,1014.2,-0.1,99,-0.1,500,11.112,,,220,-1.2,0,,,,0.4,0.4,,-2,44,og-post,,0,,AAXX 17064 07181 11205 82206 10000 21001 39711 40142 56001 69942 74474 887// 333 10000 21012 3/102 42997 55/// 70004 88703=
07181,1999-11-17 07:00:00,0.1,1014.5,0.3,99,0,600,14.816,,,210,,,0.2,,,,,,,70,og-post,,,,AAXX 17074 07181 21106 82108 10001 20000 39714 40145 53003 77074 887// 333 69925 88702=
07181,1999-11-17 08:00:00,0.2,1014.8,0.6,99,0.1,800,11.112,,,230,,,0.2,,,,,,,71,og-post,,,,AAXX 17084 07181 21108 82306 10002 20001 39717 40148 53006 77177 887// 333 69925 88702=
07181,1999-11-17 10:00:00,0.8,1015.1,0.7,99,0.7,2500,7.408,,,240,,,,,,,,,,10,og-post,,,,AAXX 17104 07181 31125 82404 10008 20007 39721 40151 52007 71022 887// 333 88703 93101=
07181,1999-11-17 11:00:00,1,1015.2,0.5,99,0.9,2500,14.816,,,240,,,,,,,,,,10,og-post,,,,AAXX 17114 07181 31225 82408 10010 20009 39722 40152 52005 71022 887// 333 85703 87708 93101=
07181,1999-11-17 12:00:00,1.4,1014.9,0.2,99,1.3,6000,11.112,,,270,,,,,0.4,,,,,1,og-post,,,,AAXX 17124 07181 11356 72706 10014 20013 39720 40149 50002 69941 70174 875// 333 85707 87615=
07181,1999-11-17 13:00:00,2.3,1014.6,-0.3,95,1.6,10000,14.816,,,250,,,,,,,,,,,og-post,,,,AAXX 17134 07181 32460 72508 10023 20016 39718 40146 58003 875// 333 83710 86640=
07181,1999-11-17 14:00:00,2.7,1014.4,-0.5,88,0.9,11000,11.112,,,260,,,,,,,,,,,og-post,,,,AAXX 17144 07181 32461 72606 10027 20009 39717 40144 56005 878// 333 84813 86643=
07181,1999-11-17 15:00:00,2.2,1014.6,-0.2,90,0.7,11000,14.816,,,250,,,,,,,,,,,og-post,,,,AAXX 17154 07181 32461 72508 10022 20007 39718 40146 55002 878// 333 85815 86646=
07181,1999-11-17 16:00:00,1.5,1014.9,0.2,92,0.3,11000,11.112,,,250,,,,,,,,,,,og-post,,,,AAXX 17164 07181 32461 62506 10015 20003 39720 40149 53002 86800 333 82811 86646=
07181,1999-11-17 17:00:00,-0.1,1015.6,0.7,96,-0.7,5000,14.816,,,240,,,,,,,,,,,og-post,,,,AAXX 17174 07181 36/50 /2408 11001 21007 39724 40156 53007=
07181,1999-11-17 18:00:00,-0.5,1015.9,0.8,97,-0.9,8000,7.408,,,240,-0.6,2.8,,,,0.4,,,,,og-post,,,,AAXX 17184 07181 12658 22404 11005 21009 39726 40159 52008 69942 82500 333 10028 21006 82646=
07181,1999-11-17 19:00:00,-0.4,1015.9,0.6,97,-0.8,4000,14.816,,,230,,,,,,,,,,,og-post,,,,AAXX 17194 07181 36/40 /2308 11004 21008 39726 40159 51006=
07181,1999-11-17 20:00:00,0.6,1015.9,0.4,98,0.3,6000,7.408,,,270,,,,,,,,,,,og-post,,,,AAXX 17204 07181 32256 72704 10006 20003 39728 40159 52004 875// 333 86706 86640=
07181,1999-11-17 21:00:00,0.8,1015.9,0.2,96,0.2,5000,14.816,,,240,,,,,,,,,,70,og-post,,,,AAXX 17214 07181 21350 72408 10008 20002 39728 40159 52002 77071 877// 333 69907 87708=
07181,1999-11-17 22:00:00,0.6,1015.9,0.2,98,0.3,3000,14.816,,,250,,,0.6,,,,,,,71,og-post,,,,AAXX 17224 07181 21230 72508 10006 20003 39728 40159 51002 77177 877// 333 69965 87705=
07181,1999-11-17 23:00:00,0.7,1016,0.1,98,0.4,8000,18.52,,,290,,,0.2,,,,,,,22,og-post,,,,AAXX 17234 07181 21258 72910 10007 20004 39729 40160 53001 72272 877// 333 69925 87705=
07181,1999-11-18 00:00:00,0.7,1015.9,0,98,0.4,8000,18.52,,,300,,,,0.8,0.8,,,,,22,og-post,,,,AAXX 18004 07181 /1258 73010 10007 20004 39728 40159 50000 69981 72271 877// 333 69987 87705=
07181,1999-11-18 01:00:00,0.9,1015.7,-0.2,98,0.6,9000,14.816,,,290,,,,,,,,,,,og-post,,,,AAXX 18014 07181 36/59 /2908 10009 20006 39726 40157 58002=
07181,1999-11-18 02:00:00,1,1015.5,-0.4,92,-0.1,11000,14.816,,,290,,,,,,,,,,,og-post,,,,AAXX 18024 07181 32461 82908 10010 21001 39725 40155 57004 877// 333 87710=
07181,1999-11-18 03:00:00,0.6,1015.3,-0.6,93,-0.4,11000,14.816,,,270,,,,,,,,,,,og-post,,,,AAXX 18034 07181 32461 82708 10006 21004 39722 40153 58006 877// 333 85711 85625=
07181,1999-11-18 04:00:00,0,1014.9,-0.9,92,-1.1,18000,14.816,,,250,,,,,,,,,,,og-post,,,,AAXX 18044 07181 36/68 /2508 10000 21011 39717 40149 58009=
07181,1999-11-18 05:00:00,-0.6,1014.4,-1.3,93,-1.6,11000,18.52,,,240,,,,,,,,,,,og-post,,,,AAXX 18054 07181 32461 72410 11006 21016 39712 40144 58013 8653/ 333 83710 85640 87363=
07181,1999-11-18 06:00:00,-0.2,1013.5,-1.8,94,-1,11000,18.52,,,230,-0.7,1.1,,,,0.8,1.2,,-2,,og-post,,,,AAXX 18064 07181 12461 72310 11002 21010 39704 40135 58018 69982 875// 333 10011 21007 34102 55/// 70012 85710 87640=
07181,1999-11-18 07:00:00,0.3,1012.5,-2.2,95,-0.4,2000,18.52,,,220,,,,,,,,,,70,og-post,,,,AAXX 18074 07181 21120 82210 10003 21004 39695 40125 58022 77072 875// 333 69905 82703 87610=
07181,1999-11-18 08:00:00,0.5,1012,-2.2,94,-0.4,1500,22.224,,,220,,,,,,,,,,71,og-post,,,,AAXX 18084 07181 21115 82212 10005 21004 39690 40120 56022 77177 875// 333 69905 82703 87610=
07181,1999-11-18 09:00:00,0.2,1011,-2.4,98,-0.1,1000,22.224,,,220,,,,0.4,,,,,,71,og-post,,,,AAXX 18094 07181 21210 82212 10002 21001 39680 40110 58024 77172 875// 333 69947 87604 93101=
07181,1999-11-18 10:00:00,0.3,1010.1,-2.3,98,0,2000,25.928,,,230,,,0.2,,,,,,,71,og-post,,,,AAXX 18104 07181 21220 82314 10003 20000 39672 40101 58023 77177 875// 333 69925 87606=
07181,1999-11-18 11:00:00,0.3,1009,-2.9,98,0,1500,22.224,,,230,,,0.2,,,,,,,71,og-post,,,,AAXX 18114 07181 21215 82312 10003 20000 39661 40090 58029 77177 875// 333 69925 85704 87612=
07181,1999-11-18 12:00:00,0.2,1007.3,-3.5,98,-0.1,1200,18.52,,,220,,,,0.6,1,,,,,71,og-post,,,,AAXX 18124 07181 /1212 82210 10002 21001 39645 40073 58035 60011 77172 875// 333 69967 87604 93101=
07181,1999-11-18 13:00:00,0.2,1005.7,-4.2,98,-0.1,800,7.408,,,170,,,1,,,,,,,71,og-post,,,,AAXX 18134 07181 21108 81704 10002 21001 39630 40057 58042 77177 875// 333 60015 87603=
07181,1999-11-18 14:00:00,0.1,1004.4,-4.4,99,0,800,7.408,,,180,,,1,,,,,,,73,og-post,,,,AAXX 18144 07181 21108 81804 10001 20000 39617 40044 56044 77377 875// 333 60015 87603=
07181,1999-11-18 15:00:00,0.1,1003.5,-3.7,99,0,800,7.408,,,180,,,,4,,,,,,73,og-post,,,,AAXX 18154 07181 21208 81804 10001 20000 39608 40035 56037 77377 875// 333 60047 87604 93103=
07181,1999-11-18 16:00:00,0,1003.2,-2.5,99,-0.1,200,3.704,,,350,,,0.6,,,,,,,73,og-post,,,,AAXX 18164 07181 21102 83502 10000 21001 39605 40032 56025 77377 875// 333 69965 87603=
07181,1999-11-18 19:00:00,-0.6,1004.3,1,99,-0.7,12000,11.112,,,330,,,,,,,,,,,og-post,,,,AAXX 18194 07181 32162 83306 11006 21007 39615 40043 53010 875// 333 83702 87611=
07181,1999-11-18 20:00:00,-1.2,1004.4,1,97,-1.6,15000,7.408,,,290,,,,,,,,,,,og-post,,,,AAXX 18204 07181 32165 72904 11012 21016 39615 40044 51010 878// 333 81702 83815 87635=
07181,1999-11-18 21:00:00,-1.2,1004.9,0.9,96,-1.8,15000,7.408,,,290,,,,,,,,,,,og-post,,,,AAXX 18214 07181 32165 72904 11012 21018 39620 40049 53009 875// 333 81702 87618=
07181,1999-11-18 22:00:00,-0.8,1005.5,1.1,97,-1.2,8000,7.408,,,280,,,,,,,,,,,og-post,,,,AAXX 18224 07181 32258 72804 11008 21012 39626 40055 53011 875// 333 83704 87618=
07181,1999-11-18 23:00:00,-0.6,1005.9,1.5,98,-0.9,7000,3.704,,,260,,,0.4,,,,,,,68,og-post,,,,AAXX 18234 07181 21257 72602 11006 21009 39630 40059 51015 76876 875// 333 69945 84704 87615=
07181,1999-11-19 00:00:00,-0.7,1006.2,1.3,99,-0.8,5000,3.704,,,250,,,,0.6,0.6,,,,,68,og-post,,,,AAXX 19004 07181 /1250 72502 11007 21008 39633 40062 51013 69961 76876 875// 333 69967 87604=
07181,1999-11-19 01:00:00,-0.3,1006.6,1.1,98,-0.6,5000,11.112,,,300,,,,,,,,,,68,og-post,,,,AAXX 19014 07181 21250 73006 11003 21006 39637 40066 52011 76877 875// 333 69905 87604=
07181,1999-11-19 02:00:00,-0.8,1006.7,0.8,98,-1.1,9000,11.112,,,300,,,,,,,,,,,og-post,,,,AAXX 19024 07181 26/59 /3006 11008 21011 39638 40067 51008 333 69905=
07181,1999-11-19 03:00:00,-0.5,1006.9,0.7,98,-0.8,7000,7.408,,,270,,,,,,,,,,2,og-post,,,,AAXX 19034 07181 21257 72704 11005 21008 39640 40069 51007 70276 875// 333 69907 87605=
07181,1999-11-19 04:00:00,-0.4,1006.8,0.2,98,-0.7,6000,11.112,,,280,,,,,,,,,,,og-post,,,,AAXX 19044 07181 32256 72806 11004 21007 39639 40068 50002 875// 333 87604=
07181,1999-11-19 06:00:00,-0.2,1006,-0.8,99,-0.3,1500,7.408,,,260,-1.4,-0.2,,2,,2,7.6,,-3,73,og-post,,8,,AAXX 19064 07181 /1115 72604 11002 21003 39632 40060 58008 60022 77376 877// 333 11002 21014 3/103 43008 55/// 60027 70076 87702 93101=
07181,1999-11-19 07:00:00,-0.2,1006.3,-0.4,99,-0.3,3000,7.408,,,290,,,0.8,,,,,,,70,og-post,,,,AAXX 19074 07181 21230 72904 11002 21003 39635 40063 55004 77077 877// 333 69985 87703 93101=
07181,1999-11-19 08:00:00,-0.1,1006.6,0.2,99,-0.2,2000,7.408,,,290,,,0.2,,,,,,,22,og-post,,,,AAXX 19084 07181 21120 82904 11001 21002 39638 40066 53002 72272 887// 333 69925 87702=
07181,1999-11-19 09:00:00,0,1006.7,0.7,98,-0.3,3000,7.408,,,290,,,,1,,,,,,70,og-post,,,,AAXX 19094 07181 21230 82904 10000 21003 39639 40067 51007 77072 887// 333 60017 87705=
07181,1999-11-19 10:00:00,0.2,1007,0.7,98,-0.1,1500,7.408,,,300,,,,,,,,,,71,og-post,,,,AAXX 19104 07181 21115 83004 10002 21001 39642 40070 52007 77177 887// 333 69905 87702=
07181,1999-11-19 11:00:00,0.1,1007.2,0.6,98,-0.2,2000,14.816,,,320,,,0.6,,,,,,,71,og-post,,,,AAXX 19114 07181 21120 73208 10001 21002 39644 40072 53006 77177 877// 333 69965 86702 86610=
07181,1999-11-19 12:00:00,0.5,1007.4,0.7,97,0.1,5000,14.816,,,350,,,,0.6,2,,,,,22,og-post,,,,AAXX 19124 07181 /1250 73508 10005 20001 39646 40074 51007 60021 72274 875// 333 69967 85703 86610=
07181,1999-11-19 13:00:00,0.7,1007.6,0.7,97,0.3,7000,11.112,,,360,,,,,,,,,,70,og-post,,,,AAXX 19134 07181 21257 73606 10007 20003 39649 40076 53007 77072 875// 333 69905 84705 85610 87630=
07181,1999-11-19 14:00:00,0.7,1008,0.8,96,0.1,9000,11.112,,,350,,,,,,,,,,,og-post,,,,AAXX 19144 07181 32259 73506 10007 20001 39652 40080 53008 878// 333 82704 85807 85630=
07181,1999-11-19 15:00:00,0.5,1008.8,1.4,96,-0.1,7000,7.408,,,360,,,,,,,,,,,og-post,,,,AAXX 19154 07181 32257 73604 10005 21001 39660 40088 53014 878// 333 82704 85809 85630=
07181,1999-11-19 16:00:00,0.1,1010,2.2,93,-0.9,7000,18.52,,,40,,,,,,,,,,26,og-post,,,,AAXX 19164 07181 21257 70410 10001 21009 39671 40100 53022 72687 878// 333 69905 82704 84809 85650=
07181,1999-11-19 17:00:00,-0.2,1011,2.8,91,-1.5,10000,11.112,,,20,,,,,,,,,,26,og-post,,,,AAXX 19174 07181 21360 70206 11002 21015 39680 40110 53028 72687 878// 333 69905 82709 84812 85630=
07181,1999-11-19 18:00:00,-0.2,1011.8,2.7,91,-1.5,12000,11.112,,,30,-0.5,0.8,,,,2,,,,1,og-post,,,,AAXX 19184 07181 /1362 70306 11002 21015 39687 40118 51027 60022 70187 878// 333 10008 21005 69907 82709 84813 85633=
07181,1999-11-19 19:00:00,-0.8,1012.4,2.1,89,-2.4,14000,14.816,,,20,,,,,,,,,,,og-post,,,,AAXX 19194 07181 32464 50208 11008 21024 39692 40124 51021 85800 333 83818 85646=
07181,1999-11-19 20:00:00,-0.8,1012.9,1.7,88,-2.5,15000,14.816,,,20,,,,,,,,,,,og-post,,,,AAXX 19204 07181 32465 50208 11008 21025 39697 40129 51017 85800 333 83816 85650=
07181,1999-11-19 21:00:00,-1.3,1013.7,1.7,93,-2.3,15000,3.704,,,360,,,,,,,,,,,og-post,,,,AAXX 19214 07181 32665 53602 11013 21023 39704 40137 53017 85500 333 85643=
07181,1999-11-19 22:00:00,-0.9,1013.9,1.4,92,-2,10000,7.408,,,20,,,,,,,,,,,og-post,,,,AAXX 19224 07181 32660 70204 11009 21020 39706 40139 51014 875// 333 87643=
07181,1999-11-19 23:00:00,-0.8,1014.3,1.3,93,-1.8,10000,7.408,,,10,,,,,,,,,,,og-post,,,,AAXX 19234 07181 32560 70104 11008 21018 39710 40143 51013 875// 333 83620 87643=
07181,1999-11-20 00:00:00,-1.3,1014.5,0.7,93,-2.3,5000,3.704,,,360,,,,,,,,,,,og-post,,,,AAXX 20004 07181 32450 73602 11013 21023 39711 40145 51007 875// 333 84618 87643=
07181,1999-11-20 01:00:00,-2.5,1014.5,0.3,94,-3.3,5000,7.408,,,360,,,,,,,,,,,og-post,,,,AAXX 20014 07181 32450 73604 11025 21033 39709 40145 50003 875// 333 84618 87643=
07181,1999-11-20 02:00:00,-2.8,1014.6,-0,96,-3.3,10000,3.704,,,300,,,,,,,,,,,og-post,,,,AAXX 20024 07181 32460 73002 11028 21033 39710 40146 54000 875// 333 82618 87643=
07181,1999-11-20 03:00:00,-2.9,1014.5,-0.2,96,-3.4,10000,3.704,,,330,,,,,,,,,,,og-post,,,,AAXX 20034 07181 32460 73302 11029 21034 39709 40145 56002 875// 333 82618 87643=
07181,1999-11-20 04:00:00,-2.9,1014.3,-0.2,97,-3.3,3000,3.704,,,320,,,,,,,,,,10,og-post,,,,AAXX 20044 07181 31230 73202 11029 21033 39707 40143 58002 71022 875// 333 86703 87643=
07181,1999-11-20 05:00:00,-2.5,1014,-0.5,98,-2.8,2000,3.704,,,310,,,,,,,,,,10,og-post,,,,AAXX 20054 07181 31120 73102 11025 21028 39705 40140 58005 71022 877// 333 87703=
07181,1999-11-20 06:00:00,-2.4,1014.2,-0.2,98,-2.7,2000,,,,,-3.2,-0.1,,,,,1.6,,-6,71,og-post,,5,,AAXX 20064 07181 /1220 70000 11024 21027 39707 40142 55002 69902 77172 877// 333 11001 21032 3/106 43005 55/// 69907 70016 87703 93101=
07181,1999-11-20 07:00:00,-2,1014.3,0.1,99,-2.1,500,3.704,,,330,,,0.2,,,,,,,71,og-post,,,,AAXX 20074 07181 21005 73302 11020 21021 39708 40143 53001 77177 877// 333 69925 87701=
07181,1999-11-20 08:00:00,-1.9,1014.3,0.4,99,-2,800,3.704,,,300,,,,,,,,,,71,og-post,,,,AAXX 20084 07181 21108 83002 11019 21020 39709 40143 51004 77177 877// 333 69905 87702=
07181,1999-11-20 09:00:00,-1.3,1014.4,0.3,99,-1.4,1200,7.408,,,30,,,,0.2,,,,,,28,og-post,,,,AAXX 20094 07181 21212 80304 11013 21014 39710 40144 52003 72874 877// 333 69927 87703=
07181,1999-11-20 10:00:00,-0.8,1014.7,0.6,98,-1.1,1800,7.408,,,30,,,,,,,,,,10,og-post,,,,AAXX 20104 07181 31218 80304 11008 21011 39714 40147 53006 71022 877// 333 87703=
07181,1999-11-20 11:00:00,-0.2,1014.5,0.4,95,-0.9,3500,7.408,,,60,,,,,,,,,,10,og-post,,,,AAXX 20114 07181 31235 80604 11002 21009 39713 40145 50004 71022 877// 333 87704=
07181,1999-11-20 12:00:00,-0.2,1014.4,0.2,92,-1.3,5000,7.408,,,100,,,,,0.2,,,,,1,og-post,,,,AAXX 20124 07181 11250 81004 11002 21013 39712 40144 50002 69921 70174 877// 333 85705 86708=
07181,1999-11-20 13:00:00,0,1014.6,-0,88,-1.7,6000,7.408,,,90,,,,,,,,,,,og-post,,,,AAXX 20134 07181 32256 80904 10000 21017 39714 40146 55000 885// 333 83706 84610 86636=
07181,1999-11-20 14:00:00,0.2,1014.6,0.2,86,-1.9,8000,7.408,,,40,,,,,,,,,,,og-post,,,,AAXX 20144 07181 32458 70404 10002 21019 39715 40146 53002 875// 333 84710 86640=
07181,1999-11-20 15:00:00,0,1015,0.6,88,-1.7,10000,7.408,,,60,,,,,,,,,,,og-post,,,,AAXX 20154 07181 32460 70604 10000 21017 39718 40150 53006 875// 333 83616 86640=
07181,1999-11-20 16:00:00,-1,1015.5,0.7,92,-2.1,10000,7.408,,,50,,,,,,,,,,,og-post,,,,AAXX 20164 07181 32460 70504 11010 21021 39721 40155 53007 85501 333 83612 84640 85075=
07181,1999-11-20 17:00:00,-2.2,1016.4,1.3,94,-3,10000,7.408,,,50,,,,,,,,,,,og-post,,,,AAXX 20174 07181 32460 40504 11022 21030 39728 40164 53013 83501 333 82612=
07181,1999-11-20 18:00:00,-1.7,1016.7,1.4,95,-2.4,10000,11.112,,,70,-2.4,0.3,,,,0.2,,,,,og-post,,4,,AAXX 20184 07181 12360 60706 11017 21024 39732 40167 53014 69922 85701 333 10003 21024 43004 85706=
07181,1999-11-20 19:00:00,-2.6,1016.9,1.1,96,-3.1,10000,3.704,,,30,,,,,,,,,,,og-post,,,,AAXX 20194 07181 32260 60302 11026 21031 39732 40169 51011 85701 333 83706 83631=
07181,1999-11-20 20:00:00,-3.7,1017,0.3,97,-4.1,5000,,,,,,,,,,,,,,,og-post,,,,AAXX 20204 07181 32250 40000 11037 21041 39731 40170 50003 84700 333 83706=
07181,1999-11-20 21:00:00,-4.2,1017.1,-0,98,-4.5,2500,7.408,,,60,,,,,,,,,,10,og-post,,,,AAXX 20214 07181 31225 50604 11042 21045 39732 40171 55000 71011 85700 333 85706=
07181,1999-11-20 22:00:00,-2.9,1016.9,-0,98,-3.2,2500,11.112,,,30,,,,,,,,,,10,og-post,,,,AAXX 20224 07181 31325 70306 11029 21032 39732 40169 55000 71022 877// 333 87707=
07181,1999-11-20 23:00:00,-2.3,1016.7,0,96,-2.8,10000,11.112,,,30,,,,,,,,,,,og-post,,,,AAXX 20234 07181 32460 70306 11023 21028 39731 40167 50000 877// 333 87710=
07181,1999-11-21 00:00:00,-3.1,1016.2,-0.7,95,-3.8,10000,11.112,,,30,,,,,,,,,,3,og-post,,,,AAXX 21004 07181 31360 70306 11031 21038 39725 40162 58007 70391 877// 333 87707=
07181,1999-11-21 01:00:00,-3.2,1016.2,-0.7,94,-4,8000,11.112,,,40,,,,,,,,,,,og-post,,,,AAXX 21014 07181 32358 70406 11032 21040 39725 40162 56007 83701 333 83707 85075=
07181,1999-11-21 02:00:00,-3.5,1016.4,-0.5,94,-4.3,10000,14.816,,,60,,,,,,,,,,,og-post,,,,AAXX 21024 07181 36/60 /0608 11035 21043 39726 40164 55005=
07181,1999-11-21 03:00:00,-4,1016,-0.4,93,-5,8000,14.816,,,40,,,,,,,,,,,og-post,,,,AAXX 21034 07181 32358 70408 11040 21050 39721 40160 58004 83701 333 83707 85075=
07181,1999-11-21 04:00:00,-4.2,1015.8,-0.6,92,-5.3,8000,7.408,,,20,,,,,,,,,,,og-post,,,,AAXX 21044 07181 32458 70204 11042 21053 39719 40158 58006 83701 333 83710 85075=
07181,1999-11-21 05:00:00,-2.6,1015.5,-0.7,95,-3.3,8000,18.52,,,40,,,,,,,,,,,og-post,,,,AAXX 21054 07181 32358 70410 11026 21033 39719 40155 56007 87700 333 87709=
07181,1999-11-21 06:00:00,-2.9,1015,-0.7,91,-4.2,8000,18.52,,,50,-4.7,-1.7,,,,,0.2,,-11,,og-post,,4,,AAXX 21064 07181 32358 70510 11029 21042 39714 40150 58007 84701 333 11017 21047 3/111 43004 55/// 70002 84709 84075=
07181,1999-11-21 07:00:00,-3.4,1015.2,-0.4,91,-4.7,8000,11.112,,,30,,,,,,,,,,,og-post,,,,AAXX 21074 07181 32358 50306 11034 21047 39715 40152 55004 83701 333 83709 83075=
07181,1999-11-21 08:00:00,-3.3,1015.5,-0.1,90,-4.7,10000,14.816,,,50,,,,,,,,,,,og-post,,,,AAXX 21084 07181 32460 50508 11033 21047 39718 40155 55001 83701 333 83713 83075=
07181,1999-11-21 09:00:00,-2.6,1015.4,0.4,85,-4.8,10000,18.52,,,50,,,,,,,,,,,og-post,,,,AAXX 21094 07181 32460 60510 11026 21048 39718 40154 51004 85701 333 86713 83075=
07181,1999-11-21 10:00:00,-1.9,1015.3,0.3,81,-4.7,10000,25.928,,,50,,,,,,,,,,,og-post,,,,AAXX 21104 07181 32460 70514 11019 21047 39718 40153 51003 86201 333 86815 83075=
07181,1999-11-21 11:00:00,-1.5,1014.7,-0.5,78,-4.8,15000,18.52,,,60,,,,,,,,,,,og-post,,,,AAXX 21114 07181 32465 70610 11015 21048 39713 40147 58005 872// 333 87818=
07181,1999-11-21 12:00:00,-0.9,1014,-1.1,74,-4.9,15000,25.928,,,50,,,,,,,,,,,og-post,,,,AAXX 21124 07181 32565 60514 11009 21049 39707 40140 58011 85201 333 85820 83075=
07181,1999-11-21 13:00:00,-0.5,1013.2,-1.8,70,-5.3,15000,18.52,,,40,,,,,,,,,,,og-post,,,,AAXX 21134 07181 32565 50410 11005 21053 39700 40132 58018 85200 333 85821=
07181,1999-11-21 14:00:00,-0.7,1013,-1.5,71,-5.3,20000,18.52,,,50,,,,,,,,,,,og-post,,,,AAXX 21144 07181 32570 40510 11007 21053 39698 40130 56015 84200 333 84823=
07181,1999-11-21 15:00:00,-1.3,1013.6,-0.4,75,-5.1,20000,18.52,,,50,,,,,,,,,,,og-post,,,,AAXX 21154 07181 32570 30510 11013 21051 39703 40136 55004 83200 333 83823=
07181,1999-11-21 16:00:00,-1.8,1014.1,0.7,78,-5.1,15000,18.52,,,40,,,,,,,,,,,og-post,,,,AAXX 21164 07181 32565 30410 11018 21051 39707 40141 53007 83200 333 83823=
07181,1999-11-21 17:00:00,-1.6,1014.7,1.5,79,-4.8,15000,14.816,,,40,,,,,,,,,,,og-post,,,,AAXX 21174 07181 32565 70408 11016 21048 39713 40147 53015 872// 333 87826=
07181,1999-11-21 18:00:00,-2.4,1014.9,1,80,-5.4,15000,7.408,,,30,-3.6,-0.4,,,,,,,,,og-post,,3,,AAXX 21184 07181 32565 60304 11024 21054 39713 40149 51010 86200 333 11004 21036 43003 86830=
07181,1999-11-21 19:00:00,-4.3,1015.2,0.6,84,-6.6,15000,7.408,,,30,,,,,,,,,,,og-post,,,,AAXX 21194 07181 32565 50304 11043 21066 39713 40152 51006 85800 333 83830 83640=
07181,1999-11-21 20:00:00,-4.3,1015.5,0.3,88,-6,15000,3.704,,,40,,,,,,,,,,,og-post,,,,AAXX 21204 07181 32565 60402 11043 21060 39716 40155 53003 86200 333 86830=
07181,1999-11-21 21:00:00,-3.2,1015.8,0.8,84,-5.5,15000,7.408,,,40,,,,,,,,,,,og-post,,,,AAXX 21214 07181 32565 70404 11032 21055 39721 40158 53008 872// 333 87826=
07181,1999-11-21 22:00:00,-2.8,1016,1,86,-4.8,10000,3.704,,,20,,,,,,,,,,,og-post,,,,AAXX 21224 07181 32560 70202 11028 21048 39723 40160 51010 872// 333 87826=
07181,1999-11-21 23:00:00,-3,1016.1,0.8,88,-4.7,11000,7.408,,,10,,,,,,,,,,,og-post,,,,AAXX 21234 07181 36/61 /0104 11030 21047 39724 40161 51008=
07181,1999-11-22 00:00:00,-3.1,1016.2,0.4,89,-4.6,10000,7.408,,,360,,,,,,,,,,,og-post,,,,AAXX 22004 07181 32560 73604 11031 21046 39725 40162 51004 872// 333 87826=
07181,1999-11-22 01:00:00,-3.2,1016,0,90,-4.6,9000,7.408,,,20,,,,,,,,,,,og-post,,,,AAXX 22014 07181 36/59 /0204 11032 21046 39723 40160 50000=
07181,1999-11-22 02:00:00,-3.5,1016.6,0.4,91,-4.8,9000,3.704,,,320,,,,,,,,,,,og-post,,,,AAXX 22024 07181 36/59 /3202 11035 21048 39728 40166 53004=
07181,1999-11-22 03:00:00,-3.5,1016.7,0.4,93,-4.5,7000,3.704,,,320,,,,,,,,,,,og-post,,,,AAXX 22034 07181 32557 73202 11035 21045 39729 40167 53004 872// 333 87830=
07181,1999-11-22 04:00:00,-3.8,1017,0.8,93,-4.8,7000,3.704,,,350,,,,,,,,,,,og-post,,,,AAXX 22044 07181 32557 73502 11038 21048 39731 40170 51008 872// 333 87830=
07181,1999-11-22 05:00:00,-4.7,1017.2,0.4,94,-5.5,4000,,,,,,,,,,,,,,10,og-post,,,,AAXX 22054 07181 31540 30000 11047 21055 39732 40172 52004 71011 83200 333 83830=
07181,1999-11-22 06:00:00,-5.3,1017.5,0.5,96,-5.8,3800,3.704,,,180,-5.3,-2.4,,,,,,,-13,,og-post,,,,AAXX 22064 07181 36/38 /1802 11053 21058 39734 40175 52005 333 11024 21053 3/113 55/// 70000=
07181,1999-11-22 07:00:00,-6.3,1018.3,0.9,95,-7,4000,7.408,,,230,,,,,,,,,,10,og-post,,,,AAXX 22074 07181 31540 42304 11063 21070 39740 40183 53009 71000 84500 333 84630=
07181,1999-11-22 08:00:00,-4.3,1018.7,1.5,96,-4.8,7000,7.408,,,210,,,,,,,,,,,og-post,,,,AAXX 22084 07181 32657 52104 11043 21048 39747 40187 53015 85500 333 84640=
07181,1999-11-22 09:00:00,-3.5,1018.9,1.6,90,-4.9,9000,11.112,,,230,,,,,,,,,,,og-post,,,,AAXX 22094 07181 32659 72306 11035 21049 39750 40189 51016 875// 333 87640=
07181,1999-11-22 10:00:00,-3,1019.4,1.5,84,-5.3,9000,11.112,,,230,,,,,,,,,,70,og-post,,,,AAXX 22104 07181 21659 72306 11030 21053 39755 40194 51015 77072 875// 333 69905 87636=
07181,1999-11-22 11:00:00,-2.6,1019.3,0.8,86,-4.6,7000,14.816,,,240,,,,,,,,,,70,og-post,,,,AAXX 22114 07181 21657 72408 11026 21046 39755 40193 51008 77077 875// 333 69905 87633=
07181,1999-11-22 12:00:00,-2.5,1019.2,0.4,89,-4.1,2500,14.816,,,240,,,,,,,,,,70,og-post,,,,AAXX 22124 07181 /1325 72408 11025 21041 39754 40192 50004 69901 77071 875// 333 69907 82707 87633=
07181,1999-11-22 13:00:00,-2,1019.5,0.3,87,-3.9,8000,14.816,,,240,,,,,,,,,,22,og-post,,,,AAXX 22134 07181 21558 72408 11020 21039 39758 40195 53003 72272 875// 333 69905 87625=
07181,1999-11-22 14:00:00,-1.7,1019,-0.1,84,-4,10000,18.52,,,230,,,,,,,,,,,og-post,,,,AAXX 22144 07181 32560 72310 11017 21040 39754 40190 58001 8553/ 333 85625 86360=
07181,1999-11-22 15:00:00,-1.6,1019.6,0.6,82,-4.3,11000,14.816,,,230,,,,,,,,,,1,og-post,,,,AAXX 22154 07181 21561 72308 11016 21043 39760 40196 53006 70172 8553/ 333 69907 85626 86360=
07181,1999-11-22 16:00:00,-1.7,1020,0.5,84,-4,10000,11.112,,,230,,,,,,,,,,,og-post,,,,AAXX 22164 07181 32560 72306 11017 21040 39763 40200 53005 8553/ 333 85625 86360=
07181,1999-11-22 17:00:00,-1.8,1020.6,1.5,84,-4.1,11000,14.816,,,220,,,,,,,,,,,og-post,,,,AAXX 22174 07181 32561 72208 11018 21041 39769 40206 52015 875// 333 87626=
07181,1999-11-22 19:00:00,-1.4,1021.3,1.3,83,-3.9,11000,14.816,,,220,,,,,,,,,,,og-post,,,,AAXX 22194 07181 32561 72208 11014 21039 39776 40213 51013 8257/ 333 82626 87356=
07181,1999-11-22 20:00:00,-1.2,1021.8,1.2,82,-3.9,11000,22.224,,,230,,,,,,,,,,,og-post,,,,AAXX 22204 07181 32561 72312 11012 21039 39781 40218 53012 8257/ 333 82626 87356=
07181,1999-11-22 21:00:00,-0.9,1022,1.3,81,-3.7,11000,25.928,,,220,,,,,,,,,,,og-post,,,,AAXX 22214 07181 32761 72214 11009 21037 39784 40220 51013 875// 333 87650=
07181,1999-11-22 22:00:00,-1.2,1022.4,1.1,88,-2.9,2500,25.928,,,220,,,,,,,,,,70,og-post,,,,AAXX 22224 07181 21425 72214 11012 21029 39787 40224 51011 77072 875// 333 69905 84613 86630=
07181,1999-11-22 23:00:00,-1.6,1022.7,0.8,95,-2.3,2500,25.928,,,220,,,,,,,,,,70,og-post,,,,AAXX 22234 07181 21225 72214 11016 21023 39789 40227 51008 77077 875// 333 69905 84706 87630 93101=
07181,1999-11-23 00:00:00,-1.3,1022.4,0.3,93,-2.3,2500,25.928,,,220,,,,0.4,0.4,,,,,70,og-post,,,,AAXX 23004 07181 /1225 72214 11013 21023 39787 40224 50003 69941 77072 875// 333 69947 84706 87630=
07181,1999-11-23 01:00:00,-1.2,1022.4,0,95,-1.9,2500,25.928,,,210,,,,,,,,,,70,og-post,,,,AAXX 23014 07181 21225 72114 11012 21019 39787 40224 50000 77077 875// 333 69905 84706 87613=
07181,1999-11-23 02:00:00,-1.1,1022.6,-0,95,-1.8,2500,22.224,,,220,,,,,,,,,,70,og-post,,,,AAXX 23024 07181 21225 72212 11011 21018 39789 40226 55000 77077 877// 333 69905 87705=
07181,1999-11-23 03:00:00,-1.1,1022.8,0.4,96,-1.7,4800,25.928,,,230,,,,,,,,,,,og-post,,,,AAXX 23034 07181 26/48 /2314 11011 21017 39791 40228 53004 333 69907=
07181,1999-11-23 04:00:00,-1.2,1022.9,0.5,97,-1.6,1900,25.928,,,220,,,0.2,,,,,,,,og-post,,,,AAXX 23044 07181 26/19 /2214 11012 21016 39792 40229 51005 333 69925=
07181,1999-11-23 05:00:00,-0.8,1023,0.5,97,-1.2,3000,18.52,,,230,,,,,,,,,,70,og-post,,,,AAXX 23054 07181 21230 72310 11008 21012 39794 40230 52005 77077 877// 333 69905 87705=
07181,1999-11-23 06:00:00,-0.4,1023.5,0.8,97,-0.8,3000,18.52,,,230,-1.7,-0.2,,1,,2,1.6,,-2,56,og-post,,4,,AAXX 23064 07181 /1230 72310 11004 21008 39799 40235 53008 60022 75675 877// 333 11002 21017 3/102 43004 55/// 60017 70016 87704=
07181,1999-11-23 07:00:00,-0.3,1023.9,1.1,98,-0.6,6000,14.816,,,240,,,,,,,,,,,og-post,,,,AAXX 23074 07181 26/56 /2408 11003 21006 39803 40239 53011 333 69905=
07181,1999-11-23 08:00:00,-0.2,1024.5,1.5,99,-0.3,800,14.816,,,220,,,,,,,,,,46,og-post,,,,AAXX 23084 07181 31108 82208 11002 21003 39809 40245 53015 74642 877// 333 87702=
07181,1999-11-23 09:00:00,0,1024.8,1.3,99,-0.1,400,14.816,,,230,,,,,,,,,,47,og-post,,,,AAXX 23094 07181 21/04 92308 10000 21001 39812 40248 51013 74754 333 69907=
07181,1999-11-23 10:00:00,0.2,1025.4,1.5,99,0.1,500,14.816,,,230,,,,,,,,,,42,og-post,,,,AAXX 23104 07181 31105 82308 10002 20001 39818 40254 52015 74244 877// 333 87701=
07181,1999-11-23 11:00:00,0.3,1025.6,1.1,99,0.2,300,14.816,,,220,,,,,,,,,,,og-post,,,,AAXX 23114 07181 36/03 /2208 10003 20002 39820 40256 51011=
07181,1999-11-23 12:00:00,0.5,1025.3,0.6,99,0.4,300,14.816,,,220,,,,,,,,,,47,og-post,,,,AAXX 23124 07181 11/03 92208 10005 20004 39818 40253 50006 69901 74754=
07181,1999-11-23 13:00:00,0.5,1025.4,0.1,99,0.4,800,14.816,,,220,,,,,,,,,,,og-post,,,,AAXX 23134 07181 36/08 /2208 10005 20004 39819 40254 51001=
07181,1999-11-23 14:00:00,0.7,1025.4,-0.1,99,0.6,600,14.816,,,220,,,,,,,,,,,og-post,,,,AAXX 23144 07181 36/06 /2208 10007 20006 39819 40254 56001=
07181,1999-11-23 15:00:00,0.7,1025.6,0.3,99,0.6,800,14.816,,,220,,,,,,,,,,42,og-post,,,,AAXX 23154 07181 31108 82208 10007 20006 39821 40256 53003 74244 877// 333 87702=
07181,1999-11-23 16:00:00,0.6,1026.3,0.8,99,0.5,400,14.816,,,200,,,,,,,,,,46,og-post,,,,AAXX 23164 07181 31104 82008 10006 20005 39827 40263 53008 74644 877// 333 87702=
07181,1999-11-23 17:00:00,0.7,1026.8,1.3,99,0.6,500,14.816,,,200,,,,,,,,,,,og-post,,,,AAXX 23174 07181 36/05 /2008 10007 20006 39832 40268 53013=
07181,1999-11-23 18:00:00,0.5,1027.1,1.4,99,0.4,900,14.816,,,210,-0.4,0.7,,,,,,,,42,og-post,,2,,AAXX 23184 07181 11109 82108 10005 20004 39835 40271 51014 69902 74244 877// 333 10007 21004 44002 87702=
07181,1999-11-23 19:00:00,0.5,1027.4,1.1,100,0.5,800,11.112,,,200,,,,,,,,,,46,og-post,,,,AAXX 23194 07181 31108 82006 10005 20005 39838 40274 51011 74644 877// 333 87703=
07181,1999-11-23 20:00:00,0.4,1027.6,0.8,100,0.4,800,14.816,,,210,,,,,,,,,,44,og-post,,,,AAXX 23204 07181 31108 82108 10004 20004 39840 40276 51008 74444 877// 333 87702=
07181,1999-11-23 21:00:00,0.3,1028.2,1,99,0.2,800,11.112,,,210,,,,,,,,,,44,og-post,,,,AAXX 23214 07181 31108 82106 10003 20002 39845 40282 53010 74444 877// 333 87702=
07181,1999-11-23 22:00:00,0.2,1028.4,0.9,99,0.1,3500,11.112,,,230,,,,,,,,,,,og-post,,,,AAXX 23224 07181 36/35 /2306 10002 20001 39847 40284 52009=
07181,1999-11-23 23:00:00,0.3,1028.5,0.8,99,0.2,4300,11.112,,,200,,,,,,,,,,,og-post,,,,AAXX 23234 07181 36/43 /2006 10003 20002 39848 40285 51008=
07181,1999-11-24 00:00:00,0.4,1028.5,0.3,99,0.3,300,7.408,,,210,,,,,,,,,,47,og-post,,,,AAXX 24004 07181 31/03 92104 10004 20003 39848 40285 51003 74742=
07181,1999-11-24 01:00:00,0.7,1028.2,-0.1,100,0.7,300,7.408,,,190,,,,,,,,,,,og-post,,,,AAXX 24014 07181 36/03 /1904 10007 20007 39846 40282 58001=
07181,1999-11-24 02:00:00,0.7,1028.6,0.2,99,0.6,200,3.704,,,200,,,,,,,,,,45,og-post,,,,AAXX 24024 07181 31/02 92002 10007 20006 39850 40286 53002 74544=
07181,1999-11-24 03:00:00,0.7,1028.8,0.4,99,0.6,200,7.408,,,180,,,,,,,,,,45,og-post,,,,AAXX 24034 07181 31/02 91804 10007 20006 39852 40288 53004 74544=
07181,1999-11-24 04:00:00,0.7,1028.7,0.5,100,0.7,300,7.408,,,160,,,,,,,,,,,og-post,,,,AAXX 24044 07181 36/03 /1604 10007 20007 39851 40287 50005=
07181,1999-11-24 05:00:00,0.7,1029.1,0.4,100,0.7,700,7.408,,,170,,,,,,,,,,,og-post,,,,AAXX 24054 07181 36/07 /1704 10007 20007 39854 40291 53004=
07181,1999-11-24 06:00:00,0.8,1029.3,0.5,100,0.8,200,7.408,,,210,0.1,0.9,,,,,0,,0,46,og-post,,2,,AAXX 24064 07181 31102 82104 10008 20008 39857 40293 53005 74644 877// 333 10009 20001 3/000 42002 55/// 79999 87702=
07181,1999-11-24 07:00:00,1.2,1029.8,1.1,100,1.2,500,7.408,,,190,,,,,,,,,,42,og-post,,,,AAXX 24074 07181 31005 81904 10012 20012 39862 40298 53011 74244 877// 333 87701=
07181,1999-11-24 08:00:00,1.1,1030.2,1.2,100,1.1,800,3.704,,,190,,,,,,,,,,42,og-post,,,,AAXX 24084 07181 31008 81902 10011 20011 39866 40302 53012 74244 877// 333 87701=
07181,1999-11-24 09:00:00,1.3,1030.8,1.5,100,1.3,500,7.408,,,150,,,,,,,,,,46,og-post,,,,AAXX 24094 07181 31005 81504 10013 20013 39872 40308 53015 74644 877// 333 87701=
07181,1999-11-24 10:00:00,1.7,1031.3,1.5,100,1.7,400,3.704,,,160,,,,,,,,,,46,og-post,,,,AAXX 24104 07181 31004 81602 10017 20017 39877 40313 53015 74644 887// 333 88701=
07181,1999-11-24 11:00:00,2.1,1031,0.9,100,2.1,400,3.704,,,170,,,,,,,,,,44,og-post,,,,AAXX 24114 07181 31004 81702 10021 20021 39875 40310 50009 74444 887// 333 88701=
07181,1999-11-24 12:00:00,2.7,1030.9,0.3,100,2.7,600,11.112,,,210,,,,,,,,,,42,og-post,,,,AAXX 24124 07181 31106 82106 10027 20027 39875 40309 51003 74244 887// 333 88702=
07181,1999-11-24 13:00:00,3.2,1030.5,-0.5,100,3.2,1000,7.408,,,220,,,,,,,,,,28,og-post,,,,AAXX 24134 07181 31110 82204 10032 20032 39872 40305 58005 72842 887// 333 88703=
07181,1999-11-24 14:00:00,3.4,1030.6,-0.2,99,3.3,3000,7.408,,,210,,,,,,,,,,10,og-post,,,,AAXX 24144 07181 31130 82104 10034 20033 39873 40306 55002 71022 885// 333 84703 88605=
07181,1999-11-24 15:00:00,3.5,1031,0.2,99,3.4,4000,7.408,,,200,,,,,,,,,,10,og-post,,,,AAXX 24154 07181 31140 82004 10035 20034 39877 40310 53002 71042 885// 333 83702 88604=
07181,1999-11-24 16:00:00,3.3,1031.3,0.8,100,3.3,1500,3.704,,,150,,,,,,,,,,10,og-post,,,,AAXX 24164 07181 31215 81502 10033 20033 39880 40313 53008 71022 887// 333 88703=
07181,1999-11-24 17:00:00,3,1031.7,1,100,3,1500,7.408,,,160,,,,,,,,,,10,og-post,,,,AAXX 24174 07181 31115 81604 10030 20030 39883 40317 51010 71022 887// 333 88701=
07181,1999-11-24 18:00:00,3,1031.9,0.8,99,2.9,600,7.408,,,160,0.8,3.5,,,,,,,,44,og-post,,,,AAXX 24184 07181 31106 81604 10030 20029 39885 40319 51008 74442 887// 333 10035 20008 88702=
07181,1999-11-24 19:00:00,3,1032,0.6,99,2.9,200,7.408,,,170,,,,,,,,,,47,og-post,,,,AAXX 24194 07181 31/02 91704 10030 20029 39886 40320 51006 74744=
07181,1999-11-24 20:00:00,3,1032,0.3,100,3,200,3.704,,,190,,,,,,,,,,45,og-post,,,,AAXX 24204 07181 31/02 91902 10030 20030 39886 40320 51003 74544=
07181,1999-11-24 21:00:00,3.2,1032.3,0.4,100,3.2,300,7.408,,,210,,,,,,,,,,43,og-post,,,,AAXX 24214 07181 31/03 92104 10032 20032 39889 40323 53004 74344=
07181,1999-11-24 22:00:00,3.2,1032.5,0.5,100,3.2,300,7.408,,,180,,,,,,,,,,45,og-post,,,,AAXX 24224 07181 31/03 91804 10032 20032 39891 40325 53005 74544=
07181,1999-11-24 23:00:00,3.3,1032.6,0.6,99,3.2,200,3.704,,,190,,,,,,,,,,47,og-post,,,,AAXX 24234 07181 31/02 91902 10033 20032 39892 40326 51006 74744=
07181,1999-11-25 00:00:00,3.3,1032.7,0.4,100,3.3,200,3.704,,,190,,,,,,,,,,45,og-post,,,,AAXX 25004 07181 31/02 91902 10033 20033 39893 40327 51004 74544=
07181,1999-11-25 01:00:00,3.3,1032.7,0.2,100,3.3,200,3.704,,,180,,,,,,,,,,47,og-post,,,,AAXX 25014 07181 31/02 91802 10033 20033 39893 40327 51002 74744=
07181,1999-11-25 02:00:00,3.5,1032.5,0,99,3.4,900,7.408,,,220,,,,,,,,,,47,og-post,,,,AAXX 25024 07181 31/09 92204 10035 20034 39892 40325 50000 74744=
07181,1999-11-25 03:00:00,3.5,1032.5,-0.1,100,3.5,700,7.408,,,200,,,,,,,,,,47,og-post,,,,AAXX 25034 07181 31/07 92004 10035 20035 39892 40325 57001 74744=
07181,1999-11-25 04:00:00,3.5,1032.5,-0.1,100,3.5,500,7.408,,,220,,,,,,,,,,47,og-post,,,,AAXX 25044 07181 31/05 92204 10035 20035 39892 40325 56001 74744=
07181,1999-11-25 05:00:00,3.5,1032.5,-0,100,3.5,300,7.408,,,230,,,,,,,,,,47,og-post,,,,AAXX 25054 07181 31/03 92304 10035 20035 39892 40325 54000 74744=
07181,1999-11-25 06:00:00,3.5,1032.9,0.3,100,3.5,300,3.704,,,220,2.9,3.6,,,,,0,,3,44,og-post,,,,AAXX 25064 07181 31203 82202 10035 20035 39895 40329 53003 74444 887// 333 10036 20029 31003 55/// 70000 83703 87705=
07181,1999-11-25 07:00:00,3.9,1033.4,0.9,99,3.8,500,3.704,,,200,,,,,,,,,,42,og-post,,,,AAXX 25074 07181 31105 82002 10039 20038 39901 40334 53009 74244 877// 333 83701 86703=
07181,1999-11-25 08:00:00,4.2,1033.8,1.3,99,4.1,900,7.408,,,220,,,,,,,,,,42,og-post,,,,AAXX 25084 07181 31109 82204 10042 20041 39905 40338 53013 74244 887// 333 86701 86703=
07181,1999-11-25 09:00:00,4.2,1034.1,1.3,100,4.2,500,11.112,,,240,,,,,,,,,,46,og-post,,,,AAXX 25094 07181 31105 82406 10042 20042 39908 40341 51013 74644 887// 333 86701 86704=
07181,1999-11-25 10:00:00,4,1034.5,1.1,100,4,500,11.112,,,230,,,,,,,,,,44,og-post,,,,AAXX 25104 07181 31105 82306 10040 20040 39912 40345 52011 74444 887// 333 86701 86704=
07181,1999-11-25 11:00:00,4.3,1034.4,0.6,100,4.3,500,11.112,,,240,,,,,,,,,,42,og-post,,,,AAXX 25114 07181 31105 82406 10043 20043 39911 40344 50006 74244 887// 333 86701 86704=
07181,1999-11-25 12:00:00,4.4,1034.2,0.1,100,4.4,900,7.408,,,260,,,,,,,,,,42,og-post,,,,AAXX 25124 07181 31109 82604 10044 20044 39909 40342 50001 74244 887// 333 86701 86704=
07181,1999-11-25 13:00:00,4.6,1034,-0.4,100,4.6,2500,7.408,,,240,,,,,,,,,,28,og-post,,,,AAXX 25134 07181 31125 82404 10046 20046 39908 40340 57004 72842 877// 333 87701=
07181,1999-11-25 14:00:00,4.4,1033.9,-0.5,100,4.4,3500,11.112,,,210,,,,,,,,,,10,og-post,,,,AAXX 25144 07181 31135 82106 10044 20044 39906 40339 57005 71022 877// 333 87702=
07181,1999-11-25 15:00:00,4.4,1034,-0.2,100,4.4,2500,14.816,,,200,,,,,,,,,,10,og-post,,,,AAXX 25154 07181 31125 82008 10044 20044 39907 40340 55002 71042 877// 333 87702=
07181,1999-11-25 16:00:00,4.2,1034.2,0.1,100,4.2,800,11.112,,,200,,,,,,,,,,46,og-post,,,,AAXX 25164 07181 31108 82006 10042 20042 39909 40342 53001 74642 877// 333 87701=
07181,1999-11-25 17:00:00,3.9,1034.1,0.2,100,3.9,800,11.112,,,180,,,,,,,,,,46,og-post,,,,AAXX 25174 07181 31108 81806 10039 20039 39908 40341 50002 74644 877// 333 87701=
07181,1999-11-25 18:00:00,3.8,1034.7,0.6,100,3.8,800,11.112,,,220,3.5,4.7,,,,,,,,44,og-post,,,,AAXX 25184 07181 31108 82206 10038 20038 39913 40347 53006 74442 877// 333 10047 20035 87701=
07181,1999-11-25 19:00:00,3.4,1034.9,0.5,100,3.4,800,14.816,,,230,,,,,,,,,,44,og-post,,,,AAXX 25194 07181 31108 82308 10034 20034 39914 40349 53005 74444 877// 333 8771=
07181,1999-11-25 20:00:00,3.3,1035.1,0.8,100,3.3,500,11.112,,,230,,,,,,,,,,46,og-post,,,,AAXX 25204 07181 31105 82306 10033 20033 39916 40351 51008 74644 877// 333 87701=
07181,1999-11-25 21:00:00,3,1034.9,0.1,100,3,500,11.112,,,200,,,,,,,,,,44,og-post,,,,AAXX 25214 07181 31005 82006 10030 20030 39914 40349 50001 74444 887// 333 88701=
07181,1999-11-25 22:00:00,2.9,1035,0.1,100,2.9,500,11.112,,,230,,,,,,,,,,44,og-post,,,,AAXX 25224 07181 31005 82306 10029 20029 39915 40350 51001 74444 887// 333 88701=
07181,1999-11-25 23:00:00,2.7,1034.7,-0.5,100,2.7,500,14.816,,,210,,,,,,,,,,44,og-post,,,,AAXX 25234 07181 31005 82108 10027 20027 39911 40347 58005 74444 887// 333 88701=
07181,1999-11-26 00:00:00,2.4,1034.5,-0.5,100,2.4,500,11.112,,,190,,,,,,,,,,44,og-post,,,,AAXX 26004 07181 31005 81906 10024 20024 39909 40345 58005 74444 887// 333 88701=
07181,1999-11-26 01:00:00,2.2,1034.5,-0.6,100,2.2,500,11.112,,,230,,,,,,,,,,44,og-post,,,,AAXX 26014 07181 31005 82306 10022 20022 39909 40345 56006 74444 887// 333 88701=
07181,1999-11-26 02:00:00,1.8,1034.2,-0.6,100,1.8,500,11.112,,,210,,,,,,,,,,44,og-post,,,,AAXX 26024 07181 31005 82106 10018 20018 39905 40342 58006 74444 887// 333 88701=
07181,1999-11-26 03:00:00,1.5,1033.7,-0.9,100,1.5,500,7.408,,,200,,,,,,,,,,44,og-post,,,,AAXX 26034 07181 31005 82004 10015 20015 39900 40337 58009 74444 887// 333 88701=
07181,1999-11-26 04:00:00,1.3,1033.4,-1.2,100,1.3,500,3.704,,,250,,,,,,,,,,44,og-post,,,,AAXX 26044 07181 31005 82502 10013 20013 39897 40334 56012 74444 887// 333 88701=
07181,1999-11-26 05:00:00,0.6,1033.1,-1.2,100,0.6,100,7.408,,,150,,,,,,,,,,46,og-post,,,,AAXX 26054 07181 31001 81504 10006 20006 39893 40331 56012 74644 887// 333 88701=
07181,1999-11-26 06:00:00,0.2,1032.8,-1.1,100,0.2,500,7.408,,,150,0.2,3.8,,,,,,,1,47,og-post,,,,AAXX 26064 07181 31/00 91504 10002 20002 39889 40328 58011 74744 333 10038 20002 31001 55/// 70000=
07181,1999-11-26 07:00:00,-0.3,1032.7,-1,100,-0.3,100,11.112,,,160,,,,,,,,,,43,og-post,,,,AAXX 26074 07181 31/01 91606 11003 21003 39887 40327 56010 74344=
07181,1999-11-26 08:00:00,-0.4,1032.9,-0.4,100,-0.4,200,7.408,,,150,,,,,,,,,,45,og-post,,,,AAXX 26084 07181 31/02 91504 11004 21004 39889 40329 55004 74544=
07181,1999-11-26 09:00:00,-0.4,1032.5,-0.4,100,-0.4,400,11.112,,,160,,,,,,,,,,42,og-post,,,,AAXX 26094 07181 31004 81606 11004 21004 39885 40325 58004 74244 887// 333 88701=
07181,1999-11-26 10:00:00,0.5,1032.1,-0.4,100,0.5,6000,7.408,,,150,,,,,,,,,,,og-post,,,,AAXX 26104 07181 36/56 /1504 10005 20005 39883 40321 58004=
07181,1999-11-26 11:00:00,3.7,1030.3,-1.8,99,3.6,15000,11.112,,,150,,,,,,,,,,,og-post,,,,AAXX 26114 07181 32265 11506 10037 20036 39871 40303 58018 81701 333 81705=
07181,1999-11-26 12:00:00,6,1029.2,-2.1,73,1.5,20000,11.112,,,150,,,,,,,,,,1,og-post,,,,AAXX 26124 07181 31970 21506 10060 20015 39864 40292 58021 70141 80001 333 82075=
07181,1999-11-26 13:00:00,6.4,1028.3,-2.8,66,0.5,25000,14.816,,,150,,,,,,,,,,,og-post,,,,AAXX 26134 07181 32975 21508 10064 20005 39855 40283 56028 80001 333 82075=
07181,1999-11-26 14:00:00,6,1027.9,-2,66,0.1,25000,18.52,,,170,,,,,,,,,,,og-post,,,,AAXX 26144 07181 32975 21710 10060 20001 39851 40279 56020 80001 333 82075=
07181,1999-11-26 15:00:00,4,1028,-1.5,73,-0.4,25000,18.52,,,170,,,,,,,,,,,og-post,,,,AAXX 26154 07181 32975 21710 10040 21004 39849 40280 56015 80001 333 82075=
07181,1999-11-26 16:00:00,2.2,1028.3,-0.6,83,-0.4,25000,14.816,,,190,,,,,,,,,,,og-post,,,,AAXX 26164 07181 32975 21908 10022 21004 39849 40283 56006 80001 333 82075=
07181,1999-11-26 17:00:00,0.7,1028.4,-0.3,90,-0.7,10000,11.112,,,180,,,,,,,,,,,og-post,,,,AAXX 26174 07181 32960 21806 10007 21007 39848 40284 56003 80001 333 82075=
07181,1999-11-26 18:00:00,0.3,1028.6,-0,93,-0.7,8000,11.112,,,180,-0.6,6.6,,,,,,,,,og-post,,,,AAXX 26184 07181 32958 21806 10003 21007 39849 40286 55000 80001 333 10066 21006 82075=
07181,1999-11-26 19:00:00,1.2,1028.7,0.2,89,-0.4,8000,22.224,,,190,,,,,,,,,,,og-post,,,,AAXX 26194 07181 32958 21912 10012 21004 39851 40287 53002 80001 333 82075=
07181,1999-11-26 20:00:00,1.8,1028.6,0.3,88,0,8000,18.52,,,190,,,,,,,,,,,og-post,,,,AAXX 26204 07181 32958 21910 10018 20000 39851 40286 51003 80001 333 82075=
07181,1999-11-26 21:00:00,2,1028.5,0.2,89,0.4,8000,18.52,,,180,,,,,,,,,,,og-post,,,,AAXX 26214 07181 32958 21810 10020 20004 39851 40285 51002 80001 333 82075=
07181,1999-11-26 22:00:00,1.7,1028.5,-0.1,91,0.4,8000,18.52,,,170,,,,,,,,,,,og-post,,,,AAXX 26224 07181 32958 21710 10017 20004 39850 40285 58001 80001 333 82075=
07181,1999-11-26 23:00:00,1.7,1028.3,-0.3,90,0.2,8000,14.816,,,160,,,,,,,,,,,og-post,,,,AAXX 26234 07181 36/58 /1608 10017 20002 39848 40283 58003=
07181,1999-11-27 00:00:00,1.9,1028.1,-0.4,91,0.6,9000,14.816,,,160,,,,,,,,,,,og-post,,,,AAXX 27004 07181 36/59 /1608 10019 20006 39847 40281 57004=
07181,1999-11-27 01:00:00,1.6,1028,-0.5,91,0.3,7000,14.816,,,160,,,,,,,,,,,og-post,,,,AAXX 27014 07181 32957 21608 10016 20003 39845 40280 57005 80001 333 82075=
07181,1999-11-27 02:00:00,1.6,1027.9,-0.4,91,0.3,6000,7.408,,,150,,,,,,,,,,,og-post,,,,AAXX 27024 07181 32956 21504 10016 20003 39844 40279 57004 80001 333 82075=
07181,1999-11-27 04:00:00,3.8,1027.3,-0.3,79,0.5,6000,25.928,,,190,,,,,,,,,,,og-post,,,,AAXX 27044 07181 32956 21914 10038 20005 39842 40273 57003 80001 333 82075=
07181,1999-11-27 05:00:00,3.7,1027.3,-0.2,80,0.6,7000,18.52,,,200,,,,,,,,,,,og-post,,,,AAXX 27054 07181 32957 22010 10037 20006 39842 40273 56002 80001 333 82075=
07181,1999-11-27 06:00:00,3.3,1027.5,-0,82,0.5,7000,18.52,,,190,0.4,4,,,,,0,,-1,,og-post,,,,AAXX 27064 07181 32957 61910 10033 20005 39843 40275 55000 83031 333 10040 20004 31101 55/// 70000 83359 86075=
07181,1999-11-27 07:00:00,3.5,1028.1,0.7,82,0.7,8000,18.52,,,190,,,,,,,,,,,og-post,,,,AAXX 27074 07181 32658 71910 10035 20007 39849 40281 53007 875// 333 87636=
07181,1999-11-27 08:00:00,5.3,1027.8,0.7,78,1.8,9000,31.484,,,200,,,,,,,,,,,og-post,,,,AAXX 27084 07181 32659 72017 10053 20018 39849 40278 51007 875// 333 87636=
07181,1999-11-27 09:00:00,6.2,1028.1,1,76,2.3,9000,29.632,,,210,,,,,,,,,,,og-post,,,,AAXX 27094 07181 32659 72116 10062 20023 39853 40281 51010 875// 333 87640=
07181,1999-11-27 10:00:00,6.3,1028.5,0.8,76,2.4,9000,25.928,,,200,,,,,,,,,,,og-post,,,,AAXX 27104 07181 32659 72014 10063 20024 39857 40285 53008 875// 333 87640=
07181,1999-11-27 11:00:00,5.8,1028.7,1,86,3.6,6000,22.224,,,200,,,0.2,,,,,,,60,og-post,,,,AAXX 27114 07181 21656 72012 10058 20036 39859 40287 51010 76062 875// 333 69925 87636=
07181,1999-11-27 12:00:00,5.7,1028.7,0.6,89,4,6000,29.632,,,200,,,,0.6,0.6,,,,,60,og-post,,,,AAXX 27124 07181 /1556 72016 10057 20040 39859 40287 51006 69961 76062 875// 333 69967 87625=
07181,1999-11-27 13:00:00,5.6,1029.1,0.5,93,4.6,6000,25.928,,,210,,,,,,,,,,60,og-post,,,,AAXX 27134 07181 21556 72114 10056 20046 39862 40291 53005 76066 875// 333 69905 87620=
07181,1999-11-29 14:00:00,10.6,1026.5,-0.2,57,2.4,20000,11.112,,,150,,,,,,,,,,,og-post,,,,AAXX 29144 07181 32970 71506 10106 20024 39845 40265 58002 80002 333 87073=
07181,1999-11-29 15:00:00,8.9,1027.1,-0,63,2.3,20000,14.816,,,160,,,,,,,,,,,og-post,,,,AAXX 29154 07181 32970 71608 10089 20023 39848 40271 55000 80002 333 87073=
07181,1999-11-29 16:00:00,6.6,1027.7,0.4,71,1.7,18000,11.112,,,150,,,,,,,,,,,og-post,,,,AAXX 29164 07181 32968 71506 10066 20017 39850 40277 53004 80002 333 87073=
07181,1999-11-29 17:00:00,5.8,1028.7,1.3,73,1.3,18000,11.112,,,160,,,,,,,,,,,og-post,,,,AAXX 29174 07181 32968 71606 10058 20013 39858 40287 53013 80002 333 87073=
07181,1999-11-29 18:00:00,4.6,1029.4,1.5,78,1.1,14000,11.112,,,160,4.6,11.7,,,,,,,,,og-post,,,,AAXX 29184 07181 36/64 /1606 10046 20011 39863 40294 53015 333 10117 20046=
07181,1999-11-29 19:00:00,4.8,1029.9,1.8,77,1.1,18000,14.816,,,160,,,,,,,,,,,og-post,,,,AAXX 29194 07181 32968 51608 10048 20011 39868 40299 51018 80002 333 85073=
07181,1999-11-29 20:00:00,2.8,1030.8,1.6,77,-0.8,18000,3.704,,,190,,,,,,,,,,,og-post,,,,AAXX 29204 07181 32968 41902 10028 21008 39874 40308 53016 80002 333 84073=
07181,1999-11-29 21:00:00,4.3,1030.5,1,81,1.3,18000,11.112,,,180,,,,,,,,,,,og-post,,,,AAXX 29214 07181 32968 31806 10043 20013 39873 40305 50010 80001 333 83073=
07181,1999-11-29 22:00:00,4.7,1030.2,0.3,77,1,18000,3.704,,,180,,,,,,,,,,,og-post,,,,AAXX 29224 07181 32968 31802 10047 20010 39871 40302 50003 80001 333 83073=
07181,1999-11-29 23:00:00,3.7,1031,0.3,82,0.9,18000,11.112,,,200,,,,,,,,,,,og-post,,,,AAXX 29234 07181 32968 32006 10037 20009 39877 40310 53003 80001 333 83073=
07181,1999-11-30 00:00:00,3.3,1031.5,0.8,82,0.5,15000,3.704,,,240,,,,,,,,,,,og-post,,,,AAXX 30004 07181 36/65 /2402 10033 20005 39881 40315 53008=
07181,1999-11-30 01:00:00,2.9,1031.6,1.1,88,1.1,11000,7.408,,,190,,,,,,,,,,,og-post,,,,AAXX 30014 07181 36/61 /1904 10029 20011 39882 40316 51011=
07181,1999-11-30 02:00:00,3.9,1031.2,0.3,84,1.4,13000,11.112,,,170,,,,,,,,,,,og-post,,,,AAXX 30024 07181 36/63 /1706 10039 20014 39880 40312 50003=
07181,1999-11-30 03:00:00,3.1,1031.1,-0.4,86,1,12000,11.112,,,150,,,,,,,,,,,og-post,,,,AAXX 30034 07181 36/62 /1506 10031 20010 39877 40311 58004=
07181,1999-11-30 04:00:00,2.4,1031.3,-0.4,86,0.3,10000,7.408,,,170,,,,,,,,,,,og-post,,,,AAXX 30044 07181 36/60 /1704 10024 20003 39878 40313 55004=
07181,1999-11-30 07:00:00,0.9,1032.2,0.6,94,0,8000,11.112,,,160,,,,,,,,,,40,og-post,,,,AAXX 30074 07181 31958 31606 10009 20000 39884 40322 51006 74000 81031 333 81360 83075=
07181,1999-11-30 08:00:00,1.9,1032.3,0.6,89,0.3,9000,14.816,,,170,,,,,,,,,,,og-post,,,,AAXX 30084 07181 32959 31708 10019 20003 39887 40323 52006 81031 333 81360 83075=
07181,1999-11-30 09:00:00,4.8,1031.8,0.3,76,0.9,11000,7.408,,,190,,,,,,,,,,,og-post,,,,AAXX 30094 07181 32961 31904 10048 20009 39887 40318 52003 81031 333 81360 83075=
07181,1999-11-30 10:00:00,7.6,1031.3,0.2,66,1.7,12000,7.408,,,220,,,,,,,,,,,og-post,,,,AAXX 30104 07181 32962 32204 10076 20017 39886 40313 50002 81031 333 81360 83075=
07181,1999-11-30 11:00:00,8.7,1030.6,-0.6,64,2.3,15000,11.112,,,210,,,,,,,,,,,og-post,,,,AAXX 30114 07181 32965 32106 10087 20023 39881 40306 58006 81031 333 81360 83075=
07181,1999-11-30 12:00:00,10.3,1029.8,-1.1,62,3.3,15000,11.112,,,220,,,,,,,,,,,og-post,,,,AAXX 30124 07181 32965 32206 10103 20033 39876 40298 58011 81031 333 81360 83075=
07181,1999-11-30 16:00:00,7.5,1028.8,-0.8,73,3,15000,14.816,,,210,,,,,,,,,,,og-post,,,,AAXX 30164 07181 32965 42108 10075 20030 39862 40288 56008 81031 333 81360 84075=
07181,1999-11-30 17:00:00,6.9,1028.8,-0.5,73,2.4,15000,14.816,,,190,,,,,,,,,,,og-post,,,,AAXX 30174 07181 32965 41908 10069 20024 39861 40288 57005 81031 333 81360 84075=
07181,1999-11-30 18:00:00,6.5,1029,-0.3,72,1.8,15000,22.224,,,210,0,10.8,,,,,,,,,og-post,,,,AAXX 30184 07181 32965 42112 10065 20018 39862 40290 55003 81031 333 10108 20000 81360 84075=
07181,1999-11-30 20:00:00,5.2,1028.8,-0.2,77,1.5,11000,7.408,,,240,,,,,,,,,,,og-post,,,,AAXX 30204 07181 32961 42404 10052 20015 39859 40288 58002 81031 333 81360 84075=
07181,1999-11-30 21:00:00,5,1029,-0.2,79,1.7,11000,25.928,,,210,,,,,,,,,,,og-post,,,,AAXX 30214 07181 32961 32114 10050 20017 39860 40290 55002 80001 333 83075=
07181,1999-11-30 22:00:00,4.6,1028.6,-0.5,80,1.5,11000,22.224,,,210,,,,,,,,,,,og-post,,,,AAXX 30224 07181 32961 32112 10046 20015 39856 40286 58005 80001 333 83075=
07181,1999-11-30 23:00:00,4.8,1028.3,-0.6,81,1.8,11000,14.816,,,230,,,,,,,,,,,og-post,,,,AAXX 30234 07181 32961 32308 10048 20018 39853 40283 58006 80001 333 83075=
07181,1999-12-01 00:00:00,4.2,1028.2,-0.9,84,1.7,11000,18.52,,,220,,,,,,,,,,,og-post,,,,AAXX 01004 07181 32961 32210 10042 20017 39851 40282 56009 80001 333 83075=
07181,1999-12-01 01:00:00,4.8,1027.8,-0.8,86,2.7,11000,18.52,,,230,,,,,,,,,,,og-post,,,,AAXX 01014 07181 32961 32310 10048 20027 39848 40278 57008 80001 333 83075=
07181,1999-12-01 02:00:00,4.7,1027.8,-0.5,92,3.5,5000,18.52,,,240,,,,,,,,,,,og-post,,,,AAXX 01024 07181 32350 72410 10047 20035 39848 40278 56005 877// 333 87707=
07181,1999-12-01 04:00:00,4.3,1027.6,-0.2,92,3.1,4000,18.52,,,230,,,,,,,,,,10,og-post,,,,AAXX 01044 07181 31340 72310 10043 20031 39846 40276 58002 71022 877// 333 87709=
07181,1999-12-01 05:00:00,4.3,1027.3,-0.5,93,3.3,6000,18.52,,,220,,,,,,,,,,,og-post,,,,AAXX 01054 07181 32356 72210 10043 20033 39843 40273 58005 877// 333 87707=
07181,1999-12-01 06:00:00,3.9,1027.4,-0.4,94,3,6000,22.224,,,210,3.9,6.5,,,,,0,,2,,og-post,,,,AAXX 01064 07181 32256 72112 10039 20030 39843 40274 56004 877// 333 10065 20039 30002 55/// 70000 87705=
07181,1999-12-01 07:00:00,3.8,1027.3,-0.4,96,3.2,6000,22.224,,,210,,,,,,,,,,,og-post,,,,AAXX 01074 07181 36/56 /2112 10038 20032 39842 40273 56004=
07181,1999-12-01 08:00:00,4.3,1027.3,-0,94,3.4,7000,29.632,,,220,,,,,,,,,,,og-post,,,,AAXX 01084 07181 36/57 /2216 10043 20034 39843 40273 55000=
07181,1999-12-01 09:00:00,5.6,1026.9,-0.2,89,3.9,9000,29.632,,,220,,,,,,,,,,,og-post,,,,AAXX 01094 07181 32359 72216 10056 20039 39841 40269 58002 875// 333 81708 87611=
07181,1999-12-01 10:00:00,6.2,1026.9,-0,89,4.5,8000,22.224,,,230,,,,,,,,,,,og-post,,,,AAXX 01104 07181 32458 72312 10062 20045 39842 40269 54000 875// 333 87611=
07181,1999-12-01 11:00:00,5.9,1026.5,-0.5,95,5.2,4000,31.484,,,230,,,,,,,,,,51,og-post,,,,AAXX 01114 07181 21340 72317 10059 20052 39838 40265 58005 75152 875// 333 69905 84707 87609=
07181,1999-12-01 12:00:00,6,1026,-0.8,97,5.6,3000,31.484,,,220,,,,,,,,,,51,og-post,,,,AAXX 01124 07181 /1230 82217 10060 20056 39833 40260 58008 69901 75152 887// 333 69907 84704 87708=
07181,1999-12-01 13:00:00,6.2,1025.6,-1.2,97,5.8,1500,29.632,,,220,,,0.2,,,,,,,51,og-post,,,,AAXX 01134 07181 21215 82216 10062 20058 39830 40256 56012 75155 887// 333 69925 84704 87708=
07181,1999-12-01 14:00:00,6.3,1025.1,-1.3,97,5.9,1500,25.928,,,220,,,0.2,,,,,,,51,og-post,,,,AAXX 01144 07181 21215 82214 10063 20059 39825 40251 57013 75155 887// 333 69925 87705=
07181,1999-12-01 15:00:00,6.4,1025.2,-0.7,98,6.1,2000,29.632,,,230,,,,0.4,,,,,,51,og-post,,,,AAXX 01154 07181 21220 82316 10064 20061 39826 40252 55007 75155 887// 333 69947 87703=
07181,1999-12-01 16:00:00,6.4,1025.5,-0.1,98,6.1,2000,29.632,,,220,,,0.2,,,,,,,58,og-post,,,,AAXX 01164 07181 21120 82216 10064 20061 39829 40255 55001 75865 887// 333 69925 85703 85710=
07181,1999-12-01 17:00:00,6.4,1025.5,0.4,98,6.1,2500,29.632,,,210,,,0.2,,,,,,,58,og-post,,,,AAXX 01174 07181 21225 82116 10064 20061 39829 40255 51004 75866 887// 333 69925 87703=
07181,1999-12-01 18:00:00,6.5,1025.8,0.6,98,6.2,3000,29.632,,,210,3.7,6.5,,0.6,,1,,,,58,og-post,,,,AAXX 01184 07181 /1230 82116 10065 20062 39832 40258 52006 60012 75865 887// 333 10065 20037 69967 87705=
07181,1999-12-01 19:00:00,6.5,1025.9,0.4,98,6.2,2500,29.632,,,220,,,0.2,,,,,,,58,og-post,,,,AAXX 01194 07181 21225 82216 10065 20062 39833 40259 53004 75866 887// 333 69925 87706=
07181,1999-12-01 20:00:00,6.6,1025.8,0.3,98,6.3,2500,31.484,,,210,,,,,,,,,,58,og-post,,,,AAXX 01204 07181 21225 82117 10066 20063 39832 40258 50003 75866 887// 333 69905 84704 85709=
07181,1999-12-01 21:00:00,6.7,1025.4,-0.3,98,6.4,2500,29.632,,,220,,,,0.6,,,,,,58,og-post,,,,AAXX 01214 07181 21225 82216 10067 20064 39829 40254 58003 75866 877// 333 69967 87704=
07181,1999-12-01 22:00:00,7,1025.1,-0.7,98,6.7,7000,29.632,,,220,,,0.2,,,,,,,58,og-post,,,,AAXX 01224 07181 21257 82216 10070 20067 39826 40251 58007 75866 877// 333 69925 85703 85708=
07181,1999-12-01 23:00:00,7.2,1025.5,-0.2,98,6.9,4900,22.224,,,220,,,0.2,,,,,,,,og-post,,,,AAXX 01234 07181 26/49 /2212 10072 20069 39830 40255 55002 333 69925=
07181,1999-12-02 00:00:00,7.4,1024.9,-0.4,99,7.3,6000,25.928,,,220,,,,0.4,1,,,,,58,og-post,,,,AAXX 02004 07181 /1156 82214 10074 20073 39825 40249 58004 60011 75866 877// 333 69947 87703=
07181,1999-12-02 01:00:00,7.5,1024.6,-0.4,99,7.4,7000,22.224,,,230,,,,,,,,,,58,og-post,,,,AAXX 02014 07181 21157 82312 10075 20074 39822 40246 58004 75866 877// 333 69905 87702=
07181,1999-12-02 02:00:00,7.9,1024.7,-0.6,99,7.8,7000,18.52,,,250,,,,,,,,,,58,og-post,,,,AAXX 02024 07181 21157 82510 10079 20078 39824 40247 55006 75866 877// 333 69905 87702=
07181,1999-12-02 13:00:00,7.9,1026.6,-0.1,74,3.6,20000,18.52,,,260,,,,,,,,,,,og-post,,,,AAXX 02134 07181 32570 62610 10079 20036 39842 40266 58001 86800 333 85826 85646=
07181,1999-12-02 14:00:00,8.2,1026.8,-0,71,3.3,20000,25.928,,,260,,,,,,,,,,,og-post,,,,AAXX 02144 07181 32570 52614 10082 20033 39844 40268 55000 85800 333 83830 84650=
07181,1999-12-02 15:00:00,7.7,1027.2,0.5,72,3,20000,11.112,,,270,,,,,,,,,,,og-post,,,,AAXX 02154 07181 32570 52706 10077 20030 39847 40272 53005 85800 333 84826 84650=
07181,1999-12-02 16:00:00,6.7,1027.9,1,81,3.7,20000,14.816,,,260,,,,,,,,,,,og-post,,,,AAXX 02164 07181 32570 52608 10067 20037 39852 40279 53010 85800 333 84826 84646=
07181,1999-12-02 17:00:00,5.3,1028.3,1,85,3,20000,14.816,,,230,,,,,,,,,,,og-post,,,,AAXX 02174 07181 32570 52308 10053 20030 39854 40283 51010 85800 333 83826 83646=
07181,1999-12-02 18:00:00,5,1028.1,0.5,87,3,20000,18.52,,,210,4.9,8.6,,,,,,,,,og-post,,,,AAXX 02184 07181 12570 42110 10050 20030 39852 40281 50005 69902 84800 333 10086 20049 82823 83650=
07181,1999-12-02 19:00:00,4.9,1028.8,0.6,89,3.2,20000,18.52,,,230,,,,,,,,,,,og-post,,,,AAXX 02194 07181 32570 52310 10049 20032 39858 40288 53006 82802 333 81823 83075=
07181,1999-12-02 20:00:00,5,1028.5,0.2,90,3.5,20000,25.928,,,230,,,,,,,,,,,og-post,,,,AAXX 02204 07181 32770 42314 10050 20035 39856 40285 52002 82502 333 82650 83075=
07181,1999-12-02 21:00:00,5.7,1029.1,1,87,3.7,20000,22.224,,,230,,,,,,,,,,,og-post,,,,AAXX 02214 07181 32770 72312 10057 20037 39862 40291 52010 875// 333 87650=
07181,1999-12-02 22:00:00,5.8,1028.8,0.2,86,3.6,20000,18.52,,,240,,,,,,,,,,,og-post,,,,AAXX 02224 07181 32770 72410 10058 20036 39860 40288 52002 875// 333 87650=
07181,1999-12-02 23:00:00,4.6,1028.8,0.2,88,2.8,25000,22.224,,,220,,,,,,,,,,,og-post,,,,AAXX 02234 07181 36/75 /2212 10046 20028 39858 40288 50002=
07181,1999-12-03 00:00:00,4.7,1028.7,-0.5,87,2.7,25000,18.52,,,220,,,,,,,,,,,og-post,,,,AAXX 03004 07181 36/75 /2210 10047 20027 39857 40287 56005=
07181,1999-12-03 01:00:00,4.8,1028.1,-0.9,84,2.3,29000,22.224,,,220,,,,,,,,,,,og-post,,,,AAXX 03014 07181 36/79 /2212 10048 20023 39851 40281 58009=
07181,1999-12-03 02:00:00,4.2,1027.6,-1.2,85,1.9,20000,22.224,,,210,,,,,,,,,,,og-post,,,,AAXX 03024 07181 32670 72112 10042 20019 39846 40276 58012 84502 333 84643 86075=
07181,1999-12-03 03:00:00,3.2,1027.3,-1.6,89,1.6,20000,18.52,,,210,,,,,,,,,,,og-post,,,,AAXX 03034 07181 32670 42110 10032 20016 39841 40273 56016 82502 333 82643 83075=
07181,1999-12-03 04:00:00,3.1,1026.4,-1.9,90,1.6,24000,14.816,,,200,,,,,,,,,,,og-post,,,,AAXX 03044 07181 36/74 /2008 10031 20016 39832 40264 58019=
07181,1999-12-03 05:00:00,3.3,1025.5,-2.2,87,1.3,20000,11.112,,,210,,,,,,,,,,,og-post,,,,AAXX 03054 07181 32970 22106 10033 20013 39824 40255 58022 80002 333 82075=
07181,1999-12-03 06:00:00,3.1,1025.2,-2,89,1.5,20000,7.408,,,240,2.8,5.8,,,,,0,,1,,og-post,,,,AAXX 03064 07181 32570 62404 10031 20015 39821 40252 56020 83502 333 10058 20028 31001 55/// 79999 83630 85075=
07181,1999-12-03 07:00:00,3.4,1024,-2.2,84,1,20000,22.224,,,220,,,,,,,,,,,og-post,,,,AAXX 03074 07181 32570 72212 10034 20010 39810 40240 58022 85502 333 85626 85075=
07181,1999-12-03 08:00:00,4.2,1023,-2.3,78,0.7,20000,29.632,,,210,,,,,,,,,,,og-post,,,,AAXX 03084 07181 32570 62116 10042 20007 39801 40230 58023 82502 333 82626 86075=
07181,1999-12-03 09:00:00,4.8,1022,-2.8,77,1.1,20000,29.632,,,220,,,,,,,,,,,og-post,,,,AAXX 03094 07181 32570 72216 10048 20011 39793 40220 56028 81542 333 81626 87075=
07181,1999-12-03 10:00:00,5.3,1021.3,-2.3,78,1.8,20000,25.928,,,220,,,,,,,,,,,og-post,,,,AAXX 03104 07181 32570 72214 10053 20018 39787 40213 56023 875// 333 87625=
07181,1999-12-03 11:00:00,6.7,1019.4,-3,76,2.8,20000,29.632,,,230,,,,,,,,,,,og-post,,,,AAXX 03114 07181 32570 72316 10067 20028 39771 40194 58030 875// 333 87621=
07181,1999-12-03 12:00:00,7.2,1018.1,-3.4,75,3.1,20000,29.632,,,230,,,,,,,,,,,og-post,,,,AAXX 03124 07181 32570 72316 10072 20031 39759 40181 58034 86502 333 86621 86075=
07181,1999-12-03 13:00:00,7.6,1016.6,-4.2,73,3.1,20000,31.484,53.708,53.708,230,,,,,,,,,,,og-post,,,,AAXX 03134 07181 32570 72317 10076 20031 39745 40166 56042 875// 333 87621 91029 91129=
07181,1999-12-03 14:00:00,7.5,1015.7,-3.4,79,4.1,25000,29.632,,,220,,,,,,,,,,,og-post,,,,AAXX 03144 07181 32475 72216 10075 20041 39737 40157 56034 875// 333 87619=
07181,1999-12-03 15:00:00,7.9,1015.5,-2.4,76,3.9,25000,31.484,61.116,57.412,240,,,,,,,,,,,og-post,,,,AAXX 03154 07181 32575 72417 10079 20039 39735 40155 56024 875// 333 87621 91031 91133=
07181,1999-12-03 16:00:00,8.2,1015,-1.4,77,4.4,20000,35.188,64.82,61.116,230,,,,,,,,,,,og-post,,,,AAXX 03164 07181 32570 72319 10082 20044 39731 40150 56014 875// 333 87621 91033 91135=
07181,1999-12-03 17:00:00,8.3,1015.1,-0.5,77,4.5,20000,35.188,64.82,57.412,240,,,,,,,,,,,og-post,,,,AAXX 03174 07181 32570 72419 10083 20045 39732 40151 55005 875// 333 87623 91031 91135=
07181,1999-12-03 20:00:00,7.7,1014.9,-0.3,88,5.8,12000,38.892,64.82,64.82,230,,,1,,,,,,,21,og-post,,,,AAXX 03204 07181 21462 82321 10077 20058 39729 40149 56003 72162 875// 333 60015 87616 91035 91135=
07181,1999-12-03 21:00:00,7.5,1015,0.4,92,6.3,8000,38.892,64.82,,230,,,,1,,,,,,,og-post,,,,AAXX 03214 07181 26/58 /2321 10075 20063 39730 40150 51004 333 60017 91135=
07181,1999-12-03 22:00:00,7.4,1015.3,0.4,94,6.5,9000,35.188,57.412,,230,,,,,,,,,,,og-post,,,,AAXX 03224 07181 32459 82319 10074 20065 39733 40153 53004 875// 333 87611 91131=
07181,1999-12-03 23:00:00,7.2,1015.4,0.5,96,6.6,1500,31.484,,,230,,,0.4,,,,,,,61,og-post,,,,AAXX 03234 07181 21215 82317 10072 20066 39734 40154 52005 76162 877// 333 69945 83703 87708=
07181,1999-12-04 00:00:00,7,1015.4,0.3,97,6.6,1500,29.632,64.82,,230,,,,2,3,,,,,61,og-post,,,,AAXX 04004 07181 /1215 82316 10070 20066 39733 40154 50003 60031 76162 877// 333 60027 87705 91135=
07181,1999-12-04 01:00:00,5.4,1016,0.3,95,4.7,2300,18.52,,,330,,,1,,,,,,,,og-post,,,,AAXX 04014 07181 26/23 /3310 10054 20047 39736 40160 53003 333 60015=
07181,1999-12-04 02:00:00,4.6,1016.3,0.4,98,4.3,10000,11.112,,,310,,,0.4,,,,,,,,og-post,,,,AAXX 04024 07181 26/60 /3106 10046 20043 39738 40163 53004 333 69945=
07181,1999-12-04 03:00:00,4.5,1016.2,0.4,97,4.1,50000,7.408,,,250,,,,2,,,,,,,og-post,,,,AAXX 04034 07181 26/84 /2504 10045 20041 39737 40162 50004 333 60027=
07181,1999-12-04 04:00:00,4.3,1015.5,-0.6,94,3.4,12000,11.112,,,260,,,,,,,,,,,og-post,,,,AAXX 04044 07181 26/62 /2606 10043 20034 39730 40155 58006 333 69905=
07181,1999-12-04 05:00:00,4,1015.3,-1,95,3.3,1500,11.112,,,270,,,0.2,,,,,,,61,og-post,,,,AAXX 04054 07181 21215 82706 10040 20033 39728 40153 58010 76166 877// 333 69925 83705 87711=
07181,1999-12-04 06:00:00,3.7,1015.3,-1,97,3.3,3000,3.704,,,250,3.7,8.4,,3,,7,7.2,,4,61,og-post,,,,AAXX 04064 07181 /1430 82502 10037 20033 39727 40153 56010 60072 76166 875// 333 10084 20037 32004 55/// 60037 70072 83710 87623=
07181,1999-12-04 07:00:00,3.7,1015,-0.6,97,3.3,4000,3.704,,,240,,,2,,,,,,,61,og-post,,,,AAXX 04074 07181 21440 82402 10037 20033 39724 40150 58006 76166 875// 333 60025 83613 87630=
07181,1999-12-04 08:00:00,3.7,1015,-0.4,97,3.3,9000,7.408,,,220,,,1,,,,,,,61,og-post,,,,AAXX 04084 07181 21459 82204 10037 20033 39724 40150 56004 76166 878// 333 60015 83813 87630=
07181,1999-12-04 09:00:00,3.8,1014.8,-0.5,97,3.4,9000,11.112,,,220,,,,4,,,,,,61,og-post,,,,AAXX 04094 07181 21359 82206 10038 20034 39722 40148 56005 76166 878// 333 60047 82808 87626=
07181,1999-12-04 10:00:00,4.1,1014.4,-0.5,97,3.7,9000,11.112,,,220,,,1,,,,,,,61,og-post,,,,AAXX 04104 07181 21359 82206 10041 20037 39719 40144 58005 76166 878// 333 60015 82808 87625=
07181,1999-12-04 11:00:00,4.2,1013.7,-1.1,96,3.6,12000,11.112,,,240,,,1,,,,,,,61,og-post,,,,AAXX 04114 07181 21262 82406 10042 20036 39713 40137 58011 76166 878// 333 60015 84806 87620=
07181,1999-12-04 12:00:00,4.4,1013.1,-1.5,97,4,12000,7.408,,,270,,,,3,8,,,,,61,og-post,,,,AAXX 04124 07181 /1262 82704 10044 20040 39707 40131 58015 60081 76166 878// 333 60037 85804 87615=
07181,1999-12-04 13:00:00,4,1012.7,-1.6,96,3.4,15000,14.816,,,290,,,2,,,,,,,61,og-post,,,,AAXX 04134 07181 21465 82908 10040 20034 39703 40127 56016 76166 878// 333 60025 85810 87620=
07181,1999-12-04 14:00:00,3.9,1012.5,-1.2,95,3.2,25000,11.112,,,250,,,,,,,,,,21,og-post,,,,AAXX 04144 07181 21475 82506 10039 20032 39701 40125 56012 72162 878// 333 69905 84811 87625=
07181,1999-12-04 15:00:00,3.9,1012.4,-0.7,94,3,25000,7.408,,,230,,,,2,,,,,,3,og-post,,,,AAXX 04154 07181 21475 82304 10039 20030 39700 40124 56007 70362 878// 333 60027 85810 87620=
07181,1999-12-04 16:00:00,3.9,1012.4,-0.3,94,3,25000,11.112,,,240,,,,,,,,,,,og-post,,,,AAXX 04164 07181 32475 82406 10039 20030 39700 40124 56003 878// 333 85810 87620=
07181,1999-12-04 17:00:00,3.9,1012.7,0.1,94,3,25000,14.816,,,220,,,,,,,,,,,og-post,,,,AAXX 04174 07181 32475 82208 10039 20030 39702 40127 53001 878// 333 85810 87620=
07181,1999-12-04 18:00:00,3.7,1013.2,0.7,89,2.1,25000,14.816,,,240,3.6,4.4,,,,10,,,,1,og-post,,,,AAXX 04184 07181 11475 82408 10037 20021 39707 40132 53007 60102 70162 878// 333 10044 20036 83810 87640=
07181,1999-12-04 19:00:00,3.2,1013.6,1,92,2,25000,14.816,,,230,,,,,,,,,,,og-post,,,,AAXX 04194 07181 32475 82308 10032 20020 39710 40136 53010 878// 333 83810 87645=
07181,1999-12-04 20:00:00,3.3,1014.2,1.4,93,2.3,25000,14.816,,,240,,,,,,,,,,,og-post,,,,AAXX 04204 07181 32475 72408 10033 20023 39716 40142 53014 878// 333 83811 87650=
07181,1999-12-04 21:00:00,3.4,1014.5,1.2,90,1.9,25000,14.816,,,270,,,,,,,,,,,og-post,,,,AAXX 04214 07181 32475 72708 10034 20019 39719 40145 52012 878// 333 84811 87650=
07181,1999-12-04 22:00:00,2.5,1015.1,1.3,93,1.5,25000,18.52,,,250,,,,,,,,,,,og-post,,,,AAXX 04224 07181 32475 72510 10025 20015 39723 40151 51013 878// 333 84811 87650=
07181,1999-12-04 23:00:00,1.7,1015.8,1.3,91,0.4,5000,29.632,,,310,,,0.2,,,,,,,87,og-post,,,,AAXX 04234 07181 21450 73116 10017 20004 39729 40158 53013 78787 879// 333 69925 82910 85812 87620=
07181,1999-12-05 01:00:00,1.8,1016.6,1.3,93,0.8,12000,18.52,,,260,,,,,,,,,,,og-post,,,,AAXX 05014 07181 32462 72610 10018 20008 39736 40166 51013 878// 333 85815 87630=
07181,1999-12-05 02:00:00,1.7,1017.5,1.6,89,0.1,12000,22.224,,,260,,,,,,,,,,,og-post,,,,AAXX 05024 07181 32462 62612 10017 20001 39745 40175 53016 86800 333 84813 85640=
07181,1999-12-05 03:00:00,1.4,1018.4,1.9,89,-0.2,20000,22.224,,,280,,,,,,,,,,,og-post,,,,AAXX 05034 07181 32470 62812 10014 21002 39753 40184 53019 86800 333 84813 85640=
07181,1999-12-05 04:00:00,1.1,1019.4,2.6,91,-0.2,20000,14.816,,,280,,,,,,,,,,,og-post,,,,AAXX 05044 07181 32470 72808 10011 21002 39762 40194 52026 878// 333 84813 87640=
07181,1999-12-05 05:00:00,1.2,1020,2.3,88,-0.6,20000,18.52,,,270,,,,,,,,,,,og-post,,,,AAXX 05054 07181 32470 72710 10012 21006 39768 40200 51023 878// 333 85811 87640=
07181,1999-12-05 06:00:00,0.8,1021.2,2.6,91,-0.5,15000,18.52,,,280,0.5,3.7,,0.2,,2,11.4,,0,25,og-post,,,,AAXX 05064 07181 /1465 72810 10008 21005 39779 40212 53026 60022 72586 878// 333 10037 20005 31000 55/// 69927 70114 85810 87625=
07181,1999-12-05 07:00:00,0.8,1022,2.5,90,-0.6,15000,18.52,,,300,,,,,,,,,,,og-post,,,,AAXX 05074 07181 32465 73010 10008 21006 39787 40220 53025 878// 333 85811 87625=
07181,1999-12-05 08:00:00,0.8,1023.5,3.3,92,-0.3,15000,14.816,,,290,,,,,,,,,,,og-post,,,,AAXX 05084 07181 32465 72908 10008 21003 39801 40235 53033 872// 333 87810=
07181,1999-12-05 09:00:00,1,1024.6,3.3,91,-0.3,15000,14.816,,,300,,,,,,,,,,,og-post,,,,AAXX 05094 07181 32465 73008 10010 21003 39812 40246 53033 872// 333 87810=
07181,1999-12-05 10:00:00,1.4,1025.9,3.8,92,0.2,15000,14.816,,,300,,,,,,,,,,,og-post,,,,AAXX 05104 07181 32465 73008 10014 20002 39825 40259 51038 872// 333 87810=
07181,1999-12-05 11:00:00,2.4,1026,2.6,88,0.6,15000,11.112,,,280,,,,,,,,,,,og-post,,,,AAXX 05114 07181 32565 72806 10024 20006 39827 40260 51026 872// 333 84820 83640=
07181,1999-12-05 12:00:00,3.1,1026.4,2,77,-0.5,18000,14.816,,,280,,,,,,,,,,,og-post,,,,AAXX 05124 07181 32568 72808 10031 21005 39832 40264 51020 872// 333 84820 84640=
07181,1999-12-05 13:00:00,2.1,1027,1.1,85,-0.2,26000,14.816,,,300,,,,,,,,,,,og-post,,,,AAXX 05134 07181 36/76 /3008 10021 21002 39836 40270 53011=
07181,1999-12-05 14:00:00,2.1,1027.4,1.3,86,0,18000,14.816,,,300,,,,,,,,,,,og-post,,,,AAXX 05144 07181 32468 73008 10021 20000 39840 40274 51013 878// 333 85813 84620=
07181,1999-12-05 15:00:00,2,1028.5,1.9,86,-0.1,18000,11.112,,,290,,,,,,,,,,,og-post,,,,AAXX 05154 07181 32468 72906 10020 21001 39851 40285 53019 878// 333 85813 84620=
07181,1999-12-05 16:00:00,1.6,1028.9,1.8,86,-0.5,18000,7.408,,,280,,,,,,,,,,,og-post,,,,AAXX 05164 07181 32468 82804 10016 21005 39854 40289 51018 878// 333 85816 85626=
07181,1999-12-05 17:00:00,1.5,1029.7,2.1,88,-0.3,18000,7.408,,,260,,,,,,,,,,,og-post,,,,AAXX 05174 07181 32468 82604 10015 21003 39861 40297 51021 878// 333 85816 85626=
07181,1999-12-05 18:00:00,0.3,1030.1,1.2,92,-0.8,18000,7.408,,,220,0.3,3.4,,,,,,,,,og-post,,,,AAXX 05184 07181 32668 42204 10003 21008 39863 40301 51012 83601 333 10034 20003 83633 83075=
07181,1999-12-05 19:00:00,-0.4,1031.2,1.9,94,-1.2,18000,7.408,,,200,,,,,,,,,,,og-post,,,,AAXX 05194 07181 32668 32004 11004 21012 39873 40312 53019 81501 333 81633 83075=
07181,1999-12-05 20:00:00,-0.1,1031.5,1.5,97,-0.5,18000,11.112,,,220,,,,,,,,,,,og-post,,,,AAXX 05204 07181 32668 32206 11001 21005 39876 40315 53015 82501 333 82633 83075=
07181,1999-12-05 21:00:00,0.4,1031.4,1.3,96,-0.2,18000,14.816,,,220,,,,,,,,,,,og-post,,,,AAXX 05214 07181 32668 32208 10004 21002 39876 40314 51013 82501 333 82633 83075=
07181,1999-12-05 22:00:00,0.7,1031.1,0.1,93,-0.3,15000,14.816,,,210,,,,,,,,,,,og-post,,,,AAXX 05224 07181 32665 32108 10007 21003 39874 40311 50001 82501 333 82633 83075=
07181,1999-12-05 23:00:00,0.8,1031.2,-0.1,89,-0.8,15000,14.816,,,210,,,,,,,,,,,og-post,,,,AAXX 05234 07181 32665 42108 10008 21008 39875 40312 55001 82501 333 82633 84075=
07181,1999-12-06 00:00:00,0.1,1031.9,0.4,95,-0.6,15000,14.816,,,230,,,,,,,,,,,og-post,,,,AAXX 06004 07181 32665 42308 10001 21006 39880 40319 53004 82501 333 82633 84075=
07181,1999-12-06 01:00:00,0.4,1031.3,0.1,92,-0.7,15000,18.52,,,210,,,,,,,,,,,og-post,,,,AAXX 06014 07181 32665 52110 10004 21007 39875 40313 50001 82531 333 82633 85075=
07181,1999-12-06 02:00:00,0.3,1031,-0.3,91,-1,15000,18.52,,,210,,,,,,,,,,,og-post,,,,AAXX 06024 07181 32665 52110 10003 21010 39872 40310 58003 82531 333 82633 85075=
07181,1999-12-06 03:00:00,-0.1,1031,-0.9,93,-1.1,15000,14.816,,,210,,,,,,,,,,,og-post,,,,AAXX 06034 07181 32665 52108 11001 21011 39871 40310 56009 82531 333 82633 85075=
07181,1999-12-06 04:00:00,-0.2,1031,-0.4,94,-1,21000,18.52,,,220,,,,,,,,,,,og-post,,,,AAXX 06044 07181 36/71 /2210 11002 21010 39871 40310 56004=
07181,1999-12-06 05:00:00,0.6,1030.2,-0.7,93,-0.4,15000,18.52,,,200,,,,,,,,,,,og-post,,,,AAXX 06054 07181 32665 62010 10006 21004 39865 40302 58007 82531 333 82633 85075=
07181,1999-12-06 08:00:00,1.2,1030.3,0.2,90,-0.3,15000,18.52,,,220,,,,,,,,,,,og-post,,,,AAXX 06084 07181 32765 72210 10012 21003 39867 40303 53002 86501 333 86656 85075=
07181,1999-12-06 11:00:00,3.5,1029,-0.9,84,1.1,15000,31.484,,,230,,,,,,,,,,,og-post,,,,AAXX 06114 07181 32565 72317 10035 20011 39858 40290 58009 85832 333 82825 84650 85075=
07181,1999-12-06 12:00:00,4.2,1028.5,-0.9,83,1.6,15000,29.632,,,220,,,,,,,,,,,og-post,,,,AAXX 06124 07181 32565 72216 10042 20016 39854 40285 58009 878// 333 85823 85640=
07181,1999-12-06 13:00:00,4.7,1028,-1.5,78,1.2,15000,25.928,,,230,,,,,,,,,,,og-post,,,,AAXX 06134 07181 32565 72314 10047 20012 39850 40280 56015 878// 333 83820 86633=
07181,1999-12-06 14:00:00,4.6,1027.3,-1.5,78,1.1,15000,31.484,,,220,,,,,,,,,,,og-post,,,,AAXX 06144 07181 32565 72217 10046 20011 39843 40273 58015 878// 333 82820 86630=
07181,1999-12-06 15:00:00,4.7,1027.2,-1.2,76,0.8,15000,29.632,,,210,,,,,,,,,,,og-post,,,,AAXX 06154 07181 32565 72116 10047 20008 39842 40272 56012 878// 333 81820 87630=
07181,1999-12-06 16:00:00,4.3,1026.9,-1.1,79,1,15000,25.928,,,200,,,,,,,,,,,og-post,,,,AAXX 06164 07181 32565 72014 10043 20010 39839 40269 56011 875// 333 87630=
07181,1999-12-06 17:00:00,4.2,1026.9,-0.4,80,1.1,15000,22.224,,,200,,,,,,,,,,,og-post,,,,AAXX 06174 07181 32565 72012 10042 20011 39839 40269 56004 875// 333 87625=
07181,1999-12-06 18:00:00,4.2,1026.9,-0.3,79,0.9,15000,25.928,,,210,0.7,4.8,,,,,,,,,og-post,,,,AAXX 06184 07181 32565 72114 10042 20009 39839 40269 56003 875// 333 10048 20007 87623=
07181,1999-12-06 19:00:00,4,1026.5,-0.4,81,1,15000,25.928,,,200,,,,,,,,,,,og-post,,,,AAXX 06194 07181 32565 72014 10040 20010 39835 40265 58004 875// 333 87623=
07181,1999-12-06 20:00:00,4,1026.6,-0.3,80,0.9,15000,25.928,,,210,,,,,,,,,,,og-post,,,,AAXX 06204 07181 32565 72114 10040 20009 39836 40266 55003 875// 333 87623=
07181,1999-12-06 21:00:00,4.1,1026.2,-0.7,80,1,15000,25.928,,,210,,,,,,,,,,,og-post,,,,AAXX 06214 07181 32565 72114 10041 20010 39832 40262 57007 875// 333 87625=
07181,1999-12-06 22:00:00,4.2,1025.8,-0.7,80,1.1,15000,25.928,,,220,,,,,,,,,,,og-post,,,,AAXX 06224 07181 32565 72214 10042 20011 39828 40258 58007 875// 333 87623=
07181,1999-12-06 23:00:00,4.5,1025.4,-1.1,79,1.2,35000,29.632,,,210,,,,,,,,,,,og-post,,,,AAXX 06234 07181 36/81 /2116 10045 20012 39825 40254 56011=
07181,1999-12-07 00:00:00,4.8,1025.1,-1,79,1.5,15000,29.632,,,220,,,,,,,,,,,og-post,,,,AAXX 07004 07181 32565 72216 10048 20015 39822 40251 56010 875// 333 87620=
07181,1999-12-07 01:00:00,4.6,1024.7,-1,80,1.5,50000,29.632,,,220,,,,,,,,,,,og-post,,,,AAXX 07014 07181 36/84 /2216 10046 20015 39818 40247 58010=
07181,1999-12-07 02:00:00,4.7,1024.3,-1,78,1.2,20000,31.484,,,220,,,,,,,,,,,og-post,,,,AAXX 07024 07181 32570 72217 10047 20012 39815 40243 57010 875// 333 87620=
07181,1999-12-07 03:00:00,4.5,1024,-1.1,79,1.2,20000,29.632,,,220,,,,,,,,,,,og-post,,,,AAXX 07034 07181 32570 72216 10045 20012 39811 40240 57011 875// 333 87623=
07181,1999-12-07 04:00:00,4.5,1023.3,-1.3,78,1,20000,29.632,,,210,,,,,,,,,,,og-post,,,,AAXX 07044 07181 32570 72116 10045 20010 39805 40233 58013 875// 333 87626=
07181,1999-12-07 05:00:00,4.7,1022.4,-1.9,79,1.4,20000,31.484,,,220,,,,,,,,,,,og-post,,,,AAXX 07054 07181 32570 72217 10047 20014 39796 40224 58019 875// 333 87630=
07181,1999-12-07 06:00:00,5.1,1022.1,-1.7,76,1.2,20000,31.484,,,220,3.9,5.1,,,,,0,,4,,og-post,,,,AAXX 07064 07181 32570 82217 10051 20012 39794 40221 56017 875// 333 10051 20039 30004 55/// 70000 87628=
07181,1999-12-07 07:00:00,5.1,1022,-1.2,75,1,20000,29.632,,,220,,,,,,,,,,,og-post,,,,AAXX 07074 07181 32570 82216 10051 20010 39793 40220 56012 875// 333 87628=
07181,1999-12-07 08:00:00,5.2,1021.9,-0.4,72,0.6,25000,29.632,,,210,,,,,,,,,,,og-post,,,,AAXX 07084 07181 32575 72116 10052 20006 39792 40219 56004 875// 333 87630=
07181,1999-12-07 09:00:00,5.6,1021.4,-0.6,71,0.8,25000,22.224,,,230,,,,,,,,,,,og-post,,,,AAXX 07094 07181 32575 72312 10056 20008 39788 40214 58006 85509 333 85630 86173=
07181,1999-12-07 10:00:00,5.4,1021.1,-0.8,60,-1.7,40000,25.928,50.004,,210,,,,,,,,,,,og-post,,,,AAXX 07104 07181 36/82 /2114 10054 21017 39785 40211 58008 333 91127=
07181,1999-12-07 11:00:00,5.6,1020.2,-1.5,62,-1.1,25000,25.928,,,220,,,,,,,,,,,og-post,,,,AAXX 07114 07181 32575 72214 10056 21011 39777 40202 58015 8255/ 333 82630 86365=
07181,1999-12-07 12:00:00,7,1019,-2.1,58,-0.7,25000,29.632,50.004,,210,,,,,,,,,,,og-post,,,,AAXX 07124 07181 32575 72116 10070 21007 39767 40190 58021 8155/ 333 81630 87365 91127=
07181,1999-12-07 13:00:00,6.3,1018.2,-2.7,54,-2.3,50000,25.928,,,220,,,,,,,,,,,og-post,,,,AAXX 07134 07181 36/84 /2214 10063 21023 39758 40182 58027=
07181,1999-12-07 14:00:00,5.6,1018,-2.2,55,-2.7,25000,25.928,,,210,,,,,,,,,,,og-post,,,,AAXX 07144 07181 32575 72114 10056 21027 39755 40180 56022 8557/ 333 85630 87463=
07181,1999-12-07 15:00:00,5.8,1017.7,-1.4,60,-1.3,25000,25.928,,,210,,,,,,,,,,,og-post,,,,AAXX 07154 07181 32575 72114 10058 21013 39753 40177 56014 875// 333 87623=
07181,1999-12-07 16:00:00,5.9,1017.2,-1,70,0.9,20000,31.484,,,220,,,,,,,,,,,og-post,,,,AAXX 07164 07181 32570 82217 10059 20009 39748 40172 58010 875// 333 87620=
07181,1999-12-07 17:00:00,4.7,1018,-0.1,91,3.4,8000,31.484,,,210,,,0.4,,,,,,,60,og-post,,,,AAXX 07174 07181 21458 82117 10047 20034 39754 40180 55001 76062 875// 333 69945 87616=
07181,1999-12-07 18:00:00,4.7,1017.4,-0.4,95,4,7000,29.632,,,200,4.5,7.2,,0.6,,0.6,,,,60,og-post,,,,AAXX 07184 07181 /1257 82016 10047 20040 39749 40174 57004 69962 76062 875// 333 10072 20045 69967 83706 87611=
07181,1999-12-07 19:00:00,5.2,1017.5,0.3,97,4.8,4400,29.632,,,220,,,0.4,,,,,,,,og-post,,,,AAXX 07194 07181 26/44 /2216 10052 20048 39751 40175 51003 333 69945=
07181,1999-12-07 20:00:00,5.6,1017.7,-0.1,97,5.2,5000,29.632,,,220,,,0.4,,,,,,,60,og-post,,,,AAXX 07204 07181 21250 82216 10056 20052 39753 40177 55001 76066 877// 333 69945 87704=
07181,1999-12-07 21:00:00,6.3,1017.9,0.7,97,5.9,9000,25.928,,,230,,,,0.8,,,,,,21,og-post,,,,AAXX 07214 07181 21359 82314 10063 20059 39756 40179 53007 72162 877// 333 69987 87706=
07181,1999-12-07 22:00:00,6.6,1017.8,0.5,96,6,9000,29.632,53.708,53.708,230,,,,,,,,,,,og-post,,,,AAXX 07224 07181 32359 82316 10066 20060 39756 40178 51005 877// 333 87708 91029 91129=
07181,1999-12-07 23:00:00,7,1018,0.5,94,6.1,18000,22.224,,,240,,,,,,,,,,,og-post,,,,AAXX 07234 07181 36/68 /2412 10070 20061 39758 40180 51005=
07181,1999-12-08 00:00:00,7.1,1018.2,0.4,92,5.9,15000,22.224,53.708,,240,,,,,0.8,,,,,1,og-post,,,,AAXX 08004 07181 11465 82412 10071 20059 39760 40182 53004 69981 70162 875// 333 87613 91129=
07181,1999-12-08 01:00:00,7.3,1018.6,0.8,90,5.8,15000,22.224,,,230,,,,,,,,,,,og-post,,,,AAXX 08014 07181 32465 82312 10073 20058 39764 40186 53008 875// 333 87614=
07181,1999-12-08 02:00:00,7,1019,1,93,5.9,15000,25.928,,,230,,,0.2,,,,,,,,og-post,,,,AAXX 08024 07181 22465 82314 10070 20059 39768 40190 53010 875// 333 69925 87615=
07181,1999-12-08 03:00:00,6.7,1019.4,1.1,95,6,15000,18.52,,,230,,,,0.8,,,,,,,og-post,,,,AAXX 08034 07181 22465 82310 10067 20060 39771 40194 51011 875// 333 69987 87610=
07181,1999-12-08 04:00:00,6.6,1019.4,0.7,96,6,15000,18.52,,,230,,,0.2,,,,,,,,og-post,,,,AAXX 08044 07181 22465 82310 10066 20060 39771 40194 51007 875// 333 69925 87610=
07181,1999-12-08 05:00:00,6.5,1019.3,0.2,95,5.8,12000,18.52,,,230,,,,,,,,,,21,og-post,,,,AAXX 08054 07181 31462 72310 10065 20058 39770 40193 50002 72122 875// 333 85710 86628=
07181,1999-12-08 06:00:00,6.3,1019.6,0.1,96,5.7,12000,25.928,,,220,4.7,7.3,,0.4,,2,2.6,,4,25,og-post,,,,AAXX 08064 07181 /1462 72214 10063 20057 39772 40196 53001 60022 72586 878// 333 10073 20047 32004 55/// 69947 70026 85810 86630=
07181,1999-12-08 07:00:00,6.4,1019.4,-0,95,5.7,10000,22.224,,,210,,,,,,,,,,,og-post,,,,AAXX 08074 07181 32460 72112 10064 20057 39771 40194 54000 878// 333 85810 86630=
07181,1999-12-08 08:00:00,6.5,1019.3,0,92,5.3,12000,25.928,,,220,,,,,,,,,,,og-post,,,,AAXX 08084 07181 32462 82214 10065 20053 39770 40193 50000 878// 333 85811 87630=
07181,1999-12-08 09:00:00,7,1019,-0.4,89,5.3,15000,22.224,,,210,,,,,,,,,,,og-post,,,,AAXX 08094 07181 32465 52112 10070 20053 39768 40190 58004 85800 333 83812 84630=
07181,1999-12-08 10:00:00,6.7,1019,-0.4,89,5,15000,25.928,,,210,,,,,,,,,,,og-post,,,,AAXX 08104 07181 32465 72114 10067 20050 39767 40190 57004 872// 333 87811=
07181,1999-12-08 11:00:00,7.2,1018,-1.2,88,5.3,15000,22.224,,,200,,,,,,,,,,,og-post,,,,AAXX 08114 07181 32465 72012 10072 20053 39758 40180 58012 878// 333 85812 87650=
07181,1999-12-08 12:00:00,8.1,1017,-1.8,84,5.6,15000,25.928,,,220,,,,,,,,,,,og-post,,,,AAXX 08124 07181 32465 62214 10081 20056 39750 40170 58018 86800 333 83814 86650=
07181,1999-12-08 13:00:00,8.2,1016,-2.6,81,5.1,25000,25.928,,,220,,,,,,,,,,,og-post,,,,AAXX 08134 07181 32475 72214 10082 20051 39741 40160 57026 878// 333 85816 87650=
07181,1999-12-08 14:00:00,8.2,1015.2,-2.5,81,5.1,25000,22.224,,,220,,,,,,,,,,,og-post,,,,AAXX 08144 07181 32575 72212 10082 20051 39733 40152 57025 878// 333 85823 87650=
07181,1999-12-08 15:00:00,7.8,1014.9,-2.1,82,4.9,25000,18.52,,,200,,,,,,,,,,,og-post,,,,AAXX 08154 07181 32575 72010 10078 20049 39729 40149 56021 878// 333 83823 87648=
07181,1999-12-08 16:00:00,7.2,1013.9,-2.2,85,4.9,20000,18.52,,,180,,,,,,,,,,,og-post,,,,AAXX 08164 07181 32570 61810 10072 20049 39719 40139 58022 84802 333 82823 84648=
07181,1999-12-08 17:00:00,7.5,1013.5,-1.7,85,5.1,20000,22.224,,,190,,,,,,,,,,,og-post,,,,AAXX 08174 07181 32570 71912 10075 20051 39716 40135 56017 878// 333 82823 87640=
07181,1999-12-08 18:00:00,7.7,1012.7,-2.1,85,5.3,20000,22.224,,,190,6.3,9.2,,,,,,,,,og-post,,,,AAXX 08184 07181 32570 51912 10077 20053 39708 40127 56021 85800 333 10092 20063 82830 84640=
07181,1999-12-08 19:00:00,8.3,1012.3,-1.4,82,5.4,20000,25.928,,,210,,,,,,,,,,,og-post,,,,AAXX 08194 07181 32570 62114 10083 20054 39705 40123 57014 86800 333 82830 86640=
07181,1999-12-08 21:00:00,8.1,1011.6,-1,91,6.7,15000,25.928,,,210,,,,0.2,,,,,,,og-post,,,,AAXX 08214 07181 22465 72114 10081 20067 39698 40116 57010 878// 333 69927 84815 87630=
07181,1999-12-08 22:00:00,8.2,1010.9,-1.3,89,6.5,15000,29.632,,,220,,,,,,,,,,,og-post,,,,AAXX 08224 07181 32465 72216 10082 20065 39692 40109 58013 878// 333 84813 87625=
07181,1999-12-08 23:00:00,7.9,1010.4,-1.4,87,5.9,15000,29.632,,,220,,,,,,,,,,,og-post,,,,AAXX 08234 07181 32465 52216 10079 20059 39687 40104 58014 85800 333 82815 85630=
07181,1999-12-09 00:00:00,8.3,1009.4,-2,83,5.6,15000,25.928,,,220,,,,,0.2,,,,,1,og-post,,,,AAXX 09004 07181 11465 52214 10083 20056 39678 40094 58020 69921 70186 85800 333 82815 85640=
07181,1999-12-09 01:00:00,8.5,1008.5,-2.3,84,6,20000,31.484,,,210,,,,,,,,,,,og-post,,,,AAXX 09014 07181 32470 72117 10085 20060 39669 40085 58023 8583/ 333 82816 85650 87359=
07181,1999-12-09 02:00:00,8.6,1008,-2.2,82,5.7,20000,29.632,,,200,,,,,,,,,,,og-post,,,,AAXX 09024 07181 32470 72016 10086 20057 39665 40080 56022 8583/ 333 82816 85650 87359=
07181,1999-12-09 03:00:00,8.2,1007.3,-2.1,84,5.7,20000,31.484,,,210,,,,,,,,,,,og-post,,,,AAXX 09034 07181 32570 72117 10082 20057 39657 40073 56021 878// 333 82820 87650=
07181,1999-12-09 04:00:00,7.1,1007,-1.6,90,5.6,12000,31.484,,,200,,,1,,,,,,,61,og-post,,,,AAXX 09044 07181 21562 72017 10071 20056 39653 40070 57016 76162 878// 333 60015 82820 87650=
07181,1999-12-09 05:00:00,6.4,1006.7,-1.6,93,5.4,7000,29.632,,,190,,,3,,,,,,,61,og-post,,,,AAXX 09054 07181 21557 71916 10064 20054 39649 40067 56016 76166 878// 333 60035 83820 87640=
07181,1999-12-09 06:00:00,6.5,1006,-1.5,90,5,9000,38.892,61.116,61.116,200,6.2,8.7,,4,,4,4.2,,6,61,og-post,,,,AAXX 09064 07181 /1559 82021 10065 20050 39642 40060 58015 60042 76162 875// 333 10087 20062 3/006 55/// 60047 70042 82626 87650 91033 91133=
07181,1999-12-09 07:00:00,6.7,1005.8,-1.2,87,4.7,8000,38.892,64.82,,210,,,0.2,,,,,,,61,og-post,,,,AAXX 09074 07181 21558 82121 10067 20047 39641 40058 56012 76166 875// 333 69925 82623 87640 91135=
07181,1999-12-09 08:00:00,6.1,1006,-0.7,91,4.7,8000,35.188,,,200,,,1,,,,,,,61,og-post,,,,AAXX 09084 07181 21558 82019 10061 20047 39642 40060 55007 76166 875// 333 60015 82623 87636=
07181,1999-12-09 10:00:00,6,1006.3,0.3,92,4.8,12000,35.188,,,210,,,0.6,,,,,,,,og-post,,,,AAXX 09104 07181 26/62 /2119 10060 20048 39644 40063 52003 333 69965=
07181,1999-12-09 11:00:00,6,1005.4,-0.6,93,5,9000,31.484,,,210,,,0.6,,,,,,,61,og-post,,,,AAXX 09114 07181 21459 82117 10060 20050 39636 40054 58006 76166 885// 333 69965 83612 83621 87633=
07181,1999-12-09 12:00:00,6.2,1004.7,-1.4,94,5.3,10000,29.632,64.82,,220,,,,3,5,,,,,61,og-post,,,,AAXX 09124 07181 /1460 82216 10062 20053 39629 40047 58014 60051 76166 875// 333 60037 85612 84621 91135=
07181,1999-12-09 13:00:00,6.1,1004,-2.1,94,5.2,10000,31.484,,,220,,,2,,,,,,,61,og-post,,,,AAXX 09134 07181 21460 82217 10061 20052 39623 40040 56021 76166 875// 333 60025 85612 85621=
07181,1999-12-09 14:00:00,6.2,1003.3,-2,94,5.3,12000,25.928,53.708,,210,,,0.6,,,,,,,60,og-post,,,,AAXX 09144 07181 21462 82114 10062 20053 39616 40033 57020 76066 875// 333 69965 85612 85621 91129=
07181,1999-12-09 15:00:00,6,1002.8,-1.8,93,5,12000,25.928,53.708,,210,,,,3,,,,,,21,og-post,,,,AAXX 09154 07181 21462 82114 10060 20050 39611 40028 56018 72162 875// 333 60037 85616 85625 91129=
07181,1999-12-09 16:00:00,5.9,1002.6,-1.4,93,4.9,10000,22.224,,,220,,,0.8,,,,,,,21,og-post,,,,AAXX 09164 07181 21460 82212 10059 20049 39609 40026 56014 72122 885// 333 69985 86613 86623=
07181,1999-12-09 17:00:00,5.8,1002.6,-0.7,94,4.9,35000,22.224,,,220,,,0.4,,,,,,,,og-post,,,,AAXX 09174 07181 26/81 /2212 10058 20049 39609 40026 56007 333 69945=
07181,1999-12-09 18:00:00,6,1002.8,-0,94,5.1,12000,22.224,53.708,,220,5.6,6.8,,1,,9,,,,21,og-post,,,,AAXX 09184 07181 /1462 82212 10060 20051 39611 40028 55000 60092 72162 885// 333 10068 20056 60017 85612 86640 91129=
07181,1999-12-09 19:00:00,6,1002.8,0.2,94,5.1,12000,18.52,,,220,,,,,,,,,,,og-post,,,,AAXX 09194 07181 32462 82210 10060 20051 39611 40028 52002 885// 333 85612 86640=
07181,1999-12-09 20:00:00,5.8,1003,0.3,92,4.6,12000,14.816,,,220,,,,,,,,,,,og-post,,,,AAXX 09204 07181 32462 82208 10058 20046 39612 40030 51003 875// 333 83815 86640=
07181,1999-12-09 21:00:00,5.5,1002.9,0,93,4.5,12000,14.816,,,220,,,,,,,,,,,og-post,,,,AAXX 09214 07181 32462 82208 10055 20045 39611 40029 50000 875// 333 83815 86650=
07181,1999-12-09 22:00:00,5.1,1003,0,92,3.9,12000,14.816,,,220,,,,,,,,,,,og-post,,,,AAXX 09224 07181 32462 42208 10051 20039 39611 40030 50000 84800 333 82815 83636=
07181,1999-12-09 23:00:00,5.3,1002.7,-0.3,90,3.8,12000,25.928,,,220,,,,,,,,,,,og-post,,,,AAXX 09234 07181 32462 62214 10053 20038 39609 40027 58003 82802 333 82815 85075=
07181,1999-12-10 00:00:00,5.5,1002.8,-0.1,91,4.2,12000,22.224,,,220,,,,,,,,,,,og-post,,,,AAXX 10004 07181 32462 72212 10055 20042 39610 40028 55001 85802 333 84815 85075=
07181,1999-12-10 01:00:00,5.4,1002.8,-0.1,90,3.9,15000,18.52,,,220,,,,,,,,,,,og-post,,,,AAXX 10014 07181 32465 82210 10054 20039 39610 40028 56001 878// 333 84813 85620=
07181,1999-12-10 02:00:00,5.3,1003.1,0.4,88,3.5,15000,18.52,,,220,,,,,,,,,,,og-post,,,,AAXX 10024 07181 32565 82210 10053 20035 39613 40031 53004 87802 333 86820 87075=
07181,1999-12-10 04:00:00,4.9,1003.4,0.5,89,3.2,45000,18.52,,,230,,,,,,,,,,,og-post,,,,AAXX 10044 07181 36/83 /2310 10049 20032 39615 40034 51005=
07181,1999-12-10 05:00:00,3.8,1003.9,0.5,89,2.2,15000,18.52,,,240,,,,,,,,,,,og-post,,,,AAXX 10054 07181 32465 62410 10038 20022 39618 40039 53005 83802 333 82816 84075=
07181,1999-12-10 06:00:00,3.1,1004.4,0.8,92,1.9,20000,14.816,,,230,3,6.1,,,,,8.8,,2,,og-post,,,,AAXX 10064 07181 32470 62308 10031 20019 39622 40044 53008 83702 333 10061 20030 32002 55/// 70088 83813 85075=
07181,1999-12-10 07:00:00,3,1005.2,1.4,94,2.1,20000,11.112,,,250,,,,,,,,,,,og-post,,,,AAXX 10074 07181 32470 72506 10030 20021 39629 40052 53014 85702 333 85813 85075=
07181,1999-12-10 08:00:00,2.6,1005.9,1.7,93,1.6,20000,18.52,,,230,,,,,,,,,,,og-post,,,,AAXX 10084 07181 32470 62310 10026 20016 39635 40059 53017 84702 333 83815 83633=
07181,1999-12-10 09:00:00,3.8,1006.3,1.9,92,2.6,20000,22.224,,,230,,,,,,,,,,,og-post,,,,AAXX 10094 07181 32470 72312 10038 20026 39641 40063 51019 877// 333 86813 83633=
07181,1999-12-10 10:00:00,5.2,1006.7,1.8,87,3.2,20000,25.928,,,240,,,,,,,,,,,og-post,,,,AAXX 10104 07181 32470 72414 10052 20032 39647 40067 52018 877// 333 87812=
07181,1999-12-10 12:00:00,4.9,1007.5,1.3,87,2.9,15000,22.224,,,250,,,,,,,,,,60,og-post,,,,AAXX 10124 07181 /1465 72512 10049 20029 39654 40075 51013 69901 76062 877// 333 69907 87813=
07181,1999-12-10 13:00:00,4.5,1007.9,1,92,3.3,13000,18.52,,,260,,,0.2,,,,,,,21,og-post,,,,AAXX 10134 07181 21463 72610 10045 20033 39657 40079 51010 72162 872// 333 69925 82710 87813=
07181,1999-12-10 14:00:00,4.5,1008.5,1.2,91,3.2,13000,18.52,,,240,,,,,,,,,,,og-post,,,,AAXX 10144 07181 32463 72410 10045 20032 39663 40085 53012 872// 333 83710 87815=
07181,1999-12-10 15:00:00,4.3,1009,1.4,91,3,13000,18.52,,,240,,,,0.2,,,,,,3,og-post,,,,AAXX 10154 07181 21463 72410 10043 20030 39668 40090 53014 70362 872// 333 69927 85710 87815=
07181,1999-12-10 16:00:00,4.3,1010,2,92,3.1,13000,22.224,,,230,,,,,,,,,,,og-post,,,,AAXX 10164 07181 32363 72312 10043 20031 39677 40100 53020 872// 333 85709 87815=
07181,1999-12-10 17:00:00,4.3,1010.7,2.1,93,3.3,13000,11.112,,,240,,,,,,,,,,,og-post,,,,AAXX 10174 07181 32363 72406 10043 20033 39684 40107 53021 877// 333 87709=
07181,1999-12-10 18:00:00,4.3,1011,1.9,94,3.4,13000,11.112,,,240,2.4,5.8,,,,0.2,,,,3,og-post,,,,AAXX 10184 07181 11363 72406 10043 20034 39687 40110 51019 69922 70362 877// 333 10058 20024 87708=
07181,1999-12-10 19:00:00,4.3,1011.1,1.1,93,3.3,13000,18.52,,,230,,,,,,,,,,,og-post,,,,AAXX 10194 07181 32463 72310 10043 20033 39688 40111 51011 877// 333 87710=
07181,1999-12-10 20:00:00,4.3,1011.1,0.4,92,3.1,13000,22.224,,,220,,,,,,,,,,,og-post,,,,AAXX 10204 07181 32463 72212 10043 20031 39688 40111 51004 877// 333 87711=
07181,1999-12-10 21:00:00,4.2,1011.3,0.2,90,2.7,13000,18.52,,,230,,,,,,,,,,,og-post,,,,AAXX 10214 07181 32463 72310 10042 20027 39689 40113 52002 878// 333 85815 86623=
07181,1999-12-10 22:00:00,3.4,1011.3,0,91,2.1,13000,18.52,,,220,,,,,,,,,,,og-post,,,,AAXX 10224 07181 32463 72210 10034 20021 39688 40113 50000 878// 333 85815 86633=
07181,1999-12-10 23:00:00,3,1011,-0.3,93,2,13000,18.52,,,200,,,,,,,,,,,og-post,,,,AAXX 10234 07181 32463 72010 10030 20020 39685 40110 58003 878// 333 82815=
07181,1999-12-11 00:00:00,3.1,1010.2,-1.2,91,1.8,29000,14.816,,,190,,,,,,,,,,,og-post,,,,AAXX 11004 07181 36/79 /1908 10031 20018 39677 40102 58012=
07181,1999-12-11 01:00:00,3.1,1009.7,-1.6,89,1.5,28000,25.928,,,190,,,,,,,,,,,og-post,,,,AAXX 11014 07181 36/78 /1914 10031 20015 39672 40097 58016=
07181,1999-12-11 02:00:00,3,1008.8,-2.1,88,1.2,13000,25.928,,,180,,,,,,,,,,,og-post,,,,AAXX 11024 07181 32663 51814 10030 20012 39664 40088 57021 85600 333 82633 84650=
07181,1999-12-11 03:00:00,3.4,1007.5,-2.5,86,1.3,13000,29.632,,,190,,,,,,,,,,,og-post,,,,AAXX 11034 07181 32563 71916 10034 20013 39652 40075 58025 875// 333 87620=
07181,1999-12-11 04:00:00,3.4,1006.5,-3,88,1.6,26000,29.632,,,190,,,,,,,,,,,og-post,,,,AAXX 11044 07181 36/76 /1916 10034 20016 39642 40065 58030=
07181,1999-12-11 05:00:00,3,1005.5,-3.2,92,1.8,13000,31.484,,,200,,,1,,,,,,,,og-post,,,,AAXX 11054 07181 22463 72017 10030 20018 39632 40055 56032 875// 333 60015 85813 87633=
07181,1999-12-11 06:00:00,2.4,1005,-2.6,93,1.4,13000,31.484,,,180,2.4,4.4,,4,,4,4.4,,2,61,og-post,,,,AAXX 11064 07181 /1463 71817 10024 20014 39626 40050 56026 60042 76161 875// 333 10044 20024 32002 55/// 60047 70044 83813 87633=
07181,1999-12-11 07:00:00,2.7,1004.9,-1.6,94,1.8,9000,31.484,61.116,,190,,,0.2,,,,,,,60,og-post,,,,AAXX 11074 07181 21359 81917 10027 20018 39626 40049 56016 76066 878// 333 69925 85809 87643 91133=
07181,1999-12-11 08:00:00,3.1,1004.8,-0.6,95,2.4,13000,42.596,,,200,,,0.2,,,,,,,,og-post,,,,AAXX 11084 07181 26/63 /2023 10031 20024 39626 40048 56006 333 69925=
07181,1999-12-11 09:00:00,4,1005.2,0.5,95,3.3,10000,35.188,61.116,,210,,,,0.4,,,,,,21,og-post,,,,AAXX 11094 07181 21360 82119 10040 20033 39631 40052 53005 72162 878// 333 69947 85808 87625 91133=
07181,1999-12-11 10:00:00,4.6,1005.2,0.6,96,4,40000,29.632,,,210,,,,,,,,,,,og-post,,,,AAXX 11104 07181 36/82 /2116 10046 20040 39632 40052 53006=
07181,1999-12-11 11:00:00,5.2,1004.3,-0.2,95,4.5,9000,25.928,,,200,,,,,,,,,,,og-post,,,,AAXX 11114 07181 26/59 /2014 10052 20045 39624 40043 58002 333 69905=
07181,1999-12-11 12:00:00,5.4,1004.2,-0.8,96,4.8,6000,35.188,61.116,,210,,,,0.8,1,,,,,58,og-post,,,,AAXX 11124 07181 /1356 82119 10054 20048 39623 40042 58008 60011 75865 875// 333 69987 85707 87620 91133=
07181,1999-12-11 13:00:00,6.2,1003.6,-1.3,96,5.6,15000,29.632,,,210,,,0.8,,,,,,,,og-post,,,,AAXX 11134 07181 26/65 /2116 10062 20056 39619 40036 56013 333 69985=
07181,1999-12-11 14:00:00,7,1003.1,-0.9,96,6.4,35000,25.928,,,200,,,0.4,,,,,,,,og-post,,,,AAXX 11144 07181 26/81 /2014 10070 20064 39615 40031 58009 333 69945=
07181,1999-12-11 15:00:00,8.1,1002.7,-1,97,7.7,8000,29.632,,,210,,,,2,,,,,,58,og-post,,,,AAXX 11154 07181 21258 82116 10081 20077 39613 40027 56010 75866 877// 333 60027 87706=
07181,1999-12-11 16:00:00,8.1,1002.3,-1,97,7.7,6000,29.632,,,200,,,2,,,,,,,59,og-post,,,,AAXX 11164 07181 21356 82016 10081 20077 39609 40023 57010 75966 877// 333 60025 87706=
07181,1999-12-11 17:00:00,8.7,1001.7,-1,96,8.1,5000,38.892,,,210,,,3,,,,,,,,og-post,,,,AAXX 11174 07181 26/50 /2121 10087 20081 39605 40017 58010 333 60035=
07181,1999-12-11 18:00:00,9.5,1001.1,-1.3,92,8.3,12000,42.596,64.82,64.82,210,2.4,9.5,,6,,9,,,,21,og-post,,,,AAXX 11184 07181 /1462 82123 10095 20083 39600 40011 58013 60092 72165 875// 333 10095 20024 60067 87616 91035 91135=
07181,1999-12-11 19:00:00,9.9,1001.1,-0.8,90,8.3,12000,38.892,61.116,61.116,220,,,0.6,,,,,,,60,og-post,,,,AAXX 11194 07181 21462 82221 10099 20083 39601 40011 55008 76062 875// 333 69965 87618 91033 91133=
07181,1999-12-11 20:00:00,10,1000.7,-0.8,88,8.1,15000,50.004,,,220,,,0.2,,,,,,,60,og-post,,,,AAXX 11204 07181 21565 82227 10100 20081 39597 40007 56008 76066 875// 333 69925 87620=
07181,1999-12-11 21:00:00,9.1,1001,-0.2,92,7.9,15000,38.892,,,210,,,,2,,,,,,60,og-post,,,,AAXX 11214 07181 21565 82121 10091 20079 39598 40010 57002 76062 875// 333 60027 87620=
07181,1999-12-11 22:00:00,8.9,1000.8,-0.5,96,8.3,7000,38.892,61.116,61.116,210,,,2,,,,,,,,og-post,,,,AAXX 11224 07181 26/57 /2121 10089 20083 39596 40008 56005 333 60025 91033 91133=
07181,1999-12-12 00:00:00,9.2,999.7,-1.2,95,8.4,7000,38.892,,,210,,,,6,7,,,,,60,og-post,,,,AAXX 12004 07181 /1457 82121 10092 20084 39586 49997 58012 60071 76062 877// 333 60067 87711=
07181,1999-12-12 01:00:00,9.1,998.9,-1.8,95,8.3,7000,42.596,64.82,,210,,,2,,,,,,,60,og-post,,,,AAXX 12014 07181 21457 82123 10091 20083 39578 49989 58018 76066 877// 333 60025 87710 91135=
07181,1999-12-12 02:00:00,9.2,998.4,-2,96,8.6,7000,38.892,,,210,,,1,,,,,,,60,og-post,,,,AAXX 12024 07181 21457 82121 10092 20086 39574 49984 56020 76066 877// 333 60015 87710=
07181,1999-12-12 04:00:00,9.2,996.2,-2.5,94,8.3,7000,35.188,,,200,,,2,,,,,,,,og-post,,,,AAXX 12044 07181 26/57 /2019 10092 20083 39553 49962 58025 333 60025=
07181,1999-12-12 05:00:00,9.4,995,-3.3,92,8.2,12000,46.3,72.228,72.228,210,,,2,,,,,,,,og-post,,,,AAXX 12054 07181 26/62 /2125 10094 20082 39541 49950 58033 333 60025 91039 91139=
07181,1999-12-12 06:00:00,9.1,994.2,-3.1,93,8,7000,42.596,75.932,,220,8.8,10.1,,6,,19,27.4,,8,60,og-post,,,,AAXX 12064 07181 /1557 82223 10091 20080 39533 49942 56031 60192 76066 875// 333 10101 20088 32008 55/// 60067 70274 87620 91141=
07181,1999-12-12 07:00:00,9.4,993,-3.1,90,7.8,4800,53.708,87.044,87.044,210,,,3,,,,,,,,og-post,,,,AAXX 12074 07181 26/48 /2129 10094 20078 39522 49930 56031 333 60035 91047 91147=
07181,1999-12-12 08:00:00,8.9,991.6,-3.3,91,7.5,7000,53.708,90.748,87.044,200,,,2,,,,,,,61,og-post,,,,AAXX 12084 07181 21457 82029 10089 20075 39508 49916 58033 76166 878// 333 60025 84813 87625 91047 91149=
07181,1999-12-12 09:00:00,8.8,991.4,-2.7,92,7.6,7000,53.708,100.008,75.932,200,,,,6,,,,,,61,og-post,,,,AAXX 12094 07181 21457 82029 10088 20076 39506 49914 56027 76166 878// 333 60067 85813 87625 91041 91154=
07181,1999-12-12 11:00:00,9.3,990.7,-0.8,76,5.3,9000,50.004,79.636,75.932,220,,,,,,,,,,15,og-post,,,,AAXX 12114 07181 31559 82227 10093 20053 39500 49907 58008 71522 878// 333 86820 85630 91041 91143=
07181,1999-12-12 12:00:00,8.8,990.9,-0.5,77,5,9000,46.3,100.008,72.228,220,,,,2,8,,,,,80,og-post,,,,AAXX 12124 07181 /1559 72225 10088 20050 39501 49909 55005 60081 78086 878// 333 60027 86826 85640 91039 91154=
07181,1999-12-12 13:00:00,7.2,993,1.3,90,5.7,7000,38.892,90.748,72.228,250,,,1,,,,,,,80,og-post,,,,AAXX 12134 07181 21557 72521 10072 20057 39519 49930 53013 78086 878// 333 60015 86826 85640 91039 91149=
07181,1999-12-12 14:00:00,6.1,996.5,5.1,87,4.1,16000,35.188,68.524,64.82,270,,,3,,,,,,,,og-post,,,,AAXX 12144 07181 26/66 /2719 10061 20041 39551 49965 53051 333 60035 91035 91137=
07181,1999-12-12 15:00:00,5.7,997.8,6.1,87,3.7,9000,31.484,90.748,61.116,250,,,,4,,,,,,80,og-post,,,,AAXX 12154 07181 21559 72517 10057 20037 39562 49978 51061 78086 878// 333 60047 86823 85640 91033 91149=
07181,1999-12-12 16:00:00,4.9,999.1,5.5,91,3.6,7000,25.928,61.116,,250,,,3,,,,,,,80,og-post,,,,AAXX 12164 07181 21557 72514 10049 20036 39574 49991 51055 78086 878// 333 60035 86820 85633 91133=
07181,1999-12-12 17:00:00,3.3,1000.6,3.5,96,2.7,7000,18.52,53.708,,290,,,4,,,,,,,81,og-post,,,,AAXX 12174 07181 21457 72910 10033 20027 39586 40006 53035 78188 879// 333 60045 86813 84920 85633 91129=
07181,1999-12-12 18:00:00,5.4,1000.8,2.9,90,3.9,9000,29.632,90.748,,240,2.9,9.7,,9,,22,,,,25,og-post,,,,AAXX 12184 07181 /1459 72416 10054 20039 39591 40008 51029 60222 72587 879// 333 10097 20029 60097 86813 83920 85633 91149=
07181,1999-12-12 19:00:00,5.3,1002.2,3,87,3.3,20000,29.632,57.412,,250,,,,,,,,,,,og-post,,,,AAXX 12194 07181 32470 72516 10053 20033 39604 40022 53030 878// 333 86815 85640 91131=
07181,1999-12-12 20:00:00,5.1,1003,2.5,84,2.6,30000,25.928,50.004,,250,,,,,,,,,,,og-post,,,,AAXX 12204 07181 32480 72514 10051 20026 39611 40030 53025 878// 333 86815 85640 91127=
07181,1999-12-12 21:00:00,4.7,1003.9,2.8,86,2.6,30000,29.632,57.412,50.004,250,,,,,,,,,,,og-post,,,,AAXX 12214 07181 32480 72516 10047 20026 39619 40039 51028 878// 333 86815 85640 91027 91131=
07181,1999-12-12 22:00:00,4.4,1004.8,2.3,87,2.4,30000,29.632,53.708,,250,,,,,,,,,,,og-post,,,,AAXX 12224 07181 32480 72516 10044 20024 39627 40048 53023 878// 333 86815 85630 91129=
07181,1999-12-12 23:00:00,4.1,1005.7,2.5,88,2.3,20000,25.928,61.116,,240,,,,,,,,,,,og-post,,,,AAXX 12234 07181 32470 72414 10041 20023 39636 40057 53025 878// 333 85815 85630 91133=
07181,1999-12-13 00:00:00,3.8,1006.7,2.6,89,2.2,20000,29.632,61.116,53.708,250,,,,,,,,,,,og-post,,,,AAXX 13004 07181 32470 72516 10038 20022 39645 40067 53026 878// 333 85813 85630 91029 91133=
07181,1999-12-13 01:00:00,3.7,1007.9,2.9,90,2.2,20000,25.928,50.004,,250,,,,,,,,,,,og-post,,,,AAXX 13014 07181 32470 72514 10037 20022 39656 40079 53029 875// 333 87613 91127=
07181,1999-12-13 02:00:00,4.1,1008.6,2.7,86,2,20000,29.632,53.708,53.708,250,,,,,,,,,,,og-post,,,,AAXX 13024 07181 32470 72516 10041 20020 39663 40086 51027 875// 333 87613 91029 91129=
07181,1999-12-13 04:00:00,4,1010.2,2.3,84,1.5,30000,25.928,53.708,,260,,,,,,,,,,,og-post,,,,AAXX 13044 07181 32480 72614 10040 20015 39679 40102 53023 875// 333 87616 91129=
07181,1999-12-13 05:00:00,3.7,1011.2,2.5,85,1.4,30000,25.928,,,250,,,,,,,,,,,og-post,,,,AAXX 13054 07181 32480 72514 10037 20014 39688 40112 53025 875// 333 87616=
07181,1999-12-13 06:00:00,3.6,1011.9,2.4,86,1.5,20000,25.928,53.708,,250,3.6,5.5,,,,,22,,3,,og-post,,,,AAXX 13064 07181 32470 72514 10036 20015 39694 40119 51024 875// 333 10055 20036 32003 55/// 70220 87615 91129=
07181,1999-12-13 07:00:00,3.5,1012.5,2.1,85,1.2,15000,22.224,,,250,,,,,,,,,,,og-post,,,,AAXX 13074 07181 32465 72512 10035 20012 39700 40125 51021 875// 333 87615=
07181,1999-12-13 08:00:00,3.6,1013.2,1.9,87,1.6,15000,18.52,,,260,,,,,,,,,,,og-post,,,,AAXX 13084 07181 32465 72610 10036 20016 39707 40132 53019 875// 333 87613=
07181,1999-12-13 09:00:00,3.7,1013.5,1.6,87,1.7,15000,25.928,,,250,,,,,,,,,,,og-post,,,,AAXX 13094 07181 32465 72514 10037 20017 39710 40135 51016 872// 333 87813=
07181,1999-12-13 10:00:00,4.1,1014,1.5,84,1.6,12000,25.928,,,240,,,,,,,,,,,og-post,,,,AAXX 13104 07181 32462 72414 10041 20016 39715 40140 51015 872// 333 87815=
07181,1999-12-13 11:00:00,4.3,1013.5,0.4,83,1.7,12000,29.632,,,240,,,,,,,,,,,og-post,,,,AAXX 13114 07181 32462 72416 10043 20017 39711 40135 50004 872// 333 87815=
07181,1999-12-13 12:00:00,6.1,1012.9,-0.2,78,2.6,12000,22.224,,,240,,,,,,,,,,,og-post,,,,AAXX 13124 07181 32562 62412 10061 20026 39708 40129 58002 86200 333 86820=
07181,1999-12-13 13:00:00,5.7,1012.3,-1.4,76,1.8,12000,22.224,,,230,,,,,,,,,,,og-post,,,,AAXX 13134 07181 32562 72312 10057 20018 39701 40123 58014 878// 333 85826 85656=
07181,1999-12-13 14:00:00,5.2,1012,-1.3,84,2.7,15000,22.224,,,200,,,0.6,,,,,,,25,og-post,,,,AAXX 13144 07181 21565 72012 10052 20027 39698 40120 57013 72586 878// 333 69965 86826 84650=
07181,1999-12-13 15:00:00,5.7,1011.6,-1.4,73,1.2,15000,25.928,,,210,,,,0.6,,,,,,1,og-post,,,,AAXX 13154 07181 21565 62114 10057 20012 39694 40116 56014 70186 86800 333 69967 83830 84650=
07181,1999-12-13 16:00:00,5.3,1010.9,-1.4,73,0.9,15000,25.928,,,200,,,,,,,,,,,og-post,,,,AAXX 13164 07181 32565 62014 10053 20009 39687 40109 58014 85830 333 83830 83650=
07181,1999-12-13 17:00:00,4.9,1010.3,-1.7,81,1.9,15000,25.928,,,190,,,,,,,,,,,og-post,,,,AAXX 13174 07181 32565 61914 10049 20019 39681 40103 58017 85830 333 83825 83650=
07181,1999-12-13 18:00:00,4.4,1009.2,-2.4,89,2.7,15000,35.188,53.708,,200,3.4,6.3,,,,0.6,,,,3,og-post,,,,AAXX 13184 07181 11465 72019 10044 20027 39670 40092 58024 69962 70386 872// 333 10063 20034 87816 91129=
07181,1999-12-13 19:00:00,4.9,1007.9,-2.9,85,2.6,15000,31.484,53.708,53.708,210,,,0.2,,,,,,,,og-post,,,,AAXX 13194 07181 22465 72117 10049 20026 39658 40079 58029 872// 333 69925 87816 91029 91129=
07181,1999-12-13 20:00:00,5.2,1006.7,-3.4,83,2.6,15000,42.596,,,210,,,,,,,,,,,og-post,,,,AAXX 13204 07181 32465 72123 10052 20026 39647 40067 57034 872// 333 87816=
07181,1999-12-13 21:00:00,4.5,1005.3,-3.8,91,3.2,12000,42.596,72.228,72.228,200,,,,0.4,,,,,,61,og-post,,,,AAXX 13214 07181 21462 72023 10045 20032 39632 40053 58038 76186 872// 333 69947 87813 91039 91139=
07181,1999-12-13 22:00:00,4.7,1003.8,-4,91,3.4,12000,42.596,64.82,,210,,,0.4,,,,,,,61,og-post,,,,AAXX 13224 07181 21462 82123 10047 20034 39618 40038 58040 76166 872// 333 69945 87813 91135=
07181,1999-12-13 23:00:00,4.6,1002.8,-3.8,92,3.4,12000,42.596,68.524,68.524,210,,,1,,,,,,,61,og-post,,,,AAXX 13234 07181 21462 82123 10046 20034 39609 40028 56038 76166 872// 333 60015 87813 91037 91137=
07181,1999-12-14 00:00:00,4.7,1001.8,-3.3,94,3.8,6000,38.892,72.228,,210,,,,5,5,,,,,,og-post,,,,AAXX 14004 07181 /6/56 /2121 10047 20038 39599 40018 56033 60051 333 60057 91139=
07181,1999-12-14 01:00:00,4.9,1000.8,-2.8,95,4.2,6000,38.892,61.116,,220,,,3,,,,,,,,og-post,,,,AAXX 14014 07181 26/56 /2221 10049 20042 39590 40008 57028 333 60035 91133=
07181,1999-12-14 02:00:00,3.8,1001.2,-1.7,93,2.8,8000,18.52,,,250,,,5,,,,,,,61,og-post,,,,AAXX 14024 07181 21458 82510 10038 20028 39592 40012 55017 76166 872// 333 60055 87810=
07181,1999-12-14 04:00:00,2.6,1000.1,-1,96,2,8000,18.52,,,230,,,2,,,,,,,61,og-post,,,,AAXX 14044 07181 21458 82310 10026 20020 39580 40001 58010 76166 878// 333 60025 84812 87625=
07181,1999-12-14 05:00:00,2.4,1000.1,-1.3,97,2,9000,14.816,,,250,,,2,,,,,,,61,og-post,,,,AAXX 14054 07181 21359 82508 10024 20020 39579 40001 56013 76166 878// 333 60025 84809 87620=
07181,1999-12-14 06:00:00,2,999.7,-1.1,93,1,10000,18.52,,,220,1.5,5.2,,6,,,,,,61,wg-a,,,,AAXX 14064 07181 12460 82210 10020 20010 39574 49997 57011 60067 76166 878// 90600 333 10052 20015=
07181,1999-12-14 07:00:00,1.8,999.5,-0.7,96,1.2,13000,18.52,,,220,,,1,,,,,,,,og-post,,,,AAXX 14074 07181 26/63 /2210 10018 20012 39573 49995 57007 333 60015=
07181,1999-12-14 08:00:00,2,999.6,-0.5,98,1.7,18000,14.816,,,220,,,0.2,,,,,,,21,og-post,,,,AAXX 14084 07181 21268 72208 10020 20017 39574 49996 55005 72162 878// 333 69925 82805 86609=
07181,1999-12-14 09:00:00,2.4,999.6,0.1,97,2,18000,18.52,,,220,,,,1,,,,,,1,og-post,,,,AAXX 14094 07181 21368 72210 10024 20020 39575 49996 53001 70162 877// 333 60017 87707=
07181,1999-12-14 10:00:00,3,999.7,0.4,97,2.6,18000,18.52,,,230,,,,,,,,,,,og-post,,,,AAXX 14104 07181 32368 62310 10030 20026 39577 49997 53004 86700 333 86707=
07181,1999-12-14 11:00:00,3.8,999.3,0,94,2.9,40000,14.816,,,250,,,,,,,,,,,og-post,,,,AAXX 14114 07181 36/82 /2508 10038 20029 39574 49993 50000=
07181,1999-12-14 12:00:00,4.3,999.1,-0.2,85,2,20000,22.224,,,270,,,,,1,,,,,1,og-post,,,,AAXX 14124 07181 11470 62712 10043 20020 39573 49991 58002 60011 70162 86200 333 86813=
07181,1999-12-14 13:00:00,3.3,999.2,-0.5,90,1.8,15000,18.52,,,270,,,0.2,,,,,,,25,og-post,,,,AAXX 14134 07181 21465 72710 10033 20018 39572 49992 56005 72586 87200 333 69925 84811 85820=
07181,1999-12-14 14:00:00,1.6,999.8,0.1,90,0.1,4700,29.632,,50.004,280,,,0.6,,,,,,,,og-post,,,,AAXX 14144 07181 26/47 /2816 10016 20001 39575 49998 53001 333 69965 91027=
07181,1999-12-14 15:00:00,1.5,1000.2,0.6,94,0.6,5000,18.52,,,240,,,,2,,,,,,83,og-post,,,,AAXX 14154 07181 21450 82410 10015 20006 39579 40002 53006 78387 889// 333 60027 85911 86833=
07181,1999-12-14 16:00:00,1.9,1001,1.5,94,1,10000,14.816,,,240,,,0.2,,,,,,,26,og-post,,,,AAXX 14164 07181 21460 72408 10019 20010 39587 40010 53015 72687 872// 333 69925 85811 86820=
07181,1999-12-14 17:00:00,1.2,1001.7,1.8,95,0.5,10000,11.112,,,220,,,,,,,,,,,og-post,,,,AAXX 14174 07181 32460 72206 10012 20005 39593 40017 53018 872// 333 85810 85826=
07181,1999-12-14 19:00:00,1.2,1002.8,1.6,93,0.2,40000,14.816,,,250,,,,,,,,,,,og-post,,,,AAXX 14194 07181 36/82 /2508 10012 20002 39603 40028 51016=
07181,1999-12-14 20:00:00,1.4,1002.9,1.2,95,0.7,15000,11.112,,,260,,,,,,,,,,,og-post,,,,AAXX 14204 07181 32465 62606 10014 20007 39605 40029 51012 85230 333 85810 84357=
07181,1999-12-14 21:00:00,0.9,1003.4,1.1,95,0.2,15000,11.112,,,250,,,,,,,,,,,og-post,,,,AAXX 14214 07181 32465 62506 10009 20002 39609 40034 51011 86200 333 84816 85830=
07181,1999-12-14 22:00:00,0.5,1003.8,0.9,96,-0.1,11000,7.408,,,240,,,,,,,,,,,og-post,,,,AAXX 14224 07181 36/61 /2404 10005 21001 39612 40038 53009=
07181,1999-12-14 23:00:00,0,1004.4,1.2,97,-0.4,12000,7.408,,,230,,,,,,,,,,,og-post,,,,AAXX 14234 07181 32362 52304 10000 21004 39617 40044 53012 85800 333 82808 84840=
07181,1999-12-15 00:00:00,0.5,1004.4,0.9,98,0.2,12000,7.408,,,210,,,,,,,,,,,og-post,,,,AAXX 15004 07181 32362 72104 10005 20002 39618 40044 51009 872// 333 83807 86813=
07181,1999-12-15 01:00:00,0.2,1004.5,0.6,98,-0.1,10000,11.112,,,200,,,,,,,,,,,og-post,,,,AAXX 15014 07181 36/60 /2006 10002 21001 39618 40045 51006=
07181,1999-12-15 02:00:00,0.1,1004.6,0.2,98,-0.2,12000,11.112,,,200,,,,,,,,,,,og-post,,,,AAXX 15024 07181 32262 82006 10001 21002 39619 40046 52002 875// 333 84705 87650=
07181,1999-12-15 03:00:00,0.2,1004.5,0,98,-0.1,12000,11.112,,,240,,,,,,,,,,,og-post,,,,AAXX 15034 07181 32362 82406 10002 21001 39618 40045 50000 877// 333 87706=
07181,1999-12-15 04:00:00,0.4,1004.6,0.1,97,0,12000,7.408,,,200,,,,,,,,,,,og-post,,,,AAXX 15044 07181 36/62 /2004 10004 20000 39619 40046 52001=
07181,1999-12-15 05:00:00,0.3,1004.8,0.2,97,-0.1,8000,3.704,,,250,,,,,,,,,,,og-post,,,,AAXX 15054 07181 32258 82502 10003 21001 39621 40048 53002 877// 333 87703=
07181,1999-12-15 06:00:00,0.2,1005.1,0.6,98,-0.1,5000,7.408,,,310,-0.3,,,0.4,,0.4,3.4,,-3,70,og-post,,,,AAXX 15064 07181 /1250 83104 10002 21001 39624 40051 53006 69942 77072 877// 333 10014 21003 31103 55/// 69947 70034 87703=
07181,1999-12-15 07:00:00,0.2,1005.4,0.8,99,0.1,6000,7.408,,,280,,,,,,,,,,22,og-post,,,,AAXX 15074 07181 21256 82804 10002 20001 39627 40054 53008 72272 887// 333 69905 85703 85610=
07181,1999-12-15 08:00:00,0.2,1005.6,0.8,96,-0.4,12000,7.408,,,270,,,,,,,,,,22,og-post,,,,AAXX 15084 07181 31262 62704 10002 21004 39629 40056 51008 72222 86800 333 83704 83810=
07181,1999-12-15 09:00:00,0.2,1006.4,1.2,93,-0.8,14000,7.408,,,260,,,,,,,,,,1,og-post,,,,AAXX 15094 07181 21264 72604 10002 21008 39636 40064 53012 70172 878// 333 69907 82704 84810=
07181,1999-12-15 10:00:00,0.3,1006.9,1.4,88,-1.4,18000,11.112,,,300,,,,,,,,,,,og-post,,,,AAXX 15104 07181 32268 73006 10003 21014 39641 40069 53014 878// 333 82705 84810=
07181,1999-12-15 11:00:00,0.6,1007,1.3,77,-3,20000,14.816,,,280,,,,,,,,,,,og-post,,,,AAXX 15114 07181 32470 72808 10006 21030 39642 40070 51013 878// 333 83811 85633=
07181,1999-12-15 12:00:00,0.4,1007,0.6,85,-1.8,20000,11.112,,,260,,,,,,,,,,1,og-post,,,,AAXX 15124 07181 11470 82606 10004 21018 39642 40070 51006 69901 70172 878// 333 83812 86633=
07181,1999-12-15 13:00:00,0.8,1006.8,0,83,-1.7,20000,7.408,,,350,,,,,,,,,,,og-post,,,,AAXX 15134 07181 32470 83504 10008 21017 39641 40068 50000 878// 333 83815 86636=
07181,1999-12-15 14:00:00,0.3,1007.3,0.3,86,-1.8,5000,14.816,,,360,,,,,,,,,,71,og-post,,,,AAXX 15144 07181 21350 83608 10003 21018 39645 40073 53003 77172 888// 333 69905 82709 84815 86636=
07181,1999-12-15 18:00:00,-1.4,1011.1,2.6,94,-2.2,12000,14.816,,,340,-2.2,1.1,,,,,,,,1,og-post,,,,AAXX 15184 07181 /1262 53408 11014 21022 39679 40111 53026 69902 70172 85700 333 10011 21022 69907 83706 83650=
07181,1999-12-15 19:00:00,-1.2,1012,2.8,93,-2.2,12000,18.52,,,340,,,,,,,,,,,og-post,,,,AAXX 15194 07181 32262 73410 11012 21022 39688 40120 53028 875// 333 84706 85610=
07181,1999-12-15 20:00:00,-1.5,1013,2.9,92,-2.6,12000,22.224,,,360,,,,,,,,,,,og-post,,,,AAXX 15204 07181 32362 73612 11015 21026 39697 40130 51029 875// 333 85708 85620=
07181,1999-12-15 21:00:00,-2.2,1014.2,2.8,92,-3.3,12000,18.52,,,10,,,,,,,,,,,og-post,,,,AAXX 15214 07181 32362 70110 11022 21033 39707 40142 53028 875// 333 85708 85620=
07181,1999-12-15 22:00:00,-2.4,1015.2,2.8,91,-3.7,12000,14.816,,,350,,,,,,,,,,,og-post,,,,AAXX 15224 07181 32462 73508 11024 21037 39716 40152 52028 875// 333 83710 86630=
07181,1999-12-15 23:00:00,-2.7,1016.1,2.7,81,-5.5,12000,14.816,,,10,,,,,,,,,,,og-post,,,,AAXX 15234 07181 32462 70108 11027 21055 39724 40161 51027 875// 333 83710 86630=
07181,1999-12-16 00:00:00,-4.3,1017.1,2.4,86,-6.3,15000,11.112,,,350,,,,,,,,,,,og-post,,,,AAXX 16004 07181 32565 23506 11043 21063 39731 40171 51024 82500 333 82630=
07181,1999-12-16 01:00:00,-4.7,1017.9,2.2,89,-6.2,16000,11.112,,,350,,,,,,,,,,,og-post,,,,AAXX 16014 07181 36/66 /3506 11047 21062 39738 40179 51022=
07181,1999-12-16 02:00:00,-4.7,1018.7,2.2,92,-5.8,15000,11.112,,,350,,,,,,,,,,,og-post,,,,AAXX 16024 07181 32565 33506 11047 21058 39746 40187 53022 83500 333 83630 83650=
07181,1999-12-16 03:00:00,-5.2,1019,1.7,94,-6,15000,3.704,,,10,,,,,,,,,,,og-post,,,,AAXX 16034 07181 32565 20102 11052 21060 39748 40190 51017 82500 333 82630=
07181,1999-12-16 04:00:00,-4.3,1019.6,1.7,95,-5,15000,7.408,,,360,,,,,,,,,,,og-post,,,,AAXX 16044 07181 32565 23604 11043 21050 39755 40196 51017 82500 333 82630=
07181,1999-12-16 05:00:00,-4.4,1020.5,1.8,95,-5.1,15000,7.408,,,350,,,,,,,,,,,og-post,,,,AAXX 16054 07181 32565 63504 11044 21051 39764 40205 53018 86500 333 86622=
07181,1999-12-16 06:00:00,-4.2,1021.2,2.3,94,-5,5000,3.704,,,340,-5.2,-1,,,,,0,,-6,70,og-post,,0,,AAXX 16064 07181 /1450 73402 11042 21050 39771 40212 52023 69902 77071 875// 333 11010 21052 3/106 45998 55/// 69907 79999 87613=
07181,1999-12-16 07:00:00,-4.2,1022,2.3,96,-4.7,1500,7.408,,,340,,,,,,,,,,70,og-post,,,,AAXX 16074 07181 21315 73404 11042 21047 39778 40220 51023 77077 875// 333 69905 85609 87616=
07181,1999-12-16 08:00:00,-4.2,1023.5,2.9,96,-4.7,5000,7.408,,,350,,,0.2,,,,,,,22,og-post,,,,AAXX 16084 07181 21250 73504 11042 21047 39793 40235 53029 72272 875// 333 69925 84706 86616=
07181,1999-12-16 09:00:00,-3.7,1024.4,3.1,94,-4.5,5000,7.408,,,30,,,,0.2,,,,,,22,og-post,,,,AAXX 16094 07181 21250 60304 11037 21045 39802 40244 53031 72272 86500 333 69927 82705 84616=
07181,1999-12-16 10:00:00,-2.7,1024.8,3,92,-3.8,8000,7.408,,,360,,,,,,,,,,,og-post,,,,AAXX 16104 07181 32258 33604 11027 21038 39808 40248 51030 83100 333 82705 83816=
07181,1999-12-16 11:00:00,-1.8,1024.9,1.7,90,-3.2,14000,7.408,,,310,,,,,,,,,,,og-post,,,,AAXX 16114 07181 36/64 /3104 11018 21032 39810 40249 51017=
07181,1999-12-16 12:00:00,-1.1,1025.1,1.1,84,-3.4,9000,7.408,,,10,,,,,0.2,,,,,1,og-post,,,,AAXX 16124 07181 11459 20104 11011 21034 39813 40251 51011 69921 70171 82100 333 82710=
07181,1999-12-16 13:00:00,-0.5,1025.4,0.9,76,-4.2,15000,7.408,,,350,,,,,,,,,,,og-post,,,,AAXX 16134 07181 32465 43504 11005 21042 39817 40254 53009 84100 333 84814=
07181,1999-12-16 14:00:00,-0.7,1025.6,0.8,77,-4.2,20000,11.112,,,330,,,,,,,,,,,og-post,,,,AAXX 16144 07181 32570 63306 11007 21042 39818 40256 51008 86800 333 86820=
07181,1999-12-16 15:00:00,-0.7,1026.1,1,75,-4.6,20000,7.408,,,10,,,,,,,,,,,og-post,,,,AAXX 16154 07181 32570 40104 11007 21046 39823 40261 53010 84800 333 84821=
07181,1999-12-16 16:00:00,-2,1027.1,1.4,81,-4.8,20000,,,,,,,,,,,,,,,og-post,,,,AAXX 16164 07181 32570 20000 11020 21048 39831 40271 53014 82800 333 82821=
07181,1999-12-16 17:00:00,-2.9,1028.1,2.1,85,-5.1,13000,3.704,,,240,,,,,,,,,,,og-post,,,,AAXX 16174 07181 32563 22402 11029 21051 39839 40281 53021 82500 333 82621=
07181,1999-12-16 18:00:00,-3.5,1028.7,2.1,90,-4.9,13000,7.408,,,190,-4.7,-0.2,,,,0.2,,,,,og-post,,0,,AAXX 16184 07181 12563 21904 11035 21049 39844 40287 51021 69922 82500 333 11002 21047 42998 82621=
07181,1999-12-16 19:00:00,-3.6,1029.2,1.7,89,-5.1,13000,7.408,,,170,,,,,,,,,,,og-post,,,,AAXX 16194 07181 32563 21704 11036 21051 39848 40292 51017 82500 333 82630=
07181,1999-12-16 20:00:00,-2.8,1029.5,1.3,89,-4.4,13000,7.408,,,200,,,,,,,,,,,og-post,,,,AAXX 16204 07181 32563 72004 11028 21044 39852 40295 51013 875// 333 87632=
07181,1999-12-16 21:00:00,-2.6,1029.8,1.2,88,-4.3,13000,11.112,,,230,,,,,,,,,,,og-post,,,,AAXX 16214 07181 32563 72306 11026 21043 39856 40298 52012 875// 333 87628=
07181,1999-12-16 22:00:00,-2.3,1029.9,0.9,87,-4.2,13000,11.112,,,220,,,,,,,,,,,og-post,,,,AAXX 16224 07181 32563 72206 11023 21042 39857 40299 51009 875// 333 87628=
07181,1999-12-16 23:00:00,-2,1029.6,0.3,90,-3.4,13000,11.112,,,220,,,,,,,,,,,og-post,,,,AAXX 16234 07181 32563 72206 11020 21034 39855 40296 50003 875// 333 87626=
07181,1999-12-17 00:00:00,-1.9,1029.4,-0.3,91,-3.2,9000,14.816,,,220,,,,,,,,,,,og-post,,,,AAXX 17004 07181 32559 72208 11019 21032 39853 40294 58003 875// 333 87630=
07181,1999-12-17 01:00:00,-2.1,1028.9,-0.9,91,-3.4,8000,14.816,,,220,,,,,,,,,,,og-post,,,,AAXX 17014 07181 36/58 /2208 11021 21034 39848 40289 58009=
07181,1999-12-17 02:00:00,-3.2,1029.1,-0.7,92,-4.3,8000,11.112,,,220,,,,,,,,,,,og-post,,,,AAXX 17024 07181 32558 32206 11032 21043 39848 40291 56007 83500 333 83630=
07181,1999-12-17 03:00:00,-3.7,1028.8,-0.9,94,-4.5,7000,11.112,,,220,,,,,,,,,,,og-post,,,,AAXX 17034 07181 32557 32206 11037 21045 39844 40288 56009 83500 333 83630=
07181,1999-12-17 04:00:00,-3.3,1028.2,-0.9,92,-4.4,7000,7.408,,,220,,,,,,,,,,,og-post,,,,AAXX 17044 07181 32557 32204 11033 21044 39839 40282 58009 83500 333 83630=
07181,1999-12-17 05:00:00,-4.1,1028.1,-1.1,90,-5.5,13000,11.112,,,220,,,,,,,,,,,og-post,,,,AAXX 17054 07181 32663 22206 11041 21055 39837 40281 56011 82500 333 82633=
07181,1999-12-17 06:00:00,-4,1027.8,-1,90,-5.4,13000,14.816,,,190,-4.3,-1.9,,,,,0.2,,-8,,og-post,,0,,AAXX 17064 07181 32663 21908 11040 21054 39834 40278 56010 81501 333 11019 21043 3/108 42998 55/// 70002 81633=
07181,1999-12-17 07:00:00,-3.6,1027.7,-0.5,89,-5.1,10000,11.112,,,200,,,,,,,,,,,og-post,,,,AAXX 17074 07181 32460 62006 11036 21051 39834 40277 56005 84501 333 84618 85073=
07181,1999-12-17 08:00:00,-2.1,1027.6,-0.2,90,-3.5,10000,22.224,,,220,,,,,,,,,,,og-post,,,,AAXX 17084 07181 32460 72212 11021 21035 39835 40276 55002 86501 333 86615 87073=
07181,1999-12-17 09:00:00,-1.2,1027,-0.3,90,-2.6,10000,29.632,,,210,,,,,,,,,,,og-post,,,,AAXX 17094 07181 32560 72116 11012 21026 39831 40270 58003 86501 333 86621 87073=
07181,1999-12-17 10:00:00,-0.6,1026.8,-0.4,89,-2.2,11000,25.928,,,210,,,,,,,,,,,og-post,,,,AAXX 17104 07181 32461 72114 11006 21022 39830 40268 58004 86501 333 86616 87073=
07181,1999-12-17 11:00:00,-0.2,1025.6,-1.6,89,-1.8,11000,22.224,,,200,,,,,,,,,,,og-post,,,,AAXX 17114 07181 32461 72012 11002 21018 39819 40256 58016 86501 333 86610 87073=
07181,1999-12-17 12:00:00,0.4,1024.5,-2.1,90,-1,9000,31.484,,,210,,,,,,,,,,,og-post,,,,AAXX 17124 07181 32359 72117 10004 21010 39810 40245 58021 877// 333 87709=
07181,1999-12-17 13:00:00,0.3,1023.2,-3.3,90,-1.1,9000,29.632,,,200,,,,,,,,,,70,og-post,,,,AAXX 17134 07181 21359 72016 10003 21011 39797 40232 58033 77072 877// 333 69905 87709=
07181,1999-12-17 14:00:00,0.2,1022.6,-2.8,89,-1.4,10000,29.632,,,200,,,,,,,,,,22,og-post,,,,AAXX 17144 07181 21460 72016 10002 21014 39791 40226 56028 72272 877// 333 69905 87710=
07181,1999-12-17 16:00:00,-0.1,1020.9,-2.2,92,-1.2,2000,31.484,53.708,,200,,,,,,,,,,70,og-post,,,,AAXX 17164 07181 21420 82017 11001 21012 39775 40209 58022 77072 877// 333 69905 87710 91129=
07181,1999-12-17 17:00:00,0.2,1020,-2.5,94,-0.6,2000,46.3,64.82,64.82,210,,,,,,,,,,70,og-post,,,,AAXX 17174 07181 21420 82125 10002 21006 39766 40200 58025 77077 875// 333 69905 85710 87625 91035 91135=
07181,1999-12-17 19:00:00,0.4,1019.3,-1.5,93,-0.6,2000,38.892,68.524,,210,,,0.6,,,,,,,66,og-post,,,,AAXX 17194 07181 21420 82121 10004 21006 39760 40193 56015 76676 875// 333 69965 85711 87625 91137 93101=
07181,1999-12-17 20:00:00,0.5,1018.5,-1.3,94,-0.4,4000,35.188,,,210,,,2,,,,,,,68,og-post,,,,AAXX 17204 07181 21440 82119 10005 21004 39753 40185 58013 76876 875// 333 60025 87611 93101=
07181,1999-12-17 22:00:00,1.2,1017.5,-1.6,95,0.5,8000,46.3,,,210,,,0.4,,,,,,,,og-post,,,,AAXX 17224 07181 26/58 /2125 10012 20005 39744 40175 57016 333 69945=
07181,1999-12-17 23:00:00,1.2,1017.4,-1,96,0.6,5000,46.3,64.82,64.82,210,,,0.4,,,,,,,60,og-post,,,,AAXX 17234 07181 21350 82125 10012 20006 39743 40174 56010 76066 875// 333 69945 87609 91035 91135 93101=
07181,1999-12-18 01:00:00,1.7,1016.7,-0.7,96,1.1,6000,42.596,,,220,,,0.2,,,,,,,,og-post,,,,AAXX 18014 07181 26/56 /2223 10017 20011 39737 40167 58007 333 69925=
07181,1999-12-18 02:00:00,2,1016.7,-0.5,96,1.4,8000,38.892,,,210,,,,,,,,,,21,og-post,,,,AAXX 18024 07181 21358 82121 10020 20014 39738 40167 55005 72162 875// 333 69905 85708 86626 93101=
07181,1999-12-18 04:00:00,2.4,1015.6,-0.9,97,2,12000,38.892,,,220,,,,,,,,,,,og-post,,,,AAXX 18044 07181 36/62 /2221 10024 20020 39728 40156 58009=
07181,1999-12-18 05:00:00,2.5,1015.4,-1.2,97,2.1,10000,38.892,,,220,,,,,,,,,,,og-post,,,,AAXX 18054 07181 32260 82221 10025 20021 39726 40154 56012 878// 333 85806 85626=
07181,1999-12-18 07:00:00,3.1,1014.8,-0.7,96,2.5,8000,35.188,,,210,,,,,,,,,,,og-post,,,,AAXX 18074 07181 32358 82119 10031 20025 39721 40148 58007 878// 333 86807 85646=
07181,1999-12-18 08:00:00,3.5,1014.6,-0.6,96,2.9,6000,35.188,,,210,,,0.4,,,,,,,60,og-post,,,,AAXX 18084 07181 21356 82119 10035 20029 39720 40146 57006 76062 877// 333 69945 87807=
07181,1999-12-18 10:00:00,3.3,1015.5,0.7,97,2.9,8000,22.224,,,220,,,3,,,,,,,60,og-post,,,,AAXX 18104 07181 21258 82212 10033 20029 39728 40155 53007 76066 877// 333 60035 87806=
07181,1999-12-18 11:00:00,3.9,1014.8,0.3,98,3.6,7000,25.928,,,220,,,0.6,,,,,,,60,og-post,,,,AAXX 18114 07181 21357 82214 10039 20036 39723 40148 50003 76066 877// 333 69965 87807=
07181,1999-12-18 13:00:00,4.6,1013.9,-1.3,98,4.3,5000,22.224,,,210,,,0.2,,,,,,,60,og-post,,,,AAXX 18134 07181 21250 82112 10046 20043 39715 40139 56013 76066 877// 333 69925 87705=
07181,1999-12-18 14:00:00,4.5,1013.9,-0.8,98,4.2,2500,11.112,,,240,,,0.8,,,,,,,58,og-post,,,,AAXX 18144 07181 21125 82406 10045 20042 39715 40139 56008 75866 877// 333 69985 87702=
07181,1999-12-18 16:00:00,4.1,1014.2,0.2,99,4,2500,11.112,,,210,,,0.8,,,,,,,58,og-post,,,,AAXX 18164 07181 21125 82106 10041 20040 39717 40142 50002 75866 885// 333 69985 85702 88613=
07181,1999-12-18 17:00:00,3.9,1014.8,0.8,99,3.8,2500,3.704,,,330,,,1,,,,,,,58,og-post,,,,AAXX 18174 07181 21125 83302 10039 20038 39723 40148 53008 75866 887// 333 60015 88703=
07181,1999-12-18 19:00:00,3.5,1014.6,0.3,99,3.4,2000,3.704,,,350,,,2,,,,,,,58,og-post,,,,AAXX 18194 07181 21220 83502 10035 20034 39720 40146 51003 75866 887// 333 60025 88705=
07181,1999-12-18 20:00:00,3.2,1014.4,-0.5,99,3.1,2500,7.408,,,10,,,2,,,,,,,58,og-post,,,,AAXX 18204 07181 21225 80104 10032 20031 39718 40144 56005 75866 887// 333 60025 88704=
07181,1999-12-18 22:00:00,2.6,1013.1,-1.6,99,2.5,2500,7.408,,,100,,,2,,,,,,,58,og-post,,,,AAXX 18224 07181 21125 81004 10026 20025 39704 40131 58016 75866 887// 333 60025 88702=
07181,1999-12-18 23:00:00,2.2,1012.4,-2.1,99,2.1,2500,7.408,,,80,,,2,,,,,,,58,og-post,,,,AAXX 18234 07181 21125 80804 10022 20021 39697 40124 57021 75866 887// 333 60025 88702=
07181,1999-12-19 01:00:00,1.9,1010.3,-2.8,99,1.8,3000,7.408,,,80,,,3,,,,,,,,og-post,,,,AAXX 19014 07181 26/30 /0804 10019 20018 39676 40103 58028 333 60035=
07181,1999-12-19 02:00:00,1.5,1009.6,-2.8,99,1.4,4600,7.408,,,90,,,5,,,,,,,,og-post,,,,AAXX 19024 07181 26/46 /0904 10015 20014 39669 40096 56028 333 60055=
07181,1999-12-19 04:00:00,0.9,1008.2,-2.1,99,0.8,3000,7.408,,,80,,,4,,,,,,,58,og-post,,,,AAXX 19044 07181 21130 80804 10009 20008 39655 40082 56021 75866 887// 333 60045 88702=
07181,1999-12-19 05:00:00,0.8,1008.1,-1.5,99,0.7,2300,7.408,,,30,,,3,,,,,,,,og-post,,,,AAXX 19054 07181 26/23 /0304 10008 20007 39654 40081 56015 333 60035=
07181,1999-12-19 07:00:00,0.2,1010.8,2.3,98,-0.1,4300,11.112,,,40,,,2,,,,,,,,og-post,,,,AAXX 19074 07181 26/43 /0406 10002 21001 39678 40108 53023 333 60025=
07181,1999-12-19 08:00:00,-0.1,1012.2,3.7,98,-0.4,1500,14.816,,,40,,,2,,,,,,,71,og-post,,,,AAXX 19084 07181 21215 80408 11001 21004 39691 40122 53037 77176 887// 333 60025 88704=
07181,1999-12-19 10:00:00,-0.1,1014.6,3.6,98,-0.4,15000,11.112,,,40,,,0.6,,,,,,,22,og-post,,,,AAXX 19104 07181 21365 80406 11001 21004 39714 40146 53036 72272 877// 333 69965 87706 93101=
07181,1999-12-19 11:00:00,-0.1,1015.3,3,97,-0.5,18000,11.112,,,20,,,,,,,,,,,og-post,,,,AAXX 19114 07181 32368 80206 11001 21005 39721 40153 51030 877// 333 87706=
07181,1999-12-19 13:00:00,-0.2,1016.2,1.5,96,-0.8,20000,11.112,,,20,,,,,,,,,,,og-post,,,,AAXX 19134 07181 32370 40206 11002 21008 39729 40162 51015 84100 333 84807=
07181,1999-12-19 14:00:00,0.1,1016.5,1.2,95,-0.6,20000,11.112,,,10,,,,,,,,,,,og-post,,,,AAXX 19144 07181 32370 40106 10001 21006 39733 40165 51012 84100 333 84808=
07181,1999-12-19 15:00:00,-0.7,1017.4,1.4,96,-1.3,20000,11.112,,,310,,,,,,,,,,,og-post,,,,AAXX 19154 07181 32270 63106 11007 21013 39740 40174 53014 86200 333 86805=
07181,1999-12-19 16:00:00,-0.8,1018.1,1.8,96,-1.4,12000,11.112,,,330,,,,,,,,,,,og-post,,,,AAXX 19164 07181 32362 53306 11008 21014 39747 40181 53018 85800 333 84807=
07181,1999-12-19 17:00:00,-2.1,1019,2,96,-2.6,12000,3.704,,,340,,,,,,,,,,,og-post,,,,AAXX 19174 07181 32462 43402 11021 21026 39753 40190 51020 84800 333 82810 83650=
07181,1999-12-19 18:00:00,-1.9,1019.6,1.9,97,-2.3,12000,7.408,,,310,-2.3,0.5,,,,7,,,,,og-post,,2,,AAXX 19184 07181 12762 63104 11019 21023 39759 40196 51019 60072 86500 333 10005 21023 43002 86650=
07181,1999-12-19 19:00:00,-1.7,1020.2,1.8,97,-2.1,12000,7.408,,,300,,,,,,,,,,,og-post,,,,AAXX 19194 07181 32562 63004 11017 21021 39765 40202 52018 86500 333 82621 85646=
07181,1999-12-19 20:00:00,-1.3,1020.7,1.8,98,-1.6,8000,7.408,,,310,,,,,,,,,,70,og-post,,,,AAXX 19204 07181 21258 83104 11013 21016 39771 40207 52018 77072 875// 333 69905 85703 85610 93100=
07181,1999-12-19 21:00:00,-2.3,1021.3,1.6,97,-2.7,12000,14.816,,,310,,,,,,,,,,22,og-post,,,,AAXX 19214 07181 21262 83108 11023 21027 39775 40213 51016 72272 875// 333 69907 84703 85620 93100=
07181,1999-12-19 22:00:00,-2.1,1021.5,1.2,97,-2.5,12000,14.816,,,300,,,,,,,,,,,og-post,,,,AAXX 19224 07181 32462 83008 11021 21025 39777 40215 51012 875// 333 84611 85650 93100=
07181,1999-12-19 23:00:00,-2.7,1022.3,1.3,93,-3.7,12000,11.112,,,310,,,,,,,,,,,og-post,,,,AAXX 19234 07181 32462 83106 11027 21037 39784 40223 53013 875// 333 81613 85626 93100=
07181,1999-12-20 00:00:00,-2.4,1022.8,1.4,96,-2.9,10000,11.112,,,310,,,,,,,,,,,og-post,,,,AAXX 20004 07181 16/60 /3106 11024 21029 39789 40228 53014 69901=
07181,1999-12-20 01:00:00,-3.3,1023.5,1.7,96,-3.8,10000,11.112,,,320,,,,,,,,,,,og-post,,,,AAXX 20014 07181 32460 43206 11033 21038 39794 40235 51017 84500 333 84613 93100=
07181,1999-12-20 02:00:00,-2.7,1024.2,1.8,96,-3.2,12000,7.408,,,320,,,,,,,,,,,og-post,,,,AAXX 20024 07181 32462 73204 11027 21032 39802 40242 53018 875// 333 85611 85616 93100=
07181,1999-12-20 03:00:00,-4,1024.6,1.5,96,-4.5,12000,11.112,,,320,,,,,,,,,,,og-post,,,,AAXX 20034 07181 32562 33206 11040 21045 39804 40246 51015 83500 333 83625 93100=
07181,1999-12-20 04:00:00,-4.3,1025.1,1.4,97,-4.7,12000,7.408,,,330,,,,,,,,,,,og-post,,,,AAXX 20044 07181 32462 33304 11043 21047 39808 40251 51014 83500 333 83611 93100=
07181,1999-12-20 05:00:00,-4.7,1025.5,0.9,97,-5.1,12000,,,,,,,,,,,,,,,og-post,,,,AAXX 20054 07181 32462 10000 11047 21051 39811 40255 53009 81500 333 81611 93100=
07181,1999-12-20 08:00:00,-3.6,1027.3,1.9,98,-3.9,7000,,,,,,,,,,,,,,,og-post,,,,AAXX 20084 07181 32357 70000 11036 21039 39830 40273 53019 875// 333 82708 87618=
07181,1999-12-20 09:00:00,-2.9,1027.9,2.1,98,-3.2,8000,3.704,,,340,,,,,,,,,,70,og-post,,,,AAXX 20094 07181 21358 73402 11029 21032 39837 40279 52021 77071 875// 333 69907 84708 87618=
07181,1999-12-20 10:00:00,-2.4,1027.9,1.5,97,-2.8,8000,7.408,,,330,,,,,,,,,,70,og-post,,,,AAXX 20104 07181 21358 73304 11024 21028 39838 40279 51015 77077 875// 333 69905 82708 87624=
07181,1999-12-20 11:00:00,-1.9,1027.7,0.7,96,-2.5,8000,7.408,,,330,,,,,,,,,,22,og-post,,,,AAXX 20114 07181 21258 73304 11019 21025 39837 40277 50007 72272 878// 333 69905 84805 87620=
07181,1999-12-20 12:00:00,-1.1,1027.6,0,94,-1.9,13000,14.816,,,330,,,,,,,,,,1,og-post,,,,AAXX 20124 07181 /1363 73308 11011 21019 39837 40276 50000 69901 70171 878// 333 69907 85807 86620=
07181,1999-12-20 13:00:00,-1.1,1027.3,-0.4,92,-2.2,13000,7.408,,,310,,,,,,,,,,22,og-post,,,,AAXX 20134 07181 21363 73104 11011 21022 39834 40273 58004 72272 878// 333 69905 85809 86620=
07181,1999-12-20 14:00:00,-1.1,1027.3,-0.3,92,-2.2,13000,11.112,,,330,,,,,,,,,,,og-post,,,,AAXX 20144 07181 32363 73306 11011 21022 39834 40273 57003 878// 333 85808 86620=
07181,1999-12-20 15:00:00,-1.3,1027.9,0.3,93,-2.3,13000,11.112,,,350,,,,,,,,,,1,og-post,,,,AAXX 20154 07181 21363 73506 11013 21023 39840 40279 53003 70172 878// 333 69907 85808 86620=
07181,1999-12-20 16:00:00,-1.3,1028.2,0.9,94,-2.1,10000,7.408,,,340,,,,,,,,,,,og-post,,,,AAXX 20164 07181 32360 73404 11013 21021 39843 40282 53009 878// 333 85808 86620=
07181,1999-12-20 17:00:00,-1.5,1028.5,1.1,95,-2.2,10000,7.408,,,350,,,,,,,,,,,og-post,,,,AAXX 20174 07181 32460 73504 11015 21022 39845 40285 51011 878// 333 85810 86620=
07181,1999-12-20 18:00:00,-1.4,1028.9,0.9,94,-2.2,10000,7.408,,,320,-5.8,-1,,,,,,,,3,og-post,,3,,AAXX 20184 07181 11360 73204 11014 21022 39849 40289 53009 69902 70372 877// 333 11010 21058 43003 87709=
07181,1999-12-20 19:00:00,-1.5,1029.3,1,94,-2.3,10000,7.408,,,290,,,,,,,,,,,og-post,,,,AAXX 20194 07181 32360 72904 11015 21023 39853 40293 53010 877// 333 87709=
07181,1999-12-20 20:00:00,-1.5,1029.4,0.9,94,-2.3,10000,3.704,,,280,,,,,,,,,,,og-post,,,,AAXX 20204 07181 32460 72802 11015 21023 39854 40294 51009 875// 333 87610=
07181,1999-12-20 21:00:00,-1.5,1029.6,0.7,93,-2.5,10000,3.704,,,190,,,,,,,,,,,og-post,,,,AAXX 20214 07181 32460 71902 11015 21025 39856 40296 51007 875// 333 87610=
07181,1999-12-20 22:00:00,-1.6,1029.8,0.4,95,-2.3,10000,3.704,,,260,,,,,,,,,,,og-post,,,,AAXX 20224 07181 32460 72602 11016 21023 39857 40298 52004 875// 333 87610=
07181,1999-12-20 23:00:00,-1.5,1030.2,0.7,94,-2.3,8000,3.704,,,290,,,,,,,,,,,og-post,,,,AAXX 20234 07181 32458 72902 11015 21023 39861 40302 53007 875// 333 87610=
07181,1999-12-21 00:00:00,-1.7,1030.1,0.4,94,-2.5,8000,3.704,,,230,,,,,,,,,,,og-post,,,,AAXX 21004 07181 32458 72302 11017 21025 39860 40301 50004 875// 333 87613=
07181,1999-12-21 01:00:00,-1.8,1030.1,0.3,96,-2.4,7000,3.704,,,250,,,,,,,,,,,og-post,,,,AAXX 21014 07181 32457 72502 11018 21024 39860 40301 51003 875// 333 87615=
07181,1999-12-21 02:00:00,-2.1,1030.5,0.2,96,-2.6,7000,,,,,,,,,,,,,,,og-post,,,,AAXX 21024 07181 32457 70000 11021 21026 39863 40305 53002 875// 333 87616=
07181,1999-12-21 03:00:00,-2.6,1030.2,0,96,-3.1,5000,3.704,,,20,,,,,,,,,,,og-post,,,,AAXX 21034 07181 32450 70202 11026 21031 39860 40302 50000 875// 333 87615=
07181,1999-12-21 04:00:00,-3.4,1030.6,0.2,97,-3.8,3000,3.704,,,40,,,,,,,,,,10,og-post,,,,AAXX 21044 07181 31430 40402 11034 21038 39862 40306 51002 71011 84500 333 84615=
07181,1999-12-21 05:00:00,-3,1030.8,0.2,98,-3.3,2500,7.408,,,50,,,,,,,,,,10,og-post,,,,AAXX 21054 07181 31125 70504 11030 21033 39865 40308 53002 71011 877// 333 87702=
07181,1999-12-21 06:00:00,-2.8,1031,0.7,98,-3.1,3000,3.704,,,90,-3.8,-1.4,,,,,0,,-11,10,og-post,,3,,AAXX 21064 07181 31130 60902 11028 21031 39867 40310 52007 71011 86500 333 11014 21038 3/111 43003 55/// 79999 83702 85612=
07181,1999-12-21 07:00:00,-2.4,1031.4,0.9,98,-2.7,5000,3.704,,,90,,,,,,,,,,,og-post,,,,AAXX 21074 07181 32150 70902 11024 21027 39871 40314 53009 875// 333 83703 86609=
07181,1999-12-21 08:00:00,-2.2,1031.6,0.9,95,-2.9,6000,7.408,,,120,,,,,,,,,,,og-post,,,,AAXX 21084 07181 32156 71204 11022 21029 39874 40316 53009 875// 333 81703 87609=
07181,1999-12-21 09:00:00,-2.2,1032.1,1.1,93,-3.2,7000,7.408,,,130,,,,,,,,,,,og-post,,,,AAXX 21094 07181 32357 71304 11022 21032 39878 40321 52011 877// 333 87708=
07181,1999-12-21 11:00:00,-1.4,1031.7,0.2,87,-3.3,9000,11.112,,,110,,,,,,,,,,,og-post,,,,AAXX 21114 07181 32459 71106 11014 21033 39876 40317 50002 877// 333 87811=
07181,1999-12-21 12:00:00,-1.5,1031.7,-0.2,86,-3.5,9000,7.408,,,90,,,,,,,,,,,og-post,,,,AAXX 21124 07181 32359 60904 11015 21035 39876 40317 58002 86700 333 86809=
07181,1999-12-21 13:00:00,-1.2,1031.5,-0.7,85,-3.4,9000,7.408,,,80,,,,,,,,,,,og-post,,,,AAXX 21134 07181 32459 70804 11012 21034 39874 40315 56007 85202 333 85810 86075=
07181,1999-12-21 14:00:00,-1.4,1031.9,0.2,88,-3.1,8000,3.704,,,60,,,,,,,,,,,og-post,,,,AAXX 21144 07181 32458 70602 11014 21031 39878 40319 53002 82232 333 82810 86075=
07181,1999-12-21 15:00:00,-1.5,1031.8,0.1,90,-2.9,5000,7.408,,,110,,,,,,,,,,,og-post,,,,AAXX 21154 07181 32450 71104 11015 21029 39877 40318 53001 83232 333 83810 83362 86075=
07181,1999-12-21 17:00:00,-2.3,1031.8,-0.3,91,-3.6,6000,7.408,,,100,,,,,,,,,,,og-post,,,,AAXX 21174 07181 32456 71004 11023 21036 39875 40318 58003 81232 333 81810 85362 86075=
07181,1999-12-21 20:00:00,-3.6,1032.3,0.3,97,-4,5000,7.408,,,90,,,,,,,,,,,og-post,,,,AAXX 21204 07181 32950 30904 11036 21040 39878 40323 53003 80002 333 83075=
07181,1999-12-21 21:00:00,-3.8,1032.4,0.7,97,-4.2,3000,3.704,,,100,,,,,,,,,,10,og-post,,,,AAXX 21214 07181 31930 31002 11038 21042 39879 40324 51007 71011 80002 333 83075=
07181,1999-12-22 01:00:00,-4.5,1031.7,-1.5,98,-4.8,1100,11.112,,,130,,,,,,,,,,,og-post,,,,AAXX 22014 07181 36/11 /1306 11045 21048 39871 40317 56015=
07181,1999-12-22 02:00:00,-4.5,1032.5,-0.3,98,-4.8,900,3.704,,,100,,,,,,,,,,48,og-post,,,,AAXX 22024 07181 31909 21002 11045 21048 39878 40325 55003 74844 80001 333 82075=
07181,1999-12-22 04:00:00,-4.9,1032.2,0.4,98,-5.2,500,11.112,,,100,,,,,,,,,,49,og-post,,,,AAXX 22044 07181 31/05 91006 11049 21052 39875 40322 50004 74944=
07181,1999-12-22 05:00:00,-4.8,1032.1,-0.4,97,-5.2,500,7.408,,,150,,,,,,,,,,48,og-post,,,,AAXX 22054 07181 31005 81504 11048 21052 39874 40321 58004 74844 887// 333 88701=
07181,1999-12-22 06:00:00,-5.2,1032.6,-0.8,98,-5.5,500,7.408,,,170,-6.4,-2.9,,,,,0,,-11,48,og-post,,3,,AAXX 22064 07181 31105 81704 11052 21055 39878 40326 55008 74844 887// 333 11029 21064 3/111 43003 55/// 70000 88701=
07181,1999-12-22 07:00:00,-5.6,1032.4,0.1,97,-6,1800,3.704,,,110,,,,,,,,,,28,og-post,,,,AAXX 22074 07181 31118 81102 11056 21060 39876 40324 50001 72842 887// 333 88701=
07181,1999-12-22 08:00:00,-6,1032.6,0.3,96,-6.5,2500,7.408,,,110,,,,,,,,,,10,og-post,,,,AAXX 22084 07181 31125 81104 11060 21065 39877 40326 51003 71022 84701 333 84701 87075=
07181,1999-12-22 10:00:00,-5.5,1032.4,0,96,-6,3500,7.408,,,140,,,,,,,,,,10,og-post,,,,AAXX 22104 07181 31135 71404 11055 21060 39876 40324 50000 71022 82701 333 82701 86075=
07181,1999-12-22 11:00:00,-3.8,1031.7,-0.5,96,-4.3,4500,7.408,,,140,,,,,,,,,,10,og-post,,,,AAXX 22114 07181 31145 71404 11038 21043 39872 40317 58005 71022 81701 333 81701 86075=
07181,1999-12-22 12:00:00,-2.3,1030.4,-1.4,91,-3.6,7000,7.408,,,130,,,,,,,,,,1,og-post,,,,AAXX 22124 07181 31957 71304 11023 21036 39862 40304 58014 70142 81031 333 81359 86075=
07181,1999-12-22 13:00:00,-1.1,1029.8,-1.8,81,-3.9,9000,7.408,,,110,,,,,,,,,,,og-post,,,,AAXX 22134 07181 32959 61104 11011 21039 39858 40298 57018 81031 333 81359 86075=
07181,1999-12-22 14:00:00,-0.9,1028.7,-2.4,81,-3.7,10000,11.112,,,100,,,,,,,,,,,og-post,,,,AAXX 22144 07181 32960 71006 11009 21037 39848 40287 57024 82031 333 82359 86075=
07181,1999-12-22 15:00:00,-1.2,1028.6,-1.6,85,-3.4,10000,14.816,,,110,,,,,,,,,,,og-post,,,,AAXX 22154 07181 32960 71108 11012 21034 39846 40286 56016 82031 333 82359 87075=
07181,1999-12-22 16:00:00,-2.6,1029,-1,90,-4,10000,11.112,,,110,,,,,,,,,,,og-post,,,,AAXX 22164 07181 32960 71106 11026 21040 39848 40290 55010 82031 333 82359 87075=
07181,1999-12-22 17:00:00,-2.3,1028.7,-0.2,89,-3.9,6000,7.408,,,120,,,,,,,,,,,og-post,,,,AAXX 22174 07181 36/56 /1204 11023 21039 39846 40287 57002=
07181,1999-12-22 18:00:00,-2.2,1028.2,-0.5,87,-4.1,10000,3.704,,,20,-6.1,-0.8,,,,,,,,,og-post,,3,,AAXX 22184 07181 32960 60202 11022 21041 39841 40282 58005 83031 333 11008 21061 43003 83359 85075=
07181,1999-12-22 19:00:00,-2,1028,-0.9,83,-4.5,9000,3.704,,,130,,,,,,,,,,,og-post,,,,AAXX 22194 07181 36/59 /1302 11020 21045 39839 40280 57009=
07181,1999-12-22 20:00:00,-0.9,1027.5,-1,80,-3.9,12000,14.816,,,160,,,,,,,,,,,og-post,,,,AAXX 22204 07181 32862 61608 11009 21039 39836 40275 56010 83031 333 83357 85075=
07181,1999-12-22 21:00:00,0.2,1027.1,-0.7,79,-3,12000,14.816,,,170,,,,,,,,,,,og-post,,,,AAXX 22214 07181 32862 61708 10002 21030 39834 40271 57007 83031 333 83357 85075=
07181,1999-12-22 22:00:00,0.6,1026.3,-1.2,75,-3.3,12000,14.816,,,160,,,,,,,,,,,og-post,,,,AAXX 22224 07181 32862 41608 10006 21033 39827 40263 58012 82031 333 82357 84075=
07181,1999-12-22 23:00:00,1.7,1025.7,-1.3,70,-3.2,12000,14.816,,,160,,,,,,,,,,,og-post,,,,AAXX 22234 07181 32862 51608 10017 21032 39823 40257 58013 83031 333 83357 84075=
07181,1999-12-23 00:00:00,1.9,1025.1,-1.6,74,-2.2,12000,14.816,,,170,,,,,,,,,,,og-post,,,,AAXX 23004 07181 32862 61708 10019 21022 39818 40251 56016 83031 333 83357 84075=
07181,1999-12-23 01:00:00,1.9,1024.4,-1.6,78,-1.5,12000,11.112,,,170,,,,,,,,,,,og-post,,,,AAXX 23014 07181 32962 61706 10019 21015 39811 40244 58016 83031 333 83363 84075=
07181,1999-12-23 02:00:00,2.6,1024.4,-1.1,78,-0.8,12000,22.224,,,190,,,,,,,,,,,og-post,,,,AAXX 23024 07181 32962 61912 10026 21008 39812 40244 55011 83031 333 83363 84075=
07181,1999-12-23 04:00:00,3,1023.6,-0.6,79,-0.3,18000,25.928,,,190,,,,,,,,,,,og-post,,,,AAXX 23044 07181 36/68 /1914 10030 21003 39805 40236 58006=
07181,1999-12-23 05:00:00,3.3,1023.6,-0.6,78,-0.2,15000,29.632,,,190,,,,,,,,,,,og-post,,,,AAXX 23054 07181 32965 71916 10033 21002 39806 40236 55006 84031 333 84360 84075=
07181,1999-12-23 06:00:00,3,1024.1,0.4,79,-0.3,15000,25.928,,,200,-2.1,3.5,,,,,0,,-4,,og-post,,,,AAXX 23064 07181 32965 72014 10030 21003 39810 40241 53004 86031 333 10035 21021 3/104 55/// 70000 86360 84075=
07181,1999-12-23 07:00:00,3.1,1024.6,1,78,-0.4,10000,22.224,,,200,,,,,,,,,,,og-post,,,,AAXX 23074 07181 32960 72012 10031 21004 39815 40246 53010 86031 333 86360 84075=
07181,1999-12-23 08:00:00,3.3,1025.2,1.5,77,-0.3,15000,22.224,,,190,,,,,,,,,,,og-post,,,,AAXX 23084 07181 32965 71912 10033 21003 39821 40252 53015 86031 333 86360 84075=
07181,1999-12-23 09:00:00,3.5,1025.8,1.7,76,-0.3,15000,18.52,,,200,,,,,,,,,,,og-post,,,,AAXX 23094 07181 32765 72010 10035 21003 39827 40258 53017 84531 333 84650 86360=
07181,1999-12-23 10:00:00,3.8,1026.4,1.8,74,-0.4,15000,18.52,,,210,,,,,,,,,,,og-post,,,,AAXX 23104 07181 32465 72110 10038 21004 39833 40264 52018 8653/ 333 85618 85650 86360=
07181,1999-12-23 11:00:00,2.9,1026.8,1.5,85,0.6,9000,22.224,,,220,,,,,,,,,,60,og-post,,,,AAXX 23114 07181 21459 82212 10029 20006 39836 40268 51015 76062 875// 333 69905 87618=
07181,1999-12-23 12:00:00,2.6,1027,1,95,1.9,3000,14.816,,,210,,,,,,,,,,61,og-post,,,,AAXX 23124 07181 /1430 82108 10026 20019 39837 40270 51010 69901 76162 875// 333 69907 87610=
07181,1999-12-23 13:00:00,2.7,1026.8,0.3,95,2,4000,14.816,,,220,,,,,,,,,,21,og-post,,,,AAXX 23134 07181 21340 82208 10027 20020 39836 40268 50003 72162 875// 333 69905 87608=
07181,1999-12-23 14:00:00,3.1,1026.6,-0.2,95,2.4,5000,11.112,,,210,,,,,,,,,,,og-post,,,,AAXX 23144 07181 32250 82106 10031 20024 39834 40266 58002 877// 333 87706=
07181,1999-12-23 15:00:00,3.1,1026.7,-0.2,96,2.5,5000,11.112,,,190,,,,,,,,,,3,og-post,,,,AAXX 23154 07181 21250 81906 10031 20025 39835 40267 55002 70362 877// 333 69907 87704=
07181,1999-12-23 16:00:00,3,1026.9,0.1,97,2.6,1500,11.112,,,200,,,,,,,,,,10,og-post,,,,AAXX 23164 07181 31115 82006 10030 20026 39837 40269 53001 71022 877// 333 87702=
07181,1999-12-23 17:00:00,2.7,1027.1,0.5,98,2.4,1500,3.704,,,150,,,,,,,,,,10,og-post,,,,AAXX 23174 07181 31115 81502 10027 20024 39839 40271 53005 71022 887// 333 88702=
07181,1999-12-23 20:00:00,2.4,1,-1.2,99,2.3,1500,11.112,,,160,,,,,,,,,,28,og-post,,,,AAXX 23204 07181 31115 81606 10024 20023 39827 0259 57012 72842 875// 333 85701 87630=
07181,1999-12-23 21:00:00,2.6,1025.4,-1.3,99,2.5,2500,11.112,,,170,,,,,,,,,,10,og-post,,,,AAXX 23214 07181 31225 81706 10026 20025 39822 40254 58013 71042 875// 333 85704 87632=
07181,1999-12-23 22:00:00,3.6,1024.8,-1.3,99,3.5,5000,11.112,,,190,,,,,,,,,,,og-post,,,,AAXX 23224 07181 32250 81906 10036 20035 39818 40248 57013 875// 333 85704 87628=
07181,1999-12-23 23:00:00,3,1024.6,-1.2,98,2.7,4000,7.408,,,160,,,,,,,,,,10,og-post,,,,AAXX 23234 07181 31240 81604 10030 20027 39815 40246 56012 71022 875// 333 85705 87628=
07181,1999-12-24 00:00:00,3.1,1024.7,-0.6,98,2.8,4000,7.408,,,160,,,,,,,,,,10,og-post,,,,AAXX 24004 07181 31240 81604 10031 20028 39816 40247 55006 71042 877// 333 87704=
07181,1999-12-24 01:00:00,2.6,1023.9,-1,97,2.2,3000,11.112,,,160,,,,,,,,,,10,og-post,,,,AAXX 24014 07181 31230 81606 10026 20022 39808 40239 58010 71022 877// 333 87704=
07181,1999-12-24 02:00:00,2.5,1023.3,-1.3,98,2.2,3000,14.816,,,150,,,,,,,,,,10,og-post,,,,AAXX 24024 07181 31230 81508 10025 20022 39802 40233 58013 71022 877// 333 87704=
07181,1999-12-24 04:00:00,3.2,1021.7,-2,98,2.9,4800,18.52,,,200,,,,,,,,,,,og-post,,,,AAXX 24044 07181 36/48 /2010 10032 20029 39788 40217 58020=
07181,1999-12-24 05:00:00,4.3,1021.4,-1.6,93,3.3,8000,18.52,,,190,,,,,,,,,,,og-post,,,,AAXX 24054 07181 36/58 /1910 10043 20033 39786 40214 56016=
07181,1999-12-24 06:00:00,3.3,1020.9,-1.7,95,2.6,5000,18.52,,,170,2.3,4.3,,,,,0,,1,,og-post,,,,AAXX 24064 07181 32650 71710 10033 20026 39780 40209 56017 8553/ 333 10043 20023 32001 55/// 79999 85633 86364=
07181,1999-12-24 07:00:00,3.9,1020.2,-1.4,94,3,5000,11.112,,,170,,,,,,,,,,,og-post,,,,AAXX 24074 07181 32650 61706 10039 20030 39774 40202 58014 84530 333 84633 85363=
07181,1999-12-24 08:00:00,4.2,1020,-1.3,93,3.2,6000,25.928,,,190,,,,,,,,,,,og-post,,,,AAXX 24084 07181 32356 71914 10042 20032 39773 40200 56013 8553/ 333 82707 84633=
07181,1999-12-24 09:00:00,5.3,1019.6,-0.9,91,4,7000,25.928,,,200,,,,,,,,,,,og-post,,,,AAXX 24094 07181 32557 72014 10053 20040 39771 40196 56009 878// 333 82820 86633=
07181,1999-12-24 10:00:00,6.2,1019.3,-0.5,89,4.5,8000,29.632,,,200,,,,,,,,,,,og-post,,,,AAXX 24104 07181 32458 72016 10062 20045 39769 40193 58005 878// 333 85815 86633=
07181,1999-12-24 11:00:00,7.2,1018.5,-1,85,4.9,9000,29.632,,,210,,,,,,,,,,,og-post,,,,AAXX 24114 07181 32459 72116 10072 20049 39763 40185 58010 872// 333 87815=
07181,1999-12-24 12:00:00,7.2,1017.9,-1.4,83,4.5,15000,29.632,,,210,,,,,,,,,,,og-post,,,,AAXX 24124 07181 36/65 /2116 10072 20045 39757 40179 58014=
07181,1999-12-24 13:00:00,7,1017.4,-1.7,84,4.5,15000,29.632,,,210,,,,,,,,,,,og-post,,,,AAXX 24134 07181 36/65 /2116 10070 20045 39752 40174 56017=
07181,1999-12-24 14:00:00,7.1,1016.9,-1.5,83,4.4,9000,29.632,,,210,,,,,,,,,,,og-post,,,,AAXX 24144 07181 32459 72116 10071 20044 39748 40169 56015 8583/ 333 81815 86633 86360=
07181,1999-12-24 15:00:00,7,1016,-1.8,84,4.5,9000,25.928,,,190,,,,0.2,,,,,,60,og-post,,,,AAXX 24154 07181 21659 71914 10070 20045 39739 40160 58018 76062 8653/ 333 69927 86633 86360=
07181,1999-12-24 16:00:00,6.8,1015.8,-1.5,86,4.6,8000,29.632,,,190,,,,,,,,,,60,og-post,,,,AAXX 24164 07181 21758 71916 10068 20046 39737 40158 56015 76066 8653/ 333 69905 86650 86360=
07181,1999-12-24 17:00:00,6.8,1014.7,-2.2,88,5,8000,35.188,,,190,,,0.2,,,,,,,60,og-post,,,,AAXX 24174 07181 21758 71919 10068 20050 39726 40147 58022 76066 8653/ 333 69925 86650 86360=
07181,1999-12-24 18:00:00,7.4,1013.8,-2.1,83,4.7,12000,31.484,,,190,3.3,7.5,,0.2,,0.4,,,,21,og-post,,,,AAXX 24184 07181 /1762 71917 10074 20047 39718 40138 58021 69942 72162 8653/ 333 10075 20033 69927 86650 86360=
07181,1999-12-24 19:00:00,7.7,1012.6,-3,80,4.5,12000,31.484,64.82,64.82,190,,,,,,,,,,,og-post,,,,AAXX 24194 07181 32762 71917 10077 20045 39707 40126 57030 8453/ 333 84650 86360 91035 91135=
07181,1999-12-24 20:00:00,7.9,1011.3,-3.1,78,4.3,21000,35.188,,,200,,,,,,,,,,,og-post,,,,AAXX 24204 07181 36/71 /2019 10079 20043 39695 40113 58031=
07181,1999-12-24 21:00:00,8.2,1010.2,-3.3,72,3.5,12000,35.188,64.82,,200,,,,,,,,,,,og-post,,,,AAXX 24214 07181 32662 72019 10082 20035 39685 40102 56033 8453/ 333 84646 86360 91135=
07181,1999-12-24 22:00:00,8.2,1008.8,-3.6,68,2.7,12000,42.596,61.116,61.116,200,,,,,,,,,,,og-post,,,,AAXX 24224 07181 32762 72023 10082 20027 39671 40088 58036 8453/ 333 84650 86360 91033 91133=
07181,1999-12-24 23:00:00,7.4,1008.3,-2.9,79,4,10000,42.596,64.82,,200,,,,,,,,,,60,og-post,,,,AAXX 24234 07181 21760 72023 10074 20040 39666 40083 56029 76062 8453/ 333 69905 84650 87360 91135=
07181,1999-12-25 00:00:00,6.6,1006.9,-3.4,88,4.8,10000,42.596,72.228,68.524,190,,,,2,2,,,,,60,og-post,,,,AAXX 25004 07181 /1660 71923 10066 20048 39651 40069 58034 60021 76062 8453/ 333 60027 84646 87360 91037 91139=
07181,1999-12-25 10:00:00,6.3,1001.3,0.4,90,4.8,6000,31.484,68.524,57.412,260,,,2,,,,,,,81,og-post,,,,AAXX 25104 07181 21556 82617 10063 20048 39597 40013 53004 78186 882// 333 60025 88821 91031 91137=
07181,1999-12-25 11:00:00,6.3,1000.4,-0.7,89,4.6,10000,31.484,57.412,,230,,,3,,,,,,,60,og-post,,,,AAXX 25114 07181 21460 82317 10063 20046 39588 40004 58007 76086 878// 333 60035 84815 86640 91131=
07181,1999-12-25 12:00:00,6.1,1000.5,0,91,4.7,7000,29.632,103.712,53.708,250,,,,7,7,,,,,61,og-post,,,,AAXX 25124 07181 /1457 82516 10061 20047 39589 40005 50000 60071 76186 888// 333 60077 86816 86640 91029 91156=
07181,1999-12-25 13:00:00,4.8,1000.6,-0.9,88,3,18000,38.892,72.228,61.116,230,,,3,,,,,,,21,og-post,,,,AAXX 25134 07181 21468 82321 10048 20030 39588 40006 56009 72162 888// 333 60035 85815 86640 91033 91139=
07181,1999-12-25 14:00:00,4.9,1000.4,-0.2,84,2.4,25000,35.188,,,230,,,,,,,,,,,og-post,,,,AAXX 25144 07181 32475 72319 10049 20024 39586 40004 58002 878// 333 83816 85646=
07181,1999-12-25 15:00:00,5.4,1001.6,0.9,85,3.1,25000,35.188,72.228,57.412,240,,,,3,,,,,,1,og-post,,,,AAXX 25154 07181 21575 82419 10054 20031 39598 40016 53009 70162 878// 333 60037 85823 85650 91031 91139=
07181,1999-12-25 16:00:00,5.3,1002.2,1.6,85,3,25000,35.188,61.116,,230,,,,,,,,,,,og-post,,,,AAXX 25164 07181 32575 82319 10053 20030 39604 40022 53016 878// 333 85821 85650 91133=
07181,1999-12-25 17:00:00,5,1003.7,3.2,87,3,7000,42.596,83.34,83.34,230,,,2,,,,,,,81,og-post,,,,AAXX 25174 07181 21557 82323 10050 20030 39618 40037 53032 78186 888// 333 60025 85820 86640 91045 91145=
07181,1999-12-25 18:00:00,3.8,1005.2,3.2,85,1.5,15000,31.484,83.34,,240,3.4,8.4,,5,,15,,,,80,og-post,,,,AAXX 25184 07181 /1465 82417 10038 20015 39630 40052 53032 60152 78086 8427/ 333 10084 20034 60057 82810 83820 85356 91145=
07181,1999-12-25 22:00:00,4.9,1005.9,0.8,91,3.6,18000,25.928,,,220,,,,,,,,,,,og-post,,,,AAXX 25224 07181 32568 82214 10049 20036 39639 40059 51008 878// 333 84821 85646=
07181,1999-12-25 23:00:00,5.7,1005.4,-0.2,86,3.5,18000,31.484,,,220,,,0.2,,,,,,,,og-post,,,,AAXX 25234 07181 22568 82217 10057 20035 39635 40054 58002 8687/ 333 69925 84820 84646 85357=
07181,1999-12-26 00:00:00,4.7,1005,-0.6,92,3.5,8000,31.484,57.412,,220,,,,1,1,,,,,61,og-post,,,,AAXX 26004 07181 /1458 82217 10047 20035 39630 40050 58006 60011 76186 878// 333 60017 85816 85646 91131=
07181,1999-12-26 01:00:00,4.6,1003.7,-2.2,96,4,15000,18.52,,,220,,,1,,,,,,,21,og-post,,,,AAXX 26014 07181 21465 72210 10046 20040 39617 40037 58022 72162 878// 333 60015 85811 85643=
07181,1999-12-26 02:00:00,5.2,1003.4,-2,93,4.2,55000,22.224,,,220,,,0.2,,,,,,,,og-post,,,,AAXX 26024 07181 26/85 /2212 10052 20042 39615 40034 56020 333 69925=
07181,1999-12-26 04:00:00,5.6,997.9,-5.4,91,4.2,9000,35.188,,,190,,,0.4,,,,,,,61,og-post,,,,AAXX 26044 07181 21559 81919 10056 20042 39563 49979 58054 76162 878// 333 69945 84820 86640=
07181,1999-12-26 05:00:00,6.1,993.4,-9.4,93,5.1,10000,35.188,57.412,,180,,,0.8,,,,,,,61,og-post,,,,AAXX 26054 07181 21460 81819 10061 20051 39521 49934 58094 76166 878// 333 69985 85811 87626 91131=
07181,1999-12-26 06:00:00,6.2,988.4,-11.1,91,4.8,9000,38.892,61.116,61.116,180,3.8,6.4,,3,,5,19.8,,3,61,og-post,,,,AAXX 26064 07181 /1459 81821 10062 20048 39473 49884 58111 60052 76162 878// 333 10064 20038 32003 55/// 60037 70198 85815 87626 91033 91133=
07181,1999-12-26 07:00:00,5.5,983,-14.3,91,4.2,8000,61.116,100.008,87.044,190,,,3,,,,,,,61,og-post,,,,AAXX 26074 07181 21458 81933 10055 20042 39420 49830 58143 76166 878// 333 60035 85813 87626 91047 91154=
07181,1999-12-26 08:00:00,7.3,978.6,-14,92,6.1,4000,61.116,96.304,96.304,190,,,3,,,,,,,61,og-post,,,,AAXX 26084 07181 21440 81933 10073 20061 39381 49786 56140 76166 878// 333 60035 85813 87626 91052 91152=
07181,1999-12-26 11:00:00,5.7,991,0.6,77,2,20000,61.116,125.936,114.824,270,,,,,,,,,,,og-post,,,,AAXX 26114 07181 32570 72733 10057 20020 39497 49910 53116 878// 333 85820 87625 91062 91168=
07181,1999-12-26 12:00:00,5.1,996.7,0.7,79,1.8,15000,42.596,155.568,87.044,270,,,,0.2,8,,,,,21,og-post,,,,AAXX 26124 07181 /1565 72723 10051 20018 39551 49967 51187 60081 72187 878// 333 69927 85823 87640 91047 91184=
07181,1999-12-26 13:00:00,5.7,998.2,0.3,75,1.6,15000,35.188,79.636,61.116,260,,,,,,,,,,,og-post,,,,AAXX 26134 07181 32565 72619 10057 20016 39566 49982 51133 878// 333 85830 87640 91033 91143=
07181,1999-12-26 14:00:00,5.9,998.9,7.6,77,2.2,15000,35.188,68.524,68.524,250,,,,,,,,,,,og-post,,,,AAXX 26144 07181 32565 72519 10059 20022 39573 49989 51076 878// 333 85830 87650 91037 91137=
07181,1999-12-26 15:00:00,5.7,998.8,2.1,78,2.2,15000,25.928,79.636,,230,,,,,,,,,,,og-post,,,,AAXX 26154 07181 32565 72314 10057 20022 39572 49988 50021 878// 333 85830 87650 91143=
07181,1999-12-26 16:00:00,5.3,997.7,-0.5,85,3,6000,29.632,,,210,,,,,,,,,,60,og-post,,,,AAXX 26164 07181 21556 72116 10053 20030 39561 49977 58005 76062 878// 333 69905 85825 87633=
07181,1999-12-26 17:00:00,5.1,995.3,-3.5,90,3.6,12000,25.928,,,210,,,1,,,,,,,60,og-post,,,,AAXX 26174 07181 21562 72114 10051 20036 39538 49953 58035 76066 878// 333 60015 85820 87633=
07181,1999-12-26 18:00:00,5.1,994.2,-4.5,91,3.8,5000,18.52,79.636,,230,4.6,9,,4,,12,,,,61,og-post,,,,AAXX 26184 07181 /1450 72310 10051 20038 39527 49942 57045 60122 76162 878// 333 10090 20046 60047 85815 87630 91143=
07181,1999-12-26 19:00:00,3.2,992.7,-5.1,95,2.5,15000,18.52,,,210,,,4,,,,,,,60,og-post,,,,AAXX 26194 07181 21565 72110 10032 20025 39510 49927 56051 76066 878// 333 60045 84820 87636=
07181,1999-12-26 20:00:00,5,991.5,-3.7,93,4,20000,31.484,,,240,,,,,,,,,,60,og-post,,,,AAXX 26204 07181 21570 72417 10050 20040 39501 49915 56037 76066 8783/ 333 69905 83820 85650 87361=
07181,1999-12-26 22:00:00,7,991.7,-0.4,76,3.1,25000,38.892,75.932,68.524,260,,,0.2,,,,,,,80,og-post,,,,AAXX 26224 07181 21575 72621 10070 20031 39506 49917 55004 78086 8583/ 333 69925 84825 85650 87361 91037 91141=
07181,1999-12-26 23:00:00,6.1,992.3,0.9,81,3.1,25000,25.928,79.636,,270,,,0.2,,,,,,,25,og-post,,,,AAXX 26234 07181 21575 62714 10061 20031 39510 49923 53009 72586 86830 333 69925 84823 84650 86361 91143=
07181,1999-12-27 00:00:00,2.5,992.9,0.9,94,1.6,7000,29.632,79.636,50.004,290,,,,8,12,,,,,80,og-post,,,,AAXX 27004 07181 /1457 72916 10025 20016 39511 49929 51009 60121 78087 879// 333 60087 82915 87820 91027 91143=
07181,1999-12-27 01:00:00,4.3,993.1,0.9,88,2.5,7000,31.484,61.116,53.708,260,,,3,,,,,,,25,og-post,,,,AAXX 27014 07181 21457 72617 10043 20025 39515 49931 52009 72586 879// 333 60035 82915 87820 91029 91133=
07181,1999-12-27 04:00:00,3.9,996.2,2.9,83,1.3,30000,38.892,68.524,68.524,260,,,0.2,,,,,,,25,og-post,,,,AAXX 27044 07181 21480 72621 10039 20013 39544 49962 51029 72586 879// 333 69925 81915 87825 91037 91137=
07181,1999-12-27 05:00:00,3.7,997.7,3.2,85,1.4,30000,29.632,64.82,50.004,260,,,,,,,,,,,og-post,,,,AAXX 27054 07181 32480 72616 10037 20014 39558 49977 53032 879// 333 81915 87825 91027 91135=
07181,1999-12-27 06:00:00,2.9,999.2,3.7,93,1.9,20000,18.52,75.932,,260,1.7,7.3,,1,,16,28.2,,1,25,og-post,,,,AAXX 27064 07181 /1470 72610 10029 20019 39572 49992 53037 60162 72586 878// 333 10073 20017 32001 55/// 60017 70282 84813 87620 91141=
07181,1999-12-27 07:00:00,2.9,1000.1,3.6,90,1.4,25000,22.224,,,260,,,0.2,,,,,,,25,og-post,,,,AAXX 27074 07181 21475 52612 10029 20014 39580 40001 51036 72586 85800 333 69925 84815 84633=
07181,1999-12-27 08:00:00,3.4,1000.7,2.9,88,1.6,25000,18.52,,,260,,,,,,,,,,,og-post,,,,AAXX 27084 07181 32475 72610 10034 20016 39587 40007 51029 878// 333 85814 85633=
07181,1999-12-27 10:00:00,4.1,1000.8,0.9,87,2.1,25000,22.224,,,250,,,,,,,,,,,og-post,,,,AAXX 27104 07181 32475 72512 10041 20021 39589 40008 50009 878// 333 85813 85633=
07181,1999-12-27 11:00:00,4.2,999.5,-1.1,86,2.1,25000,18.52,,,250,,,,,,,,,,,og-post,,,,AAXX 27114 07181 32475 72510 10042 20021 39576 49995 58011 878// 333 85813 85633=
07181,1999-12-27 12:00:00,4,999.2,-1.8,90,2.5,25000,22.224,,,240,,,,0.2,0.4,,,,,25,og-post,,,,AAXX 27124 07181 /1475 72412 10040 20025 39573 49992 58018 69941 72586 878// 333 69927 86813 85633=
07181,1999-12-27 13:00:00,4.1,998.5,-2.2,87,2.1,25000,22.224,,,210,,,,,,,,,,,og-post,,,,AAXX 27134 07181 32475 72112 10041 20021 39567 49985 56022 878// 333 86813 85633=
07181,1999-12-27 14:00:00,4.2,997.8,-1.6,86,2.1,25000,18.52,,,200,,,,,,,,,,,og-post,,,,AAXX 27144 07181 32475 72010 10042 20021 39560 49978 58016 878// 333 86813 85633=
07181,1999-12-27 16:00:00,3.7,993.5,-4.9,89,2.1,20000,11.112,,,160,,,,,,,,,,,og-post,,,,AAXX 27164 07181 32470 81606 10037 20021 39518 49935 58049 8783/ 333 86613 85359=
07181,1999-12-27 17:00:00,3.4,991.8,-5.9,90,1.9,21000,14.816,,,150,,,,,,,,,,,og-post,,,,AAXX 27174 07181 36/71 /1508 10034 20019 39501 49918 56059=
07181,1999-12-27 18:00:00,3.2,989.2,-6.6,91,1.9,12000,22.224,,,150,2.5,4.4,,,,0.4,,,,60,og-post,,,,AAXX 27184 07181 /1462 81512 10032 20019 39476 49892 58066 69942 76062 8783/ 333 10044 20025 69907 82613 85656 87360=
07181,1999-12-27 19:00:00,2.6,986.3,-7,92,1.4,10000,22.224,,,150,,,0.4,,,,,,,60,og-post,,,,AAXX 27194 07181 21460 81512 10026 20014 39448 49863 58070 76066 8783/ 333 69945 83613 85656 87360=
07181,1999-12-27 20:00:00,1.6,982.9,-8.8,95,0.9,10000,18.52,,,130,,,0.8,,,,,,,68,og-post,,,,AAXX 27204 07181 21360 81310 10016 20009 39413 49829 58088 76876 8783/ 333 69985 85606 87612 87359=
07181,1999-12-27 22:00:00,0.3,977.5,-8.8,99,0.2,5000,25.928,,,90,,,2,,,,,,,71,og-post,,,,AAXX 27224 07181 21250 80914 10003 20002 39360 49775 56088 77177 878// 333 60025 85604 87610 93101=
07181,1999-12-27 23:00:00,0.3,976.4,-6.4,98,0,2000,22.224,,,80,,,2,,,,,,,71,og-post,,,,AAXX 27234 07181 21120 80812 10003 20000 39349 49764 56064 77177 878// 333 60025 85602 87606 93102=
07181,1999-12-28 00:00:00,0.3,975.4,-4.4,98,0,2000,22.224,,,70,,,,5,9,,,,,71,og-post,,,,AAXX 28004 07181 /1120 80712 10003 20000 39340 49754 56044 60091 77176 878// 333 60057 85603 87610 93103=
07181,1999-12-28 01:00:00,0.2,975.5,-2,99,0.1,2000,18.52,,,60,,,3,,,,,,,71,og-post,,,,AAXX 28014 07181 21120 80610 10002 20001 39340 49755 56020 77177 878// 333 60035 85603 87610 93103=
07181,1999-12-28 02:00:00,0.1,977,0.6,99,0,3000,18.52,,,50,,,2,,,,,,,71,og-post,,,,AAXX 28024 07181 21230 80510 10001 20000 39355 49770 53006 77177 878// 333 60025 85605 87610 93101=
07181,1999-12-28 04:00:00,0.1,982.9,7.1,99,0,5000,18.52,,,350,,,0.8,,,,,,,,og-post,,,,AAXX 28044 07181 22350 83510 10001 20000 39411 49829 53071 878// 333 69985 85606 87611=
07181,1999-12-28 05:00:00,0.3,987,9.6,99,0.2,3000,25.928,,,340,,,1,,,,,,,85,og-post,,,,AAXX 28054 07181 21330 83414 10003 20002 39451 49870 53096 78588 878// 333 60015 85606 87611=
07181,1999-12-28 06:00:00,0.6,990,0.5,99,0.5,14000,25.928,,,330,0.1,3.3,,4,,18,18.2,,0,26,og-post,,6,,AAXX 28064 07181 /1264 83314 10006 20005 39480 49900 51105 60182 72687 878// 333 10033 20001 3/000 43006 55/// 60047 70182 82606 87610 93104=
07181,1999-12-28 07:00:00,1,992.7,9.5,97,0.6,15000,22.224,,,330,,,0.2,,,,,,,26,og-post,,,,AAXX 28074 07181 21265 83312 10010 20006 39506 49927 51095 72622 878// 333 69925 81606 87610=
07181,1999-12-28 08:00:00,0.9,995.3,8,95,0.2,15000,18.52,,,300,,,,,,,,,,,og-post,,,,AAXX 28084 07181 32465 83010 10009 20002 39531 49953 51080 8557/ 333 85615 87458=
07181,1999-12-28 10:00:00,1.2,999.5,6.6,94,0.3,10000,14.816,,,280,,,,,,,,,,,og-post,,,,AAXX 28104 07181 32460 82808 10012 20003 39572 49995 51066 875// 333 87610=
07181,1999-12-28 11:00:00,1.3,1000.8,5.3,94,0.4,9000,14.816,,,280,,,,,,,,,,,og-post,,,,AAXX 28114 07181 32359 82808 10013 20004 39584 40008 51053 8627/ 333 86809 87458=
07181,1999-12-28 12:00:00,1.5,1001.4,3.5,94,0.6,7000,11.112,,,280,,,,,0.2,,,,,3,og-post,,,,AAXX 28124 07181 11357 82806 10015 20006 39590 40014 51035 69921 70387 878// 333 84807 87625=
07181,1999-12-28 13:00:00,1.6,1002.1,2.5,94,0.7,6000,7.408,,,270,,,,,,,,,,,og-post,,,,AAXX 28134 07181 32456 82704 10016 20007 39597 40021 51025 878// 333 84810 87633=
07181,1999-12-28 14:00:00,1,1002.6,1.7,97,0.6,1200,7.408,,,240,,,0.6,,,,,,,68,og-post,,,,AAXX 28144 07181 21212 82404 10010 20006 39601 40026 51017 76876 877// 333 69965 87704=
07181,1999-12-28 16:00:00,0.2,1003.7,1.3,98,-0.1,500,3.704,,,250,,,2,,,,,,,73,og-post,,,,AAXX 28164 07181 21205 82502 10002 21001 39610 40037 53013 77377 877// 333 60025 87705=
07181,1999-12-28 17:00:00,0.1,1004.2,1.4,99,0,400,3.704,,,260,,,2,,,,,,,,og-post,,,,AAXX 28174 07181 26/04 /2602 10001 20000 39615 40042 53014 333 60025=
07181,1999-12-28 18:00:00,0,1004.6,1.5,100,0,1500,7.408,,,230,0.1,1.6,,6,,,,,,10,wg-a,,11,,AAXX 28184 07181 12215 82304 10000 20000 39619 40046 51015 60067 71076 875// 91800 333 10016 20001 4/011=
07181,1999-12-28 19:00:00,0.1,1005.1,1.4,99,0,12000,3.704,,,250,,,0.2,,,,,,,,og-post,,,,AAXX 28194 07181 22262 72502 10001 20000 39624 40051 52014 875// 333 69925 83705 87623=
07181,1999-12-28 20:00:00,0.4,1005.8,1.6,99,0.3,9000,3.704,,,260,,,,,,,,,,,og-post,,,,AAXX 28204 07181 32259 72602 10004 20003 39631 40058 53016 875// 333 83705 87623=
07181,1999-12-28 22:00:00,0.4,1006.5,1.4,99,0.3,5000,7.408,,,270,,,,,,,,,,,og-post,,,,AAXX 28224 07181 32250 72704 10004 20003 39638 40065 51014 877// 333 87703=
07181,1999-12-28 23:00:00,0.6,1007.2,1.4,99,0.5,4000,7.408,,,260,,,,,,,,,,10,og-post,,,,AAXX 28234 07181 31240 72604 10006 20005 39645 40072 53014 71022 877// 333 87703=
07181,1999-12-29 00:00:00,0.6,1007.9,1.5,99,0.5,4000,7.408,,,280,,,,,0.2,,,,,10,og-post,,,,AAXX 29004 07181 11240 72804 10006 20005 39651 40079 53015 69921 71072 877// 333 87703=
07181,1999-12-29 01:00:00,0.5,1008.5,1.9,99,0.4,4000,7.408,,,300,,,,,,,,,,10,og-post,,,,AAXX 29014 07181 31240 73004 10005 20004 39657 40085 51019 71022 877// 333 87705=
07181,1999-12-29 02:00:00,0.5,1009.2,1.9,99,0.4,4000,7.408,,,240,,,,,,,,,,10,og-post,,,,AAXX 29024 07181 31240 72404 10005 20004 39664 40092 53019 71022 877// 333 87705=
07181,1999-12-29 04:00:00,0.4,1010.6,2,99,0.3,2500,7.408,,,270,,,,,,,,,,,og-post,,,,AAXX 29044 07181 36/25 /2704 10004 20003 39677 40106 51020=
07181,1999-12-29 05:00:00,0.3,1011.3,1.9,99,0.2,3000,11.112,,,310,,,0.4,,,,,,,10,og-post,,,,AAXX 29054 07181 21230 73106 10003 20002 39683 40113 51019 71022 877// 333 69945 87704=
07181,1999-12-29 06:00:00,0.4,1012.3,2.2,99,0.3,4000,11.112,,,290,-0.5,0.6,,0.4,,0.6,9,,-2,10,og-post,,11,,AAXX 29064 07181 /1240 82906 10004 20003 39693 40123 53022 69962 71022 875// 333 10006 21005 3/102 43011 55/// 69947 70090 84704 87611 93100=
07181,1999-12-29 07:00:00,0.5,1013.3,2.6,99,0.4,6000,7.408,,,280,,,,,,,,,,,og-post,,,,AAXX 29074 07181 32356 82804 10005 20004 39703 40133 53026 877// 333 87706=
07181,1999-12-29 08:00:00,0.5,1014.2,2.8,98,0.2,7000,7.408,,,300,,,,,,,,,,,og-post,,,,AAXX 29084 07181 32357 83004 10005 20002 39711 40142 51028 878// 333 84807 87618=
07181,1999-12-29 10:00:00,1,1015.6,2.3,95,0.3,10000,11.112,,,270,,,0.2,,,,,,,26,og-post,,,,AAXX 29104 07181 21360 72706 10010 20003 39726 40156 52023 72687 878// 333 69925 84808 87620=
07181,1999-12-29 11:00:00,1.1,1016.1,2,94,0.2,10000,14.816,,,290,,,,,,,,,,,og-post,,,,AAXX 29114 07181 32360 72908 10011 20002 39731 40161 51020 878// 333 84807 87620=
07181,1999-12-29 12:00:00,1.1,1016.8,1.9,92,-0.1,10000,14.816,,,280,,,,0.2,0.2,,,,,3,og-post,,,,AAXX 29124 07181 /1360 72808 10011 21001 39737 40168 51019 69921 70387 878// 333 69927 84807 87616=
07181,1999-12-29 13:00:00,1.2,1017.1,1.4,82,-1.5,15000,14.816,,,280,,,,,,,,,,,og-post,,,,AAXX 29134 07181 32365 72808 10012 21015 39740 40171 51014 878// 333 83808 87625=
07181,1999-12-29 14:00:00,1.1,1017.5,1.3,77,-2.5,18000,14.816,,,290,,,,,,,,,,,og-post,,,,AAXX 29144 07181 32468 72908 10011 21025 39744 40175 51013 878// 333 83815 86630=
07181,1999-12-29 15:00:00,0.6,1018.3,1.4,83,-1.9,18000,11.112,,,260,,,,,,,,,,,og-post,,,,AAXX 29154 07181 32468 62606 10006 21019 39751 40183 53014 86800 333 82815 86633=
07181,1999-12-29 16:00:00,0.2,1018.6,1.3,82,-2.5,15000,7.408,,,260,,,,,,,,,,,og-post,,,,AAXX 29164 07181 32565 52604 10002 21025 39753 40186 51013 85500 333 85631=
07181,1999-12-29 17:00:00,0.2,1019.5,1.8,92,-0.9,15000,14.816,,,250,,,,,,,,,,,og-post,,,,AAXX 29174 07181 32465 62508 10002 21009 39762 40195 53018 86800 333 82810 86630=
07181,1999-12-29 18:00:00,0.1,1020.5,2,93,-0.9,10000,11.112,,,240,-0.6,1.2,,,,0.2,,,,,og-post,,8,,AAXX 29184 07181 12460 72406 10001 21009 39771 40205 53020 69922 878// 333 10012 21006 43008 82810 87630=
07181,1999-12-29 19:00:00,-0.3,1021.3,2.5,94,-1.1,10000,7.408,,,250,,,,,,,,,,,og-post,,,,AAXX 29194 07181 32460 72504 11003 21011 39778 40213 51025 878// 333 82810 87630=
07181,1999-12-29 20:00:00,-0.2,1021.8,2.1,95,-0.9,8000,14.816,,,230,,,,,,,,,,,og-post,,,,AAXX 29204 07181 32358 72308 11002 21009 39783 40218 51021 878// 333 83808 87630=
07181,1999-12-29 21:00:00,0.2,1022,1.5,95,-0.5,8000,11.112,,,210,,,,,,,,,,,og-post,,,,AAXX 29214 07181 32358 62106 10002 21005 39786 40220 51015 86800 333 84809 86633=
07181,1999-12-29 22:00:00,0.2,1022.4,1.1,95,-0.5,7000,18.52,,,210,,,,,,,,,,26,og-post,,,,AAXX 29224 07181 21357 72110 10002 21005 39789 40224 51011 72687 878// 333 69905 85809 87630=
07181,1999-12-29 23:00:00,0.2,1023.2,1.4,97,-0.2,6000,14.816,,,230,,,,,,,,,,,og-post,,,,AAXX 29234 07181 32156 72308 10002 21002 39797 40232 53014 878// 333 82702 85807 87615=
07181,1999-12-30 00:00:00,0.4,1023.4,1.3,98,0.1,6000,11.112,,,240,,,,,,,,,,3,og-post,,,,AAXX 30004 07181 /1156 72406 10004 20001 39799 40234 51013 69901 70387 872// 333 69907 82702 87807=
07181,1999-12-30 01:00:00,0.7,1023.9,1.6,97,0.3,5000,14.816,,,220,,,,,,,,,,,og-post,,,,AAXX 30014 07181 32150 72208 10007 20003 39805 40239 51016 872// 333 82702 87806=
07181,1999-12-30 02:00:00,0.6,1024.5,1.3,98,0.3,4000,11.112,,,230,,,,,,,,,,10,og-post,,,,AAXX 30024 07181 31140 72306 10006 20003 39810 40245 53013 71022 877// 333 87703=
07181,1999-12-30 03:00:00,0.6,1024.5,1.1,98,0.3,3000,11.112,,,220,,,,,,,,,,10,og-post,,,,AAXX 30034 07181 31130 72206 10006 20003 39810 40245 51011 71022 877// 333 87703=
07181,1999-12-30 04:00:00,0.7,1024.8,0.8,98,0.4,5000,7.408,,,260,,,,,,,,,,,og-post,,,,AAXX 30044 07181 32250 72604 10007 20004 39813 40248 51008 877// 333 87704=
07181,1999-12-30 05:00:00,0.5,1025.4,0.9,98,0.2,4600,7.408,,,220,,,,,,,,,,,og-post,,,,AAXX 30054 07181 36/46 /2204 10005 20002 39819 40254 53009=
07181,1999-12-30 06:00:00,0.4,1025.8,1.2,98,0.1,5000,14.816,,,220,-0.5,0.8,,,,,0.2,,-2,,og-post,,6,,AAXX 30064 07181 12250 72208 10004 20001 39822 40258 52012 69902 878// 333 10008 21005 3/102 43006 55/// 70002 83704 85825 87650=
07181,1999-12-30 07:00:00,0.5,1025.8,1,99,0.4,2500,14.816,,,230,,,,,,,,,,10,og-post,,,,AAXX 30074 07181 31125 82308 10005 20004 39823 40258 51010 71022 875// 333 85702 87625=
07181,1999-12-30 08:00:00,0.5,1026.7,1.2,99,0.4,1200,14.816,,,220,,,,,,,,,,10,og-post,,,,AAXX 30084 07181 31112 82208 10005 20004 39831 40267 53012 71022 877// 333 82702 87703=
07181,1999-12-30 09:00:00,0.7,1027.2,1.4,99,0.6,6000,14.816,,,230,,,,,,,,,,,og-post,,,,AAXX 30094 07181 32356 72308 10007 20006 39836 40272 53014 875// 333 82707 87640=
07181,1999-12-30 10:00:00,1,1027.4,1.6,96,0.4,5000,11.112,,,230,,,,,,,,,,,og-post,,,,AAXX 30104 07181 32350 72306 10010 20004 39839 40274 51016 875// 333 83708 87640=
07181,1999-12-30 11:00:00,1.1,1027.3,0.7,94,0.2,6000,18.52,,,230,,,,,,,,,,,og-post,,,,AAXX 30114 07181 32456 72310 10011 20002 39838 40273 50007 875// 333 82710 87640=
07181,1999-12-30 12:00:00,1.1,1027,-0.1,94,0.2,5000,18.52,,,230,,,,,,,,,,,og-post,,,,AAXX 30124 07181 32450 72310 10011 20002 39835 40270 58001 875// 333 82710 87640 93100=
07181,1999-12-30 13:00:00,1.3,1026.5,-0.9,92,0.1,7000,18.52,,,220,,,,,,,,,,,og-post,,,,AAXX 30134 07181 32457 72210 10013 20001 39830 40265 58009 86502 333 82710 86646 87075=
07181,1999-12-30 14:00:00,1.4,1026.4,-0.8,91,0.1,9000,18.52,,,220,,,,,,,,,,,og-post,,,,AAXX 30144 07181 32459 72210 10014 20001 39830 40264 56008 878// 333 85816 87646=
07181,1999-12-30 15:00:00,1.5,1026.1,-0.8,88,-0.3,12000,22.224,,,210,,,,,,,,,,,og-post,,,,AAXX 30154 07181 32462 72112 10015 21003 39827 40261 56008 86802 333 82816 86623 87075=
07181,1999-12-30 16:00:00,1.3,1025.7,-0.7,91,0,6000,25.928,,,210,,,,,,,,,,22,og-post,,,,AAXX 30164 07181 31556 82114 10013 20000 39823 40257 58007 72222 868// 333 83820 87646=
07181,1999-12-30 17:00:00,0.9,1025.4,-1.1,96,0.3,1000,18.52,,,190,,,0.2,,,,,,,26,og-post,,,,AAXX 30174 07181 21410 81910 10009 20003 39819 40254 58011 72687 878// 333 69925 83710 85816 87646=
07181,1999-12-30 18:00:00,0.9,1025.2,-1,96,0.3,4000,22.224,,,210,0.4,1.6,,0.4,,0.4,,,,77,og-post,,5,,AAXX 30184 07181 /1340 82112 10009 20003 39817 40252 56010 69942 77787 877// 333 10016 20004 43005 69947 87706 93100=
07181,1999-12-30 19:00:00,0.9,1025.1,-0.7,96,0.3,4000,25.928,,,200,,,0.6,,,,,,,77,og-post,,,,AAXX 30194 07181 21340 82014 10009 20003 39816 40251 56007 77777 877// 333 69965 87706 93100=
07181,1999-12-30 20:00:00,0.9,1024.7,-0.6,96,0.3,6000,22.224,,,210,,,,,,,,,,50,og-post,,,,AAXX 30204 07181 21356 82112 10009 20003 39813 40247 58006 75075 877// 333 69905 87708=
07181,1999-12-30 21:00:00,1,1024.6,-0.5,96,0.4,6000,22.224,,,200,,,,0.6,,,,,,50,og-post,,,,AAXX 30214 07181 21356 82012 10010 20004 39812 40246 57005 75075 877// 333 69967 87707=
07181,1999-12-30 22:00:00,1.1,1023.9,-1.1,95,0.4,6000,25.928,,,210,,,0.2,,,,,,,50,og-post,,,,AAXX 30224 07181 21356 82114 10011 20004 39805 40239 58011 75055 877// 333 69925 87707=
07181,1999-12-30 23:00:00,1.1,1023.6,-1.1,95,0.4,8000,25.928,,,200,,,,,,,,,,50,og-post,,,,AAXX 30234 07181 21358 82014 10011 20004 39802 40236 58011 75055 877// 333 69905 87708=
07181,1999-12-31 00:00:00,1.1,1023.1,-1.4,94,0.2,11000,25.928,,,200,,,,0.2,0.8,,,,,,og-post,,,,AAXX 31004 07181 /6/61 /2014 10011 20002 39798 40231 56014 69981 333 69927=
07181,1999-12-31 01:00:00,1.1,1022.7,-1.1,94,0.2,8000,25.928,,,200,,,0.2,,,,,,,,og-post,,,,AAXX 31014 07181 22358 82014 10011 20002 39794 40227 58011 875// 333 69925 85708 87646=
07181,1999-12-31 02:00:00,1.1,1022.4,-1.1,95,0.4,8000,25.928,,,190,,,,,,,,,,50,og-post,,,,AAXX 31024 07181 21358 81914 10011 20004 39791 40224 56011 75055 875// 333 69905 85708 87646=
07181,1999-12-31 03:00:00,1.1,1021.9,-1.2,95,0.4,10000,25.928,,,200,,,,0.2,,,,,,20,og-post,,,,AAXX 31034 07181 21360 82014 10011 20004 39786 40219 58012 72052 875// 333 69927 85708 87646=
07181,1999-12-31 04:00:00,0.9,1021.7,-1,95,0.2,10000,22.224,,,200,,,,,,,,,,,og-post,,,,AAXX 31044 07181 32360 82012 10009 20002 39784 40217 56010 877// 333 87708=
07181,1999-12-31 05:00:00,0.8,1021.1,-1.3,96,0.2,5000,22.224,,,200,,,0.4,,,,,,,71,og-post,,,,AAXX 31054 07181 21350 82012 10008 20002 39778 40211 58013 77172 875// 333 69945 87706 87633=
07181,1999-12-31 06:00:00,1.1,1021.6,-0.3,95,0.4,12000,18.52,,,190,0.7,1.2,,0.4,,1,1.8,,0,22,og-post,,5,,AAXX 31064 07181 /1362 81910 10011 20004 39783 40216 55003 60012 72275 877// 333 10012 20007 3/000 43005 55/// 69947 70018 87708 93101=
07181,1999-12-31 07:00:00,1,1021.7,-0,95,0.3,6000,18.52,,,180,,,,,,,,,,50,og-post,,,,AAXX 31074 07181 21356 81810 10010 20003 39784 40217 55000 75052 877// 333 69905 87708=
07181,1999-12-31 08:00:00,0.8,1022.1,1,96,0.2,5000,14.816,,,180,,,,,,,,,,60,og-post,,,,AAXX 31084 07181 21350 81808 10008 20002 39788 40221 51010 76065 875// 333 69905 85707 87615=
07181,1999-12-31 09:00:00,1,1022.1,0.5,95,0.3,7000,18.52,,,190,,,,,,,,,,22,og-post,,,,AAXX 31094 07181 21357 81910 10010 20003 39788 40221 51005 72276 878// 333 69907 85807 87615=
07181,1999-12-31 10:00:00,1.3,1022.4,0.7,93,0.3,11000,14.816,,,190,,,,,,,,,,,og-post,,,,AAXX 31104 07181 32361 81908 10013 20003 39791 40224 51007 878// 333 85808 87620=
07181,1999-12-31 11:00:00,1.4,1022.6,0.5,92,0.2,15000,14.816,,,190,,,,,,,,,,,og-post,,,,AAXX 31114 07181 32365 81908 10014 20002 39793 40226 53005 878// 333 85809 87620=
07181,1999-12-31 13:00:00,1.3,1022.4,0,95,0.6,8000,11.112,,,190,,,0.2,,,,,,,60,og-post,,,,AAXX 31134 07181 21358 81906 10013 20006 39791 40224 50000 76062 878// 333 69925 85808 87620=
07181,1999-12-31 14:00:00,1.4,1022.4,-0.2,96,0.8,10000,7.408,,,130,,,0.2,,,,,,,21,og-post,,,,AAXX 31144 07181 21360 81304 10014 20008 39791 40224 58002 72162 878// 333 69925 85808 87620=
07181,1999-12-31 15:00:00,1.2,1022.7,-0,96,0.6,10000,7.408,,,150,,,,0.4,,,,,,1,og-post,,,,AAXX 31154 07181 21360 81504 10012 20006 39794 40227 55000 70162 875// 333 69947 87609=
07181,1999-12-31 16:00:00,1.1,1023,0.6,97,0.7,9000,7.408,,,160,,,,,,,,,,,og-post,,,,AAXX 31164 07181 32359 81604 10011 20007 39797 40230 53006 875// 333 87608=
07181,1999-12-31 17:00:00,0.9,1023.8,1.3,97,0.5,5000,3.704,,,150,,,,,,,,,,50,og-post,,,,AAXX 31174 07181 21250 81502 10009 20005 39804 40238 53013 75052 875// 333 69905 85705 87608=
07181,1999-12-31 18:00:00,0.8,1023.9,1.1,98,0.5,2000,3.704,,,150,0.8,1.6,,,,0.4,,,,50,og-post,,2,,AAXX 31184 07181 /1220 81502 10008 20005 39805 40239 51011 69942 75065 877// 333 10016 20008 43002 69907 87704=
07181,1999-12-31 19:00:00,0.9,1024.1,1,98,0.6,2000,7.408,,,170,,,,,,,,,,20,og-post,,,,AAXX 31194 07181 21220 81704 10009 20006 39807 40241 51010 72052 877// 333 69905 87703=
07181,1999-12-31 20:00:00,0.8,1024.6,0.8,99,0.7,2000,7.408,,,150,,,0.2,,,,,,,50,og-post,,,,AAXX 31204 07181 21220 81504 10008 20007 39812 40246 53008 75052 877// 333 69925 87704=
07181,1999-12-31 21:00:00,0.9,1024.8,0.9,99,0.8,4000,7.408,,,160,,,,0.2,,,,,,20,og-post,,,,AAXX 31214 07181 21240 81604 10009 20008 39814 40248 52009 72052 875// 333 69927 85704 87615=
07181,1999-12-31 22:00:00,0.9,1025.2,1,99,0.8,4500,7.408,,,170,,,,,,,,,,10,og-post,,,,AAXX 31224 07181 31245 81704 10009 20008 39817 40252 51010 71022 877// 333 87706=
07181,1999-12-31 23:00:00,1,1025.6,0.9,99,0.9,5000,7.408,,,170,,,,,,,,,,,og-post,,,,AAXX 31234 07181 32350 81704 10010 20009 39821 40256 53009 877// 333 87707=
