station_id,dh_utc,temperature,pression,pression_variation_3h,humidite,point_de_rosee,visibilite,vent_moyen,vent_rafales,vent_rafales_10min,vent_direction,temperature_min,temperature_max,pluie_1h,pluie_3h,pluie_6h,pluie_12h,pluie_24h,ensoleillement,temperature_sol,temps_omm,source,radiations,neige_au_sol,nebulosite,raw_msg
07661,1996-01-01 00:00:00,10,1000.3,1,82,7,15000,53.708,,75.932,300,,,,,,,,,,,wg-a,,,,AAXX 01004 07661 12/65 03029 10100 20070 39841 40003 50010 60006 80000 90000 333 91041=
07661,1996-01-01 06:00:00,10,999.9,-1.2,76,6,25000,46.3,,,300,10,12.1,,,,,,,,,wg-a,,,,AAXX 01064 07661 12/75 03025 10100 20060 39837 49999 58012 60006 80000 90600 333 10121 20100=
07661,1996-01-01 12:00:00,13,999.9,-0.7,77,9,25000,14.816,,,290,,,,,,,,,,,wg-a,,,,AAXX 01124 07661 12875 52908 10130 20090 39839 49999 58007 60006 8/070 91200=
07661,1996-01-01 18:00:00,10,1000,2,93,9,15000,22.224,,,30,9.4,13.6,,3,,,,,,61,wg-a,,,,AAXX 01184 07661 12/65 70312 10100 20090 39838 40000 53020 60037 76162 87050 91800 333 10136 20094=
07661,1996-01-02 00:00:00,10,1002.8,1.6,93,9,15000,22.224,,,290,,,,,,,,,,21,wg-a,,,,AAXX 02004 07661 02865 72912 10100 20090 39866 40028 50016 60016 72122 8707/ 90000 333 61000=
07661,1996-01-02 06:00:00,12,1003.8,-0,82,9,20000,57.412,,87.044,290,9.5,12.5,,0,,,,,,,wg-a,,,,AAXX 02064 07661 12/70 02931 10120 20090 39877 40038 55000 60007 80000 90600 333 10125 20095 91047=
07661,1996-01-02 12:00:00,12,1005.7,-0.4,82,9,10000,72.228,,107.416,290,,,,,,,,,,,wg-a,,,,AAXX 02124 07661 12660 62939 10120 20090 39896 40057 58004 60006 86800 91200 333 91058=
07661,1996-01-02 18:00:00,12,1007.5,2.9,62,5,20000,46.3,,100.008,310,11.5,12.7,,,,,,,,1,wg-a,,,,AAXX 02184 07661 32/70 23125 10120 20050 39913 40075 53029 70160 82030 91800 333 10127 20115 91054=
07661,1996-01-03 00:00:00,10,1011.1,1.4,66,4,15000,31.484,,75.932,300,,,,,,,,,,,wg-a,,,,AAXX 03004 07661 12/65 03017 10100 20040 39947 40111 51014 60006 80000 90000 333 91041=
07661,1996-01-03 06:00:00,8,1012.3,0.5,76,4,25000,7.408,,,290,7.4,11.5,,,,,,,,,wg-a,,,,AAXX 03064 07661 12/75 02904 10080 20040 39958 40123 53005 60006 80000 90600 333 10115 20074=
07661,1996-01-03 12:00:00,12,1014.2,0,71,7,0,7.408,,,130,,,,,,,,,,,wg-a,,,,AAXX 03124 07661 12/// /1304 10120 20070 39979 40142 50000 60006 91200=
07661,1996-01-04 12:00:00,11,1016.3,-0.7,66,5,25000,3.704,,,220,,,,,,,,,,,wg-a,,,,AAXX 04124 07661 12/75 42202 10110 20050 39999 40163 58007 60006 80005 91200=
07661,1996-01-05 00:00:00,8,1011.8,-1.9,93,7,15000,11.112,,,90,,,,,,,,,,,wg-a,,,,AAXX 05004 07661 12865 70906 10080 20070 39953 40118 58019 60006 8707/ 90000=
07661,1996-01-05 06:00:00,9,1007.9,-1.7,93,8,10000,29.632,,,60,7.9,10.8,,,,,,,,,wg-a,,,,AAXX 05064 07661 12560 80616 10090 20080 39916 40079 56017 60006 886// 90600 333 10108 20079=
07661,1996-01-05 12:00:00,9,1004.9,-2.4,100,9,3000,35.188,,,60,,,,1,,,,,,61,wg-a,,,,AAXX 05124 07661 02430 80619 10090 20090 39886 40049 58024 60016 76162 8472/ 91200 333 60017=
07661,1996-01-05 18:00:00,9,1001,-0.8,100,9,6000,38.892,,,70,8.9,9.5,,10,,,,,,63,wg-a,,,,AAXX 05184 07661 12456 80721 10090 20090 39848 40010 56008 60107 76364 8472/ 91800 333 10095 20089=
07661,1996-01-06 00:00:00,9,998.6,-0.9,100,9,10000,38.892,,68.524,60,,,,1,,,,,,60,wg-a,,,,AAXX 06004 07661 02460 80621 10090 20090 39824 49986 58009 60066 76066 8672/ 90000 333 60017 91037=
07661,1996-01-06 06:00:00,9,1001.5,1.7,100,9,2000,7.408,,,310,8.7,9.3,,3,,,,,,60,wg-a,,,,AAXX 06064 07661 12420 83104 10090 20090 39852 40015 53017 60037 76062 8572/ 90600 333 10093 20087=
07661,1996-01-06 12:00:00,10,1003.4,-0.2,100,10,15000,7.408,,,80,,,,,,,,,,2,wg-a,,,,AAXX 06124 07661 12665 80804 10100 20100 39872 40034 58002 60016 70262 888// 91200=
07661,1996-01-06 18:00:00,10,1003.3,-0.4,87,8,25000,31.484,,53.708,100,8.6,10.7,,,,,,,,,wg-a,,,,AAXX 06184 07661 32475 71017 10100 20080 39871 40033 58004 878// 91800 333 10107 20086 91029=
07661,1996-01-07 00:00:00,10,1004.4,-0.2,93,9,500,42.596,,64.82,80,,,,5,,,,,,63,wg-a,,,,AAXX 07004 07661 12/00 80823 10100 20090 39881 40044 56002 60057 76362 887// 90000 333 91035=
07661,1996-01-07 06:00:00,9,1001.8,-0.6,100,9,6000,42.596,,68.524,60,8.1,10.5,,3,,,,,,63,wg-a,,,,AAXX 07064 07661 12456 80623 10090 20090 39855 40018 56006 60037 76366 8572/ 90600 333 10105 20081 91037=
07661,1996-01-07 12:00:00,11,1002.6,0.9,94,10,15000,29.632,,94.452,60,,,,,,,,,,2,wg-a,,,,AAXX 07124 07661 02565 80616 10110 20100 39864 40026 51009 61000 70262 8572/ 91200 333 6100 91051=
07661,1996-01-07 18:00:00,10,1006.4,2.9,93,9,15000,7.408,,,320,8.5,11.8,,,,,,,,,wg-a,,,,AAXX 07184 07661 32565 63204 10100 20090 39901 40064 53029 85270 91800 333 10118 20085=
07661,1996-01-08 00:00:00,10,1008.9,1.2,87,8,15000,42.596,,,300,,,,,,,,,,,wg-a,,,,AAXX 08004 07661 12/65 33023 10100 20080 39926 40089 51012 60006 80008 90000=
07661,1996-01-08 06:00:00,11,1010,0.3,62,4,500,46.3,,,300,9.7,10.9,,,,,,,,,wg-a,,,,AAXX 08064 07661 12/00 03025 10110 20040 39937 40100 53003 60006 80000 90600 333 10109 20097=
07661,1996-01-08 12:00:00,12,1013.1,0.6,67,6,500,29.632,,,280,,,,,,,,,,,wg-a,,,,AAXX 08124 07661 12/00 02816 10120 20060 39968 40131 50006 60006 80000 91200=
07661,1996-01-08 18:00:00,11,1014.2,1.5,76,7,20000,7.408,,,220,9.9,13.2,,,,,,,,,wg-a,,,,AAXX 08184 07661 12/70 32204 10110 20070 39978 40142 51015 60006 80004 91800 333 10132 20099=
07661,1996-01-09 00:00:00,9,1014.8,-0,93,8,0,22.224,,,70,,,,,,,,,,,wg-a,,,,AAXX 09004 07661 12/// /0712 10090 20080 39983 40148 55000 60006 90000=
07661,1996-01-09 06:00:00,10,1014.2,-0,93,9,12000,35.188,,,60,7.1,10.6,,,,,,,,,wg-a,,,,AAXX 09064 07661 12562 80619 10100 20090 39978 40142 55000 60006 858// 90600 333 10106 20071=
07661,1996-01-09 12:00:00,13,1013.2,-1.4,77,9,15000,50.004,,68.524,70,,,,,,,,,,,wg-a,,,,AAXX 09124 07661 12565 70727 10130 20090 39970 40132 58014 60006 84262 91200 333 91037=
07661,1996-01-09 18:00:00,12,1010.5,-0.4,82,9,15000,68.524,,96.304,80,10.2,13,,,,,,,,,wg-a,,,,AAXX 09184 07661 12565 40837 10120 20090 39943 40105 55004 60006 84200 91800 333 10130 20102 91052=
07661,1996-01-10 00:00:00,13,1007.9,-0.7,77,9,15000,75.932,,111.12,70,,,,,,,,,,,wg-a,,,,AAXX 10004 07661 12865 80741 10130 20090 39918 40079 56007 60006 8805/ 90000 333 91060=
07661,1996-01-10 06:00:00,11,1004.9,-1,100,11,8000,64.82,,,70,11.1,13.3,,4,,,,,,63,wg-a,,,,AAXX 10064 07661 12558 80735 10110 20110 39887 40049 55010 60047 76362 8472/ 90600 333 10133 20111=
07661,1996-01-10 12:00:00,13,1006.5,0.2,100,13,500,35.188,,100.008,130,,,,2,,,,,,62,wg-a,,,,AAXX 10124 07661 02400 81319 10130 20130 39904 40065 50002 60036 76266 8472/ 91200 333 60027 91054=
07661,1996-01-10 18:00:00,12,1010.3,1.8,100,12,12000,22.224,,64.82,160,11.4,13.1,,,,,,,,1,wg-a,,,,AAXX 10184 07661 32562 71612 10120 20120 39941 40103 52018 70162 8482/ 91800 333 10131 20114 91035=
07661,1996-01-11 00:00:00,12,1011.8,0.2,100,12,6000,25.928,,,100,,,,1,,,,,,60,wg-a,,,,AAXX 11004 07661 02356 81014 10120 20120 39955 40118 50002 60016 76062 8572/ 90000 333 60017=
07661,1996-01-11 06:00:00,11,1011.1,-0.3,100,11,12000,18.52,,,60,10.5,12.3,,,,,,,,1,wg-a,,,,AAXX 11064 07661 02462 80610 10110 20110 39948 40111 56003 61000 70162 8387/ 90600 333 10123 20105 ////=
07661,1996-01-11 12:00:00,12,1010.2,-0.7,100,12,6000,18.52,,50.004,110,,,,3,,,,,,60,wg-a,,,,AAXX 11124 07661 02556 81110 10120 20120 39940 40102 58007 60046 76062 887// 91200 333 60037 91027=
07661,1996-01-11 18:00:00,11,1009.6,0.1,100,11,10000,7.408,,,160,10.4,13,,1,,,,,,21,wg-a,,,,AAXX 11184 07661 12560 81604 10110 20110 39934 40096 52001 60017 72162 887// 91800 333 10130 20104=
07661,1996-01-12 00:00:00,11,1008.3,-1.2,94,10,15000,14.816,,,140,,,,,,,,,,2,wg-a,,,,AAXX 12004 07661 02665 71408 10110 20100 39920 40083 58012 60016 70262 8777/ 90000 333 61000=
07661,1996-01-12 06:00:00,10,1005.8,-1.1,100,10,12000,22.224,,,70,9.7,11.5,,,,,,,,,wg-a,,,,AAXX 12064 07661 32562 70712 10100 20100 39895 40058 56011 8767/ 90600 333 10115 20097=
07661,1996-01-12 12:00:00,13,1004.9,-1,100,13,10000,22.224,,,130,,,,,,,,,,,wg-a,,,,AAXX 12124 07661 12560 71312 10130 20130 39888 40049 58010 60006 8467/ 91200=
07661,1996-01-12 18:00:00,13,1006.6,1.2,88,11,15000,50.004,,72.228,70,9.7,12.9,,1,,,,,,1,wg-a,,,,AAXX 12184 07661 12565 60727 10130 20110 39905 40066 53012 60017 70162 8/800 91800 333 10129 20097 91039=
07661,1996-01-13 00:00:00,13,1009,1.2,94,12,10000,38.892,,,60,,,,,,,,,,,wg-a,,,,AAXX 13004 07661 12860 60621 10130 20120 39929 40090 53012 60006 86070 90000=
07661,1996-01-13 06:00:00,13,1011.9,1.6,82,10,15000,29.632,,61.116,50,12.1,13,,,,,,,,2,wg-a,,,,AAXX 13064 07661 32865 60516 10130 20100 39957 40119 53016 70262 86070 90600 333 10130 20121 91033=
07661,1996-01-13 12:00:00,15,1014.6,0.4,72,10,15000,35.188,,53.708,80,,,,,,,,,,,wg-a,,,,AAXX 13124 07661 12565 80819 10150 20100 39985 40146 50004 60006 888// 91200 333 91029=
07661,1996-01-14 18:00:00,12,1022,1.7,88,10,12000,25.928,,57.412,60,10.9,12.6,,,,,,,,,wg-a,,,,AAXX 14184 07661 32562 70614 10120 20100 30056 40220 53017 878// 91800 333 10126 20109 91031=
07661,1996-01-15 00:00:00,10,1023.1,0.3,93,9,10000,22.224,,,70,,,,,,,,,,,wg-a,,,,AAXX 15004 07661 12/60 00712 10100 20090 30066 40231 51003 60006 80000 90000=
07661,1996-01-15 06:00:00,8,1024,0.5,93,7,20000,18.52,,,80,8.1,11.6,,,,,,,,,wg-a,,,,AAXX 15064 07661 12/70 20810 10080 20070 30073 40240 53005 60006 82030 90600 333 10116 20081=
07661,1996-01-15 12:00:00,13,1024.9,0,82,10,15000,11.112,,,100,,,,,,,,,,,wg-a,,,,AAXX 15124 07661 12/65 11006 10130 20100 30085 40249 50000 60006 80001 91200=
07661,1996-01-15 18:00:00,12,1026,1.3,94,11,10000,14.816,,,110,8,13,,,,,,,,,wg-a,,,,AAXX 15184 07661 12560 31108 10120 20110 30095 40260 53013 60006 83200 91800 333 10130 20080=
07661,1996-01-16 00:00:00,10,1026.9,0.1,100,10,10000,11.112,,,80,,,,0,,,,,,,wg-a,,,,AAXX 16004 07661 02/60 00806 10100 20100 30103 40269 51001 60006 80000 90000 333 60007=
07661,1996-01-16 06:00:00,11,1027.7,0.2,87,9,10000,7.408,,,70,9.9,11.6,,,,,,,,,wg-a,,,,AAXX 16064 07661 32460 70704 10110 20090 30111 40277 53002 876// 90600 333 10116 20099=
07661,1996-01-16 12:00:00,12,1028,-0.8,82,9,10000,11.112,,,70,,,,,,,,,,,wg-a,,,,AAXX 16124 07661 12460 70706 10120 20090 30115 40280 58008 60006 876// 91200=
07661,1996-01-16 18:00:00,10,1027.9,0.4,82,7,10000,7.408,,,50,10,11.8,,,,,,,,,wg-a,,,,AAXX 16184 07661 12560 70504 10100 20070 30113 40279 53004 60006 875// 91800 333 10118 20100=
07661,1996-01-17 00:00:00,7,1028.3,-0.9,100,7,10000,22.224,,,60,,,,,,,,,,,wg-a,,,,AAXX 17004 07661 12/60 00612 10070 20070 30115 40283 58009 60006 80000 90000=
07661,1996-01-17 06:00:00,6,1028,0.1,93,5,12000,18.52,,,70,5.6,10,,,,,,,,,wg-a,,,,AAXX 17064 07661 12/62 00710 10060 20050 30111 40280 53001 60006 80000 90600 333 10100 20056=
07661,1996-01-17 12:00:00,11,1027.3,-0.9,58,3,15000,29.632,,,90,,,,0,,,,,,,wg-a,,,,AAXX 17124 07661 02/65 40916 10110 20030 30107 40273 58009 60016 80004 91200 333 60007=
07661,1996-01-17 18:00:00,9,1026.7,0.8,57,1,10000,22.224,,64.82,60,5.2,11.1,,,,,,,,,wg-a,,,,AAXX 17184 07661 32/60 00612 10090 20010 30100 40267 51008 80000 91800 333 10111 20052 91035=
07661,1996-01-18 00:00:00,6,1026.2,-0.3,87,4,10000,18.52,,,80,,,,,,,,,,,wg-a,,,,AAXX 18004 07661 12/60 00810 10060 20040 30093 40262 58003 60006 80000 90000=
07661,1996-01-18 06:00:00,5,1024.9,-0.4,93,4,18000,18.52,,,80,4.7,8.8,,,,,,,,,wg-a,,,,AAXX 18064 07661 12/68 20810 10050 20040 30080 40249 56004 60006 80002 90600 333 10088 20047=
07661,1996-01-18 12:00:00,12,1014.1,-2,54,3,25000,46.3,,,300,,,,,,,,,,,wg-a,,,,AAXX 18124 07661 12/75 23025 10120 20030 39978 40141 58020 60006 80008 91200=
07661,1996-01-18 18:00:00,9,1021.8,-0.2,81,6,0,0,,,0,,,,,,,,,,,wg-a,,,,AAXX 18184 07661 32/// ///// 10090 20060 30052 40218 55002 91800=
07661,1996-01-19 00:00:00,7,1021,-0.8,81,4,15000,0,,,0,,,,,,,,,,,wg-a,,,,AAXX 19004 07661 12/65 0//// 10070 20040 30043 40210 58008 60006 80000 90000=
07661,1996-01-19 06:00:00,8,1018.3,-1.1,71,3,20000,0,,,0,5.9,8.9,,,,,,,,,wg-a,,,,AAXX 19064 07661 12/70 0//// 10080 20030 30017 40183 56011 60006 80000 90600 333 10089 20059=
07661,1996-01-19 12:00:00,11,1016.8,-1.3,58,3,15000,0,,,0,,,,,,,,,,,wg-a,,,,AAXX 19124 07661 12/65 2//// 10110 20030 30004 40168 58013 60006 82030 91200=
07661,1996-01-19 18:00:00,9,1014.9,-0.4,71,4,15000,3.704,,,250,5.4,12.4,,,,,,,,,wg-a,,,,AAXX 19184 07661 12/65 02502 10090 20040 39984 40149 57004 60006 80000 91800 333 10124 20054=
07661,1996-01-20 00:00:00,6,1014.1,-0.9,87,4,25000,14.816,,,80,,,,,,,,,,,wg-a,,,,AAXX 20004 07661 12/75 30808 10060 20040 39974 40141 57009 60006 83050 90000=
07661,1996-01-20 06:00:00,7,1012,-0.9,93,6,15000,18.52,,,70,5.3,8.6,,,,,,,,,wg-a,,,,AAXX 20064 07661 12565 80710 10070 20060 39955 40120 55009 60006 858// 90600 333 10086 20053=
07661,1996-01-20 12:00:00,11,1011.4,-0.9,87,9,15000,29.632,,,60,,,,,,,,,,2,wg-a,,,,AAXX 20124 07661 02/65 70616 10110 20090 39951 40114 58009 61000 70262 8707/ 91200 333 6100=
07661,1996-01-20 18:00:00,9,1012,1,100,9,8000,25.928,,,60,6.8,11,,7,,,,,,63,wg-a,,,,AAXX 20184 07661 12458 80614 10090 20090 39956 40120 53010 60077 76362 8472/ 91800 333 10110 20068=
07661,1996-01-21 00:00:00,10,1013.5,0.4,100,10,8000,38.892,,64.82,80,,,,1,,,,,,60,wg-a,,,,AAXX 21004 07661 02458 80821 10100 20100 39971 40135 53004 60046 76066 8472/ 90000 333 60017 91035=
07661,1996-01-21 06:00:00,10,1013.7,0.2,100,10,10000,42.596,,75.932,80,8.7,10.4,,,,,,,,60,wg-a,,,,AAXX 21064 07661 02560 80823 10100 20100 39973 40137 53002 61000 76062 8472/ 90600 333 10104 20087 //// 91041=
07661,1996-01-21 12:00:00,9,1015.4,0.6,100,9,6000,42.596,,79.636,60,,,,3,,,,,,63,wg-a,,,,AAXX 21124 07661 02456 80623 10090 20090 39989 40154 50006 60056 76362 8672/ 91200 333 60037 91043=
07661,1996-01-21 18:00:00,10,1015.4,0.7,93,9,8000,42.596,,68.524,60,9,10.3,,,,,,,,63,wg-a,,,,AAXX 21184 07661 02458 80623 10100 20090 39990 40154 53007 61000 76362 887// 91800 333 10103 20090 //// 91037=
07661,1996-01-22 00:00:00,9,1015.3,-0.1,100,9,8000,35.188,,68.524,60,,,,2,,,,,,60,wg-a,,,,AAXX 22004 07661 02458 80619 10090 20090 39988 40153 58001 60026 76062 887// 90000 333 60027 91037=
07661,1996-01-22 06:00:00,11,1013,-1.5,87,9,8000,50.004,,87.044,70,8.8,10.8,,,,,,,,2,wg-a,,,,AAXX 22064 07661 32558 80727 10110 20090 39967 40130 56015 70262 887// 90600 333 10108 20088 91047=
07661,1996-01-22 12:00:00,11,1012.7,-1.2,87,9,12000,53.708,,,70,,,,,,,,,,,wg-a,,,,AAXX 22124 07661 32562 80729 10110 20090 39964 40127 58012 858// 91200=
07661,1996-01-22 18:00:00,11,1011.6,-0.4,87,9,10000,50.004,,83.34,70,8.8,,,,,,,,,21,wg-a,,,,AAXX 22184 07661 02560 80727 10110 20090 39953 40116 56004 61000 72162 858// 91800 333 20088 //// 91045=
07661,1996-01-23 00:00:00,11,1010.5,-0.7,87,9,10000,50.004,,90.748,70,,,,,,,,,,2,wg-a,,,,AAXX 23004 07661 12560 80727 10110 20090 39942 40105 58007 60006 70262 858// 90000 333 91049=
07661,1996-01-23 06:00:00,11,1009.1,-0.4,94,10,10000,53.708,,83.34,70,8.8,11.6,,,,,,,,21,wg-a,,,,AAXX 23064 07661 02560 80729 10110 20100 39929 40091 55004 61000 72162 858// 90600 333 10116 20088 //// 91045=
07661,1996-01-23 12:00:00,11,1007.5,-1.9,94,10,8000,53.708,,87.044,60,,,,3,,,,,,21,wg-a,,,,AAXX 23124 07661 02458 80629 10110 20100 39913 40075 58019 60056 72162 8/72/ 91200 333 60037 91047=
07661,1996-01-23 18:00:00,11,1006,0.1,100,11,8000,57.412,,87.044,70,,11.3,,2,,,,,,63,wg-a,,,,AAXX 23184 07661 12458 80731 10110 20110 39898 40060 53001 60027 76362 8472/ 91800 333 10113 91047=
07661,1996-01-24 06:00:00,10,1004.8,-0,100,10,8000,11.112,,,80,,10.8,,10,,,,,,60,wg-a,,,,AAXX 24064 07661 12458 80806 10100 20100 39886 40048 55000 60107 76062 8472/ 90600 333 10108=
07661,1996-01-24 12:00:00,11,1003.7,-1.5,100,11,15000,35.188,,,60,,,,,,,,,,3,wg-a,,,,AAXX 24124 07661 02565 70619 10110 20110 39876 40037 58015 60046 70362 8572/ 91200 333 61000=
07661,1996-01-24 18:00:00,10,1002.3,-0.3,100,10,6000,50.004,,72.228,70,,11.5,,3,,,,,,62,wg-a,,,,AAXX 24184 07661 12456 80727 10100 20100 39861 40023 56003 60037 76262 887// 91800 333 10115 91039=
07661,1996-01-25 00:00:00,10,1002.4,-0.8,100,10,6000,42.596,,72.228,60,,,,2,,,,,,62,wg-a,,,,AAXX 25004 07661 02456 80623 10100 20100 39862 40024 58008 60076 76262 887// 90000 333 60027 91039=
07661,1996-01-25 06:00:00,9,1001.8,-0.3,100,9,20000,31.484,,61.116,60,,10.6,,,,,,,,3,wg-a,,,,AAXX 25064 07661 32670 20617 10090 20090 39855 40018 56003 70361 82100 90600 333 10106 91033=
07661,1996-01-25 12:00:00,11,1003.4,0.3,94,10,10000,3.704,,,80,,,,5,,,,,,17,wg-a,,,,AAXX 25124 07661 02460 70802 10110 20100 39872 40034 50003 60066 71796 8696/ 91200 333 60057=
07661,1996-01-25 18:00:00,9,1004.6,1.3,100,9,10000,25.928,,,80,,12.6,,0,,,,,,61,wg-a,,,,AAXX 25184 07661 12460 70814 10090 20090 39883 40046 53013 60007 76162 8696/ 91800 333 10126=
07661,1996-01-26 00:00:00,8,1006.7,0.1,100,8,10000,25.928,,,60,,,,,,,,,,,wg-a,,,,AAXX 26004 07661 02460 40614 10080 20080 39903 40067 50001 60046 8267/ 90000 333 61000=
07661,1996-01-26 06:00:00,7,1007.6,0.6,93,6,20000,11.112,,,70,,9.2,,,,,,,,,wg-a,,,,AAXX 26064 07661 32570 30706 10070 20060 39911 40076 53006 8226/ 90600 333 10092=
07661,1996-01-26 12:00:00,11,1009,0.2,82,8,50000,11.112,,,210,,,,,,,,,,,wg-a,,,,AAXX 26124 07661 12584 62106 10110 20080 39928 40090 50002 60006 82241 91200=
07661,1996-01-26 18:00:00,10,1009.8,1.1,82,7,35000,11.112,,,290,,12.2,,,,,,,,,wg-a,,,,AAXX 26184 07661 12581 32906 10100 20070 39934 40098 53011 60006 82230 91800 333 10122=
07661,1996-01-27 00:00:00,9,1011.5,0.3,76,5,500,11.112,,,330,,,,,,,,,,,wg-a,,,,AAXX 27004 07661 12/00 03306 10090 20050 39951 40115 50003 60006 80000 90000=
07661,1996-01-27 06:00:00,7,1012.2,0.4,87,5,500,14.816,,,80,6.6,9.7,,,,,,,,,wg-a,,,,AAXX 27064 07661 12500 30808 10070 20050 39956 40122 53004 60006 81230 90600 333 10097 20066=
07661,1996-01-27 12:00:00,11,1013.5,-0.1,87,9,20000,18.52,,,60,,,,,,,,,,,wg-a,,,,AAXX 27124 07661 12570 70610 10110 20090 39971 40135 58001 60006 878// 91200=
07661,1996-01-27 18:00:00,9,1013.9,1,93,8,25000,25.928,,,60,6.3,11.2,,,,,,,,,wg-a,,,,AAXX 27184 07661 12575 30614 10090 20080 39975 40139 52010 60006 83230 91800 333 10112 20063=
07661,1996-01-28 00:00:00,9,1014.1,-0.3,100,9,15000,29.632,,,60,,,,,,,,,,,wg-a,,,,AAXX 28004 07661 12865 40616 10090 20090 39977 40141 58003 60006 84070 90000=
07661,1996-01-28 06:00:00,9,1012.8,-0.7,100,9,500,31.484,,,60,9,9.9,,3,,,,,,63,wg-a,,,,AAXX 28064 07661 12400 80617 10090 20090 39964 40128 55007 60037 76366 8272/ 90600 333 10099 20090=
07661,1996-01-28 12:00:00,10,1011.2,-1.2,100,10,10000,46.3,,,60,,,,0,,,,,,60,wg-a,,,,AAXX 28124 07661 02160 80625 10100 20100 39949 40112 58012 60016 76062 887// 91200 333 60007=
07661,1996-01-28 18:00:00,9,1009.6,-0.1,100,9,10000,46.3,,90.748,60,9.2,10.6,,1,,,,,,60,wg-a,,,,AAXX 28184 07661 12460 80625 10090 20090 39932 40096 58001 60017 76066 887// 91800 333 10106 20092 91049=
07661,1996-01-29 00:00:00,9,1009.8,0.1,100,9,10000,38.892,,72.228,60,,,,1,,,,,,60,wg-a,,,,AAXX 29004 07661 02460 80621 10090 20090 39934 40098 50001 60046 76066 887// 90000 333 60017 91039=
07661,1996-01-29 06:00:00,10,1009.2,0.2,82,7,10000,50.004,,,60,8.3,9.8,,0,,,,,,60,wg-a,,,,AAXX 29064 07661 12460 80627 10100 20070 39929 40092 53002 60007 76062 888// 90600 333 10098 20083=
07661,1996-01-29 12:00:00,12,1009.3,-1.2,71,7,15000,50.004,,87.044,70,,,,,,,,,,1,wg-a,,,,AAXX 29124 07661 02/65 60727 10120 20070 39931 40093 58012 60006 70162 86070 91200 333 61000 91047=
07661,1996-01-29 18:00:00,12,1009.9,0.8,67,6,18000,42.596,,79.636,60,9.9,11.8,,,,,,,,,wg-a,,,,AAXX 29184 07661 32668 70623 10120 20060 39936 40099 51008 8387/ 91800 333 10118 20099 91043=
07661,1996-01-30 00:00:00,12,1010.7,0.2,67,6,18000,46.3,,79.636,70,,,,,,,,,,,wg-a,,,,AAXX 30004 07661 12668 70725 10120 20060 39945 40107 53002 60006 8387/ 90000 333 91043=
07661,1996-01-30 06:00:00,11,1011.4,0.3,66,5,18000,31.484,,,60,11.1,12.3,,,,,,,,,wg-a,,,,AAXX 30064 07661 12/68 30617 10110 20050 39951 40114 53003 60006 83070 90600 333 10123 20111=
07661,1996-01-30 18:00:00,12,1014.4,1.4,76,8,14000,3.704,,,320,9.8,14.1,,,,,,,,,wg-a,,,,AAXX 30184 07661 12564 73202 10120 20080 39981 40144 53014 60006 875// 91800 333 10141 20098=
07661,1996-01-31 06:00:00,9,1016,0.3,57,1,15000,42.596,,68.524,80,8.9,12,,,,,,,,,wg-a,,,,AAXX 31064 07661 12665 80823 10090 20010 39995 40160 52003 60006 885// 90600 333 10120 20089 91037=
07661,1996-01-31 12:00:00,8,1016.8,-0.4,66,2,10000,57.412,,,70,,,,,,,,,,3,wg-a,,,,AAXX 31124 07661 02660 80731 10080 20020 30002 40168 58004 61000 70362 885// 91200 333 ////=
07661,1996-01-31 18:00:00,7,1018.6,0.8,57,-1,10000,46.3,,90.748,70,5.3,9.2,,0,,,,,,2,wg-a,,,,AAXX 31184 07661 12460 80725 10070 21010 30019 40186 53008 60007 70262 888// 91800 333 10092 20053 91049=
07661,1996-02-01 00:00:00,5,1018.5,-0.4,60,-2,15000,38.892,,72.228,60,,,,,,,,,,,wg-a,,,,AAXX 01004 07661 12665 20621 10050 21020 30017 40185 58004 60006 82501 90000 333 91039=
07661,1996-02-01 06:00:00,8,1017.1,-0.5,71,3,12000,50.004,,75.932,70,4.8,8.5,,,,,,,,,wg-a,,,,AAXX 01064 07661 12/62 50727 10080 20030 30005 40171 56005 60006 85031 90600 333 10085 20048 91041=
07661,1996-02-01 12:00:00,7,1016.5,-0.7,100,7,8000,50.004,,96.304,60,,,,2,,,,,,63,wg-a,,,,AAXX 01124 07661 02558 80627 10070 20070 39999 40165 58007 60026 76362 885// 91200 333 60027 91052=
07661,1996-02-01 18:00:00,9,1014.3,-0.6,81,6,12000,61.116,,87.044,60,6.3,9,,,,,,,,1,wg-a,,,,AAXX 01184 07661 32562 80633 10090 20060 39978 40143 56006 70162 8387/ 91800 333 10090 20063 91047=
07661,1996-02-02 00:00:00,8,1010.6,-2.4,93,7,8000,64.82,,94.452,60,,,,0,,,,,,63,wg-a,,,,AAXX 02004 07661 02558 80635 10080 20070 39941 40106 58024 60016 76362 888// 90000 333 60007 91051=
07661,1996-02-02 06:00:00,9,1008.8,-0,93,8,12000,53.708,,94.452,60,7.8,8.9,,0,,,,,,60,wg-a,,,,AAXX 02064 07661 12562 80629 10090 20080 39924 40088 55000 60007 76062 8472/ 90600 333 10089 20078 91051=
07661,1996-02-02 12:00:00,9,1008.6,-0.6,100,9,6000,35.188,,75.932,60,,,,5,,,,,,62,wg-a,,,,AAXX 02124 07661 02556 80619 10090 20090 39922 40086 58006 60056 76266 8772/ 91200 333 60057 91041=
07661,1996-02-02 18:00:00,9,1009,0.9,100,9,0,29.632,,,60,8.4,9.3,,,,,,,,,wg-a,,,,AAXX 02184 07661 32/// /0616 10090 20090 39926 40090 53009 91800 333 10093 20084=
07661,1996-02-03 00:00:00,9,1010.8,0.8,93,8,10000,11.112,,,60,,,,,,,,,,21,wg-a,,,,AAXX 03004 07661 02560 80606 10090 20080 39944 40108 53008 61000 72166 887// 90000 333 6100=
07661,1996-02-03 06:00:00,8,1010.2,-0.2,100,8,10000,25.928,,,290,8.3,8.9,,,,,,,,1,wg-a,,,,AAXX 03064 07661 02660 22914 10080 20080 39938 40102 55002 61000 70161 82100 90600 333 10089 20083 ////=
07661,1996-02-03 12:00:00,11,1010.4,-0.4,87,9,15000,31.484,,,290,,,,,,,,,,,wg-a,,,,AAXX 03124 07661 12/65 02917 10110 20090 39941 40104 58004 60006 80000 91200=
07661,1996-02-03 18:00:00,10,1009.1,0.5,93,9,20000,31.484,,53.708,280,8,12.2,,,,,,,,,wg-a,,,,AAXX 03184 07661 12/70 12817 10100 20090 39928 40091 50005 60006 81030 91800 333 10122 20080 91029=
07661,1996-02-04 00:00:00,9,1008.5,-1.3,81,6,20000,25.928,,,300,,,,,,,,,,,wg-a,,,,AAXX 04004 07661 12/70 03014 10090 20060 39921 40085 58013 60006 80000 90000=
07661,1996-02-04 06:00:00,8,1006.6,-0.2,87,6,20000,25.928,,,290,8.1,10.4,,,,,,,,,wg-a,,,,AAXX 04064 07661 12/70 02914 10080 20060 39902 40066 56002 60006 80000 90600 333 10104 20081=
07661,1996-02-04 12:00:00,9,1004.6,-1.9,66,3,20000,35.188,,57.412,280,,,,,,,,,,,wg-a,,,,AAXX 04124 07661 12/70 02819 10090 20030 39883 40046 58019 60006 80000 91200 333 91031=
07661,1996-02-04 18:00:00,7,1005,1.3,49,-3,25000,50.004,,79.636,310,7.1,10.6,,,,,,,,,wg-a,,,,AAXX 04184 07661 12/75 03127 10070 21030 39886 40050 53013 60006 80000 91800 333 10106 20071 91043=
07661,1996-02-05 00:00:00,2,1004.9,-0.6,55,-6,20000,61.116,,87.044,300,,,,,,,,,,,wg-a,,,,AAXX 05004 07661 12/70 03033 10020 21060 39882 40049 58006 60006 80000 90000 333 91047=
07661,1996-02-05 06:00:00,1,1002.5,-0.9,59,-6,20000,46.3,,75.932,300,0.7,7.3,,,,,,,,,wg-a,,,,AAXX 05064 07661 32/70 03025 10010 21060 39857 40025 56009 80000 90600 333 10073 20007 91041=
07661,1996-02-05 12:00:00,6,1003.4,0.5,56,-2,10000,14.816,,,290,,,,,,,,,,,wg-a,,,,AAXX 05124 07661 12560 52908 10060 21020 39869 40034 51005 60006 85260 91200=
07661,1996-02-05 18:00:00,4,1003.2,0.6,65,-2,10000,14.816,,,290,0.9,7,,,,,,,,,wg-a,,,,AAXX 05184 07661 12/60 02908 10040 21020 39866 40032 53006 60006 80000 91800 333 10070 20009=
07661,1996-02-06 00:00:00,3,1001.1,-1.6,81,0,10000,11.112,,,360,,,,,,,,,,,wg-a,,,,AAXX 06004 07661 12/60 03606 10030 20000 39845 40011 56016 60006 80000 90000=
07661,1996-02-06 06:00:00,4,997.6,-1.7,87,2,10000,22.224,,,60,1.9,4.3,,,,,,,,,wg-a,,,,AAXX 06064 07661 12660 50612 10040 20020 39811 49976 58017 60006 85800 90600 333 10043 20019=
07661,1996-02-06 12:00:00,5,994.5,-1.1,100,5,500,35.188,,,50,,,,1,,,,,,61,wg-a,,,,AAXX 06124 07661 02400 80519 10050 20050 39781 49945 56011 60016 76162 85805 91200 333 60017=
07661,1996-02-06 18:00:00,4,996.7,2,100,4,500,25.928,,,50,3.8,6,,1,,,,,,61,wg-a,,,,AAXX 06184 07661 12400 80514 10040 20040 39802 49967 53020 60017 76166 888// 91800 333 10060 20038=
07661,1996-02-07 00:00:00,4,1000.8,1.8,100,4,500,11.112,,,340,,,,2,,,,,,60,wg-a,,,,AAXX 07004 07661 02400 83406 10040 20040 39842 40008 51018 60026 76062 888// 90000 333 60027=
07661,1996-02-07 06:00:00,5,1000.2,-0.2,65,-1,25000,50.004,,68.524,300,3.1,5.1,,,,,,,,3,wg-a,,,,AAXX 07064 07661 32875 23027 10050 21010 39837 40002 56002 70361 82040 90600 333 10051 20031 91037=
07661,1996-02-07 12:00:00,7,1000,-0.4,57,-1,25000,29.632,,,300,,,,,,,,,,,wg-a,,,,AAXX 07124 07661 12675 63016 10070 21010 39836 40000 58004 60006 81240 91200=
07661,1996-02-07 18:00:00,4,997.6,-0.6,81,1,25000,11.112,,,20,3.5,7.7,,0,,,,,,,wg-a,,,,AAXX 07184 07661 12575 80206 10040 20010 39811 49976 56006 60007 84810 91800 333 10077 20035=
07661,1996-02-08 00:00:00,5,994.4,-1.8,93,4,10000,22.224,,,310,,,,0,,,,,,,wg-a,,,,AAXX 08004 07661 02560 83112 10050 20040 39780 49944 58018 60016 8272/ 90000 333 60007=
07661,1996-02-08 06:00:00,6,996.5,3.7,81,3,10000,22.224,,,310,3.6,5.7,,,,,,,,1,wg-a,,,,AAXX 08064 07661 02460 83112 10060 20030 39801 49965 53037 61000 70162 8482/ 90600 333 10057 20036 ////=
07661,1996-02-08 12:00:00,8,1001.8,2.3,42,-4,25000,50.004,,83.34,290,,,,,,,,,,,wg-a,,,,AAXX 08124 07661 12675 32927 10080 21040 39854 40018 51023 60006 82108 91200 333 91045=
07661,1996-02-08 18:00:00,5,1002.6,-0.2,52,-4,20000,96.304,,140.752,320,5,8.2,,0,,,,,,,wg-a,,,,AAXX 08184 07661 12/70 03252 10050 21040 39861 40026 58002 60007 80000 91800 333 10082 20050 91076=
07661,1996-02-09 00:00:00,5,1010.4,1.6,35,-9,25000,42.596,,144.456,320,,,,,,,,,,,wg-a,,,,AAXX 09004 07661 12/75 03223 10050 21090 39937 40104 51016 60006 80000 90000 333 91078=
07661,1996-02-09 06:00:00,4,1013.4,3,38,-9,28000,7.408,,79.636,250,3.4,5.4,,,,,,,,,wg-a,,,,AAXX 09064 07661 12/78 02504 10040 21090 39966 40134 51030 60006 80000 90600 333 10054 20034 91043=
07661,1996-02-09 12:00:00,10,1015.4,0.3,57,2,35000,14.816,,,90,,,,,,,,,,,wg-a,,,,AAXX 09124 07661 12/81 20908 10100 20020 39989 40154 53003 60006 80001 91200=
07661,1996-02-09 18:00:00,9,1016,0.5,76,5,500,11.112,,,110,3.4,10.7,,,,,,,,,wg-a,,,,AAXX 09184 07661 12500 51106 10090 20050 39995 40160 53005 60006 83202 91800 333 10107 20034=
07661,1996-02-10 00:00:00,5,1016.8,0.4,100,5,15000,14.816,,,80,,,,,,,,,,,wg-a,,,,AAXX 10004 07661 12/65 00808 10050 20050 30001 40168 50004 60006 80000 90000=
07661,1996-02-10 06:00:00,5,1016.5,0.2,93,4,15000,7.408,,,60,4.6,8.7,,,,,,,,,wg-a,,,,AAXX 10064 07661 12/65 20604 10050 20040 39998 40165 53002 60006 80005 90600 333 10087 20046=
07661,1996-02-10 12:00:00,11,1016.8,-0.8,58,3,15000,14.816,,,300,,,,,,,,,,,wg-a,,,,AAXX 10124 07661 12/65 33008 10110 20030 30004 40168 58008 60006 80005 91200=
07661,1996-02-10 18:00:00,9,1016.6,1,66,3,15000,31.484,,,300,5,11.7,,,,,,,,,wg-a,,,,AAXX 10184 07661 12/65 33017 10090 20030 30001 40166 53010 60006 83040 91800 333 10117 20050=
07661,1996-02-11 00:00:00,8,1017.8,0.1,66,2,10000,29.632,,,300,,,,,,,,,,,wg-a,,,,AAXX 11004 07661 12/60 03016 10080 20020 30012 40178 53001 60006 80000 90000=
07661,1996-02-11 06:00:00,7,1017.3,0.4,76,3,15000,29.632,,,300,6.9,9.4,,,,,,,,,wg-a,,,,AAXX 11064 07661 12/65 33016 10070 20030 30007 40173 53004 60006 83040 90600 333 10094 20069=
07661,1996-02-11 12:00:00,11,1017.3,-0.8,58,3,25000,35.188,,,280,,,,,,,,,,,wg-a,,,,AAXX 11124 07661 12675 32819 10110 20030 30009 40173 58008 60006 81101 91200=
07661,1996-02-11 18:00:00,10,1018,1.4,66,4,500,35.188,,64.82,300,6.7,11.2,,,,,,,,,wg-a,,,,AAXX 11184 07661 12/00 03019 10100 20040 30015 40180 53014 60006 80000 91800 333 10112 20067 91035=
07661,1996-02-12 00:00:00,7,1018.7,-0.4,70,2,0,31.484,,,300,,,,,,,,,,,wg-a,,,,AAXX 12004 07661 12/// /3017 10070 20020 30020 40187 56004 60006 90000=
07661,1996-02-12 06:00:00,6,1017.8,0.4,70,1,25000,29.632,,,300,6.3,9.6,,,,,,,,,wg-a,,,,AAXX 12064 07661 12/75 03016 10060 20010 30011 40178 53004 60006 80000 90600 333 10096 20063=
07661,1996-02-12 12:00:00,10,1016.4,-1.4,71,5,50000,35.188,,,290,,,,,,,,,,,wg-a,,,,AAXX 12124 07661 12/84 22919 10100 20050 30000 40164 58014 60006 82070 91200=
07661,1996-02-12 18:00:00,11,1010.7,-2.5,76,7,50000,31.484,,,230,6.4,11.7,,,,,,,,,wg-a,,,,AAXX 12184 07661 12584 62317 10110 20070 39944 40107 58025 60006 86270 91800 333 10117 20064=
07661,1996-02-13 00:00:00,12,1005.9,-1,67,6,10000,46.3,,94.452,290,,,,1,,,,,,,wg-a,,,,AAXX 13004 07661 02560 22925 10120 20060 39897 40059 55010 60026 82200 90000 333 60017 91051=
07661,1996-02-13 06:00:00,9,1004.8,-1,66,3,20000,53.708,,87.044,290,8,12.4,,,,,,,,,wg-a,,,,AAXX 13064 07661 32570 22929 10090 20030 39885 40048 55010 82200 90600 333 10124 20080 91047=
07661,1996-02-13 12:00:00,11,1005.3,-1,58,3,500,57.412,,87.044,290,,,,,,,,,,,wg-a,,,,AAXX 13124 07661 12800 52931 10110 20030 39891 40053 58010 60006 84041 91200 333 91047=
07661,1996-02-13 18:00:00,10,1006.5,1.5,37,-4,25000,53.708,,87.044,310,8.9,12,,,,,,,,,wg-a,,,,AAXX 13184 07661 12675 43129 10100 21040 39902 40065 53015 60006 82230 91800 333 10120 20089 91047=
07661,1996-02-14 00:00:00,7,1006.6,-0.5,49,-3,15000,50.004,,83.34,300,,,,,,,,,,,wg-a,,,,AAXX 14004 07661 12/65 03027 10070 21030 39901 40066 56005 60006 80000 90000 333 91045=
07661,1996-02-14 06:00:00,5,1007.4,0.7,56,-3,20000,31.484,,,310,5.1,9.8,,,,,,,,,wg-a,,,,AAXX 14064 07661 12/70 23117 10050 21030 39908 40074 53007 60006 82030 90600 333 10098 20051=
07661,1996-02-14 12:00:00,10,1010.5,1.3,46,-1,20000,7.408,,,320,,,,,,,,,,,wg-a,,,,AAXX 14124 07661 12570 13204 10100 21010 39941 40105 51013 60006 81100 91200=
07661,1996-02-14 18:00:00,9,1014.7,2.8,53,0,20000,7.408,,,120,4.5,13.5,,,,,,,,,wg-a,,,,AAXX 14184 07661 12670 61204 10090 20000 39982 40147 53028 60006 86800 91800 333 10135 20045=
07661,1996-02-15 00:00:00,6,1018.9,1.8,65,0,20000,18.52,,,60,,,,,,,,,,,wg-a,,,,AAXX 15004 07661 12570 50610 10060 20000 30022 40189 53018 60006 8117/ 90000=
07661,1996-02-15 06:00:00,5,1021.5,1.2,56,-3,28000,3.704,,,70,5.3,9.5,,,,,,,,,wg-a,,,,AAXX 15064 07661 12/78 00702 10050 21030 30047 40215 53012 60006 80000 90600 333 10095 20053=
07661,1996-02-15 12:00:00,11,1023.5,0.1,25,-8,500,11.112,,,150,,,,,,,,,,,wg-a,,,,AAXX 15124 07661 12/00 01506 10110 21080 30069 40235 50001 60006 80000 91200=
07661,1996-02-15 18:00:00,8,1023.9,0.6,53,-1,500,14.816,,,300,4.8,12.1,,,,,,,,,wg-a,,,,AAXX 15184 07661 12/00 03008 10080 21010 30072 40239 53006 60006 80000 91800 333 10121 20048=
07661,1996-02-16 00:00:00,7,1024.4,-0.2,57,-1,500,14.816,,,340,,,,,,,,,,,wg-a,,,,AAXX 16004 07661 12/00 03408 10070 21010 30076 40244 58002 60006 80000 90000=
07661,1996-02-16 06:00:00,5,1022.2,-0.9,70,0,25000,7.408,,,330,4.5,8.2,,,,,,,,,wg-a,,,,AAXX 16064 07661 12/75 03304 10050 20000 30054 40222 56009 60006 80000 90600 333 10082 20045=
07661,1996-02-16 12:00:00,9,1021,-1,53,0,22000,3.704,,,190,,,,,,,,,,,wg-a,,,,AAXX 16124 07661 12/72 01902 10090 20000 30044 40210 58010 60006 80000 91200=
07661,1996-02-16 18:00:00,10,1019.4,-0,21,-11,15000,11.112,,,280,4.2,11.7,,,,,,,,,wg-a,,,,AAXX 16184 07661 12/65 02806 10100 21110 30029 40194 55000 60006 80000 91800 333 10117 20042=
07661,1996-02-17 00:00:00,8,1018.8,-0.3,42,-4,15000,3.704,,,50,,,,,,,,,,,wg-a,,,,AAXX 17004 07661 12/65 00502 10080 21040 30021 40188 58003 60006 80000 90000=
07661,1996-02-17 06:00:00,6,1016.1,-0.9,61,-1,20000,18.52,,,300,4.9,10.3,,,,,,,,,wg-a,,,,AAXX 17064 07661 12/70 03010 10060 21010 39994 40161 58009 60006 80000 90600 333 10103 20049=
07661,1996-02-17 12:00:00,13,1012.2,-2.4,44,1,500,75.932,,96.304,290,,,,,,,,,,,wg-a,,,,AAXX 17124 07661 12/00 02941 10130 20010 39959 40122 58024 60006 80000 91200 333 91052=
07661,1996-02-17 18:00:00,10,1015.3,1.2,43,-2,25000,46.3,,103.712,300,6,13.5,,,,,,,,,wg-a,,,,AAXX 17184 07661 12/75 03025 10100 21020 39988 40153 53012 60006 80000 91800 333 10135 20060 91056=
07661,1996-02-18 00:00:00,7,1019.7,2.1,49,-3,15000,22.224,,94.452,290,,,,,,,,,,,wg-a,,,,AAXX 18004 07661 12/65 02912 10070 21030 30030 40197 53021 60006 80000 90000 333 91051=
07661,1996-02-18 06:00:00,7,1017.4,-1.5,57,-1,500,38.892,,,310,6.3,10,,,,,,,,,wg-a,,,,AAXX 18064 07661 12/00 03121 10070 21010 30007 40174 58015 60006 80000 90600 333 10100 20063=
07661,1996-02-18 12:00:00,10,1014.2,-2.1,53,1,25000,53.708,,79.636,290,,,,,,,,,,,wg-a,,,,AAXX 18124 07661 12/75 32929 10100 20010 39978 40142 58021 60006 80008 91200 333 91043=
07661,1996-02-18 18:00:00,9,1011.1,-1.3,81,6,15000,25.928,,83.34,270,6.8,10.9,,,,,,,,,wg-a,,,,AAXX 18184 07661 12565 62714 10090 20060 39947 40111 56013 60006 84298 91800 333 10109 20068 91045=
07661,1996-02-19 00:00:00,10,1004.5,-4.1,93,9,15000,18.52,,,280,,,,,,,,,,,wg-a,,,,AAXX 19004 07661 12565 62810 10100 20090 39883 40045 56041 60006 84230 90000=
07661,1996-02-19 06:00:00,7,1000.2,-1.6,100,7,15000,22.224,,61.116,290,7.2,10.5,,2,,,,,,61,wg-a,,,,AAXX 19064 07661 12565 72912 10070 20070 39839 40002 58016 60027 76162 8277/ 90600 333 10105 20072 91033=
07661,1996-02-19 12:00:00,9,998.9,-0.9,57,1,20000,35.188,,,280,,,,,,,,,,,wg-a,,,,AAXX 19124 07661 02570 62819 10090 20010 39827 49989 58009 61000 8317/ 91200 333 ////=
07661,1996-02-19 18:00:00,8,997.7,0.7,71,3,22000,31.484,,75.932,300,6.6,10.4,,,,,,,,,wg-a,,,,AAXX 19184 07661 32572 43017 10080 20030 39815 49977 53007 81140 91800 333 10104 20066 91041=
07661,1996-02-20 00:00:00,6,998.2,-0.2,81,3,15000,29.632,,,290,,,,0,,,,,,21,wg-a,,,,AAXX 20004 07661 02/65 02916 10060 20030 39818 49982 57002 60006 72160 80000 90000 333 60007=
07661,1996-02-20 06:00:00,2,998.6,0.4,64,-4,20000,38.892,,68.524,310,1.7,8.4,,,,,,,,,wg-a,,,,AAXX 20064 07661 32570 53121 10020 21040 39819 49986 53004 81170 90600 333 10084 20017 91037=
07661,1996-02-20 12:00:00,6,999.5,0.1,45,-5,20000,38.892,,,300,,,,,,,,,,,wg-a,,,,AAXX 20124 07661 12870 53021 10060 21050 39831 49995 50001 60006 85070 91200=
07661,1996-02-20 18:00:00,3,1003.2,2.4,41,-9,20000,42.596,,72.228,310,1.4,7.8,,,,,,,,,wg-a,,,,AAXX 20184 07661 12870 53123 10030 21090 39865 40032 51024 60006 85070 91800 333 10078 20014 91039=
07661,1996-02-21 00:00:00,0,1004.3,0,59,-7,20000,38.892,,,300,,,,,,,,,,,wg-a,,,,AAXX 21004 07661 12/70 03021 10000 21070 39874 40043 50000 60006 80000 90000=
07661,1996-02-21 06:00:00,-2,1002.5,-0.4,86,-4,20000,35.188,,,300,-1.5,2.6,,,,,,,,,wg-a,,,,AAXX 21064 07661 12/70 43019 11020 21040 39856 40025 58004 60006 84070 90600 333 10026 21015=
07661,1996-02-21 12:00:00,3,1003.3,0.2,65,-3,20000,29.632,,,290,,,,,,,,,,,wg-a,,,,AAXX 21124 07661 12/70 42916 10030 21030 39866 40033 50002 60006 83078 91200=
07661,1996-02-21 18:00:00,4,1005,1.7,65,-2,0,18.52,,,60,-1.9,7,,,,,,,,,wg-a,,,,AAXX 21184 07661 12/// /0610 10040 21020 39884 40050 53017 60006 91800 333 10070 21019=
07661,1996-02-22 00:00:00,3,1008.4,1.2,60,-4,20000,7.408,,,290,,,,,,,,,,,wg-a,,,,AAXX 22004 07661 12/70 12904 10030 21040 39917 40084 51012 60006 81040 90000=
07661,1996-02-22 06:00:00,1,1008.9,0.5,69,-4,20000,22.224,,,270,1.1,4.2,,,,,,,,,wg-a,,,,AAXX 22064 07661 12/70 02712 10010 21040 39920 40089 53005 60006 80000 90600 333 10042 20011=
07661,1996-02-22 12:00:00,7,1010.5,0.3,42,-5,20000,11.112,,,300,,,,,,,,,,,wg-a,,,,AAXX 22124 07661 12/70 03006 10070 21050 39939 40105 50003 60006 80000 91200=
07661,1996-02-23 00:00:00,0,1013.5,0.8,43,-11,15000,22.224,,,290,,,,,,,,,,,wg-a,,,,AAXX 23004 07661 12/65 02912 10000 21110 39965 40135 51008 60006 80000 90000=
07661,1996-02-23 06:00:00,2,1013.4,0.3,29,-14,18000,14.816,,,270,-0.3,2.5,,,,,,,,,wg-a,,,,AAXX 23064 07661 12/68 12708 10020 21140 39965 40134 53003 60006 81040 90600 333 10025 21003=
07661,1996-02-23 12:00:00,8,1012.1,-1.4,34,-7,35000,50.004,,,300,,,,,,,,,,,wg-a,,,,AAXX 23124 07661 12/81 03027 10080 21070 39955 40121 58014 60006 80000 91200=
07661,1996-02-23 18:00:00,8,1012.8,1.7,42,-4,25000,35.188,,,300,1.7,9.9,,,,,,,,,wg-a,,,,AAXX 23184 07661 12/75 03019 10080 21040 39962 40128 51017 60006 80000 91800 333 10099 20017=
07661,1996-02-24 00:00:00,5,1014.2,0.9,52,-4,25000,25.928,,,300,,,,,,,,,,,wg-a,,,,AAXX 24004 07661 12/75 03014 10050 21040 39974 40142 53009 60006 80000 90000=
07661,1996-02-24 06:00:00,3,1015.9,0.9,65,-3,500,7.408,,,310,2.5,7.5,,,,,,,,,wg-a,,,,AAXX 24064 07661 12/00 03104 10030 21030 39990 40159 53009 60006 80000 90600 333 10075 20025=
07661,1996-02-24 12:00:00,9,1016.7,0.1,61,2,0,14.816,,,90,,,,,,,,,,,wg-a,,,,AAXX 24124 07661 12/// /0908 10090 20020 30002 40167 50001 60006 91200=
07661,1996-02-24 18:00:00,8,1016.9,0.5,76,4,15000,18.52,,,80,2.6,9.8,,,,,,,,,wg-a,,,,AAXX 24184 07661 12665 20810 10080 20040 30003 40169 53005 60006 82200 91800 333 10098 20026=
07661,1996-02-25 00:00:00,6,1018.5,0.4,87,4,20000,11.112,,,70,,,,,,,,,,,wg-a,,,,AAXX 25004 07661 12870 10706 10060 20040 30018 40185 51004 60006 81080 90000=
07661,1996-02-25 06:00:00,4,1018.5,0.2,100,4,15000,22.224,,,80,3.6,8.2,,,,,,,,,wg-a,,,,AAXX 25064 07661 12865 60812 10040 20040 30017 40185 53002 60006 86070 90600 333 10082 20036=
07661,1996-02-25 12:00:00,8,1019.3,-0.2,87,6,15000,25.928,,,60,,,,0,,,,,,2,wg-a,,,,AAXX 25124 07661 02865 80614 10080 20060 30027 40193 58002 60016 70262 88050 91200 333 60007=
07661,1996-02-25 18:00:00,8,1019.1,0.7,87,6,15000,29.632,,,60,4.3,9.2,,,,,,,,2,wg-a,,,,AAXX 25184 07661 32865 70616 10080 20060 30025 40191 53007 70262 8705/ 91800 333 10092 20043=
07661,1996-02-26 00:00:00,8,1018.7,-0.3,87,6,20000,31.484,,,60,,,,,,,,,,,wg-a,,,,AAXX 26004 07661 12570 70617 10080 20060 30021 40187 58003 60006 874// 90000=
07661,1996-02-26 06:00:00,9,1016.2,-1,87,7,15000,46.3,,64.82,70,7.4,9.9,,,,,,,,,wg-a,,,,AAXX 26064 07661 12865 80725 10090 20070 39997 40162 56010 60006 8807/ 90600 333 10099 20074 91035=
07661,1996-02-26 12:00:00,9,1016.5,0,100,9,6000,42.596,,79.636,70,,,,11,,,,,,62,wg-a,,,,AAXX 26124 07661 02556 80723 10090 20090 30000 40165 50000 60256 76262 8572/ 91200 333 60117 91043=
07661,1996-02-26 18:00:00,8,1015.5,0.6,100,8,8000,50.004,,83.34,60,7.7,9.5,,0,,,,,,62,wg-a,,,,AAXX 26184 07661 12/58 80627 10080 20080 39990 40155 50006 60007 76262 887// 91800 333 10095 20077 91045=
07661,1996-02-27 00:00:00,8,1014.6,-0.6,93,7,10000,53.708,,103.712,60,,,,0,,,,,,62,wg-a,,,,AAXX 27004 07661 02560 80629 10080 20070 39981 40146 58006 60016 76262 8377/ 90000 333 60007 91056=
07661,1996-02-27 06:00:00,9,1013,-0.2,81,6,8000,61.116,,87.044,60,7.8,9.3,,0,,,,,,2,wg-a,,,,AAXX 27064 07661 12/58 80633 10090 20060 39966 40130 58002 60007 70262 887// 90600 333 10093 20078 91047=
07661,1996-02-27 12:00:00,12,1015,0.4,67,6,12000,57.412,,87.044,70,,,,0,,,,,,2,wg-a,,,,AAXX 27124 07661 02562 80731 10120 20060 39987 40150 50004 60016 70262 885// 91200 333 60007 91047=
07661,1996-02-27 18:00:00,11,1016.7,1.7,66,5,12000,31.484,,83.34,50,8.8,12.2,,,,,,,,,wg-a,,,,AAXX 27184 07661 32562 80517 10110 20050 30003 40167 51017 885// 91800 333 10122 20088 91045=
07661,1996-02-28 00:00:00,8,1017.4,-0.3,81,5,15000,22.224,,,70,,,,,,,,,,,wg-a,,,,AAXX 28004 07661 12/65 00712 10080 20050 30008 40174 58003 60006 80000 90000=
07661,1996-02-28 06:00:00,6,1017.7,0.3,87,4,10000,25.928,,,70,5.8,11,,,,,,,,,wg-a,,,,AAXX 28064 07661 12/60 00714 10060 20040 30010 40177 53003 60006 80000 90600 333 10110 20058=
07661,1996-02-28 12:00:00,12,1018.4,0.1,67,6,10000,14.816,,,100,,,,,,,,,,,wg-a,,,,AAXX 28124 07661 12/60 51008 10120 20060 30020 40184 50001 60006 82068 91200=
07661,1996-02-28 18:00:00,10,1019,0.9,76,6,10000,7.408,,,240,5.8,13.1,,,,,,,,,wg-a,,,,AAXX 28184 07661 12/60 62404 10100 20060 30025 40190 53009 60006 8606/ 91800 333 10131 20058=
07661,1996-02-29 06:00:00,7,1019.9,0.7,93,6,10000,11.112,,,60,5.7,10.1,,,,,,,,,wg-a,,,,AAXX 29064 07661 12/60 00606 10070 20060 30032 40199 53007 60006 80000 90600 333 10101 20057=
07661,1996-02-29 12:00:00,12,1020.9,0,71,7,8000,22.224,,,220,,,,,,,,,,,wg-a,,,,AAXX 29124 07661 12/58 32212 10120 20070 30045 40209 50000 60006 80008 91200=
07661,1996-02-29 18:00:00,10,1020.6,-0,87,8,8000,25.928,,,280,7.4,13.7,,,,,,,,,wg-a,,,,AAXX 29184 07661 12/58 02814 10100 20080 30041 40206 55000 60006 80000 91800 333 10137 20074=
07661,1996-03-01 00:00:00,8,1019.8,-0.7,81,5,8000,0,,,0,,,,,,,,,,,wg-a,,,,AAXX 01004 07661 12/58 00000 10080 20050 30032 40198 58007 60006 80000 90000=
07661,1996-03-01 06:00:00,7,1017.3,-1.1,76,3,8000,3.704,,,300,6.6,10.2,,,,,,,,,wg-a,,,,AAXX 01064 07661 12/58 03002 10070 20030 30006 40173 56011 60006 80000 90600 333 10102 20066=
07661,1996-03-01 12:00:00,13,1013.9,-2.4,58,5,10000,7.408,,,210,,,,,,,,,,,wg-a,,,,AAXX 01124 07661 12560 22104 10130 20050 39976 40139 58024 60006 81204 91200=
07661,1996-03-01 18:00:00,10,1008.8,-1.3,57,2,10000,31.484,,,290,6.6,15.4,,,,,,,,,wg-a,,,,AAXX 01184 07661 12/60 02917 10100 20020 39925 40088 56013 60006 80000 91800 333 10154 20066=
07661,1996-03-02 00:00:00,7,1008.4,-0.4,66,1,15000,7.408,,,300,,,,,,,,,,,wg-a,,,,AAXX 02004 07661 12/65 03004 10070 20010 39919 40084 57004 60006 80000 90000=
07661,1996-03-02 06:00:00,5,1009.9,2,70,0,12000,18.52,,,60,5.4,10,,,,,,,,,wg-a,,,,AAXX 02064 07661 12562 30610 10050 20000 39933 40099 53020 60006 83600 90600 333 10100 20054=
07661,1996-03-02 12:00:00,11,1013,1.1,62,4,8000,35.188,,64.82,70,,,,,,,,,,,wg-a,,,,AAXX 02124 07661 12558 80719 10110 20040 39966 40130 51011 60006 88600 91200 333 91035=
07661,1996-03-02 18:00:00,8,1014.7,1.3,71,3,10000,11.112,,,20,5.4,11.5,,,,,,,,60,wg-a,,,,AAXX 02184 07661 02560 80206 10080 20030 39981 40147 53013 61000 76062 887// 91800 333 10115 20054 ////=
07661,1996-03-03 00:00:00,6,1014,-1.1,81,3,10000,25.928,,,50,,,,,,,,,,1,wg-a,,,,AAXX 03004 07661 02560 70514 10060 20030 39973 40140 56011 60006 70162 87700 90000 333 61000=
07661,1996-03-03 06:00:00,6,1012.1,-0.4,75,2,10000,18.52,,,60,5.7,7.7,,,,,,,,,wg-a,,,,AAXX 03064 07661 32560 70610 10060 20020 39955 40121 57004 877// 90600 333 10077 20057=
07661,1996-03-03 12:00:00,8,1012.2,-0.4,66,2,10000,18.52,,,50,,,,,,,,,,,wg-a,,,,AAXX 03124 07661 12560 80510 10080 20020 39957 40122 58004 60006 887// 91200=
07661,1996-03-03 18:00:00,7,1012.2,0.6,76,3,9000,11.112,,,60,5.9,9.7,,,,,,,,,wg-a,,,,AAXX 03184 07661 12659 60606 10070 20030 39956 40122 53006 60006 86800 91800 333 10097 20059=
07661,1996-03-04 00:00:00,4,1014,0.8,93,3,10000,22.224,,,50,,,,,,,,,,,wg-a,,,,AAXX 04004 07661 12660 50512 10040 20030 39972 40140 51008 60006 85800 90000=
07661,1996-03-04 06:00:00,4,1014.2,1.1,81,1,18000,14.816,,,50,3.8,6.8,,,,,,,,,wg-a,,,,AAXX 04064 07661 12668 50508 10040 20010 39974 40142 51011 60006 85800 90600 333 10068 20038=
07661,1996-03-04 12:00:00,10,1014.6,-0.3,37,-4,25000,11.112,,,150,,,,,,,,,,,wg-a,,,,AAXX 04124 07661 12575 31506 10100 21040 39981 40146 58003 60006 83200 91200=
07661,1996-03-04 18:00:00,7,1014.3,0.5,39,-6,18000,29.632,,,300,3.8,11.6,,,,,,,,,wg-a,,,,AAXX 04184 07661 12/68 03016 10070 21060 39977 40143 53005 60006 80000 91800 333 10116 20038=
07661,1996-03-05 00:00:00,4,1017.9,1.9,60,-3,18000,18.52,,,60,,,,,,,,,,,wg-a,,,,AAXX 05004 07661 12/68 00610 10040 21030 30010 40179 51019 60006 80000 90000=
07661,1996-03-05 06:00:00,3,1021.8,2,81,0,20000,25.928,,,70,3.1,7.1,,,,,,,,,wg-a,,,,AAXX 05064 07661 12/70 00714 10030 20000 30048 40218 52020 60006 80000 90600 333 10071 20031=
07661,1996-03-05 12:00:00,10,1024.3,0.8,43,-2,20000,11.112,,,120,,,,,,,,,,,wg-a,,,,AAXX 05124 07661 12870 61206 10100 21020 30077 40243 51008 60006 86070 91200=
07661,1996-03-05 18:00:00,8,1023.8,0.4,61,1,20000,11.112,,,230,3,10.8,,,,,,,,,wg-a,,,,AAXX 05184 07661 12770 42306 10080 20010 30071 40238 53004 60006 81170 91800 333 10108 20030=
07661,1996-03-06 00:00:00,7,1023.6,-0.4,76,3,15000,7.408,,,300,,,,,,,,,,,wg-a,,,,AAXX 06004 07661 12765 43004 10070 20030 30068 40236 58004 60006 84200 90000=
07661,1996-03-06 06:00:00,5,1021.9,-0.3,81,2,15000,3.704,,,300,4.7,8,,,,,,,,,wg-a,,,,AAXX 06064 07661 12765 23002 10050 20020 30051 40219 55003 60006 82200 90600 333 10080 20047=
07661,1996-03-06 12:00:00,11,1020.1,-1.4,58,3,10000,14.816,,,220,,,,,,,,,,,wg-a,,,,AAXX 06124 07661 12660 22208 10110 20030 30036 40201 58014 60006 82200 91200=
07661,1996-03-06 18:00:00,8,1018.1,-0.5,71,3,15000,11.112,,,290,4.9,12,,,,,,,,,wg-a,,,,AAXX 06184 07661 12865 82906 10080 20030 30015 40181 56005 60006 8807/ 91800 333 10120 20049=
07661,1996-03-07 00:00:00,7,1015.9,-1.2,81,4,10000,14.816,,,50,,,,,,,,,,,wg-a,,,,AAXX 07004 07661 12860 80508 10070 20040 39993 40159 56012 60006 8807/ 90000=
07661,1996-03-07 06:00:00,6,1012.4,-1.2,81,3,15000,22.224,,,50,5.9,8.2,,,,,,,,,wg-a,,,,AAXX 07064 07661 12865 80512 10060 20030 39958 40124 56012 60006 8807/ 90600 333 10082 20059=
07661,1996-03-07 12:00:00,9,1012.4,0.2,71,4,20000,29.632,,,50,,,,,,,,,,,wg-a,,,,AAXX 07124 07661 12570 70516 10090 20040 39960 40124 50002 60006 848// 91200=
07661,1996-03-07 18:00:00,8,1014,1.6,76,4,20000,42.596,,68.524,60,6.1,10.1,,,,,,,,,wg-a,,,,AAXX 07184 07661 12570 70623 10080 20040 39975 40140 53016 60006 848// 91800 333 10101 20061 91037=
07661,1996-03-08 00:00:00,9,1016.2,0.7,53,0,17000,42.596,,90.748,60,,,,,,,,,,,wg-a,,,,AAXX 08004 07661 12/67 00623 10090 20000 39997 40162 51007 60006 80000 90000 333 91049=
07661,1996-03-08 06:00:00,8,1017.6,0.9,61,1,15000,38.892,,72.228,60,7.8,9.4,,,,,,,,,wg-a,,,,AAXX 08064 07661 12865 20621 10080 20010 30010 40176 53009 60006 82040 90600 333 10094 20078 91039=
07661,1996-03-08 12:00:00,10,1018.9,0.3,57,2,15000,53.708,,94.452,80,,,,,,,,,,,wg-a,,,,AAXX 08124 07661 12865 60829 10100 20020 30024 40189 50003 60006 8604/ 91200 333 91051=
07661,1996-03-08 18:00:00,10,1019.9,0.8,62,3,10000,46.3,,87.044,80,7.9,10.7,,,,,,,,,wg-a,,,,AAXX 08184 07661 12660 80825 10100 20030 30034 40199 51008 60006 8557/ 91800 333 10107 20079 91047=
07661,1996-03-09 00:00:00,10,1020.8,0.3,62,3,10000,42.596,,75.932,70,,,,,,,,,,21,wg-a,,,,AAXX 09004 07661 02860 80723 10100 20030 30042 40208 53003 61000 72122 8807/ 90000 333 6100 91041=
07661,1996-03-09 06:00:00,9,1020.6,0.1,61,2,6000,46.3,,,60,7.9,10,,,,,,,,,wg-a,,,,AAXX 09064 07661 32556 80625 10090 20020 30040 40206 51001 8387/ 90600 333 10100 20079=
07661,1996-03-09 12:00:00,10,1020.1,-1.1,62,3,8000,46.3,,75.932,80,,,,,,,,,,21,wg-a,,,,AAXX 09124 07661 02858 70825 10100 20030 30036 40201 58011 61000 72162 87070 91200 333 6100 91041=
07661,1996-03-09 18:00:00,9,1019.6,0.4,57,1,8000,38.892,,72.228,60,8.4,10.5,,,,,,,,,wg-a,,,,AAXX 09184 07661 32858 70621 10090 20010 30030 40196 53004 87770 91800 333 10105 20084 91039=
07661,1996-03-10 00:00:00,7,1019.2,-0.7,66,1,8000,35.188,,,60,,,,,,,,,,,wg-a,,,,AAXX 10004 07661 12/58 00619 10070 20010 30025 40192 57007 60006 80000 90000=
07661,1996-03-10 06:00:00,8,1017.2,-0.7,66,2,8000,29.632,,,60,7.1,9,,,,,,,,,wg-a,,,,AAXX 10064 07661 12658 80616 10080 20020 30006 40172 56007 60006 8377/ 90600 333 10090 20071=
07661,1996-03-10 12:00:00,10,1016.2,-1.3,62,3,6000,29.632,,53.708,90,,,,,,,,,,,wg-a,,,,AAXX 10124 07661 12856 70916 10100 20030 39997 40162 58013 60006 8407/ 91200 333 91029=
07661,1996-03-10 18:00:00,9,1015.8,0.4,61,2,6000,29.632,,50.004,70,7.6,10.3,,,,,,,,,wg-a,,,,AAXX 10184 07661 12856 70716 10090 20020 39993 40158 52004 60006 8407/ 91800 333 10103 20076 91027=
07661,1996-03-11 06:00:00,7,1013.6,-0.9,57,-1,7000,3.704,,,180,6.2,9.4,,,,,,,,,wg-a,,,,AAXX 11064 07661 12757 71802 10070 21010 39970 40136 56009 60006 8702/ 90600 333 10094 20062=
07661,1996-03-11 12:00:00,12,1012.4,-1.1,47,1,8000,3.704,,,330,,,,,,,,,,,wg-a,,,,AAXX 11124 07661 12/58 53302 10120 20010 39961 40124 58011 60006 8501/ 91200=
07661,1996-03-12 00:00:00,6,1008.2,-1.7,61,-1,8000,7.408,,,320,,,,,,,,,,,wg-a,,,,AAXX 12004 07661 12/58 03204 10060 21010 39916 40082 58017 60006 80000 90000=
07661,1996-03-12 06:00:00,9,1002.7,-2.6,34,-6,20000,50.004,,68.524,300,4.5,9.6,,,,,,,,,wg-a,,,,AAXX 12064 07661 12/70 23027 10090 21060 39864 40027 57026 60006 82040 90600 333 10096 20045 91037=
07661,1996-03-12 12:00:00,13,1002.2,0.2,12,-16,18000,57.412,,,300,,,,,,,,,,,wg-a,,,,AAXX 12124 07661 12/68 13031 10130 21160 39861 40022 50002 60006 81040 91200=
07661,1996-03-12 18:00:00,10,1001.1,-0,57,2,1500,31.484,,90.748,280,8.7,14.5,,,,,,,,,wg-a,,,,AAXX 12184 07661 12/15 12817 10100 20020 39849 40011 55000 60006 81040 91800 333 10145 20087 91049=
07661,1996-03-13 00:00:00,8,1003.7,0.9,57,0,15000,14.816,,,70,,,,,,,,,,,wg-a,,,,AAXX 13004 07661 12/65 80708 10080 20000 39873 40037 50009 60006 88040 90000=
07661,1996-03-13 06:00:00,7,1004.4,0.5,87,5,10000,25.928,,,60,6.3,10,,,,,,,,,wg-a,,,,AAXX 13064 07661 12860 60614 10070 20050 39880 40044 53005 60006 86010 90600 333 10100 20063=
07661,1996-03-13 12:00:00,11,1005.1,0.5,76,7,6000,38.892,,61.116,80,,,,,,,,,,,wg-a,,,,AAXX 13124 07661 12456 80821 10110 20070 39889 40051 51005 60006 886// 91200 333 91033=
07661,1996-03-13 18:00:00,10,1005.4,0.1,76,6,6000,31.484,,61.116,70,6.9,11.3,,,,,,,,,wg-a,,,,AAXX 13184 07661 12456 80717 10100 20060 39891 40054 53001 60006 886// 91800 333 10113 20069 91033=
07661,1996-03-14 00:00:00,8,1005.6,-0.7,93,7,6000,38.892,,64.82,60,,,,1,,,,,,60,wg-a,,,,AAXX 14004 07661 02456 80621 10080 20070 39892 40056 58007 60016 76062 886// 90000 333 60017 91035=
07661,1996-03-14 06:00:00,8,1003.6,-0.8,100,8,500,42.596,,,60,7.5,9.8,,3,,,,,,63,wg-a,,,,AAXX 14064 07661 12400 80623 10080 20080 39872 40036 57008 60037 76362 887// 90600 333 10098 20075=
07661,1996-03-14 12:00:00,9,1003.6,-0.3,100,9,3000,57.412,,83.34,70,,,,7,,,,,,63,wg-a,,,,AAXX 14124 07661 02430 80731 10090 20090 39873 40036 58003 60116 76366 8472/ 91200 333 60077 91045=
07661,1996-03-14 18:00:00,9,1004.3,1,93,8,500,46.3,,90.748,60,7.9,9.4,,4,,,,,,63,wg-a,,,,AAXX 14184 07661 12400 80625 10090 20080 39880 40043 53010 60047 76366 8472/ 91800 333 10094 20079 91049=
07661,1996-03-15 00:00:00,9,1003.4,-1,100,9,500,50.004,,68.524,60,,,,7,,,,,,62,wg-a,,,,AAXX 15004 07661 02400 80627 10090 20090 39871 40034 58010 60126 76266 8472/ 90000 333 60077 91037=
07661,1996-03-15 06:00:00,9,1001.4,-0.5,93,8,500,50.004,,,60,8,9.8,,0,,,,,,63,wg-a,,,,AAXX 15064 07661 12400 80627 10090 20080 39852 40014 57005 60007 76362 8472/ 90600 333 10098 20080=
07661,1996-03-15 12:00:00,12,1000.2,-1.5,82,9,10000,38.892,,,60,,,,2,,,,,,62,wg-a,,,,AAXX 15124 07661 02560 80621 10120 20090 39841 40002 58015 60056 76262 8477/ 91200 333 60027=
07661,1996-03-15 18:00:00,12,1000.4,1.2,67,6,10000,38.892,,87.044,60,8.9,13.3,,,,,,,,60,wg-a,,,,AAXX 15184 07661 02660 80621 10120 20060 39843 40004 53012 61000 76062 887// 91800 333 10133 20089 //// 91047=
07661,1996-03-16 00:00:00,12,1001.6,0.7,71,7,10000,50.004,,83.34,80,,,,0,,,,,,21,wg-a,,,,AAXX 16004 07661 02660 80827 10120 20070 39855 40016 52007 60016 72162 887// 90000 333 60007 91045=
07661,1996-03-16 06:00:00,10,1002.5,0.4,76,6,12000,18.52,,,300,9.7,12.7,,0,,,,,,21,wg-a,,,,AAXX 16064 07661 12/62 83010 10100 20060 39863 40025 53004 60007 72162 887// 90600 333 10127 20097=
07661,1996-03-16 12:00:00,12,1003.9,0.4,67,6,15000,3.704,,,150,,,,,,,,,,,wg-a,,,,AAXX 16124 07661 12565 81502 10120 20060 39878 40039 51004 60006 8257/ 91200=
07661,1996-03-16 18:00:00,11,1005.1,1.3,76,7,6000,18.52,,,290,9.9,12.6,,,,,,,,21,wg-a,,,,AAXX 16184 07661 02556 82910 10110 20070 39889 40051 53013 61000 72162 8577/ 91800 333 10126 20099 ////=
07661,1996-03-17 00:00:00,9,1008.3,1.3,87,7,10000,18.52,,,290,,,,,,,,,,21,wg-a,,,,AAXX 17004 07661 02560 82910 10090 20070 39919 40083 51013 61000 72162 8572/ 90000 333 6100=
07661,1996-03-17 06:00:00,9,1009.7,1.1,81,6,0,11.112,,,300,8.9,11.3,,,,,,,,,wg-a,,,,AAXX 17064 07661 32/// /3006 10090 20060 39933 40097 52011 90600 333 10113 20089=
07661,1996-03-17 12:00:00,13,1011,0.1,67,7,8000,14.816,,,210,,,,,,,,,,,wg-a,,,,AAXX 17124 07661 12558 82108 10130 20070 39948 40110 50001 60006 885// 91200=
07661,1996-03-17 18:00:00,11,1011.2,0.5,82,8,8000,14.816,,,290,9.2,14,,,,,,,,,wg-a,,,,AAXX 17184 07661 12558 82908 10110 20080 39949 40112 53005 60006 8461/ 91800 333 10140 20092=
07661,1996-03-18 00:00:00,9,1012.8,0.9,87,7,8000,14.816,,,60,,,,,,,,,,,wg-a,,,,AAXX 18004 07661 12558 30608 10090 20070 39963 40128 51009 60006 831// 90000=
07661,1996-03-18 06:00:00,9,1013.5,0.8,87,7,18000,7.408,,,60,8.6,11.1,,,,,,,,,wg-a,,,,AAXX 18064 07661 12568 40604 10090 20070 39970 40135 53008 60006 81560 90600 333 10111 20086=
07661,1996-03-18 12:00:00,14,1014.2,0,67,8,10000,11.112,,,250,,,,,,,,,,,wg-a,,,,AAXX 18124 07661 12660 62506 10140 20080 39980 40142 50000 60006 83260 91200=
07661,1996-03-18 18:00:00,11,1013.5,0.3,82,8,10000,11.112,,,290,8.9,16.2,,,,,,,,,wg-a,,,,AAXX 18184 07661 12/60 42906 10110 20080 39972 40135 53003 60006 84060 91800 333 10162 20089=
07661,1996-03-19 00:00:00,9,1014.4,0.1,76,5,10000,7.408,,,190,,,,,,,,,,,wg-a,,,,AAXX 19004 07661 12/60 01904 10090 20050 39979 40144 50001 60006 80000 90000=
07661,1996-03-19 06:00:00,7,1013.8,0.1,87,5,12000,3.704,,,290,6.4,11.6,,,,,,,,,wg-a,,,,AAXX 19064 07661 12/62 02902 10070 20050 39972 40138 53001 60006 80000 90600 333 10116 20064=
07661,1996-03-19 12:00:00,13,1013.6,-0.5,67,7,16000,11.112,,,210,,,,,,,,,,,wg-a,,,,AAXX 19124 07661 12566 42106 10130 20070 39974 40136 58005 60006 81108 91200=
07661,1996-03-19 18:00:00,10,1012.7,-0.1,82,7,16000,11.112,,,290,7.1,15.1,,,,,,,,,wg-a,,,,AAXX 19184 07661 12/66 52906 10100 20070 39963 40127 55001 60006 80002 91800 333 10151 20071=
07661,1996-03-20 00:00:00,7,1013,-0.1,93,6,20000,18.52,,,70,,,,,,,,,,,wg-a,,,,AAXX 20004 07661 12/70 00710 10070 20060 39965 40130 58001 60006 80000 90000=
07661,1996-03-20 06:00:00,7,1012.1,-0.2,100,7,17000,14.816,,,80,,,,,,,,,,,wg-a,,,,AAXX 20064 07661 12167 70808 10070 20070 39956 40121 55002 60006 83250 90600=
07661,1996-03-20 12:00:00,13,1013.1,0.1,88,11,10000,11.112,,,150,,,,,,,,,,,wg-a,,,,AAXX 20124 07661 12560 81506 10130 20110 39969 40131 50001 60006 8325/ 91200=
07661,1996-03-20 18:00:00,11,1013.2,0.6,94,10,15000,11.112,,,160,7.2,13.7,,,,,,,,,wg-a,,,,AAXX 20184 07661 12565 51606 10110 20100 39969 40132 53006 60006 82202 91800 333 10137 20072=
07661,1996-03-21 00:00:00,10,1014.1,-0.2,93,9,15000,7.408,,,70,,,,0,,,,,,,wg-a,,,,AAXX 21004 07661 02165 20704 10100 20090 39977 40141 56002 60006 82500 90000 333 60007=
07661,1996-03-21 06:00:00,7,1015,1.1,100,7,10000,11.112,,,70,7.1,11.3,,,,,,,,,wg-a,,,,AAXX 21064 07661 32860 60706 10070 20070 39984 40150 53011 86070 90600 333 10113 20071=
07661,1996-03-21 12:00:00,14,1016.3,0.3,77,10,12000,11.112,,,70,,,,,,,,,,,wg-a,,,,AAXX 21124 07661 12662 60706 10140 20100 30001 40163 50003 60006 86800 91200=
07661,1996-03-21 18:00:00,12,1016.5,0.6,88,10,13000,11.112,,,260,7,15.1,,,,,,,,,wg-a,,,,AAXX 21184 07661 12563 82606 10120 20100 30002 40165 53006 60006 8/800 91800 333 10151 20070=
07661,1996-03-22 00:00:00,10,1017.3,0.2,93,9,10000,22.224,,,290,,,,,,,,,,,wg-a,,,,AAXX 22004 07661 12660 42912 10100 20090 30008 40173 51002 60006 84800 90000=
07661,1996-03-22 06:00:00,9,1017,0.3,93,8,8000,22.224,,,300,9.3,11.6,,,,,,,,,wg-a,,,,AAXX 22064 07661 12558 43012 10090 20080 30005 40170 52003 60006 84600 90600 333 10116 20093=
07661,1996-03-22 12:00:00,15,1016.7,-0.5,77,11,8000,22.224,,,280,,,,,,,,,,,wg-a,,,,AAXX 22124 07661 12/58 32812 10150 20110 30006 40167 58005 60006 80001 91200=
07661,1996-03-22 18:00:00,11,1016.6,0.4,100,11,8000,38.892,,,290,9.3,15.3,,,,,,,,,wg-a,,,,AAXX 22184 07661 12558 52921 10110 20110 30003 40166 51004 60006 81201 91800 333 10153 20093=
07661,1996-03-23 00:00:00,11,1019.3,0.3,94,10,7000,11.112,,,90,,,,,,,,,,,wg-a,,,,AAXX 23004 07661 12/57 00906 10110 20100 30029 40193 51003 60006 80000 90000=
07661,1996-03-23 06:00:00,9,1019.5,0.5,93,8,6000,11.112,,,60,8,11.4,,,,,,,,,wg-a,,,,AAXX 23064 07661 32/56 00606 10090 20080 30029 40195 53005 80000 90600 333 10114 20080=
07661,1996-03-23 12:00:00,15,1019.9,-0.3,77,11,8000,14.816,,,140,,,,,,,,,,,wg-a,,,,AAXX 23124 07661 12/58 01408 10150 20110 30037 40199 58003 60006 80000 91200=
07661,1996-03-23 18:00:00,12,1020.8,1,94,11,6000,7.408,,,140,8.9,15.5,,,,,,,,,wg-a,,,,AAXX 23184 07661 12/56 41404 10120 20110 30044 40208 51010 60006 84040 91800 333 10155 20089=
07661,1996-03-24 00:00:00,12,1022.3,0.6,94,11,6000,22.224,,,90,,,,,,,,,,,wg-a,,,,AAXX 24004 07661 12/56 00912 10120 20110 30059 40223 53006 60006 80000 90000=
07661,1996-03-24 06:00:00,10,1022.7,0.7,93,9,10000,22.224,,,70,9.8,12.3,,,,,,,,,wg-a,,,,AAXX 24064 07661 12460 60712 10100 20090 30062 40227 53007 60006 82510 90600 333 10123 20098=
07661,1996-03-24 12:00:00,15,1022.1,-0.9,77,11,8000,11.112,,,150,,,,,,,,,,,wg-a,,,,AAXX 24124 07661 12558 61506 10150 20110 30059 40221 58009 60006 82508 91200=
07661,1996-03-25 00:00:00,11,1019.8,-1.9,94,10,6000,25.928,,,70,,,,,,,,,,,wg-a,,,,AAXX 25004 07661 12856 80714 10110 20100 30034 40198 55019 60006 8807/ 90000=
07661,1996-03-25 06:00:00,11,1018.1,-1.8,94,10,8000,31.484,,,70,10.7,12,,,,,,,,,wg-a,,,,AAXX 25064 07661 12658 50717 10110 20100 30017 40181 56018 60006 85800 90600 333 10120 20107=
07661,1996-03-25 12:00:00,14,1018.3,-0.9,88,12,10000,22.224,,,100,,,,,,,,,,,wg-a,,,,AAXX 25124 07661 12660 51012 10140 20120 30021 40183 57009 60006 85800 91200=
07661,1996-03-25 18:00:00,13,1017,-0,94,12,11000,22.224,,,90,10.9,16,,,,,,,,,wg-a,,,,AAXX 25184 07661 12561 80912 10130 20120 30007 40170 55000 60006 885// 91800 333 10160 20109=
07661,1996-03-26 00:00:00,12,1016,-0.6,94,11,11000,22.224,,,70,,,,,,,,,,,wg-a,,,,AAXX 26004 07661 12561 70712 10120 20110 39997 40160 57006 60006 875// 90000=
07661,1996-03-26 06:00:00,12,1014.1,-1.1,94,11,10000,22.224,,,70,11.4,12.6,,,,,,,,,wg-a,,,,AAXX 26064 07661 12560 80712 10120 20110 39978 40141 58011 60006 885// 90600 333 10126 20114=
07661,1996-03-26 12:00:00,14,1012.1,-1,82,11,10000,22.224,,,100,,,,,,,,,,,wg-a,,,,AAXX 26124 07661 12460 81012 10140 20110 39960 40121 56010 60006 8151/ 91200=
07661,1996-03-26 18:00:00,13,1010.2,-0.8,94,12,10000,14.816,,,100,11.6,14.5,,,,,,,,,wg-a,,,,AAXX 26184 07661 12460 81008 10130 20120 39940 40102 55008 60006 8151/ 91800 333 10145 20116=
07661,1996-03-27 00:00:00,12,1008.7,-1.3,100,12,6000,14.816,,,290,,,,,,,,,,,wg-a,,,,AAXX 27004 07661 12/56 82908 10120 20120 39925 40087 58013 60006 8801/ 90000=
07661,1996-03-27 06:00:00,12,1005.7,-0.8,88,10,10000,31.484,,,300,11.5,12.8,,,,,,,,,wg-a,,,,AAXX 27064 07661 12/60 43017 10120 20100 39896 40057 56008 60006 83042 90600 333 10128 20115=
07661,1996-03-27 12:00:00,17,1003.9,-1.4,55,8,10000,46.3,,75.932,300,,,,,,,,,,,wg-a,,,,AAXX 27124 07661 12660 43025 10170 20080 39881 40039 57014 60006 82270 91200 333 91041=
07661,1996-03-27 18:00:00,13,1005.3,1.9,54,4,500,31.484,,96.304,310,12,18.4,,,,,,,,,wg-a,,,,AAXX 27184 07661 32700 43117 10130 20040 39892 40053 53019 82470 91800 333 10184 20120 91052=
07661,1996-03-28 00:00:00,9,1006.3,0.6,61,2,15000,29.632,,,300,,,,,,,,,,,wg-a,,,,AAXX 28004 07661 12/65 43016 10090 20020 39900 40063 50006 60006 84050 90000=
07661,1996-03-28 06:00:00,6,1005.6,0.1,75,2,15000,29.632,,,300,6,13.9,,,,,,,,,wg-a,,,,AAXX 28064 07661 12/65 23016 10060 20020 39891 40056 53001 60006 82030 90600 333 10139 20060=
07661,1996-03-28 12:00:00,16,1008.7,2,55,7,12000,3.704,,,50,,,,,,,,,,,wg-a,,,,AAXX 28124 07661 12762 60502 10160 20070 39927 40087 51020 60006 86400 91200=
07661,1996-03-28 18:00:00,13,1008.8,-0.7,35,-2,40000,38.892,,,310,6.2,15.8,,,,,,,,,wg-a,,,,AAXX 28184 07661 12/82 13121 10130 21020 39926 40088 58007 60006 80004 91800 333 10158 20062=
07661,1996-03-29 06:00:00,7,1010.8,0.2,42,-5,40000,42.596,,,300,7.1,13.8,,,,,,,,,wg-a,,,,AAXX 29064 07661 12/82 03023 10070 21050 39943 40108 53002 60006 80000 90600 333 10138 20071=
07661,1996-03-29 12:00:00,13,1009.9,-1.2,35,-2,15000,42.596,,,290,,,,,,,,,,,wg-a,,,,AAXX 29124 07661 12/65 02923 10130 21020 39937 40099 58012 60006 80000 91200=
07661,1996-03-29 18:00:00,12,1008.9,0.1,35,-3,20000,42.596,,72.228,290,7.3,15,,,,,,,,,wg-a,,,,AAXX 29184 07661 12/70 22923 10120 21030 39927 40089 51001 60006 81041 91800 333 10150 20073 91039=
07661,1996-03-30 00:00:00,10,1007.8,-1.3,37,-4,10000,42.596,,,300,,,,,,,,,,,wg-a,,,,AAXX 30004 07661 12/60 03023 10100 21040 39915 40078 58013 60006 80000 90000=
07661,1996-03-30 06:00:00,7,1006.8,0.1,57,-1,15000,11.112,,,300,6.3,12,,,,,,,,,wg-a,,,,AAXX 30064 07661 12/65 23006 10070 21010 39903 40068 53001 60006 81041 90600 333 10120 20063=
07661,1996-03-30 12:00:00,14,1006.1,-0.7,38,0,20000,25.928,,,290,,,,,,,,,,,wg-a,,,,AAXX 30124 07661 12/70 32914 10140 20000 39900 40061 58007 60006 80002 91200=
07661,1996-03-30 18:00:00,12,1005.6,0.8,38,-2,20000,46.3,,,300,7.1,15.6,,,,,,,,,wg-a,,,,AAXX 30184 07661 12870 53025 10120 21020 39894 40056 50008 60006 82071 91800 333 10156 20071=
07661,1996-03-31 00:00:00,8,1008.9,1.1,42,-4,20000,18.52,,,300,,,,,,,,,,,wg-a,,,,AAXX 31004 07661 12/70 03010 10080 21040 39924 40089 53011 60006 80000 90000=
07661,1996-03-31 06:00:00,6,1011.1,1.4,49,-4,25000,7.408,,,310,5.5,12,,,,,,,,,wg-a,,,,AAXX 31064 07661 12/75 03104 10060 21040 39945 40111 53014 60006 80000 90600 333 10120 20055=
07661,1996-03-31 12:00:00,14,1011.7,-0.3,58,6,20000,11.112,,,210,,,,,,,,,,,wg-a,,,,AAXX 31124 07661 12670 22106 10140 20060 39956 40117 58003 60006 81240 91200=
07661,1996-03-31 18:00:00,11,1010.6,-0.2,62,4,25000,29.632,,,290,5.7,15,,,,,,,,,wg-a,,,,AAXX 31184 07661 12/75 72916 10110 20040 39943 40106 58002 60006 84042 91800 333 10150 20057=
07661,1996-04-01 00:00:00,9,1010.7,-0.9,66,3,25000,18.52,,,300,,,,,,,,,,,wg-a,,,,AAXX 01004 07661 12875 63010 10090 20030 39943 40107 56009 60006 86500 90000=
07661,1996-04-01 06:00:00,7,1007.4,-1.4,93,6,10000,18.52,,,70,7.2,10.5,,2,,,,,,61,wg-a,,,,AAXX 01064 07661 12560 80710 10070 20060 39909 40074 56014 60027 76162 887// 90600 333 10105 20072=
07661,1996-04-01 12:00:00,9,1003.4,-2.3,100,9,6000,29.632,,,60,,,,2,,,,,,2,wg-a,,,,AAXX 01124 07661 02456 80616 10090 20090 39871 40034 56023 60086 70262 8272/ 91200 333 60027=
07661,1996-04-01 18:00:00,9,1000.4,-1.4,100,9,15000,31.484,,,60,7.1,9.8,,1,,,,,,,wg-a,,,,AAXX 01184 07661 12565 80617 10090 20090 39842 40004 56014 60017 8277/ 91800 333 10098 20071=
07661,1996-04-02 00:00:00,9,1000,-0.5,93,8,10000,29.632,,,70,,,,,,,,,,,wg-a,,,,AAXX 02004 07661 12860 60716 10090 20080 39838 40000 58005 60006 8607/ 90000=
07661,1996-04-02 06:00:00,9,1000.7,0.7,93,8,20000,3.704,,,50,8.4,9.4,,,,,,,,,wg-a,,,,AAXX 02064 07661 12/70 50502 10090 20080 39844 40007 53007 60006 8507/ 90600 333 10094 20084=
07661,1996-04-02 18:00:00,10,1001.8,1.3,50,0,15000,50.004,,,300,8.8,13.2,,,,,,,,,wg-a,,,,AAXX 02184 07661 12665 13027 10100 20000 39856 40018 52013 60006 81200 91800 333 10132 20088=
07661,1996-04-03 00:00:00,7,1004,-0.4,42,-5,10000,46.3,,,300,,,,,,,,,,,wg-a,,,,AAXX 03004 07661 12/60 03025 10070 21050 39875 40040 58004 60006 80000 90000=
07661,1996-04-03 06:00:00,4,1003.9,-0,52,-5,10000,50.004,,,300,3.7,9.8,,,,,,,,,wg-a,,,,AAXX 03064 07661 12860 33027 10040 21050 39873 40039 55000 60006 83070 90600 333 10098 20037=
07661,1996-04-03 12:00:00,4,1006.2,1.2,93,3,10000,35.188,,,310,,,,2,,,,,,61,wg-a,,,,AAXX 03124 07661 02560 83119 10040 20030 39896 40062 50012 60026 76122 8427/ 91200 333 60027=
07661,1996-04-03 18:00:00,8,1010.7,2.6,57,0,10000,18.52,,,310,3.8,9.1,,,,,,,,1,wg-a,,,,AAXX 03184 07661 02860 53110 10080 20000 39942 40107 51026 61000 70162 85070 91800 333 10091 20038 ////=
07661,1996-04-04 00:00:00,7,1013.1,2.3,61,0,18000,14.816,,,290,,,,,,,,,,,wg-a,,,,AAXX 04004 07661 12868 22908 10070 20000 39965 40131 51023 60006 82070 90000=
07661,1996-04-04 06:00:00,6,1013.8,0.3,70,1,15000,11.112,,,80,3.8,8.2,,,,,,,,,wg-a,,,,AAXX 04064 07661 12/65 00806 10060 20010 39971 40138 53003 60006 80000 90600 333 10082 20038=
07661,1996-04-04 12:00:00,13,1013.2,-0.6,47,2,0,3.704,,,110,,,,,,,,,,,wg-a,,,,AAXX 04124 07661 12/// /1102 10130 20020 39970 40132 58006 60006 91200=
07661,1996-04-04 18:00:00,11,1013.3,0,47,0,15000,25.928,,,280,6,14.6,,,,,,,,,wg-a,,,,AAXX 04184 07661 12/65 02814 10110 20000 39970 40133 50000 60006 80000 91800 333 10146 20060=
07661,1996-04-05 00:00:00,7,1014.5,-0.1,76,3,15000,11.112,,,70,,,,,,,,,,,wg-a,,,,AAXX 05004 07661 12/65 00706 10070 20030 39979 40145 58001 60006 80000 90000=
07661,1996-04-05 06:00:00,6,1014.4,0.5,75,2,12000,11.112,,,90,5.2,11.3,,,,,,,,,wg-a,,,,AAXX 05064 07661 12/62 00906 10060 20020 39977 40144 53005 60006 80000 90600 333 10113 20052=
07661,1996-04-05 12:00:00,14,1014.7,-0.1,67,8,8000,14.816,,,90,,,,,,,,,,,wg-a,,,,AAXX 05124 07661 12/58 00908 10140 20080 39985 40147 58001 60006 80000 91200=
07661,1996-04-05 18:00:00,11,1015.2,0.5,76,7,10000,11.112,,,110,5.9,14.2,,,,,,,,,wg-a,,,,AAXX 05184 07661 12/60 41106 10110 20070 39988 40152 51005 60006 84070 91800 333 10142 20059=
07661,1996-04-06 00:00:00,10,1017,0.4,87,8,10000,3.704,,,90,,,,,,,,,,,wg-a,,,,AAXX 06004 07661 12/60 80902 10100 20080 30005 40170 52004 60006 88070 90000=
07661,1996-04-06 06:00:00,7,1017.3,0.3,87,5,10000,11.112,,,90,6.9,10.8,,,,,,,,,wg-a,,,,AAXX 06064 07661 12/60 50906 10070 20050 30007 40173 53003 60006 85070 90600 333 10108 20069=
07661,1996-04-06 12:00:00,14,1018.3,0.1,72,9,10000,18.52,,,220,,,,,,,,,,,wg-a,,,,AAXX 06124 07661 12560 72210 10140 20090 30021 40183 50001 60006 81170 91200=
07661,1996-04-06 18:00:00,12,1017.9,0,50,2,18000,22.224,,,290,7.2,15.9,,,,,,,,,wg-a,,,,AAXX 06184 07661 12568 52912 10120 20020 30015 40179 50000 60006 81160 91800 333 10159 20072=
07661,1996-04-07 00:00:00,12,1018.3,-0.2,58,4,10000,7.408,,,230,,,,,,,,,,,wg-a,,,,AAXX 07004 07661 12/60 72304 10120 20040 30019 40183 57002 60006 8703/ 90000=
07661,1996-04-07 06:00:00,11,1018,0.5,66,5,10000,11.112,,,300,10.3,12.1,,,,,,,,,wg-a,,,,AAXX 07064 07661 12/60 83006 10110 20050 30016 40180 53005 60006 8807/ 90600 333 10121 20103=
07661,1996-04-07 12:00:00,16,1018.5,-0.1,59,8,15000,18.52,,,290,,,,,,,,,,,wg-a,,,,AAXX 07124 07661 12565 32910 10160 20080 30024 40185 57001 60006 8317/ 91200=
07661,1996-04-07 18:00:00,13,1018.5,-0,77,9,13000,18.52,,,280,10.8,16.4,,,,,,,,,wg-a,,,,AAXX 07184 07661 12/63 52810 10130 20090 30022 40185 55000 60006 83032 91800 333 10164 20108=
07661,1996-04-08 00:00:00,12,1019.6,0,88,10,10000,22.224,,,290,,,,,,,,,,,wg-a,,,,AAXX 08004 07661 12/60 42912 10120 20100 30032 40196 50000 60006 84030 90000=
07661,1996-04-08 06:00:00,11,1019.8,0.8,71,6,10000,7.408,,,40,9.8,13.5,,,,,,,,,wg-a,,,,AAXX 08064 07661 12/60 30404 10110 20060 30033 40198 53008 60006 83030 90600 333 10135 20098=
07661,1996-04-08 12:00:00,17,1020.7,-0.2,72,12,10000,7.408,,,170,,,,,,,,,,,wg-a,,,,AAXX 08124 07661 12560 61704 10170 20120 30046 40207 58002 60006 82201 91200=
07661,1996-04-08 18:00:00,15,1020.6,0,82,12,8000,7.408,,,130,10.8,17.3,,,,,,,,,wg-a,,,,AAXX 08184 07661 12658 61304 10150 20120 30044 40206 50000 60006 83120 91800 333 10173 20108=
07661,1996-04-09 06:00:00,11,1020.6,0.8,76,7,12000,22.224,,,70,10.1,15.2,,,,,,,,,wg-a,,,,AAXX 09064 07661 12/62 00712 10110 20070 30041 40206 53008 60006 80000 90600 333 10152 20101=
07661,1996-04-09 12:00:00,17,1021,0.1,63,10,14000,11.112,,,110,,,,,,,,,,,wg-a,,,,AAXX 09124 07661 12564 31106 10170 20100 30049 40210 50001 60006 83300 91200=
07661,1996-04-09 18:00:00,14,1020.9,-0.3,77,10,15000,7.408,,,230,10.5,17.4,,,,,,,,,wg-a,,,,AAXX 09184 07661 12/65 52304 10140 20100 30046 40209 55003 60006 85030 91800 333 10174 20105=
07661,1996-04-10 00:00:00,12,1020.7,-0.7,82,9,15000,18.52,,,300,,,,,,,,,,,wg-a,,,,AAXX 10004 07661 12/65 03010 10120 20090 30043 40207 58007 60006 80000 90000=
07661,1996-04-10 06:00:00,11,1018.4,-0.8,82,8,12000,3.704,,,60,10.3,13.9,,,,,,,,,wg-a,,,,AAXX 10064 07661 12/62 00602 10110 20080 30020 40184 56008 60006 80000 90600 333 10139 20103=
07661,1996-04-10 12:00:00,16,1016.7,-1.3,63,9,12000,31.484,,,290,,,,,,,,,,,wg-a,,,,AAXX 10124 07661 12/62 32917 10160 20090 30006 40167 56013 60006 83071 91200=
07661,1996-04-10 18:00:00,13,1015,-0.5,82,10,10000,35.188,,,290,10.5,16.5,,,,,,,,,wg-a,,,,AAXX 10184 07661 12/60 42919 10130 20100 39988 40150 58005 60006 84071 91800 333 10165 20105=
07661,1996-04-11 00:00:00,14,1013.7,-1,67,8,10000,22.224,,,290,,,,,,,,,,,wg-a,,,,AAXX 11004 07661 12/60 02912 10140 20080 39975 40137 56010 60006 80000 90000=
07661,1996-04-11 06:00:00,10,1013.7,0.3,100,10,6000,11.112,,,70,10.4,14,,,,,,,,,wg-a,,,,AAXX 11064 07661 12456 60706 10100 20100 39973 40137 53003 60006 83670 90600 333 10140 20104=
07661,1996-04-11 12:00:00,17,1011.6,-2,68,11,8000,14.816,,,210,,,,,,,,,,,wg-a,,,,AAXX 11124 07661 12558 52108 10170 20110 39956 40116 58020 60006 82670 91200=
07661,1996-04-11 18:00:00,15,1008.6,-0.4,72,10,500,46.3,,75.932,290,10.4,18.5,,,,,,,,,wg-a,,,,AAXX 11184 07661 12/00 32925 10150 20100 39926 40086 58004 60006 80001 91800 333 10185 20104 91041=
07661,1996-04-12 00:00:00,11,1009.8,0.3,94,10,15000,18.52,,,90,,,,,,,,,,,wg-a,,,,AAXX 12004 07661 12/65 10910 10110 20100 39936 40098 51003 60006 80002 90000=
07661,1996-04-12 06:00:00,11,1010.2,0.5,82,8,10000,3.704,,,350,9.9,14.7,,,,,,,,,wg-a,,,,AAXX 12064 07661 12/60 43502 10110 20080 39939 40102 53005 60006 80004 90600 333 10147 20099=
07661,1996-04-12 12:00:00,16,1010.6,-0.1,68,10,8000,14.816,,,220,,,,,,,,,,,wg-a,,,,AAXX 12124 07661 12558 52208 10160 20100 39946 40106 55001 60006 82203 91200=
07661,1996-04-12 18:00:00,14,1010.4,0.1,77,10,8000,14.816,,,240,11.4,18,,,,,,,,,wg-a,,,,AAXX 12184 07661 12/58 22408 10140 20100 39943 40104 53001 60006 80008 91800 333 10180 20114=
07661,1996-04-13 00:00:00,13,1011.3,-0.2,58,5,10000,22.224,,,300,,,,,,,,,,,wg-a,,,,AAXX 13004 07661 12/60 03012 10130 20050 39951 40113 58002 60006 80000 90000=
07661,1996-04-13 06:00:00,13,1011,0.4,82,10,12000,18.52,,,300,11.9,13.5,,,,,,,,,wg-a,,,,AAXX 13064 07661 12/62 13010 10130 20100 39948 40110 53004 60006 80001 90600 333 10135 20119=
07661,1996-04-13 12:00:00,19,1009.6,-1.2,43,6,12000,42.596,,,290,,,,,,,,,,,wg-a,,,,AAXX 13124 07661 12/62 32923 10190 20060 39938 40096 56012 60006 80005 91200=
07661,1996-04-13 18:00:00,17,1008.7,0.2,55,8,10000,38.892,,72.228,280,12.5,19.1,,,,,,,,,wg-a,,,,AAXX 13184 07661 12/60 62821 10170 20080 39928 40087 53002 60006 86040 91800 333 10191 20125 91039=
07661,1996-04-14 00:00:00,16,1010.2,-0.2,48,5,10000,38.892,,64.82,300,,,,,,,,,,,wg-a,,,,AAXX 14004 07661 12/60 43021 10160 20050 39942 40102 58002 60006 84040 90000 333 91035=
07661,1996-04-14 06:00:00,12,1012.6,1.7,71,7,10000,22.224,,,300,10.8,18.1,,,,,,,,,wg-a,,,,AAXX 14064 07661 12860 33012 10120 20070 39963 40126 53017 60006 83030 90600 333 10181 20108=
07661,1996-04-14 12:00:00,19,1012.8,-0.9,37,4,10000,31.484,,,280,,,,,,,,,,,wg-a,,,,AAXX 14124 07661 12560 72817 10190 20040 39969 40128 58009 60006 82208 91200=
07661,1996-04-14 18:00:00,16,1013.7,1.8,59,8,15000,7.408,,72.228,150,11.9,20.9,,,,,,,,,wg-a,,,,AAXX 14184 07661 12/65 81504 10160 20080 39977 40137 53018 60006 8807/ 91800 333 10209 20119 91039=
07661,1996-04-15 00:00:00,12,1017.9,1,76,8,15000,7.408,,,330,,,,,,,,,,,wg-a,,,,AAXX 15004 07661 12565 23304 10120 20080 30016 40179 51010 60006 82200 90000=
07661,1996-04-15 06:00:00,12,1018.2,0.8,67,6,15000,11.112,,,80,10.3,16,,,,,,,,,wg-a,,,,AAXX 15064 07661 12665 20806 10120 20060 30018 40182 53008 60006 82100 90600 333 10160 20103=
07661,1996-04-15 12:00:00,17,1019.4,0.3,55,8,20000,18.52,,,210,,,,,,,,,,,wg-a,,,,AAXX 15124 07661 12670 32110 10170 20080 30033 40194 51003 60006 82303 91200=
07661,1996-04-15 18:00:00,15,1019,-0.4,55,6,25000,18.52,,,250,12.1,18.2,,,,,,,,,wg-a,,,,AAXX 15184 07661 12/75 02510 10150 20060 30028 40190 57004 60006 80000 91800 333 10182 20121=
07661,1996-04-16 00:00:00,11,1019.1,-0.4,66,5,20000,3.704,,,110,,,,,,,,,,,wg-a,,,,AAXX 16004 07661 12/70 01102 10110 20050 30027 40191 58004 60006 80000 90000=
07661,1996-04-16 06:00:00,9,1017.5,-0.1,66,3,15000,11.112,,,70,7.8,14.6,,,,,,,,,wg-a,,,,AAXX 16064 07661 12/65 00706 10090 20030 30009 40175 55001 60006 80000 90600 333 10146 20078=
07661,1996-04-16 12:00:00,16,1016.4,-0.9,59,8,15000,14.816,,,210,,,,,,,,,,,wg-a,,,,AAXX 16124 07661 12/65 02108 10160 20080 30003 40164 58009 60006 80000 91200=
07661,1996-04-16 18:00:00,13,1015.2,-0.4,72,8,15000,14.816,,,280,8.5,17.9,,,,,,,,,wg-a,,,,AAXX 16184 07661 12/65 72808 10130 20080 39990 40152 55004 60006 80006 91800 333 10179 20085=
07661,1996-04-17 00:00:00,12,1014,-0.8,94,11,15000,7.408,,,70,,,,,,,,,,,wg-a,,,,AAXX 17004 07661 12/65 00704 10120 20110 39978 40140 58008 60006 80000 90000=
07661,1996-04-17 06:00:00,12,1012.3,-0.5,88,10,0,14.816,,,80,10.4,13.3,,,,,,,,,wg-a,,,,AAXX 17064 07661 12/// /0808 10120 20100 39960 40123 56005 60006 90600 333 10133 20104=
07661,1996-04-17 12:00:00,12,1012.5,-0,88,10,6000,11.112,,,170,,,,1,,,,,,61,wg-a,,,,AAXX 17124 07661 02456 81706 10120 20100 39962 40125 55000 60016 76162 888// 91200 333 60017=
07661,1996-04-17 18:00:00,10,1014.4,1.4,93,9,12000,18.52,,,310,10.4,14.6,,1,,,,,,21,wg-a,,,,AAXX 17184 07661 12/62 83110 10100 20090 39980 40144 51014 60017 72162 887// 91800 333 10146 20104=
07661,1996-04-18 00:00:00,10,1014.9,-0.1,93,9,10000,14.816,,,320,,,,,,,,,,2,wg-a,,,,AAXX 18004 07661 02560 83208 10100 20090 39985 40149 58001 61000 70262 887// 90000 333 ////=
07661,1996-04-18 12:00:00,17,1018.1,0.3,68,11,20000,14.816,,,210,,,,,,,,,,,wg-a,,,,AAXX 18124 07661 12570 12108 10170 20110 30020 40181 50003 60006 81200 91200=
07661,1996-04-18 18:00:00,15,1018.8,0.4,63,8,20000,11.112,,,290,11.3,17.9,,,,,,,,,wg-a,,,,AAXX 18184 07661 12570 12906 10150 20080 30026 40188 53004 60006 81200 91800 333 10179 20113=
07661,1996-04-19 00:00:00,12,1020.6,0.3,88,10,25000,11.112,,,270,,,,,,,,,,,wg-a,,,,AAXX 19004 07661 12/75 02706 10120 20100 30042 40206 51003 60006 80000 90000=
07661,1996-04-19 06:00:00,12,1021.5,1.2,67,6,20000,3.704,,,280,10.1,14.5,,,,,,,,,wg-a,,,,AAXX 19064 07661 12/70 02802 10120 20060 30051 40215 53012 60006 80000 90600 333 10145 20101=
07661,1996-04-19 12:00:00,17,1022.5,0.3,72,12,18000,18.52,,,200,,,,,,,,,,,wg-a,,,,AAXX 19124 07661 12/68 02010 10170 20120 30064 40225 51003 60006 80000 91200=
07661,1996-04-19 18:00:00,14,1021.2,-0.7,72,9,35000,11.112,,,220,12.4,18.3,,,,,,,,,wg-a,,,,AAXX 19184 07661 12/81 32206 10140 20090 30049 40212 56007 60006 80001 91800 333 10183 20124=
07661,1996-04-20 00:00:00,12,1021.8,-0.2,62,5,20000,0,,,0,,,,,,,,,,,wg-a,,,,AAXX 20004 07661 12/70 00000 10120 20050 30054 40218 58002 60006 80000 90000=
07661,1996-04-20 06:00:00,12,1020.9,0.4,47,1,500,22.224,,,80,10.3,14.3,,,,,,,,,wg-a,,,,AAXX 20064 07661 12/00 00812 10120 20010 30045 40209 53004 60006 80000 90600 333 10143 20103=
07661,1996-04-20 12:00:00,17,1020.1,-1,68,11,25000,22.224,,,140,,,,,,,,,,,wg-a,,,,AAXX 20124 07661 12/75 31412 10170 20110 30040 40201 58010 60006 80004 91200=
07661,1996-04-20 18:00:00,15,1018.4,-0.8,72,10,20000,22.224,,,90,10.7,18.5,,,,,,,,,wg-a,,,,AAXX 20184 07661 12/70 40912 10150 20100 30022 40184 56008 60006 80004 91800 333 10185 20107=
07661,1996-04-21 00:00:00,11,1018.7,-0.5,71,6,15000,22.224,,,80,,,,,,,,,,,wg-a,,,,AAXX 21004 07661 12/65 00812 10110 20060 30023 40187 58005 60006 80000 90000=
07661,1996-04-21 06:00:00,13,1017.3,0.1,54,4,20000,25.928,,,80,10.4,14.5,,,,,,,,,wg-a,,,,AAXX 21064 07661 12/70 60814 10130 20040 30010 40173 53001 60006 84052 90600 333 10145 20104=
07661,1996-04-21 12:00:00,18,1016.8,-0.3,56,9,17000,31.484,,61.116,80,,,,,,,,,,,wg-a,,,,AAXX 21124 07661 12/67 60817 10180 20090 30008 40168 58003 60006 86050 91200 333 91033=
07661,1996-04-21 18:00:00,16,1015.8,-0.7,63,9,15000,38.892,,61.116,60,12.6,18,,,,,,,,,wg-a,,,,AAXX 21184 07661 12665 60621 10160 20090 39997 40158 56007 60006 81163 91800 333 10180 20126 91033=
07661,1996-04-22 06:00:00,14,1015.1,0.1,77,10,8000,38.892,,,70,13.7,16.2,,,,,,,,,wg-a,,,,AAXX 22064 07661 12/58 80721 10140 20100 39989 40151 53001 60006 8/070 90600 333 10162 20137=
07661,1996-04-22 12:00:00,16,1015.7,-0.2,72,11,7000,46.3,,75.932,80,,,,,,,,,,,wg-a,,,,AAXX 22124 07661 12857 80825 10160 20110 39996 40157 58002 60006 8502/ 91200 333 91041=
07661,1996-04-22 18:00:00,13,1014.3,-1.1,88,11,6000,50.004,,72.228,60,12.5,17,,1,,,,,,63,wg-a,,,,AAXX 22184 07661 12556 80627 10130 20110 39981 40143 58011 60017 76362 8372/ 91800 333 10170 20125 91039=
07661,1996-04-23 00:00:00,14,1013.6,-0.4,72,9,6000,46.3,,83.34,70,,,,,,,,,,21,wg-a,,,,AAXX 23004 07661 02556 50725 10140 20090 39974 40136 56004 61000 72122 82720 90000 333 6100 91045=
07661,1996-04-23 06:00:00,15,1012.2,-1.2,67,9,10000,53.708,,79.636,60,12.4,14.8,,,,,,,,,wg-a,,,,AAXX 23064 07661 32560 80629 10150 20090 39961 40122 56012 8357/ 90600 333 10148 20124 91043=
07661,1996-04-23 12:00:00,14,1014.6,-0,77,10,10000,42.596,,90.748,60,,,,1,,,,,,60,wg-a,,,,AAXX 23124 07661 02560 80623 10140 20100 39984 40146 54000 60016 76022 887// 91200 333 60017 91049=
07661,1996-04-23 18:00:00,13,1015.7,0.9,94,12,8000,31.484,,68.524,60,12.8,15,,,,,,,,60,wg-a,,,,AAXX 23184 07661 02/58 80617 10130 20120 39995 40157 51009 61000 76062 887// 91800 333 10150 20128 //// 91037=
07661,1996-04-24 00:00:00,13,1018.4,0.9,94,12,8000,14.816,,,290,,,,,,,,,,,wg-a,,,,AAXX 24004 07661 02458 72908 10130 20120 30021 40184 51009 61000 8277/ 90000 333 ////=
07661,1996-04-24 06:00:00,14,1017.9,0.6,88,12,18000,3.704,,,120,11.6,13.5,,,,,,,,,wg-a,,,,AAXX 24064 07661 32568 31202 10140 20120 30017 40179 51006 83800 90600 333 10135 20116=
07661,1996-04-24 12:00:00,17,1018.9,0.4,72,12,18000,11.112,,,200,,,,,,,,,,,wg-a,,,,AAXX 24124 07661 12/68 52006 10170 20120 30029 40189 50004 60006 80005 91200=
07661,1996-04-24 18:00:00,14,1018.9,0.4,88,12,12000,14.816,,,140,13.5,18.2,,,,,,,,,wg-a,,,,AAXX 24184 07661 12/62 21408 10140 20120 30027 40189 53004 60006 82021 91800 333 10182 20135=
07661,1996-04-25 00:00:00,13,1019,-0.6,94,12,12000,11.112,,,120,,,,,,,,,,,wg-a,,,,AAXX 25004 07661 12/62 31206 10130 20120 30027 40190 57006 60006 83301 90000=
07661,1996-04-25 06:00:00,14,1018.9,0.4,82,11,10000,7.408,,,20,12,14.2,,,,,,,,,wg-a,,,,AAXX 25064 07661 12860 70204 10140 20110 30026 40189 53004 60006 8707/ 90600 333 10142 20120=
07661,1996-04-25 12:00:00,16,1019.1,-0.1,77,12,10000,18.52,,,90,,,,,,,,,,,wg-a,,,,AAXX 25124 07661 12860 70910 10160 20120 30030 40191 58001 60006 8707/ 91200=
07661,1996-04-25 18:00:00,14,1018.7,-0.1,94,13,10000,11.112,,,100,13.5,18.3,,,,,,,,,wg-a,,,,AAXX 25184 07661 12560 81006 10140 20130 30025 40187 57001 60006 8387/ 91800 333 10183 20135=
07661,1996-04-26 00:00:00,13,1017.9,-1.5,94,12,10000,3.704,,,20,,,,,,,,,,21,wg-a,,,,AAXX 26004 07661 02560 70202 10130 20120 30017 40179 56015 61000 72162 8487/ 90000 333 6100=
07661,1996-04-26 06:00:00,13,1016.4,0.3,88,11,10000,14.816,,,60,12.4,14.4,,,,,,,,,wg-a,,,,AAXX 26064 07661 32860 80608 10130 20110 30002 40164 53003 8807/ 90600 333 10144 20124=
07661,1996-04-27 18:00:00,15,1010.8,0.4,72,10,18000,38.892,,,70,12.9,18,,,,,,,,,wg-a,,,,AAXX 27184 07661 12868 80721 10150 20100 39948 40108 53004 60006 8807/ 91800 333 10180 20129=
07661,1996-04-28 00:00:00,13,1010.8,-1,94,12,14000,25.928,,,50,,,,1,,,,,,60,wg-a,,,,AAXX 28004 07661 02864 80514 10130 20120 39946 40108 58010 60016 76062 8807/ 90000 333 60017=
07661,1996-04-28 06:00:00,12,1009.2,-0.2,100,12,10000,25.928,,,60,12.1,15.2,,3,,,,,,63,wg-a,,,,AAXX 28064 07661 12460 80614 10120 20120 39930 40092 55002 60037 76366 887// 90600 333 10152 20121=
07661,1996-04-28 12:00:00,13,1008,-0.9,100,13,10000,29.632,,,60,,,,2,,,,,,21,wg-a,,,,AAXX 28124 07661 02560 80616 10130 20130 39919 40080 58009 60076 72162 8/72/ 91200 333 60027=
07661,1996-04-28 18:00:00,13,1006,-0.8,94,12,6000,25.928,,,60,12.2,13.4,,4,,,,,,61,wg-a,,,,AAXX 28184 07661 12556 80614 10130 20120 39899 40060 57008 60047 76122 8/72/ 91800 333 10134 20122=
07661,1996-04-29 00:00:00,13,1005.6,-0.6,94,12,6000,29.632,,,60,,,,3,,,,,,61,wg-a,,,,AAXX 29004 07661 02556 80616 10130 20120 39895 40056 58006 60046 76162 8/72/ 90000 333 60037=
07661,1996-04-29 06:00:00,13,1004.9,0.2,100,13,2000,18.52,,,60,12.4,12.9,,3,,,,,,60,wg-a,,,,AAXX 29064 07661 12420 80610 10130 20130 39888 40049 53002 60037 76066 8372/ 90600 333 10129 20124=
07661,1996-04-29 12:00:00,14,1005.4,-0.2,100,14,500,14.816,,,120,,,,3,,,,,,60,wg-a,,,,AAXX 29124 07661 02400 81208 10140 20140 39894 40054 58002 60036 76061 8472/ 91200 333 60037=
07661,1996-04-29 18:00:00,14,1004.3,0,94,13,15000,7.408,,,120,12.5,15.8,,,,,,,,1,wg-a,,,,AAXX 29184 07661 32565 51204 10140 20130 39883 40043 50000 70162 82270 91800 333 10158 20125=
07661,1996-04-30 00:00:00,12,1005.3,-0.5,100,12,25000,0,,,0,,,,,,,,,,,wg-a,,,,AAXX 30004 07661 12875 10000 10120 20120 39892 40053 57005 60006 81260 90000=
07661,1996-04-30 06:00:00,11,1004.2,-0,100,11,15000,11.112,,,300,10.7,13.7,,,,,,,,,wg-a,,,,AAXX 30064 07661 32465 33006 10110 20110 39880 40042 55000 81670 90600 333 10137 20107=
07661,1996-04-30 12:00:00,18,1002.4,-1.2,73,13,16000,22.224,,,300,,,,,,,,,,,wg-a,,,,AAXX 30124 07661 12466 63012 10180 20130 39867 40024 58012 60006 83354 91200=
07661,1996-04-30 18:00:00,15,1001.9,0.2,82,12,12000,35.188,,,290,11.3,18.6,,,,,,,,,wg-a,,,,AAXX 30184 07661 12462 52919 10150 20120 39860 40019 53002 60006 83340 91800 333 10186 20113=
07661,1996-05-01 00:00:00,13,1003.2,-0,88,11,18000,22.224,,,290,,,,,,,,,,,wg-a,,,,AAXX 01004 07661 12/68 02912 10130 20110 39872 40032 54000 60006 80000 90000=
07661,1996-05-01 06:00:00,13,1002.8,-0.1,94,12,12000,0,,,0,12.3,15.4,,,,,,,,,wg-a,,,,AAXX 01064 07661 12462 50000 10130 20120 39868 40028 55001 60006 83601 90600 333 10154 20123=
07661,1996-05-01 12:00:00,18,1003.6,0.2,73,13,10000,11.112,,,200,,,,,,,,,,,wg-a,,,,AAXX 01124 07661 12460 72006 10180 20130 39878 40036 50002 60006 8382/ 91200=
07661,1996-05-01 18:00:00,15,1001.8,-0.8,94,14,10000,22.224,,,200,13.2,18,,,,,,,,,wg-a,,,,AAXX 01184 07661 12460 72012 10150 20140 39859 40018 58008 60006 8382/ 91800 333 10180 20132=
07661,1996-05-02 00:00:00,13,1002.9,-0.5,94,12,0,7.408,,,230,,,,,,,,,,,wg-a,,,,AAXX 02004 07661 12/// /2304 10130 20120 39869 40029 58005 60006 90000=
07661,1996-05-02 06:00:00,15,1002,-0,94,14,10000,14.816,,,150,12.7,15.1,,,,,,,,,wg-a,,,,AAXX 02064 07661 12560 61508 10150 20140 39861 40020 55000 60006 8387/ 90600 333 10151 20127=
07661,1996-05-02 12:00:00,18,1002.4,0.1,73,13,10000,14.816,,,220,,,,,,,,,,,wg-a,,,,AAXX 02124 07661 12560 72208 10180 20130 39866 40024 50001 60006 8227/ 91200=
07661,1996-05-02 18:00:00,14,1002.2,-0.3,82,11,12000,11.112,,,220,14,18.6,,,,,,,,,wg-a,,,,AAXX 02184 07661 12662 42206 10140 20110 39862 40022 56003 60006 84800 91800 333 10186 20140=
07661,1996-05-03 00:00:00,11,1002.8,-0.6,82,8,10000,22.224,,,280,,,,0,,,,,,21,wg-a,,,,AAXX 03004 07661 02560 62812 10110 20080 39867 40028 58006 60016 72162 86200 90000 333 60007=
07661,1996-05-03 06:00:00,11,1005.5,2.1,66,5,35000,18.52,,,300,9.8,14.2,,,,,,,,,wg-a,,,,AAXX 03064 07661 32/81 33010 10110 20050 39893 40055 53021 83800 90600 333 10142 20098=
07661,1996-05-03 12:00:00,16,1007.2,0.8,51,6,50000,29.632,,50.004,290,,,,,,,,,,,wg-a,,,,AAXX 03124 07661 12684 22916 10160 20060 39912 40072 51008 60006 82201 91200 333 91027=
07661,1996-05-03 18:00:00,15,1008.6,0.7,72,10,50000,11.112,,,270,11,17.2,,,,,,,,,wg-a,,,,AAXX 03184 07661 12784 32706 10150 20100 39926 40086 53007 60006 81504 91800 333 10172 20110=
07661,1996-05-04 00:00:00,11,1010.3,0.2,87,9,50000,11.112,,,350,,,,,,,,,,,wg-a,,,,AAXX 04004 07661 12/84 63506 10110 20090 39940 40103 52002 60006 86070 90000=
07661,1996-05-04 06:00:00,13,1011,0.6,77,9,0,7.408,,,350,9.5,14.6,,,,,,,,,wg-a,,,,AAXX 04064 07661 12/// /3504 10130 20090 39948 40110 52006 60006 90600 333 10146 20095=
07661,1996-05-04 12:00:00,18,1013.2,0.8,68,12,500,18.52,,,210,,,,,,,,,,,wg-a,,,,AAXX 04124 07661 12400 22110 10180 20120 39973 40132 52008 60006 82200 91200=
07661,1996-05-04 18:00:00,16,1013.7,0.5,68,10,500,11.112,,,220,12.8,18.5,,,,,,,,,wg-a,,,,AAXX 04184 07661 12/00 02206 10160 20100 39976 40137 53005 60006 80000 91800 333 10185 20128=
07661,1996-05-05 00:00:00,12,1015.4,0.3,82,9,500,18.52,,,80,,,,,,,,,,,wg-a,,,,AAXX 05004 07661 12/00 00810 10120 20090 39991 40154 51003 60006 80000 90000=
07661,1996-05-05 06:00:00,11,1014.7,0.4,87,9,20000,14.816,,,70,9.4,15.4,,,,,,,,,wg-a,,,,AAXX 05064 07661 12870 50708 10110 20090 39984 40147 53004 60006 85030 90600 333 10154 20094=
07661,1996-05-05 12:00:00,17,1014.2,-0.8,77,13,25000,18.52,,,110,,,,,,,,,,,wg-a,,,,AAXX 05124 07661 12675 61110 10170 20130 39982 40142 58008 60006 83130 91200=
07661,1996-05-05 18:00:00,15,1013.4,-0.1,88,13,500,11.112,,,120,11.3,17.9,,,,,,,,2,wg-a,,,,AAXX 05184 07661 02/00 51206 10150 20130 39973 40134 55001 61000 70262 85030 91800 333 10179 20113 ////=
07661,1996-05-06 00:00:00,13,1014.1,0.1,88,11,25000,7.408,,,100,,,,,,,,,,,wg-a,,,,AAXX 06004 07661 12/75 31004 10130 20110 39979 40141 53001 60006 83030 90000=
07661,1996-05-06 06:00:00,13,1013.1,0.6,82,10,500,11.112,,,80,11.2,14.7,,,,,,,,,wg-a,,,,AAXX 06064 07661 12/00 60806 10130 20100 39969 40131 53006 60006 86070 90600 333 10147 20112=
07661,1996-05-06 12:00:00,19,1012.9,-0.1,64,12,35000,11.112,,,140,,,,,,,,,,,wg-a,,,,AAXX 06124 07661 12781 51406 10190 20120 39970 40129 58001 60006 82270 91200=
07661,1996-05-06 18:00:00,16,1011.6,-0.3,82,13,35000,7.408,,,170,12.9,19.1,,,,,,,,,wg-a,,,,AAXX 06184 07661 12681 31704 10160 20130 39956 40116 55003 60006 81240 91800 333 10191 20129=
07661,1996-05-07 00:00:00,12,1010.8,-1.1,94,11,500,25.928,,,80,,,,,,,,,,,wg-a,,,,AAXX 07004 07661 12/00 10814 10120 20110 39946 40108 58011 60006 81040 90000=
07661,1996-05-07 06:00:00,13,1010.7,0.3,88,11,500,18.52,,,70,12,16.1,,,,,,,,,wg-a,,,,AAXX 07064 07661 12/00 70710 10130 20110 39945 40107 50003 60006 8407/ 90600 333 10161 20120=
07661,1996-05-07 12:00:00,16,1010.8,0.2,82,13,15000,25.928,,,90,,,,1,,,,,,60,wg-a,,,,AAXX 07124 07661 02565 80914 10160 20130 39948 40108 50002 60016 76062 8472/ 91200 333 60017=
07661,1996-05-07 18:00:00,16,1011.2,0.1,94,15,15000,18.52,,,100,13,18.3,,,,,,,,2,wg-a,,,,AAXX 07184 07661 32/65 61010 10160 20150 39952 40112 53001 70262 84022 91800 333 10183 20130=
07661,1996-05-08 00:00:00,15,1012.2,0,94,14,15000,22.224,,,80,,,,,,,,,,,wg-a,,,,AAXX 08004 07661 12/65 60812 10150 20140 39961 40122 50000 60006 84022 90000=
07661,1996-05-08 06:00:00,15,1011.7,0.4,100,15,6000,14.816,,,150,14.6,15.5,,2,,,,,,91,wg-a,,,,AAXX 08064 07661 12656 81508 10150 20150 39957 40117 53004 60027 79196 8634/ 90600 333 10155 20146=
07661,1996-05-08 12:00:00,18,1012.3,0,73,13,15000,7.408,,,190,,,,,,,,,,1,wg-a,,,,AAXX 08124 07661 02765 61904 10180 20130 39964 40123 50000 61000 70162 85270 91200 333 ////=
07661,1996-05-08 18:00:00,17,1011.2,-0.5,77,13,500,3.704,,,180,14.1,20.1,,,,,,,,,wg-a,,,,AAXX 08184 07661 32600 21802 10170 20130 39953 40112 55005 82300 91800 333 10201 20141=
07661,1996-05-09 00:00:00,13,1010.1,-1.5,94,12,20000,7.408,,,80,,,,,,,,,,,wg-a,,,,AAXX 09004 07661 12170 40804 10130 20120 39939 40101 58015 60006 82840 90000=
07661,1996-05-09 06:00:00,14,1008.5,-0.2,94,13,25000,7.408,,,290,12.6,17.2,,,,,,,,,wg-a,,,,AAXX 09064 07661 12775 62904 10140 20130 39924 40085 56002 60006 86800 90600 333 10172 20126=
07661,1996-05-09 12:00:00,20,1005.8,-1.5,68,14,25000,29.632,,,240,,,,,,,,,,,wg-a,,,,AAXX 09124 07661 12675 32416 10200 20140 39901 40058 56015 60006 83200 91200=
07661,1996-05-09 18:00:00,16,1005,-0.2,88,14,25000,25.928,,53.708,290,14,20.2,,,,,,,,,wg-a,,,,AAXX 09184 07661 12475 62914 10160 20140 39891 40050 56002 60006 83963 91800 333 10202 20140 91029=
07661,1996-05-10 00:00:00,13,1004.5,-1.2,88,11,15000,18.52,,,280,,,,,,,,,,,wg-a,,,,AAXX 10004 07661 12/65 02810 10130 20110 39885 40045 58012 60006 80000 90000=
07661,1996-05-10 06:00:00,12,1003.7,-0.1,94,11,12000,11.112,,,70,11.3,16.3,,,,,,,,,wg-a,,,,AAXX 10064 07661 12562 50706 10120 20110 39876 40037 55001 60006 85600 90600 333 10163 20113=
07661,1996-05-10 12:00:00,18,1004,0.1,68,12,12000,11.112,,,200,,,,,,,,,,,wg-a,,,,AAXX 10124 07661 12562 52006 10180 20120 39882 40040 52001 60006 85600 91200=
07661,1996-05-10 18:00:00,15,1004.8,0.8,82,12,10000,3.704,,,140,12.2,18.3,,,,,,,,,wg-a,,,,AAXX 10184 07661 12560 61402 10150 20120 39889 40048 53008 60006 82304 91800 333 10183 20122=
07661,1996-05-11 00:00:00,13,1005.9,-0.2,94,12,10000,3.704,,,50,,,,,,,,,,,wg-a,,,,AAXX 11004 07661 12/60 00502 10130 20120 39898 40059 58002 60006 80000 90000=
07661,1996-05-11 06:00:00,13,1005.9,0.5,94,12,12000,18.52,,,80,11.5,15.1,,0,,,,,,,wg-a,,,,AAXX 11064 07661 12/62 50810 10130 20120 39898 40059 53005 60007 83072 90600 333 10151 20115=
07661,1996-05-11 12:00:00,19,1005.7,-0.1,73,14,15000,22.224,,,220,,,,,,,,,,,wg-a,,,,AAXX 11124 07661 12665 42212 10190 20140 39900 40057 58001 60006 82202 91200=
07661,1996-05-11 18:00:00,17,1006.7,1.2,77,13,10000,18.52,,,240,12.9,20.8,,,,,,,,,wg-a,,,,AAXX 11184 07661 12660 32410 10170 20130 39908 40067 52012 60006 82360 91800 333 10208 20129=
07661,1996-05-12 00:00:00,14,1006,-1,88,12,10000,3.704,,,320,,,,,,,,,,,wg-a,,,,AAXX 12004 07661 12/60 03202 10140 20120 39900 40060 58010 60006 80000 90000=
07661,1996-05-12 06:00:00,14,1006,0.6,88,12,15000,3.704,,,320,12.2,16.4,,,,,,,,,wg-a,,,,AAXX 12064 07661 12/65 43202 10140 20120 39900 40060 53006 60006 80008 90600 333 10164 20122=
07661,1996-05-12 12:00:00,19,1005.5,-0.9,60,11,15000,31.484,,,290,,,,,,,,,,,wg-a,,,,AAXX 12124 07661 12665 82917 10190 20110 39898 40055 58009 60006 83307 91200=
07661,1996-05-12 18:00:00,15,1005.8,1,59,7,20000,53.708,,94.452,300,13.6,19.8,,,,,,,,,wg-a,,,,AAXX 12184 07661 12470 83029 10150 20070 39898 40058 51010 60006 8112/ 91800 333 10198 20136 91051=
07661,1996-05-13 00:00:00,14,1008.6,1,58,6,20000,38.892,,79.636,300,,,,,,,,,,,wg-a,,,,AAXX 13004 07661 12/70 33021 10140 20060 39925 40086 53010 60006 83040 90000 333 91043=
07661,1996-05-13 06:00:00,12,1010.2,0.6,71,7,25000,31.484,,,300,12.1,15.4,,,,,,,,,wg-a,,,,AAXX 13064 07661 12/75 43017 10120 20070 39940 40102 53006 60006 84040 90600 333 10154 20121=
07661,1996-05-13 12:00:00,19,1010.8,0.1,52,9,20000,22.224,,,290,,,,,,,,,,,wg-a,,,,AAXX 13124 07661 12/70 42912 10190 20090 39950 40108 51001 60006 84040 91200=
07661,1996-05-14 06:00:00,15,1011.4,-0.2,72,10,15000,14.816,,,70,12.2,18.4,,,,,,,,,wg-a,,,,AAXX 14064 07661 12/65 00708 10150 20100 39953 40114 56002 60006 80000 90600 333 10184 20122=
07661,1996-05-14 18:00:00,17,1009.2,-0.8,72,12,12000,18.52,,,250,14.7,19.8,,,,,,,,,wg-a,,,,AAXX 14184 07661 12/62 32510 10170 20120 39933 40092 58008 60006 80008 91800 333 10198 20147=
07661,1996-05-15 00:00:00,14,1008.9,-0.9,94,13,12000,25.928,,,290,,,,,,,,,,,wg-a,,,,AAXX 15004 07661 12/62 02914 10140 20130 39928 40089 56009 60006 80000 90000=
07661,1996-05-15 06:00:00,14,1009.9,0.5,88,12,10000,18.52,,,70,12.2,16.8,,,,,,,,,wg-a,,,,AAXX 15064 07661 12/60 30710 10140 20120 39938 40099 53005 60006 80008 90600 333 10168 20122=
07661,1996-05-15 12:00:00,18,1010.3,-0.2,77,14,8000,22.224,,,220,,,,,,,,,,,wg-a,,,,AAXX 15124 07661 12658 32212 10180 20140 39945 40103 58002 60006 81151 91200=
07661,1996-05-15 18:00:00,17,1009.9,-0,77,13,8000,22.224,,,280,13.8,20,,,,,,,,,wg-a,,,,AAXX 15184 07661 12/58 02812 10170 20130 39940 40099 54000 60006 80000 91800 333 10200 20138=
07661,1996-05-16 00:00:00,14,1011.7,0.5,94,13,10000,22.224,,,270,,,,,,,,,,,wg-a,,,,AAXX 16004 07661 12660 12712 10140 20130 39956 40117 53005 60006 81520 90000=
07661,1996-05-16 06:00:00,14,1013.1,1.4,82,11,8000,3.704,,,280,12.4,16.4,,0,,,,,,,wg-a,,,,AAXX 16064 07661 12458 32802 10140 20110 39970 40131 53014 60007 83600 90600 333 10164 20124=
07661,1996-05-16 12:00:00,19,1013.8,0.2,68,13,15000,7.408,,,170,,,,,,,,,,,wg-a,,,,AAXX 16124 07661 12565 21704 10190 20130 39979 40138 50002 60006 82400 91200=
07661,1996-05-16 18:00:00,16,1013.4,-0.5,82,13,15000,7.408,,,110,14.1,20.2,,,,,,,,,wg-a,,,,AAXX 16184 07661 12/65 01104 10160 20130 39974 40134 55005 60006 80000 91800 333 10202 20141=
07661,1996-05-17 00:00:00,13,1013.7,-0.5,88,11,15000,22.224,,,60,,,,,,,,,,,wg-a,,,,AAXX 17004 07661 12/65 00612 10130 20110 39975 40137 57005 60006 80000 90000=
07661,1996-05-17 06:00:00,14,1012.8,-0.2,77,10,14000,25.928,,,70,11.1,15.7,,,,,,,,,wg-a,,,,AAXX 17064 07661 12/64 00714 10140 20100 39967 40128 57002 60006 80000 90600 333 10157 20111=
07661,1996-05-17 12:00:00,18,1012.1,0.5,77,14,15000,29.632,,,90,,,,,,,,,,,wg-a,,,,AAXX 17124 07661 12/65 60916 10180 20140 39962 40121 51005 60006 80006 91200=
07661,1996-05-17 18:00:00,17,1010.1,-1.2,82,14,15000,25.928,,,90,14.1,18.6,,,,,,,,,wg-a,,,,AAXX 17184 07661 12/65 40914 10170 20140 39942 40101 56012 60006 80004 91800 333 10186 20141=
07661,1996-05-18 00:00:00,16,1011.1,0,100,16,8000,25.928,,,80,,,,,,,,,,,wg-a,,,,AAXX 18004 07661 12858 70814 10160 20160 39951 40111 50000 60006 8707/ 90000=
07661,1996-05-18 06:00:00,16,1009.9,-0,100,16,8000,25.928,,,100,15.6,16.9,,,,,,,,,wg-a,,,,AAXX 18064 07661 12858 71014 10160 20160 39940 40099 55000 60006 8707/ 90600 333 10169 20156=
07661,1996-05-18 12:00:00,18,1010.4,0.1,88,16,10000,22.224,,,100,,,,,,,,,,,wg-a,,,,AAXX 18124 07661 12560 81012 10180 20160 39945 40104 50001 60006 888// 91200=
07661,1996-05-18 18:00:00,16,1009.3,-0.2,94,15,8000,18.52,,,130,16.3,18.9,,,,,,,,,wg-a,,,,AAXX 18184 07661 12458 81310 10160 20150 39934 40093 57002 60006 886// 91800 333 10189 20163=
07661,1996-05-19 00:00:00,15,1009.7,-1.1,100,15,8000,22.224,,,80,,,,,,,,,,,wg-a,,,,AAXX 19004 07661 12558 30812 10150 20150 39937 40097 57011 60006 831// 90000=
07661,1996-05-19 06:00:00,15,1009,0.3,100,15,8000,25.928,,,60,14.7,16.3,,,,,,,,,wg-a,,,,AAXX 19064 07661 12458 80614 10150 20150 39930 40090 53003 60006 886// 90600 333 10163 20147=
07661,1996-05-19 12:00:00,19,1009.3,-0,88,17,8000,18.52,,,190,,,,,,,,,,,wg-a,,,,AAXX 19124 07661 12458 81910 10190 20170 39935 40093 54000 60006 8/72/ 91200=
07661,1996-05-19 18:00:00,17,1009.3,-0.4,72,12,10000,22.224,,,290,15.3,20.7,,,,,,,,,wg-a,,,,AAXX 19184 07661 32/60 02912 10170 20120 39934 40093 56004 80000 91800 333 10207 20153=
07661,1996-05-20 00:00:00,14,1012.1,0.5,94,13,10000,14.816,,,270,,,,,,,,,,,wg-a,,,,AAXX 20004 07661 12/60 02708 10140 20130 39960 40121 51005 60006 80000 90000=
07661,1996-05-20 06:00:00,14,1012.8,0.7,88,12,20000,11.112,,,300,12.7,17.1,,,,,,,,,wg-a,,,,AAXX 20064 07661 12870 33006 10140 20120 39967 40128 52007 60006 83040 90600 333 10171 20127=
07661,1996-05-20 12:00:00,19,1014.7,0.4,49,8,25000,35.188,,57.412,280,,,,,,,,,,,wg-a,,,,AAXX 20124 07661 12575 32819 10190 20080 39988 40147 51004 60006 83300 91200 333 91031=
07661,1996-05-20 18:00:00,18,1016.4,1.2,56,9,500,38.892,,72.228,290,14.2,19.7,,,,,,,,,wg-a,,,,AAXX 20184 07661 12/00 02921 10180 20090 30004 40164 53012 60006 80000 91800 333 10197 20142 91039=
07661,1996-05-21 00:00:00,14,1019.6,0.5,88,12,10000,18.52,,64.82,300,,,,,,,,,,,wg-a,,,,AAXX 21004 07661 12/60 03010 10140 20120 30034 40196 50005 60006 80000 90000 333 91035=
07661,1996-05-21 06:00:00,15,1021.2,1.3,67,9,28000,18.52,,,290,13.8,17.5,,,,,,,,,wg-a,,,,AAXX 21064 07661 12/78 32910 10150 20090 30050 40212 53013 60006 80001 90600 333 10175 20138=
07661,1996-05-21 12:00:00,19,1021.4,-0.1,49,8,0,42.596,,,290,,,,,,,,,,,wg-a,,,,AAXX 21124 07661 12/// /2923 10190 20080 30054 40214 58001 60006 91200=
07661,1996-05-21 18:00:00,17,1021.3,0.1,72,12,40000,42.596,,75.932,290,14.8,19.7,,,,,,,,,wg-a,,,,AAXX 21184 07661 12/82 32923 10170 20120 30052 40213 53001 60006 80001 91800 333 10197 20148 91041=
07661,1996-05-22 00:00:00,16,1022.6,-0.1,51,6,35000,31.484,,68.524,300,,,,,,,,,,,wg-a,,,,AAXX 22004 07661 12/81 23017 10160 20060 30064 40226 58001 60006 82025 90000 333 91037=
07661,1996-05-22 06:00:00,14,1022.1,-0,58,6,40000,29.632,,,300,12.9,17.4,,,,,,,,,wg-a,,,,AAXX 22064 07661 12/82 23016 10140 20060 30058 40221 54000 60006 80001 90600 333 10174 20129=
07661,1996-05-22 12:00:00,21,1022,0,40,7,40000,25.928,,,280,,,,,,,,,,,wg-a,,,,AAXX 22124 07661 12/82 02814 10210 20070 30061 40220 50000 60006 80000 91200=
07661,1996-05-22 18:00:00,17,1021.9,-0.9,59,9,40000,42.596,,61.116,290,13.8,22.1,,,,,,,,,wg-a,,,,AAXX 22184 07661 12/82 22923 10170 20090 30058 40219 56009 60006 80001 91800 333 10221 20138 91033=
07661,1996-05-23 00:00:00,15,1023.2,-0.7,67,9,20000,25.928,,,280,,,,,,,,,,,wg-a,,,,AAXX 23004 07661 12/70 02814 10150 20090 30070 40232 56007 60006 80000 90000=
07661,1996-05-23 06:00:00,17,1021.6,-0.2,48,6,500,29.632,,,300,14.4,17.2,,,,,,,,,wg-a,,,,AAXX 23064 07661 12/00 33016 10170 20060 30055 40216 55002 60006 81032 90600 333 10172 20144=
07661,1996-05-23 12:00:00,19,1021.6,0.5,73,14,500,18.52,,,110,,,,,,,,,,,wg-a,,,,AAXX 23124 07661 12/00 31110 10190 20140 30056 40216 51005 60006 80002 91200=
07661,1996-05-23 18:00:00,17,1021.3,-0,88,15,500,11.112,,,140,16.7,22.7,,,,,,,,,wg-a,,,,AAXX 23184 07661 12/00 51406 10170 20150 30052 40213 55000 60006 81012 91800 333 10227 20167=
07661,1996-05-24 00:00:00,14,1021.5,-0.7,94,13,20000,22.224,,,80,,,,,,,,,,,wg-a,,,,AAXX 24004 07661 12/70 00812 10140 20130 30053 40215 58007 60006 80000 90000=
07661,1996-05-24 06:00:00,16,1020.4,0.1,82,13,20000,29.632,,,60,13.2,16.9,,,,,,,,,wg-a,,,,AAXX 24064 07661 12/70 00616 10160 20130 30043 40204 51001 60006 80000 90600 333 10169 20132=
07661,1996-05-24 12:00:00,20,1020.5,-0.1,73,15,20000,22.224,,,140,,,,,,,,,,,wg-a,,,,AAXX 24124 07661 12570 11412 10200 20150 30046 40205 57001 60006 81200 91200=
07661,1996-05-24 18:00:00,17,1019.2,-0.8,88,15,500,18.52,,,130,16.5,20,,,,,,,,,wg-a,,,,AAXX 24184 07661 12400 11310 10170 20150 30031 40192 56008 60006 81100 91800 333 10200 20165=
07661,1996-05-25 00:00:00,14,1019.2,-1.1,100,14,20000,11.112,,,80,,,,,,,,,,,wg-a,,,,AAXX 25004 07661 12/70 00806 10140 20140 30030 40192 56011 60006 80000 90000=
07661,1996-05-25 06:00:00,14,1018.4,-0.2,88,12,2000,11.112,,,90,12.3,16.9,,,,,,,,,wg-a,,,,AAXX 25064 07661 12220 30906 10140 20120 30022 40184 55002 60006 83600 90600 333 10169 20123=
07661,1996-05-25 12:00:00,21,1018,-0,73,16,20000,25.928,,,220,,,,,,,,,,,wg-a,,,,AAXX 25124 07661 12570 42214 10210 20160 30022 40180 55000 60006 82344 91200=
07661,1996-05-25 18:00:00,17,1018,0.1,82,14,20000,18.52,,,290,14.2,21.7,,,,,,,,,wg-a,,,,AAXX 25184 07661 12/70 72910 10170 20140 30020 40180 53001 60006 86714 91800 333 10217 20142=
07661,1996-05-26 00:00:00,15,1017.2,-0.9,94,14,25000,18.52,,,300,,,,,,,,,,,wg-a,,,,AAXX 26004 07661 12/75 23010 10150 20140 30011 40172 58009 60006 82710 90000=
07661,1996-05-26 06:00:00,18,1016.4,0.3,77,14,25000,38.892,,,290,15.2,18,,,,,,,,,wg-a,,,,AAXX 26064 07661 12/75 62921 10180 20140 30004 40164 53003 60006 84042 90600 333 10180 20152=
07661,1996-05-26 12:00:00,21,1016.2,-0.8,60,13,20000,53.708,,79.636,290,,,,,,,,,,,wg-a,,,,AAXX 26124 07661 12470 52929 10210 20130 30004 40162 58008 60006 82208 91200 333 91043=
07661,1996-05-26 18:00:00,19,1016.1,0.3,68,13,25000,50.004,,96.304,290,17.9,21.9,,,,,,,,,wg-a,,,,AAXX 26184 07661 12/75 02927 10190 20130 30002 40161 53003 60006 80000 91800 333 10219 20179 91052=
07661,1996-05-27 00:00:00,19,1016.4,-0.5,64,12,20000,22.224,,68.524,290,,,,,,,,,,,wg-a,,,,AAXX 27004 07661 12/70 02912 10190 20120 30005 40164 58005 60006 80000 90000 333 91037=
07661,1996-05-27 06:00:00,18,1016.3,1,68,12,500,42.596,,79.636,300,18,20.1,,,,,,,,,wg-a,,,,AAXX 27064 07661 12/00 33023 10180 20120 30003 40163 53010 60006 83070 90600 333 10201 20180 91043=
07661,1996-05-27 12:00:00,21,1012.5,-2.5,56,12,25000,72.228,,103.712,290,,,,,,,,,,,wg-a,,,,AAXX 27124 07661 12575 32939 10210 20120 39967 40125 56025 60006 81108 91200 333 91056=
07661,1996-05-27 18:00:00,22,1011.2,1,38,7,35000,64.82,,118.528,300,17.6,23,,,,,,,,,wg-a,,,,AAXX 27184 07661 12/81 43035 10220 20070 39955 40112 53010 60006 82032 91800 333 10230 20176 91064=
07661,1996-05-28 00:00:00,17,1013.8,0.5,55,8,500,57.412,,107.416,310,,,,,,,,,,,wg-a,,,,AAXX 28004 07661 12/00 /3131 10170 20080 39978 40138 51005 60006 90000 333 91058=
07661,1996-05-28 06:00:00,16,1012.1,-0.7,55,7,50000,64.82,,94.452,300,15.1,22,,,,,,,,,wg-a,,,,AAXX 28064 07661 12/84 63035 10160 20070 39961 40121 58007 60006 82032 90600 333 10220 20151 91051=
07661,1996-05-28 12:00:00,24,1012.5,-0.6,38,9,40000,31.484,,90.748,290,,,,,,,,,,,wg-a,,,,AAXX 28124 07661 12/82 42917 10240 20090 39969 40125 58006 60006 80008 91200 333 91049=
07661,1996-05-28 18:00:00,23,1012.1,0.2,38,8,35000,25.928,,,300,15.8,26.8,,,,,,,,,wg-a,,,,AAXX 28184 07661 12/81 43014 10230 20080 39965 40121 53002 60006 80008 91800 333 10268 20158=
07661,1996-05-29 00:00:00,18,1015.2,0.7,45,6,20000,22.224,,,60,,,,,,,,,,,wg-a,,,,AAXX 29004 07661 12/70 40612 10180 20060 39992 40152 51007 60006 80008 90000=
07661,1996-05-29 06:00:00,18,1017,1.5,49,7,50000,22.224,,,80,15.7,23.2,,,,,,,,,wg-a,,,,AAXX 29064 07661 12/84 00812 10180 20070 30010 40170 53015 60006 80000 90600 333 10232 20157=
07661,1996-05-29 12:00:00,21,1018.6,0.2,64,14,40000,22.224,,,140,,,,,,,,,,,wg-a,,,,AAXX 29124 07661 12/82 01412 10210 20140 30028 40186 50002 60006 80000 91200=
07661,1996-05-29 18:00:00,21,1019.4,0.3,46,9,500,0,,,0,17.8,22.7,,,,,,,,,wg-a,,,,AAXX 29184 07661 12/00 00000 10210 20090 30035 40194 53003 60006 80000 91800 333 10227 20178=
07661,1996-05-30 00:00:00,19,1020.8,0.2,24,-2,500,14.816,,,60,,,,,,,,,,,wg-a,,,,AAXX 30004 07661 12/00 00608 10190 21020 30048 40208 52002 60006 80000 90000=
07661,1996-05-30 06:00:00,18,1021.6,1.1,37,3,500,18.52,,,70,14.4,21.7,,,,,,,,,wg-a,,,,AAXX 30064 07661 12/00 00710 10180 20030 30055 40216 51011 60006 80000 90600 333 10217 20144=
07661,1996-05-30 12:00:00,22,1022.4,0.3,43,9,500,22.224,,,150,,,,,,,,,,,wg-a,,,,AAXX 30124 07661 12/00 01512 10220 20090 30065 40224 50003 60006 80000 91200=
07661,1996-05-30 18:00:00,21,1022,-0.1,35,5,500,7.408,,,120,17.9,24.4,,,,,,,,,wg-a,,,,AAXX 30184 07661 12/00 01204 10210 20050 30060 40220 55001 60006 80000 91800 333 10244 20179=
07661,1996-05-31 00:00:00,16,1022.5,-0.4,42,3,500,14.816,,,80,,,,,,,,,,,wg-a,,,,AAXX 31004 07661 12/00 00808 10160 20030 30063 40225 58004 60006 80000 90000=
07661,1996-05-31 06:00:00,18,1023.1,1.1,49,7,500,7.408,,,80,14.6,20.4,,,,,,,,,wg-a,,,,AAXX 31064 07661 12/00 00804 10180 20070 30070 40231 53011 60006 80000 90600 333 10204 20146=
07661,1996-05-31 12:00:00,21,1022.8,-0.7,64,14,500,14.816,,,220,,,,,,,,,,,wg-a,,,,AAXX 31124 07661 12/00 02208 10210 20140 30069 40228 58007 60006 80000 91200=
07661,1996-05-31 18:00:00,19,1021.7,-0.4,78,15,25000,7.408,,,230,18,21.7,,,,,,,,,wg-a,,,,AAXX 31184 07661 12/75 12304 10190 20150 30057 40217 57004 60006 80001 91800 333 10217 20180=
07661,1996-06-01 00:00:00,15,1022.4,-0.5,100,15,10000,22.224,,,290,,,,,,,,,,,wg-a,,,,AAXX 01004 07661 12/60 12912 10150 20150 30062 40224 58005 60006 80001 90000=
07661,1996-06-01 06:00:00,17,1021,-0.6,77,13,15000,3.704,,,50,14.1,18.7,,,,,,,,,wg-a,,,,AAXX 01064 07661 32/65 20502 10170 20130 30049 40210 56006 80002 90600 333 10187 20141=
07661,1996-06-01 12:00:00,21,1020.3,-0.8,73,16,0,18.52,,,210,,,,,,,,,,,wg-a,,,,AAXX 01124 07661 12/// /2110 10210 20160 30045 40203 56008 60006 91200=
07661,1996-06-01 18:00:00,19,1019,-0.5,83,16,10000,11.112,,,220,16.6,21.9,,,,,,,,,wg-a,,,,AAXX 01184 07661 12460 32206 10190 20160 30031 40190 57005 60006 82802 91800 333 10219 20166=
07661,1996-06-02 00:00:00,16,1017.9,-1,94,15,10000,3.704,,,140,,,,,,,,,,,wg-a,,,,AAXX 02004 07661 12/60 71402 10160 20150 30018 40179 56010 60006 8707/ 90000=
07661,1996-06-02 06:00:00,17,1015.5,-0.2,88,15,10000,14.816,,,60,15.8,19.3,,,,,,,,,wg-a,,,,AAXX 02064 07661 12560 80608 10170 20150 39995 40155 58002 60006 888// 90600 333 10193 20158=
07661,1996-06-02 12:00:00,19,1014.7,-0.1,78,15,15000,22.224,,,150,,,,,,,,,,,wg-a,,,,AAXX 02124 07661 12565 71512 10190 20150 39988 40147 58001 60006 8686/ 91200=
07661,1996-06-02 18:00:00,16,1013.6,-0.7,100,16,8000,14.816,,,60,16,20.3,,2,,,,,,61,wg-a,,,,AAXX 02184 07661 12458 80608 10160 20160 39976 40136 56007 60027 76162 888// 91800 333 10203 20160=
07661,1996-06-03 00:00:00,15,1013.2,-0.5,94,14,20000,7.408,,,340,,,,,,,,,,,wg-a,,,,AAXX 03004 07661 12470 83404 10150 20140 39971 40132 58005 60006 888// 90000=
07661,1996-06-03 06:00:00,15,1013,0.7,94,14,10000,22.224,,,60,14.6,16.1,,0,,,,,,21,wg-a,,,,AAXX 03064 07661 12460 80612 10150 20140 39969 40130 53007 60007 72162 888// 90600 333 10161 20146=
07661,1996-06-03 12:00:00,17,1015.1,0.8,100,17,500,29.632,,,50,,,,10,,,,,,21,wg-a,,,,AAXX 03124 07661 02500 80516 10170 20170 39991 40151 53008 60236 72166 8372/ 91200 333 60107=
07661,1996-06-03 18:00:00,17,1017,0.9,88,15,500,25.928,,,60,15,18.4,,,,,,,,2,wg-a,,,,AAXX 03184 07661 02500 80614 10170 20150 30010 40170 53009 61000 70262 8482/ 91800 333 10184 20150 ////=
07661,1996-06-04 00:00:00,18,1018.1,0,77,14,500,14.816,,,10,,,,,,,,,,61,wg-a,,,,AAXX 04004 07661 02500 80108 10180 20140 30021 40181 50000 60026 76122 8282/ 90000 333 61000=
07661,1996-06-04 06:00:00,18,1019.5,1,77,14,25000,22.224,,,60,15.5,18,,,,,,,,1,wg-a,,,,AAXX 04064 07661 02/75 60612 10180 20140 30035 40195 51010 61000 70162 86040 90600 333 10180 20155 ////=
07661,1996-06-04 12:00:00,25,1019.7,-0.3,50,14,25000,11.112,,,240,,,,,,,,,,,wg-a,,,,AAXX 04124 07661 12/75 52406 10250 20140 30040 40197 58003 60006 8/040 91200=
07661,1996-06-04 18:00:00,23,1020.1,0.2,44,10,25000,14.816,,,110,17.9,26.5,,,,,,,,,wg-a,,,,AAXX 04184 07661 12/75 11108 10230 20100 30043 40201 53002 60006 80001 91800 333 10265 20179=
07661,1996-06-05 00:00:00,18,1021.3,0.6,77,14,25000,18.52,,,80,,,,,,,,,,,wg-a,,,,AAXX 05004 07661 12/75 10810 10180 20140 30053 40213 50006 60006 80001 90000=
07661,1996-06-05 06:00:00,22,1021.1,0.5,60,14,25000,7.408,,,30,16.9,23.4,,,,,,,,,wg-a,,,,AAXX 05064 07661 12/75 00304 10220 20140 30053 40211 51005 60006 80000 90600 333 10234 20169=
07661,1996-06-05 12:00:00,27,1021.3,0,42,13,25000,14.816,,,150,,,,,,,,,,,wg-a,,,,AAXX 05124 07661 12675 31508 10270 20130 30057 40213 50000 60006 83200 91200=
07661,1996-06-05 18:00:00,25,1021.2,-0.2,47,13,20000,11.112,,,120,21.1,28.7,,,,,,,,,wg-a,,,,AAXX 05184 07661 12670 51206 10250 20130 30055 40212 56002 60006 85400 91800 333 10287 20211=
07661,1996-06-06 00:00:00,22,1021.4,-0.3,60,14,25000,14.816,,,60,,,,,,,,,,,wg-a,,,,AAXX 06004 07661 12/75 00608 10220 20140 30056 40214 58003 60006 80000 90000=
07661,1996-06-06 06:00:00,21,1021.6,0.5,69,15,20000,18.52,,,60,19.4,24.5,,,,,,,,,wg-a,,,,AAXX 06064 07661 12/70 00610 10210 20150 30057 40216 51005 60006 80000 90600 333 10245 20194=
07661,1996-06-06 12:00:00,27,1022,-0.4,48,15,20000,14.816,,,150,,,,,,,,,,,wg-a,,,,AAXX 06124 07661 12/70 01508 10270 20150 30064 40220 58004 60006 80000 91200=
07661,1996-06-06 18:00:00,24,1021.5,-0.4,54,14,12000,11.112,,,140,20.9,27.2,,,,,,,,,wg-a,,,,AAXX 06184 07661 12/62 31406 10240 20140 30058 40215 56004 60006 81062 91800 333 10272 20209=
07661,1996-06-07 00:00:00,21,1021.5,-0.7,69,15,7000,7.408,,,290,,,,,,,,,,,wg-a,,,,AAXX 07004 07661 12/57 02904 10210 20150 30056 40215 58007 60006 80000 90000=
07661,1996-06-07 06:00:00,21,1022.4,0.7,73,16,8000,3.704,,,50,18.7,24.5,,,,,,,,,wg-a,,,,AAXX 07064 07661 12/58 00502 10210 20160 30065 40224 51007 60006 80000 90600 333 10245 20187=
07661,1996-06-07 12:00:00,25,1022.8,-0.2,61,17,15000,18.52,,,210,,,,,,,,,,,wg-a,,,,AAXX 07124 07661 12/65 /2110 10250 20170 30071 40228 58002 60006 91200=
07661,1996-06-07 18:00:00,22,1021.7,-0.5,73,17,15000,14.816,,,240,21.2,25.8,,,,,,,,,wg-a,,,,AAXX 07184 07661 12/65 /2408 10220 20170 30059 40217 56005 60006 91800 333 10258 20212=
07661,1996-06-08 00:00:00,19,1022.4,-0.2,94,18,20000,7.408,,,110,,,,,,,,,,,wg-a,,,,AAXX 08004 07661 12/70 /1104 10190 20180 30064 40224 58002 60006 90000=
07661,1996-06-08 06:00:00,20,1022.9,0.5,88,18,7000,3.704,,,320,18,22.3,,,,,,,,,wg-a,,,,AAXX 08064 07661 12857 33202 10200 20180 30070 40229 51005 60006 83050 90600 333 10223 20180=
07661,1996-06-08 12:00:00,23,1022.3,-0.7,73,18,20000,14.816,,,230,,,,,,,,,,,wg-a,,,,AAXX 08124 07661 12670 52308 10230 20180 30066 40223 58007 60006 81211 91200=
07661,1996-06-08 18:00:00,22,1021.5,-0.5,73,17,25000,22.224,,,290,19.7,25.3,,,,,,,,,wg-a,,,,AAXX 08184 07661 12/75 22912 10220 20170 30057 40215 56005 60006 82240 91800 333 10253 20197=
07661,1996-06-09 00:00:00,19,1021.7,-0.5,88,17,15000,18.52,,,290,,,,,,,,,,,wg-a,,,,AAXX 09004 07661 12/65 02910 10190 20170 30057 40217 58005 60006 80000 90000=
07661,1996-06-09 06:00:00,20,1021,0.2,73,15,15000,14.816,,,290,18.1,21.6,,,,,,,,,wg-a,,,,AAXX 09064 07661 12/65 02908 10200 20150 30051 40210 53002 60006 80000 90600 333 10216 20181=
07661,1996-06-09 12:00:00,25,1021.1,-0.2,61,17,15000,18.52,,,290,,,,,,,,,,,wg-a,,,,AAXX 09124 07661 12/65 02910 10250 20170 30055 40211 58002 60006 80000 91200=
07661,1996-06-09 18:00:00,22,1019.9,-0.6,69,16,15000,22.224,,,290,19.5,26,,,,,,,,,wg-a,,,,AAXX 09184 07661 12565 12912 10220 20160 30041 40199 58006 60006 81300 91800 333 10260 20195=
07661,1996-06-10 00:00:00,19,1020.6,0.2,94,18,15000,22.224,,,290,,,,,,,,,,,wg-a,,,,AAXX 10004 07661 12565 12912 10190 20180 30047 40206 51002 60006 81300 90000=
07661,1996-06-10 06:00:00,20,1021.4,0.8,78,16,7000,7.408,,,300,18.1,22.1,,,,,,,,,wg-a,,,,AAXX 10064 07661 12/57 03004 10200 20160 30055 40214 51008 60006 80000 90600 333 10221 20181=
07661,1996-06-10 12:00:00,25,1021.5,0,61,17,10000,11.112,,,220,,,,,,,,,,,wg-a,,,,AAXX 10124 07661 12660 32206 10250 20170 30059 40215 50000 60006 83200 91200=
07661,1996-06-10 18:00:00,21,1020.5,-0.3,73,16,15000,25.928,,,290,19.9,26.8,,,,,,,,,wg-a,,,,AAXX 10184 07661 12/65 42914 10210 20160 30047 40205 58003 60006 84070 91800 333 10268 20199=
07661,1996-06-11 00:00:00,20,1021.8,-0.5,94,19,15000,18.52,,,300,,,,,,,,,,,wg-a,,,,AAXX 11004 07661 12/65 03010 10200 20190 30059 40218 58005 60006 80000 90000=
07661,1996-06-11 06:00:00,20,1022.7,1,100,20,0,11.112,,,300,18.4,21.3,,,,,,,,,wg-a,,,,AAXX 11064 07661 12/// /3006 10200 20200 30068 40227 53010 60006 90600 333 10213 20184=
07661,1996-06-11 12:00:00,28,1023.1,0.1,58,19,9000,3.704,,,60,,,,,,,,,,,wg-a,,,,AAXX 11124 07661 12559 20602 10280 20190 30076 40231 50001 60006 82201 91200=
07661,1996-06-11 18:00:00,24,1022.2,-0.4,65,17,10000,22.224,,,290,20,28.3,,,,,,,,,wg-a,,,,AAXX 11184 07661 12560 72912 10240 20170 30065 40222 55004 60006 82362 91800 333 10283 20200=
07661,1996-06-12 00:00:00,21,1022.3,-0.5,94,20,15000,31.484,,,290,,,,,,,,,,,wg-a,,,,AAXX 12004 07661 12/65 12917 10210 20200 30064 40223 58005 60006 80001 90000=
07661,1996-06-12 06:00:00,22,1022.6,0.7,88,20,8000,3.704,,,360,20.1,24.1,,,,,,,,,wg-a,,,,AAXX 12064 07661 12/58 03602 10220 20200 30068 40226 53007 60006 80000 90600 333 10241 20201=
07661,1996-06-12 12:00:00,27,1022.5,-0.4,62,19,8000,11.112,,,190,,,,,,,,,,,wg-a,,,,AAXX 12124 07661 12/58 01906 10270 20190 30069 40225 58004 60016 80000 91200=
07661,1996-06-12 18:00:00,26,1020.4,-1.1,54,16,8000,3.704,,,190,22.1,28.7,,,,,,,,,wg-a,,,,AAXX 12184 07661 32558 31902 10260 20160 30048 40204 56011 81360 91800 333 10287 20221=
07661,1996-06-13 00:00:00,22,1020.9,-0.5,88,20,8000,7.408,,,230,,,,,,,,,,,wg-a,,,,AAXX 13004 07661 12858 32304 10220 20200 30051 40209 56005 60006 83060 90000=
07661,1996-06-13 06:00:00,23,1019.6,0.1,78,19,8000,7.408,,,90,20.5,26.6,,,,,,,,,wg-a,,,,AAXX 13064 07661 12/58 00904 10230 20190 30039 40196 53001 60006 80000 90600 333 10266 20205=
07661,1996-06-13 12:00:00,26,1019.3,-0.4,74,21,500,11.112,,,220,,,,,,,,,,,wg-a,,,,AAXX 13124 07661 12/00 02206 10260 20210 30037 40193 58004 60006 80000 91200=
07661,1996-06-13 18:00:00,24,1016.7,-0.6,83,21,6000,11.112,,,200,22.7,26.7,,,,,,,,,wg-a,,,,AAXX 13184 07661 12/56 32006 10240 20210 30011 40167 55006 60006 83070 91800 333 10267 20227=
07661,1996-06-14 00:00:00,21,1016.8,-0.4,100,21,6000,11.112,,,80,,,,,,,,,,,wg-a,,,,AAXX 14004 07661 12/56 30806 10210 20210 30011 40168 58004 60006 83070 90000=
07661,1996-06-14 06:00:00,21,1017.5,1.1,88,19,6000,18.52,,,80,20.2,24,,,,,,,,,wg-a,,,,AAXX 14064 07661 12/56 20810 10210 20190 30017 40175 52011 60006 82030 90600 333 10240 20202=
07661,1996-06-14 12:00:00,25,1019,0.5,69,19,8000,35.188,,57.412,90,,,,,,,,,,,wg-a,,,,AAXX 14124 07661 12/58 20919 10250 20190 30034 40190 50005 60006 82030 91200 333 91031=
07661,1996-06-14 18:00:00,23,1019.1,0.1,73,18,14000,11.112,,,90,20.8,25,,,,,,,,,wg-a,,,,AAXX 14184 07661 12/64 50906 10230 20180 30034 40191 53001 60006 83298 91800 333 10250 20208=
07661,1996-06-15 00:00:00,22,1019.7,-0.1,73,17,15000,11.112,,,10,,,,,,,,,,,wg-a,,,,AAXX 15004 07661 12/65 20106 10220 20170 30039 40197 58001 60006 82260 90000=
07661,1996-06-15 06:00:00,21,1018.8,0.1,73,16,15000,22.224,,,70,19,23.9,,,,,,,,,wg-a,,,,AAXX 15064 07661 12/65 00712 10210 20160 30030 40188 51001 60006 80000 90600 333 10239 20190=
07661,1996-06-15 12:00:00,25,1019.3,-0,54,15,20000,22.224,,,90,,,,,,,,,,,wg-a,,,,AAXX 15124 07661 12570 20912 10250 20150 30037 40193 55000 60006 82200 91200=
07661,1996-06-15 18:00:00,23,1018.8,-0.2,61,15,20000,29.632,,,60,21.2,27.3,,,,,,,,,wg-a,,,,AAXX 15184 07661 12570 50616 10230 20150 30031 40188 56002 60006 82960 91800 333 10273 20212=
07661,1996-06-16 00:00:00,21,1018.6,-0.6,53,11,20000,7.408,,,220,,,,,,,,,,,wg-a,,,,AAXX 16004 07661 12870 22204 10210 20110 30028 40186 55006 60006 82960 90000=
07661,1996-06-16 06:00:00,20,1018,0.1,64,13,20000,22.224,,,70,18.1,23.6,,,,,,,,,wg-a,,,,AAXX 16064 07661 12/70 20712 10200 20130 30021 40180 52001 60006 80002 90600 333 10236 20181=
07661,1996-06-16 12:00:00,25,1017.9,-0.1,47,13,12000,25.928,,,110,,,,,,,,,,,wg-a,,,,AAXX 16124 07661 12562 71114 10250 20130 30023 40179 58001 60006 82870 91200=
07661,1996-06-16 18:00:00,22,1016.4,-0.6,60,14,20000,14.816,,,100,19.8,25.9,,,,,,,,,wg-a,,,,AAXX 16184 07661 12/70 61008 10220 20140 30007 40164 55006 60006 86070 91800 333 10259 20198=
07661,1996-06-17 00:00:00,20,1017.4,1,68,14,15000,14.816,,,100,,,,,,,,,,,wg-a,,,,AAXX 17004 07661 12/65 81008 10200 20140 30015 40174 52010 60006 8807/ 90000=
07661,1996-06-17 06:00:00,19,1018.6,1.1,83,16,15000,18.52,,,70,18.5,22.6,,,,,,,,,wg-a,,,,AAXX 17064 07661 12/65 40710 10190 20160 30027 40186 53011 60006 84070 90600 333 10226 20185=
07661,1996-06-17 12:00:00,24,1019.5,0.3,57,15,500,22.224,,,110,,,,,,,,,,,wg-a,,,,AAXX 17124 07661 12500 11112 10240 20150 30038 40195 53003 60006 81200 91200=
07661,1996-06-17 18:00:00,22,1019.1,-0.4,60,14,500,7.408,,,160,19.3,24.7,,,,,,,,,wg-a,,,,AAXX 17184 07661 12/00 01604 10220 20140 30033 40191 56004 60006 80000 91800 333 10247 20193=
07661,1996-06-18 00:00:00,20,1019.4,-0.1,73,15,25000,18.52,,,290,,,,,,,,,,,wg-a,,,,AAXX 18004 07661 12/75 02910 10200 20150 30035 40194 56001 60006 80000 90000=
07661,1996-06-18 06:00:00,21,1018,-0.3,64,14,15000,3.704,,,290,17.9,22.2,,,,,,,,,wg-a,,,,AAXX 18064 07661 12/65 02902 10210 20140 30022 40180 55003 60006 80000 90600 333 10222 20179=
07661,1996-06-18 12:00:00,24,1017.4,-0.4,65,17,15000,22.224,,,280,,,,,,,,,,,wg-a,,,,AAXX 18124 07661 12/65 32812 10240 20170 30018 40174 58004 60006 83030 91200=
07661,1996-06-18 18:00:00,22,1014.8,-1.6,83,19,12000,31.484,,,290,20.8,24.8,,,,,,,,,wg-a,,,,AAXX 18184 07661 12662 62917 10220 20190 39991 40148 56016 60006 86450 91800 333 10248 20208=
07661,1996-06-19 00:00:00,20,1014.6,-0.5,94,19,10000,11.112,,,280,,,,,,,,,,,wg-a,,,,AAXX 19004 07661 12660 62806 10200 20190 39988 40146 58005 60006 86450 90000=
07661,1996-06-19 12:00:00,27,1011.9,-0.8,62,19,8000,25.928,,,290,,,,,,,,,,,wg-a,,,,AAXX 19124 07661 12/58 62914 10270 20190 39965 40119 58008 60006 80005 91200=
07661,1996-06-19 18:00:00,23,1010.7,-0.2,83,20,7000,25.928,,,290,21.2,27.4,,,,,,,,,wg-a,,,,AAXX 19184 07661 12757 32914 10230 20200 39952 40107 55002 60006 83400 91800 333 10274 20212=
07661,1996-06-20 00:00:00,22,1011,-1.3,78,18,10000,22.224,,,290,,,,,,,,,,,wg-a,,,,AAXX 20004 07661 12760 32912 10220 20180 39953 40110 58013 60006 83500 90000=
07661,1996-06-20 06:00:00,22,1010.6,0.3,94,21,8000,7.408,,,220,20.1,23.2,,,,,,,,,wg-a,,,,AAXX 20064 07661 12658 42204 10220 20210 39950 40106 52003 60006 84500 90600 333 10232 20201=
07661,1996-06-20 12:00:00,27,1010.2,-0.1,70,21,8000,22.224,,,220,,,,,,,,,,,wg-a,,,,AAXX 20124 07661 12558 32212 10270 20210 39948 40102 56001 60006 82310 91200=
07661,1996-06-20 18:00:00,23,1009.2,-0.6,78,19,6000,18.52,,,280,22,27.1,,,,,,,,,wg-a,,,,AAXX 20184 07661 12556 72810 10230 20190 39936 40092 56006 60006 875// 91800 333 10271 20220=
07661,1996-06-21 00:00:00,21,1009.2,-0.9,88,19,7000,3.704,,,110,,,,,,,,,,17,wg-a,,,,AAXX 21004 07661 12257 81102 10210 20190 39936 40092 58009 60006 71792 885// 90000=
07661,1996-06-21 06:00:00,20,1008.1,-0,100,20,8000,22.224,,,70,19.9,22.6,,0,,,,,,60,wg-a,,,,AAXX 21064 07661 12458 70712 10200 20200 39924 40081 55000 60007 76096 872// 90600 333 10226 20199=
07661,1996-06-21 12:00:00,21,1006.4,-1.6,94,20,0,29.632,,,90,,,,,,,,,,,wg-a,,,,AAXX 21124 07661 32/// /0916 10210 20200 39908 40064 58016 91200=
07661,1996-06-21 18:00:00,22,1004,-0.4,69,16,10000,25.928,,,80,20,23.4,,,,,,,,,wg-a,,,,AAXX 21184 07661 32660 60814 10220 20160 39884 40040 56004 8/87/ 91800 333 10234 20200=
07661,1996-06-22 00:00:00,19,1005.8,-0.3,73,14,6000,38.892,,,300,,,,1,,,,,,29,wg-a,,,,AAXX 22004 07661 02656 73021 10190 20140 39901 40058 56003 60016 72996 8437/ 90000 333 60017=
07661,1996-06-22 06:00:00,17,1005.9,0.4,68,11,25000,53.708,,,300,17.4,21.8,,,,,,,,1,wg-a,,,,AAXX 22064 07661 32675 53029 10170 20110 39901 40059 50004 70162 83240 90600 333 10218 20174=
07661,1996-06-22 12:00:00,19,1007.6,1.2,34,3,15000,79.636,,129.64,310,,,,0,,,,,,,wg-a,,,,AAXX 22124 07661 02565 13143 10190 20030 39918 40076 52012 60006 81200 91200 333 60007 91070=
07661,1996-06-22 18:00:00,18,1010.2,1.7,34,2,28000,61.116,,125.936,310,17.1,20.1,,0,,,,,,,wg-a,,,,AAXX 22184 07661 12/78 03133 10180 20020 39943 40102 53017 60007 80000 91800 333 10201 20171 91068=
07661,1996-06-23 00:00:00,15,1014,1.2,48,4,15000,46.3,,118.528,310,,,,,,,,,,,wg-a,,,,AAXX 23004 07661 12/65 03125 10150 20040 39978 40140 51012 60006 80000 90000 333 91064=
07661,1996-06-23 06:00:00,15,1013.5,0.1,51,5,35000,38.892,,96.304,320,13.6,18.3,,,,,,,,,wg-a,,,,AAXX 23064 07661 12/81 03221 10150 20050 39974 40135 50001 60006 80000 90600 333 10183 20136 91052=
07661,1996-06-23 12:00:00,22,1013.7,0.4,33,5,50000,38.892,,,300,,,,,,,,,,,wg-a,,,,AAXX 23124 07661 12784 53021 10220 20050 39980 40137 50004 60006 81104 91200=
07661,1996-06-23 18:00:00,20,1014.8,1.2,49,9,50000,11.112,,64.82,60,14.9,23.4,,,,,,,,,wg-a,,,,AAXX 23184 07661 12784 60606 10200 20090 39989 40148 53012 60006 82270 91800 333 10234 20149 91035=
07661,1996-06-24 00:00:00,15,1016.1,-0.1,63,8,50000,29.632,,,70,,,,,,,,,,,wg-a,,,,AAXX 24004 07661 12/84 00716 10150 20080 39999 40161 58001 60006 80000 90000=
07661,1996-06-24 06:00:00,14,1018.1,1.7,72,9,50000,7.408,,,50,12.4,20,,,,,,,,,wg-a,,,,AAXX 24064 07661 12684 60504 10140 20090 30019 40181 51017 60006 84963 90600 333 10200 20124=
07661,1996-06-25 06:00:00,16,1018,0.2,77,12,25000,11.112,,,70,12.3,16.5,,,,,,,,,wg-a,,,,AAXX 25064 07661 12/75 20706 10160 20120 30019 40180 50002 60006 82040 90600 333 10165 20123=
07661,1996-06-25 12:00:00,22,1018.1,-0.4,60,14,25000,14.816,,,210,,,,,,,,,,,wg-a,,,,AAXX 25124 07661 12/75 32108 10220 20140 30023 40181 57004 60006 83040 91200=
07661,1996-06-25 18:00:00,17,1017.3,-1.1,72,12,500,11.112,,,280,15.5,22,,0,,,,,,2,wg-a,,,,AAXX 25184 07661 12/00 52806 10170 20120 30013 40173 58011 60007 70296 85070 91800 333 10220 20155=
07661,1996-06-26 00:00:00,15,1016.9,-0.6,82,12,25000,7.408,,,320,,,,,,,,,,,wg-a,,,,AAXX 26004 07661 12675 23204 10150 20120 30007 40169 58006 60006 82200 90000=
07661,1996-06-26 06:00:00,16,1016.1,0.4,72,11,18000,7.408,,,60,13.5,17.6,,,,,,,,,wg-a,,,,AAXX 26064 07661 12/68 20604 10160 20110 30000 40161 53004 60006 80001 90600 333 10176 20135=
07661,1996-06-26 12:00:00,20,1017.6,0.9,68,14,15000,7.408,,,60,,,,,,,,,,,wg-a,,,,AAXX 26124 07661 12465 70604 10200 20140 30017 40176 52009 60006 8626/ 91200=
07661,1996-06-26 18:00:00,18,1017.7,-0.2,77,14,15000,22.224,,,80,16,23.1,,1,,,,,,1,wg-a,,,,AAXX 26184 07661 12465 40812 10180 20140 30017 40177 55002 60017 70161 84200 91800 333 10231 20160=
07661,1996-06-27 00:00:00,15,1019.4,0.4,88,13,20000,11.112,,,60,,,,,,,,,,,wg-a,,,,AAXX 27004 07661 12/70 00606 10150 20130 30032 40194 51004 60006 80000 90000=
07661,1996-06-27 06:00:00,17,1020.5,1.1,72,12,20000,7.408,,,80,14.6,18.6,,,,,,,,,wg-a,,,,AAXX 27064 07661 12/70 00804 10170 20120 30044 40205 53011 60006 80000 90600 333 10186 20146=
07661,1996-06-27 12:00:00,22,1021.8,0.4,65,15,25000,18.52,,,220,,,,,,,,,,,wg-a,,,,AAXX 27124 07661 12/75 12210 10220 20150 30060 40218 51004 60006 80001 91200=
07661,1996-06-27 18:00:00,21,1021.2,-0.2,69,15,25000,18.52,,,250,16.4,22.8,,,,,,,,,wg-a,,,,AAXX 27184 07661 12/75 12510 10210 20150 30053 40212 56002 60006 80004 91800 333 10228 20164=
07661,1996-06-28 00:00:00,18,1022.4,0.4,83,15,15000,11.112,,,300,,,,,,,,,,,wg-a,,,,AAXX 28004 07661 12/65 03006 10180 20150 30063 40224 50004 60006 80000 90000=
07661,1996-06-28 06:00:00,16,1022.1,0.6,77,12,15000,18.52,,,90,14.8,20.7,,,,,,,,,wg-a,,,,AAXX 28064 07661 12/65 00910 10160 20120 30059 40221 53006 60006 80000 90600 333 10207 20148=
07661,1996-06-28 12:00:00,23,1021.4,-0.8,73,18,12000,14.816,,,220,,,,,,,,,,,wg-a,,,,AAXX 28124 07661 12/62 02208 10230 20180 30057 40214 58008 60006 80000 91200=
07661,1996-06-28 18:00:00,21,1019.7,-0.8,69,15,14000,22.224,,,300,16.3,24.5,,,,,,,,,wg-a,,,,AAXX 28184 07661 12/64 13012 10210 20150 30039 40197 56008 60006 80001 91800 333 10245 20163=
07661,1996-06-29 00:00:00,18,1019.7,-0.6,94,17,10000,18.52,,,290,,,,,,,,,,,wg-a,,,,AAXX 29004 07661 12/60 02910 10180 20170 30037 40197 58006 60006 80000 90000=
07661,1996-06-29 06:00:00,18,1018.5,-0.2,88,16,8000,0,,,0,16.2,21.1,,,,,,,,,wg-a,,,,AAXX 29064 07661 12/58 20000 10180 20160 30025 40185 56002 60006 80001 90600 333 10211 20162=
07661,1996-06-29 12:00:00,24,1016.8,-1.1,61,16,10000,38.892,,,290,,,,,,,,,,,wg-a,,,,AAXX 29124 07661 12/60 22921 10240 20160 30011 40168 58011 60006 80006 91200=
07661,1996-06-29 18:00:00,22,1014.3,-0.9,65,15,25000,50.004,,87.044,300,18,25.8,,,,,,,,,wg-a,,,,AAXX 29184 07661 12/75 53027 10220 20150 39986 40143 58009 60006 80004 91800 333 10258 20180 91047=
07661,1996-06-30 00:00:00,22,1014.5,-0.2,50,11,25000,35.188,,87.044,300,,,,,,,,,,,wg-a,,,,AAXX 30004 07661 12/75 23019 10220 20110 39987 40145 58002 60006 80009 90000 333 91047=
07661,1996-06-30 06:00:00,20,1013.5,0.3,46,8,25000,25.928,,90.748,280,19.2,22.6,,,,,,,,,wg-a,,,,AAXX 30064 07661 12/75 62814 10200 20080 39976 40135 53003 60006 80006 90600 333 10226 20192 91049=
07661,1996-06-30 12:00:00,24,1011.5,-1.5,41,10,28000,57.412,,79.636,290,,,,,,,,,,,wg-a,,,,AAXX 30124 07661 12/78 32931 10240 20100 39959 40115 58015 60006 80002 91200 333 91043=
07661,1996-06-30 18:00:00,22,1012,-0,57,13,28000,38.892,,87.044,290,19.5,26.4,,,,,,,,,wg-a,,,,AAXX 30184 07661 12/78 22921 10220 20130 39963 40120 55000 60006 80002 91800 333 10264 20195 91047=
07661,1996-07-01 00:00:00,19,1012.7,-0.6,78,15,25000,7.408,,,60,,,,,,,,,,,wg-a,,,,AAXX 01004 07661 12/75 00604 10190 20150 39968 40127 58006 60006 80000 90000=
07661,1996-07-01 06:00:00,20,1010.9,-0.3,56,11,25000,29.632,,,290,17.2,22.3,,,,,,,,,wg-a,,,,AAXX 01064 07661 12/75 02916 10200 20110 39951 40109 57003 60006 80000 90600 333 10223 20172=
07661,1996-07-01 12:00:00,23,1010.4,-0.2,50,12,25000,35.188,,64.82,290,,,,,,,,,,,wg-a,,,,AAXX 01124 07661 12/75 02919 10230 20120 39948 40104 58002 60006 80000 91200 333 91035=
07661,1996-07-01 18:00:00,21,1010.1,0.5,64,14,26000,38.892,,75.932,280,19.9,24.6,,,,,,,,,wg-a,,,,AAXX 01184 07661 12/76 22821 10210 20140 39944 40101 53005 60006 80002 91800 333 10246 20199 91041=
07661,1996-07-02 00:00:00,21,1010.6,-0,56,12,20000,25.928,,61.116,290,,,,,,,,,,,wg-a,,,,AAXX 02004 07661 12870 52914 10210 20120 39949 40106 55000 60006 85070 90000 333 91033=
07661,1996-07-02 06:00:00,19,1010.3,0.8,68,13,28000,31.484,,,290,18.8,21.2,,,,,,,,2,wg-a,,,,AAXX 02064 07661 02778 82917 10190 20130 39945 40103 53008 61000 70262 887// 90600 333 10212 20188 ////=
07661,1996-07-02 12:00:00,21,1011.7,1.1,49,10,28000,25.928,,,300,,,,,,,,,,,wg-a,,,,AAXX 02124 07661 12778 83014 10210 20100 39959 40117 53011 60006 8577/ 91200=
07661,1996-07-02 18:00:00,17,1010.3,-0.9,77,13,28000,42.596,,,290,17.2,22.9,,,,,,,,,wg-a,,,,AAXX 02184 07661 12578 62923 10170 20130 39944 40103 56009 60006 8/600 91800 333 10229 20172=
07661,1996-07-03 00:00:00,17,1011.1,-0.4,59,9,25000,38.892,,,290,,,,,,,,,,,wg-a,,,,AAXX 03004 07661 12/75 02921 10170 20090 39952 40111 56004 60006 80000 90000=
07661,1996-07-03 06:00:00,17,1013.2,1.4,59,9,25000,14.816,,,290,15.7,17.8,,,,,,,,,wg-a,,,,AAXX 03064 07661 12/75 02908 10170 20090 39972 40132 53014 60006 80000 90600 333 10178 20157=
07661,1996-07-03 12:00:00,22,1014.2,0.7,43,9,25000,50.004,,72.228,280,,,,,,,,,,,wg-a,,,,AAXX 03124 07661 12/75 02827 10220 20090 39985 40142 51007 60006 80000 91200 333 91039=
07661,1996-07-03 18:00:00,20,1015.8,0.7,68,14,25000,29.632,,68.524,290,17.2,22.9,,,,,,,,,wg-a,,,,AAXX 03184 07661 12/75 02916 10200 20140 30000 40158 53007 60006 80000 91800 333 10229 20172 91037=
07661,1996-07-04 00:00:00,19,1017.5,0.6,73,14,25000,25.928,,50.004,290,,,,,,,,,,,wg-a,,,,AAXX 04004 07661 12/75 02914 10190 20140 30016 40175 53006 60006 80000 90000 333 91027=
07661,1996-07-04 06:00:00,19,1018,0.6,83,16,10000,11.112,,,330,17.8,20.1,,,,,,,,,wg-a,,,,AAXX 04064 07661 12560 63306 10190 20160 30021 40180 53006 60006 83530 90600 333 10201 20178=
07661,1996-07-04 12:00:00,23,1018.7,0.1,78,19,20000,22.224,,,220,,,,,,,,,,,wg-a,,,,AAXX 04124 07661 12670 32212 10230 20190 30030 40187 50001 60006 83200 91200=
07661,1996-07-04 18:00:00,21,1018.2,-0.2,88,19,15000,11.112,,,230,18.9,23.9,,,,,,,,,wg-a,,,,AAXX 04184 07661 12665 42306 10210 20190 30024 40182 55002 60006 84200 91800 333 10239 20189=
07661,1996-07-05 00:00:00,19,1017.7,-1,100,19,10000,7.408,,,110,,,,,,,,,,,wg-a,,,,AAXX 05004 07661 12860 71104 10190 20190 30018 40177 57010 60006 87070 90000=
07661,1996-07-05 06:00:00,19,1016,-0.8,88,17,10000,14.816,,,70,17.7,21,,,,,,,,,wg-a,,,,AAXX 05064 07661 12560 50708 10190 20170 30001 40160 56008 60006 85600 90600 333 10210 20177=
07661,1996-07-05 12:00:00,21,1014.5,-0.8,78,17,15000,25.928,,,90,,,,,,,,,,60,wg-a,,,,AAXX 05124 07661 02565 70914 10210 20170 39987 40145 58008 61000 76061 83662 91200 333 6100=
07661,1996-07-06 06:00:00,20,1010.7,0.9,68,14,20000,25.928,,,300,18.1,20.3,,,,,,,,,wg-a,,,,AAXX 06064 07661 32870 33014 10200 20140 39949 40107 53009 83040 90600 333 10203 20181=
07661,1996-07-06 12:00:00,23,1009.7,-0.8,61,15,25000,31.484,,57.412,290,,,,,,,,,,,wg-a,,,,AAXX 06124 07661 12/75 52917 10230 20150 39941 40097 58008 60006 85080 91200 333 91031=
07661,1996-07-06 18:00:00,21,1008.1,-0.8,60,13,25000,38.892,,,290,20.1,24.1,,,,,,,,,wg-a,,,,AAXX 06184 07661 12575 42921 10210 20130 39924 40081 57008 60006 82832 91800 333 10241 20201=
07661,1996-07-07 00:00:00,19,1008.4,-0.5,73,14,25000,14.816,,,290,,,,,,,,,,,wg-a,,,,AAXX 07004 07661 12/75 02908 10190 20140 39926 40084 56005 60006 80000 90000=
07661,1996-07-07 06:00:00,21,1005.9,-1,46,9,500,7.408,,,300,18,21.1,,,,,,,,,wg-a,,,,AAXX 07064 07661 12/00 63004 10210 20090 39902 40059 56010 60006 86070 90600 333 10211 20180=
07661,1996-07-07 12:00:00,22,1004.3,-1.3,69,16,500,11.112,,,160,,,,,,,,,,,wg-a,,,,AAXX 07124 07661 12700 81606 10220 20160 39887 40043 58013 60006 885// 91200=
07661,1996-07-07 18:00:00,19,1000.7,-1.9,83,16,15000,31.484,,68.524,300,18.6,23.9,,,,,,,,21,wg-a,,,,AAXX 07184 07661 02665 83017 10190 20160 39850 40007 56019 61000 72162 8/720 91800 333 10239 20186 //// 91037=
07661,1996-07-08 00:00:00,16,1003.2,-0.5,68,10,15000,64.82,,96.304,300,,,,,,,,,,60,wg-a,,,,AAXX 08004 07661 02665 53035 10160 20100 39873 40032 58005 61000 76022 85500 90000 333 6100 91052=
07661,1996-07-08 06:00:00,15,1004.9,0.6,59,7,35000,79.636,,111.12,300,14.2,19.4,,,,,,,,3,wg-a,,,,AAXX 08064 07661 32681 33043 10150 20070 39889 40049 50006 70361 83800 90600 333 10194 20142 91060=
07661,1996-07-08 12:00:00,20,1009.2,1.6,43,7,35000,94.452,,137.048,310,,,,,,,,,,,wg-a,,,,AAXX 08124 07661 12681 53151 10200 20070 39934 40092 51016 60006 85200 91200 333 91074=
07661,1996-07-08 18:00:00,20,1012.7,2,40,6,35000,61.116,,140.752,320,15.2,21.5,,,,,,,,,wg-a,,,,AAXX 08184 07661 12781 23233 10200 20060 39969 40127 53020 60006 8/100 91800 333 10215 20152 91076=
07661,1996-07-09 00:00:00,17,1015.9,1.2,52,7,35000,50.004,,103.712,310,,,,,,,,,,,wg-a,,,,AAXX 09004 07661 12/81 03127 10170 20070 39999 40159 53012 60006 80000 90000 333 91056=
07661,1996-07-09 06:00:00,17,1017.9,1.3,52,7,35000,42.596,,83.34,310,16.3,20.1,,,,,,,,,wg-a,,,,AAXX 09064 07661 12/81 03123 10170 20070 30018 40179 53013 60006 80000 90600 333 10201 20163 91045=
07661,1996-07-09 12:00:00,27,1018.8,0.3,28,7,500,7.408,,57.412,200,,,,,,,,,,,wg-a,,,,AAXX 09124 07661 12/00 02004 10270 20070 30032 40188 52003 60006 80000 91200 333 91031=
07661,1996-07-09 18:00:00,24,1018.5,0.1,34,7,500,31.484,,68.524,320,17.2,27.2,,,,,,,,,wg-a,,,,AAXX 09184 07661 12/00 03217 10240 20070 30028 40185 53001 60006 80000 91800 333 10272 20172 91037=
07661,1996-07-10 00:00:00,19,1019.7,0,37,4,25000,22.224,,,310,,,,,,,,,,,wg-a,,,,AAXX 10004 07661 12/75 03112 10190 20040 30037 40197 50000 60006 80000 90000=
07661,1996-07-10 06:00:00,20,1020.7,0.9,40,6,25000,7.408,,,250,17.6,24.3,,,,,,,,,wg-a,,,,AAXX 10064 07661 12/75 22504 10200 20060 30047 40207 51009 60006 80001 90600 333 10243 20176=
07661,1996-07-10 12:00:00,25,1017.9,-2,36,9,25000,35.188,,53.708,290,,,,,,,,,,,wg-a,,,,AAXX 10124 07661 12/75 02919 10250 20090 30023 40179 58020 60006 80000 91200 333 91029=
07661,1996-07-10 18:00:00,26,1014.7,-0.8,39,11,25000,35.188,,,300,19.7,26.9,,,,,,,,,wg-a,,,,AAXX 10184 07661 12/75 13019 10260 20110 39992 40147 55008 60006 81030 91800 333 10269 20197=
07661,1996-07-11 00:00:00,19,1016.8,0.9,60,11,25000,11.112,,,70,,,,,,,,,,,wg-a,,,,AAXX 11004 07661 12/75 00706 10190 20110 30009 40168 51009 60006 80000 90000=
07661,1996-07-11 06:00:00,21,1017.6,0.6,53,11,25000,3.704,,,40,17.3,26.3,,,,,,,,,wg-a,,,,AAXX 11064 07661 12/75 10402 10210 20110 30018 40176 51006 60006 81030 90600 333 10263 20173=
07661,1996-07-11 12:00:00,23,1018.2,0.3,50,12,25000,18.52,,,220,,,,,,,,,,,wg-a,,,,AAXX 11124 07661 12/75 02210 10230 20120 30025 40182 52003 60006 80000 91200=
07661,1996-07-11 18:00:00,24,1017.5,-0.3,44,11,35000,14.816,,,290,20.1,26.4,,,,,,,,,wg-a,,,,AAXX 11184 07661 12/81 02908 10240 20110 30018 40175 56003 60006 80000 91800 333 10264 20201=
07661,1996-07-12 00:00:00,19,1017.7,-0.4,68,13,500,14.816,,,320,,,,,,,,,,,wg-a,,,,AAXX 12004 07661 12/00 03208 10190 20130 30018 40177 58004 60006 80000 90000=
07661,1996-07-12 06:00:00,19,1017.5,0.3,64,12,20000,11.112,,,100,16.7,24.3,,,,,,,,,wg-a,,,,AAXX 12064 07661 12/70 01006 10190 20120 30015 40175 53003 60006 80000 90600 333 10243 20167=
07661,1996-07-12 12:00:00,23,1017.6,-0.3,53,13,15000,11.112,,,200,,,,,,,,,,,wg-a,,,,AAXX 12124 07661 12/65 02006 10230 20130 30019 40176 58003 60006 80000 91200=
07661,1996-07-12 18:00:00,20,1017.9,0.3,78,16,12000,7.408,,,190,18.8,23.4,,,,,,,,,wg-a,,,,AAXX 12184 07661 12/62 01904 10200 20160 30021 40179 53003 60006 80000 91800 333 10234 20188=
07661,1996-07-13 00:00:00,17,1019.2,-0,88,15,12000,14.816,,,80,,,,,,,,,,,wg-a,,,,AAXX 13004 07661 12/62 00808 10170 20150 30031 40192 54000 60006 80000 90000=
07661,1996-07-13 06:00:00,17,1020.3,1.3,88,15,12000,25.928,,,70,15.7,20.3,,,,,,,,,wg-a,,,,AAXX 13064 07661 12/62 30714 10170 20150 30042 40203 53013 60006 83030 90600 333 10203 20157=
07661,1996-07-13 12:00:00,23,1021.7,0.6,73,18,12000,22.224,,,140,,,,,,,,,,,wg-a,,,,AAXX 13124 07661 12562 41412 10230 20180 30060 40217 51006 60006 84130 91200=
07661,1996-07-13 18:00:00,22,1022.1,0.6,60,14,12000,11.112,,,160,17.2,24.1,,,,,,,,,wg-a,,,,AAXX 13184 07661 12/62 01606 10220 20140 30063 40221 53006 60006 80000 91800 333 10241 20172=
07661,1996-07-14 00:00:00,19,1023.4,0.2,68,13,10000,11.112,,,300,,,,,,,,,,,wg-a,,,,AAXX 14004 07661 12/60 03006 10190 20130 30074 40234 53002 60006 80000 90000=
07661,1996-07-14 06:00:00,23,1023.4,0.8,57,14,10000,0,,,0,18.3,23.3,,,,,,,,,wg-a,,,,AAXX 14064 07661 12/60 00000 10230 20140 30076 40234 53008 60006 80000 90600 333 10233 20183=
07661,1996-07-14 12:00:00,28,1023.7,-0.1,32,10,15000,11.112,,,230,,,,,,,,,,,wg-a,,,,AAXX 14124 07661 12/65 82306 10280 20100 30081 40237 58001 60006 86014 91200=
07661,1996-07-14 18:00:00,24,1021.8,-1,65,17,15000,18.52,,,290,23.3,29.6,,,,,,,,,wg-a,,,,AAXX 14184 07661 12/65 62910 10240 20170 30061 40218 56010 60006 84018 91800 333 10296 20233=
07661,1996-07-15 00:00:00,23,1021.2,-0.3,53,13,15000,11.112,,,330,,,,,,,,,,,wg-a,,,,AAXX 15004 07661 12/65 03306 10230 20130 30054 40212 56003 60006 80000 90000=
07661,1996-07-15 06:00:00,22,1020.3,0,69,16,12000,18.52,,,80,19.2,24.1,,,,,,,,,wg-a,,,,AAXX 15064 07661 12/62 20810 10220 20160 30045 40203 50000 60006 80001 90600 333 10241 20192=
07661,1996-07-15 12:00:00,26,1020.7,-0.3,54,16,10000,11.112,,,90,,,,,,,,,,,wg-a,,,,AAXX 15124 07661 12660 70906 10260 20160 30051 40207 58003 60006 875// 91200=
07661,1996-07-15 18:00:00,25,1019,-1.1,65,18,10000,3.704,,,310,21.4,28.6,,,,,,,,,wg-a,,,,AAXX 15184 07661 12860 63102 10250 20180 30034 40190 56011 60006 84052 91800 333 10286 20214=
07661,1996-07-16 00:00:00,22,1019.2,-0.5,73,17,10000,18.52,,,310,,,,,,,,,,,wg-a,,,,AAXX 16004 07661 12/60 03110 10220 20170 30034 40192 58005 60006 80000 90000=
07661,1996-07-16 06:00:00,24,1018.4,0.3,57,15,10000,11.112,,,70,20.6,25,,,,,,,,,wg-a,,,,AAXX 16064 07661 12/60 00706 10240 20150 30028 40184 53003 60006 80000 90600 333 10250 20206=
07661,1996-07-16 12:00:00,27,1018.8,-0.1,51,16,8000,11.112,,,210,,,,,,,,,,,wg-a,,,,AAXX 16124 07661 12/58 02106 10270 20160 30033 40188 58001 60006 80000 91200=
07661,1996-07-16 18:00:00,24,1016.8,-1.1,78,20,8000,14.816,,,210,23.6,27.9,,,,,,,,,wg-a,,,,AAXX 16184 07661 12658 22108 10240 20200 30012 40168 56011 60006 82900 91800 333 10279 20236=
07661,1996-07-17 00:00:00,22,1017.3,-0.1,78,18,15000,22.224,,,290,,,,,,,,,,,wg-a,,,,AAXX 17004 07661 12/65 02912 10220 20180 30016 40173 56001 60006 80000 90000=
07661,1996-07-17 06:00:00,21,1017.4,0.4,83,18,8000,11.112,,,80,20.2,23.6,,,,,,,,,wg-a,,,,AAXX 17064 07661 12658 20806 10210 20180 30016 40174 53004 60006 82600 90600 333 10236 20202=
07661,1996-07-17 12:00:00,25,1017.5,0.1,79,21,9000,18.52,,,160,,,,,,,,,,,wg-a,,,,AAXX 17124 07661 12559 41610 10250 20210 30019 40175 52001 60006 82204 91200=
07661,1996-07-17 18:00:00,22,1016.8,0.2,94,21,9000,14.816,,,110,21.2,25.8,,,,,,,,,wg-a,,,,AAXX 17184 07661 12759 61108 10220 20210 30011 40168 53002 60006 84501 91800 333 10258 20212=
07661,1996-07-18 00:00:00,21,1017.5,0.5,100,21,500,3.704,,,140,,,,,,,,,,,wg-a,,,,AAXX 18004 07661 12/00 01402 10210 20210 30017 40175 50005 60006 80000 90000=
07661,1996-07-18 06:00:00,21,1017.3,0.1,88,19,500,18.52,,,80,19.4,22.2,,,,,,,,,wg-a,,,,AAXX 18064 07661 12400 40810 10210 20190 30015 40173 53001 60006 84600 90600 333 10222 20194=
07661,1996-07-18 12:00:00,26,1017.4,-0.2,70,20,500,11.112,,,220,,,,,,,,,,,wg-a,,,,AAXX 18124 07661 12500 42206 10260 20200 30019 40174 58002 60006 84260 91200=
07661,1996-07-18 18:00:00,25,1015.6,-0.8,74,20,10000,18.52,,,300,21.1,28.1,,,,,,,,,wg-a,,,,AAXX 18184 07661 12460 13010 10250 20200 30001 40156 56008 60006 81600 91800 333 10281 20211=
07661,1996-07-19 00:00:00,21,1015.9,-0.7,88,19,10000,14.816,,,310,,,,,,,,,,,wg-a,,,,AAXX 19004 07661 12/60 03108 10210 20190 30001 40159 56007 60006 80000 90000=
07661,1996-07-19 06:00:00,22,1015.4,0.5,53,12,10000,11.112,,,130,19.6,25.1,,,,,,,,,wg-a,,,,AAXX 19064 07661 12/60 01306 10220 20120 39997 40154 53005 60006 80000 90600 333 10251 20196=
07661,1996-07-19 12:00:00,29,1015.7,0,33,11,15000,18.52,,,220,,,,,,,,,,,wg-a,,,,AAXX 19124 07661 12665 22210 10290 20110 30003 40157 50000 60006 82200 91200=
07661,1996-07-19 18:00:00,24,1015.2,-0.1,74,19,15000,14.816,,,150,22,29,,,,,,,,,wg-a,,,,AAXX 19184 07661 12/65 21508 10240 20190 39996 40152 55001 60006 80004 91800 333 10290 20220=
07661,1996-07-20 00:00:00,21,1016.4,-0.3,100,21,15000,7.408,,,80,,,,,,,,,,,wg-a,,,,AAXX 20004 07661 12/65 00804 10210 20210 30007 40164 58003 60006 80000 90000=
07661,1996-07-20 06:00:00,21,1016.8,0.5,83,18,10000,11.112,,,80,19,23.6,,,,,,,,,wg-a,,,,AAXX 20064 07661 12/60 00806 10210 20180 30010 40168 53005 60006 80000 90600 333 10236 20190=
07661,1996-07-20 12:00:00,26,1017.7,0.3,70,20,10000,14.816,,,220,,,,,,,,,,,wg-a,,,,AAXX 20124 07661 12560 62208 10260 20200 30022 40177 51003 60006 84940 91200=
07661,1996-07-20 18:00:00,23,1018.5,0.6,73,18,10000,11.112,,,80,21.1,27.9,,,,,,,,21,wg-a,,,,AAXX 20184 07661 02560 40806 10230 20180 30028 40185 51006 61000 72111 82240 91800 333 10279 20211 ////=
07661,1996-07-21 00:00:00,21,1019.8,0.1,69,15,15000,3.704,,,330,,,,,,,,,,,wg-a,,,,AAXX 21004 07661 12/65 03302 10210 20150 30040 40198 50001 60006 80000 90000=
07661,1996-07-21 06:00:00,21,1020.4,1,73,16,10000,14.816,,,70,19.6,23.1,,,,,,,,,wg-a,,,,AAXX 21064 07661 12460 50708 10210 20160 30046 40204 53010 60006 85200 90600 333 10231 20196=
07661,1996-07-21 12:00:00,26,1020.3,-0.2,51,15,10000,18.52,,,140,,,,,,,,,,,wg-a,,,,AAXX 21124 07661 12/60 51410 10260 20150 30047 40203 58002 60006 85070 91200=
07661,1996-07-21 18:00:00,24,1019.9,-0.1,65,17,10000,7.408,,,200,20.8,27.2,,,,,,,,,wg-a,,,,AAXX 21184 07661 12/60 52004 10240 20170 30042 40199 55001 60006 83052 91800 333 10272 20208=
07661,1996-07-22 00:00:00,20,1021,0.1,64,13,10000,14.816,,,80,,,,,,,,,,,wg-a,,,,AAXX 22004 07661 12/60 00808 10200 20130 30051 40210 50001 60006 80000 90000=
07661,1996-07-22 06:00:00,20,1021.9,1,68,14,15000,11.112,,,80,17.7,23.9,,,,,,,,,wg-a,,,,AAXX 22064 07661 12/65 00806 10200 20140 30060 40219 53010 60006 80000 90600 333 10239 20177=
07661,1996-07-22 12:00:00,26,1022.1,0,61,18,10000,18.52,,,140,,,,,,,,,,,wg-a,,,,AAXX 22124 07661 12/60 01410 10260 20180 30065 40221 50000 60006 80000 91200=
07661,1996-07-22 18:00:00,23,1021.4,-0.2,73,18,15000,7.408,,,160,19.9,26.4,,,,,,,,,wg-a,,,,AAXX 22184 07661 12/65 01604 10230 20180 30057 40214 56002 60006 80000 91800 333 10264 20199=
07661,1996-07-23 00:00:00,19,1022.4,-0,78,15,18000,14.816,,,100,,,,,,,,,,,wg-a,,,,AAXX 23004 07661 12/68 01008 10190 20150 30064 40224 54000 60006 80000 90000=
07661,1996-07-23 06:00:00,19,1022.4,0.7,78,15,15000,14.816,,,90,17.6,23.3,,,,,,,,,wg-a,,,,AAXX 23064 07661 12/65 00908 10190 20150 30064 40224 51007 60006 80000 90600 333 10233 20176=
07661,1996-07-23 12:00:00,25,1021.9,-0.8,74,20,17000,14.816,,,140,,,,,,,,,,,wg-a,,,,AAXX 23124 07661 12/67 01408 10250 20200 30062 40219 57008 60006 80000 91200=
07661,1996-07-23 18:00:00,23,1020.8,-0.7,73,18,20000,7.408,,,180,19.3,26.9,,,,,,,,,wg-a,,,,AAXX 23184 07661 12/70 31804 10230 20180 30051 40208 55007 60006 82718 91800 333 10269 20193=
07661,1996-07-24 00:00:00,21,1019.5,-1.6,94,20,15000,3.704,,,230,,,,,,,,,,,wg-a,,,,AAXX 24004 07661 12/65 82302 10210 20200 30037 40195 58016 60006 8/710 90000=
07661,1996-07-24 06:00:00,22,1018.8,-0.2,78,18,10000,3.704,,,80,20.6,23.4,,,,,,,,,wg-a,,,,AAXX 24064 07661 12460 40802 10220 20180 30030 40188 55002 60006 84600 90600 333 10234 20206=
07661,1996-07-24 12:00:00,26,1017.8,-0.5,79,22,10000,18.52,,,140,,,,,,,,,,,wg-a,,,,AAXX 24124 07661 12660 71410 10260 20220 30023 40178 58005 60006 8534/ 91200=
07661,1996-07-24 18:00:00,24,1015.7,-0.8,89,22,10000,14.816,,,220,21.8,27.6,,,,,,,,,wg-a,,,,AAXX 24184 07661 12660 52208 10240 20220 30002 40157 56008 60006 8454/ 91800 333 10276 20218=
07661,1996-07-25 00:00:00,24,1013.7,-3.8,78,20,0,11.112,,,70,,,,,,,,,,,wg-a,,,,AAXX 25004 07661 12/// /0706 10240 20200 39981 40137 56038 60006 90000=
07661,1996-07-25 06:00:00,23,1014.8,-0.2,94,22,10000,22.224,,,290,22.1,25.3,,,,,,,,,wg-a,,,,AAXX 25064 07661 12560 62912 10230 20220 39992 40148 56002 60006 85730 90600 333 10253 20221=
07661,1996-07-25 12:00:00,30,1014.1,-0.8,40,15,10000,38.892,,57.412,280,,,,,,,,,,,wg-a,,,,AAXX 25124 07661 12/60 22821 10300 20150 39988 40141 58008 60006 80001 91200 333 91031=
07661,1996-07-25 18:00:00,29,1011.5,-0.8,48,17,25000,18.52,,,300,22.6,32.4,,,,,,,,,wg-a,,,,AAXX 25184 07661 12/75 43010 10290 20170 39962 40115 56008 60006 83051 91800 333 10324 20226=
07661,1996-07-26 00:00:00,23,1014,0.6,78,19,10000,14.816,,,90,,,,,,,,,,,wg-a,,,,AAXX 26004 07661 12/60 20908 10230 20190 39984 40140 51006 60006 80002 90000=
07661,1996-07-26 06:00:00,23,1013.6,0.6,78,19,8000,14.816,,,80,21,28.6,,,,,,,,,wg-a,,,,AAXX 26064 07661 12/58 30808 10230 20190 39980 40136 50006 60006 83070 90600 333 10286 20210=
07661,1996-07-26 12:00:00,26,1013.8,0.2,74,21,8000,31.484,,53.708,100,,,,,,,,,,,wg-a,,,,AAXX 26124 07661 12/58 21017 10260 20210 39984 40138 51002 60006 82070 91200 333 91029=
07661,1996-07-26 18:00:00,27,1012.5,-1,58,18,8000,31.484,,,90,21.7,29.3,,,,,,,,,wg-a,,,,AAXX 26184 07661 12858 30917 10270 20180 39971 40125 55010 60006 83070 91800 333 10293 20217=
07661,1996-07-27 00:00:00,26,1012.3,-2.7,61,18,8000,38.892,,,60,,,,,,,,,,,wg-a,,,,AAXX 27004 07661 12858 50621 10260 20180 39969 40123 57027 60006 85070 90000=
07661,1996-07-27 06:00:00,25,1014,-0.2,74,20,8000,50.004,,75.932,80,23.9,27,,,,,,,,3,wg-a,,,,AAXX 27064 07661 02558 70827 10250 20200 39985 40140 56002 61000 70361 8536/ 90600 333 10270 20239 //// 91041=
07661,1996-07-27 12:00:00,27,1016.4,1.2,58,18,7000,35.188,,83.34,90,,,,1,,,,,,2,wg-a,,,,AAXX 27124 07661 02557 80919 10270 20180 30009 40164 51012 60016 70282 8/070 91200 333 60017 91045=
07661,1996-07-27 18:00:00,24,1015.6,-1.4,74,19,12000,35.188,,64.82,60,22.5,28.5,,1,,,,,,2,wg-a,,,,AAXX 27184 07661 12862 70619 10240 20190 30000 40156 58014 60017 70262 87075 91800 333 10285 20225 91035=
07661,1996-07-28 00:00:00,23,1015.3,-0.9,78,19,15000,29.632,,,70,,,,,,,,,,,wg-a,,,,AAXX 28004 07661 12865 80716 10230 20190 39997 40153 56009 60006 8/260 90000=
07661,1996-07-28 06:00:00,23,1015.1,0.6,78,19,10000,14.816,,,60,20.6,24.5,,,,,,,,,wg-a,,,,AAXX 28064 07661 12560 60608 10230 20190 39995 40151 53006 60006 83630 90600 333 10245 20206=
07661,1996-07-28 12:00:00,24,1016.7,0.8,78,20,0,18.52,,,180,,,,,,,,,,,wg-a,,,,AAXX 28124 07661 12/// /1810 10240 20200 30011 40167 51008 60006 91200=
07661,1996-07-28 18:00:00,25,1015.6,-0.7,69,19,14000,18.52,,,300,22.5,26.4,,,,,,,,1,wg-a,,,,AAXX 28184 07661 32864 33010 10250 20190 30000 40156 55007 70161 83060 91800 333 10264 20225=
07661,1996-07-29 00:00:00,22,1016.5,-0.4,94,21,12000,3.704,,,250,,,,,,,,,,,wg-a,,,,AAXX 29004 07661 12/62 02502 10220 20210 30008 40165 56004 60006 80000 90000=
07661,1996-07-29 06:00:00,22,1016.1,0.5,83,19,10000,7.408,,,60,20.3,24.8,,,,,,,,,wg-a,,,,AAXX 29064 07661 12/60 00604 10220 20190 30004 40161 51005 60006 80000 90600 333 10248 20203=
07661,1996-07-29 12:00:00,27,1015.7,-0.6,70,21,10000,25.928,,,220,,,,,,,,,,,wg-a,,,,AAXX 29124 07661 12/60 02214 10270 20210 30003 40157 58006 60006 80000 91200=
07661,1996-07-29 18:00:00,26,1013.3,-1.2,58,17,12000,31.484,,,290,22.3,29.2,,,,,,,,,wg-a,,,,AAXX 29184 07661 12/62 32917 10260 20170 39978 40133 58012 60006 80004 91800 333 10292 20223=
07661,1996-07-30 00:00:00,23,1012.8,-1.5,73,18,10000,31.484,,,300,,,,,,,,,,,wg-a,,,,AAXX 30004 07661 12860 83017 10230 20180 39972 40128 58015 60006 8807/ 90000=
07661,1996-07-30 06:00:00,24,1011,0,57,15,14000,31.484,,,300,22.8,25.6,,,,,,,,,wg-a,,,,AAXX 30064 07661 12864 33017 10240 20150 39954 40110 50000 60006 83030 90600 333 10256 20228=
07661,1996-07-30 12:00:00,29,1010.3,-1.1,40,14,25000,50.004,,72.228,290,,,,,,,,,,,wg-a,,,,AAXX 30124 07661 12675 12927 10290 20140 39950 40103 58011 60006 81100 91200 333 91039=
07661,1996-07-30 18:00:00,29,1010.2,-0.4,33,11,25000,46.3,,79.636,320,23.4,30.2,,,,,,,,,wg-a,,,,AAXX 30184 07661 12675 13225 10290 20110 39949 40102 56004 60006 81100 91800 333 10302 20234 91043=
07661,1996-07-31 00:00:00,22,1013,0.6,73,17,25000,22.224,,,90,,,,,,,,,,,wg-a,,,,AAXX 31004 07661 12/75 00912 10220 20170 39973 40130 50006 60006 80000 90000=
07661,1996-07-31 06:00:00,22,1014.2,1.2,69,16,25000,11.112,,,250,20.2,28.5,,,,,,,,,wg-a,,,,AAXX 31064 07661 12/75 02506 10220 20160 39985 40142 53012 60006 80000 90600 333 10285 20202=
07661,1996-07-31 12:00:00,29,1015.9,0.9,40,14,500,11.112,,,210,,,,,,,,,,,wg-a,,,,AAXX 31124 07661 12/00 12106 10290 20140 30005 40159 51009 60006 81200 91200=
07661,1996-07-31 18:00:00,27,1015.4,-0.3,51,16,500,7.408,,,250,22.3,30.3,,,,,,,,,wg-a,,,,AAXX 31184 07661 12/00 02504 10270 20160 39999 40154 55003 60006 80000 91800 333 10303 20223=
07661,1996-08-01 00:00:00,23,1016,,69,17,0,11.112,,,280,,,,,,,,,,,wg-a,,,,AAXX 01004 07661 12/// /2806 10230 20170 30003 40160 60006 90000=
07661,1996-08-01 06:00:00,24,1017.1,1.1,65,17,20000,3.704,,,50,21.2,26.6,,,,,,,,,wg-a,,,,AAXX 01064 07661 12870 30502 10240 20170 30015 40171 53011 60006 83050 90600 333 10266 20212=
07661,1996-08-01 12:00:00,27,1018.3,0.2,62,19,20000,18.52,,,180,,,,,,,,,,,wg-a,,,,AAXX 01124 07661 12/70 11810 10270 20190 30028 40183 51002 60006 81100 91200=
07661,1996-08-01 18:00:00,26,1017.6,-0.2,58,17,500,14.816,,,290,23.4,28.3,,,,,,,,,wg-a,,,,AAXX 01184 07661 12/00 12908 10260 20170 30021 40176 56002 60006 80002 91800 333 10283 20234=
07661,1996-08-02 00:00:00,21,1018.6,-0.2,94,20,20000,14.816,,,310,,,,,,,,,,,wg-a,,,,AAXX 02004 07661 12/70 23108 10210 20200 30028 40186 58002 60006 80002 90000=
07661,1996-08-02 06:00:00,21,1019.1,1,94,20,10000,14.816,,,280,18.9,26,,,,,,,,,wg-a,,,,AAXX 02064 07661 12560 62808 10210 20200 30033 40191 53010 60006 83204 90600 333 10260 20189=
07661,1996-08-02 12:00:00,26,1019.5,0,74,21,10000,22.224,,,240,,,,,,,,,,,wg-a,,,,AAXX 02124 07661 12660 22412 10260 20210 30040 40195 50000 60006 82201 91200=
07661,1996-08-02 18:00:00,23,1018.5,-0.6,83,20,60000,29.632,,,300,21.4,27.4,,,,,,,,,wg-a,,,,AAXX 02184 07661 12486 53016 10230 20200 30028 40185 57006 60006 85600 91800 333 10274 20214=
07661,1996-08-03 00:00:00,23,1018,-0.5,69,17,8000,14.816,,,310,,,,,,,,,,,wg-a,,,,AAXX 03004 07661 12658 33108 10230 20170 30023 40180 58005 60006 83600 90000=
07661,1996-08-03 06:00:00,22,1017.7,-0.3,69,16,15000,18.52,,,270,21,24,,,,,,,,,wg-a,,,,AAXX 03064 07661 12/65 52710 10220 20160 30019 40177 57003 60006 85070 90600 333 10240 20210=
07661,1996-08-03 12:00:00,27,1016.6,-0.7,51,16,15000,42.596,,64.82,290,,,,,,,,,,,wg-a,,,,AAXX 03124 07661 12/65 12923 10270 20160 30011 40166 58007 60006 80001 91200 333 91035=
07661,1996-08-03 18:00:00,25,1014.8,-0.7,65,18,20000,46.3,,75.932,300,21.7,29.1,,,,,,,,,wg-a,,,,AAXX 03184 07661 12/70 13025 10250 20180 39993 40148 55007 60006 81030 91800 333 10291 20217 91041=
07661,1996-08-04 00:00:00,23,1015.7,0.1,50,12,20000,22.224,,72.228,280,,,,,,,,,,,wg-a,,,,AAXX 04004 07661 12/70 02812 10230 20120 30000 40157 50001 60006 80000 90000 333 91039=
07661,1996-08-04 06:00:00,21,1015.9,0.3,73,16,0,0,,,0,19.3,25,,,,,,,,,wg-a,,,,AAXX 04064 07661 12/// /0000 10210 20160 30001 40159 53003 60006 90600 333 10250 20193=
07661,1996-08-04 12:00:00,27,1015.4,-0.4,62,19,15000,11.112,,,200,,,,,,,,,,,wg-a,,,,AAXX 04124 07661 12665 32006 10270 20190 30000 40154 56004 60006 83200 91200=
07661,1996-08-04 18:00:00,24,1014.8,-0.2,65,17,15000,7.408,,,220,21.1,27.6,,,,,,,,,wg-a,,,,AAXX 04184 07661 12665 22204 10240 20170 39992 40148 56002 60006 82200 91800 333 10276 20211=
07661,1996-08-05 00:00:00,22,1014.8,-0.1,60,14,10000,11.112,,,310,,,,,,,,,,,wg-a,,,,AAXX 05004 07661 12660 53106 10220 20140 39991 40148 58001 60006 85200 90000=
07661,1996-08-05 06:00:00,20,1014.8,0.4,73,15,10000,14.816,,,100,19.1,23.5,,,,,,,,,wg-a,,,,AAXX 05064 07661 12860 81008 10200 20150 39990 40148 52004 60006 8807/ 90600 333 10235 20191=
07661,1996-08-05 12:00:00,26,1014.3,-0.7,51,15,15000,14.816,,,160,,,,,,,,,,,wg-a,,,,AAXX 05124 07661 02865 51608 10260 20150 39988 40143 58007 61000 85040 91200 333 ////=
07661,1996-08-05 18:00:00,24,1013.6,-0.5,65,17,20000,3.704,,,160,19.6,26.9,,,,,,,,,wg-a,,,,AAXX 05184 07661 32870 51602 10240 20170 39980 40136 56005 85030 91800 333 10269 20196=
07661,1996-08-06 00:00:00,21,1014.6,-0.2,78,17,20000,7.408,,,340,,,,,,,,,,,wg-a,,,,AAXX 06004 07661 12/70 03404 10210 20170 39988 40146 58002 60006 80000 90000=
07661,1996-08-06 06:00:00,21,1014.8,0.6,73,16,500,11.112,,,80,19.4,23.9,,,,,,,,,wg-a,,,,AAXX 06064 07661 12/00 20806 10210 20160 39990 40148 53006 60006 80008 90600 333 10239 20194=
07661,1996-08-06 12:00:00,26,1015.5,0.5,58,17,500,14.816,,,140,,,,,,,,,,,wg-a,,,,AAXX 06124 07661 12600 51408 10260 20170 30000 40155 50005 60006 81201 91200=
07661,1996-08-06 18:00:00,25,1015.6,0.1,69,19,500,7.408,,,220,21,27.2,,,,,,,,,wg-a,,,,AAXX 06184 07661 12/00 02204 10250 20190 30000 40156 53001 60006 80000 91800 333 10272 20210=
07661,1996-08-07 00:00:00,21,1017,0.2,83,18,20000,3.704,,,20,,,,,,,,,,,wg-a,,,,AAXX 07004 07661 12/70 00202 10210 20180 30012 40170 53002 60006 80000 90000=
07661,1996-08-07 06:00:00,21,1017.4,0.5,83,18,20000,7.408,,,300,20.5,24.6,,,,,,,,,wg-a,,,,AAXX 07064 07661 12/70 03004 10210 20180 30016 40174 53005 60006 80000 90600 333 10246 20205=
07661,1996-08-07 12:00:00,27,1016.1,-0.7,70,21,20000,14.816,,,210,,,,,,,,,,,wg-a,,,,AAXX 07124 07661 12/70 42108 10270 20210 30007 40161 56007 60006 80001 91200=
07661,1996-08-07 18:00:00,24,1014.9,-1.3,83,21,24000,11.112,,,240,21.4,27.7,,,,,,,,,wg-a,,,,AAXX 07184 07661 12674 52406 10240 20210 39993 40149 56013 60006 82370 91800 333 10277 20214=
07661,1996-08-08 00:00:00,22,1014.6,-1.5,88,20,10000,11.112,,,320,,,,,,,,,,,wg-a,,,,AAXX 08004 07661 12/60 03206 10220 20200 39989 40146 58015 60006 80000 90000=
07661,1996-08-08 06:00:00,22,1012.6,-1.1,94,21,10000,18.52,,,70,21.7,23.6,,,,,,,,60,wg-a,,,,AAXX 08064 07661 02560 80710 10220 20210 39970 40126 58011 61000 76062 8772/ 90600 333 10236 20217 ////=
07661,1996-08-08 12:00:00,24,1014.3,0.4,78,20,10000,11.112,,,240,,,,,,,,,,60,wg-a,,,,AAXX 08124 07661 02560 72406 10240 20200 39987 40143 50004 61000 76062 84470 91200 333 6100=
07661,1996-08-08 18:00:00,24,1013.3,-0.5,69,18,15000,11.112,,,280,21.3,27.4,,,,,,,,,wg-a,,,,AAXX 08184 07661 32565 22806 10240 20180 39977 40133 56005 82200 91800 333 10274 20213=
07661,1996-08-09 00:00:00,21,1014.5,0.1,88,19,15000,14.816,,,330,,,,,,,,,,,wg-a,,,,AAXX 09004 07661 12/65 03308 10210 20190 39988 40145 53001 60006 80000 90000=
07661,1996-08-09 06:00:00,21,1014.8,0.8,83,18,15000,18.52,,,70,19.2,23.4,,,,,,,,,wg-a,,,,AAXX 09064 07661 12/65 10710 10210 20180 39991 40148 53008 60006 80001 90600 333 10234 20192=
07661,1996-08-09 12:00:00,27,1015.5,0,58,18,20000,14.816,,,170,,,,,,,,,,,wg-a,,,,AAXX 09124 07661 12670 11708 10270 20180 30000 40155 50000 60006 81200 91200=
07661,1996-08-09 18:00:00,25,1014.3,-0.8,79,21,20000,11.112,,,220,21.5,28.7,,,,,,,,,wg-a,,,,AAXX 09184 07661 12/70 02206 10250 20210 39988 40143 56008 60006 80000 91800 333 10287 20215=
07661,1996-08-10 00:00:00,11,1014.8,-0.5,,,20000,14.816,,,300,,,,,,,,,,,wg-a,,,,AAXX 10004 07661 12/70 03008 10110 2//// 39991 40148 56005 60006 80000 90000=
07661,1996-08-10 06:00:00,23,1013.9,0.1,69,17,20000,3.704,,,330,20.7,24.8,,,,,,,,,wg-a,,,,AAXX 10064 07661 12/70 03302 10230 20170 39983 40139 53001 60006 80000 90600 333 10248 20207=
07661,1996-08-10 12:00:00,28,1013.7,-0.7,66,21,25000,14.816,,,200,,,,,,,,,,,wg-a,,,,AAXX 10124 07661 12/75 32008 10280 20210 39984 40137 58007 60006 83060 91200=
07661,1996-08-10 18:00:00,25,1011.9,-1,79,21,20000,7.408,,,160,23.1,28.9,,,,,,,,,wg-a,,,,AAXX 10184 07661 12/70 61604 10250 20210 39964 40119 55010 60006 83074 91800 333 10289 20231=
07661,1996-08-11 00:00:00,23,1011.2,-0.5,89,21,15000,14.816,,,290,,,,,,,,,,,wg-a,,,,AAXX 11004 07661 12665 32908 10230 20210 39956 40112 58005 60006 83300 90000=
07661,1996-08-11 06:00:00,22,1010.7,0.7,83,19,15000,11.112,,,310,21.1,24.4,,,,,,,,,wg-a,,,,AAXX 11064 07661 12/65 63106 10220 20190 39951 40107 51007 60006 86030 90600 333 10244 20211=
07661,1996-08-11 12:00:00,28,1009.9,-0.6,42,14,25000,29.632,,53.708,290,,,,,,,,,,,wg-a,,,,AAXX 11124 07661 12/75 72916 10280 20140 39946 40099 55006 60006 8707/ 91200 333 91029=
07661,1996-08-11 18:00:00,23,1009.7,-0.7,65,16,500,25.928,,64.82,290,22.2,28.2,,,,,,,,,wg-a,,,,AAXX 11184 07661 12/00 32914 10230 20160 39941 40097 56007 60006 83070 91800 333 10282 20222 91035=
07661,1996-08-12 06:00:00,20,1010.4,0.5,64,13,35000,29.632,,,300,18.9,22.9,,,,,,,,,wg-a,,,,AAXX 12064 07661 12/81 23016 10200 20130 39946 40104 53005 60006 82040 90600 333 10229 20189=
07661,1996-08-12 12:00:00,23,1010.5,0.2,57,14,50000,53.708,,79.636,290,,,,,,,,,,,wg-a,,,,AAXX 12124 07661 12684 12929 10230 20140 39949 40105 53002 60006 81100 91200 333 91043=
07661,1996-08-12 18:00:00,23,1010.5,0.3,57,14,50000,46.3,,83.34,300,19.5,24.2,,,,,,,,,wg-a,,,,AAXX 12184 07661 12684 23025 10230 20140 39949 40105 53003 60006 82100 91800 333 10242 20195 91045=
07661,1996-08-13 00:00:00,21,1012.6,0.2,43,8,50000,31.484,,,300,,,,,,,,,,,wg-a,,,,AAXX 13004 07661 12/84 03017 10210 20080 39968 40126 51002 60006 80000 90000=
07661,1996-08-13 06:00:00,20,1012.5,0.5,53,10,50000,29.632,,,290,19,22.9,,,,,,,,,wg-a,,,,AAXX 13064 07661 12/84 02916 10200 20100 39967 40125 53005 60006 80000 90600 333 10229 20190=
07661,1996-08-13 12:00:00,24,1012.5,-0.6,44,11,40000,38.892,,64.82,290,,,,,,,,,,,wg-a,,,,AAXX 13124 07661 12/82 02921 10240 20110 39969 40125 58006 60006 80000 91200 333 91035=
07661,1996-08-13 18:00:00,22,1012.1,0.3,60,14,45000,42.596,,94.452,290,19.5,24.7,,,,,,,,,wg-a,,,,AAXX 13184 07661 12/83 12923 10220 20140 39964 40121 53003 60006 80001 91800 333 10247 20195 91051=
07661,1996-08-14 00:00:00,20,1013.3,-0.1,60,12,20000,18.52,,72.228,300,,,,,,,,,,,wg-a,,,,AAXX 14004 07661 12/70 03010 10200 20120 39975 40133 58001 60006 80000 90000 333 91039=
07661,1996-08-14 06:00:00,19,1013.1,0.4,60,11,500,7.408,,,260,17,21.9,,,,,,,,,wg-a,,,,AAXX 14064 07661 12/00 12604 10190 20110 39972 40131 53004 60006 80001 90600 333 10219 20170=
07661,1996-08-14 12:00:00,25,1013.2,-0.3,44,12,500,11.112,,,210,,,,,,,,,,,wg-a,,,,AAXX 14124 07661 12600 32106 10250 20120 39977 40132 55003 60006 81102 91200=
07661,1996-08-14 18:00:00,22,1012.5,-0.2,69,16,25000,14.816,,,260,18.5,27.1,,,,,,,,,wg-a,,,,AAXX 14184 07661 12/75 42608 10220 20160 39968 40125 57002 60006 80003 91800 333 10271 20185=
07661,1996-08-15 00:00:00,19,1013.6,0.4,83,16,14000,14.816,,,80,,,,,,,,,,,wg-a,,,,AAXX 15004 07661 12/64 00808 10190 20160 39977 40136 51004 60006 80000 90000=
07661,1996-08-15 06:00:00,19,1013.6,0.7,78,15,20000,11.112,,,320,17.9,22.7,,,,,,,,,wg-a,,,,AAXX 15064 07661 12/70 33206 10190 20150 39978 40136 53007 60006 80002 90600 333 10227 20179=
07661,1996-08-15 12:00:00,24,1014.1,-0.1,69,18,12000,11.112,,,210,,,,,,,,,,,wg-a,,,,AAXX 15124 07661 12662 12106 10240 20180 39985 40141 58001 60006 81200 91200=
07661,1996-08-15 18:00:00,26,1012.1,-1.2,48,14,18000,29.632,,,290,19.4,27.5,,,,,,,,,wg-a,,,,AAXX 15184 07661 12/68 02916 10260 20140 39966 40121 55012 60006 80000 91800 333 10275 20194=
07661,1996-08-16 00:00:00,20,1014.6,0.5,78,16,20000,22.224,,,80,,,,,,,,,,,wg-a,,,,AAXX 16004 07661 12/70 00812 10200 20160 39988 40146 51005 60006 80000 90000=
07661,1996-08-16 06:00:00,19,1015.9,1.3,78,15,18000,14.816,,,80,18.1,25.8,,,,,,,,,wg-a,,,,AAXX 16064 07661 12/68 00808 10190 20150 30000 40159 53013 60006 80000 90600 333 10258 20181=
07661,1996-08-16 12:00:00,26,1016.1,-0,61,18,18000,11.112,,,210,,,,,,,,,,,wg-a,,,,AAXX 16124 07661 12/68 02106 10260 20180 30006 40161 55000 60006 80000 91200=
07661,1996-08-16 18:00:00,24,1016.3,-0.1,57,15,40000,7.408,,,220,19.5,27.8,,,,,,,,,wg-a,,,,AAXX 16184 07661 12/82 02204 10240 20150 30007 40163 58001 60006 80000 91800 333 10278 20195=
07661,1996-08-17 00:00:00,21,1017.7,0.3,69,15,20000,14.816,,,300,,,,,,,,,,,wg-a,,,,AAXX 17004 07661 12/70 03008 10210 20150 30019 40177 51003 60006 80000 90000=
07661,1996-08-17 06:00:00,22,1017.7,0.6,57,13,20000,11.112,,,90,19.6,24.3,,,,,,,,,wg-a,,,,AAXX 17064 07661 12/70 00906 10220 20130 30019 40177 53006 60006 80000 90600 333 10243 20196=
07661,1996-08-17 12:00:00,26,1017.7,-0.4,58,17,15000,14.816,,,210,,,,,,,,,,,wg-a,,,,AAXX 17124 07661 12/65 02108 10260 20170 30022 40177 58004 60006 80000 91200=
07661,1996-08-17 18:00:00,24,1015.9,-0.9,57,15,15000,25.928,,,300,21.2,28.1,,,,,,,,,wg-a,,,,AAXX 17184 07661 12/65 03014 10240 20150 30003 40159 56009 60006 80000 91800 333 10281 20212=
07661,1996-08-18 00:00:00,21,1016.2,-0.3,69,15,20000,7.408,,,350,,,,,,,,,,,wg-a,,,,AAXX 18004 07661 12/70 03504 10210 20150 30004 40162 58003 60006 80000 90000=
07661,1996-08-18 06:00:00,20,1015.4,0.2,73,15,10000,18.52,,,80,17.9,24.2,,,,,,,,,wg-a,,,,AAXX 18064 07661 12/60 00810 10200 20150 39996 40154 53002 60006 80000 90600 333 10242 20179=
07661,1996-08-18 12:00:00,28,1015.5,-0.1,62,20,10000,11.112,,,200,,,,,,,,,,,wg-a,,,,AAXX 18124 07661 12660 12006 10280 20200 30001 40155 58001 60006 81300 91200=
07661,1996-08-18 18:00:00,23,1014.5,-0.6,89,21,8000,11.112,,,170,19.9,28,,,,,,,,,wg-a,,,,AAXX 18184 07661 12/58 01706 10230 20210 39989 40145 56006 60006 80000 91800 333 10280 20199=
07661,1996-08-19 00:00:00,20,1015.7,-0.2,94,19,8000,11.112,,,80,,,,,,,,,,,wg-a,,,,AAXX 19004 07661 12/58 00806 10200 20190 39999 40157 58002 60006 80000 90000=
07661,1996-08-19 06:00:00,20,1015.7,0.2,83,17,10000,14.816,,,80,18.2,23.2,,,,,,,,,wg-a,,,,AAXX 19064 07661 12/60 10808 10200 20170 39999 40157 53002 60006 81060 90600 333 10232 20182=
07661,1996-08-19 12:00:00,26,1016.5,0,70,20,10000,18.52,,,140,,,,,,,,,,,wg-a,,,,AAXX 19124 07661 12660 21410 10260 20200 30010 40165 50000 60006 82300 91200=
07661,1996-08-19 18:00:00,23,1015.4,-0.4,69,17,18000,22.224,,,80,19.7,26.4,,,,,,,,,wg-a,,,,AAXX 19184 07661 12/68 20812 10230 20170 39998 40154 55004 60006 82040 91800 333 10264 20197=
07661,1996-08-20 06:00:00,20,1015.9,0.2,78,16,20000,11.112,,,80,18.2,23.2,,,,,,,,,wg-a,,,,AAXX 20064 07661 12/70 00806 10200 20160 30000 40159 53002 60006 80000 90600 333 10232 20182=
07661,1996-08-20 12:00:00,26,1015.8,-0.2,70,20,18000,18.52,,,90,,,,,,,,,,,wg-a,,,,AAXX 20124 07661 12/68 00910 10260 20200 30003 40158 58002 60006 80000 91200=
07661,1996-08-20 18:00:00,23,1014.3,-0.3,94,22,15000,18.52,,,90,19.6,27.2,,,,,,,,,wg-a,,,,AAXX 20184 07661 12565 20910 10230 20220 39987 40143 56003 60006 81130 91800 333 10272 20196=
07661,1996-08-21 00:00:00,20,1014.9,-0.2,88,18,0,14.816,,,80,,,,,,,,,,,wg-a,,,,AAXX 21004 07661 12/// /0808 10200 20180 39991 40149 58002 60006 90000=
07661,1996-08-21 06:00:00,21,1013.8,0.1,73,16,15000,22.224,,,70,18.9,22.7,,,,,,,,,wg-a,,,,AAXX 21064 07661 32265 60712 10210 20160 39980 40138 53001 81130 90600 333 10227 20189=
07661,1996-08-21 12:00:00,23,1013.2,-0.3,78,19,10000,35.188,,,90,,,,,,,,,,,wg-a,,,,AAXX 21124 07661 12/60 70919 10230 20190 39976 40132 56003 60006 8707/ 91200=
07661,1996-08-21 18:00:00,21,1011.6,-1.3,94,20,10000,22.224,,,90,20.6,26.6,,2,,,,,,21,wg-a,,,,AAXX 21184 07661 12560 60912 10210 20200 39959 40116 55013 60027 72196 84904 91800 333 10266 20206=
07661,1996-08-28 12:00:00,23,1012.8,,44,10,50000,46.3,,,310,,,,,,,,,,,wg-a,,,,AAXX 28124 07661 32/84 03125 10230 20100 39971 40128 80000 91200=
07661,1996-08-28 18:00:00,22,1012.7,0.6,35,6,50000,42.596,,79.636,300,,,,,,,,,,,wg-a,,,,AAXX 28184 07661 32/84 03023 10220 20060 39970 40127 52006 80000 91800 333 91043=
07661,1996-08-29 00:00:00,19,1013.9,0.3,40,5,40000,38.892,,83.34,300,,,,,,,,,,,wg-a,,,,AAXX 29004 07661 12/82 03021 10190 20050 39980 40139 50003 60006 80000 90000 333 91045=
07661,1996-08-29 06:00:00,16,1014.2,0.2,55,7,50000,25.928,,,290,16.4,21.7,,,,,,,,,wg-a,,,,AAXX 29064 07661 12/84 12914 10160 20070 39982 40142 53002 60006 80001 90600 333 10217 20164=
07661,1996-08-29 12:00:00,20,1014,-0.7,60,12,500,50.004,,72.228,290,,,,,,,,,,,wg-a,,,,AAXX 29124 07661 12/00 32927 10200 20120 39982 40140 58007 60006 80003 91200 333 91039=
07661,1996-08-29 18:00:00,19,1013.9,0.5,68,13,500,50.004,,75.932,290,16.3,21.1,,,,,,,,,wg-a,,,,AAXX 29184 07661 12/00 02927 10190 20130 39980 40139 53005 60006 80000 91800 333 10211 20163 91041=
07661,1996-08-30 00:00:00,18,1015.4,0,52,8,500,29.632,,,300,,,,,,,,,,,wg-a,,,,AAXX 30004 07661 12/00 03016 10180 20080 39994 40154 50000 60006 80000 90000=
07661,1996-08-30 06:00:00,16,1016,1,63,9,500,11.112,,,300,15.3,19.1,,,,,,,,,wg-a,,,,AAXX 30064 07661 12/00 13006 10160 20090 39999 40160 52010 60006 80001 90600 333 10191 20153=
07661,1996-08-30 12:00:00,20,1015.9,-0.6,53,10,18000,31.484,,,290,,,,,,,,,,,wg-a,,,,AAXX 30124 07661 12868 52917 10200 20100 30001 40159 56006 60006 84071 91200=
07661,1996-08-30 18:00:00,20,1015.2,-0.2,56,11,18000,22.224,,61.116,300,15.6,22,,,,,,,,,wg-a,,,,AAXX 30184 07661 12568 73012 10200 20110 39994 40152 58002 60006 82242 91800 333 10220 20156 91033=
07661,1996-08-31 00:00:00,18,1016,0.3,59,10,15000,11.112,,,290,,,,,,,,,,,wg-a,,,,AAXX 31004 07661 12865 72906 10180 20100 30000 40160 51003 60006 8707/ 90000=
07661,1996-08-31 06:00:00,18,1016.4,0.3,59,10,20000,3.704,,,100,16.2,20.3,,,,,,,,,wg-a,,,,AAXX 31064 07661 12/70 21002 10180 20100 30004 40164 53003 60006 80001 90600 333 10203 20162=
07661,1996-08-31 12:00:00,26,1016.4,-0.4,37,10,20000,14.816,,,220,,,,,,,,,,,wg-a,,,,AAXX 31124 07661 12670 42208 10260 20100 30008 40164 58004 60006 82201 91200=
07661,1996-08-31 18:00:00,23,1015.6,-0.5,47,11,20000,18.52,,,270,17.8,27,,,,,,,,,wg-a,,,,AAXX 31184 07661 12/70 02710 10230 20110 39999 40156 56005 60006 80000 91800 333 10270 20178=
07661,1996-09-01 00:00:00,19,1016.3,-0.4,60,11,20000,14.816,,,280,,,,,,,,,,,wg-a,,,,AAXX 01004 07661 12570 12808 10190 20110 30004 40163 58004 60006 81200 90000=
07661,1996-09-01 06:00:00,18,1016.2,0.3,73,13,20000,7.408,,,360,16.2,22.7,,,,,,,,,wg-a,,,,AAXX 01064 07661 12/70 03604 10180 20130 30002 40162 50003 60006 80000 90600 333 10227 20162=
07661,1996-09-01 12:00:00,23,1016.1,-0.4,61,15,20000,7.408,,,60,,,,,,,,,,,wg-a,,,,AAXX 01124 07661 12770 60604 10230 20150 30004 40161 55004 60006 82206 91200=
07661,1996-09-01 18:00:00,22,1014.9,-0.1,57,13,20000,3.704,,,120,17.8,24.6,,,,,,,,,wg-a,,,,AAXX 01184 07661 12670 51202 10220 20130 39992 40149 55001 60006 85800 91800 333 10246 20178=
07661,1996-09-02 00:00:00,18,1015.3,-0.2,88,16,15000,14.816,,,80,,,,,,,,,,,wg-a,,,,AAXX 02004 07661 12665 40808 10180 20160 39993 40153 58002 60006 81803 90000=
07661,1996-09-02 06:00:00,18,1013.9,-0.1,83,15,20000,14.816,,,60,17.2,22.2,,,,,,,,,wg-a,,,,AAXX 02064 07661 12670 50608 10180 20150 39980 40139 55001 60006 83830 90600 333 10222 20172=
07661,1996-09-02 12:00:00,19,1013.8,-0.2,83,16,20000,0,,,0,,,,,,,,,,21,wg-a,,,,AAXX 02124 07661 02570 60000 10190 20160 39979 40138 58002 61000 72196 85360 91200 333 6100=
07661,1996-09-02 18:00:00,16,1014.5,-0.1,88,14,12000,11.112,,,40,14.8,20.9,,,,,,,,29,wg-a,,,,AAXX 02184 07661 32562 70406 10160 20140 39984 40145 57001 72996 85961 91800 333 10209 20148=
07661,1996-09-03 00:00:00,16,1014.7,-0.5,82,13,15000,7.408,,,360,,,,,,,,,,,wg-a,,,,AAXX 03004 07661 12865 73604 10160 20130 39986 40147 58005 60006 87070 90000=
07661,1996-09-03 06:00:00,15,1013.1,-0,82,12,35000,14.816,,,60,14.5,16.7,,,,,,,,,wg-a,,,,AAXX 03064 07661 12581 50608 10150 20120 39970 40131 55000 60006 82262 90600 333 10167 20145=
07661,1996-09-03 12:00:00,18,1013,-0.6,77,14,25000,25.928,,,60,,,,,,,,,,,wg-a,,,,AAXX 03124 07661 12575 80614 10180 20140 39971 40130 56006 60006 82260 91200=
07661,1996-09-03 18:00:00,15,1012.1,-0.6,88,13,18000,3.704,,,100,14.7,19.4,,0,,,,,,3,wg-a,,,,AAXX 03184 07661 12568 71002 10150 20130 39960 40121 56006 60007 70362 83370 91800 333 10194 20147=
07661,1996-09-04 00:00:00,15,1011.9,-0.6,82,12,20000,11.112,,,30,,,,0,,,,,,,wg-a,,,,AAXX 04004 07661 02570 70306 10150 20120 39958 40119 58006 60026 82370 90000 333 60007=
07661,1996-09-04 06:00:00,16,1012.7,0.9,77,12,500,14.816,,,310,14.1,16,,0,,,,,,,wg-a,,,,AAXX 04064 07661 12500 63108 10160 20120 39967 40127 52009 60007 83270 90600 333 10160 20141=
07661,1996-09-04 12:00:00,21,1013.8,0.7,69,15,15000,18.52,,,220,,,,,,,,,,,wg-a,,,,AAXX 04124 07661 12665 12210 10210 20150 39981 40138 52007 60006 81100 91200=
07661,1996-09-04 18:00:00,19,1013.2,-0.3,78,15,15000,25.928,,,290,15.7,22.4,,,,,,,,,wg-a,,,,AAXX 04184 07661 12/65 02914 10190 20150 39973 40132 55003 60006 80000 91800 333 10224 20157=
07661,1996-09-05 00:00:00,17,1014.1,-0.2,77,13,15000,22.224,,,310,,,,,,,,,,,wg-a,,,,AAXX 05004 07661 12/65 03112 10170 20130 39981 40141 55002 60006 80000 90000=
07661,1996-09-05 06:00:00,17,1013.3,0.3,82,14,15000,14.816,,,290,16,18.8,,,,,,,,,wg-a,,,,AAXX 05064 07661 12/65 02908 10170 20140 39973 40133 53003 60006 80000 90600 333 10188 20160=
07661,1996-09-05 12:00:00,24,1011.2,-1.4,54,14,15000,29.632,,,280,,,,,,,,,,,wg-a,,,,AAXX 05124 07661 12/65 02816 10240 20140 39957 40112 57014 60006 80000 91200=
07661,1996-09-05 18:00:00,21,1009.1,-1,69,15,10000,38.892,,68.524,290,17,24.6,,,,,,,,,wg-a,,,,AAXX 05184 07661 12/60 02921 10210 20150 39934 40091 56010 60006 80000 91800 333 10246 20170 91037=
07661,1996-09-06 00:00:00,19,1009.8,-0.1,73,14,10000,29.632,,75.932,300,,,,,,,,,,,wg-a,,,,AAXX 06004 07661 12/60 03016 10190 20140 39940 40098 55001 60006 80000 90000 333 91041=
07661,1996-09-06 06:00:00,18,1010.3,0.5,73,13,10000,22.224,,,300,17.1,20.7,,,,,,,,,wg-a,,,,AAXX 06064 07661 12/60 03012 10180 20130 39944 40103 53005 60006 80000 90600 333 10207 20171=
07661,1996-09-06 12:00:00,26,1010.2,0,48,14,10000,14.816,,,250,,,,,,,,,,,wg-a,,,,AAXX 06124 07661 12/60 02508 10260 20140 39948 40102 50000 60006 80000 91200=
07661,1996-09-06 18:00:00,24,1009.3,-0.4,41,10,12000,25.928,,,300,17.5,27.3,,,,,,,,,wg-a,,,,AAXX 06184 07661 12/62 03014 10240 20100 39937 40093 55004 60006 80000 91800 333 10273 20175=
07661,1996-09-07 00:00:00,19,1009.5,-0.3,46,7,20000,11.112,,,310,,,,,,,,,,,wg-a,,,,AAXX 07004 07661 12/70 03106 10190 20070 39937 40095 58003 60006 80000 90000=
07661,1996-09-07 06:00:00,17,1008.8,0.4,45,5,22000,14.816,,,340,16.4,24,,,,,,,,,wg-a,,,,AAXX 07064 07661 12/72 03408 10170 20050 39929 40088 53004 60006 80000 90600 333 10240 20164=
07661,1996-09-07 12:00:00,23,1011.5,1.3,47,11,500,22.224,,,110,,,,,,,,,,,wg-a,,,,AAXX 07124 07661 12700 31112 10230 20110 39959 40115 51013 60006 83200 91200=
07661,1996-09-07 18:00:00,21,1014.7,1.8,46,9,35000,11.112,,,190,17,24.7,,,,,,,,,wg-a,,,,AAXX 07184 07661 12/81 01906 10210 20090 39989 40147 52018 60006 80000 91800 333 10247 20170=
07661,1996-09-08 00:00:00,18,1015.3,-0.3,68,12,35000,11.112,,,70,,,,,,,,,,,wg-a,,,,AAXX 08004 07661 12/81 00706 10180 20120 39993 40153 55003 60006 80000 90000=
07661,1996-09-08 06:00:00,15,1013.8,-0.7,77,11,40000,18.52,,,90,14.2,20.7,,,,,,,,,wg-a,,,,AAXX 08064 07661 12582 60910 10150 20110 39977 40138 55007 60006 81236 90600 333 10207 20142=
07661,1996-09-08 12:00:00,22,1013.2,-0.7,65,15,40000,14.816,,,150,,,,,,,,,,,wg-a,,,,AAXX 08124 07661 12582 61508 10220 20150 39975 40132 57007 60006 83206 91200=
07661,1996-09-08 18:00:00,19,1012,-0.2,73,14,40000,14.816,,,280,15.1,24.3,,,,,,,,,wg-a,,,,AAXX 08184 07661 12582 52808 10190 20140 39962 40120 55002 60006 83206 91800 333 10243 20151=
07661,1996-09-09 00:00:00,17,1012.4,0.1,59,9,15000,14.816,,,80,,,,,,,,,,,wg-a,,,,AAXX 09004 07661 12/65 00808 10170 20090 39964 40124 52001 60006 80000 90000=
07661,1996-09-09 06:00:00,15,1012.6,0.5,82,12,20000,22.224,,,80,14.4,19.4,,,,,,,,,wg-a,,,,AAXX 09064 07661 12570 30812 10150 20120 39965 40126 53005 60006 83200 90600 333 10194 20144=
07661,1996-09-09 12:00:00,21,1013.7,0.2,64,14,25000,29.632,,,90,,,,,,,,,,,wg-a,,,,AAXX 09124 07661 12675 60916 10210 20140 39979 40137 50002 60006 82204 91200=
07661,1996-09-09 18:00:00,19,1014.2,0.7,73,14,20000,29.632,,50.004,90,15.1,21.3,,,,,,,,,wg-a,,,,AAXX 09184 07661 12/70 40916 10190 20140 39983 40142 53007 60006 83044 91800 333 10213 20151 91027=
07661,1996-09-10 00:00:00,16,1015.7,-0.2,88,14,20000,14.816,,,80,,,,,,,,,,2,wg-a,,,,AAXX 10004 07661 12/70 20808 10160 20140 39996 40157 58002 60006 70290 80004 90000=
07661,1996-09-10 06:00:00,15,1015.5,0.4,88,13,25000,7.408,,,30,13.8,19.2,,,,,,,,,wg-a,,,,AAXX 10064 07661 12/75 00304 10150 20130 39994 40155 53004 60006 80000 90600 333 10192 20138=
07661,1996-09-10 12:00:00,23,1016.3,0.5,47,11,35000,14.816,,,210,,,,,,,,,,,wg-a,,,,AAXX 10124 07661 12781 32108 10230 20110 30006 40163 51005 60006 8/200 91200=
07661,1996-09-10 18:00:00,19,1014.8,-0.4,73,14,35000,11.112,,,280,15.1,23.4,,,,,,,,,wg-a,,,,AAXX 10184 07661 12/81 42806 10190 20140 39989 40148 56004 60006 80004 91800 333 10234 20151=
07661,1996-09-11 00:00:00,16,1015.8,-0,88,14,20000,7.408,,,80,,,,,,,,,,,wg-a,,,,AAXX 11004 07661 12/70 40804 10160 20140 39998 40158 55000 60006 80008 90000=
07661,1996-09-11 06:00:00,15,1014.5,-0.4,94,14,20000,11.112,,,80,14.6,19,,,,,,,,,wg-a,,,,AAXX 11064 07661 12670 20806 10150 20140 39984 40145 55004 60006 81101 90600 333 10190 20146=
07661,1996-09-11 12:00:00,22,1012.4,-1.4,60,14,25000,18.52,,,130,,,,,,,,,,,wg-a,,,,AAXX 11124 07661 12675 31310 10220 20140 39967 40124 56014 60006 82101 91200=
07661,1996-09-11 18:00:00,20,1009.8,-1.2,64,13,20000,25.928,,,70,15,22.5,,,,,,,,,wg-a,,,,AAXX 11184 07661 12870 70714 10200 20130 39941 40098 56012 60006 8707/ 91800 333 10225 20150=
07661,1996-09-12 00:00:00,18,1008.6,-1.5,83,15,20000,22.224,,,60,,,,,,,,,,,wg-a,,,,AAXX 12004 07661 12870 80612 10180 20150 39928 40086 58015 60006 88080 90000=
07661,1996-09-12 06:00:00,18,1004.7,-1.7,73,13,20000,25.928,,,60,17.1,19.7,,,,,,,,,wg-a,,,,AAXX 12064 07661 12870 70614 10180 20130 39889 40047 58017 60006 8708/ 90600 333 10197 20171=
07661,1996-09-12 12:00:00,19,1003.8,-0.8,68,13,15000,11.112,,,330,,,,0,,,,,,,wg-a,,,,AAXX 12124 07661 02565 83306 10190 20130 39881 40038 56008 60016 8/720 91200 333 60007=
07661,1996-09-12 18:00:00,19,1000,-2.1,73,14,15000,25.928,,,280,17,20.7,,0,,,,,,1,wg-a,,,,AAXX 12184 07661 12565 62814 10190 20140 39843 40000 56021 60007 70162 82841 91800 333 10207 20170=
07661,1996-09-13 00:00:00,18,1000.5,1.6,45,6,500,50.004,,,300,,,,,,,,,,,wg-a,,,,AAXX 13004 07661 12/00 03027 10180 20060 39847 40005 51016 60006 80000 90000=
07661,1996-09-13 06:00:00,16,1002.7,2,48,5,25000,61.116,,103.712,300,15.7,19.6,,,,,,,,,wg-a,,,,AAXX 13064 07661 12/75 23033 10160 20050 39868 40027 51020 60006 80001 90600 333 10196 20157 91056=
07661,1996-09-13 12:00:00,19,1004.6,0.6,34,3,35000,72.228,,103.712,310,,,,,,,,,,,wg-a,,,,AAXX 13124 07661 12/81 03139 10190 20030 39888 40046 52006 60006 80000 91200 333 91056=
07661,1996-09-13 18:00:00,17,1007.4,2.5,34,1,40000,57.412,,111.12,310,15.7,19.7,,,,,,,,,wg-a,,,,AAXX 13184 07661 12/82 03131 10170 20010 39915 40074 53025 60006 80000 91800 333 10197 20157 91060=
07661,1996-09-14 00:00:00,15,1010.6,1,39,1,500,22.224,,94.452,290,,,,,,,,,,,wg-a,,,,AAXX 14004 07661 12/00 02912 10150 20010 39945 40106 53010 60006 80000 90000 333 91051=
07661,1996-09-14 06:00:00,16,1012.4,1.1,39,2,40000,7.408,,,170,13.8,16.9,,,,,,,,,wg-a,,,,AAXX 14064 07661 12/82 01704 10160 20020 39963 40124 53011 60006 80000 90600 333 10169 20138=
07661,1996-09-14 12:00:00,21,1014.2,0.3,46,9,40000,14.816,,,220,,,,,,,,,,,wg-a,,,,AAXX 14124 07661 12/82 02208 10210 20090 39984 40142 51003 60006 80000 91200=
07661,1996-09-14 18:00:00,19,1013.8,-0.1,46,7,40000,29.632,,,280,15.6,22.2,,,,,,,,,wg-a,,,,AAXX 14184 07661 12/82 02816 10190 20070 39979 40138 55001 60006 80000 91800 333 10222 20156=
07661,1996-09-15 00:00:00,16,1015.9,1,72,11,20000,3.704,,,160,,,,,,,,,,,wg-a,,,,AAXX 15004 07661 12/70 01602 10160 20110 39998 40159 51010 60006 80000 90000=
07661,1996-09-15 06:00:00,14,1016.1,0.6,82,11,20000,22.224,,,70,12.4,19.1,,,,,,,,,wg-a,,,,AAXX 15064 07661 12670 30712 10140 20110 39999 40161 53006 60006 82440 90600 333 10191 20124=
07661,1996-09-15 12:00:00,20,1017.4,0.6,68,14,25000,18.52,,,120,,,,,,,,,,,wg-a,,,,AAXX 15124 07661 12675 41210 10200 20140 30016 40174 53006 60006 84300 91200=
07661,1996-09-15 18:00:00,18,1017.8,0.2,77,14,20000,7.408,,,220,13.8,22,,,,,,,,,wg-a,,,,AAXX 15184 07661 12/70 22204 10180 20140 30018 40178 53002 60006 82200 91800 333 10220 20138=
07661,1996-09-16 00:00:00,16,1017.7,-0.7,77,12,20000,7.408,,,330,,,,,,,,,,,wg-a,,,,AAXX 16004 07661 12/70 03304 10160 20120 30016 40177 58007 60006 80000 90000=
07661,1996-09-16 06:00:00,13,1016.4,-0.3,94,12,25000,14.816,,,90,12.5,18.1,,,,,,,,,wg-a,,,,AAXX 16064 07661 12675 10908 10130 20120 30002 40164 57003 60006 81100 90600 333 10181 20125=
07661,1996-09-16 12:00:00,21,1016.6,-0.1,64,14,25000,18.52,,,150,,,,,,,,,,,wg-a,,,,AAXX 16124 07661 12675 21510 10210 20140 30008 40166 55001 60006 82200 91200=
07661,1996-09-16 18:00:00,18,1015.8,-0.3,77,14,18000,7.408,,,160,13.4,21,,,,,,,,,wg-a,,,,AAXX 16184 07661 12/68 01604 10180 20140 39998 40158 56003 60006 80000 91800 333 10210 20134=
07661,1996-09-17 00:00:00,15,1015.7,-0.4,94,14,18000,11.112,,,80,,,,,,,,,,,wg-a,,,,AAXX 17004 07661 12/68 00806 10150 20140 39996 40157 58004 60006 80000 90000=
07661,1996-09-17 06:00:00,14,1013.8,-0.8,94,13,20000,22.224,,,90,12.7,17.7,,,,,,,,,wg-a,,,,AAXX 17064 07661 12/70 70912 10140 20130 39976 40138 55008 60006 83032 90600 333 10177 20127=
07661,1996-09-17 12:00:00,19,1012.8,-0.7,78,15,15000,18.52,,,90,,,,,,,,,,,wg-a,,,,AAXX 17124 07661 12565 80910 10190 20150 39970 40128 57007 60006 8427/ 91200=
07661,1996-09-17 18:00:00,16,1009.9,-1,100,16,8000,25.928,,,80,13.8,20,,11,,,,,,95,wg-a,,,,AAXX 17184 07661 12558 80814 10160 20160 39940 40099 58010 60117 79596 8496/ 91800 333 10200 20138=
07661,1996-09-18 00:00:00,16,1009,-1,100,16,500,29.632,,,80,,,,13,,,,,,91,wg-a,,,,AAXX 18004 07661 02400 80816 10160 20160 39930 40090 58010 60276 79196 8296/ 90000 333 60137=
07661,1996-09-18 06:00:00,15,1007.4,-0.3,100,15,500,29.632,,,70,14.8,16.4,,22,,,,,,95,wg-a,,,,AAXX 18064 07661 12400 80716 10150 20150 39914 40074 56003 60227 79596 8692/ 90600 333 10164 20148=
07661,1996-09-18 12:00:00,20,1005.8,-0.4,73,15,10000,22.224,,53.708,80,,,,,,,,,,,wg-a,,,,AAXX 18124 07661 12460 80812 10200 20150 39901 40058 55004 60076 8592/ 91200 333 91029=
07661,1996-09-18 18:00:00,19,1005.2,0.4,73,14,10000,22.224,,50.004,80,14.6,20.3,,,,,,,,,wg-a,,,,AAXX 18184 07661 32460 80812 10190 20140 39894 40052 53004 8492/ 91800 333 10203 20146 91027=
07661,1996-09-19 06:00:00,18,1003.2,-0.3,77,14,10000,53.708,,75.932,80,16.4,18.7,,,,,,,,3,wg-a,,,,AAXX 19064 07661 32560 80829 10180 20140 39874 40032 55003 70362 8587/ 90600 333 10187 20164 91041=
07661,1996-09-19 12:00:00,16,1003.8,-0.7,88,14,8000,53.708,,83.34,70,,,,3,,,,,,63,wg-a,,,,AAXX 19124 07661 02458 80729 10160 20140 39879 40038 58007 60116 76362 888// 91200 333 60037 91045=
07661,1996-09-19 18:00:00,16,1003.7,1.6,88,14,6000,42.596,,87.044,70,15.1,18.1,,,,,,,,60,wg-a,,,,AAXX 19184 07661 02456 80723 10160 20140 39878 40037 53016 61000 76062 888// 91800 333 10181 20151 //// 91047=
07661,1996-09-20 00:00:00,15,1007.2,1,88,13,10000,18.52,,57.412,80,,,,,,,,,,2,wg-a,,,,AAXX 20004 07661 02560 70810 10150 20130 39912 40072 51010 61000 70262 87800 90000 333 6100 91031=
07661,1996-09-20 06:00:00,14,1007.2,-0.2,100,14,20000,3.704,,,70,13.8,15.8,,,,,,,,2,wg-a,,,,AAXX 20064 07661 02570 50702 10140 20140 39912 40072 55002 61000 70262 82532 90600 333 10158 20138 ////=
07661,1996-09-20 12:00:00,19,1007.8,0.2,60,11,18000,14.816,,,210,,,,,,,,,,,wg-a,,,,AAXX 20124 07661 12568 62108 10190 20110 39920 40078 51002 60006 82279 91200=
07661,1996-09-20 18:00:00,14,1005.8,-1.5,94,13,0,25.928,,,70,14,19.3,,,,,,,,,wg-a,,,,AAXX 20184 07661 32/// /0714 10140 20130 39898 40058 58015 91800 333 10193 20140=
07661,1996-09-21 00:00:00,14,1002.8,-1.7,100,14,4000,22.224,,,70,,,,8,,,,,,62,wg-a,,,,AAXX 21004 07661 02540 80712 10140 20140 39869 40028 56017 60266 76262 8572/ 90000 333 60087=
07661,1996-09-21 06:00:00,15,1002.2,0.5,100,15,15000,14.816,,,80,13.7,14.8,,,,,,,,2,wg-a,,,,AAXX 21064 07661 32565 60808 10150 20150 39863 40022 53005 70262 8522/ 90600 333 10148 20137=
07661,1996-09-21 12:00:00,19,1001.8,-0.6,83,16,20000,29.632,,,90,,,,,,,,,,,wg-a,,,,AAXX 21124 07661 12570 60916 10190 20160 39861 40018 58006 60006 8522/ 91200=
07661,1996-09-21 18:00:00,18,1001.6,0.5,94,17,12000,25.928,,,90,14.8,19.8,,,,,,,,,wg-a,,,,AAXX 21184 07661 12562 70914 10180 20170 39859 40016 51005 60006 8532/ 91800 333 10198 20148=
07661,1996-09-22 12:00:00,18,1000.4,-0.2,88,16,15000,25.928,,,70,,,,7,,,,,,15,wg-a,,,,AAXX 22124 07661 02465 70714 10180 20160 39847 40004 58002 60136 71596 83922 91200 333 60077=
07661,1996-09-22 18:00:00,15,1002.1,1.7,94,14,12000,18.52,,,300,14.7,18.8,,1,,,,,,95,wg-a,,,,AAXX 22184 07661 12462 83010 10150 20140 39862 40021 51017 60017 79562 883// 91800 333 10188 20147=
07661,1996-09-23 00:00:00,13,1002.9,0.1,77,9,25000,31.484,,,300,,,,,,,,,,1,wg-a,,,,AAXX 23004 07661 02/75 13017 10130 20090 39869 40029 50001 61000 70196 80002 90000 333 ////=
07661,1996-09-23 06:00:00,12,1002.2,-0.7,67,6,18000,38.892,,68.524,300,11.8,14.9,,,,,,,,,wg-a,,,,AAXX 23064 07661 32/68 03021 10120 20060 39861 40022 56007 80000 90600 333 10149 20118 91037=
07661,1996-09-23 12:00:00,17,1001.6,-0.1,52,7,15000,64.82,,100.008,310,,,,,,,,,,,wg-a,,,,AAXX 23124 07661 12/65 03135 10170 20070 39858 40016 58001 60006 80000 91200 333 91054=
07661,1996-09-23 18:00:00,14,1003.6,1.2,58,6,14000,53.708,,96.304,310,12.1,17.3,,,,,,,,,wg-a,,,,AAXX 23184 07661 12/64 23129 10140 20060 39876 40036 53012 60006 80002 91800 333 10173 20121 91052=
07661,1996-09-24 00:00:00,12,1005.8,0.7,67,6,10000,38.892,,72.228,310,,,,,,,,,,,wg-a,,,,AAXX 24004 07661 12/60 43121 10120 20060 39897 40058 50007 60006 80004 90000 333 91039=
07661,1996-09-24 06:00:00,12,1006.4,0.6,62,5,12000,29.632,,,300,11.5,14.3,,,,,,,,,wg-a,,,,AAXX 24064 07661 12/62 03016 10120 20050 39902 40064 53006 60006 80000 90600 333 10143 20115=
07661,1996-09-24 12:00:00,19,1007,0.3,46,7,12000,61.116,,94.452,310,,,,,,,,,,,wg-a,,,,AAXX 24124 07661 12/62 03133 10190 20070 39912 40070 51003 60006 80000 91200 333 91051=
07661,1996-09-24 18:00:00,17,1008.8,0.9,55,8,12000,46.3,,90.748,290,12.5,20,,,,,,,,,wg-a,,,,AAXX 24184 07661 12/62 22925 10170 20080 39929 40088 53009 60006 80004 91800 333 10200 20125 91049=
07661,1996-09-25 00:00:00,16,1009.1,-0.1,51,6,12000,50.004,,79.636,300,,,,,,,,,,,wg-a,,,,AAXX 25004 07661 12/62 53027 10160 20060 39931 40091 58001 60006 80004 90000 333 91043=
07661,1996-09-25 06:00:00,16,1010,0.5,55,7,12000,38.892,,79.636,290,15.1,17.5,,,,,,,,,wg-a,,,,AAXX 25064 07661 12662 82921 10160 20070 39940 40100 53005 60006 8282/ 90600 333 10175 20151 91043=
07661,1996-09-25 12:00:00,18,1011.3,-0.4,68,12,20000,31.484,,,290,,,,,,,,,,,wg-a,,,,AAXX 25124 07661 12770 52917 10180 20120 39954 40113 58004 60006 82260 91200=
07661,1996-09-25 18:00:00,17,1011.2,1.3,82,14,16000,29.632,,53.708,290,15.6,19.3,,,,,,,,,wg-a,,,,AAXX 25184 07661 12766 32916 10170 20140 39953 40112 53013 60006 83500 91800 333 10193 20156 91029=
07661,1996-09-26 00:00:00,16,1012.2,-0,68,10,20000,29.632,,,300,,,,,,,,,,,wg-a,,,,AAXX 26004 07661 12770 63016 10160 20100 39962 40122 55000 60006 8/500 90000=
07661,1996-09-26 06:00:00,14,1015,1.5,67,8,25000,11.112,,,310,13.6,16.9,,,,,,,,,wg-a,,,,AAXX 26064 07661 12675 33106 10140 20080 39988 40150 53015 60006 83500 90600 333 10169 20136=
07661,1996-09-26 12:00:00,20,1016.5,-0.1,64,13,15000,11.112,,,220,,,,,,,,,,,wg-a,,,,AAXX 26124 07661 12665 52206 10200 20130 30006 40165 55001 60006 83340 91200=
07661,1996-09-26 18:00:00,19,1016.5,0.3,,,15000,25.928,,,290,13.5,21.6,,,,,,,,,wg-a,,,,AAXX 26184 07661 12/65 32914 10190 2//// 30006 40165 53003 60006 80002 91800 333 10216 20135=
07661,1996-09-27 00:00:00,14,1018.3,0.4,82,11,15000,3.704,,,350,,,,,,,,,,,wg-a,,,,AAXX 27004 07661 12/65 03502 10140 20110 30021 40183 51004 60006 80000 90000=
07661,1996-09-27 06:00:00,14,1018.8,0.4,77,10,20000,14.816,,,310,13.1,18.7,,,,,,,,,wg-a,,,,AAXX 27064 07661 12/70 53108 10140 20100 30025 40188 51004 60006 85040 90600 333 10187 20131=
07661,1996-09-27 12:00:00,20,1017.8,-1.2,56,11,20000,35.188,,53.708,280,,,,,,,,,,,wg-a,,,,AAXX 27124 07661 12/70 32819 10200 20110 30019 40178 56012 60006 80001 91200 333 91029=
07661,1996-09-27 18:00:00,19,1017.5,0.5,83,16,20000,38.892,,72.228,300,13.8,20.5,,,,,,,,,wg-a,,,,AAXX 27184 07661 12670 43021 10190 20160 30016 40175 50005 60006 81840 91800 333 10205 20138 91039=
07661,1996-09-28 00:00:00,18,1017.5,-1.4,68,12,15000,38.892,,64.82,310,,,,,,,,,,,wg-a,,,,AAXX 28004 07661 12/65 43121 10180 20120 30015 40175 58014 60006 80008 90000 333 91035=
07661,1996-09-28 06:00:00,17,1018.5,1.9,63,10,20000,31.484,,79.636,290,16.5,19.6,,,,,,,,,wg-a,,,,AAXX 28064 07661 12870 62917 10170 20100 30024 40185 51019 60006 82038 90600 333 10196 20165 91043=
07661,1996-09-28 12:00:00,22,1021.5,0.3,53,12,45000,18.52,,,300,,,,,,,,,,,wg-a,,,,AAXX 28124 07661 12/83 23010 10220 20120 30056 40215 52003 60006 80002 91200=
07661,1996-09-28 18:00:00,21,1022.4,1,53,11,40000,3.704,,,50,16.3,24.8,,,,,,,,,wg-a,,,,AAXX 28184 07661 12882 60502 10210 20110 30065 40224 53010 60006 85072 91800 333 10248 20163=
07661,1996-09-29 00:00:00,18,1024.4,0.1,49,7,0,3.704,,,360,,,,,,,,,,,wg-a,,,,AAXX 29004 07661 12/// /3602 10180 20070 30083 40244 53001 60006 90000=
07661,1996-09-29 06:00:00,16,1024.9,0.8,55,7,28000,11.112,,,90,15.5,20.7,,,,,,,,,wg-a,,,,AAXX 29064 07661 12/78 60906 10160 20070 30087 40249 53008 60006 80004 90600 333 10207 20155=
07661,1996-09-29 12:00:00,20,1025.9,-0.1,78,16,35000,11.112,,,150,,,,,,,,,,,wg-a,,,,AAXX 29124 07661 12/81 51506 10200 20160 30099 40259 58001 60006 80004 91200=
07661,1996-09-29 18:00:00,17,1025.1,-0.1,94,16,10000,7.408,,,190,15.9,21.4,,,,,,,,,wg-a,,,,AAXX 29184 07661 12860 31904 10170 20160 30090 40251 55001 60006 83400 91800 333 10214 20159=
07661,1996-09-30 00:00:00,15,1024.6,-0.6,94,14,10000,7.408,,,70,,,,,,,,,,,wg-a,,,,AAXX 30004 07661 12/60 00704 10150 20140 30083 40246 56006 60006 80000 90000=
07661,1996-09-30 06:00:00,13,1023.1,-0.3,100,13,500,7.408,,,70,12.9,17,,0,,,,,,46,wg-a,,,,AAXX 30064 07661 12405 70704 10130 20130 30068 40231 55003 60007 74641 876// 90600 333 10170 20129=
07661,1996-09-30 12:00:00,19,1022.4,-1,83,16,12000,14.816,,,150,,,,,,,,,,,wg-a,,,,AAXX 30124 07661 12562 21508 10190 20160 30064 40224 58010 60006 82400 91200=
07661,1996-09-30 18:00:00,18,1020.2,-0.4,88,16,9000,14.816,,,90,13.1,19.8,,,,,,,,,wg-a,,,,AAXX 30184 07661 12459 70908 10180 20160 30042 40202 56004 60006 878// 91800 333 10198 20131=
07661,1996-10-01 00:00:00,16,1018,-2,88,14,10000,25.928,,,70,,,,,,,,,,,wg-a,,,,AAXX 01004 07661 12560 80714 10160 20140 30019 40180 58020 60006 888// 90000=
07661,1996-10-01 06:00:00,17,1015,-1.1,88,15,12000,29.632,,50.004,110,16.1,17.9,,,,,,,,,wg-a,,,,AAXX 01064 07661 12562 71116 10170 20150 39990 40150 56011 60006 878// 90600 333 10179 20161 91027=
07661,1996-10-01 12:00:00,19,1013.8,-0.8,83,16,8000,25.928,,57.412,120,,,,,,,,,,,wg-a,,,,AAXX 01124 07661 12558 81214 10190 20160 39980 40138 58008 60006 888// 91200 333 91031=
07661,1996-10-01 18:00:00,14,1012.8,-0,88,12,10000,29.632,,,290,13.8,19.6,,5,,,,,,21,wg-a,,,,AAXX 01184 07661 12460 82916 10140 20120 39967 40128 55000 60057 72162 888// 91800 333 10196 20138=
07661,1996-10-02 00:00:00,14,1012.1,-0.8,88,12,25000,35.188,,,300,,,,,,,,,,,wg-a,,,,AAXX 02004 07661 12/75 73019 10140 20120 39960 40121 56008 60006 84032 90000=
07661,1996-10-02 06:00:00,13,1010.2,-0.3,67,7,45000,53.708,,79.636,300,12.5,14.9,,,,,,,,,wg-a,,,,AAXX 02064 07661 32683 23029 10130 20070 39940 40102 55003 81131 90600 333 10149 20125 91043=
07661,1996-10-02 18:00:00,16,1011.4,2.3,51,6,40000,42.596,,107.416,310,13,18.4,,,,,,,,,wg-a,,,,AAXX 02184 07661 12/82 43123 10160 20060 39954 40114 53023 60006 84070 91800 333 10184 20130 91058=
07661,1996-10-03 00:00:00,15,1012.8,0.7,59,7,15000,18.52,,,60,,,,,,,,,,,wg-a,,,,AAXX 03004 07661 12865 60610 10150 20070 39967 40128 53007 60006 86070 90000=
07661,1996-10-03 06:00:00,13,1017.9,3.4,72,8,20000,29.632,,,60,13,16.3,,0,,,,,,95,wg-a,,,,AAXX 03064 07661 12470 70616 10130 20080 30016 40179 52034 60007 79596 84962 90600 333 10163 20130=
07661,1996-10-03 12:00:00,20,1020.9,0.7,46,8,500,18.52,,,290,,,,,,,,,,,wg-a,,,,AAXX 03124 07661 02/00 12910 10200 20080 30049 40209 51007 61000 81070 91200 333 ////=
07661,1996-10-03 18:00:00,17,1021.1,0.5,63,10,25000,18.52,,,290,12.1,21.1,,,,,,,,,wg-a,,,,AAXX 03184 07661 32/75 32910 10170 20100 30050 40211 52005 82041 91800 333 10211 20121=
07661,1996-10-04 00:00:00,14,1022.4,0.1,77,10,25000,11.112,,,90,,,,,,,,,,,wg-a,,,,AAXX 04004 07661 12/75 00906 10140 20100 30061 40224 50001 60006 80000 90000=
07661,1996-10-04 06:00:00,14,1020.9,-1,67,8,25000,14.816,,,340,12.5,16.8,,,,,,,,,wg-a,,,,AAXX 04064 07661 12/75 23408 10140 20080 30046 40209 56010 60006 82010 90600 333 10168 20125=
07661,1996-10-04 12:00:00,20,1019.4,-1.8,46,8,40000,14.816,,,230,,,,,,,,,,,wg-a,,,,AAXX 04124 07661 12682 22308 10200 20080 30035 40194 58018 60006 81104 91200=
07661,1996-10-04 18:00:00,16,1015.7,-1.4,77,12,20000,18.52,,,290,13.6,20.4,,,,,,,,,wg-a,,,,AAXX 04184 07661 12/70 32910 10160 20120 39996 40157 56014 60006 81032 91800 333 10204 20136=
07661,1996-10-05 00:00:00,15,1013.2,-2.2,63,8,20000,11.112,,,270,,,,,,,,,,,wg-a,,,,AAXX 05004 07661 12/70 12706 10150 20080 39971 40132 58022 60006 80001 90000=
07661,1996-10-05 06:00:00,14,1011.2,-0.7,72,9,28000,31.484,,,300,12.5,15.8,,,,,,,,,wg-a,,,,AAXX 05064 07661 12/78 23017 10140 20090 39951 40112 58007 60006 81032 90600 333 10158 20125=
07661,1996-10-05 12:00:00,18,1009.5,-1.3,45,6,40000,57.412,,72.228,300,,,,,,,,,,,wg-a,,,,AAXX 05124 07661 12/82 03031 10180 20060 39936 40095 58013 60006 80000 91200 333 91039=
07661,1996-10-05 18:00:00,15,1008.3,-0.2,48,4,40000,38.892,,,310,14.2,18.3,,,,,,,,,wg-a,,,,AAXX 05184 07661 12/82 03121 10150 20040 39923 40083 55002 60006 80000 91800 333 10183 20142=
07661,1996-10-06 00:00:00,12,1008.2,-0.5,54,3,15000,14.816,,,290,,,,,,,,,,,wg-a,,,,AAXX 06004 07661 12/65 02908 10120 20030 39920 40082 57005 60006 80000 90000=
07661,1996-10-06 06:00:00,12,1008.1,0.8,71,7,20000,11.112,,,80,11.9,15.1,,,,,,,,,wg-a,,,,AAXX 06064 07661 12570 60806 10120 20070 39919 40081 51008 60006 83202 90600 333 10151 20119=
07661,1996-10-06 12:00:00,16,1009.7,0.4,77,12,20000,35.188,,57.412,60,,,,,,,,,,61,wg-a,,,,AAXX 06124 07661 02570 80619 10160 20120 39937 40097 51004 61000 76162 8577/ 91200 333 6100 91031=
07661,1996-10-06 18:00:00,15,1010.8,0.4,82,12,15000,14.816,,53.708,60,11.9,17.6,,1,,,,,,3,wg-a,,,,AAXX 06184 07661 12565 80608 10150 20120 39948 40108 50004 60017 70396 8487/ 91800 333 10176 20119 91029=
07661,1996-10-07 00:00:00,15,1009.7,-1.5,72,10,12000,25.928,,,60,,,,,,,,,,,wg-a,,,,AAXX 07004 07661 12/62 70614 10150 20100 39937 40097 58015 60006 87070 90000=
07661,1996-10-07 06:00:00,16,1008.3,-0.1,88,14,6000,42.596,,87.044,60,15,18.4,,0,,,,,,63,wg-a,,,,AAXX 07064 07661 12456 80623 10160 20140 39924 40083 58001 60007 76362 8372/ 90600 333 10184 20150 91047=
07661,1996-10-07 12:00:00,17,1009.7,0.1,77,13,15000,50.004,,79.636,60,,,,1,,,,,,60,wg-a,,,,AAXX 07124 07661 02465 80627 10170 20130 39938 40097 50001 60036 76062 888// 91200 333 60017 91043=
07661,1996-10-07 18:00:00,14,1011.4,1.1,88,12,15000,35.188,,68.524,50,13.9,17.7,,1,,,,,,21,wg-a,,,,AAXX 07184 07661 12565 80519 10140 20120 39953 40114 52011 60017 72162 8587/ 91800 333 10177 20139 91037=
07661,1996-10-08 00:00:00,13,1010.9,-0.6,94,12,500,3.704,,,300,,,,4,,,,,,61,wg-a,,,,AAXX 08004 07661 02500 83002 10130 20120 39948 40109 55006 60046 76166 888// 90000 333 60047=
07661,1996-10-08 06:00:00,13,1009.6,-0.8,94,12,12000,38.892,,,300,12.4,15.7,,2,,,,,,61,wg-a,,,,AAXX 08064 07661 12562 83021 10130 20120 39935 40096 56008 60027 76166 888// 90600 333 10157 20124=
07661,1996-10-08 12:00:00,14,1009.8,-0.4,94,13,10000,14.816,,,290,,,,0,,,,,,60,wg-a,,,,AAXX 08124 07661 02660 82908 10140 20130 39937 40098 58004 60026 76062 887// 91200 333 60007=
07661,1996-10-08 18:00:00,14,1011.1,0.9,82,11,18000,29.632,,,300,12.5,14.3,,0,,,,,,1,wg-a,,,,AAXX 08184 07661 12568 63016 10140 20110 39950 40111 51009 60007 70162 86800 91800 333 10143 20125=
07661,1996-10-09 00:00:00,14,1011.9,-0.1,82,11,12000,7.408,,,300,,,,,,,,,,,wg-a,,,,AAXX 09004 07661 12862 73004 10140 20110 39958 40119 58001 60006 8707/ 90000=
07661,1996-10-09 06:00:00,14,1012.1,0.9,72,9,20000,3.704,,,250,13.3,14.4,,,,,,,,,wg-a,,,,AAXX 09064 07661 12870 52502 10140 20090 39960 40121 52009 60006 85040 90600 333 10144 20133=
07661,1996-10-09 12:00:00,20,1013.7,0.1,56,11,20000,3.704,,,310,,,,,,,,,,,wg-a,,,,AAXX 09124 07661 12/70 23102 10200 20110 39979 40137 50001 60006 80005 91200=
07661,1996-10-09 18:00:00,18,1013.5,0.3,68,12,15000,22.224,,,280,13.7,21.4,,,,,,,,,wg-a,,,,AAXX 09184 07661 12/65 42812 10180 20120 39976 40135 53003 60006 84070 91800 333 10214 20137=
07661,1996-10-10 00:00:00,15,1014.6,-0.1,82,12,15000,7.408,,,10,,,,,,,,,,,wg-a,,,,AAXX 10004 07661 12/65 20104 10150 20120 39985 40146 58001 60006 82070 90000=
07661,1996-10-10 06:00:00,13,1014.8,0.5,88,11,18000,11.112,,,60,12.8,17.6,,,,,,,,,wg-a,,,,AAXX 10064 07661 12/68 20606 10130 20110 39986 40148 53005 60006 82030 90600 333 10176 20128=
07661,1996-10-10 12:00:00,19,1015.7,-0.2,73,14,15000,11.112,,,100,,,,,,,,,,,wg-a,,,,AAXX 10124 07661 12765 31006 10190 20140 39998 40157 58002 60006 82209 91200=
07661,1996-10-10 18:00:00,17,1016.5,1.2,88,15,15000,3.704,,,190,13.4,20.1,,,,,,,,,wg-a,,,,AAXX 10184 07661 12665 41902 10170 20150 30005 40165 53012 60006 83830 91800 333 10201 20134=
07661,1996-10-11 00:00:00,14,1018,-0.3,94,13,10000,22.224,,,70,,,,0,,,,,,61,wg-a,,,,AAXX 11004 07661 02560 80712 10140 20130 30018 40180 55003 60006 76162 888// 90000 333 60007=
07661,1996-10-11 06:00:00,15,1018.4,0.7,82,12,15000,7.408,,,340,13.9,17.6,,,,,,,,3,wg-a,,,,AAXX 11064 07661 32565 83404 10150 20120 30022 40184 53007 70361 888// 90600 333 10176 20139=
07661,1996-10-11 12:00:00,,1019.2,-0.6,,,12000,3.704,,,40,,,,,,,,,,,wg-a,,,,AAXX 11124 07661 12862 60402 1//// 2//// 30032 40192 58006 60006 86070 91200=
07661,1996-10-11 18:00:00,17,1019.2,0.5,72,12,12000,3.704,,,50,14.6,20.3,,,,,,,,,wg-a,,,,AAXX 11184 07661 12/62 00502 10170 20120 30031 40192 53005 60006 80000 91800 333 10203 20146=
07661,1996-10-12 00:00:00,14,1019.1,-0.8,82,11,14000,7.408,,,40,,,,,,,,,,,wg-a,,,,AAXX 12004 07661 12/64 00404 10140 20110 30029 40191 56008 60006 80000 90000=
07661,1996-10-12 06:00:00,12,1018.5,-0,94,11,10000,18.52,,,70,12.2,16.7,,,,,,,,,wg-a,,,,AAXX 12064 07661 12/60 00710 10120 20110 30022 40185 54000 60006 80000 90600 333 10167 20122=
07661,1996-10-12 12:00:00,18,1019,-0.6,77,14,8000,29.632,,,90,,,,,,,,,,,wg-a,,,,AAXX 12124 07661 12/58 10916 10180 20140 30030 40190 58006 60006 81070 91200=
07661,1996-10-12 18:00:00,17,1018.2,-0,82,14,8000,22.224,,,80,12.2,18.5,,,,,,,,,wg-a,,,,AAXX 12184 07661 12/58 40812 10170 20140 30021 40182 55000 60006 84070 91800 333 10185 20122=
07661,1996-10-13 00:00:00,14,1017.8,-0.7,88,12,8000,25.928,,,70,,,,,,,,,,,wg-a,,,,AAXX 13004 07661 12/58 00714 10140 20120 30016 40178 57007 60006 80000 90000=
07661,1996-10-13 06:00:00,17,1015.4,-0.8,82,14,7000,35.188,,64.82,100,13.9,17.2,,,,,,,,,wg-a,,,,AAXX 13064 07661 12457 81019 10170 20140 39994 40154 56008 60006 8387/ 90600 333 10172 20139 91035=
07661,1996-10-13 12:00:00,18,1013.7,-1.6,77,14,1000,53.708,,90.748,80,,,,,,,,,,,wg-a,,,,AAXX 13124 07661 12410 80829 10180 20140 39978 40137 58016 60006 8387/ 91200 333 91049=
07661,1996-10-13 18:00:00,18,1011.6,-0.4,77,14,12000,53.708,,90.748,70,17.2,18.4,,,,,,,,,wg-a,,,,AAXX 13184 07661 12462 80729 10180 20140 39957 40116 55004 60006 8362/ 91800 333 10184 20172 91049=
07661,1996-10-14 00:00:00,17,1010.4,-1.3,82,14,12000,50.004,,96.304,70,,,,,,,,,,2,wg-a,,,,AAXX 14004 07661 02462 70727 10170 20140 39945 40104 56013 61000 70262 8382/ 90000 333 6100 91052=
07661,1996-10-14 06:00:00,17,1009.6,0.1,77,13,12000,61.116,,90.748,80,16.3,18,,,,,,,,,wg-a,,,,AAXX 14064 07661 32462 80833 10170 20130 39937 40096 53001 888// 90600 333 10180 20163 91049=
07661,1996-10-14 12:00:00,16,1010.6,-0.6,88,14,8000,53.708,,94.452,70,,,,1,,,,,,63,wg-a,,,,AAXX 14124 07661 02558 80729 10160 20140 39946 40106 58006 60016 76362 887// 91200 333 60017 91051=
07661,1996-10-14 18:00:00,17,1007.7,-1.5,82,14,8000,57.412,,83.34,70,15.5,17.3,,,,,,,,2,wg-a,,,,AAXX 14184 07661 02558 80731 10170 20140 39918 40077 56015 61000 70262 887// 91800 333 10173 20155 //// 91045=
07661,1996-10-15 00:00:00,19,1005.2,-1.3,73,14,15000,61.116,,87.044,70,,,,,,,,,,,wg-a,,,,AAXX 15004 07661 12865 70733 10190 20140 39895 40052 58013 60006 8707/ 90000 333 91047=
07661,1996-10-15 06:00:00,16,1004.4,0.2,100,16,10000,29.632,,79.636,60,16.1,19.1,,3,,,,,,61,wg-a,,,,AAXX 15064 07661 12460 80616 10160 20160 39885 40044 53002 60037 76196 887// 90600 333 10191 20161 91043=
07661,1996-10-15 12:00:00,17,1004.3,-1.3,94,16,10000,18.52,,61.116,60,,,,1,,,,,,2,wg-a,,,,AAXX 15124 07661 02560 80610 10170 20160 39885 40043 56013 60106 70296 888// 91200 333 60017 91033=
07661,1996-10-15 18:00:00,15,1004.8,0.5,100,15,500,11.112,,,110,14.8,17.4,,3,,,,,,3,wg-a,,,,AAXX 15184 07661 12400 81106 10150 20150 39889 40048 53005 60037 70362 8332/ 91800 333 10174 20148=
07661,1996-10-16 00:00:00,13,1004.2,-0.7,94,12,500,18.52,,,300,,,,5,,,,,,61,wg-a,,,,AAXX 16004 07661 02400 83010 10130 20120 39881 40042 56007 60206 76162 8332/ 90000 333 60057=
07661,1996-10-16 06:00:00,11,1002.5,-0.6,87,9,500,42.596,,,300,11.1,15.2,,1,,,,,,61,wg-a,,,,AAXX 16064 07661 12400 83023 10110 20090 39864 40025 57006 60017 76166 8472/ 90600 333 10152 20111=
07661,1996-10-16 12:00:00,15,1003,0.1,67,9,15000,35.188,,,310,,,,,,,,,,2,wg-a,,,,AAXX 16124 07661 02565 63119 10150 20090 39871 40030 53001 60006 70262 82120 91200 333 61000=
07661,1996-10-16 18:00:00,12,1004.4,1.2,62,5,18000,35.188,,,310,11.1,14.9,,,,,,,,2,wg-a,,,,AAXX 16184 07661 02568 73119 10120 20050 39883 40044 53012 61000 70262 8217/ 91800 333 10149 20111 ////=
07661,1996-10-17 00:00:00,12,1006.1,0.7,62,5,20000,46.3,,,310,,,,,,,,,,,wg-a,,,,AAXX 17004 07661 12/70 13125 10120 20050 39899 40061 52007 60006 81030 90000=
07661,1996-10-17 06:00:00,12,1008.1,1.7,54,3,35000,42.596,,,290,11,12.8,,,,,,,,,wg-a,,,,AAXX 17064 07661 12/81 12923 10120 20030 39919 40081 51017 60006 81030 90600 333 10128 20110=
07661,1996-10-17 12:00:00,15,1009.7,0.7,63,8,45000,42.596,,,280,,,,,,,,,,,wg-a,,,,AAXX 17124 07661 12/83 /2823 10150 20080 39937 40097 50007 60006 8//00 91200=
07661,1996-10-17 18:00:00,15,1010.2,1.3,72,10,40000,35.188,,75.932,300,11.9,16.7,,,,,,,,,wg-a,,,,AAXX 17184 07661 12782 23019 10150 20100 39941 40102 53013 60006 82100 91800 333 10167 20119 91041=
07661,1996-10-18 00:00:00,13,1011,-0.2,67,7,15000,31.484,,,290,,,,,,,,,,,wg-a,,,,AAXX 18004 07661 12/65 02917 10130 20070 39948 40110 55002 60006 80000 90000=
07661,1996-10-18 06:00:00,11,1011.3,0.9,58,3,25000,46.3,,,310,11.4,14.7,,,,,,,,,wg-a,,,,AAXX 18064 07661 12/75 03125 10110 20030 39950 40113 53009 60006 80000 90600 333 10147 20114=
07661,1996-10-18 18:00:00,15,1016.7,1.8,67,9,20000,31.484,,79.636,300,11.4,16.6,,,,,,,,,wg-a,,,,AAXX 18184 07661 12/70 23017 10150 20090 30005 40167 53018 60006 82040 91800 333 10166 20114 91043=
07661,1996-10-19 00:00:00,16,1017.9,0.5,68,10,20000,38.892,,,300,,,,,,,,,,,wg-a,,,,AAXX 19004 07661 12/70 03021 10160 20100 30018 40179 50005 60006 80000 90000=
07661,1996-10-19 06:00:00,15,1018.3,1.6,63,8,20000,38.892,,94.452,300,14.4,15.8,,,,,,,,,wg-a,,,,AAXX 19064 07661 12/70 03021 10150 20080 30021 40183 51016 60006 80000 90600 333 10158 20144 91051=
07661,1996-10-19 12:00:00,18,1017.5,-2.1,56,9,25000,75.932,,100.008,300,,,,,,,,,,,wg-a,,,,AAXX 19124 07661 12875 43041 10180 20090 30015 40175 58021 60006 84070 91200 333 91054=
07661,1996-10-19 18:00:00,17,1020,0.8,39,3,28000,29.632,,100.008,310,14.8,19.2,,,,,,,,,wg-a,,,,AAXX 19184 07661 12/78 03116 10170 20030 30039 40200 53008 60006 80000 91800 333 10192 20148 91054=
07661,1996-10-20 00:00:00,14,1022,-0.2,51,4,20000,18.52,,72.228,300,,,,,,,,,,,wg-a,,,,AAXX 20004 07661 12/70 03010 10140 20040 30057 40220 58002 60006 80000 90000 333 91039=
07661,1996-10-20 06:00:00,12,1022.3,1,62,5,25000,11.112,,,80,12.2,17.8,,,,,,,,,wg-a,,,,AAXX 20064 07661 12/75 50806 10120 20050 30059 40223 53010 60006 81034 90600 333 10178 20122=
07661,1996-10-20 12:00:00,18,1024.1,0.2,64,11,500,3.704,,,210,,,,,,,,,,,wg-a,,,,AAXX 20124 07661 12/00 52102 10180 20110 30080 40241 50002 60006 80002 91200=
07661,1996-10-20 18:00:00,16,1023.9,0.2,72,11,500,14.816,,,290,11.9,19.4,,,,,,,,,wg-a,,,,AAXX 20184 07661 12/00 52908 10160 20110 30077 40239 53002 60006 80002 91800 333 10194 20119=
07661,1996-10-21 00:00:00,17,1020.3,-2.5,48,6,20000,35.188,,,300,,,,,,,,,,,wg-a,,,,AAXX 21004 07661 12/70 53019 10170 20060 30042 40203 57025 60006 80002 90000=
07661,1996-10-21 06:00:00,19,1018,-0,40,5,20000,31.484,,79.636,300,15.4,20.1,,,,,,,,,wg-a,,,,AAXX 21064 07661 12/70 53017 10190 20050 30020 40180 55000 60006 80002 90600 333 10201 20154 91043=
07661,1996-10-21 12:00:00,23,1015.5,-1.4,50,12,35000,46.3,,,300,,,,,,,,,,,wg-a,,,,AAXX 21124 07661 12/81 43025 10230 20120 39998 40155 57014 60006 81048 91200=
07661,1996-10-21 18:00:00,21,1014.5,0.4,60,13,500,53.708,,90.748,310,19.1,24,,,,,,,,,wg-a,,,,AAXX 21184 07661 12/00 23129 10210 20130 39987 40145 53004 60006 80008 91800 333 10240 20191 91049=
07661,1996-10-22 00:00:00,16,1016.6,1,100,16,500,14.816,,,140,,,,,,,,,,,wg-a,,,,AAXX 22004 07661 12/00 01408 10160 20160 30006 40166 51010 60006 80000 90000=
07661,1996-10-22 06:00:00,15,1017.1,0.6,94,14,15000,3.704,,,40,14.5,21.1,,,,,,,,,wg-a,,,,AAXX 22064 07661 12/65 00402 10150 20140 30010 40171 51006 60006 80000 90600 333 10211 20145=
07661,1996-10-22 12:00:00,18,1017.9,-0.3,83,15,15000,11.112,,,210,,,,0,,,,,,,wg-a,,,,AAXX 22124 07661 02/65 22106 10180 20150 30019 40179 58003 60006 80002 91200 333 60007=
07661,1996-10-22 18:00:00,16,1018.5,0.7,94,15,15000,3.704,,,230,14.3,19.5,,,,,,,,,wg-a,,,,AAXX 22184 07661 32/65 02302 10160 20150 30024 40185 53007 80000 91800 333 10195 20143=
07661,1996-10-23 00:00:00,14,1019,-0,100,14,8000,3.704,,,40,,,,,,,,,,,wg-a,,,,AAXX 23004 07661 12/58 00402 10140 20140 30028 40190 54000 60006 80000 90000=
07661,1996-10-23 06:00:00,14,1020.3,1.1,94,13,6000,11.112,,,60,13.1,16,,,,,,,,,wg-a,,,,AAXX 23064 07661 32456 70606 10140 20130 30040 40203 51011 876// 90600 333 10160 20131=
07661,1996-10-23 12:00:00,18,1021.6,0,77,14,12000,14.816,,,100,,,,,,,,,,,wg-a,,,,AAXX 23124 07661 12462 31008 10180 20140 30055 40216 50000 60006 83600 91200=
07661,1996-10-23 18:00:00,16,1022.6,1,94,15,12000,0,,,0,12.7,18.4,,,,,,,,,wg-a,,,,AAXX 23184 07661 12/62 0//// 10160 20150 30064 40226 53010 60006 80000 91800 333 10184 20127=
07661,1996-10-24 00:00:00,14,1024.2,0.4,94,13,6000,22.224,,,70,,,,,,,,,,,wg-a,,,,AAXX 24004 07661 12456 70712 10140 20130 30079 40242 51004 60006 87600 90000=
07661,1996-10-24 06:00:00,16,1024.7,0.5,82,13,6000,22.224,,,110,13.2,15.8,,,,,,,,,wg-a,,,,AAXX 24064 07661 32456 81112 10160 20130 30085 40247 51005 886// 90600 333 10158 20132=
07661,1996-10-24 12:00:00,17,1023.9,-0.9,82,14,6000,11.112,,,70,,,,,,,,,,,wg-a,,,,AAXX 24124 07661 12456 80706 10170 20140 30078 40239 58009 60006 886// 91200=
07661,1996-10-24 18:00:00,16,1023,0.1,88,14,6000,3.704,,,170,14.4,17.7,,,,,,,,,wg-a,,,,AAXX 24184 07661 12456 51702 10160 20140 30068 40230 53001 60006 85600 91800 333 10177 20144=
07661,1996-10-25 00:00:00,15,1024.5,0.5,94,14,8000,11.112,,,80,,,,,,,,,,,wg-a,,,,AAXX 25004 07661 12858 80806 10150 20140 30082 40245 51005 60006 8/700 90000=
07661,1996-10-25 06:00:00,15,1024.1,-0.2,88,13,8000,25.928,,,60,14.1,15.6,,,,,,,,,wg-a,,,,AAXX 25064 07661 12658 80614 10150 20130 30078 40241 58002 60006 886// 90600 333 10156 20141=
07661,1996-10-25 12:00:00,18,1024.2,-0.9,73,13,15000,7.408,,,230,,,,,,,,,,,wg-a,,,,AAXX 25124 07661 12665 62304 10180 20130 30081 40242 58009 60006 82262 91200=
07661,1996-10-25 18:00:00,16,1024.1,0.4,88,14,12000,22.224,,,280,14.7,18.4,,,,,,,,,wg-a,,,,AAXX 25184 07661 12562 72812 10160 20140 30079 40241 53004 60006 8317/ 91800 333 10184 20147=
07661,1996-10-26 00:00:00,15,1025.3,0,88,13,10000,7.408,,,30,,,,,,,,,,,wg-a,,,,AAXX 26004 07661 12860 70304 10150 20130 30090 40253 50000 60006 8707/ 90000=
07661,1996-10-26 06:00:00,14,1025.4,0.4,94,13,6000,11.112,,,70,14.2,16,,,,,,,,,wg-a,,,,AAXX 26064 07661 12/56 20706 10140 20130 30091 40254 50004 60006 80002 90600 333 10160 20142=
07661,1996-10-26 12:00:00,17,1025.4,-0.6,82,14,6000,7.408,,,130,,,,,,,,,,,wg-a,,,,AAXX 26124 07661 12456 71304 10170 20140 30093 40254 58006 60006 876// 91200=
07661,1996-10-26 18:00:00,16,1025.5,0.6,88,14,6000,3.704,,,200,14,18.5,,,,,,,,,wg-a,,,,AAXX 26184 07661 12456 62002 10160 20140 30093 40255 53006 60006 86600 91800 333 10185 20140=
07661,1996-10-27 00:00:00,15,1026.3,0.2,94,14,6000,18.52,,,60,,,,,,,,,,,wg-a,,0,,AAXX 27004 07661 12456 70610 10150 20140 30100 40263 53002 60006 876// 90000 333 4/9999=
07661,1996-10-27 06:00:00,14,1026.1,0.3,88,12,6000,18.52,,,70,13.8,16.1,,,,,,,,,wg-a,,,,AAXX 27064 07661 12456 70710 10140 20120 30097 40261 51003 60006 87600 90600 333 10161 20138=
07661,1996-10-27 12:00:00,17,1026.7,-0.6,77,13,8000,14.816,,,120,,,,,,,,,,,wg-a,,,,AAXX 27124 07661 12458 71208 10170 20130 30105 40267 58006 60006 87600 91200=
07661,1996-10-27 18:00:00,15,1026.1,0.3,88,13,0,11.112,,,90,13.5,17.6,,,,,,,,,wg-a,,,,AAXX 27184 07661 12/// /0906 10150 20130 30098 40261 51003 60006 91800 333 10176 20135=
07661,1996-10-28 00:00:00,12,1025.2,-0.8,100,12,6000,11.112,,,90,,,,,,,,,,,wg-a,,,,AAXX 28004 07661 12456 50906 10120 20120 30088 40252 58008 60006 85600 90000=
07661,1996-10-28 06:00:00,14,1022.7,-1,88,12,0,7.408,,,80,11.9,15,,,,,,,,,wg-a,,,,AAXX 28064 07661 12/// /0804 10140 20120 30064 40227 56010 60006 90600 333 10150 20119=
07661,1996-10-28 12:00:00,18,1020.5,-1.7,88,16,6000,11.112,,,220,,,,,,,,,,,wg-a,,,,AAXX 28124 07661 12456 62206 10180 20160 30045 40205 58017 60006 86700 91200=
07661,1996-10-28 18:00:00,16,1019.5,0.4,94,15,500,18.52,,,270,13.4,18.6,,,,,,,,,wg-a,,,,AAXX 28184 07661 12400 52710 10160 20150 30034 40195 53004 60006 85100 91800 333 10186 20134=
07661,1996-10-29 00:00:00,15,1018.8,-0.8,94,14,500,18.52,,,290,,,,,,,,,,,wg-a,,,,AAXX 29004 07661 12400 52910 10150 20140 30026 40188 58008 60006 851// 90000=
07661,1996-10-29 06:00:00,15,1016.6,-0.3,94,14,6000,14.816,,,290,14.5,16,,,,,,,,,wg-a,,,,AAXX 29064 07661 12856 62908 10150 20140 30005 40166 58003 60006 86030 90600 333 10160 20145=
07661,1996-10-29 12:00:00,18,1015.1,-1.6,73,13,6000,35.188,,,300,,,,,,,,,,1,wg-a,,,,AAXX 29124 07661 02656 73019 10180 20130 39992 40151 58016 61000 70162 878// 91200 333 6100=
07661,1996-10-29 18:00:00,16,1015.6,1.1,55,7,20000,50.004,,79.636,310,15.1,18.1,,,,,,,,,wg-a,,,,AAXX 29184 07661 32/70 03127 10160 20070 39995 40156 53011 80000 91800 333 10181 20151 91043=
07661,1996-10-30 00:00:00,14,1016.6,0.6,55,5,20000,53.708,,90.748,310,,,,,,,,,,,wg-a,,,,AAXX 30004 07661 12/70 03129 10140 20050 30004 40166 50006 60006 80000 90000 333 91049=
07661,1996-10-30 06:00:00,14,1017.1,-0,51,4,500,50.004,,90.748,330,12.5,16.2,,,,,,,,,wg-a,,,,AAXX 30064 07661 32/00 03327 10140 20040 30008 40171 55000 80000 90600 333 10162 20125 91049=
07661,1996-10-30 12:00:00,18,1020.3,0.5,45,6,500,7.408,,,210,,,,,,,,,,,wg-a,,,,AAXX 30124 07661 12/00 02104 10180 20060 30042 40203 50005 60006 80000 91200=
07661,1996-10-30 18:00:00,16,1022,1.2,68,10,15000,7.408,,,60,13.6,19.7,,,,,,,,,wg-a,,,,AAXX 30184 07661 12/65 00604 10160 20100 30058 40220 53012 60006 80000 91800 333 10197 20136=
07661,1996-10-31 00:00:00,12,1023.7,0.8,67,6,15000,29.632,,,70,,,,,,,,,,,wg-a,,,,AAXX 31004 07661 12/65 00716 10120 20060 30073 40237 51008 60006 80000 90000=
07661,1996-10-31 06:00:00,10,1025.3,0.7,76,6,15000,18.52,,,80,9.8,15.8,,,,,,,,,wg-a,,,,AAXX 31064 07661 12565 20810 10100 20060 30087 40253 53007 60006 81101 90600 333 10158 20098=
07661,1996-10-31 12:00:00,17,1025.7,-0.3,77,13,20000,14.816,,,110,,,,,,,,,,,wg-a,,,,AAXX 31124 07661 12/70 01108 10170 20130 30095 40257 58003 60006 80000 91200=
07661,1996-10-31 18:00:00,14,1025.3,-0.1,82,11,20000,25.928,,,300,9.8,17.8,,,,,,,,,wg-a,,,,AAXX 31184 07661 12/70 03014 10140 20110 30090 40253 56001 60006 80000 91800 333 10178 20098=
07661,1996-11-01 00:00:00,13,1024.8,-0.9,62,6,15000,25.928,,,300,,,,,,,,,,,wg-a,,,,AAXX 01004 07661 12/65 03014 10130 20060 30084 40248 58009 60006 80000 90000=
07661,1996-11-01 06:00:00,15,1023.8,-0,48,4,18000,42.596,,,290,12.4,14.9,,,,,,,,,wg-a,,,,AAXX 01064 07661 12/68 12923 10150 20040 30075 40238 55000 60006 81030 90600 333 10149 20124=
07661,1996-11-01 12:00:00,19,1022.4,-0.6,49,8,40000,35.188,,87.044,310,,,,,,,,,,,wg-a,,,,AAXX 01124 07661 12/82 63119 10190 20080 30064 40224 55006 60006 80001 91200 333 91047=
07661,1996-11-01 18:00:00,16,1023.8,1.5,63,9,40000,22.224,,,300,14.2,19,,,,,,,,,wg-a,,,,AAXX 01184 07661 12/82 23012 10160 20090 30076 40238 53015 60006 80001 91800 333 10190 20142=
07661,1996-11-02 00:00:00,13,1025.5,0.5,72,8,20000,14.816,,,70,,,,,,,,,,,wg-a,,,,AAXX 02004 07661 12/70 00708 10130 20080 30091 40255 53005 60006 80000 90000=
07661,1996-11-02 06:00:00,12,1026.7,0.5,82,9,20000,7.408,,,60,11,16.3,,,,,,,,,wg-a,,,,AAXX 02064 07661 12/70 00604 10120 20090 30102 40267 51005 60006 80000 90600 333 10163 20110=
07661,1996-11-02 12:00:00,17,1027.4,-0.5,82,14,15000,11.112,,,220,,,,,,,,,,,wg-a,,,,AAXX 02124 07661 12/65 02206 10170 20140 30112 40274 58005 60006 80000 91200=
07661,1996-11-02 18:00:00,15,1027.6,0.8,77,11,10000,11.112,,,260,11.3,18.1,,,,,,,,,wg-a,,,,AAXX 02184 07661 12/60 02606 10150 20110 30113 40276 53008 60006 80000 91800 333 10181 20113=
07661,1996-11-03 00:00:00,13,1028.3,-0.1,94,12,10000,14.816,,,70,,,,,,,,,,,wg-a,,,,AAXX 03004 07661 12/60 00708 10130 20120 30119 40283 58001 60006 80000 90000=
07661,1996-11-03 06:00:00,11,1028,0.2,100,11,10000,11.112,,,70,11.2,15.3,,,,,,,,,wg-a,,,,AAXX 03064 07661 12760 50706 10110 20110 30115 40280 53002 60006 82230 90600 333 10153 20112=
07661,1996-11-03 12:00:00,16,1027.6,-1.3,82,13,15000,11.112,,,190,,,,,,,,,,,wg-a,,,,AAXX 03124 07661 12665 41906 10160 20130 30114 40276 58013 60006 83260 91200=
07661,1996-11-03 18:00:00,15,1026.9,0.2,88,13,12000,7.408,,,270,11.3,17.2,,,,,,,,,wg-a,,,,AAXX 03184 07661 32562 82704 10150 20130 30106 40269 52002 886// 91800 333 10172 20113=
07661,1996-11-04 00:00:00,14,1026.7,-0.5,94,13,10000,14.816,,,70,,,,,,,,,,,wg-a,,,,AAXX 04004 07661 12560 70708 10140 20130 30103 40267 58005 60006 876// 90000=
07661,1996-11-04 06:00:00,14,1025.5,-0.3,77,10,15000,11.112,,,140,13.5,14.6,,,,,,,,,wg-a,,,,AAXX 04064 07661 12565 71406 10140 20100 30091 40255 56003 60006 875// 90600 333 10146 20135=
07661,1996-11-04 12:00:00,15,1024.3,-1.3,82,12,15000,14.816,,,90,,,,,,,,,,,wg-a,,,,AAXX 04124 07661 12565 80908 10150 20120 30081 40243 58013 60016 885// 91200=
07661,1996-11-04 18:00:00,16,1021.5,-0.9,94,15,10000,18.52,,,190,13.5,16.1,,,,,,,,,wg-a,,,,AAXX 04184 07661 32560 51910 10160 20150 30053 40215 58009 85500 91800 333 10161 20135=
07661,1996-11-05 00:00:00,16,1019.3,-1.1,82,13,15000,18.52,,,170,,,,,,,,,,,wg-a,,,,AAXX 05004 07661 12465 61710 10160 20130 30032 40193 56011 60006 86800 90000=
07661,1996-11-05 06:00:00,16,1016,-0.7,88,14,15000,29.632,,,180,15.4,16,,,,,,,,,wg-a,,,,AAXX 05064 07661 12565 71816 10160 20140 39999 40160 58007 60006 87800 90600 333 10160 20154=
07661,1996-11-05 12:00:00,15,1016.3,1.3,67,9,500,22.224,,53.708,300,,,,0,,,,,,1,wg-a,,,,AAXX 05124 07661 02500 73012 10150 20090 30001 40163 50013 60036 70162 8371/ 91200 333 60007 91029=
07661,1996-11-05 18:00:00,14,1016.1,0.4,58,6,500,50.004,,,300,13.7,16.1,,0,,,,,,,wg-a,,,,AAXX 05184 07661 12/00 03027 10140 20060 39999 40161 50004 60007 80000 91800 333 10161 20137=
07661,1996-11-06 00:00:00,12,1019.6,0.9,58,4,25000,25.928,,79.636,300,,,,,,,,,,,wg-a,,,,AAXX 06004 07661 12875 23014 10120 20040 30032 40196 51009 60006 82440 90000 333 91043=
07661,1996-11-06 06:00:00,11,1022.3,1.5,76,7,25000,7.408,,,50,11,14.4,,,,,,,,,wg-a,,,,AAXX 06064 07661 32/75 10504 10110 20070 30058 40223 51015 81040 90600 333 10144 20110=
07661,1996-11-06 12:00:00,16,1023.1,-0.4,63,9,500,11.112,,,220,,,,,,,,,,,wg-a,,,,AAXX 06124 07661 12/00 02206 10160 20090 30069 40231 58004 60006 80000 91200=
07661,1996-11-06 18:00:00,14,1023.2,0.5,63,7,15000,0,,,0,10.5,17.1,,,,,,,,,wg-a,,,,AAXX 06184 07661 12/65 00000 10140 20070 30069 40232 52005 60006 80000 91800 333 10171 20105=
07661,1996-11-07 00:00:00,12,1023.1,-0.4,67,6,15000,18.52,,,310,,,,,,,,,,,wg-a,,,,AAXX 07004 07661 12/65 03110 10120 20060 30066 40231 56004 60006 80000 90000=
07661,1996-11-07 06:00:00,12,1022.3,0.1,67,6,20000,18.52,,,300,11.3,13.8,,,,,,,,,wg-a,,,,AAXX 07064 07661 12/70 03010 10120 20060 30058 40223 53001 60006 80000 90600 333 10138 20113=
07661,1996-11-07 12:00:00,16,1022.4,-0.8,77,12,20000,31.484,,,290,,,,,,,,,,,wg-a,,,,AAXX 07124 07661 12/70 02917 10160 20120 30062 40224 58008 60006 80000 91200=
07661,1996-11-07 18:00:00,15,1021.8,0.3,88,13,15000,31.484,,,290,11.5,16.9,,,,,,,,,wg-a,,,,AAXX 07184 07661 12/65 02917 10150 20130 30056 40218 51003 60006 80000 91800 333 10169 20115=
07661,1996-11-08 00:00:00,16,1020.8,-0.2,72,11,20000,50.004,,,300,,,,,,,,,,,wg-a,,,,AAXX 08004 07661 12/70 03027 10160 20110 30046 40208 58002 60006 80000 90000=
07661,1996-11-08 06:00:00,13,1021.9,1.3,51,3,20000,42.596,,72.228,300,12.9,16.2,,,,,,,,,wg-a,,,,AAXX 08064 07661 12/70 03023 10130 20030 30055 40219 53013 60006 80000 90600 333 10162 20129 91039=
07661,1996-11-08 12:00:00,15,1023.4,-0.5,48,4,35000,50.004,,83.34,300,,,,,,,,,,,wg-a,,,,AAXX 08124 07661 12/81 03027 10150 20040 30071 40234 58005 60006 80000 91200 333 91045=
07661,1996-11-08 18:00:00,13,1025.1,1.4,44,1,500,46.3,,75.932,300,12.4,16,,,,,,,,,wg-a,,,,AAXX 08184 07661 12/00 03025 10130 20010 30087 40251 53014 60006 80000 91800 333 10160 20124 91041=
07661,1996-11-09 00:00:00,10,1026.8,0.4,57,2,20000,22.224,,,300,,,,,,,,,,,wg-a,,,,AAXX 09004 07661 12/70 03012 10100 20020 30102 40268 53004 60006 80000 90000=
07661,1996-11-09 06:00:00,10,1027.7,1.1,71,5,20000,11.112,,,80,9.5,13.4,,,,,,,,,wg-a,,,,AAXX 09064 07661 12/70 20806 10100 20050 30110 40277 52011 60006 82040 90600 333 10134 20095=
07661,1996-11-09 12:00:00,16,1028.2,-0.6,72,11,20000,3.704,,,230,,,,,,,,,,,wg-a,,,,AAXX 09124 07661 12570 72302 10160 20110 30110 40282 58006 60006 82206 91200=
07661,1996-11-09 18:00:00,14,1027.5,-0,82,11,18000,14.816,,,80,9.1,16.5,,,,,,,,,wg-a,,,,AAXX 09184 07661 12568 30808 10140 20110 30111 40275 55000 60006 81102 91800 333 10165 20091=
07661,1996-11-10 00:00:00,12,1026.3,-1,94,11,10000,11.112,,,90,,,,,,,,,,,wg-a,,,,AAXX 10004 07661 12/60 50906 10120 20110 30098 40263 58010 60006 85070 90000=
07661,1996-11-10 06:00:00,12,1022.6,-1.7,94,11,12000,14.816,,,70,11.1,13.5,,,,,,,,,wg-a,,,,AAXX 10064 07661 12562 70708 10120 20110 30062 40226 56017 60006 8467/ 90600 333 10135 20111=
07661,1996-11-10 12:00:00,12,1020.4,-1.7,100,12,600,14.816,,,140,,,,2,,,,,,61,wg-a,,,,AAXX 10124 07661 02506 81408 10120 20120 30040 40204 58017 60036 76162 888// 91200 333 60027=
07661,1996-11-10 18:00:00,14,1016.7,-1.1,100,14,500,25.928,,,170,11.5,14.1,,0,,,,,,60,wg-a,,,,AAXX 10184 07661 12100 81714 10140 20140 30005 40167 56011 60007 76064 888// 91800 333 10141 20115=
07661,1996-11-11 00:00:00,15,1013.3,-2,88,13,15000,29.632,,,140,,,,,,,,,,,wg-a,,,,AAXX 11004 07661 02465 81416 10150 20130 39972 40133 58020 61000 888// 90000 333 ////=
07661,1996-11-11 06:00:00,15,1008,-2,100,15,10000,38.892,,64.82,140,14.1,15.4,,,,,,,,60,wg-a,,,,AAXX 11064 07661 02460 81421 10150 20150 39920 40080 57020 61000 76062 8572/ 90600 333 10154 20141 //// 91035=
07661,1996-11-11 12:00:00,16,1005.1,-1.7,100,16,8000,38.892,,75.932,160,,,,1,,,,,,60,wg-a,,,,AAXX 11124 07661 02458 81621 10160 20160 39892 40051 58017 60016 76062 887// 91200 333 60017 91041=
07661,1996-11-11 18:00:00,16,1004.2,-0.2,100,16,10000,38.892,,68.524,160,15.4,16.5,,,,,,,,21,wg-a,,,,AAXX 11184 07661 02460 81621 10160 20160 39884 40042 55002 61000 72162 887// 91800 333 10165 20154 //// 91037=
07661,1996-11-12 00:00:00,16,1004.2,-0.2,94,15,8000,35.188,,75.932,170,,,,1,,,,,,62,wg-a,,,,AAXX 12004 07661 02458 81719 10160 20150 39883 40042 58002 60016 76262 887// 90000 333 60017 91041=
07661,1996-11-12 06:00:00,17,1004.1,1,88,15,10000,38.892,,72.228,180,15.4,17,,,,,,,,21,wg-a,,,,AAXX 12064 07661 02460 71821 10170 20150 39883 40041 53010 61000 72162 876// 90600 333 10170 20154 //// 91039=
07661,1996-11-12 12:00:00,17,1006.1,0.3,88,15,10000,22.224,,64.82,120,,,,,,,,,,,wg-a,,,,AAXX 12124 07661 12460 81212 10170 20150 39903 40061 51003 60006 8267/ 91200 333 91035=
07661,1996-11-12 18:00:00,17,1006.5,0.1,82,14,10000,35.188,,57.412,80,16.7,17.6,,,,,,,,60,wg-a,,,,AAXX 12184 07661 02460 80819 10170 20140 39906 40065 53001 61000 76062 8267/ 91800 333 10176 20167 //// 91031=
07661,1996-11-13 00:00:00,17,1007,0.3,82,14,10000,29.632,,61.116,100,,,,,,,,,,2,wg-a,,,,AAXX 13004 07661 02860 81016 10170 20140 39911 40070 52003 61000 70262 8207/ 90000 333 //// 91033=
07661,1996-11-13 06:00:00,15,1006.6,-0.1,94,14,8000,25.928,,64.82,70,14.8,17.4,,1,,,,,,60,wg-a,,,,AAXX 13064 07661 12558 80714 10150 20140 39906 40066 55001 60017 76062 8277/ 90600 333 10174 20148 91035=
07661,1996-11-13 12:00:00,15,1007.5,-0.4,100,15,6000,29.632,,,60,,,,1,,,,,,60,wg-a,,,,AAXX 13124 07661 02556 80616 10150 20150 39915 40075 58004 60026 76066 8352/ 91200 333 60017=
07661,1996-11-13 18:00:00,15,1008.7,0.8,100,15,0,14.816,,,290,14.5,15.8,,,,,,,,,wg-a,,,,AAXX 13184 07661 32/// /2908 10150 20150 39927 40087 52008 91800 333 10158 20145=
07661,1996-11-14 00:00:00,14,1008.8,-0,94,13,15000,25.928,,,300,,,,,,,,,,2,wg-a,,,,AAXX 14004 07661 12565 83014 10140 20130 39927 40088 55000 60006 70262 8352/ 90000=
07661,1996-11-14 06:00:00,12,1008.4,-0.2,94,11,20000,18.52,,,290,11.6,15,,,,,,,,1,wg-a,,,,AAXX 14064 07661 02570 52910 10120 20110 39922 40084 58002 61000 70162 82240 90600 333 10150 20116 ////=
07661,1996-11-14 12:00:00,13,1009.6,0,82,10,20000,31.484,,,280,,,,,,,,,,,wg-a,,,,AAXX 14124 07661 12470 42817 10130 20100 39934 40096 50000 60006 81602 91200=
07661,1996-11-14 18:00:00,10,1010.1,0.1,71,5,25000,38.892,,57.412,300,10,12.7,,0,,,,,,,wg-a,,,,AAXX 14184 07661 12/75 53021 10100 20050 39938 40101 52001 60007 85070 91800 333 10127 20100 91031=
07661,1996-11-15 00:00:00,9,1012.2,0.4,76,5,20000,22.224,,,300,,,,,,,,,,,wg-a,,,,AAXX 15004 07661 12/70 63012 10090 20050 39957 40122 53004 60006 86070 90000=
07661,1996-11-15 06:00:00,8,1012.4,0.6,87,6,18000,11.112,,,20,7.5,10.9,,,,,,,,,wg-a,,,,AAXX 15064 07661 12/68 50206 10080 20060 39959 40124 53006 60006 85070 90600 333 10109 20075=
07661,1996-11-15 12:00:00,13,1015.3,1,72,8,20000,18.52,,,140,,,,,,,,,,60,wg-a,,,,AAXX 15124 07661 02570 81410 10130 20080 39990 40153 51010 61000 76022 8227/ 91200 333 6100=
07661,1996-11-15 18:00:00,11,1016.3,0.7,100,11,10000,29.632,,,60,7.6,12.9,,1,,,,,,60,wg-a,,,,AAXX 15184 07661 12560 80616 10110 20110 30000 40163 53007 60017 76062 8237/ 91800 333 10129 20076=
07661,1996-11-16 00:00:00,15,1017.3,0.5,94,14,10000,31.484,,57.412,90,,,,2,,,,,,2,wg-a,,,,AAXX 16004 07661 02860 70917 10150 20140 30011 40173 51005 60026 70262 8707/ 90000 333 60027 91031=
07661,1996-11-16 12:00:00,16,1015.2,-1.6,88,14,0,18.52,,,60,,,,,,,,,,,wg-a,,,,AAXX 16124 07661 12/// /0610 10160 20140 39991 40152 58016 60036 91200=
07661,1996-11-16 18:00:00,15,1013.4,-0.2,82,12,20000,29.632,,,70,13.1,16.3,,,,,,,,,wg-a,,,,AAXX 16184 07661 32870 80716 10150 20120 39973 40134 56002 8807/ 91800 333 10163 20131=
07661,1996-11-17 00:00:00,16,1011.8,-1.2,88,14,0,35.188,,,90,,,,0,,,,,,,wg-a,,,,AAXX 17004 07661 02/// /0919 10160 20140 39958 40118 57012 60006 90000 333 60007=
07661,1996-11-17 06:00:00,15,1010.2,-0.8,88,13,15000,42.596,,75.932,80,15,16.1,,,,,,,,,wg-a,,,,AAXX 17064 07661 32465 80823 10150 20130 39942 40102 56008 868// 90600 333 10161 20150 91041=
07661,1996-11-17 12:00:00,13,1008.1,-1.4,100,13,8000,14.816,,68.524,80,,,,7,,,,,,60,wg-a,,,,AAXX 17124 07661 02558 80808 10130 20130 39920 40081 58014 60076 76096 887// 91200 333 60077 91037=
07661,1996-11-17 18:00:00,12,1004.6,-1.8,100,12,8000,29.632,,,60,12.2,15,,1,,,,,,61,wg-a,,,,AAXX 17184 07661 12458 80616 10120 20120 39885 40046 58018 60017 76162 887// 91800 333 10150 20122=
07661,1996-11-18 00:00:00,9,1001.5,-3,93,8,8000,22.224,,,60,,,,3,,,,,,21,wg-a,,,,AAXX 18004 07661 02458 80612 10090 20080 39852 40015 57030 60186 72162 887// 90000 333 60037=
07661,1996-11-18 06:00:00,9,997.8,-1.3,93,8,15000,11.112,,,320,8.3,12.1,,,,,,,,2,wg-a,,,,AAXX 18064 07661 32565 73206 10090 20080 39816 49978 56013 70262 8346/ 90600 333 10121 20083=
07661,1996-11-18 12:00:00,7,999.6,0.4,81,4,500,64.82,,100.008,310,,,,1,,,,,,1,wg-a,,,,AAXX 18124 07661 02600 73135 10070 20040 39832 49996 51004 60096 70162 84140 91200 333 60017 91054=
07661,1996-11-18 18:00:00,7,1002.2,0.8,70,2,500,64.82,,107.416,300,5.7,8.7,,,,,,,,,wg-a,,,,AAXX 18184 07661 32800 33035 10070 20020 39858 40022 53008 8/040 91800 333 10087 20057 91058=
07661,1996-11-19 00:00:00,7,1003.8,1.5,66,1,500,68.524,,107.416,300,,,,,,,,,,,wg-a,,,,AAXX 19004 07661 12/00 03037 10070 20010 39874 40038 51015 60006 80000 90000 333 91058=
07661,1996-11-19 12:00:00,9,1007.4,-0.8,43,-3,50000,25.928,,75.932,290,,,,,,,,,,,wg-a,,,,AAXX 19124 07661 12/84 62914 10090 21030 39910 40074 58008 60006 82076 91200 333 91041=
07661,1996-11-19 18:00:00,12,1002.7,-2.7,71,7,20000,35.188,,,220,5.2,12.2,,,,,,,,,wg-a,,,,AAXX 19184 07661 12470 82219 10120 20070 39866 40027 56027 60006 858// 91800 333 10122 20052=
07661,1996-11-20 00:00:00,12,998.8,-1.3,71,7,15000,38.892,,79.636,300,,,,0,,,,,,2,wg-a,,,,AAXX 20004 07661 02465 83021 10120 20070 39827 49988 55013 60006 70262 888// 90000 333 60007 91043=
07661,1996-11-20 06:00:00,12,998.3,-0.6,67,6,15000,46.3,,83.34,290,9.6,13.2,,1,,,,,,2,wg-a,,,,AAXX 20064 07661 12465 82925 10120 20060 39822 49983 55006 60017 70262 888// 90600 333 10132 20096 91045=
07661,1996-11-20 12:00:00,11,999.7,1.1,62,4,25000,42.596,,96.304,310,,,,,,,,,,21,wg-a,,,,AAXX 20124 07661 02675 53123 10110 20040 39836 49997 51011 60006 72162 85800 91200 333 61000 91052=
07661,1996-11-20 18:00:00,10,1004.5,4,62,3,25000,46.3,,96.304,300,9.8,11.6,,,,,,,,,wg-a,,,,AAXX 20184 07661 32775 33025 10100 20030 39882 40045 53040 83200 91800 333 10116 20098 91052=
07661,1996-11-21 00:00:00,8,1007.3,1,66,2,28000,38.892,,90.748,310,,,,,,,,,,,wg-a,,,,AAXX 21004 07661 12778 13121 10080 20020 39909 40073 53010 60006 81100 90000 333 91049=
07661,1996-11-21 06:00:00,7,1010.6,1.8,70,2,500,31.484,,72.228,320,6.9,9.9,,,,,,,,,wg-a,,,,AAXX 21064 07661 12/00 23217 10070 20020 39941 40106 53018 60006 81072 90600 333 10099 20069 91039=
07661,1996-11-21 12:00:00,10,1011.8,0,46,-1,500,35.188,,94.452,300,,,,,,,,,,,wg-a,,,,AAXX 21124 07661 12/00 33019 10100 21010 39954 40118 50000 60006 83050 91200 333 91051=
07661,1996-11-22 12:00:00,9,1007.2,1,53,0,50000,61.116,,114.824,310,,,,0,,,,,,,wg-a,,,,AAXX 22124 07661 02/84 23133 10090 20000 39908 40072 53010 60006 82070 91200 333 60007 91062=
07661,1996-11-22 18:00:00,6,1012.4,2.5,65,0,20000,25.928,,79.636,290,6.4,14.6,,,,,,,,,wg-a,,,,AAXX 22184 07661 12/70 12914 10060 20000 39958 40124 53025 60006 81030 91800 333 10146 20064 91043=
07661,1996-11-23 00:00:00,6,1014.3,0.2,87,4,15000,18.52,,,80,,,,,,,,,,,wg-a,,,,AAXX 23004 07661 12/65 00810 10060 20040 39977 40143 53002 60006 80000 90000=
07661,1996-11-23 06:00:00,8,1014.5,0.6,93,7,10000,3.704,,,30,5.8,8.2,,2,,,,,,61,wg-a,,,,AAXX 23064 07661 12560 80302 10080 20070 39980 40145 53006 60027 76162 888// 90600 333 10082 20058=
07661,1996-11-23 12:00:00,10,1014.4,-0.1,87,8,1000,11.112,,,290,,,,,,,,,,1,wg-a,,,,AAXX 23124 07661 02510 72906 10100 20080 39980 40144 58001 60056 70162 87700 91200 333 61000=
07661,1996-11-23 18:00:00,8,1015,1.3,76,4,500,38.892,,64.82,300,7,10.5,,,,,,,,,wg-a,,,,AAXX 23184 07661 32/00 03021 10080 20040 39985 40150 53013 80000 91800 333 10105 20070 91035=
07661,1996-11-24 00:00:00,7,1018.5,1.2,57,-1,500,42.596,,75.932,310,,,,,,,,,,,wg-a,,,,AAXX 24004 07661 12/00 03123 10070 21010 30018 40185 51012 60006 80000 90000 333 91041=
07661,1996-11-24 06:00:00,5,1021.2,1,52,-4,25000,31.484,,64.82,290,4.5,8.3,,,,,,,,,wg-a,,,,AAXX 24064 07661 12/75 02917 10050 21040 30043 40212 51010 60006 80000 90600 333 10083 20045 91035=
07661,1996-11-24 12:00:00,8,1020.6,-2.1,42,-4,40000,61.116,,90.748,310,,,,,,,,,,,wg-a,,,,AAXX 24124 07661 12/82 03133 10080 21040 30039 40206 58021 60006 80000 91200 333 91049=
07661,1996-11-24 18:00:00,7,1022.9,1.6,45,-4,500,18.52,,83.34,290,4.4,8.6,,,,,,,,,wg-a,,,,AAXX 24184 07661 12/00 52910 10070 21040 30061 40229 51016 60006 80008 91800 333 10086 20044 91045=
07661,1996-11-25 00:00:00,5,1022.7,-0.6,70,0,15000,3.704,,,300,,,,,,,,,,,wg-a,,,,AAXX 25004 07661 12/65 33002 10050 20000 30058 40227 56006 60006 80008 90000=
07661,1996-11-25 06:00:00,7,1018.4,-1.8,61,0,15000,11.112,,,80,4.5,7.1,,,,,,,,,wg-a,,,,AAXX 25064 07661 12865 50806 10070 20000 30017 40184 58018 60006 85070 90600 333 10071 20045=
07661,1996-11-25 12:00:00,9,1013.1,-2.9,87,7,20000,14.816,,,280,,,,,,,,,,2,wg-a,,,,AAXX 25124 07661 02470 82808 10090 20070 39966 40131 58029 60016 70262 888// 91200 333 61000=
07661,1996-11-25 18:00:00,11,1006.5,-2.9,94,10,10000,25.928,,,260,6.4,10.5,,5,,,,,,60,wg-a,,,,AAXX 25184 07661 12460 82614 10110 20100 39903 40065 56029 60057 76062 8/72/ 91800 333 10105 20064=
07661,1996-11-26 00:00:00,11,1001.8,-2.2,87,9,20000,42.596,,,290,,,,,,,,,,1,wg-a,,,,AAXX 26004 07661 02570 42923 10110 20090 39856 40018 58022 60026 70162 84400 90000 333 61000=
07661,1996-11-26 06:00:00,9,1002.2,0.8,71,4,25000,64.82,,90.748,300,7.2,11.8,,,,,,,,,wg-a,,,,AAXX 26064 07661 32/75 03035 10090 20040 39859 40022 53008 80000 90600 333 10118 20072 91049=
07661,1996-11-26 12:00:00,11,1004,-0.8,54,2,40000,79.636,,111.12,310,,,,0,,,,,,,wg-a,,,,AAXX 26124 07661 02682 23143 10110 20020 39878 40040 58008 60006 82200 91200 333 60007 91060=
07661,1996-11-26 18:00:00,9,1005.3,1.4,57,1,0,57.412,,,310,8.9,11.6,,,,,,,,,wg-a,,,,AAXX 26184 07661 32/// /3131 10090 20010 39890 40053 51014 91800 333 10116 20089=
07661,1996-11-27 06:00:00,6,1007.8,0.3,61,-1,20000,25.928,,,290,6.2,9.1,,,,,,,,,wg-a,,,,AAXX 27064 07661 12/70 02914 10060 21010 39913 40078 50003 60006 80000 90600 333 10091 20062=
07661,1996-11-27 12:00:00,10,1008.8,-0.3,46,-1,25000,31.484,,,290,,,,,,,,,,,wg-a,,,,AAXX 27124 07661 12/75 72917 10100 21010 39925 40088 58003 60006 8707/ 91200=
07661,1996-11-27 18:00:00,8,1006.1,-1.6,87,6,25000,25.928,,,300,5.3,10.3,,0,,,,,,60,wg-a,,,,AAXX 27184 07661 12/75 83014 10080 20060 39897 40061 58016 60007 76062 8807/ 91800 333 10103 20053=
07661,1996-11-28 00:00:00,10,1004.6,0.2,71,5,10000,57.412,,79.636,310,,,,,,,,,,1,wg-a,,,,AAXX 28004 07661 02/60 03131 10100 20050 39883 40046 51002 60006 70161 80000 90000 333 61000 91043=
07661,1996-11-28 06:00:00,9,1002.1,-0.6,66,3,15000,57.412,,94.452,300,7.6,11.2,,,,,,,,,wg-a,,,,AAXX 28064 07661 32565 23031 10090 20030 39858 40021 55006 81102 90600 333 10112 20076 91051=
07661,1996-11-28 12:00:00,8,1004.6,0.9,49,-2,50000,53.708,,107.416,310,,,,,,,,,,,wg-a,,,,AAXX 28124 07661 12/84 43129 10080 21020 39882 40046 52009 60006 80002 91200 333 91058=
07661,1996-11-28 18:00:00,8,1004.6,0.9,49,-2,50000,53.708,,107.416,310,,,,,,,,,,,wg-a,,,,AAXX 28184 07661 12/84 43129 10080 21020 39882 40046 52009 60006 80002 91800 333 91058=
07661,1996-11-29 06:00:00,4,1015.3,2.1,44,-7,25000,18.52,,,300,3.8,,,,,,,,,,wg-a,,,,AAXX 29064 07661 12/75 03010 10040 21070 39985 40153 53021 60006 80000 90600 333 10046 20038=
07661,1996-11-29 12:00:00,8,1017.8,-0.1,42,-4,0,11.112,,,290,,,,,,,,,,,wg-a,,,,AAXX 29124 07661 12/// /2906 10080 21040 30012 40178 58001 60006 91200=
07661,1996-11-29 18:00:00,7,1016.5,-0.9,57,-1,25000,29.632,,,300,3.8,9.5,,,,,,,,,wg-a,,,,AAXX 29184 07661 12/75 33016 10070 21010 39999 40165 58009 60006 83040 91800 333 10095 20038=
07661,1996-11-30 00:00:00,12,1010.3,-2.7,76,8,25000,42.596,,87.044,290,,,,,,,,,,1,wg-a,,,,AAXX 30004 07661 02675 22923 10120 20080 39941 40103 56027 61000 70161 82800 90000 333 6100 91047=
07661,1996-11-30 06:00:00,13,1004.4,-1.8,82,10,25000,46.3,,103.712,300,7.2,13,,,,,,,,,wg-a,,,,AAXX 30064 07661 32875 53025 10130 20100 39883 40044 56018 83078 90600 333 10130 20072 91056=
07661,1996-11-30 12:00:00,15,1001,-1.5,67,9,15000,72.228,,122.232,300,,,,,,,,,,,wg-a,,,,AAXX 30124 07661 12565 63039 10150 20090 39851 40010 56015 60006 83859 91200 333 91066=
07661,1996-11-30 18:00:00,12,1003.4,1.5,47,1,20000,50.004,,103.712,320,12.3,15.8,,,,,,,,1,wg-a,,,,AAXX 30184 07661 02870 23227 10120 20010 39873 40034 51015 61000 70161 82070 91800 333 10158 20123 //// 91056=
07661,1996-12-01 00:00:00,11,1007,1.5,47,0,500,64.82,,103.712,340,,,,,,,,,,,wg-a,,,,AAXX 01004 07661 12/00 03435 10110 20000 39907 40070 53015 60006 80000 90000 333 91056=
07661,1996-12-01 06:00:00,10,1010.5,1,43,-2,500,35.188,,107.416,330,9.1,12.9,,,,,,,,,wg-a,,,,AAXX 01064 07661 12/00 03319 10100 21020 39941 40105 53010 60006 80000 90600 333 10129 20091 91058=
07661,1996-12-01 12:00:00,13,1011.7,-0.3,38,-1,50000,35.188,,94.452,320,,,,,,,,,,,wg-a,,,,AAXX 01124 07661 12/84 03219 10130 21010 39955 40117 55003 60006 80000 91200 333 91051=
07661,1996-12-01 18:00:00,10,1013.2,1.7,37,-4,25000,35.188,,68.524,300,9,13,,,,,,,,,wg-a,,,,AAXX 01184 07661 12/75 23019 10100 21040 39968 40132 51017 60006 80005 91800 333 10130 20090 91037=
07661,1996-12-02 00:00:00,8,1016,-0.1,53,-1,25000,14.816,,,290,,,,,,,,,,,wg-a,,,,AAXX 02004 07661 12/75 02908 10080 21010 39994 40160 58001 60006 80000 90000=
07661,1996-12-02 06:00:00,13,1014.2,0.6,62,6,25000,35.188,,83.34,290,6.8,13.2,,,,,,,,,wg-a,,,,AAXX 02064 07661 12/75 42919 10130 20060 39980 40142 53006 60006 84040 90600 333 10132 20068 91045=
07661,1996-12-02 12:00:00,14,1011.1,-2.8,44,2,45000,57.412,,79.636,320,,,,,,,,,,,wg-a,,,,AAXX 02124 07661 12/83 73231 10140 20020 39950 40111 58028 60006 80008 91200 333 91043=
07661,1996-12-02 18:00:00,11,1015,3.3,40,-2,25000,61.116,,107.416,310,10.8,14.3,,,,,,,,,wg-a,,,,AAXX 02184 07661 12/75 03133 10110 21020 39986 40150 51033 60006 80000 91800 333 10143 20108 91058=
07661,1996-12-03 00:00:00,9,1017.6,-0,49,-1,25000,42.596,,90.748,300,,,,,,,,,,,wg-a,,,,AAXX 03004 07661 12/75 03023 10090 21010 30010 40176 55000 60006 80000 90000 333 91049=
07661,1996-12-03 06:00:00,8,1017.9,-0.7,57,0,500,7.408,,68.524,300,7.4,10.8,,,,,,,,,wg-a,,,,AAXX 03064 07661 12/00 63004 10080 20000 30013 40179 56007 60006 86030 90600 333 10108 20074 91037=
07661,1996-12-03 12:00:00,11,1017.2,-0.2,58,3,0,7.408,,,160,,,,,,,,,,,wg-a,,,,AAXX 03124 07661 12/// /1604 10110 20030 30008 40172 58002 60006 91200=
07661,1996-12-03 18:00:00,9,1016.5,0.6,71,4,14000,7.408,,,290,7.3,11.8,,,,,,,,,wg-a,,,,AAXX 03184 07661 12/64 42904 10090 20040 30000 40165 51006 60006 80008 91800 333 10118 20073=
07661,1996-12-04 00:00:00,7,1016.5,-0.1,81,4,20000,22.224,,,80,,,,,,,,,,,wg-a,,,,AAXX 04004 07661 12870 80812 10070 20040 39999 40165 58001 60006 8807/ 90000=
07661,1996-12-04 06:00:00,8,1015,-0.3,100,8,10000,38.892,,53.708,70,6.2,9,,1,,,,,,62,wg-a,,,,AAXX 04064 07661 12460 80721 10080 20080 39985 40150 57003 60017 76262 887// 90600 333 10090 20062 91029=
07661,1996-12-04 12:00:00,9,1015.4,-0.8,100,9,0,29.632,,,60,,,,,,,,,,,wg-a,,,,AAXX 04124 07661 12/// /0616 10090 20090 39989 40154 58008 60066 91200=
07661,1996-12-04 18:00:00,12,1014.1,0.3,82,9,15000,38.892,,64.82,80,8.1,11.8,,,,,,,,2,wg-a,,,,AAXX 04184 07661 02465 80821 10120 20090 39978 40141 50003 61000 70262 887// 91800 333 10118 20081 //// 91035=
07661,1996-12-05 00:00:00,12,1014.4,0.2,76,8,15000,50.004,,75.932,70,,,,0,,,,,,,wg-a,,,,AAXX 05004 07661 02565 40727 10120 20080 39981 40144 53002 60006 84700 90000 333 60007 91041=
07661,1996-12-05 06:00:00,12,1014.3,0.3,76,8,15000,50.004,,90.748,70,11.2,12.1,,,,,,,,,wg-a,,,,AAXX 05064 07661 32565 50727 10120 20080 39980 40143 53003 85700 90600 333 10121 20112 91049=
07661,1996-12-05 12:00:00,13,1014.1,-1.1,67,7,15000,46.3,,87.044,70,,,,,,,,,,,wg-a,,,,AAXX 05124 07661 12565 70725 10130 20070 39978 40141 58011 60006 86171 91200 333 91047=
07661,1996-12-05 18:00:00,12,1014.2,0.5,67,6,15000,46.3,,79.636,70,11.1,12.9,,,,,,,,,wg-a,,,,AAXX 05184 07661 12/65 80725 10120 20060 39979 40142 51005 60006 8807/ 91800 333 10129 20111 91043=
07661,1996-12-06 00:00:00,12,1013.9,-0.2,76,8,15000,50.004,,75.932,70,,,,,,,,,,,wg-a,,,,AAXX 06004 07661 12/65 80727 10120 20080 39976 40139 58002 60006 8807/ 90000 333 91041=
07661,1996-12-06 06:00:00,12,1014.5,0.2,76,8,15000,46.3,,96.304,70,11.9,12.6,,,,,,,,21,wg-a,,,,AAXX 06064 07661 02565 80725 10120 20080 39982 40145 52002 61000 72162 888// 90600 333 10126 20119 //// 91052=
07661,1996-12-06 12:00:00,13,1015.5,0.1,67,7,10000,46.3,,72.228,70,,,,,,,,,,,wg-a,,,,AAXX 06124 07661 12/60 80725 10130 20070 39990 40155 51001 60006 8587/ 91200 333 91039=
07661,1996-12-06 18:00:00,13,1016.4,0.7,41,0,10000,50.004,,72.228,70,12,14.7,,,,,,,,,wg-a,,,,AAXX 06184 07661 12860 80727 10130 20000 30001 40164 53007 60006 8807/ 91800 333 10147 20120 91039=
07661,1996-12-07 00:00:00,11,1017.2,0.2,94,10,10000,50.004,,75.932,60,,,,4,,,,,,62,wg-a,,,,AAXX 07004 07661 02860 80627 10110 20100 30008 40172 50002 60046 76262 8807/ 90000 333 60047 91041=
07661,1996-12-07 06:00:00,12,1017.5,-0.3,82,9,14000,42.596,,,60,10.4,13.2,,,,,,,,21,wg-a,,,,AAXX 07064 07661 02864 70623 10120 20090 30011 40175 56003 61000 72162 8701/ 90600 333 10132 20104 ////=
07661,1996-12-07 12:00:00,14,1019.1,-0,72,9,12000,42.596,,83.34,70,,,,,,,,,,,wg-a,,,,AAXX 07124 07661 12862 60723 10140 20090 30029 40191 55000 60006 85062 91200 333 91045=
07661,1996-12-07 18:00:00,13,1019.1,0.2,72,8,15000,42.596,,68.524,70,11.6,14.3,,,,,,,,,wg-a,,,,AAXX 07184 07661 12865 60723 10130 20080 30028 40191 53002 60006 8604/ 91800 333 10143 20116 91037=
07661,1996-12-08 00:00:00,15,1017.5,-1.6,59,7,12000,53.708,,75.932,70,,,,,,,,,,,wg-a,,,,AAXX 08004 07661 12862 60729 10150 20070 30013 40175 58016 60006 8604/ 90000 333 91041=
07661,1996-12-08 06:00:00,14,1017.1,1,67,8,12000,61.116,,96.304,80,13.3,15.1,,,,,,,,62,wg-a,,,,AAXX 08064 07661 02462 80833 10140 20080 30009 40171 53010 61000 76262 887// 90600 333 10151 20133 //// 91052=
07661,1996-12-08 12:00:00,11,1018,-0.3,94,10,500,50.004,,96.304,80,,,,5,,,,,,62,wg-a,,,,AAXX 08124 07661 02500 80827 10110 20100 30016 40180 58003 60066 76266 888// 91200 333 60057 91052=
07661,1996-12-08 18:00:00,10,1016.5,0.1,93,9,500,46.3,,87.044,60,9.9,14,,4,,,,,,62,wg-a,,,,AAXX 08184 07661 12500 80625 10100 20090 30001 40165 53001 60047 76266 888// 91800 333 10140 20099 91047=
07661,1996-12-09 00:00:00,12,1015.4,-0.9,76,8,500,53.708,,100.008,60,,,,0,,,,,,2,wg-a,,,,AAXX 09004 07661 02500 80629 10120 20080 39991 40154 58009 60026 70262 888// 90000 333 60007 91054=
07661,1996-12-09 06:00:00,10,1010.5,-2.6,87,8,10000,46.3,,83.34,60,9.8,12.1,,3,,,,,,60,wg-a,,,,AAXX 09064 07661 12560 80625 10100 20080 39942 40105 56026 60037 76062 888// 90600 333 10121 20098 91045=
07661,1996-12-09 12:00:00,12,1011.8,-0.4,76,8,0,68.524,,,60,,,,1,,,,,,,wg-a,,,,AAXX 09124 07661 02/// /0637 10120 20080 39956 40118 58004 60016 91200 333 60017=
07661,1996-12-09 18:00:00,13,1011.7,0.1,72,8,12000,53.708,,96.304,70,10.3,13.2,,,,,,,,,wg-a,,,,AAXX 09184 07661 32562 40729 10130 20080 39955 40117 50001 84250 91800 333 10132 20103 91052=
07661,1996-12-10 00:00:00,12,1010.3,-1.5,71,7,12000,31.484,,83.34,60,,,,,,,,,,,wg-a,,,,AAXX 10004 07661 12/62 70617 10120 20070 39941 40103 58015 60006 87050 90000 333 91045=
07661,1996-12-10 06:00:00,9,1009.2,-0.7,87,7,10000,18.52,,,20,8.7,13.2,,3,,,,,,61,wg-a,,,,AAXX 10064 07661 12560 80210 10090 20070 39928 40092 56007 60037 76162 887// 90600 333 10132 20087=
07661,1996-12-10 12:00:00,9,1008.6,-1.3,100,9,8000,22.224,,,60,,,,4,,,,,,60,wg-a,,,,AAXX 10124 07661 02558 80612 10090 20090 39923 40086 58013 60076 76066 887// 91200 333 60047=
07661,1996-12-10 18:00:00,9,1011,1.5,100,9,10000,29.632,,,60,8.7,10.6,,1,,,,,,63,wg-a,,,,AAXX 10184 07661 12460 80616 10090 20090 39946 40110 51015 60017 76362 887// 91800 333 10106 20087=
07661,1996-12-11 00:00:00,9,1012,0,87,7,15000,29.632,,,60,,,,,,,,,,,wg-a,,,,AAXX 11004 07661 02/65 00616 10090 20070 39956 40120 50000 61000 80000 90000 333 ////=
07661,1996-12-11 06:00:00,8,1013.3,0.6,87,6,15000,25.928,,,70,7.7,9.4,,,,,,,,,wg-a,,,,AAXX 11064 07661 32/65 50714 10080 20060 39968 40133 53006 85050 90600 333 10094 20077=
07661,1996-12-11 12:00:00,13,1014.2,0,72,8,25000,22.224,,,80,,,,1,,,,,,,wg-a,,,,AAXX 11124 07661 02575 30812 10130 20080 39980 40142 50000 60016 83200 91200 333 60017=
07661,1996-12-11 18:00:00,10,1015.3,1,87,8,50000,18.52,,,60,7.8,12.9,,,,,,,,,wg-a,,,,AAXX 11184 07661 32/84 00610 10100 20080 39989 40153 53010 80000 91800 333 10129 20078=
07661,1996-12-12 00:00:00,8,1015.9,0.3,100,8,35000,18.52,,,80,,,,,,,,,,,wg-a,,,,AAXX 12004 07661 12581 50810 10080 20080 39994 40159 51003 60006 84510 90000=
07661,1996-12-12 06:00:00,9,1015.2,-0.5,93,8,0,29.632,,,70,7.9,10.5,,,,,,,,,wg-a,,,,AAXX 12064 07661 125// 80716 10090 20080 39980 40152 57005 60006 888// 90600 333 10105 20079=
07661,1996-12-12 12:00:00,11,1015.7,-0.7,94,10,12000,22.224,,,80,,,,1,,,,,,61,wg-a,,,,AAXX 12124 07661 02562 80812 10110 20100 39993 40157 58007 60026 76166 887// 91200 333 60017=
07661,1996-12-12 18:00:00,10,1014.5,-0.5,93,9,8000,31.484,,,70,9.3,10.6,,1,,,,,,21,wg-a,,,,AAXX 12184 07661 12558 80717 10100 20090 39981 40145 56005 60017 72162 887// 91800 333 10106 20093=
07661,1996-12-13 00:00:00,10,1012.7,-1.2,100,10,10000,29.632,,,60,,,,,,,,,,60,wg-a,,,,AAXX 13004 07661 02560 80616 10100 20100 39963 40127 58012 61000 76022 88700 90000 333 6100=
07661,1996-12-13 06:00:00,11,1007.8,-3.1,100,11,10000,29.632,,,80,9.3,10.9,,0,,,,,,,wg-a,,,,AAXX 13064 07661 12560 80816 10110 20110 39916 40078 56031 60007 88600 90600 333 10109 20093=
07661,1996-12-13 12:00:00,14,1003.2,-2.7,100,14,600,18.52,,,190,,,,1,,,,,,,wg-a,,,,AAXX 13124 07661 02506 81910 10140 20140 39872 40032 58027 60016 887// 91200 333 60017=
07661,1996-12-13 18:00:00,13,1000,-1.1,100,13,500,14.816,,,180,10.8,14,,,,,,,,21,wg-a,,,,AAXX 13184 07661 02500 81808 10130 20130 39840 40000 56011 61000 72162 886// 91800 333 10140 20108 ////=
07661,1996-12-14 00:00:00,12,999.4,0.3,94,11,8000,11.112,,,80,,,,,,,,,,,wg-a,,,,AAXX 14004 07661 12558 80806 10120 20110 39833 49994 51003 60006 886// 90000=
07661,1996-12-14 06:00:00,12,998.9,-0,94,11,12000,7.408,,,110,11.3,13.1,,,,,,,,,wg-a,,,,AAXX 14064 07661 12562 81104 10120 20110 39828 49989 55000 60006 88600 90600 333 10131 20113=
07661,1996-12-14 12:00:00,14,998.6,-0.4,94,13,0,11.112,,,220,,,,,,,,,,,wg-a,,,,AAXX 14124 07661 12/// /2206 10140 20130 39827 49986 58004 60006 91200=
07661,1996-12-14 18:00:00,12,1000.5,1.5,94,11,500,14.816,,,310,11.3,13.7,,,,,,,,,wg-a,,,,AAXX 14184 07661 12400 23108 10120 20110 39844 40005 51015 60006 82600 91800 333 10137 20113=
07661,1996-12-15 00:00:00,10,1005,2.3,100,10,8000,14.816,,,70,,,,,,,,,,,wg-a,,,,AAXX 15004 07661 12858 30708 10100 20100 39888 40050 51023 60006 83600 90000=
07661,1996-12-15 06:00:00,10,1009,1.8,93,9,20000,7.408,,,340,9.7,11.9,,,,,,,,,wg-a,,,,AAXX 15064 07661 12/70 03404 10100 20090 39927 40090 53018 60006 80000 90600 333 10119 20097=
07661,1996-12-15 12:00:00,13,1012,0.5,88,11,10000,11.112,,,220,,,,,,,,,,,wg-a,,,,AAXX 15124 07661 12560 12206 10130 20110 39958 40120 50005 60006 81400 91200=
07661,1996-12-15 18:00:00,11,1013.7,1.3,94,10,10000,11.112,,,290,10.3,13.9,,,,,,,,,wg-a,,,,AAXX 15184 07661 12/60 02906 10110 20100 39974 40137 52013 60006 80000 91800 333 10139 20103=
07661,1996-12-16 00:00:00,9,1015.8,0.8,93,8,20000,3.704,,,100,,,,,,,,,,,wg-a,,,,AAXX 16004 07661 12/70 01002 10090 20080 39993 40158 51008 60006 80000 90000=
07661,1996-12-16 06:00:00,9,1016.6,0.4,93,8,10000,3.704,,,360,7.7,11.3,,,,,,,,,wg-a,,,,AAXX 16064 07661 12560 83602 10090 20080 30001 40166 53004 60006 885// 90600 333 10113 20077=
07661,1996-12-16 12:00:00,11,1018.3,0.4,87,9,12000,7.408,,,120,,,,,,,,,,,wg-a,,,,AAXX 16124 07661 12562 31204 10110 20090 30019 40183 50004 60006 831// 91200=
07661,1996-12-16 18:00:00,11,1019,0.9,94,10,10000,11.112,,,90,8.6,12.7,,,,,,,,,wg-a,,,,AAXX 16184 07661 12560 50906 10110 20100 30026 40190 53009 60006 85500 91800 333 10127 20086=
07661,1996-12-17 00:00:00,8,1020.1,-0.1,100,8,20000,11.112,,,90,,,,,,,,,,,wg-a,,,,AAXX 17004 07661 12570 30906 10080 20080 30035 40201 58001 60006 83500 90000=
07661,1996-12-17 06:00:00,9,1019.4,-0.3,93,8,15000,11.112,,,70,7.8,10.6,,,,,,,,,wg-a,,,,AAXX 17064 07661 12565 30706 10090 20080 30028 40194 55003 60006 83500 90600 333 10106 20078=
07661,1996-12-17 12:00:00,12,1019.5,-0.5,88,10,10000,7.408,,,90,,,,,,,,,,,wg-a,,,,AAXX 17124 07661 32560 30904 10120 20100 30031 40195 58005 83200 91200=
07661,1996-12-17 18:00:00,11,1018.5,0.1,100,11,10000,3.704,,,250,8.6,12.7,,,,,,,,,wg-a,,,,AAXX 17184 07661 12460 62502 10110 20110 30021 40185 53001 60006 83231 91800 333 10127 20086=
07661,1996-12-18 00:00:00,10,1018,-0.8,100,10,15000,0,,,0,,,,,,,,,,,wg-a,,,,AAXX 18004 07661 12/65 60000 10100 20100 30015 40180 58008 60006 86070 90000=
07661,1996-12-18 06:00:00,10,1015.7,-0.9,87,8,20000,7.408,,,80,8.5,11.2,,,,,,,,,wg-a,,,,AAXX 18064 07661 12470 70804 10100 20080 39993 40157 57009 60006 8153/ 90600 333 10112 20085=
07661,1996-12-18 12:00:00,11,1014.1,-1.6,100,11,10000,18.52,,,70,,,,,,,,,,,wg-a,,,,AAXX 18124 07661 12460 70710 10110 20110 39978 40141 58016 60006 876/0 91200=
07661,1996-12-18 18:00:00,12,1012.6,-0.2,94,11,10000,18.52,,,160,8.6,12.3,,,,,,,,2,wg-a,,,,AAXX 18184 07661 32460 81610 10120 20110 39964 40126 55002 70262 886// 91800 333 10123 20086=
07661,1996-12-19 00:00:00,12,1010.6,-1.9,94,11,10000,25.928,,,110,,,,,,,,,,,wg-a,,,,AAXX 19004 07661 12460 81114 10120 20110 39944 40106 58019 60006 886// 90000=
07661,1996-12-19 06:00:00,11,1008.3,-1.8,100,11,8000,38.892,,,80,11.3,12.4,,1,,,,,,63,wg-a,,,,AAXX 19064 07661 12458 80821 10110 20110 39921 40083 56018 60017 76362 887// 90600 333 10124 20113=
07661,1996-12-19 12:00:00,11,1005.7,-2.1,100,11,6000,38.892,,68.524,90,,,,6,,,,,,63,wg-a,,,,AAXX 19124 07661 02456 80921 10110 20110 39895 40057 58021 60146 76366 887// 91200 333 60067 91037=
07661,1996-12-19 18:00:00,10,1003.6,-0.4,100,10,6000,35.188,,79.636,70,9.6,11.5,,5,,,,,,63,wg-a,,,,AAXX 19184 07661 12456 80719 10100 20100 39874 40036 56004 60057 76366 887// 91800 333 10115 20096 91043=
07661,1996-12-20 00:00:00,10,1002.2,-1,100,10,8000,22.224,,61.116,60,,,,3,,,,,,63,wg-a,,,,AAXX 20004 07661 02458 80612 10100 20100 39860 40022 56010 60136 76366 887// 90000 333 60037 91033=
07661,1996-12-20 06:00:00,10,1001.8,0.1,100,10,12000,11.112,,,60,9.6,10.6,,,,,,,,,wg-a,,,,AAXX 20064 07661 32462 80606 10100 20100 39856 40018 53001 8357/ 90600 333 10106 20096=
07661,1996-12-20 12:00:00,12,1003.2,-0.2,100,12,25000,7.408,,,120,,,,,,,,,,,wg-a,,,,AAXX 20124 07661 12475 41204 10120 20120 39871 40032 58002 60006 84570 91200=
07661,1996-12-20 18:00:00,12,1004,0.5,94,11,20000,7.408,,,100,10.2,13.4,,,,,,,,,wg-a,,,,AAXX 20184 07661 12570 81004 10120 20110 39879 40040 51005 60006 88800 91800 333 10134 20102=
07661,1996-12-21 00:00:00,13,1005.2,0.4,94,12,15000,14.816,,,180,,,,,,,,,,,wg-a,,,,AAXX 21004 07661 12565 71808 10130 20120 39891 40052 52004 60006 878// 90000=
07661,1996-12-21 06:00:00,11,1006.5,1,100,11,500,18.52,,,80,10.9,12.8,,,,,,,,,wg-a,,,,AAXX 21064 07661 12500 70810 10110 20110 39903 40065 53010 60006 878// 90600 333 10128 20109=
07661,1996-12-21 12:00:00,13,1006.8,-1,100,13,15000,38.892,,57.412,80,,,,0,,,,,,60,wg-a,,,,AAXX 21124 07661 02565 70821 10130 20130 39907 40068 58010 60016 76062 878// 91200 333 60007 91031=
07661,1996-12-21 18:00:00,14,1007.6,0.9,88,12,15000,35.188,,,80,11.1,13.8,,,,,,,,2,wg-a,,,,AAXX 21184 07661 32565 70819 10140 20120 39915 40076 53009 70262 878// 91800 333 10138 20111=
07661,1996-12-22 00:00:00,13,1008.6,0.2,94,12,15000,35.188,,,70,,,,,,,,,,,wg-a,,,,AAXX 22004 07661 12565 80719 10130 20120 39925 40086 50002 60006 888// 90000=
07661,1996-12-22 06:00:00,13,1009,-0,88,11,15000,35.188,,,70,12.3,13.8,,,,,,,,,wg-a,,,,AAXX 22064 07661 12565 80719 10130 20110 39929 40090 55000 60006 888// 90600 333 10138 20123=
07661,1996-12-22 12:00:00,14,1008.6,-1,88,12,20000,50.004,,75.932,80,,,,,,,,,,,wg-a,,,,AAXX 22124 07661 12570 80827 10140 20120 39925 40086 58010 60006 82274 91200 333 91041=
07661,1996-12-22 18:00:00,13,1007.8,0.1,94,12,20000,46.3,,79.636,70,12.5,14.4,,,,,,,,,wg-a,,,,AAXX 22184 07661 12570 60725 10130 20120 39917 40078 52001 60006 82204 91800 333 10144 20125 91043=
07661,1996-12-23 00:00:00,13,1005,-0.7,100,13,10000,29.632,,83.34,120,,,,0,,,,,,21,wg-a,,,,AAXX 23004 07661 02560 81216 10130 20130 39890 40050 58007 60016 72162 8227/ 90000 333 60007 91045=
07661,1996-12-23 06:00:00,13,1002,-1,100,13,10000,14.816,,50.004,170,12.8,13.5,,1,,,,,,60,wg-a,,,,AAXX 23064 07661 12560 81708 10130 20130 39860 40020 56010 60017 76066 8517/ 90600 333 10135 20128 91027=
07661,1996-12-23 12:00:00,14,1000.2,-0.9,94,13,10000,11.112,,,210,,,,,,,,,,,wg-a,,,,AAXX 23124 07661 02460 72106 10140 20130 39843 40002 58009 61000 85871 91200 333 ////=
07661,1996-12-23 18:00:00,13,998.9,-0.4,94,12,15000,7.408,,,190,12.5,13.8,,,,,,,,,wg-a,,,,AAXX 23184 07661 32465 71904 10130 20120 39829 49989 58004 8780/ 91800 333 10138 20125=
07661,1996-12-24 00:00:00,12,997.7,-0.8,94,11,20000,7.408,,,240,,,,,,,,,,,wg-a,,,,AAXX 24004 07661 12470 82404 10120 20110 39817 49977 58008 60006 84560 90000=
07661,1996-12-24 06:00:00,11,996.9,-0.2,94,10,20000,14.816,,,70,10.6,12.7,,0,,,,,,,wg-a,,,,AAXX 24064 07661 12470 60708 10110 20100 39808 49969 55002 60007 82560 90600 333 10127 20106=
07661,1996-12-24 12:00:00,14,997.5,0,88,12,15000,7.408,,,180,,,,,,,,,,,wg-a,,,,AAXX 24124 07661 12465 61804 10140 20120 39816 49975 50000 60006 86200 91200=
07661,1996-12-24 18:00:00,12,996.7,-0.4,88,10,10000,14.816,,,160,10.7,14.4,,0,,,,,,21,wg-a,,,,AAXX 24184 07661 12460 81608 10120 20100 39807 49967 58004 60007 72162 8535/ 91800 333 10144 20107=
07661,1996-12-25 00:00:00,10,997.7,0.7,93,9,10000,18.52,,,70,,,,0,,,,,,60,wg-a,,,,AAXX 25004 07661 02460 70710 10100 20090 39815 49977 51007 60016 76066 87720 90000 333 60007=
07661,1996-12-25 06:00:00,9,998.8,0.8,87,7,20000,22.224,,,300,8.2,12.1,,,,,,,,2,wg-a,,,,AAXX 25064 07661 32470 63012 10090 20070 39826 49988 53008 70262 82240 90600 333 10121 20082=
07661,1996-12-25 12:00:00,11,999.4,-0.1,71,6,20000,35.188,,,300,,,,,,,,,,,wg-a,,,,AAXX 25124 07661 12470 43019 10110 20060 39833 49994 58001 60006 82241 91200=
07661,1996-12-25 18:00:00,9,1001.3,0.6,61,2,18000,46.3,,,300,8.3,11.2,,,,,,,,,wg-a,,,,AAXX 25184 07661 12/68 03025 10090 20020 39850 40013 51006 60006 80000 91800 333 10112 20083=
07661,1996-12-26 00:00:00,5,1006.1,1.7,75,1,15000,14.816,,,310,,,,,,,,,,,wg-a,,,,AAXX 26004 07661 12/65 03108 10050 20010 39895 40061 51017 60006 80000 90000=
07661,1996-12-26 06:00:00,7,1010.6,2.1,81,4,10000,7.408,,,40,4.6,9,,,,,,,,,wg-a,,,,AAXX 26064 07661 12860 70404 10070 20040 39940 40106 53021 60006 8707/ 90600 333 10090 20046=
07661,1996-12-26 12:00:00,8,1017.4,3,81,5,20000,29.632,,,70,,,,,,,,,,,wg-a,,,,AAXX 26124 07661 12570 80716 10080 20050 30008 40174 51030 60006 8227/ 91200=
07661,1996-12-26 18:00:00,6,1022,2.2,81,3,8000,14.816,,,290,5.6,8.8,,,,,,,,2,wg-a,,,,AAXX 26184 07661 32558 82908 10060 20030 30052 40220 51022 70262 8227/ 91800 333 10088 20056=
07661,1996-12-27 00:00:00,7,1024.9,0.5,70,2,8000,22.224,,,70,,,,,,,,,,,wg-a,,,,AAXX 27004 07661 12858 80712 10070 20020 30081 40249 51005 60006 8807/ 90000=
07661,1996-12-27 06:00:00,6,1025.4,-0.4,65,0,8000,22.224,,,60,4.9,6.7,,,,,,,,,wg-a,,,,AAXX 27064 07661 12858 80612 10060 20000 30085 40254 57004 60006 8807/ 90600 333 10067 20049=
07661,1996-12-27 12:00:00,5,1025,-1.1,75,1,9000,18.52,,,130,,,,,,,,,,60,wg-a,,,,AAXX 27124 07661 02659 81310 10050 20010 30081 40250 58011 61000 76062 888// 91200 333 6100=
07661,1996-12-27 18:00:00,4,1022.4,-1.4,70,-1,10000,22.224,,,60,3.9,5.8,,,,,,,,,wg-a,,,,AAXX 27184 07661 32660 80612 10040 21010 30055 40224 56014 888// 91800 333 10058 20039=
07661,1996-12-28 00:00:00,4,1018.5,-2.3,70,-1,0,25.928,,,60,,,,,,,,,,,wg-a,,,,AAXX 28004 07661 12/// /0614 10040 21010 30016 40185 56023 60006 90000=
07661,1996-12-28 06:00:00,3,1013.7,-2.2,93,2,8000,31.484,,,60,2.3,4.2,,0,,,,,,60,wg-a,,,,AAXX 28064 07661 12558 80617 10030 20020 39968 40137 56022 60007 76062 888// 90600 333 10042 20023=
07661,1996-12-28 12:00:00,3,1010.5,-1.8,87,1,8000,61.116,,83.34,60,,,,0,,,,,,60,wg-a,,,,AAXX 28124 07661 02458 80633 10030 20010 39937 40105 58018 60026 76076 888// 91200 333 60007 91045=
07661,1996-12-28 18:00:00,2,1011.1,0.8,80,-1,8000,61.116,,90.748,60,1.7,2.8,,,,,,,,21,wg-a,,,,AAXX 28184 07661 02458 80633 10020 21010 39943 40111 52008 61000 72162 886// 91800 333 10028 20017 //// 91049=
07661,1996-12-29 00:00:00,2,1011.7,0.4,75,-2,10000,31.484,,83.34,60,,,,,,,,,,,wg-a,,,,AAXX 29004 07661 12560 80617 10020 21020 39948 40117 50004 60006 888// 90000 333 91045=
07661,1996-12-29 06:00:00,1,1010.3,-0.9,69,-4,15000,29.632,,,60,0.5,2.9,,,,,,,,,wg-a,,,,AAXX 29064 07661 12/65 00616 10010 21040 39934 40103 56009 60006 80000 90600 333 10029 20005=
07661,1996-12-29 12:00:00,3,1009.7,-0.8,60,-4,15000,11.112,,,80,,,,,,,,,,,wg-a,,,,AAXX 29124 07661 12665 30806 10030 21040 39929 40097 58008 60006 83201 91200=
07661,1996-12-29 18:00:00,2,1008.3,-0.6,64,-4,10000,18.52,,,300,0.6,4.3,,,,,,,,,wg-a,,,,AAXX 29184 07661 12660 23010 10020 21040 39915 40083 56006 60006 82501 91800 333 10043 20006=
07661,1996-12-30 00:00:00,1,1005.7,-1.4,86,-1,10000,7.408,,,30,,,,,,,,,,,wg-a,,,,AAXX 30004 07661 12/60 00304 10010 21010 39889 40057 58014 60006 80000 90000=
07661,1996-12-30 06:00:00,-1,1002.8,-1.1,80,-4,12000,18.52,,,80,-1,2.3,,,,,,,,,wg-a,,,,AAXX 30064 07661 12/62 10810 11010 21040 39859 40028 56011 60006 81030 90600 333 10023 21010=
07661,1996-12-30 12:00:00,4,1002,-0.6,70,-1,8000,3.704,,,50,,,,,,,,,,,wg-a,,,,AAXX 30124 07661 12558 70502 10040 21010 39854 40020 58006 60006 878// 91200=
07661,1996-12-30 18:00:00,3,1002.5,0.8,81,0,12000,14.816,,,310,-1.2,5.1,,,,,,,,,wg-a,,,,AAXX 30184 07661 12/62 03108 10030 20000 39859 40025 53008 60006 80000 91800 333 10051 21012=
07661,1996-12-31 00:00:00,2,1004.8,0.9,75,-2,15000,18.52,,,300,,,,,,,,,,,wg-a,,,,AAXX 31004 07661 12665 73010 10020 21020 39881 40048 51009 60006 872// 90000=
07661,1996-12-31 06:00:00,4,1006.3,0.8,70,-1,12000,11.112,,,70,1.9,3.7,,,,,,,,,wg-a,,,,AAXX 31064 07661 12/62 60706 10040 21010 39896 40063 53008 60006 86020 90600 333 10037 20019=
07661,1996-12-31 12:00:00,6,1007.1,-0.5,81,3,13000,29.632,,,60,,,,,,,,,,60,wg-a,,,,AAXX 31124 07661 02663 80616 10060 20030 39905 40071 58005 61000 76062 8652/ 91200 333 6100=
07661,1996-12-31 18:00:00,5,1003.5,-1.5,93,4,6000,50.004,,75.932,60,3.4,5.6,,4,,,,,,63,wg-a,,,,AAXX 31184 07661 12556 80627 10050 20040 39870 40035 56015 60047 76366 888// 91800 333 10056 20034 91041=
