station_id,dh_utc,temperature,pression,pression_variation_3h,humidite,point_de_rosee,visibilite,vent_moyen,vent_rafales,vent_rafales_10min,vent_direction,temperature_min,temperature_max,pluie_1h,pluie_3h,pluie_6h,pluie_12h,pluie_24h,ensoleillement,temperature_sol,temps_omm,source,radiations,neige_au_sol,nebulosite,raw_msg
07661,1997-01-01 00:00:00,7,1003.4,2,93,6,15000,14.816,,87.044,90,,,,5,,,,,,2,wg-a,,,,AAXX 01004 07661 02565 80908 10070 20060 39870 40034 53020 60296 70262 888// 90000 333 60057 91047=
07661,1997-01-01 06:00:00,6,1009.1,2.3,93,5,15000,14.816,,,250,4.7,8.5,,,,,,,,,wg-a,,,,AAXX 01064 07661 32665 82508 10060 20050 39926 40091 53023 884// 90600 333 10085 20047=
07661,1997-01-01 12:00:00,8,1013.2,1,81,5,40000,25.928,,,70,,,,,,,,,,,wg-a,,,,AAXX 01124 07661 12682 80714 10080 20050 39967 40132 50010 60006 888// 91200=
07661,1997-01-01 18:00:00,8,1014.3,0.6,87,6,20000,22.224,,,70,6,9.2,,,,,,,,,wg-a,,,,AAXX 01184 07661 12870 40712 10080 20060 39978 40143 53006 60006 84030 91800 333 10092 20060=
07661,1997-01-02 00:00:00,8,1014.3,-0.7,93,7,12000,31.484,,,70,,,,1,,,,,,21,wg-a,,,,AAXX 02004 07661 02662 80717 10080 20070 39978 40143 58007 60016 72162 888// 90000 333 60017=
07661,1997-01-02 06:00:00,8,1010.4,-1.9,93,7,12000,46.3,,,70,7.7,8.6,,4,,,,,,21,wg-a,,,,AAXX 02064 07661 12662 60725 10080 20070 39939 40104 58019 60047 72162 86800 90600 333 10086 20077=
07661,1997-01-02 12:00:00,9,1006.9,-2.4,93,8,4900,42.596,,83.34,60,,,,2,,,,,,60,wg-a,,,,AAXX 02124 07661 02549 80623 10090 20080 39906 40069 57024 60036 76062 888// 91200 333 60027 91045=
07661,1997-01-02 18:00:00,13,1004.7,-0.3,94,12,12000,29.632,,90.748,150,7.9,12.6,,1,,,,,,2,wg-a,,,,AAXX 02184 07661 12462 81516 10130 20120 39886 40047 55003 60017 70262 887// 91800 333 10126 20079 91049=
07661,1997-01-03 00:00:00,10,1006.6,0.4,93,9,12000,11.112,,53.708,320,,,,,,,,,,,wg-a,,,,AAXX 03004 07661 12462 73206 10100 20090 39903 40066 50004 60036 877// 90000 333 91029=
07661,1997-01-03 06:00:00,9,1005.5,-1.6,100,9,12000,29.632,,,70,9.2,12.6,,,,,,,,,wg-a,,,,AAXX 03064 07661 32662 40716 10090 20090 39892 40055 56016 84500 90600 333 10126 20092=
07661,1997-01-03 12:00:00,11,1001.8,-2.9,94,10,10000,50.004,,79.636,80,,,,,,,,,,60,wg-a,,,,AAXX 03124 07661 02460 80827 10110 20100 39857 40018 58029 60006 76062 8467/ 91200 333 61000 91043=
07661,1997-01-03 18:00:00,10,999.4,1.5,87,8,0,22.224,,,210,8.8,12,,15,,,,,,,wg-a,,,,AAXX 03184 07661 12/// /2112 10100 20080 39832 49994 51015 60157 91800 333 10120 20088=
07661,1997-01-04 00:00:00,8,998.9,-0.8,76,4,10000,18.52,,83.34,220,,,,0,,,,,,,wg-a,,,,AAXX 04004 07661 02860 22210 10080 20040 39826 49989 58008 60006 82070 90000 333 60007 91045=
07661,1997-01-04 06:00:00,7,997.7,-0.4,70,2,10000,22.224,,57.412,170,5.5,10.6,,4,,,,,,17,wg-a,,,,AAXX 04064 07661 12560 61712 10070 20020 39814 49977 55004 60047 71796 86370 90600 333 10106 20055 91031=
07661,1997-01-05 06:00:00,3,1007.2,1.1,70,-2,12000,31.484,,,300,2.9,,,,,,,,,,wg-a,,,,AAXX 05064 07661 12/62 23017 10030 21020 39905 40072 51011 60006 80002 90600 333 10049 20029=
07661,1997-01-05 12:00:00,7,1010.5,0.1,57,-1,25000,35.188,,,310,,,,,,,,,,,wg-a,,,,AAXX 05124 07661 12675 33119 10070 21010 39939 40105 50001 60006 81102 91200=
07661,1997-01-05 18:00:00,5,1011.2,0.8,70,0,20000,11.112,,,300,2.8,7.7,,,,,,,,,wg-a,,,,AAXX 05184 07661 12/70 53006 10050 20000 39945 40112 51008 60006 80002 91800 333 10077 20028=
07661,1997-01-06 00:00:00,4,1012.3,0,81,1,25000,7.408,,,360,,,,,,,,,,,wg-a,,,,AAXX 06004 07661 12875 53604 10040 20010 39956 40123 50000 60006 83021 90000=
07661,1997-01-06 06:00:00,5,1010.4,-0.9,70,0,20000,18.52,,,60,3.7,5.3,,,,,,,,,wg-a,,,,AAXX 06064 07661 12/70 70610 10050 20000 39937 40104 56009 60006 8703/ 90600 333 10053 20037=
07661,1997-01-06 12:00:00,8,1008.4,-1.9,76,4,20000,29.632,,,60,,,,,,,,,,,wg-a,,,,AAXX 06124 07661 12570 80616 10080 20040 39920 40084 58019 60006 8/12/ 91200=
07661,1997-01-06 18:00:00,8,1007,0.2,81,5,20000,46.3,,75.932,60,4.6,8.9,,,,,,,,2,wg-a,,,,AAXX 06184 07661 02570 80625 10080 20050 39906 40070 53002 61000 70262 8/12/ 91800 333 10089 20046 //// 91041=
07661,1997-01-07 00:00:00,7,1008.5,-0.1,87,5,10000,31.484,,64.82,60,,,,2,,,,,,21,wg-a,,,,AAXX 07004 07661 02660 80617 10070 20050 39920 40085 55001 60076 72162 8/72/ 90000 333 60027 91035=
07661,1997-01-07 06:00:00,7,1010.1,1.1,87,5,15000,25.928,,53.708,70,6.1,7.4,,,,,,,,1,wg-a,,,,AAXX 07064 07661 32665 60714 10070 20050 39936 40101 53011 70162 8/800 90600 333 10074 20061 91029=
07661,1997-01-07 12:00:00,10,1012.6,0.5,76,6,20000,3.704,,,60,,,,,,,,,,,wg-a,,,,AAXX 07124 07661 12570 50602 10100 20060 39962 40126 51005 60006 8327/ 91200=
07661,1997-01-07 18:00:00,9,1013.6,0.7,76,5,20000,7.408,,,330,7.2,10.9,,,,,,,,,wg-a,,,,AAXX 07184 07661 12/70 23304 10090 20050 39971 40136 53007 60006 82030 91800 333 10109 20072=
07661,1997-01-08 00:00:00,8,1014,-0.1,76,4,20000,7.408,,,320,,,,,,,,,,,wg-a,,,,AAXX 08004 07661 12870 63204 10080 20040 39975 40140 58001 60006 86070 90000=
07661,1997-01-08 06:00:00,7,1011.9,-0.9,87,5,15000,11.112,,,70,5.8,8.6,,,,,,,,,wg-a,,,,AAXX 08064 07661 12865 40706 10070 20050 39954 40119 56009 60006 84030 90600 333 10086 20058=
07661,1997-01-08 12:00:00,10,1009,-2.1,82,7,25000,22.224,,,130,,,,,,,,,,21,wg-a,,,,AAXX 08124 07661 02475 81312 10100 20070 39927 40090 58021 61000 72162 8677/ 91200 333 6100=
07661,1997-01-08 18:00:00,9,1005.4,-2,93,8,75000,31.484,,61.116,90,6.4,10.2,,7,,,,,,61,wg-a,,,,AAXX 08184 07661 12489 80917 10090 20080 39891 40054 58020 60077 76166 887// 91800 333 10102 20064 91033=
07661,1997-01-09 00:00:00,8,1000.8,-2.3,93,7,500,50.004,,83.34,60,,,,17,,,,,,95,wg-a,,,,AAXX 09004 07661 02400 80627 10080 20070 39845 40008 56023 60286 79596 839// 90000 333 60177 91045=
07661,1997-01-09 06:00:00,8,1000.7,-0,93,7,12000,38.892,,,60,6.8,9,,5,,,,,,61,wg-a,,,,AAXX 09064 07661 12462 80621 10080 20070 39844 40007 54000 60057 76196 887// 90600 333 10090 20068=
07661,1997-01-09 12:00:00,8,1002.1,0.2,93,7,10000,29.632,,53.708,60,,,,,,,,,,60,wg-a,,,,AAXX 09124 07661 02460 80616 10080 20070 39858 40021 50002 60016 76062 888// 91200 333 61000 91029=
07661,1997-01-09 18:00:00,9,1004.4,1.5,87,7,12000,18.52,,,60,7.3,8.8,,,,,,,,,wg-a,,,,AAXX 09184 07661 32462 60610 10090 20070 39881 40044 53015 86700 91800 333 10088 20073=
07661,1997-01-10 00:00:00,9,1007.3,0.9,81,6,20000,22.224,,,290,,,,,,,,,,,wg-a,,,,AAXX 10004 07661 12470 72912 10090 20060 39909 40073 51009 60006 877// 90000=
07661,1997-01-10 06:00:00,7,1006,-0.3,76,3,20000,35.188,,,310,6.8,9.3,,,,,,,,,wg-a,,,,AAXX 10064 07661 12/70 43119 10070 20030 39895 40060 57003 60006 84040 90600 333 10093 20068=
07661,1997-01-10 12:00:00,9,1007.6,1.3,71,4,20000,14.816,,,50,,,,,,,,,,,wg-a,,,,AAXX 10124 07661 12/70 80508 10090 20040 39912 40076 51013 60006 8803/ 91200=
07661,1997-01-10 18:00:00,8,1011.3,1.9,76,4,20000,18.52,,,300,5.6,10.1,,,,,,,,,wg-a,,,,AAXX 10184 07661 12/70 03010 10080 20040 39948 40113 53019 60006 80000 91800 333 10101 20056=
07661,1997-01-11 00:00:00,8,1014.2,1,66,2,20000,7.408,,,260,,,,,,,,,,,wg-a,,,,AAXX 11004 07661 12/70 02604 10080 20020 39976 40142 51010 60006 80000 90000=
07661,1997-01-11 06:00:00,7,1015.8,0.8,70,2,20000,11.112,,,300,5.2,7.8,,,,,,,,,wg-a,,,,AAXX 11064 07661 12/70 03006 10070 20020 39992 40158 53008 60006 80000 90600 333 10078 20052=
07661,1997-01-11 12:00:00,11,1017.3,-0.1,66,5,20000,3.704,,,280,,,,,,,,,,,wg-a,,,,AAXX 11124 07661 12/70 02802 10110 20050 30009 40173 58001 60006 80000 91200=
07661,1997-01-11 18:00:00,11,1017.8,1,54,2,20000,7.408,,,60,5.6,13.4,,,,,,,,,wg-a,,,,AAXX 11184 07661 12/70 00604 10110 20020 30014 40178 51010 60006 80000 91800 333 10134 20056=
07661,1997-01-12 00:00:00,7,1020.3,1,61,0,25000,11.112,,,60,,,,,,,,,,,wg-a,,,,AAXX 12004 07661 12/75 00606 10070 20000 30036 40203 51010 60006 80000 90000=
07661,1997-01-12 06:00:00,9,1021.2,0.7,43,-3,25000,11.112,,,330,5.7,11.5,,,,,,,,,wg-a,,,,AAXX 12064 07661 12/75 03306 10090 21030 30046 40212 53007 60006 80000 90600 333 10115 20057=
07661,1997-01-12 12:00:00,12,1022.2,-0.2,50,2,50000,0,,,0,,,,,,,,,,,wg-a,,,,AAXX 12124 07661 12/84 00000 10120 20020 30058 40222 58002 60006 80000 91200=
07661,1997-01-12 18:00:00,10,1023.3,0.3,57,2,45000,18.52,,,340,8.4,12.7,,,,,,,,,wg-a,,,,AAXX 12184 07661 12/83 03410 10100 20020 30067 40233 53003 60006 80000 91800 333 10127 20084=
07661,1997-01-13 00:00:00,11,1023.6,-0,35,-4,45000,14.816,,,310,,,,,,,,,,,wg-a,,,,AAXX 13004 07661 12/83 03108 10110 21040 30071 40236 54000 60006 80000 90000=
07661,1997-01-13 06:00:00,8,1023.8,-0,36,-6,50000,7.408,,,10,5.6,11.2,,,,,,,,,wg-a,,,,AAXX 13064 07661 12/84 00104 10080 21060 30071 40238 55000 60006 80000 90600 333 10112 20056=
07661,1997-01-13 12:00:00,11,1024.1,-0.2,54,2,40000,0,,,0,,,,,,,,,,,wg-a,,,,AAXX 13124 07661 12/82 00000 10110 20020 30076 40241 58002 60006 80000 91200=
07661,1997-01-13 18:00:00,10,1024.1,0.4,71,5,20000,11.112,,,90,7.5,13.6,,,,,,,,,wg-a,,,,AAXX 13184 07661 12/70 00906 10100 20050 30075 40241 53004 60006 80000 91800 333 10136 20075=
07661,1997-01-14 00:00:00,10,1024.3,-0.3,32,-6,20000,3.704,,,70,,,,,,,,,,,wg-a,,,,AAXX 14004 07661 12/70 00702 10100 21060 30077 40243 58003 60006 80000 90000=
07661,1997-01-14 06:00:00,8,1024.2,0.2,36,-6,20000,7.408,,,80,7.7,10.7,,,,,,,,,wg-a,,,,AAXX 14064 07661 12/70 00804 10080 21060 30075 40242 53002 60006 80000 90600 333 10107 20077=
07661,1997-01-14 12:00:00,12,1024.5,-0.1,62,5,500,11.112,,,140,,,,,,,,,,,wg-a,,,,AAXX 14124 07661 12/00 01406 10120 20050 30080 40245 58001 60006 80000 91200=
07661,1997-01-14 18:00:00,10,1025.1,0.7,71,5,28000,11.112,,,70,7.8,12.1,,,,,,,,,wg-a,,,,AAXX 14184 07661 12/78 00706 10100 20050 30085 40251 53007 60006 80000 91800 333 10121 20078=
07661,1997-01-15 00:00:00,8,1026.2,0.3,57,0,25000,18.52,,,60,,,,,,,,,,,wg-a,,,,AAXX 15004 07661 12/75 00610 10080 20000 30095 40262 50003 60006 80000 90000=
07661,1997-01-15 06:00:00,7,1026.3,-0.1,61,0,25000,18.52,,,70,5.2,10.2,,,,,,,,,wg-a,,,,AAXX 15064 07661 12/75 00710 10070 20000 30095 40263 57001 60006 80000 90600 333 10102 20052=
07661,1997-01-15 12:00:00,12,1026.9,-0.2,58,4,35000,14.816,,,160,,,,,,,,,,,wg-a,,,,AAXX 15124 07661 12/81 01608 10120 20040 30104 40269 58002 60006 80000 91200=
07661,1997-01-15 18:00:00,10,1026.4,0.2,82,7,50000,7.408,,,110,6.4,12.4,,,,,,,,,wg-a,,,,AAXX 15184 07661 12/84 01104 10100 20070 30098 40264 53002 60006 80000 91800 333 10124 20064=
07661,1997-01-16 00:00:00,8,1026.6,-0.1,61,1,45000,14.816,,,80,,,,,,,,,,,wg-a,,,,AAXX 16004 07661 12/83 00808 10080 20010 30098 40266 58001 60006 80000 90000=
07661,1997-01-16 06:00:00,7,1025.2,-0.4,61,0,40000,18.52,,,80,5.4,10.1,,,,,,,,,wg-a,,,,AAXX 16064 07661 12/82 00810 10070 20000 30084 40252 55004 60006 80000 90600 333 10101 20054=
07661,1997-01-16 12:00:00,11,1025.1,-0.5,76,7,40000,7.408,,,110,,,,,,,,,,,wg-a,,,,AAXX 16124 07661 12/82 01104 10110 20070 30086 40251 58005 60006 80000 91200=
07661,1997-01-16 18:00:00,10,1024,0.1,87,8,500,14.816,,,80,6.3,11.8,,,,,,,,,wg-a,,,,AAXX 16184 07661 12/00 00808 10100 20080 30074 40240 53001 60006 80000 91800 333 10118 20063=
07661,1997-01-17 00:00:00,7,1024.3,-0.2,93,6,20000,18.52,,,80,,,,,,,,,,,wg-a,,,,AAXX 17004 07661 12870 60810 10070 20060 30075 40243 58002 60006 86070 90000=
07661,1997-01-17 06:00:00,8,1022.6,-0.8,93,7,15000,25.928,,,70,6.3,9.7,,,,,,,,,wg-a,,,,AAXX 17064 07661 12865 60714 10080 20070 30059 40226 56008 60006 86070 90600 333 10097 20063=
07661,1997-01-17 12:00:00,10,1022.3,-0.7,87,8,8000,25.928,,,70,,,,,,,,,,21,wg-a,,,,AAXX 17124 07661 02558 60714 10100 20080 30058 40223 58007 61000 72162 84859 91200 333 6100=
07661,1997-01-17 18:00:00,10,1021.3,-0.1,87,8,15000,29.632,,,70,7.5,11.1,,,,,,,,2,wg-a,,,,AAXX 17184 07661 02565 80716 10100 20080 30048 40213 57001 61000 70262 8687/ 91800 333 10111 20075 ////=
07661,1997-01-18 00:00:00,9,1021.4,-0.4,87,7,15000,29.632,,,70,,,,,,,,,,,wg-a,,,,AAXX 18004 07661 12/65 30716 10090 20070 30048 40214 56004 60006 80001 90000=
07661,1997-01-18 06:00:00,10,1020.8,-0.2,87,8,15000,29.632,,,60,8.8,10.3,,,,,,,,,wg-a,,,,AAXX 18064 07661 12465 60616 10100 20080 30043 40208 55002 60006 85820 90600 333 10103 20088=
07661,1997-01-18 12:00:00,12,1021,-0.6,82,9,15000,25.928,,,90,,,,,,,,,,,wg-a,,,,AAXX 18124 07661 12565 50914 10120 20090 30046 40210 58006 60006 82820 91200=
07661,1997-01-18 18:00:00,11,1019.4,-0.1,87,9,10000,35.188,,,80,8.8,12.2,,,,,,,,,wg-a,,,,AAXX 18184 07661 12560 80819 10110 20090 30030 40194 58001 60006 888// 91800 333 10122 20088=
07661,1997-01-19 00:00:00,11,1018.2,-0.8,100,11,10000,25.928,,,150,,,,3,,,,,,60,wg-a,,,,AAXX 19004 07661 02560 81514 10110 20110 30018 40182 58008 60046 76022 888// 90000 333 60037=
07661,1997-01-19 06:00:00,11,1017.2,-0,94,10,8000,18.52,,,190,10.4,11.6,,3,,,,,,60,wg-a,,,,AAXX 19064 07661 12458 81910 10110 20100 30008 40172 55000 60037 76066 888// 90600 333 10116 20104=
07661,1997-01-19 12:00:00,11,1016.8,-0.9,94,10,500,22.224,,,180,,,,1,,,,,,60,wg-a,,,,AAXX 19124 07661 02300 81812 10110 20100 30004 40168 58009 60016 76066 887// 91200 333 60017=
07661,1997-01-19 18:00:00,12,1014.9,-0.4,94,11,10000,25.928,,,170,10.9,12,,1,,,,,,60,wg-a,,,,AAXX 19184 07661 12460 81714 10120 20110 39986 40149 56004 60017 76066 887// 91800 333 10120 20109=
07661,1997-01-20 00:00:00,12,1014.7,-0.9,94,11,500,18.52,,,110,,,,0,,,,,,21,wg-a,,,,AAXX 20004 07661 02400 81110 10120 20110 39984 40147 58009 60016 72162 887// 90000 333 60007=
07661,1997-01-20 06:00:00,12,1013.9,-0.1,94,11,6000,29.632,,,90,11.4,12.4,,2,,,,,,51,wg-a,,,,AAXX 20064 07661 12356 80916 10120 20110 39976 40139 55001 60027 75166 887// 90600 333 10124 20114=
07661,1997-01-20 12:00:00,12,1015.9,0.5,88,10,8000,31.484,,,70,,,,,,,,,,2,wg-a,,,,AAXX 20124 07661 02458 80717 10120 20100 39996 40159 50005 61000 70262 887// 91200 333 ////=
07661,1997-01-20 18:00:00,12,1017.3,1.3,82,9,15000,35.188,,,70,11.2,12,,,,,,,,,wg-a,,,,AAXX 20184 07661 32465 80719 10120 20090 30009 40173 51013 888// 91800 333 10120 20112=
07661,1997-01-21 00:00:00,12,1019.1,0.4,76,8,15000,35.188,,,70,,,,,,,,,,,wg-a,,,,AAXX 21004 07661 12565 60719 10120 20080 30027 40191 50004 60006 8153/ 90000=
07661,1997-01-21 06:00:00,11,1020.7,0.4,87,9,15000,35.188,,,70,10.9,11.6,,,,,,,,,wg-a,,,,AAXX 21064 07661 12565 70719 10110 20090 30043 40207 53004 60006 878// 90600 333 10116 20109=
07661,1997-01-21 12:00:00,14,1022.4,0,82,11,0,35.188,,,80,,,,,,,,,,,wg-a,,,,AAXX 21124 07661 12/// /0819 10140 20110 30061 40224 50000 60006 91200=
07661,1997-01-21 18:00:00,13,1022.7,-0,82,10,12000,57.412,,,70,10.8,13.9,,,,,,,,,wg-a,,,,AAXX 21184 07661 12/62 80731 10130 20100 30063 40227 55000 60006 8807/ 91800 333 10139 20108=
07661,1997-01-22 00:00:00,13,1024.6,0.6,77,9,12000,50.004,,75.932,70,,,,,,,,,,,wg-a,,,,AAXX 22004 07661 12/62 80727 10130 20090 30082 40246 50006 60006 8807/ 90000 333 91041=
07661,1997-01-22 06:00:00,14,1025.6,1.5,67,8,15000,53.708,,90.748,80,12.6,13.8,,,,,,,,,wg-a,,,,AAXX 22064 07661 12/65 80829 10140 20080 30092 40256 53015 60006 8807/ 90600 333 10138 20126 91049=
07661,1997-01-23 12:00:00,14,1024.1,-0.7,72,9,12000,53.708,,79.636,70,,,,,,,,,,,wg-a,,,,AAXX 23124 07661 12562 60729 10140 20090 30078 40241 58007 60006 83170 91200 333 91043=
07661,1997-01-23 18:00:00,13,1024.5,0.5,72,8,10000,57.412,,87.044,80,12.5,14.5,,,,,,,,,wg-a,,,,AAXX 23184 07661 12560 70831 10130 20080 30081 40245 50005 60006 83170 91800 333 10145 20125 91047=
07661,1997-01-24 00:00:00,13,1025,0.3,77,9,10000,42.596,,83.34,70,,,,,,,,,,,wg-a,,,,AAXX 24004 07661 12860 80723 10130 20090 30086 40250 50003 60006 88010 90000 333 91045=
07661,1997-01-24 06:00:00,13,1025,0.4,77,9,14000,42.596,,64.82,70,12.3,13.3,,,,,,,,,wg-a,,,,AAXX 24064 07661 12664 70723 10130 20090 30086 40250 52004 60006 8453/ 90600 333 10133 20123 91035=
07661,1997-01-24 12:00:00,14,1025.7,-0.5,72,9,15000,42.596,,64.82,80,,,,,,,,,,,wg-a,,,,AAXX 24124 07661 12565 60823 10140 20090 30094 40257 58005 60006 8213/ 91200 333 91035=
07661,1997-01-24 18:00:00,12,1027.1,1.1,82,9,10000,25.928,,,70,12,14.1,,,,,,,,,wg-a,,,,AAXX 24184 07661 12560 70714 10120 20090 30106 40271 53011 60006 8113/ 91800 333 10141 20120=
07661,1997-01-25 00:00:00,12,1027.1,-0.8,82,9,12000,22.224,,,70,,,,,,,,,,,wg-a,,,,AAXX 25004 07661 12/62 80712 10120 20090 30106 40271 56008 60006 88070 90000=
07661,1997-01-25 06:00:00,10,1026.3,-0.5,87,8,15000,18.52,,,80,10.1,12,,,,,,,,,wg-a,,,,AAXX 25064 07661 12/65 20810 10100 20080 30097 40263 56005 60006 82030 90600 333 10120 20101=
07661,1997-01-25 12:00:00,13,1026.1,-0.8,82,10,15000,14.816,,,100,,,,,,,,,,,wg-a,,,,AAXX 25124 07661 12/65 41008 10130 20100 30097 40261 58008 60006 83031 91200=
07661,1997-01-25 18:00:00,12,1025.5,0.6,82,9,12000,3.704,,,90,10,14,,,,,,,,,wg-a,,,,AAXX 25184 07661 12/62 30902 10120 20090 30090 40255 53006 60006 83030 91800 333 10140 20100=
07661,1997-01-26 00:00:00,9,1024.6,-0.9,87,7,8000,14.816,,,70,,,,,,,,,,,wg-a,,,,AAXX 26004 07661 12/58 00708 10090 20070 30080 40246 58009 60006 80000 90000=
07661,1997-01-26 06:00:00,9,1023.9,0.1,87,7,10000,11.112,,,80,8.5,11.5,,,,,,,,,wg-a,,,,AAXX 26064 07661 12/60 00806 10090 20070 30073 40239 53001 60006 80000 90600 333 10115 20085=
07661,1997-01-26 12:00:00,12,1025.1,-0.2,82,9,8000,7.408,,,100,,,,,,,,,,,wg-a,,,,AAXX 26124 07661 12358 71004 10120 20090 30087 40251 58002 60006 871// 91200=
07661,1997-01-26 18:00:00,11,1025.6,0.7,87,9,15000,3.704,,,220,7.9,12.8,,,,,,,,,wg-a,,,,AAXX 26184 07661 12565 52202 10110 20090 30091 40256 53007 60006 84130 91800 333 10128 20079=
07661,1997-01-27 00:00:00,10,1026.7,0,82,7,8000,11.112,,,90,,,,,,,,,,,wg-a,,,,AAXX 27004 07661 12558 30906 10100 20070 30101 40267 50000 60006 83700 90000=
07661,1997-01-27 06:00:00,10,1026.9,0.1,82,7,15000,11.112,,,330,9.6,11.1,,,,,,,,,wg-a,,,,AAXX 27064 07661 12665 73306 10100 20070 30103 40269 53001 60006 875// 90600 333 10111 20096=
07661,1997-01-27 12:00:00,11,1028.5,-0.1,82,8,12000,3.704,,,200,,,,,,,,,,,wg-a,,,,AAXX 27124 07661 12662 82002 10110 20080 30119 40285 58001 60006 885// 91200=
07661,1997-01-27 18:00:00,10,1027.9,0.2,93,9,0,18.52,,,280,9.4,11.3,,,,,,,,,wg-a,,,,AAXX 27184 07661 12/// /2810 10100 20090 30113 40279 53002 60006 91800 333 10113 20094=
07661,1997-01-28 00:00:00,8,1027.2,-0.6,87,6,12000,18.52,,,300,,,,,,,,,,,wg-a,,,,AAXX 28004 07661 12/62 43010 10080 20060 30105 40272 56006 60006 84050 90000=
07661,1997-01-28 06:00:00,7,1027,0.3,81,4,10000,11.112,,,310,6.7,10.3,,,,,,,,,wg-a,,,,AAXX 28064 07661 12/60 13106 10070 20040 30102 40270 53003 60006 81031 90600 333 10103 20067=
07661,1997-01-28 12:00:00,9,1029.1,0.8,76,5,8000,7.408,,,210,,,,,,,,,,,wg-a,,,,AAXX 28124 07661 12/58 72104 10090 20050 30124 40291 50008 60006 84051 91200=
07661,1997-01-28 18:00:00,9,1031.6,1.6,81,6,10000,7.408,,,70,5.4,9.5,,,,,,,,,wg-a,,,,AAXX 28184 07661 12/60 80704 10090 20060 30148 40316 51016 60006 88050 91800 333 10095 20054=
07661,1997-01-29 00:00:00,8,1033.2,0.2,93,7,10000,22.224,,,70,,,,,,,,,,,wg-a,,,,AAXX 29004 07661 12860 30712 10080 20070 30164 40332 53002 60006 82071 90000=
07661,1997-01-29 06:00:00,7,1033.1,-0.2,93,6,12000,7.408,,,40,6.2,10.4,,0,,,,,,,wg-a,,,,AAXX 29064 07661 12/62 00404 10070 20060 30162 40331 55002 60007 80000 90600 333 10104 20062=
07661,1997-01-29 12:00:00,12,1032.3,-0.9,67,6,10000,14.816,,,300,,,,,,,,,,,wg-a,,,,AAXX 29124 07661 12/60 03008 10120 20060 30157 40323 58009 60006 80000 91200=
07661,1997-01-29 18:00:00,10,1031.9,0.4,87,8,12000,18.52,,,290,6.6,13,,,,,,,,,wg-a,,,,AAXX 29184 07661 12/62 02910 10100 20080 30152 40319 53004 60006 80000 91800 333 10130 20066=
07661,1997-01-30 00:00:00,9,1032.7,0.3,76,5,10000,18.52,,,280,,,,,,,,,,,wg-a,,,,AAXX 30004 07661 12/60 02810 10090 20050 30159 40327 52003 60006 80000 90000=
07661,1997-01-30 06:00:00,6,1032.6,-0.1,87,4,12000,18.52,,,80,5.8,10.4,,,,,,,,,wg-a,,,,AAXX 30064 07661 12/62 10810 10060 20040 30157 40326 55001 60006 80001 90600 333 10104 20058=
07661,1997-01-30 12:00:00,12,1032.8,-0.4,76,8,7000,7.408,,,160,,,,,,,,,,,wg-a,,,,AAXX 30124 07661 12057 51604 10120 20080 30162 40328 58004 60006 8262/ 91200=
07661,1997-01-30 18:00:00,9,1030.9,-0.1,81,6,8000,18.52,,,300,5.7,12.4,,,,,,,,,wg-a,,,,AAXX 30184 07661 12/58 03010 10090 20060 30142 40309 55001 60006 80000 91800 333 10124 20057=
07661,1997-01-31 00:00:00,9,1030.4,-0.3,71,4,8000,22.224,,,280,,,,,,,,,,,wg-a,,,,AAXX 31004 07661 12/58 02812 10090 20040 30136 40304 58003 60006 80000 90000=
07661,1997-01-31 12:00:00,12,1027.9,-1.4,67,6,12000,29.632,,,290,,,,,,,,,,,wg-a,,,,AAXX 31124 07661 12/62 02916 10120 20060 30114 40279 58014 60006 80000 91200=
07661,1997-01-31 18:00:00,10,1026.4,-0,82,7,8000,25.928,,,290,6.3,12.2,,,,,,,,,wg-a,,,,AAXX 31184 07661 12/58 02914 10100 20070 30098 40264 55000 60006 80000 91800 333 10122 20063=
07661,1997-02-01 00:00:00,8,1026.4,0.1,76,4,10000,22.224,,,290,,,,,,,,,,,wg-a,,,,AAXX 01004 07661 12/60 02912 10080 20040 30096 40264 50001 60006 80000 90000=
07661,1997-02-01 06:00:00,5,1025.1,-0.2,87,3,10000,3.704,,,20,4.1,9.8,,,,,,,,,wg-a,,,,AAXX 01064 07661 12/60 00202 10050 20030 30082 40251 56002 60006 80000 90600 333 10098 20041=
07661,1997-02-01 12:00:00,10,1025.8,0.1,71,5,6000,11.112,,,140,,,,,,,,,,,wg-a,,,,AAXX 01124 07661 12/56 01406 10100 20050 30092 40258 50001 60006 80000 91200=
07661,1997-02-01 18:00:00,9,1025.7,0.4,81,6,7000,14.816,,,300,3.7,11.5,,,,,,,,,wg-a,,,,AAXX 01184 07661 12/57 03008 10090 20060 30090 40257 50004 60006 80000 91800 333 10115 20037=
07661,1997-02-02 06:00:00,7,1025.6,0.2,93,6,8000,11.112,,,90,5.2,8.9,,,,,,,,,wg-a,,,,AAXX 02064 07661 12558 70906 10070 20060 30088 40256 53002 60006 875// 90600 333 10089 20052=
07661,1997-02-02 12:00:00,11,1026.4,-0.1,76,7,10000,11.112,,,80,,,,,,,,,,,wg-a,,,,AAXX 02124 07661 12560 60806 10110 20070 30098 40264 58001 60006 82801 91200=
07661,1997-02-02 18:00:00,10,1026.2,0.7,82,7,10000,18.52,,,70,6.7,11.3,,,,,,,,,wg-a,,,,AAXX 02184 07661 12660 20710 10100 20070 30096 40262 52007 60006 82501 91800 333 10113 20067=
07661,1997-02-03 00:00:00,7,1026.2,-0.7,93,6,10000,11.112,,,60,,,,,,,,,,,wg-a,,,,AAXX 03004 07661 12/60 00606 10070 20060 30094 40262 58007 60006 80000 90000=
07661,1997-02-03 06:00:00,6,1025.1,-0.3,93,5,10000,14.816,,,80,5.8,9.5,,,,,,,,,wg-a,,,,AAXX 03064 07661 12660 20808 10060 20050 30083 40251 55003 60006 81101 90600 333 10095 20058=
07661,1997-02-03 12:00:00,11,1026,-0.1,76,7,10000,7.408,,,100,,,,,,,,,,,wg-a,,,,AAXX 03124 07661 12/60 61004 10110 20070 30095 40260 58001 60006 86070 91200=
07661,1997-02-03 18:00:00,10,1026.1,0.8,82,7,12000,11.112,,,290,5.5,12.3,,,,,,,,,wg-a,,,,AAXX 03184 07661 12/62 52906 10100 20070 30095 40261 53008 60006 83071 91800 333 10123 20055=
07661,1997-02-04 06:00:00,6,1026.8,-0.1,93,5,12000,14.816,,,80,5.4,9.5,,,,,,,,,wg-a,,,,AAXX 04064 07661 12/62 10808 10060 20050 30099 40268 58001 60006 81070 90600 333 10095 20054=
07661,1997-02-04 12:00:00,11,1027.4,0,82,8,7000,7.408,,,90,,,,,,,,,,,wg-a,,,,AAXX 04124 07661 12457 40904 10110 20080 30108 40274 50000 60006 84200 91200=
07661,1997-02-04 18:00:00,9,1026.7,0.6,93,8,8000,14.816,,,210,5.5,11.9,,,,,,,,,wg-a,,,,AAXX 04184 07661 12458 12108 10090 20080 30100 40267 53006 60006 81100 91800 333 10119 20055=
07661,1997-02-05 00:00:00,7,1027.4,-0.1,93,6,8000,11.112,,,310,,,,,,,,,,,wg-a,,,,AAXX 05004 07661 12/58 03106 10070 20060 30106 40274 58001 60006 80000 90000=
07661,1997-02-05 06:00:00,7,1025.8,-0.8,87,5,12000,25.928,,,300,6.9,9.2,,,,,,,,,wg-a,,,,AAXX 05064 07661 12562 43014 10070 20050 30090 40258 57008 60006 83530 90600 333 10092 20069=
07661,1997-02-05 12:00:00,10,1024.5,-1.3,76,6,15000,35.188,,57.412,290,,,,,,,,,,,wg-a,,,,AAXX 05124 07661 12565 72919 10100 20060 30079 40245 58013 60006 878// 91200 333 91031=
07661,1997-02-05 18:00:00,10,1022,-0.7,87,8,0,35.188,,,300,7.2,10.9,,,,,,,,,wg-a,,,,AAXX 05184 07661 32/// /3019 10100 20080 30055 40220 56007 91800 333 10109 20072=
07661,1997-02-06 00:00:00,11,1020.1,-0.9,47,0,20000,61.116,,111.12,310,,,,,,,,,,,wg-a,,,,AAXX 06004 07661 12/70 03133 10110 20000 30036 40201 56009 60006 80000 90000 333 91060=
07661,1997-02-06 06:00:00,9,1023.1,2.2,49,-1,500,31.484,,107.416,300,9.3,12.2,,,,,,,,,wg-a,,,,AAXX 06064 07661 12/00 03017 10090 21010 30065 40231 51022 60006 80000 90600 333 10122 20093 91058=
07661,1997-02-06 12:00:00,14,1028.9,1.6,41,1,40000,7.408,,,190,,,,,,,,,,,wg-a,,,,AAXX 06124 07661 12/82 01904 10140 20010 30125 40289 51016 60006 80000 91200=
07661,1997-02-06 18:00:00,12,1031.6,2.1,47,1,35000,14.816,,,310,8.8,15.3,,,,,,,,,wg-a,,,,AAXX 06184 07661 12/81 03108 10120 20010 30150 40316 53021 60006 80000 91800 333 10153 20088=
07661,1997-02-07 00:00:00,7,1033.5,0.3,70,2,20000,14.816,,,70,,,,,,,,,,,wg-a,,,,AAXX 07004 07661 12/70 00708 10070 20020 30166 40335 50003 60006 80000 90000=
07661,1997-02-07 06:00:00,6,1034,1.1,75,2,20000,18.52,,,90,4.9,12.3,,,,,,,,,wg-a,,,,AAXX 07064 07661 12/70 00910 10060 20020 30170 40340 53011 60006 80000 90600 333 10123 20049=
07661,1997-02-07 12:00:00,12,1035.4,0.2,67,6,16000,18.52,,,110,,,,,,,,,,,wg-a,,,,AAXX 07124 07661 12/66 01110 10120 20060 30188 40354 50002 60006 80000 91200=
07661,1997-02-07 18:00:00,10,1035.1,0.8,76,6,15000,14.816,,,90,4.7,12.4,,,,,,,,,wg-a,,,,AAXX 07184 07661 12/65 00908 10100 20060 30184 40351 52008 60006 80000 91800 333 10124 20047=
07661,1997-02-08 00:00:00,7,1035.3,-0.2,66,1,15000,11.112,,,60,,,,,,,,,,,wg-a,,,,AAXX 08004 07661 12/65 00606 10070 20010 30184 40353 58002 60006 80000 90000=
07661,1997-02-08 06:00:00,8,1034.8,0.1,34,-7,15000,11.112,,,290,6.4,10.3,,,,,,,,,wg-a,,,,AAXX 08064 07661 12/65 02906 10080 21070 30179 40348 53001 60006 80000 90600 333 10103 20064=
07661,1997-02-08 12:00:00,13,1033.9,-0.8,51,3,10000,22.224,,,280,,,,,,,,,,,wg-a,,,,AAXX 08124 07661 12/60 02812 10130 20030 30173 40339 58008 60006 80000 91200=
07661,1997-02-08 18:00:00,10,1032.6,0.1,82,7,20000,29.632,,,290,7.4,13.9,,,,,,,,,wg-a,,,,AAXX 08184 07661 12/70 02916 10100 20070 30159 40326 53001 60006 80000 91800 333 10139 20074=
07661,1997-02-09 00:00:00,8,1033.2,0.2,87,6,20000,22.224,,,290,,,,,,,,,,,wg-a,,,,AAXX 09004 07661 12/70 02912 10080 20060 30164 40332 52002 60006 80000 90000=
07661,1997-02-09 06:00:00,8,1032,-0.4,87,6,500,14.816,,,300,7.6,10.4,,,,,,,,,wg-a,,,,AAXX 09064 07661 12/00 23008 10080 20060 30152 40320 56004 60006 82030 90600 333 10104 20076=
07661,1997-02-09 12:00:00,11,1032,-0.4,76,7,20000,14.816,,,280,,,,,,,,,,,wg-a,,,,AAXX 09124 07661 12570 42808 10110 20070 30154 40320 58004 60006 82231 91200=
07661,1997-02-09 18:00:00,9,1031.1,0.7,87,7,10000,18.52,,,280,7.9,12.5,,,,,,,,,wg-a,,,,AAXX 09184 07661 12/60 32810 10090 20070 30144 40311 53007 60006 82031 91800 333 10125 20079=
07661,1997-02-10 00:00:00,8,1031.8,0.1,87,6,10000,11.112,,,300,,,,,,,,,,,wg-a,,,,AAXX 10004 07661 12/60 03006 10080 20060 30150 40318 53001 60006 80000 90000=
07661,1997-02-10 12:00:00,11,1030.3,-0.6,76,7,7000,14.816,,,220,,,,,,,,,,,wg-a,,,,AAXX 10124 07661 12/57 22208 10110 20070 30137 40303 58006 60006 80003 91200=
07661,1997-02-10 18:00:00,9,1029.2,0.2,87,7,8000,14.816,,,270,7.7,12.1,,,,,,,,,wg-a,,,,AAXX 10184 07661 12658 12708 10090 20070 30125 40292 53002 60006 81130 91800 333 10121 20077=
07661,1997-02-11 00:00:00,10,1029.3,-0.4,82,7,7000,18.52,,,300,,,,,,,,,,,wg-a,,,,AAXX 11004 07661 12657 73010 10100 20070 30126 40293 58004 60006 81770 90000=
07661,1997-02-11 06:00:00,9,1027.2,-0.8,81,6,12000,25.928,,,300,8.1,10.1,,,,,,,,,wg-a,,,,AAXX 11064 07661 12662 53014 10090 20060 30105 40272 57008 60006 82170 90600 333 10101 20081=
07661,1997-02-11 12:00:00,12,1026.2,-1.2,71,7,8000,38.892,,61.116,290,,,,,,,,,,,wg-a,,,,AAXX 11124 07661 12/58 52921 10120 20070 30097 40262 58012 60006 85070 91200 333 91033=
07661,1997-02-11 18:00:00,13,1026,0.8,67,7,10000,29.632,,64.82,300,8.7,13.6,,,,,,,,,wg-a,,,,AAXX 11184 07661 12/60 53016 10130 20070 30096 40260 53008 60006 85070 91800 333 10136 20087 91035=
07661,1997-02-12 00:00:00,12,1025.7,0.1,71,7,10000,35.188,,,280,,,,,,,,,,,wg-a,,,,AAXX 12004 07661 12/60 32819 10120 20070 30092 40257 53001 60006 83070 90000=
07661,1997-02-12 06:00:00,12,1023.9,-0.1,82,9,15000,42.596,,72.228,300,11.5,13.2,,,,,,,,,wg-a,,,,AAXX 12064 07661 12/65 73023 10120 20090 30075 40239 58001 60006 8707/ 90600 333 10132 20115 91039=
07661,1997-02-12 12:00:00,15,1022.2,-1.1,59,7,15000,42.596,,75.932,290,,,,,,,,,,,wg-a,,,,AAXX 12124 07661 12/65 32923 10150 20070 30059 40222 58011 60006 82032 91200 333 91041=
07661,1997-02-12 18:00:00,13,1020.5,-0.2,77,9,20000,35.188,,79.636,290,11.6,16.5,,,,,,,,,wg-a,,,,AAXX 12184 07661 12/70 12919 10130 20090 30042 40205 55002 60006 81030 91800 333 10165 20116 91043=
07661,1997-02-13 00:00:00,12,1019.9,-1.4,82,9,10000,35.188,,,280,,,,,,,,,,,wg-a,,,,AAXX 13004 07661 12/60 02819 10120 20090 30035 40199 58014 60006 80000 90000=
07661,1997-02-13 06:00:00,12,1018.2,-0.3,67,6,25000,57.412,,,310,11.5,13.2,,,,,,,,,wg-a,,,,AAXX 13064 07661 12/75 23131 10120 20060 30018 40182 58003 60006 81042 90600 333 10132 20115=
07661,1997-02-13 12:00:00,13,1017,-1,72,8,13000,75.932,,114.824,290,,,,,,,,,,,wg-a,,,,AAXX 13124 07661 12563 82941 10130 20080 30007 40170 58010 60006 83257 91200 333 91062=
07661,1997-02-13 18:00:00,13,1014.9,-0.8,67,7,14000,68.524,,118.528,290,11.8,13.8,,,,,,,,,wg-a,,,,AAXX 13184 07661 12564 52937 10130 20070 39986 40149 56008 60006 8217/ 91800 333 10138 20118 91064=
07661,1997-02-14 00:00:00,10,1017.6,1.2,40,-3,14000,42.596,,94.452,300,,,,,,,,,,,wg-a,,,,AAXX 14004 07661 12864 23023 10100 21030 30011 40176 51012 60006 82040 90000 333 91051=
07661,1997-02-14 06:00:00,9,1015.1,-1.7,49,-1,20000,31.484,,64.82,280,8,13,,,,,,,,,wg-a,,,,AAXX 14064 07661 12570 52817 10090 21010 39986 40151 56017 60006 85800 90600 333 10130 20080 91035=
07661,1997-02-14 12:00:00,14,1011.7,-3,77,10,20000,57.412,,87.044,300,,,,,,,,,,,wg-a,,,,AAXX 14124 07661 12570 53031 10140 20100 39956 40117 58030 60006 85800 91200 333 91047=
07661,1997-02-14 18:00:00,13,1009.5,-1.4,82,10,15000,50.004,,90.748,290,9,14.5,,,,,,,,,wg-a,,,,AAXX 14184 07661 12565 52927 10130 20100 39933 40095 58014 60006 85800 91800 333 10145 20090 91049=
07661,1997-02-15 00:00:00,12,1007.4,-2.4,76,8,15000,14.816,,68.524,300,,,,,,,,,,,wg-a,,,,AAXX 15004 07661 12/65 53008 10120 20080 39912 40074 57024 60006 80002 90000 333 91037=
07661,1997-02-15 06:00:00,10,1004.9,-1.4,87,8,15000,42.596,,72.228,300,9.5,13.3,,,,,,,,21,wg-a,,,,AAXX 15064 07661 02665 73023 10100 20080 39886 40049 56014 61000 72162 875// 90600 333 10133 20095 //// 91039=
07661,1997-02-15 12:00:00,14,1005.2,-0.4,58,6,45000,53.708,,90.748,310,,,,,,,,,,,wg-a,,,,AAXX 15124 07661 12583 53129 10140 20060 39891 40052 58004 60006 83232 91200 333 91049=
07661,1997-02-15 18:00:00,10,1005.7,0.3,46,-1,500,79.636,,103.712,310,9.3,15.2,,,,,,,,,wg-a,,,,AAXX 15184 07661 32/00 13143 10100 21010 39894 40057 50003 81040 91800 333 10152 20093 91056=
07661,1997-02-16 00:00:00,8,1011.2,1.7,39,-5,15000,25.928,,103.712,300,,,,,,,,,,,wg-a,,,,AAXX 16004 07661 12/65 13014 10080 21050 39947 40112 51017 60006 81040 90000 333 91056=
07661,1997-02-16 06:00:00,7,1016.9,3.2,53,-2,25000,11.112,,,70,6.8,11.5,,,,,,,,,wg-a,,,,AAXX 16064 07661 12/75 10706 10070 21020 30002 40169 53032 60006 81030 90600 333 10115 20068=
07661,1997-02-16 12:00:00,12,1021.3,1.3,62,5,40000,11.112,,,160,,,,,,,,,,,wg-a,,,,AAXX 16124 07661 12182 31606 10120 20050 30049 40213 51013 60006 81208 91200=
07661,1997-02-16 18:00:00,11,1023,1,58,3,500,7.408,,,130,6.1,13.7,,,,,,,,,wg-a,,,,AAXX 16184 07661 12/00 11304 10110 20030 30065 40230 53010 60006 80001 91800 333 10137 20061=
07661,1997-02-17 00:00:00,9,1024.3,0.2,66,3,20000,3.704,,,330,,,,,,,,,,,wg-a,,,,AAXX 17004 07661 12/70 03302 10090 20030 30076 40243 53002 60006 80000 90000=
07661,1997-02-17 06:00:00,8,1024,-0.2,71,3,20000,11.112,,,320,6.9,10.6,,,,,,,,,wg-a,,,,AAXX 17064 07661 12/70 33206 10080 20030 30073 40240 56002 60006 80004 90600 333 10106 20069=
07661,1997-02-17 12:00:00,12,1023.9,-1.1,62,5,20000,22.224,,,270,,,,,,,,,,,wg-a,,,,AAXX 17124 07661 12/70 12712 10120 20050 30074 40239 58011 60006 80002 91200=
07661,1997-02-17 18:00:00,12,1023.9,1.3,62,5,15000,42.596,,,300,6.9,13.3,,,,,,,,,wg-a,,,,AAXX 17184 07661 12/65 33023 10120 20050 30074 40239 53013 60006 80002 91800 333 10133 20069=
07661,1997-02-18 00:00:00,8,1026.9,0.5,81,5,15000,11.112,,,70,,,,,,,,,,,wg-a,,,,AAXX 18004 07661 12/65 10706 10080 20050 30102 40269 53005 60006 80001 90000=
07661,1997-02-18 06:00:00,8,1026.8,0.2,81,5,20000,3.704,,,70,6.6,12.2,,,,,,,,,wg-a,,,,AAXX 18064 07661 12/70 30702 10080 20050 30100 40268 52002 60006 81041 90600 333 10122 20066=
07661,1997-02-18 12:00:00,12,1026.8,-0.9,58,4,18000,29.632,,,290,,,,,,,,,,,wg-a,,,,AAXX 18124 07661 12/68 72916 10120 20040 30103 40268 58009 60006 85074 91200=
07661,1997-02-18 18:00:00,12,1025.6,0.8,71,7,0,38.892,,,290,7.2,13.5,,,,,,,,,wg-a,,,,AAXX 18184 07661 12/// /2921 10120 20070 30091 40256 52008 60006 91800 333 10135 20072=
07661,1997-02-19 00:00:00,12,1025.4,-0.1,58,4,15000,61.116,,94.452,300,,,,,,,,,,,wg-a,,,,AAXX 19004 07661 12/65 03033 10120 20040 30089 40254 58001 60006 80000 90000 333 91051=
07661,1997-02-19 06:00:00,10,1026.5,0.9,43,-2,25000,35.188,,94.452,270,10.4,12.7,,,,,,,,,wg-a,,,,AAXX 19064 07661 12/75 32719 10100 21020 30099 40265 50009 60006 82042 90600 333 10127 20104 91051=
07661,1997-02-19 12:00:00,14,1027.7,1.3,33,-2,40000,22.224,,87.044,300,,,,,,,,,,,wg-a,,,,AAXX 19124 07661 12/82 03012 10140 21020 30113 40277 50013 60006 80000 91200 333 91047=
07661,1997-02-19 18:00:00,12,1028,0.8,35,-3,500,18.52,,,300,9.6,15.1,,,,,,,,,wg-a,,,,AAXX 19184 07661 12/00 53010 10120 21030 30115 40280 53008 60006 80004 91800 333 10151 20096=
07661,1997-02-20 00:00:00,10,1028.8,-0.5,62,3,12000,7.408,,,300,,,,,,,,,,,wg-a,,,,AAXX 20004 07661 12/62 73004 10100 20030 30121 40288 58005 60006 8707/ 90000=
07661,1997-02-20 06:00:00,11,1026.9,-0.9,50,1,500,42.596,,,310,8,12.4,,,,,,,,,wg-a,,,,AAXX 20064 07661 12/00 13123 10110 20010 30103 40269 56009 60006 80001 90600 333 10124 20080=
07661,1997-02-20 12:00:00,16,1026.7,-0.2,48,5,25000,38.892,,64.82,280,,,,,,,,,,,wg-a,,,,AAXX 20124 07661 12/75 42821 10160 20050 30104 40267 58002 60006 80001 91200 333 91035=
07661,1997-02-20 18:00:00,15,1025.7,0.1,48,4,18000,42.596,,72.228,300,10.9,17.5,,,,,,,,,wg-a,,,,AAXX 20184 07661 12/68 03023 10150 20040 30094 40257 53001 60006 80000 91800 333 10175 20109 91039=
07661,1997-02-21 00:00:00,13,1026.5,0.4,54,4,18000,22.224,,,300,,,,,,,,,,,wg-a,,,,AAXX 21004 07661 12/68 03012 10130 20040 30100 40265 52004 60006 80000 90000=
07661,1997-02-21 06:00:00,8,1027.8,1.1,87,6,15000,11.112,,,100,8.1,14.7,,,,,,,,,wg-a,,,,AAXX 21064 07661 12665 11006 10080 20060 30111 40278 53011 60006 81101 90600 333 10147 20081=
07661,1997-02-21 12:00:00,13,1030.6,0.8,72,8,18000,7.408,,,210,,,,,,,,,,,wg-a,,,,AAXX 21124 07661 12568 42104 10130 20080 30141 40306 50008 60006 81201 91200=
07661,1997-02-21 18:00:00,11,1030.7,0.8,76,7,15000,14.816,,,290,7,14.1,,,,,,,,,wg-a,,,,AAXX 21184 07661 12/65 22908 10110 20070 30141 40307 53008 60006 80001 91800 333 10141 20070=
07661,1997-02-22 00:00:00,9,1031.3,-0.2,87,7,12000,18.52,,,80,,,,,,,,,,,wg-a,,,,AAXX 22004 07661 12/62 00810 10090 20070 30145 40313 56002 60006 80000 90000=
07661,1997-02-22 06:00:00,7,1031,0.2,93,6,12000,18.52,,,80,6.6,11.1,,,,,,,,,wg-a,,,,AAXX 22064 07661 12362 30810 10070 20060 30141 40310 50002 60006 83600 90600 333 10111 20066=
07661,1997-02-22 12:00:00,13,1031.5,-0.4,72,8,15000,22.224,,,90,,,,,,,,,,,wg-a,,,,AAXX 22124 07661 12465 60912 10130 20080 30150 40315 58004 60006 86200 91200=
07661,1997-02-22 18:00:00,11,1030.3,-0,76,7,15000,22.224,,,90,6.4,12.9,,,,,,,,,wg-a,,,,AAXX 22184 07661 12/65 20912 10110 20070 30137 40303 55000 60006 80001 91800 333 10129 20064=
07661,1997-02-23 00:00:00,9,1029.6,-0.7,87,7,12000,18.52,,,70,,,,,,,,,,,wg-a,,,,AAXX 23004 07661 12862 60710 10090 20070 30129 40296 58007 60006 86050 90000=
07661,1997-02-23 06:00:00,9,1027.1,-1,87,7,18000,14.816,,,70,8.5,10.8,,,,,,,,,wg-a,,,,AAXX 23064 07661 12468 60708 10090 20070 30104 40271 56010 60006 86500 90600 333 10108 20085=
07661,1997-02-23 12:00:00,13,1025.7,-1.2,72,8,15000,18.52,,,160,,,,,,,,,,,wg-a,,,,AAXX 23124 07661 12/65 71610 10130 20080 30093 40257 58012 60006 8707/ 91200=
07661,1997-02-23 18:00:00,11,1023,-0.7,76,7,15000,14.816,,,100,8.9,13.4,,,,,,,,,wg-a,,,,AAXX 23184 07661 12/65 81008 10110 20070 30065 40230 56007 60006 8807/ 91800 333 10134 20089=
07661,1997-02-24 00:00:00,10,1021.8,-0.3,93,9,8000,22.224,,,70,,,,,,,,,,21,wg-a,,,,AAXX 24004 07661 12/58 80712 10100 20090 30053 40218 58003 60036 721// 8807/ 90000=
07661,1997-02-24 12:00:00,10,1020.9,0.1,100,10,500,14.816,,,80,,,,,,,,,,,wg-a,,,,AAXX 24124 07661 12600 80808 10100 20100 30044 40209 50001 60006 884// 91200=
07661,1997-02-24 18:00:00,12,1021,1.1,94,11,6000,14.816,,,80,9.3,11.8,,,,,,,,,wg-a,,,,AAXX 24184 07661 12656 80808 10120 20110 30046 40210 53011 60006 884// 91800 333 10118 20093=
07661,1997-02-25 00:00:00,11,1022.5,0.5,100,11,6000,7.408,,,70,,,,,,,,,,,wg-a,,,,AAXX 25004 07661 12656 80704 10110 20110 30060 40225 52005 60006 884// 90000=
07661,1997-02-25 06:00:00,11,1021.5,-0.1,100,11,6000,14.816,,,70,11.1,11.7,,,,,,,,,wg-a,,,,AAXX 25064 07661 12556 80708 10110 20110 30051 40215 56001 60006 884// 90600 333 10117 20111=
07661,1997-02-25 12:00:00,14,1022.7,0.1,88,12,3000,11.112,,,130,,,,,,,,,,,wg-a,,,,AAXX 25124 07661 12230 81306 10140 20120 30064 40227 50001 60006 88600 91200=
07661,1997-02-25 18:00:00,13,1021.5,-0,94,12,500,11.112,,,110,10.9,13.7,,,,,,,,47,wg-a,,,,AAXX 25184 07661 12/05 91106 10130 20120 30051 40215 55000 60006 74742 89/// 91800 333 10137 20109=
07661,1997-02-26 00:00:00,12,1021.6,-0.8,94,11,6000,11.112,,,80,,,,,,,,,,28,wg-a,,,,AAXX 26004 07661 12356 70806 10120 20110 30052 40216 58008 60006 72842 87600 90000=
07661,1997-02-26 06:00:00,11,1020.3,0,87,9,10000,29.632,,,290,10.6,12.5,,,,,,,,,wg-a,,,,AAXX 26064 07661 12460 32916 10110 20090 30038 40203 50000 60006 81202 90600 333 10125 20106=
07661,1997-02-26 12:00:00,15,1021.3,-0.6,72,10,0,50.004,,,290,,,,,,,,,,,wg-a,,,,AAXX 26124 07661 12/// /2927 10150 20100 30051 40213 58006 60006 91200=
07661,1997-02-26 18:00:00,15,1021.2,0.6,59,7,10000,61.116,,100.008,290,10.5,16.1,,,,,,,,,wg-a,,,,AAXX 26184 07661 12460 32933 10150 20070 30049 40212 53006 60006 83260 91800 333 10161 20105 91054=
07661,1997-02-27 00:00:00,12,1026.6,3,44,0,0,61.116,,,310,,,,,,,,,,,wg-a,,,,AAXX 27004 07661 12/// /3133 10120 20000 30101 40266 53030 60006 90000=
07661,1997-02-27 06:00:00,9,1029.8,1.6,49,-1,50000,57.412,,96.304,310,9.3,15.1,,,,,,,,,wg-a,,,,AAXX 27064 07661 12/84 03131 10090 21010 30131 40298 53016 60006 80000 90600 333 10151 20093 91052=
07661,1997-02-27 12:00:00,15,1031.8,1.4,25,-5,50000,22.224,,79.636,360,,,,,,,,,,,wg-a,,,,AAXX 27124 07661 12/84 03612 10150 21050 30153 40318 50014 60006 80000 91200 333 91043=
07661,1997-02-28 00:00:00,10,1032.4,0.1,46,-1,25000,7.408,,,70,,,,,,,,,,,wg-a,,,,AAXX 28004 07661 12/75 00704 10100 21010 30157 40324 53001 60006 80000 90000=
07661,1997-02-28 06:00:00,7,1033.4,0.9,61,0,500,25.928,,,80,6.5,12.5,,,,,,,,,wg-a,,,,AAXX 28064 07661 12/00 00814 10070 20000 30165 40334 51009 60006 80000 90600 333 10125 20065=
07661,1997-02-28 12:00:00,15,1034.7,-0.1,41,2,35000,18.52,,,140,,,,,,,,,,,wg-a,,,,AAXX 28124 07661 12/81 21410 10150 20020 30182 40347 58001 60006 80001 91200=
07661,1997-02-28 18:00:00,11,1034.5,0.3,82,8,35000,7.408,,,240,6.3,15.3,,,,,,,,,wg-a,,,,AAXX 28184 07661 12/81 22404 10110 20080 40345 53003 60006 80002 91800 333 10153 20063=
07661,1997-03-01 00:00:00,10,1033.8,-0.8,57,2,25000,7.408,,,290,,,,,,,,,,,wg-a,,,,AAXX 01004 07661 12/75 02904 10100 20020 30170 40338 56008 60006 80000 90000=
07661,1997-03-01 06:00:00,9,1032.3,-0.2,71,4,25000,14.816,,,280,8.4,11.4,,,,,,,,,wg-a,,,,AAXX 01064 07661 12/75 32808 10090 20040 30155 40323 56002 60006 80002 90600 333 10114 20084=
07661,1997-03-01 12:00:00,14,1031.7,-1,77,10,35000,14.816,,,230,,,,,,,,,,,wg-a,,,,AAXX 01124 07661 12881 82308 10140 20100 30152 40317 58010 60006 87059 91200=
07661,1997-03-01 18:00:00,11,1030,-0.3,87,9,20000,22.224,,,270,8.3,14.2,,,,,,,,,wg-a,,,,AAXX 01184 07661 12870 72712 10110 20090 30134 40300 55003 60006 87059 91800 333 10142 20083=
07661,1997-03-02 00:00:00,9,1030,-0.7,93,8,15000,14.816,,,300,,,,,,,,,,,wg-a,,,,AAXX 02004 07661 12/65 33008 10090 20080 30133 40300 56007 60006 83010 90000=
07661,1997-03-02 06:00:00,8,1029.5,0.4,87,6,15000,7.408,,,50,7.6,10.8,,,,,,,,,wg-a,,,,AAXX 02064 07661 12865 60504 10080 20060 30127 40295 52004 60006 86070 90600 333 10108 20076=
07661,1997-03-02 12:00:00,13,1030.1,-0.4,77,9,15000,7.408,,,220,,,,,,,,,,,wg-a,,,,AAXX 02124 07661 12865 52204 10130 20090 30136 40301 58004 60006 83071 91200=
07661,1997-03-02 18:00:00,12,1029.8,0.2,82,9,12000,11.112,,,290,7.6,15.4,,,,,,,,,wg-a,,,,AAXX 02184 07661 12862 12906 10120 20090 30132 40298 53002 60006 81030 91800 333 10154 20076=
07661,1997-03-03 00:00:00,11,1031,0,82,8,10000,11.112,,,300,,,,,,,,,,,wg-a,,,,AAXX 03004 07661 12/60 03006 10110 20080 30144 40310 50000 60006 80000 90000=
07661,1997-03-03 06:00:00,11,1031.3,0.6,71,6,12000,3.704,,,10,9.7,11.6,,,,,,,,,wg-a,,,,AAXX 03064 07661 12/62 00102 10110 20060 30147 40313 51006 60006 80000 90600 333 10116 20097=
07661,1997-03-03 12:00:00,12,1032,-0.6,88,10,0,11.112,,,220,,,,,,,,,,,wg-a,,,,AAXX 03124 07661 12/// /2206 10120 20100 30154 40320 58006 60006 91200=
07661,1997-03-04 00:00:00,11,1032.1,-0.7,87,9,4500,11.112,,,90,,,,,,,,,,10,wg-a,,,,AAXX 04004 07661 12/45 00906 10110 20090 30154 40321 58007 60006 71011 80000 90000=
07661,1997-03-04 06:00:00,9,1031.9,-0,93,8,100,22.224,,,90,8.2,12.1,,,,,,,,45,wg-a,,,,AAXX 04064 07661 32/01 90912 10090 20080 30151 40319 55000 745// 89/// 90600 333 10121 20082=
07661,1997-03-04 12:00:00,12,1032.1,-0.8,88,10,2500,22.224,,,70,,,,,,,,,,10,wg-a,,,,AAXX 04124 07661 12325 80712 10120 20100 30155 40321 58008 60006 71042 886// 91200=
07661,1997-03-04 18:00:00,12,1030.9,-0.1,88,10,0,14.816,,,90,8.6,13.1,,,,,,,,,wg-a,,,,AAXX 04184 07661 12/// /0908 10120 20100 30143 40309 55001 60006 91800 333 10131 20086=
07661,1997-03-05 00:00:00,11,1030.7,-0.4,87,9,2000,11.112,,,70,,,,,,,,,,10,wg-a,,,,AAXX 05004 07661 12320 80706 10110 20090 30141 40307 58004 60006 71042 886// 90000=
07661,1997-03-05 06:00:00,9,1029.9,0.3,100,9,500,7.408,,,320,9.1,11.7,,,,,,,,45,wg-a,,,,AAXX 05064 07661 12/00 93204 10090 20090 30132 40299 50003 60006 74542 89/// 90600 333 10117 20091=
07661,1997-03-05 12:00:00,14,1027.9,-1.6,77,10,3000,22.224,,,290,,,,,,,,,,28,wg-a,,,,AAXX 05124 07661 12330 82912 10140 20100 30115 40279 58016 60006 72842 888// 91200=
07661,1997-03-05 18:00:00,14,1025.1,-0.1,77,10,8000,35.188,,72.228,290,9,15.4,,,,,,,,,wg-a,,,,AAXX 05184 07661 12/58 22919 10140 20100 30088 40251 55001 60006 80002 91800 333 10154 20090 91039=
07661,1997-03-06 00:00:00,14,1023.9,-1.1,51,4,10000,31.484,,,300,,,,,,,,,,,wg-a,,,,AAXX 06004 07661 12/60 03017 10140 20040 30075 40239 58011 60006 80000 90000=
07661,1997-03-06 06:00:00,12,1022.1,-0.8,47,1,500,46.3,,,300,12.2,14.9,,,,,,,,,wg-a,,,,AAXX 06064 07661 12/00 53025 10120 20010 30057 40221 58008 60006 85040 90600 333 10149 20122=
07661,1997-03-06 12:00:00,17,1022.7,0,39,3,500,14.816,,,160,,,,,,,,,,,wg-a,,,,AAXX 06124 07661 12/00 41608 10170 20030 30065 40227 50000 60006 80002 91200=
07661,1997-03-06 18:00:00,12,1024.6,2.8,88,10,6000,18.52,,,90,11.4,18.4,,,,,,,,,wg-a,,,,AAXX 06184 07661 12456 50910 10120 20100 30082 40246 53028 60006 85200 91800 333 10184 20114=
07661,1997-03-07 00:00:00,11,1026.9,0.5,76,7,6000,11.112,,,310,,,,,,,,,,,wg-a,,,,AAXX 07004 07661 12/56 03106 10110 20070 30103 40269 53005 60006 80000 90000=
07661,1997-03-07 06:00:00,10,1027,0.3,76,6,8000,7.408,,,20,9.5,12.5,,,,,,,,,wg-a,,,,AAXX 07064 07661 12858 30204 10100 20060 30104 40270 53003 60006 83071 90600 333 10125 20095=
07661,1997-03-07 12:00:00,16,1027.8,-0.1,51,6,12000,7.408,,,280,,,,,,,,,,,wg-a,,,,AAXX 07124 07661 12/62 62804 10160 20060 30115 40278 58001 60006 86030 91200=
07661,1997-03-07 18:00:00,14,1027.8,0.7,55,5,12000,14.816,,,310,9.3,17.5,,,,,,,,,wg-a,,,,AAXX 07184 07661 12862 13108 10140 20050 30114 40278 53007 60006 81040 91800 333 10175 20093=
07661,1997-03-08 00:00:00,13,1028.6,-0,47,2,12000,7.408,,,80,,,,,,,,,,,wg-a,,,,AAXX 08004 07661 12862 10804 10130 20020 30121 40286 55000 60006 81040 90000=
07661,1997-03-08 06:00:00,11,1029.3,0.7,58,3,20000,11.112,,,80,10,13.6,,,,,,,,,wg-a,,,,AAXX 08064 07661 12/70 00806 10110 20030 30127 40293 53007 60006 80000 90600 333 10136 20100=
07661,1997-03-08 12:00:00,16,1029.8,0,48,5,15000,7.408,,,190,,,,,,,,,,,wg-a,,,,AAXX 08124 07661 12/65 01904 10160 20050 30135 40298 50000 60006 80000 91200=
07661,1997-03-08 18:00:00,13,1029.9,0.7,62,6,20000,7.408,,,230,10.5,17,,,,,,,,,wg-a,,,,AAXX 08184 07661 12/70 12304 10130 20060 30134 40299 53007 60006 80002 91800 333 10170 20105=
07661,1997-03-09 00:00:00,12,1030.1,-0.1,47,1,10000,3.704,,,10,,,,,,,,,,,wg-a,,,,AAXX 09004 07661 12/60 00102 10120 20010 30136 40301 58001 60006 80000 90000=
07661,1997-03-09 06:00:00,9,1031.9,1.3,66,3,14000,22.224,,,70,7.9,13.9,,,,,,,,,wg-a,,,,AAXX 09064 07661 12/64 00712 10090 20030 30151 40319 53013 60006 80000 90600 333 10139 20079=
07661,1997-03-09 12:00:00,14,1032.6,-0.4,63,7,12000,25.928,,,120,,,,,,,,,,,wg-a,,,,AAXX 09124 07661 12/62 11214 10140 20070 30161 40326 58004 60006 80001 91200=
07661,1997-03-09 18:00:00,14,1032.1,0.5,41,1,14000,11.112,,,60,8.1,15,,,,,,,,,wg-a,,,,AAXX 09184 07661 12/64 20606 10140 20010 30156 40321 53005 60006 80001 91800 333 10150 20081=
07661,1997-03-10 06:00:00,11,1033,0.5,43,-1,12000,7.408,,,320,10.2,14.2,,,,,,,,,wg-a,,,,AAXX 10064 07661 12/62 13204 10110 21010 30163 40330 53005 60006 80001 90600 333 10142 20102=
07661,1997-03-10 12:00:00,16,1032,-1.1,63,9,20000,11.112,,,220,,,,,,,,,,,wg-a,,,,AAXX 10124 07661 12/70 02206 10160 20090 30157 40320 58011 60006 80000 91200=
07661,1997-03-10 18:00:00,14,1029,-0.7,63,7,12000,25.928,,,290,10.9,18,,,,,,,,,wg-a,,,,AAXX 10184 07661 12/62 12914 10140 20070 30126 40290 55007 60006 80002 91800 333 10180 20109=
07661,1997-03-11 00:00:00,14,1029,-0.7,63,7,12000,25.928,,,290,10.9,18,,,,,,,,,wg-a,,,,AAXX 11004 07661 12/62 12914 10140 20070 30126 40290 55007 60006 80002 90000 333 10180 20109=
07661,1997-03-11 06:00:00,11,1027.9,0.6,62,4,15000,35.188,,,80,10.2,14.5,,,,,,,,,wg-a,,,,AAXX 11064 07661 12/65 00819 10110 20040 30113 40279 51006 60006 80000 90600 333 10145 20102=
07661,1997-03-11 12:00:00,15,1029,-0.2,51,5,15000,29.632,,,110,,,,,,,,,,,wg-a,,,,AAXX 11124 07661 12/65 01116 10150 20050 30126 40290 57002 60006 80000 91200=
07661,1997-03-11 18:00:00,14,1029.5,1.2,58,6,10000,7.408,,,70,10.8,15.6,,,,,,,,,wg-a,,,,AAXX 11184 07661 12/60 00704 10140 20060 30131 40295 53012 60006 80000 91800 333 10156 20108=
07661,1997-03-12 00:00:00,11,1034.3,2.1,62,4,10000,25.928,,90.748,60,,,,,,,,,,,wg-a,,,,AAXX 12004 07661 12/60 00614 10110 20040 30176 40343 51021 60006 80000 90000 333 91049=
07661,1997-03-12 06:00:00,10,1034.9,0.2,62,3,20000,7.408,,,60,8.2,14.1,,,,,,,,,wg-a,,,,AAXX 12064 07661 12/70 10604 10100 20030 30181 40349 52002 60006 80004 90600 333 10141 20082=
07661,1997-03-12 18:00:00,12,1028.9,-0.9,71,7,15000,38.892,,75.932,290,8.8,15.7,,,,,,,,,wg-a,,,,AAXX 12184 07661 12/65 02921 10120 20070 30124 40289 55009 60006 80000 91800 333 10157 20088 91041=
07661,1997-03-13 00:00:00,11,1027.5,-1.1,62,4,13000,22.224,,61.116,300,,,,,,,,,,,wg-a,,,,AAXX 13004 07661 12/63 03012 10110 20040 30109 40275 58011 60006 80000 90000 333 91033=
07661,1997-03-13 06:00:00,9,1025.6,-0.8,71,4,12000,11.112,,,50,8.1,12.1,,,,,,,,,wg-a,,,,AAXX 13064 07661 12/62 10506 10090 20040 30089 40256 55008 60006 80001 90600 333 10121 20081=
07661,1997-03-13 12:00:00,15,1024.9,-0.8,72,10,12000,18.52,,,220,,,,,,,,,,,wg-a,,,,AAXX 13124 07661 12/62 02210 10150 20100 30086 40249 58008 60006 80000 91200=
07661,1997-03-13 18:00:00,12,1022.3,-0.6,88,10,10000,7.408,,,200,9,15.6,,,,,,,,,wg-a,,,,AAXX 13184 07661 12/60 22004 10120 20100 30059 40223 56006 60006 80004 91800 333 10156 20090=
07661,1997-03-14 00:00:00,9,1021.7,-0.5,100,9,10000,25.928,,,80,,,,,,,,,,,wg-a,,,,AAXX 14004 07661 12/60 00814 10090 20090 30051 40217 56005 60006 80000 90000=
07661,1997-03-14 06:00:00,9,1021.6,0.6,93,8,0,7.408,,,60,8.3,12.4,,,,,,,,,wg-a,,,,AAXX 14064 07661 32/// /0604 10090 20080 30050 40216 52006 90600 333 10124 20083=
07661,1997-03-14 12:00:00,14,1020.6,-1.1,82,11,6000,25.928,,,240,,,,,,,,,,,wg-a,,,,AAXX 14124 07661 12/56 02414 10140 20110 30044 40206 58011 60006 80000 91200=
07661,1997-03-14 18:00:00,18,1015.2,-1.7,24,-3,12000,38.892,,,310,8.6,17.8,,,,,,,,,wg-a,,,,AAXX 14184 07661 12/62 03121 10180 21030 39992 40152 56017 60006 80000 91800 333 10178 20086=
07661,1997-03-15 00:00:00,13,1014.4,-1.5,47,2,12000,53.708,,83.34,320,,,,,,,,,,,wg-a,,,,AAXX 15004 07661 12/62 03229 10130 20020 39982 40144 56015 60006 80000 90000 333 91045=
07661,1997-03-15 06:00:00,12,1018.6,0.6,47,1,20000,29.632,,87.044,310,9.6,18.5,,,,,,,,1,wg-a,,,,AAXX 15064 07661 02870 33116 10120 20010 30022 40186 51006 61000 70162 8303/ 90600 333 10185 20096 //// 91047=
07661,1997-03-15 12:00:00,18,1020.9,0.6,42,5,500,11.112,,,290,,,,,,,,,,,wg-a,,,,AAXX 15124 07661 12/00 02906 10180 20050 30048 40209 51006 60006 80000 91200=
07661,1997-03-15 18:00:00,16,1020.1,-0.3,45,4,25000,18.52,,,260,11.5,20.5,,,,,,,,,wg-a,,,,AAXX 15184 07661 12/75 02610 10160 20040 30039 40201 56003 60006 80000 91800 333 10205 20115=
07661,1997-03-16 00:00:00,15,1021.8,0.9,41,2,15000,14.816,,,50,,,,,,,,,,,wg-a,,,,AAXX 16004 07661 12/65 00508 10150 20020 30055 40218 51009 60006 80000 90000=
07661,1997-03-16 06:00:00,11,1022.4,0.5,54,2,20000,11.112,,,80,10.1,16.2,,,,,,,,,wg-a,,,,AAXX 16064 07661 12/70 10806 10110 20020 30059 40224 52005 60006 80001 90600 333 10162 20101=
07661,1997-03-16 12:00:00,17,1022.6,-0.6,55,8,500,3.704,,,220,,,,,,,,,,,wg-a,,,,AAXX 16124 07661 12/00 02202 10170 20080 30065 40226 58006 60006 80000 91200=
07661,1997-03-16 18:00:00,13,1021.4,-0,94,12,20000,11.112,,,140,11.1,19.7,,,,,,,,,wg-a,,,,AAXX 16184 07661 12/70 01406 10130 20120 30051 40214 55000 60006 80000 91800 333 10197 20111=
07661,1997-03-17 00:00:00,14,1020.8,-0.5,63,7,20000,0,,,0,,,,,,,,,,,wg-a,,,,AAXX 17004 07661 12/70 00000 10140 20070 30045 40208 58005 60006 80000 90000=
07661,1997-03-17 06:00:00,12,1019.7,-0.1,71,7,20000,11.112,,,140,10.8,13.7,,,,,,,,,wg-a,,,,AAXX 17064 07661 12/70 11406 10120 20070 30033 40197 55001 60006 81031 90600 333 10137 20108=
07661,1997-03-17 12:00:00,15,1019.9,-0.2,82,12,13000,11.112,,,210,,,,,,,,,,,wg-a,,,,AAXX 17124 07661 12/63 32106 10150 20120 30037 40199 58002 60006 82031 91200=
07661,1997-03-17 18:00:00,13,1018.9,0.1,94,12,6000,7.408,,,190,11.7,16.3,,,,,,,,,wg-a,,,,AAXX 17184 07661 12/56 21904 10130 20120 30026 40189 53001 60006 80001 91800 333 10163 20117=
07661,1997-03-18 00:00:00,11,1019.4,-0.2,94,10,6000,14.816,,,80,,,,,,,,,,,wg-a,,,,AAXX 18004 07661 12/56 00808 10110 20100 30030 40194 58002 60006 80000 90000=
07661,1997-03-18 06:00:00,11,1018.8,-0,87,9,6000,0,,,0,10,13,,,,,,,,,wg-a,,,,AAXX 18064 07661 32/56 00000 10110 20090 30024 40188 55000 80000 90600 333 10130 20100=
07661,1997-03-18 12:00:00,15,1018.5,-0.9,82,12,4500,14.816,,,200,,,,,,,,,,10,wg-a,,,,AAXX 18124 07661 12/45 02008 10150 20120 30023 40185 58009 60006 71000 80000 91200=
07661,1997-03-18 18:00:00,12,1014.4,-1.6,82,9,500,29.632,,,280,10,15.6,,,,,,,,,wg-a,,,,AAXX 18184 07661 12200 32816 10120 20090 39981 40144 56016 60006 83100 91800 333 10156 20100=
07661,1997-03-19 00:00:00,15,1011.6,-1.1,55,6,15000,38.892,,68.524,290,,,,,,,,,,,wg-a,,,,AAXX 19004 07661 12/65 02921 10150 20060 39955 40116 56011 60006 80000 90000 333 91037=
07661,1997-03-19 06:00:00,13,1009.2,-0.4,47,2,25000,61.116,,90.748,300,12.2,16.7,,,,,,,,,wg-a,,,,AAXX 19064 07661 12575 13033 10130 20020 39930 40092 58004 60006 81100 90600 333 10167 20122 91049=
07661,1997-03-19 12:00:00,15,1008.5,-0.5,36,0,500,57.412,,111.12,310,,,,,,,,,,,wg-a,,,,AAXX 19124 07661 12/00 23131 10150 20000 39924 40085 58005 60006 82040 91200 333 91060=
07661,1997-03-19 18:00:00,13,1007.2,1.4,35,-2,50000,72.228,,133.344,320,12.6,15.6,,,,,,,,,wg-a,,,,AAXX 19184 07661 12684 23239 10130 21020 39911 40072 53014 60006 82400 91800 333 10156 20126 91072=
07661,1997-03-20 00:00:00,10,1009.1,-0.5,53,1,500,61.116,,111.12,310,,,,,,,,,,,wg-a,,,,AAXX 20004 07661 12/00 03133 10100 20010 39928 40091 58005 60006 80000 90000 333 91060=
07661,1997-03-20 06:00:00,10,1009.3,1.1,50,0,50000,35.188,,90.748,320,9.1,13.1,,,,,,,,,wg-a,,,,AAXX 20064 07661 12/84 03219 10100 20000 39929 40093 50011 60006 80000 90600 333 10131 20091 91049=
07661,1997-03-20 12:00:00,17,1010.9,0.3,29,-1,50000,11.112,,,150,,,,,,,,,,,wg-a,,,,AAXX 20124 07661 12/84 01506 10170 21010 39949 40109 50003 60006 80000 91200=
07661,1997-03-20 18:00:00,14,1009.6,0.3,38,0,500,31.484,,90.748,300,9.6,18.4,,,,,,,,,wg-a,,,,AAXX 20184 07661 12/00 03017 10140 20000 39935 40096 53003 60006 80000 91800 333 10184 20096 91049=
07661,1997-03-21 00:00:00,10,1010.8,0.3,43,-2,500,7.408,,,250,,,,,,,,,,,wg-a,,,,AAXX 21004 07661 12/00 02504 10100 21020 39944 40108 52003 60006 80000 90000=
07661,1997-03-21 06:00:00,8,1013.5,1.7,57,0,0,18.52,,,70,7.5,13.8,,,,,,,,,wg-a,,,,AAXX 21064 07661 12/// /0710 10080 20000 39970 40135 53017 60006 90600 333 10138 20075=
07661,1997-03-21 12:00:00,14,1016.4,0.8,51,4,0,25.928,,,100,,,,,,,,,,,wg-a,,,,AAXX 21124 07661 12/// /1014 10140 20040 30002 40164 51008 60006 91200=
07661,1997-03-21 18:00:00,12,1016.6,0.2,71,7,25000,14.816,,,290,7.8,15.7,,,,,,,,,wg-a,,,,AAXX 21184 07661 12675 52908 10120 20070 30003 40166 53002 60006 83170 91800 333 10157 20078=
07661,1997-03-22 00:00:00,9,1016.2,-0.7,81,6,20000,18.52,,,80,,,,,,,,,,,wg-a,,,,AAXX 22004 07661 12/70 60810 10090 20060 39997 40162 56007 60006 80006 90000=
07661,1997-03-22 06:00:00,8,1016.9,1.1,76,4,20000,25.928,,,70,7.1,11.9,,,,,,,,,wg-a,,,,AAXX 22064 07661 12670 60714 10080 20040 30003 40169 53011 60006 84130 90600 333 10119 20071=
07661,1997-03-22 12:00:00,14,1019.1,0.6,72,9,20000,18.52,,,100,,,,,,,,,,,wg-a,,,,AAXX 22124 07661 12570 51010 10140 20090 30029 40191 51006 60006 85101 91200=
07661,1997-03-22 18:00:00,12,1019.4,0.6,82,9,15000,7.408,,,240,7.6,15.1,,,,,,,,,wg-a,,,,AAXX 22184 07661 12565 32404 10120 20090 30030 40194 53006 60006 83101 91800 333 10151 20076=
07661,1997-03-23 00:00:00,10,1019.2,-0.4,93,9,15000,22.224,,,300,,,,,,,,,,,wg-a,,,,AAXX 23004 07661 12/65 03012 10100 20090 30027 40192 58004 60006 80000 90000=
07661,1997-03-23 06:00:00,8,1019,0.2,76,4,15000,18.52,,,80,7.2,11.9,,,,,,,,,wg-a,,,,AAXX 23064 07661 12/65 00810 10080 20040 30024 40190 53002 60006 80000 90600 333 10119 20072=
07661,1997-03-23 12:00:00,15,1018.6,-1.4,67,9,12000,14.816,,,210,,,,,,,,,,,wg-a,,,,AAXX 23124 07661 12562 42108 10150 20090 30024 40186 58014 60006 82111 91200=
07661,1997-03-23 18:00:00,11,1015.7,-0.7,71,6,0,29.632,,,290,7.8,15.3,,,,,,,,,wg-a,,,,AAXX 23184 07661 12/// /2916 10110 20060 39993 40157 56007 60006 91800 333 10153 20078=
07661,1997-03-24 00:00:00,11,1011.7,-2.9,87,9,10000,22.224,,,290,,,,,,,,,,,wg-a,,,,AAXX 24004 07661 12860 82912 10110 20090 39954 40117 58029 60006 88070 90000=
07661,1997-03-24 06:00:00,12,1007,-1.3,47,1,20000,38.892,,61.116,310,10.4,12.7,,,,,,,,,wg-a,,,,AAXX 24064 07661 12870 43121 10120 20010 39908 40070 56013 60006 82075 90600 333 10127 20104 91033=
07661,1997-03-24 12:00:00,16,1006,-0.3,39,2,25000,35.188,,79.636,300,,,,,,,,,,,wg-a,,,,AAXX 24124 07661 12875 43019 10160 20020 39901 40060 58003 60006 81042 91200 333 91043=
07661,1997-03-24 18:00:00,14,1006.1,0.6,41,1,35000,29.632,,72.228,300,12.1,17.5,,,,,,,,,wg-a,,,,AAXX 24184 07661 12/81 23016 10140 20010 39900 40061 53006 60006 82040 91800 333 10175 20121 91039=
07661,1997-03-25 00:00:00,9,1009.7,1.1,87,7,20000,11.112,,,80,,,,,,,,,,,wg-a,,,,AAXX 25004 07661 12/70 00806 10090 20070 39933 40097 51011 60006 80000 90000=
07661,1997-03-25 06:00:00,10,1012,1.3,82,7,10000,7.408,,,340,9.3,13.9,,,,,,,,,wg-a,,,,AAXX 25064 07661 12660 33404 10100 20070 39956 40120 53013 60006 82130 90600 333 10139 20093=
07661,1997-03-25 12:00:00,15,1012.5,-0.1,63,8,15000,22.224,,,230,,,,,,,,,,,wg-a,,,,AAXX 25124 07661 12665 32312 10150 20080 39964 40125 58001 60006 82130 91200=
07661,1997-03-25 18:00:00,12,1011.4,-0.2,88,10,10000,14.816,,,110,9.5,15.7,,,,,,,,,wg-a,,,,AAXX 25184 07661 12660 41108 10120 20100 39952 40114 55002 60006 84130 91800 333 10157 20095=
07661,1997-03-26 00:00:00,10,1016.2,1.5,76,6,20000,7.408,,68.524,50,,,,,,,,,,,wg-a,,,,AAXX 26004 07661 12670 40504 10100 20060 39998 40162 53015 60006 84130 90000 333 91037=
07661,1997-03-26 06:00:00,10,1018.1,1.2,71,5,20000,3.704,,,20,8.5,12.4,,,,,,,,,wg-a,,,,AAXX 26064 07661 12/70 00202 10100 20050 30016 40181 51012 60006 80000 90600 333 10124 20085=
07661,1997-03-26 12:00:00,18,1020.2,0.2,42,5,20000,14.816,,,250,,,,,,,,,,,wg-a,,,,AAXX 26124 07661 12670 32508 10180 20050 30041 40202 52002 60006 82260 91200=
07661,1997-03-26 18:00:00,15,1021.3,0.5,44,3,20000,18.52,,,280,10,18,,,,,,,,,wg-a,,,,AAXX 26184 07661 12770 42810 10150 20030 30050 40213 53005 60006 84040 91800 333 10180 20100=
07661,1997-03-27 00:00:00,12,1023.2,0.3,71,7,10000,11.112,,,270,,,,,,,,,,,wg-a,,,,AAXX 27004 07661 12/60 02706 10120 20070 30068 40232 53003 60006 80000 90000=
07661,1997-03-27 06:00:00,10,1022.7,0.5,66,4,14000,7.408,,,290,9.5,14.6,,,,,,,,,wg-a,,,,AAXX 27064 07661 12/64 22904 10100 20040 30061 40227 53005 60006 80002 90600 333 10146 20095=
07661,1997-03-27 12:00:00,17,1022.6,-0.3,42,4,8000,3.704,,,80,,,,,,,,,,,wg-a,,,,AAXX 27124 07661 12/58 00802 10170 20040 30064 40226 58003 60006 80000 91200=
07661,1997-03-27 18:00:00,13,1021.4,-0.5,82,10,8000,29.632,,,280,9.8,18.6,,,,,,,,,wg-a,,,,AAXX 27184 07661 12/58 02816 10130 20100 30051 40214 56005 60006 80000 91800 333 10186 20098=
07661,1997-03-28 06:00:00,11,1015.5,-2,87,9,10000,29.632,,,290,10.3,13.8,,,,,,,,,wg-a,,,,AAXX 28064 07661 12/60 02916 10110 20090 39992 40155 56020 60006 80000 90600 333 10138 20103=
07661,1997-03-28 12:00:00,19,1010.8,-2.4,56,10,15000,64.82,,90.748,290,,,,,,,,,,,wg-a,,,,AAXX 28124 07661 12/65 02935 10190 20100 39950 40108 58024 60006 80000 91200 333 91049=
07661,1997-03-28 18:00:00,18,1008.8,-0.8,32,1,15000,42.596,,100.008,320,11.3,22.3,,,,,,,,,wg-a,,,,AAXX 28184 07661 12/65 03223 10180 20010 39929 40088 55008 60006 80000 91800 333 10223 20113 91054=
07661,1997-03-29 00:00:00,13,1011.3,1.6,26,-6,15000,14.816,,79.636,350,,,,,,,,,,,wg-a,,,,AAXX 29004 07661 12/65 03508 10130 21060 39951 40113 53016 60006 80000 90000 333 91043=
07661,1997-03-29 06:00:00,10,1013.1,1.5,27,-8,18000,22.224,,64.82,310,9.7,18.4,,,,,,,,,wg-a,,,,AAXX 29064 07661 12/68 03112 10100 21080 39967 40131 52015 60006 80000 90600 333 10184 20097 91035=
07661,1997-03-29 12:00:00,15,1015.6,1.1,33,-1,35000,7.408,,,190,,,,,,,,,,,wg-a,,,,AAXX 29124 07661 12681 31904 10150 21010 39994 40156 51011 60006 83200 91200=
07661,1997-03-29 18:00:00,13,1013.4,-1,44,1,500,11.112,,,310,9.7,16.2,,,,,,,,,wg-a,,,,AAXX 29184 07661 12/00 03106 10130 20010 39972 40134 55010 60006 80000 91800 333 10162 20097=
07661,1997-03-30 00:00:00,9,1015.5,0.8,46,-2,20000,25.928,,,70,,,,,,,,,,,wg-a,,,,AAXX 30004 07661 12/70 00714 10090 21020 39990 40155 52008 60006 80000 90000=
07661,1997-03-30 06:00:00,8,1017.4,1.2,66,2,500,14.816,,,80,6.9,13.2,,,,,,,,,wg-a,,,,AAXX 30064 07661 12/00 00808 10080 20020 30008 40174 53012 60006 80000 90600 333 10132 20069=
07661,1997-03-30 12:00:00,17,1016.8,-0.9,36,2,45000,14.816,,,220,,,,,,,,,,,wg-a,,,,AAXX 30124 07661 12/83 02208 10170 20020 30007 40168 58009 60006 80000 91200=
07661,1997-03-30 18:00:00,13,1017,0.7,41,0,40000,11.112,,,280,7.5,17.2,,,,,,,,,wg-a,,,,AAXX 30184 07661 12/82 12806 10130 20000 30007 40170 53007 60006 80001 91800 333 10172 20075=
07661,1997-03-31 00:00:00,10,1019.9,1.4,62,3,15000,3.704,,,70,,,,,,,,,,,wg-a,,,,AAXX 31004 07661 12/65 00702 10100 20030 30034 40199 51014 60006 80000 90000=
07661,1997-03-31 06:00:00,9,1021.7,1.8,49,-1,25000,18.52,,,80,6.8,12.9,,,,,,,,,wg-a,,,,AAXX 31064 07661 12/75 00810 10090 21010 30051 40217 53018 60006 80000 90600 333 10129 20068=
07661,1997-03-31 12:00:00,14,1023.2,0.6,58,6,25000,25.928,,53.708,80,,,,,,,,,,,wg-a,,,,AAXX 31124 07661 12/75 00814 10140 20060 30069 40232 51006 60006 80000 91200 333 91029=
07661,1997-03-31 18:00:00,13,1022.2,-0,72,8,25000,11.112,,,120,8.1,16.1,,,,,,,,,wg-a,,,,AAXX 31184 07661 12/75 01206 10130 20080 30058 40222 55000 60006 80000 91800 333 10161 20081=
07661,1997-04-01 00:00:00,10,1021.2,-1.2,66,4,25000,18.52,,,290,,,,,,,,,,,wg-a,,,,AAXX 01004 07661 12/75 02910 10100 20040 30047 40212 56012 60006 80000 90000=
07661,1997-04-01 06:00:00,9,1019.7,-0,37,-5,25000,11.112,,,320,8.7,12.5,,,,,,,,,wg-a,,,,AAXX 01064 07661 12/75 03206 10090 21050 30031 40197 55000 60006 80000 90600 333 10125 20087=
07661,1997-04-01 12:00:00,16,1018.9,-0.8,51,6,25000,29.632,,,290,,,,,,,,,,,wg-a,,,,AAXX 01124 07661 12/75 02916 10160 20060 30027 40189 58008 60006 80000 91200=
07661,1997-04-02 00:00:00,11,1015.5,-0.5,82,8,10000,31.484,,,300,,,,,,,,,,,wg-a,,,,AAXX 02004 07661 12/60 03017 10110 20080 39991 40155 58005 60006 80000 90000=
07661,1997-04-02 06:00:00,11,1016.8,1.5,66,5,18000,31.484,,,70,8.9,12.3,,,,,,,,,wg-a,,,,AAXX 02064 07661 12/68 10717 10110 20050 30004 40168 53015 60006 81030 90600 333 10123 20089=
07661,1997-04-02 12:00:00,16,1018.6,0.5,63,9,35000,14.816,,57.412,100,,,,,,,,,,,wg-a,,,,AAXX 02124 07661 12/81 01008 10160 20090 30025 40186 51005 60006 80000 91200 333 91031=
07661,1997-04-02 18:00:00,14,1017.5,-0.5,67,8,35000,22.224,,,290,10.5,17.4,,,,,,,,,wg-a,,,,AAXX 02184 07661 12/81 22912 10140 20080 30012 40175 56005 60006 80001 91800 333 10174 20105=
07661,1997-04-03 00:00:00,12,1017.1,-0.7,82,9,25000,31.484,,,290,,,,,,,,,,,wg-a,,,,AAXX 03004 07661 12/75 02917 10120 20090 30008 40171 57007 60006 80000 90000=
07661,1997-04-03 06:00:00,11,1014.7,-0.9,87,9,3000,38.892,,,300,10.4,13.6,,,,,,,,10,wg-a,,,,AAXX 03064 07661 12/30 03021 10110 20090 39983 40147 56009 60006 71000 80000 90600 333 10136 20104=
07661,1997-04-03 12:00:00,17,1011.9,-2.1,63,10,1000,46.3,,,300,,,,,,,,,,,wg-a,,,,AAXX 03124 07661 12/10 03025 10170 20100 39959 40119 58021 60006 80000 91200=
07661,1997-04-03 18:00:00,17,1009.5,-0.4,52,7,10000,42.596,,90.748,280,10.5,19.1,,,,,,,,,wg-a,,,,AAXX 03184 07661 12/60 02823 10170 20070 39935 40095 56004 60006 80000 91800 333 10191 20105 91049=
07661,1997-04-04 00:00:00,18,1010.6,0.1,32,1,20000,29.632,,75.932,260,,,,,,,,,,,wg-a,,,,AAXX 04004 07661 12/70 02616 10180 20010 39947 40106 50001 60006 80000 90000 333 91041=
07661,1997-04-04 06:00:00,14,1008.6,-1.4,44,2,18000,57.412,,96.304,310,13.8,19.9,,,,,,,,,wg-a,,,,AAXX 04064 07661 12868 63131 10140 20020 39925 40086 55014 60006 86030 90600 333 10199 20138 91052=
07661,1997-04-04 12:00:00,18,1007.8,-2,37,3,20000,61.116,,94.452,320,,,,,,,,,,,wg-a,,,,AAXX 04124 07661 12870 73233 10180 20030 39919 40078 58020 60006 83045 91200 333 91051=
07661,1997-04-04 18:00:00,15,1007.2,0.4,31,-2,20000,61.116,,100.008,310,13.5,19.4,,,,,,,,,wg-a,,,,AAXX 04184 07661 12/70 53133 10150 21020 39912 40072 53004 60006 80004 91800 333 10194 20135 91054=
07661,1997-04-05 00:00:00,11,1013.3,2.2,37,-3,20000,11.112,,79.636,270,,,,,,,,,,,wg-a,,,,AAXX 05004 07661 12/70 02706 10110 21030 39970 40133 53022 60006 80000 90000 333 91043=
07661,1997-04-05 06:00:00,11,1017.8,3,54,2,20000,7.408,,,70,10.2,15,,,,,,,,,wg-a,,,,AAXX 05064 07661 12/70 10704 10110 20020 30014 40178 53030 60006 80004 90600 333 10150 20102=
07661,1997-04-05 12:00:00,18,1019,-0.6,45,6,500,14.816,,,210,,,,,,,,,,,wg-a,,,,AAXX 05124 07661 12600 22108 10180 20060 30030 40190 58006 60006 81102 91200=
07661,1997-04-05 18:00:00,14,1016.7,-1.1,44,2,35000,18.52,,,280,11.2,18.4,,,,,,,,,wg-a,,,,AAXX 05184 07661 12881 52810 10140 20020 30005 40167 58011 60006 82072 91800 333 10184 20112=
07661,1997-04-06 00:00:00,14,1013.9,-1.5,38,0,15000,22.224,,,280,,,,,,,,,,,wg-a,,,,AAXX 06004 07661 12/65 02812 10140 20000 39977 40139 56015 60006 80000 90000=
07661,1997-04-06 06:00:00,13,1012.5,1.4,51,3,40000,7.408,,,290,12.5,14.4,,,,,,,,,wg-a,,,,AAXX 06064 07661 12/82 02904 10130 20030 39963 40125 53014 60006 80000 90600 333 10144 20125=
07661,1997-04-06 12:00:00,20,1010.9,-1.3,43,7,25000,25.928,,,270,,,,,,,,,,,wg-a,,,,AAXX 06124 07661 12/75 02714 10200 20070 39951 40109 58013 60006 80000 91200=
07661,1997-04-06 18:00:00,14,1010.6,1,82,11,18000,18.52,,,100,12.9,22,,,,,,,,,wg-a,,,,AAXX 06184 07661 12/68 01010 10140 20110 39945 40106 51010 60006 80000 91800 333 10220 20129=
07661,1997-04-07 00:00:00,12,1014.6,1.8,67,6,20000,29.632,,,70,,,,,,,,,,,wg-a,,,,AAXX 07004 07661 12/70 00716 10120 20060 39983 40146 51018 60006 80000 90000=
07661,1997-04-07 06:00:00,11,1018,1.3,71,6,15000,31.484,,,70,9.2,13.7,,,,,,,,,wg-a,,,,AAXX 07064 07661 12/65 00717 10110 20060 30016 40180 53013 60006 80000 90600 333 10137 20092=
07661,1997-04-07 18:00:00,14,1021.5,0.9,67,8,500,18.52,,50.004,90,10.6,18,,,,,,,,,wg-a,,,,AAXX 07184 07661 12/00 60910 10140 20080 30052 40215 53009 60006 82046 91800 333 10180 20106 91027=
07661,1997-04-08 00:00:00,12,1024.1,1.1,47,1,500,25.928,,,80,,,,,,,,,,,wg-a,,,,AAXX 08004 07661 12/00 00814 10120 20010 30076 40241 53011 60006 80000 90000=
07661,1997-04-08 06:00:00,12,1027.2,2.3,71,7,12000,38.892,,61.116,60,11.1,14.5,,,,,,,,,wg-a,,,,AAXX 08064 07661 12762 60621 10120 20070 30107 40272 53023 60006 84502 90600 333 10145 20111 91033=
07661,1997-04-08 12:00:00,13,1028.5,-0.2,58,5,25000,35.188,,68.524,90,,,,,,,,,,,wg-a,,,,AAXX 08124 07661 12575 60919 10130 20050 30120 40285 56002 60006 81102 91200 333 91037=
07661,1997-04-08 18:00:00,11,1028.4,0.3,66,5,20000,29.632,,61.116,90,11.2,14.3,,,,,,,,,wg-a,,,,AAXX 08184 07661 12/70 50916 10110 20050 30118 40284 53003 60006 80002 91800 333 10143 20112 91033=
07661,1997-04-09 00:00:00,9,1029.8,0.1,76,5,20000,22.224,,,70,,,,,,,,,,,wg-a,,,,AAXX 09004 07661 12/70 20712 10090 20050 30130 40298 50001 60006 80002 90000=
07661,1997-04-09 06:00:00,9,1030.7,1.4,76,5,15000,25.928,,,70,7.5,11.1,,,,,,,,,wg-a,,,,AAXX 09064 07661 12/65 20714 10090 20050 30139 40307 53014 60006 80002 90600 333 10111 20075=
07661,1997-04-09 18:00:00,12,1031,,47,1,25000,11.112,,,110,,,,,,,,,,,wg-a,,,,AAXX 09184 07661 12/75 01106 10120 20010 30144 40310 60006 80000 91800=
07661,1997-04-10 00:00:00,9,1032.6,0.5,66,3,25000,0,,,0,,,,,,,,,,,wg-a,,,,AAXX 10004 07661 12/75 00000 10090 20030 30158 40326 53005 60006 80000 90000=
07661,1997-04-10 06:00:00,10,1031.3,0.2,66,4,25000,3.704,,,60,7.7,12.1,,,,,,,,,wg-a,,,,AAXX 10064 07661 12/75 00602 10100 20040 30146 40313 53002 60006 80000 90600 333 10121 20077=
07661,1997-04-10 12:00:00,15,1029.9,-0.9,59,7,25000,22.224,,,220,,,,,,,,,,,wg-a,,,,AAXX 10124 07661 12/75 12212 10150 20070 30135 40299 58009 60006 80001 91200=
07661,1997-04-10 18:00:00,12,1028.6,-0.3,76,8,20000,18.52,,,290,10,16.3,,,,,,,,,wg-a,,,,AAXX 10184 07661 12/70 02910 10120 20080 30121 40286 56003 60006 80000 91800 333 10163 20100=
07661,1997-04-11 00:00:00,11,1028.3,-0.9,76,7,20000,22.224,,,290,,,,,,,,,,,wg-a,,,,AAXX 11004 07661 12/70 02912 10110 20070 30117 40283 56009 60006 80000 90000=
07661,1997-04-11 06:00:00,10,1025.8,-0.7,87,8,18000,18.52,,,290,9.5,12.2,,,,,,,,,wg-a,,,,AAXX 11064 07661 12568 22910 10100 20080 30092 40258 55007 60006 82100 90600 333 10122 20095=
07661,1997-04-11 12:00:00,16,1021.1,-3,72,11,15000,29.632,,,250,,,,,,,,,,,wg-a,,,,AAXX 11124 07661 12465 52516 10160 20110 30049 40211 58030 60006 85200 91200=
07661,1997-04-11 18:00:00,13,1015.2,-2.2,88,11,10000,25.928,,,270,10.2,16.5,,,,,,,,,wg-a,,,,AAXX 11184 07661 12460 22714 10130 20110 39990 40152 57022 60006 81102 91800 333 10165 20102=
07661,1997-04-12 00:00:00,17,1008.8,-3.1,29,-1,20000,53.708,,,320,,,,,,,,,,,wg-a,,,,AAXX 12004 07661 12/70 03229 10170 21010 39929 40088 56031 60006 80000 90000=
07661,1997-04-12 06:00:00,13,1010.9,1.4,82,10,14000,22.224,,75.932,50,12.2,17.8,,,,,,,,,wg-a,,,,AAXX 12064 07661 12/64 60512 10130 20100 39947 40109 53014 60006 86050 90600 333 10178 20122 91041=
07661,1997-04-12 18:00:00,17,1013.2,0.2,45,5,22000,14.816,,,300,12.7,19.8,,,,,,,,,wg-a,,,,AAXX 12184 07661 12/72 23008 10170 20050 39972 40132 51002 60006 80001 91800 333 10198 20127=
07661,1997-04-13 00:00:00,10,1014.6,0.3,76,6,20000,22.224,,,90,,,,,,,,,,,wg-a,,,,AAXX 13004 07661 12/70 00912 10100 20060 39982 40146 51003 60006 80000 90000=
07661,1997-04-13 06:00:00,10,1016.1,1,71,5,18000,22.224,,,90,9,16.9,,,,,,,,,wg-a,,,,AAXX 13064 07661 12/68 00912 10100 20050 39996 40161 51010 60006 80000 90600 333 10169 20090=
07661,1997-04-13 12:00:00,17,1017.9,0.4,68,11,20000,18.52,,,130,,,,,,,,,,,wg-a,,,,AAXX 13124 07661 12870 31310 10170 20110 30019 40179 50004 60006 83060 91200=
07661,1997-04-13 18:00:00,14,1018.2,0.4,82,11,25000,7.408,,,130,9.7,17.3,,,,,,,,,wg-a,,,,AAXX 13184 07661 12575 71304 10140 20110 30020 40182 53004 60006 87160 91800 333 10173 20097=
07661,1997-04-14 00:00:00,11,1019.6,0.1,82,8,20000,11.112,,,70,,,,,,,,,,,wg-a,,,,AAXX 14004 07661 12/70 00706 10110 20080 30031 40196 53001 60006 80000 90000=
07661,1997-04-14 06:00:00,9,1020.6,0.6,87,7,20000,11.112,,,70,8.3,14.1,,,,,,,,,wg-a,,,,AAXX 14064 07661 12/70 00706 10090 20070 30040 40206 53006 60006 80000 90600 333 10141 20083=
07661,1997-04-14 12:00:00,17,1020.6,0,72,12,20000,14.816,,,150,,,,,,,,,,,wg-a,,,,AAXX 14124 07661 12570 31508 10170 20120 30045 40206 50000 60006 83200 91200=
07661,1997-04-14 18:00:00,14,1019.8,-0.1,82,11,20000,14.816,,,220,9.2,17.3,,,,,,,,,wg-a,,,,AAXX 14184 07661 12570 22208 10140 20110 30036 40198 55001 60006 82200 91800 333 10173 20092=
07661,1997-04-15 00:00:00,12,1019.8,-1,88,10,0,18.52,,,290,,,,,,,,,,,wg-a,,,,AAXX 15004 07661 12/// /2910 10120 20100 30034 40198 58010 60006 90000=
07661,1997-04-15 06:00:00,12,1016.5,-1.9,76,8,0,38.892,,,300,10.9,14.1,,,,,,,,,wg-a,,,,AAXX 15064 07661 12/// /3021 10120 20080 30002 40165 56019 60006 90600 333 10141 20109=
07661,1997-04-15 12:00:00,20,1012.3,-1.9,37,5,0,46.3,,,290,,,,,,,,,,,wg-a,,,,AAXX 15124 07661 12/// /2925 10200 20050 39965 40123 56019 60006 91200=
07661,1997-04-15 18:00:00,20,1010.7,0.2,35,4,18000,25.928,,68.524,290,11.8,21.9,,,,,,,,,wg-a,,,,AAXX 15184 07661 12/68 02914 10200 20040 39949 40107 53002 60006 80000 91800 333 10219 20118 91037=
07661,1997-04-16 00:00:00,12,1013.2,0.4,88,10,10000,7.408,,,50,,,,,,,,,,,wg-a,,,,AAXX 16004 07661 12/60 00504 10120 20100 39969 40132 53004 60006 80000 90000=
07661,1997-04-16 06:00:00,11,1013.2,0.1,58,3,18000,14.816,,,80,10.5,19.5,,,,,,,,,wg-a,,,,AAXX 16064 07661 12/68 00808 10110 20030 39969 40132 53001 60006 80000 90600 333 10195 20105=
07661,1997-04-16 18:00:00,14,1010.7,-0.2,82,11,12000,14.816,,,130,11.1,19.6,,,,,,,,,wg-a,,,,AAXX 16184 07661 12462 51308 10140 20110 39946 40107 55002 60006 85800 91800 333 10196 20111=
07661,1997-04-17 00:00:00,11,1012.3,0.2,76,7,14000,18.52,,,80,,,,,,,,,,,wg-a,,,,AAXX 17004 07661 12864 10810 10110 20070 39960 40123 53002 60006 81010 90000=
07661,1997-04-17 06:00:00,11,1012.6,0.2,58,3,25000,50.004,,83.34,70,10.4,13.6,,,,,,,,,wg-a,,,,AAXX 17064 07661 12675 50727 10110 20030 39962 40126 53002 60006 85800 90600 333 10136 20104 91045=
07661,1997-04-17 12:00:00,12,1013.8,0.4,47,1,25000,53.708,,90.748,90,,,,,,,,,,,wg-a,,,,AAXX 17124 07661 12875 80929 10120 20010 39975 40138 50004 60006 8807/ 91200 333 91049=
07661,1997-04-17 18:00:00,11,1016.1,1.2,40,-2,25000,46.3,,90.748,70,10.6,12.8,,,,,,,,,wg-a,,,,AAXX 17184 07661 12875 50725 10110 21020 39997 40161 52012 60006 82071 91800 333 10128 20106 91049=
07661,1997-04-18 00:00:00,9,1017.7,0.3,57,1,15000,31.484,,,60,,,,,,,,,,,wg-a,,,,AAXX 18004 07661 12/65 00617 10090 20010 30011 40177 52003 60006 80000 90000=
07661,1997-04-18 06:00:00,9,1017.1,0.5,53,0,500,35.188,,,60,8.2,10.7,,,,,,,,,wg-a,,,,AAXX 18064 07661 12/00 50619 10090 20000 30006 40171 53005 60006 80006 90600 333 10107 20082=
07661,1997-04-18 12:00:00,14,1016.8,-0.7,47,3,500,31.484,,72.228,90,,,,,,,,,,,wg-a,,,,AAXX 18124 07661 12/00 40917 10140 20030 30005 40168 58007 60006 80006 91200 333 91039=
07661,1997-04-18 18:00:00,11,1015.1,-0.5,43,-1,500,18.52,,57.412,110,9.4,13.8,,,,,,,,,wg-a,,,,AAXX 18184 07661 12/00 31110 10110 21010 39987 40151 55005 60006 80006 91800 333 10138 20094 91031=
07661,1997-04-19 00:00:00,8,1014.5,-0.8,53,-1,500,3.704,,,340,,,,,,,,,,,wg-a,,,,AAXX 19004 07661 12/00 03402 10080 21010 39980 40145 58008 60006 80000 90000=
07661,1997-04-19 06:00:00,7,1012.1,-0.8,61,0,25000,11.112,,,80,7.1,11.4,,,,,,,,,wg-a,,,,AAXX 19064 07661 12/75 70806 10070 20000 39955 40121 55008 60006 8707/ 90600 333 10114 20071=
07661,1997-04-19 12:00:00,15,1011,-1,51,5,0,11.112,,,210,,,,,,,,,,,wg-a,,,,AAXX 19124 07661 12/// /2106 10150 20050 39949 40110 58010 60006 91200=
07661,1997-04-19 18:00:00,12,1008.2,-1.1,67,6,18000,18.52,,,240,7.3,15.9,,,,,,,,60,wg-a,,,,AAXX 19184 07661 02568 82410 10120 20060 39920 40082 56011 61000 76062 8687/ 91800 333 10159 20073 ////=
07661,1997-04-20 00:00:00,9,1007.5,-0.8,93,8,500,18.52,,,70,,,,1,,,,,,60,wg-a,,,,AAXX 20004 07661 02500 80710 10090 20080 39912 40075 58008 60016 76022 8/77/ 90000 333 60017=
07661,1997-04-20 06:00:00,9,1003.8,-0.9,93,8,1500,29.632,,,60,8.6,11.8,,9,,,,,,61,wg-a,,,,AAXX 20064 07661 12415 80616 10090 20080 39875 40038 56009 60097 76166 887// 90600 333 10118 20086=
07661,1997-04-20 12:00:00,13,1002.5,-0.8,88,11,0,11.112,,,220,,,,,,,,,,,wg-a,,,,AAXX 20124 07661 12/// /2206 10130 20110 39865 40025 58008 60016 91200=
07661,1997-04-20 18:00:00,15,999.1,-1.1,51,5,15000,18.52,,,300,8.8,16.2,,,,,,,,,wg-a,,,,AAXX 20184 07661 32465 73010 10150 20050 39832 49991 55011 8127/ 91800 333 10162 20088=
07661,1997-04-21 00:00:00,11,1000.4,-0.4,87,9,500,25.928,,,60,,,,,,,,,,,wg-a,,,,AAXX 21004 07661 12400 40614 10110 20090 39843 40004 56004 60006 8227/ 90000=
07661,1997-04-21 06:00:00,11,998.4,-0.6,62,4,500,18.52,,,70,9.6,14.6,,,,,,,,,wg-a,,,,AAXX 21064 07661 12400 10710 10110 20040 39823 49984 56006 60006 81130 90600 333 10146 20096=
07661,1997-04-21 12:00:00,13,998,-0.6,58,5,500,22.224,,,90,,,,,,,,,,,wg-a,,,,AAXX 21124 07661 12800 70912 10130 20050 39820 49980 58006 60006 87070 91200=
07661,1997-04-21 18:00:00,12,998.6,0.6,62,5,20000,14.816,,,220,10.4,14.7,,,,,,,,,wg-a,,,,AAXX 21184 07661 12570 32208 10120 20050 39826 49986 51006 60006 81160 91800 333 10147 20104=
07661,1997-04-22 00:00:00,10,999.6,-0,82,7,20000,18.52,,,50,,,,,,,,,,,wg-a,,,,AAXX 22004 07661 12/70 00510 10100 20070 39834 49996 54000 60006 80000 90000=
07661,1997-04-22 06:00:00,8,999.9,0.6,53,-1,500,18.52,,,300,7,12,,,,,,,,,wg-a,,,,AAXX 22064 07661 12/00 03010 10080 21010 39836 49999 53006 60006 80000 90600 333 10120 20070=
07661,1997-04-22 12:00:00,16,1000.9,-0.2,29,-2,500,22.224,,,260,,,,,,,,,,,wg-a,,,,AAXX 22124 07661 12/00 02612 10160 21020 39850 40009 58002 60006 80000 91200=
07661,1997-04-22 18:00:00,13,1003.2,3.5,51,3,500,14.816,,68.524,100,7.6,18.2,,,,,,,,,wg-a,,,,AAXX 22184 07661 12/00 01008 10130 20030 39871 40032 53035 60006 80000 91800 333 10182 20076 91037=
07661,1997-04-23 00:00:00,9,1009.4,2.2,71,4,20000,22.224,,,80,,,,,,,,,,,wg-a,,,,AAXX 23004 07661 12/70 00812 10090 20040 39930 40094 51022 60006 80000 90000=
07661,1997-04-23 06:00:00,9,1013.5,2.5,81,6,20000,14.816,,,70,7.6,13.3,,,,,,,,,wg-a,,,,AAXX 23064 07661 12/70 00708 10090 20060 39970 40135 53025 60006 80000 90600 333 10133 20076=
07661,1997-04-23 12:00:00,16,1016.5,1,59,8,12000,18.52,,,150,,,,,,,,,,,wg-a,,,,AAXX 23124 07661 12562 31510 10160 20080 30004 40165 51010 60006 83200 91200=
07661,1997-04-23 18:00:00,14,1018.4,1.1,63,7,25000,11.112,,,230,9.1,16.3,,,,,,,,,wg-a,,,,AAXX 23184 07661 12675 32306 10140 20070 30021 40184 53011 60006 82131 91800 333 10163 20091=
07661,1997-04-24 00:00:00,11,1021.5,0.6,76,7,20000,11.112,,,300,,,,,,,,,,,wg-a,,,,AAXX 24004 07661 12570 13006 10110 20070 30050 40215 51006 60006 81100 90000=
07661,1997-04-24 06:00:00,10,1023.3,1.8,76,6,20000,11.112,,,70,7.8,13.5,,,,,,,,,wg-a,,,,AAXX 24064 07661 12670 20706 10100 20060 30067 40233 53018 60006 82100 90600 333 10135 20078=
07661,1997-04-24 12:00:00,17,1024.5,0,55,8,18000,14.816,,,200,,,,,,,,,,,wg-a,,,,AAXX 24124 07661 12568 32008 10170 20080 30083 40245 50000 60006 82201 91200=
07661,1997-04-24 18:00:00,14,1023.6,-0.4,72,9,15000,11.112,,,230,10,17.4,,,,,,,,,wg-a,,,,AAXX 24184 07661 12865 22306 10140 20090 30073 40236 55004 60006 81042 91800 333 10174 20100=
07661,1997-04-25 00:00:00,11,1024.2,-0.4,82,8,18000,7.408,,,300,,,,,,,,,,,wg-a,,,,AAXX 25004 07661 12/68 03004 10110 20080 30077 40242 58004 60006 80000 90000=
07661,1997-04-25 06:00:00,11,1023.8,0.6,82,8,12000,11.112,,,320,9.1,13.7,,,,,,,,,wg-a,,,,AAXX 25064 07661 12/62 03206 10110 20080 30073 40238 53006 60006 80000 90600 333 10137 20091=
07661,1997-04-25 12:00:00,17,1023.5,-0.8,72,12,10000,25.928,,,220,,,,,,,,,,,wg-a,,,,AAXX 25124 07661 12460 22214 10170 20120 30074 40235 58008 60006 81170 91200=
07661,1997-04-25 18:00:00,14,1021.9,-0.5,88,12,10000,18.52,,,260,11,18.2,,,,,,,,,wg-a,,,,AAXX 25184 07661 12460 52610 10140 20120 30056 40219 56005 60006 85200 91800 333 10182 20110=
07661,1997-04-26 00:00:00,13,1021.7,-0.8,94,12,10000,14.816,,,290,,,,,,,,,,,wg-a,,,,AAXX 26004 07661 12860 62908 10130 20120 30054 40217 58008 60006 86070 90000=
07661,1997-04-26 06:00:00,14,1019.5,-0.5,88,12,8000,14.816,,,280,13,14.2,,,,,,,,,wg-a,,,,AAXX 26064 07661 12858 82808 10140 20120 30032 40195 56005 60006 8807/ 90600 333 10142 20130=
07661,1997-04-26 12:00:00,17,1017.4,-1.6,82,14,4800,22.224,,,290,,,,,,,,,,10,wg-a,,,,AAXX 26124 07661 12348 32912 10170 20140 30013 40174 58016 60006 71011 83200 91200=
07661,1997-04-26 18:00:00,14,1015.8,-0.6,88,12,6000,11.112,,,270,13.5,17.4,,,,,,,,,wg-a,,,,AAXX 26184 07661 12456 82706 10140 20120 39996 40158 56006 60006 88600 91800 333 10174 20135=
07661,1997-04-27 00:00:00,14,1013.4,-2.2,94,13,2000,18.52,,,70,,,,1,,,,,,61,wg-a,,,,AAXX 27004 07661 02220 80710 10140 20130 39973 40134 58022 60016 76162 88700 90000 333 60017=
07661,1997-04-27 06:00:00,12,1012.8,0.2,94,11,500,29.632,,,280,12,14.1,,6,,,,,,61,wg-a,,,,AAXX 27064 07661 12300 82816 10120 20110 39966 40128 53002 60067 76162 88700 90600 333 10141 20120=
07661,1997-04-27 12:00:00,16,1010.2,-2,72,11,25000,57.412,,79.636,290,,,,,,,,,,,wg-a,,,,AAXX 27124 07661 12575 52931 10160 20110 39942 40102 58020 60016 83270 91200 333 91043=
07661,1997-04-27 18:00:00,18,1010.9,1.6,56,9,25000,31.484,,83.34,290,11.8,19.1,,,,,,,,,wg-a,,,,AAXX 27184 07661 32575 32917 10180 20090 39950 40109 53016 83400 91800 333 10191 20118 91045=
07661,1997-04-28 00:00:00,15,1013.4,-0,55,6,500,53.708,,,300,,,,,,,,,,,wg-a,,,,AAXX 28004 07661 12/00 03029 10150 20060 39973 40134 55000 60006 80000 90000=
07661,1997-04-28 06:00:00,14,1015.5,2.9,63,7,35000,35.188,,83.34,310,13.6,18.5,,,,,,,,,wg-a,,,,AAXX 28064 07661 12881 63119 10140 20070 39993 40155 51029 60006 84075 90600 333 10185 20136 91045=
07661,1997-04-28 18:00:00,17,1014.6,-0.1,82,14,25000,46.3,,90.748,290,14.4,22.5,,,,,,,,,wg-a,,,,AAXX 28184 07661 12575 62925 10170 20140 39986 40146 58001 60006 81142 91800 333 10225 20144 91049=
07661,1997-04-29 06:00:00,16,1010.6,-1.4,51,6,20000,50.004,,75.932,310,14.7,17.8,,,,,,,,,wg-a,,,,AAXX 29064 07661 12670 23127 10160 20060 39946 40106 56014 60006 81140 90600 333 10178 20147 91041=
07661,1997-04-29 12:00:00,20,1009.5,1.7,35,4,500,57.412,,125.936,310,,,,,,,,,,,wg-a,,,,AAXX 29124 07661 12500 13131 10200 20040 39937 40095 50017 60006 81200 91200 333 91068=
07661,1997-04-29 18:00:00,20,1010.6,1.4,37,5,500,31.484,,90.748,320,15.5,21.9,,,,,,,,,wg-a,,,,AAXX 29184 07661 12500 13217 10200 20050 39948 40106 51014 60006 81200 91800 333 10219 20155 91049=
07661,1997-04-30 06:00:00,15,1011.8,2.1,48,4,500,18.52,,61.116,50,14.1,19.6,,,,,,,,,wg-a,,,,AAXX 30064 07661 12500 50510 10150 20040 39957 40118 53021 60006 84260 90600 333 10196 20141 91033=
07661,1997-04-30 12:00:00,22,1015.2,0.7,38,7,40000,11.112,,61.116,240,,,,,,,,,,1,wg-a,,,,AAXX 30124 07661 12582 32406 10220 20070 39994 40152 51007 60016 70161 83260 91200 333 91033=
07661,1997-04-30 18:00:00,19,1015.4,0.4,43,6,500,22.224,,53.708,280,11.8,22,,,,,,,,,wg-a,,,,AAXX 30184 07661 32800 22812 10190 20060 39995 40154 51004 82080 91800 333 10220 20118 91029=
07661,1997-05-01 00:00:00,13,1018.1,0.9,72,8,25000,25.928,,,90,,,,,,,,,,,wg-a,,,,AAXX 01004 07661 12/75 00914 10130 20080 30018 40181 51009 60006 80000 90000=
07661,1997-05-01 06:00:00,14,1020.8,1.9,67,8,500,11.112,,,80,11.7,19.4,,,,,,,,,wg-a,,,,AAXX 01064 07661 12800 40806 10140 20080 30045 40208 53019 60006 84080 90600 333 10194 20117=
07661,1997-05-01 12:00:00,20,1021.5,0.1,46,8,35000,22.224,,,160,,,,,,,,,,,wg-a,,,,AAXX 01124 07661 12581 31612 10200 20080 30055 40215 50001 60006 83230 91200=
07661,1997-05-01 18:00:00,17,1023.2,1,59,9,25000,25.928,,,70,13.5,20.6,,,,,,,,15,wg-a,,,,AAXX 01184 07661 12575 70714 10170 20090 30070 40232 53010 60006 71511 8227/ 91800 333 10206 20135=
07661,1997-05-02 00:00:00,13,1025.1,0.8,72,8,25000,11.112,,64.82,60,,,,,,,,,,,wg-a,,,,AAXX 02004 07661 12/75 00606 10130 20080 30087 40251 51008 60006 80000 90000 333 91035=
07661,1997-05-02 06:00:00,15,1026.6,1.5,63,8,35000,3.704,,,220,12.4,17.5,,,,,,,,,wg-a,,,,AAXX 02064 07661 12/81 02202 10150 20080 30103 40266 53015 60006 80000 90600 333 10175 20124=
07661,1997-05-02 12:00:00,22,1026.8,-0.4,35,6,35000,11.112,,,190,,,,,,,,,,,wg-a,,,,AAXX 02124 07661 12581 11906 10220 20060 30108 40268 58004 60006 81200 91200=
07661,1997-05-02 18:00:00,19,1024.9,-0.4,40,5,35000,22.224,,,290,14.8,22.4,,,,,,,,,wg-a,,,,AAXX 02184 07661 12/81 12912 10190 20050 30088 40249 56004 60006 80001 91800 333 10224 20148=
07661,1997-05-03 00:00:00,16,1025.4,-0.2,42,3,25000,22.224,,,300,,,,,,,,,,,wg-a,,,,AAXX 03004 07661 12/75 03012 10160 20030 30091 40254 56002 60006 80000 90000=
07661,1997-05-03 06:00:00,15,1024.4,-0,44,3,25000,18.52,,,280,14.2,18.6,,,,,,,,,wg-a,,,,AAXX 03064 07661 12/75 02810 10150 20030 30081 40244 55000 60006 80000 90600 333 10186 20142=
07661,1997-05-03 12:00:00,21,1023,-1,53,11,35000,18.52,,,250,,,,,,,,,,,wg-a,,,,AAXX 03124 07661 12/81 02510 10210 20110 30071 40230 58010 60006 80000 91200=
07661,1997-05-03 18:00:00,17,1020.3,-1.2,72,12,500,14.816,,,260,15.4,21.1,,,,,,,,,wg-a,,,,AAXX 03184 07661 12/00 32608 10170 20120 30042 40203 57012 60006 80004 91800 333 10211 20154=
07661,1997-05-04 00:00:00,15,1018.7,-1.5,82,12,15000,14.816,,,260,,,,,,,,,,,wg-a,,,,AAXX 04004 07661 12465 82608 10150 20120 30025 40187 58015 60006 885// 90000=
07661,1997-05-04 06:00:00,15,1016.2,-0.6,88,13,10000,0,,,0,14.1,17,,,,,,,,,wg-a,,,,AAXX 04064 07661 12460 60000 10150 20130 30001 40162 55006 60006 86500 90600 333 10170 20141=
07661,1997-05-04 12:00:00,16,1016.1,-0.1,88,14,8000,18.52,,,240,,,,,,,,,,60,wg-a,,,,AAXX 04124 07661 02458 82410 10160 20140 30001 40161 58001 61000 76062 888// 91200 333 6100=
07661,1997-05-04 18:00:00,16,1014.2,-0.6,88,14,8000,7.408,,,190,14.8,19,,,,,,,,,wg-a,,,,AAXX 04184 07661 32458 61904 10160 20140 39982 40142 56006 81151 91800 333 10190 20148=
07661,1997-05-05 00:00:00,15,1013,-1.2,88,13,0,14.816,,,90,,,,,,,,,,,wg-a,,,,AAXX 05004 07661 02/// /0908 10150 20130 39969 40130 58012 61000 90000 333 ////=
07661,1997-05-05 06:00:00,15,1008.6,-2.2,94,14,0,29.632,,,90,13.6,16.1,,,,,,,,,wg-a,,,,AAXX 05064 07661 32/// /0916 10150 20140 39926 40086 58022 90600 333 10161 20136=
07661,1997-05-05 12:00:00,16,1006.6,-2,82,13,0,35.188,,,90,,,,0,,,,,,,wg-a,,,,AAXX 05124 07661 02/// /0919 10160 20130 39907 40066 58020 60016 91200 333 60007=
07661,1997-05-05 18:00:00,15,1004.3,-1.3,82,12,12000,29.632,,,90,14.2,17,,,,,,,,,wg-a,,,,AAXX 05184 07661 32662 60916 10150 20120 39884 40043 56013 84540 91800 333 10170 20142=
07661,1997-05-06 00:00:00,15,1002.6,-1.5,82,12,12000,29.632,,,70,,,,,,,,,,,wg-a,,,,AAXX 06004 07661 12862 80716 10150 20120 39867 40026 58015 60006 88040 90000=
07661,1997-05-06 06:00:00,15,999.2,-1,100,15,4000,22.224,,,90,14.3,15.4,,,,,,,,10,wg-a,,,,AAXX 06064 07661 12440 80912 10150 20150 39834 49992 56010 60006 71022 886// 90600 333 10154 20143=
07661,1997-05-06 12:00:00,16,999.7,1,51,6,35000,42.596,,64.82,280,,,,,,,,,,,wg-a,,,,AAXX 06124 07661 02581 42823 10160 20060 39838 49997 51010 61000 82260 91200 333 6100 91035=
07661,1997-05-06 18:00:00,14,1001.3,-0.1,67,8,35000,68.524,,103.712,280,14.4,17.4,,,,,,,,,wg-a,,,,AAXX 06184 07661 32581 52837 10140 20080 39854 40013 55001 83260 91800 333 10174 20144 91056=
07661,1997-05-07 00:00:00,11,1006,1.1,58,3,15000,42.596,,114.824,300,,,,,,,,,,,wg-a,,,,AAXX 07004 07661 12865 33023 10110 20030 39898 40060 51011 60006 83070 90000 333 91062=
07661,1997-05-07 06:00:00,9,1005,0.1,57,1,20000,22.224,,,300,8.5,14.4,,,,,,,,,wg-a,,,,AAXX 07064 07661 12870 63012 10090 20010 39886 40050 53001 60006 86030 90600 333 10144 20085=
07661,1997-05-07 12:00:00,14,1004.2,-0.1,47,3,35000,25.928,,50.004,280,,,,,,,,,,,wg-a,,,,AAXX 07124 07661 12581 82814 10140 20030 39882 40042 58001 60006 81270 91200 333 91027=
07661,1997-05-07 18:00:00,12,1001.2,-1.2,62,5,35000,22.224,,,280,8.7,14.6,,,,,,,,,wg-a,,,,AAXX 07184 07661 12581 72812 10120 20050 39851 40012 57012 60006 82280 91800 333 10146 20087=
07661,1997-05-08 00:00:00,10,1000.8,-1.1,71,5,10000,29.632,,,320,,,,,,,,,,,wg-a,,,,AAXX 08004 07661 12860 23216 10100 20050 39846 40008 58011 60006 82070 90000=
07661,1997-05-08 06:00:00,8,1003,2.2,53,-1,20000,42.596,,75.932,310,8.1,11.6,,,,,,,,,wg-a,,,,AAXX 08064 07661 12470 53123 10080 21010 39867 40030 53022 60006 82270 90600 333 10116 20081 91041=
07661,1997-05-08 12:00:00,14,1005.1,2.2,28,-4,35000,68.524,,103.712,300,,,,,,,,,,,wg-a,,,,AAXX 08124 07661 12581 23037 10140 21040 39890 40051 51022 60006 81201 91200 333 91056=
07661,1997-05-08 18:00:00,14,1009.3,3,55,5,500,61.116,,114.824,290,8.3,15.9,,,,,,,,,wg-a,,,,AAXX 08184 07661 12500 42933 10140 20050 39932 40093 52030 60006 81141 91800 333 10159 20083 91062=
07661,1997-05-09 00:00:00,12,1013.5,1.5,67,6,500,42.596,,87.044,300,,,,,,,,,,,wg-a,,,,AAXX 09004 07661 12600 23023 10120 20060 39972 40135 51015 60006 8/100 90000 333 91047=
07661,1997-05-09 06:00:00,12,1014.9,1.2,76,8,500,11.112,,,300,11.1,13.8,,,,,,,,,wg-a,,,,AAXX 09064 07661 12600 23006 10120 20080 39986 40149 53012 60006 8/100 90600 333 10138 20111=
07661,1997-05-09 12:00:00,18,1015.8,0,73,13,20000,25.928,,,220,,,,,,,,,,,wg-a,,,,AAXX 09124 07661 12570 52214 10180 20130 39998 40158 50000 60006 84242 91200=
07661,1997-05-09 18:00:00,15,1015.7,-0.3,88,13,15000,14.816,,,260,12.3,18.8,,,,,,,,,wg-a,,,,AAXX 09184 07661 12465 52608 10150 20130 39996 40157 58003 60006 8313/ 91800 333 10188 20123=
07661,1997-05-10 00:00:00,13,1018,0.8,94,12,10000,14.816,,,270,,,,,,,,,,,wg-a,,,,AAXX 10004 07661 12860 72708 10130 20120 30017 40180 51008 60006 87030 90000=
07661,1997-05-10 06:00:00,14,1018.2,0.3,77,10,12000,7.408,,,10,10.9,15,,0,,,,,,,wg-a,,,,AAXX 10064 07661 12862 60104 10140 20100 30020 40182 53003 60007 84032 90600 333 10150 20109=
07661,1997-05-10 12:00:00,20,1019.2,0.2,60,12,10000,11.112,,,210,,,,,,,,,,,wg-a,,,,AAXX 10124 07661 12560 12106 10200 20120 30033 40192 50002 60006 81101 91200=
07661,1997-05-10 18:00:00,15,1018.5,-0.1,88,13,12000,14.816,,,130,13.9,19.9,,,,,,,,,wg-a,,,,AAXX 10184 07661 12562 81308 10150 20130 30023 40185 58001 60006 834// 91800 333 10199 20139=
07661,1997-05-11 00:00:00,13,1018.5,-0.8,88,11,15000,35.188,,,60,,,,,,,,,,,wg-a,,,,AAXX 11004 07661 12865 30619 10130 20110 30022 40185 58008 60006 83050 90000=
07661,1997-05-11 06:00:00,15,1017.2,0.3,72,10,15000,38.892,,,70,12.9,14.6,,,,,,,,,wg-a,,,,AAXX 11064 07661 12565 50721 10150 20100 30010 40172 53003 60006 83202 90600 333 10146 20129=
07661,1997-05-11 12:00:00,13,1019.5,2.7,94,12,10000,53.708,,72.228,70,,,,2,,,,,,63,wg-a,,,,AAXX 11124 07661 02360 80729 10130 20120 30032 40195 50027 60026 76362 8472/ 91200 333 60027 91039=
07661,1997-05-11 18:00:00,14,1018.1,-0.4,82,11,15000,35.188,,,80,12.4,17,,,,,,,,1,wg-a,,,,AAXX 11184 07661 02565 70819 10140 20110 30019 40181 56004 61000 70162 834// 91800 333 10170 20124 ////=
07661,1997-05-12 00:00:00,15,1019.9,-0.1,63,8,500,25.928,,,70,,,,,,,,,,,wg-a,,,,AAXX 12004 07661 12800 80714 10150 20080 30037 40199 56001 60006 8807/ 90000=
07661,1997-05-12 06:00:00,14,1021.6,1.4,77,10,15000,22.224,,,70,13.5,14.7,,,,,,,,,wg-a,,,,AAXX 12064 07661 32865 80712 10140 20100 30053 40216 53014 8807/ 90600 333 10147 20135=
07661,1997-05-12 12:00:00,14,1022.4,-0.1,82,11,15000,31.484,,,90,,,,0,,,,,,21,wg-a,,,,AAXX 12124 07661 02665 80917 10140 20110 30061 40224 58001 60016 72162 8807/ 91200 333 60007=
07661,1997-05-12 18:00:00,14,1022.1,-0.1,94,13,15000,29.632,,,70,13.4,16.8,,2,,,,,,21,wg-a,,,,AAXX 12184 07661 12865 80716 10140 20130 30058 40221 55001 60027 72122 84071 91800 333 10168 20134=
07661,1997-05-13 00:00:00,15,1022.4,0.2,82,12,20000,18.52,,,60,,,,0,,,,,,60,wg-a,,,,AAXX 13004 07661 02870 80610 10150 20120 30061 40224 53002 60006 76062 8802/ 90000 333 60007=
07661,1997-05-13 06:00:00,15,1020.4,-0.6,77,11,20000,31.484,,,70,13.6,16,,,,,,,,,wg-a,,,,AAXX 13064 07661 32870 60717 10150 20110 30042 40204 58006 86070 90600 333 10160 20136=
07661,1997-05-13 12:00:00,21,1020.7,-0.9,53,11,0,11.112,,,110,,,,,,,,,,,wg-a,,,,AAXX 13124 07661 02/// /1106 10210 20110 30048 40207 58009 61000 91200 333 ////=
07661,1997-05-13 18:00:00,20,1017.4,-1.7,53,10,25000,25.928,,,80,15.2,22.2,,,,,,,,,wg-a,,,,AAXX 13184 07661 32875 60814 10200 20100 30015 40174 56017 84076 91800 333 10222 20152=
07661,1997-05-14 00:00:00,18,1018.6,0.2,59,10,20000,22.224,,,80,,,,,,,,,,,wg-a,,,,AAXX 14004 07661 12/70 20812 10180 20100 30026 40186 50002 60006 82070 90000=
07661,1997-05-14 06:00:00,18,1018.7,0.5,68,12,12000,22.224,,,70,16.2,20,,,,,,,,,wg-a,,,,AAXX 14064 07661 12/62 60712 10180 20120 30027 40187 53005 60006 83036 90600 333 10200 20162=
07661,1997-05-14 12:00:00,22,1017.8,-0.8,53,12,15000,22.224,,,90,,,,,,,,,,,wg-a,,,,AAXX 14124 07661 12/65 60912 10220 20120 30020 40178 58008 60006 83036 91200=
07661,1997-05-14 18:00:00,20,1017.3,0.5,53,10,15000,11.112,,,120,17.5,21.7,,,,,,,,,wg-a,,,,AAXX 14184 07661 12565 51206 10200 20100 30014 40173 51005 60006 82261 91800 333 10217 20175=
07661,1997-05-15 00:00:00,18,1016.7,-0.9,59,10,10000,11.112,,,70,,,,,,,,,,,wg-a,,,,AAXX 15004 07661 12/60 10706 10180 20100 30007 40167 56009 60006 80001 90000=
07661,1997-05-15 06:00:00,19,1015.5,0.2,49,8,15000,22.224,,,70,15.5,20.2,,,,,,,,,wg-a,,,,AAXX 15064 07661 12/65 60712 10190 20080 39996 40155 53002 60006 80001 90600 333 10202 20155=
07661,1997-05-15 12:00:00,23,1015.7,-0.2,47,11,0,7.408,,,120,,,,,,,,,,,wg-a,,,,AAXX 15124 07661 12/// /1204 10230 20110 30000 40157 58002 60006 91200=
07661,1997-05-15 18:00:00,18,1015.2,0.9,73,13,14000,3.704,,,230,18.4,24.5,,,,,,,,,wg-a,,,,AAXX 15184 07661 12564 72302 10180 20130 39993 40152 53009 60006 82202 91800 333 10245 20184=
07661,1997-05-16 00:00:00,17,1015.6,-0.2,63,10,20000,18.52,,,80,,,,,,,,,,,wg-a,,,,AAXX 16004 07661 12/70 20810 10170 20100 39996 40156 58002 60006 80008 90000=
07661,1997-05-16 06:00:00,17,1015.8,0.9,59,9,15000,14.816,,,80,15.3,18.7,,,,,,,,,wg-a,,,,AAXX 16064 07661 12865 50808 10170 20090 39998 40158 53009 60006 83032 90600 333 10187 20153=
07661,1997-05-16 12:00:00,23,1016.1,0.2,53,13,15000,7.408,,,210,,,,,,,,,,,wg-a,,,,AAXX 16124 07661 12565 52104 10230 20130 30004 40161 51002 60006 81232 91200=
07661,1997-05-16 18:00:00,17,1015.7,-0.3,88,15,15000,25.928,,,230,16.9,24.8,,,,,,,,,wg-a,,,,AAXX 16184 07661 12565 72314 10170 20150 39997 40157 56003 60006 8127/ 91800 333 10248 20169=
07661,1997-05-17 00:00:00,18,1016.9,0.3,64,11,20000,3.704,,,210,,,,,,,,,,,wg-a,,,,AAXX 17004 07661 12/70 62102 10180 20110 30009 40169 53003 60006 86030 90000=
07661,1997-05-17 06:00:00,17,1017.1,0.5,72,12,18000,3.704,,,310,16.2,18.2,,,,,,,,,wg-a,,,,AAXX 17064 07661 12/68 33102 10170 20120 30011 40171 53005 60006 82031 90600 333 10182 20162=
07661,1997-05-17 12:00:00,22,1017.1,-0.3,50,11,12000,11.112,,,220,,,,,,,,,,,wg-a,,,,AAXX 17124 07661 12562 52206 10220 20110 30013 40171 57003 60006 81202 91200=
07661,1997-05-17 18:00:00,16,1016.6,0.1,94,15,500,18.52,,,220,16.4,22.9,,,,,,,,61,wg-a,,,,AAXX 17184 07661 02500 82210 10160 20150 30006 40166 53001 61000 76122 8/27/ 91800 333 10229 20164 ////=
07661,1997-05-18 00:00:00,16,1017.4,-0.2,94,15,500,11.112,,,220,,,,,,,,,,,wg-a,,,,AAXX 18004 07661 12400 42206 10160 20150 30013 40174 58002 60006 81630 90000=
07661,1997-05-18 06:00:00,16,1016.9,0.1,94,15,4000,3.704,,,160,14.5,16.4,,,,,,,,60,wg-a,,,,AAXX 18064 07661 02440 71602 10160 20150 30008 40169 50001 61000 76062 877// 90600 333 10164 20145 ////=
07661,1997-05-18 12:00:00,20,1017.6,0,73,15,15000,14.816,,,210,,,,,,,,,,,wg-a,,,,AAXX 18124 07661 02465 32108 10200 20150 30017 40176 50000 61000 83200 91200 333 ////=
07661,1997-05-18 18:00:00,18,1016.3,-0.6,83,15,15000,11.112,,,220,15.8,20.4,,,,,,,,,wg-a,,,,AAXX 18184 07661 32465 32206 10180 20150 30003 40163 55006 83200 91800 333 10204 20158=
07661,1997-05-19 00:00:00,15,1016.5,-0.3,94,14,15000,7.408,,,200,,,,0,,,,,,,wg-a,,,,AAXX 19004 07661 02465 32004 10150 20140 30004 40165 56003 60006 83200 90000 333 60007=
07661,1997-05-19 06:00:00,13,1015.9,0.2,94,12,10000,11.112,,,80,12,17.5,,,,,,,,,wg-a,,,,AAXX 19064 07661 32460 70806 10130 20120 39997 40159 53002 82602 90600 333 10175 20120=
07661,1997-05-19 12:00:00,19,1016.3,-0.3,73,14,12000,11.112,,,120,,,,,,,,,,,wg-a,,,,AAXX 19124 07661 12462 71206 10190 20140 30004 40163 58003 60006 84262 91200=
07661,1997-05-19 18:00:00,17,1014,-1,88,15,16000,14.816,,,150,13.2,20.1,,,,,,,,,wg-a,,,,AAXX 19184 07661 12466 61508 10170 20150 39980 40140 56010 60006 83262 91800 333 10201 20132=
07661,1997-05-20 06:00:00,16,1013.1,0.6,88,14,15000,18.52,,,70,14.7,17,,,,,,,,,wg-a,,,,AAXX 20064 07661 12465 80710 10160 20140 39971 40131 53006 60006 83260 90600 333 10170 20147=
07661,1997-05-20 12:00:00,18,1012.5,-0.5,88,16,8000,14.816,,,140,,,,,,,,,,,wg-a,,,,AAXX 20124 07661 12458 81408 10180 20160 39966 40125 58005 60006 8422/ 91200=
07661,1997-05-21 06:00:00,18,1012.3,0.9,49,7,25000,29.632,,,290,15.3,18.6,,,,,,,,,wg-a,,,,AAXX 21064 07661 12/75 52916 10180 20070 39963 40123 53009 60006 80005 90600 333 10186 20153=
07661,1997-05-21 12:00:00,20,1012.3,0,53,10,500,38.892,,64.82,280,,,,,,,,,,,wg-a,,,,AAXX 21124 07661 12500 72821 10200 20100 39965 40123 50000 60006 81102 91200 333 91035=
07661,1997-05-21 18:00:00,18,1011.5,0.5,68,12,20000,50.004,,83.34,290,17.7,21.2,,,,,,,,,wg-a,,,,AAXX 21184 07661 32570 32927 10180 20120 39956 40115 53005 81164 91800 333 10212 20177 91045=
07661,1997-05-22 00:00:00,17,1012.2,-0.5,55,8,20000,42.596,,75.932,300,,,,,,,,,,,wg-a,,,,AAXX 22004 07661 12/70 03023 10170 20080 39962 40122 57005 60006 80000 90000 333 91041=
07661,1997-05-22 06:00:00,16,1012.5,0.9,59,8,500,38.892,,,300,14.7,17.9,,,,,,,,,wg-a,,,,AAXX 22064 07661 12/00 13021 10160 20080 39964 40125 53009 60006 81031 90600 333 10179 20147=
07661,1997-05-22 12:00:00,19,1011.7,-0.6,52,9,500,64.82,,90.748,290,,,,,,,,,,,wg-a,,,,AAXX 22124 07661 12600 32935 10190 20090 39958 40117 58006 60006 82101 91200 333 91049=
07661,1997-05-22 18:00:00,18,1012.9,1,64,11,500,35.188,,94.452,280,15.7,19.8,,,,,,,,,wg-a,,,,AAXX 22184 07661 12600 32819 10180 20110 39970 40129 53010 60006 81102 91800 333 10198 20157 91051=
07661,1997-05-23 00:00:00,16,1015,0,77,12,25000,35.188,,64.82,300,,,,,,,,,,,wg-a,,,,AAXX 23004 07661 12/75 23019 10160 20120 39989 40150 50000 60006 80002 90000 333 91035=
07661,1997-05-23 06:00:00,16,1015.5,0.9,82,13,10000,7.408,,,340,14.4,17.8,,,,,,,,,wg-a,,,,AAXX 23064 07661 12/60 13404 10160 20130 39994 40155 51009 60006 80001 90600 333 10178 20144=
07661,1997-05-23 12:00:00,21,1017.1,0.5,64,14,12000,7.408,,,210,,,,,,,,,,,wg-a,,,,AAXX 23124 07661 12562 62104 10210 20140 30013 40171 50005 60006 81131 91200=
07661,1997-05-23 18:00:00,19,1016.3,-0.3,73,14,18000,7.408,,,220,15.7,22.3,,,,,,,,,wg-a,,,,AAXX 23184 07661 12/68 12204 10190 20140 30004 40163 55003 60006 80001 91800 333 10223 20157=
07661,1997-05-24 00:00:00,15,1017.4,-0.2,88,13,10000,14.816,,,80,,,,,,,,,,,wg-a,,,,AAXX 24004 07661 12/60 00808 10150 20130 30012 40174 57002 60006 80000 90000=
07661,1997-05-24 06:00:00,14,1017.7,0.7,94,13,6000,14.816,,,70,13.4,18.8,,,,,,,,,wg-a,,,,AAXX 24064 07661 12456 80708 10140 20130 30015 40177 53007 60006 886// 90600 333 10188 20134=
07661,1997-05-24 12:00:00,19,1018.1,0,78,15,13000,18.52,,,130,,,,,,,,,,,wg-a,,,,AAXX 24124 07661 12563 61310 10190 20150 30022 40181 50000 60006 82102 91200=
07661,1997-05-24 18:00:00,18,1017.5,-0.1,77,14,15000,14.816,,,140,14.3,20.4,,,,,,,,,wg-a,,,,AAXX 24184 07661 12/65 71408 10180 20140 30015 40175 55001 60006 82034 91800 333 10204 20143=
07661,1997-05-25 06:00:00,17,1018.6,0.4,77,13,15000,25.928,,,80,15.1,17.5,,,,,,,,,wg-a,,,,AAXX 25064 07661 12/65 70814 10170 20130 30025 40186 50004 60006 8707/ 90600 333 10175 20151=
07661,1997-05-25 12:00:00,20,1019,-0.4,64,13,18000,31.484,,50.004,120,,,,,,,,,,,wg-a,,,,AAXX 25124 07661 12568 71217 10200 20130 30031 40190 58004 60006 8117/ 91200 333 91027=
07661,1997-05-25 18:00:00,22,1018.5,0.4,41,8,25000,18.52,,50.004,80,16.9,21.6,,,,,,,,,wg-a,,,,AAXX 25184 07661 12875 70810 10220 20080 30027 40185 51004 60006 84078 91800 333 10216 20169 91027=
07661,1997-05-26 00:00:00,21,1019,-0.1,49,10,15000,11.112,,,90,,,,,,,,,,,wg-a,,,,AAXX 26004 07661 12865 30906 10210 20100 30031 40190 58001 60006 81071 90000=
07661,1997-05-26 06:00:00,21,1018.8,0.7,53,11,12000,3.704,,,60,16.9,21.6,,,,,,,,,wg-a,,,,AAXX 26064 07661 12/62 00602 10210 20110 30029 40188 51007 60006 80000 90600 333 10216 20169=
07661,1997-05-26 12:00:00,23,1019,-0.5,57,14,20000,18.52,,,160,,,,,,,,,,,wg-a,,,,AAXX 26124 07661 12/70 01610 10230 20140 30032 40190 58005 60006 80000 91200=
07661,1997-05-26 18:00:00,22,1017.7,-0.6,57,13,15000,3.704,,,220,20.7,23.9,,,,,,,,,wg-a,,,,AAXX 26184 07661 12/65 02202 10220 20130 30019 40177 58006 60006 80000 91800 333 10239 20207=
07661,1997-05-27 00:00:00,18,1017.2,-0.6,73,13,20000,22.224,,,290,,,,,,,,,,,wg-a,,,,AAXX 27004 07661 12/70 02912 10180 20130 30012 40172 58006 60006 80000 90000=
07661,1997-05-27 06:00:00,19,1016.3,0.2,68,13,12000,0,,,0,15.9,21.9,,,,,,,,,wg-a,,,,AAXX 27064 07661 12/62 00000 10190 20130 30004 40163 53002 60006 80000 90600 333 10219 20159=
07661,1997-05-27 12:00:00,26,1014.3,-1.2,48,14,10000,14.816,,,260,,,,,,,,,,,wg-a,,,,AAXX 27124 07661 12/60 02608 10260 20140 39988 40143 58012 60006 80000 91200=
07661,1997-05-27 18:00:00,22,1012.6,-0.3,50,11,0,25.928,,,270,19.1,26.3,,,,,,,,,wg-a,,,,AAXX 27184 07661 12/// /2714 10220 20110 39969 40126 55003 60006 91800 333 10263 20191=
07661,1997-05-28 00:00:00,19,1012.1,-0.9,64,12,20000,35.188,,,290,,,,,,,,,,,wg-a,,,,AAXX 28004 07661 12/70 02919 10190 20120 39963 40121 58009 60006 80000 90000=
07661,1997-05-28 06:00:00,19,1011,-0.5,73,14,500,3.704,,,100,16.3,22,,,,,,,,,wg-a,,,,AAXX 28064 07661 12/00 21002 10190 20140 39952 40110 58005 60006 82030 90600 333 10220 20163=
07661,1997-05-28 12:00:00,21,1010.5,-0.3,78,17,6000,22.224,,,160,,,,,,,,,,,wg-a,,,,AAXX 28124 07661 12456 11612 10210 20170 39948 40105 56003 60006 81200 91200=
07661,1997-05-28 18:00:00,20,1011.3,1.1,78,16,12000,22.224,,,100,19.3,22.8,,,,,,,,,wg-a,,,,AAXX 28184 07661 12/62 01012 10200 20160 39955 40113 53011 60006 80000 91800 333 10228 20193=
07661,1997-05-29 00:00:00,19,1015.5,1.4,78,15,12000,46.3,,64.82,70,,,,,,,,,,,wg-a,,,,AAXX 29004 07661 12/62 00725 10190 20150 39996 40155 52014 60006 80000 90000 333 91035=
07661,1997-05-29 06:00:00,19,1019,2,56,10,15000,35.188,,,70,18.2,21.2,,,,,,,,,wg-a,,,,AAXX 29064 07661 12/65 40719 10190 20100 30030 40190 51020 60006 80001 90600 333 10212 20182=
07661,1997-05-29 12:00:00,22,1020.9,0.6,41,8,25000,29.632,,68.524,110,,,,,,,,,,,wg-a,,,,AAXX 29124 07661 12/75 21116 10220 20080 30050 40209 50006 60006 80001 91200 333 91037=
07661,1997-05-29 18:00:00,18,1021.6,0.7,59,10,25000,25.928,,61.116,90,18.1,22.4,,,,,,,,,wg-a,,,,AAXX 29184 07661 12/75 10914 10180 20100 30055 40216 53007 60006 80001 91800 333 10224 20181 91033=
07661,1997-05-30 00:00:00,16,1021.6,0,55,7,25000,14.816,,,80,,,,,,,,,,,wg-a,,,,AAXX 30004 07661 12/75 00808 10160 20070 30054 40216 50000 60006 80000 90000=
07661,1997-05-30 06:00:00,19,1020.6,0.5,43,6,25000,11.112,,,290,15.4,18.9,,,,,,,,,wg-a,,,,AAXX 30064 07661 12/75 02906 10190 20060 30046 40206 50005 60006 80000 90600 333 10189 20154=
07661,1997-05-30 12:00:00,22,1017.9,-1.3,43,9,18000,22.224,,,240,,,,,,,,,,,wg-a,,,,AAXX 30124 07661 12/68 52412 10220 20090 30021 40179 58013 60006 80001 91200=
07661,1997-05-30 18:00:00,21,1015.4,-0.6,46,9,20000,11.112,,,270,19,24.1,,,,,,,,,wg-a,,,,AAXX 30184 07661 12/70 32706 10210 20090 39996 40154 55006 60006 80004 91800 333 10241 20190=
07661,1997-05-31 00:00:00,17,1016.2,-0.4,68,11,15000,11.112,,,70,,,,,,,,,,,wg-a,,,,AAXX 31004 07661 12/65 10706 10170 20110 30001 40162 58004 60006 80001 90000=
07661,1997-05-31 06:00:00,16,1014.8,-0.5,77,12,20000,18.52,,,90,14.3,21.2,,,,,,,,,wg-a,,,,AAXX 31064 07661 12/70 50910 10160 20120 39987 40148 55005 60006 80004 90600 333 10212 20143=
07661,1997-05-31 12:00:00,21,1013.4,-0.9,46,9,25000,22.224,,,100,,,,,,,,,,,wg-a,,,,AAXX 31124 07661 12575 51012 10210 20090 39976 40134 58009 60006 81172 91200=
07661,1997-05-31 18:00:00,19,1011.5,-0.9,60,11,15000,29.632,,,90,15.8,22.8,,,,,,,,,wg-a,,,,AAXX 31184 07661 12865 60916 10190 20110 39956 40115 57009 60006 83072 91800 333 10228 20158=
07661,1997-06-01 00:00:00,18,1010.9,-0.9,68,12,15000,18.52,,,90,,,,,,,,,,,wg-a,,,,AAXX 01004 07661 12565 60910 10180 20120 39950 40109 58009 60006 81120 90000=
07661,1997-06-01 06:00:00,16,1006.1,-3.4,82,13,12000,42.596,,79.636,70,16.4,18.8,,0,,,,,,2,wg-a,,,,AAXX 01064 07661 12462 80723 10160 20130 39902 40061 56034 60007 70262 8227/ 90600 333 10188 20164 91043=
07661,1997-06-01 12:00:00,14,1005,-2.9,94,13,15000,42.596,,75.932,60,,,,10,,,,,,60,wg-a,,,,AAXX 01124 07661 02465 70623 10140 20130 39890 40050 56029 60186 76062 8787/ 91200 333 60107 91041=
07661,1997-06-01 18:00:00,14,1007.3,0.7,94,13,10000,29.632,,72.228,70,13.7,17.9,,10,,,,,,60,wg-a,,,,AAXX 01184 07661 12460 80716 10140 20130 39912 40073 51007 60107 76062 8672/ 91800 333 10179 20137 91039=
07661,1997-06-02 00:00:00,13,1008.9,0.2,94,12,10000,35.188,,,70,,,,4,,,,,,61,wg-a,,,,AAXX 02004 07661 02460 80719 10130 20120 39928 40089 50002 60066 76166 887// 90000 333 60047=
07661,1997-06-02 06:00:00,14,1010.7,1.6,88,12,10000,31.484,,,70,12.7,13.8,,0,,,,,,2,wg-a,,,,AAXX 02064 07661 12460 80717 10140 20120 39946 40107 53016 60007 70262 887// 90600 333 10138 20127=
07661,1997-06-02 18:00:00,17,1014.7,0.6,68,11,35000,18.52,,,140,13.4,18.5,,,,,,,,,wg-a,,,,AAXX 02184 07661 12581 31410 10170 20110 39987 40147 52006 60006 8187/ 91800 333 10185 20134=
07661,1997-06-03 00:00:00,15,1016.1,0.2,82,12,35000,14.816,,,300,,,,,,,,,,,wg-a,,,,AAXX 03004 07661 12/81 03008 10150 20120 30000 40161 50002 60006 80000 90000=
07661,1997-06-03 06:00:00,16,1015.5,0.3,82,13,35000,7.408,,,290,13.3,17.2,,,,,,,,,wg-a,,,,AAXX 03064 07661 12/81 52904 10160 20130 39995 40155 51003 60006 84031 90600 333 10172 20133=
07661,1997-06-03 12:00:00,22,1016.4,0.3,60,14,25000,25.928,,,240,,,,,,,,,,,wg-a,,,,AAXX 03124 07661 12575 42414 10220 20140 30006 40164 51003 60006 82141 91200=
07661,1997-06-03 18:00:00,,1016.1,-0.4,,,12000,29.632,,,290,16.3,22.5,,,,,,,,,wg-a,,,,AAXX 03184 07661 12/62 52916 1//// 2//// 40161 55004 60006 81102 91800 333 10225 20163=
07661,1997-06-04 00:00:00,17,1015.7,-0.2,88,15,10000,22.224,,,290,,,,,,,,,,,wg-a,,,,AAXX 04004 07661 12/60 02912 10170 20150 39997 40157 58002 60006 80000 90000=
07661,1997-06-04 06:00:00,18,1015.9,1,83,15,7000,14.816,,,80,15.3,18.9,,,,,,,,,wg-a,,,,AAXX 04064 07661 12557 30808 10180 20150 39999 40159 53010 60006 83600 90600 333 10189 20153=
07661,1997-06-04 12:00:00,19,1016.1,-0.6,88,17,8000,22.224,,,130,,,,,,,,,,,wg-a,,,,AAXX 04124 07661 32558 81312 10190 20170 30001 40161 58006 886// 91200=
07661,1997-06-04 18:00:00,18,1012.1,-2.9,88,16,0,31.484,,,70,17.2,20.4,,,,,,,,,wg-a,,,,AAXX 04184 07661 32/// /0717 10180 20160 39962 40121 55029 91800 333 10204 20172=
07661,1997-06-05 00:00:00,17,1009.7,-3.6,88,15,10000,50.004,,75.932,50,,,,1,,,,,,60,wg-a,,,,AAXX 05004 07661 02/60 80527 10170 20150 39938 40097 58036 60016 76022 8807/ 90000 333 60017 91041=
07661,1997-06-05 06:00:00,17,1006.9,-1.3,94,16,0,42.596,,,90,16.5,18.4,,2,,,,,,,wg-a,,,,AAXX 05064 07661 12/// /0923 10170 20160 39910 40069 58013 60027 90600 333 10184 20165=
07661,1997-06-05 18:00:00,18,1008.2,0.9,94,17,12000,22.224,,,130,15.8,19.2,,0,,,,,,60,wg-a,,,,AAXX 05184 07661 12362 71312 10180 20170 39924 40082 53009 60007 760// 878// 91800 333 10192 20158=
07661,1997-06-06 00:00:00,17,1010.7,0.5,100,17,0,14.816,,,100,,,,,,,,,,,wg-a,,,,AAXX 06004 07661 02/// /1008 10170 20170 39948 40107 52005 61000 90000 333 ////=
07661,1997-06-06 06:00:00,17,1012.2,1.5,94,16,10000,18.52,,,70,16.4,18,,,,,,,,,wg-a,,,,AAXX 06064 07661 32460 70710 10170 20160 39963 40122 53015 8562/ 90600 333 10180 20164=
07661,1997-06-06 12:00:00,22,1013.8,0.2,73,17,14000,11.112,,,110,,,,,,,,,,,wg-a,,,,AAXX 06124 07661 12464 41106 10220 20170 39981 40138 50002 60006 82201 91200=
07661,1997-06-06 18:00:00,21,1013.6,-0,83,18,8000,7.408,,,200,17.2,21.9,,,,,,,,,wg-a,,,,AAXX 06184 07661 12358 42004 10210 20180 39979 40136 55000 60006 84200 91800 333 10219 20172=
07661,1997-06-07 00:00:00,18,1014.7,0,94,17,8000,14.816,,,60,,,,,,,,,,,wg-a,,,,AAXX 07004 07661 12358 70608 10180 20170 39988 40147 50000 60006 8367/ 90000=
07661,1997-06-07 06:00:00,18,1014.7,0.7,88,16,10000,25.928,,,70,16.5,20.7,,,,,,,,,wg-a,,,,AAXX 07064 07661 12360 70714 10180 20160 39988 40147 51007 60006 878// 90600 333 10207 20165=
07661,1997-06-07 12:00:00,22,1016,0.4,78,18,12000,14.816,,,90,,,,,,,,,,,wg-a,,,,AAXX 07124 07661 12662 50908 10220 20180 30003 40160 51004 60006 85800 91200=
07661,1997-06-07 18:00:00,19,1015.5,0.3,94,18,12000,18.52,,,170,17.8,22.2,,,,,,,,,wg-a,,,,AAXX 07184 07661 12662 71710 10190 20180 39997 40155 53003 60006 83202 91800 333 10222 20178=
07661,1997-06-08 00:00:00,18,1016.1,0.9,94,17,12000,22.224,,,80,,,,,,,,,,,wg-a,,,,AAXX 08004 07661 12662 40812 10180 20170 30002 40161 50009 60006 83850 90000=
07661,1997-06-08 06:00:00,18,1016.4,0.4,94,17,8000,18.52,,,70,16.7,19.4,,,,,,,,,wg-a,,,,AAXX 08064 07661 12458 80710 10180 20170 30005 40164 53004 60006 886// 90600 333 10194 20167=
07661,1997-06-08 12:00:00,22,1017.7,0.6,83,19,12000,18.52,,,160,,,,,,,,,,,wg-a,,,,AAXX 08124 07661 12362 21610 10220 20190 30020 40177 51006 60006 82101 91200=
07661,1997-06-08 18:00:00,23,1018.1,0.1,78,19,10000,11.112,,,260,17.9,23.5,,,,,,,,,wg-a,,,,AAXX 08184 07661 12360 52606 10230 20190 30024 40181 52001 60006 81208 91800 333 10235 20179=
07661,1997-06-09 00:00:00,18,1019.8,-0.3,94,17,0,11.112,,,80,,,,,,,,,,,wg-a,,,,AAXX 09004 07661 12/// /0806 10180 20170 30038 40198 58003 60006 90000=
07661,1997-06-09 06:00:00,18,1021.2,1.2,100,18,4000,22.224,,,70,17.2,22.9,,,,,,,,28,wg-a,,,,AAXX 09064 07661 12/40 80712 10180 20180 30052 40212 53012 60006 72842 886// 90600 333 10229 20172=
07661,1997-06-09 12:00:00,23,1021.8,-0.3,73,18,12000,18.52,,,150,,,,,,,,,,,wg-a,,,,AAXX 09124 07661 12462 51510 10230 20180 30061 40218 58003 60006 82301 91200=
07661,1997-06-09 18:00:00,21,1020.9,0.5,88,19,3500,0,,,0,18.2,23.4,,,,,,,,11,wg-a,,,,AAXX 09184 07661 12435 70000 10210 20190 30051 40209 51005 60006 71122 85101 91800 333 10234 20182=
07661,1997-06-10 00:00:00,19,1019.5,-1.1,88,17,8000,11.112,,,70,,,,,,,,,,,wg-a,,,,AAXX 10004 07661 12/58 00706 10190 20170 30036 40195 56011 60006 80000 90000=
07661,1997-06-10 06:00:00,21,1018.4,0.2,78,17,12000,18.52,,,70,18.1,20.9,,,,,,,,,wg-a,,,,AAXX 10064 07661 12462 40710 10210 20170 30026 40184 50002 60006 84800 90600 333 10209 20181=
07661,1997-06-10 12:00:00,25,1016.4,-1.3,50,14,25000,31.484,,61.116,100,,,,,,,,,,,wg-a,,,,AAXX 10124 07661 12/75 61017 10250 20140 30008 40164 55013 60006 80006 91200 333 91033=
07661,1997-06-10 18:00:00,22,1013.9,-1.8,69,16,20000,25.928,,57.412,100,20.5,24.8,,,,,,,,,wg-a,,,,AAXX 10184 07661 12/70 71014 10220 20160 39982 40139 58018 60006 83036 91800 333 10248 20205 91031=
07661,1997-06-11 00:00:00,22,1014.1,-0.3,60,14,20000,22.224,,,90,,,,,,,,,,,wg-a,,,,AAXX 11004 07661 12/70 00912 10220 20140 39984 40141 55003 60006 80000 90000=
07661,1997-06-11 06:00:00,22,1011.9,-1,73,17,15000,38.892,,57.412,70,20.7,23.3,,,,,,,,,wg-a,,,,AAXX 11064 07661 12465 80721 10220 20170 39962 40119 58010 60006 848// 90600 333 10233 20207 91031=
07661,1997-06-11 12:00:00,25,1012.7,0.5,61,17,20000,18.52,,,110,,,,,,,,,,,wg-a,,,,AAXX 11124 07661 12870 51110 10250 20170 39972 40127 53005 60006 84032 91200=
07661,1997-06-11 18:00:00,22,1010.4,-1.2,83,19,15000,25.928,,,130,21.5,26.8,,,,,,,,,wg-a,,,,AAXX 11184 07661 12865 61314 10220 20190 39948 40104 56012 60006 85072 91800 333 10268 20215=
07661,1997-06-12 00:00:00,20,1011.5,-0.8,88,18,18000,22.224,,,80,,,,,,,,,,,wg-a,,,,AAXX 12004 07661 12/68 00812 10200 20180 39957 40115 58008 60006 80000 90000=
07661,1997-06-12 06:00:00,20,1011.6,0.3,73,15,18000,14.816,,,80,18.5,21.7,,,,,,,,,wg-a,,,,AAXX 12064 07661 12/68 60808 10200 20150 39958 40116 53003 60006 84074 90600 333 10217 20185=
07661,1997-06-13 12:00:00,22,1010,1.1,83,19,6000,14.816,,,170,,,,,,,,,,,wg-a,,,,AAXX 13124 07661 12456 81708 10220 20190 39944 40100 51011 60006 876// 91200=
07661,1997-06-13 18:00:00,22,1008.5,-0.5,88,20,10000,7.408,,,230,20.3,25.5,,,,,,,,,wg-a,,,,AAXX 13184 07661 12460 32304 10220 20200 39929 40085 56005 60006 81202 91800 333 10255 20203=
07661,1997-06-14 00:00:00,20,1009.4,-0.2,94,19,6000,11.112,,,260,,,,,,,,,,,wg-a,,,,AAXX 14004 07661 12/56 32606 10200 20190 39937 40094 57002 60006 8/030 90000=
07661,1997-06-14 06:00:00,21,1010,0.8,88,19,8000,3.704,,,270,19.4,22.1,,,,,,,,,wg-a,,,,AAXX 14064 07661 12558 52702 10210 20190 39943 40100 51008 60006 8/800 90600 333 10221 20194=
07661,1997-06-14 12:00:00,28,1011.3,0.5,45,15,25000,31.484,,,320,,,,,,,,,,1,wg-a,,,,AAXX 14124 07661 02575 63217 10280 20150 39960 40113 53005 61000 70162 82232 91200 333 6100=
07661,1997-06-14 18:00:00,24,1011.8,0.4,57,15,25000,35.188,,68.524,290,20.6,29.7,,,,,,,,,wg-a,,,,AAXX 14184 07661 32875 12919 10240 20150 39962 40118 53004 81030 91800 333 10297 20206 91037=
07661,1997-06-15 00:00:00,21,1014.1,0.3,69,15,25000,31.484,,,290,,,,,,,,,,,wg-a,,,,AAXX 15004 07661 12/75 02917 10210 20150 39983 40141 51003 60006 80000 90000=
07661,1997-06-15 06:00:00,21,1014,0.6,56,12,40000,29.632,,,300,19,24.1,,,,,,,,,wg-a,,,,AAXX 15064 07661 12/82 03016 10210 20120 39982 40140 51006 60006 80000 90600 333 10241 20190=
07661,1997-06-15 12:00:00,25,1014.5,0.1,44,12,40000,38.892,,,290,,,,,,,,,,,wg-a,,,,AAXX 15124 07661 12482 22921 10250 20120 39989 40145 50001 60006 81101 91200=
07661,1997-06-15 18:00:00,23,1014.7,0.4,57,14,40000,29.632,,68.524,290,20.7,25.7,,,,,,,,,wg-a,,,,AAXX 15184 07661 12/82 42916 10230 20140 39990 40147 53004 60006 82051 91800 333 10257 20207 91037=
07661,1997-06-16 00:00:00,20,1016.2,-0.3,60,12,20000,29.632,,,300,,,,,,,,,,,wg-a,,,,AAXX 16004 07661 12/70 43016 10200 20120 30003 40162 58003 60006 80008 90000=
07661,1997-06-16 06:00:00,22,1015.7,0.8,57,13,500,7.408,,,130,18.3,22.5,,0,,,,,,1,wg-a,,,,AAXX 16064 07661 12800 51304 10220 20130 39999 40157 53008 60007 70192 85060 90600 333 10225 20183=
07661,1997-06-16 12:00:00,23,1016.3,0.2,73,18,20000,11.112,,,190,,,,,,,,,,,wg-a,,,,AAXX 16124 07661 12870 71906 10230 20180 30007 40163 51002 60006 87050 91200=
07661,1997-06-16 18:00:00,23,1013.7,-1.4,61,15,25000,7.408,,,250,20.9,24.2,,,,,,,,21,wg-a,,,,AAXX 16184 07661 02475 62504 10230 20150 39981 40137 58014 61000 72162 81440 91800 333 10242 20209 ////=
07661,1997-06-17 00:00:00,19,1015.6,-0.2,94,18,6000,7.408,,,290,,,,,,,,,,,wg-a,,,,AAXX 17004 07661 12856 72904 10190 20180 39998 40156 56002 60006 87060 90000=
07661,1997-06-17 06:00:00,20,1014.2,-0.1,83,17,6000,14.816,,,300,18.4,23.4,,,,,,,,,wg-a,,,,AAXX 17064 07661 12/56 43008 10200 20170 39984 40142 55001 60006 80002 90600 333 10234 20184=
07661,1997-06-17 12:00:00,26,1014.3,0,51,15,18000,29.632,,,300,,,,,,,,,,,wg-a,,,,AAXX 17124 07661 12568 63016 10260 20150 39988 40143 50000 60006 82232 91200=
07661,1997-06-17 18:00:00,23,1013.1,-0.5,61,15,20000,35.188,,53.708,290,19.8,28.7,,,,,,,,,wg-a,,,,AAXX 17184 07661 12/70 62919 10230 20150 39975 40131 55005 60006 82041 91800 333 10287 20198 91029=
07661,1997-06-18 00:00:00,22,1014.4,0.3,53,12,25000,22.224,,,300,,,,,,,,,,,wg-a,,,,AAXX 18004 07661 12/75 33012 10220 20120 39987 40144 51003 60006 83030 90000=
07661,1997-06-18 06:00:00,20,1013.3,0.5,60,12,25000,18.52,,,290,19.9,23.1,,,,,,,,,wg-a,,,,AAXX 18064 07661 12875 62910 10200 20120 39975 40133 53005 60006 85054 90600 333 10231 20199=
07661,1997-06-18 12:00:00,26,1011.9,-0.7,45,13,25000,29.632,,,280,,,,,,,,,,,wg-a,,,,AAXX 18124 07661 12/75 42816 10260 20130 39964 40119 58007 60006 83072 91200=
07661,1997-06-18 18:00:00,26,1009,-1.4,28,6,25000,31.484,,68.524,300,20.3,27.1,,,,,,,,,wg-a,,,,AAXX 18184 07661 12/75 73017 10260 20060 39935 40090 58014 60006 82072 91800 333 10271 20203 91037=
07661,1997-06-19 00:00:00,21,1010.2,0.5,73,16,14000,14.816,,,110,,,,,,,,,,,wg-a,,,,AAXX 19004 07661 12464 81108 10210 20160 39945 40102 50005 60006 887// 90000=
07661,1997-06-19 06:00:00,18,1008.5,1.6,88,16,12000,11.112,,,310,18.3,26.1,,1,,,,,,17,wg-a,,,,AAXX 19064 07661 12562 83106 10180 20160 39927 40085 53016 60017 71792 8396/ 90600 333 10261 20183=
07661,1997-06-19 12:00:00,21,1006.7,-0.5,64,14,24000,31.484,,57.412,290,,,,,,,,,,,wg-a,,,,AAXX 19124 07661 12/74 22917 10210 20140 39911 40067 58005 60026 80001 91200 333 91031=
07661,1997-06-19 18:00:00,23,1006.5,0.7,57,14,15000,35.188,,94.452,290,16.3,23.7,,,,,,,,,wg-a,,,,AAXX 19184 07661 32/65 42919 10230 20140 39909 40065 53007 80002 91800 333 10237 20163 91051=
07661,1997-06-20 00:00:00,20,1009.1,0.4,56,11,25000,35.188,,,300,,,,,,,,,,,wg-a,,,,AAXX 20004 07661 12/75 43019 10200 20110 39933 40091 53004 60006 80002 90000=
07661,1997-06-20 06:00:00,18,1010.1,1.3,64,11,25000,31.484,,64.82,290,17.9,23.4,,,,,,,,,wg-a,,,,AAXX 20064 07661 12/75 52917 10180 20110 39942 40101 53013 60006 80002 90600 333 10234 20179 91035=
07661,1997-06-20 12:00:00,21,1010.2,-0.1,56,12,500,42.596,,68.524,290,,,,,,,,,,,wg-a,,,,AAXX 20124 07661 12500 62923 10210 20120 39945 40102 58001 60006 82102 91200 333 91037=
07661,1997-06-20 18:00:00,20,1009.5,0.1,56,11,500,31.484,,68.524,290,18.1,22.1,,,,,,,,,wg-a,,,,AAXX 20184 07661 12/00 32917 10200 20110 39938 40095 53001 60006 80002 91800 333 10221 20181 91037=
07661,1997-06-21 00:00:00,17,1010.6,-0.2,77,13,25000,25.928,,,300,,,,,,,,,,,wg-a,,,,AAXX 21004 07661 12/75 13014 10170 20130 39947 40106 58002 60006 80002 90000=
07661,1997-06-21 06:00:00,17,1010.2,0.5,77,13,15000,14.816,,,90,16.1,20.3,,,,,,,,,wg-a,,,,AAXX 21064 07661 12465 60908 10170 20130 39943 40102 53005 60006 84550 90600 333 10203 20161=
07661,1997-06-21 12:00:00,22,1010.1,-0.1,88,20,6000,14.816,,,160,,,,,,,,,,,wg-a,,,,AAXX 21124 07661 12456 81608 10220 20200 39945 40101 58001 60006 8555/ 91200=
07661,1997-06-21 18:00:00,21,1007.5,-1,88,19,12000,18.52,,,120,16.7,22.7,,,,,,,,,wg-a,,,,AAXX 21184 07661 12462 41210 10210 20190 39919 40075 56010 60006 84201 91800 333 10227 20167=
07661,1997-06-22 00:00:00,19,1006.4,-1.4,94,18,10000,14.816,,,90,,,,,,,,,,,wg-a,,,,AAXX 22004 07661 12460 40908 10190 20180 39907 40064 58014 60006 84570 90000=
07661,1997-06-22 06:00:00,19,1005.3,0.4,73,14,500,25.928,,,300,18,20.6,,,,,,,,2,wg-a,,,,AAXX 22064 07661 12400 63014 10190 20140 39896 40053 53004 60006 70242 84630 90600 333 10206 20180=
07661,1997-06-22 12:00:00,20,1008.1,1.4,49,9,500,38.892,,,300,,,,,,,,,,,wg-a,,,,AAXX 22124 07661 12800 53021 10200 20090 39924 40081 53014 60006 8/070 91200=
07661,1997-06-22 18:00:00,19,1008.8,0.6,68,13,500,38.892,,75.932,290,18,22.2,,,,,,,,,wg-a,,,,AAXX 22184 07661 12500 52921 10190 20130 39930 40088 53006 60006 82260 91800 333 10222 20180 91041=
07661,1997-06-23 00:00:00,17,1011.5,1,55,8,500,38.892,,,310,,,,,,,,,,,wg-a,,,,AAXX 23004 07661 12/00 03121 10170 20080 39955 40115 51010 60006 80000 90000=
07661,1997-06-23 06:00:00,16,1012.1,0.9,59,8,500,35.188,,72.228,300,15.2,19.1,,,,,,,,,wg-a,,,,AAXX 23064 07661 12800 13019 10160 20080 39961 40121 53009 60006 81040 90600 333 10191 20152 91039=
07661,1997-06-23 12:00:00,20,1011.9,0.1,56,11,500,57.412,,90.748,290,,,,,,,,,,,wg-a,,,,AAXX 23124 07661 12600 22931 10200 20110 39961 40119 50001 60006 82100 91200 333 91049=
07661,1997-06-23 18:00:00,20,1011.4,-0.3,60,12,500,50.004,,96.304,290,16,20.8,,,,,,,,,wg-a,,,,AAXX 23184 07661 12600 22927 10200 20120 39956 40114 55003 60006 82100 91800 333 10208 20160 91052=
07661,1997-06-24 00:00:00,19,1013.7,0.3,52,9,25000,35.188,,94.452,300,,,,,,,,,,,wg-a,,,,AAXX 24004 07661 12/75 03019 10190 20090 39978 40137 51003 60006 80000 90000 333 91051=
07661,1997-06-24 06:00:00,17,1013.3,0.1,59,9,25000,46.3,,72.228,290,16.8,20.5,,,,,,,,,wg-a,,,,AAXX 24064 07661 12/75 02925 10170 20090 39973 40133 50001 60006 80000 90600 333 10205 20168 91039=
07661,1997-06-24 12:00:00,22,1011.4,-1.2,50,11,25000,57.412,,100.008,290,,,,,,,,,,,wg-a,,,,AAXX 24124 07661 12475 12931 10220 20110 39957 40114 58012 60006 81100 91200 333 91054=
07661,1997-06-24 18:00:00,23,1009.8,-1,31,5,35000,61.116,,94.452,300,17.2,24.4,,,,,,,,,wg-a,,,,AAXX 24184 07661 12481 43033 10230 20050 39942 40098 56010 60006 81102 91800 333 10244 20172 91051=
07661,1997-06-25 00:00:00,18,1011.9,0.8,39,4,20000,11.112,,90.748,260,,,,,,,,,,,wg-a,,,,AAXX 25004 07661 12/70 02606 10180 20040 39960 40119 51008 60006 80000 90000 333 91049=
07661,1997-06-25 06:00:00,18,1011.9,0.2,49,7,35000,3.704,,,30,15.2,23.4,,,,,,,,,wg-a,,,,AAXX 25064 07661 12/81 00302 10180 20070 39960 40119 51002 60006 80000 90600 333 10234 20152=
07661,1997-06-25 12:00:00,22,1011.3,-0.3,46,10,500,25.928,,,300,,,,,,,,,,,wg-a,,,,AAXX 25124 07661 12400 63014 10220 20100 39956 40113 58003 60006 82272 91200=
07661,1997-06-25 18:00:00,19,1009.4,-0.6,60,11,500,25.928,,53.708,280,18.3,23.2,,,,,,,,,wg-a,,,,AAXX 25184 07661 12400 72814 10190 20110 39936 40094 57006 60006 81278 91800 333 10232 20183 91029=
07661,1997-06-26 00:00:00,18,1008.5,-1.5,77,14,20000,11.112,,,290,,,,,,,,,,,wg-a,,,,AAXX 26004 07661 12870 72906 10180 20140 39926 40085 58015 60006 8707/ 90000=
07661,1997-06-26 06:00:00,18,1005.8,-0.9,88,16,10000,7.408,,,220,17,18.9,,,,,,,,,wg-a,,,,AAXX 26064 07661 12460 82204 10180 20160 39900 40058 56009 60006 886// 90600 333 10189 20170=
07661,1997-06-26 12:00:00,19,1003.4,-1.4,100,19,0,7.408,,,220,,,,,,,,,,,wg-a,,,,AAXX 26124 07661 12/// /2204 10190 20190 39878 40034 56014 60126 91200=
07661,1997-06-26 18:00:00,19,1001.9,-0.6,68,13,10000,22.224,,,280,17.6,21.1,,,,,,,,2,wg-a,,,,AAXX 26184 07661 32460 82812 10190 20130 39862 40019 56006 70242 8227/ 91800 333 10211 20176=
07661,1997-06-27 00:00:00,17,1002.9,0.6,82,14,10000,22.224,,,270,,,,,,,,,,60,wg-a,,,,AAXX 27004 07661 02560 82712 10170 20140 39871 40029 53006 61000 76022 8/230 90000 333 6100=
07661,1997-06-27 06:00:00,14,1002.7,0.8,94,13,10000,25.928,,,300,13.9,19.2,,4,,,,,,61,wg-a,,,,AAXX 27064 07661 12560 83014 10140 20130 39867 40027 53008 60047 76166 887// 90600 333 10192 20139=
07661,1997-06-27 12:00:00,19,1003.7,1,60,11,25000,18.52,,,290,,,,,,,,,,21,wg-a,,,,AAXX 27124 07661 02375 62910 10190 20110 39880 40037 51010 60016 72162 81672 91200 333 61000=
07661,1997-06-27 18:00:00,18,1004,0.5,64,11,25000,29.632,,,290,13.9,20.9,,,,,,,,,wg-a,,,,AAXX 27184 07661 32/75 62916 10180 20110 39882 40040 53005 86070 91800 333 10209 20139=
07661,1997-06-28 06:00:00,18,1006.4,0.5,56,9,35000,11.112,,,110,13.8,17.9,,,,,,,,,wg-a,,,,AAXX 28064 07661 12/81 21106 10180 20090 39906 40064 53005 60006 82030 90600 333 10179 20138=
07661,1997-06-28 12:00:00,20,1007.5,-0.2,73,15,25000,7.408,,,150,,,,,,,,,,,wg-a,,,,AAXX 28124 07661 12875 61504 10200 20150 39918 40075 58002 60006 86070 91200=
07661,1997-06-28 18:00:00,19,1006.6,-0.1,83,16,25000,25.928,,,80,18,20.6,,,,,,,,,wg-a,,,,AAXX 28184 07661 12575 70814 10190 20160 39909 40066 58001 60006 81172 91800 333 10206 20180=
07661,1997-06-29 00:00:00,18,1007.7,0.7,88,16,10000,22.224,,,110,,,,,,,,,,,wg-a,,,,AAXX 29004 07661 02460 71112 10180 20160 39919 40077 53007 60016 8377/ 90000 333 61000=
07661,1997-06-29 06:00:00,19,1005.9,-0,88,17,15000,22.224,,,180,16.6,19.3,,,,,,,,21,wg-a,,,,AAXX 29064 07661 02465 61812 10190 20170 39902 40059 55000 61000 72162 83260 90600 333 10193 20166 ////=
07661,1997-06-29 12:00:00,21,1007.5,1,60,13,25000,25.928,,,240,,,,,,,,,,,wg-a,,,,AAXX 29124 07661 02575 42414 10210 20130 39918 40075 51010 61000 84200 91200 333 ////=
07661,1997-06-29 18:00:00,17,1008.7,0.6,63,10,40000,29.632,,,260,17,21.3,,,,,,,,,wg-a,,,,AAXX 29184 07661 32582 42616 10170 20100 39928 40087 52006 82963 91800 333 10213 20170=
07661,1997-06-30 00:00:00,16,1010.2,0.3,72,11,25000,31.484,,75.932,300,,,,0,,,,,,,wg-a,,,,AAXX 30004 07661 02875 13017 10160 20110 39942 40102 53003 60006 81040 90000 333 60007 91041=
07661,1997-06-30 06:00:00,15,1011.3,1.1,77,11,500,31.484,,,300,14.4,17.9,,,,,,,,,wg-a,,,,AAXX 30064 07661 32800 23017 10150 20110 39953 40113 53011 82050 90600 333 10179 20144=
07661,1997-06-30 12:00:00,19,1012.7,0.8,60,11,25000,35.188,,53.708,290,,,,,,,,,,,wg-a,,,,AAXX 30124 07661 12575 52919 10190 20110 39968 40127 52008 60006 83202 91200 333 91029=
07661,1997-06-30 18:00:00,19,1012.8,0.7,64,12,25000,22.224,,61.116,270,15.3,20.9,,,,,,,,,wg-a,,,,AAXX 30184 07661 12575 32712 10190 20120 39969 40128 53007 60006 82202 91800 333 10209 20153 91033=
07661,1997-07-01 00:00:00,16,1014.1,-0,82,13,25000,18.52,,,290,,,,,,,,,,,wg-a,,,,AAXX 01004 07661 12/75 02910 10160 20130 39980 40141 55000 60006 80000 90000=
07661,1997-07-01 06:00:00,17,1014.3,0.9,72,12,25000,22.224,,,300,14.8,18.7,,,,,,,,,wg-a,,,,AAXX 01064 07661 12/75 03012 10170 20120 39983 40143 53009 60006 80000 90600 333 10187 20148=
07661,1997-07-01 12:00:00,23,1015.3,0.4,50,12,35000,22.224,,,280,,,,,,,,,,,wg-a,,,,AAXX 01124 07661 12581 52812 10230 20120 39996 40153 50004 60006 82102 91200=
07661,1997-07-01 18:00:00,21,1015.1,-0,53,11,25000,14.816,,,260,16.6,22.7,,,,,,,,,wg-a,,,,AAXX 01184 07661 12/75 32608 10210 20110 39993 40151 55000 60006 80002 91800 333 10227 20166=
07661,1997-07-02 06:00:00,17,1014.2,-0.6,68,11,20000,29.632,,,70,14.6,20.7,,,,,,,,,wg-a,,,,AAXX 02064 07661 12/70 60716 10170 20110 39982 40142 58006 60006 86070 90600 333 10207 20146=
07661,1997-07-02 12:00:00,17,1014.4,0,88,15,15000,42.596,,,80,,,,0,,,,,,61,wg-a,,,,AAXX 02124 07661 02365 80823 10170 20150 39984 40144 50000 60016 76162 8372/ 91200 333 60007=
07661,1997-07-02 18:00:00,18,1014.4,-0.4,83,15,10000,31.484,,,70,16.5,18.5,,,,,,,,2,wg-a,,,,AAXX 02184 07661 32460 70717 10180 20150 39985 40144 55004 70262 85824 91800 333 10185 20165=
07661,1997-07-03 00:00:00,17,1015.7,-0.6,82,14,12000,18.52,,,80,,,,,,,,,,,wg-a,,,,AAXX 03004 07661 12462 80810 10170 20140 39997 40157 56006 60006 887// 90000=
07661,1997-07-03 06:00:00,17,1015.9,0.5,94,16,15000,14.816,,,60,15.5,18.2,,5,,,,,,60,wg-a,,,,AAXX 03064 07661 12465 70608 10170 20160 39999 40159 51005 60057 76066 8327/ 90600 333 10182 20155=
07661,1997-07-03 12:00:00,19,1017,-0.6,88,17,15000,14.816,,,320,,,,0,,,,,,21,wg-a,,,,AAXX 03124 07661 02465 73208 10190 20170 30011 40170 58006 60016 72162 8237/ 91200 333 60007=
07661,1997-07-03 18:00:00,21,1016.2,-0.2,69,15,500,3.704,,,290,16.4,23.6,,,,,,,,,wg-a,,,,AAXX 03184 07661 32800 22902 10210 20150 30004 40162 57002 82030 91800 333 10236 20164=
07661,1997-07-04 00:00:00,19,1018,0.3,68,13,20000,11.112,,,300,,,,,,,,,,,wg-a,,,,AAXX 04004 07661 12870 63006 10190 20130 30020 40180 50003 60006 86070 90000=
07661,1997-07-04 06:00:00,19,1018.3,1.7,68,13,15000,3.704,,,60,16.9,21.9,,,,,,,,,wg-a,,,,AAXX 04064 07661 12865 60602 10190 20130 30023 40183 53017 60006 86030 90600 333 10219 20169=
07661,1997-07-04 12:00:00,22,1018.6,0,69,16,20000,18.52,,,220,,,,,,,,,,,wg-a,,,,AAXX 04124 07661 12470 52210 10220 20160 30028 40186 50000 60006 83242 91200=
07661,1997-07-04 18:00:00,21,1017.9,-0.5,56,12,20000,18.52,,,290,18.5,23.8,,,,,,,,,wg-a,,,,AAXX 04184 07661 12470 52910 10210 20120 30021 40179 55005 60006 82232 91800 333 10238 20185=
07661,1997-07-05 00:00:00,18,1018.1,-0.9,77,14,20000,42.596,,,300,,,,,,,,,,,wg-a,,,,AAXX 05004 07661 12870 53023 10180 20140 30021 40181 56009 60006 85070 90000=
07661,1997-07-05 06:00:00,17,1019.1,0.5,72,12,500,35.188,,,300,15.2,20.6,,,,,,,,,wg-a,,,,AAXX 05064 07661 12600 13019 10170 20120 30030 40191 52005 60006 81100 90600 333 10206 20152=
07661,1997-07-05 12:00:00,21,1017.9,-0.6,49,10,40000,50.004,,87.044,300,,,,,,,,,,,wg-a,,,,AAXX 05124 07661 12682 23027 10210 20100 30021 40179 58006 60006 82200 91200 333 91047=
07661,1997-07-05 18:00:00,22,1017.1,-0,41,8,40000,57.412,,96.304,310,16.5,23,,,,,,,,,wg-a,,,,AAXX 05184 07661 12682 23131 10220 20080 30013 40171 54000 60006 82200 91800 333 10230 20165 91052=
07661,1997-07-06 00:00:00,17,1017.7,-1.1,55,8,500,50.004,,87.044,310,,,,,,,,,,,wg-a,,,,AAXX 06004 07661 12/00 03127 10170 20080 30017 40177 58011 60006 80000 90000 333 91047=
07661,1997-07-06 06:00:00,17,1017.7,0.6,63,10,20000,22.224,,,290,15.8,22,,,,,,,,,wg-a,,,,AAXX 06064 07661 12/70 02912 10170 20100 30017 40177 53006 60006 80000 90600 333 10220 20158=
07661,1997-07-06 12:00:00,27,1017.6,-0.4,39,12,35000,14.816,,,270,,,,,,,,,,,wg-a,,,,AAXX 06124 07661 12681 12708 10270 20120 30021 40176 58004 60006 81100 91200=
07661,1997-07-06 18:00:00,24,1016.7,-0.3,47,12,35000,11.112,,,100,17.5,27.6,,,,,,,,,wg-a,,,,AAXX 06184 07661 12/81 01006 10240 20120 30010 40167 57003 60006 80000 91800 333 10276 20175=
07661,1997-07-07 00:00:00,20,1017.3,-0.4,53,10,500,22.224,,,90,,,,,,,,,,,wg-a,,,,AAXX 07004 07661 12/00 00912 10200 20100 30014 40173 56004 60006 80000 90000=
07661,1997-07-07 06:00:00,20,1016.7,0.2,68,14,20000,3.704,,,80,17.1,23.6,,,,,,,,,wg-a,,,,AAXX 07064 07661 12/70 00802 10200 20140 30008 40167 50002 60006 80000 90600 333 10236 20171=
07661,1997-07-07 12:00:00,23,1016.4,0.2,53,13,20000,11.112,,,200,,,,,,,,,,,wg-a,,,,AAXX 07124 07661 12470 22006 10230 20130 30007 40164 53002 60006 82200 91200=
07661,1997-07-07 18:00:00,24,1015.8,-0.3,34,7,20000,3.704,,,190,19.8,25.4,,,,,,,,,wg-a,,,,AAXX 07184 07661 12/70 11902 10240 20070 30001 40158 56003 60006 80001 91800 333 10254 20198=
07661,1997-07-08 00:00:00,19,1016.3,-0.1,49,8,20000,14.816,,,90,,,,,,,,,,,wg-a,,,,AAXX 08004 07661 12/70 00908 10190 20080 30004 40163 58001 60006 80000 90000=
07661,1997-07-08 06:00:00,19,1015.6,-0.3,52,9,500,18.52,,,70,16.9,24,,,,,,,,,wg-a,,,,AAXX 08064 07661 12/00 00710 10190 20090 39997 40156 56003 60006 80000 90600 333 10240 20169=
07661,1997-07-08 12:00:00,25,1015.7,-0.1,61,17,12000,11.112,,,200,,,,,,,,,,,wg-a,,,,AAXX 08124 07661 12462 22006 10250 20170 30001 40157 58001 60006 82200 91200=
07661,1997-07-08 18:00:00,22,1014.2,-0.9,60,14,14000,14.816,,,230,19.4,25.1,,,,,,,,,wg-a,,,,AAXX 08184 07661 12/64 02308 10220 20140 39985 40142 56009 60006 80000 91800 333 10251 20194=
07661,1997-07-09 00:00:00,18,1014.6,-0.4,77,14,14000,3.704,,,20,,,,,,,,,,,wg-a,,,,AAXX 09004 07661 12/64 00202 10180 20140 39987 40146 58004 60006 80000 90000=
07661,1997-07-09 06:00:00,18,1014.6,0.6,77,14,12000,18.52,,,80,16.1,22.6,,,,,,,,,wg-a,,,,AAXX 09064 07661 12/62 10810 10180 20140 39987 40146 52006 60006 80001 90600 333 10226 20161=
07661,1997-07-09 12:00:00,22,1014.8,-0.2,73,17,12000,22.224,,,170,,,,,,,,,,,wg-a,,,,AAXX 09124 07661 12562 31712 10220 20170 39991 40148 58002 60006 81202 91200=
07661,1997-07-09 18:00:00,21,1013.9,-0.3,83,18,10000,11.112,,,220,17.8,23.5,,,,,,,,,wg-a,,,,AAXX 09184 07661 12/60 22206 10210 20180 39982 40139 55003 60006 81031 91800 333 10235 20178=
07661,1997-07-10 00:00:00,18,1013.9,-0.3,94,17,10000,0,,,0,,,,,,,,,,,wg-a,,,,AAXX 10004 07661 12/60 50000 10180 20170 39980 40139 56003 60006 83032 90000=
07661,1997-07-10 06:00:00,18,1013.5,0.3,88,16,8000,18.52,,,80,16.6,20.9,,,,,,,,,wg-a,,,,AAXX 10064 07661 12358 50810 10180 20160 39976 40135 51003 60006 84632 90600 333 10209 20166=
07661,1997-07-10 12:00:00,23,1013.9,0.3,69,17,6000,11.112,,,150,,,,,,,,,,1,wg-a,,,,AAXX 10124 07661 02356 61506 10230 20170 39983 40139 50003 61000 70162 83632 91200 333 6100=
07661,1997-07-10 18:00:00,22,1013.7,0.7,83,19,8000,14.816,,,220,17.7,24,,,,,,,,,wg-a,,,,AAXX 10184 07661 32558 22208 10220 20190 39980 40137 53007 82300 91800 333 10240 20177=
07661,1997-07-11 00:00:00,18,1014,-0.6,94,17,10000,18.52,,,300,,,,0,,,,,,,wg-a,,,,AAXX 11004 07661 02/60 03010 10180 20170 39981 40140 58006 60006 80000 90000 333 60007=
07661,1997-07-11 06:00:00,19,1013.3,0.2,88,17,8000,11.112,,,290,17.6,21.5,,,,,,,,,wg-a,,,,AAXX 11064 07661 32858 52906 10190 20170 39975 40133 52002 85030 90600 333 10215 20176=
07661,1997-07-11 12:00:00,24,1013.2,0,69,18,8000,29.632,,,300,,,,,,,,,,,wg-a,,,,AAXX 11124 07661 12458 43016 10240 20180 39976 40132 50000 60006 83901 91200=
07661,1997-07-12 06:00:00,20,1014.7,1,83,17,8000,3.704,,,50,17.8,23.8,,,,,,,,,wg-a,,,,AAXX 12064 07661 12458 10502 10200 20170 39989 40147 51010 60006 81100 90600 333 10238 20178=
07661,1997-07-12 12:00:00,24,1015.7,0.3,65,17,8000,18.52,,,220,,,,,,,,,,,wg-a,,,,AAXX 12124 07661 12458 22210 10240 20170 30001 40157 51003 60006 82101 91200=
07661,1997-07-12 18:00:00,23,1015.3,-0.3,61,15,10000,25.928,,53.708,280,20.4,26.2,,,,,,,,,wg-a,,,,AAXX 12184 07661 12460 42814 10230 20150 39996 40153 55003 60006 81101 91800 333 10262 20204 91029=
07661,1997-07-13 00:00:00,20,1016.8,0.1,73,15,8000,25.928,,,270,,,,,,,,,,,wg-a,,,,AAXX 13004 07661 12/58 02714 10200 20150 30009 40168 53001 60006 80000 90000=
07661,1997-07-13 06:00:00,20,1017.3,0.7,83,17,6000,7.408,,,120,17,22.8,,,,,,,,,wg-a,,,,AAXX 13064 07661 12156 41204 10200 20170 30015 40173 53007 60006 84600 90600 333 10228 20170=
07661,1997-07-13 12:00:00,22,1017.7,-0.5,83,19,6000,18.52,,,220,,,,,,,,,,,wg-a,,,,AAXX 13124 07661 12556 12210 10220 20190 30020 40177 58005 60006 81101 91200=
07661,1997-07-13 18:00:00,22,1016.7,-0.6,78,18,6000,14.816,,,260,20.1,24.4,,,,,,,,,wg-a,,,,AAXX 13184 07661 12156 32608 10220 20180 30010 40167 58006 60006 83600 91800 333 10244 20201=
07661,1997-07-14 00:00:00,20,1017.5,-0.3,83,17,10000,3.704,,,110,,,,,,,,,,,wg-a,,,,AAXX 14004 07661 12/60 01102 10200 20170 30016 40175 58003 60006 80000 90000=
07661,1997-07-14 06:00:00,18,1018.5,0.5,94,17,600,3.704,,,310,17.5,22.5,,,,,,,,44,wg-a,,,,AAXX 14064 07661 12106 63102 10180 20170 30025 40185 53005 60006 74441 86600 90600 333 10225 20175=
07661,1997-07-14 12:00:00,23,1019.3,0,78,19,1500,7.408,,,210,,,,,,,,,,10,wg-a,,,,AAXX 14124 07661 12115 22104 10230 20190 30036 40193 50000 60006 71042 81601 91200=
07661,1997-07-14 18:00:00,25,1017.1,-1.3,54,15,12000,29.632,,,280,18,26.9,,,,,,,,,wg-a,,,,AAXX 14184 07661 12462 22816 10250 20150 30015 40171 56013 60006 81630 91800 333 10269 20180=
07661,1997-07-15 00:00:00,25,1017.8,-0.5,54,15,15000,14.816,,,290,,,,,,,,,,,wg-a,,,,AAXX 15004 07661 12/65 22908 10250 20150 30022 40178 58005 60006 80002 90000=
07661,1997-07-15 06:00:00,25,1017.2,-0.5,50,14,15000,14.816,,,310,20.5,25,,,,,,,,,wg-a,,,,AAXX 15064 07661 12/65 33108 10250 20140 30016 40172 55005 60006 81031 90600 333 10250 20205=
07661,1997-07-15 12:00:00,32,1015.9,-1.6,23,8,25000,31.484,,50.004,280,,,,,,,,,,,wg-a,,,,AAXX 15124 07661 12875 42817 10320 20080 30006 40159 57016 60006 82021 91200 333 91027=
07661,1997-07-15 18:00:00,23,1016.3,-0.2,83,20,8000,14.816,,64.82,150,22.5,32.7,,,,,,,,,wg-a,,,,AAXX 15184 07661 12858 41508 10230 20200 30006 40163 55002 60006 83021 91800 333 10327 20225 91035=
07661,1997-07-16 00:00:00,21,1016.4,0,88,19,2000,11.112,,,60,,,,,,,,,,10,wg-a,,,,AAXX 16004 07661 12/20 00606 10210 20190 30006 40164 50000 60006 71011 80000 90000=
07661,1997-07-16 06:00:00,22,1015.3,-1.1,73,17,15000,31.484,,,70,19,22.8,,,,,,,,,wg-a,,,,AAXX 16064 07661 12865 30717 10220 20170 39996 40153 58011 60006 81071 90600 333 10228 20190=
07661,1997-07-16 12:00:00,26,1015.1,-2.4,45,13,25000,31.484,,,80,,,,,,,,,,,wg-a,,,,AAXX 16124 07661 12875 80817 10260 20130 39996 40151 56024 60006 8802/ 91200=
07661,1997-07-16 18:00:00,25,1013.7,-1.9,69,19,15000,22.224,,,70,22.1,28.1,,,,,,,,,wg-a,,,,AAXX 16184 07661 12865 60712 10250 20190 39982 40137 56019 60006 85011 91800 333 10281 20221=
07661,1997-07-17 00:00:00,23,1012.7,-0.6,65,16,15000,35.188,,57.412,80,,,,,,,,,,,wg-a,,,,AAXX 17004 07661 12/65 00819 10230 20160 39971 40127 58006 60006 80000 90000 333 91031=
07661,1997-07-17 06:00:00,22,1010.5,-0.6,88,20,12000,25.928,,,90,21.5,25.6,,,,,,,,,wg-a,,,,AAXX 17064 07661 12462 80914 10220 20200 39949 40105 56006 60006 8117/ 90600 333 10256 20215=
07661,1997-07-17 12:00:00,25,1011,0,79,21,0,11.112,,,210,,,,,,,,,,,wg-a,,,,AAXX 17124 07661 12/// /2106 10250 20210 39955 40110 50000 60006 91200=
07661,1997-07-17 18:00:00,21,1009.6,-0.7,83,18,7000,35.188,,57.412,290,20.9,25.3,,,,,,,,,wg-a,,,,AAXX 17184 07661 32457 62919 10210 20180 39939 40096 55007 8683/ 91800 333 10253 20209 91031=
07661,1997-07-18 00:00:00,21,1008.7,-0.9,83,18,0,46.3,,,300,,,,,,,,,,,wg-a,,,,AAXX 18004 07661 12/// /3025 10210 20180 39931 40087 58009 60006 90000=
07661,1997-07-18 06:00:00,22,1008.2,-0.8,57,13,18000,64.82,,94.452,300,20.2,21.8,,,,,,,,,wg-a,,,,AAXX 18064 07661 12/68 23035 10220 20130 39926 40082 55008 60006 80001 90600 333 10218 20202 91051=
07661,1997-07-18 12:00:00,22,1010.5,0.6,57,13,25000,68.524,,100.008,290,,,,,,,,,,,wg-a,,,,AAXX 18124 07661 12475 32937 10220 20130 39948 40105 53006 60006 82202 91200 333 91054=
07661,1997-07-18 18:00:00,25,1010.9,0.3,32,7,500,53.708,,111.12,310,21.3,26.4,,,,,,,,,wg-a,,,,AAXX 18184 07661 12/00 13129 10250 20070 39954 40109 53003 60006 81080 91800 333 10264 20213 91060=
07661,1997-07-19 00:00:00,20,1013.1,0.2,43,7,25000,53.708,,87.044,310,,,,,,,,,,,wg-a,,,,AAXX 19004 07661 12/75 03129 10200 20070 39973 40131 50002 60006 80000 90000 333 91047=
07661,1997-07-19 06:00:00,19,1013.3,0.4,49,8,500,35.188,,,310,18.5,25.3,,,,,,,,,wg-a,,,,AAXX 19064 07661 12/00 03119 10190 20080 39974 40133 50004 60006 80000 90600 333 10253 20185=
07661,1997-07-19 12:00:00,25,1013.2,-0.5,41,11,25000,46.3,,68.524,280,,,,,,,,,,,wg-a,,,,AAXX 19124 07661 12/75 02825 10250 20110 39976 40132 58005 60006 80000 91200 333 91037=
07661,1997-07-19 18:00:00,25,1012.9,-0,41,11,500,35.188,,83.34,310,19.5,27,,,,,,,,,wg-a,,,,AAXX 19184 07661 12400 13119 10250 20110 39973 40129 55000 60006 81100 91800 333 10270 20195 91045=
07661,1997-07-20 00:00:00,20,1015,0.4,56,11,500,3.704,,64.82,330,,,,,,,,,,,wg-a,,,,AAXX 20004 07661 12/00 03302 10200 20110 39991 40150 51004 60006 80000 90000 333 91035=
07661,1997-07-20 06:00:00,20,1015.2,0.6,56,11,35000,7.408,,,70,18.5,24.8,,,,,,,,,wg-a,,,,AAXX 20064 07661 12/81 10704 10200 20110 39994 40152 53006 60006 80001 90600 333 10248 20185=
07661,1997-07-20 12:00:00,27,1015.7,-0.2,39,12,35000,7.408,,,200,,,,,,,,,,,wg-a,,,,AAXX 20124 07661 12581 52004 10270 20120 30002 40157 58002 60006 81141 91200=
07661,1997-07-20 18:00:00,23,1013.8,-1,61,15,35000,11.112,,,210,20.5,26.7,,,,,,,,,wg-a,,,,AAXX 20184 07661 12581 22106 10230 20150 39981 40138 56010 60006 81101 91800 333 10267 20205=
07661,1997-07-21 00:00:00,19,1014.3,-0.2,78,15,15000,25.928,,,80,,,,,,,,,,,wg-a,,,,AAXX 21004 07661 12/65 00814 10190 20150 39984 40143 58002 60006 80000 90000=
07661,1997-07-21 06:00:00,22,1014.6,0.3,60,14,20000,7.408,,,80,17.3,22.8,,,,,,,,,wg-a,,,,AAXX 21064 07661 12/70 10804 10220 20140 39989 40146 53003 60006 80001 90600 333 10228 20173=
07661,1997-07-21 12:00:00,25,1016.1,0.7,57,16,18000,14.816,,,210,,,,,,,,,,,wg-a,,,,AAXX 21124 07661 12/68 12108 10250 20160 30005 40161 51007 60006 80001 91200=
07661,1997-07-21 18:00:00,23,1015.3,-0.6,65,16,18000,11.112,,,210,21.5,25.4,,,,,,,,,wg-a,,,,AAXX 21184 07661 12/68 12106 10230 20160 39996 40153 56006 60006 80001 91800 333 10254 20215=
07661,1997-07-22 00:00:00,18,1016.5,-0.2,88,16,20000,3.704,,,70,,,,,,,,,,,wg-a,,,,AAXX 22004 07661 12/70 00702 10180 20160 30006 40165 58002 60006 80000 90000=
07661,1997-07-22 06:00:00,19,1017.6,1.2,73,14,18000,14.816,,,100,16,22.8,,,,,,,,,wg-a,,,,AAXX 22064 07661 12/68 11008 10190 20140 30017 40176 51012 60006 80001 90600 333 10228 20160=
07661,1997-07-22 12:00:00,23,1017.6,0.4,78,19,10000,18.52,,,140,,,,,,,,,,,wg-a,,,,AAXX 22124 07661 12/60 21410 10230 20190 30019 40176 51004 60006 80002 91200=
07661,1997-07-22 18:00:00,22,1017.1,-0.5,83,19,15000,18.52,,,110,18.3,24.4,,,,,,,,,wg-a,,,,AAXX 22184 07661 12/65 51110 10220 20190 30014 40171 58005 60006 83082 91800 333 10244 20183=
07661,1997-07-23 00:00:00,21,1017.3,0,73,16,10000,25.928,,,70,,,,,,,,,,,wg-a,,,,AAXX 23004 07661 12/60 30714 10210 20160 30015 40173 50000 60006 80002 90000=
07661,1997-07-23 06:00:00,21,1016.7,0.4,78,17,18000,22.224,,,70,18.9,22,,,,,,,,,wg-a,,,,AAXX 23064 07661 12/68 10712 10210 20170 30009 40167 53004 60006 80001 90600 333 10220 20189=
07661,1997-07-23 12:00:00,26,1016.4,-0.6,54,16,20000,29.632,,57.412,110,,,,,,,,,,,wg-a,,,,AAXX 23124 07661 12/70 31116 10260 20160 30009 40164 56006 60006 82038 91200 333 91031=
07661,1997-07-23 18:00:00,24,1015.2,-0.4,61,16,25000,14.816,,50.004,100,21.3,27.1,,,,,,,,21,wg-a,,,,AAXX 23184 07661 02675 71008 10240 20160 39996 40152 58004 61000 72111 87700 91800 333 10271 20213 //// 91027=
07661,1997-07-24 00:00:00,24,1016.4,1.5,50,13,20000,14.816,,,150,,,,,,,,,,,wg-a,,,,AAXX 24004 07661 12/70 61508 10240 20130 30008 40164 53015 60006 81062 90000=
07661,1997-07-24 06:00:00,23,1015.6,2.4,57,14,0,14.816,,,240,20.4,24.9,,,,,,,,,wg-a,,,,AAXX 24064 07661 12/// /2408 10230 20140 39999 40156 53024 60006 90600 333 10249 20204=
07661,1997-07-24 12:00:00,28,1014.6,0.1,45,15,15000,22.224,,,220,,,,,,,,,,,wg-a,,,,AAXX 24124 07661 12565 32212 10280 20150 39992 40146 53001 60006 81270 91200=
07661,1997-07-24 18:00:00,25,1011.4,-1.1,69,19,13000,42.596,,75.932,290,23.2,29.1,,,,,,,,,wg-a,,,,AAXX 24184 07661 12463 52923 10250 20190 39959 40114 55011 60006 81963 91800 333 10291 20232 91041=
07661,1997-07-25 00:00:00,23,1011.8,-1,69,17,12000,53.708,,,300,,,,,,,,,,,wg-a,,,,AAXX 25004 07661 12/62 23029 10230 20170 39962 40118 58010 60006 82040 90000=
07661,1997-07-25 06:00:00,22,1012.4,1.1,53,12,15000,46.3,,,300,21.4,25.3,,,,,,,,,wg-a,,,,AAXX 25064 07661 12/65 33025 10220 20120 39967 40124 51011 60006 83040 90600 333 10253 20214=
07661,1997-07-25 12:00:00,27,1011.8,-0.4,39,12,18000,53.708,,87.044,300,,,,,,,,,,,wg-a,,,,AAXX 25124 07661 12/68 73029 10270 20120 39964 40118 58004 60006 86048 91200 333 91047=
07661,1997-07-25 18:00:00,27,1008.8,-0.6,39,12,20000,90.748,,122.232,310,21.8,28,,,,,,,,,wg-a,,,,AAXX 25184 07661 12/70 63149 10270 20120 39934 40088 56006 60006 80004 91800 333 10280 20218 91066=
07661,1997-07-26 00:00:00,23,1012.8,2.2,53,13,25000,57.412,,125.936,310,,,,,,,,,,,wg-a,,,,AAXX 26004 07661 12/75 03131 10230 20130 39972 40128 53022 60006 80000 90000 333 91068=
07661,1997-07-26 06:00:00,24,1012.6,1.2,50,13,35000,31.484,,90.748,280,22.8,26.5,,,,,,,,,wg-a,,,,AAXX 26064 07661 32/81 32817 10240 20130 39970 40126 52012 80002 90600 333 10265 20228 91049=
07661,1997-07-26 12:00:00,29,1010.9,-0.5,40,14,25000,53.708,,79.636,300,,,,,,,,,,,wg-a,,,,AAXX 26124 07661 12/75 03029 10290 20140 39956 40109 56005 60006 80000 91200 333 91043=
07661,1997-07-26 18:00:00,26,1012.4,1.5,54,16,12000,11.112,,87.044,160,23.7,31.8,,,,,,,,4,wg-a,,,,AAXX 26184 07661 12/62 31606 10260 20160 39969 40124 53015 60006 70400 80004 91800 333 10318 20237 91047=
07661,1997-07-27 00:00:00,23,1014.6,0.4,69,17,25000,3.704,,,270,,,,,,,,,,,wg-a,,,,AAXX 27004 07661 12/75 02702 10230 20170 39989 40146 52004 60006 80000 90000=
07661,1997-07-27 06:00:00,24,1016.2,1,50,13,20000,7.408,,,100,20.9,25.3,,,,,,,,,wg-a,,,,AAXX 27064 07661 12/70 21004 10240 20130 30006 40162 53010 60006 80001 90600 333 10253 20209=
07661,1997-07-27 12:00:00,26,1018.2,0.7,70,20,8000,11.112,,,220,,,,,,,,,,,wg-a,,,,AAXX 27124 07661 12/58 42206 10260 20200 30027 40182 50007 60006 83072 91200=
07661,1997-07-27 18:00:00,26,1016.8,-0.8,54,16,12000,7.408,,,260,23.5,29.4,,,,,,,,,wg-a,,,,AAXX 27184 07661 12/62 62604 10260 20160 30013 40168 56008 60006 82062 91800 333 10294 20235=
07661,1997-07-28 00:00:00,22,1017,-0.5,69,16,12000,0,,,0,,,,,,,,,,,wg-a,,,,AAXX 28004 07661 12/62 30000 10220 20160 30013 40170 58005 60006 80002 90000=
07661,1997-07-28 06:00:00,22,1017.7,1,73,17,10000,25.928,,,80,19.8,26.6,,,,,,,,,wg-a,,,,AAXX 28064 07661 12/60 20814 10220 20170 30020 40177 53010 60006 80004 90600 333 10266 20198=
07661,1997-07-28 12:00:00,27,1019.1,0.5,66,20,15000,18.52,,,100,,,,,,,,,,,wg-a,,,,AAXX 28124 07661 12565 31010 10270 20200 30036 40191 51005 60006 82104 91200=
07661,1997-07-28 18:00:00,23,1018.7,0.1,83,20,12000,11.112,,,160,22.4,26.6,,,,,,,,,wg-a,,,,AAXX 28184 07661 12462 31606 10230 20200 30030 40187 53001 60006 82201 91800 333 10266 20224=
07661,1997-07-29 00:00:00,22,1018.7,-0.8,88,20,12000,7.408,,,220,,,,,,,,,,,wg-a,,,,AAXX 29004 07661 12/62 02204 10220 20200 30029 40187 58008 60006 80000 90000=
07661,1997-07-29 06:00:00,20,1018.6,-0,100,20,100,11.112,,,300,19.9,22.9,,,,,,,,46,wg-a,,,,AAXX 29064 07661 32/01 03006 10200 20200 30028 40186 55000 74600 80000 90600 333 10229 20199=
07661,1997-07-29 12:00:00,26,1018.3,-0.2,70,20,8000,25.928,,,220,,,,,,,,,,,wg-a,,,,AAXX 29124 07661 12458 42214 10260 20200 30028 40183 58002 60006 82202 91200=
07661,1997-07-29 18:00:00,24,1016,-1.1,74,19,0,18.52,,,280,20.2,28.3,,,,,,,,,wg-a,,,,AAXX 29184 07661 12/// /2810 10240 20190 30004 40160 56011 60006 91800 333 10283 20202=
07661,1997-07-30 00:00:00,22,1017.9,1.3,88,20,0,22.224,,,90,,,,,,,,,,,wg-a,,,,AAXX 30004 07661 12/// /0912 10220 20200 30022 40179 51013 60006 90000=
07661,1997-07-30 06:00:00,23,1017.7,0.8,78,19,18000,14.816,,,70,20.3,24.4,,,,,,,,,wg-a,,,,AAXX 30064 07661 12/68 00708 10230 20190 30020 40177 53008 60006 80000 90600 333 10244 20203=
07661,1997-07-30 12:00:00,26,1017.8,-0.2,74,21,10000,14.816,,,220,,,,,,,,,,,wg-a,,,,AAXX 30124 07661 12560 32208 10260 20210 30023 40178 58002 60006 81201 91200=
07661,1997-07-30 18:00:00,25,1016.1,-0.7,65,18,10000,14.816,,,270,23.2,28.6,,,,,,,,,wg-a,,,,AAXX 30184 07661 12/60 62708 10250 20180 30005 40161 56007 60006 80001 91800 333 10286 20232=
07661,1997-07-31 00:00:00,21,1016.4,-0.6,88,19,10000,11.112,,,90,,,,,,,,,,,wg-a,,,,AAXX 31004 07661 12/60 00906 10210 20190 30006 40164 58006 60006 80000 90000=
07661,1997-07-31 06:00:00,23,1015.7,0.8,69,17,12000,0,,,0,19.7,24.5,,,,,,,,,wg-a,,,,AAXX 31064 07661 12/62 00000 10230 20170 30000 40157 53008 60006 80000 90600 333 10245 20197=
07661,1997-07-31 12:00:00,29,1014.8,-0.7,40,14,0,18.52,,,220,,,,,,,,,,,wg-a,,,,AAXX 31124 07661 12/// /2210 10290 20140 39994 40148 58007 60006 91200=
07661,1997-07-31 18:00:00,30,1010.9,-1.3,29,10,25000,42.596,,,300,22.7,31.4,,,,,,,,,wg-a,,,,AAXX 31184 07661 12875 73023 10300 20100 39956 40109 56013 60006 87050 91800 333 10314 20227=
07661,1997-08-01 00:00:00,26,1009.1,-1.7,23,3,15000,38.892,,79.636,300,,,,,,,,,,,wg-a,,,,AAXX 01004 07661 12/65 73021 10260 20030 39936 40091 56017 60006 87050 90000 333 91043=
07661,1997-08-01 06:00:00,24,1007.7,0.5,34,7,20000,22.224,,,290,23.3,29.7,,,,,,,,,wg-a,,,,AAXX 01064 07661 12/70 72912 10240 20070 39921 40077 53005 60006 87040 90600 333 10297 20233=
07661,1997-08-01 12:00:00,29,1005.9,-1.7,33,11,25000,57.412,,79.636,300,,,,,,,,,,,wg-a,,,,AAXX 01124 07661 12/75 03031 10290 20110 39907 40059 56017 60006 80000 91200 333 91043=
07661,1997-08-01 18:00:00,30,1006.2,0.5,29,10,25000,35.188,,79.636,290,23.5,32,,,,,,,,,wg-a,,,,AAXX 01184 07661 12/75 12919 10300 20100 39910 40062 51005 60006 80002 91800 333 10320 20235 91043=
07661,1997-08-02 00:00:00,25,1009.8,1.5,50,14,20000,7.408,,,60,,,,,,,,,,,wg-a,,,,AAXX 02004 07661 12/70 00604 10250 20140 39943 40098 51015 60006 80000 90000=
07661,1997-08-02 06:00:00,23,1012.5,2.3,61,15,20000,18.52,,,70,21.3,30.2,,,,,,,,,wg-a,,,,AAXX 02064 07661 12/70 10710 10230 20150 39969 40125 53023 60006 80001 90600 333 10302 20213=
07661,1997-08-02 12:00:00,27,1013.9,0.4,70,21,0,22.224,,,140,,,,,,,,,,,wg-a,,,,AAXX 02124 07661 12/// /1412 10270 20210 39985 40139 53004 60006 91200=
07661,1997-08-02 18:00:00,25,1013.9,-0.2,79,21,10000,7.408,,,210,23.3,28.5,,,,,,,,,wg-a,,,,AAXX 02184 07661 12560 12104 10250 20210 39984 40139 56002 60006 81100 91800 333 10285 20233=
07661,1997-08-03 00:00:00,23,1015.5,0.5,83,20,8000,7.408,,,280,,,,,,,,,,,wg-a,,,,AAXX 03004 07661 12/58 02804 10230 20200 39998 40155 50005 60006 80000 90000=
07661,1997-08-03 06:00:00,22,1016.1,0.8,83,19,6000,7.408,,,90,20.1,25.3,,,,,,,,,wg-a,,,,AAXX 03064 07661 12/56 00904 10220 20190 30004 40161 52008 60006 80000 90600 333 10253 20201=
07661,1997-08-03 12:00:00,27,1016.7,-0.2,70,21,6000,18.52,,,200,,,,,,,,,,,wg-a,,,,AAXX 03124 07661 12556 22010 10270 20210 30013 40167 58002 60006 82200 91200=
07661,1997-08-03 18:00:00,24,1016.6,-0.1,78,20,14000,11.112,,,230,21.6,27.9,,,,,,,,,wg-a,,,,AAXX 03184 07661 12/64 02306 10240 20200 30010 40166 55001 60006 80000 91800 333 10279 20216=
07661,1997-08-04 00:00:00,21,1017.6,-0.2,88,19,8000,7.408,,,80,,,,,,,,,,,wg-a,,,,AAXX 04004 07661 12/58 00804 10210 20190 30018 40176 58002 60006 80000 90000=
07661,1997-08-04 06:00:00,21,1018,0.7,83,18,8000,14.816,,,100,19.9,24.4,,,,,,,,,wg-a,,,,AAXX 04064 07661 12/58 21008 10210 20180 30022 40180 52007 60006 82030 90600 333 10244 20199=
07661,1997-08-04 12:00:00,26,1018.1,0.1,74,21,12000,18.52,,,150,,,,,,,,,,,wg-a,,,,AAXX 04124 07661 12562 21510 10260 20210 30026 40181 53001 60006 82200 91200=
07661,1997-08-04 18:00:00,25,1016.9,-0.8,69,19,12000,7.408,,,270,21.1,27.6,,,,,,,,,wg-a,,,,AAXX 04184 07661 12/62 02704 10250 20190 30014 40169 56008 60006 80000 91800 333 10276 20211=
07661,1997-08-05 00:00:00,23,1017.6,-0.4,83,20,10000,7.408,,,220,,,,,,,,,,,wg-a,,,,AAXX 05004 07661 12/60 02204 10230 20200 30019 40176 58004 60006 80000 90000=
07661,1997-08-05 06:00:00,22,1017,0.2,83,19,10000,3.704,,,50,21.2,25.4,,,,,,,,,wg-a,,,,AAXX 05064 07661 12860 70502 10220 20190 30013 40170 52002 60006 87070 90600 333 10254 20212=
07661,1997-08-05 12:00:00,26,1017.3,0.2,65,19,12000,11.112,,,170,,,,,,,,,,,wg-a,,,,AAXX 05124 07661 12562 81706 10260 20190 30018 40173 53002 60006 8227/ 91200=
07661,1997-08-05 18:00:00,24,1015.1,-0.6,83,21,10000,18.52,,,210,22.1,26.4,,,,,,,,1,wg-a,,,,AAXX 05184 07661 32860 72110 10240 20210 39995 40151 55006 70162 8707/ 91800 333 10264 20221=
07661,1997-08-06 00:00:00,22,1014.8,-0.4,94,21,8000,11.112,,,300,,,,,,,,,,,wg-a,,,,AAXX 06004 07661 12658 33006 10220 20210 39991 40148 56004 60006 83600 90000=
07661,1997-08-06 06:00:00,22,1013.3,-0.3,88,20,8000,3.704,,,320,20.4,24.2,,,,,,,,,wg-a,,,,AAXX 06064 07661 12658 43202 10220 20200 39977 40133 56003 60006 82220 90600 333 10242 20204=
07661,1997-08-06 12:00:00,27,1013.2,-0.1,70,21,24000,22.224,,,220,,,,,,,,,,,wg-a,,,,AAXX 06124 07661 12574 42212 10270 20210 39978 40132 58001 60006 82960 91200=
07661,1997-08-06 18:00:00,25,1012.4,-0,74,20,18000,11.112,,,220,22.2,27.9,,,,,,,,,wg-a,,,,AAXX 06184 07661 12568 12206 10250 20200 39969 40124 55000 60006 81100 91800 333 10279 20222=
07661,1997-08-07 00:00:00,22,1013.7,-0.4,88,20,15000,3.704,,,320,,,,,,,,,,,wg-a,,,,AAXX 07004 07661 12/65 03202 10220 20200 39980 40137 58004 60006 80000 90000=
07661,1997-08-07 06:00:00,21,1014.2,0.7,88,19,12000,7.408,,,80,19.7,24.7,,,,,,,,,wg-a,,,,AAXX 07064 07661 12662 30804 10210 20190 39985 40142 50007 60006 82401 90600 333 10247 20197=
07661,1997-08-07 12:00:00,28,1015,0.1,66,21,15000,11.112,,,190,,,,,,,,,,,wg-a,,,,AAXX 07124 07661 12665 31906 10280 20210 39996 40150 50001 60006 83200 91200=
07661,1997-08-07 18:00:00,25,1013.7,-0.2,79,21,28000,14.816,,,220,21.3,28,,,,,,,,,wg-a,,,,AAXX 07184 07661 12/78 12208 10250 20210 39982 40137 55002 60006 81031 91800 333 10280 20213=
07661,1997-08-08 00:00:00,21,1015.6,0.2,83,18,0,14.816,,,80,,,,,,,,,,,wg-a,,,,AAXX 08004 07661 12/// /0808 10210 20180 39998 40156 50002 60006 90000=
07661,1997-08-08 06:00:00,21,1017,1.2,78,17,25000,11.112,,,80,19.7,24.8,,,,,,,,,wg-a,,,,AAXX 08064 07661 12675 10806 10210 20170 30012 40170 53012 60006 81130 90600 333 10248 20197=
07661,1997-08-08 12:00:00,28,1016.7,-0.3,70,22,12000,11.112,,,200,,,,,,,,,,,wg-a,,,,AAXX 08124 07661 12562 42006 10280 20220 30013 40167 58003 60006 83260 91200=
07661,1997-08-08 18:00:00,25,1016.1,0.6,79,21,12000,14.816,,,220,21.4,29.6,,,,,,,,,wg-a,,,,AAXX 08184 07661 12562 42208 10250 20210 30006 40161 53006 60006 83260 91800 333 10296 20214=
07661,1997-08-09 00:00:00,22,1016.6,0.1,83,19,20000,18.52,,,90,,,,,,,,,,,wg-a,,,,AAXX 09004 07661 12/70 00910 10220 20190 30009 40166 50001 60006 80000 90000=
07661,1997-08-09 06:00:00,22,1017,1,88,20,12000,7.408,,,80,20.8,25.4,,,,,,,,,wg-a,,,,AAXX 09064 07661 12562 40804 10220 20200 30013 40170 53010 60006 84600 90600 333 10254 20208=
07661,1997-08-09 12:00:00,28,1016.3,-0.4,66,21,12000,14.816,,,200,,,,,,,,,,,wg-a,,,,AAXX 09124 07661 12/62 02008 10280 20210 30009 40163 57004 60006 80000 91200=
07661,1997-08-09 18:00:00,26,1014.5,-0.6,79,22,12000,7.408,,,250,22.1,29.6,,,,,,,,,wg-a,,,,AAXX 09184 07661 12/62 02504 10260 20220 39991 40145 56006 60006 80000 91800 333 10296 20221=
07661,1997-08-10 00:00:00,23,1015.9,0.4,94,22,0,7.408,,,70,,,,,,,,,,,wg-a,,,,AAXX 10004 07661 12/// /0704 10230 20220 30003 40159 50004 60006 90000=
07661,1997-08-10 06:00:00,23,1015.7,0.6,83,20,10000,14.816,,,110,21.8,26.4,,,,,,,,,wg-a,,,,AAXX 10064 07661 12/60 01108 10230 20200 30001 40157 53006 60006 80000 90600 333 10264 20218=
07661,1997-08-10 12:00:00,29,1015.6,-0.2,66,22,12000,18.52,,,140,,,,,,,,,,,wg-a,,,,AAXX 10124 07661 12662 11410 10290 20220 30003 40156 56002 60006 81100 91200=
07661,1997-08-10 18:00:00,27,1014.1,-0.7,70,21,10000,22.224,,,100,23.1,29.6,,,,,,,,,wg-a,,,,AAXX 10184 07661 12760 71012 10270 20210 39987 40141 56007 60006 81174 91800 333 10296 20231=
07661,1997-08-11 00:00:00,25,1014.7,0.4,79,21,10000,22.224,,,80,,,,,,,,,,,wg-a,,,,AAXX 11004 07661 12/60 60812 10250 20210 39992 40147 53004 60006 86070 90000=
07661,1997-08-11 06:00:00,26,1013.2,0.4,65,19,11000,50.004,,83.34,80,24.6,26.8,,,,,,,,,wg-a,,,,AAXX 11064 07661 12661 80827 10260 20190 39978 40132 53004 60006 8687/ 90600 333 10268 20246 91045=
07661,1997-08-11 18:00:00,21,1016.8,1.7,78,17,25000,35.188,,96.304,60,18.2,26.3,,,,,,,,2,wg-a,,,,AAXX 11184 07661 32575 60619 10210 20170 30010 40168 51017 70296 8647/ 91800 333 10263 20182 91052=
07661,1997-08-12 00:00:00,22,1019.6,0.8,65,15,25000,7.408,,,300,,,,,,,,,,,wg-a,,,,AAXX 12004 07661 12575 33004 10220 20150 30038 40196 53008 60016 8375/ 90000=
07661,1997-08-12 06:00:00,23,1019.9,0.7,69,17,25000,7.408,,,30,18.6,22.6,,,,,,,,,wg-a,,,,AAXX 12064 07661 32/75 00304 10230 20170 30042 40199 53007 80000 90600 333 10226 20186=
07661,1997-08-12 12:00:00,29,1021.1,-0,48,17,0,14.816,,,220,,,,,,,,,,,wg-a,,,,AAXX 12124 07661 12/// /2208 10290 20170 30056 40211 55000 60006 91200=
07661,1997-08-12 18:00:00,26,1020.8,-0.4,58,17,20000,3.704,,,250,22.5,29,,,,,,,,,wg-a,,,,AAXX 12184 07661 12/70 02502 10260 20170 30052 40208 55004 60006 80000 91800 333 10290 20225=
07661,1997-08-13 00:00:00,23,1021.7,0,73,18,15000,11.112,,,340,,,,,,,,,,,wg-a,,,,AAXX 13004 07661 12/65 03406 10230 20180 30059 40217 50000 60006 80000 90000=
07661,1997-08-13 06:00:00,23,1021.7,0.7,65,16,15000,3.704,,,350,21.5,26.2,,,,,,,,,wg-a,,,,AAXX 13064 07661 12/65 03502 10230 20160 30060 40217 53007 60006 80000 90600 333 10262 20215=
07661,1997-08-13 12:00:00,28,1021,-0.5,70,22,20000,22.224,,,220,,,,,,,,,,,wg-a,,,,AAXX 13124 07661 12570 12212 10280 20220 30056 40210 58005 60006 81100 91200=
07661,1997-08-13 18:00:00,26,1020.1,0.3,65,19,15000,29.632,,64.82,270,23.5,29.8,,,,,,,,,wg-a,,,,AAXX 13184 07661 12/65 22716 10260 20190 30045 40201 51003 60006 80002 91800 333 10298 20235 91035=
07661,1997-08-14 00:00:00,23,1020.9,0,83,20,15000,14.816,,,300,,,,,,,,,,,wg-a,,,,AAXX 14004 07661 12/65 03008 10230 20200 30052 40209 50000 60006 80000 90000=
07661,1997-08-14 06:00:00,22,1020.9,0.4,83,19,15000,18.52,,,80,21.3,25.6,,,,,,,,,wg-a,,,,AAXX 14064 07661 12/65 00810 10220 20190 30051 40209 53004 60006 80000 90600 333 10256 20213=
07661,1997-08-14 12:00:00,29,1020.9,-0.3,52,18,15000,18.52,,,130,,,,,,,,,,,wg-a,,,,AAXX 14124 07661 12/65 01310 10290 20180 30055 40209 58003 60006 80000 91200=
07661,1997-08-14 18:00:00,26,1019.6,-0.5,65,19,15000,0,,,0,22.2,28.6,,,,,,,,,wg-a,,,,AAXX 14184 07661 12865 20000 10260 20190 30040 40196 55005 60006 82030 91800 333 10286 20222=
07661,1997-08-15 00:00:00,23,1019.5,-0.5,57,14,20000,11.112,,,290,,,,,,,,,,,wg-a,,,,AAXX 15004 07661 12/70 02906 10230 20140 30038 40195 58005 60006 80000 90000=
07661,1997-08-15 06:00:00,23,1019.1,0.6,73,18,12000,0,,,0,20.5,25.8,,,,,,,,,wg-a,,,,AAXX 15064 07661 12/62 50000 10230 20180 30034 40191 53006 60006 80002 90600 333 10258 20205=
07661,1997-08-15 12:00:00,27,1019.5,0,74,22,10000,18.52,,,220,,,,,,,,,,,wg-a,,,,AAXX 15124 07661 12560 22210 10270 20220 30041 40195 50000 60006 82202 91200=
07661,1997-08-15 18:00:00,24,1017.4,-1,83,21,10000,18.52,,,280,22.5,27.7,,,,,,,,,wg-a,,,,AAXX 15184 07661 12560 62810 10240 20210 30018 40174 55010 60006 82350 91800 333 10277 20225=
07661,1997-08-16 00:00:00,24,1016.6,-0.6,89,22,8000,29.632,,,290,,,,,,,,,,,wg-a,,,,AAXX 16004 07661 12358 62916 10240 20220 30010 40166 58006 60006 82602 90000=
07661,1997-08-16 06:00:00,22,1016.2,0.7,94,21,500,7.408,,,90,21.5,24.3,,,,,,,,,wg-a,,,,AAXX 16064 07661 12500 20904 10220 20210 30005 40162 53007 60006 81602 90600 333 10243 20215=
07661,1997-08-16 12:00:00,27,1016.8,0,66,20,8000,18.52,,,170,,,,,,,,,,,wg-a,,,,AAXX 16124 07661 12458 21710 10270 20200 30014 40168 50000 60006 82301 91200=
07661,1997-08-16 18:00:00,25,1016.6,0.1,79,21,8000,11.112,,,330,22,27.4,,,,,,,,,wg-a,,,,AAXX 16184 07661 12458 73306 10250 20210 30010 40166 50001 60006 81270 91800 333 10274 20220=
07661,1997-08-17 00:00:00,22,1017,-0.2,83,19,15000,7.408,,,80,,,,,,,,,,,wg-a,,,,AAXX 17004 07661 12865 30804 10220 20190 30013 40170 58002 60006 83030 90000=
07661,1997-08-17 06:00:00,22,1016.5,-0,88,20,12000,3.704,,,240,20.6,24.6,,,,,,,,,wg-a,,,,AAXX 17064 07661 12/62 02402 10220 20200 30008 40165 55000 60006 80000 90600 333 10246 20206=
07661,1997-08-17 12:00:00,30,1015.7,-0.4,49,18,10000,14.816,,,210,,,,,,,,,,,wg-a,,,,AAXX 17124 07661 12460 32108 10300 20180 30004 40157 58004 60006 83200 91200=
07661,1997-08-17 18:00:00,23,1016.6,0.8,78,19,12000,14.816,,,110,22.5,30.5,,,,,,,,,wg-a,,,,AAXX 17184 07661 12462 61108 10230 20190 30010 40166 51008 60006 84363 91800 333 10305 20225=
07661,1997-08-18 00:00:00,20,1017.6,-0.5,94,19,15000,14.816,,,80,,,,,,,,,,,wg-a,,,,AAXX 18004 07661 12/65 20808 10200 20190 30018 40176 58005 60006 82050 90000=
07661,1997-08-18 06:00:00,20,1016.7,0.3,94,19,15000,11.112,,,80,19.3,23.3,,,,,,,,,wg-a,,,,AAXX 18064 07661 12/65 40806 10200 20190 30009 40167 53003 60006 80008 90600 333 10233 20193=
07661,1997-08-18 12:00:00,27,1017,-0.2,70,21,12000,14.816,,,190,,,,,,,,,,,wg-a,,,,AAXX 18124 07661 12462 61908 10270 20210 30015 40170 58002 60006 82202 91200=
07661,1997-08-18 18:00:00,24,1015.6,-0.1,78,20,14000,11.112,,,260,20.4,27.6,,,,,,,,,wg-a,,,,AAXX 18184 07661 12564 72606 10240 20200 30000 40156 58001 60006 876// 91800 333 10276 20204=
07661,1997-08-19 00:00:00,22,1016.5,-0.5,94,21,10000,7.408,,,310,,,,,,,,,,,wg-a,,,,AAXX 19004 07661 12/60 03104 10220 20210 30008 40165 58005 60006 80000 90000=
07661,1997-08-19 06:00:00,21,1016.3,0.4,88,19,10000,11.112,,,90,20.3,23.6,,,,,,,,,wg-a,,,,AAXX 19064 07661 12460 40906 10210 20190 30005 40163 53004 60006 83608 90600 333 10236 20203=
07661,1997-08-19 12:00:00,28,1016.5,0.1,70,22,0,14.816,,,200,,,,,,,,,,,wg-a,,,,AAXX 19124 07661 12/// /2008 10280 20220 30011 40165 52001 60006 91200=
07661,1997-08-19 18:00:00,25,1015.2,-0.4,79,21,12000,11.112,,,160,20.5,28.8,,,,,,,,,wg-a,,,,AAXX 19184 07661 12462 31606 10250 20210 39997 40152 56004 60006 83300 91800 333 10288 20205=
07661,1997-08-20 00:00:00,22,1016.2,-0.3,88,20,10000,11.112,,,90,,,,,,,,,,,wg-a,,,,AAXX 20004 07661 12460 20906 10220 20200 30005 40162 58003 60006 82200 90000=
07661,1997-08-20 06:00:00,21,1017.1,1,94,20,10000,22.224,,,70,20.6,24.7,,,,,,,,,wg-a,,,,AAXX 20064 07661 12660 60712 10210 20200 30013 40171 52010 60006 82630 90600 333 10247 20206=
07661,1997-08-20 12:00:00,25,1017.9,0.1,79,21,10000,11.112,,,160,,,,,,,,,,60,wg-a,,,,AAXX 20124 07661 02460 71606 10250 20210 30023 40179 50001 61000 76011 8596/ 91200 333 6100=
07661,1997-08-20 18:00:00,24,1017.2,-0.3,83,21,10000,7.408,,,160,21,26.9,,,,,,,,,wg-a,,,,AAXX 20184 07661 32460 51604 10240 20210 30016 40172 55003 84260 91800 333 10269 20210=
07661,1997-08-21 00:00:00,22,1018.1,-0.3,88,20,10000,7.408,,,80,,,,,,,,,,,wg-a,,,,AAXX 21004 07661 12/60 00804 10220 20200 30023 40181 58003 60006 80000 90000=
07661,1997-08-21 06:00:00,22,1019.6,0.8,88,20,10000,7.408,,,10,20.5,24.2,,,,,,,,,wg-a,,,,AAXX 21064 07661 12860 30104 10220 20200 30039 40196 51008 60006 83080 90600 333 10242 20205=
07661,1997-08-22 12:00:00,28,1020.8,-0.2,58,19,14000,11.112,,,160,,,,,,,,,,,wg-a,,,,AAXX 22124 07661 12564 51606 10280 20190 30053 40208 58002 60006 82201 91200=
07661,1997-08-22 18:00:00,25,1019.7,0.2,61,17,12000,3.704,,,180,20.9,28.9,,,,,,,,,wg-a,,,,AAXX 22184 07661 12562 11802 10250 20170 30041 40197 53002 60006 81101 91800 333 10289 20209=
07661,1997-08-23 00:00:00,22,1019.9,,78,18,10000,3.704,,,70,,,,,,,,,,,wg-a,,,,AAXX 23004 07661 32860 20702 10220 20180 30041 40199 82030 90000=
07661,1997-08-23 06:00:00,23,1019.1,0.1,61,15,12000,3.704,,,50,21.7,28.9,,,,,,,,,wg-a,,,,AAXX 23064 07661 12662 50502 10230 20150 30034 40191 53001 60006 84130 90600 333 10289 20217=
07661,1997-08-23 12:00:00,29,1019,-0.3,55,19,12000,11.112,,,200,,,,,,,,,,,wg-a,,,,AAXX 23124 07661 12562 22006 10290 20190 30036 40190 58003 60006 82200 91200=
07661,1997-08-23 18:00:00,25,1017.9,-0.4,69,19,12000,11.112,,,260,21.2,28.9,,,,,,,,,wg-a,,,,AAXX 23184 07661 12/62 02606 10250 20190 30023 40179 55004 60006 80000 91800 333 10289 20212=
07661,1997-08-24 00:00:00,23,1017.7,0,73,18,12000,11.112,,,300,,,,,,,,,,,wg-a,,,,AAXX 24004 07661 12/62 03006 10230 20180 30020 40177 50000 60006 80000 90000=
07661,1997-08-24 06:00:00,23,1017.7,0.4,69,17,12000,0,,,0,21.2,28.9,,,,,,,,,wg-a,,,,AAXX 24064 07661 12/62 00000 10230 20170 30020 40177 53004 60006 80000 90600 333 10289 20212=
07661,1997-08-24 12:00:00,28,1017.1,-0.5,62,20,8000,22.224,,,220,,,,,,,,,,,wg-a,,,,AAXX 24124 07661 12558 12212 10280 20200 30017 40171 58005 60006 81200 91200=
07661,1997-08-24 18:00:00,25,1015.6,-0.7,69,19,10000,14.816,,,290,22.8,28.9,,,,,,,,,wg-a,,,,AAXX 24184 07661 12560 12908 10250 20190 30001 40156 56007 60006 81200 91800 333 10289 20228=
07661,1997-08-25 00:00:00,22,1016,0.3,83,19,10000,3.704,,,250,,,,,,,,,,,wg-a,,,,AAXX 25004 07661 12/60 02502 10220 20190 30003 40160 50003 60006 80000 90000=
07661,1997-08-25 06:00:00,21,1015.2,-0,88,19,8000,3.704,,,100,19.5,28.9,,,,,,,,,wg-a,,,,AAXX 25064 07661 12558 21002 10210 20190 39994 40152 54000 60006 81250 90600 333 10289 20195=
07661,1997-08-25 12:00:00,27,1014.4,-0.5,62,19,10000,14.816,,,150,,,,,,,,,,,wg-a,,,,AAXX 25124 07661 12560 61508 10270 20190 39990 40144 58005 60006 82304 91200=
07661,1997-08-25 18:00:00,24,1012.7,-0.7,74,19,10000,7.408,,,170,20.5,28.9,,,,,,,,,wg-a,,,,AAXX 25184 07661 12860 81704 10240 20190 39972 40127 55007 60006 85098 91800 333 10289 20205=
07661,1997-08-26 00:00:00,22,1012.6,-0.1,83,19,10000,11.112,,,30,,,,1,,,,,,61,wg-a,,,,AAXX 26004 07661 02860 60306 10220 20190 39969 40126 58001 60016 76122 86020 90000 333 60017=
07661,1997-08-26 06:00:00,19,1011.9,0,88,17,10000,18.52,,,50,19.2,24,,2,,,,,,61,wg-a,,,,AAXX 26064 07661 12860 70510 10190 20170 39961 40119 50000 60027 76166 8707/ 90600 333 10240 20192=
07661,1997-08-26 12:00:00,24,1011.9,-0.2,61,16,16000,18.52,,,90,,,,,,,,,,2,wg-a,,,,AAXX 26124 07661 02866 70910 10240 20160 39963 40119 57002 61000 70262 8/070 91200 333 ////=
07661,1997-08-26 18:00:00,23,1011.3,-0.4,73,18,15000,7.408,,,170,19.1,25.2,,,,,,,,,wg-a,,,,AAXX 26184 07661 32565 61704 10230 20180 39957 40113 57004 82230 91800 333 10252 20191=
07661,1997-08-27 00:00:00,21,1011.7,-0.5,88,19,15000,7.408,,,320,,,,,,,,,,,wg-a,,,,AAXX 27004 07661 12565 23204 10210 20190 39960 40117 56005 60006 82200 90000=
07661,1997-08-27 06:00:00,20,1011.3,0.2,94,19,12000,3.704,,,50,19.1,22.9,,,,,,,,,wg-a,,,,AAXX 27064 07661 12562 10502 10200 20190 39956 40113 53002 60006 81100 90600 333 10229 20191=
07661,1997-08-27 12:00:00,28,1011.4,-0.2,62,20,11000,11.112,,,200,,,,,,,,,,,wg-a,,,,AAXX 27124 07661 12561 62006 10280 20200 39961 40114 56002 60006 84202 91200=
07661,1997-08-27 18:00:00,24,1009.8,-0.6,78,20,14000,18.52,,,160,20.4,28.1,,,,,,,,,wg-a,,,,AAXX 27184 07661 12564 61610 10240 20200 39943 40098 56006 60006 85804 91800 333 10281 20204=
07661,1997-08-28 00:00:00,24,1008.5,-1.5,94,23,10000,25.928,,,180,,,,,,,,,,,wg-a,,,,AAXX 28004 07661 12560 71814 10240 20230 39931 40085 58015 60006 87200 90000=
07661,1997-08-28 06:00:00,24,1006.5,-0.5,89,22,10000,29.632,,,200,23.7,24.4,,,,,,,,2,wg-a,,,,AAXX 28064 07661 12560 52016 10240 20220 39911 40065 55005 60006 70296 83202 90600 333 10244 20237=
07661,1997-08-28 12:00:00,22,1007.8,1.5,53,12,500,31.484,,64.82,300,,,,,,,,,,2,wg-a,,,,AAXX 28124 07661 02400 63017 10220 20120 39922 40078 53015 60076 70262 82471 91200 333 61000 91035=
07661,1997-08-28 18:00:00,21,1010.7,1.5,60,13,35000,46.3,,79.636,290,20,24.8,,,,,,,,,wg-a,,,,AAXX 28184 07661 32581 32925 10210 20130 39950 40107 53015 82303 91800 333 10248 20200 91043=
07661,1997-08-29 00:00:00,18,1014.3,1.5,59,10,20000,57.412,,90.748,310,,,,,,,,,,,wg-a,,,,AAXX 29004 07661 12/70 03131 10180 20100 39983 40143 51015 60006 80000 90000 333 91049=
07661,1997-08-29 06:00:00,17,1016.5,1.1,63,10,35000,42.596,,83.34,300,16.5,20.9,,,,,,,,,wg-a,,,,AAXX 29064 07661 12/81 03023 10170 20100 30005 40165 51011 60006 80000 90600 333 10209 20165 91045=
07661,1997-08-29 12:00:00,22,1017.6,0.8,53,12,35000,53.708,,90.748,300,,,,,,,,,,,wg-a,,,,AAXX 29124 07661 12581 33029 10220 20120 30018 40176 51008 60006 82201 91200 333 91049=
07661,1997-08-29 18:00:00,21,1017.7,0.2,64,14,35000,46.3,,87.044,290,16.8,23.9,,,,,,,,,wg-a,,,,AAXX 29184 07661 12881 32925 10210 20140 30019 40177 52002 60006 83070 91800 333 10239 20168 91047=
07661,1997-08-30 00:00:00,20,1019.2,-0.1,49,9,20000,35.188,,72.228,300,,,,,,,,,,,wg-a,,,,AAXX 30004 07661 12/70 03019 10200 20090 30033 40192 56001 60006 80000 90000 333 91039=
07661,1997-08-30 06:00:00,20,1018.6,-0.3,49,9,35000,29.632,,,300,19,21.3,,,,,,,,,wg-a,,,,AAXX 30064 07661 12881 33016 10200 20090 30027 40186 55003 60006 82046 90600 333 10213 20190=
07661,1997-08-30 12:00:00,24,1018,-0.7,50,13,35000,35.188,,61.116,280,,,,,,,,,,,wg-a,,,,AAXX 30124 07661 12/81 02819 10240 20130 30023 40180 58007 60006 80000 91200 333 91033=
07661,1997-08-30 18:00:00,22,1016.6,-0.5,69,16,28000,46.3,,79.636,300,19.6,24.7,,,,,,,,,wg-a,,,,AAXX 30184 07661 12/78 03025 10220 20160 30008 40166 58005 60006 80000 91800 333 10247 20196 91043=
07661,1997-08-31 00:00:00,19,1017.8,0.1,78,15,25000,14.816,,,100,,,,,,,,,,,wg-a,,,,AAXX 31004 07661 12/75 01008 10190 20150 30019 40178 50001 60006 80000 90000=
07661,1997-08-31 06:00:00,18,1018.3,0.8,73,13,35000,22.224,,,90,16.3,21.6,,,,,,,,,wg-a,,,,AAXX 31064 07661 12/81 00912 10180 20130 30023 40183 53008 60006 80000 90600 333 10216 20163=
07661,1997-08-31 12:00:00,25,1019.3,0.3,69,19,25000,11.112,,,180,,,,,,,,,,,wg-a,,,,AAXX 31124 07661 12575 11806 10250 20190 30037 40193 53003 60006 81100 91200=
07661,1997-08-31 18:00:00,22,1018.1,-0.5,83,19,22000,11.112,,,210,17.6,25.3,,,,,,,,,wg-a,,,,AAXX 31184 07661 12572 12106 10220 20190 30023 40181 56005 60006 81630 91800 333 10253 20176=
07661,1997-09-01 00:00:00,19,1019.2,0.2,88,17,20000,11.112,,,80,,,,,,,,,,,wg-a,,,,AAXX 01004 07661 12/70 00806 10190 20170 30033 40192 50002 60006 80000 90000=
07661,1997-09-01 06:00:00,17,1019.3,0.3,77,13,16000,18.52,,,80,16.5,21.7,,,,,,,,,wg-a,,,,AAXX 01064 07661 12466 50810 10170 20130 30032 40193 53003 60006 83631 90600 333 10217 20165=
07661,1997-09-01 12:00:00,23,1018.2,-0.3,83,20,12000,22.224,,,110,,,,,,,,,,,wg-a,,,,AAXX 01124 07661 12862 51112 10230 20200 30025 40182 58003 60006 81042 91200=
07661,1997-09-01 18:00:00,21,1017.8,-0.8,88,19,10000,11.112,,,160,16.9,24.1,,,,,,,,,wg-a,,,,AAXX 01184 07661 12860 61606 10210 20190 30020 40178 55008 60006 86050 91800 333 10241 20169=
07661,1997-09-02 00:00:00,19,1017.2,-1.3,94,18,10000,18.52,,,80,,,,,,,,,,,wg-a,,,,AAXX 02004 07661 12860 70810 10190 20180 30013 40172 56013 60006 87050 90000=
07661,1997-09-02 06:00:00,20,1017.8,-0.5,83,17,20000,18.52,,,100,18.9,20.9,,,,,,,,2,wg-a,,,,AAXX 02064 07661 32470 61010 10200 20170 30019 40178 58005 70262 84260 90600 333 10209 20189=
07661,1997-09-02 12:00:00,20,1018.9,-1.5,88,18,12000,11.112,,,70,,,,2,,,,,,21,wg-a,,,,AAXX 02124 07661 02462 80706 10200 20180 30030 40189 58015 60036 72162 8277/ 91200 333 60027=
07661,1997-09-02 18:00:00,21,1017.5,-0.3,83,18,12000,11.112,,,240,18.9,21.8,,,,,,,,,wg-a,,,,AAXX 02184 07661 32462 62406 10210 20180 30017 40175 58003 8226/ 91800 333 10218 20189=
07661,1997-09-03 00:00:00,19,1017.5,-0.7,88,17,10000,11.112,,,70,,,,,,,,,,,wg-a,,,,AAXX 03004 07661 12860 60706 10190 20170 30016 40175 57007 60006 86070 90000=
07661,1997-09-03 06:00:00,18,1017.6,0.7,88,16,10000,14.816,,,80,17.9,20.7,,,,,,,,,wg-a,,,,AAXX 03064 07661 12460 60808 10180 20160 30016 40176 53007 60006 8/800 90600 333 10207 20179=
07661,1997-09-03 12:00:00,23,1018,-0.3,73,18,40000,18.52,,,170,,,,,,,,,,,wg-a,,,,AAXX 03124 07661 12482 51710 10230 20180 30023 40180 57003 60006 84969 91200=
07661,1997-09-03 18:00:00,21,1018.3,0.3,83,18,40000,14.816,,,290,18.2,24.7,,,,,,,,,wg-a,,,,AAXX 03184 07661 12682 32908 10210 20180 30025 40183 53003 60006 81132 91800 333 10247 20182=
07661,1997-09-04 00:00:00,21,1018.6,-0.4,78,17,15000,7.408,,,350,,,,,,,,,,,wg-a,,,,AAXX 04004 07661 12/65 03504 10210 20170 30028 40186 56004 60006 80000 90000=
07661,1997-09-04 06:00:00,22,1018.4,0.5,69,16,25000,3.704,,,360,19.4,21.9,,,,,,,,,wg-a,,,,AAXX 04064 07661 12/75 13602 10220 20160 30026 40184 53005 60006 80001 90600 333 10219 20194=
07661,1997-09-04 18:00:00,24,1018.2,0.2,69,18,16000,11.112,,,220,22,28.9,,,,,,,,,wg-a,,,,AAXX 04184 07661 12/66 52206 10240 20180 30025 40182 53002 60006 80004 91800 333 10289 20220=
07661,1997-09-05 00:00:00,21,1018.9,-0.4,83,18,15000,11.112,,,220,,,,,,,,,,,wg-a,,,,AAXX 05004 07661 12/65 02206 10210 20180 30031 40189 57004 60006 80000 90000=
07661,1997-09-05 06:00:00,22,1019.2,0.6,65,15,22000,11.112,,,220,20.8,23.7,,,,,,,,,wg-a,,,,AAXX 05064 07661 12/72 02206 10220 20150 30034 40192 53006 60006 80000 90600 333 10237 20208=
07661,1997-09-05 12:00:00,27,1020.4,,66,20,14000,11.112,,,220,,,,,,,,,,,wg-a,,,,AAXX 05124 07661 12564 12206 10270 20200 30049 40204 60006 81200 91200=
07661,1997-09-05 18:00:00,24,1019.5,-0.3,61,16,20000,11.112,,,220,21.9,27.4,,,,,,,,,wg-a,,,,AAXX 05184 07661 12/70 02206 10240 20160 30038 40195 58003 60006 80000 91800 333 10274 20219=
07661,1997-09-06 00:00:00,20,1021,0.1,68,14,10000,11.112,,,220,,,,,,,,,,,wg-a,,,,AAXX 06004 07661 12/60 02206 10200 20140 30051 40210 51001 60006 80000 90000=
07661,1997-09-06 06:00:00,21,1021,0.4,83,18,20000,11.112,,,220,19.3,23.6,,,,,,,,,wg-a,,,,AAXX 06064 07661 12/70 02206 10210 20180 30051 40210 53004 60006 80000 90600 333 10236 20193=
07661,1997-09-06 12:00:00,27,1021.4,0,70,21,15000,11.112,,,220,,,,,,,,,,,wg-a,,,,AAXX 06124 07661 12565 12206 10270 20210 30059 40214 50000 60006 81100 91200=
07661,1997-09-06 18:00:00,22,1020.3,-0.2,88,20,14000,11.112,,,220,20.7,27.5,,,,,,,,,wg-a,,,,AAXX 06184 07661 12464 22206 10220 20200 30045 40203 58002 60006 82600 91800 333 10275 20207=
07661,1997-09-07 00:00:00,21,1020.7,-0.2,94,20,6000,11.112,,,220,,,,,,,,,,,wg-a,,,,AAXX 07004 07661 12456 22206 10210 20200 30049 40207 58002 60006 82600 90000=
07661,1997-09-07 06:00:00,20,1020.4,0.6,83,17,10000,11.112,,,220,17.7,22.1,,,,,,,,,wg-a,,,,AAXX 07064 07661 12/60 02206 10200 20170 30045 40204 53006 60006 80000 90600 333 10221 20177=
07661,1997-09-07 12:00:00,26,1020.6,-0.7,70,20,6000,11.112,,,220,,,,,,,,,,,wg-a,,,,AAXX 07124 07661 12556 12206 10260 20200 30051 40206 58007 60006 81100 91200=
07661,1997-09-07 18:00:00,23,1019,-0.5,83,20,11000,11.112,,,220,20.1,26.8,,,,,,,,,wg-a,,,,AAXX 07184 07661 12561 12206 10230 20200 30033 40190 55005 60006 81100 91800 333 10268 20201=
07661,1997-09-08 00:00:00,20,1020.4,0.1,88,18,6000,11.112,,,220,,,,,,,,,,,wg-a,,,,AAXX 08004 07661 12/56 02206 10200 20180 30045 40204 50001 60006 80000 90000=
07661,1997-09-08 06:00:00,19,1021.3,1.2,94,18,500,11.112,,,220,18.7,23.3,,0,,,,,,,wg-a,,,,AAXX 08064 07661 12400 62206 10190 20180 30054 40213 53012 60007 86600 90600 333 10233 20187=
07661,1997-09-08 12:00:00,26,1022,0.1,61,18,10000,11.112,,,220,,,,,,,,,,,wg-a,,,,AAXX 08124 07661 12460 22206 10260 20180 30064 40220 53001 60006 82100 91200=
07661,1997-09-08 18:00:00,23,1020.8,-0.3,83,20,10000,11.112,,,220,19.2,25.8,,,,,,,,,wg-a,,,,AAXX 08184 07661 12/60 12206 10230 20200 30051 40208 56003 60006 80001 91800 333 10258 20192=
07661,1997-09-09 06:00:00,21,1018.5,-0.2,78,17,8000,11.112,,,220,19.5,22.8,,,,,,,,,wg-a,,,,AAXX 09064 07661 12/58 02206 10210 20170 30027 40185 55002 60006 80000 90600 333 10228 20195=
07661,1997-09-09 12:00:00,27,1017,-1.3,54,17,12000,11.112,,,220,,,,,,,,,,,wg-a,,,,AAXX 09124 07661 12/62 02206 10270 20170 30015 40170 57013 60006 80000 91200=
07661,1997-09-09 18:00:00,23,1013.3,-1.4,69,17,12000,11.112,,,220,20.7,27,,,,,,,,,wg-a,,,,AAXX 09184 07661 12/62 02206 10230 20170 39977 40133 58014 60006 80000 91800 333 10270 20207=
07661,1997-09-10 00:00:00,21,1012.7,-1,60,13,15000,11.112,,,220,,,,,,,,,,,wg-a,,,,AAXX 10004 07661 12/65 02206 10210 20130 39969 40127 56010 60006 80000 90000=
07661,1997-09-10 06:00:00,20,1012.7,1,68,14,15000,11.112,,,220,18.1,23,,,,,,,,,wg-a,,,,AAXX 10064 07661 12/65 02206 10200 20140 39969 40127 53010 60006 80000 90600 333 10230 20181=
07661,1997-09-10 12:00:00,26,1014,0.6,65,19,12000,11.112,,,220,,,,,,,,,,,wg-a,,,,AAXX 10124 07661 12562 22206 10260 20190 39985 40140 53006 60006 82200 91200=
07661,1997-09-10 18:00:00,22,1014.7,0.9,78,18,10000,11.112,,,220,20.2,26.5,,,,,,,,,wg-a,,,,AAXX 10184 07661 12560 22206 10220 20180 39990 40147 53009 60006 82200 91800 333 10265 20202=
07661,1997-09-11 00:00:00,19,1016.5,0.4,88,17,12000,11.112,,,220,,,,,,,,,,,wg-a,,,,AAXX 11004 07661 12/62 02206 10190 20170 30006 40165 51004 60006 80000 90000=
07661,1997-09-11 06:00:00,19,1016.4,0.3,94,18,12000,11.112,,,220,18.1,21.7,,,,,,,,,wg-a,,,,AAXX 11064 07661 12462 42206 10190 20180 30005 40164 53003 60006 84200 90600 333 10217 20181=
07661,1997-09-11 12:00:00,25,1017.2,-0.4,69,19,10000,11.112,,,220,,,,,,,,,,,wg-a,,,,AAXX 11124 07661 12460 52206 10250 20190 30016 40172 58004 60006 85400 91200=
07661,1997-09-11 18:00:00,22,1016.4,-0.4,83,19,12000,0,,,0,19,25.2,,,,,,,,,wg-a,,,,AAXX 11184 07661 12462 3//// 10220 20190 30007 40164 57004 60006 81130 91800 333 10252 20190=
07661,1997-09-12 00:00:00,20,1017.3,0.1,94,19,10000,0,,,0,,,,,,,,,,,wg-a,,,,AAXX 12004 07661 12460 2//// 10200 20190 30015 40173 53001 60006 82501 90000=
07661,1997-09-12 06:00:00,19,1016.8,-0,94,18,12000,0,,,0,18.6,22,,,,,,,,,wg-a,,,,AAXX 12064 07661 12462 5//// 10190 20180 30009 40168 55000 60006 84131 90600 333 10220 20186=
07661,1997-09-12 12:00:00,25,1016.3,-0.5,74,20,8000,0,,,0,,,,,,,,,,,wg-a,,,,AAXX 12124 07661 12458 3//// 10250 20200 30008 40163 58005 60006 8333/ 91200=
07661,1997-09-12 18:00:00,22,1014.4,-0.6,88,20,10000,11.112,,,100,19,25.2,,,,,,,,,wg-a,,,,AAXX 12184 07661 12460 81006 10220 20200 39987 40144 58006 60006 8682/ 91800 333 10252 20190=
07661,1997-09-13 00:00:00,20,1014.5,-0.2,94,19,8000,14.816,,,90,,,,,,,,,,,wg-a,,,,AAXX 13004 07661 12458 70908 10200 20190 39987 40145 58002 60006 875// 90000=
07661,1997-09-13 06:00:00,20,1012.5,-0.3,94,19,10000,11.112,,,90,19.6,22,,,,,,,,,wg-a,,,,AAXX 13064 07661 12460 60906 10200 20190 39968 40125 55003 60006 86500 90600 333 10220 20196=
07661,1997-09-13 12:00:00,26,1012.6,-0.4,61,18,10000,11.112,,,330,,,,,,,,,,,wg-a,,,,AAXX 13124 07661 12460 73306 10260 20180 39972 40126 56004 60006 8327/ 91200=
07661,1997-09-13 18:00:00,24,1012,0.1,57,15,10000,35.188,,,300,20.4,27.8,,,,,,,,,wg-a,,,,AAXX 13184 07661 12460 63019 10240 20150 39964 40120 53001 60006 81281 91800 333 10278 20204=
07661,1997-09-14 00:00:00,19,1013.3,-0.5,52,9,25000,35.188,,,300,,,,,,,,,,,wg-a,,,,AAXX 14004 07661 12475 83019 10190 20090 39974 40133 57005 60006 885// 90000=
07661,1997-09-14 06:00:00,15,1013.4,0.7,63,8,25000,31.484,,,300,14.7,23.5,,,,,,,,,wg-a,,,,AAXX 14064 07661 12875 63017 10150 20080 39973 40134 53007 60006 86040 90600 333 10235 20147=
07661,1997-09-14 12:00:00,23,1014.5,0.7,47,11,35000,25.928,,,290,,,,,,,,,,,wg-a,,,,AAXX 14124 07661 12481 62914 10230 20110 39988 40145 51007 60006 83260 91200=
07661,1997-09-14 18:00:00,21,1016.4,1.3,56,12,35000,14.816,,,280,14.9,25.2,,,,,,,,,wg-a,,,,AAXX 14184 07661 12581 52808 10210 20120 30006 40164 52013 60006 82202 91800 333 10252 20149=
07661,1997-09-15 00:00:00,20,1018.8,0.5,73,15,15000,14.816,,,70,,,,,,,,,,,wg-a,,,,AAXX 15004 07661 12865 40708 10200 20150 30029 40188 51005 60006 84070 90000=
07661,1997-09-15 06:00:00,19,1020.1,0.8,73,14,15000,25.928,,,70,18.5,21.4,,,,,,,,,wg-a,,,,AAXX 15064 07661 12865 40714 10190 20140 30041 40201 53008 60006 84070 90600 333 10214 20185=
07661,1997-09-15 12:00:00,22,1021.4,0.2,65,15,35000,31.484,,61.116,100,,,,,,,,,,,wg-a,,,,AAXX 15124 07661 12581 51017 10220 20150 30056 40214 51002 60006 82102 91200 333 91033=
07661,1997-09-15 18:00:00,21,1022,0.5,64,14,500,35.188,,61.116,70,18.6,23.1,,,,,,,,,wg-a,,,,AAXX 15184 07661 12/00 20719 10210 20140 30061 40220 52005 60006 82030 91800 333 10231 20186 91033=
07661,1997-09-16 00:00:00,19,1023.6,0.3,68,13,15000,14.816,,,70,,,,,,,,,,,wg-a,,,,AAXX 16004 07661 12/65 70708 10190 20130 30076 40236 51003 60006 87050 90000=
07661,1997-09-16 06:00:00,17,1023.4,0.3,82,14,0,18.52,,,70,16.4,20.9,,,,,,,,,wg-a,,,,AAXX 16064 07661 12/// /0710 10170 20140 30073 40234 53003 60006 90600 333 10209 20164=
07661,1997-09-16 12:00:00,22,1022.9,-0.7,57,13,20000,29.632,,,110,,,,,,,,,,,wg-a,,,,AAXX 16124 07661 12570 11116 10220 20130 30071 40229 57007 60006 81100 91200=
07661,1997-09-16 18:00:00,20,1022.2,0.3,56,11,500,18.52,,50.004,90,17.4,23.7,,,,,,,,,wg-a,,,,AAXX 16184 07661 12/00 20910 10200 20110 30063 40222 53003 60006 82050 91800 333 10237 20174 91027=
07661,1997-09-17 00:00:00,16,1023.3,0.1,72,11,15000,14.816,,,80,,,,,,,,,,,wg-a,,,,AAXX 17004 07661 12/65 00808 10160 20110 30071 40233 50001 60006 80000 90000=
07661,1997-09-17 06:00:00,17,1023.2,0.4,77,13,25000,25.928,,,70,15.5,20.4,,,,,,,,,wg-a,,,,AAXX 17064 07661 12/75 00714 10170 20130 30071 40232 53004 60006 80000 90600 333 10204 20155=
07661,1997-09-17 12:00:00,24,1023.5,-0.5,50,13,25000,18.52,,,130,,,,,,,,,,,wg-a,,,,AAXX 17124 07661 12575 11310 10240 20130 30077 40235 58005 60006 81100 91200=
07661,1997-09-17 18:00:00,20,1023.3,-0,64,13,25000,7.408,,,190,16.8,24.2,,,,,,,,,wg-a,,,,AAXX 17184 07661 12675 11904 10200 20130 30074 40233 55000 60006 81101 91800 333 10242 20168=
07661,1997-09-18 00:00:00,18,1023.8,-0.3,73,13,25000,14.816,,,340,,,,,,,,,,,wg-a,,,,AAXX 18004 07661 12/75 03408 10180 20130 30077 40238 58003 60006 80000 90000=
07661,1997-09-18 06:00:00,17,1023.5,0.3,72,12,20000,14.816,,,50,16,20.4,,,,,,,,,wg-a,,,,AAXX 18064 07661 12/70 00508 10170 20120 30074 40235 53003 60006 80000 90600 333 10204 20160=
07661,1997-09-18 12:00:00,24,1023.4,-0.8,47,12,20000,18.52,,,170,,,,,,,,,,,wg-a,,,,AAXX 18124 07661 12/70 01710 10240 20120 30076 40234 58008 60006 80000 91200=
07661,1997-09-18 18:00:00,21,1021.9,-0.5,64,14,15000,14.816,,,290,17.2,24.9,,,,,,,,,wg-a,,,,AAXX 18184 07661 12/65 02908 10210 20140 30060 40219 55005 60006 80000 91800 333 10249 20172=
07661,1997-09-19 00:00:00,19,1022.2,-0.3,56,10,20000,14.816,,,280,,,,,,,,,,,wg-a,,,,AAXX 19004 07661 12/70 02808 10190 20100 30062 40222 56003 60006 80000 90000=
07661,1997-09-19 06:00:00,17,1021.9,0.2,63,10,20000,14.816,,,320,16.1,20.6,,,,,,,,,wg-a,,,,AAXX 19064 07661 12/70 03208 10170 20100 30058 40219 53002 60006 80000 90600 333 10206 20161=
07661,1997-09-19 12:00:00,24,1020.8,-1,61,16,15000,22.224,,,240,,,,,,,,,,,wg-a,,,,AAXX 19124 07661 12/65 02412 10240 20160 30051 40208 58010 60006 80000 91200=
07661,1997-09-19 18:00:00,20,1019.2,-0.6,78,16,10000,22.224,,,290,17,24.8,,,,,,,,,wg-a,,,,AAXX 19184 07661 12/60 02912 10200 20160 30033 40192 56006 60006 80000 91800 333 10248 20170=
07661,1997-09-20 00:00:00,18,1019.7,-0.1,83,15,10000,11.112,,,330,,,,,,,,,,,wg-a,,,,AAXX 20004 07661 12/60 03306 10180 20150 30037 40197 56001 60006 80000 90000=
07661,1997-09-20 06:00:00,16,1019.3,0.1,88,14,10000,14.816,,,70,16,19.6,,,,,,,,,wg-a,,,,AAXX 20064 07661 12/60 00708 10160 20140 30032 40193 52001 60006 80000 90600 333 10196 20160=
07661,1997-09-20 12:00:00,23,1019.8,-0.3,69,17,12000,14.816,,,160,,,,,,,,,,,wg-a,,,,AAXX 20124 07661 12562 41608 10230 20170 30041 40198 58003 60006 82204 91200=
07661,1997-09-20 18:00:00,20,1019.5,0.2,83,17,12000,7.408,,,160,16.2,23.7,,,,,,,,,wg-a,,,,AAXX 20184 07661 12562 61604 10200 20170 30036 40195 53002 60006 81134 91800 333 10237 20162=
07661,1997-09-21 00:00:00,17,1021.2,0.4,94,16,10000,11.112,,,90,,,,,,,,,,,wg-a,,,,AAXX 21004 07661 12/60 30906 10170 20160 30051 40212 51004 60006 80001 90000=
07661,1997-09-21 06:00:00,16,1020.7,0.2,94,15,8000,7.408,,,70,15.4,20.4,,,,,,,,,wg-a,,,,AAXX 21064 07661 12558 40704 10160 20150 30046 40207 53002 60006 81534 90600 333 10204 20154=
07661,1997-09-21 12:00:00,23,1020.5,-0.5,61,15,15000,11.112,,,150,,,,,,,,,,,wg-a,,,,AAXX 21124 07661 12465 71506 10230 20150 30048 40205 58005 60006 82205 91200=
07661,1997-09-21 18:00:00,20,1020.3,0.5,78,16,15000,3.704,,,240,15.7,23.6,,,,,,,,,wg-a,,,,AAXX 21184 07661 12/65 42402 10200 20160 30044 40203 53005 60006 80005 91800 333 10236 20157=
07661,1997-09-22 00:00:00,18,1020.8,-0.3,83,15,10000,7.408,,,30,,,,,,,,,,,wg-a,,,,AAXX 22004 07661 12/60 00304 10180 20150 30048 40208 58003 60006 80000 90000=
07661,1997-09-22 12:00:00,24,1020.2,-0.8,61,16,8000,18.52,,,140,,,,,,,,,,,wg-a,,,,AAXX 22124 07661 12558 51410 10240 20160 30045 40202 56008 60006 82931 91200=
07661,1997-09-22 18:00:00,21,1020.1,0.5,73,16,7000,7.408,,,70,16.3,25.2,,,,,,,,,wg-a,,,,AAXX 22184 07661 12/57 30704 10210 20160 30043 40201 53005 60006 83010 91800 333 10252 20163=
07661,1997-09-23 00:00:00,19,1019.6,-0.7,83,16,6000,7.408,,,40,,,,,,,,,,,wg-a,,,,AAXX 23004 07661 12/56 00404 10190 20160 30036 40196 58007 60006 80000 90000=
07661,1997-09-23 06:00:00,19,1019.1,-0.1,64,12,8000,7.408,,,350,17.2,21,,,,,,,,,wg-a,,,,AAXX 23064 07661 12/58 23504 10190 20120 30031 40191 55001 60006 80001 90600 333 10210 20172=
07661,1997-09-24 12:00:00,24,1018.2,-0.6,74,19,6000,18.52,,,210,,,,,,,,,,,wg-a,,,,AAXX 24124 07661 12556 12110 10240 20190 30025 40182 58006 60006 81100 91200=
07661,1997-09-24 18:00:00,21,1018.4,0.7,83,18,6000,11.112,,,230,16.9,25.1,,,,,,,,,wg-a,,,,AAXX 24184 07661 12/56 02306 10210 20180 30026 40184 53007 60006 80000 91800 333 10251 20169=
07661,1997-09-25 00:00:00,18,1020,0.4,94,17,6000,3.704,,,330,,,,0,,,,,,,wg-a,,,,AAXX 25004 07661 02556 23302 10180 20170 30040 40200 52004 60006 82100 90000 333 60007=
07661,1997-09-25 06:00:00,17,1021.2,1.1,72,12,8000,18.52,,,80,16.1,20.6,,,,,,,,,wg-a,,,,AAXX 25064 07661 32/58 00810 10170 20120 30051 40212 53011 80000 90600 333 10206 20161=
07661,1997-09-25 12:00:00,24,1021.4,-0.4,50,13,14000,18.52,,,170,,,,,,,,,,,wg-a,,,,AAXX 25124 07661 12564 21710 10240 20130 30057 40214 58004 60006 81101 91200=
07661,1997-09-26 12:00:00,23,1021.2,-1,65,16,12000,11.112,,,190,,,,,,,,,,,wg-a,,,,AAXX 26124 07661 32562 21906 10230 20160 30055 40212 58010 82100 91200=
07661,1997-09-26 18:00:00,20,1019.6,-0.3,78,16,8000,11.112,,,260,18,24.7,,,,,,,,,wg-a,,,,AAXX 26184 07661 12458 42606 10200 20160 30037 40196 56003 60006 84600 91800 333 10247 20180=
07661,1997-09-27 00:00:00,18,1018.7,-0.6,94,17,7000,3.704,,,340,,,,,,,,,,,wg-a,,,,AAXX 27004 07661 12/57 03402 10180 20170 30027 40187 58006 60006 80000 90000=
07661,1997-09-27 06:00:00,17,1016.9,-0.7,88,15,3000,7.408,,,340,16.2,20.4,,,,,,,,10,wg-a,,,,AAXX 27064 07661 12330 13404 10170 20150 30009 40169 57007 60006 71000 81601 90600 333 10204 20162=
07661,1997-09-27 12:00:00,23,1015.5,-1.3,73,18,6000,25.928,,,220,,,,,,,,,,,wg-a,,,,AAXX 27124 07661 12356 42214 10230 20180 39998 40155 56013 60006 84600 91200=
07661,1997-09-27 18:00:00,20,1014.1,-0.5,83,17,6000,25.928,,,300,16.7,23.9,,,,,,,,,wg-a,,,,AAXX 27184 07661 12356 23014 10200 20170 39983 40141 55005 60006 82600 91800 333 10239 20167=
07661,1997-09-28 00:00:00,18,1014.7,0.5,88,16,8000,18.52,,,310,,,,,,,,,,,wg-a,,,,AAXX 28004 07661 12/58 03110 10180 20160 39988 40147 51005 60006 80000 90000=
07661,1997-09-28 06:00:00,17,1015.4,0.6,82,14,8000,3.704,,,20,16,20.1,,,,,,,,,wg-a,,,,AAXX 28064 07661 12/58 00202 10170 20140 39994 40154 53006 60006 80000 90600 333 10201 20160=
07661,1997-09-28 12:00:00,23,1015.3,-0.4,69,17,8000,25.928,,,240,,,,,,,,,,,wg-a,,,,AAXX 28124 07661 12558 12414 10230 20170 39997 40153 58004 60006 81100 91200=
07661,1997-09-28 18:00:00,20,1015.8,0.8,83,17,12000,18.52,,,270,16.9,24.2,,,,,,,,,wg-a,,,,AAXX 28184 07661 12/62 12710 10200 20170 30000 40158 53008 60006 81050 91800 333 10242 20169=
07661,1997-09-29 00:00:00,18,1017.6,0.4,88,16,6000,3.704,,,60,,,,,,,,,,,wg-a,,,,AAXX 29004 07661 12/56 00602 10180 20160 30016 40176 51004 60006 80000 90000=
07661,1997-09-29 12:00:00,23,1020.4,0.1,73,18,10000,11.112,,,180,,,,,,,,,,,wg-a,,,,AAXX 29124 07661 12460 51806 10230 20180 30047 40204 53001 60006 82250 91200=
07661,1997-09-29 18:00:00,21,1020.8,0.3,83,18,8000,7.408,,,270,17.2,24.1,,,,,,,,,wg-a,,,,AAXX 29184 07661 12458 42704 10210 20180 30049 40208 53003 60006 84600 91800 333 10241 20172=
07661,1997-09-30 00:00:00,19,1022.6,0.2,88,17,10000,0,,,0,,,,,,,,,,,wg-a,,,,AAXX 30004 07661 12/60 00000 10190 20170 30066 40226 51002 60006 80000 90000=
07661,1997-09-30 06:00:00,17,1022.6,-0.1,94,16,500,11.112,,,80,16.9,20.5,,,,,,,,,wg-a,,,,AAXX 30064 07661 32/00 10806 10170 20160 30065 40226 55001 80001 90600 333 10205 20169=
07661,1997-09-30 12:00:00,23,1022.6,-0.6,78,19,500,18.52,,,220,,,,,,,,,,,wg-a,,,,AAXX 30124 07661 12/00 22210 10230 20190 30069 40226 58006 60006 80001 91200=
07661,1997-09-30 18:00:00,20,1020.9,-0.5,88,18,8000,18.52,,,260,16.9,24.7,,,,,,,,,wg-a,,,,AAXX 30184 07661 12/58 22610 10200 20180 30050 40209 56005 60006 80001 91800 333 10247 20169=
07661,1997-10-01 00:00:00,18,1020.4,-0.9,94,17,0,18.52,,,300,,,,,,,,,,,wg-a,,,,AAXX 01004 07661 12/// /3010 10180 20170 30044 40204 58009 60006 90000=
07661,1997-10-01 06:00:00,17,1018.2,-1,88,15,6000,7.408,,,40,16.8,20.3,,,,,,,,,wg-a,,,,AAXX 01064 07661 12456 60404 10170 20150 30022 40182 56010 60006 86600 90600 333 10203 20168=
07661,1997-10-01 12:00:00,22,1016,-2,60,14,12000,25.928,,,290,,,,,,,,,,,wg-a,,,,AAXX 01124 07661 12/62 62914 10220 20140 30003 40160 58020 60006 80002 91200=
07661,1997-10-01 18:00:00,21,1014.5,0.4,83,18,10000,29.632,,57.412,290,17.3,24.4,,,,,,,,,wg-a,,,,AAXX 01184 07661 32/60 02916 10210 20180 39988 40145 53004 80000 91800 333 10244 20173 91031=
07661,1997-10-02 00:00:00,18,1013.7,-1.2,88,16,8000,25.928,,,70,,,,,,,,,,,wg-a,,,,AAXX 02004 07661 12/58 00714 10180 20160 39978 40137 58012 60006 80000 90000=
07661,1997-10-02 06:00:00,18,1012.8,0.2,94,17,8000,7.408,,,70,17.5,20.9,,,,,,,,,wg-a,,,,AAXX 02064 07661 12/58 00704 10180 20170 39969 40128 50002 60006 80000 90600 333 10209 20175=
07661,1997-10-02 12:00:00,23,1011.2,-1.2,73,18,6000,14.816,,,200,,,,,,,,,,,wg-a,,,,AAXX 02124 07661 12/56 02008 10230 20180 39956 40112 58012 60006 80000 91200=
07661,1997-10-18 06:00:00,15,1023.8,,,,20000,18.52,,,10,,,,,,,,,,,wg-a,,,,AAXX 18064 07661 32670 60110 10150 2//// 30076 40238 81650 90600=
07661,1997-10-18 12:00:00,20,1024.5,,,,25000,22.224,,,110,,,,,,,,,,,wg-a,,,,AAXX 18124 07661 32575 41112 10200 2//// 30086 40245 83401 91200=
07661,1997-10-18 18:00:00,18,1024.2,,,,20000,18.52,,,60,,,,,,,,,,,wg-a,,,,AAXX 18184 07661 32570 20610 10180 2//// 30082 40242 82100 91800=
07661,1997-10-19 06:00:00,14,1022.8,,,,20000,18.52,,,70,,,,,,,,,,,wg-a,,,,AAXX 19064 07661 32570 20710 10140 2//// 30066 40228 81530 90600=
07661,1997-10-19 12:00:00,20,1021.9,,,,28000,14.816,,,110,,,,,,,,,,,wg-a,,,,AAXX 19124 07661 32578 21108 10200 2//// 30060 40219 81141 91200=
07661,1997-10-19 18:00:00,18,1019.4,,,,22000,7.408,,,150,,,,,,,,,,,wg-a,,,,AAXX 19184 07661 32572 41504 10180 2//// 30035 40194 84400 91800=
07661,1997-10-20 00:00:00,16,1018.4,-1,,,8000,7.408,,,90,,,,,,,,,,,wg-a,,,,AAXX 20004 07661 32558 30904 10160 2//// 30023 40184 58010 83400 90000=
07661,1997-10-20 06:00:00,16,1015.3,,,,12000,14.816,,,90,,,,,,,,,,,wg-a,,,,AAXX 20064 07661 32462 80908 10160 2//// 39992 40153 887// 90600=
07661,1997-10-20 12:00:00,20,1012.3,-1.7,,,7000,29.632,,,20,,,,,,,,,,2,wg-a,,,,AAXX 20124 07661 32457 80216 10200 2//// 39965 40123 57017 70264 887// 91200=
07661,1997-10-20 18:00:00,19,1010.6,-0.1,100,19,6000,18.52,,,180,15.6,20,,,,,,,,,wg-a,,,,AAXX 20184 07661 32456 81810 10190 20190 39948 40106 55001 887// 91800 333 10200 20156=
07661,1997-10-21 00:00:00,19,1008.5,-1.2,100,19,1500,11.112,,,170,,,,,,,,,,10,wg-a,,,,AAXX 21004 07661 12415 81706 10190 20190 39928 40085 56012 60006 71022 886// 90000=
07661,1997-10-21 06:00:00,17,1006.7,-0.4,100,17,8000,14.816,,,70,17.1,19.3,,,,,,,,,wg-a,,,,AAXX 21064 07661 12858 70708 10170 20170 39909 40067 58004 60006 8707/ 90600 333 10193 20171=
07661,1997-10-21 12:00:00,20,1007.7,0.3,88,18,12000,18.52,,,100,,,,,,,,,,60,wg-a,,,,AAXX 21124 07661 02562 81010 10200 20180 39920 40077 50003 61000 76011 88700 91200 333 6100=
07661,1997-10-21 18:00:00,18,1009.6,1.5,83,15,12000,14.816,,,90,17,21.2,,,,,,,,21,wg-a,,,,AAXX 21184 07661 02562 60908 10180 20150 39938 40096 53015 61000 72162 85760 91800 333 10212 20170 ////=
07661,1997-10-22 00:00:00,17,1010.6,0,88,15,12000,14.816,,,80,,,,,,,,,,,wg-a,,,,AAXX 22004 07661 12862 20808 10170 20150 39947 40106 50000 60006 82020 90000=
07661,1997-10-22 06:00:00,17,1011.1,0.4,88,15,10000,7.408,,,70,16.2,18.1,,,,,,,,,wg-a,,,,AAXX 22064 07661 12560 80704 10170 20150 39952 40111 53004 60006 886// 90600 333 10181 20162=
07661,1997-10-22 12:00:00,18,1011.7,-0.1,88,16,6000,14.816,,,90,,,,0,,,,,,60,wg-a,,,,AAXX 22124 07661 02356 80908 10180 20160 39958 40117 58001 60006 76062 887// 91200 333 60007=
07661,1997-10-22 18:00:00,18,1011,-0.3,88,16,6000,11.112,,,70,16.7,19.2,,,,,,,,,wg-a,,,,AAXX 22184 07661 32456 80706 10180 20160 39951 40110 55003 887// 91800 333 10192 20167=
07661,1997-10-23 00:00:00,16,1010.9,-0.6,88,14,6000,7.408,,,60,,,,3,,,,,,61,wg-a,,,,AAXX 23004 07661 02356 80604 10160 20140 39949 40109 58006 60046 76162 887// 90000 333 60037=
07661,1997-10-23 06:00:00,16,1009.9,-0.5,94,15,500,14.816,,,70,15.4,17.5,,8,,,,,,61,wg-a,,,,AAXX 23064 07661 12400 80708 10160 20150 39939 40099 55005 60087 76166 887// 90600 333 10175 20154=
07661,1997-10-23 12:00:00,16,1009.4,-0.9,100,16,6000,18.52,,,60,,,,1,,,,,,61,wg-a,,,,AAXX 23124 07661 02456 80610 10160 20160 39935 40094 58009 60106 76166 887// 91200 333 60017=
07661,1997-10-23 18:00:00,16,1009.5,0.9,94,15,3000,14.816,,,80,15.3,16.8,,,,,,,,,wg-a,,,,AAXX 23184 07661 32430 80808 10160 20150 39936 40095 53009 887// 91800 333 10168 20153=
07661,1997-10-24 00:00:00,15,1009,-0.8,100,15,3000,18.52,,,300,,,,,,,,,,2,wg-a,,,,AAXX 24004 07661 02430 83010 10150 20150 39930 40090 57008 60026 70262 887// 90000 333 61000=
07661,1997-10-24 06:00:00,14,1007.9,-0.1,100,14,6000,11.112,,,310,14.2,16.3,,,,,,,,,wg-a,,,,AAXX 24064 07661 32456 43106 10140 20140 39919 40079 58001 81730 90600 333 10163 20142=
07661,1997-10-24 12:00:00,19,1008.8,0.4,78,15,8000,11.112,,,120,,,,,,,,,,,wg-a,,,,AAXX 24124 07661 12558 21206 10190 20150 39930 40088 50004 60006 82200 91200=
07661,1997-10-24 18:00:00,17,1010.8,1.5,77,13,10000,14.816,,,300,14.2,20,,,,,,,,,wg-a,,,,AAXX 24184 07661 32/60 03008 10170 20130 39949 40108 53015 80000 91800 333 10200 20142=
07661,1997-10-25 00:00:00,14,1014.1,1.3,88,12,10000,22.224,,,80,,,,,,,,,,,wg-a,,,,AAXX 25004 07661 12/60 00812 10140 20120 39980 40141 53013 60006 80000 90000=
07661,1997-10-25 06:00:00,14,1017.3,1.6,94,13,10000,18.52,,,80,13.6,17.2,,,,,,,,,wg-a,,,,AAXX 25064 07661 02560 20810 10140 20130 30011 40173 51016 60006 82200 90600 333 10172 20136 60004=
07661,1997-10-25 12:00:00,18,1019.6,0.1,73,13,10000,22.224,,,90,,,,,,,,,,,wg-a,,,,AAXX 25124 07661 12560 30912 10180 20130 30036 40196 50001 60006 82210 91200=
07661,1997-10-25 18:00:00,17,1020.6,0.7,77,13,10000,11.112,,,70,13.2,18.9,,,,,,,,,wg-a,,,,AAXX 25184 07661 12660 40706 10170 20130 30045 40206 53007 60006 84600 91800 333 10189 20132=
07661,1997-10-26 00:00:00,15,1021.1,-0.3,82,12,0,3.704,,,50,,,,,,,,,,,wg-a,,,,AAXX 26004 07661 12/// /0502 10150 20120 30049 40211 57003 60006 90000=
07661,1997-10-26 06:00:00,14,1020.1,-0.2,88,12,8000,7.408,,,80,12.9,16.7,,,,,,,,,wg-a,,,,AAXX 26064 07661 02558 50804 10140 20120 30039 40201 55002 60006 85500 90600 333 10167 20129 60004=
07661,1997-10-26 12:00:00,19,1019.6,-0.7,73,14,6000,14.816,,,220,,,,,,,,,,,wg-a,,,,AAXX 26124 07661 12456 32208 10190 20140 30036 40196 58007 60006 83100 91200=
07661,1997-10-26 18:00:00,15,1018.6,0.1,72,10,12000,18.52,,,290,13.7,19.6,,,,,,,,,wg-a,,,,AAXX 26184 07661 12/62 02910 10150 20100 30024 40186 53001 60006 80000 91800 333 10196 20137=
07661,1997-10-27 00:00:00,14,1018.1,-0.6,82,11,10000,7.408,,,320,,,,,,,,,,,wg-a,,,,AAXX 27004 07661 12/60 03204 10140 20110 30019 40181 57006 60006 80000 90000=
07661,1997-10-27 06:00:00,12,1016.3,-0.4,88,10,10000,7.408,,,70,11,15.1,,,,,,,,,wg-a,,,,AAXX 27064 07661 02460 60704 10120 20100 30000 40163 58004 60006 86100 90600 333 10151 20110 60004=
07661,1997-10-27 12:00:00,17,1014.6,-1.5,77,13,12000,14.816,,,210,,,,,,,,,,,wg-a,,,,AAXX 27124 07661 12462 32108 10170 20130 39986 40146 58015 60006 82101 91200=
07661,1997-10-27 18:00:00,15,1014.9,0.8,82,12,8000,3.704,,,150,11.9,18.4,,,,,,,,,wg-a,,,,AAXX 27184 07661 32/58 11502 10150 20120 39988 40149 53008 81030 91800 333 10184 20119=
07661,1997-10-28 00:00:00,13,1015.1,-0.4,94,12,6000,22.224,,,70,,,,,,,,,,,wg-a,,,,AAXX 28004 07661 12/56 00712 10130 20120 39989 40151 58004 60006 80000 90000=
07661,1997-10-28 06:00:00,14,1014.9,0.4,77,10,8000,29.632,,,60,12.9,15.8,,,,,,,,,wg-a,,,,AAXX 28064 07661 02458 80616 10140 20100 39987 40149 53004 60006 8782/ 90600 333 10158 20129 60004=
07661,1997-10-28 12:00:00,15,1015.1,,,,8000,61.116,,,70,,,,,,,,,,,wg-a,,,,AAXX 28124 07661 32658 60733 10150 2//// 39989 40151 83860 91200=
07661,1997-10-28 18:00:00,13,1018.5,2.8,51,3,10000,57.412,,107.416,60,12.7,15.8,,,,,,,,,wg-a,,,,AAXX 28184 07661 12660 60631 10130 20030 30022 40185 53028 60006 86800 91800 333 10158 20127 91058=
07661,1997-10-29 06:00:00,10,1023,1.1,37,-4,15000,35.188,,,60,9.8,12.7,,,,,,,,,wg-a,,,,AAXX 29064 07661 02865 70619 10100 21040 30064 40230 53011 60006 8706/ 90600 333 10127 20098 60004=
07661,1997-10-29 12:00:00,13,1023.3,-0.7,28,-5,25000,7.408,,53.708,50,,,,,,,,,,,wg-a,,,,AAXX 29124 07661 12475 60504 10130 21050 30069 40233 58007 60006 81171 91200 333 91029=
07661,1997-10-29 18:00:00,11,1023,-0,47,0,500,11.112,,,310,10.1,13.7,,,,,,,,,wg-a,,,,AAXX 29184 07661 12/00 53106 10110 20000 30065 40230 55000 60006 80008 91800 333 10137 20101=
07661,1997-10-30 00:00:00,8,1022.6,-0.7,66,2,10000,11.112,,,350,,,,,,,,,,,wg-a,,,,AAXX 30004 07661 12/60 03506 10080 20020 30059 40226 58007 60006 80000 90000=
07661,1997-10-30 06:00:00,8,1021.1,-0.5,57,0,0,7.408,,,340,6.8,11.3,,,,,,,,,wg-a,,,,AAXX 30064 07661 02/// /3404 10080 20000 30045 40211 58005 60006 90600 333 10113 20068 60004=
07661,1997-10-30 12:00:00,15,1020.2,-0.9,51,5,35000,11.112,,,220,,,,,,,,,,,wg-a,,,,AAXX 30124 07661 12481 32206 10150 20050 30040 40202 58009 60006 81231 91200=
07661,1997-10-30 18:00:00,12,1021.2,1.4,62,5,12000,14.816,,,310,7,15.5,,,,,,,,,wg-a,,,,AAXX 30184 07661 12/62 23108 10120 20050 30048 40212 53014 60006 80001 91800 333 10155 20070=
07661,1997-10-31 00:00:00,11,1021.7,0.1,66,5,15000,29.632,,,310,,,,,,,,,,,wg-a,,,,AAXX 31004 07661 12/65 63116 10110 20050 30052 40217 53001 60006 86050 90000=
07661,1997-10-31 06:00:00,10,1021.6,-0.1,66,4,18000,11.112,,,90,9.7,12,,,,,,,,,wg-a,,,,AAXX 31064 07661 02/68 30906 10100 20040 30050 40216 55001 60006 82031 90600 333 10120 20097 60004=
07661,1997-10-31 12:00:00,14,1021.3,-1.1,47,3,15000,7.408,,,270,,,,,,,,,,,wg-a,,,,AAXX 31124 07661 12/65 12704 10140 20030 30050 40213 58011 60006 81030 91200=
07661,1997-10-31 18:00:00,12,1021.5,0.4,67,6,7000,14.816,,,290,9.2,15.5,,,,,,,,,wg-a,,,,AAXX 31184 07661 12/57 02908 10120 20060 30051 40215 53004 60006 80000 91800 333 10155 20092=
07661,1997-11-01 00:00:00,10,1021.6,-0.6,87,8,7000,7.408,,,330,,,,,,,,,,,wg-a,,,,AAXX 01004 07661 12/57 03304 10100 20080 30051 40216 57006 60006 80000 90000=
07661,1997-11-01 06:00:00,9,1021,0.1,76,5,18000,11.112,,,80,8.2,11.9,,,,,,,,,wg-a,,,,AAXX 01064 07661 02/68 10806 10090 20050 30044 40210 52001 60006 80001 90600 333 10119 20082 60004=
07661,1997-11-01 12:00:00,16,1021.1,-0.7,63,9,20000,14.816,,,220,,,,,,,,,,,wg-a,,,,AAXX 01124 07661 12870 32208 10160 20090 30049 40211 58007 60006 83082 91200=
07661,1997-11-01 18:00:00,14,1020.4,0.1,67,8,20000,11.112,,,300,8.3,17,,,,,,,,,wg-a,,,,AAXX 01184 07661 12/70 33006 10140 20080 30041 40204 53001 60006 80008 91800 333 10170 20083=
07661,1997-11-02 00:00:00,12,1019.6,-0.6,76,8,10000,14.816,,,310,,,,,,,,,,,wg-a,,,,AAXX 02004 07661 12/60 13108 10120 20080 30032 40196 58006 60006 80001 90000=
07661,1997-11-02 06:00:00,10,1017.7,-0.9,87,8,12000,14.816,,,360,10.2,13.8,,,,,,,,,wg-a,,,,AAXX 02064 07661 02/62 03608 10100 20080 30013 40177 58009 60006 80000 90600 333 10138 20102 60004=
07661,1997-11-02 12:00:00,17,1016.8,-1.5,63,10,20000,18.52,,,300,,,,,,,,,,,wg-a,,,,AAXX 02124 07661 12470 33010 10170 20100 30008 40168 58015 60006 82260 91200=
07661,1997-11-02 18:00:00,15,1016.4,0.3,77,11,15000,18.52,,,290,10,18,,,,,,,,,wg-a,,,,AAXX 02184 07661 12/65 42910 10150 20110 30002 40164 53003 60006 80008 91800 333 10180 20100=
07661,1997-11-03 00:00:00,13,1015.9,-0.4,88,11,8000,3.704,,,40,,,,,,,,,,,wg-a,,,,AAXX 03004 07661 12858 70402 10130 20110 39997 40159 58004 60006 8707/ 90000=
07661,1997-11-03 06:00:00,13,1014.9,-0.3,88,11,8000,18.52,,,70,12.2,14.6,,,,,,,,,wg-a,,,,AAXX 03064 07661 02858 60710 10130 20110 39986 40149 55003 60006 86070 90600 333 10146 20122 60004=
07661,1997-11-03 12:00:00,16,1013.6,-1.1,77,12,6000,18.52,,,90,,,,,,,,,,,wg-a,,,,AAXX 03124 07661 12456 60910 10160 20120 39976 40136 58011 60006 82259 91200=
07661,1997-11-03 18:00:00,16,1012.4,-0.2,82,13,12000,22.224,,,80,12.3,17,,,,,,,,,wg-a,,,,AAXX 03184 07661 12562 70812 10160 20130 39964 40124 56002 60006 8217/ 91800 333 10170 20123=
07661,1997-11-04 00:00:00,15,1011.7,-0.3,82,12,10000,31.484,,,70,,,,,,,,,,,wg-a,,,,AAXX 04004 07661 12460 70717 10150 20120 39956 40117 58003 60006 875// 90000=
07661,1997-11-04 12:00:00,17,1011.5,0.1,72,12,15000,57.412,,87.044,80,,,,,,,,,,,wg-a,,,,AAXX 04124 07661 12465 70831 10170 20120 39955 40115 50001 60006 8175/ 91200 333 91047=
07661,1997-11-04 18:00:00,16,1012.3,0.6,77,12,12000,46.3,,83.34,70,15.9,17.2,,,,,,,,,wg-a,,,,AAXX 04184 07661 12/62 50725 10160 20120 39963 40123 53006 60006 85030 91800 333 10172 20159 91045=
07661,1997-11-05 00:00:00,17,1012.1,-0.9,72,12,8000,50.004,,87.044,80,,,,,,,,,,61,wg-a,,,,AAXX 05004 07661 02/58 80827 10170 20120 39961 40121 56009 61000 76122 8807/ 90000 333 6100 91047=
07661,1997-11-05 06:00:00,14,1011.2,-0.7,94,13,6000,42.596,,79.636,70,13.9,16.7,,,,,,,,60,wg-a,,,,AAXX 05064 07661 02456 80723 10140 20130 39951 40112 58007 61000 76062 887// 90600 333 10167 20139 6100 91043=
07661,1997-11-05 12:00:00,14,1009.6,-2.1,94,13,10000,46.3,,72.228,70,,,,,,,,,,61,wg-a,,,,AAXX 05124 07661 02460 80725 10140 20130 39935 40096 58021 61000 76166 887// 91200 333 6100 91039=
07661,1997-11-05 18:00:00,16,1007.4,-0.8,94,15,500,38.892,,68.524,80,13.7,15.5,,1,,,,,,60,wg-a,,,,AAXX 05184 07661 12400 80821 10160 20150 39915 40074 56008 60017 76066 887// 91800 333 10155 20137 91037=
07661,1997-11-06 00:00:00,18,1003.7,-3.1,94,17,500,31.484,,64.82,140,,,,6,,,,,,60,wg-a,,,,AAXX 06004 07661 02400 81417 10180 20170 39879 40037 58031 60086 76066 8/72/ 90000 333 60067 91035=
07661,1997-11-06 06:00:00,18,1000.3,-0.9,94,17,6000,22.224,,57.412,100,15.3,17.8,,0,,,12,,,60,wg-a,,,,AAXX 06064 07661 02456 61012 10180 20170 39846 40003 58009 60124 76062 8562/ 90600 333 10178 20153 60007 91031=
07661,1997-11-06 12:00:00,17,997.9,-1.7,94,16,8000,38.892,,83.34,110,,,,7,,,,,,63,wg-a,,,,AAXX 06124 07661 02458 81121 10170 20160 39822 49979 58017 60096 76366 8572/ 91200 333 60077 91045=
07661,1997-11-06 18:00:00,18,998,1.3,83,15,8000,42.596,,72.228,180,16.7,18.1,,0,,,,,,21,wg-a,,,,AAXX 06184 07661 12458 81823 10180 20150 39823 49980 53013 60007 72162 8572/ 91800 333 10181 20167 91039=
07661,1997-11-07 00:00:00,17,1000.4,0.6,77,13,8000,25.928,,90.748,210,,,,0,,,,,,25,wg-a,,,,AAXX 07004 07661 02458 72114 10170 20130 39846 40004 53006 60016 72562 8472/ 90000 333 60007 91049=
07661,1997-11-07 06:00:00,14,1003.1,2.1,82,11,20000,18.52,,,260,13.3,18.1,,,,,13,,,,wg-a,,,,AAXX 07064 07661 12570 42610 10140 20110 39871 40031 51021 60134 84700 90600 333 10181 20133=
07661,1997-11-07 12:00:00,16,1003.3,-1.2,72,11,25000,7.408,,,190,,,,,,,,,,,wg-a,,,,AAXX 07124 07661 12575 61904 10160 20110 39874 40033 58012 60006 83242 91200=
07661,1997-11-07 18:00:00,15,1003.3,0.3,77,11,25000,14.816,,,110,13.4,17.5,,,,,,,,,wg-a,,,,AAXX 07184 07661 12875 61108 10150 20110 39874 40033 53003 60006 86060 91800 333 10175 20134=
07661,1997-11-08 00:00:00,13,1003.9,0.2,88,11,25000,11.112,,,60,,,,,,,,,,,wg-a,,,,AAXX 08004 07661 12575 60606 10130 20110 39878 40039 50002 60006 86200 90000=
07661,1997-11-08 06:00:00,12,1004.6,1.1,94,11,25000,7.408,,,330,11.4,14.9,,,,,,,,,wg-a,,,,AAXX 08064 07661 02475 43304 10120 20110 39885 40046 53011 60006 82240 90600 333 10149 20114 60004=
07661,1997-11-08 12:00:00,16,1007.4,-0.2,63,9,40000,31.484,,57.412,290,,,,,,,,,,,wg-a,,,,AAXX 08124 07661 12582 32917 10160 20090 39914 40074 58002 60006 82140 91200 333 91031=
07661,1997-11-08 18:00:00,14,1009.5,1.3,67,8,500,25.928,,64.82,280,12,16.3,,,,,,,,,wg-a,,,,AAXX 08184 07661 12/00 22814 10140 20080 39934 40095 52013 60006 82050 91800 333 10163 20120 91035=
07661,1997-11-09 00:00:00,13,1009.1,-1.1,82,10,500,14.816,,,90,,,,,,,,,,,wg-a,,,,AAXX 09004 07661 12/00 30908 10130 20100 39930 40091 58011 60006 83050 90000=
07661,1997-11-09 06:00:00,17,1005.1,-1.6,88,15,15000,35.188,,57.412,210,13,17.1,,0,,,,,,60,wg-a,,,,AAXX 09064 07661 02565 82119 10170 20150 39893 40051 58016 60004 76062 888// 90600 333 10171 20130 60007 91031=
07661,1997-11-09 12:00:00,16,1007.1,1.8,55,7,500,42.596,,75.932,300,,,,,,,,,,,wg-a,,,,AAXX 09124 07661 12500 53023 10160 20070 39911 40071 51018 60016 82260 91200 333 91041=
07661,1997-11-09 18:00:00,14,1009.9,1.6,51,4,500,25.928,,,300,14.2,17.1,,,,,,,,,wg-a,,,,AAXX 09184 07661 32/00 03014 10140 20040 39938 40099 53016 80000 91800 333 10171 20142=
07661,1997-11-10 00:00:00,13,1010.6,-1,72,8,20000,3.704,,,20,,,,,,,,,,,wg-a,,,,AAXX 10004 07661 12/70 30202 10130 20080 39944 40106 58010 60006 80006 90000=
07661,1997-11-10 06:00:00,12,1008.8,-0.6,82,9,20000,14.816,,,70,10.1,14.2,,,,,1,,,,wg-a,,,,AAXX 10064 07661 02/70 00708 10120 20090 39926 40088 55006 60006 80000 90600 333 10142 20101 60014=
07661,1997-11-10 12:00:00,17,1007.6,-1.1,63,10,35000,18.52,,,220,,,,,,,,,,,wg-a,,,,AAXX 10124 07661 12581 32210 10170 20100 39917 40076 58011 60006 82202 91200=
07661,1997-11-10 18:00:00,15,1006.8,0.2,72,10,15000,11.112,,,350,11.3,17.5,,,,,,,,,wg-a,,,,AAXX 10184 07661 12565 23506 10150 20100 39908 40068 53002 60006 82200 91800 333 10175 20113=
07661,1997-11-11 00:00:00,12,1008.8,0.1,71,7,15000,3.704,,,320,,,,,,,,,,,wg-a,,,,AAXX 11004 07661 12/65 63202 10120 20070 39926 40088 50001 60006 86040 90000=
07661,1997-11-11 06:00:00,10,1007.3,-0.9,87,8,18000,14.816,,,90,9.1,14.5,,,,,,,,,wg-a,,,,AAXX 11064 07661 02568 60908 10100 20080 39910 40073 56009 60006 8/800 90600 333 10145 20091 60004=
07661,1997-11-11 12:00:00,18,1004.7,-1.8,73,13,25000,31.484,,57.412,210,,,,,,,,,,3,wg-a,,,,AAXX 11124 07661 02575 62117 10180 20130 39889 40047 58018 61000 70362 86300 91200 333 6100 91031=
07661,1997-11-11 18:00:00,16,1002.8,-0.6,77,12,20000,22.224,,53.708,200,10.1,18.7,,,,,,,,,wg-a,,,,AAXX 11184 07661 32570 62012 10160 20120 39870 40028 56006 8397/ 91800 333 10187 20101 91029=
07661,1997-11-12 00:00:00,15,999.8,-1.6,82,12,10000,29.632,,64.82,220,,,,2,,,,,,,wg-a,,,,AAXX 12004 07661 02460 82216 10150 20120 39839 49998 58016 60026 889// 90000 333 60027 91035=
07661,1997-11-12 06:00:00,11,999.6,0.7,71,6,25000,35.188,,,300,10.5,16.6,,,,,3,,,,wg-a,,,,AAXX 12064 07661 12475 23019 10110 20060 39835 49996 53007 60034 82230 90600 333 10166 20105=
07661,1997-11-12 18:00:00,11,1005.8,2,71,6,0,22.224,,,310,10.3,13.1,,,,,,,,,wg-a,,,,AAXX 12184 07661 12/// /3112 10110 20060 39896 40058 51020 60006 91800 333 10131 20103=
07661,1997-11-13 00:00:00,9,1006.5,-0.5,76,5,500,35.188,,,300,,,,,,,,,,,wg-a,,,,AAXX 13004 07661 12500 13019 10090 20050 39902 40065 58005 60006 81100 90000=
07661,1997-11-13 06:00:00,9,1006.1,-0.1,71,4,40000,31.484,,,300,8.8,10.8,,,,,,,,,wg-a,,,,AAXX 13064 07661 02582 13017 10090 20040 39897 40061 55001 60006 81100 90600 333 10108 20088 60004=
07661,1997-11-13 12:00:00,12,1005.1,-1.3,62,5,40000,42.596,,68.524,290,,,,,,,,,,,wg-a,,,,AAXX 13124 07661 12582 22923 10120 20050 39890 40051 58013 60006 81108 91200 333 91037=
07661,1997-11-13 18:00:00,11,1005.8,0.7,58,3,35000,35.188,,64.82,300,8.7,13,,,,,,,,,wg-a,,,,AAXX 13184 07661 12/81 23019 10110 20030 39896 40058 51007 60006 80008 91800 333 10130 20087 91035=
07661,1997-11-14 00:00:00,11,1006.1,-0.4,54,2,20000,35.188,,,300,,,,,,,,,,,wg-a,,,,AAXX 14004 07661 12/70 03019 10110 20020 39899 40061 58004 60006 80000 90000=
07661,1997-11-14 06:00:00,18,1007.1,1.3,32,1,20000,3.704,,,250,7.6,,,,,,,,,,wg-a,,,,AAXX 14064 07661 02/70 02502 10180 20010 39907 40071 53013 60006 80000 90600 333 20076 60004=
07661,1997-11-14 12:00:00,14,1010.4,1.1,58,6,500,3.704,,,50,,,,,,,,,,,wg-a,,,,AAXX 14124 07661 12600 20502 10140 20060 39943 40104 51011 60006 82100 91200=
07661,1997-11-14 18:00:00,11,1013.4,2.2,58,3,20000,14.816,,,300,7.1,15.1,,,,,,,,,wg-a,,,,AAXX 14184 07661 12670 13008 10110 20030 39971 40134 52022 60006 81100 91800 333 10151 20071=
07661,1997-11-15 00:00:00,9,1016.1,0.6,71,4,0,18.52,,,80,,,,,,,,,,,wg-a,,,,AAXX 15004 07661 12/// /0810 10090 20040 39996 40161 50006 60006 90000=
07661,1997-11-15 06:00:00,8,1018.5,1.2,87,6,25000,11.112,,,60,8,11.8,,,,,,,,,wg-a,,,,AAXX 15064 07661 02/75 00606 10080 20060 30019 40185 51012 60006 80000 90600 333 10118 20080 60004=
07661,1997-11-15 12:00:00,15,1019.8,-0.4,63,8,500,7.408,,,210,,,,,,,,,,,wg-a,,,,AAXX 15124 07661 12500 52104 10150 20080 30036 40198 58004 60006 81102 91200=
07661,1997-11-15 18:00:00,12,1020.6,0.6,82,9,500,7.408,,,310,8.1,15.3,,,,,,,,,wg-a,,,,AAXX 15184 07661 12/00 33104 10120 20090 30042 40206 53006 60006 80005 91800 333 10153 20081=
07661,1997-11-16 00:00:00,11,1020.9,-0.1,82,8,20000,7.408,,,350,,,,,,,,,,,wg-a,,,,AAXX 16004 07661 12570 43504 10110 20080 30044 40209 58001 60006 81101 90000=
07661,1997-11-16 06:00:00,11,1018.1,-1.4,82,8,20000,11.112,,,320,10,12.4,,,,,,,,,wg-a,,,,AAXX 16064 07661 02570 13206 10110 20080 30017 40181 56014 60006 81101 90600 333 10124 20100 60004=
07661,1997-11-16 12:00:00,15,1014.4,-3.1,55,6,20000,38.892,,,280,,,,,,,,,,,wg-a,,,,AAXX 16124 07661 12870 52821 10150 20060 39983 40144 58031 60006 82041 91200=
07661,1997-11-16 18:00:00,14,1012.7,0.1,77,10,18000,14.816,,61.116,70,10,15.5,,,,,,,,,wg-a,,,,AAXX 16184 07661 12868 70708 10140 20100 39965 40127 53001 60006 8707/ 91800 333 10155 20100 91033=
07661,1997-11-17 00:00:00,11,1014,0.4,87,9,20000,18.52,,,60,,,,,,,,,,,wg-a,,,,AAXX 17004 07661 12/70 30610 10110 20090 39977 40140 51004 60006 80001 90000=
07661,1997-11-17 06:00:00,12,1014.7,0.7,82,9,18000,29.632,,,60,10.7,13.6,,,,,,,,,wg-a,,,,AAXX 17064 07661 02868 70616 10120 20090 39984 40147 53007 60006 8707/ 90600 333 10136 20107 60004=
07661,1997-11-17 12:00:00,15,1015,-0.8,77,11,0,22.224,,,90,,,,,,,,,,,wg-a,,,,AAXX 17124 07661 12/// /0912 10150 20110 39989 40150 58008 60006 91200=
07661,1997-11-17 18:00:00,12,1015.3,0.5,82,9,0,18.52,,,60,11.8,15.3,,,,,,,,,wg-a,,,,AAXX 17184 07661 12/// /0610 10120 20090 39990 40153 53005 60006 91800 333 10153 20118=
07661,1997-11-18 00:00:00,12,1015.5,-0.4,82,9,10000,25.928,,,60,,,,,,,,,,,wg-a,,,,AAXX 18004 07661 12660 40614 10120 20090 39992 40155 58004 60006 8/400 90000=
07661,1997-11-18 06:00:00,10,1014.8,0.1,87,8,10000,25.928,,,60,10.3,12.2,,,,,,,,,wg-a,,,,AAXX 18064 07661 02660 60614 10100 20080 39984 40148 52001 60006 86200 90600 333 10122 20103 60004=
07661,1997-11-18 12:00:00,13,1012.8,-1.8,72,8,500,18.52,,,110,,,,,,,,,,,wg-a,,,,AAXX 18124 07661 12600 21110 10130 20080 39966 40128 58018 60006 82100 91200=
07661,1997-11-18 18:00:00,12,1009.6,-1.4,76,8,20000,14.816,,,300,9.6,13.7,,,,,,,,,wg-a,,,,AAXX 18184 07661 12670 73008 10120 20080 39934 40096 57014 60006 87500 91800 333 10137 20096=
07661,1997-11-19 00:00:00,13,1005.3,-2.4,82,10,15000,18.52,,,290,,,,,,,,,,61,wg-a,,,,AAXX 19004 07661 02665 82910 10130 20100 39892 40053 58024 61000 76162 887// 90000 333 6100=
07661,1997-11-19 06:00:00,12,1002.6,-0.3,94,11,15000,14.816,,,70,11.5,13.3,,1,,,1,,,61,wg-a,,,,AAXX 19064 07661 02665 80708 10120 20110 39865 40026 56003 60014 76162 887// 90600 333 10133 20115 60017=
07661,1997-11-19 12:00:00,13,1003.1,-0.2,82,10,12000,25.928,,,60,,,,,,,,,,,wg-a,,,,AAXX 19124 07661 02662 80614 10130 20100 39870 40031 58002 61000 8357/ 91200 333 6100=
07661,1997-11-19 18:00:00,12,1004.6,1,71,7,12000,22.224,,,70,10.8,12.9,,,,,,,,2,wg-a,,,,AAXX 19184 07661 32562 60712 10120 20070 39885 40046 53010 70262 8317/ 91800 333 10129 20108=
07661,1997-11-20 00:00:00,12,1006.6,0.6,71,7,12000,11.112,,,130,,,,,,,,,,,wg-a,,,,AAXX 20004 07661 12462 81306 10120 20070 39904 40066 50006 60006 887// 90000=
07661,1997-11-20 06:00:00,11,1007.3,0.1,82,8,15000,14.816,,,80,10.6,12.2,,,,,,,,,wg-a,,,,AAXX 20064 07661 02565 80808 10110 20080 39910 40073 51001 60006 885// 90600 333 10122 20106 61000=
07661,1997-11-20 12:00:00,12,1009.5,1.7,76,8,0,11.112,,,130,,,,,,,,,,,wg-a,,,,AAXX 20124 07661 12/// /1306 10120 20080 39933 40095 51017 60006 91200=
07661,1997-11-20 18:00:00,11,1009.2,1.2,87,9,15000,18.52,,,60,10.6,12.6,,0,,,,,,60,wg-a,,,,AAXX 20184 07661 12665 80610 10110 20090 39929 40092 53012 60007 76062 883// 91800 333 10126 20106=
07661,1997-11-21 00:00:00,10,1009.7,0,82,7,25000,18.52,,,300,,,,,,,,,,1,wg-a,,,,AAXX 21004 07661 12/75 03010 10100 20070 39934 40097 50000 60026 70162 80000 90000=
07661,1997-11-21 06:00:00,10,1010.4,0.3,76,6,25000,18.52,,,300,9.2,10.8,,,,,3,,,,wg-a,,,,AAXX 21064 07661 12875 23010 10100 20060 39940 40104 53003 60034 81031 90600 333 10108 20092=
07661,1997-11-21 12:00:00,13,1010.9,-0.6,67,7,25000,7.408,,,70,,,,,,,,,,,wg-a,,,,AAXX 21124 07661 12875 60704 10130 20070 39947 40109 57006 60006 85077 91200=
07661,1997-11-21 18:00:00,12,1010.9,0.3,76,8,20000,18.52,,,70,9.2,13.1,,,,,,,,,wg-a,,,,AAXX 21184 07661 12670 80710 10120 20080 39946 40109 53003 60006 88700 91800 333 10131 20092=
07661,1997-11-22 00:00:00,11,1009.6,-1.1,87,9,20000,18.52,,,60,,,,,,,,,,,wg-a,,,,AAXX 22004 07661 12770 80610 10110 20090 39933 40096 58011 60006 8/700 90000=
07661,1997-11-22 06:00:00,11,1007.2,-0.7,82,8,14000,35.188,,,60,10.6,11.6,,,,,,,,,wg-a,,,,AAXX 22064 07661 02664 30619 10110 20080 39910 40072 56007 60006 83500 90600 333 10116 20106 60004=
07661,1997-11-22 12:00:00,14,1008.1,-0.2,63,7,0,25.928,,,50,,,,,,,,,,,wg-a,,,,AAXX 22124 07661 12/// /0514 10140 20070 39920 40081 55002 60006 91200=
07661,1997-11-22 18:00:00,12,1007.9,0.2,76,8,25000,14.816,,,300,10.6,14,,,,,,,,,wg-a,,,,AAXX 22184 07661 12/75 73008 10120 20080 39917 40079 53002 60006 8705/ 91800 333 10140 20106=
07661,1997-11-23 00:00:00,11,1009.3,0.3,82,8,20000,11.112,,,90,,,,,,,,,,,wg-a,,,,AAXX 23004 07661 12/70 70906 10110 20080 39930 40093 50003 60006 87070 90000=
07661,1997-11-23 06:00:00,9,1010.7,1.3,76,5,25000,11.112,,,320,9.2,12.9,,,,,,,,,wg-a,,,,AAXX 23064 07661 02/75 23206 10090 20050 39943 40107 53013 60006 82070 90600 333 10129 20092 60004=
07661,1997-11-23 12:00:00,13,1012.3,-0.1,58,5,25000,14.816,,,290,,,,,,,,,,,wg-a,,,,AAXX 23124 07661 12/75 02908 10130 20050 39961 40123 57001 60006 80000 91200=
07661,1997-11-23 18:00:00,11,1013.6,1.2,62,4,25000,7.408,,,310,8.5,14.5,,,,,,,,,wg-a,,,,AAXX 23184 07661 12/75 03104 10110 20040 39973 40136 52012 60006 80000 91800 333 10145 20085=
07661,1997-11-24 00:00:00,8,1014.7,-0.4,81,5,25000,14.816,,,80,,,,,,,,,,,wg-a,,,,AAXX 24004 07661 12/75 00808 10080 20050 39982 40147 57004 60006 80000 90000=
07661,1997-11-24 06:00:00,7,1013.8,-0.4,87,5,25000,25.928,,,80,6.4,11.2,,,,,,,,,wg-a,,,,AAXX 24064 07661 02/75 20814 10070 20050 39972 40138 58004 60006 82032 90600 333 10112 20064 60004=
07661,1997-11-24 12:00:00,13,1014.2,-0.5,82,10,20000,18.52,,,70,,,,,,,,,,,wg-a,,,,AAXX 24124 07661 12570 70710 10130 20100 39980 40142 58005 60006 84230 91200=
07661,1997-11-24 18:00:00,13,1013.1,-0,82,10,20000,18.52,,,70,7.1,13.7,,,,,,,,,wg-a,,,,AAXX 24184 07661 12570 50710 10130 20100 39969 40131 55000 60006 85100 91800 333 10137 20071=
07661,1997-11-25 00:00:00,12,1012.1,-0.9,88,10,16000,25.928,,,70,,,,,,,,,,,wg-a,,,,AAXX 25004 07661 12466 70714 10120 20100 39959 40121 57009 60006 8572/ 90000=
07661,1997-11-25 06:00:00,12,1010.2,-1,88,10,20000,25.928,,,70,11.4,13.3,,,,,,,,,wg-a,,,,AAXX 25064 07661 02670 40714 10120 20100 39940 40102 56010 60006 84200 90600 333 10133 20114 60004=
07661,1997-11-25 12:00:00,14,1009.7,-0.8,82,11,14000,38.892,,64.82,90,,,,,,,,,,60,wg-a,,,,AAXX 25124 07661 02564 80921 10140 20110 39936 40097 58008 61000 76062 887// 91200 333 6100 91035=
07661,1997-11-25 18:00:00,13,1009.2,0.3,88,11,14000,31.484,,64.82,70,11.6,14.1,,1,,,,,,21,wg-a,,,,AAXX 25184 07661 12564 80717 10130 20110 39930 40092 53003 60017 72122 888// 91800 333 10141 20116 91035=
07661,1997-11-26 00:00:00,13,1008,-0.5,94,12,8000,46.3,,72.228,80,,,,0,,,,,,62,wg-a,,,,AAXX 26004 07661 02558 80825 10130 20120 39919 40080 57005 60076 76262 887// 90000 333 60007 91039=
07661,1997-11-26 06:00:00,13,1007.1,-0.3,88,11,10000,46.3,,72.228,80,11.2,13.3,,,,,13,,,21,wg-a,,,,AAXX 26064 07661 02560 80825 10130 20110 39910 40071 55003 60134 72162 887// 90600 333 10133 20112 61000 91039=
07661,1997-11-26 12:00:00,14,1006.7,-0.9,82,11,15000,57.412,,87.044,80,,,,,,,,,,2,wg-a,,,,AAXX 26124 07661 02565 80831 10140 20110 39907 40067 58009 60056 70262 85720 91200 333 61000 91047=
07661,1997-11-26 18:00:00,14,1007.3,0.9,77,10,10000,46.3,,87.044,70,11.9,14.4,,,,,,,,,wg-a,,,,AAXX 26184 07661 32560 80725 10140 20100 39912 40073 53009 8252/ 91800 333 10144 20119 91047=
07661,1997-11-27 00:00:00,13,1009.4,0.5,82,10,10000,35.188,,83.34,60,,,,,,,,,,,wg-a,,,,AAXX 27004 07661 12560 60619 10130 20100 39933 40094 50005 60006 86800 90000 333 91045=
07661,1997-11-27 06:00:00,13,1011.5,1,82,10,14000,35.188,,57.412,70,12.7,14.3,,,,,5,,,,wg-a,,,,AAXX 27064 07661 12/64 30719 10130 20100 39953 40115 53010 60054 83030 90600 333 10143 20127 91031=
07661,1997-11-27 12:00:00,15,1014.3,0.7,77,11,25000,18.52,,,90,,,,,,,,,,,wg-a,,,,AAXX 27124 07661 12475 70910 10150 20110 39982 40143 51007 60006 8284/ 91200=
07661,1997-11-27 18:00:00,13,1016,1,88,11,25000,7.408,,,350,13.1,16.5,,,,,,,,,wg-a,,,,AAXX 27184 07661 12/75 33504 10130 20110 39998 40160 53010 60006 82032 91800 333 10165 20131=
07661,1997-11-28 00:00:00,13,1016.9,-0.4,82,10,0,7.408,,,330,,,,,,,,,,,wg-a,,,,AAXX 28004 07661 12/// /3304 10130 20100 30007 40169 57004 60006 90000=
07661,1997-11-28 06:00:00,11,1017.1,0.5,87,9,20000,7.408,,,70,10.9,13.5,,,,,,,,,wg-a,,,,AAXX 28064 07661 02/70 10704 10110 20090 30007 40171 51005 60006 80001 90600 333 10135 20109 60004=
07661,1997-11-28 12:00:00,15,1017.2,-0.4,77,11,20000,3.704,,,200,,,,,,,,,,,wg-a,,,,AAXX 28124 07661 12570 62002 10150 20110 30010 40172 58004 60006 83141 91200=
07661,1997-11-28 18:00:00,14,1016.6,-0,88,12,20000,7.408,,,170,10.4,15.2,,,,,,,,,wg-a,,,,AAXX 28184 07661 12570 81704 10140 20120 30004 40166 55000 60006 8387/ 91800 333 10152 20104=
07661,1997-11-29 00:00:00,13,1014.2,-1.8,94,12,11000,18.52,,,300,,,,7,,,,,,63,wg-a,,,,AAXX 29004 07661 02461 83010 10130 20120 39980 40142 57018 60086 76322 887// 90000 333 60077=
07661,1997-11-29 06:00:00,12,1012.4,-0.5,94,11,12000,7.408,,,280,11.9,14.1,,,,,9,,,2,wg-a,,,,AAXX 29064 07661 12462 72804 10120 20110 39962 40124 56005 60094 70262 8417/ 90600 333 10141 20119=
07661,1997-11-29 18:00:00,13,1008.5,-0.7,72,8,20000,35.188,,,310,11.5,15.3,,,,,,,,,wg-a,,,,AAXX 29184 07661 12870 43119 10130 20080 39923 40085 58007 60006 84050 91800 333 10153 20115=
07661,1997-11-30 00:00:00,11,1006.3,-1.7,71,6,15000,35.188,,,300,,,,,,,,,,,wg-a,,,,AAXX 30004 07661 12/65 43019 10110 20060 39900 40063 58017 60006 80001 90000=
07661,1997-11-30 06:00:00,11,1005.2,-0.8,62,4,25000,38.892,,,310,9.4,12.6,,,,,,,,,wg-a,,,,AAXX 30064 07661 02/75 03121 10110 20040 39890 40052 56008 60006 80000 90600 333 10126 20094 60004=
07661,1997-11-30 12:00:00,14,1004.8,-1.4,51,4,45000,61.116,,96.304,320,,,,,,,,,,,wg-a,,,,AAXX 30124 07661 12583 23233 10140 20040 39888 40048 57014 60006 81101 91200 333 91052=
07661,1997-11-30 18:00:00,13,1005.5,0.5,51,3,500,64.82,,100.008,310,10.6,14.3,,,,,,,,,wg-a,,,,AAXX 30184 07661 32/00 03135 10130 20030 39894 40055 50005 80000 91800 333 10143 20106 91054=
07661,1997-12-01 00:00:00,11,1006,-0.2,62,4,20000,50.004,,94.452,300,,,,,,,,,,,wg-a,,,,AAXX 01004 07661 12/70 03027 10110 20040 39898 40060 56002 60006 80000 90000 333 91051=
07661,1997-12-01 06:00:00,11,1004.4,-1.5,58,3,500,64.82,,96.304,310,10.1,12.7,,,,,,,,,wg-a,,,,AAXX 01064 07661 02/00 03135 10110 20030 39882 40044 55015 60006 80000 90600 333 10127 20101 60004 91052=
07661,1997-12-01 18:00:00,10,1007.3,0.8,57,2,25000,31.484,,61.116,290,9.8,14.3,,,,,,,,,wg-a,,,,AAXX 01184 07661 12/75 02917 10100 20020 39910 40073 51008 60006 80000 91800 333 10143 20098 91033=
07661,1997-12-02 00:00:00,8,1007.3,-0.7,66,2,15000,11.112,,,300,,,,,,,,,,,wg-a,,,,AAXX 02004 07661 12/65 03006 10080 20020 39908 40073 58007 60006 80000 90000=
07661,1997-12-02 06:00:00,9,1004.9,-1.3,61,2,500,25.928,,,300,7.4,9.9,,,,,,,,,wg-a,,,,AAXX 02064 07661 02500 73014 10090 20020 39886 40049 58013 60006 8317/ 90600 333 10099 20074 60004=
07661,1997-12-02 12:00:00,12,1000.3,-3,88,10,15000,57.412,,100.008,290,,,,3,,,,,,63,wg-a,,,,AAXX 02124 07661 02465 82931 10120 20100 39842 40003 58030 60036 76366 887// 91200 333 60037 91054=
07661,1997-12-02 18:00:00,10,999.7,0.3,53,1,25000,61.116,,94.452,300,8.9,13.4,,,,,,,,,wg-a,,,,AAXX 02184 07661 32475 43033 10100 20010 39835 49997 53003 82250 91800 333 10134 20089 91051=
07661,1997-12-03 00:00:00,6,999.8,-0.9,52,-3,20000,68.524,,103.712,300,,,,,,,,,,,wg-a,,,,AAXX 03004 07661 12/70 03037 10060 21030 39834 49998 58009 60006 80000 90000 333 91056=
07661,1997-12-03 06:00:00,5,997.9,-1.2,56,-3,20000,79.636,,129.64,310,5,10.4,,,,,3,,,,wg-a,,,,AAXX 03064 07661 02470 13143 10050 21030 39814 49979 55012 60006 81100 90600 333 10104 20050 60034 91070=
07661,1997-12-03 12:00:00,6,999.9,1.6,49,-4,35000,38.892,,118.528,300,,,,,,,,,,,wg-a,,,,AAXX 03124 07661 12481 13021 10060 21040 39835 49999 51016 60006 81100 91200 333 91064=
07661,1997-12-03 18:00:00,4,1001.7,-0.3,52,-5,20000,57.412,,100.008,300,3.5,6.6,,,,,,,,,wg-a,,,,AAXX 03184 07661 12/70 03031 10040 21050 39851 40017 58003 60006 80000 91800 333 10066 20035 91054=
07661,1997-12-04 00:00:00,3,1004.8,1.4,60,-4,15000,46.3,,114.824,300,,,,,,,,,,,wg-a,,,,AAXX 04004 07661 12/65 03025 10030 21040 39881 40048 51014 60006 80000 90000 333 91062=
07661,1997-12-04 06:00:00,2,1006.5,0.8,69,-3,0,14.816,,,320,2.2,3.9,,,,,,,,,wg-a,,,,AAXX 04064 07661 02/// /3208 10020 21030 39897 40065 51008 60006 90600 333 10039 20022 60004=
07661,1997-12-04 12:00:00,8,1008.2,0.2,53,-1,25000,3.704,,,70,,,,,,,,,,,wg-a,,,,AAXX 04124 07661 12/75 60702 10080 21010 39918 40082 50002 60006 82042 91200=
07661,1997-12-04 18:00:00,8,1009.5,1.1,66,2,20000,14.816,,,60,2.1,9.6,,,,,,,,,wg-a,,,,AAXX 04184 07661 12/70 10608 10080 20020 39930 40095 51011 60006 81030 91800 333 10096 20021=
07661,1997-12-05 00:00:00,8,1010.9,0.3,81,5,15000,31.484,,,60,,,,,,,,,,,wg-a,,,,AAXX 05004 07661 02/65 60617 10080 20050 39944 40109 50003 61000 86030 90000 333 6100=
07661,1997-12-05 06:00:00,9,1011.7,0.7,71,4,25000,29.632,,,60,6.7,9.2,,,,,,,,,wg-a,,,,AAXX 05064 07661 02675 30616 10090 20040 39953 40117 53007 61000 82530 90600 333 10092 20067 ////=
07661,1997-12-05 12:00:00,12,1013.6,0.7,54,3,25000,18.52,,,60,,,,,,,,,,,wg-a,,,,AAXX 05124 07661 12475 30610 10120 20030 39973 40136 51007 60006 81102 91200=
07661,1997-12-05 18:00:00,10,1015.4,1.5,66,4,20000,11.112,,,310,7.9,12.6,,,,,,,,,wg-a,,,,AAXX 05184 07661 12/70 03106 10100 20040 39989 40154 51015 60006 80000 91800 333 10126 20079=
07661,1997-12-06 00:00:00,8,1016.6,0.3,71,3,10000,7.408,,,60,,,,,,,,,,,wg-a,,,,AAXX 06004 07661 12/60 00604 10080 20030 30000 40166 50003 60006 80000 90000=
07661,1997-12-06 06:00:00,6,1016.8,-0.1,75,2,20000,7.408,,,70,5.6,9.9,,,,,,,,,wg-a,,,,AAXX 06064 07661 02/70 00704 10060 20020 30001 40168 55001 60006 80000 90600 333 10099 20056 60004=
07661,1997-12-06 12:00:00,11,1017.5,-0.3,66,5,20000,11.112,,,220,,,,,,,,,,,wg-a,,,,AAXX 06124 07661 12670 22206 10110 20050 30011 40175 58003 60006 82100 91200=
07661,1997-12-06 18:00:00,8,1018.8,1.4,81,5,15000,14.816,,,310,5.3,11,,,,,,,,,wg-a,,,,AAXX 06184 07661 12/65 03108 10080 20050 30022 40188 52014 60006 80000 91800 333 10110 20053=
07661,1997-12-07 00:00:00,7,1019.7,-0.3,87,5,15000,7.408,,,360,,,,,,,,,,,wg-a,,,,AAXX 07004 07661 12/65 03604 10070 20050 30030 40197 58003 60006 80000 90000=
07661,1997-12-07 06:00:00,5,1019,0,87,3,12000,14.816,,,90,4.3,8.3,,,,,,,,,wg-a,,,,AAXX 07064 07661 02662 40908 10050 20030 30022 40190 50000 60006 84500 90600 333 10083 20043 60004=
07661,1997-12-07 12:00:00,10,1019.2,-0.3,82,7,15000,11.112,,,80,,,,,,,,,,,wg-a,,,,AAXX 07124 07661 12665 60806 10100 20070 30027 40192 58003 60006 86500 91200=
07661,1997-12-07 18:00:00,9,1017.7,-0.4,87,7,15000,14.816,,,60,4.7,10.6,,,,,,,,,wg-a,,,,AAXX 07184 07661 12565 30608 10090 20070 30012 40177 55004 60006 83200 91800 333 10106 20047=
07661,1997-12-08 00:00:00,7,1016.7,-1,93,6,15000,18.52,,,70,,,,,,,,,,,wg-a,,,,AAXX 08004 07661 12/65 00710 10070 20060 30000 40167 58010 60006 80000 90000=
07661,1997-12-08 06:00:00,6,1015.7,-0.6,93,5,15000,11.112,,,80,5.5,9.3,,,,,,,,,wg-a,,,,AAXX 08064 07661 02/65 40806 10060 20050 39990 40157 57006 60006 82032 90600 333 10093 20055 60004=
07661,1997-12-08 12:00:00,11,1015.2,-1.1,76,7,10000,3.704,,,300,,,,,,,,,,,wg-a,,,,AAXX 08124 07661 12/60 73002 10110 20070 39988 40152 58011 60006 86074 91200=
07661,1997-12-08 18:00:00,9,1014.4,0.5,87,7,10000,7.408,,,310,5.4,11.6,,,,,,,,,wg-a,,,,AAXX 08184 07661 32/60 33104 10090 20070 39979 40144 53005 80002 91800 333 10116 20054=
07661,1997-12-09 00:00:00,7,1014.8,-0.4,93,6,8000,7.408,,,50,,,,,,,,,,,wg-a,,,,AAXX 09004 07661 12/58 00504 10070 20060 39982 40148 56004 60006 80000 90000=
07661,1997-12-09 06:00:00,8,1014.8,0.2,81,5,8000,14.816,,,300,6.4,8.8,,,,,,,,,wg-a,,,,AAXX 09064 07661 02558 63008 10080 20050 39983 40148 53002 60006 84260 90600 333 10088 20064 60004=
07661,1997-12-09 12:00:00,12,1014.4,-1.2,67,6,10000,25.928,,,290,,,,,,,,,,,wg-a,,,,AAXX 09124 07661 12860 32914 10120 20060 39981 40144 58012 60006 83040 91200=
07661,1997-12-09 18:00:00,12,1016.4,1.6,50,2,15000,31.484,,,300,8,13.8,,,,,,,,,wg-a,,,,AAXX 09184 07661 12/65 03017 10120 20020 30001 40164 51016 60006 80000 91800 333 10138 20080=
07661,1997-12-10 00:00:00,8,1018.9,0.6,71,3,10000,7.408,,,80,,,,,,,,,,,wg-a,,,,AAXX 10004 07661 12/60 20804 10080 20030 30023 40189 50006 60006 80004 90000=
07661,1997-12-10 06:00:00,7,1020.3,0.7,70,2,15000,14.816,,,90,6.8,12.1,,,,,,,,,wg-a,,,,AAXX 10064 07661 02/65 00908 10070 20020 30036 40203 53007 60006 80000 90600 333 10121 20068 60004=
07661,1997-12-10 12:00:00,12,1,,,,18000,3.704,,,10,,,,,,,,,,,wg-a,,,,AAXX 10124 07661 12468 70102 10120 2//// 60006 91200=
07661,1997-12-10 18:00:00,12,1021,0.4,62,5,40000,22.224,,,290,6.5,12.3,,,,,,,,,wg-a,,,,AAXX 10184 07661 12/82 82912 10120 20050 30046 40210 52004 60006 8807/ 91800 333 10123 20065=
07661,1997-12-11 00:00:00,11,1019.4,-0.8,76,7,20000,42.596,,,300,,,,,,,,,,,wg-a,,,,AAXX 11004 07661 12/70 43023 10110 20070 30030 40194 58008 60006 82042 90000=
07661,1997-12-11 06:00:00,12,1018.3,-0.3,82,9,20000,11.112,,,340,11,11.8,,,,,,,,,wg-a,,,,AAXX 11064 07661 02/70 43406 10120 20090 30019 40183 55003 60006 84030 90600 333 10118 20110 60004=
07661,1997-12-11 12:00:00,15,1018,-0.7,77,11,15000,42.596,,,300,,,,,,,,,,,wg-a,,,,AAXX 11124 07661 12/65 73023 10150 20110 30018 40180 57007 60006 85077 91200=
07661,1997-12-11 18:00:00,14,1017.3,-0.4,88,12,18000,18.52,,,260,11.2,16.3,,,,,,,,,wg-a,,,,AAXX 11184 07661 12868 72610 10140 20120 30011 40173 58004 60006 84077 91800 333 10163 20112=
07661,1997-12-12 00:00:00,13,1014.8,-1.8,94,12,8000,25.928,,,290,,,,,,,,,,,wg-a,,,,AAXX 12004 07661 12/58 72914 10130 20120 39986 40148 56018 60006 8703/ 90000=
07661,1997-12-12 06:00:00,14,1011.5,-1.2,67,8,8000,50.004,,68.524,300,12.7,14.2,,,,,,,,,wg-a,,,,AAXX 12064 07661 02/58 73027 10140 20080 39954 40115 55012 60006 8703/ 90600 333 10142 20127 60004 91037=
07661,1997-12-12 12:00:00,15,1013,0.1,48,4,15000,53.708,,90.748,310,,,,,,,,,,,wg-a,,,,AAXX 12124 07661 12/65 63129 10150 20040 39969 40130 50001 60006 86042 91200 333 91049=
07661,1997-12-12 18:00:00,12,1012,-1.8,50,2,25000,68.524,,100.008,320,11.5,14.7,,,,,,,,,wg-a,,,,AAXX 12184 07661 12/75 63237 10120 20020 39957 40120 58018 60006 86010 91800 333 10147 20115 91054=
07661,1997-12-13 00:00:00,11,1015.4,0.2,50,1,20000,25.928,,100.008,320,,,,,,,,,,,wg-a,,,,AAXX 13004 07661 12/70 43214 10110 20010 39990 40154 50002 60006 80001 90000 333 91054=
07661,1997-12-13 06:00:00,12,1014.2,-1.2,40,-1,20000,25.928,,61.116,320,9.6,11.8,,,,,,,,,wg-a,,,,AAXX 13064 07661 02/70 33214 10120 21010 39979 40142 57012 60006 83030 90600 333 10118 20096 60004 91033=
07661,1997-12-13 12:00:00,15,1017.2,0.7,39,1,35000,3.704,,,270,,,,,,,,,,,wg-a,,,,AAXX 13124 07661 12581 62702 10150 20010 30010 40172 50007 60006 83542 91200=
07661,1997-12-13 18:00:00,12,1020.2,1.6,50,2,35000,7.408,,,50,11.4,14.8,,,,,,,,,wg-a,,,,AAXX 13184 07661 12/81 00504 10120 20020 30038 40202 52016 60006 80000 91800 333 10148 20114=
07661,1997-12-14 00:00:00,8,1022.5,0.8,57,0,25000,3.704,,,60,,,,,,,,,,,wg-a,,,,AAXX 14004 07661 12/75 00602 10080 20000 30058 40225 51008 60006 80000 90000=
07661,1997-12-14 06:00:00,6,1022.7,0.2,65,0,500,11.112,,,80,6.2,12.1,,,,,,,,,wg-a,,,,AAXX 14064 07661 02/00 00806 10060 20000 30059 40227 53002 60006 80000 90600 333 10121 20062 60004=
07661,1997-12-14 12:00:00,12,1021.3,-1.4,76,8,40000,14.816,,,110,,,,,,,,,,,wg-a,,,,AAXX 14124 07661 12582 11108 10120 20080 30049 40213 58014 60006 81101 91200=
07661,1997-12-14 18:00:00,10,1016.8,-2.1,82,7,25000,22.224,,,60,5.6,12.9,,,,,,,,,wg-a,,,,AAXX 14184 07661 12/75 00612 10100 20070 30003 40168 56021 60006 80000 91800 333 10129 20056=
07661,1997-12-15 00:00:00,8,1013.7,-1.4,66,2,25000,11.112,,,80,,,,,,,,,,,wg-a,,,,AAXX 15004 07661 12/75 00806 10080 20020 39971 40137 58014 60006 80000 90000=
07661,1997-12-15 06:00:00,6,1011,-1.2,61,-1,20000,14.816,,,90,5.6,9.8,,,,,,,,,wg-a,,,,AAXX 15064 07661 02570 40908 10060 21010 39944 40110 56012 60006 84200 90600 333 10098 20056 60004=
07661,1997-12-15 12:00:00,9,1011.8,-0.6,66,3,15000,31.484,,,60,,,,,,,,,,21,wg-a,,,,AAXX 15124 07661 02565 70617 10090 20030 39954 40118 58006 60006 72162 8334/ 91200 333 61000=
07661,1997-12-15 18:00:00,6,1012.8,0.3,81,3,0,35.188,,,60,5.3,9.1,,1,,,,,,,wg-a,,,,AAXX 15184 07661 12/// /0619 10060 20030 39962 40128 51003 60017 91800 333 10091 20053=
07661,1997-12-16 00:00:00,9,1012.7,-0.3,61,2,15000,57.412,,87.044,70,,,,0,,,,,,21,wg-a,,,,AAXX 16004 07661 02565 70731 10090 20020 39962 40127 56003 60016 72162 8/300 90000 333 60007 91047=
07661,1997-12-16 06:00:00,9,1011.3,-0.8,57,1,15000,64.82,,100.008,70,6.1,9.1,,,,,3,,,,wg-a,,,,AAXX 16064 07661 12565 80735 10090 20010 39948 40113 55008 60034 887// 90600 333 10091 20061 91054=
07661,1997-12-16 18:00:00,8,1011,-0.4,71,3,14000,79.636,,125.936,70,6.8,9.5,,0,,,,,,21,wg-a,,,,AAXX 16184 07661 12564 80743 10080 20030 39945 40110 55004 60007 72162 887// 91800 333 10095 20068 91068=
07661,1997-12-17 00:00:00,8,1011.1,0.3,76,4,15000,87.044,,129.64,70,,,,0,,,,,,63,wg-a,,,,AAXX 17004 07661 02565 80747 10080 20040 39946 40111 53003 60016 76362 887// 90000 333 60007 91070=
07661,1997-12-17 06:00:00,7,1012.1,1.1,87,5,0,64.82,,,70,6.5,8,,5,,,7,,,,wg-a,,,,AAXX 17064 07661 02/// /0735 10070 20050 39955 40121 53011 60074 90600 333 10080 20065 60057=
07661,1997-12-17 18:00:00,10,1014.1,0.7,87,8,500,57.412,,90.748,70,6.5,10.2,,0,,,,,,63,wg-a,,,,AAXX 17184 07661 12400 80731 10100 20080 39977 40141 53007 60007 76362 887// 91800 333 10102 20065 91049=
07661,1997-12-18 00:00:00,9,1015.3,0.1,100,9,500,50.004,,90.748,70,,,,1,,,,,,63,wg-a,,,,AAXX 18004 07661 02400 80727 10090 20090 39988 40153 50001 60066 76362 887// 90000 333 60017 91049=
07661,1997-12-18 06:00:00,11,1012,-1.3,87,9,8000,61.116,,90.748,80,9.2,11.3,,0,,,18,,,62,wg-a,,,,AAXX 18064 07661 02458 80833 10110 20090 39957 40120 58013 60184 76262 887// 90600 333 10113 20092 60007 91049=
07661,1997-12-18 12:00:00,11,1010.8,-2.3,94,10,10000,50.004,,90.748,80,,,,1,,,,,,62,wg-a,,,,AAXX 18124 07661 02460 80827 10110 20100 39945 40108 56023 60066 76266 887// 91200 333 60017 91049=
07661,1997-12-18 18:00:00,12,1007.2,-1.1,94,11,10000,61.116,,,80,10.9,12.8,,1,,,,,,62,wg-a,,,,AAXX 18184 07661 12460 80833 10120 20110 39911 40072 58011 60017 76266 887// 91800 333 10128 20109=
07661,1997-12-19 00:00:00,13,1007.2,-0.6,94,12,8000,29.632,,87.044,100,,,,4,,,,,,60,wg-a,,,,AAXX 19004 07661 02458 81016 10130 20120 39911 40072 58006 60066 76066 887// 90000 333 60047 91047=
07661,1997-12-19 06:00:00,14,1006.4,-0.1,94,13,500,18.52,,,130,11.9,13.9,,,,,,,,2,wg-a,,,,AAXX 19064 07661 02400 81310 10140 20130 39904 40064 56001 61000 70262 887// 90600 333 10139 20119 ////=
07661,1997-12-19 12:00:00,13,1006,-1.3,94,12,500,25.928,,,70,,,,,,,,,,63,wg-a,,,,AAXX 19124 07661 02300 80714 10130 20120 39899 40060 58013 61000 763// 887// 91200 333 6002=
07661,1997-12-19 18:00:00,13,1001,-2.6,100,13,500,38.892,,64.82,170,11.9,13.9,,15,,,,,,63,wg-a,,,,AAXX 19184 07661 12400 81721 10130 20130 39850 40010 58026 60157 76366 887// 91800 333 10139 20119 91035=
07661,1997-12-20 00:00:00,12,1000.8,0.1,88,10,15000,14.816,,83.34,240,,,,,,,,,,21,wg-a,,,,AAXX 20004 07661 12365 82408 10120 20100 39847 40008 50001 60046 72162 8472/ 90000 333 91045=
07661,1997-12-20 06:00:00,10,1000.9,0.3,87,8,15000,14.816,,,280,9.8,13.3,,0,,,24,,,1,wg-a,,,,AAXX 20064 07661 02/65 02808 10100 20080 39847 40009 53003 60244 70162 80000 90600 333 10133 20098 60007=
07661,1997-12-20 18:00:00,11,1004.9,1.2,76,7,25000,35.188,,,300,9.4,12.4,,,,,,,,,wg-a,,,,AAXX 20184 07661 32/75 03019 10110 20070 39887 40049 53012 80000 91800 333 10124 20094=
07661,1997-12-21 00:00:00,10,1007.1,1,71,5,15000,42.596,,68.524,300,,,,,,,,,,,wg-a,,,,AAXX 21004 07661 12/65 03023 10100 20050 39908 40071 51010 60006 80000 90000 333 91037=
07661,1997-12-21 06:00:00,9,1008.4,0.8,81,6,20000,46.3,,68.524,310,8.3,11.2,,,,,,,,,wg-a,,,,AAXX 21064 07661 02/70 03125 10090 20060 39920 40084 51008 60006 80000 90600 333 10112 20083 60004 91037=
07661,1997-12-21 12:00:00,13,1008.6,-0.7,72,8,20000,57.412,,83.34,300,,,,,,,,,,,wg-a,,,,AAXX 21124 07661 12470 43031 10130 20080 39924 40086 58007 60006 84340 91200 333 91045=
07661,1997-12-21 18:00:00,12,1009.1,0.4,71,7,25000,46.3,,75.932,300,8.9,12.8,,,,,,,,,wg-a,,,,AAXX 21184 07661 12475 53025 10120 20070 39929 40091 51004 60006 84230 91800 333 10128 20089 91041=
07661,1997-12-22 00:00:00,10,1009.9,-0,66,4,15000,38.892,,64.82,310,,,,,,,,,,,wg-a,,,,AAXX 22004 07661 12/65 03121 10100 20040 39935 40099 54000 60006 80000 90000 333 91035=
07661,1997-12-22 06:00:00,7,1010.3,-0.1,81,4,25000,18.52,,,280,6.5,11.5,,,,,,,,,wg-a,,,,AAXX 22064 07661 02/75 02810 10070 20040 39938 40103 55001 60006 80000 90600 333 10115 20065 60004=
07661,1997-12-22 12:00:00,11,1011.8,-0.3,66,5,20000,14.816,,,280,,,,,,,,,,,wg-a,,,,AAXX 22124 07661 12/70 22808 10110 20050 39955 40118 58003 60006 80001 91200=
07661,1997-12-22 18:00:00,10,1013.3,1.3,71,5,20000,14.816,,,320,6.2,11.2,,,,,,,,,wg-a,,,,AAXX 22184 07661 12/70 03208 10100 20050 39969 40133 52013 60006 80000 91800 333 10112 20062=
07661,1997-12-23 00:00:00,8,1015.2,0.6,81,5,20000,14.816,,,70,,,,,,,,,,,wg-a,,,,AAXX 23004 07661 12/70 40708 10080 20050 39987 40152 51006 60006 84010 90000=
07661,1997-12-23 06:00:00,10,1016.4,0.7,76,6,15000,3.704,,,320,7.3,9.9,,,,,,,,,wg-a,,,,AAXX 23064 07661 02465 53202 10100 20060 39999 40164 53007 60006 85600 90600 333 10099 20073 60004=
07661,1997-12-23 12:00:00,12,1018.7,0.2,67,6,15000,14.816,,,290,,,,,,,,,,2,wg-a,,,,AAXX 23124 07661 02865 72908 10120 20060 30024 40187 50002 61000 70262 85051 91200 333 ////=
07661,1997-12-23 18:00:00,11,1022.5,2.8,66,5,15000,3.704,,,40,9.6,12.8,,,,,,,,,wg-a,,,,AAXX 23184 07661 32/65 00402 10110 20050 30060 40225 53028 80000 91800 333 10128 20096=
07661,1997-12-24 00:00:00,8,1026.6,2.1,87,6,15000,7.408,,,330,,,,,,,,,,,wg-a,,,,AAXX 24004 07661 12/65 03304 10080 20060 30099 40266 51021 60006 80000 90000=
07661,1997-12-24 06:00:00,8,1027.7,0.2,71,3,20000,14.816,,,60,6.8,11.1,,,,,,,,,wg-a,,,,AAXX 24064 07661 02/70 00608 10080 20030 30109 40277 53002 60006 80000 90600 333 10111 20068 61000=
07661,1997-12-24 12:00:00,12,1029,-0.2,62,5,25000,3.704,,,110,,,,,,,,,,,wg-a,,,,AAXX 24124 07661 12/75 41102 10120 20050 30125 40290 58002 60006 80005 91200=
07661,1997-12-24 18:00:00,11,1028.6,0.1,87,9,20000,7.408,,,170,7.5,12.5,,,,,,,,,wg-a,,,,AAXX 24184 07661 12570 41704 10110 20090 30120 40286 50001 60006 82408 91800 333 10125 20075=
07661,1997-12-25 00:00:00,10,1028.6,-0.5,87,8,10000,3.704,,,70,,,,,,,,,,,wg-a,,,,AAXX 25004 07661 12860 80702 10100 20080 30120 40286 58005 60006 8808/ 90000=
07661,1997-12-25 06:00:00,9,1025.9,-1.3,93,8,12000,7.408,,,340,8.5,11.1,,,,,,,,,wg-a,,,,AAXX 25064 07661 02562 43404 10090 20080 30093 40259 56013 60006 82530 90600 333 10111 20085 60004=
07661,1997-12-25 12:00:00,12,1025.8,-1.2,82,9,12000,7.408,,,70,,,,,,,,,,,wg-a,,,,AAXX 25124 07661 12562 70704 10120 20090 30094 40258 58012 60006 875// 91200=
07661,1997-12-25 18:00:00,11,1024.1,-0.5,94,10,12000,11.112,,,60,9,12.8,,,,,,,,,wg-a,,,,AAXX 25184 07661 12562 20606 10110 20100 30076 40241 58005 60006 82500 91800 333 10128 20090=
07661,1997-12-26 00:00:00,11,1022.1,-1.2,87,9,12000,11.112,,,90,,,,,,,,,,,wg-a,,,,AAXX 26004 07661 12462 80906 10110 20090 30056 40221 58012 60006 885// 90000=
07661,1997-12-26 06:00:00,10,1017.7,-2.1,87,8,12000,18.52,,,310,9,11.7,,,,,,,,,wg-a,,,,AAXX 26064 07661 02462 53110 10100 20080 30012 40177 56021 60006 83530 90600 333 10117 20090 60004=
07661,1997-12-26 12:00:00,12,1015.1,-1.6,76,8,15000,18.52,,,300,,,,,,,,,,,wg-a,,,,AAXX 26124 07661 12565 83010 10120 20080 39988 40151 58016 60006 8687/ 91200=
07661,1997-12-26 18:00:00,10,1013.5,-0.2,71,5,20000,46.3,,72.228,300,9.8,12.7,,,,,,,,,wg-a,,,,AAXX 26184 07661 32870 53025 10100 20050 39971 40135 55002 85010 91800 333 10127 20098 91039=
07661,1997-12-27 00:00:00,9,1012.4,-0.5,66,3,20000,46.3,,96.304,300,,,,,,,,,,,wg-a,,,,AAXX 27004 07661 12/70 03025 10090 20030 39960 40124 58005 60006 80000 90000 333 91052=
07661,1997-12-27 06:00:00,8,1010.7,-0.6,71,3,25000,61.116,,79.636,300,8,10.4,,,,,,,,,wg-a,,,,AAXX 27064 07661 02/75 03033 10080 20030 39942 40107 56006 60006 80000 90600 333 10104 20080 60004 91043=
07661,1997-12-27 12:00:00,12,1009.8,-2.6,50,2,500,64.82,,94.452,300,,,,,,,,,,,wg-a,,,,AAXX 27124 07661 12400 43035 10120 20020 39935 40098 58026 60006 811// 91200 333 91051=
07661,1997-12-27 18:00:00,11,1012,3,50,1,25000,38.892,,96.304,310,8.1,11.9,,,,,,,,,wg-a,,,,AAXX 27184 07661 32/75 03121 10110 20010 39957 40120 51030 80000 91800 333 10119 20081 91052=
07661,1997-12-28 00:00:00,9,1013.6,-0.3,53,0,20000,38.892,,75.932,310,,,,,,,,,,,wg-a,,,,AAXX 28004 07661 12/70 03121 10090 20000 39971 40136 58003 60006 80000 90000 333 91041=
07661,1997-12-28 06:00:00,8,1013,0.6,53,-1,20000,22.224,,79.636,270,7.6,10.9,,,,,,,,,wg-a,,,,AAXX 28064 07661 02/70 02712 10080 21010 39965 40130 53006 60006 80000 90600 333 10109 20076 60004 91043=
07661,1997-12-28 12:00:00,10,1012.8,-1,46,-1,45000,31.484,,,310,,,,,,,,,,,wg-a,,,,AAXX 28124 07661 12/83 13117 10100 21010 39964 40128 58010 60006 80002 91200=
07661,1997-12-28 18:00:00,8,1013,1.2,49,-2,35000,14.816,,64.82,280,7.1,11,,,,,,,,,wg-a,,,,AAXX 28184 07661 12/81 12808 10080 21020 39965 40130 51012 60006 80001 91800 333 10110 20071 91035=
07661,1997-12-29 00:00:00,6,1012.3,0,56,-2,25000,11.112,,,320,,,,,,,,,,,wg-a,,,,AAXX 29004 07661 12/75 03206 10060 21020 39957 40123 50000 60006 80000 90000=
07661,1997-12-29 06:00:00,5,1012.4,-0,75,1,25000,14.816,,,70,4.6,8.2,,,,,,,,,wg-a,,,,AAXX 29064 07661 02875 10708 10050 20010 39957 40124 55000 60006 81080 90600 333 10082 20046 60004=
07661,1997-12-29 12:00:00,11,1013.4,-0.3,66,5,40000,7.408,,,110,,,,,,,,,,,wg-a,,,,AAXX 29124 07661 12582 31104 10110 20050 39970 40134 58003 60006 83240 91200=
07661,1997-12-29 18:00:00,10,1014.5,0.9,66,4,50000,7.408,,,140,4.1,10.9,,,,,,,,,wg-a,,,,AAXX 29184 07661 12/84 01404 10100 20040 39980 40145 53009 60006 80000 91800 333 10109 20041=
07661,1997-12-30 00:00:00,6,1016.3,0.8,87,4,500,11.112,,,100,,,,,,,,,,,wg-a,,,,AAXX 30004 07661 12800 41006 10060 20040 39996 40163 51008 60006 84050 90000=
07661,1997-12-30 06:00:00,8,1016.7,0.4,87,6,28000,25.928,,,60,5.6,9.8,,,,,,,,,wg-a,,,,AAXX 30064 07661 02878 70614 10080 20060 30001 40167 53004 60006 8707/ 90600 333 10098 20056 60004=
07661,1997-12-30 12:00:00,10,1017.3,-0.9,82,7,20000,29.632,,,60,,,,,,,,,,21,wg-a,,,,AAXX 30124 07661 02470 80616 10100 20070 30009 40173 58009 61000 72162 8377/ 91200 333 6100=
07661,1997-12-30 18:00:00,10,1017.1,0.4,87,8,0,29.632,,,60,,,,,,,,,,,wg-a,,,,AAXX 30184 07661 32/// /0616 10100 20080 30007 40171 53004 91800=
07661,1997-12-31 00:00:00,11,1015.9,-1.3,82,8,20000,31.484,,,70,,,,,,,,,,,wg-a,,,,AAXX 31004 07661 12470 60717 10110 20080 39995 40159 58013 60006 8377/ 90000=
07661,1997-12-31 06:00:00,10,1015.6,0.1,100,10,6000,29.632,,,70,9.8,10.8,,2,,,2,,,21,wg-a,,,,AAXX 31064 07661 02456 80716 10100 20100 39992 40156 53001 60024 72166 8677/ 90600 333 10108 20098 60027=
07661,1997-12-31 12:00:00,13,1015,-1.1,82,10,15000,38.892,,,70,,,,,,,,,,3,wg-a,,,,AAXX 31124 07661 12465 70721 10130 20100 39987 40150 58011 60016 70362 875// 91200=
07661,1997-12-31 18:00:00,12,1015.3,0.7,88,10,15000,29.632,,,70,10,12.7,,0,,,,,,,wg-a,,,,AAXX 31184 07661 12465 70716 10120 20100 39990 40153 53007 60007 877// 91800 333 10127 20100=
