station_id,dh_utc,temperature,pression,pression_variation_3h,humidite,point_de_rosee,visibilite,vent_moyen,vent_rafales,vent_rafales_10min,vent_direction,temperature_min,temperature_max,pluie_1h,pluie_3h,pluie_6h,pluie_12h,pluie_24h,ensoleillement,temperature_sol,temps_omm,source,radiations,neige_au_sol,nebulosite,raw_msg
07661,1998-01-01 00:00:00,12,1015.3,-0.3,94,11,20000,38.892,,61.116,70,,,,,,,,,,,wg-a,,,,AAXX 01004 07661 12470 70721 10120 20110 39990 40153 58003 60006 877// 90000 333 91033=
07661,1998-01-01 06:00:00,13,1016.7,0.5,88,11,18000,38.892,,64.82,80,11.8,12.6,,,,,1,,,,wg-a,,,,AAXX 01064 07661 02568 40821 10130 20110 30004 40167 53005 60006 84820 90600 333 10126 20118 60014 91035=
07661,1998-01-01 12:00:00,13,1018.6,0.1,88,11,15000,31.484,,68.524,80,,,,,,,,,,,wg-a,,,,AAXX 01124 07661 12465 70817 10130 20110 30023 40186 50001 60006 8477/ 91200 333 91037=
07661,1998-01-01 18:00:00,13,1019.4,0.3,88,11,15000,25.928,,,80,12.6,13.3,,,,,,,,,wg-a,,,,AAXX 01184 07661 12465 50814 10130 20110 30031 40194 50003 60006 82770 91800 333 10133 20126=
07661,1998-01-02 00:00:00,12,1018.6,-0.7,94,11,10000,7.408,,,110,,,,,,,,,,,wg-a,,,,AAXX 02004 07661 12460 61104 10120 20110 30022 40186 58007 60006 85760 90000=
07661,1998-01-02 06:00:00,11,1015.5,-1.8,94,10,15000,7.408,,,150,11,12.6,,,,,,,,,wg-a,,,,AAXX 02064 07661 02465 61504 10110 20100 39991 40155 56018 60006 86100 90600 333 10126 20110 60004=
07661,1998-01-02 12:00:00,13,1010.6,-3.1,94,12,15000,14.816,,,200,,,,,,,,,,,wg-a,,,,AAXX 02124 07661 12465 82008 10130 20120 39944 40106 58031 60006 8772/ 91200=
07661,1998-01-02 18:00:00,11,1007.2,-1.7,87,9,15000,25.928,,,270,10.7,14,,0,,,,,,21,wg-a,,,,AAXX 02184 07661 12465 82714 10110 20090 39910 40072 58017 60007 72165 8677/ 91800 333 10140 20107=
07661,1998-01-03 00:00:00,11,1008.7,0.9,54,2,20000,57.412,,111.12,310,,,,0,,,,,,,wg-a,,,,AAXX 03004 07661 02/70 03131 10110 20020 39924 40087 53009 60016 80000 90000 333 60007 91060=
07661,1998-01-03 06:00:00,10,1014.1,2.1,46,-1,20000,29.632,,107.416,280,9.6,11.2,,,,,2,,,,wg-a,,,,AAXX 03064 07661 12/70 02816 10100 21010 39977 40141 53021 60024 80000 90600 333 10112 20096 91058=
07661,1998-01-04 00:00:00,13,1017.7,-0.5,67,7,25000,29.632,,,290,,,,,,,,,,,wg-a,,,,AAXX 04004 07661 12/75 02916 10130 20070 30014 40177 57005 60006 80000 90000=
07661,1998-01-04 12:00:00,13,1018.3,-0.1,51,3,35000,25.928,,,310,,,,,,,,,,,wg-a,,,,AAXX 04124 07661 12881 73114 10130 20030 30020 40183 58001 60006 8707/ 91200=
07661,1998-01-05 00:00:00,12,1018.4,0,82,9,10000,22.224,,,270,,,,,,,,,,,wg-a,,,,AAXX 05004 07661 12860 22712 10120 20090 30020 40184 50000 60006 82070 90000=
07661,1998-01-05 06:00:00,11,1018.6,0.2,71,6,25000,22.224,,,280,10.2,12.6,,,,,,,,,wg-a,,,,AAXX 05064 07661 02875 52812 10110 20060 30022 40186 53002 60006 85075 90600 333 10126 20102 60004=
07661,1998-01-05 12:00:00,14,1019.4,-0.7,41,1,25000,35.188,,,300,,,,,,,,,,,wg-a,,,,AAXX 05124 07661 12/75 33019 10140 20010 30031 40194 58007 60006 80008 91200=
07661,1998-01-06 00:00:00,10,1020.5,-0.3,82,7,25000,14.816,,,300,,,,,,,,,,,wg-a,,,,AAXX 06004 07661 12/75 03008 10100 20070 30040 40205 58003 60006 80000 90000=
07661,1998-01-06 06:00:00,11,1018.9,-0.3,71,6,25000,42.596,,64.82,300,9.3,11.8,,,,,,,,,wg-a,,,,AAXX 06064 07661 02/75 03023 10110 20060 30025 40189 56003 60006 80000 90600 333 10118 20093 60004 91035=
07661,1998-01-06 12:00:00,13,1020.9,0,77,9,25000,38.892,,,280,,,,,,,,,,,wg-a,,,,AAXX 06124 07661 12575 12821 10130 20090 30046 40209 50000 60006 81101 91200=
07661,1998-01-06 18:00:00,12,1021.9,1.4,76,8,25000,22.224,,75.932,300,11,13.3,,,,,,,,,wg-a,,,,AAXX 06184 07661 12575 13012 10120 20080 30055 40219 53014 60006 81011 91800 333 10133 20110 91041=
07661,1998-01-07 00:00:00,11,1021.9,0.7,82,8,25000,22.224,,,290,,,,,,,,,,,wg-a,,,,AAXX 07004 07661 12475 12912 10110 20080 30054 40219 51007 60006 81100 90000=
07661,1998-01-07 06:00:00,10,1022.1,0.1,76,6,18000,14.816,,,300,9.5,11.9,,,,,,,,,wg-a,,,,AAXX 07064 07661 02468 23008 10100 20060 30055 40221 53001 60006 8/100 90600 333 10119 20095 60004=
07661,1998-01-07 12:00:00,13,1023.4,0,62,6,25000,29.632,,,280,,,,,,,,,,,wg-a,,,,AAXX 07124 07661 12/75 02816 10130 20060 30070 40234 50000 60006 80000 91200=
07661,1998-01-07 18:00:00,12,1025.3,1.4,82,9,25000,31.484,,,290,9.1,13.6,,,,,,,,,wg-a,,,,AAXX 07184 07661 12/75 02917 10120 20090 30088 40253 53014 60006 80000 91800 333 10136 20091=
07661,1998-01-08 00:00:00,10,1027.9,1.4,71,5,15000,14.816,,,310,,,,,,,,,,,wg-a,,,,AAXX 08004 07661 12/65 03108 10100 20050 30113 40279 52014 60006 80000 90000=
07661,1998-01-08 06:00:00,9,1029.3,0.9,76,5,20000,11.112,,,70,8.4,11.7,,,,,,,,,wg-a,,,,AAXX 08064 07661 02/70 10706 10090 20050 30126 40293 53009 60006 81031 90600 333 10117 20084 60004=
07661,1998-01-08 18:00:00,11,1032.2,1.1,94,10,20000,18.52,,,290,8.9,13.4,,,,,,,,,wg-a,,,,AAXX 08184 07661 12/70 02910 10110 20100 30156 40322 53011 60006 80000 91800 333 10134 20089=
07661,1998-01-09 00:00:00,10,1033.4,0.4,82,7,15000,14.816,,,310,,,,,,,,,,,wg-a,,,,AAXX 09004 07661 12/65 03108 10100 20070 30167 40334 50004 60006 80000 90000=
07661,1998-01-09 06:00:00,10,1032.9,-0.1,82,7,15000,18.52,,,300,8.3,11.4,,,,,,,,,wg-a,,,,AAXX 09064 07661 02/65 03010 10100 20070 30162 40329 55001 60006 80000 90600 333 10114 20083 60004=
07661,1998-01-09 12:00:00,13,1033.3,-0.5,72,8,20000,14.816,,,270,,,,,,,,,,,wg-a,,,,AAXX 09124 07661 12570 12708 10130 20080 30168 40333 58005 60006 81100 91200=
07661,1998-01-10 12:00:00,12,1033,-0.8,76,8,15000,3.704,,,70,,,,,,,,,,,wg-a,,,,AAXX 10124 07661 12565 80702 10120 20080 30164 40330 58008 60006 885// 91200=
07661,1998-01-10 18:00:00,11,1031.4,-0.6,82,8,20000,14.816,,,70,7.7,12.5,,,,,,,,,wg-a,,,,AAXX 10184 07661 12570 70708 10110 20080 30148 40314 56006 60006 875// 91800 333 10125 20077=
07661,1998-01-11 00:00:00,9,1031.1,-0.5,87,7,10000,14.816,,,70,,,,,,,,,,,wg-a,,,,AAXX 11004 07661 12560 70708 10090 20070 30144 40311 58005 60006 875// 90000=
07661,1998-01-11 06:00:00,9,1030.1,-0.8,87,7,20000,25.928,,,70,8.7,10.9,,,,,,,,,wg-a,,,,AAXX 11064 07661 02570 70714 10090 20070 30134 40301 56008 60006 875// 90600 333 10109 20087 60004=
07661,1998-01-11 12:00:00,12,1029.7,-0.5,82,9,0,29.632,,,80,,,,,,,,,,,wg-a,,,,AAXX 11124 07661 12/// /0816 10120 20090 30132 40297 58005 60006 91200=
07661,1998-01-11 18:00:00,11,1028.3,-0.5,87,9,20000,31.484,,,70,9.3,12.4,,,,,,,,,wg-a,,,,AAXX 11184 07661 12570 50717 10110 20090 30117 40283 56005 60006 84830 91800 333 10124 20093=
07661,1998-01-12 00:00:00,9,1027.9,-1,93,8,25000,29.632,,,70,,,,,,,,,,,wg-a,,,,AAXX 12004 07661 12575 70716 10090 20080 30112 40279 56010 60006 8787/ 90000=
07661,1998-01-12 06:00:00,10,1026.7,-0.7,87,8,20000,31.484,,,60,9.1,10.9,,,,,,,,,wg-a,,,,AAXX 12064 07661 02570 50617 10100 20080 30101 40267 57007 60006 85100 90600 333 10109 20091 60004=
07661,1998-01-12 12:00:00,13,1025.7,-0.9,77,9,15000,38.892,,68.524,90,,,,,,,,,,,wg-a,,,,AAXX 12124 07661 12465 70921 10130 20090 30093 40257 58009 60006 8427/ 91200 333 91037=
07661,1998-01-12 18:00:00,12,1024.5,-0.2,88,10,15000,42.596,,68.524,80,10,12.7,,,,,,,,,wg-a,,,,AAXX 12184 07661 12565 50823 10120 20100 30081 40245 55002 60006 85800 91800 333 10127 20100 91037=
07661,1998-01-13 00:00:00,12,1022.4,-1.4,88,10,10000,35.188,,64.82,70,,,,,,,,,,,wg-a,,,,AAXX 13004 07661 12560 50719 10120 20100 30060 40224 58014 60006 85800 90000 333 91035=
07661,1998-01-13 12:00:00,13,1018.1,-1.5,77,9,10000,38.892,,64.82,80,,,,,,,,,,,wg-a,,,,AAXX 13124 07661 12460 80821 10130 20090 30018 40181 58015 60006 8572/ 91200 333 91035=
07661,1998-01-14 00:00:00,12,1014.3,-1.8,88,10,10000,38.892,,61.116,70,,,,2,,,,,,60,wg-a,,,,AAXX 14004 07661 02460 80721 10120 20100 39980 40143 58018 60026 76022 887// 90000 333 60027 91033=
07661,1998-01-14 06:00:00,10,1012.9,-0.9,93,9,8000,31.484,,,60,9.8,12.5,,5,,,14,,,63,wg-a,,,,AAXX 14064 07661 02458 80617 10100 20090 39965 40129 55009 60144 76366 887// 90600 333 10125 20098 60057=
07661,1998-01-14 12:00:00,11,1015.1,0.4,76,7,500,35.188,,,320,,,,,,,,,,1,wg-a,,,,AAXX 14124 07661 02400 53219 10110 20070 39987 40151 51004 60086 70196 8/800 91200 333 61000=
07661,1998-01-14 18:00:00,10,1016.8,1.3,66,4,500,35.188,,,300,8.9,12.1,,,,,,,,,wg-a,,,,AAXX 14184 07661 32600 43019 10100 20040 30004 40168 53013 82130 91800 333 10121 20089=
07661,1998-01-15 00:00:00,10,1019.6,1.9,62,3,15000,14.816,,,290,,,,,,,,,,,wg-a,,,,AAXX 15004 07661 12665 42908 10100 20030 30031 40196 53019 60006 81130 90000=
07661,1998-01-15 06:00:00,7,1022,1,70,2,25000,11.112,,,300,6.8,10.4,,,,,8,,,,wg-a,,,,AAXX 15064 07661 02/75 03006 10070 20020 30053 40220 53010 60006 80000 90600 333 10104 20068 60084=
07661,1998-01-15 12:00:00,11,1024.3,0.4,66,5,35000,11.112,,,220,,,,,,,,,,,wg-a,,,,AAXX 15124 07661 12/81 02206 10110 20050 30078 40243 50004 60006 80000 91200=
07661,1998-01-15 18:00:00,10,1024.8,0.4,71,5,20000,7.408,,,310,6.7,12.1,,,,,,,,,wg-a,,,,AAXX 15184 07661 12/70 43104 10100 20050 30082 40248 50004 60006 80002 91800 333 10121 20067=
07661,1998-01-16 00:00:00,9,1024.9,-0.3,76,5,15000,3.704,,,60,,,,,,,,,,,wg-a,,,,AAXX 16004 07661 12/65 00602 10090 20050 30082 40249 56003 60006 80000 90000=
07661,1998-01-16 06:00:00,8,1022,-1.5,76,4,15000,3.704,,,270,6.9,10.2,,,,,,,,,wg-a,,,,AAXX 16064 07661 02/65 02702 10080 20040 30053 40220 56015 60006 80000 90600 333 10102 20069 60004=
07661,1998-01-16 12:00:00,10,1020.6,-1.2,82,7,10000,7.408,,,360,,,,,,,,,,61,wg-a,,,,AAXX 16124 07661 02460 83604 10100 20070 30041 40206 58012 61000 76122 887// 91200 333 6100=
07661,1998-01-17 00:00:00,9,1016.2,1.2,61,2,0,25.928,,,290,,,,,,,,,,,wg-a,,,,AAXX 17004 07661 02/// /2914 10090 20020 39997 40162 53012 61000 90000 333 ////=
07661,1998-01-17 06:00:00,9,1015.6,-0.8,53,0,25000,50.004,,87.044,320,8.6,9.9,,,,,1,,,,wg-a,,,,AAXX 17064 07661 12/75 03227 10090 20000 39991 40156 55008 60014 80000 90600 333 10099 20086 91047=
07661,1998-01-17 12:00:00,13,1018.8,1.4,33,-3,45000,35.188,,87.044,330,,,,,,,,,,,wg-a,,,,AAXX 17124 07661 12/83 03319 10130 21030 30025 40188 51014 60006 80000 91200 333 91047=
07661,1998-01-18 00:00:00,8,1023.9,0.4,53,-1,25000,18.52,,,80,,,,,,,,,,,wg-a,,,,AAXX 18004 07661 12/75 00810 10080 21010 30072 40239 51004 60006 80000 90000=
07661,1998-01-18 06:00:00,7,1023.7,-0.5,70,2,25000,11.112,,,80,7.3,10.9,,,,,,,,,wg-a,,,,AAXX 18064 07661 02/75 20806 10070 20020 30070 40237 58005 60006 80001 90600 333 10109 20073 60004=
07661,1998-01-18 12:00:00,12,1022,-1.1,76,8,20000,11.112,,,130,,,,,,,,,,,wg-a,,,,AAXX 18124 07661 12470 71306 10120 20080 30056 40220 58011 60006 81636 91200=
07661,1998-01-18 18:00:00,11,1019.1,-1.8,87,9,20000,11.112,,,200,7.3,12.6,,,,,,,,,wg-a,,,,AAXX 18184 07661 12470 72006 10110 20090 30027 40191 58018 60006 81636 91800 333 10126 20073=
07661,1998-01-19 00:00:00,12,1014.7,-2.1,88,10,15000,25.928,,,280,,,,,,,,,,61,wg-a,,,,AAXX 19004 07661 02465 72814 10120 20100 39984 40147 58021 61000 76162 866// 90000 333 6100=
07661,1998-01-19 06:00:00,12,1009.2,-3.2,88,10,15000,22.224,,,270,10.6,12,,1,,,1,,,21,wg-a,,,,AAXX 19064 07661 02465 72712 10120 20100 39930 40092 56032 60014 72162 877// 90600 333 10120 20106 60017=
07661,1998-01-19 18:00:00,9,1006,2.3,57,1,20000,64.82,,107.416,310,9.2,14.4,,,,,,,,,wg-a,,,,AAXX 19184 07661 32/70 03135 10090 20010 39897 40060 51023 80000 91800 333 10144 20092 91058=
07661,1998-01-20 00:00:00,9,1008.3,1.6,53,0,15000,72.228,,118.528,310,,,,,,,,,,,wg-a,,,,AAXX 20004 07661 12/65 03139 10090 20000 39919 40083 53016 60006 80000 90000 333 91064=
07661,1998-01-20 06:00:00,8,1008.4,-0.6,66,2,0,53.708,,,310,8,10,,,,,,,,,wg-a,,,,AAXX 20064 07661 02/// /3129 10080 20020 39920 40084 58006 60006 90600 333 10100 20080 60004=
07661,1998-01-20 12:00:00,7,1007,-1.3,39,-6,20000,87.044,,148.16,310,,,,1,,,,,,,wg-a,,,,AAXX 20124 07661 02570 13147 10070 21060 39905 40070 55013 60016 81230 91200 333 60017 91080=
07661,1998-01-21 00:00:00,8,1013.8,0.7,39,-5,25000,46.3,,107.416,330,,,,,,,,,,,wg-a,,,,AAXX 21004 07661 12/75 03325 10080 21050 39973 40138 51007 60006 80000 90000 333 91058=
07661,1998-01-21 06:00:00,9,1013.1,1,40,-4,25000,46.3,,107.416,30,6.8,9.1,,,,,1,,,,wg-a,,,,AAXX 21064 07661 02/75 00325 10090 21040 39966 40131 53010 60006 80000 90600 333 10091 20068 60014 91058=
07661,1998-01-21 12:00:00,12,1017.4,1.2,30,-5,40000,7.408,,83.34,280,,,,,,,,,,,wg-a,,,,AAXX 21124 07661 12582 32804 10120 21050 30010 40174 51012 60006 81260 91200 333 91045=
07661,1998-01-22 06:00:00,4,1017.7,-0.2,60,-3,20000,22.224,,,70,3.6,8.5,,,,,,,,,wg-a,,,,AAXX 22064 07661 02/70 00712 10040 21030 30008 40177 55002 60006 80000 90600 333 10085 20036 60004=
07661,1998-01-22 12:00:00,10,1017.9,-0.1,53,1,500,7.408,,,240,,,,,,,,,,,wg-a,,,,AAXX 22124 07661 12/00 02404 10100 20010 30014 40179 58001 60006 80000 91200=
07661,1998-01-22 18:00:00,9,1016.4,0.1,71,4,25000,7.408,,,320,3.1,11.4,,,,,,,,,wg-a,,,,AAXX 22184 07661 12/75 03204 10090 20040 39999 40164 53001 60006 80000 91800 333 10114 20031=
07661,1998-01-23 06:00:00,7,1017.8,-0,76,3,15000,11.112,,,60,4.5,8.6,,,,,,,,,wg-a,,,,AAXX 23064 07661 02765 40606 10070 20030 30011 40178 55000 60006 84500 90600 333 10086 20045 60004=
07661,1998-01-23 12:00:00,11,1019,0,50,1,20000,25.928,,,100,,,,,,,,,,,wg-a,,,,AAXX 23124 07661 12570 21014 10110 20010 30025 40190 50000 60006 82100 91200=
07661,1998-01-23 18:00:00,10,1018.5,-0.5,53,1,22000,22.224,,,110,,,,,,,,,,,wg-a,,,,AAXX 23184 07661 12572 21112 10100 20010 30020 40185 55005 60006 82100 91800=
07661,1998-01-24 00:00:00,6,1019.4,-0.4,81,3,15000,3.704,,,30,,,,,,,,,,,wg-a,,,,AAXX 24004 07661 12/65 40302 10060 20030 30027 40194 58004 60006 84030 90000=
07661,1998-01-24 06:00:00,6,1017.5,-0.9,81,3,20000,7.408,,,20,5.5,8.9,,,,,,,,,wg-a,,,,AAXX 24064 07661 02/70 00204 10060 20030 30008 40175 56009 60006 80000 90600 333 10089 20055 60004=
07661,1998-01-24 12:00:00,11,1015,-1.8,66,5,500,18.52,,,210,,,,,,,,,,,wg-a,,,,AAXX 24124 07661 12/00 02110 10110 20050 39986 40150 58018 60006 80000 91200=
07661,1998-01-24 18:00:00,9,1012.1,-0.8,46,-2,20000,25.928,,,280,5.4,12.1,,,,,,,,,wg-a,,,,AAXX 24184 07661 12/70 42814 10090 21020 39956 40121 56008 60006 84030 91800 333 10121 20054=
07661,1998-01-25 00:00:00,4,1011,-0.6,81,1,10000,3.704,,,30,,,,,,,,,,,wg-a,,,,AAXX 25004 07661 12/60 00302 10040 20010 39943 40110 56006 60006 80000 90000=
07661,1998-01-25 06:00:00,7,1011.8,1.1,81,4,10000,25.928,,,120,3.5,8.5,,,,,,,,,wg-a,,,,AAXX 25064 07661 02/60 61214 10070 20040 39952 40118 53011 60006 86040 90600 333 10085 20035 60004=
07661,1998-01-25 12:00:00,8,1015.8,1.8,93,7,500,29.632,,,100,,,,,,,,,,62,wg-a,,,,AAXX 25124 07661 32400 81016 10080 20070 39993 40158 51018 76262 8672/ 91200=
07661,1998-01-25 18:00:00,10,1018.2,1.7,71,5,6000,38.892,,87.044,70,6.6,9.8,,0,,,,,,60,wg-a,,,,AAXX 25184 07661 12556 80721 10100 20050 30017 40182 53017 60007 76066 887// 91800 333 10098 20066 91047=
07661,1998-01-26 00:00:00,8,1020.8,0.9,76,4,10000,25.928,,,60,,,,,,,,,,2,wg-a,,,,AAXX 26004 07661 02560 80614 10080 20040 30042 40208 51009 61000 70262 887// 90000 333 ////=
07661,1998-01-26 06:00:00,5,1021.4,0.3,87,3,15000,22.224,,,60,5.1,9.9,,,,,10,,,,wg-a,,,,AAXX 26064 07661 12665 30612 10050 20030 30046 40214 53003 60104 83400 90600 333 10099 20051=
07661,1998-01-26 12:00:00,10,1022,-0.2,57,2,18000,22.224,,,90,,,,,,,,,,,wg-a,,,,AAXX 26124 07661 12568 20912 10100 20020 30054 40220 58002 60006 82100 91200=
07661,1998-01-26 18:00:00,8,1021.3,0.1,66,2,18000,18.52,,,70,5,9.8,,,,,,,,,wg-a,,,,AAXX 26184 07661 32868 30710 10080 20020 30046 40213 53001 83030 91800 333 10098 20050=
07661,1998-01-27 00:00:00,7,1021.5,-0.2,81,4,18000,18.52,,,60,,,,,,,,,,,wg-a,,,,AAXX 27004 07661 12468 60610 10070 20040 30048 40215 58002 60006 86600 90000=
07661,1998-01-27 06:00:00,7,1020.3,-0.6,66,1,20000,18.52,,,50,7,8.1,,,,,,,,,wg-a,,,,AAXX 27064 07661 02470 70510 10070 20010 30036 40203 56006 60006 876// 90600 333 10081 20070 60004=
07661,1998-01-27 12:00:00,8,1020.2,-0.7,53,-1,15000,22.224,,,100,,,,,,,,,,,wg-a,,,,AAXX 27124 07661 12865 31012 10080 21010 30036 40202 58007 60006 83070 91200=
07661,1998-01-27 18:00:00,6,1018.6,0.1,70,1,15000,22.224,,,60,6,8.9,,,,,,,,,wg-a,,,,AAXX 27184 07661 12/65 00612 10060 20010 30019 40186 53001 60006 80000 91800 333 10089 20060=
07661,1998-01-28 00:00:00,4,1018.8,-0.3,87,2,10000,22.224,,,70,,,,,,,,,,,wg-a,,,,AAXX 28004 07661 12/60 00712 10040 20020 30019 40188 58003 60006 80000 90000=
07661,1998-01-28 06:00:00,3,1017.6,-0.6,87,1,10000,29.632,,,70,2.8,6.2,,,,,,,,,wg-a,,,,AAXX 28064 07661 02/60 00716 10030 20010 30007 40176 56006 60006 80000 90600 333 10062 20028 60004=
07661,1998-01-28 18:00:00,7,1016.3,-0.4,76,3,15000,18.52,,,60,2.8,9.4,,,,,,,,,wg-a,,,,AAXX 28184 07661 12/65 00610 10070 20030 39997 40163 56004 60006 80000 91800 333 10094 20028=
07661,1998-01-29 00:00:00,4,1017,-0.1,93,3,10000,11.112,,,70,,,,,,,,,,,wg-a,,,,AAXX 29004 07661 12/60 00706 10040 20030 30002 40170 57001 60006 80000 90000=
07661,1998-01-29 06:00:00,4,1016,-0.4,87,2,12000,11.112,,,90,3.2,7.3,,,,,,,,,wg-a,,,,AAXX 29064 07661 02/62 00906 10040 20020 39992 40160 55004 60006 80000 90600 333 10073 20032 60004=
07661,1998-01-29 12:00:00,10,1016.7,0,71,5,12000,11.112,,,200,,,,,,,,,,,wg-a,,,,AAXX 29124 07661 12562 22006 10100 20050 30002 40167 50000 60006 82100 91200=
07661,1998-01-29 18:00:00,9,1017,1.2,66,3,11000,14.816,,,270,2.9,10.9,,,,,,,,,wg-a,,,,AAXX 29184 07661 12461 12708 10090 20030 30005 40170 53012 60006 81501 91800 333 10109 20029=
07661,1998-01-30 00:00:00,5,1019.5,0.8,93,4,10000,14.816,,,70,,,,,,,,,,,wg-a,,,,AAXX 30004 07661 12860 20708 10050 20040 30027 40195 51008 60006 82070 90000=
07661,1998-01-30 06:00:00,5,1019.5,0.4,93,4,15000,18.52,,,60,4.7,9.2,,0,,,,,,,wg-a,,,,AAXX 30064 07661 02565 60610 10050 20040 30027 40195 53004 60004 85870 90600 333 10092 20047 60007=
07661,1998-01-31 06:00:00,7,1011.4,-1.1,87,5,15000,22.224,,,70,6.1,8.9,,,,,,,,,wg-a,,,,AAXX 31064 07661 02865 80712 10070 20050 39949 40114 56011 60006 8807/ 90600 333 10089 20061 60004=
07661,1998-01-31 12:00:00,10,1009.7,-1.6,71,5,15000,31.484,,,60,,,,,,,,,,,wg-a,,,,AAXX 31124 07661 12865 80617 10100 20050 39933 40097 58016 60006 8807/ 91200=
07661,1998-01-31 18:00:00,9,1008.7,0.6,76,5,14000,25.928,,,70,7,11.7,,,,,,,,,wg-a,,,,AAXX 31184 07661 12864 70714 10090 20050 39923 40087 53006 60006 8707/ 91800 333 10117 20070=
07661,1998-02-01 00:00:00,8,1008.8,-0.1,71,3,15000,25.928,,,60,,,,,,,,,,,wg-a,,,,AAXX 01004 07661 12/65 20614 10080 20030 39923 40088 58001 60006 82040 90000=
07661,1998-02-01 06:00:00,7,1009.2,0.6,70,2,12000,18.52,,,70,6.6,8.8,,,,,,,,,wg-a,,,,AAXX 01064 07661 02862 50710 10070 20020 39927 40092 51006 60006 85030 90600 333 10088 20066 60004=
07661,1998-02-01 12:00:00,12,1011.1,0.8,50,2,18000,7.408,,,100,,,,,,,,,,,wg-a,,,,AAXX 01124 07661 12/68 /1004 10120 20020 39948 40111 50008 60006 91200=
07661,1998-02-01 18:00:00,10,1012.4,1.5,62,3,22000,11.112,,,280,6,12.5,,,,,,,,,wg-a,,,,AAXX 01184 07661 12572 32806 10100 20030 39960 40124 52015 60006 82130 91800 333 10125 20060=
07661,1998-02-02 00:00:00,7,1013.5,-0.1,81,4,15000,7.408,,,60,,,,,,,,,,,wg-a,,,,AAXX 02004 07661 12565 30604 10070 20040 39969 40135 58001 60006 82130 90000=
07661,1998-02-02 06:00:00,8,1011.7,-0.7,76,4,18000,0,,,0,6.8,10.2,,,,,,,,,wg-a,,,,AAXX 02064 07661 02568 50000 10080 20040 39952 40117 55007 60006 84130 90600 333 10102 20068 60004=
07661,1998-02-02 12:00:00,12,1010.7,-0.7,67,6,15000,18.52,,,210,,,,,,,,,,,wg-a,,,,AAXX 02124 07661 12465 82110 10120 20060 39944 40107 58007 60006 8287/ 91200=
07661,1998-02-02 18:00:00,10,1009.2,-0.2,76,6,15000,7.408,,,170,7.6,12.1,,,,,,,,,wg-a,,,,AAXX 02184 07661 12465 81704 10100 20060 39929 40092 57002 60006 8287/ 91800 333 10121 20076=
07661,1998-02-03 00:00:00,9,1008.4,-0.8,87,7,12000,11.112,,,70,,,,,,,,,,21,wg-a,,,,AAXX 03004 07661 02462 80706 10090 20070 39920 40084 56008 61000 72162 886// 90000 333 6100=
07661,1998-02-03 06:00:00,8,1006.7,-0.9,93,7,12000,22.224,,,70,7.7,10.5,,1,,,1,,,60,wg-a,,,,AAXX 03064 07661 02462 80712 10080 20070 39903 40067 56009 60014 76062 887// 90600 333 10105 20077 60017=
07661,1998-02-03 12:00:00,9,1005,-0.9,87,7,8000,31.484,,,60,,,,0,,,,,,60,wg-a,,,,AAXX 03124 07661 02458 80617 10090 20070 39887 40050 58009 60016 76066 887// 91200 333 60007=
07661,1998-02-03 18:00:00,10,1003.2,-0.4,76,6,8000,29.632,,,60,7.6,9.9,,,,,,,,60,wg-a,,,,AAXX 03184 07661 02458 80616 10100 20060 39869 40032 56004 61000 76066 887// 91800 333 10099 20076 ////=
07661,1998-02-04 00:00:00,10,1002.8,-0.4,76,6,12000,25.928,,,60,,,,,,,,,,2,wg-a,,,,AAXX 04004 07661 02562 80614 10100 20060 39866 40028 56004 61000 70262 84707 90000 333 ////=
07661,1998-02-04 06:00:00,10,1003.4,0.1,57,2,12000,3.704,,,230,9.2,10.2,,,,,1,,,,wg-a,,,,AAXX 04064 07661 12462 82302 10100 20020 39872 40034 53001 60014 887// 90600 333 10102 20092=
07661,1998-02-04 12:00:00,12,1006.9,1,58,4,15000,7.408,,,210,,,,,,,,,,,wg-a,,,,AAXX 04124 07661 12665 82104 10120 20040 39907 40069 50010 60006 8317/ 91200=
07661,1998-02-04 18:00:00,9,1008.6,1.1,66,3,20000,11.112,,,260,8.8,12.5,,,,,,,,,wg-a,,,,AAXX 04184 07661 12870 72606 10090 20030 39922 40086 53011 60006 8707/ 91800 333 10125 20088=
07661,1998-02-05 00:00:00,6,1010.5,0.4,87,4,15000,3.704,,,60,,,,,,,,,,,wg-a,,,,AAXX 05004 07661 12/65 20602 10060 20040 39939 40105 51004 60006 80002 90000=
07661,1998-02-05 06:00:00,6,1012.1,1.2,65,0,20000,7.408,,,310,5.1,8.8,,,,,,,,,wg-a,,,,AAXX 05064 07661 02/70 13104 10060 20000 39955 40121 52012 60006 81030 90600 333 10088 20051 60004=
07661,1998-02-05 12:00:00,11,1013.9,0.2,66,5,15000,11.112,,,160,,,,,,,,,,,wg-a,,,,AAXX 05124 07661 12/65 01606 10110 20050 39975 40139 50002 60006 80000 91200=
07661,1998-02-05 18:00:00,9,1015.8,1.4,81,6,15000,3.704,,,220,4.8,12,,,,,,,,,wg-a,,,,AAXX 05184 07661 12/65 02202 10090 20060 39993 40158 53014 60006 80000 91800 333 10120 20048=
07661,1998-02-06 00:00:00,7,1018.3,1.1,81,4,15000,3.704,,,10,,,,,,,,,,,wg-a,,,,AAXX 06004 07661 12/65 00102 10070 20040 30016 40183 51011 60006 80000 90000=
07661,1998-02-06 06:00:00,7,1019.2,0.7,49,-3,15000,3.704,,,320,6.9,8.8,,,,,,,,,wg-a,,,,AAXX 06064 07661 02/65 03202 10070 21030 30025 40192 53007 60006 80000 90600 333 10088 20069 60004=
07661,1998-02-06 12:00:00,11,1021.5,0.6,71,6,12000,7.408,,,230,,,,,,,,,,,wg-a,,,,AAXX 06124 07661 12/62 02304 10110 20060 30051 40215 50006 60006 80000 91200=
07661,1998-02-06 18:00:00,10,1022.1,0.7,57,2,0,14.816,,,290,6.9,12.7,,,,,,,,,wg-a,,,,AAXX 06184 07661 12/// /2908 10100 20020 30056 40221 53007 60006 91800 333 10127 20069=
07661,1998-02-07 00:00:00,9,1024.1,0.5,53,0,10000,7.408,,,340,,,,,,,,,,,wg-a,,,,AAXX 07004 07661 12/60 03404 10090 20000 30074 40241 53005 60006 80000 90000=
07661,1998-02-07 06:00:00,8,1024.7,0.5,34,-7,14000,7.408,,,330,7.4,10.2,,,,,,,,,wg-a,,,,AAXX 07064 07661 02/64 03304 10080 21070 30079 40247 53005 60006 80000 90600 333 10102 20074 60004=
07661,1998-02-07 18:00:00,9,1024.4,-0.4,66,3,25000,38.892,,64.82,300,7,13.5,,0,,,,,,,wg-a,,,,AAXX 07184 07661 12/75 23021 10090 20030 30078 40244 55004 60007 81032 91800 333 10135 20070 91035=
07661,1998-02-08 00:00:00,9,1023.1,-0.6,46,-2,10000,38.892,,,300,,,,,,,,,,,wg-a,,,,AAXX 08004 07661 12/60 03021 10090 21020 30065 40231 58006 60006 80000 90000=
07661,1998-02-08 06:00:00,8,1023.1,0.8,53,-1,15000,14.816,,83.34,330,7.7,9.5,,,,,,,,,wg-a,,,,AAXX 08064 07661 02/65 13308 10080 21010 30064 40231 53008 60006 81031 90600 333 10095 20077 60004 91045=
07661,1998-02-08 12:00:00,12,1025.7,0.3,54,3,25000,7.408,,,60,,,,,,,,,,,wg-a,,,,AAXX 08124 07661 12/75 60604 10120 20030 30092 40257 50003 60006 85081 91200=
07661,1998-02-08 18:00:00,11,1028.5,2.3,58,3,25000,14.816,,,70,7.4,13.3,,,,,,,,,wg-a,,,,AAXX 08184 07661 12/75 40708 10110 20030 30119 40285 53023 60006 80002 91800 333 10133 20074=
07661,1998-02-09 00:00:00,6,1030.8,0.7,75,2,15000,22.224,,,80,,,,,,,,,,,wg-a,,,,AAXX 09004 07661 12/65 00812 10060 20020 30139 40308 51007 60006 80000 90000=
07661,1998-02-09 06:00:00,6,1031.2,0.6,75,2,15000,25.928,,,70,5.3,10.8,,,,,,,,,wg-a,,,,AAXX 09064 07661 02/65 00714 10060 20020 30142 40312 53006 60006 80000 90600 333 10108 20053 60004=
07661,1998-02-09 12:00:00,12,1032.2,-0.4,38,-2,20000,22.224,,,100,,,,,,,,,,,wg-a,,,,AAXX 09124 07661 12/70 01012 10120 21020 30156 40322 58004 60006 80000 91200=
07661,1998-02-09 18:00:00,10,1032.9,1.1,57,2,35000,18.52,,,70,5.4,12.5,,,,,,,,,wg-a,,,,AAXX 09184 07661 12/81 00710 10100 20020 30162 40329 53011 60006 80000 91800 333 10125 20054=
07661,1998-02-10 00:00:00,5,1034.1,0.2,81,2,15000,18.52,,,70,,,,,,,,,,,wg-a,,,,AAXX 10004 07661 12/65 00710 10050 20020 30171 40341 50002 60006 80000 90000=
07661,1998-02-10 06:00:00,5,1034,0.2,81,2,0,18.52,,,80,4.3,10.2,,,,,,,,,wg-a,,,,AAXX 10064 07661 02/// /0810 10050 20020 30169 40340 53002 60006 90600 333 10102 20043 60004=
07661,1998-02-10 12:00:00,12,1035,-0.1,71,7,0,11.112,,,80,,,,,,,,,,,wg-a,,,,AAXX 10124 07661 12/// /0806 10120 20070 30183 40350 58001 60006 91200=
07661,1998-02-10 18:00:00,10,1034.6,0.5,82,7,20000,11.112,,,280,4.2,13,,,,,,,,,wg-a,,,,AAXX 10184 07661 12/70 02806 10100 20070 30179 40346 53005 60006 80000 91800 333 10130 20042=
07661,1998-02-11 00:00:00,9,1035.6,0.5,81,6,15000,14.816,,,310,,,,,,,,,,,wg-a,,,,AAXX 11004 07661 12/65 03108 10090 20060 30188 40356 51005 60006 80000 90000=
07661,1998-02-11 06:00:00,7,1035,-0.2,87,5,20000,18.52,,,280,7.1,10.1,,,,,,,,,wg-a,,,,AAXX 11064 07661 02/70 02810 10070 20050 30181 40350 58002 60006 80000 90600 333 10101 20071 60004=
07661,1998-02-11 12:00:00,13,1035.8,-0.1,77,9,17000,14.816,,,220,,,,,,,,,,,wg-a,,,,AAXX 11124 07661 12/67 02208 10130 20090 30192 40358 58001 60006 80000 91200=
07661,1998-02-11 18:00:00,11,1034.8,-0,82,8,15000,25.928,,,280,6.1,13.7,,,,,,,,,wg-a,,,,AAXX 11184 07661 12/65 02814 10110 20080 30181 40348 55000 60006 80000 91800 333 10137 20061=
07661,1998-02-12 00:00:00,9,1035.3,0,81,6,15000,11.112,,,300,,,,,,,,,,,wg-a,,,,AAXX 12004 07661 12/65 03006 10090 20060 30185 40353 50000 60006 80000 90000=
07661,1998-02-12 06:00:00,8,1034.9,0.3,87,6,15000,18.52,,,290,7.7,10.6,,,,,,,,,wg-a,,,,AAXX 12064 07661 02/65 02910 10080 20060 30181 40349 51003 60006 80000 90600 333 10106 20077 60004=
07661,1998-02-12 12:00:00,15,1034.8,-0.7,41,2,15000,18.52,,,270,,,,,,,,,,,wg-a,,,,AAXX 12124 07661 12/65 02710 10150 20020 30183 40348 58007 60006 80000 91200=
07661,1998-02-12 18:00:00,11,1033.6,-0.1,82,8,15000,25.928,,,280,7.7,15.6,,0,,,,,,,wg-a,,,,AAXX 12184 07661 12/65 02814 10110 20080 30170 40336 55001 60007 80000 91800 333 10156 20077=
07661,1998-02-13 00:00:00,10,1034.3,0.1,82,7,0,25.928,,,290,,,,,,,,,,,wg-a,,,,AAXX 13004 07661 12/// /2914 10100 20070 30175 40343 53001 60006 90000=
07661,1998-02-13 12:00:00,12,1032.8,-1,76,8,12000,31.484,,,270,,,,,,,,,,,wg-a,,,,AAXX 13124 07661 12/62 02717 10120 20080 30162 40328 58010 60006 80000 91200=
07661,1998-02-13 18:00:00,11,1031.6,-0.1,87,9,12000,38.892,,61.116,290,8.7,12.5,,,,,,,,,wg-a,,,,AAXX 13184 07661 12462 12921 10110 20090 30150 40316 55001 60006 81101 91800 333 10125 20087 91033=
07661,1998-02-14 00:00:00,9,1032.9,0.6,87,7,10000,18.52,,,300,,,,,,,,,,,wg-a,,,,AAXX 14004 07661 12/60 03010 10090 20070 30161 40329 50006 60006 80000 90000=
07661,1998-02-14 06:00:00,8,1032.8,0.2,93,7,500,3.704,,,30,7.7,10.7,,,,,,,,,wg-a,,,,AAXX 14064 07661 02500 70302 10080 20070 30160 40328 50002 60006 876// 90600 333 10107 20077 60004=
07661,1998-02-14 12:00:00,11,1033.8,0,82,8,6000,7.408,,,220,,,,,,,,,,,wg-a,,,,AAXX 14124 07661 12456 62204 10110 20080 30171 40338 50000 60006 84610 91200=
07661,1998-02-14 18:00:00,9,1033.5,0.3,87,7,500,14.816,,,300,7.5,11.8,,,,,,,,,wg-a,,,,AAXX 14184 07661 12/00 03008 10090 20070 30167 40335 53003 60006 80000 91800 333 10118 20075=
07661,1998-02-15 00:00:00,9,1032.5,-1.1,93,8,500,25.928,,,280,,,,0,,,,,,,wg-a,,,,AAXX 15004 07661 02400 82814 10090 20080 30157 40325 58011 60006 886// 90000 333 60007=
07661,1998-02-15 06:00:00,8,1030.1,-0.8,93,7,500,3.704,,,40,7.7,9.1,,,,,,,,,wg-a,,,,AAXX 15064 07661 12400 80402 10080 20070 30133 40301 56008 60004 886// 90600 333 10091 20077=
07661,1998-02-15 12:00:00,12,1030.2,-0.4,82,9,500,14.816,,,140,,,,,,,,,,2,wg-a,,,,AAXX 15124 07661 12/00 01408 10120 20090 30137 40302 58004 60006 70241 80000 91200=
07661,1998-02-15 18:00:00,11,1031,1,87,9,6000,7.408,,,110,4.7,13.2,,,,,,,,,wg-a,,,,AAXX 15184 07661 12/56 01104 10110 20090 30144 40310 53010 60006 80000 91800 333 10132 20047=
07661,1998-02-16 00:00:00,8,1031.7,0.1,93,7,6000,3.704,,,30,,,,,,,,,,,wg-a,,,,AAXX 16004 07661 12/56 00302 10080 20070 30149 40317 52001 60006 80000 90000=
07661,1998-02-16 06:00:00,9,1030.2,-0.5,87,7,6000,18.52,,,280,7.8,11.3,,0,,,,,,,wg-a,,,,AAXX 16064 07661 02/56 02810 10090 20070 30134 40302 56005 60004 80000 90600 333 10113 20078 60007=
07661,1998-02-16 12:00:00,11,1028.7,-1.7,87,9,6000,29.632,,,290,,,,,,,,,,,wg-a,,,,AAXX 16124 07661 12456 32916 10110 20090 30121 40287 58017 60006 82101 91200=
07661,1998-02-16 18:00:00,10,1025.3,-0.8,87,8,6000,35.188,,61.116,290,8.1,12.6,,,,,,,,,wg-a,,,,AAXX 16184 07661 12456 32919 10100 20080 30087 40253 56008 60006 83101 91800 333 10126 20081 91033=
07661,1998-02-17 00:00:00,10,1022.1,-1.5,93,9,500,31.484,,79.636,290,,,,,,,,,,,wg-a,,,,AAXX 17004 07661 12/00 02917 10100 20090 30056 40221 58015 60006 80000 90000 333 91043=
07661,1998-02-17 06:00:00,12,1019.5,0.2,58,4,18000,50.004,,,300,9.3,13.2,,,,,,,,,wg-a,,,,AAXX 17064 07661 02/68 03027 10120 20040 30031 40195 52002 60006 80000 90600 333 10132 20093 60004=
07661,1998-02-17 12:00:00,15,1023.1,2,48,4,500,14.816,,83.34,290,,,,,,,,,,,wg-a,,,,AAXX 17124 07661 12/00 02908 10150 20040 30068 40231 50020 60006 80000 91200 333 91045=
07661,1998-02-17 18:00:00,15,1027,2.3,51,5,25000,18.52,,,300,10.8,17.7,,,,,,,,,wg-a,,,,AAXX 17184 07661 32/75 03010 10150 20050 30107 40270 53023 80000 91800 333 10177 20108=
07661,1998-02-18 00:00:00,14,1030.9,2,44,2,15000,3.704,,,190,,,,,,,,,,,wg-a,,,,AAXX 18004 07661 12/65 01902 10140 20020 30144 40309 53020 60006 80000 90000=
07661,1998-02-18 06:00:00,14,1032.2,0.8,38,0,20000,3.704,,,320,12.2,15.5,,,,,,,,,wg-a,,,,AAXX 18064 07661 02/70 03202 10140 20000 30157 40322 52008 60006 80000 90600 333 10155 20122 60004=
07661,1998-02-18 12:00:00,16,1034,0.3,51,6,20000,18.52,,,200,,,,,,,,,,,wg-a,,,,AAXX 18124 07661 12/70 02010 10160 20060 30176 40340 50003 60006 80000 91200=
07661,1998-02-18 18:00:00,14,1033.9,0.3,63,7,20000,25.928,,,290,13.3,20,,,,,,,,,wg-a,,,,AAXX 18184 07661 12/70 02914 10140 20070 30174 40339 53003 60006 80000 91800 333 10200 20133=
07661,1998-02-19 00:00:00,11,1035.1,0,66,5,10000,7.408,,,80,,,,,,,,,,,wg-a,,,,AAXX 19004 07661 12/60 00804 10110 20050 30184 40351 50000 60006 80000 90000=
07661,1998-02-19 06:00:00,11,1032.9,-1.1,66,5,20000,3.704,,,160,10.4,14.2,,,,,,,,,wg-a,,,,AAXX 19064 07661 02/70 01602 10110 20050 30162 40329 56011 60006 80000 90600 333 10142 20104 60004=
07661,1998-02-19 12:00:00,13,1031.5,-1.4,88,11,10000,25.928,,,240,,,,,,,,,,,wg-a,,,,AAXX 19124 07661 12/60 12414 10130 20110 30150 40315 58014 60006 80001 91200=
07661,1998-02-19 18:00:00,10,1029.4,-0.3,93,9,2000,22.224,,,280,10.3,14.4,,,,,,,,10,wg-a,,,,AAXX 19184 07661 12320 82812 10100 20090 30128 40294 55003 60006 71011 886// 91800 333 10144 20103=
07661,1998-02-20 00:00:00,10,1028.8,-0.2,93,9,2000,3.704,,,340,,,,,,,,,,10,wg-a,,,,AAXX 20004 07661 12320 83402 10100 20090 30121 40288 57002 60006 71042 886// 90000=
07661,1998-02-20 06:00:00,9,1027.7,0.1,100,9,500,18.52,,,60,8.8,10.3,,,,,,,,2,wg-a,,,,AAXX 20064 07661 02400 80610 10090 20090 30110 40277 53001 60006 70242 886// 90600 333 10103 20088 60004=
07661,1998-02-20 12:00:00,13,1029.1,0.2,77,9,6000,14.816,,,100,,,,,,,,,,,wg-a,,,,AAXX 20124 07661 12456 31008 10130 20090 30127 40291 50002 60006 82601 91200=
07661,1998-02-20 18:00:00,12,1028.2,0.3,88,10,500,18.52,,,100,9.1,14.1,,,,,,,,,wg-a,,,,AAXX 20184 07661 12400 21010 10120 20100 30117 40282 53003 60006 81601 91800 333 10141 20091=
07661,1998-02-21 00:00:00,9,1028.9,-0.2,93,8,6000,18.52,,,70,,,,,,,,,,,wg-a,,,,AAXX 21004 07661 12456 30710 10090 20080 30122 40289 58002 60006 83600 90000=
07661,1998-02-21 06:00:00,8,1027.8,-0.2,93,7,500,25.928,,,70,7.3,11.7,,0,,,,,,,wg-a,,,,AAXX 21064 07661 02400 50714 10080 20070 30110 40278 56002 60004 85600 90600 333 10117 20073 60007=
07661,1998-02-21 12:00:00,13,1028.1,-0.7,82,10,6000,29.632,,50.004,80,,,,,,,,,,,wg-a,,,,AAXX 21124 07661 12456 70816 10130 20100 30116 40281 58007 60006 85604 91200 333 91027=
07661,1998-02-21 18:00:00,11,1027,0.1,87,9,8000,29.632,,,80,7.6,13,,,,,,,,,wg-a,,,,AAXX 21184 07661 12458 70816 10110 20090 30105 40270 53001 60006 8567/ 91800 333 10130 20076=
07661,1998-02-22 00:00:00,11,1025.8,-0.8,87,9,8000,29.632,,,70,,,,,,,,,,,wg-a,,,,AAXX 22004 07661 12458 70716 10110 20090 30093 40258 56008 60006 8567/ 90000=
07661,1998-02-22 06:00:00,12,1023.1,-1,88,10,8000,29.632,,57.412,70,10.4,11.8,,,,,,,,,wg-a,,,,AAXX 22064 07661 02458 80716 10120 20100 30067 40231 57010 60006 8567/ 90600 333 10118 20104 60004 91031=
07661,1998-02-22 12:00:00,12,1022.6,-0.2,76,8,10000,38.892,,57.412,300,,,,2,,,,,,21,wg-a,,,,AAXX 22124 07661 02460 63021 10120 20080 30062 40226 58002 60026 72162 8/800 91200 333 60027 91031=
07661,1998-02-22 18:00:00,11,1022.7,0,58,3,35000,46.3,,75.932,300,10.7,13.8,,,,,,,,,wg-a,,,,AAXX 22184 07661 32681 63025 10110 20030 30062 40227 50000 84870 91800 333 10138 20107 91041=
07661,1998-02-23 00:00:00,7,1022.2,-1.2,70,2,15000,38.892,,72.228,300,,,,,,,,,,,wg-a,,,,AAXX 23004 07661 12/65 03021 10070 20020 30054 40222 58012 60006 80000 90000 333 91039=
07661,1998-02-23 06:00:00,6,1018.7,-1,70,1,20000,31.484,,,310,5.6,10.7,,,,,2,,,,wg-a,,,,AAXX 23064 07661 02670 23117 10060 20010 30020 40187 56010 60006 82500 90600 333 10107 20056 60024=
07661,1998-02-23 12:00:00,12,1021.3,2,67,6,35000,31.484,,,60,,,,,,,,,,,wg-a,,,,AAXX 23124 07661 12581 50617 10120 20060 30049 40213 51020 60006 85500 91200=
07661,1998-02-23 18:00:00,11,1023.4,1.1,62,4,28000,11.112,,,260,6.2,12.8,,,,,,,,,wg-a,,,,AAXX 23184 07661 12678 52606 10110 20040 30069 40234 51011 60006 85800 91800 333 10128 20062=
07661,1998-02-24 00:00:00,10,1024.9,0.5,71,5,0,7.408,,,330,,,,,,,,,,,wg-a,,,,AAXX 24004 07661 12/// /3304 10100 20050 30083 40249 51005 60006 90000=
07661,1998-02-24 06:00:00,10,1025.8,1.4,66,4,20000,7.408,,,50,9,12.2,,,,,,,,,wg-a,,,,AAXX 24064 07661 02670 50504 10100 20040 30092 40258 53014 60006 85800 90600 333 10122 20090 60004=
07661,1998-02-24 12:00:00,17,1027.1,0.2,36,2,25000,7.408,,,70,,,,,,,,,,,wg-a,,,,AAXX 24124 07661 12675 30704 10170 20020 30109 40271 50002 60006 83260 91200=
07661,1998-02-24 18:00:00,14,1027.7,1,55,5,15000,11.112,,,230,9.9,18.8,,,,,,,,,wg-a,,,,AAXX 24184 07661 12865 42306 10140 20050 30113 40277 53010 60006 84030 91800 333 10188 20099=
07661,1998-02-25 00:00:00,11,1029.3,0.5,58,3,15000,3.704,,,30,,,,,,,,,,,wg-a,,,,AAXX 25004 07661 12/65 00302 10110 20030 30127 40293 50005 60006 80000 90000=
07661,1998-02-25 06:00:00,11,1029,0.4,62,4,0,3.704,,,310,10.5,14.4,,,,,,,,,wg-a,,,,AAXX 25064 07661 02/// 03102 10110 20040 30124 40290 53004 60006 80000 90600 333 10144 20105 60004=
07661,1998-02-25 12:00:00,14,1029.4,-0.5,72,9,20000,14.816,,,220,,,,,,,,,,,wg-a,,,,AAXX 25124 07661 12870 32208 10140 20090 30130 40294 58005 60006 83030 91200=
07661,1998-02-25 18:00:00,14,1029.3,0.7,51,4,17000,18.52,,,300,10.4,17.1,,,,,,,,,wg-a,,,,AAXX 25184 07661 12867 43010 10140 20040 30129 40293 53007 60006 84030 91800 333 10171 20104=
07661,1998-02-26 00:00:00,12,1030.6,0.4,58,4,10000,7.408,,,50,,,,,,,,,,,wg-a,,,,AAXX 26004 07661 12860 20504 10120 20040 30140 40306 53004 60006 82030 90000=
07661,1998-02-26 06:00:00,10,1031.3,0.5,71,5,18000,18.52,,,80,9.4,15.4,,,,,,,,,wg-a,,,,AAXX 26064 07661 02/68 10810 10100 20050 30146 40313 53005 60006 81030 90600 333 10154 20094 60004=
07661,1998-02-26 12:00:00,15,1032.2,-0.3,63,8,20000,18.52,,,130,,,,,,,,,,,wg-a,,,,AAXX 26124 07661 12/70 01310 10150 20080 30158 40322 58003 60006 80000 91200=
07661,1998-02-27 06:00:00,9,1028.7,-1,81,6,15000,18.52,,,280,9.2,12.3,,,,,,,,,wg-a,,,,AAXX 27064 07661 02/65 02810 10090 20060 30120 40287 56010 60006 80000 90600 333 10123 20092 60004=
07661,1998-02-27 12:00:00,15,1026.5,-1.8,59,7,8000,25.928,,,280,,,,,,,,,,,wg-a,,,,AAXX 27124 07661 12/58 02814 10150 20070 30102 40265 58018 60006 80000 91200=
07661,1998-02-27 18:00:00,13,1023.6,-0.6,77,9,8000,38.892,,,290,9.1,15.2,,,,,,,,,wg-a,,,,AAXX 27184 07661 12/58 02921 10130 20090 30072 40236 55006 60006 80000 91800 333 10152 20091=
07661,1998-02-28 00:00:00,11,1021.6,-2,87,9,10000,25.928,,,280,,,,,,,,,,,wg-a,,,,AAXX 28004 07661 12/60 02814 10110 20090 30052 40216 57020 60006 80000 90000=
07661,1998-02-28 06:00:00,11,1018.6,-1.2,82,8,8000,35.188,,,300,10.8,12.5,,,,,,,,,wg-a,,,,AAXX 28064 07661 02/58 03019 10110 20080 30022 40186 56012 60006 80000 90600 333 10125 20108 60004=
07661,1998-02-28 12:00:00,14,1016.6,-1.3,63,7,8000,42.596,,64.82,280,,,,,,,,,,,wg-a,,,,AAXX 28124 07661 12/58 02823 10140 20070 30004 40166 58013 60006 80000 91200 333 91035=
07661,1998-02-28 18:00:00,14,1015.5,0.4,44,2,8000,53.708,,87.044,300,10.6,15.4,,,,,,,,,wg-a,,,,AAXX 28184 07661 12/58 03029 10140 20020 39993 40155 53004 60006 80000 91800 333 10154 20106 91047=
07661,1998-03-01 00:00:00,11,1016.8,0.8,58,3,10000,50.004,,83.34,300,,,,,,,,,,,wg-a,,,,AAXX 01004 07661 12/60 03027 10110 20030 30004 40168 53008 60006 80000 90000 333 91045=
07661,1998-03-01 06:00:00,10,1016.6,0.5,57,2,500,46.3,,79.636,300,9.3,14,,,,,,,,,wg-a,,,,AAXX 01064 07661 02800 13025 10100 20020 30001 40166 53005 60006 81040 90600 333 10140 20093 60004 91043=
07661,1998-03-01 12:00:00,14,1017.3,-0.5,41,1,35000,57.412,,90.748,310,,,,,,,,,,,wg-a,,,,AAXX 01124 07661 12/81 33131 10140 20010 30011 40173 58005 60006 82023 91200 333 91049=
07661,1998-03-01 18:00:00,13,1017.7,1.2,44,1,35000,57.412,,96.304,300,9.4,15.1,,,,,,,,,wg-a,,,,AAXX 01184 07661 12681 13031 10130 20010 30014 40177 53012 60006 81131 91800 333 10151 20094 91052=
07661,1998-03-02 00:00:00,11,1018.8,-0.2,40,-2,20000,53.708,,,320,,,,,,,,,,,wg-a,,,,AAXX 02004 07661 12/70 03229 10110 21020 30024 40188 55002 60006 80000 90000=
07661,1998-03-02 06:00:00,8,1020.9,1.6,53,-1,35000,22.224,,,290,8.2,13,,,,,,,,,wg-a,,,,AAXX 02064 07661 02/81 12912 10080 21010 30043 40209 51016 60006 81031 90600 333 10130 20082 60004=
07661,1998-03-02 18:00:00,11,1023.2,0.7,71,6,35000,38.892,,57.412,290,8,15.3,,,,,,,,,wg-a,,,,AAXX 02184 07661 12/81 12921 10110 20060 30067 40232 53007 60006 80002 91800 333 10153 20080 91031=
07661,1998-03-03 00:00:00,10,1025.2,0.5,62,3,25000,25.928,,,300,,,,,,,,,,,wg-a,,,,AAXX 03004 07661 12/75 03014 10100 20030 30086 40252 51005 60006 80000 90000=
07661,1998-03-03 06:00:00,8,1025.8,0.7,81,5,20000,14.816,,,320,8.3,11.4,,,,,,,,,wg-a,,,,AAXX 03064 07661 02/70 03208 10080 20050 30091 40258 53007 60006 80000 90600 333 10114 20083 60004=
07661,1998-03-03 12:00:00,14,1027.2,0.2,72,9,0,14.816,,,210,,,,,,,,,,,wg-a,,,,AAXX 03124 07661 12/// /2108 10140 20090 30108 40272 50002 60006 91200=
07661,1998-03-03 18:00:00,12,1027.3,0.6,82,9,10000,7.408,,,270,8.5,15.1,,,,,,,,,wg-a,,,,AAXX 03184 07661 12560 62704 10120 20090 30108 40273 53006 60006 86400 91800 333 10151 20085=
07661,1998-03-04 00:00:00,11,1027.3,-0.5,87,9,10000,7.408,,,300,,,,,,,,,,,wg-a,,,,AAXX 04004 07661 12560 63004 10110 20090 30107 40273 58005 60006 86400 90000=
07661,1998-03-04 06:00:00,10,1025.9,-0.4,87,8,6000,11.112,,,90,9.2,11.7,,,,,,,,,wg-a,,,,AAXX 04064 07661 02356 70906 10100 20080 30093 40259 56004 60006 876// 90600 333 10117 20092 60004=
07661,1998-03-04 12:00:00,14,1026,-0.1,82,11,8000,11.112,,,140,,,,,,,,,,,wg-a,,,,AAXX 04124 07661 12358 71406 10140 20110 30096 40260 58001 60006 876// 91200=
07661,1998-03-04 18:00:00,13,1023.2,-0.8,88,11,8000,14.816,,,130,9.4,14.2,,,,,,,,,wg-a,,,,AAXX 04184 07661 12358 71308 10130 20110 30068 40232 56008 60006 878// 91800 333 10142 20094=
07661,1998-03-05 00:00:00,12,1021.5,-1.3,94,11,8000,14.816,,,90,,,,,,,,,,,wg-a,,,,AAXX 05004 07661 12358 70908 10120 20110 30051 40215 58013 60006 876// 90000=
07661,1998-03-05 06:00:00,12,1020.1,0.3,94,11,8000,14.816,,,280,11.5,12.7,,,,,,,,,wg-a,,,,AAXX 05064 07661 02858 52808 10120 20110 30037 40201 53003 60006 85070 90600 333 10127 20115 60004=
07661,1998-03-05 12:00:00,18,1019.9,-0.3,42,5,15000,38.892,,64.82,300,,,,,,,,,,,wg-a,,,,AAXX 05124 07661 12/65 63021 10180 20050 30038 40199 56003 60006 80008 91200 333 91035=
07661,1998-03-05 18:00:00,15,1022.7,2.7,15,-11,35000,35.188,,68.524,300,11.7,17.8,,,,,,,,,wg-a,,,,AAXX 05184 07661 12/81 23019 10150 21110 30064 40227 53027 60006 80006 91800 333 10178 20117 91037=
07661,1998-03-06 00:00:00,12,1025.9,0.5,19,-11,20000,46.3,,,300,,,,,,,,,,,wg-a,,,,AAXX 06004 07661 12/70 03025 10120 21110 30094 40259 51005 60006 80000 90000=
07661,1998-03-06 06:00:00,10,1027.5,0.8,25,-9,35000,11.112,,,300,9.6,15,,,,,,,,,wg-a,,,,AAXX 06064 07661 02/81 03006 10100 21090 30108 40275 53008 60006 80000 90600 333 10150 20096 60004=
07661,1998-03-06 12:00:00,16,1027.4,-1,23,-5,45000,31.484,,,290,,,,,,,,,,,wg-a,,,,AAXX 06124 07661 12/83 22917 10160 21050 30111 40274 58010 60006 80001 91200=
07661,1998-03-06 18:00:00,12,1026.1,-0,76,8,40000,31.484,,61.116,290,9.3,15.8,,,,,,,,,wg-a,,,,AAXX 06184 07661 12/82 22917 10120 20080 30096 40261 55000 60006 80001 91800 333 10158 20093 91033=
07661,1998-03-07 00:00:00,11,1024.7,-1.1,87,9,25000,25.928,,,290,,,,,,,,,,,wg-a,,,,AAXX 07004 07661 12/75 02914 10110 20090 30082 40247 58011 60006 80000 90000=
07661,1998-03-07 06:00:00,11,1022.7,-0.5,94,10,12000,29.632,,,290,10.6,11.7,,,,,,,,,wg-a,,,,AAXX 07064 07661 02/62 22916 10110 20100 30062 40227 56005 60006 82030 90600 333 10117 20106 60004=
07661,1998-03-07 12:00:00,17,1021.6,-1.2,55,8,14000,31.484,,,290,,,,,,,,,,,wg-a,,,,AAXX 07124 07661 12/64 12917 10170 20080 30055 40216 58012 60006 80002 91200=
07661,1998-03-07 18:00:00,16,1020,0.2,55,7,10000,42.596,,68.524,300,10.4,17.8,,,,,,,,,wg-a,,,,AAXX 07184 07661 12/60 53023 10160 20070 30038 40200 53002 60006 80002 91800 333 10178 20104 91037=
07661,1998-03-08 00:00:00,14,1018.1,-1.5,63,7,10000,53.708,,87.044,300,,,,,,,,,,,wg-a,,,,AAXX 08004 07661 12/60 63029 10140 20070 30019 40181 58015 60006 80002 90000 333 91047=
07661,1998-03-08 06:00:00,13,1016.1,0.3,54,4,16000,53.708,,103.712,300,12.9,15.9,,,,,,,,,wg-a,,,,AAXX 08064 07661 12666 63029 10130 20040 39998 40161 50003 60004 81171 90600 333 10159 20129 91056=
07661,1998-03-08 12:00:00,14,1013.8,-1.5,67,8,20000,61.116,,94.452,300,,,,,,,,,,,wg-a,,,,AAXX 08124 07661 12670 63033 10140 20080 39977 40138 58015 60006 82171 91200 333 91051=
07661,1998-03-08 18:00:00,14,1006.5,-4,82,11,15000,64.82,,94.452,290,12.7,14.9,,,,,,,,,wg-a,,,,AAXX 08184 07661 12665 62935 10140 20110 39905 40065 58040 60006 8287/ 91800 333 10149 20127 91051=
07661,1998-03-09 06:00:00,11,1005.6,1.1,50,1,25000,42.596,,96.304,300,10.2,14.7,,,,,,,,,wg-a,,,,AAXX 09064 07661 12/75 23023 10110 20010 39893 40056 50011 60004 82030 90600 333 10147 20102 91052=
07661,1998-03-09 12:00:00,15,1008.6,0.7,41,2,35000,46.3,,114.824,330,,,,,,,,,,,wg-a,,,,AAXX 09124 07661 12781 43325 10150 20020 39925 40086 50007 60006 82140 91200 333 91062=
07661,1998-03-09 18:00:00,11,1010,1.2,43,-1,500,29.632,,83.34,300,10.5,15.2,,,,,,,,,wg-a,,,,AAXX 09184 07661 12700 13016 10110 21010 39937 40100 53012 60006 81140 91800 333 10152 20105 91045=
07661,1998-03-10 00:00:00,10,1015.8,4.1,40,-3,25000,18.52,,,40,,,,,,,,,,,wg-a,,,,AAXX 10004 07661 12/75 50410 10100 21030 39993 40158 52041 60006 85050 90000=
07661,1998-03-10 06:00:00,8,1023.9,4.2,42,-4,25000,11.112,,,360,7.5,10.9,,,,,,,,,wg-a,,,,AAXX 10064 07661 02/75 33606 10080 21040 30072 40239 51042 60006 83050 90600 333 10109 20075 60004=
07661,1998-03-10 12:00:00,11,1028,1.1,40,-2,40000,18.52,,,130,,,,,,,,,,,wg-a,,,,AAXX 10124 07661 12/82 01310 10110 21020 30114 40280 51011 60006 80000 91200=
07661,1998-03-10 18:00:00,8,1027.6,-0.3,57,0,40000,18.52,,,270,7.6,12.6,,,,,,,,,wg-a,,,,AAXX 10184 07661 12/82 12710 10080 20000 30108 40276 58003 60006 81031 91800 333 10126 20076=
07661,1998-03-11 00:00:00,8,1023.9,-2.5,57,0,40000,14.816,,,300,,,,,,,,,,,wg-a,,,,AAXX 11004 07661 12/82 03008 10080 20000 30072 40239 58025 60006 80000 90000=
07661,1998-03-11 06:00:00,8,1017.8,-3.4,53,-1,35000,11.112,,,300,6.5,8.4,,,,,,,,60,wg-a,,,,AAXX 11064 07661 02581 83006 10080 21010 30012 40178 56034 61000 76011 888// 90600 333 10084 20065 6100=
07661,1998-03-11 12:00:00,7,1014.1,-1.3,87,5,15000,18.52,,,60,,,,3,,,,,,60,wg-a,,,,AAXX 11124 07661 02465 80610 10070 20050 39975 40141 58013 60106 76062 8472/ 91200 333 60037=
07661,1998-03-11 18:00:00,7,1012.4,0.3,81,4,0,14.816,,,60,5.6,8.7,,,,,,,,,wg-a,,,,AAXX 11184 07661 32/// /0608 10070 20040 39958 40124 53003 91800 333 10087 20056=
07661,1998-03-12 00:00:00,7,1013.1,0.1,87,5,10000,7.408,,,340,,,,,,,,,,,wg-a,,,,AAXX 12004 07661 12460 83404 10070 20050 39965 40131 50001 60006 8377/ 90000=
07661,1998-03-12 06:00:00,6,1012.4,0.2,87,4,18000,7.408,,,340,6.1,7.6,,,,,10,,,,wg-a,,,,AAXX 12064 07661 02668 53404 10060 20040 39958 40124 53002 60006 85860 90600 333 10076 20061 60104=
07661,1998-03-12 12:00:00,12,1013.7,0.7,58,4,25000,14.816,,,210,,,,,,,,,,,wg-a,,,,AAXX 12124 07661 12675 32108 10120 20040 39974 40137 51007 60006 83170 91200=
07661,1998-03-12 18:00:00,10,1015.5,1.8,66,4,20000,18.52,,,110,5.9,14.7,,,,,,,,,wg-a,,,,AAXX 12184 07661 12570 61110 10100 20040 39991 40155 53018 60006 81170 91800 333 10147 20059=
07661,1998-03-13 00:00:00,7,1018.5,1.3,81,4,15000,11.112,,,40,,,,,,,,,,,wg-a,,,,AAXX 13004 07661 12/65 10406 10070 20040 30018 40185 51013 60006 81010 90000=
07661,1998-03-13 06:00:00,5,1019.3,1.1,81,2,25000,14.816,,,90,5.4,10,,,,,,,,,wg-a,,,,AAXX 13064 07661 02/75 00908 10050 20020 30025 40193 53011 60006 80000 90600 333 10100 20054 60004=
07661,1998-03-13 12:00:00,12,1020.9,0.8,54,3,35000,14.816,,,210,,,,,,,,,,,wg-a,,,,AAXX 13124 07661 12581 12108 10120 20030 30045 40209 51008 60006 81200 91200=
07661,1998-03-13 18:00:00,12,1020.3,0.1,47,1,500,22.224,,,290,5.4,14.7,,,,,,,,,wg-a,,,,AAXX 13184 07661 12/00 12912 10120 20010 30039 40203 53001 60006 80001 91800 333 10147 20054=
07661,1998-03-14 00:00:00,6,1022.4,0.3,75,2,25000,18.52,,,60,,,,,,,,,,,wg-a,,,,AAXX 14004 07661 12/75 00610 10060 20020 30056 40224 51003 60006 80000 90000=
07661,1998-03-14 06:00:00,5,1022.7,0.7,81,2,25000,22.224,,,70,5,11.7,,,,,,,,,wg-a,,,,AAXX 14064 07661 02/75 10712 10050 20020 30058 40227 53007 60006 81030 90600 333 10117 20050 60004=
07661,1998-03-14 12:00:00,13,1022.4,-0.6,62,6,20000,14.816,,,210,,,,,,,,,,,wg-a,,,,AAXX 14124 07661 12/70 02108 10130 20060 30060 40224 58006 60006 80000 91200=
07661,1998-03-14 18:00:00,13,1018.8,-1.3,51,3,28000,22.224,,,290,5.2,15,,,,,,,,,wg-a,,,,AAXX 14184 07661 12/78 02912 10130 20030 30024 40188 56013 60006 80000 91800 333 10150 20052=
07661,1998-03-15 00:00:00,10,1018.1,-0.4,57,2,25000,3.704,,,220,,,,,,,,,,,wg-a,,,,AAXX 15004 07661 12/75 02202 10100 20020 30016 40181 58004 60006 80000 90000=
07661,1998-03-15 06:00:00,8,1018.9,0.2,66,2,0,7.408,,,50,7.6,12.6,,,,,,,,,wg-a,,,,AAXX 15064 07661 02/// /0504 10080 20020 30023 40189 53002 60006 90600 333 10126 20076 60004=
07661,1998-03-15 12:00:00,15,1018.4,0.2,48,4,500,14.816,,,170,,,,,,,,,,,wg-a,,,,AAXX 15124 07661 12/00 01708 10150 20040 30022 40184 51002 60006 80000 91200=
07661,1998-03-15 18:00:00,13,1018.4,-0.3,77,9,25000,18.52,,,200,7.4,18.2,,,,,,,,,wg-a,,,,AAXX 15184 07661 12/75 22010 10130 20090 30021 40184 55003 60006 82040 91800 333 10182 20074=
07661,1998-03-16 00:00:00,13,1018.7,0.9,47,2,15000,22.224,,,30,,,,,,,,,,,wg-a,,,,AAXX 16004 07661 12/65 40312 10130 20020 30024 40187 53009 60006 80004 90000=
07661,1998-03-16 06:00:00,10,1019.4,0.5,71,5,20000,7.408,,,290,10,13.2,,,,,,,,,wg-a,,,,AAXX 16064 07661 02/70 02904 10100 20050 30029 40194 53005 60006 80000 90600 333 10132 20100 60004=
07661,1998-03-16 12:00:00,15,1020.2,-0,67,9,25000,14.816,,,210,,,,,,,,,,,wg-a,,,,AAXX 16124 07661 12/75 12108 10150 20090 30040 40202 55000 60006 80009 91200=
07661,1998-03-16 18:00:00,15,1019.4,-0,48,4,25000,7.408,,,290,10.1,16.6,,,,,,,,,wg-a,,,,AAXX 16184 07661 12/75 02904 10150 20040 30032 40194 55000 60006 80000 91800 333 10166 20101=
07661,1998-03-17 00:00:00,12,1020.6,0.3,58,4,25000,7.408,,,40,,,,,,,,,,,wg-a,,,,AAXX 17004 07661 12/75 00404 10120 20040 30042 40206 53003 60006 80000 90000=
07661,1998-03-17 06:00:00,10,1021.5,1.1,76,6,22000,11.112,,,310,9.1,14.7,,,,,,,,,wg-a,,,,AAXX 17064 07661 02/72 03106 10100 20060 30050 40215 53011 60006 80000 90600 333 10147 20091 60004=
07661,1998-03-17 12:00:00,15,1021.7,-0.4,67,9,15000,14.816,,,200,,,,,,,,,,,wg-a,,,,AAXX 17124 07661 12/65 02008 10150 20090 30055 40217 58004 60006 80000 91200=
07661,1998-03-17 18:00:00,13,1020.5,-0,82,10,12000,14.816,,,120,10.1,16.9,,,,,,,,,wg-a,,,,AAXX 17184 07661 12/62 01208 10130 20100 30042 40205 55000 60006 80000 91800 333 10169 20101=
07661,1998-03-18 00:00:00,12,1020.9,0.2,76,8,15000,3.704,,,360,,,,,,,,,,,wg-a,,,,AAXX 18004 07661 12/65 03602 10120 20080 30045 40209 51002 60006 80000 90000=
07661,1998-03-18 06:00:00,9,1024.2,2.1,81,6,8000,14.816,,,90,8.7,13.1,,,,,,,,,wg-a,,,,AAXX 18064 07661 02/58 00908 10090 20060 30076 40242 53021 60006 80000 90600 333 10131 20087 60004=
07661,1998-03-18 12:00:00,16,1027.9,1.1,72,11,8000,18.52,,,130,,,,,,,,,,,wg-a,,,,AAXX 18124 07661 12/58 31310 10160 20110 30116 40279 51011 60006 80001 91200=
07661,1998-03-18 18:00:00,12,1029.5,0.7,94,11,6000,14.816,,,220,8.8,17.1,,,,,,,,,wg-a,,,,AAXX 18184 07661 12/56 42208 10120 20110 30130 40295 53007 60006 80001 91800 333 10171 20088=
07661,1998-03-19 00:00:00,12,1029.9,-0.2,94,11,6000,22.224,,,290,,,,,,,,,,,wg-a,,,,AAXX 19004 07661 12356 32912 10120 20110 30134 40299 57002 60006 83600 90000=
07661,1998-03-19 06:00:00,9,1027.7,-0.8,87,7,6000,18.52,,,290,9.1,12.4,,0,,,,,,,wg-a,,,,AAXX 19064 07661 02/56 02910 10090 20070 30110 40277 56008 60004 80000 90600 333 10124 20091 60007=
07661,1998-03-19 12:00:00,17,1023.4,-2.8,52,7,6000,35.188,,,280,,,,,,,,,,,wg-a,,,,AAXX 19124 07661 12/56 12819 10170 20070 30073 40234 58028 60006 81031 91200=
07661,1998-03-19 18:00:00,14,1025.3,4.5,77,10,6000,7.408,,72.228,110,9.3,23.1,,,,,,,,,wg-a,,,,AAXX 19184 07661 12/56 01104 10140 20100 30089 40253 51045 60006 80000 91800 333 10231 20093 91039=
07661,1998-03-20 00:00:00,11,1027.5,0.4,82,8,6000,25.928,,,70,,,,,,,,,,,wg-a,,,,AAXX 20004 07661 12/56 00714 10110 20080 30109 40275 51004 60006 80000 90000=
07661,1998-03-20 06:00:00,12,1027,0.1,47,1,15000,14.816,,,270,9.9,13.8,,,,,,,,,wg-a,,,,AAXX 20064 07661 02/65 12708 10120 20010 30105 40270 53001 60006 81030 90600 333 10138 20099 60004=
07661,1998-03-20 12:00:00,15,1025.3,-0.9,48,4,15000,7.408,,,200,,,,,,,,,,,wg-a,,,,AAXX 20124 07661 12/65 12004 10150 20040 30090 40253 58009 60006 80001 91200=
07661,1998-03-20 18:00:00,12,1021.6,-1.3,67,6,18000,3.704,,,130,11.5,16.5,,,,,,,,,wg-a,,,,AAXX 20184 07661 12/68 11302 10120 20060 30052 40216 56013 60006 80001 91800 333 10165 20115=
07661,1998-03-21 00:00:00,9,1021.4,-0.7,81,6,10000,7.408,,,80,,,,,,,,,,,wg-a,,,,AAXX 21004 07661 12/60 00804 10090 20060 30048 40214 57007 60006 80000 90000=
07661,1998-03-21 06:00:00,9,1018.4,-1,66,3,15000,3.704,,,190,8.1,11.5,,,,,,,,,wg-a,,,,AAXX 21064 07661 02/65 01902 10090 20030 30019 40184 56010 60006 80000 90600 333 10115 20081 60004=
07661,1998-03-21 12:00:00,14,1017.2,-1.1,63,7,25000,14.816,,,220,,,,,,,,,,,wg-a,,,,AAXX 21124 07661 12/75 02208 10140 20070 30010 40172 57011 60006 80000 91200=
07661,1998-03-21 18:00:00,12,1018,1.1,67,6,15000,11.112,,,130,8.6,16.1,,,,,,,,,wg-a,,,,AAXX 21184 07661 12/65 01306 10120 20060 30016 40180 53011 60006 80000 91800 333 10161 20086=
07661,1998-03-22 00:00:00,11,1022.8,2.1,76,7,0,53.708,,,60,,,,,,,,,,,wg-a,,,,AAXX 22004 07661 12/// /0629 10110 20070 30063 40228 51021 60006 90000=
07661,1998-03-22 06:00:00,8,1026.1,1.3,66,2,15000,31.484,,75.932,60,7.9,12.1,,,,,,,,,wg-a,,,,AAXX 22064 07661 02865 30617 10080 20020 30094 40261 51013 60006 83040 90600 333 10121 20079 60004 91041=
07661,1998-03-22 12:00:00,11,1027,-0.3,54,2,25000,11.112,,,120,,,,,,,,,,,wg-a,,,,AAXX 22124 07661 12/75 81206 10110 20020 30104 40270 58003 60006 88050 91200=
07661,1998-03-22 18:00:00,10,1026,0.1,62,3,25000,7.408,,,210,7.9,12.1,,,,,,,,,wg-a,,,,AAXX 22184 07661 12875 42104 10100 20030 30094 40260 53001 60006 84030 91800 333 10121 20079=
07661,1998-03-23 00:00:00,8,1026.8,0,76,4,0,11.112,,,80,,,,,,,,,,,wg-a,,,,AAXX 23004 07661 12/// /0806 10080 20040 30101 40268 50000 60006 90000=
07661,1998-03-23 06:00:00,7,1025.5,-0.7,81,4,25000,11.112,,,70,6.7,10.3,,,,,,,,,wg-a,,,,AAXX 23064 07661 02675 20706 10070 20040 30087 40255 57007 60006 82100 90600 333 10103 20067 60004=
07661,1998-03-23 12:00:00,14,1023.8,-1.3,51,4,500,11.112,,,220,,,,,,,,,,,wg-a,,,,AAXX 23124 07661 12600 42206 10140 20040 30074 40238 58013 60006 83260 91200=
07661,1998-03-23 18:00:00,11,1020.5,-0.6,54,2,28000,31.484,,53.708,290,6.6,14.8,,,,,,,,,wg-a,,,,AAXX 23184 07661 12/78 12917 10110 20020 30040 40205 55006 60006 81040 91800 333 10148 20066 91029=
07661,1998-03-24 00:00:00,9,1019.1,-1.4,57,1,10000,14.816,,,290,,,,,,,,,,,wg-a,,,,AAXX 24004 07661 12860 62908 10090 20010 30026 40191 56014 60006 86070 90000=
07661,1998-03-24 06:00:00,8,1016.1,-0.6,49,-2,28000,25.928,,,320,7.1,11.1,,,,,,,,,wg-a,,,,AAXX 24064 07661 02678 33214 10080 21020 39995 40161 55006 60006 82240 90600 333 10111 20071 60004=
07661,1998-03-24 12:00:00,10,1018.8,2,62,3,28000,25.928,,,150,,,,,,,,,,21,wg-a,,,,AAXX 24124 07661 02578 41514 10100 20030 30023 40188 53020 61000 72111 83340 91200 333 6100=
07661,1998-03-24 18:00:00,10,1020.4,0.5,43,-2,20000,22.224,,,300,7.5,11.8,,,,,,,,3,wg-a,,,,AAXX 24184 07661 32/70 03012 10100 21020 30039 40204 53005 70361 80000 91800 333 10118 20075=
07661,1998-03-25 00:00:00,6,1023.3,0.7,75,2,20000,7.408,,,40,,,,,,,,,,,wg-a,,,,AAXX 25004 07661 12/70 00404 10060 20020 30065 40233 50007 60006 80000 90000=
07661,1998-03-25 06:00:00,5,1024.4,0.8,70,0,20000,14.816,,,80,4.6,10.3,,,,,,,,,wg-a,,,,AAXX 25064 07661 02/70 00808 10050 20000 30075 40244 52008 60006 80000 90600 333 10103 20046 61000=
07661,1998-03-25 12:00:00,12,1024,-0.6,47,1,20000,18.52,,,140,,,,,,,,,,,wg-a,,,,AAXX 25124 07661 12570 21410 10120 20010 30075 40240 58006 60006 82200 91200=
07661,1998-03-25 18:00:00,10,1024.9,0.8,50,0,18000,7.408,,,170,4.7,13.4,,,,,,,,,wg-a,,,,AAXX 25184 07661 12568 31704 10100 20000 30083 40249 53008 60006 81132 91800 333 10134 20047=
07661,1998-03-26 00:00:00,7,1025.6,-0.8,76,3,20000,7.408,,,340,,,,,,,,,,,wg-a,,,,AAXX 26004 07661 12/70 03404 10070 20030 30088 40256 58008 60006 80000 90000=
07661,1998-03-26 06:00:00,5,1024.7,-0.2,87,3,18000,3.704,,,30,4.9,9.7,,,,,,,,,wg-a,,,,AAXX 26064 07661 02/68 20302 10050 20030 30078 40247 55002 60006 81031 90600 333 10097 20049 60004=
07661,1998-03-26 12:00:00,14,1021.9,-2.1,36,-1,15000,29.632,,,280,,,,,,,,,,,wg-a,,,,AAXX 26124 07661 12/65 02816 10140 21010 30055 40219 58021 60006 80000 91200=
07661,1998-03-26 18:00:00,11,1019.9,-0.2,66,5,20000,38.892,,61.116,290,5.3,14.2,,,,,,,,,wg-a,,,,AAXX 26184 07661 12/70 32921 10110 20050 30034 40199 55002 60006 80001 91800 333 10142 20053 91033=
07661,1998-03-27 00:00:00,8,1021.4,0.6,76,4,15000,18.52,,,80,,,,,,,,,,,wg-a,,,,AAXX 27004 07661 12/65 00810 10080 20040 30047 40214 51006 60006 80000 90000=
07661,1998-03-27 06:00:00,8,1021.2,0.4,87,6,15000,18.52,,,80,6.8,10.9,,,,,,,,,wg-a,,,,AAXX 27064 07661 02/65 30810 10080 20060 30045 40212 53004 60006 80001 90600 333 10109 20068 60004=
07661,1998-03-27 12:00:00,14,1021.9,0,67,8,12000,18.52,,,120,,,,,,,,,,,wg-a,,,,AAXX 27124 07661 12562 71210 10140 20080 30056 40219 50000 60006 8326/ 91200=
07661,1998-03-27 18:00:00,11,1021.1,0.1,76,7,12000,11.112,,,150,7.5,14.5,,,,,,,,,wg-a,,,,AAXX 27184 07661 12562 51506 10110 20070 30046 40211 53001 60006 81268 91800 333 10145 20075=
07661,1998-03-28 00:00:00,9,1021.6,-0.5,87,7,15000,22.224,,,70,,,,,,,,,,,wg-a,,,,AAXX 28004 07661 12/65 00712 10090 20070 30050 40216 55005 60006 80000 90000=
07661,1998-03-28 06:00:00,7,1021.5,-0.9,93,6,10000,29.632,,,70,6.2,11,,,,,,,,,wg-a,,,,AAXX 28064 07661 02/60 00716 10070 20060 30048 40215 58009 60006 80000 90600 333 10110 20062 60004=
07661,1998-03-28 12:00:00,15,1022.3,0.7,67,9,10000,11.112,,,180,,,,,,,,,,,wg-a,,,,AAXX 28124 07661 12460 51806 10150 20090 30060 40223 50007 60006 85250 91200=
07661,1998-03-28 18:00:00,12,1019.8,-1,76,8,8000,7.408,,,180,7.3,15.2,,,,,,,,,wg-a,,,,AAXX 28184 07661 12/58 31804 10120 20080 30034 40198 56010 60006 82032 91800 333 10152 20073=
07661,1998-03-29 00:00:00,9,1019,-0.9,93,8,0,11.112,,,80,,,,,,,,,,,wg-a,,,,AAXX 29004 07661 12/// /0806 10090 20080 30025 40190 58009 60006 90000=
07661,1998-03-29 06:00:00,9,1017.2,-0.2,87,7,8000,11.112,,,90,8.1,11.6,,,,,,,,,wg-a,,,,AAXX 29064 07661 02558 80906 10090 20070 30007 40172 56002 60006 886// 90600 333 10116 20081 60004=
07661,1998-03-29 12:00:00,14,1016.2,-0.8,72,9,12000,18.52,,,100,,,,0,,,,,,,wg-a,,,,AAXX 29124 07661 02662 31010 10140 20090 30000 40162 58008 60006 82261 91200 333 60007=
07661,1998-03-29 18:00:00,12,1014.9,-0.1,82,9,12000,22.224,,,120,8.9,14.3,,,,,,,,,wg-a,,,,AAXX 29184 07661 32462 71212 10120 20090 39986 40149 55001 82179 91800 333 10143 20089=
07661,1998-03-30 00:00:00,10,1015.5,-0.3,66,4,10000,25.928,,,80,,,,,,,,,,,wg-a,,,,AAXX 30004 07661 12/60 00814 10100 20040 39991 40155 56003 60006 80000 90000=
07661,1998-03-30 18:00:00,12,1018.5,1.4,76,8,18000,11.112,,,90,10.9,15.1,,,,,,,,,wg-a,,,,AAXX 30184 07661 12868 50906 10120 20080 30022 40185 53014 60006 82037 91800 333 10151 20109=
07661,1998-03-31 00:00:00,10,1019.8,0.1,57,2,10000,22.224,,,70,,,,,,,,,,,wg-a,,,,AAXX 31004 07661 12/60 00712 10100 20020 30033 40198 50001 60006 80000 90000=
07661,1998-03-31 06:00:00,9,1019.6,0.6,76,5,10000,25.928,,,70,8.8,12.3,,,,,,,,,wg-a,,,,AAXX 31064 07661 02560 50714 10090 20050 30031 40196 53006 60006 85600 90600 333 10123 20088 60004=
07661,1998-03-31 12:00:00,15,1020.1,-0.2,77,11,12000,18.52,,,110,,,,,,,,,,,wg-a,,,,AAXX 31124 07661 12862 41110 10150 20110 30039 40201 58002 60006 83071 91200=
07661,1998-03-31 18:00:00,13,1019.1,-0.2,82,10,16000,7.408,,,110,9.3,15.8,,,,,,,,,wg-a,,,,AAXX 31184 07661 12/66 71104 10130 20100 30028 40191 55002 60006 86072 91800 333 10158 20093=
07661,1998-04-01 00:00:00,11,1019.9,-0.1,87,9,15000,11.112,,,90,,,,,,,,,,,wg-a,,,,AAXX 01004 07661 12/65 00906 10110 20090 30035 40199 58001 60006 80000 90000=
07661,1998-04-01 06:00:00,12,1018.8,0.1,82,9,12000,11.112,,,110,10.8,13.3,,,,,,,,,wg-a,,,,AAXX 01064 07661 02562 81106 10120 20090 30024 40188 53001 60006 88700 90600 333 10133 20108 60004=
07661,1998-04-01 12:00:00,13,1018.4,-0.4,100,13,12000,7.408,,,160,,,,4,,,,,,21,wg-a,,,,AAXX 01124 07661 02562 81604 10130 20130 30021 40184 58004 60046 72161 88700 91200 333 60047=
07661,1998-04-01 18:00:00,12,1016.7,-0.4,100,12,10000,11.112,,,70,11.7,13.5,,2,,,,,,2,wg-a,,,,AAXX 01184 07661 12560 80706 10120 20120 30004 40167 55004 60027 70261 88700 91800 333 10135 20117=
07661,1998-04-02 00:00:00,11,1016.6,-0.5,100,11,10000,11.112,,,310,,,,,,,,,,,wg-a,,,,AAXX 02004 07661 12660 33106 10110 20110 30003 40166 58005 60006 83400 90000=
07661,1998-04-02 06:00:00,10,1014.9,-0.5,93,9,10000,7.408,,,130,9.5,12.3,,,,,9,,,,wg-a,,,,AAXX 02064 07661 12660 51304 10100 20090 39985 40149 55005 60094 83201 90600 333 10123 20095=
07661,1998-04-02 12:00:00,14,1014.5,-1.3,88,12,0,11.112,,,150,,,,,,,,,,,wg-a,,,,AAXX 02124 07661 12/// /1506 10140 20120 39984 40145 58013 60006 91200=
07661,1998-04-02 18:00:00,14,1011.2,-1.1,94,13,10000,7.408,,,190,10.4,15.5,,,,,,,,,wg-a,,,,AAXX 02184 07661 12360 71904 10140 20130 39951 40112 56011 60006 8472/ 91800 333 10155 20104=
07661,1998-04-03 00:00:00,12,1011.4,-0.9,100,12,6000,0,,,0,,,,,,,,,,,wg-a,,,,AAXX 03004 07661 12356 50000 10120 20120 39952 40114 58009 60006 84730 90000=
07661,1998-04-03 06:00:00,12,1010.8,0.2,94,11,300,14.816,,,130,10.5,13.9,,,,,,,,47,wg-a,,,,AAXX 03064 07661 12/03 91308 10120 20110 39946 40108 53002 60004 74742 89/// 90600 333 10139 20105=
07661,1998-04-03 12:00:00,15,1011.3,0,94,14,6000,22.224,,,90,,,,,,,,,,1,wg-a,,,,AAXX 03124 07661 12356 30912 10150 20140 39953 40113 50000 60006 70142 83600 91200=
07661,1998-04-03 18:00:00,14,1010,-0.2,94,13,10000,22.224,,,90,11,15.9,,,,,,,,,wg-a,,,,AAXX 03184 07661 12360 60912 10140 20130 39939 40100 55002 60006 85720 91800 333 10159 20110=
07661,1998-04-04 00:00:00,14,1010,-0.9,94,13,8000,18.52,,,100,,,,,,,,,,,wg-a,,,,AAXX 04004 07661 12358 81010 10140 20130 39939 40100 57009 60006 887// 90000=
07661,1998-04-04 06:00:00,14,1008.1,-0.6,88,12,15000,22.224,,,110,13.5,14,,,,,,,,,wg-a,,,,AAXX 04064 07661 02465 81112 10140 20120 39920 40081 56006 60006 8472/ 90600 333 10140 20135 60004=
07661,1998-04-04 12:00:00,16,1008,-0.5,82,13,10000,7.408,,,150,,,,,,,,,,,wg-a,,,,AAXX 04124 07661 12460 71504 10160 20130 39921 40080 58005 60006 82638 91200=
07661,1998-04-04 18:00:00,13,1008.9,0.7,88,11,20000,11.112,,,270,13.4,17.2,,,,,,,,,wg-a,,,,AAXX 04184 07661 12470 82706 10130 20110 39928 40089 50007 60006 83618 91800 333 10172 20134=
07661,1998-04-05 00:00:00,12,1010.3,0.1,88,10,0,7.408,,,310,,,,,,,,,,,wg-a,,,,AAXX 05004 07661 12/// /3104 10120 20100 39941 40103 50001 60006 90000=
07661,1998-04-05 06:00:00,11,1010.3,0.9,87,9,15000,3.704,,,360,9.2,13.4,,,,,,,,,wg-a,,,,AAXX 05064 07661 02465 83602 10110 20090 39940 40103 53009 60006 8672/ 90600 333 10134 20092 60004=
07661,1998-04-05 12:00:00,15,1010.8,0.2,82,12,10000,14.816,,,90,,,,,,,,,,,wg-a,,,,AAXX 05124 07661 12460 80908 10150 20120 39947 40108 50002 60006 8662/ 91200=
07661,1998-04-05 18:00:00,14,1010.5,-0,82,11,15000,22.224,,,220,10.2,16.4,,,,,,,,,wg-a,,,,AAXX 05184 07661 12465 52212 10140 20110 39944 40105 54000 60006 8/800 91800 333 10164 20102=
07661,1998-04-06 00:00:00,10,1012,0,82,7,0,35.188,,,300,,,,,,,,,,,wg-a,,,,AAXX 06004 07661 02/// /3019 10100 20070 39956 40120 50000 60006 90000 333 61000=
07661,1998-04-06 06:00:00,10,1014.5,1.9,71,5,25000,35.188,,68.524,300,9.5,13.5,,,,,,,,,wg-a,,,,AAXX 06064 07661 12675 13019 10100 20050 39981 40145 53019 60004 81100 90600 333 10135 20095 91037=
07661,1998-04-06 12:00:00,14,1016,0.1,55,5,0,35.188,,,270,,,,,,,,,,,wg-a,,,,AAXX 06124 07661 12/// /2719 10140 20050 39998 40160 50001 60006 91200=
07661,1998-04-06 18:00:00,13,1014.6,-0.2,82,10,26000,11.112,,,220,9.9,16.3,,,,,,,,,wg-a,,,,AAXX 06184 07661 12576 72206 10130 20100 39983 40146 58002 60006 8127/ 91800 333 10163 20099=
07661,1998-04-07 00:00:00,13,1012,-2.2,82,10,20000,25.928,,,190,,,,,,,,,,,wg-a,,,,AAXX 07004 07661 12570 61914 10130 20100 39958 40120 56022 60006 8117/ 90000=
07661,1998-04-07 06:00:00,13,1009,-0.9,94,12,12000,22.224,,,160,12.4,13.2,,,,,,,,,wg-a,,,,AAXX 07064 07661 02462 81612 10130 20120 39929 40090 56009 60006 887// 90600 333 10132 20124 60004=
07661,1998-04-07 12:00:00,14,1006.3,-1.5,88,12,8000,25.928,,50.004,250,,,,,,,,,,21,wg-a,,,,AAXX 07124 07661 02458 72514 10140 20120 39903 40063 58015 60016 72166 877// 91200 333 61000 91027=
07661,1998-04-07 18:00:00,13,1008.1,1.2,72,8,45000,25.928,,,280,12.8,15,,,,,,,,,wg-a,,,,AAXX 07184 07661 32483 62814 10130 20080 39920 40081 53012 83849 91800 333 10150 20128=
07661,1998-04-08 00:00:00,12,1009.9,-0.2,62,5,15000,38.892,,,300,,,,,,,,,,,wg-a,,,,AAXX 08004 07661 12865 63021 10120 20050 39937 40099 58002 60006 83078 90000=
07661,1998-04-08 06:00:00,11,1009,-0.5,62,4,500,22.224,,,290,10.6,12.8,,,,,1,,,,wg-a,,,,AAXX 08064 07661 02/00 82912 10110 20040 39927 40090 55005 60006 80009 90600 333 10128 20106 60014=
07661,1998-04-08 18:00:00,12,1005.8,-0.3,76,8,25000,31.484,,50.004,280,10.7,15.8,,,,,,,,,wg-a,,,,AAXX 08184 07661 12675 62817 10120 20080 39897 40058 55003 60006 81206 91800 333 10158 20107 91027=
07661,1998-04-09 00:00:00,11,1005.7,-0.9,71,6,15000,31.484,,57.412,300,,,,,,,,,,,wg-a,,,,AAXX 09004 07661 12/65 53017 10110 20060 39895 40057 58009 60006 80008 90000 333 91031=
07661,1998-04-09 06:00:00,10,1004.4,-0.4,76,6,25000,22.224,,,300,9.5,12.3,,,,,,,,,wg-a,,,,AAXX 09064 07661 02675 23012 10100 20060 39881 40044 55004 60006 81240 90600 333 10123 20095 60004=
07661,1998-04-09 12:00:00,16,1004.2,-0.4,59,8,40000,22.224,,,210,,,,,,,,,,,wg-a,,,,AAXX 09124 07661 12582 52112 10160 20080 39883 40042 58004 60006 84210 91200=
07661,1998-04-09 18:00:00,13,1001.6,-1.1,88,11,25000,29.632,,,180,10,16.4,,,,,,,,,wg-a,,,,AAXX 09184 07661 12475 61816 10130 20110 39856 40016 56011 60006 83360 91800 333 10164 20100=
07661,1998-04-10 00:00:00,13,999.6,-1.7,88,11,20000,29.632,,57.412,180,,,,,,,,,,,wg-a,,,,AAXX 10004 07661 12470 61816 10130 20110 39836 49996 58017 60006 83360 90000 333 91031=
07661,1998-04-10 06:00:00,12,996.4,-1.2,82,9,20000,31.484,,,200,9.7,13.2,,,,,2,,,62,wg-a,,,,AAXX 10064 07661 02470 72017 10120 20090 39804 49964 56012 60024 76296 8677/ 90600 333 10132 20097 61000=
07661,1998-04-10 12:00:00,13,997.1,0.4,62,6,40000,22.224,,,220,,,,1,,,,,,21,wg-a,,,,AAXX 10124 07661 02482 62212 10130 20060 39811 49971 53004 60016 72196 85942 91200 333 60017=
07661,1998-04-10 18:00:00,11,999.4,1.6,71,6,40000,14.816,,,280,9.4,15.3,,,,,,,,,wg-a,,,,AAXX 10184 07661 32482 62808 10110 20060 39833 49994 53016 86360 91800 333 10153 20094=
07661,1998-04-11 00:00:00,9,1001.8,0.5,81,6,35000,22.224,,,70,,,,,,,,,,,wg-a,,,,AAXX 11004 07661 12481 20712 10090 20060 39855 40018 51005 60006 82900 90000=
07661,1998-04-11 06:00:00,8,1000.5,-0.1,87,6,20000,14.816,,,80,7.7,10.9,,,,,4,,,17,wg-a,,,,AAXX 11064 07661 12470 60808 10080 20060 39842 40005 55001 60044 71796 85960 90600 333 10109 20077=
07661,1998-04-11 12:00:00,9,1002.2,0.7,76,5,40000,35.188,,72.228,290,,,,,,,,,,,wg-a,,,,AAXX 11124 07661 02582 52919 10090 20050 39859 40022 51007 60046 85800 91200 333 61000 91039=
07661,1998-04-11 18:00:00,7,1003.6,0.7,66,1,35000,46.3,,68.524,320,6.2,11,,,,,,,,62,wg-a,,,,AAXX 11184 07661 02481 73225 10070 20010 39872 40036 50007 61000 76262 8772/ 91800 333 10110 20062 //// 91037=
07661,1998-04-12 00:00:00,6,1005.3,-0.2,81,3,15000,35.188,,,310,,,,2,,,,,,1,wg-a,,,,AAXX 12004 07661 02465 43119 10060 20030 39888 40053 55002 60066 70196 83362 90000 333 60027=
07661,1998-04-12 06:00:00,6,1005.5,0.6,81,3,500,31.484,,64.82,290,4.3,7.6,,0,,,20,,,1,wg-a,,,,AAXX 12064 07661 02600 32917 10060 20030 39890 40055 53006 60204 70186 82240 90600 333 10076 20043 60007 91035=
07661,1998-04-12 12:00:00,11,1007.2,0.5,62,4,25000,46.3,,83.34,290,,,,,,,,,,,wg-a,,,,AAXX 12124 07661 12675 42925 10110 20040 39909 40072 51005 60006 84800 91200 333 91045=
07661,1998-04-12 18:00:00,10,1007.5,0.6,62,3,35000,57.412,,90.748,300,5.8,11.8,,,,,,,,,wg-a,,,,AAXX 12184 07661 12681 13031 10100 20030 39912 40075 53006 60006 81100 91800 333 10118 20058 91049=
07661,1998-04-13 00:00:00,7,1009.4,-0.2,57,-1,0,53.708,,,300,,,,,,,,,,,wg-a,,,,AAXX 13004 07661 12/// /3029 10070 21010 39929 40094 58002 60006 90000=
07661,1998-04-13 06:00:00,5,1008.6,-0.7,75,1,45000,42.596,,,300,4.7,10.1,,,,,1,,,1,wg-a,,,,AAXX 13064 07661 02683 13023 10050 20010 39920 40086 56007 60014 70186 81100 90600 333 10101 20047 61000=
07661,1998-04-13 12:00:00,10,1008.6,-1.3,46,-1,500,38.892,,61.116,290,,,,,,,,,,,wg-a,,,,AAXX 13124 07661 12600 42921 10100 21010 39922 40086 57013 60006 81110 91200 333 91033=
07661,1998-04-13 18:00:00,9,1007.4,0.2,49,-1,35000,38.892,,75.932,290,4.9,10.7,,,,,,,,21,wg-a,,,,AAXX 13184 07661 02481 62921 10090 21010 39910 40074 53002 61000 72161 84763 91800 333 10107 20049 //// 91041=
07661,1998-04-14 00:00:00,6,1009.5,0.8,52,-3,25000,46.3,,83.34,300,,,,,,,,,,2,wg-a,,,,AAXX 14004 07661 12575 13025 10060 21030 39929 40095 50008 60006 70261 81100 90000 333 91045=
07661,1998-04-14 06:00:00,5,1010.2,1.2,60,-2,35000,42.596,,,300,4.3,8.7,,,,,,,,,wg-a,,,,AAXX 14064 07661 12/81 03023 10050 21020 39935 40102 53012 60004 80000 90600 333 10087 20043=
07661,1998-04-14 12:00:00,12,1011.2,0.2,40,-1,40000,29.632,,,240,,,,,,,,,,,wg-a,,,,AAXX 14124 07661 12582 42416 10120 21010 39949 40112 53002 60006 81532 91200=
07661,1998-04-14 18:00:00,10,1010.4,-1.4,66,4,35000,11.112,,,130,5,12.7,,,,,,,,,wg-a,,,,AAXX 14184 07661 12881 81306 10100 20040 39940 40104 58014 60006 86097 91800 333 10127 20050=
07661,1998-04-15 00:00:00,9,1010.3,-0.6,87,7,20000,18.52,,,80,,,,,,,,,,,wg-a,,,,AAXX 15004 07661 02570 70810 10090 20070 39939 40103 58006 61000 876// 90000 333 6100=
07661,1998-04-15 06:00:00,12,1008.5,0.5,76,8,20000,25.928,,61.116,110,8.5,12.1,,,,,,,,,wg-a,,,,AAXX 15064 07661 02470 81114 10120 20080 39923 40085 53005 61000 8672/ 90600 333 10121 20085 //// 91033=
07661,1998-04-15 12:00:00,11,1005.5,-1.5,82,8,15000,46.3,,75.932,90,,,,,,,,,,60,wg-a,,,,AAXX 15124 07661 02565 80925 10110 20080 39893 40055 58015 61000 76062 887// 91200 333 6100 91041=
07661,1998-04-15 18:00:00,10,1002.4,-0.4,93,9,8000,29.632,,79.636,100,9.4,11.6,,12,,,,,,63,wg-a,,,,AAXX 15184 07661 12458 81016 10100 20090 39862 40024 55004 60127 76366 887// 91800 333 10116 20094 91043=
07661,1998-04-16 00:00:00,8,1004.2,0.8,87,6,15000,29.632,,,300,,,,,,,,,,3,wg-a,,,,AAXX 16004 07661 12565 33016 10080 20060 39879 40042 53008 60006 70361 82580 90000=
07661,1998-04-16 06:00:00,7,1003.4,-0,70,2,40000,29.632,,,300,6.4,10.2,,,,,15,,,,wg-a,,,,AAXX 16064 07661 12582 23016 10070 20020 39870 40034 55000 60154 82101 90600 333 10102 20064=
07661,1998-04-16 12:00:00,10,1003.6,-0.7,53,1,40000,31.484,,64.82,270,,,,,,,,,,,wg-a,,,,AAXX 16124 07661 12/82 72717 10100 20010 39874 40036 58007 60006 8707/ 91200 333 91035=
07661,1998-04-16 18:00:00,11,999.6,-2.5,82,8,500,14.816,,,170,6.6,13.3,,,,,,,,,wg-a,,,,AAXX 16184 07661 12500 81708 10110 20080 39835 49996 58025 60006 8272/ 91800 333 10133 20066=
07661,1998-04-17 00:00:00,12,994.8,-2.4,88,10,25000,22.224,,,230,,,,0,,,,,,,wg-a,,,,AAXX 17004 07661 02575 22312 10120 20100 39788 49948 58024 60006 82500 90000 333 60007=
07661,1998-04-17 06:00:00,12,995.3,1.1,71,7,25000,53.708,,90.748,290,10.1,12.3,,,,,,,,,wg-a,,,,AAXX 17064 07661 12675 42929 10120 20070 39793 49953 53011 60004 84500 90600 333 10123 20101 91049=
07661,1998-04-17 18:00:00,11,998.6,0.6,66,5,35000,38.892,,96.304,280,11.2,14.4,,,,,,,,,wg-a,,,,AAXX 17184 07661 12681 82821 10110 20050 39825 49986 50006 60006 83720 91800 333 10144 20112 91052=
07661,1998-04-18 00:00:00,8,1000.5,0.2,71,3,500,53.708,,90.748,300,,,,,,,,,,,wg-a,,,,AAXX 18004 07661 12600 73029 10080 20030 39842 40005 51002 60006 81720 90000 333 91049=
07661,1998-04-18 12:00:00,13,1003.4,0.8,41,0,40000,61.116,,100.008,310,,,,,,,,,,,wg-a,,,,AAXX 18124 07661 12482 63133 10130 20000 39873 40034 53008 60006 84261 91200 333 91054=
07661,1998-04-18 18:00:00,12,1004.7,1.6,35,-3,40000,75.932,,107.416,310,8.1,14.3,,,,,,,,,wg-a,,,,AAXX 18184 07661 12482 23141 10120 21030 39885 40047 53016 60006 82200 91800 333 10143 20081 91058=
07661,1998-04-19 00:00:00,10,1008.6,-0.1,43,-2,20000,57.412,,107.416,300,,,,,,,,,,,wg-a,,,,AAXX 19004 07661 12/70 03031 10100 21020 39922 40086 55001 60006 80000 90000 333 91058=
07661,1998-04-19 06:00:00,8,1010.8,1.2,61,1,35000,42.596,,75.932,300,8.1,12.2,,,,,,,,,wg-a,,,,AAXX 19064 07661 02481 13023 10080 20010 39943 40108 53012 60006 81100 90600 333 10122 20081 60004 91041=
07661,1998-04-19 12:00:00,14,1011.1,-0.1,47,3,40000,42.596,,,280,,,,,,,,,,,wg-a,,,,AAXX 19124 07661 12482 22823 10140 20030 39949 40111 58001 60006 81101 91200=
07661,1998-04-19 18:00:00,12,1012.6,0.9,62,5,40000,38.892,,,290,8.4,14.1,,,,,,,,,wg-a,,,,AAXX 19184 07661 12/82 02921 10120 20050 39963 40126 53009 60006 80000 91800 333 10141 20084=
07661,1998-04-20 00:00:00,10,1015.1,0.7,76,6,10000,18.52,,57.412,290,,,,,,,,,,,wg-a,,,,AAXX 20004 07661 12/60 02910 10100 20060 39987 40151 51007 60006 80000 90000 333 91031=
07661,1998-04-20 06:00:00,10,1017.1,1.7,66,4,500,14.816,,,100,7.9,12.1,,,,,,,,,wg-a,,,,AAXX 20064 07661 02/00 01008 10100 20040 30007 40171 53017 60006 80000 90600 333 10121 20079 60004=
07661,1998-04-20 12:00:00,15,1019.4,0.5,67,9,500,14.816,,,150,,,,,,,,,,,wg-a,,,,AAXX 20124 07661 12/00 /1508 10150 20090 30032 40194 51005 60006 91200=
07661,1998-04-20 18:00:00,14,1020,0.3,77,10,45000,14.816,,,220,10.3,16.3,,,,,,,,,wg-a,,,,AAXX 20184 07661 12/83 02208 10140 20100 30037 40200 53003 60006 80000 91800 333 10163 20103=
07661,1998-04-21 00:00:00,12,1021.6,0.5,58,4,25000,7.408,,,260,,,,,,,,,,,wg-a,,,,AAXX 21004 07661 12/75 02604 10120 20040 30052 40216 51005 60006 80000 90000=
07661,1998-04-21 06:00:00,12,1020.7,0.4,71,7,15000,3.704,,,270,9.5,13.8,,,,,,,,,wg-a,,,,AAXX 21064 07661 02/65 02702 10120 20070 30043 40207 53004 60006 80000 90600 333 10138 20095 60004=
07661,1998-04-21 18:00:00,14,1018.7,-0.8,82,11,15000,11.112,,,250,12.3,17,,,,,,,,,wg-a,,,,AAXX 21184 07661 12/65 02506 10140 20110 30025 40187 56008 60006 80000 91800 333 10170 20123=
07661,1998-04-22 00:00:00,11,1018.3,-0.7,100,11,20000,25.928,,,80,,,,,,,,,,,wg-a,,,,AAXX 22004 07661 12/70 00814 10110 20110 30019 40183 58007 60006 80000 90000=
07661,1998-04-22 06:00:00,13,1016.2,-1.1,82,10,15000,31.484,,,70,10.2,14,,0,,,,,,,wg-a,,,,AAXX 22064 07661 02865 10717 10130 20100 39999 40162 56011 60004 81020 90600 333 10140 20102 60007=
07661,1998-04-22 12:00:00,16,1014.5,-1.6,72,11,20000,25.928,,,110,,,,,,,,,,,wg-a,,,,AAXX 22124 07661 12470 61114 10160 20110 39984 40145 58016 60006 81207 91200=
07661,1998-04-22 18:00:00,16,1012.4,-0,48,5,25000,29.632,,,70,12.5,16.6,,,,,,,,,wg-a,,,,AAXX 22184 07661 12875 80716 10160 20050 39964 40124 55000 60006 88020 91800 333 10166 20125=
07661,1998-04-23 00:00:00,14,1013.5,0.2,51,4,15000,22.224,,,80,,,,,,,,,,,wg-a,,,,AAXX 23004 07661 12865 80812 10140 20040 39973 40135 53002 60006 8802/ 90000=
07661,1998-04-23 06:00:00,15,1013.6,0.5,51,5,25000,25.928,,,70,13.5,16.1,,,,,,,,,wg-a,,,,AAXX 23064 07661 02875 80714 10150 20050 39975 40136 53005 60006 8802/ 90600 333 10161 20135 60004=
07661,1998-04-23 12:00:00,20,1015.2,0.3,43,7,20000,11.112,,,220,,,,,,,,,,,wg-a,,,,AAXX 23124 07661 12870 82206 10200 20070 39993 40152 52003 60006 8807/ 91200=
07661,1998-04-23 18:00:00,18,1016.1,0.6,45,6,500,18.52,,,290,14.6,20.9,,,,,,,,,wg-a,,,,AAXX 23184 07661 12800 62910 10180 20060 30001 40161 53006 60006 81135 91800 333 10209 20146=
07661,1998-04-24 00:00:00,14,1017.1,-0.4,67,8,15000,7.408,,,70,,,,,,,,,,,wg-a,,,,AAXX 24004 07661 12/65 00704 10140 20080 30009 40171 56004 60006 80000 90000=
07661,1998-04-24 06:00:00,14,1017.7,0.7,67,8,28000,14.816,,,310,12.9,17.9,,,,,,,,,wg-a,,,,AAXX 24064 07661 02/78 13108 10140 20080 30015 40177 53007 60006 80001 90600 333 10179 20129 60004=
07661,1998-04-24 18:00:00,21,1016.2,0.4,38,6,500,38.892,,72.228,300,14.2,21.6,,,,,,,,,wg-a,,,,AAXX 24184 07661 12/00 23021 10210 20060 30004 40162 53004 60006 80002 91800 333 10216 20142 91039=
07661,1998-04-25 00:00:00,15,1018.1,0.2,77,11,25000,7.408,,,130,,,,,,,,,,,wg-a,,,,AAXX 25004 07661 12/75 01304 10150 20110 30019 40181 51002 60006 80000 90000=
07661,1998-04-25 06:00:00,15,1018.5,0.8,67,9,25000,7.408,,,30,13.2,20.9,,,,,,,,,wg-a,,,,AAXX 25064 07661 02/75 30304 10150 20090 30023 40185 53008 60006 80001 90600 333 10209 20132 60004=
07661,1998-04-25 12:00:00,18,1019.6,0,73,13,25000,11.112,,,210,,,,,,,,,,,wg-a,,,,AAXX 25124 07661 12575 32106 10180 20130 30036 40196 50000 60006 81101 91200=
07661,1998-04-25 18:00:00,16,1018.6,-0.5,77,12,12000,7.408,,,100,14.9,19.4,,,,,,,,,wg-a,,,,AAXX 25184 07661 12/62 31004 10160 20120 30025 40186 57005 60006 80001 91800 333 10194 20149=
07661,1998-04-26 00:00:00,13,1017.8,-1.1,94,12,15000,7.408,,,100,,,,,,,,,,,wg-a,,,,AAXX 26004 07661 12/65 01004 10130 20120 30015 40178 58011 60006 80000 90000=
07661,1998-04-26 06:00:00,12,1015.8,-0.6,94,11,6000,25.928,,,70,11.2,16.1,,,,,,,,1,wg-a,,,,AAXX 26064 07661 02256 40714 10120 20110 39995 40158 56006 60006 70141 84600 90600 333 10161 20112 60004=
07661,1998-04-26 12:00:00,15,1013.4,-1.4,82,12,9000,18.52,,,90,,,,,,,,,,,wg-a,,,,AAXX 26124 07661 12459 80910 10150 20120 39973 40134 58014 60006 8271/ 91200=
07661,1998-04-26 18:00:00,14,1008.3,-2.6,88,12,10000,29.632,,,90,11.9,16.1,,,,,,,,,wg-a,,,,AAXX 26184 07661 12560 80916 10140 20120 39922 40083 56026 60006 8457/ 91800 333 10161 20119=
07661,1998-04-27 00:00:00,14,1004,-2.6,82,11,10000,35.188,,61.116,70,,,,,,,,,,,wg-a,,,,AAXX 27004 07661 12560 70719 10140 20110 39880 40040 58026 60006 8557/ 90000 333 91033=
07661,1998-04-27 06:00:00,10,1001.6,0.5,93,9,25000,29.632,,64.82,310,9.9,15.3,,7,,,7,,,61,wg-a,,,,AAXX 27064 07661 02575 73116 10100 20090 39854 40016 53005 60074 76162 877// 90600 333 10153 20099 60077 91035=
07661,1998-04-27 12:00:00,14,1003.8,0.9,55,5,35000,61.116,,94.452,300,,,,,,,,,,,wg-a,,,,AAXX 27124 07661 02581 33033 10140 20050 39878 40038 50009 61000 81202 91200 333 //// 91051=
07661,1998-04-27 18:00:00,14,1005.3,0.9,67,8,35000,46.3,,90.748,290,9.9,16.4,,,,,,,,,wg-a,,,,AAXX 27184 07661 32581 22925 10140 20080 39892 40053 51009 82200 91800 333 10164 20099 91049=
07661,1998-04-28 00:00:00,11,1006.3,-0.6,66,5,15000,46.3,,72.228,300,,,,,,,,,,,wg-a,,,,AAXX 28004 07661 12/65 03025 10110 20050 39901 40063 58006 60006 80000 90000 333 91039=
07661,1998-04-28 06:00:00,10,1006,-0,66,4,500,42.596,,,300,9.3,13.5,,,,,,,,,wg-a,,,,AAXX 28064 07661 02/00 03023 10100 20040 39897 40060 54000 60006 80000 90600 333 10135 20093 61000=
07661,1998-04-28 12:00:00,15,1005.2,-0.5,55,6,40000,53.708,,83.34,290,,,,,,,,,,,wg-a,,,,AAXX 28124 07661 12582 22929 10150 20060 39892 40052 56005 60006 82100 91200 333 91045=
07661,1998-04-28 18:00:00,14,1006.2,0.8,63,7,25000,46.3,,94.452,280,9.8,15.6,,,,,,,,,wg-a,,,,AAXX 28184 07661 12/75 02825 10140 20070 39901 40062 51008 60006 80000 91800 333 10156 20098 91051=
07661,1998-04-29 00:00:00,12,1007.7,-0.2,82,9,20000,14.816,,75.932,300,,,,,,,,,,,wg-a,,,,AAXX 29004 07661 12/70 03008 10120 20090 39915 40077 58002 60006 80000 90000 333 91041=
07661,1998-04-29 06:00:00,10,1006.3,-0.4,82,7,25000,14.816,,,90,9.3,14,,,,,,,,,wg-a,,,,AAXX 29064 07661 02475 50908 10100 20070 39900 40063 58004 60006 82770 90600 333 10140 20093 60004=
07661,1998-04-29 12:00:00,14,1005.6,-0.6,88,12,10000,25.928,,,80,,,,,,,,,,60,wg-a,,,,AAXX 29124 07661 02460 80814 10140 20120 39896 40056 58006 61000 76022 887// 91200 333 6100=
07661,1998-04-30 06:00:00,10,1001.4,-0.4,100,10,6000,31.484,,64.82,60,10.2,12.2,,3,,,71,,,62,wg-a,,,,AAXX 30064 07661 02556 80617 10100 20100 39852 40014 55004 60714 76296 887// 90600 333 10122 20102 60037 91035=
07661,1998-04-30 12:00:00,16,1005.7,2.2,72,11,25000,11.112,,,200,,,,,,,,,,2,wg-a,,,,AAXX 30124 07661 12475 82006 10160 20110 39898 40057 51022 60076 70262 88700 91200=
07661,1998-04-30 18:00:00,13,1008.7,1.8,88,11,25000,14.816,,,100,10.4,16.4,,,,,,,,,wg-a,,,,AAXX 30184 07661 32575 41008 10130 20110 39925 40087 53018 84200 91800 333 10164 20104=
07661,1998-05-01 00:00:00,11,1010.9,0.1,94,10,15000,18.52,,,60,,,,,,,,,,,wg-a,,,,AAXX 01004 07661 12465 60610 10110 20100 39946 40109 51001 60006 86700 90000=
07661,1998-05-01 06:00:00,12,1011.1,0.9,76,8,25000,14.816,,,70,10,12.6,,,,,7,,,,wg-a,,,,AAXX 01064 07661 02475 60708 10120 20080 39949 40111 53009 60006 83360 90600 333 10126 20100 60074=
07661,1998-05-01 12:00:00,14,1012.1,-0,77,10,35000,14.816,,,110,,,,,,,,,,,wg-a,,,,AAXX 01124 07661 12481 61108 10140 20100 39960 40121 55000 60006 85340 91200=
07661,1998-05-01 18:00:00,13,1011.8,0.1,77,9,40000,11.112,,,180,11.7,16.4,,,,,,,,,wg-a,,,,AAXX 01184 07661 32582 61806 10130 20090 39956 40118 53001 84340 91800 333 10164 20117=
07661,1998-05-02 00:00:00,,1012.6,-0.1,,,20000,3.704,,,40,,,,,,,,,,,wg-a,,,,AAXX 02004 07661 12/70 40402 1//// 2//// 39963 40126 58001 60006 84040 90000=
07661,1998-05-02 06:00:00,12,1012.7,0.7,76,8,500,7.408,,,90,9.4,13,,,,,,,,,wg-a,,,,AAXX 02064 07661 02500 10904 10120 20080 39964 40127 53007 60006 81201 90600 333 10130 20094 60004=
07661,1998-05-02 12:00:00,17,1012.6,-0.5,63,10,25000,22.224,,,210,,,,,,,,,,,wg-a,,,,AAXX 02124 07661 12575 52112 10170 20100 39966 40126 55005 60006 84230 91200=
07661,1998-05-02 18:00:00,14,1010.8,-0.7,72,9,45000,18.52,,,290,12,17.6,,,,,,,,,wg-a,,,,AAXX 02184 07661 12883 52910 10140 20090 39947 40108 57007 60006 85074 91800 333 10176 20120=
07661,1998-05-03 06:00:00,12,1005.8,-1.6,82,9,500,11.112,,,60,9.8,13.6,,,,,,,,,wg-a,,,,AAXX 03064 07661 02/00 30606 10120 20090 39896 40058 55016 60006 80001 90600 333 10136 20098 60004=
07661,1998-05-03 12:00:00,19,1002.6,-2.1,46,7,25000,3.704,,,210,,,,,,,,,,,wg-a,,,,AAXX 03124 07661 12475 42102 10190 20070 39869 40026 58021 60006 81101 91200=
07661,1998-05-03 18:00:00,13,1002.1,1,94,12,15000,18.52,,,250,11.5,20.3,,3,,,,,,60,wg-a,,,,AAXX 03184 07661 12465 72510 10130 20120 39861 40021 53010 60037 76062 87700 91800 333 10203 20115=
07661,1998-05-04 00:00:00,13,998.7,-2.2,88,11,15000,25.928,,,290,,,,,,,,,,60,wg-a,,,,AAXX 04004 07661 02465 72914 10130 20110 39827 49987 58022 60016 76062 87700 90000 333 61000=
07661,1998-05-04 06:00:00,13,997.9,0.2,82,10,15000,22.224,,,300,12.3,13.7,,,,,5,,,2,wg-a,,,,AAXX 04064 07661 12465 73012 10130 20100 39819 49979 53002 60054 70262 87700 90600 333 10137 20123=
07661,1998-05-04 12:00:00,17,998.1,0.2,68,11,15000,18.52,,,290,,,,,,,,,,,wg-a,,,,AAXX 04124 07661 12865 72910 10170 20110 39824 49981 51002 60006 8707/ 91200=
07661,1998-05-04 18:00:00,16,999.8,1.2,72,11,15000,18.52,,,290,13.1,17.1,,,,,,,,,wg-a,,,,AAXX 04184 07661 12865 82910 10160 20110 39840 49998 53012 60006 8807/ 91800 333 10171 20131=
07661,1998-05-05 00:00:00,15,1003,1,67,9,15000,7.408,,,200,,,,,,,,,,,wg-a,,,,AAXX 05004 07661 12865 82004 10150 20090 39871 40030 51010 60006 8807/ 90000=
07661,1998-05-05 06:00:00,14,1004.2,1.2,72,9,15000,3.704,,,310,13.6,15.9,,,,,,,,,wg-a,,,,AAXX 05064 07661 02865 73102 10140 20090 39882 40042 53012 60006 8707/ 90600 333 10159 20136 60004=
07661,1998-05-05 12:00:00,19,1005.6,0.4,52,9,15000,25.928,,,290,,,,,,,,,,,wg-a,,,,AAXX 05124 07661 12465 62914 10190 20090 39898 40056 52004 60006 82108 91200=
07661,1998-05-05 18:00:00,20,1005.2,0.1,46,8,20000,22.224,,,290,14.2,21.5,,,,,,,,,wg-a,,,,AAXX 05184 07661 12/70 52912 10200 20080 39895 40052 53001 60006 80006 91800 333 10215 20142=
07661,1998-05-06 00:00:00,14,1007.8,0.9,63,7,15000,18.52,,,290,,,,,,,,,,,wg-a,,,,AAXX 06004 07661 12/65 02910 10140 20070 39917 40078 51009 60006 80000 90000=
07661,1998-05-06 06:00:00,13,1010.5,1.9,67,7,20000,7.408,,,300,12,19.5,,,,,,,,,wg-a,,,,AAXX 06064 07661 02/70 03004 10130 20070 39943 40105 53019 60006 80000 90600 333 10195 20120 60004=
07661,1998-05-06 12:00:00,21,1012.2,0.8,43,8,15000,7.408,,,240,,,,,,,,,,,wg-a,,,,AAXX 06124 07661 12465 62404 10210 20080 39964 40122 51008 60006 81106 91200=
07661,1998-05-06 18:00:00,16,1013.4,0.8,77,12,15000,18.52,,,110,12.7,20.8,,,,,,,,,wg-a,,,,AAXX 06184 07661 12/65 11110 10160 20120 39973 40134 53008 60006 80001 91800 333 10208 20127=
07661,1998-05-07 00:00:00,13,1016.8,1,88,11,12000,11.112,,,80,,,,,,,,,,,wg-a,,,,AAXX 07004 07661 12/62 00806 10130 20110 30005 40168 51010 60006 80000 90000=
07661,1998-05-07 06:00:00,14,1019.2,1.9,88,12,12000,18.52,,,70,11.4,15.4,,,,,,,,,wg-a,,,,AAXX 07064 07661 02/62 00710 10140 20120 30030 40192 53019 60006 80000 90600 333 10154 20114 60004=
07661,1998-05-07 12:00:00,17,1021.8,1.2,77,13,11000,22.224,,,100,,,,,,,,,,,wg-a,,,,AAXX 07124 07661 12561 21012 10170 20130 30057 40218 51012 60006 82200 91200=
07661,1998-05-07 18:00:00,15,1023,0.7,88,13,11000,18.52,,,90,14,18,,,,,,,,,wg-a,,,,AAXX 07184 07661 12561 50910 10150 20130 30067 40230 53007 60006 85600 91800 333 10180 20140=
07661,1998-05-08 00:00:00,13,1025.8,0.7,94,12,10000,18.52,,,70,,,,,,,,,,,wg-a,,,,AAXX 08004 07661 12460 70710 10130 20120 30094 40258 51007 60006 876// 90000=
07661,1998-05-08 06:00:00,13,1027.3,1.6,94,12,10000,7.408,,,80,12,14.8,,,,,,,,,wg-a,,,,AAXX 08064 07661 02460 80804 10130 20120 30109 40273 53016 60006 886// 90600 333 10148 20120 60004=
07661,1998-05-08 12:00:00,18,1027.7,-0.4,77,14,10000,14.816,,,140,,,,,,,,,,,wg-a,,,,AAXX 08124 07661 12460 21408 10180 20140 30116 40277 58004 60006 82600 91200=
07661,1998-05-08 18:00:00,18,1027.3,-0,73,13,10000,7.408,,,190,12.6,18.9,,,,,,,,,wg-a,,,,AAXX 08184 07661 12/60 31904 10180 20130 30111 40273 55000 60006 80002 91800 333 10189 20126=
07661,1998-05-09 00:00:00,15,1027.7,-0.6,72,10,10000,7.408,,,280,,,,,,,,,,,wg-a,,,,AAXX 09004 07661 12/60 22804 10150 20100 30114 40277 57006 60006 80001 90000=
07661,1998-05-09 06:00:00,18,1026.6,0.4,45,6,20000,7.408,,,10,13.8,18.2,,,,,,,,,wg-a,,,,AAXX 09064 07661 02/70 40104 10180 20060 30105 40266 53004 60006 80002 90600 333 10182 20138 60004=
07661,1998-05-09 12:00:00,21,1025.8,-0.9,49,10,20000,14.816,,,220,,,,,,,,,,,wg-a,,,,AAXX 09124 07661 12570 52208 10210 20100 30099 40258 58009 60006 81132 91200=
07661,1998-05-10 06:00:00,19,1021.2,-0.1,46,7,25000,3.704,,,230,16.2,19.8,,,,,,,,,wg-a,,,,AAXX 10064 07661 02/75 02302 10190 20070 30052 40212 57001 60006 80000 90600 333 10198 20162 60004=
07661,1998-05-10 12:00:00,26,1020.2,-0.6,30,7,25000,3.704,,,130,,,,,,,,,,,wg-a,,,,AAXX 10124 07661 12/75 01302 10260 20070 30045 40202 58006 60006 80000 91200=
07661,1998-05-11 12:00:00,22,1017.5,0.2,57,13,25000,18.52,,50.004,100,,,,,,,,,,,wg-a,,,,AAXX 11124 07661 12/75 21010 10220 20130 30017 40175 51002 60006 80001 91200 333 91027=
07661,1998-05-11 18:00:00,20,1016.9,-0.1,60,12,25000,11.112,,,160,19.3,22.8,,,,,,,,,wg-a,,,,AAXX 11184 07661 12/75 31606 10200 20120 30010 40169 55001 60006 80008 91800 333 10228 20193=
07661,1998-05-12 00:00:00,18,1017.9,-0.2,52,8,15000,18.52,,,80,,,,,,,,,,,wg-a,,,,AAXX 12004 07661 12/65 10810 10180 20080 30019 40179 58002 60006 80008 90000=
07661,1998-05-12 06:00:00,20,1018.1,0.9,46,8,15000,14.816,,,90,16.1,19.7,,,,,,,,,wg-a,,,,AAXX 12064 07661 02/65 50908 10200 20080 30022 40181 53009 60006 80008 90600 333 10197 20161 60004=
07661,1998-05-12 12:00:00,24,1018.9,0.1,38,9,15000,7.408,,,170,,,,,,,,,,,wg-a,,,,AAXX 12124 07661 12/65 21704 10240 20090 30032 40189 51001 60006 80008 91200=
07661,1998-05-12 18:00:00,21,1018.4,0.6,60,13,12000,7.408,,,300,19.5,25.5,,,,,,,,,wg-a,,,,AAXX 12184 07661 12/62 63004 10210 20130 30026 40184 52006 60006 80008 91800 333 10255 20195=
07661,1998-05-13 00:00:00,21,1019.3,-0.1,40,7,15000,3.704,,,210,,,,,,,,,,,wg-a,,,,AAXX 13004 07661 12/65 52102 10210 20070 30034 40193 57001 60006 80008 90000=
07661,1998-05-13 06:00:00,20,1019.2,0.7,46,8,12000,11.112,,,330,19,21.7,,,,,,,,,wg-a,,,,AAXX 13064 07661 02862 73306 10200 20080 30033 40192 53007 60006 8707/ 90600 333 10217 20190 60004=
07661,1998-05-13 12:00:00,25,1019.4,-0.6,36,9,10000,7.408,,,150,,,,,,,,,,,wg-a,,,,AAXX 13124 07661 12/60 31504 10250 20090 30037 40194 56006 60006 80002 91200=
07661,1998-05-13 18:00:00,21,1018,-0.8,43,8,15000,18.52,,,290,19.8,26,,,,,,,,,wg-a,,,,AAXX 13184 07661 12/65 62910 10210 20080 30022 40180 56008 60006 84042 91800 333 10260 20198=
07661,1998-05-14 00:00:00,18,1017.1,-0.9,77,14,15000,3.704,,,300,,,,,,,,,,,wg-a,,,,AAXX 14004 07661 12/65 03002 10180 20140 30011 40171 58009 60006 80000 90000=
07661,1998-05-14 06:00:00,19,1015.5,-0.4,56,10,17000,14.816,,,80,16.8,21.4,,,,,,,,,wg-a,,,,AAXX 14064 07661 02/67 10808 10190 20100 39996 40155 56004 60006 80005 90600 333 10214 20168 60004=
07661,1998-05-14 12:00:00,24,1014.9,-0.7,50,13,15000,14.816,,,140,,,,,,,,,,,wg-a,,,,AAXX 14124 07661 12/65 21408 10240 20130 39993 40149 58007 60006 80001 91200=
07661,1998-05-14 18:00:00,23,1012.5,-0.7,44,10,15000,22.224,,,100,18.1,25,,,,,,,,,wg-a,,,,AAXX 14184 07661 12/65 31012 10230 20100 39969 40125 56007 60006 80002 91800 333 10250 20181=
07661,1998-05-15 00:00:00,20,1012.8,-0.3,53,10,20000,42.596,,,60,,,,,,,,,,,wg-a,,,,AAXX 15004 07661 12/70 20623 10200 20100 39970 40128 58003 60006 80002 90000=
07661,1998-05-15 06:00:00,19,1013.6,0.5,68,13,15000,22.224,,,80,18.2,24,,,,,,,,,wg-a,,,,AAXX 15064 07661 02/65 70812 10190 20130 39977 40136 53005 60006 87030 90600 333 10240 20182 60004=
07661,1998-05-15 12:00:00,21,1013.8,-0.2,64,14,25000,14.816,,,100,,,,,,,,,,,wg-a,,,,AAXX 15124 07661 12575 71008 10210 20140 39980 40138 58002 60006 81230 91200=
07661,1998-05-15 18:00:00,20,1011.6,-1.3,68,14,25000,18.52,,,290,18.3,22.9,,,,,,,,,wg-a,,,,AAXX 15184 07661 12575 52910 10200 20140 39958 40116 56013 60006 81298 91800 333 10229 20183=
07661,1998-05-16 06:00:00,18,1010.2,0.5,77,14,15000,18.52,,,60,15.6,19.5,,,,,,,,,wg-a,,,,AAXX 16064 07661 02/65 00610 10180 20140 39943 40102 53005 60006 80000 90600 333 10195 20156 60004=
07661,1998-05-16 12:00:00,20,1011.4,0.6,78,16,15000,29.632,,50.004,110,,,,,,,,,,,wg-a,,,,AAXX 16124 07661 12465 11116 10200 20160 39957 40114 51006 60006 81100 91200 333 91027=
07661,1998-05-16 18:00:00,18,1013,0.8,77,14,18000,18.52,,57.412,90,17.5,21.5,,,,,,,,,wg-a,,,,AAXX 16184 07661 12568 30910 10180 20140 39971 40130 51008 60006 82260 91800 333 10215 20175 91031=
07661,1998-05-17 00:00:00,16,1013.4,-0.8,77,12,15000,3.704,,,350,,,,,,,,,,,wg-a,,,,AAXX 17004 07661 12/65 03502 10160 20120 39974 40134 58008 60006 80000 90000=
07661,1998-05-17 06:00:00,16,1013.4,0.3,72,11,15000,0,,,0,14.5,17.5,,,,,,,,,wg-a,,,,AAXX 17064 07661 02865 50000 10160 20110 39974 40134 53003 60006 85030 90600 333 10175 20145 60004=
07661,1998-05-17 12:00:00,23,1013.7,0.1,53,13,15000,7.408,,,210,,,,,,,,,,,wg-a,,,,AAXX 17124 07661 12/65 02104 10230 20130 39980 40137 50001 60006 80000 91200=
07661,1998-05-17 18:00:00,19,1013.5,0.5,68,13,15000,14.816,,,200,16.5,22.8,,,,,,,,,wg-a,,,,AAXX 17184 07661 12/65 12008 10190 20130 39977 40135 51005 60006 81070 91800 333 10228 20165=
07661,1998-05-18 00:00:00,15,1018.6,1.7,77,11,15000,25.928,,68.524,60,,,,,,,,,,,wg-a,,,,AAXX 18004 07661 12/65 00614 10150 20110 30024 40186 51017 60006 80000 90000 333 91037=
07661,1998-05-18 06:00:00,17,1020.2,1.6,68,11,20000,7.408,,,70,13.9,19.5,,,,,,,,,wg-a,,,,AAXX 18064 07661 02/70 00704 10170 20110 30041 40202 53016 60006 80000 90600 333 10195 20139 60004=
07661,1998-05-18 12:00:00,21,1020.2,-0.3,56,12,500,25.928,,,230,,,,,,,,,,,wg-a,,,,AAXX 18124 07661 12500 12314 10210 20120 30043 40202 58003 60006 81200 91200=
07661,1998-05-18 18:00:00,18,1019.6,0.1,68,12,20000,22.224,,,290,16.7,20.8,,,,,,,,,wg-a,,,,AAXX 18184 07661 12570 22912 10180 20120 30036 40196 53001 60006 82200 91800 333 10208 20167=
07661,1998-05-19 00:00:00,15,1021.2,-0.3,82,12,25000,22.224,,,300,,,,,,,,,,,wg-a,,,,AAXX 19004 07661 12/75 03012 10150 20120 30050 40212 58003 60006 80000 90000=
07661,1998-05-19 06:00:00,16,1021.1,-0,72,11,15000,11.112,,,80,13.6,18,,,,,,,,,wg-a,,,,AAXX 19064 07661 02/65 00806 10160 20110 30049 40211 55000 60006 80000 90600 333 10180 20136 60004=
07661,1998-05-19 12:00:00,21,1020.5,-0.4,53,11,25000,18.52,,,240,,,,,,,,,,,wg-a,,,,AAXX 19124 07661 12475 22410 10210 20110 30046 40205 58004 60006 82200 91200=
07661,1998-05-19 18:00:00,18,1018.9,-0.6,73,13,25000,25.928,,,280,16.3,22.2,,,,,,,,,wg-a,,,,AAXX 19184 07661 12/75 02814 10180 20130 30029 40189 55006 60006 80000 91800 333 10222 20163=
07661,1998-05-20 00:00:00,15,1019.5,-0.3,77,11,15000,25.928,,,300,,,,,,,,,,,wg-a,,,,AAXX 20004 07661 12/65 03014 10150 20110 30033 40195 58003 60006 80000 90000=
07661,1998-05-20 06:00:00,17,1018.7,-0.2,63,10,15000,7.408,,,270,14.2,17.8,,,,,,,,,wg-a,,,,AAXX 20064 07661 02/65 42704 10170 20100 30026 40187 56002 60006 80004 90600 333 10178 20142 60004=
07661,1998-05-20 12:00:00,21,1018.4,-0.5,40,7,25000,25.928,,,290,,,,,,,,,,,wg-a,,,,AAXX 20124 07661 12/75 52914 10210 20070 30025 40184 58005 60006 80001 91200=
07661,1998-05-20 18:00:00,17,1017.2,-0.5,77,13,500,22.224,,,270,16.6,22.6,,,,,,,,,wg-a,,,,AAXX 20184 07661 12/00 22712 10170 20130 30012 40172 55005 60006 80004 91800 333 10226 20166=
07661,1998-05-21 00:00:00,16,1017.1,-1,72,11,15000,29.632,,,290,,,,,,,,,,,wg-a,,,,AAXX 21004 07661 12/65 02916 10160 20110 30010 40171 56010 60006 80000 90000=
07661,1998-05-21 06:00:00,16,1017.3,1,82,13,15000,11.112,,,300,14.6,17.6,,,,,,,,,wg-a,,,,AAXX 21064 07661 02565 13006 10160 20130 30012 40173 53010 60006 81400 90600 333 10176 20146 60004=
07661,1998-05-21 12:00:00,21,1016.4,-0.9,69,15,13000,14.816,,,230,,,,,,,,,,,wg-a,,,,AAXX 21124 07661 12563 62308 10210 20150 30006 40164 58009 60006 81106 91200=
07661,1998-05-21 18:00:00,19,1015.7,-0.4,78,15,15000,18.52,,,280,15.7,22.5,,,,,,,,,wg-a,,,,AAXX 21184 07661 12565 42810 10190 20150 39998 40157 55004 60006 83960 91800 333 10225 20157=
07661,1998-05-22 00:00:00,17,1014.8,-1.2,88,15,10000,14.816,,50.004,290,,,,,,,,,,,wg-a,,,,AAXX 22004 07661 12/60 02908 10170 20150 39988 40148 56012 60006 80000 90000 333 91027=
07661,1998-05-22 06:00:00,18,1013.3,0.1,73,13,14000,7.408,,,350,15.2,19.3,,,,,,,,,wg-a,,,,AAXX 22064 07661 02/64 13504 10180 20130 39974 40133 53001 60006 80001 90600 333 10193 20152 60004=
07661,1998-05-22 12:00:00,21,1012.4,-0.9,73,16,14000,18.52,,,130,,,,,,,,,,,wg-a,,,,AAXX 22124 07661 12564 11310 10210 20160 39967 40124 58009 60006 81200 91200=
07661,1998-05-22 18:00:00,19,1011.5,0.3,78,15,18000,18.52,,,120,17.9,25.2,,,,,,,,,wg-a,,,,AAXX 22184 07661 12/68 01210 10190 20150 39957 40115 52003 60006 80000 91800 333 10252 20179=
07661,1998-05-23 00:00:00,17,1012.9,0,88,15,10000,3.704,,,180,,,,,,,,,,,wg-a,,,,AAXX 23004 07661 12/60 01802 10170 20150 39969 40129 50000 60006 80000 90000=
07661,1998-05-23 06:00:00,16,1013.2,1.2,88,14,10000,14.816,,,310,14,19.1,,,,,,,,,wg-a,,,,AAXX 23064 07661 02/60 03108 10160 20140 39972 40132 51012 60006 80000 90600 333 10191 20140 60004=
07661,1998-05-23 12:00:00,21,1013.6,0.7,60,13,15000,14.816,,,220,,,,,,,,,,,wg-a,,,,AAXX 23124 07661 12/65 02208 10210 20130 39978 40136 53007 60006 80000 91200=
07661,1998-05-24 06:00:00,16,1009.9,-0,63,9,25000,14.816,,,70,14.1,20.1,,,,,,,,,wg-a,,,,AAXX 24064 07661 02/75 20708 10160 20090 39939 40099 55000 60006 80005 90600 333 10201 20141 60004=
07661,1998-05-24 12:00:00,21,1008.3,-0.8,49,10,18000,25.928,,,290,,,,,,,,,,,wg-a,,,,AAXX 24124 07661 12/68 02914 10210 20100 39926 40083 58008 60006 80000 91200=
07661,1998-05-24 18:00:00,20,1006.7,-0.4,64,13,20000,25.928,,53.708,310,15.7,23.4,,,,,,,,,wg-a,,,,AAXX 24184 07661 12/70 33114 10200 20130 39910 40067 55004 60006 80004 91800 333 10234 20157 91029=
07661,1998-05-25 00:00:00,16,1008,-0.2,88,14,7000,11.112,,,70,,,,,,,,,,,wg-a,,,,AAXX 25004 07661 32/57 00706 10160 20140 39921 40080 58002 80000 90000=
07661,1998-05-25 06:00:00,18,1007.4,0.1,77,14,10000,7.408,,,60,14.7,19.5,,,,,,,,,wg-a,,,,AAXX 25064 07661 02660 40604 10180 20140 39916 40074 51001 60006 83401 90600 333 10195 20147 60004=
07661,1998-05-25 12:00:00,19,1008.6,0.6,78,15,8000,7.408,,,220,,,,0,,,,,,63,wg-a,,,,AAXX 25124 07661 02458 72204 10190 20150 39928 40086 51006 60016 76362 8672/ 91200 333 60007=
07661,1998-05-25 18:00:00,19,1006.6,-0.8,64,12,12000,35.188,,,290,17.7,22.6,,,,,,,,1,wg-a,,,,AAXX 25184 07661 32/62 22919 10190 20120 39908 40066 56008 70161 82020 91800 333 10226 20177=
07661,1998-05-26 12:00:00,21,1009.4,0.4,53,11,14000,42.596,,64.82,290,,,,,,,,,,,wg-a,,,,AAXX 26124 07661 12564 32923 10210 20110 39937 40094 53004 60006 83200 91200 333 91035=
07661,1998-05-26 18:00:00,18,1010.4,0.5,77,14,14000,31.484,,68.524,290,16.4,22.3,,,,,,,,,wg-a,,,,AAXX 26184 07661 12564 12917 10180 20140 39946 40104 53005 60006 81200 91800 333 10223 20164 91037=
07661,1998-05-27 00:00:00,17,1011.7,-0.1,82,14,14000,18.52,,,290,,,,,,,,,,,wg-a,,,,AAXX 27004 07661 12564 62910 10170 20140 39958 40117 58001 60006 86500 90000=
07661,1998-05-27 06:00:00,17,1011.8,0.6,88,15,14000,3.704,,,130,15,18.4,,,,,,,,,wg-a,,,,AAXX 27064 07661 02564 61302 10170 20150 39958 40118 53006 60006 86500 90600 333 10184 20150 60004=
07661,1998-05-27 12:00:00,19,1011.5,-0.3,88,17,10000,18.52,,,150,,,,,,,,,,,wg-a,,,,AAXX 27124 07661 12360 71510 10190 20170 39957 40115 58003 60036 879// 91200=
07661,1998-05-27 18:00:00,18,1010.8,0.2,94,17,12000,18.52,,,150,16.1,19.7,,,,,,,,,wg-a,,,,AAXX 27184 07661 32462 71510 10180 20170 39949 40108 53002 877// 91800 333 10197 20161=
07661,1998-05-28 00:00:00,17,1010.4,-0.8,100,17,10000,25.928,,,80,,,,,,,,,,,wg-a,,,,AAXX 28004 07661 12460 20814 10170 20170 39945 40104 58008 60006 811// 90000=
07661,1998-05-28 06:00:00,16,1008.3,-1.1,94,15,10000,31.484,,,70,15.6,17.8,,2,,,5,,,62,wg-a,,,,AAXX 28064 07661 02460 80717 10160 20150 39923 40083 56011 60054 76261 88700 90600 333 10178 20156 60027=
07661,1998-05-28 12:00:00,17,1007.9,-0.1,100,17,10000,14.816,,57.412,150,,,,3,,,,,,21,wg-a,,,,AAXX 28124 07661 02460 81508 10170 20170 39920 40079 58001 60116 72162 88700 91200 333 60037 91031=
07661,1998-05-28 18:00:00,18,1008.2,0.5,88,16,18000,7.408,,,200,15.4,18.4,,,,,,,,1,wg-a,,,,AAXX 28184 07661 32468 62004 10180 20160 39924 40082 51005 70162 85269 91800 333 10184 20154=
07661,1998-05-29 00:00:00,15,1010.9,0.5,100,15,10000,3.704,,,60,,,,,,,,,,,wg-a,,,,AAXX 29004 07661 12460 30602 10150 20150 39949 40109 53005 60006 83200 90000=
07661,1998-05-29 06:00:00,15,1011.6,0.9,100,15,13000,3.704,,,310,13.8,17.6,,0,,,16,,,,wg-a,,,,AAXX 29064 07661 02563 13102 10150 20150 39955 40116 53009 60164 81200 90600 333 10176 20138 60007=
07661,1998-05-29 12:00:00,19,1012.7,0.4,73,14,20000,31.484,,,240,,,,,,,,,,,wg-a,,,,AAXX 29124 07661 12470 22417 10190 20140 39969 40127 52004 60006 82200 91200=
07661,1998-05-29 18:00:00,19,1013.5,0.8,60,11,500,18.52,,,280,14.8,21.3,,,,,,,,,wg-a,,,,AAXX 29184 07661 12/00 12810 10190 20110 39976 40135 53008 60006 80001 91800 333 10213 20148=
07661,1998-05-30 00:00:00,14,1015.3,0,94,13,0,7.408,,,80,,,,,,,,,,,wg-a,,,,AAXX 30004 07661 12/// /0804 10140 20130 39991 40153 50000 60006 90000=
07661,1998-05-30 06:00:00,14,1014.5,0.4,94,13,25000,22.224,,,60,12.3,18.4,,,,,,,,,wg-a,,,,AAXX 30064 07661 02475 60612 10140 20130 39984 40145 51004 60006 85720 90600 333 10184 20123 60004=
07661,1998-05-30 12:00:00,20,1015.1,0.2,88,18,15000,18.52,,,140,,,,,,,,,,,wg-a,,,,AAXX 30124 07661 02465 41410 10200 20180 39993 40151 51002 61000 84231 91200 333 ////=
07661,1998-05-30 18:00:00,18,1015,0.1,94,17,15000,14.816,,,100,14.3,20.6,,,,,,,,,wg-a,,,,AAXX 30184 07661 32465 41008 10180 20170 39991 40150 53001 84230 91800 333 10206 20143=
07661,1998-05-31 00:00:00,16,1014.8,-0.9,94,15,14000,25.928,,,70,,,,,,,,,,,wg-a,,,,AAXX 31004 07661 12464 40714 10160 20150 39988 40148 57009 60006 84630 90000=
07661,1998-05-31 06:00:00,18,1014,0.3,94,17,14000,35.188,,,80,16,18.1,,,,,,,,21,wg-a,,,,AAXX 31064 07661 02464 80819 10180 20170 39981 40140 53003 61000 72161 847// 90600 333 10181 20160 6100=
07661,1998-05-31 12:00:00,21,1014.7,0,83,18,12000,14.816,,,150,,,,,,,,,,2,wg-a,,,,AAXX 31124 07661 12462 51508 10210 20180 39989 40147 50000 60016 70262 84330 91200=
07661,1998-05-31 18:00:00,20,1015.3,0.3,88,18,12000,11.112,,,200,17.1,21.4,,,,,,,,,wg-a,,,,AAXX 31184 07661 32462 52006 10200 20180 39995 40153 53003 84360 91800 333 10214 20171=
07661,1998-06-01 00:00:00,16,1016.4,-0.3,100,16,10000,11.112,,,80,,,,,,,,,,,wg-a,,,,AAXX 01004 07661 12460 50806 10160 20160 30003 40164 58003 60006 8/300 90000=
07661,1998-06-01 06:00:00,17,1016.6,0.4,94,16,14000,14.816,,,70,15,19.6,,,,,2,,,,wg-a,,,,AAXX 01064 07661 12464 60708 10170 20160 30006 40166 53004 60024 82268 90600 333 10196 20150=
07661,1998-06-01 12:00:00,21,1017.5,0.2,78,17,25000,14.816,,,160,,,,,,,,,,,wg-a,,,,AAXX 01124 07661 12475 61608 10210 20170 30017 40175 50002 60006 82259 91200=
07661,1998-06-01 18:00:00,19,1017.2,-0,94,18,16000,11.112,,,120,16.5,21.3,,,,,,,,,wg-a,,,,AAXX 01184 07661 12466 71206 10190 20180 30013 40172 54000 60006 83250 91800 333 10213 20165=
07661,1998-06-02 00:00:00,17,1016.7,-0.5,94,16,8000,22.224,,,80,,,,,,,,,,,wg-a,,,,AAXX 02004 07661 12858 70812 10170 20160 30007 40167 55005 60006 8701/ 90000=
07661,1998-06-02 06:00:00,16,1016.5,-0.2,94,15,20000,25.928,,,70,15.4,18.9,,,,,,,,,wg-a,,,,AAXX 02064 07661 02470 80714 10160 20150 30005 40165 57002 60006 8115/ 90600 333 10189 20154 60004=
07661,1998-06-02 12:00:00,21,1016.7,0.2,64,14,25000,25.928,,50.004,100,,,,,,,,,,,wg-a,,,,AAXX 02124 07661 12475 71014 10210 20140 30009 40167 53002 60006 8117/ 91200 333 91027=
07661,1998-06-02 18:00:00,20,1013.3,-1,68,14,15000,38.892,,61.116,70,16.4,21.6,,,,,,,,1,wg-a,,,,AAXX 02184 07661 32865 70721 10200 20140 39975 40133 56010 70162 87070 91800 333 10216 20164 91033=
07661,1998-06-03 00:00:00,19,1015.5,1.7,68,13,15000,7.408,,61.116,50,,,,,,,,,,,wg-a,,,,AAXX 03004 07661 12/65 80504 10190 20130 39996 40155 50017 60006 80008 90000 333 91033=
07661,1998-06-03 06:00:00,20,1014.6,-0,68,14,15000,29.632,,,70,17,21.8,,,,,,,,,wg-a,,,,AAXX 03064 07661 02/65 50716 10200 20140 39987 40146 55000 60006 80008 90600 333 10218 20170 61000=
07661,1998-06-03 12:00:00,23,1015.6,0.3,69,17,0,29.632,,,130,,,,,,,,,,,wg-a,,,,AAXX 03124 07661 12/// /1316 10230 20170 39999 40156 51003 60006 91200=
07661,1998-06-03 18:00:00,21,1015.5,0.5,83,18,12000,22.224,,90.748,110,19.3,25.9,,,,,,,,,wg-a,,,,AAXX 03184 07661 12/62 51112 10210 20180 39997 40155 51005 60006 80008 91800 333 10259 20193 91049=
07661,1998-06-04 00:00:00,21,1016,1.2,69,15,10000,25.928,,,70,,,,,,,,,,,wg-a,,,,AAXX 04004 07661 12/60 00714 10210 20150 30002 40160 51012 60006 80000 90000=
07661,1998-06-04 06:00:00,21,1015.1,-1.6,69,15,15000,35.188,,,70,19,22.1,,,,,,,,,wg-a,,,,AAXX 04064 07661 02865 40719 10210 20150 39993 40151 55016 60006 82073 90600 333 10221 20190 60004=
07661,1998-06-04 12:00:00,24,1014.8,-0.1,65,17,15000,38.892,,,90,,,,,,,,,,,wg-a,,,,AAXX 04124 07661 12/65 30921 10240 20170 39992 40148 58001 60006 83030 91200=
07661,1998-06-04 18:00:00,24,1013.9,-0.5,57,15,20000,46.3,,68.524,80,20.9,27.2,,,,,,,,,wg-a,,,,AAXX 04184 07661 12870 50825 10240 20150 39983 40139 55005 60006 85090 91800 333 10272 20209 91037=
07661,1998-06-05 00:00:00,22,1015.4,-0.3,73,17,10000,31.484,,68.524,70,,,,,,,,,,,wg-a,,,,AAXX 05004 07661 12/60 10717 10220 20170 39997 40154 58003 60006 80001 90000 333 91037=
07661,1998-06-05 06:00:00,23,1014.6,0.3,65,16,15000,38.892,,,70,21.4,24.1,,,,,,,,,wg-a,,,,AAXX 05064 07661 02/65 50721 10230 20160 39990 40146 53003 60006 80008 90600 333 10241 20214 60004=
07661,1998-06-05 12:00:00,27,1014.3,-0.1,48,15,0,50.004,,,80,,,,,,,,,,,wg-a,,,,AAXX 05124 07661 12/// /0827 10270 20150 39989 40143 58001 60006 91200=
07661,1998-06-05 18:00:00,26,1012.8,-0.9,39,11,15000,50.004,,72.228,80,23.4,27.4,,,,,,,,,wg-a,,,,AAXX 05184 07661 12/65 50827 10260 20110 39973 40128 58009 60006 80008 91800 333 10274 20234 91039=
07661,1998-06-06 00:00:00,22,1014.2,0.5,69,16,15000,35.188,,79.636,90,,,,,,,,,,,wg-a,,,,AAXX 06004 07661 12/65 50919 10220 20160 39985 40142 50005 60006 80008 90000 333 91043=
07661,1998-06-06 06:00:00,22,1014.5,0.1,65,15,12000,29.632,,64.82,80,20.1,26.4,,,,,,,,,wg-a,,,,AAXX 06064 07661 02862 80816 10220 20150 39988 40145 50001 60006 8807/ 90600 333 10264 20201 60004 91035=
07661,1998-06-06 12:00:00,20,1016.7,2.9,100,20,6000,11.112,,75.932,60,,,,1,,,,,,60,wg-a,,,,AAXX 06124 07661 02656 80606 10200 20200 30009 40167 50029 60016 76062 888// 91200 333 60017 91041=
07661,1998-06-06 18:00:00,20,1014.5,-0.1,88,18,10000,18.52,,,130,19.8,23.7,,,,,,,,60,wg-a,,,,AAXX 06184 07661 02460 71310 10200 20180 39987 40145 58001 61000 76062 878// 91800 333 10237 20198 ////=
07661,1998-06-07 00:00:00,19,1015,-0.9,100,19,1200,14.816,,,240,,,,1,,,,,,21,wg-a,,,,AAXX 07004 07661 02412 82408 10190 20190 39992 40150 58009 60016 72164 887// 90000 333 60017=
07661,1998-06-07 06:00:00,18,1015.3,0.8,100,18,2000,7.408,,,90,18,20.4,,0,,,2,,,60,wg-a,,,,AAXX 07064 07661 02320 80904 10180 20180 39994 40153 51008 60024 76064 887// 90600 333 10204 20180 60007=
07661,1998-06-07 12:00:00,22,1015.6,-0.1,83,19,12000,14.816,,,230,,,,1,,,,,,2,wg-a,,,,AAXX 07124 07661 02362 52308 10220 20190 39999 40156 58001 60016 70264 82361 91200 333 60017=
07661,1998-06-07 18:00:00,22,1014.9,-0,73,17,20000,38.892,,,290,18,24.9,,0,,,,,,,wg-a,,,,AAXX 07184 07661 12470 42921 10220 20170 39992 40149 54000 60007 82241 91800 333 10249 20180=
07661,1998-06-08 00:00:00,19,1016.5,-0.3,60,11,25000,31.484,,,300,,,,,,,,,,,wg-a,,,,AAXX 08004 07661 12/75 03017 10190 20110 30006 40165 58003 60006 80000 90000=
07661,1998-06-08 06:00:00,17,1016.5,0.7,77,13,25000,29.632,,,290,16.6,21.7,,,,,1,,,,wg-a,,,,AAXX 08064 07661 02875 42916 10170 20130 30005 40165 50007 60006 84070 90600 333 10217 20166 60014=
07661,1998-06-08 12:00:00,23,1016.3,-0.3,50,12,500,46.3,,,290,,,,,,,,,,,wg-a,,,,AAXX 08124 07661 12500 32925 10230 20120 30006 40163 58003 60006 81102 91200=
07661,1998-06-08 18:00:00,20,1016.3,0.1,68,14,500,38.892,,79.636,280,17.2,24,,,,,,,,,wg-a,,,,AAXX 08184 07661 32500 32821 10200 20140 30005 40163 50001 81102 91800 333 10240 20172 91043=
07661,1998-06-09 06:00:00,19,1016.8,0.5,64,12,500,14.816,,,80,16.6,20.5,,,,,,,,,wg-a,,,,AAXX 09064 07661 02/00 50808 10190 20120 30008 40168 53005 60006 80002 90600 333 10205 20166 60004=
07661,1998-06-09 12:00:00,24,1016.4,-0.5,61,16,500,14.816,,,210,,,,,,,,,,,wg-a,,,,AAXX 09124 07661 12400 52108 10240 20160 30008 40164 58005 60006 81104 91200=
07661,1998-06-09 18:00:00,22,1014.7,-0.8,60,14,25000,18.52,,,290,18.5,24.6,,,,,,,,,wg-a,,,,AAXX 09184 07661 12/75 22910 10220 20140 39990 40147 56008 60006 80004 91800 333 10246 20185=
07661,1998-06-10 00:00:00,18,1013.6,-1.1,88,16,10000,7.408,,,300,,,,,,,,,,,wg-a,,,,AAXX 10004 07661 12/60 03004 10180 20160 39977 40136 58011 60006 80000 90000=
07661,1998-06-10 06:00:00,19,1012.3,-0.4,94,18,6000,7.408,,,150,16.4,21.6,,,,,,,,,wg-a,,,,AAXX 10064 07661 02256 61504 10190 20180 39965 40123 57004 60006 84631 90600 333 10216 20164 60004=
07661,1998-06-10 12:00:00,21,1010.6,-1.2,83,18,8000,14.816,,,140,,,,,,,,,,,wg-a,,,,AAXX 10124 07661 12458 61408 10210 20180 39949 40106 58012 60006 83431 91200=
07661,1998-06-10 18:00:00,19,1008.4,-0.9,100,19,12000,18.52,,,230,19,23,,,,,,,,60,wg-a,,,,AAXX 10184 07661 02862 72310 10190 20190 39927 40084 58009 61000 76062 8707/ 91800 333 10230 20190 ////=
07661,1998-06-11 00:00:00,19,1008.1,-1.2,73,14,12000,42.596,,,300,,,,,,,,,,,wg-a,,,,AAXX 11004 07661 02862 73023 10190 20140 39923 40081 55012 61000 8707/ 90000 333 ////=
07661,1998-06-11 06:00:00,17,1007.9,0.2,59,9,25000,46.3,,68.524,300,16.2,21,,,,,,,,,wg-a,,,,AAXX 11064 07661 12575 13025 10170 20090 39920 40079 53002 60004 81200 90600 333 10210 20162 91037=
07661,1998-06-11 12:00:00,19,1007.1,-0,56,10,25000,64.82,,100.008,290,,,,,,,,,,,wg-a,,,,AAXX 11124 07661 12475 32935 10190 20100 39913 40071 55000 60006 83200 91200 333 91054=
07661,1998-06-11 18:00:00,20,1005.7,1,40,6,20000,68.524,,133.344,300,16.6,20,,0,,,,,,,wg-a,,,,AAXX 11184 07661 12470 43037 10200 20060 39900 40057 53010 60007 82240 91800 333 10200 20166 91072=
07661,1998-06-12 00:00:00,14,1008.8,1.3,51,4,25000,68.524,,103.712,300,,,,,,,,,,,wg-a,,,,AAXX 12004 07661 12475 13037 10140 20040 39927 40088 51013 60006 81200 90000 333 91056=
07661,1998-06-12 06:00:00,13,1007.9,-0.6,54,4,35000,72.228,,125.936,310,12.4,19.5,,0,,,1,,,,wg-a,,,,AAXX 12064 07661 02581 23139 10130 20040 39918 40079 55006 60014 81140 90600 333 10195 20124 60007 91068=
07661,1998-06-12 12:00:00,18,1008.9,1.8,49,7,35000,79.636,,137.048,320,,,,,,,,,,,wg-a,,,,AAXX 12124 07661 12581 33243 10180 20070 39930 40089 51018 60016 81102 91200 333 91074=
07661,1998-06-12 18:00:00,17,1012.8,1.3,42,4,35000,46.3,,114.824,300,13.2,19.7,,0,,,,,,,wg-a,,,,AAXX 12184 07661 12581 33025 10170 20040 39968 40128 53013 60007 81102 91800 333 10197 20132 91062=
07661,1998-06-13 00:00:00,14,1012.3,-0.7,47,3,20000,75.932,,100.008,320,,,,,,,,,,,wg-a,,,,AAXX 13004 07661 12/70 03241 10140 20030 39962 40123 58007 60006 80000 90000 333 91054=
07661,1998-06-13 06:00:00,14,1014.7,1.2,51,4,500,38.892,,96.304,300,13.6,17.4,,,,,1,,,,wg-a,,,,AAXX 13064 07661 02/00 03021 10140 20040 39985 40147 51012 60006 80000 90600 333 10174 20136 60014 91052=
07661,1998-06-13 12:00:00,21,1014.5,-0.3,38,6,45000,38.892,,,290,,,,,,,,,,,wg-a,,,,AAXX 13124 07661 12/83 02921 10210 20060 39987 40145 58003 60006 80000 91200=
07661,1998-06-13 18:00:00,18,1014.6,0.3,59,10,500,53.708,,87.044,290,14.4,21.2,,,,,,,,,wg-a,,,,AAXX 13184 07661 12800 42929 10180 20100 39986 40146 53003 60006 84040 91800 333 10212 20144 91047=
07661,1998-06-14 00:00:00,16,1015.4,0.5,72,11,500,11.112,,83.34,260,,,,,,,,,,,wg-a,,,,AAXX 14004 07661 12/00 02606 10160 20110 39993 40154 52005 60006 80000 90000 333 91045=
07661,1998-06-14 06:00:00,16,1015.6,0.8,82,13,500,31.484,,,290,15.3,17.7,,,,,,,,,wg-a,,,,AAXX 14064 07661 02800 42917 10160 20130 39995 40156 53008 60006 84040 90600 333 10177 20153 60004=
07661,1998-06-14 12:00:00,20,1014.5,-0.3,53,10,35000,38.892,,64.82,290,,,,,,,,,,,wg-a,,,,AAXX 14124 07661 12481 32921 10200 20100 39987 40145 58003 60006 81149 91200 333 91035=
07661,1998-06-14 18:00:00,17,1015.5,0.3,77,13,15000,42.596,,75.932,290,16.1,20.9,,,,,,,,,wg-a,,,,AAXX 14184 07661 12865 62923 10170 20130 39995 40155 53003 60006 83049 91800 333 10209 20161 91041=
07661,1998-06-15 00:00:00,17,1015.2,-0.5,72,12,15000,31.484,,64.82,290,,,,,,,,,,,wg-a,,,,AAXX 15004 07661 12865 52917 10170 20120 39992 40152 58005 60006 83049 90000 333 91035=
07661,1998-06-15 06:00:00,16,1015.7,0.3,77,12,40000,18.52,,,290,15.5,17.4,,,,,,,,,wg-a,,,,AAXX 15064 07661 02882 72910 10160 20120 39996 40157 50003 60006 8707/ 90600 333 10174 20155 60004=
07661,1998-06-15 12:00:00,20,1015.9,-0,49,9,35000,31.484,,53.708,280,,,,,,,,,,,wg-a,,,,AAXX 15124 07661 12581 32817 10200 20090 30000 40159 55000 60006 81172 91200 333 91029=
07661,1998-06-15 18:00:00,17,1015.7,0.1,72,12,35000,35.188,,68.524,290,15.8,20.7,,,,,,,,,wg-a,,,,AAXX 15184 07661 12/81 52919 10170 20120 39997 40157 53001 60006 85070 91800 333 10207 20158 91037=
07661,1998-06-16 00:00:00,17,1016.8,0.4,59,9,500,35.188,,79.636,300,,,,,,,,,,,wg-a,,,,AAXX 16004 07661 12/00 03019 10170 20090 30007 40168 50004 60006 80000 90000 333 91043=
07661,1998-06-16 06:00:00,16,1018.2,1.4,68,10,40000,35.188,,,290,15.8,17.6,,,,,,,,,wg-a,,,,AAXX 16064 07661 02/82 02919 10160 20100 30021 40182 53014 60006 80000 90600 333 10176 20158 60004=
07661,1998-06-16 12:00:00,20,1018,-0.4,53,10,35000,57.412,,87.044,290,,,,,,,,,,,wg-a,,,,AAXX 16124 07661 12481 32931 10200 20100 30021 40180 58004 60006 81108 91200 333 91047=
07661,1998-06-16 18:00:00,22,1018.4,0.6,29,3,500,42.596,,90.748,310,16,22.5,,,,,,,,,wg-a,,,,AAXX 16184 07661 12500 13123 10220 20030 30026 40184 51006 60006 81200 91800 333 10225 20160 91049=
07661,1998-06-17 00:00:00,17,1020.6,0.6,34,1,15000,18.52,,72.228,280,,,,,,,,,,,wg-a,,,,AAXX 17004 07661 12/65 02810 10170 20010 30045 40206 50006 60006 80000 90000 333 91039=
07661,1998-06-17 06:00:00,17,1022.6,2.1,42,4,25000,7.408,,,310,14.7,22.2,,,,,,,,,wg-a,,,,AAXX 17064 07661 02575 53104 10170 20040 30064 40226 53021 60006 81206 90600 333 10222 20147 60004=
07661,1998-06-17 12:00:00,23,1023.1,0.3,44,10,40000,18.52,,,220,,,,,,,,,,,wg-a,,,,AAXX 17124 07661 12/82 62210 10230 20100 30073 40231 51003 60006 80002 91200=
07661,1998-06-17 18:00:00,21,1021.8,-0.7,46,9,35000,31.484,,,280,16.6,25.8,,,,,,,,,wg-a,,,,AAXX 17184 07661 12/81 42817 10210 20090 30059 40218 57007 60006 80002 91800 333 10258 20166=
07661,1998-06-18 00:00:00,17,1022.8,-0.3,68,11,20000,18.52,,,280,,,,,,,,,,,wg-a,,,,AAXX 18004 07661 12/70 02810 10170 20110 30066 40228 58003 60006 80000 90000=
07661,1998-06-18 06:00:00,18,1023.1,0.6,52,8,20000,7.408,,,350,15.2,21,,,,,,,,,wg-a,,,,AAXX 18064 07661 02570 53504 10180 20080 30070 40231 53006 60006 81106 90600 333 10210 20152 60004=
07661,1998-06-18 12:00:00,22,1024.6,0.6,57,13,25000,14.816,,,220,,,,,,,,,,,wg-a,,,,AAXX 18124 07661 12575 42208 10220 20130 30087 40246 50006 60006 81106 91200=
07661,1998-06-18 18:00:00,19,1023.2,-0.9,68,13,500,14.816,,,250,17.6,23.8,,,,,,,,,wg-a,,,,AAXX 18184 07661 12/00 22508 10190 20130 30072 40232 56009 60006 80001 91800 333 10238 20176=
07661,1998-06-19 00:00:00,16,1023.3,-0.5,82,13,20000,11.112,,,340,,,,,,,,,,,wg-a,,,,AAXX 19004 07661 12/70 03406 10160 20130 30071 40233 58005 60006 80000 90000=
07661,1998-06-19 06:00:00,18,1023,0.9,77,14,20000,18.52,,,70,14.3,20.7,,,,,,,,,wg-a,,,,AAXX 19064 07661 02/70 30710 10180 20140 30069 40230 53009 60006 80001 90600 333 10207 20143 60004=
07661,1998-06-19 12:00:00,21,1023.5,0.2,69,15,25000,18.52,,,140,,,,,,,,,,,wg-a,,,,AAXX 19124 07661 12/75 11410 10210 20150 30076 40235 50002 60006 80001 91200=
07661,1998-06-19 18:00:00,20,1022.5,-0.3,83,17,10000,3.704,,,180,18.3,22.4,,,,,,,,,wg-a,,,,AAXX 19184 07661 12/60 11802 10200 20170 30066 40225 56003 60006 80001 91800 333 10224 20183=
07661,1998-06-20 00:00:00,17,1023.6,0.2,100,17,1000,11.112,,,90,,,,,,,,,,10,wg-a,,,,AAXX 20004 07661 12210 40906 10170 20170 30075 40236 51002 60006 71011 84600 90000=
07661,1998-06-20 06:00:00,18,1024.8,1.2,83,15,8000,11.112,,,90,15.4,19.9,,,,,,,,,wg-a,,,,AAXX 20064 07661 02258 40906 10180 20150 30087 40248 53012 60006 84600 90600 333 10199 20154 60004=
07661,1998-06-20 18:00:00,20,1025.4,-0.1,83,17,6000,11.112,,,210,18,24.1,,,,,,,,,wg-a,,,,AAXX 20184 07661 12/56 22106 10200 20170 30094 40254 55001 60006 80001 91800 333 10241 20180=
07661,1998-06-21 00:00:00,17,1025.8,0.1,94,16,10000,14.816,,,290,,,,,,,,,,,wg-a,,,,AAXX 21004 07661 12/60 02908 10170 20160 30097 40258 50001 60006 80000 90000=
07661,1998-06-21 06:00:00,20,1025.3,0.4,64,13,12000,11.112,,,270,17,21,,,,,,,,,wg-a,,,,AAXX 21064 07661 02/62 02706 10200 20130 30093 40253 53004 60006 80000 90600 333 10210 20170 60004=
07661,1998-06-21 12:00:00,26,1025.6,0,42,12,20000,18.52,,,230,,,,,,,,,,,wg-a,,,,AAXX 21124 07661 12/70 02310 10260 20120 30099 40256 50000 60006 80000 91200=
07661,1998-06-21 18:00:00,25,1024.3,-0.5,36,9,40000,14.816,,,290,19.8,28,,,,,,,,,wg-a,,,,AAXX 21184 07661 12/82 02908 10250 20090 30086 40243 55005 60006 80000 91800 333 10280 20198=
07661,1998-06-22 00:00:00,21,1024.2,-1.1,43,8,25000,18.52,,,280,,,,,,,,,,,wg-a,,,,AAXX 22004 07661 12/75 02810 10210 20080 30083 40242 57011 60006 80000 90000=
07661,1998-06-22 06:00:00,20,1022.8,-0.2,64,13,20000,18.52,,,240,19.3,25,,,,,,,,,wg-a,,,,AAXX 22064 07661 02/70 02410 10200 20130 30068 40228 55002 60006 80000 90600 333 10250 20193 60004=
07661,1998-06-22 12:00:00,26,1021.2,-1.1,39,11,15000,29.632,,,290,,,,,,,,,,,wg-a,,,,AAXX 22124 07661 12/65 52916 10260 20110 30055 40212 58011 60006 80001 91200=
07661,1998-06-22 18:00:00,24,1018.7,-1.2,57,15,18000,35.188,,,280,19.7,27.4,,,,,,,,,wg-a,,,,AAXX 22184 07661 12568 52819 10240 20150 30030 40187 56012 60006 82205 91800 333 10274 20197=
07661,1998-06-23 00:00:00,21,1018.2,-1,83,18,500,25.928,,64.82,310,,,,,,,,,,,wg-a,,,,AAXX 23004 07661 12/00 03114 10210 20180 30024 40182 58010 60006 80000 90000 333 91035=
07661,1998-06-23 06:00:00,21,1017.6,-0,83,18,6000,3.704,,,300,18.6,23.9,,,,,,,,,wg-a,,,,AAXX 23064 07661 02/56 23002 10210 20180 30018 40176 55000 60006 80001 90600 333 10239 20186 60004=
07661,1998-06-23 12:00:00,27,1015.3,-1.6,48,15,10000,38.892,,57.412,280,,,,,,,,,,,wg-a,,,,AAXX 23124 07661 12460 42821 10270 20150 39998 40153 57016 60006 81961 91200 333 91031=
07661,1998-06-23 18:00:00,23,1014.3,-0.1,65,16,12000,42.596,,75.932,290,20.7,28.8,,,,,,,,,wg-a,,,,AAXX 23184 07661 12/62 32923 10230 20160 39987 40143 56001 60006 80002 91800 333 10288 20207 91041=
07661,1998-06-24 00:00:00,19,1015.1,-0.6,94,18,10000,11.112,,,70,,,,,,,,,,,wg-a,,,,AAXX 24004 07661 12/60 00706 10190 20180 39992 40151 58006 60006 80000 90000=
07661,1998-06-24 06:00:00,19,1014.7,0.2,88,17,7000,3.704,,,70,16.9,23.2,,,,,,,,,wg-a,,,,AAXX 24064 07661 02/57 80702 10190 20170 39989 40147 53002 60006 80007 90600 333 10232 20169 60004=
07661,1998-06-24 12:00:00,24,1014.5,-0.3,78,20,500,18.52,,,210,,,,,,,,,,,wg-a,,,,AAXX 24124 07661 12/00 82110 10240 20200 39989 40145 58003 60006 80007 91200=
07661,1998-06-24 18:00:00,23,1013,-0.7,69,17,7000,14.816,,,250,19.4,25.3,,,,,,,,,wg-a,,,,AAXX 24184 07661 12/57 02508 10230 20170 39974 40130 56007 60006 80000 91800 333 10253 20194=
07661,1998-06-25 00:00:00,19,1013.9,0.1,88,17,0,14.816,,,300,,,,,,,,,,,wg-a,,,,AAXX 25004 07661 12/// /3008 10190 20170 39981 40139 50001 60006 90000=
07661,1998-06-25 06:00:00,20,1014.6,1.2,83,17,7000,7.408,,,60,17.6,23,,,,,,,,,wg-a,,,,AAXX 25064 07661 02/57 20604 10200 20170 39988 40146 53012 60006 80005 90600 333 10230 20176 60004=
07661,1998-06-25 12:00:00,25,1014.5,0,69,19,6000,11.112,,,210,,,,,,,,,,,wg-a,,,,AAXX 25124 07661 12/56 12106 10250 20190 39990 40145 50000 60006 80001 91200=
07661,1998-06-25 18:00:00,22,1013.9,-0,88,20,10000,14.816,,,230,20.3,25.9,,,,,,,,,wg-a,,,,AAXX 25184 07661 12/60 02308 10220 20200 39982 40139 55000 60006 80000 91800 333 10259 20203=
07661,1998-06-26 00:00:00,19,1014.8,-0.2,100,19,8000,11.112,,,310,,,,,,,,,,,wg-a,,,,AAXX 26004 07661 12/58 03106 10190 20190 39990 40148 58002 60006 80000 90000=
07661,1998-06-26 06:00:00,19,1015.5,1.1,100,19,4000,3.704,,,70,18.3,21.9,,,,,,,,28,wg-a,,,,AAXX 26064 07661 02240 40702 10190 20190 39997 40155 51011 60006 72841 84600 90600 333 10219 20183 60004=
07661,1998-06-26 12:00:00,25,1016.2,0.1,74,20,6000,11.112,,,200,,,,,,,,,,,wg-a,,,,AAXX 26124 07661 12256 62006 10250 20200 30007 40162 50001 60006 84608 91200=
07661,1998-06-26 18:00:00,23,1015.8,-0.4,83,20,8000,7.408,,,210,19.1,25.9,,,,,,,,,wg-a,,,,AAXX 26184 07661 12/58 22104 10230 20200 30002 40158 55004 60006 80008 91800 333 10259 20191=
07661,1998-06-27 00:00:00,20,1016.4,0.2,94,19,0,11.112,,,300,,,,,,,,,,,wg-a,,,,AAXX 27004 07661 12/// /3006 10200 20190 30006 40164 50002 60006 90000=
07661,1998-06-27 06:00:00,22,1016.1,-0,78,18,8000,3.704,,,60,18.3,23.4,,0,,,,,,,wg-a,,,,AAXX 27064 07661 02/58 40602 10220 20180 30004 40161 54000 60004 80004 90600 333 10234 20183 60007=
07661,1998-06-27 12:00:00,26,1016.4,-0,70,20,8000,14.816,,,200,,,,,,,,,,,wg-a,,,,AAXX 27124 07661 12/58 02008 10260 20200 30009 40164 54000 60006 80000 91200=
07661,1998-06-27 18:00:00,24,1015.9,-0,74,19,0,11.112,,,270,21.5,26.8,,,,,,,,,wg-a,,,,AAXX 27184 07661 12/// /2706 10240 20190 30003 40159 55000 60006 91800 333 10268 20215=
07661,1998-06-28 00:00:00,21,1015.9,0,88,19,15000,25.928,,,280,,,,,,,,,,,wg-a,,,,AAXX 28004 07661 12/65 02814 10210 20190 30001 40159 50000 60006 80000 90000=
07661,1998-06-28 06:00:00,21,1016.3,0.8,73,16,0,14.816,,,280,19.6,24.4,,,,,,,,,wg-a,,,,AAXX 28064 07661 02/// /2808 10210 20160 30005 40163 53008 60006 90600 333 10244 20196 60004=
07661,1998-06-28 12:00:00,28,1016.5,0.6,55,18,12000,11.112,,,200,,,,,,,,,,,wg-a,,,,AAXX 28124 07661 12/62 12006 10280 20180 30011 40165 51006 60006 81030 91200=
07661,1998-06-28 18:00:00,27,1014.7,-0.8,58,18,15000,22.224,,,290,20.9,30.3,,,,,,,,,wg-a,,,,AAXX 28184 07661 12565 22912 10270 20180 39993 40147 56008 60006 82100 91800 333 10303 20209=
07661,1998-06-29 00:00:00,23,1015.6,-0.1,78,19,15000,3.704,,,210,,,,,,,,,,,wg-a,,,,AAXX 29004 07661 12/65 02102 10230 20190 30000 40156 57001 60006 80000 90000=
07661,1998-06-29 06:00:00,24,1016.6,1,83,21,8000,0,,,0,20.5,26.8,,,,,,,,,wg-a,,,,AAXX 29064 07661 02458 30000 10240 20210 30010 40166 51010 60006 83600 90600 333 10268 20205 60004=
07661,1998-06-29 12:00:00,26,1017.2,0.4,79,22,4900,18.52,,,200,,,,,,,,,,10,wg-a,,,,AAXX 29124 07661 12449 32010 10260 20220 30017 40172 53004 60006 71000 83200 91200=
07661,1998-06-29 18:00:00,26,1015.8,-0.2,65,19,25000,11.112,,,250,23.6,27.9,,,,,,,,,wg-a,,,,AAXX 29184 07661 12/75 02506 10260 20190 30003 40158 55002 60006 80000 91800 333 10279 20236=
07661,1998-06-30 06:00:00,22,1014.5,-0.6,94,21,7000,14.816,,,150,20,26.2,,,,,,,,,wg-a,,,,AAXX 30064 07661 02157 51508 10220 20210 39988 40145 56006 60006 83609 90600 333 10262 20200 60004=
07661,1998-06-30 12:00:00,28,1013,-0.8,51,17,15000,18.52,,,300,,,,,,,,,,,wg-a,,,,AAXX 30124 07661 12/65 03010 10280 20170 39977 40130 56008 60006 80000 91200=
07661,1998-06-30 18:00:00,26,1011.6,-0.4,61,18,18000,35.188,,,290,21.8,30,,,,,,,,,wg-a,,,,AAXX 30184 07661 12/68 02919 10260 20180 39962 40116 55004 60006 80000 91800 333 10300 20218=
07661,1998-07-01 00:00:00,25,1010.9,-0.7,61,17,15000,18.52,,,70,,,,,,,,,,,wg-a,,,,AAXX 01004 07661 12865 20710 10250 20170 39954 40109 56007 60006 82010 90000=
07661,1998-07-01 06:00:00,22,1009.8,-2.6,94,21,7000,22.224,,,70,21.8,27,,,,,,,,,wg-a,,,,AAXX 01064 07661 02557 40712 10220 20210 39942 40098 56026 60006 84500 90600 333 10270 20218 60004=
07661,1998-07-01 12:00:00,26,1006.8,-1.7,79,22,8000,35.188,,57.412,90,,,,,,,,,,,wg-a,,,,AAXX 01124 07661 12/58 00919 10260 20220 39914 40068 58017 60006 80000 91200 333 91031=
07661,1998-07-01 18:00:00,23,1006.6,-0.2,94,22,8000,22.224,,72.228,100,22,26.2,,,,,,,,,wg-a,,,,AAXX 01184 07661 12458 51012 10230 20220 39911 40066 55002 60006 85600 91800 333 10262 20220 91039=
07661,1998-07-02 00:00:00,21,1008,-0.5,100,21,7000,11.112,,,200,,,,,,,,,,,wg-a,,,,AAXX 02004 07661 12/57 02006 10210 20210 39924 40080 57005 60006 80000 90000=
07661,1998-07-02 06:00:00,21,1010.1,1.1,94,20,8000,29.632,,,290,20,23.3,,,,,,,,,wg-a,,,,AAXX 02064 07661 02458 32916 10210 20200 39944 40101 51011 60006 83600 90600 333 10233 20200 60004=
07661,1998-07-02 12:00:00,26,1010.8,0.3,65,19,12000,18.52,,,230,,,,,,,,,,,wg-a,,,,AAXX 02124 07661 12562 12310 10260 20190 39954 40108 50003 60006 81100 91200=
07661,1998-07-02 18:00:00,24,1010.5,-0.7,78,20,10000,14.816,,,220,21.1,28.5,,,,,,,,,wg-a,,,,AAXX 02184 07661 12/60 02208 10240 20200 39950 40105 55007 60006 80000 91800 333 10285 20211=
07661,1998-07-03 00:00:00,21,1011.7,0.2,94,20,6000,11.112,,,290,,,,,,,,,,2,wg-a,,,,AAXX 03004 07661 12456 82906 10210 20200 39960 40117 53002 60006 70242 886// 90000=
07661,1998-07-03 06:00:00,22,1011.9,1.2,94,21,4900,22.224,,,290,20.5,24.1,,,,,,,,10,wg-a,,,,AAXX 03064 07661 02449 32912 10220 20210 39963 40119 53012 60006 71000 83100 90600 333 10241 20205 60004=
07661,1998-07-03 12:00:00,25,1013.3,0.7,61,17,12000,50.004,,75.932,290,,,,,,,,,,,wg-a,,,,AAXX 03124 07661 12562 22927 10250 20170 39978 40133 52007 60006 82200 91200 333 91041=
07661,1998-07-03 18:00:00,25,1013.5,-0.1,57,16,35000,46.3,,100.008,290,21.7,27.4,,,,,,,,,wg-a,,,,AAXX 03184 07661 12681 12925 10250 20160 39980 40135 58001 60006 81100 91800 333 10274 20217 91054=
07661,1998-07-04 00:00:00,22,1016,-0.4,46,10,35000,42.596,,68.524,300,,,,,,,,,,,wg-a,,,,AAXX 04004 07661 12/81 03023 10220 20100 30002 40160 58004 60006 80000 90000 333 91037=
07661,1998-07-04 06:00:00,21,1015.9,0.1,56,12,35000,38.892,,,310,19.8,26.1,,,,,,,,,wg-a,,,,AAXX 04064 07661 02/81 03121 10210 20120 30001 40159 50001 60006 80000 90600 333 10261 20198 60004=
07661,1998-07-04 12:00:00,27,1017.4,0.3,42,13,35000,35.188,,57.412,290,,,,,,,,,,,wg-a,,,,AAXX 04124 07661 12581 22919 10270 20130 30019 40174 50003 60006 82200 91200 333 91031=
07661,1998-07-04 18:00:00,27,1015.8,-0.5,37,11,28000,38.892,,75.932,300,21,28.1,,,,,,,,,wg-a,,,,AAXX 04184 07661 12/78 03021 10270 20110 30003 40158 56005 60006 80000 91800 333 10281 20210 91041=
07661,1998-07-05 00:00:00,22,1015.1,-1.1,41,8,20000,35.188,,,300,,,,,,,,,,,wg-a,,,,AAXX 05004 07661 12/70 03019 10220 20080 39993 40151 58011 60006 80000 90000=
07661,1998-07-05 06:00:00,20,1014.5,-0.1,49,9,500,31.484,,57.412,300,19,27.3,,,,,,,,,wg-a,,,,AAXX 05064 07661 02/00 03017 10200 20090 39987 40145 55001 60006 80000 90600 333 10273 20190 60004 91031=
07661,1998-07-05 12:00:00,29,1014.4,-0.3,35,12,25000,29.632,,,290,,,,,,,,,,,wg-a,,,,AAXX 05124 07661 12/75 02916 10290 20120 39990 40144 58003 60006 80000 91200=
07661,1998-07-05 18:00:00,28,1011.6,-1.1,40,13,25000,38.892,,68.524,290,20.1,30.2,,,,,,,,,wg-a,,,,AAXX 05184 07661 12/75 02921 10280 20130 39962 40116 56011 60006 80000 91800 333 10302 20201 91037=
07661,1998-07-06 00:00:00,23,1012.2,-0.1,44,10,25000,18.52,,,300,,,,,,,,,,,wg-a,,,,AAXX 06004 07661 12/75 03010 10230 20100 39966 40122 58001 60006 80000 90000=
07661,1998-07-06 06:00:00,23,1012.4,0.5,69,17,18000,7.408,,,120,20,28.1,,,,,,,,,wg-a,,,,AAXX 06064 07661 02/68 01204 10230 20170 39968 40124 52005 60006 80000 90600 333 10281 20200 60004=
07661,1998-07-06 12:00:00,28,1012.5,-0.3,40,13,10000,11.112,,,300,,,,,,,,,,,wg-a,,,,AAXX 06124 07661 12/60 03006 10280 20130 39971 40125 58003 60006 80000 91200=
07661,1998-07-06 18:00:00,23,1010.3,-1.3,61,15,18000,38.892,,61.116,290,22.5,28,,,,,,,,,wg-a,,,,AAXX 06184 07661 12/68 02921 10230 20150 39947 40103 56013 60006 80000 91800 333 10280 20225 91033=
07661,1998-07-07 00:00:00,21,1010.2,-1,83,18,10000,7.408,,,290,,,,,,,,,,,wg-a,,,,AAXX 07004 07661 12/60 42904 10210 20180 39945 40102 58010 60006 84050 90000=
07661,1998-07-07 06:00:00,19,1008.1,-1.3,88,17,0,14.816,,,80,17.9,22.8,,,,,,,,,wg-a,,,,AAXX 07064 07661 02/// /0808 10190 20170 39923 40081 56013 60006 90600 333 10228 20179 60004=
07661,1998-07-07 12:00:00,23,1006.6,-1,83,20,10000,11.112,,,130,,,,,,,,,,,wg-a,,,,AAXX 07124 07661 12560 71306 10230 20200 39911 40066 57010 60006 878// 91200=
07661,1998-07-07 18:00:00,22,1004,-2,73,17,12000,64.82,,87.044,290,19,25.5,,2,,,,,,,wg-a,,,,AAXX 07184 07661 12462 72935 10220 20170 39884 40040 56020 60027 83262 91800 333 10255 20190 91047=
07661,1998-07-08 00:00:00,21,1006.2,0.8,49,10,20000,50.004,,87.044,310,,,,,,,,,,,wg-a,,,,AAXX 08004 07661 12/70 03127 10210 20100 39906 40062 53008 60006 80000 90000 333 91047=
07661,1998-07-08 06:00:00,19,1003.8,-1.6,46,7,0,83.34,,,310,18.6,23.2,,,,,2,,,,wg-a,,,,AAXX 08064 07661 02/// /3145 10190 20070 39880 40038 55016 60006 90600 333 10232 20186 60024=
07661,1998-07-08 12:00:00,26,1008,0.7,28,6,25000,42.596,,107.416,330,,,,,,,,,,,wg-a,,,,AAXX 08124 07661 12/75 03323 10260 20060 39926 40080 51007 60006 80000 91200 333 91058=
07661,1998-07-08 18:00:00,25,1006.5,-1.3,32,7,28000,53.708,,79.636,310,18.7,27.4,,,,,,,,,wg-a,,,,AAXX 08184 07661 12/78 03129 10250 20070 39910 40065 57013 60006 80000 91800 333 10274 20187 91043=
07661,1998-07-09 00:00:00,21,1009.7,0.5,38,6,20000,29.632,,83.34,300,,,,,,,,,,,wg-a,,,,AAXX 09004 07661 12/70 03016 10210 20060 39940 40097 51005 60006 80000 90000 333 91045=
07661,1998-07-09 06:00:00,21,1012.1,1.6,38,6,20000,11.112,,,160,19.2,24.9,,,,,,,,,wg-a,,,,AAXX 09064 07661 02/70 01606 10210 20060 39963 40121 53016 60006 80000 90600 333 10249 20192 60004=
07661,1998-07-09 12:00:00,27,1013.5,0.5,28,7,20000,18.52,,,220,,,,,,,,,,,wg-a,,,,AAXX 09124 07661 12/70 02210 10270 20070 39980 40135 50005 60006 80000 91200=
07661,1998-07-09 18:00:00,22,1012.1,-1,65,15,18000,25.928,,,300,21.4,27.7,,,,,,,,,wg-a,,,,AAXX 09184 07661 12/68 03014 10220 20150 39964 40121 56010 60006 80000 91800 333 10277 20214=
07661,1998-07-10 00:00:00,24,1012.8,0,41,10,20000,14.816,,,300,,,,,,,,,,,wg-a,,,,AAXX 10004 07661 12/70 03008 10240 20100 39972 40128 50000 60006 80000 90000=
07661,1998-07-10 06:00:00,22,1013.4,0.7,60,14,20000,0,,,0,19.2,23.9,,,,,,,,,wg-a,,,,AAXX 10064 07661 02/70 00000 10220 20140 39977 40134 53007 60006 80000 90600 333 10239 20192 60004=
07661,1998-07-10 12:00:00,25,1013.1,-0.6,47,13,10000,42.596,,68.524,290,,,,,,,,,,,wg-a,,,,AAXX 10124 07661 12/60 02923 10250 20130 39976 40131 58006 60006 80000 91200 333 91037=
07661,1998-07-10 18:00:00,23,1012.4,-0.2,57,14,15000,38.892,,87.044,290,21.9,25.9,,,,,,,,,wg-a,,,,AAXX 10184 07661 12/65 02921 10230 20140 39968 40124 55002 60006 80000 91800 333 10259 20219 91047=
07661,1998-07-11 00:00:00,20,1014.1,-0.2,83,17,12000,7.408,,,40,,,,,,,,,,,wg-a,,,,AAXX 11004 07661 12/62 00404 10200 20170 39983 40141 58002 60006 80000 90000=
07661,1998-07-11 06:00:00,21,1014.2,0.8,60,13,15000,38.892,,,300,18.9,23.3,,,,,,,,,wg-a,,,,AAXX 11064 07661 02565 33021 10210 20130 39984 40142 53008 60006 81102 90600 333 10233 20189 60004=
07661,1998-07-11 12:00:00,25,1012.8,-0.5,50,14,25000,46.3,,72.228,290,,,,,,,,,,,wg-a,,,,AAXX 11124 07661 12575 62925 10250 20140 39973 40128 58005 60006 81162 91200 333 91039=
07661,1998-07-11 18:00:00,23,1012.6,0.1,53,13,28000,38.892,,72.228,280,20.2,26.9,,,,,,,,,wg-a,,,,AAXX 11184 07661 12/78 42821 10230 20130 39970 40126 53001 60006 80004 91800 333 10269 20202 91039=
07661,1998-07-12 00:00:00,20,1013.8,-0.1,68,14,0,22.224,,,300,,,,,,,,,,,wg-a,,,,AAXX 12004 07661 12/// /3012 10200 20140 39980 40138 58001 60006 90000=
07661,1998-07-12 06:00:00,20,1013.6,0.5,64,13,500,14.816,,,300,18.5,23.9,,,,,,,,,wg-a,,,,AAXX 12064 07661 02/00 13008 10200 20130 39978 40136 51005 60006 80001 90600 333 10239 20185 60004=
07661,1998-07-12 12:00:00,25,1014.7,0.5,50,14,500,14.816,,,190,,,,,,,,,,,wg-a,,,,AAXX 12124 07661 12/00 31908 10250 20140 39991 40147 53005 60006 80001 91200=
07661,1998-07-12 18:00:00,23,1013.2,-1,57,14,20000,29.632,,53.708,290,20.3,27.1,,,,,,,,,wg-a,,,,AAXX 12184 07661 12/70 32916 10230 20140 39976 40132 56010 60006 80008 91800 333 10271 20203 91029=
07661,1998-07-13 00:00:00,20,1014.4,-0.4,83,17,20000,18.52,,,80,,,,,,,,,,,wg-a,,,,AAXX 13004 07661 12/70 00810 10200 20170 39986 40144 58004 60006 80000 90000=
07661,1998-07-13 06:00:00,21,1014.4,0.7,78,17,10000,14.816,,,70,17.6,23.3,,,,,,,,,wg-a,,,,AAXX 13064 07661 02460 30708 10210 20170 39986 40144 50007 60006 83600 90600 333 10233 20176 60004=
07661,1998-07-13 12:00:00,24,1013.7,-0.5,78,20,10000,22.224,,,140,,,,,,,,,,,wg-a,,,,AAXX 13124 07661 12460 11412 10240 20200 39982 40137 58005 60006 81100 91200=
07661,1998-07-13 18:00:00,21,1012,-1.3,100,21,400,18.52,,,230,20.5,24.9,,,,,,,,46,wg-a,,,,AAXX 13184 07661 12204 72310 10210 20210 39963 40120 57013 60006 74641 87600 91800 333 10249 20205=
07661,1998-07-14 00:00:00,20,1010.4,-1.4,94,19,500,18.52,,,300,,,,,,,,,,2,wg-a,,,,AAXX 14004 07661 12/00 33010 10200 20190 39947 40104 58014 60006 70241 83070 90000=
07661,1998-07-14 06:00:00,20,1010.3,0.7,73,15,500,35.188,,75.932,290,18.7,21.4,,,,,2,,,1,wg-a,,,,AAXX 14064 07661 12500 62919 10200 20150 39945 40103 53007 60024 70161 83840 90600 333 10214 20187 91041=
07661,1998-07-14 12:00:00,24,1008.1,-0.7,41,10,40000,57.412,,83.34,290,,,,,,,,,,,wg-a,,,,AAXX 14124 07661 12582 12931 10240 20100 39926 40081 58007 60006 81202 91200 333 91045=
07661,1998-07-14 18:00:00,25,1006.7,0.1,24,3,40000,64.82,,94.452,300,19.3,26.9,,,,,,,,,wg-a,,,,AAXX 14184 07661 12482 33035 10250 20030 39912 40067 52001 60006 81301 91800 333 10269 20193 91051=
07661,1998-07-15 00:00:00,20,1010.3,1.1,40,6,25000,38.892,,,310,,,,,,,,,,,wg-a,,,,AAXX 15004 07661 12/75 03121 10200 20060 39945 40103 51011 60006 80000 90000=
07661,1998-07-15 06:00:00,19,1012.5,1,49,8,25000,18.52,,,310,17.6,24.7,,,,,,,,,wg-a,,,,AAXX 15064 07661 02675 53110 10190 20080 39966 40125 53010 60006 8/800 90600 333 10247 20176 60004=
07661,1998-07-15 12:00:00,27,1013.9,0.6,39,12,40000,18.52,,,220,,,,,,,,,,,wg-a,,,,AAXX 15124 07661 12682 32210 10270 20120 39984 40139 51006 60006 83200 91200=
07661,1998-07-15 18:00:00,25,1013,-0.6,39,10,40000,35.188,,53.708,290,18.7,27.6,,,,,,,,,wg-a,,,,AAXX 15184 07661 12/82 22919 10250 20100 39974 40130 56006 60006 80002 91800 333 10276 20187 91029=
07661,1998-07-16 00:00:00,21,1015.3,0.6,40,7,20000,14.816,,,310,,,,,,,,,,,wg-a,,,,AAXX 16004 07661 12/70 03108 10210 20070 39995 40153 50006 60006 80000 90000=
07661,1998-07-16 06:00:00,19,1016.5,1.2,49,8,500,7.408,,,320,18.7,24.5,,,,,,,,,wg-a,,,,AAXX 16064 07661 02/00 03204 10190 20080 30006 40165 52012 60006 80000 90600 333 10245 20187 60004=
07661,1998-07-16 12:00:00,26,1016.5,-0.1,34,9,20000,38.892,,53.708,290,,,,,,,,,,,wg-a,,,,AAXX 16124 07661 12/70 02921 10260 20090 30009 40165 58001 60006 80000 91200 333 91029=
07661,1998-07-16 18:00:00,21,1016,-0.3,69,15,25000,29.632,,68.524,280,19.3,27,,,,,,,,,wg-a,,,,AAXX 16184 07661 12/75 02816 10210 20150 30002 40160 57003 60006 80000 91800 333 10270 20193 91037=
07661,1998-07-17 00:00:00,19,1015.6,-0.6,94,18,15000,31.484,,61.116,290,,,,,,,,,,,wg-a,,,,AAXX 17004 07661 12/65 02917 10190 20180 39998 40156 58006 60006 80000 90000 333 91033=
07661,1998-07-17 06:00:00,22,1015.5,0.6,60,14,40000,31.484,,,300,18.7,21.8,,,,,,,,,wg-a,,,,AAXX 17064 07661 02/82 03017 10220 20140 39997 40155 53006 60006 80000 90600 333 10218 20187 60004=
07661,1998-07-17 12:00:00,25,1014.7,-0.7,54,15,25000,50.004,,72.228,290,,,,,,,,,,,wg-a,,,,AAXX 17124 07661 12/75 02927 10250 20150 39991 40147 56007 60006 80000 91200 333 91039=
07661,1998-07-17 18:00:00,24,1014.2,-0.3,57,15,20000,53.708,,103.712,290,21.6,25.6,,,,,,,,,wg-a,,,,AAXX 17184 07661 12/70 02929 10240 20150 39986 40142 58003 60006 80000 91800 333 10256 20216 91056=
07661,1998-07-18 00:00:00,21,1016.1,-0,78,17,15000,22.224,,79.636,300,,,,,,,,,,,wg-a,,,,AAXX 18004 07661 12/65 03012 10210 20170 30003 40161 55000 60006 80000 90000 333 91043=
07661,1998-07-18 06:00:00,22,1015.9,0.5,73,17,15000,11.112,,,100,19.2,23.7,,,,,,,,,wg-a,,,,AAXX 18064 07661 02/65 01006 10220 20170 30002 40159 53005 60006 80000 90600 333 10237 20192 60004=
07661,1998-07-18 12:00:00,24,1017,0,78,20,8000,22.224,,,170,,,,,,,,,,,wg-a,,,,AAXX 18124 07661 12358 21712 10240 20200 30014 40170 50000 60006 82600 91200=
07661,1998-07-18 18:00:00,23,1016.3,-0.1,83,20,8000,11.112,,,190,21.5,25.7,,,,,,,,,wg-a,,,,AAXX 18184 07661 12358 21906 10230 20200 30007 40163 55001 60006 82600 91800 333 10257 20215=
07661,1998-07-19 00:00:00,19,1017.3,-0.2,100,19,8000,18.52,,,80,,,,,,,,,,,wg-a,,,,AAXX 19004 07661 12258 30810 10190 20190 30014 40173 58002 60006 83600 90000=
07661,1998-07-19 06:00:00,20,1017.7,1.2,94,19,8000,18.52,,,70,18.8,23.4,,,,,,,,,wg-a,,,,AAXX 19064 07661 02258 30710 10200 20190 30019 40177 51012 60006 83600 90600 333 10234 20188 60004=
07661,1998-07-19 12:00:00,25,1018.8,0.3,79,21,10000,22.224,,,130,,,,,,,,,,,wg-a,,,,AAXX 19124 07661 12/60 01312 10250 20210 30032 40188 50003 60006 80000 91200=
07661,1998-07-19 18:00:00,23,1018,-0.4,89,21,7000,14.816,,,150,20.5,25.9,,,,,,,,,wg-a,,,,AAXX 19184 07661 12257 31508 10230 20210 30023 40180 55004 60006 83600 91800 333 10259 20205=
07661,1998-07-20 00:00:00,20,1019.2,0,100,20,0,18.52,,,70,,,,,,,,,,,wg-a,,,,AAXX 20004 07661 12/// /0710 10200 20200 30034 40192 50000 60006 90000=
07661,1998-07-20 06:00:00,21,1018.5,0.2,88,19,8000,25.928,,,80,18.9,22.6,,,,,,,,,wg-a,,,,AAXX 20064 07661 12/58 00814 10210 20190 30027 40185 51002 60004 80000 90600 333 10226 20189=
07661,1998-07-20 12:00:00,29,1017.2,-1.4,45,16,10000,22.224,,,90,,,,,,,,,,,wg-a,,,,AAXX 20124 07661 12/60 00912 10290 20160 30018 40172 57014 60006 80000 91200=
07661,1998-07-20 18:00:00,25,1015.3,-1.4,69,19,10000,22.224,,,90,21.1,29.2,,,,,,,,,wg-a,,,,AAXX 20184 07661 12/60 00912 10250 20190 39997 40153 57014 60006 80000 91800 333 10292 20211=
07661,1998-07-21 00:00:00,23,1014.5,-1.1,65,16,8000,25.928,,,80,,,,,,,,,,,wg-a,,,,AAXX 21004 07661 12/58 00814 10230 20160 39988 40145 58011 60006 80000 90000=
07661,1998-07-21 06:00:00,24,1014,-0.7,54,14,25000,22.224,,,70,20.8,24.5,,,,,,,,,wg-a,,,,AAXX 21064 07661 02/75 00712 10240 20140 39984 40140 55007 60006 80000 90600 333 10245 20208 60004=
07661,1998-07-21 12:00:00,27,1014.7,0.3,74,22,8000,18.52,,,100,,,,,,,,,,,wg-a,,,,AAXX 21124 07661 12/58 11010 10270 20220 39993 40147 53003 60006 80001 91200=
07661,1998-07-21 18:00:00,24,1014.2,-0.1,83,21,22000,3.704,,,270,23.6,27.5,,,,,,,,,wg-a,,,,AAXX 21184 07661 32/72 52702 10240 20210 39987 40142 55001 80001 91800 333 10275 20236=
07661,1998-07-22 00:00:00,24,1015,0.2,61,16,10000,3.704,,,80,,,,,,,,,,,wg-a,,,,AAXX 22004 07661 12/60 50802 10240 20160 39994 40150 51002 60006 85050 90000=
07661,1998-07-22 06:00:00,23,1015.5,0.7,69,17,14000,14.816,,,80,20.4,24.4,,,,,2,,,,wg-a,,,,AAXX 22064 07661 02/64 00808 10230 20170 39998 40155 51007 60006 80000 90600 333 10244 20204 60024=
07661,1998-07-22 12:00:00,27,1016.4,0.4,62,19,15000,18.52,,,170,,,,,,,,,,,wg-a,,,,AAXX 22124 07661 12565 11710 10270 20190 30010 40164 51004 60006 81200 91200=
07661,1998-07-22 18:00:00,27,1015.9,-0.3,54,17,15000,11.112,,,240,22.5,28.7,,,,,,,,,wg-a,,,,AAXX 22184 07661 12/65 02406 10270 20170 30004 40159 55003 60006 80000 91800 333 10287 20225=
07661,1998-07-23 00:00:00,23,1015.9,-0.6,69,17,10000,25.928,,,290,,,,,,,,,,,wg-a,,,,AAXX 23004 07661 12/60 02914 10230 20170 30003 40159 56006 60006 80000 90000=
07661,1998-07-23 06:00:00,26,1015.9,0.7,51,15,16000,3.704,,,90,22.2,27.3,,,,,,,,,wg-a,,,,AAXX 23064 07661 02/66 00902 10260 20150 30004 40159 53007 60006 80000 90600 333 10273 20222 60004=
07661,1998-07-23 12:00:00,29,1015.5,-0.5,55,19,12000,14.816,,,220,,,,,,,,,,,wg-a,,,,AAXX 23124 07661 12/62 02208 10290 20190 30002 40155 58005 60006 80000 91200=
07661,1998-07-23 18:00:00,27,1014.4,-0.5,58,18,20000,35.188,,,290,26.4,32.5,,,,,,,,,wg-a,,,,AAXX 23184 07661 12/70 02919 10270 20180 39990 40144 56005 60006 80000 91800 333 10325 20264=
07661,1998-07-24 00:00:00,26,1014.6,-0.9,48,14,10000,31.484,,61.116,290,,,,,,,,,,,wg-a,,,,AAXX 24004 07661 12/60 02917 10260 20140 39991 40146 58009 60006 80000 90000 333 91033=
07661,1998-07-24 06:00:00,26,1014.2,0.3,61,18,28000,11.112,,,300,23.8,26.7,,,,,,,,,wg-a,,,,AAXX 24064 07661 02/78 03006 10260 20180 39987 40142 53003 60006 80000 90600 333 10267 20238 60004=
07661,1998-07-24 12:00:00,32,1014.3,-0.3,41,17,12000,31.484,,,280,,,,,,,,,,,wg-a,,,,AAXX 24124 07661 12/62 02817 10320 20170 39991 40143 55003 60006 80000 91200=
07661,1998-07-24 18:00:00,27,1014.3,0.5,54,17,18000,46.3,,79.636,290,26.3,32,,,,,,,,,wg-a,,,,AAXX 24184 07661 12/68 02925 10270 20170 39989 40143 53005 60006 80000 91800 333 10320 20263 91043=
07661,1998-07-25 00:00:00,23,1014.3,-0.6,78,19,10000,29.632,,,290,,,,,,,,,,,wg-a,,,,AAXX 25004 07661 12/60 02916 10230 20190 39987 40143 58006 60006 80000 90000=
07661,1998-07-25 06:00:00,24,1013.9,0.4,74,19,12000,3.704,,,80,22.5,26.9,,,,,,,,,wg-a,,,,AAXX 25064 07661 02/62 00802 10240 20190 39983 40139 53004 60006 80000 90600 333 10269 20225 60004=
07661,1998-07-25 12:00:00,30,1013.1,-0.8,49,18,12000,25.928,,,280,,,,,,,,,,,wg-a,,,,AAXX 25124 07661 12/62 02814 10300 20180 39978 40131 58008 60006 80000 91200=
07661,1998-07-25 18:00:00,26,1012.3,-0.4,58,17,14000,50.004,,79.636,290,24.2,31.2,,,,,,,,,wg-a,,,,AAXX 25184 07661 12/64 02927 10260 20170 39968 40123 55004 60006 80000 91800 333 10312 20242 91043=
07661,1998-07-26 00:00:00,25,1013.6,0.2,65,18,12000,22.224,,72.228,290,,,,,,,,,,,wg-a,,,,AAXX 26004 07661 12/62 02912 10250 20180 39981 40136 53002 60006 80000 90000 333 91039=
07661,1998-07-26 06:00:00,23,1014.3,0.9,83,20,6000,7.408,,,70,22.2,26.1,,,,,,,,,wg-a,,,,AAXX 26064 07661 02456 50704 10230 20200 39987 40143 51009 60006 85600 90600 333 10261 20222 60004=
07661,1998-07-26 12:00:00,28,1014.2,-0.1,79,24,500,11.112,,,210,,,,,,,,,,,wg-a,,,,AAXX 26124 07661 12200 52106 10280 20240 39989 40142 58001 60006 85680 91200=
07661,1998-07-26 18:00:00,27,1013.1,-0.5,48,15,20000,22.224,,,290,23.2,28.9,,,,,,,,,wg-a,,,,AAXX 26184 07661 12670 12912 10270 20150 39976 40131 56005 60006 81100 91800 333 10289 20232=
07661,1998-07-27 00:00:00,23,1013.7,-0.1,73,18,10000,3.704,,,60,,,,,,,,,,,wg-a,,,,AAXX 27004 07661 12/60 00602 10230 20180 39981 40137 55001 60006 80000 90000=
07661,1998-07-27 06:00:00,23,1013.1,0.3,73,18,10000,14.816,,,70,20.4,26.6,,,,,,,,,wg-a,,,,AAXX 27064 07661 02/60 00708 10230 20180 39975 40131 50003 60006 80000 90600 333 10266 20204 60004=
07661,1998-07-27 12:00:00,28,1012.3,-1.1,74,23,500,14.816,,,210,,,,,,,,,,,wg-a,,,,AAXX 27124 07661 12600 62108 10280 20230 39970 40123 56011 60006 83303 91200=
07661,1998-07-27 18:00:00,24,1010.6,-1.5,74,19,0,35.188,,,300,22.7,28.7,,,,,,,,,wg-a,,,,AAXX 27184 07661 12/// /3019 10240 20190 39951 40106 58015 60006 91800 333 10287 20227=
07661,1998-07-28 00:00:00,23,1011.3,0.1,57,14,15000,35.188,,,300,,,,,,,,,,,wg-a,,,,AAXX 28004 07661 12/65 23019 10230 20140 39957 40113 53001 60006 80002 90000=
07661,1998-07-28 06:00:00,22,1010.6,0.2,57,13,40000,35.188,,,300,20.4,24.8,,,,,,,,,wg-a,,,,AAXX 28064 07661 02/82 33019 10220 20130 39949 40106 51002 60006 80004 90600 333 10248 20204 60004=
07661,1998-07-28 12:00:00,23,1009.9,-0.5,57,14,25000,61.116,,94.452,290,,,,,,,,,,,wg-a,,,,AAXX 28124 07661 12875 62933 10230 20140 39943 40099 58005 60006 86070 91200 333 91051=
07661,1998-07-28 18:00:00,26,1008,0.2,37,10,500,64.82,,100.008,310,21.7,27.5,,,,,,,,,wg-a,,,,AAXX 28184 07661 12/00 53135 10260 20100 39926 40080 51002 60006 81041 91800 333 10275 20217 91054=
07661,1998-07-29 00:00:00,23,1009.9,1.5,47,11,15000,53.708,,100.008,300,,,,,,,,,,,wg-a,,,,AAXX 29004 07661 12/65 03029 10230 20110 39943 40099 51015 60006 80000 90000 333 91054=
07661,1998-07-29 06:00:00,23,1010.3,0.2,47,11,45000,53.708,,90.748,300,22.2,26.1,,,,,,,,,wg-a,,,,AAXX 29064 07661 02/83 03029 10230 20110 39947 40103 53002 60006 80000 90600 333 10261 20222 60004 91049=
07661,1998-07-29 18:00:00,24,1010.2,0.4,57,15,500,35.188,,79.636,300,23,28.6,,,,,,,,,wg-a,,,,AAXX 29184 07661 12/00 03019 10240 20150 39947 40102 51004 60006 80000 91800 333 10286 20230 91043=
07661,1998-07-30 00:00:00,22,1011.2,-0.4,69,16,15000,11.112,,,60,,,,,,,,,,,wg-a,,,,AAXX 30004 07661 12/65 00606 10220 20160 39956 40112 58004 60006 80000 90000=
07661,1998-07-30 06:00:00,23,1011.9,1.2,57,14,15000,7.408,,,100,19.9,24.1,,,,,,,,,wg-a,,,,AAXX 30064 07661 02/65 01004 10230 20140 39963 40119 53012 60006 80000 90600 333 10241 20199 60004=
07661,1998-07-30 12:00:00,27,1012.7,0,66,20,6000,11.112,,,200,,,,,,,,,,,wg-a,,,,AAXX 30124 07661 12/56 02006 10270 20200 39973 40127 50000 60006 80000 91200=
07661,1998-07-30 18:00:00,25,1011.7,-0.2,57,16,20000,42.596,,64.82,290,23,27.5,,,,,,,,,wg-a,,,,AAXX 30184 07661 12/70 02923 10250 20160 39962 40117 55002 60006 80000 91800 333 10275 20230 91035=
07661,1998-07-31 00:00:00,21,1013.1,-0.2,100,21,10000,22.224,,64.82,290,,,,,,,,,,,wg-a,,,,AAXX 31004 07661 12/60 02912 10210 20210 39974 40131 58002 60006 80000 90000 333 91035=
07661,1998-07-31 06:00:00,21,1012.9,0.3,83,18,8000,14.816,,,80,19.1,24.6,,,,,,,,,wg-a,,,,AAXX 31064 07661 02458 30808 10210 20180 39972 40129 50003 60006 83600 90600 333 10246 20191 60004=
07661,1998-07-31 12:00:00,25,1013.8,0.1,79,21,7000,18.52,,,220,,,,,,,,,,,wg-a,,,,AAXX 31124 07661 12457 32210 10250 20210 39983 40138 51001 60006 82180 91200=
07661,1998-07-31 18:00:00,24,1012.9,-0.5,65,17,25000,31.484,,53.708,280,20.4,28.4,,,,,,,,,wg-a,,,,AAXX 31184 07661 12/75 02817 10240 20170 39974 40129 55005 60006 80000 91800 333 10284 20204 91029=
07661,1998-08-01 00:00:00,22,1013.5,-0.6,73,17,15000,11.112,,,320,,,,,,,,,,,wg-a,,,,AAXX 01004 07661 12/65 13206 10220 20170 39978 40135 58006 60006 80002 90000=
07661,1998-08-01 06:00:00,22,1013,0.7,83,19,12000,22.224,,,80,20.3,24.3,,,,,,,,,wg-a,,,,AAXX 01064 07661 02/62 40812 10220 20190 39973 40130 52007 60006 84030 90600 333 10243 20203 60004=
07661,1998-08-01 12:00:00,26,1013.1,0.1,79,22,500,25.928,,,140,,,,,,,,,,,wg-a,,,,AAXX 01124 07661 12500 61414 10260 20220 39977 40131 53001 60006 82259 91200=
07661,1998-08-01 18:00:00,24,1012.3,0.1,83,21,4000,14.816,,,220,21.6,26.6,,,,,,,,,wg-a,,,,AAXX 01184 07661 12340 42208 10240 20210 39968 40123 50001 60006 83260 91800 333 10266 20216=
07661,1998-08-02 00:00:00,22,1012.9,-0.4,78,18,10000,0,,,0,,,,,,,,,,,wg-a,,,,AAXX 02004 07661 12/60 00000 10220 20180 39972 40129 58004 60006 80000 90000=
07661,1998-08-02 06:00:00,22,1014,1,65,15,25000,14.816,,,80,19,23.8,,,,,,,,,wg-a,,,,AAXX 02064 07661 02/75 00808 10220 20150 39983 40140 53010 60006 80000 90600 333 10238 20190 60004=
07661,1998-08-02 12:00:00,26,1015.2,0.6,58,17,15000,14.816,,,210,,,,,,,,,,,wg-a,,,,AAXX 02124 07661 12/65 82108 10260 20170 39997 40152 51006 60006 8807/ 91200=
07661,1998-08-02 18:00:00,26,1015.5,-0.1,45,13,15000,29.632,,,300,22,28.1,,,,,,,,,wg-a,,,,AAXX 02184 07661 12565 53016 10260 20130 30000 40155 55001 60006 83202 91800 333 10281 20220=
07661,1998-08-03 00:00:00,21,1018.2,1.8,69,15,15000,18.52,,,280,,,,,,,,,,,wg-a,,,,AAXX 03004 07661 12865 62810 10210 20150 30024 40182 53018 60006 86060 90000=
07661,1998-08-03 18:00:00,16,1016.4,-1.1,100,16,500,22.224,,,280,15.9,22.2,,11,,,,,,21,wg-a,,,,AAXX 03184 07661 12600 62812 10160 20160 30004 40164 58011 60117 72162 83360 91800 333 10222 20159=
07661,1998-08-04 00:00:00,16,1019.2,0.1,100,16,20000,14.816,,,60,,,,,,,,,,,wg-a,,,,AAXX 04004 07661 12670 40608 10160 20160 30031 40192 50001 60006 82210 90000=
07661,1998-08-04 06:00:00,17,1019.4,0.6,94,16,35000,11.112,,,80,15.4,16.9,,,,,25,,,,wg-a,,,,AAXX 04064 07661 12681 40806 10170 20160 30033 40194 53006 60254 82210 90600 333 10169 20154=
07661,1998-08-04 12:00:00,25,1019.8,-0.4,57,16,35000,14.816,,,70,,,,,,,,,,,wg-a,,,,AAXX 04124 07661 12481 40708 10250 20160 30042 40198 58004 60006 82260 91200=
07661,1998-08-04 18:00:00,22,1020.2,0,69,16,35000,11.112,,,270,16.9,24.9,,,,,,,,,wg-a,,,,AAXX 04184 07661 12581 32706 10220 20160 30044 40202 50000 60006 82301 91800 333 10249 20169=
07661,1998-08-05 00:00:00,20,1018,-1.5,88,18,20000,7.408,,,260,,,,,,,,,,,wg-a,,,,AAXX 05004 07661 12870 32604 10200 20180 30022 40180 58015 60006 83070 90000=
07661,1998-08-05 06:00:00,21,1016.7,-0.8,78,17,18000,7.408,,,330,18.7,22.4,,,,,,,,,wg-a,,,,AAXX 05064 07661 02/68 03304 10210 20170 30009 40167 56008 60006 80000 90600 333 10224 20187 60004=
07661,1998-08-05 12:00:00,31,1016.6,0.1,43,17,15000,14.816,,,220,,,,,,,,,,,wg-a,,,,AAXX 05124 07661 12/65 02208 10310 20170 30013 40166 50001 60006 80000 91200=
07661,1998-08-05 18:00:00,30,1015.4,-1.1,43,16,28000,29.632,,,290,21.5,33.1,,,,,,,,,wg-a,,,,AAXX 05184 07661 12478 62916 10300 20160 30001 40154 58011 60006 83373 91800 333 10331 20215=
07661,1998-08-06 00:00:00,26,1017.6,0.9,61,18,10000,31.484,,,80,,,,,,,,,,,wg-a,,,,AAXX 06004 07661 12/60 00817 10260 20180 30021 40176 53009 60006 80000 90000=
07661,1998-08-06 06:00:00,24,1018.9,1.1,74,19,14000,18.52,,,80,22.2,30.1,,,,,,,,,wg-a,,,,AAXX 06064 07661 02/64 00810 10240 20190 30032 40189 53011 60006 80000 90600 333 10301 20222 60004=
07661,1998-08-06 12:00:00,29,1019.8,-0.3,52,18,14000,18.52,,,100,,,,,,,,,,,wg-a,,,,AAXX 06124 07661 12464 21010 10290 20180 30044 40198 58003 60006 82300 91200=
07661,1998-08-06 18:00:00,27,1018.1,-1.3,66,20,14000,18.52,,,240,23.6,31.1,,,,,,,,,wg-a,,,,AAXX 06184 07661 12/64 02410 10270 20200 30026 40181 56013 60006 80000 91800 333 10311 20236=
07661,1998-08-07 00:00:00,22,1018.5,-0.8,88,20,8000,14.816,,,90,,,,,,,,,,,wg-a,,,,AAXX 07004 07661 12/58 00908 10220 20200 30028 40185 58008 60006 80000 90000=
07661,1998-08-07 06:00:00,24,1018.8,0.7,69,18,15000,11.112,,,90,20.4,26.6,,,,,,,,,wg-a,,,,AAXX 07064 07661 02/65 00906 10240 20180 30031 40188 52007 60006 80000 90600 333 10266 20204 60004=
07661,1998-08-07 12:00:00,28,1019.5,0,55,18,20000,22.224,,,220,,,,,,,,,,,wg-a,,,,AAXX 07124 07661 12/70 02212 10280 20180 30040 40195 50000 60006 80000 91200=
07661,1998-08-07 18:00:00,26,1018.4,-0.3,54,16,20000,14.816,,,290,23.4,29.7,,,,,,,,,wg-a,,,,AAXX 07184 07661 12/70 02908 10260 20160 30029 40184 55003 60006 80000 91800 333 10297 20234=
07661,1998-08-08 00:00:00,23,1018.9,-0.4,61,15,20000,7.408,,,330,,,,,,,,,,,wg-a,,,,AAXX 08004 07661 12/70 03304 10230 20150 30032 40189 58004 60006 80000 90000=
07661,1998-08-08 12:00:00,29,1018.2,-0.3,48,17,20000,14.816,,,210,,,,,,,,,,,wg-a,,,,AAXX 08124 07661 12/70 02108 10290 20170 30028 40182 58003 60006 80000 91200=
07661,1998-08-08 18:00:00,26,1016.9,-0.6,48,14,28000,25.928,,,290,23.9,31,,,,,,,,,wg-a,,,,AAXX 08184 07661 12/78 02914 10260 20140 30014 40169 56006 60006 80000 91800 333 10310 20239=
07661,1998-08-09 00:00:00,23,1017.5,-0.3,57,14,15000,18.52,,,300,,,,,,,,,,,wg-a,,,,AAXX 09004 07661 12/65 03010 10230 20140 30018 40175 58003 60006 80000 90000=
07661,1998-08-09 06:00:00,22,1016.7,-0.1,69,16,18000,11.112,,,310,21.9,26.4,,,,,,,,,wg-a,,,,AAXX 09064 07661 02/68 03106 10220 20160 30010 40167 56001 60006 80000 90600 333 10264 20219 60004=
07661,1998-08-09 12:00:00,29,1016.7,-0.4,43,15,25000,25.928,,,290,,,,,,,,,,,wg-a,,,,AAXX 09124 07661 12/75 42914 10290 20150 30013 40167 58004 60006 80004 91200=
07661,1998-08-09 18:00:00,26,1015.3,-0.8,51,15,28000,29.632,,,290,22.1,29.5,,,,,,,,,wg-a,,,,AAXX 09184 07661 12/78 42916 10260 20150 39998 40153 56008 60006 80004 91800 333 10295 20221=
07661,1998-08-10 00:00:00,24,1016.2,-0.3,54,14,15000,22.224,,,300,,,,,,,,,,,wg-a,,,,AAXX 10004 07661 12/65 43012 10240 20140 30005 40162 57003 60006 80002 90000=
07661,1998-08-10 06:00:00,21,1017.4,0.8,56,12,20000,22.224,,,80,20,26,,,,,,,,,wg-a,,,,AAXX 10064 07661 02/70 30812 10210 20120 30016 40174 51008 60006 80001 90600 333 10260 20200 60004=
07661,1998-08-10 12:00:00,27,1018.6,0.4,66,20,10000,18.52,,,140,,,,,,,,,,,wg-a,,,,AAXX 10124 07661 12/60 41410 10270 20200 30031 40186 50004 60006 80002 91200=
07661,1998-08-10 18:00:00,24,1018.1,-0.2,94,23,10000,11.112,,,160,20.6,27.3,,,,,,,,,wg-a,,,,AAXX 10184 07661 12/60 41606 10240 20230 30025 40181 55002 60006 80002 91800 333 10273 20206=
07661,1998-08-11 00:00:00,22,1019,-0.1,88,20,6000,0,,,0,,,,,,,,,,,wg-a,,,,AAXX 11004 07661 12456 70000 10220 20200 30032 40190 57001 60006 876// 90000=
07661,1998-08-11 06:00:00,21,1019.3,0.7,88,19,8000,7.408,,,60,19.9,24.2,,,,,,,,,wg-a,,,,AAXX 11064 07661 02458 30604 10210 20190 30035 40193 53007 60006 83500 90600 333 10242 20199 60004=
07661,1998-08-11 12:00:00,27,1019.3,-0.5,74,22,8000,14.816,,,200,,,,,,,,,,,wg-a,,,,AAXX 11124 07661 12/58 22008 10270 20220 30038 40193 58005 60006 80002 91200=
07661,1998-08-11 18:00:00,24,1018.6,-0,89,22,8000,14.816,,,220,20.8,27.4,,,,,,,,,wg-a,,,,AAXX 11184 07661 12/58 02208 10240 20220 30030 40186 55000 60006 80000 91800 333 10274 20208=
07661,1998-08-12 00:00:00,22,1018.1,-0.9,100,22,7000,3.704,,,360,,,,,,,,,,,wg-a,,,,AAXX 12004 07661 12/57 03602 10220 20220 30024 40181 58009 60006 80000 90000=
07661,1998-08-12 06:00:00,22,1017.3,-0,100,22,6000,3.704,,,60,21,23.8,,,,,,,,,wg-a,,,,AAXX 12064 07661 02256 20602 10220 20220 30016 40173 55000 60006 82600 90600 333 10238 20210 60004=
07661,1998-08-12 12:00:00,26,1017.3,-0.4,79,22,6000,11.112,,,200,,,,,,,,,,,wg-a,,,,AAXX 12124 07661 12456 22006 10260 20220 30018 40173 58004 60006 81104 91200=
07661,1998-08-12 18:00:00,25,1015,-0.4,83,22,6000,7.408,,,250,21.6,28,,,,,,,,,wg-a,,,,AAXX 12184 07661 12/56 22504 10250 20220 39995 40150 58004 60006 80001 91800 333 10280 20216=
07661,1998-08-13 00:00:00,23,1014.5,-1,94,22,4000,14.816,,,300,,,,,,,,,,,wg-a,,,,AAXX 13004 07661 12/40 03008 10230 20220 39989 40145 56010 60006 80000 90000=
07661,1998-08-13 06:00:00,24,1012.9,0.2,69,18,8000,11.112,,,70,20.8,24.6,,,,,,,,,wg-a,,,,AAXX 13064 07661 02/58 30706 10240 20180 39973 40129 53002 60006 80002 90600 333 10246 20208 60004=
07661,1998-08-13 12:00:00,29,1011.9,-0.9,52,18,10000,11.112,,,200,,,,,,,,,,,wg-a,,,,AAXX 13124 07661 12/60 62006 10290 20180 39966 40119 58009 60006 80006 91200=
07661,1998-08-13 18:00:00,28,1009.3,-0.9,62,20,0,46.3,,,290,23.1,33.7,,,,,,,,,wg-a,,,,AAXX 13184 07661 12/// /2925 10280 20200 39940 40093 55009 60006 91800 333 10337 20231=
07661,1998-08-14 00:00:00,26,1009.9,-0.3,61,18,10000,18.52,,68.524,300,,,,,,,,,,,wg-a,,,,AAXX 14004 07661 12/60 03010 10260 20180 39945 40099 58003 60006 80000 90000 333 91037=
07661,1998-08-14 06:00:00,23,1010.1,0.6,100,23,4500,7.408,,,110,22.6,27.5,,,,,,,,10,wg-a,,,,AAXX 14064 07661 02445 71104 10230 20230 39946 40101 53006 60006 71011 876// 90600 333 10275 20226 60004=
07661,1998-08-14 12:00:00,27,1011.2,0.2,70,21,8000,11.112,,,190,,,,,,,,,,,wg-a,,,,AAXX 14124 07661 12458 61906 10270 20210 39959 40112 52002 60006 86610 91200=
07661,1998-08-15 06:00:00,21,1015.4,0.8,73,16,10000,14.816,,,90,20.5,25.7,,,,,,,,,wg-a,,,,AAXX 15064 07661 02/60 00908 10210 20160 39996 40154 53008 60006 80000 90600 333 10257 20205 60004=
07661,1998-08-15 12:00:00,27,1016.6,0.3,74,22,6000,18.52,,,190,,,,,,,,,,,wg-a,,,,AAXX 15124 07661 12456 21910 10270 20220 30012 40166 52003 60006 82100 91200=
07661,1998-08-15 18:00:00,25,1016.6,0.2,89,23,8000,7.408,,,250,20.6,28.8,,,,,,,,,wg-a,,,,AAXX 15184 07661 12458 42504 10250 20230 30011 40166 53002 60006 81906 91800 333 10288 20206=
07661,1998-08-17 00:00:00,24,1017.6,-1.2,89,22,8000,3.704,,,270,,,,,,,,,,,wg-a,,,,AAXX 17004 07661 12/58 12702 10240 20220 30020 40176 56012 60006 80001 90000=
07661,1998-08-17 06:00:00,22,1017.9,0.6,88,20,8000,3.704,,,70,21.3,24.9,,,,,,,,,wg-a,,,,AAXX 17064 07661 02/58 10702 10220 20200 30022 40179 53006 60006 80001 90600 333 10249 20213 60004=
07661,1998-08-17 12:00:00,30,1016.9,-0.9,49,18,9000,22.224,,,270,,,,0,,,,,,,wg-a,,,,AAXX 17124 07661 02459 22712 10300 20180 30016 40169 58009 60006 82200 91200 333 60007=
07661,1998-08-17 18:00:00,26,1015.2,0.1,74,21,14000,18.52,,,280,22.3,31.7,,,,,,,,,wg-a,,,,AAXX 17184 07661 32/64 22810 10260 20210 39997 40152 53001 80001 91800 333 10317 20223=
07661,1998-08-18 00:00:00,23,1015,-1.2,83,20,10000,22.224,,,300,,,,,,,,,,,wg-a,,,,AAXX 18004 07661 12/60 03012 10230 20200 39994 40150 58012 60006 80000 90000=
07661,1998-08-18 06:00:00,23,1014.8,0.5,94,22,12000,3.704,,,310,22.5,25.4,,,,,,,,,wg-a,,,,AAXX 18064 07661 02362 73102 10230 20220 39992 40148 50005 60006 8467/ 90600 333 10254 20225 60004=
07661,1998-08-18 12:00:00,28,1013.5,-1.5,55,18,0,11.112,,,40,,,,,,,,,,,wg-a,,,,AAXX 18124 07661 12/// /0406 10280 20180 39981 40135 58015 60036 91200=
07661,1998-08-18 18:00:00,24,1012.6,-0.9,78,20,20000,38.892,,,290,21,28,,,,,,,,,wg-a,,,,AAXX 18184 07661 32570 42921 10240 20200 39971 40126 56009 82141 91800 333 10280 20210=
07661,1998-08-19 00:00:00,22,1013.5,-0.3,88,20,0,18.52,,,70,,,,,,,,,,,wg-a,,,,AAXX 19004 07661 12/// /0710 10220 20200 39978 40135 58003 60006 90000=
07661,1998-08-19 06:00:00,22,1014.1,0.8,83,19,20000,11.112,,,60,19.8,24.1,,,,,3,,,,wg-a,,,,AAXX 19064 07661 02/70 00606 10220 20190 39984 40141 53008 60006 80000 90600 333 10241 20198 60034=
07661,1998-08-19 12:00:00,26,1014.7,0.2,74,21,15000,14.816,,,220,,,,,,,,,,,wg-a,,,,AAXX 19124 07661 12465 22208 10260 20210 39993 40147 50002 60006 82200 91200=
07661,1998-08-19 18:00:00,26,1014.2,-0.2,70,20,15000,11.112,,,230,22.2,28.9,,,,,,,,,wg-a,,,,AAXX 19184 07661 12/65 12306 10260 20200 39987 40142 55002 60006 80001 91800 333 10289 20222=
07661,1998-08-20 00:00:00,23,1015.3,-0.6,73,18,15000,11.112,,,70,,,,,,,,,,,wg-a,,,,AAXX 20004 07661 12/65 00706 10230 20180 39996 40153 57006 60006 80000 90000=
07661,1998-08-20 06:00:00,21,1016.1,1,88,19,8000,11.112,,,80,19.5,25.5,,,,,,,,,wg-a,,,,AAXX 20064 07661 02458 50806 10210 20190 30003 40161 53010 60006 81605 90600 333 10255 20195 60004=
07661,1998-08-20 12:00:00,27,1016.2,-0.4,70,21,10000,22.224,,,220,,,,,,,,,,,wg-a,,,,AAXX 20124 07661 12460 32212 10270 20210 30008 40162 58004 60006 83300 91200=
07661,1998-08-20 18:00:00,26,1014,-0.8,58,17,20000,42.596,,79.636,300,20.6,28.9,,,,,,,,,wg-a,,,,AAXX 20184 07661 12/70 13023 10260 20170 39985 40140 55008 60006 80002 91800 333 10289 20206 91043=
07661,1998-08-21 06:00:00,22,1014.4,0.5,60,14,20000,29.632,,,300,22,25.7,,,,,,,,,wg-a,,,,AAXX 21064 07661 02/70 13016 10220 20140 39987 40144 53005 60006 81041 90600 333 10257 20220 60004=
07661,1998-08-21 12:00:00,25,1013.3,-1.3,57,16,25000,50.004,,79.636,280,,,,,,,,,,,wg-a,,,,AAXX 21124 07661 12/75 62827 10250 20160 39978 40133 58013 60006 80001 91200 333 91043=
07661,1998-08-21 18:00:00,23,1011.6,-0.2,57,14,25000,50.004,,100.008,290,22.3,25.5,,,,,,,,,wg-a,,,,AAXX 21184 07661 12875 62927 10230 20140 39960 40116 58002 60006 84042 91800 333 10255 20223 91054=
07661,1998-08-22 00:00:00,24,1012.4,-0.4,50,13,15000,46.3,,79.636,300,,,,,,,,,,,wg-a,,,,AAXX 22004 07661 12/65 03025 10240 20130 39968 40124 56004 60006 80000 90000 333 91043=
07661,1998-08-22 06:00:00,21,1012.1,0.5,73,16,15000,61.116,,90.748,290,20,25,,,,,,,,,wg-a,,,,AAXX 22064 07661 02565 32933 10210 20160 39964 40121 53005 60006 81140 90600 333 10250 20200 60004 91049=
07661,1998-08-22 12:00:00,25,1010,-1.4,61,17,35000,75.932,,107.416,300,,,,,,,,,,,wg-a,,,,AAXX 22124 07661 12581 23041 10250 20170 39945 40100 58014 60006 81140 91200 333 91058=
07661,1998-08-22 18:00:00,24,1010.5,0.8,69,18,500,42.596,,103.712,280,20.9,27.3,,,,,,,,,wg-a,,,,AAXX 22184 07661 12500 62823 10240 20180 39950 40105 53008 60006 81249 91800 333 10273 20209 91056=
07661,1998-08-23 00:00:00,23,1011.3,-0.5,65,16,15000,46.3,,75.932,290,,,,,,,,,,,wg-a,,,,AAXX 23004 07661 12/65 32925 10230 20160 39957 40113 58005 60006 81041 90000 333 91041=
07661,1998-08-23 06:00:00,22,1010.7,0.1,69,16,40000,57.412,,,300,21.2,24.2,,,,,,,,,wg-a,,,,AAXX 23064 07661 02582 23031 10220 20160 39951 40107 53001 60006 81108 90600 333 10242 20212 60004=
07661,1998-08-23 12:00:00,28,1009.7,-1.5,48,16,25000,64.82,,94.452,300,,,,,,,,,,,wg-a,,,,AAXX 23124 07661 12/75 03035 10280 20160 39944 40097 58015 60006 80000 91200 333 91051=
07661,1998-08-23 18:00:00,28,1010.8,0,37,12,40000,38.892,,83.34,300,22.2,31.6,,,,,,,,,wg-a,,,,AAXX 23184 07661 12/82 13021 10280 20120 39954 40108 50000 60006 80001 91800 333 10316 20222 91045=
07661,1998-08-24 00:00:00,23,1013,0.3,41,9,15000,14.816,,61.116,310,,,,,,,,,,,wg-a,,,,AAXX 24004 07661 12/65 03108 10230 20090 39973 40130 50003 60006 80000 90000 333 91033=
07661,1998-08-24 06:00:00,21,1012.9,0.3,53,11,40000,14.816,,,300,20.2,28.1,,,,,,,,,wg-a,,,,AAXX 24064 07661 02/82 03008 10210 20110 39971 40129 53003 60006 80000 90600 333 10281 20202 60004=
07661,1998-08-24 12:00:00,25,1011.9,-0.9,50,14,35000,46.3,,96.304,280,,,,,,,,,,,wg-a,,,,AAXX 24124 07661 12/81 02825 10250 20140 39964 40119 58009 60006 80000 91200 333 91052=
07661,1998-08-24 18:00:00,23,1011.1,-0.2,61,15,25000,35.188,,96.304,300,20.6,26,,,,,,,,,wg-a,,,,AAXX 24184 07661 12/75 33019 10230 20150 39955 40111 57002 60006 83042 91800 333 10260 20206 91052=
07661,1998-08-25 00:00:00,23,1012.9,0.1,47,11,15000,50.004,,,300,,,,,,,,,,,wg-a,,,,AAXX 25004 07661 12/65 03027 10230 20110 39972 40129 50001 60006 80000 90000=
07661,1998-08-25 06:00:00,18,1013.2,0.6,59,10,500,35.188,,83.34,300,17.8,25.7,,,,,,,,,wg-a,,,,AAXX 25064 07661 02/00 03019 10180 20100 39973 40132 53006 60006 80000 90600 333 10257 20178 60004 91045=
07661,1998-08-25 12:00:00,26,1015.3,1,45,13,35000,25.928,,,290,,,,,,,,,,,wg-a,,,,AAXX 25124 07661 12681 42914 10260 20130 39998 40153 51010 60006 82440 91200=
07661,1998-08-25 18:00:00,22,1014.3,-0.7,50,11,500,31.484,,,280,18,28.2,,,,,,,,,wg-a,,,,AAXX 25184 07661 12/00 02817 10220 20110 39986 40143 56007 60006 80000 91800 333 10282 20180=
07661,1998-08-26 00:00:00,19,1015.6,0.1,64,12,20000,14.816,,,310,,,,,,,,,,,wg-a,,,,AAXX 26004 07661 12/70 03108 10190 20120 39997 40156 50001 60006 80000 90000=
07661,1998-08-26 06:00:00,21,1015.3,0.3,49,10,500,7.408,,,80,18.5,22.2,,,,,,,,,wg-a,,,,AAXX 26064 07661 02/00 00804 10210 20100 39995 40153 53003 60006 80000 90600 333 10222 20185 60004=
07661,1998-08-26 12:00:00,26,1014.9,-0.6,48,14,0,14.816,,,220,,,,,,,,,,,wg-a,,,,AAXX 26124 07661 12/// /2208 10260 20140 39994 40149 58006 60006 91200=
07661,1998-08-26 18:00:00,21,1012.3,-1.2,64,14,20000,38.892,,,290,20.5,27.9,,,,,,,,,wg-a,,,,AAXX 26184 07661 12/70 12921 10210 20140 39965 40123 57012 60006 80002 91800 333 10279 20205=
07661,1998-08-27 00:00:00,24,1011.3,-2,50,13,15000,29.632,,72.228,290,,,,,,,,,,,wg-a,,,,AAXX 27004 07661 12/65 02916 10240 20130 39957 40113 56020 60006 80000 90000 333 91039=
07661,1998-08-27 06:00:00,20,1010.4,-0.2,78,16,20000,18.52,,,300,18.6,24.1,,,,,,,,,wg-a,,,,AAXX 27064 07661 02/70 63010 10200 20160 39946 40104 56002 60006 84032 90600 333 10241 20186 60004=
07661,1998-08-27 12:00:00,27,1007.8,-1.8,39,12,25000,42.596,,68.524,290,,,,,,,,,,,wg-a,,,,AAXX 27124 07661 12/75 12923 10270 20120 39924 40078 58018 60006 80001 91200 333 91037=
07661,1998-08-27 18:00:00,27,1005.4,-0.3,21,3,25000,42.596,,,310,19.7,30.4,,,,,,,,,wg-a,,,,AAXX 27184 07661 12/75 63123 10270 20030 39900 40054 58003 60006 86072 91800 333 10304 20197=
07661,1998-08-28 00:00:00,20,1006.2,-0.2,40,6,15000,18.52,,72.228,290,,,,,,,,,,,wg-a,,,,AAXX 28004 07661 12/65 /2910 10200 20060 39905 40062 55002 60006 90000 333 91039=
07661,1998-08-28 06:00:00,16,1006.2,0.9,59,8,20000,25.928,,,290,15.7,26.9,,,,,,,,,wg-a,,,,AAXX 28064 07661 02570 32914 10160 20080 39903 40062 53009 60006 81102 90600 333 10269 20157 60004=
07661,1998-08-28 12:00:00,24,1008.5,1.2,41,10,20000,25.928,,,290,,,,,,,,,,,wg-a,,,,AAXX 28124 07661 12570 42914 10240 20100 39930 40085 51012 60006 84200 91200=
07661,1998-08-28 18:00:00,22,1011.1,0.3,57,13,20000,11.112,,,260,16.2,24.8,,,,,,,,,wg-a,,,,AAXX 28184 07661 12870 22606 10220 20130 39954 40111 53003 60006 82030 91800 333 10248 20162=
07661,1998-08-29 00:00:00,17,1012.5,-0.3,77,13,10000,14.816,,,80,,,,,,,,,,,wg-a,,,,AAXX 29004 07661 12/60 00808 10170 20130 39965 40125 58003 60006 80000 90000=
07661,1998-08-29 06:00:00,17,1013,0.7,63,10,20000,22.224,,,70,15.6,21.9,,,,,,,,,wg-a,,,,AAXX 29064 07661 02470 10712 10170 20100 39970 40130 53007 60006 81600 90600 333 10219 20156 60004=
07661,1998-08-29 12:00:00,24,1015.2,0.5,50,13,25000,18.52,,,140,,,,,,,,,,,wg-a,,,,AAXX 29124 07661 12575 31410 10240 20130 39996 40152 50005 60006 82205 91200=
07661,1998-08-29 18:00:00,21,1015.5,0.2,60,13,25000,22.224,,,290,17.2,24.8,,,,,,,,,wg-a,,,,AAXX 29184 07661 12/75 32912 10210 20130 39997 40155 53002 60006 80002 91800 333 10248 20172=
07661,1998-08-30 00:00:00,19,1017.1,0.5,60,11,25000,14.816,,,290,,,,,,,,,,,wg-a,,,,AAXX 30004 07661 12/75 02908 10190 20110 30011 40171 50005 60006 80000 90000=
07661,1998-08-30 06:00:00,18,1017.9,1,64,11,500,11.112,,,80,14.7,20.6,,,,,,,,,wg-a,,,,AAXX 30064 07661 02/00 40806 10180 20110 30019 40179 53010 60006 80001 90600 333 10206 20147 60004=
07661,1998-08-30 12:00:00,24,1018.4,0,57,15,500,18.52,,,210,,,,,,,,,,,wg-a,,,,AAXX 30124 07661 12500 32110 10240 20150 30027 40184 50000 60006 81205 91200=
07661,1998-08-30 18:00:00,20,1017.4,-0.3,68,14,500,14.816,,,280,17.7,24.6,,,,,,,,,wg-a,,,,AAXX 30184 07661 12/00 62808 10200 20140 30015 40174 58003 60006 80004 91800 333 10246 20177=
07661,1998-08-31 00:00:00,19,1017.3,-0.6,56,10,500,11.112,,,310,,,,,,,,,,,wg-a,,,,AAXX 31004 07661 12800 53106 10190 20100 30014 40173 58006 60006 83052 90000=
07661,1998-08-31 06:00:00,19,1016.8,0.5,68,13,25000,3.704,,,80,17,20.2,,,,,,,,,wg-a,,,,AAXX 31064 07661 02875 80802 10190 20130 30009 40168 53005 60006 88070 90600 333 10202 20170 60004=
07661,1998-09-01 06:00:00,19,1017.7,1.6,78,15,15000,14.816,,,80,,,,,,,,,,,wg-a,,,,AAXX 01064 07661 32465 40808 10190 20150 30018 40177 53016 81442 90600=
07661,1998-09-01 12:00:00,26,1017.2,-0.3,65,19,20000,18.52,,,110,,,,,,,,,,,wg-a,,,,AAXX 01124 07661 12/70 51110 10260 20190 30017 40172 55003 60006 80002 91200=
07661,1998-09-01 18:00:00,22,1017.5,0.4,83,19,20000,22.224,,,90,18.5,25.7,,,,,,,,,wg-a,,,,AAXX 01184 07661 12/70 30912 10220 20190 30018 40175 51004 60006 80009 91800 333 10257 20185=
07661,1998-09-02 00:00:00,21,1017.3,-0.4,83,18,15000,29.632,,,70,,,,,,,,,,,wg-a,,,,AAXX 02004 07661 12/65 10716 10210 20180 30015 40173 58004 60006 80008 90000=
07661,1998-09-02 06:00:00,21,1016.9,-0,83,18,15000,31.484,,,70,20.2,21.9,,,,,,,,,wg-a,,,,AAXX 02064 07661 02/65 20717 10210 20180 30011 40169 55000 60006 80009 90600 333 10219 20202 60004=
07661,1998-09-02 18:00:00,24,1015.4,0.1,65,17,15000,29.632,,61.116,80,21.1,26.4,,,,,,,,,wg-a,,,,AAXX 02184 07661 12/65 60816 10240 20170 39998 40154 50001 60006 80006 91800 333 10264 20211 91033=
07661,1998-09-03 00:00:00,22,1015.7,-0.3,69,16,15000,29.632,,,70,,,,,,,,,,,wg-a,,,,AAXX 03004 07661 12/65 40716 10220 20160 30000 40157 58003 60006 83032 90000=
07661,1998-09-03 06:00:00,21,1016.1,-0.7,73,16,25000,11.112,,,60,20.4,24.1,,,,,,,,,wg-a,,,,AAXX 03064 07661 02675 60606 10210 20160 30003 40161 55007 60006 84260 90600 333 10241 20204 60004=
07661,1998-09-03 12:00:00,28,1014.8,-1.9,55,18,17000,29.632,,,280,,,,,,,,,,,wg-a,,,,AAXX 03124 07661 12/67 72816 10280 20180 39994 40148 58019 60006 82039 91200=
07661,1998-09-03 18:00:00,24,1013.7,-0.1,74,19,15000,29.632,,57.412,300,20.7,28.3,,,,,,,,,wg-a,,,,AAXX 03184 07661 12/65 43016 10240 20190 39981 40137 55001 60006 80004 91800 333 10283 20207 91031=
07661,1998-09-04 00:00:00,22,1013.8,-0.2,78,18,14000,11.112,,,360,,,,,,,,,,,wg-a,,,,AAXX 04004 07661 12/64 43606 10220 20180 39981 40138 58002 60006 80002 90000=
07661,1998-09-04 06:00:00,20,1013.2,-0,94,19,8000,11.112,,,70,20.3,23.6,,,,,,,,,wg-a,,,,AAXX 04064 07661 02858 60706 10200 20190 39975 40132 55000 60006 85032 90600 333 10236 20203 60004=
07661,1998-09-04 12:00:00,26,1012.6,-0.9,74,21,0,14.816,,,200,,,,,,,,,,,wg-a,,,,AAXX 04124 07661 12/// /2008 10260 20210 39972 40126 56009 60006 91200=
07661,1998-09-04 18:00:00,22,1010.3,-1.6,88,20,8000,11.112,,,120,20.4,26.4,,,,,,,,,wg-a,,,,AAXX 04184 07661 12458 61206 10220 20200 39947 40103 56016 60006 81632 91800 333 10264 20204=
07661,1998-09-05 00:00:00,23,1005.8,-3,100,23,0,42.596,,,210,,,,1,,,,,,,wg-a,,,,AAXX 05004 07661 02/// /2123 10230 20230 39903 40058 58030 60016 90000 333 60017=
07661,1998-09-05 06:00:00,20,1008.6,1.3,64,13,0,50.004,,,300,19.8,22.9,,,,,1,,,,wg-a,,,,AAXX 05064 07661 12/// /3027 10200 20130 39929 40086 53013 60014 90600 333 10229 20198=
07661,1998-09-05 12:00:00,25,1008.6,0.1,39,10,35000,57.412,,90.748,300,,,,,,,,,,,wg-a,,,,AAXX 05124 07661 12581 53031 10250 20100 39931 40086 51001 60006 81206 91200 333 91049=
07661,1998-09-05 18:00:00,24,1009.9,0.5,47,12,500,42.596,,94.452,300,20.1,26.2,,,,,,,,,wg-a,,,,AAXX 05184 07661 12/00 33023 10240 20120 39944 40099 52005 60006 80002 91800 333 10262 20201 91051=
07661,1998-09-06 00:00:00,21,1012.1,-0.1,46,9,20000,35.188,,,300,,,,,,,,,,,wg-a,,,,AAXX 06004 07661 12/70 13019 10210 20090 39963 40121 58001 60006 80002 90000=
07661,1998-09-06 06:00:00,19,1011.5,0.8,56,10,40000,35.188,,,300,18.3,24.1,,,,,,,,,wg-a,,,,AAXX 06064 07661 02/82 13019 10190 20100 39956 40115 52008 60006 81030 90600 333 10241 20183 60004=
07661,1998-09-06 12:00:00,24,1011.3,-0.3,44,11,40000,35.188,,,280,,,,,,,,,,,wg-a,,,,AAXX 06124 07661 12/82 02819 10240 20110 39957 40113 58003 60006 80000 91200=
07661,1998-09-06 18:00:00,21,1009.9,-0.4,64,14,40000,29.632,,,290,18.8,26.4,,,,,,,,,wg-a,,,,AAXX 06184 07661 12/82 22916 10210 20140 39942 40099 55004 60006 80002 91800 333 10264 20188=
07661,1998-09-07 00:00:00,19,1010.2,-0.5,73,14,20000,7.408,,,310,,,,,,,,,,,wg-a,,,,AAXX 07004 07661 12/70 33104 10190 20140 39944 40102 58005 60006 80003 90000=
07661,1998-09-07 12:00:00,19,1007.9,-0.7,100,19,15000,14.816,,,360,,,,2,,,,,,61,wg-a,,,,AAXX 07124 07661 02565 83608 10190 20190 39922 40079 55007 60026 76162 8472/ 91200 333 60027=
07661,1998-09-07 18:00:00,16,1006.2,0.6,100,16,15000,53.708,,,60,,,,,,,,,,91,wg-a,,,,AAXX 07184 07661 32365 80629 10160 20160 39903 40062 50006 79196 889// 91800=
07661,1998-09-08 00:00:00,19,1008.2,-0.4,73,14,15000,14.816,,94.452,310,,,,,,,,,,,wg-a,,,,AAXX 08004 07661 12865 73108 10190 20140 39924 40082 58004 60036 8707/ 90000 333 91051=
07661,1998-09-08 06:00:00,17,1009.2,0.8,88,15,20000,14.816,,,300,16.3,19.3,,,,,25,,,,wg-a,,,,AAXX 08064 07661 12870 33008 10170 20150 39933 40092 52008 60254 83040 90600 333 10193 20163=
07661,1998-09-08 12:00:00,25,1009.9,0.3,54,15,0,25.928,,,280,,,,,,,,,,,wg-a,,,,AAXX 08124 07661 12/// /2814 10250 20150 39944 40099 50003 60006 91200=
07661,1998-09-08 18:00:00,24,1011,1.3,47,12,25000,31.484,,68.524,300,17.2,26.4,,,,,,,,,wg-a,,,,AAXX 08184 07661 12/75 13017 10240 20120 39954 40110 52013 60006 80001 91800 333 10264 20172 91037=
07661,1998-09-09 00:00:00,20,1013.1,0.3,64,13,15000,7.408,,,300,,,,,,,,,,,wg-a,,,,AAXX 09004 07661 12/65 53004 10200 20130 39973 40131 50003 60006 84042 90000=
07661,1998-09-09 06:00:00,19,1014.6,1.2,73,14,20000,18.52,,,70,17.3,23.9,,,,,,,,,wg-a,,,,AAXX 09064 07661 02/70 10710 10190 20140 39987 40146 53012 60006 80001 90600 333 10239 20173 60004=
07661,1998-09-09 12:00:00,24,1015.7,-0.2,78,20,20000,14.816,,,160,,,,,,,,,,,wg-a,,,,AAXX 09124 07661 12670 21608 10240 20200 30001 40157 58002 60006 82200 91200=
07661,1998-09-09 18:00:00,21,1015.2,-0.2,88,19,20000,11.112,,,140,18.7,24.2,,,,,,,,,wg-a,,,,AAXX 09184 07661 12/70 11406 10210 20190 39995 40152 56002 60006 81040 91800 333 10242 20187=
07661,1998-09-10 00:00:00,18,1015.6,-0.6,94,17,17000,18.52,,,90,,,,,,,,,,,wg-a,,,,AAXX 10004 07661 12/67 00910 10180 20170 39997 40156 58006 60006 80000 90000=
07661,1998-09-10 06:00:00,18,1015.6,0.1,83,15,13000,18.52,,,90,16.9,21.4,,,,,,,,,wg-a,,,,AAXX 10064 07661 02463 30910 10180 20150 39996 40156 53001 60006 83610 90600 333 10214 20169 60004=
07661,1998-09-10 12:00:00,24,1015.5,0,78,20,17000,14.816,,,150,,,,,,,,,,,wg-a,,,,AAXX 10124 07661 12567 61508 10240 20200 39999 40155 50000 60006 83201 91200=
07661,1998-09-10 18:00:00,21,1013.1,-0.7,83,18,20000,14.816,,,120,17.6,24.3,,,,,,,,,wg-a,,,,AAXX 10184 07661 12/70 41208 10210 20180 39974 40131 56007 60006 80002 91800 333 10243 20176=
07661,1998-09-11 00:00:00,19,1012.8,-0.9,94,18,0,7.408,,,70,,,,,,,,,,,wg-a,,,,AAXX 11004 07661 12/// /0704 10190 20180 39970 40128 58009 60006 90000=
07661,1998-09-11 06:00:00,18,1010.6,-0.5,94,17,12000,11.112,,,80,17.5,21.3,,,,,,,,,wg-a,,,,AAXX 11064 07661 02362 80806 10180 20170 39948 40106 56005 60006 8472/ 90600 333 10213 20175 60004=
07661,1998-09-11 12:00:00,18,1008.7,-1.3,100,18,12000,22.224,,,70,,,,2,,,,,,21,wg-a,,,,AAXX 11124 07661 02262 80712 10180 20180 39929 40087 58013 60026 72162 887// 91200 333 60027=
07661,1998-09-11 18:00:00,19,1004.6,-2,100,19,12000,22.224,,,280,17.6,19.7,,2,,,,,,60,wg-a,,,,AAXX 11184 07661 12262 82812 10190 20190 39889 40046 56020 60027 76062 887// 91800 333 10197 20176=
07661,1998-09-12 00:00:00,17,1001.1,-1.8,88,15,12000,42.596,,,300,,,,,,,,,,21,wg-a,,,,AAXX 12004 07661 02262 83023 10170 20150 39853 40011 58018 60016 72122 887// 90000 333 61000=
07661,1998-09-12 06:00:00,16,998.8,-1.5,63,9,18000,64.82,,87.044,310,15.3,18.7,,,,,4,,,,wg-a,,,,AAXX 12064 07661 12568 53135 10160 20090 39830 49988 58015 60044 81240 90600 333 10187 20153 91047=
07661,1998-09-12 12:00:00,19,999.3,0.8,46,7,500,68.524,,114.824,300,,,,,,,,,,,wg-a,,,,AAXX 12124 07661 12500 23037 10190 20070 39836 49993 53008 60006 82100 91200 333 91062=
07661,1998-09-12 18:00:00,18,1000,1.4,45,6,35000,68.524,,118.528,300,15.5,19.6,,,,,,,,,wg-a,,,,AAXX 12184 07661 12581 23037 10180 20060 39842 40000 53014 60006 82100 91800 333 10196 20155 91064=
07661,1998-09-13 00:00:00,15,1001.2,-0.5,67,9,20000,46.3,,90.748,290,,,,,,,,,,,wg-a,,,,AAXX 13004 07661 12570 12925 10150 20090 39853 40012 58005 60006 81100 90000 333 91049=
07661,1998-09-13 06:00:00,16,1000.2,0.1,68,10,25000,50.004,,75.932,300,14.9,17.5,,0,,,,,,21,wg-a,,,,AAXX 13064 07661 02575 53027 10160 20100 39844 40002 53001 60004 72161 85200 90600 333 10175 20149 60007 91041=
07661,1998-09-13 12:00:00,17,1000.4,0.7,42,4,500,75.932,,111.12,310,,,,,,,,,,,wg-a,,,,AAXX 13124 07661 12400 33141 10170 20040 39846 40004 53007 60006 82111 91200 333 91060=
07661,1998-09-13 18:00:00,16,1000.9,-0.3,68,10,0,50.004,,,280,15.1,18.3,,,,,,,,,wg-a,,,,AAXX 13184 07661 12/// /2827 10160 20100 39851 40009 58003 60006 91800 333 10183 20151=
07661,1998-09-14 00:00:00,14,1003.5,-0.5,47,3,15000,68.524,,107.416,300,,,,,,,,,,,wg-a,,,,AAXX 14004 07661 12/65 03037 10140 20030 39875 40035 56005 60006 80000 90000 333 91058=
07661,1998-09-14 06:00:00,13,1005.8,1.8,51,3,35000,50.004,,100.008,300,12.9,16.7,,,,,,,,,wg-a,,,,AAXX 14064 07661 02581 23027 10130 20030 39897 40058 53018 60006 81135 90600 333 10167 20129 60004 91054=
07661,1998-09-14 12:00:00,18,1005.9,1.2,42,5,40000,50.004,,103.712,320,,,,,,,,,,,wg-a,,,,AAXX 14124 07661 12582 23227 10180 20050 39901 40059 51012 60006 82204 91200 333 91056=
07661,1998-09-14 18:00:00,17,1009,2.4,42,4,35000,31.484,,107.416,300,13.1,19.2,,,,,,,,,wg-a,,,,AAXX 14184 07661 12581 23017 10170 20040 39931 40090 53024 60006 82200 91800 333 10192 20131 91058=
07661,1998-09-15 00:00:00,15,1012.2,1,51,5,35000,42.596,,,300,,,,,,,,,,,wg-a,,,,AAXX 15004 07661 12/81 03023 10150 20050 39961 40122 53010 60006 80000 90000=
07661,1998-09-15 06:00:00,13,1012.5,0.7,67,7,0,46.3,,,300,13.3,17.4,,,,,,,,,wg-a,,,,AAXX 15064 07661 02/// /3025 10130 20070 39963 40125 51007 60006 90600 333 10174 20133 60004=
07661,1998-09-15 12:00:00,18,1010.2,-2.4,42,5,35000,90.748,,118.528,310,,,,,,,,,,,wg-a,,,,AAXX 15124 07661 12781 23149 10180 20050 39943 40102 58024 60006 82140 91200 333 91064=
07661,1998-09-15 18:00:00,19,1010.4,-1.2,43,6,0,83.34,,,300,13.3,20.4,,,,,,,,,wg-a,,,,AAXX 15184 07661 12/// /3045 10190 20060 39946 40104 55012 60006 91800 333 10204 20133=
07661,1998-09-16 00:00:00,18,1014.2,-0.3,56,9,500,46.3,,100.008,300,,,,,,,,,,,wg-a,,,,AAXX 16004 07661 12600 33025 10180 20090 39982 40142 58003 60006 83140 90000 333 91054=
07661,1998-09-16 06:00:00,16,1013.5,0.6,72,11,500,35.188,,72.228,280,16.2,19.1,,,,,,,,,wg-a,,,,AAXX 16064 07661 02/00 32819 10160 20110 39975 40135 50006 60006 81041 90600 333 10191 20162 60004 91039=
07661,1998-09-16 12:00:00,20,1012.4,-0.8,73,15,0,42.596,,,280,,,,,,,,,,,wg-a,,,,AAXX 16124 07661 12/// /2823 10200 20150 39966 40124 56008 60006 91200=
07661,1998-09-16 18:00:00,19,1010.2,-0.1,68,13,25000,42.596,,90.748,300,16.1,21.6,,,,,,,,,wg-a,,,,AAXX 16184 07661 12675 33023 10190 20130 39944 40102 58001 60006 81141 91800 333 10216 20161 91049=
07661,1998-09-17 00:00:00,18,1009.4,-0.9,59,10,15000,35.188,,68.524,300,,,,,,,,,,,wg-a,,,,AAXX 17004 07661 12/65 03019 10180 20100 39935 40094 56009 60006 80000 90000 333 91037=
07661,1998-09-17 06:00:00,16,1008.6,1.2,55,7,20000,57.412,,94.452,300,15.7,19.8,,,,,,,,,wg-a,,,,AAXX 17064 07661 02870 53031 10160 20070 39926 40086 53012 60006 85040 90600 333 10198 20157 60004 91051=
07661,1998-09-17 12:00:00,22,1008.6,1.1,38,7,20000,64.82,,100.008,310,,,,,,,,,,,wg-a,,,,AAXX 17124 07661 12/70 33135 10220 20070 39929 40086 53011 60006 80002 91200 333 91054=
07661,1998-09-17 18:00:00,20,1009.2,1.2,40,6,25000,35.188,,,300,15.7,22.8,,,,,,,,,wg-a,,,,AAXX 17184 07661 12/75 33019 10200 20060 39934 40092 51012 60006 80002 91800 333 10228 20157=
07661,1998-09-18 00:00:00,17,1013.5,1.8,52,7,25000,7.408,,,250,,,,,,,,,,,wg-a,,,,AAXX 18004 07661 12/75 02504 10170 20070 39975 40135 51018 60006 80000 90000=
07661,1998-09-18 06:00:00,16,1016,1.4,51,6,500,7.408,,,20,14.1,19.6,,,,,,,,,wg-a,,,,AAXX 18064 07661 02/00 10204 10160 20060 39999 40160 53014 60006 80001 90600 333 10196 20141 60004=
07661,1998-09-18 12:00:00,23,1018.4,0.3,44,10,35000,14.816,,,210,,,,,,,,,,,wg-a,,,,AAXX 18124 07661 12/81 12108 10230 20100 30026 40184 50003 60006 80004 91200=
07661,1998-09-18 18:00:00,19,1019.5,1,49,8,25000,11.112,,,260,16.2,23.8,,,,,,,,,wg-a,,,,AAXX 18184 07661 12/75 22606 10190 20080 30035 40195 53010 60006 80004 91800 333 10238 20162=
07661,1998-09-19 00:00:00,18,1021.8,0.5,52,8,25000,7.408,,,60,,,,,,,,,,,wg-a,,,,AAXX 19004 07661 12/75 00604 10180 20080 30057 40218 51005 60006 80000 90000=
07661,1998-09-19 06:00:00,15,1023.7,1.5,67,9,25000,14.816,,,80,13.9,19.6,,,,,,,,,wg-a,,,,AAXX 19064 07661 02/75 00808 10150 20090 30074 40237 53015 60006 80000 90600 333 10196 20139 60004=
07661,1998-09-19 12:00:00,24,1025,0.6,47,12,25000,11.112,,,190,,,,,,,,,,,wg-a,,,,AAXX 19124 07661 12775 11906 10240 20120 30092 40250 51006 60006 81100 91200=
07661,1998-09-19 18:00:00,19,1024.6,-0,68,13,25000,0,,,0,15,23.8,,,,,,,,,wg-a,,,,AAXX 19184 07661 12/75 10000 10190 20130 30086 40246 55000 60006 80001 91800 333 10238 20150=
07661,1998-09-20 00:00:00,17,1025.1,-0.1,72,12,15000,14.816,,,50,,,,,,,,,,,wg-a,,,,AAXX 20004 07661 12/65 00508 10170 20120 30089 40251 56001 60006 80000 90000=
07661,1998-09-20 06:00:00,16,1025.5,0.4,77,12,15000,22.224,,,60,14,19.4,,,,,,,,,wg-a,,,,AAXX 20064 07661 02/65 00612 10160 20120 30092 40255 53004 60006 80000 90600 333 10194 20140 60004=
07661,1998-09-20 12:00:00,21,1025,-0.6,56,12,20000,25.928,,,100,,,,,,,,,,,wg-a,,,,AAXX 20124 07661 12570 31014 10210 20120 30091 40250 58006 60006 81201 91200=
07661,1998-09-20 18:00:00,19,1024.8,0.4,68,13,15000,14.816,,,110,15.6,23.3,,,,,,,,,wg-a,,,,AAXX 20184 07661 12/65 31108 10190 20130 30087 40248 53004 60006 83062 91800 333 10233 20156=
07661,1998-09-21 00:00:00,18,1025.2,-0.3,59,10,15000,18.52,,,70,,,,,,,,,,,wg-a,,,,AAXX 21004 07661 12/65 60710 10180 20100 30091 40252 55003 60006 80002 90000=
07661,1998-09-21 06:00:00,15,1024.7,-0.1,72,10,15000,18.52,,,80,15,18.5,,,,,,,,,wg-a,,,,AAXX 21064 07661 02565 20810 10150 20100 30084 40247 55001 60006 82400 90600 333 10185 20150 60004=
07661,1998-09-21 12:00:00,22,1023.6,-0.8,53,12,15000,22.224,,,160,,,,,,,,,,,wg-a,,,,AAXX 21124 07661 12565 21612 10220 20120 30077 40236 57008 60006 82200 91200=
07661,1998-09-21 18:00:00,19,1021.7,-0.3,68,13,15000,7.408,,,250,15.3,23.5,,,,,,,,,wg-a,,,,AAXX 21184 07661 12865 62504 10190 20130 30057 40217 55003 60006 82067 91800 333 10235 20153=
07661,1998-09-22 00:00:00,17,1021.6,-0.5,68,11,15000,14.816,,,60,,,,,,,,,,,wg-a,,,,AAXX 22004 07661 12/65 00608 10170 20110 30055 40216 57005 60006 80000 90000=
07661,1998-09-22 06:00:00,15,1020.9,0.5,77,11,20000,7.408,,,60,14.9,19,,,,,,,,,wg-a,,,,AAXX 22064 07661 02/70 00604 10150 20110 30047 40209 53005 60006 80000 90600 333 10190 20149 60004=
07661,1998-09-22 12:00:00,22,1020.7,-0.6,50,11,25000,22.224,,,90,,,,,,,,,,,wg-a,,,,AAXX 22124 07661 12/75 00912 10220 20110 30048 40207 58006 60006 80000 91200=
07661,1998-09-22 18:00:00,18,1020,-0,77,14,15000,14.816,,,100,14.9,22,,,,,,,,,wg-a,,,,AAXX 22184 07661 12/65 01008 10180 20140 30040 40200 55000 60006 80000 91800 333 10220 20149=
07661,1998-09-23 00:00:00,15,1019.9,-0.7,88,13,15000,14.816,,,80,,,,,,,,,,,wg-a,,,,AAXX 23004 07661 12/65 00808 10150 20130 30037 40199 58007 60006 80000 90000=
07661,1998-09-23 06:00:00,14,1019.5,0.2,94,13,15000,22.224,,,70,13.9,18.4,,,,,,,,,wg-a,,,,AAXX 23064 07661 02/65 00712 10140 20130 30033 40195 53002 60006 80000 90600 333 10184 20139 60004=
07661,1998-09-23 12:00:00,21,1020.2,0.1,69,15,10000,22.224,,,100,,,,,,,,,,,wg-a,,,,AAXX 23124 07661 12560 21012 10210 20150 30043 40202 52001 60006 82200 91200=
07661,1998-09-23 18:00:00,19,1019.4,-0.1,78,15,10000,25.928,,,80,14.4,21.1,,,,,,,,,wg-a,,,,AAXX 23184 07661 12860 30814 10190 20150 30034 40194 56001 60006 83072 91800 333 10211 20144=
07661,1998-09-24 00:00:00,16,1019.2,-0.6,82,13,15000,25.928,,,70,,,,,,,,,,,wg-a,,,,AAXX 24004 07661 12865 30714 10160 20130 30031 40192 58006 60006 83072 90000=
07661,1998-09-24 06:00:00,16,1018.6,-0,82,13,10000,25.928,,,70,15.2,18.6,,,,,,,,,wg-a,,,,AAXX 24064 07661 02860 60714 10160 20130 30025 40186 55000 60006 85042 90600 333 10186 20152 60004=
07661,1998-09-24 12:00:00,21,1018,-0.4,69,15,8000,38.892,,72.228,90,,,,,,,,,,,wg-a,,,,AAXX 24124 07661 12858 70921 10210 20150 30022 40180 58004 60006 8707/ 91200 333 91039=
07661,1998-09-24 18:00:00,20,1015.9,-0.7,60,12,8000,42.596,,68.524,80,16.2,21.6,,,,,,,,,wg-a,,,,AAXX 24184 07661 12/58 60823 10200 20120 30001 40159 58007 60006 86050 91800 333 10216 20162 91037=
07661,1998-09-25 00:00:00,19,1016.6,0.2,73,14,7000,29.632,,75.932,80,,,,,,,,,,,wg-a,,,,AAXX 25004 07661 12/57 50816 10190 20140 30007 40166 50002 60006 85050 90000 333 91041=
07661,1998-09-25 06:00:00,19,1015.6,0.1,73,14,13000,35.188,,68.524,70,18.1,20.4,,,,,,,,,wg-a,,,,AAXX 25064 07661 02/63 60719 10190 20140 39997 40156 53001 60006 86050 90600 333 10204 20181 60004 91037=
07661,1998-09-25 12:00:00,20,1015.4,-0.4,73,15,10000,31.484,,64.82,100,,,,,,,,,,,wg-a,,,,AAXX 25124 07661 12660 51017 10200 20150 39996 40154 58004 60006 82121 91200 333 91035=
07661,1998-09-25 18:00:00,18,1014.6,-1.3,88,16,10000,29.632,,57.412,80,18.1,20.7,,,,,,,,,wg-a,,,,AAXX 25184 07661 12560 80816 10180 20160 39987 40146 56013 60006 848// 91800 333 10207 20181 91031=
07661,1998-09-26 00:00:00,19,1014.4,-0.4,83,16,0,31.484,,,90,,,,,,,,,,,wg-a,,,,AAXX 26004 07661 12/// /0917 10190 20160 39985 40144 55004 60006 90000=
07661,1998-09-26 06:00:00,18,1010.8,-1.6,83,15,10000,46.3,,72.228,70,17.5,18.7,,,,,,,,,wg-a,,,,AAXX 26064 07661 02560 80725 10180 20150 39949 40108 56016 60006 848// 90600 333 10187 20175 60004 91039=
07661,1998-09-26 12:00:00,20,1008.8,-0.5,83,17,14000,35.188,,87.044,70,,,,,,,,,,14,wg-a,,,,AAXX 26124 07661 12564 80719 10200 20170 39931 40088 58005 60016 71462 848// 91200 333 91047=
07661,1998-09-26 18:00:00,19,1007.3,-0.4,94,18,10000,29.632,,75.932,100,17.1,20.6,,,,,,,,,wg-a,,,,AAXX 26184 07661 32360 81016 10190 20180 39916 40073 55004 887// 91800 333 10206 20171 91041=
07661,1998-09-27 00:00:00,19,1008.5,-0.2,100,19,8000,0,,50.004,0,,,,,,,,,,,wg-a,,,,AAXX 27004 07661 12458 50000 10190 20190 39928 40085 58002 60006 8246/ 90000 333 91027=
07661,1998-09-27 06:00:00,19,1006.3,-0.8,100,19,6000,11.112,,,210,18.5,19.5,,,,,1,,,,wg-a,,,,AAXX 27064 07661 02256 82106 10190 20190 39906 40063 56008 60006 886// 90600 333 10195 20185 60014=
07661,1998-09-27 12:00:00,22,1007,-0.2,69,16,18000,14.816,,,210,,,,,,,,,,,wg-a,,,,AAXX 27124 07661 12568 42108 10220 20160 39914 40070 57002 60006 83312 91200=
07661,1998-09-27 18:00:00,20,1008.8,1.7,68,14,20000,38.892,,61.116,290,18.8,24.8,,,,,,,,2,wg-a,,,,AAXX 27184 07661 12670 42921 10200 20140 39930 40088 53017 60006 70291 84362 91800 333 10248 20188 91033=
07661,1998-09-28 00:00:00,18,1009.7,-0.5,68,12,15000,35.188,,68.524,300,,,,,,,,,,,wg-a,,,,AAXX 28004 07661 12/65 13019 10180 20120 39938 40097 58005 60006 80002 90000 333 91037=
07661,1998-09-28 12:00:00,20,1008.5,-0.6,68,14,500,42.596,,68.524,280,,,,,,,,,,,wg-a,,,,AAXX 28124 07661 12500 32823 10200 20140 39928 40085 58006 60006 83340 91200 333 91037=
07661,1998-09-28 18:00:00,19,1007.3,0.2,73,14,20000,42.596,,75.932,290,16.2,20.7,,,,,,,,,wg-a,,,,AAXX 28184 07661 12870 22923 10190 20140 39916 40073 53002 60006 82040 91800 333 10207 20162 91041=
07661,1998-09-29 00:00:00,18,1008.5,-0.1,64,11,15000,38.892,,,300,,,,,,,,,,,wg-a,,,,AAXX 29004 07661 12/65 03021 10180 20110 39927 40085 55001 60006 80000 90000=
07661,1998-09-29 06:00:00,16,1009,0.5,77,12,25000,14.816,,,330,15.4,19.3,,,,,,,,,wg-a,,,,AAXX 29064 07661 02/75 13308 10160 20120 39930 40090 53005 60006 80002 90600 333 10193 20154 60004=
07661,1998-09-29 12:00:00,21,1009.8,-0.3,60,13,20000,25.928,,,290,,,,,,,,,,,wg-a,,,,AAXX 29124 07661 12570 32914 10210 20130 39941 40098 58003 60006 81202 91200=
07661,1998-09-29 18:00:00,18,1010,0.4,73,13,20000,0,,,0,15.4,22.6,,,,,,,,,wg-a,,,,AAXX 29184 07661 12570 70000 10180 20130 39941 40100 52004 60006 874// 91800 333 10226 20154=
07661,1998-09-30 00:00:00,19,1008.4,-1.3,100,19,20000,22.224,,,170,,,,,,,,,,,wg-a,,,,AAXX 30004 07661 12570 61712 10190 20190 39927 40084 58013 60006 84552 90000=
07661,1998-09-30 06:00:00,20,1004.3,-2.2,100,20,6000,42.596,,64.82,180,17.9,19.5,,1,,,1,,,61,wg-a,,,,AAXX 30064 07661 02456 81823 10200 20200 39887 40043 56022 60014 76162 8772/ 90600 333 10195 20179 60017 91035=
07661,1998-09-30 12:00:00,19,1005.5,0.3,88,17,6000,25.928,,64.82,290,,,,,,,,,,16,wg-a,,,,AAXX 30124 07661 12456 72914 10190 20170 39898 40055 51003 60016 71662 8674/ 91200 333 91035=
07661,1998-09-30 18:00:00,18,1006.2,0.9,83,15,14000,42.596,,,290,18.3,20.8,,,,,,,,,wg-a,,,,AAXX 30184 07661 32864 42923 10180 20150 39904 40062 53009 84060 91800 333 10208 20183=
07661,1998-10-01 00:00:00,16,1007.3,-0.1,88,14,15000,18.52,,,300,,,,,,,,,,,wg-a,,,,AAXX 01004 07661 12/65 23010 10160 20140 39914 40073 58001 60006 82040 90000=
07661,1998-10-01 06:00:00,15,1007.1,0.4,77,11,20000,25.928,,,290,15.1,18.3,,,,,,,,,wg-a,,,,AAXX 01064 07661 02/70 42914 10150 20110 39911 40071 53004 60006 84040 90600 333 10183 20151 60004=
07661,1998-10-01 12:00:00,21,1007.7,-0.1,46,9,40000,11.112,,,280,,,,,,,,,,,wg-a,,,,AAXX 01124 07661 12582 52806 10210 20090 39920 40077 58001 60006 82260 91200=
07661,1998-10-01 18:00:00,17,1008.2,0.7,59,9,0,18.52,,,270,15.2,21.7,,,,,,,,,wg-a,,,,AAXX 01184 07661 12/// /2710 10170 20090 39923 40082 53007 60006 91800 333 10217 20152=
07661,1998-10-02 00:00:00,15,1008.3,-0.2,67,9,500,11.112,,,300,,,,,,,,,,,wg-a,,,,AAXX 02004 07661 12/00 03006 10150 20090 39923 40083 58002 60006 80000 90000=
07661,1998-10-02 06:00:00,15,1008.2,0.2,72,10,500,18.52,,,300,14.7,17,,,,,,,,,wg-a,,,,AAXX 02064 07661 02400 53010 10150 20100 39922 40082 53002 60006 83831 90600 333 10170 20147 60004=
07661,1998-10-02 12:00:00,19,1007.7,-0.6,60,11,20000,35.188,,57.412,290,,,,,,,,,,,wg-a,,,,AAXX 02124 07661 02470 52919 10190 20110 39919 40077 58006 61000 83331 91200 333 6100 91031=
07661,1998-10-02 18:00:00,17,1007.9,0.5,68,11,25000,29.632,,,280,15.3,20.1,,,,,,,,,wg-a,,,,AAXX 02184 07661 32475 72816 10170 20110 39920 40079 53005 8683/ 91800 333 10201 20153=
07661,1998-10-03 00:00:00,15,1007.1,-0.9,82,12,25000,25.928,,,310,,,,,,,,,,,wg-a,,,,AAXX 03004 07661 02475 73114 10150 20120 39911 40071 58009 61000 8687/ 90000 333 ////=
07661,1998-10-03 06:00:00,13,1007.4,0.7,94,12,25000,14.816,,,340,13.2,17.4,,,,,,,,,wg-a,,,,AAXX 03064 07661 02475 63408 10130 20120 39913 40074 53007 61000 8587/ 90600 333 10174 20132 ////=
07661,1998-10-03 12:00:00,21,1008,0.2,53,11,25000,29.632,,,310,,,,,,,,,,,wg-a,,,,AAXX 03124 07661 12575 33116 10210 20110 39923 40080 50002 60006 83200 91200=
07661,1998-10-03 18:00:00,17,1008.9,1,52,7,20000,35.188,,72.228,310,13.4,21.3,,,,,,,,,wg-a,,,,AAXX 03184 07661 12/70 13119 10170 20070 39930 40089 52010 60006 80002 91800 333 10213 20134 91039=
07661,1998-10-04 00:00:00,15,1008.3,-1,48,4,20000,46.3,,,300,,,,,,,,,,,wg-a,,,,AAXX 04004 07661 12/70 33025 10150 20040 39923 40083 58010 60006 83040 90000=
07661,1998-10-04 06:00:00,15,1007.8,0.1,63,8,20000,22.224,,,280,15,16.9,,,,,,,,,wg-a,,,,AAXX 04064 07661 02/70 72812 10150 20080 39918 40078 53001 60006 87070 90600 333 10169 20150 60004=
07661,1998-10-04 12:00:00,15,1007.8,-0.4,72,10,20000,11.112,,,290,,,,,,,,,,21,wg-a,,,,AAXX 04124 07661 02670 82906 10150 20100 39918 40078 58004 61000 72162 88700 91200 333 6100=
07661,1998-10-04 18:00:00,14,1005.3,-1,94,13,10000,22.224,,,50,13.5,16.3,,2,,,,,,61,wg-a,,,,AAXX 04184 07661 12660 80512 10140 20130 39893 40053 57010 60027 76162 88700 91800 333 10163 20135=
07661,1998-10-05 00:00:00,13,1003.7,-1.2,100,13,500,29.632,,,60,,,,2,,,,,,61,wg-a,,,,AAXX 05004 07661 02600 80616 10130 20130 39877 40037 58012 60126 76162 88700 90000 333 60027=
07661,1998-10-05 06:00:00,15,1003,-0,88,13,20000,14.816,,,70,13.1,14.5,,,,,14,,,,wg-a,,,,AAXX 05064 07661 12570 80708 10150 20130 39871 40030 55000 60144 8/800 90600 333 10145 20131=
07661,1998-10-05 12:00:00,18,1004.4,0.1,83,15,20000,7.408,,,110,,,,,,,,,,,wg-a,,,,AAXX 05124 07661 12470 71104 10180 20150 39887 40044 51001 60006 84792 91200=
07661,1998-10-05 18:00:00,16,1004.8,0.2,94,15,14000,22.224,,,60,14.5,18.9,,,,,,,,,wg-a,,,,AAXX 05184 07661 12464 70612 10160 20150 39889 40048 53002 60006 8372/ 91800 333 10189 20145=
07661,1998-10-06 00:00:00,15,1002.6,-2.4,100,15,14000,31.484,,,60,,,,6,,,,,,95,wg-a,,,,AAXX 06004 07661 02464 80617 10150 20150 39867 40026 58024 60066 79596 889// 90000 333 60067=
07661,1998-10-06 06:00:00,13,1003.9,2.7,94,12,24000,18.52,,79.636,290,12.7,16.8,,0,,,42,,,1,wg-a,,,,AAXX 06064 07661 02874 42910 10130 20120 39879 40039 53027 60424 70196 84060 90600 333 10168 20127 60007 91043=
07661,1998-10-06 12:00:00,18,1007.7,0.8,77,14,35000,14.816,,,210,,,,,,,,,,,wg-a,,,,AAXX 06124 07661 12481 42108 10180 20140 39919 40077 50008 60006 82232 91200=
07661,1998-10-06 18:00:00,15,1009.9,1.1,82,12,20000,14.816,,,280,13.2,20.2,,,,,,,,,wg-a,,,,AAXX 06184 07661 12570 22808 10150 20120 39939 40099 53011 60006 81260 91800 333 10202 20132=
07661,1998-10-07 00:00:00,13,1010.4,-0.3,100,13,20000,11.112,,,320,,,,,,,,,,,wg-a,,,,AAXX 07004 07661 12570 23206 10130 20130 39943 40104 55003 60006 81260 90000=
07661,1998-10-07 06:00:00,13,1009.4,0.1,94,12,20000,11.112,,,320,12.7,15.1,,,,,,,,,wg-a,,,,AAXX 07064 07661 02770 23206 10130 20120 39933 40094 53001 60006 82500 90600 333 10151 20127 60004=
07661,1998-10-07 12:00:00,18,1008.9,-0.8,68,12,15000,25.928,,,290,,,,,,,,,,,wg-a,,,,AAXX 07124 07661 12665 52914 10180 20120 39930 40089 58008 60006 83302 91200=
07661,1998-10-07 18:00:00,15,1009.9,1.1,67,9,20000,35.188,,,300,12.8,19.4,,,,,,,,,wg-a,,,,AAXX 07184 07661 12670 43019 10150 20090 39938 40099 53011 60006 81262 91800 333 10194 20128=
07661,1998-10-08 00:00:00,12,1010.6,0.3,82,9,0,18.52,,,290,,,,,,,,,,,wg-a,,,,AAXX 08004 07661 12/// /2910 10120 20090 39944 40106 53003 60006 90000=
07661,1998-10-08 06:00:00,11,1010.9,0.3,82,8,20000,7.408,,,290,11.4,14.9,,,,,,,,,wg-a,,,,AAXX 08064 07661 02670 42904 10110 20080 39946 40109 53003 60006 8236/ 90600 333 10149 20114 60004=
07661,1998-10-08 12:00:00,15,1014.3,1.2,88,13,15000,7.408,,,290,,,,0,,,,,,21,wg-a,,,,AAXX 08124 07661 02465 82904 10150 20130 39982 40143 50012 60006 72161 8596/ 91200 333 60007=
07661,1998-10-08 18:00:00,15,1016.2,1.3,72,10,20000,11.112,,,310,11.3,18.5,,,,,,,,13,wg-a,,,,AAXX 08184 07661 32570 53106 10150 20100 30001 40162 53013 71392 83966 91800 333 10185 20113=
07661,1998-10-09 00:00:00,13,1018.3,0.2,94,12,20000,7.408,,,50,,,,,,,,,,,wg-a,,,,AAXX 09004 07661 12670 20504 10130 20120 30020 40183 52002 60006 81110 90000=
07661,1998-10-09 06:00:00,13,1019.4,1,94,12,24000,14.816,,,60,13,14.9,,2,,,4,,,2,wg-a,,,,AAXX 09064 07661 02474 80608 10130 20120 30031 40194 53010 60044 70296 8596/ 90600 333 10149 20130 60027=
07661,1998-10-09 12:00:00,17,1020.9,-0,82,14,25000,25.928,,,80,,,,,,,,,,,wg-a,,,,AAXX 09124 07661 12375 70814 10170 20140 30048 40209 54000 60006 879// 91200=
07661,1998-10-09 18:00:00,13,1021.2,0.2,94,12,12000,22.224,,,60,13.1,18,,3,,,,,,17,wg-a,,,,AAXX 09184 07661 12362 50612 10130 20120 30049 40212 53002 60037 71796 8496/ 91800 333 10180 20131=
07661,1998-10-10 00:00:00,12,1021.9,-0.2,94,11,500,14.816,,,310,,,,,,,,,,,wg-a,,,,AAXX 10004 07661 12400 23108 10120 20110 30055 40219 58002 60006 82200 90000=
07661,1998-10-10 06:00:00,11,1021.3,-0.1,100,11,500,11.112,,,300,11,13.6,,0,,,,,,,wg-a,,,,AAXX 10064 07661 12400 23006 10110 20110 30049 40213 55001 60007 82200 90600 333 10136 20110=
07661,1998-10-10 12:00:00,17,1021.6,-0.7,59,9,35000,22.224,,,280,,,,,,,,,,,wg-a,,,,AAXX 10124 07661 12581 12812 10170 20090 30055 40216 58007 60006 81200 91200=
07661,1998-10-10 18:00:00,14,1020.5,-0.2,88,12,25000,18.52,,,290,10.8,18.3,,,,,,,,,wg-a,,,,AAXX 10184 07661 12575 32910 10140 20120 30043 40205 55002 60006 83200 91800 333 10183 20108=
07661,1998-10-11 00:00:00,14,1020.5,-0.5,88,12,25000,11.112,,,300,,,,,,,,,,,wg-a,,,,AAXX 11004 07661 12475 53006 10140 20120 30042 40205 58005 60006 8/200 90000=
07661,1998-10-11 06:00:00,14,1018.3,-0.8,88,12,15000,29.632,,,290,13.1,14.2,,,,,,,,,wg-a,,,,AAXX 11064 07661 02565 32916 10140 20120 30021 40183 56008 60006 82240 90600 333 10142 20131 60004=
07661,1998-10-11 12:00:00,18,1016.9,-1.4,64,11,15000,35.188,,61.116,290,,,,,,,,,,,wg-a,,,,AAXX 11124 07661 12565 22919 10180 20110 30009 40169 58014 60006 81204 91200 333 91033=
07661,1998-10-11 18:00:00,17,1014.7,-0.6,52,7,25000,50.004,,72.228,310,13.9,19.3,,,,,,,,,wg-a,,,,AAXX 11184 07661 12875 63127 10170 20070 39987 40147 58006 60006 83045 91800 333 10193 20139 91039=
07661,1998-10-12 00:00:00,17,1012.2,-0.8,59,9,25000,57.412,,94.452,300,,,,,,,,,,,wg-a,,,,AAXX 12004 07661 12875 63031 10170 20090 39962 40122 58008 60006 83045 90000 333 91051=
07661,1998-10-12 06:00:00,17,1009.3,0.3,68,11,35000,61.116,,103.712,310,15.9,17.5,,,,,,,,,wg-a,,,,AAXX 12064 07661 02881 53133 10170 20110 39934 40093 50003 60006 84022 90600 333 10175 20159 60004 91056=
07661,1998-10-12 12:00:00,21,1009.9,-0.9,49,10,500,42.596,,,280,,,,,,,,,,,wg-a,,,,AAXX 12124 07661 12600 22823 10210 20100 39942 40099 56009 60006 81202 91200=
07661,1998-10-12 18:00:00,16,1010.2,0.4,51,6,500,61.116,,90.748,310,15.7,22.4,,,,,,,,,wg-a,,,,AAXX 12184 07661 12500 33133 10160 20060 39942 40102 53004 60006 81142 91800 333 10224 20157 91049=
07661,1998-10-13 00:00:00,15,1014.2,2.4,48,4,20000,11.112,,100.008,350,,,,,,,,,,,wg-a,,,,AAXX 13004 07661 12/70 03506 10150 20040 39981 40142 53024 60006 80000 90000 333 91054=
07661,1998-10-13 06:00:00,12,1017.4,1.6,54,3,35000,3.704,,,300,12.3,15.7,,,,,,,,,wg-a,,,,AAXX 13064 07661 02/81 13002 10120 20030 30011 40174 53016 60006 80005 90600 333 10157 20123 60004=
07661,1998-10-13 12:00:00,19,1020.2,1,49,8,35000,7.408,,,200,,,,,,,,,,,wg-a,,,,AAXX 13124 07661 12/81 32004 10190 20080 30042 40202 51010 60006 80001 91200=
07661,1998-10-13 18:00:00,17,1021.4,0.8,52,7,35000,11.112,,,290,12.4,20.7,,,,,,,,,wg-a,,,,AAXX 13184 07661 12/81 12906 10170 20070 30052 40214 53008 60006 80001 91800 333 10207 20124=
07661,1998-10-14 00:00:00,13,1022.2,-0,72,8,35000,18.52,,,80,,,,,,,,,,,wg-a,,,,AAXX 14004 07661 12/81 10810 10130 20080 30058 40222 55000 60006 80002 90000=
07661,1998-10-14 06:00:00,12,1022.7,0.9,76,8,25000,22.224,,,70,11.6,16.8,,,,,,,,,wg-a,,,,AAXX 14064 07661 02875 30712 10120 20080 30063 40227 53009 60006 83040 90600 333 10168 20116 60004=
07661,1998-10-14 12:00:00,19,1024.2,0.2,60,11,35000,11.112,,,220,,,,,,,,,,,wg-a,,,,AAXX 14124 07661 12681 12206 10190 20110 30081 40242 50002 60006 81101 91200=
07661,1998-10-14 18:00:00,16,1024.3,0.5,72,11,20000,18.52,,,290,11.9,19.9,,,,,,,,,wg-a,,,,AAXX 14184 07661 12770 12910 10160 20110 30081 40243 53005 60006 81100 91800 333 10199 20119=
07661,1998-10-15 00:00:00,14,1024.6,-0.3,72,9,25000,3.704,,,60,,,,,,,,,,,wg-a,,,,AAXX 15004 07661 12/75 00602 10140 20090 30083 40246 58003 60006 80000 90000=
07661,1998-10-15 06:00:00,12,1023.8,0.2,100,12,14000,18.52,,,80,11.7,16,,,,,,,,,wg-a,,,,AAXX 15064 07661 02464 80810 10120 20120 30074 40238 52002 60006 83620 90600 333 10160 20117 60004=
07661,1998-10-15 12:00:00,18,1023.6,-0.9,83,15,15000,11.112,,,180,,,,,,,,,,,wg-a,,,,AAXX 15124 07661 12565 61806 10180 20150 30075 40236 58009 60006 84503 91200=
07661,1998-10-15 18:00:00,16,1023,0.5,94,15,8000,14.816,,,290,12.3,19.8,,,,,,,,,wg-a,,,,AAXX 15184 07661 12558 82908 10160 20150 30068 40230 53005 60006 88500 91800 333 10198 20123=
07661,1998-10-16 00:00:00,14,1023.4,0,100,14,8000,3.704,,,50,,,,,,,,,,,wg-a,,,,AAXX 16004 07661 12/58 10502 10140 20140 30071 40234 50000 60006 80001 90000=
07661,1998-10-16 06:00:00,12,1023.1,0.4,100,12,8000,14.816,,,80,11.7,15.7,,0,,,,,,,wg-a,,,,AAXX 16064 07661 02558 40808 10120 20120 30067 40231 52004 60004 84501 90600 333 10157 20117 60007=
07661,1998-10-16 12:00:00,18,1023.6,-0.6,83,15,20000,11.112,,,160,,,,,,,,,,,wg-a,,,,AAXX 16124 07661 12470 81606 10180 20150 30075 40236 58006 60006 886// 91200=
07661,1998-10-16 18:00:00,17,1022.2,0.1,82,14,20000,11.112,,,150,11.8,18.7,,,,,,,,,wg-a,,,,AAXX 16184 07661 12470 81506 10170 20140 30061 40222 53001 60006 886// 91800 333 10187 20118=
07661,1998-10-17 00:00:00,16,1021.9,-0.8,94,15,15000,14.816,,,70,,,,,,,,,,,wg-a,,,,AAXX 17004 07661 12465 40708 10160 20150 30057 40219 58008 60006 84600 90000=
07661,1998-10-17 06:00:00,14,1020.6,-0.2,100,14,8000,22.224,,,70,13.8,17.1,,,,,,,,,wg-a,,,,AAXX 17064 07661 02458 50712 10140 20140 30043 40206 57002 60006 85600 90600 333 10171 20138 60004=
07661,1998-10-17 12:00:00,19,1019.8,-0.9,78,15,8000,14.816,,,100,,,,,,,,,,,wg-a,,,,AAXX 17124 07661 12358 61008 10190 20150 30038 40198 58009 60006 86761 91200=
07661,1998-10-17 18:00:00,17,1018.3,0.1,94,16,8000,18.52,,,80,13.8,19,,,,,,,,,wg-a,,,,AAXX 17184 07661 12358 80810 10170 20160 30023 40183 53001 60006 887// 91800 333 10190 20138=
07661,1998-10-18 00:00:00,17,1018.7,-0.2,88,15,8000,11.112,,,60,,,,,,,,,,,wg-a,,,,AAXX 18004 07661 12358 70606 10170 20150 30026 40187 56002 60006 8672/ 90000=
07661,1998-10-18 06:00:00,16,1017.7,-0.2,94,15,10000,14.816,,,270,15.5,17.3,,,,,,,,,wg-a,,,,AAXX 18064 07661 02/60 42708 10160 20150 30016 40177 55002 60006 83032 90600 333 10173 20155 60004=
07661,1998-10-18 12:00:00,20,1016.7,-1.3,78,16,8000,22.224,,,270,,,,,,,,,,,wg-a,,,,AAXX 18124 07661 12258 32712 10200 20160 30009 40167 58013 60006 81630 91200=
07661,1998-10-19 06:00:00,13,1011,-1.2,100,13,18000,18.52,,,70,12.5,17.5,,3,,,13,,,21,wg-a,,,,AAXX 19064 07661 02568 80710 10130 20130 39949 40110 56012 60134 72162 8672/ 90600 333 10175 20125 60037=
07661,1998-10-19 12:00:00,17,1010.3,-0.9,77,13,20000,22.224,,,290,,,,,,,,,,,wg-a,,,,AAXX 19124 07661 12470 62912 10170 20130 39944 40103 58009 60006 83671 91200=
07661,1998-10-19 18:00:00,14,1010.7,0.8,63,7,22000,31.484,,,290,13,18.5,,,,,,,,,wg-a,,,,AAXX 19184 07661 12872 42917 10140 20070 39946 40107 52008 60006 83042 91800 333 10185 20130=
07661,1998-10-20 00:00:00,13,1013.2,0.8,54,4,20000,18.52,,,290,,,,,,,,,,,wg-a,,,,AAXX 20004 07661 12/70 02910 10130 20040 39970 40132 52008 60006 80000 90000=
07661,1998-10-20 06:00:00,14,1014.3,1.1,51,4,20000,11.112,,,130,12.6,14.1,,,,,,,,,wg-a,,,,AAXX 20064 07661 02/70 01306 10140 20040 39981 40143 53011 60006 80000 90600 333 10141 20126 60004=
07661,1998-10-20 12:00:00,18,1017.3,0.6,42,5,25000,11.112,,,190,,,,,,,,,,,wg-a,,,,AAXX 20124 07661 12/75 01906 10180 20050 30013 40173 51006 60006 80000 91200=
07661,1998-10-20 18:00:00,17,1019.7,1.9,59,9,25000,11.112,,,90,13.1,19.3,,,,,,,,,wg-a,,,,AAXX 20184 07661 12/75 10906 10170 20090 30036 40197 53019 60006 80001 91800 333 10193 20131=
07661,1998-10-21 00:00:00,12,1024.3,1.5,76,8,20000,14.816,,,80,,,,,,,,,,,wg-a,,,,AAXX 21004 07661 12/70 00808 10120 20080 30079 40243 51015 60006 80000 90000=
07661,1998-10-21 06:00:00,11,1026.1,1,87,9,500,18.52,,,80,10.2,16.5,,,,,,,,,wg-a,,,,AAXX 21064 07661 02500 20810 10110 20090 30095 40261 53010 60006 81101 90600 333 10165 20102 60004=
07661,1998-10-21 18:00:00,16,1029.1,0.8,77,12,20000,18.52,,,80,10.3,18.5,,,,,,,,,wg-a,,,,AAXX 21184 07661 12870 30810 10160 20120 30128 40291 53008 60006 82061 91800 333 10185 20103=
07661,1998-10-22 00:00:00,13,1030.2,0.3,94,12,20000,11.112,,,90,,,,,,,,,,,wg-a,,,,AAXX 22004 07661 12870 10906 10130 20120 30137 40302 50003 60006 81060 90000=
07661,1998-10-22 06:00:00,13,1030,0.5,88,11,0,14.816,,,70,11.5,15.9,,,,,,,,,wg-a,,,,AAXX 22064 07661 02/// /0708 10130 20110 30135 40300 53005 60006 90600 333 10159 20115 60004=
07661,1998-10-22 12:00:00,18,1030.6,-0.3,77,14,25000,11.112,,,190,,,,,,,,,,,wg-a,,,,AAXX 22124 07661 12575 31906 10180 20140 30144 40306 58003 60006 83201 91200=
07661,1998-10-22 18:00:00,16,1030.2,0.5,82,13,20000,11.112,,,280,12,19.1,,,,,,,,,wg-a,,,,AAXX 22184 07661 12/70 12806 10160 20130 30139 40302 53005 60006 80001 91800 333 10191 20120=
07661,1998-10-23 00:00:00,15,1029.9,-0.8,82,12,25000,7.408,,,300,,,,,,,,,,,wg-a,,,,AAXX 23004 07661 12/75 03004 10150 20120 30136 40299 58008 60006 80000 90000=
07661,1998-10-23 06:00:00,14,1028.3,-0.7,94,13,25000,7.408,,,330,13.8,15.5,,,,,,,,,wg-a,,,,AAXX 23064 07661 02475 23304 10140 20130 30119 40283 56007 60006 81101 90600 333 10155 20138 60004=
07661,1998-10-23 12:00:00,18,1027.1,-1.1,77,14,25000,14.816,,,250,,,,,,,,,,,wg-a,,,,AAXX 23124 07661 12475 52508 10180 20140 30110 40271 58011 60006 84201 91200=
07661,1998-10-23 18:00:00,16,1024.2,-1.2,94,15,20000,22.224,,,280,13.6,19.2,,,,,,,,,wg-a,,,,AAXX 23184 07661 12470 52812 10160 20150 30080 40242 56012 60006 84201 91800 333 10192 20136=
07661,1998-10-24 00:00:00,16,1021.4,-2.4,88,14,20000,25.928,,,300,,,,,,,,,,,wg-a,,,,AAXX 24004 07661 12/70 33014 10160 20140 30052 40214 56024 60006 83010 90000=
07661,1998-10-24 06:00:00,17,1018.4,-1.4,77,13,15000,42.596,,,300,15,16.8,,,,,,,,,wg-a,,,,AAXX 24064 07661 12865 53023 10170 20130 30023 40184 56014 60004 85040 90600 333 10168 20150=
07661,1998-10-24 12:00:00,19,1016.9,-1.6,49,8,15000,46.3,,68.524,300,,,,,,,,,,,wg-a,,,,AAXX 24124 07661 12565 73025 10190 20080 30010 40169 58016 60006 8446/ 91200 333 91037=
07661,1998-10-24 18:00:00,17,1015.3,-0.5,63,10,20000,35.188,,79.636,290,16.4,20,,,,,,,,,wg-a,,,,AAXX 24184 07661 12570 52919 10170 20100 39993 40153 57005 60006 82444 91800 333 10200 20164 91043=
07661,1998-10-25 00:00:00,17,1012.9,-2.3,88,15,10000,22.224,,,290,,,,,,,,,,,wg-a,,,,AAXX 25004 07661 12560 72912 10170 20150 39969 40129 57023 60006 8347/ 90000=
07661,1998-10-25 06:00:00,17,1008.1,-1.7,94,16,500,25.928,,,290,16.2,17.2,,,,,,,,,wg-a,,,,AAXX 25064 07661 02500 72914 10170 20160 39922 40081 56017 60006 8587/ 90600 333 10172 20162 60004=
07661,1998-10-25 12:00:00,20,1006.1,-0.7,73,15,10000,38.892,,68.524,300,,,,,,,,,,21,wg-a,,,,AAXX 25124 07661 02460 83021 10200 20150 39904 40061 58007 61000 72122 8778/ 91200 333 6100 91037=
07661,1998-10-25 18:00:00,17,1008.5,1.7,52,7,25000,57.412,,87.044,310,16.5,20.1,,,,,,,,,wg-a,,,,AAXX 25184 07661 32875 43131 10170 20070 39926 40085 53017 84070 91800 333 10201 20165 91047=
07661,1998-10-26 00:00:00,15,1011.3,1.2,51,5,15000,35.188,,87.044,310,,,,,,,,,,,wg-a,,,,AAXX 26004 07661 12/65 23119 10150 20050 39952 40113 51012 60006 80001 90000 333 91047=
07661,1998-10-26 06:00:00,13,1012.4,1.1,47,2,0,31.484,,,310,13.4,17,,,,,,,,,wg-a,,,,AAXX 26064 07661 02/// /3117 10130 20020 39962 40124 51011 60006 90600 333 10170 20134 61000=
07661,1998-10-26 12:00:00,17,1014,-0.5,39,3,0,50.004,,,310,,,,,,,,,,,wg-a,,,,AAXX 26124 07661 12/// /3127 10170 20030 39980 40140 58005 60006 91200=
07661,1998-10-26 18:00:00,15,1017.5,1.6,55,6,35000,35.188,,87.044,300,13.2,17.8,,,,,,,,,wg-a,,,,AAXX 26184 07661 12681 23019 10150 20060 30013 40175 51016 60006 8/400 91800 333 10178 20132 91047=
07661,1998-10-27 00:00:00,14,1019.3,1,47,3,35000,53.708,,87.044,310,,,,,,,,,,,wg-a,,,,AAXX 27004 07661 12/81 03129 10140 20030 30030 40193 51010 60006 80000 90000 333 91047=
07661,1998-10-27 06:00:00,13,1023,0.8,54,4,35000,57.412,,100.008,310,12.4,15.8,,,,,,,,,wg-a,,,,AAXX 27064 07661 02/81 03131 10130 20040 30066 40230 50008 60006 80000 90600 333 10158 20124 60004 91054=
07661,1998-10-27 12:00:00,18,1022.9,-0.7,42,5,500,22.224,,87.044,240,,,,,,,,,,,wg-a,,,,AAXX 27124 07661 12/00 12412 10180 20050 30068 40229 58007 60006 80002 91200 333 91047=
07661,1998-10-27 18:00:00,15,1025.3,1.7,51,5,20000,29.632,,72.228,280,12.4,18.7,,,,,,,,,wg-a,,,,AAXX 27184 07661 12/70 32816 10150 20050 30090 40253 53017 60006 80001 91800 333 10187 20124 91039=
07661,1998-10-28 00:00:00,15,1026.3,0,67,9,20000,25.928,,64.82,290,,,,,,,,,,,wg-a,,,,AAXX 28004 07661 12870 62914 10150 20090 30100 40263 50000 60006 86030 90000 333 91035=
07661,1998-10-28 06:00:00,15,1024.1,-0.7,67,9,20000,29.632,,,280,13.5,15.2,,,,,,,,,wg-a,,,,AAXX 28064 07661 02870 52816 10150 20090 30078 40241 56007 60006 85031 90600 333 10152 20135 60004=
07661,1998-10-28 12:00:00,17,1023.3,-1.4,68,11,20000,53.708,,79.636,290,,,,,,,,,,,wg-a,,,,AAXX 28124 07661 12870 42929 10170 20110 30072 40233 58014 60006 82042 91200 333 91043=
07661,1998-10-28 18:00:00,17,1023.4,1.2,77,13,25000,35.188,,75.932,290,15,18.2,,,,,,,,,wg-a,,,,AAXX 28184 07661 12/75 12919 10170 20130 30073 40234 53012 60006 80001 91800 333 10182 20150 91041=
07661,1998-10-29 00:00:00,16,1021.6,-1.4,77,12,20000,31.484,,,280,,,,,,,,,,,wg-a,,,,AAXX 29004 07661 12/70 02817 10160 20120 30054 40216 58014 60006 80000 90000=
07661,1998-10-29 06:00:00,15,1020,-0,77,11,20000,35.188,,,290,15.1,16.8,,,,,,,,,wg-a,,,,AAXX 29064 07661 02870 12919 10150 20110 30038 40200 55000 60006 81010 90600 333 10168 20151 60004=
07661,1998-10-29 12:00:00,18,1018.4,-2.3,68,12,0,46.3,,,290,,,,,,,,,,,wg-a,,,,AAXX 29124 07661 12/// /2925 10180 20120 30024 40184 58023 60006 91200=
07661,1998-10-29 18:00:00,16,1020,2.1,36,1,15000,29.632,,87.044,310,15.2,18.5,,,,,,,,,wg-a,,,,AAXX 29184 07661 12565 53116 10160 20010 30038 40200 53021 60006 8/800 91800 333 10185 20152 91047=
07661,1998-10-30 00:00:00,13,1022.5,1.2,47,2,15000,46.3,,83.34,320,,,,,,,,,,,wg-a,,,,AAXX 30004 07661 12/65 33225 10130 20020 30061 40225 51012 60006 80002 90000 333 91045=
07661,1998-10-30 06:00:00,11,1021.2,-0.7,54,2,20000,46.3,,,310,10.6,16.1,,,,,,,,,wg-a,,,,AAXX 30064 07661 02/70 43125 10110 20020 30047 40212 57007 60006 80008 90600 333 10161 20106 60004=
07661,1998-10-30 12:00:00,14,1020.4,-1.6,51,4,25000,50.004,,87.044,290,,,,,,,,,,,wg-a,,,,AAXX 30124 07661 12/75 42927 10140 20040 30041 40204 56016 60006 80002 91200 333 91047=
07661,1998-10-30 18:00:00,13,1020,0.2,47,2,25000,42.596,,87.044,300,10.2,15.4,,,,,,,,,wg-a,,,,AAXX 30184 07661 12/75 23023 10130 20020 30037 40200 53002 60006 80002 91800 333 10154 20102 91047=
07661,1998-10-31 00:00:00,12,1018.9,-0.6,58,4,25000,57.412,,90.748,300,,,,,,,,,,,wg-a,,,,AAXX 31004 07661 12/75 23031 10120 20040 30025 40189 58006 60006 80001 90000 333 91049=
07661,1998-10-31 06:00:00,12,1017.5,-0.2,62,5,25000,35.188,,,290,11.5,13.4,,,,,,,,,wg-a,,,,AAXX 31064 07661 02/75 52919 10120 20050 30011 40175 55002 60006 85051 90600 333 10134 20115 60004=
07661,1998-10-31 12:00:00,15,1015.9,-1,59,7,25000,57.412,,83.34,300,,,,,,,,,,,wg-a,,,,AAXX 31124 07661 12/75 63031 10150 20070 39997 40159 58010 60006 85051 91200 333 91045=
07661,1998-10-31 18:00:00,14,1015,0.1,67,8,25000,38.892,,79.636,300,11.3,15.9,,,,,,,,,wg-a,,,,AAXX 31184 07661 12/75 43021 10140 20080 39988 40150 53001 60006 81032 91800 333 10159 20113 91043=
07661,1998-11-01 00:00:00,12,1013.5,-1.2,82,9,25000,25.928,,,290,,,,,,,,,,,wg-a,,,,AAXX 01004 07661 12/75 32914 10120 20090 39972 40135 58012 60006 82052 90000=
07661,1998-11-01 06:00:00,13,1010.6,-1.1,77,9,20000,31.484,,,290,12.3,13.8,,,,,,,,,wg-a,,,,AAXX 01064 07661 02470 62917 10130 20090 39945 40106 55011 60006 81672 90600 333 10138 20123 60004=
07661,1998-11-01 12:00:00,16,1009.2,-1.5,77,12,15000,50.004,,90.748,280,,,,,,,,,,21,wg-a,,,,AAXX 01124 07661 02465 42827 10160 20120 39932 40092 58015 61000 72100 82402 91200 333 6100 91049=
07661,1998-11-02 00:00:00,17,1008.4,-0.5,52,7,20000,46.3,,79.636,310,,,,,,,,,,,wg-a,,,,AAXX 02004 07661 12/70 03125 10170 20070 39925 40084 58005 60006 80000 90000 333 91043=
07661,1998-11-02 06:00:00,15,1008.8,-0.2,51,5,20000,50.004,,90.748,300,14.3,17.2,,,,,,,,,wg-a,,,,AAXX 02064 07661 02/70 03027 10150 20050 39927 40088 55002 60006 80000 90600 333 10172 20143 61000 91049=
07661,1998-11-02 18:00:00,14,1009.8,0.7,82,11,25000,22.224,,61.116,300,13.7,16.4,,,,,,,,,wg-a,,,,AAXX 02184 07661 12875 53012 10140 20110 39937 40098 53007 60006 84032 91800 333 10164 20137 91033=
07661,1998-11-03 00:00:00,15,1009.8,-0.4,82,12,25000,11.112,,,300,,,,,,,,,,,wg-a,,,,AAXX 03004 07661 12575 83006 10150 20120 39937 40098 58004 60006 885// 90000=
07661,1998-11-03 06:00:00,14,1007.1,-1.1,88,12,20000,18.52,,,80,13.4,15,,,,,,,,,wg-a,,,,AAXX 03064 07661 02470 80810 10140 20120 39910 40071 58011 60006 885// 90600 333 10150 20134 60004=
07661,1998-11-03 12:00:00,17,1006.5,0.2,88,15,3000,7.408,,,160,,,,,,,,,,,wg-a,,,,AAXX 03124 07661 12430 81604 10170 20150 39906 40065 50002 60016 887// 91200=
07661,1998-11-03 18:00:00,16,1006.3,0.2,94,15,3000,18.52,,,270,13.2,16.8,,,,,,,,,wg-a,,,,AAXX 03184 07661 32430 82710 10160 20150 39904 40063 53002 885// 91800 333 10168 20132=
07661,1998-11-04 00:00:00,14,1005.6,-0.9,100,14,100,11.112,,,90,,,,1,,,,,,51,wg-a,,,,AAXX 04004 07661 02/01 90906 10140 20140 39896 40056 58009 60016 75122 89/// 90000 333 60017=
07661,1998-11-04 06:00:00,16,1001.7,-1.8,100,16,500,29.632,,,210,14.1,16.1,,0,,,3,,,47,wg-a,,,,AAXX 04064 07661 02/05 92116 10160 20160 39859 40017 56018 60034 74754 89/// 90600 333 10161 20141 60007=
07661,1998-11-04 12:00:00,17,1004.2,0.3,82,14,8000,22.224,,,280,,,,,,,,,,1,wg-a,,,,AAXX 04124 07661 02458 72812 10170 20140 39884 40042 50003 61000 70162 82361 91200 333 ////=
07661,1998-11-04 18:00:00,13,1007.8,2.1,88,11,500,29.632,,57.412,300,13.2,17.6,,,,,,,,61,wg-a,,,,AAXX 04184 07661 02400 83016 10130 20110 39917 40078 53021 61000 76162 887// 91800 333 10176 20132 //// 91031=
07661,1998-11-05 00:00:00,12,1011.2,1.6,62,5,10000,35.188,,,300,,,,,,,,,,21,wg-a,,,,AAXX 05004 07661 02560 83019 10120 20050 39950 40112 53016 61000 72162 888// 90000 333 6100=
07661,1998-11-05 06:00:00,11,1013.3,1.5,62,4,20000,42.596,,,310,11.3,13.2,,,,,,,,,wg-a,,,,AAXX 05064 07661 02470 83123 10110 20040 39970 40133 51015 61000 838// 90600 333 10132 20113 ////=
07661,1998-11-05 12:00:00,14,1016,0.4,47,3,25000,29.632,,,290,,,,,,,,,,,wg-a,,,,AAXX 05124 07661 12875 52916 10140 20030 39997 40160 50004 60006 84074 91200=
07661,1998-11-05 18:00:00,12,1018,1.6,58,4,20000,18.52,,,290,10.7,14.4,,,,,,,,,wg-a,,,,AAXX 05184 07661 12870 52910 10120 20040 30016 40180 53016 60006 84072 91800 333 10144 20107=
07661,1998-11-06 00:00:00,9,1020.8,0.8,71,4,20000,11.112,,,100,,,,,,,,,,,wg-a,,,,AAXX 06004 07661 12870 11006 10090 20040 30042 40208 52008 60006 81070 90000=
07661,1998-11-06 06:00:00,8,1022.5,1,87,6,25000,14.816,,,70,8.2,12.2,,,,,,,,,wg-a,,,,AAXX 06064 07661 02575 10708 10080 20060 30058 40225 53010 60006 81200 90600 333 10122 20082 60004=
07661,1998-11-06 12:00:00,16,1022.9,-0.4,59,8,500,14.816,,,220,,,,,,,,,,,wg-a,,,,AAXX 06124 07661 12600 12208 10160 20080 30067 40229 58004 60006 81200 91200=
07661,1998-11-06 18:00:00,12,1022.4,0.1,54,3,15000,7.408,,,300,8.2,16.7,,,,,,,,,wg-a,,,,AAXX 06184 07661 12/65 03004 10120 20030 30060 40224 53001 60006 80000 91800 333 10167 20082=
07661,1998-11-07 00:00:00,9,1023.6,0.5,66,3,15000,18.52,,,80,,,,,,,,,,,wg-a,,,,AAXX 07004 07661 12/65 00810 10090 20030 30070 40236 51005 60006 80000 90000=
07661,1998-11-07 06:00:00,8,1024.7,0.7,71,3,20000,14.816,,,80,7.3,12.4,,,,,,,,,wg-a,,,,AAXX 07064 07661 02/70 00808 10080 20030 30080 40247 51007 60006 80000 90600 333 10124 20073 60004=
07661,1998-11-07 12:00:00,15,1026.4,0.3,59,7,25000,11.112,,,150,,,,,,,,,,,wg-a,,,,AAXX 07124 07661 12/75 01506 10150 20070 30101 40264 50003 60006 80000 91200=
07661,1998-11-07 18:00:00,13,1028.1,1.1,77,9,15000,11.112,,,70,7.6,15.7,,,,,,,,,wg-a,,,,AAXX 07184 07661 12565 20706 10130 20090 30117 40281 53011 60006 82200 91800 333 10157 20076=
07661,1998-11-08 00:00:00,9,1030,0.1,100,9,15000,14.816,,,70,,,,,,,,,,,wg-a,,,,AAXX 08004 07661 12/65 00708 10090 20090 30133 40300 53001 60006 80000 90000=
07661,1998-11-08 06:00:00,8,1030.1,0.3,100,8,6000,18.52,,,70,8.3,13.1,,,,,,,,,wg-a,,,,AAXX 08064 07661 02/56 00710 10080 20080 30133 40301 52003 60006 80000 90600 333 10131 20083 60004=
07661,1998-11-08 12:00:00,15,1030.7,-0.2,67,9,10000,11.112,,,210,,,,,,,,,,,wg-a,,,,AAXX 08124 07661 12560 12106 10150 20090 30143 40307 58002 60006 81100 91200=
07661,1998-11-08 18:00:00,12,1029.2,-0.2,82,9,10000,18.52,,,290,8.1,15.8,,,,,,,,,wg-a,,,,AAXX 08184 07661 32/60 02910 10120 20090 30127 40292 55002 80000 91800 333 10158 20081=
07661,1998-11-09 00:00:00,10,1028.2,-0.9,87,8,12000,22.224,,,300,,,,,,,,,,,wg-a,,,,AAXX 09004 07661 12/62 03012 10100 20080 30116 40282 56009 60006 80000 90000=
07661,1998-11-09 06:00:00,12,1026.3,-1,82,9,12000,29.632,,,300,10.3,12.4,,,,,,,,,wg-a,,,,AAXX 09064 07661 02562 33016 10120 20090 30098 40263 56010 60006 83500 90600 333 10124 20103 60004=
07661,1998-11-09 12:00:00,16,1024.6,-1.5,77,12,15000,25.928,,,290,,,,,,,,,,,wg-a,,,,AAXX 09124 07661 12765 22914 10160 20120 30084 40246 58015 60006 82100 91200=
07661,1998-11-09 18:00:00,13,1023.3,0.2,88,11,12000,29.632,,,300,12,16.3,,,,,,,,,wg-a,,,,AAXX 09184 07661 12/62 03016 10130 20110 30069 40233 53002 60006 80000 91800 333 10163 20120=
07661,1998-11-10 00:00:00,11,1022.4,-1,94,10,0,7.408,,,320,,,,,,,,,,,wg-a,,,,AAXX 10004 07661 12/// /3204 10110 20100 30059 40224 56010 60006 90000=
07661,1998-11-10 06:00:00,11,1020.3,-0.6,87,9,8000,7.408,,,70,9.8,13.2,,,,,,,,,wg-a,,,,AAXX 10064 07661 02/58 40704 10110 20090 30038 40203 57006 60006 84031 90600 333 10132 20098 60004=
07661,1998-11-10 12:00:00,15,1017.5,-2.4,77,11,8000,22.224,,,280,,,,,,,,,,60,wg-a,,,,AAXX 10124 07661 02458 72812 10150 20110 30014 40175 58024 61000 76062 8771/ 91200 333 6100=
07661,1998-11-10 18:00:00,16,1015.3,-0.4,51,6,8000,46.3,,87.044,300,10.3,16.8,,,,,,,,21,wg-a,,,,AAXX 10184 07661 32/58 03025 10160 20060 39992 40153 55004 72161 80000 91800 333 10168 20103 91047=
07661,1998-11-11 00:00:00,12,1014.2,-1,62,5,15000,68.524,,90.748,300,,,,,,,,,,,wg-a,,,,AAXX 11004 07661 12/65 03037 10120 20050 39979 40142 58010 60006 80000 90000 333 91049=
07661,1998-11-11 06:00:00,11,1012.2,-1.2,50,1,20000,42.596,,,310,10.3,16.9,,,,,,,,,wg-a,,,,AAXX 11064 07661 02/70 03123 10110 20010 39959 40122 56012 60006 80000 90600 333 10169 20103 61000=
07661,1998-11-11 12:00:00,17,1014.1,0.6,39,3,500,7.408,,64.82,180,,,,,,,,,,,wg-a,,,,AAXX 11124 07661 12/00 01804 10170 20030 39980 40141 50006 60006 80000 91200 333 91035=
07661,1998-11-11 18:00:00,12,1014.8,0.6,54,3,20000,22.224,,,80,10.8,16.5,,,,,,,,,wg-a,,,,AAXX 11184 07661 12/70 00812 10120 20030 39985 40148 51006 60006 80000 91800 333 10165 20108=
07661,1998-11-12 00:00:00,10,1014.9,-0.5,66,4,20000,18.52,,,70,,,,,,,,,,,wg-a,,,,AAXX 12004 07661 12/70 00710 10100 20040 39984 40149 58005 60006 80000 90000=
07661,1998-11-12 06:00:00,8,1012.9,-1.4,87,6,0,14.816,,,90,7.9,12.5,,,,,,,,,wg-a,,,,AAXX 12064 07661 02/// /0908 10080 20060 39964 40129 55014 60006 90600 333 10125 20079 60004=
07661,1998-11-12 12:00:00,12,1013.1,-1.1,71,7,15000,25.928,,,290,,,,,,,,,,,wg-a,,,,AAXX 12124 07661 12565 72914 10120 20070 39968 40131 58011 60006 8237/ 91200=
07661,1998-11-12 18:00:00,10,1013.3,1,62,3,0,25.928,,,280,7.9,13.4,,,,,,,,,wg-a,,,,AAXX 12184 07661 12/// /2814 10100 20030 39969 40133 53010 60006 91800 333 10134 20079=
07661,1998-11-13 00:00:00,10,1012.8,0.1,53,1,20000,42.596,,96.304,310,,,,,,,,,,,wg-a,,,,AAXX 13004 07661 12/70 03123 10100 20010 39964 40128 50001 60006 80000 90000 333 91052=
07661,1998-11-13 06:00:00,8,1013.1,0.4,61,1,20000,14.816,,,300,8.1,11.7,,,,,,,,,wg-a,,,,AAXX 13064 07661 02/70 03008 10080 20010 39966 40131 53004 60006 80000 90600 333 10117 20081 60004=
07661,1998-11-13 12:00:00,13,1011.8,-1.6,54,4,500,29.632,,,140,,,,,,,,,,,wg-a,,,,AAXX 13124 07661 12500 51416 10130 20040 39956 40118 58016 60006 81832 91200=
07661,1998-11-13 18:00:00,11,1010.7,0.2,66,5,25000,14.816,,,280,8.1,12.9,,,,,,,,,wg-a,,,,AAXX 13184 07661 12/75 82808 10110 20050 39944 40107 51002 60006 8807/ 91800 333 10129 20081=
07661,1998-11-14 00:00:00,9,1010,-0.3,93,8,10000,7.408,,,340,,,,1,,,,,,61,wg-a,,,,AAXX 14004 07661 02760 83404 10090 20080 39936 40100 57003 60016 76162 8807/ 90000 333 60017=
07661,1998-11-14 06:00:00,9,1008.6,-0.3,100,9,10000,14.816,,,80,8.3,10.8,,1,,,5,,,21,wg-a,,,,AAXX 14064 07661 02460 70808 10090 20090 39922 40086 56003 60054 72162 877// 90600 333 10108 20083 60017=
07661,1998-11-14 12:00:00,12,1008.4,0.1,71,7,15000,42.596,,75.932,300,,,,,,,,,,2,wg-a,,,,AAXX 14124 07661 12565 73023 10120 20070 39922 40084 53001 60006 70262 878// 91200 333 91041=
07661,1998-11-14 18:00:00,11,1009.3,0.9,71,6,15000,61.116,,90.748,300,8.7,12.4,,,,,,,,,wg-a,,,,AAXX 14184 07661 12565 73033 10110 20060 39930 40093 52009 60006 878// 91800 333 10124 20087 91049=
07661,1998-11-15 00:00:00,11,1012.6,2.4,47,0,15000,46.3,,,310,,,,,,,,,,,wg-a,,,,AAXX 15004 07661 12/65 03125 10110 20000 39962 40126 53024 60006 80000 90000=
07661,1998-11-15 06:00:00,9,1012.7,-0.1,57,1,20000,61.116,,83.34,300,8.4,11.4,,,,,,,,,wg-a,,,,AAXX 15064 07661 02/70 03033 10090 20010 39962 40127 58001 60006 80000 90600 333 10114 20084 60004 91045=
07661,1998-11-15 12:00:00,12,1013.3,-0.9,44,0,35000,50.004,,90.748,300,,,,,,,,,,,wg-a,,,,AAXX 15124 07661 12/81 03027 10120 20000 39970 40133 58009 60006 80000 91200 333 91049=
07661,1998-11-16 00:00:00,10,1018.8,0.5,53,1,25000,53.708,,64.82,310,,,,,,,,,,,wg-a,,,,AAXX 16004 07661 12/75 03129 10100 20010 30023 40188 50005 60006 80000 90000 333 91035=
07661,1998-11-16 06:00:00,8,1019.1,1.1,53,-1,25000,42.596,,,300,7.4,11.5,,,,,,,,,wg-a,,,,AAXX 16064 07661 02/75 03023 10080 21010 30024 40191 51011 60006 80000 90600 333 10115 20074 60004=
07661,1998-11-16 12:00:00,11,1018.4,-1,50,1,35000,50.004,,79.636,310,,,,,,,,,,,wg-a,,,,AAXX 16124 07661 12/81 03127 10110 20010 30020 40184 58010 60006 80000 91200 333 91043=
07661,1998-11-16 18:00:00,9,1019,0.3,43,-3,0,46.3,,,300,7.1,11.4,,,,,,,,,wg-a,,,,AAXX 16184 07661 12/// /3025 10090 21030 30024 40190 51003 60006 91800 333 10114 20071=
07661,1998-11-17 00:00:00,7,1020.2,0.5,45,-4,25000,18.52,,,300,,,,,,,,,,,wg-a,,,,AAXX 17004 07661 12/75 03010 10070 21040 30035 40202 51005 60006 80000 90000=
07661,1998-11-17 06:00:00,6,1021,0.1,56,-2,25000,14.816,,,70,5.9,8.9,,,,,,,,,wg-a,,,,AAXX 17064 07661 02/75 10708 10060 21020 30042 40210 50001 60006 80002 90600 333 10089 20059 60004=
07661,1998-11-17 12:00:00,12,1021,-0.7,50,2,25000,7.408,,,110,,,,,,,,,,,wg-a,,,,AAXX 17124 07661 12/75 21104 10120 20020 30046 40210 58007 60006 80008 91200=
07661,1998-11-17 18:00:00,10,1019.6,-0.2,71,5,20000,7.408,,,90,5.6,12.5,,,,,,,,,wg-a,,,,AAXX 17184 07661 12/70 00904 10100 20050 30031 40196 56002 60006 80000 91800 333 10125 20056=
07661,1998-11-18 00:00:00,7,1019.7,-0.1,70,2,20000,14.816,,,70,,,,,,,,,,,wg-a,,,,AAXX 18004 07661 12/70 00708 10070 20020 30030 40197 56001 60006 80000 90000=
07661,1998-11-18 06:00:00,7,1018.1,-0.7,70,2,20000,22.224,,,70,6.2,10.4,,,,,,,,,wg-a,,,,AAXX 18064 07661 02/70 00712 10070 20020 30014 40181 58007 60006 80000 90600 333 10104 20062 60004=
07661,1998-11-18 12:00:00,12,1018.4,-0.7,54,3,25000,25.928,,,60,,,,,,,,,,,wg-a,,,,AAXX 18124 07661 12475 60614 10120 20030 30020 40184 58007 60006 82232 91200=
07661,1998-11-18 18:00:00,10,1018.3,0.4,62,3,25000,25.928,,,60,6.7,12.7,,,,,,,,,wg-a,,,,AAXX 18184 07661 12875 70614 10100 20030 30018 40183 51004 60006 8707/ 91800 333 10127 20067=
07661,1998-11-19 00:00:00,8,1019.5,0.4,61,1,25000,11.112,,,70,,,,,,,,,,,wg-a,,,,AAXX 19004 07661 12875 70706 10080 20010 30029 40195 51004 60006 8707/ 90000=
07661,1998-11-19 06:00:00,6,1018.8,-0,75,2,0,11.112,,,70,5.8,9.8,,,,,,,,,wg-a,,,,AAXX 19064 07661 02/// /0706 10060 20020 30021 40188 55000 60006 90600 333 10098 20058 60004=
07661,1998-11-19 12:00:00,10,1018.2,-1.1,50,0,25000,3.704,,,150,,,,,,,,,,,wg-a,,,,AAXX 19124 07661 12575 11502 10100 20000 30017 40182 58011 60006 81100 91200=
07661,1998-11-19 18:00:00,8,1018.3,0.8,76,4,15000,7.408,,,310,5,11.4,,,,,,,,,wg-a,,,,AAXX 19184 07661 12665 23104 10080 20040 30017 40183 53008 60006 82200 91800 333 10114 20050=
07661,1998-11-20 00:00:00,6,1019.7,0.3,75,2,15000,7.408,,,80,,,,,,,,,,,wg-a,,,,AAXX 20004 07661 12/65 00804 10060 20020 30029 40197 52003 60006 80000 90000=
07661,1998-11-20 06:00:00,4,1020.5,0.9,70,-1,15000,11.112,,,80,4,8.2,,,,,,,,,wg-a,,,,AAXX 20064 07661 02665 40806 10040 21010 30036 40205 53009 60006 84200 90600 333 10082 20040 60004=
07661,1998-11-20 12:00:00,10,1021.8,0.3,53,1,15000,14.816,,,70,,,,,,,,,,,wg-a,,,,AAXX 20124 07661 12565 60708 10100 20010 30052 40218 51003 60006 84760 91200=
07661,1998-11-20 18:00:00,8,1022.4,0.4,66,2,12000,14.816,,,60,3.4,9.8,,,,,,,,3,wg-a,,,,AAXX 20184 07661 02562 80608 10080 20020 30057 40224 53004 61000 70362 84670 91800 333 10098 20034 ////=
07661,1998-11-21 00:00:00,6,1023.5,-0.1,61,-1,12000,35.188,,,60,,,,,,,,,,,wg-a,,,,AAXX 21004 07661 12562 80619 10060 21010 30067 40235 58001 60006 84670 90000=
07661,1998-11-21 06:00:00,4,1024.9,0.4,75,0,12000,18.52,,,70,4.1,7.7,,,,,,,,,wg-a,,,,AAXX 21064 07661 02562 80710 10040 20000 30079 40249 53004 60006 84670 90600 333 10077 20041 60004=
07661,1998-11-21 12:00:00,7,1024.9,-1,45,-4,20000,18.52,,,70,,,,,,,,,,,wg-a,,,,AAXX 21124 07661 12670 30710 10070 21040 30081 40249 58010 60006 81264 91200=
07661,1998-11-21 18:00:00,6,1024.1,0.4,52,-3,20000,25.928,,,60,3.9,8,,,,,,,,,wg-a,,,,AAXX 21184 07661 12470 80614 10060 21030 30073 40241 51004 60006 886// 91800 333 10080 20039=
07661,1998-11-22 00:00:00,6,1024.1,0.4,52,-3,20000,25.928,,,60,3.9,8,,,,,,,,,wg-a,,,,AAXX 22004 07661 12470 80614 10060 21030 30073 40241 51004 60006 886// 90000 333 10080 20039=
07661,1998-11-22 06:00:00,3,1022.6,-0.2,52,-6,20000,29.632,,,60,2.3,6.3,,,,,,,,,wg-a,,,,AAXX 22064 07661 02570 30616 10030 21060 30056 40226 55002 60006 83600 90600 333 10063 20023 60004=
07661,1998-11-22 12:00:00,6,1022.5,-0.6,31,-10,20000,11.112,,,60,,,,,,,,,,,wg-a,,,,AAXX 22124 07661 12570 20606 10060 21100 30057 40225 58006 60006 82210 91200=
07661,1998-11-22 18:00:00,5,1021.7,0.1,48,-5,20000,7.408,,,310,3.3,6.9,,,,,,,,,wg-a,,,,AAXX 22184 07661 12/70 03104 10050 21050 30048 40217 52001 60006 80000 91800 333 10069 20033=
07661,1998-11-23 00:00:00,3,1020.2,-0.8,41,-9,20000,14.816,,,330,,,,,,,,,,,wg-a,,,,AAXX 23004 07661 12/70 03308 10030 21090 30032 40202 56008 60006 80000 90000=
07661,1998-11-23 06:00:00,2,1018.1,-0.5,40,-10,20000,0,,,0,1.2,4.9,,,,,,,,,wg-a,,,,AAXX 23064 07661 02/70 00000 10020 21100 30011 40181 55005 60006 80000 90600 333 10049 20012 60004=
07661,1998-11-23 12:00:00,8,1016.7,-1.3,31,-8,25000,35.188,,,300,,,,,,,,,,,wg-a,,,,AAXX 23124 07661 12/75 23019 10080 21080 30001 40167 58013 60006 80008 91200=
07661,1998-11-23 18:00:00,5,1014.2,-1.2,52,-4,20000,29.632,,,290,1.5,8.9,,,,,,,,,wg-a,,,,AAXX 23184 07661 12/70 12916 10050 21040 39975 40142 58012 60006 80008 91800 333 10089 20015=
07661,1998-11-24 00:00:00,3,1014.4,-0.3,56,-5,15000,7.408,,,320,,,,,,,,,,,wg-a,,,,AAXX 24004 07661 12/65 03204 10030 21050 39976 40144 56003 60006 80000 90000=
07661,1998-11-24 06:00:00,3,1015.3,0.7,52,-6,20000,22.224,,,80,2.4,4.8,,,,,,,,,wg-a,,,,AAXX 24064 07661 02/70 20812 10030 21060 39984 40153 53007 60006 82030 90600 333 10048 20024 60004=
07661,1998-11-24 12:00:00,11,1016.9,0.5,58,3,14000,11.112,,,60,,,,,,,,,,,wg-a,,,,AAXX 24124 07661 12564 50606 10110 20030 30005 40169 51005 60006 82670 91200=
07661,1998-11-24 18:00:00,10,1018.3,0.9,76,6,15000,11.112,,,80,2.7,11.3,,,,,,,,60,wg-a,,,,AAXX 24184 07661 02465 80806 10100 20060 30018 40183 51009 61000 76022 8/72/ 91800 333 10113 20027 ////=
07661,1998-11-25 00:00:00,7,1018.6,-0.5,76,3,15000,14.816,,,80,,,,,,,,,,21,wg-a,,,,AAXX 25004 07661 02865 40808 10070 20030 30019 40186 56005 61000 72122 84050 90000 333 ////=
07661,1998-11-25 06:00:00,6,1017.9,-0.4,81,3,15000,11.112,,,70,4.5,9.9,,,,,,,,,wg-a,,,,AAXX 25064 07661 02/65 30706 10060 20030 30012 40179 56004 61000 8/030 90600 333 10099 20045 ////=
07661,1998-11-25 12:00:00,11,1016.4,-1.5,71,6,12000,7.408,,,70,,,,,,,,,,,wg-a,,,,AAXX 25124 07661 12562 80704 10110 20060 30000 40164 58015 60006 835// 91200=
07661,1998-11-25 18:00:00,8,1015.9,0.3,93,7,8000,18.52,,,290,5.3,11,,2,,,,,,61,wg-a,,,,AAXX 25184 07661 12458 82910 10080 20070 39993 40159 52003 60027 76166 8672/ 91800 333 10110 20053=
07661,1998-11-26 00:00:00,7,1014,-0.8,81,4,20000,22.224,,,300,,,,,,,,,,,wg-a,,,,AAXX 26004 07661 12570 13012 10070 20040 39974 40140 57008 60016 81200 90000=
07661,1998-11-26 06:00:00,7,1013.5,-0,70,2,20000,7.408,,,230,6,7.5,,,,,3,,,,wg-a,,,,AAXX 26064 07661 12570 52304 10070 20020 39969 40135 55000 60034 85500 90600 333 10075 20060=
07661,1998-11-26 12:00:00,11,1015.7,0.9,58,3,35000,0,,,0,,,,,,,,,,,wg-a,,,,AAXX 26124 07661 12581 40000 10110 20030 39993 40157 51009 60006 82530 91200=
07661,1998-11-26 18:00:00,9,1018.3,1.6,71,4,20000,7.408,,,330,7.3,11.8,,,,,,,,,wg-a,,,,AAXX 26184 07661 12/70 13304 10090 20040 30018 40183 53016 60006 80001 91800 333 10118 20073=
07661,1998-11-27 00:00:00,7,1018.8,-0.6,81,4,12000,3.704,,,170,,,,,,,,,,,wg-a,,,,AAXX 27004 07661 12/62 01702 10070 20040 30021 40188 57006 60006 80000 90000=
07661,1998-11-27 06:00:00,7,1017.5,-0.2,76,3,20000,7.408,,,160,5.4,9.1,,,,,,,,,wg-a,,,,AAXX 27064 07661 02770 61604 10070 20030 30009 40175 55002 60006 85530 90600 333 10091 20054 60004=
07661,1998-11-27 12:00:00,13,1015,-1.9,58,5,500,14.816,,,160,,,,,,,,,,,wg-a,,,,AAXX 27124 07661 12600 51608 10130 20050 39987 40150 58019 60006 81139 91200=
07661,1998-11-27 18:00:00,11,1013.2,-0,62,4,15000,22.224,,83.34,310,7.2,13.4,,,,,,,,,wg-a,,,,AAXX 27184 07661 12/65 43112 10110 20040 39968 40132 55000 60006 83051 91800 333 10134 20072 91045=
07661,1998-11-28 00:00:00,9,1015,0.8,71,4,15000,11.112,,,60,,,,,,,,,,,wg-a,,,,AAXX 28004 07661 12865 20606 10090 20040 39985 40150 50008 60006 81042 90000=
07661,1998-11-28 06:00:00,7,1016.9,1,81,4,25000,14.816,,,330,7,10.4,,,,,,,,,wg-a,,,,AAXX 28064 07661 02675 13308 10070 20040 30003 40169 53010 60006 81200 90600 333 10104 20070 60004=
07661,1998-11-28 12:00:00,13,1017,-0.7,54,4,500,7.408,,,240,,,,,,,,,,,wg-a,,,,AAXX 28124 07661 12600 12404 10130 20040 30007 40170 58007 60006 81200 91200=
07661,1998-11-28 18:00:00,10,1017.2,-0.1,57,2,25000,7.408,,,280,6.9,13.2,,,,,,,,,wg-a,,,,AAXX 28184 07661 12/75 02804 10100 20020 30007 40172 58001 60006 80000 91800 333 10132 20069=
07661,1998-11-29 00:00:00,7,1015.1,-1.5,53,-2,500,18.52,,,300,,,,,,,,,,,wg-a,,,,AAXX 29004 07661 12/00 33010 10070 21020 39985 40151 56015 60006 82031 90000=
07661,1998-11-29 06:00:00,8,1011.1,-2.2,61,1,20000,11.112,,,50,6,10.4,,,,,,,,,wg-a,,,,AAXX 29064 07661 02470 60506 10080 20010 39946 40111 58022 60006 81270 90600 333 10104 20060 60004=
07661,1998-11-29 12:00:00,11,1009.8,-1.1,62,4,20000,14.816,,,50,,,,,,,,,,,wg-a,,,,AAXX 29124 07661 12470 70508 10110 20040 39935 40098 58011 60016 82670 91200=
07661,1998-11-29 18:00:00,7,1010.3,0.7,93,6,12000,3.704,,,320,6.6,10.7,,3,,,,,,61,wg-a,,,,AAXX 29184 07661 12462 83202 10070 20060 39938 40103 51007 60037 76162 88700 91800 333 10107 20066=
07661,1998-11-30 00:00:00,8,1011.4,0.6,76,4,20000,11.112,,,60,,,,,,,,,,,wg-a,,,,AAXX 30004 07661 12/70 40606 10080 20040 39949 40114 51006 60016 84040 90000=
07661,1998-11-30 06:00:00,6,1012.4,0.4,75,2,20000,18.52,,,60,5.8,8.3,,,,,4,,,,wg-a,,,,AAXX 30064 07661 12/70 30610 10060 20020 39958 40124 53004 60044 83800 90600 333 10083 20058=
07661,1998-11-30 12:00:00,10,1013.1,-0.5,62,3,25000,3.704,,,70,,,,,,,,,,,wg-a,,,,AAXX 30124 07661 12675 50702 10100 20030 39967 40131 58005 60006 82271 91200=
07661,1998-12-01 06:00:00,8,1016.6,0.4,87,6,18000,14.816,,,50,7.3,9.7,,0,,,1,,,21,wg-a,,,,AAXX 01064 07661 02668 70508 10080 20060 30000 40166 53004 60014 72162 87900 90600 333 10097 20073 60007=
07661,1998-12-01 12:00:00,12,1017.9,-0.1,58,4,25000,18.52,,,60,,,,,,,,,,,wg-a,,,,AAXX 01124 07661 12575 70610 10120 20040 30015 40179 58001 60006 84710 91200=
07661,1998-12-01 18:00:00,11,1018.6,0.3,62,4,20000,11.112,,,60,7.5,12.9,,,,,,,,,wg-a,,,,AAXX 01184 07661 32570 70606 10110 20040 30021 40186 51003 85710 91800 333 10129 20075=
07661,1998-12-02 00:00:00,8,1020.2,0.4,87,6,20000,7.408,,,90,,,,,,,,,,,wg-a,,,,AAXX 02004 07661 12870 10904 10080 20060 30035 40202 51004 60006 81010 90000=
07661,1998-12-02 06:00:00,7,1020.2,0.2,87,5,20000,18.52,,,60,6.5,10.8,,,,,,,,,wg-a,,,,AAXX 02064 07661 02670 50610 10070 20050 30035 40202 53002 60006 82130 90600 333 10108 20065 60004=
07661,1998-12-02 12:00:00,11,1020.7,-0.7,62,4,0,31.484,,,90,,,,,,,,,,,wg-a,,,,AAXX 02124 07661 12/// /0917 10110 20040 30042 40207 58007 60006 91200=
07661,1998-12-02 18:00:00,10,1019.6,-0.2,66,4,15000,35.188,,68.524,70,6.4,11.5,,,,,,,,,wg-a,,,,AAXX 02184 07661 12/65 10719 10100 20040 30031 40196 58002 60006 80001 91800 333 10115 20064 91037=
07661,1998-12-03 00:00:00,10,1018.5,-1,66,4,15000,50.004,,72.228,70,,,,,,,,,,,wg-a,,,,AAXX 03004 07661 12865 30727 10100 20040 30020 40185 58010 60006 82031 90000 333 91039=
07661,1998-12-03 06:00:00,11,1014.7,-2.2,66,5,20000,57.412,,90.748,70,9.1,10.8,,,,,,,,,wg-a,,,,AAXX 03064 07661 02570 40731 10110 20050 39983 40147 56022 60006 81130 90600 333 10108 20091 60004 91049=
07661,1998-12-03 12:00:00,12,1011.3,-2.7,67,6,15000,46.3,,96.304,70,,,,,,,,,,,wg-a,,,,AAXX 03124 07661 12565 80725 10120 20060 39951 40113 58027 60006 8387/ 91200 333 91052=
07661,1998-12-04 00:00:00,12,1002.4,-1.8,40,-1,15000,14.816,,,40,,,,,,,,,,,wg-a,,,,AAXX 04004 07661 12/65 60408 10120 21010 39863 40024 57018 60006 81046 90000=
07661,1998-12-04 06:00:00,12,999.6,-0.3,62,5,25000,22.224,,,190,11.5,12.7,,,,,,,,,wg-a,,,,AAXX 04064 07661 02/75 61912 10120 20050 39835 49996 56003 60006 86070 90600 333 10127 20115 60004=
07661,1998-12-04 12:00:00,11,999,-0.5,54,2,15000,11.112,,,290,,,,,,,,,,,wg-a,,,,AAXX 04124 07661 12/65 52906 10110 20020 39829 49990 58005 60006 83071 91200=
07661,1998-12-04 18:00:00,6,1001.9,1.8,61,-1,15000,35.188,,75.932,310,6.2,12.1,,,,,,,,,wg-a,,,,AAXX 04184 07661 12/65 03119 10060 21010 39855 40019 51018 60006 80000 91800 333 10121 20062 91041=
07661,1998-12-05 00:00:00,4,1004.4,1.5,65,-2,25000,61.116,,122.232,300,,,,,,,,,,,wg-a,,,,AAXX 05004 07661 12/75 03033 10040 21020 39877 40044 53015 60006 80000 90000 333 91066=
07661,1998-12-05 06:00:00,4,1005.7,0.8,60,-3,25000,57.412,,83.34,310,2.5,6.4,,,,,,,,,wg-a,,,,AAXX 05064 07661 02/75 03131 10040 21030 39891 40057 53008 60006 80000 90600 333 10064 20025 60004 91045=
07661,1998-12-05 12:00:00,8,1009.4,-0,46,-3,25000,42.596,,87.044,310,,,,,,,,,,,wg-a,,,,AAXX 05124 07661 12/75 03123 10080 21030 39929 40094 55000 60006 80000 91200 333 91047=
07661,1998-12-05 18:00:00,5,1012.4,2.2,48,-5,25000,46.3,,118.528,290,4,8,,,,,,,,,wg-a,,,,AAXX 05184 07661 12/75 02925 10050 21050 39957 40124 51022 60006 80000 91800 333 10080 20040 91064=
07661,1998-12-06 00:00:00,4,1016.9,2.4,48,-6,25000,46.3,,103.712,290,,,,,,,,,,,wg-a,,,,AAXX 06004 07661 12/75 02925 10040 21060 30000 40169 51024 60006 80000 90000 333 91056=
07661,1998-12-06 06:00:00,4,1017.8,0.3,56,-4,25000,46.3,,72.228,290,3.6,5.2,,,,,,,,,wg-a,,,,AAXX 06064 07661 02/75 02925 10040 21040 30009 40178 53003 60006 80000 90600 333 10052 20036 60004 91039=
07661,1998-12-06 12:00:00,8,1017.3,-0.8,53,-1,25000,53.708,,87.044,300,,,,,,,,,,,wg-a,,,,AAXX 06124 07661 12475 33029 10080 21010 30007 40173 58008 60006 82280 91200 333 91047=
07661,1998-12-06 18:00:00,5,1018.1,0.5,45,-6,20000,61.116,,87.044,310,3.3,9.1,,,,,,,,,wg-a,,,,AAXX 06184 07661 12/70 03133 10050 21060 30013 40181 53005 60006 80000 91800 333 10091 20033 91047=
07661,1998-12-07 00:00:00,4,1020.9,0.8,38,-9,20000,22.224,,,290,,,,,,,,,,,wg-a,,,,AAXX 07004 07661 12670 12912 10040 21090 30040 40209 51008 60006 81400 90000=
07661,1998-12-07 06:00:00,3,1022.3,0.6,38,-10,25000,14.816,,,290,3,5.4,,,,,,,,,wg-a,,,,AAXX 07064 07661 02/75 02908 10030 21100 30053 40223 53006 60006 80000 90600 333 10054 20030 60004=
07661,1998-12-07 12:00:00,7,1023.8,-0.2,36,-7,25000,7.408,,,110,,,,,,,,,,,wg-a,,,,AAXX 07124 07661 12675 21104 10070 21070 30070 40238 58002 60006 82200 91200=
07661,1998-12-07 18:00:00,5,1024.7,0.7,45,-6,500,11.112,,,300,2.9,8.6,,,,,,,,,wg-a,,,,AAXX 07184 07661 12/00 03006 10050 21060 30078 40247 51007 60006 80000 91800 333 10086 20029=
07661,1998-12-08 00:00:00,3,1026.4,0.7,56,-5,500,11.112,,,80,,,,,,,,,,,wg-a,,,,AAXX 08004 07661 12/00 00806 10030 21050 30093 40264 51007 60006 80000 90000=
07661,1998-12-08 06:00:00,2,1027.1,0.5,64,-4,500,3.704,,,20,1.7,4.8,,,,,,,,,wg-a,,,,AAXX 08064 07661 02/00 00202 10020 21040 30100 40271 53005 60006 80000 90600 333 10048 20017 60004=
07661,1998-12-08 12:00:00,7,1027.7,-0.4,61,0,500,7.408,,,90,,,,,,,,,,,wg-a,,,,AAXX 08124 07661 12600 10904 10070 20000 30109 40277 58004 60006 81100 91200=
07661,1998-12-08 18:00:00,8,1028.1,0.7,66,2,500,11.112,,,60,1.6,8.7,,,,,,,,,wg-a,,,,AAXX 08184 07661 12600 50606 10080 20020 30113 40281 53007 60006 85200 91800 333 10087 20016=
07661,1998-12-09 00:00:00,4,1028,-0.1,87,2,500,7.408,,,40,,,,,,,,,,,wg-a,,,,AAXX 09004 07661 12/00 20404 10040 20020 30110 40280 58001 60006 82030 90000=
07661,1998-12-09 06:00:00,4,1028.4,0.1,75,0,20000,7.408,,,60,2.8,7.5,,,,,,,,,wg-a,,,,AAXX 09064 07661 02870 70604 10040 20000 30114 40284 53001 60006 87020 90600 333 10075 20028 60004=
07661,1998-12-09 12:00:00,9,1028.6,-0.6,66,3,20000,11.112,,,60,,,,,,,,,,,wg-a,,,,AAXX 09124 07661 12570 80606 10090 20030 30119 40286 58006 60006 8227/ 91200=
07661,1998-12-09 18:00:00,8,1028.7,0.3,81,5,15000,7.408,,,330,3.8,10,,,,,,,,,wg-a,,,,AAXX 09184 07661 12865 63304 10080 20050 30119 40287 53003 60006 86070 91800 333 10100 20038=
07661,1998-12-10 00:00:00,8,1027.3,-0.7,81,5,15000,3.704,,,360,,,,,,,,,,,wg-a,,,,AAXX 10004 07661 12865 63602 10080 20050 30105 40273 58007 60006 86070 90000=
07661,1998-12-10 06:00:00,6,1025,-1,81,3,10000,22.224,,,300,5.9,8.1,,,,,,,,,wg-a,,,,AAXX 10064 07661 02/60 03012 10060 20030 30082 40250 56010 60006 80000 90600 333 10081 20059 60004=
07661,1998-12-10 12:00:00,11,1023.6,-1.5,71,6,0,31.484,,,300,,,,,,,,,,,wg-a,,,,AAXX 10124 07661 12/// /3017 10110 20060 30071 40236 58015 60006 91200=
07661,1998-12-10 18:00:00,9,1020.8,-0.7,87,7,12000,25.928,,,290,5.7,10.8,,,,,,,,,wg-a,,,,AAXX 10184 07661 12862 12914 10090 20070 30042 40208 58007 60006 81040 91800 333 10108 20057=
07661,1998-12-11 00:00:00,11,1020.1,-0.6,66,5,15000,29.632,,,270,,,,,,,,,,,wg-a,,,,AAXX 11004 07661 12/65 62716 10110 20050 30036 40201 56006 60006 8/070 90000=
07661,1998-12-11 06:00:00,11,1017.4,-1.5,87,9,0,38.892,,,300,8.1,11.1,,1,,,1,,,,wg-a,,,,AAXX 11064 07661 02/// /3021 10110 20090 30010 40174 56015 60014 90600 333 10111 20081 60017=
07661,1998-12-11 12:00:00,13,1016.4,-1.7,54,4,18000,50.004,,83.34,310,,,,,,,,,,,wg-a,,,,AAXX 11124 07661 12668 23127 10130 20040 30001 40164 57017 60006 81120 91200 333 91045=
07661,1998-12-11 18:00:00,11,1018.7,1.8,47,0,25000,22.224,,87.044,280,10.4,12.8,,,,,,,,,wg-a,,,,AAXX 11184 07661 12/75 02812 10110 20000 30023 40187 51018 60006 80000 91800 333 10128 20104 91047=
07661,1998-12-12 00:00:00,9,1021.8,1.8,61,2,20000,0,,,0,,,,,,,,,,,wg-a,,,,AAXX 12004 07661 12/70 20000 10090 20020 30052 40218 51018 60006 80002 90000=
07661,1998-12-12 06:00:00,9,1023.9,1,57,1,20000,3.704,,,120,7.8,11.2,,,,,,,,,wg-a,,,,AAXX 12064 07661 02/70 01202 10090 20010 30072 40239 53010 60006 80000 90600 333 10112 20078 60004=
07661,1998-12-12 12:00:00,11,1026.2,0.5,66,5,35000,11.112,,,110,,,,,,,,,,,wg-a,,,,AAXX 12124 07661 12/81 51106 10110 20050 30097 40262 50005 60006 83069 91200=
07661,1998-12-12 18:00:00,11,1027.3,0.5,62,4,0,3.704,,,320,8,12.3,,,,,,,,,wg-a,,,,AAXX 12184 07661 12/// /3202 10110 20040 30107 40273 51005 60006 91800 333 10123 20080=
07661,1998-12-13 00:00:00,11,1027.3,0.2,76,7,15000,3.704,,,250,,,,,,,,,,,wg-a,,,,AAXX 13004 07661 12/65 32502 10110 20070 30108 40273 53002 60006 80009 90000=
07661,1998-12-13 06:00:00,10,1028.4,0.5,76,6,25000,7.408,,,100,8.7,11.9,,,,,,,,,wg-a,,,,AAXX 13064 07661 02/75 11004 10100 20060 30118 40284 53005 60006 81041 90600 333 10119 20087 60004=
07661,1998-12-13 12:00:00,12,1029.7,0.1,88,10,25000,11.112,,,150,,,,,,,,,,,wg-a,,,,AAXX 13124 07661 12/75 31506 10120 20100 30132 40297 50001 60006 83062 91200=
07661,1998-12-13 18:00:00,11,1029.9,0.3,94,10,20000,3.704,,,190,8.1,12.8,,,,,,,,,wg-a,,,,AAXX 13184 07661 12/70 01902 10110 20100 30133 40299 51003 60006 80000 91800 333 10128 20081=
07661,1998-12-14 00:00:00,10,1030.4,0.1,93,9,20000,11.112,,,80,,,,0,,,,,,,wg-a,,,,AAXX 14004 07661 02/70 00806 10100 20090 30137 40304 53001 60006 80000 90000 333 60007=
07661,1998-12-14 06:00:00,8,1030.6,-0.3,100,8,20000,7.408,,,300,7.9,11.1,,,,,,,,,wg-a,,,,AAXX 14064 07661 12470 43004 10080 20080 30138 40306 55003 60004 82110 90600 333 10111 20079=
07661,1998-12-14 12:00:00,12,1028.7,-1.5,94,11,8000,7.408,,,90,,,,,,,,,,,wg-a,,,,AAXX 14124 07661 12558 70904 10120 20110 30122 40287 58015 60006 82602 91200=
07661,1998-12-14 18:00:00,11,1027.7,0.4,94,10,10000,14.816,,,70,7.9,12.6,,,,,,,,,wg-a,,,,AAXX 14184 07661 12860 70708 10110 20100 30111 40277 53004 60006 8707/ 91800 333 10126 20079=
07661,1998-12-15 00:00:00,8,1028.1,0.2,100,8,8000,14.816,,,70,,,,,,,,,,,wg-a,,,,AAXX 15004 07661 12458 20708 10080 20080 30113 40281 53002 60006 82600 90000=
07661,1998-12-15 06:00:00,6,1028.4,0.2,100,6,8000,18.52,,,70,5.1,10.5,,,,,,,,,wg-a,,,,AAXX 15064 07661 12458 30710 10060 20060 30115 40284 53002 60004 83600 90600 333 10105 20051=
07661,1998-12-15 12:00:00,11,1029.1,-0.1,87,9,10000,0,,,0,,,,,,,,,,,wg-a,,,,AAXX 15124 07661 12460 60000 10110 20090 30125 40291 58001 60006 86500 91200=
07661,1998-12-15 18:00:00,10,1029.2,0.9,93,9,8000,3.704,,,360,6,11.1,,,,,,,,,wg-a,,,,AAXX 15184 07661 32458 53602 10100 20090 30126 40292 51009 8/500 91800 333 10111 20060=
07661,1998-12-16 00:00:00,8,1029.5,-0.2,93,7,8000,11.112,,,310,,,,,,,,,,,wg-a,,,,AAXX 16004 07661 12458 33106 10080 20070 30127 40295 58002 60006 83500 90000=
07661,1998-12-16 06:00:00,6,1027.4,-1.2,100,6,500,11.112,,,360,5.4,10.4,,0,,,,,,,wg-a,,,,AAXX 16064 07661 02200 73606 10060 20060 30105 40274 56012 60004 87600 90600 333 10104 20054 60007=
07661,1998-12-16 12:00:00,10,1026.3,-1.2,93,9,6000,14.816,,,60,,,,,,,,,,,wg-a,,,,AAXX 16124 07661 12456 80608 10100 20090 30097 40263 58012 60006 886// 91200=
07661,1998-12-16 18:00:00,9,1027,1.1,93,8,10000,11.112,,,70,5.6,10.5,,,,,,,,,wg-a,,,,AAXX 16184 07661 12/60 00706 10090 20080 30103 40270 53011 60006 80000 91800 333 10105 20056=
07661,1998-12-17 00:00:00,7,1028.6,0.5,100,7,10000,18.52,,,60,,,,,,,,,,,wg-a,,,,AAXX 17004 07661 12460 70610 10070 20070 30118 40286 51005 60006 876// 90000=
07661,1998-12-17 06:00:00,6,1028.5,0.1,100,6,10000,7.408,,,30,5.5,9.2,,,,,,,,,wg-a,,,,AAXX 17064 07661 12/60 10304 10060 20060 30116 40285 53001 60004 80001 90600 333 10092 20055=
07661,1998-12-17 12:00:00,11,1028.6,-0.5,76,7,15000,7.408,,,150,,,,,,,,,,,wg-a,,,,AAXX 17124 07661 12165 31504 10110 20070 30120 40286 58005 60006 82604 91200=
07661,1998-12-17 18:00:00,10,1029.7,1,87,8,10000,11.112,,,50,5.4,12,,,,,,,,,wg-a,,,,AAXX 17184 07661 12/60 30506 10100 20080 30131 40297 53010 60006 80004 91800 333 10120 20054=
07661,1998-12-18 00:00:00,11,1029.5,-0.7,71,6,12000,14.816,,,60,,,,,,,,,,,wg-a,,,,AAXX 18004 07661 12/62 00608 10110 20060 30129 40295 58007 60006 80000 90000=
07661,1998-12-18 06:00:00,8,1028.1,-0.4,76,4,15000,18.52,,,90,6.4,11.1,,,,,,,,,wg-a,,,,AAXX 18064 07661 02/65 00910 10080 20040 30113 40281 56004 60006 80000 90600 333 10111 20064 60004=
07661,1998-12-18 12:00:00,12,1028,-1.3,82,9,10000,3.704,,,280,,,,,,,,,,,wg-a,,,,AAXX 18124 07661 12460 32802 10120 20090 30115 40280 58013 60006 82201 91200=
07661,1998-12-18 18:00:00,10,1026.3,-0.4,87,8,15000,25.928,,,280,6.9,13.6,,,,,,,,,wg-a,,,,AAXX 18184 07661 12465 12814 10100 20080 30097 40263 55004 60006 81600 91800 333 10136 20069=
07661,1998-12-19 00:00:00,8,1024.3,-1.1,93,7,6000,25.928,,,290,,,,,,,,,,,wg-a,,,,AAXX 19004 07661 12/56 02914 10080 20070 30076 40243 58011 60006 80000 90000=
07661,1998-12-19 06:00:00,9,1021.1,-1.8,87,7,15000,35.188,,,290,7.8,10.4,,,,,,,,,wg-a,,,,AAXX 19064 07661 02565 32919 10090 20070 30045 40211 56018 60006 83500 90600 333 10104 20078 60004=
07661,1998-12-19 12:00:00,13,1016.9,-3.8,62,6,10000,53.708,,83.34,300,,,,0,,,,,,,wg-a,,,,AAXX 19124 07661 02560 43029 10130 20060 30006 40169 58038 60006 81504 91200 333 60007 91045=
07661,1998-12-19 18:00:00,11,1014.7,-0.4,47,0,10000,68.524,,103.712,300,8.4,13.4,,,,,,,,,wg-a,,,,AAXX 19184 07661 32/60 23037 10110 20000 39983 40147 55004 82040 91800 333 10134 20084 91056=
07661,1998-12-20 00:00:00,10,1012.4,-1.2,40,-3,15000,57.412,,103.712,310,,,,,,,,,,,wg-a,,,,AAXX 20004 07661 12/65 33131 10100 21030 39960 40124 58012 60006 83040 90000 333 91056=
07661,1998-12-20 06:00:00,7,1010.1,-1.3,66,1,20000,18.52,,,300,6.7,11.4,,,,,,,,,wg-a,,,,AAXX 20064 07661 02670 23010 10070 20010 39935 40101 58013 60006 81430 90600 333 10114 20067 60004=
07661,1998-12-20 12:00:00,8,1005.7,-2.7,57,0,20000,7.408,,,300,,,,,,,,,,,wg-a,,,,AAXX 20124 07661 12/70 83004 10080 20000 39893 40057 58027 60006 88020 91200=
07661,1998-12-20 18:00:00,6,1000.4,-1.1,100,6,8000,11.112,,,70,6,8.2,,3,,,,,,61,wg-a,,,,AAXX 20184 07661 12/58 80706 10060 20060 39840 40004 56011 60037 76162 88020 91800 333 10082 20060=
07661,1998-12-21 00:00:00,6,1000.3,0.7,100,6,15000,7.408,,,40,,,,,,,,,,21,wg-a,,,,AAXX 21004 07661 02865 40404 10060 20060 39839 40003 52007 60056 72162 84020 90000 333 61000=
07661,1998-12-21 06:00:00,5,1001,0.5,87,3,20000,14.816,,,290,5.1,6.7,,,,,8,,,,wg-a,,,,AAXX 21064 07661 12670 62908 10050 20030 39845 40010 53005 60084 83230 90600 333 10067 20051=
07661,1998-12-21 12:00:00,11,1002.8,0.9,43,-1,25000,25.928,,,320,,,,,,,,,,,wg-a,,,,AAXX 21124 07661 12/75 23214 10110 21010 39866 40028 51009 60006 82070 91200=
07661,1998-12-21 18:00:00,8,1009.4,3.9,39,-5,25000,18.52,,,290,5.3,11.7,,,,,,,,,wg-a,,,,AAXX 21184 07661 12/75 02910 10080 21050 39929 40094 51039 60006 80000 91800 333 10117 20053=
07661,1998-12-22 00:00:00,6,1015.3,1.9,52,-3,20000,3.704,,,40,,,,,,,,,,,wg-a,,,,AAXX 22004 07661 12/70 00402 10060 21030 39986 40153 51019 60006 80000 90000=
07661,1998-12-22 06:00:00,4,1019.2,1.9,56,-4,20000,18.52,,,70,3.9,7.8,,,,,,,,,wg-a,,,,AAXX 22064 07661 02/70 00710 10040 21040 30023 40192 53019 60006 80000 90600 333 10078 20039 60004=
07661,1998-12-22 12:00:00,9,1022.2,0.3,53,0,20000,7.408,,,100,,,,,,,,,,,wg-a,,,,AAXX 22124 07661 12570 21004 10090 20000 30056 40222 50003 60006 82400 91200=
07661,1998-12-22 18:00:00,8,1023.8,1,76,4,20000,7.408,,,360,3.9,9.9,,,,,,,,,wg-a,,,,AAXX 22184 07661 12570 53604 10080 20040 30071 40238 52010 60006 8/800 91800 333 10099 20039=
07661,1998-12-23 00:00:00,6,1025.2,0.7,75,2,15000,14.816,,,70,,,,,,,,,,,wg-a,,,,AAXX 23004 07661 12865 10708 10060 20020 30083 40252 51007 60006 81010 90000=
07661,1998-12-23 06:00:00,3,1026,0.2,93,2,20000,14.816,,,60,3.1,8,,,,,,,,,wg-a,,,,AAXX 23064 07661 02570 60608 10030 20020 30090 40260 53002 60006 8/800 90600 333 10080 20031 60004=
07661,1998-12-23 12:00:00,8,1026.4,-1.2,71,3,20000,22.224,,,60,,,,,,,,,,,wg-a,,,,AAXX 23124 07661 12570 80612 10080 20030 30097 40264 58012 60006 8/800 91200=
07661,1998-12-23 18:00:00,8,1026.1,0.4,71,3,20000,25.928,,,60,3.3,9.3,,,,,,,,,wg-a,,,,AAXX 23184 07661 12670 80614 10080 20030 30094 40261 53004 60006 884// 91800 333 10093 20033=
07661,1998-12-24 00:00:00,8,1026.1,-0.3,71,3,20000,25.928,,,60,,,,,,,,,,,wg-a,,,,AAXX 24004 07661 32670 80614 10080 20030 30094 40261 58003 884// 90000=
07661,1998-12-24 06:00:00,7,1025,-0.3,87,5,20000,22.224,,,70,7.2,8.5,,,,,,,,,wg-a,,,,AAXX 24064 07661 12670 60712 10070 20050 30083 40250 55003 60004 86400 90600 333 10085 20072=
07661,1998-12-24 12:00:00,7,1023.8,-1.4,100,7,7000,18.52,,,60,,,,1,,,,,,80,wg-a,,,,AAXX 24124 07661 12557 80610 10070 20070 30071 40238 58014 60017 78082 88700 91200=
07661,1998-12-24 18:00:00,7,1023.3,0.8,100,7,10000,14.816,,,60,6.8,8.2,,3,,,,,,60,wg-a,,,,AAXX 24184 07661 12560 80608 10070 20070 30066 40233 51008 60037 76066 88700 91800 333 10082 20068=
07661,1998-12-25 00:00:00,6,1024.1,0.7,100,6,10000,18.52,,,50,,,,,,,,,,,wg-a,,,,AAXX 25004 07661 32560 50510 10060 20060 30073 40241 51007 83750 90000=
07661,1998-12-25 06:00:00,8,1026.8,1.8,81,5,12000,25.928,,,50,5.8,7.5,,,,,7,,,,wg-a,,,,AAXX 25064 07661 12562 80514 10080 20050 30100 40268 53018 60074 8/800 90600 333 10075 20058=
07661,1998-12-25 12:00:00,10,1029.1,0.3,71,5,12000,18.52,,,60,,,,,,,,,,,wg-a,,,,AAXX 25124 07661 32562 30610 10100 20050 30124 40291 50003 8/100 91200=
07661,1998-12-25 18:00:00,8,1030.3,0.9,81,5,15000,7.408,,,330,7.2,10.3,,,,,,,,,wg-a,,,,AAXX 25184 07661 32/65 03304 10080 20050 30135 40303 51009 80000 91800 333 10103 20072=
07661,1998-12-26 00:00:00,6,1029.7,-1.2,87,4,15000,11.112,,,70,,,,,,,,,,,wg-a,,,,AAXX 26004 07661 12/65 00706 10060 20040 30128 40297 58012 60006 80000 90000=
07661,1998-12-26 06:00:00,7,1029.6,-0.9,81,4,15000,11.112,,,310,5.2,8.2,,,,,,,,,wg-a,,,,AAXX 26064 07661 02865 23106 10070 20040 30127 40296 56009 60006 82030 90600 333 10082 20052 60004=
07661,1998-12-26 12:00:00,11,1028.9,-0.7,43,-1,20000,22.224,,,280,,,,,,,,,,,wg-a,,,,AAXX 26124 07661 12/70 52812 10110 21010 30123 40289 58007 60006 80002 91200=
07661,1998-12-26 18:00:00,8,1029.2,1,66,2,20000,14.816,,,300,5.9,10.9,,,,,,,,,wg-a,,,,AAXX 26184 07661 12770 13008 10080 20020 30124 40292 51010 60006 81400 91800 333 10109 20059=
07661,1998-12-27 00:00:00,7,1027.4,-1.2,81,4,20000,7.408,,,80,,,,,,,,,,,wg-a,,,,AAXX 27004 07661 12770 20804 10070 20040 30106 40274 58012 60006 82400 90000=
07661,1998-12-27 06:00:00,8,1025.2,-1,81,5,20000,14.816,,,80,6.1,8.4,,,,,,,,,wg-a,,,,AAXX 27064 07661 02670 50808 10080 20050 30085 40252 56010 60006 85400 90600 333 10084 20061 60004=
07661,1998-12-27 12:00:00,13,1023.7,-1.1,88,11,14000,18.52,,,190,,,,,,,,,,,wg-a,,,,AAXX 27124 07661 12464 71910 10130 20110 30073 40237 58011 60006 87800 91200=
07661,1998-12-27 18:00:00,12,1023.1,0.4,94,11,14000,22.224,,,170,6.8,13.3,,,,,,,,,wg-a,,,,AAXX 27184 07661 12464 61712 10120 20110 30067 40231 51004 60006 86800 91800 333 10133 20068=
07661,1998-12-28 00:00:00,12,1022.7,-0.4,94,11,15000,22.224,,,180,,,,,,,,,,,wg-a,,,,AAXX 28004 07661 12465 71812 10120 20110 30063 40227 58004 60006 86610 90000=
07661,1998-12-28 06:00:00,12,1022.1,-0,88,10,15000,18.52,,,170,11.6,12.2,,,,,,,,,wg-a,,,,AAXX 28064 07661 02465 51710 10120 20100 30057 40221 55000 60006 85600 90600 333 10122 20116 60004=
07661,1998-12-28 12:00:00,13,1021.6,-0.9,88,11,15000,22.224,,,140,,,,,,,,,,,wg-a,,,,AAXX 28124 07661 12465 81412 10130 20110 30052 40216 58009 60006 838// 91200=
07661,1998-12-28 18:00:00,12,1021.2,0.7,88,10,20000,14.816,,,160,11.6,12.9,,,,,,,,,wg-a,,,,AAXX 28184 07661 12470 71608 10120 20100 30048 40212 52007 60006 878// 91800 333 10129 20116=
07661,1998-12-29 00:00:00,10,1020.8,-0.5,93,9,20000,14.816,,,70,,,,,,,,,,,wg-a,,,,AAXX 29004 07661 12470 60708 10100 20090 30043 40208 58005 60006 8/800 90000=
07661,1998-12-29 06:00:00,9,1019.6,-0.2,100,9,20000,22.224,,,60,9,11.7,,0,,,,,,,wg-a,,,,AAXX 29064 07661 02470 40612 10090 20090 30031 40196 55002 60004 84401 90600 333 10117 20090 60007=
07661,1998-12-29 12:00:00,10,1019.6,-1,93,9,15000,25.928,,,60,,,,,,,,,,,wg-a,,,,AAXX 29124 07661 12565 70614 10100 20090 30031 40196 58010 60006 878// 91200=
07661,1998-12-29 18:00:00,11,1019,0.3,87,9,15000,35.188,,57.412,80,8.7,11.9,,,,,,,,,wg-a,,,,AAXX 29184 07661 12665 60819 10110 20090 30026 40190 51003 60006 84430 91800 333 10119 20087 91031=
07661,1998-12-30 00:00:00,11,1019,-0.1,87,9,15000,35.188,,,80,,,,,,,,,,,wg-a,,,,AAXX 30004 07661 32665 70819 10110 20090 30026 40190 58001 875// 90000=
07661,1998-12-30 06:00:00,11,1018.6,-0,94,10,15000,29.632,,61.116,80,10.9,11.6,,,,,,,,,wg-a,,,,AAXX 30064 07661 12465 50816 10110 20100 30022 40186 55000 60004 85400 90600 333 10116 20109 91033=
07661,1998-12-30 12:00:00,11,1018.8,-0.5,87,9,20000,29.632,,57.412,90,,,,1,,,,,,21,wg-a,,,,AAXX 30124 07661 12470 70916 10110 20090 30024 40188 58005 60017 72122 878// 91200 333 91031=
07661,1998-12-30 18:00:00,11,1018.2,-0.1,87,9,18000,42.596,,61.116,80,9.5,12.3,,1,,,,,,,wg-a,,,,AAXX 30184 07661 12468 50823 10110 20090 30018 40182 56001 60017 82460 91800 333 10123 20095 91033=
07661,1998-12-31 00:00:00,11,1017.7,-0.9,87,9,18000,50.004,,79.636,70,,,,,,,,,,,wg-a,,,,AAXX 31004 07661 32468 60727 10110 20090 30013 40177 58009 82560 90000 333 91043=
07661,1998-12-31 06:00:00,11,1015.5,-1.1,82,8,0,53.708,,,70,10.6,11.4,,,,,8,,,,wg-a,,,,AAXX 31064 07661 12/// /0729 10110 20080 39991 40155 58011 60084 90600 333 10114 20106=
07661,1998-12-31 12:00:00,11,1014.2,-1.2,94,10,10000,57.412,,87.044,80,,,,,,,,,,21,wg-a,,,,AAXX 31124 07661 32460 80831 10110 20100 39979 40142 58012 72162 887// 91200 333 91047=
07661,1998-12-31 18:00:00,10,1012.4,-0.1,93,9,7000,46.3,,90.748,90,9.3,11.3,,15,,,,,,61,wg-a,,,,AAXX 31184 07661 12457 80925 10100 20090 39960 40124 55001 60157 76166 887// 91800 333 10113 20093 91049=
