station_id,dh_utc,temperature,pression,pression_variation_3h,humidite,point_de_rosee,visibilite,vent_moyen,vent_rafales,vent_rafales_10min,vent_direction,temperature_min,temperature_max,pluie_1h,pluie_3h,pluie_6h,pluie_12h,pluie_24h,ensoleillement,temperature_sol,temps_omm,source,radiations,neige_au_sol,nebulosite,raw_msg
07661,1999-01-01 00:00:00,10,1011.4,0.9,100,10,10000,42.596,,96.304,90,,,,6,,,,,,61,wg-a,,,,AAXX 01004 07661 12460 80923 10100 20100 39951 40114 51009 60067 76166 887// 90000 333 91052=
07661,1999-01-01 06:00:00,9,1013.3,2.2,100,9,15000,22.224,,79.636,110,9.3,10.8,,8,,,37,,,21,wg-a,,,,AAXX 01064 07661 02465 81112 10090 20090 39969 40133 51022 60374 72166 887// 90600 333 10108 20093 60087 91043=
07661,1999-01-01 12:00:00,11,1013.4,-1,87,9,8000,57.412,,79.636,80,,,,2,,,,,,63,wg-a,,,,AAXX 01124 07661 12458 80831 10110 20090 39971 40134 56010 60027 76322 8772/ 91200 333 91043=
07661,1999-01-01 18:00:00,11,1014.5,0.9,82,8,16000,46.3,,79.636,70,7.2,11.6,,,,,,,,,wg-a,,,,AAXX 01184 07661 32566 70725 10110 20080 39982 40145 53009 8567/ 91800 333 10116 20072 91043=
07661,1999-01-02 00:00:00,10,1014.8,0,71,5,12000,31.484,,,60,,,,,,,,,,,wg-a,,,,AAXX 02004 07661 32462 40617 10100 20050 39984 40148 50000 82430 90000=
07661,1999-01-02 06:00:00,11,1014.8,-0,62,4,20000,25.928,,,60,10.1,11.4,,,,,27,,,,wg-a,,,,AAXX 02064 07661 12870 70614 10110 20040 39985 40148 55000 60274 87020 90600 333 10114 20101=
07661,1999-01-02 12:00:00,14,1015.4,-0.1,55,5,20000,3.704,,,50,,,,,,,,,,,wg-a,,,,AAXX 02124 07661 32870 70502 10140 20050 39992 40154 58001 8707/ 91200=
07661,1999-01-02 18:00:00,11,1015.6,0.5,66,5,20000,18.52,,,300,10.7,13.6,,,,,,,,,wg-a,,,,AAXX 02184 07661 32870 83010 10110 20050 39992 40156 52005 8802/ 91800 333 10136 20107=
07661,1999-01-03 00:00:00,10,1015.8,-0.9,87,8,15000,25.928,,,300,,,,,,,,,,1,wg-a,,,,AAXX 03004 07661 02465 13014 10100 20080 39994 40158 58009 61000 70162 81100 90000 333 ////=
07661,1999-01-03 06:00:00,10,1016.4,0.4,57,2,20000,42.596,,87.044,310,9.2,11.3,,,,,,,,,wg-a,,,,AAXX 03064 07661 02/70 03123 10100 20020 30000 40164 53004 61000 80000 90600 333 10113 20092 //// 91047=
07661,1999-01-03 12:00:00,13,1017.8,-0.5,54,4,500,42.596,,72.228,300,,,,,,,,,,,wg-a,,,,AAXX 03124 07661 32/00 33023 10130 20040 30015 40178 58005 82042 91200 333 91039=
07661,1999-01-03 18:00:00,12,1018,0.7,71,7,0,38.892,,,280,9.8,13.2,,,,,,,,,wg-a,,,,AAXX 03184 07661 32/// /2821 10120 20070 30017 40180 51007 91800 333 10132 20098=
07661,1999-01-04 00:00:00,12,1017.5,0,71,7,20000,53.708,,75.932,300,,,,,,,,,,,wg-a,,,,AAXX 04004 07661 32/70 13029 10120 20070 30012 40175 50000 81040 90000 333 91041=
07661,1999-01-04 06:00:00,12,1017.5,-0.4,71,7,500,42.596,,75.932,290,10.9,12.6,,,,,,,,,wg-a,,,,AAXX 04064 07661 12/00 02923 10120 20070 30012 40175 58004 60004 80000 90600 333 10126 20109 91041=
07661,1999-01-04 12:00:00,16,1017.6,0,59,8,500,25.928,,72.228,300,,,,,,,,,,,wg-a,,,,AAXX 04124 07661 32/00 13014 10160 20080 30015 40176 50000 80008 91200 333 91039=
07661,1999-01-04 18:00:00,12,1020.2,1.6,94,11,25000,14.816,,,90,11.6,17,,,,,,,,,wg-a,,,,AAXX 04184 07661 32/75 10908 10120 20110 30038 40202 51016 80002 91800 333 10170 20116=
07661,1999-01-05 00:00:00,8,1022.4,0.6,100,8,18000,22.224,,,80,,,,,,,,,,,wg-a,,,,AAXX 05004 07661 32/68 10812 10080 20080 30058 40224 51006 80001 90000=
07661,1999-01-05 06:00:00,9,1023,0.2,100,9,18000,31.484,,,70,7.6,11.7,,,,,,,,,wg-a,,,,AAXX 05064 07661 12/68 00717 10090 20090 30064 40230 53002 60004 80000 90600 333 10117 20076=
07661,1999-01-05 12:00:00,12,1024.6,0.2,88,10,12000,18.52,,,70,,,,,,,,,,,wg-a,,,,AAXX 05124 07661 32462 70710 10120 20100 30082 40246 50002 87510 91200=
07661,1999-01-05 18:00:00,11,1025,0.4,94,10,20000,14.816,,,60,8.7,12.4,,,,,,,,,wg-a,,,,AAXX 05184 07661 32/70 00608 10110 20100 30085 40250 52004 80000 91800 333 10124 20087=
07661,1999-01-06 00:00:00,8,1025.8,0.1,93,7,12000,18.52,,,90,,,,,,,,,,,wg-a,,,,AAXX 06004 07661 32/62 00910 10080 20070 30091 40258 50001 80000 90000=
07661,1999-01-06 06:00:00,9,1025.5,0.1,100,9,15000,7.408,,,60,7.5,10.9,,,,,,,,,wg-a,,,,AAXX 06064 07661 12365 60604 10090 20090 30089 40255 53001 60004 86600 90600 333 10109 20075=
07661,1999-01-06 12:00:00,11,1026.2,-0.3,87,9,15000,3.704,,,230,,,,,,,,,,,wg-a,,,,AAXX 06124 07661 32465 82302 10110 20090 30097 40262 58003 88500 91200=
07661,1999-01-06 18:00:00,10,1026.2,0.3,93,9,15000,7.408,,,220,8.9,11.4,,,,,,,,,wg-a,,,,AAXX 06184 07661 32465 82204 10100 20090 30096 40262 53003 885// 91800 333 10114 20089=
07661,1999-01-07 00:00:00,10,1025.3,-0.6,93,9,15000,11.112,,,330,,,,,,,,,,,wg-a,,,,AAXX 07004 07661 32465 83306 10100 20090 30087 40253 58006 885// 90000=
07661,1999-01-07 06:00:00,10,1022.7,-0.8,87,8,12000,14.816,,,310,8.7,10.4,,,,,,,,,wg-a,,,,AAXX 07064 07661 12462 83108 10100 20080 30061 40227 56008 60004 885// 90600 333 10104 20087=
07661,1999-01-07 12:00:00,13,1019.8,-2.7,82,10,25000,22.224,,,260,,,,,,,,,,,wg-a,,,,AAXX 07124 07661 32575 22612 10130 20100 30035 40198 58027 82200 91200=
07661,1999-01-07 18:00:00,12,1017.3,-0.4,82,9,12000,35.188,,64.82,290,9.5,13,,,,,,,,,wg-a,,,,AAXX 07184 07661 32/62 02919 10120 20090 30009 40173 56004 80000 91800 333 10130 20095 91035=
07661,1999-01-08 06:00:00,11,1012.5,-1.3,87,9,10000,38.892,,64.82,300,10.8,11.7,,,,,,,,,wg-a,,,,AAXX 08064 07661 12860 23021 10110 20090 39962 40125 56013 60004 82040 90600 333 10117 20108 91035=
07661,1999-01-08 12:00:00,13,1010.3,-2.2,77,9,15000,46.3,,72.228,280,,,,,,,,,,,wg-a,,,,AAXX 08124 07661 32465 42825 10130 20090 39941 40103 58022 81244 91200 333 91039=
07661,1999-01-08 18:00:00,12,1009.1,0.8,76,8,15000,35.188,,83.34,300,11,13.4,,,,,,,,,wg-a,,,,AAXX 08184 07661 32465 73019 10120 20080 39929 40091 51008 82438 91800 333 10134 20110 91045=
07661,1999-01-09 00:00:00,11,1008.4,-0.5,62,4,15000,25.928,,72.228,300,,,,,,,,,,,wg-a,,,,AAXX 09004 07661 32/65 03014 10110 20040 39921 40084 57005 80000 90000 333 91039=
07661,1999-01-09 06:00:00,9,1008.3,0.5,53,0,20000,50.004,,96.304,310,9.1,12.5,,,,,,,,,wg-a,,,,AAXX 09064 07661 12/70 03127 10090 20000 39919 40083 53005 60004 80000 90600 333 10125 20091 91052=
07661,1999-01-09 12:00:00,11,1007.5,-1.4,50,1,500,42.596,,72.228,310,,,,,,,,,,,wg-a,,,,AAXX 09124 07661 32/00 13123 10110 20010 39913 40075 58014 81040 91200 333 91039=
07661,1999-01-09 18:00:00,9,1006.4,-0.8,57,1,500,31.484,,,290,8.7,12,,,,,,,,,wg-a,,,,AAXX 09184 07661 32/00 62917 10090 20010 39900 40064 55008 84041 91800 333 10120 20087=
07661,1999-01-11 00:00:00,6,999.3,0.4,93,5,10000,25.928,,68.524,280,,,,5,,,,,,61,wg-a,,,,AAXX 11004 07661 12460 82814 10060 20050 39829 49993 53004 60057 76166 8772/ 90000 333 91037=
07661,1999-01-11 06:00:00,4,1001.7,1.4,93,3,15000,35.188,,,290,3.4,9.4,,,,,73,,,1,wg-a,,,,AAXX 11064 07661 02565 32919 10040 20030 39851 40017 53014 60734 70161 83200 90600 333 10094 20034 61000=
07661,1999-01-11 12:00:00,5,1007.9,2.4,75,1,15000,38.892,,,290,,,,,,,,,,,wg-a,,,,AAXX 11124 07661 32565 42921 10050 20010 39913 40079 51024 84200 91200=
07661,1999-01-11 18:00:00,4,1012.3,2.3,70,-1,20000,25.928,,64.82,310,3.1,5.6,,,,,,,,,wg-a,,,,AAXX 11184 07661 32570 43114 10040 21010 39956 40123 51023 84400 91800 333 10056 20031 91035=
07661,1999-01-12 00:00:00,2,1016.7,1.8,75,-2,20000,29.632,,,290,,,,,,,,,,,wg-a,,,,AAXX 12004 07661 32/70 02916 10020 21020 39997 40167 52018 80000 90000=
07661,1999-01-12 06:00:00,2,1018,0.1,69,-3,20000,42.596,,,310,1.3,4.2,,,,,,,,,wg-a,,,,AAXX 12064 07661 12/70 03123 10020 21030 30010 40180 50001 60004 80000 90600 333 10042 20013=
07661,1999-01-12 12:00:00,2,1018,0.1,69,-3,20000,42.596,,,310,1.3,4.2,,,,,,,,,wg-a,,,,AAXX 12124 07661 12/70 03123 10020 21030 30010 40180 50001 60004 80000 91200 333 10042 20013=
07661,1999-01-12 18:00:00,3,1019.4,0.5,70,-2,15000,22.224,,,290,2,5.1,,,,,,,,,wg-a,,,,AAXX 12184 07661 32/65 22912 10030 21020 30025 40194 53005 82060 91800 333 10051 20020=
07661,1999-01-13 00:00:00,2,1018.4,-1.1,64,-4,20000,25.928,,,300,,,,,,,,,,,wg-a,,,,AAXX 13004 07661 32/70 63014 10020 21040 30014 40184 58011 86070 90000=
07661,1999-01-13 06:00:00,4,1014.8,-1.3,70,-1,20000,38.892,,,310,1.5,4.8,,,,,,,,,wg-a,,,,AAXX 13064 07661 12870 53121 10040 21010 39980 40148 56013 60004 85070 90600 333 10048 20015=
07661,1999-01-13 12:00:00,7,1013,0.5,53,-2,15000,25.928,,75.932,290,,,,,,,,,,1,wg-a,,,,AAXX 13124 07661 32565 12914 10070 21020 39964 40130 51005 70161 81100 91200 333 91041=
07661,1999-01-13 18:00:00,7,1014.2,0.5,57,-1,15000,68.524,,,300,2.1,8.2,,,,,,,,,wg-a,,,,AAXX 13184 07661 32/65 03037 10070 21010 39976 40142 50005 80000 91800 333 10082 20021=
07661,1999-01-14 00:00:00,5,1015,-0.2,70,0,15000,46.3,,100.008,300,,,,,,,,,,,wg-a,,,,AAXX 14004 07661 32/65 23025 10050 20000 39983 40150 58002 82020 90000 333 91054=
07661,1999-01-14 06:00:00,7,1014.9,1.1,57,-1,18000,42.596,,72.228,300,5,7.1,,,,,,,,,wg-a,,,,AAXX 14064 07661 12/68 43023 10070 21010 39983 40149 52011 60004 84070 90600 333 10071 20050 91039=
07661,1999-01-14 12:00:00,10,1013.8,-1.3,66,4,35000,42.596,,64.82,290,,,,,,,,,,,wg-a,,,,AAXX 14124 07661 32/81 42923 10100 20040 39974 40138 58013 84042 91200 333 91035=
07661,1999-01-14 18:00:00,10,1015.5,1.4,66,4,25000,31.484,,72.228,300,6.8,11.5,,,,,,,,,wg-a,,,,AAXX 14184 07661 32/75 13017 10100 20040 39990 40155 53014 81040 91800 333 10115 20068 91039=
07661,1999-01-15 00:00:00,7,1017.8,0.9,70,2,25000,14.816,,,300,,,,,,,,,,,wg-a,,,,AAXX 15004 07661 32/75 03008 10070 20020 30011 40178 51009 80000 90000=
07661,1999-01-15 06:00:00,5,1019.9,1.4,75,1,25000,7.408,,,70,4.4,9.6,,,,,,,,,wg-a,,,,AAXX 15064 07661 12/75 00704 10050 20010 30031 40199 53014 60004 80000 90600 333 10096 20044=
07661,1999-01-15 18:00:00,9,1022.3,0.9,87,7,25000,18.52,,,70,4,10.5,,,,,,,,,wg-a,,,,AAXX 15184 07661 32675 20710 10090 20070 30057 40223 53009 82201 91800 333 10105 20040=
07661,1999-01-16 00:00:00,8,1024,0.6,93,7,15000,14.816,,,90,,,,,,,,,,,wg-a,,,,AAXX 16004 07661 32665 40908 10080 20070 30073 40240 50006 84200 90000=
07661,1999-01-16 06:00:00,8,1023.8,0.4,93,7,15000,18.52,,,80,7,9.3,,0,,,,,,,wg-a,,,,AAXX 16064 07661 02665 40810 10080 20070 30071 40238 53004 60004 84200 90600 333 10093 20070 60007=
07661,1999-01-16 12:00:00,12,1024.1,-0.4,76,8,20000,11.112,,,180,,,,,,,,,,,wg-a,,,,AAXX 16124 07661 32670 51806 10120 20080 30077 40241 58004 85200 91200=
07661,1999-01-16 18:00:00,12,1023.4,0.1,82,9,15000,22.224,,,150,7.5,12.6,,,,,,,,,wg-a,,,,AAXX 16184 07661 32665 61512 10120 20090 30069 40234 53001 86200 91800 333 10126 20075=
07661,1999-01-17 00:00:00,12,1023.3,-0.2,88,10,15000,29.632,,,170,,,,,,,,,,,wg-a,,,,AAXX 17004 07661 32465 71716 10120 20100 30068 40233 58002 87200 90000=
07661,1999-01-17 06:00:00,11,1020.9,-0.8,94,10,15000,29.632,,50.004,150,11.3,11.8,,,,,,,,,wg-a,,,,AAXX 17064 07661 12465 61516 10110 20100 30045 40209 56008 60004 86800 90600 333 10118 20113 91027=
07661,1999-01-17 12:00:00,10,1019.4,-1.3,100,10,10000,35.188,,53.708,70,,,,2,,,,,,60,wg-a,,,,AAXX 17124 07661 12460 80719 10100 20100 30029 40194 58013 60027 76062 88700 91200 333 91029=
07661,1999-01-17 18:00:00,12,1016.7,-1,100,12,500,38.892,,64.82,150,9.5,11.8,,12,,,,,,63,wg-a,,,,AAXX 17184 07661 12300 81521 10120 20120 30004 40167 55010 60127 76366 88700 91800 333 10118 20095 91035=
07661,1999-01-18 00:00:00,10,1018.4,1.3,100,10,500,22.224,,68.524,180,,,,12,,,,,,60,wg-a,,,,AAXX 18004 07661 12300 81812 10100 20100 30020 40184 51013 60127 76066 88700 90000 333 91037=
07661,1999-01-18 06:00:00,10,1018.8,0.2,100,10,500,50.004,,72.228,70,8.8,12,,20,,,87,,,62,wg-a,,,,AAXX 18064 07661 02300 80727 10100 20100 30024 40188 51002 60874 76266 88700 90600 333 10120 20088 60207 91039=
07661,1999-01-18 12:00:00,12,1022.2,0.8,88,10,15000,29.632,,72.228,70,,,,0,,,,,,21,wg-a,,,,AAXX 18124 07661 12365 80716 10120 20100 30058 40222 51008 60007 72162 8/760 91200 333 91039=
07661,1999-01-18 18:00:00,11,1022.7,0.4,87,9,12000,18.52,,,70,10.2,11.8,,,,,,,,,wg-a,,,,AAXX 18184 07661 32/62 20710 10110 20090 30062 40227 51004 81061 91800 333 10118 20102=
07661,1999-01-19 00:00:00,9,1023.5,-0.5,87,7,15000,7.408,,,10,,,,,,,,,,,wg-a,,,,AAXX 19004 07661 32/65 00104 10090 20070 30069 40235 56005 80000 90000=
07661,1999-01-19 06:00:00,9,1022.9,-0.2,81,6,0,0,,,0,8.5,10.8,,,,,,,,,wg-a,,,,AAXX 19064 07661 32/// /0000 10090 20060 30063 40229 55002 90600 333 10108 20085=
07661,1999-01-19 12:00:00,12,1023.6,0.1,88,10,20000,11.112,,,150,,,,,,,,,,,wg-a,,,,AAXX 19124 07661 32/70 01506 10120 20100 30072 40236 50001 80000 91200=
07661,1999-01-19 18:00:00,11,1023.9,0.6,94,10,15000,3.704,,,320,8.5,12.7,,,,,,,,,wg-a,,,,AAXX 19184 07661 32/65 03202 10110 20100 30074 40239 51006 80000 91800 333 10127 20085=
07661,1999-01-20 00:00:00,10,1024.8,-0.1,87,8,15000,14.816,,,70,,,,,,,,,,,wg-a,,,,AAXX 20004 07661 32/65 00708 10100 20080 30082 40248 57001 80000 90000=
07661,1999-01-20 06:00:00,8,1025.2,0.2,87,6,15000,18.52,,,90,7.5,10.7,,,,,,,,,wg-a,,,,AAXX 20064 07661 12/65 00910 10080 20060 30085 40252 53002 60004 80000 90600 333 10107 20075=
07661,1999-01-20 18:00:00,10,1025.6,0.3,93,9,20000,14.816,,,80,7.4,12.4,,,,,,,,,wg-a,,,,AAXX 20184 07661 32/70 00808 10100 20090 30090 40256 53003 80000 91800 333 10124 20074=
07661,1999-01-21 00:00:00,8,1025.5,-0.4,87,6,20000,25.928,,,90,,,,,,,,,,,wg-a,,,,AAXX 21004 07661 32/70 00914 10080 20060 30088 40255 58004 80000 90000=
07661,1999-01-21 06:00:00,5,1024.9,-0.3,93,4,14000,18.52,,,90,5.4,10.3,,,,,,,,,wg-a,,,,AAXX 21064 07661 12/64 00910 10050 20040 30080 40249 55003 60004 80000 90600 333 10103 20054=
07661,1999-01-21 12:00:00,11,1024.9,-0.4,87,9,10000,11.112,,,100,,,,,,,,,,,wg-a,,,,AAXX 21124 07661 32560 31006 10110 20090 30084 40249 58004 8/400 91200=
07661,1999-01-21 18:00:00,11,1024.4,0.3,87,9,15000,11.112,,,110,5.3,11.9,,,,,,,,,wg-a,,,,AAXX 21184 07661 32465 31106 10110 20090 30079 40244 52003 81430 91800 333 10119 20053=
07661,1999-01-22 00:00:00,9,1024.9,0.1,93,8,15000,7.408,,,50,,,,0,,,,,,,wg-a,,,,AAXX 22004 07661 12465 20504 10090 20080 30083 40249 52001 60007 82402 90000=
07661,1999-01-22 06:00:00,7,1024.2,-0.3,93,6,10000,11.112,,,70,6.6,10.5,,,,,,,,,wg-a,,,,AAXX 22064 07661 32460 20706 10070 20060 30075 40242 56003 82600 90600 333 10105 20066=
07661,1999-01-22 12:00:00,11,1024.5,-0.3,76,7,15000,7.408,,,210,,,,,,,,,,,wg-a,,,,AAXX 22124 07661 32565 32104 10110 20070 30080 40245 58003 82110 91200=
07661,1999-01-22 18:00:00,10,1024.1,0.4,87,8,15000,11.112,,,210,6.7,11.9,,,,,,,,,wg-a,,,,AAXX 22184 07661 32465 22106 10100 20080 30075 40241 53004 82600 91800 333 10119 20067=
07661,1999-01-23 00:00:00,7,1024.8,0.1,93,6,15000,11.112,,,210,,,,0,,,,,,,wg-a,,,,AAXX 23004 07661 12865 12106 10070 20060 30081 40248 53001 60007 81010 90000=
07661,1999-01-23 06:00:00,6,1024.4,-0.2,100,6,8000,11.112,,,210,5.3,9.6,,,,,,,,,wg-a,,,,AAXX 23064 07661 12458 72106 10060 20060 30076 40244 55002 60004 87600 90600 333 10096 20053=
07661,1999-01-23 12:00:00,7,1025.7,0.2,100,7,10000,11.112,,,210,,,,0,,,,,,60,wg-a,,,,AAXX 23124 07661 12460 82106 10070 20070 30089 40257 50002 60007 76062 88800 91200=
07661,1999-01-23 18:00:00,9,1025.2,0.3,100,9,8000,11.112,,,210,5.6,9.1,,,,,,,,21,wg-a,,,,AAXX 23184 07661 02458 82106 10090 20090 30086 40252 53003 61000 72122 888// 91800 333 10091 20056 ////=
07661,1999-01-24 00:00:00,9,1025.7,-0,93,8,10000,11.112,,,210,,,,,,,,,,2,wg-a,,,,AAXX 24004 07661 32460 82106 10090 20080 30090 40257 55000 70262 888// 90000=
07661,1999-01-24 06:00:00,8,1025.7,0.3,100,8,10000,11.112,,,210,8.2,9.9,,,,,1,,,,wg-a,,,,AAXX 24064 07661 12560 82106 10080 20080 30090 40257 53003 60014 8/12/ 90600 333 10099 20082=
07661,1999-01-24 12:00:00,11,1026.9,-0.2,87,9,12000,11.112,,,210,,,,,,,,,,,wg-a,,,,AAXX 24124 07661 32462 32106 10110 20090 30104 40269 58002 82260 91200=
07661,1999-01-24 18:00:00,10,1027.8,1.2,82,7,12000,11.112,,,210,8.4,12.5,,,,,,,,,wg-a,,,,AAXX 24184 07661 32862 32106 10100 20070 30111 40278 53012 82031 91800 333 10125 20084=
07661,1999-01-25 06:00:00,8,1029.1,-0.1,81,5,12000,11.112,,,210,7,9.6,,,,,,,,,wg-a,,,,AAXX 25064 07661 12/62 02106 10080 20050 30123 40291 56001 60004 80000 90600 333 10096 20070=
07661,1999-01-25 12:00:00,11,1028.6,-1,76,7,8000,11.112,,,210,,,,,,,,,,,wg-a,,,,AAXX 25124 07661 32658 22106 10110 20070 30120 40286 58010 81101 91200=
07661,1999-01-25 18:00:00,10,1026.8,0.1,76,6,8000,11.112,,,210,6.4,11.1,,,,,,,,,wg-a,,,,AAXX 25184 07661 32/58 12106 10100 20060 30102 40268 53001 80001 91800 333 10111 20064=
07661,1999-01-26 00:00:00,8,1025.7,-1,81,5,10000,11.112,,,210,,,,,,,,,,,wg-a,,,,AAXX 26004 07661 32/60 02106 10080 20050 30090 40257 58010 80000 90000=
07661,1999-01-26 06:00:00,7,1022.2,-1.6,87,5,10000,11.112,,,210,6.4,9.6,,,,,,,,,wg-a,,,,AAXX 26064 07661 12/60 02106 10070 20050 30055 40222 56016 60004 80000 90600 333 10096 20064=
07661,1999-01-26 12:00:00,13,1019.3,-2.3,62,6,10000,11.112,,,210,,,,,,,,,,,wg-a,,,,AAXX 26124 07661 32/60 42106 10130 20060 30030 40193 58023 80002 91200=
07661,1999-01-26 18:00:00,11,1016.1,-0.8,87,9,12000,35.188,,,290,6.9,13.5,,,,,,,,60,wg-a,,,,AAXX 26184 07661 02562 82919 10110 20090 39997 40161 57008 61000 76011 887// 91800 333 10135 20069 ////=
07661,1999-01-27 00:00:00,10,1013.3,-0.6,50,0,25000,50.004,,75.932,300,,,,,,,,,,,wg-a,,,,AAXX 27004 07661 32/75 03027 10100 20000 39969 40133 56006 80000 90000 333 91041=
07661,1999-01-27 06:00:00,8,1012.2,-0.6,61,1,25000,46.3,,87.044,290,7.9,11.1,,,,,,,,,wg-a,,,,AAXX 27064 07661 12675 32925 10080 20010 39957 40122 56006 60004 83400 90600 333 10111 20079 91047=
07661,1999-01-27 12:00:00,10,1008.5,-0.9,71,5,20000,57.412,,103.712,310,,,,0,,,,,,21,wg-a,,,,AAXX 27124 07661 12470 53131 10100 20050 39922 40085 58009 60007 72162 83342 91200 333 91056=
07661,1999-01-27 18:00:00,8,1012.3,5,49,-2,25000,68.524,,133.344,320,7.6,10.9,,,,,,,,,wg-a,,,,AAXX 27184 07661 32/75 03237 10080 21020 39958 40123 51050 80000 91800 333 10109 20076 91072=
07661,1999-01-28 00:00:00,6,1015.4,-0.2,52,-3,20000,25.928,,96.304,260,,,,,,,,,,,wg-a,,,,AAXX 28004 07661 32/70 02614 10060 21030 39987 40154 58002 80000 90000 333 91052=
07661,1999-01-28 06:00:00,8,1014.9,1,53,-1,25000,25.928,,79.636,310,5.8,9.4,,,,,,,,,wg-a,,,,AAXX 28064 07661 12/75 03114 10080 21010 39983 40149 50010 60004 80000 90600 333 10094 20058 91043=
07661,1999-01-28 12:00:00,13,1010.3,-2.8,54,4,25000,57.412,,100.008,310,,,,,,,,,,,wg-a,,,,AAXX 28124 07661 32575 43131 10130 20040 39941 40103 58028 81140 91200 333 91054=
07661,1999-01-28 18:00:00,14,1004.4,-0.8,51,4,25000,90.748,,137.048,310,7.9,14.2,,,,,,,,,wg-a,,,,AAXX 28184 07661 32575 23149 10140 20040 39883 40044 58008 82100 91800 333 10142 20079 91074=
07661,1999-01-29 00:00:00,12,1005.1,1.1,62,5,25000,0,,183.348,0,,,,,,,,,,,wg-a,,,,AAXX 29004 07661 32875 20000 10120 20050 39890 40051 53011 82040 90000 333 91099=
07661,1999-01-29 06:00:00,11,1008.8,2.6,32,-5,25000,0,,,0,10.5,13.7,,,,,,,,,wg-a,,,,AAXX 29064 07661 12/75 00000 10110 21050 39925 40088 51026 60004 80000 90600 333 10137 20105=
07661,1999-01-29 12:00:00,11,1010.3,-1.2,37,-3,35000,0,,,0,,,,,,,,,,,wg-a,,,,AAXX 29124 07661 32481 1//// 10110 21030 39940 40103 58012 81100 91200=
07661,1999-01-29 18:00:00,9,1013.2,1.3,37,-5,35000,0,,,0,8.8,12.1,,,,,,,,,wg-a,,,,AAXX 29184 07661 32/81 0//// 10090 21050 39967 40132 53013 80000 91800 333 10121 20088=
07661,1999-01-30 00:00:00,7,1018.7,2.7,33,-8,35000,0,,,0,,,,,,,,,,,wg-a,,,,AAXX 30004 07661 32581 3//// 10070 21080 30020 40187 51027 83200 90000=
07661,1999-01-30 06:00:00,4,1019.3,-0.2,35,-10,35000,0,,,0,3.8,8.9,,,,,,,,,wg-a,,,,AAXX 30064 07661 12881 1//// 10040 21100 30024 40193 55002 60004 81030 90600 333 10089 20038=
07661,1999-01-30 12:00:00,8,1020.5,0.5,42,-4,500,0,,,0,,,,,,,,,,,wg-a,,,,AAXX 30124 07661 32500 2//// 10080 21040 30038 40205 50005 82260 91200=
07661,1999-01-30 18:00:00,6,1019.7,0.8,49,-4,500,0,,,0,4.1,9,,,,,,,,,wg-a,,,,AAXX 30184 07661 32600 4//// 10060 21040 30029 40197 53008 84200 91800 333 10090 20041=
07661,1999-01-31 00:00:00,3,1022.6,1.9,41,-9,25000,0,,,0,,,,0,,,,,,,wg-a,,,,AAXX 31004 07661 12575 7//// 10030 21090 30056 40226 51019 60007 875// 90000=
07661,1999-01-31 06:00:00,1,1024.7,0.6,51,-8,25000,0,,,0,0.6,6.2,,,,,1,,,,wg-a,,,,AAXX 31064 07661 12575 5//// 10010 21080 30075 40247 53006 60014 85561 90600 333 10062 20006=
07661,1999-01-31 12:00:00,5,1025.7,0.4,24,-14,500,0,,,0,,,,,,,,,,,wg-a,,,,AAXX 31124 07661 32500 2//// 10050 21140 30087 40257 51004 82200 91200=
07661,1999-01-31 18:00:00,3,1024.7,-0.1,38,-10,20000,0,,,0,0.4,6.2,,,,,,,,,wg-a,,,,AAXX 31184 07661 32570 2//// 10030 21100 30077 40247 55001 82200 91800 333 10062 20004=
07661,1999-02-01 00:00:00,2,1025.2,0.4,51,-7,15000,0,,,0,,,,,,,,,,,wg-a,,,,AAXX 01004 07661 32/65 0//// 10020 21070 30081 40252 53004 80000 90000=
07661,1999-02-01 06:00:00,2,1024.5,-0.4,47,-8,20000,0,,,0,1.1,3.1,,,,,,,,,wg-a,,,,AAXX 01064 07661 12670 1//// 10020 21080 30074 40245 56004 60004 81400 90600 333 10031 20011=
07661,1999-02-01 12:00:00,7,1025,0,39,-6,20000,0,,,0,,,,,,,,,,,wg-a,,,,AAXX 01124 07661 32/70 1//// 10070 21060 30082 40250 50000 81030 91200=
07661,1999-02-01 18:00:00,5,1025.8,0.7,60,-2,20000,14.816,,,300,1.1,8.1,,,,,,,,,wg-a,,,,AAXX 01184 07661 32870 13008 10050 21020 30089 40258 53007 81040 91800 333 10081 20011=
07661,1999-02-02 00:00:00,4,1027.8,0.6,56,-4,20000,14.816,,,90,,,,,,,,,,,wg-a,,,,AAXX 02004 07661 32/70 00908 10040 21040 30108 40278 53006 80000 90000=
07661,1999-02-02 06:00:00,3,1028.3,-0.2,48,-7,20000,11.112,,,310,2.5,5.3,,,,,,,,,wg-a,,,,AAXX 02064 07661 12/70 03106 10030 21070 30112 40283 57002 60004 80000 90600 333 10053 20025=
07661,1999-02-02 12:00:00,9,1027.1,-1.2,37,-5,20000,14.816,,,290,,,,,,,,,,,wg-a,,,,AAXX 02124 07661 32470 32908 10090 21050 30104 40271 58012 82460 91200=
07661,1999-02-03 00:00:00,5,1030.5,1.5,65,-1,15000,7.408,,,40,,,,,,,,,,,wg-a,,,,AAXX 03004 07661 32/65 00404 10050 21010 30135 40305 51015 80000 90000=
07661,1999-02-03 06:00:00,6,1031.2,-0.5,49,-4,15000,11.112,,,340,3.9,7.2,,,,,,,,,wg-a,,,,AAXX 03064 07661 12/65 03406 10060 21040 30143 40312 57005 60004 80000 90600 333 10072 20039=
07661,1999-02-03 12:00:00,11,1031.6,-0.6,66,5,10000,18.52,,,220,,,,,,,,,,,wg-a,,,,AAXX 03124 07661 32560 52210 10110 20050 30150 40316 58006 82531 91200=
07661,1999-02-03 18:00:00,9,1029.6,-1,66,3,15000,3.704,,,90,5.7,11.4,,,,,,,,,wg-a,,,,AAXX 03184 07661 32865 50902 10090 20030 30129 40296 56010 85052 91800 333 10114 20057=
07661,1999-02-04 00:00:00,6,1028.9,-1,75,2,15000,18.52,,,90,,,,,,,,,,,wg-a,,,,AAXX 04004 07661 32/65 50910 10060 20020 30120 40289 57010 80006 90000=
07661,1999-02-04 06:00:00,7,1027.6,-0.8,61,0,15000,11.112,,,320,5,9.1,,,,,,,,,wg-a,,,,AAXX 04064 07661 12865 23206 10070 20000 30107 40276 56008 60004 82030 90600 333 10091 20050=
07661,1999-02-04 12:00:00,11,1026.8,-0.8,66,5,15000,14.816,,,220,,,,,,,,,,,wg-a,,,,AAXX 04124 07661 32/65 22208 10110 20050 30102 40268 58008 80005 91200=
07661,1999-02-04 18:00:00,11,1022.9,-1.5,71,6,15000,14.816,,,300,6.3,13.1,,,,,,,,,wg-a,,,,AAXX 04184 07661 32/65 53008 10110 20060 30064 40229 56015 80005 91800 333 10131 20063=
07661,1999-02-05 00:00:00,8,1020.6,-1.5,71,3,15000,11.112,,,310,,,,,,,,,,,wg-a,,,,AAXX 05004 07661 32/65 63106 10080 20030 30040 40206 58015 80005 90000=
07661,1999-02-05 06:00:00,10,1014.5,-3.1,53,1,18000,64.82,,79.636,300,7.5,10.7,,,,,,,,,wg-a,,,,AAXX 05064 07661 12668 13035 10100 20010 39981 40145 56031 60004 81100 90600 333 10107 20075 91043=
07661,1999-02-05 12:00:00,14,1013.7,-1.7,51,4,15000,57.412,,,310,,,,,,,,,,,wg-a,,,,AAXX 05124 07661 32665 23131 10140 20040 39975 40137 58017 81101 91200=
07661,1999-02-05 18:00:00,12,1009.2,0.3,44,0,15000,72.228,,122.232,320,9.3,15,,,,,,,,,wg-a,,,,AAXX 05184 07661 32665 13239 10120 20000 39930 40092 53003 81100 91800 333 10150 20093 91066=
07661,1999-02-06 00:00:00,9,1008.9,-1.7,49,-1,20000,72.228,,100.008,310,,,,,,,,,,,wg-a,,,,AAXX 06004 07661 32/70 03139 10090 21010 39925 40089 58017 80000 90000 333 91054=
07661,1999-02-06 06:00:00,10,1008.8,-1.7,43,-2,0,42.596,,,310,8.2,11.9,,,,,,,,,wg-a,,,,AAXX 06064 07661 12/// /3123 10100 21020 39924 40088 58017 60004 90600 333 10119 20082=
07661,1999-02-06 12:00:00,13,1009.2,2.6,33,-3,25000,64.82,,144.456,330,,,,,,,,,,,wg-a,,,,AAXX 06124 07661 32/75 03335 10130 21030 39930 40092 53026 80000 91200 333 91078=
07661,1999-02-06 18:00:00,10,1011.7,0.7,46,-1,500,46.3,,103.712,320,9.6,13.7,,,,,,,,,wg-a,,,,AAXX 06184 07661 32/00 03225 10100 21010 39953 40117 53007 80000 91800 333 10137 20096 91056=
07661,1999-02-07 00:00:00,8,1011.4,0.3,53,-1,20000,35.188,,83.34,300,,,,,,,,,,,wg-a,,,,AAXX 07004 07661 32/70 03019 10080 21010 39949 40114 50003 80000 90000 333 91045=
07661,1999-02-07 06:00:00,7,1008.4,-1.6,57,-1,20000,50.004,,,290,6.9,9.6,,,,,,,,,wg-a,,,,AAXX 07064 07661 12/70 32927 10070 21010 39919 40084 58016 60004 80002 90600 333 10096 20069=
07661,1999-02-07 12:00:00,11,1006.2,-2.6,71,6,20000,57.412,,87.044,300,,,,,,,,,,,wg-a,,,,AAXX 07124 07661 32570 53031 10110 20060 39900 40062 58026 81142 91200 333 91047=
07661,1999-02-07 18:00:00,10,1003.1,0.2,66,4,18000,57.412,,100.008,310,6.7,11.1,,,,,,,,,wg-a,,,,AAXX 07184 07661 32468 43131 10100 20040 39869 40031 53002 8217/ 91800 333 10111 20067 91054=
07661,1999-02-08 00:00:00,6,1004.3,0.1,52,-3,20000,79.636,,122.232,310,,,,,,,,,,,wg-a,,,,AAXX 08004 07661 32/70 13143 10060 21030 39878 40043 53001 81040 90000 333 91066=
07661,1999-02-08 06:00:00,3,1006.7,2.1,44,-8,20000,57.412,,129.64,310,2.8,10.2,,,,,,,,,wg-a,,,,AAXX 08064 07661 12/70 13131 10030 21080 39900 40067 53021 60004 81040 90600 333 10102 20028 91070=
07661,1999-02-08 12:00:00,7,1011.1,1.1,24,-12,500,25.928,,83.34,310,,,,,,,,,,,wg-a,,,,AAXX 08124 07661 32500 13114 10070 21120 39945 40111 50011 81140 91200 333 91045=
07661,1999-02-08 18:00:00,6,1011.6,1.2,45,-5,25000,25.928,,87.044,300,2.8,8.6,,,,,,,,,wg-a,,,,AAXX 08184 07661 32575 33014 10060 21050 39950 40116 51012 81140 91800 333 10086 20028 91047=
07661,1999-02-09 00:00:00,10,1007,-3.5,87,8,15000,50.004,,94.452,270,,,,3,,,,,,21,wg-a,,,,AAXX 09004 07661 12465 82727 10100 20080 39907 40070 56035 60037 72162 887// 90000 333 91051=
07661,1999-02-09 06:00:00,11,1003.6,-1.6,76,7,15000,35.188,,90.748,250,4,11.2,,,,,3,,,,wg-a,,,,AAXX 09064 07661 12565 42519 10110 20070 39874 40036 56016 60034 84600 90600 333 10112 20040 91049=
07661,1999-02-09 12:00:00,12,999.7,-2.6,76,8,15000,31.484,,61.116,250,,,,,,,,,,,wg-a,,,,AAXX 09124 07661 32565 82517 10120 20080 39836 49997 58026 84260 91200 333 91033=
07661,1999-02-09 18:00:00,12,996.2,-0.7,67,6,15000,35.188,,64.82,270,10.6,12.1,,,,,,,,2,wg-a,,,,AAXX 09184 07661 02565 72719 10120 20060 39802 49962 56007 61000 70262 84260 91800 333 10121 20106 //// 91035=
07661,1999-02-10 00:00:00,4,998.4,1.6,60,-3,20000,42.596,,83.34,310,,,,,,,,,,,wg-a,,,,AAXX 10004 07661 32870 33123 10040 21030 39819 49984 50016 83030 90000 333 91045=
07661,1999-02-10 06:00:00,2,996.4,-1.2,55,-6,20000,64.82,,90.748,310,2.1,11.7,,,,,,,,,wg-a,,,,AAXX 10064 07661 12570 33135 10020 21060 39798 49964 58012 60004 83200 90600 333 10117 20021 91049=
07661,1999-02-10 12:00:00,5,998.2,0.3,41,-7,25000,57.412,,90.748,320,,,,,,,,,,,wg-a,,,,AAXX 10124 07661 32575 33231 10050 21070 39817 49982 50003 83200 91200 333 91049=
07661,1999-02-10 18:00:00,3,998.8,1.2,44,-8,25000,61.116,,96.304,310,1.8,5.9,,,,,,,,,wg-a,,,,AAXX 10184 07661 32575 23133 10030 21080 39822 49988 51012 82200 91800 333 10059 20018 91052=
07661,1999-02-11 00:00:00,2,1001.6,0.9,44,-9,20000,29.632,,90.748,310,,,,,,,,,,,wg-a,,,,AAXX 11004 07661 32570 13116 10020 21090 39849 40016 53009 81100 90000 333 91049=
07661,1999-02-11 06:00:00,3,1003.1,1.1,30,-13,20000,38.892,,68.524,360,0.9,2.9,,,,,,,,,wg-a,,,,AAXX 11064 07661 12570 33621 10030 21130 39864 40031 51011 60004 83200 90600 333 10029 20009 91037=
07661,1999-02-11 12:00:00,6,1005.7,0.4,24,-13,35000,35.188,,75.932,360,,,,,,,,,,,wg-a,,,,AAXX 11124 07661 32481 33619 10060 21130 39892 40057 50004 83260 91200 333 91041=
07661,1999-02-11 18:00:00,4,1008.1,1.4,38,-9,15000,53.708,,87.044,340,2.4,7,,,,,,,,,wg-a,,,,AAXX 11184 07661 32465 33429 10040 21090 39914 40081 53014 83240 91800 333 10070 20024 91047=
07661,1999-02-12 00:00:00,2,1012.3,2.7,32,-13,20000,14.816,,83.34,330,,,,,,,,,,,wg-a,,,,AAXX 12004 07661 32/70 03308 10020 21130 39954 40123 53027 80000 90000 333 91045=
07661,1999-02-12 06:00:00,1,1013.1,0.6,44,-10,25000,7.408,,,320,0.8,3.6,,,,,,,,,wg-a,,,,AAXX 12064 07661 12575 13204 10010 21100 39961 40131 53006 60004 81200 90600 333 10036 20008=
07661,1999-02-12 12:00:00,6,1014,-0.3,31,-10,500,3.704,,,200,,,,,,,,,,,wg-a,,,,AAXX 12124 07661 32500 12002 10060 21100 39973 40140 58003 81100 91200=
07661,1999-02-12 18:00:00,4,1014.7,1.3,38,-9,20000,14.816,,,340,1.1,7.3,,,,,,,,,wg-a,,,,AAXX 12184 07661 32/70 03408 10040 21090 39979 40147 53013 80000 91800 333 10073 20011=
07661,1999-02-13 00:00:00,2,1016.7,0.6,44,-9,20000,3.704,,,40,,,,,,,,,,,wg-a,,,,AAXX 13004 07661 32/70 00402 10020 21090 39997 40167 51006 80000 90000=
07661,1999-02-13 06:00:00,0,1017.3,0.4,55,-8,25000,14.816,,,60,0,4.2,,,,,,,,,wg-a,,,,AAXX 13064 07661 12575 10608 10000 21080 30002 40173 53004 60004 81200 90600 333 10042 20000=
07661,1999-02-13 12:00:00,7,1019.2,0.6,39,-6,25000,7.408,,,240,,,,,,,,,,,wg-a,,,,AAXX 13124 07661 32/75 12404 10070 21060 30025 40192 50006 81100 91200=
07661,1999-02-13 18:00:00,5,1021.2,1.5,35,-9,20000,11.112,,,310,0,8.4,,,,,,,,,wg-a,,,,AAXX 13184 07661 32670 23106 10050 21090 30043 40212 53015 81201 91800 333 10084 20000=
07661,1999-02-14 00:00:00,2,1023.2,0.3,51,-7,20000,11.112,,,330,,,,,,,,,,,wg-a,,,,AAXX 14004 07661 32/70 03306 10020 21070 30061 40232 53003 80000 90000=
07661,1999-02-14 06:00:00,1,1022.5,-0.3,69,-4,20000,3.704,,,70,1,4.8,,,,,,,,,wg-a,,,,AAXX 14064 07661 12670 10702 10010 21040 30054 40225 58003 60004 81400 90600 333 10048 20010=
07661,1999-02-14 12:00:00,6,1022.1,-1,45,-5,17000,18.52,,,290,,,,,,,,,,,wg-a,,,,AAXX 14124 07661 32/67 02910 10060 21050 30053 40221 58010 80000 91200=
07661,1999-02-14 18:00:00,4,1020.9,0.2,52,-5,15000,18.52,,,300,0.6,6.7,,,,,,,,,wg-a,,,,AAXX 14184 07661 32/65 03010 10040 21050 30040 40209 53002 80000 91800 333 10067 20006=
07661,1999-02-15 00:00:00,5,1022.3,0.7,56,-3,15000,22.224,,,60,,,,,,,,,,,wg-a,,,,AAXX 15004 07661 32/65 00612 10050 21030 30054 40223 53007 80000 90000=
07661,1999-02-15 06:00:00,3,1022.4,0.1,65,-3,18000,14.816,,,50,2.9,5.3,,,,,,,,,wg-a,,,,AAXX 15064 07661 12568 20508 10030 21030 30054 40224 53001 60004 82100 90600 333 10053 20029=
07661,1999-02-15 12:00:00,10,1023.9,0.7,53,1,12000,18.52,,,60,,,,,,,,,,,wg-a,,,,AAXX 15124 07661 32562 60610 10100 20010 30073 40239 50007 84860 91200=
07661,1999-02-15 18:00:00,8,1024.8,0.9,71,3,12000,14.816,,,80,2.8,10.1,,,,,,,,,wg-a,,,,AAXX 15184 07661 32762 40808 10080 20030 30081 40248 53009 83460 91800 333 10101 20028=
07661,1999-02-16 00:00:00,8,1024.8,0.9,71,3,12000,14.816,,,80,2.8,10.1,,,,,,,,,wg-a,,,,AAXX 16004 07661 32/62 40808 10080 20030 40248 53009 83460 90000 333 10101 20028=
07661,1999-02-16 06:00:00,5,1023,-0.8,81,2,15000,3.704,,,320,3.4,7.6,,,,,,,,,wg-a,,,,AAXX 16064 07661 12865 13202 10050 20020 30061 40230 56008 60004 81030 90600 333 10076 20034=
07661,1999-02-16 12:00:00,9,1019.9,-2.6,61,2,6000,29.632,,,280,,,,,,,,,,,wg-a,,,,AAXX 16124 07661 32556 52816 10090 20020 30033 40199 58026 82230 91200=
07661,1999-02-16 18:00:00,9,1013.9,-2.5,76,5,12000,50.004,,79.636,290,4.7,9,,,,,,,,,wg-a,,,,AAXX 16184 07661 32562 32927 10090 20050 39974 40139 58025 81130 91800 333 10090 20047 91043=
07661,1999-02-17 00:00:00,8,1012.9,1.2,66,2,20000,38.892,,107.416,300,,,,,,,,,,,wg-a,,,,AAXX 17004 07661 32/70 03021 10080 20020 39964 40129 53012 80000 90000 333 91058=
07661,1999-02-17 06:00:00,8,1011.3,-0.2,66,2,20000,42.596,,87.044,300,7.9,10.2,,,,,,,,,wg-a,,,,AAXX 17064 07661 12870 43023 10080 20020 39948 40113 56002 60004 84030 90600 333 10102 20079 91047=
07661,1999-02-17 12:00:00,10,1011.1,0.1,37,-4,25000,75.932,,107.416,300,,,,,,,,,,,wg-a,,,,AAXX 17124 07661 32575 13041 10100 21040 39947 40111 50001 81108 91200 333 91058=
07661,1999-02-17 18:00:00,9,1011.9,2,43,-3,20000,50.004,,100.008,300,8,11.3,,,,,,,,,wg-a,,,,AAXX 17184 07661 32570 13027 10090 21030 39954 40119 51020 81100 91800 333 10113 20080 91054=
07661,1999-02-18 00:00:00,8,1012.7,-1.1,53,-1,20000,79.636,,107.416,300,,,,,,,,,,,wg-a,,,,AAXX 18004 07661 32/70 03043 10080 21010 39962 40127 55011 80000 90000 333 91058=
07661,1999-02-18 06:00:00,7,1015.8,2.6,57,-1,25000,61.116,,107.416,310,6.6,8.8,,,,,,,,,wg-a,,,,AAXX 18064 07661 12875 13133 10070 21010 39991 40158 53026 60004 81030 90600 333 10088 20066 91058=
07661,1999-02-18 12:00:00,11,1015.6,-1.4,58,3,20000,57.412,,87.044,300,,,,,,,,,,,wg-a,,,,AAXX 18124 07661 32570 63031 10110 20030 39992 40156 58014 82140 91200 333 91047=
07661,1999-02-18 18:00:00,13,1014.1,0.3,51,3,25000,46.3,,100.008,310,6.6,14.7,,,,,,,,,wg-a,,,,AAXX 18184 07661 32575 23125 10130 20030 39979 40141 53003 8124/ 91800 333 10147 20066 91054=
07661,1999-02-19 00:00:00,11,1018.9,1.9,58,3,25000,22.224,,83.34,300,,,,,,,,,,,wg-a,,,,AAXX 19004 07661 32575 23012 10110 20030 30025 40189 53019 8124/ 90000 333 91045=
07661,1999-02-19 06:00:00,9,1020.9,1.7,71,4,25000,11.112,,,290,9.1,13.2,,,,,,,,,wg-a,,,,AAXX 19064 07661 12575 22906 10090 20040 30043 40209 53017 60004 81170 90600 333 10132 20091=
07661,1999-02-19 12:00:00,14,1023,-0.3,51,4,20000,18.52,,,290,,,,,,,,,,,wg-a,,,,AAXX 19124 07661 32/70 52910 10140 20040 30067 40230 58003 84041 91200=
07661,1999-02-19 18:00:00,14,1021.9,0.6,51,4,25000,46.3,,64.82,310,9.1,16.4,,,,,,,,,wg-a,,,,AAXX 19184 07661 32575 53125 10140 20040 30056 40219 53006 81140 91800 333 10164 20091 91035=
07661,1999-02-20 00:00:00,13,1020.6,-1.7,58,5,20000,50.004,,,310,,,,,,,,,,,wg-a,,,,AAXX 20004 07661 32/70 73127 10130 20050 30043 40206 58017 8/040 90000=
07661,1999-02-20 06:00:00,12,1019.2,-0.4,62,5,20000,75.932,,94.452,310,11.7,14.1,,,,,,,,,wg-a,,,,AAXX 20064 07661 12570 43141 10120 20050 30028 40192 55004 60004 82230 90600 333 10141 20117 91051=
07661,1999-02-20 12:00:00,14,1018.5,0,63,7,20000,57.412,,103.712,300,,,,,,,,,,,wg-a,,,,AAXX 20124 07661 32470 53031 10140 20070 30022 40185 50000 84141 91200 333 91056=
07661,1999-02-20 18:00:00,12,1018.2,0.7,76,8,20000,53.708,,94.452,290,11.1,14.7,,,,,,,,,wg-a,,,,AAXX 20184 07661 32470 72929 10120 20080 30019 40182 53007 8114/ 91800 333 10147 20111 91051=
07661,1999-02-21 00:00:00,12,1017.4,-0.4,71,7,20000,53.708,,90.748,290,,,,,,,,,,,wg-a,,,,AAXX 21004 07661 32/70 02929 10120 20070 30010 40174 58004 80000 90000 333 91049=
07661,1999-02-21 06:00:00,12,1016.1,0.6,76,8,20000,50.004,,83.34,280,11.4,13.1,,,,,,,,,wg-a,,,,AAXX 21064 07661 12470 42827 10120 20080 39998 40161 51006 60004 81131 90600 333 10131 20114 91045=
07661,1999-02-21 12:00:00,15,1014.7,-1.1,63,8,25000,53.708,,79.636,290,,,,,,,,,,,wg-a,,,,AAXX 21124 07661 32475 52929 10150 20080 39986 40147 58011 83146 91200 333 91043=
07661,1999-02-21 18:00:00,15,1013.2,0.6,51,5,25000,42.596,,94.452,290,11.4,18.1,,,,,,,,,wg-a,,,,AAXX 21184 07661 32475 42923 10150 20050 39971 40132 53006 84401 91800 333 10181 20114 91051=
07661,1999-02-22 00:00:00,13,1010.9,-2.3,67,7,25000,53.708,,87.044,300,,,,,,,,,,,wg-a,,,,AAXX 22004 07661 32/75 03029 10130 20070 39947 40109 58023 80000 90000 333 91047=
07661,1999-02-22 06:00:00,12,1006.3,-2,88,10,20000,72.228,,111.12,290,11.6,15.3,,,,,,,,,wg-a,,,,AAXX 22064 07661 12570 42939 10120 20100 39901 40063 58020 60004 81142 90600 333 10153 20116 91060=
07661,1999-02-22 12:00:00,14,1003.4,-1.4,44,2,20000,94.452,,137.048,300,,,,,,,,,,,wg-a,,,,AAXX 22124 07661 32570 43051 10140 20020 39874 40034 58014 83202 91200 333 91074=
07661,1999-02-22 18:00:00,9,1008.2,4.4,40,-4,20000,64.82,,137.048,330,9.1,14.7,,,,,,,,,wg-a,,,,AAXX 22184 07661 32570 23335 10090 21040 39918 40082 51044 81102 91800 333 10147 20091 91074=
07661,1999-02-23 00:00:00,7,1013.3,1.5,45,-4,0,50.004,,,310,,,,,,,,,,,wg-a,,,,AAXX 23004 07661 32/// /3127 10070 21040 39967 40133 53015 90000=
07661,1999-02-23 06:00:00,5,1014.8,0.3,52,-4,20000,53.708,,79.636,310,5.4,9,,,,,,,,,wg-a,,,,AAXX 23064 07661 12/70 03129 10050 21040 39981 40148 50003 60004 80000 90600 333 10090 20054 91043=
07661,1999-02-23 12:00:00,10,1015.4,0,37,-4,25000,57.412,,96.304,320,,,,,,,,,,,wg-a,,,,AAXX 23124 07661 32675 33231 10100 21040 39989 40154 50000 8/100 91200 333 91052=
07661,1999-02-23 18:00:00,8,1016.9,2.2,34,-7,25000,31.484,,100.008,320,5,10.5,,,,,,,,,wg-a,,,,AAXX 23184 07661 32675 13217 10080 21070 30003 40169 53022 81101 91800 333 10105 20050 91054=
07661,1999-02-24 00:00:00,6,1017.9,-0.8,42,-6,20000,31.484,,53.708,290,,,,,,,,,,,wg-a,,,,AAXX 24004 07661 32/70 02917 10060 21060 30011 40179 58008 80000 90000 333 91029=
07661,1999-02-24 06:00:00,6,1015.3,-1.3,45,-5,20000,29.632,,,300,5.1,7.8,,,,,,,,,wg-a,,,,AAXX 24064 07661 12570 33016 10060 21050 39986 40153 56013 60004 83200 90600 333 10078 20051=
07661,1999-02-24 12:00:00,8,1013.9,-1.1,71,3,20000,22.224,,,290,,,,,,,,,,21,wg-a,,,,AAXX 24124 07661 02870 82912 10080 20030 39974 40139 58011 61000 72122 8702/ 91200 333 ////=
07661,1999-02-24 18:00:00,9,1011.5,-0.5,93,8,15000,11.112,,,280,5.8,9.2,,,,,,,,,wg-a,,,,AAXX 24184 07661 02465 72806 10090 20080 39951 40115 56005 61000 8447/ 91800 333 10092 20058 ////=
07661,1999-02-25 00:00:00,9,1010.5,-0.9,87,7,15000,25.928,,,280,,,,,,,,,,,wg-a,,,,AAXX 25004 07661 32465 72814 10090 20070 39941 40105 58009 8447/ 90000=
07661,1999-02-25 06:00:00,8,1009.4,-0.1,76,4,15000,18.52,,,310,7.6,9.8,,,,,,,,,wg-a,,,,AAXX 25064 07661 12/65 13110 10080 20040 39929 40094 55001 60004 80001 90600 333 10098 20076=
07661,1999-02-25 12:00:00,13,1013.3,2.6,62,6,0,25.928,,,60,,,,,,,,,,,wg-a,,,,AAXX 25124 07661 32/// /0614 10130 20060 39971 40133 51026 91200=
07661,1999-02-25 18:00:00,11,1017.9,2.7,71,6,12000,29.632,,,60,6.6,13.9,,,,,,,,,wg-a,,,,AAXX 25184 07661 32562 20616 10110 20060 30015 40179 53027 82500 91800 333 10139 20066=
07661,1999-02-26 00:00:00,9,1020.2,0.5,66,3,15000,14.816,,,20,,,,,,,,,,,wg-a,,,,AAXX 26004 07661 32/65 00208 10090 20030 30036 40202 53005 80000 90000=
07661,1999-02-26 06:00:00,6,1020.6,0.2,87,4,15000,11.112,,,60,5.9,10.7,,,,,,,,,wg-a,,,,AAXX 26064 07661 12/65 00606 10060 20040 30039 40206 53002 60004 80000 90600 333 10107 20059=
07661,1999-02-26 12:00:00,12,1021.8,0,76,8,15000,14.816,,,100,,,,,,,,,,,wg-a,,,,AAXX 26124 07661 32565 21008 10120 20080 30054 40218 50000 82202 91200=
07661,1999-02-26 18:00:00,11,1020.6,0,71,6,15000,14.816,,,90,6.5,13.1,,,,,,,,,wg-a,,,,AAXX 26184 07661 32/65 30908 10110 20060 30041 40206 50000 80002 91800 333 10131 20065=
07661,1999-02-27 00:00:00,6,1020.5,-0.3,87,4,15000,18.52,,,80,,,,,,,,,,,wg-a,,,,AAXX 27004 07661 32/65 20810 10060 20040 30038 40205 57003 80002 90000=
07661,1999-02-27 06:00:00,5,1019.1,-0.3,87,3,15000,25.928,,,70,5,10.4,,,,,,,,,wg-a,,,,AAXX 27064 07661 12/65 00714 10050 20030 30023 40191 56003 60004 80000 90600 333 10104 20050=
07661,1999-02-27 12:00:00,12,1019.2,-0.8,71,7,15000,25.928,,,100,,,,,,,,,,,wg-a,,,,AAXX 27124 07661 32865 61014 10120 20070 30028 40192 58008 86014 91200=
07661,1999-02-27 18:00:00,11,1019.5,0.9,76,7,15000,22.224,,50.004,70,5.3,12.7,,,,,,,,,wg-a,,,,AAXX 27184 07661 32565 70712 10110 20070 30031 40195 53009 82212 91800 333 10127 20053 91027=
07661,1999-02-28 00:00:00,9,1021.1,0.2,76,5,20000,25.928,,,70,,,,,,,,,,,wg-a,,,,AAXX 28004 07661 32/70 30714 10090 20050 30045 40211 53002 83010 90000=
07661,1999-02-28 06:00:00,9,1021.9,0.6,76,5,15000,11.112,,,20,7.3,10.8,,,,,,,,,wg-a,,,,AAXX 28064 07661 12/65 70206 10090 20050 30053 40219 51006 60004 85082 90600 333 10108 20073=
07661,1999-02-28 12:00:00,14,1022.4,-0.4,58,6,20000,7.408,,,70,,,,,,,,,,,wg-a,,,,AAXX 28124 07661 32/70 80704 10140 20060 30061 40224 58004 8802/ 91200=
07661,1999-02-28 18:00:00,12,1022.1,0.4,82,9,10000,7.408,,,290,7.9,15.7,,,,,,,,,wg-a,,,,AAXX 28184 07661 32860 82904 10120 20090 30057 40221 53004 8507/ 91800 333 10157 20079=
07661,1999-03-01 00:00:00,9,1023.9,0.3,87,7,10000,22.224,,,80,,,,,,,,,,,wg-a,,,,AAXX 01004 07661 32/60 30812 10090 20070 30073 40239 50003 83011 90000=
07661,1999-03-01 06:00:00,9,1024.1,0.5,93,8,7000,11.112,,,20,7.6,11.8,,,,,,,,,wg-a,,,,AAXX 01064 07661 12857 10206 10090 20080 30075 40241 53005 60004 81010 90600 333 10118 20076=
07661,1999-03-01 12:00:00,14,1024.8,-0.3,72,9,10000,14.816,,,220,,,,,,,,,,,wg-a,,,,AAXX 01124 07661 32560 12208 10140 20090 30085 40248 58003 81100 91200=
07661,1999-03-01 18:00:00,13,1023.1,-0.3,72,8,8000,25.928,,,290,8.6,16,,,,,,,,,wg-a,,,,AAXX 01184 07661 32858 32914 10130 20080 30067 40231 55003 83050 91800 333 10160 20086=
07661,1999-03-02 00:00:00,12,1021.8,-1.2,47,1,8000,29.632,,,300,,,,,,,,,,,wg-a,,,,AAXX 02004 07661 32/58 33016 10120 20010 30053 40218 58012 83010 90000=
07661,1999-03-02 12:00:00,18,1018,-0.3,42,5,18000,38.892,,,300,,,,,,,,,,,wg-a,,,,AAXX 02124 07661 32568 53021 10180 20050 30019 40180 58003 82134 91200=
07661,1999-03-02 18:00:00,13,1016.1,-0.2,77,9,15000,46.3,,75.932,290,12,19.5,,,,,,,,,wg-a,,,,AAXX 02184 07661 32865 42925 10130 20090 39998 40161 55002 82031 91800 333 10195 20120 91041=
07661,1999-03-03 00:00:00,11,1015.7,-0.8,87,9,0,25.928,,,290,,,,,,,,,,,wg-a,,,,AAXX 03004 07661 32/// /2914 10110 20090 39993 40157 58008 90000=
07661,1999-03-03 06:00:00,10,1014.5,-0.5,87,8,18000,22.224,,,290,9.6,13,,,,,,,,,wg-a,,,,AAXX 03064 07661 12468 52912 10100 20080 39981 40145 58005 60004 84201 90600 333 10130 20096=
07661,1999-03-03 12:00:00,14,1012.3,-1.1,82,11,15000,18.52,,,220,,,,,,,,,,,wg-a,,,,AAXX 03124 07661 32565 72210 10140 20110 39962 40123 58011 875// 91200=
07661,1999-03-03 18:00:00,12,1007.8,-1.7,82,9,15000,25.928,,,180,10,14.9,,,,,,,,,wg-a,,,,AAXX 03184 07661 32565 71814 10120 20090 39916 40078 56017 875// 91800 333 10149 20100=
07661,1999-03-04 00:00:00,12,1003.3,-2.8,88,10,15000,29.632,,,190,,,,,,,,,,,wg-a,,,,AAXX 04004 07661 32465 81916 10120 20100 39872 40033 58028 885// 90000=
07661,1999-03-04 06:00:00,8,994.7,-3.7,100,8,6000,38.892,,72.228,290,8.4,11.9,,8,,,8,,,92,wg-a,,,,AAXX 04064 07661 02456 82921 10080 20080 39785 49947 56037 60084 79296 833// 90600 333 10119 20084 60087 91039=
07661,1999-03-04 12:00:00,9,996.5,-0.1,71,4,20000,42.596,,68.524,290,,,,,,,,,,,wg-a,,,,AAXX 04124 07661 32570 82923 10090 20040 39803 49965 56001 8/510 91200 333 91037=
07661,1999-03-04 18:00:00,9,997.2,1.1,76,5,20000,38.892,,64.82,300,7.1,10.1,,,,,,,,,wg-a,,,,AAXX 04184 07661 32570 63021 10090 20050 39810 49972 53011 8/800 91800 333 10101 20071 91035=
07661,1999-03-05 00:00:00,9,998.7,0.4,71,4,20000,35.188,,94.452,300,,,,0,,,,,,29,wg-a,,,,AAXX 05004 07661 12570 63019 10090 20040 39825 49987 53004 60007 72991 84610 90000 333 91051=
07661,1999-03-05 06:00:00,6,998.4,0.6,75,2,20000,38.892,,,300,6,9.7,,,,,1,,,,wg-a,,,,AAXX 05064 07661 12570 43021 10060 20020 39820 49984 53006 60014 8/800 90600 333 10097 20060=
07661,1999-03-05 12:00:00,10,998.9,-0.2,50,0,25000,42.596,,68.524,300,,,,,,,,,,,wg-a,,,,AAXX 05124 07661 32575 63023 10100 20000 39827 49989 58002 8/800 91200 333 91037=
07661,1999-03-05 18:00:00,9,1001.6,2.1,61,2,25000,46.3,,75.932,300,6,10.7,,,,,,,,,wg-a,,,,AAXX 05184 07661 32575 43025 10090 20020 39853 40016 53021 8280/ 91800 333 10107 20060 91041=
07661,1999-03-06 00:00:00,7,1003,0,66,1,25000,35.188,,68.524,310,,,,,,,,,,,wg-a,,,,AAXX 06004 07661 32575 53119 10070 20010 39866 40030 50000 8/800 90000 333 91037=
07661,1999-03-06 06:00:00,5,1003.8,0.5,75,1,25000,38.892,,,300,4.6,9.1,,,,,,,,,wg-a,,,,AAXX 06064 07661 12575 23021 10050 20010 39872 40038 52005 60004 82200 90600 333 10091 20046=
07661,1999-03-06 12:00:00,8,1004.5,0,61,1,25000,46.3,,68.524,290,,,,,,,,,,,wg-a,,,,AAXX 06124 07661 32575 22925 10080 20010 39881 40045 50000 82260 91200 333 91037=
07661,1999-03-06 18:00:00,8,1005.3,1.1,42,-4,25000,46.3,,83.34,310,4.5,9.5,,,,,,,,,wg-a,,,,AAXX 06184 07661 32575 53125 10080 21040 39889 40053 53011 83262 91800 333 10095 20045 91045=
07661,1999-03-07 00:00:00,5,1007.8,0.4,60,-2,20000,35.188,,,300,,,,,,,,,,,wg-a,,,,AAXX 07004 07661 32/70 23019 10050 21020 39912 40078 50004 80002 90000=
07661,1999-03-07 06:00:00,4,1008.8,0.5,65,-2,25000,35.188,,,310,3.7,8.1,,,,,,,,,wg-a,,,,AAXX 07064 07661 12575 23119 10040 21020 39921 40088 53005 60004 81140 90600 333 10081 20037=
07661,1999-03-07 12:00:00,8,1009.9,-0.2,49,-2,500,38.892,,64.82,290,,,,,,,,,,,wg-a,,,,AAXX 07124 07661 32500 22921 10080 21020 39934 40099 58002 81140 91200 333 91035=
07661,1999-03-07 18:00:00,8,1011.3,1.3,57,0,500,31.484,,90.748,300,3.9,9.7,,,,,,,,,wg-a,,,,AAXX 07184 07661 32500 23017 10080 20000 39948 40113 53013 81140 91800 333 10097 20039 91049=
07661,1999-03-08 00:00:00,6,1013.5,0.5,49,-4,500,14.816,,,290,,,,,,,,,,,wg-a,,,,AAXX 08004 07661 32/00 02908 10060 21040 39969 40135 52005 80000 90000=
07661,1999-03-08 06:00:00,4,1014.6,0.6,60,-3,500,18.52,,,80,3.5,8.2,,,,,,,,,wg-a,,,,AAXX 08064 07661 12500 20810 10040 21030 39978 40146 50006 60004 82200 90600 333 10082 20035=
07661,1999-03-08 12:00:00,11,1015.3,0.4,71,6,25000,14.816,,,70,,,,,,,,,,,wg-a,,,,AAXX 08124 07661 32575 70708 10110 20060 39989 40153 50004 83242 91200=
07661,1999-03-08 18:00:00,11,1013.8,-0.2,87,9,25000,22.224,,,180,4.2,13.6,,,,,,,,,wg-a,,,,AAXX 08184 07661 32575 61812 10110 20090 39975 40138 55002 83602 91800 333 10136 20042=
07661,1999-03-09 00:00:00,11,1014.5,-0.1,87,9,25000,18.52,,,170,,,,,,,,,,,wg-a,,,,AAXX 09004 07661 32575 61710 10110 20090 39982 40145 58001 83602 90000=
07661,1999-03-09 06:00:00,10,1013.4,-0.3,93,9,15000,18.52,,,80,9.9,11.4,,,,,,,,,wg-a,,,,AAXX 09064 07661 12565 70810 10100 20090 39970 40134 56003 60004 87200 90600 333 10114 20099=
07661,1999-03-09 18:00:00,12,1013.6,-0.1,67,6,15000,31.484,,,70,9.8,13.3,,,,,,,,,wg-a,,,,AAXX 09184 07661 32865 30717 10120 20060 39973 40136 55001 83030 91800 333 10133 20098=
07661,1999-03-10 00:00:00,10,1015.1,0.6,76,6,15000,31.484,,,70,,,,,,,,,,,wg-a,,,,AAXX 10004 07661 32/65 00717 10100 20060 39987 40151 51006 80000 90000=
07661,1999-03-10 12:00:00,13,1015,-0.4,82,10,14000,31.484,,,90,,,,,,,,,,,wg-a,,,,AAXX 10124 07661 32564 80917 10130 20100 39988 40150 57004 81170 91200=
07661,1999-03-10 18:00:00,13,1014.5,0.8,77,9,12000,31.484,,57.412,80,9.9,14.5,,,,,,,,,wg-a,,,,AAXX 10184 07661 32/62 50817 10130 20090 39983 40145 53008 85070 91800 333 10145 20099 91031=
07661,1999-03-11 00:00:00,11,1015.6,0.6,87,9,12000,29.632,,,70,,,,,,,,,,,wg-a,,,,AAXX 11004 07661 32/62 50716 10110 20090 39992 40156 53006 85070 90000=
07661,1999-03-11 06:00:00,10,1015.2,0.2,93,9,12000,29.632,,,70,10.1,13,,,,,,,,,wg-a,,,,AAXX 11064 07661 12562 40716 10100 20090 39988 40152 53002 60004 83130 90600 333 10130 20101=
07661,1999-03-11 12:00:00,14,1015.8,-0.3,88,12,11000,29.632,,,110,,,,,,,,,,,wg-a,,,,AAXX 11124 07661 32561 41116 10140 20120 39996 40158 58003 82238 91200=
07661,1999-03-11 18:00:00,12,1015.8,,94,11,11000,22.224,,,90,10,14.4,,,,,,,,,wg-a,,,,AAXX 11184 07661 32561 60912 10120 20110 39995 40158 82238 91800 333 10144 20100=
07661,1999-03-12 00:00:00,11,1016.3,-0.1,87,9,15000,29.632,,,80,,,,,,,,,,,wg-a,,,,AAXX 12004 07661 32565 20816 10110 20090 39999 40163 58001 81130 90000=
07661,1999-03-12 06:00:00,10,1015.8,-0,93,9,10000,35.188,,,70,9.9,12.2,,,,,,,,,wg-a,,,,AAXX 12064 07661 32560 20719 10100 20090 39994 40158 55000 82600 90600 333 10122 20099=
07661,1999-03-12 12:00:00,13,1017.2,0.5,88,11,10000,31.484,,57.412,100,,,,,,,,,,,wg-a,,,,AAXX 12124 07661 32560 21017 10130 20110 30010 40172 51005 82630 91200 333 91031=
07661,1999-03-12 18:00:00,13,1016.9,0.7,82,10,10000,31.484,,57.412,110,10.1,14.7,,,,,,,,,wg-a,,,,AAXX 12184 07661 32560 41117 10130 20100 30006 40169 53007 82630 91800 333 10147 20101 91031=
07661,1999-03-13 00:00:00,11,1017.2,-0.2,82,8,10000,25.928,,,80,,,,,,,,,,,wg-a,,,,AAXX 13004 07661 32460 10814 10110 20080 30008 40172 58002 81600 90000=
07661,1999-03-13 06:00:00,10,1016.1,0.1,82,7,10000,29.632,,,70,9.8,12.9,,,,,,,,,wg-a,,,,AAXX 13064 07661 12/60 10716 10100 20070 39997 40161 50001 60004 80002 90600 333 10129 20098=
07661,1999-03-13 18:00:00,12,1018.2,1.4,94,11,9000,11.112,,,120,10,14.9,,,,,,,,,wg-a,,,,AAXX 13184 07661 32559 61206 10120 20110 30019 40182 51014 82261 91800 333 10149 20100=
07661,1999-03-14 00:00:00,11,1018.8,0.4,94,10,10000,14.816,,,80,,,,,,,,,,,wg-a,,,,AAXX 14004 07661 32860 20808 10110 20100 30024 40188 50004 82080 90000=
07661,1999-03-14 06:00:00,11,1018.3,0.2,66,5,18000,29.632,,,80,9.7,12,,,,,,,,,wg-a,,,,AAXX 14064 07661 12568 50816 10110 20050 30019 40183 52002 60004 82131 90600 333 10120 20097=
07661,1999-03-14 12:00:00,15,1019.9,0.3,67,9,18000,29.632,,,110,,,,,,,,,,,wg-a,,,,AAXX 14124 07661 32868 61116 10150 20090 30037 40199 50003 85072 91200=
07661,1999-03-14 18:00:00,16,1019.1,0.2,45,4,16000,25.928,,50.004,60,11,16.8,,,,,,,,,wg-a,,,,AAXX 14184 07661 32566 50614 10160 20040 30029 40191 53002 81130 91800 333 10168 20110 91027=
07661,1999-03-15 00:00:00,12,1021.6,0.9,82,9,18000,3.704,,,30,,,,,,,,,,,wg-a,,,,AAXX 15004 07661 32/68 30302 10120 20090 30052 40216 51009 80002 90000=
07661,1999-03-15 06:00:00,12,1020.6,0.2,54,3,0,29.632,,,70,10.5,16,,,,,,,,,wg-a,,,,AAXX 15064 07661 32/// /0716 10120 20030 30042 40206 53002 90600 333 10160 20105=
07661,1999-03-15 12:00:00,19,1021.1,0.2,43,6,18000,11.112,,,110,,,,,,,,,,,wg-a,,,,AAXX 15124 07661 32468 51106 10190 20060 30051 40211 52002 84469 91200=
07661,1999-03-15 18:00:00,17,1020.2,0.1,45,5,20000,22.224,,,70,12.1,20.4,,,,,,,,,wg-a,,,,AAXX 15184 07661 32570 30712 10170 20050 30041 40202 53001 83400 91800 333 10204 20121=
07661,1999-03-16 00:00:00,16,1020.5,-0.4,42,3,20000,3.704,,,330,,,,,,,,,,,wg-a,,,,AAXX 16004 07661 32/70 33302 10160 20030 30043 40205 58004 80002 90000=
07661,1999-03-16 06:00:00,12,1018.2,-0.7,62,5,20000,14.816,,,50,11.3,17,,,,,,,,,wg-a,,,,AAXX 16064 07661 12/70 10508 10120 20050 30018 40182 55007 60004 80004 90600 333 10170 20113=
07661,1999-03-16 12:00:00,19,1017.7,-0.5,32,2,15000,14.816,,,130,,,,,,,,,,,wg-a,,,,AAXX 16124 07661 32/65 01308 10190 20020 30017 40177 58005 80000 91200=
07661,1999-03-16 18:00:00,17,1017.3,0.4,42,4,15000,3.704,,,240,11.6,20.4,,,,,,,,,wg-a,,,,AAXX 16184 07661 32/65 02402 10170 20040 30012 40173 53004 80000 91800 333 10204 20116=
07661,1999-03-17 00:00:00,16,1016.8,-0.8,42,3,15000,7.408,,,330,,,,,,,,,,,wg-a,,,,AAXX 17004 07661 32/65 03304 10160 20030 30007 40168 58008 80000 90000=
07661,1999-03-17 06:00:00,12,1016,-0.4,71,7,6000,31.484,,,70,11.8,17.1,,,,,,,,,wg-a,,,,AAXX 17064 07661 12/56 00717 10120 20070 39997 40160 55004 60004 80000 90600 333 10171 20118=
07661,1999-03-17 12:00:00,12,1019,1.5,67,6,8000,42.596,,75.932,70,,,,,,,,,,,wg-a,,,,AAXX 17124 07661 32558 80723 10120 20060 30026 40190 53015 83110 91200 333 91041=
07661,1999-03-17 18:00:00,11,1019.4,0.3,71,6,7000,14.816,,57.412,90,11.3,13.4,,,,,,,,,wg-a,,,,AAXX 17184 07661 32857 80908 10110 20060 30030 40194 53003 88070 91800 333 10134 20113 91031=
07661,1999-03-18 00:00:00,11,1020.3,0,62,4,10000,22.224,,,60,,,,,,,,,,,wg-a,,,,AAXX 18004 07661 32/60 80612 10110 20040 30038 40203 50000 88070 90000=
07661,1999-03-18 06:00:00,10,1018.3,-0.7,62,3,10000,11.112,,,120,9.5,11.3,,,,,,,,,wg-a,,,,AAXX 18064 07661 12/60 81206 10100 20030 30018 40183 57007 60004 88070 90600 333 10113 20095=
07661,1999-03-18 09:00:00,10.3,1018.2,-0.1,59,2.7,10000,14.816,,,180,,,,,,,,,,,og-post,,,,AAXX 18094 07661 32560 81808 10103 20027 30017 40182 55001 8667/ 333 92437=
07661,1999-03-18 12:00:00,11,1017.4,-0.7,62,4,10000,18.52,,,170,,,,,,,,,,,wg-a,,,,AAXX 18124 07661 32560 81710 10110 20040 30010 40174 58007 8667/ 91200=
07661,1999-03-18 18:00:00,9,1014.7,-1.2,76,5,10000,11.112,,,180,9.2,11.7,,,,,,,,,wg-a,,,,AAXX 18184 07661 32560 51806 10090 20050 39982 40147 56012 85670 91800 333 10117 20092=
07661,1999-03-19 00:00:00,7,1015.3,0.2,93,6,10000,11.112,,,90,,,,,,,,,,,wg-a,,,,AAXX 19004 07661 32460 30906 10070 20060 39987 40153 52002 83402 90000=
07661,1999-03-19 06:00:00,8,1013.1,-1.1,87,6,8000,7.408,,,330,7,9.2,,,,,,,,,wg-a,,,,AAXX 19064 07661 12558 33304 10080 20060 39966 40131 58011 60004 83600 90600 333 10092 20070=
07661,1999-03-19 12:00:00,14,1012.4,-0.1,44,2,8000,14.816,,,180,,,,,,,,,,,wg-a,,,,AAXX 19124 07661 32558 21808 10140 20020 39962 40124 57001 81630 91200=
07661,1999-03-19 18:00:00,11,1013.4,0.8,71,6,8000,7.408,,,200,7.4,15.3,,,,,,,,,wg-a,,,,AAXX 19184 07661 32/58 12004 10110 20060 39971 40134 53008 81030 91800 333 10153 20074=
07661,1999-03-20 00:00:00,8,1014.8,0.4,66,2,8000,7.408,,,300,,,,,,,,,,,wg-a,,,,AAXX 20004 07661 32/58 03004 10080 20020 39983 40148 51004 80000 90000=
07661,1999-03-20 06:00:00,8,1016.2,1.8,61,1,12000,11.112,,,80,7.4,10.8,,,,,,,,,wg-a,,,,AAXX 20064 07661 12/62 30806 10080 20010 39996 40162 53018 60004 80001 90600 333 10108 20074=
07661,1999-03-20 12:00:00,13,1018.3,0.7,51,3,18000,7.408,,,130,,,,,,,,,,,wg-a,,,,AAXX 20124 07661 32568 41304 10130 20030 30020 40183 50007 81161 91200=
07661,1999-03-20 18:00:00,12,1017.3,-0.3,58,4,15000,22.224,,,240,7.6,15.6,,,,,,,,,wg-a,,,,AAXX 20184 07661 32865 32412 10120 20040 30009 40173 55003 83030 91800 333 10156 20076=
07661,1999-03-21 00:00:00,8,1018.4,0.4,71,3,15000,14.816,,,110,,,,,,,,,,,wg-a,,,,AAXX 21004 07661 32/65 01108 10080 20030 30018 40184 51004 80000 90000=
07661,1999-03-21 06:00:00,8,1017.9,0.2,66,2,15000,7.408,,,70,6.3,11.5,,,,,,,,,wg-a,,,,AAXX 21064 07661 12865 30704 10080 20020 30013 40179 53002 60004 83040 90600 333 10115 20063=
07661,1999-03-21 12:00:00,13,1016.9,-0.8,67,7,10000,18.52,,,220,,,,,,,,,,,wg-a,,,,AAXX 21124 07661 32560 32210 10130 20070 30006 40169 58008 83200 91200=
07661,1999-03-21 18:00:00,12,1014.2,-0.3,71,7,12000,35.188,,61.116,290,7.5,15.2,,,,,,,,,wg-a,,,,AAXX 21184 07661 32862 22919 10120 20070 39979 40142 56003 81042 91800 333 10152 20075 91033=
07661,1999-03-22 00:00:00,11,1012.2,-1.3,54,2,12000,31.484,,61.116,300,,,,,,,,,,,wg-a,,,,AAXX 22004 07661 32/62 23017 10110 20020 39959 40122 56013 80002 90000 333 91033=
07661,1999-03-22 06:00:00,9,1009.6,-1.2,71,4,15000,42.596,,,310,8.6,11.9,,,,,,,,,wg-a,,,,AAXX 22064 07661 12565 43123 10090 20040 39932 40096 57012 60004 82130 90600 333 10119 20086=
07661,1999-03-22 12:00:00,14,1007.7,-1.4,41,1,500,53.708,,94.452,310,,,,,,,,,,,wg-a,,,,AAXX 22124 07661 32500 23129 10140 20010 39916 40077 56014 82240 91200 333 91051=
07661,1999-03-22 18:00:00,12,1007.8,0.6,40,-1,45000,57.412,,94.452,320,8.7,15.4,,,,,,,,,wg-a,,,,AAXX 22184 07661 32583 53231 10120 21010 39916 40078 53006 82240 91800 333 10154 20087 91051=
07661,1999-03-23 00:00:00,9,1010.1,0.3,53,0,45000,57.412,,83.34,300,,,,,,,,,,,wg-a,,,,AAXX 23004 07661 32/83 03031 10090 20000 39937 40101 53003 80000 90000 333 91045=
07661,1999-03-23 06:00:00,9,1011.4,0.8,43,-3,45000,35.188,,,300,7.7,12,,,,,,,,,wg-a,,,,AAXX 23064 07661 12/83 03019 10090 21030 39949 40114 53008 60004 80000 90600 333 10120 20077=
07661,1999-03-23 12:00:00,17,1012.1,-0.2,29,-1,0,18.52,,,330,,,,,,,,,,,wg-a,,,,AAXX 23124 07661 32/// /3310 10170 21010 39961 40121 58002 91200=
07661,1999-03-23 18:00:00,15,1012.1,0.9,48,4,40000,25.928,,53.708,290,8.5,17.9,,,,,,,,,wg-a,,,,AAXX 23184 07661 32/82 12914 10150 20040 39960 40121 53009 80004 91800 333 10179 20085 91029=
07661,1999-03-24 00:00:00,10,1013.8,-0.1,66,4,500,22.224,,,70,,,,,,,,,,,wg-a,,,,AAXX 24004 07661 32/00 00712 10100 20040 39974 40138 55001 80000 90000=
07661,1999-03-24 06:00:00,9,1014.8,0.8,76,5,18000,35.188,,,60,7.6,14.7,,,,,,,,,wg-a,,,,AAXX 24064 07661 12768 10619 10090 20050 39983 40148 52008 60004 81400 90600 333 10147 20076=
07661,1999-03-24 12:00:00,13,1016.1,0.3,82,10,14000,35.188,,64.82,80,,,,,,,,,,,wg-a,,,,AAXX 24124 07661 32764 70819 10130 20100 39998 40161 51003 87400 91200 333 91035=
07661,1999-03-24 18:00:00,11,1015.2,-0.5,94,10,14000,29.632,,57.412,80,8.5,14.1,,,,,,,,,wg-a,,,,AAXX 24184 07661 32464 60816 10110 20100 39989 40152 58005 86440 91800 333 10141 20085 91031=
07661,1999-03-25 00:00:00,12,1014.2,-0.1,82,9,12000,29.632,,,90,,,,1,,,,,,21,wg-a,,,,AAXX 25004 07661 12562 70916 10120 20090 39979 40142 56001 60017 72162 8702/ 90000=
07661,1999-03-25 06:00:00,11,1011,-0.6,87,9,10000,42.596,,72.228,70,10.3,12.3,,,,,1,,,21,wg-a,,,,AAXX 25064 07661 02460 80723 10110 20090 39947 40110 55006 60014 72166 887// 90600 333 10123 20103 61000 91039=
07661,1999-03-25 12:00:00,10,1010.5,-0.6,100,10,4000,42.596,,79.636,90,,,,6,,,,,,63,wg-a,,,,AAXX 25124 07661 12440 80923 10100 20100 39942 40105 58006 60067 76362 887// 91200 333 91043=
07661,1999-03-25 18:00:00,10,1008.8,-0,93,9,4000,35.188,,83.34,60,9.5,11.3,,6,,,,,,63,wg-a,,,,AAXX 25184 07661 12440 80619 10100 20090 39925 40088 55000 60067 76366 887// 91800 333 10113 20095 91045=
07661,1999-03-26 00:00:00,10,1007.5,-1,93,9,15000,29.632,,,70,,,,1,,,,,,63,wg-a,,,,AAXX 26004 07661 12465 80716 10100 20090 39912 40075 56010 60017 76366 887// 90000=
07661,1999-03-26 06:00:00,11,1006,-0.1,94,10,10000,29.632,,,70,9.1,10.6,,,,,35,,,,wg-a,,,,AAXX 26064 07661 12460 80716 10110 20100 39898 40060 55001 60354 887// 90600 333 10106 20091=
07661,1999-03-26 12:00:00,12,1005,-1,100,12,3000,18.52,,,90,,,,2,,,,,,21,wg-a,,,,AAXX 26124 07661 12430 80910 10120 20120 39889 40050 58010 60027 72162 887// 91200=
07661,1999-03-26 18:00:00,11,999.9,-2.2,100,11,10000,25.928,,57.412,80,10.5,13,,1,,,,,,21,wg-a,,,,AAXX 26184 07661 12460 80814 10110 20110 39838 49999 56022 60017 72162 887// 91800 333 10130 20105 91031=
07661,1999-03-27 00:00:00,8,998.4,-0.8,100,8,15000,29.632,,57.412,60,,,,0,,,,,,21,wg-a,,,,AAXX 27004 07661 12465 60616 10080 20080 39822 49984 58008 60007 72162 86600 90000 333 91031=
07661,1999-03-27 06:00:00,8,1000.3,1.6,87,6,16000,25.928,,,290,7.7,11.4,,,,,6,,,,wg-a,,,,AAXX 27064 07661 12466 72914 10080 20060 39840 40003 51016 60064 87800 90600 333 10114 20077=
07661,1999-03-27 12:00:00,11,1001.8,0.9,62,4,20000,42.596,,,310,,,,0,,,,,,21,wg-a,,,,AAXX 27124 07661 12470 73123 10110 20040 39856 40018 53009 60007 72162 85820 91200=
07661,1999-03-27 18:00:00,10,1001.8,0.4,46,-1,20000,42.596,,79.636,300,7.8,11.9,,,,,,,,,wg-a,,,,AAXX 27184 07661 32470 43023 10100 21010 39856 40018 53004 81442 91800 333 10119 20078 91043=
07661,1999-03-28 00:00:00,8,1002.5,0.1,57,0,20000,38.892,,,300,,,,,,,,,,,wg-a,,,,AAXX 28004 07661 32570 73021 10080 20000 39861 40025 50001 875// 90000=
07661,1999-03-28 06:00:00,5,1004.2,1.6,75,1,16000,31.484,,,300,5.4,9.9,,,,,,,,,wg-a,,,,AAXX 28064 07661 12466 53017 10050 20010 39877 40042 53016 60004 84874 90600 333 10099 20054=
07661,1999-03-28 12:00:00,14,1007.3,1.9,44,2,500,7.408,,,300,,,,,,,,,,,wg-a,,,,AAXX 28124 07661 32400 73004 10140 20020 39912 40073 51019 8487/ 91200=
07661,1999-03-28 18:00:00,12,1008,0.4,58,4,500,29.632,,,290,5.3,15,,,,,,,,,wg-a,,,,AAXX 28184 07661 32800 22916 10120 20040 39918 40080 53004 8204/ 91800 333 10150 20053=
07661,1999-03-29 00:00:00,9,1011,0.8,57,1,20000,7.408,,,290,,,,,,,,,,,wg-a,,,,AAXX 29004 07661 32/70 02904 10090 20010 39946 40110 51008 80000 90000=
07661,1999-03-29 06:00:00,9,1013.2,1.6,49,-1,20000,7.408,,,270,7.3,12,,,,,,,,,wg-a,,,,AAXX 29064 07661 12/70 02704 10090 21010 39967 40132 53016 60004 80000 90600 333 10120 20073=
07661,1999-03-29 12:00:00,16,1014.2,0,42,3,500,22.224,,,280,,,,,,,,,,,wg-a,,,,AAXX 29124 07661 32500 12812 10160 20030 39981 40142 50000 81100 91200=
07661,1999-03-29 18:00:00,15,1014.3,0.4,48,4,25000,22.224,,,290,9.4,17.8,,,,,,,,,wg-a,,,,AAXX 29184 07661 32/75 02912 10150 20040 39982 40143 53004 80000 91800 333 10178 20094=
07661,1999-03-30 00:00:00,10,1016.1,0.1,71,5,20000,25.928,,,80,,,,,,,,,,,wg-a,,,,AAXX 30004 07661 32/70 00814 10100 20050 39997 40161 50001 80000 90000=
07661,1999-03-30 06:00:00,11,1016.5,0.3,50,1,25000,22.224,,,70,7.8,15.3,,,,,,,,,wg-a,,,,AAXX 30064 07661 12/75 00712 10110 20010 30001 40165 53003 60004 80000 90600 333 10153 20078=
07661,1999-03-30 12:00:00,15,1017.1,-0.2,55,6,25000,11.112,,,170,,,,,,,,,,,wg-a,,,,AAXX 30124 07661 32575 11706 10150 20060 30009 40171 58002 81100 91200=
07661,1999-03-30 18:00:00,14,1015.9,-0.2,51,4,12000,14.816,,,280,10.6,16.4,,,,,,,,,wg-a,,,,AAXX 30184 07661 32/62 02808 10140 20040 39997 40159 56002 80000 91800 333 10164 20106=
07661,1999-03-31 00:00:00,11,1017.6,0.2,94,10,15000,7.408,,,300,,,,,,,,,,,wg-a,,,,AAXX 31004 07661 32/65 03004 10110 20100 30012 40176 52002 80000 90000=
07661,1999-03-31 06:00:00,9,1018,0.4,76,5,15000,18.52,,,80,8.6,14.3,,,,,,,,,wg-a,,,,AAXX 31064 07661 12/65 00810 10090 20050 30015 40180 53004 60004 80000 90600 333 10143 20086=
07661,1999-03-31 12:00:00,15,1018.5,-0.1,77,11,10000,11.112,,,200,,,,,,,,,,,wg-a,,,,AAXX 31124 07661 32660 12006 10150 20110 30023 40185 58001 81100 91200=
07661,1999-03-31 18:00:00,12,1017,-0.3,88,10,12000,11.112,,,220,8.8,15.7,,,,,,,,,wg-a,,,,AAXX 31184 07661 32/62 02206 10120 20100 30007 40170 55003 80000 91800 333 10157 20088=
07661,1999-04-01 00:00:00,10,1018.2,0.3,100,10,6000,3.704,,,250,,,,,,,,,,,wg-a,,,,AAXX 01004 07661 32/56 02502 10100 20100 30017 40182 51003 80000 90000=
07661,1999-04-01 06:00:00,9,1017.5,0.2,71,4,10000,14.816,,,90,6.9,12.1,,,,,,,,,wg-a,,,,AAXX 01064 07661 12/60 00908 10090 20040 30010 40175 53002 60004 80000 90600 333 10121 20069=
07661,1999-04-01 12:00:00,14,1017.6,-0.2,77,10,12000,14.816,,,150,,,,,,,,,,,wg-a,,,,AAXX 01124 07661 32562 21508 10140 20100 30014 40176 58002 81101 91200=
07661,1999-04-01 18:00:00,12,1016.5,-0.3,88,10,10000,11.112,,,210,8.9,15.6,,,,,,,,,wg-a,,,,AAXX 01184 07661 32/60 42106 10120 20100 30002 40165 55003 82048 91800 333 10156 20089=
07661,1999-04-02 00:00:00,11,1017.2,0.1,100,11,10000,3.704,,,180,,,,0,,,,,,,wg-a,,,,AAXX 02004 07661 12/60 51802 10110 20110 30008 40172 53001 60007 83078 90000=
07661,1999-04-02 06:00:00,9,1016.8,-0.1,100,9,0,0,,,0,9,12,,0,,,,,,,wg-a,,,,AAXX 02064 07661 12/// /0000 10090 20090 30003 40168 55001 60007 90600 333 10120 20090=
07661,1999-04-02 12:00:00,15,1017.2,-0.1,77,11,14000,22.224,,,220,,,,,,,,,,,wg-a,,,,AAXX 02124 07661 32464 22212 10150 20110 30011 40172 58001 82200 91200=
07661,1999-04-02 18:00:00,14,1016.1,-0.4,63,7,15000,31.484,,,290,9.4,17.4,,,,,,,,,wg-a,,,,AAXX 02184 07661 32/65 32917 10140 20070 39999 40161 55004 80002 91800 333 10174 20094=
07661,1999-04-03 00:00:00,15,1016.3,-0,51,5,18000,14.816,,,270,,,,,,,,,,,wg-a,,,,AAXX 03004 07661 32/68 12708 10150 20050 30001 40163 54000 80002 90000=
07661,1999-04-03 06:00:00,12,1017.9,1.4,82,9,18000,3.704,,,220,11.8,15.3,,,,,,,,,wg-a,,,,AAXX 03064 07661 12/68 32202 10120 20090 30016 40179 53014 60004 82031 90600 333 10153 20118=
07661,1999-04-03 12:00:00,19,1019.1,-0.1,43,6,15000,7.408,,,210,,,,,,,,,,,wg-a,,,,AAXX 03124 07661 32/65 22104 10190 20060 30031 40191 58001 82031 91200=
07661,1999-04-03 18:00:00,19,1017.7,0.1,37,4,18000,29.632,,,310,12.4,21.3,,,,,,,,,wg-a,,,,AAXX 03184 07661 32/68 33116 10190 20040 30017 40177 53001 83041 91800 333 10213 20124=
07661,1999-04-04 00:00:00,16,1020.5,1.3,48,5,20000,14.816,,,310,,,,,,,,,,,wg-a,,,,AAXX 04004 07661 32/70 03108 10160 20050 30043 40205 51013 80000 90000=
07661,1999-04-04 06:00:00,14,1022.5,1.5,58,6,25000,3.704,,,50,13.1,19.2,,,,,,,,,wg-a,,,,AAXX 04064 07661 12/75 00502 10140 20060 30062 40225 53015 60004 80000 90600 333 10192 20131=
07661,1999-04-04 12:00:00,17,1024.1,0.2,68,11,10000,14.816,,,200,,,,,,,,,,,wg-a,,,,AAXX 04124 07661 32560 22008 10170 20110 30079 40241 50002 81101 91200=
07661,1999-04-04 18:00:00,14,1023.1,-0.2,88,12,11000,11.112,,,230,13.8,18.1,,,,,,,,,wg-a,,,,AAXX 04184 07661 32861 32306 10140 20120 30068 40231 55002 82041 91800 333 10181 20138=
07661,1999-04-05 00:00:00,12,1023.2,-0.7,88,10,20000,18.52,,,80,,,,,,,,,,,wg-a,,,,AAXX 05004 07661 32/70 30810 10120 20100 30068 40232 58007 80002 90000=
07661,1999-04-05 06:00:00,12,1023.7,0.9,76,8,12000,11.112,,,80,11.1,14.5,,,,,,,,,wg-a,,,,AAXX 05064 07661 12862 70806 10120 20080 30072 40237 53009 60004 87070 90600 333 10145 20111=
07661,1999-04-05 12:00:00,15,1026.1,0.6,82,12,10000,18.52,,,140,,,,,,,,,,,wg-a,,,,AAXX 05124 07661 32360 61410 10150 20120 30098 40261 51006 85402 91200=
07661,1999-04-05 18:00:00,13,1025.9,0.3,94,12,10000,3.704,,,150,11.6,17,,,,,,,,,wg-a,,,,AAXX 05184 07661 32/60 71502 10130 20120 30095 40259 51003 85072 91800 333 10170 20116=
07661,1999-04-06 00:00:00,12,1027.2,0.1,100,12,500,0,,,0,,,,,,,,,,44,wg-a,,,,AAXX 06004 07661 32/05 00000 10120 20120 30107 40272 50001 74400 80000 90000=
07661,1999-04-06 06:00:00,11,1027.9,0.8,100,11,300,7.408,,,70,10.7,13.1,,0,,,,,,45,wg-a,,,,AAXX 06064 07661 02/03 90704 10110 20110 30114 40279 53008 60004 74544 89/// 90600 333 10131 20107 60007=
07661,1999-04-06 12:00:00,15,1028.4,-0.8,77,11,6000,14.816,,,180,,,,,,,,,,,wg-a,,,,AAXX 06124 07661 32556 31808 10150 20110 30121 40284 58008 81230 91200=
07661,1999-04-06 18:00:00,13,1025.9,-1.2,88,11,6000,14.816,,,230,11,16.6,,,,,,,,,wg-a,,,,AAXX 06184 07661 32556 62308 10130 20110 30095 40259 56012 82206 91800 333 10166 20110=
07661,1999-04-07 00:00:00,12,1025.1,-0.9,94,11,6000,14.816,,,270,,,,,,,,,,,wg-a,,,,AAXX 07004 07661 32/56 72708 10120 20110 30086 40251 58009 8707/ 90000=
07661,1999-04-07 06:00:00,11,1020.1,-2.1,94,10,500,25.928,,,300,10.9,12.8,,,,,,,,,wg-a,,,,AAXX 07064 07661 12400 83014 10110 20100 30037 40201 57021 60004 887// 90600 333 10128 20109=
07661,1999-04-07 12:00:00,13,1017.8,-2.1,88,11,10000,25.928,,64.82,290,,,,3,,,,,,21,wg-a,,,,AAXX 07124 07661 12460 72914 10130 20110 30015 40178 58021 60037 72162 85772 91200 333 91035=
07661,1999-04-07 18:00:00,15,1010.5,-4.2,48,4,25000,75.932,,96.304,300,10.7,15.6,,,,,,,,,wg-a,,,,AAXX 07184 07661 32575 33041 10150 20040 39944 40105 56042 83400 91800 333 10156 20107 91052=
07661,1999-04-08 00:00:00,11,1011,0.1,58,3,25000,42.596,,114.824,310,,,,,,,,,,,wg-a,,,,AAXX 08004 07661 32575 23123 10110 20030 39947 40110 53001 82100 90000 333 91062=
07661,1999-04-08 06:00:00,10,1007.4,1,57,2,500,42.596,,111.12,290,9.6,14.6,,,,,4,,,,wg-a,,,,AAXX 08064 07661 12500 52923 10100 20020 39911 40074 51010 60044 82442 90600 333 10146 20096 91060=
07661,1999-04-09 00:00:00,11,1015.7,1.2,66,5,15000,18.52,,,310,,,,,,,,,,,wg-a,,,,AAXX 09004 07661 32/65 43110 10110 20050 39993 40157 51012 82082 90000=
07661,1999-04-09 06:00:00,11,1017.4,1.5,62,4,20000,7.408,,,320,10.5,11.9,,,,,,,,,wg-a,,,,AAXX 09064 07661 12/70 73204 10110 20040 30010 40174 53015 60004 87071 90600 333 10119 20105=
07661,1999-04-09 12:00:00,17,1023.6,4.8,52,7,25000,18.52,,,200,,,,,,,,,,,wg-a,,,,AAXX 09124 07661 32/75 22010 10170 20070 30074 40236 51048 82012 91200=
07661,1999-04-09 18:00:00,13,1023.5,-0.2,77,9,500,11.112,,,210,11.1,17.9,,,,,,,,,wg-a,,,,AAXX 09184 07661 32600 42106 10130 20090 30071 40235 58002 81132 91800 333 10179 20111=
07661,1999-04-10 00:00:00,11,1024.4,0.1,66,5,20000,18.52,,,70,,,,,,,,,,,wg-a,,,,AAXX 10004 07661 32/70 00710 10110 20050 30078 40244 50001 80000 90000=
07661,1999-04-10 06:00:00,11,1023.5,-0.3,71,6,25000,3.704,,,270,8.9,12.9,,,,,,,,,wg-a,,,,AAXX 10064 07661 12/75 12702 10110 20060 30070 40235 56003 60004 80001 90600 333 10129 20089=
07661,1999-04-10 12:00:00,17,1024,0.4,48,6,20000,14.816,,,210,,,,,,,,,,,wg-a,,,,AAXX 10124 07661 32570 22108 10170 20060 30078 40240 52004 81181 91200=
07661,1999-04-10 18:00:00,14,1024.4,0.4,58,6,20000,18.52,,,280,10.9,17.6,,,,,,,,,wg-a,,,,AAXX 10184 07661 32870 22810 10140 20060 30081 40244 51004 82040 91800 333 10176 20109=
07661,1999-04-11 00:00:00,14,1019.8,-2.1,47,3,15000,29.632,,,300,,,,,,,,,,,wg-a,,,,AAXX 11004 07661 32/65 13016 10140 20030 30035 40198 56021 80001 90000=
07661,1999-04-11 06:00:00,14,1018.6,-0.6,55,5,20000,31.484,,,310,12.8,14.4,,,,,,,,,wg-a,,,,AAXX 11064 07661 12/70 13117 10140 20050 30023 40186 58006 60004 81041 90600 333 10144 20128=
07661,1999-04-11 12:00:00,18,1018,0.5,39,4,20000,68.524,,90.748,300,,,,,,,,,,,wg-a,,,,AAXX 11124 07661 32470 23037 10180 20040 30020 40180 53005 82430 91200 333 91049=
07661,1999-04-11 18:00:00,14,1017.8,-1.4,33,-2,0,68.524,,,310,13.7,18.1,,,,,,,,,wg-a,,,,AAXX 11184 07661 32/// /3137 10140 21020 30015 40178 58014 91800 333 10181 20137=
07661,1999-04-12 00:00:00,11,1013,-1.2,47,0,20000,38.892,,100.008,300,,,,,,,,,,,wg-a,,,,AAXX 12004 07661 32/70 33021 10110 20000 39966 40130 55012 82082 90000 333 91054=
07661,1999-04-12 06:00:00,9,1009.5,-1.9,53,0,500,46.3,,68.524,300,9.1,13.7,,,,,,,,,wg-a,,,,AAXX 12064 07661 12/00 03025 10090 20000 39931 40095 58019 60004 80000 90600 333 10137 20091 91037=
07661,1999-04-12 12:00:00,12,1009.8,0.3,62,5,500,50.004,,79.636,290,,,,,,,,,,,wg-a,,,,AAXX 12124 07661 32800 72927 10120 20050 39936 40098 53003 8707/ 91200 333 91043=
07661,1999-04-12 18:00:00,11,1017.6,2.4,71,6,20000,31.484,,,290,9.2,13.8,,,,,,,,1,wg-a,,,,AAXX 12184 07661 02870 72917 10110 20060 30012 40176 51024 61000 70162 8707/ 91800 333 10138 20092 ////=
07661,1999-04-13 00:00:00,12,1018.7,0.3,71,7,20000,64.82,,96.304,290,,,,0,,,,,,,wg-a,,,,AAXX 13004 07661 12470 32935 10120 20070 30023 40187 51003 60007 83200 90000 333 91052=
07661,1999-04-13 06:00:00,10,1017.9,-0.6,53,1,500,68.524,,96.304,310,9.5,12,,,,,1,,,,wg-a,,,,AAXX 13064 07661 12400 13137 10100 20010 30014 40179 58006 60014 81200 90600 333 10120 20095 91052=
07661,1999-04-13 11:00:00,14.9,1018,0.6,38,0.7,,64.82,100.008,94.452,310,,,,,,,,,,,og-post,,,,AAXX 13114 07661 36/// /3135 10149 20007 30018 40180 52006 333 91051 91154=
07661,1999-04-13 12:00:00,16,1018.1,0.6,34,0,500,53.708,,103.712,310,,,,,,,,,,,wg-a,,,,AAXX 13124 07661 32400 23129 10160 20000 30019 40181 51006 8/200 91200 333 91056=
07661,1999-04-13 18:00:00,15,1019.1,0.7,36,0,25000,53.708,,94.452,310,9.8,16.7,,,,,,,,,wg-a,,,,AAXX 13184 07661 32475 13129 10150 20000 30029 40191 51007 81200 91800 333 10167 20098 91051=
07661,1999-04-14 00:00:00,11,1018.4,-0.6,47,0,25000,42.596,,83.34,300,,,,,,,,,,,wg-a,,,,AAXX 14004 07661 32/75 03023 10110 20000 30019 40184 56006 80000 90000 333 91045=
07661,1999-04-14 06:00:00,9,1017.3,-0.8,57,1,25000,35.188,,79.636,310,8.5,15.1,,,,,,,,,wg-a,,,,AAXX 14064 07661 12575 33119 10090 20010 30008 40173 58008 60004 81130 90600 333 10151 20085 91043=
07661,1999-04-14 12:00:00,15,1007.9,-0.8,48,4,0,22.224,,,250,,,,,,,,,,,wg-a,,,,AAXX 14124 07661 32/// /2512 10150 20040 39919 40079 58008 91200=
07661,1999-04-14 18:00:00,12,1006.3,-0.9,71,7,500,14.816,,,180,8.8,15.4,,,,,,,,,wg-a,,,,AAXX 14184 07661 32400 81808 10120 20070 39901 40063 56009 885// 91800 333 10154 20088=
07661,1999-04-15 00:00:00,12,1005.7,-0.8,94,11,15000,25.928,,57.412,190,,,,,,,,,,20,wg-a,,,,AAXX 15004 07661 02465 81914 10120 20110 39896 40057 56008 61000 72052 885// 90000 333 //// 91031=
07661,1999-04-15 06:00:00,10,1004.2,-0.3,100,10,10000,18.52,,,240,10.4,12.6,,0,,,,,,61,wg-a,,,,AAXX 15064 07661 02460 82410 10100 20100 39880 40042 55003 60004 76162 8672/ 90600 333 10126 20104 60007=
07661,1999-04-15 12:00:00,11,1005.1,0.1,82,8,15000,11.112,,,280,,,,,,,,,,2,wg-a,,,,AAXX 15124 07661 32465 82806 10110 20080 39889 40051 51001 70262 885// 91200=
07661,1999-04-15 18:00:00,8,1005,-0.2,93,7,15000,14.816,,,310,8.2,12,,1,,,,,,60,wg-a,,,,AAXX 15184 07661 12465 83108 10080 20070 39886 40050 58002 60017 76066 885// 91800 333 10120 20082=
07661,1999-04-16 00:00:00,7,1005.8,-0.2,76,3,15000,25.928,,,310,,,,,,,,,,,wg-a,,,,AAXX 16004 07661 32465 53114 10070 20030 39894 40058 56002 82402 90000=
07661,1999-04-16 06:00:00,6,1004.9,0.2,65,0,500,18.52,,,300,5.7,8.5,,,,,2,,,,wg-a,,,,AAXX 16064 07661 12/00 33010 10060 20000 39884 40049 53002 60024 83075 90600 333 10085 20057=
07661,1999-04-16 12:00:00,12,1004.6,-0.2,40,-1,500,61.116,,94.452,290,,,,,,,,,,,wg-a,,,,AAXX 16124 07661 32500 22933 10120 21010 39884 40046 58002 82100 91200 333 91051=
07661,1999-04-16 18:00:00,11,1005.4,0.9,47,0,500,31.484,,94.452,280,5.8,12.6,,,,,,,,,wg-a,,,,AAXX 16184 07661 32500 12817 10110 20000 39891 40054 53009 81100 91800 333 10126 20058 91051=
07661,1999-04-17 00:00:00,10,1005.2,-1.2,76,6,500,14.816,,50.004,250,,,,,,,,,,,wg-a,,,,AAXX 17004 07661 32400 52508 10100 20060 39890 40052 58012 85200 90000 333 91027=
07661,1999-04-17 06:00:00,7,1000.8,-1.3,100,7,12000,22.224,,,60,6.7,10.8,,8,,,8,,,91,wg-a,,,,AAXX 17064 07661 02462 80612 10070 20070 39844 40008 56013 60084 79196 88700 90600 333 10108 20067 60087=
07661,1999-04-17 12:00:00,10,1003,1.5,76,6,20000,22.224,,,290,,,,0,,,,,,,wg-a,,,,AAXX 17124 07661 12470 72912 10100 20060 39868 40030 50015 60007 85120 91200=
07661,1999-04-17 18:00:00,12,1004.5,1.4,50,2,20000,50.004,,94.452,310,5.9,12.9,,,,,,,,,wg-a,,,,AAXX 17184 07661 32470 53127 10120 20020 39883 40045 51014 82441 91800 333 10129 20059 91051=
07661,1999-04-18 00:00:00,9,1009.3,1.2,66,3,20000,35.188,,94.452,310,,,,,,,,,,,wg-a,,,,AAXX 18004 07661 32/70 03119 10090 20030 39929 40093 51012 80000 90000 333 91051=
07661,1999-04-18 06:00:00,9,1012.4,2.3,53,0,25000,42.596,,61.116,290,8.3,12,,,,,6,,,,wg-a,,,,AAXX 18064 07661 12875 22923 10090 20000 39960 40124 53023 60064 82041 90600 333 10120 20083 91033=
07661,1999-04-18 12:00:00,13,1014.4,-0.1,54,4,25000,61.116,,94.452,290,,,,,,,,,,,wg-a,,,,AAXX 18124 07661 32475 32933 10130 20040 39981 40144 58001 8/800 91200 333 91051=
07661,1999-04-18 18:00:00,13,1018,2.5,35,-2,25000,38.892,,90.748,320,9.3,14.7,,,,,,,,,wg-a,,,,AAXX 18184 07661 32875 33221 10130 21020 30017 40180 53025 82044 91800 333 10147 20093 91049=
07661,1999-04-19 00:00:00,10,1020.8,-0.1,43,-2,25000,22.224,,64.82,300,,,,,,,,,,,wg-a,,,,AAXX 19004 07661 32/75 13012 10100 21020 30042 40208 58001 81050 90000 333 91035=
07661,1999-04-19 06:00:00,10,1020.7,0.4,66,4,500,31.484,,,300,8.9,12.9,,,,,,,,,wg-a,,,,AAXX 19064 07661 12/00 63017 10100 20040 30042 40207 53004 60004 83532 90600 333 10129 20089=
07661,1999-04-19 12:00:00,14,1019.1,-1,58,6,500,35.188,,,290,,,,,,,,,,,wg-a,,,,AAXX 19124 07661 32500 32919 10140 20060 30028 40191 58010 82201 91200=
07661,1999-04-19 18:00:00,12,1017.7,0.1,76,8,500,31.484,,61.116,290,9.6,14.9,,,,,,,,,wg-a,,,,AAXX 19184 07661 32500 22917 10120 20080 30014 40177 53001 81201 91800 333 10149 20096 91033=
07661,1999-04-20 00:00:00,11,1018.3,-0.3,76,7,25000,25.928,,,300,,,,,,,,,,,wg-a,,,,AAXX 20004 07661 32/75 23014 10110 20070 30019 40183 56003 82071 90000=
07661,1999-04-20 06:00:00,11,1016.7,-0.3,87,9,12000,3.704,,,90,10.6,12.1,,,,,,,,,wg-a,,,,AAXX 20064 07661 12562 60902 10110 20090 30003 40167 57003 60004 8/800 90600 333 10121 20106=
07661,1999-04-20 12:00:00,15,1016.9,-0.5,82,12,0,11.112,,,140,,,,,,,,,,,wg-a,,,,AAXX 20124 07661 32/// /1406 10150 20120 30007 40169 58005 91200=
07661,1999-04-20 18:00:00,13,1014.9,-1.1,94,12,12000,18.52,,,110,10.8,15.1,,,,,,,,,wg-a,,,,AAXX 20184 07661 32362 61110 10130 20120 39986 40149 56011 84236 91800 333 10151 20108=
07661,1999-04-21 00:00:00,12,1013.3,-1.1,100,12,8000,35.188,,,80,,,,0,,,,,,,wg-a,,,,AAXX 21004 07661 12358 80819 10120 20120 39971 40133 57011 60007 887// 90000=
07661,1999-04-21 06:00:00,12,1011.9,0.1,100,12,6000,31.484,,,70,11.9,12.6,,,,,,,,,wg-a,,,,AAXX 21064 07661 12356 80717 10120 20120 39957 40119 53001 60004 887// 90600 333 10126 20119=
07661,1999-04-21 12:00:00,15,1011.8,0.3,82,12,10000,22.224,,,70,,,,,,,,,,,wg-a,,,,AAXX 21124 07661 32460 80712 10150 20120 39957 40118 53003 887// 91200=
07661,1999-04-21 18:00:00,13,1012.3,1.1,88,11,0,22.224,,,110,12.3,18.4,,,,,,,,,wg-a,,,,AAXX 21184 07661 32/// /1112 10130 20110 39961 40123 51011 91800 333 10184 20123=
07661,1999-04-22 00:00:00,12,1015.9,1.4,76,8,10000,22.224,,,340,,,,,,,,,,64,wg-a,,,,AAXX 22004 07661 32460 83412 10120 20080 39996 40159 51014 76422 88700 90000=
07661,1999-04-22 06:00:00,11,1016.1,1,87,9,500,14.816,,,290,10.1,12.8,,,,,,,,,wg-a,,,,AAXX 22064 07661 32500 32908 10110 20090 39997 40161 50010 81102 90600 333 10128 20101=
07661,1999-04-22 12:00:00,17,1017,0.1,68,11,20000,25.928,,,290,,,,,,,,,,,wg-a,,,,AAXX 22124 07661 32570 32914 10170 20110 30009 40170 53001 82130 91200=
07661,1999-04-22 18:00:00,16,1016.6,0.7,51,6,15000,22.224,,,310,10.8,19.5,,,,,,,,,wg-a,,,,AAXX 22184 07661 32565 63112 10160 20060 30005 40166 52007 83168 91800 333 10195 20108=
07661,1999-04-23 00:00:00,12,1016.9,-1.2,71,7,15000,22.224,,,300,,,,,,,,,,,wg-a,,,,AAXX 23004 07661 32/65 03012 10120 20070 30005 40169 57012 80000 90000=
07661,1999-04-23 06:00:00,11,1016.2,0.3,87,9,15000,3.704,,,70,10.2,15.7,,,,,,,,,wg-a,,,,AAXX 23064 07661 12865 20702 10110 20090 39998 40162 53003 60004 82040 90600 333 10157 20102=
07661,1999-04-23 12:00:00,15,1015.7,-0.2,72,10,500,7.408,,,190,,,,,,,,,,,wg-a,,,,AAXX 23124 07661 32800 81904 10150 20100 39996 40157 57002 8/070 91200=
07661,1999-04-23 18:00:00,13,1013.4,-1.2,82,10,15000,18.52,,,60,11.4,16.4,,1,,,,,,60,wg-a,,,,AAXX 23184 07661 12465 80610 10130 20100 39972 40134 56012 60017 76066 887// 91800 333 10164 20114=
07661,1999-04-24 00:00:00,,1,-0.6,,,20000,38.892,,,310,,,,0,,,,,,21,wg-a,,,,AAXX 24004 07661 12570 63121 1//// 2//// 39967 58006 60007 72192 86900 90000=
07661,1999-04-24 06:00:00,,1,0.6,,,40000,25.928,,,310,,,,0,,,,,,21,wg-a,,,,AAXX 24064 07661 12482 43114 1//// 2//// 39960 53006 60007 72162 84570 90600=
07661,1999-04-24 12:00:00,,,0.5,,,20000,18.52,,,330,,,,,,,,,,60,og-post,,,,AAXX 24124 07661 /1470 63310 1//// 2//// 39977 4//// 50005 69901 76062 85570 333 69907 92438=
07661,1999-04-24 18:00:00,,1,-0,,,35000,11.112,,,300,,,,,,,,,,1,wg-a,,,,AAXX 24184 07661 32581 33006 1//// 2//// 39970 55000 70162 82240 91800=
07661,1999-04-25 00:00:00,,1,-0.3,,,35000,7.408,,,300,,,,,,,,,,,wg-a,,,,AAXX 25004 07661 32/81 03004 1//// 2//// 39976 57003 80000 90000=
07661,1999-04-25 06:00:00,,1,1.3,,,35000,0,,,0,,,,,,,,,,,wg-a,,,,AAXX 25064 07661 12/81 10000 1//// 2//// 39980 53013 60004 80001 90600=
07661,1999-04-25 12:00:00,,1,-0.4,,,500,14.816,,,210,,,,,,,,,,,wg-a,,,,AAXX 25124 07661 32500 32108 1//// 2//// 39986 58004 81205 91200=
07661,1999-04-25 18:00:00,,1,0.1,,,25000,11.112,,,250,,,,,,,,,,,wg-a,,,,AAXX 25184 07661 32875 62506 1//// 2//// 39979 51001 8/070 91800=
07661,1999-04-26 00:00:00,,1,-0.6,,,25000,14.816,,,80,,,,,,,,,,,wg-a,,,,AAXX 26004 07661 32875 80808 1//// 2//// 39977 58006 8/070 90000=
07661,1999-04-26 06:00:00,,1,-0.1,,,25000,22.224,,,70,,,,,,,,,,,wg-a,,,,AAXX 26064 07661 12875 80712 1//// 2//// 39969 55001 60004 8/070 90600=
07661,1999-04-26 12:00:00,,1,-0,,,18000,22.224,,,110,,,,,,,,,,21,wg-a,,,,AAXX 26124 07661 02468 71112 1//// 2//// 39969 55000 61000 72162 82270 91200 333 ////=
07661,1999-04-26 18:00:00,,1,-0,,,18000,18.52,,,100,,,,0,,,,,,60,wg-a,,,,AAXX 26184 07661 12468 81010 1//// 2//// 39959 55000 60007 76022 82270 91800=
07661,1999-04-27 00:00:00,,1,0.2,,,18000,25.928,,,60,,,,1,,,,,,60,wg-a,,,,AAXX 27004 07661 12468 80614 1//// 2//// 39957 53002 60017 76062 82270 90000=
07661,1999-04-27 12:00:00,,1,1.5,,,10000,31.484,,,80,,,,0,,,,,,60,wg-a,,,,AAXX 27124 07661 12460 80817 1//// 2//// 39967 53015 60007 76062 887// 91200=
07661,1999-04-27 18:00:00,,1,0.5,,,15000,31.484,,,80,,,,,,,,,,2,wg-a,,,,AAXX 27184 07661 32465 70817 1//// 2//// 39975 51005 70262 878// 91800=
07661,1999-04-28 00:00:00,,1,0.4,,,20000,29.632,,,70,,,,,,,,,,,wg-a,,,,AAXX 28004 07661 32/70 50716 1//// 2//// 39998 53004 80002 90000=
07661,1999-04-28 06:00:00,,1,-0.3,,,18000,38.892,,75.932,60,,,,,,,6,,,,wg-a,,,,AAXX 28064 07661 12468 80621 1//// 2//// 39963 55003 60064 8272/ 90600 333 91041=
07661,1999-04-28 12:00:00,18,1008.7,-2.1,52,8,12000,64.82,,103.712,80,,,,,,,,,,,wg-a,,,,AAXX 28124 07661 32462 80835 10180 20080 39928 40087 56021 8272/ 91200 333 91056=
07661,1999-04-28 18:00:00,17.4,1007.9,1.7,52,7.5,12000,64.82,114.824,90.748,70,,,,,,,,,,,og-post,,,,AAXX 28184 07661 32962 50735 10174 20075 39920 40079 53017 8502/ 333 91049 91162 92457=
07661,1999-04-29 00:00:00,18,1008.6,0.2,49,7,20000,53.708,,96.304,70,,,,,,,,,,,wg-a,,,,AAXX 29004 07661 32/70 60729 10180 20070 39927 40086 52002 8602/ 90000 333 91052=
07661,1999-04-29 06:00:00,16,1010,2.9,66,9.7,15000,29.632,94.452,,90,15.4,18.4,,,,,0,,,,og-post,,,,AAXX 29064 07661 32865 70916 10160 20097 39940 40100 51029 8780/ 333 10184 20154 70000 91151 92447=
07661,1999-04-29 12:00:00,17,1013.6,1,68,11,11000,18.52,,,140,,,,,,,,,,,wg-a,,,,AAXX 29124 07661 32861 81410 10170 20110 39976 40136 50010 81210 91200=
07661,1999-04-29 18:00:00,14,1013.2,1.7,88,12,8000,22.224,,,160,14.3,18.6,,,,,,,,,wg-a,,,,AAXX 29184 07661 32358 31612 10140 20120 39971 40132 52017 83200 91800 333 10186 20143=
07661,1999-04-30 00:00:00,13,1015.7,0.9,100,13,500,7.408,,,230,,,,,,,,,,47,wg-a,,,,AAXX 30004 07661 32/05 92304 10130 20130 39995 40157 50009 74700 89/// 90000=
07661,1999-04-30 06:00:00,12,1016.2,0.7,100,12,500,3.704,,,60,11.4,14.6,,,,,,,,47,wg-a,,,,AAXX 30064 07661 12/05 90602 10120 20120 39999 40162 53007 60004 74740 89/// 90600 333 10146 20114=
07661,1999-04-30 12:00:00,16,1018,0.6,82,13,500,14.816,,,210,,,,,,,,,,40,wg-a,,,,AAXX 30124 07661 32505 42108 10160 20130 30019 40180 51006 74041 82201 91200=
07661,1999-04-30 18:00:00,15,1016.4,-0.5,82,12,100,14.816,,,260,11.5,17.4,,,,,,,,40,wg-a,,,,AAXX 30184 07661 32201 42608 10150 20120 30003 40164 56005 74041 82204 91800 333 10174 20115=
07661,1999-05-01 00:00:00,12,1017.8,-0.2,100,12,500,11.112,,,320,,,,,,,,,,40,wg-a,,,,AAXX 01004 07661 32505 83206 10120 20120 30015 40178 58002 74041 8850/ 90000=
07661,1999-05-01 06:00:00,11,1018.8,1.1,100,11,500,14.816,,,70,10,15,,,,,,,,1,wg-a,,,,AAXX 01064 07661 12300 70708 10110 20110 30024 40188 53011 60004 70142 876// 90600 333 10150 20100=
07661,1999-05-01 12:00:00,17,1018,-1,77,13,12000,22.224,,,140,,,,,,,,,,,wg-a,,,,AAXX 01124 07661 32562 41412 10170 20130 30019 40180 58010 81102 91200=
07661,1999-05-02 06:00:00,14,1015.3,0.5,67,8,15000,29.632,,,80,12.8,14.6,,,,,,,,,wg-a,,,,AAXX 02064 07661 12565 60816 10140 20080 39991 40153 53005 60004 84802 90600 333 10146 20128=
07661,1999-05-02 12:00:00,19,1015.8,-0.3,49,8,20000,25.928,,,120,,,,,,,,,,,wg-a,,,,AAXX 02124 07661 32670 71214 10190 20080 39999 40158 58003 87070 91200=
07661,1999-05-02 18:00:00,18,1013.7,-0.5,49,7,25000,25.928,,61.116,110,14.4,21.7,,,,,,,,,wg-a,,,,AAXX 02184 07661 32575 61114 10180 20070 39978 40137 58005 82970 91800 333 10217 20144 91033=
07661,1999-05-03 00:00:00,18,1014.5,0,42,5,25000,29.632,,,70,,,,,,,,,,13,wg-a,,,,AAXX 03004 07661 32475 50716 10180 20050 39985 40145 50000 71322 82610 90000=
07661,1999-05-03 06:00:00,16,1012.6,-0.5,72,11,20000,35.188,,,70,14.2,18.6,,0,,,1,,,21,wg-a,,,,AAXX 03064 07661 02470 80719 10160 20110 39966 40126 55005 60014 72162 84230 90600 333 10186 20142 60007=
07661,1999-05-03 12:00:00,17,1011.2,-1.9,72,12,10000,38.892,,79.636,90,,,,0,,,,,,60,wg-a,,,,AAXX 03124 07661 12460 80921 10170 20120 39953 40112 56019 60007 76062 83770 91200 333 91043=
07661,1999-05-03 18:00:00,16,1008.4,-1.9,88,14,8000,57.412,,79.636,70,15.4,19,,4,,,,,,60,wg-a,,,,AAXX 03184 07661 12458 80731 10160 20140 39924 40084 56019 60047 76066 8477/ 91800 333 10190 20154 91043=
07661,1999-05-04 00:00:00,15,1006.1,-1.8,100,15,8000,38.892,,87.044,80,,,,10,,,,,,65,wg-a,,,,AAXX 04004 07661 12458 70821 10150 20150 39901 40061 58018 60107 76566 8477/ 90000 333 91047=
07661,1999-05-04 06:00:00,16,1000.5,0.4,88,14,8000,57.412,,111.12,70,14.7,17.5,,0,,,21,,,60,wg-a,,,,AAXX 04064 07661 02458 80731 10160 20140 39847 40005 53004 60214 76066 887// 90600 333 10175 20147 60007 91060=
07661,1999-05-04 12:00:00,15,1002.9,1.5,100,15,4000,31.484,,94.452,70,,,,1,,,,,,61,wg-a,,,,AAXX 04124 07661 12440 80717 10150 20150 39870 40029 53015 60017 76162 887// 91200 333 91051=
07661,1999-05-04 18:00:00,14,1006,2,100,14,8000,18.52,,53.708,70,14,16.9,,2,,,,,,21,wg-a,,,,AAXX 04184 07661 12458 70710 10140 20140 39900 40060 53020 60027 72162 878// 91800 333 10169 20140 91029=
07661,1999-05-05 00:00:00,13,1009.4,0.7,100,13,12000,3.704,,,10,,,,0,,,,,,,wg-a,,,,AAXX 05004 07661 12562 40102 10130 20130 39933 40094 51007 60007 8184/ 90000=
07661,1999-05-05 06:00:00,14,1010.1,0.7,94,13,20000,14.816,,,300,12.9,14.1,,,,,5,,,,wg-a,,,,AAXX 05064 07661 12670 33008 10140 20130 39940 40101 53007 60054 82230 90600 333 10141 20129=
07661,1999-05-05 12:00:00,19,1011.7,0.4,73,14,15000,25.928,,,280,,,,,,,,,,,wg-a,,,,AAXX 05124 07661 32565 42814 10190 20140 39958 40117 53004 83208 91200=
07661,1999-05-05 18:00:00,16,1012.4,0.4,82,13,12000,25.928,,,290,14.2,20.3,,,,,,,,,wg-a,,,,AAXX 05184 07661 32/62 32914 10160 20130 39964 40124 50004 80008 91800 333 10203 20142=
07661,1999-05-06 00:00:00,16,1014.8,0.4,77,12,15000,18.52,,,300,,,,,,,,,,,wg-a,,,,AAXX 06004 07661 32/65 13010 10160 20120 39987 40148 51004 80001 90000=
07661,1999-05-06 06:00:00,14,1016,1.2,100,14,600,14.816,,,100,12.7,15.8,,0,,,,,,46,wg-a,,,,AAXX 06064 07661 02306 81008 10140 20140 39998 40160 53012 60004 74640 88600 90600 333 10158 20127 60007=
07661,1999-05-06 12:00:00,17,1017.6,0.5,82,14,10000,25.928,,,150,,,,,,,,,,,wg-a,,,,AAXX 06124 07661 32460 41514 10170 20140 30016 40176 51005 82202 91200=
07661,1999-05-06 18:00:00,15,1017.3,-0,94,14,6000,18.52,,,90,13.9,18,,,,,,,,,wg-a,,,,AAXX 06184 07661 32456 40910 10150 20140 30012 40173 55000 84602 91800 333 10180 20139=
07661,1999-05-07 00:00:00,14,1018.2,-0.1,100,14,8000,22.224,,,110,,,,,,,,,,,wg-a,,,,AAXX 07004 07661 32458 41112 10140 20140 30020 40182 58001 84600 90000=
07661,1999-05-07 06:00:00,14,1017.9,0.2,94,13,0,22.224,,,80,13.3,14.8,,,,,,,,,wg-a,,,,AAXX 07064 07661 32/// /0812 10140 20130 30017 40179 53002 90600 333 10148 20133=
07661,1999-05-07 12:00:00,17,1017.3,-0.8,82,14,500,14.816,,,130,,,,,,,,,,,wg-a,,,,AAXX 07124 07661 32300 71308 10170 20140 30013 40173 58008 82632 91200=
07661,1999-05-07 18:00:00,14,1015.2,-0.8,94,13,500,22.224,,,120,13.9,17.1,,,,,,,,,wg-a,,,,AAXX 07184 07661 32300 61212 10140 20130 39991 40152 57008 82694 91800 333 10171 20139=
07661,1999-05-08 00:00:00,14,1015.4,-0.5,100,14,4000,22.224,,,90,,,,0,,,,,,10,wg-a,,,,AAXX 08004 07661 12/40 /0912 10140 20140 39992 40154 58005 60007 71022 90000=
07661,1999-05-08 06:00:00,14,1015.6,0.4,94,13,6000,22.224,,,70,13.5,14.3,,,,,,,,21,wg-a,,,,AAXX 08064 07661 02456 80712 10140 20130 39994 40156 53004 60004 72122 86720 90600 333 10143 20135 61000=
07661,1999-05-08 12:00:00,18,1016.2,-0.8,77,14,7000,11.112,,,90,,,,0,,,,,,20,wg-a,,,,AAXX 08124 07661 12457 50906 10180 20140 30002 40162 57008 60007 72052 84361 91200=
07661,1999-05-08 18:00:00,17,1015.8,0,77,13,10000,14.816,,,300,13.9,19.3,,,,,,,,,wg-a,,,,AAXX 08184 07661 32460 43008 10170 20130 39998 40158 50000 83464 91800 333 10193 20139=
07661,1999-05-09 00:00:00,15,1016.6,-0.5,82,12,15000,14.816,,,300,,,,,,,,,,,wg-a,,,,AAXX 09004 07661 32/65 03008 10150 20120 30005 40166 58005 80000 90000=
07661,1999-05-09 06:00:00,15,1018,1.5,82,12,8000,18.52,,,80,12.4,17.4,,,,,,,,,wg-a,,,,AAXX 09064 07661 12458 30810 10150 20120 30018 40180 52015 60004 83600 90600 333 10174 20124=
07661,1999-05-09 12:00:00,18,1019.4,0.4,83,15,12000,22.224,,,150,,,,,,,,,,,wg-a,,,,AAXX 09124 07661 32462 31512 10180 20150 30034 40194 50004 83201 91200=
07661,1999-05-09 18:00:00,16,1018.8,-0.7,88,14,3500,11.112,,,100,14.7,19.1,,,,,,,,10,wg-a,,,,AAXX 09184 07661 32/35 21006 10160 20140 30027 40188 57007 71011 80001 91800 333 10191 20147=
07661,1999-05-10 00:00:00,14,1020.5,-0.2,100,14,100,11.112,,,100,,,,,,,,,,47,wg-a,,,,AAXX 10004 07661 32/01 91006 10140 20140 30043 40205 58002 74742 89/// 90000=
07661,1999-05-10 06:00:00,14,1021.1,0.4,100,14,100,14.816,,,80,12.9,16,,,,,,,,45,wg-a,,,,AAXX 10064 07661 12/01 90808 10140 20140 30048 40211 53004 60004 74544 89/// 90600 333 10160 20129=
07661,1999-05-10 12:00:00,18,1021,-0.4,83,15,0,18.52,,,150,,,,,,,,,,,wg-a,,,,AAXX 10124 07661 32/// /1510 10180 20150 30050 40210 58004 91200=
07661,1999-05-10 18:00:00,17,1020.7,0.1,88,15,4900,3.704,,,230,13.4,18.8,,,,,,,,10,wg-a,,,,AAXX 10184 07661 32549 72302 10170 20150 30046 40207 53001 71022 85531 91800 333 10188 20134=
07661,1999-05-11 00:00:00,15,1020.4,-0.6,100,15,4000,14.816,,,290,,,,0,,,,,,28,wg-a,,,,AAXX 11004 07661 12/40 /2908 10150 20150 30042 40204 58006 60007 72822 90000=
07661,1999-05-11 06:00:00,14,1019.1,-0.1,100,14,1000,14.816,,,290,13.7,16.7,,,,,,,,28,wg-a,,,,AAXX 11064 07661 12310 82908 10140 20140 30029 40191 55001 60004 72844 886// 90600 333 10167 20137=
07661,1999-05-11 12:00:00,17,1018.4,-0.8,77,13,0,25.928,,,290,,,,,,,,,,,wg-a,,,,AAXX 11124 07661 32/// /2914 10170 20130 30024 40184 58008 91200=
07661,1999-05-11 18:00:00,16,1016.6,-0.6,88,14,10000,22.224,,,270,14,19.1,,,,,,,,,wg-a,,,,AAXX 11184 07661 32360 72712 10160 20140 30005 40166 58006 85970 91800 333 10191 20140=
07661,1999-05-12 00:00:00,15,1016.5,-0.9,94,14,12000,22.224,,,290,,,,,,,,,,,wg-a,,,,AAXX 12004 07661 32462 42912 10150 20140 30004 40165 58009 84601 90000=
07661,1999-05-12 06:00:00,16,1014.5,-0.2,88,14,8000,29.632,,,290,14.7,16.2,,,,,,,,,wg-a,,,,AAXX 12064 07661 12458 42916 10160 20140 39985 40145 56002 60004 82601 90600 333 10162 20147=
07661,1999-05-12 12:00:00,25,1014.3,-0.5,57,16,6000,22.224,,,280,,,,,,,,,,,wg-a,,,,AAXX 12124 07661 32456 42812 10250 20160 39987 40143 58005 84204 91200=
07661,1999-05-12 18:00:00,16,1014.2,-0.1,94,15,1000,29.632,,,280,15.8,25.4,,,,,,,,,wg-a,,,,AAXX 12184 07661 32/10 92816 10160 20150 39982 40142 55001 89/// 91800 333 10254 20158=
07661,1999-05-13 00:00:00,15,1014.7,-0.3,100,15,500,31.484,,,290,,,,0,,,,,,45,wg-a,,,,AAXX 13004 07661 12/00 92917 10150 20150 39986 40147 57003 60007 74542 89/// 90000=
07661,1999-05-13 06:00:00,15,1014.1,0.6,100,15,500,22.224,,,300,14.5,15.8,,,,,,,,42,wg-a,,,,AAXX 13064 07661 12100 63012 10150 20150 39980 40141 52006 60004 74242 85604 90600 333 10158 20145=
07661,1999-05-13 12:00:00,24,1013.6,-0.6,61,16,2000,14.816,,,300,,,,,,,,,,10,wg-a,,,,AAXX 13124 07661 32/20 63008 10240 20160 39980 40136 58006 71042 80008 91200=
07661,1999-05-13 18:00:00,17,1012.4,-0.3,94,16,500,14.816,,,210,15,25,,,,,,,,46,wg-a,,,,AAXX 13184 07661 32305 62108 10170 20160 39964 40124 55003 74642 84671 91800 333 10250 20150=
07661,1999-05-14 06:00:00,15,1011.5,0.7,100,15,0,3.704,,,230,14.9,16.5,,,,,,,,,wg-a,,,,AAXX 14064 07661 32/// /2302 10150 20150 39955 40115 50007 90600 333 10165 20149=
07661,1999-05-14 12:00:00,18,1009.9,-0.6,83,15,4000,31.484,,,290,,,,0,,,,,,10,wg-a,,,,AAXX 14124 07661 12440 42917 10180 20150 39941 40099 58006 60007 71042 84600 91200=
07661,1999-05-14 18:00:00,19,1008.9,0.1,83,16,7000,25.928,,57.412,290,15,21.6,,,,,,,,,wg-a,,,,AAXX 14184 07661 32457 32914 10190 20160 39931 40089 53001 82202 91800 333 10216 20150 91031=
07661,1999-05-15 00:00:00,18,1009.1,0.1,88,16,16000,25.928,,,290,,,,,,,,,,,wg-a,,,,AAXX 15004 07661 32/66 32914 10180 20160 39933 40091 53001 82032 90000=
07661,1999-05-15 06:00:00,19,1007.2,-0.4,68,13,16000,7.408,,,320,17.1,19.3,,,,,,,,,wg-a,,,,AAXX 15064 07661 12/66 33204 10190 20130 39914 40072 58004 60004 83030 90600 333 10193 20171=
07661,1999-05-15 12:00:00,23,1007.9,-0.4,50,12,20000,29.632,,,280,,,,,,,,,,,wg-a,,,,AAXX 15124 07661 32570 32816 10230 20120 39923 40079 58004 83230 91200=
07661,1999-05-15 18:00:00,20,1006.8,-0.3,60,12,25000,38.892,,61.116,290,18.6,22.7,,,,,,,,,wg-a,,,,AAXX 15184 07661 32575 12921 10200 20120 39911 40068 55003 81200 91800 333 10227 20186 91033=
07661,1999-05-16 00:00:00,17,1009,0.3,63,10,25000,29.632,,,290,,,,,,,,,,,wg-a,,,,AAXX 16004 07661 32/75 02916 10170 20100 39931 40090 51003 80000 90000=
07661,1999-05-16 06:00:00,16,1010.2,1,59,8,25000,3.704,,,120,14.4,20.7,,,,,,,,,wg-a,,,,AAXX 16064 07661 12675 61202 10160 20080 39942 40102 53010 60004 84440 90600 333 10207 20144=
07661,1999-05-16 12:00:00,20,1011.6,0.6,78,16,4000,14.816,,,160,,,,,,,,,,10,wg-a,,,,AAXX 16124 07661 32540 21608 10200 20160 39958 40116 52006 71000 8113/ 91200=
07661,1999-05-16 18:00:00,17,1010.7,0.1,82,14,0,11.112,,,80,16.3,20.4,,,,,,,,,wg-a,,,,AAXX 16184 07661 32/// /0806 10170 20140 39948 40107 50001 91800 333 10204 20163=
07661,1999-05-17 00:00:00,16,1010.8,0.2,100,16,10000,18.52,,,90,,,,,,,,,,,wg-a,,,,AAXX 17004 07661 32/60 /0910 10160 20160 39949 40108 50002 90000=
07661,1999-05-17 06:00:00,16,1010.3,-0,100,16,1500,35.188,,,80,15.8,17.9,,2,,,2,,,61,wg-a,,,,AAXX 17064 07661 02315 80819 10160 20160 39944 40103 55000 60024 76162 887// 90600 333 10179 20158 60027=
07661,1999-05-17 12:00:00,19,1006.6,-2.7,73,14,0,53.708,,,80,,,,,,,,,,,wg-a,,,,AAXX 17124 07661 02/// /0829 10190 20140 39909 40066 56027 61000 91200 333 ////=
07661,1999-05-17 18:00:00,18,1007,1.2,73,13,10000,53.708,,100.008,80,15.1,20.1,,,,,,,,,wg-a,,,,AAXX 17184 07661 32560 80829 10180 20130 39912 40070 53012 858// 91800 333 10201 20151 91054=
07661,1999-05-18 00:00:00,16,1010.9,1.1,88,14,10000,35.188,,90.748,90,,,,,,,,,,,wg-a,,,,AAXX 18004 07661 32560 80919 10160 20140 39949 40109 51011 858// 90000 333 91049=
07661,1999-05-18 06:00:00,16,1011.7,0.2,94,15,7000,22.224,,57.412,80,15.5,17.9,,,,,1,,,,wg-a,,,,AAXX 18064 07661 12457 70812 10160 20150 39957 40117 50002 60014 8561/ 90600 333 10179 20155 91031=
07661,1999-05-18 12:00:00,18,1013,0.2,88,16,10000,18.52,,,120,,,,,,,,,,,wg-a,,,,AAXX 18124 07661 32460 71210 10180 20160 39971 40130 50002 86302 91200=
07661,1999-05-18 18:00:00,16,1011.8,-0.2,94,15,10000,22.224,,,120,16.3,19.5,,,,,,,,,wg-a,,,,AAXX 18184 07661 32460 71212 10160 20150 39958 40118 55002 84370 91800 333 10195 20163=
07661,1999-05-19 00:00:00,16,1013.3,-0.3,94,15,8000,11.112,,,120,,,,,,,,,,,wg-a,,,,AAXX 19004 07661 32458 31206 10160 20150 39973 40133 58003 83600 90000=
07661,1999-05-19 06:00:00,17,1013.4,0.7,94,16,0,11.112,,,100,14.8,16.9,,,,,,,,,wg-a,,,,AAXX 19064 07661 32/// /1006 10170 20160 39974 40134 53007 90600 333 10169 20148=
07661,1999-05-19 12:00:00,21,1014.1,0.4,69,15,10000,11.112,,,220,,,,,,,,,,,wg-a,,,,AAXX 19124 07661 32460 52206 10210 20150 39984 40141 50004 85202 91200=
07661,1999-05-19 18:00:00,18,1014.1,0.1,73,13,500,11.112,,,220,17,21.3,,,,,,,,,wg-a,,,,AAXX 19184 07661 32400 32206 10180 20130 39982 40141 53001 81202 91800 333 10213 20170=
07661,1999-05-20 00:00:00,15,1014.4,-1.2,82,12,500,3.704,,,320,,,,,,,,,,,wg-a,,,,AAXX 20004 07661 32400 43202 10150 20120 39983 40144 58012 82262 90000=
07661,1999-05-20 06:00:00,16,1013.7,-0.1,77,12,20000,0,,,0,12.6,18,,,,,,,,,wg-a,,,,AAXX 20064 07661 12470 30000 10160 20120 39976 40137 55001 60004 82903 90600 333 10180 20126=
07661,1999-05-20 12:00:00,18,1012,-1.4,64,11,25000,50.004,,75.932,290,,,,,,,,,,3,wg-a,,,,AAXX 20124 07661 02675 52927 10180 20110 39961 40120 58014 61000 70361 83203 91200 333 //// 91041=
07661,1999-05-20 18:00:00,16,1011.8,1,77,12,25000,46.3,,94.452,290,15.7,18.3,,,,,,,,,wg-a,,,,AAXX 20184 07661 32675 52925 10160 20120 39958 40118 51010 83203 91800 333 10183 20157 91051=
07661,1999-05-21 00:00:00,15,1011.3,-1.7,67,9,20000,61.116,,,300,,,,,,,,,,,wg-a,,,,AAXX 21004 07661 32570 43033 10150 20090 39952 40113 58017 81203 90000=
07661,1999-05-21 06:00:00,14,1011.4,0.5,72,9,20000,57.412,,100.008,300,13.8,16.9,,,,,,,,,wg-a,,,,AAXX 21064 07661 12570 63031 10140 20090 39953 40114 52005 60004 82242 90600 333 10169 20138 91054=
07661,1999-05-21 12:00:00,21,1009.5,-0.8,43,8,35000,61.116,,103.712,320,,,,,,,,,,,wg-a,,,,AAXX 21124 07661 32481 33233 10210 20080 39938 40095 56008 81241 91200 333 91056=
07661,1999-05-21 18:00:00,21,1010.1,1.2,38,6,25000,38.892,,87.044,300,14.2,22.9,,,,,,,,,wg-a,,,,AAXX 21184 07661 32475 43021 10210 20060 39943 40101 51012 81242 91800 333 10229 20142 91047=
07661,1999-05-22 00:00:00,18,1010.9,-0.6,49,7,500,31.484,,,300,,,,,,,,,,,wg-a,,,,AAXX 22004 07661 32/00 23017 10180 20070 39950 40109 58006 81042 90000=
07661,1999-05-22 06:00:00,18,1011.3,0.7,52,8,25000,29.632,,,300,16.6,20.7,,,,,,,,,wg-a,,,,AAXX 22064 07661 12775 23016 10180 20080 39954 40113 52007 60004 81202 90600 333 10207 20166=
07661,1999-05-22 12:00:00,22,1013.8,1.1,50,11,25000,7.408,,,140,,,,,,,,,,,wg-a,,,,AAXX 22124 07661 32475 51404 10220 20110 39981 40138 51011 83460 91200=
07661,1999-05-22 18:00:00,24,1013.7,0.4,41,10,500,25.928,,,310,18.4,25.8,,,,,,,,,wg-a,,,,AAXX 22184 07661 32800 43114 10240 20100 39981 40137 53004 81042 91800 333 10258 20184=
07661,1999-05-23 06:00:00,19,1016.6,1.2,56,10,25000,7.408,,,160,16.5,23.9,,,,,,,,,wg-a,,,,AAXX 23064 07661 12/75 11604 10190 20100 30007 40166 53012 60004 80001 90600 333 10239 20165=
07661,1999-05-23 12:00:00,23,1018.6,0.8,44,10,500,11.112,,,200,,,,,,,,,,,wg-a,,,,AAXX 23124 07661 32600 22006 10230 20100 30028 40186 51008 81101 91200=
07661,1999-05-23 18:00:00,21,1018.5,0.2,49,10,500,7.408,,,210,18.9,23.2,,,,,,,,,wg-a,,,,AAXX 23184 07661 32400 12104 10210 20100 30027 40185 53002 81100 91800 333 10232 20189=
07661,1999-05-24 00:00:00,15,1019.5,-0.3,77,11,20000,14.816,,,90,,,,,,,,,,,wg-a,,,,AAXX 24004 07661 32/70 00908 10150 20110 30033 40195 58003 80000 90000=
07661,1999-05-24 06:00:00,17,1020.5,0.9,72,12,15000,11.112,,,80,13.6,21.4,,,,,,,,,wg-a,,,,AAXX 24064 07661 12465 20806 10170 20120 30044 40205 53009 60004 82600 90600 333 10214 20136=
07661,1999-05-24 12:00:00,19,1020.9,-0.1,78,15,12000,22.224,,,160,,,,,,,,,,,wg-a,,,,AAXX 24124 07661 32462 11612 10190 20150 30049 40209 58001 81500 91200=
07661,1999-05-24 18:00:00,19,1019.6,-0.6,73,14,14000,11.112,,,290,16.7,20.4,,,,,,,,,wg-a,,,,AAXX 24184 07661 32564 22906 10190 20140 30037 40196 56006 82500 91800 333 10204 20167=
07661,1999-05-25 00:00:00,16,1019.4,-0.8,82,13,20000,14.816,,,290,,,,,,,,,,,wg-a,,,,AAXX 25004 07661 32/70 22908 10160 20130 30033 40194 57008 80001 90000=
07661,1999-05-25 06:00:00,16,1019.1,0.3,88,14,15000,18.52,,,290,14.9,19.5,,,,,,,,,wg-a,,,,AAXX 25064 07661 12565 22910 10160 20140 30030 40191 53003 60004 81201 90600 333 10195 20149=
07661,1999-05-25 12:00:00,20,1017.9,-0.9,78,16,10000,22.224,,,220,,,,,,,,,,,wg-a,,,,AAXX 25124 07661 32560 12212 10200 20160 30020 40179 58009 81200 91200=
07661,1999-05-25 18:00:00,19,1016.8,-0.4,78,15,8000,25.928,,,300,16.1,21.7,,,,,,,,,wg-a,,,,AAXX 25184 07661 32558 13014 10190 20150 30009 40168 55004 81200 91800 333 10217 20161=
07661,1999-05-26 00:00:00,17,1017.1,-0.4,88,15,20000,22.224,,,300,,,,,,,,,,,wg-a,,,,AAXX 26004 07661 32/70 03012 10170 20150 30011 40171 58004 80000 90000=
07661,1999-05-26 06:00:00,17,1017.8,0.6,88,15,7000,22.224,,,70,15.1,18.9,,,,,,,,,wg-a,,,,AAXX 26064 07661 12557 10712 10170 20150 30018 40178 53006 60004 81200 90600 333 10189 20151=
07661,1999-05-26 12:00:00,21,1019.1,0.2,73,16,10000,22.224,,,150,,,,,,,,,,,wg-a,,,,AAXX 26124 07661 32460 11512 10210 20160 30032 40191 51002 81200 91200=
07661,1999-05-26 18:00:00,18,1018.7,0.4,88,16,10000,11.112,,,170,16.8,21,,,,,,,,,wg-a,,,,AAXX 26184 07661 32460 31706 10180 20160 30027 40187 53004 83600 91800 333 10210 20168=
07661,1999-05-27 00:00:00,16,1019.7,-0.6,94,15,8000,18.52,,,80,,,,,,,,,,,wg-a,,,,AAXX 27004 07661 32/58 00810 10160 20150 30036 40197 58006 80000 90000=
07661,1999-05-27 06:00:00,17,1020.8,1.5,88,15,8000,14.816,,,80,14.8,18.1,,,,,,,,,wg-a,,,,AAXX 27064 07661 12458 20808 10170 20150 30047 40208 51015 60004 82600 90600 333 10181 20148=
07661,1999-05-27 12:00:00,21,1021,-0.4,78,17,7000,18.52,,,120,,,,,,,,,,,wg-a,,,,AAXX 27124 07661 32/57 51210 10210 20170 30051 40210 58004 83031 91200=
07661,1999-05-27 18:00:00,19,1021.5,1.1,83,16,8000,22.224,,,120,16.8,21.4,,,,,,,,,wg-a,,,,AAXX 27184 07661 32458 61212 10190 20160 30055 40215 53011 82298 91800 333 10214 20168=
07661,1999-05-28 00:00:00,18,1021.9,0.1,88,16,8000,14.816,,,120,,,,,,,,,,,wg-a,,,,AAXX 28004 07661 32/58 41208 10180 20160 30059 40219 50001 80002 90000=
07661,1999-05-28 06:00:00,19,1022.8,0.6,78,15,8000,18.52,,,70,16,18.7,,,,,,,,,wg-a,,,,AAXX 28064 07661 12558 60710 10190 20150 30068 40228 53006 60004 82252 90600 333 10187 20160=
07661,1999-05-28 12:00:00,18,1022.8,0.6,83,15,8000,18.52,,,70,16,18.7,,,,,,,,,wg-a,,,,AAXX 28124 07661 12558 60710 10180 20150 40228 53006 60004 82252 91200 333 10187 20160=
07661,1999-05-28 18:00:00,20,1021.3,-0.5,78,16,10000,18.52,,,110,18.4,24.4,,,,,,,,,wg-a,,,,AAXX 28184 07661 32860 21110 10200 20160 30054 40213 56005 82072 91800 333 10244 20184=
07661,1999-05-29 00:00:00,19,1021.6,-0,68,13,20000,22.224,,,80,,,,,,,,,,,wg-a,,,,AAXX 29004 07661 32870 60812 10190 20130 30056 40216 54000 84071 90000=
07661,1999-05-29 06:00:00,20,1020.8,0.1,60,12,10000,29.632,,,80,18,20.3,,,,,,,,,wg-a,,,,AAXX 29064 07661 12860 30816 10200 20120 30049 40208 53001 60004 83031 90600 333 10203 20180=
07661,1999-05-29 12:00:00,22,1021.3,0.1,65,15,20000,29.632,,61.116,100,,,,,,,,,,,wg-a,,,,AAXX 29124 07661 32870 31016 10220 20150 30055 40213 50001 83071 91200 333 91033=
07661,1999-05-29 18:00:00,22,1019.1,-0.8,57,13,20000,29.632,,50.004,70,20.2,22.5,,,,,,,,,wg-a,,,,AAXX 29184 07661 32870 70716 10220 20130 30033 40191 56008 86072 91800 333 10225 20202 91027=
07661,1999-05-30 00:00:00,19,1018.8,-1,56,10,25000,29.632,,,80,,,,,,,,,,,wg-a,,,,AAXX 30004 07661 32875 40816 10190 20100 30028 40188 58010 84031 90000=
07661,1999-05-30 06:00:00,20,1018.2,0.3,64,13,20000,29.632,,,70,17.9,22.4,,,,,,,,,wg-a,,,,AAXX 30064 07661 12870 30716 10200 20130 30023 40182 50003 60004 83030 90600 333 10224 20179=
07661,1999-05-30 12:00:00,21,1018.7,0.1,73,16,20000,38.892,,57.412,120,,,,,,,,,,,wg-a,,,,AAXX 30124 07661 32470 71221 10210 20160 30029 40187 53001 83670 91200 333 91031=
07661,1999-05-30 18:00:00,20,1018.1,-0.1,78,16,20000,25.928,,,130,19.7,23.4,,,,,,,,,wg-a,,,,AAXX 30184 07661 32870 61314 10200 20160 30023 40181 55001 8/070 91800 333 10234 20197=
07661,1999-05-31 00:00:00,18,1018.5,-1.1,68,12,15000,29.632,,,90,,,,,,,,,,,wg-a,,,,AAXX 31004 07661 32/65 30916 10180 20120 30025 40185 58011 80002 90000=
07661,1999-05-31 06:00:00,18,1019.4,-0,68,12,16000,22.224,,,90,17.2,20.7,,,,,,,,,wg-a,,,,AAXX 31064 07661 12866 80912 10180 20120 30034 40194 55000 60004 88070 90600 333 10207 20172=
07661,1999-05-31 12:00:00,23,1020.5,1.4,65,16,16000,14.816,,,150,,,,,,,,,,,wg-a,,,,AAXX 31124 07661 32866 71508 10230 20160 30047 40205 53014 85078 91200=
07661,1999-05-31 18:00:00,21,1017.9,-2,78,17,10000,22.224,,,90,18,23.8,,,,,,,,,wg-a,,,,AAXX 31184 07661 32/60 80912 10210 20170 30021 40179 58020 8807/ 91800 333 10238 20180=
07661,1999-06-01 00:00:00,19,1019.1,-0.8,88,17,15000,7.408,,,90,,,,,,,,,,,wg-a,,,,AAXX 01004 07661 32/65 20904 10190 20170 30032 40191 55008 82030 90000=
07661,1999-06-01 06:00:00,19,1,,83,16,9000,14.816,,,90,,,,,,,,,,,wg-a,,,,AAXX 01064 07661 32/59 30908 10190 20160 90600=
07661,1999-06-01 12:00:00,24,1019.3,0,65,17,20000,22.224,,,110,,,,,,,,,,,wg-a,,,,AAXX 01124 07661 32/70 31112 10240 20170 30036 40193 50000 80001 91200=
07661,1999-06-01 18:00:00,22,1017,-1,69,16,15000,22.224,,,120,19.4,23.9,,,,,,,,,wg-a,,,,AAXX 01184 07661 32865 41212 10220 20160 30013 40170 58010 84070 91800 333 10239 20194=
07661,1999-06-02 00:00:00,21,1018.4,0.4,60,13,20000,22.224,,,90,,,,,,,,,,,wg-a,,,,AAXX 02004 07661 32/70 20912 10210 20130 30026 40184 51004 80002 90000=
07661,1999-06-02 06:00:00,19,1017.6,0.9,73,14,15000,18.52,,,80,18.6,22.3,,,,,,,,,wg-a,,,,AAXX 02064 07661 12865 60810 10190 20140 30017 40176 51009 60004 86030 90600 333 10223 20186=
07661,1999-06-02 12:00:00,21,1017.4,-0.4,78,17,20000,22.224,,50.004,100,,,,,,,,,,,wg-a,,,,AAXX 02124 07661 32/70 81012 10210 20170 30016 40174 55004 86620 91200 333 91027=
07661,1999-06-02 18:00:00,22,1016.1,-1.2,83,19,8000,14.816,,,200,19.4,24.2,,,,,,,,,wg-a,,,,AAXX 02184 07661 32658 22008 10220 20190 30004 40161 56012 82200 91800 333 10242 20194=
07661,1999-06-03 00:00:00,19,1016.9,-0.1,88,17,10000,14.816,,,280,,,,,,,,,,,wg-a,,,,AAXX 03004 07661 32/60 02808 10190 20170 30010 40169 56001 80000 90000=
07661,1999-06-03 06:00:00,21,1016.7,1.1,60,13,12000,18.52,,,300,18.5,22,,,,,,,,,wg-a,,,,AAXX 03064 07661 12/62 03010 10210 20130 30009 40167 53011 60004 80000 90600 333 10220 20185=
07661,1999-06-03 12:00:00,28,1016.1,-0.5,32,10,500,22.224,,,230,,,,,,,,,,,wg-a,,,,AAXX 03124 07661 32/00 22312 10280 20100 30006 40161 58005 82041 91200=
07661,1999-06-03 18:00:00,23,1014.7,-1.1,57,14,40000,14.816,,,220,21.4,28,,,,,,,,,wg-a,,,,AAXX 03184 07661 32/82 22208 10230 20140 39990 40147 56011 80002 91800 333 10280 20214=
07661,1999-06-04 00:00:00,20,1014.8,0.3,64,13,15000,31.484,,,310,,,,,,,,,,,wg-a,,,,AAXX 04004 07661 32/65 23117 10200 20130 39990 40148 53003 80001 90000=
07661,1999-06-04 06:00:00,18,1014.8,0.8,49,7,40000,42.596,,,300,17.8,22.5,,,,,,,,,wg-a,,,,AAXX 04064 07661 12882 43023 10180 20070 39989 40148 51008 60004 83032 90600 333 10225 20178=
07661,1999-06-04 12:00:00,21,1013.8,-1.2,53,11,40000,50.004,,79.636,290,,,,,,,,,,,wg-a,,,,AAXX 04124 07661 32/82 32927 10210 20110 39980 40138 58012 80009 91200 333 91043=
07661,1999-06-04 18:00:00,21,1011.3,-1.6,56,12,40000,53.708,,94.452,290,18.4,23.1,,,,,,,,,wg-a,,,,AAXX 04184 07661 32682 12929 10210 20120 39956 40113 56016 81100 91800 333 10231 20184 91051=
07661,1999-06-05 00:00:00,20,1012.6,0.5,49,9,35000,29.632,,79.636,290,,,,,,,,,,,wg-a,,,,AAXX 05004 07661 32/81 02916 10200 20090 39968 40126 50005 80000 90000 333 91043=
07661,1999-06-05 06:00:00,19,1013.4,0.8,73,14,25000,25.928,,,300,17.3,21.4,,,,,,,,,wg-a,,,,AAXX 05064 07661 12475 13014 10190 20140 39975 40134 52008 60004 81300 90600 333 10214 20173=
07661,1999-06-05 12:00:00,22,1013.1,-0.1,69,16,20000,22.224,,,220,,,,,,,,,,,wg-a,,,,AAXX 05124 07661 32470 22212 10220 20160 39974 40131 58001 81401 91200=
07661,1999-06-05 18:00:00,20,1012.2,-0.3,73,15,20000,7.408,,,190,18.7,22.5,,,,,,,,,wg-a,,,,AAXX 05184 07661 32470 21904 10200 20150 39964 40122 56003 81401 91800 333 10225 20187=
07661,1999-06-06 00:00:00,16,1012.7,0.2,100,16,15000,11.112,,,90,,,,,,,,,,,wg-a,,,,AAXX 06004 07661 32/65 00906 10160 20160 39967 40127 53002 80000 90000=
07661,1999-06-06 06:00:00,17,1011.6,-0.1,88,15,15000,11.112,,,80,14.9,20.2,,,,,,,,,wg-a,,,,AAXX 06064 07661 12565 50806 10170 20150 39957 40116 55001 60004 85800 90600 333 10202 20149=
07661,1999-06-06 12:00:00,22,1012.5,0.5,69,16,15000,11.112,,,220,,,,,,,,,,,wg-a,,,,AAXX 06124 07661 32665 62206 10220 20160 39968 40125 50005 82530 91200=
07661,1999-06-06 18:00:00,22,1012.1,0.4,60,14,18000,7.408,,,230,16.9,23.7,,,,,,,,,wg-a,,,,AAXX 06184 07661 32668 32304 10220 20140 39964 40121 53004 82202 91800 333 10237 20169=
07661,1999-06-07 00:00:00,18,1013.8,0.8,77,14,15000,3.704,,,220,,,,,,,,,,,wg-a,,,,AAXX 07004 07661 32/65 02202 10180 20140 39979 40138 53008 80000 90000=
07661,1999-06-07 06:00:00,18,1014.3,0.2,77,14,20000,14.816,,,70,16.1,21.9,,,,,,,,,wg-a,,,,AAXX 07064 07661 12570 30708 10180 20140 39984 40143 53002 60004 81130 90600 333 10219 20161=
07661,1999-06-07 12:00:00,23,1015.7,0.6,69,17,12000,14.816,,,190,,,,,,,,,,,wg-a,,,,AAXX 07124 07661 32362 71908 10230 20170 30000 40157 53006 81652 91200=
07661,1999-06-07 18:00:00,20,1015.6,0.5,73,15,15000,11.112,,,300,18.2,23.1,,,,,,,,,wg-a,,,,AAXX 07184 07661 32465 73006 10200 20150 39998 40156 51005 83652 91800 333 10231 20182=
07661,1999-06-08 00:00:00,18,1016.9,0.4,68,12,20000,3.704,,,330,,,,,,,,,,,wg-a,,,,AAXX 08004 07661 32/70 03302 10180 20120 30009 40169 53004 80000 90000=
07661,1999-06-08 06:00:00,19,1017.9,1,60,11,40000,22.224,,,290,17.6,20.7,,,,,,,,,wg-a,,,,AAXX 08064 07661 12/82 12912 10190 20110 30019 40179 53010 60004 80001 90600 333 10207 20176=
07661,1999-06-08 12:00:00,22,1017.9,-0.4,41,8,500,50.004,,83.34,290,,,,,,,,,,,wg-a,,,,AAXX 08124 07661 32500 22927 10220 20080 30021 40179 58004 81104 91200 333 91045=
07661,1999-06-09 00:00:00,17,1019.7,0.2,55,8,500,22.224,,79.636,300,,,,,,,,,,,wg-a,,,,AAXX 09004 07661 32/00 03012 10170 20080 30036 40197 50002 80000 90000 333 91043=
07661,1999-06-09 12:00:00,23,1021,0.5,61,15,25000,7.408,,,210,,,,,,,,,,,wg-a,,,,AAXX 09124 07661 32475 12104 10230 20150 30052 40210 50005 81100 91200=
07661,1999-06-09 18:00:00,20,1020.5,0.2,68,14,0,14.816,,,230,18.3,24.5,,,,,,,,,wg-a,,,,AAXX 09184 07661 32/// /2308 10200 20140 30046 40205 53002 91800 333 10245 20183=
07661,1999-06-10 00:00:00,18,1019,-2.9,73,13,15000,11.112,,,100,,,,,,,,,,,wg-a,,,,AAXX 10004 07661 32/65 21006 10180 20130 30030 40190 58029 82030 90000=
07661,1999-06-10 06:00:00,18,1020.2,-0,73,13,18000,14.816,,57.412,300,17.2,20.1,,1,,,1,,,21,wg-a,,,,AAXX 10064 07661 02568 63008 10180 20130 30042 40202 55000 60014 72162 86700 90600 333 10201 20172 60017 91031=
07661,1999-06-10 12:00:00,17,1019.5,-0.6,88,15,15000,14.816,,,330,,,,1,,,,,,21,wg-a,,,,AAXX 10124 07661 12565 83308 10170 20150 30035 40195 58006 60017 72162 88700 91200=
07661,1999-06-10 18:00:00,23,1017.5,-0.8,53,13,25000,7.408,,,300,16.5,23.5,,,,,,,,,wg-a,,,,AAXX 10184 07661 32575 33004 10230 20130 30018 40175 56008 83400 91800 333 10235 20165=
07661,1999-06-11 00:00:00,18,1016.8,-1.3,73,13,20000,11.112,,,310,,,,,,,,,,,wg-a,,,,AAXX 11004 07661 32/70 03106 10180 20130 30008 40168 58013 80000 90000=
07661,1999-06-11 06:00:00,18,1016.1,0.2,64,11,0,18.52,,,310,16.4,23.1,,,,,,,,,wg-a,,,,AAXX 11064 07661 32/// /3110 10180 20110 30001 40161 53002 90600 333 10231 20164=
07661,1999-06-11 12:00:00,24,1015.1,-0.7,38,9,25000,42.596,,64.82,290,,,,,,,,,,,wg-a,,,,AAXX 11124 07661 32575 22923 10240 20090 39994 40151 58007 82100 91200 333 91035=
07661,1999-06-12 06:00:00,18,1017.5,0.9,64,11,25000,18.52,,,290,16.7,25,,,,,,,,,wg-a,,,,AAXX 12064 07661 12/75 02910 10180 20110 30015 40175 53009 60004 80000 90600 333 10250 20167=
07661,1999-06-12 12:00:00,24,1017.6,0.1,44,11,20000,42.596,,64.82,290,,,,,,,,,,,wg-a,,,,AAXX 12124 07661 32570 12923 10240 20110 30019 40176 51001 81100 91200 333 91035=
07661,1999-06-12 18:00:00,20,1016.8,-0.3,56,11,20000,38.892,,72.228,280,18,24,,,,,,,,,wg-a,,,,AAXX 12184 07661 32570 12821 10200 20110 30009 40168 55003 81100 91800 333 10240 20180 91039=
07661,1999-06-13 00:00:00,19,1017.9,-0.2,60,11,20000,29.632,,72.228,300,,,,,,,,,,,wg-a,,,,AAXX 13004 07661 32/70 03016 10190 20110 30020 40179 58002 80000 90000 333 91039=
07661,1999-06-13 06:00:00,20,1017,0.1,68,14,20000,11.112,,,290,18.9,20.2,,,,,,,,,wg-a,,,,AAXX 13064 07661 12/70 32906 10200 20140 30011 40170 53001 60004 80002 90600 333 10202 20189=
07661,1999-06-13 12:00:00,22,1016.6,-0.5,57,13,15000,38.892,,57.412,280,,,,,,,,,,,wg-a,,,,AAXX 13124 07661 32/65 62821 10220 20130 30009 40166 58005 80006 91200 333 91031=
07661,1999-06-13 18:00:00,21,1015.1,-1,69,15,15000,46.3,,68.524,290,19.9,26.5,,,,,,,,,wg-a,,,,AAXX 13184 07661 32/65 62925 10210 20150 39993 40151 56010 82066 91800 333 10265 20199 91037=
07661,1999-06-14 00:00:00,21,1014.7,-0.9,53,11,20000,14.816,,,290,,,,,,,,,,,wg-a,,,,AAXX 14004 07661 32/70 02908 10210 20110 39989 40147 58009 80000 90000=
07661,1999-06-14 06:00:00,19,1015,0.5,60,11,18000,22.224,,,300,17.3,21.4,,,,,,,,,wg-a,,,,AAXX 14064 07661 12568 33012 10190 20110 39991 40150 53005 60004 81130 90600 333 10214 20173=
07661,1999-06-14 12:00:00,21,1015.4,0.4,46,9,18000,35.188,,,300,,,,,,,,,,,wg-a,,,,AAXX 14124 07661 32/68 63019 10210 20090 39996 40154 52004 86070 91200=
07661,1999-06-14 18:00:00,22,1014.8,0.1,33,5,500,38.892,,72.228,310,18.7,23.9,,,,,,,,,wg-a,,,,AAXX 14184 07661 32500 43121 10220 20050 39990 40148 53001 82302 91800 333 10239 20187 91039=
07661,1999-06-15 00:00:00,18,1016.3,0.3,56,9,25000,18.52,,,300,,,,,,,,,,,wg-a,,,,AAXX 15004 07661 32575 43010 10180 20090 30003 40163 50003 8233/ 90000=
07661,1999-06-15 06:00:00,17,1017.4,1,59,9,25000,14.816,,,300,15.3,22,,,,,,,,,wg-a,,,,AAXX 15064 07661 12575 43008 10170 20090 30014 40174 51010 60004 82231 90600 333 10220 20153=
07661,1999-06-15 12:00:00,22,1018.2,0.6,46,10,500,11.112,,,220,,,,,,,,,,,wg-a,,,,AAXX 15124 07661 32500 52206 10220 20100 30024 40182 53006 82170 91200=
07661,1999-06-15 18:00:00,20,1018.1,-1,56,11,500,11.112,,,250,17.5,24.1,,,,,,,,21,wg-a,,,,AAXX 15184 07661 02500 62506 10200 20110 30022 40181 56010 61000 72162 84962 91800 333 10241 20175 ////=
07661,1999-06-16 00:00:00,17,1018.1,-0.4,77,13,0,18.52,,,80,,,,,,,,,,,wg-a,,,,AAXX 16004 07661 32/// /0810 10170 20130 30020 40181 58004 90000=
07661,1999-06-16 06:00:00,18,1019,0.8,68,12,20000,14.816,,,90,15.6,20.1,,,,,,,,,wg-a,,,,AAXX 16064 07661 12/70 20908 10180 20120 30030 40190 52008 60004 80002 90600 333 10201 20156=
07661,1999-06-16 12:00:00,25,1019.9,0.4,39,10,25000,14.816,,,210,,,,,,,,,,,wg-a,,,,AAXX 16124 07661 32575 22108 10250 20100 30042 40199 50004 82200 91200=
07661,1999-06-16 18:00:00,23,1018.3,-0.8,53,13,25000,14.816,,,240,18,25.4,,,,,,,,,wg-a,,,,AAXX 16184 07661 32/75 22408 10230 20130 30026 40183 56008 80002 91800 333 10254 20180=
07661,1999-06-17 06:00:00,19,1017.2,0.1,83,16,15000,0,,,0,16.9,22.8,,,,,,,,,wg-a,,,,AAXX 17064 07661 12/65 30000 10190 20160 30013 40172 53001 60004 80001 90600 333 10228 20169=
07661,1999-06-17 12:00:00,28,1015.8,-1.2,37,12,12000,31.484,,53.708,280,,,,,,,,,,,wg-a,,,,AAXX 17124 07661 32562 32817 10280 20120 30003 40158 58012 81201 91200 333 91029=
07661,1999-06-17 18:00:00,22,1013.9,-1.2,65,15,18000,42.596,,68.524,290,19.3,27.7,,,,,,,,,wg-a,,,,AAXX 17184 07661 32568 52923 10220 20150 39982 40139 58012 81962 91800 333 10277 20193 91037=
07661,1999-06-18 00:00:00,19,1014.4,-0.1,83,16,20000,14.816,,,80,,,,,,,,,,,wg-a,,,,AAXX 18004 07661 32/70 00808 10190 20160 39986 40144 58001 80000 90000=
07661,1999-06-18 06:00:00,20,1014.5,0.4,64,13,18000,14.816,,,320,17.8,21.7,,,,,,,,,wg-a,,,,AAXX 18064 07661 12/68 03208 10200 20130 39986 40145 52004 60004 80000 90600 333 10217 20178=
07661,1999-06-18 12:00:00,27,1013.1,-0.9,48,15,15000,11.112,,,220,,,,,,,,,,,wg-a,,,,AAXX 18124 07661 32465 32206 10270 20150 39977 40131 58009 82202 91200=
07661,1999-06-18 18:00:00,28,1010,-1.4,32,10,18000,29.632,,,300,19.5,29.7,,,,,,,,,wg-a,,,,AAXX 18184 07661 32/68 43016 10280 20100 39946 40100 56014 80002 91800 333 10297 20195=
07661,1999-06-19 00:00:00,21,1011.4,0.2,49,10,15000,18.52,,,300,,,,,,,,,,,wg-a,,,,AAXX 19004 07661 32/65 03010 10210 20100 39956 40114 53002 80000 90000=
07661,1999-06-19 06:00:00,19,1012.9,1.1,60,11,18000,11.112,,,310,18.1,28,,,,,,,,,wg-a,,,,AAXX 19064 07661 12568 23106 10190 20110 39970 40129 53011 60004 81102 90600 333 10280 20181=
07661,1999-06-19 12:00:00,24,1014.6,0.7,61,16,10000,11.112,,,210,,,,,,,,,,,wg-a,,,,AAXX 19124 07661 32560 62106 10240 20160 39990 40146 51007 85580 91200=
07661,1999-06-19 18:00:00,22,1013.9,-1,73,17,10000,14.816,,,150,19.1,25.2,,,,,,,,,wg-a,,,,AAXX 19184 07661 32/60 31508 10220 20170 39982 40139 56010 8307/ 91800 333 10252 20191=
07661,1999-06-20 00:00:00,18,1015.4,0.2,88,16,15000,11.112,,,80,,,,,,,,,,,wg-a,,,,AAXX 20004 07661 32865 20806 10180 20160 39995 40154 52002 82030 90000=
07661,1999-06-20 06:00:00,20,1015.7,0.5,73,15,10000,3.704,,,230,17.9,21.7,,,,,,,,,wg-a,,,,AAXX 20064 07661 12460 62302 10200 20150 39999 40157 52005 60004 86600 90600 333 10217 20179=
07661,1999-06-20 12:00:00,26,1013.3,-1.9,42,12,20000,18.52,,,210,,,,,,,,,,,wg-a,,,,AAXX 20124 07661 32/70 42110 10260 20120 39978 40133 58019 83046 91200=
07661,1999-06-20 18:00:00,21,1012.4,0.1,69,15,20000,18.52,,,100,19.9,26.5,,,,,,,,,wg-a,,,,AAXX 20184 07661 32/70 41010 10210 20150 39967 40124 53001 83046 91800 333 10265 20199=
07661,1999-06-21 00:00:00,18,1012.6,-1.1,83,15,20000,3.704,,,70,,,,,,,,,,,wg-a,,,,AAXX 21004 07661 32/70 00702 10180 20150 39967 40126 58011 80000 90000=
07661,1999-06-21 06:00:00,20,1011,0.3,56,11,20000,35.188,,72.228,300,18,21.3,,,,,,,,,wg-a,,,,AAXX 21064 07661 12870 33019 10200 20110 39952 40110 53003 60004 83040 90600 333 10213 20180 91039=
07661,1999-06-21 12:00:00,22,1008.5,-1.5,57,13,20000,61.116,,96.304,280,,,,,,,,,,,wg-a,,,,AAXX 21124 07661 32670 22833 10220 20130 39929 40085 58015 82208 91200 333 91052=
07661,1999-06-21 18:00:00,23,1007.3,-0.4,20,-1,25000,64.82,,114.824,320,20.2,26.5,,,,,,,,,wg-a,,,,AAXX 21184 07661 32675 23235 10230 21010 39917 40073 55004 82302 91800 333 10265 20202 91062=
07661,1999-06-22 00:00:00,17,1012.8,3.1,39,3,25000,42.596,,111.12,300,,,,,,,,,,,wg-a,,,,AAXX 22004 07661 32/75 03023 10170 20030 39968 40128 51031 80000 90000 333 91060=
07661,1999-06-22 06:00:00,17,1012.4,0.6,39,3,500,38.892,,87.044,320,14.9,22.8,,,,,,,,,wg-a,,,,AAXX 22064 07661 12/00 03221 10170 20030 39964 40124 53006 60004 80000 90600 333 10228 20149 91047=
07661,1999-06-22 12:00:00,25,1012.7,0,22,2,500,29.632,,61.116,290,,,,,,,,,,,wg-a,,,,AAXX 22124 07661 32/00 02916 10250 20020 39971 40127 50000 80000 91200 333 91033=
07661,1999-06-22 18:00:00,24,1012.1,0.5,31,6,500,25.928,,61.116,290,16.5,26.6,,,,,,,,,wg-a,,,,AAXX 22184 07661 32/00 12914 10240 20060 39965 40121 53005 80005 91800 333 10266 20165 91033=
07661,1999-06-23 00:00:00,18,1015.4,1,56,9,25000,25.928,,,70,,,,,,,,,,,wg-a,,,,AAXX 23004 07661 32/75 00714 10180 20090 39994 40154 51010 80000 90000=
07661,1999-06-23 06:00:00,18,1016.5,0.8,68,12,500,22.224,,,70,15,24.4,,,,,,,,,wg-a,,,,AAXX 23064 07661 12500 10712 10180 20120 30005 40165 51008 60004 81100 90600 333 10244 20150=
07661,1999-06-23 12:00:00,22,1017.4,0.4,60,14,500,18.52,,,110,,,,,,,,,,,wg-a,,,,AAXX 23124 07661 32500 11110 10220 20140 30016 40174 51004 81101 91200=
07661,1999-06-23 18:00:00,19,1018,0.4,78,15,500,14.816,,50.004,90,18.2,21.9,,,,,,,,,wg-a,,,,AAXX 23184 07661 32500 10908 10190 20150 30021 40180 53004 81101 91800 333 10219 20182 91027=
07661,1999-06-24 00:00:00,18,1019.5,0.4,59,10,500,7.408,,,290,,,,,,,,,,,wg-a,,,,AAXX 24004 07661 32800 42904 10180 20100 30035 40195 53004 82032 90000=
07661,1999-06-24 06:00:00,20,1019.2,0.2,43,7,500,7.408,,,60,16.6,19.8,,,,,,,,,wg-a,,,,AAXX 24064 07661 12/00 00604 10200 20070 30033 40192 52002 60004 80000 90600 333 10198 20166=
07661,1999-06-24 12:00:00,24,1020,0.6,61,16,500,14.816,,,210,,,,,,,,,,,wg-a,,,,AAXX 24124 07661 32/00 02108 10240 20160 30043 40200 52006 80000 91200=
07661,1999-06-24 18:00:00,24,1018.7,-0.9,36,8,500,3.704,,,210,19.8,24.7,,,,,,,,,wg-a,,,,AAXX 24184 07661 32/00 02102 10240 20080 30030 40187 56009 80000 91800 333 10247 20198=
07661,1999-06-25 00:00:00,19,1019.6,-0.3,43,6,25000,3.704,,,20,,,,,,,,,,,wg-a,,,,AAXX 25004 07661 32875 20202 10190 20060 30036 40196 58003 82060 90000=
07661,1999-06-25 06:00:00,20,1019.4,0.4,43,7,500,11.112,,,80,17,23.8,,,,,,,,,wg-a,,,,AAXX 25064 07661 12/00 20806 10200 20070 30035 40194 53004 60004 80001 90600 333 10238 20170=
07661,1999-06-25 12:00:00,25,1019.1,-0.3,47,13,25000,11.112,,,160,,,,,,,,,,,wg-a,,,,AAXX 25124 07661 32/75 11606 10250 20130 30034 40191 58003 80001 91200=
07661,1999-06-25 18:00:00,22,1017.6,-0.8,78,18,20000,0,,,0,19.7,25.7,,,,,,,,,wg-a,,,,AAXX 25184 07661 32470 40000 10220 20180 30019 40176 55008 81673 91800 333 10257 20197=
07661,1999-06-26 06:00:00,19,1015.2,-0.4,60,11,20000,7.408,,,90,17.7,22.3,,,,,,,,,wg-a,,,,AAXX 26064 07661 12570 50904 10190 20110 39993 40152 58004 60004 81106 90600 333 10223 20177=
07661,1999-06-26 18:00:00,21,1013.3,-1.1,78,17,20000,7.408,,,160,18.7,24.2,,,,,,,,,wg-a,,,,AAXX 26184 07661 32470 61604 10210 20170 39976 40133 56011 82162 91800 333 10242 20187=
07661,1999-06-27 00:00:00,18,1012.4,-1.3,94,17,20000,22.224,,,90,,,,,,,,,,,wg-a,,,,AAXX 27004 07661 32/70 30912 10180 20170 39965 40124 56013 83080 90000=
07661,1999-06-27 06:00:00,20,1011.5,-0.3,60,12,25000,14.816,,,90,16.1,20.8,,,,,,,,,wg-a,,,,AAXX 27064 07661 12575 30908 10200 20120 39957 40115 56003 60004 81232 90600 333 10208 20161=
07661,1999-06-27 12:00:00,24,1011.1,-0.6,69,18,20000,22.224,,,140,,,,,,,,,,,wg-a,,,,AAXX 27124 07661 32570 21412 10240 20180 39956 40111 58006 81701 91200=
07661,1999-06-27 18:00:00,21,1010.8,0.2,83,18,0,11.112,,,160,19.7,24.5,,,,,,,,,wg-a,,,,AAXX 27184 07661 32/// /1606 10210 20180 39951 40108 53002 91800 333 10245 20197=
07661,1999-06-28 00:00:00,20,1012.7,0.6,60,12,20000,11.112,,,290,,,,,,,,,,,wg-a,,,,AAXX 28004 07661 32/70 22906 10200 20120 39969 40127 51006 82030 90000=
07661,1999-06-28 06:00:00,21,1014.2,1.3,43,8,500,35.188,,,310,19.2,21.6,,,,,,,,,wg-a,,,,AAXX 28064 07661 12600 23119 10210 20080 39984 40142 53013 60004 82400 90600 333 10216 20192=
07661,1999-06-28 12:00:00,24,1015.5,-0.2,38,9,500,38.892,,68.524,280,,,,,,,,,,,wg-a,,,,AAXX 28124 07661 32/00 02821 10240 20090 39998 40155 58002 80000 91200 333 91037=
07661,1999-06-28 18:00:00,21,1015.9,0.4,56,12,500,50.004,,83.34,290,20.6,23.7,,,,,,,,,wg-a,,,,AAXX 28184 07661 32/00 02927 10210 20120 30001 40159 53004 80000 91800 333 10237 20206 91045=
07661,1999-06-29 00:00:00,19,1018.6,0.5,68,13,25000,29.632,,72.228,300,,,,,,,,,,,wg-a,,,,AAXX 29004 07661 32/75 03016 10190 20130 30027 40186 51005 80000 90000 333 91039=
07661,1999-06-29 06:00:00,18,1019.8,0,68,12,25000,11.112,,,80,17.4,21.3,,,,,,,,,wg-a,,,,AAXX 29064 07661 12575 70806 10180 20120 30038 40198 50000 60004 8553/ 90600 333 10213 20174=
07661,1999-06-29 12:00:00,22,1021.5,1,73,17,15000,11.112,,,270,,,,,,,,,,,wg-a,,,,AAXX 29124 07661 32565 82706 10220 20170 30057 40215 53010 8342/ 91200=
07661,1999-06-29 18:00:00,23,1019.2,-0.6,61,15,20000,25.928,,,290,17.7,26.4,,,,,,,,,wg-a,,,,AAXX 29184 07661 32/70 12914 10230 20150 30035 40192 56006 80004 91800 333 10264 20177=
07661,1999-06-30 00:00:00,20,1019.6,-0.9,64,13,20000,29.632,,,280,,,,,,,,,,,wg-a,,,,AAXX 30004 07661 32/70 02816 10200 20130 30037 40196 58009 80000 90000=
07661,1999-06-30 06:00:00,22,1019,0.3,65,15,18000,29.632,,,290,19.7,22.8,,,,,,,,,wg-a,,,,AAXX 30064 07661 12/68 12916 10220 20150 30032 40190 51003 60004 80008 90600 333 10228 20197=
07661,1999-06-30 12:00:00,25,1016.9,-1.6,54,15,15000,57.412,,83.34,290,,,,,,,,,,,wg-a,,,,AAXX 30124 07661 32/65 02931 10250 20150 30013 40169 58016 80000 91200 333 91045=
07661,1999-06-30 18:00:00,23,1015.8,-0.6,61,15,15000,50.004,,90.748,290,22,26.2,,,,,,,,,wg-a,,,,AAXX 30184 07661 32/65 12927 10230 20150 30001 40158 55006 80001 91800 333 10262 20220 91049=
07661,1999-07-01 00:00:00,23,1016.2,-0.1,41,9,20000,18.52,,68.524,260,,,,,,,,,,,wg-a,,,,AAXX 01004 07661 32/70 02610 10230 20090 30005 40162 58001 80000 90000 333 91037=
07661,1999-07-01 06:00:00,23,1016.6,0.7,47,11,500,3.704,,,120,20.2,25.6,,,,,,,,,wg-a,,,,AAXX 01064 07661 12/00 01202 10230 20110 30009 40166 53007 60004 80000 90600 333 10256 20202=
07661,1999-07-01 12:00:00,29,1017.3,0.5,33,11,500,14.816,,,220,,,,,,,,,,,wg-a,,,,AAXX 01124 07661 32500 12208 10290 20110 30019 40173 51005 81100 91200=
07661,1999-07-01 18:00:00,26,1016,-0.9,45,13,0,22.224,,,290,23.1,30.5,,,,,,,,,wg-a,,,,AAXX 01184 07661 32/// /2912 10260 20130 30004 40160 56009 91800 333 10305 20231=
07661,1999-07-02 00:00:00,21,1016.3,-0.1,69,15,0,22.224,,,290,,,,,,,,,,,wg-a,,,,AAXX 02004 07661 32/// /2912 10210 20150 30005 40163 56001 90000=
07661,1999-07-02 06:00:00,22,1016.1,0.4,53,12,10000,14.816,,,80,20,25.6,,,,,,,,,wg-a,,,,AAXX 02064 07661 12/60 10808 10220 20120 30003 40161 51004 60004 80005 90600 333 10256 20200=
07661,1999-07-02 12:00:00,25,1016.7,0.3,74,20,3000,22.224,,,210,,,,,,,,,,10,wg-a,,,,AAXX 02124 07661 32230 62112 10250 20200 30011 40167 50003 71011 86600 91200=
07661,1999-07-02 18:00:00,23,1015.1,-0.2,83,20,8000,14.816,,,220,21.9,27.2,,,,,,,,,wg-a,,,,AAXX 02184 07661 32458 22208 10230 20200 39995 40151 56002 81330 91800 333 10272 20219=
07661,1999-07-03 00:00:00,22,1015.5,-0.4,60,14,10000,7.408,,,300,,,,,,,,,,,wg-a,,,,AAXX 03004 07661 32/60 03004 10220 20140 39998 40155 58004 80000 90000=
07661,1999-07-03 06:00:00,21,1015.3,0.6,69,15,800,11.112,,,80,19.4,23.2,,,,,,,,,wg-a,,,,AAXX 03064 07661 12808 10806 10210 20150 39995 40153 53006 60004 81010 90600 333 10232 20194=
07661,1999-07-03 12:00:00,21,1,0.6,69,15,800,11.112,,,80,19.4,23.2,,,,,,,,,wg-a,,,,AAXX 03124 07661 12808 10806 10210 20150 39995 53006 60004 81/10 91200 333 10232 20194=
07661,1999-07-03 18:00:00,24,1013.4,-1,65,17,18000,14.816,,,120,21.1,26.1,,,,,,,,,wg-a,,,,AAXX 03184 07661 32/68 11208 10240 20170 39978 40134 58010 81030 91800 333 10261 20211=
07661,1999-07-04 00:00:00,20,1013.9,-0.5,73,15,18000,22.224,,,80,,,,,,,,,,,wg-a,,,,AAXX 04004 07661 32/68 00812 10200 20150 39981 40139 58005 80000 90000=
07661,1999-07-04 06:00:00,23,1012.6,-0.1,61,15,18000,29.632,,,80,19.7,23.9,,,,,,,,,wg-a,,,,AAXX 04064 07661 12/68 10816 10230 20150 39969 40126 58001 60004 80001 90600 333 10239 20197=
07661,1999-07-04 12:00:00,25,1011.8,-0.4,74,20,15000,29.632,,53.708,90,,,,,,,,,,,wg-a,,,,AAXX 04124 07661 32/65 00916 10250 20200 39963 40118 58004 80000 91200 333 91029=
07661,1999-07-04 18:00:00,25,1010.3,-1.1,65,18,0,25.928,,,90,22.5,27.1,,,,,,,,,wg-a,,,,AAXX 04184 07661 32/// /0914 10250 20180 39948 40103 58011 91800 333 10271 20225=
07661,1999-07-05 00:00:00,22,1010.8,-0.1,73,17,18000,25.928,,53.708,80,,,,,,,,,,,wg-a,,,,AAXX 05004 07661 32/68 10814 10220 20170 39952 40108 58001 80001 90000 333 91029=
07661,1999-07-05 06:00:00,23,1010,-0.3,73,18,15000,31.484,,,70,22.1,24.8,,,,,,,,,wg-a,,,,AAXX 05064 07661 12/65 30717 10230 20180 39944 40100 58003 60004 80002 90600 333 10248 20221=
07661,1999-07-05 12:00:00,26,1010.3,0.2,70,20,0,29.632,,,100,,,,,,,,,,,wg-a,,,,AAXX 05124 07661 32/// /1016 10260 20200 39949 40103 51002 91200=
07661,1999-07-05 18:00:00,23,1009,-0.2,89,21,10000,22.224,,61.116,100,23.2,26,,,,,,,,,wg-a,,,,AAXX 05184 07661 32460 21012 10230 20210 39935 40090 55002 82130 91800 333 10260 20232 91033=
07661,1999-07-06 00:00:00,22,1011.4,0.1,88,20,10000,18.52,,,300,,,,,,,,,,,wg-a,,,,AAXX 06004 07661 32/60 03010 10220 20200 39958 40114 53001 80000 90000=
07661,1999-07-06 06:00:00,22,1012.8,1.2,69,16,25000,25.928,,,280,20.3,23.2,,,,,,,,,wg-a,,,,AAXX 06064 07661 12875 32814 10220 20160 39971 40128 53012 60004 83070 90600 333 10232 20203=
07661,1999-07-06 12:00:00,25,1014.5,0.6,50,14,0,38.892,,,290,,,,,,,,,,,wg-a,,,,AAXX 06124 07661 32/// /2921 10250 20140 39989 40145 51006 91200=
07661,1999-07-06 18:00:00,24,1013.5,-0.9,57,15,25000,50.004,,79.636,290,22,26.2,,,,,,,,,wg-a,,,,AAXX 06184 07661 32575 12927 10240 20150 39979 40135 55009 81900 91800 333 10262 20220 91043=
07661,1999-07-07 00:00:00,22,1015,0.2,43,9,25000,46.3,,75.932,310,,,,,,,,,,,wg-a,,,,AAXX 07004 07661 32/75 03125 10220 20090 39993 40150 50002 80000 90000 333 91041=
07661,1999-07-07 12:00:00,29,1015.2,-0.5,35,12,500,25.928,,,270,,,,,,,,,,,wg-a,,,,AAXX 07124 07661 32/00 32714 10290 20120 39998 40152 58005 80002 91200=
07661,1999-07-07 18:00:00,27,1014.2,-0.5,39,12,25000,22.224,,,280,21,30.7,,,,,,,,,wg-a,,,,AAXX 07184 07661 32575 62812 10270 20120 39987 40142 56005 86250 91800 333 10307 20210=
07661,1999-07-08 00:00:00,24,1015.8,-0.3,41,10,25000,7.408,,,70,,,,,,,,,,,wg-a,,,,AAXX 08004 07661 32/75 00704 10240 20100 30001 40158 56003 80000 90000=
07661,1999-07-08 06:00:00,24,1016.3,0.3,47,12,25000,3.704,,,240,21.6,26.6,,,,,,,,,wg-a,,,,AAXX 08064 07661 12875 22402 10240 20120 30006 40163 53003 60004 82030 90600 333 10266 20216=
07661,1999-07-08 12:00:00,28,1016.6,-0.3,37,12,25000,14.816,,,210,,,,,,,,,,,wg-a,,,,AAXX 08124 07661 32675 22108 10280 20120 30011 40166 58003 81230 91200=
07661,1999-07-08 18:00:00,25,1016.4,-0,50,14,20000,31.484,,,60,23.9,28.8,,,,,,,,,wg-a,,,,AAXX 08184 07661 32870 50617 10250 20140 30008 40164 55000 85070 91800 333 10288 20239=
07661,1999-07-09 00:00:00,21,1015,-1.1,53,11,20000,14.816,,72.228,320,,,,,,,,,,1,wg-a,,,,AAXX 09004 07661 32570 33208 10210 20110 39992 40150 58011 70161 81130 90000 333 91039=
07661,1999-07-09 06:00:00,24,1013.5,-0,44,11,40000,7.408,,,80,18.6,25,,,,,1,,,,wg-a,,,,AAXX 09064 07661 12882 10804 10240 20110 39979 40135 55000 60014 81030 90600 333 10250 20186=
07661,1999-07-09 12:00:00,27,1013.6,0.3,48,15,40000,11.112,,,200,,,,,,,,,,,wg-a,,,,AAXX 09124 07661 32582 32006 10270 20150 39981 40136 53003 82903 91200=
07661,1999-07-09 18:00:00,24,1013.2,-0.1,65,17,500,11.112,,,160,23.5,29,,,,,,,,,wg-a,,,,AAXX 09184 07661 32500 31606 10240 20170 39976 40132 58001 81340 91800 333 10290 20235=
07661,1999-07-10 00:00:00,22,1012.3,-1.6,65,15,25000,7.408,,,90,,,,,,,,,,,wg-a,,,,AAXX 10004 07661 32/75 30904 10220 20150 39966 40123 58016 83030 90000=
07661,1999-07-10 06:00:00,21,1012.5,0.7,64,14,20000,11.112,,,80,18.1,23.9,,,,,,,,,wg-a,,,,AAXX 10064 07661 12570 10806 10210 20140 39968 40125 53007 60004 81402 90600 333 10239 20181=
07661,1999-07-10 12:00:00,26,1011.5,-0.3,65,19,500,25.928,,,220,,,,,,,,,,,wg-a,,,,AAXX 10124 07661 32500 32214 10260 20190 39961 40115 58003 82402 91200=
07661,1999-07-10 18:00:00,23,1011.6,0.6,57,14,20000,18.52,,,270,21.2,27.5,,,,,,,,,wg-a,,,,AAXX 10184 07661 32570 32710 10230 20140 39960 40116 53006 82302 91800 333 10275 20212=
07661,1999-07-11 00:00:00,22,1012.9,0.5,57,13,20000,7.408,,,310,,,,,,,,,,,wg-a,,,,AAXX 11004 07661 32/70 33104 10220 20130 39972 40129 51005 83050 90000=
07661,1999-07-11 06:00:00,20,1013.2,0.9,78,16,0,11.112,,,80,19,23.2,,,,,,,,,wg-a,,,,AAXX 11064 07661 32/// /0806 10200 20160 39974 40132 51009 90600 333 10232 20190=
07661,1999-07-11 12:00:00,26,1013.8,0.1,70,20,18000,22.224,,,140,,,,,,,,,,,wg-a,,,,AAXX 11124 07661 32568 51412 10260 20200 39983 40138 53001 8226/ 91200=
07661,1999-07-11 18:00:00,23,1013.8,-0.3,78,19,14000,11.112,,,180,19.9,26.1,,,,,,,,,wg-a,,,,AAXX 11184 07661 32564 61806 10230 20190 39982 40138 58003 82362 91800 333 10261 20199=
07661,1999-07-12 00:00:00,20,1014.6,-0.2,94,19,14000,14.816,,,80,,,,,,,,,,,wg-a,,,,AAXX 12004 07661 32/64 00808 10200 20190 39988 40146 58002 80000 90000=
07661,1999-07-12 06:00:00,20,1014,-0.2,88,18,14000,14.816,,,80,18.6,23.3,,,,,,,,,wg-a,,,,AAXX 12064 07661 12564 30808 10200 20180 39982 40140 58002 60004 82202 90600 333 10233 20186=
07661,1999-07-12 12:00:00,25,1013.1,-0.2,74,20,0,22.224,,,160,,,,,,,,,,,wg-a,,,,AAXX 12124 07661 32/// /1612 10250 20200 39976 40131 58002 91200=
07661,1999-07-12 18:00:00,23,1010.8,-1.6,83,20,15000,22.224,,,100,20.5,26.5,,,,,,,,,wg-a,,,,AAXX 12184 07661 32/65 11012 10230 20200 39952 40108 56016 80001 91800 333 10265 20205=
07661,1999-07-13 00:00:00,22,1010.7,-0.8,65,15,18000,29.632,,,70,,,,,,,,,,,wg-a,,,,AAXX 13004 07661 32/68 00716 10220 20150 39950 40107 58008 80000 90000=
07661,1999-07-13 06:00:00,22,1009.5,-0.1,78,18,15000,22.224,,,60,21.1,23.4,,,,,,,,,wg-a,,,,AAXX 13064 07661 12465 50612 10220 20180 39939 40095 55001 60004 82242 90600 333 10234 20211=
07661,1999-07-13 12:00:00,25,1009,-0.1,79,21,12000,18.52,,,100,,,,,,,,,,,wg-a,,,,AAXX 13124 07661 32362 61010 10250 20210 39936 40090 56001 82360 91200=
07661,1999-07-13 18:00:00,23,1009.8,1,83,20,15000,0,,,0,22.1,26.5,,,,,,,,,wg-a,,,,AAXX 13184 07661 32465 70000 10230 20200 39943 40098 51010 87800 91800 333 10265 20221=
07661,1999-07-14 00:00:00,21,1009.9,-0.1,88,19,15000,14.816,,,290,,,,,,,,,,,wg-a,,,,AAXX 14004 07661 32465 52908 10210 20190 39943 40099 58001 84602 90000=
07661,1999-07-14 06:00:00,22,1009.6,0.7,69,16,0,46.3,,,300,21.2,23.4,,,,,,,,,wg-a,,,,AAXX 14064 07661 12/// /3025 10220 20160 39940 40096 53007 60004 90600 333 10234 20212=
07661,1999-07-14 12:00:00,25,1009.7,0.2,54,15,13000,64.82,,94.452,290,,,,,,,,,,,wg-a,,,,AAXX 14124 07661 32563 12935 10250 20150 39942 40097 50002 81100 91200 333 91051=
07661,1999-07-14 18:00:00,26,1009.3,-0.1,54,16,15000,42.596,,100.008,290,22.2,27.2,,,,,,,,,wg-a,,,,AAXX 14184 07661 32/65 02923 10260 20160 39939 40093 55001 80000 91800 333 10272 20222 91054=
07661,1999-07-15 00:00:00,24,1010.6,-0,41,10,15000,14.816,,87.044,290,,,,,,,,,,,wg-a,,,,AAXX 15004 07661 32/65 02908 10240 20100 39950 40106 55000 80000 90000 333 91047=
07661,1999-07-15 06:00:00,22,1011.5,1.1,53,12,20000,29.632,,,300,21.6,27.1,,,,,,,,,wg-a,,,,AAXX 15064 07661 12/70 03016 10220 20120 39958 40115 53011 60004 80000 90600 333 10271 20216=
07661,1999-07-15 12:00:00,28,1010.5,-0.8,40,13,25000,46.3,,72.228,290,,,,,,,,,,,wg-a,,,,AAXX 15124 07661 32/75 02925 10280 20130 39951 40105 58008 80000 91200 333 91039=
07661,1999-07-15 18:00:00,26,1010.4,0.4,51,15,20000,38.892,,90.748,290,21.9,29,,,,,,,,,wg-a,,,,AAXX 15184 07661 32570 12921 10260 20150 39949 40104 53004 81100 91800 333 10290 20219 91049=
07661,1999-07-16 00:00:00,24,1012.2,0.3,41,10,20000,25.928,,,290,,,,,,,,,,,wg-a,,,,AAXX 16004 07661 32/70 02914 10240 20100 39966 40122 51003 80000 90000=
07661,1999-07-16 06:00:00,21,1013.1,1.2,53,11,20000,7.408,,,290,19.5,27.3,,,,,,,,,wg-a,,,,AAXX 16064 07661 12/70 02904 10210 20110 39973 40131 51012 60004 80000 90600 333 10273 20195=
07661,1999-07-16 12:00:00,30,1014.7,1.2,31,11,500,11.112,,,200,,,,,,,,,,,wg-a,,,,AAXX 16124 07661 32500 12006 10300 20110 39994 40147 51012 81100 91200=
07661,1999-07-16 18:00:00,26,1014.9,0.3,58,17,25000,11.112,,,180,21,30.7,,,,,,,,,wg-a,,,,AAXX 16184 07661 32/75 11806 10260 20170 39994 40149 53003 80001 91800 333 10307 20210=
07661,1999-07-17 00:00:00,21,1016.3,0,73,16,25000,18.52,,,90,,,,,,,,,,,wg-a,,,,AAXX 17004 07661 32/75 00910 10210 20160 30005 40163 50000 80000 90000=
07661,1999-07-17 06:00:00,22,1017,1,65,15,25000,14.816,,,90,20.1,25.9,,,,,,,,,wg-a,,,,AAXX 17064 07661 12/75 00908 10220 20150 30013 40170 53010 60004 80000 90600 333 10259 20201=
07661,1999-07-17 12:00:00,28,1017.5,0.2,58,19,0,18.52,,,130,,,,,,,,,,,wg-a,,,,AAXX 17124 07661 32/// /1310 10280 20190 30021 40175 50002 91200=
07661,1999-07-17 18:00:00,25,1017.1,-0.1,79,21,12000,11.112,,,140,21.9,28.9,,,,,,,,,wg-a,,,,AAXX 17184 07661 32/62 21406 10250 20210 30015 40171 58001 80002 91800 333 10289 20219=
07661,1999-07-18 00:00:00,22,1017.4,-0.6,73,17,15000,11.112,,,70,,,,,,,,,,,wg-a,,,,AAXX 18004 07661 32/65 30706 10220 20170 30016 40174 58006 80002 90000=
07661,1999-07-18 06:00:00,24,1017.3,1.1,61,16,15000,7.408,,,70,19.8,24.8,,,,,,,,,wg-a,,,,AAXX 18064 07661 12/65 20704 10240 20160 30017 40173 53011 60004 80001 90600 333 10248 20198=
07661,1999-07-18 12:00:00,28,1016.8,-0.4,48,16,20000,14.816,,,160,,,,,,,,,,,wg-a,,,,AAXX 18124 07661 32570 21608 10280 20160 30014 40168 58004 81101 91200=
07661,1999-07-18 18:00:00,25,1015.8,-0.2,74,20,18000,11.112,,,140,24.1,28.6,,,,,,,,,wg-a,,,,AAXX 18184 07661 32/68 01406 10250 20200 30003 40158 55002 80000 91800 333 10286 20241=
07661,1999-07-19 00:00:00,21,1016.5,-0.4,83,18,18000,18.52,,,80,,,,,,,,,,,wg-a,,,,AAXX 19004 07661 32/68 00810 10210 20180 30007 40165 58004 80000 90000=
07661,1999-07-19 06:00:00,22,1016.8,0.6,69,16,15000,7.408,,,80,20.5,24.8,,,,,,,,,wg-a,,,,AAXX 19064 07661 12/65 20804 10220 20160 30011 40168 51006 60004 80001 90600 333 10248 20205=
07661,1999-07-19 12:00:00,26,1017.1,0.6,61,18,15000,18.52,,,140,,,,,,,,,,,wg-a,,,,AAXX 19124 07661 32465 71410 10260 20180 30016 40171 50006 83250 91200=
07661,1999-07-19 18:00:00,25,1016.1,-0.5,69,19,15000,3.704,,,150,22.2,28.5,,,,,,,,,wg-a,,,,AAXX 19184 07661 32565 61502 10250 20190 30006 40161 58005 81179 91800 333 10285 20222=
07661,1999-07-20 00:00:00,23,1017.2,0,83,20,15000,3.704,,,300,,,,,,,,,,,wg-a,,,,AAXX 20004 07661 32865 33002 10230 20200 30015 40172 50000 83030 90000=
07661,1999-07-20 06:00:00,23,1017.5,0.7,57,14,10000,7.408,,,300,21.3,25.1,,,,,,,,,wg-a,,,,AAXX 20064 07661 12/60 03004 10230 20140 30018 40175 53007 60004 80000 90600 333 10251 20213=
07661,1999-07-20 12:00:00,29,1017.7,-0.3,40,14,15000,18.52,,,230,,,,,,,,,,,wg-a,,,,AAXX 20124 07661 32565 12310 10290 20140 30023 40177 58003 81100 91200=
07661,1999-07-20 18:00:00,26,1017.5,0.1,51,15,15000,22.224,,,290,23.2,30.7,,,,,,,,,wg-a,,,,AAXX 20184 07661 32/65 02912 10260 20150 30020 40175 53001 80000 91800 333 10307 20232=
07661,1999-07-21 00:00:00,23,1017.6,-0.6,61,15,20000,25.928,,,300,,,,,,,,,,,wg-a,,,,AAXX 21004 07661 32/70 03014 10230 20150 30019 40176 57006 80000 90000=
07661,1999-07-21 06:00:00,23,1017.3,0.5,73,18,15000,14.816,,,280,21.4,26,,,,,,,,,wg-a,,,,AAXX 21064 07661 12865 12808 10230 20180 30016 40173 51005 60004 81030 90600 333 10260 20214=
07661,1999-07-21 12:00:00,29,1016.8,-0.8,48,17,15000,25.928,,,300,,,,,,,,,,,wg-a,,,,AAXX 21124 07661 32565 33014 10290 20170 30014 40168 58008 83200 91200=
07661,1999-07-21 18:00:00,27,1014.9,-0.9,62,19,15000,35.188,,64.82,290,23,31.2,,,,,,,,,wg-a,,,,AAXX 21184 07661 32/65 02919 10270 20190 39995 40149 56009 80000 91800 333 10312 20230 91035=
07661,1999-07-22 00:00:00,25,1014.7,-0.7,61,17,15000,29.632,,,300,,,,,,,,,,,wg-a,,,,AAXX 22004 07661 32/65 03016 10250 20170 39991 40147 56007 80000 90000=
07661,1999-07-22 06:00:00,23,1013.5,-0.4,53,13,20000,42.596,,,300,22.2,27.3,,,,,,,,,wg-a,,,,AAXX 22064 07661 12/70 03023 10230 20130 39979 40135 58004 60004 80000 90600 333 10273 20222=
07661,1999-07-22 12:00:00,26,1012.1,-0.9,48,14,18000,61.116,,87.044,290,,,,,,,,,,,wg-a,,,,AAXX 22124 07661 32/68 02933 10260 20140 39966 40121 58009 80000 91200 333 91047=
07661,1999-07-22 18:00:00,28,1009.2,-1.2,27,7,18000,53.708,,107.416,310,23.2,28.6,,,,,,,,,wg-a,,,,AAXX 22184 07661 32/68 13129 10280 20070 39939 40092 57012 80001 91800 333 10286 20232 91058=
07661,1999-07-23 00:00:00,19,1010.3,0.6,43,6,25000,42.596,,87.044,310,,,,,,,,,,,wg-a,,,,AAXX 23004 07661 32/75 03123 10190 20060 39945 40103 51006 80000 90000 333 91047=
07661,1999-07-23 06:00:00,22,1011,1.3,43,9,25000,3.704,,,210,18.3,28.2,,,,,,,,,wg-a,,,,AAXX 23064 07661 12/75 02102 10220 20090 39953 40110 53013 60004 80000 90600 333 10282 20183=
07661,1999-07-23 12:00:00,29,1012.4,0.9,23,6,25000,22.224,,,230,,,,,,,,,,,wg-a,,,,AAXX 23124 07661 32575 22312 10290 20060 39970 40124 52009 81106 91200=
07661,1999-07-23 18:00:00,26,1012.6,0.1,28,6,25000,7.408,,,200,21.8,29.3,,,,,,,,,wg-a,,,,AAXX 23184 07661 32575 22004 10260 20060 39971 40126 53001 81280 91800 333 10293 20218=
07661,1999-07-24 00:00:00,22,1014.6,0.1,38,7,20000,11.112,,,60,,,,,,,,,,,wg-a,,,,AAXX 24004 07661 32/70 00606 10220 20070 39988 40146 50001 80000 90000=
07661,1999-07-24 06:00:00,23,1014.6,0.6,41,9,20000,3.704,,,80,19.8,25.7,,,,,,,,,wg-a,,,,AAXX 24064 07661 12/70 20802 10230 20090 39989 40146 53006 60004 80001 90600 333 10257 20198=
07661,1999-07-24 12:00:00,26,1015.5,0.2,54,16,500,18.52,,,140,,,,,,,,,,,wg-a,,,,AAXX 24124 07661 32500 11410 10260 20160 30000 40155 53002 81200 91200=
07661,1999-07-24 18:00:00,24,1015.3,-0.4,41,10,35000,7.408,,,230,21.2,26.3,,,,,,,,,wg-a,,,,AAXX 24184 07661 32/81 02304 10240 20100 39997 40153 55004 80000 91800 333 10263 20212=
07661,1999-07-25 00:00:00,21,1015.9,-0.2,46,9,25000,11.112,,,300,,,,,,,,,,,wg-a,,,,AAXX 25004 07661 32/75 03006 10210 20090 30001 40159 57002 80000 90000=
07661,1999-07-25 06:00:00,22,1015,-0,50,11,500,3.704,,,20,19.4,24.7,,,,,,,,,wg-a,,,,AAXX 25064 07661 12/00 00202 10220 20110 39993 40150 55000 60004 80000 90600 333 10247 20194=
07661,1999-07-25 12:00:00,26,1014.9,-0.1,48,14,35000,25.928,,,220,,,,,,,,,,,wg-a,,,,AAXX 25124 07661 32581 12214 10260 20140 39994 40149 58001 81100 91200=
07661,1999-07-25 18:00:00,24,1014.4,0.3,57,15,35000,18.52,,,290,22.2,27.4,,,,,,,,,wg-a,,,,AAXX 25184 07661 32/81 02910 10240 20150 39988 40144 53003 80000 91800 333 10274 20222=
07661,1999-07-26 00:00:00,21,1014.7,-0.9,56,12,500,22.224,,,300,,,,,,,,,,,wg-a,,,,AAXX 26004 07661 32/00 03012 10210 20120 39989 40147 58009 80000 90000=
07661,1999-07-26 06:00:00,21,1014.1,-0,73,16,18000,14.816,,,300,18.9,23.9,,,,,,,,,wg-a,,,,AAXX 26064 07661 12568 13008 10210 20160 39983 40141 55000 60004 81200 90600 333 10239 20189=
07661,1999-07-26 18:00:00,24,1012.7,-0.7,78,20,18000,22.224,,,290,20.6,28.3,,,,,,,,,wg-a,,,,AAXX 26184 07661 32468 22912 10240 20200 39972 40127 58007 82600 91800 333 10283 20206=
07661,1999-07-27 00:00:00,21,1014.1,0,94,20,14000,14.816,,,310,,,,,,,,,,,wg-a,,,,AAXX 27004 07661 32/64 03108 10210 20200 39984 40141 50000 80000 90000=
07661,1999-07-27 06:00:00,21,1014.9,1.3,94,20,12000,11.112,,,300,19.4,23.9,,,,,,,,,wg-a,,,,AAXX 27064 07661 12/62 23006 10210 20200 39992 40149 51013 60004 80001 90600 333 10239 20194=
07661,1999-07-27 12:00:00,25,1013.6,-0.7,69,19,15000,7.408,,,210,,,,,,,,,,,wg-a,,,,AAXX 27124 07661 32865 82104 10250 20190 39981 40136 55007 8807/ 91200=
07661,1999-07-27 18:00:00,22,1013.5,-1.2,73,17,10000,22.224,,,300,21.3,27.9,,,,,,,,21,wg-a,,,,AAXX 27184 07661 02860 83012 10220 20170 39978 40135 56012 61000 72162 8807/ 91800 333 10279 20213 ////=
07661,1999-07-28 00:00:00,21,1012.9,-0.2,64,14,15000,7.408,,,330,,,,,,,,,,,wg-a,,,,AAXX 28004 07661 32865 83304 10210 20140 39972 40129 58002 8807/ 90000=
07661,1999-07-28 06:00:00,21,1012.1,-0.2,78,17,15000,11.112,,,290,19.2,23.7,,,,,1,,,,wg-a,,,,AAXX 28064 07661 12865 82906 10210 20170 39964 40121 58002 60014 8807/ 90600 333 10237 20192=
07661,1999-07-28 12:00:00,27,1012.1,0.1,51,16,15000,14.816,,,310,,,,,,,,,,,wg-a,,,,AAXX 28124 07661 32565 33108 10270 20160 39967 40121 51001 82304 91200=
07661,1999-07-28 17:00:00,24.3,1012.8,0.3,70,18.5,,11.112,,,150,,,,,,,,,,,og-post,,,,AAXX 28174 07661 36/// /1506 10243 20185 39973 40128 53003=
07661,1999-07-28 18:00:00,23,1013.3,0.6,78,19,12000,7.408,,,160,21,28.7,,,,,,,,,wg-a,,,,AAXX 28184 07661 32562 41604 10230 20190 39977 40133 53006 82362 91800 333 10287 20210=
07661,1999-07-29 00:00:00,22,1013.5,-1,83,19,15000,3.704,,,100,,,,,,,,,,,wg-a,,,,AAXX 29004 07661 32/65 21002 10220 20190 39978 40135 57010 82030 90000=
07661,1999-07-29 06:00:00,21,1012.9,0.2,78,17,15000,7.408,,,300,20,23.3,,,,,,,,,wg-a,,,,AAXX 29064 07661 12565 33004 10210 20170 39972 40129 53002 60004 82230 90600 333 10233 20200=
07661,1999-07-29 12:00:00,28,1012.4,-0.4,55,18,0,25.928,,,300,,,,,,,,,,,wg-a,,,,AAXX 29124 07661 32/// /3014 10280 20180 39970 40124 56004 91200=
07661,1999-07-30 00:00:00,21,1012.8,-0.6,88,19,0,14.816,,,80,,,,,,,,,,,wg-a,,,,AAXX 30004 07661 32/// /0808 10210 20190 39971 40128 57006 90000=
07661,1999-07-30 06:00:00,21,1012.1,0.2,88,19,12000,18.52,,,90,20.6,25.1,,,,,,,,,wg-a,,,,AAXX 30064 07661 12562 80910 10210 20190 39964 40121 53002 60004 8336/ 90600 333 10251 20206=
07661,1999-07-30 12:00:00,25,1013.1,0.3,69,19,0,11.112,,,220,,,,,,,,,,,wg-a,,,,AAXX 30124 07661 32/// /2206 10250 20190 39976 40131 51003 91200=
07661,1999-07-30 18:00:00,24,1012,0.1,74,19,15000,0,,,0,21.4,27.3,,,,,,,,,wg-a,,,,AAXX 30184 07661 32465 50000 10240 20190 39965 40120 53001 8237/ 91800 333 10273 20214=
07661,1999-07-31 00:00:00,21,1012.1,-0.2,83,18,15000,18.52,,,90,,,,,,,,,,,wg-a,,,,AAXX 31004 07661 32/65 30910 10210 20180 39964 40121 58002 80002 90000=
07661,1999-07-31 06:00:00,20,1012.3,0.3,83,17,15000,14.816,,,70,19.4,24.4,,,,,,,,,wg-a,,,,AAXX 31064 07661 12/65 30708 10200 20170 39965 40123 51003 60004 80002 90600 333 10244 20194=
07661,1999-07-31 12:00:00,25,1012.6,-0.1,74,20,12000,18.52,,,140,,,,,,,,,,,wg-a,,,,AAXX 31124 07661 32562 61410 10250 20200 39971 40126 58001 85302 91200=
07661,1999-07-31 18:00:00,23,1012.4,0.2,73,18,12000,14.816,,,80,20.3,26,,,,,,,,,wg-a,,,,AAXX 31184 07661 32462 60808 10230 20180 39968 40124 50002 84362 91800 333 10260 20203=
07661,1999-08-01 00:00:00,20,1013.7,0,88,18,12000,7.408,,,80,,,,,,,,,,,wg-a,,,,AAXX 01004 07661 32/62 20804 10200 20180 39979 40137 50000 80001 90000=
07661,1999-08-01 06:00:00,21,1014.3,0.7,78,17,12000,11.112,,,320,18.9,23.3,,,,,,,,,wg-a,,,,AAXX 01064 07661 12/62 23206 10210 20170 39986 40143 53007 60004 80001 90600 333 10233 20189=
07661,1999-08-01 12:00:00,27,1014.3,-0.4,62,19,12000,22.224,,,220,,,,,,,,,,,wg-a,,,,AAXX 01124 07661 32562 22212 10270 20190 39989 40143 58004 82300 91200=
07661,1999-08-01 18:00:00,24,1014,-0.1,78,20,8000,14.816,,,230,21.5,27.8,,,,,,,,,wg-a,,,,AAXX 01184 07661 32558 72308 10240 20200 39984 40140 57001 84962 91800 333 10278 20215=
07661,1999-08-02 00:00:00,22,1015.3,0.1,88,20,8000,11.112,,,300,,,,,,,,,,,wg-a,,,,AAXX 02004 07661 32558 33006 10220 20200 39996 40153 50001 83633 90000=
07661,1999-08-02 06:00:00,21,1015.1,-0,83,18,8000,3.704,,,50,19.9,23.9,,,,,,,,,wg-a,,,,AAXX 02064 07661 12/58 00502 10210 20180 39994 40151 55000 60004 80000 90600 333 10239 20199=
07661,1999-08-02 12:00:00,27,1014.4,-0.5,62,19,12000,25.928,,,220,,,,,,,,,,,wg-a,,,,AAXX 02124 07661 32462 32214 10270 20190 39990 40144 58005 82261 91200=
07661,1999-08-02 18:00:00,25,1013.2,-0.6,69,19,12000,14.816,,,270,21.3,27.8,,,,,,,,,wg-a,,,,AAXX 02184 07661 32462 52708 10250 20190 39977 40132 58006 84301 91800 333 10278 20213=
07661,1999-08-03 00:00:00,22,1014.9,0.8,88,20,12000,18.52,,,300,,,,,,,,,,,wg-a,,,,AAXX 03004 07661 32462 63010 10220 20200 39992 40149 51008 84301 90000=
07661,1999-08-03 12:00:00,27,1014.3,-0.1,66,20,15000,18.52,,,200,,,,,,,,,,,wg-a,,,,AAXX 03124 07661 32565 52010 10270 20200 39989 40143 58001 83272 91200=
07661,1999-08-03 18:00:00,24,1013.8,-0.4,89,22,10000,14.816,,,230,20.4,27.9,,,,,,,,,wg-a,,,,AAXX 03184 07661 32460 72308 10240 20220 39983 40138 56004 84802 91800 333 10279 20204=
07661,1999-08-04 00:00:00,22,1013.2,-0.8,94,21,10000,14.816,,,90,,,,,,,,,,,wg-a,,,,AAXX 04004 07661 32460 40908 10220 20210 39976 40132 58008 82202 90000=
07661,1999-08-04 06:00:00,22,1012.8,-0.4,94,21,12000,22.224,,,70,21.7,24,,,,,,,,,wg-a,,,,AAXX 04064 07661 12462 70712 10220 20210 39972 40128 58004 60004 876// 90600 333 10240 20217=
07661,1999-08-04 18:00:00,24,1011.7,-0.6,83,21,13000,31.484,,,80,22.2,26,,,,,,,,,wg-a,,,,AAXX 04184 07661 32863 40817 10240 20210 39962 40117 58006 84040 91800 333 10260 20222=
07661,1999-08-05 00:00:00,22,1013.2,0.6,78,18,15000,18.52,,,70,,,,,,,,,,,wg-a,,,,AAXX 05004 07661 32865 50710 10220 20180 39976 40132 51006 85050 90000=
07661,1999-08-05 06:00:00,23,1013.2,0.7,78,19,12000,14.816,,,70,21.1,23.8,,,,,,,,,wg-a,,,,AAXX 05064 07661 12462 10708 10230 20190 39976 40132 51007 60004 81600 90600 333 10238 20211=
07661,1999-08-05 12:00:00,27,1013.8,0,74,22,8000,22.224,,,140,,,,,,,,,,,wg-a,,,,AAXX 05124 07661 32458 11412 10270 20220 39984 40138 50000 81200 91200=
07661,1999-08-06 06:00:00,23,1012.9,-0.8,83,20,7000,22.224,,,80,21.1,24.1,,,,,,,,,wg-a,,,,AAXX 06064 07661 12557 10812 10230 20200 39973 40129 56008 60004 81200 90600 333 10241 20211=
07661,1999-08-06 12:00:00,27,1013,-0,74,22,0,25.928,,,110,,,,,,,,,,,wg-a,,,,AAXX 06124 07661 32/// /1114 10270 20220 39976 40130 55000 91200=
07661,1999-08-06 18:00:00,24,1010.8,-0.9,83,21,0,18.52,,,90,22.8,26.9,,,,,,,,,wg-a,,,,AAXX 06184 07661 32/// /0910 10240 20210 39953 40108 55009 91800 333 10269 20228=
07661,1999-08-07 00:00:00,23,1010.8,-1.6,69,17,8000,11.112,,,80,,,,,,,,,,,wg-a,,,,AAXX 07004 07661 32458 10806 10230 20170 39952 40108 56016 81100 90000=
07661,1999-08-07 06:00:00,23,1009.1,-0.7,78,19,0,7.408,,,320,21.9,24.3,,,,,,,,,wg-a,,,,AAXX 07064 07661 32/// /3204 10230 20190 39935 40091 56007 90600 333 10243 20219=
07661,1999-08-07 12:00:00,28,1008.5,-0.2,58,19,0,18.52,,,200,,,,,,,,,,,wg-a,,,,AAXX 07124 07661 32/// /2010 10280 20190 39932 40085 58002 91200=
07661,1999-08-07 18:00:00,25,1006.1,-1.7,83,22,8000,18.52,,,100,22.5,29.1,,,,,,,,,wg-a,,,,AAXX 07184 07661 32558 61010 10250 20220 39907 40061 57017 83202 91800 333 10291 20225=
07661,1999-08-08 00:00:00,24,1005.4,-0.5,94,23,7000,18.52,,,110,,,,,,,,,,,wg-a,,,,AAXX 08004 07661 32557 81110 10240 20230 39900 40054 57005 88700 90000=
07661,1999-08-08 06:00:00,24,1004.6,1.5,89,22,7000,22.224,,,60,23.6,24.4,,,,,,,,,wg-a,,,,AAXX 08064 07661 12557 80612 10240 20220 39892 40046 51015 60004 88700 90600 333 10244 20236=
07661,1999-08-08 12:00:00,28,1005.4,0.5,74,23,7000,22.224,,,190,,,,,,,,,,21,wg-a,,,,AAXX 08124 07661 02457 31912 10280 20230 39902 40054 51005 61000 72162 82301 91200 333 ////=
07661,1999-08-08 18:00:00,26,1006.1,0.1,74,21,15000,7.408,,,220,23.7,29,,,,,,,,,wg-a,,,,AAXX 08184 07661 32465 52204 10260 20210 39908 40061 51001 85200 91800 333 10290 20237=
07661,1999-08-09 00:00:00,22,1008.7,0.9,88,20,20000,11.112,,,90,,,,,,,,,,,wg-a,,,,AAXX 09004 07661 32470 10906 10220 20200 39931 40087 51009 81100 90000=
07661,1999-08-09 06:00:00,23,1009.1,0.8,83,20,12000,18.52,,,60,20.9,25.9,,,,,,,,,wg-a,,,,AAXX 09064 07661 12462 50610 10230 20200 39936 40091 53008 60004 85600 90600 333 10259 20209=
07661,1999-08-09 12:00:00,27,1008.8,-0.2,79,23,12000,14.816,,,90,,,,,,,,,,,wg-a,,,,AAXX 09124 07661 32462 60908 10270 20230 39935 40088 58002 82368 91200=
07661,1999-08-09 18:00:00,26,1008.8,0.3,61,18,15000,18.52,,,90,23,27.8,,,,,,,,14,wg-a,,,,AAXX 09184 07661 32465 70910 10260 20180 39934 40088 53003 71422 85868 91800 333 10278 20230=
07661,1999-08-10 00:00:00,25,1009.2,-0.5,65,18,20000,7.408,,,110,,,,,,,,,,,wg-a,,,,AAXX 10004 07661 32/70 51104 10250 20180 39937 40092 58005 85060 90000=
07661,1999-08-10 06:00:00,24,1010.7,1,69,18,20000,18.52,,,280,22.9,25.7,,,,,,,,,wg-a,,,,AAXX 10064 07661 02870 62810 10240 20180 39952 40107 53010 61000 86070 90600 333 10257 20229 6100=
07661,1999-08-10 12:00:00,30,1010.5,0.1,35,13,35000,38.892,,,290,,,,,,,,,,,wg-a,,,,AAXX 10124 07661 32581 12921 10300 20130 39952 40105 51001 81100 91200=
07661,1999-08-10 18:00:00,27,1012.3,1,54,17,0,38.892,,,290,23.8,30.1,,,,,,,,,wg-a,,,,AAXX 10184 07661 32/// /2921 10270 20170 39969 40123 51010 91800 333 10301 20238=
07661,1999-08-11 00:00:00,24,1013.9,0.5,47,12,500,38.892,,64.82,290,,,,,,,,,,,wg-a,,,,AAXX 11004 07661 32/00 02921 10240 20120 39983 40139 50005 80000 90000 333 91035=
07661,1999-08-11 06:00:00,22,1014.1,0.6,57,13,500,46.3,,,300,21.3,27.4,,,,,,,,,wg-a,,,,AAXX 11064 07661 12/00 03025 10220 20130 39984 40141 53006 60004 80000 90600 333 10274 20213=
07661,1999-08-11 12:00:00,26,1014.3,0.2,45,13,500,46.3,,79.636,300,,,,,,,,,,,wg-a,,,,AAXX 11124 07661 32600 33025 10260 20130 39988 40143 53002 83160 91200 333 91043=
07661,1999-08-11 18:00:00,25,1012.9,-0.2,39,10,500,46.3,,83.34,300,21.6,28.1,,,,,,,,,wg-a,,,,AAXX 11184 07661 32/00 53025 10250 20100 39974 40129 57002 80002 91800 333 10281 20216 91045=
07661,1999-08-12 00:00:00,21,1013.8,-0.1,56,12,500,25.928,,72.228,290,,,,,,,,,,,wg-a,,,,AAXX 12004 07661 32/00 52914 10210 20120 39980 40138 57001 80002 90000 333 91039=
07661,1999-08-12 06:00:00,21,1012.9,-0.3,49,10,500,38.892,,,300,19.5,25.4,,,,,,,,,wg-a,,,,AAXX 12064 07661 12500 73021 10210 20100 39971 40129 56003 60004 81272 90600 333 10254 20195=
07661,1999-08-13 00:00:00,20,1010.9,-0.9,53,10,20000,31.484,,,310,,,,,,,,,,,wg-a,,,,AAXX 13004 07661 32/70 03117 10200 20100 39951 40109 55009 80000 90000=
07661,1999-08-13 06:00:00,19,1011.6,1.1,52,9,500,22.224,,,300,18.6,23.5,,,,,,,,,wg-a,,,,AAXX 13064 07661 12/00 13012 10190 20090 39957 40116 53011 60004 80008 90600 333 10235 20186=
07661,1999-08-13 12:00:00,26,1011.2,-0.1,37,10,20000,25.928,,,290,,,,,,,,,,,wg-a,,,,AAXX 13124 07661 32570 22914 10260 20100 39957 40112 58001 81108 91200=
07661,1999-08-13 18:00:00,25,1010.9,0.1,36,9,500,25.928,,,280,19.2,27,,,,,,,,,wg-a,,,,AAXX 13184 07661 32/00 12814 10250 20090 39954 40109 50001 80002 91800 333 10270 20192=
07661,1999-08-14 00:00:00,20,1013.4,0.5,68,14,20000,11.112,,,80,,,,,,,,,,,wg-a,,,,AAXX 14004 07661 32/70 00806 10200 20140 39976 40134 50005 80000 90000=
07661,1999-08-14 06:00:00,19,1013.6,0.7,73,14,25000,11.112,,,330,17.5,25.1,,,,,,,,,wg-a,,,,AAXX 14064 07661 12/75 13306 10190 20140 39977 40136 53007 60004 81030 90600 333 10251 20175=
07661,1999-08-14 12:00:00,26,1012.9,-0.7,39,11,500,31.484,,53.708,290,,,,,,,,,,,wg-a,,,,AAXX 14124 07661 32100 12917 10260 20110 39974 40129 58007 81100 91200 333 91029=
07661,1999-08-14 18:00:00,22,1012.3,-0.5,73,17,500,29.632,,,280,18.8,26.4,,,,,,,,,wg-a,,,,AAXX 14184 07661 32800 12816 10220 20170 39966 40123 55005 81040 91800 333 10264 20188=
07661,1999-08-15 00:00:00,22,1012.7,-0.9,83,19,0,25.928,,,290,,,,,,,,,,,wg-a,,,,AAXX 15004 07661 32/// /2914 10220 20190 39970 40127 58009 90000=
07661,1999-08-15 06:00:00,21,1012.3,0.5,73,16,18000,29.632,,,290,20.3,22.1,,,,,,,,,wg-a,,,,AAXX 15064 07661 12/68 02916 10210 20160 39966 40123 53005 60004 80000 90600 333 10221 20203=
07661,1999-08-15 12:00:00,28,1012.6,0.3,48,16,15000,31.484,,50.004,250,,,,,,,,,,,wg-a,,,,AAXX 15124 07661 32565 12517 10280 20160 39972 40126 50003 81142 91200 333 91027=
07661,1999-08-15 18:00:00,24,1012.4,-0,65,17,25000,25.928,,57.412,280,21.4,27.6,,,,,,,,,wg-a,,,,AAXX 15184 07661 32/75 12814 10240 20170 39968 40124 55000 80002 91800 333 10276 20214 91031=
07661,1999-08-16 00:00:00,23,1012.7,-0.3,78,19,25000,18.52,,,290,,,,,,,,,,,wg-a,,,,AAXX 16004 07661 32/75 22910 10230 20190 39971 40127 58003 80002 90000=
07661,1999-08-16 06:00:00,23,1011.2,-0.4,89,21,14000,0,,,0,21.3,23.6,,,,,,,,,wg-a,,,,AAXX 16064 07661 12564 40000 10230 20210 39956 40112 56004 60004 83530 90600 333 10236 20213=
07661,1999-08-16 12:00:00,26,1010.4,-0.8,79,22,0,14.816,,,170,,,,,,,,,,,wg-a,,,,AAXX 16124 07661 32/// /1708 10260 20220 39950 40104 58008 91200=
07661,1999-08-16 18:00:00,23,1007.9,-1,83,20,8000,11.112,,,180,22.7,26.1,,,,,,,,,wg-a,,,,AAXX 16184 07661 32558 61806 10230 20200 39924 40079 58010 82298 91800 333 10261 20227=
07661,1999-08-17 00:00:00,22,1008.8,-0.1,88,20,12000,29.632,,,300,,,,,,,,,,,wg-a,,,,AAXX 17004 07661 32/62 23016 10220 20200 39932 40088 57001 82030 90000=
07661,1999-08-17 06:00:00,22,1008.6,0.4,69,16,12000,22.224,,,300,20.6,23.1,,,,,,,,,wg-a,,,,AAXX 17064 07661 12/62 23012 10220 20160 39930 40086 53004 60004 80002 90600 333 10231 20206=
07661,1999-08-17 12:00:00,28,1008.6,-0.7,40,13,20000,31.484,,,290,,,,,,,,,,,wg-a,,,,AAXX 17124 07661 32/70 32917 10280 20130 39933 40086 58007 80003 91200=
07661,1999-08-17 18:00:00,24,1008.8,0.4,61,16,16000,29.632,,64.82,290,21.7,28.4,,,,,,,,,wg-a,,,,AAXX 17184 07661 32/66 22916 10240 20160 39933 40088 53004 80003 91800 333 10284 20217 91035=
07661,1999-08-18 00:00:00,22,1009.7,-0.2,69,16,15000,25.928,,,300,,,,,,,,,,,wg-a,,,,AAXX 18004 07661 32/65 03014 10220 20160 39941 40097 58002 80000 90000=
07661,1999-08-18 06:00:00,21,1010,0.7,78,17,10000,7.408,,,300,20.6,23.6,,,,,,,,,wg-a,,,,AAXX 18064 07661 12/60 03004 10210 20170 39943 40100 52007 60004 80000 90600 333 10236 20206=
07661,1999-08-18 12:00:00,26,1010.7,0.1,65,19,12000,18.52,,,220,,,,,,,,,,,wg-a,,,,AAXX 18124 07661 32562 72210 10260 20190 39953 40107 53001 82250 91200=
07661,1999-08-18 18:00:00,24,1010.8,-0.3,89,22,0,7.408,,,240,20.5,27.6,,,,,,,,,wg-a,,,,AAXX 18184 07661 32/// /2404 10240 20220 39953 40108 55003 91800 333 10276 20205=
07661,1999-08-19 00:00:00,23,1012.4,0.2,94,22,12000,11.112,,,300,,,,,,,,,,,wg-a,,,,AAXX 19004 07661 32562 73006 10230 20220 39968 40124 51002 87500 90000=
07661,1999-08-19 06:00:00,22,1013,0.6,88,20,500,7.408,,,360,21.3,24,,,,,,,,,wg-a,,,,AAXX 19064 07661 12/00 53604 10220 20200 39974 40130 53006 60004 85081 90600 333 10240 20213=
07661,1999-08-19 12:00:00,26,1013.6,0.1,65,19,6000,18.52,,,180,,,,,,,,,,,wg-a,,,,AAXX 19124 07661 32856 81810 10260 20190 39981 40136 50001 8807/ 91200=
07661,1999-08-19 18:00:00,24,1012.2,-1.6,78,20,6000,22.224,,,150,22.3,28.3,,,,,,,,,wg-a,,,,AAXX 19184 07661 32556 81512 10240 20200 39967 40122 58016 8472/ 91800 333 10283 20223=
07661,1999-08-20 00:00:00,23,1014,0.7,78,19,6000,11.112,,,40,,,,0,,,,,,,wg-a,,,,AAXX 20004 07661 12556 80406 10230 20190 39984 40140 50007 60007 8572/ 90000=
07661,1999-08-20 06:00:00,24,1011.4,-0.1,65,17,10000,7.408,,,300,22.3,24.1,,,,,,,,3,wg-a,,,,AAXX 20064 07661 12860 83004 10240 20170 39959 40114 55001 60004 70396 88070 90600 333 10241 20223=
07661,1999-08-20 12:00:00,30,1012.1,-0.3,46,17,15000,14.816,,,220,,,,,,,,,,,wg-a,,,,AAXX 20124 07661 32565 22208 10300 20170 39968 40121 58003 82200 91200=
07661,1999-08-20 18:00:00,28,1011.3,0.6,37,12,0,38.892,,,300,24,31.4,,,,,,,,,wg-a,,,,AAXX 20184 07661 32/// /3021 10280 20120 39959 40113 50006 91800 333 10314 20240=
07661,1999-08-21 00:00:00,22,1013.8,0,60,14,25000,29.632,,,280,,,,,,,,,,,wg-a,,,,AAXX 21004 07661 32/75 02816 10220 20140 39981 40138 50000 80000 90000=
07661,1999-08-21 06:00:00,21,1013.8,0.4,64,14,500,3.704,,,30,19.3,27.9,,,,,,,,,wg-a,,,,AAXX 21064 07661 12/00 00302 10210 20140 39980 40138 53004 60004 80000 90600 333 10279 20193=
07661,1999-08-21 12:00:00,29,1013.5,-0.6,37,13,25000,14.816,,,300,,,,,,,,,,,wg-a,,,,AAXX 21124 07661 32/75 03008 10290 20130 39981 40135 58006 80000 91200=
07661,1999-08-21 18:00:00,23,1011.9,-0,57,14,35000,42.596,,68.524,290,20.7,30.7,,,,,,,,,wg-a,,,,AAXX 21184 07661 32/81 22923 10230 20140 39963 40119 55000 80008 91800 333 10307 20207 91037=
07661,1999-08-22 00:00:00,22,1013.8,0.8,60,14,15000,18.52,,68.524,290,,,,,,,,,,,wg-a,,,,AAXX 22004 07661 32/65 22910 10220 20140 39981 40138 50008 80008 90000 333 91037=
07661,1999-08-22 06:00:00,22,1013.5,0.5,43,9,500,18.52,,,80,19.9,23.2,,,,,,,,,wg-a,,,,AAXX 22064 07661 12500 10810 10220 20090 39978 40135 53005 60004 81200 90600 333 10232 20199=
07661,1999-08-22 12:00:00,27,1014.5,0.1,48,15,25000,11.112,,,200,,,,,,,,,,,wg-a,,,,AAXX 22124 07661 32575 12006 10270 20150 39990 40145 51001 81200 91200=
07661,1999-08-22 18:00:00,25,1014,-0.3,50,14,25000,3.704,,,320,21.7,28.1,,,,,,,,,wg-a,,,,AAXX 22184 07661 32/75 43202 10250 20140 39985 40140 57003 80002 91800 333 10281 20217=
07661,1999-08-23 00:00:00,21,1015.3,-0.4,78,17,13000,14.816,,,80,,,,,,,,,,,wg-a,,,,AAXX 23004 07661 32/63 20808 10210 20170 39995 40153 57004 80002 90000=
07661,1999-08-23 06:00:00,21,1016.4,1.1,69,15,10000,11.112,,,60,20.3,25.1,,,,,,,,,wg-a,,,,AAXX 23064 07661 12/60 40606 10210 20150 30006 40164 53011 60004 80006 90600 333 10251 20203=
07661,1999-08-23 12:00:00,26,1017,0,70,20,12000,14.816,,,170,,,,,,,,,,,wg-a,,,,AAXX 23124 07661 32/62 41708 10260 20200 30015 40170 50000 81031 91200=
07661,1999-08-23 18:00:00,24,1016.4,-0.1,83,21,10000,14.816,,,240,21.2,28,,,,,,,,,wg-a,,,,AAXX 23184 07661 32460 32408 10240 20210 30008 40164 56001 82501 91800 333 10280 20212=
07661,1999-08-24 00:00:00,22,1017.7,0.1,88,20,10000,7.408,,,300,,,,,,,,,,,wg-a,,,,AAXX 24004 07661 32460 33004 10220 20200 30020 40177 51001 82501 90000=
07661,1999-08-24 06:00:00,22,1017.3,0.5,78,18,12000,3.704,,,330,19.8,24,,,,,,,,,wg-a,,,,AAXX 24064 07661 12/62 03302 10220 20180 30016 40173 53005 60004 80000 90600 333 10240 20198=
07661,1999-08-24 12:00:00,28,1018,-0.1,70,22,14000,22.224,,,200,,,,,,,,,,,wg-a,,,,AAXX 24124 07661 32/64 12012 10280 20220 30026 40180 56001 81100 91200=
07661,1999-08-24 18:00:00,24,1017.7,0.4,83,21,15000,14.816,,,230,22.1,29.2,,,,,,,,,wg-a,,,,AAXX 24184 07661 32/65 12308 10240 20210 30021 40177 53004 81010 91800 333 10292 20221=
07661,1999-08-25 00:00:00,21,1018.3,0.2,83,18,15000,14.816,,,90,,,,,,,,,,,wg-a,,,,AAXX 25004 07661 32865 40908 10210 20180 30025 40183 50002 81011 90000=
07661,1999-08-25 06:00:00,21,1018,0.3,83,18,12000,25.928,,,80,20.7,24.2,,,,,,,,,wg-a,,,,AAXX 25064 07661 12462 60814 10210 20180 30022 40180 52003 60004 81611 90600 333 10242 20207=
07661,1999-08-25 12:00:00,27,1018.1,-0.8,70,21,14000,25.928,,,140,,,,,,,,,,,wg-a,,,,AAXX 25124 07661 32464 61414 10270 20210 30026 40181 56008 81611 91200=
07661,1999-08-25 18:00:00,24,1016.7,-0.7,78,20,15000,22.224,,,100,21,27.5,,,,,,,,,wg-a,,,,AAXX 25184 07661 32665 41012 10240 20200 30011 40167 56007 83562 91800 333 10275 20210=
07661,1999-08-26 00:00:00,23,1016.1,-0.8,69,17,12000,31.484,,,80,,,,,,,,,,,wg-a,,,,AAXX 26004 07661 32/62 50817 10230 20170 30004 40161 58008 85060 90000=
07661,1999-08-26 06:00:00,24,1016.5,0.7,65,17,14000,29.632,,,70,22.9,24.8,,,,,,,,,wg-a,,,,AAXX 26064 07661 12464 80716 10240 20170 30009 40165 51007 60004 8807/ 90600 333 10248 20229=
07661,1999-08-26 12:00:00,26,1016.8,-0.2,74,21,9000,18.52,,,100,,,,,,,,,,,wg-a,,,,AAXX 26124 07661 32859 81010 10260 20210 30013 40168 55002 8807/ 91200=
07661,1999-08-27 00:00:00,22,1017,0.2,73,17,15000,18.52,,,290,,,,,,,,,,,wg-a,,,,AAXX 27004 07661 32/65 22910 10220 20170 30013 40170 53002 80002 90000=
07661,1999-08-27 06:00:00,23,1016.8,0.5,73,18,15000,25.928,,,280,21.7,24.2,,,,,,,,,wg-a,,,,AAXX 27064 07661 12665 42814 10230 20180 30011 40168 53005 60004 84500 90600 333 10242 20217=
07661,1999-08-27 12:00:00,28,1016.3,-0.4,51,17,25000,31.484,,,300,,,,,,,,,,,wg-a,,,,AAXX 27124 07661 32/75 13017 10280 20170 30009 40163 58004 81110 91200=
07661,1999-08-27 18:00:00,25,1015.7,-0.4,74,20,14000,35.188,,50.004,290,22.7,30.2,,,,,,,,,wg-a,,,,AAXX 27184 07661 32864 12919 10250 20200 30001 40157 58004 81010 91800 333 10302 20227 91027=
07661,1999-08-28 00:00:00,23,1017.2,0.3,78,19,25000,18.52,,,290,,,,,,,,,,,wg-a,,,,AAXX 28004 07661 32/75 12910 10230 20190 30015 40172 51003 81010 90000=
07661,1999-08-28 06:00:00,21,1017.9,0.5,83,18,18000,14.816,,,90,20.6,24.7,,,,,,,,,wg-a,,,,AAXX 28064 07661 12868 40908 10210 20180 30021 40179 53005 60004 84031 90600 333 10247 20206=
07661,1999-08-28 12:00:00,28,1017.5,-0.5,66,21,14000,11.112,,,220,,,,,,,,,,,wg-a,,,,AAXX 28124 07661 32864 12206 10280 20210 30021 40175 58005 81030 91200=
07661,1999-08-28 18:00:00,24,1015.2,-0.8,83,21,12000,31.484,,,280,21.3,28.6,,,,,,,,,wg-a,,,,AAXX 28184 07661 32462 82817 10240 20210 39996 40152 58008 8162/ 91800 333 10286 20213=
07661,1999-08-29 00:00:00,25,1014.7,-0.9,57,16,12000,11.112,,,100,,,,,,,,,,,wg-a,,,,AAXX 29004 07661 32462 81006 10250 20160 39991 40147 58009 887// 90000=
07661,1999-08-29 06:00:00,22,1013.3,-0.4,69,16,20000,18.52,,,310,21.5,26.2,,,,,,,,,wg-a,,,,AAXX 29064 07661 02670 43110 10220 20160 39976 40133 55004 61000 81231 90600 333 10262 20215 ////=
07661,1999-08-29 12:00:00,28,1012.8,-0,48,16,20000,3.704,,,140,,,,,,,,,,,wg-a,,,,AAXX 29124 07661 32670 81402 10280 20160 39974 40128 55000 85461 91200=
07661,1999-08-29 18:00:00,23,1012.4,-1.3,65,16,25000,11.112,,,260,21.2,28.4,,,,,,,,,wg-a,,,,AAXX 29184 07661 32475 72606 10230 20160 39968 40124 56013 81362 91800 333 10284 20212=
07661,1999-08-30 00:00:00,20,1012.4,-0.8,83,17,0,7.408,,,80,,,,,,,,,,,wg-a,,,,AAXX 30004 07661 32/// /0804 10200 20170 39966 40124 56008 90000=
07661,1999-08-30 06:00:00,20,1012.6,0.7,73,15,25000,14.816,,,70,18.3,22.5,,,,,,,,,wg-a,,,,AAXX 30064 07661 12/75 10708 10200 20150 39968 40126 53007 60004 80005 90600 333 10225 20183=
07661,1999-08-30 12:00:00,26,1013.1,-0.3,65,19,25000,11.112,,,200,,,,,,,,,,,wg-a,,,,AAXX 30124 07661 32575 52006 10260 20190 39977 40131 58003 82208 91200=
07661,1999-08-30 18:00:00,23,1012.4,-0.1,69,17,0,14.816,,,230,19.9,27.2,,,,,,,,,wg-a,,,,AAXX 30184 07661 32/// /2308 10230 20170 39968 40124 57001 91800 333 10272 20199=
07661,1999-08-31 00:00:00,21,1012.8,-0.6,83,18,15000,14.816,,,80,,,,,,,,,,,wg-a,,,,AAXX 31004 07661 32/65 20808 10210 20180 39971 40128 58006 80001 90000=
07661,1999-08-31 06:00:00,20,1012.3,0.1,83,17,20000,14.816,,,70,18.7,23.2,,,,,,,,,wg-a,,,,AAXX 31064 07661 12570 10708 10200 20170 39965 40123 53001 60004 81200 90600 333 10232 20187=
07661,1999-08-31 12:00:00,27,1013.5,0.5,62,19,12000,11.112,,,210,,,,,,,,,,,wg-a,,,,AAXX 31124 07661 32562 22106 10270 20190 39981 40135 51005 82200 91200=
07661,1999-08-31 18:00:00,25,1013.1,-0,65,18,20000,14.816,,,290,20.1,27.8,,,,,,,,,wg-a,,,,AAXX 31184 07661 32/70 02908 10250 20180 39976 40131 55000 80000 91800 333 10278 20201=
07661,1999-09-01 00:00:00,17.8,1010.2,1.9,64,10.9,,27,79.636,,290,,,,,,,,,,,,,,0,
07661,1999-09-01 01:00:00,17.5,1011,1.5,64,10.6,,25,,,300,,,,,,,,,,,,,,,
07661,1999-09-01 02:00:00,17,1011.5,1.7,66,10.6,,21,,,300,,,,,,,,,,,,,,,
07661,1999-09-01 03:00:00,17.1,1010.7,0.5,64,10.2,24076,29,,,300,,,,,,,,,,,,,,1,
07661,1999-09-01 04:00:00,16.8,1010.2,-0.8,66,10.4,,31,,,300,,,,,,,,,,,,,,,
07661,1999-09-01 05:00:00,16.6,1010.8,-0.7,67,10.5,,31,,,300,,,,,,,,,,,,,,,
07661,1999-09-01 06:00:00,16.4,1011.1,0.3,69,10.7,35188,33,,,310,16.4,19.2,,,,,0.2,,,,,,,1,
07661,1999-09-01 07:00:00,16.9,1010.8,0.5,65,10.3,,35,,,310,,,,,,,,,,,,,,,
07661,1999-09-01 08:00:00,17.1,1010.6,-0.1,63,10,,39,90.748,90.748,310,,,,,,,,,,,,,,,
07661,1999-09-01 09:00:00,18.8,1009.8,-1.1,54,9.3,46300,45,111.12,107.416,310,,,,,,,,,,,,,,3,
07661,1999-09-01 10:00:00,20.3,1011.9,1.3,46,8.3,,23,103.712,,300,,,,,,,,,,,,,,,
07661,1999-09-01 11:00:00,20.7,1011.2,0.7,46,8.7,,29,79.636,72.228,300,,,,,,,,,,,,,,,
07661,1999-09-01 12:00:00,21.5,1010.5,0.8,46,9.4,46300,31,111.12,79.636,310,,,,,,,,,,,,,,1,
07661,1999-09-01 13:00:00,22.7,1011,-0.8,41,8.8,,21,,,320,,,,,,,,,,,,,,,
07661,1999-09-01 14:00:00,23.4,1011.1,0.1,37,7.9,,14,,,290,,,,,,,,,,,,,,,
07661,1999-09-01 15:00:00,22.6,1011.2,0.7,38,7.6,46300,25,79.636,,300,,,,,,,,,,,,,,1,
07661,1999-09-01 16:00:00,21.5,1011,0,41,7.7,,23,68.524,,300,,,,,,,,,,,,,,,
07661,1999-09-01 17:00:00,20.5,1011.8,0.5,45,8.2,,16,,,300,,,,,,,,,,,,,,,
07661,1999-09-01 18:00:00,19.9,1012.1,0.8,45,7.6,,21,79.636,,300,16.4,23.7,,,,,,,,,,,,5,
07661,1999-09-01 20:00:00,18.5,1013.1,1.2,51,8.2,,8,,,300,,,,,,,,,,,,,,,
07661,1999-09-02 00:00:00,22,1013.4,-0.9,69,16,15000,11.112,,50.004,330,,,,,,,,,,,wg-a,,,,AAXX 02004 07661 32/65 03306 10220 20160 39977 40134 56009 80000 90000 333 91027=
07661,1999-09-02 06:00:00,21,1012.6,0.2,69,15,20000,14.816,,,70,19.4,24.3,,,,,,,,,wg-a,,,,AAXX 02064 07661 12/70 10708 10210 20150 39969 40126 53002 60004 80001 90600 333 10243 20194=
07661,1999-09-02 12:00:00,28,1013.7,0.5,55,18,20000,7.408,,,180,,,,,,,,,,,wg-a,,,,AAXX 02124 07661 32570 21804 10280 20180 39983 40137 53005 81202 91200=
07661,1999-09-02 18:00:00,25,1012.6,-0,69,19,18000,18.52,,,70,21.2,28.2,,,,,,,,,wg-a,,,,AAXX 02184 07661 32568 50710 10250 20190 39971 40126 55000 83202 91800 333 10282 20212=
07661,1999-09-03 00:00:00,21,1012.8,-0.3,78,17,12000,31.484,,,60,,,,,,,,,,,wg-a,,,,AAXX 03004 07661 32562 50617 10210 20170 39971 40128 57003 83202 90000=
07661,1999-09-03 06:00:00,17,1013.4,1.4,94,16,10000,31.484,,,60,17.3,24.5,,3,,,3,,,61,wg-a,,,,AAXX 03064 07661 02560 80617 10170 20160 39975 40134 53014 60034 76162 887// 90600 333 10245 20173 60037=
07661,1999-09-03 12:00:00,19,1014.2,0.3,88,17,10000,46.3,,68.524,70,,,,4,,,,,,60,wg-a,,,,AAXX 03124 07661 12560 80725 10190 20170 39983 40142 50003 60047 76062 887// 91200 333 91037=
07661,1999-09-03 18:00:00,17,1014.7,0.1,88,15,12000,22.224,,75.932,70,16.3,19.7,,2,,,,,,21,wg-a,,,,AAXX 03184 07661 12562 70712 10170 20150 39987 40147 50001 60027 72162 858// 91800 333 10197 20163 91041=
07661,1999-09-04 00:00:00,17,1016,-0.2,88,15,12000,18.52,,,70,,,,,,,,,,,wg-a,,,,AAXX 04004 07661 32562 50710 10170 20150 30000 40160 56002 85800 90000=
07661,1999-09-04 06:00:00,17,1015.9,0.5,77,13,20000,14.816,,,80,15.8,18,,,,,18,,,,wg-a,,,,AAXX 04064 07661 12670 10808 10170 20130 39999 40159 53005 60184 81200 90600 333 10180 20158=
07661,1999-09-04 12:00:00,25,1016.1,-0.5,47,13,20000,18.52,,,130,,,,,,,,,,,wg-a,,,,AAXX 04124 07661 32570 11310 10250 20130 30005 40161 58005 81300 91200=
07661,1999-09-04 18:00:00,21,1016.7,0.2,69,15,20000,11.112,,,160,16.9,25.1,,,,,,,,,wg-a,,,,AAXX 04184 07661 32670 51606 10210 20150 30009 40167 53002 84230 91800 333 10251 20169=
07661,1999-09-05 00:00:00,19,1017.3,-0.9,83,16,20000,14.816,,,80,,,,,,,,,,,wg-a,,,,AAXX 05004 07661 32670 30808 10190 20160 30014 40173 56009 83200 90000=
07661,1999-09-05 06:00:00,18,1017.7,0.5,88,16,20000,11.112,,,80,17,21.3,,,,,,,,,wg-a,,,,AAXX 05064 07661 12570 30806 10180 20160 30018 40177 53005 60004 81151 90600 333 10213 20170=
07661,1999-09-05 12:00:00,23,1018,-0.6,65,16,20000,14.816,,,160,,,,,,,,,,,wg-a,,,,AAXX 05124 07661 32570 51608 10230 20160 30023 40180 58006 84202 91200=
07661,1999-09-05 18:00:00,21,1016.8,-0.5,78,17,25000,11.112,,,120,18.4,24.3,,,,,,,,,wg-a,,,,AAXX 05184 07661 32575 51206 10210 20170 30010 40168 58005 82206 91800 333 10243 20184=
07661,1999-09-06 00:00:00,18,1017.4,-0.5,94,17,20000,11.112,,,80,,,,,,,,,,,wg-a,,,,AAXX 06004 07661 32/70 00806 10180 20170 30015 40174 58005 80000 90000=
07661,1999-09-06 06:00:00,18,1016.3,-0.7,88,16,17000,25.928,,,70,17.2,21.1,,,,,,,,,wg-a,,,,AAXX 06064 07661 12567 60714 10180 20160 30004 40163 55007 60004 83972 90600 333 10211 20172=
07661,1999-09-06 12:00:00,24,1016.4,-1,69,18,0,22.224,,,110,,,,,,,,,,,wg-a,,,,AAXX 06124 07661 32/// /1112 10240 20180 30008 40164 58010 91200=
07661,1999-09-06 18:00:00,22,1015.2,-2,65,15,25000,22.224,,,70,18,24.8,,,,,,,,,wg-a,,,,AAXX 06184 07661 32675 60712 10220 20150 39995 40152 56020 83432 91800 333 10248 20180=
07661,1999-09-07 00:00:00,19,1016,0,78,15,20000,14.816,,,80,,,,,,,,,,,wg-a,,,,AAXX 07004 07661 32/70 10808 10190 20150 30001 40160 50000 81400 90000=
07661,1999-09-07 06:00:00,19,1014.4,-0.2,83,16,20000,7.408,,,340,17.6,21.8,,,,,,,,,wg-a,,,,AAXX 07064 07661 12/70 73404 10190 20160 39985 40144 55002 60004 87070 90600 333 10218 20176=
07661,1999-09-07 12:00:00,25,1015.4,0.1,65,18,20000,14.816,,,210,,,,,,,,,,,wg-a,,,,AAXX 07124 07661 32570 52108 10250 20180 39999 40154 50001 83204 91200=
07661,1999-09-07 18:00:00,22,1015.5,0.2,78,18,15000,11.112,,,250,19,25.5,,,,,,,,,wg-a,,,,AAXX 07184 07661 32565 72506 10220 20180 39998 40155 53002 82270 91800 333 10255 20190=
07661,1999-09-08 00:00:00,20,1017.1,-0.1,88,18,10000,7.408,,,90,,,,,,,,,,,wg-a,,,,AAXX 08004 07661 32/60 00904 10200 20180 30012 40171 56001 80000 90000=
07661,1999-09-08 06:00:00,19,1017,-0.2,94,18,15000,18.52,,,70,18.4,22.3,,,,,,,,,wg-a,,,,AAXX 08064 07661 12665 10710 10190 20180 30011 40170 55002 60004 81110 90600 333 10223 20184=
07661,1999-09-08 12:00:00,27,1017.5,-0.2,66,20,12000,11.112,,,210,,,,,,,,,,,wg-a,,,,AAXX 08124 07661 32562 12106 10270 20200 30020 40175 58002 81200 91200=
07661,1999-09-08 18:00:00,23,1017.2,-0.2,83,20,10000,14.816,,,290,19.3,26.9,,,,,,,,,wg-a,,,,AAXX 08184 07661 32860 12908 10230 20200 30015 40172 55002 81040 91800 333 10269 20193=
07661,1999-09-09 00:00:00,22,1018.4,0.1,83,19,15000,7.408,,,310,,,,,,,,,,,wg-a,,,,AAXX 09004 07661 32865 13104 10220 20190 30026 40184 50001 81030 90000=
07661,1999-09-09 12:00:00,27,1020.3,-0.4,51,16,0,14.816,,,190,,,,,,,,,,,wg-a,,,,AAXX 09124 07661 32/// /1908 10270 20160 30048 40203 58004 91200=
07661,1999-09-09 18:00:00,24,1019.5,-0.4,74,19,10000,18.52,,,280,21.1,28.2,,,,,,,,,wg-a,,,,AAXX 09184 07661 32560 12810 10240 20190 30038 40195 55004 81100 91800 333 10282 20211=
07661,1999-09-10 00:00:00,21,1021.5,0.7,83,18,15000,7.408,,,60,,,,,,,,,,,wg-a,,,,AAXX 10004 07661 32/65 00604 10210 20180 30057 40215 51007 80000 90000=
07661,1999-09-10 06:00:00,21,1022.2,0.7,78,17,15000,18.52,,,80,19.9,23.5,,,,,,,,,wg-a,,,,AAXX 10064 07661 12665 10810 10210 20170 30063 40222 53007 60004 81100 90600 333 10235 20199=
07661,1999-09-10 12:00:00,27,1022.9,-0.3,58,18,0,14.816,,,130,,,,,,,,,,,wg-a,,,,AAXX 10124 07661 32/// /1308 10270 20180 30074 40229 58003 91200=
07661,1999-09-10 18:00:00,25,1021.4,-0.8,44,12,14000,7.408,,,300,20.7,27.8,,,,,,,,,wg-a,,,,AAXX 10184 07661 32864 23004 10250 20120 30057 40214 56008 82040 91800 333 10278 20207=
07661,1999-09-11 00:00:00,23,1021.8,-0.1,50,12,12000,11.112,,,70,,,,,,,,,,,wg-a,,,,AAXX 11004 07661 32/62 10706 10230 20120 30060 40218 58001 81040 90000=
07661,1999-09-11 06:00:00,21,1021.2,0.3,60,13,0,18.52,,,80,20.5,25.2,,,,,,,,,wg-a,,,,AAXX 11064 07661 32/// /0810 10210 20130 30053 40212 53003 90600 333 10252 20205=
07661,1999-09-11 12:00:00,27,1020.1,-0.9,54,17,14000,18.52,,,150,,,,,,,,,,,wg-a,,,,AAXX 11124 07661 32564 21510 10270 20170 30046 40201 58009 82200 91200=
07661,1999-09-11 18:00:00,24,1018.6,-0.5,57,15,12000,11.112,,,280,20.7,29,,,,,,,,,wg-a,,,,AAXX 11184 07661 32/62 22806 10240 20150 30030 40186 56005 82040 91800 333 10290 20207=
07661,1999-09-12 00:00:00,22,1019.2,-0.2,69,16,12000,3.704,,,40,,,,,,,,,,,wg-a,,,,AAXX 12004 07661 32/62 10402 10220 20160 30034 40192 56002 80001 90000=
07661,1999-09-12 06:00:00,21,1018,0.1,60,13,15000,18.52,,,80,20.7,24.3,,,,,,,,,wg-a,,,,AAXX 12064 07661 12565 40810 10210 20130 30022 40180 53001 60004 82130 90600 333 10243 20207=
07661,1999-09-12 12:00:00,28,1016.6,-1.4,51,17,12000,14.816,,,190,,,,,,,,,,,wg-a,,,,AAXX 12124 07661 32562 21908 10280 20170 30012 40166 57014 81130 91200=
07661,1999-09-12 18:00:00,23,1014.5,-0.8,73,18,0,11.112,,,260,20.4,28.4,,,,,,,,,wg-a,,,,AAXX 12184 07661 32/// /2606 10230 20180 39989 40145 56008 91800 333 10284 20204=
07661,1999-09-13 00:00:00,22,1013.7,-0.8,73,17,12000,7.408,,,190,,,,,,,,,,,wg-a,,,,AAXX 13004 07661 32/62 11904 10220 20170 39980 40137 58008 80001 90000=
07661,1999-09-13 06:00:00,20,1013.4,0.6,68,14,12000,11.112,,,80,18.9,23.3,,,,,,,,,wg-a,,,,AAXX 13064 07661 12/62 20806 10200 20140 39976 40134 53006 60004 80005 90600 333 10233 20189=
07661,1999-09-13 18:00:00,23,1011.9,-0.4,65,16,0,11.112,,,150,19.9,26.3,,,,,,,,,wg-a,,,,AAXX 13184 07661 32/// /1506 10230 20160 39963 40119 58004 91800 333 10263 20199=
07661,1999-09-14 00:00:00,19,1012.7,-0.4,83,16,10000,14.816,,,90,,,,,,,,,,,wg-a,,,,AAXX 14004 07661 32/60 00908 10190 20160 39969 40127 58004 80000 90000=
07661,1999-09-14 06:00:00,18,1013.5,0.4,88,16,6000,14.816,,,80,17.9,23.1,,,,,,,,,wg-a,,,,AAXX 14064 07661 12456 40808 10180 20160 39976 40135 53004 60004 84802 90600 333 10231 20179=
07661,1999-09-14 12:00:00,25,1014.1,-0.1,74,20,9000,14.816,,,130,,,,,,,,,,,wg-a,,,,AAXX 14124 07661 32459 71308 10250 20200 39986 40141 58001 82802 91200=
07661,1999-09-14 15:00:00,23.9,1013.1,-1.1,74,19,10000,18.52,,,110,,,,,,,,,,,og-post,,,,AAXX 14154 07661 32460 81110 10239 20190 39975 40131 55011 83802 333 92427=
07661,1999-09-14 16:00:00,23.8,1013.7,-0.5,74,18.9,,11.112,,,130,,,,,,,,,,,og-post,,,,AAXX 14164 07661 36/// /1306 10238 20189 39981 40137 55005=
07661,1999-09-14 17:00:00,23.3,1013.8,1,79,19.4,,11.112,,,110,,,,,,,,,,,og-post,,,,AAXX 14174 07661 36/// /1106 10233 20194 39982 40138 51010=
07661,1999-09-14 18:00:00,22.5,1013,-0.1,85,19.8,,14.816,,,100,18.5,25.7,,,,,,,,,og-post,,,,AAXX 14184 07661 36/// /1008 10225 20198 39974 40130 58001 333 10257 20185=
07661,1999-09-14 19:00:00,22.4,1013.3,-0.4,90,20.7,,25.928,,,70,,,,,,,,,,,og-post,,,,AAXX 14194 07661 36/// /0714 10224 20207 39977 40133 55004=
07661,1999-09-14 20:00:00,21.6,1013.1,-0.8,90,19.9,,29.632,,,60,,,,,,,,,,,og-post,,,,AAXX 14204 07661 36/// /0616 10216 20199 39974 40131 56008=
07661,1999-09-14 21:00:00,21.6,1012.9,-0.2,82,18.4,,31.484,,,70,,,,,,,,,,,og-post,,,,AAXX 14214 07661 36/// /0717 10216 20184 39972 40129 58002=
07661,1999-09-14 22:00:00,21.5,1011.9,-1.5,78,17.5,,35.188,,,60,,,,,,,,,,,og-post,,,,AAXX 14224 07661 36/// /0619 10215 20175 39962 40119 58015=
07661,1999-09-14 23:00:00,21.7,1012.1,-1,77,17.5,,29.632,,,70,,,,,,,,,,,og-post,,,,AAXX 14234 07661 36/// /0716 10217 20175 39964 40121 55010=
07661,1999-09-15 00:00:00,21.1,1011.9,-1,80,17.5,8000,29.632,,,60,,,,,,,,,,,og-post,,,,AAXX 15004 07661 32558 70616 10211 20175 39962 40119 56010 81606 333 92436=
07661,1999-09-15 01:00:00,21.4,1011.4,-0.5,80,17.8,,29.632,,,70,,,,,,,,,,,og-post,,,,AAXX 15014 07661 36/// /0716 10214 20178 39957 40114 58005=
07661,1999-09-15 02:00:00,21.1,1010.4,-1.7,79,17.3,,35.188,,,60,,,,,,,,,,,og-post,,,,AAXX 15024 07661 36/// /0619 10211 20173 39947 40104 58017=
07661,1999-09-15 03:00:00,21.2,1010.3,-1.6,74,16.4,8000,31.484,,,80,,,,,,,,,,,og-post,,,,AAXX 15034 07661 32858 60817 10212 20164 39946 40103 56016 86010 333 92436=
07661,1999-09-15 06:00:00,20,1009.1,-1.2,94,19,0,31.484,,,60,19.8,22.6,,4,,,,,,,wg-a,,,,AAXX 15064 07661 12/// /0617 10200 20190 39934 40091 58012 60047 90600 333 10226 20198=
07661,1999-09-15 12:00:00,19,1008.6,0.6,100,19,0,22.224,,,80,,,,3,,,,,,,wg-a,,,,AAXX 15124 07661 12/// /0812 10190 20190 39929 40086 53006 60037 91200=
07661,1999-09-15 18:00:00,19,1009.8,1.7,88,17,16000,29.632,,61.116,70,17.6,21,,3,,,,,,21,wg-a,,,,AAXX 15184 07661 12466 70716 10190 20170 39940 40098 51017 60037 72162 83963 91800 333 10210 20176 91033=
07661,1999-09-16 00:00:00,20,1011.8,0.6,78,16,10000,11.112,,,50,,,,,,,,,,,wg-a,,,,AAXX 16004 07661 32560 50506 10200 20160 39960 40118 51006 8/800 90000=
07661,1999-09-16 06:00:00,19,1011.3,0.2,88,17,18000,3.704,,,300,18.4,20.2,,,,,22,,,,wg-a,,,,AAXX 16064 07661 12568 23002 10190 20170 39955 40113 53002 60224 81130 90600 333 10202 20184=
07661,1999-09-16 12:00:00,24,1010.4,-0.8,61,16,15000,25.928,,,290,,,,,,,,,,,wg-a,,,,AAXX 16124 07661 32665 12914 10240 20160 39949 40104 58008 81100 91200=
07661,1999-09-16 18:00:00,21.2,1010,0.2,68,15.1,25000,31.484,68.524,,300,18.9,24.2,,,,,,,,,og-post,,,,AAXX 16184 07661 32975 13017 10212 20151 39943 40100 52002 80002 333 10242 20189 91137 92448=
07661,1999-09-16 19:00:00,21,1010.7,0.9,66,14.4,,25.928,,,290,,,,,,,,,,,og-post,,,,AAXX 16194 07661 36/// /2914 10210 20144 39950 40107 53009=
07661,1999-09-16 20:00:00,20.7,1011.1,1.1,67,14.4,,22.224,,,300,,,,,,,,,,,og-post,,,,AAXX 16204 07661 36/// /3012 10207 20144 39954 40111 53011=
07661,1999-09-16 21:00:00,20.1,1011.2,1.1,68,14,25000,14.816,,,290,,,,,,,,,,,og-post,,,,AAXX 16214 07661 32975 02908 10201 20140 39954 40112 51011 333 92438=
07661,1999-09-16 22:00:00,19.7,1011.3,0.5,71,14.3,,18.52,,,300,,,,,,,,,,,og-post,,,,AAXX 16224 07661 36/// /3010 10197 20143 39955 40113 51005=
07661,1999-09-16 23:00:00,19.3,1011.1,-0.1,74,14.6,,14.816,,,310,,,,,,,,,,,og-post,,,,AAXX 16234 07661 36/// /3108 10193 20146 39953 40111 58001=
07661,1999-09-17 00:00:00,18.9,1011.1,-0.1,78,15,20000,11.112,,,330,,,,,,,,,,,og-post,,,,AAXX 17004 07661 32970 03306 10189 20150 39953 40111 58001 333 92428=
07661,1999-09-17 01:00:00,19.3,1010.7,-0.6,78,15.4,,7.408,,,20,,,,,,,,,,,og-post,,,,AAXX 17014 07661 36/// /0204 10193 20154 39949 40107 58006=
07661,1999-09-17 02:00:00,18.8,1010.4,-0.7,73,13.9,,14.816,,,70,,,,,,,,,,,og-post,,,,AAXX 17024 07661 36/// /0708 10188 20139 39946 40104 58007=
07661,1999-09-17 03:00:00,19.6,1010.1,-1,66,13.1,25000,7.408,,,70,,,,,,,,,,,og-post,,,,AAXX 17034 07661 32975 00704 10196 20131 39943 40101 56010 222// 300// 333 92428=
07661,1999-09-17 04:00:00,17.6,1010,-0.8,84,14.9,,7.408,,,80,,,,,,,,,,,og-post,,,,AAXX 17044 07661 36/// /0804 10176 20149 39941 40100 56008=
07661,1999-09-17 05:00:00,18.6,1010.1,-0.3,79,14.9,,11.112,,,70,,,,,,,,,,,og-post,,,,AAXX 17054 07661 36/// /0706 10186 20149 39943 40101 55003=
07661,1999-09-17 06:00:00,19.1,1010.2,0.1,68,13.1,25000,18.52,,,60,17.6,21.2,,,,,0,,,,og-post,,,,AAXX 17064 07661 32575 30610 10191 20131 39944 40102 53001 81102 222// 300// 333 10212 20176 70000 92428=
07661,1999-09-17 07:00:00,19.7,1010.3,0.4,72,14.5,,14.816,,,80,,,,,,,,,,,og-post,,,,AAXX 17074 07661 36/// /0808 10197 20145 39945 40103 51004=
07661,1999-09-17 08:00:00,21.3,1010.4,0.4,70,15.6,,7.408,,,80,,,,,,,,,,,og-post,,,,AAXX 17084 07661 36/// /0804 10213 20156 39947 40104 53004=
07661,1999-09-17 09:00:00,23.5,1010.4,0.4,62,15.8,25000,7.408,,,80,,,,,,,,,,,og-post,,,,AAXX 17094 07661 32975 30804 10235 20158 39948 40104 52004 80002 222// 300// 333 92428=
07661,1999-09-17 11:00:00,24.3,1009.9,-0.3,70,18.5,,18.52,,,220,,,,,,,,,,,og-post,,,,AAXX 17114 07661 36/// /2210 10243 20185 39944 40099 58003=
07661,1999-09-17 12:00:00,24.5,1009.4,-0.9,63,17,,25.928,,,240,,,,,,,,,,,og-post,,,,AAXX 17124 07661 36/// /2414 10245 20170 39939 40094 58009=
07661,1999-09-17 13:00:00,25.2,1009.2,-1.2,52,14.6,,22.224,,,250,,,,,,,,,,,og-post,,,,AAXX 17134 07661 36/// /2512 10252 20146 39937 40092 56012=
07661,1999-09-17 14:00:00,25.6,1008.7,-1.1,49,14.1,,11.112,,,260,,,,,,,,,,,og-post,,,,AAXX 17144 07661 36/// /2606 10256 20141 39933 40087 56011=
07661,1999-09-17 15:00:00,25,1008.5,-0.8,63,17.5,,14.816,,,290,,,,,,,,,,,og-post,,,,AAXX 17154 07661 36/// /2908 10250 20175 39931 40085 57008=
07661,1999-09-17 16:00:00,24,1008.4,-0.8,67,17.5,,18.52,,,230,,,,,,,,,,,og-post,,,,AAXX 17164 07661 36/// /2310 10240 20175 39929 40084 56008=
07661,1999-09-17 17:00:00,22.8,1008.6,-0.3,69,16.8,,18.52,,,240,,,,,,,,,,,og-post,,,,AAXX 17174 07661 36/// /2410 10228 20168 39930 40086 55003=
07661,1999-09-17 18:00:00,21.2,1008.7,-0,76,16.8,15000,14.816,,,260,19,25.7,,,,,,,,,og-post,,,,AAXX 17184 07661 32965 32608 10212 20168 39931 40087 55000 80002 222// 300// 333 10257 20190 92427=
07661,1999-09-17 19:00:00,21.2,1009.1,0.6,81,17.8,,22.224,,,260,,,,,,,,,,,og-post,,,,AAXX 17194 07661 36/// /2612 10212 20178 39935 40091 53006=
07661,1999-09-18 00:00:00,21,1008.4,-0.7,64,14,20000,14.816,,,280,,,,,,,,,,,wg-a,,,,AAXX 18004 07661 32/70 32808 10210 20140 39927 40084 58007 83010 90000=
07661,1999-09-18 06:00:00,19,1008.5,0.5,73,14,20000,7.408,,,60,18.1,21.7,,,,,,,,,wg-a,,,,AAXX 18064 07661 12670 80604 10190 20140 39927 40085 53005 60004 84570 90600 333 10217 20181=
07661,1999-09-18 12:00:00,24,1007.9,-0.9,61,16,20000,18.52,,,220,,,,,,,,,,,wg-a,,,,AAXX 18124 07661 32470 52210 10240 20160 39924 40079 57009 84301 91200=
07661,1999-09-18 18:00:00,21,1008.4,0,69,15,25000,3.704,,,200,18.5,25.7,,,,,,,,,wg-a,,,,AAXX 18184 07661 32575 62002 10210 20150 39927 40084 50000 8/800 91800 333 10257 20185=
07661,1999-09-19 00:00:00,19,1008.2,-0.8,88,17,20000,18.52,,,70,,,,,,,,,,,wg-a,,,,AAXX 19004 07661 32570 30710 10190 20170 39924 40082 56008 82801 90000=
07661,1999-09-19 06:00:00,19,1005.8,-1.2,88,17,11000,29.632,,,70,18.3,20.6,,0,,,,,,60,wg-a,,,,AAXX 19064 07661 02461 80716 10190 20170 39901 40058 55012 60004 76022 88900 90600 333 10206 20183 60007=
07661,1999-09-19 12:00:00,23,1003.2,-1.4,89,21,10000,31.484,,61.116,150,,,,1,,,,,,,wg-a,,,,AAXX 19124 07661 12460 81517 10230 20210 39877 40032 55014 60017 85772 91200 333 91033=
07661,1999-09-19 18:00:00,22,999.8,-1.8,88,20,10000,42.596,,83.34,170,18.4,24.1,,3,,,,,,62,wg-a,,,,AAXX 19184 07661 12460 81723 10220 20200 39844 49998 58018 60037 76296 887// 91800 333 10241 20184 91045=
07661,1999-09-20 00:00:00,20,998,-0.9,83,17,8000,68.524,,107.416,180,,,,11,,,,,,60,wg-a,,,,AAXX 20004 07661 12458 81837 10200 20170 39825 49980 58009 60117 76062 887// 90000 333 91058=
07661,1999-09-20 18:00:00,19,1004.1,0.5,64,12,500,18.52,,,240,16.7,22.8,,,,,,,,,wg-a,,,,AAXX 20184 07661 32500 42410 10190 20120 39884 40041 51005 84200 91800 333 10228 20167=
07661,1999-09-21 00:00:00,16,1006.3,0.3,77,12,40000,14.816,,,70,,,,,,,,,,,wg-a,,,,AAXX 21004 07661 32582 40708 10160 20120 39904 40063 53003 84200 90000=
07661,1999-09-21 06:00:00,16,1008.1,1.8,72,11,40000,7.408,,,300,14.6,19.1,,0,,,1,,,1,wg-a,,,,AAXX 21064 07661 02/82 03004 10160 20110 39921 40081 53018 60014 70196 80000 90600 333 10191 20146 60007=
07661,1999-09-21 12:00:00,23,1010.3,0.9,57,14,0,18.52,,,220,,,,,,,,,,,wg-a,,,,AAXX 21124 07661 32/// /2210 10230 20140 39947 40103 51009 91200=
07661,1999-09-21 18:00:00,20,1011.3,0.5,68,14,20000,11.112,,,230,15.5,24,,,,,,,,,wg-a,,,,AAXX 21184 07661 32570 62306 10200 20140 39955 40113 51005 81170 91800 333 10240 20155=
07661,1999-09-22 00:00:00,21,1012.6,0.1,83,18,20000,18.52,,,190,,,,,,,,,,,wg-a,,,,AAXX 22004 07661 32470 61910 10210 20180 39969 40126 50001 85202 90000=
07661,1999-09-22 06:00:00,22,1013.5,0.8,83,19,15000,25.928,,,180,19.4,21.8,,,,,1,,,,wg-a,,,,AAXX 22064 07661 12565 51814 10220 20190 39978 40135 53008 60014 84251 90600 333 10218 20194=
07661,1999-09-22 12:00:00,24,1015.6,0.3,74,19,20000,18.52,,,150,,,,,,,,,,,wg-a,,,,AAXX 22124 07661 32570 61510 10240 20190 30000 40156 51003 8624/ 91200=
07661,1999-09-22 18:00:00,22,1015.5,0.5,83,19,0,18.52,,,160,21.8,25,,,,,,,,,wg-a,,,,AAXX 22184 07661 32/// /1610 10220 20190 39998 40155 52005 91800 333 10250 20218=
07661,1999-09-23 00:00:00,22,1016.5,-0.1,83,19,15000,22.224,,,110,,,,,,,,,,,wg-a,,,,AAXX 23004 07661 32565 71112 10220 20190 30008 40165 57001 87441 90000=
07661,1999-09-23 06:00:00,21,1016.2,0.2,88,19,20000,25.928,,,90,20.9,22,,,,,,,,,wg-a,,,,AAXX 23064 07661 12470 60914 10210 20190 30005 40162 53002 60004 86800 90600 333 10220 20209=
07661,1999-09-23 12:00:00,23,1017.6,-0.1,78,19,25000,22.224,,,90,,,,,,,,,,,wg-a,,,,AAXX 23124 07661 32575 50912 10230 20190 30019 40176 57001 85502 91200=
07661,1999-09-23 18:00:00,22,1017.9,0.7,94,21,18000,18.52,,,80,21.3,23.7,,,,,,,,,wg-a,,,,AAXX 23184 07661 32468 80810 10220 20210 30022 40179 53007 8561/ 91800 333 10237 20213=
07661,1999-09-24 00:00:00,21,1019.5,0,94,20,15000,14.816,,,80,,,,,,,,,,,wg-a,,,,AAXX 24004 07661 32465 60808 10210 20200 30037 40195 50000 8561/ 90000=
07661,1999-09-24 06:00:00,19,1020,0.9,100,19,0,14.816,,,70,19,22.2,,,,,,,,,wg-a,,,,AAXX 24064 07661 32/// /0708 10190 20190 30041 40200 52009 90600 333 10222 20190=
07661,1999-09-24 12:00:00,24,1020.7,-0.3,78,20,15000,14.816,,,120,,,,,,,,,,,wg-a,,,,AAXX 24124 07661 32465 41208 10240 20200 30050 40207 58003 83501 91200=
07661,1999-09-24 18:00:00,22,1019.2,-0.3,88,20,15000,14.816,,,120,19.1,24.2,,,,,,,,,wg-a,,,,AAXX 24184 07661 32565 41208 10220 20200 30034 40192 55003 83801 91800 333 10242 20191=
07661,1999-09-25 00:00:00,20,1018.8,-0.7,94,19,12000,18.52,,,70,,,,,,,,,,,wg-a,,,,AAXX 25004 07661 32462 70710 10200 20190 30030 40188 58007 83630 90000=
07661,1999-09-25 06:00:00,20,1016.4,-0.4,94,19,15000,25.928,,,70,20.1,21.6,,,,,,,,,wg-a,,,,AAXX 25064 07661 12565 80714 10200 20190 30006 40164 57004 60004 8651/ 90600 333 10216 20201=
07661,1999-09-25 12:00:00,23,1015.3,-1.3,89,21,14000,14.816,,,80,,,,,,,,,,,wg-a,,,,AAXX 25124 07661 32564 70808 10230 20210 39997 40153 56013 83201 91200=
07661,1999-09-25 18:00:00,22,1013.2,-0.9,94,21,7000,11.112,,,110,20.5,23.9,,,,,,,,,wg-a,,,,AAXX 25184 07661 32457 81106 10220 20210 39976 40132 55009 887// 91800 333 10239 20205=
07661,1999-09-26 00:00:00,22,1012.1,-1.5,100,22,500,11.112,,,170,,,,,,,,,,,wg-a,,,,AAXX 26004 07661 32300 81706 10220 20220 39965 40121 58015 887// 90000=
07661,1999-09-26 06:00:00,21,1011.5,0.2,88,19,10000,14.816,,,270,20.6,22.3,,,,,,,,,wg-a,,,,AAXX 26064 07661 12360 62708 10210 20190 39958 40115 53002 60004 86700 90600 333 10223 20206=
07661,1999-09-26 12:00:00,25,1012.2,-0.3,57,16,20000,18.52,,,240,,,,,,,,,,,wg-a,,,,AAXX 26124 07661 32570 62410 10250 20160 39967 40122 58003 86261 91200=
07661,1999-09-26 18:00:00,21,1011.8,0.2,73,16,35000,22.224,,,280,20.6,24.8,,,,,,,,,wg-a,,,,AAXX 26184 07661 32581 32812 10210 20160 39961 40118 53002 81261 91800 333 10248 20206=
07661,1999-09-27 00:00:00,19,1013.5,-0.1,78,15,15000,18.52,,,300,,,,,,,,,,,wg-a,,,,AAXX 27004 07661 32/65 13010 10190 20150 39976 40135 58001 80001 90000=
07661,1999-09-27 06:00:00,18,1013.3,0.5,83,15,500,7.408,,,290,17.2,20.6,,,,,,,,,wg-a,,,,AAXX 27064 07661 12500 42904 10180 20150 39974 40133 53005 60004 82201 90600 333 10206 20172=
07661,1999-09-27 12:00:00,24,1014,-0.5,69,18,500,11.112,,,210,,,,,,,,,,,wg-a,,,,AAXX 27124 07661 32500 62106 10240 20180 39984 40140 58005 83232 91200=
07661,1999-09-27 18:00:00,22,1012.1,-0.5,78,18,20000,18.52,,,190,17.7,24.7,,,,,,,,13,wg-a,,,,AAXX 27184 07661 32470 71910 10220 20180 39964 40121 57005 71322 85330 91800 333 10247 20177=
07661,1999-09-27 20:00:00,21.7,1012.1,-0.3,79,17.9,,25.928,,,220,,,,,,,,,,,og-post,,,,AAXX 27204 07661 36/// /2214 10217 20179 39964 40121 55003=
07661,1999-09-27 22:00:00,21.6,1011.6,0.1,78,17.6,,35.188,,,240,,,,,,,,,,,og-post,,,,AAXX 27224 07661 36/// /2419 10216 20176 39959 40116 50001=
07661,1999-09-27 23:00:00,21.3,1011.3,-0.8,84,18.5,,22.224,,,240,,,,,,,,,,,og-post,,,,AAXX 27234 07661 36/// /2412 10213 20185 39956 40113 56008=
07661,1999-09-28 00:00:00,20.9,1011.4,-0.3,85,18.3,15000,29.632,,,280,,,,,,,,,,60,og-post,,,,AAXX 28004 07661 21465 72816 10209 20183 39957 40114 55003 76022 85330 333 69907 92437=
07661,1999-09-28 01:00:00,20,1010.8,-0.8,80,16.4,,22.224,,,290,,,,,,,,,,,og-post,,,,AAXX 28014 07661 26/// /2912 10200 20164 39951 40108 58008 333 69905=
07661,1999-09-28 02:00:00,18.7,1011,-0.4,88,16.7,,11.112,,,60,,,,,,,,,,,og-post,,,,AAXX 28024 07661 36/// /0606 10187 20167 39952 40110 57004=
07661,1999-09-28 03:00:00,18.1,1010.9,-0.6,91,16.6,15000,3.704,,,330,,,,,,,,,,13,og-post,,,,AAXX 28034 07661 21465 73302 10181 20166 39951 40109 56006 71322 81330 333 69907 92437=
07661,1999-09-28 04:00:00,18.5,1011.3,0.4,92,17.2,,11.112,,,340,,,,,,,,,,,og-post,,,,AAXX 28044 07661 36/// /3406 10185 20172 39955 40113 53004=
07661,1999-09-28 05:00:00,18.4,1011.6,0.5,80,14.9,,7.408,,,320,,,,,,,,,,,og-post,,,,AAXX 28054 07661 36/// /3204 10184 20149 39957 40116 53005=
07661,1999-09-28 06:00:00,19.1,1011.9,1,74,14.4,25000,29.632,,,300,17.6,21.8,,,,,,,,1,og-post,,,,AAXX 28064 07661 41675 43016 10191 20144 39961 40119 52010 70161 82440 333 10218 20176 92438=
07661,1999-09-28 09:00:00,20.9,1013.1,1.2,61,13.1,30000,31.484,,,300,,,,,,,,,,,og-post,,,,AAXX 28094 07661 32580 23017 10209 20131 39973 40131 53012 81140 333 92438=
07661,1999-09-28 12:00:00,22,1012.4,-0.6,52,11.7,30000,42.596,61.116,,290,,,,,,,,,,,og-post,,,,AAXX 28124 07661 32580 22923 10220 20117 39967 40124 58006 81140 333 91133 92448=
07661,1999-09-28 14:00:00,21.8,1011.5,-1.9,63,14.4,,50.004,79.636,79.636,290,,,,,,,,,,,og-post,,,,AAXX 28144 07661 36/// /2927 10218 20144 39958 40115 56019 333 91043 91143=
07661,1999-09-28 15:00:00,21.9,1011.9,-0.5,64,14.8,30000,50.004,83.34,75.932,290,,,,,,,,,,,og-post,,,,AAXX 28154 07661 32580 22927 10219 20148 39962 40119 55005 82100 333 91041 91145 92448=
07661,1999-09-28 16:00:00,21.7,1012.2,0.4,64,14.6,,46.3,75.932,,290,,,,,,,,,,,og-post,,,,AAXX 28164 07661 36/// /2925 10217 20146 39965 40122 53004 333 91141=
07661,1999-09-28 18:00:00,21.7,1012.6,0.7,55,12.3,30000,38.892,83.34,,300,19,22.2,,,,,,,,,og-post,,,,AAXX 28184 07661 32580 13021 10217 20123 39969 40126 51007 81400 333 10222 20190 91145 92448=
07661,1999-09-28 20:00:00,20.4,1014.1,1.6,55,11.1,,29.632,,,310,,,,,,,,,,,og-post,,,,AAXX 28204 07661 36/// /3116 10204 20111 39983 40141 52016=
07661,1999-09-28 21:00:00,19.8,1014.6,1.8,57,11,30000,29.632,,,300,,,,,,,,,,,og-post,,,,AAXX 28214 07661 32980 03016 10198 20110 39987 40146 51018 333 92448=
07661,1999-09-28 22:00:00,19.4,1014.8,0.8,57,10.7,,29.632,,,300,,,,,,,,,,,og-post,,,,AAXX 28224 07661 36/// /3016 10194 20107 39989 40148 52008=
07661,1999-09-28 23:00:00,19.5,1014.7,0.5,57,10.8,,29.632,,,280,,,,,,,,,,,og-post,,,,AAXX 28234 07661 36/// /2816 10195 20108 39988 40147 50005=
07661,1999-09-29 00:00:00,19.5,1014.4,-0.2,55,10.2,30000,29.632,,,280,,,,,,,,,,,og-post,,,,AAXX 29004 07661 32980 02816 10195 20102 39985 40144 58002 333 92438=
07661,1999-09-29 01:00:00,19.4,1014.2,-0.6,54,9.9,,29.632,,,290,,,,,,,,,,,og-post,,,,AAXX 29014 07661 36/// /2916 10194 20099 39983 40142 58006=
07661,1999-09-29 02:00:00,19.4,1013.6,-1.1,53,9.6,,35.188,,,290,,,,,,,,,,,og-post,,,,AAXX 29024 07661 36/// /2919 10194 20096 39977 40136 58011=
07661,1999-09-29 03:00:00,19,1013.8,-0.6,56,10,30000,31.484,,,310,,,,,,,,,,,og-post,,,,AAXX 29034 07661 32980 03117 10190 20100 39979 40138 55006 333 92448=
07661,1999-09-29 04:00:00,18.7,1013.9,-0.3,59,10.5,,31.484,,,300,,,,,,,,,,,og-post,,,,AAXX 29044 07661 36/// /3017 10187 20105 39980 40139 55003=
07661,1999-09-29 05:00:00,18.5,1014.1,0.5,59,10.3,,25.928,,,290,,,,,,,,,,,og-post,,,,AAXX 29054 07661 36/// /2914 10185 20103 39982 40141 52005=
07661,1999-09-29 07:00:00,19,1014.9,1,58,10.6,,31.484,,,300,,,,,,,,,,,og-post,,,,AAXX 29074 07661 36/// /3017 10190 20106 39990 40149 53010=
07661,1999-09-29 08:00:00,20.1,1015,1,55,10.8,,31.484,,,290,,,,,,,,,,,og-post,,,,AAXX 29084 07661 36/// /2917 10201 20108 39992 40150 53010=
07661,1999-09-29 09:00:00,21.3,1015.4,1.4,57,12.4,25000,31.484,,,290,,,,,,,,,,,og-post,,,,AAXX 29094 07661 32975 12917 10213 20124 39996 40154 51014 80001 333 92448=
07661,1999-09-29 10:00:00,22.3,1014.5,-0.2,50,11.4,,38.892,,,300,,,,,,,,,,,og-post,,,,AAXX 29104 07661 36/// /3021 10223 20114 39988 40145 58002=
07661,1999-09-29 11:00:00,22.9,1014.7,-0.2,45,10.3,,29.632,,50.004,280,,,,,,,,,,,og-post,,,,AAXX 29114 07661 36/// /2816 10229 20103 39990 40147 58002 333 91027=
07661,1999-09-29 12:00:00,23.8,1014,-1.2,41,9.8,25000,35.188,,,290,,,,,,,,,,,og-post,,,,AAXX 29124 07661 32975 02919 10238 20098 39984 40140 56012 333 92448=
07661,1999-09-29 13:00:00,24.5,1013.6,-0.8,41,10.4,,31.484,,,290,,,,,,,,,,,og-post,,,,AAXX 29134 07661 36/// /2917 10245 20104 39980 40136 58008=
07661,1999-09-29 14:00:00,24.7,1013,-1.6,35,8.2,,31.484,,,290,,,,,,,,,,,og-post,,,,AAXX 29144 07661 36/// /2917 10247 20082 39974 40130 57016=
07661,1999-09-29 15:00:00,24.1,1012.8,-1.2,51,13.3,30000,25.928,,,280,,,,,,,,,,,og-post,,,,AAXX 29154 07661 32980 02814 10241 20133 39972 40128 56012 333 92438=
07661,1999-09-29 16:00:00,22.7,1012.6,-1.1,56,13.5,,29.632,,,270,,,,,,,,,,,og-post,,,,AAXX 29164 07661 36/// /2716 10227 20135 39969 40126 56011=
07661,1999-09-29 17:00:00,21.2,1012.6,-0.5,72,16,,25.928,,,270,,,,,,,,,,,og-post,,,,AAXX 29174 07661 36/// /2714 10212 20160 39969 40126 56005=
07661,1999-09-29 18:00:00,20.2,1012.6,-0.4,81,16.8,25000,22.224,,,280,18.9,24.9,,,,,,,,,og-post,,,,AAXX 29184 07661 32975 12812 10202 20168 39968 40126 56004 81040 333 10249 20189 92438=
07661,1999-09-29 19:00:00,19.7,1012.3,-0.4,85,17.1,,18.52,,,300,,,,,,,,,,,og-post,,,,AAXX 29194 07661 36/// /3010 10197 20171 39965 40123 58004=
07661,1999-09-29 20:00:00,19.5,1012.4,-0.3,82,16.3,,18.52,,,280,,,,,,,,,,,og-post,,,,AAXX 29204 07661 36/// /2810 10195 20163 39966 40124 55003=
07661,1999-09-29 21:00:00,19.1,1012.3,-0.3,80,15.6,25000,14.816,,,300,,,,,,,,,,,og-post,,,,AAXX 29214 07661 32975 03008 10191 20156 39965 40123 56003 333 92438=
07661,1999-09-29 22:00:00,19.4,1011.9,-0.4,80,15.9,,11.112,,,310,,,,,,,,,,,og-post,,,,AAXX 29224 07661 36/// /3106 10194 20159 39961 40119 58004=
07661,1999-09-29 23:00:00,20,1011.5,-0.9,80,16.4,,,,,,,,,,,,,,,,og-post,,,,AAXX 29234 07661 36/// /0000 10200 20164 39957 40115 58009=
07661,1999-09-30 00:00:00,18,1010.6,-1.8,85,15.4,25000,11.112,,,80,,,,,,,,,,,og-post,,,,AAXX 30004 07661 32975 00806 10180 20154 39947 40106 58018 333 92428=
07661,1999-09-30 01:00:00,18,1009.8,-2.1,84,15.3,,18.52,,,90,,,,,,,,,,,og-post,,,,AAXX 30014 07661 36/// /0910 10180 20153 39940 40098 58021=
07661,1999-09-30 02:00:00,18.5,1009,-2.5,83,15.6,,14.816,,,90,,,,,,,,,,,og-post,,,,AAXX 30024 07661 36/// /0908 10185 20156 39932 40090 56025=
07661,1999-09-30 03:00:00,18.7,1008.2,-2.3,85,16.1,20000,18.52,,,90,,,,,,,,,,,og-post,,,,AAXX 30034 07661 32570 30910 10187 20161 39924 40082 58023 83100 333 92428=
07661,1999-09-30 04:00:00,18.6,1007.5,-2.3,88,16.6,,14.816,,,90,,,,,,,,,,,og-post,,,,AAXX 30044 07661 36/// /0908 10186 20166 39917 40075 56023=
07661,1999-09-30 05:00:00,18.8,1006.8,-2.1,92,17.5,,14.816,,,80,,,,,,,,,,,og-post,,,,AAXX 30054 07661 36/// /0808 10188 20175 39911 40068 56021=
07661,1999-09-30 06:00:00,19.8,1006.6,-1.5,95,19,14000,7.408,,,80,17.9,20.3,,,,,0,,,,og-post,,,,AAXX 30064 07661 32464 80804 10198 20190 39909 40066 56015 88700 333 10203 20179 70000 92427=
07661,1999-09-30 07:00:00,21.4,1006.4,-0.9,96,20.7,,18.52,,,160,,,,,,,,,,,og-post,,,,AAXX 30074 07661 36/// /1610 10214 20207 39908 40064 56009=
07661,1999-09-30 08:00:00,21.9,1006.2,-0.4,91,20.4,,18.52,,,170,,,,,,,,,,,og-post,,,,AAXX 30084 07661 36/// /1710 10219 20204 39907 40062 56004=
07661,1999-09-30 09:00:00,22.3,1006.2,-0.2,88,20.2,,22.224,,,180,,,,,,,,,,,og-post,,,,AAXX 30094 07661 36/// /1812 10223 20202 39907 40062 56002=
07661,1999-09-30 10:00:00,22.3,1005.4,-0.9,91,20.8,,18.52,,,200,,,,,,,,,,,og-post,,,,AAXX 30104 07661 36/// /2010 10223 20208 39899 40054 58009=
07661,1999-09-30 11:00:00,22.6,1004.6,-1.6,76,18.2,,31.484,57.412,53.708,290,,,,,,,,,,,og-post,,,,AAXX 30114 07661 36/// /2917 10226 20182 39891 40046 58016 333 91029 91131=
07661,1999-09-30 12:00:00,23,1004.1,-2.1,55,13.5,18000,42.596,72.228,,320,,,,,,,,,,,og-post,,,,AAXX 30124 07661 32468 63223 10230 20135 39886 40041 56021 83730 333 91139 92437=
07661,1999-09-30 13:00:00,21.5,1004.7,-0.8,50,10.6,,50.004,,72.228,310,,,0.2,,,,,,,,og-post,,,,AAXX 30134 07661 26/// /3127 10215 20106 39891 40047 55008 333 69925 91039=
07661,1999-09-30 14:00:00,20.1,1005.1,0.3,53,10.2,,31.484,,,300,,,,,,,,,,,og-post,,,,AAXX 30144 07661 36/// /3017 10201 20102 39894 40051 53003=
07661,1999-09-30 15:00:00,18.5,1005.7,1.3,55,9.3,20000,57.412,83.34,,300,,,,0.2,,,,,,,og-post,,,,AAXX 30154 07661 22470 63031 10185 20093 39899 40057 52013 82230 333 69927 91145 92448=
07661,1999-09-30 16:00:00,19,1006.2,1.3,59,10.8,,50.004,,,300,,,,,,,,,,,og-post,,,,AAXX 30164 07661 36/// /3027 10190 20108 39904 40062 53013=
07661,1999-09-30 17:00:00,19.2,1006.8,1.6,54,9.7,,42.596,,,300,,,,,,,,,,,og-post,,,,AAXX 30174 07661 36/// /3023 10192 20097 39910 40068 53016=
07661,1999-09-30 18:00:00,18.8,1007.3,1.6,59,10.6,25000,38.892,83.34,,300,18.2,23.5,,,,0.2,,,,,og-post,,,,AAXX 30184 07661 12475 23021 10188 20106 39915 40073 52016 69922 82200 333 10235 20182 91145 92448=
07661,1999-09-30 19:00:00,19,1007.4,1.2,63,11.8,,42.596,68.524,,300,,,,,,,,,,,og-post,,,,AAXX 30194 07661 36/// /3023 10190 20118 39916 40074 51012 333 91137=
07661,1999-09-30 20:00:00,18.6,1008.4,1.6,64,11.7,,42.596,68.524,61.116,300,,,,,,,,,,,og-post,,,,AAXX 30204 07661 36/// /3023 10186 20117 39926 40084 53016 333 91033 91137=
07661,1999-09-30 21:00:00,18.5,1008.2,0.9,60,10.6,25000,53.708,79.636,79.636,300,,,,,,,,,,,og-post,,,,AAXX 30214 07661 32975 03029 10185 20106 39924 40082 50009 333 91043 91143 92448=
07661,1999-09-30 22:00:00,18.1,1009.5,2,62,10.7,,35.188,,,300,,,,,,,,,,,og-post,,,,AAXX 30224 07661 36/// /3019 10181 20107 39936 40095 53020=
07661,1999-09-30 23:00:00,18,1009.7,1.2,63,10.9,,50.004,72.228,72.228,300,,,,,,,,,,,og-post,,,,AAXX 30234 07661 36/// /3027 10180 20109 39938 40097 53012 333 91039 91139=
07661,1999-10-01 00:00:00,17.8,1010.2,1.9,64,10.9,25000,50.004,79.636,,290,,,,,,,,,,,og-post,,,,AAXX 01004 07661 32975 02927 10178 20109 39943 40102 51019 333 91143 92448=
07661,1999-10-01 01:00:00,17.5,1011,1.5,64,10.6,,46.3,,,300,,,,,,,,,,,og-post,,,,AAXX 01014 07661 36/// /3025 10175 20106 39951 40110 53015=
07661,1999-10-01 02:00:00,17,1011.5,1.7,66,10.6,,38.892,,,300,,,,,,,,,,,og-post,,,,AAXX 01024 07661 36/// /3021 10170 20106 39955 40115 51017=
07661,1999-10-01 03:00:00,17.1,1010.7,0.5,64,10.2,20000,53.708,,,300,,,,,,,,,,,og-post,,,,AAXX 01034 07661 32470 13029 10171 20102 39948 40107 50005 81100 333 92448=
07661,1999-10-01 04:00:00,16.8,1010.2,-0.8,66,10.4,,57.412,,,300,,,,,,,,,,,og-post,,,,AAXX 01044 07661 36/// /3031 10168 20104 39943 40102 58008=
07661,1999-10-01 05:00:00,16.6,1010.8,-0.7,67,10.5,,57.412,,,300,,,,,,,,,,,og-post,,,,AAXX 01054 07661 36/// /3031 10166 20105 39948 40108 55007=
07661,1999-10-01 06:00:00,16.4,1011.1,0.3,69,10.7,30000,61.116,,,310,16.4,19.2,,,,,0.2,,,,og-post,,,,AAXX 01064 07661 32480 13133 10164 20107 39951 40111 53003 81100 333 10192 20164 70002 92448=
07661,1999-10-01 07:00:00,16.9,1010.8,0.5,65,10.3,,64.82,,,310,,,,,,,,,,,og-post,,,,AAXX 01074 07661 36/// /3135 10169 20103 39948 40108 50005=
07661,1999-10-01 08:00:00,17.1,1010.6,-0.1,63,10,,72.228,90.748,90.748,310,,,,,,,,,,,og-post,,,,AAXX 01084 07661 36/// /3139 10171 20100 39947 40106 58001 333 91049 91149=
07661,1999-10-01 09:00:00,18.8,1009.8,-1.1,54,9.3,40000,83.34,111.12,107.416,310,,,,,,,,,,,og-post,,,,AAXX 01094 07661 32582 33145 10188 20093 39940 40098 58011 81102 333 91058 91160 92458=
07661,1999-10-01 10:00:00,20.3,1011.9,1.3,46,8.3,,42.596,103.712,,300,,,,,,,,,,,og-post,,,,AAXX 01104 07661 36/// /3023 10203 20083 39961 40119 53013 333 91156=
07661,1999-10-01 11:00:00,20.7,1011.2,0.7,46,8.7,,53.708,79.636,72.228,300,,,,,,,,,,,og-post,,,,AAXX 01114 07661 36/// /3029 10207 20087 39954 40112 52007 333 91039 91143=
07661,1999-10-01 12:00:00,21.5,1010.5,0.8,46,9.4,40000,57.412,111.12,79.636,310,,,,,,,,,,,og-post,,,,AAXX 01124 07661 32982 13131 10215 20094 39948 40105 50008 80002 333 91043 91160 92458=
07661,1999-10-01 13:00:00,22.7,1011,-0.8,41,8.8,,38.892,,,320,,,,,,,,,,,og-post,,,,AAXX 01134 07661 36/// /3221 10227 20088 39953 40110 55008=
07661,1999-10-01 14:00:00,23.4,1011.1,0.1,37,7.9,,25.928,,,290,,,,,,,,,,,og-post,,,,AAXX 01144 07661 36/// /2914 10234 20079 39955 40111 53001=
07661,1999-10-01 15:00:00,22.6,1011.2,0.7,38,7.6,40000,46.3,79.636,,300,,,,,,,,,,,og-post,,,,AAXX 01154 07661 32982 13025 10226 20076 39955 40112 51007 80002 333 91143 92448=
07661,1999-10-01 16:00:00,21.5,1011,0,41,7.7,,42.596,68.524,,300,,,,,,,,,,,og-post,,,,AAXX 01164 07661 36/// /3023 10215 20077 39953 40110 50000 333 91137=
07661,1999-10-01 17:00:00,20.5,1011.8,0.5,45,8.2,,29.632,,,300,,,,,,,,,,,og-post,,,,AAXX 01174 07661 36/// /3016 10205 20082 39960 40118 53005=
07661,1999-10-01 18:00:00,19.9,1012.1,0.8,45,7.6,25000,38.892,79.636,,300,16.4,23.7,,,,,,,,,og-post,,,,AAXX 01184 07661 32875 53021 10199 20076 39963 40121 53008 83072 333 10237 20164 91143 92448=
07661,1999-10-01 20:00:00,18.5,1013.1,1.2,51,8.2,,14.816,,,300,,,,,,,,,,,og-post,,,,AAXX 01204 07661 36/// /3008 10185 20082 39972 40131 53012=
07661,1999-10-02 00:00:00,16.1,1013.4,-0,63,9.1,,11.112,,,310,,,,,,,,,,,og-post,,,,AAXX 02004 07661 36/// /3106 10161 20091 39974 40134 54000=
07661,1999-10-02 01:00:00,16.3,1013.7,0.4,60,8.5,,11.112,,,310,,,,,,,,,,,og-post,,,,AAXX 02014 07661 36/// /3106 10163 20085 39977 40137 53004=
07661,1999-10-02 02:00:00,16.3,1013.1,-0.4,66,9.9,,7.408,,,10,,,,,,,,,,,og-post,,,,AAXX 02024 07661 36/// /0104 10163 20099 39971 40131 58004=
07661,1999-10-02 03:00:00,16.9,1013.4,-0,61,9.3,25000,3.704,,,130,,,,,,,,,,,og-post,,,,AAXX 02034 07661 32875 51302 10169 20093 39974 40134 54000 85030 333 92438=
07661,1999-10-02 04:00:00,16.7,1013.5,-0.2,59,8.7,,7.408,,,300,,,,,,,,,,,og-post,,,,AAXX 02044 07661 36/// /3004 10167 20087 39975 40135 55002=
07661,1999-10-02 05:00:00,16,1013.8,0.6,62,8.7,,11.112,,,290,,,,,,,,,,,og-post,,,,AAXX 02054 07661 36/// /2906 10160 20087 39977 40138 51006=
07661,1999-10-02 06:00:00,15.7,1013.9,0.4,65,9.1,40000,7.408,,,350,15.3,19.9,,,,,0,,,,og-post,,,,AAXX 02064 07661 32882 53504 10157 20091 39978 40139 52004 83032 333 10199 20153 70000 92438=
07661,1999-10-02 07:00:00,17.6,1014.1,0.6,68,11.6,,3.704,,,40,,,,,,,,,,,og-post,,,,AAXX 02074 07661 36/// /0402 10176 20116 39981 40141 53006=
07661,1999-10-02 08:00:00,19.4,1014.8,1.2,55,10.1,,7.408,,,280,,,,,,,,,,,og-post,,,,AAXX 02084 07661 36/// /2804 10194 20101 39989 40148 53012=
07661,1999-10-02 09:00:00,20.9,1015,1.4,55,11.5,40000,7.408,,,240,,,,,,,,,,,og-post,,,,AAXX 02094 07661 32882 52404 10209 20115 39992 40150 52014 83032 333 92438=
07661,1999-10-02 10:00:00,22.1,1014.9,1.1,57,13.2,,11.112,,,220,,,,,,,,,,,og-post,,,,AAXX 02104 07661 36/// /2206 10221 20132 39992 40149 51011=
07661,1999-10-02 11:00:00,20.9,1014.7,0,64,13.8,,14.816,,,220,,,,,,,,,,,og-post,,,,AAXX 02114 07661 36/// /2208 10209 20138 39989 40147 50000=
07661,1999-10-02 12:00:00,21.7,1014.1,-0.8,61,13.9,25000,14.816,,,220,,,,,,,,,,,og-post,,,,AAXX 02124 07661 32575 42208 10217 20139 39984 40141 58008 82132 333 92428=
07661,1999-10-02 13:00:00,21.9,1013.8,-1.1,64,14.8,,11.112,,,200,,,,,,,,,,,og-post,,,,AAXX 02134 07661 36/// /2006 10219 20148 39981 40138 57011=
07661,1999-10-02 14:00:00,22.3,1013.3,-1.3,66,15.6,,11.112,,,200,,,,,,,,,,,og-post,,,,AAXX 02144 07661 36/// /2006 10223 20156 39976 40133 57013=
07661,1999-10-02 15:00:00,21,1013.1,-1,66,14.4,25000,7.408,,,160,,,,,,,,,,,og-post,,,,AAXX 02154 07661 32575 71604 10210 20144 39974 40131 56010 82832 333 92428=
07661,1999-10-02 16:00:00,19.9,1012.8,-1.1,77,15.7,,7.408,,,120,,,,,,,,,,,og-post,,,,AAXX 02164 07661 36/// /1204 10199 20157 39970 40128 56011=
07661,1999-10-02 17:00:00,19.7,1012.7,-0.7,80,16.2,,11.112,,,110,,,,,,,,,,,og-post,,,,AAXX 02174 07661 36/// /1106 10197 20162 39969 40127 56007=
07661,1999-10-02 18:00:00,19.7,1012.9,-0.3,85,17.1,20000,11.112,,,190,15.8,22.8,,,,,,,,,og-post,,,,AAXX 02184 07661 32570 71906 10197 20171 39971 40129 55003 82832 333 10228 20158 92428=
07661,1999-10-02 19:00:00,19.4,1013.1,0.3,86,17,,7.408,,,140,,,,,,,,,,,og-post,,,,AAXX 02194 07661 36/// /1404 10194 20170 39973 40131 53003=
07661,1999-10-02 20:00:00,19.2,1013.3,0.6,86,16.8,,11.112,,,70,,,,,,,,,,,og-post,,,,AAXX 02204 07661 36/// /0706 10192 20168 39975 40133 52006=
07661,1999-10-02 21:00:00,18.8,1013.2,0.3,87,16.6,25000,14.816,,,80,,,,,,,,,,,og-post,,,,AAXX 02214 07661 32575 70808 10188 20166 39974 40132 50003 8571/ 333 92428=
07661,1999-10-02 22:00:00,18.4,1013.2,0,90,16.7,,14.816,,,90,,,,,,,,,,,og-post,,,,AAXX 02224 07661 36/// /0908 10184 20167 39973 40132 50000=
07661,1999-10-02 23:00:00,18.1,1012.7,-0.7,92,16.8,,11.112,,,90,,,,,,,,,,,og-post,,,,AAXX 02234 07661 36/// /0906 10181 20168 39968 40127 58007=
07661,1999-10-03 00:00:00,17.8,1012.4,-0.9,93,16.7,12000,14.816,,,80,,,,,,,,,,,og-post,,,,AAXX 03004 07661 32562 70808 10178 20167 39965 40124 58009 8571/ 333 92427=
07661,1999-10-03 01:00:00,18,1012.2,-1,90,16.3,,11.112,,,80,,,,,,,,,,,og-post,,,,AAXX 03014 07661 36/// /0806 10180 20163 39963 40122 56010=
07661,1999-10-03 02:00:00,17.9,1011.5,-1.2,91,16.4,,14.816,,,100,,,,,,,,,,,og-post,,,,AAXX 03024 07661 36/// /1008 10179 20164 39956 40115 58012=
07661,1999-10-03 03:00:00,17.6,1011,-1.4,92,16.3,,14.816,,,90,,,,,,,,,,,og-post,,,,AAXX 03034 07661 36/// /0908 10176 20163 39951 40110 58014=
07661,1999-10-03 04:00:00,17.8,1010.6,-1.6,94,16.8,,11.112,,,90,,,,,,,,,,,og-post,,,,AAXX 03044 07661 36/// /0906 10178 20168 39947 40106 56016=
07661,1999-10-03 05:00:00,18.2,1010.4,-1,92,16.9,,11.112,,,80,,,,,,,,,,,og-post,,,,AAXX 03054 07661 36/// /0806 10182 20169 39946 40104 56010=
07661,1999-10-03 06:00:00,18.2,1010.4,-0.5,93,17,20000,11.112,,,110,17.4,19.7,,,,,0,,,,og-post,,,,AAXX 03064 07661 32570 41106 10182 20170 39946 40104 56005 83204 333 10197 20174 70000 92428=
07661,1999-10-03 07:00:00,18.6,1010.8,0.3,93,17.4,,11.112,,,80,,,,,,,,,,,og-post,,,,AAXX 03074 07661 36/// /0806 10186 20174 39950 40108 53003=
07661,1999-10-03 08:00:00,19.6,1011.1,0.7,91,18.1,,11.112,,,130,,,,,,,,,,,og-post,,,,AAXX 03084 07661 36/// /1306 10196 20181 39953 40111 53007=
07661,1999-10-03 09:00:00,23.1,1011.1,0.9,78,19.1,20000,14.816,,,210,,,,,,,,,,,og-post,,,,AAXX 03094 07661 32470 42108 10231 20191 39955 40111 51009 83331 333 92428=
07661,1999-10-03 10:00:00,23.4,1010.8,0.3,77,19.1,,14.816,,,190,,,,,,,,,,,og-post,,,,AAXX 03104 07661 36/// /1908 10234 20191 39953 40108 50003=
07661,1999-10-03 11:00:00,23.4,1010.7,-0.1,78,19.3,,18.52,,,210,,,,,,,,,,,og-post,,,,AAXX 03114 07661 36/// /2110 10234 20193 39952 40107 58001=
07661,1999-10-03 12:00:00,22.4,1010.2,-0.9,83,19.4,20000,22.224,,,220,,,,,,,,,,,og-post,,,,AAXX 03124 07661 32470 42212 10224 20194 39946 40102 58009 83331 333 92438=
07661,1999-10-03 13:00:00,21.1,1009.7,-1.3,78,17.1,,29.632,,,290,,,,,,,,,,,og-post,,,,AAXX 03134 07661 36/// /2916 10211 20171 39940 40097 58013=
07661,1999-10-03 14:00:00,20.1,1009.1,-1.8,78,16.1,,35.188,53.708,,300,,,,,,,,,,,og-post,,,,AAXX 03144 07661 36/// /3019 10201 20161 39934 40091 57018 333 91129=
07661,1999-10-03 15:00:00,20.4,1009.2,-1.1,72,15.2,20000,29.632,53.708,,290,,,,,,,,,,,og-post,,,,AAXX 03154 07661 32570 52916 10204 20152 39935 40092 55011 82320 333 91129 92438=
07661,1999-10-03 16:00:00,20.2,1009,-0.7,76,15.8,,25.928,,,290,,,,,,,,,,,og-post,,,,AAXX 03164 07661 36/// /2914 10202 20158 39933 40090 56007=
07661,1999-10-03 17:00:00,19,1009.6,0.4,66,12.5,,31.484,,,320,,,,,,,,,,,og-post,,,,AAXX 03174 07661 36/// /3217 10190 20125 39938 40096 53004=
07661,1999-10-03 18:00:00,18.3,1010.3,0.9,54,8.8,,29.632,53.708,,300,18.2,24.1,,,,,,,,,og-post,,,,AAXX 03184 07661 36/// /3016 10183 20088 39944 40103 53009 333 10241 20182 91129=
07661,1999-10-03 19:00:00,17.8,1010.6,1.4,44,5.4,,38.892,,,300,,,,,,,,,,,og-post,,,,AAXX 03194 07661 36/// /3021 10178 20054 39947 40106 51014=
07661,1999-10-03 20:00:00,17.6,1010.5,0.8,45,5.5,,50.004,72.228,72.228,300,,,,,,,,,,,og-post,,,,AAXX 03204 07661 36/// /3027 10176 20055 39946 40105 50008 333 91039 91139=
07661,1999-10-03 21:00:00,16.8,1011.7,1.3,51,6.6,20000,46.3,72.228,,310,,,,,,,,,,,og-post,,,,AAXX 03214 07661 32970 33125 10168 20066 39957 40117 53013 82031 333 91139 92438=
07661,1999-10-03 22:00:00,16,1011.8,1.1,54,6.7,,50.004,79.636,75.932,300,,,,,,,,,,,og-post,,,,AAXX 03224 07661 36/// /3027 10160 20067 39958 40118 53011 333 91041 91143=
07661,1999-10-03 23:00:00,15.3,1012.3,1.6,53,5.8,,50.004,75.932,,300,,,,,,,,,,,og-post,,,,AAXX 03234 07661 36/// /3027 10153 20058 39962 40123 51016 333 91141=
07661,1999-10-04 00:00:00,14.5,1012.6,0.8,57,6.1,20000,42.596,79.636,,310,,,,,,,,,,,og-post,,,,AAXX 04004 07661 32970 03123 10145 20061 39965 40126 53008 333 91143 92448=
07661,1999-10-04 01:00:00,14.1,1012.3,0.3,54,4.9,,53.708,,72.228,300,,,,,,,,,,,og-post,,,,AAXX 04014 07661 36/// /3029 10141 20049 39961 40123 50003 333 91039=
07661,1999-10-04 02:00:00,13.9,1011.7,-0.7,51,3.9,,53.708,87.044,,310,,,,,,,,,,,og-post,,,,AAXX 04024 07661 36/// /3129 10139 20039 39955 40117 58007 333 91147=
07661,1999-10-04 03:00:00,13.7,1012.2,-0.5,51,3.8,25000,50.004,87.044,,310,,,,,,,,,,,og-post,,,,AAXX 04034 07661 32975 03127 10137 20038 39960 40122 55005 333 91147 92448=
07661,1999-10-04 04:00:00,13.3,1012.3,-0,51,3.4,,53.708,75.932,,300,,,,,,,,,,,og-post,,,,AAXX 04044 07661 36/// /3029 10133 20034 39961 40123 55000 333 91141=
07661,1999-10-04 05:00:00,13.1,1012.6,0.9,52,3.5,,46.3,,,300,,,,,,,,,,,og-post,,,,AAXX 04054 07661 36/// /3025 10131 20035 39964 40126 51009=
07661,1999-10-04 06:00:00,12.8,1012.6,0.4,55,4,30000,50.004,87.044,,300,12.8,18.3,,,,,0,,,,og-post,,,,AAXX 04064 07661 32580 13027 10128 20040 39964 40126 51004 81100 333 10183 20128 70000 91147 92448=
07661,1999-10-04 07:00:00,13.4,1013.3,1,52,3.8,,57.412,79.636,79.636,300,,,,,,,,,,,og-post,,,,AAXX 04074 07661 36/// /3031 10134 20038 39971 40133 53010 333 91043 91143=
07661,1999-10-04 08:00:00,15,1013.9,1.4,45,3.2,,46.3,79.636,,300,,,,,,,,,,,og-post,,,,AAXX 04084 07661 36/// /3025 10150 20032 39978 40139 53014 333 91143=
07661,1999-10-04 09:00:00,16.7,1013.8,1.4,42,3.7,40000,53.708,79.636,75.932,310,,,,,,,,,,,og-post,,,,AAXX 04094 07661 32982 03129 10167 20037 39978 40138 51014 333 91041 91143 92448=
07661,1999-10-04 10:00:00,17.3,1013.4,0.3,40,3.6,,53.708,87.044,87.044,310,,,,,,,,,,,og-post,,,,AAXX 04104 07661 36/// /3129 10173 20036 39974 40134 50003 333 91047 91147=
07661,1999-10-04 12:00:00,18.3,1011.6,-2.1,38,3.8,,64.82,90.748,87.044,300,,,,,,,,,,,og-post,,,,AAXX 04124 07661 36/// /3035 10183 20038 39957 40116 58021 333 91047 91149=
07661,1999-10-04 13:00:00,18.5,1011.6,-1.7,39,4.3,,68.524,94.452,94.452,310,,,,,,,,,,,og-post,,,,AAXX 04134 07661 36/// /3137 10185 20043 39957 40116 56017 333 91051 91151=
07661,1999-10-04 15:00:00,19.2,1012.6,1,39,4.9,40000,50.004,94.452,68.524,310,,,,,,,,,,,og-post,,,,AAXX 04154 07661 32582 23127 10192 20049 39967 40126 53010 82200 333 91037 91151 92448=
07661,1999-10-04 17:00:00,17.8,1013.2,0.9,38,3.3,,38.892,64.82,,300,,,,,,,,,,,og-post,,,,AAXX 04174 07661 36/// /3021 10178 20033 39972 40132 52009 333 91135=
07661,1999-10-04 18:00:00,16.8,1013.7,1,39,2.8,40000,35.188,94.452,,300,12.8,19.2,,,,,,,,,og-post,,,,AAXX 04184 07661 32582 13019 10168 20028 39977 40137 53010 81100 333 10192 20128 91151 92448=
07661,1999-10-04 19:00:00,16.3,1014.2,1.3,41,3,,31.484,61.116,,300,,,,,,,,,,,og-post,,,,AAXX 04194 07661 36/// /3017 10163 20030 39981 40142 52013 333 91133=
07661,1999-10-04 21:00:00,14.8,1014.5,0.6,47,3.6,35000,46.3,68.524,,310,,,,,,,,,,,og-post,,,,AAXX 04214 07661 32981 03125 10148 20036 39983 40145 51006 333 91137 92448=
07661,1999-10-04 22:00:00,13.3,1014.3,0,47,2.2,,46.3,,,300,,,,,,,,,,,og-post,,,,AAXX 04224 07661 36/// /3025 10133 20022 39981 40143 50000=
07661,1999-10-04 23:00:00,11.7,1013.6,-0.7,51,1.9,,57.412,83.34,83.34,300,,,,,,,,,,,og-post,,,,AAXX 04234 07661 36/// /3031 10117 20019 39973 40136 58007 333 91045 91145=
07661,1999-10-05 00:00:00,11.8,1013.6,-1,54,2.8,35000,61.116,94.452,83.34,310,,,,,,,,,,,og-post,,,,AAXX 05004 07661 32981 03133 10118 20028 39973 40136 56010 333 91045 91151 92448=
07661,1999-10-05 01:00:00,11.3,1013.3,-1.1,55,2.6,,61.116,94.452,83.34,310,,,,,,,,,,,og-post,,,,AAXX 05014 07661 36/// /3133 10113 20026 39970 40133 56011 333 91045 91151=
07661,1999-10-05 02:00:00,10.8,1014.9,1.2,55,2.1,,18.52,,,260,,,,,,,,,,,og-post,,,,AAXX 05024 07661 36/// /2610 10108 20021 39985 40149 53012=
07661,1999-10-05 03:00:00,10.4,1014.4,0.7,58,2.5,35000,38.892,94.452,,290,,,,,,,,,,,og-post,,,,AAXX 05034 07661 32981 02921 10104 20025 39980 40144 50007 333 91151 92448=
07661,1999-10-05 04:00:00,10.3,1014.3,0.9,60,2.9,,53.708,,,300,,,,,,,,,,,og-post,,,,AAXX 05044 07661 36/// /3029 10103 20029 39979 40143 50009=
07661,1999-10-05 05:00:00,10.9,1014.1,-0.8,55,2.2,,53.708,83.34,75.932,320,,,,,,,,,,,og-post,,,,AAXX 05054 07661 36/// /3229 10109 20022 39977 40141 56008 333 91041 91145=
07661,1999-10-05 06:00:00,11,1014.8,0.4,53,1.8,40000,42.596,94.452,64.82,320,10.2,16.8,,,,,0,,,,og-post,,,,AAXX 05064 07661 32482 23223 10110 20018 39984 40148 53004 81101 333 10168 20102 70000 91035 91151 92458=
07661,1999-10-05 07:00:00,11.5,1015.5,1.2,48,0.9,,31.484,61.116,,300,,,,,,,,,,,og-post,,,,AAXX 05074 07661 36/// /3017 10115 20009 39991 40155 53012 333 91133=
07661,1999-10-05 08:00:00,12.5,1015.9,1.9,46,1.2,,25.928,,,300,,,,,,,,,,,og-post,,,,AAXX 05084 07661 36/// /3014 10125 20012 39996 40159 51019=
07661,1999-10-05 09:00:00,14.2,1016.1,1.5,41,1.2,35000,29.632,61.116,,300,,,,,,,,,,,og-post,,,,AAXX 05094 07661 32481 23016 10142 20012 39999 40161 51015 81102 333 91133 92448=
07661,1999-10-05 10:00:00,15.6,1015.8,0.6,43,3.1,,22.224,,,270,,,,,,,,,,,og-post,,,,AAXX 05104 07661 36/// /2712 10156 20031 39997 40158 50006=
07661,1999-10-05 11:00:00,16.4,1015.4,-0.3,41,3.1,,22.224,,,290,,,,,,,,,,,og-post,,,,AAXX 05114 07661 36/// /2912 10164 20031 39993 40154 58003=
07661,1999-10-05 12:00:00,17,1014.8,-1.1,41,3.7,30000,29.632,61.116,,290,,,,,,,,,,,og-post,,,,AAXX 05124 07661 32980 32916 10170 20037 39988 40148 58011 80002 333 91133 92448=
07661,1999-10-05 13:00:00,18.3,1014.2,-1.5,37,3.4,,31.484,,,290,,,,,,,,,,,og-post,,,,AAXX 05134 07661 36/// /2917 10183 20034 39982 40142 58015=
07661,1999-10-05 14:00:00,18.1,1013.9,-1.4,41,4.7,,35.188,57.412,57.412,300,,,,,,,,,,,og-post,,,,AAXX 05144 07661 36/// /3019 10181 20047 39979 40139 56014 333 91031 91131=
07661,1999-10-05 15:00:00,17,1014,-0.8,41,3.7,30000,42.596,,,290,,,,,,,,,,,og-post,,,,AAXX 05154 07661 32580 32923 10170 20037 39980 40140 55008 81202 333 92448=
07661,1999-10-05 16:00:00,16.9,1014.1,-0.1,42,3.9,,38.892,,,310,,,,,,,,,,,og-post,,,,AAXX 05164 07661 36/// /3121 10169 20039 39981 40141 55001=
07661,1999-10-05 17:00:00,14.9,1014.4,0.4,50,4.6,,42.596,,,310,,,,,,,,,,,og-post,,,,AAXX 05174 07661 36/// /3123 10149 20046 39983 40144 53004=
07661,1999-10-05 18:00:00,13.7,1014.9,0.7,48,2.9,30000,38.892,,,300,11,18.4,,,,,,,,,og-post,,,,AAXX 05184 07661 32580 33021 10137 20029 39987 40149 53007 81202 333 10184 20110 92448=
07661,1999-10-05 19:00:00,13.1,1016.1,1.7,47,2.1,,31.484,,,300,,,,,,,,,,,og-post,,,,AAXX 05194 07661 36/// /3017 10131 20021 39998 40161 53017=
07661,1999-10-05 20:00:00,12.6,1016.6,2,49,2.2,,22.224,,,300,,,,,,,,,,,og-post,,,,AAXX 05204 07661 36/// /3012 10126 20022 30003 40166 53020=
07661,1999-10-05 21:00:00,11.8,1017.2,2.1,55,3.1,30000,14.816,,,280,,,,,,,,,,,og-post,,,,AAXX 05214 07661 32980 02808 10118 20031 30008 40172 51021 333 92438=
07661,1999-10-05 22:00:00,12.8,1017.5,1.4,56,4.3,,7.408,,,70,,,,,,,,,,,og-post,,,,AAXX 05224 07661 36/// /0704 10128 20043 30012 40175 51014=
07661,1999-10-05 23:00:00,12,1017.9,1.2,66,5.9,,14.816,,,60,,,,,,,,,,,og-post,,,,AAXX 05234 07661 36/// /0608 10120 20059 30015 40179 51012=
07661,1999-10-06 00:00:00,11.6,1018,0.8,69,6.1,10000,11.112,,,60,,,,,,,,,,,og-post,,,,AAXX 06004 07661 32960 00606 10116 20061 30016 40180 51008 333 92437=
07661,1999-10-06 01:00:00,11.2,1018.3,0.7,71,6.1,,11.112,,,80,,,,,,,,,,,og-post,,,,AAXX 06014 07661 36/// /0806 10112 20061 30019 40183 52007=
07661,1999-10-06 02:00:00,12.4,1018.2,0.4,57,4.1,,11.112,,,40,,,,,,,,,,,og-post,,,,AAXX 06024 07661 36/// /0406 10124 20041 30019 40182 51004=
07661,1999-10-06 03:00:00,11.3,1018.5,0.5,68,5.6,30000,11.112,,,70,,,,,,,,,,,og-post,,,,AAXX 06034 07661 32980 00706 10113 20056 30021 40185 51005 333 92438=
07661,1999-10-06 04:00:00,10.9,1019,0.7,71,5.9,,11.112,,,80,,,,,,,,,,,og-post,,,,AAXX 06044 07661 36/// /0806 10109 20059 30026 40190 53007=
07661,1999-10-06 05:00:00,10.9,1019.4,1.1,70,5.7,,7.408,,,20,,,,,,,,,,,og-post,,,,AAXX 06054 07661 36/// /0204 10109 20057 30030 40194 53011=
07661,1999-10-06 06:00:00,11.6,1019.8,1.3,65,5.3,30000,7.408,,,30,10.8,13.7,,,,,0,,,,og-post,,,,AAXX 06064 07661 32580 20304 10116 20053 30034 40198 51013 82200 333 10137 20108 70000 92438=
07661,1999-10-06 07:00:00,13.1,1020.3,1.4,60,5.5,,7.408,,,20,,,,,,,,,,,og-post,,,,AAXX 06074 07661 36/// /0204 10131 20055 30040 40203 53014=
07661,1999-10-06 08:00:00,15.5,1020.9,1.7,51,5.4,,3.704,,,10,,,,,,,,,,,og-post,,,,AAXX 06084 07661 36/// /0102 10155 20054 30047 40209 53017=
07661,1999-10-06 09:00:00,19,1021.3,1.9,41,5.5,30000,,,,,,,,,,,,,,,og-post,,,,AAXX 06094 07661 32580 10000 10190 20055 30053 40213 52019 81100 333 92428=
07661,1999-10-06 10:00:00,20.7,1021.3,1.4,38,5.9,,3.704,,,70,,,,,,,,,,,og-post,,,,AAXX 06104 07661 36/// /0702 10207 20059 30054 40213 51014=
07661,1999-10-06 11:00:00,19.1,1021.6,0.9,40,5.2,,7.408,,,210,,,,,,,,,,,og-post,,,,AAXX 06114 07661 36/// /2104 10191 20052 30056 40216 51009=
07661,1999-10-06 12:00:00,18.9,1021.5,0.2,45,6.7,,11.112,,,210,,,,,,,,,,,og-post,,,,AAXX 06124 07661 36/// /2106 10189 20067 30055 40215 50002=
07661,1999-10-06 13:00:00,20.1,1021.2,-0.2,42,6.8,,18.52,,,220,,,,,,,,,,,og-post,,,,AAXX 06134 07661 36/// /2210 10201 20068 30052 40212 58002=
07661,1999-10-06 14:00:00,19.9,1021,-0.6,46,7.9,,18.52,,,220,,,,,,,,,,,og-post,,,,AAXX 06144 07661 36/// /2210 10199 20079 30050 40210 58006=
07661,1999-10-06 15:00:00,19.8,1021.1,-0.4,42,6.5,30000,18.52,,,220,,,,,,,,,,,og-post,,,,AAXX 06154 07661 32580 12210 10198 20065 30051 40211 55004 81100 333 92428=
07661,1999-10-06 16:00:00,18.5,1021.2,-0.1,41,5,,18.52,,,290,,,,,,,,,,,og-post,,,,AAXX 06164 07661 36/// /2910 10185 20050 30051 40212 56001=
07661,1999-10-06 17:00:00,16.9,1021.5,0.4,46,5.2,,18.52,,,290,,,,,,,,,,,og-post,,,,AAXX 06174 07661 36/// /2910 10169 20052 30054 40215 53004=
07661,1999-10-06 18:00:00,15.7,1022,0.7,55,6.7,20000,18.52,,,290,11.6,20.8,,,,,,,,,og-post,,,,AAXX 06184 07661 32970 02910 10157 20067 30058 40220 53007 333 10208 20116 92428=
07661,1999-10-06 19:00:00,15,1022.5,1.1,53,5.5,,18.52,,,300,,,,,,,,,,,og-post,,,,AAXX 06194 07661 36/// /3010 10150 20055 30062 40225 53011=
07661,1999-10-06 20:00:00,14.7,1022.9,1.2,45,2.9,,14.816,,,300,,,,,,,,,,,og-post,,,,AAXX 06204 07661 36/// /3008 10147 20029 30066 40229 52012=
07661,1999-10-06 21:00:00,14.6,1023.4,1.3,44,2.5,20000,11.112,,,310,,,,,,,,,,,og-post,,,,AAXX 06214 07661 32970 03106 10146 20025 30071 40234 53013 333 92428=
07661,1999-10-06 22:00:00,14.4,1023.9,1.4,53,5,,11.112,,,320,,,,,,,,,,,og-post,,,,AAXX 06224 07661 36/// /3206 10144 20050 30076 40239 53014=
07661,1999-10-06 23:00:00,13,1024.2,1.2,54,3.9,,7.408,,,70,,,,,,,,,,,og-post,,,,AAXX 06234 07661 36/// /0704 10130 20039 30078 40242 51012=
07661,1999-10-07 00:00:00,13.6,1024.3,0.8,49,3.1,20000,7.408,,,60,,,,,,,,,,,og-post,,,,AAXX 07004 07661 32970 00604 10136 20031 30079 40243 51008 333 92428=
07661,1999-10-07 01:00:00,13.9,1024.5,0.5,46,2.5,,3.704,,,50,,,,,,,,,,,og-post,,,,AAXX 07014 07661 36/// /0502 10139 20025 30081 40245 52005=
07661,1999-10-07 02:00:00,14.1,1024.3,0.2,58,6,,3.704,,,40,,,,,,,,,,,og-post,,,,AAXX 07024 07661 36/// /0402 10141 20060 30080 40243 50002=
07661,1999-10-07 03:00:00,13.3,1024.4,0.1,61,5.9,20000,7.408,,,70,,,,,,,,,,,og-post,,,,AAXX 07034 07661 32970 00704 10133 20059 30080 40244 51001 333 92428=
07661,1999-10-07 04:00:00,13,1024.4,-0.1,56,4.4,,14.816,,,70,,,,,,,,,,,og-post,,,,AAXX 07044 07661 36/// /0708 10130 20044 30080 40244 56001=
07661,1999-10-07 06:00:00,12.5,1025.2,0.8,66,6.3,35000,14.816,,,70,11.1,15.7,,,,,0,,,,og-post,,,,AAXX 07064 07661 32981 10708 10125 20063 30088 40252 53008 80004 333 10157 20111 70000 92428=
07661,1999-10-07 09:00:00,17.5,1027,2,60,9.7,35000,14.816,,,80,,,,,,,,,,,og-post,,,,AAXX 07094 07661 32581 10808 10175 20097 30108 40270 51020 81101 333 92428=
07661,1999-10-07 12:00:00,19.1,1027.1,0.2,47,7.5,35000,11.112,,,200,,,,,,,,,,,og-post,,,,AAXX 07124 07661 32581 12006 10191 20075 30110 40271 50002 81100 333 92428=
07661,1999-10-07 13:00:00,20.3,1026.8,-0.3,46,8.3,,18.52,,,220,,,,,,,,,,,og-post,,,,AAXX 07134 07661 36/// /2210 10203 20083 30108 40268 58003=
07661,1999-10-07 14:00:00,20.4,1026.6,-0.7,49,9.3,,14.816,,,220,,,,,,,,,,,og-post,,,,AAXX 07144 07661 36/// /2208 10204 20093 30106 40266 56007=
07661,1999-10-07 15:00:00,19.7,1026.1,-0.9,55,10.4,35000,14.816,,,220,,,,,,,,,,,og-post,,,,AAXX 07154 07661 32581 12208 10197 20104 30101 40261 58009 81101 333 92428=
07661,1999-10-07 16:00:00,18.8,1026.4,-0.5,60,10.9,,14.816,,,240,,,,,,,,,,,og-post,,,,AAXX 07164 07661 36/// /2408 10188 20109 30103 40264 55005=
07661,1999-10-07 17:00:00,16.8,1027,0.2,70,11.3,,14.816,,,280,,,,,,,,,,,og-post,,,,AAXX 07174 07661 36/// /2808 10168 20113 30108 40270 53002=
07661,1999-10-07 18:00:00,15.5,1027.6,1.2,80,12.1,,14.816,,,300,12.3,20.6,,,,,,,,,og-post,,,,AAXX 07184 07661 36/// /3008 10155 20121 30113 40276 53012 333 10206 20123=
07661,1999-10-07 19:00:00,14.9,1027.8,1.2,75,10.5,,18.52,,,300,,,,,,,,,,,og-post,,,,AAXX 07194 07661 36/// /3010 10149 20105 30115 40278 51012=
07661,1999-10-07 20:00:00,14.6,1027.9,0.7,72,9.6,,22.224,,,300,,,,,,,,,,,og-post,,,,AAXX 07204 07661 36/// /3012 10146 20096 30115 40279 51007=
07661,1999-10-07 21:00:00,14.1,1028,0.3,70,8.7,25000,11.112,,,320,,,,,,,,,,,og-post,,,,AAXX 07214 07661 32975 03206 10141 20087 30116 40280 51003 333 92428=
07661,1999-10-07 22:00:00,13.9,1028.1,0.2,54,4.8,,18.52,,,310,,,,,,,,,,,og-post,,,,AAXX 07224 07661 36/// /3110 10139 20048 30117 40281 53002=
07661,1999-10-07 23:00:00,14.3,1028,0.1,53,4.9,,14.816,,,340,,,,,,,,,,,og-post,,,,AAXX 07234 07661 36/// /3408 10143 20049 30116 40280 50001=
07661,1999-10-08 00:00:00,13.2,1028.2,0.1,59,5.4,,3.704,,,250,,,,,,,,,,,og-post,,,,AAXX 08004 07661 36/// /2502 10132 20054 30117 40282 52001=
07661,1999-10-08 01:00:00,12.4,1028.3,0.1,68,6.7,,3.704,,,60,,,,,,,,,,,og-post,,,,AAXX 08014 07661 36/// /0602 10124 20067 30118 40283 53001=
07661,1999-10-08 02:00:00,12.7,1027.6,-0.5,65,6.3,,,,,,,,,,,,,,,,og-post,,,,AAXX 08024 07661 36/// /0000 10127 20063 30111 40276 58005=
07661,1999-10-08 03:00:00,12.8,1027.5,-0.7,52,3.2,25000,14.816,,,80,,,,,,,,,,,og-post,,,,AAXX 08034 07661 32975 00808 10128 20032 30110 40275 58007 333 92428=
07661,1999-10-08 04:00:00,12.7,1027.3,-1,51,2.8,,14.816,,,80,,,,,,,,,,,og-post,,,,AAXX 08044 07661 36/// /0808 10127 20028 30108 40273 56010=
07661,1999-10-08 05:00:00,12.3,1027,-0.6,69,6.8,,3.704,,,110,,,,,,,,,,,og-post,,,,AAXX 08054 07661 36/// /1102 10123 20068 30105 40270 58006=
07661,1999-10-08 06:00:00,12.1,1027.2,-0.3,49,1.7,,7.408,,,320,11,15.5,,,,,,,,,og-post,,,,AAXX 08064 07661 36/// /3204 10121 20017 30107 40272 55003 333 10155 20110 70000=
07661,1999-10-08 07:00:00,14.3,1027.2,-0,56,5.7,,3.704,,,50,,,,,,,,,,,og-post,,,,AAXX 08074 07661 36/// /0502 10143 20057 30108 40272 55000=
07661,1999-10-08 08:00:00,16.4,1027.5,0.7,50,6,,3.704,,,70,,,,,,,,,,,og-post,,,,AAXX 08084 07661 36/// /0702 10164 20060 30112 40275 53007=
07661,1999-10-08 09:00:00,17.8,1027.3,0.4,43,5.1,30000,3.704,,,70,,,,,,,,,,,og-post,,,,AAXX 08094 07661 32980 10702 10178 20051 30111 40273 50004 80006 333=
07661,1999-10-08 10:00:00,19.3,1027.2,0.3,43,6.4,,3.704,,,220,,,,,,,,,,,og-post,,,,AAXX 08104 07661 36/// /2202 10193 20064 30111 40272 51003=
07661,1999-10-08 11:00:00,18.3,1027.1,-0.2,48,7.1,,7.408,,,220,,,,,,,,,,,og-post,,,,AAXX 08114 07661 36/// /2204 10183 20071 30110 40271 57002=
07661,1999-10-08 13:00:00,19.6,1025.6,-1.5,49,8.6,,11.112,,,220,,,,,,,,,,,og-post,,,,AAXX 08134 07661 36/// /2206 10196 20086 30096 40256 58015=
07661,1999-10-08 14:00:00,19.5,1025,-2,47,7.9,,11.112,,,220,,,,,,,,,,,og-post,,,,AAXX 08144 07661 36/// /2206 10195 20079 30090 40250 57020=
07661,1999-10-08 15:00:00,19.7,1024.5,-1.9,41,6.1,25000,7.408,,,210,,,,,,,,,,,og-post,,,,AAXX 08154 07661 32575 22104 10197 20061 30085 40245 56019 81106 333 92428=
07661,1999-10-08 16:00:00,19.5,1024.2,-1.4,47,7.9,,7.408,,,290,,,,,,,,,,,og-post,,,,AAXX 08164 07661 36/// /2904 10195 20079 30082 40242 56014=
07661,1999-10-08 17:00:00,17.2,1024.1,-1.1,50,6.7,,14.816,,,290,,,,,,,,,,,og-post,,,,AAXX 08174 07661 36/// /2908 10172 20067 30079 40241 56011=
07661,1999-10-08 18:00:00,16.7,1024.2,-0.5,49,5.9,25000,14.816,,,300,12.2,20,,,,,,,,,og-post,,,,AAXX 08184 07661 32975 13008 10167 20059 30080 40242 55005 80001 333 10200 20122 92428=
07661,1999-10-08 19:00:00,16.2,1024.1,-0.3,53,6.6,,7.408,,,300,,,,,,,,,,,og-post,,,,AAXX 08194 07661 36/// /3004 10162 20066 30079 40241 56003=
07661,1999-10-08 20:00:00,16,1024,-0.1,52,6.2,,14.816,,,300,,,,,,,,,,,og-post,,,,AAXX 08204 07661 36/// /3008 10160 20062 30078 40240 58001=
07661,1999-10-08 21:00:00,15.1,1023.9,-0.4,55,6.1,30000,11.112,,,300,,,,,,,,,,,og-post,,,,AAXX 08214 07661 32980 03006 10151 20061 30076 40239 58004 333 92428=
07661,1999-10-08 22:00:00,13.3,1,,80,9.9,,7.408,,,80,,,,,,,,,,,og-post,,,,AAXX 08224 07661 36/// /0804 10133 20099 30072=
07661,1999-10-09 00:00:00,11.5,1023.1,-1,77,7.6,12000,18.52,,,70,,,,,,,,,,,og-post,,,,AAXX 09004 07661 32962 00710 10115 20076 30066 40231 56010 333 92427=
07661,1999-10-09 01:00:00,12.9,1023.2,-0.4,67,6.9,,22.224,,,60,,,,,,,,,,,og-post,,,,AAXX 09014 07661 36/// /0612 10129 20069 30068 40232 55004=
07661,1999-10-09 02:00:00,13,1022.7,-0.6,65,6.6,,14.816,,,60,,,,,,,,,,,og-post,,,,AAXX 09024 07661 36/// /0608 10130 20066 30063 40227 58006=
07661,1999-10-09 03:00:00,12.3,1022.2,-0.8,69,6.8,15000,22.224,,,70,,,,,,,,,,,og-post,,,,AAXX 09034 07661 32965 00712 10123 20068 30058 40222 58008 333 92427=
07661,1999-10-09 04:00:00,42.3,1022.5,-0.7,12,7.2,,18.52,,,70,,,,,,,,,,,og-post,,,,AAXX 09044 07661 36/// /0710 10423 20072 30061 40225 55007=
07661,1999-10-09 05:00:00,12.1,1022.9,0.2,75,7.8,,14.816,,,80,,,,,,,,,,,og-post,,,,AAXX 09054 07661 36/// /0808 10121 20078 30065 40229 53002=
07661,1999-10-09 06:00:00,11.7,1022.9,0.7,83,8.9,20000,18.52,,,70,11.4,16.6,,,,,0,,,,og-post,,,,AAXX 09064 07661 32570 20710 10117 20089 30065 40229 51007 81140 333 10166 20114 70000 92428=
07661,1999-10-09 07:00:00,12.9,1023.4,0.9,78,9.2,,18.52,,,80,,,,,,,,,,,og-post,,,,AAXX 09074 07661 36/// /0810 10129 20092 30070 40234 53009=
07661,1999-10-09 08:00:00,15.9,1023.8,1.1,70,10.4,,11.112,,,80,,,,,,,,,,,og-post,,,,AAXX 09084 07661 36/// /0806 10159 20104 30076 40238 53011=
07661,1999-10-09 09:00:00,19.1,1023.9,1.4,63,11.9,20000,11.112,,,60,,,,,,,,,,,og-post,,,,AAXX 09094 07661 32570 10606 10191 20119 30079 40239 51014 81100 333 92428=
07661,1999-10-09 10:00:00,20.7,1023.9,1,55,11.3,,11.112,,,60,,,,,,,,,,,og-post,,,,AAXX 09104 07661 36/// /0606 10207 20113 30080 40239 51010=
07661,1999-10-09 11:00:00,19.8,1023.7,0.1,55,10.5,,3.704,,,340,,,,,,,,,,,og-post,,,,AAXX 09114 07661 36/// /3402 10198 20105 30077 40237 50001=
07661,1999-10-09 12:00:00,20,1023.1,-0.8,54,10.4,,14.816,,,220,,,,,,,,,,,og-post,,,,AAXX 09124 07661 36/// /2208 10200 20104 30071 40231 58008=
07661,1999-10-09 13:00:00,21,1022.6,-1.3,49,9.9,,18.52,,,230,,,,,,,,,,,og-post,,,,AAXX 09134 07661 36/// /2310 10210 20099 30067 40226 58013=
07661,1999-10-09 14:00:00,21.1,1022.6,-1,45,8.7,,14.816,,,220,,,,,,,,,,,og-post,,,,AAXX 09144 07661 36/// /2208 10211 20087 30067 40226 56010=
07661,1999-10-09 15:00:00,20.7,1022.3,-0.7,48,9.3,25000,11.112,,,220,,,,,,,,,,,og-post,,,,AAXX 09154 07661 32975 32206 10207 20093 30064 40223 56007 80002 333 92428=
07661,1999-10-09 16:00:00,19.5,1022.1,-0.6,51,9.1,,11.112,,,230,,,,,,,,,,,og-post,,,,AAXX 09164 07661 36/// /2306 10195 20091 30061 40221 58006=
07661,1999-10-09 17:00:00,18.7,1022.3,-0.4,54,9.2,,7.408,,,240,,,,,,,,,,,og-post,,,,AAXX 09174 07661 36/// /2404 10187 20092 30063 40223 55004=
07661,1999-10-09 18:00:00,18.3,1022.4,-0.1,57,9.6,20000,7.408,,,190,11.7,21.4,,,,,,,,,og-post,,,,AAXX 09184 07661 32970 31904 10183 20096 30063 40224 56001 80002 333 10214 20117 92428=
07661,1999-10-09 19:00:00,17.9,1022.4,0.2,66,11.5,,3.704,,,110,,,,,,,,,,,og-post,,,,AAXX 09194 07661 36/// /1102 10179 20115 30063 40224 51002=
07661,1999-10-09 20:00:00,16.1,1022.7,0.2,73,11.3,,14.816,,,70,,,,,,,,,,,og-post,,,,AAXX 09204 07661 36/// /0708 10161 20113 30065 40227 53002=
07661,1999-10-09 21:00:00,15.6,1022.7,0.2,73,10.8,20000,14.816,,,70,,,,,,,,,,,og-post,,,,AAXX 09214 07661 32970 00708 10156 20108 30065 40227 52002 333 92428=
07661,1999-10-09 22:00:00,15.3,1022.7,0.2,74,10.7,,18.52,,,70,,,,,,,,,,,og-post,,,,AAXX 09224 07661 36/// /0710 10153 20107 30065 40227 51002=
07661,1999-10-09 23:00:00,15.3,1022.5,-0.2,69,9.7,,18.52,,,70,,,,,,,,,,,og-post,,,,AAXX 09234 07661 36/// /0710 10153 20097 30063 40225 58002=
07661,1999-10-10 00:00:00,15.1,1022.6,-0.1,74,10.5,12000,18.52,,,80,,,,,,,,,,,og-post,,,,AAXX 10004 07661 32962 00810 10151 20105 30064 40226 55001 333 92427=
07661,1999-10-10 01:00:00,14.4,1022.6,-0.2,74,9.8,,14.816,,,70,,,,,,,,,,,og-post,,,,AAXX 10014 07661 36/// /0708 10144 20098 30063 40226 56002=
07661,1999-10-10 02:00:00,14.9,1022.3,-0.2,77,10.9,,14.816,,,70,,,,,,,,,,,og-post,,,,AAXX 10024 07661 36/// /0708 10149 20109 30061 40223 58002=
07661,1999-10-10 03:00:00,12.9,1022.4,-0.4,82,9.9,18000,14.816,,,90,,,,,,,,,,,og-post,,,,AAXX 10034 07661 32968 00908 10129 20099 30060 40224 57004 333 92427=
07661,1999-10-10 04:00:00,13.2,1022.4,-0.2,85,10.7,,18.52,,,70,,,,,,,,,,,og-post,,,,AAXX 10044 07661 36/// /0710 10132 20107 30061 40224 55002=
07661,1999-10-10 05:00:00,12.9,1022.7,0.2,84,10.3,,18.52,,,80,,,,,,,,,,,og-post,,,,AAXX 10054 07661 36/// /0810 10129 20103 30063 40227 53002=
07661,1999-10-10 06:00:00,12.5,1022.9,0.5,87,10.4,18000,18.52,,,90,12.5,18.4,,,,,0,,,,og-post,,,,AAXX 10064 07661 32468 10910 10125 20104 30065 40229 53005 81140 333 10184 20125 70000 92427=
07661,1999-10-10 07:00:00,13.9,1023.4,1,81,10.7,,18.52,,,80,,,,,,,,,,,og-post,,,,AAXX 10074 07661 36/// /0810 10139 20107 30071 40234 53010=
07661,1999-10-10 08:00:00,16.6,1023.9,1.4,75,12.2,,18.52,,,70,,,,,,,,,,,og-post,,,,AAXX 10084 07661 36/// /0710 10166 20122 30077 40239 53014=
07661,1999-10-10 09:00:00,19.1,1024.2,1.7,69,13.3,18000,22.224,,,60,,,,,,,,,,,og-post,,,,AAXX 10094 07661 32468 20612 10191 20133 30082 40242 51017 82200 333 92427=
07661,1999-10-10 10:00:00,20.1,1024.3,1.2,70,14.5,,18.52,,,70,,,,,,,,,,,og-post,,,,AAXX 10104 07661 36/// /0710 10201 20145 30083 40243 51012=
07661,1999-10-10 11:00:00,19.2,1024.2,0.5,74,14.5,,18.52,,,80,,,,,,,,,,,og-post,,,,AAXX 10114 07661 36/// /0810 10192 20145 30082 40242 50005=
07661,1999-10-10 12:00:00,19.2,1023.9,-0.3,72,14,18000,14.816,,,100,,,,,,,,,,,og-post,,,,AAXX 10124 07661 32468 21008 10192 20140 30079 40239 58003 82200 333 92427=
07661,1999-10-10 13:00:00,19.9,1023.8,-0.5,68,13.8,,14.816,,,100,,,,,,,,,,,og-post,,,,AAXX 10134 07661 36/// /1008 10199 20138 30078 40238 57005=
07661,1999-10-10 14:00:00,19.8,1023.5,-0.7,67,13.5,,14.816,,,120,,,,,,,,,,,og-post,,,,AAXX 10144 07661 36/// /1208 10198 20135 30075 40235 57007=
07661,1999-10-10 15:00:00,19.2,1023.5,-0.4,71,13.8,18000,14.816,,,110,,,,,,,,,,,og-post,,,,AAXX 10154 07661 32468 21108 10192 20138 30075 40235 56004 82200 333 92427=
07661,1999-10-10 16:00:00,18.9,1023.5,-0.3,73,14,,11.112,,,110,,,,,,,,,,,og-post,,,,AAXX 10164 07661 36/// /1106 10189 20140 30075 40235 56003=
07661,1999-10-10 17:00:00,18.4,1023.8,0.2,77,14.3,,11.112,,,110,,,,,,,,,,,og-post,,,,AAXX 10174 07661 36/// /1106 10184 20143 30077 40238 53002=
07661,1999-10-10 18:00:00,17.9,1024.3,0.7,81,14.6,18000,11.112,,,70,12.5,20.1,,,,,,,,,og-post,,,,AAXX 10184 07661 32568 10706 10179 20146 30082 40243 53007 81100 333 10201 20125 92427=
07661,1999-10-10 19:00:00,17.1,1024.6,1,85,14.6,,3.704,,,310,,,,,,,,,,,og-post,,,,AAXX 10194 07661 36/// /3102 10171 20146 30085 40246 53010=
07661,1999-10-10 20:00:00,16.3,1025,1.1,88,14.3,,3.704,,,350,,,,,,,,,,,og-post,,,,AAXX 10204 07661 36/// /3502 10163 20143 30088 40250 51011=
07661,1999-10-10 21:00:00,16.3,1025.3,0.9,84,13.6,,3.704,,,10,,,,,,,,,,,og-post,,,,AAXX 10214 07661 36/// /0102 10163 20136 30091 40253 52009=
07661,1999-10-10 22:00:00,15.9,1025.4,0.7,88,13.9,,3.704,,,20,,,,,,,,,,,og-post,,,,AAXX 10224 07661 36/// /0202 10159 20139 30092 40254 51007=
07661,1999-10-10 23:00:00,15.7,1025.5,0.5,90,14.1,,3.704,,,350,,,,,,,,,,,og-post,,,,AAXX 10234 07661 36/// /3502 10157 20141 30093 40255 51005=
07661,1999-10-11 00:00:00,14.4,1025.4,0,94,13.4,18000,7.408,,,70,,,,,,,,,,,og-post,,,,AAXX 11004 07661 32968 00704 10144 20134 30091 40254 50000 333 92427=
07661,1999-10-11 01:00:00,13.8,1025.3,-0.2,92,12.5,,14.816,,,80,,,,,,,,,,,og-post,,,,AAXX 11014 07661 36/// /0808 10138 20125 30090 40253 58002=
07661,1999-10-11 02:00:00,15.2,1024.7,-0.9,87,13.1,,11.112,,,70,,,,,,,,,,,og-post,,,,AAXX 11024 07661 36/// /0706 10152 20131 30084 40247 58009=
07661,1999-10-11 03:00:00,14,1024.7,-0.7,85,11.5,20000,14.816,,,80,,,,,,,,,,,og-post,,,,AAXX 11034 07661 32970 00808 10140 20115 30084 40247 56007 333 92428=
07661,1999-10-11 04:00:00,13.9,1024.8,-0.5,86,11.6,,14.816,,,70,,,,,,,,,,,og-post,,,,AAXX 11044 07661 36/// /0708 10139 20116 30085 40248 55005=
07661,1999-10-11 05:00:00,14.5,1024.9,0.2,86,12.2,,14.816,,,70,,,,,,,,,,,og-post,,,,AAXX 11054 07661 36/// /0708 10145 20122 30086 40249 53002=
07661,1999-10-11 06:00:00,13.6,1025.3,0.5,89,11.8,18000,14.816,,,80,13.2,17.9,,,,,0,,,,og-post,,,,AAXX 11064 07661 32568 10808 10136 20118 30089 40253 53005 81100 333 10179 20132 70000 92427=
07661,1999-10-11 07:00:00,15.9,1025.7,1,80,12.5,,14.816,,,70,,,,,,,,,,,og-post,,,,AAXX 11074 07661 36/// /0708 10159 20125 30095 40257 53010=
07661,1999-10-11 08:00:00,17.2,1026.2,1.4,76,12.9,,11.112,,,80,,,,,,,,,,,og-post,,,,AAXX 11084 07661 36/// /0806 10172 20129 30100 40262 53014=
07661,1999-10-11 09:00:00,19.2,1026.6,1.6,73,14.2,16000,3.704,,,80,,,,,,,,,,,og-post,,,,AAXX 11094 07661 32566 20802 10192 20142 30105 40266 51016 82200 333 92427=
07661,1999-10-11 10:00:00,20.3,1026.6,1.1,71,14.9,,3.704,,,140,,,,,,,,,,,og-post,,,,AAXX 11104 07661 36/// /1402 10203 20149 30106 40266 51011=
07661,1999-10-11 11:00:00,20.1,1026.4,0.4,66,13.6,,11.112,,,190,,,,,,,,,,,og-post,,,,AAXX 11114 07661 36/// /1906 10201 20136 30104 40264 50004=
07661,1999-10-11 12:00:00,20,1025.9,-0.6,74,15.2,16000,11.112,,,210,,,,,,,,,,,og-post,,,,AAXX 11124 07661 32566 22106 10200 20152 30099 40259 58006 82200 333 92427=
07661,1999-10-11 13:00:00,21.3,1025.4,-1.1,67,14.9,,14.816,,,210,,,,,,,,,,,og-post,,,,AAXX 11134 07661 36/// /2108 10213 20149 30095 40254 58011=
07661,1999-10-11 14:00:00,21.2,1025.4,-0.9,68,15.1,,14.816,,,210,,,,,,,,,,,og-post,,,,AAXX 11144 07661 36/// /2108 10212 20151 30095 40254 56009=
07661,1999-10-11 15:00:00,20.7,1024.9,-0.9,71,15.3,,14.816,,,230,,,,,,,,,,,og-post,,,,AAXX 11154 07661 36/// /2308 10207 20153 30090 40249 58009=
07661,1999-10-11 16:00:00,19.8,1024.8,-0.7,73,14.8,,14.816,,,230,,,,,,,,,,,og-post,,,,AAXX 11164 07661 36/// /2308 10198 20148 30088 40248 58007=
07661,1999-10-11 17:00:00,17.9,1024.9,-0.7,82,14.8,,14.816,,,240,,,,,,,,,,,og-post,,,,AAXX 11174 07661 36/// /2408 10179 20148 30088 40249 56007=
07661,1999-10-11 18:00:00,17.7,1025.3,0.2,83,14.8,10000,11.112,,,260,13.6,21.5,,,,,,,,,og-post,,,,AAXX 11184 07661 32560 32606 10177 20148 30092 40253 53002 82202 333 10215 20136 92427=
07661,1999-10-11 19:00:00,17.5,1025.6,0.7,83,14.6,,14.816,,,270,,,,,,,,,,,og-post,,,,AAXX 11194 07661 36/// /2708 10175 20146 30095 40256 53007=
07661,1999-10-11 20:00:00,17.3,1025.8,0.9,85,14.8,,7.408,,,310,,,,,,,,,,,og-post,,,,AAXX 11204 07661 36/// /3104 10173 20148 30097 40258 51009=
07661,1999-10-11 21:00:00,16.8,1026,0.6,92,15.5,,7.408,,,60,,,,,,,,,,,og-post,,,,AAXX 11214 07661 36/// /0604 10168 20155 30098 40260 51006=
07661,1999-10-11 22:00:00,16.3,1025.8,0.1,91,14.8,,7.408,,,90,,,,,,,,,,,og-post,,,,AAXX 11224 07661 36/// /0904 10163 20148 30096 40258 50001=
07661,1999-10-11 23:00:00,15.7,1025.3,-0.6,93,14.6,,7.408,,,90,,,,,,,,,,,og-post,,,,AAXX 11234 07661 36/// /0904 10157 20146 30091 40253 58006=
07661,1999-10-12 00:00:00,15.4,1025.3,-0.7,95,14.6,,7.408,,,60,,,,,,,,,,,og-post,,,,AAXX 12004 07661 36/// /0604 10154 20146 30091 40253 56007=
07661,1999-10-12 01:00:00,15.7,1025.5,-0.3,93,14.6,,,,,,,,,,,,,,,,og-post,,,,AAXX 12014 07661 36/// /0000 10157 20146 30093 40255 55003=
07661,1999-10-12 02:00:00,15.4,1024.7,-0.6,94,14.4,,7.408,,,50,,,,,,,,,,,og-post,,,,AAXX 12024 07661 36/// /0504 10154 20144 30085 40247 58006=
07661,1999-10-12 03:00:00,14.8,1024.7,-0.7,94,13.8,12000,14.816,,,70,,,,,,,,,,,og-post,,,,AAXX 12034 07661 32962 10708 10148 20138 30084 40247 58007 80001 333 92427=
07661,1999-10-12 04:00:00,15.2,1024.9,-0.7,88,13.2,,11.112,,,60,,,,,,,,,,,og-post,,,,AAXX 12044 07661 36/// /0606 10152 20132 30086 40249 55007=
07661,1999-10-12 05:00:00,15.5,1024.8,0.1,87,13.3,,11.112,,,70,,,,,,,,,,,og-post,,,,AAXX 12054 07661 36/// /0706 10155 20133 30086 40248 53001=
07661,1999-10-12 06:00:00,15.1,1024.7,0,92,13.8,18000,11.112,,,70,14.4,17.7,,,,,0,,,,og-post,,,,AAXX 12064 07661 32568 30706 10151 20138 30084 40247 50000 82201 333 10177 20144 70000 92427=
07661,1999-10-12 07:00:00,14.8,1025.3,0.4,92,13.5,,11.112,,,80,,,,,,,,,,,og-post,,,,AAXX 12074 07661 36/// /0806 10148 20135 30090 40253 53004=
07661,1999-10-12 08:00:00,16.2,1025.6,0.8,88,14.2,,11.112,,,80,,,0.2,,,,,,,,og-post,,,,AAXX 12084 07661 26/// /0806 10162 20142 30094 40256 53008 333 69925=
07661,1999-10-12 09:00:00,19.6,1025.8,1.4,74,14.8,,7.408,,,80,,,,0.2,,,,,,,og-post,,,,AAXX 12094 07661 26/// /0804 10196 20148 30098 40258 51014 333 69927=
07661,1999-10-12 10:00:00,20.1,1025.5,0.5,74,15.3,,7.408,,,90,,,,,,,,,,,og-post,,,,AAXX 12104 07661 36/// /0904 10201 20153 30095 40255 50005=
07661,1999-10-12 11:00:00,19.8,1025.4,0,69,13.9,,7.408,,,140,,,,,,,,,,,og-post,,,,AAXX 12114 07661 36/// /1404 10198 20139 30094 40254 50000=
07661,1999-10-12 12:00:00,19.9,1025.2,-0.6,73,14.9,14000,14.816,,,170,,,,,0.2,,,,,,og-post,,,,AAXX 12124 07661 12564 51708 10199 20149 30092 40252 56006 69921 82201 333 92427=
07661,1999-10-12 13:00:00,19.7,1024.6,-0.9,74,14.9,,11.112,,,170,,,,,,,,,,,og-post,,,,AAXX 12134 07661 36/// /1706 10197 20149 30086 40246 58009=
07661,1999-10-12 14:00:00,19.8,1024.4,-1,74,15,,11.112,,,160,,,,,,,,,,,og-post,,,,AAXX 12144 07661 36/// /1606 10198 20150 30084 40244 57010=
07661,1999-10-12 15:00:00,19.2,1024.5,-0.7,73,14.2,18000,11.112,,,140,,,,,,,,,,,og-post,,,,AAXX 12154 07661 32568 71406 10192 20142 30085 40245 55007 82252 333 92427=
07661,1999-10-12 16:00:00,19,1024.4,-0.2,78,15.1,,14.816,,,150,,,,,,,,,,,og-post,,,,AAXX 12164 07661 36/// /1508 10190 20151 30084 40244 56002=
07661,1999-10-12 17:00:00,18.3,1024.5,0,81,15,,11.112,,,130,,,,,,,,,,,og-post,,,,AAXX 12174 07661 36/// /1306 10183 20150 30084 40245 50000=
07661,1999-10-12 18:00:00,18.2,1024.6,-0,79,14.5,12000,11.112,,,120,14.4,20.3,,,,0.2,,,,,og-post,,,,AAXX 12184 07661 12562 71206 10182 20145 30085 40246 55000 69922 83250 333 10203 20144 92427=
07661,1999-10-12 19:00:00,18.2,1024.8,0.3,80,14.7,,11.112,,,120,,,,,,,,,,,og-post,,,,AAXX 12194 07661 36/// /1206 10182 20147 30087 40248 53003=
07661,1999-10-12 20:00:00,18.1,1024.7,0.2,87,15.9,,18.52,,,60,,,,,,,,,,,og-post,,,,AAXX 12204 07661 36/// /0610 10181 20159 30086 40247 50002=
07661,1999-10-12 21:00:00,17.5,1024.7,0.1,87,15.3,15000,22.224,,,70,,,,,,,,,,,og-post,,,,AAXX 12214 07661 32465 70712 10175 20153 30086 40247 51001 82612 333 92427=
07661,1999-10-12 22:00:00,17.5,1024.7,-0.1,86,15.1,,22.224,,,60,,,,,,,,,,,og-post,,,,AAXX 12224 07661 36/// /0612 10175 20151 30086 40247 56001=
07661,1999-10-12 23:00:00,17.6,1024.7,-0,84,14.9,,22.224,,,70,,,,,,,,,,,og-post,,,,AAXX 12234 07661 36/// /0712 10176 20149 30086 40247 54000=
07661,1999-10-13 00:00:00,17.6,1024.7,-0,85,15,10000,18.52,,,70,,,,,,,,,,,og-post,,,,AAXX 13004 07661 32460 70710 10176 20150 30086 40247 54000 82612 333 92437=
07661,1999-10-13 01:00:00,17.5,1024.6,-0.1,88,15.5,,22.224,,,70,,,,,,,,,,,og-post,,,,AAXX 13014 07661 36/// /0712 10175 20155 30085 40246 58001=
07661,1999-10-13 02:00:00,17.5,1024.2,-0.5,90,15.8,,22.224,,,70,,,,,,,,,,,og-post,,,,AAXX 13024 07661 26/// /0712 10175 20158 30081 40242 58005 333 69905=
07661,1999-10-13 03:00:00,16.8,1024.8,0.1,96,16.2,10000,14.816,,,60,,,,,,,,,,,og-post,,,,AAXX 13034 07661 22460 70608 10168 20162 30087 40248 53001 85720 333 69907 92437=
07661,1999-10-13 04:00:00,16.8,1024.6,-0,97,16.3,,18.52,,,60,,,,,,,,,,,og-post,,,,AAXX 13044 07661 36/// /0610 10168 20163 30085 40246 55000=
07661,1999-10-13 05:00:00,16.3,1023.6,-0.7,98,16,,31.484,,,60,,,,,,,,,,,og-post,,,,AAXX 13054 07661 36/// /0617 10163 20160 30074 40236 58007=
07661,1999-10-13 06:00:00,16,1023.3,-1.6,99,15.8,5000,29.632,,,60,16,18.3,,,,,0.2,,,60,og-post,,,,AAXX 13064 07661 /1450 80616 10160 20158 30071 40233 58016 69902 76062 84720 333 10183 20160 69907 70002 92436=
07661,1999-10-13 07:00:00,15.6,1024.3,-0.4,98,15.3,,18.52,,,60,,,1,,,,,,,,og-post,,,,AAXX 13074 07661 26/// /0610 10156 20153 30081 40243 55004 333 60015=
07661,1999-10-13 08:00:00,15.8,1024.4,0.8,99,15.6,,18.52,,,70,,,2,,,,,,,,og-post,,,,AAXX 13084 07661 26/// /0710 10158 20156 30082 40244 53008 333 60025=
07661,1999-10-13 09:00:00,16.2,1024.7,1.4,99,16,5000,22.224,,,70,,,,3,,,,,,21,og-post,,,,AAXX 13094 07661 21450 80712 10162 20160 30085 40247 51014 72166 887// 333 60037 92426=
07661,1999-10-13 10:00:00,17,1024.7,0.5,99,16.8,,22.224,,,60,,,,,,,,,,,og-post,,,,AAXX 13104 07661 36/// /0612 10170 20168 30086 40247 52005=
07661,1999-10-13 11:00:00,18,1024.7,0.4,95,17.2,,22.224,,,60,,,,,,,,,,,og-post,,,,AAXX 13114 07661 36/// /0612 10180 20172 30086 40247 51004=
07661,1999-10-13 12:00:00,18.7,1023.9,-0.6,92,17.4,8000,25.928,,,70,,,,,11,,,,,14,og-post,,,,AAXX 13124 07661 11458 80714 10187 20174 30079 40239 58006 60111 71422 887// 333 92436=
07661,1999-10-13 13:00:00,19.1,1023.6,-1,84,16.3,,25.928,,,80,,,,,,,,,,,og-post,,,,AAXX 13134 07661 36/// /0814 10191 20163 30076 40236 58010=
07661,1999-10-13 14:00:00,19.4,1023.2,-1.4,84,16.6,,29.632,,,80,,,,,,,,,,,og-post,,,,AAXX 13144 07661 36/// /0816 10194 20166 30072 40232 56014=
07661,1999-10-13 15:00:00,19.2,1022.7,-1.2,83,16.2,18000,25.928,,,80,,,,,,,,,,,og-post,,,,AAXX 13154 07661 32468 70814 10192 20162 30067 40227 58012 8673/ 333 92437=
07661,1999-10-13 16:00:00,19,1022.7,-0.9,84,16.2,,29.632,,,80,,,,,,,,,,,og-post,,,,AAXX 13164 07661 36/// /0816 10190 20162 30067 40227 56009=
07661,1999-10-13 17:00:00,18.6,1022.9,-0.3,86,16.2,,25.928,,,70,,,,,,,,,,,og-post,,,,AAXX 13174 07661 36/// /0714 10186 20162 30069 40229 55003=
07661,1999-10-13 18:00:00,17.8,1023.3,0.5,90,16.1,10000,25.928,,,60,15.6,19.6,,,,11,,,,,og-post,,,,AAXX 13184 07661 12460 50614 10178 20161 30072 40233 53005 60112 84630 333 10196 20156 92437=
07661,1999-10-13 19:00:00,17.4,1,,92,16.1,,29.632,,,60,,,,,,,,,,,og-post,,,,AAXX 13194 07661 36/// /0616 10174 20161=
07661,1999-10-13 20:00:00,17.4,1023.3,0.3,91,15.9,,25.928,,,60,,,,,,,,,,,og-post,,,,AAXX 13204 07661 36/// /0614 10174 20159 30072 40233 52003=
07661,1999-10-13 21:00:00,17,1023.2,-0.1,93,15.9,15000,25.928,,,60,,,,,,,,,,,og-post,,,,AAXX 13214 07661 32865 30614 10170 20159 30071 40232 56001 83030 333 92427=
07661,1999-10-13 22:00:00,16.7,1023.2,0.2,95,15.9,,22.224,,,60,,,,,,,,,,,og-post,,,,AAXX 13224 07661 36/// /0612 10167 20159 30071 40232 51002=
07661,1999-10-13 23:00:00,16.8,1023.4,0.1,95,16,,14.816,,,70,,,,,,,,,,,og-post,,,,AAXX 13234 07661 36/// /0708 10168 20160 30073 40234 53001=
07661,1999-10-14 00:00:00,16.2,1023,-0.3,96,15.6,8000,18.52,,,70,,,,,11,,,,,,og-post,,,,AAXX 14004 07661 12858 30710 10162 20156 30068 40230 58003 60111 83031 333 92436=
07661,1999-10-14 01:00:00,15.8,1022.9,-0.4,97,15.3,,18.52,,,70,,,,,,,,,,,og-post,,,,AAXX 14014 07661 36/// /0710 10158 20153 30067 40229 58004=
07661,1999-10-14 02:00:00,15.9,1022.5,-1,98,15.6,,18.52,,,80,,,,,,,,,,,og-post,,,,AAXX 14024 07661 36/// /0810 10159 20156 30063 40225 56010=
07661,1999-10-14 03:00:00,15.8,1022.2,-0.8,97,15.3,10000,22.224,,,70,,,,,,,,,,,og-post,,,,AAXX 14034 07661 32860 30712 10158 20153 30060 40222 58008 83030 333 92437=
07661,1999-10-14 04:00:00,15.9,1021.9,-1,97,15.4,,22.224,,,70,,,,,,,,,,,og-post,,,,AAXX 14044 07661 36/// /0712 10159 20154 30057 40219 56010=
07661,1999-10-14 05:00:00,15.9,1021.8,-0.7,96,15.3,,25.928,,,70,,,,,,,,,,,og-post,,,,AAXX 14054 07661 36/// /0714 10159 20153 30056 40218 56007=
07661,1999-10-14 06:00:00,15.8,1021.7,-0.5,96,15.2,8000,25.928,,,80,15.7,17.8,,,,11,11.4,,,,og-post,,,,AAXX 14064 07661 12558 80814 10158 20152 30055 40217 56005 60112 83825 333 10178 20157 70114 92436=
07661,1999-10-14 07:00:00,16.1,1022.1,0.3,94,15.1,,18.52,,,80,,,,,,,,,,,og-post,,,,AAXX 14074 07661 36/// /0810 10161 20151 30060 40221 53003=
07661,1999-10-14 08:00:00,16.8,1022.4,0.7,92,15.5,,18.52,,,80,,,,,,,,,,,og-post,,,,AAXX 14084 07661 36/// /0810 10168 20155 30063 40224 53007=
07661,1999-10-14 09:00:00,18.6,1022.5,1,86,16.2,8000,14.816,,,70,,,,,,,,,,,og-post,,,,AAXX 14094 07661 32558 60708 10186 20162 30065 40225 51010 86805 333 92436=
07661,1999-10-14 10:00:00,20.3,1022.2,0.3,76,15.9,,11.112,,,80,,,,,,,,,,,og-post,,,,AAXX 14104 07661 36/// /0806 10203 20159 30063 40222 50003=
07661,1999-10-14 11:00:00,20.2,1022,-0.2,79,16.4,,11.112,,,100,,,,,,,,,,,og-post,,,,AAXX 14114 07661 36/// /1006 10202 20164 30061 40220 58002=
07661,1999-10-14 12:00:00,20.2,1021.3,-1.1,80,16.6,10000,7.408,,,140,,,,,,,,,,,og-post,,,,AAXX 14124 07661 32560 61404 10202 20166 30054 40213 58011 86805 333 92437=
07661,1999-10-14 13:00:00,20.8,1020.6,-1.6,79,17,,7.408,,,160,,,,,,,,,,,og-post,,,,AAXX 14134 07661 36/// /1604 10208 20170 30047 40206 58016=
07661,1999-10-14 14:00:00,20.3,1020.2,-1.8,83,17.3,,7.408,,,170,,,,,,,,,,,og-post,,,,AAXX 14144 07661 36/// /1704 10203 20173 30043 40202 56018=
07661,1999-10-14 15:00:00,20.2,1020.3,-1,86,17.8,15000,11.112,,,200,,,,,,,,,,,og-post,,,,AAXX 14154 07661 32565 72006 10202 20178 30044 40203 55010 87805 333 92437=
07661,1999-10-14 16:00:00,19.9,1020,-0.6,88,17.9,,7.408,,,220,,,,,,,,,,,og-post,,,,AAXX 14164 07661 36/// /2204 10199 20179 30041 40200 56006=
07661,1999-10-14 17:00:00,19,1019.8,-0.4,94,18,,11.112,,,250,,,,,,,,,,,og-post,,,,AAXX 14174 07661 36/// /2506 10190 20180 30039 40198 58004=
07661,1999-10-14 18:00:00,18.7,1019.7,-0.6,96,18,13000,18.52,,,270,15.8,21.1,,,,,,,,,og-post,,,,AAXX 14184 07661 32563 32710 10187 20180 30038 40197 56006 82202 333 10211 20158 92437=
07661,1999-10-14 19:00:00,18.4,1019.5,-0.6,97,17.9,,14.816,,,300,,,,,,,,,,,og-post,,,,AAXX 14194 07661 36/// /3008 10184 20179 30035 40195 58006=
07661,1999-10-14 20:00:00,18.2,1019.5,-0.4,98,17.9,,18.52,,,300,,,,,,,,,,,og-post,,,,AAXX 14204 07661 36/// /3010 10182 20179 30035 40195 56004=
07661,1999-10-14 21:00:00,17.7,1019.3,-0.5,97,17.2,10000,18.52,,,290,,,,,,,,,,,og-post,,,,AAXX 14214 07661 32460 22910 10177 20172 30033 40193 56005 82600 333 92437=
07661,1999-10-14 22:00:00,17.5,1019,-0.5,95,16.7,,22.224,,,280,,,,,,,,,,,og-post,,,,AAXX 14224 07661 36/// /2812 10175 20167 30030 40190 58005=
07661,1999-10-14 23:00:00,17.1,1018.8,-0.7,92,15.8,,18.52,,,290,,,,,,,,,,,og-post,,,,AAXX 14234 07661 36/// /2910 10171 20158 30028 40188 57007=
07661,1999-10-15 00:00:00,17.3,1018.5,-0.8,84,14.6,20000,18.52,,,280,,,,,,,,,,,og-post,,,,AAXX 15004 07661 32470 22810 10173 20146 30025 40185 57008 82600 333 92438=
07661,1999-10-15 01:00:00,16.7,1018.2,-0.9,90,15.1,,14.816,,,300,,,,,,,,,,,og-post,,,,AAXX 15014 07661 36/// /3008 10167 20151 30021 40182 58009=
07661,1999-10-15 02:00:00,17,1017.1,-1.7,83,14.1,,25.928,,,290,,,,,,,,,,,og-post,,,,AAXX 15024 07661 36/// /2914 10170 20141 30011 40171 58017=
07661,1999-10-15 03:00:00,16.6,1016.6,-1.9,85,14.1,8000,29.632,,,300,,,,,,,,,,,og-post,,,,AAXX 15034 07661 32858 43016 10166 20141 30006 40166 58019 84010 333 92436=
07661,1999-10-15 04:00:00,16.2,1016.3,-1.9,87,14,,22.224,,,300,,,,,,,,,,,og-post,,,,AAXX 15044 07661 36/// /3012 10162 20140 30002 40163 56019=
07661,1999-10-15 05:00:00,15.9,1016.2,-1,91,14.4,,22.224,,,300,,,,,,,,,,,og-post,,,,AAXX 15054 07661 36/// /3012 10159 20144 30001 40162 56010=
07661,1999-10-15 06:00:00,15.8,1015.7,-1,90,14.2,8000,22.224,,,290,15.6,18.7,,,,,0,,,,og-post,,,,AAXX 15064 07661 32558 62912 10158 20142 39996 40157 58010 84532 333 10187 20156 70000 92436=
07661,1999-10-15 07:00:00,16,1016.1,-0.2,86,13.7,,11.112,,,290,,,,,,,,,,,og-post,,,,AAXX 15074 07661 36/// /2906 10160 20137 30000 40161 55002=
07661,1999-10-15 08:00:00,17.9,1016.3,0.2,76,13.6,,7.408,,,330,,,,,,,,,,,og-post,,,,AAXX 15084 07661 36/// /3304 10179 20136 30003 40163 53002=
07661,1999-10-15 09:00:00,18.8,1016.1,0.6,74,14.1,15000,11.112,,,290,,,,,,,,,,,og-post,,,,AAXX 15094 07661 32565 42906 10188 20141 30002 40161 50006 81230 333 92437=
07661,1999-10-15 10:00:00,19.9,1015.8,0,68,13.8,,25.928,,,290,,,,,,,,,,,og-post,,,,AAXX 15104 07661 36/// /2914 10199 20138 30000 40158 50000=
07661,1999-10-15 11:00:00,19.9,1015.6,-0.5,66,13.4,,29.632,,,290,,,,,,,,,,,og-post,,,,AAXX 15114 07661 36/// /2916 10199 20134 39998 40156 58005=
07661,1999-10-15 12:00:00,20.7,1015.1,-0.9,62,13.2,14000,29.632,,,290,,,,,,,,,,,og-post,,,,AAXX 15124 07661 32564 42916 10207 20132 39993 40151 58009 81208 333 92437=
07661,1999-10-15 13:00:00,22.5,1014.4,-1.3,53,12.4,,29.632,,,300,,,,,,,,,,,og-post,,,,AAXX 15134 07661 36/// /3016 10225 20124 39987 40144 58013=
07661,1999-10-15 14:00:00,23,1013.9,-1.6,51,12.3,,31.484,,,300,,,,,,,,,,,og-post,,,,AAXX 15144 07661 36/// /3017 10230 20123 39982 40139 57016=
07661,1999-10-15 15:00:00,22.6,1014,-1,50,11.7,14000,31.484,,,300,,,,,,,,,,,og-post,,,,AAXX 15154 07661 32564 33017 10226 20117 39983 40140 55010 81208 333 92437=
07661,1999-10-15 16:00:00,21.7,1014.4,-0,51,11.1,,35.188,,,300,,,,,,,,,,,og-post,,,,AAXX 15164 07661 36/// /3019 10217 20111 39987 40144 55000=
07661,1999-10-15 17:00:00,20.3,1014.5,0.5,58,11.8,,29.632,,,300,,,,,,,,,,,og-post,,,,AAXX 15174 07661 36/// /3016 10203 20118 39987 40145 51005=
07661,1999-10-15 18:00:00,19.1,1014.9,0.7,61,11.4,14000,25.928,,,300,15.8,23,,,,,,,,,og-post,,,,AAXX 15184 07661 32564 23014 10191 20114 39990 40149 51007 81201 333 10230 20158 92437=
07661,1999-10-15 19:00:00,18.2,1014.8,0.2,66,11.7,,25.928,,,290,,,,,,,,,,,og-post,,,,AAXX 15194 07661 36/// /2914 10182 20117 39989 40148 50002=
07661,1999-10-15 20:00:00,17.4,1015.4,0.7,72,12.3,,18.52,,,310,,,,,,,,,,,og-post,,,,AAXX 15204 07661 36/// /3110 10174 20123 39994 40154 53007=
07661,1999-10-15 21:00:00,16.9,1015.5,0.5,74,12.2,14000,7.408,,,300,,,,,,,,,,,og-post,,,,AAXX 15214 07661 32564 23004 10169 20122 39995 40155 53005 81201 333 92437=
07661,1999-10-15 22:00:00,16.2,1015.5,0.5,79,12.6,,11.112,,,310,,,,,,,,,,,og-post,,,,AAXX 15224 07661 36/// /3106 10162 20126 39994 40155 50005=
07661,1999-10-15 23:00:00,15.6,1015.4,-0.1,85,13.1,,7.408,,,60,,,,,,,,,,,og-post,,,,AAXX 15234 07661 36/// /0604 10156 20131 39993 40154 58001=
07661,1999-10-16 00:00:00,15.8,1015.8,0.2,85,13.3,15000,7.408,,,60,,,,,,,,,,,og-post,,,,AAXX 16004 07661 32565 20604 10158 20133 39997 40158 53002 81201 333 92427=
07661,1999-10-16 01:00:00,15.8,1016.2,0.7,81,12.5,,7.408,,,320,,,,,,,,,,,og-post,,,,AAXX 16014 07661 36/// /3204 10158 20125 30001 40162 53007=
07661,1999-10-16 02:00:00,16,1016,0.6,76,11.8,,7.408,,,300,,,,,,,,,,,og-post,,,,AAXX 16024 07661 36/// /3004 10160 20118 39999 40160 50006=
07661,1999-10-16 03:00:00,15.6,1015.6,-0.2,87,13.4,20000,7.408,,,70,,,,,,,,,,,og-post,,,,AAXX 16034 07661 32970 00704 10156 20134 39995 40156 58002 333 92428=
07661,1999-10-16 04:00:00,15.2,1015.6,-0.6,89,13.4,,11.112,,,80,,,,,,,,,,,og-post,,,,AAXX 16044 07661 36/// /0806 10152 20134 39995 40156 56006=
07661,1999-10-16 05:00:00,16,1016,-0,86,13.7,,11.112,,,80,,,,,,,,,,,og-post,,,,AAXX 16054 07661 36/// /0806 10160 20137 39999 40160 55000=
07661,1999-10-16 06:00:00,15.4,1016,0.4,89,13.6,12000,14.816,,,70,14.9,19,,,,,0,,,,og-post,,,,AAXX 16064 07661 32462 80708 10154 20136 39999 40160 52004 885// 333 10190 20149 70000 92427=
07661,1999-10-16 07:00:00,16.7,1016.4,0.9,88,14.7,,7.408,,,70,,,,,,,,,,,og-post,,,,AAXX 16074 07661 36/// /0704 10167 20147 30004 40164 53009=
07661,1999-10-16 08:00:00,18.1,1016.5,0.7,85,15.5,,14.816,,,70,,,,,,,,,,,og-post,,,,AAXX 16084 07661 36/// /0708 10181 20155 30006 40165 53007=
07661,1999-10-16 09:00:00,19.5,1016.7,0.9,80,16,12000,11.112,,,80,,,,,,,,,,,og-post,,,,AAXX 16094 07661 32462 80806 10195 20160 30008 40167 51009 885// 333 92427=
07661,1999-10-16 10:00:00,19.8,1016.8,0.5,79,16.1,,11.112,,,100,,,,,,,,,,,og-post,,,,AAXX 16104 07661 36/// /1006 10198 20161 30009 40168 51005=
07661,1999-10-16 11:00:00,20.6,1016.5,0.1,76,16.2,,14.816,,,150,,,,,,,,,,,og-post,,,,AAXX 16114 07661 36/// /1508 10206 20162 30007 40165 50001=
07661,1999-10-16 12:00:00,20.2,1016.1,-0.5,79,16.4,1000,14.816,,,170,,,,,,,,,,,og-post,,,,AAXX 16124 07661 32410 81708 10202 20164 30003 40161 58005 885// 333 92424=
07661,1999-10-16 13:00:00,20.2,1015.7,-1,79,16.4,,18.52,,,170,,,,,,,,,,,og-post,,,,AAXX 16134 07661 36/// /1710 10202 20164 39999 40157 58010=
07661,1999-10-16 14:00:00,20,1015.4,-1.1,79,16.2,,14.816,,,160,,,,,,,,,,,og-post,,,,AAXX 16144 07661 36/// /1608 10200 20162 39996 40154 56011=
07661,1999-10-16 15:00:00,19.3,1015.3,-0.9,81,16,,14.816,,,160,,,,,,,,,,,og-post,,,,AAXX 16154 07661 36/// /1608 10193 20160 39994 40153 56009=
07661,1999-10-16 16:00:00,18.9,1015.1,-0.7,84,16.1,,7.408,,,170,,,,,,,,,,,og-post,,,,AAXX 16164 07661 36/// /1704 10189 20161 39992 40151 56007=
07661,1999-10-16 18:00:00,17.7,1015.5,0.2,89,15.9,12000,11.112,,,170,15.4,21,,,,,,,,,og-post,,,,AAXX 16184 07661 32462 31706 10177 20159 39996 40155 53002 83200 333 10210 20154 92427=
07661,1999-10-16 19:00:00,17.3,1015.6,0.4,90,15.6,,7.408,,,160,,,,,,,,,,,og-post,,,,AAXX 16194 07661 36/// /1604 10173 20156 39996 40156 52004=
07661,1999-10-16 20:00:00,17,1016,0.8,87,14.8,,7.408,,,220,,,,,,,,,,,og-post,,,,AAXX 16204 07661 36/// /2204 10170 20148 30000 40160 52008=
07661,1999-10-16 21:00:00,16.9,1016,0.4,83,14,,3.704,,,250,,,,,,,,,,,og-post,,,,AAXX 16214 07661 36/// /2502 10169 20140 30000 40160 52004=
07661,1999-10-16 22:00:00,16.2,1016,0.4,90,14.6,,3.704,,,300,,,,,,,,,,,og-post,,,,AAXX 16224 07661 36/// /3002 10162 20146 30000 40160 51004=
07661,1999-10-16 23:00:00,15.8,1015.9,-0.2,95,15,,3.704,,,30,,,,,,,,,,,og-post,,,,AAXX 16234 07661 36/// /0302 10158 20150 39998 40159 58002=
07661,1999-10-17 00:00:00,15.4,1015.7,-0.4,98,15.1,8000,7.408,,,80,,,,,,,,,,,og-post,,,,AAXX 17004 07661 32458 30804 10154 20151 39996 40157 58004 83200 333 92426=
07661,1999-10-17 01:00:00,15,1015.6,-0.5,98,14.7,,11.112,,,70,,,0.2,,,,,,,,og-post,,,,AAXX 17014 07661 26/// /0706 10150 20147 39995 40156 56005 333 69925=
07661,1999-10-17 02:00:00,15,1015.4,-0.5,99,14.8,,11.112,,,70,,,,,,,,,,,og-post,,,,AAXX 17024 07661 36/// /0706 10150 20148 39993 40154 57005=
07661,1999-10-17 03:00:00,14.7,1015.2,-0.5,98,14.4,8000,14.816,,,80,,,,0.2,,,,,,,og-post,,,,AAXX 17034 07661 22458 60808 10147 20144 39991 40152 58005 86200 333 69927 92426=
07661,1999-10-17 04:00:00,14.6,1015.1,-0.5,99,14.4,,14.816,,,90,,,,,,,,,,,og-post,,,,AAXX 17044 07661 36/// /0908 10146 20144 39990 40151 56005=
07661,1999-10-17 05:00:00,14.5,1015.1,-0.3,98,14.2,,11.112,,,80,,,,,,,,,,,og-post,,,,AAXX 17054 07661 36/// /0806 10145 20142 39990 40151 56003=
07661,1999-10-17 06:00:00,14.3,1015.2,-0,99,14.1,6000,14.816,,,70,14.1,17.7,,,,0.2,0.2,,,,og-post,,,,AAXX 17064 07661 12456 80708 10143 20141 39991 40152 55000 69922 887// 333 10177 20141 70002 92426=
07661,1999-10-17 07:00:00,14.2,1015.7,0.5,99,14,,14.816,,,90,,,0.2,,,,,,,,og-post,,,,AAXX 17074 07661 26/// /0908 10142 20140 39995 40157 53005 333 69925=
07661,1999-10-17 08:00:00,14.9,1016.1,1,98,14.6,,18.52,,,80,,,,,,,,,,,og-post,,,,AAXX 17084 07661 36/// /0810 10149 20146 30000 40161 53010=
07661,1999-10-17 09:00:00,16.9,1016.3,1.2,93,15.8,6000,14.816,,,70,,,,0.2,,,,,,,og-post,,,,AAXX 17094 07661 22456 80708 10169 20158 30003 40163 51012 887// 333 69927 92426=
07661,1999-10-17 10:00:00,18.2,1016.1,0.7,84,15.5,,18.52,,,60,,,,,,,,,,,og-post,,,,AAXX 17104 07661 36/// /0610 10182 20155 30002 40161 50007=
07661,1999-10-17 11:00:00,19.2,1015.9,0,80,15.7,,11.112,,,90,,,,,,,,,,,og-post,,,,AAXX 17114 07661 36/// /0906 10192 20157 30000 40159 50000=
07661,1999-10-17 12:00:00,19.2,1015.4,-0.8,82,16.1,6000,11.112,,,110,,,,,0.2,,,,,,og-post,,,,AAXX 17124 07661 12456 81106 10192 20161 39995 40154 58008 69921 887// 333 92426=
07661,1999-10-17 13:00:00,19,1014.7,-1.4,81,15.7,,14.816,,,110,,,,,,,,,,,og-post,,,,AAXX 17134 07661 36/// /1108 10190 20157 39988 40147 58014=
07661,1999-10-17 14:00:00,18.7,1014.2,-1.7,80,15.2,,25.928,,,90,,,,,,,,,,,og-post,,,,AAXX 17144 07661 36/// /0914 10187 20152 39983 40142 57017=
07661,1999-10-17 15:00:00,18.4,1014.2,-1.2,81,15.1,6000,29.632,,,80,,,,,,,,,,,og-post,,,,AAXX 17154 07661 32456 80816 10184 20151 39983 40142 56012 887// 333 92426=
07661,1999-10-17 16:00:00,18,1014,-0.7,84,15.3,,25.928,,,60,,,,,,,,,,,og-post,,,,AAXX 17164 07661 36/// /0614 10180 20153 39981 40140 56007=
07661,1999-10-17 17:00:00,17.4,1014.4,0.1,84,14.7,,25.928,,,60,,,,,,,,,,,og-post,,,,AAXX 17174 07661 36/// /0614 10174 20147 39984 40144 53001=
07661,1999-10-17 18:00:00,17.3,1014.7,0.4,85,14.8,,29.632,,,60,14,19.6,,,,0.2,,,,,og-post,,,,AAXX 17184 07661 16/// /0616 10173 20148 39987 40147 53004 69922 333 10196 20140=
07661,1999-10-17 19:00:00,17.2,1014,-0.1,85,14.7,,29.632,,,60,,,,,,,,,,,og-post,,,,AAXX 17194 07661 36/// /0616 10172 20147 39980 40140 58001=
07661,1999-10-17 20:00:00,16.3,1013.7,-0.7,92,15,,29.632,,,60,,,,,,,,,,,og-post,,,,AAXX 17204 07661 26/// /0616 10163 20150 39977 40137 58007 333 69905=
07661,1999-10-17 21:00:00,16.6,1013.6,-1.1,90,15,8000,35.188,,,60,,,,,,,,,,21,og-post,,,,AAXX 17214 07661 21458 80619 10166 20150 39976 40136 56011 72162 887// 333 69907 92426=
07661,1999-10-17 22:00:00,16.6,1013,-1,88,14.6,,35.188,,,60,,,,,,,,,,,og-post,,,,AAXX 17224 07661 36/// /0619 10166 20146 39970 40130 58010=
07661,1999-10-17 23:00:00,17.1,1012.9,-0.7,87,14.9,,38.892,61.116,,70,,,,,,,,,,,og-post,,,,AAXX 17234 07661 26/// /0721 10171 20149 39970 40129 56007 333 69905 91133=
07661,1999-10-18 00:00:00,16.4,1011.4,-2.2,86,14.1,8000,42.596,61.116,,60,,,,,,,,,,21,og-post,,,,AAXX 18004 07661 /1458 80623 10164 20141 39954 40114 58022 69901 72122 887// 333 69907 91133 92436=
07661,1999-10-18 01:00:00,16.9,1010,-2.9,79,13.2,,50.004,,,60,,,,,,,,,,,og-post,,,,AAXX 18014 07661 36/// /0627 10169 20132 39941 40100 58029=
07661,1999-10-18 02:00:00,17.5,1009.2,-3.7,74,12.8,,53.708,75.932,75.932,70,,,,,,,,,,,og-post,,,,AAXX 18024 07661 36/// /0729 10175 20128 39933 40092 56037 333 91041 91141=
07661,1999-10-18 03:00:00,16.6,1009.7,-1.6,86,14.2,8000,53.708,83.34,79.636,70,,,,0.6,,,,,,60,og-post,,,,AAXX 18034 07661 21458 80729 10166 20142 39938 40097 55016 76062 887// 333 69967 91043 91145 92456=
07661,1999-10-18 04:00:00,15.4,1010.1,-0,93,14.3,,42.596,75.932,64.82,60,,,5,,,,,,,,og-post,,,,AAXX 18044 07661 26/// /0623 10154 20143 39941 40101 55000 333 60055 91035 91141=
07661,1999-10-18 05:00:00,15,1008.5,-0.8,97,14.5,,53.708,79.636,75.932,70,,,6,,,,,,,,og-post,,,,AAXX 18054 07661 26/// /0729 10150 20145 39925 40085 58008 333 60065 91041 91143=
07661,1999-10-18 06:00:00,14.9,1007.5,-2.3,94,13.9,8000,57.412,83.34,83.34,60,14.8,17.7,,11,,12,12,,,21,og-post,,,,AAXX 18064 07661 /1458 80631 10149 20139 39915 40075 58023 60122 72196 8672/ 333 10177 20148 60117 70120 91045 91145 92456=
07661,1999-10-18 09:00:00,13.2,1008.8,1.2,95,12.4,4000,29.632,87.044,50.004,70,,,,34,,,,,,65,og-post,,,,AAXX 18094 07661 21440 80716 10132 20124 39927 40088 53012 765// 8672/ 333 60347 91027 91147 92456=
07661,1999-10-18 10:00:00,13.1,1008.8,1.5,97,12.6,,31.484,87.044,53.708,50,,,49,,,,,,,,og-post,,,,AAXX 18104 07661 26/// /0517 10131 20126 39927 40088 51015 333 60495 91029 91147=
07661,1999-10-18 11:00:00,12.7,1007.8,0.3,96,12.1,,46.3,68.524,68.524,50,,,3,,,,,,,,og-post,,,,AAXX 18114 07661 26/// /0525 10127 20121 39917 40078 50003 333 60035 91037 91137=
07661,1999-10-18 15:00:00,14.5,1008.1,0.1,79,10.9,1400,46.3,68.524,64.82,80,,,,0.6,,,,,,21,og-post,,,,AAXX 18154 07661 21514 50825 10145 20109 39921 40081 53001 72162 82800 333 69967 91035 91137 92457=
07661,1999-10-18 16:00:00,14.4,1008.2,0.6,79,10.8,,46.3,72.228,68.524,70,,,,,,,,,,,og-post,,,,AAXX 18164 07661 36/// /0725 10144 20108 39922 40082 51006 333 91037 91139=
07661,1999-10-18 17:00:00,14.1,1008.3,0.3,80,10.7,,42.596,,,70,,,,,,,,,,,og-post,,,,AAXX 18174 07661 36/// /0723 10141 20107 39922 40083 51003=
07661,1999-10-18 18:00:00,13.3,1008.6,0.4,83,10.5,14000,31.484,72.228,,60,12.3,15.2,,,,90,,,,21,og-post,,,,AAXX 18184 07661 11564 50617 10133 20105 39925 40086 53004 60902 72162 82800 333 10152 20123 91139 92457=
07661,1999-10-21 08:00:00,15,995.9,0.3,99,14.8,,25.928,,,60,,,1,,,,,,,,og-post,,,,AAXX 21084 07661 26/// /0614 10150 20148 39801 49959 53003 333 60015=
07661,1999-10-21 09:00:00,15.6,996,0.8,99,15.4,10000,22.224,,,60,,,,4,,,,,,,og-post,,,,AAXX 21094 07661 22460 80612 10156 20154 39802 49960 51008 886// 333 60047 924/7=
07661,1999-10-21 10:00:00,15.3,996.5,1,96,14.7,,18.52,,,20,,,,,,,,,,,og-post,,,,AAXX 21104 07661 36/// /0210 10153 20147 39807 49965 53010=
07661,1999-10-21 11:00:00,14.5,997.3,1.4,97,14,,29.632,,,310,,,2,,,,,,,,og-post,,,,AAXX 21114 07661 26/// /3116 10145 20140 39815 49973 53014 333 60025=
07661,1999-10-21 12:00:00,13.4,998.6,2.5,99,13.2,2000,31.484,,,300,,,,21,25,,,,,21,og-post,,,,AAXX 21124 07661 /1420 83017 10134 20132 39827 49986 53025 60251 72162 886// 333 60217 92445=
07661,1999-10-21 14:00:00,13.9,1002.3,4.8,100,13.9,,18.52,,,300,,,4,,,,,,,,og-post,,,,AAXX 21144 07661 26/// /3010 10139 20139 39863 40023 53048 333 60045=
07661,1999-10-21 15:00:00,14.1,1003.3,4.6,99,13.9,5000,11.112,,,300,,,,13,,,,,,63,og-post,,,,AAXX 21154 07661 21450 63006 10141 20139 39873 40033 51046 76366 86700 333 60137 92446=
07661,1999-10-21 16:00:00,14.6,1004.1,3.6,99,14.4,,18.52,,,300,,,0.2,,,,,,,,og-post,,,,AAXX 21164 07661 26/// /3010 10146 20144 39882 40041 51036 333 69925=
07661,1999-10-21 17:00:00,14.1,1004.9,2.6,97,13.6,,14.816,,,310,,,,,,,,,,,og-post,,,,AAXX 21174 07661 26/// /3108 10141 20136 39889 40049 51026 333 69905=
07661,1999-10-21 18:00:00,14.1,1005.8,2.5,96,13.5,,11.112,,,300,13.3,15.8,,0.2,,38,,,,,og-post,,,,AAXX 21184 07661 /6/// /3006 10141 20135 39898 40058 52025 60382 333 10158 20133 69927=
07661,1999-10-21 19:00:00,14.4,1006.2,2,90,12.8,,11.112,,,330,,,,,,,,,,,og-post,,,,AAXX 21194 07661 36/// /3306 10144 20128 39902 40062 51020=
07661,1999-10-21 20:00:00,14.7,1006.6,1.7,88,12.7,,3.704,,,300,,,,,,,,,,,og-post,,,,AAXX 21204 07661 36/// /3002 10147 20127 39906 40066 51017=
07661,1999-10-21 21:00:00,14.1,1007.7,1.9,93,13,20000,3.704,,,270,,,,,,,,,,,og-post,,,,AAXX 21214 07661 32470 32702 10141 20130 39917 40077 53019 81600 333 92438=
07661,1999-10-21 22:00:00,14.2,1008.1,1.9,94,13.2,,3.704,,,300,,,,,,,,,,,og-post,,,,AAXX 21224 07661 36/// /3002 10142 20132 39921 40081 52019=
07661,1999-10-21 23:00:00,13.6,1008.1,1.4,94,12.7,,7.408,,,50,,,,,,,,,,,og-post,,,,AAXX 21234 07661 36/// /0504 10136 20127 39920 40081 50014=
07661,1999-10-22 00:00:00,13.1,1008.3,0.5,98,12.8,20000,11.112,,,70,,,,,,,,,,,og-post,,,,AAXX 22004 07661 32470 30706 10131 20128 39922 40083 51005 81600 333 92438=
07661,1999-10-22 01:00:00,12.8,1008.2,-0,97,12.3,,18.52,,,70,,,,,,,,,,,og-post,,,,AAXX 22014 07661 36/// /0710 10128 20123 39921 40082 54000=
07661,1999-10-22 02:00:00,12.9,1008,-0.1,98,12.6,,22.224,,,80,,,,,,,,,,,og-post,,,,AAXX 22024 07661 36/// /0812 10129 20126 39919 40080 58001=
07661,1999-10-22 03:00:00,12.7,1008.1,-0.2,98,12.4,20000,25.928,,,80,,,,,,,,,,,og-post,,,,AAXX 22034 07661 32970 10814 10127 20124 39920 40081 55002 80002 333 92438=
07661,1999-10-22 04:00:00,13,1008.1,-0.1,97,12.5,,25.928,,,60,,,,,,,,,,,og-post,,,,AAXX 22044 07661 36/// /0614 10130 20125 39920 40081 56001=
07661,1999-10-22 05:00:00,13.4,1008.5,0.5,97,12.9,,18.52,,,70,,,,,,,,,,,og-post,,,,AAXX 22054 07661 36/// /0710 10134 20129 39924 40085 53005=
07661,1999-10-22 06:00:00,13.5,1009.3,1.2,98,13.2,20000,25.928,,,60,12.5,14.7,,,,,38.2,,,,og-post,,,,AAXX 22064 07661 32570 60614 10135 20132 39932 40093 53012 83872 222// 300// 333 10147 20125 70382 92438=
07661,1999-10-22 07:00:00,14,1009.4,1.3,97,13.5,,29.632,,,70,,,,,,,,,,,og-post,,,,AAXX 22074 07661 36/// /0716 10140 20135 39933 40094 51013=
07661,1999-10-22 08:00:00,14.7,1009.7,1.3,92,13.4,,31.484,,,70,,,,,,,,,,,og-post,,,,AAXX 22084 07661 36/// /0717 10147 20134 39937 40097 51013=
07661,1999-10-22 09:00:00,15.7,1010,0.8,91,14.2,,31.484,,,70,,,,,,,,,,,og-post,,,,AAXX 22094 07661 26/// /0717 10157 20142 39940 40100 53008 333 69907=
07661,1999-10-22 10:00:00,16.9,1009.5,0.3,88,14.9,,35.188,,,70,,,,,,,,,,,og-post,,,,AAXX 22104 07661 26/// /0719 10169 20149 39936 40095 50003 333 69905=
07661,1999-10-22 11:00:00,17.9,1009.9,0.4,88,15.9,,31.484,,,70,,,,,,,,,,,og-post,,,,AAXX 22114 07661 26/// /0717 10179 20159 39941 40099 53004 333 69905=
07661,1999-10-22 12:00:00,18.4,1009.1,-0.7,88,16.4,,31.484,,,80,,,,,,,,,,,og-post,,,,AAXX 22124 07661 /6/// /0817 10184 20164 39933 40091 58007 69901 333 69907=
07661,1999-10-22 13:00:00,18.8,1009.2,-0.2,90,17.1,,25.928,,,90,,,,,,,,,,,og-post,,,,AAXX 22134 07661 26/// /0914 10188 20171 39934 40092 58002 333 69905=
07661,1999-10-22 14:00:00,18.9,1008.8,-1.1,93,17.7,,22.224,,,100,,,,,,,,,,,og-post,,,,AAXX 22144 07661 26/// /1012 10189 20177 39930 40088 56011 333 69905=
07661,1999-10-22 15:00:00,19.3,1008.8,-0.2,91,17.8,14000,22.224,,,120,,,,,,,,,,,og-post,,,,AAXX 22154 07661 22564 71212 10193 20178 39931 40088 57002 83772 333 69907 92437=
07661,1999-10-22 16:00:00,19.1,1008,-1.1,96,18.4,,31.484,,,140,,,,,,,,,,,og-post,,,,AAXX 22164 07661 36/// /1417 10191 20184 39923 40080 58011=
07661,1999-10-22 17:00:00,19,1008,-0.7,98,18.7,,31.484,,,140,,,,,,,,,,,og-post,,,,AAXX 22174 07661 36/// /1417 10190 20187 39923 40080 58007=
07661,1999-10-22 18:00:00,19,1008.9,-0,99,18.8,14000,29.632,,,150,13.5,19.3,,,,,,,,,og-post,,,,AAXX 22184 07661 12564 31516 10190 20188 39931 40089 55000 69902 82330 333 10193 20135 92437=
07661,1999-10-22 19:00:00,19,1009,0.9,99,18.8,,29.632,,,140,,,,,,,,,,,og-post,,,,AAXX 22194 07661 36/// /1416 10190 20188 39932 40090 53009=
07661,1999-10-22 20:00:00,19.1,1008.7,0.7,99,18.9,,29.632,,,140,,,,,,,,,,,og-post,,,,AAXX 22204 07661 36/// /1416 10191 20189 39930 40087 50007=
07661,1999-10-22 21:00:00,19.2,1008.7,-0.1,99,19,10000,25.928,,,140,,,,,,,,,,,og-post,,,,AAXX 22214 07661 32560 81414 10192 20190 39930 40087 58001 8212/ 333 92437=
07661,1999-10-22 22:00:00,19.1,1008.5,-0.4,100,19.1,,25.928,,,150,,,,,,,,,,,og-post,,,,AAXX 22224 07661 36/// /1514 10191 20191 39928 40085 57004=
07661,1999-10-22 23:00:00,19,1007.4,-1.3,100,19,,29.632,,,150,,,,,,,,,,,og-post,,,,AAXX 22234 07661 36/// /1516 10190 20190 39917 40074 58013=
07661,1999-10-23 00:00:00,18.9,1006.6,-2.1,99,18.7,15000,31.484,,,180,,,,,,,,,,,og-post,,,,AAXX 23004 07661 32565 81817 10189 20187 39909 40066 58021 8212/ 333 92437=
07661,1999-10-23 04:00:00,18,1006.2,-1.3,98,17.7,,22.224,53.708,,220,,,4,,,,,,,,og-post,,,,AAXX 23044 07661 26/// /2212 10180 20177 39904 40062 58013 333 60045 91129=
07661,1999-10-23 05:00:00,17.7,1005.1,-1.1,99,17.5,,25.928,,,210,,,,,,,,,,,og-post,,,,AAXX 23054 07661 36/// /2114 10177 20175 39893 40051 55011=
07661,1999-10-23 06:00:00,18.3,1005,-0.8,98,18,6000,25.928,53.708,,200,17.6,19.2,,,,6,5.8,,,3,og-post,,,,AAXX 23064 07661 11456 82014 10183 20180 39893 40050 56008 60062 70362 85720 333 10192 20176 70058 91129 92436=
07661,1999-10-23 09:00:00,19,1005.8,0.8,83,16,15000,29.632,,,250,,,,,,,,,,,og-post,,,,AAXX 23094 07661 32465 32516 10190 20160 39901 40058 53008 82202 333 92447=
07661,1999-10-23 10:00:00,19.1,1006.2,1.3,83,16.1,,25.928,,,250,,,,,,,,,,,og-post,,,,AAXX 23104 07661 36/// /2514 10191 20161 39905 40062 53013=
07661,1999-10-23 11:00:00,18.9,1006.2,1.1,80,15.4,,29.632,,,230,,,,,,,,,,,og-post,,,,AAXX 23114 07661 36/// /2316 10189 20154 39905 40062 51011=
07661,1999-10-23 12:00:00,19.4,1006,0.2,75,14.9,20000,22.224,,,230,,,,,,,,,,,og-post,,,,AAXX 23124 07661 32470 32312 10194 20149 39903 40060 50002 82202 333 92448=
07661,1999-10-23 14:00:00,19.1,1005.5,-0.7,74,14.4,,7.408,,,270,,,,,,,,,,,og-post,,,,AAXX 23144 07661 36/// /2704 10191 20144 39898 40055 55007=
07661,1999-10-23 15:00:00,19.4,1005.3,-0.7,71,14,25000,11.112,,,220,,,,,,,,,,,og-post,,,,AAXX 23154 07661 32475 22206 10194 20140 39896 40053 56007 81202 333 92438=
07661,1999-10-23 16:00:00,18.6,1005.9,0.4,75,14.1,,14.816,,,230,,,,,,,,,,,og-post,,,,AAXX 23164 07661 36/// /2308 10186 20141 39901 40059 53004=
07661,1999-10-23 17:00:00,17.3,1006.8,1.2,91,15.8,,18.52,,,230,,,,,,,,,,,og-post,,,,AAXX 23174 07661 36/// /2310 10173 20158 39910 40068 53012=
07661,1999-10-23 18:00:00,16.7,1007.4,1.9,93,15.6,18000,14.816,,,300,16.5,20.2,,,,,,,,,og-post,,,,AAXX 23184 07661 32468 23008 10167 20156 39915 40074 52019 82200 333 10202 20165 92437=
07661,1999-10-23 19:00:00,16.5,1007.5,1.5,94,15.5,,18.52,,,270,,,,,,,,,,,og-post,,,,AAXX 23194 07661 36/// /2710 10165 20155 39916 40075 51015=
07661,1999-10-23 20:00:00,16.3,1007.4,0.5,94,15.3,,11.112,,,340,,,,,,,,,,,og-post,,,,AAXX 23204 07661 36/// /3406 10163 20153 39915 40074 50005=
07661,1999-10-23 21:00:00,16.1,1007.6,0.2,93,15,18000,3.704,,,200,,,,,,,,,,,og-post,,,,AAXX 23214 07661 32868 22002 10161 20150 39917 40076 53002 82030 333 92427=
07661,1999-10-23 22:00:00,15.8,1007.2,-0.3,96,15.2,,11.112,,,180,,,,,,,,,,,og-post,,,,AAXX 23224 07661 36/// /1806 10158 20152 39913 40072 58003=
07661,1999-10-23 23:00:00,15.2,1007.4,-0.1,94,14.2,,7.408,,,110,,,,,,,,,,,og-post,,,,AAXX 23234 07661 36/// /1104 10152 20142 39914 40074 58001=
07661,1999-10-24 00:00:00,14.4,1006.8,-0.9,95,13.6,20000,18.52,,,90,,,,,,,,,,,og-post,,,,AAXX 24004 07661 32/70 10910 10144 20136 39908 40068 58009 81111 333 92428=
07661,1999-10-24 01:00:00,15.1,1006.8,-0.5,97,14.6,,14.816,,,90,,,0.2,,,,,,,,og-post,,,,AAXX 24014 07661 26/// /0908 10151 20146 39908 40068 58005 333 69925=
07661,1999-10-24 02:00:00,16.9,1006.2,-1,97,16.4,,14.816,,,130,,,,,,,,,,,og-post,,,,AAXX 24024 07661 36/// /1308 10169 20164 39904 40062 56010=
07661,1999-10-24 03:00:00,17.9,1005.6,-1,93,16.8,20000,18.52,,,150,,,,0.2,,,,,,,og-post,,,,AAXX 24034 07661 22470 21510 10179 20168 39898 40056 58010 82200 333 69927 92428=
07661,1999-10-24 04:00:00,18.3,1004.8,-1.7,93,17.1,,29.632,,,180,,,0.2,,,,,,,,og-post,,,,AAXX 24044 07661 26/// /1816 10183 20171 39891 40048 58017 333 69925=
07661,1999-10-24 05:00:00,18.2,1003.7,-2.4,97,17.7,,38.892,61.116,,180,,,3,,,,,,,,og-post,,,,AAXX 24054 07661 26/// /1821 10182 20177 39880 40037 58024 333 60035 91133=
07661,1999-10-24 06:00:00,17.9,1003.7,-1.8,98,17.6,6000,31.484,61.116,,190,14.1,18.5,,5,,5,4.8,,,3,og-post,,,,AAXX 24064 07661 /1456 81917 10179 20176 39880 40037 56018 60052 70366 87720 333 10185 20141 60057 70048 91133 92426=
07661,1999-10-24 07:00:00,18.1,1003.9,-0.9,99,17.9,,35.188,,,180,,,2,,,,,,,,og-post,,,,AAXX 24074 07661 26/// /1819 10181 20179 39882 40039 55009 333 60025=
07661,1999-10-24 08:00:00,17.8,1003.9,0.2,98,17.5,,31.484,57.412,53.708,190,,,2,,,,,,,,og-post,,,,AAXX 24084 07661 26/// /1917 10178 20175 39882 40039 52002 333 60025 91029 91131=
07661,1999-10-24 09:00:00,18.5,1003.4,-0.3,98,18.2,5000,29.632,57.412,50.004,190,,,,5,,,,,,63,og-post,,,,AAXX 24094 07661 21450 81916 10185 20182 39877 40034 58003 76366 887// 333 60057 91027 91131 92446=
07661,1999-10-24 10:00:00,18.8,1003.4,-0.5,98,18.5,,31.484,61.116,,190,,,1,,,,,,,,og-post,,,,AAXX 24104 07661 26/// /1917 10188 20185 39877 40034 57005 333 60015 91133=
07661,1999-10-24 11:00:00,19,1003.9,-0,98,18.7,,25.928,,,190,,,0.4,,,,,,,,og-post,,,,AAXX 24114 07661 26/// /1914 10190 20187 39882 40039 55000 333 69945=
07661,1999-10-24 12:00:00,19,1003.1,-0.3,97,18.5,4000,18.52,61.116,,180,,,,2,7,,,,,63,og-post,,,,AAXX 24124 07661 /1440 81810 10190 20185 39874 40031 58003 60071 76366 887// 333 60027 91133 92446=
07661,1999-10-24 13:00:00,19.1,1002.7,-0.7,94,18.1,,25.928,,,180,,,,,,,,,,,og-post,,,,AAXX 24134 07661 26/// /1814 10191 20181 39870 40027 58007 333 69905=
07661,1999-10-24 14:00:00,18.7,1001.4,-2.5,90,17,,25.928,,,160,,,0.4,,,,,,,,og-post,,,,AAXX 24144 07661 26/// /1614 10187 20170 39857 40014 58025 333 69945=
07661,1999-10-24 15:00:00,19.2,1000.9,-2.1,91,17.7,4000,31.484,,57.412,180,,,,0.4,,,,,,63,og-post,,,,AAXX 24154 07661 21440 81817 10192 20177 39853 40009 57021 76366 887// 333 69947 91031 92446=
07661,1999-10-24 16:00:00,18.9,1002.6,-0.1,91,17.4,,22.224,,,180,,,,,,,,,,,og-post,,,,AAXX 24164 07661 26/// /1812 10189 20174 39869 40026 55001 333 69905=
07661,1999-10-24 17:00:00,18.9,1003.5,2.1,94,17.9,,14.816,,,190,,,,,,,,,,,og-post,,,,AAXX 24174 07661 36/// /1908 10189 20179 39878 40035 53021=
07661,1999-10-24 18:00:00,18.9,1003.6,2.6,94,17.9,5000,14.816,,,210,17.5,19.2,,,,7,,,,21,og-post,,,,AAXX 24184 07661 /1450 82108 10189 20179 39879 40036 51026 60072 72162 8672/ 333 10192 20175 69907 92436=
07661,1999-10-24 19:00:00,18.8,1003.2,0.6,94,17.8,,22.224,,,180,,,0.2,,,,,,,,og-post,,,,AAXX 24194 07661 26/// /1812 10188 20178 39875 40032 50006 333 69925=
07661,1999-10-24 20:00:00,18.7,1003.5,-0,75,14.2,,14.816,,,210,,,,,,,,,,,og-post,,,,AAXX 24204 07661 36/// /2108 10187 20142 39878 40035 55000=
07661,1999-10-24 21:00:00,18,1003.3,-0.3,88,16,10000,22.224,,,160,,,,0.8,,,,,,2,og-post,,,,AAXX 24214 07661 21460 81612 10180 20160 39876 40033 56003 70262 8672/ 333 69987 92437=
07661,1999-10-24 22:00:00,18.2,1003.5,0.3,82,15.1,,22.224,,,190,,,0.2,,,,,,,,og-post,,,,AAXX 24224 07661 26/// /1912 10182 20151 39878 40035 51003 333 69925=
07661,1999-10-24 23:00:00,18.4,1004.1,0.6,86,16,,11.112,,,210,,,0.4,,,,,,,,og-post,,,,AAXX 24234 07661 26/// /2106 10184 20160 39884 40041 53006 333 69945=
07661,1999-10-25 00:00:00,16.9,1004,0.6,97,16.4,10000,18.52,,,70,,,,0.8,2,,,,,2,og-post,,,,AAXX 25004 07661 /1460 80710 10169 20164 39882 40040 50006 60021 70262 8672/ 333 69987 92427=
07661,1999-10-25 01:00:00,16.9,1004.1,0.5,98,16.6,,14.816,,,90,,,0.6,,,,,,,,og-post,,,,AAXX 25014 07661 26/// /0908 10169 20166 39883 40041 51005 333 69965=
07661,1999-10-25 02:00:00,17.3,1003.3,-0.9,97,16.8,,14.816,,,80,,,,,,,,,,,og-post,,,,AAXX 25024 07661 36/// /0808 10173 20168 39875 40033 58009=
07661,1999-10-25 03:00:00,18.5,1002.7,-1.2,97,18,10000,22.224,,,180,,,,0.6,,,,,,,og-post,,,,AAXX 25034 07661 22460 81812 10185 20180 39870 40027 58012 8672/ 333 69967 92437=
07661,1999-10-25 04:00:00,18.7,1002.8,-1.2,97,18.2,,29.632,,,190,,,,,,,,,,,og-post,,,,AAXX 25044 07661 36/// /1916 10187 20182 39871 40028 55012=
07661,1999-10-25 05:00:00,18.7,1003.2,-0,97,18.2,,25.928,,,190,,,,,,,,,,,og-post,,,,AAXX 25054 07661 36/// /1914 10187 20182 39875 40032 55000=
07661,1999-10-25 06:00:00,18.9,1003.4,0.7,96,18.2,7000,29.632,,,190,16.8,19,,,,2,9.2,,,,og-post,,,,AAXX 25064 07661 12457 81916 10189 20182 39877 40034 53007 60022 887// 333 10190 20168 70092 92436=
07661,1999-10-25 07:00:00,19,1004,1.2,94,18,,25.928,53.708,,200,,,,,,,,,,,og-post,,,,AAXX 25074 07661 36/// /2014 10190 20180 39883 40040 53012 333 91129=
07661,1999-10-25 08:00:00,18.8,1005.1,1.9,92,17.5,,22.224,,,210,,,,,,,,,,,og-post,,,,AAXX 25084 07661 36/// /2112 10188 20175 39894 40051 53019=
07661,1999-10-25 09:00:00,18.9,1005.9,2.5,85,16.3,15000,22.224,53.708,,210,,,,,,,,,,,og-post,,,,AAXX 25094 07661 32565 82112 10189 20163 39902 40059 53025 8371/ 333 91129 92437=
07661,1999-10-25 10:00:00,19.6,1006.6,2.6,85,17,,14.816,,,180,,,,,,,,,,,og-post,,,,AAXX 25104 07661 36/// /1808 10196 20170 39909 40066 51026=
07661,1999-10-25 11:00:00,19.9,1006.9,1.8,84,17.1,,11.112,,,230,,,,,,,,,,,og-post,,,,AAXX 25114 07661 36/// /2306 10199 20171 39912 40069 51018=
07661,1999-10-25 12:00:00,19.2,1007.2,1.3,76,14.9,10000,18.52,53.708,,260,,,,,,,,,,,og-post,,,,AAXX 25124 07661 32560 82610 10192 20149 39915 40072 51013 8371/ 333 91129 92437=
07661,1999-10-25 13:00:00,19.3,1007.8,1.2,77,15.2,,14.816,,,220,,,,,,,,,,,og-post,,,,AAXX 25134 07661 36/// /2208 10193 20152 39921 40078 53012=
07661,1999-10-25 14:00:00,19.4,1008.1,1.2,77,15.3,,11.112,,,220,,,,,,,,,,,og-post,,,,AAXX 25144 07661 36/// /2206 10194 20153 39924 40081 52012=
07661,1999-10-25 17:00:00,17.6,1009.5,1.2,83,14.7,,11.112,,,180,,,,,,,,,,,og-post,,,,AAXX 25174 07661 36/// /1806 10176 20147 39936 40095 53012=
07661,1999-10-25 18:00:00,17.6,1010.3,1.8,84,14.9,15000,11.112,,,150,17.6,20.1,,,,,,,,,og-post,,,,AAXX 25184 07661 32565 51506 10176 20149 39944 40103 53018 8124/ 333 10201 20176 92427=
07661,1999-10-25 21:00:00,16.8,1012.1,1.8,90,15.1,15000,18.52,,,70,,,,,,,,,,,og-post,,,,AAXX 25214 07661 32565 50710 10168 20151 39962 40121 52018 8171/ 333 92427=
07661,1999-10-25 23:00:00,17.1,1013.6,2,87,14.9,,14.816,,,100,,,,,,,,,,,og-post,,,,AAXX 25234 07661 36/// /1008 10171 20149 39976 40136 53020=
07661,1999-10-26 00:00:00,16.2,1013.6,1.4,93,15.1,8000,11.112,,,100,,,,,,,,,,,og-post,,,,AAXX 26004 07661 32558 51006 10162 20151 39976 40136 51014 8171/ 333 92426=
07661,1999-10-26 02:00:00,16.1,1013.9,0.3,94,15.1,,14.816,,,90,,,,,,,,,,,og-post,,,,AAXX 26024 07661 36/// /0908 10161 20151 39979 40139 53003=
07661,1999-10-26 03:00:00,15.6,1013.9,0.3,96,15,16000,11.112,,,80,,,,,,,,,,,og-post,,,,AAXX 26034 07661 32466 70806 10156 20150 39979 40139 51003 8111/ 333 92427=
07661,1999-10-26 06:00:00,16.4,1015.3,1.4,89,14.6,16000,14.816,,,70,15.6,17.9,,,,,0,,,,og-post,,,,AAXX 26064 07661 32466 80708 10164 20146 39993 40153 52014 81170 333 10179 20156 70000 92427=
07661,1999-10-26 07:00:00,16.8,1015.8,1.3,89,15,,11.112,,,50,,,,,,,,,,,og-post,,,,AAXX 26074 07661 36/// /0506 10168 20150 39998 40158 53013=
07661,1999-10-26 08:00:00,16.1,1016.8,2,94,15.1,,11.112,,,100,,,,,,,,,,,og-post,,,,AAXX 26084 07661 36/// /1006 10161 20151 30007 40168 53020=
07661,1999-10-26 09:00:00,18.1,1017.7,2.4,85,15.5,20000,7.408,,,40,,,,,,,,,,,og-post,,,,AAXX 26094 07661 32470 70404 10181 20155 30017 40177 53024 81170 333 92428=
07661,1999-10-26 10:00:00,18.9,1017.9,2.2,84,16.1,,7.408,,,90,,,,,,,,,,,og-post,,,,AAXX 26104 07661 36/// /0904 10189 20161 30020 40179 51022=
07661,1999-10-26 11:00:00,19.5,1018.1,1.5,80,16,,7.408,,,100,,,,,,,,,,,og-post,,,,AAXX 26114 07661 36/// /1004 10195 20160 30022 40181 51015=
07661,1999-10-26 12:00:00,19.6,1018.2,0.6,82,16.4,20000,3.704,,,70,,,,,,,,,,,og-post,,,,AAXX 26124 07661 32470 70702 10196 20164 30023 40182 51006 81170 333 92428=
07661,1999-10-26 13:00:00,19.8,1018,0.1,82,16.6,,7.408,,,50,,,,,,,,,,,og-post,,,,AAXX 26134 07661 36/// /0504 10198 20166 30021 40180 50001=
07661,1999-10-26 14:00:00,19.6,1018.4,0.3,78,15.7,,3.704,,,70,,,,,,,,,,,og-post,,,,AAXX 26144 07661 36/// /0702 10196 20157 30025 40184 53003=
07661,1999-10-26 15:00:00,19.4,1018.4,0.2,80,15.9,20000,7.408,,,140,,,,,,,,,,,og-post,,,,AAXX 26154 07661 32870 71404 10194 20159 30025 40184 53002 8707/ 333 92428=
07661,1999-10-26 17:00:00,18.4,1019.1,0.6,87,16.2,,7.408,,,60,,,,,,,,,,,og-post,,,,AAXX 26174 07661 36/// /0604 10184 20162 30031 40191 53006=
07661,1999-10-26 18:00:00,17.9,1020.4,1.9,92,16.6,20000,14.816,,,300,16,19.9,,,,,,,,,og-post,,,,AAXX 26184 07661 32870 63008 10179 20166 30044 40204 53019 86070 333 10199 20160 92428=
07661,1999-10-26 19:00:00,17.8,1020.8,2,89,16,,11.112,,,310,,,,,,,,,,,og-post,,,,AAXX 26194 07661 36/// /3106 10178 20160 30048 40208 53020=
07661,1999-10-26 20:00:00,17.5,1021.2,2,82,14.4,,7.408,,,330,,,,,,,,,,,og-post,,,,AAXX 26204 07661 36/// /3304 10175 20144 30051 40212 51020=
07661,1999-10-26 21:00:00,17.1,1021.4,0.9,80,13.6,20000,7.408,,,70,,,,,,,,,,,og-post,,,,AAXX 26214 07661 32870 60704 10171 20136 30053 40214 51009 86070 333 92428=
07661,1999-10-26 22:00:00,17.4,1021.6,0.7,84,14.7,,7.408,,,70,,,,,,,,,,,og-post,,,,AAXX 26224 07661 36/// /0704 10174 20147 30055 40216 51007=
07661,1999-10-26 23:00:00,17,1021.7,0.5,79,13.3,,7.408,,,60,,,,,,,,,,,og-post,,,,AAXX 26234 07661 36/// /0604 10170 20133 30056 40217 51005=
07661,1999-10-27 00:00:00,16.9,1022.2,0.8,73,12,20000,7.408,,,330,,,,,,,,,,,og-post,,,,AAXX 27004 07661 32/70 /3304 10169 20120 30061 40222 53008 333 92428=
07661,1999-10-27 01:00:00,16.3,1022.9,1.2,77,12.3,,11.112,,,280,,,,,,,,,,,og-post,,,,AAXX 27014 07661 36/// /2806 10163 20123 30067 40229 53012=
07661,1999-10-27 02:00:00,16.4,1022.8,1,80,12.9,,11.112,,,300,,,,,,,,,,,og-post,,,,AAXX 27024 07661 36/// /3006 10164 20129 30066 40228 50010=
07661,1999-10-27 03:00:00,16.2,1022.9,0.6,73,11.4,20000,11.112,,,310,,,,,,,,,,,og-post,,,,AAXX 27034 07661 32570 53106 10162 20114 30067 40229 51006 82101 333 92428=
07661,1999-10-27 04:00:00,16.6,1023.3,0.4,72,11.5,,11.112,,,300,,,,,,,,,,,og-post,,,,AAXX 27044 07661 36/// /3006 10166 20115 30071 40233 53004=
07661,1999-10-27 05:00:00,15.9,1023.5,0.7,72,10.9,,14.816,,,300,,,,,,,,,,,og-post,,,,AAXX 27054 07661 36/// /3008 10159 20109 30073 40235 53007=
07661,1999-10-27 06:00:00,15.7,1023.7,0.8,75,11.3,,14.816,,,300,15.3,18,,,,,,,,,og-post,,,,AAXX 27064 07661 36/// /3008 10157 20113 30075 40237 51008 333 10180 20153 70000=
07661,1999-10-27 07:00:00,15.8,1024.2,0.9,78,12,,7.408,,,350,,,,,,,,,,,og-post,,,,AAXX 27074 07661 36/// /3504 10158 20120 30080 40242 53009=
07661,1999-10-27 08:00:00,17.1,1025,1.5,56,8.3,,3.704,,,310,,,,,,,,,,,og-post,,,,AAXX 27084 07661 36/// /3102 10171 20083 30088 40250 53015=
07661,1999-10-27 09:00:00,18.8,1025.6,2,62,11.4,25000,3.704,,,240,,,,,,,,,,,og-post,,,,AAXX 27094 07661 32875 42402 10188 20114 30095 40256 53020 82031 333 92428=
07661,1999-10-27 10:00:00,19.8,1026.1,2.1,68,13.7,,11.112,,,230,,,,,,,,,,,og-post,,,,AAXX 27104 07661 36/// /2306 10198 20137 30101 40261 51021=
07661,1999-10-27 11:00:00,20.2,1026.2,1.4,60,12.2,,14.816,,,290,,,,,,,,,,,og-post,,,,AAXX 27114 07661 36/// /2908 10202 20122 30102 40262 51014=
07661,1999-10-27 12:00:00,20.2,1025.9,0.4,70,14.6,25000,22.224,,,300,,,,,,,,,,,og-post,,,,AAXX 27124 07661 32875 43012 10202 20146 30099 40259 50004 82031 333 92428=
07661,1999-10-27 13:00:00,21.3,1025,-1,55,11.9,,22.224,,,290,,,,,,,,,,,og-post,,,,AAXX 27134 07661 36/// /2912 10213 20119 30091 40250 58010=
07661,1999-10-27 14:00:00,21.6,1024.1,-2,51,11,,14.816,,,270,,,,,,,,,,,og-post,,,,AAXX 27144 07661 36/// /2708 10216 20110 30082 40241 58020=
07661,1999-10-27 15:00:00,21.7,1024.6,-1.2,58,13.1,20000,7.408,,,270,,,,,,,,,,,og-post,,,,AAXX 27154 07661 32970 22704 10217 20131 30087 40246 55012 80001 333 92428=
07661,1999-10-27 16:00:00,19.5,1024.9,-0.2,70,13.9,,22.224,,,300,,,,,,,,,,,og-post,,,,AAXX 27164 07661 36/// /3012 10195 20139 30089 40249 55002=
07661,1999-10-27 17:00:00,20.3,1024.9,0.7,57,11.5,,22.224,,,300,,,,,,,,,,,og-post,,,,AAXX 27174 07661 36/// /3012 10203 20115 30089 40249 51007=
07661,1999-10-27 18:00:00,20.6,1025.5,0.8,59,12.3,16000,11.112,,,310,15.6,22.1,,,,,,,,,og-post,,,,AAXX 27184 07661 32966 23106 10206 20123 30095 40255 53008 80001 333 10221 20156 92427=
07661,1999-10-27 19:00:00,19.8,1025.8,0.9,65,13,,14.816,,,270,,,,,,,,,,,og-post,,,,AAXX 27194 07661 36/// /2708 10198 20130 30098 40258 53009=
07661,1999-10-27 20:00:00,17.9,1025.8,0.8,86,15.5,,14.816,,,300,,,,,,,,,,,og-post,,,,AAXX 27204 07661 36/// /3008 10179 20155 30097 40258 50008=
07661,1999-10-27 21:00:00,18,1026.2,0.6,95,17.2,15000,22.224,,,300,,,,,,,,,,,og-post,,,,AAXX 27214 07661 32965 13012 10180 20172 30101 40262 53006 80001 333 92427=
07661,1999-10-27 22:00:00,18.1,1026.5,0.6,88,16.1,,18.52,,,290,,,,,,,,,,,og-post,,,,AAXX 27224 07661 36/// /2910 10181 20161 30104 40265 53006=
07661,1999-10-27 23:00:00,18.5,1026.4,0.6,78,14.6,,18.52,,,270,,,,,,,,,,,og-post,,,,AAXX 27234 07661 36/// /2710 10185 20146 30103 40264 50006=
07661,1999-10-28 00:00:00,17.3,1026.2,0,84,14.6,,14.816,,,310,,,,,,,,,,,og-post,,,,AAXX 28004 07661 36/// /3108 10173 20146 30101 40262 50000=
07661,1999-10-28 01:00:00,18,1026.2,-0.3,66,11.6,,7.408,,,310,,,,,,,,,,,og-post,,,,AAXX 28014 07661 36/// /3104 10180 20116 30101 40262 56003=
07661,1999-10-28 02:00:00,17.2,1026,-0.5,68,11.2,,11.112,,,80,,,,,,,,,,,og-post,,,,AAXX 28024 07661 36/// /0806 10172 20112 30098 40260 58005=
07661,1999-10-28 03:00:00,16.2,1025.9,-0.4,81,12.9,15000,14.816,,,90,,,,,,,,,,,og-post,,,,AAXX 28034 07661 32965 00908 10162 20129 30097 40259 58004 333 92427=
07661,1999-10-28 04:00:00,15.9,1026.2,-0.1,79,12.3,,14.816,,,90,,,,,,,,,,,og-post,,,,AAXX 28044 07661 36/// /0908 10159 20123 30100 40262 55001=
07661,1999-10-28 05:00:00,15.4,1026.4,0.3,80,12,,18.52,,,70,,,,,,,,,,,og-post,,,,AAXX 28054 07661 36/// /0710 10154 20120 30101 40264 53003=
07661,1999-10-28 06:00:00,15.6,1026.4,0.4,77,11.6,15000,18.52,,,100,15.2,20.6,,,,,0,,,,og-post,,,,AAXX 28064 07661 32965 51010 10156 20116 30101 40264 51004 80002 333 10206 20152 70000 92427=
07661,1999-10-28 07:00:00,15.5,1026.9,0.6,79,11.9,,18.52,,,70,,,,,,,,,,,og-post,,,,AAXX 28074 07661 36/// /0710 10155 20119 30106 40269 53006=
07661,1999-10-28 08:00:00,16.5,1027.2,0.9,77,12.5,,18.52,,,70,,,,,,,,,,,og-post,,,,AAXX 28084 07661 36/// /0710 10165 20125 30110 40272 53009=
07661,1999-10-28 09:00:00,17.4,1027.7,1.4,75,12.9,15000,14.816,,,100,,,,,,,,,,,og-post,,,,AAXX 28094 07661 32965 71008 10174 20129 30115 40277 52014 80008 333 92427=
07661,1999-10-28 10:00:00,18.6,1027.7,1,81,15.3,,11.112,,,110,,,,,,,,,,,og-post,,,,AAXX 28104 07661 36/// /1106 10186 20153 30116 40277 51010=
07661,1999-10-28 11:00:00,19.2,1027.7,0.6,88,17.2,,14.816,,,100,,,,,,,,,,,og-post,,,,AAXX 28114 07661 36/// /1008 10192 20172 30116 40277 51006=
07661,1999-10-28 12:00:00,19.3,1027,-0.5,87,17.1,14000,11.112,,,140,,,,,,,,,,,og-post,,,,AAXX 28124 07661 32964 71406 10193 20171 30110 40270 58005 80002 333 92427=
07661,1999-10-28 13:00:00,19,1026.6,-1,88,17,,11.112,,,160,,,,,,,,,,,og-post,,,,AAXX 28134 07661 36/// /1606 10190 20170 30106 40266 58010=
07661,1999-10-28 14:00:00,19,1026.5,-1.1,91,17.5,,14.816,,,150,,,,,,,,,,,og-post,,,,AAXX 28144 07661 36/// /1508 10190 20175 30105 40265 56011=
07661,1999-10-28 15:00:00,18.6,1026.3,-0.8,93,17.4,12000,14.816,,,140,,,,,,,,,,,og-post,,,,AAXX 28154 07661 32462 81408 10186 20174 30102 40263 56008 81112 333 92427=
07661,1999-10-28 16:00:00,18,1026,-0.7,96,17.4,,14.816,,,110,,,,,,,,,,,og-post,,,,AAXX 28164 07661 36/// /1108 10180 20174 30099 40260 58007=
07661,1999-10-28 17:00:00,17.6,1026.1,-0.5,96,17,,14.816,,,90,,,,,,,,,,,og-post,,,,AAXX 28174 07661 36/// /0908 10176 20170 30100 40261 55005=
07661,1999-10-28 19:00:00,17,1026.6,0.5,99,16.8,,14.816,,,70,,,,,,,,,,,og-post,,,,AAXX 28194 07661 36/// /0708 10170 20168 30104 40266 50005=
07661,1999-10-28 20:00:00,16.8,1026.8,0.6,99,16.6,,18.52,,,90,,,,,,,,,,,og-post,,,,AAXX 28204 07661 36/// /0910 10168 20166 30106 40268 51006=
07661,1999-10-28 21:00:00,16.5,1026.8,0.1,99,16.3,12000,22.224,,,70,,,,,,,,,,,og-post,,,,AAXX 28214 07661 32862 60712 10165 20163 30106 40268 53001 86070 333 92427=
07661,1999-10-28 22:00:00,16.1,1026.7,0.1,99,15.9,,22.224,,,70,,,,,,,,,,,og-post,,,,AAXX 28224 07661 36/// /0712 10161 20159 30105 40267 50001=
07661,1999-10-28 23:00:00,15.8,1026.5,-0.3,98,15.5,,22.224,,,80,,,,,,,,,,,og-post,,,,AAXX 28234 07661 36/// /0812 10158 20155 30103 40265 58003=
07661,1999-10-29 00:00:00,15.7,1026.2,-0.6,96,15.1,10000,22.224,,,70,,,,,,,,,,,og-post,,,,AAXX 29004 07661 32860 50712 10157 20151 30100 40262 58006 85070 333 92437=
07661,1999-10-29 01:00:00,15.8,1025.9,-0.8,97,15.3,,22.224,,,80,,,,,,,,,,,og-post,,,,AAXX 29014 07661 36/// /0812 10158 20153 30097 40259 58008=
07661,1999-10-29 02:00:00,15.6,1025.6,-0.9,96,15,,25.928,,,80,,,,,,,,,,,og-post,,,,AAXX 29024 07661 36/// /0814 10156 20150 30094 40256 57009=
07661,1999-10-29 03:00:00,15.4,1025.2,-1,96,14.8,,22.224,,,90,,,,,,,,,,,og-post,,,,AAXX 29034 07661 36/// /0912 10154 20148 30090 40252 58010=
07661,1999-10-29 04:00:00,14.7,1024.8,-1.2,97,14.2,,25.928,,,90,,,,,,,,,,,og-post,,,,AAXX 29044 07661 36/// /0914 10147 20142 30085 40248 58012=
07661,1999-10-29 05:00:00,14.7,1024.8,-0.9,96,14.1,,18.52,,,70,,,0.2,,,,,,,,og-post,,,,AAXX 29054 07661 26/// /0710 10147 20141 30085 40248 56009 333 69925=
07661,1999-10-29 06:00:00,14.4,1025,-0.3,97,13.9,,18.52,,,100,14.3,17.3,,0.2,,0.2,,,,,og-post,,,,AAXX 29064 07661 /6/// /1010 10144 20139 30087 40250 55003 69922 333 10173 20143 69927 70002=
07661,1999-10-29 07:00:00,14.4,1025,-0.3,97,13.9,10000,18.52,,,100,14.3,17.3,,0.2,,0.2,0.2,,,,og-post,,,,AAXX 29074 07661 /2360 61010 10144 20139 30087 40250 55003 69922 82638 333 10173 20143 69927 70002 92427=
07661,1999-10-29 08:00:00,15.3,1025.9,1.1,96,14.7,,18.52,,,90,,,,,,,,,,,og-post,,,,AAXX 29084 07661 36/// /0910 10153 20147 30096 40259 53011=
07661,1999-10-29 09:00:00,16,1025.8,0.9,94,15,8000,14.816,,,70,,,,,,,,,,,og-post,,,,AAXX 29094 07661 32858 70708 10160 20150 30096 40258 51009 82018 333 92426=
07661,1999-10-29 10:00:00,16.9,1025.5,0.1,89,15.1,,22.224,,,90,,,,,,,,,,,og-post,,,,AAXX 29104 07661 36/// /0912 10169 20151 30093 40255 50001=
07661,1999-10-29 11:00:00,18.3,1025.4,-0.3,84,15.5,,14.816,,,100,,,,,,,,,,,og-post,,,,AAXX 29114 07661 36/// /1008 10183 20155 30093 40254 57003=
07661,1999-10-29 12:00:00,18.7,1024.6,-1,88,16.7,8000,14.816,,,100,,,,,,,,,,,og-post,,,,AAXX 29124 07661 32858 81008 10187 20167 30086 40246 58010 82018 333 92426=
07661,1999-10-29 13:00:00,18.7,1023.7,-1.6,88,16.7,,18.52,,,110,,,,,,,,,,,og-post,,,,AAXX 29134 07661 36/// /1110 10187 20167 30077 40237 58016=
07661,1999-10-29 14:00:00,18.4,1023.3,-2,90,16.7,,22.224,,,110,,,,,,,,,,,og-post,,,,AAXX 29144 07661 36/// /1112 10184 20167 30073 40233 56020=
07661,1999-10-29 15:00:00,18.3,1022.9,-1.7,90,16.6,8000,25.928,,,110,,,,,,,,,,,og-post,,,,AAXX 29154 07661 32858 61114 10183 20166 30069 40229 56017 82018 333 92426=
07661,1999-10-29 16:00:00,18.1,1022.7,-1,94,17.1,,22.224,,,110,,,,,,,,,,,og-post,,,,AAXX 29164 07661 36/// /1112 10181 20171 30067 40227 56010=
07661,1999-10-29 17:00:00,17.7,1022.8,-0.6,94,16.7,,22.224,,,110,,,,,,,,,,,og-post,,,,AAXX 29174 07661 36/// /1112 10177 20167 30067 40228 56006=
07661,1999-10-29 18:00:00,17.7,1023.1,0.1,96,17.1,8000,22.224,,,100,14.2,18.9,,,,,,,,,og-post,,,,AAXX 29184 07661 32858 61012 10177 20171 30070 40231 53001 82018 333 10189 20142 92426=
07661,1999-10-29 19:00:00,17.6,1022.9,0.1,97,17.1,,25.928,,,90,,,,,,,,,,,og-post,,,,AAXX 29194 07661 36/// /0914 10176 20171 30068 40229 50001=
07661,1999-10-29 20:00:00,16.8,1022.7,-0.1,98,16.5,,22.224,,,90,,,,,,,,,,,og-post,,,,AAXX 29204 07661 36/// /0912 10168 20165 30066 40227 58001=
07661,1999-10-29 21:00:00,16.6,1022.6,-0.5,96,16,8000,29.632,,,70,,,,,,,,,,,og-post,,,,AAXX 29214 07661 32358 80716 10166 20160 30065 40226 56005 8361/ 333 92436=
07661,1999-10-29 22:00:00,16.1,1022.3,-0.6,95,15.3,,29.632,,,70,,,,,,,,,,,og-post,,,,AAXX 29224 07661 36/// /0716 10161 20153 30062 40223 58006=
07661,1999-10-29 23:00:00,15.9,1021.4,-1.3,95,15.1,,38.892,,,70,,,,,,,,,,,og-post,,,,AAXX 29234 07661 36/// /0721 10159 20151 30053 40214 58013=
07661,1999-10-30 00:00:00,16.2,1021.3,-1.3,92,14.9,8000,35.188,,,70,,,,,,,,,,,og-post,,,,AAXX 30004 07661 32358 80719 10162 20149 30052 40213 56013 8361/ 333 92436=
07661,1999-10-30 01:00:00,16.7,1021.2,-1.1,89,14.9,,38.892,,,70,,,,,,,,,,,og-post,,,,AAXX 30014 07661 36/// /0721 10167 20149 30051 40212 56011=
07661,1999-10-30 02:00:00,16.6,1021.1,-0.3,92,15.3,,35.188,,,70,,,,,,,,,,,og-post,,,,AAXX 30024 07661 36/// /0719 10166 20153 30050 40211 57003=
07661,1999-10-30 03:00:00,16.8,1021.2,-0.1,93,15.7,10000,29.632,,,70,,,,,,,,,,,og-post,,,,AAXX 30034 07661 32360 70716 10168 20157 30051 40212 55001 8361/ 333 92437=
07661,1999-10-30 04:00:00,17,1020.7,-0.5,91,15.5,,35.188,,,70,,,,,,,,,,,og-post,,,,AAXX 30044 07661 36/// /0719 10170 20155 30046 40207 58005=
07661,1999-10-30 05:00:00,17.2,1020.8,-0.3,91,15.7,,35.188,,,70,,,,,,,,,,,og-post,,,,AAXX 30054 07661 36/// /0719 10172 20157 30047 40208 57003=
07661,1999-10-30 06:00:00,17.4,1020.2,-0.9,89,15.6,6000,35.188,,,70,15.8,17.7,,,,,0,,,,og-post,,,,AAXX 30064 07661 32356 80719 10174 20156 30042 40202 57009 8561/ 333 10177 20158 70000 92436=
07661,1999-10-30 07:00:00,17.3,1021.6,0.9,89,15.5,,31.484,,,70,,,,,,,,,,,og-post,,,,AAXX 30074 07661 26/// /0717 10173 20155 30055 40216 53009 333 69905=
07661,1999-10-30 09:00:00,18.1,1020.7,0.5,85,15.5,8000,38.892,,,70,,,,,,,,,,21,og-post,,,,AAXX 30094 07661 21458 80721 10181 20155 30047 40207 50005 72122 8477/ 333 69907 92436=
07661,1999-10-30 10:00:00,19,1021.5,-0,78,15.1,,35.188,,,70,,,,,,,,,,,og-post,,,,AAXX 30104 07661 36/// /0719 10190 20151 30055 40215 55000=
07661,1999-10-30 11:00:00,18.8,1020.3,-1.1,79,15.1,,35.188,57.412,,70,,,,,,,,,,,og-post,,,,AAXX 30114 07661 36/// /0719 10188 20151 30043 40203 58011 333 91131=
07661,1999-10-30 12:00:00,18.6,1020,-0.7,81,15.3,8000,38.892,72.228,,80,,,,,,,,,,21,og-post,,,,AAXX 30124 07661 11458 80821 10186 20153 30040 40200 58007 69901 72122 8477/ 333 91139 92436=
07661,1999-10-30 13:00:00,17.9,1019.5,-2,82,14.8,,31.484,68.524,,100,,,,,,,,,,,og-post,,,,AAXX 30134 07661 36/// /1017 10179 20148 30035 40195 56020 333 91137=
07661,1999-10-30 14:00:00,18.3,1018.1,-2.2,84,15.5,,46.3,72.228,68.524,90,,,,,,,,,,,og-post,,,,AAXX 30144 07661 26/// /0925 10183 20155 30021 40181 58022 333 69905 91037 91139=
07661,1999-10-30 15:00:00,18.4,1017.7,-2.3,78,14.5,,42.596,75.932,,70,,,,0.2,,,,,,,og-post,,,,AAXX 30154 07661 26/// /0723 10184 20145 30017 40177 56023 333 69927 91141=
07661,1999-10-30 16:00:00,18.6,1017.4,-2,76,14.3,,38.892,,,70,,,,,,,,,,,og-post,,,,AAXX 30164 07661 26/// /0721 10186 20143 30015 40174 56020 333 69905=
07661,1999-10-30 17:00:00,18.4,1018.6,0.5,79,14.7,,29.632,,,90,,,,,,,,,,,og-post,,,,AAXX 30174 07661 26/// /0916 10184 20147 30026 40186 53005 333 69905=
07661,1999-10-30 18:00:00,17.5,1018.5,0.8,80,14,10000,35.188,75.932,,70,17.2,19,,,,0.2,,,,,og-post,,,,AAXX 30184 07661 /2960 40719 10175 20140 30025 40185 53008 69922 84030 333 10190 20172 69907 91141 92447=
07661,1999-10-30 19:00:00,17.4,1018.8,1.3,83,14.5,,35.188,,,70,,,,,,,,,,,og-post,,,,AAXX 30194 07661 36/// /0719 10174 20145 30028 40188 51013=
07661,1999-10-30 20:00:00,17.4,1019.3,0.7,81,14.1,,31.484,,,70,,,,,,,,,,,og-post,,,,AAXX 30204 07661 36/// /0717 10174 20141 30033 40193 53007=
07661,1999-10-30 21:00:00,17.3,1020,1.4,81,14,10000,29.632,,,70,,,,,,,,,,,og-post,,,,AAXX 30214 07661 32960 60716 10173 20140 30039 40200 53014 86030 333 92447=
07661,1999-10-30 22:00:00,17.4,1020,1.2,87,15.2,,31.484,,,60,,,,,,,,,,,og-post,,,,AAXX 30224 07661 36/// /0617 10174 20152 30040 40200 51012=
07661,1999-10-30 23:00:00,17.2,1020.6,1.2,86,14.8,,29.632,,,60,,,,,,,,,,,og-post,,,,AAXX 30234 07661 36/// /0616 10172 20148 30045 40206 51012=
07661,1999-10-31 00:00:00,17,1019.9,-0.1,85,14.5,10000,29.632,,,70,,,,,,,,,,,og-post,,,,AAXX 31004 07661 32960 60716 10170 20145 30038 40199 58001 86030 333 92447=
07661,1999-10-31 01:00:00,16.4,1020.1,0,89,14.6,,25.928,,,70,,,,,,,,,,,og-post,,,,AAXX 31014 07661 36/// /0714 10164 20146 30040 40201 50000=
07661,1999-10-31 02:00:00,16.3,1020.3,-0.3,88,14.3,,22.224,,,70,,,,,,,,,,,og-post,,,,AAXX 31024 07661 36/// /0712 10163 20143 30042 40203 55003=
07661,1999-10-31 03:00:00,16.7,1020.4,0.5,80,13.2,15000,18.52,,,60,,,,,,,,,,,og-post,,,,AAXX 31034 07661 32965 00610 10167 20132 30043 40204 51005 333 92437=
07661,1999-10-31 04:00:00,17.1,1021.2,1.1,72,12,,7.408,,,30,,,,,,,,,,,og-post,,,,AAXX 31044 07661 36/// /0304 10171 20120 30051 40212 53011=
07661,1999-10-31 05:00:00,16.5,1021.5,1.2,75,12.1,,3.704,,,30,,,,,,,,,,,og-post,,,,AAXX 31054 07661 36/// /0302 10165 20121 30054 40215 53012=
07661,1999-10-31 06:00:00,15.9,1022.1,1.6,79,12.3,10000,3.704,,,260,15.6,17.7,,,,,0.2,,,,og-post,,,,AAXX 31064 07661 32960 02602 10159 20123 30059 40221 51016 333 10177 20156 70002 92437=
07661,1999-10-31 07:00:00,16.3,1022.8,1.5,78,12.5,,7.408,,,310,,,,,,,,,,,og-post,,,,AAXX 31074 07661 36/// /3104 10163 20125 30066 40228 53015=
07661,1999-10-31 08:00:00,17.6,1023.2,1.7,67,11.4,,7.408,,,290,,,,,,,,,,,og-post,,,,AAXX 31084 07661 36/// /2904 10176 20114 30071 40232 52017=
07661,1999-10-31 09:00:00,18.3,1023.3,1.3,68,12.3,12000,7.408,,,300,,,,,,,,,,,og-post,,,,AAXX 31094 07661 32962 03004 10183 20123 30072 40233 51013 333 92427=
07661,1999-10-31 10:00:00,20.1,1023.2,0.7,71,14.7,,11.112,,,220,,,,,,,,,,,og-post,,,,AAXX 31104 07661 36/// /2206 10201 20147 30073 40232 51007=
07661,1999-10-31 11:00:00,19.7,1023.3,0.2,77,15.6,,11.112,,,220,,,,,,,,,,,og-post,,,,AAXX 31114 07661 36/// /2206 10197 20156 30073 40233 51002=
07661,1999-10-31 12:00:00,20,1022.5,-0.6,73,15,12000,7.408,,,210,,,,,,,,,,,og-post,,,,AAXX 31124 07661 32962 02104 10200 20150 30066 40225 58006 333 92427=
07661,1999-10-31 13:00:00,20.7,1022.3,-0.9,66,14.1,,7.408,,,160,,,,,,,,,,,og-post,,,,AAXX 31134 07661 36/// /1604 10207 20141 30064 40223 58009=
07661,1999-10-31 14:00:00,20.7,1022.3,-0.9,67,14.4,,7.408,,,210,,,,,,,,,,,og-post,,,,AAXX 31144 07661 36/// /2104 10207 20144 30064 40223 56009=
07661,1999-10-31 15:00:00,19.2,1022.6,-0,85,16.6,8000,11.112,,,140,,,,,,,,,,,og-post,,,,AAXX 31154 07661 32958 01406 10192 20166 30066 40226 55000 333 92426=
07661,1999-10-31 16:00:00,18.4,1022.9,0.5,87,16.2,,11.112,,,150,,,,,,,,,,,og-post,,,,AAXX 31164 07661 36/// /1506 10184 20162 30069 40229 53005=
07661,1999-10-31 17:00:00,17.5,1023.5,1,88,15.5,,14.816,,,140,,,,,,,,,,,og-post,,,,AAXX 31174 07661 36/// /1408 10175 20155 30074 40235 53010=
07661,1999-10-31 18:00:00,17.9,1024.2,1.5,86,15.5,10000,11.112,,,120,15.8,21.1,,,,,,,,,og-post,,,,AAXX 31184 07661 32960 01206 10179 20155 30081 40242 53015 333 10211 20158 92427=
07661,1999-10-31 19:00:00,17.2,1024.5,1.5,90,15.5,,11.112,,,70,,,,,,,,,,,og-post,,,,AAXX 31194 07661 36/// /0706 10172 20155 30084 40245 51015=
07661,1999-10-31 20:00:00,16,1024.8,1.2,95,15.2,,11.112,,,100,,,,,,,,,,,og-post,,,,AAXX 31204 07661 36/// /1006 10160 20152 30086 40248 51012=
07661,1999-10-31 21:00:00,15.6,1025.4,1.1,96,15,,11.112,,,100,,,,,,,,,,,og-post,,,,AAXX 31214 07661 36/// /1006 10156 20150 30092 40254 53011=
07661,1999-10-31 22:00:00,15.2,1025.6,0.9,96,14.6,,11.112,,,80,,,,,,,,,,,og-post,,,,AAXX 31224 07661 36/// /0806 10152 20146 30093 40256 51009=
07661,1999-10-31 23:00:00,15.2,1025.6,0.7,97,14.7,,14.816,,,70,,,,,,,,,,,og-post,,,,AAXX 31234 07661 36/// /0708 10152 20147 30093 40256 51007=
07661,1999-11-01 00:00:00,16.5,1025.8,0.4,92,15.2,10000,11.112,,,70,,,,,,,,,,,og-post,,,,AAXX 01004 07661 32960 00706 10165 20152 30096 40258 53004 333 92427=
07661,1999-11-01 01:00:00,15.4,1025.8,0.3,96,14.8,,18.52,,,90,,,,,,,,,,,og-post,,,,AAXX 01014 07661 36/// /0910 10154 20148 30096 40258 52003=
07661,1999-11-01 02:00:00,15.3,1025.9,0.3,97,14.8,,18.52,,,70,,,,,,,,,,,og-post,,,,AAXX 01024 07661 36/// /0710 10153 20148 30096 40259 51003=
07661,1999-11-01 03:00:00,15.6,1025.6,-0.2,97,15.1,10000,14.816,,,60,,,,,,,,,,,og-post,,,,AAXX 01034 07661 32960 00608 10156 20151 30094 40256 58002 333 92427=
07661,1999-11-01 04:00:00,15.1,1025.7,-0.2,98,14.8,,18.52,,,70,,,,,,,,,,,og-post,,,,AAXX 01044 07661 36/// /0710 10151 20148 30094 40257 57002=
07661,1999-11-01 05:00:00,14.9,1025.8,-0.1,98,14.6,,18.52,,,70,,,,,,,,,,,og-post,,,,AAXX 01054 07661 36/// /0710 10149 20146 30095 40258 55001=
07661,1999-11-01 06:00:00,15.5,1025.9,0.3,99,15.3,8000,14.816,,,70,14.9,17.9,,,,,0,,,,og-post,,,,AAXX 01064 07661 32458 20708 10155 20153 30097 40259 53003 82100 333 10179 20149 70000 92426=
07661,1999-11-01 07:00:00,15.9,1026.4,0.8,99,15.7,,18.52,,,70,,,0.2,,,,,,,,og-post,,,,AAXX 01074 07661 26/// /0710 10159 20157 30102 40264 53008 333 69925=
07661,1999-11-01 08:00:00,16.9,1027.1,1.4,98,16.6,,18.52,,,70,,,,,,,,,,,og-post,,,,AAXX 01084 07661 36/// /0710 10169 20166 30109 40271 53014=
07661,1999-11-01 09:00:00,18.7,1027.2,1.4,87,16.5,8000,22.224,,,70,,,,0.2,,,,,,,og-post,,,,AAXX 01094 07661 22458 30712 10187 20165 30111 40272 51014 82260 333 69927 92426=
07661,1999-11-01 10:00:00,20.1,1027.3,1.1,85,17.5,,14.816,,,80,,,,,,,,,,,og-post,,,,AAXX 01104 07661 36/// /0808 10201 20175 30113 40273 51011=
07661,1999-11-01 11:00:00,19.5,1027.2,0.3,88,17.5,,18.52,,,100,,,,,,,,,,,og-post,,,,AAXX 01114 07661 36/// /1010 10195 20175 30112 40272 50003=
07661,1999-11-01 12:00:00,19.3,1026.7,-0.4,90,17.6,8000,18.52,,,100,,,,,0.2,,,,,,og-post,,,,AAXX 01124 07661 12458 61010 10193 20176 30107 40267 58004 69921 85260 333 92426=
07661,1999-11-01 13:00:00,19.3,1026.3,-1,91,17.8,,18.52,,,100,,,,,,,,,,,og-post,,,,AAXX 01134 07661 36/// /1010 10193 20178 30103 40263 58010=
07661,1999-11-01 14:00:00,18.9,1025.7,-1.5,94,17.9,,18.52,,,110,,,,,,,,,,,og-post,,,,AAXX 01144 07661 36/// /1110 10189 20179 30097 40257 58015=
07661,1999-11-01 15:00:00,19.2,1025.6,-1.1,89,17.3,8000,11.112,,,120,,,,,,,,,,,og-post,,,,AAXX 01154 07661 32458 61206 10192 20173 30096 40256 56011 85260 333 92426=
07661,1999-11-01 16:00:00,18.5,1025.9,-0.5,95,17.7,,11.112,,,110,,,,,,,,,,,og-post,,,,AAXX 01164 07661 36/// /1106 10185 20177 30098 40259 55005=
07661,1999-11-01 17:00:00,17.9,1026.3,0.5,94,16.9,,14.816,,,70,,,,,,,,,,,og-post,,,,AAXX 01174 07661 36/// /0708 10179 20169 30102 40263 53005=
07661,1999-11-01 18:00:00,17.7,1026.6,0.9,98,17.4,8000,14.816,,,70,15.5,20.3,,,,0.2,,,,,og-post,,,,AAXX 01184 07661 12458 60708 10177 20174 30105 40266 53009 69922 85260 333 10203 20155 92426=
07661,1999-11-01 19:00:00,17.5,1026.5,0.6,98,17.2,,18.52,,,70,,,,,,,,,,,og-post,,,,AAXX 01194 07661 36/// /0710 10175 20172 30104 40265 50006=
07661,1999-11-01 20:00:00,17,1026.7,0.3,98,16.7,,14.816,,,70,,,,,,,,,,,og-post,,,,AAXX 01204 07661 36/// /0708 10170 20167 30105 40267 51003=
07661,1999-11-01 21:00:00,16.6,1026.9,0.2,98,16.3,8000,14.816,,,80,,,,,,,,,,,og-post,,,,AAXX 01214 07661 32458 80808 10166 20163 30107 40269 53002 88500 333 92426=
07661,1999-11-01 22:00:00,16.7,1026.8,0.2,99,16.5,,14.816,,,70,,,,,,,,,,,og-post,,,,AAXX 01224 07661 36/// /0708 10167 20165 30106 40268 50002=
07661,1999-11-01 23:00:00,16.2,1026.6,-0.1,99,16,,14.816,,,70,,,,,,,,,,,og-post,,,,AAXX 01234 07661 36/// /0708 10162 20160 30104 40266 58001=
07661,1999-11-02 00:00:00,15.6,1025.7,-1.2,99,15.4,8000,22.224,,,70,,,,,,,,,,,og-post,,,,AAXX 02004 07661 32458 80712 10156 20154 30095 40257 58012 88500 333 92426=
07661,1999-11-02 01:00:00,15.8,1025.4,-1.4,99,15.6,,22.224,,,60,,,,,,,,,,,og-post,,,,AAXX 02014 07661 36/// /0612 10158 20156 30092 40254 58014=
07661,1999-11-02 02:00:00,16,1024.9,-1.7,98,15.7,,18.52,,,70,,,,,,,,,,,og-post,,,,AAXX 02024 07661 36/// /0710 10160 20157 30087 40249 56017=
07661,1999-11-02 03:00:00,16.3,1024.6,-1.1,98,16,8000,18.52,,,70,,,,,,,,,,,og-post,,,,AAXX 02034 07661 32458 80710 10163 20160 30084 40246 57011 88500 333 92426=
07661,1999-11-02 04:00:00,16.4,1024.4,-1,98,16.1,,18.52,,,80,,,,,,,,,,,og-post,,,,AAXX 02044 07661 36/// /0810 10164 20161 30082 40244 56010=
07661,1999-11-02 05:00:00,16.4,1024.3,-0.6,98,16.1,,18.52,,,70,,,,,,,,,,,og-post,,,,AAXX 02054 07661 36/// /0710 10164 20161 30081 40243 56006=
07661,1999-11-02 06:00:00,16.5,1023.9,-0.6,97,16,,18.52,,,70,15.5,17.7,,,,,,,,,og-post,,,,AAXX 02064 07661 36/// /0710 10165 20160 30078 40239 58006 333 10177 20155 70002=
07661,1999-11-02 07:00:00,16.6,1023.9,-0.4,97,16.1,,25.928,,,70,,,,,,,,,,,og-post,,,,AAXX 02074 07661 36/// /0714 10166 20161 30078 40239 56004=
07661,1999-11-02 08:00:00,16.9,1024.6,0.4,95,16.1,,22.224,,,70,,,,,,,,,,,og-post,,,,AAXX 02084 07661 36/// /0712 10169 20161 30085 40246 53004=
07661,1999-11-02 09:00:00,17,1024.8,0.9,95,16.2,6000,22.224,,,70,,,,0.2,,,,,,60,og-post,,,,AAXX 02094 07661 21456 70712 10170 20162 30087 40248 53009 76062 86720 333 69927 92426=
07661,1999-11-02 10:00:00,17.6,1024.9,1,93,16.5,,14.816,,,80,,,,,,,,,,,og-post,,,,AAXX 02104 07661 26/// /0808 10176 20165 30088 40249 51010 333 69905=
07661,1999-11-02 12:00:00,18.8,1023.2,-1.5,89,16.9,8000,18.52,,,100,,,,,0.2,,,,,21,og-post,,,,AAXX 02124 07661 /1458 41010 10188 20169 30072 40232 58015 69921 72162 82732 333 69907 92436=
07661,1999-11-02 15:00:00,18.4,1022.6,-0.6,92,17.1,8000,14.816,,,100,,,,,,,,,,,og-post,,,,AAXX 02154 07661 32458 71008 10184 20171 30066 40226 56006 8423/ 333 92427=
07661,1999-11-03 12:00:00,17.6,1021.4,-0.8,83,14.7,10000,3.704,,,110,,,,,,,,,,,og-post,,,,AAXX 03124 07661 12460 61102 10176 20147 30053 40214 58008 69901 84890 333 92437=
07661,1999-11-03 15:00:00,17.8,1019.9,-1.4,81,14.5,10000,7.408,,,180,,,,,,,,,,,og-post,,,,AAXX 03154 07661 32460 51804 10178 20145 30039 40199 56014 83800 333 92437=
07661,1999-11-04 15:00:00,13.4,1017.2,-0.4,97,12.9,8000,11.112,,,340,,,,38,,,,,,95,og-post,,,,AAXX 04154 07661 21458 83406 10134 20129 30010 40172 56004 79596 889// 333 60387 92426=
07661,1999-11-04 16:00:00,14,1017.2,0.3,97,13.5,,14.816,,,50,,,0.8,,,,,,,,og-post,,,,AAXX 04164 07661 26/// /0508 10140 20135 30010 40172 51003 333 69985=
07661,1999-11-04 17:00:00,14.1,1017.5,0.2,98,13.8,,22.224,,,60,,,,,,,,,,,og-post,,,,AAXX 04174 07661 36/// /0612 10141 20138 30013 40175 53002=
07661,1999-11-04 18:00:00,13.7,1018.3,1.1,95,12.9,10000,14.816,,,290,12.7,16.8,,0.8,,50,,,,62,og-post,,,,AAXX 04184 07661 /1460 82908 10137 20129 30021 40183 53011 60502 76296 889// 333 10168 20127 69987 92426=
07661,1999-11-04 19:00:00,13.7,1018.2,1,95,12.9,,11.112,,,320,,,0.8,,,,,,,,og-post,,,,AAXX 04194 07661 26/// /3206 10137 20129 30020 40182 50010 333 69985=
07661,1999-11-04 20:00:00,13.6,1018.2,0.7,94,12.7,,11.112,,,320,,,,,,,,,,,og-post,,,,AAXX 04204 07661 26/// /3206 10136 20127 30020 40182 51007 333 69905=
07661,1999-11-04 21:00:00,13.4,1018.8,0.4,92,12.1,,11.112,,,340,,,,0.8,,,,,,,og-post,,,,AAXX 04214 07661 26/// /3406 10134 20121 30025 40188 53004 333 69987=
07661,1999-11-04 22:00:00,13.4,1018.8,0.4,92,12.1,15000,11.112,,,340,,,,0.8,,,,,,21,og-post,,,,AAXX 04224 07661 21465 63406 10134 20121 30025 40188 53004 72162 86800 333 69987 92427=
07661,1999-11-04 23:00:00,12.5,1018.1,-0.2,97,12,,11.112,,,310,,,,,,,,,,,og-post,,,,AAXX 04234 07661 36/// /3106 10125 20120 30018 40181 58002=
07661,1999-11-05 00:00:00,13,1017.9,-0.9,96,12.4,,3.704,,,330,,,,,0.8,,,,,,og-post,,,,AAXX 05004 07661 16/// /3302 10130 20124 30016 40179 56009 69981=
07661,1999-11-05 01:00:00,12.7,1017.7,-0.8,97,12.2,,7.408,,,320,,,0.2,,,,,,,,og-post,,,,AAXX 05014 07661 26/// /3204 10127 20122 30014 40177 56008 333 69925=
07661,1999-11-05 02:00:00,12.7,1017.5,-0.6,91,11.3,,11.112,,,310,,,,,,,,,,,og-post,,,,AAXX 05024 07661 36/// /3106 10127 20113 30012 40175 57006=
07661,1999-11-05 03:00:00,12.3,1016.8,-1.1,90,10.7,20000,14.816,,,330,,,,0.2,,,,,,,og-post,,,,AAXX 05034 07661 22/70 /3308 10123 20107 30005 40168 58011 333 69927 92428=
07661,1999-11-05 04:00:00,12.2,1016.8,-0.9,90,10.6,,18.52,,,300,,,,,,,,,,,og-post,,,,AAXX 05044 07661 36/// /3010 10122 20106 30005 40168 56009=
07661,1999-11-05 05:00:00,12.7,1016.6,-0.9,82,9.7,,14.816,,,310,,,,,,,,,,,og-post,,,,AAXX 05054 07661 36/// /3108 10127 20097 30003 40166 56009=
07661,1999-11-05 06:00:00,12.9,1016.7,-0.1,80,9.5,25000,14.816,,,340,11.9,13.9,,,,1,50.8,,,,og-post,,,,AAXX 05064 07661 12675 13408 10129 20095 30004 40167 55001 60012 81100 333 10139 20119 70508 92428=
07661,1999-11-05 07:00:00,12.6,1017.2,0.4,83,9.8,,11.112,,,90,,,,,,,,,,,og-post,,,,AAXX 05074 07661 36/// /0906 10126 20098 30009 40172 53004=
07661,1999-11-05 08:00:00,17.2,1017,0.7,58,8.9,,3.704,,,160,,,,,,,,,,,og-post,,,,AAXX 05084 07661 36/// /1602 10172 20089 30010 40170 52007=
07661,1999-11-05 09:00:00,17.5,1017.4,1,67,11.3,30000,3.704,,,220,,,,,,,,,,,og-post,,,,AAXX 05094 07661 32980 22202 10175 20113 30014 40174 51010 80001 333 92428=
07661,1999-11-05 10:00:00,17.4,1017.8,0.9,65,10.8,,3.704,,,280,,,,,,,,,,,og-post,,,,AAXX 05104 07661 36/// /2802 10174 20108 30018 40178 53009=
07661,1999-11-05 11:00:00,17.6,1017.9,0.9,71,12.3,,7.408,,,190,,,,,,,,,,,og-post,,,,AAXX 05114 07661 36/// /1904 10176 20123 30019 40179 51009=
07661,1999-11-05 12:00:00,17.8,1017.9,0.5,68,11.8,30000,11.112,,,160,,,,,,,,,,,og-post,,,,AAXX 05124 07661 32580 21606 10178 20118 30019 40179 51005 81201 333 92428=
07661,1999-11-05 13:00:00,18.6,1017.8,0.1,75,14.1,,11.112,,,160,,,,,,,,,,,og-post,,,,AAXX 05134 07661 36/// /1606 10186 20141 30019 40178 51001=
07661,1999-11-05 14:00:00,18.2,1018.1,0.2,71,12.9,,7.408,,,190,,,,,,,,,,,og-post,,,,AAXX 05144 07661 36/// /1904 10182 20129 30021 40181 53002=
07661,1999-11-05 15:00:00,17.6,1018.1,0.2,75,13.1,25000,11.112,,,160,,,,,,,,,,,og-post,,,,AAXX 05154 07661 32575 61606 10176 20131 30021 40181 52002 83271 333 92428=
07661,1999-11-05 16:00:00,17.2,1018.1,0.2,75,12.7,,11.112,,,110,,,,,,,,,,,og-post,,,,AAXX 05164 07661 36/// /1106 10172 20127 30021 40181 51002=
07661,1999-11-05 17:00:00,17.1,1018,-0.1,80,13.6,,18.52,,,100,,,,,,,,,,,og-post,,,,AAXX 05174 07661 36/// /1010 10171 20136 30020 40180 58001=
07661,1999-11-05 18:00:00,16.5,1018.3,0.1,81,13.2,20000,14.816,,,70,12.3,18.7,,,,,,,,,og-post,,,,AAXX 05184 07661 32570 60708 10165 20132 30022 40183 53001 84220 333 10187 20123 92428=
07661,1999-11-05 19:00:00,15.8,1018.5,0.3,83,12.9,,11.112,,,60,,,,,,,,,,,og-post,,,,AAXX 05194 07661 36/// /0606 10158 20129 30024 40185 53003=
07661,1999-11-05 20:00:00,15.7,1017.8,-0.3,86,13.4,,18.52,,,70,,,,,,,,,,,og-post,,,,AAXX 05204 07661 36/// /0710 10157 20134 30017 40178 58003=
07661,1999-11-05 21:00:00,14.5,1018.1,-0.3,93,13.4,20000,14.816,,,70,,,,,,,,,,,og-post,,,,AAXX 05214 07661 32970 30708 10145 20134 30019 40181 57003 81031 333 92428=
07661,1999-11-05 22:00:00,14.4,1017.7,-0.9,95,13.6,,11.112,,,70,,,,,,,,,,,og-post,,,,AAXX 05224 07661 36/// /0706 10144 20136 30015 40177 56009=
07661,1999-11-05 23:00:00,14.3,1017.7,-0.2,96,13.7,,7.408,,,40,,,,,,,,,,,og-post,,,,AAXX 05234 07661 36/// /0404 10143 20137 30015 40177 58002=
07661,1999-11-06 00:00:00,14.3,1017,-1.1,94,13.3,10000,11.112,,,80,,,,,,,,,,,og-post,,,,AAXX 06004 07661 32960 30806 10143 20133 30008 40170 58011 81031 333 92427=
07661,1999-11-06 01:00:00,14.3,1016.6,-1.1,92,13,,7.408,,,40,,,,,,,,,,,og-post,,,,AAXX 06014 07661 36/// /0404 10143 20130 30004 40166 58011=
07661,1999-11-06 02:00:00,14.8,1015.7,-1.9,88,12.8,,11.112,,,70,,,,,,,,,,,og-post,,,,AAXX 06024 07661 36/// /0706 10148 20128 39996 40157 58019=
07661,1999-11-06 03:00:00,13.9,1014.7,-2.3,94,12.9,10000,14.816,,,70,,,,,,,,,,,og-post,,,,AAXX 06034 07661 32960 30708 10139 20129 39985 40147 58023 81031 333 92427=
07661,1999-11-06 04:00:00,13.6,1014.2,-2.4,93,12.5,,14.816,,,90,,,,,,,,,,,og-post,,,,AAXX 06044 07661 36/// /0908 10136 20125 39980 40142 56024=
07661,1999-11-06 05:00:00,13.7,1014.1,-1.7,93,12.6,,14.816,,,70,,,,,,,,,,,og-post,,,,AAXX 06054 07661 36/// /0708 10137 20126 39979 40141 56017=
07661,1999-11-06 06:00:00,13.6,1013.3,-1.4,92,12.3,,7.408,,,80,13,16.5,,,,,,,,,og-post,,,,AAXX 06064 07661 36/// /0804 10136 20123 39971 40133 58014 333 10165 20130 70000=
07661,1999-11-06 07:00:00,13.7,1013,-1.1,95,12.9,,7.408,,,310,,,,,,,,,,,og-post,,,,AAXX 06074 07661 36/// /3104 10137 20129 39969 40130 58011=
07661,1999-11-06 08:00:00,14.7,1012.6,-1.4,87,12.6,,7.408,,,300,,,,,,,,,,,og-post,,,,AAXX 06084 07661 36/// /3004 10147 20126 39965 40126 56014=
07661,1999-11-06 09:00:00,14.9,1012.1,-1.1,92,13.6,15000,11.112,,,290,,,,0.2,,,,,,60,og-post,,,,AAXX 06094 07661 21465 72906 10149 20136 39960 40121 58011 76022 85230 333 69927 92427=
07661,1999-11-06 10:00:00,14.3,1010.8,-2.2,93,13.2,,31.484,,79.636,290,,,6,,,,,,,,og-post,,,,AAXX 06104 07661 26/// /2917 10143 20132 39947 40108 58022 333 60065 91043=
07661,1999-11-06 11:00:00,14.9,1009.9,-2.6,77,10.9,,57.412,94.452,79.636,300,,,,,,,,,,,og-post,,,,AAXX 06114 07661 36/// /3031 10149 20109 39939 40099 58026 333 91043 91151=
07661,1999-11-06 12:00:00,14.7,1009,-3.1,59,6.8,40000,61.116,94.452,83.34,300,,,,6,6,,,,,1,og-post,,,,AAXX 06124 07661 /1482 33033 10147 20068 39929 40090 56031 60061 70196 83940 333 60067 91045 91151 92448=
07661,1999-11-06 13:00:00,15,1009,-1.7,57,6.6,,53.708,94.452,79.636,300,,,,,,,,,,,og-post,,,,AAXX 06134 07661 36/// /3029 10150 20066 39930 40090 55017 333 91043 91151=
07661,1999-11-06 14:00:00,15.2,1007.9,-2,50,4.9,,61.116,90.748,87.044,300,,,,,,,,,,,og-post,,,,AAXX 06144 07661 36/// /3033 10152 20049 39919 40079 58020 333 91047 91149=
07661,1999-11-06 15:00:00,14.2,1006.4,-2.6,51,4.2,35000,75.932,114.824,114.824,310,,,,,,,,,,,og-post,,,,AAXX 06154 07661 32481 33141 10142 20042 39903 40064 58026 83940 333 91062 91162 92448=
07661,1999-11-06 16:00:00,13,1006.6,-2.5,51,3.1,,75.932,118.528,118.528,310,,,,,,,,,,,og-post,,,,AAXX 06164 07661 36/// /3141 10130 20031 39905 40066 55025 333 91064 91164=
07661,1999-11-06 17:00:00,12.1,1006.3,-1.8,51,2.3,,75.932,122.232,103.712,310,,,,,,,,,,,og-post,,,,AAXX 06174 07661 36/// /3141 10121 20023 39901 40063 56018 333 91056 91166=
07661,1999-11-06 18:00:00,11.6,1006,-0.5,54,2.6,30000,83.34,122.232,111.12,310,11.6,15.4,,,,6,,,,,og-post,,,,AAXX 06184 07661 12980 03145 10116 20026 39898 40060 58005 60062 333 10154 20116 91060 91166 92448=
07661,1999-11-06 19:00:00,11.4,1005.8,-0.9,52,1.9,,79.636,118.528,111.12,310,,,,,,,,,,,og-post,,,,AAXX 06194 07661 36/// /3143 10114 20019 39896 40058 56009 333 91060 91164=
07661,1999-11-06 20:00:00,11.1,1005.6,-0.7,53,1.9,,72.228,111.12,111.12,310,,,,,,,,,,,og-post,,,,AAXX 06204 07661 36/// /3139 10111 20019 39894 40056 56007 333 91060 91160=
07661,1999-11-06 21:00:00,11.2,1005.8,-0.2,53,2,35000,57.412,118.528,87.044,310,,,,,,,,,,,og-post,,,,AAXX 06214 07661 32981 03131 10112 20020 39896 40058 55002 333 91047 91164 92448=
07661,1999-11-06 22:00:00,10.6,1006.5,0.6,51,0.9,,53.708,87.044,75.932,300,,,,,,,,,,,og-post,,,,AAXX 06224 07661 36/// /3029 10106 20009 39902 40065 53006 333 91041 91147=
07661,1999-11-06 23:00:00,10.5,1006.3,0.6,49,0.3,,46.3,90.748,,290,,,,,,,,,,,og-post,,,,AAXX 06234 07661 36/// /2925 10105 20003 39900 40063 50006 333 91149=
07661,1999-11-07 00:00:00,10.4,1006.5,0.6,50,0.4,35000,35.188,118.528,,300,,,,,,,,,,,og-post,,,,AAXX 07004 07661 32981 03019 10104 20004 39902 40065 51006 333 91164 92448=
07661,1999-11-07 01:00:00,10.3,1006.4,-0.1,49,0.1,,31.484,57.412,,290,,,,,,,,,,,og-post,,,,AAXX 07014 07661 36/// /2917 10103 20001 39901 40064 56001 333 91131=
07661,1999-11-07 02:00:00,10.4,1006.1,-0.2,52,1,,38.892,,,310,,,,,,,,,,,og-post,,,,AAXX 07024 07661 36/// /3121 10104 20010 39898 40061 58002=
07661,1999-11-07 03:00:00,10.4,1006,-0.5,49,0.2,20000,29.632,57.412,,300,,,,,,,,,,,og-post,,,,AAXX 07034 07661 32970 03016 10104 20002 39897 40060 57005 333 91131 92448=
07661,1999-11-07 04:00:00,10.8,1006.1,-0.3,47,0,,38.892,,,310,,,,,,,,,,,og-post,,,,AAXX 07044 07661 36/// /3121 10108 20000 39898 40061 55003=
07661,1999-11-07 05:00:00,11,1005.9,-0.1,45,-0.5,,42.596,64.82,,310,,,,,,,,,,,og-post,,,,AAXX 07054 07661 36/// /3123 10110 21005 39897 40059 57001 333 91135=
07661,1999-11-07 06:00:00,10.9,1006.7,0.7,41,-1.8,25000,31.484,64.82,,300,10.1,11.6,,,,,5.8,,,,og-post,,,,AAXX 07064 07661 32975 03017 10109 21018 39904 40067 53007 333 10116 20101 70058 91135 92448=
07661,1999-11-07 07:00:00,10.9,1007.7,1.6,41,-1.8,,38.892,,,300,,,,,,,,,,,og-post,,,,AAXX 07074 07661 36/// /3021 10109 21018 39914 40077 53016=
07661,1999-11-07 08:00:00,11,1008.8,2.8,47,0.1,,31.484,,,300,,,,,,,,,,,og-post,,,,AAXX 07084 07661 36/// /3017 10110 20001 39925 40088 53028=
07661,1999-11-07 09:00:00,12.2,1009.1,2.5,43,0,,29.632,,,290,,,,,,,,,,,og-post,,,,AAXX 07094 07661 36/// /2916 10122 20000 39929 40091 51025=
07661,1999-11-07 10:00:00,13.8,1009.8,2.3,42,1.1,,22.224,,,290,,,,,,,,,,,og-post,,,,AAXX 07104 07661 36/// /2912 10138 20011 39937 40098 51023=
07661,1999-11-07 11:00:00,15.2,1010.3,1.7,40,1.7,,14.816,,,290,,,,,,,,,,,og-post,,,,AAXX 07114 07661 36/// /2908 10152 20017 39942 40103 53017=
07661,1999-11-07 12:00:00,16.8,1010.6,1.7,39,2.8,,7.408,,,300,,,,,,,,,,,og-post,,,,AAXX 07124 07661 36/// /3004 10168 20028 39946 40106 51017=
07661,1999-11-07 13:00:00,18.8,1010.9,1.3,35,3,,3.704,,,70,,,,,,,,,,,og-post,,,,AAXX 07134 07661 36/// /0702 10188 20030 39950 40109 51013=
07661,1999-11-07 14:00:00,17.7,1011.4,1.3,38,3.2,,11.112,,,290,,,,,,,,,,,og-post,,,,AAXX 07144 07661 36/// /2906 10177 20032 39955 40114 53013=
07661,1999-11-07 15:00:00,16.3,1012,1.4,45,4.4,25000,14.816,,,280,,,,,,,,,,,og-post,,,,AAXX 07154 07661 32875 32808 10163 20044 39960 40120 53014 83070 333 92438=
07661,1999-11-07 16:00:00,16.3,1013.2,2.1,39,2.3,,3.704,,,290,,,,,,,,,,,og-post,,,,AAXX 07164 07661 36/// /2902 10163 20023 39971 40132 53021=
07661,1999-11-07 17:00:00,14.9,1013.9,2.3,46,3.4,,11.112,,,230,,,,,,,,,,,og-post,,,,AAXX 07174 07661 36/// /2306 10149 20034 39978 40139 53023=
07661,1999-11-07 18:00:00,14.2,1015,2.8,44,2.1,25000,7.408,,,330,10.8,19,,,,,,,,,og-post,,,,AAXX 07184 07661 32975 03304 10142 20021 39988 40150 51028 333 10190 20108 92438=
07661,1999-11-07 19:00:00,14.5,1015.3,2,49,3.9,,11.112,,,80,,,,,,,,,,,og-post,,,,AAXX 07194 07661 36/// /0806 10145 20039 39991 40153 51020=
07661,1999-11-07 20:00:00,13.7,1015.9,1.9,45,2,,7.408,,,280,,,,,,,,,,,og-post,,,,AAXX 07204 07661 36/// /2804 10137 20020 39997 40159 51019=
07661,1999-11-07 21:00:00,14,1016.3,1.3,51,4,25000,3.704,,,180,,,,,,,,,,,og-post,,,,AAXX 07214 07661 32975 01802 10140 20040 30001 40163 53013 333 92438=
07661,1999-11-07 22:00:00,13.3,1016.7,1.3,48,2.5,,11.112,,,80,,,,,,,,,,,og-post,,,,AAXX 07224 07661 36/// /0806 10133 20025 30004 40167 51013=
07661,1999-11-07 23:00:00,12.3,1016.8,0.8,55,3.5,,11.112,,,310,,,,,,,,,,,og-post,,,,AAXX 07234 07661 36/// /3106 10123 20035 30005 40168 51008=
07661,1999-11-08 01:00:00,11.5,1016.7,-0.1,62,4.5,,14.816,,,90,,,,,,,,,,,og-post,,,,AAXX 08014 07661 36/// /0908 10115 20045 30003 40167 57001=
07661,1999-11-08 02:00:00,11.1,1016.7,-0.2,63,4.3,,3.704,,,130,,,,,,,,,,,og-post,,,,AAXX 08024 07661 36/// /1302 10111 20043 30003 40167 56002=
07661,1999-11-08 03:00:00,10.4,1016.6,0,69,5,30000,,,,,,,,,,,,,,,og-post,,,,AAXX 08034 07661 32/80 /0000 10104 20050 30002 40166 50000 333 92428=
07661,1999-11-08 04:00:00,10.6,1016.7,-0,68,4.9,,3.704,,,70,,,,,,,,,,,og-post,,,,AAXX 08044 07661 36/// /0702 10106 20049 30003 40167 55000=
07661,1999-11-08 05:00:00,10.5,1017.2,0.5,64,4,,11.112,,,70,,,,,,,,,,,og-post,,,,AAXX 08054 07661 36/// /0706 10105 20040 30008 40172 53005=
07661,1999-11-08 06:00:00,10.4,1017.7,1,66,4.3,30000,7.408,,,70,10.3,14.6,,,,,0,,,,og-post,,,,AAXX 08064 07661 32980 20704 10104 20043 30012 40177 53010 82070 333 10146 20103 70000 92428=
07661,1999-11-08 07:00:00,10.1,1018.6,1.8,65,3.8,,14.816,,,70,,,,,,,,,,,og-post,,,,AAXX 08074 07661 36/// /0708 10101 20038 30021 40186 53018=
07661,1999-11-08 08:00:00,11.6,1018.9,1.7,62,4.6,,14.816,,,70,,,,,,,,,,,og-post,,,,AAXX 08084 07661 36/// /0708 10116 20046 30025 40189 52017=
07661,1999-11-08 09:00:00,13.4,1019.2,1.7,58,5.3,,18.52,,,60,,,,,,,,,,,og-post,,,,AAXX 08094 07661 36/// /0610 10134 20053 30029 40192 51017=
07661,1999-11-08 10:00:00,15.2,1019.3,1,50,4.9,,14.816,,,60,,,,,,,,,,,og-post,,,,AAXX 08104 07661 36/// /0608 10152 20049 30031 40193 51010=
07661,1999-11-08 11:00:00,15.3,1019.3,0.6,50,4.9,,7.408,,,60,,,,,,,,,,,og-post,,,,AAXX 08114 07661 36/// /0604 10153 20049 30031 40193 51006=
07661,1999-11-08 12:00:00,15.9,1019,-0.1,44,3.7,30000,3.704,,,20,,,,,,,,,,,og-post,,,,AAXX 08124 07661 32980 20202 10159 20037 30028 40190 58001 82070 333 92428=
07661,1999-11-08 13:00:00,17.8,1018.5,-0.6,41,4.4,,7.408,,,220,,,,,,,,,,,og-post,,,,AAXX 08134 07661 36/// /2204 10178 20044 30025 40185 58006=
07661,1999-11-08 14:00:00,17.3,1018.5,-0.7,50,6.8,,11.112,,,220,,,,,,,,,,,og-post,,,,AAXX 08144 07661 36/// /2206 10173 20068 30024 40185 56007=
07661,1999-11-08 15:00:00,16.8,1018.4,-0.5,54,7.4,20000,14.816,,,230,,,,,,,,,,,og-post,,,,AAXX 08154 07661 32970 02308 10168 20074 30023 40184 56005 333 92428=
07661,1999-11-08 16:00:00,15.8,1018.7,0.1,63,8.8,,11.112,,,300,,,,,,,,,,,og-post,,,,AAXX 08164 07661 36/// /3006 10158 20088 30026 40187 53001=
07661,1999-11-08 17:00:00,14.7,1019.1,0.5,68,8.9,,11.112,,,290,,,,,,,,,,,og-post,,,,AAXX 08174 07661 36/// /2906 10147 20089 30029 40191 53005=
07661,1999-11-08 18:00:00,14.2,1019.6,1,64,7.5,30000,7.408,,,320,9.8,17.9,,,,,,,,,og-post,,,,AAXX 08184 07661 32980 03204 10142 20075 30033 40196 53010 333 10179 20098 92428=
07661,1999-11-08 19:00:00,14.1,1020,1.1,76,9.9,,7.408,,,70,,,,,,,,,,,og-post,,,,AAXX 08194 07661 36/// /0704 10141 20099 30037 40200 53011=
07661,1999-11-08 20:00:00,13,1020.5,1.3,72,8.1,,11.112,,,90,,,,,,,,,,,og-post,,,,AAXX 08204 07661 36/// /0906 10130 20081 30042 40205 53013=
07661,1999-11-08 21:00:00,13.5,1020.7,1.1,74,9,20000,7.408,,,60,,,,,,,,,,,og-post,,,,AAXX 08214 07661 32970 00604 10135 20090 30044 40207 51011 333 92428=
07661,1999-11-08 22:00:00,11.4,1021.1,1,80,8.1,,11.112,,,70,,,,,,,,,,,og-post,,,,AAXX 08224 07661 36/// /0706 10114 20081 30047 40211 51010=
07661,1999-11-08 23:00:00,11.4,1021,0.4,78,7.7,,7.408,,,40,,,,,,,,,,,og-post,,,,AAXX 08234 07661 36/// /0404 10114 20077 30046 40210 50004=
07661,1999-11-09 00:00:00,11.1,1021,0.1,77,7.2,10000,3.704,,,30,,,,,,,,,,,og-post,,,,AAXX 09004 07661 32960 00302 10111 20072 30045 40210 50001 333 92427=
07661,1999-11-09 01:00:00,10.7,1020.9,-0.3,76,6.6,,11.112,,,70,,,,,,,,,,,og-post,,,,AAXX 09014 07661 36/// /0706 10107 20066 30044 40209 57003=
07661,1999-11-09 02:00:00,10.2,1020.8,-0.3,75,6,,14.816,,,80,,,,,,,,,,,og-post,,,,AAXX 09024 07661 36/// /0808 10102 20060 30043 40208 57003=
07661,1999-11-09 03:00:00,10.6,1020.7,-0.3,76,6.6,10000,7.408,,,70,,,,,,,,,,,og-post,,,,AAXX 09034 07661 32960 00704 10106 20066 30042 40207 57003 333 92427=
07661,1999-11-09 04:00:00,10.5,1020.7,-0.2,75,6.3,,7.408,,,60,,,,,,,,,,,og-post,,,,AAXX 09044 07661 36/// /0604 10105 20063 30042 40207 56002=
07661,1999-11-09 05:00:00,10.7,1020.8,-0,75,6.5,,3.704,,,360,,,,,,,,,,,og-post,,,,AAXX 09054 07661 36/// /3602 10107 20065 30043 40208 55000=
07661,1999-11-09 06:00:00,10.7,1020.9,0.2,77,6.8,,,,,,10.1,14.7,,,,,,,,,og-post,,,,AAXX 09064 07661 36/// /0000 10107 20068 30044 40209 53002 333 10147 20101 70000=
07661,1999-11-09 07:00:00,10.4,1021.1,0.4,74,6,,3.704,,,80,,,,,,,,,,,og-post,,,,AAXX 09074 07661 36/// /0802 10104 20060 30046 40211 53004=
07661,1999-11-09 08:00:00,12.9,1021.3,0.6,67,6.9,,,,,,,,,,,,,,,,og-post,,,,AAXX 09084 07661 36/// /0000 10129 20069 30049 40213 53006=
07661,1999-11-09 09:00:00,14.2,1021.4,0.7,61,6.8,30000,3.704,,,70,,,,,,,,,,,og-post,,,,AAXX 09094 07661 32580 10702 10142 20068 30051 40214 52007 81140 333 92428=
07661,1999-11-09 10:00:00,15.7,1021.6,0.8,57,7.2,,3.704,,,60,,,,,,,,,,,og-post,,,,AAXX 09104 07661 36/// /0602 10157 20072 30054 40216 52008=
07661,1999-11-09 11:00:00,14.9,1021.1,0,66,8.6,,3.704,,,140,,,,,,,,,,,og-post,,,,AAXX 09114 07661 36/// /1402 10149 20086 30049 40211 50000=
07661,1999-11-09 12:00:00,15.5,1020.7,-0.6,66,9.2,,7.408,,,220,,,,,,,,,,,og-post,,,,AAXX 09124 07661 36/// /2204 10155 20092 30045 40207 58006=
07661,1999-11-09 13:00:00,16.9,1019.9,-1.6,60,9.1,,7.408,,,220,,,,,,,,,,,og-post,,,,AAXX 09134 07661 36/// /2204 10169 20091 30038 40199 58016=
07661,1999-11-09 14:00:00,16,1019.8,-1.3,62,8.7,,7.408,,,220,,,,,,,,,,,og-post,,,,AAXX 09144 07661 36/// /2204 10160 20087 30036 40198 56013=
07661,1999-11-09 15:00:00,15.9,1019.6,-1.1,63,8.9,30000,7.408,,,220,,,,,,,,,,,og-post,,,,AAXX 09154 07661 32580 12204 10159 20089 30034 40196 56011 81140 333 92428=
07661,1999-11-09 16:00:00,15.8,1019.5,-0.5,62,8.5,,3.704,,,240,,,,,,,,,,,og-post,,,,AAXX 09164 07661 36/// /2402 10158 20085 30033 40195 56005=
07661,1999-11-09 17:00:00,14.3,1019.2,-0.6,68,8.5,,11.112,,,220,,,,,,,,,,,og-post,,,,AAXX 09174 07661 36/// /2206 10143 20085 30030 40192 58006=
07661,1999-11-09 18:00:00,13.4,1019.5,-0.2,78,9.6,25000,7.408,,,290,10.3,17.2,,,,,,,,,og-post,,,,AAXX 09184 07661 32575 12904 10134 20096 30032 40195 55002 81140 333 10172 20103 92428=
07661,1999-11-09 19:00:00,13.2,1019.7,0.1,61,5.9,,7.408,,,300,,,,,,,,,,,og-post,,,,AAXX 09194 07661 36/// /3004 10132 20059 30034 40197 53001=
07661,1999-11-09 20:00:00,12.8,1019.7,0.4,75,8.5,,3.704,,,360,,,,,,,,,,,og-post,,,,AAXX 09204 07661 36/// /3602 10128 20085 30034 40197 51004=
07661,1999-11-09 21:00:00,11.2,1019.8,0.2,75,6.9,25000,11.112,,,70,,,,,,,,,,,og-post,,,,AAXX 09214 07661 32975 00706 10112 20069 30034 40198 51002 333 92428=
07661,1999-11-09 22:00:00,11.6,1019.6,-0.2,77,7.7,,7.408,,,60,,,,,,,,,,,og-post,,,,AAXX 09224 07661 36/// /0604 10116 20077 30032 40196 58002=
07661,1999-11-09 23:00:00,10.4,1019.7,-0.2,73,5.8,,14.816,,,90,,,,,,,,,,,og-post,,,,AAXX 09234 07661 36/// /0908 10104 20058 30032 40197 57002=
07661,1999-11-10 00:00:00,10.6,1019.3,-0.6,74,6.2,25000,18.52,,,70,,,,,,,,,,,og-post,,,,AAXX 10004 07661 32975 00710 10106 20062 30028 40193 58006 333 92428=
07661,1999-11-10 03:00:00,10,1018.6,-0.7,77,6.2,25000,11.112,,,80,,,,,,,,,,,og-post,,,,AAXX 10034 07661 32975 00806 10100 20062 30021 40186 58007 333 92428=
07661,1999-11-10 04:00:00,9.7,1018.5,-0.7,82,6.8,,11.112,,,90,,,,,,,,,,,og-post,,,,AAXX 10044 07661 36/// /0906 10097 20068 30020 40185 56007=
07661,1999-11-10 05:00:00,10.5,1018.4,-0.4,71,5.5,,7.408,,,350,,,,,,,,,,,og-post,,,,AAXX 10054 07661 36/// /3504 10105 20055 30019 40184 56004=
07661,1999-11-10 06:00:00,9.8,1018.1,-0.5,68,4.2,,14.816,,,310,9.2,13.6,,,,,,,,,og-post,,,,AAXX 10064 07661 36/// /3108 10098 20042 30016 40181 58005 333 10136 20092 70000=
07661,1999-11-10 07:00:00,10.1,1018.2,-0.3,75,5.9,,7.408,,,330,,,,,,,,,,,og-post,,,,AAXX 10074 07661 36/// /3304 10101 20059 30017 40182 55003=
07661,1999-11-10 08:00:00,11.7,1018,-0.3,63,4.9,,11.112,,,80,,,,,,,,,,,og-post,,,,AAXX 10084 07661 36/// /0806 10117 20049 30016 40180 56003=
07661,1999-11-10 09:00:00,13.6,1017.8,-0.1,52,3.9,30000,11.112,,,70,,,,,,,,,,,og-post,,,,AAXX 10094 07661 32580 10706 10136 20039 30015 40178 58001 81300 333 92428=
07661,1999-11-10 10:00:00,14.8,1017.7,-0.2,46,3.3,,11.112,,,150,,,,,,,,,,,og-post,,,,AAXX 10104 07661 36/// /1506 10148 20033 30015 40177 56002=
07661,1999-11-10 11:00:00,14.4,1017.1,-0.7,54,5.2,,7.408,,,140,,,,,,,,,,,og-post,,,,AAXX 10114 07661 36/// /1404 10144 20052 30009 40171 58007=
07661,1999-11-10 12:00:00,14.5,1016.8,-0.9,57,6.1,30000,7.408,,,140,,,,,,,,,,,og-post,,,,AAXX 10124 07661 32980 21404 10145 20061 30006 40168 58009 82060 333 92428=
07661,1999-11-10 13:00:00,15.7,1016.4,-1.2,54,6.4,,11.112,,,190,,,,,,,,,,,og-post,,,,AAXX 10134 07661 36/// /1906 10157 20064 30003 40164 56012=
07661,1999-11-10 14:00:00,14.8,1016.4,-0.7,55,5.9,,7.408,,,190,,,,,,,,,,,og-post,,,,AAXX 10144 07661 36/// /1904 10148 20059 30002 40164 56007=
07661,1999-11-10 15:00:00,14.3,1016.5,-0.3,57,5.9,30000,11.112,,,180,,,,,,,,,,,og-post,,,,AAXX 10154 07661 32480 31806 10143 20059 30003 40165 55003 82301 333 92428=
07661,1999-11-10 16:00:00,13.6,1016.4,-0.1,62,6.5,,11.112,,,160,,,,,,,,,,,og-post,,,,AAXX 10164 07661 36/// /1606 10136 20065 30002 40164 57001=
07661,1999-11-10 17:00:00,13.2,1016.9,0.4,66,7,,11.112,,,160,,,,,,,,,,,og-post,,,,AAXX 10174 07661 36/// /1606 10132 20070 30006 40169 53004=
07661,1999-11-10 18:00:00,13.5,1017.2,0.6,66,7.3,30000,7.408,,,130,9.8,15.7,,,,,,,,,og-post,,,,AAXX 10184 07661 32480 31304 10135 20073 30009 40172 53006 82301 333 10157 20098 92428=
07661,1999-11-10 19:00:00,11.5,1017.4,0.8,86,9.2,,14.816,,,90,,,,,,,,,,,og-post,,,,AAXX 10194 07661 36/// /0908 10115 20092 30010 40174 51008=
07661,1999-11-10 20:00:00,10.9,1017.4,0.4,90,9.3,,11.112,,,90,,,,,,,,,,,og-post,,,,AAXX 10204 07661 36/// /0906 10109 20093 30010 40174 51004=
07661,1999-11-10 21:00:00,9.9,1018.1,0.7,91,8.5,30000,14.816,,,70,,,,,,,,,,13,og-post,,,,AAXX 10214 07661 31480 30708 10099 20085 30016 40181 53007 71300 83301 333 92428=
07661,1999-11-10 22:00:00,11.6,1018.3,0.9,77,7.7,,31.484,,,60,,,,,,,,,,,og-post,,,,AAXX 10224 07661 36/// /0617 10116 20077 30019 40183 53009=
07661,1999-11-10 23:00:00,11.1,1018.7,1.3,82,8.1,,18.52,,,70,,,,,,,,,,,og-post,,,,AAXX 10234 07661 36/// /0710 10111 20081 30023 40187 51013=
07661,1999-11-11 00:00:00,10,1019,0.9,90,8.4,25000,35.188,,,60,,,,,,,,,,60,og-post,,,,AAXX 11004 07661 /1475 60619 10100 20084 30025 40190 51009 69901 76011 86301 333 69907 92428=
07661,1999-11-11 01:00:00,9.9,1019,0.6,87,7.8,,35.188,,,60,,,,,,,,,,,og-post,,,,AAXX 11014 07661 26/// /0619 10099 20078 30025 40190 51006 333 69905=
07661,1999-11-11 02:00:00,9.7,1018.9,0.1,91,8.3,,31.484,,,60,,,,,,,,,,,og-post,,,,AAXX 11024 07661 26/// /0617 10097 20083 30024 40189 50001 333 69905=
07661,1999-11-11 03:00:00,9.7,1018.8,-0.2,90,8.1,20000,29.632,,,60,,,,,,,,,,60,og-post,,,,AAXX 11034 07661 21470 60616 10097 20081 30023 40188 58002 76011 86301 333 69907 92428=
07661,1999-11-11 04:00:00,9.7,1018.7,-0.3,92,8.5,,25.928,,,60,,,,,,,,,,,og-post,,,,AAXX 11044 07661 26/// /0614 10097 20085 30022 40187 57003 333 69905=
07661,1999-11-11 05:00:00,9.9,1018.5,-0.4,91,8.5,,22.224,,,50,,,0.2,,,,,,,,og-post,,,,AAXX 11054 07661 26/// /0512 10099 20085 30020 40185 58004 333 69925=
07661,1999-11-11 06:00:00,10.4,1018.7,-0.1,86,8.2,20000,25.928,,,60,9.5,13.6,,1,,1,1.2,,,60,og-post,,,,AAXX 11064 07661 /1470 80614 10104 20082 30022 40187 55001 60012 76062 8272/ 333 10136 20095 60017 70012 92438=
07661,1999-11-11 07:00:00,10,1019,0.3,91,8.6,,22.224,,,60,,,,,,,,,,,og-post,,,,AAXX 11074 07661 26/// /0612 10100 20086 30025 40190 53003 333 69905=
07661,1999-11-11 08:00:00,10.7,1019.1,0.7,81,7.6,,25.928,,,60,,,,,,,,,,,og-post,,,,AAXX 11084 07661 36/// /0614 10107 20076 30027 40191 52007=
07661,1999-11-11 09:00:00,11.5,1019.3,0.7,73,6.8,20000,22.224,,,60,,,,,,,,,,1,og-post,,,,AAXX 11094 07661 21570 70612 10115 20068 30029 40193 51007 70162 8272/ 333 69907 92438=
07661,1999-11-11 10:00:00,12.3,1019.7,0.8,73,7.6,,22.224,,,50,,,,,,,,,,,og-post,,,,AAXX 11104 07661 36/// /0512 10123 20076 30033 40197 53008=
07661,1999-11-11 11:00:00,11.8,1019.7,0.6,75,7.5,,25.928,,,60,,,,,,,,,,,og-post,,,,AAXX 11114 07661 36/// /0614 10118 20075 30033 40197 51006=
07661,1999-11-11 12:00:00,11.7,1019.6,0.3,79,8.2,20000,25.928,,,60,,,,,,,,,,2,og-post,,,,AAXX 11124 07661 11570 70614 10117 20082 30032 40196 50003 69901 70262 8272/ 333 92438=
07661,1999-11-11 13:00:00,11.7,1019.5,-0.2,79,8.2,,31.484,,,60,,,,,,,,,,,og-post,,,,AAXX 11134 07661 36/// /0617 10117 20082 30031 40195 58002=
07661,1999-11-11 14:00:00,11.4,1019.4,-0.3,80,8.1,,29.632,,,60,,,,,,,,,,,og-post,,,,AAXX 11144 07661 36/// /0616 10114 20081 30030 40194 57003=
07661,1999-11-11 15:00:00,10.9,1019.2,-0.4,89,9.2,6000,31.484,,,60,,,,,,,,,,2,og-post,,,,AAXX 11154 07661 31456 80617 10109 20092 30028 40192 58004 70262 8772/ 333 92436=
07661,1999-11-11 16:00:00,10.3,1019.3,-0.3,89,8.6,,31.484,,,60,,,0.2,,,,,,,,og-post,,,,AAXX 11164 07661 26/// /0617 10103 20086 30028 40193 56003 333 69925=
07661,1999-11-11 17:00:00,10.3,1019.6,0.1,89,8.6,,35.188,,,60,,,0.2,,,,,,,,og-post,,,,AAXX 11174 07661 26/// /0619 10103 20086 30031 40196 53001 333 69925=
07661,1999-11-11 18:00:00,10.2,1020.2,0.9,91,8.8,4000,35.188,61.116,,60,10,12.3,,2,,2,,,,62,og-post,,,,AAXX 11184 07661 /1440 80619 10102 20088 30037 40202 53009 60022 76262 8772/ 333 10123 20100 60027 91133 92436=
07661,1999-11-11 19:00:00,10,1020.5,1.2,97,9.5,,35.188,64.82,,60,,,2,,,,,,,,og-post,,,,AAXX 11194 07661 26/// /0619 10100 20095 30040 40205 52012 333 60025 91135=
07661,1999-11-11 20:00:00,10.1,1020.5,0.9,97,9.6,,42.596,,,60,,,3,,,,,,,,og-post,,,,AAXX 11204 07661 26/// /0623 10101 20096 30040 40205 51009 333 60035=
07661,1999-11-11 21:00:00,10.2,1021,0.8,96,9.6,5000,31.484,68.524,,60,,,,8,,,,,,63,og-post,,,,AAXX 11214 07661 21450 80617 10102 20096 30045 40210 53008 76366 889// 333 60087 91137 92446=
07661,1999-11-11 22:00:00,12.4,1019.8,-0.5,83,9.6,,64.82,94.452,94.452,70,,,2,,,,,,,,og-post,,,,AAXX 11224 07661 26/// /0735 10124 20096 30035 40198 58005 333 60025 91051 91151=
07661,1999-11-11 23:00:00,13,1020.5,0.2,78,9.3,,57.412,90.748,75.932,70,,,,,,,,,,,og-post,,,,AAXX 11234 07661 26/// /0731 10130 20093 30042 40205 53002 333 69905 91041 91149=
07661,1999-11-12 00:00:00,12.1,1020.4,-0.5,82,9.1,5000,57.412,94.452,83.34,70,,,,3,11,,,,,63,og-post,,,,AAXX 12004 07661 /1450 80731 10121 20091 30040 40204 56005 60111 76366 889// 333 60037 91045 91151 92456=
07661,1999-11-12 01:00:00,12.9,1020.5,0.7,76,8.8,,57.412,90.748,90.748,70,,,,,,,,,,,og-post,,,,AAXX 12014 07661 26/// /0731 10129 20088 30042 40205 51007 333 69905 91049 91149=
07661,1999-11-12 02:00:00,13.4,1020.5,-0,72,8.5,,57.412,87.044,83.34,70,,,,,,,,,,,og-post,,,,AAXX 12024 07661 26/// /0731 10134 20085 30042 40205 55000 333 69905 91045 91147=
07661,1999-11-12 03:00:00,13,1020.5,0.2,75,8.7,5000,61.116,90.748,87.044,70,,,,0.2,,,,,,63,og-post,,,,AAXX 12034 07661 21450 80733 10130 20087 30042 40205 51002 76366 889// 333 69927 91047 91149 92456=
07661,1999-11-12 04:00:00,13.2,1020.3,-0.2,75,8.9,,53.708,83.34,72.228,70,,,,,,,,,,,og-post,,,,AAXX 12044 07661 26/// /0729 10132 20089 30040 40203 58002 333 69905 91039 91145=
07661,1999-11-12 05:00:00,13.4,1020.3,-0.2,71,8.3,,61.116,90.748,90.748,70,,,,,,,,,,,og-post,,,,AAXX 12054 07661 26/// /0733 10134 20083 30040 40203 57002 333 69905 91049 91149=
07661,1999-11-12 06:00:00,13.4,1020.5,-0,67,7.4,15000,57.412,90.748,87.044,70,9.9,13.6,,,,11,12.4,,,21,og-post,,,,AAXX 12064 07661 /1465 60731 10134 20074 30042 40205 55000 60112 72161 85820 333 10136 20099 69907 70124 91047 91149 92447=
07661,1999-11-12 07:00:00,13.6,1019.8,-0.5,67,7.6,,64.82,90.748,83.34,70,,,,,,,,,,,og-post,,,,AAXX 12074 07661 36/// /0735 10136 20076 30035 40198 58005 333 91045 91149=
07661,1999-11-12 08:00:00,13.6,1020.3,-0,67,7.6,,64.82,90.748,90.748,70,,,,,,,,,,,og-post,,,,AAXX 12084 07661 36/// /0735 10136 20076 30040 40203 55000 333 91049 91149=
07661,1999-11-12 09:00:00,14,1020.5,-0,66,7.8,,64.82,90.748,87.044,70,,,,,,,,,,,og-post,,,,AAXX 12094 07661 36/// /0735 10140 20078 30042 40205 55000 333 91047 91149=
07661,1999-11-12 10:00:00,14.2,1020.3,0.5,67,8.2,,68.524,96.304,96.304,70,,,,,,,,,,,og-post,,,,AAXX 12104 07661 36/// /0737 10142 20082 30040 40203 50005 333 91052 91152=
07661,1999-11-12 11:00:00,13.8,1020.3,0,72,8.8,,68.524,103.712,94.452,70,,,,,,,,,,,og-post,,,,AAXX 12114 07661 36/// /0737 10138 20088 30040 40203 50000 333 91051 91156=
07661,1999-11-12 12:00:00,13.1,1020.2,-0.3,79,9.5,15000,61.116,103.712,87.044,70,,,,0.4,0.4,,,,,,og-post,,,,AAXX 12124 07661 /2465 80733 10131 20095 30039 40202 56003 69941 85820 333 69947 91047 91156 92457=
07661,1999-11-12 13:00:00,12.6,1019.5,-0.8,82,9.6,,57.412,94.452,79.636,70,,,0.4,,,,,,,,og-post,,,,AAXX 12134 07661 26/// /0731 10126 20096 30032 40195 58008 333 69945 91043 91151=
07661,1999-11-12 14:00:00,12.8,1019.7,-0.6,83,10,,57.412,83.34,79.636,70,,,0.4,,,,,,,,og-post,,,,AAXX 12144 07661 26/// /0731 10128 20100 30034 40197 55006 333 69945 91043 91145=
07661,1999-11-12 15:00:00,12.5,1019.3,-0.9,85,10,15000,57.412,94.452,,70,,,,1,,,,,,63,og-post,,,,AAXX 12154 07661 21465 80731 10125 20100 30030 40193 56009 76322 85820 333 60017 91151 92457=
07661,1999-11-12 16:00:00,12.7,1018.9,-0.6,82,9.7,,57.412,79.636,,70,,,,,,,,,,,og-post,,,,AAXX 12164 07661 26/// /0731 10127 20097 30026 40189 58006 333 69905 91143=
07661,1999-11-12 17:00:00,13.5,1018.9,-0.8,78,9.7,,57.412,79.636,79.636,70,,,0.2,,,,,,,,og-post,,,,AAXX 12174 07661 26/// /0731 10135 20097 30026 40189 56008 333 69925 91043 91143=
07661,1999-11-12 18:00:00,14,1019.1,-0.1,74,9.4,12000,61.116,94.452,87.044,70,12.5,14.3,,0.2,,2,,,,21,og-post,,,,AAXX 12184 07661 /1462 60733 10140 20094 30029 40191 55001 60022 72162 82820 333 10143 20125 69927 91047 91151 92457=
07661,1999-11-12 19:00:00,14.6,1019.1,0.3,71,9.4,,61.116,90.748,90.748,70,,,,,,,,,,,og-post,,,,AAXX 12194 07661 36/// /0733 10146 20094 30029 40191 52003 333 91049 91149=
07661,1999-11-12 20:00:00,14.8,1019.1,0.3,69,9.2,,61.116,87.044,87.044,70,,,,,,,,,,,og-post,,,,AAXX 12204 07661 36/// /0733 10148 20092 30029 40191 51003 333 91047 91147=
07661,1999-11-12 21:00:00,15.1,1019.4,0.3,68,9.2,15000,61.116,90.748,90.748,70,,,,,,,,,,,og-post,,,,AAXX 12214 07661 32465 60733 10151 20092 30032 40194 53003 83820 333 91049 91149 92457=
07661,1999-11-12 22:00:00,15.2,1019,-0.1,68,9.3,,57.412,87.044,83.34,70,,,,,,,,,,,og-post,,,,AAXX 12224 07661 36/// /0731 10152 20093 30028 40190 58001 333 91045 91147=
07661,1999-11-12 23:00:00,14.7,1019,-0.1,72,9.7,,57.412,90.748,90.748,70,,,,,,,,,,,og-post,,,,AAXX 12234 07661 36/// /0731 10147 20097 30028 40190 58001 333 91049 91149=
07661,1999-11-13 00:00:00,14.8,1018.1,-1.3,69,9.2,,57.412,90.748,79.636,70,,,,,,,,,,,og-post,,,,AAXX 13004 07661 36/// /0731 10148 20092 30019 40181 58013 333 91043 91149=
07661,1999-11-13 01:00:00,14.8,1017.2,-1.8,70,9.4,,57.412,83.34,75.932,70,,,,,,,,,,,og-post,,,,AAXX 13014 07661 36/// /0731 10148 20094 30010 40172 58018 333 91041 91145=
07661,1999-11-13 02:00:00,14.7,1017.2,-1.8,67,8.6,,57.412,90.748,79.636,70,,,,,,,,,,,og-post,,,,AAXX 13024 07661 36/// /0731 10147 20086 30010 40172 56018 333 91043 91149=
07661,1999-11-13 03:00:00,14.7,1016,-2.1,68,8.9,15000,57.412,90.748,75.932,70,,,,,,,,,,,og-post,,,,AAXX 13034 07661 32465 60731 10147 20089 39998 40160 58021 83820 333 91041 91149 92457=
07661,1999-11-13 04:00:00,14.8,1015,-2.1,67,8.7,,57.412,87.044,87.044,70,,,,,,,,,,,og-post,,,,AAXX 13044 07661 36/// /0731 10148 20087 39989 40150 58021 333 91047 91147=
07661,1999-11-13 05:00:00,15,1015,-2.1,66,8.7,,57.412,90.748,79.636,70,,,,,,,,,,,og-post,,,,AAXX 13054 07661 36/// /0731 10150 20087 39989 40150 56021 333 91043 91149=
07661,1999-11-13 06:00:00,15.1,1014.5,-1.4,66,8.8,15000,53.708,90.748,,70,13.8,15.2,,,,,2,,,,og-post,,,,AAXX 13064 07661 32465 60729 10151 20088 39984 40145 56014 86800 333 10152 20138 70020 91149 92457=
07661,1999-11-13 07:00:00,14.8,1014.3,-0.7,68,9,,61.116,83.34,,70,,,,,,,,,,,og-post,,,,AAXX 13074 07661 36/// /0733 10148 20090 39982 40143 58007 333 91145=
07661,1999-11-13 08:00:00,15.4,1013.8,-1.2,66,9.1,,68.524,90.748,90.748,70,,,,,,,,,,,og-post,,,,AAXX 13084 07661 36/// /0737 10154 20091 39977 40138 57012 333 91049 91149=
07661,1999-11-13 09:00:00,14.8,1013.6,-0.9,73,10,6000,57.412,96.304,83.34,70,,,,0.4,,,,,,62,og-post,,,,AAXX 13094 07661 21456 80731 10148 20100 39975 40136 57009 76262 86720 333 69947 91045 91152 92456=
07661,1999-11-13 10:00:00,13.3,1014.3,-0.1,87,11.2,,57.412,90.748,,70,,,1,,,,,,,,og-post,,,,AAXX 13104 07661 26/// /0731 10133 20112 39981 40143 55001 333 60015 91149=
07661,1999-11-13 11:00:00,13.4,1013.3,-0.6,85,10.9,,57.412,,79.636,70,,,1,,,,,,,,og-post,,,,AAXX 13114 07661 26/// /0731 10134 20109 39971 40133 58006 333 60015 91043=
07661,1999-11-13 12:00:00,12.8,1012.8,-0.9,91,11.4,6000,50.004,96.304,,70,,,,4,4,,,,,63,og-post,,,,AAXX 13124 07661 /1456 80727 10128 20114 39966 40128 58009 60041 76366 86720 333 60047 91152 92456=
07661,1999-11-13 13:00:00,12.5,1011.7,-2.6,94,11.6,,53.708,75.932,,70,,,3,,,,,,,,og-post,,,,AAXX 13134 07661 26/// /0729 10125 20116 39955 40117 58026 333 60035 91141=
07661,1999-11-13 14:00:00,12.8,1010.9,-2.4,93,11.7,,46.3,72.228,72.228,70,,,3,,,,,,,,og-post,,,,AAXX 13144 07661 26/// /0725 10128 20117 39947 40109 58024 333 60035 91039 91139=
07661,1999-11-13 15:00:00,13,1010.8,-2,95,12.2,,57.412,90.748,83.34,80,,,,11,,,,,,,og-post,,,,AAXX 13154 07661 26/// /0831 10130 20122 39946 40108 56020 333 60117 91045 91149=
07661,1999-11-13 16:00:00,13.1,1011.3,-0.4,97,12.6,,57.412,90.748,83.34,70,,,6,,,,,,,,og-post,,,,AAXX 13164 07661 26/// /0731 10131 20126 39951 40113 55004 333 60065 91045 91149=
07661,1999-11-13 17:00:00,12,1012.1,1.2,96,11.4,,25.928,68.524,,110,,,4,,,,,,,,og-post,,,,AAXX 13174 07661 26/// /1114 10120 20114 39959 40121 53012 333 60045 91137=
07661,1999-11-13 18:00:00,11.4,1011.6,0.7,98,11.1,6000,31.484,90.748,,60,11.4,15.4,,15,,30,,,,63,og-post,,,,AAXX 13184 07661 /1456 80617 10114 20111 39953 40116 50007 60302 76366 86720 333 10154 20114 60157 91149 92456=
07661,1999-11-13 19:00:00,11.5,1011.1,-0.3,98,11.2,,29.632,50.004,,60,,,1,,,,,,,,og-post,,,,AAXX 13194 07661 26/// /0616 10115 20112 39948 40111 58003 333 60015 91127=
07661,1999-11-13 20:00:00,11.6,1011,-1.1,95,10.8,,29.632,,,70,,,,,,,,,,,og-post,,,,AAXX 13204 07661 26/// /0716 10116 20108 39948 40110 56011 333 69905=
07661,1999-11-13 21:00:00,11.6,1012.1,0.5,96,11,8000,18.52,50.004,,80,,,,4,,,,,,60,og-post,,,,AAXX 13214 07661 21458 80810 10116 20110 39958 40121 53005 76066 86720 333 60047 91127 92446=
07661,1999-11-14 00:00:00,12.1,1011.9,-0.1,95,11.3,8000,14.816,50.004,,90,,,,2,5,,,,,21,og-post,,,,AAXX 14004 07661 /1458 80908 10121 20113 39957 40119 55001 60051 72122 86720 333 60027 91127 92446=
07661,1999-11-14 03:00:00,13.2,1011.1,-0.8,85,10.7,8000,22.224,,,200,,,,,,,,,,21,og-post,,,,AAXX 14034 07661 31458 82012 10132 20107 39949 40111 57008 72122 86720 333 92446=
07661,1999-11-14 04:00:00,12.8,1011.3,-0.3,78,9.1,,25.928,,,220,,,,,,,,,,,og-post,,,,AAXX 14044 07661 36/// /2214 10128 20091 39951 40113 55003=
07661,1999-11-14 05:00:00,12.2,1011.3,-0.1,76,8.1,,18.52,,,220,,,,,,,,,,,og-post,,,,AAXX 14054 07661 36/// /2210 10122 20081 39951 40113 56001=
07661,1999-11-14 06:00:00,12,1011.7,0.5,73,7.3,15000,14.816,,,230,11.4,13.2,,,,5,35.4,,,1,og-post,,,,AAXX 14064 07661 11465 22308 10120 20073 39954 40117 53005 60052 70161 82205 333 10132 20114 70354 92447=
07661,1999-11-14 07:00:00,12.2,1012.1,0.8,79,8.7,,11.112,,,260,,,,,,,,,,,og-post,,,,AAXX 14074 07661 36/// /2606 10122 20087 39959 40121 53008=
07661,1999-11-14 08:00:00,11.8,1012.7,1.3,90,10.2,,11.112,,,70,,,,,,,,,,,og-post,,,,AAXX 14084 07661 36/// /0706 10118 20102 39964 40127 53013=
07661,1999-11-14 09:00:00,12.3,1012.8,1.2,89,10.5,20000,7.408,,,70,,,,,,,,,,,og-post,,,,AAXX 14094 07661 32570 40704 10123 20105 39966 40128 51012 82102 333 92438=
07661,1999-11-14 10:00:00,13.9,1013,0.9,77,9.9,,7.408,,,70,,,,,,,,,,,og-post,,,,AAXX 14104 07661 36/// /0704 10139 20099 39968 40130 51009=
07661,1999-11-14 11:00:00,13.8,1012.6,0,74,9.3,,3.704,,,100,,,,,,,,,,,og-post,,,,AAXX 14114 07661 36/// /1002 10138 20093 39964 40126 50000=
07661,1999-11-14 12:00:00,14.5,1012,-0.7,65,8,20000,7.408,,,180,,,,,,,,,,,og-post,,,,AAXX 14124 07661 32570 41804 10145 20080 39959 40120 58007 82102 333 92438=
07661,1999-11-14 13:00:00,14.2,1011.4,-1.5,68,8.4,,11.112,,,160,,,,,,,,,,,og-post,,,,AAXX 14134 07661 36/// /1606 10142 20084 39953 40114 58015=
07661,1999-11-14 14:00:00,14.3,1010.9,-1.6,68,8.5,,11.112,,,110,,,,,,,,,,,og-post,,,,AAXX 14144 07661 36/// /1106 10143 20085 39948 40109 57016=
07661,1999-11-14 15:00:00,13.7,1010.4,-1.6,71,8.5,20000,14.816,,,80,,,,,,,,,,,og-post,,,,AAXX 14154 07661 32570 60808 10137 20085 39943 40104 56016 81131 333 92438=
07661,1999-11-14 16:00:00,13.4,1010.1,-1.3,69,7.8,,18.52,,,70,,,,,,,,,,,og-post,,,,AAXX 14164 07661 36/// /0710 10134 20078 39940 40101 56013=
07661,1999-11-14 17:00:00,13,1009.9,-1.1,78,9.3,,22.224,,,60,,,,,,,,,,,og-post,,,,AAXX 14174 07661 36/// /0612 10130 20093 39937 40099 56011=
07661,1999-11-14 18:00:00,12.7,1009.7,-0.8,78,9,20000,25.928,,,60,11.6,14.7,,,,,,,,13,og-post,,,,AAXX 14184 07661 31570 80614 10127 20090 39935 40097 56008 71322 889// 333 10147 20116 92438=
07661,1999-11-14 19:00:00,12.5,1009.6,-0.6,77,8.6,,22.224,,,60,,,,,,,,,,,og-post,,,,AAXX 14194 07661 36/// /0612 10125 20086 39934 40096 56006=
07661,1999-11-14 20:00:00,12.3,1009.7,-0.2,77,8.4,,18.52,,,60,,,0.2,,,,,,,,og-post,,,,AAXX 14204 07661 26/// /0610 10123 20084 39935 40097 55002 333 69925=
07661,1999-11-14 21:00:00,11.2,1010.1,0.3,86,8.9,10000,11.112,,,20,,,,2,,,,,,,og-post,,,,AAXX 14214 07661 22960 80206 10112 20089 39938 40101 53003 8802/ 333 60027 92437=
07661,1999-11-14 22:00:00,10.7,1009.7,0,91,9.3,,11.112,,,40,,,3,,,,,,,,og-post,,,,AAXX 14224 07661 26/// /0406 10107 20093 39934 40097 50000 333 60035=
07661,1999-11-14 23:00:00,10.2,1009.7,-0.1,91,8.8,,7.408,,,300,,,6,,,,,,,,og-post,,,,AAXX 14234 07661 26/// /3004 10102 20088 39934 40097 58001 333 60065=
07661,1999-11-15 00:00:00,10.1,1008.6,-1.5,94,9.2,6000,14.816,,,30,,,,12,15,,,,,62,og-post,,,,AAXX 15004 07661 /1956 80308 10101 20092 39923 40086 58015 60151 76266 8802/ 333 60127 92436=
07661,1999-11-15 01:00:00,10.2,1007.7,-2,96,9.6,,22.224,,,60,,,,,,,,,,,og-post,,,,AAXX 15014 07661 26/// /0612 10102 20096 39914 40077 58020 333 69905=
07661,1999-11-15 02:00:00,10.3,1007.1,-2.6,95,9.5,,18.52,,,70,,,,,,,,,,,og-post,,,,AAXX 15024 07661 26/// /0710 10103 20095 39908 40071 56026 333 69905=
07661,1999-11-15 03:00:00,10.2,1006.8,-1.8,92,9,6000,11.112,,,70,,,,,,,,,,21,og-post,,,,AAXX 15034 07661 21556 50706 10102 20090 39905 40068 56018 72122 8322/ 333 69907 92436=
07661,1999-11-15 04:00:00,9.8,1006.7,-1,94,8.9,,11.112,,,90,,,,,,,,,,,og-post,,,,AAXX 15044 07661 36/// /0906 10098 20089 39904 40067 56010=
07661,1999-11-15 05:00:00,9.2,1006.6,-0.5,95,8.4,,14.816,,,60,,,,,,,,,,,og-post,,,,AAXX 15054 07661 36/// /0608 10092 20084 39903 40066 56005=
07661,1999-11-15 06:00:00,9.3,1006.9,0.1,93,8.2,20000,7.408,,,40,9,12.7,,0.2,,15,14.8,,,,og-post,,,,AAXX 15064 07661 /2570 30404 10093 20082 39906 40069 53001 60152 8324/ 333 10127 20090 69927 70148 92438=
07661,1999-11-15 07:00:00,10.3,1006.8,0.1,82,7.4,,11.112,,,340,,,,,,,,,,,og-post,,,,AAXX 15074 07661 36/// /3406 10103 20074 39905 40068 52001=
07661,1999-11-15 08:00:00,11.3,1007.1,0.6,83,8.5,,3.704,,,160,,,,,,,,,,,og-post,,,,AAXX 15084 07661 36/// /1602 10113 20085 39909 40071 53006=
07661,1999-11-15 09:00:00,13.2,1007.3,0.6,72,8.3,35000,7.408,,,270,,,,,,,,,,,og-post,,,,AAXX 15094 07661 32581 22704 10132 20083 39912 40073 53006 8124/ 333 92438=
07661,1999-11-15 10:00:00,13.3,1007.2,0.6,77,9.4,,11.112,,,290,,,,,,,,,,,og-post,,,,AAXX 15104 07661 36/// /2906 10133 20094 39911 40072 50006=
07661,1999-11-15 11:00:00,13.6,1006.7,-0.3,75,9.3,,14.816,,,290,,,,,,,,,,,og-post,,,,AAXX 15114 07661 36/// /2908 10136 20093 39906 40067 58003=
07661,1999-11-15 12:00:00,14,1006.2,-1,67,8,30000,18.52,,,290,,,,,,,,,,,og-post,,,,AAXX 15124 07661 32580 22910 10140 20080 39902 40062 58010 8124/ 333 92428=
07661,1999-11-15 13:00:00,14.5,1005.9,-1.2,56,5.8,,18.52,,,290,,,,,,,,,,,og-post,,,,AAXX 15134 07661 36/// /2910 10145 20058 39899 40059 56012=
07661,1999-11-15 15:00:00,14,1006.7,0.4,65,7.5,30000,14.816,,,290,,,,,,,,,,,og-post,,,,AAXX 15154 07661 32480 72908 10140 20075 39906 40067 53004 82452 333 92428=
07661,1999-11-15 16:00:00,13.6,1007.5,1.5,68,7.8,,11.112,,,260,,,,,,,,,,,og-post,,,,AAXX 15164 07661 36/// /2606 10136 20078 39914 40075 53015=
07661,1999-11-15 17:00:00,13.4,1008,1.9,67,7.4,,3.704,,,340,,,,,,,,,,,og-post,,,,AAXX 15174 07661 36/// /3402 10134 20074 39919 40080 51019=
07661,1999-11-15 18:00:00,13.1,1008.6,1.9,81,9.9,30000,18.52,,,70,8.9,14.9,,,,,,,,,og-post,,,,AAXX 15184 07661 32480 70710 10131 20099 39925 40086 51019 82452 333 10149 20089 92428=
07661,1999-11-15 19:00:00,13.1,1009.3,1.8,83,10.3,,22.224,,,70,,,,,,,,,,,og-post,,,,AAXX 15194 07661 36/// /0712 10131 20103 39932 40093 53018=
07661,1999-11-15 20:00:00,12.7,1010.1,2,79,9.2,,31.484,,,70,,,,,,,,,,,og-post,,,,AAXX 15204 07661 26/// /0717 10127 20092 39939 40101 53020 333 69905=
07661,1999-11-15 21:00:00,11.4,1011.1,2.3,93,10.3,15000,22.224,,,70,,,,0.6,,,,,,95,og-post,,,,AAXX 15214 07661 21465 80712 10114 20103 39948 40111 53023 79596 889// 333 69967 92437=
07661,1999-11-15 22:00:00,11.1,1011.6,2.1,95,10.3,,11.112,,,60,,,2,,,,,,,,og-post,,,,AAXX 15224 07661 26/// /0606 10111 20103 39953 40116 51021 333 60025=
07661,1999-11-15 23:00:00,10.7,1011.6,1.4,93,9.6,,11.112,,,360,,,3,,,,,,,,og-post,,,,AAXX 15234 07661 26/// /3606 10107 20096 39953 40116 51014 333 60035=
07661,1999-11-16 00:00:00,11.4,1011.3,0.2,96,10.8,15000,18.52,,,60,,,,5,6,,,,,60,og-post,,,,AAXX 16004 07661 /1465 80610 10114 20108 39950 40113 50002 60061 76096 887// 333 60057 92437=
07661,1999-11-16 01:00:00,11.6,1011.2,-0.3,95,10.8,,18.52,,,70,,,,,,,,,,,og-post,,,,AAXX 16014 07661 26/// /0710 10116 20108 39950 40112 57003 333 69905=
07661,1999-11-16 02:00:00,11.3,1011.1,-0.5,95,10.5,,22.224,,,60,,,,,,,,,,,og-post,,,,AAXX 16024 07661 26/// /0612 10113 20105 39948 40111 56005 333 69905=
07661,1999-11-16 03:00:00,11,1010.8,-0.5,94,10.1,15000,25.928,,,60,,,,,,,,,,60,og-post,,,,AAXX 16034 07661 21465 80614 10110 20101 39945 40108 58005 76096 887// 333 69907 92427=
07661,1999-11-16 04:00:00,11.4,1011.2,-0.1,89,9.7,,18.52,,,60,,,,,,,,,,,og-post,,,,AAXX 16044 07661 26/// /0610 10114 20097 39949 40112 55001 333 69905=
07661,1999-11-16 05:00:00,10.6,1011.6,0.5,95,9.8,,29.632,,,310,,,2,,,,,,,,og-post,,,,AAXX 16054 07661 26/// /3116 10106 20098 39953 40116 53005 333 60025=
07661,1999-11-16 06:00:00,10.2,1012,1.2,98,9.9,8000,22.224,,,280,10.2,13.2,,8,,14,14,,,63,og-post,,,,AAXX 16064 07661 /1458 82812 10102 20099 39957 40120 52012 60142 76396 887// 333 10132 20102 60087 70140 92436=
07661,1999-11-16 07:00:00,10.1,1012.6,1.3,99,9.9,,22.224,,,300,,,2,,,,,,,,og-post,,,,AAXX 16074 07661 26/// /3012 10101 20099 39962 40126 53013 333 60025=
07661,1999-11-16 08:00:00,9.7,1013.2,1.5,99,9.5,,18.52,,,300,,,1,,,,,,,,og-post,,,,AAXX 16084 07661 26/// /3010 10097 20095 39968 40132 53015 333 60015=
07661,1999-11-16 09:00:00,10,1013.5,1.4,99,9.8,8000,18.52,,,310,,,,4,,,,,,63,og-post,,,,AAXX 16094 07661 21458 83110 10100 20098 39971 40135 51014 76366 8672/ 333 60047 92436=
07661,1999-11-16 10:00:00,9.9,1013.8,1.2,97,9.4,,18.52,,,300,,,0.4,,,,,,,,og-post,,,,AAXX 16104 07661 26/// /3010 10099 20094 39974 40138 51012 333 69945=
07661,1999-11-16 11:00:00,10.4,1013.7,0.5,97,9.9,,18.52,,,280,,,,,,,,,,,og-post,,,,AAXX 16114 07661 26/// /2810 10104 20099 39973 40137 50005 333 69905=
07661,1999-11-16 12:00:00,10.4,1013.8,0.3,96,9.8,8000,14.816,,,290,,,,2,6,,,,,62,og-post,,,,AAXX 16124 07661 /1458 82908 10104 20098 39974 40138 51003 60061 76266 8672/ 333 60027 92436=
07661,1999-11-16 13:00:00,10.3,1013.3,-0.5,92,9.1,,22.224,,,300,,,0.4,,,,,,,,og-post,,,,AAXX 16134 07661 26/// /3012 10103 20091 39969 40133 58005 333 69945=
07661,1999-11-16 14:00:00,9.9,1013.1,-0.6,95,9.1,,25.928,,,290,,,,,,,,,,,og-post,,,,AAXX 16144 07661 26/// /2914 10099 20091 39967 40131 58006 333 69905=
07661,1999-11-16 15:00:00,9.7,1013.3,-0.5,93,8.6,10000,25.928,,,290,,,,0.4,,,,,,21,og-post,,,,AAXX 16154 07661 21460 72914 10097 20086 39969 40133 55005 72162 8683/ 333 69947 92437=
07661,1999-11-16 16:00:00,9.3,1013.6,0.3,89,7.6,,25.928,,,300,,,,,,,,,,,og-post,,,,AAXX 16164 07661 36/// /3014 10093 20076 39972 40136 53003=
07661,1999-11-16 17:00:00,8.5,1013.8,0.6,88,6.6,,29.632,,,300,,,,,,,,,,,og-post,,,,AAXX 16174 07661 36/// /3016 10085 20066 39973 40138 51006=
07661,1999-11-16 18:00:00,7.4,1014.2,0.7,83,4.7,10000,35.188,,,310,7.4,10.5,,,,6,,,,,og-post,,,,AAXX 16184 07661 12460 13119 10074 20047 39976 40142 52007 60062 81400 333 10105 20074 92447=
07661,1999-11-16 19:00:00,7.2,1014.3,0.5,79,3.8,,25.928,,,300,,,,,,,,,,,og-post,,,,AAXX 16194 07661 36/// /3014 10072 20038 39977 40143 52005=
07661,1999-11-16 20:00:00,7.1,1014.2,0.3,76,3.2,,18.52,,,300,,,,,,,,,,,og-post,,,,AAXX 16204 07661 36/// /3010 10071 20032 39976 40142 50003=
07661,1999-11-16 21:00:00,7.7,1013.8,-0.3,78,4.1,,35.188,,,300,,,,,,,,,,,og-post,,,,AAXX 16214 07661 36/// /3019 10077 20041 39973 40138 58003=
07661,1999-11-16 22:00:00,6.4,1013.8,-0.5,82,3.6,,35.188,,,300,,,,,,,,,,,og-post,,,,AAXX 16224 07661 36/// /3019 10064 20036 39972 40138 57005=
07661,1999-11-16 23:00:00,5.9,1013.5,-0.8,73,1.4,,46.3,,,300,,,,,,,,,,,og-post,,,,AAXX 16234 07661 36/// /3025 10059 20014 39968 40135 58008=
07661,1999-11-17 00:00:00,5.8,1013,-1,67,0.2,9000,53.708,72.228,,300,,,,,,,,,,,og-post,,,,AAXX 17004 07661 32559 63029 10058 20002 39963 40130 58010 85242 333 91139 92456=
07661,1999-11-17 01:00:00,5.3,1013,-0.9,66,-0.5,,46.3,75.932,,300,,,,,,,,,,,og-post,,,,AAXX 17014 07661 36/// /3025 10053 21005 39963 40130 56009 333 91141=
07661,1999-11-17 02:00:00,5.2,1012.8,-0.7,61,-1.7,,46.3,64.82,,300,,,,,,,,,,,og-post,,,,AAXX 17024 07661 36/// /3025 10052 21017 39961 40128 56007 333 91135=
07661,1999-11-17 03:00:00,4.7,1012,-1,53,-4,9000,53.708,79.636,75.932,300,,,,,,,,,,,og-post,,,,AAXX 17034 07661 32559 63029 10047 21040 39953 40120 58010 85242 333 91041 91143 92456=
07661,1999-11-17 04:00:00,4.3,1011.9,-1.1,52,-4.7,,46.3,87.044,,300,,,,,,,,,,,og-post,,,,AAXX 17044 07661 36/// /3025 10043 21047 39952 40119 56011 333 91147=
07661,1999-11-17 05:00:00,4.6,1011.8,-1,48,-5.4,,57.412,,79.636,300,,,,,,,,,,,og-post,,,,AAXX 17054 07661 36/// /3031 10046 21054 39951 40118 56010 333 91043=
07661,1999-11-17 06:00:00,5,1012.1,0.1,56,-3,18000,57.412,87.044,,300,4.3,7.7,,,,,6,,,,og-post,,,,AAXX 17064 07661 32568 13031 10050 21030 39954 40121 53001 81100 333 10077 20043 70060 91147 92457=
07661,1999-11-17 07:00:00,4.9,1012.3,0.4,59,-2.4,,64.82,90.748,87.044,300,,,,,,,,,,,og-post,,,,AAXX 17074 07661 36/// /3035 10049 21024 39956 40123 53004 333 91047 91149=
07661,1999-11-17 08:00:00,5.4,1012.8,1,60,-1.7,,64.82,94.452,94.452,300,,,,,,,,,,,og-post,,,,AAXX 17084 07661 36/// /3035 10054 21017 39961 40128 53010 333 91051 91151=
07661,1999-11-17 09:00:00,6,1013.6,1.5,58,-1.6,20000,57.412,94.452,79.636,300,,,,,,,,,,,og-post,,,,AAXX 17094 07661 32570 13031 10060 21016 39969 40136 53015 81200 333 91043 91151 92458=
07661,1999-11-17 10:00:00,7.3,1013.6,1.4,56,-0.9,,46.3,79.636,68.524,300,,,,,,,,,,,og-post,,,,AAXX 17104 07661 36/// /3025 10073 21009 39970 40136 51014 333 91037 91143=
07661,1999-11-17 11:00:00,8,1012.7,0.1,55,-0.5,,61.116,87.044,87.044,310,,,,,,,,,,,og-post,,,,AAXX 17114 07661 36/// /3133 10080 21005 39962 40127 50001 333 91047 91147=
07661,1999-11-17 12:00:00,8.4,1012.3,-1.1,52,-0.9,20000,57.412,94.452,83.34,310,,,,,,,,,,,og-post,,,,AAXX 17124 07661 32570 13131 10084 21009 39958 40123 58011 81200 333 91045 91151 92458=
07661,1999-11-17 13:00:00,8.9,1012.3,-1.2,50,-0.9,,50.004,90.748,90.748,310,,,,,,,,,,,og-post,,,,AAXX 17134 07661 36/// /3127 10089 21009 39958 40123 56012 333 91049 91149=
07661,1999-11-17 14:00:00,9.1,1012.5,-0.2,49,-1,,50.004,100.008,83.34,310,,,,,,,,,,,og-post,,,,AAXX 17144 07661 36/// /3127 10091 21010 39960 40125 55002 333 91045 91154=
07661,1999-11-17 15:00:00,8.7,1012.6,0.3,48,-1.7,25000,61.116,100.008,87.044,310,,,,,,,,,,,og-post,,,,AAXX 17154 07661 32575 13133 10087 21017 39961 40126 53003 81200 333 91047 91154 92458=
07661,1999-11-17 16:00:00,8.1,1013.2,0.9,49,-2,,53.708,90.748,87.044,310,,,,,,,,,,,og-post,,,,AAXX 17164 07661 36/// /3129 10081 21020 39967 40132 53009 333 91047 91149=
07661,1999-11-17 17:00:00,7.7,1014.2,1.6,51,-1.8,,50.004,83.34,72.228,310,,,,,,,,,,,og-post,,,,AAXX 17174 07661 36/// /3127 10077 21018 39976 40142 53016 333 91039 91145=
07661,1999-11-17 18:00:00,7.5,1014.5,1.8,53,-1.4,30000,53.708,100.008,79.636,310,4.6,9.3,,,,,,,,,og-post,,,,AAXX 17184 07661 32580 13129 10075 21014 39979 40145 51018 81200 333 10093 20046 91043 91154 92458=
07661,1999-11-17 19:00:00,7.2,1015,1.7,51,-2.2,,50.004,83.34,,300,,,,,,,,,,,og-post,,,,AAXX 17194 07661 36/// /3027 10072 21022 39984 40150 51017 333 91145=
07661,1999-11-17 20:00:00,6.6,1015.5,1.2,57,-1.3,,42.596,,,300,,,,,,,,,,,og-post,,,,AAXX 17204 07661 36/// /3023 10066 21013 39988 40155 53012=
07661,1999-11-17 21:00:00,6.3,1015.4,0.8,60,-0.9,20000,46.3,83.34,,300,,,,,,,,,,,og-post,,,,AAXX 17214 07661 32970 03025 10063 21009 39987 40154 50008 333 91145 92458=
07661,1999-11-17 22:00:00,5.7,1015.6,0.5,64,-0.6,,42.596,72.228,,300,,,,,,,,,,,og-post,,,,AAXX 17224 07661 36/// /3023 10057 21006 39989 40156 51005 333 91139=
07661,1999-11-17 23:00:00,5.6,1015.2,-0.3,66,-0.2,,53.708,75.932,,300,,,,,,,,,,,og-post,,,,AAXX 17234 07661 36/// /3029 10056 21002 39985 40152 58003 333 91141=
07661,1999-11-18 00:00:00,5.7,1014.9,-0.5,66,-0.1,20000,50.004,83.34,,300,,,,,,,,,,,og-post,,,,AAXX 18004 07661 32970 03027 10057 21001 39982 40149 58005 333 91145 92458=
07661,1999-11-18 01:00:00,6.1,1014.9,-0.7,57,-1.8,,57.412,79.636,,310,,,,,,,,,,,og-post,,,,AAXX 18014 07661 36/// /3131 10061 21018 39982 40149 56007 333 91143=
07661,1999-11-18 02:00:00,5.7,1016.1,0.9,57,-2.1,,42.596,87.044,64.82,300,,,,,,,,,,,og-post,,,,AAXX 18024 07661 36/// /3023 10057 21021 39994 40161 53009 333 91035 91147=
07661,1999-11-18 03:00:00,5.2,1015.6,0.7,56,-2.8,20000,38.892,87.044,64.82,300,,,,,,,,,,,og-post,,,,AAXX 18034 07661 32970 03021 10052 21028 39989 40156 50007 333 91035 91147 92458=
07661,1999-11-18 05:00:00,5.1,1015.1,-1,56,-2.9,,61.116,94.452,83.34,310,,,,,,,,,,,og-post,,,,AAXX 18054 07661 36/// /3133 10051 21029 39984 40151 56010 333 91045 91151=
07661,1999-11-18 06:00:00,4.8,1016.1,0.4,56,-3.2,20000,50.004,96.304,,310,4.8,7.5,,,,,0,,,,og-post,,,,AAXX 18064 07661 32570 23127 10048 21032 39993 40161 53004 82200 333 10075 20048 70000 91152 92458=
07661,1999-11-18 07:00:00,4.7,1016.6,1.2,57,-3.1,,42.596,68.524,,310,,,,,,,,,,,og-post,,,,AAXX 18074 07661 36/// /3123 10047 21031 39998 40166 53012 333 91137=
07661,1999-11-18 08:00:00,5.5,1016.8,1.7,56,-2.6,,42.596,,68.524,310,,,,,,,,,,,og-post,,,,AAXX 18084 07661 36/// /3123 10055 21026 30001 40168 51017 333 91037=
07661,1999-11-18 09:00:00,6,1016.7,0.7,49,-3.9,,46.3,68.524,,300,,,,,,,,,,,og-post,,,,AAXX 18094 07661 36/// /3025 10060 21039 30000 40167 50007 333 91137=
07661,1999-11-18 10:00:00,7,1016.1,-0.3,43,-4.7,,46.3,,,310,,,,,,,,,,,og-post,,,,AAXX 18104 07661 36/// /3125 10070 21047 39995 40161 58003=
07661,1999-11-18 11:00:00,7.6,1015.2,-1.5,40,-5.1,,53.708,94.452,75.932,310,,,,,,,,,,,og-post,,,,AAXX 18114 07661 36/// /3129 10076 21051 39986 40152 58015 333 91041 91151=
07661,1999-11-18 12:00:00,8.2,1014.4,-2.1,45,-3,35000,46.3,94.452,64.82,300,,,,,,,,,,,og-post,,,,AAXX 18124 07661 32581 23025 10082 21030 39979 40144 58021 81170 333 91035 91151 92448=
07661,1999-11-18 13:00:00,8.2,1013.3,-2.7,51,-1.3,,38.892,72.228,64.82,290,,,,,,,,,,,og-post,,,,AAXX 18134 07661 36/// /2921 10082 21013 39968 40133 58027 333 91035 91139=
07661,1999-11-18 14:00:00,7.6,1012.7,-2.4,64,1.2,,29.632,68.524,,300,,,,,,,,,,,og-post,,,,AAXX 18144 07661 26/// /3016 10076 20012 39962 40127 56024 333 69905 91137=
07661,1999-11-18 15:00:00,6.4,1011.4,-3.1,76,2.5,15000,22.224,72.228,,290,,,,0.4,,,,,,60,og-post,,,,AAXX 18154 07661 21465 72912 10064 20025 39948 40114 58031 76011 87720 333 69947 91139 92447=
07661,1999-11-18 16:00:00,6.2,1009.8,-3.6,95,5.5,,25.928,,,310,,,3,,,,,,,,og-post,,,,AAXX 18164 07661 26/// /3114 10062 20055 39932 40098 58036 333 60035=
07661,1999-11-18 19:00:00,12.9,1003.7,-5.6,74,8.4,,64.82,103.712,100.008,260,,,0.2,,,,,,,,og-post,,,,AAXX 18194 07661 26/// /2635 10129 20084 39876 40037 56056 333 69925 91054 91156=
07661,1999-11-18 20:00:00,13.6,1002.2,-4.4,70,8.2,,61.116,118.528,103.712,270,,,,,,,,,,,og-post,,,,AAXX 18204 07661 26/// /2733 10136 20082 39862 40022 57044 333 69905 91056 91164=
07661,1999-11-18 21:00:00,11.6,1000.5,-4.8,89,9.8,8000,68.524,118.528,111.12,260,,,,2,,,,,,62,og-post,,,,AAXX 18214 07661 21458 82637 10116 20098 39844 40005 58048 76262 887// 333 60027 91060 91164 92446=
07661,1999-11-18 22:00:00,11.5,996.8,-6.8,81,8.4,,79.636,133.344,133.344,260,,,0.8,,,,,,,,og-post,,,,AAXX 18224 07661 26/// /2643 10115 20084 39808 49968 58068 333 69985 91072 91172=
07661,1999-11-18 23:00:00,11,995.8,-6.4,94,10.1,,87.044,129.64,129.64,260,,,2,,,,,,,,og-post,,,,AAXX 18234 07661 26/// /2647 10110 20101 39798 49958 56064 333 60025 91070 91170=
07661,1999-11-19 00:00:00,9.2,997.4,-3.2,87,7.2,8000,46.3,133.344,,300,,,,5,7,,,,,62,og-post,,,,AAXX 19004 07661 /1458 83025 10092 20072 39812 49974 55032 60071 76262 887// 333 60057 91172 92446=
07661,1999-11-19 01:00:00,7.2,997.7,0.6,80,4,,68.524,90.748,87.044,300,,,,,,,,,,,og-post,,,,AAXX 19014 07661 26/// /3037 10072 20040 39814 49977 53006 333 69905 91047 91149=
07661,1999-11-19 02:00:00,5.6,999.2,3,70,0.6,,53.708,87.044,,300,,,,,,,,,,,og-post,,,,AAXX 19024 07661 26/// /3029 10056 20006 39828 49992 52030 333 69905 91147=
07661,1999-11-19 03:00:00,4.7,999.6,1.9,57,-3.1,8000,57.412,90.748,83.34,310,,,,,,,,,,62,og-post,,,,AAXX 19034 07661 21458 83131 10047 21031 39831 49996 53019 76262 887// 333 69907 91045 91149 92446=
07661,1999-11-19 04:00:00,4.5,1000.5,2.6,57,-3.3,,61.116,96.304,90.748,310,,,,,,,,,,,og-post,,,,AAXX 19044 07661 26/// /3133 10045 21033 39840 40005 51026 333 69905 91049 91152=
07661,1999-11-19 06:00:00,4.6,1002,2.3,54,-3.9,25000,50.004,96.304,,310,4.3,13.7,,,,7,14,,,13,og-post,,,,AAXX 19064 07661 /1575 13127 10046 21039 39854 40020 51023 60072 71361 81200 333 10137 20043 69907 70140 91152 92448=
07661,1999-11-19 07:00:00,5.3,1001.8,1.3,53,-3.5,,53.708,79.636,72.228,310,,,,,,,,,,,og-post,,,,AAXX 19074 07661 36/// /3129 10053 21035 39853 40018 50013 333 91039 91143=
07661,1999-11-19 08:00:00,5.8,1001.2,-0.5,55,-2.5,,68.524,103.712,103.712,310,,,,,,,,,,,og-post,,,,AAXX 19084 07661 36/// /3137 10058 21025 39847 40012 58005 333 91056 91156=
07661,1999-11-19 09:00:00,6.7,1001.7,-0.1,46,-4.1,30000,68.524,103.712,100.008,330,,,,,,,,,,,og-post,,,,AAXX 19094 07661 32580 13337 10067 21041 39853 40017 55001 81200 333 91054 91156 92458=
07661,1999-11-19 10:00:00,7.5,1002.5,0.8,51,-2,,64.82,103.712,87.044,320,,,,,,,,,,,og-post,,,,AAXX 19104 07661 36/// /3235 10075 21020 39861 40025 53008 333 91047 91156=
07661,1999-11-19 11:00:00,8.1,1003.1,2,47,-2.5,,53.708,94.452,83.34,310,,,,,,,,,,,og-post,,,,AAXX 19114 07661 36/// /3129 10081 21025 39867 40031 52020 333 91045 91151=
07661,1999-11-19 12:00:00,7.7,1002.8,1.1,48,-2.6,35000,64.82,103.712,87.044,310,,,,,,,,,,,og-post,,,,AAXX 19124 07661 32581 13135 10077 21026 39864 40028 50011 81200 333 91047 91156 92458=
07661,1999-11-19 13:00:00,8.2,1002.6,0.1,46,-2.7,,61.116,96.304,87.044,310,,,,,,,,,,,og-post,,,,AAXX 19134 07661 36/// /3133 10082 21027 39862 40026 50001 333 91047 91152=
07661,1999-11-19 15:00:00,7.9,1004.4,1.6,50,-1.9,40000,31.484,107.416,61.116,310,,,,,,,,,,,og-post,,,,AAXX 19154 07661 32582 23117 10079 21019 39880 40044 53016 82200 333 91033 91158 92458=
07661,1999-11-19 16:00:00,7.2,1005.4,2.7,48,-3.1,,22.224,53.708,,300,,,,,,,,,,,og-post,,,,AAXX 19164 07661 36/// /3012 10072 21031 39889 40054 53027 333 91129=
07661,1999-11-19 17:00:00,6.9,1005.5,3.2,53,-2,,35.188,64.82,61.116,310,,,,,,,,,,,og-post,,,,AAXX 19174 07661 36/// /3119 10069 21020 39890 40055 51032 333 91033 91135=
07661,1999-11-19 18:00:00,6.5,1005.5,1,53,-2.4,25000,38.892,107.416,,310,4.6,8.3,,,,,,,,,og-post,,,,AAXX 19184 07661 32575 13121 10065 21024 39890 40055 51010 81200 333 10083 20046 91158 92448=
07661,1999-11-19 19:00:00,5.8,1005,-0.4,59,-1.6,,46.3,,,300,,,,,,,,,,,og-post,,,,AAXX 19194 07661 36/// /3025 10058 21016 39885 40050 58004=
07661,1999-11-19 20:00:00,5.6,1005.4,-0.1,58,-2,,38.892,,,290,,,,,,,,,,,og-post,,,,AAXX 19204 07661 36/// /2921 10056 21020 39889 40054 55001=
07661,1999-11-19 21:00:00,5.7,1006.1,0.5,58,-1.9,25000,42.596,,,300,,,,,,,,,,,og-post,,,,AAXX 19214 07661 32575 13023 10057 21019 39895 40061 53005 81200 333 92448=
07661,1999-11-19 22:00:00,5.6,1006.1,1,61,-1.3,,35.188,,,310,,,,,,,,,,,og-post,,,,AAXX 19224 07661 36/// /3119 10056 21013 39895 40061 51010=
07661,1999-11-19 23:00:00,5.3,1005.7,0.2,62,-1.4,,42.596,,,310,,,,,,,,,,,og-post,,,,AAXX 19234 07661 36/// /3123 10053 21014 39891 40057 50002=
07661,1999-11-20 00:00:00,5.3,1005.3,-0.8,58,-2.3,30000,38.892,,,310,,,,,,,,,,,og-post,,,,AAXX 20004 07661 32580 13121 10053 21023 39887 40053 58008 81200 333 92448=
07661,1999-11-20 01:00:00,4.8,1005.5,-0.6,65,-1.2,,38.892,,,300,,,,,,,,,,,og-post,,,,AAXX 20014 07661 36/// /3021 10048 21012 39889 40055 55006=
07661,1999-11-20 02:00:00,4.1,1006.1,0.4,69,-1.1,,31.484,,,300,,,,,,,,,,,og-post,,,,AAXX 20024 07661 36/// /3017 10041 21011 39895 40061 53004=
07661,1999-11-20 03:00:00,3.5,1005.9,0.5,74,-0.7,30000,25.928,,,310,,,,,,,,,,,og-post,,,,AAXX 20034 07661 32580 13114 10035 21007 39892 40059 50005 81200 333 92438=
07661,1999-11-20 04:00:00,3.3,1006,0.4,77,-0.3,,7.408,,,50,,,,,,,,,,,og-post,,,,AAXX 20044 07661 36/// /0504 10033 21003 39893 40060 51004=
07661,1999-11-20 05:00:00,2.7,1005.8,-0.4,82,-0.1,,14.816,,,80,,,,,,,,,,,og-post,,,,AAXX 20054 07661 36/// /0808 10027 21001 39891 40058 56004=
07661,1999-11-20 06:00:00,2.9,1006.1,0.2,81,0,25000,7.408,,,360,2.6,6.5,,,,,0,,,,og-post,,,,AAXX 20064 07661 32475 13604 10029 20000 39894 40061 53002 81330 333 10065 20026 70000 92428=
07661,1999-11-20 07:00:00,3.1,1005.9,-0.1,82,0.3,,7.408,,,60,,,,,,,,,,,og-post,,,,AAXX 20074 07661 36/// /0604 10031 20003 39892 40059 57001=
07661,1999-11-20 08:00:00,3.6,1006.8,1,76,-0.2,,3.704,,,80,,,,,,,,,,,og-post,,,,AAXX 20084 07661 36/// /0802 10036 21002 39901 40068 53010=
07661,1999-11-20 09:00:00,4,1007.1,1,77,0.3,25000,11.112,,,70,,,,,,,,,,,og-post,,,,AAXX 20094 07661 32475 70706 10040 20003 39904 40071 53010 8287/ 333 92438=
07661,1999-11-20 10:00:00,5.2,1007.5,1.7,69,0,,14.816,,,70,,,,,,,,,,,og-post,,,,AAXX 20104 07661 36/// /0708 10052 20000 39909 40075 51017=
07661,1999-11-20 11:00:00,5.5,1007.6,0.9,84,3,,35.188,,,70,,,,,,,,,,,og-post,,,,AAXX 20114 07661 36/// /0719 10055 20030 39910 40076 51009=
07661,1999-11-20 12:00:00,5.3,1007.5,0.5,83,2.7,25000,25.928,,,60,,,,,,,,,,,og-post,,,,AAXX 20124 07661 32475 70614 10053 20027 39909 40075 50005 8287/ 333 92438=
07661,1999-11-20 13:00:00,6.1,1006.7,-0.7,82,3.3,,29.632,,,60,,,,,,,,,,,og-post,,,,AAXX 20134 07661 36/// /0616 10061 20033 39902 40067 58007=
07661,1999-11-20 14:00:00,5.9,1006.2,-1.3,80,2.7,,29.632,,,60,,,,,,,,,,,og-post,,,,AAXX 20144 07661 36/// /0616 10059 20027 39897 40062 58013=
07661,1999-11-20 15:00:00,4.7,1006.4,-1.1,84,2.2,25000,29.632,,,60,,,,,,,,,,15,og-post,,,,AAXX 20154 07661 31475 70616 10047 20022 39898 40064 55011 71522 8597/ 333 92438=
07661,1999-11-20 16:00:00,3.9,1007.2,0.3,89,2.3,,25.928,50.004,,50,,,0.2,,,,,,,,og-post,,,,AAXX 20164 07661 26/// /0514 10039 20023 39905 40072 53003 333 69925 91127=
07661,1999-11-20 17:00:00,3.6,1007.5,1.1,94,2.7,,22.224,,,60,,,0.8,,,,,,,,og-post,,,,AAXX 20174 07661 26/// /0612 10036 20027 39908 40075 53011 333 69985=
07661,1999-11-20 18:00:00,3.5,1007.7,1.2,95,2.8,15000,14.816,50.004,,30,2.8,6.5,,2,,2,,,,95,og-post,,,,AAXX 20184 07661 /1465 80308 10035 20028 39910 40077 51012 60022 79596 8597/ 333 10065 20028 60027 91127 92437=
07661,1999-11-20 19:00:00,3.3,1008.2,1,94,2.4,,18.52,,,40,,,0.2,,,,,,,,og-post,,,,AAXX 20194 07661 26/// /0410 10033 20024 39915 40082 53010 333 69925=
07661,1999-11-20 20:00:00,3,1008.1,0.6,96,2.4,,22.224,,,50,,,1,,,,,,,,og-post,,,,AAXX 20204 07661 26/// /0512 10030 20024 39914 40081 50006 333 60015=
07661,1999-11-20 21:00:00,2.9,1007.3,-0.4,97,2.5,15000,18.52,,,40,,,,2,,,,,,91,og-post,,,,AAXX 20214 07661 21465 80410 10029 20025 39906 40073 58004 79196 8577/ 333 60027 92437=
07661,1999-11-20 22:00:00,3.2,1007,-1.2,97,2.8,,29.632,,,60,,,0.2,,,,,,,,og-post,,,,AAXX 20224 07661 26/// /0616 10032 20028 39903 40070 58012 333 69925=
07661,1999-11-20 23:00:00,3.3,1006.1,-2,97,2.9,,25.928,,,60,,,0.8,,,,,,,,og-post,,,,AAXX 20234 07661 26/// /0614 10033 20029 39894 40061 58020 333 69985=
07661,1999-11-21 00:00:00,3.2,1005.6,-1.7,97,2.8,15000,31.484,,,60,,,,2,4,,,,,60,og-post,,,,AAXX 21004 07661 /1465 80617 10032 20028 39889 40056 58017 60041 76096 8577/ 333 60027 92437=
07661,1999-11-21 01:00:00,3.1,1005,-2,98,2.8,,29.632,,,60,,,1,,,,,,,,og-post,,,,AAXX 21014 07661 26/// /0616 10031 20028 39883 40050 56020 333 60015=
07661,1999-11-21 02:00:00,3.8,1005.3,-0.7,99,3.7,,14.816,,,60,,,5,,,,,,,,og-post,,,,AAXX 21024 07661 26/// /0608 10038 20037 39887 40053 55007 333 60055=
07661,1999-11-21 03:00:00,3,1005,-0.6,98,2.7,15000,14.816,,,40,,,,11,,,,,,60,og-post,,,,AAXX 21034 07661 21465 80408 10030 20027 39883 40050 56006 76096 8577/ 333 60117 92437=
07661,1999-11-21 04:00:00,3,1004.6,-0.4,98,2.7,,11.112,,,50,,,4,,,,,,,,og-post,,,,AAXX 21044 07661 26/// /0506 10030 20027 39879 40046 58004 333 60045=
07661,1999-11-21 05:00:00,3,1003.9,-1.5,99,2.9,,18.52,,,310,,,4,,,,,,,,og-post,,,,AAXX 21054 07661 26/// /3110 10030 20029 39872 40039 58015 333 60045=
07661,1999-11-21 06:00:00,1.7,1004.8,-0.3,99,1.6,10000,18.52,,,280,1.7,3.8,,11,,26,28.2,,,60,og-post,,,,AAXX 21064 07661 /1460 82810 10017 20016 39880 40048 55003 60262 76066 8577/ 333 10038 20017 60117 70282 92437=
07661,1999-11-21 07:00:00,2,1005,0.4,100,2,,18.52,,,310,,,1,,,,,,,,og-post,,,,AAXX 21074 07661 26/// /3110 10020 20020 39883 40050 53004 333 60015=
07661,1999-11-21 08:00:00,2.2,1005.2,1.3,100,2.2,,22.224,,,300,,,0.6,,,,,,,,og-post,,,,AAXX 21084 07661 26/// /3012 10022 20022 39885 40052 51013 333 69965=
07661,1999-11-21 09:00:00,2.8,1005.7,1,100,2.8,10000,14.816,,,300,,,,3,,,,,,60,og-post,,,,AAXX 21094 07661 21460 83008 10028 20028 39890 40057 53010 76066 8677/ 333 60037 92437=
07661,1999-11-21 10:00:00,3.1,1006.4,1.4,100,3.1,,7.408,,,300,,,0.2,,,,,,,,og-post,,,,AAXX 21104 07661 26/// /3004 10031 20031 39897 40064 53014 333 69925=
07661,1999-11-21 11:00:00,3.5,1006.2,1,99,3.4,,7.408,,,60,,,1,,,,,,,,og-post,,,,AAXX 21114 07661 26/// /0604 10035 20034 39895 40062 50010 333 60015=
07661,1999-11-21 12:00:00,4.9,1006.1,0.5,97,4.5,,3.704,,,210,,,,2,5,,,,,,og-post,,,,AAXX 21124 07661 /6/// /2102 10049 20045 39895 40061 51005 60051 333 60027=
07661,1999-11-21 13:00:00,5.3,1006.3,-0,92,4.1,,7.408,,,300,,,,,,,,,,,og-post,,,,AAXX 21134 07661 26/// /3004 10053 20041 39897 40063 55000 333 69905=
07661,1999-11-21 14:00:00,5.1,1006.5,0.4,90,3.6,,14.816,,,300,,,,,,,,,,,og-post,,,,AAXX 21144 07661 26/// /3008 10051 20036 39899 40065 53004 333 69905=
07661,1999-11-21 15:00:00,4.8,1006.7,0.6,91,3.5,15000,25.928,,,300,,,,,,,,,,21,og-post,,,,AAXX 21154 07661 21465 63014 10048 20035 39901 40067 52006 72162 86360 333 69907 92437=
07661,1999-11-21 16:00:00,4.3,1006.9,0.6,90,2.8,,22.224,,,300,,,,,,,,,,,og-post,,,,AAXX 21164 07661 36/// /3012 10043 20028 39903 40069 52006=
07661,1999-11-21 17:00:00,4,1007.3,0.7,90,2.5,,25.928,,,300,,,,,,,,,,,og-post,,,,AAXX 21174 07661 36/// /3014 10040 20025 39906 40073 53007=
07661,1999-11-21 18:00:00,2.7,1007.7,0.9,93,1.7,,18.52,,,290,1.5,5.5,,,,5,,,,,og-post,,,,AAXX 21184 07661 16/// /2910 10027 20017 39910 40077 53009 60052 333 10055 20015=
07661,1999-11-21 19:00:00,2.5,1008.1,1,91,1.2,,11.112,,,300,,,,,,,,,,,og-post,,,,AAXX 21194 07661 36/// /3006 10025 20012 39913 40081 52010=
07661,1999-11-21 20:00:00,2.5,1008.8,1.4,89,0.9,,7.408,,,290,,,,,,,,,,,og-post,,,,AAXX 21204 07661 36/// /2904 10025 20009 39920 40088 53014=
07661,1999-11-21 21:00:00,2.3,1008.9,1.1,92,1.1,18000,18.52,,,300,,,,,,,,,,,og-post,,,,AAXX 21214 07661 32568 13010 10023 20011 39921 40089 51011 81200 333 92437=
07661,1999-11-21 22:00:00,1.5,1009,0.9,93,0.5,,18.52,,,300,,,,,,,,,,,og-post,,,,AAXX 21224 07661 36/// /3010 10015 20005 39922 40090 51009=
07661,1999-11-21 23:00:00,1.3,1008.8,-0.1,89,-0.3,,25.928,,,290,,,,,,,,,,,og-post,,,,AAXX 21234 07661 36/// /2914 10013 21003 39919 40088 58001=
07661,1999-11-22 00:00:00,0.8,1008.5,-0.5,90,-0.6,18000,22.224,,,310,,,,,,,,,,,og-post,,,,AAXX 22004 07661 32568 13112 10008 21006 39916 40085 58005 81200 333 92427=
07661,1999-11-22 01:00:00,1,1008.5,-0.6,93,0,,18.52,,,310,,,,,,,,,,,og-post,,,,AAXX 22014 07661 36/// /3110 10010 20000 39916 40085 56006=
07661,1999-11-22 02:00:00,0.6,1008.8,-0,92,-0.5,,11.112,,,310,,,,,,,,,,,og-post,,,,AAXX 22024 07661 36/// /3106 10006 21005 39919 40088 55000=
07661,1999-11-22 03:00:00,0.7,1008.2,-0.3,97,0.3,,11.112,,,310,,,,,,,,,,,og-post,,,,AAXX 22034 07661 36/// /3106 10007 20003 39913 40082 58003=
07661,1999-11-22 04:00:00,0.6,1008.3,-0.2,92,-0.5,,11.112,,,300,,,,,,,,,,,og-post,,,,AAXX 22044 07661 36/// /3006 10006 21005 39914 40083 58002=
07661,1999-11-22 05:00:00,0.5,1008.3,-0.5,89,-1.1,,11.112,,,300,,,,,,,,,,,og-post,,,,AAXX 22054 07661 36/// /3006 10005 21011 39914 40083 56005=
07661,1999-11-22 06:00:00,0.2,1008.4,0.2,94,-0.6,18000,3.704,,,120,0,2.7,,,,,5.2,,,,og-post,,,,AAXX 22064 07661 32568 21202 10002 21006 39915 40084 52002 81260 333 10027 20000 70052 92427=
07661,1999-11-22 07:00:00,0.3,1008.7,0.4,95,-0.4,,3.704,,,300,,,,,,,,,,,og-post,,,,AAXX 22074 07661 36/// /3002 10003 21004 39918 40087 53004=
07661,1999-11-22 08:00:00,0.9,1008.9,0.6,91,-0.4,,11.112,,,320,,,,,,,,,,,og-post,,,,AAXX 22084 07661 36/// /3206 10009 21004 39920 40089 53006=
07661,1999-11-22 09:00:00,4.1,1009.2,1,76,0.3,18000,3.704,,,220,,,,,,,,,,,og-post,,,,AAXX 22094 07661 32568 22202 10041 20003 39925 40092 53010 81201 333 92427=
07661,1999-11-22 10:00:00,4.8,1009.7,1.2,69,-0.4,,14.816,,,290,,,,,,,,,,,og-post,,,,AAXX 22104 07661 36/// /2908 10048 21004 39930 40097 53012=
07661,1999-11-22 11:00:00,4.7,1009.4,0.7,70,-0.3,,14.816,,,300,,,,,,,,,,,og-post,,,,AAXX 22114 07661 36/// /3008 10047 21003 39927 40094 50007=
07661,1999-11-22 12:00:00,5.7,1009,-0.1,67,0.1,15000,18.52,,,290,,,,,,,,,,,og-post,,,,AAXX 22124 07661 32565 12910 10057 20001 39924 40090 58001 81201 333 92427=
07661,1999-11-22 13:00:00,6.3,1009.3,-0.3,62,-0.4,,11.112,,,290,,,,,,,,,,,og-post,,,,AAXX 22134 07661 36/// /2906 10063 21004 39927 40093 55003=
07661,1999-11-22 14:00:00,5.1,1009.5,0.2,64,-1.1,,18.52,,,290,,,,,,,,,,,og-post,,,,AAXX 22144 07661 36/// /2910 10051 21011 39929 40095 53002=
07661,1999-11-22 15:00:00,4.1,1010.2,1.1,65,-1.9,15000,29.632,,,290,,,,,,,,,,,og-post,,,,AAXX 22154 07661 32565 12916 10041 21019 39935 40102 53011 81201 333 92437=
07661,1999-11-22 16:00:00,2.9,1011.1,1.6,67,-2.6,,25.928,,,300,,,,,,,,,,,og-post,,,,AAXX 22164 07661 36/// /3014 10029 21026 39943 40111 53016=
07661,1999-11-22 17:00:00,1.6,1011.8,2,70,-3.3,,25.928,,,290,,,,,,,,,,,og-post,,,,AAXX 22174 07661 36/// /2914 10016 21033 39949 40118 52020=
07661,1999-11-22 18:00:00,1.5,1012.5,2.1,71,-3.2,,22.224,,,290,0,6.4,,,,,,,,,og-post,,,,AAXX 22184 07661 36/// /2912 10015 21032 39956 40125 51021 333 10064 20000=
07661,1999-11-22 19:00:00,1.3,1012.9,1.7,73,-3,,18.52,,,300,,,,,,,,,,,og-post,,,,AAXX 22194 07661 36/// /3010 10013 21030 39960 40129 51017=
07661,1999-11-22 20:00:00,1.5,1013.9,2.1,69,-3.6,,14.816,,,290,,,,,,,,,,,og-post,,,,AAXX 22204 07661 36/// /2908 10015 21036 39970 40139 53021=
07661,1999-11-22 21:00:00,1.5,1014.8,2.2,69,-3.6,15000,7.408,,,300,,,,,,,,,,,og-post,,,,AAXX 22214 07661 32965 03004 10015 21036 39978 40148 53022 333 92437=
07661,1999-11-22 22:00:00,1.7,1015.6,2.6,68,-3.6,,11.112,,,300,,,,,,,,,,,og-post,,,,AAXX 22224 07661 36/// /3006 10017 21036 39986 40156 51026=
07661,1999-11-22 23:00:00,2.2,1016.1,2.2,66,-3.5,,7.408,,,20,,,,,,,,,,,og-post,,,,AAXX 22234 07661 36/// /0204 10022 21035 39992 40161 51022=
07661,1999-11-23 00:00:00,2.8,1016.7,2,54,-5.6,15000,7.408,,,240,,,,,,,,,,,og-post,,,,AAXX 23004 07661 32965 02404 10028 21056 39998 40167 51020 333 92427=
07661,1999-11-23 01:00:00,2.1,1017,1.4,70,-2.8,,11.112,,,320,,,,,,,,,,,og-post,,,,AAXX 23014 07661 36/// /3206 10021 21028 30000 40170 51014=
07661,1999-11-23 02:00:00,2,1017.6,1.4,74,-2.1,,7.408,,,330,,,,,,,,,,,og-post,,,,AAXX 23024 07661 36/// /3304 10020 21021 30006 40176 52014=
07661,1999-11-23 03:00:00,2.1,1017.4,0.6,72,-2.4,18000,11.112,,,320,,,,,,,,,,,og-post,,,,AAXX 23034 07661 32968 03206 10021 21024 30004 40174 50006 333 92427=
07661,1999-11-23 04:00:00,2.4,1017.3,0.4,66,-3.3,,18.52,,,300,,,,,,,,,,,og-post,,,,AAXX 23044 07661 36/// /3010 10024 21033 30004 40173 51004=
07661,1999-11-23 05:00:00,2.2,1017.8,0.2,62,-4.3,,7.408,,,290,,,,,,,,,,,og-post,,,,AAXX 23054 07661 36/// /2904 10022 21043 30008 40178 53002=
07661,1999-11-23 06:00:00,1.2,1018,0.6,76,-2.5,20000,3.704,,,10,1,2.9,,,,,0,,,,og-post,,,,AAXX 23064 07661 32970 00102 10012 21025 30010 40180 53006 333 10029 20010 70000 92428=
07661,1999-11-23 07:00:00,1.8,1017.7,0.3,60,-5.1,,18.52,,,300,,,,,,,,,,,og-post,,,,AAXX 23074 07661 36/// /3010 10018 21051 30007 40177 50003=
07661,1999-11-23 08:00:00,2.3,1018.1,0.3,61,-4.4,,18.52,,,310,,,,,,,,,,,og-post,,,,AAXX 23084 07661 36/// /3110 10023 21044 30011 40181 53003=
07661,1999-11-23 09:00:00,4.4,1018.2,0.4,56,-3.6,20000,14.816,,,300,,,,,,,,,,,og-post,,,,AAXX 23094 07661 32970 03008 10044 21036 30014 40182 53004 333 92438=
07661,1999-11-23 10:00:00,6.3,1018,0.6,54,-2.3,,18.52,,,300,,,,,,,,,,,og-post,,,,AAXX 23104 07661 36/// /3010 10063 21023 30013 40180 50006=
07661,1999-11-23 11:00:00,7.5,1017.4,-0.3,53,-1.4,,25.928,,,290,,,,,,,,,,,og-post,,,,AAXX 23114 07661 36/// /2914 10075 21014 30008 40174 58003=
07661,1999-11-23 12:00:00,8.4,1016.6,-1.4,54,-0.4,20000,29.632,,,280,,,,,,,,,,,og-post,,,,AAXX 23124 07661 32970 12816 10084 21004 30000 40166 58014 80001 333 92438=
07661,1999-11-23 13:00:00,10.9,1016.1,-1.6,47,0,,22.224,,,300,,,,,,,,,,,og-post,,,,AAXX 23134 07661 36/// /3012 10109 20000 39997 40161 56016=
07661,1999-11-23 14:00:00,11.1,1015.5,-1.7,46,-0.1,,38.892,57.412,,300,,,,,,,,,,,og-post,,,,AAXX 23144 07661 36/// /3021 10111 21001 39991 40155 56017 333 91131=
07661,1999-11-23 15:00:00,11.2,1015.7,-0.7,47,0.3,20000,38.892,,64.82,290,,,,,,,,,,,og-post,,,,AAXX 23154 07661 32970 32921 10112 20003 39993 40157 55007 80001 333 91035 92448=
07661,1999-11-23 16:00:00,10.6,1016.3,0.2,51,0.9,,35.188,,,270,,,,,,,,,,,og-post,,,,AAXX 23164 07661 36/// /2719 10106 20009 39999 40163 53002=
07661,1999-11-23 17:00:00,10.1,1016.4,0.8,52,0.7,,35.188,,,280,,,,,,,,,,,og-post,,,,AAXX 23174 07661 36/// /2819 10101 20007 39999 40164 51008=
07661,1999-11-23 18:00:00,9.6,1016.6,0.8,54,0.8,12000,35.188,,,310,1.2,11.6,,,,,,,,,og-post,,,,AAXX 23184 07661 32562 43119 10096 20008 30001 40166 51008 82202 333 10116 20012 92447=
07661,1999-11-23 19:00:00,9.2,1017.3,0.9,53,0.1,,29.632,,,300,,,,,,,,,,,og-post,,,,AAXX 23194 07661 36/// /3016 10092 20001 30008 40173 53009=
07661,1999-11-23 20:00:00,7.9,1017.7,1.2,64,1.5,,35.188,,,300,,,,,,,,,,,og-post,,,,AAXX 23204 07661 36/// /3019 10079 20015 30011 40177 53012=
07661,1999-11-23 21:00:00,7.6,1017.7,1,63,1,25000,35.188,,,300,,,,,,,,,,,og-post,,,,AAXX 23214 07661 32975 13019 10076 20010 30011 40177 51010 81040 333 92448=
07661,1999-11-23 22:00:00,7.6,1018.4,1,61,0.6,,25.928,,,300,,,,,,,,,,,og-post,,,,AAXX 23224 07661 36/// /3014 10076 20006 30018 40184 53010=
07661,1999-11-23 23:00:00,6.5,1018.6,0.8,70,1.4,,29.632,,,290,,,,,,,,,,,og-post,,,,AAXX 23234 07661 36/// /2916 10065 20014 30019 40186 53008=
07661,1999-11-24 00:00:00,6.3,1018.2,0.4,73,1.8,12000,29.632,,,300,,,,,,,,,,,og-post,,,,AAXX 24004 07661 32962 13016 10063 20018 30015 40182 50004 81040 333 92447=
07661,1999-11-24 01:00:00,5.8,1018.6,0.1,75,1.7,,18.52,,,290,,,,,,,,,,,og-post,,,,AAXX 24014 07661 36/// /2910 10058 20017 30019 40186 53001=
07661,1999-11-24 02:00:00,5.7,1019,0.3,76,1.8,,14.816,,,300,,,,,,,,,,,og-post,,,,AAXX 24024 07661 36/// /3008 10057 20018 30022 40190 53003=
07661,1999-11-24 03:00:00,5.3,1019,0.7,78,1.8,15000,11.112,,,300,,,,,,,,,,,og-post,,,,AAXX 24034 07661 32965 03006 10053 20018 30022 40190 51007 333 92437=
07661,1999-11-24 04:00:00,5.1,1019.3,0.6,83,2.5,,7.408,,,310,,,,,,,,,,,og-post,,,,AAXX 24044 07661 36/// /3104 10051 20025 30025 40193 52006=
07661,1999-11-24 05:00:00,5.6,1019.5,0.5,80,2.4,,7.408,,,70,,,,,,,,,,,og-post,,,,AAXX 24054 07661 36/// /0704 10056 20024 30027 40195 53005=
07661,1999-11-24 06:00:00,5.8,1020.1,1.1,78,2.3,20000,3.704,,,10,4.9,9.6,,,,,0,,,,og-post,,,,AAXX 24064 07661 32570 20102 10058 20023 30033 40201 53011 82200 333 10096 20049 70000 92438=
07661,1999-11-24 07:00:00,6.8,1020.7,1.5,61,-0.2,,7.408,,,10,,,,,,,,,,,og-post,,,,AAXX 24074 07661 36/// /0104 10068 21002 30040 40207 53015=
07661,1999-11-24 08:00:00,7.7,1021.4,2,71,2.8,,7.408,,,10,,,,,,,,,,,og-post,,,,AAXX 24084 07661 36/// /0104 10077 20028 30047 40214 53020=
07661,1999-11-24 09:00:00,8.8,1022,2.1,67,3,20000,7.408,,,40,,,,,,,,,,,og-post,,,,AAXX 24094 07661 32570 20404 10088 20030 30054 40220 52021 82200 333 92438=
07661,1999-11-24 10:00:00,12.5,1022.5,2.1,57,4.2,,7.408,,,40,,,,,,,,,,,og-post,,,,AAXX 24104 07661 36/// /0404 10125 20042 30061 40225 52021=
07661,1999-11-24 11:00:00,11.8,1022.3,1.2,63,5,,14.816,,,60,,,,,,,,,,,og-post,,,,AAXX 24114 07661 36/// /0608 10118 20050 30059 40223 50012=
07661,1999-11-24 12:00:00,12.4,1022.2,0.4,68,6.7,20000,7.408,,,60,,,,,,,,,,,og-post,,,,AAXX 24124 07661 32570 10604 10124 20067 30058 40222 50004 81200 333 92428=
07661,1999-11-24 13:00:00,13.3,1021.9,-0.5,62,6.2,,7.408,,,120,,,,,,,,,,,og-post,,,,AAXX 24134 07661 36/// /1204 10133 20062 30056 40219 57005=
07661,1999-11-24 14:00:00,13.4,1021.9,-0.3,66,7.2,,14.816,,,220,,,,,,,,,,,og-post,,,,AAXX 24144 07661 36/// /2208 10134 20072 30056 40219 56003=
07661,1999-11-24 15:00:00,12.4,1022.4,0.2,61,5.1,,14.816,,,280,,,,,,,,,,,og-post,,,,AAXX 24154 07661 36/// /2808 10124 20051 30060 40224 53002=
07661,1999-11-24 16:00:00,11.6,1022.9,0.8,63,4.8,,14.816,,,280,,,,,,,,,,,og-post,,,,AAXX 24164 07661 36/// /2808 10116 20048 30064 40229 53008=
07661,1999-11-24 17:00:00,10.8,1023.2,1.1,66,4.7,,14.816,,,290,,,,,,,,,,,og-post,,,,AAXX 24174 07661 36/// /2908 10108 20047 30067 40232 51011=
07661,1999-11-24 18:00:00,10.2,1023.5,0.9,73,5.6,18000,14.816,,,300,5.8,13.6,,,,,,,,,og-post,,,,AAXX 24184 07661 32868 13008 10102 20056 30069 40235 51009 81040 333 10136 20058 92427=
07661,1999-11-24 19:00:00,9.7,1023.9,0.9,81,6.6,,7.408,,,50,,,,,,,,,,,og-post,,,,AAXX 24194 07661 36/// /0504 10097 20066 30073 40239 53009=
07661,1999-11-24 20:00:00,9.7,1024.2,0.9,69,4.3,,14.816,,,70,,,,,,,,,,,og-post,,,,AAXX 24204 07661 36/// /0708 10097 20043 30076 40242 53009=
07661,1999-11-24 21:00:00,9,1024.8,1.3,79,5.6,18000,11.112,,,60,,,,,,,,,,,og-post,,,,AAXX 24214 07661 32968 00606 10090 20056 30082 40248 53013 333 92427=
07661,1999-11-24 22:00:00,7.8,1025.2,1.2,77,4,,11.112,,,90,,,,,,,,,,,og-post,,,,AAXX 24224 07661 36/// /0906 10078 20040 30085 40252 52012=
07661,1999-11-24 23:00:00,7.1,1025.6,1.2,80,3.9,,14.816,,,80,,,,,,,,,,,og-post,,,,AAXX 24234 07661 36/// /0808 10071 2003930088 40256 51012=
07661,1999-11-25 00:00:00,6.9,1025.9,0.9,83,4.2,15000,11.112,,,90,,,,,,,,,,,og-post,,,,AAXX 25004 07661 32965 00906 10069 20042 30091 40259 52009 333 92427=
07661,1999-11-25 01:00:00,6.6,1026.1,0.8,82,3.8,,11.112,,,90,,,,,,,,,,,og-post,,,,AAXX 25014 07661 36/// /0906 10066 20038 30093 40261 51008=
07661,1999-11-25 02:00:00,6.8,1026.4,0.8,86,4.6,,11.112,,,80,,,,,,,,,,,og-post,,,,AAXX 25024 07661 36/// /0806 10068 20046 30096 40264 52008=
07661,1999-11-25 03:00:00,6.7,1026.5,0.6,85,4.4,15000,11.112,,,80,,,,,,,,,,,og-post,,,,AAXX 25034 07661 32965 00806 10067 20044 30097 40265 51006 333 92427=
07661,1999-11-25 04:00:00,6.4,1026.8,0.7,87,4.4,,14.816,,,80,,,,,,,,,,,og-post,,,,AAXX 25044 07661 36/// /0808 10064 20044 30100 40268 52007=
07661,1999-11-25 05:00:00,6.9,1027.1,0.7,90,5.4,,11.112,,,60,,,,,,,,,,,og-post,,,,AAXX 25054 07661 36/// /0606 10069 20054 30103 40271 53007=
07661,1999-11-25 06:00:00,6.5,1027.5,1,89,4.8,,11.112,,,70,6.4,10.5,,,,,,,,,og-post,,,,AAXX 25064 07661 36/// /0706 10065 20048 30107 40275 53010 333 10105 20064 70000=
07661,1999-11-25 08:00:00,7.2,1028.8,1.7,87,5.2,,11.112,,,80,,,,,,,,,,,og-post,,,,AAXX 25084 07661 36/// /0806 10072 20052 30120 40288 53017=
07661,1999-11-25 10:00:00,10.9,1029.8,1.8,73,6.3,,11.112,,,80,,,,,,,,,,,og-post,,,,AAXX 25104 07661 36/// /0806 10109 20063 30132 40298 51018=
07661,1999-11-25 11:00:00,11.8,1029.8,1.2,71,6.7,,11.112,,,70,,,,,,,,,,,og-post,,,,AAXX 25114 07661 36/// /0706 10118 20067 30132 40298 51012=
07661,1999-11-25 12:00:00,12.5,1029.6,0.4,72,7.6,25000,7.408,,,100,,,,,,,,,,,og-post,,,,AAXX 25124 07661 32475 21004 10125 20076 30131 40296 50004 82100 333 92428=
07661,1999-11-25 13:00:00,13.1,1029.4,-0.3,71,8,,7.408,,,150,,,,,,,,,,,og-post,,,,AAXX 25134 07661 36/// /1504 10131 20080 30129 40294 58003=
07661,1999-11-25 14:00:00,13.1,1029.4,-0.3,67,7.1,,7.408,,,150,,,,,,,,,,,og-post,,,,AAXX 25144 07661 36/// /1504 10131 20071 30129 40294 56003=
07661,1999-11-25 15:00:00,12.9,1029.7,0.1,73,8.2,25000,7.408,,,150,,,,,,,,,,,og-post,,,,AAXX 25154 07661 32475 21504 10129 20082 30132 40297 53001 82100 333 92428=
07661,1999-11-25 16:00:00,12.3,1030.2,0.8,76,8.2,,3.704,,,150,,,,,,,,,,,og-post,,,,AAXX 25164 07661 36/// /1502 10123 20082 30137 40302 53008=
07661,1999-11-25 17:00:00,11.7,1030.7,1.2,79,8.2,,,,,,,,,,,,,,,,og-post,,,,AAXX 25174 07661 36/// /0000 10117 20082 30141 40307 53012=
07661,1999-11-25 18:00:00,11.1,1031.1,1.3,80,7.8,25000,3.704,,,350,6,13.2,,,,,,,,,og-post,,,,AAXX 25184 07661 32975 03502 10111 20078 30145 40311 51013 333 10132 20060 92428=
07661,1999-11-25 19:00:00,10.4,1031.3,0.9,84,7.8,,3.704,,,20,,,,,,,,,,,og-post,,,,AAXX 25194 07661 36/// /0202 10104 20078 30146 40313 51009=
07661,1999-11-25 20:00:00,9.7,1031.6,0.8,80,6.4,,11.112,,,70,,,,,,,,,,,og-post,,,,AAXX 25204 07661 36/// /0706 10097 20064 30149 40316 51008=
07661,1999-11-25 21:00:00,9.6,1031.9,0.7,82,6.7,20000,7.408,,,30,,,,,,,,,,,og-post,,,,AAXX 25214 07661 32970 00304 10096 20067 30152 40319 53007 333 92428=
07661,1999-11-25 22:00:00,8.3,1031.9,0.5,84,5.8,,14.816,,,70,,,,,,,,,,,og-post,,,,AAXX 25224 07661 36/// /0708 10083 20058 30151 40319 50005=
07661,1999-11-25 23:00:00,7.4,1032,0.2,90,5.9,,14.816,,,80,,,,,,,,,,,og-post,,,,AAXX 25234 07661 36/// /0808 10074 20059 30151 40320 51002=
07661,1999-11-26 00:00:00,7.3,1031.9,-0.2,89,5.6,10000,18.52,,,70,,,,,,,,,,,og-post,,,,AAXX 26004 07661 32960 00710 10073 20056 30150 40319 57002 333 92427=
07661,1999-11-26 01:00:00,6.6,1032.1,0.1,93,5.6,,11.112,,,80,,,,,,,,,,,og-post,,,,AAXX 26014 07661 36/// /0806 10066 20056 30152 40321 53001=
07661,1999-11-26 02:00:00,6.7,1032.3,0.3,90,5.2,,14.816,,,80,,,,,,,,,,,og-post,,,,AAXX 26024 07661 36/// /0808 10067 20052 30154 40323 53003=
07661,1999-11-26 03:00:00,6.3,1031.9,0,91,4.9,10000,14.816,,,70,,,,,,,,,,,og-post,,,,AAXX 26034 07661 32960 00708 10063 20049 30150 40319 50000 333 92427=
07661,1999-11-26 04:00:00,6.3,1031.6,-0.5,93,5.3,,18.52,,,70,,,,,,,,,,,og-post,,,,AAXX 26044 07661 36/// /0710 10063 20053 30147 40316 58005=
07661,1999-11-26 05:00:00,6.2,1031.4,-0.9,92,5,,18.52,,,70,,,,,,,,,,,og-post,,,,AAXX 26054 07661 36/// /0710 10062 20050 30145 40314 56009=
07661,1999-11-26 06:00:00,6.2,1031.5,-0.4,93,5.2,18000,18.52,,,70,6,11.2,,,,,0,,,,og-post,,,,AAXX 26064 07661 32/68 10710 10062 20052 30146 40315 55004 81100 333 10112 20060 70000 92427=
07661,1999-11-26 07:00:00,5.9,1031.8,0.2,91,4.5,,25.928,,,70,,,,,,,,,,,og-post,,,,AAXX 26074 07661 36/// /0714 10059 20045 30149 40318 53002=
07661,1999-11-26 08:00:00,7,1032.2,0.8,84,4.5,,25.928,,,70,,,,,,,,,,,og-post,,,,AAXX 26084 07661 36/// /0714 10070 20045 30153 40322 53008=
07661,1999-11-26 09:00:00,9.4,1032,0.7,73,4.8,20000,25.928,,,70,,,,,,,,,,,og-post,,,,AAXX 26094 07661 32570 20714 10094 20048 30153 40320 51007 81131 333 92438=
07661,1999-11-26 10:00:00,10.7,1032.4,0.8,67,4.8,,25.928,,,60,,,,,,,,,,,og-post,,,,AAXX 26104 07661 36/// /0614 10107 20048 30157 40324 52008=
07661,1999-11-26 11:00:00,11,1032.1,0.2,67,5.1,,25.928,,,60,,,,,,,,,,,og-post,,,,AAXX 26114 07661 36/// /0614 10110 20051 30155 40321 50002=
07661,1999-11-26 12:00:00,12.1,1031.7,-0.2,68,6.4,,25.928,,,70,,,,,,,,,,,og-post,,,,AAXX 26124 07661 36/// /0714 10121 20064 30151 40317 58002=
07661,1999-11-26 13:00:00,12.4,1030.9,-1.3,69,6.9,,25.928,,,80,,,,,,,,,,,og-post,,,,AAXX 26134 07661 36/// /0814 10124 20069 30144 40309 58013=
07661,1999-11-26 14:00:00,12.5,1030.6,-1.4,70,7.2,,25.928,,,70,,,,,,,,,,,og-post,,,,AAXX 26144 07661 36/// /0714 10125 20072 30141 40306 56014=
07661,1999-11-26 15:00:00,12.3,1030.9,-0.7,69,6.8,20000,25.928,,,90,,,,,,,,,,,og-post,,,,AAXX 26154 07661 32570 40914 10123 20068 30144 40309 55007 83201 333 92438=
07661,1999-11-26 16:00:00,12,1030.9,-0.1,68,6.3,,29.632,,,70,,,,,,,,,,,og-post,,,,AAXX 26164 07661 36/// /0716 10120 20063 30143 40309 56001=
07661,1999-11-26 17:00:00,10.5,1031.3,0.5,77,6.6,,18.52,,,60,,,,,,,,,,,og-post,,,,AAXX 26174 07661 36/// /0610 10105 20066 30146 40313 52005=
07661,1999-11-26 18:00:00,10,1031.4,0.3,80,6.7,20000,22.224,,,60,5.9,12.6,,,,,,,,,og-post,,,,AAXX 26184 07661 32570 40612 10100 20067 30147 40314 53003 83201 333 10126 20059 92438=
07661,1999-11-26 19:00:00,9.6,1031.8,0.8,85,7.2,,18.52,,,70,,,,,,,,,,,og-post,,,,AAXX 26194 07661 36/// /0710 10096 20072 30151 40318 53008=
07661,1999-11-26 20:00:00,8.6,1032,0.6,87,6.6,,18.52,,,70,,,,,,,,,,,og-post,,,,AAXX 26204 07661 36/// /0710 10086 20066 30152 40320 52006=
07661,1999-11-26 21:00:00,8.2,1032.2,0.7,89,6.5,15000,18.52,,,70,,,,,,,,,,,og-post,,,,AAXX 26214 07661 32565 30710 10082 20065 30154 40322 51007 83200 333 92437=
07661,1999-11-26 22:00:00,8.2,1032,0.1,89,6.5,,22.224,,,70,,,,,,,,,,,og-post,,,,AAXX 26224 07661 36/// /0712 10082 20065 30152 40320 50001=
07661,1999-11-26 23:00:00,7.8,1032,0,89,6.1,,22.224,,,70,,,,,,,,,,,og-post,,,,AAXX 26234 07661 36/// /0712 10078 20061 30152 40320 50000=
07661,1999-11-27 00:00:00,7.6,1031.7,-0.5,90,6.1,15000,22.224,,,80,,,,,,,,,,,og-post,,,,AAXX 27004 07661 32565 30812 10076 20061 30149 40317 58005 83200 333 92437=
07661,1999-11-27 01:00:00,7.7,1031.4,-0.6,91,6.3,,22.224,,,70,,,,,,,,,,,og-post,,,,AAXX 27014 07661 36/// /0712 10077 20063 30146 40314 58006=
07661,1999-11-27 02:00:00,7.7,1031.4,-0.6,89,6,,22.224,,,70,,,,,,,,,,,og-post,,,,AAXX 27024 07661 36/// /0712 10077 20060 30146 40314 56006=
07661,1999-11-27 03:00:00,7.2,1031.1,-0.7,90,5.7,15000,22.224,,,70,,,,,,,,,,,og-post,,,,AAXX 27034 07661 32565 30712 10072 20057 30142 40311 58007 83200 333 92437=
07661,1999-11-27 04:00:00,7,1030.8,-0.7,90,5.5,,18.52,,,70,,,,,,,,,,,og-post,,,,AAXX 27044 07661 36/// /0710 10070 20055 30139 40308 58007=
07661,1999-11-27 05:00:00,6.4,1030.7,-0.8,88,4.6,,25.928,,,70,,,,,,,,,,,og-post,,,,AAXX 27054 07661 36/// /0714 10064 20046 30138 40307 56008=
07661,1999-11-27 06:00:00,6.6,1031,-0.1,86,4.4,20000,25.928,,,70,6.4,10,,,,,0,,,,og-post,,,,AAXX 27064 07661 32570 20714 10066 20044 30141 40310 55001 82200 333 10100 20064 70000 92438=
07661,1999-11-27 07:00:00,6.5,1031.5,0.7,88,4.7,,22.224,,,70,,,,,,,,,,,og-post,,,,AAXX 27074 07661 36/// /0712 10065 20047 30146 40315 53007=
07661,1999-11-27 08:00:00,7,1032,1.3,84,4.5,,18.52,,,70,,,,,,,,,,,og-post,,,,AAXX 27084 07661 36/// /0710 10070 20045 30151 40320 53013=
07661,1999-11-27 09:00:00,8.2,1032.3,1.4,78,4.6,16000,18.52,,,80,,,,,,,,,,,og-post,,,,AAXX 27094 07661 32566 30810 10082 20046 30155 40323 51014 81140 333 92437=
07661,1999-11-27 10:00:00,10.5,1032.6,1.3,69,5.1,,18.52,,,70,,,,,,,,,,,og-post,,,,AAXX 27104 07661 36/// /0710 10105 20051 30159 40326 51013=
07661,1999-11-27 11:00:00,11.5,1032.1,0.4,68,5.8,,18.52,,,70,,,,,,,,,,,og-post,,,,AAXX 27114 07661 36/// /0710 10115 20058 30155 40321 50004=
07661,1999-11-27 12:00:00,11.8,1031.8,-0.3,67,5.9,18000,14.816,,,70,,,,,,,,,,,og-post,,,,AAXX 27124 07661 32568 30708 10118 20059 30152 40318 58003 81140 333 92427=
07661,1999-11-27 13:00:00,12.5,1031.1,-1.3,71,7.4,,14.816,,,110,,,,,,,,,,,og-post,,,,AAXX 27134 07661 36/// /1108 10125 20074 30146 40311 58013=
07661,1999-11-27 15:00:00,12.4,1030.9,-0.8,73,7.7,20000,11.112,,,140,,,,,,,,,,,og-post,,,,AAXX 27154 07661 32570 31406 10124 20077 30144 40309 55008 81140 333 92428=
07661,1999-11-27 18:00:00,11.3,1031.8,0.8,84,8.7,18000,11.112,,,80,6.2,12.6,,,,,,,,,og-post,,,,AAXX 27184 07661 32968 00806 10113 20087 30152 40318 52008 333 10126 20062 92427=
07661,1999-11-27 21:00:00,8.8,1032.9,0.9,95,8,18000,11.112,,,100,,,,,,,,,,,og-post,,,,AAXX 27214 07661 32668 51006 10088 20080 30161 40329 51009 85500 333 92427=
07661,1999-11-28 00:00:00,7.6,1032.8,-0.2,96,7,,18.52,,,70,,,,,,,,,,,og-post,,,,AAXX 28004 07661 36/// /0710 10076 20070 30159 40328 58002=
07661,1999-11-28 03:00:00,6.8,1032.4,-0.4,97,6.4,18000,25.928,,,70,,,,,,,,,,,og-post,,,,AAXX 28034 07661 32668 50714 10068 20064 30155 40324 58004 85500 333 92427=
07661,1999-11-28 06:00:00,6.3,1032.7,0.3,96,5.7,16000,22.224,,,70,6.3,11.3,,,,,0,,,,og-post,,,,AAXX 28064 07661 32566 20712 10063 20057 30158 40327 53003 82100 333 10113 20063 70000 92427=
07661,1999-11-28 09:00:00,9.3,1033.1,0.5,83,6.6,16000,22.224,,,70,,,,,,,,,,,og-post,,,,AAXX 28094 07661 32566 10712 10093 20066 30163 40331 53005 81100 333 92427=
07661,1999-11-28 12:00:00,12.4,1031.7,-1.1,74,7.9,15000,18.52,,,80,,,,,,,,,,,og-post,,,,AAXX 28124 07661 32565 30810 10124 20079 30152 40317 58011 83200 333 92427=
07661,1999-11-28 15:00:00,12.1,1030.4,-1.4,63,5.3,20000,25.928,,,90,,,,,,,,,,,og-post,,,,AAXX 28154 07661 32470 20914 10121 20053 30138 40304 56014 81101 333 92448=
07661,1999-11-28 18:00:00,9.6,1030.5,-0,68,4,20000,22.224,,,60,6.1,12.4,,,,,,,,,og-post,,,,AAXX 28184 07661 32970 00612 10096 20040 30138 40305 55000 333 10124 20061 92438=
07661,1999-11-28 21:00:00,7.6,1030.5,-0.1,84,5.1,,22.224,,,70,,,,,,,,,,,og-post,,,,AAXX 28214 07661 36/// /0712 10076 20051 30137 40305 58001=
07661,1999-11-29 00:00:00,7.2,1029.7,-0.8,89,5.5,10000,22.224,,,70,,,,,,,,,,,og-post,,,,AAXX 29004 07661 32960 00712 10072 20055 30129 40297 58008 333 92437=
07661,1999-11-29 03:00:00,7,1028.6,-1.1,91,5.6,10000,29.632,,,70,,,,,,,,,,,og-post,,,,AAXX 29034 07661 32560 10716 10070 20056 30118 40286 58011 81100 333 92437=
07661,1999-11-29 06:00:00,8.3,1028.1,-0.4,85,5.9,15000,29.632,,,60,6.5,9.6,,,,,0,,,,og-post,,,,AAXX 29064 07661 32565 10616 10083 20059 30114 40281 56004 81100 333 10096 20065 70000 92437=
07661,1999-11-29 09:00:00,10.9,1029,1,69,5.4,12000,29.632,,,60,,,,,,,,,,,og-post,,,,AAXX 29094 07661 32562 20616 10109 20054 30124 40290 53010 82100 333 92437=
07661,1999-11-29 12:00:00,13.1,1027.9,-1,65,6.7,15000,29.632,,,80,,,,,,,,,,,og-post,,,,AAXX 29124 07661 32565 20816 10131 20067 30114 40279 58010 82100 333 92437=
07661,1999-11-29 14:00:00,13.1,1027.1,-1.1,61,5.8,,29.632,,,70,,,,,,,,,,,og-post,,,,AAXX 29144 07661 36/// /0716 10131 20058 30107 40271 58011=
07661,1999-11-29 15:00:00,12.9,1027.2,-0.7,57,4.6,12000,31.484,53.708,,70,,,,,,,,,,,og-post,,,,AAXX 29154 07661 32562 20717 10129 20046 30107 40272 56007 82100 333 91129 92437=
07661,1999-11-29 16:00:00,12.2,1027.3,-0.4,55,3.4,,29.632,,,70,,,,,,,,,,,og-post,,,,AAXX 29164 07661 36/// /0716 10122 20034 30108 40273 55004=
07661,1999-11-29 17:00:00,10.7,1028,0.7,61,3.5,,25.928,,,60,,,,,,,,,,,og-post,,,,AAXX 29174 07661 36/// /0614 10107 20035 30114 40280 53007=
07661,1999-11-29 18:00:00,10.1,1027.9,0.6,67,4.3,15000,31.484,53.708,,60,8,13.3,,,,,,,,,og-post,,,,AAXX 29184 07661 32565 10617 10101 20043 30113 40279 50006 81100 333 10133 20080 91129 92437=
07661,1999-11-29 19:00:00,10.1,1028.3,0.9,70,4.9,,29.632,,,70,,,,,,,,,,,og-post,,,,AAXX 29194 07661 36/// /0716 10101 20049 30117 40283 51009=
07661,1999-11-29 20:00:00,9.5,1028.6,0.5,76,5.5,,29.632,,,60,,,,,,,,,,,og-post,,,,AAXX 29204 07661 36/// /0616 10095 20055 30119 40286 53005=
07661,1999-11-29 21:00:00,9.7,1028.9,0.9,76,5.7,15000,25.928,,,60,,,,,,,,,,,og-post,,,,AAXX 29214 07661 32965 30614 10097 20057 30122 40289 51009 83020 333 92437=
07661,1999-11-29 22:00:00,10.5,1029,0.7,69,5.1,,29.632,,,60,,,,,,,,,,,og-post,,,,AAXX 29224 07661 36/// /0616 10105 20051 30124 40290 52007=
07661,1999-11-29 23:00:00,10.6,1029.1,0.6,66,4.5,,31.484,,,60,,,,,,,,,,,og-post,,,,AAXX 29234 07661 36/// /0617 10106 20045 30125 40291 51006=
07661,1999-11-30 00:00:00,10.4,1029,0.2,66,4.3,15000,29.632,,,60,,,,,,,,,,,og-post,,,,AAXX 30004 07661 32965 30616 10104 20043 30124 40290 50002 83020 333 92437=
07661,1999-11-30 01:00:00,10.3,1028.8,-0.2,68,4.7,,31.484,,,60,,,,,,,,,,,og-post,,,,AAXX 30014 07661 36/// /0617 10103 20047 30122 40288 58002=
07661,1999-11-30 02:00:00,10.2,1028.6,-0.5,66,4.1,,29.632,,,60,,,,,,,,,,,og-post,,,,AAXX 30024 07661 36/// /0616 10102 20041 30120 40286 58005=
07661,1999-11-30 03:00:00,9.3,1028.4,-0.7,72,4.5,15000,25.928,,,70,,,,,,,,,,,og-post,,,,AAXX 30034 07661 32965 30714 10093 20045 30117 40284 58007 83020 333 92437=
07661,1999-11-30 04:00:00,9,1028.2,-0.7,74,4.6,,25.928,,,70,,,,,,,,,,,og-post,,,,AAXX 30044 07661 36/// /0714 10090 20046 30115 40282 57007=
07661,1999-11-30 06:00:00,8.5,1028.4,-0,73,3.9,20000,29.632,,,70,8.5,10.8,,,,,0,,,,og-post,,,,AAXX 30064 07661 32570 30716 10085 20039 30117 40284 55000 83200 333 10108 20085 70000 92438=
07661,1999-11-30 07:00:00,8.5,1028.7,0.5,74,4.1,,29.632,,,70,,,,,,,,,,,og-post,,,,AAXX 30074 07661 36/// /0716 10085 20041 30120 40287 53005=
07661,1999-11-30 08:00:00,9.1,1029.2,1,70,3.9,,25.928,,,70,,,,,,,,,,,og-post,,,,AAXX 30084 07661 36/// /0714 10091 20039 30125 40292 53010=
07661,1999-11-30 09:00:00,10.7,1029.7,1.4,62,3.7,30000,25.928,,,70,,,,,,,,,,,og-post,,,,AAXX 30094 07661 32980 10714 10107 20037 30131 40297 53014 80001 333 92438=
07661,1999-11-30 10:00:00,12.9,1029.9,1.4,48,2.2,,25.928,,,70,,,,,,,,,,,og-post,,,,AAXX 30104 07661 36/// /0714 10129 20022 30134 40299 51014=
07661,1999-11-30 11:00:00,13.3,1029.4,0.4,44,1.3,,25.928,,,70,,,,,,,,,,,og-post,,,,AAXX 30114 07661 36/// /0714 10133 20013 30129 40294 50004=
07661,1999-11-30 12:00:00,13.9,1029,-0.5,47,2.8,25000,14.816,,,70,,,,,,,,,,,og-post,,,,AAXX 30124 07661 32975 10708 10139 20028 30126 40290 58005 80001 333 92438=
07661,1999-11-30 15:00:00,14,1028.1,-0.9,57,5.6,25000,14.816,,,110,,,,,,,,,,,og-post,,,,AAXX 30154 07661 32975 11108 10140 20056 30117 40281 55009 80001 333 92428=
07661,1999-11-30 16:00:00,13.5,1028.3,-0.1,59,5.7,,7.408,,,110,,,,,,,,,,,og-post,,,,AAXX 30164 07661 36/// /1104 10135 20057 30119 40283 55001=
07661,1999-11-30 17:00:00,13,1028.6,0.5,62,5.9,,11.112,,,230,,,,,,,,,,,og-post,,,,AAXX 30174 07661 36/// /2306 10130 20059 30121 40286 53005=
07661,1999-11-30 18:00:00,12.7,1028.9,0.7,58,4.7,25000,14.816,,,270,8,14.3,,,,,,,,,og-post,,,,AAXX 30184 07661 32975 12708 10127 20047 30124 40289 53007 80001 333 10143 20080 92428=
07661,1999-11-30 20:00:00,11.7,1029.2,0.5,60,4.2,,,,,,,,,,,,,,,,og-post,,,,AAXX 30204 07661 36/// /0000 10117 20042 30126 40292 51005=
07661,1999-11-30 21:00:00,11.1,1029.2,0.2,63,4.3,25000,7.408,,,190,,,,,,,,,,,og-post,,,,AAXX 30214 07661 32975 01904 10111 20043 30126 40292 51002 333 92428=
07661,1999-11-30 22:00:00,11.3,1029,-0.2,56,2.9,,,,,,,,,,,,,,,,og-post,,,,AAXX 30224 07661 36/// /0000 10113 20029 30124 40290 58002=
07661,1999-11-30 23:00:00,11.4,1028.9,-0.3,68,5.7,,3.704,,,240,,,,,,,,,,,og-post,,,,AAXX 30234 07661 36/// /2402 10114 20057 30123 40289 58003=
07661,1999-12-01 00:00:00,10.3,1028.3,-0.9,52,0.9,25000,3.704,,,320,,,,,,,,,,,og-post,,,,AAXX 01004 07661 32975 03202 10103 20009 30117 40283 58009 333 92428=
07661,1999-12-01 01:00:00,10.9,1027.9,-1.1,50,0.9,,7.408,,,310,,,,,,,,,,,og-post,,,,AAXX 01014 07661 36/// /3104 10109 20009 30113 40279 58011=
07661,1999-12-01 02:00:00,10.5,1027.8,-1.1,58,2.6,,7.408,,,280,,,,,,,,,,,og-post,,,,AAXX 01024 07661 36/// /2804 10105 20026 30112 40278 56011=
07661,1999-12-01 03:00:00,10,1027.2,-1.1,52,0.6,25000,7.408,,,290,,,,,,,,,,,og-post,,,,AAXX 01034 07661 32975 02904 10100 20006 30106 40272 58011 333 92428=
07661,1999-12-01 04:00:00,9.3,1026.9,-1.1,58,1.5,,11.112,,,290,,,,,,,,,,,og-post,,,,AAXX 01044 07661 36/// /2906 10093 20015 30102 40269 58011=
07661,1999-12-01 05:00:00,9.5,1026.6,-1.3,59,1.9,,18.52,,,280,,,,,,,,,,,og-post,,,,AAXX 01054 07661 36/// /2810 10095 20019 30099 40266 56013=
07661,1999-12-01 06:00:00,9.7,1026.4,-0.8,55,1.1,18000,22.224,,,300,9.2,12.9,,,,,0,,,,og-post,,,,AAXX 01064 07661 32568 13012 10097 20011 30098 40264 56008 81100 333 10129 20092 70000 92427=
07661,1999-12-01 07:00:00,10.2,1026.5,-0.3,33,-5.3,,14.816,,,300,,,,,,,,,,,og-post,,,,AAXX 01074 07661 36/// /3008 10102 21053 30099 40265 55003=
07661,1999-12-01 08:00:00,10.2,1026.5,-0,39,-3.1,,18.52,,,300,,,,,,,,,,,og-post,,,,AAXX 01084 07661 36/// /3010 10102 21031 30099 40265 55000=
07661,1999-12-01 09:00:00,11.8,1026.3,0,63,5,18000,18.52,,,280,,,,,,,,,,,og-post,,,,AAXX 01094 07661 32568 22810 10118 20050 30098 40263 50000 82150 333 92427=
07661,1999-12-01 10:00:00,13.4,1025.9,-0.4,51,3.5,,14.816,,,280,,,,,,,,,,,og-post,,,,AAXX 01104 07661 36/// /2808 10134 20035 30095 40259 58004=
07661,1999-12-01 11:00:00,14,1025.4,-0.9,54,4.8,,18.52,,,300,,,,,,,,,,,og-post,,,,AAXX 01114 07661 36/// /3010 10140 20048 30090 40254 58009=
07661,1999-12-01 12:00:00,13.7,1024.7,-1.5,55,4.8,20000,22.224,,,280,,,,,,,,,,,og-post,,,,AAXX 01124 07661 32570 52812 10137 20048 30083 40247 58015 81150 333 92428=
07661,1999-12-01 13:00:00,13.1,1024,-1.9,60,5.5,,22.224,,,290,,,,,,,,,,,og-post,,,,AAXX 01134 07661 36/// /2912 10131 20055 30076 40240 58019=
07661,1999-12-01 15:00:00,12.1,1023.3,-1.4,58,4.1,15000,25.928,,,300,,,,,,,,,,,og-post,,,,AAXX 01154 07661 32565 83014 10121 20041 30069 40233 56014 82150 333 92427=
07661,1999-12-01 16:00:00,11.4,1023.5,-0.6,62,4.4,,18.52,,,300,,,,,,,,,,,og-post,,,,AAXX 01164 07661 36/// /3010 10114 20044 30070 40235 55006=
07661,1999-12-01 17:00:00,11.3,1023.7,0.2,55,2.6,,7.408,,,300,,,,,,,,,,,og-post,,,,AAXX 01174 07661 36/// /3004 10113 20026 30072 40237 53002=
07661,1999-12-01 18:00:00,10.7,1023.9,0.5,61,3.5,12000,7.408,,,320,9.5,14.2,,,,,,,,,og-post,,,,AAXX 01184 07661 32562 83204 10107 20035 30074 40239 53005 82150 333 10142 20095 92427=
07661,1999-12-01 19:00:00,10,1024.2,0.6,53,0.9,,7.408,,,300,,,,,,,,,,,og-post,,,,AAXX 01194 07661 36/// /3004 10100 20009 30076 40242 52006=
07661,1999-12-01 20:00:00,9.6,1024.2,0.4,63,2.9,,7.408,,,320,,,,,,,,,,,og-post,,,,AAXX 01204 07661 36/// /3204 10096 20029 30076 40242 51004=
07661,1999-12-01 21:00:00,8.6,1024.3,0.2,62,1.7,,14.816,,,70,,,,,,,,,,,og-post,,,,AAXX 01214 07661 36/// /0708 10086 20017 30076 40243 51002=
07661,1999-12-01 22:00:00,7.8,1024.2,-0.1,71,2.9,,14.816,,,80,,,,,,,,,,,og-post,,,,AAXX 01224 07661 36/// /0808 10078 20029 30075 40242 58001=
07661,1999-12-01 23:00:00,7.6,1024.2,-0.1,81,4.6,,7.408,,,50,,,,,,,,,,,og-post,,,,AAXX 01234 07661 36/// /0504 10076 20046 30075 40242 57001=
07661,1999-12-02 00:00:00,7,1024.3,-0.1,88,5.2,10000,3.704,,,350,,,,,,,,,,,og-post,,,,AAXX 02004 07661 32960 03502 10070 20052 30075 40243 56001 333 92427=
07661,1999-12-02 01:00:00,7.7,1024.1,-0.1,72,3,,7.408,,,300,,,,,,,,,,,og-post,,,,AAXX 02014 07661 36/// /3004 10077 20030 30074 40241 58001=
07661,1999-12-02 02:00:00,7,1024.1,-0.2,83,4.3,,3.704,,,70,,,,,,,,,,,og-post,,,,AAXX 02024 07661 36/// /0702 10070 20043 30073 40241 58002=
07661,1999-12-02 03:00:00,6.5,1023.7,-0.6,79,3.1,10000,11.112,,,80,,,,,,,,,,,og-post,,,,AAXX 02034 07661 32960 00806 10065 20031 30069 40237 58006 333 92427=
07661,1999-12-02 06:00:00,6,1024,0.3,75,1.9,15000,7.408,,,320,5.5,10.7,,,,,0,,,,og-post,,,,AAXX 02064 07661 32565 13204 10060 20019 30072 40240 53003 81100 333 10107 20055 70000 92427=
07661,1999-12-02 09:00:00,8.3,1025,1.1,68,2.8,15000,14.816,,,300,,,,,,,,,,,og-post,,,,AAXX 02094 07661 32965 03008 10083 20028 30083 40250 53011 333 92427=
07661,1999-12-02 12:00:00,11.4,1023.6,-1.2,56,2.9,12000,14.816,,,290,,,,,,,,,,,og-post,,,,AAXX 02124 07661 32962 02908 10114 20029 30071 40236 58012 333 92427=
07661,1999-12-02 13:00:00,11.9,1023,-1.7,59,4.2,,14.816,,,290,,,,,,,,,,,og-post,,,,AAXX 02134 07661 36/// /2908 10119 20042 30065 40230 57017=
07661,1999-12-03 11:00:00,,,1.5,,,12000,,,,,,,,,,,,,,,og-post,,,,AAXX 03114 07661 32562 4//// 1//// 2//// 3//// 4//// 51015 83202 333 92427=
07661,1999-12-03 12:00:00,12.1,1026,-0.9,83,9.3,,11.112,,,80,,,,,,,,,,,og-post,,,,AAXX 03124 07661 36/// /0806 10121 20093 30095 40260 58009=
07661,1999-12-03 13:00:00,12.7,1025.6,-1.5,81,9.5,,11.112,,,130,,,,,,,,,,,og-post,,,,AAXX 03134 07661 36/// /1306 10127 20095 30092 40256 56015=
07661,1999-12-03 14:00:00,13.1,1025.2,-1.5,78,9.4,,11.112,,,200,,,,,,,,,,,og-post,,,,AAXX 03144 07661 36/// /2006 10131 20094 30088 40252 56015=
07661,1999-12-03 15:00:00,12.5,1025.1,-0.8,81,9.3,12000,11.112,,,210,,,,,,,,,,,og-post,,,,AAXX 03154 07661 32562 42106 10125 20093 30087 40251 56008 83202 333 92427=
07661,1999-12-03 16:00:00,11.6,1025,-0.7,80,8.3,,14.816,,,250,,,,,,,,,,,og-post,,,,AAXX 03164 07661 36/// /2508 10116 20083 30085 40250 56007=
07661,1999-12-03 17:00:00,12,1024.9,-0.4,80,8.7,,11.112,,,260,,,,,,,,,,,og-post,,,,AAXX 03174 07661 36/// /2606 10120 20087 30084 40249 57004=
07661,1999-12-03 18:00:00,11.9,1024.8,-0.4,83,9.1,15000,7.408,,,260,6.4,13.2,,,,,,,,,og-post,,,,AAXX 03184 07661 32565 62604 10119 20091 30083 40248 56004 86200 333 10132 20064 92427=
07661,1999-12-03 20:00:00,11.9,1024.3,-0.6,82,8.9,,3.704,,,30,,,,,,,,,,,og-post,,,,AAXX 03204 07661 36/// /0302 10119 20089 30078 40243 58006=
07661,1999-12-03 21:00:00,11.8,1024,-0.8,85,9.4,20000,3.704,,,50,,,,,,,,,,,og-post,,,,AAXX 03214 07661 32570 60502 10118 20094 30075 40240 57008 86200 333 92428=
07661,1999-12-03 22:00:00,11.1,1023.6,-0.9,88,9.2,,7.408,,,80,,,,,,,,,,,og-post,,,,AAXX 03224 07661 36/// /0804 10111 20092 30071 40236 58009=
07661,1999-12-03 23:00:00,10.9,1023.3,-1,89,9.2,,3.704,,,70,,,,,,,,,,,og-post,,,,AAXX 03234 07661 36/// /0702 10109 20092 30068 40233 57010=
07661,1999-12-04 00:00:00,11.1,1022.8,-1.2,89,9.4,20000,11.112,,,270,,,,,,,,,,,og-post,,,,AAXX 04004 07661 32570 62706 10111 20094 30063 40228 58012 86200 333 92428=
07661,1999-12-04 01:00:00,10,1022.4,-1.2,91,8.6,,11.112,,,300,,,,,,,,,,,og-post,,,,AAXX 04014 07661 36/// /3006 10100 20086 30059 40224 58012=
07661,1999-12-04 02:00:00,10,1022.1,-1.2,91,8.6,,22.224,,,300,,,,,,,,,,,og-post,,,,AAXX 04024 07661 36/// /3012 10100 20086 30056 40221 56012=
07661,1999-12-04 03:00:00,9.5,1021.5,-1.4,88,7.6,15000,25.928,,,300,,,,,,,,,,,og-post,,,,AAXX 04034 07661 32565 63014 10095 20076 30049 40215 58014 86200 333 92427=
07661,1999-12-04 04:00:00,9.7,1020.8,-1.6,83,7,,29.632,,,300,,,,,,,,,,,og-post,,,,AAXX 04044 07661 36/// /3016 10097 20070 30043 40208 58016=
07661,1999-12-04 05:00:00,9.4,1021.2,-1,80,6.1,,31.484,,,300,,,,,,,,,,,og-post,,,,AAXX 04054 07661 36/// /3017 10094 20061 30046 40212 55010=
07661,1999-12-04 06:00:00,8.7,1020.9,-0.6,82,5.8,15000,22.224,,,300,8.7,12,,,,,0,,,,og-post,,,,AAXX 04064 07661 32565 23012 10087 20058 30043 40209 56006 82200 333 10120 20087 70000 92427=
07661,1999-12-04 07:00:00,9,1020.8,-0.1,79,5.6,,29.632,,,300,,,,,,,,,,,og-post,,,,AAXX 04074 07661 36/// /3016 10090 20056 30042 40208 58001=
07661,1999-12-04 08:00:00,9.7,1021.2,0.1,82,6.8,,29.632,,,290,,,,,,,,,,,og-post,,,,AAXX 04084 07661 36/// /2916 10097 20068 30047 40212 53001=
07661,1999-12-04 09:00:00,10.1,1020.7,-0.1,79,6.6,12000,31.484,,,310,,,,,,,,,,,og-post,,,,AAXX 04094 07661 32862 53117 10101 20066 30042 40207 58001 82042 333 92437=
07661,1999-12-04 10:00:00,11.3,1020.9,0.3,68,5.6,,25.928,,,300,,,,,,,,,,,og-post,,,,AAXX 04104 07661 36/// /3014 10113 20056 30045 40209 51003=
07661,1999-12-04 11:00:00,11.8,1020.3,-0.8,65,5.4,,29.632,,,300,,,,,,,,,,,og-post,,,,AAXX 04114 07661 36/// /3016 10118 20054 30039 40203 58008=
07661,1999-12-04 13:00:00,11.9,1018.3,-2.6,66,5.8,,29.632,,,290,,,,,,,,,,,og-post,,,,AAXX 04134 07661 36/// /2916 10119 20058 30019 40183 58026=
07661,1999-12-04 14:00:00,10.9,1017.7,-2.6,71,5.9,,31.484,,,290,,,,,,,,,,,og-post,,,,AAXX 04144 07661 36/// /2917 10109 20059 30013 40177 56026=
07661,1999-12-04 15:00:00,10.3,1017.2,-1.9,68,4.7,15000,35.188,,,270,,,,,,,,,,,og-post,,,,AAXX 04154 07661 32865 82719 10103 20047 30008 40172 56019 8807/ 333 92437=
07661,1999-12-04 16:00:00,9.6,1016.8,-1.6,71,4.6,,29.632,,,290,,,,,,,,,,,og-post,,,,AAXX 04164 07661 36/// /2916 10096 20046 30003 40168 56016=
07661,1999-12-04 17:00:00,9.3,1016.3,-1.5,66,3.3,,29.632,50.004,,300,,,,,,,,,,,og-post,,,,AAXX 04174 07661 36/// /3016 10093 20033 39998 40163 57015 333 91127=
07661,1999-12-04 18:00:00,9.5,1016.6,-0.7,66,3.5,15000,38.892,,,300,8.5,12.1,,,,,,,,,og-post,,,,AAXX 04184 07661 32865 63021 10095 20035 30001 40166 55007 8607/ 333 10121 20085 92437=
07661,1999-12-04 19:00:00,9.4,1016.2,-0.6,61,2.3,,53.708,,72.228,300,,,,,,,,,,,og-post,,,,AAXX 04194 07661 36/// /3029 10094 20023 39997 40162 56006 333 91039=
07661,1999-12-04 20:00:00,9.5,1016,-0.3,65,3.3,,42.596,,,300,,,,,,,,,,,og-post,,,,AAXX 04204 07661 36/// /3023 10095 20033 39995 40160 58003=
07661,1999-12-04 21:00:00,10.1,1015.8,-0.7,65,3.8,15000,50.004,,,300,,,,,,,,,,,og-post,,,,AAXX 04214 07661 32865 83027 10101 20038 39994 40158 56007 8807/ 333 92447=
07661,1999-12-04 22:00:00,10.1,1015.5,-0.6,68,4.5,,46.3,,,300,,,,,,,,,,,og-post,,,,AAXX 04224 07661 36/// /3025 10101 20045 39991 40155 58006=
07661,1999-12-04 23:00:00,10.2,1015.6,-0.3,73,5.6,,46.3,,,300,,,,,,,,,,,og-post,,,,AAXX 04234 07661 36/// /3025 10102 20056 39992 40156 55003=
07661,1999-12-05 00:00:00,10.1,1014.9,-0.9,75,5.9,15000,38.892,,64.82,300,,,,,,,,,,,og-post,,,,AAXX 05004 07661 32865 83021 10101 20059 39985 40149 58009 8807/ 333 91035 92447=
07661,1999-12-05 01:00:00,10.1,1014.4,-1.1,76,6.1,,46.3,79.636,,300,,,,,,,,,,,og-post,,,,AAXX 05014 07661 36/// /3025 10101 20061 39980 40144 58011 333 91143=
07661,1999-12-05 02:00:00,10.3,1014.1,-1.5,76,6.3,,46.3,72.228,,300,,,,,,,,,,,og-post,,,,AAXX 05024 07661 36/// /3025 10103 20063 39977 40141 56015 333 91139=
07661,1999-12-05 03:00:00,10,1013.5,-1.4,70,4.8,15000,46.3,79.636,,300,,,,,,,,,,,og-post,,,,AAXX 05034 07661 32865 83025 10100 20048 39971 40135 58014 8807/ 333 91143 92447=
07661,1999-12-05 04:00:00,10.4,1013.1,-1.3,54,1.5,,46.3,75.932,,310,,,,,,,,,,,og-post,,,,AAXX 05044 07661 36/// /3125 10104 20015 39967 40131 58013 333 91141=
07661,1999-12-05 05:00:00,8.7,1013.9,-0.3,56,0.4,,38.892,,,300,,,,,,,,,,,og-post,,,,AAXX 05054 07661 36/// /3021 10087 20004 39974 40139 55003=
07661,1999-12-05 06:00:00,8.7,1014.3,0.7,49,-1.4,25000,38.892,79.636,61.116,310,8.6,10.6,,,,,0,,,,og-post,,,,AAXX 05064 07661 32875 13121 10087 21014 39978 40143 53007 81070 333 10106 20086 70000 91033 91143 92448=
07661,1999-12-05 07:00:00,7.7,1014.9,1.6,56,-0.5,,25.928,72.228,,290,,,,,,,,,,,og-post,,,,AAXX 05074 07661 36/// /2914 10077 21005 39983 40149 51016 333 91139=
07661,1999-12-05 08:00:00,8.1,1012.6,-1.3,48,-2.2,,68.524,103.712,103.712,310,,,,,,,,,,,og-post,,,,AAXX 05084 07661 36/// /3137 10081 21022 39961 40126 58013 333 91056 91156=
07661,1999-12-05 09:00:00,8.2,1014.8,0.4,44,-3.3,25000,50.004,103.712,83.34,310,,,,,,,,,,,og-post,,,,AAXX 05094 07661 32975 03127 10082 21033 39982 40148 53004 333 91045 91156 92458=
07661,1999-12-05 10:00:00,8.5,1014.8,-0,41,-4,,57.412,90.748,90.748,310,,,,,,,,,,,og-post,,,,AAXX 05104 07661 36/// /3131 10085 21040 39983 40148 55000 333 91049 91149=
07661,1999-12-05 11:00:00,9.1,1015.2,2.6,37,-4.8,,38.892,75.932,64.82,300,,,,,,,,,,,og-post,,,,AAXX 05114 07661 36/// /3021 10091 21048 39987 40152 51026 333 91035 91141=
07661,1999-12-05 12:00:00,9.8,1015.6,0.9,34,-5.3,25000,46.3,103.712,68.524,310,,,,,,,,,,,og-post,,,,AAXX 05124 07661 32575 23125 10098 21053 39991 40156 53009 82200 333 91037 91156 92458=
07661,1999-12-05 13:00:00,9.8,1015.6,0.8,31,-6.5,,50.004,83.34,72.228,320,,,,,,,,,,,og-post,,,,AAXX 05134 07661 36/// /3227 10098 21065 39991 40156 51008 333 91039 91145=
07661,1999-12-05 14:00:00,8.8,1016.6,1.3,36,-5.4,,46.3,72.228,68.524,300,,,,,,,,,,,og-post,,,,AAXX 05144 07661 36/// /3025 10088 21054 30000 40166 53013 333 91037 91139=
07661,1999-12-05 15:00:00,8.7,1016.2,0.6,40,-4.1,25000,53.708,83.34,79.636,320,,,,,,,,,,,og-post,,,,AAXX 05154 07661 32575 13229 10087 21041 39997 40162 50006 81100 333 91043 91145 92458=
07661,1999-12-05 16:00:00,8.2,1014.9,-0.8,39,-4.9,,75.932,111.12,111.12,330,,,,,,,,,,,og-post,,,,AAXX 05164 07661 36/// /3341 10082 21049 39983 40149 58008 333 91060 91160=
07661,1999-12-05 17:00:00,7.6,1017,0.4,39,-5.4,,57.412,107.416,83.34,330,,,,,,,,,,,og-post,,,,AAXX 05174 07661 36/// /3331 10076 21054 30004 40170 53004 333 91045 91158=
07661,1999-12-05 18:00:00,6.6,1018.9,2.5,41,-5.7,25000,25.928,111.12,,300,6.6,10.1,,,,,,,,,og-post,,,,AAXX 05184 07661 32575 13014 10066 21057 30022 40189 53025 81100 333 10101 20066 91160 92458=
07661,1999-12-05 19:00:00,6.3,1019.5,4.5,41,-6,,50.004,,,310,,,,,,,,,,,og-post,,,,AAXX 05194 07661 36/// /3127 10063 21060 30028 40195 51045=
07661,1999-12-05 20:00:00,7,1020,2.9,34,-7.8,,42.596,75.932,,340,,,,,,,,,,,og-post,,,,AAXX 05204 07661 36/// /3423 10070 21078 30033 40200 51029 333 91141=
07661,1999-12-05 21:00:00,7.9,1021.1,2.2,33,-7.4,20000,18.52,75.932,,340,,,,,,,,,,,og-post,,,,AAXX 05214 07661 32970 03410 10079 21074 30044 40211 53022 333 91141 92448=
07661,1999-12-05 22:00:00,6.7,1022.2,2.6,32,-8.8,,11.112,,,310,,,,,,,,,,,og-post,,,,AAXX 05224 07661 36/// /3106 10067 21088 30054 40222 53026=
07661,1999-12-05 23:00:00,7.3,1022.8,2.8,36,-6.8,,14.816,,,100,,,,,,,,,,,og-post,,,,AAXX 05234 07661 36/// /1008 10073 21068 30061 40228 51028=
07661,1999-12-06 00:00:00,6.6,1023.5,2.3,36,-7.4,10000,14.816,75.932,,250,,,,,,,,,,,og-post,,,,AAXX 06004 07661 32960 02508 10066 21074 30067 40235 51023 333 91141 92447=
07661,1999-12-06 01:00:00,6.5,1023.5,1.3,45,-4.6,,7.408,,,70,,,,,,,,,,,og-post,,,,AAXX 06014 07661 36/// /0704 10065 21046 30067 40235 51013=
07661,1999-12-06 02:00:00,5.5,1023.9,0.9,56,-2.6,,3.704,,,240,,,,,,,,,,,og-post,,,,AAXX 06024 07661 36/// /2402 10055 21026 30070 40239 51009=
07661,1999-12-06 03:00:00,5.7,1024,0.4,34,-8.9,10000,3.704,,,270,,,,,,,,,,,og-post,,,,AAXX 06034 07661 32960 02702 10057 21089 30071 40240 53004 333 92447=
07661,1999-12-06 04:00:00,5.6,1023.7,0.1,52,-3.5,,11.112,,,90,,,,,,,,,,,og-post,,,,AAXX 06044 07661 36/// /0906 10056 21035 30068 40237 50001=
07661,1999-12-06 05:00:00,4.7,1024.1,0.2,60,-2.4,,,,,,,,,,,,,,,,og-post,,,,AAXX 06054 07661 36/// /0000 10047 21024 30072 40241 53002=
07661,1999-12-06 06:00:00,4.7,1024.7,0.7,58,-2.8,25000,14.816,,,70,4.6,7.9,,,,,0,,,,og-post,,,,AAXX 06064 07661 32975 00708 10047 21028 30078 40247 53007 333 10079 20046 70000 92448=
07661,1999-12-06 07:00:00,4.9,1025.5,1.8,55,-3.4,,11.112,,,90,,,,,,,,,,,og-post,,,,AAXX 06074 07661 36/// /0906 10049 21034 30086 40255 53018=
07661,1999-12-06 08:00:00,4.7,1026.5,2.3,54,-3.8,,22.224,,,70,,,,,,,,,,,og-post,,,,AAXX 06084 07661 36/// /0712 10047 21038 30095 40265 53023=
07661,1999-12-06 09:00:00,6.6,1026.8,2.2,49,-3.3,40000,22.224,,,70,,,,,,,,,,,og-post,,,,AAXX 06094 07661 32982 10712 10066 21033 30100 40268 51022 80001 333 92438=
07661,1999-12-06 11:00:00,8.8,1027.3,1.1,47,-1.9,,14.816,,,70,,,,,,,,,,,og-post,,,,AAXX 06114 07661 36/// /0708 10088 21019 30106 40273 50011=
07661,1999-12-06 12:00:00,9.3,1027,0.3,53,0.2,40000,11.112,,,80,,,,,,,,,,,og-post,,,,AAXX 06124 07661 32982 20806 10093 20002 30103 40270 50003 80001 333 92438=
07661,1999-12-06 13:00:00,10.4,1027,-0.3,57,2.3,,11.112,,,120,,,,,,,,,,,og-post,,,,AAXX 06134 07661 36/// /1206 10104 20023 30104 40270 55003=
07661,1999-12-06 14:00:00,10.7,1026.8,-0.4,48,0.2,,11.112,,,130,,,,,,,,,,,og-post,,,,AAXX 06144 07661 36/// /1306 10107 20002 30102 40268 56004=
07661,1999-12-06 15:00:00,10.8,1027.3,0.4,42,-1.6,35000,7.408,,,150,,,,,,,,,,,og-post,,,,AAXX 06154 07661 32981 31504 10108 21016 30107 40273 53004 80001 333 92428=
07661,1999-12-06 16:00:00,10.3,1027.5,0.5,46,-0.8,,3.704,,,140,,,,,,,,,,,og-post,,,,AAXX 06164 07661 36/// /1402 10103 21008 30109 40275 53005=
07661,1999-12-06 17:00:00,9.7,1027.8,0.9,50,-0.2,,3.704,,,200,,,,,,,,,,,og-post,,,,AAXX 06174 07661 36/// /2002 10097 21002 30111 40278 51009=
07661,1999-12-06 18:00:00,8.3,1028.2,0.7,67,2.5,15000,7.408,,,330,4.2,11,,,,,,,,,og-post,,,,AAXX 06184 07661 32965 33304 10083 20025 30114 40282 53007 80001 333 10110 20042 92427=
07661,1999-12-06 19:00:00,8,1028.6,0.9,57,0,,11.112,,,340,,,,,,,,,,,og-post,,,,AAXX 06194 07661 36/// /3406 10080 20000 30118 40286 53009=
07661,1999-12-06 20:00:00,8.4,1028.6,0.7,56,0.1,,11.112,,,310,,,,,,,,,,,og-post,,,,AAXX 06204 07661 36/// /3106 10084 20001 30118 40286 51007=
07661,1999-12-06 21:00:00,8.1,1028.6,0.4,63,1.5,20000,7.408,,,340,,,,,,,,,,,og-post,,,,AAXX 06214 07661 32970 53404 10081 20015 30118 40286 51004 80001 333 92428=
07661,1999-12-06 22:00:00,7.4,1028.7,0.1,65,1.3,,11.112,,,340,,,,,,,,,,,og-post,,,,AAXX 06224 07661 36/// /3406 10074 20013 30119 40287 53001=
07661,1999-12-06 23:00:00,7.5,1028.2,-0.4,68,2,,11.112,,,310,,,,,,,,,,,og-post,,,,AAXX 06234 07661 36/// /3106 10075 20020 30114 40282 58004=
07661,1999-12-07 00:00:00,7.8,1027.8,-0.8,67,2.1,15000,11.112,,,340,,,,,,,,,,,og-post,,,,AAXX 07004 07661 32965 43406 10078 20021 30110 40278 58008 80001 333 92437=
07661,1999-12-07 01:00:00,6.6,1027.2,-1.5,79,3.2,,11.112,,,340,,,,,,,,,,,og-post,,,,AAXX 07014 07661 36/// /3406 10066 20032 30104 40272 58015=
07661,1999-12-07 02:00:00,6.6,1027,-1.2,76,2.7,,11.112,,,350,,,,,,,,,,,og-post,,,,AAXX 07024 07661 36/// /3506 10066 20027 30102 40270 56012=
07661,1999-12-07 03:00:00,7.6,1026.8,-1,65,1.5,15000,7.408,,,340,,,,,,,,,,,og-post,,,,AAXX 07034 07661 32965 23404 10076 20015 30100 40268 56010 80001 333 92437=
07661,1999-12-07 04:00:00,7.9,1026.1,-1,66,2,,11.112,,,340,,,,,,,,,,,og-post,,,,AAXX 07044 07661 36/// /3406 10079 20020 30094 40261 58010=
07661,1999-12-07 05:00:00,7.7,1026.2,-0.8,70,2.6,,7.408,,,350,,,,,,,,,,,og-post,,,,AAXX 07054 07661 36/// /3504 10077 20026 30094 40262 56008=
07661,1999-12-07 06:00:00,6.2,1026.4,-0.4,76,2.3,25000,7.408,,,20,5.9,8.7,,,,,0,,,,og-post,,,,AAXX 07064 07661 32975 00204 10062 20023 30096 40264 55004 333 10087 20059 70000 92438=
07661,1999-12-07 07:00:00,4.6,1026.6,0.3,83,2,,11.112,,,70,,,,,,,,,,,og-post,,,,AAXX 07074 07661 36/// /0706 10046 20020 30097 40266 53003=
07661,1999-12-07 08:00:00,5.6,1027,0.7,76,1.7,,18.52,,,70,,,,,,,,,,,og-post,,,,AAXX 07084 07661 36/// /0710 10056 20017 30101 40270 53007=
07661,1999-12-07 09:00:00,7,1026.6,0.2,74,2.7,30000,14.816,,,70,,,,,,,,,,,og-post,,,,AAXX 07094 07661 32980 00708 10070 20027 30098 40266 50002 333 92428=
07661,1999-12-07 10:00:00,9.9,1026.5,0.2,58,2,,7.408,,,70,,,,,,,,,,,og-post,,,,AAXX 07104 07661 36/// /0704 10099 20020 30099 40265 51002=
07661,1999-12-07 11:00:00,10.3,1025.7,-1,64,3.8,,7.408,,,300,,,,,,,,,,,og-post,,,,AAXX 07114 07661 36/// /3004 10103 20038 30091 40257 58010=
07661,1999-12-07 12:00:00,11,1024.8,-1.5,66,4.9,15000,11.112,,,250,,,,,,,,,,,og-post,,,,AAXX 07124 07661 32965 02506 10110 20049 30083 40248 58015 333 92427=
07661,1999-12-07 13:00:00,11.3,1024,-2.4,65,5,,18.52,,,280,,,,,,,,,,,og-post,,,,AAXX 07134 07661 36/// /2810 10113 20050 30075 40240 57024=
07661,1999-12-07 14:00:00,11.4,1023.5,-2.1,58,3.4,,25.928,,,280,,,,,,,,,,,og-post,,,,AAXX 07144 07661 36/// /2814 10114 20034 30070 40235 56021=
07661,1999-12-07 15:00:00,11,1023.8,-1,61,3.8,15000,25.928,,,280,,,,,,,,,,,og-post,,,,AAXX 07154 07661 32965 02814 10110 20038 30073 40238 55010 333 92427=
07661,1999-12-07 16:00:00,10.4,1023.9,-0.2,65,4.1,,25.928,,,280,,,,,,,,,,,og-post,,,,AAXX 07164 07661 36/// /2814 10104 20041 30073 40239 56002=
07661,1999-12-07 17:00:00,10.1,1023.8,0.2,70,4.9,,25.928,,,280,,,,,,,,,,,og-post,,,,AAXX 07174 07661 36/// /2814 10101 20049 30072 40238 50002=
07661,1999-12-07 18:00:00,9.3,1024,0.1,74,4.9,15000,18.52,,,280,4.1,11.4,,,,,,,,,og-post,,,,AAXX 07184 07661 32965 02810 10093 20049 30074 40240 53001 333 10114 20041 92427=
07661,1999-12-07 19:00:00,8.9,1024,0.1,71,3.9,,22.224,,,300,,,,,,,,,,,og-post,,,,AAXX 07194 07661 36/// /3012 10089 20039 30074 40240 53001=
07661,1999-12-07 20:00:00,8.4,1024,0.1,70,3.3,,29.632,,,300,,,,,,,,,,,og-post,,,,AAXX 07204 07661 36/// /3016 10084 20033 30073 40240 50001=
07661,1999-12-07 21:00:00,8.6,1023.6,-0.5,69,3.2,25000,22.224,,,300,,,,,,,,,,,og-post,,,,AAXX 07214 07661 32975 03012 10086 20032 30069 40236 58005 333 92428=
07661,1999-12-07 22:00:00,8.7,1023.6,-0.4,73,4.1,,22.224,,,300,,,,,,,,,,,og-post,,,,AAXX 07224 07661 36/// /3012 10087 20041 30070 40236 55004=
07661,1999-12-07 23:00:00,8.7,1023.6,-0.3,75,4.5,,25.928,,,300,,,,,,,,,,,og-post,,,,AAXX 07234 07661 36/// /3014 10087 20045 30070 40236 56003=
07661,1999-12-08 00:00:00,8.9,1023.1,-0.4,79,5.5,25000,22.224,,,300,,,,,,,,,,,og-post,,,,AAXX 08004 07661 32975 03012 10089 20055 30065 40231 58004 333 92428=
07661,1999-12-08 01:00:00,8.5,1022.8,-0.8,77,4.7,,22.224,,,300,,,,,,,,,,,og-post,,,,AAXX 08014 07661 36/// /3012 10085 20047 30062 40228 58008=
07661,1999-12-08 02:00:00,8.7,1022.5,-1.1,80,5.4,,22.224,,,290,,,,,,,,,,,og-post,,,,AAXX 08024 07661 36/// /2912 10087 20054 30059 40225 56011=
07661,1999-12-08 03:00:00,8.6,1022.1,-1,80,5.4,25000,25.928,,,300,,,,,,,,,,,og-post,,,,AAXX 08034 07661 32975 03014 10086 20054 30055 40221 58010 333 92428=
07661,1999-12-08 04:00:00,8.2,1021.5,-1.3,87,6.2,,22.224,,,290,,,,,,,,,,,og-post,,,,AAXX 08044 07661 36/// /2912 10082 20062 30049 40215 58013=
07661,1999-12-08 05:00:00,8,1021.7,-0.9,77,4.2,,29.632,,,280,,,,,,,,,,,og-post,,,,AAXX 08054 07661 36/// /2816 10080 20042 30050 40217 55009=
07661,1999-12-08 09:00:00,9.1,1021.6,0.3,80,5.8,15000,22.224,,,290,,,,,,,,,,,og-post,,,,AAXX 08094 07661 32965 12912 10091 20058 30050 40216 52003 80001 333 92427=
07661,1999-12-08 10:00:00,10.2,1021.7,0.5,73,5.6,,25.928,,,270,,,,,,,,,,,og-post,,,,AAXX 08104 07661 36/// /2714 10102 20056 30052 40217 51005=
07661,1999-12-08 11:00:00,10,1021.7,0.2,72,5.2,,25.928,,,280,,,,,,,,,,,og-post,,,,AAXX 08114 07661 36/// /2814 10100 20052 30052 40217 52002=
07661,1999-12-08 12:00:00,10.4,1021.4,-0.1,65,4.1,15000,29.632,,,290,,,,,,,,,,,og-post,,,,AAXX 08124 07661 32965 12916 10104 20041 30049 40214 58001 80001 333 92427=
07661,1999-12-08 13:00:00,11.1,1020.5,-1.2,58,3.2,,25.928,,,290,,,,,,,,,,,og-post,,,,AAXX 08134 07661 36/// /2914 10111 20032 30040 40205 58012=
07661,1999-12-08 14:00:00,11.3,1020.1,-1.5,60,3.8,,25.928,,,280,,,,,,,,,,,og-post,,,,AAXX 08144 07661 36/// /2814 10113 20038 30037 40201 57015=
07661,1999-12-08 15:00:00,11.1,1020.2,-1.1,69,5.6,18000,22.224,,,290,,,,,,,,,,,og-post,,,,AAXX 08154 07661 32968 12912 10111 20056 30038 40202 55011 80001 333 92427=
07661,1999-12-08 16:00:00,10.4,1020.4,-0.1,77,6.5,,18.52,,,270,,,,,,,,,,,og-post,,,,AAXX 08164 07661 36/// /2710 10104 20065 30039 40204 55001=
07661,1999-12-08 17:00:00,10.2,1020.3,0.1,80,6.9,,11.112,,,300,,,,,,,,,,,og-post,,,,AAXX 08174 07661 36/// /3006 10102 20069 30038 40203 50001=
07661,1999-12-08 18:00:00,10,1020.6,0.3,78,6.3,15000,7.408,,,300,7.3,11.4,,,,,,,,,og-post,,,,AAXX 08184 07661 32965 13004 10100 20063 30041 40206 53003 80001 333 10114 20073 92427=
07661,1999-12-08 19:00:00,9.8,1020.8,0.4,83,7.1,,3.704,,,350,,,,,,,,,,,og-post,,,,AAXX 08194 07661 36/// /3502 10098 20071 30043 40208 53004=
07661,1999-12-08 21:00:00,8.5,1020.8,0.1,82,5.6,,11.112,,,80,,,,,,,,,,,og-post,,,,AAXX 08214 07661 36/// /0806 10085 20056 30042 40208 51001=
07661,1999-12-08 22:00:00,9,1020.5,-0.4,82,6.1,,14.816,,,90,,,,,,,,,,,og-post,,,,AAXX 08224 07661 36/// /0908 10090 20061 30039 40205 58004=
07661,1999-12-08 23:00:00,9.2,1020.1,-0.7,83,6.5,,18.52,,,80,,,,,,,,,,,og-post,,,,AAXX 08234 07661 36/// /0810 10092 20065 30035 40201 58007=
07661,1999-12-09 00:00:00,9.4,1019.2,-1.5,80,6.1,15000,22.224,,,70,,,,,,,,,,,og-post,,,,AAXX 09004 07661 32965 70712 10094 20061 30027 40192 58015 87070 333 92427=
07661,1999-12-09 01:00:00,9,1018.6,-1.8,88,7.1,,14.816,,,70,,,0.2,,,,,,,,og-post,,,,AAXX 09014 07661 26/// /0708 10090 20071 30021 40186 58018 333 69925=
07661,1999-12-09 02:00:00,9.2,1018.1,-1.9,88,7.3,,14.816,,,70,,,,,,,,,,,og-post,,,,AAXX 09024 07661 36/// /0708 10092 20073 30016 40181 56019=
07661,1999-12-09 03:00:00,9.3,1017.8,-1.4,90,7.7,15000,18.52,,,70,,,,0.2,,,,,,,og-post,,,,AAXX 09034 07661 22965 70710 10093 20077 30013 40178 56014 87070 333 69927 92427=
07661,1999-12-09 04:00:00,9.3,1017,-1.6,90,7.7,,18.52,,,70,,,,,,,,,,,og-post,,,,AAXX 09044 07661 36/// /0710 10093 20077 30005 40170 58016=
07661,1999-12-09 05:00:00,9.6,1016.7,-1.4,90,8,,14.816,,,90,,,,,,,,,,,og-post,,,,AAXX 09054 07661 36/// /0908 10096 20080 30002 40167 57014=
07661,1999-12-09 06:00:00,9.3,1016.1,-1.7,91,7.9,15000,22.224,,,70,8.5,10.1,,,,0.2,0.2,,,,og-post,,,,AAXX 09064 07661 12465 70712 10093 20079 39996 40161 56017 69922 875// 333 10101 20085 70002 92427=
07661,1999-12-09 07:00:00,9.4,1015.7,-1.3,95,8.6,,18.52,,,60,,,2,,,,,,,,og-post,,,,AAXX 09074 07661 26/// /0610 10094 20086 39992 40157 58013 333 60025=
07661,1999-12-09 08:00:00,9.3,1015.8,-0.9,96,8.7,,14.816,,,110,,,1,,,,,,,,og-post,,,,AAXX 09084 07661 26/// /1108 10093 20087 39993 40158 55009 333 60015=
07661,1999-12-09 09:00:00,9.4,1015.5,-0.6,97,8.9,8000,25.928,,,70,,,,3,,,,,,60,og-post,,,,AAXX 09094 07661 21458 60714 10094 20089 39990 40155 56006 76066 83371 333 60037 92426=
07661,1999-12-09 10:00:00,10.3,1015.2,-0.4,94,9.4,,18.52,,,70,,,,,,,,,,,og-post,,,,AAXX 09104 07661 26/// /0710 10103 20094 39988 40152 58004 333 69905=
07661,1999-12-09 11:00:00,10.7,1013.9,-1.8,91,9.3,,22.224,,,70,,,,,,,,,,,og-post,,,,AAXX 09114 07661 36/// /0712 10107 20093 39975 40139 58018=
07661,1999-12-09 12:00:00,11.4,1012.6,-2.7,89,9.7,8000,22.224,,,70,,,,,3,,,,,21,og-post,,,,AAXX 09124 07661 /1458 60712 10114 20097 39963 40126 58027 60031 72122 83271 333 69907 92426=
07661,1999-12-09 13:00:00,11.6,1011.8,-3.3,90,10,,18.52,,,70,,,,,,,,,,,og-post,,,,AAXX 09134 07661 36/// /0710 10116 20100 39955 40118 56033=
07661,1999-12-09 14:00:00,11.5,1011,-2.8,90,9.9,,18.52,,,110,,,,,,,,,,,og-post,,,,AAXX 09144 07661 36/// /1110 10115 20099 39947 40110 56028=
07661,1999-12-09 15:00:00,10.9,1010.5,-2.1,93,9.8,8000,7.408,,,110,,,,,,,,,,60,og-post,,,,AAXX 09154 07661 21458 71104 10109 20098 39942 40105 56021 76062 84771 333 69907 92426=
07661,1999-12-09 16:00:00,11.1,1010.3,-1.5,94,10.2,,11.112,,,80,,,,,,,,,,,og-post,,,,AAXX 09164 07661 26/// /0806 10111 20102 39940 40103 56015 333 69905=
07661,1999-12-09 17:00:00,10.3,1009.7,-1.3,93,9.2,,14.816,,,80,,,,,,,,,,,og-post,,,,AAXX 09174 07661 26/// /0808 10103 20092 39934 40097 58013 333 69905=
07661,1999-12-09 18:00:00,10.2,1009.7,-0.8,96,9.6,10000,14.816,,,70,9,11.7,,,,3,,,,1,og-post,,,,AAXX 09184 07661 /1460 50708 10102 20096 39934 40097 56008 60032 70162 85700 333 10117 20090 69907 92437=
07661,1999-12-09 19:00:00,9.9,1009.6,-0.7,96,9.3,,14.816,,,80,,,,,,,,,,,og-post,,,,AAXX 09194 07661 36/// /0808 10099 20093 39933 40096 56007=
07661,1999-12-09 20:00:00,10.1,1009.2,-0.5,96,9.5,,14.816,,,90,,,,,,,,,,,og-post,,,,AAXX 09204 07661 36/// /0908 10101 20095 39929 40092 58005=
07661,1999-12-09 21:00:00,9.7,1008.6,-1.1,96,9.1,10000,18.52,,,70,,,,,,,,,,,og-post,,,,AAXX 09214 07661 32460 50710 10097 20091 39923 40086 58011 85700 333 92437=
07661,1999-12-09 22:00:00,9.8,1008,-1.6,97,9.3,,11.112,,,180,,,2,,,,,,,,og-post,,,,AAXX 09224 07661 26/// /1806 10098 20093 39917 40080 58016 333 60025=
07661,1999-12-09 23:00:00,10.3,1007.6,-1.6,90,8.7,,22.224,,,260,,,,,,,,,,,og-post,,,,AAXX 09234 07661 26/// /2612 10103 20087 39913 40076 56016 333 69905=
07661,1999-12-10 00:00:00,10.7,1006.9,-1.6,88,8.8,6000,18.52,,,270,,,,2,2,,,,,60,og-post,,,,AAXX 10004 07661 /1456 62710 10107 20088 39907 40069 57016 60021 76062 86700 333 60027 92436=
07661,1999-12-10 01:00:00,10,1006.3,-1.7,94,9.1,,11.112,,,340,,,0.2,,,,,,,,og-post,,,,AAXX 10014 07661 26/// /3406 10100 20091 39900 40063 58017 333 69925=
07661,1999-12-10 02:00:00,8.9,1006.2,-1.4,94,8,,35.188,,,310,,,0.6,,,,,,,,og-post,,,,AAXX 10024 07661 26/// /3119 10089 20080 39899 40062 56014 333 69965=
07661,1999-12-10 04:00:00,8.5,1005.4,-1,87,6.5,,38.892,,,300,,,,,,,,,,,og-post,,,,AAXX 10044 07661 26/// /3021 10085 20065 39890 40054 58010 333 69905=
07661,1999-12-10 05:00:00,8.2,1005.5,-0.8,86,6,,31.484,,,300,,,,,,,,,,,og-post,,,,AAXX 10054 07661 36/// /3017 10082 20060 39891 40055 55008=
07661,1999-12-10 06:00:00,8.1,1005.6,-0.4,81,5,8000,35.188,,,300,8.1,10.8,,,,3,6.2,,,2,og-post,,,,AAXX 10064 07661 /1458 83019 10081 20050 39892 40056 55004 60032 70262 88700 333 10108 20081 69907 70062 92436=
07661,1999-12-10 07:00:00,8,1005.5,0.1,79,4.6,,42.596,,,310,,,,,,,,,,,og-post,,,,AAXX 10074 07661 36/// /3123 10080 20046 39891 40055 50001=
07661,1999-12-10 08:00:00,8.1,1005.7,0.2,76,4.1,,38.892,,,300,,,,,,,,,,,og-post,,,,AAXX 10084 07661 36/// /3021 10081 20041 39893 40057 53002=
07661,1999-12-10 09:00:00,8.4,1005.7,0.1,74,4,,42.596,64.82,64.82,310,,,,,,,,,,,og-post,,,,AAXX 10094 07661 36/// /3123 10084 20040 39893 40057 53001 333 91035 91135=
07661,1999-12-10 10:00:00,9.3,1006.1,0.7,67,3.5,,42.596,,,300,,,,,,,,,,,og-post,,,,AAXX 10104 07661 36/// /3023 10093 20035 39898 40061 53007=
07661,1999-12-10 11:00:00,10,1005.9,0.3,59,2.4,,50.004,75.932,75.932,310,,,,,,,,,,,og-post,,,,AAXX 10114 07661 36/// /3127 10100 20024 39896 40059 50003 333 91041 91141=
07661,1999-12-10 12:00:00,10.4,1005.9,0.3,62,3.4,40000,42.596,75.932,,310,,,,,,,,,,,og-post,,,,AAXX 10124 07661 32582 23123 10104 20034 39896 40059 51003 81102 333 91141 92458=
07661,1999-12-10 13:00:00,10.9,1005.6,-0.4,53,1.7,,46.3,75.932,75.932,310,,,,,,,,,,,og-post,,,,AAXX 10134 07661 36/// /3125 10109 20017 39894 40056 57004 333 91041 91141=
07661,1999-12-10 14:00:00,10.4,1005.8,-0.1,51,0.7,,50.004,75.932,72.228,300,,,,,,,,,,,og-post,,,,AAXX 10144 07661 36/// /3027 10104 20007 39895 40058 55001 333 91039 91141=
07661,1999-12-10 15:00:00,10.1,1006.4,0.5,51,0.4,40000,50.004,79.636,79.636,310,,,,,,,,,,,og-post,,,,AAXX 10154 07661 32582 33127 10101 20004 39901 40064 53005 82102 333 91043 91143 92458=
07661,1999-12-10 16:00:00,9.6,1006.4,0.7,46,-1.4,,57.412,79.636,79.636,310,,,,,,,,,,,og-post,,,,AAXX 10164 07661 36/// /3131 10096 21014 39901 40064 51007 333 91043 91143=
07661,1999-12-10 17:00:00,9.3,1006.6,0.7,42,-2.9,,57.412,79.636,79.636,310,,,,,,,,,,,og-post,,,,AAXX 10174 07661 36/// /3131 10093 21029 39902 40066 51007 333 91043 91143=
07661,1999-12-10 18:00:00,8.9,1007.4,0.9,44,-2.7,40000,35.188,79.636,53.708,310,7.9,10.9,,,,,,,,,og-post,,,,AAXX 10184 07661 32982 03119 10089 21027 39910 40074 53009 333 10109 20079 91029 91143 92458=
07661,1999-12-10 19:00:00,8.7,1007.8,1.3,42,-3.5,,46.3,79.636,64.82,310,,,,,,,,,,,og-post,,,,AAXX 10194 07661 36/// /3125 10087 21035 39914 40078 53013 333 91035 91143=
07661,1999-12-10 20:00:00,8.6,1008.1,1.5,38,-4.9,,46.3,68.524,,300,,,,,,,,,,,og-post,,,,AAXX 10204 07661 36/// /3025 10086 21049 39917 40081 51015 333 91137=
07661,1999-12-10 21:00:00,8.2,1008.8,1.3,41,-4.2,25000,50.004,79.636,72.228,300,,,,,,,,,,,og-post,,,,AAXX 10214 07661 32975 03027 10082 21042 39923 40088 53013 333 91039 91143 92458=
07661,1999-12-10 22:00:00,7.7,1009.6,1.7,46,-3.2,,25.928,79.636,,290,,,,,,,,,,,og-post,,,,AAXX 10224 07661 36/// /2914 10077 21032 39931 40096 53017 333 91143=
07661,1999-12-10 23:00:00,7.7,1009.9,1.7,46,-3.2,,29.632,,,280,,,,,,,,,,,og-post,,,,AAXX 10234 07661 36/// /2816 10077 21032 39934 40099 51017=
07661,1999-12-11 00:00:00,7.9,1009.5,0.7,45,-3.3,25000,42.596,79.636,64.82,310,,,,,,,,,,,og-post,,,,AAXX 11004 07661 32975 03123 10079 21033 39930 40095 50007 333 91035 91143 92458=
07661,1999-12-11 01:00:00,7.7,1009.2,-0.4,49,-2.3,,53.708,,,300,,,,,,,,,,,og-post,,,,AAXX 11014 07661 36/// /3029 10077 21023 39927 40092 58004=
07661,1999-12-11 02:00:00,7.5,1010,0.1,54,-1.2,,57.412,,,300,,,,,,,,,,,og-post,,,,AAXX 11024 07661 36/// /3031 10075 21012 39935 40100 53001=
07661,1999-12-11 03:00:00,7.7,1010.3,0.8,51,-1.8,25000,35.188,,,300,,,,,,,,,,,og-post,,,,AAXX 11034 07661 32975 03019 10077 21018 39938 40103 53008 333 92458=
07661,1999-12-11 04:00:00,7.7,1010.7,1.5,49,-2.3,,38.892,64.82,61.116,270,,,,,,,,,,,og-post,,,,AAXX 11044 07661 36/// /2721 10077 21023 39942 40107 51015 333 91033 91135=
07661,1999-12-11 05:00:00,8.3,1010.3,0.3,47,-2.3,,53.708,75.932,,300,,,,,,,,,,,og-post,,,,AAXX 11054 07661 36/// /3029 10083 21023 39938 40103 50003 333 91141=
07661,1999-12-11 06:00:00,8.4,1010.8,0.5,45,-2.8,25000,50.004,,,300,7.4,9,,,,,0,,,,og-post,,,,AAXX 11064 07661 32975 23027 10084 21028 39943 40108 53005 82040 333 10090 20074 70000 92458=
07661,1999-12-11 07:00:00,8.3,1011.5,0.8,52,-1,,46.3,,,310,,,,,,,,,,,og-post,,,,AAXX 11074 07661 36/// /3125 10083 21010 39950 40115 53008=
07661,1999-12-11 08:00:00,8.3,1012.3,2,56,0.1,,31.484,,,300,,,,,,,,,,,og-post,,,,AAXX 11084 07661 36/// /3017 10083 20001 39958 40123 53020=
07661,1999-12-11 09:00:00,9.4,1012.6,1.9,54,0.6,25000,42.596,,,300,,,,,,,,,,,og-post,,,,AAXX 11094 07661 32475 73023 10094 20006 39962 40126 51019 8327/ 333 92458=
07661,1999-12-11 10:00:00,10.4,1013.1,1.7,63,3.7,,31.484,,,280,,,,,,,,,,,og-post,,,,AAXX 11104 07661 36/// /2817 10104 20037 39967 40131 51017=
07661,1999-12-11 11:00:00,11,1012.5,0.4,69,5.5,,35.188,,,290,,,,,,,,,,,og-post,,,,AAXX 11114 07661 36/// /2919 10110 20055 39962 40125 50004=
07661,1999-12-11 12:00:00,12,1012.3,-0.2,71,6.9,30000,29.632,,,290,,,,,,,,,,,og-post,,,,AAXX 11124 07661 32580 62916 10120 20069 39960 40123 58002 83432 333 92458=
07661,1999-12-11 13:00:00,12.6,1011.8,-1.1,74,8.1,,35.188,61.116,61.116,300,,,,,,,,,,,og-post,,,,AAXX 11134 07661 36/// /3019 10126 20081 39956 40118 56011 333 91033 91133=
07661,1999-12-11 14:00:00,12.7,1011.8,-0.6,75,8.4,,46.3,,,300,,,,,,,,,,,og-post,,,,AAXX 11144 07661 36/// /3025 10127 20084 39956 40118 56006=
07661,1999-12-11 15:00:00,12.7,1012.2,-0,74,8.2,20000,50.004,,,310,,,,,,,,,,,og-post,,,,AAXX 11154 07661 32570 63127 10127 20082 39960 40122 55000 83140 333 92458=
07661,1999-12-11 16:00:00,12.3,1012.6,0.8,78,8.6,,46.3,,,310,,,,,,,,,,,og-post,,,,AAXX 11164 07661 36/// /3125 10123 20086 39964 40126 53008=
07661,1999-12-11 17:00:00,12.1,1013.2,1.3,78,8.4,,46.3,,,310,,,,,,,,,,,og-post,,,,AAXX 11174 07661 36/// /3125 10121 20084 39969 40132 53013=
07661,1999-12-11 18:00:00,11.7,1013.6,1.3,80,8.4,20000,38.892,,,300,8.3,12.7,,,,,,,,,og-post,,,,AAXX 11184 07661 32870 83021 10117 20084 39973 40136 52013 8801/ 333 10127 20083 92458=
07661,1999-12-11 19:00:00,12.2,1013.6,0.9,76,8.1,,50.004,68.524,,300,,,,,,,,,,,og-post,,,,AAXX 11194 07661 36/// /3027 10122 20081 39973 40136 51009 333 91137=
07661,1999-12-11 20:00:00,12,1014,0.8,75,7.7,,31.484,,,300,,,,,,,,,,,og-post,,,,AAXX 11204 07661 36/// /3017 10120 20077 39977 40140 52008=
07661,1999-12-11 21:00:00,12,1014.1,0.5,75,7.7,20000,31.484,68.524,,290,,,,,,,,,,,og-post,,,,AAXX 11214 07661 32870 72917 10120 20077 39978 40141 53005 8701/ 333 91137 92458=
07661,1999-12-11 22:00:00,11.9,1014,0.4,74,7.4,,35.188,,,300,,,,,,,,,,,og-post,,,,AAXX 11224 07661 36/// /3019 10119 20074 39977 40140 50004=
07661,1999-12-12 00:00:00,11.7,1013.3,-0.8,74,7.2,20000,31.484,68.524,,310,,,,,,,,,,,og-post,,,,AAXX 12004 07661 32570 13117 10117 20072 39970 40133 58008 81100 333 91137 92448=
07661,1999-12-12 01:00:00,11.6,1013.1,-0.9,75,7.3,,18.52,,,250,,,,,,,,,,,og-post,,,,AAXX 12014 07661 36/// /2510 10116 20073 39968 40131 57009=
07661,1999-12-12 02:00:00,11.3,1012.8,-1,76,7.2,,3.704,,,320,,,,,,,,,,,og-post,,,,AAXX 12024 07661 36/// /3202 10113 20072 39965 40128 56010=
07661,1999-12-12 03:00:00,11.4,1012.4,-0.9,76,7.3,20000,18.52,,,280,,,,,,,,,,,og-post,,,,AAXX 12034 07661 32970 22810 10114 20073 39961 40124 58009 82020 333 92448=
07661,1999-12-12 04:00:00,11.7,1011.7,-1.4,75,7.4,,25.928,,,290,,,,,,,,,,,og-post,,,,AAXX 12044 07661 36/// /2914 10117 20074 39954 40117 58014=
07661,1999-12-12 05:00:00,12.2,1011.1,-1.6,82,9.2,,22.224,,,280,,,,,,,,,,,og-post,,,,AAXX 12054 07661 36/// /2812 10122 20092 39949 40111 58016=
07661,1999-12-12 06:00:00,12.1,1011.2,-1.1,82,9.1,,14.816,,,280,11.3,12.3,,,,,,,,,og-post,,,,AAXX 12064 07661 36/// /2808 10121 20091 39950 40112 55011 333 10123 20113 70000=
07661,1999-12-12 08:00:00,12.2,1011.1,-0,86,9.9,,7.408,,,260,,,,,,,,,,,og-post,,,,AAXX 12084 07661 36/// /2604 10122 20099 39949 40111 55000=
07661,1999-12-12 09:00:00,12.7,1010.3,-0.9,86,10.4,,,,,,,,,,,,,,,,og-post,,,,AAXX 12094 07661 36/// /0000 10127 20104 39941 40103 58009=
07661,1999-12-12 10:00:00,12.8,1010.1,-0.8,86,10.5,,3.704,,,10,,,,,,,,,,,og-post,,,,AAXX 12104 07661 36/// /0102 10128 20105 39939 40101 58008=
07661,1999-12-12 11:00:00,13.4,1008.7,-2.3,82,10.4,,3.704,,,100,,,,,,,,,,,og-post,,,,AAXX 12114 07661 36/// /1002 10134 20104 39926 40087 58023=
07661,1999-12-12 12:00:00,13.4,1008.2,-2,79,9.8,15000,,,,,,,,,,,,,,,og-post,,,,AAXX 12124 07661 32465 70000 10134 20098 39921 40082 58020 875// 333 92437=
07661,1999-12-12 13:00:00,13.5,1008.8,-1.2,78,9.7,,31.484,,,300,,,,,,,,,,,og-post,,,,AAXX 12134 07661 36/// /3017 10135 20097 39927 40088 55012=
07661,1999-12-12 14:00:00,14.8,1007.5,-1.1,60,7.1,,31.484,57.412,57.412,300,,,,,,,,,,,og-post,,,,AAXX 12144 07661 36/// /3017 10148 20071 39915 40075 58011 333 91031 91131=
07661,1999-12-12 15:00:00,14,1007.7,-0.5,57,5.6,25000,50.004,75.932,,300,,,,,,,,,,,og-post,,,,AAXX 12154 07661 32575 43027 10140 20056 39916 40077 58005 84500 333 91141 92438=
07661,1999-12-12 16:00:00,13.5,1008.6,-0.2,59,5.7,,42.596,,,300,,,,,,,,,,,og-post,,,,AAXX 12164 07661 36/// /3023 10135 20057 39925 40086 55002=
07661,1999-12-12 17:00:00,12.9,1009.3,1.6,55,4.1,,46.3,68.524,,310,,,,,,,,,,,og-post,,,,AAXX 12174 07661 36/// /3125 10129 20041 39931 40093 53016 333 91137=
07661,1999-12-12 19:00:00,11.8,1012.2,3.4,57,3.6,,50.004,83.34,,300,,,,,,,,,,,og-post,,,,AAXX 12194 07661 36/// /3027 10118 20036 39959 40122 53034 333 91145=
07661,1999-12-12 20:00:00,10.9,1013.2,3.7,59,3.2,,42.596,72.228,64.82,300,,,,,,,,,,,og-post,,,,AAXX 12204 07661 36/// /3023 10109 20032 39968 40132 51037 333 91035 91139=
07661,1999-12-12 21:00:00,10.6,1014,3.3,57,2.4,25000,42.596,83.34,,300,,,,,,,,,,,og-post,,,,AAXX 12214 07661 32975 03023 10106 20024 39976 40140 51033 333 91145 92448=
07661,1999-12-12 22:00:00,10.3,1014.2,1.9,57,2.2,,50.004,79.636,,310,,,,,,,,,,,og-post,,,,AAXX 12224 07661 36/// /3127 10103 20022 39978 40142 51019 333 91143=
07661,1999-12-12 23:00:00,9.7,1014.5,1.3,62,2.8,,35.188,,57.412,310,,,,,,,,,,,og-post,,,,AAXX 12234 07661 36/// /3119 10097 20028 39981 40145 51013 333 91031=
07661,1999-12-13 00:00:00,9.5,1014.8,0.7,66,3.5,25000,38.892,83.34,61.116,310,,,,,,,,,,,og-post,,,,AAXX 13004 07661 32975 03121 10095 20035 39983 40148 52007 333 91033 91145 92448=
07661,1999-12-13 01:00:00,9.2,1014.9,0.6,68,3.6,,42.596,72.228,,310,,,,,,,,,,,og-post,,,,AAXX 13014 07661 36/// /3123 10092 20036 39984 40149 51006 333 91139=
07661,1999-12-13 02:00:00,8.9,1015.5,0.9,67,3.1,,50.004,,,300,,,,,,,,,,,og-post,,,,AAXX 13024 07661 36/// /3027 10089 20031 39990 40155 53009=
07661,1999-12-13 03:00:00,8.4,1016.4,1.5,66,2.4,,35.188,72.228,,300,,,,,,,,,,,og-post,,,,AAXX 13034 07661 36/// /3019 10084 20024 39998 40164 53015 333 91139=
07661,1999-12-13 04:00:00,8.2,1016.5,1.5,63,1.6,,46.3,,,300,,,,,,,,,,,og-post,,,,AAXX 13044 07661 36/// /3025 10082 20016 39999 40165 51015=
07661,1999-12-13 05:00:00,7.8,1016.8,1.2,62,1,,53.708,,,300,,,,,,,,,,,og-post,,,,AAXX 13054 07661 36/// /3029 10078 20010 30002 40168 51012=
07661,1999-12-13 06:00:00,8,1017.9,1.5,58,0.3,25000,38.892,72.228,61.116,300,7.8,12.4,,,,,0,,,,og-post,,,,AAXX 13064 07661 32975 03021 10080 20003 30013 40179 53015 333 10124 20078 70000 91033 91139 92448=
07661,1999-12-13 07:00:00,7.9,1018.3,1.8,55,-0.6,,46.3,,64.82,300,,,,,,,,,,,og-post,,,,AAXX 13074 07661 36/// /3025 10079 21006 30017 40183 53018 333 91035=
07661,1999-12-13 08:00:00,8.1,1018.8,2,53,-0.9,,50.004,68.524,,300,,,,,,,,,,,og-post,,,,AAXX 13084 07661 36/// /3027 10081 21009 30022 40188 51020 333 91137=
07661,1999-12-13 09:00:00,8.5,1019.4,1.5,51,-1,25000,46.3,68.524,,300,,,,,,,,,,,og-post,,,,AAXX 13094 07661 32575 13025 10085 21010 30028 40194 53015 81130 333 91137 92448=
07661,1999-12-13 10:00:00,9.1,1019.3,1,48,-1.3,,53.708,,,300,,,,,,,,,,,og-post,,,,AAXX 13104 07661 36/// /3029 10091 21013 30027 40193 50010=
07661,1999-12-13 11:00:00,9.6,1019,0.3,48,-0.9,,50.004,79.636,75.932,300,,,,,,,,,,,og-post,,,,AAXX 13114 07661 36/// /3027 10096 21009 30025 40190 50003 333 91041 91143=
07661,1999-12-13 12:00:00,10.4,1018.9,-0.4,46,-0.7,25000,35.188,79.636,57.412,310,,,,,,,,,,,og-post,,,,AAXX 13124 07661 32575 13119 10104 21007 30024 40189 57004 81130 333 91031 91143 92448=
07661,1999-12-13 13:00:00,10.5,1018.5,-0.7,45,-0.9,,38.892,68.524,,300,,,,,,,,,,,og-post,,,,AAXX 13134 07661 36/// /3021 10105 21009 30020 40185 58007 333 91137=
07661,1999-12-13 14:00:00,10.4,1018.3,-0.7,44,-1.3,,42.596,57.412,,300,,,,,,,,,,,og-post,,,,AAXX 13144 07661 36/// /3023 10104 21013 30018 40183 58007 333 91131=
07661,1999-12-13 15:00:00,10.1,1018.4,-0.5,48,-0.4,,38.892,68.524,,300,,,,,,,,,,,og-post,,,,AAXX 13154 07661 36/// /3021 10101 21004 30019 40184 55005 333 91137=
07661,1999-12-13 16:00:00,9.6,1018.6,0.1,52,0.2,,31.484,,,300,,,,,,,,,,,og-post,,,,AAXX 13164 07661 36/// /3017 10096 20002 30021 40186 53001=
07661,1999-12-13 17:00:00,9,1018.7,0.3,56,0.7,,29.632,,,320,,,,,,,,,,,og-post,,,,AAXX 13174 07661 36/// /3216 10090 20007 30021 40187 51003=
07661,1999-12-13 18:00:00,8.6,1018.6,0.1,56,0.3,15000,22.224,68.524,,310,7.8,10.6,,,,,,,,,og-post,,,,AAXX 13184 07661 32565 63112 10086 20003 30020 40186 50001 81141 333 10106 20078 91137 92447=
07661,1999-12-13 19:00:00,8.4,1018.4,-0.3,60,1.1,,25.928,,,300,,,,,,,,,,,og-post,,,,AAXX 13194 07661 36/// /3014 10084 20011 30018 40184 58003=
07661,1999-12-13 20:00:00,8.4,1018.7,-0,63,1.8,,22.224,,,300,,,,,,,,,,,og-post,,,,AAXX 13204 07661 36/// /3012 10084 20018 30021 40187 55000=
07661,1999-12-13 21:00:00,8.6,1018,-0.6,63,2,20000,25.928,,,300,,,,,,,,,,,og-post,,,,AAXX 13214 07661 32870 43014 10086 20020 30014 40180 58006 84030 333 92438=
07661,1999-12-13 22:00:00,8.6,1017.7,-0.7,65,2.4,,18.52,,,300,,,,,,,,,,,og-post,,,,AAXX 13224 07661 36/// /3010 10086 20024 30011 40177 58007=
07661,1999-12-13 23:00:00,8.4,1017,-1.7,64,2,,18.52,,,300,,,,,,,,,,,og-post,,,,AAXX 13234 07661 36/// /3010 10084 20020 30004 40170 57017=
07661,1999-12-14 00:00:00,9,1015.9,-2,67,3.2,10000,18.52,,,300,,,,,,,,,,,og-post,,,,AAXX 14004 07661 32860 43010 10090 20032 39994 40159 58020 84030 333 92437=
07661,1999-12-14 01:00:00,9.5,1014.7,-2.9,71,4.5,,14.816,,,300,,,,,,,,,,,og-post,,,,AAXX 14014 07661 36/// /3008 10095 20045 39982 40147 58029=
07661,1999-12-14 02:00:00,9.4,1013.7,-3.1,84,6.8,,14.816,,,270,,,,,,,,,,,og-post,,,,AAXX 14024 07661 36/// /2708 10094 20068 39973 40137 56031=
07661,1999-12-14 03:00:00,10.6,1012.2,-3.5,83,7.8,10000,18.52,,,250,,,,,,,,,,,og-post,,,,AAXX 14034 07661 32860 42510 10106 20078 39959 40122 58035 84030 333 92437=
07661,1999-12-14 04:00:00,11.1,1011.1,-3.4,74,6.6,,18.52,,,250,,,,,,,,,,,og-post,,,,AAXX 14044 07661 36/// /2510 10111 20066 39948 40111 58034=
07661,1999-12-14 05:00:00,11.2,1010.2,-3.4,76,7.1,,18.52,,,260,,,,,,,,,,,og-post,,,,AAXX 14054 07661 36/// /2610 10112 20071 39939 40102 56034=
07661,1999-12-14 06:00:00,11.1,1009.9,-2.3,81,8,15000,11.112,,,250,8.3,11.3,,,,,0,,,,og-post,,,,AAXX 14064 07661 32565 62506 10111 20080 39936 40099 56023 86200 333 10113 20083 70000 92437=
07661,1999-12-14 07:00:00,10.8,1009.4,-1.7,81,7.7,,7.408,,,250,,,,,,,,,,,og-post,,,,AAXX 14074 07661 36/// /2504 10108 20077 39931 40094 56017=
07661,1999-12-14 08:00:00,9.5,1008.4,-1.8,86,7.3,,7.408,,,80,,,,,,,,,,,og-post,,,,AAXX 14084 07661 36/// /0804 10095 20073 39921 40084 58018=
07661,1999-12-14 09:00:00,10.4,1007.9,-2,85,8,18000,,,,,,,,,,,,,,,og-post,,,,AAXX 14094 07661 32568 80000 10104 20080 39916 40079 57020 8152/ 333 92437=
07661,1999-12-14 10:00:00,11.1,1007.1,-2.2,82,8.1,,7.408,,,60,,,,,,,,,,,og-post,,,,AAXX 14104 07661 36/// /0604 10111 20081 39909 40071 56022=
07661,1999-12-14 11:00:00,11.9,1006.4,-1.9,79,8.4,,7.408,,,310,,,,,,,,,,,og-post,,,,AAXX 14114 07661 36/// /3104 10119 20084 39902 40064 58019=
07661,1999-12-14 12:00:00,12.7,1005.1,-2.6,77,8.8,15000,14.816,,,290,,,,,,,,,,,og-post,,,,AAXX 14124 07661 32565 82908 10127 20088 39890 40051 58026 8152/ 333 92420=
07661,1999-12-14 13:00:00,12.7,1004.3,-2.7,78,9,,22.224,,,290,,,,,,,,,,,og-post,,,,AAXX 14134 07661 36/// /2912 10127 20090 39882 40043 58027=
07661,1999-12-14 14:00:00,12.3,1003.4,-2.9,72,7.4,,22.224,,,290,,,,,,,,,,,og-post,,,,AAXX 14144 07661 36/// /2912 10123 20074 39873 40034 56029=
07661,1999-12-14 15:00:00,12,1003,-2.1,69,6.5,10000,25.928,,,300,,,,,,,,,,21,og-post,,,,AAXX 14154 07661 21860 73014 10120 20065 39869 40030 56021 72162 8507/ 333 69907 92420=
07661,1999-12-14 16:00:00,11.4,1002.6,-1.7,72,6.5,,18.52,,,300,,,,,,,,,,,og-post,,,,AAXX 14164 07661 36/// /3010 10114 20065 39865 40026 56017=
07661,1999-12-14 17:00:00,11.2,1002.7,-0.8,70,5.9,,22.224,,,300,,,,,,,,,,,og-post,,,,AAXX 14174 07661 36/// /3012 10112 20059 39865 40027 56008=
07661,1999-12-14 19:00:00,10.5,1002.8,0.1,75,6.3,,29.632,50.004,,300,,,,,,,,,,,og-post,,,,AAXX 14194 07661 36/// /3016 10105 20063 39866 40028 53001 333 91127=
07661,1999-12-14 20:00:00,10.2,1002.3,-0.4,76,6.2,,29.632,,,300,,,,,,,,,,,og-post,,,,AAXX 14204 07661 36/// /3016 10102 20062 39861 40023 58004=
07661,1999-12-14 21:00:00,10,1001.5,-1.2,77,6.2,15000,22.224,50.004,,300,,,,,,,,,,,og-post,,,,AAXX 14214 07661 32865 83012 10100 20062 39853 40015 58012 8802/ 333 91127 92437=
07661,1999-12-14 22:00:00,10,1001.4,-1.4,77,6.2,,25.928,,,290,,,,,,,,,,,og-post,,,,AAXX 14224 07661 36/// /2914 10100 20062 39852 40014 56014=
07661,1999-12-14 23:00:00,10,1001.1,-1.2,76,6,,29.632,,,290,,,,,,,,,,,og-post,,,,AAXX 14234 07661 36/// /2916 10100 20060 39849 40011 56012=
07661,1999-12-15 00:00:00,9.8,1000.5,-1,75,5.6,12000,22.224,50.004,,290,,,,,,,,,,,og-post,,,,AAXX 15004 07661 32862 82912 10098 20056 39843 40005 58010 8802/ 333 91127 92437=
07661,1999-12-15 02:00:00,9.8,999.2,-1.9,75,5.6,,25.928,,,290,,,,,,,,,,,og-post,,,,AAXX 15024 07661 36/// /2914 10098 20056 39830 49992 56019=
07661,1999-12-15 03:00:00,9.6,998.6,-1.9,73,5,,25.928,,,300,,,,,,,,,,,og-post,,,,AAXX 15034 07661 26/// /3014 10096 20050 39824 49986 56019 333 69907=
07661,1999-12-15 04:00:00,9.4,998.1,-1.6,77,5.6,,25.928,,,290,,,,,,,,,,,og-post,,,,AAXX 15044 07661 36/// /2914 10094 20056 39819 49981 57016=
07661,1999-12-15 05:00:00,9.5,998,-1.2,74,5.1,,29.632,,,300,,,,,,,,,,,og-post,,,,AAXX 15054 07661 36/// /3016 10095 20051 39818 49980 56012=
07661,1999-12-15 06:00:00,9.6,997.8,-0.8,67,3.8,20000,25.928,,,300,9.3,11.1,,,,,0,,,,og-post,,,,AAXX 15064 07661 12870 83014 10096 20038 39816 49978 56008 69902 8802/ 333 10111 20093 79999 92438=
07661,1999-12-15 07:00:00,9.7,997.8,-0.3,65,3.4,,31.484,,,300,,,,,,,,,,,og-post,,,,AAXX 15074 07661 36/// /3017 10097 20034 39816 49978 56003=
07661,1999-12-15 08:00:00,9.4,998,-0,64,2.9,,31.484,,,300,,,,,,,,,,,og-post,,,,AAXX 15084 07661 36/// /3017 10094 20029 39818 49980 55000=
07661,1999-12-15 09:00:00,9.2,998.5,0.7,59,1.6,20000,29.632,,,300,,,,,,,,,,,og-post,,,,AAXX 15094 07661 32870 83016 10092 20016 39823 49985 53007 8801/ 333 92438=
07661,1999-12-15 11:00:00,7.8,998.6,0.5,66,1.9,,35.188,,,300,,,,,,,,,,,og-post,,,,AAXX 15114 07661 36/// /3019 10078 20019 39823 49986 50005=
07661,1999-12-15 12:00:00,8.5,998.4,-0.2,58,0.7,18000,35.188,50.004,,300,,,,,,,,,,,og-post,,,,AAXX 15124 07661 32868 83019 10085 20007 39821 49984 58002 8801/ 333 91127 92437=
07661,1999-12-15 13:00:00,8.7,998.1,-0.7,50,-1.1,,38.892,,,310,,,,,,,,,,,og-post,,,,AAXX 15134 07661 36/// /3121 10087 21011 39819 49981 56007=
07661,1999-12-15 14:00:00,8.8,998.2,-0.3,47,-1.9,,42.596,,,310,,,,,,,,,,,og-post,,,,AAXX 15144 07661 36/// /3123 10088 21019 39820 49982 55003=
07661,1999-12-15 15:00:00,8,998.9,0.5,52,-1.2,25000,42.596,,,300,,,,,,,,,,,og-post,,,,AAXX 15154 07661 32875 53023 10080 21012 39826 49989 53005 8503/ 333 92448=
07661,1999-12-15 16:00:00,6.9,999.1,0.8,52,-2.3,,42.596,64.82,,310,,,,,,,,,,,og-post,,,,AAXX 15164 07661 36/// /3123 10069 21023 39827 49991 52008 333 91135=
07661,1999-12-15 18:00:00,5.6,1000,0.9,53,-3.2,20000,50.004,,,310,5.6,9.7,,,,,,,,,og-post,,,,AAXX 15184 07661 32870 33127 10056 21032 39835 40000 53009 8303/ 333 10097 20056 92448=
07661,1999-12-15 19:00:00,5.1,1000,0.8,53,-3.7,,46.3,,,310,,,,,,,,,,,og-post,,,,AAXX 15194 07661 36/// /3125 10051 21037 3983 40000 51008=
07661,1999-12-15 20:00:00,4.7,999.9,0.3,52,-4.3,,46.3,68.524,68.524,310,,,,,,,,,,,og-post,,,,AAXX 15204 07661 36/// /3125 10047 21043 39834 49999 50003 333 91037 91137=
07661,1999-12-15 21:00:00,4.3,1000.4,0.4,55,-3.9,25000,46.3,68.524,,310,,,,,,,,,,,og-post,,,,AAXX 15214 07661 32875 23125 10043 21039 39839 40004 53004 82030 333 91137 92448=
07661,1999-12-15 22:00:00,4.2,1001,0.9,55,-4,,42.596,,,310,,,,,,,,,,,og-post,,,,AAXX 15224 07661 36/// /3123 10042 21040 39844 40010 53009=
07661,1999-12-15 23:00:00,4,1001.6,1.6,54,-4.4,,35.188,,,300,,,,,,,,,,,og-post,,,,AAXX 15234 07661 36/// /3019 10040 21044 39850 40016 53016=
07661,1999-12-16 00:00:00,3.8,1002.2,1.7,51,-5.4,25000,42.596,68.524,,300,,,,,,,,,,,og-post,,,,AAXX 16004 07661 32975 03023 10038 21054 39856 40022 53017 333 91137 92448=
07661,1999-12-16 01:00:00,3.1,1002.8,1.7,56,-4.8,,38.892,,,310,,,,,,,,,,,og-post,,,,AAXX 16014 07661 36/// /3121 10031 21048 39861 40028 51017=
07661,1999-12-16 02:00:00,2.6,1003.7,2,60,-4.4,,35.188,,,300,,,,,,,,,,,og-post,,,,AAXX 16024 07661 36/// /3019 10026 21044 39870 40037 53020=
07661,1999-12-16 03:00:00,2.4,1003.7,1.4,62,-4.1,25000,29.632,,,310,,,,,,,,,,,og-post,,,,AAXX 16034 07661 32975 03116 10024 21041 39870 40037 51014 333 92448=
07661,1999-12-16 04:00:00,2.3,1003.6,0.8,64,-3.8,,35.188,,,310,,,,,,,,,,,og-post,,,,AAXX 16044 07661 36/// /3119 10023 21038 39869 40036 50008=
07661,1999-12-16 05:00:00,2,1003.9,0.2,66,-3.7,,35.188,,,300,,,,,,,,,,,og-post,,,,AAXX 16054 07661 36/// /3019 10020 21037 39872 40039 53002=
07661,1999-12-16 06:00:00,2,1004.6,0.8,68,-3.3,,35.188,,,300,1.9,5.6,,,,,,,,,og-post,,,,AAXX 16064 07661 36/// /3019 10020 21033 39878 40046 53008 333 10056 20019 70000=
07661,1999-12-16 07:00:00,1.9,1005.4,1.7,67,-3.6,,31.484,,,300,,,,,,,,,,,og-post,,,,AAXX 16074 07661 36/// /3017 10019 21036 39886 40054 53017=
07661,1999-12-16 08:00:00,2.2,1006.3,2.3,67,-3.3,,18.52,,,290,,,,,,,,,,,og-post,,,,AAXX 16084 07661 36/// /2910 10022 21033 39895 40063 53023=
07661,1999-12-16 09:00:00,3.4,1007.3,2.8,62,-3.2,,7.408,,,290,,,,,,,,,,,og-post,,,,AAXX 16094 07661 36/// /2904 10034 21032 39906 40073 53028=
07661,1999-12-16 10:00:00,5.4,1008,2.8,56,-2.7,,3.704,,,70,,,,,,,,,,,og-post,,,,AAXX 16104 07661 36/// /0702 10054 21027 39914 40080 51028=
07661,1999-12-16 11:00:00,6,1008.2,2.1,57,-1.9,,18.52,,,60,,,,,,,,,,,og-post,,,,AAXX 16114 07661 36/// /0610 10060 21019 39916 40082 51021=
07661,1999-12-16 12:00:00,6.2,1008.7,1.5,56,-1.9,25000,14.816,,,40,,,,,,,,,,,og-post,,,,AAXX 16124 07661 32575 70408 10062 21019 39921 40087 51015 875// 333 92438=
07661,1999-12-16 13:00:00,5.8,1009.5,1.5,71,1,,38.892,,,60,,,,,,,,,,,og-post,,,,AAXX 16134 07661 26/// /0621 10058 20010 39929 40095 53015 333 69905=
07661,1999-12-16 14:00:00,6.1,1010,1.8,67,0.4,,25.928,,,60,,,,,,,,,,,og-post,,,,AAXX 16144 07661 26/// /0614 10061 20004 39934 40100 52018 333 69905=
07661,1999-12-16 15:00:00,5.1,1011.6,2.8,75,1,10000,14.816,,,100,,,,,,,,,,60,og-post,,,,AAXX 16154 07661 21460 71008 10051 20010 39949 40116 53028 76062 877// 333 69907 92437=
07661,1999-12-16 16:00:00,5.5,1012.9,3.3,80,2.3,,18.52,,,120,,,,,,,,,,,og-post,,,,AAXX 16164 07661 26/// /1210 10055 20023 39962 40129 53033 333 69905=
07661,1999-12-16 17:00:00,4.1,1013.9,3.7,75,0.1,,11.112,,,140,,,,,,,,,,,og-post,,,,AAXX 16174 07661 26/// /1406 10041 20001 39971 40139 51037 333 69905=
07661,1999-12-17 06:00:00,4,1023.2,2.2,62,-2.6,25000,14.816,,,70,4,5.9,,,,,0.2,,,13,og-post,,,,AAXX 17064 07661 31475 20708 10040 21026 30063 40232 51022 71300 81930 333 10059 20040 70002 92428=
07661,1999-12-17 07:00:00,3.1,1023.8,1.9,64,-3,,14.816,,,80,,,,,,,,,,,og-post,,,,AAXX 17074 07661 36/// /0808 10031 21030 30068 40238 51019=
07661,1999-12-17 08:00:00,4.2,1024.5,2,62,-2.4,,7.408,,,70,,,,,,,,,,,og-post,,,,AAXX 17084 07661 36/// /0704 10042 21024 30076 40245 53020=
07661,1999-12-17 09:00:00,5.9,1025.2,2,56,-2.2,25000,7.408,,,60,,,,,,,,,,,og-post,,,,AAXX 17094 07661 32575 10604 10059 21022 30083 40252 53020 81300 333 92428=
07661,1999-12-17 10:00:00,8.2,1025.8,2.3,47,-2.4,,3.704,,,360,,,,,,,,,,,og-post,,,,AAXX 17104 07661 36/// /3602 10082 21024 30091 40258 52023=
07661,1999-12-17 11:00:00,8.6,1026,1.7,44,-2.9,,7.408,,,310,,,,,,,,,,,og-post,,,,AAXX 17114 07661 36/// /3104 10086 21029 30093 40260 51017=
07661,1999-12-17 12:00:00,8.9,1025.7,0.7,44,-2.7,25000,3.704,,,350,,,,,,,,,,,og-post,,,,AAXX 17124 07661 32575 13502 10089 21027 30090 40257 50007 81300 333 92428=
07661,1999-12-17 13:00:00,9.3,1025.4,-0.4,51,-0.3,,7.408,,,240,,,,,,,,,,,og-post,,,,AAXX 17134 07661 36/// /2404 10093 21003 30087 40254 58004=
07661,1999-12-17 14:00:00,9.4,1025.5,-0.5,48,-1,,14.816,,,280,,,,,,,,,,,og-post,,,,AAXX 17144 07661 36/// /2808 10094 21010 30088 40255 55005=
07661,1999-12-17 15:00:00,9.1,1025.8,0.1,53,0,25000,18.52,,,270,,,,,,,,,,,og-post,,,,AAXX 17154 07661 32975 12710 10091 20000 30091 40258 53001 80008 333 92428=
07661,1999-12-17 16:00:00,8.4,1025.8,0.4,55,-0.1,,18.52,,,270,,,,,,,,,,,og-post,,,,AAXX 17164 07661 36/// /2710 10084 21001 30091 40258 51004=
07661,1999-12-17 17:00:00,7.8,1026.1,0.5,58,0.1,,14.816,,,290,,,,,,,,,,,og-post,,,,AAXX 17174 07661 36/// /2908 10078 20001 30093 40261 51005=
07661,1999-12-17 18:00:00,7.1,1026.4,0.5,57,-0.8,25000,11.112,,,300,3,9.7,,,,,,,,,og-post,,,,AAXX 17184 07661 32975 03006 10071 21008 30096 40264 53005 333 10097 20030 92428=
07661,1999-12-17 19:00:00,7.1,1026.7,0.8,59,-0.4,,18.52,,,290,,,,,,,,,,,og-post,,,,AAXX 17194 07661 36/// /2910 10071 21004 30099 40267 53008=
07661,1999-12-17 20:00:00,7.4,1026.5,0.4,61,0.4,,11.112,,,270,,,,,,,,,,,og-post,,,,AAXX 17204 07661 36/// /2706 10074 20004 30097 40265 50004=
07661,1999-12-17 21:00:00,6.4,1026.4,0,67,0.7,25000,7.408,,,280,,,,,,,,,,,og-post,,,,AAXX 17214 07661 32975 02804 10064 20007 30096 40264 50000 333 92428=
07661,1999-12-17 22:00:00,5.1,1026.6,-0.2,80,1.9,,3.704,,,310,,,,,,,,,,,og-post,,,,AAXX 17224 07661 36/// /3102 10051 20019 30097 40266 55002=
07661,1999-12-17 23:00:00,4.2,1026.6,-0.1,85,1.9,,3.704,,,60,,,,,,,,,,,og-post,,,,AAXX 17234 07661 36/// /0602 10042 20019 30096 40266 57001=
07661,1999-12-18 00:00:00,4.4,1026.4,-0.2,77,0.7,10000,11.112,,,310,,,,,,,,,,,og-post,,,,AAXX 18004 07661 32960 03106 10044 20007 30094 40264 58002 333 92427=
07661,1999-12-18 01:00:00,3.8,1026.1,-0.6,83,1.2,,11.112,,,270,,,,,,,,,,,og-post,,,,AAXX 18014 07661 36/// /2706 10038 20012 3091 40261 58006=
07661,1999-12-18 02:00:00,4.5,1026.3,-0.3,62,-2.1,,11.112,,,320,,,,,,,,,,,og-post,,,,AAXX 18024 07661 36/// /3206 10045 21021 30093 40263 55003=
07661,1999-12-18 03:00:00,3.1,1025.9,-0.5,70,-1.8,10000,11.112,,,310,,,,,,,,,,,og-post,,,,AAXX 18034 07661 32960 03106 10031 21018 30089 40259 58005 333 92427=
07661,1999-12-18 04:00:00,3.1,1025.2,-0.9,69,-2,,22.224,,,300,,,,,,,,,,,og-post,,,,AAXX 18044 07661 36/// /3012 10031 21020 30082 40252 58009=
07661,1999-12-18 05:00:00,4.8,1025.1,-1.1,56,-3.2,,25.928,,,300,,,,,,,,,,,og-post,,,,AAXX 18054 07661 36/// /3014 10048 21032 30082 40251 56011=
07661,1999-12-18 06:00:00,5.3,1024.8,-1,62,-1.4,25000,25.928,,,300,3,7.5,,,,,0,,,,og-post,,,,AAXX 18064 07661 32975 23014 10053 21014 30079 40248 56010 80002 333 10075 20030 70000 92438=
07661,1999-12-18 07:00:00,6.2,1024.6,-0.4,63,-0.3,,29.632,,,290,,,,,,,,,,,og-post,,,,AAXX 18074 07661 36/// /2916 10062 21003 30078 40246 58004=
07661,1999-12-18 08:00:00,6.4,1024.4,-0.6,60,-0.8,,31.484,,,300,,,,,,,,,,,og-post,,,,AAXX 18084 07661 36/// /3017 10064 21008 30076 40244 56006=
07661,1999-12-18 09:00:00,7.8,1024.6,-0,59,0.3,,35.188,,,310,,,,,,,,,,,og-post,,,,AAXX 18094 07661 36/// /3119 10078 20003 30079 40246 55000=
07661,1999-12-18 10:00:00,8.7,1024.7,0.2,63,2.1,,35.188,,,300,,,,,,,,,,,og-post,,,,AAXX 18104 07661 36/// /3019 10087 20021 30080 40247 53002=
07661,1999-12-18 11:00:00,9.4,1023.6,-0.6,64,2.9,,31.484,,,290,,,,,,,,,,,og-post,,,,AAXX 18114 07661 36/// /2917 10094 20029 30070 40236 58006=
07661,1999-12-18 12:00:00,10,1023,-1.5,68,4.4,25000,35.188,,,300,,,,,,,,,,,og-post,,,,AAXX 18124 07661 32875 23019 10100 20044 30064 40230 58015 82040 333 92438=
07661,1999-12-18 13:00:00,10.3,1022.1,-2.4,68,4.7,,42.596,,,300,,,,,,,,,,,og-post,,,,AAXX 18134 07661 36/// /3023 10103 20047 30056 40221 56024=
07661,1999-12-18 14:00:00,10.4,1021.6,-1.9,73,5.8,,35.188,,,300,,,,,,,,,,,og-post,,,,AAXX 18144 07661 36/// /3019 10104 20058 30051 40216 56019=
07661,1999-12-18 15:00:00,10.1,1021.5,-1.4,78,6.4,25000,31.484,,,280,,,,,,,,,,,og-post,,,,AAXX 18154 07661 32875 52817 10101 20064 30050 40215 56014 85040 333 92438=
07661,1999-12-18 16:00:00,9.9,1020.9,-1.2,78,6.2,,25.928,,,290,,,,,,,,,,,og-post,,,,AAXX 18164 07661 36/// /2914 10099 20062 30044 40209 58012=
07661,1999-12-18 17:00:00,10.1,1020.9,-0.7,74,5.7,,35.188,,,300,,,,,,,,,,,og-post,,,,AAXX 18174 07661 36/// /3019 10101 20057 30044 40209 56007=
07661,1999-12-18 18:00:00,9.9,1020.8,-0.7,72,5.1,20000,31.484,,,300,5.3,10.5,,,,,,,,,og-post,,,,AAXX 18184 07661 32870 53017 10099 20051 30043 40208 56007 85040 333 10105 20053 92448=
07661,1999-12-18 19:00:00,10.2,1019.9,-1,76,6.2,,38.892,,,300,,,,,,,,,,,og-post,,,,AAXX 18194 07661 36/// /3021 10102 20062 30034 40199 58010=
07661,1999-12-18 20:00:00,10.5,1019.4,-1.5,75,6.3,,38.892,,,300,,,,,,,,,,,og-post,,,,AAXX 18204 07661 36/// /3021 10105 20063 30029 40194 58015=
07661,1999-12-18 21:00:00,10.3,1019,-1.8,78,6.6,20000,38.892,,,290,,,,,,,,,,,og-post,,,,AAXX 18214 07661 32870 32921 10103 20066 30025 40190 56018 83040 333 92448=
07661,1999-12-18 22:00:00,10.7,1018.1,-1.7,78,7,,38.892,64.82,,300,,,,,,,,,,,og-post,,,,AAXX 18224 07661 36/// /3021 10107 20070 30017 40181 58017 333 91135=
07661,1999-12-18 23:00:00,10.8,1017.9,-1.4,76,6.7,,31.484,57.412,,300,,,,,,,,,,,og-post,,,,AAXX 18234 07661 36/// /3017 10108 20067 30015 40179 56014 333 91131=
07661,1999-12-19 00:00:00,10.8,1017.2,-1.7,76,6.7,12000,29.632,64.82,,310,,,,,,,,,,,og-post,,,,AAXX 19004 07661 32862 43116 10108 20067 30008 40172 56017 84040 333 91135 92447=
07661,1999-12-19 01:00:00,10.6,1016.6,-1.5,76,6.6,,18.52,,,300,,,,,,,,,,,og-post,,,,AAXX 19014 07661 36/// /3010 10106 20066 30002 40166 58015=
07661,1999-12-19 02:00:00,10.7,1015.9,-2,78,7,,18.52,,,300,,,,,,,,,,,og-post,,,,AAXX 19024 07661 36/// /3010 10107 20070 39995 40159 57020=
07661,1999-12-19 03:00:00,8.4,1015.6,-1.7,85,6,12000,11.112,,,80,,,,,,,,,,,og-post,,,,AAXX 19034 07661 32862 40806 10084 20060 39991 40156 56017 84040 333 92447=
07661,1999-12-19 04:00:00,8.7,1014.8,-1.9,85,6.3,,11.112,,,70,,,,,,,,,,,og-post,,,,AAXX 19044 07661 36/// /0706 10087 20063 39983 40148 58019=
07661,1999-12-19 05:00:00,9.1,1014.4,-1.6,81,6,,7.408,,,70,,,,,,,,,,,og-post,,,,AAXX 19054 07661 36/// /0704 10091 20060 39979 40144 57016=
07661,1999-12-19 06:00:00,8.6,1014.1,-1.5,82,5.7,20000,7.408,,,60,8.1,11,,,,,0,,,,og-post,,,,AAXX 19064 07661 32870 60604 10086 20057 39976 40141 56015 86030 333 10110 20081 70000 92438=
07661,1999-12-19 07:00:00,8.6,1013.5,-1.3,85,6.2,,3.704,,,20,,,,,,,,,,,og-post,,,,AAXX 19074 07661 36/// /0202 10086 20062 39970 40135 58013=
07661,1999-12-19 08:00:00,10.6,1013,-1.3,78,6.9,,11.112,,,300,,,,,,,,,,,og-post,,,,AAXX 19084 07661 36/// /3006 10106 20069 39966 40130 58013=
07661,1999-12-19 09:00:00,11.1,1012.7,-1.2,75,6.8,25000,11.112,,,340,,,,,,,,,,,og-post,,,,AAXX 19094 07661 32575 63406 10111 20068 39964 40127 56012 84842 333 92438=
07661,1999-12-19 10:00:00,12.4,1012.3,-0.9,70,7.1,,22.224,,,320,,,,,,,,,,,og-post,,,,AAXX 19104 07661 36/// /3212 10124 20071 39961 40123 56009=
07661,1999-12-19 11:00:00,13.7,1011.3,-1.5,61,6.3,,29.632,,,300,,,,,,,,,,,og-post,,,,AAXX 19114 07661 36/// /3016 10137 20063 39951 40113 58015=
07661,1999-12-19 12:00:00,13.9,1009.6,-2.9,57,5.5,20000,38.892,64.82,,300,,,,,,,,,,,og-post,,,,AAXX 19124 07661 32670 63021 10139 20055 39935 40096 58029 84842 333 91135 92448=
07661,1999-12-19 13:00:00,13.5,1008.4,-3.8,62,6.4,,46.3,,,300,,,,,,,,,,,og-post,,,,AAXX 19134 07661 36/// /3025 10135 20064 39923 40084 58038=
07661,1999-12-19 14:00:00,12.8,1008,-3.2,68,7,,35.188,,,300,,,,,,,,,,,og-post,,,,AAXX 19144 07661 36/// /3019 10128 20070 39919 40080 56032=
07661,1999-12-19 15:00:00,12.4,1008,-1.7,71,7.3,20000,22.224,,,290,,,,,,,,,,,og-post,,,,AAXX 19154 07661 32670 72912 10124 20073 39918 40080 56017 84842 333 92448=
07661,1999-12-19 16:00:00,12.3,1007.5,-1,72,7.4,,29.632,,,310,,,,,,,,,,,og-post,,,,AAXX 19164 07661 36/// /3116 10123 20074 39913 40075 58010=
07661,1999-12-19 17:00:00,12.1,1007.2,-0.9,75,7.8,,22.224,,,310,,,,,,,,,,,og-post,,,,AAXX 19174 07661 36/// /3112 10121 20078 39910 40072 58009=
07661,1999-12-19 18:00:00,11.7,1006.9,-1.1,73,7,18000,25.928,,,310,8.5,14.4,,,,,,,,,og-post,,,,AAXX 19184 07661 32668 63114 10117 20070 39907 40069 56011 83842 333 10144 20085 92437=
07661,1999-12-19 19:00:00,10.9,1006.5,-1,79,7.4,,7.408,,,320,,,,,,,,,,,og-post,,,,AAXX 19194 07661 36/// /3204 10109 20074 39903 40065 58010=
07661,1999-12-19 20:00:00,11.7,1005.8,-1.4,74,7.2,,22.224,,,300,,,,,,,,,,,og-post,,,,AAXX 19204 07661 36/// /3012 10117 20072 39896 40058 58014=
07661,1999-12-19 21:00:00,11.5,1005.4,-1.5,76,7.4,18000,7.408,,,320,,,,,,,,,,,og-post,,,,AAXX 19214 07661 32668 63204 10115 20074 39892 40054 57015 83836 333 92437=
07661,1999-12-19 22:00:00,9.2,1005.3,-1.3,92,8,,7.408,,,110,,,,,,,,,,,og-post,,,,AAXX 19224 07661 36/// /1104 10092 20080 39890 40053 56013=
07661,1999-12-19 23:00:00,10,1005.4,-0.5,89,8.3,,11.112,,,130,,,,,,,,,,,og-post,,,,AAXX 19234 07661 36/// /1306 10100 20083 39891 40054 55005=
07661,1999-12-20 00:00:00,10.1,1004.8,-0.6,85,7.7,20000,7.408,,,120,,,,,,,,,,,og-post,,,,AAXX 20004 07661 32970 11204 10101 20077 39886 40048 58006 80001 333 92438=
07661,1999-12-20 01:00:00,9.2,1004.7,-0.6,86,7,,7.408,,,300,,,,,,,,,,,og-post,,,,AAXX 20014 07661 36/// /3004 10092 20070 39884 40047 58006=
07661,1999-12-20 02:00:00,8.3,1004.6,-0.9,72,3.6,,14.816,,,290,,,,,,,,,,,og-post,,,,AAXX 20024 07661 36/// /2908 10083 20036 39882 40046 56009=
07661,1999-12-20 03:00:00,7.4,1004,-1,65,1.3,20000,18.52,,,300,,,,,,,,,,,og-post,,,,AAXX 20034 07661 32970 13010 10074 20013 39876 40040 58010 81020 333 92438=
07661,1999-12-20 04:00:00,6.9,1003.7,-1.1,58,-0.8,,18.52,,,300,,,,,,,,,,,og-post,,,,AAXX 20044 07661 36/// /3010 10069 21008 39873 40037 58011=
07661,1999-12-20 05:00:00,5.7,1003.6,-1.1,53,-3.1,,18.52,,,300,,,,,,,,,,,og-post,,,,AAXX 20054 07661 36/// /3010 10057 21031 39871 40036 56011=
07661,1999-12-20 06:00:00,5.4,1003.5,-0.6,48,-4.7,20000,25.928,,,300,5.4,11.9,,,,,0,,,,og-post,,,,AAXX 20064 07661 32670 13014 10054 21047 39870 40035 56006 81400 333 10119 20054 70000 92438=
07661,1999-12-20 07:00:00,4.4,1003.7,-0.2,47,-5.9,,35.188,,,300,,,,,,,,,,,og-post,,,,AAXX 20074 07661 36/// /3019 10044 21059 39871 40037 55002=
07661,1999-12-20 08:00:00,5.3,1004.4,0.7,44,-5.9,,14.816,,,320,,,,,,,,,,,og-post,,,,AAXX 20084 07661 36/// /3208 10053 21059 39878 40044 53007=
07661,1999-12-20 09:00:00,5.7,1004.2,0.7,39,-7.1,20000,29.632,,,320,,,,,,,,,,,og-post,,,,AAXX 20094 07661 32670 23216 10057 21071 39877 40042 50007 82500 333 92438=
07661,1999-12-20 10:00:00,8,1004.1,0.6,38,-5.4,,22.224,,,310,,,,,,,,,,,og-post,,,,AAXX 20104 07661 36/// /3112 10080 21054 39877 40041 51006=
07661,1999-12-20 11:00:00,9.4,1004.9,0.8,41,-3.2,,11.112,,,280,,,,,,,,,,,og-post,,,,AAXX 20114 07661 36/// /2806 10094 21032 39886 40049 53008=
07661,1999-12-20 12:00:00,8.7,1005.8,1.7,39,-4.5,,7.408,,,60,,,,,,,,,,,og-post,,,,AAXX 20124 07661 36/// /0604 10087 21045 39894 40058 53017=
07661,1999-12-20 13:00:00,8.8,1006.5,2.4,33,-6.6,,18.52,,,300,,,,,,,,,,,og-post,,,,AAXX 20134 07661 36/// /3010 10088 21066 39901 40065 51024=
07661,1999-12-20 14:00:00,8.4,1007.2,2.2,33,-6.9,,18.52,,,300,,,,,,,,,,,og-post,,,,AAXX 20144 07661 36/// /3010 10084 21069 39908 40072 51022=
07661,1999-12-20 15:00:00,8.5,1009.1,3.2,30,-8.1,25000,11.112,,,300,,,,,,,,,,14,og-post,,,,AAXX 20154 07661 31675 63006 10085 21081 39926 40091 53032 71422 86500 333 92438=
07661,1999-12-20 17:00:00,7,1012.7,5.3,67,1.3,,11.112,,,50,,,,,,,,,,,og-post,,,,AAXX 20174 07661 36/// /0506 10070 20013 39961 40127 53053=
07661,1999-12-20 18:00:00,7.1,1013.9,4.7,47,-3.4,25000,7.408,,,60,3.9,9.5,,,,,,,,,og-post,,,,AAXX 20184 07661 32675 10604 10071 21034 39973 40139 51047 81500 333 10095 20039 92438=
07661,1999-12-20 19:00:00,6.4,1015,4.1,31,-9.5,,14.816,,,290,,,,,,,,,,,og-post,,,,AAXX 20194 07661 36/// /2908 10064 21095 39983 40150 51041=
07661,1999-12-20 20:00:00,5.8,1016,3.2,38,-7.4,,7.408,,,30,,,,,,,,,,,og-post,,,,AAXX 20204 07661 36/// /0304 10058 21074 39993 40160 51032=
07661,1999-12-20 21:00:00,5.7,1016.7,2.7,38,-7.5,25000,3.704,,,80,,,,,,,,,,,og-post,,,,AAXX 20214 07661 32575 10802 10057 21075 30000 40167 51027 81100 333 92438=
07661,1999-12-20 22:00:00,5.5,1017.3,2.2,41,-6.7,,14.816,,,70,,,,,,,,,,,og-post,,,,AAXX 20224 07661 36/// /0708 10055 21067 30005 40173 51022=
07661,1999-12-20 23:00:00,5.2,1018.2,2.1,42,-6.6,,3.704,,,290,,,,,,,,,,,og-post,,,,AAXX 20234 07661 36/// /2902 10052 21066 30014 40182 53021=
07661,1999-12-21 00:00:00,4.9,1018.4,1.6,52,-4.1,25000,7.408,,,70,,,,,,,,,,,og-post,,,,AAXX 21004 07661 32575 10704 10049 21041 30016 40184 51016 81100 333 92438=
07661,1999-12-21 01:00:00,4.1,1018.9,1.5,52,-4.9,,7.408,,,70,,,,,,,,,,,og-post,,,,AAXX 21014 07661 36/// /0704 10041 21049 30020 40189 51015=
07661,1999-12-21 02:00:00,4,1019.7,1.4,53,-4.7,,7.408,,,60,,,,,,,,,,,og-post,,,,AAXX 21024 07661 36/// /0604 10040 21047 30028 40197 53014=
07661,1999-12-21 03:00:00,3.8,1020,1.5,48,-6.2,25000,7.408,,,80,,,,,,,,,,,og-post,,,,AAXX 21034 07661 32575 10804 10038 21062 30031 40200 51015 81100 333 92438=
07661,1999-12-21 04:00:00,3.1,1020.4,1.4,51,-6,,14.816,,,70,,,,,,,,,,,og-post,,,,AAXX 21044 07661 36/// /0708 10031 21060 30034 40204 51014=
07661,1999-12-21 05:00:00,2.6,1021,1.2,52,-6.2,,22.224,,,70,,,,,,,,,,,og-post,,,,AAXX 21054 07661 36/// /0712 10026 21062 30040 40210 53012=
07661,1999-12-21 06:00:00,2.2,1022.1,2,55,-5.9,25000,18.52,,,60,2.2,7,,,,,0,,,,og-post,,,,AAXX 21064 07661 32575 10610 10022 21059 30051 40221 53020 81100 333 10070 20022 70000 92438=
07661,1999-12-21 08:00:00,2.4,1023.9,2.8,53,-6.2,,18.52,,,80,,,,,,,,,,,og-post,,,,AAXX 21084 07661 36/// /0810 10024 21062 30068 40239 51028=
07661,1999-12-21 09:00:00,4.4,1024.7,2.7,52,-4.6,25000,18.52,,,70,,,,,,,,,,,og-post,,,,AAXX 21094 07661 32575 10710 10044 21046 30078 40247 53027 81100 333 92438=
07661,1999-12-21 11:00:00,6.9,1025.3,1.7,46,-3.9,,11.112,,,70,,,,,,,,,,,og-post,,,,AAXX 21114 07661 36/// /0706 10069 21039 30085 40253 51017=
07661,1999-12-21 12:00:00,7.8,1025.7,1.1,46,-3.1,25000,3.704,,,20,,,,,,,,,,,og-post,,,,AAXX 21124 07661 32575 20202 10078 21031 30089 40257 51011 82100 333 92428=
07661,1999-12-21 13:00:00,8.5,1025.4,0.2,53,-0.5,,3.704,,,220,,,,,,,,,,,og-post,,,,AAXX 21134 07661 36/// /2202 10085 21005 30087 40254 50002=
07661,1999-12-21 14:00:00,9.3,1025.3,0.1,51,-0.3,,11.112,,,220,,,,,,,,,,,og-post,,,,AAXX 21144 07661 36/// /2206 10093 21003 30086 40253 50001=
07661,1999-12-21 15:00:00,8.9,1026,0.4,52,-0.4,25000,11.112,,,260,,,,,,,,,,,og-post,,,,AAXX 21154 07661 32575 32606 10089 21004 30093 40260 53004 83100 333 92428=
07661,1999-12-21 17:00:00,7.8,1027,1.6,55,-0.7,,14.816,,,270,,,,,,,,,,,og-post,,,,AAXX 21174 07661 36/// /2708 10078 21007 30102 40270 51016=
07661,1999-12-21 18:00:00,6.7,1027,0.9,65,0.6,25000,14.816,,,300,1.9,9.3,,,,,,,,,og-post,,,,AAXX 21184 07661 32575 33008 10067 20006 30102 40270 51009 83100 333 10093 20019 92428=
07661,1999-12-21 20:00:00,6.5,1028.7,1.6,71,1.6,,7.408,,,350,,,,,,,,,,,og-post,,,,AAXX 21204 07661 36/// /3504 10065 20016 30118 40287 53016=
07661,1999-12-21 21:00:00,6.5,1028.7,1.6,76,2.6,15000,7.408,,,350,,,,,,,,,,,og-post,,,,AAXX 21214 07661 32565 33504 10065 20026 30118 40287 51016 83100 333 92427=
07661,1999-12-22 01:00:00,6,1029.4,0.4,75,1.9,,11.112,,,90,,,,,,,,,,,og-post,,,,AAXX 22014 07661 36/// /0906 10060 20019 30125 40294 50004=
07661,1999-12-22 02:00:00,5.7,1029.8,0.3,76,1.8,,14.816,,,70,,,,,,,,,,,og-post,,,,AAXX 22024 07661 36/// /0708 10057 20018 30129 40298 53003=
07661,1999-12-22 03:00:00,5.4,1029.9,0.1,77,1.7,20000,11.112,,,70,,,,,,,,,,,og-post,,,,AAXX 22034 07661 32570 10706 10054 20017 30129 40299 53001 81200 333 92428=
07661,1999-12-22 04:00:00,6.1,1029.6,0.2,72,1.4,,11.112,,,70,,,,,,,,,,,og-post,,,,AAXX 22044 07661 36/// /0706 10061 20014 30127 40296 50002=
07661,1999-12-22 05:00:00,3.9,1029.8,-0.1,86,1.8,,11.112,,,100,,,,,,,,,,,og-post,,,,AAXX 22054 07661 36/// /1006 10039 20018 30128 40298 55001=
07661,1999-12-22 06:00:00,5.5,1029.9,-0,70,0.5,25000,14.816,,,70,3.9,6.9,,,,,0,,,,og-post,,,,AAXX 22064 07661 32575 20708 10055 20005 30129 40299 55000 82200 333 10069 20039 70000 92428=
07661,1999-12-22 07:00:00,3.5,1030.4,0.6,86,1.4,,14.816,,,90,,,,,,,,,,,og-post,,,,AAXX 22074 07661 36/// /0908 10035 20014 30133 40304 53006=
07661,1999-12-22 08:00:00,3.9,1030.8,0.9,86,1.8,,14.816,,,100,,,,,,,,,,,og-post,,,,AAXX 22084 07661 36/// /1008 10039 20018 30137 40308 53009=
07661,1999-12-22 09:00:00,5.3,1031.4,1.5,77,1.6,20000,11.112,,,100,,,,,,,,,,,og-post,,,,AAXX 22094 07661 32570 11006 10053 20016 30144 40314 53015 81200 333 92428=
07661,1999-12-22 10:00:00,7.2,1031.6,1.4,67,1.5,,18.52,,,80,,,,,,,,,,,og-post,,,,AAXX 22104 07661 36/// /0810 10072 20015 30147 40316 51014=
07661,1999-12-22 11:00:00,8.3,1031.3,0.8,63,1.7,,18.52,,,70,,,,,,,,,,,og-post,,,,AAXX 22114 07661 36/// /0710 10083 20017 30145 40313 50008=
07661,1999-12-22 12:00:00,9,1031.1,-0.1,59,1.4,35000,11.112,,,100,,,,,,,,,,,og-post,,,,AAXX 22124 07661 32681 21006 10090 20014 30143 40311 58001 81110 333 92428=
07661,1999-12-22 13:00:00,9.6,1030.6,-0.8,58,1.8,,11.112,,,110,,,,,,,,,,,og-post,,,,AAXX 22134 07661 36/// /1106 10096 20018 30139 40306 58008=
07661,1999-12-22 14:00:00,9.8,1030.2,-1,58,1.9,,11.112,,,150,,,,,,,,,,,og-post,,,,AAXX 22144 07661 36/// /1506 10098 20019 30135 40302 58010=
07661,1999-12-22 15:00:00,9.4,1030.6,-0.4,54,0.6,35000,11.112,,,130,,,,,,,,,,,og-post,,,,AAXX 22154 07661 32681 31306 10094 20006 30139 40306 55004 81121 333 92428=
07661,1999-12-22 16:00:00,9.1,1030.8,0.1,55,0.6,,14.816,,,120,,,,,,,,,,,og-post,,,,AAXX 22164 07661 36/// /1208 10091 20006 30140 40308 53001=
07661,1999-12-22 17:00:00,9,1031,0.7,58,1.2,,14.816,,,100,,,,,,,,,,,og-post,,,,AAXX 22174 07661 36/// /1008 10090 20012 30142 40310 51007=
07661,1999-12-22 18:00:00,7.5,1031.1,0.4,72,2.8,12000,18.52,,,60,3.4,9.8,,,,,,,,,og-post,,,,AAXX 22184 07661 32662 30610 10075 20028 30143 40311 52004 81121 333 10098 20034 92427=
07661,1999-12-22 19:00:00,7.1,1031.4,0.5,73,2.6,,18.52,,,70,,,,,,,,,,,og-post,,,,AAXX 22194 07661 36/// /0710 10071 20026 30145 40314 52005=
07661,1999-12-22 20:00:00,5.9,1031.3,0.2,85,3.6,,18.52,,,80,,,,,,,,,,,og-post,,,,AAXX 22204 07661 36/// /0810 10059 20036 30144 40313 50002=
07661,1999-12-22 21:00:00,5.8,1031.6,0.3,84,3.3,20000,18.52,,,80,,,,,,,,,,,og-post,,,,AAXX 22214 07661 32570 20810 10058 20033 30146 40316 52003 81101 333 92428=
07661,1999-12-22 22:00:00,5,1031.6,0.1,89,3.3,,14.816,,,80,,,,,,,,,,,og-post,,,,AAXX 22224 07661 36/// /0808 10050 20033 30146 40316 53001=
07661,1999-12-22 23:00:00,5,1031.9,0.5,90,3.5,,14.816,,,100,,,,,,,,,,,og-post,,,,AAXX 22234 07661 36/// /1008 10050 20035 30149 40319 53005=
07661,1999-12-23 00:00:00,4.5,1031.7,0.1,89,2.8,13000,14.816,,,100,,,,,,,,,,,og-post,,,,AAXX 23004 07661 32563 21008 10045 20028 30147 40317 50001 81101 333 92427=
07661,1999-12-23 01:00:00,4,1031.4,-0.3,88,2.2,,11.112,,,100,,,,,,,,,,,og-post,,,,AAXX 23014 07661 36/// /1006 10040 20022 30143 40314 58003=
07661,1999-12-23 02:00:00,3.8,1031.3,-0.7,93,2.8,,11.112,,,100,,,,,,,,,,,og-post,,,,AAXX 23024 07661 36/// /1006 10038 20028 30142 40313 56007=
07661,1999-12-23 03:00:00,4.1,1030.8,-0.9,87,2.1,13000,11.112,,,80,,,,,,,,,,,og-post,,,,AAXX 23034 07661 32563 20806 10041 20021 30138 40308 57009 81101 333 92427=
07661,1999-12-23 04:00:00,4,1030.5,-0.8,87,2,,11.112,,,80,,,,,,,,,,,og-post,,,,AAXX 23044 07661 36/// /0806 10040 20020 30135 40305 58008=
07661,1999-12-23 06:00:00,5.6,1030.6,-0.2,73,1.2,20000,11.112,,,60,3.5,7.5,,,,,0,,,,og-post,,,,AAXX 23064 07661 32570 30606 10056 20012 30136 40306 55002 81140 333 10075 20035 70000 92428=
07661,1999-12-23 07:00:00,3.9,1031,0.4,86,1.8,,11.112,,,70,,,,,,,,,,,og-post,,,,AAXX 23074 07661 36/// /0706 10039 20018 30139 40310 53004=
07661,1999-12-23 08:00:00,4.6,1031,0.6,81,1.6,,11.112,,,70,,,,,,,,,,,og-post,,,,AAXX 23084 07661 36/// /0706 10046 20016 30140 40310 51006=
07661,1999-12-23 09:00:00,5.8,1031.3,0.7,71,1,18000,14.816,,,70,,,,,,,,,,,og-post,,,,AAXX 23094 07661 32568 30708 10058 20010 30143 40313 52007 81132 333 92427=
07661,1999-12-23 10:00:00,7.6,1031,0.3,73,3.1,,7.408,,,100,,,,,,,,,,,og-post,,,,AAXX 23104 07661 36/// /1004 10076 20031 30142 40310 50003=
07661,1999-12-23 11:00:00,8.8,1030.7,-0.1,65,2.6,,3.704,,,90,,,,,,,,,,,og-post,,,,AAXX 23114 07661 36/// /0902 10088 20026 30139 40307 58001=
07661,1999-12-23 12:00:00,9.2,1030,-1,69,3.8,15000,3.704,,,220,,,,,,,,,,,og-post,,,,AAXX 23124 07661 32965 62202 10092 20038 30133 40300 58010 84052 333 92427=
07661,1999-12-23 13:00:00,9.4,1029.2,-1.7,65,3.2,,7.408,,,220,,,,,,,,,,,og-post,,,,AAXX 23134 07661 36/// /2204 10094 20032 30125 40292 58017=
07661,1999-12-23 14:00:00,8.8,1028.7,-1.9,68,3.2,,7.408,,,230,,,,,,,,,,,og-post,,,,AAXX 23144 07661 36/// /2304 10088 20032 30120 40287 56019=
07661,1999-12-23 15:00:00,8.8,1028.8,-1.2,67,3,15000,7.408,,,300,,,,,,,,,,,og-post,,,,AAXX 23154 07661 32565 83004 10088 20030 30121 40288 55012 8321/ 333 92427=
07661,1999-12-23 16:00:00,8.8,1028.7,-0.5,68,3.2,,3.704,,,280,,,,,,,,,,,og-post,,,,AAXX 23164 07661 36/// /2802 10088 20032 30120 40287 56005=
07661,1999-12-23 17:00:00,8.7,1028.8,0.1,70,3.5,,7.408,,,310,,,,,,,,,,,og-post,,,,AAXX 23174 07661 36/// /3104 10087 20035 30121 40288 52001=
07661,1999-12-23 20:00:00,8.4,1028.9,0.1,79,5,,,,,,,,,,,,,,,,og-post,,,,AAXX 23204 07661 36/// /0000 10084 20050 30122 40289 50001=
07661,1999-12-23 21:00:00,8.1,1028.8,-0.3,88,6.2,18000,7.408,,,70,,,,,,,,,,,og-post,,,,AAXX 23214 07661 32568 80704 10081 20062 30120 40288 58003 8321/ 333 92427=
07661,1999-12-23 22:00:00,7.9,1028.6,-0.6,91,6.5,,14.816,,,60,,,,,,,,,,,og-post,,,,AAXX 23224 07661 36/// /0608 10079 20065 30118 40286 57006=
07661,1999-12-23 23:00:00,7.5,1028.3,-0.7,93,6.4,,18.52,,,60,,,,,,,,,,,og-post,,,,AAXX 23234 07661 36/// /0610 10075 20064 30115 40283 58007=
07661,1999-12-24 00:00:00,7.3,1027.7,-1.1,96,6.7,15000,18.52,,,70,,,,,,,,,,,og-post,,,,AAXX 24004 07661 32565 80710 10073 20067 30109 40277 58011 886// 333 92427=
07661,1999-12-24 01:00:00,7.2,1026.8,-1.8,98,6.9,,22.224,,,70,,,,,,,,,,,og-post,,,,AAXX 24014 07661 36/// /0712 10072 20069 30100 40268 58018=
07661,1999-12-24 02:00:00,7.4,1027,-1.3,98,7.1,,22.224,,,70,,,,,,,,,,,og-post,,,,AAXX 24024 07661 36/// /0712 10074 20071 30102 40270 55013=
07661,1999-12-24 03:00:00,7.6,1027,-0.7,98,7.3,15000,14.816,,,60,,,,,,,,,,,og-post,,,,AAXX 24034 07661 32465 80608 10076 20073 30102 40270 56007 886// 333 92427=
07661,1999-12-24 04:00:00,8.1,1026.6,-0.1,95,7.3,,18.52,,,60,,,,,,,,,,,og-post,,,,AAXX 24044 07661 36/// /0610 10081 20073 30099 40266 58001=
07661,1999-12-24 05:00:00,8.1,1026.3,-0.6,94,7.2,,22.224,,,70,,,,,,,,,,,og-post,,,,AAXX 24054 07661 36/// /0712 10081 20072 30096 40263 58006=
07661,1999-12-24 06:00:00,7.8,1026.2,-0.7,95,7,15000,18.52,,,70,7.1,8.6,,,,,0,,,,og-post,,,,AAXX 24064 07661 32465 80710 10078 20070 30095 40262 56007 886// 333 10086 20071 70000 92427=
07661,1999-12-24 07:00:00,7.6,1026.8,0.1,95,6.9,,18.52,,,70,,,,,,,,,,,og-post,,,,AAXX 24074 07661 36/// /0710 10076 20069 30100 40268 53001=
07661,1999-12-24 08:00:00,7.6,1027.1,0.7,93,6.5,,18.52,,,70,,,,,,,,,,,og-post,,,,AAXX 24084 07661 36/// /0710 10076 20065 30103 40271 53007=
07661,1999-12-24 09:00:00,7.8,1027,0.8,93,6.7,13000,18.52,,,70,,,,,,,,,,,og-post,,,,AAXX 24094 07661 32463 80710 10078 20067 30103 40270 51008 886// 333 92427=
07661,1999-12-24 10:00:00,8.4,1027.4,0.7,90,6.9,,18.52,,,70,,,,,,,,,,,og-post,,,,AAXX 24104 07661 36/// /0710 10084 20069 30107 40274 53007=
07661,1999-12-24 11:00:00,8.8,1026.9,-0.1,91,7.4,,14.816,,,80,,,,,,,,,,,og-post,,,,AAXX 24114 07661 36/// /0808 10088 20074 30102 40269 58001=
07661,1999-12-24 12:00:00,8.8,1026.3,-0.7,90,7.3,13000,18.52,,,70,,,,,,,,,,,og-post,,,,AAXX 24124 07661 32463 80710 10088 20073 30096 40263 58007 886// 333 92427=
07661,1999-12-24 13:00:00,9,1025.5,-1.8,89,7.3,,18.52,,,70,,,,,,,,,,,og-post,,,,AAXX 24134 07661 36/// /0710 10090 20073 30089 40255 58018=
07661,1999-12-24 14:00:00,9.1,1025,-1.8,90,7.5,,18.52,,,80,,,,,,,,,,,og-post,,,,AAXX 24144 07661 36/// /0810 10091 20075 30084 40250 56018=
07661,1999-12-24 15:00:00,9.1,1024.8,-1.4,91,7.7,6000,14.816,,,70,,,,,,,,,,,og-post,,,,AAXX 24154 07661 32456 80708 10091 20077 30082 40248 56014 886// 333 92426=
07661,1999-12-24 16:00:00,9.1,1024.7,-0.8,93,8,,14.816,,,70,,,,,,,,,,,og-post,,,,AAXX 24164 07661 36/// /0708 10091 20080 30081 40247 56008=
07661,1999-12-24 17:00:00,9.2,1024.8,-0.2,94,8.3,,18.52,,,70,,,,,,,,,,,og-post,,,,AAXX 24174 07661 36/// /0710 10092 20083 30082 40248 55002=
07661,1999-12-24 18:00:00,9,1025.2,0.4,96,8.4,6000,14.816,,,70,7.5,9.3,,0.8,,0.8,,,,50,og-post,,,,AAXX 24184 07661 /1456 80708 10090 20084 30086 40252 53004 69982 75022 886// 333 10093 20075 69987 92426=
07661,1999-12-24 19:00:00,9.1,1025.6,0.9,99,9,,14.816,,,70,,,0.4,,,,,,,,og-post,,,,AAXX 24194 07661 26/// /0708 10091 20090 30090 40256 53009 333 69945=
07661,1999-12-24 20:00:00,8.7,1024.7,-0.1,99,8.6,,18.52,,,80,,,,,,,,,,,og-post,,,,AAXX 24204 07661 26/// /0810 10087 20086 30081 40247 58001 333 69905=
07661,1999-12-24 21:00:00,9.1,1024.4,-0.8,99,9,10000,14.816,,,90,,,,0.4,,,,,,50,og-post,,,,AAXX 24214 07661 21460 80908 10091 20090 30078 40244 58008 75055 886// 333 69947 92427=
07661,1999-12-24 22:00:00,10.5,1024,-1.5,100,10.5,,22.224,,,210,,,,,,,,,,,og-post,,,,AAXX 24224 07661 26/// /2112 10105 20105 30075 40240 56015 333 69905=
07661,1999-12-24 23:00:00,11.4,1022.8,-1.7,96,10.8,,25.928,,,210,,,,,,,,,,,og-post,,,,AAXX 24234 07661 26/// /2114 10114 20108 30064 40228 58017 333 69905=
07661,1999-12-25 00:00:00,11.8,1021.6,-2.6,93,10.7,13000,22.224,,,190,,,,,0.4,,,,,,og-post,,,,AAXX 25004 07661 /2463 81912 10118 20107 30052 40216 58026 69941 886// 333 69907 92437=
07661,1999-12-25 05:00:00,11.8,1019.4,-2.6,87,9.7,,25.928,,,210,,,,,,,,,,,og-post,,,,AAXX 25054 07661 36/// /2114 10118 20097 30030 40194 56026=
07661,1999-12-25 06:00:00,11.9,1019.6,-1.5,89,10.1,13000,25.928,53.708,,210,8.6,12.1,,,,0.4,1.2,,,,og-post,,,,AAXX 25064 07661 12563 72114 10119 20101 30032 40196 55015 69942 8662/ 333 10121 20086 70012 91129 92437=
07661,1999-12-25 09:00:00,12.3,1017.9,-1.6,92,11,10000,25.928,,,190,,,,,,,,,,,og-post,,,,AAXX 25094 07661 32560 81914 10123 20110 30016 40179 56016 8672/ 333 92437=
07661,1999-12-25 10:00:00,12.2,1018.1,-0.6,94,11.3,,22.224,,,190,,,,,,,,,,,og-post,,,,AAXX 25104 07661 36/// /1912 10122 20113 30018 40181 55006=
07661,1999-12-25 11:00:00,12.5,1017.6,-0.3,89,10.7,,22.224,,,220,,,,,,,,,,,og-post,,,,AAXX 25114 07661 36/// /2212 10125 20107 30013 40176 58003=
07661,1999-12-25 12:00:00,12.7,1015.4,-2.5,86,10.4,10000,14.816,,,180,,,,,,,,,,,og-post,,,,AAXX 25124 07661 32560 81808 10127 20104 39991 40154 58025 8672/ 333 92437=
07661,1999-12-25 13:00:00,12.4,1015.3,-2.8,85,10,,11.112,,,200,,,,,,,,,,,og-post,,,,AAXX 25134 07661 36/// /2006 10124 20100 39990 40153 56028=
07661,1999-12-25 14:00:00,12.3,1015.2,-2.4,88,10.4,,7.408,,,230,,,,,,,,,,,og-post,,,,AAXX 25144 07661 36/// /2304 10123 20104 39989 40152 56024=
07661,1999-12-25 15:00:00,11.9,1015.3,-0.1,90,10.3,7000,14.816,,,290,,,,,,,,,,,og-post,,,,AAXX 25154 07661 32557 82908 10119 20103 39990 40153 55001 8672/ 333 92436=
07661,1999-12-25 16:00:00,12,1015.3,-0,90,10.4,,25.928,,,290,,,,,,,,,,,og-post,,,,AAXX 25164 07661 36/// /2914 10120 20104 39990 40153 55000=
07661,1999-12-25 17:00:00,11.8,1015.3,0.1,94,10.9,,22.224,,,290,,,,,,,,,,,og-post,,,,AAXX 25174 07661 36/// /2912 10118 20109 39990 40153 51001=
07661,1999-12-25 18:00:00,11.7,1015.5,0.2,94,10.8,7000,29.632,,,300,11.7,12.8,,,,,,,,,og-post,,,,AAXX 25184 07661 32557 83016 10117 20108 39992 40155 53002 8672/ 333 10128 20117 92436=
07661,1999-12-25 22:00:00,13.4,1014.8,-0.1,63,6.5,,42.596,83.34,61.116,300,,,,,,,,,,,og-post,,,,AAXX 25224 07661 36/// /3023 10134 20065 39986 40148 55001 333 91033 91145=
07661,1999-12-25 23:00:00,13.1,1014.8,0.2,63,6.2,,46.3,,,300,,,,,,,,,,,og-post,,,,AAXX 25234 07661 36/// /3025 10131 20062 39986 40148 53002=
07661,1999-12-26 01:00:00,12.5,1014,-0.9,80,9.1,,46.3,68.524,68.524,300,,,,,,,,,,,og-post,,,,AAXX 26014 07661 36/// /3025 10125 20091 39977 40140 58009 333 91037 91137=
07661,1999-12-26 02:00:00,12,1013.5,-1.4,82,9,,38.892,79.636,,300,,,,,,,,,,,og-post,,,,AAXX 26024 07661 36/// /3021 10120 20090 39972 40135 57014 333 91143=
07661,1999-12-26 03:00:00,12.2,1013.5,-0.9,83,9.4,12000,29.632,79.636,,290,,,,,,,,,,,og-post,,,,AAXX 26034 07661 32562 82916 10122 20094 39972 40135 56009 887// 333 91143 92447=
07661,1999-12-26 04:00:00,12.2,1012.7,-1.2,82,9.2,,18.52,,,300,,,,,,,,,,,og-post,,,,AAXX 26044 07661 36/// /3010 10122 20092 39965 40127 58012=
07661,1999-12-26 05:00:00,12.6,1011.5,-1.9,74,8.1,,25.928,,,270,,,,,,,,,,,og-post,,,,AAXX 26054 07661 36/// /2714 10126 20081 39953 40115 58019=
07661,1999-12-26 06:00:00,13.6,1011.4,-2,66,7.4,16000,25.928,79.636,,250,11.7,13.7,,,,,0,,,,og-post,,,,AAXX 26064 07661 32566 62514 10136 20074 39952 40114 56020 83230 333 10137 20117 70000 91143 92447=
07661,1999-12-26 07:00:00,12.6,1010.4,-2.3,84,10,,25.928,,,220,,,,,,,,,,,og-post,,,,AAXX 26074 07661 36/// /2214 10126 20100 39942 40104 56023=
07661,1999-12-26 08:00:00,12.8,1009.6,-1.9,93,11.7,,25.928,,,230,,,,,,,,,,,og-post,,,,AAXX 26084 07661 36/// /2314 10128 20117 39934 40096 58019=
07661,1999-12-26 09:00:00,13.1,1009.9,-1.4,87,11,16000,25.928,,,270,,,,,,,,,,,og-post,,,,AAXX 26094 07661 32566 62714 10131 20110 39938 40099 55014 83230 333 92437=
07661,1999-12-26 11:00:00,13.7,1008.4,-1.1,89,11.9,,18.52,,,270,,,,,,,,,,,og-post,,,,AAXX 26114 07661 36/// /2710 10137 20119 39923 40084 58011=
07661,1999-12-26 12:00:00,14.3,1007.1,-2.7,85,11.8,15000,38.892,64.82,64.82,280,,,,,,,,,,,og-post,,,,AAXX 26124 07661 32565 72821 10143 20118 39911 40071 58027 82230 333 91035 91135 92437=
07661,1999-12-26 13:00:00,16.1,1006,-3.2,68,10.2,,64.82,111.12,111.12,280,,,,,,,,,,,og-post,,,,AAXX 26134 07661 36/// /2835 10161 20102 39901 40060 57032 333 91060 91160=
07661,1999-12-26 14:00:00,15.4,1006,-2.3,71,10.2,,61.116,100.008,96.304,280,,,,,,,,,,,og-post,,,,AAXX 26144 07661 36/// /2833 10154 20102 39900 40060 56023 333 91052 91154=
07661,1999-12-26 15:00:00,15.8,1005.9,-1.1,60,8.1,18000,68.524,111.12,100.008,290,,,,,,,,,,,og-post,,,,AAXX 26154 07661 32568 52937 10158 20081 39900 40059 56011 81239 333 91054 91160 92457=
07661,1999-12-26 16:00:00,14.9,1007.4,1.3,68,9.1,,46.3,90.748,75.932,270,,,,,,,,,,,og-post,,,,AAXX 26164 07661 36/// /2725 10149 20091 39914 40074 53013 333 91041 91149=
07661,1999-12-26 17:00:00,14.7,1007.1,1.1,67,8.6,,61.116,87.044,87.044,290,,,,,,,,,,,og-post,,,,AAXX 26174 07661 36/// /2933 10147 20086 39911 40071 50011 333 91047 91147=
07661,1999-12-26 18:00:00,14.2,1007.6,1.5,70,8.8,18000,53.708,111.12,75.932,290,12.6,16.2,,,,,,,,,og-post,,,,AAXX 26184 07661 32868 22929 10142 20088 39915 40076 51015 82040 333 10162 20126 91041 91160 92457=
07661,1999-12-26 19:00:00,14.4,1007.4,-0,63,7.5,,53.708,79.636,,300,,,,,,,,,,,og-post,,,,AAXX 26194 07661 36/// /3029 10144 20075 39914 40074 55000 333 91143=
07661,1999-12-26 20:00:00,14.3,1007.6,0.4,67,8.3,,57.412,87.044,87.044,290,,,,,,,,,,,og-post,,,,AAXX 26204 07661 36/// /2931 10143 20083 39915 40076 51004 333 91047 91147=
07661,1999-12-26 22:00:00,13.9,1006.9,-0.6,66,7.7,,68.524,96.304,90.748,290,,,,,,,,,,,og-post,,,,AAXX 26224 07661 26/// /2937 10139 20077 39908 40069 58006 333 69905 91049 91152=
07661,1999-12-26 23:00:00,13.2,1005.5,-2.1,63,6.3,,79.636,118.528,111.12,300,,,,,,,,,,,og-post,,,,AAXX 26234 07661 36/// /3043 10132 20063 39894 40055 58021 333 91060 91164=
07661,1999-12-27 00:00:00,12.3,1006.2,-1.6,72,7.4,15000,57.412,118.528,87.044,290,,,,,,,,,,,og-post,,,,AAXX 27004 07661 /2965 52931 10123 20074 39901 40062 55016 69901 85040 333 69907 91047 91164 92457=
07661,1999-12-27 01:00:00,12.3,1006.4,-0.5,71,7.2,,57.412,94.452,87.044,290,,,,,,,,,,,og-post,,,,AAXX 27014 07661 36/// /2931 10123 20072 39903 40064 55005 333 91047 91151=
07661,1999-12-27 03:00:00,12.2,1004.8,-1.4,70,6.9,15000,61.116,94.452,83.34,290,,,,,,,,,,,og-post,,,,AAXX 27034 07661 32965 72933 10122 20069 39887 40048 58014 87020 333 91045 91151 92457=
07661,1999-12-27 04:00:00,12.4,1004.3,-2.1,70,7.1,,57.412,90.748,79.636,290,,,,,,,,,,,og-post,,,,AAXX 27044 07661 36/// /2931 10124 20071 39882 40043 56021 333 91043 91149=
07661,1999-12-27 05:00:00,12.3,1004.6,-0.8,83,9.5,,53.708,90.748,90.748,290,,,,,,,,,,,og-post,,,,AAXX 27054 07661 36/// /2929 10123 20095 39885 40046 55008 333 91049 91149=
07661,1999-12-27 06:00:00,12.5,1005.5,0.7,81,9.3,15000,50.004,94.452,79.636,290,12.1,15,,,,,0,,,,og-post,,,,AAXX 27064 07661 12565 72927 10125 20093 39894 40055 53007 69902 84260 333 10150 20121 79999 91043 91151 92457=
07661,1999-12-27 07:00:00,12.5,1005.7,1.4,78,8.8,,53.708,79.636,75.932,290,,,,,,,,,,,og-post,,,,AAXX 27074 07661 36/// /2929 10125 20088 39896 40057 51014 333 91041 91143=
07661,1999-12-27 08:00:00,12.6,1005.4,0.8,75,8.3,,53.708,79.636,,290,,,,,,,,,,,og-post,,,,AAXX 27084 07661 36/// /2929 10126 20083 39893 40054 50008 333 91143=
07661,1999-12-27 09:00:00,13,1006.5,1,72,8.1,15000,42.596,79.636,61.116,290,,,,,,,,,,,og-post,,,,AAXX 27094 07661 32565 72923 10130 20081 39904 40065 53010 84462 333 91033 91143 92457=
07661,1999-12-27 10:00:00,12.6,1006.5,0.8,71,7.5,,42.596,68.524,64.82,290,,,,,,,,,,,og-post,,,,AAXX 27104 07661 36/// /2923 10126 20075 39904 40065 53008 333 91035 91137=
07661,1999-12-27 11:00:00,12.8,1006.1,0.7,55,4,,38.892,,,300,,,,,,,,,,,og-post,,,,AAXX 27114 07661 36/// /3021 10128 20040 39900 40061 50007=
07661,1999-12-27 12:00:00,12.4,1006,-0.6,52,2.8,18000,25.928,79.636,,300,,,,,,,,,,,og-post,,,,AAXX 27124 07661 32568 83014 10124 20028 39898 40060 58006 8162/ 333 91143 92447=
07661,1999-12-27 13:00:00,12.2,1004.9,-1.6,59,4.4,,22.224,,,300,,,,,,,,,,,og-post,,,,AAXX 27134 07661 36/// /3012 10122 20044 39888 40049 58016=
07661,1999-12-27 14:00:00,11.6,1004,-2.2,69,6.1,,18.52,,,270,,,,,,,,,,,og-post,,,,AAXX 27144 07661 36/// /2710 10116 20061 39878 40040 58022=
07661,1999-12-27 15:00:00,11,1002.7,-3.3,81,7.9,15000,14.816,,,270,,,,,,,,,,,og-post,,,,AAXX 27154 07661 32565 82708 10110 20079 39865 40027 58033 8162/ 333 92447=
07661,1999-12-27 16:00:00,9.6,1001.2,-3.8,89,7.9,,18.52,,,270,,,0.2,,,,,,,,og-post,,,,AAXX 27164 07661 26/// /2710 10096 20079 39850 40012 58038 333 69925=
07661,1999-12-27 17:00:00,9.2,1000.8,-3.2,92,8,,7.408,,,290,,,0.2,,,,,,,,og-post,,,,AAXX 27174 07661 26/// /2904 10092 20080 39846 40008 56032 333 69925=
07661,1999-12-27 18:00:00,9.1,998.7,-4,93,8,15000,7.408,,,80,9.1,13,,0.6,,0.6,,,,2,og-post,,,,AAXX 27184 07661 /1565 80804 10091 20080 39825 49987 58040 69962 70266 8662/ 333 10130 20091 69967 92447=
07661,1999-12-27 19:00:00,8.5,996.9,-4.3,90,7,,18.52,,,60,,,,,,,,,,,og-post,,,,AAXX 27194 07661 36/// /0610 10085 20070 39807 49969 58043=
07661,1999-12-27 20:00:00,9,994.3,-6.4,89,7.3,,22.224,,,80,,,,,,,,,,,og-post,,,,AAXX 27204 07661 36/// /0812 10090 20073 39782 49943 58064=
07661,1999-12-27 21:00:00,9.5,993.9,-4.7,90,7.9,15000,7.408,,,50,,,,,,,,,,,og-post,,,,AAXX 27214 07661 32565 80504 10095 20079 39778 49939 56047 8672/ 333 92447=
07661,1999-12-27 22:00:00,11.1,993.2,-3.5,90,9.5,,25.928,,,300,,,,,,,,,,,og-post,,,,AAXX 27224 07661 36/// /3014 10111 20095 39772 49932 56035=
07661,1999-12-27 23:00:00,12.7,992.8,-1.3,68,7,,64.82,133.344,90.748,300,,,,,,,,,,,og-post,,,,AAXX 27234 07661 36/// /3035 10127 20070 39769 49928 56013 333 91049 91172=
07661,1999-12-28 00:00:00,12.5,991.1,-2.6,56,4,18000,72.228,133.344,111.12,300,,,,,,,,,,,og-post,,,,AAXX 28004 07661 32968 73039 10125 20040 39752 49911 58026 8703/ 333 91060 91172 92447=
07661,1999-12-28 01:00:00,11.9,991,-2.1,55,3.2,,90.748,140.752,129.64,300,,,,,,,,,,,og-post,,,,AAXX 28014 07661 36/// /3049 10119 20032 39751 49910 56021 333 91070 91176=
07661,1999-12-28 02:00:00,10.5,992,-0.9,63,3.8,,72.228,140.752,122.232,290,,,,,,,,,,,og-post,,,,AAXX 28024 07661 36/// /2939 10105 20038 39760 49920 55009 333 91066 91176=
07661,1999-12-28 03:00:00,10.1,991.1,-0.1,65,3.8,15000,94.452,140.752,137.048,290,,,,,,,,,,,og-post,,,,AAXX 28034 07661 32965 72951 10101 20038 39751 49911 58001 8703/ 333 91074 91176 92457=
07661,1999-12-28 04:00:00,9.7,992.1,0.9,59,2.1,,79.636,140.752,114.824,300,,,,,,,,,,,og-post,,,,AAXX 28044 07661 36/// /3043 10097 20021 39760 49921 52009 333 91062 91176=
07661,1999-12-28 05:00:00,9.2,993.2,1.1,65,3,,87.044,133.344,133.344,290,,,,,,,,,,,og-post,,,,AAXX 28054 07661 36/// /2947 10092 20030 39771 49932 53011 333 91072 91172=
07661,1999-12-28 08:00:00,9.1,996.1,2.8,54,0.3,,72.228,111.12,111.12,300,,,,,,,,,,,og-post,,,,AAXX 28084 07661 36/// /3039 10091 20003 39799 49961 51028 333 91060 91160=
07661,1999-12-28 09:00:00,8.9,997.6,3.3,55,0.4,18000,75.932,111.12,107.416,300,,,,,,,,,,,og-post,,,,AAXX 28094 07661 32568 23041 10089 20004 39814 49976 51033 82200 333 91058 91160 92467=
07661,1999-12-28 10:00:00,9.3,998.8,2.9,52,0,,68.524,114.824,114.824,300,,,,,,,,,,,og-post,,,,AAXX 28104 07661 36/// /3037 10093 20000 39826 49988 53029 333 91062 91162=
07661,1999-12-28 11:00:00,9.6,998.4,2.3,52,0.2,,61.116,103.712,94.452,310,,,,,,,,,,,og-post,,,,AAXX 28114 07661 36/// /3133 10096 20002 39822 49984 50023 333 91051 91156=
07661,1999-12-28 12:00:00,10,998.9,1.3,47,-0.8,18000,64.82,114.824,83.34,310,,,,,,,,,,,og-post,,,,AAXX 28124 07661 32568 23135 10100 21008 39827 49989 51013 82200 333 91045 91162 92467=
07661,1999-12-28 13:00:00,10.1,999.1,0.3,41,-2.5,,79.636,114.824,107.416,310,,,,,,,,,,,og-post,,,,AAXX 28134 07661 36/// /3143 10101 21025 39829 49991 53003 333 91058 91162=
07661,1999-12-28 14:00:00,10,999.4,1,38,-3.6,,83.34,118.528,118.528,310,,,,,,,,,,,og-post,,,,AAXX 28144 07661 36/// /3145 10100 21036 39832 49994 51010 333 91064 91164=
07661,1999-12-28 15:00:00,9.7,1000.7,1.8,39,-3.6,35000,75.932,118.528,103.712,310,,,,,,,,,,,og-post,,,,AAXX 28154 07661 32581 23141 10097 21036 39845 40007 53018 82200 333 91056 91164 92468=
07661,1999-12-28 16:00:00,9,1002.3,3.1,41,-3.5,,57.412,118.528,90.748,310,,,,,,,,,,,og-post,,,,AAXX 28164 07661 36/// /3131 10090 21035 39860 40023 53031 333 91049 91164=
07661,1999-12-28 17:00:00,8.3,1003.3,3.7,46,-2.6,,50.004,87.044,79.636,320,,,,,,,,,,,og-post,,,,AAXX 28174 07661 36/// /3227 10083 21026 39869 40033 51037 333 91043 91147=
07661,1999-12-28 18:00:00,8.2,1003.6,2.7,40,-4.6,25000,50.004,118.528,75.932,310,8.1,10.2,,,,,,,,,og-post,,,,AAXX 28184 07661 32575 23127 10082 21046 39872 40036 51027 82200 333 10102 20081 91041 91164 92468=
07661,1999-12-28 19:00:00,7.9,1004.5,2.1,41,-4.5,,38.892,72.228,,310,,,,,,,,,,,og-post,,,,AAXX 28194 07661 36/// /3121 10079 21045 39881 40045 52021 333 91139=
07661,1999-12-28 20:00:00,7.5,1005.4,2.1,44,-3.9,,38.892,68.524,61.116,300,,,,,,,,,,,og-post,,,,AAXX 28204 07661 36/// /3021 10075 21039 39890 40054 53021 333 91033 91137=
07661,1999-12-28 21:00:00,7,1006.1,2.4,49,-3,25000,46.3,72.228,,300,,,,,,,,,,,og-post,,,,AAXX 28214 07661 32575 13025 10070 21030 39896 40061 51024 81200 333 91139 92468=
07661,1999-12-28 22:00:00,6.4,1006.8,2.2,53,-2.5,,38.892,,,300,,,,,,,,,,,og-post,,,,AAXX 28224 07661 36/// /3021 10064 21025 39903 40068 51022=
07661,1999-12-28 23:00:00,6.2,1007.2,1.7,54,-2.4,,38.892,64.82,,300,,,,,,,,,,,og-post,,,,AAXX 28234 07661 36/// /3021 10062 21024 39907 40072 51017 333 91135=
07661,1999-12-29 00:00:00,6,1007.5,1.3,57,-1.9,25000,50.004,72.228,,300,,,,,,,,,,,og-post,,,,AAXX 29004 07661 32575 13027 10060 21019 39909 40075 51013 81200 333 91139 92468=
07661,1999-12-29 01:00:00,5.5,1008,1.1,58,-2.1,,38.892,,,300,,,,,,,,,,,og-post,,,,AAXX 29014 07661 36/// /3021 10055 21021 39914 40080 53011=
07661,1999-12-29 02:00:00,5.7,1007.8,0.5,51,-3.6,,46.3,,,300,,,,,,,,,,,og-post,,,,AAXX 29024 07661 36/// /3025 10057 21036 39912 40078 50005=
07661,1999-12-29 03:00:00,5.4,1007.7,0.2,53,-3.4,25000,50.004,72.228,72.228,310,,,,,,,,,,,og-post,,,,AAXX 29034 07661 32575 13127 10054 21034 39911 40077 50002 81200 333 91039 91139 92468=
07661,1999-12-29 04:00:00,5.4,1007.9,-0.1,49,-4.4,,53.708,72.228,,300,,,,,,,,,,,og-post,,,,AAXX 29044 07661 36/// /3029 10054 21044 39913 40079 55001 333 91139=
07661,1999-12-29 05:00:00,5.1,1008.2,0.4,48,-5,,53.708,75.932,,300,,,,,,,,,,,og-post,,,,AAXX 29054 07661 36/// /3029 10051 21050 39916 40082 53004 333 91141=
07661,1999-12-29 06:00:00,4.8,1008.7,0.9,51,-4.5,25000,46.3,75.932,,300,4.8,8.2,,,,,0,,,,og-post,,,,AAXX 29064 07661 32975 03025 10048 21045 39920 40087 53009 333 10082 20048 70000 91141 92468=
07661,1999-12-29 07:00:00,5,1009,1.1,51,-4.3,,50.004,79.636,75.932,300,,,,,,,,,,,og-post,,,,AAXX 29074 07661 36/// /3027 10050 21043 39924 40090 53011 333 91041 91143=
07661,1999-12-29 08:00:00,4.9,1009.8,1.5,54,-3.6,,42.596,68.524,,300,,,,,,,,,,,og-post,,,,AAXX 29084 07661 36/// /3023 10049 21036 39931 40098 53015 333 91137=
07661,1999-12-29 09:00:00,5.4,1010.3,1.7,55,-2.9,45000,46.3,79.636,64.82,300,,,,,,,,,,,og-post,,,,AAXX 29094 07661 32583 13025 10054 21029 39937 40103 53017 81100 333 91035 91143 92468=
07661,1999-12-29 10:00:00,6.1,1010.5,1.5,54,-2.5,,42.596,68.524,,290,,,,,,,,,,,og-post,,,,AAXX 29104 07661 36/// /2923 10061 21025 39939 40105 51015 333 91137=
07661,1999-12-29 11:00:00,7,1010.8,1.1,46,-3.8,,38.892,64.82,,300,,,,,,,,,,,og-post,,,,AAXX 29114 07661 36/// /3021 10070 21038 39942 40108 51011 333 91135=
07661,1999-12-29 12:00:00,7.5,1010.9,0.7,46,-3.4,35000,35.188,79.636,61.116,300,,,,,,,,,,,og-post,,,,AAXX 29124 07661 32581 13019 10075 21034 39944 40109 52007 81100 333 91033 91143 92468=
07661,1999-12-29 13:00:00,7.9,1010.4,0,45,-3.3,,42.596,72.228,64.82,300,,,,,,,,,,,og-post,,,,AAXX 29134 07661 36/// /3023 10079 21033 39939 40104 50000 333 91035 91139=
07661,1999-12-29 14:00:00,8.1,1010.6,-0.1,44,-3.4,,38.892,,,300,,,,,,,,,,,og-post,,,,AAXX 29144 07661 36/// /3021 10081 21034 39941 40106 57001=
07661,1999-12-29 15:00:00,7.8,1011.4,0.5,46,-3.1,35000,46.3,72.228,,300,,,,,,,,,,,og-post,,,,AAXX 29154 07661 32581 23025 10078 21031 39949 40114 53005 81102 333 91139 92468=
07661,1999-12-29 16:00:00,6.8,1012.7,2.2,50,-2.9,,35.188,72.228,,300,,,,,,,,,,,og-post,,,,AAXX 29164 07661 36/// /3019 10068 21029 39961 40127 53022 333 91139=
07661,1999-12-29 17:00:00,6.2,1012.7,2,51,-3.2,,42.596,57.412,,310,,,,,,,,,,,og-post,,,,AAXX 29174 07661 36/// /3123 10062 21032 39961 40127 51020 333 91131=
07661,1999-12-29 18:00:00,5.9,1013.2,1.6,51,-3.4,26000,42.596,72.228,,310,4.7,8.1,,,,,,,,,og-post,,,,AAXX 29184 07661 32976 03123 10059 21034 39965 40132 51016 333 10081 20047 91139 92458=
07661,1999-12-29 19:00:00,5.8,1013.9,1.1,51,-3.5,,35.188,57.412,57.412,310,,,,,,,,,,,og-post,,,,AAXX 29194 07661 36/// /3119 10058 21035 39972 40139 53011 333 91031 91131=
07661,1999-12-29 20:00:00,5.9,1014.5,1.7,42,-6,,25.928,,,310,,,,,,,,,,,og-post,,,,AAXX 29204 07661 36/// /3114 10059 21060 39978 40145 53017=
07661,1999-12-29 21:00:00,6.2,1014.6,1.4,41,-6.1,26000,29.632,57.412,,320,,,,,,,,,,,og-post,,,,AAXX 29214 07661 32976 03216 10062 21061 39979 40146 51014 333 91131 92458=
07661,1999-12-29 22:00:00,6,1015.4,1.5,42,-5.9,,18.52,,,310,,,,,,,,,,,og-post,,,,AAXX 29224 07661 36/// /3110 10060 21059 39987 40154 53015=
07661,1999-12-29 23:00:00,5.8,1016.5,2,41,-6.4,,11.112,,,310,,,,,,,,,,,og-post,,,,AAXX 29234 07661 36/// /3106 10058 21064 39998 40165 53020=
07661,1999-12-30 00:00:00,5.7,1017,2.4,40,-6.8,26000,11.112,57.412,,300,,,,,,,,,,,og-post,,,,AAXX 30004 07661 32976 03006 10057 21068 30003 40170 51024 333 91131 92458=
07661,1999-12-30 01:00:00,5.9,1017.3,1.9,40,-6.6,,,,,,,,,,,,,,,,og-post,,,,AAXX 30014 07661 36/// /0000 10059 21066 30006 40173 51019=
07661,1999-12-30 02:00:00,6.1,1018.4,1.9,36,-7.8,,3.704,,,290,,,,,,,,,,,og-post,,,,AAXX 30024 07661 36/// /2902 10061 21078 30017 40184 53019=
07661,1999-12-30 03:00:00,5.8,1019.1,2,42,-6.1,26000,11.112,,,60,,,,,,,,,,,og-post,,,,AAXX 30034 07661 32976 00606 10058 21061 30023 40191 53020 333 92428=
07661,1999-12-30 04:00:00,6.4,1019.4,2.1,36,-7.6,,7.408,,,290,,,,,,,,,,,og-post,,,,AAXX 30044 07661 36/// /2904 10064 21076 30027 40194 51021=
07661,1999-12-30 05:00:00,5.7,1019.9,1.4,51,-3.6,,7.408,,,70,,,,,,,,,,,og-post,,,,AAXX 30054 07661 36/// /0704 10057 21036 30031 40199 51014=
07661,1999-12-30 06:00:00,5.6,1020.4,1.3,46,-5.1,30000,,,,,5.5,6.5,,,,,0,,,,og-post,,,,AAXX 30064 07661 32980 00000 10056 21051 30036 40204 53013 333 10065 20055 70000 92428=
07661,1999-12-30 07:00:00,5.5,1021.1,1.6,51,-3.8,,3.704,,,330,,,,,,,,,,,og-post,,,,AAXX 30074 07661 36/// /3302 10055 21038 30043 40211 53016=
07661,1999-12-30 08:00:00,6,1022.1,2.2,39,-6.9,,3.704,,,310,,,,,,,,,,,og-post,,,,AAXX 30084 07661 36/// /3102 10060 21069 30053 40221 53022=
07661,1999-12-30 09:00:00,7,1023,2.6,44,-4.4,30000,14.816,,,100,,,,,,,,,,,og-post,,,,AAXX 30094 07661 32580 21008 10070 21044 30062 40230 53026 82200 333 92428=
07661,1999-12-30 10:00:00,9,1023.6,2.6,37,-4.9,,7.408,,,100,,,,,,,,,,,og-post,,,,AAXX 30104 07661 36/// /1004 10090 21049 30069 40236 51026=
07661,1999-12-30 11:00:00,9.1,1023.8,1.9,40,-3.8,,7.408,,,220,,,,,,,,,,,og-post,,,,AAXX 30114 07661 36/// /2204 10091 21038 30072 40238 51019=
07661,1999-12-30 12:00:00,8.5,1023.9,1,46,-2.4,30000,3.704,,,200,,,,,,,,,,,og-post,,,,AAXX 30124 07661 32580 12002 10085 21024 30072 40239 51010 81100 333 92428=
07661,1999-12-30 13:00:00,9.1,1023.9,0.4,45,-2.2,,7.408,,,170,,,,,,,,,,,og-post,,,,AAXX 30134 07661 36/// /1704 10091 21022 30073 40239 51004=
07661,1999-12-30 14:00:00,9.3,1024,0.2,30,-7.4,,7.408,,,110,,,,,,,,,,,og-post,,,,AAXX 30144 07661 36/// /1104 10093 21074 30074 40240 53002=
07661,1999-12-30 15:00:00,9.3,1024.5,0.7,41,-3.3,30000,7.408,,,170,,,,,,,,,,,og-post,,,,AAXX 30154 07661 32580 11704 10093 21033 30079 40245 53007 81100 333 92428=
07661,1999-12-30 16:00:00,8.4,1024.9,0.9,49,-1.7,,7.408,,,190,,,,,,,,,,,og-post,,,,AAXX 30164 07661 36/// /1904 10084 21017 30082 40249 53009=
07661,1999-12-30 17:00:00,7.9,1025.1,1,42,-4.2,,11.112,,,90,,,,,,,,,,,og-post,,,,AAXX 30174 07661 36/// /0906 10079 21042 30084 40251 51010=
07661,1999-12-30 18:00:00,6.4,1025.4,0.7,62,-0.3,30000,7.408,,,310,5.5,9.5,,,,,,,,,og-post,,,,AAXX 30184 07661 32580 13104 10064 21003 30086 40254 51007 81100 333 10095 20055 92428=
07661,1999-12-30 19:00:00,6.6,1025.7,0.7,52,-2.5,,7.408,,,330,,,,,,,,,,,og-post,,,,AAXX 30194 07661 36/// /3304 10066 21025 30089 40257 53007=
07661,1999-12-30 20:00:00,5.5,1025.7,0.4,66,-0.3,,7.408,,,340,,,,,,,,,,,og-post,,,,AAXX 30204 07661 36/// /3404 10055 21003 30088 40257 50004=
07661,1999-12-30 21:00:00,5.3,1025.8,0.3,62,-1.4,30000,3.704,,,10,,,,,,,,,,,og-post,,,,AAXX 30214 07661 32980 00102 10053 21014 30089 40258 51003 333 92428=
07661,1999-12-30 22:00:00,5.1,1025.7,-0.1,68,-0.3,,7.408,,,310,,,,,,,,,,,og-post,,,,AAXX 30224 07661 36/// /3104 10051 21003 30088 40257 57001=
07661,1999-12-30 23:00:00,4.4,1025.6,-0.2,62,-2.2,,11.112,,,100,,,,,,,,,,,og-post,,,,AAXX 30234 07661 36/// /1006 10044 21022 30086 40256 58002=
07661,1999-12-31 00:00:00,4.4,1025.1,-0.7,62,-2.2,30000,3.704,,,10,,,,,,,,,,,og-post,,,,AAXX 31004 07661 32980 00102 10044 21022 30082 40251 58007 333 92428=
07661,1999-12-31 01:00:00,5.1,1024.6,,59,-2.2,,7.408,,,270,,,,,,,,,,,og-post,,,,AAXX 31014 07661 36/// /2704 10051 21022 30077 40246 8011=
07661,1999-12-31 02:00:00,4.9,1024.4,-1.1,61,-2,,3.704,,,320,,,,,,,,,,,og-post,,,,AAXX 31024 07661 36/// /3202 10049 21020 30075 40244 56011=
07661,1999-12-31 03:00:00,3.9,1024,-1.2,61,-2.9,30000,11.112,,,330,,,,,,,,,,,og-post,,,,AAXX 31034 07661 32980 53306 10039 21029 30070 40240 57012 85050 333 92428=
07661,1999-12-31 04:00:00,5.4,1023.4,-1.2,40,-7.1,,14.816,,,290,,,,,,,,,,,og-post,,,,AAXX 31044 07661 36/// /2908 10054 21071 30065 40234 58012=
07661,1999-12-31 05:00:00,4.7,1023.1,-1.3,53,-4,,14.816,,,330,,,,,,,,,,,og-post,,,,AAXX 31054 07661 36/// /3308 10047 21040 30062 40231 56013=
07661,1999-12-31 06:00:00,3.8,1023.4,-0.6,52,-5.1,30000,11.112,,,60,3.8,6.7,,,,,0,,,,og-post,,,,AAXX 31064 07661 32980 10606 10038 21051 30064 40234 55006 81040 333 10067 20038 70000 92428=
07661,1999-12-31 07:00:00,3.6,1023.5,-0,54,-4.8,,3.704,,,60,,,,,,,,,,,og-post,,,,AAXX 31074 07661 36/// /0602 10036 21048 30065 40235 55000=
07661,1999-12-31 08:00:00,4,1023.6,0.5,64,-2.2,,3.704,,,70,,,,,,,,,,,og-post,,,,AAXX 31084 07661 36/// /0702 10040 21022 30067 40236 52005=
07661,1999-12-31 09:00:00,5.4,1024.2,0.9,54,-3.1,40000,7.408,,,70,,,,,,,,,,,og-post,,,,AAXX 31094 07661 32582 10704 10054 21031 30073 40242 53009 81101 333 92428=
07661,1999-12-31 10:00:00,7.1,1024.4,1.1,46,-3.7,,3.704,,,80,,,,,,,,,,,og-post,,,,AAXX 31104 07661 36/// /0802 10071 21037 30076 40244 53011=
07661,1999-12-31 11:00:00,7.2,1024,0.5,46,-3.6,,3.704,,,220,,,,,,,,,,,og-post,,,,AAXX 31114 07661 36/// /2202 10072 21036 30072 40240 50005=
07661,1999-12-31 12:00:00,7.8,1023.4,-0.6,33,-7.4,30000,,,,,,,,,,,,,,,og-post,,,,AAXX 31124 07661 32580 40000 10078 21074 30067 40234 58006 81271 333 92428=
07661,1999-12-31 13:00:00,8.6,1022.9,-1.4,40,-4.2,,3.704,,,300,,,,,,,,,,,og-post,,,,AAXX 31134 07661 36/// /3002 10086 21042 30062 40229 58014=
07661,1999-12-31 14:00:00,8.6,1022.8,-1.1,46,-2.3,,7.408,,,240,,,,,,,,,,,og-post,,,,AAXX 31144 07661 36/// /2404 10086 21023 30061 40228 56011=
07661,1999-12-31 15:00:00,8.5,1022.9,-0.5,41,-4,30000,3.704,,,310,,,,,,,,,,,og-post,,,,AAXX 31154 07661 32580 73102 10085 21040 30062 40229 55005 81272 333 92428=
07661,1999-12-31 16:00:00,8.2,1022.7,-0.2,33,-7.1,,,,,,,,,,,,,,,,og-post,,,,AAXX 31164 07661 36/// /0000 10082 21071 30060 40227 58002=
07661,1999-12-31 17:00:00,7.5,1022.5,-0.3,41,-4.9,,11.112,,,300,,,,,,,,,,,og-post,,,,AAXX 31174 07661 36/// /3006 10075 21049 30058 40225 58003=
07661,1999-12-31 18:00:00,6.7,1022.9,-0.1,50,-3,30000,11.112,,,310,3.2,8.9,,,,,,,,,og-post,,,,AAXX 31184 07661 32980 33106 10067 21030 30061 40229 55001 83070 333 10089 20032 92428=
07661,1999-12-31 19:00:00,6.1,1023.1,0.3,53,-2.7,,7.408,,,310,,,,,,,,,,,og-post,,,,AAXX 31194 07661 36/// /3104 10061 21027 30063 40231 53003=
07661,1999-12-31 20:00:00,5.7,1023.4,0.8,62,-1,,7.408,,,50,,,,,,,,,,,og-post,,,,AAXX 31204 07661 36/// /0504 10057 21010 30066 40234 52008=
07661,1999-12-31 21:00:00,5.6,1023.9,0.9,53,-3.2,30000,14.816,,,60,,,,,,,,,,,og-post,,,,AAXX 31214 07661 32980 10608 10056 21032 30070 40239 53009 81070 333 92428=
07661,1999-12-31 22:00:00,5.2,1023.7,0.5,60,-1.9,,7.408,,,20,,,,,,,,,,,og-post,,,,AAXX 31224 07661 36/// /0204 10052 21019 30068 40237 50005=
07661,1999-12-31 23:00:00,4.9,1024,0.5,73,0.5,,7.408,,,40,,,,,,,,,,,og-post,,,,AAXX 31234 07661 36/// /0404 10049 20005 30071 40240 51005=
