station_id,dh_utc,temperature,pression,pression_variation_3h,humidite,point_de_rosee,visibilite,vent_moyen,vent_rafales,vent_rafales_10min,vent_direction,temperature_min,temperature_max,pluie_1h,pluie_3h,pluie_6h,pluie_12h,pluie_24h,ensoleillement,temperature_sol,temps_omm,source,radiations,neige_au_sol,nebulosite,raw_msg
07335,1996-01-01 00:00:00,10,1001,-0.4,93,9,0,7.408,,,220,,,,,,,,,,,wg-a,,,,AAXX 01004 07335 12/// /2204 10100 20090 39867 40010 58004 60006 90000=
07335,1996-01-01 06:00:00,9,997.9,-2,100,9,20000,7.408,,,160,5.8,9.5,,,,,,,,,wg-a,,,,AAXX 01064 07335 02170 81604 10090 20090 39836 49979 58020 60006 88700 90600 333 10095 20058 60004=
07335,1996-01-01 09:00:00,9,997,-0.9,93,8,20000,14.816,,,130,,,,,,,,,,21,wg-a,,,,AAXX 01094 07335 02270 81308 10090 20080 39827 49970 57009 61000 72122 877// 90900 333 ////=
07335,1996-01-01 12:00:00,10,995.6,-1.3,87,8,25000,11.112,,,150,,,,0,,,,,,21,wg-a,,,,AAXX 01124 07335 02675 81506 10100 20080 39814 49956 58013 60006 72162 8357/ 91200 333 60007=
07335,1996-01-01 15:00:00,10,994.6,-1,87,8,25000,11.112,,,150,,,,1,,,,,,61,wg-a,,,,AAXX 01154 07335 12375 81506 10100 20080 39804 49946 55010 60017 76166 8557/ 91500=
07335,1996-01-01 18:00:00,9,994.7,-0,93,8,0,14.816,,,150,8.6,9.9,,,,,,,,,wg-a,,,,AAXX 01184 07335 32/// /1508 10090 20080 39804 49947 55000 91800 333 10099 20086=
07335,1996-01-02 00:00:00,11,994.5,0,87,9,0,22.224,,,220,,,,,,,,,,,wg-a,,,,AAXX 02004 07335 12/// /2212 10110 20090 39803 49945 50000 60026 90000=
07335,1996-01-02 06:00:00,7,1002.8,6.1,100,7,10000,35.188,,,320,7.3,10.9,,3,,,13,,,20,wg-a,,,,AAXX 02064 07335 02260 83219 10070 20070 39883 40028 53061 60134 72052 877// 90600 333 10109 20073 60037=
07335,1996-01-02 09:00:00,8,1009.6,6.7,93,7,8000,29.632,,,320,,,,3,,,,,,60,wg-a,,,,AAXX 02094 07335 12258 83216 10080 20070 39950 40096 51067 60037 76062 877// 90900=
07335,1996-01-02 12:00:00,8,1013.4,3.8,87,6,7000,22.224,,,330,,,,,,,,,,1,wg-a,,,,AAXX 02124 07335 02457 83312 10080 20060 39988 40134 51038 60036 70162 876// 91200 333 61000=
07335,1996-01-02 15:00:00,8,1016.4,3,87,6,12000,18.52,,,350,,,,,,,,,,,wg-a,,,,AAXX 02154 07335 12462 73510 10080 20060 30018 40164 53030 60006 875// 91500=
07335,1996-01-02 18:00:00,7,1018.8,2.3,93,6,10000,3.704,,,280,4.3,8.5,,,,,,,,,wg-a,,,,AAXX 02184 07335 32560 /2802 10070 20060 30041 40188 51023 86500 91800 333 10085 20043=
07335,1996-01-03 00:00:00,4,1021.5,1.2,100,4,0,7.408,,,240,,,,,,,,,,,wg-a,,,,AAXX 03004 07335 12/// /2404 10040 20040 30066 40215 52012 60006 90000=
07335,1996-01-03 06:00:00,3,1020.4,0.2,100,3,100,7.408,,,110,-0.6,6.6,,,,,3,,,45,wg-a,,,,AAXX 03064 07335 02/01 91104 10030 20030 30055 40204 53002 60006 74542 89/// 90600 333 10066 21006 60034=
07335,1996-01-03 09:00:00,5,1021.5,1.1,100,5,1500,11.112,,,120,,,,,,,,,,28,wg-a,,,,AAXX 03094 07335 12015 91206 10050 20050 30066 40215 51011 60006 72842 896// 90900=
07335,1996-01-03 12:00:00,7,1020.7,-0.7,93,6,9000,11.112,,,120,,,,,,,,,,2,wg-a,,,,AAXX 03124 07335 12359 81206 10070 20060 30059 40207 58007 60006 70242 876// 91200=
07335,1996-01-03 15:00:00,8,1019.5,-1.1,81,5,15000,14.816,,,120,,,,,,,,,,,wg-a,,,,AAXX 03154 07335 12465 71208 10080 20050 30048 40195 55011 60006 875// 91500=
07335,1996-01-03 18:00:00,5,1019.4,-0.2,93,4,12000,7.408,,,80,3.4,8.3,,,,,,,,,wg-a,,,,AAXX 03184 07335 12/62 60804 10050 20040 30046 40194 55002 60006 80002 91800 333 10083 20034=
07335,1996-01-04 00:00:00,3,1017.5,-1.6,93,2,0,3.704,,,110,,,,,,,,,,,wg-a,,,,AAXX 04004 07335 12/// /1102 10030 20020 30026 40175 56016 60006 90000=
07335,1996-01-04 06:00:00,3,1012.6,-2.8,87,1,10000,14.816,,,130,1.7,5.1,,,,,,,,,wg-a,,,,AAXX 04064 07335 02/60 81308 10030 20010 39977 40126 56028 60006 85072 90600 333 10051 20017 60004=
07335,1996-01-04 09:00:00,3,1011,-1.5,87,1,12000,11.112,,,140,,,,,,,,,,,wg-a,,,,AAXX 04094 07335 12/62 71406 10030 20010 39962 40110 58015 60006 85032 90900=
07335,1996-01-04 12:00:00,8,1008.9,-1.9,66,2,12000,11.112,,,160,,,,,,,,,,,wg-a,,,,AAXX 04124 07335 12/62 71606 10080 20020 39943 40089 58019 60006 8707/ 91200=
07335,1996-01-04 15:00:00,7,1007.4,-1.5,81,4,15000,11.112,,,150,,,,1,,,,,,21,wg-a,,,,AAXX 04154 07335 12665 71506 10070 20040 39928 40074 58015 60017 72162 8757/ 91500=
07335,1996-01-05 00:00:00,7,1004.4,-2.3,81,4,0,11.112,,,160,,,,,,,,,,,wg-a,,,,AAXX 05004 07335 12/// /1606 10070 20040 39899 40044 56023 60006 90000=
07335,1996-01-05 06:00:00,7,999.7,-2.2,76,3,15000,7.408,,,150,5.2,8,,,,,1,,,,wg-a,,,,AAXX 05064 07335 12665 81504 10070 20030 39852 49997 56022 60014 875// 90600 333 10080 20052=
07335,1996-01-05 09:00:00,9,998.5,-1,76,5,20000,14.816,,,190,,,,,,,,,,15,wg-a,,,,AAXX 05094 07335 12770 81908 10090 20050 39842 49985 55010 60006 71522 8557/ 90900=
07335,1996-01-05 12:00:00,8,998.8,0.2,93,7,12000,14.816,,,200,,,,1,,,,,,61,wg-a,,,,AAXX 05124 07335 02562 82008 10080 20070 39844 49988 50002 60016 76162 885// 91200 333 60017=
07335,1996-01-05 15:00:00,8,999.5,0.7,93,7,8000,7.408,,,290,,,,7,,,,,,60,wg-a,,,,AAXX 05154 07335 12258 82904 10080 20070 39851 49995 51007 60077 76066 875// 91500=
07335,1996-01-05 18:00:00,7,999.6,0.1,93,6,20000,14.816,,,220,6.7,8.8,,1,,,,,,1,wg-a,,,,AAXX 05184 07335 12/70 72208 10070 20060 39852 49996 50001 60017 70162 8707/ 91800 333 10088 20067=
07335,1996-01-06 00:00:00,4,1001,-0.3,100,4,0,11.112,,,210,,,,,,,,,,,wg-a,,,,AAXX 06004 07335 12/// /2106 10040 20040 39864 40010 58003 60006 90000=
07335,1996-01-06 06:00:00,5,998.1,-1.4,100,5,800,18.52,,,170,3.1,6.8,,,,,9,,,42,wg-a,,,,AAXX 06064 07335 02108 91710 10050 20050 39836 49981 58014 60006 74242 896// 90600 333 10068 20031 60094=
07335,1996-01-06 09:00:00,6,995.1,-2.9,93,5,500,18.52,,,160,,,,,,,,,,3,wg-a,,,,AAXX 06094 07335 12800 71610 10060 20050 39807 49951 56029 60006 70342 8453/ 90900=
07335,1996-01-06 12:00:00,8,991.9,-3.1,81,5,500,22.224,,,170,,,,,,,,,,3,wg-a,,,,AAXX 06124 07335 12800 71712 10080 20050 39776 49919 58031 60006 70342 8557/ 91200=
07335,1996-01-06 15:00:00,7,990.2,-1.7,93,6,25000,7.408,,,140,,,,6,,,,,,21,wg-a,,,,AAXX 06154 07335 12675 81404 10070 20060 39759 49902 58017 60067 72162 8652/ 91500=
07335,1996-01-06 18:00:00,8,988,-2.1,93,7,0,14.816,,,180,5.2,8.4,,,,,,,,,wg-a,,,,AAXX 06184 07335 32/// /1808 10080 20070 39738 49880 56021 91800 333 10084 20052=
07335,1996-01-07 00:00:00,9,990.4,1.7,93,8,0,18.52,,,200,,,,5,,,,,,,wg-a,,,,AAXX 07004 07335 02/// /2010 10090 20080 39762 49904 51017 60156 90000 333 60057=
07335,1996-01-07 06:00:00,8,994.7,2,93,7,20000,14.816,,,210,7.7,9.4,,2,,,25,,,25,wg-a,,,,AAXX 07064 07335 02570 72108 10080 20070 39804 49947 51020 60254 72522 83832 90600 333 10094 20077 60027=
07335,1996-01-07 09:00:00,8,997.5,2.8,93,7,20000,18.52,,,210,,,,0,,,,,,3,wg-a,,,,AAXX 07094 07335 12570 52110 10080 20070 39832 49975 53028 60007 70386 82832 90900=
07335,1996-01-07 12:00:00,12,1000,2.6,82,9,20000,14.816,,,210,,,,,,,,,,3,wg-a,,,,AAXX 07124 07335 12470 62108 10120 20090 39858 40000 51026 60006 70386 83832 91200=
07335,1996-01-07 15:00:00,11,1001.6,1.5,82,8,20000,18.52,,,220,,,,2,,,,,,25,wg-a,,,,AAXX 07154 07335 12470 52210 10110 20080 39873 40016 53015 60027 72586 82933 91500=
07335,1996-01-07 18:00:00,9,1004.2,2.5,93,8,0,14.816,,,210,7.9,11.9,,2,,,,,,,wg-a,,,,AAXX 07184 07335 12/// /2108 10090 20080 39898 40042 51025 60027 91800 333 10119 20079=
07335,1996-01-08 00:00:00,6,1009.8,2.3,93,5,0,11.112,,,220,,,,,,,,,,,wg-a,,,,AAXX 08004 07335 02/// /2206 10060 20050 39952 40098 51023 61000 90000 333 ////=
07335,1996-01-08 06:00:00,7,1009.3,-0.4,93,6,15000,14.816,,,170,5.3,8.8,,,,,3,,,,wg-a,,,,AAXX 08064 07335 02/65 41708 10070 20060 39947 40093 58004 60034 82032 90600 333 10088 20053 61000=
07335,1996-01-08 09:00:00,8,1008.9,-0.3,81,5,20000,22.224,,,170,,,,,,,,,,,wg-a,,,,AAXX 08094 07335 12/70 51712 10080 20050 39944 40089 58003 60006 82032 90900=
07335,1996-01-08 12:00:00,13,1006.6,-2,62,6,25000,29.632,,,170,,,,,,,,,,,wg-a,,,,AAXX 08124 07335 12/75 61716 10130 20060 39924 40066 58020 60006 81032 91200=
07335,1996-01-08 15:00:00,12,1004,-2.6,67,6,25000,18.52,,,160,,,,,,,,,,,wg-a,,,,AAXX 08154 07335 12/75 71610 10120 20060 39898 40040 56026 60006 85032 91500=
07335,1996-01-08 18:00:00,10,1002.1,-2,66,4,25000,14.816,,,160,6,13.4,,,,,,,,,wg-a,,,,AAXX 08184 07335 12/75 81608 10100 20040 39878 40021 58020 60006 86032 91800 333 10134 20060=
07335,1996-01-09 00:00:00,11,999.8,-1,58,3,0,22.224,,,190,,,,,,,,,,,wg-a,,,,AAXX 09004 07335 12/// /1912 10110 20030 39856 49998 58010 60006 90000=
07335,1996-01-09 06:00:00,10,998.9,0.6,87,8,10000,18.52,,,200,9.5,11.7,,,,,,,,50,wg-a,,,,AAXX 09064 07335 02360 82010 10100 20080 39846 49989 53006 60004 75065 8557/ 90600 333 10117 20095 61000=
07335,1996-01-09 09:00:00,9,1001.5,2.6,93,8,10000,11.112,,,280,,,,1,,,,,,51,wg-a,,,,AAXX 09094 07335 12260 82806 10090 20080 39872 40015 51026 60017 75165 875// 90900=
07335,1996-01-09 12:00:00,11,1002,0.5,87,9,15000,7.408,,,170,,,,0,,,,,,1,wg-a,,,,AAXX 09124 07335 02365 81704 10110 20090 39877 40020 51005 60026 70165 81172 91200 333 60007=
07335,1996-01-09 15:00:00,12,1002.5,0.6,88,10,15000,7.408,,,200,,,,,,,,,,,wg-a,,,,AAXX 09154 07335 12365 72004 10120 20100 39883 40025 53006 60006 81172 91500=
07335,1996-01-09 18:00:00,10,1003.7,1.1,93,9,15000,7.408,,,180,9.1,12.2,,,,,,,,,wg-a,,,,AAXX 09184 07335 32665 71804 10100 20090 39894 40037 53011 81532 91800 333 10122 20091=
07335,1996-01-10 00:00:00,9,1004.5,0,93,8,0,3.704,,,170,,,,,,,,,,,wg-a,,,,AAXX 10004 07335 12/// /1702 10090 20080 39901 40045 50000 60006 90000=
07335,1996-01-10 06:00:00,8,1004.6,-0.5,100,8,10000,3.704,,,120,7.4,10.5,,2,,,6,,,61,wg-a,,,,AAXX 10064 07335 02660 81202 10080 20080 39902 40046 58005 60064 76162 875// 90600 333 10105 20074 60027=
07335,1996-01-10 09:00:00,8,1005.6,0.9,100,8,1200,3.704,,,10,,,,1,,,,,,10,wg-a,,,,AAXX 10094 07335 12212 80102 10080 20080 39911 40056 53009 60017 71062 875// 90900=
07335,1996-01-10 12:00:00,8,1005.5,-0.1,100,8,4000,7.408,,,20,,,,3,,,,,,10,wg-a,,,,AAXX 10124 07335 02240 80204 10080 20080 39910 40055 58001 60046 71062 8652/ 91200 333 60037=
07335,1996-01-10 15:00:00,8,1005.4,-0,100,8,500,11.112,,,350,,,,3,,,,,,61,wg-a,,,,AAXX 10154 07335 12300 83506 10080 20080 39910 40054 55000 60037 76166 8552/ 91500=
07335,1996-01-10 18:00:00,7,1006.9,1.4,93,6,7000,3.704,,,260,6.9,8.6,,1,,,,,,21,wg-a,,,,AAXX 10184 07335 12257 82602 10070 20060 39924 40069 53014 60017 72162 8452/ 91800 333 10086 20069=
07335,1996-01-11 00:00:00,7,1007.9,-0.1,93,6,0,14.816,,,220,,,,,,,,,,,wg-a,,,,AAXX 11004 07335 12/// /2208 10070 20060 39933 40079 56001 60006 90000=
07335,1996-01-11 06:00:00,7,1002.5,-2.4,93,6,15000,22.224,,,180,5,7.3,,,,,8,,,,wg-a,,,,AAXX 11064 07335 02365 81812 10070 20060 39880 40025 58024 60006 876// 90600 333 10073 20050 60084=
07335,1996-01-11 09:00:00,8,1000.2,-2.2,87,6,25000,29.632,,,190,,,,,,,,,,60,wg-a,,,,AAXX 11094 07335 02/75 71916 10080 20060 39858 40002 58022 61000 76062 8707/ 90900 333 ////=
07335,1996-01-11 12:00:00,10,998.2,-1.9,76,6,15000,25.928,,,200,,,,0,,,,,,61,wg-a,,,,AAXX 11124 07335 02465 72014 10100 20060 39839 49982 56019 60006 76162 8757/ 91200 333 60007=
07335,1996-01-11 15:00:00,9,997.4,-0.8,87,7,20000,29.632,,,190,,,,4,,,,,,61,wg-a,,,,AAXX 11154 07335 12570 81916 10090 20070 39831 49974 56008 60047 76162 875// 91500=
07335,1996-01-11 18:00:00,9,997.4,-0,93,8,12000,31.484,,,190,6.8,10.3,,1,,,,,,61,wg-a,,,,AAXX 11184 07335 12462 81917 10090 20080 39831 49974 55000 60017 76162 8552/ 91800 333 10103 20068=
07335,1996-01-12 00:00:00,9,998.6,0.4,87,7,0,25.928,,,200,,,,0,,,,,,,wg-a,,,,AAXX 12004 07335 02/// /2014 10090 20070 39843 49986 53004 60016 90000 333 60007=
07335,1996-01-12 06:00:00,8,998.8,0.3,87,6,25000,14.816,,,190,7.5,9.1,,,,,6,,,,wg-a,,,,AAXX 12064 07335 02475 /1908 10080 20060 39844 49988 52003 60064 81530 90600 333 10091 20075 61000=
07335,1996-01-12 09:00:00,6,1000.5,1.6,93,5,25000,11.112,,,180,,,,,,,,,,,wg-a,,,,AAXX 12094 07335 12/75 51806 10060 20050 39860 40005 53016 60006 82032 90900=
07335,1996-01-12 12:00:00,10,1001.9,1.6,82,7,25000,14.816,,,200,,,,,,,,,,,wg-a,,,,AAXX 12124 07335 12675 /2008 10100 20070 39876 40019 53016 60006 84832 91200=
07335,1996-01-12 15:00:00,11,1003.1,1.2,82,8,25000,18.52,,,210,,,,,,,,,,,wg-a,,,,AAXX 12154 07335 12575 52110 10110 20080 39888 40031 53012 60006 83832 91500=
07335,1996-01-12 18:00:00,9,1006.2,3,87,7,25000,14.816,,,200,5.7,11.6,,,,,,,,,wg-a,,,,AAXX 12184 07335 12575 52008 10090 20070 39918 40062 53030 60006 83802 91800 333 10116 20057=
07335,1996-01-13 00:00:00,8,1010.5,2,93,7,0,18.52,,,200,,,,,,,,,,,wg-a,,,,AAXX 13004 07335 12/// /2010 10080 20070 39959 40105 51020 60006 90000=
07335,1996-01-13 06:00:00,7,1013.3,1.7,100,7,1800,11.112,,,190,6.4,9.4,,,,,,,,10,wg-a,,,,AAXX 13064 07335 02118 81906 10070 20070 39987 40133 52017 60006 71022 886// 90600 333 10094 20064 60004=
07335,1996-01-13 09:00:00,7,1015.3,1.9,93,6,1000,14.816,,,180,,,,,,,,,,10,wg-a,,,,AAXX 13094 07335 12110 81808 10070 20060 30006 40153 53019 60006 71022 886// 90900=
07335,1996-01-13 12:00:00,8,1015.5,0.3,100,8,4800,14.816,,,190,,,,,,,,,,10,wg-a,,,,AAXX 13124 07335 12148 81908 10080 20080 30009 40155 50003 60006 71042 886// 91200=
07335,1996-01-13 15:00:00,11,1014.6,-0.7,82,8,15000,14.816,,,190,,,,,,,,,,,wg-a,,,,AAXX 13154 07335 12465 /1908 10110 20080 30002 40146 56007 60006 84102 91500=
07335,1996-01-13 18:00:00,8,1014.9,0.1,87,6,0,11.112,,,160,6.5,11.4,,,,,,,,,wg-a,,,,AAXX 13184 07335 12/// /1606 10080 20060 30003 40149 53001 60006 91800 333 10114 20065=
07335,1996-01-14 00:00:00,6,1013.3,-1.2,93,5,0,7.408,,,140,,,,,,,,,,,wg-a,,,,AAXX 14004 07335 12/// /1404 10060 20050 39986 40133 56012 60006 90000=
07335,1996-01-14 06:00:00,6,1012.2,-0.5,93,5,10000,11.112,,,120,4.6,7.7,,,,,,,,,wg-a,,,,AAXX 14064 07335 02/60 81206 10060 20050 39975 40122 55005 60006 80007 90600 333 10077 20046 60004=
07335,1996-01-14 09:00:00,7,1012.6,0.5,87,5,20000,7.408,,,150,,,,,,,,,,,wg-a,,,,AAXX 14094 07335 12/70 61504 10070 20050 39980 40126 53005 60006 80002 90900=
07335,1996-01-14 12:00:00,14,1011.8,-0.4,67,8,20000,18.52,,,170,,,,,,,,,,,wg-a,,,,AAXX 14124 07335 12/70 61710 10140 20080 39976 40118 58004 60006 81032 91200=
07335,1996-01-14 15:00:00,14,1012.3,0.4,72,9,25000,7.408,,,140,,,,,,,,,,,wg-a,,,,AAXX 14154 07335 12/75 71404 10140 20090 39980 40123 51004 60006 84032 91500=
07335,1996-01-14 18:00:00,12,1013.7,1.3,76,8,0,7.408,,,150,5.1,14.6,,,,,,,,,wg-a,,,,AAXX 14184 07335 12/// /1504 10120 20080 39993 40137 53013 60006 91800 333 10146 20051=
07335,1996-01-15 00:00:00,10,1016.6,1.3,82,7,0,7.408,,,120,,,,,,,,,,,wg-a,,,,AAXX 15004 07335 12/// /1204 10100 20070 30021 40166 51013 60006 90000=
07335,1996-01-15 06:00:00,8,1019.7,1.1,87,6,15000,7.408,,,110,8.2,12.3,,,,,,,,,wg-a,,,,AAXX 15064 07335 02/65 71104 10080 20060 30050 40197 53011 60006 8703/ 90600 333 10123 20082 60004=
07335,1996-01-15 09:00:00,10,1021.3,1.7,76,6,25000,11.112,,,130,,,,,,,,,,,wg-a,,,,AAXX 15094 07335 12/75 71306 10100 20060 30067 40213 52017 60006 8703/ 90900=
07335,1996-01-15 12:00:00,13,1021.9,0.8,72,8,25000,11.112,,,130,,,,,,,,,,,wg-a,,,,AAXX 15124 07335 12/75 71306 10130 20080 30075 40219 51008 60006 85032 91200=
07335,1996-01-15 15:00:00,15,1022.2,0.3,67,9,500,3.704,,,130,,,,,,,,,,,wg-a,,,,AAXX 15154 07335 12/00 71302 10150 20090 30078 40222 53003 60006 82032 91500=
07335,1996-01-15 18:00:00,11,1023.4,1,87,9,25000,7.408,,,70,8.3,14.9,,,,,,,,,wg-a,,,,AAXX 15184 07335 12/75 70704 10110 20090 30088 40234 51010 60006 82032 91800 333 10149 20083=
07335,1996-01-16 00:00:00,4,1025.7,0.3,93,3,0,0,,,0,,,,,,,,,,,wg-a,,,,AAXX 16004 07335 12/// /0000 10040 20030 30107 40257 51003 60006 90000=
07335,1996-01-16 06:00:00,1,1026.7,0.2,100,1,300,3.704,,,240,1.1,11.3,,,,,,,,44,wg-a,,,,AAXX 16064 07335 02/03 02402 10010 20010 30115 40267 53002 60006 74440 80000 90600 333 10113 20011 60004=
07335,1996-01-16 09:00:00,2,1027.8,1.2,100,2,2500,0,,,0,,,,,,,,,,10,wg-a,,,,AAXX 16094 07335 12/25 /0000 10020 20020 30127 40278 53012 60006 71040 80002 90900=
07335,1996-01-16 12:00:00,11,1026.6,-0.7,87,9,500,3.704,,,210,,,,,,,,,,2,wg-a,,,,AAXX 16124 07335 12/00 /2102 10110 20090 30120 40266 58007 60006 70241 80002 91200=
07335,1996-01-16 15:00:00,13,1025.6,-0.9,77,9,10000,7.408,,,60,,,,,,,,,,,wg-a,,,,AAXX 16154 07335 12/60 40604 10130 20090 30111 40256 56009 60006 80002 91500=
07335,1996-01-16 18:00:00,7,1026.7,0.8,93,6,500,3.704,,,60,0.4,14.1,,,,,,,,,wg-a,,,,AAXX 16184 07335 12/00 20602 10070 20060 30119 40267 52008 60006 80002 91800 333 10141 20004=
07335,1996-01-17 00:00:00,2,1026.1,-1,93,1,0,3.704,,,350,,,,,,,,,,,wg-a,,,,AAXX 17004 07335 12/// /3502 10020 20010 30110 40261 58010 60006 90000=
07335,1996-01-17 06:00:00,3,1025.6,-0.2,93,2,200,7.408,,,90,1.6,7,,,,,,,,45,wg-a,,,,AAXX 17064 07335 02/02 90904 10030 20020 30105 40256 55002 60006 74542 89/// 90600 333 10070 20016 60004=
07335,1996-01-17 09:00:00,3,1025.8,0.3,100,3,1800,3.704,,,100,,,,,,,,,,28,wg-a,,,,AAXX 17094 07335 12618 71002 10030 20030 30108 40258 53003 60006 72842 875// 90900=
07335,1996-01-17 12:00:00,6,1024.7,-0.9,93,5,8000,7.408,,,50,,,,,,,,,,3,wg-a,,,,AAXX 17124 07335 12458 70504 10060 20050 30099 40247 58009 60006 70342 87800 91200=
07335,1996-01-17 15:00:00,10,1022.8,-1.7,76,6,10000,7.408,,,70,,,,,,,,,,,wg-a,,,,AAXX 17154 07335 12660 /0704 10100 20060 30082 40228 56017 60006 81530 91500=
07335,1996-01-17 18:00:00,6,1023.1,0,87,4,9000,3.704,,,50,2.4,9.6,,,,,,,,,wg-a,,,,AAXX 17184 07335 12/59 00502 10060 20040 30082 40231 50000 60006 80000 91800 333 10096 20024=
07335,1996-01-18 00:00:00,5,1022.7,-0.2,100,5,0,7.408,,,100,,,,,,,,,,,wg-a,,,,AAXX 18004 07335 12/// /1004 10050 20050 30078 40227 56002 60006 90000=
07335,1996-01-18 06:00:00,-1,1021.6,-0.5,93,-2,8000,7.408,,,140,-1.8,5.5,,,,,,,,28,wg-a,,,,AAXX 18064 07335 02/58 01404 11010 21020 30064 40216 58005 60006 72840 80000 90600 333 10055 21018 60004=
07335,1996-01-18 09:00:00,3,1021.3,-0.1,87,1,15000,11.112,,,150,,,,,,,,,,,wg-a,,,,AAXX 18094 07335 12865 71506 10030 20010 30063 40213 56001 60006 875// 90900=
07335,1996-01-18 12:00:00,10,1019.9,-1,71,5,25000,18.52,,,190,,,,,,,,,,,wg-a,,,,AAXX 18124 07335 12875 71910 10100 20050 30053 40199 58010 60006 815/2 91200=
07335,1996-01-18 15:00:00,11,1018.9,-0.9,66,5,25000,14.816,,,190,,,,,,,,,,,wg-a,,,,AAXX 18154 07335 12/75 71908 10110 20050 30044 40189 55009 60006 80002 91500=
07335,1996-01-18 18:00:00,8,1019.4,0.3,76,4,25000,7.408,,,170,-1.2,11.5,,,,,,,,,wg-a,,,,AAXX 18184 07335 12/75 31704 10080 20040 30047 40194 53003 60006 80002 91800 333 10115 21012=
07335,1996-01-19 00:00:00,4,1019,-0.4,87,2,0,7.408,,,160,,,,,,,,,,,wg-a,,,,AAXX 19004 07335 12/// /1604 10040 20020 30041 40190 58004 60006 90000=
07335,1996-01-19 06:00:00,2,1016.9,-1.3,93,1,12000,11.112,,,170,1.8,7.7,,,,,,,,,wg-a,,,,AAXX 19064 07335 02862 61706 10020 20010 30020 40169 57013 60006 86500 90600 333 10077 20018 60004=
07335,1996-01-19 09:00:00,4,1016.4,-0.4,87,2,15000,7.408,,,170,,,,,,,,,,,wg-a,,,,AAXX 19094 07335 12865 41704 10040 20020 30016 40164 56004 60006 84500 90900=
07335,1996-01-19 12:00:00,10,1014.2,-1.9,66,4,20000,7.408,,,160,,,,,,,,,,,wg-a,,,,AAXX 19124 07335 12/70 11604 10100 20040 39997 40142 58019 60006 80001 91200=
07335,1996-01-19 18:00:00,5,1010.8,-1.3,81,2,20000,3.704,,,120,2.5,10.9,,,,,,,,,wg-a,,,,AAXX 19184 07335 12/70 01202 10050 20020 39961 40108 56013 60006 80000 91800 333 10109 20025=
07335,1996-01-20 00:00:00,4,1008.2,-1.5,87,2,0,7.408,,,150,,,,,,,,,,,wg-a,,,,AAXX 20004 07335 12/// /1504 10040 20020 39934 40082 58015 60006 90000=
07335,1996-01-20 06:00:00,4,1005.9,-1.2,87,2,15000,11.112,,,170,1.8,4.9,,,,,,,,,wg-a,,,,AAXX 20064 07335 02765 71706 10040 20020 39912 40059 56012 60006 8553/ 90600 333 10049 20018 60004=
07335,1996-01-20 09:00:00,6,1006.3,0.5,81,3,15000,11.112,,,170,,,,,,,,,,,wg-a,,,,AAXX 20094 07335 12765 71706 10060 20030 39917 40063 53005 60006 875// 90900=
07335,1996-01-20 12:00:00,8,1005.6,-0.6,76,4,20000,11.112,,,160,,,,,,,,,,21,wg-a,,,,AAXX 20124 07335 02770 71606 10080 20040 39911 40056 58006 61000 72162 875// 91200 333 6100=
07335,1996-01-20 15:00:00,12,1004.4,-1,54,3,25000,14.816,,,170,,,,,,,,,,,wg-a,,,,AAXX 20154 07335 12775 61708 10120 20030 39901 40044 55010 60006 86502 91500=
07335,1996-01-20 18:00:00,7,1005.3,0.7,81,4,0,14.816,,,110,4.2,11.8,,,,,,,,,wg-a,,,,AAXX 20184 07335 32/// /1108 10070 20040 39908 40053 53007 91800 333 10118 20042=
07335,1996-01-21 00:00:00,3,1006.6,0.2,93,2,0,7.408,,,80,,,,,,,,,,,wg-a,,,,AAXX 21004 07335 12/// /0804 10030 20020 39919 40066 50002 60006 90000=
07335,1996-01-21 06:00:00,1,1006.8,0.1,86,-1,10000,3.704,,,100,0.5,7.4,,,,,,,,,wg-a,,,,AAXX 21064 07335 02/60 01002 10010 21010 39919 40068 52001 60006 80000 90600 333 10074 20005 61000=
07335,1996-01-21 09:00:00,4,1007.2,0.6,87,2,8000,11.112,,,100,,,,,,,,,,,wg-a,,,,AAXX 21094 07335 12/58 /1006 10040 20020 39925 40072 52006 60006 80002 90900=
07335,1996-01-21 12:00:00,11,1005.9,-0.9,62,4,15000,14.816,,,110,,,,,,,,,,,wg-a,,,,AAXX 21124 07335 12/65 61108 10110 20040 39916 40059 58009 60006 80002 91200=
07335,1996-01-21 15:00:00,12,1004.6,-1.3,62,5,20000,18.52,,,90,,,,,,,,,,,wg-a,,,,AAXX 21154 07335 12/70 70910 10120 20050 39903 40046 56013 60006 81032 91500=
07335,1996-01-21 18:00:00,10,1005,0.3,71,5,0,14.816,,,100,-0.7,12.4,,,,,,,,,wg-a,,,,AAXX 21184 07335 12/// /1008 10100 20050 39906 40050 51003 60006 91800 333 10124 21007=
07335,1996-01-22 00:00:00,8,1003.7,-0.9,71,3,0,22.224,,,100,,,,,,,,,,,wg-a,,,,AAXX 22004 07335 12/// /1012 10080 20030 39893 40037 57009 60006 90000=
07335,1996-01-22 06:00:00,7,1001.8,-0.6,81,4,25000,18.52,,,110,7.4,10.8,,,,,,,,,wg-a,,,,AAXX 22064 07335 02/75 81110 10070 20040 39873 40018 55006 60006 8807/ 90600 333 10108 20074 60004=
07335,1996-01-22 09:00:00,8,1000.9,-0.8,76,4,20000,18.52,,,100,,,,,,,,,,,wg-a,,,,AAXX 22094 07335 12770 81010 10080 20040 39865 40009 56008 60006 8557/ 90900=
07335,1996-01-22 12:00:00,9,999.8,-1,87,7,10000,14.816,,,110,,,,1,,,,,,63,wg-a,,,,AAXX 22124 07335 02560 81108 10090 20070 39855 49998 57010 60016 76362 8652/ 91200 333 60017=
07335,1996-01-22 15:00:00,9,1001.5,1.6,93,8,7000,7.408,,,130,,,,5,,,,,,61,wg-a,,,,AAXX 22154 07335 12457 81304 10090 20080 39871 40015 53016 60057 76166 8652/ 91500=
07335,1996-01-22 18:00:00,8,1001.7,0.2,93,7,15000,11.112,,,120,7.4,10,,0,,,,,,2,wg-a,,,,AAXX 22184 07335 12565 71206 10080 20070 39873 40017 53002 60007 70262 8553/ 91800 333 10100 20074=
07335,1996-01-23 00:00:00,9,999.6,-2,87,7,0,18.52,,,110,,,,,,,,,,,wg-a,,,,AAXX 23004 07335 12/// /1110 10090 20070 39852 49996 56020 60076 90000=
07335,1996-01-23 06:00:00,8,996.2,-2.5,87,6,10000,14.816,,,90,7.5,9.3,,2,,,19,,,21,wg-a,,,,AAXX 23064 07335 02660 80908 10080 20060 39818 49962 57025 60194 72162 8652/ 90600 333 10093 20075 60027=
07335,1996-01-23 09:00:00,8,994.4,-1.7,93,7,6000,22.224,,,90,,,,3,,,,,,61,wg-a,,,,AAXX 23094 07335 12556 80912 10080 20070 39801 49944 58017 60037 76162 8652/ 90900=
07335,1996-01-23 12:00:00,10,995.6,1.3,82,7,20000,22.224,,,150,,,,1,,,,,,1,wg-a,,,,AAXX 23124 07335 02570 71512 10100 20070 39814 49956 50013 60056 70162 83532 91200 333 60017=
07335,1996-01-23 15:00:00,10,995.6,-0,71,5,20000,18.52,,,210,,,,,,,,,,,wg-a,,,,AAXX 23154 07335 12570 72110 10100 20050 39814 49956 55000 60006 84832 91500=
07335,1996-01-23 18:00:00,8,996.2,0.5,87,6,8000,25.928,,,170,7.3,13.1,,2,,,,,,61,wg-a,,,,AAXX 23184 07335 12358 81714 10080 20060 39819 49962 50005 60027 76162 8552/ 91800 333 10131 20073=
07335,1996-01-24 00:00:00,8,998.9,1.4,81,5,0,14.816,,,180,,,,,,,,,,,wg-a,,,,AAXX 24004 07335 02/// /1808 10080 20050 39845 49989 53014 60046 90000 333 61000=
07335,1996-01-24 06:00:00,6,1000.5,0.7,87,4,15000,7.408,,,170,5.8,9.1,,,,,10,,,,wg-a,,,,AAXX 24064 07335 02865 21704 10060 20040 39860 40005 51007 60104 82500 90600 333 10091 20058 61000=
07335,1996-01-24 09:00:00,6,1001.6,1.1,93,5,20000,7.408,,,150,,,,,,,,,,,wg-a,,,,AAXX 24094 07335 12/70 61504 10060 20050 39871 40016 53011 60006 81032 90900=
07335,1996-01-24 12:00:00,9,1001.8,0.3,81,6,20000,3.704,,,140,,,,,,,,,,,wg-a,,,,AAXX 24124 07335 12/70 71402 10090 20060 39874 40018 50003 60006 85052 91200=
07335,1996-01-24 15:00:00,11,1000.7,-0.9,76,7,20000,11.112,,,30,,,,,,,,,,,wg-a,,,,AAXX 24154 07335 12/70 70306 10110 20070 39865 40007 56009 60006 85052 91500=
07335,1996-01-24 18:00:00,7,1001.5,0.5,87,5,20000,7.408,,,50,4.3,11.3,,,,,,,,,wg-a,,,,AAXX 24184 07335 12/70 30504 10070 20050 39870 40015 51005 60006 80002 91800 333 10113 20043=
07335,1996-01-25 00:00:00,1,1001.3,-0.2,93,0,0,3.704,,,340,,,,,,,,,,,wg-a,,,,AAXX 25004 07335 12/// /3402 10010 20000 39865 40013 58002 60006 90000=
07335,1996-01-25 06:00:00,4,1000.4,-0.3,93,3,2000,7.408,,,40,0.4,7.4,,,,,,,,60,wg-a,,,,AAXX 25064 07335 02120 80404 10040 20030 39858 40004 56003 61000 76064 885// 90600 333 10074 20004 6100=
07335,1996-01-25 09:00:00,4,1001.8,1.3,93,3,1500,14.816,,,30,,,,,,,,,,10,wg-a,,,,AAXX 25094 07335 02115 80308 10040 20030 39871 40018 53013 61000 71065 877// 90900 333 ////=
07335,1996-01-25 12:00:00,5,1001.9,0.2,93,4,1800,11.112,,,30,,,,,,,,,,10,wg-a,,,,AAXX 25124 07335 02218 80306 10050 20040 39873 40019 50002 61000 71065 886// 91200 333 ////=
07335,1996-01-25 15:00:00,6,1001.9,0.1,93,5,3500,11.112,,,40,,,,,,,,,,10,wg-a,,,,AAXX 25154 07335 12335 80406 10060 20050 39874 40019 53001 60006 71022 886// 91500=
07335,1996-01-25 18:00:00,4,1003.6,1.5,93,3,3000,14.816,,,40,3.4,6.5,,,,,,,,10,wg-a,,,,AAXX 25184 07335 32230 80408 10040 20030 39889 40036 53015 71022 886// 91800 333 10065 20034=
07335,1996-01-26 00:00:00,3,1006,0.6,93,2,0,11.112,,,50,,,,,,,,,,,wg-a,,,,AAXX 26004 07335 12/// /0506 10030 20020 39912 40060 51006 60006 90000=
07335,1996-01-26 06:00:00,2,1006.9,0.3,93,1,2500,11.112,,,60,1.5,4.2,,,,,,,,10,wg-a,,,,AAXX 26064 07335 02125 80606 10020 20010 39921 40069 53003 60006 71022 886// 90600 333 10042 20015 61000=
07335,1996-01-26 09:00:00,2,1008.4,1.4,93,1,1800,7.408,,,50,,,,,,,,,,10,wg-a,,,,AAXX 26094 07335 12218 80504 10020 20010 39935 40084 51014 60006 71022 886// 90900=
07335,1996-01-26 12:00:00,2,1008.4,0.1,93,1,2500,7.408,,,60,,,,,,,,,,10,wg-a,,,,AAXX 26124 07335 12225 80604 10020 20010 39936 40084 50001 60006 71022 886// 91200=
07335,1996-01-26 15:00:00,3,1007.9,-0.5,87,1,2500,14.816,,,50,,,,,,,,,,10,wg-a,,,,AAXX 26154 07335 12225 80508 10030 20010 39931 40079 56005 60006 71022 886// 91500=
07335,1996-01-26 18:00:00,1,1009.2,1.2,100,1,2000,11.112,,,60,1.2,2.9,,,,,,,,10,wg-a,,,,AAXX 26184 07335 02120 80606 10010 20010 39943 40092 53012 61000 71052 887// 91800 333 10029 20012 ////=
07335,1996-01-27 00:00:00,0,1010.4,0.3,93,-1,0,14.816,,,20,,,,,,,,,,,wg-a,,,,AAXX 27004 07335 12/// /0208 10000 21010 39954 40104 53003 60016 90000=
07335,1996-01-27 06:00:00,-1,1010.3,-0,100,-1,300,11.112,,,50,-1.1,1.2,,0,,,1,,,45,wg-a,,,,AAXX 27064 07335 02/03 90506 11010 21010 39953 40103 54000 60014 74542 89/// 90600 333 10012 21011 60007=
07335,1996-01-27 09:00:00,0,1011.5,1.2,93,-1,500,11.112,,,50,,,,,,,,,,45,wg-a,,,,AAXX 27094 07335 12/05 90506 10000 21010 39965 40115 53012 60006 74544 89/// 90900=
07335,1996-01-27 12:00:00,2,1010.8,-0.6,93,1,500,11.112,,,70,,,,,,,,,,45,wg-a,,,,AAXX 27124 07335 12/05 90706 10020 20010 39959 40108 58006 60006 74542 89/// 91200=
07335,1996-01-27 15:00:00,3,1010.1,-0.6,100,3,1200,14.816,,,80,,,,,,,,,,10,wg-a,,,,AAXX 27154 07335 12112 80808 10030 20030 39953 40101 56006 60006 71042 886// 91500=
07335,1996-01-27 18:00:00,3,1010.9,0.8,100,3,0,11.112,,,50,-0.9,3.7,,,,,,,,,wg-a,,,,AAXX 27184 07335 12/// /0506 10030 20030 39961 40109 51008 60006 91800 333 10037 21009=
07335,1996-01-28 00:00:00,3,1010.5,-0.4,93,2,0,7.408,,,70,,,,,,,,,,,wg-a,,,,AAXX 28004 07335 12/// /0704 10030 20020 39957 40105 55004 60006 90000=
07335,1996-01-28 06:00:00,3,1008.4,-1.2,93,2,6000,11.112,,,70,2.4,3.4,,,,,,,,,wg-a,,,,AAXX 28064 07335 02/56 /0706 10030 20020 39936 40084 56012 60006 80002 90600 333 10034 20024 60004=
07335,1996-01-28 09:00:00,4,1007.8,-0.5,93,3,6000,14.816,,,80,,,,,,,,,,,wg-a,,,,AAXX 28094 07335 12656 70808 10040 20030 39931 40078 57005 60006 83532 90900=
07335,1996-01-28 12:00:00,7,1006.7,-0.9,81,4,12000,14.816,,,80,,,,,,,,,,,wg-a,,,,AAXX 28124 07335 12762 70808 10070 20040 39922 40067 58009 60006 8553/ 91200=
07335,1996-01-28 15:00:00,7,1006,-0.7,81,4,12000,18.52,,,80,,,,,,,,,,,wg-a,,,,AAXX 28154 07335 12662 70810 10070 20040 39915 40060 56007 60006 875// 91500=
07335,1996-01-28 18:00:00,6,1006.4,0.3,93,5,0,14.816,,,90,2.8,7.5,,,,,,,,,wg-a,,,,AAXX 28184 07335 32/// /0908 10060 20050 39918 40064 53003 91800 333 10075 20028=
07335,1996-01-29 00:00:00,6,1006.7,0.3,93,5,0,7.408,,,50,,,,,,,,,,,wg-a,,,,AAXX 29004 07335 12/// /0504 10060 20050 39921 40067 50003 60016 90000=
07335,1996-01-29 06:00:00,5,1007.6,0.8,93,4,4000,11.112,,,70,4.5,6.8,,,,,1,,,10,wg-a,,,,AAXX 29064 07335 12240 80706 10050 20040 39929 40076 53008 60014 71022 886// 90600 333 10068 20045=
07335,1996-01-29 09:00:00,5,1009.3,1.7,87,3,3500,11.112,,,60,,,,,,,,,,10,wg-a,,,,AAXX 29094 07335 12335 70606 10050 20030 39946 40093 53017 60006 71022 875// 90900=
07335,1996-01-29 12:00:00,8,1009.3,0.2,81,5,6000,11.112,,,60,,,,,,,,,,,wg-a,,,,AAXX 29124 07335 12656 30606 10080 20050 39948 40093 51002 60006 81502 91200=
07335,1996-01-29 15:00:00,10,1009.4,0.1,76,6,8000,14.816,,,50,,,,,,,,,,,wg-a,,,,AAXX 29154 07335 12658 20508 10100 20060 39949 40094 53001 60006 82500 91500=
07335,1996-01-29 18:00:00,8,1011,1.6,87,6,4000,11.112,,,50,4.1,9.6,,,,,,,,10,wg-a,,,,AAXX 29184 07335 12640 70506 10080 20060 39965 40110 53016 60006 71011 875// 91800 333 10096 20041=
07335,1996-01-30 00:00:00,5,1013.5,1.1,93,4,0,7.408,,,10,,,,,,,,,,,wg-a,,,,AAXX 30004 07335 12/// /0104 10050 20040 39988 40135 52011 60006 90000=
07335,1996-01-30 06:00:00,3,1015.6,1.1,100,3,6000,7.408,,,40,2.8,8.3,,,,,,,,,wg-a,,,,AAXX 30064 07335 02/56 40404 10030 20030 30007 40156 53011 60006 82032 90600 333 10083 20028 60004=
07335,1996-01-30 09:00:00,3,1017.3,1.7,93,2,4500,7.408,,,40,,,,,,,,,,10,wg-a,,,,AAXX 30094 07335 12/45 30404 10030 20020 30024 40173 51017 60006 71000 81032 90900=
07335,1996-01-30 12:00:00,8,1017.9,0.8,76,4,6000,14.816,,,40,,,,,,,,,,,wg-a,,,,AAXX 30124 07335 12/56 20408 10080 20040 30032 40179 51008 60006 81032 91200=
07335,1996-01-30 15:00:00,11,1017.1,-0.6,71,6,8000,11.112,,,360,,,,,,,,,,,wg-a,,,,AAXX 30154 07335 12/58 23606 10110 20060 30026 40171 55006 60006 80002 91500=
07335,1996-01-30 18:00:00,6,1018.1,0.7,81,3,6000,11.112,,,40,1.6,11.4,,,,,,,,,wg-a,,,,AAXX 30184 07335 12/56 20406 10060 20030 30033 40181 53007 60006 80002 91800 333 10114 20016=
07335,1996-01-31 00:00:00,0,1018.7,-0.4,86,-2,0,14.816,,,60,,,,,,,,,,,wg-a,,,,AAXX 31004 07335 12/// /0608 10000 21020 30036 40187 58004 60006 90000=
07335,1996-01-31 06:00:00,-2,1017.8,-0.2,93,-3,2000,14.816,,,50,-2.3,5.4,,,,,,,,10,wg-a,,,,AAXX 31064 07335 02120 70508 11020 21030 30026 40178 57002 60006 71022 876// 90600 333 10054 21023 60004=
07335,1996-01-31 09:00:00,-1,1017.5,-0.2,93,-2,2000,18.52,,,60,,,,,,,,,,10,wg-a,,,,AAXX 31094 07335 12220 80610 11010 21020 30024 40175 58002 60006 71022 876// 90900=
07335,1996-01-31 12:00:00,-1,1016.3,-1.2,86,-3,3400,22.224,,,90,,,,,,,,,,10,wg-a,,,,AAXX 31124 07335 12334 80912 11010 21030 30012 40163 58012 60006 71022 876// 91200=
07335,1996-01-31 15:00:00,0,1014.3,-1.9,86,-2,4000,14.816,,,70,,,,,,,,,,,wg-a,,,,AAXX 31154 07335 12/40 /0708 10000 21020 39993 40143 56019 60006 91500=
07335,1996-01-31 18:00:00,1,1014.1,-0.2,86,-1,4300,14.816,,,80,-1.9,0.9,,,,,,,,10,wg-a,,,,AAXX 31184 07335 12343 80808 10010 21010 39991 40141 58002 60006 71022 876// 91800 333 10009 21019=
07335,1996-02-01 00:00:00,1,1013.4,-0.2,93,0,0,11.112,,,120,,,,,,,,,,,wg-a,,,,AAXX 01004 07335 12/// /1206 10010 20000 39984 40134 55002 60006 90000=
07335,1996-02-01 06:00:00,1,1013.4,-0,86,-1,12000,7.408,,,110,0.7,1.9,,,,,,,,,wg-a,,,,AAXX 01064 07335 02/62 01104 10010 21010 39984 40134 55000 60006 80000 90600 333 10019 20007 60004=
07335,1996-02-01 09:00:00,2,1013.4,0.1,80,-1,12000,14.816,,,100,,,,,,,,,,,wg-a,,,,AAXX 01094 07335 12/62 01008 10020 21010 39985 40134 50001 60006 80000 90900=
07335,1996-02-01 12:00:00,7,1012.1,-1,57,-1,20000,14.816,,,100,,,,,,,,,,,wg-a,,,,AAXX 01124 07335 12/70 11008 10070 21010 39975 40121 58010 60006 81030 91200=
07335,1996-02-01 15:00:00,8,1010.5,-1.6,57,0,25000,18.52,,,90,,,,,,,,,,,wg-a,,,,AAXX 01154 07335 12/75 20910 10080 20000 39959 40105 56016 60006 82030 91500=
07335,1996-02-01 18:00:00,6,1010.6,-0,65,0,25000,11.112,,,80,0.4,8.5,,,,,,,,,wg-a,,,,AAXX 01184 07335 12675 70806 10060 20000 39959 40106 55000 60006 875// 91800 333 10085 20004=
07335,1996-02-02 00:00:00,5,1010,-0.4,87,3,0,3.704,,,120,,,,,,,,,,,wg-a,,,,AAXX 02004 07335 12/// /1202 10050 20030 39953 40100 57004 60006 90000=
07335,1996-02-02 06:00:00,6,1009.1,-0.3,100,6,3000,7.408,,,130,5,6.3,,1,,,4,,,20,wg-a,,,,AAXX 02064 07335 02130 81304 10060 20060 39945 40091 56003 60044 72052 887// 90600 333 10063 20050 60017=
07335,1996-02-02 09:00:00,6,1010,0.9,100,6,400,7.408,,,40,,,,,,,,,,44,wg-a,,,,AAXX 02094 07335 12004 80404 10060 20060 39954 40100 53009 60006 74442 886// 90900=
07335,1996-02-02 12:00:00,6,1010.1,0.1,100,6,100,11.112,,,20,,,,,,,,,,45,wg-a,,,,AAXX 02124 07335 12/01 90206 10060 20060 39955 40101 50001 60006 74542 89/// 91200=
07335,1996-02-02 15:00:00,7,1009.9,-0.2,100,7,3500,7.408,,,50,,,,,,,,,,1,wg-a,,,,AAXX 02154 07335 12235 80504 10070 20070 39953 40099 56002 60006 70142 886// 91500=
07335,1996-02-02 18:00:00,6,1011.7,1.7,93,5,3000,14.816,,,60,5.8,7.5,,,,,,,,10,wg-a,,,,AAXX 02184 07335 12330 80608 10060 20050 39970 40117 53017 60006 71042 886// 91800 333 10075 20058=
07335,1996-02-03 00:00:00,0,1013.8,0.7,93,-1,0,11.112,,,30,,,,,,,,,,,wg-a,,,,AAXX 03004 07335 12/// /0306 10000 21010 39988 40138 53007 60006 90000=
07335,1996-02-03 06:00:00,-2,1014.4,1,100,-2,1200,11.112,,,30,-2.6,6.1,,,,,,,,10,wg-a,,,,AAXX 03064 07335 02212 70306 11020 21020 39993 40144 53010 60006 71011 876// 90600 333 10061 21026 60004=
07335,1996-02-03 09:00:00,0,1015.9,1.5,100,0,1200,14.816,,,60,,,,,,,,,,28,wg-a,,,,AAXX 03094 07335 12112 90608 10000 20000 30008 40159 53015 60006 72842 896// 90900=
07335,1996-02-03 12:00:00,2,1015.7,-0.1,80,-1,6000,18.52,,,70,,,,,,,,,,1,wg-a,,,,AAXX 03124 07335 12356 80710 10020 21010 30007 40157 58001 60006 70142 886// 91200=
07335,1996-02-03 15:00:00,4,1014.5,-1,70,-1,7000,14.816,,,70,,,,,,,,,,,wg-a,,,,AAXX 03154 07335 12457 70708 10040 21010 39997 40145 56010 60006 875// 91500=
07335,1996-02-03 18:00:00,3,1015.2,0.6,75,-1,0,7.408,,,70,-1.5,3.9,,,,,,,,,wg-a,,,,AAXX 03184 07335 12/// /0704 10030 21010 30003 40152 53006 60006 91800 333 10039 21015=
07335,1996-02-04 00:00:00,2,1015.6,0.1,87,0,0,14.816,,,40,,,,,,,,,,,wg-a,,,,AAXX 04004 07335 12/// /0408 10020 20000 30006 40156 52001 60006 90000=
07335,1996-02-04 06:00:00,1,1015.7,0.7,86,-1,3000,18.52,,,30,1,3,,,,,,,,10,wg-a,,,,AAXX 04064 07335 02330 80310 10010 21010 30007 40157 53007 60006 71022 886// 90600 333 10030 20010 60004=
07335,1996-02-04 09:00:00,1,1017,1.3,75,-3,6000,22.224,,,30,,,,,,,,,,,wg-a,,,,AAXX 04094 07335 12656 70312 10010 21030 30020 40170 52013 60006 875// 90900=
07335,1996-02-04 12:00:00,2,1017.4,0.4,64,-4,12000,22.224,,,30,,,,,,,,,,,wg-a,,,,AAXX 04124 07335 12562 70312 10020 21040 30024 40174 50004 60006 878// 91200=
07335,1996-02-04 15:00:00,1,1017.1,-0.3,75,-3,12000,14.816,,,360,,,,,,,,,,,wg-a,,,,AAXX 04154 07335 12562 83608 10010 21030 30021 40171 55003 60006 878// 91500=
07335,1996-02-04 18:00:00,1,1018.3,1.1,75,-3,0,11.112,,,10,0.7,2.1,,,,,,,,,wg-a,,,,AAXX 04184 07335 12/// /0106 10010 21030 30032 40183 53011 60006 91800 333 10021 20007=
07335,1996-02-05 00:00:00,0,1018.6,-0.3,80,-3,0,7.408,,,50,,,,,,,,,,,wg-a,,,,AAXX 05004 07335 12/// /0504 10000 21030 30035 40186 56003 60006 90000=
07335,1996-02-05 06:00:00,-1,1016.8,-1.2,64,-7,9000,7.408,,,50,-1,0.7,,,,,,,,,wg-a,,,,AAXX 05064 07335 02559 80504 11010 21070 30017 40168 56012 60006 885// 90600 333 10007 21010 60004=
07335,1996-02-05 09:00:00,-1,1016.4,-0.4,69,-6,9000,7.408,,,130,,,,,,,,,,,wg-a,,,,AAXX 05094 07335 12559 81304 11010 21060 30013 40164 58004 60006 885// 90900=
07335,1996-02-05 12:00:00,0,1013.8,-2.6,64,-6,10000,11.112,,,140,,,,,,,,,,,wg-a,,,,AAXX 05124 07335 12560 /1406 10000 21060 39987 40138 58026 60006 86500 91200=
07335,1996-02-05 15:00:00,1,1009.5,-4.1,59,-6,15000,14.816,,,160,,,,,,,,,,,wg-a,,,,AAXX 05154 07335 12/65 41608 10010 21060 39946 40095 58041 60006 80001 91500=
07335,1996-02-05 18:00:00,0,1005.2,-4.3,69,-5,12000,14.816,,,140,-1.1,1.4,,,,,,,,,wg-a,,,,AAXX 05184 07335 12/62 61408 10000 21050 39903 40052 58043 60006 80002 91800 333 10014 21011=
07335,1996-02-06 00:00:00,-1,995.4,-4.5,93,-2,0,18.52,,,160,,,,,,,,,,,wg-a,,,,AAXX 06004 07335 12/// /1610 11010 21020 39806 49954 58045 60016 90000=
07335,1996-02-06 06:00:00,1,986.7,-3.1,93,0,4000,14.816,,,180,-1.2,1,,0,,,5,,,10,wg-a,,3,,AAXX 06064 07335 02240 81808 10010 20000 39721 49867 58031 60054 71062 887// 90600 333 10010 21012 4/003 60007=
07335,1996-02-06 09:00:00,1,989.5,2.8,100,1,1700,11.112,,,320,,,,1,,,,,,10,wg-a,,,,AAXX 06094 07335 12117 83206 10010 20010 39749 49895 53028 60017 71062 887// 90900=
07335,1996-02-06 12:00:00,1,993.5,3.9,100,1,2200,18.52,,,330,,,,,,,,,,10,wg-a,,,,AAXX 06124 07335 02122 83310 10010 20010 39788 49935 51039 60016 71062 886// 91200 333 61000=
07335,1996-02-06 15:00:00,4,995.9,2.5,93,3,3000,11.112,,,290,,,,0,,,,,,10,wg-a,,,,AAXX 06154 07335 12230 82906 10040 20030 39813 49959 53025 60007 71062 875// 91500=
07335,1996-02-06 18:00:00,4,1000.5,4.6,93,3,6000,25.928,,,320,0.9,4.3,,1,,,,,,61,wg-a,,,,AAXX 06184 07335 12456 83214 10040 20030 39859 40005 51046 60017 76162 875// 91800 333 10043 20009=
07335,1996-02-07 00:00:00,1,1005.2,1,86,-1,0,11.112,,,270,,,,,,,,,,,wg-a,,,,AAXX 07004 07335 02/// /2706 10010 21010 39904 40052 53010 61000 90000 333 6100=
07335,1996-02-07 06:00:00,0,1000.8,-3.7,93,-1,12000,11.112,,,190,-0.4,4.3,,,,,1,,,,wg-a,,,,AAXX 07064 07335 02/62 71906 10000 21010 39860 40008 58037 60014 84032 90600 333 10043 21004 61000=
07335,1996-02-07 09:00:00,1,996.5,-4.2,93,0,1100,22.224,,,180,,,,2,,,,,,10,wg-a,,,,AAXX 07094 07335 12111 81812 10010 20000 39818 49965 58042 60027 71072 875// 90900=
07335,1996-02-07 12:00:00,1,989.3,-7.1,100,1,2500,25.928,,,190,,,,3,,,,,,10,wg-a,,,,AAXX 07124 07335 02225 81914 10010 20010 39747 49893 56071 60056 71076 887// 91200 333 60037=
07335,1996-02-07 15:00:00,9,986.9,-2,66,3,15000,35.188,,61.116,270,,,,1,,,,,,25,wg-a,,,,AAXX 07154 07335 12465 72719 10090 20030 39727 49869 56020 60017 72586 875// 91500 333 91033=
07335,1996-02-07 18:00:00,6,983.2,-3.7,93,5,10000,31.484,,,250,0.3,9,,0,,,,,,60,wg-a,,,,AAXX 07184 07335 12460 82517 10060 20050 39690 49832 58037 60007 76086 885// 91800 333 10090 20003=
07335,1996-02-08 00:00:00,2,1001.6,0.3,93,1,0,38.892,,,340,,,,0,,,,,,,wg-a,,,,AAXX 08004 07335 02/// /3421 10020 20010 39869 40016 51133 60026 90000 333 60007=
07335,1996-02-08 06:00:00,2,1012.9,4.3,87,0,10000,22.224,,,290,1.4,6.9,,,,,8,,,,wg-a,,,,AAXX 08064 07335 02560 42912 10020 20000 39980 40129 51043 60084 84500 90600 333 10069 20014 61000=
07335,1996-02-08 09:00:00,3,1016.6,3.7,93,2,15000,22.224,,,320,,,,,,,,,,,wg-a,,,,AAXX 08094 07335 12465 73212 10030 20020 30017 40166 53037 60006 858// 90900=
07335,1996-02-08 12:00:00,6,1018.8,2.3,70,1,500,25.928,,,340,,,,,,,,,,,wg-a,,,,AAXX 08124 07335 12500 /3414 10060 20010 30040 40188 51023 60006 86200 91200=
07335,1996-02-08 15:00:00,7,1020.5,1.7,57,-1,500,25.928,,,340,,,,,,,,,,,wg-a,,,,AAXX 08154 07335 12600 33414 10070 21010 30057 40205 53017 60006 83200 91500=
07335,1996-02-08 18:00:00,3,1022.6,1.9,75,-1,500,3.704,,,310,1.5,8.1,,,,,,,,,wg-a,,,,AAXX 08184 07335 12600 /3102 10030 21010 30076 40226 53019 60006 81200 91800 333 10081 20015=
07335,1996-02-09 00:00:00,1,1022.1,-0.8,86,-1,0,3.704,,,180,,,,,,,,,,,wg-a,,,,AAXX 09004 07335 12/// /1802 10010 21010 30070 40221 56008 60006 90000=
07335,1996-02-09 06:00:00,-1,1018.6,-1.9,93,-2,10000,7.408,,,170,-1.5,2.6,,,,,,,,,wg-a,,,,AAXX 09064 07335 02/60 21704 11010 21020 30034 40186 58019 60006 80002 90600 333 10026 21015 60004=
07335,1996-02-09 09:00:00,1,1017.2,-1.2,86,-1,20000,11.112,,,160,,,,,,,,,,,wg-a,,,,AAXX 09094 07335 12/70 71606 10010 21010 30022 40172 57012 60006 81032 90900=
07335,1996-02-09 12:00:00,6,1014.3,-2.6,65,0,25000,22.224,,,180,,,,,,,,,,,wg-a,,,,AAXX 09124 07335 12/75 81812 10060 20000 39996 40143 58026 60006 83037 91200=
07335,1996-02-09 15:00:00,9,1011.5,-2.7,49,-1,25000,18.52,,,190,,,,,,,,,,,wg-a,,,,AAXX 09154 07335 12/75 81910 10090 21010 39969 40115 56027 60006 86037 91500=
07335,1996-02-09 18:00:00,7,1010.7,-0.8,57,-1,25000,18.52,,,200,-1.3,9,,,,,,,,,wg-a,,,,AAXX 09184 07335 12/75 82010 10070 21010 39961 40107 55008 60006 85037 91800 333 10090 21013=
07335,1996-02-10 00:00:00,5,1012.4,1,100,5,0,11.112,,,220,,,,,,,,,,,wg-a,,,,AAXX 10004 07335 12/// /2206 10050 20050 39977 40124 53010 60016 90000=
07335,1996-02-10 06:00:00,3,1013.6,0.7,93,2,15000,14.816,,,230,2.9,7.2,,,,,1,,,,wg-a,,,,AAXX 10064 07335 12765 22308 10030 20020 39988 40136 53007 60014 82500 90600 333 10072 20029=
07335,1996-02-10 09:00:00,5,1014.2,0.7,93,4,20000,22.224,,,210,,,,,,,,,,,wg-a,,,,AAXX 10094 07335 12570 42112 10050 20040 39995 40142 52007 60006 82830 90900=
07335,1996-02-10 12:00:00,8,1013.7,-0.4,81,5,20000,22.224,,,230,,,,0,,,,,,,wg-a,,,,AAXX 10124 07335 02470 72312 10080 20050 39991 40137 58004 60006 8683/ 91200 333 60007=
07335,1996-02-10 15:00:00,8,1013.1,-0.6,81,5,20000,18.52,,,240,,,,3,,,,,,25,wg-a,,,,AAXX 10154 07335 12570 22410 10080 20050 39985 40131 56006 60037 72586 82802 91500=
07335,1996-02-10 18:00:00,5,1014.3,1,93,4,0,11.112,,,230,3.1,10.1,,1,,,,,,,wg-a,,,,AAXX 10184 07335 12/// /2306 10050 20040 39995 40143 53010 60017 91800 333 10101 20031=
07335,1996-02-11 00:00:00,4,1015.6,0.2,93,3,0,11.112,,,220,,,,,,,,,,,wg-a,,,,AAXX 11004 07335 12/// /2206 10040 20030 30007 40156 53002 60006 90000=
07335,1996-02-11 06:00:00,3,1016.3,0.7,93,2,15000,14.816,,,220,2,4.8,,,,,5,,,,wg-a,,,,AAXX 11064 07335 12565 72208 10030 20020 30014 40163 52007 60054 878// 90600 333 10048 20020=
07335,1996-02-11 09:00:00,5,1017.2,1,93,4,15000,22.224,,,240,,,,,,,,,,,wg-a,,,,AAXX 11094 07335 12565 22412 10050 20040 30024 40172 51010 60006 82830 90900=
07335,1996-02-11 12:00:00,9,1017.3,0.3,76,5,20000,25.928,,,280,,,,,,,,,,,wg-a,,,,AAXX 11124 07335 12570 62814 10090 20050 30027 40173 50003 60006 85830 91200=
07335,1996-02-11 15:00:00,10,1016.8,-0.5,62,3,20000,22.224,,,280,,,,0,,,,,,3,wg-a,,,,AAXX 11154 07335 12570 62812 10100 20030 30022 40168 56005 60007 70386 83832 91500=
07335,1996-02-11 18:00:00,7,1017.7,0.8,81,4,0,18.52,,,260,2.4,10.2,,,,,,,,,wg-a,,,,AAXX 11184 07335 32/// /2610 10070 20040 30030 40177 53008 91800 333 10102 20024=
07335,1996-02-12 00:00:00,6,1016.5,-1.3,93,5,0,11.112,,,210,,,,,,,,,,,wg-a,,,,AAXX 12004 07335 12/// /2106 10060 20050 30018 40165 57013 60006 90000=
07335,1996-02-12 06:00:00,9,1008.3,-4.3,93,8,10000,29.632,,44.448,230,5.4,9,,1,,,1,,,20,wg-a,,,,AAXX 12064 07335 02360 72316 10090 20080 39938 40083 58043 60014 72052 876// 90600 333 10090 20054 60017 91024=
07335,1996-02-12 09:00:00,10,1004,-4.1,93,9,9000,46.3,,,240,,,,1,,,,,,50,wg-a,,,,AAXX 12094 07335 12359 82425 10100 20090 39897 40040 56041 60017 75052 887// 90900=
07335,1996-02-12 12:00:00,11,1000.5,-3.4,87,9,12000,46.3,,,280,,,,7,,,,,,61,wg-a,,,,AAXX 12124 07335 02362 82825 10110 20090 39863 40005 56034 60086 76165 887// 91200 333 60077=
07335,1996-02-12 15:00:00,10,1000.6,0,62,3,25000,42.596,,64.82,270,,,,1,,,,,,2,wg-a,,,,AAXX 12154 07335 12575 22723 10100 20030 39863 40006 50000 60017 70261 82800 91500 333 91035=
07335,1996-02-12 18:00:00,9,1002,1.3,66,3,25000,38.892,,,270,8.3,11.2,,,,,,,,3,wg-a,,,,AAXX 12184 07335 32675 62721 10090 20030 39876 40020 53013 70361 86800 91800 333 10112 20083=
07335,1996-02-13 00:00:00,8,1006.2,2.7,76,4,0,31.484,,,290,,,,,,,,,,,wg-a,,,,AAXX 13004 07335 12/// /2917 10080 20040 39917 40062 53027 60016 90000=
07335,1996-02-13 06:00:00,5,1008.6,1.6,81,2,15000,22.224,,,300,5,8.8,,,,,10,,,,wg-a,,,,AAXX 13064 07335 12665 33012 10050 20020 39939 40086 51016 60104 83500 90600 333 10088 20050=
07335,1996-02-13 09:00:00,6,1011.1,2.5,81,3,20000,18.52,,,300,,,,,,,,,,,wg-a,,,,AAXX 13094 07335 12670 73010 10060 20030 39964 40111 51025 60006 875// 90900=
07335,1996-02-13 12:00:00,8,1011.5,0.5,66,2,20000,25.928,,,330,,,,,,,,,,,wg-a,,,,AAXX 13124 07335 12570 53314 10080 20020 39969 40115 50005 60006 85800 91200=
07335,1996-02-13 15:00:00,7,1012.4,0.8,76,3,12000,29.632,,,10,,,,,,,,,,80,wg-a,,,,AAXX 13154 07335 02562 70116 10070 20030 39977 40124 53008 61000 78086 878// 91500 333 ////=
07335,1996-02-13 18:00:00,5,1014.7,2.2,81,2,20000,25.928,,,20,4.7,8.3,,,,,,,,3,wg-a,,,,AAXX 13184 07335 02570 50214 10050 20020 39999 40147 53022 61000 70386 85800 91800 333 10083 20047 ////=
07335,1996-02-14 00:00:00,3,1019.2,1.4,87,1,0,22.224,,,360,,,,,,,,,,,wg-a,,,,AAXX 14004 07335 12/// /3612 10030 20010 30042 40192 51014 60006 90000=
07335,1996-02-14 06:00:00,3,1022,1.7,81,0,15000,29.632,,,10,1.6,4.8,,,,,,,,,wg-a,,,,AAXX 14064 07335 02465 80116 10030 20000 30070 40220 52017 60006 875// 90600 333 10048 20016 61000=
07335,1996-02-14 09:00:00,3,1025.2,3.2,81,0,10000,29.632,,,40,,,,,,,,,,60,wg-a,,,,AAXX 14094 07335 02460 80416 10030 20000 30102 40252 51032 61000 76062 875// 90900 333 ////=
07335,1996-02-14 15:00:00,3,1028.8,1.5,70,-2,10000,25.928,,,50,,,,,,,,,,,wg-a,,,,AAXX 14154 07335 12560 80514 10030 21020 30137 40288 53015 60006 878// 91500=
07335,1996-02-14 18:00:00,2,1030.8,1.9,75,-2,9000,25.928,,,40,2.2,3.6,,,,,,,,,wg-a,,,,AAXX 14184 07335 32559 80414 10020 21020 30156 40308 53019 875// 91800 333 10036 20022=
07335,1996-02-15 00:00:00,1,1033.6,0.6,80,-2,0,22.224,,,40,,,,,,,,,,,wg-a,,,,AAXX 15004 07335 12/// /0412 10010 21020 30183 40336 50006 60006 90000=
07335,1996-02-15 06:00:00,0,1036.1,1.1,74,-4,10000,22.224,,,50,0.4,2.1,,,,,,,,,wg-a,,,,AAXX 15064 07335 02460 80512 10000 21040 30207 40361 51011 60006 885// 90600 333 10021 20004 61000=
07335,1996-02-15 09:00:00,1,1036.9,0.8,75,-3,12000,22.224,,,20,,,,,,,,,,,wg-a,,,,AAXX 15094 07335 12562 70212 10010 21030 30215 40369 53008 60006 8453/ 90900=
07335,1996-02-15 12:00:00,3,1036.6,-0.1,60,-4,20000,18.52,,,50,,,,,,,,,,,wg-a,,,,AAXX 15124 07335 12570 70510 10030 21040 30214 40366 58001 60006 83132 91200=
07335,1996-02-15 15:00:00,4,1035,-1.5,60,-3,20000,18.52,,,50,,,,,,,,,,,wg-a,,,,AAXX 15154 07335 12570 50510 10040 21030 30199 40350 56015 60006 82102 91500=
07335,1996-02-15 18:00:00,1,1035.8,0.6,75,-3,20000,18.52,,,30,0.1,4.2,,,,,,,,,wg-a,,,,AAXX 15184 07335 12/70 50310 10010 21030 30205 40358 53006 60006 80002 91800 333 10042 20001=
07335,1996-02-16 00:00:00,-3,1036,0.3,93,-4,0,3.704,,,310,,,,,,,,,,,wg-a,,,,AAXX 16004 07335 12/// /3102 11030 21040 30205 40360 50003 60006 90000=
07335,1996-02-16 06:00:00,-1,1034,-0.5,93,-2,500,7.408,,,250,-3.6,1.4,,,,,,,,,wg-a,,,,AAXX 16064 07335 02700 72504 11010 21020 30186 40340 56005 60006 875// 90600 333 10014 21036 60004=
07335,1996-02-16 09:00:00,1,1034.4,0.5,86,-1,500,3.704,,,220,,,,,,,,,,,wg-a,,,,AAXX 16094 07335 12400 82202 10010 21010 30191 40344 53005 60006 885// 90900=
07335,1996-02-16 12:00:00,5,1033.1,-1,87,3,6000,11.112,,,270,,,,,,,,,,,wg-a,,,,AAXX 16124 07335 12556 82706 10050 20030 30181 40331 58010 60006 885// 91200=
07335,1996-02-16 15:00:00,7,1031.1,-1.9,81,4,10000,14.816,,,300,,,,,,,,,,,wg-a,,,,AAXX 16154 07335 12560 83008 10070 20040 30162 40311 56019 60006 885// 91500=
07335,1996-02-16 18:00:00,7,1031.5,0.4,87,5,6000,14.816,,,290,-0.8,7.4,,,,,,,,,wg-a,,,,AAXX 16184 07335 12356 82908 10070 20050 30166 40315 53004 60006 885// 91800 333 10074 21008=
07335,1996-02-17 00:00:00,7,1030.5,-0.4,87,5,0,14.816,,,260,,,,,,,,,,,wg-a,,,,AAXX 17004 07335 12/// /2608 10070 20050 30156 40305 58004 60006 90000=
07335,1996-02-17 06:00:00,7,1029.5,-0.2,81,4,15000,14.816,,,310,6.2,7,,,,,,,,,wg-a,,,,AAXX 17064 07335 02565 83108 10070 20040 30146 40295 55002 60006 875// 90600 333 10070 20062 60004=
07335,1996-02-17 09:00:00,7,1029.4,-0.1,81,4,20000,18.52,,,310,,,,,,,,,,,wg-a,,,,AAXX 17094 07335 12570 73110 10070 20040 30145 40294 56001 60006 875// 90900=
07335,1996-02-17 12:00:00,9,1029.7,0.4,76,5,20000,22.224,,,320,,,,,,,,,,,wg-a,,,,AAXX 17124 07335 12670 73212 10090 20050 30149 40297 50004 60006 875// 91200=
07335,1996-02-17 15:00:00,9,1028.6,-1.1,71,4,20000,14.816,,,310,,,,,,,,,,,wg-a,,,,AAXX 17154 07335 12570 73108 10090 20040 30138 40286 56011 60006 878// 91500=
07335,1996-02-18 06:00:00,7,1018.9,-3.7,81,4,20000,14.816,,,220,5.3,7.9,,,,,,,,,wg-a,,,,AAXX 18064 07335 02570 82208 10070 20040 30041 40189 56037 60006 875// 90600 333 10079 20053 60004=
07335,1996-02-18 09:00:00,8,1015.4,-3.3,81,5,20000,31.484,,,230,,,,,,,,,,,wg-a,,,,AAXX 18094 07335 12470 72317 10080 20050 30008 40154 58033 60006 8687/ 90900=
07335,1996-02-18 12:00:00,8,1010.8,-4.6,93,7,500,35.188,,,240,,,,0,,,,,,61,wg-a,,,,AAXX 18124 07335 02300 82419 10080 20070 39962 40108 56046 60016 76162 877// 91200 333 60007=
07335,1996-02-18 15:00:00,6,1007.4,-3.4,87,4,10000,25.928,,48.152,300,,,,5,,,,,,60,wg-a,,,,AAXX 18154 07335 12560 83014 10060 20040 39928 40074 56034 60057 76066 8777/ 91500 333 91026=
07335,1996-02-18 18:00:00,6,1005.7,-1.7,93,5,0,22.224,,,260,5.9,8.3,,0,,,,,,,wg-a,,,,AAXX 18184 07335 12/// /2612 10060 20050 39911 40057 56017 60007 91800 333 10083 20059=
07335,1996-02-19 00:00:00,4,1002,-2.2,87,2,0,18.52,,,260,,,,,,,,,,,wg-a,,,,AAXX 19004 07335 12/// /2610 10040 20020 39874 40020 57022 60006 90000=
07335,1996-02-19 06:00:00,4,998.8,-1.9,93,3,12000,18.52,,,250,2.3,6.3,,,,,6,,,,wg-a,,,,AAXX 19064 07335 02462 82510 10040 20030 39842 49988 56019 60006 885// 90600 333 10063 20023 60064=
07335,1996-02-19 09:00:00,4,999.6,0.8,100,4,3500,11.112,,,300,,,,,,,,,,51,wg-a,,,,AAXX 19094 07335 02335 83006 10040 20040 39850 49996 53008 61000 75165 885// 90900 333 ////=
07335,1996-02-19 12:00:00,4,1002.7,3,75,0,25000,29.632,,,10,,,,0,,,,,,1,wg-a,,,,AAXX 19124 07335 02575 70116 10040 20000 39880 40027 51030 60016 70165 875// 91200 333 60007=
07335,1996-02-19 15:00:00,3,1004.8,2,75,-1,20000,35.188,,,20,,,,,,,,,,21,wg-a,,,,AAXX 19154 07335 02470 70219 10030 21010 39900 40048 53020 61000 72162 875// 91500 333 ////=
07335,1996-02-19 18:00:00,1,1008,3.1,69,-4,10000,29.632,,,10,1.3,4.9,,,,,,,,26,wg-a,,,,AAXX 19184 07335 32460 80116 10010 21040 39931 40080 53031 72662 873// 91800 333 10049 20013=
07335,1996-02-20 00:00:00,-3,1011.3,0.7,86,-5,0,14.816,,,320,,,,,,,,,,,wg-a,,,,AAXX 20004 07335 12/// /3208 11030 21050 39962 40113 51007 60006 90000=
07335,1996-02-20 06:00:00,-4,1010.6,-0.5,86,-6,15000,14.816,,,300,-4,1.4,,,,,1,,,,wg-a,,,,AAXX 20064 07335 02/65 03008 11040 21060 39954 40106 58005 60006 80000 90600 333 10014 21040 60014=
07335,1996-02-20 09:00:00,-2,1011.2,0.7,86,-4,12000,7.408,,,250,,,,,,,,,,70,wg-a,,,,AAXX 20094 07335 02462 82504 11020 21040 39961 40112 52007 61000 77071 877// 90900 333 ////=
07335,1996-02-20 12:00:00,-1,1013,1.8,93,-2,3000,14.816,,,30,,,,0,,,,,,70,wg-a,,,,AAXX 20124 07335 02330 80308 11010 21020 39979 40130 52018 60016 77071 887// 91200 333 60007=
07335,1996-02-20 15:00:00,-1,1014,1,86,-3,1500,25.928,,,20,,,,0,,,,,,71,wg-a,,,,AAXX 20154 07335 12315 80214 11010 21030 39989 40140 53010 60007 77177 877// 91500=
07335,1996-02-20 18:00:00,-2,1015.8,1.7,86,-4,3000,25.928,,,20,-4.3,-0.7,,0,,,,,,71,wg-a,,1,,AAXX 20184 07335 12430 80214 11020 21040 30006 40158 51017 60007 77177 875// 91800 333 11007 21043 4/001=
07335,1996-02-21 00:00:00,-2,1017,0.4,86,-4,0,31.484,,,20,,,,,,,,,,,wg-a,,,,AAXX 21004 07335 02/// /0217 11020 21040 30018 40170 51004 61000 90000 333 ////=
07335,1996-02-21 06:00:00,-3,1017.7,0.7,86,-5,3500,29.632,,,20,-2.9,-1.7,,,,,1,,,71,wg-a,,2,,AAXX 21064 07335 02335 80216 11030 21050 30024 40177 51007 60014 77172 885// 90600 333 11017 21029 4/002 61000=
07335,1996-02-21 09:00:00,-3,1019.5,1.8,80,-6,10000,31.484,,,20,,,,,,,,,,2,wg-a,,,,AAXX 21094 07335 02460 80217 11030 21060 30042 40195 53018 61000 70272 885// 90900 333 ////=
07335,1996-02-21 12:00:00,-3,1020.3,0.8,74,-7,10000,31.484,,,20,,,,,,,,,,1,wg-a,,,,AAXX 21124 07335 02460 80217 11030 21070 30050 40203 51008 61000 70172 888// 91200 333 ////=
07335,1996-02-21 15:00:00,-2,1020.6,0.4,63,-8,15000,29.632,,,30,,,,,,,,,,,wg-a,,,,AAXX 21154 07335 12565 /0316 11020 21080 30054 40206 53004 60006 85500 91500=
07335,1996-02-21 18:00:00,-3,1022.2,1.5,68,-8,15000,14.816,,,40,-3.6,-1.4,,,,,,,,,wg-a,,2,,AAXX 21184 07335 32/65 00408 11030 21080 30069 40222 53015 80000 91800 333 11014 21036 4/002=
07335,1996-02-22 00:00:00,-7,1025.1,0.7,73,-11,0,11.112,,,10,,,,,,,,,,,wg-a,,,,AAXX 22004 07335 12/// /0106 11070 21110 30095 40251 51007 60006 90000=
07335,1996-02-22 06:00:00,-10,1026.4,0.7,85,-12,10000,3.704,,,330,-10.5,-3,,,,,,,,,wg-a,,2,,AAXX 22064 07335 02/60 13302 11100 21120 30106 40264 53007 60006 80001 90600 333 11030 21105 4/002 61000=
07335,1996-02-22 09:00:00,-3,1027.2,1.2,86,-5,10000,7.408,,,260,,,,,,,,,,,wg-a,,,,AAXX 22094 07335 12/60 12604 11030 21050 30118 40272 51012 60006 80001 90900=
07335,1996-02-22 12:00:00,1,1026.5,-0.5,69,-4,20000,18.52,,,280,,,,,,,,,,,wg-a,,,,AAXX 22124 07335 12570 82810 10010 21040 30113 40265 58005 60006 8427/ 91200=
07335,1996-02-22 15:00:00,0,1024.3,-2.2,80,-3,2500,18.52,,,230,,,,,,,,,,71,wg-a,,,,AAXX 22154 07335 02425 82310 10000 21030 30091 40243 56022 61000 77172 885// 91500 333 ////=
07335,1996-02-22 18:00:00,-1,1022,-2.3,93,-2,4000,18.52,,,210,-10.3,2,,0,,,,,,71,wg-a,,,,AAXX 22184 07335 12240 82110 11010 21020 30068 40220 56023 60007 77172 887// 91800 333 10020 21103=
07335,1996-02-23 00:00:00,1,1017.6,-1.7,93,0,0,11.112,,,210,,,,,,,,,,,wg-a,,,,AAXX 23004 07335 12/// /2106 10010 20000 30026 40176 58017 60026 90000=
07335,1996-02-23 06:00:00,2,1017.7,0.8,93,1,6000,14.816,,,320,-0.8,2.4,,,,,2,,,,wg-a,,,,AAXX 23064 07335 02256 83208 10020 20010 30027 40177 53008 60024 885// 90600 333 10024 21008 61000=
07335,1996-02-23 09:00:00,2,1018.6,0.9,100,2,6000,7.408,,,260,,,,,,,,,,,wg-a,,,,AAXX 23094 07335 12256 72604 10020 20020 30036 40186 51009 60006 835// 90900=
07335,1996-02-23 12:00:00,6,1018.1,-0.3,70,1,25000,14.816,,,310,,,,,,,,,,,wg-a,,,,AAXX 23124 07335 12475 73108 10060 20010 30033 40181 58003 60006 828// 91200=
07335,1996-02-23 15:00:00,7,1017.1,-0.9,57,-1,25000,11.112,,,300,,,,,,,,,,,wg-a,,,,AAXX 23154 07335 12675 73006 10070 21010 30024 40171 58009 60006 875// 91500=
07335,1996-02-23 18:00:00,5,1017.6,0.4,75,1,25000,3.704,,,210,1.5,6.5,,,,,,,,,wg-a,,,,AAXX 23184 07335 12675 72102 10050 20010 30028 40176 53004 60006 875// 91800 333 10065 20015=
07335,1996-02-24 00:00:00,3,1017,-0.7,87,1,0,11.112,,,180,,,,,,,,,,,wg-a,,,,AAXX 24004 07335 12/// /1806 10030 20010 30021 40170 56007 60006 90000=
07335,1996-02-24 06:00:00,4,1014.1,-1.2,93,3,10000,18.52,,,200,2.4,5.2,,,,,,,,21,wg-a,,,,AAXX 24064 07335 02360 82010 10040 20030 39993 40141 57012 61000 72165 875// 90600 333 10052 20024 6100=
07335,1996-02-24 09:00:00,6,1013.2,-0.8,87,4,15000,18.52,,,190,,,,,,,,,,2,wg-a,,,,AAXX 24094 07335 02365 71910 10060 20040 39985 40132 58008 61000 70262 876// 90900 333 ////=
07335,1996-02-24 12:00:00,8,1012.1,-1,87,6,15000,25.928,,,210,,,,0,,,,,,25,wg-a,,,,AAXX 24124 07335 02365 82114 10080 20060 39975 40121 58010 60006 72586 875// 91200 333 60007=
07335,1996-02-24 15:00:00,8,1010.4,-1.6,93,7,9000,29.632,,,210,,,,2,,,,,,60,wg-a,,,,AAXX 24154 07335 12459 72116 10080 20070 39959 40104 56016 60027 76062 875// 91500=
07335,1996-02-24 18:00:00,8,1009.7,-0.7,81,5,0,25.928,,,210,4.2,8.6,,,,,,,,,wg-a,,,,AAXX 24184 07335 32/// /2114 10080 20050 39952 40097 56007 91800 333 10086 20042=
07335,1996-02-25 00:00:00,7,1008.8,-0.5,81,4,0,29.632,,,200,,,,,,,,,,,wg-a,,,,AAXX 25004 07335 12/// /2016 10070 20040 39942 40088 57005 60006 90000=
07335,1996-02-25 06:00:00,6,1006.3,-1.3,81,3,15000,29.632,,,190,6.1,8.7,,,,,2,,,,wg-a,,,,AAXX 25064 07335 12765 71916 10060 20030 39917 40063 56013 60024 875// 90600 333 10087 20061=
07335,1996-02-25 09:00:00,7,1007,0.7,76,3,20000,31.484,,,190,,,,,,,,,,,wg-a,,,,AAXX 25094 07335 12770 71917 10070 20030 39924 40070 51007 60006 845/2 90900=
07335,1996-02-25 12:00:00,12,1005.4,-1.3,58,4,20000,31.484,,57.412,200,,,,,,,,,,,wg-a,,,,AAXX 25124 07335 12770 72017 10120 20040 39911 40054 58013 60006 845/2 91200 333 91031=
07335,1996-02-25 15:00:00,13,1003.9,-1.4,51,3,25000,35.188,,,210,,,,,,,,,,,wg-a,,,,AAXX 25154 07335 12775 72119 10130 20030 39897 40039 56014 60006 815/2 91500=
07335,1996-02-25 18:00:00,11,1004.1,0.1,58,3,0,22.224,,,200,6,13.3,,,,,,,,,wg-a,,,,AAXX 25184 07335 12/// /2012 10110 20030 39898 40041 53001 60006 91800 333 10133 20060=
07335,1996-02-26 00:00:00,8,1005.4,0.6,71,3,0,7.408,,,260,,,,,,,,,,,wg-a,,,,AAXX 26004 07335 12/// /2604 10080 20030 39909 40054 53006 60006 90000=
07335,1996-02-26 06:00:00,6,1008,2,93,5,8000,3.704,,,150,5.5,11.4,,2,,,2,,,61,wg-a,,,,AAXX 26064 07335 02558 81502 10060 20050 39934 40080 51020 60024 76162 875// 90600 333 10114 20055 60027=
07335,1996-02-26 09:00:00,6,1010.8,2.7,93,5,10000,7.408,,,270,,,,,,,,,,50,wg-a,,,,AAXX 26094 07335 02260 72704 10060 20050 39961 40108 51027 61000 75065 875// 90900 333 ////=
07335,1996-02-26 12:00:00,5,1011.4,0.6,100,5,3000,11.112,,,10,,,,2,,,,,,10,wg-a,,,,AAXX 26124 07335 02130 80106 10050 20050 39967 40114 50006 60026 71065 877// 91200 333 60027=
07335,1996-02-26 15:00:00,6,1011.7,0.3,100,6,500,7.408,,,20,,,,4,,,,,,10,wg-a,,,,AAXX 26154 07335 12200 80204 10060 20060 39970 40117 51003 60047 71066 877// 91500=
07335,1996-02-26 18:00:00,6,1013.6,1.9,93,5,20000,7.408,,,10,5.2,6.5,,,,,,,,1,wg-a,,,,AAXX 26184 07335 02470 70104 10060 20050 39989 40136 53019 61000 70162 8653/ 91800 333 10065 20052 ////=
07335,1996-02-27 00:00:00,1,1016.8,1.2,93,0,0,7.408,,,320,,,,,,,,,,,wg-a,,,,AAXX 27004 07335 12/// /3204 10010 20000 30017 40168 53012 60006 90000=
07335,1996-02-27 06:00:00,2,1017.6,0.8,100,2,100,11.112,,,350,0.2,6.1,,,,,5,,,45,wg-a,,,,AAXX 27064 07335 02/01 93506 10020 20020 30026 40176 53008 60006 74542 89/// 90600 333 10061 20002 60054=
07335,1996-02-27 09:00:00,2,1019.2,1.6,100,2,200,11.112,,,20,,,,,,,,,,45,wg-a,,,,AAXX 27094 07335 12/02 90206 10020 20020 30042 40192 51016 60006 74544 89/// 90900=
07335,1996-02-27 12:00:00,5,1019.3,0.2,100,5,7000,11.112,,,40,,,,,,,,,,1,wg-a,,,,AAXX 27124 07335 12257 80406 10050 20050 30044 40193 50002 60006 70142 886// 91200=
07335,1996-02-27 15:00:00,7,1018.5,-0.6,87,5,10000,11.112,,,330,,,,,,,,,,,wg-a,,,,AAXX 27154 07335 12460 73306 10070 20050 30038 40185 58006 60006 878// 91500=
07335,1996-02-27 18:00:00,6,1019.3,0.7,87,4,12000,3.704,,,60,0.5,7.8,,,,,,,,,wg-a,,,,AAXX 27184 07335 12462 60602 10060 20040 30045 40193 53007 60006 84830 91800 333 10078 20005=
07335,1996-02-28 00:00:00,-2,1020.8,0.1,100,-2,0,3.704,,,340,,,,,,,,,,,wg-a,,,,AAXX 28004 07335 12/// /3402 11020 21020 30055 40208 53001 60006 90000=
07335,1996-02-28 06:00:00,3,1021,0.6,100,3,200,11.112,,,20,-2.1,5.6,,,,,,,,45,wg-a,,,,AAXX 28064 07335 02/02 90206 10030 20030 30060 40210 53006 60006 74542 89/// 90600 333 10056 21021 60004=
07335,1996-02-28 09:00:00,4,1022.3,1.4,100,4,200,7.408,,,10,,,,,,,,,,45,wg-a,,,,AAXX 28094 07335 12/02 90104 10040 20040 30074 40223 51014 60006 74544 89/// 90900=
07335,1996-02-28 12:00:00,6,1022.7,0.5,100,6,3500,11.112,,,50,,,,,,,,,,10,wg-a,,,,AAXX 28124 07335 12235 80506 10060 20060 30079 40227 51005 60006 71042 886// 91200=
07335,1996-02-28 15:00:00,8,1022.6,-0,81,5,500,18.52,,,20,,,,,,,,,,,wg-a,,,,AAXX 28154 07335 12300 80210 10080 20050 30079 40226 55000 60006 885// 91500=
07335,1996-02-28 18:00:00,6,1024.1,1.3,87,4,6000,22.224,,,40,2.7,7.6,,,,,,,,,wg-a,,,,AAXX 28184 07335 12356 80412 10060 20040 30092 40241 53013 60006 886// 91800 333 10076 20027=
07335,1996-02-29 06:00:00,4,1025.4,0.4,87,2,6000,14.816,,,40,4,5.9,,,,,,,,,wg-a,,,,AAXX 29064 07335 02356 80408 10040 20020 30104 40254 53004 60006 886// 90600 333 10059 20040 60004=
07335,1996-02-29 09:00:00,5,1026.8,1.4,87,3,3000,18.52,,,40,,,,,,,,,,10,wg-a,,,,AAXX 29094 07335 12230 80410 10050 20030 30118 40268 53014 60006 71022 886// 90900=
07335,1996-02-29 12:00:00,6,1027.5,0.8,87,4,3300,22.224,,,50,,,,,,,,,,10,wg-a,,,,AAXX 29124 07335 12333 80512 10060 20040 30126 40275 51008 60006 71022 886// 91200=
07335,1996-02-29 15:00:00,8,1027.2,-0.2,76,4,3500,14.816,,,50,,,,,,,,,,10,wg-a,,,,AAXX 29154 07335 12435 /0508 10080 20040 30124 40272 58002 60006 71022 876// 91500=
07335,1996-02-29 18:00:00,5,1028.3,1,87,3,4000,7.408,,,10,4,8.7,,,,,,,,10,wg-a,,,,AAXX 29184 07335 12/40 00104 10050 20030 30134 40283 53010 60006 71011 80000 91800 333 10087 20040=
07335,1996-03-01 00:00:00,4,1030.3,0.7,87,2,0,14.816,,,40,,,,,,,,,,,wg-a,,,,AAXX 01004 07335 12/// /0408 10040 20020 30152 40303 53007 60006 90000=
07335,1996-03-01 06:00:00,2,1031.2,0.9,87,0,6000,14.816,,,30,1.5,5.7,,,,,,,,,wg-a,,,,AAXX 01064 07335 02/56 70308 10020 20000 30160 40312 53009 60006 84032 90600 333 10057 20015 60004=
07335,1996-03-01 09:00:00,5,1032.1,1.1,81,2,7000,25.928,,,40,,,,,,,,,,,wg-a,,,,AAXX 01094 07335 12457 40414 10050 20020 30171 40321 51011 60006 82132 90900=
07335,1996-03-01 12:00:00,8,1031.4,-0.6,71,3,15000,29.632,,,40,,,,,,,,,,,wg-a,,,,AAXX 01124 07335 12565 40416 10080 20030 30165 40314 58006 60006 84100 91200=
07335,1996-03-01 15:00:00,9,1029.7,-1.6,71,4,15000,22.224,,,40,,,,,,,,,,,wg-a,,,,AAXX 01154 07335 12565 70412 10090 20040 30149 40297 56016 60006 8453/ 91500=
07335,1996-03-01 18:00:00,8,1028.8,-0.9,76,4,12000,11.112,,,20,1.1,9.2,,,,,,,,,wg-a,,,,AAXX 01184 07335 12562 80206 10080 20040 30140 40288 56009 60006 8553/ 91800 333 10092 20011=
07335,1996-03-02 00:00:00,6,1027.3,-0.8,87,4,0,18.52,,,10,,,,,,,,,,,wg-a,,,,AAXX 02004 07335 12/// /0110 10060 20040 30124 40273 58008 60006 90000=
07335,1996-03-02 06:00:00,5,1025,-0.5,87,3,500,22.224,,,40,4.9,7.9,,,,,,,,50,wg-a,,,,AAXX 02064 07335 02300 80412 10050 20030 30101 40250 56005 61000 75052 875// 90600 333 10079 20049 6100=
07335,1996-03-02 09:00:00,4,1025.7,0.6,70,-1,20000,29.632,,,40,,,,,,,,,,1,wg-a,,,,AAXX 02094 07335 02470 /0416 10040 21010 30107 40257 53006 61000 70151 81100 90900 333 ////=
07335,1996-03-02 12:00:00,5,1025.4,-0.2,65,-1,15000,22.224,,,50,,,,,,,,,,2,wg-a,,,,AAXX 02124 07335 02565 40512 10050 21010 30105 40254 58002 61000 70251 83130 91200 333 ////=
07335,1996-03-02 15:00:00,6,1024.2,-1.2,56,-2,15000,25.928,,,30,,,,,,,,,,,wg-a,,,,AAXX 02154 07335 12565 /0314 10060 21020 30093 40242 56012 60006 81100 91500=
07335,1996-03-02 18:00:00,3,1024.6,0.3,70,-2,0,14.816,,,20,2.9,6.2,,,,,,,,,wg-a,,,,AAXX 02184 07335 32/// /0208 10030 21020 30096 40246 53003 91800 333 10062 20029=
07335,1996-03-03 00:00:00,-2,1024,-0.8,86,-4,0,7.408,,,10,,,,,,,,,,,wg-a,,,,AAXX 03004 07335 12/// /0104 11020 21040 30087 40240 58008 60006 90000=
07335,1996-03-03 06:00:00,-1,1021.4,-1.3,93,-2,8000,7.408,,,320,-2.6,2.9,,,,,,,,3,wg-a,,,,AAXX 03064 07335 02558 83204 11010 21020 30062 40214 56013 61000 70371 885// 90600 333 10029 21026 6100=
07335,1996-03-03 09:00:00,1,1021.5,0.2,86,-1,6000,7.408,,,300,,,,,,,,,,,wg-a,,,,AAXX 03094 07335 12456 83004 10010 21010 30064 40215 53002 60006 875// 90900=
07335,1996-03-03 12:00:00,2,1021.1,-0.3,93,1,3200,11.112,,,320,,,,0,,,,,,22,wg-a,,,,AAXX 03124 07335 02232 83206 10020 20010 30061 40211 58003 60006 72276 877// 91200 333 60007=
07335,1996-03-03 15:00:00,4,1020,-1,93,3,3000,14.816,,,360,,,,,,,,,,10,wg-a,,,,AAXX 03154 07335 12230 83608 10040 20030 30051 40200 56010 60006 71022 876// 91500=
07335,1996-03-03 18:00:00,4,1020.2,0.2,93,3,0,3.704,,,330,-0.6,4.4,,,,,,,,,wg-a,,,,AAXX 03184 07335 32/// /3302 10040 20030 30053 40202 53002 91800 333 10044 21006=
07335,1996-03-04 00:00:00,5,1020.3,0.1,93,4,0,11.112,,,10,,,,,,,,,,,wg-a,,,,AAXX 04004 07335 12/// /0106 10050 20040 30054 40203 53001 60006 90000=
07335,1996-03-04 06:00:00,1,1021.8,1,93,0,3000,7.408,,,60,0.7,4.9,,,,,,,,10,wg-a,,,,AAXX 04064 07335 12230 /0604 10010 20000 30067 40218 53010 60004 71000 81100 90600 333 10049 20007=
07335,1996-03-04 09:00:00,3,1023.3,1.6,70,-2,12000,18.52,,,50,,,,,,,,,,,wg-a,,,,AAXX 04094 07335 12562 /0510 10030 21020 30083 40233 51016 60006 81200 90900=
07335,1996-03-04 12:00:00,5,1023.2,-0,52,-4,15000,18.52,,,50,,,,,,,,,,,wg-a,,,,AAXX 04124 07335 12665 40510 10050 21040 30083 40232 55000 60006 84500 91200=
07335,1996-03-04 15:00:00,6,1022.3,-0.8,52,-3,12000,14.816,,,50,,,,,,,,,,,wg-a,,,,AAXX 04154 07335 12662 /0508 10060 21030 30075 40223 56008 60006 81100 91500=
07335,1996-03-04 18:00:00,4,1023.1,0.7,60,-3,8000,7.408,,,50,-1.3,6.6,,,,,,,,,wg-a,,,,AAXX 04184 07335 12/58 00504 10040 21030 30082 40231 53007 60006 80000 91800 333 10066 21013=
07335,1996-03-05 00:00:00,3,1024.6,0.2,81,0,0,14.816,,,330,,,,,,,,,,,wg-a,,,,AAXX 05004 07335 12/// /3308 10030 20000 30096 40246 53002 60006 90000=
07335,1996-03-05 06:00:00,3,1026.1,1.3,93,2,10000,11.112,,,340,-1.3,4.5,,,,,,,,,wg-a,,,,AAXX 05064 07335 02660 83406 10030 20020 30110 40261 53013 60006 885// 90600 333 10045 21013 60004=
07335,1996-03-05 09:00:00,4,1027.1,1.1,93,3,8000,11.112,,,360,,,,,,,,,,,wg-a,,,,AAXX 05094 07335 12658 83606 10040 20030 30121 40271 51011 60006 885// 90900=
07335,1996-03-05 12:00:00,5,1027.4,0.3,87,3,6000,11.112,,,30,,,,2,,,,,,21,wg-a,,,,AAXX 05124 07335 02456 70306 10050 20030 30124 40274 51003 60026 72152 878// 91200 333 60027=
07335,1996-03-05 15:00:00,7,1026.3,-0.9,70,2,12000,11.112,,,70,,,,,,,,,,,wg-a,,,,AAXX 05154 07335 12562 60706 10070 20020 30115 40263 56009 60006 86300 91500=
07335,1996-03-05 18:00:00,5,1026.9,0.4,81,2,15000,11.112,,,20,2.7,7.6,,,,,,,,,wg-a,,,,AAXX 05184 07335 32665 70206 10050 20020 30119 40269 53004 875// 91800 333 10076 20027=
07335,1996-03-06 00:00:00,4,1027.1,-0.2,87,2,0,11.112,,,20,,,,,,,,,,,wg-a,,,,AAXX 06004 07335 12/// /0206 10040 20020 30121 40271 58002 60006 90000=
07335,1996-03-06 06:00:00,4,1025.6,-0.5,93,3,10000,14.816,,,40,4,5.2,,,,,2,,,,wg-a,,,,AAXX 06064 07335 02460 80408 10040 20030 30106 40256 56005 60006 885// 90600 333 10052 20040 60024=
07335,1996-03-06 09:00:00,5,1025.6,0,81,2,7000,18.52,,,60,,,,,,,,,,,wg-a,,,,AAXX 06094 07335 12457 80610 10050 20020 30106 40256 50000 60006 885// 90900=
07335,1996-03-06 12:00:00,5,1024.5,-1,75,1,10000,18.52,,,50,,,,,,,,,,,wg-a,,,,AAXX 06124 07335 12460 80510 10050 20010 30096 40245 58010 60006 885// 91200=
07335,1996-03-06 15:00:00,6,1022.6,-1.8,70,1,10000,14.816,,,70,,,,,,,,,,,wg-a,,,,AAXX 06154 07335 12460 80708 10060 20010 30078 40226 57018 60006 885// 91500=
07335,1996-03-06 18:00:00,5,1022.2,-0.5,70,0,10000,22.224,,,50,4.1,5.9,,,,,,,,,wg-a,,,,AAXX 06184 07335 12560 80512 10050 20000 30073 40222 55005 60006 885// 91800 333 10059 20041=
07335,1996-03-07 00:00:00,1,1020.9,-1.3,75,-3,0,11.112,,,40,,,,,,,,,,,wg-a,,,,AAXX 07004 07335 12/// /0406 10010 21030 30058 40209 58013 60006 90000=
07335,1996-03-07 06:00:00,-2,1016.9,-1.6,93,-3,500,11.112,,,40,-1.8,4.7,,,,,,,,,wg-a,,,,AAXX 07064 07335 02600 40406 11020 21030 30017 40169 56016 60006 84500 90600 333 10047 21018 60004=
07335,1996-03-07 09:00:00,1,1015.1,-1.6,93,0,1800,11.112,,,30,,,,,,,,,,10,wg-a,,,,AAXX 07094 07335 12218 70306 10010 20000 30001 40151 58016 60006 71011 875// 90900=
07335,1996-03-07 12:00:00,4,1013.7,-1.2,75,0,8000,14.816,,,50,,,,,,,,,,,wg-a,,,,AAXX 07124 07335 12558 70508 10040 20000 39989 40137 58012 60006 8583/ 91200=
07335,1996-03-07 15:00:00,5,1011.8,-1.8,70,0,20000,14.816,,,20,,,,,,,,,,,wg-a,,,,AAXX 07154 07335 12570 70208 10050 20000 39971 40118 56018 60006 878// 91500=
07335,1996-03-07 18:00:00,4,1012.1,0.2,70,-1,15000,7.408,,,40,-1.9,5.3,,,,,,,,,wg-a,,,,AAXX 07184 07335 12565 70404 10040 21010 39973 40121 53002 60006 84802 91800 333 10053 21019=
07335,1996-03-08 00:00:00,3,1012.6,-0.3,81,0,0,7.408,,,100,,,,,,,,,,,wg-a,,,,AAXX 08004 07335 12/// /1004 10030 20000 39977 40126 58003 60006 90000=
07335,1996-03-08 06:00:00,3,1013.6,0.5,93,2,4000,14.816,,,140,1.6,4.3,,2,,,5,,,61,wg-a,,,,AAXX 08064 07335 02440 81408 10030 20020 39987 40136 53005 60054 76162 885// 90600 333 10043 20016 60027=
07335,1996-03-08 09:00:00,4,1014.9,1.3,93,3,6000,11.112,,,160,,,,2,,,,,,61,wg-a,,,,AAXX 08094 07335 12356 81606 10040 20030 30000 40149 51013 60027 76162 885// 90900=
07335,1996-03-08 12:00:00,6,1015.1,0.4,87,4,12000,7.408,,,190,,,,0,,,,,,21,wg-a,,,,AAXX 08124 07335 02462 81904 10060 20040 30004 40151 51004 60026 72162 8657/ 91200 333 60007=
07335,1996-03-08 15:00:00,6,1014.8,-0.3,93,5,9000,11.112,,,350,,,,0,,,,,,60,wg-a,,,,AAXX 08154 07335 12359 83506 10060 20050 30001 40148 55003 60007 76062 875// 91500=
07335,1996-03-08 18:00:00,5,1015.4,0.5,100,5,2500,7.408,,,20,2.5,7.4,,1,,,,,,61,wg-a,,,,AAXX 08184 07335 12225 70204 10050 20050 30006 40154 53005 60017 76162 875// 91800 333 10074 20025=
07335,1996-03-09 09:00:00,9,1017,1.1,76,5,15000,14.816,,,170,,,,,,,,,,,wg-a,,,,AAXX 09094 07335 12/65 21708 10090 20050 30024 40170 51011 60006 82030 90900=
07335,1996-03-09 12:00:00,14,1016.1,-0.6,58,6,20000,14.816,,,160,,,,,,,,,,,wg-a,,,,AAXX 09124 07335 12670 11608 10140 20060 30018 40161 58006 60006 81100 91200=
07335,1996-03-09 15:00:00,16,1015.1,-0.9,45,4,25000,14.816,,,110,,,,,,,,,,,wg-a,,,,AAXX 09154 07335 12675 /1108 10160 20040 30009 40151 56009 60006 81100 91500=
07335,1996-03-10 00:00:00,6,1018.7,0.6,87,4,0,0,,,0,,,,,,,,,,,wg-a,,,,AAXX 10004 07335 12/// /0000 10060 20040 30039 40187 51006 60006 90000=
07335,1996-03-10 06:00:00,0,1020.4,1,100,0,500,7.408,,,350,-0.2,11.8,,,,,,,,,wg-a,,,,AAXX 10064 07335 02/00 03504 10000 20000 30053 40204 51010 60006 80000 90600 333 10118 21002 60004=
07335,1996-03-10 09:00:00,6,1021.4,1.3,70,1,10000,11.112,,,40,,,,,,,,,,,wg-a,,,,AAXX 10094 07335 12/60 10406 10060 20010 30066 40214 51013 60006 80001 90900=
07335,1996-03-10 12:00:00,12,1020.8,-0.3,47,1,12000,25.928,,,30,,,,,,,,,,,wg-a,,,,AAXX 10124 07335 12/62 10314 10120 20010 30063 40208 58003 60006 80001 91200=
07335,1996-03-10 15:00:00,13,1019.7,-1,38,-1,15000,31.484,,,30,,,,,,,,,,,wg-a,,,,AAXX 10154 07335 12/65 10317 10130 21010 30053 40197 56010 60006 80001 91500=
07335,1996-03-11 06:00:00,-3,1020.4,-0,93,-4,3000,11.112,,,360,-2.7,9.2,,,,,,,,10,wg-a,,,,AAXX 11064 07335 02/30 03606 11030 21040 30051 40204 55000 60006 71000 80000 90600 333 10092 21027 60004=
07335,1996-03-11 09:00:00,2,1020.7,0.5,75,-2,4000,14.816,,,30,,,,,,,,,,10,wg-a,,,,AAXX 11094 07335 12/40 00308 10020 21020 30056 40207 50005 60006 71000 80000 90900=
07335,1996-03-11 12:00:00,8,1019.2,-1.1,39,-5,8000,14.816,,,40,,,,,,,,,,,wg-a,,,,AAXX 11124 07335 12/58 30408 10080 21050 30045 40192 56011 60006 80001 91200=
07335,1996-03-12 06:00:00,-5,1011.3,-1.5,93,-6,6000,0,,,0,-5.7,6.5,,,,,,,,,wg-a,,,,AAXX 12064 07335 02/56 20000 11050 21060 39960 40113 56015 60006 81032 90600 333 10065 21057 60004=
07335,1996-03-12 09:00:00,4,1010,,65,-2,6000,7.408,,,110,,,,,,,,,,,wg-a,,,,AAXX 12094 07335 32/56 /1104 10040 21020 39952 40100 81032 90900=
07335,1996-03-12 12:00:00,9,1008,-1.7,43,-3,10000,14.816,,,90,,,,,,,,,,,wg-a,,,,AAXX 12124 07335 12/60 70908 10090 21030 39935 40080 58017 60006 83032 91200=
07335,1996-03-12 15:00:00,9,1005.2,,46,-2,12000,18.52,,,80,,,,,,,,,,,wg-a,,,,AAXX 12154 07335 32/62 70810 10090 21020 39908 40052 81032 91500=
07335,1996-03-12 18:00:00,7,1004,-1.4,42,-5,0,18.52,,,80,-5.2,9.4,,,,,,,,,wg-a,,,,AAXX 12184 07335 12/// 70810 10070 21050 39894 40040 58014 60006 84042 91800 333 10094 21052=
07335,1996-03-13 00:00:00,3,1002.8,-0.5,52,-6,0,22.224,,,90,,,,,,,,,,,wg-a,,,,AAXX 13004 07335 12/// /0912 10030 21060 39881 40028 58005 60006 90000=
07335,1996-03-13 06:00:00,0,1001.8,-0.2,51,-9,20000,11.112,,,70,-0.2,6.5,,,,,,,,,wg-a,,,,AAXX 13064 07335 02/70 60706 10000 21090 39869 40018 55002 60006 83032 90600 333 10065 21002 60004=
07335,1996-03-13 09:00:00,2,1001.2,-0.5,47,-8,15000,14.816,,,100,,,,,,,,,,,wg-a,,,,AAXX 13094 07335 12/65 61008 10020 21080 39864 40012 55005 60006 80002 90900=
07335,1996-03-13 12:00:00,7,1000.2,-0.7,42,-5,15000,14.816,,,90,,,,,,,,,,,wg-a,,,,AAXX 13124 07335 12/65 70908 10070 21050 39857 40002 58007 60006 80002 91200=
07335,1996-03-13 15:00:00,11,998.4,-1.6,37,-3,15000,14.816,,,80,,,,,,,,,,,wg-a,,,,AAXX 13154 07335 12/65 70808 10110 21030 39841 49984 56016 60006 80002 91500=
07335,1996-03-13 18:00:00,9,999.1,0.6,43,-3,10000,11.112,,,70,-0.4,10.7,,,,,,,,,wg-a,,,,AAXX 13184 07335 12/60 70706 10090 21030 39847 49991 53006 60006 80002 91800 333 10107 21004=
07335,1996-03-14 00:00:00,4,1000.1,0.2,65,-2,0,7.408,,,130,,,,,,,,,,,wg-a,,,,AAXX 14004 07335 12/// /1304 10040 21020 39855 40001 51002 60006 90000=
07335,1996-03-14 06:00:00,-1,1000.5,0.2,93,-2,6000,0,,,0,-0.9,8.5,,,,,,,,,wg-a,,,,AAXX 14064 07335 02/56 70000 11010 21020 39856 40005 53002 60006 81032 90600 333 10085 21009 60004=
07335,1996-03-14 12:00:00,14,1001,0.3,55,5,12000,7.408,,,190,,,,,,,,,,,wg-a,,,,AAXX 14124 07335 12562 /1904 10140 20050 39869 40010 51003 60006 83232 91200=
07335,1996-03-14 15:00:00,14,1000.7,-0.3,55,5,11000,11.112,,,220,,,,,,,,,,,wg-a,,,,AAXX 14154 07335 12/61 /2206 10140 20050 39866 40007 56003 60006 91500=
07335,1996-03-14 18:00:00,11,1001.8,0.9,76,7,10000,14.816,,,320,-1,15.2,,,,,,,,,wg-a,,,,AAXX 14184 07335 12660 43208 10110 20070 39875 40018 53009 60006 81132 91800 333 10152 21010=
07335,1996-03-15 00:00:00,6,1003.7,0.4,93,5,0,3.704,,,280,,,,,,,,,,,wg-a,,,,AAXX 15004 07335 12/// /2802 10060 20050 39892 40037 53004 60006 90000=
07335,1996-03-15 06:00:00,6,1004.3,0.6,100,6,400,7.408,,,260,5.2,10.5,,0,,,,,,10,wg-a,,,,AAXX 15064 07335 02/04 92604 10060 20060 39898 40043 51006 60004 71042 89/// 90600 333 10105 20052 60007=
07335,1996-03-15 09:00:00,7,1005.2,0.9,100,7,1500,3.704,,,320,,,,,,,,,,10,wg-a,,,,AAXX 15094 07335 12115 83202 10070 20070 39907 40052 51009 60006 71042 876// 90900=
07335,1996-03-15 12:00:00,8,1005.7,0.5,93,7,2500,3.704,,,340,,,,1,,,,,,10,wg-a,,,,AAXX 15124 07335 02225 83402 10080 20070 39912 40057 51005 60016 71065 877// 91200 333 60017=
07335,1996-03-15 15:00:00,9,1005.5,-0.1,87,7,3300,3.704,,,300,,,,,,,,,,10,wg-a,,,,AAXX 15154 07335 12433 83002 10090 20070 39911 40055 55001 60006 71022 875// 91500=
07335,1996-03-15 18:00:00,8,1006.4,0.8,93,7,3500,3.704,,,310,6.3,8.9,,,,,,,,10,wg-a,,,,AAXX 15184 07335 32635 83102 10080 20070 39919 40064 53008 71022 875// 91800 333 10089 20063=
07335,1996-03-16 00:00:00,7,1007.6,0.5,81,4,0,7.408,,,300,,,,,,,,,,,wg-a,,,,AAXX 16004 07335 12/// /3004 10070 20040 39930 40076 51005 60006 90000=
07335,1996-03-16 06:00:00,6,1009,0.9,93,5,20000,11.112,,,290,5.6,8.3,,,,,1,,,,wg-a,,,,AAXX 16064 07335 12770 82906 10060 20050 39944 40090 53009 60014 8557/ 90600 333 10083 20056=
07335,1996-03-16 09:00:00,8,1011,2,81,5,20000,18.52,,,300,,,,,,,,,,,wg-a,,,,AAXX 16094 07335 12470 73010 10080 20050 39964 40110 52020 60006 8387/ 90900=
07335,1996-03-16 12:00:00,10,1011.8,0.9,66,4,20000,18.52,,,310,,,,,,,,,,,wg-a,,,,AAXX 16124 07335 12570 73110 10100 20040 39973 40118 52009 60006 8423/ 91200=
07335,1996-03-16 15:00:00,11,1011.7,-0,54,2,20000,22.224,,,310,,,,,,,,,,,wg-a,,,,AAXX 16154 07335 12670 73112 10110 20020 39973 40117 55000 60006 8583/ 91500=
07335,1996-03-16 18:00:00,9,1013.8,1.9,66,3,0,11.112,,,300,6,12.4,,,,,,,,,wg-a,,,,AAXX 16184 07335 12/// /3006 10090 20030 39992 40138 53019 60006 91800 333 10124 20060=
07335,1996-03-17 00:00:00,3,1017.3,1.1,87,1,0,14.816,,,300,,,,,,,,,,,wg-a,,,,AAXX 17004 07335 12/// /3008 10030 20010 30024 40173 53011 60006 90000=
07335,1996-03-17 06:00:00,1,1018.6,0.9,93,0,20000,3.704,,,240,0.2,8.9,,,,,,,,,wg-a,,,,AAXX 17064 07335 02670 /2402 10010 20000 30035 40186 53009 60006 85500 90600 333 10089 20002 60004=
07335,1996-03-17 09:00:00,7,1019,0.8,76,3,500,0,,,0,,,,,,,,,,,wg-a,,,,AAXX 17094 07335 12600 /0000 10070 20030 30043 40190 52008 60006 81501 90900=
07335,1996-03-17 12:00:00,12,1018.2,-0.6,47,1,500,7.408,,,250,,,,,,,,,,,wg-a,,,,AAXX 17124 07335 12600 22504 10120 20010 30037 40182 58006 60006 82200 91200=
07335,1996-03-17 15:00:00,13,1016.8,-1.3,38,-1,500,11.112,,,260,,,,,,,,,,,wg-a,,,,AAXX 17154 07335 12700 12606 10130 21010 30024 40168 58013 60006 81201 91500=
07335,1996-03-18 06:00:00,1,1017.9,0.1,93,0,10000,3.704,,,200,0.1,8.3,,,,,,,,,wg-a,,,,AAXX 18064 07335 02760 12002 10010 20000 30029 40179 53001 60006 81502 90600 333 10083 20001 60004=
07335,1996-03-18 09:00:00,8,1018.4,0.8,87,6,12000,7.408,,,210,,,,,,,,,,,wg-a,,,,AAXX 18094 07335 12562 22104 10080 20060 30037 40184 51008 60006 82800 90900=
07335,1996-03-18 12:00:00,11,1017.5,-0.7,62,4,25000,11.112,,,260,,,,,,,,,,,wg-a,,,,AAXX 18124 07335 12675 72606 10110 20040 30030 40175 58007 60006 86802 91200=
07335,1996-03-18 15:00:00,12,1016.8,-0.7,58,4,20000,11.112,,,90,,,,1,,,,,,25,wg-a,,,,AAXX 18154 07335 12470 70906 10120 20040 30023 40168 56007 60017 72586 878// 91500=
07335,1996-03-18 18:00:00,10,1016.7,-0.1,66,4,20000,3.704,,,90,0.5,13,,,,,,,,1,wg-a,,,,AAXX 18184 07335 32570 50902 10100 20040 30022 40167 55001 70186 84802 91800 333 10130 20005=
07335,1996-03-19 00:00:00,0,1017.4,-0.2,93,-1,0,0,,,0,,,,,,,,,,,wg-a,,,,AAXX 19004 07335 12/// /0000 10000 21010 30023 40174 57002 60006 90000=
07335,1996-03-19 06:00:00,-2,1015.8,-0.3,93,-3,15000,3.704,,,80,-2.2,10.2,,,,,1,,,,wg-a,,,,AAXX 19064 07335 02/65 10802 11020 21030 30006 40158 55003 60006 80001 90600 333 10102 21022 60014=
07335,1996-03-19 09:00:00,9,1014.7,-0.5,61,2,20000,14.816,,,110,,,,,,,,,,,wg-a,,,,AAXX 19094 07335 12/70 21108 10090 20020 30001 40147 57005 60006 80001 90900=
07335,1996-03-19 12:00:00,13,1012.2,-2.2,47,2,20000,25.928,,,120,,,,,,,,,,,wg-a,,,,AAXX 19124 07335 12/70 21214 10130 20020 39979 40122 58022 60006 80001 91200=
07335,1996-03-19 15:00:00,14,1009.5,-2.6,44,2,15000,18.52,,,120,,,,,,,,,,,wg-a,,,,AAXX 19154 07335 12765 21210 10140 20020 39953 40095 56026 60006 81101 91500=
07335,1996-03-19 18:00:00,12,1008.7,-0.9,54,3,8000,11.112,,,80,-2.2,14.1,,,,,,,,,wg-a,,,,AAXX 19184 07335 12/58 40806 10120 20030 39944 40087 56009 60006 80002 91800 333 10141 21022=
07335,1996-03-20 00:00:00,9,1006.7,-1.1,71,4,0,11.112,,,120,,,,,,,,,,,wg-a,,,,AAXX 20004 07335 12/// /1206 10090 20040 39923 40067 57011 60006 90000=
07335,1996-03-20 06:00:00,7,1006.9,0.8,93,6,500,11.112,,,190,7.1,12.1,,4,,,4,,,61,wg-a,,,,AAXX 20064 07335 02500 81906 10070 20060 39924 40069 53008 60044 76162 885// 90600 333 10121 20071 60047=
07335,1996-03-20 09:00:00,11,1008.2,1.4,87,9,15000,18.52,,,250,,,,1,,,,,,1,wg-a,,,,AAXX 20094 07335 12465 52510 10110 20090 39938 40082 53014 60017 70162 8223/ 90900=
07335,1996-03-20 12:00:00,14,1008.6,0.6,58,6,25000,25.928,,,250,,,,,,,,,,1,wg-a,,,,AAXX 20124 07335 12675 /2514 10140 20060 39944 40086 51006 60016 70162 85230 91200=
07335,1996-03-20 15:00:00,14,1008.5,-0.1,63,7,500,22.224,,,250,,,,,,,,,,2,wg-a,,,,AAXX 20154 07335 02600 32512 10140 20070 39943 40085 58001 61000 70286 83230 91500 333 ////=
07335,1996-03-20 18:00:00,11,1009.8,1.1,62,4,500,14.816,,,230,7.2,14.9,,,,,,,,3,wg-a,,,,AAXX 20184 07335 32600 52308 10110 20040 39954 40098 53011 70386 84830 91800 333 10149 20072=
07335,1996-03-21 00:00:00,8,1009.2,-1,76,4,0,11.112,,,170,,,,,,,,,,,wg-a,,,,AAXX 21004 07335 12/// /1706 10080 20040 39947 40092 58010 60006 90000=
07335,1996-03-21 06:00:00,9,1008.6,0.6,81,6,20000,22.224,,,210,6.8,11.2,,,,,1,,,60,wg-a,,,,AAXX 21064 07335 02670 72112 10090 20060 39941 40086 53006 60014 76062 85572 90600 333 10112 20068 61000=
07335,1996-03-21 09:00:00,12,1010.2,1.8,76,8,20000,22.224,,,240,,,,,,,,,,1,wg-a,,,,AAXX 21094 07335 02470 62412 10120 20080 39959 40102 51018 61000 70162 85802 90900 333 ////=
07335,1996-03-21 12:00:00,13,1012,1.8,58,5,25000,29.632,,,260,,,,,,,,,,3,wg-a,,,,AAXX 21124 07335 02575 82616 10130 20050 39977 40120 52018 61000 70362 82202 91200 333 ////=
07335,1996-03-21 15:00:00,14,1012.5,0.5,55,5,25000,25.928,,,250,,,,,,,,,,,wg-a,,,,AAXX 21154 07335 12675 72514 10140 20050 39982 40125 53005 60006 82232 91500=
07335,1996-03-21 18:00:00,11,1013.8,1.2,66,5,25000,14.816,,,250,9.2,14,,,,,,,,,wg-a,,,,AAXX 21184 07335 32775 72508 10110 20050 39994 40138 53012 83532 91800 333 10140 20092=
07335,1996-03-22 00:00:00,9,1015.5,0.5,87,7,0,7.408,,,200,,,,,,,,,,,wg-a,,,,AAXX 22004 07335 12/// /2004 10090 20070 30009 40155 51005 60006 90000=
07335,1996-03-22 06:00:00,9,1015.4,-0.1,93,8,15000,11.112,,,180,8.7,11.3,,0,,,1,,,,wg-a,,,,AAXX 22064 07335 02665 71806 10090 20080 30008 40154 58001 60014 875// 90600 333 10113 20087 60007=
07335,1996-03-22 09:00:00,15,1016,0.9,67,9,15000,14.816,,,230,,,,,,,,,,,wg-a,,,,AAXX 22094 07335 12765 62308 10150 20090 30017 40160 51009 60006 815/2 90900=
07335,1996-03-22 12:00:00,18,1015.8,0,56,9,20000,11.112,,,270,,,,,,,,,,,wg-a,,,,AAXX 22124 07335 12770 52706 10180 20090 30017 40158 50000 60006 81582 91200=
07335,1996-03-22 15:00:00,20,1015,-0.7,53,10,20000,14.816,,,270,,,,,,,,,,,wg-a,,,,AAXX 22154 07335 12670 22708 10200 20100 30010 40150 57007 60006 81102 91500=
07335,1996-03-22 18:00:00,16,1015.7,0.5,63,9,20000,7.408,,,300,9,20,,,,,,,,,wg-a,,,,AAXX 22184 07335 12/70 13004 10160 20090 30015 40157 53005 60006 80002 91800 333 10200 20090=
07335,1996-03-23 00:00:00,7,1016.9,0.2,93,6,0,0,,,0,,,,,,,,,,,wg-a,,,,AAXX 23004 07335 12/// /0000 10070 20060 30022 40169 51002 60006 90000=
07335,1996-03-23 06:00:00,5,1016.2,-0.2,100,5,8000,0,,,0,4.5,15.9,,,,,,,,11,wg-a,,,,AAXX 23064 07335 02/58 40000 10050 20050 30014 40162 55002 60006 71100 81032 90600 333 10159 20045 60004=
07335,1996-03-23 09:00:00,15,1015.9,0.3,67,9,12000,7.408,,,160,,,,,,,,,,,wg-a,,,,AAXX 23094 07335 12/62 21604 10150 20090 30017 40159 51003 60006 80002 90900=
07335,1996-03-23 12:00:00,22,1014.2,-1.4,41,8,25000,14.816,,,110,,,,,,,,,,,wg-a,,,,AAXX 23124 07335 12/75 51108 10220 20080 30003 40142 58014 60006 80002 91200=
07335,1996-03-23 15:00:00,23,1012.8,-1.3,38,8,25000,11.112,,,170,,,,,,,,,,,wg-a,,,,AAXX 23154 07335 12/75 61706 10230 20080 39990 40128 56013 60006 81032 91500=
07335,1996-03-23 18:00:00,21,1012.8,-0.1,38,6,0,3.704,,,130,4.7,23.6,,,,,,,,,wg-a,,,,AAXX 23184 07335 12/// /1302 10210 20060 39989 40128 55001 60006 91800 333 10236 20047=
07335,1996-03-24 00:00:00,13,1014.5,0.5,67,7,0,11.112,,,150,,,,,,,,,,,wg-a,,,,AAXX 24004 07335 12/// /1506 10130 20070 30002 40145 53005 60006 90000=
07335,1996-03-24 06:00:00,9,1016,0.5,81,6,15000,11.112,,,170,9.4,21,,,,,,,,,wg-a,,,,AAXX 24064 07335 02/65 11706 10090 20060 30014 40160 53005 60006 81032 90600 333 10210 20094 60004=
07335,1996-03-24 09:00:00,16,1015.8,0.2,55,7,20000,22.224,,,170,,,,,,,,,,,wg-a,,,,AAXX 24094 07335 12/70 31712 10160 20070 30016 40158 53002 60006 81032 90900=
07335,1996-03-24 12:00:00,21,1015.2,-0.4,43,8,25000,14.816,,,130,,,,,,,,,,,wg-a,,,,AAXX 24124 07335 12/75 41308 10210 20080 30012 40152 57004 60006 81082 91200=
07335,1996-03-24 15:00:00,23,1013.7,-1.3,38,8,20000,11.112,,,110,,,,,,,,,,,wg-a,,,,AAXX 24154 07335 12/70 71106 10230 20080 39999 40137 58013 60006 83086 91500=
07335,1996-03-25 00:00:00,15,1012.2,0.2,77,11,0,14.816,,,10,,,,,,,,,,,wg-a,,,,AAXX 25004 07335 12/// /0108 10150 20110 39980 40122 50002 60006 90000=
07335,1996-03-25 06:00:00,12,1013.9,1,88,10,10000,14.816,,,210,11.2,20.4,,,,,3,,,,wg-a,,,,AAXX 25064 07335 12660 32108 10120 20100 39995 40139 53010 60034 81502 90600 333 10204 20112=
07335,1996-03-25 09:00:00,15,1014.7,0.9,82,12,15000,18.52,,,220,,,,,,,,,,,wg-a,,,,AAXX 25094 07335 12465 42210 10150 20120 30004 40147 51009 60006 83502 90900=
07335,1996-03-25 12:00:00,18,1014.9,0.4,64,11,20000,22.224,,,260,,,,,,,,,,,wg-a,,,,AAXX 25124 07335 12570 22612 10180 20110 30008 40149 53004 60006 82202 91200=
07335,1996-03-25 15:00:00,19,1014.2,-0.6,56,10,20000,22.224,,,290,,,,,,,,,,,wg-a,,,,AAXX 25154 07335 12670 22912 10190 20100 30002 40142 56006 60006 81102 91500=
07335,1996-03-25 18:00:00,16,1014.5,0.1,72,11,25000,11.112,,,270,11.6,19.7,,,,,,,,,wg-a,,,,AAXX 25184 07335 12675 32706 10160 20110 30003 40145 53001 60006 81202 91800 333 10197 20116=
07335,1996-03-26 00:00:00,7,1014.1,-0.9,100,7,0,0,,,0,,,,,,,,,,,wg-a,,,,AAXX 26004 07335 12/// /0000 10070 20070 39995 40141 56009 60006 90000=
07335,1996-03-26 06:00:00,9,1012,-0.7,93,8,15000,3.704,,,330,7.1,16.1,,,,,,,,,wg-a,,,,AAXX 26064 07335 02/65 73302 10090 20080 39975 40120 56007 60006 86032 90600 333 10161 20071 60004=
07335,1996-03-26 09:00:00,11,1012.3,0.4,100,11,500,14.816,,,350,,,,4,,,,,,61,wg-a,,,,AAXX 26094 07335 12500 83508 10110 20110 39979 40123 50004 60047 76186 875// 90900=
07335,1996-03-26 12:00:00,12,1011.9,-0.3,94,11,6000,7.408,,,310,,,,1,,,,,,3,wg-a,,,,AAXX 26124 07335 02356 83104 10120 20110 39976 40119 57003 60056 70386 877// 91200 333 60017=
07335,1996-03-26 15:00:00,13,1011,-0.9,94,12,12000,11.112,,,350,,,,,,,,,,,wg-a,,,,AAXX 26154 07335 12362 83506 10130 20120 39967 40110 56009 60006 8557/ 91500=
07335,1996-03-26 18:00:00,12,1011.5,0.5,94,11,15000,11.112,,,330,8.6,12.9,,0,,,,,,61,wg-a,,,,AAXX 26184 07335 12465 83306 10120 20110 39972 40115 53005 60007 76162 875// 91800 333 10129 20086=
07335,1996-03-27 00:00:00,10,1013.3,0.4,93,9,0,22.224,,,40,,,,,,,,,,,wg-a,,,,AAXX 27004 07335 12/// /0412 10100 20090 39988 40133 53004 60036 90000=
07335,1996-03-27 06:00:00,5,1015.4,1.3,87,3,2500,22.224,,,50,5.3,11.9,,,,,8,,,10,wg-a,,,,AAXX 27064 07335 02425 80512 10050 20030 30006 40154 53013 60084 71062 887// 90600 333 10119 20053 61000=
07335,1996-03-27 09:00:00,5,1016.8,1.4,87,3,2500,22.224,,,60,,,,,,,,,,10,wg-a,,,,AAXX 27094 07335 02425 80612 10050 20030 30020 40168 51014 61000 71066 885// 90900 333 ////=
07335,1996-03-27 12:00:00,6,1017.6,0.8,75,2,4500,18.52,,,70,,,,,,,,,,10,wg-a,,,,AAXX 27124 07335 02445 80710 10060 20020 30028 40176 51008 61000 71062 875// 91200 333 6100=
07335,1996-03-27 15:00:00,8,1017.2,-0.2,61,1,10000,22.224,,,80,,,,,,,,,,,wg-a,,,,AAXX 27154 07335 12560 30812 10080 20010 30026 40172 58002 60006 83500 91500=
07335,1996-03-27 18:00:00,8,1018.1,0.8,57,0,15000,14.816,,,60,4.7,9.1,,,,,,,,,wg-a,,,,AAXX 27184 07335 32665 20608 10080 20000 30034 40181 53008 82502 91800 333 10091 20047=
07335,1996-03-28 00:00:00,0,1019.9,0.1,86,-2,0,11.112,,,40,,,,,,,,,,,wg-a,,,,AAXX 28004 07335 12/// /0406 10000 21020 30048 40199 51001 60006 90000=
07335,1996-03-28 06:00:00,-4,1020.1,0.4,93,-5,8000,3.704,,,340,-3.8,9.1,,,,,,,,,wg-a,,,,AAXX 28064 07335 02/58 03402 11040 21050 30048 40201 53004 60006 80000 90600 333 10091 21038 61000=
07335,1996-03-28 09:00:00,4,1020.3,0.6,70,-1,8000,7.408,,,40,,,,,,,,,,,wg-a,,,,AAXX 28094 07335 12/58 00404 10040 21010 30054 40203 51006 60006 80000 90900=
07335,1996-03-28 12:00:00,8,1019.3,-0.8,57,0,10000,11.112,,,340,,,,,,,,,,,wg-a,,,,AAXX 28124 07335 12/60 53406 10080 20000 30046 40193 58008 60006 80002 91200=
07335,1996-03-28 15:00:00,10,1017.8,-1.4,46,-1,10000,18.52,,,310,,,,,,,,,,,wg-a,,,,AAXX 28154 07335 12/60 23110 10100 21010 30032 40178 58014 60006 80002 91500=
07335,1996-03-28 18:00:00,8,1018,0.1,57,0,10000,11.112,,,330,-3.8,10.7,,,,,,,,,wg-a,,,,AAXX 28184 07335 12/60 13306 10080 20000 30033 40180 53001 60006 80002 91800 333 10107 21038=
07335,1996-03-29 06:00:00,-2,1019.3,-0,93,-3,8000,7.408,,,310,-2.1,8.1,,,,,,,,,wg-a,,,,AAXX 29064 07335 02/58 /3104 11020 21030 30041 40193 55000 60006 80002 90600 333 10081 21021 60004=
07335,1996-03-29 09:00:00,5,1019.4,0.5,70,0,12000,3.704,,,300,,,,,,,,,,,wg-a,,,,AAXX 29094 07335 12462 /3002 10050 20000 30046 40194 51005 60006 85502 90900=
07335,1996-03-29 12:00:00,9,1018.3,-0.9,57,1,18000,7.408,,,360,,,,,,,,,,,wg-a,,,,AAXX 29124 07335 12568 43604 10090 20010 30037 40183 58009 60006 84100 91200=
07335,1996-03-29 15:00:00,11,1016.4,-1.8,50,1,18000,7.408,,,340,,,,,,,,,,,wg-a,,,,AAXX 29154 07335 12668 /3404 10110 20010 30019 40164 56018 60006 86500 91500=
07335,1996-03-29 18:00:00,9,1015.5,-1,61,2,20000,14.816,,,30,-1.9,11.1,,,,,,,,,wg-a,,,,AAXX 29184 07335 12670 70308 10090 20020 30009 40155 56010 60006 875// 91800 333 10111 21019=
07335,1996-03-30 00:00:00,6,1014.6,-0.9,81,3,0,7.408,,,10,,,,,,,,,,,wg-a,,,,AAXX 30004 07335 12/// /0104 10060 20030 39999 40146 58009 60006 90000=
07335,1996-03-30 06:00:00,2,1014.4,0.5,93,1,12000,7.408,,,350,1.1,9.2,,,,,,,,,wg-a,,,,AAXX 30064 07335 02562 73504 10020 20010 39995 40144 53005 60006 86502 90600 333 10092 20011 60004=
07335,1996-03-30 09:00:00,8,1015.5,1.3,53,-1,20000,18.52,,,80,,,,,,,,,,,wg-a,,,,AAXX 30094 07335 12570 /0810 10080 21010 30008 40155 53013 60006 81100 90900=
07335,1996-03-30 12:00:00,9,1016.2,0.8,43,-3,25000,22.224,,,50,,,,,,,,,,,wg-a,,,,AAXX 30124 07335 12675 40512 10090 21030 30016 40162 53008 60006 84400 91200=
07335,1996-03-30 15:00:00,10,1016.2,0.1,40,-3,25000,18.52,,,40,,,,,,,,,,,wg-a,,,,AAXX 30154 07335 12775 60410 10100 21030 30017 40162 51001 60006 86500 91500=
07335,1996-03-30 18:00:00,8,1017.9,1.5,46,-3,0,22.224,,,50,2,10.4,,,,,,,,,wg-a,,,,AAXX 30184 07335 12/// /0512 10080 21030 30032 40179 53015 60006 91800 333 10104 20020=
07335,1996-03-31 00:00:00,1,1019.5,0.4,69,-4,0,3.704,,,70,,,,,,,,,,,wg-a,,,,AAXX 31004 07335 12/// /0702 10010 21040 30044 40195 53004 60006 90000=
07335,1996-03-31 06:00:00,-3,1018.3,-0.5,86,-5,15000,3.704,,,50,-3.4,8.2,,,,,,,,,wg-a,,,,AAXX 31064 07335 02/65 00502 11030 21050 30030 40183 56005 60006 80000 90600 333 10082 21034 60004=
07335,1996-03-31 09:00:00,6,1017.6,-0.2,52,-3,20000,14.816,,,110,,,,,,,,,,,wg-a,,,,AAXX 31094 07335 12/70 11108 10060 21030 30028 40176 58002 60006 80002 90900=
07335,1996-03-31 12:00:00,9,1015.6,-1.8,37,-5,25000,14.816,,,90,,,,,,,,,,,wg-a,,,,AAXX 31124 07335 12/75 40908 10090 21050 30010 40156 58018 60006 80002 91200=
07335,1996-03-31 15:00:00,10,1013.3,-2.2,34,-5,25000,7.408,,,50,,,,,,,,,,,wg-a,,,,AAXX 31154 07335 12/75 60504 10100 21050 39988 40133 57022 60006 81032 91500=
07335,1996-03-31 18:00:00,9,1011.5,-1.8,43,-3,0,14.816,,,70,-3,10.6,,,,,,,,,wg-a,,,,AAXX 31184 07335 12/// /0708 10090 21030 39970 40115 56018 60006 91800 333 10106 21030=
07335,1996-04-01 00:00:00,6,1008.7,-2.1,45,-5,0,18.52,,,80,,,,,,,,,,,wg-a,,,,AAXX 01004 07335 12/// /0810 10060 21050 39940 40087 58021 60006 90000=
07335,1996-04-01 06:00:00,4,1004.8,-1.2,56,-4,15000,18.52,,,80,3.6,9,,,,,,,,,wg-a,,,,AAXX 01064 07335 02765 70810 10040 21040 39901 40048 56012 60006 82572 90600 333 10090 20036 60004=
07335,1996-04-01 09:00:00,5,1004.6,-0.2,52,-4,25000,18.52,,,70,,,,,,,,,,,wg-a,,,,AAXX 01094 07335 12675 80710 10050 21040 39899 40046 56002 60006 8257/ 90900=
07335,1996-04-01 12:00:00,8,1003.5,-0.9,46,-3,25000,18.52,,,70,,,,,,,,,,,wg-a,,,,AAXX 01124 07335 12/75 80710 10080 21030 39890 40035 58009 60006 8807/ 91200=
07335,1996-04-01 15:00:00,10,1002.9,-0.5,40,-3,25000,22.224,,,90,,,,,,,,,,,wg-a,,,,AAXX 01154 07335 12/75 70912 10100 21030 39885 40029 58005 60006 8703/ 91500=
07335,1996-04-02 00:00:00,3,1010.3,2,56,-5,0,22.224,,,20,,,,,,,,,,,wg-a,,,,AAXX 02004 07335 12/// /0212 10030 21050 39954 40103 51020 60006 90000=
07335,1996-04-02 06:00:00,-1,1015,2.5,74,-5,10000,22.224,,,20,-1.1,8.9,,,,,,,,,wg-a,,,,AAXX 02064 07335 02/60 10212 11010 21050 39999 40150 53025 60006 80002 90600 333 10089 21011 60004=
07335,1996-04-02 09:00:00,4,1017.7,2.9,52,-5,10000,25.928,,,30,,,,,,,,,,,wg-a,,,,AAXX 02094 07335 12/60 00314 10040 21050 30028 40177 51029 60006 80000 90900=
07335,1996-04-02 12:00:00,8,1018.4,0.9,36,-6,20000,25.928,,,50,,,,,,,,,,,wg-a,,,,AAXX 02124 07335 12/70 00514 10080 21060 30037 40184 51009 60006 80000 91200=
07335,1996-04-02 15:00:00,9,1018.5,0.2,31,-7,20000,31.484,,,20,,,,,,,,,,,wg-a,,,,AAXX 02154 07335 12/70 00217 10090 21070 30039 40185 51002 60006 80000 91500=
07335,1996-04-02 18:00:00,7,1020.3,1.6,36,-7,0,25.928,,,30,-1.1,9.2,,,,,,,,,wg-a,,,,AAXX 02184 07335 12/// /0314 10070 21070 30055 40203 53016 60006 91800 333 10092 21011=
07335,1996-04-03 00:00:00,-1,1023.3,0.5,80,-4,0,14.816,,,10,,,,,,,,,,,wg-a,,,,AAXX 03004 07335 12/// /0108 11010 21040 30081 40233 51005 60006 90000=
07335,1996-04-03 06:00:00,-3,1024.8,1,93,-4,15000,14.816,,,350,-2.9,6.8,,,,,,,,,wg-a,,,,AAXX 03064 07335 02/65 03508 11030 21040 30094 40248 53010 60006 80000 90600 333 10068 21029 60004=
07335,1996-04-03 09:00:00,3,1025.6,1.2,70,-2,12000,25.928,,,30,,,,,,,,,,,wg-a,,,,AAXX 03094 07335 12462 /0314 10030 21020 30106 40256 51012 60006 81100 90900=
07335,1996-04-03 12:00:00,7,1025.3,-0.2,36,-7,15000,25.928,,,40,,,,,,,,,,,wg-a,,,,AAXX 03124 07335 12665 40414 10070 21070 30104 40253 58002 60006 84200 91200=
07335,1996-04-03 15:00:00,7,1025.2,-0,36,-7,15000,29.632,,,50,,,,,,,,,,,wg-a,,,,AAXX 03154 07335 12765 40516 10070 21070 30104 40252 55000 60006 84200 91500=
07335,1996-04-03 18:00:00,6,1025.8,0.5,49,-4,0,18.52,,,30,-2.7,7.7,,,,,,,,,wg-a,,,,AAXX 03184 07335 12/// /0310 10060 21040 30109 40258 53005 60006 91800 333 10077 21027=
07335,1996-04-04 00:00:00,-2,1028,0.1,74,-6,0,11.112,,,10,,,,,,,,,,,wg-a,,,,AAXX 04004 07335 12/// /0106 11020 21060 30127 40280 50001 60006 90000=
07335,1996-04-04 06:00:00,-5,1027.7,-0,79,-8,8000,3.704,,,330,-5.4,6.2,,,,,,,,,wg-a,,,,AAXX 04064 07335 02/58 03302 11050 21080 30121 40277 55000 60006 80000 90600 333 10062 21054 60004=
07335,1996-04-04 09:00:00,4,1026.6,-0.5,56,-4,7000,11.112,,,40,,,,,,,,,,,wg-a,,,,AAXX 04094 07335 12/57 00406 10040 21040 30116 40266 58005 60006 80000 90900=
07335,1996-04-04 12:00:00,8,1024.5,-1.9,46,-3,10000,14.816,,,50,,,,,,,,,,,wg-a,,,,AAXX 04124 07335 12/60 00508 10080 21030 30097 40245 58019 60006 80000 91200=
07335,1996-04-04 15:00:00,10,1022.3,-2,40,-3,12000,18.52,,,40,,,,,,,,,,,wg-a,,,,AAXX 04154 07335 12/62 00410 10100 21030 30077 40223 56020 60006 80000 91500=
07335,1996-04-04 18:00:00,10,1021.3,-1,43,-2,0,18.52,,,60,-5.6,10.7,,,,,,,,,wg-a,,,,AAXX 04184 07335 12/// /0610 10100 21020 30067 40213 58010 60006 91800 333 10107 21056=
07335,1996-04-05 00:00:00,4,1020.2,-1.3,60,-3,0,14.816,,,80,,,,,,,,,,,wg-a,,,,AAXX 05004 07335 12/// /0808 10040 21030 30053 40202 58013 60006 90000=
07335,1996-04-05 06:00:00,2,1017.7,-0.9,69,-3,12000,14.816,,,50,1.9,9.7,,,,,,,,,wg-a,,,,AAXX 05064 07335 02562 /0508 10020 21030 30027 40177 56009 60006 81530 90600 333 10097 20019 60004=
07335,1996-04-05 09:00:00,6,1016.7,-0.8,56,-2,15000,29.632,,,90,,,,,,,,,,,wg-a,,,,AAXX 05094 07335 12565 30916 10060 21020 30019 40167 56008 60006 83100 90900=
07335,1996-04-05 12:00:00,9,1014.5,-2,49,-1,15000,18.52,,,80,,,,,,,,,,,wg-a,,,,AAXX 05124 07335 12/65 00810 10090 21010 39999 40145 58020 60006 80000 91200=
07335,1996-04-05 15:00:00,11,1013.4,-0.9,47,0,15000,18.52,,,90,,,,,,,,,,,wg-a,,,,AAXX 05154 07335 12/65 10910 10110 20000 39990 40134 58009 60006 80002 91500=
07335,1996-04-05 18:00:00,11,1013.3,-0.2,47,0,0,14.816,,,60,2,11.8,,,,,,,,,wg-a,,,,AAXX 05184 07335 12/// /0608 10110 20000 39988 40133 56002 60006 91800 333 10118 20020=
07335,1996-04-06 00:00:00,0,1014.9,0.1,86,-2,0,3.704,,,10,,,,,,,,,,,wg-a,,,,AAXX 06004 07335 12/// /0102 10000 21020 39999 40149 52001 60006 90000=
07335,1996-04-06 06:00:00,-2,1015.5,0.7,93,-3,3000,3.704,,,10,-2.9,10.6,,,,,,,,10,wg-a,,,,AAXX 06064 07335 02/30 10102 11020 21030 30003 40155 53007 60006 71000 81032 90600 333 10106 21029 60004=
07335,1996-04-06 09:00:00,8,1016.1,1.1,66,2,500,3.704,,,160,,,,,,,,,,,wg-a,,,,AAXX 06094 07335 12/00 /1602 10080 20020 30014 40161 51011 60006 81032 90900=
07335,1996-04-06 12:00:00,14,1015.3,-0.4,51,4,10000,7.408,,,200,,,,,,,,,,,wg-a,,,,AAXX 06124 07335 12660 /2004 10140 20040 30010 40153 56004 60006 81102 91200=
07335,1996-04-06 15:00:00,17,1015.1,-0.1,36,2,15000,18.52,,,250,,,,,,,,,,,wg-a,,,,AAXX 06154 07335 12765 22510 10170 20020 30009 40151 55001 60006 82100 91500=
07335,1996-04-06 18:00:00,13,1016.2,0.9,51,3,0,11.112,,,300,-2.2,16.8,,,,,,,,,wg-a,,,,AAXX 06184 07335 12/// /3006 10130 20030 30018 40162 53009 60006 91800 333 10168 21022=
07335,1996-04-07 00:00:00,2,1019.1,0.7,87,0,0,3.704,,,340,,,,,,,,,,,wg-a,,,,AAXX 07004 07335 12/// /3402 10020 20000 30041 40191 51007 60006 90000=
07335,1996-04-07 06:00:00,-1,1020.8,1.2,93,-2,3000,3.704,,,350,-1,12.9,,,,,,,,10,wg-a,,,,AAXX 07064 07335 02/30 /3502 11010 21020 30056 40208 53012 60006 71000 80001 90600 333 10129 21010 60004=
07335,1996-04-07 09:00:00,9,1021.6,1.3,71,4,500,3.704,,,120,,,,,,,,,,,wg-a,,,,AAXX 07094 07335 12/00 /1202 10090 20040 30069 40216 51013 60006 80001 90900=
07335,1996-04-07 12:00:00,14,1021.3,0,51,4,8000,7.408,,,50,,,,,,,,,,,wg-a,,,,AAXX 07124 07335 12658 /0504 10140 20040 30069 40213 50000 60006 81101 91200=
07335,1996-04-07 15:00:00,16,1021.1,-0.1,42,3,10000,11.112,,,40,,,,,,,,,,,wg-a,,,,AAXX 07154 07335 12760 10406 10160 20030 30068 40211 57001 60006 81101 91500=
07335,1996-04-07 18:00:00,14,1022.2,1,51,4,0,14.816,,,360,-1.2,16.5,,,,,,,,,wg-a,,,,AAXX 07184 07335 12/// /3608 10140 20040 30078 40222 53010 60006 91800 333 10165 21012=
07335,1996-04-08 00:00:00,4,1026.3,1.4,87,2,0,3.704,,,350,,,,,,,,,,,wg-a,,,,AAXX 08004 07335 12/// /3502 10040 20020 30113 40263 52014 60006 90000=
07335,1996-04-08 06:00:00,4,1027.8,1,87,2,3000,3.704,,,360,2,14.1,,,,,,,,10,wg-a,,,,AAXX 08064 07335 02730 43602 10040 20020 30128 40278 53010 60006 71011 84500 90600 333 10141 20020 60004=
07335,1996-04-08 09:00:00,10,1029.2,1.7,66,4,500,11.112,,,50,,,,,,,,,,,wg-a,,,,AAXX 08094 07335 12/00 /0506 10100 20040 30145 40292 51017 60006 80002 90900=
07335,1996-04-08 12:00:00,13,1028.6,-0.5,54,4,10000,14.816,,,30,,,,,,,,,,,wg-a,,,,AAXX 08124 07335 12660 30308 10130 20040 30140 40286 58005 60006 83100 91200=
07335,1996-04-08 15:00:00,15,1027.9,-0.6,48,4,15000,14.816,,,50,,,,,,,,,,,wg-a,,,,AAXX 08154 07335 12665 20508 10150 20040 30134 40279 56006 60006 82100 91500=
07335,1996-04-08 18:00:00,14,1027.9,-0,55,5,0,11.112,,,40,3.7,15.5,,,,,,,,,wg-a,,,,AAXX 08184 07335 12/// /0406 10140 20050 30134 40279 55000 60006 91800 333 10155 20037=
07335,1996-04-09 06:00:00,1,1028,-0.4,93,0,4000,3.704,,,350,0.8,14.2,,,,,,,,10,wg-a,,,,AAXX 09064 07335 02/40 /3502 10010 20000 30128 40280 56004 60006 71000 80001 90600 333 10142 20008 60004=
07335,1996-04-09 09:00:00,11,1027.3,-0.1,62,4,8000,14.816,,,90,,,,,,,,,,,wg-a,,,,AAXX 09094 07335 12/58 /0908 10110 20040 30127 40273 56001 60006 80001 90900=
07335,1996-04-09 12:00:00,14,1025.7,-1.5,51,4,12000,18.52,,,100,,,,,,,,,,,wg-a,,,,AAXX 09124 07335 12/62 21010 10140 20040 30112 40257 57015 60006 80001 91200=
07335,1996-04-09 15:00:00,16,1023.8,-1.7,45,4,15000,14.816,,,80,,,,,,,,,,,wg-a,,,,AAXX 09154 07335 12/65 20808 10160 20040 30095 40238 58017 60006 80001 91500=
07335,1996-04-09 18:00:00,14,1022.9,-1,51,4,0,11.112,,,100,0.9,16.1,,,,,,,,,wg-a,,,,AAXX 09184 07335 12/// /1006 10140 20040 30085 40229 56010 60006 91800 333 10161 20009=
07335,1996-04-10 00:00:00,2,1022.8,-1.2,87,0,0,0,,,0,,,,,,,,,,,wg-a,,,,AAXX 10004 07335 12/// /0000 10020 20000 30077 40228 58012 60006 90000=
07335,1996-04-10 06:00:00,3,1020.6,-0.7,93,2,3500,0,,,0,1,14.3,,,,,,,,10,wg-a,,,,AAXX 10064 07335 02/35 70000 10030 20020 30056 40206 56007 60006 71022 84032 90600 333 10143 20010 60004=
07335,1996-04-10 09:00:00,11,1020.3,0.2,71,6,500,11.112,,,230,,,,,,,,,,,wg-a,,,,AAXX 10094 07335 12/00 /2306 10110 20060 30058 40203 53002 60006 82032 90900=
07335,1996-04-10 12:00:00,13,1019.4,-0.8,82,10,6000,14.816,,,280,,,,0,,,,,,61,wg-a,,,,AAXX 10124 07335 02556 82808 10130 20100 30050 40194 57008 60006 76162 8457/ 91200 333 60007=
07335,1996-04-10 15:00:00,12,1018.5,-0.9,88,10,4500,14.816,,,220,,,,0,,,,,,10,wg-a,,,,AAXX 10154 07335 12445 82208 10120 20100 30041 40185 58009 60007 71062 875// 91500=
07335,1996-04-10 18:00:00,13,1018.2,-0.3,88,11,0,11.112,,,240,3.2,15.3,,,,,,,,,wg-a,,,,AAXX 10184 07335 32/// /2406 10130 20110 30038 40182 58003 91800 333 10153 20032=
07335,1996-04-11 00:00:00,7,1018.5,-0.2,100,7,0,3.704,,,280,,,,,,,,,,,wg-a,,,,AAXX 11004 07335 12/// /2802 10070 20070 30038 40185 58002 60006 90000=
07335,1996-04-11 06:00:00,9,1018.2,0.5,93,8,300,0,,,0,4,12.6,,0,,,1,,,45,wg-a,,,,AAXX 11064 07335 02/03 90000 10090 20080 30036 40182 53005 60014 74542 89/// 90600 333 10126 20040 60007=
07335,1996-04-11 09:00:00,10,1018.5,0.3,93,9,3500,3.704,,,350,,,,,,,,,,10,wg-a,,,,AAXX 11094 07335 12235 83502 10100 20090 30039 40185 52003 60006 71042 886// 90900=
07335,1996-04-11 12:00:00,13,1017.3,-1,77,9,10000,7.408,,,10,,,,,,,,,,3,wg-a,,,,AAXX 11124 07335 12460 /0104 10130 20090 30029 40173 58010 60006 70342 85132 91200=
07335,1996-04-11 15:00:00,15,1015.7,-1.4,63,8,11000,7.408,,,310,,,,,,,,,,,wg-a,,,,AAXX 11154 07335 12/61 /3104 10150 20080 30015 40157 58014 60006 91500=
07335,1996-04-11 18:00:00,14,1015.1,-0.7,63,7,0,11.112,,,350,8.4,15.7,,,,,,,,,wg-a,,,,AAXX 11184 07335 12/// /3506 10140 20070 30008 40151 56007 60006 91800 333 10157 20084=
07335,1996-04-12 00:00:00,5,1015.7,-0.2,93,4,0,0,,,0,,,,,,,,,,,wg-a,,,,AAXX 12004 07335 12/// /0000 10050 20040 30009 40157 58002 60006 90000=
07335,1996-04-12 06:00:00,3,1015.1,0.1,100,3,12000,3.704,,,340,2.1,14,,,,,,,,11,wg-a,,,,AAXX 12064 07335 02/62 /3402 10030 20030 30002 40151 53001 60006 71111 80002 90600 333 10140 20021 60004=
07335,1996-04-12 09:00:00,13,1014.8,0.2,62,6,15000,3.704,,,70,,,,,,,,,,,wg-a,,,,AAXX 12094 07335 12/65 10702 10130 20060 30004 40148 50002 60006 80001 90900=
07335,1996-04-12 12:00:00,17,1013.6,-1,39,3,25000,7.408,,,60,,,,,,,,,,,wg-a,,,,AAXX 12124 07335 12775 20604 10170 20030 39994 40136 58010 60006 81201 91200=
07335,1996-04-12 15:00:00,19,1012.1,-1.4,37,4,25000,7.408,,,10,,,,,,,,,,,wg-a,,,,AAXX 12154 07335 12/75 10104 10190 20040 39980 40121 56014 60006 80001 91500=
07335,1996-04-12 18:00:00,17,1012.3,0.2,39,3,0,11.112,,,40,2.8,18.9,,,,,,,,,wg-a,,,,AAXX 12184 07335 12/// /0406 10170 20030 39982 40123 53002 60006 91800 333 10189 20028=
07335,1996-04-13 06:00:00,10,1014.2,0.8,87,8,8000,3.704,,,280,7.7,17.3,,,,,,,,60,wg-a,,,,AAXX 13064 07335 02758 82802 10100 20080 39997 40142 53008 61000 76062 8257/ 90600 333 10173 20077 6100=
07335,1996-04-13 09:00:00,14,1015,1,72,9,10000,0,,,0,,,,,,,,,,2,wg-a,,,,AAXX 13094 07335 02/60 80000 10140 20090 30007 40150 51010 61000 70262 8807/ 90900 333 ////=
07335,1996-04-13 12:00:00,14,1016,1,82,11,6000,18.52,,,340,,,,,,,,,,61,wg-a,,,,AAXX 13124 07335 12456 83410 10140 20110 30017 40160 53010 60016 76162 91200=
07335,1996-04-13 15:00:00,14,1015.9,-0.1,82,11,15000,18.52,,,340,,,,1,,,,,,1,wg-a,,,,AAXX 13154 07335 12465 73410 10140 20110 30016 40159 55001 60017 70162 8687/ 91500=
07335,1996-04-13 18:00:00,14,1016.5,0.6,77,10,0,7.408,,,20,9.5,15.3,,,,,,,,,wg-a,,,,AAXX 13184 07335 32/// /0204 10140 20100 30022 40165 53006 91800 333 10153 20095=
07335,1996-04-14 00:00:00,10,1019,0.6,100,10,0,0,,,0,,,,,,,,,,,wg-a,,,,AAXX 14004 07335 12/// /0000 10100 20100 30044 40190 52006 60006 90000=
07335,1996-04-14 06:00:00,9,1020,1,100,9,200,11.112,,,30,7.3,14.2,,,,,2,,,45,wg-a,,,,AAXX 14064 07335 02/02 90306 10090 20090 30054 40200 53010 60006 74542 89/// 90600 333 10142 20073 60024=
07335,1996-04-14 09:00:00,11,1021.3,1.4,94,10,4000,3.704,,,350,,,,,,,,,,10,wg-a,,,,AAXX 14094 07335 12240 83502 10110 20100 30068 40213 51014 60006 71042 886// 90900=
07335,1996-04-14 12:00:00,13,1021.6,0.4,77,9,10000,14.816,,,10,,,,,,,,,,1,wg-a,,,,AAXX 14124 07335 12460 80108 10130 20090 30072 40216 50004 60006 70142 8583/ 91200=
07335,1996-04-14 15:00:00,14,1021.5,-0.1,67,8,12000,14.816,,,340,,,,,,,,,,,wg-a,,,,AAXX 14154 07335 12562 83408 10140 20080 30071 40215 55001 60006 8383/ 91500=
07335,1996-04-14 18:00:00,13,1021.8,0.3,72,8,0,11.112,,,350,9.3,14.7,,,,,,,,,wg-a,,,,AAXX 14184 07335 12/// /3506 10130 20080 30074 40218 53003 60006 91800 333 10147 20093=
07335,1996-04-15 00:00:00,10,1024.3,0.5,82,7,0,3.704,,,310,,,,,,,,,,,wg-a,,,,AAXX 15004 07335 12/// /3102 10100 20070 30097 40243 51005 60006 90000=
07335,1996-04-15 06:00:00,8,1025,0.7,87,6,12000,7.408,,,30,8,13.3,,,,,,,,,wg-a,,,,AAXX 15064 07335 02762 10304 10080 20060 30103 40250 53007 60006 81500 90600 333 10133 20080 60004=
07335,1996-04-15 09:00:00,14,1025.8,1,51,4,12000,3.704,,,30,,,,,,,,,,,wg-a,,,,AAXX 15094 07335 12/62 00302 10140 20040 30113 40258 52010 60006 80000 90900=
07335,1996-04-15 12:00:00,17,1025.1,-0.5,36,2,18000,11.112,,,30,,,,,,,,,,,wg-a,,,,AAXX 15124 07335 12668 /0306 10170 20020 30108 40251 58005 60006 81100 91200=
07335,1996-04-15 15:00:00,18,1023.6,-1.4,37,3,25000,7.408,,,70,,,,,,,,,,,wg-a,,,,AAXX 15154 07335 12775 10704 10180 20030 30094 40236 58014 60006 81100 91500=
07335,1996-04-16 00:00:00,10,1022.2,-1.5,46,-1,0,7.408,,,150,,,,,,,,,,,wg-a,,,,AAXX 16004 07335 12/// /1504 10100 21010 30076 40222 58015 60006 90000=
07335,1996-04-16 06:00:00,2,1018.2,-2,87,0,15000,3.704,,,120,0.6,17,,,,,,,,,wg-a,,,,AAXX 16064 07335 02/65 41202 10020 20000 30032 40182 57020 60006 80002 90600 333 10170 20006 60004=
07335,1996-04-16 09:00:00,14,1016.2,-1.4,41,1,15000,7.408,,,100,,,,,,,,,,,wg-a,,,,AAXX 16094 07335 12/65 51004 10140 20010 30018 40162 58014 60006 81032 90900=
07335,1996-04-16 12:00:00,19,1012.9,-3,30,1,15000,14.816,,,140,,,,,,,,,,,wg-a,,,,AAXX 16124 07335 12/65 61408 10190 20010 39988 40129 58030 60006 82082 91200=
07335,1996-04-16 15:00:00,21,1009.8,-2.9,23,-1,15000,14.816,,,210,,,,,,,,,,,wg-a,,,,AAXX 16154 07335 12/65 42108 10210 21010 39959 40098 56029 60006 81032 91500=
07335,1996-04-16 18:00:00,16,1008.7,-1.3,45,4,0,7.408,,,270,1.9,20.9,,,,,,,,,wg-a,,,,AAXX 16184 07335 12/// /2704 10160 20040 39946 40087 56013 60006 91800 333 10209 20019=
07335,1996-04-17 06:00:00,9,1012.7,2.1,87,7,12000,11.112,,,290,9.1,16.3,,,,,1,,,,wg-a,,,,AAXX 17064 07335 12462 82906 10090 20070 39982 40127 53021 60014 878// 90600 333 10163 20091=
07335,1996-04-17 09:00:00,13,1014.3,1.7,67,7,500,25.928,,,300,,,,,,,,,,,wg-a,,,,AAXX 17094 07335 12500 43014 10130 20070 39999 40143 51017 60006 84202 90900=
07335,1996-04-17 15:00:00,15,1015.8,0.8,55,6,500,22.224,,,300,,,,,,,,,,25,wg-a,,,,AAXX 17154 07335 02600 53012 10150 20060 30015 40158 51008 61000 72586 85800 91500 333 ////=
07335,1996-04-17 18:00:00,14,1017.7,1.9,51,4,0,22.224,,,310,9.3,15.5,,,,,,,,,wg-a,,,,AAXX 17184 07335 32/// /3112 10140 20040 30034 40177 51019 91800 333 10155 20093=
07335,1996-04-18 06:00:00,5,1022.2,0.5,100,5,400,7.408,,,200,3.7,14,,,,,,,,43,wg-a,,,,AAXX 18064 07335 02/04 92004 10050 20050 30073 40222 53005 60006 74342 89/// 90600 333 10140 20037 61000=
07335,1996-04-18 12:00:00,14,1021.3,-1.1,63,7,25000,14.816,,,200,,,,,,,,,,1,wg-a,,,,AAXX 18124 07335 12575 72008 10140 20070 30069 40213 58011 60006 70142 86202 91200=
07335,1996-04-18 15:00:00,16,1019.7,-1.5,51,6,25000,11.112,,,200,,,,,,,,,,,wg-a,,,,AAXX 18154 07335 12675 72006 10160 20060 30054 40197 56015 60006 86202 91500=
07335,1996-04-18 18:00:00,15,1018.9,-0.8,55,6,0,11.112,,,190,5.4,15.9,,,,,,,,,wg-a,,,,AAXX 18184 07335 12/// /1906 10150 20060 30046 40189 56008 60006 91800 333 10159 20054=
07335,1996-04-19 00:00:00,6,1019.6,-0.1,87,4,0,3.704,,,240,,,,,,,,,,,wg-a,,,,AAXX 19004 07335 12/// /2402 10060 20040 30048 40196 55001 60006 90000=
07335,1996-04-19 06:00:00,2,1018.7,-0.1,100,2,10000,0,,,0,1.5,14.7,,,,,,,,,wg-a,,,,AAXX 19064 07335 02/60 30000 10020 20020 30037 40187 55001 60006 81032 90600 333 10147 20015 60004=
07335,1996-04-19 09:00:00,16,1017.3,-0.6,51,6,15000,11.112,,,170,,,,,,,,,,,wg-a,,,,AAXX 19094 07335 12/65 31706 10160 20060 30031 40173 58006 60006 81032 90900=
07335,1996-04-19 12:00:00,20,1015.6,-1.5,40,6,18000,14.816,,,180,,,,,,,,,,,wg-a,,,,AAXX 19124 07335 12/68 51808 10200 20060 30016 40156 58015 60006 81032 91200=
07335,1996-04-19 15:00:00,23,1013.6,-1.9,29,4,20000,14.816,,,150,,,,,,,,,,,wg-a,,,,AAXX 19154 07335 12/70 51508 10230 20040 39997 40136 58019 60006 81032 91500=
07335,1996-04-19 18:00:00,21,1012.5,-1.1,38,6,0,7.408,,,160,2.4,22.7,,,,,,,,,wg-a,,,,AAXX 19184 07335 12/// /1604 10210 20060 39986 40125 56011 60006 91800 333 10227 20024=
07335,1996-04-20 00:00:00,14,1012.8,-0.1,44,2,0,14.816,,,170,,,,,,,,,,,wg-a,,,,AAXX 20004 07335 12/// /1708 10140 20020 39985 40128 58001 60006 90000=
07335,1996-04-20 06:00:00,10,1012.2,0.2,57,2,500,11.112,,,180,8.6,21.1,,,,,,,,,wg-a,,,,AAXX 20064 07335 02/00 41806 10100 20020 39977 40122 53002 60006 81032 90600 333 10211 20086 60004=
07335,1996-04-20 09:00:00,18,1011.3,-0.5,42,5,500,22.224,,,190,,,,,,,,,,,wg-a,,,,AAXX 20094 07335 12/00 41912 10180 20050 39972 40113 56005 60006 80002 90900=
07335,1996-04-20 12:00:00,21,1010.8,-0.3,40,7,500,22.224,,,200,,,,,,,,,,,wg-a,,,,AAXX 20124 07335 12/00 52012 10210 20070 39969 40108 57003 60006 81082 91200=
07335,1996-04-20 15:00:00,21,1009.5,-1.3,38,6,500,18.52,,,190,,,,,,,,,,,wg-a,,,,AAXX 20154 07335 12/00 71910 10210 20060 39956 40095 57013 60006 81082 91500=
07335,1996-04-20 18:00:00,21,1008.2,-1.3,38,6,0,11.112,,,150,9.9,22.2,,,,,,,,,wg-a,,,,AAXX 20184 07335 12/// /1506 10210 20060 39943 40082 56013 60006 91800 333 10222 20099=
07335,1996-04-21 00:00:00,13,1008.1,-0.9,44,1,0,18.52,,,160,,,,,,,,,,,wg-a,,,,AAXX 21004 07335 12/// /1610 10130 20010 39938 40081 58009 60006 90000=
07335,1996-04-21 06:00:00,13,1006.3,-0.6,51,3,25000,18.52,,,170,10.5,21.1,,,,,,,,,wg-a,,,,AAXX 21064 07335 02/75 21710 10130 20030 39921 40063 56006 60006 82082 90600 333 10211 20105 60004=
07335,1996-04-21 09:00:00,19,1005.9,-0.1,43,6,25000,31.484,,,190,,,,,,,,,,,wg-a,,,,AAXX 21094 07335 12/75 11917 10190 20060 39920 40059 58001 60006 81030 90900=
07335,1996-04-21 12:00:00,23,1006.2,0.4,36,7,25000,29.632,,,180,,,,,,,,,,,wg-a,,,,AAXX 21124 07335 12/75 51816 10230 20070 39924 40062 51004 60006 85080 91200=
07335,1996-04-21 15:00:00,23,1005.3,-0.8,41,9,25000,31.484,,,240,,,,,,,,,,,wg-a,,,,AAXX 21154 07335 12775 52417 10230 20090 39916 40053 58008 60006 83280 91500=
07335,1996-04-21 18:00:00,17,1007.1,1.5,68,11,0,11.112,,,240,13.1,24.7,,,,,,,,,wg-a,,,,AAXX 21184 07335 12/// /2406 10170 20110 39931 40071 53015 60006 91800 333 10247 20131=
07335,1996-04-22 00:00:00,12,1008.5,-0.6,94,11,0,3.704,,,10,,,,,,,,,,,wg-a,,,,AAXX 22004 07335 12/// /0102 10120 20110 39942 40085 58006 60016 90000=
07335,1996-04-22 06:00:00,12,1006.8,-0.3,82,9,15000,3.704,,,90,9.8,17.1,,,,,,,,,wg-a,,,,AAXX 22064 07335 12665 70902 10120 20090 39925 40068 58003 60004 875// 90600 333 10171 20098=
07335,1996-04-22 09:00:00,17,1005.8,-0.7,55,8,15000,14.816,,,170,,,,,,,,,,,wg-a,,,,AAXX 22094 07335 12665 71708 10170 20080 39918 40058 56007 60006 855// 90900=
07335,1996-04-22 12:00:00,21,1003.9,-1.7,49,10,20000,18.52,,,160,,,,,,,,,,,wg-a,,,,AAXX 22124 07335 12670 31610 10210 20100 39901 40039 58017 60006 82132 91200=
07335,1996-04-22 15:00:00,22,1000.4,-3.4,46,10,20000,29.632,,,170,,,,,,,,,,,wg-a,,,,AAXX 22154 07335 12670 71716 10220 20100 39867 40004 58034 60006 85802 91500=
07335,1996-04-22 18:00:00,14,1002.5,1.7,82,11,0,25.928,,,250,11.7,23.3,,,,,,,,,wg-a,,,,AAXX 22184 07335 12/// /2514 10140 20110 39884 40025 53017 60006 91800 333 10233 20117=
07335,1996-04-23 00:00:00,12,1006.2,1.5,94,11,0,18.52,,,210,,,,,,,,,,,wg-a,,,,AAXX 23004 07335 12/// /2110 10120 20110 39919 40062 53015 60056 90000=
07335,1996-04-23 06:00:00,11,1008.8,1.7,87,9,500,18.52,,,220,10.7,13.7,,,,,5,,,,wg-a,,,,AAXX 23064 07335 12400 32210 10110 20090 39944 40088 53017 60054 83502 90600 333 10137 20107=
07335,1996-04-23 09:00:00,12,1011,2.3,88,10,500,25.928,,,260,,,,,,,,,,25,wg-a,,,,AAXX 23094 07335 02400 72614 10120 20100 39967 40110 52023 61000 72586 878// 90900 333 ////=
07335,1996-04-23 12:00:00,15,1012.3,1.4,59,7,500,35.188,,,260,,,,,,,,,,1,wg-a,,,,AAXX 23124 07335 02500 32619 10150 20070 39981 40123 51014 61000 70186 83800 91200 333 ////=
07335,1996-04-23 15:00:00,15,1013.5,1.2,51,5,500,31.484,,,260,,,,,,,,,,,wg-a,,,,AAXX 23154 07335 12600 62617 10150 20050 39993 40135 51012 60006 85801 91500=
07335,1996-04-23 18:00:00,12,1015.2,1.5,62,5,0,22.224,,,270,10.8,16,,,,,,,,,wg-a,,,,AAXX 23184 07335 32/// /2712 10120 20050 30008 40152 51015 91800 333 10160 20108=
07335,1996-04-24 00:00:00,7,1019.2,1.3,93,6,0,7.408,,,200,,,,,,,,,,,wg-a,,,,AAXX 24004 07335 12/// /2004 10070 20060 30045 40192 51013 60006 90000=
07335,1996-04-24 06:00:00,7,1020.4,1,100,7,12000,7.408,,,210,4.7,11.5,,,,,3,,,1,wg-a,,,,AAXX 24064 07335 12262 /2104 10070 20070 30057 40204 53010 60034 70186 81500 90600 333 10115 20047=
07335,1996-04-24 09:00:00,13,1021.6,1.5,72,8,500,18.52,,,250,,,,,,,,,,,wg-a,,,,AAXX 24094 07335 12400 /2510 10130 20080 30072 40216 52015 60006 85200 90900=
07335,1996-04-24 12:00:00,15,1022.3,0.7,63,8,500,25.928,,,250,,,,0,,,,,,1,wg-a,,,,AAXX 24124 07335 02600 52514 10150 20080 30079 40223 51007 60016 70186 85830 91200 333 60007=
07335,1996-04-24 15:00:00,15,1022.7,0.4,59,7,500,18.52,,,280,,,,2,,,,,,1,wg-a,,,,AAXX 24154 07335 12500 32810 10150 20070 30083 40227 51004 60027 70186 83930 91500=
07335,1996-04-24 18:00:00,13,1023.4,0.6,67,7,0,18.52,,,270,6.8,15.5,,,,,,,,,wg-a,,,,AAXX 24184 07335 32/// /2710 10130 20070 30089 40234 53006 91800 333 10155 20068=
07335,1996-04-25 00:00:00,5,1026.6,0.6,93,4,0,7.408,,,320,,,,,,,,,,,wg-a,,,,AAXX 25004 07335 12/// /3204 10050 20040 30117 40266 51006 60006 90000=
07335,1996-04-25 06:00:00,4,1027.8,1.3,100,4,15000,3.704,,,10,1.9,13.1,,,,,2,,,,wg-a,,,,AAXX 25064 07335 02765 10102 10040 20040 30128 40278 53013 60006 81501 90600 333 10131 20019 60024=
07335,1996-04-25 09:00:00,11,1028.1,0.7,66,5,20000,14.816,,,30,,,,,,,,,,,wg-a,,,,AAXX 25094 07335 12470 /0308 10110 20050 30135 40281 51007 60006 81801 90900=
07335,1996-04-25 12:00:00,14,1027,-1,55,5,25000,14.816,,,350,,,,,,,,,,,wg-a,,,,AAXX 25124 07335 12675 43508 10140 20050 30125 40270 58010 60006 84100 91200=
07335,1996-04-25 15:00:00,15,1025.9,-1,48,4,25000,14.816,,,340,,,,,,,,,,,wg-a,,,,AAXX 25154 07335 12675 33408 10150 20040 30115 40259 58010 60006 83100 91500=
07335,1996-04-25 18:00:00,14,1025.6,-0.4,47,3,0,18.52,,,20,4.3,15.8,,,,,,,,,wg-a,,,,AAXX 25184 07335 12/// /0210 10140 20030 30111 40256 56004 60006 91800 333 10158 20043=
07335,1996-04-26 00:00:00,4,1026,-0.5,87,2,0,7.408,,,340,,,,,,,,,,,wg-a,,,,AAXX 26004 07335 12/// /3404 10040 20020 30110 40260 58005 60006 90000=
07335,1996-04-26 06:00:00,4,1023.8,-0.6,93,3,20000,11.112,,,10,1.8,14.1,,,,,,,,,wg-a,,,,AAXX 26064 07335 02/70 00106 10040 20030 30089 40238 56006 60006 80000 90600 333 10141 20018 60004=
07335,1996-04-26 09:00:00,13,1022.8,-0.6,62,6,25000,14.816,,,30,,,,,,,,,,,wg-a,,,,AAXX 26094 07335 12/75 00308 10130 20060 30083 40228 58006 60006 80000 90900=
07335,1996-04-26 12:00:00,17,1020.6,-2,45,5,25000,22.224,,,40,,,,,,,,,,,wg-a,,,,AAXX 26124 07335 12775 10412 10170 20050 30063 40206 58020 60006 81100 91200=
07335,1996-04-26 15:00:00,19,1018.4,-2,37,4,25000,22.224,,,50,,,,,,,,,,,wg-a,,,,AAXX 26154 07335 12775 10512 10190 20040 30043 40184 57020 60006 81101 91500=
07335,1996-04-27 06:00:00,6,1015.5,-0.4,87,4,20000,7.408,,,350,4.5,17.8,,,,,,,,,wg-a,,,,AAXX 27064 07335 02/70 63504 10060 20040 30008 40155 55004 60006 82032 90600 333 10178 20045 60004=
07335,1996-04-27 09:00:00,14,1014.4,-0.7,58,6,20000,11.112,,,40,,,,,,,,,,,wg-a,,,,AAXX 27094 07335 12/70 50406 10140 20060 30001 40144 58007 60006 81032 90900=
07335,1996-04-27 12:00:00,19,1012.7,-1.4,43,6,20000,14.816,,,80,,,,,,,,,,,wg-a,,,,AAXX 27124 07335 12/70 70808 10190 20060 39987 40127 58014 60006 81032 91200=
07335,1996-04-27 15:00:00,20,1011.4,-1.3,35,4,20000,11.112,,,80,,,,,,,,,,,wg-a,,,,AAXX 27154 07335 12770 70806 10200 20040 39974 40114 56013 60006 81132 91500=
07335,1996-04-27 18:00:00,19,1011,-0.4,40,5,0,11.112,,,60,5.8,20.6,,,,,,,,,wg-a,,,,AAXX 27184 07335 12/// /0606 10190 20050 39970 40110 56004 60006 91800 333 10206 20058=
07335,1996-04-28 00:00:00,11,1011.3,-0.8,76,7,0,3.704,,,350,,,,,,,,,,,wg-a,,,,AAXX 28004 07335 12/// /3502 10110 20070 39969 40113 58008 60006 90000=
07335,1996-04-28 06:00:00,10,1010.7,-0,87,8,8000,7.408,,,350,7.9,19.3,,,,,,,,,wg-a,,,,AAXX 28064 07335 02/58 73504 10100 20080 39963 40107 55000 60006 81032 90600 333 10193 20079 60004=
07335,1996-04-28 09:00:00,15,1010.2,-0.3,72,10,8000,11.112,,,20,,,,,,,,,,,wg-a,,,,AAXX 28094 07335 12/58 /0206 10150 20100 39960 40102 58003 60006 82032 90900=
07335,1996-04-28 12:00:00,20,1009,-0.9,49,9,10000,18.52,,,40,,,,,,,,,,,wg-a,,,,AAXX 28124 07335 12660 70410 10200 20090 39951 40090 58009 60006 81132 91200=
07335,1996-04-28 15:00:00,20,1007.4,-1.6,43,7,12000,14.816,,,70,,,,,,,,,,,wg-a,,,,AAXX 28154 07335 12662 70708 10200 20070 39935 40074 57016 60006 83202 91500=
07335,1996-04-28 18:00:00,18,1007.3,-0.2,59,10,0,11.112,,,180,10,20.8,,,,,,,,,wg-a,,,,AAXX 28184 07335 12/// /1806 10180 20100 39933 40073 55002 60006 91800 333 10208 20100=
07335,1996-04-29 00:00:00,14,1008.4,0.1,72,9,0,22.224,,,40,,,,,,,,,,,wg-a,,,,AAXX 29004 07335 12/// /0412 10140 20090 39942 40084 50001 60006 90000=
07335,1996-04-29 06:00:00,9,1008.6,0.3,81,6,15000,14.816,,,10,8.9,17.6,,,,,,,,,wg-a,,,,AAXX 29064 07335 02/65 60108 10090 20060 39941 40086 53003 60006 82032 90600 333 10176 20089 60004=
07335,1996-04-29 09:00:00,12,1008.7,0.3,67,6,25000,18.52,,,30,,,,,,,,,,,wg-a,,,,AAXX 29094 07335 12/75 50310 10120 20060 39944 40087 51003 60006 82031 90900=
07335,1996-04-29 12:00:00,15,1007.9,-0.7,63,8,25000,18.52,,,20,,,,,,,,,,,wg-a,,,,AAXX 29124 07335 12/75 30210 10150 20080 39937 40079 58007 60006 83031 91200=
07335,1996-04-29 15:00:00,16,1006.2,-1.6,59,8,20000,18.52,,,30,,,,,,,,,,,wg-a,,,,AAXX 29154 07335 12670 /0310 10160 20080 39921 40062 58016 60006 81281 91500=
07335,1996-04-29 18:00:00,16,1005.8,-0.4,55,7,0,11.112,,,70,9.1,16.9,,,,,,,,,wg-a,,,,AAXX 29184 07335 12/// /0706 10160 20070 39917 40058 58004 60006 91800 333 10169 20091=
07335,1996-04-30 00:00:00,6,1007.3,0,87,4,0,3.704,,,320,,,,,,,,,,,wg-a,,,,AAXX 30004 07335 12/// /3202 10060 20040 39927 40073 50000 60006 90000=
07335,1996-04-30 06:00:00,4,1006.3,0.1,100,4,20000,3.704,,,240,2.9,15.7,,,,,,,,,wg-a,,,,AAXX 30064 07335 02670 22402 10040 20040 39916 40063 53001 60006 82532 90600 333 10157 20029 60004=
07335,1996-04-30 09:00:00,12,1006.1,0.2,62,5,20000,7.408,,,250,,,,,,,,,,,wg-a,,,,AAXX 30094 07335 12770 32504 10120 20050 39918 40061 50002 60006 81532 90900=
07335,1996-04-30 12:00:00,15,1004.4,-1.5,48,4,20000,11.112,,,230,,,,,,,,,,,wg-a,,,,AAXX 30124 07335 12670 62306 10150 20040 39903 40044 58015 60006 85802 91200=
07335,1996-04-30 15:00:00,14,1003,-1.4,58,6,20000,11.112,,,260,,,,,,,,,,,wg-a,,,,AAXX 30154 07335 12670 72606 10140 20060 39889 40030 58014 60006 878// 91500=
07335,1996-04-30 18:00:00,13,1002.5,-0.6,58,5,0,14.816,,,270,4.2,16.1,,,,,,,,,wg-a,,,,AAXX 30184 07335 12/// /2708 10130 20050 39883 40025 55006 60006 91800 333 10161 20042=
07335,1996-05-01 00:00:00,8,1003.6,-0.2,81,5,0,11.112,,,230,,,,,,,,,,,wg-a,,,,AAXX 01004 07335 12/// /2306 10080 20050 39891 40036 58002 60006 90000=
07335,1996-05-01 06:00:00,7,1001.4,-0.9,87,5,20000,14.816,,,180,5.5,13.1,,,,,,,,,wg-a,,,,AAXX 01064 07335 02570 71808 10070 20050 39869 40014 56009 60006 81832 90600 333 10131 20055 60004=
07335,1996-05-01 09:00:00,12,1000.8,-0.3,71,7,25000,22.224,,,210,,,,,,,,,,,wg-a,,,,AAXX 01094 07335 12475 72112 10120 20070 39866 40008 58003 60006 82836 90900=
07335,1996-05-01 12:00:00,11,999.9,-0.9,76,7,20000,18.52,,,270,,,,1,,,,,,16,wg-a,,,,AAXX 01124 07335 02570 72710 10110 20070 39857 49999 58009 60016 71686 878// 91200 333 60017=
07335,1996-05-01 15:00:00,12,998.7,-1.2,76,8,20000,11.112,,,240,,,,1,,,,,,25,wg-a,,,,AAXX 01154 07335 12570 72406 10120 20080 39845 49987 58012 60017 72586 83832 91500=
07335,1996-05-01 18:00:00,13,996.9,-1.7,67,7,0,14.816,,,170,7.1,13.6,,,,,,,,,wg-a,,,,AAXX 01184 07335 32/// /1708 10130 20070 39828 49969 58017 91800 333 10136 20071=
07335,1996-05-02 00:00:00,8,996,-0.6,93,7,0,14.816,,,170,,,,,,,,,,,wg-a,,,,AAXX 02004 07335 12/// /1708 10080 20070 39817 49960 56006 60026 90000=
07335,1996-05-02 06:00:00,8,996,0.3,93,7,20000,18.52,,,190,7.3,12.5,,,,,6,,,,wg-a,,,,AAXX 02064 07335 12470 71910 10080 20070 39817 49960 53003 60064 878// 90600 333 10125 20073=
07335,1996-05-02 09:00:00,11,996.7,0.8,71,6,20000,25.928,,,200,,,,,,,,,,,wg-a,,,,AAXX 02094 07335 12570 72014 10110 20060 39825 49967 51008 60006 86802 90900=
07335,1996-05-02 12:00:00,10,996.1,,82,7,20000,22.224,,,190,,,,,,,,,,25,wg-a,,,,AAXX 02124 07335 32570 81912 10100 20070 39819 49961 72586 86903 91200=
07335,1996-05-02 15:00:00,11,995.8,-0.3,66,5,20000,31.484,,59.264,180,,,,0,,,,,,1,wg-a,,,,AAXX 02154 07335 12570 71817 10110 20050 39816 49958 58003 60007 70186 85963 91500 333 91032=
07335,1996-05-02 18:00:00,9,995.6,-0.3,87,7,0,18.52,,,180,8,12.8,,,,,,,,,wg-a,,,,AAXX 02184 07335 32/// /1810 10090 20070 39813 49956 58003 91800 333 10128 20080=
07335,1996-05-03 00:00:00,9,994.5,-0.9,93,8,0,11.112,,,160,,,,,,,,,,,wg-a,,,,AAXX 03004 07335 12/// /1606 10090 20080 39802 49945 57009 60006 90000=
07335,1996-05-03 06:00:00,9,998.6,2.9,93,8,15000,14.816,,,300,8.2,9.5,,,,,,,,21,wg-a,,,,AAXX 03064 07335 02265 73008 10090 20080 39843 49986 53029 61000 72162 877// 90600 333 10095 20082 ////=
07335,1996-05-03 09:00:00,11,1001.3,2.8,82,8,20000,14.816,,,320,,,,,,,,,,,wg-a,,,,AAXX 03094 07335 12470 /3208 10110 20080 39871 40013 51028 60006 86830 90900=
07335,1996-05-03 12:00:00,12,1003.2,1.9,82,9,12000,18.52,,,320,,,,0,,,,,,80,wg-a,,,,AAXX 03124 07335 02462 73210 10120 20090 39890 40032 51019 60006 78086 86830 91200 333 60007=
07335,1996-05-03 15:00:00,12,1005.1,1.8,88,10,20000,11.112,,,270,,,,9,,,,,,25,wg-a,,,,AAXX 03154 07335 12470 /2706 10120 20100 39908 40051 51018 60097 72586 8583/ 91500=
07335,1996-05-03 18:00:00,12,1007,1.9,76,8,0,11.112,,,340,8.6,13.5,,,,,,,,,wg-a,,,,AAXX 03184 07335 32/// /3406 10120 20080 39927 40070 53019 91800 333 10135 20086=
07335,1996-05-04 00:00:00,4,1011.2,1.1,93,3,0,3.704,,,340,,,,,,,,,,,wg-a,,,,AAXX 04004 07335 12/// /3402 10040 20030 39964 40112 51011 60006 90000=
07335,1996-05-04 06:00:00,7,1013.3,1.5,87,5,20000,7.408,,,60,3.1,11.5,,,,,9,,,,wg-a,,,,AAXX 04064 07335 02/70 10604 10070 20050 39986 40133 53015 60006 81032 90600 333 10115 20031 60094=
07335,1996-05-04 09:00:00,11,1014.6,1.5,66,5,500,14.816,,,90,,,,,,,,,,,wg-a,,,,AAXX 04094 07335 12500 /0908 10110 20050 30001 40146 51015 60006 81101 90900=
07335,1996-05-04 12:00:00,13,1014.7,0.2,58,5,11000,11.112,,,60,,,,,,,,,,,wg-a,,,,AAXX 04124 07335 12/61 /0606 10130 20050 30003 40147 50002 60006 91200=
07335,1996-05-04 15:00:00,14,1014.3,-0.3,51,4,500,14.816,,,60,,,,,,,,,,,wg-a,,,,AAXX 04154 07335 12600 70608 10140 20040 30000 40143 58003 60006 84802 91500=
07335,1996-05-04 18:00:00,14,1014.6,0.3,51,4,0,14.816,,,50,6.5,14.9,,,,,,,,,wg-a,,,,AAXX 04184 07335 12/// /0508 10140 20040 30003 40146 53003 60006 91800 333 10149 20065=
07335,1996-05-05 00:00:00,7,1016.3,0.3,70,2,0,11.112,,,50,,,,,,,,,,,wg-a,,,,AAXX 05004 07335 12/// /0506 10070 20020 30016 40163 50003 60006 90000=
07335,1996-05-05 06:00:00,6,1015.2,-0,75,2,20000,11.112,,,70,2.8,13.8,,,,,,,,,wg-a,,,,AAXX 05064 07335 02770 10706 10060 20020 30005 40152 55000 60006 81501 90600 333 10138 20028 60004=
07335,1996-05-05 09:00:00,13,1014.6,-0.3,62,6,25000,14.816,,,60,,,,,,,,,,,wg-a,,,,AAXX 05094 07335 12/75 10608 10130 20060 30002 40146 58003 60006 81030 90900=
07335,1996-05-05 12:00:00,17,1012.9,-1.4,52,7,500,14.816,,,80,,,,,,,,,,,wg-a,,,,AAXX 05124 07335 12600 /0808 10170 20070 39988 40129 57014 60006 81100 91200=
07335,1996-05-05 15:00:00,19,1011.4,-1.4,43,6,500,14.816,,,60,,,,,,,,,,,wg-a,,,,AAXX 05154 07335 12700 10608 10190 20060 39974 40114 58014 60006 81100 91500=
07335,1996-05-05 18:00:00,19,1010.5,-0.9,43,6,0,14.816,,,90,5.7,19.7,,,,,,,,,wg-a,,,,AAXX 05184 07335 12/// /0908 10190 20060 39965 40105 56009 60006 91800 333 10197 20057=
07335,1996-05-06 00:00:00,11,1010.8,-0.4,71,6,0,11.112,,,70,,,,,,,,,,,wg-a,,,,AAXX 06004 07335 12/// /0706 10110 20060 39964 40108 58004 60006 90000=
07335,1996-05-06 06:00:00,9,1009.2,-0,76,5,15000,7.408,,,60,7.9,18.8,,,,,,,,,wg-a,,,,AAXX 06064 07335 02/65 30604 10090 20050 39947 40092 55000 60006 81032 90600 333 10188 20079 60004=
07335,1996-05-06 09:00:00,15,1008.2,-0.6,59,7,25000,11.112,,,50,,,,,,,,,,,wg-a,,,,AAXX 06094 07335 12/75 20506 10150 20070 39941 40082 57006 60006 81032 90900=
07335,1996-05-06 12:00:00,20,1006.7,-1.3,49,9,500,14.816,,,60,,,,,,,,,,,wg-a,,,,AAXX 06124 07335 12600 30608 10200 20090 39928 40067 58013 60006 81132 91200=
07335,1996-05-06 15:00:00,21,1005.1,-1.5,46,9,500,14.816,,,90,,,,,,,,,,,wg-a,,,,AAXX 06154 07335 12700 40908 10210 20090 39913 40051 58015 60006 81132 91500=
07335,1996-05-06 18:00:00,21,1004.8,-0.3,46,9,0,14.816,,,50,8.7,22.4,,,,,,,,,wg-a,,,,AAXX 06184 07335 12/// /0508 10210 20090 39910 40048 55003 60006 91800 333 10224 20087=
07335,1996-05-07 06:00:00,10,1006.4,0.1,76,6,20000,7.408,,,50,8.3,21.4,,,,,,,,,wg-a,,,,AAXX 07064 07335 02/70 30504 10100 20060 39920 40064 53001 60006 80002 90600 333 10214 20083 60004=
07335,1996-05-07 09:00:00,15,1005.6,-0.5,67,9,18000,11.112,,,80,,,,,,,,,,,wg-a,,,,AAXX 07094 07335 12/68 60806 10150 20090 39915 40056 58005 60006 81082 90900=
07335,1996-05-07 12:00:00,19,1005.4,0,56,10,25000,14.816,,,150,,,,,,,,,,,wg-a,,,,AAXX 07124 07335 12675 71508 10190 20100 39915 40054 50000 60006 8557/ 91200=
07335,1996-05-07 15:00:00,18,1005.5,0,64,11,25000,25.928,,,120,,,,,,,,,,,wg-a,,,,AAXX 07154 07335 12575 71214 10180 20110 39915 40055 50000 60006 84882 91500=
07335,1996-05-07 18:00:00,16,1006.2,0.7,77,12,0,11.112,,,220,9.7,19.5,,,,,,,,,wg-a,,,,AAXX 07184 07335 12/// /2206 10160 20120 39922 40062 53007 60006 91800 333 10195 20097=
07335,1996-05-08 00:00:00,13,1008.8,0.6,100,13,0,7.408,,,250,,,,,,,,,,,wg-a,,,,AAXX 08004 07335 12/// /2504 10130 20130 39946 40088 53006 60266 90000=
07335,1996-05-08 06:00:00,13,1010.9,1.3,100,13,4000,7.408,,,220,12.7,16.4,,1,,,36,,,10,wg-a,,,,AAXX 08064 07335 02240 82204 10130 20130 39966 40109 53013 60364 71062 877// 90600 333 10164 20127 60017=
07335,1996-05-08 09:00:00,14,1012.1,1.3,94,13,15000,7.408,,,150,,,,,,,,,,,wg-a,,,,AAXX 08094 07335 12365 81504 10140 20130 39979 40121 51013 60006 875// 90900=
07335,1996-05-08 12:00:00,18,1011.9,0,73,13,25000,3.704,,,270,,,,,,,,,,,wg-a,,,,AAXX 08124 07335 12575 72702 10180 20130 39979 40119 50000 60006 8523/ 91200=
07335,1996-05-08 15:00:00,15,1012.5,0.4,88,13,20000,14.816,,,10,,,,1,,,,,,80,wg-a,,,,AAXX 08154 07335 12470 70108 10150 20130 39983 40125 53004 60017 78086 879// 91500=
07335,1996-05-08 18:00:00,13,1013.8,1.2,88,11,0,25.928,,,40,12.8,18.7,,,,,,,,,wg-a,,,,AAXX 08184 07335 32/// /0414 10130 20110 39995 40138 53012 91800 333 10187 20128=
07335,1996-05-09 00:00:00,10,1015.5,0.2,87,8,0,22.224,,,40,,,,,,,,,,,wg-a,,,,AAXX 09004 07335 12/// /0412 10100 20080 30010 40155 50002 60006 90000=
07335,1996-05-09 06:00:00,8,1015.3,0.2,81,5,4000,29.632,,,30,8,12.8,,0,,,1,,,60,wg-a,,,,AAXX 09064 07335 02440 80316 10080 20050 30007 40153 53002 60014 76062 875// 90600 333 10128 20080 60007=
07335,1996-05-09 09:00:00,8,1015.7,0.4,76,4,8000,29.632,,,40,,,,,,,,,,1,wg-a,,,,AAXX 09094 07335 02558 80416 10080 20040 30011 40157 50004 61000 70162 875// 90900 333 ////=
07335,1996-05-09 12:00:00,12,1014.7,-0.8,62,5,9000,25.928,,,50,,,,,,,,,,1,wg-a,,,,AAXX 09124 07335 02459 80514 10120 20050 30003 40147 58008 61000 70162 875// 91200 333 ////=
07335,1996-05-09 15:00:00,13,1013.2,-1.4,58,5,12000,25.928,,,50,,,,,,,,,,,wg-a,,,,AAXX 09154 07335 12662 80514 10130 20050 39989 40132 58014 60006 875// 91500=
07335,1996-05-09 18:00:00,13,1012.6,-0.6,47,2,0,29.632,,,40,7.5,14.1,,,,,,,,,wg-a,,,,AAXX 09184 07335 32/// /0416 10130 20020 39983 40126 56006 91800 333 10141 20075=
07335,1996-05-10 00:00:00,8,1012.8,-0.4,76,4,0,22.224,,,40,,,,,,,,,,,wg-a,,,,AAXX 10004 07335 12/// /0412 10080 20040 39982 40128 58004 60006 90000=
07335,1996-05-10 06:00:00,5,1011.9,-0.3,87,3,12000,25.928,,,40,5,13.3,,,,,,,,,wg-a,,,,AAXX 10064 07335 02862 50414 10050 20030 39972 40119 58003 60006 85502 90600 333 10133 20050 61000=
07335,1996-05-10 09:00:00,9,1011.6,-0.1,76,5,10000,25.928,,,30,,,,,,,,,,,wg-a,,,,AAXX 10094 07335 12460 20314 10090 20050 39971 40116 56001 60006 82202 90900=
07335,1996-05-10 12:00:00,12,1010.5,-1,58,4,12000,25.928,,,60,,,,,,,,,,,wg-a,,,,AAXX 10124 07335 12562 60614 10120 20040 39961 40105 57010 60006 83201 91200=
07335,1996-05-10 15:00:00,13,1009.3,-1.1,44,1,15000,25.928,,,50,,,,,,,,,,,wg-a,,,,AAXX 10154 07335 12665 60514 10130 20010 39950 40093 58011 60006 83202 91500=
07335,1996-05-10 18:00:00,13,1009.1,-0.2,44,1,0,18.52,,,60,5.3,14.1,,,,,,,,,wg-a,,,,AAXX 10184 07335 12/// /0610 10130 20010 39948 40091 55002 60006 91800 333 10141 20053=
07335,1996-05-11 00:00:00,9,1010.5,-0.2,61,2,0,14.816,,,50,,,,,,,,,,,wg-a,,,,AAXX 11004 07335 12/// /0508 10090 20020 39960 40105 58002 60006 90000=
07335,1996-05-11 06:00:00,7,1011.4,1.1,76,3,10000,18.52,,,40,4.8,12.7,,,,,,,,,wg-a,,,,AAXX 11064 07335 02/60 30410 10070 20030 39968 40114 53011 60006 82032 90600 333 10127 20048 60004=
07335,1996-05-11 09:00:00,12,1011.4,0.2,50,2,15000,18.52,,,50,,,,,,,,,,,wg-a,,,,AAXX 11094 07335 12/65 60510 10120 20020 39970 40114 51002 60006 84032 90900=
07335,1996-05-11 12:00:00,14,1011.2,-0.1,47,3,15000,25.928,,,30,,,,,,,,,,,wg-a,,,,AAXX 11124 07335 12765 60314 10140 20030 39969 40112 58001 60006 82132 91200=
07335,1996-05-11 15:00:00,15,1011.2,0.1,39,1,15000,18.52,,,50,,,,,,,,,,,wg-a,,,,AAXX 11154 07335 12765 70510 10150 20010 39970 40112 52001 60006 84802 91500=
07335,1996-05-11 18:00:00,14,1012.2,0.9,47,3,0,18.52,,,30,6.9,15.1,,,,,,,,,wg-a,,,,AAXX 11184 07335 12/// /0310 10140 20030 39979 40122 53009 60006 91800 333 10151 20069=
07335,1996-05-12 00:00:00,8,1015.6,0.8,71,3,0,11.112,,,350,,,,,,,,,,,wg-a,,,,AAXX 12004 07335 12/// /3506 10080 20030 30010 40156 51008 60006 90000=
07335,1996-05-12 06:00:00,5,1018.4,2,93,4,3500,14.816,,,320,3.7,13.7,,,,,,,,10,wg-a,,,,AAXX 12064 07335 02635 73208 10050 20040 30036 40184 53020 60006 71011 83532 90600 333 10137 20037 60004=
07335,1996-05-12 09:00:00,10,1019.7,1.5,76,6,6000,14.816,,,340,,,,,,,,,,,wg-a,,,,AAXX 12094 07335 12756 43408 10100 20060 30051 40197 51015 60006 82502 90900=
07335,1996-05-12 12:00:00,12,1020.2,0.6,62,5,8000,18.52,,,360,,,,,,,,,,,wg-a,,,,AAXX 12124 07335 12558 83610 10120 20050 30057 40202 53006 60006 878// 91200=
07335,1996-05-12 15:00:00,13,1021.4,1.2,51,3,15000,14.816,,,350,,,,,,,,,,,wg-a,,,,AAXX 12154 07335 12665 83508 10130 20030 30069 40214 51012 60006 878// 91500=
07335,1996-05-12 18:00:00,12,1022.7,1.3,54,3,0,18.52,,,350,4.7,13.3,,,,,,,,,wg-a,,,,AAXX 12184 07335 12/// /3510 10120 20030 30082 40227 52013 60006 91800 333 10133 20047=
07335,1996-05-13 00:00:00,8,1025.3,0.8,81,5,0,7.408,,,320,,,,,,,,,,,wg-a,,,,AAXX 13004 07335 12/// /3204 10080 20050 30105 40253 51008 60006 90000=
07335,1996-05-13 06:00:00,7,1025.6,0.3,81,4,7000,7.408,,,350,5.4,12.3,,,,,,,,,wg-a,,,,AAXX 13064 07335 02/57 03504 10070 20040 30108 40256 53003 60006 80000 90600 333 10123 20054 60004=
07335,1996-05-13 09:00:00,10,1025.2,-0.2,71,5,12000,14.816,,,10,,,,,,,,,,,wg-a,,,,AAXX 13094 07335 12662 70108 10100 20050 30106 40252 58002 60006 875// 90900=
07335,1996-05-13 12:00:00,13,1024.1,-1,54,4,20000,18.52,,,20,,,,,,,,,,,wg-a,,,,AAXX 13124 07335 12670 80210 10130 20040 30096 40241 56010 60006 875// 91200=
07335,1996-05-13 15:00:00,14,1023,-1,51,4,20000,18.52,,,30,,,,,,,,,,,wg-a,,,,AAXX 13154 07335 12670 80310 10140 20040 30086 40230 56010 60006 875// 91500=
07335,1996-05-13 18:00:00,13,1022.6,-0.5,54,4,0,11.112,,,70,6.7,14.2,,,,,,,,,wg-a,,,,AAXX 13184 07335 12/// /0706 10130 20040 30081 40226 55005 60006 91800 333 10142 20067=
07335,1996-05-14 00:00:00,11,1021.8,-0.6,71,6,0,7.408,,,40,,,,,,,,,,,wg-a,,,,AAXX 14004 07335 12/// /0404 10110 20060 30072 40218 57006 60006 90000=
07335,1996-05-14 06:00:00,8,1019.4,-0.8,81,5,6000,14.816,,,40,7.6,13.4,,,,,,,,,wg-a,,,,AAXX 14064 07335 02/56 /0408 10080 20050 30047 40194 56008 60006 80001 90600 333 10134 20076 60004=
07335,1996-05-14 09:00:00,12,1017.9,-1.3,62,5,10000,18.52,,,50,,,,,,,,,,,wg-a,,,,AAXX 14094 07335 12560 20510 10120 20050 30034 40179 57013 60006 81130 90900=
07335,1996-05-14 12:00:00,14,1015.9,-1.8,63,7,15000,22.224,,,40,,,,,,,,,,,wg-a,,,,AAXX 14124 07335 12565 40412 10140 20070 30016 40159 58018 60006 82230 91200=
07335,1996-05-14 15:00:00,14,1015.2,-0.7,67,8,15000,25.928,,,40,,,,,,,,,,,wg-a,,,,AAXX 14154 07335 12565 80414 10140 20080 30009 40152 56007 60006 885// 91500=
07335,1996-05-14 18:00:00,13,1014.4,-0.8,72,8,0,22.224,,,50,7.7,15.1,,,,,,,,,wg-a,,,,AAXX 14184 07335 12/// /0512 10130 20080 30001 40144 58008 60006 91800 333 10151 20077=
07335,1996-05-15 00:00:00,11,1013.9,-0.7,82,8,0,18.52,,,50,,,,,,,,,,,wg-a,,,,AAXX 15004 07335 12/// /0510 10110 20080 39995 40139 58007 60006 90000=
07335,1996-05-15 06:00:00,10,1012.7,-0.1,87,8,2500,14.816,,,40,10,13.4,,,,,,,,10,wg-a,,,,AAXX 15064 07335 02325 80408 10100 20080 39982 40127 55001 60006 71022 886// 90600 333 10134 20100 60004=
07335,1996-05-15 09:00:00,12,1012.7,0.2,88,10,3000,14.816,,,50,,,,,,,,,,10,wg-a,,,,AAXX 15094 07335 12430 80508 10120 20100 39984 40127 53002 60006 71022 886// 90900=
07335,1996-05-15 12:00:00,13,1012.3,-0.4,82,10,6000,22.224,,,40,,,,,,,,,,,wg-a,,,,AAXX 15124 07335 12456 80412 10130 20100 39980 40123 58004 60006 886// 91200=
07335,1996-05-15 15:00:00,14,1011.8,-0.5,82,11,7000,18.52,,,50,,,,,,,,,,,wg-a,,,,AAXX 15154 07335 12/57 /0510 10140 20110 39975 40118 58005 60006 91500=
07335,1996-05-15 18:00:00,12,1011.2,-0.6,88,10,0,22.224,,,40,10.3,13.6,,,,,,,,,wg-a,,,,AAXX 15184 07335 12/// /0412 10120 20100 39969 40112 55006 60006 91800 333 10136 20103=
07335,1996-05-16 00:00:00,10,1010.9,-0.6,93,9,0,18.52,,,50,,,,,,,,,,,wg-a,,,,AAXX 16004 07335 12/// /0510 10100 20090 39965 40109 58006 60006 90000=
07335,1996-05-16 06:00:00,9,1008.7,-0.5,100,9,1500,14.816,,,60,8.9,12.2,,,,,,,,10,wg-a,,,,AAXX 16064 07335 02115 80608 10090 20090 39942 40087 55005 61000 71052 887// 90600 333 10122 20089 6100=
07335,1996-05-16 09:00:00,10,1006.9,-1.7,100,10,1700,18.52,,,60,,,,1,,,,,,10,wg-a,,,,AAXX 16094 07335 12117 80610 10100 20100 39925 40069 58017 60017 71065 887// 90900=
07335,1996-05-16 12:00:00,16,1005.7,-0.9,82,13,500,14.816,,,140,,,,,,,,,,1,wg-a,,,,AAXX 16124 07335 02300 71408 10160 20130 39916 40057 58009 60016 70165 8678/ 91200 333 61000=
07335,1996-05-16 15:00:00,21,1004.6,-0.8,49,10,25000,31.484,,,250,,,,,,,,,,,wg-a,,,,AAXX 16154 07335 12675 22517 10210 20100 39908 40046 56008 60006 81233 91500=
07335,1996-05-16 18:00:00,18,1005.5,0.7,56,9,0,25.928,,,250,9.1,21.7,,,,,,,,,wg-a,,,,AAXX 16184 07335 32/// /2514 10180 20090 39915 40055 53007 91800 333 10217 20091=
07335,1996-05-17 00:00:00,11,1007.6,0.2,94,10,0,11.112,,,230,,,,,,,,,,,wg-a,,,,AAXX 17004 07335 12/// /2306 10110 20100 39932 40076 52002 60006 90000=
07335,1996-05-17 06:00:00,11,1005.8,-0.6,100,11,3500,3.704,,,180,10,18.1,,0,,,2,,,10,wg-a,,,,AAXX 17064 07335 02635 81802 10110 20110 39915 40058 55006 60024 71086 8658/ 90600 333 10181 20100 60007=
07335,1996-05-17 12:00:00,18,1004.1,-0.8,73,13,25000,22.224,,,250,,,,,,,,,,1,wg-a,,,,AAXX 17124 07335 12575 62512 10180 20130 39902 40041 58008 60076 70196 84232 91200=
07335,1996-05-17 15:00:00,20,1003.3,-0.7,56,11,25000,18.52,,,260,,,,,,,,,,,wg-a,,,,AAXX 17154 07335 12675 72610 10200 20110 39895 40033 58007 60006 84232 91500=
07335,1996-05-17 18:00:00,18,1002.5,-0.9,68,12,0,3.704,,,290,10.9,20.6,,,,,,,,,wg-a,,,,AAXX 17184 07335 32/// /2902 10180 20120 39886 40025 58009 91800 333 10206 20109=
07335,1996-05-18 00:00:00,15,1001.6,-0.6,82,12,0,18.52,,,190,,,,,,,,,,,wg-a,,,,AAXX 18004 07335 12/// /1910 10150 20120 39875 40016 58006 60006 90000=
07335,1996-05-18 06:00:00,13,1000.3,-0,94,12,500,14.816,,,180,12.9,18.5,,,,,7,,,,wg-a,,,,AAXX 18064 07335 02700 51808 10130 20120 39862 40003 55000 60006 81532 90600 333 10185 20129 60074=
07335,1996-05-18 09:00:00,18,999.9,-0.2,68,12,500,18.52,,,200,,,,,,,,,,,wg-a,,,,AAXX 18094 07335 12400 62010 10180 20120 39860 49999 58002 60006 82832 90900=
07335,1996-05-18 12:00:00,19,997.7,-2.1,64,12,15000,18.52,,,220,,,,0,,,,,,80,wg-a,,,,AAXX 18124 07335 02665 72210 10190 20120 39839 49977 58021 60016 78098 8593/ 91200 333 60007=
07335,1996-05-18 15:00:00,17,998.9,1.1,77,13,25000,18.52,,,220,,,,15,,,,,,29,wg-a,,,,AAXX 18154 07335 12675 32210 10170 20130 39850 49989 53011 60157 72998 81932 91500=
07335,1996-05-18 18:00:00,13,1000.8,1.7,77,9,0,29.632,,,240,12.6,22.1,,,,,,,,,wg-a,,,,AAXX 18184 07335 32/// /2416 10130 20090 39867 40008 53017 91800 333 10221 20126=
07335,1996-05-19 00:00:00,9,1004.8,1.3,87,7,0,14.816,,,210,,,,,,,,,,,wg-a,,,,AAXX 19004 07335 12/// /2108 10090 20070 39904 40048 51013 60006 90000=
07335,1996-05-19 06:00:00,8,1006.3,0.8,100,8,15000,7.408,,,190,8,13.3,,1,,,17,,,25,wg-a,,,,AAXX 19064 07335 02565 61904 10080 20080 39918 40063 52008 60174 72586 83802 90600 333 10133 20080 60017=
07335,1996-05-19 09:00:00,11,1007.2,1.1,71,6,20000,22.224,,,230,,,,0,,,,,,25,wg-a,,,,AAXX 19094 07335 12570 /2312 10110 20060 39929 40072 51011 60007 72511 86232 90900=
07335,1996-05-19 12:00:00,14,1007.8,0.7,58,6,15000,22.224,,,240,,,,1,,,,,,25,wg-a,,,,AAXX 19124 07335 02365 52412 10140 20060 39936 40078 51007 60016 72586 84202 91200 333 60017=
07335,1996-05-19 15:00:00,15,1008.4,0.6,51,5,25000,22.224,,,240,,,,0,,,,,,25,wg-a,,,,AAXX 19154 07335 12675 62412 10150 20050 39942 40084 51006 60007 72586 86202 91500=
07335,1996-05-19 18:00:00,12,1009.7,1.2,62,5,0,14.816,,,260,8.4,15.4,,,,,,,,,wg-a,,,,AAXX 19184 07335 32/// /2608 10120 20050 39954 40097 53012 91800 333 10154 20084=
07335,1996-05-20 00:00:00,3,1012.6,0.5,93,2,0,0,,,0,,,,,,,,,,,wg-a,,,,AAXX 20004 07335 12/// /0000 10030 20020 39977 40126 53005 60006 90000=
07335,1996-05-20 06:00:00,6,1015.4,1.4,100,6,20000,0,,,0,1.9,13.3,,,,,1,,,,wg-a,,,,AAXX 20064 07335 02870 60000 10060 20060 30007 40154 53014 60006 85530 90600 333 10133 20019 60014=
07335,1996-05-20 09:00:00,13,1016.6,1.5,72,8,20000,7.408,,,140,,,,,,,,,,,wg-a,,,,AAXX 20094 07335 12570 61404 10130 20080 30022 40166 51015 60006 83830 90900=
07335,1996-05-20 12:00:00,15,1017.2,0.7,55,6,20000,11.112,,,250,,,,,,,,,,,wg-a,,,,AAXX 20124 07335 12670 72506 10150 20060 30029 40172 52007 60006 838// 91200=
07335,1996-05-20 15:00:00,15,1017.7,0.5,55,6,20000,22.224,,,260,,,,,,,,,,,wg-a,,,,AAXX 20154 07335 12670 72612 10150 20060 30034 40177 53005 60006 8683/ 91500=
07335,1996-05-20 18:00:00,14,1018.3,0.5,63,7,0,14.816,,,270,6.2,16.2,,,,,,,,,wg-a,,,,AAXX 20184 07335 12/// /2708 10140 20070 30039 40183 53005 60006 91800 333 10162 20062=
07335,1996-05-21 00:00:00,6,1021.6,0.9,93,5,0,7.408,,,220,,,,,,,,,,,wg-a,,,,AAXX 21004 07335 12/// /2204 10060 20050 30068 40216 53009 60006 90000=
07335,1996-05-21 06:00:00,8,1022.2,0.7,93,7,12000,7.408,,,170,4.6,14,,,,,,,,,wg-a,,,,AAXX 21064 07335 02562 71704 10080 20070 30075 40222 53007 60006 878// 90600 333 10140 20046 60004=
07335,1996-05-21 09:00:00,12,1023,1,76,8,20000,18.52,,,250,,,,,,,,,,21,wg-a,,,,AAXX 21094 07335 02470 72510 10120 20080 30085 40230 51010 61000 72162 85832 90900 333 ////=
07335,1996-05-21 12:00:00,15,1023.6,0.7,59,7,15000,18.52,,,300,,,,1,,,,,,3,wg-a,,,,AAXX 21124 07335 02565 73010 10150 20070 30092 40236 52007 60016 70386 872// 91200 333 60017=
07335,1996-05-21 15:00:00,15,1024.4,0.8,63,8,15000,11.112,,,240,,,,3,,,,,,25,wg-a,,,,AAXX 21154 07335 12565 62406 10150 20080 30100 40244 51008 60037 72598 84933 91500=
07335,1996-05-21 18:00:00,15,1025.5,1.1,48,4,0,18.52,,,300,7.9,16.2,,,,,,,,,wg-a,,,,AAXX 21184 07335 32/// /3010 10150 20040 30111 40255 53011 91800 333 10162 20079=
07335,1996-05-22 00:00:00,4,1028.5,0.2,93,3,0,11.112,,,250,,,,,,,,,,,wg-a,,,,AAXX 22004 07335 12/// /2506 10040 20030 30135 40285 50002 60006 90000=
07335,1996-05-22 06:00:00,7,1027.2,-0.3,93,6,20000,11.112,,,190,3.3,14.8,,,,,4,,,,wg-a,,,,AAXX 22064 07335 02/70 71906 10070 20060 30124 40272 58003 60006 82032 90600 333 10148 20033 60044=
07335,1996-05-22 09:00:00,13,1026.2,-0.7,67,7,25000,18.52,,,200,,,,,,,,,,,wg-a,,,,AAXX 22094 07335 12575 72010 10130 20070 30117 40262 58007 60006 81232 90900=
07335,1996-05-22 12:00:00,16,1024.7,-1.3,51,6,500,22.224,,,220,,,,,,,,,,,wg-a,,,,AAXX 22124 07335 12600 72212 10160 20060 30104 40247 58013 60006 81132 91200=
07335,1996-05-22 18:00:00,15,1022.8,-0.5,55,6,0,25.928,,,250,6.9,17.8,,,,,,,,,wg-a,,,,AAXX 22184 07335 32/// /2514 10150 20060 30084 40228 56005 91800 333 10178 20069=
07335,1996-05-23 00:00:00,12,1022.7,-0.6,94,11,0,14.816,,,220,,,,,,,,,,,wg-a,,,,AAXX 23004 07335 12/// /2208 10120 20110 30082 40227 56006 60006 90000=
07335,1996-05-23 06:00:00,13,1023.6,1.1,100,13,9000,18.52,,,250,11.8,14.8,,0,,,1,,,50,wg-a,,,,AAXX 23064 07335 02259 82510 10130 20130 30092 40236 53011 60014 75052 887// 90600 333 10148 20118 60007=
07335,1996-05-23 09:00:00,16,1023.7,0.2,88,14,15000,22.224,,,250,,,,1,,,,,,21,wg-a,,,,AAXX 23094 07335 12465 72512 10160 20140 30094 40237 50002 60017 72165 85232 90900=
07335,1996-05-23 12:00:00,16,1023.4,-0.3,88,14,20000,18.52,,,250,,,,,,,,,,20,wg-a,,,,AAXX 23124 07335 02470 72510 10160 20140 30091 40234 58003 60016 72065 868// 91200 333 61000=
07335,1996-05-23 15:00:00,17,1022.1,-1.2,77,13,25000,14.816,,,220,,,,,,,,,,,wg-a,,,,AAXX 23154 07335 12575 72208 10170 20130 30079 40221 58012 60006 875// 91500=
07335,1996-05-23 18:00:00,17,1020.8,-1.3,77,13,0,7.408,,,230,13.4,17.6,,,,,,,,,wg-a,,,,AAXX 23184 07335 32/// /2304 10170 20130 30066 40208 56013 91800 333 10176 20134=
07335,1996-05-24 00:00:00,10,1019.1,-1.2,93,9,0,0,,,0,,,,,,,,,,,wg-a,,,,AAXX 24004 07335 12/// /0000 10100 20090 30045 40191 58012 60006 90000=
07335,1996-05-24 06:00:00,13,1016.7,-0.2,94,12,10000,7.408,,,230,9,17.2,,,,,1,,,,wg-a,,,,AAXX 24064 07335 02860 72304 10130 20120 30023 40167 56002 60006 8253/ 90600 333 10172 20090 60014=
07335,1996-05-24 09:00:00,17,1016.2,-0.2,82,14,15000,3.704,,,310,,,,,,,,,,,wg-a,,,,AAXX 24094 07335 12365 /3102 10170 20140 30021 40162 57002 60006 81532 90900=
07335,1996-05-24 12:00:00,22,1015,-1,43,9,20000,18.52,,,260,,,,,,,,,,,wg-a,,,,AAXX 24124 07335 12770 62610 10220 20090 30011 40150 57010 60006 81182 91200=
07335,1996-05-24 15:00:00,21,1014.2,-0.8,53,11,20000,22.224,,,250,,,,,,,,,,,wg-a,,,,AAXX 24154 07335 12/70 62512 10210 20110 30003 40142 58008 60006 82082 91500=
07335,1996-05-24 18:00:00,17,1014.5,0.1,68,11,0,18.52,,,270,12.6,22.2,,,,,,,,,wg-a,,,,AAXX 24184 07335 12/// /2710 10170 20110 30004 40145 53001 60006 91800 333 10222 20126=
07335,1996-05-25 00:00:00,13,1015.2,-0.4,94,12,0,18.52,,,220,,,,,,,,,,,wg-a,,,,AAXX 25004 07335 12/// /2210 10130 20120 30009 40152 58004 60006 90000=
07335,1996-05-25 06:00:00,13,1014,-0.5,100,13,3500,14.816,,,210,11.9,17.2,,0,,,,,,51,wg-a,,,,AAXX 25064 07335 02335 82108 10130 20130 39997 40140 58005 60004 75165 885// 90600 333 10172 20119 60007=
07335,1996-05-25 09:00:00,13,1013.8,-0.2,94,12,3500,14.816,,,290,,,,7,,,,,,61,wg-a,,,,AAXX 25094 07335 12335 82908 10130 20120 39995 40138 57002 60077 76166 885// 90900=
07335,1996-05-25 12:00:00,13,1014.8,1,94,12,6000,14.816,,,230,,,,8,,,,,,61,wg-a,,,,AAXX 25124 07335 02356 82308 10130 20120 30005 40148 51010 60156 76166 885// 91200 333 60087=
07335,1996-05-25 15:00:00,15,1014.2,-0.5,94,14,7000,22.224,,,230,,,,4,,,,,,61,wg-a,,,,AAXX 25154 07335 12357 82312 10150 20140 30000 40142 58005 60047 76166 887// 91500=
07335,1996-05-25 18:00:00,15,1014.7,0.5,94,14,0,22.224,,,250,12.5,14.9,,,,,,,,,wg-a,,,,AAXX 25184 07335 32/// /2512 10150 20140 30005 40147 53005 91800 333 10149 20125=
07335,1996-05-26 00:00:00,13,1017.4,1,100,13,0,18.52,,,260,,,,,,,,,,,wg-a,,,,AAXX 26004 07335 02/// /2610 10130 20130 30031 40174 51010 61000 90000 333 ////=
07335,1996-05-26 06:00:00,13,1020,1.6,94,12,20000,11.112,,,270,12.6,14.6,,0,,,19,,,21,wg-a,,,,AAXX 26064 07335 02370 72706 10130 20120 30056 40200 52016 60194 72162 875// 90600 333 10146 20126 60007=
07335,1996-05-26 09:00:00,15,1020.8,0.9,88,13,20000,18.52,,,250,,,,1,,,,,,51,wg-a,,,,AAXX 26094 07335 12370 72510 10150 20130 30065 40208 51009 60017 75165 875// 90900=
07335,1996-05-26 12:00:00,15,1021.7,0.9,82,12,500,22.224,,,250,,,,,,,,,,1,wg-a,,,,AAXX 26124 07335 02400 82512 10150 20120 30074 40217 51009 60016 70165 885// 91200 333 61000=
07335,1996-05-26 15:00:00,16,1020.7,-1,77,12,500,25.928,,,240,,,,,,,,,,,wg-a,,,,AAXX 26154 07335 12400 82414 10160 20120 30064 40207 58010 60006 8557/ 91500=
07335,1996-05-26 18:00:00,14,1020.3,-0.5,88,12,0,29.632,,,240,13.2,15.8,,,,,,,,,wg-a,,,,AAXX 26184 07335 32/// /2416 10140 20120 30059 40203 57005 91800 333 10158 20132=
07335,1996-05-27 00:00:00,14,1018.1,-0.8,94,13,0,18.52,,,260,,,,,,,,,,,wg-a,,,,AAXX 27004 07335 12/// /2610 10140 20130 30038 40181 58008 60006 90000=
07335,1996-05-27 06:00:00,12,1018.7,0.9,88,10,10000,18.52,,,270,11.9,14,,,,,1,,,50,wg-a,,,,AAXX 27064 07335 02460 72710 10120 20100 30043 40187 53009 60014 75065 875// 90600 333 10140 20119 61000=
07335,1996-05-27 09:00:00,13,1019.6,0.9,88,11,10000,22.224,,,270,,,,0,,,,,,51,wg-a,,,,AAXX 27094 07335 12460 72712 10130 20110 30052 40196 51009 60007 75165 875// 90900=
07335,1996-05-27 12:00:00,14,1020.2,0.6,88,12,20000,25.928,,,270,,,,,,,,,,21,wg-a,,,,AAXX 27124 07335 02470 72714 10140 20120 30058 40202 53006 60016 72165 878// 91200 333 61000=
07335,1996-05-27 15:00:00,15,1020.6,0.5,77,11,500,22.224,,,280,,,,,,,,,,1,wg-a,,,,AAXX 27154 07335 02500 72812 10150 20110 30063 40206 50005 61000 70162 878// 91500 333 ////=
07335,1996-05-27 18:00:00,15,1021.8,1.2,77,11,0,18.52,,,290,11.7,15.5,,,,,,,,,wg-a,,,,AAXX 27184 07335 32/// /2910 10150 20110 30075 40218 53012 91800 333 10155 20117=
07335,1996-05-28 00:00:00,12,1025.3,1.6,94,11,0,7.408,,,290,,,,,,,,,,,wg-a,,,,AAXX 28004 07335 12/// /2904 10120 20110 30108 40253 51016 60006 90000=
07335,1996-05-28 06:00:00,10,1026.9,1.3,93,9,12000,3.704,,,350,7,14.8,,,,,,,,,wg-a,,,,AAXX 28064 07335 02462 73502 10100 20090 30122 40269 53013 60006 875// 90600 333 10148 20070 60004=
07335,1996-05-28 09:00:00,13,1027.2,0.5,82,10,20000,3.704,,,80,,,,,,,,,,,wg-a,,,,AAXX 28094 07335 12470 70802 10130 20100 30127 40272 50005 60006 878// 90900=
07335,1996-05-28 12:00:00,17,1026.7,-0.3,59,9,20000,3.704,,,320,,,,,,,,,,,wg-a,,,,AAXX 28124 07335 12670 /3202 10170 20090 30124 40267 58003 60006 86230 91200=
07335,1996-05-28 15:00:00,18,1025.7,-0.9,56,9,25000,3.704,,,60,,,,,,,,,,,wg-a,,,,AAXX 28154 07335 12675 30602 10180 20090 30115 40257 58009 60006 83200 91500=
07335,1996-05-28 18:00:00,19,1024.5,-1.2,56,10,0,7.408,,,300,9.5,19.8,,,,,,,,,wg-a,,,,AAXX 28184 07335 12/// /3004 10190 20100 30103 40245 56012 60006 91800 333 10198 20095=
07335,1996-05-29 00:00:00,9,1024.8,-0.5,93,8,0,0,,,0,,,,,,,,,,,wg-a,,,,AAXX 29004 07335 12/// /0000 10090 20080 30101 40248 58005 60006 90000=
07335,1996-05-29 06:00:00,11,1024.2,0.2,100,11,500,0,,,0,7.2,19.2,,,,,,,,,wg-a,,,,AAXX 29064 07335 02/00 /0000 10110 20110 30096 40242 51002 60006 81030 90600 333 10192 20072 60004=
07335,1996-05-29 09:00:00,19,1023.9,0.1,52,9,15000,11.112,,,120,,,,,,,,,,,wg-a,,,,AAXX 29094 07335 12/65 01206 10190 20090 30097 40239 50001 60006 80000 90900=
07335,1996-05-29 12:00:00,22,1022.2,-1.5,46,10,25000,11.112,,,80,,,,,,,,,,,wg-a,,,,AAXX 29124 07335 12/75 10806 10220 20100 30082 40222 58015 60006 80002 91200=
07335,1996-05-29 15:00:00,24,1020.7,-1.4,44,11,25000,11.112,,,90,,,,,,,,,,,wg-a,,,,AAXX 29154 07335 12/75 00906 10240 20110 30068 40207 58014 60006 80000 91500=
07335,1996-05-30 00:00:00,16,1018.9,-1.4,72,11,0,7.408,,,110,,,,,,,,,,,wg-a,,,,AAXX 30004 07335 12/// /1104 10160 20110 30047 40189 58014 60006 90000=
07335,1996-05-30 06:00:00,14,1017.1,-0.3,77,10,500,7.408,,,160,8.5,23.4,,,,,,,,,wg-a,,,,AAXX 30064 07335 02/00 11604 10140 20100 30028 40171 56003 60006 80001 90600 333 10234 20085 60004=
07335,1996-05-30 09:00:00,22,1016.5,-0.2,57,13,500,11.112,,,180,,,,,,,,,,,wg-a,,,,AAXX 30094 07335 12/00 11806 10220 20130 30026 40165 58002 60006 80001 90900=
07335,1996-05-30 12:00:00,27,1015.4,-0.9,39,12,500,14.816,,,200,,,,,,,,,,,wg-a,,,,AAXX 30124 07335 12/00 22008 10270 20120 30017 40154 58009 60006 80001 91200=
07335,1996-05-30 15:00:00,30,1013.8,-1.4,33,12,500,14.816,,,200,,,,,,,,,,,wg-a,,,,AAXX 30154 07335 12/00 32008 10300 20120 30003 40138 56014 60006 80001 91500=
07335,1996-05-30 18:00:00,29,1013.5,-0.4,37,13,0,14.816,,,200,14.2,29.6,,,,,,,,,wg-a,,,,AAXX 30184 07335 12/// /2008 10290 20130 39999 40135 55004 60006 91800 333 10296 20142=
07335,1996-05-31 00:00:00,16,1017.6,2.4,88,14,0,11.112,,,260,,,,,,,,,,,wg-a,,,,AAXX 31004 07335 12/// /2606 10160 20140 30034 40176 52024 60006 90000=
07335,1996-05-31 06:00:00,14,1022.1,1.7,94,13,10000,3.704,,,250,13.7,28.6,,,,,,,,1,wg-a,,,,AAXX 31064 07335 02460 82502 10140 20130 30077 40221 53017 61000 70162 885// 90600 333 10286 20137 6100=
07335,1996-05-31 09:00:00,17,1023.1,1.2,77,13,25000,7.408,,,300,,,,,,,,,,,wg-a,,,,AAXX 31094 07335 12575 73004 10170 20130 30089 40231 51012 60006 8653/ 90900=
07335,1996-05-31 12:00:00,19,1023.2,0.1,64,12,500,7.408,,,320,,,,,,,,,,,wg-a,,,,AAXX 31124 07335 12600 73204 10190 20120 30090 40232 50001 60006 8653/ 91200=
07335,1996-05-31 15:00:00,18,1023.2,-0,73,13,20000,11.112,,,300,,,,,,,,,,60,wg-a,,,,AAXX 31154 07335 02570 83006 10180 20130 30090 40232 55000 61000 76086 8387/ 91500 333 ////=
07335,1996-05-31 18:00:00,16,1022.4,-0.9,88,14,0,7.408,,,200,14.3,19.8,,,,,,,,,wg-a,,,,AAXX 31184 07335 32/// /2004 10160 20140 30081 40224 56009 91800 333 10198 20143=
07335,1996-06-01 00:00:00,12,1024.9,1,82,9,0,11.112,,,300,,,,,,,,,,,wg-a,,,,AAXX 01004 07335 02/// /3006 10120 20090 30103 40249 53010 61000 90000 333 ////=
07335,1996-06-01 06:00:00,10,1026,1.2,93,9,20000,11.112,,,260,6.7,15.7,,,,,3,,,,wg-a,,,,AAXX 01064 07335 02/70 12606 10100 20090 30113 40260 53012 60034 80002 90600 333 10157 20067 61000=
07335,1996-06-01 09:00:00,14,1025.6,-0.1,72,9,20000,11.112,,,280,,,,,,,,,,,wg-a,,,,AAXX 01094 07335 12470 72806 10140 20090 30112 40256 58001 60006 83202 90900=
07335,1996-06-01 12:00:00,17,1024.3,-1.2,52,7,20000,3.704,,,290,,,,,,,,,,,wg-a,,,,AAXX 01124 07335 12570 72902 10170 20070 30100 40243 56012 60006 84802 91200=
07335,1996-06-01 15:00:00,16,1024,-0.3,63,9,20000,18.52,,,300,,,,,,,,,,,wg-a,,,,AAXX 01154 07335 12670 73010 10160 20090 30097 40240 58003 60006 86802 91500=
07335,1996-06-01 18:00:00,15,1022.7,-1.3,67,9,0,7.408,,,300,,17.5,,,,,,,,,wg-a,,,,AAXX 01184 07335 12/// /3004 10150 20090 30084 40227 57013 60006 91800 333 10175=
07335,1996-06-02 00:00:00,10,1021,-1.5,87,8,0,7.408,,,300,,,,,,,,,,,wg-a,,,,AAXX 02004 07335 12/// /3004 10100 20080 30064 40210 58015 60006 90000=
07335,1996-06-02 06:00:00,10,1019,-0.6,87,8,20000,11.112,,,340,8.1,15.2,,,,,,,,,wg-a,,,,AAXX 02064 07335 02570 73406 10100 20080 30044 40190 57006 60006 8283/ 90600 333 10152 20081 60004=
07335,1996-06-02 09:00:00,14,1018,-0.7,63,7,20000,7.408,,,340,,,,,,,,,,,wg-a,,,,AAXX 02094 07335 12570 73404 10140 20070 30037 40180 58007 60006 81832 90900=
07335,1996-06-02 12:00:00,16,1017.1,-0.8,51,6,25000,7.408,,,330,,,,,,,,,,,wg-a,,,,AAXX 02124 07335 12675 83304 10160 20060 30029 40171 57008 60006 83102 91200=
07335,1996-06-02 15:00:00,17,1016.5,-0.6,48,6,25000,11.112,,,300,,,,,,,,,,,wg-a,,,,AAXX 02154 07335 12775 73006 10170 20060 30023 40165 56006 60006 82102 91500=
07335,1996-06-02 18:00:00,18,1016.7,0.2,42,5,0,11.112,,,340,10.1,17.9,,,,,,,,,wg-a,,,,AAXX 02184 07335 12/// /3406 10180 20050 30025 40167 53002 60006 91800 333 10179 20101=
07335,1996-06-03 00:00:00,12,1019.3,0.5,82,9,0,11.112,,,340,,,,,,,,,,,wg-a,,,,AAXX 03004 07335 12/// /3406 10120 20090 30048 40193 52005 60006 90000=
07335,1996-06-03 06:00:00,9,1022.2,2,100,9,10000,14.816,,,340,8.4,17.8,,,,,,,,,wg-a,,,,AAXX 03064 07335 02260 /3408 10090 20090 30076 40222 53020 60006 81600 90600 333 10178 20084 60004=
07335,1996-06-03 15:00:00,20,1022.4,-0.5,43,7,500,3.704,,,350,,,,,,,,,,,wg-a,,,,AAXX 03154 07335 12700 33502 10200 20070 30083 40224 56005 60006 83200 91500=
07335,1996-06-03 18:00:00,20,1022.8,0.4,46,8,0,11.112,,,310,9.4,21,,,,,,,,,wg-a,,,,AAXX 03184 07335 12/// /3106 10200 20080 30087 40228 53004 60006 91800 333 10210 20094=
07335,1996-06-04 00:00:00,11,1026,0.9,76,7,0,11.112,,,340,,,,,,,,,,,wg-a,,,,AAXX 04004 07335 12/// /3406 10110 20070 30114 40260 51009 60006 90000=
07335,1996-06-04 06:00:00,11,1027.5,1.1,87,9,20000,7.408,,,350,6.5,20.3,,,,,,,,,wg-a,,,,AAXX 04064 07335 02/70 13504 10110 20090 30129 40275 52011 60006 80001 90600 333 10203 20065 60004=
07335,1996-06-04 09:00:00,19,1027.4,0.3,56,10,20000,3.704,,,50,,,,,,,,,,,wg-a,,,,AAXX 04094 07335 12/70 00502 10190 20100 30132 40274 50003 60006 80000 90900=
07335,1996-06-04 12:00:00,22,1026.3,-1,41,8,25000,11.112,,,90,,,,,,,,,,,wg-a,,,,AAXX 04124 07335 12775 10906 10220 20080 30122 40263 58010 60006 81100 91200=
07335,1996-06-04 15:00:00,24,1025.3,-0.9,38,9,25000,14.816,,,90,,,,,,,,,,,wg-a,,,,AAXX 04154 07335 12/75 00908 10240 20090 30113 40253 58009 60006 80000 91500=
07335,1996-06-04 18:00:00,24,1024.7,-0.6,38,9,0,14.816,,,90,10.7,24.2,,,,,,,,,wg-a,,,,AAXX 04184 07335 12/// /0908 10240 20090 30107 40247 57006 60006 91800 333 10242 20107=
07335,1996-06-05 00:00:00,13,1025,-0.6,82,10,0,0,,,0,,,,,,,,,,,wg-a,,,,AAXX 05004 07335 12/// /0000 10130 20100 30105 40250 58006 60006 90000=
07335,1996-06-05 06:00:00,16,1023.7,-0.2,77,12,10000,7.408,,,100,10.6,23.6,,,,,,,,,wg-a,,,,AAXX 05064 07335 02/60 01004 10160 20120 30094 40237 56002 60006 80000 90600 333 10236 20106 60004=
07335,1996-06-05 09:00:00,23,1022.6,-0.8,53,13,20000,18.52,,,100,,,,,,,,,,,wg-a,,,,AAXX 05094 07335 12/70 01010 10230 20130 30086 40226 58008 60006 80000 90900=
07335,1996-06-05 12:00:00,26,1021.5,-0.9,45,13,25000,14.816,,,120,,,,,,,,,,,wg-a,,,,AAXX 05124 07335 12/75 01208 10260 20130 30077 40215 57009 60006 80000 91200=
07335,1996-06-05 15:00:00,28,1020.1,-1.3,42,14,25000,11.112,,,80,,,,,,,,,,,wg-a,,,,AAXX 05154 07335 12/75 00806 10280 20140 30064 40201 56013 60006 80000 91500=
07335,1996-06-05 18:00:00,27,1019.3,-0.8,45,14,0,11.112,,,80,16.1,27.9,,,,,,,,,wg-a,,,,AAXX 05184 07335 12/// /0806 10270 20140 30056 40193 56008 60006 91800 333 10279 20161=
07335,1996-06-06 00:00:00,18,1019.3,-0.6,83,15,0,7.408,,,120,,,,,,,,,,,wg-a,,,,AAXX 06004 07335 12/// /1204 10180 20150 30052 40193 58006 60006 90000=
07335,1996-06-06 06:00:00,18,1019.4,0.4,83,15,20000,7.408,,,170,13.6,27.2,,,,,,,,,wg-a,,,,AAXX 06064 07335 02/70 11704 10180 20150 30053 40194 53004 60006 80001 90600 333 10272 20136 60004=
07335,1996-06-06 09:00:00,26,1018.9,-0.2,48,14,20000,14.816,,,190,,,,,,,,,,,wg-a,,,,AAXX 06094 07335 12/70 11908 10260 20140 30051 40189 58002 60006 80001 90900=
07335,1996-06-06 12:00:00,30,1017.8,-0.9,43,16,20000,18.52,,,220,,,,,,,,,,,wg-a,,,,AAXX 06124 07335 12/70 12210 10300 20160 30042 40178 57009 60006 80002 91200=
07335,1996-06-06 15:00:00,31,1017.2,-0.5,36,14,20000,18.52,,,230,,,,,,,,,,,wg-a,,,,AAXX 06154 07335 12770 12310 10310 20140 30037 40172 58005 60006 81102 91500=
07335,1996-06-06 18:00:00,30,1016.7,-0.6,38,14,0,11.112,,,200,18.3,31.3,,,,,,,,,wg-a,,,,AAXX 06184 07335 12/// /2006 10300 20140 30031 40167 56006 60006 91800 333 10313 20183=
07335,1996-06-07 00:00:00,22,1017.5,-0.1,69,16,0,11.112,,,170,,,,,,,,,,,wg-a,,,,AAXX 07004 07335 12/// /1706 10220 20160 30036 40175 58001 60006 90000=
07335,1996-06-07 06:00:00,20,1017.1,-0,73,15,20000,11.112,,,160,17.7,29.8,,,,,,,,,wg-a,,,,AAXX 07064 07335 02/70 01606 10200 20150 30031 40171 55000 60006 80000 90600 333 10298 20177 60004=
07335,1996-06-07 09:00:00,26,1016.6,-0.2,48,14,500,22.224,,,200,,,,,,,,,,,wg-a,,,,AAXX 07094 07335 12/00 02012 10260 20140 30029 40166 58002 60006 80000 90900=
07335,1996-06-07 12:00:00,30,1015.3,-1.1,40,15,500,18.52,,,200,,,,,,,,,,,wg-a,,,,AAXX 07124 07335 12/00 02010 10300 20150 30018 40153 58011 60006 80000 91200=
07335,1996-06-07 15:00:00,31,1014.6,-0.7,38,15,500,14.816,,,210,,,,,,,,,,,wg-a,,,,AAXX 07154 07335 12700 12108 10310 20150 30011 40146 57007 60006 81100 91500=
07335,1996-06-07 18:00:00,29,1013.5,-1.1,45,16,0,11.112,,,190,20.1,31.2,,,,,,,,,wg-a,,,,AAXX 07184 07335 12/// /1906 10290 20160 30000 40135 56011 60006 91800 333 10312 20201=
07335,1996-06-08 00:00:00,19,1016.9,1.6,78,15,0,38.892,,,260,,,,,,,,,,,wg-a,,,,AAXX 08004 07335 12/// /2621 10190 20150 30028 40169 53016 60006 90000=
07335,1996-06-08 06:00:00,17,1020.2,1.4,94,16,6000,14.816,,,230,15.9,29.3,,1,,,1,,,1,wg-a,,,,AAXX 08064 07335 02356 72308 10170 20160 30060 40202 53014 60014 70162 83582 90600 333 10293 20159 60017=
07335,1996-06-08 09:00:00,19,1021,0.9,83,16,15000,18.52,,,220,,,,,,,,,,,wg-a,,,,AAXX 08094 07335 12465 /2210 10190 20160 30069 40210 51009 60006 82232 90900=
07335,1996-06-08 12:00:00,22,1021.5,0.6,65,15,500,18.52,,,220,,,,,,,,,,,wg-a,,,,AAXX 08124 07335 12500 72210 10220 20150 30075 40215 51006 60006 86832 91200=
07335,1996-06-08 15:00:00,22,1021.3,-0.1,73,17,500,18.52,,,250,,,,,,,,,,,wg-a,,,,AAXX 08154 07335 12500 62510 10220 20170 30074 40213 57001 60006 86832 91500=
07335,1996-06-08 18:00:00,20,1021.7,0.2,73,15,0,14.816,,,300,16.5,23.3,,,,,,,,,wg-a,,,,AAXX 08184 07335 12/// /3008 10200 20150 30076 40217 53002 60006 91800 333 10233 20165=
07335,1996-06-09 00:00:00,14,1023.6,0,94,13,0,7.408,,,20,,,,,,,,,,,wg-a,,,,AAXX 09004 07335 12/// /0204 10140 20130 30092 40236 50000 60006 90000=
07335,1996-06-09 06:00:00,15,1022.9,-0,94,14,2800,3.704,,,120,13.5,20.3,,,,,,,,10,wg-a,,,,AAXX 09064 07335 02228 71202 10150 20140 30085 40229 55000 60006 71022 876// 90600 333 10203 20135 60004=
07335,1996-06-09 09:00:00,17,1022.7,0,88,15,6000,3.704,,,50,,,,,,,,,,,wg-a,,,,AAXX 09094 07335 12356 40502 10170 20150 30085 40227 50000 60006 84600 90900=
07335,1996-06-09 12:00:00,24,1021.5,-0.9,57,15,20000,3.704,,,70,,,,,,,,,,,wg-a,,,,AAXX 09124 07335 12570 /0702 10240 20150 30076 40215 58009 60006 81100 91200=
07335,1996-06-09 15:00:00,26,1020.2,-1.2,51,15,25000,3.704,,,100,,,,,,,,,,,wg-a,,,,AAXX 09154 07335 12675 31002 10260 20150 30064 40202 58012 60006 83200 91500=
07335,1996-06-09 18:00:00,26,1019.4,-0.8,54,16,0,0,,,0,14.7,26.2,,,,,,,,,wg-a,,,,AAXX 09184 07335 12/// /0000 10260 20160 30056 40194 56008 60006 91800 333 10262 20147=
07335,1996-06-10 00:00:00,16,1020.2,-0.6,94,15,0,0,,,0,,,,,,,,,,,wg-a,,,,AAXX 10004 07335 12/// /0000 10160 20150 30059 40202 58006 60006 90000=
07335,1996-06-10 06:00:00,18,1020.6,0.8,94,17,18000,0,,,0,13.9,26.1,,,,,,,,,wg-a,,,,AAXX 10064 07335 02/68 00000 10180 20170 30064 40206 52008 60006 80000 90600 333 10261 20139 60004=
07335,1996-06-10 09:00:00,25,1020.6,0.4,65,18,25000,3.704,,,240,,,,,,,,,,,wg-a,,,,AAXX 10094 07335 12/75 12402 10250 20180 30068 40206 51004 60006 81081 90900=
07335,1996-06-10 12:00:00,28,1019.9,-0.5,58,19,25000,18.52,,,230,,,,,,,,,,,wg-a,,,,AAXX 10124 07335 12675 32310 10280 20190 30063 40199 58005 60006 83200 91200=
07335,1996-06-10 15:00:00,26,1020.1,0.1,61,18,20000,22.224,,,320,,,,,,,,,,,wg-a,,,,AAXX 10154 07335 12670 /3212 10260 20180 30064 40201 53001 60006 81230 91500=
07335,1996-06-10 18:00:00,23,1021.5,1.2,65,16,0,11.112,,,350,17.5,28.5,,,,,,,,,wg-a,,,,AAXX 10184 07335 12/// /3506 10230 20160 30076 40215 53012 60006 91800 333 10285 20175=
07335,1996-06-11 00:00:00,17,1023.2,0.9,88,15,0,11.112,,,320,,,,,,,,,,,wg-a,,,,AAXX 11004 07335 12/// /3206 10170 20150 30090 40232 51009 60006 90000=
07335,1996-06-11 06:00:00,16,1024.1,0.5,94,15,12000,3.704,,,340,13,23.3,,,,,,,,,wg-a,,,,AAXX 11064 07335 02/62 13402 10160 20150 30098 40241 53005 60006 80002 90600 333 10233 20130 60004=
07335,1996-06-11 09:00:00,23,1024.2,0.5,69,17,12000,3.704,,,180,,,,,,,,,,,wg-a,,,,AAXX 11094 07335 12/62 01802 10230 20170 30103 40242 50005 60006 80000 90900=
07335,1996-06-11 12:00:00,27,1023.9,-0.2,54,17,15000,14.816,,,260,,,,,,,,,,,wg-a,,,,AAXX 11124 07335 12665 /2608 10270 20170 30101 40239 58002 60006 81100 91200=
07335,1996-06-11 15:00:00,29,1023.3,-0.5,48,17,20000,11.112,,,270,,,,,,,,,,,wg-a,,,,AAXX 11154 07335 12670 /2706 10290 20170 30096 40233 56005 60006 81100 91500=
07335,1996-06-11 18:00:00,27,1023.5,0.1,54,17,0,14.816,,,290,15.8,28.8,,,,,,,,,wg-a,,,,AAXX 11184 07335 12/// /2908 10270 20170 30097 40235 53001 60006 91800 333 10288 20158=
07335,1996-06-12 00:00:00,16,1026.8,0.8,82,13,0,7.408,,,320,,,,,,,,,,,wg-a,,,,AAXX 12004 07335 12/// /3204 10160 20130 30124 40268 51008 60006 90000=
07335,1996-06-12 06:00:00,15,1029.2,1.5,94,14,10000,11.112,,,340,12.2,27,,,,,,,,,wg-a,,,,AAXX 12064 07335 02/60 03406 10150 20140 30148 40292 53015 60006 80000 90600 333 10270 20122 60004=
07335,1996-06-12 09:00:00,20,1029.7,0.7,73,15,20000,14.816,,,360,,,,,,,,,,,wg-a,,,,AAXX 12094 07335 12570 33608 10200 20150 30155 40297 51007 60006 83100 90900=
07335,1996-06-12 12:00:00,23,1029.4,-0.1,61,15,20000,14.816,,,30,,,,,,,,,,,wg-a,,,,AAXX 12124 07335 12670 /0308 10230 20150 30154 40294 55001 60006 85200 91200=
07335,1996-06-12 15:00:00,24,1028.6,-0.8,54,14,11000,14.816,,,10,,,,,,,,,,,wg-a,,,,AAXX 12154 07335 12/61 /0108 10240 20140 30146 40286 58008 60006 91500=
07335,1996-06-12 18:00:00,23,1028.2,-0.4,53,13,0,18.52,,,350,15,24.7,,,,,,,,,wg-a,,,,AAXX 12184 07335 12/// /3510 10230 20130 30142 40282 56004 60006 91800 333 10247 20150=
07335,1996-06-13 00:00:00,16,1031.1,0.8,77,12,0,18.52,,,50,,,,,,,,,,,wg-a,,,,AAXX 13004 07335 12/// /0510 10160 20120 30167 40311 51008 60006 90000=
07335,1996-06-13 06:00:00,14,1031.1,0.5,82,11,10000,18.52,,,60,12.9,23.2,,,,,,,,,wg-a,,,,AAXX 13064 07335 02/60 00610 10140 20110 30166 40311 52005 60006 80000 90600 333 10232 20129 60004=
07335,1996-06-13 09:00:00,20,1030.6,-0.2,53,10,20000,22.224,,,80,,,,,,,,,,,wg-a,,,,AAXX 13094 07335 12/70 00812 10200 20100 30164 40306 58002 60006 80000 90900=
07335,1996-06-13 12:00:00,22,1029.9,-0.6,33,5,25000,25.928,,,60,,,,,,,,,,,wg-a,,,,AAXX 13124 07335 12/75 00614 10220 20050 30158 40299 58006 60006 80000 91200=
07335,1996-06-13 15:00:00,24,1028,-1.8,29,5,500,29.632,,53.708,40,,,,,,,,,,,wg-a,,,,AAXX 13154 07335 12/00 00416 10240 20050 30140 40280 56018 60006 80000 91500 333 91029=
07335,1996-06-13 18:00:00,23,1027.1,-0.9,31,5,0,25.928,,,70,13.8,24.5,,,,,,,,,wg-a,,,,AAXX 13184 07335 12/// /0714 10230 20050 30131 40271 56009 60006 91800 333 10245 20138=
07335,1996-06-14 00:00:00,16,1028.3,-0.1,55,7,0,18.52,,,50,,,,,,,,,,,wg-a,,,,AAXX 14004 07335 12/// /0510 10160 20070 30139 40283 58001 60006 90000=
07335,1996-06-14 06:00:00,14,1027.6,0.6,67,8,15000,22.224,,,50,10.8,23.1,,,,,,,,,wg-a,,,,AAXX 14064 07335 02/65 00512 10140 20080 30131 40276 51006 60006 80000 90600 333 10231 20108 60004=
07335,1996-06-14 09:00:00,20,1026.8,-0.5,46,8,20000,29.632,,,70,,,,,,,,,,,wg-a,,,,AAXX 14094 07335 12/70 10716 10200 20080 30126 40268 57005 60006 80002 90900=
07335,1996-06-14 12:00:00,24,1025.7,-0.9,34,7,25000,22.224,,,70,,,,,,,,,,,wg-a,,,,AAXX 14124 07335 12/75 20712 10240 20070 30117 40257 56009 60006 80002 91200=
07335,1996-06-14 15:00:00,26,1024,-1.6,30,7,25000,25.928,,,60,,,,,,,,,,,wg-a,,,,AAXX 14154 07335 12/75 10614 10260 20070 30101 40240 58016 60006 80002 91500=
07335,1996-06-14 18:00:00,24,1023.4,-0.6,34,7,0,25.928,,,60,13.6,26.1,,,,,,,,,wg-a,,,,AAXX 14184 07335 12/// /0614 10240 20070 30095 40234 55006 60006 91800 333 10261 20136=
07335,1996-06-15 00:00:00,17,1024.4,-0.2,48,6,0,14.816,,,50,,,,,,,,,,,wg-a,,,,AAXX 15004 07335 12/// /0508 10170 20060 30101 40244 58002 60006 90000=
07335,1996-06-15 06:00:00,15,1023.4,-0,63,8,25000,11.112,,,70,13.1,24.4,,,,,,,,,wg-a,,,,AAXX 15064 07335 02/75 10706 10150 20080 30090 40234 55000 60006 80001 90600 333 10244 20131 60004=
07335,1996-06-15 09:00:00,21,1023.1,0,49,10,500,18.52,,,80,,,,,,,,,,,wg-a,,,,AAXX 15094 07335 12/00 10810 10210 20100 30090 40231 50000 60006 80001 90900=
07335,1996-06-15 12:00:00,25,1021.9,-1,34,8,500,25.928,,,80,,,,,,,,,,,wg-a,,,,AAXX 15124 07335 12/00 10814 10250 20080 30080 40219 58010 60006 80001 91200=
07335,1996-06-15 15:00:00,28,1020.4,-1.3,32,10,500,22.224,,,70,,,,,,,,,,,wg-a,,,,AAXX 15154 07335 12/00 10712 10280 20100 30067 40204 57013 60006 80001 91500=
07335,1996-06-15 18:00:00,27,1019.8,-0.7,30,8,0,22.224,,,60,14.9,28,,,,,,,,,wg-a,,,,AAXX 15184 07335 12/// /0612 10270 20080 30060 40198 55007 60006 91800 333 10280 20149=
07335,1996-06-16 00:00:00,18,1020.9,-0.2,52,8,0,11.112,,,60,,,,,,,,,,,wg-a,,,,AAXX 16004 07335 12/// /0606 10180 20080 30067 40209 58002 60006 90000=
07335,1996-06-16 06:00:00,16,1020.4,0.1,63,9,500,11.112,,,40,12.8,26.6,,,,,,,,,wg-a,,,,AAXX 16064 07335 02/00 10406 10160 20090 30061 40204 53001 60006 80001 90600 333 10266 20128 60004=
07335,1996-06-16 09:00:00,22,1020.5,0.4,46,10,500,18.52,,,70,,,,,,,,,,,wg-a,,,,AAXX 16094 07335 12/00 10710 10220 20100 30065 40205 53004 60006 80001 90900=
07335,1996-06-16 12:00:00,27,1019.8,-0.5,24,5,500,22.224,,,70,,,,,,,,,,,wg-a,,,,AAXX 16124 07335 12/00 10712 10270 20050 30060 40198 58005 60006 80001 91200=
07335,1996-06-16 15:00:00,29,1018.3,-1.4,23,6,500,22.224,,,70,,,,,,,,,,,wg-a,,,,AAXX 16154 07335 12/00 10712 10290 20060 30046 40183 58014 60006 80001 91500=
07335,1996-06-16 18:00:00,28,1017.6,-0.7,23,5,0,22.224,,,60,15.8,29.2,,,,,,,,,wg-a,,,,AAXX 16184 07335 12/// /0612 10280 20050 30039 40176 56007 60006 91800 333 10292 20158=
07335,1996-06-17 00:00:00,19,1019,0.1,49,8,0,7.408,,,60,,,,,,,,,,,wg-a,,,,AAXX 17004 07335 12/// /0604 10190 20080 30049 40190 51001 60006 90000=
07335,1996-06-17 06:00:00,16,1018.7,0.3,63,9,500,7.408,,,50,11.2,28,,,,,,,,,wg-a,,,,AAXX 17064 07335 02/00 10504 10160 20090 30045 40187 53003 60006 81032 90600 333 10280 20112 60004=
07335,1996-06-17 09:00:00,24,1018.4,0,41,10,500,11.112,,,70,,,,,,,,,,,wg-a,,,,AAXX 17094 07335 12/00 10706 10240 20100 30045 40184 50000 60006 81032 90900=
07335,1996-06-17 12:00:00,27,1017.5,-0.7,32,9,500,11.112,,,80,,,,,,,,,,,wg-a,,,,AAXX 17124 07335 12/00 10806 10270 20090 30038 40175 57007 60006 80002 91200=
07335,1996-06-17 15:00:00,29,1016.5,-0.9,23,6,500,14.816,,,60,,,,,,,,,,,wg-a,,,,AAXX 17154 07335 12/00 40608 10290 20060 30029 40165 57009 60006 80002 91500=
07335,1996-06-17 18:00:00,28,1016.1,-0.5,25,6,0,7.408,,,90,16.1,28.8,,,,,,,,,wg-a,,,,AAXX 17184 07335 12/// /0904 10280 20060 30024 40161 56005 60006 91800 333 10288 20161=
07335,1996-06-18 00:00:00,12,1017,-0.2,88,10,0,0,,,0,,,,,,,,,,,wg-a,,,,AAXX 18004 07335 12/// /0000 10120 20100 30026 40170 58002 60006 90000=
07335,1996-06-18 06:00:00,14,1016.4,-0,94,13,15000,3.704,,,300,10.7,28.1,,,,,,,,,wg-a,,,,AAXX 18064 07335 02/65 73002 10140 20130 30021 40164 55000 60006 80002 90600 333 10281 20107 60004=
07335,1996-06-18 12:00:00,29,1014.9,-0.7,27,8,500,7.408,,,290,,,,,,,,,,,wg-a,,,,AAXX 18124 07335 12/00 12904 10290 20080 30013 40149 58007 60006 80002 91200=
07335,1996-06-18 15:00:00,30,1014,-0.8,24,7,500,18.52,,,260,,,,,,,,,,,wg-a,,,,AAXX 18154 07335 12/00 12610 10300 20070 30005 40140 58008 60006 80002 91500=
07335,1996-06-18 18:00:00,29,1013.1,-1,27,8,0,18.52,,,350,14.1,30.5,,,,,,,,,wg-a,,,,AAXX 18184 07335 12/// /3510 10290 20080 39995 40131 56010 60006 91800 333 10305 20141=
07335,1996-06-19 00:00:00,16,1014.8,0.4,63,9,0,7.408,,,350,,,,,,,,,,,wg-a,,,,AAXX 19004 07335 12/// /3504 10160 20090 30006 40148 51004 60006 90000=
07335,1996-06-19 09:00:00,24,1013.9,0,47,12,25000,3.704,,,160,,,,,,,,,,,wg-a,,,,AAXX 19094 07335 12/75 41602 10240 20120 30001 40139 50000 60006 83082 90900=
07335,1996-06-19 12:00:00,28,1013,-0.7,32,10,25000,11.112,,,230,,,,,,,,,,,wg-a,,,,AAXX 19124 07335 12875 62306 10280 20100 39994 40130 58007 60006 81182 91200=
07335,1996-06-19 15:00:00,28,1011.8,-1.2,35,11,25000,14.816,,,240,,,,,,,,,,,wg-a,,,,AAXX 19154 07335 12875 72408 10280 20110 39982 40118 56012 60006 81182 91500=
07335,1996-06-19 18:00:00,24,1011.2,-0.7,57,15,0,18.52,,,270,16.1,28.8,,,,,,,,,wg-a,,,,AAXX 19184 07335 12/// /2710 10240 20150 39975 40112 56007 60006 91800 333 10288 20161=
07335,1996-06-20 00:00:00,17,1012.3,0.1,82,14,0,18.52,,,260,,,,,,,,,,,wg-a,,,,AAXX 20004 07335 12/// /2610 10170 20140 39982 40123 50001 60006 90000=
07335,1996-06-20 06:00:00,16,1011.7,0.1,88,14,20000,14.816,,,270,14.8,23.9,,0,,,1,,,25,wg-a,,,,AAXX 20064 07335 02370 42708 10160 20140 39976 40117 52001 60014 72511 84800 90600 333 10239 20148 60007=
07335,1996-06-20 09:00:00,19,1011.8,0.2,68,13,500,14.816,,,270,,,,,,,,,,,wg-a,,,,AAXX 20094 07335 12500 /2708 10190 20130 39978 40118 50002 60006 85200 90900=
07335,1996-06-20 12:00:00,23,1011,-0.6,44,10,500,22.224,,,250,,,,,,,,,,,wg-a,,,,AAXX 20124 07335 12600 /2512 10230 20100 39972 40110 57006 60006 85200 91200=
07335,1996-06-20 15:00:00,24,1010,-1,41,10,500,18.52,,,280,,,,,,,,,,,wg-a,,,,AAXX 20154 07335 12700 32810 10240 20100 39962 40100 58010 60006 83201 91500=
07335,1996-06-20 18:00:00,23,1009.2,-0.8,47,11,0,18.52,,,270,16,24.3,,,,,,,,,wg-a,,,,AAXX 20184 07335 12/// /2710 10230 20110 39954 40092 56008 60006 91800 333 10243 20160=
07335,1996-06-21 00:00:00,16,1009.2,-0.8,82,13,0,7.408,,,290,,,,,,,,,,,wg-a,,,,AAXX 21004 07335 12/// /2904 10160 20130 39951 40092 58008 60006 90000=
07335,1996-06-21 06:00:00,15,1007.2,-0.1,88,13,25000,11.112,,,340,13.6,22.8,,,,,,,,,wg-a,,,,AAXX 21064 07335 02775 73406 10150 20130 39931 40072 55001 60006 83582 90600 333 10228 20136 60004=
07335,1996-06-21 12:00:00,18,1006.8,-0.2,83,15,25000,11.112,,,230,,,,,,,,,,3,wg-a,,,,AAXX 21124 07335 02575 82306 10180 20150 39928 40068 58002 61000 70362 8587/ 91200 333 6100=
07335,1996-06-21 15:00:00,15,1007.6,0.7,100,15,2800,22.224,,,30,,,,29,,,,,,65,wg-a,,,,AAXX 21154 07335 12228 80312 10150 20150 39935 40076 53007 60297 76562 8787/ 91500=
07335,1996-06-21 18:00:00,16,1008.5,0.9,94,15,0,0,,,0,14.9,18.4,,,,,,,,,wg-a,,,,AAXX 21184 07335 32/// /0000 10160 20150 39944 40085 53009 91800 333 10184 20149=
07335,1996-06-22 00:00:00,14,1013.3,2.1,88,12,0,7.408,,,350,,,,,,,,,,,wg-a,,,,AAXX 22004 07335 12/// /3504 10140 20120 39990 40133 51021 60016 90000=
07335,1996-06-22 06:00:00,9,1017.8,2.2,93,8,10000,7.408,,,340,6.9,16.3,,,,,32,,,,wg-a,,,,AAXX 22064 07335 12660 43404 10090 20080 30032 40178 52022 60324 81180 90600 333 10163 20069=
07335,1996-06-22 09:00:00,15,1019.7,2.2,63,8,18000,7.408,,,10,,,,,,,,,,,wg-a,,,,AAXX 22094 07335 12568 20104 10150 20080 30054 40197 51022 60006 81130 90900=
07335,1996-06-22 12:00:00,17,1020.3,0.7,48,6,25000,11.112,,,350,,,,,,,,,,,wg-a,,,,AAXX 22124 07335 12675 43506 10170 20060 30061 40203 53007 60006 84100 91200=
07335,1996-06-22 15:00:00,19,1020.5,0.3,40,5,25000,18.52,,,340,,,,,,,,,,,wg-a,,,,AAXX 22154 07335 12775 63410 10190 20050 30064 40205 53003 60006 82130 91500=
07335,1996-06-22 18:00:00,18,1020.7,0.1,49,7,0,7.408,,,340,8.8,19.7,,,,,,,,,wg-a,,,,AAXX 22184 07335 12/// /3404 10180 20070 30065 40207 53001 60006 91800 333 10197 20088=
07335,1996-06-23 00:00:00,13,1021.6,-0.1,72,8,0,14.816,,,330,,,,,,,,,,,wg-a,,,,AAXX 23004 07335 12/// /3308 10130 20080 30071 40216 58001 60006 90000=
07335,1996-06-23 06:00:00,11,1022.3,0.9,87,9,15000,7.408,,,350,8.8,18.3,,,,,,,,,wg-a,,,,AAXX 23064 07335 02765 63504 10110 20090 30077 40223 53009 60006 84580 90600 333 10183 20088 60004=
07335,1996-06-23 09:00:00,16,1023.9,1.8,59,8,20000,14.816,,,70,,,,,,,,,,,wg-a,,,,AAXX 23094 07335 12570 30708 10160 20080 30095 40239 51018 60006 82880 90900=
07335,1996-06-23 12:00:00,18,1024.3,0.6,42,5,500,22.224,,,70,,,,,,,,,,,wg-a,,,,AAXX 23124 07335 12600 50712 10180 20050 30101 40243 50006 60006 85801 91200=
07335,1996-06-23 15:00:00,19,1023.9,-0.4,46,7,500,25.928,,,30,,,,,,,,,,,wg-a,,,,AAXX 23154 07335 12600 50314 10190 20070 30097 40239 56004 60006 85800 91500=
07335,1996-06-23 18:00:00,19,1023.9,-0,43,6,0,18.52,,,20,10.6,19.9,,,,,,,,,wg-a,,,,AAXX 23184 07335 12/// /0210 10190 20060 30097 40239 55000 60006 91800 333 10199 20106=
07335,1996-06-24 00:00:00,13,1026.4,1.2,72,8,0,14.816,,,30,,,,,,,,,,,wg-a,,,,AAXX 24004 07335 12/// /0308 10130 20080 30119 40264 51012 60006 90000=
07335,1996-06-24 06:00:00,10,1027.9,1.1,87,8,20000,11.112,,,20,8.8,19.2,,,,,,,,,wg-a,,,,AAXX 24064 07335 02770 40206 10100 20080 30132 40279 51011 60006 82582 90600 333 10192 20088 60004=
07335,1996-06-24 09:00:00,16,1027.7,0.1,51,6,20000,18.52,,,40,,,,,,,,,,,wg-a,,,,AAXX 24094 07335 12670 50410 10160 20060 30133 40277 51001 60006 84102 90900=
07335,1996-06-24 12:00:00,18,1026.9,-0.7,52,8,20000,14.816,,,20,,,,,,,,,,,wg-a,,,,AAXX 24124 07335 12670 50208 10180 20080 30126 40269 58007 60006 84202 91200=
07335,1996-06-24 15:00:00,20,1025.7,-1.1,43,7,20000,18.52,,,10,,,,,,,,,,,wg-a,,,,AAXX 24154 07335 12770 70110 10200 20070 30115 40257 56011 60006 83202 91500=
07335,1996-06-24 18:00:00,19,1025.1,-0.6,49,8,0,22.224,,,20,10.2,20.1,,,,,,,,,wg-a,,,,AAXX 24184 07335 12/// /0212 10190 20080 30109 40251 56006 60006 91800 333 10201 20102=
07335,1996-06-25 00:00:00,13,1026.9,0.3,77,9,0,14.816,,,30,,,,,,,,,,,wg-a,,,,AAXX 25004 07335 12/// /0308 10130 20090 30124 40269 51003 60006 90000=
07335,1996-06-25 06:00:00,13,1026.7,0.2,82,10,20000,14.816,,,20,11.3,19.3,,,,,,,,,wg-a,,,,AAXX 25064 07335 02570 70208 10130 20100 30122 40267 53002 60006 878// 90600 333 10193 20113 60004=
07335,1996-06-25 09:00:00,14,1026.7,0.1,72,9,20000,14.816,,,40,,,,,,,,,,,wg-a,,,,AAXX 25094 07335 12470 80408 10140 20090 30123 40267 50001 60006 888// 90900=
07335,1996-06-25 12:00:00,17,1026,-0.6,59,9,20000,14.816,,,50,,,,,,,,,,,wg-a,,,,AAXX 25124 07335 12570 80508 10170 20090 30117 40260 57006 60006 888// 91200=
07335,1996-06-25 18:00:00,19,1024.1,-0.8,49,8,0,11.112,,,50,12.6,19.6,,,,,,,,,wg-a,,,,AAXX 25184 07335 12/// /0506 10190 20080 30099 40241 56008 60006 91800 333 10196 20126=
07335,1996-06-26 00:00:00,14,1023.9,-0.2,82,11,0,11.112,,,260,,,,,,,,,,,wg-a,,,,AAXX 26004 07335 12/// /2606 10140 20110 30095 40239 58002 60006 90000=
07335,1996-06-26 06:00:00,14,1023.2,0.3,82,11,8000,14.816,,,340,12.9,19.1,,,,,,,,,wg-a,,,,AAXX 26064 07335 02658 73408 10140 20110 30088 40232 53003 60006 8353/ 90600 333 10191 20129 60004=
07335,1996-06-26 09:00:00,17,1023.6,0.5,72,12,10000,7.408,,,350,,,,,,,,,,,wg-a,,,,AAXX 26094 07335 12660 73504 10170 20120 30093 40236 50005 60006 8353/ 90900=
07335,1996-06-26 12:00:00,21,1022.9,-0.4,53,11,10000,14.816,,,350,,,,,,,,,,,wg-a,,,,AAXX 26124 07335 12660 73508 10210 20110 30089 40229 58004 60006 84231 91200=
07335,1996-06-26 15:00:00,23,1022.4,-0.5,47,11,12000,7.408,,,290,,,,,,,,,,,wg-a,,,,AAXX 26154 07335 12662 52904 10230 20110 30084 40224 57005 60006 83230 91500=
07335,1996-06-26 18:00:00,22,1022.3,-0.1,50,11,0,11.112,,,10,13.8,23.3,,,,,,,,,wg-a,,,,AAXX 26184 07335 12/// /0106 10220 20110 30083 40223 55001 60006 91800 333 10233 20138=
07335,1996-06-27 00:00:00,11,1025,0.6,87,9,0,3.704,,,340,,,,,,,,,,,wg-a,,,,AAXX 27004 07335 12/// /3402 10110 20090 30104 40250 51006 60006 90000=
07335,1996-06-27 06:00:00,12,1025.4,0.8,94,11,10000,3.704,,,340,8.6,21.8,,,,,,,,,wg-a,,,,AAXX 27064 07335 02/60 43402 10120 20110 30109 40254 53008 60006 80001 90600 333 10218 20086 60004=
07335,1996-06-27 09:00:00,19,1025.6,0.5,64,12,20000,7.408,,,290,,,,,,,,,,,wg-a,,,,AAXX 27094 07335 12570 42904 10190 20120 30114 40256 51005 60006 81101 90900=
07335,1996-06-27 12:00:00,23,1025,-0.4,53,13,25000,11.112,,,290,,,,,,,,,,,wg-a,,,,AAXX 27124 07335 12675 /2906 10230 20130 30110 40250 58004 60006 82102 91200=
07335,1996-06-27 15:00:00,25,1023.7,-1.2,41,11,25000,7.408,,,250,,,,,,,,,,,wg-a,,,,AAXX 27154 07335 12775 52504 10250 20110 30098 40237 58012 60006 82102 91500=
07335,1996-06-28 00:00:00,13,1023.8,-0.2,94,12,0,3.704,,,310,,,,,,,,,,,wg-a,,,,AAXX 28004 07335 12/// /3102 10130 20120 30094 40238 58002 60006 90000=
07335,1996-06-28 06:00:00,14,1022.8,-0.1,100,14,15000,3.704,,,350,9.9,24,,,,,,,,,wg-a,,,,AAXX 28064 07335 02/65 13502 10140 20140 30084 40228 56001 60006 80002 90600 333 10240 20099 60004=
07335,1996-06-28 09:00:00,22,1021.9,-0.5,69,16,25000,3.704,,,190,,,,,,,,,,,wg-a,,,,AAXX 28094 07335 12575 21902 10220 20160 30079 40219 58005 60006 81101 90900=
07335,1996-06-28 12:00:00,25,1020.6,-1.2,47,13,25000,22.224,,,250,,,,,,,,,,,wg-a,,,,AAXX 28124 07335 12675 /2512 10250 20130 30067 40206 58012 60006 81102 91200=
07335,1996-06-28 15:00:00,25,1019.5,-1,44,12,25000,18.52,,,260,,,,,,,,,,,wg-a,,,,AAXX 28154 07335 12675 /2610 10250 20120 30057 40195 57010 60006 81132 91500=
07335,1996-06-28 18:00:00,22,1018.9,-0.7,53,12,0,22.224,,,260,14.1,25.7,,,,,,,,,wg-a,,,,AAXX 28184 07335 12/// /2612 10220 20120 30050 40189 56007 60006 91800 333 10257 20141=
07335,1996-06-29 00:00:00,15,1020,0.1,88,13,0,11.112,,,260,,,,,,,,,,,wg-a,,,,AAXX 29004 07335 12/// /2606 10150 20130 30057 40200 50001 60006 90000=
07335,1996-06-29 06:00:00,16,1019.9,1,88,14,20000,14.816,,,290,14.8,22.4,,,,,,,,1,wg-a,,,,AAXX 29064 07335 02470 72908 10160 20140 30057 40199 53010 61000 70162 875// 90600 333 10224 20148 6100=
07335,1996-06-29 09:00:00,17,1021,1.1,63,10,500,22.224,,,310,,,,,,,,,,,wg-a,,,,AAXX 29094 07335 12500 73112 10170 20100 30068 40210 51011 60006 875// 90900=
07335,1996-06-29 12:00:00,20,1021.1,0.2,53,10,500,14.816,,,280,,,,,,,,,,,wg-a,,,,AAXX 29124 07335 12600 72808 10200 20100 30070 40211 50002 60006 875// 91200=
07335,1996-06-29 15:00:00,21,1020.4,-0.6,46,9,500,18.52,,,280,,,,,,,,,,,wg-a,,,,AAXX 29154 07335 12600 /2810 10210 20090 30064 40204 58006 60006 85200 91500=
07335,1996-06-29 18:00:00,21,1020.2,-0.2,49,10,0,18.52,,,270,15.8,22.6,,,,,,,,,wg-a,,,,AAXX 29184 07335 12/// /2710 10210 20100 30062 40202 55002 60006 91800 333 10226 20158=
07335,1996-06-30 00:00:00,11,1023.9,1.1,82,8,0,11.112,,,350,,,,,,,,,,,wg-a,,,,AAXX 30004 07335 12/// /3506 10110 20080 30093 40239 51011 60006 90000=
07335,1996-06-30 06:00:00,10,1023.2,0.1,93,9,25000,7.408,,,240,6.7,21.1,,,,,,,,,wg-a,,,,AAXX 30064 07335 02/75 62404 10100 20090 30086 40232 53001 60006 81031 90600 333 10211 20067 60004=
07335,1996-06-30 09:00:00,17,1021.9,-0.9,59,9,25000,11.112,,,260,,,,,,,,,,,wg-a,,,,AAXX 30094 07335 12575 32606 10170 20090 30077 40219 58009 60006 81132 90900=
07335,1996-06-30 12:00:00,21,1020.3,-1.4,49,10,25000,18.52,,,260,,,,,,,,,,,wg-a,,,,AAXX 30124 07335 12775 22610 10210 20100 30063 40203 56014 60006 81532 91200=
07335,1996-06-30 15:00:00,23,1018.3,-1.9,50,12,25000,25.928,,,260,,,,,,,,,,,wg-a,,,,AAXX 30154 07335 12775 32614 10230 20120 30044 40183 56019 60006 81532 91500=
07335,1996-06-30 18:00:00,20,1017,-1.4,60,12,0,25.928,,,260,9.5,23.4,,,,,,,,,wg-a,,,,AAXX 30184 07335 12/// /2614 10200 20120 30030 40170 56014 60006 91800 333 10234 20095=
07335,1996-07-01 00:00:00,15,1016,-1.5,88,13,0,18.52,,,240,,,,,,,,,,,wg-a,,,,AAXX 01004 07335 12/// /2410 10150 20130 30018 40160 58015 60006 90000=
07335,1996-07-01 06:00:00,14,1014.4,-0.1,88,12,15000,11.112,,,270,13.6,19.6,,,,,,,,60,wg-a,,,,AAXX 01064 07335 02465 82706 10140 20120 30001 40144 55001 60004 76062 86532 90600 333 10196 20136 61000=
07335,1996-07-01 09:00:00,15,1014.6,0.3,82,12,20000,14.816,,,250,,,,0,,,,,,1,wg-a,,,,AAXX 01094 07335 12470 72508 10150 20120 30004 40146 50003 60007 70162 8283/ 90900=
07335,1996-07-01 12:00:00,19,1014,-0.5,56,10,500,22.224,,,250,,,,,,,,,,1,wg-a,,,,AAXX 01124 07335 12500 72512 10190 20100 39999 40140 56005 60006 70162 8553/ 91200=
07335,1996-07-01 15:00:00,19,1013,-0.9,56,10,500,25.928,,,270,,,,,,,,,,,wg-a,,,,AAXX 01154 07335 12600 /2714 10190 20100 39990 40130 58009 60006 85530 91500=
07335,1996-07-01 18:00:00,18,1013,-0.1,56,9,0,22.224,,,270,13.4,19.8,,,,,,,,,wg-a,,,,AAXX 01184 07335 32/// /2712 10180 20090 39989 40130 55001 91800 333 10198 20134=
07335,1996-07-02 00:00:00,11,1014.2,-0.2,87,9,0,14.816,,,260,,,,,,,,,,,wg-a,,,,AAXX 02004 07335 12/// /2608 10110 20090 39998 40142 58002 60006 90000=
07335,1996-07-02 06:00:00,11,1014.7,0.9,94,10,25000,3.704,,,230,9.9,17.7,,,,,,,,,wg-a,,,,AAXX 02064 07335 02775 72302 10110 20100 30003 40147 53009 60006 855/2 90600 333 10177 20099 60004=
07335,1996-07-02 09:00:00,16,1014.7,0.2,68,10,20000,11.112,,,230,,,,,,,,,,,wg-a,,,,AAXX 02094 07335 12470 72306 10160 20100 30005 40147 51002 60006 84832 90900=
07335,1996-07-02 12:00:00,19,1014.3,-0.3,49,8,20000,18.52,,,270,,,,,,,,,,,wg-a,,,,AAXX 02124 07335 12670 72710 10190 20080 30002 40143 58003 60006 878// 91200=
07335,1996-07-02 15:00:00,20,1013.8,-0.4,49,9,20000,14.816,,,260,,,,,,,,,,,wg-a,,,,AAXX 02154 07335 12670 72608 10200 20090 39998 40138 58004 60006 878// 91500=
07335,1996-07-02 18:00:00,19,1013.6,-0.2,56,10,0,14.816,,,260,11.4,20.6,,,,,,,,,wg-a,,,,AAXX 02184 07335 12/// /2608 10190 20100 39996 40136 55002 60006 91800 333 10206 20114=
07335,1996-07-03 00:00:00,10,1014.8,0.1,87,8,0,11.112,,,240,,,,,,,,,,,wg-a,,,,AAXX 03004 07335 12/// /2406 10100 20080 30003 40148 51001 60006 90000=
07335,1996-07-03 06:00:00,12,1013,-0.5,94,11,20000,14.816,,,190,8.7,19.2,,,,,,,,,wg-a,,,,AAXX 03064 07335 02570 81908 10120 20110 39987 40130 56005 60006 875// 90600 333 10192 20087 60004=
07335,1996-07-03 09:00:00,17,1012.4,-0.4,77,13,18000,25.928,,,200,,,,,,,,,,58,wg-a,,,,AAXX 03094 07335 02468 82014 10170 20130 39983 40124 57004 61000 75865 885// 90900 333 ////=
07335,1996-07-03 12:00:00,17,1011.9,-0.5,94,16,8000,18.52,,,200,,,,1,,,,,,51,wg-a,,,,AAXX 03124 07335 02258 82010 10170 20160 39978 40119 58005 60016 75165 885// 91200 333 60017=
07335,1996-07-03 15:00:00,20,1011.3,-0.4,83,17,20000,31.484,,,240,,,,3,,,,,,3,wg-a,,,,AAXX 03154 07335 12370 82417 10200 20170 39974 40113 56004 60037 70365 878// 91500=
07335,1996-07-03 18:00:00,20,1011.1,-0.2,73,15,0,22.224,,,240,12.4,21.1,,0,,,,,,,wg-a,,,,AAXX 03184 07335 12/// /2412 10200 20150 39972 40111 55002 60007 91800 333 10211 20124=
07335,1996-07-04 00:00:00,17,1012.2,-0.1,94,16,0,25.928,,,230,,,,,,,,,,,wg-a,,,,AAXX 04004 07335 12/// /2314 10170 20160 39981 40122 58001 60006 90000=
07335,1996-07-04 06:00:00,17,1013,0.8,94,16,20000,25.928,,,240,16.5,19.7,,2,,,6,,,21,wg-a,,,,AAXX 04064 07335 02370 82414 10170 20160 39989 40130 53008 60064 72165 875// 90600 333 10197 20165 60027=
07335,1996-07-04 09:00:00,18,1014.3,1.4,83,15,25000,29.632,,,240,,,,0,,,,,,1,wg-a,,,,AAXX 04094 07335 12475 72416 10180 20150 30003 40143 51014 60007 70165 878// 90900=
07335,1996-07-04 12:00:00,19,1015.1,0.8,83,16,500,18.52,,,280,,,,0,,,,,,1,wg-a,,,,AAXX 04124 07335 02500 72810 10190 20160 30011 40151 52008 60016 70165 878// 91200 333 60007=
07335,1996-07-04 15:00:00,22,1014.3,-0.7,65,15,500,31.484,,,240,,,,,,,,,,,wg-a,,,,AAXX 04154 07335 12500 72417 10220 20150 30004 40143 58007 60006 8583/ 91500=
07335,1996-07-04 18:00:00,20,1014.3,-0.1,73,15,0,22.224,,,250,16.7,22.4,,,,,,,,,wg-a,,,,AAXX 04184 07335 32/// /2512 10200 20150 30003 40143 57001 91800 333 10224 20167=
07335,1996-07-05 00:00:00,17,1012.4,-1.6,88,15,0,11.112,,,230,,,,,,,,,,,wg-a,,,,AAXX 05004 07335 12/// /2306 10170 20150 39983 40124 58016 60006 90000=
07335,1996-07-05 06:00:00,17,1008.8,-1.5,94,16,20000,18.52,,,220,16.4,19.6,,2,,,3,,,21,wg-a,,,,AAXX 05064 07335 02370 82210 10170 20160 39948 40088 56015 60034 72162 885// 90600 333 10196 20164 60027=
07335,1996-07-05 09:00:00,18,1008.8,-0,88,16,25000,14.816,,,260,,,,2,,,,,,21,wg-a,,,,AAXX 05094 07335 12375 62608 10180 20160 39948 40088 55000 60027 72165 84532 90900=
07335,1996-07-05 12:00:00,19,1009.5,0.8,78,15,500,22.224,,,310,,,,0,,,,,,1,wg-a,,,,AAXX 05124 07335 02400 /3112 10190 20150 39956 40095 52008 60026 70186 86830 91200 333 60007=
07335,1996-07-05 15:00:00,20,1009.7,0.2,64,13,500,25.928,,,300,,,,,,,,,,,wg-a,,,,AAXX 05154 07335 12500 73014 10200 20130 39958 40097 50002 60006 878// 91500=
07335,1996-07-05 18:00:00,18,1010.2,0.4,68,12,0,11.112,,,340,16.1,20.4,,,,,,,,,wg-a,,,,AAXX 05184 07335 32/// /3406 10180 20120 39962 40102 53004 91800 333 10204 20161=
07335,1996-07-06 00:00:00,11,1012.3,0.7,94,10,0,7.408,,,250,,,,,,,,,,,wg-a,,,,AAXX 06004 07335 12/// /2504 10110 20100 39979 40123 51007 60066 90000=
07335,1996-07-06 06:00:00,11,1014,1.3,100,11,4500,11.112,,,250,8.6,17.6,,,,,9,,,10,wg-a,,,,AAXX 06064 07335 12145 72506 10110 20110 39996 40140 53013 60094 71011 876// 90600 333 10176 20086=
07335,1996-07-06 09:00:00,15,1014.2,0.4,63,8,500,11.112,,,280,,,,,,,,,,,wg-a,,,,AAXX 06094 07335 12500 52806 10150 20080 30000 40142 52004 60006 82202 90900=
07335,1996-07-06 12:00:00,16,1014,-0.2,59,8,500,18.52,,,260,,,,,,,,,,,wg-a,,,,AAXX 06124 07335 12600 72610 10160 20080 39998 40140 57002 60006 86802 91200=
07335,1996-07-06 15:00:00,18,1012.9,-1,52,8,500,22.224,,,260,,,,,,,,,,,wg-a,,,,AAXX 06154 07335 12600 72612 10180 20080 39988 40129 58010 60006 84836 91500=
07335,1996-07-06 18:00:00,16,1011.7,-1.2,59,8,0,7.408,,,270,10.9,18.1,,,,,,,,,wg-a,,,,AAXX 06184 07335 12/// /2704 10160 20080 39976 40117 58012 60006 91800 333 10181 20109=
07335,1996-07-07 00:00:00,11,1009.8,-1.4,87,9,0,3.704,,,320,,,,,,,,,,,wg-a,,,,AAXX 07004 07335 12/// /3202 10110 20090 39954 40098 58014 60006 90000=
07335,1996-07-07 06:00:00,11,1006.2,-1.4,94,10,10000,11.112,,,50,10.9,16.3,,5,,,6,,,61,wg-a,,,,AAXX 07064 07335 02560 80506 10110 20100 39919 40062 57014 60064 76162 8757/ 90600 333 10163 20109 60057=
07335,1996-07-07 09:00:00,12,1005.2,-1,94,11,10000,25.928,,,40,,,,3,,,,,,51,wg-a,,,,AAXX 07094 07335 12260 80414 10120 20110 39909 40052 58010 60037 75166 875// 90900=
07335,1996-07-07 12:00:00,12,1005.5,0.4,88,10,20000,29.632,,,20,,,,0,,,,,,3,wg-a,,,,AAXX 07124 07335 02470 80216 10120 20100 39913 40055 52004 60036 70365 875// 91200 333 60007=
07335,1996-07-07 18:00:00,14,1009.7,2.3,82,11,0,11.112,,,330,11.2,13.9,,,,,,,,,wg-a,,,,AAXX 07184 07335 32/// /3306 10140 20110 39955 40097 53023 91800 333 10139 20112=
07335,1996-07-08 00:00:00,10,1015.4,2,93,9,0,18.52,,,310,,,,,,,,,,,wg-a,,,,AAXX 08004 07335 12/// /3110 10100 20090 30009 40154 51020 60046 90000=
07335,1996-07-08 06:00:00,11,1019.7,2.7,94,10,12000,18.52,,,320,7.8,13.9,,,,,7,,,,wg-a,,,,AAXX 08064 07335 12/62 03210 10110 20100 30052 40197 53027 60074 80000 90600 333 10139 20078=
07335,1996-07-08 09:00:00,16,1021.8,2.3,82,13,20000,18.52,,,340,,,,,,,,,,,wg-a,,,,AAXX 08094 07335 12470 23410 10160 20130 30075 40218 51023 60006 82200 90900=
07335,1996-07-08 12:00:00,19,1022.9,1.2,52,9,500,25.928,,,320,,,,,,,,,,,wg-a,,,,AAXX 08124 07335 12600 43214 10190 20090 30087 40229 53012 60006 84200 91200=
07335,1996-07-08 15:00:00,20,1023.2,0.4,46,8,500,25.928,,,310,,,,,,,,,,,wg-a,,,,AAXX 08154 07335 12700 53114 10200 20080 30091 40232 53004 60006 85200 91500=
07335,1996-07-08 18:00:00,20,1023.8,0.6,43,7,0,18.52,,,340,10.7,21.2,,,,,,,,,wg-a,,,,AAXX 08184 07335 12/// /3410 10200 20070 30097 40238 53006 60006 91800 333 10212 20107=
07335,1996-07-09 00:00:00,11,1027.4,0.9,87,9,0,7.408,,,310,,,,,,,,,,,wg-a,,,,AAXX 09004 07335 12/// /3104 10110 20090 30128 40274 51009 60006 90000=
07335,1996-07-09 06:00:00,11,1028.5,0.8,94,10,20000,7.408,,,320,8.3,20,,,,,,,,,wg-a,,,,AAXX 09064 07335 02670 73204 10110 20100 30139 40285 51008 60006 875// 90600 333 10200 20083 60004=
07335,1996-07-09 09:00:00,17,1029,0.7,68,11,25000,11.112,,,330,,,,,,,,,,,wg-a,,,,AAXX 09094 07335 12575 53306 10170 20110 30146 40290 53007 60006 85800 90900=
07335,1996-07-09 12:00:00,20,1028.1,-0.7,53,10,500,11.112,,,270,,,,,,,,,,,wg-a,,,,AAXX 09124 07335 12600 22706 10200 20100 30139 40281 58007 60006 82102 91200=
07335,1996-07-09 15:00:00,22,1027.4,-0.6,43,9,500,22.224,,,290,,,,,,,,,,,wg-a,,,,AAXX 09154 07335 12700 32912 10220 20090 30133 40274 56006 60006 83102 91500=
07335,1996-07-09 18:00:00,19,1027.5,-0,60,11,0,18.52,,,300,11.4,22.2,,,,,,,,,wg-a,,,,AAXX 09184 07335 12/// /3010 10190 20110 30133 40275 55000 60006 91800 333 10222 20114=
07335,1996-07-10 00:00:00,15,1027.5,-0.3,94,14,0,14.816,,,260,,,,,,,,,,,wg-a,,,,AAXX 10004 07335 12/// /2608 10150 20140 30131 40275 58003 60006 90000=
07335,1996-07-10 06:00:00,15,1026.7,0.4,100,15,6000,7.408,,,340,14.6,18.7,,0,,,,,,50,wg-a,,,,AAXX 10064 07335 02256 83404 10150 20150 30123 40267 53004 60004 75052 887// 90600 333 10187 20146 60007=
07335,1996-07-10 09:00:00,16,1026.9,0.3,88,14,10000,11.112,,,330,,,,1,,,,,,20,wg-a,,,,AAXX 10094 07335 12360 83306 10160 20140 30126 40269 50003 60017 72052 887// 90900=
07335,1996-07-10 12:00:00,19,1026.2,-0.6,73,14,20000,18.52,,,330,,,,,,,,,,2,wg-a,,,,AAXX 10124 07335 12570 83310 10190 20140 30120 40262 58006 60016 70252 888// 91200=
07335,1996-07-10 15:00:00,20,1026,-0.1,64,13,20000,7.408,,,330,,,,,,,,,,,wg-a,,,,AAXX 10154 07335 12570 73304 10200 20130 30119 40260 58001 60006 878// 91500=
07335,1996-07-10 18:00:00,21,1025.1,-0.9,56,12,0,7.408,,,30,15.2,21.5,,,,,,,,,wg-a,,,,AAXX 10184 07335 32/// /0304 10210 20120 30110 40251 56009 91800 333 10215 20152=
07335,1996-07-11 00:00:00,13,1025.9,-0.2,94,12,0,3.704,,,290,,,,,,,,,,,wg-a,,,,AAXX 11004 07335 12/// /2902 10130 20120 30114 40259 58002 60006 90000=
07335,1996-07-11 06:00:00,13,1025.7,0.4,100,13,10000,7.408,,,350,10.5,21.4,,,,,1,,,,wg-a,,,,AAXX 11064 07335 02/60 03504 10130 20130 30112 40257 53004 60006 80000 90600 333 10214 20105 60014=
07335,1996-07-11 09:00:00,20,1024.9,-0.4,64,13,20000,3.704,,,350,,,,,,,,,,,wg-a,,,,AAXX 11094 07335 12570 /3502 10200 20130 30108 40249 58004 60006 81100 90900=
07335,1996-07-11 12:00:00,23,1023.5,-1.2,53,13,500,11.112,,,350,,,,,,,,,,,wg-a,,,,AAXX 11124 07335 12600 /3506 10230 20130 30096 40235 58012 60006 81100 91200=
07335,1996-07-11 15:00:00,26,1021.8,-1.6,45,13,500,14.816,,,350,,,,,,,,,,,wg-a,,,,AAXX 11154 07335 12700 13508 10260 20130 30080 40218 58016 60006 81130 91500=
07335,1996-07-11 18:00:00,25,1021.3,-0.5,47,13,0,11.112,,,10,13.1,25.8,,,,,,,,,wg-a,,,,AAXX 11184 07335 12/// /0106 10250 20130 30075 40213 55005 60006 91800 333 10258 20131=
07335,1996-07-12 00:00:00,16,1022.3,0,88,14,0,7.408,,,340,,,,,,,,,,,wg-a,,,,AAXX 12004 07335 12/// /3404 10160 20140 30080 40223 50000 60006 90000=
07335,1996-07-12 06:00:00,13,1021.8,0.2,100,13,20000,7.408,,,340,11.8,25.1,,0,,,,,,,wg-a,,,,AAXX 12064 07335 02/70 13404 10130 20130 30074 40218 52002 60004 81030 90600 333 10251 20118 60007=
07335,1996-07-12 09:00:00,19,1021.9,0.4,73,14,25000,7.408,,,320,,,,,,,,,,,wg-a,,,,AAXX 12094 07335 12/75 13204 10190 20140 30078 40219 51004 60006 80002 90900=
07335,1996-07-12 12:00:00,23,1020.7,-1,57,14,500,7.408,,,300,,,,,,,,,,,wg-a,,,,AAXX 12124 07335 12600 43004 10230 20140 30068 40207 58010 60006 82232 91200=
07335,1996-07-12 15:00:00,25,1019.9,-0.7,50,14,500,14.816,,,300,,,,,,,,,,,wg-a,,,,AAXX 12154 07335 12600 53008 10250 20140 30061 40199 56007 60006 81232 91500=
07335,1996-07-12 18:00:00,23,1020.2,0.2,53,13,0,18.52,,,340,13.4,25.6,,,,,,,,,wg-a,,,,AAXX 12184 07335 12/// /3410 10230 20130 30063 40202 53002 60006 91800 333 10256 20134=
07335,1996-07-13 00:00:00,13,1022.8,0.5,88,11,0,3.704,,,350,,,,,,,,,,,wg-a,,,,AAXX 13004 07335 12/// /3502 10130 20110 30083 40228 52005 60006 90000=
07335,1996-07-13 06:00:00,14,1022.9,0.9,94,13,15000,7.408,,,360,10.6,22.6,,,,,,,,,wg-a,,,,AAXX 13064 07335 02/65 73604 10140 20130 30085 40229 53009 60006 8703/ 90600 333 10226 20106 60004=
07335,1996-07-13 09:00:00,21,1023.3,0.7,64,14,20000,3.704,,,120,,,,,,,,,,,wg-a,,,,AAXX 13094 07335 12570 71202 10210 20140 30092 40233 51007 60006 878// 90900=
07335,1996-07-13 12:00:00,24,1023.1,0,61,16,20000,3.704,,,20,,,,,,,,,,,wg-a,,,,AAXX 13124 07335 12670 40202 10240 20160 30092 40231 50000 60006 84101 91200=
07335,1996-07-13 15:00:00,26,1022.7,-0.3,42,12,25000,11.112,,,30,,,,,,,,,,,wg-a,,,,AAXX 13154 07335 12775 30306 10260 20120 30089 40227 57003 60006 83101 91500=
07335,1996-07-13 18:00:00,26,1022.6,-0.1,42,12,0,7.408,,,50,14.2,26.6,,,,,,,,,wg-a,,,,AAXX 13184 07335 12/// /0504 10260 20120 30088 40226 55001 60006 91800 333 10266 20142=
07335,1996-07-14 00:00:00,15,1025.6,1.2,94,14,0,3.704,,,340,,,,,,,,,,,wg-a,,,,AAXX 14004 07335 12/// /3402 10150 20140 30112 40256 51012 60006 90000=
07335,1996-07-14 06:00:00,15,1026.3,0.8,100,15,500,3.704,,,350,12.6,26.2,,,,,,,,,wg-a,,,,AAXX 14064 07335 02/00 03502 10150 20150 30119 40263 53008 60006 80000 90600 333 10262 20126 60004=
07335,1996-07-14 09:00:00,24,1026.5,0.6,54,14,500,7.408,,,80,,,,,,,,,,,wg-a,,,,AAXX 14094 07335 12/00 10804 10240 20140 30125 40265 51006 60006 80001 90900=
07335,1996-07-14 12:00:00,27,1025.5,-0.8,45,14,500,11.112,,,350,,,,,,,,,,,wg-a,,,,AAXX 14124 07335 12700 23506 10270 20140 30117 40255 58008 60006 81102 91200=
07335,1996-07-14 15:00:00,29,1024.4,-1,35,12,500,7.408,,,70,,,,,,,,,,,wg-a,,,,AAXX 14154 07335 12700 30704 10290 20120 30107 40244 57010 60006 81102 91500=
07335,1996-07-14 18:00:00,29,1023.7,-0.7,40,14,0,14.816,,,30,15.4,29.6,,,,,,,,,wg-a,,,,AAXX 14184 07335 12/// /0308 10290 20140 30100 40237 56007 60006 91800 333 10296 20154=
07335,1996-07-15 00:00:00,19,1024.8,0.1,78,15,0,7.408,,,10,,,,,,,,,,,wg-a,,,,AAXX 15004 07335 12/// /0104 10190 20150 30107 40248 50001 60006 90000=
07335,1996-07-15 06:00:00,18,1025.1,0.6,88,16,10000,11.112,,,30,15.2,28.7,,,,,,,,,wg-a,,,,AAXX 15064 07335 02/60 10306 10180 20160 30109 40251 53006 60006 80002 90600 333 10287 20152 60004=
07335,1996-07-15 09:00:00,24,1024.6,-0.2,65,17,12000,14.816,,,40,,,,,,,,,,,wg-a,,,,AAXX 15094 07335 12/62 10408 10240 20170 30107 40246 58002 60006 80002 90900=
07335,1996-07-15 12:00:00,27,1023.7,-0.8,51,16,20000,22.224,,,50,,,,,,,,,,,wg-a,,,,AAXX 15124 07335 12670 20512 10270 20160 30099 40237 58008 60006 82102 91200=
07335,1996-07-15 18:00:00,26,1022.4,-0.5,54,16,0,25.928,,,50,18.5,28.4,,,,,,,,,wg-a,,,,AAXX 15184 07335 12/// /0514 10260 20160 30086 40224 56005 60006 91800 333 10284 20185=
07335,1996-07-16 00:00:00,21,1023.7,0.3,73,16,0,11.112,,,50,,,,,,,,,,,wg-a,,,,AAXX 16004 07335 12/// /0506 10210 20160 30097 40237 51003 60006 90000=
07335,1996-07-16 06:00:00,17,1023.8,0.2,72,12,25000,22.224,,,50,16.7,26.5,,,,,,,,,wg-a,,,,AAXX 16064 07335 02/75 00512 10170 20120 30095 40238 53002 60006 80000 90600 333 10265 20167 60004=
07335,1996-07-16 09:00:00,21,1023.3,-0.2,60,13,25000,22.224,,,40,,,,,,,,,,,wg-a,,,,AAXX 16094 07335 12/75 10412 10210 20130 30093 40233 58002 60006 81030 90900=
07335,1996-07-16 12:00:00,26,1022.4,-0.7,48,14,25000,25.928,,,70,,,,,,,,,,,wg-a,,,,AAXX 16124 07335 12/75 00714 10260 20140 30086 40224 58007 60006 80000 91200=
07335,1996-07-16 15:00:00,28,1021.1,-1.2,45,15,25000,25.928,,,60,,,,,,,,,,,wg-a,,,,AAXX 16154 07335 12/75 00614 10280 20150 30074 40211 58012 60006 80000 91500=
07335,1996-07-16 18:00:00,28,1020.3,-0.8,35,11,0,22.224,,,50,16.9,28.7,,,,,,,,,wg-a,,,,AAXX 16184 07335 12/// /0512 10280 20110 30066 40203 55008 60006 91800 333 10287 20169=
07335,1996-07-17 00:00:00,19,1021.8,0,49,8,0,14.816,,,60,,,,,,,,,,,wg-a,,,,AAXX 17004 07335 12/// /0608 10190 20080 30076 40218 50000 60006 90000=
07335,1996-07-17 06:00:00,16,1021.6,0.6,63,9,20000,14.816,,,60,15.2,27.7,,,,,,,,,wg-a,,,,AAXX 17064 07335 02/70 20608 10160 20090 30073 40216 53006 60006 81032 90600 333 10277 20152 60004=
07335,1996-07-17 09:00:00,21,1021.3,-0.1,53,11,25000,22.224,,,40,,,,,,,,,,,wg-a,,,,AAXX 17094 07335 12/75 10412 10210 20110 30072 40213 55001 60006 80002 90900=
07335,1996-07-17 12:00:00,26,1020.1,-0.9,37,10,25000,25.928,,,90,,,,,,,,,,,wg-a,,,,AAXX 17124 07335 12/75 00914 10260 20100 30063 40201 58009 60006 80000 91200=
07335,1996-07-17 15:00:00,28,1018.8,-1.2,32,10,25000,25.928,,,60,,,,,,,,,,,wg-a,,,,AAXX 17154 07335 12/75 00614 10280 20100 30051 40188 58012 60006 80000 91500=
07335,1996-07-17 18:00:00,28,1018.3,-0.5,22,4,0,25.928,,,60,15.7,29.1,,,,,,,,,wg-a,,,,AAXX 17184 07335 12/// /0614 10280 20040 30046 40183 56005 60006 91800 333 10291 20157=
07335,1996-07-18 00:00:00,19,1020.7,0.7,43,6,0,14.816,,,50,,,,,,,,,,,wg-a,,,,AAXX 18004 07335 12/// /0508 10190 20060 30066 40207 51007 60006 90000=
07335,1996-07-18 06:00:00,16,1021.1,0.6,63,9,20000,14.816,,,60,12.7,27.9,,,,,,,,,wg-a,,,,AAXX 18064 07335 02/70 10608 10160 20090 30068 40211 53006 60006 80001 90600 333 10279 20127 60004=
07335,1996-07-18 09:00:00,22,1021.2,0.4,43,9,20000,18.52,,,80,,,,,,,,,,,wg-a,,,,AAXX 18094 07335 12/70 10810 10220 20090 30072 40212 53004 60006 80001 90900=
07335,1996-07-18 12:00:00,27,1020.5,-0.5,23,4,25000,22.224,,,70,,,,,,,,,,,wg-a,,,,AAXX 18124 07335 12/75 30712 10270 20040 30067 40205 56005 60006 80001 91200=
07335,1996-07-18 15:00:00,29,1019.6,-0.7,25,7,25000,22.224,,,50,,,,,,,,,,,wg-a,,,,AAXX 18154 07335 12/75 20512 10290 20070 30060 40196 58007 60006 80001 91500=
07335,1996-07-18 18:00:00,29,1019.5,-0.2,22,5,0,25.928,,,40,15.8,30,,,,,,,,,wg-a,,,,AAXX 18184 07335 12/// /0414 10290 20050 30058 40195 56002 60006 91800 333 10300 20158=
07335,1996-07-19 00:00:00,17,1022.2,0.6,48,6,0,11.112,,,40,,,,,,,,,,,wg-a,,,,AAXX 19004 07335 12/// /0406 10170 20060 30079 40222 51006 60006 90000=
07335,1996-07-19 06:00:00,16,1022.7,0.3,55,7,25000,7.408,,,50,13,28.8,,,,,,,,,wg-a,,,,AAXX 19064 07335 02/75 30504 10160 20070 30084 40227 51003 60006 80002 90600 333 10288 20130 60004=
07335,1996-07-19 09:00:00,23,1022.4,0,38,8,25000,11.112,,,70,,,,,,,,,,,wg-a,,,,AAXX 19094 07335 12/75 30706 10230 20080 30084 40224 50000 60006 80002 90900=
07335,1996-07-19 12:00:00,27,1021.4,-0.8,28,7,25000,18.52,,,60,,,,,,,,,,,wg-a,,,,AAXX 19124 07335 12/75 30610 10270 20070 30076 40214 58008 60006 80002 91200=
07335,1996-07-19 15:00:00,29,1020.5,-0.8,19,3,25000,11.112,,,70,,,,,,,,,,,wg-a,,,,AAXX 19154 07335 12/75 20706 10290 20030 30068 40205 58008 60006 80002 91500=
07335,1996-07-19 18:00:00,29,1020.3,-0.2,18,2,0,14.816,,,60,15.9,29.6,,,,,,,,,wg-a,,,,AAXX 19184 07335 12/// /0608 10290 20020 30066 40203 55002 60006 91800 333 10296 20159=
07335,1996-07-20 00:00:00,19,1021.6,0.1,49,8,0,7.408,,,60,,,,,,,,,,,wg-a,,,,AAXX 20004 07335 12/// /0604 10190 20080 30074 40216 50001 60006 90000=
07335,1996-07-20 06:00:00,15,1022.1,0.7,72,10,20000,7.408,,,30,11.4,28.5,,,,,,,,,wg-a,,,,AAXX 20064 07335 02/70 10304 10150 20100 30078 40221 53007 60006 80002 90600 333 10285 20114 60004=
07335,1996-07-20 12:00:00,27,1021.5,-0.5,26,6,25000,11.112,,,70,,,,,,,,,,,wg-a,,,,AAXX 20124 07335 12/75 20706 10270 20060 30077 40215 58005 60006 80001 91200=
07335,1996-07-20 15:00:00,29,1020.8,-0.6,23,6,25000,14.816,,,70,,,,,,,,,,,wg-a,,,,AAXX 20154 07335 12/75 10708 10290 20060 30071 40208 56006 60006 80001 91500=
07335,1996-07-20 18:00:00,29,1020.3,-0.5,20,4,0,14.816,,,60,15.2,29.7,,,,,,,,,wg-a,,,,AAXX 20184 07335 12/// /0608 10290 20040 30066 40203 56005 60006 91800 333 10297 20152=
07335,1996-07-21 00:00:00,14,1022,0.3,67,8,0,0,,,0,,,,,,,,,,,wg-a,,,,AAXX 21004 07335 12/// /0000 10140 20080 30076 40220 50003 60006 90000=
07335,1996-07-21 06:00:00,15,1021.9,0.5,59,7,20000,3.704,,,50,10,28.9,,,,,,,,,wg-a,,,,AAXX 21064 07335 02/70 10502 10150 20070 30076 40219 53005 60006 80001 90600 333 10289 20100 60004=
07335,1996-07-21 09:00:00,25,1021.5,0,39,10,20000,7.408,,,100,,,,,,,,,,,wg-a,,,,AAXX 21094 07335 12/70 11004 10250 20100 30076 40215 50000 60006 80002 90900=
07335,1996-07-21 12:00:00,28,1020.4,-0.9,22,4,25000,11.112,,,100,,,,,,,,,,,wg-a,,,,AAXX 21124 07335 12/75 11006 10280 20040 30067 40204 57009 60006 80002 91200=
07335,1996-07-21 15:00:00,31,1018.8,-1.5,16,2,25000,14.816,,,90,,,,,,,,,,,wg-a,,,,AAXX 21154 07335 12/75 10908 10310 20020 30052 40188 56015 60006 80002 91500=
07335,1996-07-21 18:00:00,30,1017.7,-1.1,19,4,0,18.52,,,100,15.5,30.9,,,,,,,,,wg-a,,,,AAXX 21184 07335 12/// /1010 10300 20040 30041 40177 56011 60006 91800 333 10309 20155=
07335,1996-07-22 00:00:00,21,1018.2,-0.4,46,9,0,11.112,,,120,,,,,,,,,,,wg-a,,,,AAXX 22004 07335 12/// /1206 10210 20090 30042 40182 58004 60006 90000=
07335,1996-07-22 06:00:00,18,1017.4,-0.1,56,9,25000,11.112,,,130,16,29.7,,,,,,,,,wg-a,,,,AAXX 22064 07335 02/75 11306 10180 20090 30032 40174 55001 60006 80001 90600 333 10297 20160 60004=
07335,1996-07-22 09:00:00,25,1015.9,-1.1,44,12,25000,11.112,,,150,,,,,,,,,,,wg-a,,,,AAXX 22094 07335 12/75 01506 10250 20120 30021 40159 58011 60006 80000 90900=
07335,1996-07-22 12:00:00,32,1013.8,-1.7,26,10,25000,18.52,,,180,,,,,,,,,,,wg-a,,,,AAXX 22124 07335 12/75 01810 10320 20100 30004 40138 58017 60006 80000 91200=
07335,1996-07-22 15:00:00,34,1012.3,-1.4,22,9,25000,18.52,,,180,,,,,,,,,,,wg-a,,,,AAXX 22154 07335 12/75 01810 10340 20090 39990 40123 57014 60006 80000 91500=
07335,1996-07-22 18:00:00,33,1011.6,-0.8,30,13,0,14.816,,,190,17.6,34.5,,,,,,,,,wg-a,,,,AAXX 22184 07335 12/// /1908 10330 20130 39982 40116 56008 60006 91800 333 10345 20176=
07335,1996-07-23 00:00:00,24,1013.6,0.7,54,14,0,14.816,,,210,,,,,,,,,,,wg-a,,,,AAXX 23004 07335 12/// /2108 10240 20140 39998 40136 52007 60006 90000=
07335,1996-07-23 06:00:00,20,1015.1,0.6,94,19,8000,14.816,,,210,19.4,32.8,,,,,,,,,wg-a,,,,AAXX 23064 07335 02358 72108 10200 20190 30011 40151 52006 60006 876// 90600 333 10328 20194 60004=
07335,1996-07-23 09:00:00,24,1015.2,0.3,61,16,12000,22.224,,,240,,,,,,,,,,,wg-a,,,,AAXX 23094 07335 12562 32412 10240 20160 30014 40152 50003 60006 81180 90900=
07335,1996-07-23 12:00:00,27,1014.3,-0.7,45,14,20000,22.224,,,240,,,,,,,,,,,wg-a,,,,AAXX 23124 07335 12770 52412 10270 20140 30007 40143 57007 60006 81182 91200=
07335,1996-07-23 15:00:00,28,1014.4,0.1,45,15,20000,25.928,,,270,,,,,,,,,,,wg-a,,,,AAXX 23154 07335 12770 62714 10280 20150 30008 40144 53001 60006 82480 91500=
07335,1996-07-23 18:00:00,26,1014.9,0.4,39,11,0,22.224,,,260,20,28.6,,,,,,,,,wg-a,,,,AAXX 23184 07335 12/// /2612 10260 20110 30012 40149 53004 60006 91800 333 10286 20200=
07335,1996-07-24 00:00:00,16,1017.1,0.5,82,13,0,7.408,,,300,,,,,,,,,,,wg-a,,,,AAXX 24004 07335 12/// /3004 10160 20130 30029 40171 53005 60006 90000=
07335,1996-07-24 06:00:00,14,1018.2,0.5,100,14,25000,3.704,,,310,11,25.5,,,,,,,,,wg-a,,,,AAXX 24064 07335 02/75 23102 10140 20140 30039 40182 53005 60006 82081 90600 333 10255 20110 60004=
07335,1996-07-24 12:00:00,23,1018.4,-0.3,50,12,500,14.816,,,360,,,,,,,,,,,wg-a,,,,AAXX 24124 07335 12600 23608 10230 20120 30045 40184 58003 60006 81132 91200=
07335,1996-07-24 15:00:00,26,1017.6,-0.7,39,11,500,14.816,,,350,,,,,,,,,,,wg-a,,,,AAXX 24154 07335 12700 13508 10260 20110 30038 40176 56007 60006 81102 91500=
07335,1996-07-24 18:00:00,25,1017.5,-0.1,41,11,0,14.816,,,340,13.9,26.1,,,,,,,,,wg-a,,,,AAXX 24184 07335 12/// /3408 10250 20110 30037 40175 58001 60006 91800 333 10261 20139=
07335,1996-07-25 00:00:00,16,1020.6,1.1,72,11,0,14.816,,,350,,,,,,,,,,,wg-a,,,,AAXX 25004 07335 12/// /3508 10160 20110 30063 40206 51011 60006 90000=
07335,1996-07-25 06:00:00,15,1021.2,0.2,77,11,25000,11.112,,,40,11.6,25.2,,,,,,,,,wg-a,,,,AAXX 25064 07335 02/75 10406 10150 20110 30069 40212 51002 60006 81032 90600 333 10252 20116 60004=
07335,1996-07-25 09:00:00,21,1020.9,0,53,11,25000,22.224,,,50,,,,,,,,,,,wg-a,,,,AAXX 25094 07335 12/75 30512 10210 20110 30069 40209 50000 60006 80002 90900=
07335,1996-07-25 12:00:00,24,1020.6,-0.2,41,10,25000,14.816,,,50,,,,,,,,,,,wg-a,,,,AAXX 25124 07335 12/75 30508 10240 20100 30067 40206 58002 60006 80002 91200=
07335,1996-07-25 15:00:00,26,1018,-2.5,34,9,25000,22.224,,,70,,,,,,,,,,,wg-a,,,,AAXX 25154 07335 12/75 50712 10260 20090 30042 40180 58025 60006 81032 91500=
07335,1996-07-25 18:00:00,26,1016.9,-1.1,32,8,0,25.928,,,70,14.6,26.7,,,,,,,,,wg-a,,,,AAXX 25184 07335 12/// /0714 10260 20080 30031 40169 56011 60006 91800 333 10267 20146=
07335,1996-07-26 00:00:00,20,1018.7,-0.4,53,10,0,18.52,,,60,,,,,,,,,,,wg-a,,,,AAXX 26004 07335 12/// /0610 10200 20100 30046 40187 58004 60006 90000=
07335,1996-07-26 06:00:00,16,1018.8,1.1,77,12,15000,18.52,,,50,16.1,25.6,,,,,,,,,wg-a,,,,AAXX 26064 07335 02765 70510 10160 20120 30046 40188 51011 60006 83532 90600 333 10256 20161 60004=
07335,1996-07-26 09:00:00,20,1018.5,-0.1,60,12,20000,25.928,,,40,,,,,,,,,,,wg-a,,,,AAXX 26094 07335 12770 60414 10200 20120 30045 40185 58001 60006 83582 90900=
07335,1996-07-26 12:00:00,26,1017.3,-0.9,39,11,20000,25.928,,,50,,,,,,,,,,,wg-a,,,,AAXX 26124 07335 12770 60514 10260 20110 30036 40173 58009 60006 81582 91200=
07335,1996-07-26 15:00:00,29,1016.2,-1,33,11,20000,25.928,,,50,,,,,,,,,,,wg-a,,,,AAXX 26154 07335 12/70 40514 10290 20110 30026 40162 58010 60006 81082 91500=
07335,1996-07-26 18:00:00,28,1016.3,0.1,32,10,0,22.224,,,50,16.2,29.3,,,,,,,,,wg-a,,,,AAXX 26184 07335 12/// /0512 10280 20100 30027 40163 53001 60006 91800 333 10293 20162=
07335,1996-07-27 00:00:00,18,1017.8,0.2,59,10,0,11.112,,,10,,,,,,,,,,,wg-a,,,,AAXX 27004 07335 12/// /0106 10180 20100 30037 40178 51002 60006 90000=
07335,1996-07-27 06:00:00,15,1018.4,0.8,82,12,15000,11.112,,,350,14.4,28.2,,,,,,,,,wg-a,,,,AAXX 27064 07335 02/65 43506 10150 20120 30041 40184 53008 60006 82082 90600 333 10282 20144 60004=
07335,1996-07-27 12:00:00,28,1017.8,-0.5,35,11,15000,14.816,,,50,,,,,,,,,,,wg-a,,,,AAXX 27124 07335 12665 /0508 10280 20110 30041 40178 56005 60006 81180 91200=
07335,1996-07-27 15:00:00,30,1016.7,-1,29,10,20000,14.816,,,330,,,,,,,,,,,wg-a,,,,AAXX 27154 07335 12670 /3308 10300 20100 30031 40167 56010 60006 81100 91500=
07335,1996-07-27 18:00:00,28,1016.8,-0,32,10,0,18.52,,,340,15.2,30,,,,,,,,,wg-a,,,,AAXX 27184 07335 12/// /3410 10280 20100 30031 40168 55000 60006 91800 333 10300 20152=
07335,1996-07-28 00:00:00,19,1019.3,0.4,78,15,0,14.816,,,340,,,,,,,,,,,wg-a,,,,AAXX 28004 07335 12/// /3408 10190 20150 30052 40193 51004 60006 90000=
07335,1996-07-28 06:00:00,16,1020,0.9,94,15,15000,11.112,,,320,15,27.9,,,,,,,,,wg-a,,,,AAXX 28064 07335 02765 13206 10160 20150 30058 40200 51009 60006 81502 90600 333 10279 20150 60004=
07335,1996-07-28 09:00:00,22,1020.5,0.7,69,16,20000,11.112,,,330,,,,,,,,,,,wg-a,,,,AAXX 28094 07335 12670 23306 10220 20160 30065 40205 52007 60006 81132 90900=
07335,1996-07-28 12:00:00,26,1019.4,-0.9,42,12,25000,11.112,,,280,,,,,,,,,,,wg-a,,,,AAXX 28124 07335 12675 32806 10260 20120 30056 40194 58009 60006 83102 91200=
07335,1996-07-28 15:00:00,28,1018.4,-0.9,35,11,25000,18.52,,,280,,,,,,,,,,,wg-a,,,,AAXX 28154 07335 12775 22810 10280 20110 30047 40184 58009 60006 82102 91500=
07335,1996-07-28 18:00:00,27,1017.5,-0.9,32,9,0,14.816,,,280,16.3,28.4,,,,,,,,,wg-a,,,,AAXX 28184 07335 12/// /2808 10270 20090 30038 40175 56009 60006 91800 333 10284 20163=
07335,1996-07-29 00:00:00,15,1019,-0.2,72,10,0,7.408,,,240,,,,,,,,,,,wg-a,,,,AAXX 29004 07335 12/// /2404 10150 20100 30047 40190 58002 60006 90000=
07335,1996-07-29 06:00:00,14,1018.3,0.2,88,12,20000,7.408,,,230,11.6,27.1,,,,,,,,,wg-a,,,,AAXX 29064 07335 02770 32304 10140 20120 30040 40183 53002 60006 81532 90600 333 10271 20116 60004=
07335,1996-07-29 09:00:00,22,1017.9,0,60,14,20000,18.52,,,260,,,,,,,,,,,wg-a,,,,AAXX 29094 07335 12570 /2610 10220 20140 30040 40179 50000 60006 81802 90900=
07335,1996-07-29 12:00:00,23,1017.6,-0.3,57,14,20000,18.52,,,270,,,,,,,,,,,wg-a,,,,AAXX 29124 07335 12670 72710 10230 20140 30037 40176 58003 60006 82102 91200=
07335,1996-07-29 15:00:00,25,1016.5,-1,47,13,20000,18.52,,,260,,,,,,,,,,,wg-a,,,,AAXX 29154 07335 12670 /2610 10250 20130 30027 40165 58010 60006 83102 91500=
07335,1996-07-29 18:00:00,24,1015.8,-0.7,54,14,0,22.224,,,270,13.8,25.6,,,,,,,,,wg-a,,,,AAXX 29184 07335 12/// /2712 10240 20140 30020 40158 56007 60006 91800 333 10256 20138=
07335,1996-07-30 00:00:00,15,1019.1,1.3,88,13,0,14.816,,,260,,,,,,,,,,,wg-a,,,,AAXX 30004 07335 12/// /2608 10150 20130 30048 40191 51013 60006 90000=
07335,1996-07-30 06:00:00,15,1019.2,0.2,94,14,20000,11.112,,,250,13.7,24.1,,,,,,,,,wg-a,,,,AAXX 30064 07335 02570 /2506 10150 20140 30049 40192 53002 60006 85500 90600 333 10241 20137 60004=
07335,1996-07-30 09:00:00,22,1019.5,0.6,53,12,20000,14.816,,,300,,,,,,,,,,,wg-a,,,,AAXX 30094 07335 12570 73008 10220 20120 30055 40195 51006 60006 878// 90900=
07335,1996-07-30 12:00:00,23,1019.8,0.4,53,13,25000,18.52,,,260,,,,,,,,,,,wg-a,,,,AAXX 30124 07335 12675 72610 10230 20130 30059 40198 51004 60006 878// 91200=
07335,1996-07-30 15:00:00,24,1019.9,0.1,50,13,25000,14.816,,,300,,,,,,,,,,,wg-a,,,,AAXX 30154 07335 12675 73008 10240 20130 30060 40199 51001 60006 878// 91500=
07335,1996-07-30 18:00:00,24,1019.5,-0.4,47,12,0,11.112,,,320,15.1,24.5,,,,,,,,,wg-a,,,,AAXX 30184 07335 12/// /3206 10240 20120 30056 40195 56004 60006 91800 333 10245 20151=
07335,1996-07-31 00:00:00,13,1020.9,0.1,88,11,0,7.408,,,290,,,,,,,,,,,wg-a,,,,AAXX 31004 07335 12/// /2904 10130 20110 30065 40209 50001 60006 90000=
07335,1996-07-31 06:00:00,12,1020.8,0.4,100,12,20000,0,,,0,8.8,23.9,,,,,,,,,wg-a,,,,AAXX 31064 07335 02/70 00000 10120 20120 30063 40208 51004 60006 80000 90600 333 10239 20088 60004=
07335,1996-07-31 09:00:00,20,1020.4,0,64,13,20000,7.408,,,280,,,,,,,,,,,wg-a,,,,AAXX 31094 07335 12570 /2804 10200 20130 30063 40204 50000 60006 85100 90900=
07335,1996-07-31 12:00:00,23,1019.6,-0.6,53,13,20000,11.112,,,250,,,,,,,,,,,wg-a,,,,AAXX 31124 07335 12670 /2506 10230 20130 30057 40196 58006 60006 81100 91200=
07335,1996-07-31 15:00:00,26,1018.1,-1.4,39,11,20000,14.816,,,280,,,,,,,,,,,wg-a,,,,AAXX 31154 07335 12/70 02808 10260 20110 30043 40181 57014 60006 80000 91500=
07335,1996-07-31 18:00:00,26,1017.2,-0.9,34,9,0,11.112,,,300,12.1,26.5,,,,,,,,,wg-a,,,,AAXX 31184 07335 12/// /3006 10260 20090 30034 40172 56009 60006 91800 333 10265 20121=
07335,1996-08-01 00:00:00,14,1018.6,0.2,88,12,0,11.112,,,310,,,,,,,,,,,wg-a,,,,AAXX 01004 07335 12/// /3106 10140 20120 30043 40186 51002 60006 90000=
07335,1996-08-01 06:00:00,14,1018.5,0.3,100,14,6000,3.704,,,330,12,25.8,,,,,,,,,wg-a,,,,AAXX 01064 07335 02/56 /3302 10140 20140 30042 40185 53003 60006 80001 90600 333 10258 20120 60004=
07335,1996-08-01 09:00:00,22,1018.4,0.3,69,16,15000,7.408,,,30,,,,,,,,,,,wg-a,,,,AAXX 01094 07335 12465 40304 10220 20160 30045 40184 51003 60006 84100 90900=
07335,1996-08-01 12:00:00,26,1017.8,-0.4,48,14,25000,11.112,,,250,,,,,,,,,,,wg-a,,,,AAXX 01124 07335 12675 32506 10260 20140 30041 40178 58004 60006 83100 91200=
07335,1996-08-01 15:00:00,27,1017.5,-0.3,42,13,25000,11.112,,,340,,,,,,,,,,,wg-a,,,,AAXX 01154 07335 12775 43406 10270 20130 30038 40175 55003 60006 84100 91500=
07335,1996-08-01 18:00:00,25,1017.8,0.2,50,14,0,18.52,,,320,14.1,27.4,,,,,,,,,wg-a,,,,AAXX 01184 07335 12/// /3210 10250 20140 30040 40178 53002 60006 91800 333 10274 20141=
07335,1996-08-02 00:00:00,17,1021.2,1.1,68,11,0,11.112,,,340,,,,,,,,,,,wg-a,,,,AAXX 02004 07335 12/// /3406 10170 20110 30070 40212 51011 60006 90000=
07335,1996-08-02 06:00:00,16,1022.2,0.5,77,12,18000,14.816,,,20,14.9,24.6,,,,,,,,80,wg-a,,,,AAXX 02064 07335 02668 70208 10160 20120 30079 40222 53005 61000 78086 81592 90600 333 10246 20149 6100=
07335,1996-08-02 09:00:00,19,1023.3,1.2,60,11,20000,18.52,,,20,,,,,,,,,,,wg-a,,,,AAXX 02094 07335 02670 50210 10190 20110 30091 40233 50012 61000 83532 90900 333 ////=
07335,1996-08-02 12:00:00,24,1022.6,-0.4,44,11,25000,7.408,,,330,,,,,,,,,,,wg-a,,,,AAXX 02124 07335 02675 53304 10240 20110 30087 40226 58004 61000 82132 91200 333 ////=
07335,1996-08-02 15:00:00,25,1021.7,-0.8,39,10,25000,14.816,,,340,,,,,,,,,,,wg-a,,,,AAXX 02154 07335 12775 43408 10250 20100 30079 40217 58008 60006 84132 91500=
07335,1996-08-02 18:00:00,24,1022.1,0.3,38,9,0,18.52,,,350,15.7,26,,,,,,,,,wg-a,,,,AAXX 02184 07335 32/// /3510 10240 20090 30082 40221 53003 91800 333 10260 20157=
07335,1996-08-03 00:00:00,15,1025.2,1.1,67,9,0,11.112,,,350,,,,,,,,,,,wg-a,,,,AAXX 03004 07335 12/// /3506 10150 20090 30108 40252 51011 60006 90000=
07335,1996-08-03 06:00:00,12,1026,0.8,88,10,20000,11.112,,,350,10.8,23.9,,,,,,,,,wg-a,,,,AAXX 03064 07335 02/70 03506 10120 20100 30115 40260 53008 60006 80000 90600 333 10239 20108 61000=
07335,1996-08-03 09:00:00,20,1025.4,-0.3,49,9,20000,14.816,,,40,,,,,,,,,,,wg-a,,,,AAXX 03094 07335 12/70 00408 10200 20090 30112 40254 58003 60006 80000 90900=
07335,1996-08-03 12:00:00,24,1024.4,-0.7,38,9,20000,11.112,,,40,,,,,,,,,,,wg-a,,,,AAXX 03124 07335 12770 10406 10240 20090 30105 40244 58007 60006 81100 91200=
07335,1996-08-03 15:00:00,26,1023.2,-1.2,30,7,20000,18.52,,,30,,,,,,,,,,,wg-a,,,,AAXX 03154 07335 12770 10310 10260 20070 30093 40232 56012 60006 81100 91500=
07335,1996-08-03 18:00:00,26,1022.1,-1,30,7,0,14.816,,,40,12.1,26.5,,,,,,,,,wg-a,,,,AAXX 03184 07335 12/// /0408 10260 20070 30083 40221 56010 60006 91800 333 10265 20121=
07335,1996-08-04 00:00:00,14,1022.5,-0.5,67,8,0,3.704,,,20,,,,,,,,,,,wg-a,,,,AAXX 04004 07335 12/// /0202 10140 20080 30081 40225 58005 60006 90000=
07335,1996-08-04 06:00:00,15,1021.1,-0.3,59,7,10000,7.408,,,60,13.3,26,,,,,,,,,wg-a,,,,AAXX 04064 07335 02/60 /0604 10150 20070 30068 40211 56003 60006 90600 333 10260 20133 60004=
07335,1996-08-04 09:00:00,22,1019.6,-1.2,41,8,20000,14.816,,,70,,,,,,,,,,,wg-a,,,,AAXX 04094 07335 12/70 20708 10220 20080 30056 40196 58012 60006 80002 90900=
07335,1996-08-04 12:00:00,25,1016.9,-2.5,34,8,20000,22.224,,,70,,,,,,,,,,,wg-a,,,,AAXX 04124 07335 12/70 30712 10250 20080 30031 40169 58025 60006 80002 91200=
07335,1996-08-04 15:00:00,27,1014.7,-2.1,30,8,20000,18.52,,,90,,,,,,,,,,,wg-a,,,,AAXX 04154 07335 12/70 60910 10270 20080 30010 40147 57021 60006 80002 91500=
07335,1996-08-04 18:00:00,27,1013.1,-1.6,28,7,0,11.112,,,70,15.1,27.3,,,,,,,,,wg-a,,,,AAXX 04184 07335 12/// /0706 10270 20070 39994 40131 56016 60006 91800 333 10273 20151=
07335,1996-08-05 00:00:00,15,1012.6,-0.5,67,9,0,0,,,0,,,,,,,,,,,wg-a,,,,AAXX 05004 07335 12/// /0000 10150 20090 39984 40126 58005 60006 90000=
07335,1996-08-05 09:00:00,22,1010.7,-0.3,53,12,20000,7.408,,,200,,,,,,,,,,,wg-a,,,,AAXX 05094 07335 12/70 62004 10220 20120 39969 40107 58003 60006 84082 90900=
07335,1996-08-05 12:00:00,23,1011.1,0.4,69,17,20000,18.52,,,210,,,,,,,,,,,wg-a,,,,AAXX 05124 07335 12670 72110 10230 20170 39973 40111 52004 60006 83882 91200=
07335,1996-08-05 15:00:00,21,1011.4,0.2,83,18,10000,18.52,,,230,,,,,,,,,,,wg-a,,,,AAXX 05154 07335 12460 82310 10210 20180 39975 40114 53002 60006 8387/ 91500=
07335,1996-08-05 18:00:00,23,1010.9,-0.4,61,15,0,18.52,,,260,11.1,23.3,,,,,,,,,wg-a,,,,AAXX 05184 07335 12/// /2610 10230 20150 39971 40109 56004 60006 91800 333 10233 20111=
07335,1996-08-06 00:00:00,16,1012.9,0.1,88,14,0,7.408,,,200,,,,,,,,,,,wg-a,,,,AAXX 06004 07335 12/// /2004 10160 20140 39987 40129 50001 60006 90000=
07335,1996-08-06 06:00:00,16,1012.3,-0.2,94,15,10000,7.408,,,190,14.7,22.7,,,,,,,,,wg-a,,,,AAXX 06064 07335 02160 71904 10160 20150 39982 40123 56002 60006 876// 90600 333 10227 20147 60004=
07335,1996-08-06 09:00:00,19,1013.1,0.9,83,16,12000,14.816,,,200,,,,,,,,,,,wg-a,,,,AAXX 06094 07335 12462 82008 10190 20160 39991 40131 52009 60006 875// 90900=
07335,1996-08-06 12:00:00,19,1014.2,1.1,94,18,9000,11.112,,,200,,,,3,,,,,,60,wg-a,,,,AAXX 06124 07335 02259 82006 10190 20180 30002 40142 51011 60036 76062 877// 91200 333 60037=
07335,1996-08-06 18:00:00,22,1015.3,0.9,60,14,0,11.112,,,280,15.7,21.9,,,,,,,,,wg-a,,,,AAXX 06184 07335 32/// /2806 10220 20140 30014 40153 53009 91800 333 10219 20157=
07335,1996-08-07 00:00:00,12,1019,1.2,82,9,0,11.112,,,320,,,,,,,,,,,wg-a,,,,AAXX 07004 07335 12/// /3206 10120 20090 30045 40190 51012 60006 90000=
07335,1996-08-07 06:00:00,10,1020.6,0.8,87,8,20000,7.408,,,350,8.4,21.6,,,,,3,,,,wg-a,,,,AAXX 07064 07335 02/70 73504 10100 20080 30060 40206 51008 60006 83032 90600 333 10216 20084 60034=
07335,1996-08-07 09:00:00,16,1020.8,0.5,59,8,500,11.112,,,40,,,,,,,,,,,wg-a,,,,AAXX 07094 07335 12/00 70406 10160 20080 30065 40208 51005 60006 82032 90900=
07335,1996-08-07 12:00:00,20,1019.9,-0.7,49,9,500,7.408,,,360,,,,,,,,,,,wg-a,,,,AAXX 07124 07335 12/00 73604 10200 20090 30058 40199 57007 60006 81032 91200=
07335,1996-08-07 15:00:00,23,1018.3,-1.4,38,8,500,11.112,,,20,,,,,,,,,,,wg-a,,,,AAXX 07154 07335 12/00 40206 10230 20080 30044 40183 58014 60006 80002 91500=
07335,1996-08-07 18:00:00,22,1017.4,-0.9,38,7,0,11.112,,,10,9.7,23.7,,,,,,,,,wg-a,,,,AAXX 07184 07335 12/// /0106 10220 20070 30035 40174 56009 60006 91800 333 10237 20097=
07335,1996-08-08 00:00:00,9,1018,-1.3,81,6,0,3.704,,,340,,,,,,,,,,,wg-a,,,,AAXX 08004 07335 12/// /3402 10090 20060 30034 40180 56013 60006 90000=
07335,1996-08-08 06:00:00,9,1016.9,-0.1,87,7,500,3.704,,,10,6.2,22.3,,,,,,,,,wg-a,,,,AAXX 08064 07335 02/00 10102 10090 20070 30023 40169 56001 60006 80002 90600 333 10223 20062 60004=
07335,1996-08-08 09:00:00,21,1016.2,-0.1,38,6,500,3.704,,,100,,,,,,,,,,,wg-a,,,,AAXX 08094 07335 12/00 11002 10210 20060 30022 40162 57001 60006 80002 90900=
07335,1996-08-08 12:00:00,25,1015.8,-0.2,28,5,500,7.408,,,230,,,,,,,,,,,wg-a,,,,AAXX 08124 07335 12/00 52304 10250 20050 30020 40158 58002 60006 81082 91200=
07335,1996-08-08 15:00:00,28,1014.2,-1.5,25,6,500,14.816,,,230,,,,,,,,,,,wg-a,,,,AAXX 08154 07335 12/00 42308 10280 20060 30005 40142 58015 60006 80002 91500=
07335,1996-08-08 18:00:00,26,1014.3,0.1,32,8,0,14.816,,,270,8.6,27.9,,,,,,,,,wg-a,,,,AAXX 08184 07335 12/// /2708 10260 20080 30006 40143 53001 60006 91800 333 10279 20086=
07335,1996-08-09 00:00:00,14,1016.7,0.2,82,11,0,7.408,,,260,,,,,,,,,,,wg-a,,,,AAXX 09004 07335 12/// /2604 10140 20110 30024 40167 53002 60006 90000=
07335,1996-08-10 00:00:00,16,1012.8,-0.1,82,13,0,7.408,,,190,,,,,,,,,,,wg-a,,,,AAXX 10004 07335 12/// /1904 10160 20130 39986 40128 57001 60006 90000=
07335,1996-08-10 06:00:00,16,1011,-0.3,94,15,15000,11.112,,,190,14.4,25.1,,0,,,,,,25,wg-a,,,,AAXX 10064 07335 02765 71906 10160 20150 39969 40110 58003 60004 72592 82592 90600 333 10251 20144 60007=
07335,1996-08-10 09:00:00,18,1010.9,0,94,17,6000,7.408,,,180,,,,2,,,,,,61,wg-a,,,,AAXX 10094 07335 12256 81804 10180 20170 39969 40109 50000 60027 76162 8652/ 90900=
07335,1996-08-10 12:00:00,18,1011.4,0.5,94,17,7000,18.52,,,230,,,,5,,,,,,61,wg-a,,,,AAXX 10124 07335 02357 82310 10180 20170 39974 40114 51005 60076 76162 8652/ 91200 333 60057=
07335,1996-08-10 15:00:00,19,1010.1,-1.2,94,18,20000,14.816,,,210,,,,4,,,,,,21,wg-a,,,,AAXX 10154 07335 12370 72108 10190 20180 39962 40101 58012 60047 72162 8673/ 91500=
07335,1996-08-10 18:00:00,19,1009.7,-0.4,73,14,0,25.928,,,270,16.3,20.4,,,,,,,,,wg-a,,,,AAXX 10184 07335 32/// /2714 10190 20140 39958 40097 55004 91800 333 10204 20163=
07335,1996-08-11 00:00:00,16,1010.3,-0.9,88,14,0,18.52,,,210,,,,,,,,,,,wg-a,,,,AAXX 11004 07335 12/// /2110 10160 20140 39962 40103 58009 60006 90000=
07335,1996-08-11 06:00:00,16,1007.8,-0.2,94,15,20000,14.816,,,210,15.1,19.4,,3,,,14,,,1,wg-a,,,,AAXX 11064 07335 02270 42108 10160 20150 39937 40078 56002 60144 70161 8273/ 90600 333 10194 20151 60037=
07335,1996-08-11 09:00:00,17,1006.7,-1,94,16,6000,25.928,,48.152,200,,,,1,,,,,,60,wg-a,,,,AAXX 11094 07335 12356 72014 10170 20160 39927 40067 58010 60017 76065 875// 90900 333 91026=
07335,1996-08-11 12:00:00,21,1008.3,1.7,53,11,500,25.928,,,260,,,,,,,,,,3,wg-a,,,,AAXX 11124 07335 02600 62614 10210 20110 39944 40083 51017 60016 70365 86800 91200 333 61000=
07335,1996-08-11 15:00:00,20,1008.5,0.2,60,12,500,35.188,,,260,,,,,,,,,,,wg-a,,,,AAXX 11154 07335 12600 62619 10200 20120 39946 40085 53002 60006 85831 91500=
07335,1996-08-11 18:00:00,19,1009.2,0.6,68,13,0,29.632,,,250,15.9,22.3,,,,,,,,,wg-a,,,,AAXX 11184 07335 32/// /2516 10190 20130 39952 40092 53006 91800 333 10223 20159=
07335,1996-08-12 00:00:00,14,1011.9,0.7,88,12,0,14.816,,,260,,,,,,,,,,,wg-a,,,,AAXX 12004 07335 12/// /2608 10140 20120 39977 40119 51007 60006 90000=
07335,1996-08-12 06:00:00,12,1013.3,1.1,100,12,10000,11.112,,,230,10.4,18.8,,,,,1,,,,wg-a,,,,AAXX 12064 07335 02/60 02306 10120 20120 39989 40133 53011 60006 80000 90600 333 10188 20104 60014=
07335,1996-08-12 09:00:00,17,1014,1,77,13,20000,14.816,,,250,,,,,,,,,,,wg-a,,,,AAXX 12094 07335 12470 /2508 10170 20130 39999 40140 51010 60006 86200 90900=
07335,1996-08-12 12:00:00,21,1014.1,0.2,53,11,500,18.52,,,290,,,,,,,,,,,wg-a,,,,AAXX 12124 07335 12600 52910 10210 20110 30001 40141 50002 60006 85800 91200=
07335,1996-08-12 15:00:00,23,1013.7,-0.3,50,12,500,22.224,,,270,,,,,,,,,,,wg-a,,,,AAXX 12154 07335 12600 /2712 10230 20120 39998 40137 57003 60006 86800 91500=
07335,1996-08-12 18:00:00,21,1013.8,0.1,56,12,0,14.816,,,270,11.9,22.5,,,,,,,,,wg-a,,,,AAXX 12184 07335 12/// /2708 10210 20120 39999 40138 53001 60006 91800 333 10225 20119=
07335,1996-08-13 00:00:00,15,1016.2,0.6,88,13,0,7.408,,,270,,,,,,,,,,,wg-a,,,,AAXX 13004 07335 12/// /2704 10150 20130 30020 40162 51006 60006 90000=
07335,1996-08-13 06:00:00,12,1016.7,0.9,94,11,300,7.408,,,230,10.3,21,,0,,,,,,44,wg-a,,,,AAXX 13064 07335 02/03 02304 10120 20110 30023 40167 53009 60004 74440 80000 90600 333 10210 20103 60007=
07335,1996-08-13 09:00:00,17,1017.3,0.9,77,13,20000,11.112,,,230,,,,,,,,,,1,wg-a,,,,AAXX 13094 07335 12470 /2306 10170 20130 30032 40173 51009 60006 70141 81100 90900=
07335,1996-08-13 12:00:00,22,1016.6,-0.5,57,13,25000,11.112,,,320,,,,,,,,,,3,wg-a,,,,AAXX 13124 07335 12675 43206 10220 20130 30027 40166 58005 60006 70341 84200 91200=
07335,1996-08-13 15:00:00,23,1016.3,-0.3,47,11,25000,11.112,,,290,,,,,,,,,,,wg-a,,,,AAXX 13154 07335 12675 62906 10230 20110 30024 40163 58003 60006 86801 91500=
07335,1996-08-13 18:00:00,23,1016.2,-0.1,50,12,0,11.112,,,320,11.5,24,,,,,,,,,wg-a,,,,AAXX 13184 07335 12/// /3206 10230 20120 30023 40162 55001 60006 91800 333 10240 20115=
07335,1996-08-14 00:00:00,14,1018.6,0.8,88,12,0,3.704,,,10,,,,,,,,,,,wg-a,,,,AAXX 14004 07335 12/// /0102 10140 20120 30043 40186 51008 60006 90000=
07335,1996-08-14 06:00:00,12,1018.5,0.3,100,12,6000,0,,,0,10.1,22.4,,,,,,,,,wg-a,,,,AAXX 14064 07335 02/56 30000 10120 20120 30041 40185 53003 60006 80002 90600 333 10224 20101 60004=
07335,1996-08-14 09:00:00,19,1019,0.8,78,15,6000,3.704,,,350,,,,,,,,,,,wg-a,,,,AAXX 14094 07335 12/56 23502 10190 20150 30049 40190 53008 60006 80002 90900=
07335,1996-08-14 12:00:00,23,1017.8,-1,53,13,12000,11.112,,,50,,,,,,,,,,,wg-a,,,,AAXX 14124 07335 12662 40506 10230 20130 30039 40178 57010 60006 84202 91200=
07335,1996-08-14 15:00:00,24,1017,-0.7,50,13,15000,18.52,,,30,,,,,,,,,,,wg-a,,,,AAXX 14154 07335 12665 70310 10240 20130 30032 40170 56007 60006 878// 91500=
07335,1996-08-14 18:00:00,23,1017.1,0,57,14,0,14.816,,,60,12,24.5,,,,,,,,,wg-a,,,,AAXX 14184 07335 12/// /0608 10230 20140 30032 40171 50000 60006 91800 333 10245 20120=
07335,1996-08-15 00:00:00,15,1019.1,0.7,88,13,0,7.408,,,350,,,,,,,,,,,wg-a,,,,AAXX 15004 07335 12/// /3504 10150 20130 30048 40191 51007 60006 90000=
07335,1996-08-15 06:00:00,13,1019.8,0.6,94,12,2500,3.704,,,360,11.2,23.4,,,,,,,,10,wg-a,,,,AAXX 15064 07335 02/25 03602 10130 20120 30054 40198 52006 60006 71000 80000 90600 333 10234 20112 60004=
07335,1996-08-15 09:00:00,20,1020.4,1,73,15,4000,7.408,,,90,,,,,,,,,,10,wg-a,,,,AAXX 15094 07335 12/40 00904 10200 20150 30064 40204 51010 60006 71000 80000 90900=
07335,1996-08-15 12:00:00,24,1019.8,-0.5,54,14,10000,14.816,,,40,,,,,,,,,,,wg-a,,,,AAXX 15124 07335 12660 40408 10240 20140 30059 40198 58005 60006 84200 91200=
07335,1996-08-15 15:00:00,26,1019.1,-0.6,45,13,12000,18.52,,,50,,,,,,,,,,,wg-a,,,,AAXX 15154 07335 12662 20510 10260 20130 30053 40191 58006 60006 82200 91500=
07335,1996-08-15 18:00:00,24,1019,-0.2,44,11,0,18.52,,,30,12.5,25.8,,,,,,,,,wg-a,,,,AAXX 15184 07335 12/// /0310 10240 20110 30051 40190 55002 60006 91800 333 10258 20125=
07335,1996-08-16 12:00:00,26,1019.7,-0.8,37,10,10000,18.52,,,100,,,,,,,,,,,wg-a,,,,AAXX 16124 07335 12/60 /1010 10260 20100 30059 40197 58008 60006 91200=
07335,1996-08-16 15:00:00,28,1018.5,-1.1,30,9,500,11.112,,,80,,,,,,,,,,,wg-a,,,,AAXX 16154 07335 12/00 00806 10280 20090 30048 40185 56011 60006 80000 91500=
07335,1996-08-16 18:00:00,27,1018.3,-0.2,32,9,0,14.816,,,70,12.9,28.4,,,,,,,,,wg-a,,,,AAXX 16184 07335 12/// /0708 10270 20090 30046 40183 55002 60006 91800 333 10284 20129=
07335,1996-08-17 00:00:00,18,1020.2,-0,64,11,0,11.112,,,40,,,,,,,,,,,wg-a,,,,AAXX 17004 07335 12/// /0406 10180 20110 30060 40202 54000 60006 90000=
07335,1996-08-17 06:00:00,12,1021.2,0.6,94,11,15000,3.704,,,340,11.5,27.3,,,,,,,,,wg-a,,,,AAXX 17064 07335 02/65 03402 10120 20110 30067 40212 53006 60006 80000 90600 333 10273 20115 60004=
07335,1996-08-17 09:00:00,23,1021.3,0.6,57,14,20000,7.408,,,60,,,,,,,,,,,wg-a,,,,AAXX 17094 07335 12/70 00604 10230 20140 30073 40213 51006 60006 80000 90900=
07335,1996-08-17 12:00:00,27,1020.1,-0.9,37,11,500,7.408,,,120,,,,,,,,,,,wg-a,,,,AAXX 17124 07335 12700 11204 10270 20110 30064 40201 58009 60006 81100 91200=
07335,1996-08-17 15:00:00,28,1019,-1.1,35,11,500,11.112,,,40,,,,,,,,,,,wg-a,,,,AAXX 17154 07335 12800 10406 10280 20110 30053 40190 56011 60006 81100 91500=
07335,1996-08-17 18:00:00,27,1018.9,-0.1,34,10,0,18.52,,,30,12.3,28.9,,,,,,,,,wg-a,,,,AAXX 17184 07335 12/// /0310 10270 20100 30052 40189 55001 60006 91800 333 10289 20123=
07335,1996-08-18 00:00:00,20,1019.7,0,53,10,0,7.408,,,80,,,,,,,,,,,wg-a,,,,AAXX 18004 07335 12/// /0804 10200 20100 30056 40197 50000 60006 90000=
07335,1996-08-18 06:00:00,13,1019.3,0.1,88,11,10000,7.408,,,350,11.6,27.4,,,,,,,,,wg-a,,,,AAXX 18064 07335 02/60 03504 10130 20110 30049 40193 52001 60006 80000 90600 333 10274 20116 60004=
07335,1996-08-18 09:00:00,24,1018.4,-0.4,47,12,20000,18.52,,,70,,,,,,,,,,,wg-a,,,,AAXX 18094 07335 12/70 00710 10240 20120 30045 40184 57004 60006 80000 90900=
07335,1996-08-18 12:00:00,28,1016.8,-1.4,37,12,25000,14.816,,,100,,,,,,,,,,,wg-a,,,,AAXX 18124 07335 12775 11008 10280 20120 30031 40168 58014 60006 81100 91200=
07335,1996-08-18 15:00:00,30,1014.9,-1.7,33,12,25000,7.408,,,80,,,,,,,,,,,wg-a,,,,AAXX 18154 07335 12/75 00804 10300 20120 30014 40149 58017 60006 80000 91500=
07335,1996-08-18 18:00:00,29,1014,-1,29,9,0,7.408,,,80,12.7,29.9,,,,,,,,,wg-a,,,,AAXX 18184 07335 12/// /0804 10290 20090 30004 40140 56010 60006 91800 333 10299 20127=
07335,1996-08-19 00:00:00,21,1013.9,-0.6,56,12,0,7.408,,,70,,,,,,,,,,,wg-a,,,,AAXX 19004 07335 12/// /0704 10210 20120 30000 40139 58006 60006 90000=
07335,1996-08-19 06:00:00,13,1013.6,-0,94,12,20000,0,,,0,11.7,28.9,,,,,,,,,wg-a,,,,AAXX 19064 07335 02/70 00000 10130 20120 39993 40136 55000 60006 80000 90600 333 10289 20117 60004=
07335,1996-08-19 09:00:00,24,1012.9,-0.2,47,12,500,7.408,,,160,,,,,,,,,,,wg-a,,,,AAXX 19094 07335 12/00 01604 10240 20120 39991 40129 57002 60006 80000 90900=
07335,1996-08-19 12:00:00,30,1011.7,-0.9,33,12,500,7.408,,,220,,,,,,,,,,,wg-a,,,,AAXX 19124 07335 12800 12204 10300 20120 39982 40117 58009 60006 81100 91200=
07335,1996-08-19 15:00:00,32,1010.6,-1,24,9,500,11.112,,,230,,,,,,,,,,,wg-a,,,,AAXX 19154 07335 12/00 12306 10320 20090 39972 40106 58010 60006 81180 91500=
07335,1996-08-19 18:00:00,27,1010.8,-0,51,16,0,11.112,,,270,12.9,31.9,,,,,,,,,wg-a,,,,AAXX 19184 07335 12/// /2706 10270 20160 39972 40108 55000 60006 91800 333 10319 20129=
07335,1996-08-20 00:00:00,19,1012.8,0.1,83,16,0,7.408,,,240,,,,,,,,,,,wg-a,,,,AAXX 20004 07335 12/// /2404 10190 20160 39988 40128 50001 60006 90000=
07335,1996-08-20 06:00:00,18,1013.1,0.1,94,17,7000,11.112,,,210,17.9,27,,,,,1,,,1,wg-a,,,,AAXX 20064 07335 12257 82106 10180 20170 39991 40131 50001 60014 70186 825// 90600 333 10270 20179=
07335,1996-08-20 09:00:00,20,1013.4,0.4,88,18,7000,11.112,,,240,,,,,,,,,,1,wg-a,,,,AAXX 20094 07335 02457 72406 10200 20180 39995 40134 53004 61000 70186 8353/ 90900 333 ////=
07335,1996-08-20 12:00:00,21,1014,0.6,78,17,12000,11.112,,,190,,,,,,,,,,3,wg-a,,,,AAXX 20124 07335 02362 81906 10210 20170 30001 40140 51006 61000 70386 875// 91200 333 ////=
07335,1996-08-20 18:00:00,23,1012.5,-0.3,61,15,0,11.112,,,260,18.2,24,,,,,,,,,wg-a,,,,AAXX 20184 07335 32/// /2606 10230 20150 39987 40125 58003 91800 333 10240 20182=
07335,1996-08-21 00:00:00,16,1014.2,-0,94,15,0,7.408,,,250,,,,,,,,,,,wg-a,,,,AAXX 21004 07335 12/// /2504 10160 20150 30001 40142 55000 60006 90000=
07335,1996-08-21 06:00:00,14,1013.4,-0.3,100,14,20000,0,,,0,12.7,22.6,,,,,,,,,wg-a,,,,AAXX 21064 07335 02/70 60000 10140 20140 39992 40134 55003 60006 81032 90600 333 10226 20127 60004=
07335,1996-08-21 09:00:00,18,1013.8,0.5,83,15,500,7.408,,,330,,,,,,,,,,,wg-a,,,,AAXX 21094 07335 12600 73304 10180 20150 39997 40138 53005 60006 8393/ 90900=
07335,1996-08-21 12:00:00,16,1014.3,0.5,100,16,8000,11.112,,,230,,,,3,,,,,,61,wg-a,,,,AAXX 21124 07335 02558 82306 10160 20160 30002 40143 51005 60036 76162 8157/ 91200 333 60037=
07335,1996-08-21 15:00:00,18,1013.4,-0.8,94,17,12000,14.816,,,250,,,,4,,,,,,21,wg-a,,,,AAXX 21154 07335 12/62 82508 10180 20170 39994 40134 58008 60047 72162 8807/ 91500=
07335,1996-08-21 18:00:00,18,1013.5,0.1,88,16,0,14.816,,,240,14.2,19.3,,,,,,,,,wg-a,,,,AAXX 21184 07335 32/// /2408 10180 20160 39995 40135 52001 91800 333 10193 20142=
07335,1996-08-22 00:00:00,15,1015.6,0.6,82,12,0,14.816,,,280,,,,,,,,,,,wg-a,,,,AAXX 22004 07335 12/// /2808 10150 20120 30013 40156 50006 60006 90000=
07335,1996-08-22 06:00:00,11,1016.1,0.5,94,10,20000,7.408,,,240,8.8,18.4,,,,,7,,,,wg-a,,,,AAXX 22064 07335 02570 22404 10110 20100 30016 40161 53005 60006 81802 90600 333 10184 20088 60074=
07335,1996-08-22 09:00:00,18,1016.5,0.8,73,13,20000,7.408,,,260,,,,,,,,,,,wg-a,,,,AAXX 22094 07335 12570 /2604 10180 20130 30024 40165 51008 60006 81102 90900=
07335,1996-08-22 12:00:00,23,1015.6,-0.7,44,10,500,11.112,,,280,,,,,,,,,,,wg-a,,,,AAXX 22124 07335 12600 22806 10230 20100 30017 40156 58007 60006 82100 91200=
07335,1996-08-22 15:00:00,24,1014.4,-1.1,44,11,500,18.52,,,220,,,,,,,,,,,wg-a,,,,AAXX 22154 07335 12700 22210 10240 20110 30006 40144 58011 60006 82100 91500=
07335,1996-08-22 18:00:00,23,1013.5,-1,50,12,0,14.816,,,210,10.5,24.3,,,,,,,,,wg-a,,,,AAXX 22184 07335 12/// /2108 10230 20120 39996 40135 56010 60006 91800 333 10243 20105=
07335,1996-08-23 00:00:00,17,1012.7,-1.4,77,13,0,14.816,,,180,,,,,,,,,,,wg-a,,,,AAXX 23004 07335 12/// /1808 10170 20130 39986 40127 56014 60006 90000=
07335,1996-08-23 06:00:00,18,1009.9,-0.8,68,12,500,18.52,,,200,15.1,22.5,,,,,,,,,wg-a,,,,AAXX 23064 07335 02700 72010 10180 20120 39959 40099 58008 60006 85532 90600 333 10225 20151 60004=
07335,1996-08-23 09:00:00,22,1010.7,1,69,16,35000,29.632,,,270,,,,,,,,,,,wg-a,,,,AAXX 23094 07335 12581 32716 10220 20160 39969 40107 53010 60006 83200 90900=
07335,1996-08-23 12:00:00,23,1012.2,1.5,41,9,10000,29.632,,,250,,,,,,,,,,,wg-a,,,,AAXX 23124 07335 12/60 /2516 10230 20090 39984 40122 51015 60006 91200=
07335,1996-08-23 15:00:00,23,1013.1,0.9,47,11,35000,31.484,,,260,,,,,,,,,,,wg-a,,,,AAXX 23154 07335 12781 32617 10230 20110 39993 40131 52009 60006 83801 91500=
07335,1996-08-23 18:00:00,20,1013.4,0.1,53,10,0,25.928,,,270,18,24,,,,,,,,,wg-a,,,,AAXX 23184 07335 12/// /2714 10200 20100 39994 40134 53001 60006 91800 333 10240 20180=
07335,1996-08-24 00:00:00,15,1014.4,-0.4,88,13,0,14.816,,,210,,,,,,,,,,,wg-a,,,,AAXX 24004 07335 12/// /2108 10150 20130 30002 40144 58004 60006 90000=
07335,1996-08-24 06:00:00,15,1013,-0.3,94,14,20000,18.52,,,200,13.9,20.3,,0,,,,,,80,wg-a,,,,AAXX 24064 07335 02370 52010 10150 20140 39988 40130 55003 60004 78086 82830 90600 333 10203 20139 60007=
07335,1996-08-24 09:00:00,18,1013.2,0.3,83,15,20000,25.928,,,230,,,,3,,,,,,1,wg-a,,,,AAXX 24094 07335 12470 /2314 10180 20150 39991 40132 51003 60037 70186 85230 90900=
07335,1996-08-24 12:00:00,19,1012.8,-0.3,83,16,500,22.224,,,250,,,,3,,,,,,1,wg-a,,,,AAXX 24124 07335 02500 32512 10190 20160 39988 40128 58003 60056 70186 8323/ 91200 333 60037=
07335,1996-08-24 15:00:00,21,1012.3,-0.4,53,11,500,29.632,,,270,,,,,,,,,,,wg-a,,,,AAXX 24154 07335 12600 22716 10210 20110 39984 40123 55004 60006 8223/ 91500=
07335,1996-08-24 18:00:00,20,1013.1,0.7,56,11,0,25.928,,,260,14.4,22.9,,,,,,,,,wg-a,,,,AAXX 24184 07335 32/// /2614 10200 20110 39991 40131 53007 91800 333 10229 20144=
07335,1996-08-25 00:00:00,13,1016.1,0.5,94,12,0,7.408,,,210,,,,,,,,,,,wg-a,,,,AAXX 25004 07335 12/// /2104 10130 20120 30017 40161 51005 60006 90000=
07335,1996-08-25 06:00:00,14,1015.8,0.4,94,13,20000,7.408,,,180,11.8,19.6,,,,,5,,,80,wg-a,,,,AAXX 25064 07335 02270 71804 10140 20130 30015 40158 53004 60054 78086 8387/ 90600 333 10196 20118 61000=
07335,1996-08-25 09:00:00,18,1016,0.4,83,15,20000,14.816,,,230,,,,0,,,,,,1,wg-a,,,,AAXX 25094 07335 12270 62308 10180 20150 30019 40160 51004 60007 70186 82832 90900=
07335,1996-08-25 12:00:00,15,1015.7,-0.4,88,13,15000,22.224,,,300,,,,1,,,,,,80,wg-a,,,,AAXX 25124 07335 02365 73012 10150 20130 30015 40157 55004 60016 78086 878// 91200 333 60017=
07335,1996-08-25 15:00:00,21,1014.4,-1.1,60,13,20000,7.408,,,220,,,,0,,,,,,1,wg-a,,,,AAXX 25154 07335 12570 62204 10210 20130 30004 40144 58011 60007 70186 84830 91500=
07335,1996-08-25 18:00:00,19,1014.2,-0.2,64,12,0,11.112,,,270,13.5,21.9,,,,,,,,,wg-a,,,,AAXX 25184 07335 32/// /2706 10190 20120 30002 40142 55002 91800 333 10219 20135=
07335,1996-08-26 00:00:00,11,1015.9,0.1,94,10,0,7.408,,,270,,,,,,,,,,,wg-a,,,,AAXX 26004 07335 12/// /2704 10110 20100 30015 40159 53001 60006 90000=
07335,1996-08-26 06:00:00,11,1016.3,0.6,94,10,500,7.408,,,240,9.6,19.2,,,,,2,,,,wg-a,,,,AAXX 26064 07335 02/00 62404 10110 20100 30018 40163 53006 60006 85032 90600 333 10192 20096 60024=
07335,1996-08-26 09:00:00,17,1016.8,0.8,68,11,500,3.704,,,250,,,,,,,,,,,wg-a,,,,AAXX 26094 07335 12500 22502 10170 20110 30026 40168 51008 60006 81132 90900=
07335,1996-08-26 12:00:00,21,1016.2,-0.4,46,9,500,7.408,,,240,,,,,,,,,,,wg-a,,,,AAXX 26124 07335 12600 32404 10210 20090 30022 40162 58004 60006 83232 91200=
07335,1996-08-26 15:00:00,22,1015.2,-0.9,43,9,500,18.52,,,260,,,,,,,,,,,wg-a,,,,AAXX 26154 07335 12700 42610 10220 20090 30013 40152 57009 60006 84402 91500=
07335,1996-08-26 18:00:00,20,1015.6,0.3,53,10,0,7.408,,,280,10.6,22.9,,,,,,,,,wg-a,,,,AAXX 26184 07335 12/// /2804 10200 20100 30016 40156 53003 60006 91800 333 10229 20106=
07335,1996-08-27 00:00:00,14,1017.1,0.2,82,11,0,7.408,,,320,,,,,,,,,,,wg-a,,,,AAXX 27004 07335 12/// /3204 10140 20110 30028 40171 51002 60006 90000=
07335,1996-08-27 06:00:00,13,1017.3,0.6,94,12,25000,7.408,,,300,12,19.9,,,,,,,,,wg-a,,,,AAXX 27064 07335 02775 73004 10130 20120 30029 40173 53006 60006 8753/ 90600 333 10199 20120 60004=
07335,1996-08-27 09:00:00,17,1017.4,0.3,72,12,500,14.816,,,330,,,,,,,,,,,wg-a,,,,AAXX 27094 07335 12400 23308 10170 20120 30032 40174 53003 60006 8183/ 90900=
07335,1996-08-27 12:00:00,20,1016.9,-0.3,53,10,500,14.816,,,330,,,,,,,,,,,wg-a,,,,AAXX 27124 07335 12600 73308 10200 20100 30029 40169 58003 60006 8423/ 91200=
07335,1996-08-27 15:00:00,20,1016.9,0,46,8,500,11.112,,,300,,,,,,,,,,,wg-a,,,,AAXX 27154 07335 12600 /3006 10200 20080 30029 40169 50000 60006 8483/ 91500=
07335,1996-08-28 00:00:00,10,1020.5,0.4,87,8,0,7.408,,,270,,,,,,,,,,,wg-a,,,,AAXX 28004 07335 12/// /2704 10100 20080 30059 40205 51004 60006 90000=
07335,1996-08-28 06:00:00,8,1020.2,0.3,100,8,25000,7.408,,,240,7.3,18.1,,,,,,,,,wg-a,,,,AAXX 28064 07335 02775 22404 10080 20080 30055 40202 53003 60006 81532 90600 333 10181 20073 60004=
07335,1996-08-28 09:00:00,16,1020.3,0.5,77,12,25000,7.408,,,300,,,,,,,,,,,wg-a,,,,AAXX 28094 07335 12575 43004 10160 20120 30060 40203 51005 60006 84132 90900=
07335,1996-08-28 12:00:00,18,1019.3,-0.9,56,9,20000,7.408,,,340,,,,,,,,,,,wg-a,,,,AAXX 28124 07335 12670 73404 10180 20090 30051 40193 57009 60006 878// 91200=
07335,1996-08-28 15:00:00,20,1018.1,-1,46,8,25000,18.52,,,300,,,,,,,,,,,wg-a,,,,AAXX 28154 07335 12675 73010 10200 20080 30041 40181 57010 60006 8683/ 91500=
07335,1996-08-28 18:00:00,15,1018.5,0.1,88,13,0,7.408,,,300,8.2,21.5,,,,,,,,,wg-a,,,,AAXX 28184 07335 32/// /3004 10150 20130 30042 40185 53001 91800 333 10215 20082=
07335,1996-08-29 00:00:00,11,1019.4,-0.2,94,10,0,11.112,,,250,,,,,,,,,,,wg-a,,,,AAXX 29004 07335 12/// /2506 10110 20100 30049 40194 56002 60006 90000=
07335,1996-08-29 06:00:00,12,1018.7,0.1,100,12,1600,11.112,,,300,8.7,15.4,,,,,1,,,10,wg-a,,,,AAXX 29064 07335 02116 83006 10120 20120 30043 40187 53001 60006 71011 876// 90600 333 10154 20087 60014=
07335,1996-08-29 09:00:00,14,1019.6,0.9,88,12,6000,11.112,,,280,,,,,,,,,,,wg-a,,,,AAXX 29094 07335 12256 82806 10140 20120 30052 40196 53009 60006 881// 90900=
07335,1996-08-29 12:00:00,16,1018.7,-0.7,88,14,8000,14.816,,,300,,,,0,,,,,,80,wg-a,,,,AAXX 29124 07335 02358 73008 10160 20140 30045 40187 58007 60016 78086 878// 91200 333 60007=
07335,1996-08-29 15:00:00,19,1017.9,-0.7,60,11,20000,7.408,,,200,,,,0,,,,,,1,wg-a,,,,AAXX 29154 07335 12570 /2004 10190 20110 30038 40179 58007 60007 70186 85832 91500=
07335,1996-08-29 18:00:00,16,1018.5,0.5,88,14,0,3.704,,,210,11.8,19,,,,,,,,,wg-a,,,,AAXX 29184 07335 32/// /2102 10160 20140 30043 40185 51005 91800 333 10190 20118=
07335,1996-08-30 00:00:00,14,1020.4,0.5,88,12,0,7.408,,,320,,,,,,,,,,,wg-a,,,,AAXX 30004 07335 12/// /3204 10140 20120 30060 40204 52005 60006 90000=
07335,1996-08-30 06:00:00,11,1021.6,1,94,10,20000,7.408,,,310,10.2,15.8,,,,,4,,,,wg-a,,,,AAXX 30064 07335 02670 43104 10110 20100 30071 40216 53010 60006 83231 90600 333 10158 20102 60044=
07335,1996-08-30 09:00:00,15,1022.9,1.4,77,11,20000,11.112,,,360,,,,,,,,,,,wg-a,,,,AAXX 30094 07335 12470 73606 10150 20110 30085 40229 53014 60006 878// 90900=
07335,1996-08-30 12:00:00,18,1022.7,0,52,8,25000,7.408,,,320,,,,,,,,,,,wg-a,,,,AAXX 30124 07335 12675 63204 10180 20080 30085 40227 50000 60006 85831 91200=
07335,1996-08-30 15:00:00,19,1022.7,-0,52,9,500,11.112,,,20,,,,,,,,,,,wg-a,,,,AAXX 30154 07335 12600 60206 10190 20090 30085 40227 54000 60006 85801 91500=
07335,1996-08-30 18:00:00,18,1022.9,0.2,52,8,0,11.112,,,10,11.1,20.5,,,,,,,,,wg-a,,,,AAXX 30184 07335 12/// /0106 10180 20080 30087 40229 53002 60006 91800 333 10205 20111=
07335,1996-08-31 00:00:00,11,1025.4,0.8,82,8,0,11.112,,,330,,,,,,,,,,,wg-a,,,,AAXX 31004 07335 12/// /3306 10110 20080 30108 40254 51008 60006 90000=
07335,1996-08-31 06:00:00,8,1026.7,1.1,100,8,15000,3.704,,,350,7.3,18.4,,,,,,,,,wg-a,,,,AAXX 31064 07335 02/65 13502 10080 20080 30119 40267 53011 60006 81032 90600 333 10184 20073 60004=
07335,1996-08-31 09:00:00,17,1026.6,0.4,68,11,15000,7.408,,,20,,,,,,,,,,,wg-a,,,,AAXX 31094 07335 12565 40204 10170 20110 30123 40266 50004 60006 81132 90900=
07335,1996-08-31 12:00:00,19,1025.9,-0.6,60,11,20000,18.52,,,20,,,,,,,,,,,wg-a,,,,AAXX 31124 07335 12670 70210 10190 20110 30117 40259 56006 60006 874// 91200=
07335,1996-08-31 15:00:00,21,1025.1,-0.7,46,9,20000,11.112,,,30,,,,,,,,,,,wg-a,,,,AAXX 31154 07335 12670 /0306 10210 20090 30110 40251 58007 60006 83802 91500=
07335,1996-08-31 18:00:00,20,1024.7,-0.4,49,9,0,11.112,,,10,8.1,22.1,,,,,,,,,wg-a,,,,AAXX 31184 07335 12/// /0106 10200 20090 30106 40247 56004 60006 91800 333 10221 20081=
07335,1996-09-01 00:00:00,12,1026.6,0.3,82,9,0,7.408,,,10,,,,,,,,,,,wg-a,,,,AAXX 01004 07335 12/// /0104 10120 20090 30120 40266 53003 60006 90000=
07335,1996-09-01 06:00:00,7,1027.1,0.3,100,7,15000,3.704,,,350,6.9,20,,,,,,,,,wg-a,,,,AAXX 01064 07335 02765 33502 10070 20070 30123 40271 53003 60006 815/2 90600 333 10200 20069 60004=
07335,1996-09-01 09:00:00,17,1027.1,0.5,63,10,25000,3.704,,,80,,,,,,,,,,,wg-a,,,,AAXX 01094 07335 12575 /0802 10170 20100 30128 40271 50005 60006 81202 90900=
07335,1996-09-01 12:00:00,20,1026.4,-0.6,49,9,500,14.816,,,50,,,,,,,,,,,wg-a,,,,AAXX 01124 07335 12600 50508 10200 20090 30122 40264 58006 60006 83202 91200=
07335,1996-09-01 15:00:00,21,1025.2,-1.1,43,8,500,14.816,,,40,,,,,,,,,,,wg-a,,,,AAXX 01154 07335 12600 40408 10210 20080 30111 40252 58011 60006 83402 91500=
07335,1996-09-01 18:00:00,20,1025.2,-0.1,40,6,0,14.816,,,40,7.3,21.5,,,,,,,,,wg-a,,,,AAXX 01184 07335 12/// /0408 10200 20060 30110 40252 55001 60006 91800 333 10215 20073=
07335,1996-09-02 00:00:00,13,1026.1,-0.2,62,6,0,7.408,,,50,,,,,,,,,,,wg-a,,,,AAXX 02004 07335 12/// /0504 10130 20060 30116 40261 57002 60006 90000=
07335,1996-09-02 06:00:00,9,1025.2,-0.4,87,7,25000,11.112,,,30,8,19.5,,,,,,,,,wg-a,,,,AAXX 02064 07335 02/75 60306 10090 20070 30105 40252 56004 60006 85039 90600 333 10195 20080 60004=
07335,1996-09-02 09:00:00,16,1024.9,0.1,59,8,500,18.52,,,60,,,,,,,,,,,wg-a,,,,AAXX 02094 07335 12/00 10610 10160 20080 30106 40249 52001 60006 81030 90900=
07335,1996-09-02 12:00:00,20,1023.2,-1.5,43,7,500,22.224,,,50,,,,,,,,,,,wg-a,,,,AAXX 02124 07335 12600 20512 10200 20070 30091 40232 58015 60006 82100 91200=
07335,1996-09-02 15:00:00,21,1021.9,-1.3,35,5,500,29.632,,,60,,,,,,,,,,,wg-a,,,,AAXX 02154 07335 12700 30616 10210 20050 30078 40219 57013 60006 83100 91500=
07335,1996-09-02 18:00:00,20,1021.4,-0.5,35,4,0,18.52,,,60,9.5,22,,,,,,,,,wg-a,,,,AAXX 02184 07335 12/// /0610 10200 20040 30073 40214 57005 60006 91800 333 10220 20095=
07335,1996-09-03 00:00:00,10,1022.2,-0.6,76,6,0,14.816,,,10,,,,,,,,,,,wg-a,,,,AAXX 03004 07335 12/// /0108 10100 20060 30076 40222 57006 60006 90000=
07335,1996-09-03 06:00:00,9,1020.1,-0.7,87,7,20000,11.112,,,350,8.1,19.6,,,,,,,,,wg-a,,,,AAXX 03064 07335 02/70 13506 10090 20070 30055 40201 56007 60006 80001 90600 333 10196 20081 60004=
07335,1996-09-03 09:00:00,16,1019.2,-0.5,59,8,20000,18.52,,,30,,,,,,,,,,,wg-a,,,,AAXX 03094 07335 12/70 10310 10160 20080 30050 40192 57005 60006 81040 90900=
07335,1996-09-03 12:00:00,21,1017.4,-1.6,38,6,25000,31.484,,,40,,,,,,,,,,,wg-a,,,,AAXX 03124 07335 12775 20417 10210 20060 30034 40174 58016 60006 81180 91200=
07335,1996-09-03 15:00:00,21,1016.3,-1.1,40,7,25000,22.224,,,70,,,,,,,,,,,wg-a,,,,AAXX 03154 07335 12775 70712 10210 20070 30023 40163 58011 60006 81132 91500=
07335,1996-09-03 18:00:00,20,1016.5,0.2,46,8,0,11.112,,,60,8.7,22.3,,,,,,,,,wg-a,,,,AAXX 03184 07335 12/// /0606 10200 20080 30025 40165 52002 60006 91800 333 10223 20087=
07335,1996-09-04 00:00:00,13,1017.3,-0.2,82,10,0,3.704,,,10,,,,,,,,,,,wg-a,,,,AAXX 04004 07335 12/// /0102 10130 20100 30029 40173 58002 60006 90000=
07335,1996-09-04 06:00:00,9,1017.2,0.1,93,8,15000,3.704,,,350,9,19.7,,,,,,,,,wg-a,,,,AAXX 04064 07335 02/65 03502 10090 20080 30026 40172 53001 60006 80000 90600 333 10197 20090 60004=
07335,1996-09-04 09:00:00,18,1016.3,-0.4,68,12,20000,14.816,,,60,,,,,,,,,,,wg-a,,,,AAXX 04094 07335 12/70 00608 10180 20120 30022 40163 58004 60006 80000 90900=
07335,1996-09-04 12:00:00,23,1015.5,-0.6,50,12,25000,14.816,,,60,,,,,,,,,,,wg-a,,,,AAXX 04124 07335 12675 /0608 10230 20120 30016 40155 58006 60006 81100 91200=
07335,1996-09-04 15:00:00,26,1014.3,-1,39,11,25000,18.52,,,90,,,,,,,,,,,wg-a,,,,AAXX 04154 07335 12775 10910 10260 20110 30006 40143 58010 60006 81100 91500=
07335,1996-09-04 18:00:00,25,1013.7,-0.7,39,10,0,11.112,,,80,9.2,25.7,,,,,,,,,wg-a,,,,AAXX 04184 07335 12/// /0806 10250 20100 39999 40137 56007 60006 91800 333 10257 20092=
07335,1996-09-05 00:00:00,17,1015.3,0,68,11,0,11.112,,,30,,,,,,,,,,,wg-a,,,,AAXX 05004 07335 12/// /0306 10170 20110 30011 40153 50000 60006 90000=
07335,1996-09-05 06:00:00,13,1016.2,0.5,88,11,7000,7.408,,,20,11.9,24.6,,,,,,,,,wg-a,,,,AAXX 05064 07335 02/57 /0204 10130 20110 30018 40162 53005 60006 80002 90600 333 10246 20119 60004=
07335,1996-09-05 09:00:00,17,1016.7,0.8,77,13,8000,14.816,,,40,,,,,,,,,,,wg-a,,,,AAXX 05094 07335 12/58 00408 10170 20130 30026 40167 52008 60006 80000 90900=
07335,1996-09-05 12:00:00,23,1015.8,-0.7,57,14,12000,14.816,,,40,,,,,,,,,,,wg-a,,,,AAXX 05124 07335 12/62 00408 10230 20140 30019 40158 58007 60006 80000 91200=
07335,1996-09-05 15:00:00,26,1014.5,-1.1,42,12,15000,18.52,,,30,,,,,,,,,,,wg-a,,,,AAXX 05154 07335 12765 20310 10260 20120 30008 40145 56011 60006 82100 91500=
07335,1996-09-05 18:00:00,24,1014.8,0.2,44,11,0,11.112,,,40,12.5,25.6,,,,,,,,,wg-a,,,,AAXX 05184 07335 12/// /0406 10240 20110 30010 40148 53002 60006 91800 333 10256 20125=
07335,1996-09-06 00:00:00,12,1017.7,0.8,88,10,0,3.704,,,360,,,,,,,,,,,wg-a,,,,AAXX 06004 07335 12/// /3602 10120 20100 30033 40177 51008 60006 90000=
07335,1996-09-06 06:00:00,8,1018.9,0.6,93,7,8000,3.704,,,350,8.2,23.9,,,,,,,,,wg-a,,,,AAXX 06064 07335 02/58 03502 10080 20070 30042 40189 53006 60006 80000 90600 333 10239 20082 60004=
07335,1996-09-06 12:00:00,23,1018,-0.9,47,11,15000,11.112,,,50,,,,,,,,,,,wg-a,,,,AAXX 06124 07335 12765 10506 10230 20110 30041 40180 57009 60006 81100 91200=
07335,1996-09-06 15:00:00,25,1016.7,-1.2,36,9,15000,14.816,,,30,,,,,,,,,,,wg-a,,,,AAXX 06154 07335 12765 10308 10250 20090 30029 40167 58012 60006 81100 91500=
07335,1996-09-06 18:00:00,23,1016.8,-0,38,8,0,14.816,,,30,8.2,25.5,,,,,,,,,wg-a,,,,AAXX 06184 07335 12/// /0308 10230 20080 30029 40168 55000 60006 91800 333 10255 20082=
07335,1996-09-07 00:00:00,11,1019.7,1,66,5,0,3.704,,,60,,,,,,,,,,,wg-a,,,,AAXX 07004 07335 12/// /0602 10110 20050 30052 40197 51010 60006 90000=
07335,1996-09-07 06:00:00,7,1020.8,0.9,87,5,20000,7.408,,,30,5.6,23.4,,,,,,,,,wg-a,,,,AAXX 07064 07335 02/70 00304 10070 20050 30060 40208 53009 60006 80000 90600 333 10234 20056 60004=
07335,1996-09-07 09:00:00,17,1021.3,1,52,7,20000,11.112,,,70,,,,,,,,,,,wg-a,,,,AAXX 07094 07335 12/70 00706 10170 20070 30070 40213 51010 60006 80000 90900=
07335,1996-09-07 12:00:00,21,1020.2,-0.8,35,5,25000,25.928,,,60,,,,,,,,,,,wg-a,,,,AAXX 07124 07335 12/75 00614 10210 20050 30062 40202 58008 60006 80000 91200=
07335,1996-09-07 15:00:00,23,1019.4,-0.7,29,4,25000,18.52,,,80,,,,,,,,,,,wg-a,,,,AAXX 07154 07335 12/75 00810 10230 20040 30055 40194 56007 60006 80000 91500=
07335,1996-09-07 18:00:00,21,1019.6,0.1,35,5,0,18.52,,,60,7.1,23.4,,,,,,,,,wg-a,,,,AAXX 07184 07335 12/// /0610 10210 20050 30056 40196 53001 60006 91800 333 10234 20071=
07335,1996-09-08 00:00:00,14,1021.2,0.2,41,1,0,11.112,,,70,,,,,,,,,,,wg-a,,,,AAXX 08004 07335 12/// /0706 10140 20010 30068 40212 53002 60006 90000=
07335,1996-09-08 06:00:00,7,1021.2,-0.1,76,3,20000,7.408,,,40,6.8,21.3,,,,,,,,,wg-a,,,,AAXX 08064 07335 02/70 10404 10070 20030 30064 40212 55001 60006 80002 90600 333 10213 20068 60004=
07335,1996-09-08 09:00:00,14,1020.9,0.1,51,4,20000,18.52,,,50,,,,,,,,,,,wg-a,,,,AAXX 08094 07335 12/70 40510 10140 20040 30065 40209 53001 60006 80002 90900=
07335,1996-09-08 12:00:00,20,1019.7,-0.9,28,1,20000,22.224,,,80,,,,,,,,,,,wg-a,,,,AAXX 08124 07335 12/70 50812 10200 20010 30056 40197 58009 60006 80002 91200=
07335,1996-09-08 15:00:00,21,1018.4,-1.2,25,0,20000,25.928,,,50,,,,,,,,,,,wg-a,,,,AAXX 08154 07335 12/70 40514 10210 20000 30044 40184 57012 60006 80002 91500=
07335,1996-09-08 18:00:00,19,1018.6,0.1,32,2,0,18.52,,,50,7.2,21.8,,,,,,,,,wg-a,,,,AAXX 08184 07335 12/// /0510 10190 20020 30045 40186 53001 60006 91800 333 10218 20072=
07335,1996-09-09 00:00:00,12,1019.7,-0.3,58,4,0,14.816,,,40,,,,,,,,,,,wg-a,,,,AAXX 09004 07335 12/// /0408 10120 20040 30052 40197 58003 60006 90000=
07335,1996-09-09 06:00:00,11,1020.4,1,71,6,500,22.224,,,40,10.5,18.5,,,,,,,,,wg-a,,,,AAXX 09064 07335 02/00 40412 10110 20060 30059 40204 53010 60006 84030 90600 333 10185 20105 60004=
07335,1996-09-09 09:00:00,15,1021,0.8,59,7,25000,22.224,,,50,,,,,,,,,,,wg-a,,,,AAXX 09094 07335 12/75 10512 10150 20070 30067 40210 53008 60006 81030 90900=
07335,1996-09-09 12:00:00,19,1019.5,-1.3,40,5,25000,29.632,,,60,,,,,,,,,,,wg-a,,,,AAXX 09124 07335 12775 20616 10190 20050 30054 40195 58013 60006 82100 91200=
07335,1996-09-09 15:00:00,21,1018.4,-1,33,4,25000,25.928,,,60,,,,,,,,,,,wg-a,,,,AAXX 09154 07335 12775 40614 10210 20040 30044 40184 58010 60006 84100 91500=
07335,1996-09-09 18:00:00,19,1019,0.5,34,3,0,22.224,,,60,11.1,21.2,,,,,,,,,wg-a,,,,AAXX 09184 07335 12/// /0612 10190 20030 30049 40190 53005 60006 91800 333 10212 20111=
07335,1996-09-10 00:00:00,11,1021.1,0.1,66,5,0,11.112,,,40,,,,,,,,,,,wg-a,,,,AAXX 10004 07335 12/// /0406 10110 20050 30065 40211 50001 60006 90000=
07335,1996-09-10 06:00:00,7,1020.9,0.2,87,5,15000,7.408,,,20,5.1,19,,,,,,,,,wg-a,,,,AAXX 10064 07335 02/65 10204 10070 20050 30061 40209 53002 60006 80001 90600 333 10190 20051 60004=
07335,1996-09-10 09:00:00,15,1021.2,0.7,67,9,10000,18.52,,,50,,,,,,,,,,,wg-a,,,,AAXX 10094 07335 12/60 20510 10150 20090 30068 40212 51007 60006 80001 90900=
07335,1996-09-10 12:00:00,20,1019.5,-1.4,40,6,20000,22.224,,,60,,,,,,,,,,,wg-a,,,,AAXX 10124 07335 12670 40612 10200 20060 30054 40195 58014 60006 83201 91200=
07335,1996-09-10 15:00:00,21,1017.9,-1.5,35,5,20000,25.928,,,40,,,,,,,,,,,wg-a,,,,AAXX 10154 07335 12770 30414 10210 20050 30039 40179 56015 60006 81201 91500=
07335,1996-09-10 18:00:00,20,1017.7,-0.3,35,4,0,11.112,,,60,6.6,21.7,,,,,,,,,wg-a,,,,AAXX 10184 07335 12/// /0606 10200 20040 30036 40177 56003 60006 91800 333 10217 20066=
07335,1996-09-11 00:00:00,13,1018.9,0.3,72,8,0,7.408,,,50,,,,,,,,,,,wg-a,,,,AAXX 11004 07335 12/// /0504 10130 20080 30045 40189 51003 60006 90000=
07335,1996-09-11 06:00:00,7,1017.9,-0.8,93,6,12000,7.408,,,10,6.5,19.7,,,,,,,,,wg-a,,,,AAXX 11064 07335 02/62 30104 10070 20060 30032 40179 56008 60006 80001 90600 333 10197 20065 60004=
07335,1996-09-11 09:00:00,15,1017.3,-0.2,72,10,15000,18.52,,,30,,,,,,,,,,,wg-a,,,,AAXX 11094 07335 12/65 10310 10150 20100 30030 40173 55002 60006 80001 90900=
07335,1996-09-11 12:00:00,19,1015.6,-1.5,46,7,20000,18.52,,,50,,,,,,,,,,,wg-a,,,,AAXX 11124 07335 12670 30510 10190 20070 30015 40156 57015 60006 83200 91200=
07335,1996-09-11 15:00:00,20,1014,-1.5,43,7,20000,22.224,,,40,,,,,,,,,,,wg-a,,,,AAXX 11154 07335 12770 50412 10200 20070 30000 40140 56015 60006 85200 91500=
07335,1996-09-11 18:00:00,19,1013.4,-0.7,43,6,0,18.52,,,40,6.9,20.5,,,,,,,,,wg-a,,,,AAXX 11184 07335 12/// /0410 10190 20060 39993 40134 55007 60006 91800 333 10205 20069=
07335,1996-09-12 00:00:00,9,1013.9,-0.7,81,6,0,7.408,,,20,,,,,,,,,,,wg-a,,,,AAXX 12004 07335 12/// /0204 10090 20060 39994 40139 57007 60006 90000=
07335,1996-09-12 06:00:00,5,1012.9,-0,93,4,15000,3.704,,,340,4.4,18.6,,,,,,,,,wg-a,,,,AAXX 12064 07335 02/65 13402 10050 20040 39981 40129 55000 60006 80001 90600 333 10186 20044 60004=
07335,1996-09-12 15:00:00,20,1010.5,-0.8,46,8,500,25.928,,,350,,,,,,,,,,,wg-a,,,,AAXX 12154 07335 12700 73514 10200 20080 39965 40105 56008 60006 878// 91500=
07335,1996-09-12 18:00:00,17,1011.4,0.8,63,10,0,22.224,,,360,4.5,21.2,,,,,,,,,wg-a,,,,AAXX 12184 07335 12/// /3612 10170 20100 39973 40114 53008 60006 91800 333 10212 20045=
07335,1996-09-13 00:00:00,12,1014.3,1.1,82,9,0,11.112,,,340,,,,,,,,,,,wg-a,,,,AAXX 13004 07335 12/// /3406 10120 20090 39999 40143 51011 60006 90000=
07335,1996-09-13 06:00:00,7,1016.3,1.1,93,6,15000,3.704,,,350,6,16.7,,,,,,,,,wg-a,,,,AAXX 13064 07335 02765 23502 10070 20060 30016 40163 53011 60006 81532 90600 333 10167 20060 60004=
07335,1996-09-13 09:00:00,14,1017.3,1.4,63,7,12000,11.112,,,30,,,,,,,,,,,wg-a,,,,AAXX 13094 07335 12662 /0306 10140 20070 30030 40173 51014 60006 85502 90900=
07335,1996-09-13 12:00:00,17,1017.2,-0,45,5,20000,22.224,,,360,,,,,,,,,,,wg-a,,,,AAXX 13124 07335 12670 43612 10170 20050 30030 40172 55000 60006 84202 91200=
07335,1996-09-13 15:00:00,19,1016.7,-0.4,32,2,20000,18.52,,,10,,,,,,,,,,,wg-a,,,,AAXX 13154 07335 12770 20110 10190 20020 30026 40167 56004 60006 82102 91500=
07335,1996-09-13 18:00:00,16,1018.1,1.2,39,2,0,11.112,,,20,6.7,18.7,,,,,,,,,wg-a,,,,AAXX 13184 07335 12/// /0206 10160 20020 30038 40181 53012 60006 91800 333 10187 20067=
07335,1996-09-14 00:00:00,6,1021.5,1,75,2,0,3.704,,,340,,,,,,,,,,,wg-a,,,,AAXX 14004 07335 12/// /3402 10060 20020 30067 40215 51010 60006 90000=
07335,1996-09-14 06:00:00,2,1023.3,0.9,93,1,25000,3.704,,,310,1.5,16,,,,,,,,,wg-a,,,,AAXX 14064 07335 02/75 03102 10020 20010 30082 40233 53009 60006 80000 90600 333 10160 20015 60004=
07335,1996-09-14 09:00:00,14,1023.6,1,63,7,500,7.408,,,60,,,,,,,,,,,wg-a,,,,AAXX 14094 07335 12/00 00604 10140 20070 30092 40236 51010 60006 80000 90900=
07335,1996-09-14 12:00:00,18,1022.8,-0.7,37,3,500,18.52,,,40,,,,,,,,,,,wg-a,,,,AAXX 14124 07335 12700 20410 10180 20030 30085 40228 58007 60006 82200 91200=
07335,1996-09-14 15:00:00,19,1021.7,-1,37,4,500,18.52,,,50,,,,,,,,,,,wg-a,,,,AAXX 14154 07335 12700 10510 10190 20040 30075 40217 56010 60006 81200 91500=
07335,1996-09-14 18:00:00,18,1021.4,-0.3,39,4,0,11.112,,,70,2,19.6,,,,,,,,,wg-a,,,,AAXX 14184 07335 12/// /0706 10180 20040 30072 40214 56003 60006 91800 333 10196 20020=
07335,1996-09-15 00:00:00,6,1023.5,0.4,81,3,0,3.704,,,20,,,,,,,,,,,wg-a,,,,AAXX 15004 07335 12/// /0202 10060 20030 30087 40235 52004 60006 90000=
07335,1996-09-15 06:00:00,4,1023.3,-0,93,3,500,7.408,,,360,3.4,17.5,,,,,,,,,wg-a,,,,AAXX 15064 07335 02/00 13604 10040 20030 30084 40233 55000 60006 80001 90600 333 10175 20034 60004=
07335,1996-09-15 09:00:00,14,1023.5,0.7,72,9,500,14.816,,,70,,,,,,,,,,,wg-a,,,,AAXX 15094 07335 12500 /0708 10140 20090 30091 40235 53007 60006 81101 90900=
07335,1996-09-15 12:00:00,19,1022.3,-1,46,7,500,22.224,,,80,,,,,,,,,,,wg-a,,,,AAXX 15124 07335 12600 /0812 10190 20070 30081 40223 56010 60006 81100 91200=
07335,1996-09-15 15:00:00,21,1021.1,-1.1,38,6,500,22.224,,,80,,,,,,,,,,,wg-a,,,,AAXX 15154 07335 12/00 00812 10210 20060 30070 40211 56011 60006 80000 91500=
07335,1996-09-15 18:00:00,19,1020.8,-0.3,43,6,0,14.816,,,80,3.9,21,,,,,,,,,wg-a,,,,AAXX 15184 07335 12/// /0808 10190 20060 30067 40208 58003 60006 91800 333 10210 20039=
07335,1996-09-16 00:00:00,13,1021.6,-0.3,62,6,0,14.816,,,80,,,,,,,,,,,wg-a,,,,AAXX 16004 07335 12/// /0808 10130 20060 30071 40216 58003 60006 90000=
07335,1996-09-16 06:00:00,9,1020,-0.6,87,7,15000,11.112,,,60,9.1,19.4,,,,,,,,,wg-a,,,,AAXX 16064 07335 02/65 00606 10090 20070 30054 40200 56006 60006 80000 90600 333 10194 20091 60004=
07335,1996-09-16 09:00:00,15,1019,-0.7,59,7,15000,22.224,,,100,,,,,,,,,,,wg-a,,,,AAXX 16094 07335 12/65 01012 10150 20070 30047 40190 56007 60006 80000 90900=
07335,1996-09-16 12:00:00,19,1017.3,-1.5,43,6,20000,25.928,,,90,,,,,,,,,,,wg-a,,,,AAXX 16124 07335 12/70 00914 10190 20060 30032 40173 58015 60006 80000 91200=
07335,1996-09-16 15:00:00,22,1014.9,-2.2,35,6,20000,18.52,,,90,,,,,,,,,,,wg-a,,,,AAXX 16154 07335 12/70 00910 10220 20060 30010 40149 58022 60006 80000 91500=
07335,1996-09-16 18:00:00,20,1013.4,-1.6,37,5,0,14.816,,,80,9.2,22.1,,,,,,,,,wg-a,,,,AAXX 16184 07335 12/// /0808 10200 20050 39994 40134 56016 60006 91800 333 10221 20092=
07335,1996-09-17 00:00:00,12,1011.5,-1.8,62,5,0,11.112,,,60,,,,,,,,,,,wg-a,,,,AAXX 17004 07335 12/// /0606 10120 20050 39971 40115 58018 60006 90000=
07335,1996-09-17 06:00:00,7,1010.1,-0.7,81,4,20000,3.704,,,50,7.4,19.9,,,,,,,,,wg-a,,,,AAXX 17064 07335 02/70 40502 10070 20040 39955 40101 55007 60006 80002 90600 333 10199 20074 60004=
07335,1996-09-17 09:00:00,15,1009.7,-0,59,7,25000,7.408,,,70,,,,,,,,,,,wg-a,,,,AAXX 17094 07335 12/75 50704 10150 20070 39955 40097 55000 60006 80002 90900=
07335,1996-09-17 12:00:00,21,1009.1,-0.3,46,9,25000,7.408,,,80,,,,,,,,,,,wg-a,,,,AAXX 17124 07335 12/75 30804 10210 20090 39952 40091 56003 60006 80002 91200=
07335,1996-09-17 15:00:00,24,1007.8,-1.1,41,10,25000,7.408,,,160,,,,,,,,,,,wg-a,,,,AAXX 17154 07335 12775 21604 10240 20100 39941 40078 56011 60006 81102 91500=
07335,1996-09-17 18:00:00,20,1008.5,0.5,53,10,0,7.408,,,210,7.2,24.3,,,,,,,,,wg-a,,,,AAXX 17184 07335 12/// /2104 10200 20100 39946 40085 53005 60006 91800 333 10243 20072=
07335,1996-09-18 00:00:00,11,1008.9,-0.6,94,10,0,11.112,,,230,,,,,,,,,,,wg-a,,,,AAXX 18004 07335 12/// /2306 10110 20100 39945 40089 58006 60006 90000=
07335,1996-09-18 06:00:00,13,1007.4,-0.6,100,13,500,7.408,,,190,8.8,19.9,,,,,,,,43,wg-a,,,,AAXX 18064 07335 02/05 91904 10130 20130 39932 40074 56006 60006 74341 89/// 90600 333 10199 20088 60004=
07335,1996-09-18 09:00:00,14,1006.7,-0.6,100,14,10000,3.704,,,220,,,,,,,,,,1,wg-a,,,,AAXX 18094 07335 12260 82202 10140 20140 39926 40067 55006 60006 70142 886// 90900=
07335,1996-09-18 12:00:00,17,1005.7,-0.9,82,14,10000,11.112,,,30,,,,,,,,,,2,wg-a,,,,AAXX 18124 07335 12460 80306 10170 20140 39917 40057 58009 60006 70242 878// 91200=
07335,1996-09-18 15:00:00,17,1003.7,-2,77,13,10000,7.408,,,50,,,,,,,,,,,wg-a,,,,AAXX 18154 07335 12560 80504 10170 20130 39897 40037 56020 60006 878// 91500=
07335,1996-09-18 18:00:00,16,1002.7,-1,88,14,0,7.408,,,60,12.7,18.4,,,,,,,,,wg-a,,,,AAXX 18184 07335 32/// /0604 10160 20140 39887 40027 56010 91800 333 10184 20127=
07335,1996-09-19 00:00:00,12,1001.6,-1.5,94,11,0,18.52,,,50,,,,,,,,,,,wg-a,,,,AAXX 19004 07335 12/// /0510 10120 20110 39874 40016 58015 60296 90000=
07335,1996-09-19 06:00:00,10,1001.2,0.4,100,10,8000,14.816,,,350,10.2,16.1,,0,,,36,,,20,wg-a,,,,AAXX 19064 07335 02258 83508 10100 20100 39869 40012 53004 60364 72052 887// 90600 333 10161 20102 60007=
07335,1996-09-19 09:00:00,10,1001.9,0.7,93,9,12000,18.52,,,350,,,,,,,,,,21,wg-a,,,,AAXX 19094 07335 02262 83510 10100 20090 39876 40019 53007 61000 72122 887// 90900 333 ////=
07335,1996-09-19 12:00:00,10,1002.2,0.3,100,10,8000,14.816,,,340,,,,1,,,,,,61,wg-a,,,,AAXX 19124 07335 02258 83408 10100 20100 39879 40022 50003 60016 76162 887// 91200 333 60017=
07335,1996-09-19 15:00:00,11,1003.1,0.9,87,9,12000,14.816,,,320,,,,0,,,,,,2,wg-a,,,,AAXX 19154 07335 12362 83208 10110 20090 39888 40031 52009 60007 70262 887// 91500=
07335,1996-09-19 18:00:00,10,1004.4,1.2,93,9,0,7.408,,,280,9.7,10.8,,,,,,,,,wg-a,,,,AAXX 19184 07335 32/// /2804 10100 20090 39900 40044 53012 91800 333 10108 20097=
07335,1996-09-20 00:00:00,10,1005,-0.6,93,9,0,11.112,,,170,,,,,,,,,,,wg-a,,,,AAXX 20004 07335 12/// /1706 10100 20090 39906 40050 58006 60056 90000=
07335,1996-09-20 06:00:00,10,1004.2,-0.1,93,9,3500,7.408,,,230,8.9,9.8,,,,,9,,,10,wg-a,,,,AAXX 20064 07335 12235 82304 10100 20090 39898 40042 55001 60094 71062 875// 90600 333 10098 20089=
07335,1996-09-20 12:00:00,17,1003.4,-0.8,59,9,15000,14.816,,,230,,,,,,,,,,,wg-a,,,,AAXX 20124 07335 12565 72308 10170 20090 39894 40034 58008 60006 83132 91200=
07335,1996-09-20 18:00:00,15,1002.9,-0.1,63,8,0,7.408,,,170,9.5,18.3,,,,,,,,,wg-a,,,,AAXX 20184 07335 12/// /1704 10150 20080 39888 40029 58001 60006 91800 333 10183 20095=
07335,1996-09-21 00:00:00,12,1002.1,-1,82,9,0,3.704,,,80,,,,,,,,,,,wg-a,,,,AAXX 21004 07335 12/// /0802 10120 20090 39879 40021 57010 60006 90000=
07335,1996-09-21 06:00:00,10,1000.7,-0.5,93,9,20000,11.112,,,90,9.2,15.4,,,,,,,,,wg-a,,,,AAXX 21064 07335 02670 /0906 10100 20090 39864 40007 55005 60006 86500 90600 333 10154 20092 60004=
07335,1996-09-21 09:00:00,14,1001.4,0.9,77,10,14000,7.408,,,80,,,,,,,,,,,wg-a,,,,AAXX 21094 07335 12864 60804 10140 20100 39873 40014 52009 60006 86501 90900=
07335,1996-09-21 12:00:00,18,1001.1,-0.1,56,9,25000,14.816,,,90,,,,,,,,,,,wg-a,,,,AAXX 21124 07335 12675 /0908 10180 20090 39872 40011 58001 60006 86801 91200=
07335,1996-09-21 18:00:00,17,1002.6,1.3,59,9,0,22.224,,,30,10.2,19,,,,,,,,,wg-a,,,,AAXX 21184 07335 32/// /0312 10170 20090 39886 40026 53013 91800 333 10190 20102=
07335,1996-09-22 00:00:00,11,1005.9,1.1,87,9,0,14.816,,,20,,,,,,,,,,,wg-a,,,,AAXX 22004 07335 12/// /0208 10110 20090 39916 40059 52011 60006 90000=
07335,1996-09-22 06:00:00,8,1008,1.1,93,7,1700,11.112,,,340,7.9,16.7,,,,,,,,10,wg-a,,,,AAXX 22064 07335 02117 83406 10080 20070 39935 40080 51011 60006 71022 876// 90600 333 10167 20079 60004=
07335,1996-09-22 09:00:00,9,1009.6,1.6,100,9,2000,14.816,,,360,,,,,,,,,,10,wg-a,,,,AAXX 22094 07335 02220 83608 10090 20090 39951 40096 53016 61000 71065 876// 90900 333 ////=
07335,1996-09-22 12:00:00,14,1009.7,0.4,67,8,7000,18.52,,,10,,,,,,,,,,3,wg-a,,,,AAXX 22124 07335 02557 70110 10140 20080 39955 40097 50004 61000 70365 871// 91200 333 6100=
07335,1996-09-22 15:00:00,14,1009.9,0.2,63,7,10000,14.816,,,20,,,,,,,,,,,wg-a,,,,AAXX 22154 07335 12660 20208 10140 20070 39957 40099 52002 60006 82100 91500=
07335,1996-09-22 18:00:00,12,1010.6,0.6,71,7,0,3.704,,,70,7.8,14.3,,,,,,,,,wg-a,,,,AAXX 22184 07335 32/// /0702 10120 20070 39963 40106 51006 91800 333 10143 20078=
07335,1996-09-23 00:00:00,8,1011.6,0,93,7,0,3.704,,,310,,,,,,,,,,,wg-a,,,,AAXX 23004 07335 12/// /3102 10080 20070 39971 40116 50000 60006 90000=
07335,1996-09-23 06:00:00,8,1011.6,0.3,93,7,2500,3.704,,,320,5,12.3,,,,,,,,10,wg-a,,,,AAXX 23064 07335 02725 73202 10080 20070 39970 40116 53003 60006 71022 875// 90600 333 10123 20050 61000=
07335,1996-09-23 09:00:00,11,1012.3,0.9,87,9,3500,7.408,,,350,,,,,,,,,,10,wg-a,,,,AAXX 23094 07335 12735 73504 10110 20090 39979 40123 52009 60006 71022 875// 90900=
07335,1996-09-23 12:00:00,16,1011.5,-0.6,55,7,20000,7.408,,,280,,,,,,,,,,,wg-a,,,,AAXX 23124 07335 12570 52804 10160 20070 39973 40115 58006 60006 82132 91200=
07335,1996-09-23 15:00:00,17,1010.7,-0.7,52,7,20000,7.408,,,340,,,,,,,,,,,wg-a,,,,AAXX 23154 07335 12670 63404 10170 20070 39966 40107 56007 60006 85832 91500=
07335,1996-09-23 18:00:00,12,1011.5,0.6,76,8,0,3.704,,,250,7.7,17.2,,,,,,,,,wg-a,,,,AAXX 23184 07335 12/// /2502 10120 20080 39972 40115 53006 60006 91800 333 10172 20077=
07335,1996-09-24 00:00:00,8,1012.8,-0.1,87,6,0,7.408,,,240,,,,,,,,,,,wg-a,,,,AAXX 24004 07335 12/// /2404 10080 20060 39982 40128 56001 60006 90000=
07335,1996-09-24 06:00:00,6,1013.2,0.7,93,5,6000,3.704,,,200,3.7,12.1,,,,,,,,,wg-a,,,,AAXX 24064 07335 02756 22002 10060 20050 39985 40132 53007 60006 82532 90600 333 10121 20037 60004=
07335,1996-09-24 09:00:00,14,1013.4,0.6,77,10,8000,0,,,0,,,,,,,,,,,wg-a,,,,AAXX 24094 07335 12/58 /0000 10140 20100 39991 40134 51006 60006 80002 90900=
07335,1996-09-24 12:00:00,18,1013,-0.2,45,6,15000,7.408,,,240,,,,,,,,,,,wg-a,,,,AAXX 24124 07335 12665 52404 10180 20060 39989 40130 58002 60006 83102 91200=
07335,1996-09-24 15:00:00,20,1011.8,-1.1,40,6,20000,7.408,,,230,,,,,,,,,,,wg-a,,,,AAXX 24154 07335 12770 52304 10200 20060 39978 40118 56011 60006 83102 91500=
07335,1996-09-24 18:00:00,15,1011.7,-0.3,67,9,0,0,,,0,5.3,20,,,,,,,,,wg-a,,,,AAXX 24184 07335 12/// /0000 10150 20090 39975 40117 56003 60006 91800 333 10200 20053=
07335,1996-09-25 00:00:00,14,1010.1,-1.3,94,13,0,7.408,,,300,,,,,,,,,,,wg-a,,,,AAXX 25004 07335 12/// /3004 10140 20130 39959 40101 56013 60026 90000=
07335,1996-09-25 06:00:00,12,1009.2,-0,100,12,15000,11.112,,,290,12,15.4,,1,,,9,,,21,wg-a,,,,AAXX 25064 07335 02265 72906 10120 20120 39949 40092 54000 60094 72162 8752/ 90600 333 10154 20120 60017=
07335,1996-09-25 09:00:00,15,1010.2,1.1,88,13,25000,11.112,,,240,,,,,,,,,,,wg-a,,,,AAXX 25094 07335 12475 /2406 10150 20130 39960 40102 53011 60006 85830 90900=
07335,1996-09-25 12:00:00,18,1010.1,0.1,73,13,500,18.52,,,230,,,,,,,,,,,wg-a,,,,AAXX 25124 07335 12400 72310 10180 20130 39961 40101 53001 60006 85802 91200=
07335,1996-09-25 15:00:00,15,1011.7,1.4,88,13,25000,18.52,,,250,,,,1,,,,,,25,wg-a,,,,AAXX 25154 07335 12575 72510 10150 20130 39975 40117 53014 60017 72586 879// 91500=
07335,1996-09-25 18:00:00,13,1013.7,1.9,88,11,0,3.704,,,280,12.1,19.2,,,,,,,,,wg-a,,,,AAXX 25184 07335 32/// /2802 10130 20110 39994 40137 53019 91800 333 10192 20121=
07335,1996-09-26 00:00:00,9,1017.9,1.5,100,9,0,3.704,,,200,,,,,,,,,,,wg-a,,,,AAXX 26004 07335 12/// /2002 10090 20090 30033 40179 53015 60006 90000=
07335,1996-09-26 06:00:00,9,1019.8,1.1,100,9,300,11.112,,,210,6.7,13.1,,0,,,1,,,45,wg-a,,,,AAXX 26064 07335 02/03 92106 10090 20090 30052 40198 53011 60014 74541 89/// 90600 333 10131 20067 60007=
07335,1996-09-26 09:00:00,13,1020.6,1,100,13,500,14.816,,,220,,,,,,,,,,1,wg-a,,,,AAXX 26094 07335 12200 72208 10130 20130 30062 40206 51010 60006 70142 876// 90900=
07335,1996-09-26 12:00:00,18,1019.9,-0.5,68,12,20000,18.52,,,220,,,,,,,,,,3,wg-a,,,,AAXX 26124 07335 12570 72210 10180 20120 30057 40199 58005 60006 70342 83152 91200=
07335,1996-09-26 15:00:00,18,1018.2,-1.6,68,12,20000,11.112,,,200,,,,,,,,,,,wg-a,,,,AAXX 26154 07335 12570 82006 10180 20120 30041 40182 56016 60006 8117/ 91500=
07335,1996-09-26 18:00:00,16,1018.4,0.1,82,13,0,11.112,,,240,8.6,18.8,,,,,,,,,wg-a,,,,AAXX 26184 07335 12/// /2406 10160 20130 30042 40184 53001 60006 91800 333 10188 20086=
07335,1996-09-27 00:00:00,14,1016.4,-1.3,82,11,0,25.928,,,210,,,,,,,,,,,wg-a,,,,AAXX 27004 07335 12/// /2114 10140 20110 30021 40164 58013 60016 90000=
07335,1996-09-27 06:00:00,15,1017.3,1,94,14,15000,11.112,,,220,13.3,16.3,,0,,,2,,,,wg-a,,,,AAXX 27064 07335 02465 72206 10150 20140 30030 40173 52010 60024 875// 90600 333 10163 20133 60007=
07335,1996-09-27 09:00:00,18,1017.4,0.3,88,16,20000,18.52,,,260,,,,,,,,,,,wg-a,,,,AAXX 27094 07335 12470 72610 10180 20160 30033 40174 51003 60006 878// 90900=
07335,1996-09-27 12:00:00,20,1018.1,0.8,64,13,500,25.928,,,300,,,,,,,,,,,wg-a,,,,AAXX 27124 07335 12500 43014 10200 20130 30041 40181 53008 60006 82201 91200=
07335,1996-09-27 15:00:00,21,1018.7,0.6,53,11,500,29.632,,,280,,,,,,,,,,,wg-a,,,,AAXX 27154 07335 12600 32816 10210 20110 30047 40187 53006 60006 83200 91500=
07335,1996-09-27 18:00:00,16,1021.4,2.4,77,12,0,11.112,,,280,14.9,21.5,,,,,,,,,wg-a,,,,AAXX 27184 07335 12/// /2806 10160 20120 30071 40214 53024 60006 91800 333 10215 20149=
07335,1996-09-28 00:00:00,9,1025.8,1.5,100,9,0,7.408,,,250,,,,,,,,,,,wg-a,,,,AAXX 28004 07335 12/// /2504 10090 20090 30111 40258 51015 60006 90000=
07335,1996-09-28 06:00:00,5,1027.6,0.8,100,5,8000,0,,,0,4.5,15.7,,,,,,,,11,wg-a,,,,AAXX 28064 07335 02/58 /0000 10050 20050 30127 40276 51008 60006 71100 80002 90600 333 10157 20045 60004=
07335,1996-09-28 09:00:00,11,1028.8,1.5,100,11,1400,7.408,,,210,,,,,,,,,,10,wg-a,,,,AAXX 28094 07335 12114 82104 10110 20110 30142 40288 53015 60006 71011 886// 90900=
07335,1996-09-28 15:00:00,19,1026.6,-1.2,52,9,25000,7.408,,,60,,,,,,,,,,,wg-a,,,,AAXX 28154 07335 12675 /0604 10190 20090 30124 40266 56012 60006 83202 91500=
07335,1996-09-28 18:00:00,16,1026.6,-0.2,68,10,0,7.408,,,180,5,19,,,,,,,,,wg-a,,,,AAXX 28184 07335 32/// /1804 10160 20100 30122 40266 58002 91800 333 10190 20050=
07335,1996-09-29 00:00:00,8,1026.4,-0.9,93,7,0,3.704,,,230,,,,,,,,,,,wg-a,,,,AAXX 29004 07335 12/// /2302 10080 20070 30116 40264 58009 60006 90000=
07335,1996-09-29 06:00:00,7,1025.9,0.1,100,7,15000,3.704,,,200,6.1,15.6,,,,,,,,,wg-a,,,,AAXX 29064 07335 02/65 42002 10070 20070 30111 40259 53001 60006 81032 90600 333 10156 20061 60004=
07335,1996-09-29 09:00:00,16,1026.4,0.9,72,11,15000,11.112,,,220,,,,,,,,,,,wg-a,,,,AAXX 29094 07335 12/65 22206 10160 20110 30120 40264 51009 60006 80002 90900=
07335,1996-09-29 12:00:00,20,1025,-1.1,53,10,20000,14.816,,,230,,,,,,,,,,,wg-a,,,,AAXX 29124 07335 12/70 12308 10200 20100 30109 40250 58011 60006 80002 91200=
07335,1996-09-29 15:00:00,22,1023.9,-1,46,10,20000,18.52,,,250,,,,,,,,,,,wg-a,,,,AAXX 29154 07335 12/70 02510 10220 20100 30099 40239 56010 60006 80000 91500=
07335,1996-09-29 18:00:00,17,1023.2,-1,63,10,0,7.408,,,250,6.2,22.2,,,,,,,,,wg-a,,,,AAXX 29184 07335 12/// /2504 10170 20100 30089 40232 56010 60006 91800 333 10222 20062=
07335,1996-09-30 00:00:00,11,1022.6,-1.1,94,10,0,7.408,,,210,,,,,,,,,,,wg-a,,,,AAXX 30004 07335 12/// /2104 10110 20100 30080 40226 57011 60006 90000=
07335,1996-09-30 06:00:00,13,1019.5,-1.3,100,13,500,7.408,,,210,9.5,16.9,,,,,,,,,wg-a,,,,AAXX 30064 07335 02200 82104 10130 20130 30051 40195 56013 60006 886// 90600 333 10169 20095 60004=
07335,1996-09-30 09:00:00,15,1018.3,-1.1,88,13,12000,11.112,,,220,,,,,,,,,,,wg-a,,,,AAXX 30094 07335 12362 72206 10150 20130 30040 40183 58011 60006 875// 90900=
07335,1996-09-30 12:00:00,21,1013.6,-4.3,64,14,500,14.816,,,180,,,,,,,,,,,wg-a,,,,AAXX 30124 07335 12/00 11808 10210 20140 39997 40136 58043 60006 80001 91200=
07335,1996-09-30 15:00:00,24,1009.9,-3.5,47,12,500,18.52,,,210,,,,,,,,,,,wg-a,,,,AAXX 30154 07335 12/00 12110 10240 20120 39962 40099 56035 60006 81081 91500=
07335,1996-09-30 18:00:00,20,1008.1,-2,64,13,0,7.408,,,210,13.3,24.1,,,,,,,,,wg-a,,,,AAXX 30184 07335 12/// /2104 10200 20130 39942 40081 56020 60006 91800 333 10241 20133=
07335,1996-10-01 00:00:00,14,1007.1,-0.6,94,13,0,14.816,,,190,,,,,,,,,,,wg-a,,,,AAXX 01004 07335 12/// /1908 10140 20130 39929 40071 58006 60116 90000=
07335,1996-10-01 06:00:00,13,1004.9,0.1,94,12,15000,14.816,,,320,12.7,20.1,,8,,,25,,,61,wg-a,,,,AAXX 01064 07335 02365 83208 10130 20120 39907 40049 53001 60254 76162 877// 90600 333 10201 20127 60087=
07335,1996-10-01 09:00:00,11,1008.3,3.3,100,11,8000,22.224,,,340,,,,4,,,,,,61,wg-a,,,,AAXX 01094 07335 12258 83412 10110 20110 39940 40083 51033 60047 76166 877// 90900=
07335,1996-10-01 12:00:00,12,1011.7,3.4,94,11,12000,18.52,,,330,,,,4,,,,,,21,wg-a,,,,AAXX 01124 07335 02462 73310 10120 20110 39974 40117 51034 60086 72162 8687/ 91200 333 60047=
07335,1996-10-01 15:00:00,12,1014.2,2.4,94,11,7000,29.632,,50.004,300,,,,2,,,,,,80,wg-a,,,,AAXX 01154 07335 12257 73016 10120 20110 39998 40142 53024 60027 78086 878// 91500 333 91027=
07335,1996-10-01 18:00:00,12,1016.1,1.9,88,10,0,18.52,,,270,10.9,16.1,,2,,,,,,,wg-a,,,,AAXX 01184 07335 12/// /2710 10120 20100 30017 40161 53019 60027 91800 333 10161 20109=
07335,1996-10-02 00:00:00,9,1016.8,-0.5,93,8,0,14.816,,,230,,,,,,,,,,,wg-a,,,,AAXX 02004 07335 12/// /2308 10090 20080 30022 40168 56005 60066 90000=
07335,1996-10-02 06:00:00,10,1012.3,-2.6,93,9,15000,18.52,,,170,8.5,11.8,,7,,,33,,,21,wg-a,,,,AAXX 02064 07335 02665 /1710 10100 20090 39978 40123 58026 60334 72186 81530 90600 333 10118 20085 60077=
07335,1996-10-02 09:00:00,11,1014.4,2.2,100,11,10000,3.704,,,120,,,,8,,,,,,60,wg-a,,,,AAXX 02094 07335 12260 81202 10110 20110 30000 40144 53022 60087 76062 877// 90900=
07335,1996-10-02 18:00:00,12,1022.5,2.5,82,9,0,7.408,,,350,9.5,15.8,,,,,,,,,wg-a,,,,AAXX 02184 07335 32/// /3504 10120 20090 30080 40225 51025 91800 333 10158 20095=
07335,1996-10-03 00:00:00,7,1027.3,1.6,93,6,0,3.704,,,310,,,,,,,,,,,wg-a,,,,AAXX 03004 07335 12/// /3102 10070 20060 30124 40273 51016 60006 90000=
07335,1996-10-03 06:00:00,4,1028.5,1,100,4,10000,0,,,0,3.1,11.7,,,,,18,,,11,wg-a,,,,AAXX 03064 07335 02/60 /0000 10040 20040 30135 40285 53010 60006 71100 80002 90600 333 10117 20031 60184=
07335,1996-10-03 09:00:00,13,1029.3,1.2,88,11,10000,3.704,,,180,,,,,,,,,,,wg-a,,,,AAXX 03094 07335 12/60 41802 10130 20110 30147 40293 51012 60006 80002 90900=
07335,1996-10-03 12:00:00,17,1028.4,-0.6,63,10,15000,11.112,,,250,,,,,,,,,,,wg-a,,,,AAXX 03124 07335 12565 /2506 10170 20100 30141 40284 58006 60006 81102 91200=
07335,1996-10-03 15:00:00,19,1027,-1.4,49,8,20000,18.52,,,270,,,,,,,,,,,wg-a,,,,AAXX 03154 07335 12670 /2710 10190 20080 30127 40270 56014 60006 81102 91500=
07335,1996-10-03 18:00:00,13,1026.5,-0.7,77,9,0,11.112,,,250,3.9,18.9,,,,,,,,,wg-a,,,,AAXX 03184 07335 12/// /2506 10130 20090 30120 40265 56007 60006 91800 333 10189 20039=
07335,1996-10-04 00:00:00,8,1026.3,-1.2,100,8,0,11.112,,,240,,,,,,,,,,,wg-a,,,,AAXX 04004 07335 12/// /2406 10080 20080 30115 40263 56012 60006 90000=
07335,1996-10-04 06:00:00,12,1023.9,-0.9,94,11,8000,11.112,,,220,8,12.9,,0,,,18,,,21,wg-a,,,,AAXX 04064 07335 02558 82206 10120 20110 30094 40239 57009 60184 72162 875// 90600 333 10129 20080 60007=
07335,1996-10-04 09:00:00,14,1023.4,-0.4,88,12,12000,14.816,,,220,,,,,,,,,,,wg-a,,,,AAXX 04094 07335 12262 72208 10140 20120 30090 40234 58004 60006 875// 90900=
07335,1996-10-04 12:00:00,12,1022.8,-0.7,100,12,4000,18.52,,,340,,,,1,,,,,,61,wg-a,,,,AAXX 04124 07335 02240 83410 10120 20120 30083 40228 55007 60016 76186 885// 91200 333 60017=
07335,1996-10-04 15:00:00,14,1021,-1.7,82,11,15000,7.408,,,300,,,,0,,,,,,1,wg-a,,,,AAXX 04154 07335 12465 73004 10140 20110 30066 40210 58017 60007 70162 878// 91500=
07335,1996-10-04 18:00:00,11,1020.5,-0.6,94,10,0,0,,,0,11,16.4,,,,,,,,,wg-a,,,,AAXX 04184 07335 32/// /0000 10110 20100 30060 40205 55006 91800 333 10164 20110=
07335,1996-10-05 00:00:00,7,1019.4,-1.2,100,7,0,11.112,,,260,,,,,,,,,,,wg-a,,,,AAXX 05004 07335 12/// /2606 10070 20070 30047 40194 58012 60006 90000=
07335,1996-10-05 06:00:00,7,1018.4,-0.1,93,6,20000,11.112,,,280,6.3,11.5,,,,,1,,,,wg-a,,,,AAXX 05064 07335 02/70 12806 10070 20060 30037 40184 55001 60006 81030 90600 333 10115 20063 60014=
07335,1996-10-05 09:00:00,12,1019.8,1.6,82,9,500,18.52,,,320,,,,,,,,,,,wg-a,,,,AAXX 05094 07335 12400 /3210 10120 20090 30053 40198 51016 60006 81100 90900=
07335,1996-10-05 12:00:00,15,1019.3,-0.3,55,6,500,18.52,,,340,,,,,,,,,,,wg-a,,,,AAXX 05124 07335 12600 33410 10150 20060 30050 40193 58003 60006 83200 91200=
07335,1996-10-05 15:00:00,16,1018.6,-0.7,45,4,500,18.52,,,20,,,,,,,,,,,wg-a,,,,AAXX 05154 07335 12600 20210 10160 20040 30043 40186 56007 60006 82200 91500=
07335,1996-10-05 18:00:00,7,1020.6,1.6,93,6,0,7.408,,,320,6.5,15.9,,,,,,,,,wg-a,,,,AAXX 05184 07335 32/// /3204 10070 20060 30059 40206 51016 91800 333 10159 20065=
07335,1996-10-06 00:00:00,6,1022.4,0.3,93,5,0,11.112,,,350,,,,,,,,,,,wg-a,,,,AAXX 06004 07335 12/// /3506 10060 20050 30075 40224 50003 60006 90000=
07335,1996-10-06 06:00:00,4,1023,0.6,100,4,20000,11.112,,,350,3.6,7.5,,,,,3,,,,wg-a,,,,AAXX 06064 07335 12/70 13506 10040 20040 30081 40230 53006 60034 81030 90600 333 10075 20036=
07335,1996-10-06 09:00:00,9,1023.8,1,87,7,20000,22.224,,,30,,,,,,,,,,,wg-a,,,,AAXX 06094 07335 12470 20312 10090 20070 30091 40238 51010 60006 81101 90900=
07335,1996-10-06 12:00:00,14,1022.9,-0.6,63,7,25000,29.632,,,40,,,,,,,,,,,wg-a,,,,AAXX 06124 07335 12575 30416 10140 20070 30085 40229 58006 60006 83100 91200=
07335,1996-10-06 15:00:00,14,1022.2,-0.7,58,6,500,25.928,,,30,,,,,,,,,,,wg-a,,,,AAXX 06154 07335 12600 30314 10140 20060 30078 40222 56007 60006 83200 91500=
07335,1996-10-06 18:00:00,11,1023.3,0.9,71,6,0,11.112,,,20,4,14.5,,,,,,,,,wg-a,,,,AAXX 06184 07335 12/// /0206 10110 20060 30087 40233 53009 60006 91800 333 10145 20040=
07335,1996-10-07 00:00:00,4,1024.2,-0.1,93,3,0,3.704,,,330,,,,,,,,,,,wg-a,,,,AAXX 07004 07335 12/// /3302 10040 20030 30092 40242 58001 60006 90000=
07335,1996-10-07 06:00:00,2,1023.3,-0.3,100,2,1200,7.408,,,320,1.8,10.8,,,,,,,,10,wg-a,,,,AAXX 07064 07335 02112 23204 10020 20020 30082 40233 57003 60006 71000 82600 90600 333 10108 20018 60004=
07335,1996-10-07 09:00:00,7,1023.7,0.7,100,7,6000,11.112,,,340,,,,,,,,,,1,wg-a,,,,AAXX 07094 07335 12156 23406 10070 20070 30089 40237 51007 60006 70141 82600 90900=
07335,1996-10-07 12:00:00,14,1021.9,-1.4,63,7,18000,22.224,,,360,,,,,,,,,,2,wg-a,,,,AAXX 07124 07335 12568 /3612 10140 20070 30075 40219 58014 60006 70241 81100 91200=
07335,1996-10-07 15:00:00,16,1020.9,-0.9,51,6,20000,14.816,,,20,,,,,,,,,,,wg-a,,,,AAXX 07154 07335 12670 /0208 10160 20060 30066 40209 56009 60006 81102 91500=
07335,1996-10-07 18:00:00,9,1022,0.8,76,5,0,11.112,,,320,1.9,15.8,,,,,,,,,wg-a,,,,AAXX 07184 07335 12/// /3206 10090 20050 30074 40220 53008 60006 91800 333 10158 20019=
07335,1996-10-08 00:00:00,7,1022.5,-0.3,100,7,0,11.112,,,320,,,,,,,,,,,wg-a,,,,AAXX 08004 07335 12/// /3206 10070 20070 30077 40225 58003 60006 90000=
07335,1996-10-08 06:00:00,11,1022.2,0.4,94,10,200,3.704,,,10,5.8,10.6,,,,,,,,45,wg-a,,,,AAXX 08064 07335 02/02 90102 10110 20100 30076 40222 53004 60006 74542 89/// 90600 333 10106 20058 60004=
07335,1996-10-08 09:00:00,12,1022.6,0.5,100,12,1500,11.112,,,350,,,,,,,,,,10,wg-a,,,,AAXX 08094 07335 12115 83506 10120 20120 30081 40226 50005 60006 71042 886// 90900=
07335,1996-10-08 12:00:00,14,1022.3,-0.2,88,12,10000,7.408,,,20,,,,,,,,,,1,wg-a,,,,AAXX 08124 07335 12460 70204 10140 20120 30079 40223 58002 60006 70142 875// 91200=
07335,1996-10-08 15:00:00,16,1021.6,-0.6,77,12,20000,14.816,,,340,,,,,,,,,,,wg-a,,,,AAXX 08154 07335 12470 73408 10160 20120 30073 40216 56006 60006 875// 91500=
07335,1996-10-08 18:00:00,13,1022.2,0.4,88,11,0,7.408,,,350,10.5,16,,,,,,,,,wg-a,,,,AAXX 08184 07335 12/// /3504 10130 20110 30077 40222 53004 60006 91800 333 10160 20105=
07335,1996-10-09 00:00:00,12,1022.5,-0.4,94,11,0,7.408,,,310,,,,,,,,,,,wg-a,,,,AAXX 09004 07335 12/// /3104 10120 20110 30080 40225 58004 60006 90000=
07335,1996-10-09 06:00:00,11,1022,0.2,100,11,8000,3.704,,,280,10.4,12.6,,,,,,,,,wg-a,,,,AAXX 09064 07335 02758 82802 10110 20110 30075 40220 53002 60006 875// 90600 333 10126 20104 60004=
07335,1996-10-09 09:00:00,14,1022.9,1,88,12,8000,7.408,,,320,,,,,,,,,,,wg-a,,,,AAXX 09094 07335 12758 73204 10140 20120 30085 40229 51010 60006 875// 90900=
07335,1996-10-09 12:00:00,16,1022.3,-0.5,77,12,15000,11.112,,,320,,,,,,,,,,,wg-a,,,,AAXX 09124 07335 12465 73206 10160 20120 30080 40223 58005 60006 878// 91200=
07335,1996-10-09 15:00:00,16,1021.6,-0.7,72,11,15000,11.112,,,340,,,,,,,,,,,wg-a,,,,AAXX 09154 07335 12565 73406 10160 20110 30073 40216 56007 60006 858// 91500=
07335,1996-10-09 18:00:00,13,1022.4,0.7,94,12,0,3.704,,,310,11.3,17.5,,,,,,,,,wg-a,,,,AAXX 09184 07335 32/// /3102 10130 20120 30080 40224 53007 91800 333 10175 20113=
07335,1996-10-10 00:00:00,11,1023.8,0.1,87,9,0,11.112,,,350,,,,,,,,,,,wg-a,,,,AAXX 10004 07335 12/// /3506 10110 20090 30092 40238 50001 60006 90000=
07335,1996-10-10 06:00:00,5,1024.1,0.4,100,5,6000,7.408,,,340,4.9,13.4,,,,,1,,,11,wg-a,,,,AAXX 10064 07335 02756 /3404 10050 20050 30092 40241 52004 60006 71100 81500 90600 333 10134 20049 60014=
07335,1996-10-10 09:00:00,11,1024.9,1.1,82,8,6000,7.408,,,50,,,,,,,,,,,wg-a,,,,AAXX 10094 07335 12456 70504 10110 20080 30103 40249 51011 60006 875// 90900=
07335,1996-10-10 12:00:00,12,1024.5,-0.3,82,9,12000,11.112,,,50,,,,,,,,,,,wg-a,,,,AAXX 10124 07335 12462 70506 10120 20090 30100 40245 58003 60006 878// 91200=
07335,1996-10-10 15:00:00,13,1023.6,-0.9,77,9,12000,11.112,,,100,,,,,,,,,,,wg-a,,,,AAXX 10154 07335 12462 41006 10130 20090 30091 40236 57009 60006 84800 91500=
07335,1996-10-10 18:00:00,11,1024.1,0.4,82,8,0,3.704,,,70,5.1,13.6,,,,,,,,,wg-a,,,,AAXX 10184 07335 12/// /0702 10110 20080 30095 40241 53004 60006 91800 333 10136 20051=
07335,1996-10-11 00:00:00,5,1023.5,-1.1,100,5,0,3.704,,,320,,,,,,,,,,,wg-a,,,,AAXX 11004 07335 12/// /3202 10050 20050 30086 40235 57011 60006 90000=
07335,1996-10-11 06:00:00,9,1021.6,-0.5,100,9,500,7.408,,,90,4.5,11,,0,,,,,,43,wg-a,,,,AAXX 11064 07335 02/05 90904 10090 20090 30070 40216 58005 60004 74342 89/// 90600 333 10110 20045 60007=
07335,1996-10-11 09:00:00,10,1022.1,0.5,93,9,2500,7.408,,,90,,,,,,,,,,10,wg-a,,,,AAXX 11094 07335 12125 80904 10100 20090 30075 40221 51005 60006 71042 886// 90900=
07335,1996-10-11 12:00:00,12,1020.5,-1.5,88,10,8000,11.112,,,110,,,,,,,,,,1,wg-a,,,,AAXX 11124 07335 12358 71106 10120 20100 30060 40205 58015 60006 70142 876// 91200=
07335,1996-10-11 15:00:00,16,1018.5,-1.8,68,10,20000,3.704,,,110,,,,,,,,,,,wg-a,,,,AAXX 11154 07335 12/70 71102 10160 20100 30042 40185 56018 60006 80001 91500=
07335,1996-10-11 18:00:00,12,1017.8,-0.9,76,8,0,3.704,,,80,9.1,16.1,,,,,,,,,wg-a,,,,AAXX 11184 07335 12/// /0802 10120 20080 30033 40178 56009 60006 91800 333 10161 20091=
07335,1996-10-12 00:00:00,6,1016.4,-1.1,93,5,0,0,,,0,,,,,,,,,,,wg-a,,,,AAXX 12004 07335 12/// /0000 10060 20050 30017 40164 56011 60006 90000=
07335,1996-10-12 06:00:00,6,1014.4,-0.9,93,5,7000,7.408,,,160,3.1,12.5,,,,,,,,11,wg-a,,,,AAXX 12064 07335 02/57 21604 10060 20050 39997 40144 56009 60006 71100 80002 90600 333 10125 20031 60004=
07335,1996-10-12 09:00:00,13,1014,0,82,10,10000,14.816,,,180,,,,,,,,,,,wg-a,,,,AAXX 12094 07335 12/60 21808 10130 20100 39997 40140 50000 60006 80002 90900=
07335,1996-10-12 12:00:00,19,1011.8,-1.9,60,11,20000,22.224,,,200,,,,,,,,,,,wg-a,,,,AAXX 12124 07335 12/70 22012 10190 20110 39978 40118 58019 60006 80002 91200=
07335,1996-10-12 15:00:00,19,1010.4,-1.4,60,11,25000,18.52,,,200,,,,,,,,,,,wg-a,,,,AAXX 12154 07335 12/75 22010 10190 20110 39964 40104 56014 60006 80002 91500=
07335,1996-10-12 18:00:00,15,1010,-0.5,77,11,0,7.408,,,170,5.8,20,,,,,,,,,wg-a,,,,AAXX 12184 07335 12/// /1704 10150 20110 39959 40100 56005 60006 91800 333 10200 20058=
07335,1996-10-13 00:00:00,14,1008.4,-0.9,77,10,0,18.52,,,180,,,,,,,,,,,wg-a,,,,AAXX 13004 07335 12/// /1810 10140 20100 39942 40084 58009 60006 90000=
07335,1996-10-13 06:00:00,14,1005.7,-0.8,72,9,15000,18.52,,,170,12.8,15.4,,,,,,,,,wg-a,,,,AAXX 13064 07335 02765 11710 10140 20090 39915 40057 58008 60006 81502 90600 333 10154 20128 60004=
07335,1996-10-13 09:00:00,18,1005.5,-0,64,11,18000,29.632,,,180,,,,,,,,,,,wg-a,,,,AAXX 13094 07335 12/68 21816 10180 20110 39915 40055 55000 60006 81082 90900=
07335,1996-10-13 12:00:00,21,1003.7,-1.6,53,11,20000,29.632,,,190,,,,,,,,,,,wg-a,,,,AAXX 13124 07335 12/70 11916 10210 20110 39899 40037 58016 60006 81032 91200=
07335,1996-10-13 15:00:00,21,1002.7,-1,53,11,20000,18.52,,,180,,,,,,,,,,,wg-a,,,,AAXX 13154 07335 12670 71810 10210 20110 39889 40027 55010 60006 8125/ 91500=
07335,1996-10-13 18:00:00,17,1002.5,-0.4,63,10,0,11.112,,,160,13.8,21.7,,,,,,,,,wg-a,,,,AAXX 13184 07335 12/// /1606 10170 20100 39885 40025 56004 60006 91800 333 10217 20138=
07335,1996-10-14 00:00:00,16,1002.7,-0.1,72,11,0,14.816,,,170,,,,,,,,,,,wg-a,,,,AAXX 14004 07335 12/// /1708 10160 20110 39887 40027 58001 60006 90000=
07335,1996-10-14 06:00:00,11,1002.9,0.5,94,10,20000,0,,,0,10.7,17.4,,,,,,,,,wg-a,,,,AAXX 14064 07335 02/70 60000 10110 20100 39886 40029 53005 60006 83032 90600 333 10174 20107 60004=
07335,1996-10-14 09:00:00,16,1004,1.4,77,12,15000,7.408,,,140,,,,,,,,,,,wg-a,,,,AAXX 14094 07335 12565 71404 10160 20120 39900 40040 51014 60006 8583/ 90900=
07335,1996-10-14 12:00:00,16,1003.6,-0.4,88,14,20000,14.816,,,190,,,,1,,,,,,21,wg-a,,,,AAXX 14124 07335 02570 81908 10160 20140 39896 40036 58004 60016 72162 8687/ 91200 333 60017=
07335,1996-10-14 15:00:00,18,1003.1,-0.4,83,15,20000,14.816,,,210,,,,,,,,,,,wg-a,,,,AAXX 14154 07335 12470 72108 10180 20150 39892 40031 56004 60006 85832 91500=
07335,1996-10-14 18:00:00,15,1004.8,1.5,82,12,0,3.704,,,210,10.8,18.6,,,,,,,,,wg-a,,,,AAXX 14184 07335 32/// /2102 10150 20120 39907 40048 53015 91800 333 10186 20108=
07335,1996-10-15 00:00:00,14,1007.2,0.9,94,13,0,11.112,,,220,,,,,,,,,,,wg-a,,,,AAXX 15004 07335 12/// /2206 10140 20130 39930 40072 52009 60006 90000=
07335,1996-10-15 06:00:00,10,1010.2,1.3,100,10,15000,14.816,,,260,9.5,14.5,,,,,1,,,,wg-a,,,,AAXX 15064 07335 02/65 72608 10100 20100 39958 40102 51013 60006 82036 90600 333 10145 20095 60014=
07335,1996-10-15 09:00:00,14,1011.8,1.8,88,12,20000,22.224,,,290,,,,,,,,,,,wg-a,,,,AAXX 15094 07335 12470 72912 10140 20120 39976 40118 53018 60006 82132 90900=
07335,1996-10-15 12:00:00,16,1012.4,0.7,59,8,500,18.52,,,290,,,,,,,,,,,wg-a,,,,AAXX 15124 07335 12500 62910 10160 20080 39983 40124 50007 60006 84102 91200=
07335,1996-10-15 15:00:00,16,1011.7,-0.7,68,10,20000,22.224,,,270,,,,,,,,,,25,wg-a,,,,AAXX 15154 07335 02670 72712 10160 20100 39976 40117 56007 61000 72511 878// 91500 333 ////=
07335,1996-10-15 18:00:00,13,1013.4,1.5,82,10,0,7.408,,,220,10.2,18.1,,,,,,,,,wg-a,,,,AAXX 15184 07335 32/// /2204 10130 20100 39991 40134 53015 91800 333 10181 20102=
07335,1996-10-16 00:00:00,7,1014.8,-0.2,87,5,0,14.816,,,290,,,,,,,,,,,wg-a,,,,AAXX 16004 07335 12/// /2908 10070 20050 30001 40148 55002 60006 90000=
07335,1996-10-16 06:00:00,4,1014.4,-0.4,100,4,10000,3.704,,,220,3.3,12.7,,,,,,,,,wg-a,,,,AAXX 16064 07335 02/60 12202 10040 20040 39996 40144 58004 60006 80002 90600 333 10127 20033 61000=
07335,1996-10-16 09:00:00,12,1013.7,-0.3,76,8,18000,14.816,,,210,,,,,,,,,,,wg-a,,,,AAXX 16094 07335 12768 12108 10120 20080 39993 40137 58003 60006 81532 90900=
07335,1996-10-16 12:00:00,15,1012.2,-1.3,63,8,20000,18.52,,,270,,,,,,,,,,,wg-a,,,,AAXX 16124 07335 12570 52710 10150 20080 39980 40122 58013 60006 84132 91200=
07335,1996-10-16 15:00:00,14,1011.1,-1.1,67,8,20000,18.52,,,250,,,,,,,,,,,wg-a,,,,AAXX 16154 07335 12670 62510 10140 20080 39969 40111 56011 60006 85832 91500=
07335,1996-10-16 18:00:00,12,1011.5,0.2,82,9,0,11.112,,,210,3.1,16.4,,,,,,,,,wg-a,,,,AAXX 16184 07335 12/// /2106 10120 20090 39971 40115 53002 60006 91800 333 10164 20031=
07335,1996-10-17 00:00:00,9,1009.8,-1.2,93,8,0,11.112,,,200,,,,,,,,,,,wg-a,,,,AAXX 17004 07335 12/// /2006 10090 20080 39953 40098 58012 60006 90000=
07335,1996-10-17 06:00:00,7,1010.1,1.4,93,6,25000,14.816,,,260,6.2,11.5,,0,,,17,,,,wg-a,,,,AAXX 17064 07335 02/75 12608 10070 20060 39955 40101 52014 60174 81030 90600 333 10115 20062 60007=
07335,1996-10-17 09:00:00,10,1011.7,1.7,82,7,500,14.816,,,300,,,,,,,,,,,wg-a,,,,AAXX 17094 07335 12400 /3008 10100 20070 39972 40117 51017 60006 81100 90900=
07335,1996-10-17 12:00:00,13,1011.7,0.2,62,6,500,11.112,,,310,,,,,,,,,,,wg-a,,,,AAXX 17124 07335 12500 23106 10130 20060 39974 40117 50002 60006 82200 91200=
07335,1996-10-17 15:00:00,14,1011.7,0,58,6,500,11.112,,,290,,,,,,,,,,,wg-a,,,,AAXX 17154 07335 12600 32906 10140 20060 39974 40117 50000 60006 83200 91500=
07335,1996-10-17 18:00:00,8,1012.9,0.9,76,4,0,7.408,,,220,6.3,14.4,,,,,,,,,wg-a,,,,AAXX 17184 07335 12/// /2204 10080 20040 39983 40129 53009 60006 91800 333 10144 20063=
07335,1996-10-18 00:00:00,3,1014.3,0.4,93,2,0,3.704,,,170,,,,,,,,,,,wg-a,,,,AAXX 18004 07335 12/// /1702 10030 20020 39994 40143 53004 60006 90000=
07335,1996-10-18 06:00:00,6,1013.2,-0.2,93,5,20000,11.112,,,160,2.3,7.7,,,,,,,,,wg-a,,,,AAXX 18064 07335 02770 71606 10060 20050 39985 40132 58002 60006 8255/ 90600 333 10077 20023 60004=
07335,1996-10-18 09:00:00,10,1013.3,0.3,87,8,15000,14.816,,,180,,,,0,,,,,,21,wg-a,,,,AAXX 18094 07335 12465 81808 10100 20080 39988 40133 50003 60007 72162 8557/ 90900=
07335,1996-10-18 12:00:00,12,1013.2,0,94,11,6000,18.52,,,200,,,,,,,,,,50,wg-a,,,,AAXX 18124 07335 02256 82010 10120 20110 39988 40132 50000 60006 75065 885// 91200 333 61000=
07335,1996-10-18 15:00:00,17,1013,0.1,68,11,20000,25.928,,42.596,260,,,,,,,,,,1,wg-a,,,,AAXX 18154 07335 02470 32614 10170 20110 39989 40130 53001 61000 70151 82102 91500 333 //// 91023=
07335,1996-10-18 18:00:00,13,1015.7,2.5,82,10,0,18.52,,,250,5.7,17.7,,,,,,,,,wg-a,,,,AAXX 18184 07335 32/// /2510 10130 20100 30014 40157 53025 91800 333 10177 20057=
07335,1996-10-19 00:00:00,14,1018.1,0.7,94,13,0,18.52,,,250,,,,,,,,,,,wg-a,,,,AAXX 19004 07335 12/// /2510 10140 20130 30038 40181 53007 60016 90000=
07335,1996-10-19 06:00:00,13,1021.3,2.2,88,11,15000,14.816,,,290,12.2,13.7,,,,,1,,,,wg-a,,,,AAXX 19064 07335 12765 72908 10130 20110 30068 40213 52022 60014 8553/ 90600 333 10137 20122=
07335,1996-10-19 09:00:00,14,1024.5,3.3,88,12,15000,18.52,,,290,,,,,,,,,,,wg-a,,,,AAXX 19094 07335 12765 62910 10140 20120 30101 40245 51033 60006 83530 90900=
07335,1996-10-19 12:00:00,16,1026,1.6,72,11,20000,14.816,,,280,,,,,,,,,,,wg-a,,,,AAXX 19124 07335 12670 62808 10160 20110 30117 40260 51016 60006 84831 91200=
07335,1996-10-19 15:00:00,17,1026.4,0.4,68,11,20000,14.816,,,280,,,,,,,,,,,wg-a,,,,AAXX 19154 07335 12570 /2808 10170 20110 30121 40264 52004 60006 85831 91500=
07335,1996-10-19 18:00:00,12,1027.9,1.2,88,10,0,7.408,,,200,11.7,17.6,,,,,,,,,wg-a,,,,AAXX 19184 07335 12/// /2004 10120 20100 30133 40279 52012 60006 91800 333 10176 20117=
07335,1996-10-20 12:00:00,17,1025.7,-1.5,72,12,15000,14.816,,,190,,,,,,,,,,3,wg-a,,,,AAXX 20124 07335 12/65 71908 10170 20120 30114 40257 58015 60006 70341 85032 91200=
07335,1996-10-20 15:00:00,18,1024.5,-1.1,68,12,15000,11.112,,,220,,,,,,,,,,,wg-a,,,,AAXX 20154 07335 12/65 72206 10180 20120 30103 40245 57011 60006 8707/ 91500=
07335,1996-10-20 18:00:00,16,1024.2,-0.4,77,12,0,11.112,,,200,7.9,18.9,,,,,,,,,wg-a,,,,AAXX 20184 07335 12/// /2006 10160 20120 30099 40242 57004 60006 91800 333 10189 20079=
07335,1996-10-21 00:00:00,15,1024.2,-0.2,94,14,0,14.816,,,230,,,,,,,,,,,wg-a,,,,AAXX 21004 07335 12/// /2308 10150 20140 30098 40242 58002 60006 90000=
07335,1996-10-21 06:00:00,16,1023,-0,94,15,15000,14.816,,,250,14.1,16,,0,,,,,,2,wg-a,,,,AAXX 21064 07335 02265 82508 10160 20150 30087 40230 55000 60004 70252 887// 90600 333 10160 20141 60007=
07335,1996-10-21 09:00:00,17,1024,1.1,94,16,25000,14.816,,,250,,,,,,,,,,20,wg-a,,,,AAXX 21094 07335 02275 72508 10170 20160 30098 40240 51011 61000 72052 877// 90900 333 ////=
07335,1996-10-21 12:00:00,17,1024.4,0.4,94,16,12000,11.112,,,350,,,,,,,,,,51,wg-a,,,,AAXX 21124 07335 02262 83506 10170 20160 30102 40244 51004 61000 75165 887// 91200 333 6100=
07335,1996-10-21 15:00:00,20,1023.4,-0.9,78,16,500,11.112,,,280,,,,0,,,,,,1,wg-a,,,,AAXX 21154 07335 12500 22806 10200 20160 30093 40234 57009 60007 70165 82801 91500=
07335,1996-10-21 18:00:00,14,1024.7,1,94,13,0,7.408,,,250,13.7,20.8,,,,,,,,,wg-a,,,,AAXX 21184 07335 32/// /2504 10140 20130 30103 40247 53010 91800 333 10208 20137=
07335,1996-10-22 00:00:00,8,1024.8,-0.9,100,8,0,3.704,,,10,,,,,,,,,,,wg-a,,,,AAXX 22004 07335 12/// /0102 10080 20080 30101 40248 58009 60006 90000=
07335,1996-10-22 06:00:00,9,1024.5,0.3,100,9,200,0,,,0,7.1,13.7,,0,,,1,,,45,wg-a,,,,AAXX 22064 07335 02/02 90000 10090 20090 30098 40245 51003 60014 74542 89/// 90600 333 10137 20071 60007=
07335,1996-10-22 09:00:00,10,1024.9,0.5,100,10,300,7.408,,,90,,,,,,,,,,43,wg-a,,,,AAXX 22094 07335 12/03 90904 10100 20100 30103 40249 50005 60006 74344 89/// 90900=
07335,1996-10-22 12:00:00,15,1023.4,-1.2,88,13,12000,11.112,,,90,,,,,,,,,,1,wg-a,,,,AAXX 22124 07335 12462 /0906 10150 20130 30091 40234 58012 60006 70141 81100 91200=
07335,1996-10-22 15:00:00,18,1021.4,-1.9,64,11,500,14.816,,,80,,,,,,,,,,,wg-a,,,,AAXX 22154 07335 12/00 10808 10180 20110 30072 40214 58019 60006 80001 91500=
07335,1996-10-22 18:00:00,15,1021.5,-0,72,10,0,11.112,,,80,9.1,18.1,,,,,,,,,wg-a,,,,AAXX 22184 07335 12/// /0806 10150 20100 30072 40215 55000 60006 91800 333 10181 20091=
07335,1996-10-23 00:00:00,11,1019.5,-1.6,82,8,0,11.112,,,100,,,,,,,,,,,wg-a,,,,AAXX 23004 07335 12/// /1006 10110 20080 30050 40195 57016 60006 90000=
07335,1996-10-23 06:00:00,7,1019,0.1,87,5,12000,3.704,,,60,6.7,14.8,,,,,,,,,wg-a,,,,AAXX 23064 07335 02/62 10602 10070 20050 30043 40190 52001 60006 80002 90600 333 10148 20067 60004=
07335,1996-10-23 15:00:00,23,1016.9,-1.2,47,11,25000,7.408,,,150,,,,,,,,,,,wg-a,,,,AAXX 23154 07335 12/75 21504 10230 20110 30030 40169 56012 60006 81032 91500=
07335,1996-10-23 18:00:00,14,1018.1,0.8,82,11,0,0,,,0,7,23,,,,,,,,,wg-a,,,,AAXX 23184 07335 12/// /0000 10140 20110 30038 40181 53008 60006 91800 333 10230 20070=
07335,1996-10-24 00:00:00,10,1018.7,0.2,93,9,0,3.704,,,170,,,,,,,,,,,wg-a,,,,AAXX 24004 07335 12/// /1702 10100 20090 30041 40187 50002 60006 90000=
07335,1996-10-24 06:00:00,9,1019.3,0.1,93,8,15000,7.408,,,150,7.7,13.7,,0,,,,,,,wg-a,,,,AAXX 24064 07335 02/65 41504 10090 20080 30047 40193 53001 60004 81032 90600 333 10137 20077 60007=
07335,1996-10-24 09:00:00,14,1019.6,0.6,77,10,20000,11.112,,,200,,,,,,,,,,,wg-a,,,,AAXX 24094 07335 12/70 42006 10140 20100 30053 40196 51006 60006 80002 90900=
07335,1996-10-24 12:00:00,21,1018.2,-1.1,56,12,20000,14.816,,,190,,,,,,,,,,,wg-a,,,,AAXX 24124 07335 12/70 31908 10210 20120 30042 40182 58011 60006 80002 91200=
07335,1996-10-24 15:00:00,21,1017.2,-1,56,12,25000,11.112,,,200,,,,,,,,,,,wg-a,,,,AAXX 24154 07335 12/75 32006 10210 20120 30032 40172 55010 60006 80002 91500=
07335,1996-10-24 18:00:00,16,1018,0.6,77,12,0,11.112,,,160,8.3,21.8,,,,,,,,,wg-a,,,,AAXX 24184 07335 12/// /1606 10160 20120 30038 40180 51006 60006 91800 333 10218 20083=
07335,1996-10-25 00:00:00,14,1018.5,0.7,88,12,0,14.816,,,220,,,,,,,,,,,wg-a,,,,AAXX 25004 07335 12/// /2208 10140 20120 30042 40185 53007 60006 90000=
07335,1996-10-25 06:00:00,12,1020.1,1.1,94,11,12000,18.52,,,210,12.2,16,,,,,,,,,wg-a,,,,AAXX 25064 07335 02762 22110 10120 20110 30057 40201 53011 60006 82500 90600 333 10160 20122 60004=
07335,1996-10-25 09:00:00,13,1022.9,2.8,94,12,8000,14.816,,,240,,,,,,,,,,,wg-a,,,,AAXX 25094 07335 12558 72408 10130 20120 30085 40229 51028 60006 875// 90900=
07335,1996-10-26 15:00:00,15,1026.7,-0.4,82,12,20000,14.816,,,240,,,,0,,,,,,1,wg-a,,,,AAXX 26154 07335 12470 72408 10150 20120 30123 40267 55004 60007 70162 83872 91500=
07335,1996-10-26 18:00:00,12,1027.3,0.4,94,11,0,3.704,,,220,9,15.5,,,,,,,,,wg-a,,,,AAXX 26184 07335 32/// /2202 10120 20110 30127 40273 53004 91800 333 10155 20090=
07335,1996-10-27 00:00:00,12,1025.9,-0.5,100,12,0,7.408,,,190,,,,,,,,,,,wg-a,,,,AAXX 27004 07335 12/// /1904 10120 20120 30114 40259 58005 60006 90000=
07335,1996-10-27 06:00:00,9,1024.3,-0.5,100,9,8000,7.408,,,190,9.1,12.3,,,,,,,,,wg-a,,,,AAXX 27064 07335 12/58 /1904 10090 20090 30096 40243 58005 60004 81032 90600 333 10123 20091=
07335,1996-10-27 09:00:00,13,1024.1,0,94,12,15000,11.112,,,210,,,,,,,,,,,wg-a,,,,AAXX 27094 07335 12/65 82106 10130 20120 30096 40241 50000 60006 83032 90900=
07335,1996-10-27 12:00:00,17,1022.5,-1.4,68,11,18000,18.52,,,210,,,,,,,,,,,wg-a,,,,AAXX 27124 07335 12/68 82110 10170 20110 30082 40225 58014 60006 82032 91200=
07335,1996-10-27 15:00:00,17,1020.7,-1.7,72,12,20000,22.224,,,240,,,,,,,,,,,wg-a,,,,AAXX 27154 07335 12570 82412 10170 20120 30065 40207 56017 60006 84102 91500=
07335,1996-10-27 18:00:00,13,1020.8,-0.1,88,11,0,7.408,,,210,9.1,17.7,,,,,,,,,wg-a,,,,AAXX 27184 07335 12/// /2104 10130 20110 30064 40208 58001 60006 91800 333 10177 20091=
07335,1996-10-28 00:00:00,6,1019.8,-1,93,5,0,0,,,0,,,,,,,,,,,wg-a,,,,AAXX 28004 07335 12/// /0000 10060 20050 30050 40198 58010 60006 90000=
07335,1996-10-28 06:00:00,11,1016.2,-1.4,87,9,20000,18.52,,,210,6,13.2,,,,,,,,,wg-a,,,,AAXX 28064 07335 12/70 62110 10110 20090 30017 40162 56014 60004 86031 90600 333 10132 20060=
07335,1996-10-28 09:00:00,12,1016.3,0.2,94,11,3000,18.52,,,200,,,,,,,,,,50,wg-a,,,,AAXX 28094 07335 02330 82010 10120 20110 30019 40163 50002 61000 75052 877// 90900 333 ////=
07335,1996-10-28 12:00:00,14,1014.7,-1.5,100,14,2500,22.224,,,210,,,,,,,,,,50,wg-a,,,,AAXX 28124 07335 02225 82112 10140 20140 30004 40147 58015 61000 75052 887// 91200 333 6100=
07335,1996-10-28 15:00:00,16,1013.3,-1.3,88,14,500,31.484,,,240,,,,0,,,,,,60,wg-a,,,,AAXX 28154 07335 12400 82417 10160 20140 39991 40133 56013 60007 76065 882// 91500=
07335,1996-10-29 00:00:00,12,1013.9,0.4,82,9,0,22.224,,,240,,,,,,,,,,,wg-a,,,,AAXX 29004 07335 12/// /2412 10120 20090 39995 40139 51004 60016 90000=
07335,1996-10-29 06:00:00,12,1015.2,1.5,82,9,25000,25.928,,,260,11.2,14.3,,,,,1,,,,wg-a,,,,AAXX 29064 07335 12575 52614 10120 20090 30008 40152 51015 60014 85830 90600 333 10143 20112=
07335,1996-10-29 09:00:00,13,1017.7,2.5,77,9,25000,25.928,,,270,,,,,,,,,,,wg-a,,,,AAXX 29094 07335 12475 42714 10130 20090 30033 40177 53025 60006 81132 90900=
07335,1996-10-29 12:00:00,14,1019,1.4,58,6,20000,29.632,,,290,,,,,,,,,,,wg-a,,,,AAXX 29124 07335 12670 72916 10140 20060 30047 40190 51014 60006 8583/ 91200=
07335,1996-10-29 15:00:00,13,1020.8,1.7,67,7,15000,22.224,,,320,,,,,,,,,,,wg-a,,,,AAXX 29154 07335 12565 73212 10130 20070 30064 40208 53017 60006 878// 91500=
07335,1996-10-29 18:00:00,11,1023.9,2.9,87,9,15000,11.112,,,330,10.5,14.9,,0,,,,,,60,wg-a,,,,AAXX 29184 07335 12365 83306 10110 20090 30093 40239 53029 60007 76062 878// 91800 333 10149 20105=
07335,1996-10-30 00:00:00,7,1028.2,1.6,87,5,0,7.408,,,340,,,,,,,,,,,wg-a,,,,AAXX 30004 07335 12/// /3404 10070 20050 30133 40282 51016 60006 90000=
07335,1996-10-30 06:00:00,0,1030.4,0.6,93,-1,15000,0,,,0,0.2,10.5,,,,,,,,,wg-a,,,,AAXX 30064 07335 12/65 10000 10000 21010 30151 40304 53006 60004 81031 90600 333 10105 20002=
07335,1996-10-30 09:00:00,7,1031.6,1.6,87,5,12000,0,,,0,,,,,,,,,,,wg-a,,,,AAXX 30094 07335 12/62 40000 10070 20050 30167 40316 51016 60006 81032 90900=
07335,1996-10-30 12:00:00,13,1031.3,0,51,3,25000,7.408,,,350,,,,,,,,,,,wg-a,,,,AAXX 30124 07335 12675 /3504 10130 20030 30167 40313 50000 60006 86231 91200=
07335,1996-10-30 15:00:00,12,1030.7,-0.6,82,9,25000,7.408,,,40,,,,,,,,,,,wg-a,,,,AAXX 30154 07335 12675 30404 10120 20090 30161 40307 56006 60006 83430 91500=
07335,1996-10-30 18:00:00,5,1030.8,-0.3,87,3,15000,3.704,,,100,-0.1,14,,,,,,,,,wg-a,,,,AAXX 30184 07335 12/65 11002 10050 20030 30158 40308 55003 60006 80002 91800 333 10140 21001=
07335,1996-10-31 00:00:00,3,1029.7,-1.2,93,2,0,3.704,,,160,,,,,,,,,,,wg-a,,,,AAXX 31004 07335 12/// /1602 10030 20020 30146 40297 58012 60006 90000=
07335,1996-10-31 06:00:00,1,1028.2,-0.5,93,0,12000,7.408,,,200,-1.1,8,,,,,,,,,wg-a,,,,AAXX 31064 07335 02/62 12004 10010 20000 30130 40282 58005 60006 80002 90600 333 10080 21011 60004=
07335,1996-10-31 09:00:00,6,1028.2,0.3,87,4,12000,11.112,,,210,,,,,,,,,,,wg-a,,,,AAXX 31094 07335 12562 /2106 10060 20040 30133 40282 50003 60006 8453/ 90900=
07335,1996-10-31 12:00:00,13,1026.4,-1.4,72,8,15000,22.224,,,220,,,,,,,,,,,wg-a,,,,AAXX 31124 07335 12565 52212 10130 20080 30119 40264 58014 60006 82532 91200=
07335,1996-10-31 15:00:00,13,1025.2,-1.2,77,9,15000,18.52,,,220,,,,,,,,,,,wg-a,,,,AAXX 31154 07335 12565 82210 10130 20090 30107 40252 56012 60006 875// 91500=
07335,1996-10-31 18:00:00,12,1024.9,-0.3,94,11,12000,18.52,,,220,-0.6,14.2,,,,,,,,,wg-a,,,,AAXX 31184 07335 12362 82210 10120 20110 30104 40249 55003 60006 875// 91800 333 10142 21006=
07335,1996-11-01 00:00:00,13,1026.1,0.4,94,12,0,18.52,,,260,,,,,,,,,,,wg-a,,,,AAXX 01004 07335 12/// /2610 10130 20120 30116 40261 52004 60016 90000=
07335,1996-11-01 06:00:00,13,1028.6,1.3,94,12,500,11.112,,,240,12.1,13.6,,,,,,,,,wg-a,,,,AAXX 01064 07335 12400 82406 10130 20120 30141 40286 53013 60004 875// 90600 333 10136 20121=
07335,1996-11-01 09:00:00,14,1030.7,2.1,94,13,20000,11.112,,,250,,,,1,,,,,,2,wg-a,,,,AAXX 01094 07335 12570 72506 10140 20130 30162 40307 51021 60017 70265 875// 90900=
07335,1996-11-01 12:00:00,15,1031.3,0.6,82,12,25000,14.816,,,290,,,,,,,,,,3,wg-a,,,,AAXX 01124 07335 12475 82908 10150 20120 30168 40313 50006 60016 70365 875// 91200=
07335,1996-11-01 15:00:00,15,1031.1,-0.2,88,13,20000,7.408,,,300,,,,,,,,,,,wg-a,,,,AAXX 01154 07335 12470 83004 10150 20130 30166 40311 55002 60006 875// 91500=
07335,1996-11-01 18:00:00,13,1031.9,0.8,100,13,0,3.704,,,230,12.6,15,,,,,,,,,wg-a,,,,AAXX 01184 07335 32/// /2302 10130 20130 30174 40319 53008 91800 333 10150 20126=
07335,1996-11-02 00:00:00,12,1032.7,-0.1,94,11,0,3.704,,,250,,,,,,,,,,,wg-a,,,,AAXX 02004 07335 12/// /2502 10120 20110 30181 40327 58001 60006 90000=
07335,1996-11-02 06:00:00,12,1031.5,-0.5,94,11,20000,7.408,,,220,11.4,13.4,,,,,1,,,,wg-a,,,,AAXX 02064 07335 02570 72204 10120 20110 30169 40315 56005 60006 875// 90600 333 10134 20114 60014=
07335,1996-11-02 09:00:00,13,1032.4,0.9,88,11,20000,3.704,,,230,,,,,,,,,,,wg-a,,,,AAXX 02094 07335 12570 72302 10130 20110 30178 40324 51009 60006 875// 90900=
07335,1996-11-02 12:00:00,14,1031.7,-0.6,82,11,25000,7.408,,,200,,,,,,,,,,,wg-a,,,,AAXX 02124 07335 12475 82004 10140 20110 30172 40317 58006 60006 888// 91200=
07335,1996-11-02 15:00:00,14,1030.6,-1.1,77,10,25000,3.704,,,210,,,,,,,,,,,wg-a,,,,AAXX 02154 07335 12575 82102 10140 20100 30161 40306 56011 60006 878// 91500=
07335,1996-11-02 18:00:00,13,1030.8,0.1,77,9,0,3.704,,,170,11.4,13.9,,,,,,,,,wg-a,,,,AAXX 02184 07335 12/// /1702 10130 20090 30162 40308 53001 60006 91800 333 10139 20114=
07335,1996-11-03 00:00:00,12,1029.2,-1.3,82,9,0,7.408,,,180,,,,,,,,,,,wg-a,,,,AAXX 03004 07335 12/// /1804 10120 20090 30146 40292 58013 60006 90000=
07335,1996-11-03 06:00:00,11,1028.2,-0.3,87,9,20000,7.408,,,200,10.8,13,,,,,,,,,wg-a,,,,AAXX 03064 07335 02570 82004 10110 20090 30136 40282 58003 60006 885// 90600 333 10130 20108 60004=
07335,1996-11-03 09:00:00,12,1028.3,0.1,82,9,20000,14.816,,,190,,,,,,,,,,,wg-a,,,,AAXX 03094 07335 12570 71908 10120 20090 30137 40283 50001 60006 875// 90900=
07335,1996-11-03 12:00:00,14,1028,-0.2,77,10,20000,18.52,,,240,,,,,,,,,,,wg-a,,,,AAXX 03124 07335 12470 82410 10140 20100 30135 40280 58002 60006 885// 91200=
07335,1996-11-03 15:00:00,14,1026.7,-1.3,82,11,15000,11.112,,,230,,,,,,,,,,,wg-a,,,,AAXX 03154 07335 12465 82306 10140 20110 30122 40267 56013 60006 885// 91500=
07335,1996-11-03 18:00:00,13,1025.6,-1.1,88,11,0,11.112,,,210,10.7,14.1,,,,,,,,,wg-a,,,,AAXX 03184 07335 12/// /2106 10130 20110 30111 40256 56011 60006 91800 333 10141 20107=
07335,1996-11-04 00:00:00,12,1022.7,-1.9,82,9,0,14.816,,,190,,,,,,,,,,,wg-a,,,,AAXX 04004 07335 12/// /1908 10120 20090 30082 40227 56019 60006 90000=
07335,1996-11-04 06:00:00,10,1018.5,-1.9,93,9,20000,18.52,,,210,10.4,13.2,,,,,,,,,wg-a,,,,AAXX 04064 07335 02470 82110 10100 20090 30040 40185 56019 60006 875// 90600 333 10132 20104 60004=
07335,1996-11-04 09:00:00,11,1016.8,-1.7,87,9,20000,25.928,,,200,,,,,,,,,,,wg-a,,,,AAXX 04094 07335 12470 82014 10110 20090 30023 40168 56017 60006 875// 90900=
07335,1996-11-04 12:00:00,12,1014.2,-2.5,88,10,3500,22.224,,,200,,,,,,,,,,51,wg-a,,,,AAXX 04124 07335 02235 82012 10120 20100 39998 40142 58025 61000 75152 887// 91200 333 6100=
07335,1996-11-04 15:00:00,12,1010.2,-3.9,94,11,4000,25.928,,,200,,,,0,,,,,,50,wg-a,,,,AAXX 04154 07335 12240 82014 10120 20110 39959 40102 58039 60007 75055 887// 91500=
07335,1996-11-04 18:00:00,13,1008.6,-1.6,94,12,500,25.928,,,200,10.3,12.7,,3,,,,,,51,wg-a,,,,AAXX 04184 07335 12300 82014 10130 20120 39943 40086 56016 60037 75165 885// 91800 333 10127 20103=
07335,1996-11-05 00:00:00,11,1010.8,1.1,87,9,0,14.816,,,240,,,,,,,,,,,wg-a,,,,AAXX 05004 07335 12/// /2408 10110 20090 39964 40108 53011 60116 90000=
07335,1996-11-05 06:00:00,8,1015.6,2.8,93,7,25000,18.52,,,240,7.6,12.9,,,,,14,,,,wg-a,,,,AAXX 05064 07335 02775 22410 10080 20070 30010 40156 53028 60144 81502 90600 333 10129 20076 61000=
07335,1996-11-05 12:00:00,12,1021,2.2,62,5,20000,25.928,,,310,,,,,,,,,,,wg-a,,,,AAXX 05124 07335 12670 33114 10120 20050 30065 40210 51022 60006 83200 91200=
07335,1996-11-05 15:00:00,13,1021.8,0.8,54,4,20000,14.816,,,310,,,,,,,,,,,wg-a,,,,AAXX 05154 07335 12670 53108 10130 20040 30073 40218 53008 60006 84201 91500=
07335,1996-11-05 18:00:00,5,1024,1.8,87,3,20000,11.112,,,250,4.9,13.4,,,,,,,,,wg-a,,,,AAXX 05184 07335 12670 /2506 10050 20030 30091 40240 51018 60006 81400 91800 333 10134 20049=
07335,1996-11-06 00:00:00,5,1024.6,-0.6,93,4,0,7.408,,,220,,,,,,,,,,,wg-a,,,,AAXX 06004 07335 12/// /2204 10050 20040 30097 40246 58006 60006 90000=
07335,1996-11-06 06:00:00,10,1021.6,-1.2,87,8,18000,22.224,,,210,3.8,9.7,,,,,,,,60,wg-a,,,,AAXX 06064 07335 02468 82112 10100 20080 30070 40216 58012 61000 76062 875// 90600 333 10097 20038 6100=
07335,1996-11-06 09:00:00,11,1021.5,0,100,11,8000,18.52,,,220,,,,1,,,,,,21,wg-a,,,,AAXX 06094 07335 12258 82210 10110 20110 30070 40215 50000 60017 72165 887// 90900=
07335,1996-11-06 12:00:00,14,1020.3,-1,94,13,18000,25.928,,,230,,,,,,,,,,21,wg-a,,,,AAXX 06124 07335 02268 82314 10140 20130 30060 40203 58010 60016 72165 887// 91200 333 61000=
07335,1996-11-06 15:00:00,16,1019.4,-0.9,82,13,18000,31.484,,53.708,240,,,,,,,,,,,wg-a,,,,AAXX 06154 07335 12468 82417 10160 20130 30051 40194 56009 60006 885// 91500 333 91029=
07335,1996-11-06 18:00:00,14,1019.7,0.3,100,14,3000,29.632,,,230,9.7,15.7,,1,,,,,,10,wg-a,,,,AAXX 06184 07335 12230 82316 10140 20140 30054 40197 52003 60017 71065 885// 91800 333 10157 20097=
07335,1996-11-07 00:00:00,15,1017.7,-1.4,94,14,0,22.224,,,230,,,,,,,,,,,wg-a,,,,AAXX 07004 07335 12/// /2312 10150 20140 30034 40177 58014 60036 90000=
07335,1996-11-07 06:00:00,16,1014.9,-0.8,94,15,8000,35.188,,55.56,240,14.1,15.7,,1,,,7,,,51,wg-a,,,,AAXX 07064 07335 02258 82419 10160 20150 30007 40149 56008 60074 75165 885// 90600 333 10157 20141 60017 91030=
07335,1996-11-07 09:00:00,13,1016.9,1.8,94,12,9000,22.224,,,290,,,,3,,,,,,51,wg-a,,,,AAXX 07094 07335 12259 82912 10130 20120 30025 40169 53018 60037 75165 885// 90900=
07335,1996-11-07 12:00:00,15,1018.8,2,77,11,20000,25.928,,,260,,,,0,,,,,,1,wg-a,,,,AAXX 07124 07335 02470 72614 10150 20110 30045 40188 51020 60036 70165 8383/ 91200 333 60007=
07335,1996-11-07 15:00:00,14,1020.4,1.5,72,9,25000,18.52,,,280,,,,1,,,,,,,wg-a,,,,AAXX 07154 07335 12575 /2810 10140 20090 30060 40204 51015 60017 81800 91500=
07335,1996-11-07 18:00:00,10,1023.1,2.5,82,7,20000,18.52,,,260,10.3,16,,,,,,,,1,wg-a,,,,AAXX 07184 07335 32/70 02610 10100 20070 30085 40231 53025 70186 80000 91800 333 10160 20103=
07335,1996-11-08 00:00:00,7,1026.6,1.5,93,6,0,14.816,,,250,,,,,,,,,,,wg-a,,,,AAXX 08004 07335 12/// /2508 10070 20060 30118 40266 52015 60006 90000=
07335,1996-11-08 06:00:00,5,1028.2,0.6,100,5,15000,7.408,,,210,3.9,10.3,,,,,4,,,,wg-a,,,,AAXX 08064 07335 02765 32104 10050 20050 30132 40282 51006 60006 83500 90600 333 10103 20039 60044=
07335,1996-11-08 09:00:00,9,1029.7,1.8,100,9,15000,11.112,,,230,,,,,,,,,,,wg-a,,,,AAXX 08094 07335 12765 22306 10090 20090 30150 40297 51018 60006 81530 90900=
07335,1996-11-08 12:00:00,13,1029.6,0.1,67,7,25000,18.52,,,290,,,,,,,,,,,wg-a,,,,AAXX 08124 07335 12575 42910 10130 20070 30151 40296 50001 60006 84102 91200=
07335,1996-11-08 15:00:00,13,1029.3,-0.3,67,7,20000,11.112,,,270,,,,,,,,,,,wg-a,,,,AAXX 08154 07335 12670 52706 10130 20070 30148 40293 55003 60006 85400 91500=
07335,1996-11-08 18:00:00,7,1030.5,0.8,93,6,15000,11.112,,,230,4,14.4,,,,,,,,1,wg-a,,,,AAXX 08184 07335 02665 32306 10070 20060 30156 40305 53008 61000 70186 83800 91800 333 10144 20040 ////=
07335,1996-11-09 06:00:00,3,1031.6,-0.2,100,3,6000,0,,,0,2.7,7.8,,,,,,,,11,wg-a,,,,AAXX 09064 07335 02556 /0000 10030 20030 30165 40316 56002 60006 71111 85502 90600 333 10078 20027 61000=
07335,1996-11-09 09:00:00,7,1032,0.6,100,7,7000,7.408,,,210,,,,,,,,,,2,wg-a,,,,AAXX 09094 07335 12257 52104 10070 20070 30171 40320 50006 60006 70242 83532 90900=
07335,1996-11-09 12:00:00,13,1030.2,-1.5,77,9,20000,11.112,,,230,,,,,,,,,,3,wg-a,,,,AAXX 09124 07335 12570 52306 10130 20090 30156 40302 58015 60006 70341 82102 91200=
07335,1996-11-09 15:00:00,13,1028.2,-1.9,72,8,20000,7.408,,,230,,,,,,,,,,,wg-a,,,,AAXX 09154 07335 12570 72304 10130 20080 30137 40282 56019 60006 82132 91500=
07335,1996-11-09 18:00:00,8,1027.4,-1.1,87,6,0,7.408,,,210,3.3,14,,,,,,,,,wg-a,,,,AAXX 09184 07335 12/// /2104 10080 20060 30126 40274 56011 60006 91800 333 10140 20033=
07335,1996-11-10 00:00:00,4,1023.4,-2.7,100,4,0,7.408,,,150,,,,,,,,,,,wg-a,,,,AAXX 10004 07335 12/// /1504 10040 20040 30085 40234 57027 60006 90000=
07335,1996-11-10 06:00:00,6,1016.8,-3,93,5,15000,11.112,,,190,2.6,8.3,,,,,,,,,wg-a,,,,AAXX 10064 07335 02765 81906 10060 20050 30021 40168 58030 60006 8557/ 90600 333 10083 20026 60004=
07335,1996-11-10 09:00:00,8,1015,-1.7,87,6,15000,11.112,,,200,,,,,,,,,,,wg-a,,,,AAXX 10094 07335 12765 82006 10080 20060 30004 40150 56017 60006 8457/ 90900=
07335,1996-11-10 12:00:00,9,1012.6,-2.3,93,8,6000,11.112,,,220,,,,4,,,,,,61,wg-a,,,,AAXX 10124 07335 02256 82206 10090 20080 39981 40126 58023 60046 76162 885// 91200 333 60047=
07335,1996-11-10 15:00:00,10,1009.5,-3,93,9,10000,14.816,,,210,,,,1,,,,,,60,wg-a,,,,AAXX 10154 07335 12360 82108 10100 20090 39951 40095 56030 60017 76066 885// 91500=
07335,1996-11-10 18:00:00,9,1008,-1.5,100,9,0,11.112,,,210,6.1,9.9,,,,,,,,,wg-a,,,,AAXX 10184 07335 32/// /2106 10090 20090 39936 40080 56015 91800 333 10099 20061=
07335,1996-11-11 00:00:00,9,1002.3,-3.5,100,9,0,7.408,,,170,,,,,,,,,,,wg-a,,,,AAXX 11004 07335 12/// /1704 10090 20090 39879 40023 56035 60016 90000=
07335,1996-11-11 06:00:00,9,992.7,-3.9,100,9,8000,18.52,,,180,8.7,9.5,,7,,,22,,,60,wg-a,,,,AAXX 11064 07335 02358 81810 10090 20090 39785 49927 56039 60224 76062 877// 90600 333 10095 20087 60077=
07335,1996-11-11 09:00:00,8,992.9,0.1,93,7,15000,11.112,,,230,,,,,,,,,,1,wg-a,,,,AAXX 11094 07335 02365 72306 10080 20070 39786 49929 50001 61000 70162 85532 90900 333 ////=
07335,1996-11-11 12:00:00,10,991.6,-1.2,93,9,10000,7.408,,,150,,,,0,,,,,,61,wg-a,,,,AAXX 11124 07335 02360 81504 10100 20090 39774 49916 56012 60016 76162 8452/ 91200 333 60007=
07335,1996-11-11 15:00:00,11,989.5,-2,87,9,20000,11.112,,,130,,,,2,,,,,,21,wg-a,,,,AAXX 11154 07335 12570 51306 10110 20090 39754 49895 56020 60027 72162 85832 91500=
07335,1996-11-11 18:00:00,9,990.3,0.7,93,8,0,11.112,,,140,8.1,11.1,,,,,,,,,wg-a,,,,AAXX 11184 07335 32/// /1406 10090 20080 39761 49903 53007 91800 333 10111 20081=
07335,1996-11-12 00:00:00,9,993.7,1.6,93,8,0,14.816,,,240,,,,,,,,,,,wg-a,,,,AAXX 12004 07335 12/// /2408 10090 20080 39794 49937 53016 60056 90000=
07335,1996-11-12 06:00:00,8,993.7,1,93,7,10000,11.112,,,140,7.5,9.6,,,,,10,,,60,wg-a,,,,AAXX 12064 07335 02260 81406 10080 20070 39794 49937 53010 60104 76062 8557/ 90600 333 10096 20075 61000=
07335,1996-11-12 09:00:00,8,995.7,2,93,7,15000,11.112,,,150,,,,,,,,,,1,wg-a,,,,AAXX 12094 07335 02665 71506 10080 20070 39814 49957 53020 61000 70162 8257/ 90900 333 ////=
07335,1996-11-12 12:00:00,11,997.4,1.8,94,10,10000,7.408,,,210,,,,,,,,,,60,wg-a,,,,AAXX 12124 07335 02460 82104 10110 20100 39832 49974 53018 61000 76062 8277/ 91200 333 6100=
07335,1996-11-12 15:00:00,12,999,1.6,88,10,18000,11.112,,,160,,,,1,,,,,,1,wg-a,,,,AAXX 12154 07335 12368 61606 10120 20100 39848 49990 51016 60017 70162 86830 91500=
07335,1996-11-12 18:00:00,10,1000.9,1.8,93,9,10000,7.408,,,150,7.9,12.5,,0,,,,,,80,wg-a,,,,AAXX 12184 07335 12460 81504 10100 20090 39866 40009 51018 60007 78086 8683/ 91800 333 10125 20079=
07335,1996-11-13 00:00:00,8,1005.6,2.2,100,8,0,7.408,,,20,,,,,,,,,,,wg-a,,,,AAXX 13004 07335 02/// /0204 10080 20080 39911 40056 53022 61000 90000 333 ////=
07335,1996-11-13 06:00:00,9,1009.2,2.2,93,8,3000,14.816,,,20,7.8,10.4,,,,,1,,,10,wg-a,,,,AAXX 13064 07335 02130 80208 10090 20080 39947 40092 52022 60014 71022 886// 90600 333 10104 20078 61000=
07335,1996-11-13 09:00:00,9,1012.2,3,93,8,8000,18.52,,,40,,,,0,,,,,,1,wg-a,,,,AAXX 13094 07335 12358 80410 10090 20080 39977 40122 51030 60007 70165 887// 90900=
07335,1996-11-13 12:00:00,10,1014,1.8,87,8,15000,22.224,,,30,,,,,,,,,,1,wg-a,,,,AAXX 13124 07335 12465 80312 10100 20080 39995 40140 50018 60016 70165 885// 91200=
07335,1996-11-13 15:00:00,9,1014.9,0.8,87,7,20000,14.816,,,40,,,,,,,,,,1,wg-a,,,,AAXX 13154 07335 02470 70408 10090 20070 30003 40149 53008 61000 70152 875// 91500 333 ////=
07335,1996-11-13 18:00:00,8,1017,2.1,81,5,20000,22.224,,,40,8.1,10.1,,,,,,,,1,wg-a,,,,AAXX 13184 07335 32670 70412 10080 20050 30024 40170 51021 70152 875// 91800 333 10101 20081=
07335,1996-11-14 00:00:00,4,1019.4,0.8,87,2,0,14.816,,,40,,,,,,,,,,,wg-a,,,,AAXX 14004 07335 12/// /0408 10040 20020 30045 40194 53008 60006 90000=
07335,1996-11-14 06:00:00,2,1020.4,0.7,100,2,500,14.816,,,30,0.7,8.1,,,,,,,,,wg-a,,,,AAXX 14064 07335 02600 /0308 10020 20020 30054 40204 53007 60006 81500 90600 333 10081 20007 60004=
07335,1996-11-14 09:00:00,4,1021.5,1.2,93,3,7000,14.816,,,60,,,,,,,,,,,wg-a,,,,AAXX 14094 07335 12257 70608 10040 20030 30066 40215 51012 60006 876// 90900=
07335,1996-11-14 12:00:00,7,1021.1,-0.3,76,3,20000,18.52,,,40,,,,,,,,,,,wg-a,,,,AAXX 14124 07335 12470 30410 10070 20030 30063 40211 58003 60006 83200 91200=
07335,1996-11-14 15:00:00,8,1020.6,-0.4,61,1,500,22.224,,,50,,,,,,,,,,,wg-a,,,,AAXX 14154 07335 12500 20512 10080 20010 30059 40206 55004 60006 82202 91500=
07335,1996-11-14 18:00:00,3,1021.3,0.4,87,1,500,14.816,,,30,2,8.2,,,,,,,,,wg-a,,,,AAXX 14184 07335 12/00 10308 10030 20010 30063 40213 52004 60006 81030 91800 333 10082 20020=
07335,1996-11-15 00:00:00,4,1020.5,-0.6,81,1,0,14.816,,,20,,,,,,,,,,,wg-a,,,,AAXX 15004 07335 12/// /0208 10040 20010 30056 40205 58006 60006 90000=
07335,1996-11-15 06:00:00,2,1018.9,-0.7,87,0,20000,11.112,,,30,2.3,5.1,,,,,,,,,wg-a,,,,AAXX 15064 07335 02770 70306 10020 20000 30039 40189 56007 60006 875// 90600 333 10051 20023 60004=
07335,1996-11-15 09:00:00,3,1019.4,0.5,81,0,15000,18.52,,,40,,,,,,,,,,,wg-a,,,,AAXX 15094 07335 12765 70410 10030 20000 30044 40194 53005 60006 875// 90900=
07335,1996-11-15 12:00:00,3,1018.7,-0.6,87,1,15000,11.112,,,70,,,,,,,,,,,wg-a,,,,AAXX 15124 07335 12465 80706 10030 20010 30038 40187 58006 60006 885// 91200=
07335,1996-11-15 15:00:00,4,1018.8,0.1,81,1,15000,14.816,,,60,,,,,,,,,,,wg-a,,,,AAXX 15154 07335 12465 80608 10040 20010 30039 40188 53001 60006 885// 91500=
07335,1996-11-15 18:00:00,4,1019.9,1.1,81,1,15000,18.52,,,50,2.2,4.2,,,,,,,,,wg-a,,,,AAXX 15184 07335 12565 80510 10040 20010 30050 40199 53011 60006 875// 91800 333 10042 20022=
07335,1996-11-16 00:00:00,5,1020.7,-0.1,87,3,0,14.816,,,40,,,,,,,,,,,wg-a,,,,AAXX 16004 07335 12/// /0408 10050 20030 30058 40207 58001 60006 90000=
07335,1996-11-16 06:00:00,4,1020.7,0.1,93,3,4000,18.52,,,40,3.4,4.2,,,,,,,,10,wg-a,,,,AAXX 16064 07335 02240 80410 10040 20030 30058 40207 50001 61000 71062 887// 90600 333 10042 20034 6100=
07335,1996-11-16 09:00:00,4,1022.2,1.5,93,3,3000,14.816,,,50,,,,0,,,,,,10,wg-a,,,,AAXX 16094 07335 12230 80508 10040 20030 30073 40222 51015 60007 71062 887// 90900=
07335,1996-11-16 12:00:00,5,1021.7,-0.5,93,4,3500,7.408,,,90,,,,,,,,,,10,wg-a,,,,AAXX 16124 07335 12335 80904 10050 20040 30068 40217 58005 60016 71062 887// 91200=
07335,1996-11-16 15:00:00,6,1021.1,-0.5,87,4,4000,11.112,,,40,,,,,,,,,,10,wg-a,,,,AAXX 16154 07335 12440 80406 10060 20040 30063 40211 56005 60006 71022 886// 91500=
07335,1996-11-16 18:00:00,6,1020.7,-0.4,87,4,0,11.112,,,50,3.4,,,,,,,,,,wg-a,,,,AAXX 16184 07335 32/// /0506 10060 20040 30059 40207 55004 91800 333 20034=
07335,1996-11-17 00:00:00,4,1018.9,-1.4,93,3,0,18.52,,,40,,,,,,,,,,,wg-a,,,,AAXX 17004 07335 12/// /0410 10040 20030 30040 40189 57014 60006 90000=
07335,1996-11-17 06:00:00,3,1015.1,-1.7,93,2,4000,14.816,,,50,3,4.2,,,,,,,,10,wg-a,,,,AAXX 17064 07335 02240 80508 10030 20020 30002 40151 56017 60006 71022 886// 90600 333 10042 20030 60004=
07335,1996-11-17 09:00:00,3,1014.1,-1,93,2,2500,14.816,,,40,,,,,,,,,,10,wg-a,,,,AAXX 17094 07335 12125 80408 10030 20020 39992 40141 56010 60006 71022 886// 90900=
07335,1996-11-17 12:00:00,3,1012.2,-1.8,93,2,4000,14.816,,,20,,,,,,,,,,10,wg-a,,,,AAXX 17124 07335 12240 80208 10030 20020 39974 40122 58018 60006 71022 886// 91200=
07335,1996-11-17 15:00:00,4,1010.3,-1.9,87,2,4000,7.408,,,60,,,,,,,,,,10,wg-a,,,,AAXX 17154 07335 12340 80604 10040 20020 39955 40103 56019 60006 71022 886// 91500=
07335,1996-11-17 18:00:00,4,1009.5,-0.8,87,2,0,3.704,,,320,2.9,3.9,,,,,,,,,wg-a,,,,AAXX 17184 07335 12/// /3202 10040 20020 39947 40095 56008 60006 91800 333 10039 20029=
07335,1996-11-18 00:00:00,3,1007.7,-1,100,3,0,7.408,,,330,,,,,,,,,,,wg-a,,,,AAXX 18004 07335 12/// /3304 10030 20030 39929 40077 58010 60006 90000=
07335,1996-11-18 06:00:00,4,1008.2,0.6,93,3,15000,18.52,,,330,1.9,5,,2,,,4,,,,wg-a,,,,AAXX 18064 07335 02465 83310 10040 20030 39935 40082 53006 60044 8657/ 90600 333 10050 20019 60027=
07335,1996-11-18 09:00:00,5,1009.4,1.2,81,2,20000,25.928,,,330,,,,,,,,,,,wg-a,,,,AAXX 18094 07335 12470 73314 10050 20020 39947 40094 52012 60006 81132 90900=
07335,1996-11-18 12:00:00,7,1010.1,0.8,70,2,20000,31.484,,,340,,,,,,,,,,,wg-a,,,,AAXX 18124 07335 12570 73417 10070 20020 39955 40101 50008 60006 878// 91200=
07335,1996-11-18 15:00:00,7,1010.6,0.5,66,1,25000,29.632,,,320,,,,,,,,,,,wg-a,,,,AAXX 18154 07335 12575 43216 10070 20010 39960 40106 53005 60006 81802 91500=
07335,1996-11-18 18:00:00,3,1011.7,0.8,75,-1,20000,14.816,,,280,2.4,7.9,,,,,,,,,wg-a,,,,AAXX 18184 07335 12/70 02808 10030 21010 39968 40117 52008 60006 80000 91800 333 10079 20024=
07335,1996-11-19 00:00:00,-1,1011.3,-1.1,93,-2,0,11.112,,,210,,,,,,,,,,,wg-a,,,,AAXX 19004 07335 12/// /2106 11010 21020 39963 40113 58011 60006 90000=
07335,1996-11-19 06:00:00,4,1001,-6.2,87,2,20000,35.188,,,190,-1.4,4,,,,,,,,,wg-a,,,,AAXX 19064 07335 02770 81919 10040 20020 39864 40010 58062 60006 8757/ 90600 333 10040 21014 60004=
07335,1996-11-19 09:00:00,6,992.7,-8.1,93,5,12000,38.892,,66.672,190,,,,3,,,,,,61,wg-a,,,,AAXX 19094 07335 12362 81921 10060 20050 39783 49927 56081 60037 76162 877// 90900 333 91036=
07335,1996-11-19 12:00:00,6,987.4,-5.2,93,5,15000,42.596,,68.524,210,,,,10,,,,,,21,wg-a,,,,AAXX 19124 07335 02465 82123 10060 20050 39731 49874 58052 60126 72162 877// 91200 333 60107 91037=
07335,1996-11-19 15:00:00,7,987.1,-0.3,81,4,3000,29.632,,68.524,280,,,,7,,,,,,81,wg-a,,,,AAXX 19154 07335 12330 82816 10070 20040 39728 49871 58003 60077 78186 879// 91500 333 91037=
07335,1996-11-19 18:00:00,8,986.3,-0.7,81,5,20000,31.484,,,230,3.9,7.8,,2,,,,,,3,wg-a,,,,AAXX 19184 07335 12570 62317 10080 20050 39721 49863 56007 60027 70387 84972 91800 333 10078 20039=
07335,1996-11-20 00:00:00,6,986.3,0,93,5,0,31.484,,,230,,,,3,,,,,,,wg-a,,,,AAXX 20004 07335 02/// /2317 10060 20050 39720 49863 50000 60076 90000 333 60037=
07335,1996-11-20 06:00:00,6,990.6,2.7,81,3,20000,25.928,,,260,5.6,7.9,,,,,28,,,25,wg-a,,,,AAXX 20064 07335 12570 32614 10060 20030 39762 49906 52027 60284 72500 81832 90600 333 10079 20056=
07335,1996-11-20 09:00:00,7,994.2,3.6,81,4,500,29.632,,,260,,,,,,,,,,,wg-a,,,,AAXX 20094 07335 12400 /2616 10070 20040 39798 49942 52036 60006 81830 90900=
07335,1996-11-20 12:00:00,9,996.8,2.7,61,2,500,31.484,,,280,,,,,,,,,,,wg-a,,,,AAXX 20124 07335 12500 22817 10090 20020 39825 49968 51027 60006 82230 91200=
07335,1996-11-20 15:00:00,9,1000.2,3.3,61,2,500,31.484,,,300,,,,,,,,,,25,wg-a,,,,AAXX 20154 07335 02600 53017 10090 20020 39858 40002 53033 61000 72511 84830 91500 333 ////=
07335,1996-11-20 18:00:00,6,1004.5,4.1,65,0,500,22.224,,,280,5.1,9.7,,,,,,,,,wg-a,,,,AAXX 20184 07335 12600 72812 10060 20000 39899 40045 53041 60006 875// 91800 333 10097 20051=
07335,1996-11-21 00:00:00,0,1008.9,1.6,86,-2,0,14.816,,,260,,,,,,,,,,,wg-a,,,,AAXX 21004 07335 12/// /2608 10000 21020 39939 40089 51016 60006 90000=
07335,1996-11-21 06:00:00,-1,1011.4,1.2,93,-2,25000,7.408,,,250,-1.9,6.8,,,,,,,,,wg-a,,,,AAXX 21064 07335 02/75 32504 11010 21020 39964 40114 53012 60006 80002 90600 333 10068 21019 61000=
07335,1996-11-21 09:00:00,2,1012.5,1.2,87,0,15000,7.408,,,220,,,,,,,,,,,wg-a,,,,AAXX 21094 07335 12/65 72204 10020 20000 39976 40125 53012 60006 80004 90900=
07335,1996-11-21 12:00:00,8,1011.2,-1,61,1,25000,18.52,,,250,,,,,,,,,,,wg-a,,,,AAXX 21124 07335 12/75 62510 10080 20010 39966 40112 58010 60006 83072 91200=
07335,1996-11-21 15:00:00,7,1008.2,-3,70,2,20000,7.408,,,160,,,,,,,,,,,wg-a,,,,AAXX 21154 07335 12670 81604 10070 20020 39936 40082 56030 60006 8457/ 91500=
07335,1996-11-21 18:00:00,2,1006.7,-1.7,93,1,6000,22.224,,,110,-1,8.3,,7,,,,,,61,wg-a,,,,AAXX 21184 07335 12356 81112 10020 20010 39919 40067 58017 60077 76162 887// 91800 333 10083 21010=
07335,1996-11-22 00:00:00,2,1008.6,2.9,93,1,0,22.224,,,20,,,,,,,,,,,wg-a,,,,AAXX 22004 07335 12/// /0212 10020 20010 39937 40086 53029 60066 90000=
07335,1996-11-22 06:00:00,0,1016.5,3.5,100,0,200,11.112,,,340,0.3,2.6,,,,,14,,,44,wg-a,,,,AAXX 22064 07335 02102 83406 10000 20000 30014 40165 53035 60144 74442 886// 90600 333 10026 20003 61000=
07335,1996-11-22 12:00:00,2,1018.8,0.1,93,1,3000,14.816,,,230,,,,1,,,,,,10,wg-a,,,,AAXX 22124 07335 02130 82308 10020 20010 30038 40188 50001 60016 71042 886// 91200 333 60017=
07335,1996-11-22 15:00:00,2,1017.1,-1.7,93,1,10000,7.408,,,220,,,,,,,,,,,wg-a,,,,AAXX 22154 07335 12260 82204 10020 20010 30021 40171 58017 60006 886// 91500=
07335,1996-11-22 18:00:00,0,1016.2,-1,93,-1,8000,0,,,0,0.1,2.1,,,,,,,,,wg-a,,,,AAXX 22184 07335 12358 70000 10000 21010 30011 40162 57010 60006 81632 91800 333 10021 20001=
07335,1996-11-23 00:00:00,-2,1013.8,-0.5,93,-3,0,0,,,0,,,,,,,,,,,wg-a,,,,AAXX 23004 07335 12/// /0000 11020 21030 39986 40138 58005 60006 90000=
07335,1996-11-23 06:00:00,1,1013,0.4,93,0,500,14.816,,,200,-3.6,0.9,,,,,14,,,61,wg-a,,,,AAXX 23064 07335 02300 72008 10010 20000 39980 40130 50004 60144 76162 875// 90600 333 10009 21036 61000=
07335,1996-11-23 09:00:00,2,1015,2.1,100,2,10000,11.112,,,210,,,,1,,,,,,21,wg-a,,,,AAXX 23094 07335 12360 52106 10020 20020 30001 40150 51021 60017 72162 85500 90900=
07335,1996-11-23 12:00:00,8,1015.9,1.2,81,5,20000,25.928,,,320,,,,,,,,,,3,wg-a,,,,AAXX 23124 07335 12470 /3214 10080 20050 30013 40159 51012 60016 70362 86800 91200=
07335,1996-11-23 15:00:00,7,1018.4,2.4,81,4,20000,14.816,,,330,,,,,,,,,,3,wg-a,,,,AAXX 23154 07335 02570 53308 10070 20040 30037 40184 53024 61000 70386 85800 91500 333 ////=
07335,1996-11-23 18:00:00,3,1022.3,3.6,87,1,0,14.816,,,320,0.5,8.6,,,,,,,,,wg-a,,,,AAXX 23184 07335 32/// /3208 10030 20010 30073 40223 53036 91800 333 10086 20005=
07335,1996-11-24 00:00:00,-2,1025.9,1.4,100,-2,0,7.408,,,250,,,,,,,,,,,wg-a,,,,AAXX 24004 07335 12/// /2504 11020 21020 30106 40259 53014 60006 90000=
07335,1996-11-24 06:00:00,-4,1028.3,0.9,100,-4,6000,3.704,,,190,-3.8,2.8,,,,,,,,11,wg-a,,,,AAXX 24064 07335 02/56 01902 11040 21040 30128 40283 53009 60006 71100 80000 90600 333 10028 21038 60004=
07335,1996-11-24 09:00:00,0,1028.6,0.6,100,0,6000,3.704,,,150,,,,,,,,,,,wg-a,,,,AAXX 24094 07335 12/56 /1502 10000 20000 30134 40286 51006 60006 80001 90900=
07335,1996-11-24 12:00:00,7,1025.9,-2.3,70,2,25000,14.816,,,210,,,,,,,,,,,wg-a,,,,AAXX 24124 07335 12/75 72108 10070 20020 30111 40259 58023 60006 80001 91200=
07335,1996-11-24 15:00:00,6,1022.6,-3.3,75,2,500,14.816,,,190,,,,,,,,,,,wg-a,,,,AAXX 24154 07335 12/00 81908 10060 20020 30078 40226 58033 60006 82052 91500=
07335,1996-11-24 18:00:00,5,1021.1,-1.6,87,3,0,18.52,,,190,-4.3,7.4,,,,,,,,,wg-a,,,,AAXX 24184 07335 12/// /1910 10050 20030 30062 40211 58016 60006 91800 333 10074 21043=
07335,1996-11-25 00:00:00,5,1014.3,-3.6,93,4,0,29.632,,,190,,,,2,,,,,,,wg-a,,,,AAXX 25004 07335 02/// /1916 10050 20040 39995 40143 58036 60026 90000 333 60027=
07335,1996-11-25 06:00:00,10,1005.8,-3.2,100,10,8000,22.224,,,230,4.8,10.3,,4,,,8,,,63,wg-a,,,,AAXX 25064 07335 02158 82312 10100 20100 39915 40058 56032 60084 76362 887// 90600 333 10103 20048 60047=
07335,1996-11-25 09:00:00,13,1005,-0.7,94,12,20000,22.224,,,260,,,,1,,,,,,21,wg-a,,,,AAXX 25094 07335 12270 82612 10130 20120 39908 40050 56007 60017 72165 8677/ 90900=
07335,1996-11-25 12:00:00,11,1005.7,0.6,82,8,20000,18.52,,,280,,,,0,,,,,,3,wg-a,,,,AAXX 25124 07335 02470 72810 10110 20080 39914 40057 51006 60016 70365 8587/ 91200 333 60007=
07335,1996-11-25 15:00:00,11,1003.5,-2.2,87,9,15000,18.52,,,250,,,,,,,,,,21,wg-a,,,,AAXX 25154 07335 02465 72510 10110 20090 39892 40035 58022 61000 72162 8687/ 91500 333 ////=
07335,1996-11-25 18:00:00,9,1003.6,-0,93,8,11000,22.224,,,270,8.9,12.8,,,,,,,,,wg-a,,,,AAXX 25184 07335 32/61 /2712 10090 20080 39892 40036 55000 91800 333 10128 20089=
07335,1996-11-26 00:00:00,6,1008.3,2.7,93,5,0,14.816,,,290,,,,,,,,,,,wg-a,,,,AAXX 26004 07335 12/// /2908 10060 20050 39937 40083 51027 60006 90000=
07335,1996-11-26 06:00:00,6,1012.5,2.4,93,5,11000,18.52,,,310,4.6,9.4,,,,,3,,,,wg-a,,,,AAXX 26064 07335 02/61 /3110 10060 20050 39978 40125 53024 60034 90600 333 10094 20046 61000=
07335,1996-11-26 09:00:00,7,1014.8,2.3,81,4,500,18.52,,,310,,,,,,,,,,,wg-a,,,,AAXX 26094 07335 12600 43110 10070 20040 30001 40148 53023 60006 84531 90900=
07335,1996-11-26 12:00:00,9,1015,0.3,66,3,500,22.224,,,330,,,,,,,,,,,wg-a,,,,AAXX 26124 07335 12500 23312 10090 20030 30004 40150 52003 60006 81132 91200=
07335,1996-11-26 15:00:00,8,1015.3,0.3,71,3,500,11.112,,,340,,,,,,,,,,,wg-a,,,,AAXX 26154 07335 12500 53406 10080 20030 30007 40153 52003 60006 81232 91500=
07335,1996-11-26 18:00:00,5,1015.9,0.4,87,3,25000,7.408,,,270,4.7,9.5,,,,,,,,,wg-a,,,,AAXX 26184 07335 12/75 72704 10050 20030 30011 40159 50004 60006 8703/ 91800 333 10095 20047=
07335,1996-11-27 00:00:00,4,1015.4,-0.9,93,3,0,0,,,0,,,,,,,,,,,wg-a,,,,AAXX 27004 07335 12/// /0000 10040 20030 30005 40154 58009 60006 90000=
07335,1996-11-27 06:00:00,5,1010.5,-2.7,93,4,8000,11.112,,,160,2.3,4.6,,3,,,3,,,61,wg-a,,,,AAXX 27064 07335 02558 81606 10050 20040 39958 40105 58027 60034 76162 875// 90600 333 10046 20023 60037=
07335,1996-11-27 09:00:00,5,1006.4,-4.1,100,5,1800,18.52,,,160,,,,2,,,,,,10,wg-a,,,,AAXX 27094 07335 12118 81610 10050 20050 39917 40064 58041 60027 71065 887// 90900=
07335,1996-11-27 12:00:00,9,1000.7,-5.3,100,9,2000,14.816,,,220,,,,1,,,,,,51,wg-a,,,,AAXX 27124 07335 02120 82208 10090 20090 39864 40007 58053 60046 75165 887// 91200 333 60017=
07335,1996-11-27 15:00:00,9,1002.3,1.5,81,6,25000,35.188,,,300,,,,0,,,,,,1,wg-a,,,,AAXX 27154 07335 12575 73019 10090 20060 39879 40023 53015 60007 70165 878// 91500=
07335,1996-11-27 18:00:00,9,1004.2,1.9,76,5,25000,31.484,,,280,4.5,12.5,,,,,,,,1,wg-a,,,,AAXX 27184 07335 32675 82817 10090 20050 39898 40042 51019 70165 875// 91800 333 10125 20045=
07335,1996-11-28 00:00:00,2,1011.9,4.8,93,1,0,25.928,,,20,,,,,,,,,,,wg-a,,,,AAXX 28004 07335 12/// /0214 10020 20010 39970 40119 51048 60036 90000=
07335,1996-11-28 06:00:00,1,1019.7,3.6,93,0,10000,14.816,,,340,0.5,9,,,,,6,,,,wg-a,,,,AAXX 28064 07335 12460 73408 10010 20000 30046 40197 51036 60064 875// 90600 333 10090 20005=
07335,1996-11-28 09:00:00,1,1022.1,2.4,93,0,8000,3.704,,,340,,,,,,,,,,,wg-a,,,,AAXX 28094 07335 12658 /3402 10010 20000 30070 40221 51024 60006 81500 90900=
07335,1996-11-28 12:00:00,6,1022.7,0.8,81,3,10000,14.816,,,330,,,,,,,,,,,wg-a,,,,AAXX 28124 07335 12460 /3308 10060 20030 30078 40227 50008 60006 85800 91200=
07335,1996-11-28 15:00:00,6,1022.9,0.3,75,2,20000,11.112,,,330,,,,,,,,,,,wg-a,,,,AAXX 28154 07335 12570 23306 10060 20020 30081 40229 53003 60006 82800 91500=
07335,1996-11-28 18:00:00,0,1024.6,1.3,93,-1,15000,7.408,,,270,-1.2,6.6,,,,,,,,,wg-a,,,,AAXX 28184 07335 12665 /2704 10000 21010 30094 40246 52013 60006 81500 91800 333 10066 21012=
07335,1996-11-29 00:00:00,1,1024.6,-0.2,93,0,0,11.112,,,220,,,,,,,,,,,wg-a,,,,AAXX 29004 07335 12/// /2206 10010 20000 30094 40246 58002 60006 90000=
07335,1996-11-29 06:00:00,4,1019.7,-2.7,93,3,8000,18.52,,,210,-1.9,3.8,,,,,,,,61,wg-a,,,,AAXX 29064 07335 02558 82110 10040 20030 30048 40197 58027 61000 76162 8657/ 90600 333 10038 21019 6100=
07335,1996-11-29 09:00:00,5,1017.5,-2.1,100,5,3500,22.224,,,210,,,,4,,,,,,61,wg-a,,,,AAXX 29094 07335 12235 82112 10050 20050 30027 40175 56021 60047 76166 8652/ 90900=
07335,1996-11-29 12:00:00,11,1014.7,-2.5,94,10,8000,25.928,,,270,,,,4,,,,,,61,wg-a,,,,AAXX 29124 07335 02458 82714 10110 20100 30002 40147 58025 60086 76166 8652/ 91200 333 60047=
07335,1996-11-29 15:00:00,12,1012.7,-1.9,82,9,15000,35.188,,59.264,270,,,,,,,,,,1,wg-a,,,,AAXX 29154 07335 02465 82719 10120 20090 39983 40127 56019 61000 70162 8652/ 91500 333 //// 91032=
07335,1996-11-29 18:00:00,11,1011.7,-1,94,10,8000,31.484,,,260,3.7,11.8,,,,,,,,51,wg-a,,,,AAXX 29184 07335 02258 82617 10110 20100 39973 40117 58010 61000 75165 8652/ 91800 333 10118 20037 ////=
07335,1996-11-30 00:00:00,12,1009.9,-0.5,94,11,0,31.484,,,280,,,,,,,,,,,wg-a,,,,AAXX 30004 07335 02/// /2817 10120 20110 39956 40099 55005 61000 90000 333 6100=
07335,1996-11-30 06:00:00,12,1008.7,-0.3,88,10,15000,31.484,,,290,10.9,12.2,,,,,8,,,60,wg-a,,,,AAXX 30064 07335 02265 82917 10120 20100 39944 40087 55003 60084 76062 875// 90600 333 10122 20109 61000=
07335,1996-11-30 09:00:00,10,1010.1,1.3,100,10,15000,25.928,,,330,,,,1,,,,,,21,wg-a,,,,AAXX 30094 07335 12365 73314 10100 20100 39957 40101 53013 60017 72162 8757/ 90900=
07335,1996-11-30 12:00:00,11,1010.7,0.6,87,9,20000,25.928,,,310,,,,0,,,,,,20,wg-a,,,,AAXX 30124 07335 02470 73114 10110 20090 39963 40107 50006 60016 72065 8757/ 91200 333 60007=
07335,1996-11-30 15:00:00,11,1011,0.3,82,8,20000,29.632,,,320,,,,1,,,,,,21,wg-a,,,,AAXX 30154 07335 12470 63216 10110 20080 39966 40110 51003 60017 72165 85571 91500=
07335,1996-11-30 18:00:00,9,1014.8,3.6,87,7,0,14.816,,,340,8.3,12.1,,,,,,,,,wg-a,,,,AAXX 30184 07335 32/// /3408 10090 20070 30002 40148 53036 91800 333 10121 20083=
07335,1996-12-01 00:00:00,6,1020.5,2.5,93,5,0,18.52,,,320,,,,,,,,,,,wg-a,,,,AAXX 01004 07335 12/// /3210 10060 20050 30057 40205 51025 60006 90000=
07335,1996-12-01 06:00:00,2,1024.2,1.7,93,1,8000,3.704,,,320,1.5,8.9,,,,,2,,,,wg-a,,,,AAXX 01064 07335 02/58 03202 10020 20010 30091 40242 53017 60006 80000 90600 333 10089 20015 60024=
07335,1996-12-01 09:00:00,5,1024.8,0.8,100,5,8000,7.408,,,190,,,,,,,,,,,wg-a,,,,AAXX 01094 07335 12758 /1904 10050 20050 30099 40248 53008 60006 85532 90900=
07335,1996-12-01 12:00:00,9,1023.7,-0.9,81,6,12000,14.816,,,220,,,,,,,,,,,wg-a,,,,AAXX 01124 07335 12562 82208 10090 20060 30090 40237 58009 60006 875// 91200=
07335,1996-12-01 15:00:00,8,1021.5,-2.2,100,8,2000,18.52,,,220,,,,2,,,,,,51,wg-a,,,,AAXX 01154 07335 12120 82210 10080 20080 30068 40215 58022 60027 75165 877// 91500=
07335,1996-12-01 18:00:00,11,1020.5,-0.8,100,11,0,25.928,,,250,1.2,11.2,,,,,,,,,wg-a,,,,AAXX 01184 07335 32/// /2514 10110 20110 30060 40205 58008 91800 333 10112 20012=
07335,1996-12-02 00:00:00,10,1021.7,0.6,93,9,0,14.816,,,300,,,,,,,,,,,wg-a,,,,AAXX 02004 07335 12/// /3008 10100 20090 30071 40217 53006 60006 90000=
07335,1996-12-02 06:00:00,6,1024.4,1.7,93,5,15000,14.816,,,280,6.3,12,,,,,3,,,,wg-a,,,,AAXX 02064 07335 02665 /2808 10060 20050 30096 40244 52017 60034 81502 90600 333 10120 20063 61000=
07335,1996-12-02 09:00:00,7,1025.8,1.4,87,5,15000,18.52,,,290,,,,,,,,,,,wg-a,,,,AAXX 02094 07335 12665 72910 10070 20050 30110 40258 53014 60006 83532 90900=
07335,1996-12-02 12:00:00,10,1025.8,0.1,76,6,25000,18.52,,,290,,,,,,,,,,,wg-a,,,,AAXX 02124 07335 12675 72910 10100 20060 30111 40258 50001 60006 875// 91200=
07335,1996-12-02 15:00:00,10,1024.9,-0.9,71,5,25000,14.816,,,280,,,,,,,,,,,wg-a,,,,AAXX 02154 07335 12575 72808 10100 20050 30102 40249 56009 60006 878// 91500=
07335,1996-12-02 18:00:00,4,1025.1,-0.1,93,3,20000,11.112,,,250,4,10.6,,,,,,,,,wg-a,,,,AAXX 02184 07335 12/70 52506 10040 20030 30101 40251 55001 60006 82032 91800 333 10106 20040=
07335,1996-12-03 00:00:00,7,1022.2,-2.3,87,5,0,11.112,,,220,,,,,,,,,,,wg-a,,,,AAXX 03004 07335 12/// /2206 10070 20050 30074 40222 56023 60006 90000=
07335,1996-12-03 06:00:00,7,1016.1,-3.5,87,5,20000,18.52,,,200,4.4,7.4,,,,,,,,,wg-a,,,,AAXX 03064 07335 02570 72010 10070 20050 30014 40161 58035 60006 875// 90600 333 10074 20044 60004=
07335,1996-12-03 09:00:00,8,1014,-2,81,5,20000,22.224,,,200,,,,,,,,,,,wg-a,,,,AAXX 03094 07335 12470 72012 10080 20050 39994 40140 56020 60006 878// 90900=
07335,1996-12-03 12:00:00,9,1010.4,-3.5,81,6,18000,25.928,,,210,,,,,,,,,,,wg-a,,,,AAXX 03124 07335 12468 82114 10090 20060 39959 40104 58035 60006 885// 91200=
07335,1996-12-03 15:00:00,9,1006.5,-3.8,81,6,12000,31.484,,,210,,,,,,,,,,,wg-a,,,,AAXX 03154 07335 12462 82117 10090 20060 39921 40065 56038 60006 885// 91500=
07335,1996-12-03 18:00:00,10,1004.3,-2.2,76,6,10000,31.484,,53.708,200,6.7,10.1,,,,,,,,,wg-a,,,,AAXX 03184 07335 12460 82017 10100 20060 39899 40043 58022 60006 885// 91800 333 10101 20067 91029=
07335,1996-12-04 00:00:00,8,1004.8,1.6,93,7,0,3.704,,,260,,,,3,,,,,,,wg-a,,,,AAXX 04004 07335 02/// /2602 10080 20070 39903 40048 51016 60036 90000 333 60037=
07335,1996-12-04 06:00:00,7,1006.1,0.7,93,6,10000,0,,,0,6.8,10,,7,,,15,,,61,wg-a,,,,AAXX 04064 07335 02260 80000 10070 20060 39916 40061 53007 60154 76162 885// 90600 333 10100 20068 60077=
07335,1996-12-04 09:00:00,6,1007.2,1,100,6,8000,7.408,,,360,,,,4,,,,,,61,wg-a,,,,AAXX 04094 07335 12258 83604 10060 20060 39926 40072 53010 60047 76166 885// 90900=
07335,1996-12-04 12:00:00,7,1007.1,0,100,7,7000,7.408,,,140,,,,2,,,,,,61,wg-a,,,,AAXX 04124 07335 02257 81404 10070 20070 39926 40071 50000 60066 76166 885// 91200 333 60027=
07335,1996-12-04 15:00:00,7,1007.2,0.1,100,7,7000,3.704,,,30,,,,3,,,,,,61,wg-a,,,,AAXX 04154 07335 12257 80302 10070 20070 39927 40072 53001 60037 76166 885// 91500=
07335,1996-12-04 18:00:00,7,1008.2,0.9,93,6,6000,7.408,,,110,6.3,7.4,,1,,,,,,61,wg-a,,,,AAXX 04184 07335 12256 81104 10070 20060 39936 40082 51009 60017 76166 885// 91800 333 10074 20063=
07335,1996-12-05 00:00:00,6,1010.4,0.9,93,5,0,11.112,,,20,,,,,,,,,,,wg-a,,,,AAXX 05004 07335 12/// /0206 10060 20050 39957 40104 50009 60016 90000=
07335,1996-12-05 06:00:00,6,1010.8,0.2,93,5,8000,11.112,,,60,5.7,6.8,,1,,,11,,,60,wg-a,,,,AAXX 05064 07335 02258 80606 10060 20050 39961 40108 50002 60114 76062 887// 90600 333 10068 20057 60017=
07335,1996-12-05 09:00:00,6,1012.1,1.3,93,5,6000,14.816,,,50,,,,,,,,,,2,wg-a,,,,AAXX 05094 07335 02256 80508 10060 20050 39974 40121 51013 61000 70262 886// 90900 333 ////=
07335,1996-12-05 12:00:00,7,1011.7,-0.3,93,6,6000,18.52,,,30,,,,,,,,,,2,wg-a,,,,AAXX 05124 07335 02256 80310 10070 20060 39971 40117 58003 61000 70262 886// 91200 333 ////=
07335,1996-12-05 15:00:00,7,1011.2,-0.5,93,6,8000,22.224,,,40,,,,,,,,,,,wg-a,,,,AAXX 05154 07335 12258 80412 10070 20060 39966 40112 56005 60006 886// 91500=
07335,1996-12-05 18:00:00,7,1011.5,0.3,87,5,7000,22.224,,,50,5.8,8.2,,,,,,,,,wg-a,,,,AAXX 05184 07335 32/57 /0512 10070 20050 39969 40115 53003 91800 333 10082 20058=
07335,1996-12-06 00:00:00,7,1011.4,-0.3,93,6,0,11.112,,,50,,,,,,,,,,,wg-a,,,,AAXX 06004 07335 12/// /0506 10070 20060 39968 40114 56003 60086 90000=
07335,1996-12-06 06:00:00,7,1010.7,-0.4,100,7,500,7.408,,,80,6.1,7,,2,,,10,,,21,wg-a,,,,AAXX 06064 07335 02200 80804 10070 20070 39961 40107 55004 60104 72162 8652/ 90600 333 10070 20061 60027=
07335,1996-12-06 09:00:00,8,1011.7,1,93,7,6000,11.112,,,90,,,,3,,,,,,60,wg-a,,,,AAXX 06094 07335 12356 80906 10080 20070 39971 40117 53010 60037 76062 8652/ 90900=
07335,1996-12-06 12:00:00,9,1012.1,0.5,93,8,8000,11.112,,,120,,,,0,,,,,,60,wg-a,,,,AAXX 06124 07335 02558 81206 10090 20080 39976 40121 50005 60036 76062 8652/ 91200 333 60007=
07335,1996-12-06 15:00:00,11,1012.8,0.8,87,9,12000,3.704,,,110,,,,,,,,,,3,wg-a,,,,AAXX 06154 07335 02462 71102 10110 20090 39984 40128 53008 61000 70362 875// 91500 333 ////=
07335,1996-12-06 18:00:00,7,1015.3,2.2,93,6,10000,0,,,0,7,11.2,,,,,,,,1,wg-a,,,,AAXX 06184 07335 32560 /0000 10070 20060 30006 40153 53022 70162 85500 91800 333 10112 20070=
07335,1996-12-07 00:00:00,5,1017.5,0.6,93,4,0,3.704,,,340,,,,,,,,,,,wg-a,,,,AAXX 07004 07335 12/// /3402 10050 20040 30027 40175 51006 60006 90000=
07335,1996-12-07 06:00:00,6,1018.3,0.6,100,6,6000,3.704,,,60,3.6,7,,1,,,4,,,60,wg-a,,,,AAXX 07064 07335 02556 80602 10060 20060 30035 40183 51006 60044 76062 8552/ 90600 333 10070 20036 60017=
07335,1996-12-07 09:00:00,6,1019.8,1.5,100,6,8000,7.408,,,30,,,,,,,,,,1,wg-a,,,,AAXX 07094 07335 02658 60304 10060 20060 30050 40198 53015 61000 70162 81532 90900 333 ////=
07335,1996-12-07 12:00:00,10,1020,0.4,87,8,12000,11.112,,,20,,,,,,,,,,2,wg-a,,,,AAXX 07124 07335 02762 30206 10100 20080 30054 40200 50004 61000 70261 83532 91200 333 ////=
07335,1996-12-07 15:00:00,12,1020.1,0.2,82,9,15000,11.112,,,50,,,,,,,,,,,wg-a,,,,AAXX 07154 07335 12765 30506 10120 20090 30056 40201 53002 60006 81532 91500=
07335,1996-12-07 18:00:00,7,1022,1.6,93,6,0,7.408,,,350,5.1,12.2,,,,,,,,,wg-a,,,,AAXX 07184 07335 32/// /3504 10070 20060 30072 40220 52016 91800 333 10122 20051=
07335,1996-12-08 00:00:00,3,1023.3,0.2,93,2,0,3.704,,,20,,,,,,,,,,,wg-a,,,,AAXX 08004 07335 12/// /0202 10030 20020 30083 40233 50002 60006 90000=
07335,1996-12-08 06:00:00,1,1022.4,-0.7,100,1,2000,11.112,,,350,0.7,7,,,,,,,,10,wg-a,,,,AAXX 08064 07335 02/20 03506 10010 20010 30073 40224 56007 60006 71000 80000 90600 333 10070 20007 61000=
07335,1996-12-08 09:00:00,2,1023.3,0.9,100,2,4000,14.816,,,10,,,,,,,,,,10,wg-a,,,,AAXX 08094 07335 12/40 /0108 10020 20020 30082 40233 50009 60006 71000 80002 90900=
07335,1996-12-08 12:00:00,6,1022,-1,81,3,10000,18.52,,,30,,,,,,,,,,,wg-a,,,,AAXX 08124 07335 12/60 10310 10060 20030 30072 40220 58010 60006 80002 91200=
07335,1996-12-08 15:00:00,5,1021.4,-0.7,81,2,15000,14.816,,,60,,,,,,,,,,,wg-a,,,,AAXX 08154 07335 12265 20608 10050 20020 30065 40214 56007 60006 82602 91500=
07335,1996-12-08 18:00:00,1,1022.4,0.8,93,0,0,18.52,,,60,0.2,6.4,,,,,,,,,wg-a,,,,AAXX 08184 07335 12/// /0610 10010 20000 30073 40224 53008 60006 91800 333 10064 20002=
07335,1996-12-09 00:00:00,1,1022.3,-0.3,93,0,0,11.112,,,60,,,,,,,,,,,wg-a,,,,AAXX 09004 07335 12/// /0606 10010 20000 30072 40223 57003 60006 90000=
07335,1996-12-09 06:00:00,-1,1020.1,-0.8,100,-1,800,14.816,,,70,-0.6,1.3,,,,,,,,45,wg-a,,,,AAXX 09064 07335 02/08 90708 11010 21010 30049 40201 58008 60006 74542 89/// 90600 333 10013 21006 60004=
07335,1996-12-09 09:00:00,0,1020,0,100,0,1200,11.112,,,70,,,,,,,,,,10,wg-a,,,,AAXX 09094 07335 12112 80706 10000 20000 30049 40200 50000 60006 71042 886// 90900=
07335,1996-12-09 12:00:00,0,1019,-1,93,-1,4500,14.816,,,40,,,,,,,,,,10,wg-a,,,,AAXX 09124 07335 12145 80408 10000 21010 30039 40190 58010 60006 71042 886// 91200=
07335,1996-12-09 15:00:00,0,1017.5,-1.5,93,-1,3000,14.816,,,60,,,,,,,,,,10,wg-a,,,,AAXX 09154 07335 12130 80608 10000 21010 30024 40175 56015 60006 71022 886// 91500=
07335,1996-12-09 18:00:00,0,1018,0.5,93,-1,2800,11.112,,,60,-0.5,0.2,,,,,,,,10,wg-a,,,,AAXX 09184 07335 12128 80606 10000 21010 30029 40180 53005 60006 71022 886// 91800 333 10002 21005=
07335,1996-12-10 00:00:00,0,1016.2,-1.2,93,-1,0,7.408,,,70,,,,,,,,,,,wg-a,,,,AAXX 10004 07335 12/// /0704 10000 21010 30011 40162 57012 60006 90000=
07335,1996-12-10 06:00:00,1,1014.4,-0.4,100,1,1800,7.408,,,80,-0.2,1.1,,,,,,,,10,wg-a,,,,AAXX 10064 07335 02118 80804 10010 20010 39994 40144 55004 60006 71022 886// 90600 333 10011 21002 60004=
07335,1996-12-10 09:00:00,3,1015.1,0.8,93,2,2500,7.408,,,90,,,,,,,,,,10,wg-a,,,,AAXX 10094 07335 12125 80904 10030 20020 30002 40151 53008 60006 71022 886// 90900=
07335,1996-12-10 12:00:00,7,1013.9,-0.9,81,4,12000,7.408,,,90,,,,,,,,,,,wg-a,,,,AAXX 10124 07335 12462 20904 10070 20040 39993 40139 58009 60006 81502 91200=
07335,1996-12-10 15:00:00,6,1013.8,-0.2,87,4,4000,7.408,,,100,,,,,,,,,,10,wg-a,,,,AAXX 10154 07335 12240 81004 10060 20040 39991 40138 55002 60006 71011 876// 91500=
07335,1996-12-10 18:00:00,3,1015.2,1.2,93,2,2000,14.816,,,100,1.1,7.8,,,,,,,,10,wg-a,,,,AAXX 10184 07335 12120 81008 10030 20020 30003 40152 51012 60006 71011 886// 91800 333 10078 20011=
07335,1996-12-11 00:00:00,1,1015.6,0.2,100,1,0,11.112,,,60,,,,,,,,,,,wg-a,,,,AAXX 11004 07335 12/// /0606 10010 20010 30006 40156 50002 60006 90000=
07335,1996-12-11 06:00:00,-1,1015,-0.4,100,-1,500,11.112,,,80,-0.5,3,,,,,,,,41,wg-a,,,,AAXX 11064 07335 02105 80806 11010 21010 39999 40150 56004 60006 74142 886// 90600 333 10030 21005 60004=
07335,1996-12-11 09:00:00,-1,1015.6,0.6,100,-1,400,14.816,,,80,,,,,,,,,,45,wg-a,,,,AAXX 11094 07335 12/04 90808 11010 21010 30005 40156 53006 60006 74544 89/// 90900=
07335,1996-12-11 12:00:00,0,1014.1,-1.4,100,0,1200,11.112,,,70,,,,,,,,,,10,wg-a,,,,AAXX 11124 07335 12112 80706 10000 20000 39991 40141 58014 60006 71042 886// 91200=
07335,1996-12-11 15:00:00,1,1012.5,-1.6,100,1,1000,14.816,,,80,,,,,,,,,,10,wg-a,,,,AAXX 11154 07335 12110 80808 10010 20010 39975 40125 58016 60006 71022 886// 91500=
07335,1996-12-11 18:00:00,1,1012.5,0,93,0,300,11.112,,,90,-0.7,1,,,,,,,,,wg-a,,,,AAXX 11184 07335 12/03 /0906 10010 20000 39975 40125 50000 60006 91800 333 10010 21007=
07335,1996-12-12 00:00:00,1,1010.9,-0.2,100,1,0,7.408,,,90,,,,,,,,,,,wg-a,,,,AAXX 12004 07335 12/// /0904 10010 20010 39960 40109 58002 60006 90000=
07335,1996-12-12 06:00:00,2,1009.8,0.2,100,2,3500,7.408,,,110,0.6,1.8,,1,,,1,,,10,wg-a,,,,AAXX 12064 07335 02135 81104 10020 20020 39949 40098 50002 60014 71062 8177/ 90600 333 10018 20006 60017=
07335,1996-12-12 09:00:00,4,1009.8,0.1,93,3,3500,7.408,,,150,,,,2,,,,,,10,wg-a,,,,AAXX 12094 07335 12535 81504 10040 20030 39950 40098 53001 60027 71066 8257/ 90900=
07335,1996-12-12 12:00:00,9,1007.7,-1.7,93,8,10000,11.112,,,140,,,,,,,,,,1,wg-a,,,,AAXX 12124 07335 02360 21406 10090 20080 39933 40077 58017 60026 70161 81832 91200 333 61000=
07335,1996-12-12 15:00:00,11,1006.5,-1.1,87,9,20000,11.112,,,210,,,,,,,,,,,wg-a,,,,AAXX 12154 07335 12470 72106 10110 20090 39922 40065 56011 60006 875// 91500=
07335,1996-12-12 18:00:00,10,1006.1,-0.5,87,8,20000,7.408,,,180,1.9,12.4,,,,,,,,,wg-a,,,,AAXX 12184 07335 32470 71804 10100 20080 39917 40061 55005 875// 91800 333 10124 20019=
07335,1996-12-13 00:00:00,6,1004.9,-1.1,100,6,0,7.408,,,180,,,,,,,,,,,wg-a,,,,AAXX 13004 07335 12/// /1804 10060 20060 39903 40049 56011 60006 90000=
07335,1996-12-13 06:00:00,9,1001.5,-1.5,93,8,4500,3.704,,,360,5.5,9.9,,1,,,2,,,10,wg-a,,,,AAXX 13064 07335 02345 83602 10090 20080 39871 40015 56015 60024 71022 885// 90600 333 10099 20055 60017=
07335,1996-12-13 09:00:00,8,1001.2,-0.3,100,8,2000,0,,,0,,,,,,,,,,10,wg-a,,,,AAXX 13094 07335 02220 80000 10080 20080 39868 40012 58003 61000 71062 885// 90900 333 ////=
07335,1996-12-13 12:00:00,9,1000.6,-0.5,100,9,2500,3.704,,,40,,,,,,,,,,10,wg-a,,,,AAXX 13124 07335 02225 80402 10090 20090 39863 40006 58005 61000 71062 886// 91200 333 ////=
07335,1996-12-13 15:00:00,9,999.9,-0.7,100,9,1800,11.112,,,40,,,,1,,,,,,10,wg-a,,,,AAXX 13154 07335 12118 80406 10090 20090 39856 49999 55007 60017 71065 887// 91500=
07335,1996-12-13 18:00:00,9,1000,-0,93,8,2500,11.112,,,40,7.9,9.5,,2,,,,,,10,wg-a,,,,AAXX 13184 07335 12125 80406 10090 20080 39856 40000 55000 60027 71065 887// 91800 333 10095 20079=
07335,1996-12-14 00:00:00,5,1001.9,1.3,93,4,0,25.928,,,40,,,,,,,,,,,wg-a,,,,AAXX 14004 07335 12/// /0414 10050 20040 39873 40019 52013 60006 90000=
07335,1996-12-14 06:00:00,4,1005,2,87,2,8000,25.928,,,50,3.5,8.5,,,,,4,,,,wg-a,,,,AAXX 14064 07335 02258 80514 10040 20020 39903 40050 53020 60044 886// 90600 333 10085 20035 61000=
07335,1996-12-14 09:00:00,4,1007.3,2.3,81,1,12000,22.224,,,50,,,,,,,,,,,wg-a,,,,AAXX 14094 07335 12462 70512 10040 20010 39926 40073 53023 60006 875// 90900=
07335,1996-12-14 12:00:00,3,1009.5,2.1,81,0,15000,25.928,,,40,,,,,,,,,,,wg-a,,,,AAXX 14124 07335 12465 70414 10030 20000 39947 40095 51021 60006 875// 91200=
07335,1996-12-14 15:00:00,3,1011.2,1.7,81,0,10000,18.52,,,50,,,,,,,,,,,wg-a,,,,AAXX 14154 07335 12460 /0510 10030 20000 39964 40112 53017 60006 86501 91500=
07335,1996-12-14 18:00:00,1,1013.7,2.3,86,-1,0,14.816,,,20,1.4,3.6,,,,,,,,,wg-a,,,,AAXX 14184 07335 12/// /0208 10010 21010 39987 40137 51023 60006 91800 333 10036 20014=
07335,1996-12-15 00:00:00,-3,1017,1.4,86,-5,0,7.408,,,10,,,,,,,,,,,wg-a,,,,AAXX 15004 07335 12/// /0104 11030 21050 30017 40170 52014 60006 90000=
07335,1996-12-15 06:00:00,-5,1018.2,0.5,86,-7,8000,3.704,,,20,-5.4,1.4,,,,,,,,,wg-a,,,,AAXX 15064 07335 02/58 00202 11050 21070 30028 40182 53005 60006 80000 90600 333 10014 21054 60004=
07335,1996-12-15 09:00:00,-3,1019.5,1.4,100,-3,9000,3.704,,,30,,,,,,,,,,,wg-a,,,,AAXX 15094 07335 12/59 /0302 11030 21030 30042 40195 51014 60006 80001 90900=
07335,1996-12-15 12:00:00,4,1018.5,-0.6,70,-1,12000,7.408,,,100,,,,,,,,,,,wg-a,,,,AAXX 15124 07335 12/62 01004 10040 21010 30036 40185 58006 60006 80000 91200=
07335,1996-12-15 15:00:00,5,1018.1,-0.4,45,-6,20000,11.112,,,70,,,,,,,,,,,wg-a,,,,AAXX 15154 07335 12/70 10706 10050 21060 30032 40181 55004 60006 80001 91500=
07335,1996-12-15 18:00:00,1,1018.4,0.2,69,-4,0,11.112,,,60,-5.5,5.1,,,,,,,,,wg-a,,,,AAXX 15184 07335 12/// /0606 10010 21040 30034 40184 53002 60006 91800 333 10051 21055=
07335,1996-12-16 00:00:00,-1,1016.7,-1.5,86,-3,0,7.408,,,80,,,,,,,,,,,wg-a,,,,AAXX 16004 07335 12/// /0804 11010 21030 30016 40167 58015 60006 90000=
07335,1996-12-16 06:00:00,-1,1015.8,-0.1,100,-1,2500,7.408,,,170,-2.5,1.4,,,,,,,,10,wg-a,,,,AAXX 16064 07335 02125 81704 11010 21010 30007 40158 55001 60006 71022 886// 90600 333 10014 21025 60004=
07335,1996-12-16 09:00:00,1,1015.8,0.1,93,0,6000,11.112,,,210,,,,,,,,,,,wg-a,,,,AAXX 16094 07335 12256 82106 10010 20000 30008 40158 53001 60006 886// 90900=
07335,1996-12-16 12:00:00,2,1014.6,-1.1,93,1,6000,11.112,,,190,,,,,,,,,,,wg-a,,,,AAXX 16124 07335 12256 81906 10020 20010 39997 40146 58011 60006 886// 91200=
07335,1996-12-16 15:00:00,4,1013,-1.5,87,2,6000,7.408,,,150,,,,,,,,,,,wg-a,,,,AAXX 16154 07335 12356 71504 10040 20020 39982 40130 56015 60006 83632 91500=
07335,1996-12-16 18:00:00,-1,1013.3,0,93,-2,3000,0,,,0,-0.9,3.7,,,,,,,,10,wg-a,,,,AAXX 16184 07335 12/30 /0000 11010 21020 39982 40133 50000 60006 71022 80002 91800 333 10037 21009=
07335,1996-12-17 00:00:00,3,1012.5,-0.6,100,3,0,11.112,,,160,,,,,,,,,,,wg-a,,,,AAXX 17004 07335 12/// /1606 10030 20030 39977 40125 58006 60006 90000=
07335,1996-12-17 06:00:00,8,1012.3,0.1,81,5,20000,22.224,,,210,-1.9,7.9,,,,,,,,,wg-a,,,,AAXX 17064 07335 02670 72112 10080 20050 39977 40123 53001 60006 8453/ 90600 333 10079 21019 60004=
07335,1996-12-17 09:00:00,8,1013,0.7,93,7,15000,14.816,,,200,,,,1,,,,,,3,wg-a,,,,AAXX 17094 07335 12465 82008 10080 20070 39984 40130 53007 60017 70362 875// 90900=
07335,1996-12-17 12:00:00,12,1012.4,-0.4,71,7,20000,18.52,,,200,,,,,,,,,,1,wg-a,,,,AAXX 17124 07335 02670 /2010 10120 20070 39980 40124 58004 60016 70165 85502 91200 333 61000=
07335,1996-12-17 15:00:00,13,1011.3,-1,67,7,25000,18.52,,,190,,,,,,,,,,,wg-a,,,,AAXX 17154 07335 12675 41910 10130 20070 39970 40113 58010 60006 81532 91500=
07335,1996-12-17 18:00:00,9,1011.2,-0.3,81,6,20000,11.112,,,180,7.1,13.4,,,,,,,,,wg-a,,,,AAXX 17184 07335 12670 /1806 10090 20060 39967 40112 58003 60006 81532 91800 333 10134 20071=
07335,1996-12-18 00:00:00,7,1010.1,-1.2,87,5,0,11.112,,,170,,,,,,,,,,,wg-a,,,,AAXX 18004 07335 12/// /1706 10070 20050 39955 40101 58012 60006 90000=
07335,1996-12-18 06:00:00,7,1006.9,-1.8,87,5,20000,14.816,,,170,5.5,10.2,,,,,1,,,,wg-a,,,,AAXX 18064 07335 02770 51708 10070 20050 39923 40069 58018 60006 83530 90600 333 10102 20055 60014=
07335,1996-12-18 09:00:00,9,1006,-0.7,81,6,20000,14.816,,,170,,,,,,,,,,,wg-a,,,,AAXX 18094 07335 12/70 71708 10090 20060 39916 40060 57007 60006 86032 90900=
07335,1996-12-18 12:00:00,12,1004.5,-1.3,76,8,20000,14.816,,,190,,,,,,,,,,,wg-a,,,,AAXX 18124 07335 12670 71908 10120 20080 39903 40045 58013 60006 8157/ 91200=
07335,1996-12-18 15:00:00,13,1002.7,-1.8,77,9,20000,18.52,,,160,,,,,,,,,,21,wg-a,,,,AAXX 18154 07335 02470 81610 10130 20090 39885 40027 56018 61000 72122 8657/ 91500 333 ////=
07335,1996-12-18 18:00:00,13,1002.1,-0.6,77,9,20000,18.52,,,190,6.5,13.6,,,,,,,,3,wg-a,,,,AAXX 18184 07335 12570 81910 10130 20090 39879 40021 57006 60006 70362 8657/ 91800 333 10136 20065=
07335,1996-12-19 00:00:00,11,1002.6,0.3,100,11,0,11.112,,,210,,,,,,,,,,,wg-a,,,,AAXX 19004 07335 12/// /2106 10110 20110 39883 40026 50003 60016 90000=
07335,1996-12-19 06:00:00,10,1001.5,-0.9,100,10,2500,3.704,,,200,10.1,13,,,,,2,,,10,wg-a,,,,AAXX 19064 07335 02225 82002 10100 20100 39872 40015 56009 60006 71022 886// 90600 333 10130 20101 60024=
07335,1996-12-19 09:00:00,10,1001.6,0.1,100,10,400,7.408,,,180,,,,,,,,,,45,wg-a,,,,AAXX 19094 07335 12/04 91804 10100 20100 39873 40016 53001 60006 74542 89/// 90900=
07335,1996-12-19 12:00:00,11,1000.1,-1.4,100,11,4000,11.112,,,140,,,,,,,,,,10,wg-a,,,,AAXX 19124 07335 12140 81406 10110 20110 39859 40001 58014 60006 71042 885// 91200=
07335,1996-12-19 15:00:00,12,998.9,-1.2,94,11,8000,11.112,,,170,,,,0,,,,,,1,wg-a,,,,AAXX 19154 07335 12258 81706 10120 20110 39847 49989 56012 60007 70162 885// 91500=
07335,1996-12-19 18:00:00,10,999.1,0.1,93,9,7000,7.408,,,180,9.5,12,,,,,,,,1,wg-a,,,,AAXX 19184 07335 12457 31804 10100 20090 39848 49991 50001 60006 70161 83500 91800 333 10120 20095=
07335,1996-12-20 00:00:00,10,1000,0.1,93,9,0,14.816,,,220,,,,,,,,,,,wg-a,,,,AAXX 20004 07335 12/// /2208 10100 20090 39857 40000 50001 60006 90000=
07335,1996-12-20 06:00:00,9,999.5,-0.2,93,8,10000,7.408,,,170,8.4,10.6,,,,,,,,,wg-a,,,,AAXX 20064 07335 02260 71704 10090 20080 39851 49995 58002 60006 876// 90600 333 10106 20084 60004=
07335,1996-12-20 09:00:00,8,1001.4,1.9,93,7,15000,7.408,,,180,,,,,,,,,,,wg-a,,,,AAXX 20094 07335 12465 71804 10080 20070 39870 40014 53019 60006 875// 90900=
07335,1996-12-20 12:00:00,11,1000.7,-0.6,82,8,20000,7.408,,,140,,,,,,,,,,,wg-a,,,,AAXX 20124 07335 12470 51404 10110 20080 39864 40007 58006 60006 81102 91200=
07335,1996-12-20 15:00:00,11,1000.6,-0.1,82,8,20000,11.112,,,120,,,,,,,,,,,wg-a,,,,AAXX 20154 07335 12770 71206 10110 20080 39863 40006 55001 60006 81532 91500=
07335,1996-12-20 18:00:00,9,1001,0.3,87,7,15000,7.408,,,80,6.6,11.9,,,,,,,,,wg-a,,,,AAXX 20184 07335 12/65 70804 10090 20070 39866 40010 50003 60006 84082 91800 333 10119 20066=
07335,1996-12-21 00:00:00,7,1001.2,-0.2,87,5,0,7.408,,,90,,,,,,,,,,,wg-a,,,,AAXX 21004 07335 12/// /0904 10070 20050 39867 40012 58002 60006 90000=
07335,1996-12-21 06:00:00,5,1000.2,-0.4,100,5,1000,11.112,,,80,5,9.1,,,,,,,,10,wg-a,,,,AAXX 21064 07335 02010 80806 10050 20050 39856 40002 56004 60006 71022 886// 90600 333 10091 20050 60004=
07335,1996-12-21 09:00:00,6,1000.5,0.4,93,5,3500,14.816,,,80,,,,,,,,,,10,wg-a,,,,AAXX 21094 07335 12235 80808 10060 20050 39860 40005 51004 60006 71022 886// 90900=
07335,1996-12-21 12:00:00,7,1000.1,-0.3,93,6,7000,11.112,,,80,,,,,,,,,,,wg-a,,,,AAXX 21124 07335 12257 80806 10070 20060 39857 40001 58003 60006 8657/ 91200=
07335,1996-12-21 15:00:00,8,1000.6,0.5,93,7,4000,11.112,,,70,,,,4,,,,,,61,wg-a,,,,AAXX 21154 07335 12340 80706 10080 20070 39862 40006 50005 60047 76162 8557/ 91500=
07335,1996-12-21 18:00:00,8,1001,0.4,93,7,0,14.816,,,100,5,8.2,,,,,,,,,wg-a,,,,AAXX 21184 07335 32/// /1008 10080 20070 39866 40010 53004 91800 333 10082 20050=
07335,1996-12-22 00:00:00,8,1002.9,1.2,93,7,0,11.112,,,90,,,,,,,,,,,wg-a,,,,AAXX 22004 07335 02/// /0906 10080 20070 39885 40029 50012 61000 90000 333 ////=
07335,1996-12-22 06:00:00,6,1002.9,-0.3,93,5,2000,3.704,,,40,5.7,8.2,,,,,8,,,10,wg-a,,,,AAXX 22064 07335 02720 80402 10060 20050 39883 40029 55003 60006 71022 8457/ 90600 333 10082 20057 60084=
07335,1996-12-22 09:00:00,7,1002.4,-0.4,100,7,3500,7.408,,,50,,,,,,,,,,10,wg-a,,,,AAXX 22094 07335 12635 70504 10070 20070 39879 40024 58004 60006 71022 8753/ 90900=
07335,1996-12-22 12:00:00,8,1002.4,0.1,100,8,3500,7.408,,,70,,,,1,,,,,,61,wg-a,,,,AAXX 22124 07335 02235 80704 10080 20080 39880 40024 50001 60016 76162 8657/ 91200 333 60017=
07335,1996-12-22 15:00:00,9,1000.9,-1.4,100,9,3000,14.816,,,110,,,,1,,,,,,10,wg-a,,,,AAXX 22154 07335 12230 81108 10090 20090 39866 40009 56014 60017 71062 875// 91500=
07335,1996-12-22 18:00:00,9,1000.4,-0.5,100,9,0,3.704,,,60,5.7,9.3,,,,,,,,,wg-a,,,,AAXX 22184 07335 32/// /0602 10090 20090 39861 40004 56005 91800 333 10093 20057=
07335,1996-12-23 00:00:00,6,999.1,-0.9,93,5,0,0,,,0,,,,,,,,,,,wg-a,,,,AAXX 23004 07335 12/// /0000 10060 20050 39846 49991 57009 60006 90000=
07335,1996-12-23 06:00:00,7,998.1,-0.3,100,7,100,0,,,0,5,9.8,,,,,2,,,45,wg-a,,,,AAXX 23064 07335 02/01 90000 10070 20070 39837 49981 56003 60006 74542 89/// 90600 333 10098 20050 60024=
07335,1996-12-23 09:00:00,8,998.5,0.4,100,8,200,3.704,,,30,,,,,,,,,,45,wg-a,,,,AAXX 23094 07335 12/02 90302 10080 20080 39841 49985 53004 60006 74544 89/// 90900=
07335,1996-12-23 12:00:00,9,998.2,-0.2,100,9,1200,3.704,,,190,,,,0,,,,,,10,wg-a,,,,AAXX 23124 07335 02212 81902 10090 20090 39839 49982 58002 60006 71042 886// 91200 333 60007=
07335,1996-12-23 15:00:00,9,997.5,-0.7,100,9,800,11.112,,,60,,,,,,,,,,42,wg-a,,,,AAXX 23154 07335 12108 80606 10090 20090 39832 49975 55007 60006 74242 886// 91500=
07335,1996-12-23 18:00:00,7,998,0.4,100,7,700,11.112,,,50,7.3,9.6,,,,,,,,45,wg-a,,,,AAXX 23184 07335 12/07 90506 10070 20070 39836 49980 53004 60006 74542 89/// 91800 333 10096 20073=
07335,1996-12-24 00:00:00,4,997.9,-0.3,93,3,0,14.816,,,80,,,,,,,,,,,wg-a,,,,AAXX 24004 07335 12/// /0808 10040 20030 39833 49979 58003 60006 90000=
07335,1996-12-24 06:00:00,1,996.6,-0.6,100,1,4000,14.816,,,50,1.4,7.3,,,,,1,,,10,wg-a,,,,AAXX 24064 07335 02140 80508 10010 20010 39819 49966 57006 60006 71022 887// 90600 333 10073 20014 60014=
07335,1996-12-24 09:00:00,1,997.6,1,100,1,3500,14.816,,,50,,,,1,,,,,,61,wg-a,,,,AAXX 24094 07335 12135 80508 10010 20010 39829 49976 53010 60017 76162 887// 90900=
07335,1996-12-24 12:00:00,2,997.8,0.2,100,2,4000,11.112,,,50,,,,,,,,,,10,wg-a,,,,AAXX 24124 07335 02140 80506 10020 20020 39831 49978 51002 60016 71062 887// 91200 333 61000=
07335,1996-12-24 15:00:00,3,998.4,0.6,93,2,1200,14.816,,,40,,,,,,,,,,10,wg-a,,,,AAXX 24154 07335 02112 80408 10030 20020 39837 49984 53006 61000 71062 887// 91500 333 ////=
07335,1996-12-24 18:00:00,3,1000.4,2,93,2,2000,14.816,,,40,1.2,2.8,,,,,,,,10,wg-a,,,,AAXX 24184 07335 12120 80408 10030 20020 39857 40004 53020 60006 71062 886// 91800 333 10028 20012=
07335,1996-12-25 00:00:00,1,1004.3,1.8,100,1,0,14.816,,,40,,,,,,,,,,,wg-a,,,,AAXX 25004 07335 12/// /0408 10010 20010 39895 40043 51018 60006 90000=
07335,1996-12-25 06:00:00,0,1008.3,2.1,93,-1,2500,14.816,,,30,0.1,2.5,,,,,,,,10,wg-a,,,,AAXX 25064 07335 02125 80308 10000 21010 39934 40083 51021 61000 71062 887// 90600 333 10025 20001 6001=
07335,1996-12-25 09:00:00,0,1011.5,3.1,93,-1,3000,22.224,,,40,,,,0,,,,,,10,wg-a,,,,AAXX 25094 07335 12230 80412 10000 21010 39965 40115 53031 60007 71062 887// 90900=
07335,1996-12-25 12:00:00,-1,1014.1,2.5,93,-2,500,22.224,,,30,,,,,,,,,,1,wg-a,,,,AAXX 25124 07335 12300 80312 11010 21020 39990 40141 51025 60016 70162 886// 91200=
07335,1996-12-25 15:00:00,-2,1017,2.8,86,-4,10000,25.928,,,30,,,,,,,,,,,wg-a,,,,AAXX 25154 07335 12360 80314 11020 21040 30018 40170 53028 60006 886// 91500=
07335,1996-12-25 18:00:00,-3,1020.5,3.4,86,-5,0,14.816,,,30,-2.8,0.2,,,,,,,,,wg-a,,,,AAXX 25184 07335 32/// /0308 11030 21050 30052 40205 51034 91800 333 10002 21028=
07335,1996-12-26 00:00:00,-4,1026.3,2.5,80,-7,0,18.52,,,20,,,,,,,,,,,wg-a,,,,AAXX 26004 07335 12/// /0210 11040 21070 30108 40263 51025 60006 90000=
07335,1996-12-26 09:00:00,-5,1033.6,3,86,-7,15000,18.52,,,30,,,,,,,,,,,wg-a,,,,AAXX 26094 07335 12/65 00310 11050 21070 30180 40336 51030 60006 80000 90900=
07335,1996-12-26 12:00:00,-2,1034.7,1.2,69,-7,15000,25.928,,,40,,,,,,,,,,,wg-a,,,,AAXX 26124 07335 12465 20414 11020 21070 30192 40347 51012 60006 82100 91200=
07335,1996-12-26 15:00:00,-2,1035.2,0.5,69,-7,15000,25.928,,,60,,,,,,,,,,,wg-a,,,,AAXX 26154 07335 12/65 10614 11020 21070 30197 40352 53005 60006 80002 91500=
07335,1996-12-26 18:00:00,-3,1036.1,0.8,74,-7,15000,14.816,,,50,-6.1,-1.2,,,,,,,,,wg-a,,,,AAXX 26184 07335 12/65 00508 11030 21070 30205 40361 52008 60006 80000 91800 333 11012 21061=
07335,1996-12-27 00:00:00,-6,1034.4,-1.4,79,-9,0,11.112,,,80,,,,,,,,,,,wg-a,,,,AAXX 27004 07335 12/// /0806 11060 21090 30187 40344 58014 60006 90000=
07335,1996-12-27 06:00:00,-7,1031,-2.6,86,-9,10000,7.408,,,70,-7.3,-3.4,,,,,,,,,wg-a,,,,AAXX 27064 07335 02/60 30704 11070 21090 30153 40310 58026 60006 80001 90600 333 11034 21073 60004=
07335,1996-12-27 09:00:00,-6,1029.2,-1.7,79,-9,9000,11.112,,,50,,,,,,,,,,,wg-a,,,,AAXX 27094 07335 12/59 20506 11060 21090 30136 40292 55017 60006 81031 90900=
07335,1996-12-27 12:00:00,-2,1026.2,-2.8,59,-9,10000,7.408,,,60,,,,,,,,,,,wg-a,,,,AAXX 27124 07335 12/60 40604 11020 21090 30108 40262 58028 60006 83031 91200=
07335,1996-12-27 15:00:00,-1,1024.1,-2,59,-8,12000,14.816,,,30,,,,,,,,,,,wg-a,,,,AAXX 27154 07335 12/62 40308 11010 21080 30088 40241 56020 60006 83031 91500=
07335,1996-12-27 18:00:00,-4,1023,-1.2,74,-8,12000,7.408,,,40,-6.7,-0.6,,,,,,,,,wg-a,,,,AAXX 27184 07335 12/62 20404 11040 21080 30076 40230 58012 60006 81031 91800 333 11006 21067=
07335,1996-12-28 00:00:00,-6,1020.3,-1.7,86,-8,0,3.704,,,20,,,,,,,,,,,wg-a,,,,AAXX 28004 07335 12/// /0202 11060 21080 30048 40203 58017 60006 90000=
07335,1996-12-28 06:00:00,-4,1018.1,-0.5,80,-7,7000,11.112,,,90,-7.4,-4.1,,,,,,,,22,wg-a,,0,,AAXX 28064 07335 02457 80906 11040 21070 30028 40181 56005 61000 72222 885// 90600 333 11041 21074 4/9999 6100=
07335,1996-12-28 09:00:00,-4,1018.8,0.7,80,-7,15000,14.816,,,30,,,,,,,,,,,wg-a,,,,AAXX 28094 07335 12565 80308 11040 21070 30035 40188 52007 60006 885// 90900=
07335,1996-12-28 12:00:00,-3,1018.4,-0.4,63,-9,20000,22.224,,,40,,,,,,,,,,,wg-a,,,,AAXX 28124 07335 12570 /0412 11030 21090 30031 40184 58004 60006 81200 91200=
07335,1996-12-28 18:00:00,-7,1018.3,0.6,73,-11,0,25.928,,,40,-6.9,-2.6,,,,,,,,,wg-a,,,,AAXX 28184 07335 12/// /0414 11070 21110 30028 40183 53006 60006 91800 333 11026 21069=
07335,1996-12-29 00:00:00,-8,1017.5,-0.8,73,-12,0,18.52,,,70,,,,,,,,,,,wg-a,,,,AAXX 29004 07335 12/// /0710 11080 21120 30019 40175 56008 60006 90000=
07335,1996-12-29 06:00:00,-10,1016.5,-0.3,79,-13,10000,22.224,,,50,-10.1,-6.9,,,,,,,,,wg-a,,,,AAXX 29064 07335 02560 50512 11100 21130 30008 40165 55003 60006 83501 90600 333 11069 21101 60004=
07335,1996-12-29 09:00:00,-9,1016.9,0.5,79,-12,10000,18.52,,,50,,,,,,,,,,,wg-a,,,,AAXX 29094 07335 12560 /0510 11090 21120 30013 40169 53005 60006 86501 90900=
07335,1996-12-29 12:00:00,-6,1016.5,-0.2,68,-11,12000,22.224,,,70,,,,,,,,,,,wg-a,,,,AAXX 29124 07335 12/62 00712 11060 21110 30011 40165 58002 60006 80000 91200=
07335,1996-12-29 15:00:00,-4,1015.8,-0.6,63,-10,12000,18.52,,,70,,,,,,,,,,,wg-a,,,,AAXX 29154 07335 12/62 00710 11040 21100 30005 40158 56006 60006 80000 91500=
07335,1996-12-29 18:00:00,-7,1015.7,-0.3,79,-10,0,11.112,,,40,-10.1,-4,,,,,,,,,wg-a,,,,AAXX 29184 07335 12/// /0406 11070 21100 30002 40157 58003 60006 91800 333 11040 21101=
07335,1996-12-30 00:00:00,-10,1014.5,-0.9,79,-13,0,11.112,,,30,,,,,,,,,,,wg-a,,,,AAXX 30004 07335 12/// /0306 11100 21130 39989 40145 57009 60006 90000=
07335,1996-12-30 06:00:00,-8,1010.4,-2.1,79,-11,8000,3.704,,,340,-11.4,-7,,,,,,,,,wg-a,,,,AAXX 30064 07335 02358 83402 11080 21110 39949 40104 56021 60006 886// 90600 333 11070 21114 60004=
07335,1996-12-30 09:00:00,-6,1008.9,-1.3,86,-8,8000,3.704,,,270,,,,,,,,,,,wg-a,,,,AAXX 30094 07335 12258 82702 11060 21080 39936 40089 55013 60006 886// 90900=
07335,1996-12-30 12:00:00,-1,1007.9,-0.7,86,-3,7000,14.816,,,350,,,,,,,,,,1,wg-a,,,,AAXX 30124 07335 02457 73508 11010 21030 39929 40079 58007 61000 70172 875// 91200 333 6100=
07335,1996-12-30 15:00:00,1,1007.4,-0.4,75,-3,10000,14.816,,,20,,,,,,,,,,,wg-a,,,,AAXX 30154 07335 12560 70208 10010 21030 39925 40074 55004 60006 875// 91500=
07335,1996-12-30 18:00:00,-4,1008.6,0.9,74,-8,10000,7.408,,,20,-8.1,0.9,,,,,,,,,wg-a,,,,AAXX 30184 07335 12/60 00204 11040 21080 39934 40086 51009 60006 80000 91800 333 10009 21081=
07335,1996-12-31 00:00:00,-8,1009.6,-0.1,85,-10,0,0,,,0,,,,,,,,,,,wg-a,,,,AAXX 31004 07335 12/// /0000 11080 21100 39941 40096 58001 60006 90000=
07335,1996-12-31 06:00:00,-12,1010,0.4,92,-13,10000,0,,,0,-12.2,-3.8,,,,,,,,,wg-a,,,,AAXX 31064 07335 02660 20000 11120 21130 39943 40100 53004 60006 82500 90600 333 11038 21122 61000=
07335,1996-12-31 09:00:00,-9,1010.9,1.1,92,-10,6000,0,,,0,,,,,,,,,,,wg-a,,,,AAXX 31094 07335 12656 /0000 11090 21100 39954 40109 53011 60006 81502 90900=
07335,1996-12-31 12:00:00,-2,1010,-0.5,80,-5,10000,14.816,,,40,,,,,,,,,,,wg-a,,,,AAXX 31124 07335 12360 30408 11020 21050 39949 40100 58005 60006 83100 91200=
07335,1996-12-31 15:00:00,-2,1010.5,0.5,74,-6,12000,22.224,,,60,,,,,,,,,,,wg-a,,,,AAXX 31154 07335 12562 70612 11020 21060 39954 40105 53005 60006 872// 91500=
07335,1996-12-31 18:00:00,-4,1011.2,0.6,80,-7,12000,25.928,,,40,-12.5,-1.3,,,,,,,,,wg-a,,,,AAXX 31184 07335 12562 70414 11040 21070 39960 40112 51006 60006 875// 91800 333 11013 21125=
