station_id,dh_utc,temperature,pression,pression_variation_3h,humidite,point_de_rosee,visibilite,vent_moyen,vent_rafales,vent_rafales_10min,vent_direction,temperature_min,temperature_max,pluie_1h,pluie_3h,pluie_6h,pluie_12h,pluie_24h,ensoleillement,temperature_sol,temps_omm,source,radiations,neige_au_sol,nebulosite,raw_msg
07335,1997-01-01 00:00:00,-8,1011.8,-0.3,79,-11,0,22.224,,,40,,,,,,,,,,,wg-a,,,,AAXX 01004 07335 12/// /0412 11080 21110 39963 40118 58003 60006 90000=
07335,1997-01-01 06:00:00,-8,1012.7,0.4,85,-10,8000,14.816,,,50,-8.4,-3.9,,,,,,,,,wg-a,,,,AAXX 01064 07335 02358 80508 11080 21100 39972 40127 53004 60006 886// 90600 333 11039 21084 60004=
07335,1997-01-01 09:00:00,-8,1014.8,2.1,79,-11,4000,14.816,,,60,,,,,,,,,,10,wg-a,,,,AAXX 01094 07335 12340 80608 11080 21110 39993 40148 53021 60006 71022 886// 90900=
07335,1997-01-01 12:00:00,-7,1015.6,0.8,79,-10,500,11.112,,,90,,,,,,,,,,,wg-a,,,,AAXX 01124 07335 12400 80906 11070 21100 30001 40156 50008 60006 886// 91200=
07335,1997-01-01 15:00:00,-6,1016.5,1,73,-10,500,7.408,,,130,,,,,,,,,,,wg-a,,,,AAXX 01154 07335 12400 71304 11060 21100 30011 40165 53010 60006 875// 91500=
07335,1997-01-01 18:00:00,-9,1018.2,1.4,79,-12,0,11.112,,,30,-9.5,-6.1,,,,,,,,,wg-a,,,,AAXX 01184 07335 12/// /0306 11090 21120 30025 40182 51014 60006 91800 333 11061 21095=
07335,1997-01-02 00:00:00,-12,1019.3,0.2,85,-14,0,7.408,,,20,,,,,,,,,,,wg-a,,,,AAXX 02004 07335 12/// /0204 11120 21140 30035 40193 50002 60006 90000=
07335,1997-01-02 06:00:00,-11,1017.2,-1.2,92,-12,3000,11.112,,,30,-12.5,-8.9,,,,,,,,10,wg-a,,,,AAXX 02064 07335 02/30 30306 11110 21120 30015 40172 56012 60006 71000 80003 90600 333 11089 21125 60004=
07335,1997-01-02 09:00:00,-9,1016,-1.1,85,-11,3000,14.816,,,40,,,,,,,,,,10,wg-a,,,,AAXX 02094 07335 12/30 /0408 11090 21110 30004 40160 58011 60006 71011 80002 90900=
07335,1997-01-02 12:00:00,-6,1014.4,-1.4,93,-7,3000,22.224,,,40,,,,,,,,,,10,wg-a,,,,AAXX 02124 07335 12330 70412 11060 21070 39990 40144 58014 60006 71011 82602 91200=
07335,1997-01-02 15:00:00,-5,1012.3,-2,86,-7,3500,22.224,,,50,,,,,,,,,,10,wg-a,,,,AAXX 02154 07335 12235 80512 11050 21070 39970 40123 56020 60006 71022 83602 91500=
07335,1997-01-02 18:00:00,-6,1010.8,-1.5,93,-7,3500,22.224,,,40,-10.9,-4.8,,,,,,,,10,wg-a,,,,AAXX 02184 07335 12235 80412 11060 21070 39955 40108 58015 60006 71022 85602 91800 333 11048 21109=
07335,1997-01-03 00:00:00,-5,1009.8,-0,86,-7,0,14.816,,,60,,,,,,,,,,,wg-a,,,,AAXX 03004 07335 12/// /0608 11050 21070 39945 40098 55000 60006 90000=
07335,1997-01-03 06:00:00,-6,1005.7,-1.4,86,-8,4500,22.224,,,60,-6.1,-5.1,,,,,,,,10,wg-a,,,,AAXX 03064 07335 02345 80612 11060 21080 39904 40057 56014 60006 71022 885// 90600 333 11051 21061 60004=
07335,1997-01-03 09:00:00,-5,1005.5,-0.1,79,-8,3500,22.224,,,60,,,,,,,,,,10,wg-a,,,,AAXX 03094 07335 12335 80612 11050 21080 39903 40055 58001 60006 71022 8/57/ 90900=
07335,1997-01-03 12:00:00,-4,1002.9,-2.5,86,-6,3000,22.224,,,50,,,,,,,,,,10,wg-a,,,,AAXX 03124 07335 12230 80512 11040 21060 39878 40029 58025 60006 71022 886// 91200=
07335,1997-01-03 15:00:00,-4,1000.7,-2.2,86,-6,2000,22.224,,,50,,,,,,,,,,10,wg-a,,,,AAXX 03154 07335 02320 80512 11040 21060 39856 40007 56022 61000 71062 887// 91500 333 ////=
07335,1997-01-03 18:00:00,-4,999.4,-1.3,86,-6,3000,25.928,,,40,-6.2,-3.7,,,,,,,,,wg-a,,,,AAXX 03184 07335 12/30 /0414 11040 21060 39843 49994 55013 60006 91800 333 11037 21062=
07335,1997-01-04 00:00:00,-3,999.2,-0,93,-4,0,22.224,,,30,,,,,,,,,,,wg-a,,,,AAXX 04004 07335 12/// /0312 11030 21040 39842 49992 55000 60016 90000=
07335,1997-01-04 06:00:00,-3,1002.2,1.8,93,-4,1500,14.816,,,40,-4.7,-2.8,,,,,2,,,10,wg-a,,,,AAXX 04064 07335 02115 80408 11030 21040 39871 40022 53018 60006 71022 886// 90600 333 11028 21047 60024=
07335,1997-01-04 09:00:00,-3,1004.1,1.9,93,-4,1200,11.112,,,340,,,,,,,,,,71,wg-a,,,,AAXX 04094 07335 02112 83406 11030 21040 39890 40041 53019 61000 77172 887// 90900 333 ////=
07335,1997-01-04 12:00:00,-4,1004.7,0.6,100,-4,800,14.816,,,330,,,,1,,,,,,73,wg-a,,,,AAXX 04124 07335 02208 83308 11040 21040 39896 40047 51006 60016 77372 887// 91200 333 60017=
07335,1997-01-04 15:00:00,-3,1005.5,0.8,93,-4,1500,7.408,,,330,,,,0,,,,,,71,wg-a,,,,AAXX 04154 07335 12215 83304 11030 21040 39904 40055 53008 60007 77177 887// 91500=
07335,1997-01-04 18:00:00,-2,1006.9,1.5,100,-2,0,11.112,,,330,-3.6,-1.7,,,,,,,,,wg-a,,,,AAXX 04184 07335 32/// /3306 11020 21020 39919 40069 51015 91800 333 11017 21036=
07335,1997-01-05 00:00:00,0,1007.8,0.3,93,-1,0,11.112,,,280,,,,,,,,,,,wg-a,,,,AAXX 05004 07335 12/// /2806 10000 21010 39929 40078 53003 60006 90000=
07335,1997-01-05 06:00:00,0,1008,-0.4,93,-1,3000,11.112,,,290,-1.7,0.1,,,,,2,,,10,wg-a,,2,,AAXX 05064 07335 02230 82906 10000 21010 39930 40080 56004 60006 71022 886// 90600 333 10001 21017 4/002 60024=
07335,1997-01-05 09:00:00,-2,1009.6,1.5,100,-2,1200,11.112,,,30,,,,,,,,,,10,wg-a,,,,AAXX 05094 07335 02112 80306 11020 21020 39945 40096 51015 61000 71072 887// 90900 333 ////=
07335,1997-01-05 12:00:00,-2,1010.3,0.7,93,-3,3500,7.408,,,80,,,,,,,,,,10,wg-a,,,,AAXX 05124 07335 02135 80804 11020 21030 39952 40103 51007 61000 71072 887// 91200 333 6100=
07335,1997-01-05 15:00:00,-2,1010.6,0.3,93,-3,1200,7.408,,,90,,,,,,,,,,10,wg-a,,,,AAXX 05154 07335 02112 80904 11020 21030 39955 40106 53003 61000 71052 887// 91500 333 ////=
07335,1997-01-05 18:00:00,-2,1011.4,0.8,93,-3,0,7.408,,,90,-2.4,0.1,,,,,,,,,wg-a,,,,AAXX 05184 07335 32/// /0904 11020 21030 39963 40114 51008 91800 333 10001 21024=
07335,1997-01-06 00:00:00,-2,1013.6,0.9,93,-3,0,7.408,,,90,,,,,,,,,,,wg-a,,,,AAXX 06004 07335 02/// /0904 11020 21030 39984 40136 50009 61000 90000 333 ////=
07335,1997-01-06 06:00:00,-2,1014.3,0.5,93,-3,2000,7.408,,,40,-2.5,-1.9,,,,,,,,10,wg-a,,2,,AAXX 06064 07335 02320 80404 11020 21030 39991 40143 51005 60006 71022 885// 90600 333 11019 21025 4/002 61000=
07335,1997-01-06 09:00:00,-2,1015.6,1.3,93,-3,2000,7.408,,,30,,,,,,,,,,10,wg-a,,,,AAXX 06094 07335 12620 80304 11020 21030 30004 40156 53013 60006 71022 885// 90900=
07335,1997-01-06 12:00:00,-1,1015.9,0.4,93,-2,2500,7.408,,,30,,,,,,,,,,10,wg-a,,,,AAXX 06124 07335 12225 80304 11010 21020 30008 40159 50004 60006 71022 885// 91200=
07335,1997-01-06 15:00:00,-1,1015.9,-0,93,-2,2500,11.112,,,40,,,,,,,,,,10,wg-a,,,,AAXX 06154 07335 12225 80406 11010 21020 30008 40159 55000 60006 71022 886// 91500=
07335,1997-01-06 18:00:00,-1,1017.1,1.2,100,-1,1800,7.408,,,20,-2.3,-0.7,,,,,,,,10,wg-a,,2,,AAXX 06184 07335 12118 80204 11010 21010 30020 40171 51012 60006 71022 886// 91800 333 11007 21023 4/002=
07335,1997-01-07 00:00:00,-2,1018.3,0.1,100,-2,0,7.408,,,50,,,,,,,,,,,wg-a,,,,AAXX 07004 07335 12/// /0504 11020 21020 30031 40183 52001 60006 90000=
07335,1997-01-07 06:00:00,-4,1018.8,-0.1,93,-5,1500,11.112,,,70,-3.8,-0.6,,,,,,,,10,wg-a,,2,,AAXX 07064 07335 02115 80706 11040 21050 30035 40188 55001 60006 71022 886// 90600 333 11006 21038 4/002 60004=
07335,1997-01-07 09:00:00,-5,1019.2,0.3,93,-6,500,11.112,,,110,,,,,,,,,,49,wg-a,,,,AAXX 07094 07335 12/05 91106 11050 21060 30038 40192 52003 60006 74942 89/// 90900=
07335,1997-01-07 12:00:00,-6,1018.4,-0.8,100,-6,500,11.112,,,70,,,,,,,,,,45,wg-a,,,,AAXX 07124 07335 12/05 90706 11060 21060 30030 40184 58008 60006 74542 89/// 91200=
07335,1997-01-07 15:00:00,-5,1016.5,-1.9,93,-6,1100,11.112,,,70,,,,,,,,,,10,wg-a,,,,AAXX 07154 07335 12111 80706 11050 21060 30011 40165 56019 60006 71042 886// 91500=
07335,1997-01-07 18:00:00,-6,1015.3,-1.2,93,-7,1000,14.816,,,90,-5.7,-3.9,,,,,,,,10,wg-a,,2,,AAXX 07184 07335 12110 80908 11060 21070 39999 40153 58012 60006 71042 886// 91800 333 11039 21057 4/002=
07335,1997-01-08 00:00:00,-5,1011.3,-2.4,93,-6,0,11.112,,,90,,,,,,,,,,,wg-a,,,,AAXX 08004 07335 12/// /0906 11050 21060 39960 40113 56024 60006 90000=
07335,1997-01-08 06:00:00,-4,1006.8,-1.7,93,-5,3000,7.408,,,70,-5.8,-3.9,,,,,,,,10,wg-a,,2,,AAXX 08064 07335 02130 80704 11040 21050 39916 40068 56017 60006 71022 886// 90600 333 11039 21058 4/002 60004=
07335,1997-01-08 09:00:00,-4,1006.2,-0.5,100,-4,2500,7.408,,,70,,,,,,,,,,10,wg-a,,,,AAXX 08094 07335 12125 80704 11040 21040 39911 40062 56005 60006 71022 886// 90900=
07335,1997-01-08 12:00:00,-3,1004.4,-1.7,100,-3,3000,11.112,,,100,,,,,,,,,,10,wg-a,,,,AAXX 08124 07335 12230 81006 11030 21030 39894 40044 58017 60006 71022 886// 91200=
07335,1997-01-08 15:00:00,-1,1002.1,-2.2,93,-2,3000,14.816,,,100,,,,,,,,,,10,wg-a,,,,AAXX 08154 07335 12230 81008 11010 21020 39872 40021 56022 60006 71022 885// 91500=
07335,1997-01-08 18:00:00,0,1001.7,-0.4,93,-1,2500,11.112,,,110,-4,-0.4,,,,,,,,10,wg-a,,2,,AAXX 08184 07335 02225 81106 10000 21010 39868 40017 57004 61000 71062 885// 91800 333 11004 21040 4/002 6100=
07335,1997-01-09 00:00:00,-2,1001.2,-0.1,100,-2,0,3.704,,,160,,,,,,,,,,,wg-a,,,,AAXX 09004 07335 12/// /1602 11020 21020 39863 40012 58001 60006 90000=
07335,1997-01-09 06:00:00,-1,1001.4,0.1,100,-1,1500,3.704,,,330,-3.2,0.1,,,,,,,,10,wg-a,,2,,AAXX 09064 07335 02615 83302 11010 21010 39865 40014 53001 60006 71022 885// 90600 333 10001 21032 4/002 61000=
07335,1997-01-09 09:00:00,-2,1002.9,1.4,93,-3,2000,3.704,,,350,,,,,,,,,,10,wg-a,,,,AAXX 09094 07335 12620 23502 11020 21030 39879 40029 53014 60006 71011 82530 90900=
07335,1997-01-09 12:00:00,1,1004.3,1.6,93,0,1800,3.704,,,330,,,,,,,,,,10,wg-a,,,,AAXX 09124 07335 12618 73302 10010 20000 39895 40043 51016 60006 71041 8357/ 91200=
07335,1997-01-09 15:00:00,2,1005.6,1.3,100,2,2000,3.704,,,10,,,,,,,,,,10,wg-a,,,,AAXX 09154 07335 12220 80102 10020 20020 39908 40056 53013 60006 71022 8563/ 91500=
07335,1997-01-09 18:00:00,1,1008.4,2.7,93,0,400,18.52,,,320,-3.2,2.7,,,,,,,,43,wg-a,,1,,AAXX 09184 07335 12/04 93210 10010 20000 39935 40084 53027 60006 74364 89/// 91800 333 10027 21032 4/001=
07335,1997-01-10 00:00:00,0,1012.8,1.9,100,0,0,14.816,,,310,,,,,,,,,,,wg-a,,,,AAXX 10004 07335 12/// /3108 10000 20000 39978 40128 53019 60006 90000=
07335,1997-01-10 06:00:00,1,1016.3,1.7,93,0,500,11.112,,,330,0,0.8,,,,,,,,45,wg-a,,0,,AAXX 10064 07335 02/05 93306 10010 20000 30013 40163 51017 60006 74542 89/// 90600 333 10008 20000 4/9999 60004=
07335,1997-01-10 09:00:00,1,1018.8,2.4,100,1,700,3.704,,,300,,,,,,,,,,45,wg-a,,,,AAXX 10094 07335 12/07 93002 10010 20010 30037 40188 53024 60006 74544 89/// 90900=
07335,1997-01-10 12:00:00,1,1020.1,1.3,100,1,800,3.704,,,350,,,,,,,,,,43,wg-a,,,,AAXX 10124 07335 12/08 93502 10010 20010 30050 40201 50013 60006 74344 89/// 91200=
07335,1997-01-10 15:00:00,2,1021.2,1.1,93,1,1200,7.408,,,350,,,,,,,,,,10,wg-a,,,,AAXX 10154 07335 12112 83504 10020 20010 30061 40212 51011 60006 71042 886// 91500=
07335,1997-01-10 18:00:00,1,1022.3,1.1,100,1,1600,3.704,,,180,0.6,1.5,,,,,,,,10,wg-a,,,,AAXX 10184 07335 12116 81802 10010 20010 30072 40223 53011 60006 71042 886// 91800 333 10015 20006=
07335,1997-01-11 00:00:00,1,1023.7,0.3,100,1,0,7.408,,,170,,,,,,,,,,,wg-a,,,,AAXX 11004 07335 12/// /1704 10010 20010 30086 40237 50003 60006 90000=
07335,1997-01-11 06:00:00,0,1025.2,0.7,100,0,100,3.704,,,170,-0.1,1.2,,,,,,,,45,wg-a,,,,AAXX 11064 07335 02/01 91702 10000 20000 30100 40252 53007 60006 74542 89/// 90600 333 10012 21001 60004=
07335,1997-01-11 09:00:00,0,1026.6,1.4,100,0,200,7.408,,,170,,,,,,,,,,45,wg-a,,,,AAXX 11094 07335 12/02 91704 10000 20000 30114 40266 51014 60006 74544 89/// 90900=
07335,1997-01-11 12:00:00,2,1026.5,-0,100,2,3300,7.408,,,170,,,,,,,,,,10,wg-a,,,,AAXX 11124 07335 12233 71704 10020 20020 30114 40265 55000 60006 71042 8753/ 91200=
07335,1997-01-11 15:00:00,3,1026.8,0.4,93,2,3500,7.408,,,140,,,,,,,,,,10,wg-a,,,,AAXX 11154 07335 12235 71404 10030 20020 30118 40268 53004 60006 71022 875// 91500=
07335,1997-01-11 18:00:00,2,1027.2,0.3,93,1,0,7.408,,,130,-0.4,3.3,,,,,,,,,wg-a,,,,AAXX 11184 07335 12/// /1304 10020 20010 30121 40272 50003 60006 91800 333 10033 21004=
07335,1997-01-12 00:00:00,1,1027.9,0.2,100,1,0,7.408,,,130,,,,,,,,,,,wg-a,,,,AAXX 12004 07335 12/// /1304 10010 20010 30127 40279 50002 60006 90000=
07335,1997-01-12 06:00:00,-3,1028,-0.2,100,-3,1500,0,,,0,-3,2.3,,,,,,,,10,wg-a,,,,AAXX 12064 07335 02/15 00000 11030 21030 30126 40280 55002 60006 71000 80000 90600 333 10023 21030 60004=
07335,1997-01-12 09:00:00,0,1028.4,0.5,93,-1,2800,7.408,,,80,,,,,,,,,,10,wg-a,,,,AAXX 12094 07335 12/28 20804 10000 21010 30131 40284 52005 60006 71000 80002 90900=
07335,1997-01-12 12:00:00,6,1027.3,-0.7,56,-2,12000,7.408,,,40,,,,,,,,,,,wg-a,,,,AAXX 12124 07335 12/62 10404 10060 21020 30124 40273 58007 60006 80002 91200=
07335,1997-01-12 15:00:00,9,1026.2,-1,43,-3,25000,11.112,,,70,,,,,,,,,,,wg-a,,,,AAXX 12154 07335 12/75 20706 10090 21030 30114 40262 56010 60006 80002 91500=
07335,1997-01-12 18:00:00,5,1026,-0.4,56,-3,0,7.408,,,90,-2.9,8.8,,,,,,,,,wg-a,,,,AAXX 12184 07335 12/// /0904 10050 21030 30110 40260 58004 60006 91800 333 10088 21029=
07335,1997-01-13 00:00:00,-2,1025.4,-1,86,-4,0,7.408,,,40,,,,,,,,,,,wg-a,,,,AAXX 13004 07335 12/// /0404 11020 21040 30101 40254 58010 60006 90000=
07335,1997-01-13 06:00:00,-4,1024.2,-0.5,86,-6,25000,7.408,,,40,-4.1,4.8,,,,,,,,,wg-a,,,,AAXX 13064 07335 02/75 00404 11040 21060 30088 40242 56005 60006 80000 90600 333 10048 21041 60004=
07335,1997-01-13 09:00:00,-1,1024.2,0.1,74,-5,10000,7.408,,,60,,,,,,,,,,,wg-a,,,,AAXX 13094 07335 12/60 10604 11010 21050 30089 40242 53001 60006 80001 90900=
07335,1997-01-13 12:00:00,3,1023.6,-0.3,56,-5,8000,7.408,,,60,,,,,,,,,,,wg-a,,,,AAXX 13124 07335 12/58 00604 10030 21050 30086 40236 58003 60006 80000 91200=
07335,1997-01-13 15:00:00,6,1022.5,-1,52,-3,8000,7.408,,,120,,,,,,,,,,,wg-a,,,,AAXX 13154 07335 12/58 01204 10060 21030 30076 40225 56010 60006 80000 91500=
07335,1997-01-13 18:00:00,1,1022.9,0.2,80,-2,8000,7.408,,,80,-3.7,5.8,,,,,,,,,wg-a,,,,AAXX 13184 07335 12/58 00804 10010 21020 30078 40229 53002 60006 80000 91800 333 10058 21037=
07335,1997-01-14 00:00:00,-5,1022.5,-0.4,93,-6,0,3.704,,,40,,,,,,,,,,,wg-a,,,,AAXX 14004 07335 12/// /0402 11050 21060 30071 40225 58004 60006 90000=
07335,1997-01-14 06:00:00,-6,1022.1,-0.3,93,-7,4000,3.704,,,140,-6.9,1.2,,,,,,,,10,wg-a,,,,AAXX 14064 07335 02/40 01402 11060 21070 30066 40221 57003 60006 71000 80000 90600 333 10012 21069 60004=
07335,1997-01-14 09:00:00,-3,1022.3,0.4,100,-3,4500,0,,,0,,,,,,,,,,10,wg-a,,,,AAXX 14094 07335 12/45 00000 11030 21030 30070 40223 52004 60006 71000 80000 90900=
07335,1997-01-14 12:00:00,9,1021.3,-0.4,46,-2,12000,7.408,,,150,,,,,,,,,,,wg-a,,,,AAXX 14124 07335 12/62 01504 10090 21020 30066 40213 58004 60006 80000 91200=
07335,1997-01-14 15:00:00,11,1020.4,-0.7,47,0,25000,7.408,,,100,,,,,,,,,,,wg-a,,,,AAXX 14154 07335 12/75 01004 10110 20000 30059 40204 55007 60006 80000 91500=
07335,1997-01-14 18:00:00,0,1021.7,0.7,80,-3,15000,0,,,0,-6.6,11.8,,,,,,,,,wg-a,,,,AAXX 14184 07335 12/65 00000 10000 21030 30066 40217 51007 60006 80000 91800 333 10118 21066=
07335,1997-01-15 06:00:00,-5,1023.7,0.2,93,-6,8000,3.704,,,160,-5.2,0.3,,,,,,,,,wg-a,,,,AAXX 15064 07335 02/58 01602 11050 21060 30082 40237 53002 60006 80000 90600 333 10003 21052 60004=
07335,1997-01-15 09:00:00,-2,1024.2,0.7,100,-2,15000,3.704,,,140,,,,,,,,,,,wg-a,,,,AAXX 15094 07335 12/65 01402 11020 21020 30089 40242 51007 60006 80000 90900=
07335,1997-01-15 12:00:00,11,1022.8,-0.7,47,0,20000,3.704,,,140,,,,,,,,,,,wg-a,,,,AAXX 15124 07335 12/70 01402 10110 20000 30082 40228 58007 60006 80000 91200=
07335,1997-01-15 15:00:00,12,1021.5,-1.2,47,1,25000,11.112,,,100,,,,,,,,,,,wg-a,,,,AAXX 15154 07335 12/75 01006 10120 20010 30070 40215 56012 60006 80000 91500=
07335,1997-01-15 18:00:00,2,1021.9,-0.2,75,-2,20000,0,,,0,-5.4,13,,,,,,,,,wg-a,,,,AAXX 15184 07335 12/70 00000 10020 21020 30068 40219 57002 60006 80000 91800 333 10130 21054=
07335,1997-01-16 00:00:00,1,1021.6,-0.3,86,-1,0,11.112,,,160,,,,,,,,,,,wg-a,,,,AAXX 16004 07335 12/// /1606 10010 21010 30065 40216 58003 60006 90000=
07335,1997-01-16 06:00:00,1,1020.1,-0.9,86,-1,15000,11.112,,,150,-3.8,1.8,,,,,,,,,wg-a,,,,AAXX 16064 07335 02/65 01506 10010 21010 30050 40201 56009 60006 80000 90600 333 10018 21038 60004=
07335,1997-01-16 12:00:00,10,1018.4,-1.4,66,4,20000,14.816,,,170,,,,,,,,,,,wg-a,,,,AAXX 16124 07335 12/70 11708 10100 20040 30038 40184 58014 60006 81030 91200=
07335,1997-01-16 15:00:00,12,1016.2,-2,62,5,25000,18.52,,,160,,,,,,,,,,,wg-a,,,,AAXX 16154 07335 12/75 01610 10120 20050 30018 40162 56020 60006 80000 91500=
07335,1997-01-16 18:00:00,8,1016,-0.4,76,4,20000,11.112,,,150,0.2,12.5,,,,,,,,,wg-a,,,,AAXX 16184 07335 12/70 11506 10080 20040 30014 40160 56004 60006 81030 91800 333 10125 20002=
07335,1997-01-17 00:00:00,6,1014.4,-1.2,81,3,0,14.816,,,170,,,,,,,,,,,wg-a,,,,AAXX 17004 07335 12/// /1708 10060 20030 39997 40144 58012 60006 90000=
07335,1997-01-17 06:00:00,6,1013.1,-0.5,87,4,15000,11.112,,,170,5.3,8.2,,,,,,,,21,wg-a,,,,AAXX 17064 07335 02665 81706 10060 20040 39984 40131 56005 61000 72162 875// 90600 333 10082 20053 6100=
07335,1997-01-17 09:00:00,8,1014.3,1.3,87,6,15000,14.816,,,180,,,,,,,,,,,wg-a,,,,AAXX 17094 07335 12465 81808 10080 20060 39997 40143 51013 60006 875// 90900=
07335,1997-01-17 12:00:00,9,1015.1,0.8,93,8,10000,18.52,,,200,,,,1,,,,,,61,wg-a,,,,AAXX 17124 07335 02560 82010 10090 20080 30005 40151 51008 60016 76162 875// 91200 333 60017=
07335,1997-01-17 15:00:00,8,1016.1,1,100,8,6000,11.112,,,230,,,,1,,,,,,61,wg-a,,,,AAXX 17154 07335 12256 82306 10080 20080 30015 40161 53010 60017 76166 875// 91500=
07335,1997-01-17 18:00:00,7,1018,1.8,93,6,2000,11.112,,,240,6,9.7,,0,,,,,,10,wg-a,,,,AAXX 17184 07335 02220 82406 10070 20060 30033 40180 53018 60006 71065 885// 91800 333 10097 20060 60007=
07335,1997-01-18 00:00:00,5,1020.5,0.5,100,5,0,7.408,,,210,,,,,,,,,,,wg-a,,,,AAXX 18004 07335 12/// /2104 10050 20050 30057 40205 51005 60006 90000=
07335,1997-01-18 06:00:00,5,1020,-0.3,100,5,200,7.408,,,200,4.3,6.8,,,,,2,,,43,wg-a,,,,AAXX 18064 07335 02/02 92004 10050 20050 30051 40200 55003 60006 74342 89/// 90600 333 10068 20043 60024=
07335,1997-01-18 09:00:00,5,1019.3,-0.7,100,5,500,18.52,,,140,,,,,,,,,,45,wg-a,,,,AAXX 18094 07335 12/05 91410 10050 20050 30044 40193 58007 60006 74544 89/// 90900=
07335,1997-01-18 12:00:00,5,1015.6,-3.6,100,5,1500,14.816,,,130,,,,,,,,,,10,wg-a,,,,AAXX 18124 07335 12115 81308 10050 20050 30008 40156 58036 60006 71042 886// 91200=
07335,1997-01-18 15:00:00,6,1012.5,-3,100,6,1500,18.52,,,100,,,,,,,,,,10,wg-a,,,,AAXX 18154 07335 12115 81010 10060 20060 39978 40125 56030 60006 71022 886// 91500=
07335,1997-01-18 18:00:00,6,1010.4,-2,100,6,0,7.408,,,170,4.2,6.9,,,,,,,,,wg-a,,,,AAXX 18184 07335 12/// /1704 10060 20060 39958 40104 56020 60006 91800 333 10069 20042=
07335,1997-01-19 00:00:00,9,1009.6,0.3,87,7,0,14.816,,,200,,,,,,,,,,,wg-a,,,,AAXX 19004 07335 12/// /2008 10090 20070 39951 40096 50003 60016 90000=
07335,1997-01-19 06:00:00,7,1009.5,-0,100,7,8000,14.816,,,190,6.1,8.8,,,,,,,,61,wg-a,,,,AAXX 19064 07335 02658 81908 10070 20070 39949 40095 55000 61000 76161 885// 90600 333 10088 20061 6001=
07335,1997-01-19 09:00:00,6,1010.6,1,93,5,25000,7.408,,,180,,,,3,,,,,,3,wg-a,,,,AAXX 19094 07335 12575 71804 10060 20050 39959 40106 53010 60037 70362 879// 90900=
07335,1997-01-19 12:00:00,11,1010.7,0.4,71,6,25000,18.52,,,200,,,,,,,,,,1,wg-a,,,,AAXX 19124 07335 12575 42010 10110 20060 39963 40107 50004 60036 70161 83902 91200=
07335,1997-01-19 15:00:00,12,1010.6,-0,71,7,25000,14.816,,,200,,,,,,,,,,,wg-a,,,,AAXX 19154 07335 12575 52008 10120 20070 39963 40106 55000 60006 84901 91500=
07335,1997-01-19 18:00:00,7,1012.2,1.3,93,6,0,7.408,,,160,5.7,12.4,,,,,,,,,wg-a,,,,AAXX 19184 07335 32/// /1604 10070 20060 39976 40122 53013 91800 333 10124 20057=
07335,1997-01-20 00:00:00,0,1014.3,0.9,100,0,0,3.704,,,340,,,,,,,,,,,wg-a,,,,AAXX 20004 07335 12/// /3402 10000 20000 39993 40143 51009 60006 90000=
07335,1997-01-20 06:00:00,3,1014,0.2,93,2,500,14.816,,,30,0,7.5,,,,,3,,,,wg-a,,,,AAXX 20064 07335 02/00 70308 10030 20020 39991 40140 51002 60006 82032 90600 333 10075 20000 60034=
07335,1997-01-20 09:00:00,4,1016.1,2.1,93,3,8000,14.816,,,40,,,,,,,,,,,wg-a,,,,AAXX 20094 07335 12/58 70408 10040 20030 30012 40161 53021 60006 8703/ 90900=
07335,1997-01-20 12:00:00,8,1017.3,1.4,81,5,15000,22.224,,,60,,,,,,,,,,,wg-a,,,,AAXX 20124 07335 12465 70612 10080 20050 30026 40173 51014 60006 81232 91200=
07335,1997-01-20 15:00:00,6,1017.5,0.2,93,5,20000,22.224,,,50,,,,,,,,,,,wg-a,,,,AAXX 20154 07335 12370 70512 10060 20050 30028 40175 53002 60006 876// 91500=
07335,1997-01-20 18:00:00,6,1019,1.4,87,4,20000,25.928,,,60,2.4,8.4,,,,,,,,,wg-a,,,,AAXX 20184 07335 12370 70614 10060 20040 30042 40190 51014 60006 876// 91800 333 10084 20024=
07335,1997-01-21 00:00:00,6,1020.3,0.4,81,3,0,22.224,,,70,,,,,,,,,,,wg-a,,,,AAXX 21004 07335 12/// /0712 10060 20030 30055 40203 51004 60006 90000=
07335,1997-01-21 06:00:00,5,1018.1,-0.9,87,3,20000,22.224,,,60,4.6,5.8,,,,,,,,,wg-a,,,,AAXX 21064 07335 02470 80612 10050 20030 30033 40181 58009 60006 875// 90600 333 10058 20046 60004=
07335,1997-01-21 09:00:00,5,1017.3,-0.8,87,3,20000,22.224,,,80,,,,,,,,,,,wg-a,,,,AAXX 21094 07335 12370 80812 10050 20030 30025 40173 58008 60006 876// 90900=
07335,1997-01-21 12:00:00,6,1016.2,-1,87,4,8000,22.224,,,80,,,,,,,,,,61,wg-a,,,,AAXX 21124 07335 02358 80812 10060 20040 30015 40162 58010 61000 76162 876// 91200 333 6100=
07335,1997-01-21 15:00:00,7,1014.3,,93,6,20000,14.816,,,90,,,,0,,,,,,1,wg-a,,,,AAXX 21154 07335 12370 70908 10070 20060 39997 40143 60007 70162 86530 91500=
07335,1997-01-21 18:00:00,8,1013.7,-0.6,87,6,15000,14.816,,,110,4.6,7.9,,,,,,,,1,wg-a,,,,AAXX 21184 07335 12665 71108 10080 20060 39991 40137 58006 60006 70162 8453/ 91800 333 10079 20046=
07335,1997-01-22 00:00:00,7,1014.8,0.7,93,6,0,7.408,,,120,,,,,,,,,,,wg-a,,,,AAXX 22004 07335 12/// /1204 10070 20060 30002 40148 50007 60006 90000=
07335,1997-01-22 06:00:00,9,1015.8,0.2,93,8,20000,18.52,,,180,6.8,8.8,,,,,,,,21,wg-a,,,,AAXX 22064 07335 02370 71810 10090 20080 30012 40158 53002 61000 72162 875// 90600 333 10088 20068 6004=
07335,1997-01-22 09:00:00,9,1017.2,1.4,93,8,25000,11.112,,,190,,,,,,,,,,,wg-a,,,,AAXX 22094 07335 12675 /1906 10090 20080 30026 40172 53014 60006 85502 90900=
07335,1997-01-22 12:00:00,14,1017.6,0.6,67,8,25000,18.52,,,210,,,,,,,,,,,wg-a,,,,AAXX 22124 07335 12575 42110 10140 20080 30032 40176 51006 60006 83802 91200=
07335,1997-01-22 15:00:00,14,1017.6,0.1,72,9,25000,18.52,,,200,,,,,,,,,,,wg-a,,,,AAXX 22154 07335 12575 32010 10140 20090 30033 40176 53001 60006 82802 91500=
07335,1997-01-22 18:00:00,10,1018.2,0.4,87,8,20000,7.408,,,190,8,14.2,,,,,,,,,wg-a,,,,AAXX 22184 07335 12/70 01904 10100 20080 30037 40182 53004 60006 80000 91800 333 10142 20080=
07335,1997-01-23 00:00:00,5,1020.4,0.4,100,5,0,11.112,,,150,,,,,,,,,,,wg-a,,,,AAXX 23004 07335 12/// /1506 10050 20050 30055 40204 51004 60006 90000=
07335,1997-01-23 06:00:00,5,1020.1,0.4,100,5,3500,7.408,,,360,1.5,10.2,,,,,,,,10,wg-a,,,,AAXX 23064 07335 02535 73604 10050 20050 30053 40201 53004 61000 71062 8653/ 90600 333 10102 20015 6100=
07335,1997-01-23 09:00:00,7,1020.5,0.5,100,7,2000,3.704,,,50,,,,1,,,,,,10,wg-a,,,,AAXX 23094 07335 12520 70502 10070 20070 30058 40205 51005 60017 71065 8657/ 90900=
07335,1997-01-23 12:00:00,9,1020.1,-0.3,100,9,3500,3.704,,,30,,,,0,,,,,,10,wg-a,,,,AAXX 23124 07335 02635 70302 10090 20090 30055 40201 58003 60016 71065 8653/ 91200 333 60007=
07335,1997-01-23 18:00:00,8,1020.5,0.6,93,7,3000,0,,,0,5,12,,,,,,,,11,wg-a,,,,AAXX 23184 07335 12/30 50000 10080 20070 30058 40205 50006 60006 71122 82032 91800 333 10120 20050=
07335,1997-01-24 00:00:00,7,1023,0.7,100,7,0,3.704,,,160,,,,,,,,,,,wg-a,,,,AAXX 24004 07335 12/// /1602 10070 20070 30082 40230 51007 60006 90000=
07335,1997-01-24 06:00:00,11,1022.8,0.2,71,6,15000,11.112,,,150,6.8,12,,,,,1,,,,wg-a,,,,AAXX 24064 07335 02765 71506 10110 20060 30082 40228 53002 60006 8253/ 90600 333 10120 20068 60014=
07335,1997-01-24 09:00:00,10,1024.8,2,82,7,8000,7.408,,,130,,,,,,,,,,21,wg-a,,,,AAXX 24094 07335 02658 81304 10100 20070 30102 40248 51020 61000 72162 8457/ 90900 333 ////=
07335,1997-01-24 12:00:00,12,1025.4,0.6,82,9,15000,11.112,,,130,,,,0,,,,,,21,wg-a,,,,AAXX 24124 07335 02565 81306 10120 20090 30108 40254 50006 60006 72162 8557/ 91200 333 60007=
07335,1997-01-24 15:00:00,12,1025.4,-0,82,9,8000,7.408,,,120,,,,,,,,,,60,wg-a,,,,AAXX 24154 07335 02558 81204 10120 20090 30108 40254 55000 61000 76062 8557/ 91500 333 ////=
07335,1997-01-25 00:00:00,10,1027.6,0.1,93,9,0,7.408,,,130,,,,,,,,,,,wg-a,,,,AAXX 25004 07335 12/// /1304 10100 20090 30129 40276 50001 60016 90000=
07335,1997-01-25 06:00:00,9,1027.9,0.3,93,8,4000,11.112,,,100,8.9,12,,,,,,,,61,wg-a,,,,AAXX 25064 07335 02540 81006 10090 20080 30132 40279 53003 61000 76162 8652/ 90600 333 10120 20089 6004=
07335,1997-01-25 09:00:00,9,1028.6,0.6,93,8,3000,3.704,,,60,,,,1,,,,,,1,wg-a,,,,AAXX 25094 07335 12630 70602 10090 20080 30138 40286 53006 60017 70162 8157/ 90900=
07335,1997-01-25 12:00:00,11,1027.9,-0.5,87,9,6000,7.408,,,70,,,,,,,,,,1,wg-a,,,,AAXX 25124 07335 12756 60704 10110 20090 30133 40279 58005 60016 70162 81532 91200=
07335,1997-01-25 15:00:00,14,1026.8,-1,72,9,12000,7.408,,,70,,,,,,,,,,,wg-a,,,,AAXX 25154 07335 12/62 10704 10140 20090 30123 40268 56010 60006 81032 91500=
07335,1997-01-25 18:00:00,11,1027.2,0.3,82,8,0,14.816,,,60,8.4,14.4,,,,,,,,,wg-a,,,,AAXX 25184 07335 32/// /0608 10110 20080 30126 40272 53003 91800 333 10144 20084=
07335,1997-01-26 00:00:00,6,1028.3,0.4,100,6,0,11.112,,,70,,,,,,,,,,,wg-a,,,,AAXX 26004 07335 12/// /0706 10060 20060 30134 40283 51004 60006 90000=
07335,1997-01-26 06:00:00,4,1027.3,-0.3,100,4,400,11.112,,,80,4.1,10.9,,,,,1,,,45,wg-a,,,,AAXX 26064 07335 02/04 90806 10040 20040 30123 40273 57003 60006 74542 89/// 90600 333 10109 20041 60014=
07335,1997-01-26 09:00:00,4,1027.9,0.6,100,4,400,11.112,,,90,,,,,,,,,,43,wg-a,,,,AAXX 26094 07335 12/04 90906 10040 20040 30129 40279 53006 60006 74344 89/// 90900=
07335,1997-01-26 12:00:00,5,1028.1,0.2,100,5,2500,11.112,,,60,,,,,,,,,,10,wg-a,,,,AAXX 26124 07335 12125 80606 10050 20050 30131 40281 52002 60006 71042 886// 91200=
07335,1997-01-26 15:00:00,5,1027.1,-0.9,100,5,3000,11.112,,,60,,,,,,,,,,10,wg-a,,,,AAXX 26154 07335 12130 80606 10050 20050 30122 40271 56009 60006 71022 886// 91500=
07335,1997-01-26 18:00:00,5,1027.9,0.7,93,4,0,14.816,,,70,4.3,5.3,,,,,,,,,wg-a,,,,AAXX 26184 07335 12/// /0708 10050 20040 30129 40279 53007 60006 91800 333 10053 20043=
07335,1997-01-27 00:00:00,3,1029.1,0.5,93,2,0,18.52,,,40,,,,,,,,,,,wg-a,,,,AAXX 27004 07335 12/// /0410 10030 20020 30140 40291 53005 60006 90000=
07335,1997-01-27 06:00:00,2,1030.3,0.9,93,1,500,18.52,,,40,1.9,5.1,,,,,,,,,wg-a,,,,AAXX 27064 07335 02200 80410 10020 20010 30151 40303 53009 60006 886// 90600 333 10051 20019 60004=
07335,1997-01-27 09:00:00,2,1031.8,1.5,87,0,8000,14.816,,,30,,,,,,,,,,,wg-a,,,,AAXX 27094 07335 12358 80308 10020 20000 30166 40318 51015 60006 886// 90900=
07335,1997-01-27 12:00:00,3,1032.7,0.9,81,0,8000,18.52,,,50,,,,,,,,,,,wg-a,,,,AAXX 27124 07335 12358 80510 10030 20000 30175 40327 50009 60006 885// 91200=
07335,1997-01-27 15:00:00,4,1033,0.4,81,1,8000,22.224,,,40,,,,,,,,,,,wg-a,,,,AAXX 27154 07335 12458 80412 10040 20010 30179 40330 53004 60006 885// 91500=
07335,1997-01-27 18:00:00,3,1034.5,1.4,75,-1,8000,18.52,,,60,1.5,3.7,,,,,,,,,wg-a,,,,AAXX 27184 07335 12458 80610 10030 21010 30193 40345 53014 60006 885// 91800 333 10037 20015=
07335,1997-01-28 00:00:00,0,1036.8,0.7,80,-3,0,18.52,,,60,,,,,,,,,,,wg-a,,,,AAXX 28004 07335 12/// /0610 10000 21030 30214 40368 51007 60006 90000=
07335,1997-01-28 06:00:00,1,1036.1,-0.2,80,-2,7000,7.408,,,40,-0.1,3.1,,,,,,,,,wg-a,,,,AAXX 28064 07335 02457 80404 10010 21020 30208 40361 57002 60006 885// 90600 333 10031 21001 60004=
07335,1997-01-28 09:00:00,1,1036,-0.1,93,0,6000,7.408,,,20,,,,,,,,,,,wg-a,,,,AAXX 28094 07335 12256 70204 10010 20000 30207 40360 56001 60006 876// 90900=
07335,1997-01-28 12:00:00,2,1035.3,-0.7,69,-3,9000,25.928,,,60,,,,,,,,,,,wg-a,,,,AAXX 28124 07335 12459 70614 10020 21030 30200 40353 58007 60006 875// 91200=
07335,1997-01-28 15:00:00,2,1034.9,-0.4,69,-3,8000,18.52,,,60,,,,,,,,,,,wg-a,,,,AAXX 28154 07335 12558 80610 10020 21030 30196 40349 55004 60006 885// 91500=
07335,1997-01-28 18:00:00,2,1035.4,0.6,75,-2,6000,18.52,,,60,0.5,2.4,,,,,,,,,wg-a,,,,AAXX 28184 07335 12556 80610 10020 21020 30202 40354 53006 60006 885// 91800 333 10024 20005=
07335,1997-01-29 00:00:00,1,1036,0.2,86,-1,0,11.112,,,70,,,,,,,,,,,wg-a,,,,AAXX 29004 07335 12/// /0706 10010 21010 30207 40360 53002 60006 90000=
07335,1997-01-29 06:00:00,-1,1035.3,-0.4,93,-2,3000,11.112,,,60,-1.2,2.8,,,,,,,,10,wg-a,,,,AAXX 29064 07335 02/30 00606 11010 21020 30199 40353 56004 60006 71000 80000 90600 333 10028 21012 60004=
07335,1997-01-29 09:00:00,0,1035.8,0.5,93,-1,3500,11.112,,,80,,,,,,,,,,10,wg-a,,,,AAXX 29094 07335 12235 30806 10000 21010 30204 40358 53005 60006 71000 83600 90900=
07335,1997-01-29 12:00:00,5,1034.5,-1,75,1,12000,14.816,,,70,,,,,,,,,,,wg-a,,,,AAXX 29124 07335 12/62 00708 10050 20010 30194 40345 58010 60006 80000 91200=
07335,1997-01-29 15:00:00,4,1033.5,-1,81,1,12000,18.52,,,50,,,,,,,,,,,wg-a,,,,AAXX 29154 07335 12462 /0510 10040 20010 30184 40335 56010 60006 81500 91500=
07335,1997-01-29 18:00:00,1,1034.8,1.1,93,0,4000,18.52,,,70,-1.4,6,,,,,,,,10,wg-a,,,,AAXX 29184 07335 12240 80710 10010 20000 30195 40348 52011 60006 71011 88600 91800 333 10060 21014=
07335,1997-01-30 00:00:00,0,1034.2,-0.6,93,-1,0,14.816,,,80,,,,,,,,,,,wg-a,,,,AAXX 30004 07335 12/// /0808 10000 21010 30189 40342 57006 60006 90000=
07335,1997-01-30 06:00:00,-1,1033.9,0.1,100,-1,100,14.816,,,70,-1.2,1.6,,,,,,,,45,wg-a,,,,AAXX 30064 07335 02/01 90708 11010 21010 30185 40339 53001 60006 74542 89/// 90600 333 10016 21012 60004=
07335,1997-01-30 09:00:00,-1,1034.8,0.9,100,-1,200,11.112,,,70,,,,,,,,,,43,wg-a,,,,AAXX 30094 07335 12/02 90706 11010 21010 30194 40348 53009 60006 74344 89/// 90900=
07335,1997-01-30 12:00:00,0,1034.6,-0.1,100,0,1300,11.112,,,90,,,,,,,,,,10,wg-a,,,,AAXX 30124 07335 12113 80906 10000 20000 30193 40346 58001 60006 71042 886// 91200=
07335,1997-01-30 15:00:00,1,1033.2,-1.4,93,0,3500,14.816,,,60,,,,,,,,,,10,wg-a,,,,AAXX 30154 07335 12235 80608 10010 20000 30179 40332 56014 60006 71022 886// 91500=
07335,1997-01-30 18:00:00,0,1033.2,-0,93,-1,3000,11.112,,,80,-0.9,1.5,,,,,,,,10,wg-a,,,,AAXX 30184 07335 12130 80806 10000 21010 30179 40332 55000 60006 71022 886// 91800 333 10015 21009=
07335,1997-01-31 00:00:00,-1,1032.7,-0.5,93,-2,0,14.816,,,70,,,,,,,,,,,wg-a,,,,AAXX 31004 07335 12/// /0708 11010 21020 30173 40327 58005 60006 90000=
07335,1997-01-31 09:00:00,-1,1032.2,0.7,93,-2,1400,14.816,,,80,,,,,,,,,,10,wg-a,,,,AAXX 31094 07335 12114 80808 11010 21020 30168 40322 51007 60006 71022 886// 90900=
07335,1997-01-31 12:00:00,0,1031.1,-1,86,-2,4000,14.816,,,90,,,,,,,,,,10,wg-a,,,,AAXX 31124 07335 12240 70908 10000 21020 30158 40311 58010 60006 71022 876// 91200=
07335,1997-01-31 15:00:00,2,1030.2,-0.8,80,-1,500,14.816,,,70,,,,,,,,,,,wg-a,,,,AAXX 31154 07335 12400 40708 10020 21010 30150 40302 55008 60006 84600 91500=
07335,1997-01-31 18:00:00,-1,1030.7,0.4,93,-2,3000,18.52,,,70,-1.6,1.9,,,,,,,,10,wg-a,,,,AAXX 31184 07335 12230 70710 11010 21020 30154 40307 53004 60006 71011 876// 91800 333 10019 21016=
07335,1997-02-01 00:00:00,-1,1030.4,-0.2,93,-2,0,11.112,,,80,,,,,,,,,,,wg-a,,,,AAXX 01004 07335 12/// /0806 11010 21020 30150 40304 58002 60006 90000=
07335,1997-02-01 06:00:00,-2,1029.7,-0.4,100,-2,2000,11.112,,,80,-1.9,-0.7,,,,,,,,10,wg-a,,,,AAXX 01064 07335 02120 80806 11020 21020 30143 40297 56004 60006 71022 886// 90600 333 11007 21019 60004=
07335,1997-02-01 09:00:00,-2,1030.3,0.6,100,-2,1600,7.408,,,100,,,,,,,,,,10,wg-a,,,,AAXX 01094 07335 12116 81004 11020 21020 30149 40303 53006 60006 71022 886// 90900=
07335,1997-02-01 12:00:00,0,1029.8,-0.4,93,-1,3500,3.704,,,80,,,,,,,,,,10,wg-a,,,,AAXX 01124 07335 12235 80802 10000 21010 30145 40298 58004 60006 71022 886// 91200=
07335,1997-02-01 15:00:00,2,1029.1,-0.5,80,-1,500,3.704,,,40,,,,,,,,,,,wg-a,,,,AAXX 01154 07335 12300 80402 10020 21010 30140 40291 56005 60006 885// 91500=
07335,1997-02-01 18:00:00,2,1029.4,0.2,87,0,0,3.704,,,30,-2.2,2.2,,,,,,,,,wg-a,,,,AAXX 01184 07335 12/// /0302 10020 20000 30142 40294 53002 60006 91800 333 10022 21022=
07335,1997-02-02 06:00:00,1,1027.5,-0.4,93,0,3000,0,,,0,1.3,1.7,,,,,,,,10,wg-a,,,,AAXX 02064 07335 02430 80000 10010 20000 30123 40275 58004 60006 71022 878// 90600 333 10017 20013 60004=
07335,1997-02-02 09:00:00,2,1027.6,0.2,87,0,3800,7.408,,,60,,,,,,,,,,10,wg-a,,,,AAXX 02094 07335 12338 70604 10020 20000 30125 40276 51002 60006 71022 875// 90900=
07335,1997-02-02 12:00:00,4,1027.6,0.1,81,1,3500,3.704,,,40,,,,,,,,,,10,wg-a,,,,AAXX 02124 07335 12435 70402 10040 20010 30126 40276 50001 60006 71022 875// 91200=
07335,1997-02-02 15:00:00,5,1027.2,-0.4,81,2,3500,7.408,,,30,,,,,,,,,,10,wg-a,,,,AAXX 02154 07335 12435 70304 10050 20020 30122 40272 55004 60006 71022 875// 91500=
07335,1997-02-02 18:00:00,4,1027.9,0.7,93,3,0,11.112,,,40,1.3,5,,,,,,,,,wg-a,,,,AAXX 02184 07335 32/// /0406 10040 20030 30129 40279 53007 91800 333 10050 20013=
07335,1997-02-03 00:00:00,1,1029,-0.2,93,0,0,11.112,,,40,,,,,,,,,,,wg-a,,,,AAXX 03004 07335 12/// /0406 10010 20000 30138 40290 58002 60016 90000=
07335,1997-02-03 06:00:00,0,1030.3,1,100,0,100,11.112,,,360,-0.7,3.8,,,,,1,,,45,wg-a,,,,AAXX 03064 07335 02/01 93606 10000 20000 30150 40303 53010 60006 74542 89/// 90600 333 10038 21007 60014=
07335,1997-02-03 09:00:00,0,1030.9,0.6,100,0,100,0,,,0,,,,,,,,,,45,wg-a,,,,AAXX 03094 07335 12/01 90000 10000 20000 30156 40309 53006 60006 74544 89/// 90900=
07335,1997-02-03 12:00:00,2,1031,0.2,100,2,1500,3.704,,,20,,,,,,,,,,10,wg-a,,,,AAXX 03124 07335 12115 80202 10020 20020 30158 40310 50002 60006 71042 886// 91200=
07335,1997-02-03 18:00:00,4,1030.2,-0,93,3,12000,3.704,,,10,-0.4,4.6,,,,,,,,,wg-a,,,,AAXX 03184 07335 12262 80102 10040 20030 30152 40302 55000 60006 886// 91800 333 10046 21004=
07335,1997-02-04 00:00:00,3,1030.4,-0.2,93,2,0,3.704,,,220,,,,,,,,,,,wg-a,,,,AAXX 04004 07335 12/// /2202 10030 20020 30153 40304 56002 60006 90000=
07335,1997-02-04 06:00:00,1,1028,-1.3,100,1,300,11.112,,,210,1.1,4.5,,,,,,,,45,wg-a,,,,AAXX 04064 07335 02/03 92106 10010 20010 30128 40280 56013 60006 74542 89/// 90600 333 10045 20011 60004=
07335,1997-02-04 09:00:00,1,1028.2,0.2,100,1,400,14.816,,,220,,,,,,,,,,43,wg-a,,,,AAXX 04094 07335 12/04 92208 10010 20010 30130 40282 50002 60006 74344 89/// 90900=
07335,1997-02-04 12:00:00,2,1027.3,-0.8,100,2,500,22.224,,,210,,,,,,,,,,1,wg-a,,,,AAXX 04124 07335 12200 72112 10020 20020 30122 40273 58008 60006 70142 876// 91200=
07335,1997-02-04 15:00:00,3,1025.2,-2,93,2,3500,22.224,,,210,,,,,,,,,,10,wg-a,,,,AAXX 04154 07335 12135 82112 10030 20020 30102 40252 56020 60006 71022 886// 91500=
07335,1997-02-04 18:00:00,4,1024.8,-0.4,87,2,4000,14.816,,,210,0.6,3.6,,,,,,,,10,wg-a,,,,AAXX 04184 07335 12340 82108 10040 20020 30098 40248 56004 60006 71022 886// 91800 333 10036 20006=
07335,1997-02-05 00:00:00,5,1022.8,-1.4,87,3,0,22.224,,,200,,,,,,,,,,,wg-a,,,,AAXX 05004 07335 12/// /2012 10050 20030 30079 40228 56014 60006 90000=
07335,1997-02-05 06:00:00,8,1019.7,-1,100,8,1500,18.52,,,230,3.6,8,,,,,,,,61,wg-a,,,,AAXX 05064 07335 02115 82310 10080 20080 30050 40197 56010 61000 76162 887// 90600 333 10080 20036 6001=
07335,1997-02-05 09:00:00,10,1021.1,1.5,93,9,6000,29.632,,,270,,,,1,,,,,,51,wg-a,,,,AAXX 05094 07335 12256 72716 10100 20090 30065 40211 53015 60017 75165 875// 90900=
07335,1997-02-05 12:00:00,10,1024.9,3.8,82,7,500,25.928,,,330,,,,1,,,,,,1,wg-a,,,,AAXX 05124 07335 02400 73314 10100 20070 30103 40249 51038 60016 70165 878// 91200 333 60017=
07335,1997-02-05 15:00:00,12,1026.8,1.9,62,5,500,22.224,,,340,,,,,,,,,,,wg-a,,,,AAXX 05154 07335 12500 23412 10120 20050 30122 40268 53019 60006 82200 91500=
07335,1997-02-05 18:00:00,6,1030.1,2.9,81,3,25000,7.408,,,320,5.5,11.7,,,,,,,,,wg-a,,,,AAXX 05184 07335 12/75 13204 10060 20030 30151 40301 53029 60006 80001 91800 333 10117 20055=
07335,1997-02-06 00:00:00,0,1033.7,1.3,100,0,0,0,,,0,,,,,,,,,,,wg-a,,,,AAXX 06004 07335 12/// /0000 10000 20000 30184 40337 51013 60006 90000=
07335,1997-02-06 06:00:00,0,1032.6,-0.5,100,0,500,7.408,,,160,-3.1,5.7,,,,,1,,,,wg-a,,,,AAXX 06064 07335 02/00 51604 10000 20000 30173 40326 56005 60006 83032 90600 333 10057 21031 60014=
07335,1997-02-06 09:00:00,4,1033,0.6,93,3,8000,3.704,,,160,,,,,,,,,,,wg-a,,,,AAXX 06094 07335 12758 21602 10040 20030 30179 40330 53006 60006 81532 90900=
07335,1997-02-06 12:00:00,10,1032.3,-0.3,62,3,20000,11.112,,,200,,,,,,,,,,,wg-a,,,,AAXX 06124 07335 12/70 12006 10100 20030 30176 40323 58003 60006 81032 91200=
07335,1997-02-06 15:00:00,13,1030.5,-1.7,44,1,25000,7.408,,,170,,,,,,,,,,,wg-a,,,,AAXX 06154 07335 12/75 11704 10130 20010 30159 40305 56017 60006 81032 91500=
07335,1997-02-06 18:00:00,4,1030.2,-0.8,70,-1,20000,3.704,,,130,-0.7,13,,,,,,,,,wg-a,,,,AAXX 06184 07335 12/70 11302 10040 21010 30151 40302 56008 60006 81032 91800 333 10130 21007=
07335,1997-02-07 00:00:00,-3,1030,-0.1,93,-4,0,0,,,0,,,,,,,,,,,wg-a,,,,AAXX 07004 07335 12/// /0000 11030 21040 30146 40300 56001 60006 90000=
07335,1997-02-07 06:00:00,-2,1029.9,0.3,100,-2,6000,7.408,,,170,-4.6,4,,,,,,,,,wg-a,,,,AAXX 07064 07335 02/56 /1704 11020 21020 30145 40299 51003 60006 85032 90600 333 10040 21046 60004=
07335,1997-02-07 09:00:00,3,1030.8,1.2,87,1,10000,11.112,,,200,,,,,,,,,,,wg-a,,,,AAXX 07094 07335 12760 62006 10030 20010 30157 40308 53012 60006 81532 90900=
07335,1997-02-07 12:00:00,10,1031,0.5,50,0,20000,18.52,,,210,,,,,,,,,,,wg-a,,,,AAXX 07124 07335 12/70 42110 10100 20000 30162 40310 50005 60006 82032 91200=
07335,1997-02-07 15:00:00,12,1030.8,-0.1,50,2,20000,14.816,,,250,,,,,,,,,,,wg-a,,,,AAXX 07154 07335 12/70 32508 10120 20020 30161 40308 55001 60006 81032 91500=
07335,1997-02-07 18:00:00,5,1032,0.9,81,2,15000,3.704,,,20,-1.6,12.3,,,,,,,,,wg-a,,,,AAXX 07184 07335 12/65 40202 10050 20020 30170 40320 53009 60006 83032 91800 333 10123 21016=
07335,1997-02-08 00:00:00,1,1033.3,0.2,93,0,0,7.408,,,340,,,,,,,,,,,wg-a,,,,AAXX 08004 07335 12/// /3404 10010 20000 30180 40333 50002 60006 90000=
07335,1997-02-08 06:00:00,-3,1033.7,-0,93,-4,3000,0,,,0,-2.8,5.3,,,,,,,,10,wg-a,,,,AAXX 08064 07335 02/30 00000 11030 21040 30182 40337 54000 60006 71000 80000 90600 333 10053 21028 60004=
07335,1997-02-08 09:00:00,2,1034.4,1,93,1,500,0,,,0,,,,,,,,,,,wg-a,,,,AAXX 08094 07335 12/00 20000 10020 20010 30192 40344 51010 60006 81031 90900=
07335,1997-02-08 12:00:00,13,1033,-0.8,44,1,12000,3.704,,,240,,,,,,,,,,,wg-a,,,,AAXX 08124 07335 12/62 22402 10130 20010 30184 40330 58008 60006 80001 91200=
07335,1997-02-08 15:00:00,14,1031.3,-1.6,41,1,20000,3.704,,,110,,,,,,,,,,,wg-a,,,,AAXX 08154 07335 12/70 21102 10140 20010 30168 40313 56016 60006 80001 91500=
07335,1997-02-08 18:00:00,6,1032,0.2,70,1,0,3.704,,,350,-2.9,15.2,,,,,,,,,wg-a,,,,AAXX 08184 07335 12/// /3502 10060 20010 30170 40320 53002 60006 91800 333 10152 21029=
07335,1997-02-09 00:00:00,-1,1032.4,-0,100,-1,0,3.704,,,230,,,,,,,,,,,wg-a,,,,AAXX 09004 07335 12/// /2302 11010 21010 30171 40324 54000 60006 90000=
07335,1997-02-09 06:00:00,-1,1030.8,-0.8,93,-2,4000,3.704,,,160,-2.2,5.7,,,,,,,,10,wg-a,,,,AAXX 09064 07335 02/40 01602 11010 21020 30155 40308 58008 60006 71000 80000 90600 333 10057 21022 60004=
07335,1997-02-09 09:00:00,3,1031.4,0.8,87,1,8000,7.408,,,170,,,,,,,,,,,wg-a,,,,AAXX 09094 07335 12/58 01704 10030 20010 30163 40314 51008 60006 80000 90900=
07335,1997-02-09 12:00:00,12,1030.7,-0.2,62,5,12000,11.112,,,190,,,,,,,,,,,wg-a,,,,AAXX 09124 07335 12/62 01906 10120 20050 30161 40307 58002 60006 80000 91200=
07335,1997-02-09 15:00:00,15,1028.9,-1.7,48,4,15000,14.816,,,200,,,,,,,,,,,wg-a,,,,AAXX 09154 07335 12/65 02008 10150 20040 30144 40289 56017 60006 80000 91500=
07335,1997-02-09 18:00:00,8,1029.6,0.4,76,4,0,7.408,,,240,-2.3,14.9,,,,,,,,,wg-a,,,,AAXX 09184 07335 12/// /2404 10080 20040 30148 40296 53004 60006 91800 333 10149 21023=
07335,1997-02-10 00:00:00,6,1029.5,-0.5,93,5,0,7.408,,,180,,,,,,,,,,,wg-a,,,,AAXX 10004 07335 12/// /1804 10060 20050 30146 40295 58005 60006 90000=
07335,1997-02-10 06:00:00,5,1026.3,-1.6,100,5,800,14.816,,,200,3.6,7.9,,,,,,,,42,wg-a,,,,AAXX 10064 07335 02108 82008 10050 20050 30114 40263 58016 60006 74242 886// 90600 333 10079 20036 60004=
07335,1997-02-10 09:00:00,6,1025.7,-0.6,100,6,500,18.52,,,210,,,,,,,,,,1,wg-a,,,,AAXX 10094 07335 12200 72110 10060 20060 30108 40257 58006 60006 70142 81602 90900=
07335,1997-02-10 12:00:00,13,1023.9,-1.4,54,4,10000,25.928,,,210,,,,,,,,,,3,wg-a,,,,AAXX 10124 07335 12/60 72114 10130 20040 30094 40239 57014 60006 70342 81032 91200=
07335,1997-02-10 15:00:00,13,1022.6,-1.3,62,6,10000,22.224,,,220,,,,,,,,,,,wg-a,,,,AAXX 10154 07335 12/60 82212 10130 20060 30081 40226 56013 60006 84032 91500=
07335,1997-02-10 18:00:00,10,1023.2,0.5,93,9,10000,22.224,,,230,5,13.5,,,,,,,,60,wg-a,,,,AAXX 10184 07335 02360 82312 10100 20090 30086 40232 53005 61000 76062 877// 91800 333 10135 20050 6001=
07335,1997-02-11 00:00:00,8,1026.7,1.9,100,8,0,11.112,,,250,,,,,,,,,,,wg-a,,,,AAXX 11004 07335 12/// /2506 10080 20080 30119 40267 53019 60016 90000=
07335,1997-02-11 06:00:00,6,1026.9,0.1,93,5,15000,3.704,,,230,5.9,10.4,,,,,2,,,,wg-a,,,,AAXX 11064 07335 02665 72302 10060 20050 30120 40269 50001 60006 875// 90600 333 10104 20059 60024=
07335,1997-02-11 09:00:00,8,1027.5,0.7,93,7,7000,3.704,,,210,,,,,,,,,,,wg-a,,,,AAXX 11094 07335 12557 82102 10080 20070 30127 40275 53007 60006 875// 90900=
07335,1997-02-11 12:00:00,9,1026.8,-0.6,93,8,15000,14.816,,,250,,,,0,,,,,,20,wg-a,,,,AAXX 11124 07335 02265 82508 10090 20080 30121 40268 58006 60016 72052 877// 91200 333 60007=
07335,1997-02-11 15:00:00,10,1024.9,-1.9,87,8,15000,18.52,,,220,,,,0,,,,,,21,wg-a,,,,AAXX 11154 07335 12465 82210 10100 20080 30102 40249 58019 60007 72162 877// 91500=
07335,1997-02-11 18:00:00,10,1023.7,-1.1,93,9,2500,22.224,,,220,5.7,10.3,,,,,,,,10,wg-a,,,,AAXX 11184 07335 12/25 /2212 10100 20090 30091 40237 56011 60006 710// 91800 333 10103 20057=
07335,1997-02-12 00:00:00,11,1024.3,0.4,94,10,0,22.224,,,250,,,,,,,,,,,wg-a,,,,AAXX 12004 07335 12/// /2512 10110 20100 30097 40243 53004 60016 90000=
07335,1997-02-12 06:00:00,11,1024,-0.1,94,10,10000,18.52,,,250,9.7,11.3,,,,,,,,51,wg-a,,,,AAXX 12064 07335 02460 82510 10110 20100 30094 40240 56001 61000 75165 875// 90600 333 10113 20097 6002=
07335,1997-02-12 09:00:00,11,1023.7,-0.3,87,9,20000,29.632,,,250,,,,0,,,,,,1,wg-a,,,,AAXX 12094 07335 12470 72516 10110 20090 30091 40237 56003 60007 70165 875// 90900=
07335,1997-02-12 12:00:00,13,1021.5,-2,72,8,20000,31.484,,51.856,250,,,,,,,,,,3,wg-a,,,,AAXX 12124 07335 12570 72517 10130 20080 30071 40215 58020 60006 70365 875// 91200 333 91028=
07335,1997-02-12 15:00:00,13,1018.7,-2.8,72,8,20000,35.188,,,250,,,,,,,,,,,wg-a,,,,AAXX 12154 07335 12570 72519 10130 20080 30043 40187 57028 60006 875// 91500=
07335,1997-02-12 18:00:00,11,1017,-1.8,94,10,12000,31.484,,51.856,240,10.5,13.7,,,,,,,,61,wg-a,,,,AAXX 12184 07335 02462 82417 10110 20100 30025 40170 56018 61000 76186 885// 91800 333 10137 20105 6002 91028=
07335,1997-02-13 00:00:00,10,1016.4,1.3,87,8,0,31.484,,,260,,,,0,,,,,,,wg-a,,,,AAXX 13004 07335 02/// /2617 10100 20080 30019 40164 53013 60036 90000 333 60007=
07335,1997-02-13 06:00:00,10,1011.9,-2.8,87,8,15000,46.3,,72.228,240,9.5,11.3,,,,,,,,60,wg-a,,,,AAXX 13064 07335 02465 82425 10100 20080 39974 40119 58028 61000 76062 875// 90600 333 10113 20095 6005 91039=
07335,1997-02-13 09:00:00,7,1016,3.9,76,3,20000,42.596,,64.82,290,,,,1,,,,,,25,wg-a,,,,AAXX 13094 07335 12570 72923 10070 20030 30013 40160 53039 60017 72562 8553/ 90900 333 91035=
07335,1997-02-13 12:00:00,9,1018.6,2.7,57,1,25000,38.892,,,290,,,,,,,,,,1,wg-a,,,,AAXX 13124 07335 12/75 72921 10090 20010 30040 40186 51027 60016 70186 82032 91200=
07335,1997-02-13 18:00:00,7,1020,0.1,87,5,20000,18.52,,,260,6.4,10.3,,,,,,,,25,wg-a,,,,AAXX 13184 07335 02570 72610 10070 20050 30052 40200 51001 61000 72586 8187/ 91800 333 10103 20064 6000=
07335,1997-02-14 00:00:00,6,1012.6,-5,93,5,0,22.224,,,190,,,,,,,,,,,wg-a,,,,AAXX 14004 07335 12/// /1912 10060 20050 39979 40126 58050 60026 90000=
07335,1997-02-14 06:00:00,11,1006.8,-0.4,100,11,12000,25.928,,,260,6,11.6,,,,,,,,61,wg-a,,,,AAXX 14064 07335 02362 82614 10110 20110 39925 40068 55004 61000 76162 877// 90600 333 10116 20060 6008=
07335,1997-02-14 09:00:00,11,1007.8,1,100,11,500,25.928,,,250,,,,0,,,,,,51,wg-a,,,,AAXX 14094 07335 12300 82514 10110 20110 39935 40078 51010 60007 75166 877// 90900=
07335,1997-02-14 12:00:00,13,1007.3,-0.4,82,10,15000,31.484,,,260,,,,1,,,,,,25,wg-a,,,,AAXX 14124 07335 02465 62617 10130 20100 39931 40073 58004 60016 72565 84802 91200 333 60017=
07335,1997-02-14 15:00:00,13,1005,-2.3,82,10,15000,31.484,,,260,,,,,,,,,,3,wg-a,,,,AAXX 14154 07335 02565 72617 10130 20100 39908 40050 58023 61000 70386 86802 91500 333 ////=
07335,1997-02-14 18:00:00,11,1003.9,-1.2,87,9,12000,29.632,,,250,10.5,13.5,,,,,,,,80,wg-a,,,,AAXX 14184 07335 02462 72516 10110 20090 39896 40039 56012 61000 78086 86802 91800 333 10135 20105 6001=
07335,1997-02-15 00:00:00,9,1003.7,0.3,93,8,0,18.52,,,270,,,,0,,,,,,,wg-a,,,,AAXX 15004 07335 02/// /2710 10090 20080 39893 40037 53003 60026 90000 333 60007=
07335,1997-02-15 06:00:00,6,1015,8.5,87,4,15000,35.188,,,10,5.7,10.6,,,,,,,,21,wg-a,,,,AAXX 15064 07335 02465 80119 10060 20040 30003 40150 53085 61000 72162 885// 90600 333 10106 20057 6006=
07335,1997-02-15 09:00:00,5,1022.4,7.2,81,2,20000,25.928,,,10,,,,,,,,,,,wg-a,,,,AAXX 15094 07335 12470 /0114 10050 20020 30075 40224 51072 60006 81100 90900=
07335,1997-02-15 12:00:00,8,1025,2.7,66,2,20000,18.52,,,10,,,,,,,,,,,wg-a,,,,AAXX 15124 07335 12570 40110 10080 20020 30102 40250 51027 60006 84100 91200=
07335,1997-02-15 15:00:00,9,1025.5,0.6,57,1,20000,11.112,,,340,,,,,,,,,,,wg-a,,,,AAXX 15154 07335 12670 23406 10090 20010 30108 40255 53006 60006 82100 91500=
07335,1997-02-16 00:00:00,-1,1026.6,-0.5,100,-1,0,3.704,,,140,,,,,,,,,,,wg-a,,,,AAXX 16004 07335 12/// /1402 11010 21010 30113 40266 58005 60006 90000=
07335,1997-02-16 06:00:00,-1,1023.9,-1.2,93,-2,10000,7.408,,,170,-2.3,,,,,,,,,,wg-a,,,,AAXX 16064 07335 02/60 11704 11010 21020 30087 40239 56012 60006 80002 90600 333 10038 21023 60004=
07335,1997-02-16 09:00:00,2,1023.2,-0.6,87,0,10000,7.408,,,170,,,,,,,,,,,wg-a,,,,AAXX 16094 07335 12/60 21704 10020 20000 30081 40232 56006 60006 80002 90900=
07335,1997-02-16 12:00:00,9,1021.6,-1.2,53,0,500,14.816,,,210,,,,,,,,,,,wg-a,,,,AAXX 16124 07335 12/00 72108 10090 20000 30069 40216 58012 60006 83032 91200=
07335,1997-02-16 15:00:00,10,1020,-1.5,43,-2,500,14.816,,,210,,,,,,,,,,,wg-a,,,,AAXX 16154 07335 12/00 72108 10100 21020 30054 40200 56015 60006 8707/ 91500=
07335,1997-02-16 18:00:00,6,1021.4,1.2,87,4,0,22.224,,,250,-1.9,10.1,,,,,,,,,wg-a,,,,AAXX 16184 07335 32/// /2512 10060 20040 30066 40214 53012 91800 333 10101 21019=
07335,1997-02-17 00:00:00,7,1022.4,0.4,93,6,0,11.112,,,210,,,,,,,,,,,wg-a,,,,AAXX 17004 07335 12/// /2106 10070 20060 30076 40224 53004 60026 90000=
07335,1997-02-17 06:00:00,7,1023.1,0.8,100,7,15000,7.408,,,220,5.1,7.7,,,,,2,,,,wg-a,,,,AAXX 17064 07335 02265 82204 10070 20070 30083 40231 53008 60006 877// 90600 333 10077 20051 60024=
07335,1997-02-17 09:00:00,8,1024.3,1.2,93,7,20000,11.112,,,220,,,,1,,,,,,1,wg-a,,,,AAXX 17094 07335 12270 72206 10080 20070 30095 40243 52012 60017 70186 875// 90900=
07335,1997-02-17 12:00:00,11,1024.2,0.1,82,8,25000,22.224,,,250,,,,,,,,,,3,wg-a,,,,AAXX 17124 07335 12475 72512 10110 20080 30096 40242 50001 60016 70386 83231 91200=
07335,1997-02-17 15:00:00,12,1023.3,-0.8,71,7,20000,25.928,,,240,,,,0,,,,,,25,wg-a,,,,AAXX 17154 07335 12570 82414 10120 20070 30088 40233 56008 60007 72586 8427/ 91500=
07335,1997-02-17 18:00:00,10,1024.1,0.7,82,7,25000,22.224,,,240,6.9,12.3,,,,,,,,3,wg-a,,,,AAXX 17184 07335 12475 72412 10100 20070 30095 40241 53007 60006 70386 8457/ 91800 333 10123 20069=
07335,1997-02-18 00:00:00,10,1023,-1.3,87,8,0,25.928,,,230,,,,,,,,,,,wg-a,,,,AAXX 18004 07335 12/// /2314 10100 20080 30084 40230 58013 60016 90000=
07335,1997-02-18 06:00:00,10,1020.7,-0.1,93,9,6000,29.632,,,230,9.2,10,,,,,,,,51,wg-a,,,,AAXX 18064 07335 02256 82316 10100 20090 30061 40207 56001 61000 75152 887// 90600 333 10100 20092 6002=
07335,1997-02-18 09:00:00,11,1021.3,0.6,94,10,3500,31.484,,,240,,,,2,,,,,,51,wg-a,,,,AAXX 18094 07335 12235 82417 10110 20100 30067 40213 53006 60027 75165 887// 90900=
07335,1997-02-18 12:00:00,13,1022.2,1.1,77,9,20000,38.892,,61.116,260,,,,,,,,,,1,wg-a,,,,AAXX 18124 07335 02570 52621 10130 20090 30078 40222 51011 60026 70165 83202 91200 333 61000 91033=
07335,1997-02-18 18:00:00,9,1027.5,3.6,66,3,20000,18.52,,,270,9.2,13.4,,,,,,,,3,wg-a,,,,AAXX 18184 07335 12470 52710 10090 20030 30128 40275 51036 60006 70386 84802 91800 333 10134 20092=
07335,1997-02-19 00:00:00,3,1033.6,1.9,93,2,0,11.112,,,250,,,,,,,,,,,wg-a,,,,AAXX 19004 07335 12/// /2506 10030 20020 30185 40336 51019 60016 90000=
07335,1997-02-19 06:00:00,3,1034,-0.2,93,2,10000,7.408,,,170,2.1,9.5,,,,,5,,,,wg-a,,,,AAXX 19064 07335 02/60 51704 10030 20020 30188 40340 56002 60006 81032 90600 333 10095 20021 60054=
07335,1997-02-19 12:00:00,11,1029.6,-2.8,76,7,20000,29.632,,,210,,,,,,,,,,,wg-a,,,,AAXX 19124 07335 12570 42116 10110 20070 30149 40296 58028 60006 81132 91200=
07335,1997-02-19 18:00:00,10,1025,-1.7,82,7,20000,22.224,,,210,2.8,12.3,,,,,,,,,wg-a,,,,AAXX 19184 07335 12/70 52112 10100 20070 30104 40250 58017 60006 80002 91800 333 10123 20028=
07335,1997-02-20 06:00:00,5,1030.9,1.3,93,4,7000,14.816,,,240,4.2,11.3,,,,,,,,,wg-a,,,,AAXX 20064 07335 02/57 22408 10050 20040 30159 40309 53013 60006 80001 90600 333 10113 20042 60004=
07335,1997-02-20 09:00:00,8,1032.6,1.8,100,8,10000,14.816,,,230,,,,,,,,,,,wg-a,,,,AAXX 20094 07335 12660 /2308 10080 20080 30177 40326 52018 60006 85502 90900=
07335,1997-02-20 12:00:00,13,1031.5,-0.8,62,6,20000,22.224,,,240,,,,,,,,,,,wg-a,,,,AAXX 20124 07335 12570 /2412 10130 20060 30169 40315 58008 60006 84202 91200=
07335,1997-02-21 00:00:00,8,1030.5,0.1,100,8,0,11.112,,,220,,,,,,,,,,,wg-a,,,,AAXX 21004 07335 12/// /2206 10080 20080 30157 40305 53001 60006 90000=
07335,1997-02-21 06:00:00,9,1030.8,0.4,93,8,6000,7.408,,,230,5.8,9.1,,,,,,,,,wg-a,,,,AAXX 21064 07335 02356 72304 10090 20080 30160 40308 53004 60006 875// 90600 333 10091 20058 60004=
07335,1997-02-21 09:00:00,10,1032.2,1.5,100,10,500,11.112,,,230,,,,,,,,,,,wg-a,,,,AAXX 21094 07335 12200 72306 10100 20100 30175 40322 53015 60006 876// 90900=
07335,1997-02-21 18:00:00,8,1033,0.8,81,5,20000,7.408,,,300,7.7,14.8,,,,,,,,,wg-a,,,,AAXX 21184 07335 12770 23004 10080 20050 30181 40330 53008 60006 814/2 91800 333 10148 20077=
07335,1997-02-22 00:00:00,1,1033,-0.8,93,0,0,0,,,0,,,,,,,,,,,wg-a,,,,AAXX 22004 07335 12/// /0000 10010 20000 30177 40330 58008 60006 90000=
07335,1997-02-22 06:00:00,-1,1030.6,-1.4,93,-2,2000,3.704,,,130,-1.2,7.7,,,,,,,,10,wg-a,,,,AAXX 22064 07335 02/20 01302 11010 21020 30152 40306 57014 60006 71000 80000 90600 333 10077 21012 60004=
07335,1997-02-22 09:00:00,6,1029.7,-0.4,100,6,3500,3.704,,,120,,,,,,,,,,10,wg-a,,,,AAXX 22094 07335 12/35 21202 10060 20060 30148 40297 56004 60006 71040 80002 90900=
07335,1997-02-22 12:00:00,14,1027.3,-2,58,6,10000,3.704,,,50,,,,,,,,,,3,wg-a,,,,AAXX 22124 07335 12660 30502 10140 20060 30128 40273 58020 60006 70340 81102 91200=
07335,1997-02-22 15:00:00,15,1024.6,-2.6,51,5,15000,7.408,,,220,,,,,,,,,,,wg-a,,,,AAXX 22154 07335 12/65 32204 10150 20050 30102 40246 56026 60006 80002 91500=
07335,1997-02-22 18:00:00,9,1023.8,-1.1,76,5,0,7.408,,,260,-1.5,16,,,,,,,,,wg-a,,,,AAXX 22184 07335 12/// /2604 10090 20050 30091 40238 56011 60006 91800 333 10160 21015=
07335,1997-02-23 00:00:00,5,1021.6,-1.7,93,4,0,7.408,,,160,,,,,,,,,,,wg-a,,,,AAXX 23004 07335 12/// /1604 10050 20040 30067 40216 58017 60006 90000=
07335,1997-02-23 06:00:00,8,1019.8,-0,87,6,12000,22.224,,,220,2.7,9.4,,,,,,,,,wg-a,,,,AAXX 23064 07335 02462 72212 10080 20060 30051 40198 54000 60006 875// 90600 333 10094 20027 60004=
07335,1997-02-23 09:00:00,9,1020.3,0.6,87,7,8000,22.224,,,210,,,,,,,,,,,wg-a,,,,AAXX 23094 07335 12458 72112 10090 20070 30057 40203 50006 60006 8352/ 90900=
07335,1997-02-23 15:00:00,11,1016.7,-2.1,87,9,8000,18.52,,,210,,,,,,,,,,60,wg-a,,,,AAXX 23154 07335 02458 82110 10110 20090 30022 40167 56021 61000 76062 8457/ 91500 333 ////=
07335,1997-02-23 18:00:00,11,1015.7,-1,94,10,0,14.816,,,220,8.4,11.2,,,,,,,,,wg-a,,,,AAXX 23184 07335 32/// /2208 10110 20100 30012 40157 56010 91800 333 10112 20084=
07335,1997-02-24 00:00:00,11,1013.5,-1.1,94,10,0,22.224,,,210,,,,,,,,,,,wg-a,,,,AAXX 24004 07335 12/// /2112 10110 20100 39991 40135 56011 60016 90000=
07335,1997-02-24 06:00:00,10,1010,-1.4,93,9,7000,29.632,,,210,9.9,10.7,,,,,,,,61,wg-a,,,,AAXX 24064 07335 02457 72116 10100 20090 39956 40100 56014 61000 76162 875// 90600 333 10107 20099 6006=
07335,1997-02-24 12:00:00,11,1009.7,0,94,10,6000,29.632,,,220,,,,5,,,,,,61,wg-a,,,,AAXX 24124 07335 02356 82216 10110 20100 39954 40097 50000 60076 76166 875// 91200 333 60057=
07335,1997-02-24 15:00:00,11,1007.9,-1.8,100,11,3000,31.484,,55.56,220,,,,4,,,,,,61,wg-a,,,,AAXX 24154 07335 12230 82217 10110 20110 39936 40079 58018 60047 76166 875// 91500 333 91030=
07335,1997-02-24 18:00:00,12,1008.2,0.3,94,11,4000,38.892,,,230,10,11.6,,,,,,,,61,wg-a,,,,AAXX 24184 07335 02240 82321 10120 20110 39939 40082 53003 61000 76166 887// 91800 333 10116 20100 6003=
07335,1997-02-25 00:00:00,13,1007.9,0.8,94,12,0,38.892,,,230,,,,4,,,,,,,wg-a,,,,AAXX 25004 07335 02/// /2321 10130 20120 39937 40079 50008 60086 90000 333 60047=
07335,1997-02-25 06:00:00,13,1009.5,0.9,88,11,8000,38.892,,62.968,250,11.6,13,,,,,,,,61,wg-a,,,,AAXX 25064 07335 02458 82521 10130 20110 39952 40095 53009 61000 76162 887// 90600 333 10130 20116 6023 91034=
07335,1997-02-25 09:00:00,14,1010.7,1.2,82,11,15000,46.3,,64.82,250,,,,,,,,,,3,wg-a,,,,AAXX 25094 07335 02465 82525 10140 20110 39964 40107 51012 61000 70362 875// 90900 333 //// 91035=
07335,1997-02-25 12:00:00,15,1012,1.4,77,11,15000,46.3,,70.376,250,,,,0,,,,,,1,wg-a,,,,AAXX 25124 07335 02565 82525 10150 20110 39978 40120 50014 60006 70162 875// 91200 333 60007 91038=
07335,1997-02-25 15:00:00,15,1011.5,-0.5,72,10,15000,42.596,,66.672,250,,,,,,,,,,,wg-a,,,,AAXX 25154 07335 12565 82523 10150 20100 39973 40115 56005 60006 875// 91500 333 91036=
07335,1997-02-25 18:00:00,13,1013.1,1.5,77,9,12000,38.892,,55.56,250,12.6,15,,,,,,,,,wg-a,,,,AAXX 25184 07335 12562 82521 10130 20090 39988 40131 53015 60006 875// 91800 333 10150 20126 91030=
07335,1997-02-26 00:00:00,11,1014.5,0.2,100,11,0,35.188,,,240,,,,3,,,,,,,wg-a,,,,AAXX 26004 07335 02/// /2419 10110 20110 30001 40145 50002 60046 90000 333 60037=
07335,1997-02-26 06:00:00,9,1018.1,2.2,87,7,11000,22.224,,,250,9.4,13.3,,,,,8,,,,wg-a,,,,AAXX 26064 07335 02/61 /2512 10090 20070 30035 40181 53022 60006 90600 333 10133 20094 60084=
07335,1997-02-26 09:00:00,11,1020.8,2.8,87,9,25000,25.928,,,250,,,,0,,,,,,25,wg-a,,,,AAXX 26094 07335 12475 32514 10110 20090 30063 40208 51028 60007 72586 83200 90900=
07335,1997-02-26 12:00:00,10,1021.8,0.9,82,7,20000,25.928,,,280,,,,0,,,,,,25,wg-a,,,,AAXX 26124 07335 02570 52814 10100 20070 30072 40218 52009 60016 72586 85832 91200 333 60007=
07335,1997-02-26 15:00:00,11,1022.5,0.7,66,5,20000,38.892,,62.968,280,,,,1,,,,,,3,wg-a,,,,AAXX 26154 07335 12570 72821 10110 20050 30079 40225 53007 60017 70386 872// 91500 333 91034=
07335,1997-02-27 00:00:00,6,1033.4,2,87,4,0,14.816,,,260,,,,,,,,,,,wg-a,,,,AAXX 27004 07335 12/// /2608 10060 20040 30184 40334 51020 60006 90000=
07335,1997-02-27 06:00:00,2,1037.8,1.5,93,1,15000,7.408,,,210,1.4,,,,,,2,,,,wg-a,,,,AAXX 27064 07335 02/65 02104 10020 20010 30225 40378 51015 60006 80000 90600 333 10086 20014 60024=
07335,1997-02-27 09:00:00,7,1039,1.5,93,6,12000,7.408,,,200,,,,,,,,,,,wg-a,,,,AAXX 27094 07335 12/62 22004 10070 20060 30240 40390 51015 60006 81031 90900=
07335,1997-02-27 12:00:00,12,1037.8,-0.9,62,5,20000,14.816,,,210,,,,,,,,,,,wg-a,,,,AAXX 27124 07335 12570 /2108 10120 20050 30231 40378 58009 60006 81130 91200=
07335,1997-02-27 18:00:00,10,1035.9,-0.9,62,3,20000,3.704,,,160,1,13.2,,,,,,,,,wg-a,,,,AAXX 27184 07335 12/70 11602 10100 20030 30211 40359 55009 60006 80001 91800 333 10132 20010=
07335,1997-02-28 00:00:00,5,1034,-2.1,81,2,0,11.112,,,160,,,,,,,,,,,wg-a,,,,AAXX 28004 07335 12/// /1606 10050 20020 30190 40340 56021 60006 90000=
07335,1997-02-28 06:00:00,4,1030.9,-0.4,75,0,15000,7.408,,,190,3.1,10.1,,,,,,,,,wg-a,,,,AAXX 28064 07335 02/65 41904 10040 20000 30158 40309 56004 60006 80002 90600 333 10101 20031 60004=
07335,1997-02-28 09:00:00,10,1030.7,0.2,46,-1,20000,11.112,,,180,,,,,,,,,,,wg-a,,,,AAXX 28094 07335 12/70 51806 10100 21010 30160 40307 52002 60006 80002 90900=
07335,1997-02-28 12:00:00,17,1029.1,-1.3,32,0,20000,22.224,,,210,,,,,,,,,,,wg-a,,,,AAXX 28124 07335 12/70 72112 10170 20000 30147 40291 58013 60006 80002 91200=
07335,1997-02-28 18:00:00,15,1028.3,0.2,55,6,20000,11.112,,,220,3.8,17.9,,,,,,,,,wg-a,,,,AAXX 28184 07335 12/70 72206 10150 20060 30138 40283 53002 60006 85072 91800 333 10179 20038=
07335,1997-03-01 00:00:00,9,1030,0.6,93,8,0,11.112,,,220,,,,,,,,,,,wg-a,,,,AAXX 01004 07335 12/// /2206 10090 20080 30152 40300 51006 60006 90000=
07335,1997-03-01 06:00:00,7,1029.3,-0.1,93,6,6000,7.408,,,190,6.8,14.6,,,,,,,,,wg-a,,,,AAXX 01064 07335 02/56 71904 10070 20060 30144 40293 55001 60006 83032 90600 333 10146 20068 60004=
07335,1997-03-01 09:00:00,8,1030.3,1.1,100,8,2000,7.408,,,180,,,,,,,,,,10,wg-a,,,,AAXX 01094 07335 12220 71804 10080 20080 30155 40303 51011 60006 71042 82632 90900=
07335,1997-03-01 12:00:00,15,1029,-0.9,67,9,15000,3.704,,,260,,,,,,,,,,1,wg-a,,,,AAXX 01124 07335 12/65 72602 10150 20090 30146 40290 58009 60006 70142 82032 91200=
07335,1997-03-01 15:00:00,17,1026.8,-2.1,45,5,25000,7.408,,,210,,,,,,,,,,,wg-a,,,,AAXX 01154 07335 12/75 52104 10170 20050 30125 40268 56021 60006 81032 91500=
07335,1997-03-01 18:00:00,11,1027,-0.2,66,5,0,3.704,,,240,5.1,17.5,,,,,,,,,wg-a,,,,AAXX 01184 07335 12/// /2402 10110 20050 30123 40270 55002 60006 91800 333 10175 20051=
07335,1997-03-02 00:00:00,4,1026,-0.8,93,3,0,7.408,,,190,,,,,,,,,,,wg-a,,,,AAXX 02004 07335 12/// /1904 10040 20030 30110 40260 57008 60006 90000=
07335,1997-03-02 06:00:00,5,1026.5,0.9,93,4,20000,14.816,,,220,3.8,10.6,,,,,,,,,wg-a,,,,AAXX 02064 07335 02/70 12208 10050 20040 30116 40265 53009 60006 80002 90600 333 10106 20038 60004=
07335,1997-03-02 09:00:00,9,1028.4,2.1,100,9,4000,14.816,,,220,,,,,,,,,,10,wg-a,,,,AAXX 02094 07335 12240 72208 10090 20090 30137 40284 52021 60006 71011 83602 90900=
07335,1997-03-02 12:00:00,15,1028.5,0.4,72,10,25000,22.224,,,230,,,,,,,,,,,wg-a,,,,AAXX 02124 07335 12475 /2312 10150 20100 30141 40285 50004 60006 81231 91200=
07335,1997-03-02 15:00:00,16,1029,0.5,68,10,25000,22.224,,,260,,,,,,,,,,,wg-a,,,,AAXX 02154 07335 12675 72612 10160 20100 30146 40290 53005 60006 84232 91500=
07335,1997-03-02 18:00:00,13,1030.2,1.1,82,10,0,14.816,,,240,5.3,15.8,,,,,,,,,wg-a,,,,AAXX 02184 07335 12/// /2408 10130 20100 30157 40302 53011 60006 91800 333 10158 20053=
07335,1997-03-03 00:00:00,12,1032.6,0.6,88,10,0,14.816,,,230,,,,,,,,,,,wg-a,,,,AAXX 03004 07335 12/// /2308 10120 20100 30179 40326 51006 60006 90000=
07335,1997-03-03 06:00:00,10,1033.8,0.9,100,10,1500,11.112,,,210,10.1,13.2,,,,,,,,10,wg-a,,,,AAXX 03064 07335 02115 82106 10100 20100 30190 40338 53009 60006 71022 886// 90600 333 10132 20101 60004=
07335,1997-03-03 09:00:00,10,1034.9,1.1,100,10,1500,11.112,,,210,,,,,,,,,,10,wg-a,,,,AAXX 03094 07335 12115 82106 10100 20100 30201 40349 52011 60006 71022 886// 90900=
07335,1997-03-03 12:00:00,13,1034.3,-0.4,82,10,12000,11.112,,,190,,,,,,,,,,,wg-a,,,,AAXX 03124 07335 12462 /1906 10130 20100 30197 40343 57004 60006 86200 91200=
07335,1997-03-03 15:00:00,17,1032,-2.1,68,11,25000,11.112,,,210,,,,,,,,,,,wg-a,,,,AAXX 03154 07335 12/75 52106 10170 20110 30176 40320 56021 60006 80002 91500=
07335,1997-03-03 18:00:00,14,1031.7,-0.4,77,10,20000,7.408,,,160,9.8,16.7,,,,,,,,,wg-a,,,,AAXX 03184 07335 12/70 41604 10140 20100 30172 40317 56004 60006 83032 91800 333 10167 20098=
07335,1997-03-04 00:00:00,13,1030,-0.9,77,9,0,7.408,,,180,,,,,,,,,,,wg-a,,,,AAXX 04004 07335 12/// /1804 10130 20090 30154 40300 56009 60006 90000=
07335,1997-03-04 06:00:00,13,1028.7,-0.8,72,8,15000,14.816,,,190,12.2,14.4,,,,,,,,,wg-a,,,,AAXX 04064 07335 02/65 81908 10130 20080 30142 40287 58008 60006 8702/ 90600 333 10144 20122 60004=
07335,1997-03-04 09:00:00,15,1028.6,-0,63,8,15000,11.112,,,200,,,,,,,,,,,wg-a,,,,AAXX 04094 07335 12765 72006 10150 20080 30142 40286 55000 60006 82532 90900=
07335,1997-03-04 12:00:00,16,1028.6,-0,63,9,15000,18.52,,,250,,,,,,,,,,,wg-a,,,,AAXX 04124 07335 12765 72510 10160 20090 30142 40286 55000 60006 83532 91200=
07335,1997-03-04 15:00:00,15,1027.9,-0.7,72,10,12000,11.112,,,210,,,,,,,,,,,wg-a,,,,AAXX 04154 07335 12762 82106 10150 20100 30135 40279 56007 60006 83532 91500=
07335,1997-03-04 18:00:00,13,1028,-0,88,11,10000,18.52,,,280,12.6,16.9,,,,,,,,2,wg-a,,,,AAXX 04184 07335 02660 72810 10130 20110 30135 40280 55000 60006 70262 82572 91800 333 10169 20126 61000=
07335,1997-03-05 00:00:00,8,1030.5,1.3,81,5,0,11.112,,,270,,,,,,,,,,,wg-a,,,,AAXX 05004 07335 12/// /2706 10080 20050 30156 40305 51013 60006 90000=
07335,1997-03-05 09:00:00,9,1032.1,0.9,81,6,500,11.112,,,260,,,,,,,,,,,wg-a,,,,AAXX 05094 07335 12600 72606 10090 20060 30173 40321 53009 60006 875// 90900=
07335,1997-03-05 12:00:00,10,1032.1,0.1,71,5,500,18.52,,,280,,,,,,,,,,,wg-a,,,,AAXX 05124 07335 12500 82810 10100 20050 30174 40321 50001 60006 875// 91200=
07335,1997-03-05 15:00:00,11,1031.9,-0.2,71,6,25000,14.816,,,250,,,,,,,,,,,wg-a,,,,AAXX 05154 07335 12575 82508 10110 20060 30172 40319 55002 60006 875// 91500=
07335,1997-03-06 00:00:00,9,1031.4,-0.6,93,8,0,11.112,,,220,,,,,,,,,,,wg-a,,,,AAXX 06004 07335 12/// /2206 10090 20080 30166 40314 58006 60006 90000=
07335,1997-03-06 06:00:00,9,1031.6,-0,100,9,15000,11.112,,,240,9,9.8,,,,,,,,21,wg-a,,,,AAXX 06064 07335 02165 82406 10090 20090 30168 40316 55000 61000 72162 875// 90600 333 10098 20090 6000=
07335,1997-03-06 09:00:00,10,1032.2,0.7,100,10,3500,7.408,,,250,,,,,,,,,,10,wg-a,,,,AAXX 06094 07335 12135 82504 10100 20100 30175 40322 53007 60006 71022 876// 90900=
07335,1997-03-06 12:00:00,12,1032.6,0.4,88,10,7000,3.704,,,220,,,,,,,,,,,wg-a,,,,AAXX 06124 07335 12357 82202 10120 20100 30179 40326 51004 60006 876// 91200=
07335,1997-03-06 15:00:00,13,1031.4,-1.1,82,10,15000,3.704,,,180,,,,,,,,,,,wg-a,,,,AAXX 06154 07335 12565 71802 10130 20100 30168 40314 56011 60006 875// 91500=
07335,1997-03-06 18:00:00,12,1031.6,0.2,82,9,15000,3.704,,,200,9.1,13.3,,,,,,,,,wg-a,,,,AAXX 06184 07335 12465 72002 10120 20090 30170 40316 53002 60006 875// 91800 333 10133 20091=
07335,1997-03-07 00:00:00,9,1031.8,-0.5,93,8,0,3.704,,,360,,,,,,,,,,,wg-a,,,,AAXX 07004 07335 12/// /3602 10090 20080 30170 40318 58005 60006 90000=
07335,1997-03-07 06:00:00,3,1031.1,-0.4,93,2,200,3.704,,,320,2.6,11.6,,,,,,,,45,wg-a,,,,AAXX 07064 07335 02/02 93202 10030 20020 30160 40311 56004 60006 74542 89/// 90600 333 10116 20026 60004=
07335,1997-03-07 09:00:00,8,1031.5,0.6,100,8,3000,3.704,,,20,,,,,,,,,,10,wg-a,,,,AAXX 07094 07335 12630 70202 10080 20080 30166 40315 51006 60006 71042 875// 90900=
07335,1997-03-07 12:00:00,15,1030.2,-0.9,59,7,500,14.816,,,100,,,,,,,,,,1,wg-a,,,,AAXX 07124 07335 12600 21008 10150 20070 30157 40302 56009 60006 70141 82201 91200=
07335,1997-03-07 15:00:00,16,1028.3,-1.8,55,7,500,14.816,,,80,,,,,,,,,,,wg-a,,,,AAXX 07154 07335 12600 /0808 10160 20070 30139 40283 56018 60006 81101 91500=
07335,1997-03-08 00:00:00,5,1030.5,0.4,87,3,0,7.408,,,360,,,,,,,,,,,wg-a,,,,AAXX 08004 07335 12/// /3604 10050 20030 30155 40305 52004 60006 90000=
07335,1997-03-08 06:00:00,1,1032.4,1.5,100,1,500,3.704,,,360,1,13.9,,,,,,,,11,wg-a,,,,AAXX 08064 07335 02/00 03602 10010 20010 30171 40324 53015 60006 71100 80000 90600 333 10139 20010 60004=
07335,1997-03-08 09:00:00,8,1033.4,1.4,87,6,6000,7.408,,,30,,,,,,,,,,,wg-a,,,,AAXX 08094 07335 12/56 /0304 10080 20060 30185 40334 51014 60006 80001 90900=
07335,1997-03-08 12:00:00,15,1032.3,-0.7,55,6,20000,14.816,,,70,,,,,,,,,,,wg-a,,,,AAXX 08124 07335 12/70 10708 10150 20060 30178 40323 58007 60006 80001 91200=
07335,1997-03-08 15:00:00,17,1031.2,-1,48,6,25000,14.816,,,50,,,,,,,,,,,wg-a,,,,AAXX 08154 07335 12/75 10508 10170 20060 30168 40312 56010 60006 80001 91500=
07335,1997-03-08 18:00:00,15,1031.6,0.3,51,5,0,11.112,,,60,0.2,17.1,,,,,,,,,wg-a,,,,AAXX 08184 07335 12/// /0606 10150 20050 30171 40316 53003 60006 91800 333 10171 20002=
07335,1997-03-09 00:00:00,9,1031.6,-0.3,76,5,0,11.112,,,100,,,,,,,,,,,wg-a,,,,AAXX 09004 07335 12/// /1006 10090 20050 30168 40316 58003 60006 90000=
07335,1997-03-09 06:00:00,1,1031.5,-0,93,0,500,3.704,,,20,0.6,14.7,,,,,,,,,wg-a,,,,AAXX 09064 07335 02/00 /0202 10010 20000 30162 40315 55000 60006 90600 333 10147 20006 60004=
07335,1997-03-09 09:00:00,9,1031.7,0.7,81,6,3500,3.704,,,100,,,,,,,,,,10,wg-a,,,,AAXX 09094 07335 12/35 /1002 10090 20060 30169 40317 51007 60006 71000 80001 90900=
07335,1997-03-09 12:00:00,16,1030.6,-0.7,51,6,8000,3.704,,,90,,,,,,,,,,,wg-a,,,,AAXX 09124 07335 12/58 20902 10160 20060 30162 40306 58007 60006 80001 91200=
07335,1997-03-09 18:00:00,14,1029.5,0.2,58,6,0,3.704,,,90,0.5,18.8,,,,,,,,,wg-a,,,,AAXX 09184 07335 12/// /0902 10140 20060 30150 40295 53002 60006 91800 333 10188 20005=
07335,1997-03-10 00:00:00,2,1031.1,0.2,93,1,0,0,,,0,,,,,,,,,,,wg-a,,,,AAXX 10004 07335 12/// /0000 10020 20010 30159 40311 53002 60006 90000=
07335,1997-03-10 09:00:00,11,1032.9,1.1,66,5,15000,7.408,,,230,,,,,,,,,,,wg-a,,,,AAXX 10094 07335 12/65 02304 10110 20050 30182 40329 51011 60006 80000 90900=
07335,1997-03-10 12:00:00,19,1031.8,-0.7,37,4,500,3.704,,,20,,,,,,,,,,,wg-a,,,,AAXX 10124 07335 12/00 00202 10190 20040 30175 40318 58007 60006 80000 91200=
07335,1997-03-10 15:00:00,21,1030.4,-1.3,35,5,500,7.408,,,90,,,,,,,,,,,wg-a,,,,AAXX 10154 07335 12/00 00904 10210 20050 30162 40304 56013 60006 80000 91500=
07335,1997-03-10 18:00:00,18,1030.6,0.1,42,5,500,14.816,,,90,-0.1,20.7,,,,,,,,,wg-a,,,,AAXX 10184 07335 12/00 00908 10180 20050 30163 40306 53001 60006 80000 91800 333 10207 21001=
07335,1997-03-11 00:00:00,5,1031.6,-0.2,87,3,0,7.408,,,340,,,,,,,,,,,wg-a,,,,AAXX 11004 07335 12/// /3404 10050 20030 30166 40316 58002 60006 90000=
07335,1997-03-11 06:00:00,2,1031.7,0.5,93,1,10000,7.408,,,20,1.7,18,,,,,,,,,wg-a,,,,AAXX 11064 07335 02/60 00204 10020 20010 30165 40317 53005 60006 80000 90600 333 10180 20017 60004=
07335,1997-03-11 09:00:00,9,1031.6,0.3,81,6,8000,7.408,,,10,,,,,,,,,,,wg-a,,,,AAXX 11094 07335 12/58 00104 10090 20060 30168 40316 53003 60006 80000 90900=
07335,1997-03-11 12:00:00,18,1030.3,-0.8,42,5,15000,18.52,,,100,,,,,,,,,,,wg-a,,,,AAXX 11124 07335 12/65 01010 10180 20050 30160 40303 58008 60006 80000 91200=
07335,1997-03-11 15:00:00,20,1029,-1.2,37,5,25000,11.112,,,90,,,,,,,,,,,wg-a,,,,AAXX 11154 07335 12/75 00906 10200 20050 30148 40290 56012 60006 80000 91500=
07335,1997-03-11 18:00:00,16,1029,-0.2,51,6,20000,7.408,,,50,1.2,19.9,,,,,,,,,wg-a,,,,AAXX 11184 07335 12/70 10504 10160 20060 30146 40290 55002 60006 81032 91800 333 10199 20012=
07335,1997-03-12 00:00:00,4,1030.3,-0,93,3,0,3.704,,,340,,,,,,,,,,,wg-a,,,,AAXX 12004 07335 12/// /3402 10040 20030 30153 40303 54000 60006 90000=
07335,1997-03-12 06:00:00,1,1031.1,0.8,100,1,3000,3.704,,,210,0.8,15.9,,,,,,,,10,wg-a,,,,AAXX 12064 07335 02/30 /2102 10010 20010 30159 40311 53008 60006 71000 80001 90600 333 10159 20008 60004=
07335,1997-03-12 09:00:00,10,1032.1,1.5,82,7,500,14.816,,,200,,,,,,,,,,,wg-a,,,,AAXX 12094 07335 12/00 02008 10100 20070 30174 40321 51015 60006 80000 90900=
07335,1997-03-12 12:00:00,18,1031.8,0.1,56,9,8000,14.816,,,230,,,,,,,,,,,wg-a,,,,AAXX 12124 07335 12/58 02308 10180 20090 30175 40318 50001 60006 80000 91200=
07335,1997-03-12 15:00:00,20,1030.6,-1.1,46,8,12000,18.52,,,260,,,,,,,,,,,wg-a,,,,AAXX 12154 07335 12/62 12610 10200 20080 30164 40306 56011 60006 80001 91500=
07335,1997-03-12 18:00:00,13,1031.4,0.4,67,7,8000,7.408,,,250,0.6,19.9,,,,,,,,,wg-a,,,,AAXX 12184 07335 12/58 32504 10130 20070 30168 40314 53004 60006 80002 91800 333 10199 20006=
07335,1997-03-13 06:00:00,7,1032.3,-0,100,7,200,7.408,,,360,6.5,12.5,,,,,,,,45,wg-a,,,,AAXX 13064 07335 02/02 93604 10070 20070 30174 40323 55000 60006 74542 89/// 90600 333 10125 20065 60004=
07335,1997-03-13 09:00:00,7,1032.6,0.3,100,7,900,7.408,,,60,,,,,,,,,,43,wg-a,,,,AAXX 13094 07335 12/09 90604 10070 20070 30177 40326 50003 60006 74344 89/// 90900=
07335,1997-03-14 00:00:00,7,1029.1,-0.3,93,6,0,7.408,,,20,,,,,,,,,,,wg-a,,,,AAXX 14004 07335 12/// /0204 10070 20060 30142 40291 58003 60006 90000=
07335,1997-03-14 06:00:00,6,1029,1,100,6,300,7.408,,,300,6.4,11.2,,,,,,,,45,wg-a,,,,AAXX 14064 07335 02/03 93004 10060 20060 30141 40290 53010 60006 74542 89/// 90600 333 10112 20064 60004=
07335,1997-03-15 00:00:00,6,1029.1,0.2,93,5,0,11.112,,,280,,,,,,,,,,,wg-a,,,,AAXX 15004 07335 12/// /2806 10060 20050 30142 40291 50002 60006 90000=
07335,1997-03-15 06:00:00,9,1029.1,0.6,100,9,1600,3.704,,,130,5.8,10.2,,,,,,,,10,wg-a,,,,AAXX 15064 07335 02116 81302 10090 20090 30143 40291 51006 61000 71052 885// 90600 333 10102 20058 6100=
07335,1997-03-15 09:00:00,11,1029.6,0.7,100,11,1500,11.112,,,250,,,,,,,,,,10,wg-a,,,,AAXX 15094 07335 02115 82506 10110 20110 30150 40296 51007 61000 71054 886// 90900 333 ////=
07335,1997-03-15 18:00:00,12,1029.3,0.1,88,10,0,14.816,,,340,8.6,14.1,,,,,,,,,wg-a,,,,AAXX 15184 07335 32/// /3408 10120 20100 30147 40293 53001 91800 333 10141 20086=
07335,1997-03-16 00:00:00,9,1031,0.1,81,6,0,11.112,,,360,,,,,,,,,,,wg-a,,,,AAXX 16004 07335 12/// /3606 10090 20060 30162 40310 50001 60006 90000=
07335,1997-03-16 06:00:00,2,1031.4,0.3,100,2,4000,3.704,,,310,1.3,12.4,,,,,,,,11,wg-a,,,,AAXX 16064 07335 02640 43102 10020 20020 30162 40314 51003 60006 71100 84500 90600 333 10124 20013 60004=
07335,1997-03-16 12:00:00,14,1030.4,-1.3,58,6,20000,11.112,,,70,,,,,,,,,,,wg-a,,,,AAXX 16124 07335 12570 /0706 10140 20060 30159 40304 58013 60006 86402 91200=
07335,1997-03-16 15:00:00,16,1028.7,-1.6,51,6,20000,14.816,,,20,,,,,,,,,,,wg-a,,,,AAXX 16154 07335 12670 30208 10160 20060 30143 40287 56016 60006 82402 91500=
07335,1997-03-16 18:00:00,14,1028.8,-0,63,7,0,11.112,,,80,2,15.9,,,,,,,,,wg-a,,,,AAXX 16184 07335 12/// /0806 10140 20070 30143 40288 55000 60006 91800 333 10159 20020=
07335,1997-03-17 00:00:00,4,1029.2,0,93,3,0,3.704,,,350,,,,,,,,,,,wg-a,,,,AAXX 17004 07335 12/// /3502 10040 20030 30142 40292 50000 60006 90000=
07335,1997-03-17 06:00:00,3,1029.4,0.7,100,3,1800,7.408,,,10,2.2,14.2,,,,,,,,40,wg-a,,,,AAXX 17064 07335 02118 20104 10030 20030 30143 40294 53007 60006 74000 82601 90600 333 10142 20022 60004=
07335,1997-03-17 12:00:00,15,1027.7,-1.1,72,10,10000,11.112,,,90,,,,,,,,,,2,wg-a,,,,AAXX 17124 07335 12560 /0906 10150 20100 30133 40277 57011 60006 70241 81102 91200=
07335,1997-03-17 15:00:00,17,1025.9,-1.7,63,10,15000,11.112,,,40,,,,,,,,,,,wg-a,,,,AAXX 17154 07335 12/65 00406 10170 20100 30116 40259 58017 60006 80000 91500=
07335,1997-03-17 18:00:00,16,1024.8,-1.1,68,10,10000,7.408,,,80,2.4,17.5,,,,,,,,,wg-a,,,,AAXX 17184 07335 12/60 10804 10160 20100 30105 40248 56011 60006 80001 91800 333 10175 20024=
07335,1997-03-18 06:00:00,4,1022,-0.5,100,4,200,3.704,,,300,3.5,15.9,,,,,,,,45,wg-a,,,,AAXX 18064 07335 02/02 93002 10040 20040 30071 40220 55005 60006 74542 89/// 90600 333 10159 20035 60004=
07335,1997-03-18 12:00:00,8,1022.1,-0.3,100,8,3200,14.816,,,290,,,,,,,,,,10,wg-a,,,,AAXX 18124 07335 12232 82908 10080 20080 30074 40221 58003 60006 71042 886// 91200=
07335,1997-03-18 15:00:00,12,1019.7,-2.2,82,9,8000,18.52,,,250,,,,,,,,,,,wg-a,,,,AAXX 18154 07335 12458 72510 10120 20090 30052 40197 58022 60006 875// 91500=
07335,1997-03-18 18:00:00,11,1018,-1.7,87,9,10000,25.928,,,250,4.3,13,,,,,,,,,wg-a,,,,AAXX 18184 07335 12460 52514 10110 20090 30035 40180 56017 60006 85502 91800 333 10130 20043=
07335,1997-03-19 09:00:00,9,1017.5,0.4,76,5,500,29.632,,,310,,,,,,,,,,,wg-a,,,,AAXX 19094 07335 12400 73116 10090 20050 30029 40175 53004 60006 87800 90900=
07335,1997-03-19 12:00:00,9,1017.3,-0.2,81,6,25000,29.632,,,320,,,,,,,,,,80,wg-a,,,,AAXX 19124 07335 02575 73216 10090 20060 30027 40173 57002 61000 78086 878// 91200 333 6100=
07335,1997-03-19 15:00:00,11,1016.9,-0.3,62,4,500,25.928,,,330,,,,,,,,,,2,wg-a,,,,AAXX 19154 07335 02500 73314 10110 20040 30024 40169 56003 61000 70286 878// 91500 333 ////=
07335,1997-03-19 18:00:00,9,1018.3,1.3,66,3,500,18.52,,,330,5.7,11.2,,,,,,,,3,wg-a,,,,AAXX 19184 07335 12600 /3310 10090 20030 30037 40183 52013 60006 70386 86500 91800 333 10112 20057=
07335,1997-03-20 00:00:00,3,1021.6,1,93,2,0,14.816,,,310,,,,,,,,,,,wg-a,,,,AAXX 20004 07335 12/// /3108 10030 20020 30066 40216 53010 60006 90000=
07335,1997-03-20 06:00:00,1,1022.1,0.2,100,1,4000,3.704,,,330,0.5,8.9,,,,,,,,10,wg-a,,,,AAXX 20064 07335 02/40 /3302 10010 20010 30070 40221 53002 60006 71000 80002 90600 333 10089 20005 61000=
07335,1997-03-21 06:00:00,-2,1023,0.7,93,-3,500,0,,,0,-2.5,11.1,,,,,,,,,wg-a,,,,AAXX 21064 07335 02/00 30000 11020 21030 30077 40230 53007 60006 80002 90600 333 10111 21025 60004=
07335,1997-03-21 09:00:00,8,1023.3,0.8,76,4,6000,3.704,,,80,,,,,,,,,,,wg-a,,,,AAXX 21094 07335 12/56 /0802 10080 20040 30085 40233 51008 60006 81032 90900=
07335,1997-03-21 15:00:00,14,1022.2,-0.7,44,2,15000,11.112,,,40,,,,,,,,,,,wg-a,,,,AAXX 21154 07335 12/65 60406 10140 20020 30078 40222 58007 60006 81032 91500=
07335,1997-03-21 18:00:00,13,1022.6,0.3,47,2,15000,11.112,,,50,-2.5,14.8,,,,,,,,,wg-a,,,,AAXX 21184 07335 12765 60506 10130 20020 30081 40226 53003 60006 81532 91800 333 10148 21025=
07335,1997-03-22 00:00:00,7,1024.6,0.5,87,5,0,11.112,,,50,,,,,,,,,,,wg-a,,,,AAXX 22004 07335 12/// /0506 10070 20050 30098 40246 51005 60006 90000=
07335,1997-03-22 09:00:00,7,1025.9,0.8,70,2,8000,14.816,,,70,,,,,,,,,,,wg-a,,,,AAXX 22094 07335 12/58 20708 10070 20020 30111 40259 51008 60006 80001 90900=
07335,1997-03-22 12:00:00,11,1024.9,-0.8,50,1,15000,18.52,,,70,,,,,,,,,,,wg-a,,,,AAXX 22124 07335 12/65 20710 10110 20010 30103 40249 58008 60006 80001 91200=
07335,1997-03-22 15:00:00,13,1023.3,-1.5,38,-1,20000,18.52,,,70,,,,,,,,,,,wg-a,,,,AAXX 22154 07335 12/70 20710 10130 21010 30088 40233 56015 60006 80001 91500=
07335,1997-03-22 18:00:00,12,1022.7,-0.6,38,-2,0,14.816,,,80,1.7,13.8,,,,,,,,,wg-a,,,,AAXX 22184 07335 12/// /0808 10120 21020 30082 40227 55006 60006 91800 333 10138 20017=
07335,1997-03-23 00:00:00,1,1022.1,-1,80,-2,0,3.704,,,10,,,,,,,,,,,wg-a,,,,AAXX 23004 07335 12/// /0102 10010 21020 30070 40221 58010 60006 90000=
07335,1997-03-23 06:00:00,-2,1019.7,-0.3,100,-2,10000,7.408,,,320,-2.1,11.9,,,,,,,,,wg-a,,,,AAXX 23064 07335 02/60 63204 11020 21020 30045 40197 56003 60006 80002 90600 333 10119 21021 60004=
07335,1997-03-23 09:00:00,9,1018.4,-0.7,66,3,15000,11.112,,,230,,,,,,,,,,,wg-a,,,,AAXX 23094 07335 12/65 72306 10090 20030 30038 40184 56007 60006 8703/ 90900=
07335,1997-03-23 12:00:00,14,1017,-1.1,47,3,15000,18.52,,,260,,,,,,,,,,,wg-a,,,,AAXX 23124 07335 12/65 62610 10140 20030 30027 40170 57011 60006 81032 91200=
07335,1997-03-23 15:00:00,14,1015.3,-1.7,47,3,25000,18.52,,,260,,,,,,,,,,,wg-a,,,,AAXX 23154 07335 12875 62610 10140 20030 30010 40153 58017 60006 81532 91500=
07335,1997-03-23 18:00:00,14,1014.4,-0.9,63,7,0,14.816,,,280,-1.6,15.3,,,,,,,,,wg-a,,,,AAXX 23184 07335 12/// /2808 10140 20070 30001 40144 55009 60006 91800 333 10153 21016=
07335,1997-03-24 00:00:00,8,1015.2,0.1,81,5,0,14.816,,,350,,,,,,,,,,,wg-a,,,,AAXX 24004 07335 12/// /3508 10080 20050 30006 40152 53001 60006 90000=
07335,1997-03-24 06:00:00,4,1014.8,-0,93,3,15000,7.408,,,270,4.1,13.4,,,,,,,,,wg-a,,,,AAXX 24064 07335 02765 72704 10040 20030 30000 40148 55000 60006 82531 90600 333 10134 20041 60004=
07335,1997-03-24 09:00:00,9,1014.5,-0.1,76,5,15000,3.704,,,270,,,,,,,,,,,wg-a,,,,AAXX 24094 07335 12565 72702 10090 20050 39999 40145 58001 60006 875// 90900=
07335,1997-03-24 12:00:00,9,1013.9,-0.5,100,9,3000,11.112,,,310,,,,0,,,,,,61,wg-a,,,,AAXX 24124 07335 02230 83106 10090 20090 39994 40139 57005 60006 76162 8657/ 91200 333 60007=
07335,1997-03-24 15:00:00,10,1012.2,-1.7,93,9,8000,7.408,,,220,,,,0,,,,,,1,wg-a,,,,AAXX 24154 07335 12358 82204 10100 20090 39977 40122 58017 60007 70162 8657/ 91500=
07335,1997-03-25 00:00:00,8,1014.6,1.2,93,7,0,18.52,,,340,,,,,,,,,,,wg-a,,,,AAXX 25004 07335 12/// /3410 10080 20070 30000 40146 52012 60016 90000=
07335,1997-03-25 06:00:00,8,1017.7,1.9,100,8,1800,11.112,,,10,7.3,10.4,,,,,4,,,10,wg-a,,,,AAXX 25064 07335 02118 80106 10080 20080 30030 40177 53019 60006 71022 886// 90600 333 10104 20073 60044=
07335,1997-03-25 09:00:00,9,1019.3,1.7,100,9,500,14.816,,,350,,,,,,,,,,1,wg-a,,,,AAXX 25094 07335 12200 73508 10090 20090 30047 40193 53017 60006 70142 876// 90900=
07335,1997-03-25 15:00:00,13,1019.4,-0.4,62,6,15000,14.816,,,330,,,,,,,,,,,wg-a,,,,AAXX 25154 07335 12665 /3308 10130 20060 30050 40194 56004 60006 86800 91500=
07335,1997-03-25 18:00:00,11,1020.6,1.1,71,6,15000,3.704,,,320,7.8,13.8,,,,,,,,,wg-a,,,,AAXX 25184 07335 12665 43202 10110 20060 30061 40206 53011 60006 81532 91800 333 10138 20078=
07335,1997-03-26 00:00:00,2,1023.2,0.4,100,2,0,0,,,0,,,,,,,,,,,wg-a,,,,AAXX 26004 07335 12/// /0000 10020 20020 30081 40232 50004 60006 90000=
07335,1997-03-26 06:00:00,2,1023.7,1.1,100,2,10000,3.704,,,170,0,11.1,,,,,,,,,wg-a,,,,AAXX 26064 07335 02/60 61702 10020 20020 30086 40237 53011 60006 85032 90600 333 10111 20000 60004=
07335,1997-03-26 09:00:00,10,1023.7,0.5,76,6,18000,11.112,,,210,,,,,,,,,,,wg-a,,,,AAXX 26094 07335 12/68 72106 10100 20060 30091 40237 53005 60006 8703/ 90900=
07335,1997-03-26 15:00:00,15,1022.8,-0.6,55,6,25000,18.52,,,260,,,,,,,,,,,wg-a,,,,AAXX 26154 07335 12/75 72610 10150 20060 30085 40228 58006 60006 86032 91500=
07335,1997-03-26 18:00:00,13,1023.8,0.8,62,6,25000,14.816,,,280,1.8,16.2,,,,,,,,,wg-a,,,,AAXX 26184 07335 12/75 72808 10130 20060 30093 40238 53008 60006 83032 91800 333 10162 20018=
07335,1997-03-27 00:00:00,10,1025.6,0.5,87,8,0,7.408,,,240,,,,,,,,,,,wg-a,,,,AAXX 27004 07335 12/// /2404 10100 20080 30110 40256 51005 60006 90000=
07335,1997-03-27 06:00:00,10,1025.9,0.7,93,9,20000,7.408,,,220,8.7,12.9,,,,,,,,,wg-a,,,,AAXX 27064 07335 02470 82204 10100 20090 30113 40259 52007 60006 885// 90600 333 10129 20087 60004=
07335,1997-03-27 09:00:00,11,1026.7,0.8,100,11,3500,7.408,,,230,,,,0,,,,,,20,wg-a,,,,AAXX 27094 07335 12235 82304 10110 20110 30121 40267 51008 60007 72052 877// 90900=
07335,1997-03-27 12:00:00,14,1025.6,-0.9,88,12,15000,11.112,,,230,,,,,,,,,,1,wg-a,,,,AAXX 27124 07335 12465 72306 10140 20120 30112 40256 58009 60006 70152 875// 91200=
07335,1997-03-27 15:00:00,16,1024.3,-1.2,82,13,20000,11.112,,,260,,,,,,,,,,,wg-a,,,,AAXX 27154 07335 12470 72606 10160 20130 30100 40243 58012 60006 875// 91500=
07335,1997-03-27 18:00:00,14,1024.1,-0.3,88,12,20000,11.112,,,260,10.3,16.1,,,,,,,,,wg-a,,,,AAXX 27184 07335 12470 72606 10140 20120 30097 40241 56003 60006 875// 91800 333 10161 20103=
07335,1997-03-28 00:00:00,12,1022.9,-1.1,94,11,0,7.408,,,270,,,,,,,,,,,wg-a,,,,AAXX 28004 07335 12/// /2704 10120 20110 30084 40229 58011 60006 90000=
07335,1997-03-28 06:00:00,11,1022.6,0.8,94,10,10000,14.816,,,330,10.4,14.2,,,,,,,,20,wg-a,,,,AAXX 28064 07335 02260 83308 10110 20100 30080 40226 53008 61000 72052 885// 90600 333 10142 20104 6000=
07335,1997-03-28 09:00:00,11,1024.1,1.5,66,5,500,29.632,,,10,,,,,,,,,,,wg-a,,,,AAXX 28094 07335 12500 40116 10110 20050 30095 40241 51015 60006 83202 90900=
07335,1997-03-28 15:00:00,14,1024.3,-0.3,41,1,500,29.632,,46.3,20,,,,,,,,,,,wg-a,,,,AAXX 28154 07335 12700 20216 10140 20010 30098 40243 56003 60006 82100 91500 333 91025=
07335,1997-03-28 18:00:00,11,1024.8,0.4,47,0,10000,18.52,,,20,10.3,13.9,,,,,,,,,wg-a,,,,AAXX 28184 07335 12/60 /0210 10110 20000 30102 40248 53004 60006 91800 333 10139 20103=
07335,1997-03-29 06:00:00,-1,1028.3,0.3,93,-2,15000,7.408,,,340,-1.3,10.7,,,,,,,,,wg-a,,,,AAXX 29064 07335 02/65 03404 11010 21020 30130 40283 53003 60006 80000 90600 333 10107 21013 60004=
07335,1997-03-29 12:00:00,11,1027.5,-0.6,47,0,500,18.52,,,30,,,,,,,,,,,wg-a,,,,AAXX 29124 07335 12600 30310 10110 20000 30129 40275 57006 60006 83100 91200=
07335,1997-03-29 15:00:00,12,1025.7,-1.8,44,0,500,29.632,,,30,,,,,,,,,,,wg-a,,,,AAXX 29154 07335 12700 30316 10120 20000 30111 40257 56018 60006 83100 91500=
07335,1997-03-29 18:00:00,11,1025.9,0.2,50,1,0,14.816,,,30,-1.3,13.1,,,,,,,,,wg-a,,,,AAXX 29184 07335 12/// /0308 10110 20010 30113 40259 53002 60006 91800 333 10131 21013=
07335,1997-03-30 00:00:00,2,1026.6,-0.2,87,0,0,7.408,,,30,,,,,,,,,,,wg-a,,,,AAXX 30004 07335 12/// /0304 10020 20000 30115 40266 57002 60006 90000=
07335,1997-03-30 06:00:00,0,1027.6,0.6,93,-1,15000,7.408,,,350,-0.2,11.1,,,,,,,,,wg-a,,,,AAXX 30064 07335 02/65 03504 10000 21010 30123 40276 53006 60006 80000 90600 333 10111 21002 60004=
07335,1997-03-30 09:00:00,9,1027.6,0.5,61,2,15000,18.52,,,70,,,,,,,,,,,wg-a,,,,AAXX 30094 07335 12/65 10710 10090 20020 30128 40276 51005 60006 80001 90900=
07335,1997-03-30 12:00:00,13,1026.5,-0.8,51,3,25000,22.224,,,70,,,,,,,,,,,wg-a,,,,AAXX 30124 07335 12675 /0712 10130 20030 30120 40265 58008 60006 81101 91200=
07335,1997-03-30 15:00:00,14,1024.9,-1.5,44,2,25000,25.928,,,60,,,,,,,,,,,wg-a,,,,AAXX 30154 07335 12675 30614 10140 20020 30105 40249 56015 60006 83400 91500=
07335,1997-03-30 18:00:00,13,1024.8,-0.2,44,1,0,14.816,,,60,-0.4,14.7,,,,,,,,,wg-a,,,,AAXX 30184 07335 12/// /0608 10130 20010 30103 40248 55002 60006 91800 333 10147 21004=
07335,1997-03-31 12:00:00,15,1022.6,-1.8,36,0,25000,25.928,,,70,,,,,,,,,,,wg-a,,,,AAXX 31124 07335 12/75 00714 10150 20000 30082 40226 58018 60006 80000 91200=
07335,1997-03-31 15:00:00,18,1021.1,-1.3,34,2,25000,22.224,,,80,,,,,,,,,,,wg-a,,,,AAXX 31154 07335 12/75 00812 10180 20020 30069 40211 56013 60006 80000 91500=
07335,1997-03-31 18:00:00,17,1020.8,-0.4,39,3,0,14.816,,,70,2.2,17.9,,,,,,,,,wg-a,,,,AAXX 31184 07335 12/// /0708 10170 20030 30065 40208 56004 60006 91800 333 10179 20022=
07335,1997-04-01 00:00:00,5,1021.6,-0.1,87,3,0,7.408,,,30,,,,,,,,,,,wg-a,,,,AAXX 01004 07335 12/// /0304 10050 20030 30067 40216 58001 60006 90000=
07335,1997-04-01 06:00:00,2,1021.4,0.7,93,1,500,7.408,,,350,1.5,16.6,,,,,,,,,wg-a,,,,AAXX 01064 07335 02/00 03504 10020 20010 30064 40214 53007 60006 80000 90600 333 10166 20015 60004=
07335,1997-04-01 09:00:00,13,1021.2,0.4,58,5,500,11.112,,,70,,,,,,,,,,,wg-a,,,,AAXX 01094 07335 12/00 00706 10130 20050 30068 40212 51004 60006 80000 90900=
07335,1997-04-01 12:00:00,19,1020.4,-0.6,37,4,500,18.52,,,80,,,,,,,,,,,wg-a,,,,AAXX 01124 07335 12/00 00810 10190 20040 30062 40204 57006 60006 80000 91200=
07335,1997-04-01 15:00:00,21,1018.9,-1.4,30,3,500,18.52,,,90,,,,,,,,,,,wg-a,,,,AAXX 01154 07335 12/00 00910 10210 20030 30048 40189 56014 60006 80000 91500=
07335,1997-04-01 18:00:00,19,1018.6,-0.3,32,2,0,11.112,,,80,2,20.9,,,,,,,,,wg-a,,,,AAXX 01184 07335 12/// /0806 10190 20020 30045 40186 56003 60006 91800 333 10209 20020=
07335,1997-04-02 00:00:00,7,1020.2,0.1,70,2,0,3.704,,,50,,,,,,,,,,,wg-a,,,,AAXX 02004 07335 12/// /0502 10070 20020 30054 40202 50001 60006 90000=
07335,1997-04-02 06:00:00,3,1020.3,0.5,93,2,15000,3.704,,,350,2.6,19.4,,,,,,,,,wg-a,,,,AAXX 02064 07335 02/65 03502 10030 20020 30053 40203 53005 60006 80000 90600 333 10194 20026 60004=
07335,1997-04-02 09:00:00,13,1020.1,0.4,67,7,12000,11.112,,,30,,,,,,,,,,,wg-a,,,,AAXX 02094 07335 12/62 00306 10130 20070 30057 40201 51004 60006 80000 90900=
07335,1997-04-02 12:00:00,20,1018.9,-0.9,37,5,20000,11.112,,,70,,,,,,,,,,,wg-a,,,,AAXX 02124 07335 12/70 00706 10200 20050 30048 40189 58009 60006 80000 91200=
07335,1997-04-02 15:00:00,21,1017.4,-1.4,28,2,25000,14.816,,,70,,,,,,,,,,,wg-a,,,,AAXX 02154 07335 12/75 00708 10210 20020 30034 40174 56014 60006 80000 91500=
07335,1997-04-02 18:00:00,18,1017.5,-0,42,5,0,11.112,,,30,2.6,21.2,,,,,,,,,wg-a,,,,AAXX 02184 07335 12/// /0306 10180 20050 30034 40175 55000 60006 91800 333 10212 20026=
07335,1997-04-03 00:00:00,7,1019.2,-0.2,87,5,0,7.408,,,320,,,,,,,,,,,wg-a,,,,AAXX 03004 07335 12/// /3204 10070 20050 30045 40192 57002 60006 90000=
07335,1997-04-03 06:00:00,4,1019.6,0.7,87,2,15000,7.408,,,320,3.7,18.3,,,,,,,,,wg-a,,,,AAXX 03064 07335 02/65 03204 10040 20020 30047 40196 53007 60006 80000 90600 333 10183 20037 60004=
07335,1997-04-03 09:00:00,12,1020.2,1,62,5,20000,18.52,,,340,,,,,,,,,,,wg-a,,,,AAXX 03094 07335 12/70 03410 10120 20050 30057 40202 53010 60006 80000 90900=
07335,1997-04-03 12:00:00,16,1019.8,-0.2,55,7,25000,18.52,,,320,,,,,,,,,,,wg-a,,,,AAXX 03124 07335 12/75 13210 10160 20070 30055 40198 58002 60006 80001 91200=
07335,1997-04-04 06:00:00,5,1026.8,,93,4,15000,14.816,,,340,,,,,,,,,,,wg-a,,,,AAXX 04064 07335 12/65 43408 10050 20040 30118 40268 60006 81032 90600=
07335,1997-04-04 12:00:00,13,1028.3,0,47,2,25000,25.928,,,30,,,,,,,,,,,wg-a,,,,AAXX 04124 07335 12675 40314 10130 20020 30137 40283 50000 60006 84102 91200=
07335,1997-04-04 15:00:00,14,1027.6,-0.6,36,-1,25000,25.928,,,20,,,,,,,,,,,wg-a,,,,AAXX 04154 07335 12775 20214 10140 21010 30131 40276 55006 60006 82500 91500=
07335,1997-04-04 18:00:00,13,1028,0.3,38,-1,0,14.816,,,50,4.6,14.1,,,,,,,,,wg-a,,,,AAXX 04184 07335 12/// /0508 10130 21010 30134 40280 53003 60006 91800 333 10141 20046=
07335,1997-04-05 00:00:00,1,1029.5,-0.3,80,-2,0,3.704,,,290,,,,,,,,,,,wg-a,,,,AAXX 05004 07335 12/// /2902 10010 21020 30143 40295 58003 60006 90000=
07335,1997-04-05 06:00:00,0,1029,0.2,100,0,12000,0,,,0,-0.6,12.5,,,,,,,,,wg-a,,,,AAXX 05064 07335 02/62 30000 10000 20000 30138 40290 53002 60006 80001 90600 333 10125 21006 60004=
07335,1997-04-05 09:00:00,11,1028.6,0.2,50,1,500,11.112,,,270,,,,,,,,,,,wg-a,,,,AAXX 05094 07335 12/00 42706 10110 20010 30140 40286 51002 60006 80001 90900=
07335,1997-04-05 12:00:00,14,1026.6,-1.9,51,4,500,18.52,,,330,,,,,,,,,,,wg-a,,,,AAXX 05124 07335 12/00 53310 10140 20040 30121 40266 58019 60006 80001 91200=
07335,1997-04-05 15:00:00,16,1024,-2.4,55,7,500,14.816,,,300,,,,,,,,,,,wg-a,,,,AAXX 05154 07335 12/00 53008 10160 20070 30097 40240 57024 60006 80002 91500=
07335,1997-04-05 18:00:00,14,1023.7,-0.4,67,8,0,11.112,,,330,0.3,16.6,,,,,,,,,wg-a,,,,AAXX 05184 07335 12/// /3306 10140 20080 30093 40237 56004 60006 91800 333 10166 20003=
07335,1997-04-06 06:00:00,2,1024.9,0.4,100,2,15000,3.704,,,360,2.2,13.9,,,,,,,,,wg-a,,,,AAXX 06064 07335 02465 73602 10020 20020 30098 40249 53004 60006 875// 90600 333 10139 20022 60004=
07335,1997-04-06 09:00:00,11,1025.2,0.8,82,8,15000,14.816,,,40,,,,,,,,,,,wg-a,,,,AAXX 06094 07335 12465 70408 10110 20080 30106 40252 53008 60006 878// 90900=
07335,1997-04-06 12:00:00,14,1024.6,-0.4,72,9,20000,18.52,,,70,,,,,,,,,,,wg-a,,,,AAXX 06124 07335 12570 80710 10140 20090 30102 40246 58004 60006 885// 91200=
07335,1997-04-06 15:00:00,16,1023.2,-1.3,59,8,20000,18.52,,,80,,,,,,,,,,,wg-a,,,,AAXX 06154 07335 12570 /0810 10160 20080 30089 40232 58013 60006 86500 91500=
07335,1997-04-06 18:00:00,16,1022.7,-0.5,59,8,0,11.112,,,90,2.1,16.8,,,,,,,,,wg-a,,,,AAXX 06184 07335 12/// /0906 10160 20080 30084 40227 55005 60006 91800 333 10168 20021=
07335,1997-04-07 00:00:00,10,1024.4,0.3,50,0,0,22.224,,,80,,,,,,,,,,,wg-a,,,,AAXX 07004 07335 12/// /0812 10100 20000 30097 40244 51003 60006 90000=
07335,1997-04-07 06:00:00,4,1025.2,0.8,70,-1,20000,14.816,,,40,3.4,15.9,,,,,,,,,wg-a,,,,AAXX 07064 07335 02/70 10408 10040 21010 30102 40252 53008 60006 80002 90600 333 10159 20034 60004=
07335,1997-04-07 12:00:00,15,1023.1,-1.4,29,-3,25000,25.928,,,80,,,,,,,,,,,wg-a,,,,AAXX 07124 07335 12/75 10814 10150 21030 30087 40231 58014 60006 80002 91200=
07335,1997-04-07 18:00:00,16,1021.3,-0.2,27,-3,0,25.928,,,80,3.5,17.9,,,,,,,,,wg-a,,,,AAXX 07184 07335 12/// /0814 10160 21030 30070 40213 55002 60006 91800 333 10179 20035=
07335,1997-04-08 06:00:00,5,1023.6,1.2,60,-2,500,7.408,,,60,4.8,16.2,,,,,,,,,wg-a,,,,AAXX 08064 07335 02/00 10604 10050 21020 30087 40236 53012 60006 80001 90600 333 10162 20048 60004=
07335,1997-04-08 09:00:00,12,1023.4,0.2,47,1,500,7.408,,,80,,,,,,,,,,,wg-a,,,,AAXX 08094 07335 12/00 10804 10120 20010 30089 40234 51002 60006 80001 90900=
07335,1997-04-08 12:00:00,20,1022.1,-0.9,32,3,500,14.816,,,120,,,,,,,,,,,wg-a,,,,AAXX 08124 07335 12/00 21208 10200 20030 30080 40221 58009 60006 80002 91200=
07335,1997-04-08 15:00:00,22,1021.1,-0.9,27,2,500,11.112,,,100,,,,,,,,,,,wg-a,,,,AAXX 08154 07335 12/00 11006 10220 20020 30071 40211 58009 60006 80002 91500=
07335,1997-04-08 18:00:00,20,1021.8,0.6,35,4,0,7.408,,,110,4.9,22.3,,,,,,,,,wg-a,,,,AAXX 08184 07335 12/// /1104 10200 20040 30077 40218 53006 60006 91800 333 10223 20049=
07335,1997-04-09 00:00:00,7,1025.1,1.3,76,3,0,7.408,,,170,,,,,,,,,,,wg-a,,,,AAXX 09004 07335 12/// /1704 10070 20030 30103 40251 53013 60006 90000=
07335,1997-04-09 06:00:00,5,1027,1.2,81,2,20000,3.704,,,200,4.7,19.7,,,,,,,,,wg-a,,,,AAXX 09064 07335 02/70 22002 10050 20020 30120 40270 53012 60006 80002 90600 333 10197 20047 60004=
07335,1997-04-09 09:00:00,14,1027.9,1.4,63,7,20000,14.816,,,200,,,,,,,,,,,wg-a,,,,AAXX 09094 07335 12/70 32008 10140 20070 30134 40279 51014 60006 80002 90900=
07335,1997-04-09 15:00:00,21,1026.5,-1,35,5,500,11.112,,,160,,,,,,,,,,,wg-a,,,,AAXX 09154 07335 12/00 31606 10210 20050 30124 40265 57010 60006 80002 91500=
07335,1997-04-09 18:00:00,20,1026.9,0.3,37,5,0,7.408,,,110,4.5,21.4,,,,,,,,,wg-a,,,,AAXX 09184 07335 12/// /1104 10200 20050 30127 40269 53003 60006 91800 333 10214 20045=
07335,1997-04-10 06:00:00,3,1030.8,0.5,100,3,15000,3.704,,,220,2.5,20.1,,,,,,,,,wg-a,,,,AAXX 10064 07335 02/65 32202 10030 20030 30157 40308 53005 60006 80002 90600 333 10201 20025 60004=
07335,1997-04-10 09:00:00,16,1030.5,0.4,55,7,20000,7.408,,,260,,,,,,,,,,,wg-a,,,,AAXX 10094 07335 12/70 12604 10160 20070 30161 40305 51004 60006 80001 90900=
07335,1997-04-10 12:00:00,21,1029.3,-1,40,7,25000,7.408,,,50,,,,,,,,,,,wg-a,,,,AAXX 10124 07335 12/75 10504 10210 20070 30151 40293 58010 60006 80001 91200=
07335,1997-04-10 15:00:00,23,1027.6,-1.6,31,5,25000,11.112,,,60,,,,,,,,,,,wg-a,,,,AAXX 10154 07335 12/75 00606 10230 20050 30135 40276 57016 60006 80000 91500=
07335,1997-04-10 18:00:00,21,1027.8,0.2,30,3,0,11.112,,,70,2.9,23.4,,,,,,,,,wg-a,,,,AAXX 10184 07335 12/// /0706 10210 20030 30137 40278 53002 60006 91800 333 10234 20029=
07335,1997-04-11 00:00:00,7,1029.4,-0.2,70,2,0,7.408,,,20,,,,,,,,,,,wg-a,,,,AAXX 11004 07335 12/// /0204 10070 20020 30145 40294 57002 60006 90000=
07335,1997-04-11 06:00:00,2,1028.3,-0.4,93,1,15000,3.704,,,320,1.9,21.4,,,,,,,,,wg-a,,,,AAXX 11064 07335 02/65 13202 10020 20010 30132 40283 55004 60006 80001 90600 333 10214 20019 60004=
07335,1997-04-11 09:00:00,15,1027.4,-0.2,48,4,15000,3.704,,,360,,,,,,,,,,,wg-a,,,,AAXX 11094 07335 12/65 13602 10150 20040 30130 40274 58002 60006 80001 90900=
07335,1997-04-11 18:00:00,19,1022.5,-0.6,34,3,0,14.816,,,360,2,22.2,,,,,,,,,wg-a,,,,AAXX 11184 07335 12/// /3608 10190 20030 30083 40225 56006 60006 91800 333 10222 20020=
07335,1997-04-12 00:00:00,10,1025.8,1.2,66,4,0,18.52,,,40,,,,,,,,,,,wg-a,,,,AAXX 12004 07335 12/// /0410 10100 20040 30111 40258 51012 60006 90000=
07335,1997-04-12 06:00:00,4,1026.7,0.8,70,-1,15000,22.224,,,60,3.6,18.9,,,,,,,,,wg-a,,,,AAXX 12064 07335 02/65 30612 10040 21010 30117 40267 53008 60006 80002 90600 333 10189 20036 60004=
07335,1997-04-12 09:00:00,7,1027.1,0.5,53,-2,15000,25.928,,,60,,,,,,,,,,,wg-a,,,,AAXX 12094 07335 12/65 40614 10070 21020 30122 40271 51005 60006 80002 90900=
07335,1997-04-12 15:00:00,14,1024.7,-1.1,26,-5,20000,25.928,,,60,,,,,,,,,,,wg-a,,,,AAXX 12154 07335 12/70 40614 10140 21050 30102 40247 57011 60006 80002 91500=
07335,1997-04-12 18:00:00,12,1024.9,0.1,38,-2,0,25.928,,,50,3.6,14.4,,,,,,,,,wg-a,,,,AAXX 12184 07335 12/// /0514 10120 21020 30103 40249 53001 60006 91800 333 10144 20036=
07335,1997-04-13 00:00:00,5,1026.3,0.3,65,-1,0,11.112,,,40,,,,,,,,,,,wg-a,,,,AAXX 13004 07335 12/// /0406 10050 21010 30113 40263 51003 60006 90000=
07335,1997-04-13 06:00:00,2,1026,0.3,87,0,20000,14.816,,,40,1.7,12.3,,,,,,,,,wg-a,,,,AAXX 13064 07335 02/70 00408 10020 20000 30109 40260 53003 60006 80000 90600 333 10123 20017 60004=
07335,1997-04-13 09:00:00,8,1025.8,0.1,61,1,15000,18.52,,,60,,,,,,,,,,,wg-a,,,,AAXX 13094 07335 12565 /0610 10080 20010 30110 40258 50001 60006 81100 90900=
07335,1997-04-13 12:00:00,13,1024.1,-1.4,41,0,20000,25.928,,,70,,,,,,,,,,,wg-a,,,,AAXX 13124 07335 12/70 00714 10130 20000 30096 40241 58014 60006 80000 91200=
07335,1997-04-13 15:00:00,15,1022.5,-1.5,36,0,20000,22.224,,,60,,,,,,,,,,,wg-a,,,,AAXX 13154 07335 12/70 00612 10150 20000 30081 40225 56015 60006 80000 91500=
07335,1997-04-13 18:00:00,14,1022,-0.5,38,0,0,22.224,,,60,2.3,14.9,,,,,,,,,wg-a,,,,AAXX 13184 07335 12/// /0612 10140 20000 30076 40220 56005 60006 91800 333 10149 20023=
07335,1997-04-14 00:00:00,7,1022.9,0,61,0,0,14.816,,,50,,,,,,,,,,,wg-a,,,,AAXX 14004 07335 12/// /0508 10070 20000 30081 40229 50000 60006 90000=
07335,1997-04-14 06:00:00,4,1022.8,0.1,75,0,20000,11.112,,,50,2.6,13.8,,,,,,,,,wg-a,,,,AAXX 14064 07335 02/70 00506 10040 20000 30079 40228 53001 60006 80000 90600 333 10138 20026 60004=
07335,1997-04-14 09:00:00,12,1022.9,0.5,47,1,20000,14.816,,,60,,,,,,,,,,,wg-a,,,,AAXX 14094 07335 12/70 00608 10120 20010 30084 40229 50005 60006 80000 90900=
07335,1997-04-14 12:00:00,17,1022.2,-0.5,29,-1,25000,18.52,,,70,,,,,,,,,,,wg-a,,,,AAXX 14124 07335 12/75 00710 10170 21010 30079 40222 58005 60006 80000 91200=
07335,1997-04-14 15:00:00,18,1020.8,-1.3,30,0,25000,22.224,,,80,,,,,,,,,,,wg-a,,,,AAXX 14154 07335 12/75 00812 10180 20000 30066 40208 57013 60006 80000 91500=
07335,1997-04-14 18:00:00,18,1020.9,0.1,32,1,0,18.52,,,60,4.1,18.7,,,,,,,,,wg-a,,,,AAXX 14184 07335 12/// /0610 10180 20010 30067 40209 53001 60006 91800 333 10187 20041=
07335,1997-04-15 00:00:00,8,1023.6,0.9,71,3,0,11.112,,,40,,,,,,,,,,,wg-a,,,,AAXX 15004 07335 12/// /0406 10080 20030 30089 40236 53009 60006 90000=
07335,1997-04-15 06:00:00,7,1024.9,1,81,4,10000,22.224,,,50,5.3,17.5,,,,,,,,,wg-a,,,,AAXX 15064 07335 02/60 00512 10070 20040 30101 40249 53010 60006 80000 90600 333 10175 20053 60004=
07335,1997-04-15 09:00:00,11,1025.2,0.5,76,7,8000,18.52,,,70,,,,,,,,,,,wg-a,,,,AAXX 15094 07335 12/58 /0710 10110 20070 30106 40252 50005 60006 90900=
07335,1997-04-15 12:00:00,14,1024.8,-0.2,58,6,15000,22.224,,,60,,,,,,,,,,,wg-a,,,,AAXX 15124 07335 12665 20612 10140 20060 30104 40248 58002 60006 82100 91200=
07335,1997-04-15 15:00:00,17,1023.4,-1.3,34,1,20000,25.928,,,50,,,,,,,,,,,wg-a,,,,AAXX 15154 07335 12/70 00514 10170 20010 30091 40234 58013 60006 80000 91500=
07335,1997-04-15 18:00:00,15,1023.8,0.3,39,1,0,25.928,,,40,6.7,16.9,,,,,,,,,wg-a,,,,AAXX 15184 07335 12/// /0414 10150 20010 30094 40238 53003 60006 91800 333 10169 20067=
07335,1997-04-16 00:00:00,7,1025.4,-0.1,61,0,0,14.816,,,60,,,,,,,,,,,wg-a,,,,AAXX 16004 07335 12/// /0608 10070 20000 30106 40254 55001 60006 90000=
07335,1997-04-16 06:00:00,4,1024.8,-0.2,75,0,15000,18.52,,,60,3.8,14.7,,,,,,,,,wg-a,,,,AAXX 16064 07335 02/65 00610 10040 20000 30098 40248 55002 60006 80000 90600 333 10147 20038 60004=
07335,1997-04-16 09:00:00,9,1024.5,0,53,0,15000,18.52,,,80,,,,,,,,,,,wg-a,,,,AAXX 16094 07335 12/65 00810 10090 20000 30098 40245 50000 60006 80000 90900=
07335,1997-04-16 12:00:00,13,1022.5,-1.8,33,-3,15000,29.632,,,80,,,,,,,,,,,wg-a,,,,AAXX 16124 07335 12/65 00816 10130 21030 30080 40225 58018 60006 80000 91200=
07335,1997-04-16 15:00:00,15,1020.4,-1.9,31,-2,20000,25.928,,,70,,,,,,,,,,,wg-a,,,,AAXX 16154 07335 12/70 00714 10150 21020 30061 40204 58019 60006 80000 91500=
07335,1997-04-16 18:00:00,14,1019.6,-0.9,33,-2,0,29.632,,,60,3.9,16,,,,,,,,,wg-a,,,,AAXX 16184 07335 12/// /0616 10140 21020 30052 40196 56009 60006 91800 333 10160 20039=
07335,1997-04-17 00:00:00,7,1019.5,-0.5,57,-1,0,18.52,,,60,,,,,,,,,,,wg-a,,,,AAXX 17004 07335 12/// /0610 10070 21010 30048 40195 58005 60006 90000=
07335,1997-04-17 06:00:00,4,1018.5,0.1,75,0,15000,18.52,,,50,3.5,14,,,,,,,,,wg-a,,,,AAXX 17064 07335 02/65 30510 10040 20000 30036 40185 53001 60006 81032 90600 333 10140 20035 60004=
07335,1997-04-17 12:00:00,13,1016.7,-1.1,26,-6,20000,29.632,,,80,,,,,,,,,,,wg-a,,,,AAXX 17124 07335 12/70 00816 10130 21060 30023 40167 58011 60006 80000 91200=
07335,1997-04-17 15:00:00,14,1016,-0.7,26,-5,20000,29.632,,50.004,70,,,,,,,,,,,wg-a,,,,AAXX 17154 07335 12770 20716 10140 21050 30016 40160 56007 60006 81101 91500 333 91027=
07335,1997-04-17 18:00:00,13,1015.8,-0.2,28,-5,0,25.928,,,70,3.7,14.2,,,,,,,,,wg-a,,,,AAXX 17184 07335 12/// /0714 10130 21050 30014 40158 55002 60006 91800 333 10142 20037=
07335,1997-04-18 00:00:00,7,1018.9,0.9,42,-5,0,14.816,,,80,,,,,,,,,,,wg-a,,,,AAXX 18004 07335 12/// /0808 10070 21050 30042 40189 51009 60006 90000=
07335,1997-04-18 06:00:00,0,1019.4,0.4,80,-3,25000,3.704,,,360,-0.1,12.6,,,,,,,,,wg-a,,,,AAXX 18064 07335 02/75 03602 10000 21030 30043 40194 53004 60006 80000 90600 333 10126 21001 60004=
07335,1997-04-18 12:00:00,15,1016.2,-2,27,-4,500,18.52,,,90,,,,,,,,,,,wg-a,,,,AAXX 18124 07335 12/00 00910 10150 21040 30019 40162 58020 60006 80000 91200=
07335,1997-04-18 15:00:00,17,1014.3,-1.8,25,-3,500,18.52,,,60,,,,,,,,,,,wg-a,,,,AAXX 18154 07335 12/00 00610 10170 21030 30001 40143 58018 60006 80000 91500=
07335,1997-04-19 00:00:00,6,1013.6,-0.6,56,-2,0,3.704,,,40,,,,,,,,,,,wg-a,,,,AAXX 19004 07335 12/// /0402 10060 21020 39989 40136 58006 60006 90000=
07335,1997-04-19 06:00:00,5,1012.4,0.1,75,1,15000,14.816,,,50,2.2,16.1,,,,,,,,,wg-a,,,,AAXX 19064 07335 02/65 00508 10050 20010 39976 40124 53001 60006 80000 90600 333 10161 20022 60004=
07335,1997-04-19 09:00:00,10,1011.1,-0.9,62,3,18000,18.52,,,40,,,,,,,,,,,wg-a,,,,AAXX 19094 07335 12/68 00410 10100 20030 39967 40111 58009 60006 80000 90900=
07335,1997-04-19 12:00:00,16,1009,-1.8,45,4,20000,22.224,,,60,,,,,,,,,,,wg-a,,,,AAXX 19124 07335 12/70 00612 10160 20040 39949 40090 58018 60006 80000 91200=
07335,1997-04-19 15:00:00,17,1007.7,-1.3,39,3,20000,25.928,,,40,,,,,,,,,,,wg-a,,,,AAXX 19154 07335 12870 10414 10170 20030 39936 40077 56013 60006 81100 91500=
07335,1997-04-19 18:00:00,15,1007.9,0.1,44,3,0,29.632,,,30,4.6,17.9,,,,,,,,,wg-a,,,,AAXX 19184 07335 12/// /0316 10150 20030 39937 40079 53001 60006 91800 333 10179 20046=
07335,1997-04-20 00:00:00,7,1011.8,1.3,61,0,0,22.224,,,50,,,,,,,,,,,wg-a,,,,AAXX 20004 07335 12/// /0512 10070 20000 39972 40118 53013 60006 90000=
07335,1997-04-20 06:00:00,3,1013.1,1.2,65,-3,15000,22.224,,,50,2.3,14.5,,,,,,,,,wg-a,,,,AAXX 20064 07335 02/65 10512 10030 21030 39982 40131 53012 60006 80002 90600 333 10145 20023 60004=
07335,1997-04-20 12:00:00,11,1012.4,-0.6,37,-3,500,31.484,,,60,,,,,,,,,,,wg-a,,,,AAXX 20124 07335 12700 10617 10110 21030 39979 40124 58006 60006 81102 91200=
07335,1997-04-20 15:00:00,12,1011.6,-0.7,35,-3,500,31.484,,,70,,,,,,,,,,,wg-a,,,,AAXX 20154 07335 12/00 10717 10120 21030 39972 40116 58007 60006 80002 91500=
07335,1997-04-20 18:00:00,11,1011.7,0.1,32,-5,0,29.632,,,70,2.5,12.4,,,,,,,,,wg-a,,,,AAXX 20184 07335 12/// /0716 10110 21050 39973 40117 53001 60006 91800 333 10124 20025=
07335,1997-04-21 00:00:00,5,1013.5,0.3,52,-4,0,18.52,,,50,,,,,,,,,,,wg-a,,,,AAXX 21004 07335 12/// /0510 10050 21040 39987 40135 52003 60006 90000=
07335,1997-04-21 06:00:00,2,1013.4,0.3,75,-2,500,18.52,,,50,1.4,10.9,,,,,,,,,wg-a,,,,AAXX 21064 07335 02/00 00510 10020 21020 39985 40134 53003 60006 80000 90600 333 10109 20014 60004=
07335,1997-04-21 09:00:00,9,1012.6,-0.5,37,-5,500,29.632,,46.3,50,,,,,,,,,,,wg-a,,,,AAXX 21094 07335 12/00 00516 10090 21050 39980 40126 57005 60006 80000 90900 333 91025=
07335,1997-04-21 15:00:00,14,1010.2,-1.1,26,-5,500,25.928,,44.448,50,,,,,,,,,,,wg-a,,,,AAXX 21154 07335 12/00 00514 10140 21050 39959 40102 58011 60006 80000 91500 333 91024=
07335,1997-04-21 18:00:00,13,1010.5,0.3,26,-6,0,25.928,,,40,2.1,14.2,,,,,,,,,wg-a,,,,AAXX 21184 07335 12/// /0414 10130 21060 39962 40105 53003 60006 91800 333 10142 20021=
07335,1997-04-22 00:00:00,2,1012.6,0.1,60,-5,0,11.112,,,10,,,,,,,,,,,wg-a,,,,AAXX 22004 07335 12/// /0106 10020 21050 39977 40126 51001 60006 90000=
07335,1997-04-22 06:00:00,0,1014.4,1,86,-2,12000,7.408,,,330,-2.1,12.5,,,,,,,,,wg-a,,,,AAXX 22064 07335 02/62 03304 10000 21020 39993 40144 53010 60006 80000 90600 333 10125 21021 60004=
07335,1997-04-22 12:00:00,12,1014.9,0,32,-4,25000,22.224,,,50,,,,,,,,,,,wg-a,,,,AAXX 22124 07335 12/75 00512 10120 21040 30005 40149 50000 60006 80000 91200=
07335,1997-04-22 15:00:00,14,1013.9,-0.9,36,-1,25000,25.928,,,50,,,,,,,,,,,wg-a,,,,AAXX 22154 07335 12875 20514 10140 21010 39996 40139 58009 60006 82100 91500=
07335,1997-04-22 18:00:00,13,1015,1,41,0,0,25.928,,,40,-0.4,14.7,,,,,,,,,wg-a,,,,AAXX 22184 07335 12/// /0414 10130 20000 30006 40150 53010 60006 91800 333 10147 21004=
07335,1997-04-23 00:00:00,1,1018.2,0.6,75,-3,0,3.704,,,360,,,,,,,,,,,wg-a,,,,AAXX 23004 07335 12/// /3602 10010 21030 30032 40182 51006 60006 90000=
07335,1997-04-23 09:00:00,11,1019.7,0.6,40,-2,11000,7.408,,,70,,,,,,,,,,,wg-a,,,,AAXX 23094 07335 12661 /0704 10110 21020 30052 40197 53006 60006 81102 90900=
07335,1997-04-23 12:00:00,14,1019.2,-0.4,33,-2,20000,18.52,,,40,,,,,,,,,,,wg-a,,,,AAXX 23124 07335 12770 10410 10140 21020 30048 40192 58004 60006 81102 91200=
07335,1997-04-23 15:00:00,15,1018.5,-0.6,31,-2,25000,7.408,,,60,,,,,,,,,,,wg-a,,,,AAXX 23154 07335 12775 10604 10150 21020 30042 40185 56006 60006 81102 91500=
07335,1997-04-24 00:00:00,0,1021.8,0.5,86,-2,0,0,,,0,,,,,,,,,,,wg-a,,,,AAXX 24004 07335 12/// /0000 10000 21020 30066 40218 51005 60006 90000=
07335,1997-04-24 06:00:00,-1,1022.1,0.7,93,-2,12000,0,,,0,-3.4,14,,,,,,,,,wg-a,,,,AAXX 24064 07335 02/62 00000 11010 21020 30069 40221 53007 60006 80000 90600 333 10140 21034 60004=
07335,1997-04-24 09:00:00,13,1021.5,0.1,38,-1,12000,3.704,,,50,,,,,,,,,,,wg-a,,,,AAXX 24094 07335 12/62 00502 10130 21010 30070 40215 50001 60006 80000 90900=
07335,1997-04-24 12:00:00,17,1020.1,-1.1,29,-1,20000,7.408,,,150,,,,,,,,,,,wg-a,,,,AAXX 24124 07335 12/70 11504 10170 21010 30059 40201 58011 60006 80002 91200=
07335,1997-04-24 15:00:00,19,1018.6,-1.4,22,-3,25000,14.816,,,240,,,,,,,,,,,wg-a,,,,AAXX 24154 07335 12/75 32408 10190 21030 30045 40186 58014 60006 80002 91500=
07335,1997-04-24 18:00:00,18,1018.1,-0.6,28,-1,0,11.112,,,240,-1.3,19.7,,,,,,,,,wg-a,,,,AAXX 24184 07335 12/// /2406 10180 21010 30039 40181 57006 60006 91800 333 10197 21013=
07335,1997-04-25 00:00:00,3,1019.3,-0.5,81,0,0,0,,,0,,,,,,,,,,,wg-a,,,,AAXX 25004 07335 12/// /0000 10030 20000 30043 40193 56005 60006 90000=
07335,1997-04-25 06:00:00,4,1019.3,0.5,87,2,20000,3.704,,,160,0.8,18,,,,,,,,,wg-a,,,,AAXX 25064 07335 02/70 61602 10040 20020 30044 40193 53005 60006 80002 90600 333 10180 20008 60004=
07335,1997-04-25 09:00:00,15,1018.9,0.2,55,6,25000,18.52,,,230,,,,,,,,,,,wg-a,,,,AAXX 25094 07335 12/75 42310 10150 20060 30046 40189 52002 60006 81032 90900=
07335,1997-04-25 18:00:00,16,1017.8,0.1,51,6,0,18.52,,,260,4,21.3,,,,,,,,,wg-a,,,,AAXX 25184 07335 32/// /2610 10160 20060 30035 40178 52001 91800 333 10213 20040=
07335,1997-04-26 06:00:00,12,1016.8,-0.5,94,11,20000,11.112,,,220,11.5,15.8,,,,,,,,1,wg-a,,,,AAXX 26064 07335 02570 72206 10120 20110 30024 40168 57005 60006 70152 82572 90600 333 10158 20115 61000=
07335,1997-04-26 09:00:00,14,1015.6,-1.1,88,12,25000,14.816,,,220,,,,,,,,,,,wg-a,,,,AAXX 26094 07335 12475 82208 10140 20120 30013 40156 56011 60006 875// 90900=
07335,1997-04-26 15:00:00,15,1011.2,-2.6,88,13,25000,31.484,,,260,,,,1,,,,,,21,wg-a,,,,AAXX 26154 07335 12475 /2617 10150 20130 39970 40112 56026 60017 72165 85230 91500=
07335,1997-04-27 06:00:00,11,1012.1,1.6,94,10,15000,14.816,,,250,9.2,13.7,,1,,,6,,,21,wg-a,,,,AAXX 27064 07335 02465 72508 10110 20100 39977 40121 53016 60064 72162 8657/ 90600 333 10137 20092 60017=
07335,1997-04-27 09:00:00,13,1014,2,88,11,25000,18.52,,,250,,,,,,,,,,,wg-a,,,,AAXX 27094 07335 12475 72510 10130 20110 39997 40140 51020 60006 875// 90900=
07335,1997-04-27 12:00:00,16,1014.4,0.5,63,9,500,22.224,,,280,,,,,,,,,,,wg-a,,,,AAXX 27124 07335 12500 72812 10160 20090 30002 40144 51005 60006 878// 91200=
07335,1997-04-28 00:00:00,11,1018.9,0,100,11,0,22.224,,,230,,,,,,,,,,,wg-a,,,,AAXX 28004 07335 12/// /2312 10110 20110 30044 40189 50000 60006 90000=
07335,1997-04-28 06:00:00,13,1018.3,0.5,100,13,500,14.816,,,250,11.2,15.3,,,,,,,,50,wg-a,,,,AAXX 28064 07335 02100 82508 10130 20130 30039 40183 53005 61000 75065 887// 90600 333 10153 20112 6001=
07335,1997-04-28 09:00:00,15,1019,0.8,94,14,500,18.52,,,260,,,,,,,,,,21,wg-a,,,,AAXX 28094 07335 02300 82610 10150 20140 30047 40190 51008 61000 72165 885// 90900 333 ////=
07335,1997-04-28 12:00:00,16,1018.2,-0.7,94,15,500,25.928,,,250,,,,,,,,,,21,wg-a,,,,AAXX 28124 07335 02300 82514 10160 20150 30040 40182 56007 61000 72165 885// 91200 333 6100=
07335,1997-04-28 15:00:00,16,1018.1,-0.1,68,10,500,29.632,,,290,,,,,,,,,,,wg-a,,,,AAXX 28154 07335 12500 82916 10160 20100 30039 40181 56001 60006 885// 91500=
07335,1997-04-28 18:00:00,14,1018,-0.2,82,11,0,22.224,,,270,13.3,17.9,,,,,,,,,wg-a,,,,AAXX 28184 07335 32/// /2712 10140 20110 30037 40180 55002 91800 333 10179 20133=
07335,1997-04-29 06:00:00,11,1020.4,1.1,87,9,15000,14.816,,,280,9,14.2,,,,,,,,,wg-a,,,,AAXX 29064 07335 02465 82808 10110 20090 30059 40204 53011 60006 885// 90600 333 10142 20090 61000=
07335,1997-04-29 12:00:00,14,1021.5,0.2,67,8,20000,22.224,,,300,,,,,,,,,,,wg-a,,,,AAXX 29124 07335 12570 73012 10140 20080 30071 40215 50002 60006 878// 91200=
07335,1997-04-29 15:00:00,16,1020.9,-0.5,63,9,20000,18.52,,,300,,,,,,,,,,,wg-a,,,,AAXX 29154 07335 12570 73010 10160 20090 30066 40209 57005 60006 878// 91500=
07335,1997-04-29 18:00:00,16,1020.9,-0,63,9,0,11.112,,,300,10.8,15.9,,,,,,,,,wg-a,,,,AAXX 29184 07335 12/// /3006 10160 20090 30066 40209 54000 60006 91800 333 10159 20108=
07335,1997-04-30 00:00:00,10,1023.4,0.9,76,6,0,7.408,,,320,,,,,,,,,,,wg-a,,,,AAXX 30004 07335 12/// /3204 10100 20060 30088 40234 52009 60006 90000=
07335,1997-04-30 06:00:00,7,1024.9,1.5,100,7,25000,11.112,,,330,3.4,15.6,,,,,,,,,wg-a,,,,AAXX 30064 07335 02/75 03306 10070 20070 30101 40249 53015 60006 80000 90600 333 10156 20034 60004=
07335,1997-04-30 09:00:00,13,1025.7,1.1,72,8,500,11.112,,,70,,,,,,,,,,,wg-a,,,,AAXX 30094 07335 12400 /0706 10130 20080 30112 40257 51011 60006 81100 90900=
07335,1997-04-30 12:00:00,18,1025.1,-0.4,49,7,500,18.52,,,60,,,,,,,,,,,wg-a,,,,AAXX 30124 07335 12600 30610 10180 20070 30108 40251 56004 60006 83200 91200=
07335,1997-04-30 15:00:00,19,1025,0,43,6,500,14.816,,,70,,,,,,,,,,,wg-a,,,,AAXX 30154 07335 12600 40708 10190 20060 30108 40250 50000 60006 84400 91500=
07335,1997-04-30 18:00:00,18,1024.8,-0.2,45,6,0,14.816,,,80,6.6,19.4,,,,,,,,,wg-a,,,,AAXX 30184 07335 12/// /0808 10180 20060 30106 40248 55002 60006 91800 333 10194 20066=
07335,1997-05-01 12:00:00,19,1025.2,-1.2,40,5,25000,25.928,,42.596,80,,,,,,,,,,,wg-a,,,,AAXX 01124 07335 12/75 10814 10190 20050 30110 40252 58012 60006 80001 91200 333 91023=
07335,1997-05-01 15:00:00,21,1023.7,-1.4,38,6,25000,29.632,,,90,,,,,,,,,,,wg-a,,,,AAXX 01154 07335 12/75 10916 10210 20060 30096 40237 58014 60006 80001 91500=
07335,1997-05-02 06:00:00,11,1023.5,-0,71,6,15000,7.408,,,100,10,20.3,,,,,,,,,wg-a,,,,AAXX 02064 07335 02/65 11004 10110 20060 30089 40235 55000 60006 80001 90600 333 10203 20100 60004=
07335,1997-05-02 12:00:00,25,1020.7,-2,32,7,20000,18.52,,,140,,,,,,,,,,,wg-a,,,,AAXX 02124 07335 12/70 11410 10250 20070 30068 40207 58020 60006 80001 91200=
07335,1997-05-02 15:00:00,27,1018.8,-1.7,20,2,25000,18.52,,,160,,,,,,,,,,,wg-a,,,,AAXX 02154 07335 12/75 11610 10270 20020 30051 40188 57017 60006 80001 91500=
07335,1997-05-02 18:00:00,26,1018.3,-0.6,24,4,0,14.816,,,170,11.3,27.3,,,,,,,,,wg-a,,,,AAXX 02184 07335 12/// /1708 10260 20040 30045 40183 56006 60006 91800 333 10273 20113=
07335,1997-05-03 00:00:00,18,1019.5,0.1,39,4,0,14.816,,,180,,,,,,,,,,,wg-a,,,,AAXX 03004 07335 12/// /1808 10180 20040 30053 40195 53001 60006 90000=
07335,1997-05-03 06:00:00,14,1018.8,0.2,55,5,500,14.816,,,200,11.5,25.5,,,,,,,,,wg-a,,,,AAXX 03064 07335 02/00 32008 10140 20050 30045 40188 53002 60006 81032 90600 333 10255 20115 60004=
07335,1997-05-03 09:00:00,18,1018.9,0.3,59,10,500,14.816,,,210,,,,,,,,,,,wg-a,,,,AAXX 03094 07335 12/00 72108 10180 20100 30048 40189 51003 60006 81032 90900=
07335,1997-05-03 18:00:00,22,1016.8,-0.4,60,14,0,18.52,,,290,14.5,25.1,,,,,,,,,wg-a,,,,AAXX 03184 07335 12/// /2910 10220 20140 30029 40168 55004 60006 91800 333 10251 20145=
07335,1997-05-04 00:00:00,12,1017.9,-0.6,100,12,0,11.112,,,240,,,,,,,,,,,wg-a,,,,AAXX 04004 07335 12/// /2406 10120 20120 30035 40179 58006 60006 90000=
07335,1997-05-04 06:00:00,12,1014.7,-1.4,100,12,2200,11.112,,,180,11.5,22.2,,,,,,,,10,wg-a,,,,AAXX 04064 07335 02122 81806 10120 20120 30003 40147 56014 60006 71042 886// 90600 333 10222 20115 60004=
07335,1997-05-04 09:00:00,18,1012.8,-1.6,73,13,15000,11.112,,,180,,,,,,,,,,,wg-a,,,,AAXX 04094 07335 12/65 31806 10180 20130 39987 40128 58016 60006 83032 90900=
07335,1997-05-04 15:00:00,22,1008.1,-2.1,60,14,20000,25.928,,,260,,,,,,,,,,,wg-a,,,,AAXX 04154 07335 12670 42614 10220 20140 39943 40081 58021 60006 82132 91500=
07335,1997-05-05 00:00:00,13,1003.6,-2.3,100,13,0,14.816,,,220,,,,,,,,,,,wg-a,,,,AAXX 05004 07335 12/// /2208 10130 20130 39894 40036 55023 60056 90000=
07335,1997-05-05 06:00:00,12,1000.2,-0.7,100,12,20000,14.816,,,200,12.2,20.4,,0,,,7,,,25,wg-a,,,,AAXX 05064 07335 02370 72008 10120 20120 39860 40002 57007 60074 72586 878// 90600 333 10204 20122 60007=
07335,1997-05-05 15:00:00,14,997.3,-1.8,94,13,20000,14.816,,,230,,,,1,,,,,,25,wg-a,,,,AAXX 05154 07335 12570 72308 10140 20130 39833 49973 58018 60017 72586 868// 91500=
07335,1997-05-05 18:00:00,15,995.8,-1.5,77,11,0,29.632,,,240,12.4,17.7,,2,,,,,,,wg-a,,,,AAXX 05184 07335 12/// /2416 10150 20110 39818 49958 56015 60027 91800 333 10177 20124=
07335,1997-05-06 06:00:00,9,993.3,0.5,93,8,500,18.52,,,230,8.1,14.6,,,,,11,,,15,wg-a,,,,AAXX 06064 07335 02200 72310 10090 20080 39791 49933 51005 60006 71522 873// 90600 333 10146 20081 60114=
07335,1997-05-06 09:00:00,12,993.6,0.4,76,8,500,22.224,,,260,,,,,,,,,,,wg-a,,,,AAXX 06094 07335 12400 72612 10120 20080 39795 49936 52004 60006 872// 90900=
07335,1997-05-06 12:00:00,8,998.8,4.9,81,5,20000,38.892,,57.412,320,,,,1,,,,,,80,wg-a,,,,AAXX 06124 07335 02470 83221 10080 20050 39844 49988 53049 60016 78086 878// 91200 333 60017 91031=
07335,1997-05-06 15:00:00,9,1001.8,3,66,3,20000,31.484,,,330,,,,,,,,,,80,wg-a,,,,AAXX 06154 07335 02570 73317 10090 20030 39874 40018 52030 61000 78086 873// 91500 333 ////=
07335,1997-05-06 18:00:00,8,1004.6,2.7,66,2,0,22.224,,,280,7.5,12.5,,,,,,,,,wg-a,,,,AAXX 06184 07335 02/// /2812 10080 20020 39901 40046 51027 61000 91800 333 10125 20075 ////=
07335,1997-05-07 00:00:00,4,1005.7,-1.3,93,3,0,7.408,,,170,,,,,,,,,,,wg-a,,,,AAXX 07004 07335 12/// /1704 10040 20030 39910 40057 58013 60006 90000=
07335,1997-05-07 06:00:00,4,1001.1,-1.9,93,3,6000,14.816,,,20,2.1,8.8,,,,,,,,61,wg-a,,,,AAXX 07064 07335 02256 80208 10040 20030 39864 40011 56019 61000 76162 875// 90600 333 10088 20021 6008=
07335,1997-05-07 09:00:00,4,1002.3,1.2,93,3,500,18.52,,,10,,,,0,,,,,,3,wg-a,,,,AAXX 07094 07335 12200 80110 10040 20030 39876 40023 51012 60007 70362 887// 90900=
07335,1997-05-07 15:00:00,10,1004.1,0.9,57,2,500,22.224,,,320,,,,,,,,,,,wg-a,,,,AAXX 07154 07335 12600 73212 10100 20020 39897 40041 51009 60006 85802 91500=
07335,1997-05-07 18:00:00,7,1006.6,2.3,76,3,0,11.112,,,300,1.7,10.1,,,,,,,,,wg-a,,,,AAXX 07184 07335 32/// /3006 10070 20030 39920 40066 53023 91800 333 10101 20017=
07335,1997-05-08 00:00:00,0,1011,0.9,93,-1,0,14.816,,,250,,,,,,,,,,,wg-a,,,,AAXX 08004 07335 12/// /2508 10000 21010 39960 40110 51009 60006 90000=
07335,1997-05-08 06:00:00,4,1009.9,-0.2,93,3,15000,14.816,,,210,-0.3,7,,,,,1,,,,wg-a,,,,AAXX 08064 07335 02765 72108 10040 20030 39951 40099 56002 60006 81582 90600 333 10070 21003 60014=
07335,1997-05-08 09:00:00,9,1009.1,-0.5,81,6,15000,22.224,,,230,,,,,,,,,,21,wg-a,,,,AAXX 08094 07335 02465 72312 10090 20060 39946 40091 56005 61000 72162 878// 90900 333 ////=
07335,1997-05-08 12:00:00,12,1007.7,-1.2,71,7,15000,25.928,,44.448,220,,,,,,,,,,3,wg-a,,,,AAXX 08124 07335 02565 72214 10120 20070 39934 40077 58012 61000 70362 85832 91200 333 6100 91024=
07335,1997-05-08 15:00:00,13,1006.6,-1,72,8,15000,29.632,,,250,,,,0,,,,,,21,wg-a,,,,AAXX 08154 07335 12565 72516 10130 20080 39924 40066 58010 60007 72162 84832 91500=
07335,1997-05-09 00:00:00,11,1004.7,-0.7,94,10,0,25.928,,,260,,,,4,,,,,,,wg-a,,,,AAXX 09004 07335 02/// /2614 10110 20100 39904 40047 56007 60076 90000 333 60047=
07335,1997-05-09 06:00:00,9,1005.6,1.1,93,8,12000,18.52,,,250,8.6,10.9,,,,,9,,,1,wg-a,,,,AAXX 09064 07335 02462 42510 10090 20080 39912 40056 53011 60006 70161 84802 90600 333 10109 20086 60094=
07335,1997-05-09 09:00:00,13,1006.8,1.4,72,8,15000,31.484,,,250,,,,,,,,,,,wg-a,,,,AAXX 09094 07335 12565 /2517 10130 20080 39926 40068 51014 60006 86802 90900=
07335,1997-05-09 12:00:00,13,1008.1,1.3,77,9,25000,31.484,,55.56,260,,,,0,,,,,,21,wg-a,,,,AAXX 09124 07335 02575 42617 10130 20090 39939 40081 51013 60006 72186 84830 91200 333 60007 91030=
07335,1997-05-09 18:00:00,12,1011.3,1.2,71,7,0,25.928,,,280,9,15.5,,,,,,,,,wg-a,,,,AAXX 09184 07335 32/// /2814 10120 20070 39969 40113 53012 91800 333 10155 20090=
07335,1997-05-10 00:00:00,9,1013.4,0.5,93,8,0,14.816,,,200,,,,0,,,,,,,wg-a,,,,AAXX 10004 07335 02/// /2008 10090 20080 39989 40134 53005 60016 90000 333 60007=
07335,1997-05-10 06:00:00,10,1012.2,-0.3,93,9,15000,22.224,,,210,8.4,11.9,,,,,2,,,,wg-a,,,,AAXX 10064 07335 02365 72112 10100 20090 39977 40122 55003 60006 877// 90600 333 10119 20084 60024=
07335,1997-05-10 09:00:00,12,1012.1,0.1,88,10,15000,22.224,,,200,,,,,,,,,,25,wg-a,,,,AAXX 10094 07335 02465 72012 10120 20100 39978 40121 50001 61000 72586 875// 90900 333 ////=
07335,1997-05-10 12:00:00,15,1011.6,-0.4,72,10,25000,31.484,,,210,,,,,,,,,,2,wg-a,,,,AAXX 10124 07335 02575 72117 10150 20100 39974 40116 57004 61000 70286 87802 91200 333 ////=
07335,1997-05-10 18:00:00,17,1009.7,-0.8,63,10,0,18.52,,,240,9.5,17.2,,,,,,,,,wg-a,,,,AAXX 10184 07335 32/// /2410 10170 20100 39956 40097 57008 91800 333 10172 20095=
07335,1997-05-11 00:00:00,12,1011.2,0.3,82,9,0,14.816,,,200,,,,,,,,,,,wg-a,,,,AAXX 11004 07335 12/// /2008 10120 20090 39968 40112 50003 60006 90000=
07335,1997-05-11 06:00:00,11,1010.9,0.1,94,10,10000,14.816,,,200,10.3,16.6,,,,,,,,61,wg-a,,,,AAXX 11064 07335 02660 82008 10110 20100 39965 40109 53001 61000 76162 8352/ 90600 333 10166 20103 6000=
07335,1997-05-11 09:00:00,12,1011.8,0.9,94,11,10000,14.816,,,220,,,,1,,,,,,60,wg-a,,,,AAXX 11094 07335 12360 82208 10120 20110 39974 40118 51009 60017 76066 8652/ 90900=
07335,1997-05-11 12:00:00,12,1013,1.2,94,11,10000,14.816,,,230,,,,1,,,,,,60,wg-a,,,,AAXX 11124 07335 02360 82308 10120 20110 39986 40130 52012 60026 76062 8652/ 91200 333 60017=
07335,1997-05-11 15:00:00,12,1013.8,0.8,88,10,15000,14.816,,,220,,,,1,,,,,,1,wg-a,,,,AAXX 11154 07335 12465 72208 10120 20100 39994 40138 50008 60017 70162 8683/ 91500=
07335,1997-05-11 18:00:00,13,1015,1.3,77,9,0,18.52,,,220,11,14.6,,,,,,,,,wg-a,,,,AAXX 11184 07335 32/// /2210 10130 20090 30007 40150 51013 91800 333 10146 20110=
07335,1997-05-12 00:00:00,9,1019,1.2,93,8,0,7.408,,,190,,,,,,,,,,,wg-a,,,,AAXX 12004 07335 12/// /1904 10090 20080 30044 40190 53012 60006 90000=
07335,1997-05-12 06:00:00,8,1020.9,1.4,100,8,600,11.112,,,190,5.6,13.1,,,,,2,,,42,wg-a,,,,AAXX 12064 07335 02006 71906 10080 20080 30062 40209 53014 60006 74241 876// 90600 333 10131 20056 60024=
07335,1997-05-12 12:00:00,17,1021.7,0,48,6,500,14.816,,,230,,,,,,,,,,15,wg-a,,,,AAXX 12124 07335 12600 22308 10170 20060 30074 40217 50000 60006 71541 82200 91200=
07335,1997-05-12 15:00:00,17,1020.9,-0.7,55,8,500,14.816,,,260,,,,,,,,,,,wg-a,,,,AAXX 12154 07335 12600 42608 10170 20080 30067 40209 58007 60006 84830 91500=
07335,1997-05-12 18:00:00,17,1020.4,-0.5,52,7,0,14.816,,,270,7.8,18.2,,,,,,,,,wg-a,,,,AAXX 12184 07335 12/// /2708 10170 20070 30062 40204 56005 60006 91800 333 10182 20078=
07335,1997-05-13 00:00:00,6,1022.5,0.1,93,5,0,0,,,0,,,,,,,,,,,wg-a,,,,AAXX 13004 07335 12/// /0000 10060 20050 30077 40225 51001 60006 90000=
07335,1997-05-13 06:00:00,6,1021.5,-0.3,93,5,500,3.704,,,360,4.5,16.6,,,,,,,,,wg-a,,,,AAXX 13064 07335 02/00 43602 10060 20050 30067 40215 55003 60006 82032 90600 333 10166 20045 60004=
07335,1997-05-13 12:00:00,16,1019.6,-1.2,82,13,25000,11.112,,,350,,,,0,,,,,,61,wg-a,,,,AAXX 13124 07335 02475 83506 10160 20130 30053 40196 58012 60006 76161 8387/ 91200 333 60007=
07335,1997-05-13 15:00:00,15,1018.6,-1,94,14,20000,7.408,,,320,,,,2,,,,,,61,wg-a,,,,AAXX 13154 07335 12470 73204 10150 20140 30043 40186 58010 60027 76196 8387/ 91500=
07335,1997-05-13 18:00:00,13,1018.9,0.2,94,12,0,14.816,,,340,5.6,17,,,,,,,,,wg-a,,,,AAXX 13184 07335 32/// /3408 10130 20120 30045 40189 53002 91800 333 10170 20056=
07335,1997-05-14 00:00:00,11,1020.4,0.2,100,11,0,7.408,,,250,,,,,,,,,,,wg-a,,,,AAXX 14004 07335 12/// /2504 10110 20110 30059 40204 53002 60066 90000=
07335,1997-05-14 06:00:00,10,1021.4,0.9,100,10,2000,0,,,0,9.1,12.8,,,,,9,,,10,wg-a,,,,AAXX 14064 07335 02320 70000 10100 20100 30068 40214 53009 60006 71022 82532 90600 333 10128 20091 60094=
07335,1997-05-14 09:00:00,14,1021.8,0.6,88,12,12000,0,,,0,,,,,,,,,,,wg-a,,,,AAXX 14094 07335 12462 70000 10140 20120 30074 40218 51006 60006 81812 90900=
07335,1997-05-14 12:00:00,17,1020.8,-0.8,68,11,20000,14.816,,,100,,,,,,,,,,,wg-a,,,,AAXX 14124 07335 12570 71008 10170 20110 30066 40208 58008 60006 8521/ 91200=
07335,1997-05-14 18:00:00,16,1019.4,-0.1,77,12,0,14.816,,,90,10.4,18.4,,,,,,,,,wg-a,,,,AAXX 14184 07335 12/// /0908 10160 20120 30052 40194 55001 60006 91800 333 10184 20104=
07335,1997-05-15 00:00:00,14,1017.8,-1.4,94,13,0,14.816,,,90,,,,,,,,,,,wg-a,,,,AAXX 15004 07335 12/// /0908 10140 20130 30035 40178 58014 60016 90000=
07335,1997-05-15 06:00:00,13,1015.3,-0.8,100,13,8000,7.408,,,60,12.7,16.3,,,,,,,,61,wg-a,,,,AAXX 15064 07335 02158 80604 10130 20130 30010 40153 56008 61000 76166 8757/ 90600 333 10163 20127 6006=
07335,1997-05-15 09:00:00,15,1015.3,0.1,94,14,15000,3.704,,,100,,,,1,,,,,,2,wg-a,,,,AAXX 15094 07335 12265 71002 10150 20140 30011 40153 53001 60017 70262 878// 90900=
07335,1997-05-15 12:00:00,20,1014.3,-0.8,73,15,20000,7.408,,,210,,,,,,,,,,1,wg-a,,,,AAXX 15124 07335 12570 /2104 10200 20150 30003 40143 58008 60016 70162 86230 91200=
07335,1997-05-15 15:00:00,21,1013.4,-0.8,73,16,20000,3.704,,,340,,,,,,,,,,,wg-a,,,,AAXX 15154 07335 12570 73402 10210 20160 39995 40134 55008 60006 83236 91500=
07335,1997-05-15 18:00:00,21,1012.8,-0.6,73,16,0,11.112,,,10,12.7,21.8,,,,,,,,,wg-a,,,,AAXX 15184 07335 32/// /0106 10210 20160 39989 40128 55006 91800 333 10218 20127=
07335,1997-05-16 00:00:00,17,1012.7,-1,88,15,0,7.408,,,70,,,,,,,,,,,wg-a,,,,AAXX 16004 07335 12/// /0704 10170 20150 39986 40127 58010 60016 90000=
07335,1997-05-16 06:00:00,15,1011.7,-0,100,15,6000,7.408,,,100,14.6,20.8,,,,,2,,,,wg-a,,,,AAXX 16064 07335 02756 41004 10150 20150 39975 40117 55000 60006 81582 90600 333 10208 20146 60024=
07335,1997-05-16 09:00:00,20,1011.5,0.1,73,15,15000,18.52,,,180,,,,,,,,,,,wg-a,,,,AAXX 16094 07335 12/65 21810 10200 20150 39976 40115 50001 60006 80002 90900=
07335,1997-05-16 15:00:00,24,1010.4,-1,54,14,20000,14.816,,,180,,,,,,,,,,,wg-a,,,,AAXX 16154 07335 12670 /1808 10240 20140 39967 40104 56010 60006 82202 91500=
07335,1997-05-16 18:00:00,19,1010.8,0.1,68,13,0,18.52,,,250,15.1,23.9,,,,,,,,,wg-a,,,,AAXX 16184 07335 12/// /2510 10190 20130 39968 40108 53001 60006 91800 333 10239 20151=
07335,1997-05-17 09:00:00,17,1012.1,0.8,88,15,15000,11.112,,,210,,,,,,,,,,,wg-a,,,,AAXX 17094 07335 12465 72106 10170 20150 39980 40121 51008 60006 8228/ 90900=
07335,1997-05-17 12:00:00,17,1012.5,0.4,82,14,20000,22.224,,,240,,,,,,,,,,,wg-a,,,,AAXX 17124 07335 12470 82412 10170 20140 39984 40125 53004 60006 8527/ 91200=
07335,1997-05-17 15:00:00,15,1012.2,-0.4,94,14,25000,7.408,,,180,,,,3,,,,,,21,wg-a,,,,AAXX 17154 07335 12375 71804 10150 20140 39980 40122 58004 60037 72162 8352/ 91500=
07335,1997-05-17 18:00:00,16,1012.2,0.1,88,14,0,11.112,,,150,14,18.7,,,,,,,,,wg-a,,,,AAXX 17184 07335 32/// /1506 10160 20140 39981 40122 53001 91800 333 10187 20140=
07335,1997-05-18 00:00:00,12,1013.7,0.3,94,11,0,14.816,,,220,,,,,,,,,,,wg-a,,,,AAXX 18004 07335 12/// /2208 10120 20110 39993 40137 50003 60006 90000=
07335,1997-05-18 06:00:00,13,1013.5,0.4,94,12,20000,11.112,,,220,11.8,15.9,,,,,,,,21,wg-a,,,,AAXX 18064 07335 02370 72206 10130 20120 39992 40135 51004 61000 72165 875// 90600 333 10159 20118 6003=
07335,1997-05-18 18:00:00,20,1009.4,-1.6,56,11,0,11.112,,,160,12.6,21.1,,,,,,,,,wg-a,,,,AAXX 18184 07335 12/// /1606 10200 20110 39955 40094 56016 60006 91800 333 10211 20126=
07335,1997-05-19 00:00:00,17,1008.4,-1.1,68,11,0,11.112,,,140,,,,,,,,,,,wg-a,,,,AAXX 19004 07335 12/// /1406 10170 20110 39943 40084 56011 60006 90000=
07335,1997-05-19 06:00:00,13,1008,1.4,100,13,12000,18.52,,,250,13.4,20.3,,,,,,,,61,wg-a,,,,AAXX 19064 07335 02562 82510 10130 20130 39938 40080 53014 61000 76162 8257/ 90600 333 10203 20134 6002=
07335,1997-05-19 09:00:00,14,1007.9,-0.1,94,13,18000,14.816,,,150,,,,2,,,,,,21,wg-a,,,,AAXX 19094 07335 12168 71508 10140 20130 39937 40079 58001 60027 72162 8387/ 90900=
07335,1997-05-19 12:00:00,19,1007.7,0.1,73,14,18000,18.52,,,210,,,,,,,,,,1,wg-a,,,,AAXX 19124 07335 12468 72110 10190 20140 39938 40077 50001 60026 70162 8337/ 91200=
07335,1997-05-19 15:00:00,21,1007.5,-0.2,53,11,20000,29.632,,,230,,,,,,,,,,,wg-a,,,,AAXX 19154 07335 12670 32316 10210 20110 39936 40075 58002 60006 82260 91500=
07335,1997-05-19 18:00:00,19,1007.6,0.1,56,10,0,18.52,,,240,13.2,21.2,,,,,,,,,wg-a,,,,AAXX 19184 07335 32/// /2410 10190 20100 39937 40076 50001 91800 333 10212 20132=
07335,1997-05-20 00:00:00,14,1007.9,-0.2,88,12,0,11.112,,,220,,,,,,,,,,,wg-a,,,,AAXX 20004 07335 12/// /2206 10140 20120 39937 40079 55002 60006 90000=
07335,1997-05-20 06:00:00,11,1008.9,0.9,100,11,500,14.816,,,220,11.1,19,,,,,,,,25,wg-a,,,,AAXX 20064 07335 02300 32208 10110 20110 39946 40089 52009 61000 72511 81930 90600 333 10190 20111 6005=
07335,1997-05-20 09:00:00,15,1009,0.2,82,12,500,25.928,,,230,,,,,,,,,,16,wg-a,,,,AAXX 20094 07335 12400 72314 10150 20120 39948 40090 53002 60006 71611 879// 90900=
07335,1997-05-20 12:00:00,17,1009.1,0.2,77,13,500,31.484,,55.56,250,,,,1,,,,,,25,wg-a,,,,AAXX 20124 07335 02500 72517 10170 20130 39950 40091 51002 60016 72586 879// 91200 333 60017 91030=
07335,1997-05-20 15:00:00,17,1009.2,0.1,68,11,500,29.632,,,250,,,,0,,,,,,3,wg-a,,,,AAXX 20154 07335 12500 72516 10170 20110 39951 40092 51001 60007 70386 85402 91500=
07335,1997-05-21 00:00:00,12,1012.1,0.3,94,11,0,18.52,,,250,,,,,,,,,,,wg-a,,,,AAXX 21004 07335 12/// /2510 10120 20110 39977 40121 53003 60026 90000=
07335,1997-05-21 06:00:00,12,1012.1,0.5,94,11,15000,25.928,,,240,11.2,13.8,,,,,5,,,3,wg-a,,,,AAXX 21064 07335 02365 72414 10120 20110 39978 40121 53005 60006 70386 878// 90600 333 10138 20112 60054=
07335,1997-05-21 09:00:00,14,1013,0.9,82,11,15000,29.632,,,260,,,,0,,,,,,25,wg-a,,,,AAXX 21094 07335 12465 72616 10140 20110 39987 40130 51009 60007 72586 878// 90900=
07335,1997-05-21 15:00:00,14,1014,0.2,94,13,15000,22.224,,,280,,,,6,,,,,,60,wg-a,,,,AAXX 21154 07335 12465 72812 10140 20130 39997 40140 50002 60067 76086 878// 91500=
07335,1997-05-21 18:00:00,15,1014.8,0.9,77,11,0,22.224,,,270,11.8,16.3,,,,,,,,,wg-a,,,,AAXX 21184 07335 32/// /2712 10150 20110 30006 40148 53009 91800 333 10163 20118=
07335,1997-05-22 00:00:00,9,1017.2,0.2,93,8,0,11.112,,,230,,,,,,,,,,,wg-a,,,,AAXX 22004 07335 12/// /2306 10090 20080 30026 40172 50002 60006 90000=
07335,1997-05-22 06:00:00,10,1017.5,0.5,93,9,20000,7.408,,,220,8,14.9,,,,,7,,,,wg-a,,,,AAXX 22064 07335 02670 /2204 10100 20090 30029 40175 53005 60006 81532 90600 333 10149 20080 60074=
07335,1997-05-22 09:00:00,15,1017.8,0.6,77,11,20000,11.112,,,260,,,,,,,,,,,wg-a,,,,AAXX 22094 07335 12570 /2606 10150 20110 30035 40178 51006 60006 85202 90900=
07335,1997-05-22 12:00:00,17,1017.3,-0.4,59,9,25000,11.112,,,270,,,,,,,,,,,wg-a,,,,AAXX 22124 07335 12575 62706 10170 20090 30031 40173 58004 60006 85832 91200=
07335,1997-05-22 18:00:00,17,1016,-0.5,63,10,0,7.408,,,220,9.6,18.4,,,,,,,,,wg-a,,,,AAXX 22184 07335 12/// /2204 10170 20100 30018 40160 56005 60006 91800 333 10184 20096=
07335,1997-05-23 00:00:00,10,1015.8,-0.8,100,10,0,3.704,,,190,,,,,,,,,,,wg-a,,,,AAXX 23004 07335 12/// /1902 10100 20100 30013 40158 57008 60006 90000=
07335,1997-05-23 06:00:00,11,1015.5,0.4,100,11,15000,3.704,,,40,6.4,17,,,,,,,,,wg-a,,,,AAXX 23064 07335 02/65 30402 10110 20110 30011 40155 53004 60006 81032 90600 333 10170 20064 60004=
07335,1997-05-23 12:00:00,21,1014.4,-0.2,43,8,500,22.224,,,90,,,,,,,,,,,wg-a,,,,AAXX 23124 07335 12600 70912 10210 20080 30004 40144 58002 60006 81102 91200=
07335,1997-05-23 15:00:00,21,1013.8,-0.6,46,9,500,22.224,,,80,,,,,,,,,,,wg-a,,,,AAXX 23154 07335 12700 70812 10210 20090 39998 40138 57006 60006 81132 91500=
07335,1997-05-23 18:00:00,20,1013.4,-0.4,53,10,0,18.52,,,80,11.3,21.4,,,,,,,,,wg-a,,,,AAXX 23184 07335 12/// /0810 10200 20100 39994 40134 55004 60006 91800 333 10214 20113=
07335,1997-05-24 00:00:00,15,1015.2,0.5,77,11,0,18.52,,,60,,,,,,,,,,,wg-a,,,,AAXX 24004 07335 12/// /0610 10150 20110 30009 40152 51005 60006 90000=
07335,1997-05-24 06:00:00,13,1015.6,0.9,82,10,20000,14.816,,,50,12.1,20.1,,,,,,,,,wg-a,,,,AAXX 24064 07335 02/70 80508 10130 20100 30012 40156 51009 60006 8707/ 90600 333 10201 20121 60004=
07335,1997-05-24 09:00:00,15,1016.5,1,77,11,20000,18.52,,,50,,,,,,,,,,3,wg-a,,,,AAXX 24094 07335 02/70 80510 10150 20110 30022 40165 53010 61000 70386 8707/ 90900 333 ////=
07335,1997-05-24 12:00:00,15,1017.6,1.1,88,13,6000,11.112,,,50,,,,1,,,,,,61,wg-a,,,,AAXX 24124 07335 02556 80506 10150 20130 30033 40176 50011 60016 76186 8357/ 91200 333 60017=
07335,1997-05-24 18:00:00,17,1018.1,0.5,77,13,0,18.52,,,70,12.5,16.9,,,,,,,,,wg-a,,,,AAXX 24184 07335 32/// /0710 10170 20130 30039 40181 51005 91800 333 10169 20125=
07335,1997-05-25 00:00:00,14,1019.8,0.2,67,8,0,18.52,,,50,,,,,,,,,,,wg-a,,,,AAXX 25004 07335 12/// /0510 10140 20080 30054 40198 53002 60006 90000=
07335,1997-05-25 09:00:00,17,1019.8,-0.1,68,11,20000,22.224,,,50,,,,,,,,,,,wg-a,,,,AAXX 25094 07335 12/70 70512 10170 20110 30056 40198 57001 60006 80002 90900=
07335,1997-05-25 12:00:00,21,1019.3,-0.3,56,12,20000,25.928,,,70,,,,,,,,,,,wg-a,,,,AAXX 25124 07335 12770 60714 10210 20120 30053 40193 58003 60006 815/2 91200=
07335,1997-05-25 15:00:00,23,1018.4,-0.8,50,12,25000,29.632,,,60,,,,,,,,,,,wg-a,,,,AAXX 25154 07335 12/75 50616 10230 20120 30045 40184 56008 60006 80002 91500=
07335,1997-05-25 18:00:00,22,1018.7,0.2,53,12,0,18.52,,,70,12.1,23.5,,,,,,,,,wg-a,,,,AAXX 25184 07335 12/// /0710 10220 20120 30047 40187 53002 60006 91800 333 10235 20121=
07335,1997-05-26 00:00:00,15,1021.1,0.3,55,6,0,14.816,,,60,,,,,,,,,,,wg-a,,,,AAXX 26004 07335 12/// /0608 10150 20060 30067 40211 51003 60006 90000=
07335,1997-05-26 06:00:00,13,1021.2,0.7,67,7,25000,11.112,,,60,12.3,21.8,,,,,,,,,wg-a,,,,AAXX 26064 07335 02/75 30606 10130 20070 30068 40212 53007 60006 80002 90600 333 10218 20123 60004=
07335,1997-05-26 09:00:00,20,1020.7,-0.2,46,8,25000,22.224,,,70,,,,0,,,,,,,wg-a,,,,AAXX 26094 07335 12/75 20712 10200 20080 30066 40207 56002 60007 80002 90900=
07335,1997-05-26 15:00:00,24,1019,-1.4,36,8,500,22.224,,,70,,,,,,,,,,,wg-a,,,,AAXX 26154 07335 12/00 10712 10240 20080 30051 40190 58014 60006 80002 91500=
07335,1997-05-27 00:00:00,15,1019.2,-0.2,59,7,0,11.112,,,60,,,,,,,,,,,wg-a,,,,AAXX 27004 07335 12/// /0606 10150 20070 30049 40192 58002 60006 90000=
07335,1997-05-27 06:00:00,15,1018.4,0.4,59,7,25000,18.52,,,80,13.5,23.5,,,,,,,,,wg-a,,,,AAXX 27064 07335 02/75 10810 10150 20070 30041 40184 53004 60006 80002 90600 333 10235 20135 60004=
07335,1997-05-27 12:00:00,24,1017.3,-0.8,38,9,25000,25.928,,,80,,,,,,,,,,,wg-a,,,,AAXX 27124 07335 12/75 10814 10240 20090 30034 40173 56008 60006 81082 91200=
07335,1997-05-27 15:00:00,25,1016.3,-0.9,36,9,25000,25.928,,,100,,,,,,,,,,,wg-a,,,,AAXX 27154 07335 12/75 11014 10250 20090 30025 40163 58009 60006 81032 91500=
07335,1997-05-27 18:00:00,23,1016.1,-0.2,50,12,0,22.224,,,90,14.8,24.8,,,,,,,,,wg-a,,,,AAXX 27184 07335 12/// /0912 10230 20120 30023 40161 55002 60006 91800 333 10248 20148=
07335,1997-05-28 00:00:00,15,1019.3,1.1,72,10,0,14.816,,,60,,,,,,,,,,,wg-a,,,,AAXX 28004 07335 12/// /0608 10150 20100 30050 40193 51011 60006 90000=
07335,1997-05-28 06:00:00,12,1019.6,0.3,76,8,13000,25.928,,,70,11.5,23.4,,,,,,,,,wg-a,,,,AAXX 28064 07335 02/63 20714 10120 20080 30051 40196 51003 60006 81032 90600 333 10234 20115 60004=
07335,1997-05-28 09:00:00,16,1020.3,0.9,59,8,26000,29.632,,,80,,,,,,,,,,,wg-a,,,,AAXX 28094 07335 12/76 10816 10160 20080 30060 40203 51009 60006 80002 90900=
07335,1997-05-28 12:00:00,20,1020,-0.1,37,5,500,29.632,,,70,,,,,,,,,,,wg-a,,,,AAXX 28124 07335 12/00 10716 10200 20050 30059 40200 58001 60006 80001 91200=
07335,1997-05-28 15:00:00,21,1019.5,-0.4,38,6,500,29.632,,,70,,,,,,,,,,,wg-a,,,,AAXX 28154 07335 12/00 10716 10210 20060 30055 40195 56004 60006 80001 91500=
07335,1997-05-29 00:00:00,13,1021,-0.3,58,5,0,18.52,,,60,,,,,,,,,,,wg-a,,,,AAXX 29004 07335 12/// /0610 10130 20050 30066 40210 58003 60006 90000=
07335,1997-05-29 06:00:00,12,1021,-0.1,62,5,500,14.816,,,70,9.7,19.9,,,,,,,,,wg-a,,,,AAXX 29064 07335 02/00 20708 10120 20050 30065 40210 57001 60006 80002 90600 333 10199 20097 60004=
07335,1997-05-29 09:00:00,17,1020.9,0.1,45,5,500,22.224,,,80,,,,,,,,,,,wg-a,,,,AAXX 29094 07335 12/00 20812 10170 20050 30066 40209 50001 60006 80002 90900=
07335,1997-05-29 12:00:00,21,1020.5,-0.1,40,7,500,22.224,,,90,,,,,,,,,,,wg-a,,,,AAXX 29124 07335 12/00 10912 10210 20070 30065 40205 58001 60006 80002 91200=
07335,1997-05-29 15:00:00,24,1019.9,-0.5,34,7,500,22.224,,,90,,,,,,,,,,,wg-a,,,,AAXX 29154 07335 12/00 10912 10240 20070 30060 40199 57005 60006 80002 91500=
07335,1997-05-29 18:00:00,24,1019.4,-0.5,34,7,0,25.928,,,80,11.6,24.3,,,,,,,,,wg-a,,,,AAXX 29184 07335 12/// /0814 10240 20070 30055 40194 56005 60006 91800 333 10243 20116=
07335,1997-05-30 00:00:00,17,1021.1,-0.1,55,8,0,11.112,,,80,,,,,,,,,,,wg-a,,,,AAXX 30004 07335 12/// /0806 10170 20080 30069 40211 57001 60006 90000=
07335,1997-05-30 06:00:00,15,1021.5,0.3,63,8,25000,14.816,,,70,14.2,23.7,,,,,,,,,wg-a,,,,AAXX 30064 07335 02/75 60708 10150 20080 30072 40215 51003 60006 80002 90600 333 10237 20142 60004=
07335,1997-05-30 09:00:00,19,1021,-0.3,56,10,500,18.52,,,80,,,,,,,,,,,wg-a,,,,AAXX 30094 07335 12/00 60810 10190 20100 30069 40210 58003 60006 80002 90900=
07335,1997-05-30 12:00:00,24,1019.8,-1,38,9,500,25.928,,,80,,,,,,,,,,,wg-a,,,,AAXX 30124 07335 12/00 60814 10240 20090 30059 40198 58010 60006 80002 91200=
07335,1997-05-30 15:00:00,26,1018.6,-1.1,37,10,500,29.632,,,80,,,,,,,,,,,wg-a,,,,AAXX 30154 07335 12/00 50816 10260 20100 30048 40186 58011 60006 80002 91500=
07335,1997-05-31 00:00:00,17,1017.1,-0.9,48,6,0,18.52,,,60,,,,,,,,,,,wg-a,,,,AAXX 31004 07335 12/// /0610 10170 20060 30029 40171 58009 60006 90000=
07335,1997-05-31 06:00:00,14,1015.4,-0.5,58,6,25000,18.52,,,80,13.4,25.7,,,,,,,,,wg-a,,,,AAXX 31064 07335 02/75 60810 10140 20060 30011 40154 56005 60006 80002 90600 333 10257 20134 60004=
07335,1997-05-31 09:00:00,18,1014.3,-0.9,45,6,500,22.224,,,90,,,,,,,,,,,wg-a,,,,AAXX 31094 07335 12/00 40912 10180 20060 30002 40143 56009 60006 80002 90900=
07335,1997-05-31 12:00:00,22,1012.7,-1.4,35,6,500,29.632,,,80,,,,,,,,,,,wg-a,,,,AAXX 31124 07335 12/00 60816 10220 20060 39988 40127 56014 60006 80002 91200=
07335,1997-05-31 15:00:00,24,1011.3,-1.3,31,6,500,29.632,,,80,,,,,,,,,,,wg-a,,,,AAXX 31154 07335 12/00 40816 10240 20060 39975 40113 58013 60006 80002 91500=
07335,1997-05-31 18:00:00,23,1010.6,-0.7,31,5,0,25.928,,,70,14.2,24,,,,,,,,,wg-a,,,,AAXX 31184 07335 12/// /0714 10230 20050 39968 40106 56007 60006 91800 333 10240 20142=
07335,1997-06-01 00:00:00,15,1010.5,-1.1,41,2,0,22.224,,,60,,,,,,,,,,,wg-a,,,,AAXX 01004 07335 12/// /0612 10150 20020 39963 40105 58011 60006 90000=
07335,1997-06-01 06:00:00,12,1008.8,-0.6,50,2,500,25.928,,,60,10.9,22.8,,,,,,,,,wg-a,,,,AAXX 01064 07335 02/00 10614 10120 20020 39944 40088 58006 60006 81081 90600 333 10228 20109 60004=
07335,1997-06-01 09:00:00,15,1009,0.4,41,2,500,31.484,,,60,,,,,,,,,,,wg-a,,,,AAXX 01094 07335 12/00 30617 10150 20020 39948 40090 51004 60006 83081 90900=
07335,1997-06-01 12:00:00,18,1007.9,-0.9,37,3,500,31.484,,,80,,,,,,,,,,,wg-a,,,,AAXX 01124 07335 12/00 10817 10180 20030 39939 40079 57009 60006 81081 91200=
07335,1997-06-01 15:00:00,19,1007.1,-0.8,32,2,500,35.188,,,50,,,,,,,,,,,wg-a,,,,AAXX 01154 07335 12700 10519 10190 20020 39931 40071 57008 60006 81181 91500=
07335,1997-06-02 00:00:00,8,1008.5,-0.6,71,3,0,11.112,,,350,,,,,,,,,,,wg-a,,,,AAXX 02004 07335 12/// /3506 10080 20030 39939 40085 57006 60006 90000=
07335,1997-06-02 06:00:00,7,1009.4,1.1,93,6,20000,7.408,,,340,3.7,17.9,,,,,,,,,wg-a,,,,AAXX 02064 07335 02/70 13404 10070 20060 39948 40094 53011 60006 80001 90600 333 10179 20037 60004=
07335,1997-06-02 09:00:00,16,1010.3,1.3,55,7,25000,3.704,,,340,,,,,,,,,,,wg-a,,,,AAXX 02094 07335 12575 /3402 10160 20070 39961 40103 51013 60006 81101 90900=
07335,1997-06-02 12:00:00,19,1011,0.9,46,7,500,11.112,,,310,,,,,,,,,,,wg-a,,,,AAXX 02124 07335 12700 13106 10190 20070 39970 40110 51009 60006 81101 91200=
07335,1997-06-02 15:00:00,21,1011.6,0.7,38,6,500,11.112,,,280,,,,,,,,,,,wg-a,,,,AAXX 02154 07335 12700 12806 10210 20060 39977 40116 51007 60006 81101 91500=
07335,1997-06-02 18:00:00,20,1012.2,0.5,40,6,0,14.816,,,300,7.2,21.2,,,,,,,,,wg-a,,,,AAXX 02184 07335 12/// /3008 10200 20060 39982 40122 53005 60006 91800 333 10212 20072=
07335,1997-06-03 00:00:00,10,1015.1,0.8,76,6,0,7.408,,,240,,,,,,,,,,,wg-a,,,,AAXX 03004 07335 12/// /2404 10100 20060 30006 40151 51008 60006 90000=
07335,1997-06-03 09:00:00,16,1016.7,0.7,63,9,500,7.408,,,300,,,,,,,,,,,wg-a,,,,AAXX 03094 07335 12/00 13004 10160 20090 30025 40167 51007 60006 80001 90900=
07335,1997-06-03 12:00:00,20,1016.5,0,43,7,500,7.408,,,260,,,,,,,,,,,wg-a,,,,AAXX 03124 07335 12700 12604 10200 20070 30025 40165 50000 60006 81101 91200=
07335,1997-06-03 15:00:00,22,1016.3,-0.2,38,7,500,14.816,,,270,,,,,,,,,,,wg-a,,,,AAXX 03154 07335 12700 12708 10220 20070 30023 40163 58002 60006 81101 91500=
07335,1997-06-04 06:00:00,11,1014.9,-1,87,9,25000,3.704,,,360,6.8,21.3,,,,,,,,,wg-a,,,,AAXX 04064 07335 02/75 63602 10110 20090 30005 40149 56010 60006 80001 90600 333 10213 20068 60004=
07335,1997-06-04 09:00:00,20,1013.1,-1.4,49,9,500,18.52,,,80,,,,,,,,,,,wg-a,,,,AAXX 04094 07335 12/00 70810 10200 20090 39991 40131 58014 60006 80008 90900=
07335,1997-06-04 12:00:00,24,1011.2,-1.6,50,13,500,18.52,,,90,,,,,,,,,,,wg-a,,,,AAXX 04124 07335 12600 60910 10240 20130 39975 40112 58016 60006 83202 91200=
07335,1997-06-04 15:00:00,27,1008.3,-2.8,34,10,500,14.816,,,140,,,,,,,,,,,wg-a,,,,AAXX 04154 07335 12700 61408 10270 20100 39947 40083 58028 60006 82281 91500=
07335,1997-06-04 18:00:00,25,1006.8,-1.6,47,13,0,18.52,,,80,11.5,27.8,,,,,,,,,wg-a,,,,AAXX 04184 07335 12/// /0810 10250 20130 39931 40068 56016 60006 91800 333 10278 20115=
07335,1997-06-05 06:00:00,18,1002.1,-1.3,73,13,25000,18.52,,,150,17.9,24.5,,,,,,,,,wg-a,,,,AAXX 05064 07335 02675 71510 10180 20130 39882 40021 57013 60006 8558/ 90600 333 10245 20179 60004=
07335,1997-06-05 12:00:00,22,1002.9,0.3,60,14,25000,25.928,,,200,,,,,,,,,,,wg-a,,,,AAXX 05124 07335 12675 72014 10220 20140 39892 40029 50003 60006 878// 91200=
07335,1997-06-05 18:00:00,21,1003.2,0.1,69,15,0,11.112,,,230,16.8,22.5,,,,,,,,,wg-a,,,,AAXX 05184 07335 12/// /2306 10210 20150 39894 40032 53001 60006 91800 333 10225 20168=
07335,1997-06-06 00:00:00,15,1005.6,0.2,100,15,0,7.408,,,150,,,,,,,,,,,wg-a,,,,AAXX 06004 07335 12/// /1504 10150 20150 39915 40056 51002 60006 90000=
07335,1997-06-06 06:00:00,17,1006.7,1.3,94,16,25000,11.112,,,180,14.9,21.3,,,,,,,,3,wg-a,,,,AAXX 06064 07335 02/75 61806 10170 20160 39927 40067 53013 60006 70386 83082 90600 333 10213 20149 60004=
07335,1997-06-06 09:00:00,21,1007.6,1.1,73,16,25000,22.224,,,200,,,,,,,,,,,wg-a,,,,AAXX 06094 07335 12/75 72012 10210 20160 39938 40076 51011 60006 83082 90900=
07335,1997-06-06 12:00:00,26,1007.2,-0.2,51,15,25000,25.928,,,190,,,,,,,,,,,wg-a,,,,AAXX 06124 07335 12675 /1914 10260 20150 39936 40072 58002 60006 81182 91200=
07335,1997-06-06 15:00:00,28,1006.3,-0.8,45,15,25000,22.224,,,180,,,,,,,,,,,wg-a,,,,AAXX 06154 07335 12775 41812 10280 20150 39928 40063 58008 60006 81182 91500=
07335,1997-06-06 18:00:00,27,1006,-0.3,48,15,0,14.816,,,170,17.4,28.6,,,,,,,,,wg-a,,,,AAXX 06184 07335 12/// /1708 10270 20150 39925 40060 57003 60006 91800 333 10286 20174=
07335,1997-06-07 00:00:00,21,1007.1,0.7,69,15,0,14.816,,,240,,,,,,,,,,,wg-a,,,,AAXX 07004 07335 12/// /2408 10210 20150 39933 40071 53007 60006 90000=
07335,1997-06-07 06:00:00,18,1008.5,0.7,83,15,20000,3.704,,,110,16.8,27,,,,,,,,,wg-a,,,,AAXX 07064 07335 02570 61102 10180 20150 39945 40085 53007 60006 83989 90600 333 10270 20168 60004=
07335,1997-06-07 09:00:00,22,1009.1,0.8,69,16,500,7.408,,,160,,,,,,,,,,,wg-a,,,,AAXX 07094 07335 12500 31604 10220 20160 39953 40091 51008 60006 83802 90900=
07335,1997-06-07 12:00:00,26,1008.5,-0.4,58,17,500,18.52,,,220,,,,,,,,,,,wg-a,,,,AAXX 07124 07335 12600 32210 10260 20170 39949 40085 58004 60006 83201 91200=
07335,1997-06-07 15:00:00,26,1008.8,0.3,37,10,500,31.484,,50.004,230,,,,,,,,,,,wg-a,,,,AAXX 07154 07335 12700 42317 10260 20100 39952 40088 52003 60006 82202 91500 333 91027=
07335,1997-06-07 18:00:00,24,1009.2,0.3,34,7,0,22.224,,,250,17.8,28.2,,,,,,,,,wg-a,,,,AAXX 07184 07335 12/// /2512 10240 20070 39955 40092 53003 60006 91800 333 10282 20178=
07335,1997-06-08 00:00:00,14,1013.7,2.1,88,12,0,11.112,,,320,,,,,,,,,,,wg-a,,,,AAXX 08004 07335 12/// /3206 10140 20120 39994 40137 51021 60006 90000=
07335,1997-06-08 09:00:00,20,1017,1,60,12,20000,7.408,,,270,,,,,,,,,,3,wg-a,,,,AAXX 08094 07335 02570 /2704 10200 20120 30030 40170 51010 61000 70362 85832 90900 333 ////=
07335,1997-06-08 12:00:00,22,1017.7,0.7,53,12,25000,14.816,,,320,,,,,,,,,,1,wg-a,,,,AAXX 08124 07335 02675 23208 10220 20120 30037 40177 50007 61000 70161 82832 91200 333 ////=
07335,1997-06-08 15:00:00,22,1018.5,0.9,50,11,20000,18.52,,,270,,,,,,,,,,,wg-a,,,,AAXX 08154 07335 12670 42710 10220 20110 30046 40185 53009 60006 84832 91500=
07335,1997-06-08 18:00:00,21,1020.1,1.5,53,11,0,22.224,,,280,14.5,23.6,,,,,,,,,wg-a,,,,AAXX 08184 07335 32/// /2812 10210 20110 30061 40201 52015 91800 333 10236 20145=
07335,1997-06-09 00:00:00,10,1022.8,0.5,93,9,0,3.704,,,250,,,,,,,,,,,wg-a,,,,AAXX 09004 07335 12/// /2502 10100 20090 30082 40228 51005 60006 90000=
07335,1997-06-09 06:00:00,12,1022.8,0.2,100,12,20000,3.704,,,20,6.7,21.2,,,,,,,,,wg-a,,,,AAXX 09064 07335 02/70 40202 10120 20120 30083 40228 52002 60006 81042 90600 333 10212 20067 61000=
07335,1997-06-09 09:00:00,21,1022.5,0.1,60,13,25000,11.112,,,100,,,,,,,,,,,wg-a,,,,AAXX 09094 07335 12/75 71006 10210 20130 30084 40225 50001 60006 81082 90900=
07335,1997-06-09 12:00:00,25,1021,-1.3,36,9,25000,11.112,,,120,,,,,,,,,,,wg-a,,,,AAXX 09124 07335 12/75 71206 10250 20090 30071 40210 56013 60006 82082 91200=
07335,1997-06-09 15:00:00,27,1019.6,-1.3,34,10,25000,11.112,,,90,,,,,,,,,,,wg-a,,,,AAXX 09154 07335 12/75 70906 10270 20100 30058 40196 56013 60006 83082 91500=
07335,1997-06-10 00:00:00,20,1016.6,-1.5,64,13,0,11.112,,,100,,,,,,,,,,,wg-a,,,,AAXX 10004 07335 12/// /1006 10200 20130 30026 40166 58015 60006 90000=
07335,1997-06-10 06:00:00,19,1013.7,-0.6,78,15,500,14.816,,,120,18.4,25.4,,,,,,,,,wg-a,,,,AAXX 10064 07335 02/00 81208 10190 20150 39997 40137 58006 60006 83087 90600 333 10254 20184 60004=
07335,1997-06-10 09:00:00,25,1011.7,-1.7,54,15,500,14.816,,,120,,,,,,,,,,,wg-a,,,,AAXX 10094 07335 12/00 71208 10250 20150 39980 40117 58017 60006 8708/ 90900=
07335,1997-06-10 12:00:00,22,1013.2,1.3,73,17,20000,0,,,0,,,,1,,,,,,60,wg-a,,,,AAXX 10124 07335 02470 80000 10220 20170 39993 40132 50013 60016 76062 8257/ 91200 333 60017=
07335,1997-06-10 15:00:00,24,1010.5,-2.5,74,19,25000,14.816,,,130,,,,0,,,,,,1,wg-a,,,,AAXX 10154 07335 12/75 81308 10240 20190 39968 40105 56025 60007 70162 8807/ 91500=
07335,1997-06-10 18:00:00,25,1009.5,-1,65,18,0,11.112,,,150,19.2,25.8,,,,,,,,,wg-a,,,,AAXX 10184 07335 32/// /1506 10250 20180 39958 40095 58010 91800 333 10258 20192=
07335,1997-06-11 00:00:00,20,1010.6,0.9,88,18,0,22.224,,,190,,,,,,,,,,,wg-a,,,,AAXX 11004 07335 12/// /1912 10200 20180 39967 40106 53009 60016 90000=
07335,1997-06-11 06:00:00,18,1009.4,0.5,94,17,20000,7.408,,,160,15.2,25,,,,,4,,,,wg-a,,,,AAXX 11064 07335 02670 31604 10180 20170 39954 40094 51005 60006 81982 90600 333 10250 20152 60044=
07335,1997-06-11 09:00:00,23,1008.8,-0.3,69,17,25000,18.52,,,210,,,,,,,,,,,wg-a,,,,AAXX 11094 07335 12675 32110 10230 20170 39951 40088 58003 60006 81982 90900=
07335,1997-06-11 12:00:00,25,1009,0.2,57,16,25000,29.632,,,250,,,,,,,,,,,wg-a,,,,AAXX 11124 07335 12675 /2516 10250 20160 39953 40090 53002 60006 85882 91200=
07335,1997-06-11 15:00:00,24,1010.4,1.4,54,14,25000,29.632,,,270,,,,,,,,,,,wg-a,,,,AAXX 11154 07335 12675 42716 10240 20140 39967 40104 51014 60006 83832 91500=
07335,1997-06-11 18:00:00,22,1011,0.5,60,14,0,25.928,,,280,17.7,25.8,,,,,,,,,wg-a,,,,AAXX 11184 07335 12/// /2814 10220 20140 39972 40110 53005 60006 91800 333 10258 20177=
07335,1997-06-12 00:00:00,15,1013.2,0.3,94,14,0,11.112,,,210,,,,,,,,,,,wg-a,,,,AAXX 12004 07335 12/// /2106 10150 20140 39990 40132 51003 60006 90000=
07335,1997-06-12 06:00:00,16,1012.7,0.8,94,15,25000,3.704,,,250,14.1,22.1,,,,,,,,,wg-a,,,,AAXX 12064 07335 02/75 72502 10160 20150 39986 40127 51008 60006 8707/ 90600 333 10221 20141 60004=
07335,1997-06-12 09:00:00,18,1012.7,0.1,83,15,25000,11.112,,,210,,,,,,,,,,,wg-a,,,,AAXX 12094 07335 12475 72106 10180 20150 39987 40127 50001 60006 8487/ 90900=
07335,1997-06-12 12:00:00,22,1011.9,-0.6,60,14,25000,11.112,,,230,,,,,,,,,,,wg-a,,,,AAXX 12124 07335 12575 72306 10220 20140 39981 40119 56006 60006 8587/ 91200=
07335,1997-06-12 15:00:00,21,1011.5,-0.5,69,15,25000,18.52,,,330,,,,,,,,,,,wg-a,,,,AAXX 12154 07335 12675 73310 10210 20150 39976 40115 56005 60006 8587/ 91500=
07335,1997-06-12 18:00:00,21,1011.1,-0.4,56,12,0,14.816,,,290,16.2,22.6,,,,,,,,,wg-a,,,,AAXX 12184 07335 12/// /2908 10210 20120 39972 40111 57004 60006 91800 333 10226 20162=
07335,1997-06-13 00:00:00,13,1011.7,-0.1,100,13,0,7.408,,,250,,,,,,,,,,,wg-a,,,,AAXX 13004 07335 12/// /2504 10130 20130 39974 40117 58001 60006 90000=
07335,1997-06-13 06:00:00,14,1009.6,-0.8,100,14,8000,3.704,,,190,11.5,21.3,,,,,,,,,wg-a,,,,AAXX 13064 07335 02/58 71902 10140 20140 39954 40096 55008 60006 8207/ 90600 333 10213 20115 60004=
07335,1997-06-13 09:00:00,18,1009.1,-0.3,73,13,15000,3.704,,,160,,,,0,,,,,,1,wg-a,,,,AAXX 13094 07335 12465 81602 10180 20130 39951 40091 58003 60007 70162 8177/ 90900=
07335,1997-06-13 12:00:00,18,1008.4,-0.7,88,16,20000,11.112,,,150,,,,,,,,,,3,wg-a,,,,AAXX 13124 07335 12470 81506 10180 20160 39944 40084 58007 60006 70362 8457/ 91200=
07335,1997-06-13 15:00:00,19,1007.9,-0.4,83,16,20000,3.704,,,250,,,,1,,,,,,21,wg-a,,,,AAXX 13154 07335 12570 82502 10190 20160 39940 40079 57004 60017 72162 8487/ 91500=
07335,1997-06-13 18:00:00,20,1007.6,-0.3,78,16,0,7.408,,,300,14.3,20.4,,,,,,,,,wg-a,,,,AAXX 13184 07335 32/// /3004 10200 20160 39937 40076 56003 91800 333 10204 20143=
07335,1997-06-14 00:00:00,16,1009.2,0.2,94,15,0,14.816,,,240,,,,,,,,,,,wg-a,,,,AAXX 14004 07335 12/// /2408 10160 20150 39951 40092 52002 60006 90000=
07335,1997-06-14 06:00:00,16,1012.1,2.2,88,14,500,18.52,,,290,15.4,20,,,,,,,,21,wg-a,,,,AAXX 14064 07335 02400 72910 10160 20140 39980 40121 53022 61000 72122 878// 90600 333 10200 20154 6001=
07335,1997-06-14 09:00:00,18,1014.2,2.1,73,13,500,18.52,,,290,,,,,,,,,,,wg-a,,,,AAXX 14094 07335 12500 72910 10180 20130 30001 40142 51021 60006 878// 90900=
07335,1997-06-14 12:00:00,20,1015.3,1.2,56,11,500,22.224,,,270,,,,,,,,,,,wg-a,,,,AAXX 14124 07335 12600 72712 10200 20110 30013 40153 53012 60006 878// 91200=
07335,1997-06-14 18:00:00,19,1017.2,1,60,11,0,18.52,,,280,15.7,21,,,,,,,,,wg-a,,,,AAXX 14184 07335 12/// /2810 10190 20110 30031 40172 53010 60006 91800 333 10210 20157=
07335,1997-06-15 00:00:00,10,1020.1,0.6,93,9,0,11.112,,,260,,,,,,,,,,,wg-a,,,,AAXX 15004 07335 12/// /2606 10100 20090 30055 40201 51006 60006 90000=
07335,1997-06-15 06:00:00,11,1020,0.5,100,11,20000,3.704,,,140,6.5,19.3,,,,,,,,,wg-a,,,,AAXX 15064 07335 02/70 11402 10110 20110 30055 40200 53005 60006 80001 90600 333 10193 20065 60004=
07335,1997-06-15 09:00:00,19,1019.4,-0.2,56,10,25000,7.408,,,190,,,,,,,,,,,wg-a,,,,AAXX 15094 07335 12575 41904 10190 20100 30053 40194 58002 60006 84101 90900=
07335,1997-06-15 12:00:00,21,1018.6,-0.7,46,9,25000,11.112,,,310,,,,,,,,,,,wg-a,,,,AAXX 15124 07335 12675 43106 10210 20090 30046 40186 58007 60006 84101 91200=
07335,1997-06-15 15:00:00,23,1017.4,-1.1,38,8,25000,7.408,,,280,,,,,,,,,,,wg-a,,,,AAXX 15154 07335 12775 42804 10230 20080 30035 40174 58011 60006 83131 91500=
07335,1997-06-16 09:00:00,21,1016.7,-0.3,53,11,25000,11.112,,,150,,,,,,,,,,,wg-a,,,,AAXX 16094 07335 12/75 71506 10210 20110 30027 40167 56003 60006 85082 90900=
07335,1997-06-16 12:00:00,22,1016.3,-0.3,50,11,500,11.112,,,310,,,,,,,,,,,wg-a,,,,AAXX 16124 07335 12600 73106 10220 20110 30024 40163 58003 60006 8528/ 91200=
07335,1997-06-16 18:00:00,15,1017,0.5,94,14,0,11.112,,,190,12,22.8,,,,,,,,,wg-a,,,,AAXX 16184 07335 32/// /1906 10150 20140 30027 40170 51005 91800 333 10228 20120=
07335,1997-06-17 00:00:00,12,1018.1,-0.1,100,12,0,7.408,,,230,,,,,,,,,,,wg-a,,,,AAXX 17004 07335 12/// /2304 10120 20120 30037 40181 58001 60006 90000=
07335,1997-06-17 06:00:00,12,1018.6,0.5,100,12,3000,3.704,,,180,9.3,14.7,,,,,4,,,10,wg-a,,,,AAXX 17064 07335 02130 71802 10120 20120 30042 40186 53005 60006 71041 876// 90600 333 10147 20093 60044=
07335,1997-06-17 12:00:00,19,1018.6,-0.3,68,13,500,11.112,,,200,,,,0,,,,,,,wg-a,,,,AAXX 17124 07335 02500 72006 10190 20130 30045 40186 58003 60006 878// 91200 333 60007=
07335,1997-06-17 15:00:00,21,1017.8,-0.7,53,11,500,7.408,,,340,,,,,,,,,,,wg-a,,,,AAXX 17154 07335 12600 73404 10210 20110 30038 40178 56007 60006 878// 91500=
07335,1997-06-17 18:00:00,21,1017.8,-0,56,12,0,7.408,,,340,12.1,21.6,,,,,,,,,wg-a,,,,AAXX 17184 07335 32/// /3404 10210 20120 30038 40178 55000 91800 333 10216 20121=
07335,1997-06-18 00:00:00,12,1020.1,0.2,100,12,0,3.704,,,330,,,,,,,,,,,wg-a,,,,AAXX 18004 07335 12/// /3302 10120 20120 30056 40201 51002 60016 90000=
07335,1997-06-18 06:00:00,12,1020.2,0.3,100,12,2000,0,,,0,8.7,20.9,,,,,1,,,10,wg-a,,,,AAXX 18064 07335 02120 20000 10120 20120 30057 40202 51003 60006 71011 81630 90600 333 10209 20087 60014=
07335,1997-06-18 09:00:00,17,1019.8,-0.1,82,14,6000,7.408,,,80,,,,,,,,,,,wg-a,,,,AAXX 18094 07335 12256 /0804 10170 20140 30056 40198 58001 60006 85100 90900=
07335,1997-06-18 12:00:00,21,1018.9,-0.7,60,13,18000,3.704,,,110,,,,,,,,,,,wg-a,,,,AAXX 18124 07335 12668 41102 10210 20130 30049 40189 58007 60006 84200 91200=
07335,1997-06-18 15:00:00,23,1016.7,-2.1,44,10,20000,7.408,,,350,,,,,,,,,,,wg-a,,,,AAXX 18154 07335 12670 43504 10230 20100 30028 40167 58021 60006 83102 91500=
07335,1997-06-18 18:00:00,23,1015.3,-1.4,44,10,0,7.408,,,140,11.9,23.2,,,,,,,,,wg-a,,,,AAXX 18184 07335 12/// /1404 10230 20100 30014 40153 56014 60006 91800 333 10232 20119=
07335,1997-06-19 00:00:00,14,1014.5,-1.1,88,12,0,11.112,,,300,,,,,,,,,,,wg-a,,,,AAXX 19004 07335 12/// /3006 10140 20120 30002 40145 58011 60006 90000=
07335,1997-06-19 06:00:00,13,1012.3,-0.3,88,11,10000,11.112,,,300,12.3,22.5,,,,,,,,,wg-a,,,,AAXX 19064 07335 02/60 73006 10130 20110 39980 40123 58003 60006 84032 90600 333 10225 20123 60004=
07335,1997-06-19 15:00:00,17,1010.3,-0.8,82,14,25000,22.224,,,260,,,,2,,,,,,60,wg-a,,,,AAXX 19154 07335 12575 72612 10170 20140 39962 40103 56008 60027 76062 8387/ 91500=
07335,1997-06-19 18:00:00,14,1011,0.6,94,13,0,11.112,,,320,13.2,20.6,,,,,,,,,wg-a,,,,AAXX 19184 07335 32/// /3206 10140 20130 39968 40110 51006 91800 333 10206 20132=
07335,1997-06-20 06:00:00,13,1010,-0.2,100,13,10000,11.112,,,220,10.7,13.9,,,,,4,,,,wg-a,,,,AAXX 20064 07335 02360 72206 10130 20130 39958 40100 56002 60006 8657/ 90600 333 10139 20107 60044=
07335,1997-06-20 09:00:00,16,1009.1,-0.8,82,13,15000,18.52,,,210,,,,,,,,,,3,wg-a,,,,AAXX 20094 07335 02465 72110 10160 20130 39950 40091 58008 61000 70362 8683/ 90900 333 ////=
07335,1997-06-20 12:00:00,17,1008.1,-0.9,82,14,15000,25.928,,,240,,,,0,,,,,,21,wg-a,,,,AAXX 20124 07335 02565 72414 10170 20140 39941 40081 58009 60006 72162 8683/ 91200 333 60007=
07335,1997-06-20 18:00:00,15,1005.6,-1.6,88,13,0,29.632,,,220,13.3,18.2,,0,,,,,,,wg-a,,,,AAXX 20184 07335 12/// /2216 10150 20130 39915 40056 56016 60007 91800 333 10182 20133=
07335,1997-06-21 00:00:00,14,1004,-0.3,94,13,0,14.816,,,220,,,,,,,,,,,wg-a,,,,AAXX 21004 07335 12/// /2208 10140 20130 39899 40040 58003 60046 90000=
07335,1997-06-21 06:00:00,14,1003.9,0.6,100,14,20000,14.816,,,230,13.5,15.3,,,,,,,,21,wg-a,,,,AAXX 21064 07335 02370 82308 10140 20140 39898 40039 51006 61000 72122 8657/ 90600 333 10153 20135 6004=
07335,1997-06-21 09:00:00,15,1003.8,-0.1,94,14,20000,18.52,,,240,,,,0,,,,,,25,wg-a,,,,AAXX 21094 07335 12470 72410 10150 20140 39897 40038 58001 60007 72586 878// 90900=
07335,1997-06-21 12:00:00,16,1003.4,-0.3,77,12,20000,25.928,,,250,,,,,,,,,,1,wg-a,,,,AAXX 21124 07335 12570 82514 10160 20120 39894 40034 58003 60006 70186 8587/ 91200=
07335,1997-06-21 15:00:00,16,1002.9,-0.5,77,12,20000,25.928,,,240,,,,,,,,,,,wg-a,,,,AAXX 21154 07335 12570 72414 10160 20120 39889 40029 58005 60006 8487/ 91500=
07335,1997-06-21 18:00:00,14,1003.4,0.4,88,12,0,29.632,,,250,13.7,17.7,,,,,,,,,wg-a,,,,AAXX 21184 07335 32/// /2516 10140 20120 39893 40034 51004 91800 333 10177 20137=
07335,1997-06-22 00:00:00,12,1005.8,0.1,94,11,0,14.816,,,220,,,,,,,,,,,wg-a,,,,AAXX 22004 07335 12/// /2208 10120 20110 39915 40058 50001 60006 90000=
07335,1997-06-22 06:00:00,12,1005.3,0.3,100,12,20000,18.52,,,220,10.7,14.4,,,,,,,,25,wg-a,,,,AAXX 22064 07335 02370 72210 10120 20120 39911 40053 53003 61000 72586 8699/ 90600 333 10144 20107 6003=
07335,1997-06-22 09:00:00,16,1006.5,1.3,68,10,500,25.928,,,260,,,,,,,,,,,wg-a,,,,AAXX 22094 07335 12400 52614 10160 20100 39924 40065 51013 60006 84330 90900=
07335,1997-06-22 15:00:00,19,1007.9,0.3,60,11,500,35.188,,55.56,270,,,,0,,,,,,1,wg-a,,,,AAXX 22154 07335 12600 32719 10190 20110 39939 40079 51003 60007 70186 8323/ 91500 333 91030=
07335,1997-06-22 18:00:00,16,1009.3,1.3,82,13,0,25.928,,,250,12.1,19.1,,1,,,,,,,wg-a,,,,AAXX 22184 07335 12/// /2514 10160 20130 39952 40093 51013 60017 91800 333 10191 20121=
07335,1997-06-23 00:00:00,11,1012.3,0.7,100,11,0,11.112,,,240,,,,,,,,,,,wg-a,,,,AAXX 23004 07335 12/// /2406 10110 20110 39979 40123 51007 60006 90000=
07335,1997-06-23 06:00:00,13,1013,0.9,100,13,15000,14.816,,,240,10.6,15.4,,,,,1,,,,wg-a,,,,AAXX 23064 07335 02465 /2408 10130 20130 39987 40130 51009 60006 85830 90600 333 10154 20106 60014=
07335,1997-06-23 09:00:00,17,1014.1,1.3,68,11,500,22.224,,,290,,,,,,,,,,,wg-a,,,,AAXX 23094 07335 12500 32912 10170 20110 30000 40141 53013 60006 83230 90900=
07335,1997-06-23 12:00:00,19,1014.4,0.4,60,11,500,25.928,,,280,,,,,,,,,,,wg-a,,,,AAXX 23124 07335 12600 /2814 10190 20110 30004 40144 51004 60006 86400 91200=
07335,1997-06-23 15:00:00,20,1014.7,0.3,56,11,500,29.632,,,290,,,,,,,,,,,wg-a,,,,AAXX 23154 07335 12600 52916 10200 20110 30007 40147 53003 60006 85230 91500=
07335,1997-06-24 06:00:00,13,1019.3,0.6,94,12,20000,11.112,,,310,11,17.3,,,,,3,,,,wg-a,,,,AAXX 24064 07335 02570 73106 10130 20120 30049 40193 51006 60006 875// 90600 333 10173 20110 60034=
07335,1997-06-24 12:00:00,17,1019.8,-0.1,52,7,20000,18.52,,,310,,,,,,,,,,,wg-a,,,,AAXX 24124 07335 12670 73110 10170 20070 30056 40198 57001 60006 871// 91200=
07335,1997-06-24 15:00:00,18,1019.1,-0.7,52,8,20000,14.816,,,300,,,,,,,,,,,wg-a,,,,AAXX 24154 07335 12670 73008 10180 20080 30049 40191 58007 60006 878// 91500=
07335,1997-06-25 00:00:00,10,1016.9,-1.1,100,10,0,11.112,,,240,,,,,,,,,,,wg-a,,,,AAXX 25004 07335 12/// /2406 10100 20100 30024 40169 57011 60006 90000=
07335,1997-06-25 06:00:00,12,1013.3,-1.6,94,11,15000,3.704,,,190,9,17.3,,,,,,,,,wg-a,,,,AAXX 25064 07335 02665 71902 10120 20110 39989 40133 56016 60006 8357/ 90600 333 10173 20090 60004=
07335,1997-06-25 15:00:00,14,1007.4,-2.7,100,14,9000,25.928,,,210,,,,4,,,,,,61,wg-a,,,,AAXX 25154 07335 12459 82114 10140 20140 39932 40074 57027 60047 76166 885// 91500=
07335,1997-06-25 18:00:00,14,1004.1,-3.2,100,14,0,22.224,,,210,11.8,14.7,,,,,,,,,wg-a,,,,AAXX 25184 07335 32/// /2112 10140 20140 39900 40041 58032 91800 333 10147 20118=
07335,1997-06-26 00:00:00,14,1003.4,-1,94,13,0,18.52,,,250,,,,,,,,,,,wg-a,,,,AAXX 26004 07335 12/// /2510 10140 20130 39893 40034 58010 60006 90000=
07335,1997-06-26 06:00:00,13,1000.1,-1.4,100,13,15000,18.52,,,230,12.6,14.7,,,,,10,,,,wg-a,,,,AAXX 26064 07335 02265 82310 10130 20130 39860 40001 57014 60006 877// 90600 333 10147 20126 60104=
07335,1997-06-26 09:00:00,15,998.7,-1.3,100,15,20000,22.224,,,250,,,,1,,,,,,21,wg-a,,,,AAXX 26094 07335 12370 72512 10150 20150 39847 49987 56013 60017 72152 877// 90900=
07335,1997-06-26 15:00:00,18,997.3,-0.5,64,11,25000,31.484,,,270,,,,1,,,,,,3,wg-a,,,,AAXX 26154 07335 12575 72717 10180 20110 39835 49973 57005 60017 70386 878// 91500=
07335,1997-06-26 18:00:00,16,997.3,-0.1,68,10,0,29.632,,,250,13,19.5,,,,,,,,,wg-a,,,,AAXX 26184 07335 02/// /2516 10160 20100 39834 49973 55001 61000 91800 333 10195 20130 ////=
07335,1997-06-27 00:00:00,11,998.2,-0.1,94,10,0,14.816,,,240,,,,,,,,,,,wg-a,,,,AAXX 27004 07335 12/// /2408 10110 20100 39840 49982 58001 60006 90000=
07335,1997-06-27 06:00:00,11,996.7,-0.2,100,11,12000,25.928,,,250,10.2,16.2,,,,,2,,,3,wg-a,,,,AAXX 27064 07335 02262 82514 10110 20110 39825 49967 55002 60006 70362 887// 90600 333 10162 20102 60024=
07335,1997-06-27 09:00:00,13,997.9,1.3,94,12,18000,18.52,,,250,,,,0,,,,,,1,wg-a,,,,AAXX 27094 07335 12368 82510 10130 20120 39838 49979 52013 60007 70152 887// 90900=
07335,1997-06-27 15:00:00,14,1000,1,94,13,10000,22.224,,,240,,,,,,,,,,25,wg-a,,,,AAXX 27154 07335 02360 72412 10140 20130 39860 40000 53010 61000 72586 879// 91500 333 ////=
07335,1997-06-27 18:00:00,13,1001.7,1.6,100,13,0,14.816,,,220,11.1,18,,,,,,,,,wg-a,,,,AAXX 27184 07335 32/// /2208 10130 20130 39876 40017 53016 91800 333 10180 20111=
07335,1997-06-28 00:00:00,12,1004,0.6,100,12,0,18.52,,,210,,,,,,,,,,,wg-a,,,,AAXX 28004 07335 12/// /2110 10120 20120 39898 40040 51006 60016 90000=
07335,1997-06-28 06:00:00,12,1005.2,0.7,94,11,20000,18.52,,,210,11.4,13.3,,,,,3,,,,wg-a,,,,AAXX 28064 07335 02370 72110 10120 20110 39909 40052 52007 60006 875// 90600 333 10133 20114 60034=
07335,1997-06-28 09:00:00,15,1006.5,1.5,82,12,20000,22.224,,,210,,,,,,,,,,,wg-a,,,,AAXX 28094 07335 12470 72112 10150 20120 39924 40065 51015 60006 878// 90900=
07335,1997-06-28 12:00:00,18,1006.8,0.4,64,11,20000,18.52,,,230,,,,,,,,,,,wg-a,,,,AAXX 28124 07335 12670 72310 10180 20110 39928 40068 50004 60006 86832 91200=
07335,1997-06-28 15:00:00,20,1006.6,-0.1,56,11,20000,18.52,,,240,,,,,,,,,,1,wg-a,,,,AAXX 28154 07335 02670 72410 10200 20110 39927 40066 57001 61000 70186 83832 91500 333 ////=
07335,1997-06-28 18:00:00,19,1006.2,-0.4,60,11,0,7.408,,,290,11.7,20.2,,,,,,,,,wg-a,,,,AAXX 28184 07335 32/// /2904 10190 20110 39923 40062 55004 91800 333 10202 20117=
07335,1997-06-29 00:00:00,15,1005.1,-1.4,82,12,0,7.408,,,90,,,,,,,,,,,wg-a,,,,AAXX 29004 07335 12/// /0904 10150 20120 39910 40051 57014 60006 90000=
07335,1997-06-29 06:00:00,13,1003.6,-0.6,94,12,8000,14.816,,,40,12.3,18.9,,,,,,,,61,wg-a,,,,AAXX 29064 07335 02358 80408 10130 20120 39894 40036 55006 61000 76162 875// 90600 333 10189 20123 6004=
07335,1997-06-29 09:00:00,13,1003.5,-0.1,94,12,2200,18.52,,,20,,,,7,,,,,,63,wg-a,,,,AAXX 29094 07335 12222 80210 10130 20120 39893 40035 58001 60077 76366 877// 90900=
07335,1997-06-29 12:00:00,13,1003.4,-0,100,13,2500,18.52,,,360,,,,7,,,,,,63,wg-a,,,,AAXX 29124 07335 02325 83610 10130 20130 39893 40034 55000 60146 76366 875// 91200 333 60077=
07335,1997-06-29 15:00:00,14,1003.6,0.2,94,13,2500,18.52,,,330,,,,4,,,,,,63,wg-a,,,,AAXX 29154 07335 12325 83310 10140 20130 39895 40036 53002 60047 76366 875// 91500=
07335,1997-06-29 18:00:00,13,1004.8,1.1,100,13,0,22.224,,,300,12.1,13.8,,,,,,,,,wg-a,,,,AAXX 29184 07335 32/// /3012 10130 20130 39906 40048 53011 91800 333 10138 20121=
07335,1997-06-30 00:00:00,12,1006.3,0.2,100,12,0,18.52,,,250,,,,,,,,,,,wg-a,,,,AAXX 30004 07335 12/// /2510 10120 20120 39921 40063 51002 60046 90000=
07335,1997-06-30 06:00:00,13,1006.1,0.2,94,12,7000,14.816,,,240,12,13,,,,,31,,,1,wg-a,,,,AAXX 30064 07335 02257 72408 10130 20120 39919 40061 53002 60006 70165 876// 90600 333 10130 20120 60314=
07335,1997-06-30 09:00:00,15,1006.9,0.9,88,13,12000,18.52,,,250,,,,,,,,,,,wg-a,,,,AAXX 30094 07335 12462 72510 10150 20130 39928 40069 51009 60006 878// 90900=
07335,1997-06-30 12:00:00,16,1007.3,0.4,77,12,20000,18.52,,,250,,,,,,,,,,,wg-a,,,,AAXX 30124 07335 12570 72510 10160 20120 39932 40073 53004 60006 8687/ 91200=
07335,1997-06-30 15:00:00,17,1007.4,0.2,82,14,18000,14.816,,,260,,,,0,,,,,,1,wg-a,,,,AAXX 30154 07335 12468 72608 10170 20140 39934 40074 53002 60007 70186 878// 91500=
07335,1997-06-30 18:00:00,15,1008.6,1.1,82,12,0,22.224,,,270,12.5,18.3,,,,,,,,,wg-a,,,,AAXX 30184 07335 32/// /2712 10150 20120 39945 40086 52011 91800 333 10183 20125=
07335,1997-07-01 00:00:00,13,1011,0.7,94,12,0,14.816,,,250,,,,,,,,,,,wg-a,,,,AAXX 01004 07335 12/// /2508 10130 20120 39967 40110 51007 60016 90000=
07335,1997-07-01 06:00:00,13,1010.7,0.2,100,13,8000,14.816,,,210,11.5,14.8,,,,,1,,,3,wg-a,,,,AAXX 01064 07335 02358 72108 10130 20130 39964 40107 52002 60006 70386 875// 90600 333 10148 20115 60014=
07335,1997-07-01 09:00:00,16,1010.8,0.3,77,12,12000,18.52,,,240,,,,0,,,,,,3,wg-a,,,,AAXX 01094 07335 12462 72410 10160 20120 39967 40108 50003 60007 70386 8683/ 90900=
07335,1997-07-01 12:00:00,17,1010.5,-0.3,72,12,9000,22.224,,,260,,,,,,,,,,80,wg-a,,,,AAXX 01124 07335 02559 62612 10170 20120 39964 40105 58003 60006 78086 85830 91200 333 61000=
07335,1997-07-01 15:00:00,18,1009.9,-0.5,77,14,15000,18.52,,,220,,,,1,,,,,,25,wg-a,,,,AAXX 01154 07335 12365 72210 10180 20140 39959 40099 58005 60017 72586 85832 91500=
07335,1997-07-01 18:00:00,18,1010.1,0.2,64,11,0,22.224,,,240,13,20,,,,,,,,,wg-a,,,,AAXX 01184 07335 32/// /2412 10180 20110 39961 40101 53002 91800 333 10200 20130=
07335,1997-07-02 00:00:00,11,1010.7,-0.6,100,11,0,3.704,,,260,,,,,,,,,,,wg-a,,,,AAXX 02004 07335 12/// /2602 10110 20110 39963 40107 58006 60006 90000=
07335,1997-07-02 09:00:00,13,1008.9,0.2,100,13,8000,7.408,,,330,,,,3,,,,,,61,wg-a,,,,AAXX 02094 07335 12258 83304 10130 20130 39946 40089 50002 60037 76162 8677/ 90900=
07335,1997-07-02 12:00:00,14,1009.8,1,94,13,20000,18.52,,,250,,,,2,,,,,,25,wg-a,,,,AAXX 02124 07335 02470 72510 10140 20130 39956 40098 53010 60056 72586 8687/ 91200 333 60027=
07335,1997-07-02 15:00:00,18,1009.8,0.2,64,11,500,25.928,,,260,,,,,,,,,,,wg-a,,,,AAXX 02154 07335 12600 42614 10180 20110 39958 40098 53002 60006 84202 91500=
07335,1997-07-02 18:00:00,15,1011.7,1.7,67,9,0,18.52,,,260,12.6,18.9,,,,,,,,,wg-a,,,,AAXX 02184 07335 32/// /2610 10150 20090 39975 40117 53017 91800 333 10189 20126=
07335,1997-07-03 00:00:00,10,1014.7,0.4,93,9,0,11.112,,,190,,,,,,,,,,,wg-a,,,,AAXX 03004 07335 12/// /1906 10100 20090 30002 40147 51004 60006 90000=
07335,1997-07-03 06:00:00,11,1014.8,0.8,100,11,25000,11.112,,,210,9.5,15.9,,,,,,,,25,wg-a,,,,AAXX 03064 07335 02275 72106 10110 20110 30004 40148 52008 61000 72522 877// 90600 333 10159 20095 6005=
07335,1997-07-03 09:00:00,14,1015.9,1.2,82,11,15000,18.52,,,240,,,,2,,,,,,25,wg-a,,,,AAXX 03094 07335 12465 72410 10140 20110 30016 40159 51012 60027 72586 878// 90900=
07335,1997-07-03 12:00:00,18,1015.5,-0.2,59,10,500,22.224,,,230,,,,,,,,,,3,wg-a,,,,AAXX 03124 07335 12600 72312 10180 20100 30014 40155 57002 60026 70386 87831 91200=
07335,1997-07-03 18:00:00,17,1016.2,0.3,63,10,0,22.224,,,280,11.3,19.4,,,,,,,,,wg-a,,,,AAXX 03184 07335 32/// /2812 10170 20100 30020 40162 51003 91800 333 10194 20113=
07335,1997-07-04 06:00:00,12,1018.1,0.7,100,12,12000,11.112,,,190,12,16.9,,,,,,,,21,wg-a,,,,AAXX 04064 07335 02262 71906 10120 20120 30037 40181 53007 61000 72162 84532 90600 333 10169 20120 6003=
07335,1997-07-04 09:00:00,16,1018.5,0.6,88,14,12000,18.52,,,220,,,,,,,,,,25,wg-a,,,,AAXX 04094 07335 02462 72210 10160 20140 30043 40185 50006 61000 72586 85832 90900 333 ////=
07335,1997-07-04 15:00:00,16,1019.6,1,77,12,12000,18.52,,,330,,,,1,,,,,,25,wg-a,,,,AAXX 04154 07335 12362 73310 10160 20120 30053 40196 53010 60017 72586 879// 91500=
07335,1997-07-04 18:00:00,14,1020.3,0.6,88,12,0,25.928,,,280,12.3,18.5,,,,,,,,,wg-a,,,,AAXX 04184 07335 32/// /2814 10140 20120 30059 40203 53006 91800 333 10185 20123=
07335,1997-07-05 00:00:00,11,1022.9,0.9,100,11,0,11.112,,,270,,,,,,,,,,,wg-a,,,,AAXX 05004 07335 12/// /2706 10110 20110 30084 40229 51009 60016 90000=
07335,1997-07-05 09:00:00,13,1026.4,1.6,94,12,3500,14.816,,,320,,,,,,,,,,10,wg-a,,,,AAXX 05094 07335 12335 83208 10130 20120 30119 40264 51016 60006 71022 886// 90900=
07335,1997-07-05 12:00:00,17,1026.8,0.6,77,13,8000,18.52,,,340,,,,,,,,,,,wg-a,,,,AAXX 05124 07335 12458 73410 10170 20130 30125 40268 50006 60006 872// 91200=
07335,1997-07-05 15:00:00,20,1026.5,-0.2,64,13,12000,14.816,,,310,,,,,,,,,,,wg-a,,,,AAXX 05154 07335 12662 73108 10200 20130 30123 40265 57002 60006 8583/ 91500=
07335,1997-07-05 18:00:00,20,1027,0.5,64,13,0,14.816,,,310,11.2,20,,,,,,,,,wg-a,,,,AAXX 05184 07335 12/// /3108 10200 20130 30128 40270 53005 60006 91800 333 10200 20112=
07335,1997-07-06 00:00:00,12,1029.9,0.9,100,12,0,11.112,,,310,,,,,,,,,,,wg-a,,,,AAXX 06004 07335 12/// /3106 10120 20120 30153 40299 51009 60006 90000=
07335,1997-07-06 06:00:00,12,1030.5,0.6,100,12,4000,3.704,,,360,10.2,19.8,,,,,,,,10,wg-a,,,,AAXX 06064 07335 02/40 03602 10120 20120 30159 40305 52006 60006 71000 80000 90600 333 10198 20102 60004=
07335,1997-07-06 09:00:00,18,1030.5,0.3,73,13,15000,3.704,,,60,,,,,,,,,,,wg-a,,,,AAXX 06094 07335 12/65 /0602 10180 20130 30162 40305 51003 60006 80000 90900=
07335,1997-07-06 12:00:00,21,1029.9,-0.4,46,9,20000,11.112,,,50,,,,,,,,,,,wg-a,,,,AAXX 06124 07335 12670 30506 10210 20090 30158 40299 58004 60006 83200 91200=
07335,1997-07-06 18:00:00,23,1028.3,-0.5,47,11,0,11.112,,,40,11.8,23.4,,,,,,,,,wg-a,,,,AAXX 06184 07335 12/// /0406 10230 20110 30142 40283 56005 60006 91800 333 10234 20118=
07335,1997-07-07 00:00:00,13,1028.8,-0.4,94,12,0,0,,,0,,,,,,,,,,,wg-a,,,,AAXX 07004 07335 12/// /0000 10130 20120 30143 40288 58004 60006 90000=
07335,1997-07-07 06:00:00,14,1028.2,0.1,94,13,10000,7.408,,,350,10.6,22.7,,,,,,,,,wg-a,,,,AAXX 07064 07335 02/60 03504 10140 20130 30137 40282 50001 60006 80000 90600 333 10227 20106 60004=
07335,1997-07-07 09:00:00,20,1027.4,-0.4,68,14,12000,11.112,,,50,,,,,,,,,,,wg-a,,,,AAXX 07094 07335 12562 /0506 10200 20140 30133 40274 58004 60006 81100 90900=
07335,1997-07-07 12:00:00,24,1026.2,-1.1,47,12,25000,14.816,,,60,,,,,,,,,,,wg-a,,,,AAXX 07124 07335 12675 30608 10240 20120 30122 40262 56011 60006 83200 91200=
07335,1997-07-07 15:00:00,25,1024.8,-1.3,44,12,25000,18.52,,,60,,,,,,,,,,,wg-a,,,,AAXX 07154 07335 12775 30610 10250 20120 30109 40248 58013 60006 83801 91500=
07335,1997-07-07 18:00:00,24,1023.7,-1.1,50,13,0,18.52,,,50,13.9,25.5,,,,,,,,,wg-a,,,,AAXX 07184 07335 12/// /0510 10240 20130 30098 40237 56011 60006 91800 333 10255 20139=
07335,1997-07-08 00:00:00,14,1024,-0.1,88,12,0,3.704,,,360,,,,,,,,,,,wg-a,,,,AAXX 08004 07335 12/// /3602 10140 20120 30096 40240 57001 60006 90000=
07335,1997-07-08 06:00:00,16,1022.8,0.1,88,14,10000,14.816,,,30,11.7,24.3,,,,,,,,,wg-a,,,,AAXX 08064 07335 02/60 00308 10160 20140 30085 40228 53001 60006 80000 90600 333 10243 20117 60004=
07335,1997-07-08 09:00:00,22,1021.9,-0.6,60,14,25000,18.52,,,80,,,,,,,,,,,wg-a,,,,AAXX 08094 07335 12575 20810 10220 20140 30079 40219 58006 60006 82200 90900=
07335,1997-07-08 12:00:00,24,1020.5,-1.3,50,13,500,25.928,,,60,,,,,,,,,,,wg-a,,,,AAXX 08124 07335 12600 30614 10240 20130 30066 40205 58013 60006 83200 91200=
07335,1997-07-08 15:00:00,26,1018.7,-1.7,42,12,500,29.632,,,70,,,,,,,,,,,wg-a,,,,AAXX 08154 07335 12700 20716 10260 20120 30049 40187 57017 60006 82400 91500=
07335,1997-07-08 18:00:00,26,1017.5,-1.2,45,13,0,22.224,,,70,15.6,26.5,,,,,,,,,wg-a,,,,AAXX 08184 07335 12/// /0712 10260 20130 30037 40175 56012 60006 91800 333 10265 20156=
07335,1997-07-09 00:00:00,19,1017.7,-0.1,73,14,0,11.112,,,50,,,,,,,,,,,wg-a,,,,AAXX 09004 07335 12/// /0506 10190 20140 30036 40177 58001 60006 90000=
07335,1997-07-09 06:00:00,16,1016.4,-0.4,88,14,15000,14.816,,,50,13.3,25.5,,,,,,,,,wg-a,,,,AAXX 09064 07335 02/65 10508 10160 20140 30022 40164 56004 60006 80002 90600 333 10255 20133 60004=
07335,1997-07-09 15:00:00,27,1013.4,-0.9,42,13,25000,18.52,,,70,,,,,,,,,,,wg-a,,,,AAXX 09154 07335 12775 40710 10270 20130 39997 40134 56009 60006 83102 91500=
07335,1997-07-09 18:00:00,26,1012.7,-0.7,48,14,0,18.52,,,50,16.4,27.6,,,,,,,,,wg-a,,,,AAXX 09184 07335 12/// /0510 10260 20140 39990 40127 56007 60006 91800 333 10276 20164=
07335,1997-07-10 00:00:00,16,1013.7,-0.4,88,14,0,7.408,,,360,,,,,,,,,,,wg-a,,,,AAXX 10004 07335 12/// /3604 10160 20140 39995 40137 58004 60006 90000=
07335,1997-07-10 06:00:00,16,1012.8,-0.1,100,16,6000,7.408,,,10,13.2,26.4,,,,,,,,,wg-a,,,,AAXX 10064 07335 02556 20104 10160 20160 39987 40128 55001 60006 81202 90600 333 10264 20132 60004=
07335,1997-07-10 09:00:00,22,1012.7,0.1,73,17,9000,7.408,,,40,,,,,,,,,,,wg-a,,,,AAXX 10094 07335 12/59 /0404 10220 20170 39988 40127 50001 60006 80002 90900=
07335,1997-07-10 12:00:00,26,1012,-0.5,58,17,15000,11.112,,,20,,,,,,,,,,,wg-a,,,,AAXX 10124 07335 12665 50206 10260 20170 39983 40120 58005 60006 84202 91200=
07335,1997-07-10 15:00:00,26,1011.2,-0.7,54,16,15000,7.408,,,310,,,,,,,,,,,wg-a,,,,AAXX 10154 07335 12565 63104 10260 20160 39976 40112 56007 60006 85302 91500=
07335,1997-07-10 18:00:00,18,1012.6,1,88,16,0,11.112,,,300,15.8,27.4,,,,,,,,,wg-a,,,,AAXX 10184 07335 32/// /3006 10180 20160 39986 40126 50010 91800 333 10274 20158=
07335,1997-07-11 00:00:00,17,1013.9,-0.5,100,17,0,7.408,,,290,,,,,,,,,,,wg-a,,,,AAXX 11004 07335 12/// /2904 10170 20170 39998 40139 58005 60016 90000=
07335,1997-07-11 06:00:00,17,1015,1.1,100,17,4000,11.112,,,260,16.2,19.3,,,,,4,,,10,wg-a,,,,AAXX 11064 07335 02640 72606 10170 20170 30009 40150 52011 60006 71086 8298/ 90600 333 10193 20162 60044=
07335,1997-07-11 09:00:00,18,1016.2,1.2,100,18,2500,7.408,,,200,,,,4,,,,,,10,wg-a,,,,AAXX 11094 07335 12225 72004 10180 20180 30021 40162 52012 60047 71098 879// 90900=
07335,1997-07-11 12:00:00,23,1016.4,0.5,78,19,6000,18.52,,,240,,,,,,,,,,1,wg-a,,,,AAXX 11124 07335 12456 /2410 10230 20190 30026 40164 50005 60046 70198 8388/ 91200=
07335,1997-07-11 15:00:00,23,1016.3,-0.1,73,18,10000,25.928,,,270,,,,,,,,,,,wg-a,,,,AAXX 11154 07335 12560 32714 10230 20180 30025 40163 57001 60006 83200 91500=
07335,1997-07-11 18:00:00,21,1016.7,0.3,73,16,0,18.52,,,290,17.2,23.6,,,,,,,,,wg-a,,,,AAXX 11184 07335 32/// /2910 10210 20160 30028 40167 53003 91800 333 10236 20172=
07335,1997-07-12 00:00:00,13,1018.6,0.1,94,12,0,11.112,,,240,,,,,,,,,,,wg-a,,,,AAXX 12004 07335 12/// /2406 10130 20120 30042 40186 52001 60006 90000=
07335,1997-07-12 06:00:00,15,1018.5,0.4,94,14,12000,7.408,,,260,11.9,21.4,,,,,4,,,,wg-a,,,,AAXX 12064 07335 02462 72604 10150 20140 30042 40185 52004 60006 875// 90600 333 10214 20119 60044=
07335,1997-07-12 09:00:00,17,1018.6,0.2,77,13,15000,3.704,,,280,,,,,,,,,,,wg-a,,,,AAXX 12094 07335 12565 72802 10170 20130 30044 40186 50002 60006 875// 90900=
07335,1997-07-12 12:00:00,21,1017.8,-0.6,64,14,25000,7.408,,,240,,,,,,,,,,,wg-a,,,,AAXX 12124 07335 12575 /2404 10210 20140 30038 40178 58006 60006 85100 91200=
07335,1997-07-12 15:00:00,23,1016.6,-1.1,57,14,25000,7.408,,,230,,,,,,,,,,,wg-a,,,,AAXX 12154 07335 12675 /2304 10230 20140 30027 40166 56011 60006 85100 91500=
07335,1997-07-12 18:00:00,24,1015.6,-0.9,54,14,0,3.704,,,270,15.1,24.1,,,,,,,,,wg-a,,,,AAXX 12184 07335 12/// /2702 10240 20140 30018 40156 56009 60006 91800 333 10241 20151=
07335,1997-07-13 00:00:00,13,1017.3,0.1,100,13,0,0,,,0,,,,,,,,,,,wg-a,,,,AAXX 13004 07335 12/// /0000 10130 20130 30029 40173 52001 60006 90000=
07335,1997-07-13 06:00:00,14,1017.1,0.2,100,14,20000,3.704,,,10,11.5,24,,,,,,,,,wg-a,,,,AAXX 13064 07335 02/70 70102 10140 20140 30028 40171 50002 60006 80002 90600 333 10240 20115 60004=
07335,1997-07-13 12:00:00,26,1016.8,-0.4,51,15,20000,7.408,,,80,,,,,,,,,,,wg-a,,,,AAXX 13124 07335 12670 70804 10260 20150 30031 40168 55004 60006 81282 91200=
07335,1997-07-13 15:00:00,27,1016.2,-0.6,51,16,20000,11.112,,,360,,,,,,,,,,,wg-a,,,,AAXX 13154 07335 12670 73606 10270 20160 30025 40162 58006 60006 82202 91500=
07335,1997-07-13 18:00:00,25,1016.4,0.1,61,17,0,11.112,,,330,14.5,27.6,,,,,,,,,wg-a,,,,AAXX 13184 07335 12/// /3306 10250 20170 30026 40164 50001 60006 91800 333 10276 20145=
07335,1997-07-14 00:00:00,19,1018.9,0.5,83,16,0,3.704,,,340,,,,,,,,,,,wg-a,,,,AAXX 14004 07335 12/// /3402 10190 20160 30048 40189 50005 60006 90000=
07335,1997-07-14 06:00:00,17,1020.3,1.6,100,17,8000,3.704,,,330,16.9,24.5,,,,,,,,81,wg-a,,,,AAXX 14064 07335 02658 83302 10170 20170 30061 40203 51016 61000 78196 8499/ 90600 333 10245 20169 6003=
07335,1997-07-14 09:00:00,21,1020.7,0.6,83,18,12000,3.704,,,340,,,,,,,,,,1,wg-a,,,,AAXX 14094 07335 02462 43402 10210 20180 30067 40207 53006 61000 70196 81180 90900 333 ////=
07335,1997-07-14 12:00:00,25,1020.6,0.1,61,17,20000,11.112,,,310,,,,,,,,,,1,wg-a,,,,AAXX 14124 07335 02570 63106 10250 20170 30068 40206 50001 61000 70196 85880 91200 333 ////=
07335,1997-07-14 15:00:00,25,1020.5,-0.1,61,17,20000,11.112,,,330,,,,,,,,,,,wg-a,,,,AAXX 14154 07335 12670 63306 10250 20170 30067 40205 57001 60006 84282 91500=
07335,1997-07-14 18:00:00,24,1021,0.4,65,17,0,14.816,,,290,17,25.4,,,,,,,,,wg-a,,,,AAXX 14184 07335 32/// /2908 10240 20170 30071 40210 53004 91800 333 10254 20170=
07335,1997-07-15 00:00:00,15,1023.8,1,88,13,0,7.408,,,330,,,,,,,,,,,wg-a,,,,AAXX 15004 07335 12/// /3304 10150 20130 30094 40238 51010 60006 90000=
07335,1997-07-15 06:00:00,14,1024.5,0.4,88,12,25000,7.408,,,350,11.9,24.1,,,,,,,,,wg-a,,,,AAXX 15064 07335 02/75 13504 10140 20120 30101 40245 53004 60006 80001 90600 333 10241 20119 61000=
07335,1997-07-15 09:00:00,20,1025,0.8,68,14,500,7.408,,,30,,,,,,,,,,,wg-a,,,,AAXX 15094 07335 12500 20304 10200 20140 30109 40250 51008 60006 81101 90900=
07335,1997-07-15 12:00:00,24,1023.5,-1.3,54,14,500,7.408,,,20,,,,,,,,,,,wg-a,,,,AAXX 15124 07335 12600 /0204 10240 20140 30096 40235 58013 60006 81101 91200=
07335,1997-07-15 15:00:00,26,1022.2,-1.2,45,13,10000,11.112,,,20,,,,,,,,,,,wg-a,,,,AAXX 15154 07335 12/60 /0206 10260 20130 30084 40222 57012 60006 91500=
07335,1997-07-15 18:00:00,26,1020.7,-1.5,39,11,0,14.816,,,50,14,26.4,,,,,,,,,wg-a,,,,AAXX 15184 07335 12/// /0508 10260 20110 30069 40207 56015 60006 91800 333 10264 20140=
07335,1997-07-16 00:00:00,15,1021,-0.6,82,12,0,3.704,,,350,,,,,,,,,,,wg-a,,,,AAXX 16004 07335 12/// /3502 10150 20120 30067 40210 58006 60006 90000=
07335,1997-07-16 06:00:00,16,1019.2,-0.5,94,15,500,11.112,,,10,13.5,26.2,,,,,,,,,wg-a,,,,AAXX 16064 07335 02/00 30106 10160 20150 30050 40192 58005 60006 80001 90600 333 10262 20135 60004=
07335,1997-07-16 12:00:00,26,1016.8,-1.6,51,15,500,14.816,,,60,,,,,,,,,,,wg-a,,,,AAXX 16124 07335 12/00 40608 10260 20150 30031 40168 56016 60006 80001 91200=
07335,1997-07-16 15:00:00,29,1014.9,-1.8,40,14,500,18.52,,,60,,,,,,,,,,,wg-a,,,,AAXX 16154 07335 12700 40610 10290 20140 30013 40149 58018 60006 81181 91500=
07335,1997-07-16 18:00:00,27,1013.6,-1.3,54,17,0,25.928,,,30,16.2,29.3,,,,,,,,,wg-a,,,,AAXX 16184 07335 12/// /0314 10270 20170 30000 40136 58013 60006 91800 333 10293 20162=
07335,1997-07-17 00:00:00,19,1015.8,0.2,78,15,0,22.224,,,10,,,,,,,,,,,wg-a,,,,AAXX 17004 07335 12/// /0112 10190 20150 30017 40158 50002 60006 90000=
07335,1997-07-17 06:00:00,14,1016,1.2,94,13,15000,18.52,,,360,14,27.2,,,,,,,,25,wg-a,,,,AAXX 17064 07335 02765 73610 10140 20130 30017 40160 51012 61000 72586 85582 90600 333 10272 20140 6000=
07335,1997-07-17 09:00:00,19,1015.3,-0.4,73,14,20000,18.52,,,20,,,,,,,,,,,wg-a,,,,AAXX 17094 07335 12/70 30210 10190 20140 30013 40153 56004 60006 81082 90900=
07335,1997-07-17 12:00:00,23,1014.9,-0.3,57,14,25000,18.52,,,360,,,,,,,,,,,wg-a,,,,AAXX 17124 07335 12/75 23610 10230 20140 30010 40149 58003 60006 80002 91200=
07335,1997-07-17 15:00:00,25,1014.2,-0.5,54,15,25000,22.224,,,330,,,,,,,,,,,wg-a,,,,AAXX 17154 07335 12675 /3312 10250 20150 30005 40142 58005 60006 81102 91500=
07335,1997-07-17 18:00:00,22,1014.9,0.5,65,15,0,25.928,,,340,14.2,25.1,,,,,,,,,wg-a,,,,AAXX 17184 07335 12/// /3414 10220 20150 30010 40149 53005 60006 91800 333 10251 20142=
07335,1997-07-18 00:00:00,15,1017.1,0.5,88,13,0,11.112,,,300,,,,,,,,,,,wg-a,,,,AAXX 18004 07335 12/// /3006 10150 20130 30029 40171 51005 60006 90000=
07335,1997-07-18 06:00:00,14,1018.6,1.4,94,13,20000,14.816,,,330,12.5,21.8,,,,,,,,,wg-a,,,,AAXX 18064 07335 02770 13308 10140 20130 30043 40186 51014 60006 81500 90600 333 10218 20125 60004=
07335,1997-07-18 09:00:00,17,1019,0.5,82,14,25000,11.112,,,350,,,,,,,,,,,wg-a,,,,AAXX 18094 07335 12475 73506 10170 20140 30048 40190 53005 60006 878// 90900=
07335,1997-07-18 12:00:00,21,1019.1,0.3,53,11,25000,18.52,,,10,,,,,,,,,,,wg-a,,,,AAXX 18124 07335 12675 /0110 10210 20110 30051 40191 51003 60006 85800 91200=
07335,1997-07-18 15:00:00,22,1019.1,-0,50,11,500,18.52,,,360,,,,,,,,,,,wg-a,,,,AAXX 18154 07335 12600 53610 10220 20110 30051 40191 55000 60006 85800 91500=
07335,1997-07-18 18:00:00,21,1019.7,0.6,49,10,0,18.52,,,10,13.9,23,,,,,,,,,wg-a,,,,AAXX 18184 07335 12/// /0110 10210 20100 30057 40197 53006 60006 91800 333 10230 20139=
07335,1997-07-19 00:00:00,12,1022.7,0.6,88,10,0,11.112,,,320,,,,,,,,,,,wg-a,,,,AAXX 19004 07335 12/// /3206 10120 20100 30082 40227 50006 60006 90000=
07335,1997-07-19 06:00:00,14,1023.8,1.1,88,12,15000,11.112,,,320,11.4,21.4,,,,,,,,,wg-a,,,,AAXX 19064 07335 02665 73206 10140 20120 30094 40238 53011 60006 8357/ 90600 333 10214 20114 60004=
07335,1997-07-19 09:00:00,18,1024.5,0.9,77,14,20000,14.816,,,10,,,,,,,,,,,wg-a,,,,AAXX 19094 07335 12470 /0108 10180 20140 30103 40245 51009 60006 86800 90900=
07335,1997-07-19 12:00:00,21,1024.1,-0.2,64,14,20000,14.816,,,30,,,,,,,,,,,wg-a,,,,AAXX 19124 07335 12670 60308 10210 20140 30101 40241 58002 60006 84230 91200=
07335,1997-07-19 15:00:00,23,1023.9,-0.2,57,14,20000,11.112,,,20,,,,,,,,,,,wg-a,,,,AAXX 19154 07335 12670 60206 10230 20140 30099 40239 56002 60006 85830 91500=
07335,1997-07-20 00:00:00,13,1024.9,-0.2,94,12,0,3.704,,,330,,,,,,,,,,,wg-a,,,,AAXX 20004 07335 12/// /3302 10130 20120 30104 40249 58002 60006 90000=
07335,1997-07-20 06:00:00,13,1024.5,0.3,94,12,12000,11.112,,,350,10.9,23.4,,,,,,,,,wg-a,,,,AAXX 20064 07335 02/62 53506 10130 20120 30100 40245 53003 60006 80002 90600 333 10234 20109 60004=
07335,1997-07-20 09:00:00,20,1023.9,-0.2,68,14,15000,11.112,,,50,,,,,,,,,,,wg-a,,,,AAXX 20094 07335 12/65 20506 10200 20140 30098 40239 58002 60006 80002 90900=
07335,1997-07-20 12:00:00,23,1022.8,-1,50,12,20000,11.112,,,50,,,,,,,,,,,wg-a,,,,AAXX 20124 07335 12670 50506 10230 20120 30088 40228 58010 60006 84202 91200=
07335,1997-07-20 15:00:00,24,1021.5,-1.2,38,9,20000,18.52,,,50,,,,,,,,,,,wg-a,,,,AAXX 20154 07335 12770 60510 10240 20090 30076 40215 56012 60006 81202 91500=
07335,1997-07-20 18:00:00,24,1020.7,-0.8,38,9,0,14.816,,,70,13.1,24.9,,,,,,,,,wg-a,,,,AAXX 20184 07335 12/// /0708 10240 20090 30068 40207 56008 60006 91800 333 10249 20131=
07335,1997-07-21 00:00:00,12,1021.5,-0.3,82,9,0,3.704,,,320,,,,,,,,,,,wg-a,,,,AAXX 21004 07335 12/// /3202 10120 20090 30070 40215 58003 60006 90000=
07335,1997-07-21 06:00:00,14,1021.2,0.2,88,12,20000,7.408,,,30,10.1,23.9,,,,,,,,,wg-a,,,,AAXX 21064 07335 02/70 70304 10140 20120 30068 40212 51002 60006 80002 90600 333 10239 20101 60004=
07335,1997-07-21 12:00:00,23,1019.6,-1.1,47,11,500,14.816,,,80,,,,,,,,,,,wg-a,,,,AAXX 21124 07335 12600 30808 10230 20110 30057 40196 57011 60006 82201 91200=
07335,1997-07-21 15:00:00,25,1018.3,-1.2,39,10,500,18.52,,,80,,,,,,,,,,,wg-a,,,,AAXX 21154 07335 12700 50810 10250 20100 30045 40183 56012 60006 81201 91500=
07335,1997-07-22 00:00:00,17,1018.1,-0.2,68,11,0,11.112,,,50,,,,,,,,,,,wg-a,,,,AAXX 22004 07335 12/// /0506 10170 20110 30039 40181 58002 60006 90000=
07335,1997-07-22 09:00:00,23,1017.2,-0.1,57,14,500,18.52,,,90,,,,,,,,,,,wg-a,,,,AAXX 22094 07335 12/00 50910 10230 20140 30033 40172 58001 60006 80002 90900=
07335,1997-07-22 12:00:00,26,1016.4,-0.6,42,12,500,22.224,,,80,,,,,,,,,,,wg-a,,,,AAXX 22124 07335 12700 60812 10260 20120 30027 40164 56006 60006 81132 91200=
07335,1997-07-22 15:00:00,26,1016,-0.4,39,11,500,14.816,,,80,,,,,,,,,,,wg-a,,,,AAXX 22154 07335 12700 60808 10260 20110 30023 40160 55004 60006 81132 91500=
07335,1997-07-22 18:00:00,26,1015.6,-0.4,42,12,0,11.112,,,90,16.6,27.1,,,,,,,,,wg-a,,,,AAXX 22184 07335 12/// /0906 10260 20120 30019 40156 55004 60006 91800 333 10271 20166=
07335,1997-07-23 06:00:00,17,1016.9,0.6,88,15,15000,3.704,,,320,15.7,25.9,,,,,,,,,wg-a,,,,AAXX 23064 07335 02/65 73202 10170 20150 30028 40169 51006 60006 85082 90600 333 10259 20157 60004=
07335,1997-07-23 09:00:00,24,1017,0.4,61,16,20000,7.408,,,10,,,,,,,,,,,wg-a,,,,AAXX 23094 07335 12/70 50104 10240 20160 30032 40170 52004 60006 84082 90900=
07335,1997-07-23 12:00:00,27,1017.2,0.3,48,15,25000,7.408,,,150,,,,,,,,,,,wg-a,,,,AAXX 23124 07335 12675 31504 10270 20150 30035 40172 50003 60006 81182 91200=
07335,1997-07-23 18:00:00,29,1015.6,-0.6,43,15,0,0,,,0,17,29.5,,,,,,,,,wg-a,,,,AAXX 23184 07335 12/// /0000 10290 20150 30020 40156 55006 60006 91800 333 10295 20170=
07335,1997-07-24 00:00:00,18,1016.9,0.1,94,17,0,3.704,,,270,,,,,,,,,,,wg-a,,,,AAXX 24004 07335 12/// /2702 10180 20170 30028 40169 51001 60006 90000=
07335,1997-07-24 06:00:00,17,1016.8,0.9,94,16,12000,7.408,,,320,15.2,28.9,,,,,,,,,wg-a,,,,AAXX 24064 07335 02/62 43204 10170 20160 30027 40168 53009 60006 82082 90600 333 10289 20152 60004=
07335,1997-07-24 09:00:00,22,1017.3,0.7,73,17,12000,14.816,,,320,,,,,,,,,,,wg-a,,,,AAXX 24094 07335 12/62 73208 10220 20170 30034 40173 51007 60006 82082 90900=
07335,1997-07-24 12:00:00,27,1016.8,-0.3,45,14,20000,11.112,,,310,,,,,,,,,,,wg-a,,,,AAXX 24124 07335 12670 /3106 10270 20140 30031 40168 58003 60006 83202 91200=
07335,1997-07-24 15:00:00,27,1016.5,-0.3,42,13,20000,25.928,,,270,,,,,,,,,,,wg-a,,,,AAXX 24154 07335 12770 42714 10270 20130 30028 40165 58003 60006 81202 91500=
07335,1997-07-24 18:00:00,23,1017.1,0.4,41,9,0,22.224,,,270,16.9,28.1,,,,,,,,,wg-a,,,,AAXX 24184 07335 12/// /2712 10230 20090 30032 40171 53004 60006 91800 333 10281 20169=
07335,1997-07-25 00:00:00,17,1018.8,0.2,94,16,0,18.52,,,290,,,,,,,,,,,wg-a,,,,AAXX 25004 07335 12/// /2910 10170 20160 30046 40188 53002 60006 90000=
07335,1997-07-25 09:00:00,18,1020.2,0.9,77,14,20000,14.816,,,280,,,,,,,,,,,wg-a,,,,AAXX 25094 07335 12570 82808 10180 20140 30060 40202 51009 60006 8227/ 90900=
07335,1997-07-25 12:00:00,20,1019.1,-1,68,14,25000,22.224,,,240,,,,,,,,,,,wg-a,,,,AAXX 25124 07335 12575 82412 10200 20140 30050 40191 58010 60006 875// 91200=
07335,1997-07-25 15:00:00,19,1017.9,-1.1,94,18,6000,25.928,,,240,,,,,,,,,,51,wg-a,,,,AAXX 25154 07335 02356 82414 10190 20180 30039 40179 57011 61000 75152 875// 91500 333 ////=
07335,1997-07-25 18:00:00,20,1018,0.1,88,18,0,22.224,,,260,15.6,20.2,,,,,,,,,wg-a,,,,AAXX 25184 07335 32/// /2612 10200 20180 30040 40180 53001 91800 333 10202 20156=
07335,1997-07-26 00:00:00,17,1020,0.6,100,17,0,18.52,,,260,,,,,,,,,,,wg-a,,,,AAXX 26004 07335 12/// /2610 10170 20170 30058 40200 51006 60006 90000=
07335,1997-07-26 06:00:00,17,1021.5,0.9,94,16,25000,7.408,,,260,15.1,19.7,,,,,,,,,wg-a,,,,AAXX 26064 07335 02375 82604 10170 20160 30073 40215 53009 60006 875// 90600 333 10197 20151 60004=
07335,1997-07-26 12:00:00,24,1021.9,-0.1,61,16,500,14.816,,,240,,,,,,,,,,,wg-a,,,,AAXX 26124 07335 12500 42408 10240 20160 30080 40219 58001 60006 84100 91200=
07335,1997-07-26 15:00:00,24,1020.9,-0.9,65,17,25000,11.112,,,280,,,,,,,,,,,wg-a,,,,AAXX 26154 07335 12575 72806 10240 20170 30071 40209 57009 60006 878// 91500=
07335,1997-07-26 18:00:00,23,1020.9,-0.1,69,17,0,18.52,,,270,16.9,24.8,,,,,,,,,wg-a,,,,AAXX 26184 07335 12/// /2710 10230 20170 30070 40209 55001 60006 91800 333 10248 20169=
07335,1997-07-27 00:00:00,17,1021.9,0,100,17,0,11.112,,,240,,,,,,,,,,,wg-a,,,,AAXX 27004 07335 12/// /2406 10170 20170 30077 40219 50000 60006 90000=
07335,1997-07-27 09:00:00,20,1022.5,0.6,88,18,11000,11.112,,,260,,,,,,,,,,,wg-a,,,,AAXX 27094 07335 12/61 /2606 10200 20180 30085 40225 51006 60006 90900=
07335,1997-07-27 12:00:00,24,1022.4,0,69,18,500,18.52,,,280,,,,,,,,,,,wg-a,,,,AAXX 27124 07335 12400 72810 10240 20180 30085 40224 50000 60006 875// 91200=
07335,1997-07-27 15:00:00,24,1021.8,-0.5,69,18,500,14.816,,,260,,,,,,,,,,,wg-a,,,,AAXX 27154 07335 12500 72608 10240 20180 30080 40218 58005 60006 84832 91500=
07335,1997-07-27 18:00:00,23,1021.4,-0.5,78,19,0,11.112,,,360,17.5,25.3,,,,,,,,,wg-a,,,,AAXX 27184 07335 12/// /3606 10230 20190 30075 40214 56005 60006 91800 333 10253 20175=
07335,1997-07-28 00:00:00,16,1022.8,0,94,15,0,0,,,0,,,,,,,,,,,wg-a,,,,AAXX 28004 07335 12/// /0000 10160 20150 30085 40228 50000 60006 90000=
07335,1997-07-28 09:00:00,24,1022.2,0.1,57,15,500,7.408,,,70,,,,,,,,,,,wg-a,,,,AAXX 28094 07335 12/00 20704 10240 20150 30083 40222 50001 60006 81031 90900=
07335,1997-07-28 12:00:00,26,1021.6,-0.5,48,14,500,11.112,,,30,,,,,,,,,,,wg-a,,,,AAXX 28124 07335 12700 50306 10260 20140 30078 40216 58005 60006 85800 91200=
07335,1997-07-28 15:00:00,27,1020.3,-1.2,42,13,500,14.816,,,340,,,,,,,,,,,wg-a,,,,AAXX 28154 07335 12700 33408 10270 20130 30066 40203 57012 60006 82202 91500=
07335,1997-07-28 18:00:00,27,1019.4,-0.9,42,13,0,11.112,,,340,16.3,28.3,,,,,,,,,wg-a,,,,AAXX 28184 07335 12/// /3406 10270 20130 30057 40194 56009 60006 91800 333 10283 20163=
07335,1997-07-29 00:00:00,16,1021.1,0,77,12,0,0,,,0,,,,,,,,,,,wg-a,,,,AAXX 29004 07335 12/// /0000 10160 20120 30068 40211 50000 60006 90000=
07335,1997-07-29 06:00:00,14,1021.2,0.6,94,13,500,3.704,,,360,12.4,27.4,,,,,,,,,wg-a,,,,AAXX 29064 07335 02/00 63602 10140 20130 30068 40212 51006 60006 81032 90600 333 10274 20124 60004=
07335,1997-07-29 09:00:00,25,1021,0.4,50,14,500,3.704,,,120,,,,,,,,,,,wg-a,,,,AAXX 29094 07335 12/00 51202 10250 20140 30072 40210 52004 60006 80001 90900=
07335,1997-07-29 12:00:00,29,1020,-0.9,37,13,500,3.704,,,10,,,,,,,,,,,wg-a,,,,AAXX 29124 07335 12700 30102 10290 20130 30063 40200 58009 60006 81101 91200=
07335,1997-07-29 15:00:00,30,1019,-0.9,35,13,500,11.112,,,350,,,,,,,,,,,wg-a,,,,AAXX 29154 07335 12800 53506 10300 20130 30054 40190 56009 60006 81101 91500=
07335,1997-07-29 18:00:00,30,1018.3,-0.7,38,14,0,7.408,,,260,14.3,30.5,,,,,,,,,wg-a,,,,AAXX 29184 07335 12/// /2604 10300 20140 30047 40183 56007 60006 91800 333 10305 20143=
07335,1997-07-30 00:00:00,18,1019.7,0.1,88,16,0,3.704,,,330,,,,,,,,,,,wg-a,,,,AAXX 30004 07335 12/// /3302 10180 20160 30056 40197 50001 60006 90000=
07335,1997-07-30 06:00:00,17,1019.9,0.8,94,16,25000,7.408,,,270,15.5,29.6,,,,,,,,,wg-a,,,,AAXX 30064 07335 02775 42704 10170 20160 30057 40199 53008 60006 81581 90600 333 10296 20155 60004=
07335,1997-07-30 09:00:00,25,1020,0.4,41,11,500,11.112,,,280,,,,,,,,,,,wg-a,,,,AAXX 30094 07335 12700 32806 10250 20110 30061 40200 53004 60006 815/2 90900=
07335,1997-07-30 12:00:00,28,1019.7,-0.1,37,12,500,14.816,,,350,,,,,,,,,,,wg-a,,,,AAXX 30124 07335 12700 33508 10280 20120 30060 40197 58001 60006 81232 91200=
07335,1997-07-30 15:00:00,29,1019,-0.6,40,14,500,14.816,,,280,,,,,,,,,,,wg-a,,,,AAXX 30154 07335 12700 72808 10290 20140 30054 40190 58006 60006 81232 91500=
07335,1997-07-31 00:00:00,18,1021.6,0.6,64,11,0,11.112,,,350,,,,,,,,,,,wg-a,,,,AAXX 31004 07335 12/// /3506 10180 20110 30074 40216 51006 60006 90000=
07335,1997-07-31 06:00:00,12,1022.8,0.7,94,11,25000,3.704,,,350,11.4,26.9,,,,,,,,,wg-a,,,,AAXX 31064 07335 02675 73502 10120 20110 30083 40228 52007 60006 83532 90600 333 10269 20114 60004=
07335,1997-07-31 09:00:00,19,1022.7,0.2,60,11,25000,3.704,,,30,,,,,,,,,,,wg-a,,,,AAXX 31094 07335 12575 70302 10190 20110 30085 40227 53002 60006 81132 90900=
07335,1997-07-31 12:00:00,22,1021.6,-0.9,46,10,25000,14.816,,,340,,,,,,,,,,,wg-a,,,,AAXX 31124 07335 12675 73408 10220 20100 30076 40216 58009 60006 81532 91200=
07335,1997-07-31 15:00:00,24,1020.7,-0.8,41,10,25000,14.816,,,320,,,,,,,,,,,wg-a,,,,AAXX 31154 07335 12/75 73208 10240 20100 30068 40207 56008 60006 80002 91500=
07335,1997-08-01 00:00:00,14,1019.9,-0.6,88,12,0,11.112,,,320,,,,,,,,,,,wg-a,,,,AAXX 01004 07335 12/// /3206 10140 20120 30055 40199 58006 60006 90000=
07335,1997-08-01 06:00:00,12,1019.5,0.2,100,12,20000,0,,,0,10.4,22.6,,,,,,,,,wg-a,,,,AAXX 01064 07335 02/70 00000 10120 20120 30051 40195 53002 60006 80000 90600 333 10226 20104 60004=
07335,1997-08-01 09:00:00,19,1019.3,0.1,64,12,25000,7.408,,,350,,,,,,,,,,,wg-a,,,,AAXX 01094 07335 12575 /3504 10190 20120 30052 40193 50001 60006 81100 90900=
07335,1997-08-01 12:00:00,23,1018,-1.1,50,12,500,14.816,,,320,,,,,,,,,,,wg-a,,,,AAXX 01124 07335 12600 /3208 10230 20120 30041 40180 58011 60006 81101 91200=
07335,1997-08-01 15:00:00,26,1017.1,-0.8,37,10,500,14.816,,,320,,,,,,,,,,,wg-a,,,,AAXX 01154 07335 12/00 13208 10260 20100 30033 40171 56008 60006 80001 91500=
07335,1997-08-01 18:00:00,25,1016.8,-0.3,39,10,0,14.816,,,350,12.4,26.1,,,,,,,,,wg-a,,,,AAXX 01184 07335 12/// /3508 10250 20100 30030 40168 55003 60006 91800 333 10261 20124=
07335,1997-08-02 00:00:00,16,1018.6,0.2,77,12,0,7.408,,,320,,,,,,,,,,,wg-a,,,,AAXX 02004 07335 12/// /3204 10160 20120 30043 40186 50002 60006 90000=
07335,1997-08-02 09:00:00,23,1018.4,0,65,16,500,7.408,,,50,,,,,,,,,,,wg-a,,,,AAXX 02094 07335 12/00 10504 10230 20160 30045 40184 50000 60006 81031 90900=
07335,1997-08-02 12:00:00,27,1017.4,-0.8,54,17,500,11.112,,,30,,,,,,,,,,,wg-a,,,,AAXX 02124 07335 12600 /0306 10270 20170 30037 40174 58008 60006 85201 91200=
07335,1997-08-02 15:00:00,27,1016.8,-0.6,58,18,500,11.112,,,20,,,,,,,,,,,wg-a,,,,AAXX 02154 07335 12600 70206 10270 20180 30031 40168 57006 60006 878// 91500=
07335,1997-08-03 00:00:00,20,1016.9,-0.1,94,19,0,7.408,,,350,,,,,,,,,,,wg-a,,,,AAXX 03004 07335 12/// /3504 10200 20190 30029 40169 58001 60006 90000=
07335,1997-08-03 06:00:00,18,1015.9,-0.2,100,18,15000,3.704,,,350,16.3,27.2,,,,,,,,,wg-a,,,,AAXX 03064 07335 02/65 23502 10180 20180 30018 40159 55002 60006 80002 90600 333 10272 20163 60004=
07335,1997-08-03 09:00:00,27,1015.3,-0.1,66,20,20000,7.408,,,70,,,,,,,,,,,wg-a,,,,AAXX 03094 07335 12570 20704 10270 20200 30017 40153 58001 60006 81102 90900=
07335,1997-08-03 12:00:00,30,1014.3,-0.9,46,17,500,7.408,,,100,,,,,,,,,,,wg-a,,,,AAXX 03124 07335 12600 51004 10300 20170 30008 40143 58009 60006 84232 91200=
07335,1997-08-03 18:00:00,31,1012.7,-0.6,38,15,0,7.408,,,190,17.8,32.8,,,,,,,,,wg-a,,,,AAXX 03184 07335 12/// /1904 10310 20150 39992 40127 56006 60006 91800 333 10328 20178=
07335,1997-08-04 00:00:00,21,1013.7,0.3,78,17,0,14.816,,,320,,,,,,,,,,,wg-a,,,,AAXX 04004 07335 12/// /3208 10210 20170 39998 40137 50003 60006 90000=
07335,1997-08-04 09:00:00,25,1015.1,1.8,69,19,20000,22.224,,,230,,,,,,,,,,,wg-a,,,,AAXX 04094 07335 12870 72312 10250 20190 30014 40151 53018 60006 85063 90900=
07335,1997-08-04 12:00:00,27,1014.4,-0.6,62,19,20000,3.704,,,80,,,,,,,,,,1,wg-a,,,,AAXX 04124 07335 02670 50802 10270 20190 30008 40144 55006 61000 70196 81283 91200 333 6100=
07335,1997-08-04 15:00:00,31,1013.7,-0.5,49,19,20000,11.112,,,180,,,,,,,,,,,wg-a,,,,AAXX 04154 07335 12670 41806 10310 20190 30003 40137 58005 60006 81283 91500=
07335,1997-08-04 18:00:00,27,1013.1,-0.8,70,21,0,7.408,,,300,18.3,31,,,,,,,,,wg-a,,,,AAXX 04184 07335 32/// /3004 10270 20210 39995 40131 58008 91800 333 10310 20183=
07335,1997-08-05 00:00:00,20,1015.8,0.3,88,18,0,14.816,,,290,,,,,,,,,,,wg-a,,,,AAXX 05004 07335 12/// /2908 10200 20180 30018 40158 50003 60006 90000=
07335,1997-08-05 06:00:00,19,1014.9,0.3,94,18,15000,7.408,,,260,18.3,26.7,,,,,,,,60,wg-a,,,,AAXX 05064 07335 02665 72604 10190 20180 30009 40149 50003 61000 76062 87573 90600 333 10267 20183 6100=
07335,1997-08-05 09:00:00,20,1015.9,1,88,18,15000,7.408,,,240,,,,0,,,,,,60,wg-a,,,,AAXX 05094 07335 12265 72404 10200 20180 30019 40159 51010 60007 76062 8357/ 90900=
07335,1997-08-05 12:00:00,22,1014.9,-0.8,88,20,10000,11.112,,,290,,,,1,,,,,,21,wg-a,,,,AAXX 05124 07335 02360 82906 10220 20200 30011 40149 56008 60016 72162 8227/ 91200 333 60017=
07335,1997-08-05 15:00:00,21,1014.8,-0.2,94,20,9000,7.408,,,220,,,,2,,,,,,61,wg-a,,,,AAXX 05154 07335 12559 82204 10210 20200 30009 40148 58002 60027 76162 8487/ 91500=
07335,1997-08-05 18:00:00,20,1014,-0.8,100,20,0,7.408,,,310,18.8,23.1,,,,,,,,,wg-a,,,,AAXX 05184 07335 32/// /3104 10200 20200 30001 40140 56008 91800 333 10231 20188=
07335,1997-08-06 06:00:00,18,1013.7,-0.2,100,18,2500,3.704,,,210,17.1,19.9,,,,,4,,,10,wg-a,,,,AAXX 06064 07335 02425 72102 10180 20180 39997 40137 55002 60006 71042 875// 90600 333 10199 20171 60044=
07335,1997-08-06 09:00:00,20,1014.5,0.8,88,18,8000,11.112,,,260,,,,,,,,,,,wg-a,,,,AAXX 06094 07335 12358 72606 10200 20180 30005 40145 51008 60006 878// 90900=
07335,1997-08-06 12:00:00,22,1014.2,-0.2,78,18,15000,7.408,,,40,,,,,,,,,,,wg-a,,,,AAXX 06124 07335 12465 70404 10220 20180 30003 40142 58002 60006 878// 91200=
07335,1997-08-06 15:00:00,25,1012.6,-1.4,65,18,20000,3.704,,,20,,,,,,,,,,,wg-a,,,,AAXX 06154 07335 12570 60202 10250 20180 39989 40126 58014 60006 84230 91500=
07335,1997-08-06 18:00:00,25,1012.1,-0.5,61,17,0,11.112,,,30,18,25.3,,,,,,,,,wg-a,,,,AAXX 06184 07335 12/// /0306 10250 20170 39984 40121 56005 60006 91800 333 10253 20180=
07335,1997-08-07 00:00:00,20,1013.1,-0,83,17,0,3.704,,,80,,,,,,,,,,,wg-a,,,,AAXX 07004 07335 12/// /0802 10200 20170 39992 40131 54000 60006 90000=
07335,1997-08-07 06:00:00,19,1012.8,0,100,19,8000,3.704,,,90,18.2,24.5,,,,,,,,60,wg-a,,,,AAXX 07064 07335 02658 80902 10190 20190 39988 40128 50000 61000 76062 8457/ 90600 333 10245 20182 6004=
07335,1997-08-07 09:00:00,21,1012.4,-0.3,94,20,20000,7.408,,,90,,,,,,,,,,1,wg-a,,,,AAXX 07094 07335 02670 70904 10210 20200 39985 40124 55003 61000 70162 81573 90900 333 ////=
07335,1997-08-07 12:00:00,25,1012.3,0.1,65,18,25000,14.816,,,120,,,,,,,,,,1,wg-a,,,,AAXX 07124 07335 02575 41208 10250 20180 39986 40123 50001 61000 70161 81232 91200 333 ////=
07335,1997-08-07 15:00:00,28,1011.5,-0.7,51,17,25000,7.408,,,150,,,,,,,,,,,wg-a,,,,AAXX 07154 07335 12675 21504 10280 20170 39979 40115 58007 60006 81102 91500=
07335,1997-08-07 18:00:00,27,1011.7,0.2,54,17,0,14.816,,,80,18.8,28.1,,,,,,,,,wg-a,,,,AAXX 07184 07335 32/// /0808 10270 20170 39981 40117 53002 91800 333 10281 20188=
07335,1997-08-08 00:00:00,19,1014.5,0.5,88,17,0,3.704,,,10,,,,,,,,,,,wg-a,,,,AAXX 08004 07335 12/// /0102 10190 20170 30005 40145 51005 60006 90000=
07335,1997-08-08 06:00:00,17,1016.2,1.4,100,17,9000,3.704,,,350,15.4,27.2,,,,,,,,,wg-a,,,,AAXX 08064 07335 02/59 /3502 10170 20170 30021 40162 53014 60006 80001 90600 333 10272 20154 61000=
07335,1997-08-08 09:00:00,25,1016.8,1,69,19,25000,7.408,,,100,,,,,,,,,,,wg-a,,,,AAXX 08094 07335 12/75 11004 10250 20190 30031 40168 51010 60006 80001 90900=
07335,1997-08-08 12:00:00,30,1016.2,-0.4,46,17,500,11.112,,,100,,,,,,,,,,,wg-a,,,,AAXX 08124 07335 12700 11006 10300 20170 30027 40162 58004 60006 81201 91200=
07335,1997-08-08 15:00:00,31,1015.4,-0.8,46,18,500,7.408,,,70,,,,,,,,,,,wg-a,,,,AAXX 08154 07335 12700 20704 10310 20180 30019 40154 56008 60006 82200 91500=
07335,1997-08-08 18:00:00,30,1015.9,0.5,49,18,0,14.816,,,70,17,31.1,,,,,,,,,wg-a,,,,AAXX 08184 07335 12/// /0708 10300 20180 30024 40159 53005 60006 91800 333 10311 20170=
07335,1997-08-09 00:00:00,20,1017.8,0.6,83,17,0,3.704,,,40,,,,,,,,,,,wg-a,,,,AAXX 09004 07335 12/// /0402 10200 20170 30038 40178 51006 60006 90000=
07335,1997-08-09 06:00:00,19,1018.1,0.3,94,18,20000,7.408,,,30,18,29.6,,,,,,,,,wg-a,,,,AAXX 09064 07335 02/70 40304 10190 20180 30041 40181 50003 60006 81031 90600 333 10296 20180 60004=
07335,1997-08-09 09:00:00,27,1018.4,0.6,58,18,25000,18.52,,,80,,,,,,,,,,,wg-a,,,,AAXX 09094 07335 12/75 40810 10270 20180 30047 40184 51006 60006 81031 90900=
07335,1997-08-09 12:00:00,30,1017.1,-1.1,52,19,25000,18.52,,,90,,,,,,,,,,,wg-a,,,,AAXX 09124 07335 12775 50910 10300 20190 30036 40171 56011 60006 81131 91200=
07335,1997-08-09 15:00:00,31,1016,-1.1,40,16,25000,18.52,,,80,,,,,,,,,,,wg-a,,,,AAXX 09154 07335 12775 50810 10310 20160 30025 40160 58011 60006 81131 91500=
07335,1997-08-09 18:00:00,30,1015.3,-0.7,43,16,0,14.816,,,70,19.3,31.7,,,,,,,,,wg-a,,,,AAXX 09184 07335 12/// /0708 10300 20160 30018 40153 56007 60006 91800 333 10317 20193=
07335,1997-08-10 00:00:00,24,1015.6,-0.3,65,17,0,7.408,,,80,,,,,,,,,,,wg-a,,,,AAXX 10004 07335 12/// /0804 10240 20170 30018 40156 58003 60006 90000=
07335,1997-08-10 06:00:00,20,1013.8,-0.5,83,17,15000,7.408,,,60,18.4,30.4,,,,,,,,,wg-a,,,,AAXX 10064 07335 02/65 20604 10200 20170 39999 40138 56005 60006 81032 90600 333 10304 20184 60004=
07335,1997-08-10 09:00:00,28,1012.8,-0.7,58,19,20000,14.816,,,120,,,,,,,,,,,wg-a,,,,AAXX 10094 07335 12/70 31208 10280 20190 39992 40128 58007 60006 81082 90900=
07335,1997-08-10 18:00:00,28,1010.1,-0.2,51,17,0,14.816,,,270,20.4,34.5,,,,,,,,,wg-a,,,,AAXX 10184 07335 12/// /2708 10280 20170 39966 40101 56002 60006 91800 333 10345 20204=
07335,1997-08-11 00:00:00,22,1011.7,-2,88,20,0,14.816,,,80,,,,,,,,,,,wg-a,,,,AAXX 11004 07335 12/// /0808 10220 20200 39979 40117 58020 60006 90000=
07335,1997-08-11 12:00:00,27,1014.9,0.4,62,19,20000,22.224,,,340,,,,,,,,,,,wg-a,,,,AAXX 11124 07335 12570 73412 10270 20190 30013 40149 53004 60006 8428/ 91200=
07335,1997-08-11 18:00:00,26,1017.3,1.2,61,18,0,14.816,,,340,19.9,27.9,,,,,,,,,wg-a,,,,AAXX 11184 07335 12/// /3408 10260 20180 30036 40173 53012 60006 91800 333 10279 20199=
07335,1997-08-12 00:00:00,21,1020,0.8,83,18,0,14.816,,,320,,,,,,,,,,,wg-a,,,,AAXX 12004 07335 12/// /3208 10210 20180 30060 40200 52008 60006 90000=
07335,1997-08-12 06:00:00,18,1021.8,1.2,94,17,9000,7.408,,,350,17.4,26.1,,,,,,,,,wg-a,,,,AAXX 12064 07335 02659 /3504 10180 20170 30076 40218 53012 60006 81531 90600 333 10261 20174 60004=
07335,1997-08-12 09:00:00,24,1021.7,0.2,74,19,12000,3.704,,,140,,,,,,,,,,,wg-a,,,,AAXX 12094 07335 12662 /1402 10240 20190 30078 40217 50002 60006 81501 90900=
07335,1997-08-12 12:00:00,28,1020.6,-0.9,58,19,25000,7.408,,,90,,,,,,,,,,,wg-a,,,,AAXX 12124 07335 12675 30904 10280 20190 30069 40206 58009 60006 83200 91200=
07335,1997-08-12 15:00:00,29,1019.7,-0.8,55,19,25000,3.704,,,40,,,,,,,,,,,wg-a,,,,AAXX 12154 07335 12675 /0402 10290 20190 30061 40197 58008 60006 82230 91500=
07335,1997-08-13 09:00:00,24,1023.3,0.7,65,17,20000,7.408,,,40,,,,,,,,,,,wg-a,,,,AAXX 13094 07335 12/70 30404 10240 20170 30094 40233 51007 60006 80002 90900=
07335,1997-08-13 12:00:00,29,1023,-0.1,45,16,25000,11.112,,,350,,,,,,,,,,,wg-a,,,,AAXX 13124 07335 12675 /3506 10290 20160 30093 40230 57001 60006 81140 91200=
07335,1997-08-13 18:00:00,28,1022.8,-0,48,16,0,18.52,,,10,18.9,30.7,,,,,,,,,wg-a,,,,AAXX 13184 07335 12/// /0110 10280 20160 30091 40228 54000 60006 91800 333 10307 20189=
07335,1997-08-14 09:00:00,25,1023.4,-0.4,65,18,20000,11.112,,,120,,,,,,,,,,,wg-a,,,,AAXX 14094 07335 12/70 01206 10250 20180 30096 40234 58004 60006 80000 90900=
07335,1997-08-14 12:00:00,30,1021.5,-1.7,46,17,20000,11.112,,,100,,,,,,,,,,,wg-a,,,,AAXX 14124 07335 12670 31006 10300 20170 30079 40215 57017 60006 83200 91200=
07335,1997-08-14 15:00:00,31,1019.8,-1.6,43,17,20000,11.112,,,80,,,,,,,,,,,wg-a,,,,AAXX 14154 07335 12770 40806 10310 20170 30063 40198 56016 60006 84200 91500=
07335,1997-08-14 18:00:00,30,1019.3,-0.6,46,17,0,11.112,,,70,18.3,31.5,,,,,,,,,wg-a,,,,AAXX 14184 07335 12/// /0706 10300 20170 30057 40193 56006 60006 91800 333 10315 20183=
07335,1997-08-15 00:00:00,23,1020.4,0,65,16,0,3.704,,,70,,,,,,,,,,,wg-a,,,,AAXX 15004 07335 12/// /0702 10230 20160 30065 40204 50000 60006 90000=
07335,1997-08-15 06:00:00,21,1019.7,-0.1,78,17,20000,11.112,,,90,18.3,29.5,,,,,,,,,wg-a,,,,AAXX 15064 07335 02/70 60906 10210 20170 30057 40197 55001 60006 83082 90600 333 10295 20183 60004=
07335,1997-08-15 09:00:00,24,1019.8,0.3,74,19,15000,7.408,,,70,,,,,,,,,,29,wg-a,,,,AAXX 15094 07335 12565 70704 10240 20190 30060 40198 51003 60006 72992 85982 90900=
07335,1997-08-15 12:00:00,28,1019.9,0.3,58,19,20000,11.112,,,10,,,,,,,,,,1,wg-a,,,,AAXX 15124 07335 02570 70106 10280 20190 30063 40199 51003 61000 70198 82982 91200 333 ////=
07335,1997-08-15 18:00:00,27,1018.2,-0.3,70,21,0,14.816,,,40,21,29.2,,,,,,,,,wg-a,,,,AAXX 15184 07335 32/// /0408 10270 20210 30046 40182 55003 91800 333 10292 20210=
07335,1997-08-16 09:00:00,24,1018,0.5,78,20,15000,7.408,,,220,,,,,,,,,,17,wg-a,,,,AAXX 16094 07335 12565 42204 10240 20200 30042 40180 51005 60006 71791 82982 90900=
07335,1997-08-16 12:00:00,22,1018.5,0.4,88,20,10000,11.112,,,140,,,,,,,,,,17,wg-a,,,,AAXX 16124 07335 12460 71406 10220 20200 30046 40185 50004 60006 71791 8498/ 91200=
07335,1997-08-16 15:00:00,27,1017.5,-0.8,62,19,20000,14.816,,,280,,,,,,,,,,29,wg-a,,,,AAXX 16154 07335 12770 72808 10270 20190 30038 40175 58008 60006 72992 83482 91500=
07335,1997-08-16 18:00:00,25,1017.5,-0,74,20,0,11.112,,,250,19.2,28.1,,,,,,,,,wg-a,,,,AAXX 16184 07335 12/// /2506 10250 20200 30038 40175 55000 60006 91800 333 10281 20192=
07335,1997-08-17 09:00:00,23,1019.3,0.5,78,19,12000,11.112,,,200,,,,,,,,,,,wg-a,,,,AAXX 17094 07335 12462 /2006 10230 20190 30054 40193 51005 60006 85102 90900=
07335,1997-08-17 12:00:00,25,1018.8,-0.4,65,18,20000,14.816,,,240,,,,,,,,,,,wg-a,,,,AAXX 17124 07335 12570 72408 10250 20180 30050 40188 57004 60006 86802 91200=
07335,1997-08-17 18:00:00,25,1017.2,-0.3,69,19,0,14.816,,,300,17.5,27.3,,,,,,,,,wg-a,,,,AAXX 17184 07335 12/// /3008 10250 20190 30035 40172 57003 60006 91800 333 10273 20175=
07335,1997-08-18 00:00:00,19,1018.6,-0.5,94,18,0,3.704,,,270,,,,,,,,,,,wg-a,,,,AAXX 18004 07335 12/// /2702 10190 20180 30045 40186 58005 60006 90000=
07335,1997-08-18 09:00:00,24,1018.3,0.4,78,20,10000,3.704,,,110,,,,0,,,,,,3,wg-a,,,,AAXX 18094 07335 12460 /1102 10240 20200 30045 40183 53004 60007 70341 81200 90900=
07335,1997-08-18 12:00:00,28,1017.4,-0.7,51,17,25000,7.408,,,80,,,,,,,,,,1,wg-a,,,,AAXX 18124 07335 12675 30804 10280 20170 30038 40174 58007 60006 70141 83200 91200=
07335,1997-08-18 18:00:00,27,1016.2,-0.1,54,17,0,18.52,,,340,16.8,30,,,,,,,,,wg-a,,,,AAXX 18184 07335 32/// /3410 10270 20170 30025 40162 55001 91800 333 10300 20168=
07335,1997-08-19 00:00:00,19,1017.1,-0.3,88,17,0,3.704,,,170,,,,,,,,,,,wg-a,,,,AAXX 19004 07335 12/// /1702 10190 20170 30031 40171 58003 60006 90000=
07335,1997-08-19 06:00:00,19,1016.6,0.1,94,18,20000,3.704,,,160,18.1,26.6,,,,,,,,,wg-a,,,,AAXX 19064 07335 02/70 71602 10190 20180 30026 40166 53001 60006 8707/ 90600 333 10266 20181 60004=
07335,1997-08-19 09:00:00,25,1016.7,0.4,69,19,18000,3.704,,,160,,,,,,,,,,,wg-a,,,,AAXX 19094 07335 12/68 61602 10250 20190 30030 40167 50004 60006 85032 90900=
07335,1997-08-19 12:00:00,28,1016.1,-0.5,58,19,20000,11.112,,,220,,,,,,,,,,,wg-a,,,,AAXX 19124 07335 12670 72206 10280 20190 30025 40161 57005 60006 8123/ 91200=
07335,1997-08-19 15:00:00,30,1015.2,-0.8,43,16,20000,14.816,,,240,,,,,,,,,,,wg-a,,,,AAXX 19154 07335 12670 72408 10300 20160 30017 40152 58008 60006 82933 91500=
07335,1997-08-19 18:00:00,24,1015.9,0.4,61,16,0,11.112,,,110,18.9,30.2,,,,,,,,,wg-a,,,,AAXX 19184 07335 12/// /1106 10240 20160 30021 40159 51004 60006 91800 333 10302 20189=
07335,1997-08-20 00:00:00,20,1016.7,-0.1,83,17,0,3.704,,,10,,,,,,,,,,,wg-a,,,,AAXX 20004 07335 12/// /0102 10200 20170 30027 40167 58001 60006 90000=
07335,1997-08-20 06:00:00,16,1017.5,0.8,100,16,10000,0,,,0,15.2,24.4,,,,,,,,,wg-a,,,,AAXX 20064 07335 02/60 40000 10160 20160 30033 40175 50008 60006 82032 90600 333 10244 20152 60004=
07335,1997-08-20 12:00:00,30,1016.7,-0.3,46,17,25000,11.112,,,110,,,,,,,,,,,wg-a,,,,AAXX 20124 07335 12675 /1106 10300 20170 30032 40167 58003 60006 81100 91200=
07335,1997-08-20 18:00:00,29,1015.8,-0,48,17,0,11.112,,,70,15.9,31.5,,,,,,,,,wg-a,,,,AAXX 20184 07335 12/// /0706 10290 20170 30022 40158 55000 60006 91800 333 10315 20159=
07335,1997-08-21 00:00:00,21,1017.5,0.6,73,16,0,3.704,,,140,,,,,,,,,,,wg-a,,,,AAXX 21004 07335 12/// /1402 10210 20160 30036 40175 50006 60006 90000=
07335,1997-08-21 06:00:00,17,1018.9,0.8,94,16,8000,3.704,,,260,15.8,29,,,,,,,,,wg-a,,,,AAXX 21064 07335 02/58 /2602 10170 20160 30047 40189 53008 60006 80001 90600 333 10290 20158 60004=
07335,1997-08-21 09:00:00,26,1019.3,0.8,58,17,12000,7.408,,,340,,,,,,,,,,,wg-a,,,,AAXX 21094 07335 12/62 33404 10260 20170 30055 40193 51008 60006 80001 90900=
07335,1997-08-21 12:00:00,31,1018.4,-0.6,38,15,20000,7.408,,,110,,,,,,,,,,,wg-a,,,,AAXX 21124 07335 12770 31104 10310 20150 30049 40184 58006 60006 81101 91200=
07335,1997-08-21 18:00:00,29,1018.1,0.4,52,18,0,7.408,,,230,16.9,33,,,,,,,,,wg-a,,,,AAXX 21184 07335 12/// /2304 10290 20180 30045 40181 53004 60006 91800 333 10330 20169=
07335,1997-08-22 00:00:00,21,1020.5,0.7,83,18,0,11.112,,,340,,,,,,,,,,,wg-a,,,,AAXX 22004 07335 12/// /3406 10210 20180 30065 40205 51007 60006 90000=
07335,1997-08-22 06:00:00,18,1021.3,0.8,94,17,10000,3.704,,,310,17.1,29,,,,,,,,,wg-a,,,,AAXX 22064 07335 02/60 13102 10180 20170 30071 40213 53008 60006 81031 90600 333 10290 20171 60004=
07335,1997-08-22 09:00:00,25,1021.4,0.5,74,20,10000,3.704,,,60,,,,,,,,,,,wg-a,,,,AAXX 22094 07335 12/60 10602 10250 20200 30076 40214 51005 60006 80001 90900=
07335,1997-08-22 12:00:00,32,1019.9,-1.2,41,17,20000,7.408,,,200,,,,,,,,,,,wg-a,,,,AAXX 22124 07335 12770 22004 10320 20170 30064 40199 58012 60006 81142 91200=
07335,1997-08-22 15:00:00,33,1018.6,-1.2,39,17,20000,14.816,,,270,,,,,,,,,,,wg-a,,,,AAXX 22154 07335 12870 22708 10330 20170 30052 40186 57012 60006 82201 91500=
07335,1997-08-23 00:00:00,20,1018.4,-0.8,88,18,0,7.408,,,320,,,,,,,,,,,wg-a,,,,AAXX 23004 07335 12/// /3204 10200 20180 30044 40184 58008 60006 90000=
07335,1997-08-23 09:00:00,28,1017.3,0.1,58,19,18000,3.704,,,110,,,,,,,,,,,wg-a,,,,AAXX 23094 07335 12/68 01102 10280 20190 30037 40173 51001 60006 80000 90900=
07335,1997-08-23 12:00:00,32,1015.8,-1.3,41,17,25000,7.408,,,250,,,,,,,,,,,wg-a,,,,AAXX 23124 07335 12775 12504 10320 20170 30024 40158 58013 60006 81100 91200=
07335,1997-08-23 15:00:00,33,1014.2,-1.5,41,18,25000,14.816,,,240,,,,,,,,,,,wg-a,,,,AAXX 23154 07335 12775 22408 10330 20180 30009 40142 58015 60006 8/100 91500=
07335,1997-08-23 18:00:00,31,1013.8,-0.5,43,17,0,11.112,,,300,18,33.7,,,,,,,,,wg-a,,,,AAXX 23184 07335 12/// /3006 10310 20170 30004 40138 56005 60006 91800 333 10337 20180=
07335,1997-08-24 00:00:00,20,1014.6,-0.3,88,18,0,3.704,,,360,,,,,,,,,,,wg-a,,,,AAXX 24004 07335 12/// /3602 10200 20180 30007 40146 58003 60006 90000=
07335,1997-08-24 06:00:00,20,1014.6,0.4,94,19,15000,11.112,,,170,17.2,31,,,,,,,,,wg-a,,,,AAXX 24064 07335 02/65 11706 10200 20190 30006 40146 53004 60006 80002 90600 333 10310 20172 60004=
07335,1997-08-24 09:00:00,27,1014.4,0.2,66,20,15000,18.52,,,210,,,,,,,,,,,wg-a,,,,AAXX 24094 07335 12/65 12110 10270 20200 30008 40144 52002 60006 80001 90900=
07335,1997-08-24 12:00:00,32,1012.9,-1.3,41,17,25000,22.224,,,200,,,,,,,,,,,wg-a,,,,AAXX 24124 07335 12775 12012 10320 20170 39995 40129 58013 60006 81101 91200=
07335,1997-08-24 18:00:00,31,1010.1,-1.6,49,19,0,11.112,,,210,19.8,33.7,,,,,,,,,wg-a,,,,AAXX 24184 07335 12/// /2106 10310 20190 39967 40101 56016 60006 91800 333 10337 20198=
07335,1997-08-25 00:00:00,21,1010.1,-0.7,88,19,0,0,,,0,,,,,,,,,,,wg-a,,,,AAXX 25004 07335 12/// /0000 10210 20190 39963 40101 55007 60006 90000=
07335,1997-08-25 06:00:00,20,1008.1,-0.9,68,14,20000,14.816,,,180,18.7,31.4,,,,,,,,,wg-a,,,,AAXX 25064 07335 02/70 61808 10200 20140 39942 40081 58009 60006 82032 90600 333 10314 20187 60004=
07335,1997-08-25 09:00:00,25,1009.2,1.4,65,18,20000,25.928,,,230,,,,,,,,,,,wg-a,,,,AAXX 25094 07335 12570 /2314 10250 20180 39956 40092 52014 60006 81142 90900=
07335,1997-08-25 12:00:00,26,1009.9,0.7,61,18,20000,14.816,,33.336,280,,,,,,,,,,,wg-a,,,,AAXX 25124 07335 12570 72808 10260 20180 39963 40099 50007 60006 8583/ 91200 333 91018=
07335,1997-08-25 15:00:00,22,1010.8,0.7,83,19,25000,18.52,,,340,,,,1,,,,,,1,wg-a,,,,AAXX 25154 07335 12575 73410 10220 20190 39970 40108 51007 60017 70162 8583/ 91500=
07335,1997-08-26 00:00:00,19,1012.9,0.3,88,17,0,11.112,,,360,,,,,,,,,,,wg-a,,,,AAXX 26004 07335 12/// /3606 10190 20170 39989 40129 51003 60006 90000=
07335,1997-08-26 06:00:00,15,1013.2,0.4,94,14,20000,7.408,,,350,14.4,21.6,,,,,1,,,,wg-a,,,,AAXX 26064 07335 02470 73504 10150 20140 39990 40132 51004 60006 85802 90600 333 10216 20144 60014=
07335,1997-08-26 12:00:00,24,1011.8,-1.3,57,15,25000,7.408,,,170,,,,,,,,,,,wg-a,,,,AAXX 26124 07335 12575 71704 10240 20150 39980 40118 58013 60006 85232 91200=
07335,1997-08-26 15:00:00,26,1009.8,-1.8,45,13,25000,11.112,,,210,,,,,,,,,,,wg-a,,,,AAXX 26154 07335 12675 72106 10260 20130 39962 40098 56018 60006 83232 91500=
07335,1997-08-26 18:00:00,24,1009,-0.9,44,11,0,14.816,,,210,14.6,26.1,,,,,,,,,wg-a,,,,AAXX 26184 07335 12/// /2108 10240 20110 39953 40090 56009 60006 91800 333 10261 20146=
07335,1997-08-27 00:00:00,16,1008,-1.3,82,13,0,7.408,,,170,,,,,,,,,,,wg-a,,,,AAXX 27004 07335 12/// /1704 10160 20130 39939 40080 56013 60006 90000=
07335,1997-08-27 06:00:00,18,1004.4,-1.4,83,15,25000,11.112,,,150,15.5,23.8,,,,,,,,,wg-a,,,,AAXX 27064 07335 02575 81506 10180 20150 39905 40044 58014 60006 8357/ 90600 333 10238 20155 60004=
07335,1997-08-27 09:00:00,22,1003.9,-0.3,78,18,25000,25.928,,,230,,,,,,,,,,3,wg-a,,,,AAXX 27094 07335 02475 82314 10220 20180 39902 40039 55003 61000 70362 8587/ 90900 333 ////=
07335,1997-08-27 15:00:00,18,1005,0.3,88,16,3000,29.632,,,240,,,,4,,,,,,81,wg-a,,,,AAXX 27154 07335 12330 82416 10180 20160 39911 40050 53003 60047 78198 879// 91500=
07335,1997-08-27 18:00:00,18,1004.1,-0.9,94,17,0,11.112,,,230,16.7,24.1,,4,,,,,,,wg-a,,,,AAXX 27184 07335 12/// /2306 10180 20170 39902 40041 56009 60047 91800 333 10241 20167=
07335,1997-08-28 00:00:00,16,1003.2,-0.9,100,16,0,7.408,,,220,,,,,,,,,,,wg-a,,,,AAXX 28004 07335 12/// /2204 10160 20160 39892 40032 56009 60036 90000=
07335,1997-08-28 06:00:00,14,1004.1,2.1,94,13,20000,22.224,,,220,13.7,18,,,,,,,,25,wg-a,,,,AAXX 28064 07335 02370 52212 10140 20130 39900 40041 51021 61000 72586 84302 90600 333 10180 20137 6015=
07335,1997-08-28 09:00:00,18,1005.5,1.6,77,14,500,25.928,,,230,,,,0,,,,,,25,wg-a,,,,AAXX 28094 07335 12400 62314 10180 20140 39916 40055 51016 60007 72586 84902 90900=
07335,1997-08-28 12:00:00,19,1006.7,1.2,73,14,500,29.632,,,250,,,,3,,,,,,1,wg-a,,,,AAXX 28124 07335 02500 72516 10190 20140 39928 40067 53012 60046 70186 83832 91200 333 60037=
07335,1997-08-28 15:00:00,17,1008.3,1.5,82,14,500,25.928,,,250,,,,3,,,,,,25,wg-a,,,,AAXX 28154 07335 12500 72514 10170 20140 39943 40083 53015 60037 72586 84832 91500=
07335,1997-08-28 18:00:00,17,1010.4,2,72,12,0,25.928,,,250,14.1,20.1,,,,,,,,,wg-a,,,,AAXX 28184 07335 32/// /2514 10170 20120 39963 40104 53020 91800 333 10201 20141=
07335,1997-08-29 00:00:00,14,1015.3,1.8,88,12,0,11.112,,,220,,,,,,,,,,,wg-a,,,,AAXX 29004 07335 12/// /2206 10140 20120 30010 40153 51018 60006 90000=
07335,1997-08-29 06:00:00,13,1017.8,1.4,100,13,20000,11.112,,,220,12.1,16.8,,,,,,,,25,wg-a,,,,AAXX 29064 07335 02470 22206 10130 20130 30034 40178 53014 61000 72586 82830 90600 333 10168 20121 6007=
07335,1997-08-29 09:00:00,18,1018.6,1.1,77,14,25000,22.224,,,250,,,,0,,,,,,,wg-a,,,,AAXX 29094 07335 12475 32512 10180 20140 30045 40186 52011 60007 8213/ 90900=
07335,1997-08-29 12:00:00,19,1018.5,-0.1,73,14,25000,22.224,,40.744,280,,,,,,,,,,80,wg-a,,,,AAXX 29124 07335 02575 82812 10190 20140 30044 40185 55001 60006 78086 878// 91200 333 61000 91022=
07335,1997-08-29 15:00:00,23,1018.1,-0.2,50,12,25000,25.928,,,260,,,,0,,,,,,1,wg-a,,,,AAXX 29154 07335 12675 72614 10230 20120 30042 40181 58002 60007 70186 8285/ 91500=
07335,1997-08-29 18:00:00,18,1018.8,0.5,77,14,0,22.224,,,240,12.9,22.7,,,,,,,,,wg-a,,,,AAXX 29184 07335 32/// /2412 10180 20140 30047 40188 51005 91800 333 10227 20129=
07335,1997-08-30 00:00:00,17,1017.9,-1,88,15,0,25.928,,,210,,,,,,,,,,,wg-a,,,,AAXX 30004 07335 12/// /2114 10170 20150 30037 40179 58010 60006 90000=
07335,1997-08-30 06:00:00,16,1017.7,0.7,100,16,2000,14.816,,,220,15.9,18.3,,,,,,,,51,wg-a,,,,AAXX 30064 07335 02220 82208 10160 20160 30035 40177 53007 61000 75152 887// 90600 333 10183 20159 6002=
07335,1997-08-30 09:00:00,20,1018.2,0.7,88,18,25000,22.224,,,240,,,,0,,,,,,3,wg-a,,,,AAXX 30094 07335 12475 72412 10200 20180 30042 40182 51007 60007 70352 878// 90900=
07335,1997-08-30 18:00:00,22,1017.9,-0.6,73,17,0,7.408,,,270,16.3,24.3,,,,,,,,,wg-a,,,,AAXX 30184 07335 32/// /2704 10220 20170 30040 40179 57006 91800 333 10243 20163=
07335,1997-08-31 00:00:00,16,1016.2,-1.5,100,16,0,3.704,,,160,,,,,,,,,,,wg-a,,,,AAXX 31004 07335 12/// /1602 10160 20160 30020 40162 58015 60006 90000=
07335,1997-08-31 09:00:00,24,1013,-0.1,65,17,500,22.224,,,210,,,,,,,,,,,wg-a,,,,AAXX 31094 07335 12/00 12112 10240 20170 39993 40130 57001 60006 81081 90900=
07335,1997-08-31 15:00:00,26,1014.5,0.8,58,17,500,25.928,,,250,,,,,,,,,,,wg-a,,,,AAXX 31154 07335 12600 /2514 10260 20170 30008 40145 53008 60006 81232 91500=
07335,1997-08-31 18:00:00,21,1015.9,1.2,73,16,0,18.52,,,250,16.6,27.4,,,,,,,,,wg-a,,,,AAXX 31184 07335 12/// /2510 10210 20160 30020 40159 52012 60006 91800 333 10274 20166=
07335,1997-09-01 00:00:00,16,1018.3,0.5,100,16,0,7.408,,,280,,,,,,,,,,,wg-a,,,,AAXX 01004 07335 12/// /2804 10160 20160 30041 40183 51005 60006 90000=
07335,1997-09-01 06:00:00,15,1019.1,0.4,100,15,12000,3.704,,,40,14.8,21.4,,,,,,,,80,wg-a,,,,AAXX 01064 07335 02262 80402 10150 20150 30048 40191 53004 61000 78096 8599/ 90600 333 10214 20148 6005=
07335,1997-09-01 12:00:00,15,1019.1,-0.1,100,15,15000,11.112,,,340,,,,8,,,,,,61,wg-a,,,,AAXX 01124 07335 02265 83406 10150 20150 30048 40191 58001 60096 76196 8652/ 91200 333 60087=
07335,1997-09-01 15:00:00,15,1019,-0.1,100,15,20000,11.112,,,340,,,,2,,,,,,61,wg-a,,,,AAXX 01154 07335 12270 83406 10150 20150 30047 40190 58001 60027 76166 8652/ 91500=
07335,1997-09-01 18:00:00,16,1018.4,-0.5,94,15,0,18.52,,,20,14.5,16.1,,,,,,,,,wg-a,,,,AAXX 01184 07335 32/// /0210 10160 20150 30042 40184 58005 91800 333 10161 20145=
07335,1997-09-02 06:00:00,11,1021.8,0.8,100,11,20000,11.112,,,330,10.7,16,,,,,11,,,,wg-a,,,,AAXX 02064 07335 02670 33306 10110 20110 30073 40218 53008 60006 82532 90600 333 10160 20107 60114=
07335,1997-09-02 09:00:00,17,1022.8,1.3,82,14,25000,11.112,,,330,,,,,,,,,,,wg-a,,,,AAXX 02094 07335 12475 23306 10170 20140 30086 40228 53013 60006 81132 90900=
07335,1997-09-02 12:00:00,21,1022.8,0.1,53,11,500,11.112,,,320,,,,,,,,,,,wg-a,,,,AAXX 02124 07335 12600 33206 10210 20110 30087 40228 53001 60006 83232 91200=
07335,1997-09-02 15:00:00,22,1021.9,-0.8,46,10,500,3.704,,,320,,,,,,,,,,,wg-a,,,,AAXX 02154 07335 12600 53202 10220 20100 30079 40219 56008 60006 84402 91500=
07335,1997-09-02 18:00:00,20,1022,-0,64,13,0,11.112,,,150,10.9,22.7,,,,,,,,,wg-a,,,,AAXX 02184 07335 12/// /1506 10200 20130 30079 40220 55000 60006 91800 333 10227 20109=
07335,1997-09-03 00:00:00,11,1023.4,0,100,11,0,7.408,,,250,,,,,,,,,,,wg-a,,,,AAXX 03004 07335 12/// /2504 10110 20110 30088 40234 50000 60006 90000=
07335,1997-09-03 06:00:00,9,1022.5,0.1,100,9,20000,3.704,,,160,8.3,20.2,,,,,,,,,wg-a,,,,AAXX 03064 07335 02/70 11602 10090 20090 30078 40225 53001 60006 80001 90600 333 10202 20083 60004=
07335,1997-09-03 09:00:00,18,1021.9,-0.1,77,14,25000,11.112,,,150,,,,,,,,,,,wg-a,,,,AAXX 03094 07335 12/75 11506 10180 20140 30077 40219 58001 60006 80001 90900=
07335,1997-09-03 12:00:00,22,1020.7,-1,57,13,500,7.408,,,170,,,,,,,,,,,wg-a,,,,AAXX 03124 07335 12600 21704 10220 20130 30067 40207 56010 60006 82101 91200=
07335,1997-09-03 15:00:00,24,1019.7,-0.9,50,13,500,7.408,,,160,,,,,,,,,,,wg-a,,,,AAXX 03154 07335 12/00 11604 10240 20130 30058 40197 56009 60006 80001 91500=
07335,1997-09-03 18:00:00,22,1019.5,-0.2,60,14,0,3.704,,,240,8.8,24.3,,,,,,,,,wg-a,,,,AAXX 03184 07335 12/// /2402 10220 20140 30056 40195 56002 60006 91800 333 10243 20088=
07335,1997-09-04 00:00:00,14,1020.7,0.4,94,13,0,0,,,0,,,,,,,,,,,wg-a,,,,AAXX 04004 07335 12/// /0000 10140 20130 30063 40207 53004 60006 90000=
07335,1997-09-04 06:00:00,13,1020.3,0.3,94,12,20000,0,,,0,12.1,22.2,,,,,,,,,wg-a,,,,AAXX 04064 07335 02/70 50000 10130 20120 30059 40203 53003 60006 82032 90600 333 10222 20121 60004=
07335,1997-09-04 09:00:00,22,1020.7,0.8,60,14,20000,3.704,,,190,,,,,,,,,,,wg-a,,,,AAXX 04094 07335 12/70 51902 10220 20140 30067 40207 53008 60006 83082 90900=
07335,1997-09-04 12:00:00,25,1019.6,-0.9,54,15,25000,14.816,,,230,,,,,,,,,,,wg-a,,,,AAXX 04124 07335 12/75 62308 10250 20150 30058 40196 57009 60006 82082 91200=
07335,1997-09-04 15:00:00,26,1018.9,-0.7,39,11,25000,14.816,,,260,,,,,,,,,,,wg-a,,,,AAXX 04154 07335 12/75 62608 10260 20110 30051 40189 57007 60006 82082 91500=
07335,1997-09-04 18:00:00,23,1019.1,0.1,61,15,0,7.408,,,290,12.5,26.5,,,,,,,,,wg-a,,,,AAXX 04184 07335 12/// /2904 10230 20150 30052 40191 53001 60006 91800 333 10265 20125=
07335,1997-09-05 00:00:00,16,1020.3,0,100,16,0,3.704,,,10,,,,,,,,,,,wg-a,,,,AAXX 05004 07335 12/// /0102 10160 20160 30061 40203 50000 60006 90000=
07335,1997-09-05 09:00:00,18,1020.1,0.5,88,16,7000,11.112,,,30,,,,,,,,,,,wg-a,,,,AAXX 05094 07335 12257 70306 10180 20160 30060 40201 52005 60006 876// 90900=
07335,1997-09-05 12:00:00,21,1019.5,-0.5,78,17,15000,11.112,,,340,,,,,,,,,,,wg-a,,,,AAXX 05124 07335 12865 73406 10210 20170 30055 40195 58005 60006 8683/ 91200=
07335,1997-09-05 15:00:00,24,1018.8,-0.5,65,17,20000,7.408,,,310,,,,,,,,,,,wg-a,,,,AAXX 05154 07335 12570 63104 10240 20170 30050 40188 58005 60006 84831 91500=
07335,1997-09-05 18:00:00,21,1019.9,0.9,64,14,0,25.928,,,360,16.1,24.5,,,,,,,,,wg-a,,,,AAXX 05184 07335 12/// /3614 10210 20140 30059 40199 53009 60006 91800 333 10245 20161=
07335,1997-09-06 00:00:00,17,1023.1,1.1,72,12,0,14.816,,,20,,,,,,,,,,,wg-a,,,,AAXX 06004 07335 12/// /0208 10170 20120 30088 40231 53011 60006 90000=
07335,1997-09-06 06:00:00,15,1024.4,1.1,82,12,15000,11.112,,,20,14.5,20.5,,,,,,,,60,wg-a,,,,AAXX 06064 07335 02665 70206 10150 20120 30100 40244 53011 61000 76062 8657/ 90600 333 10205 20145 6100=
07335,1997-09-06 09:00:00,17,1025.4,1.1,77,13,20000,18.52,,,50,,,,1,,,,,,1,wg-a,,,,AAXX 06094 07335 12670 /0510 10170 20130 30111 40254 52011 60017 70162 81530 90900=
07335,1997-09-06 12:00:00,20,1025.4,0.2,60,12,500,14.816,,,50,,,,,,,,,,3,wg-a,,,,AAXX 06124 07335 12600 40508 10200 20120 30113 40254 51002 60016 70361 81131 91200=
07335,1997-09-06 18:00:00,20,1024.9,-0.2,53,10,0,7.408,,,80,13.9,21.2,,,,,,,,,wg-a,,,,AAXX 06184 07335 32/// /0804 10200 20100 30108 40249 56002 91800 333 10212 20139=
07335,1997-09-07 00:00:00,10,1026.8,0,93,9,0,11.112,,,330,,,,,,,,,,,wg-a,,,,AAXX 07004 07335 12/// /3306 10100 20090 30121 40268 50000 60006 90000=
07335,1997-09-07 06:00:00,9,1027.8,0.8,100,9,25000,7.408,,,340,8.6,20.1,,,,,1,,,,wg-a,,,,AAXX 07064 07335 02/75 23404 10090 20090 30131 40278 53008 60006 81031 90600 333 10201 20086 60014=
07335,1997-09-07 09:00:00,17,1028.4,1,68,11,500,14.816,,,50,,,,,,,,,,,wg-a,,,,AAXX 07094 07335 12/00 10508 10170 20110 30141 40284 53010 60006 81031 90900=
07335,1997-09-07 12:00:00,21,1027.7,-0.6,49,10,500,11.112,,,60,,,,,,,,,,,wg-a,,,,AAXX 07124 07335 12600 /0606 10210 20100 30135 40277 57006 60006 81101 91200=
07335,1997-09-07 15:00:00,22,1026.9,-0.7,46,10,500,14.816,,,40,,,,,,,,,,,wg-a,,,,AAXX 07154 07335 12/00 20408 10220 20100 30128 40269 58007 60006 80001 91500=
07335,1997-09-07 18:00:00,21,1027,0.1,49,10,0,18.52,,,40,9,22.3,,,,,,,,,wg-a,,,,AAXX 07184 07335 12/// /0410 10210 20100 30129 40270 53001 60006 91800 333 10223 20090=
07335,1997-09-08 00:00:00,13,1028.5,-0,88,11,0,7.408,,,360,,,,,,,,,,,wg-a,,,,AAXX 08004 07335 12/// /3604 10130 20110 30140 40285 55000 60006 90000=
07335,1997-09-08 06:00:00,10,1028.4,0.5,100,10,15000,7.408,,,330,9.7,20.8,,,,,,,,,wg-a,,,,AAXX 08064 07335 02/65 13304 10100 20100 30137 40284 53005 60006 80001 90600 333 10208 20097 60004=
07335,1997-09-08 12:00:00,23,1026.8,-1,53,13,25000,18.52,,,60,,,,,,,,,,,wg-a,,,,AAXX 08124 07335 12675 30610 10230 20130 30128 40268 58010 60006 83101 91200=
07335,1997-09-08 15:00:00,24,1025.4,-1.4,50,13,25000,14.816,,,60,,,,,,,,,,,wg-a,,,,AAXX 08154 07335 12675 /0608 10240 20130 30114 40254 58014 60006 81100 91500=
07335,1997-09-08 18:00:00,23,1024.9,-0.5,53,13,0,11.112,,,80,10.1,24.1,,,,,,,,,wg-a,,,,AAXX 08184 07335 12/// /0806 10230 20130 30109 40249 56005 60006 91800 333 10241 20101=
07335,1997-09-09 06:00:00,11,1024.5,-0.3,100,11,7000,11.112,,,350,11.3,22.6,,,,,,,,,wg-a,,,,AAXX 09064 07335 12/57 /3506 10110 20110 30099 40245 55003 60006 80002 90600 333 10226 20113=
07335,1997-09-09 09:00:00,17,1024.8,0.6,82,14,9000,11.112,,,20,,,,,,,,,,,wg-a,,,,AAXX 09094 07335 12/59 /0206 10170 20140 30105 40248 52006 60006 81032 90900=
07335,1997-09-09 15:00:00,23,1022.2,-1.4,57,14,20000,14.816,,,70,,,,,,,,,,,wg-a,,,,AAXX 09154 07335 12/70 20708 10230 20140 30082 40222 56014 60006 80002 91500=
07335,1997-09-09 18:00:00,22,1021.7,-0.5,46,10,0,14.816,,,50,11.5,23.1,,,,,,,,,wg-a,,,,AAXX 09184 07335 12/// /0508 10220 20100 30077 40217 55005 60006 91800 333 10231 20115=
07335,1997-09-10 00:00:00,15,1022.8,-0.3,82,12,0,11.112,,,70,,,,,,,,,,,wg-a,,,,AAXX 10004 07335 12/// /0706 10150 20120 30085 40228 58003 60006 90000=
07335,1997-09-10 09:00:00,16,1021.6,-0.2,77,12,15000,22.224,,,70,,,,,,,,,,,wg-a,,,,AAXX 10094 07335 12/65 00712 10160 20120 30073 40216 58002 60006 80000 90900=
07335,1997-09-10 12:00:00,21,1020.2,-1.1,53,11,20000,25.928,,,80,,,,,,,,,,,wg-a,,,,AAXX 10124 07335 12/70 10814 10210 20110 30062 40202 58011 60006 80001 91200=
07335,1997-09-10 15:00:00,23,1018.5,-1.6,38,8,25000,22.224,,,80,,,,,,,,,,,wg-a,,,,AAXX 10154 07335 12/75 00812 10230 20080 30046 40185 56016 60006 80000 91500=
07335,1997-09-10 18:00:00,21,1017.7,-0.9,46,9,0,11.112,,,70,10.2,23.3,,,,,,,,,wg-a,,,,AAXX 10184 07335 12/// /0706 10210 20090 30037 40177 56009 60006 91800 333 10233 20102=
07335,1997-09-11 00:00:00,14,1016.4,-1.1,72,9,0,7.408,,,60,,,,,,,,,,,wg-a,,,,AAXX 11004 07335 12/// /0604 10140 20090 30021 40164 58011 60006 90000=
07335,1997-09-11 06:00:00,6,1014.9,-0.3,93,5,500,3.704,,,230,4.5,21.4,,,,,,,,,wg-a,,,,AAXX 11064 07335 02/00 12302 10060 20050 30002 40149 55003 60006 80001 90600 333 10214 20045 60004=
07335,1997-09-11 09:00:00,19,1014.1,-0.1,68,13,500,11.112,,,220,,,,,,,,,,,wg-a,,,,AAXX 11094 07335 12/00 12206 10190 20130 30001 40141 56001 60006 80001 90900=
07335,1997-09-11 12:00:00,27,1012.3,-1.4,45,14,500,18.52,,,220,,,,,,,,,,,wg-a,,,,AAXX 11124 07335 12/00 12210 10270 20140 39987 40123 58014 60006 80001 91200=
07335,1997-09-11 15:00:00,28,1010.7,-1.5,45,15,500,22.224,,,210,,,,,,,,,,,wg-a,,,,AAXX 11154 07335 12/00 12112 10280 20150 39972 40107 58015 60006 80001 91500=
07335,1997-09-11 18:00:00,24,1010.5,-0.4,61,16,0,11.112,,,280,5.4,28.4,,,,,,,,,wg-a,,,,AAXX 11184 07335 12/// /2806 10240 20160 39968 40105 56004 60006 91800 333 10284 20054=
07335,1997-09-12 00:00:00,14,1013,0.9,100,14,0,3.704,,,240,,,,,,,,,,,wg-a,,,,AAXX 12004 07335 12/// /2402 10140 20140 39988 40130 51009 60006 90000=
07335,1997-09-12 06:00:00,14,1012.6,-0.4,100,14,2000,0,,,0,12.6,23.4,,,,,,,,10,wg-a,,,,AAXX 12064 07335 02520 70000 10140 20140 39983 40126 55004 60006 71011 85532 90600 333 10234 20126 60004=
07335,1997-09-12 09:00:00,17,1012.9,0.5,94,16,7000,7.408,,,330,,,,,,,,,,,wg-a,,,,AAXX 12094 07335 12457 73304 10170 20160 39988 40129 53005 60006 878// 90900=
07335,1997-09-12 15:00:00,17,1013.1,0.3,88,15,10000,14.816,,,250,,,,1,,,,,,21,wg-a,,,,AAXX 12154 07335 12560 72508 10170 20150 39990 40131 53003 60017 72162 8387/ 91500=
07335,1997-09-12 18:00:00,16,1013,-0.1,94,15,0,14.816,,,250,13.7,18.9,,,,,,,,,wg-a,,,,AAXX 12184 07335 32/// /2508 10160 20150 39989 40130 55001 91800 333 10189 20137=
07335,1997-09-13 00:00:00,14,1014.8,0.3,100,14,0,7.408,,,230,,,,,,,,,,,wg-a,,,,AAXX 13004 07335 12/// /2304 10140 20140 30005 40148 50003 60006 90000=
07335,1997-09-13 06:00:00,9,1018,1.5,93,8,15000,11.112,,,300,9.1,16.1,,,,,1,,,,wg-a,,,,AAXX 13064 07335 02765 63006 10090 20080 30034 40180 53015 60006 815/2 90600 333 10161 20091 60014=
07335,1997-09-13 09:00:00,15,1020.3,2.6,67,9,15000,18.52,,,330,,,,,,,,,,,wg-a,,,,AAXX 13094 07335 12565 43310 10150 20090 30060 40203 53026 60006 81102 90900=
07335,1997-09-13 15:00:00,19,1020.9,0.1,37,4,500,11.112,,,310,,,,,,,,,,,wg-a,,,,AAXX 13154 07335 12700 43106 10190 20040 30068 40209 53001 60006 84202 91500=
07335,1997-09-13 18:00:00,16,1022,0.9,48,5,0,7.408,,,350,9.1,19.3,,,,,,,,,wg-a,,,,AAXX 13184 07335 12/// /3504 10160 20050 30077 40220 53009 60006 91800 333 10193 20091=
07335,1997-09-14 06:00:00,3,1026.3,0.9,100,3,20000,0,,,0,3.1,16.2,,,,,,,,,wg-a,,,,AAXX 14064 07335 02/70 50000 10030 20030 30113 40263 52009 60006 80002 90600 333 10162 20031 60004=
07335,1997-09-14 09:00:00,14,1026.8,1,67,8,20000,11.112,,,90,,,,,,,,,,,wg-a,,,,AAXX 14094 07335 12/70 70906 10140 20080 30123 40268 51010 60006 80002 90900=
07335,1997-09-14 12:00:00,18,1026.3,-0.3,49,7,20000,11.112,,,120,,,,,,,,,,,wg-a,,,,AAXX 14124 07335 12670 71206 10180 20070 30120 40263 58003 60006 82102 91200=
07335,1997-09-14 15:00:00,18,1025.2,-1.1,42,5,25000,14.816,,,80,,,,,,,,,,,wg-a,,,,AAXX 14154 07335 12/75 40808 10180 20050 30109 40252 57011 60006 80002 91500=
07335,1997-09-14 18:00:00,16,1025.2,-0,48,5,0,14.816,,,90,3.4,18.4,,,,,,,,,wg-a,,,,AAXX 14184 07335 12/// /0908 10160 20050 30109 40252 55000 60006 91800 333 10184 20034=
07335,1997-09-15 00:00:00,11,1025.9,-0.2,71,6,0,7.408,,,70,,,,,,,,,,,wg-a,,,,AAXX 15004 07335 12/// /0704 10110 20060 30113 40259 58002 60006 90000=
07335,1997-09-15 06:00:00,8,1024.2,-0.3,87,6,20000,7.408,,,70,7.8,16.2,,,,,,,,,wg-a,,,,AAXX 15064 07335 02/70 10704 10080 20060 30094 40242 55003 60006 80002 90600 333 10162 20078 60004=
07335,1997-09-15 09:00:00,14,1024.6,0.8,63,7,20000,14.816,,,60,,,,,,,,,,,wg-a,,,,AAXX 15094 07335 12/70 10608 10140 20070 30102 40246 51008 60006 80001 90900=
07335,1997-09-15 12:00:00,20,1023.2,-1.1,40,6,25000,18.52,,,90,,,,,,,,,,,wg-a,,,,AAXX 15124 07335 12/75 20910 10200 20060 30091 40232 57011 60006 80002 91200=
07335,1997-09-15 15:00:00,23,1022,-1.1,29,4,25000,14.816,,,90,,,,,,,,,,,wg-a,,,,AAXX 15154 07335 12/75 30908 10230 20040 30080 40220 56011 60006 80002 91500=
07335,1997-09-15 18:00:00,20,1021.9,-0.2,37,5,0,11.112,,,90,7.8,23,,,,,,,,,wg-a,,,,AAXX 15184 07335 12/// /0906 10200 20050 30078 40219 56002 60006 91800 333 10230 20078=
07335,1997-09-16 00:00:00,10,1023,-0.4,82,7,0,3.704,,,40,,,,,,,,,,,wg-a,,,,AAXX 16004 07335 12/// /0402 10100 20070 30084 40230 56004 60006 90000=
07335,1997-09-16 06:00:00,8,1022.4,0.1,100,8,20000,3.704,,,250,5.6,20.2,,,,,,,,,wg-a,,,,AAXX 16064 07335 02/70 62502 10080 20080 30077 40224 53001 60006 80002 90600 333 10202 20056 60004=
07335,1997-09-16 09:00:00,17,1022,0.1,68,11,500,11.112,,,180,,,,,,,,,,,wg-a,,,,AAXX 16094 07335 12/00 11806 10170 20110 30078 40220 50001 60006 80002 90900=
07335,1997-09-16 15:00:00,26,1018.4,-1.9,45,13,500,11.112,,,190,,,,,,,,,,,wg-a,,,,AAXX 16154 07335 12700 11906 10260 20130 30046 40184 57019 60006 81102 91500=
07335,1997-09-16 18:00:00,22,1018.7,0.2,60,14,0,3.704,,,180,7.7,26,,,,,,,,,wg-a,,,,AAXX 16184 07335 12/// /1802 10220 20140 30048 40187 53002 60006 91800 333 10260 20077=
07335,1997-09-17 06:00:00,13,1021.4,0.9,100,13,25000,11.112,,,190,12.9,22.2,,,,,,,,,wg-a,,,,AAXX 17064 07335 02/75 61906 10130 20130 30070 40214 53009 60006 80002 90600 333 10222 20129 60004=
07335,1997-09-17 09:00:00,21,1022.2,1.1,60,13,25000,18.52,,,190,,,,,,,,,,,wg-a,,,,AAXX 17094 07335 12/75 61910 10210 20130 30081 40222 52011 60006 80002 90900=
07335,1997-09-17 12:00:00,26,1021.6,-0.3,42,12,25000,14.816,,,180,,,,,,,,,,,wg-a,,,,AAXX 17124 07335 12/75 61808 10260 20120 30078 40216 58003 60006 80002 91200=
07335,1997-09-17 15:00:00,27,1021,-0.6,37,11,25000,14.816,,,130,,,,,,,,,,,wg-a,,,,AAXX 17154 07335 12/75 51308 10270 20110 30072 40210 56006 60006 80002 91500=
07335,1997-09-17 18:00:00,24,1021.5,0.4,50,13,0,7.408,,,160,13.5,27.2,,,,,,,,,wg-a,,,,AAXX 17184 07335 12/// /1604 10240 20130 30076 40215 53004 60006 91800 333 10272 20135=
07335,1997-09-18 09:00:00,21,1023.9,0.8,56,12,20000,11.112,,,210,,,,,,,,,,,wg-a,,,,AAXX 18094 07335 12/70 02106 10210 20120 30098 40239 51008 60006 80000 90900=
07335,1997-09-18 12:00:00,27,1022.6,-1,37,11,25000,7.408,,,130,,,,,,,,,,,wg-a,,,,AAXX 18124 07335 12/75 01304 10270 20110 30088 40226 58010 60006 80000 91200=
07335,1997-09-18 15:00:00,28,1021.1,-1.4,32,10,25000,7.408,,,110,,,,,,,,,,,wg-a,,,,AAXX 18154 07335 12/75 01104 10280 20100 30074 40211 57014 60006 80000 91500=
07335,1997-09-18 18:00:00,26,1021.3,0.1,39,11,0,11.112,,,70,9.4,28.1,,,,,,,,,wg-a,,,,AAXX 18184 07335 12/// /0706 10260 20110 30075 40213 53001 60006 91800 333 10281 20094=
07335,1997-09-19 00:00:00,10,1022.6,-0.2,100,10,0,0,,,0,,,,,,,,,,,wg-a,,,,AAXX 19004 07335 12/// /0000 10100 20100 30080 40226 58002 60006 90000=
07335,1997-09-19 06:00:00,8,1022.6,0.3,100,8,15000,3.704,,,340,8,25.5,,,,,,,,11,wg-a,,,,AAXX 19064 07335 02/65 03402 10080 20080 30079 40226 53003 60006 71100 80000 90600 333 10255 20080 60004=
07335,1997-09-19 09:00:00,20,1022.6,0.6,64,13,12000,7.408,,,120,,,,,,,,,,,wg-a,,,,AAXX 19094 07335 12/62 01204 10200 20130 30085 40226 51006 60006 80000 90900=
07335,1997-09-19 12:00:00,28,1021.1,-1.1,35,11,25000,18.52,,,120,,,,,,,,,,,wg-a,,,,AAXX 19124 07335 12/75 01210 10280 20110 30074 40211 58011 60006 80000 91200=
07335,1997-09-19 15:00:00,28,1019.9,-1.2,30,9,25000,14.816,,,90,,,,,,,,,,,wg-a,,,,AAXX 19154 07335 12/75 00908 10280 20090 30062 40199 58012 60006 80000 91500=
07335,1997-09-19 18:00:00,26,1020.1,0.1,45,13,0,11.112,,,80,8,28.8,,,,,,,,,wg-a,,,,AAXX 19184 07335 12/// /0806 10260 20130 30063 40201 53001 60006 91800 333 10288 20080=
07335,1997-09-20 00:00:00,14,1021.4,-0.1,88,12,0,7.408,,,350,,,,,,,,,,,wg-a,,,,AAXX 20004 07335 12/// /3504 10140 20120 30070 40214 58001 60006 90000=
07335,1997-09-20 06:00:00,15,1021.2,0.3,94,14,10000,11.112,,,60,12.1,25.4,,,,,,,,,wg-a,,,,AAXX 20064 07335 02/60 00606 10150 20140 30069 40212 51003 60006 80000 90600 333 10254 20121 60004=
07335,1997-09-20 09:00:00,20,1021.6,0.7,78,16,10000,11.112,,,80,,,,,,,,,,,wg-a,,,,AAXX 20094 07335 12/60 00806 10200 20160 30076 40216 51007 60006 80000 90900=
07335,1997-09-20 15:00:00,26,1020.1,-0.8,48,14,15000,18.52,,,90,,,,,,,,,,,wg-a,,,,AAXX 20154 07335 12665 /0910 10260 20140 30063 40201 55008 60006 81200 91500=
07335,1997-09-20 18:00:00,24,1020.2,-0,57,15,0,14.816,,,60,15.3,26.4,,,,,,,,,wg-a,,,,AAXX 20184 07335 12/// /0608 10240 20150 30063 40202 55000 60006 91800 333 10264 20153=
07335,1997-09-21 00:00:00,15,1021.8,0,72,10,0,3.704,,,50,,,,,,,,,,,wg-a,,,,AAXX 21004 07335 12/// /0502 10150 20100 30075 40218 50000 60006 90000=
07335,1997-09-21 06:00:00,10,1021.7,0.2,87,8,12000,3.704,,,40,9.3,23.5,,,,,,,,,wg-a,,,,AAXX 21064 07335 02/62 20402 10100 20080 30071 40217 53002 60006 81032 90600 333 10235 20093 60004=
07335,1997-09-21 09:00:00,18,1021.6,0.3,64,11,15000,3.704,,,110,,,,,,,,,,,wg-a,,,,AAXX 21094 07335 12/65 21102 10180 20110 30074 40216 52003 60006 81082 90900=
07335,1997-09-21 12:00:00,24,1020.5,-0.8,50,13,25000,7.408,,,120,,,,,,,,,,,wg-a,,,,AAXX 21124 07335 12/75 21204 10240 20130 30066 40205 58008 60006 81032 91200=
07335,1997-09-22 00:00:00,14,1021.5,0.1,94,13,0,7.408,,,240,,,,,,,,,,,wg-a,,,,AAXX 22004 07335 12/// /2404 10140 20130 30071 40215 52001 60006 90000=
07335,1997-09-22 12:00:00,24,1020.8,-0.6,54,14,14000,7.408,,,110,,,,,,,,,,3,wg-a,,,,AAXX 22124 07335 12664 61104 10240 20140 30069 40208 58006 60006 70341 82232 91200=
07335,1997-09-22 18:00:00,21,1020.5,0.6,60,13,0,22.224,,,140,11.2,24.8,,,,,,,,,wg-a,,,,AAXX 22184 07335 12/// /1412 10210 20130 30065 40205 53006 60006 91800 333 10248 20112=
07335,1997-09-23 00:00:00,12,1021.1,-0.8,94,11,0,3.704,,,40,,,,,,,,,,,wg-a,,,,AAXX 23004 07335 12/// /0402 10120 20110 30066 40211 56008 60006 90000=
07335,1997-09-23 09:00:00,18,1020.9,0.3,68,12,25000,11.112,,,40,,,,0,,,,,,,wg-a,,,,AAXX 23094 07335 12/75 10406 10180 20120 30067 40209 50003 60007 80001 90900=
07335,1997-09-23 12:00:00,24,1019.8,-0.8,47,12,25000,14.816,,,60,,,,,,,,,,,wg-a,,,,AAXX 23124 07335 12/75 10608 10240 20120 30059 40198 58008 60006 80001 91200=
07335,1997-09-23 15:00:00,25,1018.7,-1,39,10,25000,14.816,,,50,,,,,,,,,,,wg-a,,,,AAXX 23154 07335 12775 10508 10250 20100 30049 40187 56010 60006 81201 91500=
07335,1997-09-24 00:00:00,17,1020.3,0.1,68,11,0,11.112,,,50,,,,,,,,,,,wg-a,,,,AAXX 24004 07335 12/// /0506 10170 20110 30061 40203 50001 60006 90000=
07335,1997-09-24 12:00:00,24,1019.6,-0.7,47,12,25000,18.52,,,90,,,,,,,,,,,wg-a,,,,AAXX 24124 07335 12/75 10910 10240 20120 30057 40196 58007 60006 80002 91200=
07335,1997-09-24 15:00:00,26,1018.2,-1.3,37,10,25000,11.112,,,70,,,,,,,,,,,wg-a,,,,AAXX 24154 07335 12/75 20706 10260 20100 30044 40182 56013 60006 81032 91500=
07335,1997-09-24 18:00:00,23,1018.5,0.2,47,11,0,11.112,,,70,10.5,26.1,,,,,,,,,wg-a,,,,AAXX 24184 07335 12/// /0706 10230 20110 30046 40185 53002 60006 91800 333 10261 20105=
07335,1997-09-25 00:00:00,13,1019.9,-0.2,82,10,0,7.408,,,20,,,,,,,,,,,wg-a,,,,AAXX 25004 07335 12/// /0204 10130 20100 30055 40199 58002 60006 90000=
07335,1997-09-25 06:00:00,9,1020.7,0.7,93,8,8000,7.408,,,30,8,23.3,,,,,,,,,wg-a,,,,AAXX 25064 07335 02/58 /0304 10090 20080 30061 40207 52007 60006 80002 90600 333 10233 20080 60004=
07335,1997-09-25 09:00:00,18,1021.2,0.9,64,11,15000,7.408,,,110,,,,,,,,,,,wg-a,,,,AAXX 25094 07335 12/65 11104 10180 20110 30070 40212 52009 60006 80002 90900=
07335,1997-09-25 12:00:00,24,1020.9,0,44,11,20000,7.408,,,80,,,,,,,,,,,wg-a,,,,AAXX 25124 07335 12/70 10804 10240 20110 30070 40209 50000 60006 80002 91200=
07335,1997-09-25 15:00:00,27,1020.1,-0.7,34,10,25000,11.112,,,70,,,,,,,,,,,wg-a,,,,AAXX 25154 07335 12/75 10706 10270 20100 30063 40201 56007 60006 80002 91500=
07335,1997-09-26 00:00:00,16,1022.1,-0.3,72,11,0,7.408,,,70,,,,,,,,,,,wg-a,,,,AAXX 26004 07335 12/// /0704 10160 20110 30078 40221 58003 60006 90000=
07335,1997-09-26 06:00:00,8,1022.2,0.1,100,8,15000,3.704,,,330,8,23.8,,,,,,,,,wg-a,,,,AAXX 26064 07335 02/65 03302 10080 20080 30075 40222 53001 60006 80000 90600 333 10238 20080 60004=
07335,1997-09-26 09:00:00,17,1022.1,0.4,72,12,15000,3.704,,,60,,,,,,,,,,,wg-a,,,,AAXX 26094 07335 12/65 00602 10170 20120 30079 40221 51004 60006 80000 90900=
07335,1997-09-26 12:00:00,25,1020.2,-1.5,47,13,25000,11.112,,,80,,,,,,,,,,,wg-a,,,,AAXX 26124 07335 12/75 10806 10250 20130 30064 40202 58015 60006 80001 91200=
07335,1997-09-26 15:00:00,27,1018.4,-1.7,37,11,500,3.704,,,210,,,,,,,,,,,wg-a,,,,AAXX 26154 07335 12/00 12102 10270 20110 30047 40184 56017 60006 80001 91500=
07335,1997-09-26 18:00:00,24,1018.1,-0.4,47,12,0,7.408,,,60,7.8,27.5,,,,,,,,,wg-a,,,,AAXX 26184 07335 12/// /0604 10240 20120 30043 40181 56004 60006 91800 333 10275 20078=
07335,1997-09-27 00:00:00,11,1018.1,-0.7,87,9,0,3.704,,,350,,,,,,,,,,,wg-a,,,,AAXX 27004 07335 12/// /3502 10110 20090 30036 40181 58007 60006 90000=
07335,1997-09-27 06:00:00,7,1016.9,-0.5,100,7,12000,3.704,,,330,7.2,24.2,,,,,,,,,wg-a,,,,AAXX 27064 07335 02/62 13302 10070 20070 30022 40169 56005 60006 80002 90600 333 10242 20072 60004=
07335,1997-09-27 12:00:00,27,1014.8,-1.2,34,10,20000,7.408,,,90,,,,,,,,,,,wg-a,,,,AAXX 27124 07335 12770 30904 10270 20100 30011 40148 56012 60006 81102 91200=
07335,1997-09-27 15:00:00,28,1013.1,-1.6,30,9,25000,3.704,,,150,,,,,,,,,,,wg-a,,,,AAXX 27154 07335 12/75 31502 10280 20090 39995 40131 56016 60006 81032 91500=
07335,1997-09-27 18:00:00,21,1013.7,0.3,49,10,0,3.704,,,60,7.3,28,,,,,,,,,wg-a,,,,AAXX 27184 07335 12/// /0602 10210 20100 39998 40137 53003 60006 91800 333 10280 20073=
07335,1997-09-28 00:00:00,12,1014.4,-0.1,88,10,0,3.704,,,330,,,,,,,,,,,wg-a,,,,AAXX 28004 07335 12/// /3302 10120 20100 30000 40144 58001 60006 90000=
07335,1997-09-28 09:00:00,18,1015.1,0.8,68,12,25000,3.704,,,120,,,,,,,,,,,wg-a,,,,AAXX 28094 07335 12/75 11202 10180 20120 30010 40151 51008 60006 81030 90900=
07335,1997-09-28 12:00:00,26,1014.3,-0.4,42,12,25000,7.408,,,40,,,,,,,,,,,wg-a,,,,AAXX 28124 07335 12/75 10404 10260 20120 30006 40143 58004 60006 80001 91200=
07335,1997-09-28 15:00:00,27,1013.6,-0.6,37,11,25000,7.408,,,90,,,,,,,,,,,wg-a,,,,AAXX 28154 07335 12775 10904 10270 20110 30000 40136 56006 60006 81101 91500=
07335,1997-09-28 18:00:00,23,1014.6,0.8,47,11,0,3.704,,,70,8.2,27.7,,,,,,,,,wg-a,,,,AAXX 28184 07335 12/// /0702 10230 20110 30008 40146 53008 60006 91800 333 10277 20082=
07335,1997-09-29 00:00:00,11,1017.6,0.9,94,10,0,0,,,0,,,,,,,,,,,wg-a,,,,AAXX 29004 07335 12/// /0000 10110 20100 30031 40176 51009 60006 90000=
07335,1997-09-29 06:00:00,9,1019.5,1.1,100,9,20000,3.704,,,350,8.8,23.2,,,,,,,,,wg-a,,,,AAXX 29064 07335 02/70 23502 10090 20090 30049 40195 53011 60006 81031 90600 333 10232 20088 60004=
07335,1997-09-29 09:00:00,19,1021,2,60,11,20000,3.704,,,70,,,,,,,,,,,wg-a,,,,AAXX 29094 07335 12/70 60702 10190 20110 30069 40210 51020 60006 81031 90900=
07335,1997-09-29 12:00:00,25,1020.6,-0.1,41,11,25000,3.704,,,70,,,,,,,,,,,wg-a,,,,AAXX 29124 07335 12/75 70702 10250 20110 30068 40206 58001 60006 80001 91200=
07335,1997-09-29 15:00:00,27,1020.5,-0.1,37,11,25000,11.112,,,90,,,,,,,,,,,wg-a,,,,AAXX 29154 07335 12/75 50906 10270 20110 30067 40205 58001 60006 80002 91500=
07335,1997-09-29 18:00:00,24,1021.5,0.9,41,10,0,7.408,,,80,8.9,26.9,,,,,,,,,wg-a,,,,AAXX 29184 07335 12/// /0804 10240 20100 30076 40215 53009 60006 91800 333 10269 20089=
07335,1997-09-30 06:00:00,7,1024.7,0.3,93,6,15000,3.704,,,360,6.2,23.5,,,,,,,,,wg-a,,,,AAXX 30064 07335 02/65 13602 10070 20060 30099 40247 53003 60006 81032 90600 333 10235 20062 60004=
07335,1997-09-30 09:00:00,17,1024.9,0.7,63,10,20000,0,,,0,,,,,,,,,,,wg-a,,,,AAXX 30094 07335 12/70 10000 10170 20100 30106 40249 53007 60006 81032 90900=
07335,1997-09-30 12:00:00,26,1024,-0.5,34,9,25000,14.816,,,90,,,,,,,,,,,wg-a,,,,AAXX 30124 07335 12/75 10908 10260 20090 30101 40240 56005 60006 81032 91200=
07335,1997-09-30 15:00:00,27,1022.9,-1,32,9,25000,14.816,,,60,,,,,,,,,,,wg-a,,,,AAXX 30154 07335 12/75 10608 10270 20090 30091 40229 56010 60006 80002 91500=
07335,1997-09-30 18:00:00,24,1022.6,-0.4,38,9,0,7.408,,,70,6.5,27.5,,,,,,,,,wg-a,,,,AAXX 30184 07335 12/// /0704 10240 20090 30087 40226 56004 60006 91800 333 10275 20065=
07335,1997-10-01 00:00:00,11,1023.2,-0.4,87,9,0,3.704,,,330,,,,,,,,,,,wg-a,,,,AAXX 01004 07335 12/// /3302 10110 20090 30086 40232 58004 60006 90000=
07335,1997-10-01 06:00:00,9,1022.6,-0.2,93,8,10000,3.704,,,10,8.4,23.9,,,,,,,,,wg-a,,,,AAXX 01064 07335 02/60 10102 10090 20080 30079 40226 56002 60006 80002 90600 333 10239 20084 60004=
07335,1997-10-01 12:00:00,25,1021,-0.9,44,12,20000,14.816,,,60,,,,,,,,,,,wg-a,,,,AAXX 01124 07335 12/70 20608 10250 20120 30072 40210 58009 60006 80002 91200=
07335,1997-10-01 15:00:00,27,1019.5,-1.4,34,10,20000,11.112,,,60,,,,,,,,,,,wg-a,,,,AAXX 01154 07335 12/70 20606 10270 20100 30058 40195 56014 60006 80002 91500=
07335,1997-10-01 18:00:00,22,1019.4,-0.3,46,10,0,3.704,,,60,8.6,27.1,,,,,,,,,wg-a,,,,AAXX 01184 07335 12/// /0602 10220 20100 30055 40194 55003 60006 91800 333 10271 20086=
07335,1997-10-02 00:00:00,13,1019.3,-0.4,77,9,0,3.704,,,330,,,,,,,,,,,wg-a,,,,AAXX 02004 07335 12/// /3302 10130 20090 30049 40193 58004 60006 90000=
07335,1997-10-02 06:00:00,10,1019,-0.1,93,9,10000,3.704,,,350,9.5,22.3,,,,,,,,,wg-a,,,,AAXX 02064 07335 02/60 03502 10100 20090 30044 40190 55001 60006 80000 90600 333 10223 20095 60004=
07335,1997-10-02 09:00:00,14,1020.2,1.5,100,14,1200,18.52,,,10,,,,,,,,,,50,wg-a,,,,AAXX 02094 07335 02012 80110 10140 20140 30059 40202 53015 61000 75051 886// 90900 333 ////=
07335,1997-10-02 15:00:00,20,1018.7,-1.2,73,15,25000,18.52,,,30,,,,,,,,,,,wg-a,,,,AAXX 02154 07335 12575 /0310 10200 20150 30047 40187 56012 60006 81100 91500=
07335,1997-10-02 18:00:00,18,1018.8,-0,77,14,0,14.816,,,30,9.5,20.3,,,,,,,,,wg-a,,,,AAXX 02184 07335 32/// /0308 10180 20140 30047 40188 55000 91800 333 10203 20095=
07335,1997-10-03 00:00:00,11,1019.1,-0.4,100,11,0,3.704,,,350,,,,,,,,,,,wg-a,,,,AAXX 03004 07335 12/// /3502 10110 20110 30046 40191 56004 60006 90000=
07335,1997-10-03 06:00:00,9,1019.3,0.4,100,9,6000,7.408,,,10,8.5,17.8,,,,,,,,,wg-a,,,,AAXX 03064 07335 02/56 00104 10090 20090 30047 40193 53004 60006 80000 90600 333 10178 20085 61000=
07335,1997-10-03 09:00:00,16,1019.9,0.9,77,12,10000,3.704,,,50,,,,,,,,,,,wg-a,,,,AAXX 03094 07335 12/60 00502 10160 20120 30056 40199 51009 60006 80000 90900=
07335,1997-10-03 12:00:00,22,1019.1,-0.4,60,14,15000,14.816,,,40,,,,,,,,,,,wg-a,,,,AAXX 03124 07335 12/65 00408 10220 20140 30052 40191 58004 60006 80000 91200=
07335,1997-10-03 18:00:00,21,1019.3,1,53,11,0,11.112,,,60,8.6,24.1,,,,,,,,,wg-a,,,,AAXX 03184 07335 12/// /0606 10210 20110 30053 40193 53010 60006 91800 333 10241 20086=
07335,1997-10-04 00:00:00,12,1021.5,0.3,76,8,0,7.408,,,50,,,,,,,,,,,wg-a,,,,AAXX 04004 07335 12/// /0504 10120 20080 30070 40215 50003 60006 90000=
07335,1997-10-04 06:00:00,7,1022.6,0.4,93,6,15000,3.704,,,40,6.5,20.4,,,,,,,,,wg-a,,,,AAXX 04064 07335 02/65 00402 10070 20060 30078 40226 53004 60006 80000 90600 333 10204 20065 60004=
07335,1997-10-04 09:00:00,16,1023.2,1.1,59,8,25000,18.52,,,90,,,,,,,,,,,wg-a,,,,AAXX 04094 07335 12/75 00910 10160 20080 30089 40232 51011 60006 80000 90900=
07335,1997-10-04 12:00:00,20,1022.2,-0.8,49,9,500,18.52,,,70,,,,,,,,,,,wg-a,,,,AAXX 04124 07335 12/00 00710 10200 20090 30081 40222 58008 60006 80000 91200=
07335,1997-10-04 15:00:00,21,1020.6,-1.5,46,9,500,14.816,,,90,,,,,,,,,,,wg-a,,,,AAXX 04154 07335 12/00 00908 10210 20090 30066 40206 56015 60006 80000 91500=
07335,1997-10-05 00:00:00,13,1019.4,-1,72,8,0,7.408,,,70,,,,,,,,,,,wg-a,,,,AAXX 05004 07335 12/// /0704 10130 20080 30050 40194 58010 60006 90000=
07335,1997-10-05 09:00:00,14,1016.9,-0.1,72,9,12000,11.112,,,100,,,,,,,,,,,wg-a,,,,AAXX 05094 07335 12/62 01006 10140 20090 30026 40169 58001 60006 80000 90900=
07335,1997-10-05 15:00:00,25,1011.9,-2.8,36,9,25000,7.408,,,130,,,,,,,,,,,wg-a,,,,AAXX 05154 07335 12/75 01304 10250 20090 39982 40119 56028 60006 80000 91500=
07335,1997-10-05 18:00:00,20,1010.7,-1.4,53,10,0,3.704,,,80,6.1,24.8,,,,,,,,,wg-a,,,,AAXX 05184 07335 12/// /0802 10200 20100 39968 40107 56014 60006 91800 333 10248 20061=
07335,1997-10-06 00:00:00,16,1009.2,-1,77,12,0,7.408,,,160,,,,,,,,,,,wg-a,,,,AAXX 06004 07335 12/// /1604 10160 20120 39951 40092 56010 60006 90000=
07335,1997-10-06 06:00:00,16,1006.4,-0.9,88,14,15000,11.112,,,170,15.1,20.1,,,,,,,,,wg-a,,,,AAXX 06064 07335 02/65 31706 10160 20140 39923 40064 56009 60006 81032 90600 333 10201 20151 60004=
07335,1997-10-06 09:00:00,22,1005.6,-0.4,69,16,15000,22.224,,,190,,,,,,,,,,,wg-a,,,,AAXX 06094 07335 12/65 61912 10220 20160 39919 40056 58004 60006 81032 90900=
07335,1997-10-06 12:00:00,24,1005.4,-0.2,65,17,18000,25.928,,,220,,,,,,,,,,,wg-a,,,,AAXX 06124 07335 12668 72214 10240 20170 39917 40054 58002 60006 81182 91200=
07335,1997-10-06 18:00:00,17,1004.9,-0,100,17,0,7.408,,,180,15.4,24.5,,,,,,,,,wg-a,,,,AAXX 06184 07335 32/// /1804 10170 20170 39909 40049 55000 91800 333 10245 20154=
07335,1997-10-07 09:00:00,17,1006,1.8,100,17,12000,22.224,,,220,,,,1,,,,,,80,wg-a,,,,AAXX 07094 07335 12362 72212 10170 20170 39920 40060 52018 60017 78086 875// 90900=
07335,1997-10-07 12:00:00,20,1007.2,1.3,78,16,500,25.928,,,240,,,,0,,,,,,16,wg-a,,,,AAXX 07124 07335 02500 32414 10200 20160 39933 40072 51013 60016 71686 83901 91200 333 60007=
07335,1997-10-07 15:00:00,19,1008.8,1.5,68,13,11000,25.928,,,240,,,,0,,,,,,,wg-a,,,,AAXX 07154 07335 12/61 /2414 10190 20130 39948 40088 51015 60007 91500=
07335,1997-10-07 18:00:00,16,1010.6,1.7,82,13,0,14.816,,,230,16,20.4,,,,,,,,,wg-a,,,,AAXX 07184 07335 32/// /2308 10160 20130 39965 40106 52017 91800 333 10204 20160=
07335,1997-10-08 00:00:00,15,1012.7,0.3,94,14,0,11.112,,,200,,,,,,,,,,,wg-a,,,,AAXX 08004 07335 12/// /2006 10150 20140 39985 40127 50003 60006 90000=
07335,1997-10-08 06:00:00,16,1012.8,0.1,94,15,20000,14.816,,,190,14.2,16.2,,,,,1,,,,wg-a,,,,AAXX 08064 07335 02670 71908 10160 20150 39986 40128 51001 60006 8357/ 90600 333 10162 20142 60014=
07335,1997-10-08 09:00:00,18,1013.4,0.7,88,16,20000,22.224,,,200,,,,,,,,,,,wg-a,,,,AAXX 08094 07335 12670 82012 10180 20160 39993 40134 53007 60006 8657/ 90900=
07335,1997-10-08 12:00:00,21,1012.5,-0.7,69,15,20000,29.632,,,220,,,,,,,,,,,wg-a,,,,AAXX 08124 07335 12570 72216 10210 20150 39986 40125 58007 60006 8587/ 91200=
07335,1997-10-08 15:00:00,21,1012.4,-0.1,64,14,20000,31.484,,,240,,,,,,,,,,,wg-a,,,,AAXX 08154 07335 12670 72417 10210 20140 39985 40124 55001 60006 8287/ 91500=
07335,1997-10-08 18:00:00,19,1013.2,0.7,68,13,0,18.52,,,220,15.5,21.9,,,,,,,,,wg-a,,,,AAXX 08184 07335 12/// /2210 10190 20130 39992 40132 53007 60006 91800 333 10219 20155=
07335,1997-10-09 00:00:00,17,1013.5,-0.2,82,14,0,11.112,,,210,,,,,,,,,,,wg-a,,,,AAXX 09004 07335 12/// /2106 10170 20140 39994 40135 58002 60006 90000=
07335,1997-10-09 06:00:00,17,1014.6,1.3,82,14,20000,22.224,,,230,15.6,19.3,,,,,,,,3,wg-a,,,,AAXX 09064 07335 02670 72312 10170 20140 30005 40146 52013 60006 70362 875// 90600 333 10193 20156 61000=
07335,1997-10-09 09:00:00,17,1016,1.4,100,17,6000,18.52,,,230,,,,0,,,,,,51,wg-a,,,,AAXX 09094 07335 12256 82310 10170 20170 30019 40160 51014 60007 75152 877// 90900=
07335,1997-10-09 12:00:00,23,1016.4,0.6,69,17,25000,35.188,,,250,,,,,,,,,,1,wg-a,,,,AAXX 09124 07335 02575 22519 10230 20170 30025 40164 51006 60006 70151 82800 91200 333 61000=
07335,1997-10-09 15:00:00,22,1016.7,0.3,65,15,500,35.188,,53.708,260,,,,,,,,,,,wg-a,,,,AAXX 09154 07335 12500 /2619 10220 20150 30028 40167 53003 60006 81230 91500 333 91029=
07335,1997-10-09 18:00:00,19,1017.4,0.5,83,16,0,25.928,,,240,15.6,23.5,,,,,,,,,wg-a,,,,AAXX 09184 07335 32/// /2414 10190 20160 30033 40174 53005 91800 333 10235 20156=
07335,1997-10-10 00:00:00,19,1015.6,-1.5,94,18,0,25.928,,,240,,,,,,,,,,,wg-a,,,,AAXX 10004 07335 12/// /2414 10190 20180 30016 40156 58015 60006 90000=
07335,1997-10-10 06:00:00,18,1011.3,-2.5,94,17,8000,25.928,,,230,17.8,19.1,,,,,,,,60,wg-a,,,,AAXX 10064 07335 02458 82314 10180 20170 39973 40113 56025 61000 76062 885// 90600 333 10191 20178 6001=
07335,1997-10-10 09:00:00,18,1010.9,-0.4,100,18,3500,25.928,,,240,,,,4,,,,,,51,wg-a,,,,AAXX 10094 07335 12235 82414 10180 20180 39969 40109 57004 60047 75165 887// 90900=
07335,1997-10-10 12:00:00,21,1011.1,0.4,88,19,500,25.928,,,270,,,,0,,,,,,1,wg-a,,,,AAXX 10124 07335 02400 72714 10210 20190 39973 40111 53004 60046 70165 875// 91200 333 60007=
07335,1997-10-10 15:00:00,22,1011.5,0.4,78,18,500,22.224,,,280,,,,,,,,,,,wg-a,,,,AAXX 10154 07335 12400 62812 10220 20180 39977 40115 52004 60006 86800 91500=
07335,1997-10-10 18:00:00,18,1013.9,2.2,88,16,0,14.816,,,280,17.4,21.9,,,,,,,,,wg-a,,,,AAXX 10184 07335 32/// /2808 10180 20160 39999 40139 53022 91800 333 10219 20174=
07335,1997-10-11 00:00:00,12,1017.1,0.6,88,10,0,7.408,,,350,,,,,,,,,,,wg-a,,,,AAXX 11004 07335 12/// /3504 10120 20100 30027 40171 51006 60006 90000=
07335,1997-10-11 06:00:00,8,1015.1,-1.2,100,8,10000,7.408,,,210,8.3,18.1,,,,,4,,,11,wg-a,,,,AAXX 11064 07335 02460 72104 10080 20080 30005 40151 58012 60006 71111 82532 90600 333 10181 20083 60044=
07335,1997-10-11 09:00:00,14,1013.9,-0.9,100,14,8000,14.816,,,210,,,,,,,,,,61,wg-a,,,,AAXX 11094 07335 02458 72108 10140 20140 39996 40139 58009 61000 76162 8457/ 90900 333 ////=
07335,1997-10-11 12:00:00,15,1010.8,-2.9,100,15,10000,18.52,,,210,,,,1,,,,,,21,wg-a,,,,AAXX 11124 07335 02360 82110 10150 20150 39967 40108 58029 60016 72162 8552/ 91200 333 60017=
07335,1997-10-11 15:00:00,18,1006.8,-3.8,100,18,500,22.224,,,230,,,,,,,,,,61,wg-a,,,,AAXX 11154 07335 02300 72312 10180 20180 39929 40068 56038 61000 76162 875// 91500 333 ////=
07335,1997-10-11 18:00:00,18,1006.3,-0.5,94,17,0,25.928,,,260,8.3,18.9,,,,,,,,,wg-a,,,,AAXX 11184 07335 32/// /2614 10180 20170 39924 40063 55005 91800 333 10189 20083=
07335,1997-10-12 00:00:00,14,1006.9,0.5,82,11,0,29.632,,,280,,,,0,,,,,,,wg-a,,,,AAXX 12004 07335 02/// /2816 10140 20110 39927 40069 53005 60016 90000 333 60007=
07335,1997-10-12 06:00:00,13,1006.3,0.1,88,11,11000,29.632,,,280,12.9,18,,,,,,,,25,wg-a,,,,AAXX 12064 07335 02/61 /2816 10130 20110 39921 40063 53001 61000 72586 90600 333 10180 20129 6001=
07335,1997-10-12 09:00:00,14,1009.1,2.8,82,11,20000,35.188,,53.708,300,,,,,,,,,,,wg-a,,,,AAXX 12094 07335 12470 83019 10140 20110 39949 40091 53028 60006 888// 90900 333 91029=
07335,1997-10-12 12:00:00,16,1012.8,3.7,68,10,25000,25.928,,,340,,,,,,,,,,,wg-a,,,,AAXX 12124 07335 12575 73414 10160 20100 39986 40128 51037 60006 86842 91200=
07335,1997-10-12 18:00:00,11,1017.4,1.7,94,10,0,14.816,,,330,11.4,16.7,,,,,,,,,wg-a,,,,AAXX 12184 07335 12/// /3308 10110 20100 30029 40174 53017 60006 91800 333 10167 20114=
07335,1997-10-13 00:00:00,8,1019.9,0.8,93,7,0,14.816,,,340,,,,,,,,,,,wg-a,,,,AAXX 13004 07335 12/// /3408 10080 20070 30052 40199 51008 60006 90000=
07335,1997-10-13 06:00:00,8,1020.3,0.4,93,7,20000,7.408,,,310,5.4,11.6,,,,,,,,,wg-a,,,,AAXX 13064 07335 02670 83104 10080 20070 30056 40203 52004 60006 875// 90600 333 10116 20054 60004=
07335,1997-10-13 09:00:00,10,1021.2,1,87,8,20000,18.52,,,330,,,,,,,,,,,wg-a,,,,AAXX 13094 07335 12470 73310 10100 20080 30066 40212 53010 60006 878// 90900=
07335,1997-10-13 12:00:00,12,1020.9,-0.2,58,4,20000,25.928,,,340,,,,,,,,,,,wg-a,,,,AAXX 13124 07335 12570 73414 10120 20040 30064 40209 58002 60006 878// 91200=
07335,1997-10-13 15:00:00,12,1020.5,-0.4,71,7,25000,22.224,,,320,,,,,,,,,,,wg-a,,,,AAXX 13154 07335 12575 73212 10120 20070 30060 40205 55004 60006 878// 91500=
07335,1997-10-13 18:00:00,9,1021,0.4,93,8,0,11.112,,,250,7.4,13.4,,,,,,,,,wg-a,,,,AAXX 13184 07335 32/// /2506 10090 20080 30064 40210 53004 91800 333 10134 20074=
07335,1997-10-14 00:00:00,8,1023.5,1.5,93,7,0,18.52,,,10,,,,,,,,,,,wg-a,,,,AAXX 14004 07335 12/// /0110 10080 20070 30088 40235 53015 60006 90000=
07335,1997-10-14 06:00:00,4,1026.5,1.7,100,4,7000,11.112,,,340,3.6,10.7,,,,,,,,11,wg-a,,,,AAXX 14064 07335 02757 /3406 10040 20040 30115 40265 53017 60006 71100 81500 90600 333 10107 20036 61000=
07335,1997-10-14 15:00:00,12,1026,-1.5,54,3,25000,14.816,,,350,,,,,,,,,,,wg-a,,,,AAXX 14154 07335 12675 43508 10120 20030 30114 40260 56015 60006 84232 91500=
07335,1997-10-14 18:00:00,8,1026.2,-0,71,3,0,11.112,,,300,3.7,13.1,,,,,,,,,wg-a,,,,AAXX 14184 07335 12/// /3006 10080 20030 30114 40262 55000 60006 91800 333 10131 20037=
07335,1997-10-15 00:00:00,9,1024.8,-1.4,81,6,0,11.112,,,260,,,,,,,,,,,wg-a,,,,AAXX 15004 07335 12/// /2606 10090 20060 30101 40248 58014 60006 90000=
07335,1997-10-15 06:00:00,8,1020.4,-2,93,7,4000,14.816,,,210,7,8.6,,,,,,,,61,wg-a,,,,AAXX 15064 07335 02340 82108 10080 20070 30057 40204 56020 61000 76162 875// 90600 333 10086 20070 6003=
07335,1997-10-15 09:00:00,9,1018.5,-1.8,100,9,3000,14.816,,,220,,,,2,,,,,,51,wg-a,,,,AAXX 15094 07335 12230 82208 10090 20090 30039 40185 58018 60027 75166 885// 90900=
07335,1997-10-15 12:00:00,14,1015.5,-2.7,94,13,10000,29.632,,,240,,,,0,,,,,,20,wg-a,,,,AAXX 15124 07335 02260 82416 10140 20130 30012 40155 56027 60036 72065 887// 91200 333 60007=
07335,1997-10-15 15:00:00,16,1013.4,-1.9,100,16,6000,18.52,,,280,,,,1,,,,,,61,wg-a,,,,AAXX 15154 07335 12356 72810 10160 20160 39993 40134 56019 60017 76165 877// 91500=
07335,1997-10-15 18:00:00,15,1013.4,-0.1,94,14,0,14.816,,,270,7.4,16.9,,,,,,,,,wg-a,,,,AAXX 15184 07335 32/// /2708 10150 20140 39992 40134 55001 91800 333 10169 20074=
07335,1997-10-16 00:00:00,10,1015.7,0.6,100,10,0,7.408,,,300,,,,,,,,,,,wg-a,,,,AAXX 16004 07335 12/// /3004 10100 20100 30012 40157 53006 60006 90000=
07335,1997-10-16 09:00:00,13,1017.4,1.1,94,12,20000,7.408,,,310,,,,,,,,,,,wg-a,,,,AAXX 16094 07335 12370 73104 10130 20120 30030 40174 53011 60006 875// 90900=
07335,1997-10-16 12:00:00,17,1016.8,-0.4,72,12,500,3.704,,,260,,,,,,,,,,,wg-a,,,,AAXX 16124 07335 12400 62602 10170 20120 30026 40168 58004 60006 86801 91200=
07335,1997-10-16 15:00:00,18,1015.8,-0.9,68,12,500,11.112,,,220,,,,,,,,,,,wg-a,,,,AAXX 16154 07335 12500 22206 10180 20120 30017 40158 56009 60006 82801 91500=
07335,1997-10-17 00:00:00,10,1015.6,-1.3,100,10,0,7.408,,,160,,,,,,,,,,,wg-a,,,,AAXX 17004 07335 12/// /1604 10100 20100 30011 40156 56013 60006 90000=
07335,1997-10-17 06:00:00,8,1013.8,-0.6,100,8,20000,7.408,,,150,8.4,13.1,,,,,,,,,wg-a,,,,AAXX 17064 07335 02/70 31504 10080 20080 39992 40138 56006 60006 80002 90600 333 10131 20084 60004=
07335,1997-10-17 09:00:00,13,1013.8,0.3,88,11,25000,11.112,,,160,,,,,,,,,,,wg-a,,,,AAXX 17094 07335 12/75 41606 10130 20110 39995 40138 50003 60006 81032 90900=
07335,1997-10-17 12:00:00,20,1012.6,-0.9,60,12,25000,18.52,,,160,,,,,,,,,,,wg-a,,,,AAXX 17124 07335 12/75 51610 10200 20120 39986 40126 57009 60006 81032 91200=
07335,1997-10-17 15:00:00,22,1011.2,-1.2,50,11,25000,18.52,,,160,,,,,,,,,,,wg-a,,,,AAXX 17154 07335 12/75 41610 10220 20110 39974 40112 56012 60006 80002 91500=
07335,1997-10-17 18:00:00,18,1012.5,1,68,12,0,11.112,,,140,8.2,22.5,,,,,,,,,wg-a,,,,AAXX 17184 07335 12/// /1406 10180 20120 39984 40125 53010 60006 91800 333 10225 20082=
07335,1997-10-18 00:00:00,13,1014.3,0.8,88,11,0,7.408,,,150,,,,,,,,,,,wg-a,,,,AAXX 18004 07335 12/// /1504 10130 20110 30000 40143 51008 60006 90000=
07335,1997-10-18 06:00:00,11,1016.2,1.3,94,10,25000,7.408,,,120,11.2,17.5,,,,,,,,,wg-a,,,,AAXX 18064 07335 02/75 11204 10110 20100 30018 40162 52013 60006 80001 90600 333 10175 20112 60004=
07335,1997-10-18 09:00:00,17,1017.4,1.4,77,13,25000,11.112,,,150,,,,,,,,,,,wg-a,,,,AAXX 18094 07335 12/75 11506 10170 20130 30032 40174 51014 60006 80001 90900=
07335,1997-10-18 12:00:00,23,1016.3,-0.8,57,14,25000,22.224,,,170,,,,,,,,,,,wg-a,,,,AAXX 18124 07335 12/75 11712 10230 20140 30024 40163 58008 60006 80001 91200=
07335,1997-10-18 15:00:00,24,1016.2,-0,54,14,25000,18.52,,,160,,,,,,,,,,,wg-a,,,,AAXX 18154 07335 12/75 11610 10240 20140 30024 40162 55000 60006 80001 91500=
07335,1997-10-18 18:00:00,19,1016.8,0.3,78,15,0,11.112,,,160,11.1,24.4,,,,,,,,,wg-a,,,,AAXX 18184 07335 12/// /1606 10190 20150 30027 40168 53003 60006 91800 333 10244 20111=
07335,1997-10-19 00:00:00,15,1016,-0.9,82,12,0,11.112,,,150,,,,,,,,,,,wg-a,,,,AAXX 19004 07335 12/// /1506 10150 20120 30017 40160 58009 60006 90000=
07335,1997-10-19 09:00:00,15,1016.1,0.9,77,11,25000,11.112,,,170,,,,,,,,,,,wg-a,,,,AAXX 19094 07335 12/75 71706 10150 20110 30018 40161 53009 60006 83032 90900=
07335,1997-10-19 12:00:00,19,1014.9,-0.9,68,13,25000,14.816,,,180,,,,,,,,,,,wg-a,,,,AAXX 19124 07335 12/75 81808 10190 20130 30009 40149 57009 60006 88032 91200=
07335,1997-10-19 15:00:00,20,1014.8,-0.1,68,14,25000,11.112,,,170,,,,,,,,,,,wg-a,,,,AAXX 19154 07335 12/75 71706 10200 20140 30008 40148 57001 60006 85038 91500=
07335,1997-10-19 18:00:00,18,1014,-0.9,83,15,0,7.408,,,120,11,20.2,,,,,,,,,wg-a,,,,AAXX 19184 07335 32/// /1204 10180 20150 39999 40140 58009 91800 333 10202 20110=
07335,1997-10-20 00:00:00,15,1013.7,-0.5,94,14,0,7.408,,,160,,,,,,,,,,,wg-a,,,,AAXX 20004 07335 12/// /1604 10150 20140 39995 40137 58005 60006 90000=
07335,1997-10-20 06:00:00,15,1011.3,-1.3,100,15,500,7.408,,,130,13.9,17.8,,,,,,,,61,wg-a,,,,AAXX 20064 07335 02500 81304 10150 20150 39971 40113 58013 61000 76162 8257/ 90600 333 10178 20139 6002=
07335,1997-10-20 09:00:00,17,1010.7,-0.5,88,15,20000,11.112,,,120,,,,,,,,,,2,wg-a,,,,AAXX 20094 07335 02/70 81206 10170 20150 39966 40107 56005 61000 70262 8707/ 90900 333 ////=
07335,1997-10-20 12:00:00,21,1008.9,-1.6,69,15,20000,18.52,,,130,,,,,,,,,,3,wg-a,,,,AAXX 20124 07335 02/70 71310 10210 20150 39950 40089 58016 61000 70362 84072 91200 333 ////=
07335,1997-10-20 15:00:00,21,1007.7,-1.1,73,16,500,14.816,,,110,,,,,,,,,,,wg-a,,,,AAXX 20154 07335 12/00 61108 10210 20160 39939 40077 56011 60006 83072 91500=
07335,1997-10-21 00:00:00,17,1007.7,0.2,88,15,0,11.112,,,100,,,,,,,,,,,wg-a,,,,AAXX 21004 07335 12/// /1006 10170 20150 39937 40077 50002 60006 90000=
07335,1997-10-21 06:00:00,15,1007.8,-0.1,100,15,7000,11.112,,,80,14.8,19.2,,,,,,,,61,wg-a,,,,AAXX 21064 07335 02257 80806 10150 20150 39937 40078 57001 61000 76162 877// 90600 333 10192 20148 6001=
07335,1997-10-21 09:00:00,15,1009.7,1.8,94,14,4500,14.816,,,90,,,,,,,,,,10,wg-a,,,,AAXX 21094 07335 02245 80908 10150 20140 39955 40097 51018 61000 71062 876// 90900 333 ////=
07335,1997-10-21 12:00:00,16,1009.6,-0,88,14,4500,14.816,,,70,,,,,,,,,,10,wg-a,,,,AAXX 21124 07335 02345 80708 10160 20140 39955 40096 55000 61000 71062 876// 91200 333 ////=
07335,1997-10-21 15:00:00,16,1010.3,0.7,88,14,4500,14.816,,,60,,,,,,,,,,10,wg-a,,,,AAXX 21154 07335 12445 80608 10160 20140 39962 40103 51007 60006 71022 875// 91500=
07335,1997-10-21 18:00:00,15,1011.3,0.9,88,13,0,11.112,,,70,14.5,16.2,,,,,,,,,wg-a,,,,AAXX 21184 07335 32/// /0706 10150 20130 39971 40113 53009 91800 333 10162 20145=
07335,1997-10-22 00:00:00,13,1011.5,-0.2,94,12,0,7.408,,,30,,,,,,,,,,,wg-a,,,,AAXX 22004 07335 12/// /0304 10130 20120 39972 40115 58002 60006 90000=
07335,1997-10-22 06:00:00,12,1010,-0.7,94,11,6000,3.704,,,350,11.1,14.6,,,,,,,,,wg-a,,,,AAXX 22064 07335 02456 83502 10120 20110 39957 40100 56007 60006 885// 90600 333 10146 20111 61000=
07335,1997-10-22 09:00:00,13,1011,1,94,12,500,3.704,,,40,,,,0,,,,,,60,wg-a,,,,AAXX 22094 07335 12200 80402 10130 20120 39967 40110 51010 60007 76062 885// 90900=
07335,1997-10-22 12:00:00,15,1010.5,-0.4,88,13,8000,7.408,,,70,,,,,,,,,,3,wg-a,,,,AAXX 22124 07335 02458 80704 10150 20130 39963 40105 57004 60006 70362 885// 91200 333 61000=
07335,1997-10-22 15:00:00,15,1010,-0.4,88,13,8000,7.408,,,50,,,,,,,,,,,wg-a,,,,AAXX 22154 07335 12458 80504 10150 20130 39959 40100 55004 60006 885// 91500=
07335,1997-10-23 00:00:00,13,1011.5,0.1,94,12,0,7.408,,,60,,,,,,,,,,,wg-a,,,,AAXX 23004 07335 12/// /0604 10130 20120 39972 40115 53001 60006 90000=
07335,1997-10-23 06:00:00,12,1010.8,-0,100,12,1200,11.112,,,30,11.9,14.4,,,,,2,,,10,wg-a,,,,AAXX 23064 07335 02112 80306 10120 20120 39965 40108 55000 60006 71062 887// 90600 333 10144 20119 60024=
07335,1997-10-23 09:00:00,12,1012,1.2,100,12,2500,14.816,,,30,,,,,,,,,,,wg-a,,,,AAXX 23094 07335 12/25 /0308 10120 20120 39977 40120 51012 60006 90900=
07335,1997-10-23 12:00:00,14,1012.1,0.2,94,13,500,11.112,,,20,,,,,,,,,,,wg-a,,,,AAXX 23124 07335 12400 80206 10140 20130 39979 40121 50002 60006 885// 91200=
07335,1997-10-23 15:00:00,14,1012,-0.1,88,12,500,14.816,,,10,,,,,,,,,,,wg-a,,,,AAXX 23154 07335 12300 80108 10140 20120 39978 40120 55001 60006 885// 91500=
07335,1997-10-23 18:00:00,13,1013.7,1.6,88,11,0,14.816,,,30,11.7,14.6,,,,,,,,,wg-a,,,,AAXX 23184 07335 12/// /0308 10130 20110 39994 40137 53016 60006 91800 333 10146 20117=
07335,1997-10-24 00:00:00,9,1016.5,1.2,93,8,0,7.408,,,50,,,,,,,,,,,wg-a,,,,AAXX 24004 07335 12/// /0504 10090 20080 30019 40165 51012 60006 90000=
07335,1997-10-24 06:00:00,2,1019.9,1.9,100,2,3000,11.112,,,30,2.3,12.8,,,,,,,,10,wg-a,,,,AAXX 24064 07335 02/30 00306 10020 20020 30049 40199 53019 60006 71000 80000 90600 333 10128 20023 60004=
07335,1997-10-24 12:00:00,11,1021.9,0.3,58,3,20000,29.632,,,80,,,,,,,,,,,wg-a,,,,AAXX 24124 07335 12670 /0816 10110 20030 30074 40219 51003 60006 81500 91200=
07335,1997-10-24 18:00:00,9,1023.7,1.1,71,4,0,14.816,,,60,2.2,12.3,,,,,,,,,wg-a,,,,AAXX 24184 07335 12/// /0608 10090 20040 30090 40237 52011 60006 91800 333 10123 20022=
07335,1997-10-25 00:00:00,5,1025,-0.1,81,2,0,18.52,,,50,,,,,,,,,,,wg-a,,,,AAXX 25004 07335 12/// /0510 10050 20020 30101 40250 56001 60006 90000=
07335,1997-10-25 06:00:00,3,1026.1,0.6,87,1,20000,11.112,,,70,3.3,9.1,,,,,,,,,wg-a,,,,AAXX 25064 07335 02/70 00706 10030 20010 30111 40261 53006 60006 80000 90600 333 10091 20033 60004=
07335,1997-10-25 09:00:00,6,1026.6,0.6,70,1,500,18.52,,,80,,,,,,,,,,,wg-a,,,,AAXX 25094 07335 12/00 00810 10060 20010 30117 40266 50006 60006 80000 90900=
07335,1997-10-25 12:00:00,11,1025.3,-1,54,2,500,22.224,,,90,,,,,,,,,,,wg-a,,,,AAXX 25124 07335 12/00 00912 10110 20020 30107 40253 58010 60006 80000 91200=
07335,1997-10-25 15:00:00,13,1024.3,-0.9,41,0,500,22.224,,,60,,,,,,,,,,,wg-a,,,,AAXX 25154 07335 12/00 00612 10130 20000 30098 40243 57009 60006 80000 91500=
07335,1997-10-26 06:00:00,1,1022.4,-0.5,86,-1,20000,7.408,,,60,1.2,9.2,,,,,,,,,wg-a,,,,AAXX 26064 07335 02/70 00604 10010 21010 30073 40224 58005 60006 80000 90600 333 10092 20012 60004=
07335,1997-10-26 09:00:00,7,1022.6,0.5,70,2,20000,14.816,,,90,,,,,,,,,,,wg-a,,,,AAXX 26094 07335 12/70 00908 10070 20020 30078 40226 51005 60006 80000 90900=
07335,1997-10-26 12:00:00,14,1021.2,-1,51,4,25000,14.816,,,90,,,,,,,,,,,wg-a,,,,AAXX 26124 07335 12/75 00908 10140 20040 30068 40212 58010 60006 80000 91200=
07335,1997-10-26 15:00:00,16,1019.7,-1.4,45,4,25000,18.52,,,90,,,,,,,,,,,wg-a,,,,AAXX 26154 07335 12/75 00910 10160 20040 30054 40197 56014 60006 80000 91500=
07335,1997-10-26 18:00:00,11,1020.3,0.4,62,4,0,14.816,,,70,-0.3,16.6,,,,,,,,,wg-a,,,,AAXX 26184 07335 12/// /0708 10110 20040 30058 40203 53004 60006 91800 333 10166 21003=
07335,1997-10-27 00:00:00,6,1019.8,-0.7,81,3,0,7.408,,,50,,,,,,,,,,,wg-a,,,,AAXX 27004 07335 12/// /0504 10060 20030 30050 40198 56007 60006 90000=
07335,1997-10-27 09:00:00,8,1019.6,0.5,81,5,25000,18.52,,,70,,,,,,,,,,,wg-a,,,,AAXX 27094 07335 12/75 10710 10080 20050 30049 40196 51005 60006 81030 90900=
07335,1997-10-27 12:00:00,13,1018.5,-0.8,58,5,500,18.52,,,70,,,,,,,,,,,wg-a,,,,AAXX 27124 07335 12/00 10710 10130 20050 30041 40185 58008 60006 81030 91200=
07335,1997-10-27 15:00:00,14,1017.7,-0.7,58,6,500,25.928,,,70,,,,,,,,,,,wg-a,,,,AAXX 27154 07335 12/00 10714 10140 20060 30034 40177 56007 60006 80001 91500=
07335,1997-10-27 18:00:00,12,1018.7,0.8,58,4,500,14.816,,,70,2,14.5,,,,,,,,,wg-a,,,,AAXX 27184 07335 12/00 20708 10120 20040 30042 40187 53008 60006 80001 91800 333 10145 20020=
07335,1997-10-28 00:00:00,7,1019.6,0.2,81,4,0,18.52,,,60,,,,,,,,,,,wg-a,,,,AAXX 28004 07335 12/// /0610 10070 20040 30049 40196 50002 60006 90000=
07335,1997-10-28 06:00:00,2,1021,0.8,80,-1,25000,25.928,,,60,1.5,11.7,,,,,,,,,wg-a,,,,AAXX 28064 07335 02/75 10614 10020 21010 30059 40210 53008 60006 80001 90600 333 10117 20015 60004=
07335,1997-10-28 12:00:00,6,1023.1,0.9,56,-2,25000,29.632,,,50,,,,,,,,,,,wg-a,,,,AAXX 28124 07335 12/75 10516 10060 21020 30083 40231 51009 60006 80001 91200=
07335,1997-10-28 15:00:00,8,1023.8,0.7,42,-4,500,29.632,,,60,,,,,,,,,,,wg-a,,,,AAXX 28154 07335 12/00 00616 10080 21040 30090 40238 53007 60006 80000 91500=
07335,1997-10-28 18:00:00,5,1026.6,2.7,52,-4,10000,18.52,,,50,0.8,8,,,,,,,,,wg-a,,,,AAXX 28184 07335 12/60 /0510 10050 21040 30117 40266 53027 60006 91800 333 10080 20008=
07335,1997-10-29 00:00:00,2,1029.2,1,51,-7,0,14.816,,,50,,,,,,,,,,,wg-a,,,,AAXX 29004 07335 12/// /0508 10020 21070 30140 40292 51010 60006 90000=
07335,1997-10-29 09:00:00,1,1031.2,1.1,59,-6,25000,14.816,,,60,,,,,,,,,,,wg-a,,,,AAXX 29094 07335 12/75 00608 10010 21060 30160 40312 51011 60006 80000 90900=
07335,1997-10-29 12:00:00,6,1030.4,-0.6,49,-4,25000,18.52,,,40,,,,,,,,,,,wg-a,,,,AAXX 29124 07335 12/75 00410 10060 21040 30154 40304 58006 60006 80000 91200=
07335,1997-10-29 15:00:00,9,1029.6,-0.6,40,-4,500,18.52,,,60,,,,,,,,,,,wg-a,,,,AAXX 29154 07335 12/00 00610 10090 21040 30148 40296 56006 60006 80000 91500=
07335,1997-10-29 18:00:00,4,1030.2,0.3,56,-4,25000,7.408,,,50,-2.1,8.6,,,,,,,,,wg-a,,,,AAXX 29184 07335 12/75 00504 10040 21040 30151 40302 53003 60006 80000 91800 333 10086 21021=
07335,1997-10-30 00:00:00,-4,1031.2,-0.2,80,-7,0,7.408,,,350,,,,,,,,,,,wg-a,,,,AAXX 30004 07335 12/// /3504 11040 21070 30157 40312 55002 60006 90000=
07335,1997-10-30 06:00:00,-6,1029.6,-0.3,86,-8,15000,3.704,,,340,-6.3,4,,,,,,,,,wg-a,,,,AAXX 30064 07335 02/65 03402 11060 21080 30140 40296 57003 60006 80000 90600 333 10040 21063 60004=
07335,1997-10-30 09:00:00,0,1029.9,0.6,74,-4,15000,14.816,,,10,,,,,,,,,,,wg-a,,,,AAXX 30094 07335 12/65 10108 10000 21040 30146 40299 50006 60006 80002 90900=
07335,1997-10-30 12:00:00,8,1028,-1.4,39,-5,15000,14.816,,,30,,,,,,,,,,,wg-a,,,,AAXX 30124 07335 12/65 10308 10080 21050 30132 40280 58014 60006 80002 91200=
07335,1997-10-30 15:00:00,10,1026.7,-1.2,34,-5,20000,22.224,,,40,,,,,,,,,,,wg-a,,,,AAXX 30154 07335 12/70 10412 10100 21050 30120 40267 56012 60006 80002 91500=
07335,1997-10-30 18:00:00,4,1027.7,0.6,52,-5,20000,11.112,,,30,-6.5,9.8,,,,,,,,,wg-a,,,,AAXX 30184 07335 12/70 20306 10040 21050 30126 40277 53006 60006 80002 91800 333 10098 21065=
07335,1997-10-31 00:00:00,-2,1027.9,-0.5,80,-5,0,7.408,,,360,,,,,,,,,,,wg-a,,,,AAXX 31004 07335 12/// /3604 11020 21050 30126 40279 57005 60006 90000=
07335,1997-10-31 06:00:00,-5,1028.3,0.6,93,-6,10000,3.704,,,310,-4.9,3.7,,,,,,,,,wg-a,,,,AAXX 31064 07335 02/60 13102 11050 21060 30128 40283 52006 60006 80002 90600 333 10037 21049 60004=
07335,1997-10-31 12:00:00,9,1026.3,-1.7,61,2,14000,22.224,,,50,,,,,,,,,,,wg-a,,,,AAXX 31124 07335 12/64 10512 10090 20020 30116 40263 58017 60006 80001 91200=
07335,1997-10-31 15:00:00,11,1025.4,-0.8,50,1,20000,18.52,,,50,,,,,,,,,,,wg-a,,,,AAXX 31154 07335 12/70 10510 10110 20010 30108 40254 56008 60006 80001 91500=
07335,1997-10-31 18:00:00,6,1026.1,0.4,70,1,10000,11.112,,,50,-5.1,11,,,,,,,,,wg-a,,,,AAXX 31184 07335 12/60 /0506 10060 20010 30112 40261 53004 60006 91800 333 10110 21051=
07335,1997-11-01 00:00:00,1,1025.4,-0.7,86,-1,0,7.408,,,40,,,,,,,,,,,wg-a,,,,AAXX 01004 07335 12/// /0404 10010 21010 30102 40254 56007 60006 90000=
07335,1997-11-01 09:00:00,1,1024,0.2,93,0,3500,11.112,,,50,,,,,,,,,,10,wg-a,,,,AAXX 01094 07335 12/35 /0506 10010 20000 30089 40240 53002 60006 71000 81030 90900=
07335,1997-11-01 12:00:00,8,1022.4,-1.3,57,0,10000,14.816,,,60,,,,,,,,,,,wg-a,,,,AAXX 01124 07335 12/60 00608 10080 20000 30076 40224 58013 60006 80000 91200=
07335,1997-11-01 15:00:00,9,1021.4,-0.9,53,0,15000,11.112,,,70,,,,,,,,,,,wg-a,,,,AAXX 01154 07335 12/65 00706 10090 20000 30067 40214 56009 60006 80000 91500=
07335,1997-11-01 18:00:00,2,1021.7,-0,80,-1,0,3.704,,,20,-2.5,9.3,,,,,,,,,wg-a,,,,AAXX 01184 07335 12/// /0202 10020 21010 30067 40217 54000 60006 91800 333 10093 21025=
07335,1997-11-02 00:00:00,-4,1021.3,-0.5,100,-4,0,3.704,,,10,,,,,,,,,,,wg-a,,,,AAXX 02004 07335 12/// /0102 11040 21040 30059 40213 58005 60006 90000=
07335,1997-11-02 06:00:00,-7,1019.9,-0.4,100,-7,3500,3.704,,,20,-6.8,2.2,,,,,,,,10,wg-a,,,,AAXX 02064 07335 02/35 00202 11070 21070 30044 40199 58004 60006 71000 80000 90600 333 10022 21068 60004=
07335,1997-11-02 15:00:00,13,1015,-2.2,41,0,12000,14.816,,,70,,,,,,,,,,,wg-a,,,,AAXX 02154 07335 12/62 00708 10130 20000 30006 40150 56022 60006 80000 91500=
07335,1997-11-02 18:00:00,8,1014.9,-0.3,66,2,0,11.112,,,50,-6.5,13.4,,,,,,,,,wg-a,,,,AAXX 02184 07335 12/// /0506 10080 20020 30003 40149 55003 60006 91800 333 10134 21065=
07335,1997-11-03 00:00:00,-2,1014,-1.2,93,-3,0,0,,,0,,,,,,,,,,,wg-a,,,,AAXX 03004 07335 12/// /0000 11020 21030 39989 40140 56012 60006 90000=
07335,1997-11-03 12:00:00,17,1007,-2.1,59,9,12000,14.816,,,110,,,,,,,,,,,wg-a,,,,AAXX 03124 07335 12/62 11108 10170 20090 39930 40070 58021 60006 80002 91200=
07335,1997-11-03 15:00:00,18,1005.1,-1.9,52,8,15000,14.816,,,100,,,,,,,,,,,wg-a,,,,AAXX 03154 07335 12/65 31008 10180 20080 39911 40051 56019 60006 81034 91500=
07335,1997-11-03 18:00:00,15,1004.7,-0.5,63,8,10000,14.816,,,100,-1.8,18.3,,,,,,,,,wg-a,,,,AAXX 03184 07335 12/60 /1008 10150 20080 39906 40047 56005 60006 91800 333 10183 21018=
07335,1997-11-04 06:00:00,12,1002.7,-0.3,94,11,25000,11.112,,,150,11.3,14.8,,,,,,,,60,wg-a,,,,AAXX 04064 07335 02675 81506 10120 20110 39885 40027 55003 61000 76062 8557/ 90600 333 10148 20113 6000=
07335,1997-11-04 09:00:00,14,1003.9,1.3,94,13,20000,14.816,,,190,,,,0,,,,,,3,wg-a,,,,AAXX 04094 07335 12370 81908 10140 20130 39898 40039 52013 60007 70362 8557/ 90900=
07335,1997-11-04 12:00:00,15,1005.1,1.2,94,14,15000,14.816,,,230,,,,0,,,,,,21,wg-a,,,,AAXX 04124 07335 02365 82308 10150 20140 39910 40051 51012 60016 72162 8677/ 91200 333 60007=
07335,1997-11-04 15:00:00,13,1005.4,0.2,100,13,12000,14.816,,,190,,,,2,,,,,,21,wg-a,,,,AAXX 04154 07335 12262 81908 10130 20130 39912 40054 51002 60027 72162 8687/ 91500=
07335,1997-11-04 18:00:00,13,1006.2,0.8,100,13,11000,18.52,,,190,11.6,15.1,,,,,,,,,wg-a,,,,AAXX 04184 07335 12/61 /1910 10130 20130 39920 40062 51008 60006 91800 333 10151 20116=
07335,1997-11-05 00:00:00,13,1006.6,-0,94,12,0,14.816,,,200,,,,,,,,,,,wg-a,,,,AAXX 05004 07335 12/// /2008 10130 20120 39924 40066 54000 60006 90000=
07335,1997-11-05 06:00:00,11,1004.8,-0.9,94,10,10000,18.52,,,200,10.9,13.3,,,,,2,,,,wg-a,,,,AAXX 05064 07335 02260 82010 10110 20100 39905 40048 56009 60006 886// 90600 333 10133 20109 60024=
07335,1997-11-05 09:00:00,12,1003.3,-1.4,94,11,25000,14.816,,,190,,,,,,,,,,,wg-a,,,,AAXX 05094 07335 12375 71908 10120 20110 39891 40033 58014 60006 8261/ 90900=
07335,1997-11-05 12:00:00,15,1000.2,-3,82,12,25000,18.52,,,190,,,,,,,,,,,wg-a,,,,AAXX 05124 07335 12/75 81910 10150 20120 39861 40002 58030 60006 8801/ 91200=
07335,1997-11-05 15:00:00,14,997.5,-2.6,88,12,20000,11.112,,,170,,,,,,,,,,60,wg-a,,,,AAXX 05154 07335 02770 81706 10140 20120 39835 49975 56026 61000 76062 8252/ 91500 333 ////=
07335,1997-11-05 18:00:00,13,995.6,-2,94,12,11000,11.112,,,190,10.8,15.1,,,,,,,,,wg-a,,,,AAXX 05184 07335 12/61 /1906 10130 20120 39815 49956 56020 60006 91800 333 10151 20108=
07335,1997-11-06 00:00:00,12,993.3,-1.3,94,11,0,14.816,,,210,,,,,,,,,,,wg-a,,,,AAXX 06004 07335 02/// /2108 10120 20110 39792 49933 58013 61000 90000 333 ////=
07335,1997-11-06 12:00:00,11,988.9,-2.2,100,11,6000,11.112,,,40,,,,1,,,,,,61,wg-a,,,,AAXX 06124 07335 02256 80406 10110 20110 39748 49889 56022 60036 76166 877// 91200 333 60017=
07335,1997-11-06 15:00:00,10,986.8,-2.1,100,10,3500,14.816,,,20,,,,11,,,,,,63,wg-a,,,,AAXX 06154 07335 12335 80208 10100 20100 39727 49868 56021 60117 76366 8652/ 91500=
07335,1997-11-06 18:00:00,10,988.9,2.1,93,9,500,14.816,,,340,9.5,11.5,,,,,,,,,wg-a,,,,AAXX 06184 07335 12/00 /3408 10100 20090 39748 49889 51021 60006 91800 333 10115 20095=
07335,1997-11-07 00:00:00,10,993.1,1.2,93,9,0,14.816,,,220,,,,,,,,,,,wg-a,,,,AAXX 07004 07335 12/// /2208 10100 20090 39789 49931 53012 60026 90000=
07335,1997-11-07 06:00:00,9,996.2,1.4,93,8,15000,18.52,,,200,8.5,9.6,,,,,31,,,,wg-a,,,,AAXX 07064 07335 02265 72010 10090 20080 39819 49962 52014 60006 875// 90600 333 10096 20085 60314=
07335,1997-11-07 09:00:00,10,997.9,1.8,100,10,20000,22.224,,,200,,,,1,,,,,,3,wg-a,,,,AAXX 07094 07335 12270 72012 10100 20100 39837 49979 51018 60017 70362 877// 90900=
07335,1997-11-07 12:00:00,14,997,-0.8,77,10,500,25.928,,,200,,,,,,,,,,3,wg-a,,,,AAXX 07124 07335 12400 72014 10140 20100 39829 49970 58008 60016 70362 8523/ 91200=
07335,1997-11-07 15:00:00,14,995.3,-1.6,77,10,500,18.52,,,190,,,,,,,,,,,wg-a,,,,AAXX 07154 07335 12400 71910 10140 20100 39813 49953 56016 60006 83232 91500=
07335,1997-11-07 18:00:00,12,995,-0.4,76,8,500,22.224,,,180,8.7,14.7,,,,,,,,,wg-a,,,,AAXX 07184 07335 12600 71812 10120 20080 39809 49950 58004 60006 85532 91800 333 10147 20087=
07335,1997-11-08 00:00:00,10,995.4,1.9,93,9,0,18.52,,,250,,,,2,,,,,,,wg-a,,,,AAXX 08004 07335 02/// /2510 10100 20090 39812 49954 53019 60026 90000 333 60027=
07335,1997-11-08 06:00:00,9,1001,2.5,93,8,8000,11.112,,,240,8.6,12.5,,,,,,,,61,wg-a,,,,AAXX 08064 07335 02358 82406 10090 20080 39866 40010 52025 61000 76161 875// 90600 333 10125 20086 6006=
07335,1997-11-08 09:00:00,10,1003.1,2.2,93,9,500,18.52,,,210,,,,0,,,,,,1,wg-a,,,,AAXX 08094 07335 12500 22110 10100 20090 39888 40031 51022 60007 70161 81980 90900=
07335,1997-11-08 12:00:00,14,1002.2,-0.7,77,10,500,22.224,,,200,,,,,,,,,,3,wg-a,,,,AAXX 08124 07335 12500 /2012 10140 20100 39881 40022 58007 60016 70361 86280 91200=
07335,1997-11-08 15:00:00,14,999.6,-2.6,77,10,500,25.928,,44.448,200,,,,0,,,,,,3,wg-a,,,,AAXX 08154 07335 12500 72014 10140 20100 39855 49996 58026 60007 70386 8587/ 91500 333 91024=
07335,1997-11-08 18:00:00,12,997.6,-2,88,10,0,31.484,,,190,8.5,15,,1,,,,,,,wg-a,,,,AAXX 08184 07335 12/// /1917 10120 20100 39835 49976 56020 60017 91800 333 10150 20085=
07335,1997-11-09 06:00:00,8,999.7,1.5,87,6,8000,25.928,,,280,7.2,12.1,,,,,,,,80,wg-a,,,,AAXX 09064 07335 02358 82814 10080 20060 39853 49997 53015 61000 78086 878// 90600 333 10121 20072 6017=
07335,1997-11-09 09:00:00,8,1000.5,0.8,93,7,10000,22.224,,,200,,,,4,,,,,,3,wg-a,,,,AAXX 09094 07335 12360 72012 10080 20070 39861 40005 51008 60047 70386 84972 90900=
07335,1997-11-09 12:00:00,9,999.5,-0.9,93,8,500,18.52,,,190,,,,3,,,,,,80,wg-a,,,,AAXX 09124 07335 02200 71910 10090 20080 39852 49995 58009 60076 78086 879// 91200 333 60037=
07335,1997-11-09 15:00:00,12,998.6,-0.8,76,8,12000,31.484,,51.856,230,,,,6,,,,,,1,wg-a,,,,AAXX 09154 07335 12362 62317 10120 20080 39844 49986 56008 60067 70198 84982 91500 333 91028=
07335,1997-11-09 18:00:00,9,1001.3,2.6,93,8,0,22.224,,,220,6.8,12,,0,,,,,,,wg-a,,,,AAXX 09184 07335 12/// /2212 10090 20080 39870 40013 53026 60007 91800 333 10120 20068=
07335,1997-11-10 00:00:00,8,1002.9,0,93,7,0,18.52,,,210,,,,,,,,,,,wg-a,,,,AAXX 10004 07335 12/// /2110 10080 20070 39885 40029 50000 60086 90000=
07335,1997-11-10 06:00:00,8,1000.8,-1,100,8,12000,25.928,,,200,8.1,9.2,,1,,,24,,,63,wg-a,,,,AAXX 10064 07335 02362 82014 10080 20080 39864 40008 57010 60244 76362 878// 90600 333 10092 20081 60017=
07335,1997-11-10 09:00:00,9,1001,0.2,93,8,25000,18.52,,,210,,,,3,,,,,,21,wg-a,,,,AAXX 10094 07335 12375 72110 10090 20080 39866 40010 53002 60037 72162 8553/ 90900=
07335,1997-11-10 12:00:00,9,1001.5,0.6,93,8,10000,25.928,,42.596,230,,,,1,,,,,,80,wg-a,,,,AAXX 10124 07335 02360 72314 10090 20080 39872 40015 53006 60056 78086 8683/ 91200 333 60017 91023=
07335,1997-11-10 15:00:00,11,1001.3,-0.2,82,8,25000,11.112,,,220,,,,1,,,,,,25,wg-a,,,,AAXX 10154 07335 12475 42206 10110 20080 39870 40013 55002 60017 72586 83902 91500=
07335,1997-11-10 18:00:00,8,1002,0.6,93,7,20000,14.816,,,210,8.3,11.4,,,,,,,,25,wg-a,,,,AAXX 10184 07335 02470 72108 10080 20070 39876 40020 53006 61000 72586 878// 91800 333 10114 20083 6001=
07335,1997-11-11 00:00:00,8,999.2,-1.3,93,7,0,25.928,,,190,,,,,,,,,,,wg-a,,,,AAXX 11004 07335 12/// /1914 10080 20070 39848 49992 57013 60016 90000=
07335,1997-11-11 06:00:00,7,997.6,-0.3,100,7,8000,11.112,,,180,7,8.4,,,,,,,,61,wg-a,,,,AAXX 11064 07335 02458 81806 10070 20070 39832 49976 58003 61000 76162 878// 90600 333 10084 20070 6013=
07335,1997-11-11 09:00:00,9,998,0.5,93,8,15000,18.52,,,190,,,,0,,,,,,25,wg-a,,,,AAXX 11094 07335 12265 71910 10090 20080 39837 49980 53005 60007 72586 877// 90900=
07335,1997-11-11 12:00:00,9,997.3,-0.7,93,8,6000,22.224,,,200,,,,5,,,,,,61,wg-a,,,,AAXX 11124 07335 02356 72012 10090 20080 39830 49973 58007 60056 76186 8557/ 91200 333 60057=
07335,1997-11-11 15:00:00,9,996.7,-0.6,93,8,15000,11.112,,,200,,,,,,,,,,1,wg-a,,,,AAXX 11154 07335 02465 72006 10090 20080 39824 49967 58006 61000 70162 85832 91500 333 ////=
07335,1997-11-11 18:00:00,7,997,0.2,100,7,0,11.112,,,190,7,9.6,,,,,,,,,wg-a,,,,AAXX 11184 07335 32/// /1906 10070 20070 39826 49970 53002 91800 333 10096 20070=
07335,1997-11-12 00:00:00,6,998.2,0.1,100,6,0,7.408,,,200,,,,,,,,,,,wg-a,,,,AAXX 12004 07335 12/// /2004 10060 20060 39837 49982 50001 60006 90000=
07335,1997-11-12 06:00:00,7,999.9,1.1,100,7,4000,3.704,,,160,3.4,7.4,,,,,5,,,10,wg-a,,,,AAXX 12064 07335 02240 71602 10070 20070 39855 49999 53011 60006 71022 877// 90600 333 10074 20034 60054=
07335,1997-11-12 09:00:00,8,1002.1,2.2,100,8,500,3.704,,,220,,,,0,,,,,,1,wg-a,,,,AAXX 12094 07335 12200 72202 10080 20080 39877 40021 51022 60007 70162 877// 90900=
07335,1997-11-12 12:00:00,10,1003.3,1.2,87,8,25000,11.112,,,280,,,,,,,,,,1,wg-a,,,,AAXX 12124 07335 12475 72806 10100 20080 39889 40033 51012 60016 70162 878// 91200=
07335,1997-11-12 15:00:00,10,1004.7,1.4,87,8,25000,7.408,,,320,,,,,,,,,,25,wg-a,,,,AAXX 12154 07335 02475 73204 10100 20080 39903 40047 53014 61000 72522 878// 91500 333 ////=
07335,1997-11-12 18:00:00,5,1006.7,1.8,93,4,25000,3.704,,,270,5.3,10.6,,0,,,,,,1,wg-a,,,,AAXX 12184 07335 02675 /2702 10050 20040 39921 40067 51018 60006 70186 81500 91800 333 10106 20053 60007=
07335,1997-11-13 00:00:00,4,1008.1,0.1,100,4,0,7.408,,,190,,,,,,,,,,,wg-a,,,,AAXX 13004 07335 12/// /1904 10040 20040 39934 40081 51001 60006 90000=
07335,1997-11-13 06:00:00,5,1007.3,-0.2,100,5,1500,11.112,,,200,1.9,5.6,,,,,1,,,10,wg-a,,,,AAXX 13064 07335 02115 82006 10050 20050 39926 40073 56002 60006 71022 88600 90600 333 10056 20019 60014=
07335,1997-11-13 09:00:00,6,1007.7,0.5,100,6,2000,11.112,,,190,,,,,,,,,,10,wg-a,,,,AAXX 13094 07335 12120 81906 10060 20060 39931 40077 53005 60006 71042 886// 90900=
07335,1997-11-13 12:00:00,8,1007.5,-0.1,100,8,10000,11.112,,,210,,,,,,,,,,1,wg-a,,,,AAXX 13124 07335 12260 82106 10080 20080 39930 40075 58001 60006 70142 886// 91200=
07335,1997-11-13 15:00:00,9,1007.4,-0.1,87,7,15000,11.112,,,250,,,,,,,,,,,wg-a,,,,AAXX 13154 07335 12465 72506 10090 20070 39929 40074 57001 60006 876// 91500=
07335,1997-11-13 18:00:00,6,1008.8,1.3,93,5,15000,3.704,,,200,4.7,8.9,,,,,,,,,wg-a,,,,AAXX 13184 07335 12465 72002 10060 20050 39942 40088 53013 60006 81502 91800 333 10089 20047=
07335,1997-11-14 06:00:00,1,1013.6,1.3,100,1,100,7.408,,,160,0.3,6.1,,,,,,,,45,wg-a,,,,AAXX 14064 07335 02/01 91604 10010 20010 39986 40136 51013 60006 74542 89/// 90600 333 10061 20003 60004=
07335,1997-11-14 12:00:00,10,1015.5,0.4,100,10,15000,7.408,,,170,,,,,,,,,,1,wg-a,,,,AAXX 14124 07335 12265 31704 10100 20100 30010 40155 50004 60006 70141 81602 91200=
07335,1997-11-14 15:00:00,12,1015.8,0.4,76,8,25000,7.408,,,240,,,,,,,,,,,wg-a,,,,AAXX 14154 07335 12575 52404 10120 20080 30014 40158 53004 60006 82832 91500=
07335,1997-11-15 00:00:00,9,1018.9,1,100,9,0,7.408,,,200,,,,,,,,,,,wg-a,,,,AAXX 15004 07335 12/// /2004 10090 20090 30043 40189 53010 60006 90000=
07335,1997-11-15 06:00:00,8,1019.3,0.4,100,8,20000,11.112,,,180,6.6,9.3,,,,,,,,,wg-a,,,,AAXX 15064 07335 02470 /1806 10080 20080 30046 40193 51004 60006 85500 90600 333 10093 20066 60004=
07335,1997-11-15 09:00:00,11,1019.9,0.8,94,10,20000,18.52,,,210,,,,,,,,,,,wg-a,,,,AAXX 15094 07335 12370 72110 10110 20100 30054 40199 53008 60006 875// 90900=
07335,1997-11-15 12:00:00,12,1019.7,-0.2,100,12,500,11.112,,,200,,,,0,,,,,,50,wg-a,,,,AAXX 15124 07335 02200 72006 10120 20120 30052 40197 58002 60006 75052 877// 91200 333 60007=
07335,1997-11-15 15:00:00,13,1019.1,-0.5,94,12,8000,11.112,,,200,,,,,,,,,,1,wg-a,,,,AAXX 15154 07335 02458 82006 10130 20120 30047 40191 55005 61000 70152 877// 91500 333 ////=
07335,1997-11-15 18:00:00,13,1019.3,0.2,88,11,0,11.112,,,190,8.3,13.1,,,,,,,,,wg-a,,,,AAXX 15184 07335 32/// /1906 10130 20110 30049 40193 53002 91800 333 10131 20083=
07335,1997-11-16 00:00:00,12,1019.1,0.1,88,10,0,11.112,,,210,,,,,,,,,,,wg-a,,,,AAXX 16004 07335 12/// /2106 10120 20100 30047 40191 51001 60006 90000=
07335,1997-11-16 09:00:00,11,1017.8,0.2,87,9,25000,11.112,,,160,,,,,,,,,,,wg-a,,,,AAXX 16094 07335 12/75 51606 10110 20090 30033 40178 53002 60006 81032 90900=
07335,1997-11-16 12:00:00,17,1016.3,-1.2,63,10,500,11.112,,,190,,,,,,,,,,,wg-a,,,,AAXX 16124 07335 12/00 61906 10170 20100 30021 40163 58012 60006 81032 91200=
07335,1997-11-16 15:00:00,16,1015.9,-0.4,68,10,500,7.408,,,180,,,,,,,,,,,wg-a,,,,AAXX 16154 07335 12/00 71804 10160 20100 30017 40159 55004 60006 85032 91500=
07335,1997-11-16 18:00:00,13,1016,-0.1,82,10,0,7.408,,,150,7.7,17.1,,,,,,,,,wg-a,,,,AAXX 16184 07335 12/// /1504 10130 20100 30016 40160 58001 60006 91800 333 10171 20077=
07335,1997-11-17 00:00:00,9,1016.3,-0.9,100,9,0,11.112,,,150,,,,,,,,,,,wg-a,,,,AAXX 17004 07335 12/// /1506 10090 20090 30017 40163 58009 60006 90000=
07335,1997-11-17 06:00:00,8,1015.9,-0.3,100,8,12000,3.704,,,140,6.5,13.2,,,,,,,,,wg-a,,,,AAXX 17064 07335 02762 71402 10080 20080 30013 40159 58003 60006 875// 90600 333 10132 20065 60004=
07335,1997-11-17 09:00:00,11,1015.1,-0.7,94,10,15000,7.408,,,180,,,,,,,,,,,wg-a,,,,AAXX 17094 07335 12765 71804 10110 20100 30006 40151 58007 60006 85532 90900=
07335,1997-11-17 12:00:00,16,1012.8,-2,72,11,25000,7.408,,,170,,,,,,,,,,,wg-a,,,,AAXX 17124 07335 12775 71704 10160 20110 39986 40128 58020 60006 81532 91200=
07335,1997-11-17 15:00:00,17,1011,-1.7,72,12,25000,3.704,,,120,,,,,,,,,,,wg-a,,,,AAXX 17154 07335 12/75 71202 10170 20120 39969 40110 56017 60006 85032 91500=
07335,1997-11-17 18:00:00,14,1009.7,-1.4,88,12,20000,11.112,,,100,,,,,,,,,,,wg-a,,,,AAXX 17184 07335 12770 71006 10140 20120 39955 40097 58014 60006 82532 91800=
07335,1997-11-18 00:00:00,12,1005.8,-1.5,94,11,0,11.112,,,160,,,,,,,,,,,wg-a,,,,AAXX 18004 07335 12/// /1606 10120 20110 39916 40058 58015 60006 90000=
07335,1997-11-18 06:00:00,12,1005,0.2,88,10,25000,18.52,,,180,10.8,14.8,,,,,,,,,wg-a,,,,AAXX 18064 07335 02/75 51810 10120 20100 39908 40050 53002 60006 85030 90600 333 10148 20108 60004=
07335,1997-11-18 09:00:00,13,1006,1,88,11,20000,18.52,,,190,,,,,,,,,,21,wg-a,,,,AAXX 18094 07335 02770 81910 10130 20110 39918 40060 53010 61000 72162 8557/ 90900 333 ////=
07335,1997-11-18 15:00:00,13,1006.7,-0.1,100,13,500,14.816,,,200,,,,0,,,,,,50,wg-a,,,,AAXX 18154 07335 12200 82008 10130 20130 39925 40067 58001 60007 75065 877// 91500=
07335,1997-11-19 09:00:00,11,1002.5,0.1,100,11,7000,14.816,,,200,,,,0,,,,,,61,wg-a,,,,AAXX 19094 07335 12357 82008 10110 20110 39883 40025 50001 60007 76162 877// 90900=
07335,1997-11-19 12:00:00,13,1001.3,-1.1,94,12,15000,18.52,,,180,,,,0,,,,,,3,wg-a,,,,AAXX 19124 07335 02465 71810 10130 20120 39872 40013 58011 60016 70362 8683/ 91200 333 60007=
07335,1997-11-19 15:00:00,12,1000.8,-0.6,94,11,12000,11.112,,,210,,,,3,,,,,,25,wg-a,,,,AAXX 19154 07335 12462 72106 10120 20110 39866 40008 58006 60037 72586 84932 91500=
07335,1997-11-19 18:00:00,11,1001.5,0.6,94,10,15000,14.816,,,230,10.3,14.5,,,,,,,,25,wg-a,,,,AAXX 19184 07335 02465 42308 10110 20100 39872 40015 53006 61000 72586 83832 91800 333 10145 20103 6000=
07335,1997-11-20 00:00:00,10,1000.4,-1,93,9,0,14.816,,,190,,,,,,,,,,,wg-a,,,,AAXX 20004 07335 12/// /1908 10100 20090 39861 40004 58010 60016 90000=
07335,1997-11-20 06:00:00,10,997.4,-0.7,93,9,20000,25.928,,,210,9.5,11.3,,,,,,,,25,wg-a,,,,AAXX 20064 07335 02470 52114 10100 20090 39832 49974 58007 61000 72586 85800 90600 333 10113 20095 6010=
07335,1997-11-20 09:00:00,11,999.1,1.7,87,9,500,18.52,,,230,,,,,,,,,,,wg-a,,,,AAXX 20094 07335 12400 72310 10110 20090 39849 49991 53017 60006 8492/ 90900=
07335,1997-11-20 12:00:00,12,1000,0.9,88,10,500,14.816,,,230,,,,2,,,,,,15,wg-a,,,,AAXX 20124 07335 02400 72308 10120 20100 39858 40000 51009 60026 71511 879// 91200 333 60027=
07335,1997-11-20 15:00:00,10,1002.1,2,82,7,15000,25.928,,44.448,280,,,,1,,,,,,80,wg-a,,,,AAXX 20154 07335 12465 72814 10100 20070 39878 40021 53020 60017 78086 879// 91500 333 91024=
07335,1997-11-21 00:00:00,7,1007,1,93,6,0,11.112,,,210,,,,,,,,,,,wg-a,,,,AAXX 21004 07335 12/// /2106 10070 20060 39925 40070 51010 60006 90000=
07335,1997-11-21 06:00:00,7,1007.5,-0,100,7,20000,14.816,,,190,6.5,,,,,,3,,,,wg-a,,,,AAXX 21064 07335 02270 71908 10070 20070 39930 40075 55000 60006 8457/ 90600 333 10091 20065 60034=
07335,1997-11-21 09:00:00,8,1008.8,1.3,100,8,20000,14.816,,,210,,,,,,,,,,3,wg-a,,,,AAXX 21094 07335 02270 72108 10080 20080 39943 40088 53013 61000 70386 86732 90900 333 ////=
07335,1997-11-21 12:00:00,10,1008.7,0,93,9,25000,14.816,,,190,,,,0,,,,,,2,wg-a,,,,AAXX 21124 07335 02475 71908 10100 20090 39943 40087 50000 60006 70286 8287/ 91200 333 60007=
07335,1997-11-21 15:00:00,10,1008.9,0.2,93,9,25000,14.816,,,210,,,,,,,,,,,wg-a,,,,AAXX 21154 07335 12475 72108 10100 20090 39945 40089 53002 60006 8387/ 91500=
07335,1997-11-21 18:00:00,9,1010,1,100,9,20000,7.408,,,220,7.2,11,,,,,,,,61,wg-a,,,,AAXX 21184 07335 02670 82204 10090 20090 39955 40100 53010 61000 76162 8357/ 91800 333 10110 20072 6000=
07335,1997-11-22 00:00:00,7,1011.3,0.3,93,6,0,7.408,,,240,,,,,,,,,,,wg-a,,,,AAXX 22004 07335 12/// /2404 10070 20060 39967 40113 50003 60016 90000=
07335,1997-11-22 06:00:00,2,1012.7,0.6,100,2,200,3.704,,,170,2.1,9.1,,,,,2,,,45,wg-a,,,,AAXX 22064 07335 02/02 91702 10020 20020 39978 40127 53006 60006 74542 89/// 90600 333 10091 20021 60024=
07335,1997-11-22 09:00:00,4,1014.1,1.5,100,4,500,3.704,,,230,,,,,,,,,,42,wg-a,,,,AAXX 22094 07335 12/05 32302 10040 20040 39993 40141 53015 60006 74244 80002 90900=
07335,1997-11-22 12:00:00,10,1014.3,0.5,87,8,12000,7.408,,,180,,,,,,,,,,3,wg-a,,,,AAXX 22124 07335 12562 /1804 10100 20080 39998 40143 51005 60006 70341 81232 91200=
07335,1997-11-22 15:00:00,10,1014.4,0.1,87,8,20000,3.704,,,220,,,,,,,,,,,wg-a,,,,AAXX 22154 07335 12570 /2202 10100 20080 39999 40144 53001 60006 82232 91500=
07335,1997-11-22 18:00:00,7,1015.9,1.3,100,7,0,7.408,,,180,1.2,11.5,,,,,,,,,wg-a,,,,AAXX 22184 07335 12/// /1804 10070 20070 30012 40159 53013 60006 91800 333 10115 20012=
07335,1997-11-23 00:00:00,6,1017.9,0.3,100,6,0,3.704,,,230,,,,,,,,,,,wg-a,,,,AAXX 23004 07335 12/// /2302 10060 20060 30032 40179 50003 60006 90000=
07335,1997-11-23 06:00:00,4,1019.3,0.6,100,4,300,7.408,,,190,3.1,7.2,,,,,,,,45,wg-a,,,,AAXX 23064 07335 02/03 91904 10040 20040 30044 40193 51006 60006 74542 89/// 90600 333 10072 20031 60004=
07335,1997-11-23 12:00:00,6,1020.2,-0.4,100,6,300,11.112,,,190,,,,,,,,,,43,wg-a,,,,AAXX 23124 07335 12/03 91906 10060 20060 30054 40202 58004 60006 74344 89/// 91200=
07335,1997-11-23 15:00:00,6,1019.2,-1,100,6,4000,14.816,,,180,,,,,,,,,,10,wg-a,,,,AAXX 23154 07335 12140 81808 10060 20060 30044 40192 56010 60006 71042 886// 91500=
07335,1997-11-23 18:00:00,6,1018.3,-0.9,100,6,0,11.112,,,150,3.3,6.6,,,,,,,,,wg-a,,,,AAXX 23184 07335 12/// /1506 10060 20060 30035 40183 56009 60006 91800 333 10066 20033=
07335,1997-11-24 00:00:00,5,1016.1,-1.6,100,5,0,11.112,,,130,,,,,,,,,,,wg-a,,,,AAXX 24004 07335 12/// /1306 10050 20050 30013 40161 58016 60006 90000=
07335,1997-11-24 06:00:00,5,1011.8,-2.2,93,4,15000,14.816,,,100,4.5,5.9,,,,,,,,,wg-a,,,,AAXX 24064 07335 02365 81008 10050 20040 39970 40118 58022 60006 8357/ 90600 333 10059 20045 60004=
07335,1997-11-24 09:00:00,5,1009.8,-1.9,93,4,500,14.816,,,100,,,,,,,,,,,wg-a,,,,AAXX 24094 07335 12300 71008 10050 20040 39951 40098 58019 60006 83532 90900=
07335,1997-11-24 12:00:00,8,1006.7,-2.9,81,5,10000,11.112,,,110,,,,,,,,,,,wg-a,,,,AAXX 24124 07335 12760 71106 10080 20050 39922 40067 58029 60006 82532 91200=
07335,1997-11-24 18:00:00,7,1004.2,-0,87,5,12000,7.408,,,150,3.9,8.3,,,,,,,,,wg-a,,,,AAXX 24184 07335 12762 71504 10070 20050 39897 40042 55000 60006 84532 91800 333 10083 20039=
07335,1997-11-25 00:00:00,8,1004.3,0.1,81,5,0,14.816,,,180,,,,,,,,,,,wg-a,,,,AAXX 25004 07335 12/// /1808 10080 20050 39899 40043 50001 60006 90000=
07335,1997-11-25 06:00:00,10,1003.8,-0.2,87,8,20000,18.52,,,200,6.6,10.1,,,,,,,,,wg-a,,,,AAXX 25064 07335 02470 82010 10100 20080 39895 40038 55002 60006 885// 90600 333 10101 20066 60004=
07335,1997-11-25 09:00:00,11,1003.8,-0,82,8,25000,11.112,,,180,,,,,,,,,,,wg-a,,,,AAXX 25094 07335 12575 31806 10110 20080 39895 40038 55000 60006 83800 90900=
07335,1997-11-25 12:00:00,15,1002.7,-0.9,63,8,500,18.52,,,190,,,,,,,,,,,wg-a,,,,AAXX 25124 07335 12/00 21910 10150 20080 39886 40027 58009 60006 80001 91200=
07335,1997-11-25 18:00:00,11,1000.5,-0.7,76,7,10000,7.408,,,100,9.2,15.3,,,,,,,,,wg-a,,,,AAXX 25184 07335 12/60 /1004 10110 20070 39863 40005 56007 60006 91800 333 10153 20092=
07335,1997-11-26 00:00:00,10,1000.2,-0.3,76,6,0,11.112,,,110,,,,,,,,,,,wg-a,,,,AAXX 26004 07335 12/// /1106 10100 20060 39859 40002 57003 60006 90000=
07335,1997-11-26 06:00:00,8,1001.1,0.8,87,6,20000,3.704,,,150,7.5,11.2,,,,,,,,,wg-a,,,,AAXX 26064 07335 02770 81502 10080 20060 39867 40011 53008 60006 8357/ 90600 333 10112 20075 60004=
07335,1997-11-26 09:00:00,9,1002.8,1.7,81,6,15000,11.112,,,120,,,,,,,,,,,wg-a,,,,AAXX 26094 07335 12765 71206 10090 20060 39884 40028 53017 60006 8657/ 90900=
07335,1997-11-26 12:00:00,14,1003.2,0.6,77,10,15000,14.816,,,180,,,,,,,,,,,wg-a,,,,AAXX 26124 07335 12765 71808 10140 20100 39890 40032 51006 60006 8453/ 91200=
07335,1997-11-26 15:00:00,14,1003.9,0.8,77,10,20000,14.816,,,170,,,,,,,,,,,wg-a,,,,AAXX 26154 07335 12570 71708 10140 20100 39898 40039 53008 60006 84832 91500=
07335,1997-11-26 18:00:00,12,1005.8,1.8,88,10,15000,11.112,,,170,7.5,16.1,,,,,,,,,wg-a,,,,AAXX 26184 07335 12565 71706 10120 20100 39916 40058 51018 60006 84832 91800 333 10161 20075=
07335,1997-11-27 00:00:00,11,1008.4,1.1,94,10,0,14.816,,,190,,,,,,,,,,,wg-a,,,,AAXX 27004 07335 12/// /1908 10110 20100 39941 40084 51011 60006 90000=
07335,1997-11-27 06:00:00,11,1011,1.7,94,10,20000,14.816,,,240,10.5,12.5,,,,,,,,,wg-a,,,,AAXX 27064 07335 02370 72408 10110 20100 39966 40110 53017 60006 875// 90600 333 10125 20105 60004=
07335,1997-11-27 12:00:00,12,1014.1,0.9,94,11,12000,11.112,,,230,,,,,,,,,,,wg-a,,,,AAXX 27124 07335 12462 72306 10120 20110 39997 40141 50009 60006 85852 91200=
07335,1997-11-27 18:00:00,9,1014.7,0.6,87,7,25000,7.408,,,190,8.5,13.7,,,,,,,,,wg-a,,,,AAXX 27184 07335 12/75 21904 10090 20070 30001 40147 51006 60006 81032 91800 333 10137 20085=
07335,1997-11-28 00:00:00,9,1012.4,-1.4,93,8,0,14.816,,,170,,,,,,,,,,,wg-a,,,,AAXX 28004 07335 12/// /1708 10090 20080 39979 40124 56014 60006 90000=
07335,1997-11-28 09:00:00,10,1010.8,0.2,100,10,10000,18.52,,,210,,,,1,,,,,,21,wg-a,,,,AAXX 28094 07335 12260 82110 10100 20100 39964 40108 53002 60017 72162 887// 90900=
07335,1997-11-28 12:00:00,11,1010.6,-0.2,100,11,6000,22.224,,,210,,,,0,,,,,,50,wg-a,,,,AAXX 28124 07335 02256 82112 10110 20110 39962 40106 58002 60016 75065 887// 91200 333 60007=
07335,1997-11-28 15:00:00,13,1009.4,-1.1,94,12,15000,18.52,,,200,,,,,,,,,,1,wg-a,,,,AAXX 28154 07335 02365 72010 10130 20120 39951 40094 56011 61000 70152 872// 91500 333 ////=
07335,1997-11-28 18:00:00,11,1010,0.5,94,10,11000,18.52,,,230,9.4,12.7,,,,,,,,,wg-a,,,,AAXX 28184 07335 12/61 /2310 10110 20100 39956 40100 53005 60006 91800 333 10127 20094=
07335,1997-11-29 00:00:00,11,1010.6,0.6,94,10,0,18.52,,,240,,,,,,,,,,,wg-a,,,,AAXX 29004 07335 12/// /2410 10110 20100 39962 40106 53006 60016 90000=
07335,1997-11-29 06:00:00,9,1010.3,-0.6,100,9,15000,14.816,,,210,9,11.8,,,,,5,,,,wg-a,,,,AAXX 29064 07335 02465 42108 10090 20090 39958 40103 58006 60006 84800 90600 333 10118 20090 60054=
07335,1997-11-29 09:00:00,9,1010.9,0.6,100,9,12000,11.112,,,220,,,,1,,,,,,3,wg-a,,,,AAXX 29094 07335 12362 72206 10090 20090 39964 40109 53006 60017 70386 85872 90900=
07335,1997-11-29 15:00:00,9,1009,-0.6,93,8,15000,7.408,,,310,,,,2,,,,,,25,wg-a,,,,AAXX 29154 07335 12465 /3104 10090 20080 39945 40090 55006 60027 72586 83932 91500=
07335,1997-11-29 18:00:00,7,1009.8,0.7,93,6,0,14.816,,,240,6.7,12.8,,,,,,,,,wg-a,,,,AAXX 29184 07335 32/// /2408 10070 20060 39952 40098 53007 91800 333 10128 20067=
07335,1997-11-30 00:00:00,7,1012.5,1.5,93,6,0,14.816,,,270,,,,,,,,,,,wg-a,,,,AAXX 30004 07335 12/// /2708 10070 20060 39979 40125 51015 60006 90000=
07335,1997-11-30 06:00:00,6,1013.6,0.4,100,6,15000,14.816,,,260,4.9,7.1,,,,,2,,,,wg-a,,,,AAXX 30064 07335 02665 /2608 10060 20060 39989 40136 51004 60006 81500 90600 333 10071 20049 60024=
07335,1997-11-30 09:00:00,7,1014.8,1.2,100,7,25000,18.52,,,260,,,,,,,,,,,wg-a,,,,AAXX 30094 07335 12675 52610 10070 20070 30001 40148 53012 60006 84531 90900=
07335,1997-11-30 15:00:00,11,1015.3,0.4,82,8,25000,18.52,,,310,,,,,,,,,,,wg-a,,,,AAXX 30154 07335 12575 73110 10110 20080 30008 40153 53004 60006 878// 91500=
07335,1997-11-30 18:00:00,9,1016.5,1.1,93,8,0,18.52,,,320,5.1,11.2,,,,,,,,,wg-a,,,,AAXX 30184 07335 32/// /3210 10090 20080 30019 40165 53011 91800 333 10112 20051=
07335,1997-12-01 00:00:00,7,1019,1.2,100,7,0,11.112,,,330,,,,,,,,,,,wg-a,,,,AAXX 01004 07335 12/// /3306 10070 20070 30043 40190 51012 60006 90000=
07335,1997-12-01 06:00:00,3,1019.2,-0.4,100,3,1500,3.704,,,40,2.6,9.3,,,,,,,,11,wg-a,,,,AAXX 01064 07335 02115 /0402 10030 20030 30043 40192 55004 60006 71111 86600 90600 333 10093 20026 61000=
07335,1997-12-01 09:00:00,6,1019.2,0.1,100,6,300,7.408,,,180,,,,,,,,,,43,wg-a,,,,AAXX 01094 07335 12/03 91804 10060 20060 30044 40192 53001 60006 74342 89/// 90900=
07335,1997-12-01 12:00:00,8,1016.3,-2.7,93,7,6000,14.816,,,170,,,,,,,,,,1,wg-a,,,,AAXX 01124 07335 12356 71708 10080 20070 30017 40163 58027 60006 70142 875// 91200=
07335,1997-12-01 15:00:00,9,1012.7,-3.5,87,7,8000,14.816,,,160,,,,,,,,,,60,wg-a,,,,AAXX 01154 07335 02458 71608 10090 20070 39982 40127 56035 61000 76062 86872 91500 333 ////=
07335,1997-12-01 18:00:00,8,1010.3,-2.5,93,7,8000,14.816,,,160,3.5,8.9,,,,,,,,21,wg-a,,,,AAXX 01184 07335 02458 81608 10080 20070 39957 40103 58025 61000 72162 878// 91800 333 10089 20035 6000=
07335,1997-12-02 00:00:00,11,1001.6,-4.2,94,10,0,25.928,,,240,,,,,,,,,,,wg-a,,,,AAXX 02004 07335 12/// /2414 10110 20100 39873 40016 58042 60016 90000=
07335,1997-12-02 06:00:00,7,1000.7,0.2,81,4,20000,38.892,,,330,7,10.9,,,,,2,,,,wg-a,,,,AAXX 02064 07335 02470 33321 10070 20040 39862 40007 53002 60006 83500 90600 333 10109 20070 60024=
07335,1997-12-02 09:00:00,5,1004.9,4.1,87,3,20000,31.484,,,330,,,,,,,,,,,wg-a,,,,AAXX 02094 07335 12470 /3317 10050 20030 39903 40049 53041 60006 86500 90900=
07335,1997-12-02 12:00:00,6,1006.2,1.3,81,3,15000,29.632,,,320,,,,,,,,,,21,wg-a,,,,AAXX 02124 07335 02465 73216 10060 20030 39916 40062 51013 61000 72161 875// 91200 333 6100=
07335,1997-12-02 15:00:00,5,1008.5,2.2,81,2,8000,35.188,,55.56,340,,,,,,,,,,61,wg-a,,,,AAXX 02154 07335 02358 73419 10050 20020 39938 40085 53022 61000 76162 878// 91500 333 //// 91030=
07335,1997-12-02 18:00:00,4,1010.6,2,75,0,15000,25.928,,,320,3.6,6.9,,,,,,,,21,wg-a,,,,AAXX 02184 07335 02465 /3214 10040 20000 39958 40106 51020 61000 72162 85500 91800 333 10069 20036 6100=
07335,1997-12-03 00:00:00,3,1011.9,-0.2,81,0,0,18.52,,,300,,,,,,,,,,,wg-a,,,,AAXX 03004 07335 12/// /3010 10030 20000 39970 40119 58002 60006 90000=
07335,1997-12-03 09:00:00,1,1015.9,2.1,93,0,15000,18.52,,,340,,,,,,,,,,,wg-a,,,,AAXX 03094 07335 12765 13410 10010 20000 30009 40159 51021 60006 81500 90900=
07335,1997-12-03 12:00:00,4,1016.6,0.8,75,0,25000,14.816,,,10,,,,,,,,,,,wg-a,,,,AAXX 03124 07335 12/75 00108 10040 20000 30017 40166 50008 60006 80000 91200=
07335,1997-12-03 15:00:00,5,1016.7,0.2,65,-1,500,18.52,,,10,,,,,,,,,,,wg-a,,,,AAXX 03154 07335 12/00 00110 10050 21010 30019 40167 53002 60006 80000 91500=
07335,1997-12-03 18:00:00,0,1017.7,0.7,86,-2,500,7.408,,,340,-0.8,5.2,,,,,,,,,wg-a,,,,AAXX 03184 07335 12500 /3404 10000 21020 30026 40177 51007 60006 81500 91800 333 10052 21008=
07335,1997-12-04 00:00:00,-2,1018.8,0.3,100,-2,0,11.112,,,20,,,,,,,,,,,wg-a,,,,AAXX 04004 07335 12/// /0206 11020 21020 30036 40188 52003 60006 90000=
07335,1997-12-04 06:00:00,-1,1017.7,-0.9,100,-1,7000,11.112,,,340,-3,0,,,,,,,,,wg-a,,,,AAXX 04064 07335 02657 43406 11010 21010 30026 40177 58009 60006 84500 90600 333 10000 21030 60004=
07335,1997-12-04 12:00:00,2,1017.2,-0.7,100,2,3500,18.52,,,360,,,,,,,,,,10,wg-a,,,,AAXX 04124 07335 12235 73610 10020 20020 30022 40172 58007 60006 71041 86602 91200=
07335,1997-12-04 15:00:00,2,1017.3,0.1,87,0,4000,18.52,,,30,,,,,,,,,,10,wg-a,,,,AAXX 04154 07335 02440 80310 10020 20000 30023 40173 53001 61000 71076 885// 91500 333 ////=
07335,1997-12-04 18:00:00,1,1018.4,1.1,93,0,8000,18.52,,,30,-1.2,3.1,,,,,,,,3,wg-a,,,,AAXX 04184 07335 02558 80310 10010 20000 30034 40184 51011 60006 70376 875// 91800 333 10031 21012 61000=
07335,1997-12-05 00:00:00,2,1020.7,0.5,80,-1,0,14.816,,,40,,,,,,,,,,,wg-a,,,,AAXX 05004 07335 12/// /0408 10020 21010 30056 40207 52005 60006 90000=
07335,1997-12-05 06:00:00,1,1022.1,1,86,-1,7000,14.816,,,50,1.2,1.7,,,,,,,,,wg-a,,,,AAXX 05064 07335 02557 80508 10010 21010 30070 40221 53010 60006 875// 90600 333 10017 20012 61000=
07335,1997-12-05 09:00:00,1,1023.6,1.5,86,-1,6000,14.816,,,60,,,,,,,,,,,wg-a,,,,AAXX 05094 07335 12356 20608 10010 21010 30085 40236 52015 60006 82502 90900=
07335,1997-12-05 12:00:00,4,1024,0.5,75,0,8000,14.816,,,60,,,,,,,,,,,wg-a,,,,AAXX 05124 07335 12458 /0608 10040 20000 30090 40240 50005 60006 81132 91200=
07335,1997-12-05 15:00:00,4,1024.9,0.9,75,0,10000,14.816,,,70,,,,,,,,,,,wg-a,,,,AAXX 05154 07335 12560 /0708 10040 20000 30099 40249 53009 60006 81502 91500=
07335,1997-12-05 18:00:00,1,1026.7,1.6,86,-1,6000,14.816,,,80,0.5,4.6,,,,,,,,,wg-a,,,,AAXX 05184 07335 12356 80808 10010 21010 30115 40267 53016 60006 876// 91800 333 10046 20005=
07335,1997-12-06 00:00:00,1,1027.6,-0.1,86,-1,0,7.408,,,50,,,,,,,,,,,wg-a,,,,AAXX 06004 07335 12/// /0504 10010 21010 30124 40276 56001 60006 90000=
07335,1997-12-06 12:00:00,4,1026.4,-1,70,-1,15000,3.704,,,100,,,,,,,,,,,wg-a,,,,AAXX 06124 07335 12/65 11002 10040 21010 30114 40264 56010 60006 80001 91200=
07335,1997-12-06 15:00:00,5,1025.3,-1.1,70,0,15000,7.408,,,70,,,,,,,,,,,wg-a,,,,AAXX 06154 07335 12/65 10704 10050 20000 30103 40253 56011 60006 80002 91500=
07335,1997-12-06 18:00:00,2,1025.3,-0.1,80,-1,0,3.704,,,90,-0.2,4.9,,,,,,,,,wg-a,,,,AAXX 06184 07335 12/// /0902 10020 21010 30102 40253 58001 60006 91800 333 10049 21002=
07335,1997-12-07 00:00:00,-3,1023.9,-1.4,93,-4,0,3.704,,,110,,,,,,,,,,,wg-a,,,,AAXX 07004 07335 12/// /1102 11030 21040 30085 40239 58014 60006 90000=
07335,1997-12-07 09:00:00,-1,1019.2,-0.9,93,-2,6000,11.112,,,190,,,,,,,,,,,wg-a,,,,AAXX 07094 07335 12/56 /1906 11010 21020 30040 40192 56009 60006 80002 90900=
07335,1997-12-07 12:00:00,6,1017.3,-1.5,65,0,15000,14.816,,,180,,,,,,,,,,,wg-a,,,,AAXX 07124 07335 12/65 51808 10060 20000 30025 40173 58015 60006 81034 91200=
07335,1997-12-07 15:00:00,6,1015,-2.2,56,-2,25000,14.816,,,200,,,,,,,,,,,wg-a,,,,AAXX 07154 07335 12/75 52008 10060 21020 30003 40150 56022 60006 81032 91500=
07335,1997-12-08 00:00:00,5,1013.1,-1,65,-1,0,14.816,,,200,,,,,,,,,,,wg-a,,,,AAXX 08004 07335 12/// /2008 10050 21010 39983 40131 56010 60006 90000=
07335,1997-12-08 06:00:00,3,1012.7,-0,87,1,15000,14.816,,,210,2.4,5.1,,,,,,,,,wg-a,,,,AAXX 08064 07335 02365 32108 10030 20010 39979 40127 55000 60006 83600 90600 333 10051 20024 60004=
07335,1997-12-08 09:00:00,6,1013.1,0.5,100,6,800,18.52,,,210,,,,,,,,,,45,wg-a,,,,AAXX 08094 07335 12/08 92110 10060 20060 39984 40131 53005 60006 74541 89/// 90900=
07335,1997-12-08 12:00:00,9,1011.4,-1.5,93,8,7000,18.52,,,200,,,,,,,,,,1,wg-a,,,,AAXX 08124 07335 12257 72010 10090 20080 39969 40114 58015 60006 70141 8463/ 91200=
07335,1997-12-08 15:00:00,10,1,,93,9,12000,18.52,,,190,,,,3,,,,,,21,wg-a,,,,AAXX 08154 07335 12462 71910 10100 20090 60037 72186 8453/ 91500=
07335,1997-12-08 18:00:00,9,1009.5,,100,9,6000,14.816,,,210,3.2,11.5,,,,,,,,21,wg-a,,,,AAXX 08184 07335 02256 82108 10090 20090 39951 40095 61000 72186 887// 91800 333 10115 20032 6003=
07335,1997-12-09 00:00:00,8,1012.4,1.3,100,8,0,14.816,,,240,,,,,,,,,,,wg-a,,,,AAXX 09004 07335 12/// /2408 10080 20080 39979 40124 51013 60006 90000=
07335,1997-12-09 06:00:00,7,1015.3,1.7,100,7,600,14.816,,,230,6.7,9.6,,,,,6,,,44,wg-a,,,,AAXX 09064 07335 02106 72308 10070 20070 30006 40153 51017 60006 74442 876// 90600 333 10096 20067 60064=
07335,1997-12-09 12:00:00,11,1017.1,0.6,94,10,15000,11.112,,,220,,,,,,,,,,3,wg-a,,,,AAXX 09124 07335 12365 72206 10110 20100 30026 40171 51006 60006 70342 86832 91200=
07335,1997-12-09 15:00:00,12,1017.6,0.6,88,10,15000,11.112,,,220,,,,,,,,,,,wg-a,,,,AAXX 09154 07335 12465 72206 10120 20100 30032 40176 53006 60006 878// 91500=
07335,1997-12-10 00:00:00,11,1017,-0.6,100,11,0,14.816,,,210,,,,,,,,,,,wg-a,,,,AAXX 10004 07335 12/// /2108 10110 20110 30025 40170 58006 60006 90000=
07335,1997-12-10 06:00:00,11,1014.7,-1.3,100,11,15000,22.224,,,220,9.7,11.4,,,,,,,,21,wg-a,,,,AAXX 10064 07335 02365 82212 10110 20110 30003 40147 58013 61000 72122 877// 90600 333 10114 20097 6001=
07335,1997-12-10 18:00:00,13,1015.4,1.3,100,13,6000,18.52,,,230,10.5,12.9,,0,,,,,,3,wg-a,,,,AAXX 10184 07335 02256 82310 10130 20130 30011 40154 53013 60006 70352 887// 91800 333 10129 20105 60007=
07335,1997-12-11 06:00:00,14,1013.5,-1,100,14,3000,29.632,,,240,12.9,14.3,,,,,,,,51,wg-a,,,,AAXX 11064 07335 02330 82416 10140 20140 39992 40135 58010 61000 75152 877// 90600 333 10143 20129 6004=
07335,1997-12-11 09:00:00,14,1013.6,0.2,100,14,6000,35.188,,51.856,240,,,,1,,,,,,50,wg-a,,,,AAXX 11094 07335 12456 82419 10140 20140 39994 40136 51002 60017 75055 875// 90900 333 91028=
07335,1997-12-11 12:00:00,14,1012.6,-1,100,14,4500,25.928,,,250,,,,4,,,,,,61,wg-a,,,,AAXX 11124 07335 02245 82514 10140 20140 39984 40126 58010 60056 76165 887// 91200 333 60047=
07335,1997-12-11 15:00:00,14,1011.7,-0.9,94,13,8000,25.928,,,250,,,,2,,,,,,21,wg-a,,,,AAXX 11154 07335 12258 72514 10140 20130 39975 40117 56009 60027 72162 8552/ 91500=
07335,1997-12-11 18:00:00,13,1013,1.2,88,11,12000,22.224,,,260,12.6,14.5,,0,,,,,,3,wg-a,,,,AAXX 11184 07335 02462 72612 10130 20110 39987 40130 53012 60006 70362 8687/ 91800 333 10145 20126 60007=
07335,1997-12-12 00:00:00,9,1016,1.4,93,8,0,18.52,,,270,,,,,,,,,,,wg-a,,,,AAXX 12004 07335 12/// /2710 10090 20080 30014 40160 51014 60006 90000=
07335,1997-12-12 06:00:00,7,1019.9,1.6,93,6,15000,18.52,,,290,6.4,12.6,,,,,7,,,,wg-a,,,,AAXX 12064 07335 02665 /2910 10070 20060 30051 40199 53016 60006 81500 90600 333 10126 20064 60074=
07335,1997-12-12 09:00:00,7,1022.5,2.6,93,6,500,18.52,,,300,,,,,,,,,,,wg-a,,,,AAXX 12094 07335 12700 13010 10070 20060 30077 40225 51026 60006 81530 90900=
07335,1997-12-12 12:00:00,10,1023.9,1.6,82,7,500,18.52,,,320,,,,0,,,,,,,wg-a,,,,AAXX 12124 07335 02400 23210 10100 20070 30093 40239 51016 60006 82131 91200 333 60007=
07335,1997-12-12 18:00:00,5,1028.5,2.8,93,4,500,11.112,,,310,4.6,10,,,,,,,,,wg-a,,,,AAXX 12184 07335 12600 33106 10050 20040 30135 40285 53028 60006 83500 91800 333 10100 20046=
07335,1997-12-13 00:00:00,3,1031,1.1,93,2,0,3.704,,,310,,,,,,,,,,,wg-a,,,,AAXX 13004 07335 12/// /3102 10030 20020 30159 40310 51011 60006 90000=
07335,1997-12-13 06:00:00,4,1031.7,0.4,100,4,10000,11.112,,,350,1.9,4.8,,,,,,,,,wg-a,,,,AAXX 13064 07335 02560 43506 10040 20040 30166 40317 53004 60006 84500 90600 333 10048 20019 60004=
07335,1997-12-13 09:00:00,2,1033.5,1.7,100,2,400,7.408,,,330,,,,,,,,,,44,wg-a,,,,AAXX 13094 07335 12104 33304 10020 20020 30183 40335 53017 60006 74440 83600 90900=
07335,1997-12-13 12:00:00,7,1033.4,0.1,76,3,7000,14.816,,,50,,,,,,,,,,3,wg-a,,,,AAXX 13124 07335 12457 20508 10070 20030 30184 40334 50001 60006 70341 81202 91200=
07335,1997-12-13 15:00:00,7,1033,-0.3,66,1,15000,14.816,,,50,,,,,,,,,,,wg-a,,,,AAXX 13154 07335 12565 20508 10070 20010 30181 40330 55003 60006 81202 91500=
07335,1997-12-13 18:00:00,2,1034,0.7,87,0,0,0,,,0,1,7.7,,,,,,,,,wg-a,,,,AAXX 13184 07335 12/// /0000 10020 20000 30188 40340 51007 60006 91800 333 10077 20010=
07335,1997-12-14 00:00:00,-3,1034.1,-0.4,100,-3,0,3.704,,,10,,,,,,,,,,,wg-a,,,,AAXX 14004 07335 12/// /0102 11030 21030 30186 40341 56004 60006 90000=
07335,1997-12-14 06:00:00,0,1032,-1.2,100,0,400,11.112,,,80,-2.9,1.9,,,,,,,,45,wg-a,,,,AAXX 14064 07335 02/04 90806 10000 20000 30167 40320 56012 60006 74542 89/// 90600 333 10019 21029 60004=
07335,1997-12-14 09:00:00,1,1031.1,-0.8,100,1,1500,11.112,,,110,,,,,,,,,,10,wg-a,,,,AAXX 14094 07335 12115 81106 10010 20010 30159 40311 58008 60006 71042 876// 90900=
07335,1997-12-14 12:00:00,4,1029.7,-1.2,87,2,11000,18.52,,,40,,,,,,,,,,2,wg-a,,,,AAXX 14124 07335 12361 40410 10040 20020 30147 40297 58012 60006 70241 8163/ 91200=
07335,1997-12-14 15:00:00,6,1027,-2.6,70,1,15000,14.816,,,80,,,,,,,,,,,wg-a,,,,AAXX 14154 07335 12/65 10808 10060 20010 30121 40270 56026 60006 81030 91500=
07335,1997-12-14 18:00:00,2,1026.5,-0.7,93,1,0,14.816,,,50,-0.1,6.3,,,,,,,,,wg-a,,,,AAXX 14184 07335 12/// /0508 10020 20010 30114 40265 58007 60006 91800 333 10063 21001=
07335,1997-12-15 00:00:00,-1,1024.7,-1.2,100,-1,0,7.408,,,40,,,,,,,,,,,wg-a,,,,AAXX 15004 07335 12/// /0404 11010 21010 30095 40247 57012 60006 90000=
07335,1997-12-15 06:00:00,2,1022.5,-0.9,93,1,8000,7.408,,,50,-0.9,2.7,,,,,,,,,wg-a,,,,AAXX 15064 07335 02258 80504 10020 20010 30074 40225 58009 60006 885// 90600 333 10027 21009 60004=
07335,1997-12-15 09:00:00,3,1022.6,0.2,87,1,12000,22.224,,,60,,,,,,,,,,,wg-a,,,,AAXX 15094 07335 12462 70612 10030 20010 30076 40226 53002 60006 875// 90900=
07335,1997-12-15 12:00:00,4,1021.6,-0.9,70,-1,15000,25.928,,,60,,,,,,,,,,,wg-a,,,,AAXX 15124 07335 12565 /0614 10040 21010 30067 40216 58009 60006 86200 91200=
07335,1997-12-15 15:00:00,4,1020.6,-1,70,-1,20000,25.928,,,60,,,,,,,,,,,wg-a,,,,AAXX 15154 07335 12570 70614 10040 21010 30057 40206 55010 60006 878// 91500=
07335,1997-12-15 18:00:00,3,1020.1,-0.6,75,-1,20000,22.224,,,50,1.7,4.2,,,,,,,,,wg-a,,,,AAXX 15184 07335 12670 70512 10030 21010 30051 40201 58006 60006 875// 91800 333 10042 20017=
07335,1997-12-16 00:00:00,3,1018.2,-1.5,70,-2,0,22.224,,,60,,,,,,,,,,,wg-a,,,,AAXX 16004 07335 12/// /0612 10030 21020 30032 40182 58015 60006 90000=
07335,1997-12-16 06:00:00,0,1014,-2.2,86,-2,20000,22.224,,,70,0.3,3.2,,,,,,,,,wg-a,,,,AAXX 16064 07335 02470 /0712 10000 21020 39990 40140 56022 60006 86500 90600 333 10032 20003 60004=
07335,1997-12-17 00:00:00,1,999.4,-1,100,1,0,14.816,,,120,,,,,,,,,,,wg-a,,,,AAXX 17004 07335 12/// /1208 10010 20010 39846 49994 56010 60066 90000=
07335,1997-12-17 06:00:00,2,998.3,-0.5,100,2,6000,3.704,,,170,0.1,1.8,,,,,20,,,,wg-a,,4,,AAXX 17064 07335 02256 81702 10020 20020 39836 49983 57005 60006 885// 90600 333 10018 20001 4/004 60204=
07335,1997-12-17 09:00:00,3,998.2,-0.1,100,3,3000,11.112,,,120,,,,1,,,,,,60,wg-a,,,,AAXX 17094 07335 12230 81206 10030 20030 39835 49982 55001 60017 76062 885// 90900=
07335,1997-12-17 12:00:00,5,996.2,-1.8,100,5,4000,7.408,,,120,,,,0,,,,,,10,wg-a,,,,AAXX 17124 07335 02240 81204 10050 20050 39817 49962 58018 60016 71062 885// 91200 333 60007=
07335,1997-12-18 00:00:00,14,992.8,-1,77,10,0,25.928,,,170,,,,,,,,,,,wg-a,,,,AAXX 18004 07335 12/// /1714 10140 20100 39788 49928 58010 60006 90000=
07335,1997-12-18 06:00:00,13,993.6,-0.7,88,11,8000,22.224,,,180,11.9,14.9,,,,,,,,61,wg-a,,,,AAXX 18064 07335 02358 81812 10130 20110 39796 49936 55007 61000 76162 885// 90600 333 10149 20119 6003=
07335,1997-12-18 09:00:00,12,995.1,1.4,100,12,8000,22.224,,,170,,,,5,,,,,,61,wg-a,,,,AAXX 18094 07335 12358 81712 10120 20120 39810 49951 50014 60057 76166 875// 90900=
07335,1997-12-18 12:00:00,13,995.7,0.6,88,11,12000,18.52,,,210,,,,1,,,,,,1,wg-a,,,,AAXX 18124 07335 02462 82110 10130 20110 39816 49957 50006 60066 70162 875// 91200 333 60017=
07335,1997-12-18 15:00:00,11,995.8,-0,94,10,7000,7.408,,,20,,,,,,,,,,21,wg-a,,,,AAXX 18154 07335 02257 80204 10110 20100 39816 49958 55000 61000 72162 875// 91500 333 ////=
07335,1997-12-18 18:00:00,9,996,0.1,100,9,10000,7.408,,,250,8.7,12.9,,,,,,,,21,wg-a,,,,AAXX 18184 07335 02260 82504 10090 20090 39817 49960 50001 61000 72162 875// 91800 333 10129 20087 6001=
07335,1997-12-19 00:00:00,8,997.7,0.7,100,8,0,7.408,,,190,,,,,,,,,,,wg-a,,,,AAXX 19004 07335 12/// /1904 10080 20080 39834 49977 51007 60006 90000=
07335,1997-12-19 06:00:00,6,997.8,-0.2,100,6,8000,3.704,,,150,5.7,9.2,,,,,7,,,,wg-a,,,,AAXX 19064 07335 02758 41502 10060 20060 39833 49978 56002 60006 82530 90600 333 10092 20057 60074=
07335,1997-12-19 09:00:00,7,998.6,0.9,100,7,15000,11.112,,,150,,,,0,,,,,,21,wg-a,,,,AAXX 19094 07335 12565 71506 10070 20070 39842 49986 52009 60007 72161 875// 90900=
07335,1997-12-19 12:00:00,10,997.8,-0.6,87,8,25000,18.52,,,170,,,,0,,,,,,1,wg-a,,,,AAXX 19124 07335 02575 71710 10100 20080 39836 49978 58006 60016 70161 82872 91200 333 60007=
07335,1997-12-19 15:00:00,13,997.6,-0.1,67,7,25000,14.816,,,190,,,,,,,,,,,wg-a,,,,AAXX 19154 07335 12675 51908 10130 20070 39835 49976 55001 60006 83802 91500=
07335,1997-12-19 18:00:00,11,997.9,0.2,76,7,20000,14.816,,,170,5.6,13.5,,,,,,,,,wg-a,,,,AAXX 19184 07335 12770 71708 10110 20070 39837 49979 52002 60006 875// 91800 333 10135 20056=
07335,1997-12-20 00:00:00,9,999.2,0.5,93,8,0,11.112,,,270,,,,,,,,,,,wg-a,,,,AAXX 20004 07335 12/// /2706 10090 20080 39849 49992 51005 60016 90000=
07335,1997-12-20 06:00:00,7,1000.5,0.7,100,7,15000,14.816,,,190,6,10.5,,,,,1,,,,wg-a,,,,AAXX 20064 07335 02665 31908 10070 20070 39860 40005 53007 60006 83500 90600 333 10105 20060 60014=
07335,1997-12-20 09:00:00,7,1002,1.5,100,7,20000,14.816,,,190,,,,,,,,,,,wg-a,,,,AAXX 20094 07335 12/70 11908 10070 20070 39875 40020 53015 60006 81030 90900=
07335,1997-12-20 15:00:00,10,1001.5,-0.4,87,8,25000,22.224,,,200,,,,,,,,,,25,wg-a,,,,AAXX 20154 07335 02475 72012 10100 20080 39872 40015 56004 61000 72586 878// 91500 333 ////=
07335,1997-12-20 18:00:00,9,1001.7,0.1,93,8,0,22.224,,,160,5.8,11.4,,,,,,,,,wg-a,,,,AAXX 20184 07335 32/// /1612 10090 20080 39873 40017 52001 91800 333 10114 20058=
07335,1997-12-21 00:00:00,9,1003.4,1.5,100,9,0,11.112,,,40,,,,,,,,,,,wg-a,,,,AAXX 21004 07335 12/// /0406 10090 20090 39890 40034 53015 60036 90000=
07335,1997-12-21 06:00:00,8,1009.9,2.7,100,8,15000,14.816,,,330,7.8,9.1,,,,,,,,61,wg-a,,,,AAXX 21064 07335 02265 83308 10080 20080 39954 40099 51027 61000 76162 877// 90600 333 10091 20078 6005=
07335,1997-12-21 12:00:00,9,1013.2,0.8,93,8,6000,7.408,,,330,,,,,,,,,,2,wg-a,,,,AAXX 21124 07335 02256 83304 10090 20080 39987 40132 50008 61000 70262 875// 91200 333 ////=
07335,1997-12-21 15:00:00,9,1013.1,-0.1,93,8,7000,3.704,,,320,,,,,,,,,,,wg-a,,,,AAXX 21154 07335 12357 83202 10090 20080 39986 40131 55001 60006 876// 91500=
07335,1997-12-21 18:00:00,8,1014,0.8,100,8,0,3.704,,,60,7.7,9.2,,,,,,,,,wg-a,,,,AAXX 21184 07335 32/// /0602 10080 20080 39994 40140 51008 91800 333 10092 20077=
07335,1997-12-22 00:00:00,3,1014.4,0.2,100,3,0,0,,,0,,,,,,,,,,,wg-a,,,,AAXX 22004 07335 12/// /0000 10030 20030 39995 40144 52002 60006 90000=
07335,1997-12-22 06:00:00,4,1012.3,-1.2,100,4,400,14.816,,,120,0.7,8.3,,,,,,,,42,wg-a,,,,AAXX 22064 07335 02004 81208 10040 20040 39975 40123 57012 60006 74242 886// 90600 333 10083 20007 61000=
07335,1997-12-22 09:00:00,4,1013.2,0.9,100,4,2000,11.112,,,130,,,,,,,,,,10,wg-a,,,,AAXX 22094 07335 12120 81306 10040 20040 39984 40132 53009 60006 71042 886// 90900=
07335,1997-12-22 12:00:00,5,1011.4,-1.7,100,5,8000,11.112,,,90,,,,,,,,,,1,wg-a,,,,AAXX 22124 07335 12258 70906 10050 20050 39967 40114 58017 60006 70142 85632 91200=
07335,1997-12-22 15:00:00,8,1010.7,-0.6,87,6,12000,7.408,,,90,,,,,,,,,,,wg-a,,,,AAXX 22154 07335 12762 70904 10080 20060 39961 40107 56006 60006 83532 91500=
07335,1997-12-22 18:00:00,7,1011.5,0.8,93,6,12000,3.704,,,70,3.4,7.7,,,,,,,,,wg-a,,,,AAXX 22184 07335 12762 80702 10070 20060 39969 40115 53008 60006 8553/ 91800 333 10077 20034=
07335,1997-12-23 00:00:00,6,1014.8,1.5,100,6,0,3.704,,,230,,,,,,,,,,,wg-a,,,,AAXX 23004 07335 12/// /2302 10060 20060 30001 40148 53015 60016 90000=
07335,1997-12-23 06:00:00,8,1019.4,2.6,93,7,8000,11.112,,,300,5.9,7.8,,,,,,,,20,wg-a,,,,AAXX 23064 07335 02458 83006 10080 20070 30047 40194 53026 61000 72052 875// 90600 333 10078 20059 6002=
07335,1997-12-23 09:00:00,8,1022.6,3.2,93,7,12000,11.112,,,260,,,,,,,,,,,wg-a,,,,AAXX 23094 07335 12662 72606 10080 20070 30079 40226 51032 60006 875// 90900=
07335,1997-12-23 12:00:00,11,1023.6,1.1,82,8,15000,14.816,,,230,,,,,,,,,,,wg-a,,,,AAXX 23124 07335 12665 72308 10110 20080 30090 40236 50011 60006 875// 91200=
07335,1997-12-23 15:00:00,12,1024.1,0.6,82,9,20000,14.816,,,210,,,,,,,,,,,wg-a,,,,AAXX 23154 07335 12570 72108 10120 20090 30096 40241 53006 60006 86831 91500=
07335,1997-12-23 18:00:00,11,1025,0.8,94,10,11000,18.52,,,210,7.6,13,,,,,,,,,wg-a,,,,AAXX 23184 07335 12/61 /2110 10110 20100 30104 40250 53008 60006 91800 333 10130 20076=
07335,1997-12-24 00:00:00,11,1026.7,0.7,100,11,0,22.224,,,240,,,,,,,,,,,wg-a,,,,AAXX 24004 07335 12/// /2412 10110 20110 30121 40267 51007 60006 90000=
07335,1997-12-24 06:00:00,10,1026,-0.8,93,9,15000,11.112,,,210,10,11.6,,,,,,,,,wg-a,,,,AAXX 24064 07335 02765 72106 10100 20090 30113 40260 55008 60006 81532 90600 333 10116 20100 60004=
07335,1997-12-24 09:00:00,10,1026.6,0.6,87,8,20000,18.52,,,210,,,,,,,,,,,wg-a,,,,AAXX 24094 07335 12770 72110 10100 20080 30119 40266 51006 60006 8153/ 90900=
07335,1997-12-24 12:00:00,11,1024.6,-1.9,82,8,20000,14.816,,,180,,,,,,,,,,,wg-a,,,,AAXX 24124 07335 12770 71808 10110 20080 30100 40246 57019 60006 8157/ 91200=
07335,1997-12-24 15:00:00,12,1022.6,-1.9,82,9,20000,22.224,,,200,,,,,,,,,,,wg-a,,,,AAXX 24154 07335 12770 82012 10120 20090 30081 40226 56019 60006 8157/ 91500=
07335,1997-12-24 18:00:00,11,1023.4,0.7,87,9,11000,22.224,,,220,9.6,11.9,,,,,,,,,wg-a,,,,AAXX 24184 07335 12/61 /2212 10110 20090 30088 40234 51007 60006 91800 333 10119 20096=
07335,1997-12-25 00:00:00,12,1023.6,-0.2,94,11,0,11.112,,,200,,,,,,,,,,,wg-a,,,,AAXX 25004 07335 12/// /2006 10120 20110 30091 40236 58002 60006 90000=
07335,1997-12-25 09:00:00,12,1018.9,-1.5,88,10,15000,22.224,,,190,,,,,,,,,,21,wg-a,,,,AAXX 25094 07335 02365 71912 10120 20100 30044 40189 58015 61000 72162 875// 90900 333 ////=
07335,1997-12-25 12:00:00,14,1017.7,-1.1,72,9,15000,29.632,,46.3,230,,,,,,,,,,21,wg-a,,,,AAXX 25124 07335 02565 72316 10140 20090 30033 40177 55011 61000 72162 875// 91200 333 6100 91025=
07335,1997-12-25 15:00:00,15,1015.1,-2.4,82,12,15000,35.188,,59.264,240,,,,,,,,,,1,wg-a,,,,AAXX 25154 07335 02565 82419 10150 20120 30009 40151 56024 61000 70162 875// 91500 333 //// 91032=
07335,1997-12-25 18:00:00,12,1016.5,1.2,88,10,0,31.484,,,250,10.7,14.9,,,,,,,,,wg-a,,,,AAXX 25184 07335 32/// /2517 10120 20100 30021 40165 52012 91800 333 10149 20107=
07335,1997-12-26 00:00:00,11,1017,-0.2,87,9,0,22.224,,,240,,,,,,,,,,,wg-a,,,,AAXX 26004 07335 12/// /2412 10110 20090 30025 40170 58002 60006 90000=
07335,1997-12-26 06:00:00,8,1014.6,-1.4,87,6,15000,18.52,,,250,8.2,12,,,,,,,,21,wg-a,,,,AAXX 26064 07335 02565 32510 10080 20060 30000 40146 57014 61000 72161 83500 90600 333 10120 20082 6100=
07335,1997-12-26 09:00:00,9,1014.3,-0.3,87,7,20000,18.52,,,230,,,,0,,,,,,25,wg-a,,,,AAXX 26094 07335 12570 62310 10090 20070 39997 40143 57003 60007 72586 84832 90900=
07335,1997-12-26 12:00:00,9,1013.2,-1,87,7,25000,31.484,,,250,,,,0,,,,,,25,wg-a,,,,AAXX 26124 07335 02575 52517 10090 20070 39987 40132 58010 60016 72586 84932 91200 333 60007=
07335,1997-12-26 18:00:00,8,1013.6,1,93,7,15000,18.52,,,250,7.3,11.1,,,,,,,,1,wg-a,,,,AAXX 26184 07335 02565 42510 10080 20070 39990 40136 53010 60006 70186 82832 91800 333 10111 20073 61000=
07335,1997-12-27 00:00:00,6,1014.6,0.3,93,5,0,14.816,,,250,,,,,,,,,,,wg-a,,,,AAXX 27004 07335 12/// /2508 10060 20050 39999 40146 51003 60006 90000=
07335,1997-12-27 06:00:00,6,1014.8,0.2,93,5,15000,14.816,,,260,4.9,8.2,,,,,1,,,,wg-a,,,,AAXX 27064 07335 02765 32608 10060 20050 30001 40148 53002 60006 83500 90600 333 10082 20049 60014=
07335,1997-12-27 09:00:00,6,1016.4,1.5,93,5,15000,14.816,,,270,,,,,,,,,,,wg-a,,,,AAXX 27094 07335 12665 22708 10060 20050 30016 40164 52015 60006 81530 90900=
07335,1997-12-27 12:00:00,9,1016.5,0.3,81,6,20000,18.52,,,290,,,,,,,,,,,wg-a,,,,AAXX 27124 07335 12470 /2910 10090 20060 30019 40165 50003 60006 85202 91200=
07335,1997-12-27 15:00:00,9,1016.5,-0,71,4,20000,29.632,,,310,,,,0,,,,,,25,wg-a,,,,AAXX 27154 07335 12570 33116 10090 20040 30019 40165 55000 60007 72586 83230 91500=
07335,1997-12-28 00:00:00,2,1018.8,-0.1,100,2,0,14.816,,,250,,,,,,,,,,,wg-a,,,,AAXX 28004 07335 12/// /2508 10020 20020 30038 40188 58001 60006 90000=
07335,1997-12-28 06:00:00,2,1017.8,-0.5,100,2,10000,11.112,,,230,-0.2,5.2,,,,,,,,,wg-a,,,,AAXX 28064 07335 02760 32306 10020 20020 30028 40178 56005 60006 83530 90600 333 10052 21002 60004=
07335,1997-12-28 09:00:00,3,1018.1,0.4,100,3,600,7.408,,,190,,,,,,,,,,45,wg-a,,,,AAXX 28094 07335 12/06 91904 10030 20030 30032 40181 53004 60006 74541 89/// 90900=
07335,1997-12-28 12:00:00,6,1016.7,-1.3,100,6,1100,11.112,,,190,,,,,,,,,,10,wg-a,,,,AAXX 28124 07335 12111 81906 10060 20060 30019 40167 58013 60006 71041 886// 91200=
07335,1997-12-28 15:00:00,6,1014.8,-1.8,100,6,10000,7.408,,,200,,,,,,,,,,,wg-a,,,,AAXX 28154 07335 12260 72004 10060 20060 30001 40148 56018 60006 876// 91500=
07335,1997-12-28 18:00:00,6,1014.7,-0.1,93,5,0,7.408,,,220,1.7,6.5,,,,,,,,,wg-a,,,,AAXX 28184 07335 12/// /2204 10060 20050 30000 40147 58001 60006 91800 333 10065 20017=
07335,1997-12-29 00:00:00,6,1012.9,-0.7,93,5,0,3.704,,,180,,,,,,,,,,,wg-a,,,,AAXX 29004 07335 12/// /1802 10060 20050 39982 40129 58007 60006 90000=
07335,1997-12-29 06:00:00,5,1012.2,-0.5,93,4,20000,7.408,,,150,4.3,6,,,,,,,,,wg-a,,,,AAXX 29064 07335 02570 /1504 10050 20040 39974 40122 55005 60006 81500 90600 333 10060 20043 60004=
07335,1997-12-29 09:00:00,5,1012.5,0.4,93,4,25000,7.408,,,150,,,,,,,,,,,wg-a,,,,AAXX 29094 07335 12575 /1504 10050 20040 39978 40125 53004 60006 81501 90900=
07335,1997-12-29 12:00:00,10,1011.1,-1.2,66,4,500,11.112,,,140,,,,,,,,,,,wg-a,,,,AAXX 29124 07335 12500 /1406 10100 20040 39966 40111 58012 60006 81531 91200=
07335,1997-12-29 15:00:00,10,1009.7,-1.3,66,4,500,14.816,,,140,,,,,,,,,,,wg-a,,,,AAXX 29154 07335 12/00 51408 10100 20040 39953 40097 56013 60006 85031 91500=
07335,1997-12-29 18:00:00,8,1009.5,-0.3,71,3,500,11.112,,,150,3.5,10.8,,,,,,,,,wg-a,,,,AAXX 29184 07335 12/00 71506 10080 20030 39950 40095 55003 60006 8703/ 91800 333 10108 20035=
07335,1997-12-30 00:00:00,7,1009.5,-0.1,81,4,0,7.408,,,200,,,,,,,,,,,wg-a,,,,AAXX 30004 07335 12/// /2004 10070 20040 39949 40095 56001 60006 90000=
07335,1997-12-30 06:00:00,6,1009.7,-0.2,87,4,25000,11.112,,,190,5.6,8,,,,,,,,,wg-a,,,,AAXX 30064 07335 02775 71906 10060 20040 39951 40097 55002 60006 875// 90600 333 10080 20056 60004=
07335,1997-12-30 09:00:00,8,1010.6,0.9,81,5,15000,22.224,,,190,,,,,,,,,,60,wg-a,,,,AAXX 30094 07335 02465 81912 10080 20050 39960 40106 53009 61000 76062 8757/ 90900 333 ////=
07335,1997-12-30 12:00:00,8,1010.1,-0.4,93,7,20000,18.52,,,200,,,,1,,,,,,21,wg-a,,,,AAXX 30124 07335 02470 82010 10080 20070 39956 40101 58004 60016 72162 875// 91200 333 60017=
07335,1997-12-30 15:00:00,9,1009.4,-0.7,93,8,7000,22.224,,,200,,,,,,,,,,3,wg-a,,,,AAXX 30154 07335 02257 82012 10090 20080 39949 40094 56007 61000 70365 887// 91500 333 ////=
07335,1997-12-31 00:00:00,9,1007.1,-1.7,93,8,0,22.224,,,190,,,,,,,,,,,wg-a,,,,AAXX 31004 07335 12/// /1912 10090 20080 39927 40071 58017 60006 90000=
07335,1997-12-31 09:00:00,9,1007.9,1.7,100,9,500,14.816,,,220,,,,4,,,,,,61,wg-a,,,,AAXX 31094 07335 12200 82208 10090 20090 39935 40079 53017 60047 76166 887// 90900=
07335,1997-12-31 15:00:00,9,1011.1,1.1,93,8,20000,7.408,,,250,,,,,,,,,,,wg-a,,,,AAXX 31154 07335 12/70 82504 10090 20080 39966 40111 53011 60006 8702/ 91500=
07335,1997-12-31 18:00:00,6,1013.1,1.8,100,6,10000,11.112,,,240,6,10.1,,,,,,,,,wg-a,,,,AAXX 31184 07335 12/60 /2406 10060 20060 39984 40131 51018 60006 91800 333 10101 20060=
