station_id,dh_utc,temperature,pression,pression_variation_3h,humidite,point_de_rosee,visibilite,vent_moyen,vent_rafales,vent_rafales_10min,vent_direction,temperature_min,temperature_max,pluie_1h,pluie_3h,pluie_6h,pluie_12h,pluie_24h,ensoleillement,temperature_sol,temps_omm,source,radiations,neige_au_sol,nebulosite,raw_msg
07335,1998-01-01 00:00:00,5,1015,1.1,100,5,0,7.408,,,190,,,,,,,,,,,wg-a,,,,AAXX 01004 07335 12/// /1904 10050 20050 30002 40150 51011 60006 90000=
07335,1998-01-01 09:00:00,5,1018,1.7,100,5,600,11.112,,,230,,,,,,,,,,45,wg-a,,,,AAXX 01094 07335 12/06 92306 10050 20050 30032 40180 53017 60006 74542 89/// 90900=
07335,1998-01-01 15:00:00,8,1014.7,-2.3,87,6,20000,22.224,,,200,,,,,,,,,,,wg-a,,,,AAXX 01154 07335 12470 42012 10080 20060 30001 40147 57023 60006 81831 91500=
07335,1998-01-01 18:00:00,7,1012.4,-2.3,93,6,0,25.928,,,200,4.8,8.2,,,,,,,,,wg-a,,,,AAXX 01184 07335 12/// /2014 10070 20060 39978 40124 56023 60006 91800 333 10082 20048=
07335,1998-01-02 06:00:00,9,1000.6,-4.6,87,7,15000,31.484,,,200,7.3,9.4,,,,,3,,,,wg-a,,,,AAXX 02064 07335 02465 82017 10090 20070 39863 40006 58046 60006 885// 90600 333 10094 20073 60034=
07335,1998-01-02 09:00:00,9,995.8,-4.8,93,8,4000,46.3,,74.08,210,,,,5,,,,,,17,wg-a,,,,AAXX 02094 07335 12240 82125 10090 20080 39815 49958 56048 60057 71796 887// 90900 333 91040=
07335,1998-01-02 12:00:00,8,999.8,3.9,87,6,15000,35.188,,,260,,,,8,,,,,,80,wg-a,,,,AAXX 02124 07335 02565 72619 10080 20060 39854 49998 51039 60136 78098 8593/ 91200 333 60087=
07335,1998-01-02 15:00:00,11,1003,3.3,71,6,500,31.484,,51.856,280,,,,0,,,,,,25,wg-a,,,,AAXX 02154 07335 12600 32817 10110 20060 39887 40030 53033 60007 72586 83200 91500 333 91028=
07335,1998-01-02 18:00:00,9,1008.5,5.3,81,6,500,18.52,,,260,6,10.9,,,,,,,,3,wg-a,,,,AAXX 02184 07335 12500 /2610 10090 20060 39940 40085 51053 60006 70386 83502 91800 333 10109 20060=
07335,1998-01-03 00:00:00,8,1011.2,0.3,93,7,0,14.816,,,200,,,,,,,,,,,wg-a,,,,AAXX 03004 07335 12/// /2008 10080 20070 39966 40112 50003 60006 90000=
07335,1998-01-03 06:00:00,11,1007.8,-2.6,94,10,3000,25.928,,,210,7.3,10.6,,,,,,,,51,wg-a,,,,AAXX 03064 07335 02230 82114 10110 20100 39934 40078 56026 61000 75165 887// 90600 333 10106 20073 6017=
07335,1998-01-03 09:00:00,12,1007.5,-0.2,100,12,4000,31.484,,,220,,,,2,,,,,,51,wg-a,,,,AAXX 03094 07335 12240 82217 10120 20120 39932 40075 55002 60027 75166 887// 90900=
07335,1998-01-03 12:00:00,14,1006,-1.4,94,13,3500,46.3,,64.82,250,,,,1,,,,,,51,wg-a,,,,AAXX 03124 07335 02335 82525 10140 20130 39918 40060 58014 60036 75165 887// 91200 333 60017 91035=
07335,1998-01-04 00:00:00,7,1017.9,1.2,87,5,0,7.408,,,220,,,,,,,,,,,wg-a,,,,AAXX 04004 07335 12/// /2204 10070 20050 30032 40179 50012 60006 90000=
07335,1998-01-04 09:00:00,7,1011,-2.6,100,7,10000,25.928,,,210,,,,,,,,,,,wg-a,,,,AAXX 04094 07335 12260 82114 10070 20070 39964 40110 56026 60006 876// 90900=
07335,1998-01-04 12:00:00,11,1006.8,-3.9,87,9,6000,35.188,,57.412,220,,,,1,,,,,,80,wg-a,,,,AAXX 04124 07335 02356 82219 10110 20090 39925 40068 56039 60016 78086 878// 91200 333 60017 91031=
07335,1998-01-04 15:00:00,11,1008.2,1.3,71,6,20000,42.596,,61.116,260,,,,1,,,,,,1,wg-a,,,,AAXX 04154 07335 12370 32623 10110 20060 39938 40082 53013 60017 70186 83800 91500 333 91033=
07335,1998-01-05 00:00:00,7,1015.5,2.1,76,3,0,25.928,,,260,,,,,,,,,,,wg-a,,,,AAXX 05004 07335 12/// /2614 10070 20030 30008 40155 51021 60026 90000=
07335,1998-01-05 06:00:00,7,1014.3,-1.3,81,4,15000,22.224,,,210,5.8,8.6,,,,,6,,,,wg-a,,,,AAXX 05064 07335 02665 /2112 10070 20040 39996 40143 57013 60006 82532 90600 333 10086 20058 60064=
07335,1998-01-05 09:00:00,7,1013.5,-0.7,93,6,15000,25.928,,,210,,,,1,,,,,,25,wg-a,,,,AAXX 05094 07335 12365 62114 10070 20060 39989 40135 55007 60017 72586 84802 90900=
07335,1998-01-05 12:00:00,9,1010.8,-2.6,93,8,10000,29.632,,48.152,220,,,,2,,,,,,60,wg-a,,,,AAXX 05124 07335 02360 82216 10090 20080 39963 40108 58026 60036 76086 878// 91200 333 60027 91026=
07335,1998-01-05 15:00:00,10,1008.3,-2.4,93,9,500,38.892,,59.264,250,,,,4,,,,,,61,wg-a,,,,AAXX 05154 07335 12400 82521 10100 20090 39939 40083 55024 60047 76166 878// 91500 333 91032=
07335,1998-01-06 00:00:00,9,1016.5,3,81,6,0,18.52,,,260,,,,,,,,,,,wg-a,,,,AAXX 06004 07335 02/// /2610 10090 20060 30019 40165 51030 60016 90000 333 61000=
07335,1998-01-06 06:00:00,9,1016.6,-0.9,100,9,12000,11.112,,,220,7.8,10.2,,,,,,,,20,wg-a,,,,AAXX 06064 07335 02262 82206 10090 20090 30020 40166 55009 61000 72052 887// 90600 333 10102 20078 6012=
07335,1998-01-06 09:00:00,11,1017.4,0.9,94,10,12000,25.928,,,250,,,,,,,,,,,wg-a,,,,AAXX 06094 07335 12362 82514 10110 20100 30029 40174 53009 60006 875// 90900=
07335,1998-01-06 12:00:00,12,1017.9,0.6,94,11,6000,29.632,,,240,,,,1,,,,,,51,wg-a,,,,AAXX 06124 07335 02456 82416 10120 20110 30035 40179 50006 60016 75165 875// 91200 333 60017=
07335,1998-01-06 18:00:00,12,1018.6,0.5,88,10,8000,18.52,,,220,9,12.1,,,,,,,,21,wg-a,,,,AAXX 06184 07335 02458 82210 10120 20100 30041 40186 51005 61000 72165 875// 91800 333 10121 20090 6100=
07335,1998-01-07 00:00:00,11,1018.1,-0.5,82,8,0,18.52,,,200,,,,,,,,,,,wg-a,,,,AAXX 07004 07335 12/// /2010 10110 20080 30036 40181 58005 60006 90000=
07335,1998-01-07 09:00:00,9,1019,1.9,93,8,15000,22.224,,,210,,,,2,,,,,,1,wg-a,,,,AAXX 07094 07335 12565 22112 10090 20080 30044 40190 51019 60027 70161 82500 90900=
07335,1998-01-07 12:00:00,12,1020,1.2,82,9,15000,31.484,,,240,,,,,,,,,,3,wg-a,,,,AAXX 07124 07335 02565 /2417 10120 20090 30056 40200 51012 60026 70386 86800 91200 333 61000=
07335,1998-01-07 15:00:00,13,1020.9,0.9,72,8,20000,25.928,,,250,,,,,,,,,,,wg-a,,,,AAXX 07154 07335 12570 52514 10130 20080 30065 40209 53009 60006 82202 91500=
07335,1998-01-07 18:00:00,10,1022.6,1.5,82,7,20000,14.816,,,220,9,13.6,,,,,,,,,wg-a,,,,AAXX 07184 07335 12/70 22208 10100 20070 30080 40226 51015 60006 80002 91800 333 10136 20090=
07335,1998-01-08 00:00:00,8,1025.4,1.4,100,8,0,14.816,,,220,,,,,,,,,,,wg-a,,,,AAXX 08004 07335 12/// /2208 10080 20080 30107 40254 51014 60006 90000=
07335,1998-01-08 06:00:00,7,1026.4,-0.2,100,7,15000,14.816,,,210,7.2,9.8,,,,,2,,,,wg-a,,,,AAXX 08064 07335 02565 32108 10070 20070 30116 40264 55002 60006 83500 90600 333 10098 20072 60024=
07335,1998-01-08 09:00:00,7,1027.6,1.2,100,7,15000,7.408,,,160,,,,,,,,,,,wg-a,,,,AAXX 08094 07335 12865 71604 10070 20070 30128 40276 53012 60006 85531 90900=
07335,1998-01-08 15:00:00,14,1026.9,-0.2,72,9,25000,14.816,,,210,,,,,,,,,,,wg-a,,,,AAXX 08154 07335 12875 52108 10140 20090 30124 40269 55002 60006 82531 91500=
07335,1998-01-08 18:00:00,10,1028,0.9,87,8,25000,7.408,,,200,6.8,14.5,,,,,,,,,wg-a,,,,AAXX 08184 07335 12875 12004 10100 20080 30133 40280 52009 60006 81500 91800 333 10145 20068=
07335,1998-01-09 00:00:00,6,1030.1,0.8,93,5,0,7.408,,,170,,,,,,,,,,,wg-a,,,,AAXX 09004 07335 12/// /1704 10060 20050 30151 40301 51008 60006 90000=
07335,1998-01-09 06:00:00,5,1029.2,-0.2,93,4,20000,7.408,,,150,4.6,10.2,,,,,,,,,wg-a,,,,AAXX 09064 07335 02/70 01504 10050 20040 30142 40292 55002 60006 80000 90600 333 10102 20046 60004=
07335,1998-01-09 09:00:00,3,1029.5,0.2,100,3,10000,0,,,0,,,,,,,,,,,wg-a,,,,AAXX 09094 07335 12760 20000 10030 20030 30144 40295 53002 60006 81502 90900=
07335,1998-01-09 12:00:00,13,1028.2,-0.7,62,6,20000,7.408,,,130,,,,,,,,,,,wg-a,,,,AAXX 09124 07335 12/70 31304 10130 20060 30137 40282 58007 60006 80002 91200=
07335,1998-01-09 15:00:00,15,1026.3,-1.8,55,6,25000,7.408,,,140,,,,,,,,,,,wg-a,,,,AAXX 09154 07335 12/75 31404 10150 20060 30119 40263 56018 60006 80002 91500=
07335,1998-01-09 18:00:00,6,1026.7,-0.1,93,5,20000,3.704,,,140,2.7,15,,,,,,,,,wg-a,,,,AAXX 09184 07335 12/70 11402 10060 20050 30118 40267 55001 60006 80002 91800 333 10150 20027=
07335,1998-01-10 00:00:00,7,1026.4,-0.3,81,4,0,7.408,,,170,,,,,,,,,,,wg-a,,,,AAXX 10004 07335 12/// /1704 10070 20040 30115 40264 57003 60006 90000=
07335,1998-01-10 09:00:00,7,1026,0.8,93,6,20000,7.408,,,180,,,,,,,,,,,wg-a,,,,AAXX 10094 07335 12/70 21804 10070 20060 30112 40260 51008 60006 82041 90900=
07335,1998-01-10 12:00:00,12,1024.2,-1.5,71,7,25000,14.816,,,190,,,,,,,,,,,wg-a,,,,AAXX 10124 07335 12/75 61908 10120 20070 30097 40242 58015 60006 81042 91200=
07335,1998-01-10 15:00:00,14,1022.2,-1.9,67,8,25000,11.112,,,170,,,,,,,,,,,wg-a,,,,AAXX 10154 07335 12/75 21706 10140 20080 30078 40222 56019 60006 81082 91500=
07335,1998-01-10 18:00:00,8,1021.4,-1.1,81,5,0,3.704,,,120,1.8,14.7,,,,,,,,,wg-a,,,,AAXX 10184 07335 12/// /1202 10080 20050 30067 40214 56011 60006 91800 333 10147 20018=
07335,1998-01-11 00:00:00,6,1020,-0.6,93,5,0,7.408,,,170,,,,,,,,,,,wg-a,,,,AAXX 11004 07335 12/// /1704 10060 20050 30052 40200 56006 60006 90000=
07335,1998-01-11 06:00:00,5,1019.7,-0.2,93,4,20000,11.112,,,170,3.3,9.1,,,,,,,,,wg-a,,,,AAXX 11064 07335 02/70 51706 10050 20040 30048 40197 55002 60006 81032 90600 333 10091 20033 60004=
07335,1998-01-11 09:00:00,7,1019.8,0.2,87,5,500,11.112,,,160,,,,,,,,,,,wg-a,,,,AAXX 11094 07335 12/00 71606 10070 20050 30050 40198 53002 60006 85032 90900=
07335,1998-01-11 12:00:00,14,1019.2,-0.2,67,8,500,25.928,,,190,,,,,,,,,,,wg-a,,,,AAXX 11124 07335 12/00 61914 10140 20080 30048 40192 58002 60006 81032 91200=
07335,1998-01-11 15:00:00,14,1018.3,-0.9,67,8,500,18.52,,,190,,,,,,,,,,,wg-a,,,,AAXX 11154 07335 12/00 71910 10140 20080 30039 40183 55009 60006 81032 91500=
07335,1998-01-11 18:00:00,11,1018.2,-0.2,82,8,0,7.408,,,160,4.7,14.7,,,,,,,,,wg-a,,,,AAXX 11184 07335 12/// /1604 10110 20080 30037 40182 57002 60006 91800 333 10147 20047=
07335,1998-01-12 00:00:00,10,1019,0,82,7,0,14.816,,,180,,,,,,,,,,,wg-a,,,,AAXX 12004 07335 12/// /1808 10100 20070 30044 40190 50000 60006 90000=
07335,1998-01-12 06:00:00,10,1017.2,-1.1,82,7,12000,18.52,,,180,9,11.2,,,,,,,,,wg-a,,,,AAXX 12064 07335 02/62 61810 10100 20070 30027 40172 56011 60006 82072 90600 333 10112 20090 60004=
07335,1998-01-12 09:00:00,11,1017.1,-0.1,76,7,20000,18.52,,,180,,,,,,,,,,,wg-a,,,,AAXX 12094 07335 12/70 71810 10110 20070 30026 40171 57001 60006 8707/ 90900=
07335,1998-01-12 15:00:00,13,1014,-1.7,77,9,20000,22.224,,,180,,,,,,,,,,,wg-a,,,,AAXX 12154 07335 12770 71812 10130 20090 39997 40140 56017 60006 875// 91500=
07335,1998-01-12 18:00:00,13,1012.4,-1.6,72,8,20000,22.224,,,160,9.8,13.8,,,,,,,,,wg-a,,,,AAXX 12184 07335 12770 41612 10130 20080 39981 40124 58016 60006 82530 91800 333 10138 20098=
07335,1998-01-13 00:00:00,12,1006.6,-3.2,76,8,0,29.632,,,160,,,,,,,,,,,wg-a,,,,AAXX 13004 07335 12/// /1616 10120 20080 39923 40066 57032 60006 90000=
07335,1998-01-13 09:00:00,13,1004.1,1.4,72,8,500,22.224,,,190,,,,,,,,,,,wg-a,,,,AAXX 13094 07335 12500 21912 10130 20080 39899 40041 52014 60006 81832 90900=
07335,1998-01-13 15:00:00,12,1004.3,0.2,67,6,25000,38.892,,57.412,220,,,,,,,,,,3,wg-a,,,,AAXX 13154 07335 02575 52221 10120 20060 39901 40043 53002 61000 70386 85832 91500 333 //// 91031=
07335,1998-01-14 00:00:00,9,1007.9,1.4,93,8,0,29.632,,,230,,,,1,,,,,,,wg-a,,,,AAXX 14004 07335 02/// /2316 10090 20080 39934 40079 53014 60016 90000 333 60017=
07335,1998-01-14 12:00:00,11,1018.9,2.5,66,5,25000,22.224,,,300,,,,,,,,,,,wg-a,,,,AAXX 14124 07335 12575 23012 10110 20050 30044 40189 51025 60006 82102 91200=
07335,1998-01-14 18:00:00,5,1022.8,1.9,93,4,25000,11.112,,,240,4.3,11.6,,,,,,,,,wg-a,,,,AAXX 14184 07335 12675 72406 10050 20040 30079 40228 51019 60006 81432 91800 333 10116 20043=
07335,1998-01-15 00:00:00,5,1024.1,0.1,100,5,0,11.112,,,200,,,,,,,,,,,wg-a,,,,AAXX 15004 07335 12/// /2006 10050 20050 30092 40241 50001 60006 90000=
07335,1998-01-15 06:00:00,7,1022,-1.5,93,6,15000,22.224,,,200,4.2,7,,,,,,,,61,wg-a,,,,AAXX 15064 07335 02365 82012 10070 20060 30072 40220 56015 61000 76162 885// 90600 333 10070 20042 6001=
07335,1998-01-15 09:00:00,8,1021.8,-0.1,93,7,500,22.224,,,200,,,,,,,,,,,wg-a,,,,AAXX 15094 07335 32/00 /2012 10080 20070 30071 40218 55001 90900=
07335,1998-01-15 12:00:00,9,1020.8,-0.9,100,9,3000,22.224,,,210,,,,1,,,,,,51,wg-a,,,,AAXX 15124 07335 02230 82112 10090 20090 30062 40208 58009 60026 75166 887// 91200 333 60017=
07335,1998-01-15 15:00:00,10,1019.3,-1.4,100,10,4000,25.928,,,210,,,,1,,,,,,61,wg-a,,,,AAXX 15154 07335 12240 82114 10100 20100 30048 40193 56014 60017 76166 885// 91500=
07335,1998-01-15 18:00:00,10,1018.2,-1.1,100,10,8000,29.632,,,210,7,10.5,,,,,,,,,wg-a,,,,AAXX 15184 07335 12/58 /2116 10100 20100 30037 40182 57011 60006 91800 333 10105 20070=
07335,1998-01-16 00:00:00,10,1016.4,-0.6,100,10,0,7.408,,,220,,,,1,,,,,,,wg-a,,,,AAXX 16004 07335 02/// /2204 10100 20100 30019 40164 58006 60056 90000 333 60017=
07335,1998-01-16 06:00:00,10,1011.7,-1.9,93,9,25000,18.52,,,250,9.7,10.6,,,,,14,,,,wg-a,,,,AAXX 16064 07335 02375 /2510 10100 20090 39973 40117 56019 60006 85700 90600 333 10106 20097 60144=
07335,1998-01-16 09:00:00,8,1012.8,0.9,100,8,25000,22.224,,,260,,,,5,,,,,,21,wg-a,,,,AAXX 16094 07335 12375 82612 10080 20080 39982 40128 53009 60057 72186 8657/ 90900=
07335,1998-01-16 12:00:00,10,1015.2,2.5,82,7,25000,25.928,,,290,,,,0,,,,,,1,wg-a,,,,AAXX 16124 07335 02575 72914 10100 20070 30007 40152 51025 60066 70186 8687/ 91200 333 60007=
07335,1998-01-16 15:00:00,10,1018.6,3.3,71,5,500,35.188,,,310,,,,,,,,,,,wg-a,,,,AAXX 16154 07335 12500 33119 10100 20050 30040 40186 53033 60006 82830 91500=
07335,1998-01-17 00:00:00,5,1028.4,1.9,93,4,0,18.52,,,290,,,,,,,,,,,wg-a,,,,AAXX 17004 07335 12/// /2910 10050 20040 30134 40284 51019 60006 90000=
07335,1998-01-17 06:00:00,0,1030.8,0.7,100,0,12000,3.704,,,220,0.4,,,,,,6,,,,wg-a,,,,AAXX 17064 07335 02/62 02202 10000 20000 30155 40308 53007 60006 80000 90600 333 10073 20004 60064=
07335,1998-01-17 09:00:00,2,1031.5,0.8,100,2,6000,3.704,,,210,,,,,,,,,,11,wg-a,,,,AAXX 17094 07335 12/56 02102 10020 20020 30163 40315 53008 60006 71100 80000 90900=
07335,1998-01-17 12:00:00,4,1030.4,-0.9,100,4,1500,18.52,,,160,,,,,,,,,,10,wg-a,,,,AAXX 17124 07335 12215 71610 10040 20040 30154 40304 58009 60006 71011 876// 91200=
07335,1998-01-18 00:00:00,3,1020.9,-2.2,100,3,0,11.112,,,180,,,,,,,,,,,wg-a,,,,AAXX 18004 07335 12/// /1806 10030 20030 30059 40209 58022 60006 90000=
07335,1998-01-18 06:00:00,6,1012.9,-4,81,3,12000,22.224,,,200,2.7,5.6,,,,,,,,,wg-a,,,,AAXX 18064 07335 02562 82012 10060 20030 39982 40129 58040 60006 875// 90600 333 10056 20027 60004=
07335,1998-01-18 09:00:00,7,1009.7,-3.1,100,7,6000,31.484,,,200,,,,3,,,,,,61,wg-a,,,,AAXX 18094 07335 12256 82017 10070 20070 39951 40097 56031 60037 76162 887// 90900=
07335,1998-01-18 12:00:00,10,1009.2,-0.3,87,8,15000,29.632,,,260,,,,4,,,,,,21,wg-a,,,,AAXX 18124 07335 02265 82616 10100 20080 39948 40092 55003 60086 72165 885// 91200 333 60047=
07335,1998-01-18 15:00:00,9,1009.7,0.4,93,8,15000,18.52,,,250,,,,0,,,,,,,wg-a,,,,AAXX 18154 07335 12265 82510 10090 20080 39952 40097 52004 60007 875// 91500=
07335,1998-01-18 18:00:00,9,1008.5,-1.2,93,8,0,18.52,,,230,5.5,9.9,,,,,,,,,wg-a,,,,AAXX 18184 07335 32/// /2310 10090 20080 39940 40085 58012 91800 333 10099 20055=
07335,1998-01-19 00:00:00,8,1001.8,-1.3,93,7,0,38.892,,,300,,,,8,,,,,,,wg-a,,,,AAXX 19004 07335 02/// /3021 10080 20070 39874 40018 55013 60116 90000 333 60087=
07335,1998-01-19 06:00:00,6,1005.2,0.9,100,6,15000,14.816,,,250,6.3,11.3,,,,,22,,,,wg-a,,,,AAXX 19064 07335 02/65 82508 10060 20060 39906 40052 51009 60006 8802/ 90600 333 10113 20063 60224=
07335,1998-01-19 15:00:00,11,1011.2,1.5,66,5,25000,22.224,,,290,,,,,,,,,,,wg-a,,,,AAXX 19154 07335 12675 42912 10110 20050 39968 40112 53015 60006 83802 91500=
07335,1998-01-19 18:00:00,8,1013.1,1.7,81,5,20000,18.52,,,270,6.1,10.8,,,,,,,,,wg-a,,,,AAXX 19184 07335 12670 72710 10080 20050 39985 40131 51017 60006 874// 91800 333 10108 20061=
07335,1998-01-20 00:00:00,7,1017.1,3.2,87,5,0,31.484,,,360,,,,0,,,,,,,wg-a,,,,AAXX 20004 07335 02/// /3617 10070 20050 30024 40171 53032 60016 90000 333 60007=
07335,1998-01-20 06:00:00,0,1025.1,3.3,93,-1,20000,14.816,,,320,0.3,8.3,,,,,1,,,,wg-a,,,,AAXX 20064 07335 02/70 03208 10000 21010 30099 40251 51033 60006 80000 90600 333 10083 20003 60014=
07335,1998-01-20 09:00:00,1,1028.1,3,86,-1,20000,18.52,,,330,,,,,,,,,,,wg-a,,,,AAXX 20094 07335 12/70 03310 10010 21010 30129 40281 52030 60006 80000 90900=
07335,1998-01-20 12:00:00,4,1029.9,2,81,1,20000,18.52,,,340,,,,,,,,,,,wg-a,,,,AAXX 20124 07335 12470 23410 10040 20010 30149 40299 51020 60006 82801 91200=
07335,1998-01-20 15:00:00,5,1030.4,0.5,75,1,20000,22.224,,,340,,,,,,,,,,,wg-a,,,,AAXX 20154 07335 12570 73412 10050 20010 30154 40304 53005 60006 878// 91500=
07335,1998-01-21 00:00:00,-1,1034.6,0.7,93,-2,0,11.112,,,340,,,,,,,,,,,wg-a,,,,AAXX 21004 07335 12/// /3406 11010 21020 30192 40346 52007 60006 90000=
07335,1998-01-21 06:00:00,-3,1035.1,0.4,100,-3,6000,3.704,,,340,-3,2.8,,,,,,,,,wg-a,,,,AAXX 21064 07335 02/56 03402 11030 21030 30196 40351 53004 60006 80000 90600 333 10028 21030 60004=
07335,1998-01-21 09:00:00,-2,1036.3,1.2,100,-2,6000,3.704,,,330,,,,,,,,,,,wg-a,,,,AAXX 21094 07335 12/56 03302 11020 21020 30208 40363 51012 60006 80000 90900=
07335,1998-01-21 12:00:00,3,1035.5,-0.5,87,1,10000,7.408,,,350,,,,,,,,,,,wg-a,,,,AAXX 21124 07335 12360 23504 10030 20010 30203 40355 58005 60006 82101 91200=
07335,1998-01-21 15:00:00,5,1034.4,-1,70,0,15000,18.52,,,30,,,,,,,,,,,wg-a,,,,AAXX 21154 07335 12565 50310 10050 20000 30193 40344 56010 60006 83101 91500=
07335,1998-01-22 00:00:00,-1,1033.1,-0.9,86,-3,0,11.112,,,40,,,,,,,,,,,wg-a,,,,AAXX 22004 07335 12/// /0406 11010 21030 30177 40331 58009 60006 90000=
07335,1998-01-22 06:00:00,-2,1031.2,-0.9,86,-4,10000,14.816,,,40,-3.2,2,,,,,,,,,wg-a,,,,AAXX 22064 07335 02/60 00408 11020 21040 30158 40312 56009 60006 80000 90600 333 10020 21032 60004=
07335,1998-01-22 12:00:00,2,1028.4,-1.9,64,-4,25000,25.928,,,90,,,,,,,,,,,wg-a,,,,AAXX 22124 07335 12575 /0914 10020 21040 30133 40284 58019 60006 81200 91200=
07335,1998-01-22 18:00:00,1,1026.2,-0.3,69,-4,25000,18.52,,,80,-3,3.5,,,,,,,,,wg-a,,,,AAXX 22184 07335 12/75 00810 10010 21040 30110 40262 55003 60006 80000 91800 333 10035 21030=
07335,1998-01-23 06:00:00,-2,1022,-1.4,86,-4,20000,18.52,,,50,-2.4,0.5,,,,,,,,,wg-a,,,,AAXX 23064 07335 02/70 00510 11020 21040 30067 40220 56014 60006 80000 90600 333 10005 21024 60004=
07335,1998-01-23 09:00:00,-1,1022.2,0.3,86,-3,10000,18.52,,,70,,,,,,,,,,,wg-a,,,,AAXX 23094 07335 12360 /0710 11010 21030 30070 40222 50003 60006 81100 90900=
07335,1998-01-23 12:00:00,3,1021.3,-0.7,70,-2,15000,29.632,,,100,,,,,,,,,,,wg-a,,,,AAXX 23124 07335 12/65 01016 10030 21020 30063 40213 58007 60006 80000 91200=
07335,1998-01-23 15:00:00,4,1021,-0.2,70,-1,15000,22.224,,,70,,,,,,,,,,,wg-a,,,,AAXX 23154 07335 12/65 00712 10040 21010 30061 40210 55002 60006 80000 91500=
07335,1998-01-24 00:00:00,-1,1024.1,0.7,86,-3,0,11.112,,,40,,,,,,,,,,,wg-a,,,,AAXX 24004 07335 12/// /0406 11010 21030 30088 40241 52007 60006 90000=
07335,1998-01-24 06:00:00,-2,1024.4,0.3,93,-3,500,14.816,,,40,-2.1,2.2,,,,,,,,,wg-a,,,,AAXX 24064 07335 02/00 00408 11020 21030 30091 40244 53003 60006 80000 90600 333 10022 21021 60004=
07335,1998-01-24 09:00:00,1,1025,0.8,93,0,500,22.224,,,50,,,,,,,,,,,wg-a,,,,AAXX 24094 07335 12400 80512 10010 20000 30099 40250 52008 60006 885// 90900=
07335,1998-01-24 12:00:00,1,1024.5,-0.5,93,0,6000,18.52,,,50,,,,,,,,,,,wg-a,,,,AAXX 24124 07335 12356 80510 10010 20000 30094 40245 58005 60006 886// 91200=
07335,1998-01-24 15:00:00,1,1023.7,-0.8,80,-2,500,22.224,,,50,,,,,,,,,,1,wg-a,,,,AAXX 24154 07335 02400 80512 10010 21020 30086 40237 56008 61000 70152 885// 91500 333 ////=
07335,1998-01-24 18:00:00,2,1024.1,0.4,80,-1,0,25.928,,,40,-1.9,1.7,,,,,,,,,wg-a,,,,AAXX 24184 07335 32/// /0414 10020 21010 30090 40241 52004 91800 333 10017 21019=
07335,1998-01-25 00:00:00,2,1023.1,-0.9,69,-3,0,25.928,,,40,,,,,,,,,,,wg-a,,,,AAXX 25004 07335 12/// /0414 10020 21030 30080 40231 57009 60006 90000=
07335,1998-01-25 06:00:00,1,1021.9,-0.3,80,-2,15000,29.632,,,40,0.8,2.3,,,,,,,,,wg-a,,,,AAXX 25064 07335 02465 80416 10010 21020 30068 40219 55003 60006 875// 90600 333 10023 20008 61000=
07335,1998-01-25 09:00:00,0,1022.2,0.3,93,-1,15000,18.52,,,20,,,,,,,,,,22,wg-a,,,,AAXX 25094 07335 02465 80210 10000 21010 30071 40222 51003 61000 72272 885// 90900 333 ////=
07335,1998-01-25 12:00:00,2,1022.1,-0.1,80,-1,15000,29.632,,,40,,,,,,,,,,70,wg-a,,,,AAXX 25124 07335 02465 80416 10020 21010 30070 40221 58001 61000 77072 875// 91200 333 6100=
07335,1998-01-25 15:00:00,0,1021.7,-0.4,100,0,1800,25.928,,,40,,,,0,,,,,,71,wg-a,,,,AAXX 25154 07335 12218 80414 10000 20000 30066 40217 55004 60007 77172 887// 91500=
07335,1998-01-26 00:00:00,0,1024.6,0.5,86,-2,0,18.52,,,60,,,,,,,,,,,wg-a,,,,AAXX 26004 07335 12/// /0610 10000 21020 30094 40246 51005 60006 90000=
07335,1998-01-26 06:00:00,-1,1025.6,0.4,86,-3,10000,11.112,,,60,-1,0.8,,,,,,,,,wg-a,,,,AAXX 26064 07335 02/60 00606 11010 21030 30103 40256 53004 60006 80000 90600 333 10008 21010 60004=
07335,1998-01-26 09:00:00,-1,1026.6,1,86,-3,10000,14.816,,,70,,,,,,,,,,,wg-a,,,,AAXX 26094 07335 12/60 00708 11010 21030 30113 40266 52010 60006 80000 90900=
07335,1998-01-26 15:00:00,3,1024.5,-1.3,70,-2,15000,18.52,,,60,,,,,,,,,,,wg-a,,,,AAXX 26154 07335 12/65 00610 10030 21020 30095 40245 56013 60006 80000 91500=
07335,1998-01-26 18:00:00,1,1024.1,-0.5,75,-3,10000,14.816,,,60,-1.5,3.6,,,,,,,,,wg-a,,,,AAXX 26184 07335 12/60 00608 10010 21030 30090 40241 56005 60006 80000 91800 333 10036 21015=
07335,1998-01-27 00:00:00,-2,1023.2,-1,86,-4,0,14.816,,,50,,,,,,,,,,,wg-a,,,,AAXX 27004 07335 12/// /0508 11020 21040 30079 40232 58010 60006 90000=
07335,1998-01-27 06:00:00,-3,1020.3,-1.1,93,-4,6000,11.112,,,50,-3.8,0.9,,,,,,,,,wg-a,,,,AAXX 27064 07335 02/56 00506 11030 21040 30050 40203 56011 60006 80000 90600 333 10009 21038 60004=
07335,1998-01-27 09:00:00,-2,1020.3,0.1,86,-4,8000,11.112,,,60,,,,,,,,,,,wg-a,,,,AAXX 27094 07335 12/58 00606 11020 21040 30051 40203 53001 60006 80000 90900=
07335,1998-01-27 12:00:00,2,1019,-1.1,69,-3,10000,14.816,,,90,,,,,,,,,,,wg-a,,,,AAXX 27124 07335 12/60 00908 10020 21030 30040 40190 58011 60006 80000 91200=
07335,1998-01-27 15:00:00,3,1017.4,-1.5,70,-2,12000,11.112,,,70,,,,,,,,,,,wg-a,,,,AAXX 27154 07335 12/62 00706 10030 21020 30025 40174 56015 60006 80000 91500=
07335,1998-01-27 18:00:00,0,1017.5,-0.1,86,-2,10000,11.112,,,50,-3.4,3.2,,,,,,,,,wg-a,,,,AAXX 27184 07335 12/60 /0506 10000 21020 30024 40175 55001 60006 91800 333 10032 21034=
07335,1998-01-28 00:00:00,0,1017.7,0,93,-1,0,11.112,,,90,,,,,,,,,,,wg-a,,,,AAXX 28004 07335 12/// /0906 10000 21010 30026 40177 50000 60006 90000=
07335,1998-01-28 06:00:00,-1,1016.8,-0.6,100,-1,200,14.816,,,90,-1.5,0,,,,,,,,45,wg-a,,,,AAXX 28064 07335 02/02 90908 11010 21010 30017 40168 57006 60006 74542 89/// 90600 333 10000 21015 60004=
07335,1998-01-28 09:00:00,-1,1018,1.2,100,-1,200,14.816,,,70,,,,,,,,,,45,wg-a,,,,AAXX 28094 07335 12/02 90708 11010 21010 30029 40180 52012 60006 74544 89/// 90900=
07335,1998-01-28 12:00:00,0,1017.7,-0.3,100,0,400,14.816,,,90,,,,,,,,,,43,wg-a,,,,AAXX 28124 07335 12/04 90908 10000 20000 30026 40177 58003 60006 74344 89/// 91200=
07335,1998-01-28 15:00:00,0,1016.8,-0.9,100,0,400,22.224,,,40,,,,,,,,,,45,wg-a,,,,AAXX 28154 07335 12/04 90412 10000 20000 30017 40168 56009 60006 74544 89/// 91500=
07335,1998-01-29 00:00:00,-1,1017.5,0.2,100,-1,0,14.816,,,70,,,,,,,,,,,wg-a,,,,AAXX 29004 07335 12/// /0708 11010 21010 30024 40175 52002 60006 90000=
07335,1998-01-29 06:00:00,-1,1017.7,-0.1,100,-1,800,14.816,,,90,-1.4,0,,,,,,,,43,wg-a,,,,AAXX 29064 07335 02/08 90908 11010 21010 30025 40177 56001 60006 74342 89/// 90600 333 10000 21014 60004=
07335,1998-01-29 12:00:00,0,1019.6,0.6,100,0,2000,18.52,,,80,,,,,,,,,,10,wg-a,,,,AAXX 29124 07335 12120 80810 10000 20000 30045 40196 50006 60006 71042 886// 91200=
07335,1998-01-29 15:00:00,2,1018.6,-0.9,87,0,500,18.52,,,70,,,,,,,,,,,wg-a,,,,AAXX 29154 07335 12300 70710 10020 20000 30036 40186 56009 60006 876// 91500=
07335,1998-01-29 18:00:00,-1,1019.3,0.6,93,-2,4000,18.52,,,70,-1.4,2.3,,,,,,,,10,wg-a,,,,AAXX 29184 07335 12340 80710 11010 21020 30042 40193 53006 60006 71022 886// 91800 333 10023 21014=
07335,1998-01-30 00:00:00,-3,1019.2,-0.3,93,-4,0,3.704,,,60,,,,,,,,,,,wg-a,,,,AAXX 30004 07335 12/// /0602 11030 21040 30039 40192 56003 60006 90000=
07335,1998-01-30 15:00:00,1,1016.6,-1.7,86,-1,2000,11.112,,,50,,,,,,,,,,10,wg-a,,,,AAXX 30154 07335 12220 80506 10010 21010 30016 40166 56017 60006 71022 886// 91500=
07335,1998-01-31 06:00:00,-1,1013.6,-0.8,100,-1,300,14.816,,,70,-1.5,-0.1,,,,,,,,49,wg-a,,,,AAXX 31064 07335 02/03 90708 11010 21010 39985 40136 56008 60006 74942 89/// 90600 333 11001 21015 60004=
07335,1998-01-31 12:00:00,-2,1014.3,-0.2,100,-2,1800,18.52,,,80,,,,,,,,,,10,wg-a,,,,AAXX 31124 07335 12118 80810 11020 21020 39991 40143 58002 60006 71042 886// 91200=
07335,1998-01-31 15:00:00,-1,1013.1,-1.1,93,-2,3000,14.816,,,80,,,,,,,,,,10,wg-a,,,,AAXX 31154 07335 12230 80808 11010 21020 39980 40131 56011 60006 71022 886// 91500=
07335,1998-01-31 18:00:00,-1,1013.6,0.5,93,-2,0,18.52,,,70,-2.2,-0.7,,,,,,,,,wg-a,,,,AAXX 31184 07335 12/// /0710 11010 21020 39985 40136 53005 60006 91800 333 11007 21022=
07335,1998-02-01 00:00:00,-1,1013.2,-0.4,100,-1,0,14.816,,,70,,,,,,,,,,,wg-a,,,,AAXX 01004 07335 12/// /0708 11010 21010 39981 40132 55004 60006 90000=
07335,1998-02-01 06:00:00,-3,1012.5,0,100,-3,500,14.816,,,50,-2.8,0.4,,,,,,,,,wg-a,,,,AAXX 01064 07335 02/00 00508 11030 21030 39973 40125 50000 60006 80000 90600 333 10004 21028 60004=
07335,1998-02-01 09:00:00,-1,1013.4,1,86,-3,4000,7.408,,,60,,,,,,,,,,10,wg-a,,,,AAXX 01094 07335 12240 30604 11010 21030 39983 40134 53010 60006 71000 83600 90900=
07335,1998-02-01 15:00:00,4,1012.7,-0.8,75,0,7000,14.816,,,50,,,,,,,,,,,wg-a,,,,AAXX 01154 07335 12/57 00508 10040 20000 39979 40127 56008 60006 80000 91500=
07335,1998-02-01 18:00:00,1,1013.5,0.6,80,-2,0,14.816,,,90,-3.4,4.2,,,,,,,,,wg-a,,,,AAXX 01184 07335 12/// /0908 10010 21020 39985 40135 52006 60006 91800 333 10042 21034=
07335,1998-02-02 06:00:00,-3,1011.8,-0.8,100,-3,800,14.816,,,60,-2.8,0.4,,,,,,,,44,wg-a,,,,AAXX 02064 07335 02108 80608 11030 21030 39966 40118 58008 60006 74442 886// 90600 333 10004 21028 60004=
07335,1998-02-02 09:00:00,-3,1012.1,0.3,100,-3,1400,14.816,,,90,,,,,,,,,,10,wg-a,,,,AAXX 02094 07335 12114 80908 11030 21030 39969 40121 51003 60006 71042 886// 90900=
07335,1998-02-02 12:00:00,-2,1012,0,93,-3,1700,18.52,,,40,,,,,,,,,,10,wg-a,,,,AAXX 02124 07335 12117 80410 11020 21030 39969 40120 50000 60006 71042 886// 91200=
07335,1998-02-02 15:00:00,-2,1011.1,-0.9,93,-3,1800,14.816,,,50,,,,,,,,,,10,wg-a,,,,AAXX 02154 07335 12218 80508 11020 21030 39960 40111 56009 60006 71022 886// 91500=
07335,1998-02-02 18:00:00,-3,1011.8,0.6,93,-4,3500,11.112,,,60,-2.8,-1.4,,,,,,,,10,wg-a,,,,AAXX 02184 07335 12335 40606 11030 21040 39966 40118 53006 60006 71011 81602 91800 333 11014 21028=
07335,1998-02-03 06:00:00,-6,1011.4,-0.5,93,-7,6000,11.112,,,50,-6.8,-2.6,,,,,,,,,wg-a,,,,AAXX 03064 07335 02256 20506 11060 21070 39960 40114 56005 60006 82600 90600 333 11026 21068 60004=
07335,1998-02-03 09:00:00,-6,1011.6,0.3,93,-7,4500,11.112,,,60,,,,,,,,,,10,wg-a,,,,AAXX 03094 07335 12/45 /0606 11060 21070 39963 40116 52003 60006 71000 80001 90900=
07335,1998-02-03 12:00:00,2,1010.6,-0.6,55,-6,9000,18.52,,,60,,,,,,,,,,,wg-a,,,,AAXX 03124 07335 12/59 /0610 10020 21060 39957 40106 58006 60006 80001 91200=
07335,1998-02-03 18:00:00,2,1011.2,,75,-2,10000,14.816,,,60,,,,,,,,,,,wg-a,,,,AAXX 03184 07335 12/60 10608 10020 21020 39963 40112 60006 91800=
07335,1998-02-04 06:00:00,-5,1012,0.4,100,-5,6000,14.816,,,40,-4.8,1.5,,,,,,,,,wg-a,,,,AAXX 04064 07335 02/56 00408 11050 21050 39967 40120 53004 60006 80000 90600 333 10015 21048 60004=
07335,1998-02-04 12:00:00,2,1014.1,0.7,64,-4,7000,22.224,,,40,,,,,,,,,,,wg-a,,,,AAXX 04124 07335 12/57 00412 10020 21040 39992 40141 51007 60006 80000 91200=
07335,1998-02-04 15:00:00,5,1014.5,0.5,48,-5,10000,29.632,,,40,,,,,,,,,,,wg-a,,,,AAXX 04154 07335 12/60 00416 10050 21050 39997 40145 53005 60006 80000 91500=
07335,1998-02-04 18:00:00,0,1016.7,1.9,74,-4,10000,14.816,,,30,-4.5,4.9,,,,,,,,,wg-a,,,,AAXX 04184 07335 12/60 00308 10000 21040 30016 40167 53019 60006 80000 91800 333 10049 21045=
07335,1998-02-05 00:00:00,-3,1020,0.8,93,-4,0,7.408,,,30,,,,,,,,,,,wg-a,,,,AAXX 05004 07335 12/// /0304 11030 21040 30047 40200 52008 60006 90000=
07335,1998-02-05 06:00:00,-6,1021.5,0.8,93,-7,2500,11.112,,,30,-6.1,-0.1,,,,,,,,10,wg-a,,,,AAXX 05064 07335 02/25 00306 11060 21070 30060 40215 53008 60006 71000 80000 90600 333 11001 21061 60004=
07335,1998-02-05 12:00:00,5,1022.7,-0.1,75,1,6000,14.816,,,50,,,,,,,,,,,wg-a,,,,AAXX 05124 07335 12/56 /0508 10050 20010 30078 40227 58001 60006 80001 91200=
07335,1998-02-05 15:00:00,7,1022,-0.6,61,0,20000,14.816,,,40,,,,,,,,,,,wg-a,,,,AAXX 05154 07335 12/70 00408 10070 20000 30072 40220 55006 60006 80000 91500=
07335,1998-02-05 18:00:00,2,1023.1,0.8,75,-2,20000,3.704,,,70,-6.7,6.8,,,,,,,,,wg-a,,,,AAXX 05184 07335 12/70 00702 10020 21020 30080 40231 53008 60006 80000 91800 333 10068 21067=
07335,1998-02-06 00:00:00,-2,1024,0.3,93,-3,0,3.704,,,50,,,,,,,,,,,wg-a,,,,AAXX 06004 07335 12/// /0502 11020 21030 30087 40240 51003 60006 90000=
07335,1998-02-06 06:00:00,-4,1023.8,0.1,100,-4,100,7.408,,,20,-4.3,2,,,,,,,,49,wg-a,,,,AAXX 06064 07335 02/01 90204 11040 21040 30084 40238 52001 60006 74942 89/// 90600 333 10020 21043 60004=
07335,1998-02-06 09:00:00,-4,1024.7,0.9,100,-4,200,7.408,,,30,,,,,,,,,,48,wg-a,,,,AAXX 06094 07335 12/02 00304 11040 21040 30093 40247 51009 60006 74844 80000 90900=
07335,1998-02-06 12:00:00,4,1023.8,-0.5,81,1,6000,11.112,,,50,,,,,,,,,,2,wg-a,,,,AAXX 06124 07335 02/56 00506 10040 20010 30088 40238 58005 61000 70241 80000 91200 333 ////=
07335,1998-02-06 15:00:00,8,1022.3,-1.2,49,-2,10000,7.408,,,80,,,,,,,,,,,wg-a,,,,AAXX 06154 07335 12/60 00804 10080 21020 30076 40223 56012 60006 80000 91500=
07335,1998-02-06 18:00:00,5,1022.4,-0.1,60,-2,10000,3.704,,,100,-4.2,8.5,,,,,,,,,wg-a,,,,AAXX 06184 07335 12/60 11002 10050 21020 30075 40224 55001 60006 80002 91800 333 10085 21042=
07335,1998-02-07 00:00:00,-1,1023.6,0.4,86,-3,0,7.408,,,200,,,,,,,,,,,wg-a,,,,AAXX 07004 07335 12/// /2004 11010 21030 30083 40236 52004 60006 90000=
07335,1998-02-07 06:00:00,0,1023.4,-0.1,86,-2,2500,11.112,,,190,-3.5,4.6,,,,,,,,10,wg-a,,,,AAXX 07064 07335 02425 41906 10000 21020 30082 40234 58001 60006 71000 84500 90600 333 10046 21035 61000=
07335,1998-02-07 09:00:00,2,1025.4,2.1,93,1,3700,11.112,,,200,,,,,,,,,,10,wg-a,,,,AAXX 07094 07335 12637 82006 10020 20010 30103 40254 51021 60006 71011 875// 90900=
07335,1998-02-07 15:00:00,9,1026.2,0.7,93,8,3000,14.816,,,260,,,,,,,,,,51,wg-a,,,,AAXX 07154 07335 02330 82608 10090 20080 30115 40262 53007 61000 75152 877// 91500 333 ////=
07335,1998-02-07 18:00:00,3,1028.4,1.8,93,2,0,3.704,,,240,-0.4,9.2,,,,,,,,,wg-a,,,,AAXX 07184 07335 32/// /2402 10030 20020 30133 40284 53018 91800 333 10092 21004=
07335,1998-02-08 00:00:00,4,1030.9,0.7,100,4,0,7.408,,,130,,,,,,,,,,,wg-a,,,,AAXX 08004 07335 12/// /1304 10040 20040 30158 40309 53007 60006 90000=
07335,1998-02-08 06:00:00,4,1030.3,-0.6,100,4,100,7.408,,,130,-0.3,4.2,,,,,,,,45,wg-a,,,,AAXX 08064 07335 02/01 91304 10040 20040 30152 40303 55006 60006 74542 89/// 90600 333 10042 21003 61000=
07335,1998-02-08 12:00:00,4,1029.3,-1.1,100,4,900,11.112,,,160,,,,,,,,,,43,wg-a,,,,AAXX 08124 07335 12/09 91606 10040 20040 30143 40293 58011 60006 74344 89/// 91200=
07335,1998-02-08 15:00:00,6,1028.3,-0.9,100,6,500,7.408,,,60,,,,,,,,,,1,wg-a,,,,AAXX 08154 07335 12200 70604 10060 20060 30134 40283 58009 60006 70142 83602 91500=
07335,1998-02-08 18:00:00,2,1028.6,0,93,1,0,7.408,,,10,1.8,6,,,,,,,,,wg-a,,,,AAXX 08184 07335 12/// /0104 10020 20010 30134 40286 50000 60006 91800 333 10060 20018=
07335,1998-02-09 00:00:00,-4,1027,-0.9,100,-4,0,0,,,0,,,,,,,,,,,wg-a,,,,AAXX 09004 07335 12/// /0000 11040 21040 30116 40270 58009 60006 90000=
07335,1998-02-09 06:00:00,-5,1026.5,-0.2,93,-6,6000,3.704,,,10,-5.1,1.8,,,,,,,,,wg-a,,,,AAXX 09064 07335 02/56 /0102 11050 21060 30110 40265 55002 60006 80002 90600 333 10018 21051 60004=
07335,1998-02-09 09:00:00,2,1027.3,1.2,100,2,12000,7.408,,,150,,,,,,,,,,,wg-a,,,,AAXX 09094 07335 12/62 11504 10020 20020 30122 40273 52012 60006 80002 90900=
07335,1998-02-09 12:00:00,13,1026.3,-0.4,41,0,25000,18.52,,,190,,,,,,,,,,,wg-a,,,,AAXX 09124 07335 12/75 21910 10130 20000 30118 40263 58004 60006 80002 91200=
07335,1998-02-09 15:00:00,16,1025.6,-0.6,34,0,500,14.816,,,190,,,,,,,,,,,wg-a,,,,AAXX 09154 07335 12/00 11908 10160 20000 30112 40256 55006 60006 80002 91500=
07335,1998-02-09 18:00:00,11,1026.5,0.7,50,1,500,7.408,,,170,-5.2,16,,,,,,,,,wg-a,,,,AAXX 09184 07335 12/00 11704 10110 20010 30119 40265 53007 60006 80002 91800 333 10160 21052=
07335,1998-02-10 06:00:00,3,1029.5,0.6,81,0,25000,7.408,,,200,0.3,11.3,,,,,,,,,wg-a,,,,AAXX 10064 07335 02/75 02004 10030 20000 30144 40295 53006 60006 80000 90600 333 10113 20003 60004=
07335,1998-02-10 15:00:00,15,1028.8,-1.6,51,5,25000,11.112,,,190,,,,,,,,,,,wg-a,,,,AAXX 10154 07335 12/75 11906 10150 20050 30143 40288 56016 60006 80002 91500=
07335,1998-02-10 18:00:00,7,1030.1,0.9,76,3,25000,0,,,0,0.7,14.9,,,,,,,,,wg-a,,,,AAXX 10184 07335 12/75 10000 10070 20030 30152 40301 53009 60006 80002 91800 333 10149 20007=
07335,1998-02-11 00:00:00,1,1031.6,0.5,93,0,0,0,,,0,,,,,,,,,,,wg-a,,,,AAXX 11004 07335 12/// /0000 10010 20000 30163 40316 51005 60006 90000=
07335,1998-02-11 06:00:00,-1,1032.1,0.4,100,-1,8000,3.704,,,170,-1.2,7.2,,,,,,,,,wg-a,,,,AAXX 11064 07335 02/58 /1702 11010 21010 30167 40321 53004 60006 80001 90600 333 10072 21012 60004=
07335,1998-02-11 09:00:00,5,1032.7,1,87,3,8000,7.408,,,160,,,,,,,,,,,wg-a,,,,AAXX 11094 07335 12/58 /1604 10050 20030 30177 40327 51010 60006 80001 90900=
07335,1998-02-11 12:00:00,13,1031.2,-1.1,62,6,21000,18.52,,,180,,,,,,,,,,,wg-a,,,,AAXX 11124 07335 12/71 11810 10130 20060 30166 40312 58011 60006 80001 91200=
07335,1998-02-11 15:00:00,16,1030.1,-0.9,51,6,25000,14.816,,,220,,,,,,,,,,,wg-a,,,,AAXX 11154 07335 12/75 42208 10160 20060 30157 40301 56009 60006 80001 91500=
07335,1998-02-11 18:00:00,8,1031.3,0.7,71,3,10000,3.704,,,180,-2.1,16.1,,,,,,,,,wg-a,,,,AAXX 11184 07335 12/60 /1802 10080 20030 30164 40313 53007 60006 91800 333 10161 21021=
07335,1998-02-12 06:00:00,-1,1033.3,0.1,93,-2,6000,3.704,,,180,-2.2,7.8,,,,,,,,,wg-a,,,,AAXX 12064 07335 02/56 01802 11010 21020 30179 40333 53001 60006 80000 90600 333 10078 21022 60004=
07335,1998-02-12 09:00:00,5,1033.9,1,93,4,7000,3.704,,,170,,,,,,,,,,,wg-a,,,,AAXX 12094 07335 12/57 21702 10050 20040 30189 40339 51010 60006 81032 90900=
07335,1998-02-12 12:00:00,14,1033.4,-0.1,51,4,15000,11.112,,,190,,,,,,,,,,,wg-a,,,,AAXX 12124 07335 12/65 21906 10140 20040 30188 40334 58001 60006 80002 91200=
07335,1998-02-12 15:00:00,16,1032.1,-1.2,42,3,25000,11.112,,,100,,,,,,,,,,,wg-a,,,,AAXX 12154 07335 12/75 21006 10160 20030 30176 40321 56012 60006 80002 91500=
07335,1998-02-12 18:00:00,8,1032.9,0.4,66,2,20000,3.704,,,20,-1.9,16.6,,,,,,,,,wg-a,,,,AAXX 12184 07335 12/70 20202 10080 20020 30180 40329 53004 60006 80002 91800 333 10166 21019=
07335,1998-02-13 00:00:00,-1,1033.7,0.1,100,-1,0,3.704,,,230,,,,,,,,,,,wg-a,,,,AAXX 13004 07335 12/// /2302 11010 21010 30183 40337 50001 60006 90000=
07335,1998-02-13 09:00:00,4,1034.5,0.9,100,4,4000,3.704,,,170,,,,,,,,,,10,wg-a,,,,AAXX 13094 07335 12/40 01702 10040 20040 30194 40345 51009 60006 71000 80000 90900=
07335,1998-02-13 12:00:00,14,1033.6,-0.4,55,5,12000,3.704,,,40,,,,,,,,,,,wg-a,,,,AAXX 13124 07335 12/62 00402 10140 20050 30190 40336 58004 60006 80000 91200=
07335,1998-02-13 15:00:00,18,1032.2,-1.2,42,5,15000,3.704,,,20,,,,,,,,,,,wg-a,,,,AAXX 13154 07335 12/65 00202 10180 20050 30178 40322 56012 60006 80000 91500=
07335,1998-02-13 18:00:00,8,1032.7,-0,66,2,20000,0,,,0,-3.8,17.7,,,,,,,,,wg-a,,,,AAXX 13184 07335 12/70 00000 10080 20020 30178 40327 55000 60006 80000 91800 333 10177 21038=
07335,1998-02-14 06:00:00,-3,1033.6,0.3,100,-3,900,0,,,0,-3.4,8.2,,,,,,,,41,wg-a,,,,AAXX 14064 07335 02/09 00000 11030 21030 30181 40336 52003 60006 74140 80000 90600 333 10082 21034 60004=
07335,1998-02-14 09:00:00,1,1034.2,0.8,100,1,1200,0,,,0,,,,,,,,,,10,wg-a,,,,AAXX 14094 07335 12/12 00000 10010 20010 30189 40342 52008 60006 71041 80000 90900=
07335,1998-02-14 12:00:00,15,1032.9,-0.5,55,6,500,7.408,,,210,,,,,,,,,,2,wg-a,,,,AAXX 14124 07335 12/00 02104 10150 20060 30184 40329 58005 60006 70241 80000 91200=
07335,1998-02-14 15:00:00,19,1031.8,-0.9,43,6,10000,3.704,,,30,,,,,,,,,,,wg-a,,,,AAXX 14154 07335 12/60 10302 10190 20060 30175 40318 58009 60006 81080 91500=
07335,1998-02-15 00:00:00,1,1034,-0.3,93,0,0,3.704,,,250,,,,,,,,,,,wg-a,,,,AAXX 15004 07335 12/// /2502 10010 20000 30187 40340 58003 60006 90000=
07335,1998-02-15 06:00:00,-2,1033.2,-0,93,-3,1500,3.704,,,350,-2.4,9.4,,,,,,,,10,wg-a,,,,AAXX 15064 07335 02/15 /3502 11020 21030 30177 40332 55000 60006 71000 80002 90600 333 10094 21024 60004=
07335,1998-02-15 09:00:00,4,1033.3,0.5,100,4,3500,0,,,0,,,,,,,,,,10,wg-a,,,,AAXX 15094 07335 12/35 30000 10040 20040 30182 40333 50005 60006 71000 80002 90900=
07335,1998-02-15 12:00:00,16,1031.7,-0.9,51,6,15000,3.704,,,80,,,,,,,,,,,wg-a,,,,AAXX 15124 07335 12/65 40802 10160 20060 30173 40317 58009 60006 81032 91200=
07335,1998-02-15 15:00:00,21,1029.6,-1.9,30,3,25000,3.704,,,90,,,,,,,,,,,wg-a,,,,AAXX 15154 07335 12/75 30902 10210 20030 30154 40296 56019 60006 80002 91500=
07335,1998-02-15 18:00:00,11,1029.9,-0.2,62,4,0,0,,,0,-2.8,21.6,,,,,,,,,wg-a,,,,AAXX 15184 07335 12/// /0000 10110 20040 30152 40299 56002 60006 91800 333 10216 21028=
07335,1998-02-16 00:00:00,6,1029,-0.4,81,3,0,3.704,,,230,,,,,,,,,,,wg-a,,,,AAXX 16004 07335 12/// /2302 10060 20030 30141 40290 55004 60006 90000=
07335,1998-02-16 06:00:00,7,1028.4,-0,87,5,8000,7.408,,,250,3.9,10.7,,,,,,,,,wg-a,,,,AAXX 16064 07335 02/58 72504 10070 20050 30136 40284 55000 60006 83032 90600 333 10107 20039 60004=
07335,1998-02-16 09:00:00,9,1029.6,1.2,100,9,2000,11.112,,,230,,,,,,,,,,20,wg-a,,,,AAXX 16094 07335 02120 82306 10090 20090 30148 40296 53012 61000 72052 877// 90900 333 ////=
07335,1998-02-16 15:00:00,14,1029.5,-0.1,72,9,15000,14.816,,,350,,,,,,,,,,,wg-a,,,,AAXX 16154 07335 12565 73508 10140 20090 30150 40295 55001 60006 82132 91500=
07335,1998-02-16 18:00:00,10,1031.4,1.7,82,7,15000,11.112,,,340,7.2,14.4,,,,,,,,,wg-a,,,,AAXX 16184 07335 12565 73406 10100 20070 30167 40314 53017 60006 83432 91800 333 10144 20072=
07335,1998-02-17 00:00:00,4,1034.2,1.3,93,3,0,11.112,,,20,,,,,,,,,,,wg-a,,,,AAXX 17004 07335 12/// /0206 10040 20030 30191 40342 51013 60006 90000=
07335,1998-02-17 09:00:00,6,1036.3,1.6,100,6,15000,7.408,,,350,,,,,,,,,,,wg-a,,,,AAXX 17094 07335 12665 73504 10060 20060 30213 40363 51016 60006 875// 90900=
07335,1998-02-17 12:00:00,10,1036.7,0.6,82,7,15000,14.816,,,60,,,,,,,,,,,wg-a,,,,AAXX 17124 07335 12465 80608 10100 20070 30219 40367 50006 60006 885// 91200=
07335,1998-02-17 15:00:00,11,1035.3,-1.3,71,6,18000,14.816,,,110,,,,,,,,,,,wg-a,,,,AAXX 17154 07335 12568 71108 10110 20060 30206 40353 56013 60006 875// 91500=
07335,1998-02-17 18:00:00,9,1035.5,-0,76,5,10000,7.408,,,100,3.7,12,,,,,,,,,wg-a,,,,AAXX 17184 07335 12/60 /1004 10090 20050 30206 40355 55000 60006 91800 333 10120 20037=
07335,1998-02-18 00:00:00,4,1034.3,-1.6,93,3,0,14.816,,,110,,,,,,,,,,,wg-a,,,,AAXX 18004 07335 12/// /1108 10040 20030 30192 40343 58016 60006 90000=
07335,1998-02-18 06:00:00,-3,1032.2,-0.9,100,-3,10000,3.704,,,90,-3,8.8,,,,,,,,,wg-a,,,,AAXX 18064 07335 02/60 00902 11030 21030 30167 40322 56009 60006 80000 90600 333 10088 21030 60004=
07335,1998-02-18 09:00:00,4,1031.9,0.1,87,2,12000,11.112,,,150,,,,,,,,,,,wg-a,,,,AAXX 18094 07335 12/62 11506 10040 20020 30168 40319 53001 60006 80002 90900=
07335,1998-02-18 12:00:00,12,1030.7,-0.7,58,4,25000,3.704,,,150,,,,,,,,,,,wg-a,,,,AAXX 18124 07335 12/75 51502 10120 20040 30161 40307 58007 60006 80002 91200=
07335,1998-02-18 15:00:00,16,1028.6,-1.9,48,5,25000,11.112,,,160,,,,,,,,,,,wg-a,,,,AAXX 18154 07335 12/75 41606 10160 20050 30142 40286 56019 60006 80001 91500=
07335,1998-02-18 18:00:00,9,1029.6,0.6,71,4,25000,0,,,0,-2.7,17.1,,,,,,,,,wg-a,,,,AAXX 18184 07335 12/75 20000 10090 20040 30148 40296 53006 60006 82030 91800 333 10171 21027=
07335,1998-02-19 00:00:00,8,1032.1,0.8,100,8,0,7.408,,,240,,,,,,,,,,,wg-a,,,,AAXX 19004 07335 12/// /2404 10080 20080 30173 40321 53008 60006 90000=
07335,1998-02-19 09:00:00,7,1033.4,0.6,100,7,1200,7.408,,,190,,,,,,,,,,10,wg-a,,,,AAXX 19094 07335 12112 81904 10070 20070 30185 40334 51006 60006 71022 886// 90900=
07335,1998-02-19 12:00:00,10,1032.3,-0.9,93,9,500,11.112,,,140,,,,,,,,,,,wg-a,,,,AAXX 19124 07335 12200 21406 10100 20090 30176 40323 58009 60006 81602 91200=
07335,1998-02-19 15:00:00,14,1029.5,-2.6,72,9,10000,7.408,,,90,,,,,,,,,,,wg-a,,,,AAXX 19154 07335 12/60 /0904 10140 20090 30150 40295 56026 60006 91500=
07335,1998-02-19 18:00:00,12,1028.5,-1.1,82,9,10000,7.408,,,80,5.2,14.3,,,,,,,,,wg-a,,,,AAXX 19184 07335 12/60 /0804 10120 20090 30139 40285 56011 60006 91800 333 10143 20052=
07335,1998-02-20 00:00:00,4,1026,-1.6,93,3,0,3.704,,,70,,,,,,,,,,,wg-a,,,,AAXX 20004 07335 12/// /0702 10040 20030 30110 40260 58016 60006 90000=
07335,1998-02-20 06:00:00,1,1022.3,-1.5,100,1,1800,3.704,,,170,0.2,11.9,,,,,,,,40,wg-a,,,,AAXX 20064 07335 02/18 21702 10010 20010 30072 40223 58015 60006 74000 80002 90600 333 10119 20002 60004=
07335,1998-02-20 09:00:00,8,1020.7,-1.2,100,8,4000,7.408,,,160,,,,,,,,,,10,wg-a,,,,AAXX 20094 07335 12/40 41604 10080 20080 30060 40207 58012 60006 71000 80002 90900=
07335,1998-02-20 12:00:00,19,1018.3,-1.8,49,8,15000,14.816,,,190,,,,,,,,,,,wg-a,,,,AAXX 20124 07335 12/65 61908 10190 20080 30042 40183 58018 60006 80002 91200=
07335,1998-02-20 15:00:00,21,1016.4,-1.8,30,3,25000,22.224,,,230,,,,,,,,,,,wg-a,,,,AAXX 20154 07335 12/75 62312 10210 20030 30024 40164 56018 60006 81032 91500=
07335,1998-02-20 18:00:00,13,1017.4,0.6,58,5,25000,11.112,,,230,0.2,21.8,,,,,,,,,wg-a,,,,AAXX 20184 07335 12/75 62306 10130 20050 30030 40174 53006 60006 81032 91800 333 10218 20002=
07335,1998-02-21 00:00:00,8,1019.3,0.1,93,7,0,11.112,,,160,,,,,,,,,,,wg-a,,,,AAXX 21004 07335 12/// /1606 10080 20070 30046 40193 50001 60006 90000=
07335,1998-02-21 06:00:00,8,1016.2,-1.9,87,6,10000,14.816,,,180,7.1,13,,,,,,,,,wg-a,,,,AAXX 21064 07335 02/60 71808 10080 20060 30016 40162 56019 60006 8707/ 90600 333 10130 20071 60004=
07335,1998-02-21 09:00:00,12,1015.9,-0.1,71,7,10000,31.484,,,190,,,,,,,,,,,wg-a,,,,AAXX 21094 07335 12/60 81917 10120 20070 30015 40159 55001 60006 8807/ 90900=
07335,1998-02-21 12:00:00,11,1018,2,82,8,10000,29.632,,,280,,,,,,,,,,60,wg-a,,,,AAXX 21124 07335 02460 82816 10110 20080 30035 40180 53020 61000 76062 8657/ 91200 333 6100=
07335,1998-02-21 15:00:00,10,1019.1,1,93,9,20000,14.816,,,220,,,,1,,,,,,60,wg-a,,,,AAXX 21154 07335 12370 82208 10100 20090 30045 40191 52010 60017 76066 8677/ 91500=
07335,1998-02-21 18:00:00,9,1019.8,0.7,100,9,0,14.816,,,210,8.2,12.4,,,,,,,,,wg-a,,,,AAXX 21184 07335 32/// /2108 10090 20090 30052 40198 53007 91800 333 10124 20082=
07335,1998-02-22 00:00:00,9,1020,-0.3,100,9,0,14.816,,,230,,,,,,,,,,,wg-a,,,,AAXX 22004 07335 12/// /2308 10090 20090 30054 40200 58003 60006 90000=
07335,1998-02-22 06:00:00,5,1021.5,1.5,93,4,15000,18.52,,,240,5.2,9.4,,,,,4,,,,wg-a,,,,AAXX 22064 07335 02565 22410 10050 20040 30066 40215 52015 60006 81530 90600 333 10094 20052 60044=
07335,1998-02-22 09:00:00,6,1023.3,1.8,87,4,25000,14.816,,,230,,,,,,,,,,3,wg-a,,,,AAXX 22094 07335 02575 72308 10060 20040 30084 40233 53018 61000 70386 8533/ 90900 333 ////=
07335,1998-02-22 12:00:00,8,1025.3,2.2,81,5,25000,25.928,,,320,,,,1,,,,,,1,wg-a,,,,AAXX 22124 07335 02575 73214 10080 20050 30106 40253 51022 60016 70186 85232 91200 333 60017=
07335,1998-02-22 15:00:00,8,1026.7,1.3,76,4,25000,35.188,,,320,,,,0,,,,,,27,wg-a,,,,AAXX 22154 07335 12575 73219 10080 20040 30119 40267 53013 60007 72787 879// 91500=
07335,1998-02-23 00:00:00,3,1035,1.9,93,2,0,14.816,,,320,,,,,,,,,,,wg-a,,,,AAXX 23004 07335 12/// /3208 10030 20020 30198 40350 51019 60006 90000=
07335,1998-02-23 06:00:00,0,1036.9,1.1,100,0,10000,7.408,,,330,0.4,5.9,,,,,1,,,,wg-a,,,,AAXX 23064 07335 02/60 13304 10000 20000 30215 40369 52011 60006 80002 90600 333 10059 20004 60014=
07335,1998-02-23 09:00:00,3,1038.2,1.5,100,3,10000,11.112,,,340,,,,,,,,,,,wg-a,,,,AAXX 23094 07335 12160 23406 10030 20030 30230 40382 53015 60006 82602 90900=
07335,1998-02-23 12:00:00,9,1038,0.1,76,5,25000,18.52,,,350,,,,,,,,,,,wg-a,,,,AAXX 23124 07335 12575 53510 10090 20050 30231 40380 50001 60006 83132 91200=
07335,1998-02-23 15:00:00,10,1037.1,-0.8,57,2,25000,22.224,,,30,,,,,,,,,,,wg-a,,,,AAXX 23154 07335 12675 50312 10100 20020 30223 40371 56008 60006 84132 91500=
07335,1998-02-23 18:00:00,7,1037.6,0.3,70,2,20000,7.408,,,10,-0.4,10.8,,,,,,,,,wg-a,,,,AAXX 23184 07335 12670 50104 10070 20020 30226 40376 53003 60006 83132 91800 333 10108 21004=
07335,1998-02-24 00:00:00,5,1038.5,0.1,93,4,0,7.408,,,350,,,,,,,,,,,wg-a,,,,AAXX 24004 07335 12/// /3504 10050 20040 30234 40385 53001 60006 90000=
07335,1998-02-24 06:00:00,7,1037.7,0.2,100,7,500,3.704,,,340,3.2,7,,,,,,,,60,wg-a,,,,AAXX 24064 07335 02100 83402 10070 20070 30227 40377 53002 61000 76062 887// 90600 333 10070 20032 6100=
07335,1998-02-24 09:00:00,8,1038.8,1.1,100,8,2000,7.408,,,10,,,,0,,,,,,10,wg-a,,,,AAXX 24094 07335 12120 80104 10080 20080 30238 40388 52011 60007 71065 887// 90900=
07335,1998-02-24 12:00:00,9,1038.6,-0.1,100,9,3500,18.52,,,20,,,,,,,,,,10,wg-a,,,,AAXX 24124 07335 02235 80210 10090 20090 30237 40386 58001 60016 71065 887// 91200 333 61000=
07335,1998-02-24 15:00:00,10,1036.9,-1.6,93,9,4500,18.52,,,30,,,,,,,,,,10,wg-a,,,,AAXX 24154 07335 12245 80310 10100 20090 30221 40369 56016 60006 71022 875// 91500=
07335,1998-02-24 18:00:00,9,1037.8,0.8,93,8,7000,7.408,,,360,6.9,10.3,,,,,,,,,wg-a,,,,AAXX 24184 07335 12457 83604 10090 20080 30229 40378 53008 60006 875// 91800 333 10103 20069=
07335,1998-02-25 00:00:00,8,1037.8,-0.7,93,7,0,7.408,,,30,,,,,,,,,,,wg-a,,,,AAXX 25004 07335 12/// /0304 10080 20070 30229 40378 58007 60006 90000=
07335,1998-02-25 06:00:00,6,1036.8,-0.2,100,6,4000,11.112,,,30,3.5,9.4,,,,,,,,10,wg-a,,,,AAXX 25064 07335 02640 80306 10060 20060 30218 40368 56002 60006 71022 875// 90600 333 10094 20035 60004=
07335,1998-02-25 09:00:00,8,1037.3,0.6,93,7,3500,14.816,,,50,,,,,,,,,,10,wg-a,,,,AAXX 25094 07335 12535 80508 10080 20070 30224 40373 51006 60006 71022 885// 90900=
07335,1998-02-25 15:00:00,11,1034.7,-1.7,82,8,6000,18.52,,,80,,,,,,,,,,,wg-a,,,,AAXX 25154 07335 12456 80810 10110 20080 30200 40347 56017 60006 885// 91500=
07335,1998-02-25 18:00:00,11,1034.5,-0.2,82,8,500,11.112,,,70,6.2,11.7,,,,,,,,,wg-a,,,,AAXX 25184 07335 12400 80706 10110 20080 30198 40345 55002 60006 885// 91800 333 10117 20062=
07335,1998-02-26 00:00:00,9,1034.2,-0.7,93,8,0,11.112,,,40,,,,,,,,,,,wg-a,,,,AAXX 26004 07335 12/// /0406 10090 20080 30194 40342 56007 60006 90000=
07335,1998-02-26 09:00:00,6,1034.2,0.7,100,6,200,3.704,,,70,,,,,,,,,,45,wg-a,,,,AAXX 26094 07335 12/02 90702 10060 20060 30192 40342 51007 60006 74544 89/// 90900=
07335,1998-02-26 12:00:00,8,1033.9,-0.2,100,8,1500,7.408,,,150,,,,,,,,,,10,wg-a,,,,AAXX 26124 07335 12115 81504 10080 20080 30190 40339 56002 60006 71042 886// 91200=
07335,1998-02-26 15:00:00,14,1031.7,-1.8,67,8,8000,0,,,0,,,,,,,,,,,wg-a,,,,AAXX 26154 07335 12458 /0000 10140 20080 30172 40317 56018 60006 81100 91500=
07335,1998-02-27 00:00:00,8,1031.7,-1,87,6,0,3.704,,,340,,,,,,,,,,,wg-a,,,,AAXX 27004 07335 12/// /3402 10080 20060 30168 40317 58010 60006 90000=
07335,1998-02-27 06:00:00,5,1030.3,-0.9,100,5,2500,7.408,,,240,4.1,10.3,,,,,,,,10,wg-a,,,,AAXX 27064 07335 02125 82404 10050 20050 30153 40303 57009 60006 71022 885// 90600 333 10103 20041 60004=
07335,1998-02-27 09:00:00,7,1030.4,0.2,100,7,2500,11.112,,,240,,,,,,,,,,10,wg-a,,,,AAXX 27094 07335 12125 82406 10070 20070 30155 40304 51002 60006 71022 876// 90900=
07335,1998-02-27 12:00:00,9,1029.7,-0.6,87,7,500,14.816,,,250,,,,,,,,,,,wg-a,,,,AAXX 27124 07335 12300 82508 10090 20070 30149 40297 58006 60006 875// 91200=
07335,1998-02-27 15:00:00,8,1028,-1.7,100,8,500,11.112,,,260,,,,,,,,,,,wg-a,,,,AAXX 27154 07335 12200 82606 10080 20080 30132 40280 56017 60006 876// 91500=
07335,1998-02-27 18:00:00,9,1026.9,-1.1,93,8,500,11.112,,,230,4.6,8.8,,,,,,,,,wg-a,,,,AAXX 27184 07335 12/00 /2306 10090 20080 30121 40269 56011 60006 91800 333 10088 20046=
07335,1998-02-28 00:00:00,8,1024.5,-1.8,100,8,0,14.816,,,230,,,,,,,,,,,wg-a,,,,AAXX 28004 07335 12/// /2308 10080 20080 30097 40245 58018 60006 90000=
07335,1998-02-28 06:00:00,8,1021.5,-1,93,7,7000,14.816,,,260,7.5,8.5,,,,,,,,61,wg-a,,,,AAXX 28064 07335 02357 82608 10080 20070 30068 40215 56010 61000 76162 885// 90600 333 10085 20075 6001=
07335,1998-02-28 09:00:00,8,1021.9,0.4,93,7,25000,18.52,,,250,,,,1,,,,,,60,wg-a,,,,AAXX 28094 07335 12675 72510 10080 20070 30072 40219 50004 60017 76062 875// 90900=
07335,1998-02-28 12:00:00,11,1021.2,-0.6,76,7,500,22.224,,,260,,,,,,,,,,3,wg-a,,,,AAXX 28124 07335 02500 72612 10110 20070 30066 40212 58006 60016 70362 86801 91200 333 61000=
07335,1998-02-28 15:00:00,12,1019.3,-1.8,67,6,500,25.928,,,260,,,,,,,,,,15,wg-a,,,,AAXX 28154 07335 12500 72614 10120 20060 30048 40193 56018 60006 71522 878// 91500=
07335,1998-02-28 18:00:00,9,1019.9,0.5,87,7,0,18.52,,,290,6.9,12.1,,,,,,,,,wg-a,,,,AAXX 28184 07335 32/// /2910 10090 20070 30053 40199 53005 91800 333 10121 20069=
07335,1998-03-01 00:00:00,7,1020.7,0.4,93,6,0,11.112,,,280,,,,,,,,,,,wg-a,,,,AAXX 01004 07335 12/// /2806 10070 20060 30060 40207 51004 60006 90000=
07335,1998-03-01 06:00:00,1,1021.8,0.6,100,1,1500,3.704,,,220,0.9,9,,,,,1,,,10,wg-a,,,,AAXX 01064 07335 02/15 52202 10010 20010 30067 40218 51006 60006 71041 84032 90600 333 10090 20009 60014=
07335,1998-03-01 09:00:00,7,1022.7,1.2,100,7,8000,11.112,,,230,,,,,,,,,,,wg-a,,,,AAXX 01094 07335 12258 72306 10070 20070 30079 40227 53012 60006 86801 90900=
07335,1998-03-01 12:00:00,10,1022.6,0.1,71,5,500,22.224,,,250,,,,,,,,,,,wg-a,,,,AAXX 01124 07335 12500 72512 10100 20050 30080 40226 50001 60006 878// 91200=
07335,1998-03-01 15:00:00,11,1021.7,-0.8,66,5,500,22.224,,,260,,,,,,,,,,,wg-a,,,,AAXX 01154 07335 12500 /2612 10110 20050 30072 40217 56008 60006 86800 91500=
07335,1998-03-01 18:00:00,9,1022.4,0.6,76,5,0,18.52,,,260,1.2,12.1,,,,,,,,,wg-a,,,,AAXX 01184 07335 12/// /2610 10090 20050 30078 40224 53006 60006 91800 333 10121 20012=
07335,1998-03-02 06:00:00,6,1024.4,0.4,100,6,12000,11.112,,,240,5,9.4,,,,,,,,,wg-a,,,,AAXX 02064 07335 02562 /2406 10060 20060 30095 40244 53004 60006 86800 90600 333 10094 20050 60004=
07335,1998-03-02 09:00:00,8,1025.1,0.9,93,7,15000,11.112,,,240,,,,,,,,,,,wg-a,,,,AAXX 02094 07335 12365 72406 10080 20070 30104 40251 51009 60006 87530 90900=
07335,1998-03-02 15:00:00,12,1023.4,-1.1,67,6,20000,14.816,,,220,,,,,,,,,,,wg-a,,,,AAXX 02154 07335 12570 72208 10120 20060 30089 40234 57011 60006 878// 91500=
07335,1998-03-02 18:00:00,9,1023,-0.6,76,5,25000,11.112,,,200,5.5,12.6,,,,,,,,,wg-a,,,,AAXX 02184 07335 12675 52006 10090 20050 30083 40230 56006 60006 81501 91800 333 10126 20055=
07335,1998-03-03 00:00:00,9,1021,-0.9,71,4,0,25.928,,,210,,,,,,,,,,,wg-a,,,,AAXX 03004 07335 12/// /2114 10090 20040 30064 40210 57009 60006 90000=
07335,1998-03-03 06:00:00,9,1019.3,-0.5,66,3,20000,22.224,,,210,7.9,9.8,,,,,,,,,wg-a,,,,AAXX 03064 07335 02/70 72112 10090 20030 30047 40193 55005 60006 8707/ 90600 333 10098 20079 60004=
07335,1998-03-03 09:00:00,10,1019.4,0.1,66,4,500,18.52,,,200,,,,,,,,,,,wg-a,,,,AAXX 03094 07335 12/00 72010 10100 20040 30048 40194 53001 60006 8707/ 90900=
07335,1998-03-03 12:00:00,16,1018.3,-0.8,48,5,500,25.928,,,210,,,,,,,,,,,wg-a,,,,AAXX 03124 07335 12/00 62114 10160 20050 30040 40183 56008 60006 85032 91200=
07335,1998-03-03 15:00:00,18,1017.3,-0.8,49,7,500,25.928,,,230,,,,,,,,,,,wg-a,,,,AAXX 03154 07335 12/00 52314 10180 20070 30032 40173 56008 60006 81032 91500=
07335,1998-03-03 18:00:00,16,1017.3,-0.1,59,8,25000,22.224,,,210,8.7,18.6,,,,,,,,,wg-a,,,,AAXX 03184 07335 12/75 72112 10160 20080 30031 40173 56001 60006 83032 91800 333 10186 20087=
07335,1998-03-04 00:00:00,15,1013.8,-2.2,44,3,0,29.632,,,190,,,,,,,,,,,wg-a,,,,AAXX 04004 07335 12/// /1916 10150 20030 39996 40138 58022 60006 90000=
07335,1998-03-04 06:00:00,13,1012,-0.2,62,6,25000,18.52,,,210,12.9,15.8,,,,,,,,,wg-a,,,,AAXX 04064 07335 02/75 82110 10130 20060 39977 40120 55002 60006 8707/ 90600 333 10158 20129 60004=
07335,1998-03-04 09:00:00,14,1011.4,-0.5,58,6,25000,29.632,,,210,,,,,,,,,,,wg-a,,,,AAXX 04094 07335 12/75 72116 10140 20060 39972 40114 56005 60006 81032 90900=
07335,1998-03-04 12:00:00,18,1010.7,-0.5,52,8,25000,31.484,,,220,,,,,,,,,,,wg-a,,,,AAXX 04124 07335 12/75 72217 10180 20080 39967 40107 58005 60006 81032 91200=
07335,1998-03-04 15:00:00,14,1010.9,-0,88,12,15000,35.188,,,250,,,,1,,,,,,61,wg-a,,,,AAXX 04154 07335 12565 82519 10140 20120 39967 40109 55000 60017 76162 8657/ 91500=
07335,1998-03-04 18:00:00,13,1011.3,0.3,94,12,20000,31.484,,,240,12.4,18.3,,2,,,,,,3,wg-a,,,,AAXX 04184 07335 02470 82417 10130 20120 39970 40113 52003 60006 70362 875// 91800 333 10183 20124 60027=
07335,1998-03-05 00:00:00,8,1018.4,2.9,87,6,0,22.224,,,280,,,,,,,,,,,wg-a,,,,AAXX 05004 07335 12/// /2812 10080 20060 30038 40184 51029 60006 90000=
07335,1998-03-05 06:00:00,4,1024.6,2.8,93,3,25000,14.816,,,250,3.9,13.2,,,,,3,,,,wg-a,,,,AAXX 05064 07335 02/75 12508 10040 20030 30096 40246 52028 60006 80001 90600 333 10132 20039 60034=
07335,1998-03-05 09:00:00,9,1027.8,3.4,71,4,25000,18.52,,,270,,,,,,,,,,,wg-a,,,,AAXX 05094 07335 12/75 02710 10090 20040 30130 40278 52034 60006 80000 90900=
07335,1998-03-05 12:00:00,11,1029,1.3,58,3,500,11.112,,,320,,,,,,,,,,,wg-a,,,,AAXX 05124 07335 12600 /3206 10110 20030 30143 40290 51013 60006 81101 91200=
07335,1998-03-05 15:00:00,13,1027.8,-1.1,41,0,500,14.816,,,250,,,,,,,,,,,wg-a,,,,AAXX 05154 07335 12/00 22508 10130 20000 30132 40278 56011 60006 80001 91500=
07335,1998-03-06 00:00:00,5,1028.3,-0.5,87,3,0,7.408,,,230,,,,,,,,,,,wg-a,,,,AAXX 06004 07335 12/// /2304 10050 20030 30133 40283 56005 60006 90000=
07335,1998-03-06 09:00:00,9,1027,0.5,81,6,25000,18.52,,,210,,,,,,,,,,,wg-a,,,,AAXX 06094 07335 12775 72110 10090 20060 30123 40270 50005 60006 81531 90900=
07335,1998-03-06 12:00:00,13,1026.1,-0.7,72,8,500,29.632,,,230,,,,,,,,,,,wg-a,,,,AAXX 06124 07335 12500 /2316 10130 20080 30116 40261 55007 60006 81231 91200=
07335,1998-03-06 15:00:00,15,1024.1,-1.9,63,8,500,25.928,,,240,,,,,,,,,,,wg-a,,,,AAXX 06154 07335 12500 42414 10150 20080 30097 40241 57019 60006 81101 91500=
07335,1998-03-06 18:00:00,11,1023.7,-0.6,82,8,500,14.816,,,250,5.2,14.9,,,,,,,,,wg-a,,,,AAXX 06184 07335 12/00 32508 10110 20080 30091 40237 56006 60006 80001 91800 333 10149 20052=
07335,1998-03-07 00:00:00,9,1022,-1.4,93,8,0,18.52,,,240,,,,,,,,,,,wg-a,,,,AAXX 07004 07335 12/// /2410 10090 20080 30074 40220 56014 60006 90000=
07335,1998-03-07 06:00:00,10,1020.6,-0.3,93,9,20000,29.632,,,240,7.2,10.9,,,,,,,,,wg-a,,,,AAXX 07064 07335 02470 82416 10100 20090 30060 40206 56003 60006 8657/ 90600 333 10109 20072 60004=
07335,1998-03-07 12:00:00,13,1019.6,-0.7,94,12,3500,31.484,,,270,,,,1,,,,,,61,wg-a,,,,AAXX 07124 07335 02335 82717 10130 20120 30052 40196 56007 60026 76165 875// 91200 333 60017=
07335,1998-03-07 15:00:00,14,1018.8,-0.8,77,10,25000,31.484,,51.856,270,,,,1,,,,,,25,wg-a,,,,AAXX 07154 07335 12575 72717 10140 20100 30044 40188 55008 60017 72586 86802 91500 333 91028=
07335,1998-03-07 18:00:00,12,1019.2,0.3,76,8,0,29.632,,,260,10.3,15.4,,,,,,,,,wg-a,,,,AAXX 07184 07335 32/// /2616 10120 20080 30047 40192 53003 91800 333 10154 20103=
07335,1998-03-08 00:00:00,11,1018.2,-1.2,87,9,0,31.484,,,260,,,,,,,,,,,wg-a,,,,AAXX 08004 07335 12/// /2617 10110 20090 30037 40182 58012 60006 90000=
07335,1998-03-08 06:00:00,10,1015.7,-1.8,93,9,12000,18.52,,,260,9.5,11.8,,,,,,,,61,wg-a,,,,AAXX 08064 07335 02462 82610 10100 20090 30012 40157 56018 61000 76162 8657/ 90600 333 10118 20095 6004=
07335,1998-03-08 09:00:00,9,1013,-2.7,100,9,500,7.408,,,190,,,,6,,,,,,51,wg-a,,,,AAXX 08094 07335 12200 81904 10090 20090 39985 40130 58027 60067 75166 8657/ 90900=
07335,1998-03-08 15:00:00,10,1010.5,0.9,93,9,20000,22.224,,,10,,,,1,,,,,,3,wg-a,,,,AAXX 08154 07335 12470 80112 10100 20090 39961 40105 53009 60017 70386 888// 91500=
07335,1998-03-08 18:00:00,9,1012.8,2.2,93,8,0,14.816,,,340,8.5,13.5,,,,,,,,,wg-a,,,,AAXX 08184 07335 32/// /3408 10090 20080 39983 40128 53022 91800 333 10135 20085=
07335,1998-03-09 00:00:00,6,1017.3,1.9,100,6,0,11.112,,,320,,,,,,,,,,,wg-a,,,,AAXX 09004 07335 12/// /3206 10060 20060 30026 40173 52019 60006 90000=
07335,1998-03-09 09:00:00,6,1023.3,2.9,81,3,7000,18.52,,,50,,,,,,,,,,60,wg-a,,,,AAXX 09094 07335 02457 80510 10060 20030 30084 40233 53029 61000 76062 885// 90900 333 ////=
07335,1998-03-09 12:00:00,8,1025.5,2.3,66,2,14000,22.224,,,40,,,,,,,,,,1,wg-a,,,,AAXX 09124 07335 02564 40412 10080 20020 30107 40255 52023 61000 70161 84200 91200 333 6100=
07335,1998-03-09 18:00:00,7,1028.8,2.2,45,-4,10000,11.112,,,70,5.6,8.6,,,,,,,,,wg-a,,,,AAXX 09184 07335 12/60 /0706 10070 21040 30139 40288 53022 60006 91800 333 10086 20056=
07335,1998-03-10 00:00:00,2,1032.6,1.3,55,-6,0,11.112,,,110,,,,,,,,,,,wg-a,,,,AAXX 10004 07335 12/// /1106 10020 21060 30174 40326 51013 60006 90000=
07335,1998-03-10 06:00:00,-2,1032.9,0.1,74,-6,20000,3.704,,,130,-3.7,6.4,,,,,,,,,wg-a,,,,AAXX 10064 07335 02/70 01302 11020 21060 30175 40329 51001 60006 80000 90600 333 10064 21037 61000=
07335,1998-03-10 09:00:00,3,1032.3,-0.3,60,-4,25000,11.112,,,160,,,,,,,,,,,wg-a,,,,AAXX 10094 07335 12/75 31606 10030 21040 30172 40323 58003 60006 81032 90900=
07335,1998-03-10 12:00:00,9,1030.6,-1.4,40,-4,25000,14.816,,,160,,,,,,,,,,,wg-a,,,,AAXX 10124 07335 12/75 51608 10090 21040 30158 40306 58014 60006 81032 91200=
07335,1998-03-10 15:00:00,11,1026.9,-3.6,32,-5,25000,11.112,,,180,,,,,,,,,,,wg-a,,,,AAXX 10154 07335 12/75 71806 10110 21050 30122 40269 56036 60006 85012 91500=
07335,1998-03-10 18:00:00,9,1024.6,-2.3,46,-2,20000,11.112,,,200,-3.9,11.1,,,,,,,,,wg-a,,,,AAXX 10184 07335 12770 82006 10090 21020 30099 40246 58023 60006 8557/ 91800 333 10111 21039=
07335,1998-03-11 06:00:00,8,1011.3,-1.9,100,8,8000,14.816,,,260,5.6,8.5,,,,,,,,21,wg-a,,,,AAXX 11064 07335 02358 72608 10080 20080 39968 40113 56019 61000 72162 875// 90600 333 10085 20056 6001=
07335,1998-03-11 09:00:00,9,1012.5,1.2,93,8,20000,25.928,,,320,,,,0,,,,,,21,wg-a,,,,AAXX 11094 07335 12370 83214 10090 20080 39980 40125 52012 60007 72165 875// 90900=
07335,1998-03-11 12:00:00,9,1014,1.4,87,7,20000,42.596,,59.264,340,,,,0,,,,,,25,wg-a,,,,AAXX 11124 07335 02470 83423 10090 20070 39994 40140 53014 60016 72586 878// 91200 333 60007 91032=
07335,1998-03-11 15:00:00,9,1015.2,1.2,81,6,25000,31.484,,,340,,,,0,,,,,,1,wg-a,,,,AAXX 11154 07335 12575 73417 10090 20060 30006 40152 51012 60007 70186 878// 91500=
07335,1998-03-11 18:00:00,7,1017.9,2.6,93,6,11000,25.928,,,330,7,10.8,,,,,,,,,wg-a,,,,AAXX 11184 07335 02/61 /3314 10070 20060 30032 40179 53026 60006 91800 333 10108 20070 61000=
07335,1998-03-12 00:00:00,6,1022.3,1.6,87,4,0,14.816,,,330,,,,,,,,,,,wg-a,,,,AAXX 12004 07335 12/// /3308 10060 20040 30075 40223 51016 60016 90000=
07335,1998-03-12 06:00:00,2,1024.6,1.1,93,1,25000,18.52,,,340,1.5,7,,,,,1,,,,wg-a,,,,AAXX 12064 07335 02775 73410 10020 20010 30095 40246 53011 60006 81532 90600 333 10070 20015 60014=
07335,1998-03-12 09:00:00,5,1026.2,1.8,87,3,20000,18.52,,,350,,,,,,,,,,1,wg-a,,,,AAXX 12094 07335 02470 23510 10050 20030 30113 40262 51018 61000 70186 81830 90900 333 ////=
07335,1998-03-12 12:00:00,8,1027.2,1.1,57,0,500,25.928,,,30,,,,,,,,,,1,wg-a,,,,AAXX 12124 07335 02600 50314 10080 20000 30124 40272 51011 61000 70186 85800 91200 333 ////=
07335,1998-03-12 15:00:00,8,1026.5,-0.7,53,-1,500,22.224,,,20,,,,,,,,,,,wg-a,,,,AAXX 12154 07335 12600 70212 10080 21010 30117 40265 56007 60006 84832 91500=
07335,1998-03-12 18:00:00,5,1028,1.3,70,0,500,11.112,,,10,2.2,9,,,,,,,,,wg-a,,,,AAXX 12184 07335 12700 50106 10050 20000 30130 40280 53013 60006 81532 91800 333 10090 20022=
07335,1998-03-13 00:00:00,1,1030.2,0.5,80,-2,0,3.704,,,360,,,,,,,,,,,wg-a,,,,AAXX 13004 07335 12/// /3602 10010 21020 30150 40302 52005 60006 90000=
07335,1998-03-13 06:00:00,-2,1030.5,0.3,93,-3,15000,3.704,,,320,-3,5.8,,,,,,,,,wg-a,,,,AAXX 13064 07335 02/65 63202 11020 21030 30151 40305 53003 60006 80002 90600 333 10058 21030 61000=
07335,1998-03-13 09:00:00,5,1030.8,0.7,65,-1,20000,0,,,0,,,,,,,,,,,wg-a,,,,AAXX 13094 07335 12/70 10000 10050 21010 30158 40308 51007 60006 81032 90900=
07335,1998-03-13 12:00:00,9,1030.3,-0.3,46,-2,500,7.408,,,40,,,,,,,,,,,wg-a,,,,AAXX 13124 07335 12700 20404 10090 21020 30155 40303 58003 60006 81532 91200=
07335,1998-03-13 15:00:00,10,1028.7,-1.5,53,1,25000,3.704,,,350,,,,,,,,,,,wg-a,,,,AAXX 13154 07335 12675 /3502 10100 20010 30140 40287 56015 60006 85532 91500=
07335,1998-03-13 18:00:00,9,1028.9,0.1,71,4,15000,7.408,,,350,-3.2,10.1,,,,,,,,60,wg-a,,,,AAXX 13184 07335 02565 83504 10090 20040 30141 40289 53001 61000 76061 875// 91800 333 10101 21032 6100=
07335,1998-03-14 00:00:00,7,1030.3,0.1,93,6,0,3.704,,,340,,,,,,,,,,,wg-a,,,,AAXX 14004 07335 02/// /3402 10070 20060 30154 40303 53001 61000 90000 333 ////=
07335,1998-03-14 06:00:00,7,1030.7,0.7,100,7,2500,3.704,,,340,6.5,8.5,,,,,,,,10,wg-a,,,,AAXX 14064 07335 02425 83402 10070 20070 30158 40307 53007 60006 71022 885// 90600 333 10085 20065 61000=
07335,1998-03-14 09:00:00,7,1032,1.3,100,7,2500,11.112,,,20,,,,,,,,,,10,wg-a,,,,AAXX 14094 07335 12225 80206 10070 20070 30171 40320 51013 60006 71022 885// 90900=
07335,1998-03-14 12:00:00,10,1032.1,0.2,82,7,7000,11.112,,,10,,,,,,,,,,,wg-a,,,,AAXX 14124 07335 12457 80106 10100 20070 30173 40321 53002 60006 875// 91200=
07335,1998-03-14 15:00:00,11,1031.3,-0.7,71,6,10000,14.816,,,30,,,,,,,,,,,wg-a,,,,AAXX 14154 07335 12560 70308 10110 20060 30166 40313 57007 60006 878// 91500=
07335,1998-03-14 18:00:00,11,1031.8,0.5,71,6,0,11.112,,,40,6.4,11.3,,,,,,,,,wg-a,,,,AAXX 14184 07335 12/// /0406 10110 20060 30171 40318 53005 60006 91800 333 10113 20064=
07335,1998-03-15 00:00:00,7,1033.4,0.7,93,6,0,7.408,,,20,,,,,,,,,,,wg-a,,,,AAXX 15004 07335 12/// /0204 10070 20060 30185 40334 51007 60006 90000=
07335,1998-03-15 06:00:00,6,1033.4,0.5,93,5,4000,7.408,,,10,5.7,10.6,,,,,,,,10,wg-a,,,,AAXX 15064 07335 02640 70104 10060 20050 30184 40334 53005 60006 71022 875// 90600 333 10106 20057 60004=
07335,1998-03-15 09:00:00,9,1034.3,1.1,81,6,4000,18.52,,,40,,,,,,,,,,10,wg-a,,,,AAXX 15094 07335 12/40 00410 10090 20060 30195 40343 53011 60006 71011 80000 90900=
07335,1998-03-15 15:00:00,13,1032.2,-1.2,62,6,15000,18.52,,,10,,,,,,,,,,,wg-a,,,,AAXX 15154 07335 12665 20110 10130 20060 30176 40322 58012 60006 82201 91500=
07335,1998-03-15 18:00:00,9,1032.5,0.1,76,5,0,14.816,,,20,5.5,13.8,,,,,,,,,wg-a,,,,AAXX 15184 07335 12/// /0208 10090 20050 30177 40325 50001 60006 91800 333 10138 20055=
07335,1998-03-16 00:00:00,8,1033,-0.2,81,5,0,18.52,,,50,,,,,,,,,,,wg-a,,,,AAXX 16004 07335 12/// /0510 10080 20050 30181 40330 57002 60006 90000=
07335,1998-03-16 06:00:00,8,1032.4,0.4,76,4,8000,14.816,,,50,4.6,9.2,,,,,,,,,wg-a,,,,AAXX 16064 07335 02558 80508 10080 20040 30175 40324 53004 60006 885// 90600 333 10092 20046 60004=
07335,1998-03-16 09:00:00,8,1033.1,0.7,76,4,8000,14.816,,,60,,,,,,,,,,,wg-a,,,,AAXX 16094 07335 12558 80608 10080 20040 30182 40331 51007 60006 885// 90900=
07335,1998-03-16 12:00:00,10,1032.5,-0.5,71,5,10000,14.816,,,70,,,,,,,,,,,wg-a,,,,AAXX 16124 07335 12560 80708 10100 20050 30177 40325 56005 60006 885// 91200=
07335,1998-03-16 15:00:00,11,1031.4,-1,66,5,12000,18.52,,,30,,,,,,,,,,,wg-a,,,,AAXX 16154 07335 12562 80310 10110 20050 30167 40314 56010 60006 885// 91500=
07335,1998-03-16 18:00:00,10,1031.6,0.1,71,5,8000,14.816,,,50,7.6,11.3,,,,,,,,,wg-a,,,,AAXX 16184 07335 12558 80508 10100 20050 30168 40316 53001 60006 885// 91800 333 10113 20076=
07335,1998-03-17 00:00:00,8,1031.7,-0.2,81,5,0,14.816,,,50,,,,,,,,,,,wg-a,,,,AAXX 17004 07335 12/// /0508 10080 20050 30169 40317 58002 60006 90000=
07335,1998-03-17 06:00:00,8,1032,0.5,76,4,8000,18.52,,,40,7.5,9.7,,,,,,,,,wg-a,,,,AAXX 17064 07335 02558 80410 10080 20040 30171 40320 53005 60006 885// 90600 333 10097 20075 60004=
07335,1998-03-17 09:00:00,9,1032.9,1,66,3,11000,18.52,,,60,,,,,,,,,,,wg-a,,,,AAXX 17094 07335 12561 /0610 10090 20030 30181 40329 51010 60006 86500 90900=
07335,1998-03-17 12:00:00,12,1032.4,-0.4,62,5,15000,14.816,,,50,,,,,,,,,,,wg-a,,,,AAXX 17124 07335 12/65 00508 10120 20050 30177 40324 58004 60006 80000 91200=
07335,1998-03-17 15:00:00,14,1031.4,-0.8,55,5,15000,18.52,,,30,,,,,,,,,,,wg-a,,,,AAXX 17154 07335 12/65 00310 10140 20050 30169 40314 56008 60006 80000 91500=
07335,1998-03-18 00:00:00,5,1033.9,0.6,87,3,0,11.112,,,50,,,,,,,,,,,wg-a,,,,AAXX 18004 07335 12/// /0506 10050 20030 30189 40339 51006 60006 90000=
07335,1998-03-18 09:00:00,9,1035.3,1.3,66,3,8000,22.224,,,70,,,,,,,,,,,wg-a,,,,AAXX 18094 07335 12558 80712 10090 20030 30204 40353 53013 60006 885// 90900=
07335,1998-03-18 12:00:00,10,1035.4,0.2,71,5,8000,25.928,,,80,,,,,,,,,,,wg-a,,,,AAXX 18124 07335 12558 80814 10100 20050 30206 40354 50002 60006 885// 91200=
07335,1998-03-18 15:00:00,11,1034.8,-0.5,66,5,9000,25.928,,,60,,,,,,,,,,,wg-a,,,,AAXX 18154 07335 12559 40614 10110 20050 30201 40348 57005 60006 84500 91500=
07335,1998-03-18 18:00:00,11,1035.1,0.2,66,5,9000,18.52,,,50,7.7,12.5,,,,,,,,,wg-a,,,,AAXX 18184 07335 12/59 00510 10110 20050 30203 40351 53002 60006 80000 91800 333 10125 20077=
07335,1998-03-19 00:00:00,7,1037.2,0.7,81,4,0,14.816,,,60,,,,,,,,,,,wg-a,,,,AAXX 19004 07335 12/// /0608 10070 20040 30222 40372 53007 60006 90000=
07335,1998-03-19 06:00:00,2,1038,0.8,93,1,500,7.408,,,30,1.6,10.7,,,,,,,,,wg-a,,,,AAXX 19064 07335 02/00 /0304 10020 20010 30227 40380 53008 60006 80002 90600 333 10107 20016 60004=
07335,1998-03-19 09:00:00,8,1038.7,1.1,76,4,6000,14.816,,,50,,,,,,,,,,,wg-a,,,,AAXX 19094 07335 12/56 /0508 10080 20040 30238 40387 51011 60006 80002 90900=
07335,1998-03-19 15:00:00,15,1036.8,-1.2,48,4,25000,25.928,,,60,,,,,,,,,,,wg-a,,,,AAXX 19154 07335 12/75 20614 10150 20040 30222 40368 56012 60006 81032 91500=
07335,1998-03-19 18:00:00,13,1037,0.1,51,3,20000,18.52,,,70,1.6,15.2,,,,,,,,,wg-a,,,,AAXX 19184 07335 12/70 50710 10130 20030 30223 40370 53001 60006 81033 91800 333 10152 20016=
07335,1998-03-20 00:00:00,6,1038,0.2,65,0,0,11.112,,,50,,,,,,,,,,,wg-a,,,,AAXX 20004 07335 12/// /0506 10060 20000 30229 40380 50002 60006 90000=
07335,1998-03-20 09:00:00,8,1037.2,-0,57,0,20000,18.52,,,50,,,,,,,,,,,wg-a,,,,AAXX 20094 07335 12/70 00510 10080 20000 30223 40372 55000 60006 80000 90900=
07335,1998-03-20 12:00:00,12,1036.3,-0.7,47,1,25000,25.928,,,70,,,,,,,,,,,wg-a,,,,AAXX 20124 07335 12/75 00714 10120 20010 30216 40363 57007 60006 80000 91200=
07335,1998-03-20 15:00:00,13,1034.3,-1.9,41,0,500,22.224,,,60,,,,,,,,,,,wg-a,,,,AAXX 20154 07335 12/00 00612 10130 20000 30197 40343 58019 60006 80000 91500=
07335,1998-03-20 18:00:00,12,1033.7,-0.7,44,0,500,14.816,,,60,1.7,13.6,,,,,,,,,wg-a,,,,AAXX 20184 07335 12/00 00608 10120 20000 30190 40337 56007 60006 80000 91800 333 10136 20017=
07335,1998-03-21 06:00:00,3,1033.2,-0.5,87,1,2500,7.408,,,40,2.6,11.9,,,,,,,,10,wg-a,,,,AAXX 21064 07335 02625 /0404 10030 20010 30180 40332 56005 60006 71011 85500 90600 333 10119 20026 60004=
07335,1998-03-21 09:00:00,8,1032.8,-0.1,81,5,500,18.52,,,50,,,,,,,,,,,wg-a,,,,AAXX 21094 07335 12600 70510 10080 20050 30179 40328 58001 60006 875// 90900=
07335,1998-03-21 12:00:00,10,1031.9,-0.8,76,6,10000,22.224,,,60,,,,,,,,,,,wg-a,,,,AAXX 21124 07335 12560 70612 10100 20060 30171 40319 58008 60006 875// 91200=
07335,1998-03-21 15:00:00,10,1030.7,-1.1,76,6,10000,22.224,,,50,,,,,,,,,,,wg-a,,,,AAXX 21154 07335 12560 80512 10100 20060 30160 40307 56011 60006 885// 91500=
07335,1998-03-21 18:00:00,10,1030.3,-0.4,76,6,0,18.52,,,40,2.7,10.4,,,,,,,,,wg-a,,,,AAXX 21184 07335 12/// /0410 10100 20060 30156 40303 56004 60006 91800 333 10104 20027=
07335,1998-03-22 00:00:00,6,1030.6,-0.1,87,4,0,14.816,,,50,,,,,,,,,,,wg-a,,,,AAXX 22004 07335 12/// /0508 10060 20040 30156 40306 58001 60006 90000=
07335,1998-03-22 06:00:00,2,1030.5,0.3,93,1,7000,14.816,,,50,2.1,9.7,,,,,,,,,wg-a,,,,AAXX 22064 07335 02/57 /0508 10020 20010 30153 40305 53003 60006 80001 90600 333 10097 20021 60004=
07335,1998-03-22 09:00:00,7,1031.1,0.9,57,-1,15000,18.52,,,60,,,,,,,,,,,wg-a,,,,AAXX 22094 07335 12/65 00610 10070 21010 30162 40311 51009 60006 80000 90900=
07335,1998-03-22 12:00:00,11,1030,-0.9,30,-6,25000,29.632,,,60,,,,,,,,,,,wg-a,,,,AAXX 22124 07335 12/75 00616 10110 21060 30153 40300 57009 60006 80000 91200=
07335,1998-03-22 15:00:00,12,1028.5,-1.4,38,-2,25000,25.928,,,80,,,,,,,,,,,wg-a,,,,AAXX 22154 07335 12/75 00814 10120 21020 30139 40285 56014 60006 80000 91500=
07335,1998-03-22 18:00:00,11,1028.5,-0.1,35,-4,0,18.52,,,70,2.2,12.7,,,,,,,,,wg-a,,,,AAXX 22184 07335 12/// /0710 10110 21040 30138 40285 55001 60006 91800 333 10127 20022=
07335,1998-03-23 00:00:00,6,1029.4,-0.3,56,-2,0,11.112,,,50,,,,,,,,,,,wg-a,,,,AAXX 23004 07335 12/// /0506 10060 21020 30144 40294 58003 60006 90000=
07335,1998-03-23 06:00:00,2,1029.6,0.4,93,1,7000,11.112,,,50,2,11.1,,,,,,,,,wg-a,,,,AAXX 23064 07335 02/57 00506 10020 20010 30145 40296 53004 60006 80000 90600 333 10111 20020 60004=
07335,1998-03-23 09:00:00,8,1029.3,0,66,2,10000,14.816,,,80,,,,,,,,,,,wg-a,,,,AAXX 23094 07335 12/60 30808 10080 20020 30145 40293 50000 60006 80002 90900=
07335,1998-03-23 12:00:00,10,1028.8,-0.4,57,2,20000,25.928,,,60,,,,,,,,,,,wg-a,,,,AAXX 23124 07335 12670 70614 10100 20020 30141 40288 58004 60006 874// 91200=
07335,1998-03-23 15:00:00,11,1027.1,-1.6,54,2,11000,25.928,,,40,,,,,,,,,,,wg-a,,,,AAXX 23154 07335 12/61 /0414 10110 20020 30125 40271 58016 60006 91500=
07335,1998-03-23 18:00:00,9,1027.4,0.2,66,3,9000,18.52,,,30,2,11.1,,,,,,,,,wg-a,,,,AAXX 23184 07335 12/59 /0310 10090 20030 30127 40274 53002 60006 91800 333 10111 20020=
07335,1998-03-24 00:00:00,5,1027.8,-0,81,2,0,14.816,,,360,,,,,,,,,,,wg-a,,,,AAXX 24004 07335 12/// /3608 10050 20020 30128 40278 55000 60006 90000=
07335,1998-03-24 06:00:00,2,1029.2,1.2,87,0,4000,18.52,,,40,1.8,9.2,,,,,,,,10,wg-a,,,,AAXX 24064 07335 02/40 /0410 10020 20000 30140 40292 53012 60006 71000 80001 90600 333 10092 20018 60004=
07335,1998-03-24 09:00:00,4,1031.2,2.1,70,-1,14000,11.112,,,60,,,,,,,,,,,wg-a,,,,AAXX 24094 07335 12/64 50606 10040 21010 30161 40312 51021 60006 80001 90900=
07335,1998-03-24 15:00:00,10,1030.5,-0.7,29,-7,25000,18.52,,,40,,,,,,,,,,,wg-a,,,,AAXX 24154 07335 12/75 20410 10100 21070 30157 40305 56007 60006 80001 91500=
07335,1998-03-24 18:00:00,7,1031.3,0.7,45,-4,10000,14.816,,,30,1.5,10,,,,,,,,,wg-a,,,,AAXX 24184 07335 12/60 /0308 10070 21040 30164 40313 53007 60006 91800 333 10100 20015=
07335,1998-03-25 00:00:00,-3,1032.4,-0.4,86,-5,0,3.704,,,350,,,,,,,,,,,wg-a,,,,AAXX 25004 07335 12/// /3502 11030 21050 30169 40324 55004 60006 90000=
07335,1998-03-25 06:00:00,-5,1031.6,-0,93,-6,6000,0,,,0,-5.6,7.2,,,,,,,,,wg-a,,,,AAXX 25064 07335 02/56 20000 11050 21060 30160 40316 55000 60006 81032 90600 333 10072 21056 60004=
07335,1998-03-25 09:00:00,5,1031.3,0.3,65,-1,8000,3.704,,,40,,,,,,,,,,,wg-a,,,,AAXX 25094 07335 12/58 50402 10050 21010 30163 40313 51003 60006 83032 90900=
07335,1998-03-25 12:00:00,10,1029.3,-1.7,46,-1,10000,7.408,,,60,,,,,,,,,,,wg-a,,,,AAXX 25124 07335 12/60 60604 10100 21010 30146 40293 58017 60006 81032 91200=
07335,1998-03-25 18:00:00,11,1026.4,-0.7,40,-2,15000,7.408,,,80,-5.3,11.6,,,,,,,,,wg-a,,,,AAXX 25184 07335 12/65 70804 10110 21020 30117 40264 56007 60006 8703/ 91800 333 10116 21053=
07335,1998-03-26 06:00:00,-2,1023.9,-0.3,93,-3,6000,0,,,0,-2.6,10.7,,,,,,,,,wg-a,,,,AAXX 26064 07335 02756 30000 11020 21030 30086 40239 55003 60006 81502 90600 333 10107 21026 60004=
07335,1998-03-26 09:00:00,10,1023.5,0.2,46,-1,8000,0,,,0,,,,,,,,,,,wg-a,,,,AAXX 26094 07335 12758 40000 10100 21010 30088 40235 50002 60006 81532 90900=
07335,1998-03-26 12:00:00,14,1022.1,-1.2,33,-2,15000,11.112,,,250,,,,,,,,,,,wg-a,,,,AAXX 26124 07335 12765 72506 10140 21020 30076 40221 58012 60006 82532 91200=
07335,1998-03-26 15:00:00,15,1020.4,-1.6,48,4,15000,14.816,,,250,,,,,,,,,,,wg-a,,,,AAXX 26154 07335 12/65 72508 10150 20040 30060 40204 58016 60006 81032 91500=
07335,1998-03-26 18:00:00,12,1020.9,0.4,47,1,12000,18.52,,,280,-2.5,15.1,,,,,,,,,wg-a,,,,AAXX 26184 07335 12/62 82810 10120 20010 30064 40209 53004 60006 8807/ 91800 333 10151 21025=
07335,1998-03-27 00:00:00,9,1021.6,0.2,81,6,0,7.408,,,230,,,,,,,,,,,wg-a,,,,AAXX 27004 07335 12/// /2304 10090 20060 30069 40216 50002 60006 90000=
07335,1998-03-27 06:00:00,8,1021.2,0.5,87,6,8000,3.704,,,200,7.9,12.3,,,,,,,,,wg-a,,,,AAXX 27064 07335 02558 72002 10080 20060 30065 40212 51005 60006 875// 90600 333 10123 20079 60004=
07335,1998-03-27 09:00:00,11,1021.2,0.2,76,7,10000,7.408,,,220,,,,,,,,,,,wg-a,,,,AAXX 27094 07335 12/60 72204 10110 20070 30067 40212 50002 60006 81031 90900=
07335,1998-03-27 15:00:00,18,1018.7,-1.7,52,8,20000,3.704,,,110,,,,,,,,,,,wg-a,,,,AAXX 27154 07335 12/70 61102 10180 20080 30046 40187 56017 60006 84031 91500=
07335,1998-03-27 18:00:00,17,1017,-1.8,55,8,10000,11.112,,,110,7.7,18.8,,,,,,,,,wg-a,,,,AAXX 27184 07335 12/60 /1106 10170 20080 30028 40170 56018 60006 91800 333 10188 20077=
07335,1998-03-28 00:00:00,11,1016.2,-1.9,82,8,0,14.816,,,100,,,,,,,,,,,wg-a,,,,AAXX 28004 07335 12/// /1008 10110 20080 30017 40162 55019 60006 90000=
07335,1998-03-28 09:00:00,13,1014,-0.1,72,8,18000,11.112,,,130,,,,,,,,,,,wg-a,,,,AAXX 28094 07335 12/68 81306 10130 20080 39997 40140 58001 60006 82032 90900=
07335,1998-03-28 12:00:00,20,1012.8,-0.9,43,7,20000,18.52,,,180,,,,,,,,,,,wg-a,,,,AAXX 28124 07335 12/70 71810 10200 20070 39988 40128 57009 60006 85032 91200=
07335,1998-03-28 15:00:00,21,1011.1,-1.6,43,8,20000,22.224,,,190,,,,,,,,,,,wg-a,,,,AAXX 28154 07335 12/70 71912 10210 20080 39972 40111 56016 60006 82032 91500=
07335,1998-03-28 18:00:00,19,1010.9,-0.3,56,10,0,7.408,,,200,6.1,21.7,,,,,,,,,wg-a,,,,AAXX 28184 07335 12/// /2004 10190 20100 39969 40109 56003 60006 91800 333 10217 20061=
07335,1998-03-29 00:00:00,15,1010.6,-0.5,63,8,0,14.816,,,180,,,,,,,,,,,wg-a,,,,AAXX 29004 07335 12/// /1808 10150 20080 39964 40106 58005 60006 90000=
07335,1998-03-29 06:00:00,12,1008.1,-0.8,71,7,20000,14.816,,,150,12.1,18.6,,,,,,,,,wg-a,,,,AAXX 29064 07335 02770 71508 10120 20070 39938 40081 55008 60006 82532 90600 333 10186 20121 60004=
07335,1998-03-29 09:00:00,15,1007.4,-0.6,59,7,20000,29.632,,,170,,,,,,,,,,,wg-a,,,,AAXX 29094 07335 12770 71716 10150 20070 39932 40074 56006 60006 875// 90900=
07335,1998-03-29 12:00:00,18,1006.8,-0.4,56,9,20000,22.224,,,170,,,,,,,,,,,wg-a,,,,AAXX 29124 07335 12770 71712 10180 20090 39928 40068 58004 60006 875// 91200=
07335,1998-03-29 15:00:00,18,1006.2,-0.6,52,8,20000,14.816,,,170,,,,,,,,,,,wg-a,,,,AAXX 29154 07335 12770 71708 10180 20080 39922 40062 57006 60006 83532 91500=
07335,1998-03-29 18:00:00,17,1006.9,0.7,59,9,0,7.408,,,180,12.1,18.6,,,,,,,,,wg-a,,,,AAXX 29184 07335 12/// /1804 10170 20090 39929 40069 53007 60006 91800 333 10186 20121=
07335,1998-03-30 00:00:00,14,1010.7,1.8,88,12,0,14.816,,,210,,,,,,,,,,,wg-a,,,,AAXX 30004 07335 12/// /2108 10140 20120 39965 40107 52018 60006 90000=
07335,1998-03-30 15:00:00,13,1017.3,0.2,88,11,25000,0,,,0,,,,,,,,,,,wg-a,,,,AAXX 30154 07335 12475 80000 10130 20110 30029 40173 51002 60006 885// 91500=
07335,1998-03-30 18:00:00,13,1018.1,0.8,88,11,0,7.408,,,170,10.8,13.8,,,,,,,,,wg-a,,,,AAXX 30184 07335 32/// /1704 10130 20110 30037 40181 53008 91800 333 10138 20108=
07335,1998-03-31 00:00:00,11,1018.6,0.1,100,11,0,3.704,,,150,,,,,,,,,,,wg-a,,,,AAXX 31004 07335 12/// /1502 10110 20110 30041 40186 53001 60006 90000=
07335,1998-03-31 06:00:00,10,1016.1,-1,100,10,500,3.704,,,120,10.2,12.9,,,,,1,,,,wg-a,,,,AAXX 31064 07335 02700 71202 10100 20100 30016 40161 56010 60006 8553/ 90600 333 10129 20102 60014=
07335,1998-03-31 09:00:00,13,1015.2,-0.7,82,10,9000,11.112,,,150,,,,,,,,,,,wg-a,,,,AAXX 31094 07335 12/59 71506 10130 20100 30009 40152 58007 60006 84032 90900=
07335,1998-03-31 12:00:00,17,1013.7,-1.4,48,6,15000,18.52,,,160,,,,,,,,,,,wg-a,,,,AAXX 31124 07335 12565 71610 10170 20060 39995 40137 57014 60006 8383/ 91200=
07335,1998-03-31 15:00:00,18,1011.9,-1.7,45,6,20000,14.816,,,130,,,,,,,,,,,wg-a,,,,AAXX 31154 07335 12770 71308 10180 20060 39978 40119 56017 60006 82532 91500=
07335,1998-03-31 18:00:00,18,1011.4,-0.5,45,6,0,7.408,,,130,10.4,19.2,,,,,,,,,wg-a,,,,AAXX 31184 07335 12/// /1304 10180 20060 39973 40114 56005 60006 91800 333 10192 20104=
07335,1998-04-01 06:00:00,11,1014.8,1.3,100,11,500,14.816,,,240,11.1,17.5,,,,,,,,,wg-a,,,,AAXX 01064 07335 02300 72408 10110 20110 30004 40148 53013 60006 84531 90600 333 10175 20111 60004=
07335,1998-04-01 09:00:00,14,1015.5,0.8,82,11,12000,22.224,,,240,,,,,,,,,,,wg-a,,,,AAXX 01094 07335 12462 /2412 10140 20110 30012 40155 51008 60006 82231 90900=
07335,1998-04-01 12:00:00,16,1014.7,-0.7,77,12,500,25.928,,,260,,,,,,,,,,25,wg-a,,,,AAXX 01124 07335 02500 62614 10160 20120 30005 40147 58007 61000 72586 85801 91200 333 6100=
07335,1998-04-01 15:00:00,15,1013.6,-1.1,77,11,500,18.52,,,270,,,,,,,,,,25,wg-a,,,,AAXX 01154 07335 02500 72710 10150 20110 39994 40136 58011 61000 72586 86832 91500 333 ////=
07335,1998-04-01 18:00:00,14,1013.7,-0,77,10,0,18.52,,,260,10.9,16.9,,,,,,,,,wg-a,,,,AAXX 01184 07335 32/// /2610 10140 20100 39994 40137 55000 91800 333 10169 20109=
07335,1998-04-02 06:00:00,10,1007.2,-2.1,100,10,8000,18.52,,,190,9.8,13.6,,,,,,,,61,wg-a,,,,AAXX 02064 07335 02258 81910 10100 20100 39928 40072 56021 61000 76162 875// 90600 333 10136 20098 6007=
07335,1998-04-02 09:00:00,13,1007.1,0.1,88,11,15000,22.224,,,250,,,,,,,,,,3,wg-a,,,,AAXX 02094 07335 02465 72512 10130 20110 39929 40071 53001 61000 70362 872// 90900 333 ////=
07335,1998-04-02 12:00:00,16,1006.6,-0.4,68,10,20000,31.484,,,250,,,,,,,,,,1,wg-a,,,,AAXX 02124 07335 02570 72517 10160 20100 39925 40066 56004 61000 70162 84232 91200 333 ////=
07335,1998-04-03 00:00:00,13,1000.9,-1.6,94,12,0,29.632,,,200,,,,3,,,,,,,wg-a,,,,AAXX 03004 07335 02/// /2016 10130 20120 39867 40009 56016 60056 90000 333 60037=
07335,1998-04-03 06:00:00,10,999.5,-0.5,100,10,12000,18.52,,,230,10.3,13,,,,,,,,60,wg-a,,,,AAXX 03064 07335 02462 82310 10100 20100 39852 49995 56005 61000 76062 875// 90600 333 10130 20103 6011=
07335,1998-04-03 09:00:00,10,1000.3,0.8,93,9,7000,14.816,,,220,,,,1,,,,,,60,wg-a,,,,AAXX 03094 07335 12357 82208 10100 20090 39860 40003 51008 60017 76066 875// 90900=
07335,1998-04-03 12:00:00,11,998.7,-1.5,100,11,8000,22.224,,,210,,,,2,,,,,,51,wg-a,,,,AAXX 03124 07335 02258 82112 10110 20110 39845 49987 58015 60026 75165 875// 91200 333 60027=
07335,1998-04-03 15:00:00,10,998,-0.7,93,9,15000,35.188,,,250,,,,2,,,,,,61,wg-a,,,,AAXX 03154 07335 12365 82519 10100 20090 39838 49980 55007 60027 76165 875// 91500=
07335,1998-04-03 18:00:00,8,999.1,0.9,93,7,0,22.224,,,230,7.5,11.2,,5,,,,,,,wg-a,,,,AAXX 03184 07335 12/// /2312 10080 20070 39847 49991 51009 60057 91800 333 10112 20075=
07335,1998-04-04 00:00:00,8,999.2,0.2,93,7,0,29.632,,,200,,,,,,,,,,,wg-a,,,,AAXX 04004 07335 12/// /2016 10080 20070 39848 49992 53002 60056 90000=
07335,1998-04-04 06:00:00,8,999.8,0.8,93,7,20000,29.632,,48.152,210,7.4,8.4,,,,,15,,,3,wg-a,,,,AAXX 04064 07335 02470 /2116 10080 20070 39854 49998 51008 60006 70386 86800 90600 333 10084 20074 60154 91026=
07335,1998-04-04 09:00:00,9,1002.1,2.3,87,7,2500,31.484,,,250,,,,2,,,,,,80,wg-a,,,,AAXX 04094 07335 12425 82517 10090 20070 39877 40021 53023 60027 78086 888// 90900=
07335,1998-04-04 12:00:00,12,1001.9,0,88,10,15000,31.484,,,230,,,,2,,,,,,80,wg-a,,,,AAXX 04124 07335 02265 72317 10120 20100 39877 40019 50000 60046 78086 8638/ 91200 333 60027=
07335,1998-04-04 15:00:00,11,1003.1,1.1,82,8,10000,42.596,,77.784,250,,,,2,,,,,,25,wg-a,,,,AAXX 04154 07335 12460 72523 10110 20080 39888 40031 53011 60027 72586 8638/ 91500 333 91042=
07335,1998-04-04 18:00:00,8,1004.3,1.1,93,7,0,29.632,,,220,8.3,13.6,,1,,,,,,,wg-a,,,,AAXX 04184 07335 12/// /2216 10080 20070 39899 40043 53011 60017 91800 333 10136 20083=
07335,1998-04-05 00:00:00,8,1003.4,-1.2,93,7,0,14.816,,,200,,,,,,,,,,,wg-a,,,,AAXX 05004 07335 12/// /2008 10080 20070 39889 40034 56012 60016 90000=
07335,1998-04-05 06:00:00,7,1003.1,0.8,100,7,15000,22.224,,,210,6.9,8.5,,,,,,,,80,wg-a,,,,AAXX 05064 07335 02465 72112 10070 20070 39886 40031 53008 61000 78086 86872 90600 333 10085 20069 6008=
07335,1998-04-05 09:00:00,9,1005.2,2.2,87,7,25000,18.52,,,230,,,,1,,,,,,1,wg-a,,,,AAXX 05094 07335 12475 42310 10090 20070 39908 40052 51022 60017 70186 82903 90900=
07335,1998-04-05 15:00:00,12,1007.5,0.6,76,8,500,31.484,,,250,,,,0,,,,,,,wg-a,,,,AAXX 05154 07335 12500 52517 10120 20080 39932 40075 53006 60007 85903 91500=
07335,1998-04-05 18:00:00,11,1008.8,1.2,76,7,0,25.928,,,240,7.2,14.1,,,,,,,,,wg-a,,,,AAXX 05184 07335 32/// /2414 10110 20070 39944 40088 53012 91800 333 10141 20072=
07335,1998-04-06 00:00:00,9,1010.2,0.3,93,8,0,18.52,,,230,,,,,,,,,,,wg-a,,,,AAXX 06004 07335 12/// /2310 10090 20080 39957 40102 53003 60026 90000=
07335,1998-04-06 06:00:00,8,1009.7,-0.2,93,7,20000,18.52,,,210,6.1,11.1,,1,,,10,,,25,wg-a,,,,AAXX 06064 07335 02370 62110 10080 20070 39952 40097 55002 60104 72586 86200 90600 333 10111 20061 60017=
07335,1998-04-06 09:00:00,9,1009,-0.6,93,8,20000,22.224,,,200,,,,1,,,,,,2,wg-a,,,,AAXX 06094 07335 12270 72012 10090 20080 39946 40090 58006 60017 70262 878// 90900=
07335,1998-04-06 12:00:00,9,1008.3,-0.8,93,8,15000,18.52,,,260,,,,5,,,,,,61,wg-a,,,,AAXX 06124 07335 02465 82610 10090 20080 39938 40083 58008 60066 76162 878// 91200 333 60057=
07335,1998-04-06 15:00:00,10,1007.2,-1,76,6,20000,25.928,,,260,,,,0,,,,,,60,wg-a,,,,AAXX 06154 07335 12470 82614 10100 20060 39928 40072 56010 60007 76066 878// 91500=
07335,1998-04-06 18:00:00,9,1006.3,-0.9,93,8,0,14.816,,,220,7.4,10.3,,,,,,,,,wg-a,,,,AAXX 06184 07335 32/// /2208 10090 20080 39919 40063 58009 91800 333 10103 20074=
07335,1998-04-07 00:00:00,10,999.3,-3.7,100,10,0,22.224,,,200,,,,,,,,,,,wg-a,,,,AAXX 07004 07335 12/// /2012 10100 20100 39850 49993 56037 60106 90000=
07335,1998-04-07 12:00:00,10,1004.4,1.1,82,7,20000,31.484,,,240,,,,0,,,,,,16,wg-a,,,,AAXX 07124 07335 02470 62417 10100 20070 39901 40044 51011 60006 71622 86900 91200 333 60007=
07335,1998-04-07 15:00:00,14,1004.6,0.3,58,6,500,29.632,,,270,,,,,,,,,,16,wg-a,,,,AAXX 07154 07335 12500 62716 10140 20060 39904 40046 51003 60006 71622 85903 91500=
07335,1998-04-07 18:00:00,9,1006.2,1.4,87,7,0,25.928,,,260,5.9,13.5,,,,,,,,,wg-a,,,,AAXX 07184 07335 32/// /2614 10090 20070 39918 40062 53014 91800 333 10135 20059=
07335,1998-04-08 06:00:00,6,1007.7,-0.4,100,6,10000,11.112,,,200,4,9.3,,0,,,1,,,25,wg-a,,,,AAXX 08064 07335 02560 72006 10060 20060 39931 40077 56004 60014 72586 85532 90600 333 10093 20040 60007=
07335,1998-04-08 09:00:00,9,1007.3,-0.3,87,7,15000,18.52,,,210,,,,,,,,,,,wg-a,,,,AAXX 08094 07335 12465 72110 10090 20070 39928 40073 56003 60006 878// 90900=
07335,1998-04-08 12:00:00,10,1005.8,-1.4,87,8,8000,22.224,,,250,,,,0,,,,,,80,wg-a,,,,AAXX 08124 07335 02458 72512 10100 20080 39914 40058 58014 60006 78086 85832 91200 333 60007=
07335,1998-04-08 15:00:00,11,1003.8,-1.9,82,8,8000,14.816,,,250,,,,2,,,,,,80,wg-a,,,,AAXX 08154 07335 12458 72508 10110 20080 39895 40038 56019 60027 78087 85932 91500=
07335,1998-04-08 18:00:00,10,1002.9,-0.9,76,6,0,22.224,,,260,6.1,13.2,,1,,,,,,,wg-a,,,,AAXX 08184 07335 12/// /2612 10100 20060 39886 40029 56009 60017 91800 333 10132 20061=
07335,1998-04-09 06:00:00,5,996.6,-1.1,93,4,500,14.816,,,210,5.2,10,,,,,,,,25,wg-a,,,,AAXX 09064 07335 02500 72108 10050 20040 39821 49966 56011 61000 72586 86802 90600 333 10100 20052 6006=
07335,1998-04-09 09:00:00,8,995.8,-0.6,87,6,20000,25.928,,,210,,,,,,,,,,,wg-a,,,,AAXX 09094 07335 12470 72114 10080 20060 39815 49958 58006 60006 86802 90900=
07335,1998-04-09 12:00:00,10,995.3,-0.4,71,5,500,35.188,,,210,,,,,,,,,,,wg-a,,,,AAXX 09124 07335 12500 72119 10100 20050 39811 49953 58004 60006 878// 91200=
07335,1998-04-09 15:00:00,8,994.2,-1.2,87,6,500,29.632,,,190,,,,2,,,,,,21,wg-a,,,,AAXX 09154 07335 12400 61916 10080 20060 39799 49942 58012 60027 72186 86832 91500=
07335,1998-04-09 18:00:00,6,994.3,-0,93,5,0,18.52,,,200,5,10.7,,0,,,,,,,wg-a,,,,AAXX 09184 07335 12/// /2010 10060 20050 39799 49943 55000 60007 91800 333 10107 20050=
07335,1998-04-10 00:00:00,3,994.3,-0.9,100,3,0,11.112,,,170,,,,,,,,,,,wg-a,,,,AAXX 10004 07335 12/// /1706 10030 20030 39797 49943 58009 60006 90000=
07335,1998-04-10 06:00:00,4,991.8,-1,100,4,25000,14.816,,,180,2.8,6.4,,,,,3,,,,wg-a,,,,AAXX 10064 07335 02475 71808 10040 20040 39773 49918 56010 60006 875// 90600 333 10064 20028 60034=
07335,1998-04-10 09:00:00,6,991.8,0.1,93,5,20000,22.224,,,210,,,,0,,,,,,1,wg-a,,,,AAXX 10094 07335 12470 82112 10060 20050 39774 49918 53001 60007 70162 885// 90900=
07335,1998-04-10 15:00:00,9,991.8,0.3,71,4,25000,31.484,,51.856,270,,,,2,,,,,,3,wg-a,,,,AAXX 10154 07335 12575 72717 10090 20040 39775 49918 53003 60027 70386 86203 91500 333 91028=
07335,1998-04-10 18:00:00,8,994.1,2.3,76,4,0,18.52,,,250,4,9.2,,,,,,,,,wg-a,,,,AAXX 10184 07335 32/// /2510 10080 20040 39798 49941 53023 91800 333 10092 20040=
07335,1998-04-11 00:00:00,5,998.1,1.3,93,4,0,22.224,,,240,,,,,,,,,,,wg-a,,,,AAXX 11004 07335 12/// /2412 10050 20040 39836 49981 53013 60006 90000=
07335,1998-04-11 06:00:00,3,998.6,0.3,100,3,8000,14.816,,,200,2.3,7.5,,,,,,,,51,wg-a,,,,AAXX 11064 07335 02258 82008 10030 20030 39840 49986 53003 61000 75165 877// 90600 333 10075 20023 6003=
07335,1998-04-11 09:00:00,4,999.7,1.1,100,4,20000,18.52,,,220,,,,,,,,,,1,wg-a,,,,AAXX 11094 07335 02270 72210 10040 20040 39851 49997 51011 61000 70165 875// 90900 333 ////=
07335,1998-04-11 15:00:00,8,1000,-0.1,76,4,500,11.112,,,250,,,,,,,,,,1,wg-a,,,,AAXX 11154 07335 02400 72506 10080 20040 39856 40000 58001 61000 70162 86802 91500 333 ////=
07335,1998-04-12 00:00:00,5,1004.2,0.8,100,5,0,14.816,,,290,,,,,,,,,,,wg-a,,,,AAXX 12004 07335 12/// /2908 10050 20050 39896 40042 51008 60016 90000=
07335,1998-04-12 06:00:00,4,1005.5,0.8,100,4,15000,18.52,,,320,4.3,6.6,,,,,1,,,,wg-a,,,,AAXX 12064 07335 02365 83210 10040 20040 39908 40055 53008 60006 887// 90600 333 10066 20043 60014=
07335,1998-04-12 09:00:00,3,1008.3,2.7,100,3,10000,22.224,,,340,,,,1,,,,,,60,wg-a,,,,AAXX 12094 07335 12360 83412 10030 20030 39935 40083 53027 60017 76065 887// 90900=
07335,1998-04-12 12:00:00,4,1010.3,2,93,3,8000,22.224,,,310,,,,0,,,,,,60,wg-a,,,,AAXX 12124 07335 02358 83112 10040 20030 39955 40103 51020 60016 76065 875// 91200 333 60007=
07335,1998-04-12 15:00:00,8,1009.5,-0.6,61,1,25000,11.112,,,260,,,,0,,,,,,1,wg-a,,,,AAXX 12154 07335 12475 52606 10080 20010 39949 40095 58006 60007 70162 84903 91500=
07335,1998-04-13 00:00:00,0,1011.1,-0.3,100,0,0,7.408,,,270,,,,,,,,,,,wg-a,,,,AAXX 13004 07335 12/// /2704 10000 20000 39961 40111 58003 60006 90000=
07335,1998-04-13 06:00:00,1,1011,0.4,93,0,4000,7.408,,,330,-1.6,,,,,,2,,,10,wg-a,,,,AAXX 13064 07335 02140 83304 10010 20000 39960 40110 53004 60006 71022 886// 90600 333 10039 21016 60024=
07335,1998-04-13 09:00:00,3,1012.4,1.6,93,2,15000,11.112,,,350,,,,,,,,,,,wg-a,,,,AAXX 13094 07335 12365 /3506 10030 20020 39976 40124 51016 60006 86200 90900=
07335,1998-04-13 12:00:00,8,1012.3,0.1,53,-1,25000,14.816,,,330,,,,,,,,,,,wg-a,,,,AAXX 13124 07335 12675 /3308 10080 21010 39977 40123 50001 60006 85200 91200=
07335,1998-04-13 15:00:00,7,1011.4,-0.9,61,0,25000,11.112,,,310,,,,,,,,,,,wg-a,,,,AAXX 13154 07335 12475 53106 10070 20000 39968 40114 58009 60006 85302 91500=
07335,1998-04-13 18:00:00,7,1010.8,-0.6,61,0,0,18.52,,,240,0.5,8.5,,,,,,,,,wg-a,,,,AAXX 13184 07335 12/// /2410 10070 20000 39962 40108 55006 60006 91800 333 10085 20005=
07335,1998-04-14 00:00:00,0,1010.8,-1.2,100,0,0,11.112,,,200,,,,,,,,,,,wg-a,,,,AAXX 14004 07335 12/// /2006 10000 20000 39958 40108 56012 60006 90000=
07335,1998-04-14 06:00:00,1,1007.9,-1,93,0,20000,11.112,,,160,-1.2,6.8,,,,,,,,,wg-a,,,,AAXX 14064 07335 02/70 71606 10010 20000 39930 40079 55010 60006 84032 90600 333 10068 21012 60004=
07335,1998-04-14 09:00:00,7,1006.3,-1.2,76,3,25000,25.928,,,200,,,,,,,,,,,wg-a,,,,AAXX 14094 07335 12575 52014 10070 20030 39918 40063 58012 60006 84832 90900=
07335,1998-04-14 12:00:00,9,1004.7,-1.5,61,2,25000,18.52,,,200,,,,,,,,,,,wg-a,,,,AAXX 14124 07335 12675 72010 10090 20020 39903 40047 58015 60006 878// 91200=
07335,1998-04-14 15:00:00,10,1002.5,-2.1,57,2,25000,18.52,,,190,,,,,,,,,,,wg-a,,,,AAXX 14154 07335 12675 71910 10100 20020 39882 40025 56021 60006 84832 91500=
07335,1998-04-14 18:00:00,10,1000.1,-2.4,62,3,0,11.112,,,150,0.7,11.2,,,,,,,,,wg-a,,,,AAXX 14184 07335 12/// /1506 10100 20030 39858 40001 58024 60006 91800 333 10112 20007=
07335,1998-04-15 06:00:00,7,995.9,-0.4,93,6,8000,18.52,,,210,6.5,9.9,,,,,,,,61,wg-a,,,,AAXX 15064 07335 02258 82110 10070 20060 39815 49959 55004 61000 76166 887// 90600 333 10099 20065 6003=
07335,1998-04-15 09:00:00,9,995.5,-0.3,93,8,15000,22.224,,,210,,,,0,,,,,,3,wg-a,,,,AAXX 15094 07335 12465 72112 10090 20080 39812 49955 57003 60007 70362 878// 90900=
07335,1998-04-15 12:00:00,5,997.6,1.9,87,3,15000,31.484,,,330,,,,3,,,,,,1,wg-a,,,,AAXX 15124 07335 02465 73317 10050 20030 39831 49976 53019 60046 70186 878// 91200 333 60037=
07335,1998-04-15 15:00:00,8,998.9,1.4,61,1,20000,22.224,,,300,,,,,,,,,,,wg-a,,,,AAXX 15154 07335 12570 73012 10080 20010 39845 49989 51014 60006 8227/ 91500=
07335,1998-04-15 18:00:00,8,1000.6,1.7,61,1,0,22.224,,,280,5.1,10.3,,,,,,,,,wg-a,,,,AAXX 15184 07335 32/// /2812 10080 20010 39862 40006 53017 91800 333 10103 20051=
07335,1998-04-16 00:00:00,2,1004.8,0.8,93,1,0,14.816,,,240,,,,,,,,,,,wg-a,,,,AAXX 16004 07335 12/// /2408 10020 20010 39900 40048 51008 60006 90000=
07335,1998-04-16 06:00:00,3,1000.8,-2.9,93,2,25000,14.816,,,180,1.3,8.1,,,,,4,,,,wg-a,,,,AAXX 16064 07335 02/75 71808 10030 20020 39861 40008 58029 60006 8705/ 90600 333 10081 20013 60044=
07335,1998-04-16 09:00:00,6,997.8,-2.8,87,4,20000,25.928,,,180,,,,,,,,,,21,wg-a,,,,AAXX 16094 07335 02670 81814 10060 20040 39833 49978 58028 61000 72162 8152/ 90900 333 ////=
07335,1998-04-16 12:00:00,8,993.2,-4.4,87,6,15000,31.484,,50.004,200,,,,0,,,,,,61,wg-a,,,,AAXX 16124 07335 02565 82017 10080 20060 39789 49932 56044 60016 76162 8652/ 91200 333 60007 91027=
07335,1998-04-16 15:00:00,8,988.5,-4.6,93,7,8000,31.484,,53.708,190,,,,4,,,,,,61,wg-a,,,,AAXX 16154 07335 12458 81917 10080 20070 39743 49885 58046 60047 76166 8652/ 91500 333 91029=
07335,1998-04-16 18:00:00,9,986.3,-2.2,81,6,0,22.224,,,210,3.2,9.7,,3,,,,,,,wg-a,,,,AAXX 16184 07335 12/// /2112 10090 20060 39721 49863 58022 60037 91800 333 10097 20032=
07335,1998-04-17 00:00:00,8,983.9,1.5,93,7,0,29.632,,,290,,,,,,,,,,,wg-a,,,,AAXX 17004 07335 12/// /2916 10080 20070 39697 49839 53015 60046 90000=
07335,1998-04-17 06:00:00,6,991.5,3.3,81,3,25000,35.188,,53.708,280,6.1,8.7,,,,,11,,,2,wg-a,,,,AAXX 17064 07335 02575 82819 10060 20030 39771 49915 51033 60006 70262 875// 90600 333 10087 20061 60114 91029=
07335,1998-04-17 09:00:00,6,994.4,2.9,75,2,25000,31.484,,,290,,,,,,,,,,,wg-a,,,,AAXX 17094 07335 12575 82917 10060 20020 39800 49944 51029 60006 875// 90900=
07335,1998-04-17 12:00:00,7,995.4,1,81,4,15000,31.484,,,280,,,,,,,,,,60,wg-a,,,,AAXX 17124 07335 02365 82817 10070 20040 39810 49954 51010 61000 76062 875// 91200 333 6100=
07335,1998-04-17 15:00:00,6,997.5,2,93,5,10000,31.484,,,300,,,,3,,,,,,61,wg-a,,,,AAXX 17154 07335 12360 83017 10060 20050 39830 49975 51020 60037 76166 875// 91500=
07335,1998-04-17 18:00:00,6,1000.5,3,93,5,0,29.632,,,310,5.5,7.6,,2,,,,,,,wg-a,,,,AAXX 17184 07335 12/// /3116 10060 20050 39860 40005 53030 60027 91800 333 10076 20055=
07335,1998-04-18 09:00:00,9,1008.7,1,66,3,20000,22.224,,,310,,,,,,,,,,,wg-a,,,,AAXX 18094 07335 12570 33112 10090 20030 39942 40087 52010 60006 83230 90900=
07335,1998-04-18 12:00:00,10,1008.8,0.2,57,2,25000,25.928,,,290,,,,,,,,,,,wg-a,,,,AAXX 18124 07335 12675 72914 10100 20020 39944 40088 50002 60006 878// 91200=
07335,1998-04-18 15:00:00,9,1009.2,0.3,81,6,15000,14.816,,,290,,,,1,,,,,,25,wg-a,,,,AAXX 18154 07335 12465 82908 10090 20060 39947 40092 53003 60017 72586 8737/ 91500=
07335,1998-04-18 18:00:00,7,1009.9,0.6,93,6,0,11.112,,,300,4.1,11.2,,1,,,,,,,wg-a,,,,AAXX 18184 07335 12/// /3006 10070 20060 39953 40099 53006 60017 91800 333 10112 20041=
07335,1998-04-19 00:00:00,4,1011.7,0.3,100,4,0,11.112,,,220,,,,,,,,,,,wg-a,,,,AAXX 19004 07335 12/// /2206 10040 20040 39969 40117 51003 60006 90000=
07335,1998-04-19 09:00:00,10,1011.2,0.2,87,8,20000,18.52,,,210,,,,,,,,,,,wg-a,,,,AAXX 19094 07335 12470 72110 10100 20080 39968 40112 51002 60006 8385/ 90900=
07335,1998-04-19 12:00:00,11,1011,-0.2,82,8,20000,18.52,,,210,,,,,,,,,,21,wg-a,,,,AAXX 19124 07335 02570 82110 10110 20080 39966 40110 58002 61000 72162 878// 91200 333 6100=
07335,1998-04-19 15:00:00,11,1010.8,-0.2,94,10,20000,11.112,,,200,,,,0,,,,,,21,wg-a,,,,AAXX 19154 07335 12470 82006 10110 20100 39964 40108 58002 60007 72162 878// 91500=
07335,1998-04-20 06:00:00,9,1012.1,0.9,93,8,4000,14.816,,,210,8.9,12.3,,,,,,,,61,wg-a,,,,AAXX 20064 07335 02440 82108 10090 20080 39976 40121 53009 61000 76162 885// 90600 333 10123 20089 6001=
07335,1998-04-20 09:00:00,12,1013.7,1.7,94,11,20000,14.816,,,260,,,,3,,,,,,3,wg-a,,,,AAXX 20094 07335 12470 72608 10120 20110 39993 40137 53017 60037 70362 86102 90900=
07335,1998-04-20 12:00:00,14,1014.5,0.9,67,8,20000,22.224,,,260,,,,,,,,,,1,wg-a,,,,AAXX 20124 07335 12570 72612 10140 20080 30002 40145 51009 60036 70162 878// 91200=
07335,1998-04-20 15:00:00,13,1014.9,0.4,77,9,15000,11.112,,,340,,,,,,,,,,1,wg-a,,,,AAXX 20154 07335 02665 73406 10130 20090 30006 40149 50004 61000 70186 84832 91500 333 ////=
07335,1998-04-20 18:00:00,13,1016.1,1.1,62,6,0,22.224,,,270,8.8,15.4,,,,,,,,,wg-a,,,,AAXX 20184 07335 32/// /2712 10130 20060 30017 40161 52011 91800 333 10154 20088=
07335,1998-04-21 00:00:00,7,1018.3,0.2,93,6,0,7.408,,,210,,,,,,,,,,,wg-a,,,,AAXX 21004 07335 12/// /2104 10070 20060 30036 40183 50002 60006 90000=
07335,1998-04-21 09:00:00,12,1017.3,-0.4,94,11,20000,11.112,,,140,,,,,,,,,,1,wg-a,,,,AAXX 21094 07335 12470 /1406 10120 20110 30029 40173 58004 60006 70142 82139 90900=
07335,1998-04-21 12:00:00,19,1015.1,-1.9,60,11,500,11.112,,,160,,,,,,,,,,3,wg-a,,,,AAXX 21124 07335 12600 61606 10190 20110 30010 40151 58019 60006 70341 84831 91200=
07335,1998-04-21 15:00:00,20,1013.1,-1.9,60,12,500,11.112,,,150,,,,,,,,,,,wg-a,,,,AAXX 21154 07335 12600 61506 10200 20120 39991 40131 58019 60006 85801 91500=
07335,1998-04-21 18:00:00,20,1012.4,-0.7,56,11,0,7.408,,,210,6.8,20.9,,,,,,,,,wg-a,,,,AAXX 21184 07335 12/// /2104 10200 20110 39984 40124 56007 60006 91800 333 10209 20068=
07335,1998-04-22 00:00:00,12,1011.9,-1,88,10,0,7.408,,,160,,,,,,,,,,,wg-a,,,,AAXX 22004 07335 12/// /1604 10120 20100 39975 40119 56010 60006 90000=
07335,1998-04-22 09:00:00,18,1009.6,-1,59,10,25000,14.816,,,170,,,,,,,,,,,wg-a,,,,AAXX 22094 07335 12/75 21708 10180 20100 39956 40096 56010 60006 82031 90900=
07335,1998-04-22 12:00:00,21,1008.7,-0.7,53,11,25000,14.816,,,160,,,,,,,,,,,wg-a,,,,AAXX 22124 07335 12/75 41608 10210 20110 39949 40087 58007 60006 84081 91200=
07335,1998-04-22 15:00:00,22,1008.7,0,50,11,25000,18.52,,,250,,,,,,,,,,,wg-a,,,,AAXX 22154 07335 12875 52510 10220 20110 39949 40087 50000 60006 81581 91500=
07335,1998-04-22 18:00:00,18,1009.7,0.8,64,11,0,22.224,,,260,10.9,22.9,,,,,,,,,wg-a,,,,AAXX 22184 07335 12/// /2612 10180 20110 39957 40097 53008 60006 91800 333 10229 20109=
07335,1998-04-23 00:00:00,12,1014.7,1.9,94,11,0,14.816,,,230,,,,,,,,,,,wg-a,,,,AAXX 23004 07335 12/// /2308 10120 20110 30003 40147 53019 60006 90000=
07335,1998-04-23 06:00:00,11,1016.9,1.4,87,9,15000,14.816,,,250,10.7,18.4,,,,,,,,,wg-a,,,,AAXX 23064 07335 02465 72508 10110 20090 30024 40169 53014 60006 875// 90600 333 10184 20107 60004=
07335,1998-04-23 09:00:00,14,1017.4,0.7,77,10,20000,22.224,,,240,,,,,,,,,,,wg-a,,,,AAXX 23094 07335 12570 52412 10140 20100 30031 40174 53007 60006 84832 90900=
07335,1998-04-23 12:00:00,16,1016.8,-0.5,59,8,20000,29.632,,,240,,,,,,,,,,,wg-a,,,,AAXX 23124 07335 12570 72416 10160 20080 30026 40168 58005 60006 84832 91200=
07335,1998-04-23 15:00:00,14,1016.9,-0,72,9,15000,35.188,,,240,,,,,,,,,,21,wg-a,,,,AAXX 23154 07335 02565 72419 10140 20090 30026 40169 55000 61000 72162 8587/ 91500 333 ////=
07335,1998-04-23 18:00:00,13,1018.1,1.1,88,11,0,25.928,,,240,10.9,17.1,,0,,,,,,,wg-a,,,,AAXX 23184 07335 12/// /2414 10130 20110 30037 40181 52011 60007 91800 333 10171 20109=
07335,1998-04-24 00:00:00,10,1020.9,1.1,100,10,0,11.112,,,250,,,,,,,,,,,wg-a,,,,AAXX 24004 07335 02/// /2506 10100 20100 30063 40209 53011 61000 90000 333 ////=
07335,1998-04-24 06:00:00,11,1022.4,0.9,94,10,12000,7.408,,,220,8,12.4,,,,,,,,,wg-a,,,,AAXX 24064 07335 02562 72204 10110 20100 30078 40224 53009 60006 8783/ 90600 333 10124 20080 60004=
07335,1998-04-24 09:00:00,13,1023.4,1.1,88,11,15000,14.816,,,240,,,,,,,,,,,wg-a,,,,AAXX 24094 07335 12465 82408 10130 20110 30089 40234 51011 60006 875// 90900=
07335,1998-04-24 12:00:00,15,1023.1,-0.1,82,12,20000,25.928,,,250,,,,,,,,,,,wg-a,,,,AAXX 24124 07335 12470 72514 10150 20120 30088 40231 58001 60006 875// 91200=
07335,1998-04-27 09:00:00,11,1005.7,0.4,76,7,500,18.52,,,280,,,,,,,,,,,wg-a,,,,AAXX 27094 07335 12400 62810 10110 20070 39914 40057 53004 60006 82232 90900=
07335,1998-04-27 12:00:00,12,1005.9,0.2,71,7,500,25.928,,,260,,,,,,,,,,3,wg-a,,,,AAXX 27124 07335 02500 72614 10120 20070 39916 40059 52002 61000 70386 85202 91200 333 6100=
07335,1998-04-27 15:00:00,12,1006.4,0.5,71,7,500,22.224,,,260,,,,,,,,,,,wg-a,,,,AAXX 27154 07335 12600 72612 10120 20070 39921 40064 51005 60006 83202 91500=
07335,1998-04-27 18:00:00,10,1007.5,1,82,7,0,22.224,,,260,5.8,13.9,,,,,,,,,wg-a,,,,AAXX 27184 07335 32/// /2612 10100 20070 39931 40075 53010 91800 333 10139 20058=
07335,1998-04-28 00:00:00,5,1009.4,0.2,100,5,0,14.816,,,240,,,,,,,,,,,wg-a,,,,AAXX 28004 07335 12/// /2408 10050 20050 39947 40094 51002 60006 90000=
07335,1998-04-28 06:00:00,5,1009.2,0.2,100,5,25000,11.112,,,210,3.3,10.1,,,,,,,,,wg-a,,,,AAXX 28064 07335 02375 22106 10050 20050 39945 40092 53002 60006 82802 90600 333 10101 20033 60004=
07335,1998-04-28 09:00:00,11,1009.1,0.2,82,8,25000,22.224,,,230,,,,,,,,,,,wg-a,,,,AAXX 28094 07335 12475 /2312 10110 20080 39947 40091 51002 60006 85832 90900=
07335,1998-04-28 12:00:00,14,1007.8,-1.1,67,8,25000,14.816,,,240,,,,,,,,,,,wg-a,,,,AAXX 28124 07335 12375 /2408 10140 20080 39936 40078 58011 60006 85802 91200=
07335,1998-04-28 15:00:00,15,1006.3,-1.4,59,7,25000,22.224,,,240,,,,1,,,,,,1,wg-a,,,,AAXX 28154 07335 12675 /2412 10150 20070 39922 40063 58014 60017 70186 86402 91500=
07335,1998-04-29 00:00:00,10,1002.5,-2,93,9,0,14.816,,,160,,,,,,,,,,,wg-a,,,,AAXX 29004 07335 12/// /1608 10100 20090 39882 40025 58020 60016 90000=
07335,1998-04-29 06:00:00,9,999,-1,100,9,6000,22.224,,,190,9.2,13.4,,2,,,6,,,63,wg-a,,,,AAXX 29064 07335 02256 81912 10090 20090 39847 49990 55010 60064 76362 8757/ 90600 333 10134 20092 60027=
07335,1998-04-29 09:00:00,11,998.5,-0.4,94,10,25000,18.52,,,150,,,,5,,,,,,21,wg-a,,,,AAXX 29094 07335 12275 71510 10110 20100 39843 49985 58004 60057 72162 8583/ 90900=
07335,1998-04-29 12:00:00,13,999.7,1.3,77,9,25000,18.52,,,240,,,,,,,,,,2,wg-a,,,,AAXX 29124 07335 12475 72410 10130 20090 39856 49997 53013 60056 70262 878// 91200=
07335,1998-04-29 18:00:00,14,1000.5,0.5,72,9,0,7.408,,,210,9.1,15,,,,,,,,,wg-a,,,,AAXX 29184 07335 32/// /2104 10140 20090 39864 40005 53005 91800 333 10150 20091=
07335,1998-04-30 00:00:00,10,1002.2,0.6,93,9,0,3.704,,,270,,,,,,,,,,,wg-a,,,,AAXX 30004 07335 12/// /2702 10100 20090 39879 40022 51006 60006 90000=
07335,1998-04-30 06:00:00,10,1002.3,0.1,100,10,12000,7.408,,,310,9.5,13.5,,,,,,,,61,wg-a,,,,AAXX 30064 07335 02662 83104 10100 20100 39880 40023 53001 61000 76162 8357/ 90600 333 10135 20095 6007=
07335,1998-04-30 09:00:00,11,1003.6,1.3,94,10,20000,11.112,,,310,,,,1,,,,,,60,wg-a,,,,AAXX 30094 07335 12370 83106 10110 20100 39893 40036 51013 60017 76066 8587/ 90900=
07335,1998-04-30 15:00:00,15,1005,0.7,63,8,500,7.408,,,60,,,,,,,,,,,wg-a,,,,AAXX 30154 07335 12500 70604 10150 20080 39909 40050 51007 60006 86802 91500=
07335,1998-04-30 18:00:00,14,1006.9,1.8,82,11,0,7.408,,,70,9.6,15.6,,,,,,,,,wg-a,,,,AAXX 30184 07335 32/// /0704 10140 20110 39927 40069 52018 91800 333 10156 20096=
07335,1998-05-01 06:00:00,9,1012.6,1.4,93,8,4000,18.52,,,30,9.4,14.2,,,,,3,,,10,wg-a,,,,AAXX 01064 07335 02440 80310 10090 20080 39981 40126 53014 60006 71062 875// 90600 333 10142 20094 60034=
07335,1998-05-01 09:00:00,10,1013.3,0.7,87,8,6000,18.52,,,50,,,,,,,,,,,wg-a,,,,AAXX 01094 07335 12456 80510 10100 20080 39988 40133 50007 60006 875// 90900=
07335,1998-05-01 12:00:00,11,1013.4,0.2,87,9,7000,14.816,,,30,,,,,,,,,,,wg-a,,,,AAXX 01124 07335 12457 80308 10110 20090 39990 40134 50002 60006 875// 91200=
07335,1998-05-01 18:00:00,12,1012.2,-0.3,82,9,0,14.816,,,10,9.4,13.5,,,,,,,,,wg-a,,,,AAXX 01184 07335 12/// /0108 10120 20090 39979 40122 55003 60006 91800 333 10135 20094=
07335,1998-05-02 00:00:00,9,1013.5,0.3,93,8,0,14.816,,,350,,,,,,,,,,,wg-a,,,,AAXX 02004 07335 12/// /3508 10090 20080 39990 40135 50003 60006 90000=
07335,1998-05-02 06:00:00,8,1013.9,0.7,100,8,3000,7.408,,,10,7.9,12.4,,,,,,,,10,wg-a,,,,AAXX 02064 07335 02230 70104 10080 20080 39993 40139 53007 60006 71022 875// 90600 333 10124 20079 60004=
07335,1998-05-02 09:00:00,11,1014.6,0.9,82,8,12000,14.816,,,20,,,,,,,,,,,wg-a,,,,AAXX 02094 07335 12462 70208 10110 20080 30002 40146 52009 60006 878// 90900=
07335,1998-05-02 12:00:00,14,1014.3,-0.2,67,8,20000,11.112,,,20,,,,,,,,,,,wg-a,,,,AAXX 02124 07335 12570 70206 10140 20080 30000 40143 58002 60006 878// 91200=
07335,1998-05-02 15:00:00,13,1013.8,-0.5,77,9,20000,14.816,,,360,,,,,,,,,,,wg-a,,,,AAXX 02154 07335 12570 83608 10130 20090 39995 40138 58005 60006 878// 91500=
07335,1998-05-02 18:00:00,12,1014.1,0.2,82,9,0,14.816,,,30,8.1,14.8,,,,,,,,,wg-a,,,,AAXX 02184 07335 12/// /0308 10120 20090 39997 40141 53002 60006 91800 333 10148 20081=
07335,1998-05-03 06:00:00,8,1012.6,-0.3,100,8,2000,25.928,,,30,8,12,,,,,,,,51,wg-a,,,,AAXX 03064 07335 02220 80314 10080 20080 39980 40126 55003 61000 75152 887// 90600 333 10120 20080 6001=
07335,1998-05-03 09:00:00,7,1013.5,0.9,100,7,4000,22.224,,,30,,,,0,,,,,,51,wg-a,,,,AAXX 03094 07335 12340 80312 10070 20070 39989 40135 51009 60007 75165 887// 90900=
07335,1998-05-03 12:00:00,8,1013.5,0,93,7,500,25.928,,,40,,,,1,,,,,,50,wg-a,,,,AAXX 03124 07335 02400 80414 10080 20070 39989 40135 50000 60016 75065 887// 91200 333 60017=
07335,1998-05-03 15:00:00,10,1013.2,-0.2,82,7,10000,22.224,,,40,,,,,,,,,,1,wg-a,,,,AAXX 03154 07335 02460 80412 10100 20070 39987 40132 58002 61000 70152 885// 91500 333 ////=
07335,1998-05-03 18:00:00,10,1013,-0.2,87,8,0,11.112,,,20,7.2,10.1,,,,,,,,,wg-a,,,,AAXX 03184 07335 32/// /0206 10100 20080 39985 40130 58002 91800 333 10101 20072=
07335,1998-05-04 00:00:00,9,1014.8,0.4,81,6,0,25.928,,,30,,,,,,,,,,,wg-a,,,,AAXX 04004 07335 12/// /0314 10090 20060 30003 40148 53004 60006 90000=
07335,1998-05-04 06:00:00,8,1015.2,0.8,81,5,12000,18.52,,,10,7.8,10.6,,,,,1,,,,wg-a,,,,AAXX 04064 07335 02562 80110 10080 20050 30006 40152 53008 60006 875// 90600 333 10106 20078 60014=
07335,1998-05-04 09:00:00,9,1015.9,0.7,76,5,15000,25.928,,,20,,,,,,,,,,,wg-a,,,,AAXX 04094 07335 12465 80214 10090 20050 30013 40159 52007 60006 875// 90900=
07335,1998-05-04 12:00:00,10,1016,0.2,76,6,15000,25.928,,,20,,,,,,,,,,,wg-a,,,,AAXX 04124 07335 12565 80214 10100 20060 30015 40160 51002 60006 875// 91200=
07335,1998-05-04 15:00:00,14,1015.2,-0.6,58,6,20000,18.52,,,20,,,,,,,,,,,wg-a,,,,AAXX 04154 07335 12670 40210 10140 20060 30009 40152 58006 60006 81102 91500=
07335,1998-05-04 18:00:00,14,1015,-0.2,58,6,0,14.816,,,10,7.7,14.5,,,,,,,,,wg-a,,,,AAXX 04184 07335 12/// /0108 10140 20060 30007 40150 55002 60006 91800 333 10145 20077=
07335,1998-05-05 00:00:00,4,1017.8,0.7,93,3,0,11.112,,,320,,,,,,,,,,,wg-a,,,,AAXX 05004 07335 12/// /3206 10040 20030 30029 40178 51007 60006 90000=
07335,1998-05-05 06:00:00,4,1017.4,0.2,100,4,10000,7.408,,,340,2.5,14,,,,,,,,,wg-a,,,,AAXX 05064 07335 02/60 13404 10040 20040 30026 40174 53002 60006 80001 90600 333 10140 20025 60004=
07335,1998-05-05 09:00:00,11,1017.5,0.4,76,7,20000,7.408,,,340,,,,,,,,,,,wg-a,,,,AAXX 05094 07335 12/70 13404 10110 20070 30030 40175 50004 60006 80001 90900=
07335,1998-05-05 12:00:00,15,1016.9,-0.4,67,9,25000,11.112,,,340,,,,,,,,,,,wg-a,,,,AAXX 05124 07335 12575 73406 10150 20090 30026 40169 58004 60006 878// 91200=
07335,1998-05-05 18:00:00,15,1015.6,-0.4,67,9,0,11.112,,,280,4.4,16.3,,,,,,,,,wg-a,,,,AAXX 05184 07335 12/// /2806 10150 20090 30013 40156 56004 60006 91800 333 10163 20044=
07335,1998-05-06 06:00:00,9,1016.5,0.8,93,8,15000,11.112,,,230,8,14.6,,,,,,,,,wg-a,,,,AAXX 06064 07335 02565 72306 10090 20080 30019 40165 51008 60006 875// 90600 333 10146 20080 60004=
07335,1998-05-06 09:00:00,11,1016.9,0.5,87,9,15000,14.816,,,240,,,,,,,,,,,wg-a,,,,AAXX 06094 07335 12465 82408 10110 20090 30024 40169 51005 60006 875// 90900=
07335,1998-05-06 12:00:00,13,1017,0.2,77,9,15000,25.928,,,250,,,,,,,,,,,wg-a,,,,AAXX 06124 07335 12565 72514 10130 20090 30026 40170 50002 60006 878// 91200=
07335,1998-05-06 15:00:00,14,1016.9,0,72,9,20000,29.632,,,260,,,,,,,,,,,wg-a,,,,AAXX 06154 07335 12570 72616 10140 20090 30026 40169 50000 60006 878// 91500=
07335,1998-05-06 18:00:00,13,1017.5,0.5,77,9,0,18.52,,,260,9.1,14.7,,,,,,,,,wg-a,,,,AAXX 06184 07335 12/// /2610 10130 20090 30031 40175 53005 60006 91800 333 10147 20091=
07335,1998-05-07 00:00:00,7,1019,0.1,100,7,0,11.112,,,240,,,,,,,,,,,wg-a,,,,AAXX 07004 07335 12/// /2406 10070 20070 30043 40190 53001 60006 90000=
07335,1998-05-07 06:00:00,7,1019.6,1,100,7,200,7.408,,,190,4.6,12.7,,,,,,,,45,wg-a,,,,AAXX 07064 07335 02/02 91904 10070 20070 30049 40196 53010 60006 74542 89/// 90600 333 10127 20046 60004=
07335,1998-05-07 09:00:00,12,1019.7,0.3,88,10,12000,14.816,,,180,,,,,,,,,,1,wg-a,,,,AAXX 07094 07335 12462 /1808 10120 20100 30052 40197 50003 60006 70142 86200 90900=
07335,1998-05-07 12:00:00,18,1018.4,-0.9,56,9,20000,11.112,,,210,,,,,,,,,,1,wg-a,,,,AAXX 07124 07335 12570 /2106 10180 20090 30043 40184 58009 60006 70141 81100 91200=
07335,1998-05-07 15:00:00,21,1017.3,-1,38,6,20000,11.112,,,170,,,,,,,,,,,wg-a,,,,AAXX 07154 07335 12/70 01706 10210 20060 30033 40173 57010 60006 80000 91500=
07335,1998-05-07 18:00:00,21,1017.1,-0.2,46,9,0,7.408,,,150,7.4,21.9,,,,,,,,,wg-a,,,,AAXX 07184 07335 12/// /1504 10210 20090 30031 40171 55002 60006 91800 333 10219 20074=
07335,1998-05-08 00:00:00,14,1018.3,0.1,77,10,0,11.112,,,130,,,,,,,,,,,wg-a,,,,AAXX 08004 07335 12/// /1306 10140 20100 30040 40183 51001 60006 90000=
07335,1998-05-08 06:00:00,11,1018.6,0.2,82,8,20000,11.112,,,160,9.7,21,,,,,,,,,wg-a,,,,AAXX 08064 07335 02/70 61606 10110 20080 30041 40186 53002 60006 81032 90600 333 10210 20097 60004=
07335,1998-05-08 12:00:00,24,1017.9,-0.8,47,12,20000,18.52,,,160,,,,,,,,,,,wg-a,,,,AAXX 08124 07335 12/70 51610 10240 20120 30040 40179 58008 60006 80002 91200=
07335,1998-05-08 15:00:00,24,1017.3,-0.5,47,12,20000,18.52,,,180,,,,,,,,,,,wg-a,,,,AAXX 08154 07335 12/70 61810 10240 20120 30035 40173 57005 60006 80002 91500=
07335,1998-05-08 18:00:00,23,1017.6,0.2,50,12,0,14.816,,,170,10.8,25.3,,,,,,,,,wg-a,,,,AAXX 08184 07335 12/// /1708 10230 20120 30037 40176 50002 60006 91800 333 10253 20108=
07335,1998-05-09 00:00:00,16,1019.6,0.3,59,8,0,14.816,,,180,,,,,,,,,,,wg-a,,,,AAXX 09004 07335 12/// /1808 10160 20080 30053 40196 51003 60006 90000=
07335,1998-05-09 06:00:00,14,1021.2,0.9,67,8,20000,7.408,,,180,13.7,22.8,,,,,,,,,wg-a,,,,AAXX 09064 07335 02/70 71804 10140 20080 30068 40212 53009 60006 86082 90600 333 10228 20137 60004=
07335,1998-05-09 09:00:00,20,1021.1,0.2,53,10,20000,18.52,,,190,,,,,,,,,,,wg-a,,,,AAXX 09094 07335 12/70 21910 10200 20100 30070 40211 51002 60006 82082 90900=
07335,1998-05-09 12:00:00,24,1020.3,-0.6,47,12,20000,14.816,,,190,,,,,,,,,,,wg-a,,,,AAXX 09124 07335 12/70 11908 10240 20120 30064 40203 58006 60006 81040 91200=
07335,1998-05-09 15:00:00,26,1018.9,-1.3,42,12,20000,7.408,,,210,,,,,,,,,,,wg-a,,,,AAXX 09154 07335 12/70 22104 10260 20120 30051 40189 58013 60006 80002 91500=
07335,1998-05-10 06:00:00,14,1017.2,-0,88,12,25000,7.408,,,170,10,24.2,,,,,,,,,wg-a,,,,AAXX 10064 07335 02/75 51704 10140 20120 30029 40172 55000 60006 80002 90600 333 10242 20100 60004=
07335,1998-05-10 09:00:00,21,1016.3,-0.6,49,10,25000,14.816,,,180,,,,,,,,,,,wg-a,,,,AAXX 10094 07335 12/75 21808 10210 20100 30023 40163 56006 60006 80001 90900=
07335,1998-05-10 12:00:00,25,1014.4,-1.6,41,11,25000,11.112,,,140,,,,,,,,,,,wg-a,,,,AAXX 10124 07335 12/75 61406 10250 20110 30007 40144 58016 60006 80002 91200=
07335,1998-05-10 15:00:00,27,1012.6,-1.7,39,12,25000,7.408,,,100,,,,,,,,,,,wg-a,,,,AAXX 10154 07335 12/75 61004 10270 20120 39990 40126 58017 60006 80002 91500=
07335,1998-05-10 18:00:00,26,1011.9,-0.8,48,14,0,7.408,,,100,13.6,27.3,,,,,,,,,wg-a,,,,AAXX 10184 07335 12/// /1004 10260 20140 39982 40119 56008 60006 91800 333 10273 20136=
07335,1998-05-11 00:00:00,18,1011.4,-0.7,73,13,0,11.112,,,180,,,,,,,,,,,wg-a,,,,AAXX 11004 07335 12/// /1806 10180 20130 39974 40114 58007 60006 90000=
07335,1998-05-11 06:00:00,16,1012.5,0.5,68,10,25000,3.704,,,150,13.7,26,,,,,,,,,wg-a,,,,AAXX 11064 07335 02/75 31502 10160 20100 39983 40125 52005 60006 82031 90600 333 10260 20137 60004=
07335,1998-05-11 09:00:00,20,1012.8,0.5,46,8,500,14.816,,,180,,,,,,,,,,,wg-a,,,,AAXX 11094 07335 12/00 71808 10200 20080 39988 40128 53005 60006 85082 90900=
07335,1998-05-11 12:00:00,26,1012.1,-0.4,48,14,500,7.408,,,250,,,,,,,,,,,wg-a,,,,AAXX 11124 07335 12/00 32504 10260 20140 39984 40121 58004 60006 83082 91200=
07335,1998-05-11 15:00:00,27,1011.8,-0.2,39,12,500,11.112,,,180,,,,,,,,,,,wg-a,,,,AAXX 11154 07335 12/00 61806 10270 20120 39982 40118 58002 60006 85082 91500=
07335,1998-05-11 18:00:00,24,1011.9,-0,54,14,0,3.704,,,220,15.6,27.5,,,,,,,,,wg-a,,,,AAXX 11184 07335 12/// /2202 10240 20140 39982 40119 55000 60006 91800 333 10275 20156=
07335,1998-05-12 06:00:00,13,1016.2,0.5,94,12,500,3.704,,,160,11.3,24.4,,,,,,,,,wg-a,,,,AAXX 12064 07335 02700 61602 10130 20120 30018 40162 53005 60006 82582 90600 333 10244 20113 60004=
07335,1998-05-12 09:00:00,21,1016.5,0.7,56,12,500,0,,,0,,,,,,,,,,,wg-a,,,,AAXX 12094 07335 12/00 60000 10210 20120 30025 40165 53007 60006 81082 90900=
07335,1998-05-12 12:00:00,23,1016,-0.4,53,13,500,7.408,,,350,,,,,,,,,,,wg-a,,,,AAXX 12124 07335 12/00 73504 10230 20130 30021 40160 56004 60006 81086 91200=
07335,1998-05-12 15:00:00,25,1015.6,-0.3,39,10,500,11.112,,,120,,,,,,,,,,,wg-a,,,,AAXX 12154 07335 12/00 41206 10250 20100 30018 40156 57003 60006 81082 91500=
07335,1998-05-12 18:00:00,24,1015.6,-0,44,11,0,11.112,,,120,13,25.6,,,,,,,,,wg-a,,,,AAXX 12184 07335 12/// /1206 10240 20110 30018 40156 55000 60006 91800 333 10256 20130=
07335,1998-05-13 00:00:00,17,1017.8,0.5,77,13,0,7.408,,,150,,,,,,,,,,,wg-a,,,,AAXX 13004 07335 12/// /1504 10170 20130 30036 40178 53005 60006 90000=
07335,1998-05-13 06:00:00,16,1018,0.3,88,14,10000,3.704,,,140,13.5,23.8,,,,,,,,3,wg-a,,,,AAXX 13064 07335 02760 71402 10160 20140 30038 40180 53003 60006 70386 81572 90600 333 10238 20135 60004=
07335,1998-05-13 09:00:00,19,1018.6,0.7,78,15,15000,7.408,,,170,,,,,,,,,,,wg-a,,,,AAXX 13094 07335 12/65 81704 10190 20150 30045 40186 51007 60006 8707/ 90900=
07335,1998-05-13 12:00:00,24,1018,-0.3,50,13,20000,14.816,,,140,,,,,,,,,,,wg-a,,,,AAXX 13124 07335 12/70 71408 10240 20130 30042 40180 57003 60006 85082 91200=
07335,1998-05-13 15:00:00,27,1016.6,-1.3,34,10,20000,11.112,,,80,,,,,,,,,,,wg-a,,,,AAXX 13154 07335 12/70 60806 10270 20100 30029 40166 56013 60006 83082 91500=
07335,1998-05-13 18:00:00,26,1016.3,-0.3,42,12,0,11.112,,,100,16.2,26.9,,,,,,,,,wg-a,,,,AAXX 13184 07335 12/// /1006 10260 20120 30026 40163 55003 60006 91800 333 10269 20162=
07335,1998-05-14 00:00:00,16,1017.4,-0.2,88,14,0,3.704,,,140,,,,,,,,,,,wg-a,,,,AAXX 14004 07335 12/// /1402 10160 20140 30032 40174 56002 60006 90000=
07335,1998-05-14 06:00:00,17,1017.3,0.5,88,15,25000,3.704,,,90,14.1,25.8,,,,,,,,,wg-a,,,,AAXX 14064 07335 02/75 70902 10170 20150 30032 40173 50005 60006 8707/ 90600 333 10258 20141 60004=
07335,1998-05-14 09:00:00,24,1016.9,-0.1,61,16,25000,7.408,,,10,,,,,,,,,,,wg-a,,,,AAXX 14094 07335 12/75 30104 10240 20160 30031 40169 58001 60006 82032 90900=
07335,1998-05-14 12:00:00,28,1016.1,-0.6,45,15,500,14.816,,,60,,,,,,,,,,,wg-a,,,,AAXX 14124 07335 12700 10608 10280 20150 30025 40161 58006 60006 81102 91200=
07335,1998-05-14 15:00:00,29,1014.9,-1.2,37,13,500,18.52,,,50,,,,,,,,,,,wg-a,,,,AAXX 14154 07335 12700 30510 10290 20130 30013 40149 58012 60006 81202 91500=
07335,1998-05-14 18:00:00,27,1014.5,-0.4,45,14,0,11.112,,,60,17.3,28.8,,,,,,,,,wg-a,,,,AAXX 14184 07335 12/// /0606 10270 20140 30009 40145 55004 60006 91800 333 10288 20173=
07335,1998-05-15 00:00:00,17,1015.9,0.2,82,14,0,11.112,,,10,,,,,,,,,,,wg-a,,,,AAXX 15004 07335 12/// /0106 10170 20140 30018 40159 50002 60006 90000=
07335,1998-05-15 06:00:00,15,1016.3,0.7,88,13,500,0,,,0,14.1,27.4,,,,,,,,,wg-a,,,,AAXX 15064 07335 02/00 20000 10150 20130 30021 40163 51007 60006 81082 90600 333 10274 20141 60004=
07335,1998-05-15 09:00:00,22,1016,0,69,16,500,3.704,,,30,,,,,,,,,,,wg-a,,,,AAXX 15094 07335 12/00 30302 10220 20160 30021 40160 50000 60006 82082 90900=
07335,1998-05-15 12:00:00,26,1015.3,-0.5,48,14,500,22.224,,,80,,,,,,,,,,,wg-a,,,,AAXX 15124 07335 12600 /0812 10260 20140 30016 40153 58005 60006 81182 91200=
07335,1998-05-15 15:00:00,27,1013.8,-1.5,34,10,500,29.632,,,30,,,,,,,,,,,wg-a,,,,AAXX 15154 07335 12700 10316 10270 20100 30001 40138 58015 60006 81182 91500=
07335,1998-05-16 06:00:00,12,1016.9,1,88,10,25000,7.408,,,340,8,24.4,,,,,,,,,wg-a,,,,AAXX 16064 07335 02/75 13404 10120 20100 30025 40169 53010 60006 80001 90600 333 10244 20080 60004=
07335,1998-05-16 09:00:00,20,1016.9,0.4,56,11,500,14.816,,,30,,,,,,,,,,,wg-a,,,,AAXX 16094 07335 12/00 10308 10200 20110 30029 40169 51004 60006 80001 90900=
07335,1998-05-16 15:00:00,26,1016.2,-0.3,32,8,500,25.928,,,30,,,,,,,,,,,wg-a,,,,AAXX 16154 07335 12800 10314 10260 20080 30024 40162 58003 60006 81101 91500=
07335,1998-05-16 18:00:00,24,1016.3,0.1,36,8,0,22.224,,,40,11.5,25.7,,,,,,,,,wg-a,,,,AAXX 16184 07335 12/// /0412 10240 20080 30025 40163 53001 60006 91800 333 10257 20115=
07335,1998-05-17 00:00:00,14,1018.4,0.2,72,9,0,3.704,,,20,,,,,,,,,,,wg-a,,,,AAXX 17004 07335 12/// /0202 10140 20090 30040 40184 52002 60006 90000=
07335,1998-05-17 06:00:00,12,1019.3,0.8,94,11,25000,7.408,,,350,7.9,23.8,,,,,,,,,wg-a,,,,AAXX 17064 07335 02/75 03504 10120 20110 30048 40193 53008 60006 80000 90600 333 10238 20079 60004=
07335,1998-05-17 09:00:00,20,1019.7,0.8,46,8,25000,18.52,,,50,,,,,,,,,,,wg-a,,,,AAXX 17094 07335 12/75 10510 10200 20080 30056 40197 51008 60006 80001 90900=
07335,1998-05-17 12:00:00,23,1019.4,-0.2,33,6,500,14.816,,,90,,,,,,,,,,,wg-a,,,,AAXX 17124 07335 12/00 00908 10230 20060 30054 40194 58002 60006 80000 91200=
07335,1998-05-17 15:00:00,24,1018.5,-0.8,36,8,500,14.816,,,70,,,,,,,,,,,wg-a,,,,AAXX 17154 07335 12/00 00708 10240 20080 30046 40185 56008 60006 80000 91500=
07335,1998-05-17 18:00:00,23,1018.9,0.4,36,7,0,14.816,,,60,11.6,24.3,,,,,,,,,wg-a,,,,AAXX 17184 07335 12/// /0608 10230 20070 30050 40189 53004 60006 91800 333 10243 20116=
07335,1998-05-18 00:00:00,16,1020.9,0.3,63,9,0,11.112,,,80,,,,,,,,,,,wg-a,,,,AAXX 18004 07335 12/// /0806 10160 20090 30066 40209 51003 60006 90000=
07335,1998-05-18 09:00:00,20,1023.1,0.6,43,7,500,14.816,,,80,,,,,,,,,,,wg-a,,,,AAXX 18094 07335 12/00 00808 10200 20070 30090 40231 51006 60006 80000 90900=
07335,1998-05-18 12:00:00,22,1022.6,-0.4,33,5,500,25.928,,,80,,,,,,,,,,,wg-a,,,,AAXX 18124 07335 12/00 10814 10220 20050 30086 40226 58004 60006 80001 91200=
07335,1998-05-18 15:00:00,24,1021.5,-1,31,6,500,22.224,,,90,,,,,,,,,,,wg-a,,,,AAXX 18154 07335 12/00 10912 10240 20060 30076 40215 56010 60006 80001 91500=
07335,1998-05-18 18:00:00,23,1021.4,-0.2,36,7,0,22.224,,,80,12.8,23.9,,,,,,,,,wg-a,,,,AAXX 18184 07335 12/// /0812 10230 20070 30074 40214 55002 60006 91800 333 10239 20128=
07335,1998-05-19 06:00:00,13,1023.7,0.7,72,8,20000,7.408,,,50,8.5,22.5,,,,,,,,,wg-a,,,,AAXX 19064 07335 02/70 00504 10130 20080 30092 40237 53007 60006 80000 90600 333 10225 20085 60004=
07335,1998-05-19 09:00:00,20,1023.1,-0.2,46,8,20000,18.52,,,80,,,,,,,,,,,wg-a,,,,AAXX 19094 07335 12/70 00810 10200 20080 30090 40231 58002 60006 80000 90900=
07335,1998-05-19 12:00:00,23,1021.8,-1.1,38,8,25000,22.224,,,100,,,,,,,,,,,wg-a,,,,AAXX 19124 07335 12/75 01012 10230 20080 30079 40218 58011 60006 80000 91200=
07335,1998-05-19 15:00:00,25,1020.6,-1.2,26,4,25000,25.928,,,80,,,,,,,,,,,wg-a,,,,AAXX 19154 07335 12/75 00814 10250 20040 30067 40206 56012 60006 80000 91500=
07335,1998-05-19 18:00:00,24,1019.7,-0.9,29,5,0,22.224,,,70,13.4,25,,,,,,,,,wg-a,,,,AAXX 19184 07335 12/// /0712 10240 20050 30058 40197 56009 60006 91800 333 10250 20134=
07335,1998-05-20 00:00:00,15,1020.3,-0.6,63,8,0,11.112,,,40,,,,,,,,,,,wg-a,,,,AAXX 20004 07335 12/// /0406 10150 20080 30060 40203 58006 60006 90000=
07335,1998-05-20 09:00:00,21,1019.8,-0.2,53,11,25000,14.816,,,60,,,,,,,,,,,wg-a,,,,AAXX 20094 07335 12/75 00608 10210 20110 30058 40198 57002 60006 80000 90900=
07335,1998-05-20 15:00:00,26,1017.9,-0.9,32,8,500,29.632,,,60,,,,,,,,,,,wg-a,,,,AAXX 20154 07335 12800 20616 10260 20080 30041 40179 58009 60006 82200 91500=
07335,1998-05-20 18:00:00,24,1017.7,-0.3,41,10,0,25.928,,,40,13.2,25.9,,,,,,,,,wg-a,,,,AAXX 20184 07335 12/// /0414 10240 20100 30038 40177 55003 60006 91800 333 10259 20132=
07335,1998-05-21 00:00:00,16,1019.4,0.1,68,10,0,11.112,,,40,,,,,,,,,,,wg-a,,,,AAXX 21004 07335 12/// /0406 10160 20100 30051 40194 50001 60006 90000=
07335,1998-05-21 06:00:00,12,1020.6,0.9,94,11,10000,7.408,,,350,9.1,23.6,,,,,,,,,wg-a,,,,AAXX 21064 07335 02/60 03504 10120 20110 30061 40206 52009 60006 80000 90600 333 10236 20091 60004=
07335,1998-05-21 09:00:00,19,1020.6,0.4,68,13,10000,14.816,,,30,,,,,,,,,,,wg-a,,,,AAXX 21094 07335 12/60 00308 10190 20130 30065 40206 52004 60006 80000 90900=
07335,1998-05-21 12:00:00,23,1019.9,-0.5,44,10,18000,14.816,,,50,,,,,,,,,,,wg-a,,,,AAXX 21124 07335 12668 /0508 10230 20100 30060 40199 58005 60006 81100 91200=
07335,1998-05-21 15:00:00,24,1018.9,-1,41,10,20000,18.52,,,20,,,,,,,,,,,wg-a,,,,AAXX 21154 07335 12770 20210 10240 20100 30050 40189 58010 60006 82200 91500=
07335,1998-05-21 18:00:00,20,1019.4,0.3,64,13,0,11.112,,,350,12,24.9,,,,,,,,,wg-a,,,,AAXX 21184 07335 32/// /3506 10200 20130 30053 40194 53003 91800 333 10249 20120=
07335,1998-05-22 00:00:00,15,1021.2,0.6,82,12,0,11.112,,,30,,,,,,,,,,,wg-a,,,,AAXX 22004 07335 12/// /0306 10150 20120 30069 40212 51006 60006 90000=
07335,1998-05-22 06:00:00,13,1022.7,0.8,82,10,4500,18.52,,,50,12.5,19.7,,,,,,,,10,wg-a,,,,AAXX 22064 07335 02645 50510 10130 20100 30082 40227 53008 60006 71022 83502 90600 333 10197 20125 60004=
07335,1998-05-22 09:00:00,15,1023.1,0.5,63,8,15000,22.224,,,50,,,,,,,,,,,wg-a,,,,AAXX 22094 07335 12565 /0512 10150 20080 30087 40231 51005 60006 81102 90900=
07335,1998-05-22 12:00:00,17,1023,0,52,7,25000,25.928,,,30,,,,,,,,,,,wg-a,,,,AAXX 22124 07335 12675 /0314 10170 20070 30087 40230 50000 60006 81102 91200=
07335,1998-05-22 15:00:00,19,1021.9,-1,40,5,25000,18.52,,,60,,,,,,,,,,,wg-a,,,,AAXX 22154 07335 12675 /0610 10190 20050 30077 40219 58010 60006 81102 91500=
07335,1998-05-22 18:00:00,18,1021.4,-0.5,45,6,0,22.224,,,50,12.5,19,,,,,,,,,wg-a,,,,AAXX 22184 07335 12/// /0512 10180 20060 30072 40214 56005 60006 91800 333 10190 20125=
07335,1998-05-23 00:00:00,11,1022.9,0.2,71,6,0,11.112,,,50,,,,,,,,,,,wg-a,,,,AAXX 23004 07335 12/// /0506 10110 20060 30083 40229 50002 60006 90000=
07335,1998-05-23 06:00:00,9,1022.3,-0.1,81,6,15000,18.52,,,40,6.6,17.9,,,,,,,,,wg-a,,,,AAXX 23064 07335 02/65 00410 10090 20060 30076 40223 56001 60006 80000 90600 333 10179 20066 60004=
07335,1998-05-23 09:00:00,13,1021.8,-0.2,58,5,15000,22.224,,,50,,,,,,,,,,,wg-a,,,,AAXX 23094 07335 12565 /0512 10130 20050 30074 40218 58002 60006 81100 90900=
07335,1998-05-23 12:00:00,17,1020.5,-1.1,45,5,20000,22.224,,,40,,,,,,,,,,,wg-a,,,,AAXX 23124 07335 12/70 00412 10170 20050 30063 40205 58011 60006 80000 91200=
07335,1998-05-23 15:00:00,19,1019.1,-1.4,34,3,20000,22.224,,,60,,,,,,,,,,,wg-a,,,,AAXX 23154 07335 12/70 00612 10190 20030 30049 40191 57014 60006 80000 91500=
07335,1998-05-23 18:00:00,18,1018.2,-0.9,37,3,0,25.928,,,50,8.9,18.9,,,,,,,,,wg-a,,,,AAXX 23184 07335 12/// /0514 10180 20030 30040 40182 56009 60006 91800 333 10189 20089=
07335,1998-05-24 00:00:00,7,1018.5,-0.6,87,5,0,3.704,,,350,,,,,,,,,,,wg-a,,,,AAXX 24004 07335 12/// /3502 10070 20050 30038 40185 58006 60006 90000=
07335,1998-05-24 06:00:00,9,1017.2,-0.2,93,8,8000,11.112,,,340,6.2,18.2,,,,,,,,,wg-a,,,,AAXX 24064 07335 02758 73406 10090 20080 30026 40172 55002 60006 875// 90600 333 10182 20062 60004=
07335,1998-05-24 09:00:00,12,1017,0,82,9,15000,3.704,,,330,,,,,,,,,,,wg-a,,,,AAXX 24094 07335 12465 73302 10120 20090 30026 40170 50000 60006 878// 90900=
07335,1998-05-24 12:00:00,17,1015.9,-0.9,55,8,20000,14.816,,,340,,,,,,,,,,,wg-a,,,,AAXX 24124 07335 12670 73408 10170 20080 30017 40159 58009 60006 878// 91200=
07335,1998-05-24 15:00:00,19,1014.6,-1.2,49,8,25000,18.52,,,10,,,,,,,,,,,wg-a,,,,AAXX 24154 07335 12675 70110 10190 20080 30005 40146 58012 60006 878// 91500=
07335,1998-05-24 18:00:00,18,1014.1,-0.5,56,9,0,14.816,,,10,9.3,19,,,,,,,,,wg-a,,,,AAXX 24184 07335 12/// /0108 10180 20090 30000 40141 56005 60006 91800 333 10190 20093=
07335,1998-05-25 00:00:00,9,1014.9,-0.4,100,9,0,3.704,,,320,,,,,,,,,,,wg-a,,,,AAXX 25004 07335 12/// /3202 10090 20090 30004 40149 58004 60006 90000=
07335,1998-05-25 06:00:00,10,1014.4,0.2,100,10,3000,7.408,,,330,7.6,17.9,,,,,,,,10,wg-a,,,,AAXX 25064 07335 02/30 03304 10100 20100 39999 40144 53002 60006 71000 80000 90600 333 10179 20076 60004=
07335,1998-05-25 09:00:00,17,1014,0,72,12,7000,3.704,,,340,,,,,,,,,,,wg-a,,,,AAXX 25094 07335 12557 /3402 10170 20120 39999 40140 50000 60006 81100 90900=
07335,1998-05-25 15:00:00,20,1011.6,-1.1,60,12,20000,18.52,,,310,,,,,,,,,,,wg-a,,,,AAXX 25154 07335 12670 73110 10200 20120 39977 40116 58011 60006 878// 91500=
07335,1998-05-25 18:00:00,18,1011,-0.7,64,11,0,18.52,,,340,10.1,20.4,,,,,,,,,wg-a,,,,AAXX 25184 07335 12/// /3410 10180 20110 39970 40110 56007 60006 91800 333 10204 20101=
07335,1998-05-26 06:00:00,11,1010.3,-0.3,100,11,8000,11.112,,,240,6.8,18.3,,,,,,,,,wg-a,,,,AAXX 26064 07335 02658 22406 10110 20110 39959 40103 56003 60006 81530 90600 333 10183 20068 60004=
07335,1998-05-26 09:00:00,16,1009.6,-0.4,77,12,20000,18.52,,,220,,,,0,,,,,,,wg-a,,,,AAXX 26094 07335 12470 72210 10160 20120 39955 40096 57004 60007 8383/ 90900=
07335,1998-05-26 12:00:00,17,1009.3,-0.3,68,11,25000,22.224,,,250,,,,,,,,,,1,wg-a,,,,AAXX 26124 07335 12575 72512 10170 20110 39952 40093 55003 60006 70161 878// 91200=
07335,1998-05-26 15:00:00,17,1008.9,-0.4,68,11,25000,22.224,,,260,,,,,,,,,,,wg-a,,,,AAXX 26154 07335 12575 72612 10170 20110 39948 40089 57004 60006 878// 91500=
07335,1998-05-26 18:00:00,16,1008.4,-0.5,72,11,0,22.224,,,270,10.8,18.6,,,,,,,,,wg-a,,,,AAXX 26184 07335 32/// /2712 10160 20110 39943 40084 56005 91800 333 10186 20108=
07335,1998-05-27 00:00:00,12,1009.2,-0.1,94,11,0,11.112,,,220,,,,,,,,,,,wg-a,,,,AAXX 27004 07335 12/// /2206 10120 20110 39949 40092 58001 60006 90000=
07335,1998-05-27 06:00:00,12,1007.6,-0.2,100,12,500,11.112,,,200,10,15.5,,,,,1,,,,wg-a,,,,AAXX 27064 07335 02200 72006 10120 20120 39933 40076 58002 60006 8668/ 90600 333 10155 20100 60014=
07335,1998-05-27 09:00:00,16,1006.9,-0.5,72,11,12000,22.224,,,210,,,,0,,,,,,3,wg-a,,,,AAXX 27094 07335 12462 72112 10160 20110 39928 40069 58005 60007 70362 83832 90900=
07335,1998-05-27 12:00:00,15,1006.4,-0.5,77,11,15000,22.224,,,200,,,,0,,,,,,3,wg-a,,,,AAXX 27124 07335 02565 72012 10150 20110 39923 40064 58005 60016 70386 84982 91200 333 60007=
07335,1998-05-27 15:00:00,14,1006.3,-0.2,88,12,2000,14.816,,33.336,240,,,,6,,,,,,81,wg-a,,,,AAXX 27154 07335 12220 82408 10140 20120 39921 40063 58002 60067 78198 879// 91500 333 91018=
07335,1998-05-27 18:00:00,14,1005.6,-0.6,94,13,0,7.408,,,170,11.2,17,,,,,,,,,wg-a,,,,AAXX 27184 07335 32/// /1704 10140 20130 39915 40056 55006 91800 333 10170 20112=
07335,1998-05-28 00:00:00,12,1006.1,-0.4,100,12,0,3.704,,,150,,,,,,,,,,,wg-a,,,,AAXX 28004 07335 12/// /1502 10120 20120 39918 40061 58004 60006 90000=
07335,1998-05-28 06:00:00,12,1005.8,0.2,94,11,20000,11.112,,,200,10.9,14.4,,,,,14,,,,wg-a,,,,AAXX 28064 07335 02470 72006 10120 20110 39915 40058 53002 60006 81532 90600 333 10144 20109 60144=
07335,1998-05-28 09:00:00,14,1006.5,0.8,82,11,500,14.816,,,230,,,,,,,,,,,wg-a,,,,AAXX 28094 07335 12400 62308 10140 20110 39923 40065 51008 60006 84232 90900=
07335,1998-05-28 12:00:00,17,1006.3,-0,68,11,500,18.52,,,260,,,,0,,,,,,,wg-a,,,,AAXX 28124 07335 02500 62610 10170 20110 39923 40063 55000 60006 85232 91200 333 60007=
07335,1998-05-28 15:00:00,18,1006.4,0.1,59,10,500,18.52,,,260,,,,,,,,,,1,wg-a,,,,AAXX 28154 07335 02600 22610 10180 20100 39924 40064 53001 61000 70186 82201 91500 333 ////=
07335,1998-05-28 18:00:00,16,1007.6,1.1,63,9,0,25.928,,,250,11.5,19.1,,,,,,,,,wg-a,,,,AAXX 28184 07335 32/// /2514 10160 20090 39935 40076 51011 91800 333 10191 20115=
07335,1998-05-29 00:00:00,8,1010.9,0.8,93,7,0,7.408,,,210,,,,,,,,,,,wg-a,,,,AAXX 29004 07335 12/// /2104 10080 20070 39964 40109 51008 60006 90000=
07335,1998-05-29 06:00:00,9,1012.5,1.1,100,9,8000,7.408,,,170,6.3,15.9,,,,,,,,,wg-a,,,,AAXX 29064 07335 02758 41704 10090 20090 39980 40125 51011 60006 81501 90600 333 10159 20063 60004=
07335,1998-05-29 09:00:00,15,1012.7,0.5,63,8,500,14.816,,,190,,,,,,,,,,,wg-a,,,,AAXX 29094 07335 12500 41908 10150 20080 39985 40127 51005 60006 81231 90900=
07335,1998-05-29 12:00:00,18,1012.2,-0.4,52,8,500,7.408,,25.928,220,,,,,,,,,,,wg-a,,,,AAXX 29124 07335 12600 42204 10180 20080 39981 40122 57004 60006 83201 91200 333 91014=
07335,1998-05-29 15:00:00,20,1010.6,-1.4,46,8,500,11.112,,,160,,,,,,,,,,,wg-a,,,,AAXX 29154 07335 12600 41606 10200 20080 39967 40106 58014 60006 82201 91500=
07335,1998-05-29 18:00:00,20,1009.8,-0.9,46,8,0,18.52,,,110,9.1,20.3,,,,,,,,,wg-a,,,,AAXX 29184 07335 12/// /1110 10200 20080 39958 40098 56009 60006 91800 333 10203 20091=
07335,1998-05-30 00:00:00,14,1008.9,-1.2,77,10,0,14.816,,,100,,,,,,,,,,,wg-a,,,,AAXX 30004 07335 12/// /1008 10140 20100 39947 40089 58012 60006 90000=
07335,1998-05-30 06:00:00,14,1006.9,-0.6,77,10,20000,7.408,,,120,12.7,19.7,,,,,,,,,wg-a,,,,AAXX 30064 07335 02/70 71204 10140 20100 39927 40069 56006 60006 86032 90600 333 10197 20127 60004=
07335,1998-05-30 09:00:00,18,1007.2,0.5,64,11,25000,25.928,,,180,,,,,,,,,,,wg-a,,,,AAXX 30094 07335 12575 71814 10180 20110 39932 40072 50005 60006 8753/ 90900=
07335,1998-05-30 12:00:00,17,1008.1,0.9,77,13,10000,11.112,,,200,,,,0,,,,,,61,wg-a,,,,AAXX 30124 07335 02560 82006 10170 20130 39941 40081 50009 60006 76162 8687/ 91200 333 60007=
07335,1998-05-30 15:00:00,15,1008.6,0.4,94,14,20000,14.816,,,170,,,,1,,,,,,60,wg-a,,,,AAXX 30154 07335 12470 81708 10150 20140 39945 40086 50004 60017 76062 8687/ 91500=
07335,1998-05-30 18:00:00,15,1009.6,1,88,13,0,22.224,,,240,13.7,18.2,,,,,,,,,wg-a,,,,AAXX 30184 07335 32/// /2412 10150 20130 39955 40096 51010 91800 333 10182 20137=
07335,1998-05-31 00:00:00,9,1012.5,0.5,100,9,0,7.408,,,170,,,,,,,,,,,wg-a,,,,AAXX 31004 07335 02/// /1704 10090 20090 39980 40125 51005 61000 90000 333 ////=
07335,1998-05-31 06:00:00,9,1012.8,0.1,100,9,25000,7.408,,,190,7.3,15.4,,,,,2,,,,wg-a,,,,AAXX 31064 07335 02/75 71904 10090 20090 39983 40128 53001 60006 83032 90600 333 10154 20073 60024=
07335,1998-05-31 09:00:00,12,1013.6,0.9,94,11,15000,25.928,,,240,,,,,,,,,,60,wg-a,,,,AAXX 31094 07335 02465 82414 10120 20110 39992 40136 53009 61000 76062 858// 90900 333 ////=
07335,1998-05-31 12:00:00,16,1013.2,-0.2,72,11,25000,18.52,,,190,,,,0,,,,,,1,wg-a,,,,AAXX 31124 07335 02575 71910 10160 20110 39990 40132 58002 60016 70162 8283/ 91200 333 60007=
07335,1998-05-31 15:00:00,17,1012.8,-0.3,68,11,25000,22.224,,,220,,,,,,,,,,,wg-a,,,,AAXX 31154 07335 12675 52212 10170 20110 39987 40128 55003 60006 85800 91500=
07335,1998-05-31 18:00:00,17,1012.9,0.1,63,10,0,14.816,,,250,9.4,18,,,,,,,,,wg-a,,,,AAXX 31184 07335 32/// /2508 10170 20100 39988 40129 52001 91800 333 10180 20094=
07335,1998-06-01 00:00:00,7,1013.9,-0.4,93,6,0,3.704,,,170,,,,,,,,,,,wg-a,,,,AAXX 01004 07335 12/// /1702 10070 20060 39992 40139 58004 60006 90000=
07335,1998-06-01 06:00:00,11,1011.3,-0.8,94,10,20000,3.704,,,110,6.5,16.7,,,,,,,,60,wg-a,,,,AAXX 01064 07335 02770 71102 10110 20100 39969 40113 56008 61000 76062 8557/ 90600 333 10167 20065 6000=
07335,1998-06-01 09:00:00,15,1010.5,-0.6,82,12,20000,11.112,,,150,,,,0,,,,,,60,wg-a,,,,AAXX 01094 07335 12670 81506 10150 20120 39963 40105 58006 60007 76062 8557/ 90900=
07335,1998-06-01 12:00:00,22,1009.2,-0.9,57,13,500,22.224,,,170,,,,0,,,,,,3,wg-a,,,,AAXX 01124 07335 02500 71712 10220 20130 39954 40092 56009 60016 70362 8483/ 91200 333 60007=
07335,1998-06-01 15:00:00,21,1007.9,-1.3,64,14,500,22.224,,,190,,,,,,,,,,,wg-a,,,,AAXX 01154 07335 12600 71912 10210 20140 39941 40079 58013 60006 8483/ 91500=
07335,1998-06-01 18:00:00,19,1007.5,-0.5,88,17,0,11.112,,,240,11.3,22,,,,,,,,,wg-a,,,,AAXX 01184 07335 32/// /2406 10190 20170 39936 40075 56005 91800 333 10220 20113=
07335,1998-06-02 00:00:00,16,1007.5,-0.5,94,15,0,7.408,,,160,,,,,,,,,,,wg-a,,,,AAXX 02004 07335 12/// /1604 10160 20150 39934 40075 56005 60046 90000=
07335,1998-06-02 06:00:00,16,1009.9,2.2,94,15,15000,14.816,,,220,15.1,18.7,,,,,4,,,,wg-a,,,,AAXX 02064 07335 02365 82208 10160 20150 39958 40099 53022 60006 875// 90600 333 10187 20151 60044=
07335,1998-06-02 09:00:00,17,1011.6,1.7,88,15,20000,22.224,,,220,,,,,,,,,,,wg-a,,,,AAXX 02094 07335 12470 72212 10170 20150 39975 40116 51017 60006 85832 90900=
07335,1998-06-02 12:00:00,20,1011.9,0.4,64,13,25000,25.928,,,260,,,,0,,,,,,3,wg-a,,,,AAXX 02124 07335 02575 72614 10200 20130 39979 40119 50004 60016 70386 84832 91200 333 60007=
07335,1998-06-02 15:00:00,20,1012.3,0.4,53,10,25000,29.632,,,270,,,,,,,,,,,wg-a,,,,AAXX 02154 07335 12675 72716 10200 20100 39983 40123 53004 60006 83832 91500=
07335,1998-06-02 18:00:00,18,1013,0.6,64,11,0,18.52,,,240,15.7,20.5,,,,,,,,,wg-a,,,,AAXX 02184 07335 32/// /2410 10180 20110 39989 40130 53006 91800 333 10205 20157=
07335,1998-06-03 00:00:00,10,1016.5,1,93,9,0,7.408,,,230,,,,,,,,,,,wg-a,,,,AAXX 03004 07335 12/// /2304 10100 20090 30020 40165 51010 60006 90000=
07335,1998-06-03 06:00:00,12,1017.4,1,88,10,15000,7.408,,,220,7.8,17.8,,,,,1,,,,wg-a,,,,AAXX 03064 07335 02/65 12204 10120 20100 30030 40174 53010 60006 80001 90600 333 10178 20078 60014=
07335,1998-06-03 09:00:00,18,1017.5,0.4,59,10,25000,22.224,,,240,,,,,,,,,,,wg-a,,,,AAXX 03094 07335 12575 22412 10180 20100 30034 40175 51004 60006 81201 90900=
07335,1998-06-03 12:00:00,21,1017.1,-0.3,56,12,25000,11.112,,,260,,,,,,,,,,,wg-a,,,,AAXX 03124 07335 12675 52606 10210 20120 30031 40171 58003 60006 83202 91200=
07335,1998-06-03 15:00:00,22,1016.7,-0.3,53,12,25000,11.112,,,250,,,,,,,,,,,wg-a,,,,AAXX 03154 07335 12675 72506 10220 20120 30028 40167 56003 60006 86802 91500=
07335,1998-06-03 18:00:00,21,1016.6,-0.2,53,11,0,11.112,,,300,11.6,22.3,,,,,,,,,wg-a,,,,AAXX 03184 07335 12/// /3006 10210 20110 30026 40166 55002 60006 91800 333 10223 20116=
07335,1998-06-04 00:00:00,11,1018.9,0.3,87,9,0,3.704,,,20,,,,,,,,,,,wg-a,,,,AAXX 04004 07335 12/// /0202 10110 20090 30044 40189 50003 60006 90000=
07335,1998-06-04 06:00:00,12,1018.6,-0.4,88,10,20000,7.408,,,50,8.1,21.2,,,,,,,,,wg-a,,,,AAXX 04064 07335 02/70 70504 10120 20100 30042 40186 58004 60006 81036 90600 333 10212 20081 60004=
07335,1998-06-04 09:00:00,20,1018.2,0,60,12,20000,14.816,,,100,,,,,,,,,,,wg-a,,,,AAXX 04094 07335 12/70 61008 10200 20120 30042 40182 50000 60006 83032 90900=
07335,1998-06-04 12:00:00,23,1016.7,-1.4,50,12,20000,18.52,,,80,,,,,,,,,,,wg-a,,,,AAXX 04124 07335 12/70 70810 10230 20120 30028 40167 58014 60006 85052 91200=
07335,1998-06-04 15:00:00,25,1014.2,-2.3,50,14,20000,22.224,,,70,,,,,,,,,,,wg-a,,,,AAXX 04154 07335 12/70 60712 10250 20140 30005 40142 58023 60006 82082 91500=
07335,1998-06-04 18:00:00,25,1013,-1.2,57,16,0,18.52,,,80,12.4,25.4,,,,,,,,,wg-a,,,,AAXX 04184 07335 12/// /0810 10250 20160 39993 40130 56012 60006 91800 333 10254 20124=
07335,1998-06-05 00:00:00,19,1013.9,1.7,88,17,0,25.928,,,180,,,,,,,,,,,wg-a,,,,AAXX 05004 07335 12/// /1814 10190 20170 39999 40139 53017 60016 90000=
07335,1998-06-05 06:00:00,17,1011,1.6,100,17,15000,3.704,,,160,16.5,24.8,,,,,7,,,,wg-a,,,,AAXX 05064 07335 02/65 71602 10170 20170 39970 40110 51016 60006 82092 90600 333 10248 20165 60074=
07335,1998-06-05 09:00:00,22,1011.2,0.4,78,18,500,11.112,,,240,,,,,,,,,,,wg-a,,,,AAXX 05094 07335 12/00 62406 10220 20180 39974 40112 50004 60006 81082 90900=
07335,1998-06-05 12:00:00,26,1010.8,-0.2,61,18,500,14.816,,,190,,,,,,,,,,,wg-a,,,,AAXX 05124 07335 12600 /1908 10260 20180 39972 40108 58002 60006 81182 91200=
07335,1998-06-05 15:00:00,27,1010.2,-0.6,62,19,500,11.112,,,220,,,,,,,,,,,wg-a,,,,AAXX 05154 07335 12600 72206 10270 20190 39966 40102 58006 60006 81182 91500=
07335,1998-06-05 18:00:00,26,1009.4,-0.8,70,20,0,3.704,,,240,17.3,27.2,,,,,,,,,wg-a,,,,AAXX 05184 07335 12/// /2402 10260 20200 39958 40094 58008 60006 91800 333 10272 20173=
07335,1998-06-06 00:00:00,20,1010.4,-0.3,100,20,0,7.408,,,290,,,,,,,,,,,wg-a,,,,AAXX 06004 07335 12/// /2904 10200 20200 39965 40104 58003 60006 90000=
07335,1998-06-06 06:00:00,19,1010.5,0.7,100,19,6000,7.408,,,260,17.6,26.2,,,,,,,,80,wg-a,,,,AAXX 06064 07335 02456 82604 10190 20190 39966 40105 53007 61000 78098 879// 90600 333 10262 20176 6100=
07335,1998-06-06 09:00:00,20,1012.1,1.6,88,18,12000,11.112,,,250,,,,,,,,,,3,wg-a,,,,AAXX 06094 07335 02462 72506 10200 20180 39982 40121 53016 61000 70398 876// 90900 333 ////=
07335,1998-06-06 12:00:00,18,1013,0.8,94,17,8000,14.816,,,230,,,,2,,,,,,80,wg-a,,,,AAXX 06124 07335 02458 82308 10180 20170 39990 40130 53008 60026 78098 879// 91200 333 60027=
07335,1998-06-06 15:00:00,18,1012.2,-0.8,94,17,10000,11.112,,,250,,,,5,,,,,,21,wg-a,,,,AAXX 06154 07335 12560 72506 10180 20170 39982 40122 58008 60057 72196 8257/ 91500=
07335,1998-06-06 18:00:00,20,1011.9,-0.2,88,18,0,11.112,,,170,17.5,20.7,,,,,,,,,wg-a,,,,AAXX 06184 07335 32/// /1706 10200 20180 39980 40119 55002 91800 333 10207 20175=
07335,1998-06-07 00:00:00,15,1013.8,0,100,15,0,7.408,,,220,,,,,,,,,,,wg-a,,,,AAXX 07004 07335 12/// /2204 10150 20150 39996 40138 50000 60006 90000=
07335,1998-06-07 06:00:00,13,1015.9,2.3,88,11,20000,14.816,,,280,12.4,20.7,,,,,6,,,1,wg-a,,,,AAXX 07064 07335 02670 72808 10130 20110 30015 40159 53023 60006 70162 82532 90600 333 10207 20124 60064=
07335,1998-06-07 09:00:00,17,1017,1.3,68,11,25000,25.928,,,290,,,,,,,,,,,wg-a,,,,AAXX 07094 07335 12575 /2914 10170 20110 30028 40170 52013 60006 85832 90900=
07335,1998-06-07 12:00:00,19,1017.5,0.6,56,10,25000,22.224,,,260,,,,,,,,,,,wg-a,,,,AAXX 07124 07335 12675 72612 10190 20100 30034 40175 50006 60006 874// 91200=
07335,1998-06-07 15:00:00,18,1018,0.5,68,12,25000,25.928,,,270,,,,,,,,,,,wg-a,,,,AAXX 07154 07335 12675 72714 10180 20120 30039 40180 51005 60006 874// 91500=
07335,1998-06-07 18:00:00,17,1019,0.9,72,12,0,18.52,,,260,12.9,19.5,,,,,,,,,wg-a,,,,AAXX 07184 07335 12/// /2610 10170 20120 30048 40190 51009 60006 91800 333 10195 20129=
07335,1998-06-08 00:00:00,12,1021.6,0.5,94,11,0,11.112,,,240,,,,,,,,,,,wg-a,,,,AAXX 08004 07335 12/// /2406 10120 20110 30071 40216 51005 60006 90000=
07335,1998-06-08 06:00:00,13,1021.7,0.5,100,13,15000,11.112,,,190,10,16.9,,,,,,,,2,wg-a,,,,AAXX 08064 07335 02465 71906 10130 20130 30073 40217 53005 60006 70262 875// 90600 333 10169 20100 60004=
07335,1998-06-08 09:00:00,18,1022.1,0.6,68,12,20000,14.816,,,210,,,,,,,,,,,wg-a,,,,AAXX 08094 07335 12570 72108 10180 20120 30079 40221 52006 60006 86802 90900=
07335,1998-06-08 12:00:00,20,1021.5,-0.5,56,11,25000,18.52,,,230,,,,,,,,,,,wg-a,,,,AAXX 08124 07335 12675 72310 10200 20110 30074 40215 58005 60006 85832 91200=
07335,1998-06-08 15:00:00,19,1020.7,-0.8,68,13,20000,18.52,,,250,,,,,,,,,,,wg-a,,,,AAXX 08154 07335 12670 72510 10190 20130 30066 40207 56008 60006 878// 91500=
07335,1998-06-08 18:00:00,19,1020.4,-0.3,68,13,0,22.224,,,260,12.8,20.5,,,,,,,,,wg-a,,,,AAXX 08184 07335 12/// /2612 10190 20130 30063 40204 55003 60006 91800 333 10205 20128=
07335,1998-06-09 06:00:00,15,1018.2,-0.4,88,13,20000,18.52,,,220,13.9,19.1,,,,,,,,,wg-a,,,,AAXX 09064 07335 02470 72210 10150 20130 30039 40182 56004 60006 8558/ 90600 333 10191 20139 60004=
07335,1998-06-09 09:00:00,19,1016.9,-1.1,73,14,25000,22.224,,,210,,,,,,,,,,,wg-a,,,,AAXX 09094 07335 12475 72112 10190 20140 30028 40169 58011 60006 82582 90900=
07335,1998-06-09 12:00:00,24,1014.6,-2,69,18,25000,29.632,,,240,,,,,,,,,,,wg-a,,,,AAXX 09124 07335 12575 /2416 10240 20180 30008 40146 56020 60006 82882 91200=
07335,1998-06-09 18:00:00,23,1011.1,-1.2,65,16,0,25.928,,,250,15.5,25.8,,,,,,,,,wg-a,,,,AAXX 09184 07335 12/// /2514 10230 20160 39973 40111 56012 60006 91800 333 10258 20155=
07335,1998-06-10 00:00:00,16,1010.9,-1.1,100,16,0,14.816,,,230,,,,,,,,,,,wg-a,,,,AAXX 10004 07335 12/// /2308 10160 20160 39968 40109 56011 60006 90000=
07335,1998-06-10 06:00:00,15,1011.6,0.9,88,13,25000,18.52,,,250,13.6,23.2,,,,,,,,,wg-a,,,,AAXX 10064 07335 02475 22510 10150 20130 39974 40116 53009 60006 82230 90600 333 10232 20136 60004=
07335,1998-06-10 09:00:00,17,1011.5,0,82,14,500,18.52,,,240,,,,,,,,,,,wg-a,,,,AAXX 10094 07335 12500 32410 10170 20140 39974 40115 50000 60006 83200 90900=
07335,1998-06-10 12:00:00,20,1010.8,-0.6,53,10,500,29.632,,,250,,,,,,,,,,,wg-a,,,,AAXX 10124 07335 12600 32516 10200 20100 39968 40108 56006 60006 83200 91200=
07335,1998-06-10 15:00:00,20,1009.8,-0.9,49,9,500,31.484,,,260,,,,,,,,,,1,wg-a,,,,AAXX 10154 07335 02600 32617 10200 20090 39959 40098 58009 61000 70186 83800 91500 333 ////=
07335,1998-06-10 18:00:00,17,1009.8,-0.2,72,12,0,25.928,,,240,14.9,20.6,,0,,,,,,,wg-a,,,,AAXX 10184 07335 12/// /2414 10170 20120 39957 40098 58002 60007 91800 333 10206 20149=
07335,1998-06-11 00:00:00,12,1010,-0.5,94,11,0,14.816,,,260,,,,,,,,,,,wg-a,,,,AAXX 11004 07335 12/// /2608 10120 20110 39957 40100 56005 60006 90000=
07335,1998-06-11 06:00:00,12,1010.9,0.7,82,9,500,14.816,,,260,9.3,16.6,,,,,,,,,wg-a,,,,AAXX 11064 07335 02400 32608 10120 20090 39965 40109 53007 60006 83801 90600 333 10166 20093 60004=
07335,1998-06-11 09:00:00,11,1012,1.1,94,10,10000,14.816,,,260,,,,1,,,,,,80,wg-a,,,,AAXX 11094 07335 12460 72608 10110 20100 39976 40120 53011 60017 78086 879// 90900=
07335,1998-06-11 12:00:00,12,1012.9,1,88,10,500,14.816,,,260,,,,1,,,,,,25,wg-a,,,,AAXX 11124 07335 02500 62608 10120 20100 39986 40129 53010 60026 72586 86900 91200 333 60017=
07335,1998-06-11 15:00:00,12,1013.7,0.7,71,7,11000,29.632,,,300,,,,1,,,,,,,wg-a,,,,AAXX 11154 07335 12/61 /3016 10120 20070 39993 40137 53007 60017 91500=
07335,1998-06-11 18:00:00,11,1016.2,2.4,82,8,0,29.632,,,320,9.9,16.4,,,,,,,,,wg-a,,,,AAXX 11184 07335 02/// /3216 10110 20080 30017 40162 53024 61000 91800 333 10164 20099 ////=
07335,1998-06-12 00:00:00,10,1019.9,1.7,82,7,0,22.224,,,310,,,,,,,,,,,wg-a,,,,AAXX 12004 07335 12/// /3112 10100 20070 30053 40199 51017 60006 90000=
07335,1998-06-12 06:00:00,9,1023.5,2,87,7,500,18.52,,,320,6.8,11.2,,,,,3,,,,wg-a,,,,AAXX 12064 07335 02/00 13210 10090 20070 30088 40235 52020 60006 81031 90600 333 10112 20068 60034=
07335,1998-06-12 09:00:00,15,1024.2,1,59,7,500,22.224,,,320,,,,,,,,,,,wg-a,,,,AAXX 12094 07335 12500 43212 10150 20070 30098 40242 51010 60006 83201 90900=
07335,1998-06-12 12:00:00,16,1024.4,0.3,55,7,500,18.52,,,300,,,,,,,,,,,wg-a,,,,AAXX 12124 07335 12600 43010 10160 20070 30101 40244 51003 60006 84801 91200=
07335,1998-06-12 15:00:00,17,1023.4,-1,45,5,500,22.224,,,300,,,,,,,,,,,wg-a,,,,AAXX 12154 07335 12700 63012 10170 20050 30091 40234 56010 60006 84832 91500=
07335,1998-06-12 18:00:00,17,1022.6,-0.8,45,5,0,18.52,,,270,9.1,19.3,,,,,,,,,wg-a,,,,AAXX 12184 07335 12/// /2710 10170 20050 30083 40226 57008 60006 91800 333 10193 20091=
07335,1998-06-13 00:00:00,9,1023.3,-0.6,93,8,0,11.112,,,250,,,,,,,,,,,wg-a,,,,AAXX 13004 07335 12/// /2506 10090 20080 30086 40233 58006 60006 90000=
07335,1998-06-13 06:00:00,10,1019.9,-1.5,93,9,25000,11.112,,,200,6.1,16.7,,,,,,,,,wg-a,,,,AAXX 13064 07335 02575 72006 10100 20090 30053 40199 56015 60006 8353/ 90600 333 10167 20061 60004=
07335,1998-06-13 12:00:00,12,1017.1,-1.5,94,11,10000,22.224,,,200,,,,2,,,,,,60,wg-a,,,,AAXX 13124 07335 02360 82012 10120 20110 30027 40171 58015 60026 76062 8457/ 91200 333 60027=
07335,1998-06-13 15:00:00,12,1015.1,-2,88,10,10000,25.928,,,200,,,,2,,,,,,3,wg-a,,,,AAXX 13154 07335 12360 82014 10120 20100 30007 40151 57020 60027 70365 877// 91500=
07335,1998-06-13 18:00:00,14,1013.2,-1.7,94,13,0,18.52,,,210,10.2,14.3,,,,,,,,,wg-a,,,,AAXX 13184 07335 32/// /2110 10140 20130 39990 40132 57017 91800 333 10143 20102=
07335,1998-06-14 00:00:00,12,1014.8,0.2,94,11,0,18.52,,,240,,,,,,,,,,,wg-a,,,,AAXX 14004 07335 12/// /2410 10120 20110 30004 40148 51002 60006 90000=
07335,1998-06-14 06:00:00,12,1014.6,-0,100,12,20000,11.112,,,240,11.4,14.6,,,,,,,,25,wg-a,,,,AAXX 14064 07335 02270 72406 10120 20120 30002 40146 55000 61000 72586 878// 90600 333 10146 20114 6006=
07335,1998-06-14 09:00:00,14,1014.3,-0.2,94,13,20000,18.52,,,240,,,,0,,,,,,25,wg-a,,,,AAXX 14094 07335 12470 72410 10140 20130 30000 40143 56002 60007 72586 878// 90900=
07335,1998-06-14 12:00:00,16,1013.7,-0.4,82,13,500,25.928,,,260,,,,4,,,,,,25,wg-a,,,,AAXX 14124 07335 02400 72614 10160 20130 39996 40137 56004 60046 72586 878// 91200 333 60047=
07335,1998-06-14 15:00:00,17,1013.3,-0.4,68,11,500,31.484,,,260,,,,1,,,,,,1,wg-a,,,,AAXX 14154 07335 12500 /2617 10170 20110 39992 40133 58004 60017 70186 86800 91500=
07335,1998-06-14 18:00:00,16,1013.7,0.3,68,10,0,29.632,,,250,12.1,18,,,,,,,,,wg-a,,,,AAXX 14184 07335 32/// /2516 10160 20100 39995 40137 51003 91800 333 10180 20121=
07335,1998-06-15 00:00:00,11,1014.9,-0.2,100,11,0,11.112,,,230,,,,,,,,,,,wg-a,,,,AAXX 15004 07335 12/// /2306 10110 20110 30005 40149 55002 60006 90000=
07335,1998-06-15 06:00:00,13,1015.2,1,88,11,20000,14.816,,,240,11.1,16.1,,,,,5,,,,wg-a,,,,AAXX 15064 07335 02570 /2408 10130 20110 30008 40152 53010 60006 86802 90600 333 10161 20111 60054=
07335,1998-06-15 09:00:00,15,1015.2,0.2,82,12,8000,14.816,,,250,,,,0,,,,,,80,wg-a,,,,AAXX 15094 07335 12458 72508 10150 20120 30010 40152 51002 60007 78086 878// 90900=
07335,1998-06-15 12:00:00,18,1015.6,0.5,64,11,20000,22.224,,,270,,,,0,,,,,,3,wg-a,,,,AAXX 15124 07335 02570 72712 10180 20110 30015 40156 51005 60016 70386 84932 91200 333 60007=
07335,1998-06-15 15:00:00,20,1015.8,0.3,46,8,25000,25.928,,,290,,,,,,,,,,3,wg-a,,,,AAXX 15154 07335 02575 62914 10200 20080 30018 40158 53003 61000 70386 84932 91500 333 ////=
07335,1998-06-15 18:00:00,17,1017.5,1.5,55,8,0,14.816,,,310,12.6,20.3,,,,,,,,,wg-a,,,,AAXX 15184 07335 32/// /3108 10170 20080 30033 40175 53015 91800 333 10203 20126=
07335,1998-06-16 00:00:00,10,1021.7,1.3,93,9,0,7.408,,,300,,,,,,,,,,,wg-a,,,,AAXX 16004 07335 12/// /3004 10100 20090 30071 40217 51013 60006 90000=
07335,1998-06-16 06:00:00,9,1023.6,1.7,93,8,1500,7.408,,,210,6.3,17.3,,,,,1,,,10,wg-a,,,,AAXX 16064 07335 02115 72104 10090 20080 30089 40236 52017 60006 71022 876// 90600 333 10173 20063 60014=
07335,1998-06-16 09:00:00,13,1024.6,1.2,88,11,7000,7.408,,,280,,,,,,,,,,,wg-a,,,,AAXX 16094 07335 12457 /2804 10130 20110 30101 40246 51012 60006 86102 90900=
07335,1998-06-16 12:00:00,17,1024.6,0.2,59,9,25000,14.816,,,290,,,,,,,,,,,wg-a,,,,AAXX 16124 07335 12675 /2908 10170 20090 30103 40246 52002 60006 86202 91200=
07335,1998-06-16 15:00:00,20,1024.4,-0.1,49,9,25000,25.928,,,270,,,,,,,,,,,wg-a,,,,AAXX 16154 07335 12675 52714 10200 20090 30102 40244 56001 60006 85402 91500=
07335,1998-06-16 18:00:00,18,1024.9,0.5,52,8,0,18.52,,,290,8.6,19.7,,,,,,,,,wg-a,,,,AAXX 16184 07335 12/// /2910 10180 20080 30107 40249 53005 60006 91800 333 10197 20086=
07335,1998-06-17 00:00:00,9,1027.8,0.7,87,7,0,7.408,,,270,,,,,,,,,,,wg-a,,,,AAXX 17004 07335 12/// /2704 10090 20070 30130 40278 51007 60006 90000=
07335,1998-06-17 06:00:00,9,1028.3,0.6,100,9,15000,3.704,,,240,5.6,18.3,,,,,,,,,wg-a,,,,AAXX 17064 07335 02/65 52402 10090 20090 30136 40283 53006 60006 80002 90600 333 10183 20056 60004=
07335,1998-06-17 09:00:00,17,1028.2,0.2,63,10,500,7.408,,,280,,,,,,,,,,,wg-a,,,,AAXX 17094 07335 12500 /2804 10170 20100 30138 40282 50002 60006 81231 90900=
07335,1998-06-17 12:00:00,20,1027.9,-0.1,49,9,500,7.408,,,150,,,,,,,,,,,wg-a,,,,AAXX 17124 07335 12600 /1504 10200 20090 30137 40279 58001 60006 83231 91200=
07335,1998-06-17 15:00:00,21,1026.8,-1,43,8,500,7.408,,,250,,,,,,,,,,,wg-a,,,,AAXX 17154 07335 12700 72504 10210 20080 30127 40268 58010 60006 81231 91500=
07335,1998-06-17 18:00:00,21,1026.2,-0.6,43,8,0,7.408,,,270,9.2,21.6,,,,,,,,,wg-a,,,,AAXX 17184 07335 12/// /2704 10210 20080 30121 40262 56006 60006 91800 333 10216 20092=
07335,1998-06-18 00:00:00,11,1026.9,-0.4,87,9,0,3.704,,,300,,,,,,,,,,,wg-a,,,,AAXX 18004 07335 12/// /3002 10110 20090 30123 40269 58004 60006 90000=
07335,1998-06-18 06:00:00,13,1026.6,0.3,94,12,25000,0,,,0,9.4,21.1,,,,,,,,,wg-a,,,,AAXX 18064 07335 02/75 60000 10130 20120 30121 40266 53003 60006 85031 90600 333 10211 20094 60004=
07335,1998-06-18 09:00:00,20,1026.1,-0.2,64,13,25000,7.408,,,160,,,,,,,,,,,wg-a,,,,AAXX 18094 07335 12575 71604 10200 20130 30119 40261 58002 60006 81132 90900=
07335,1998-06-18 12:00:00,23,1025.6,-0.3,41,9,500,7.408,,,250,,,,0,,,,,,,wg-a,,,,AAXX 18124 07335 02/00 62504 10230 20090 30116 40256 58003 60006 80002 91200 333 60007=
07335,1998-06-18 15:00:00,25,1024.4,-1.1,39,10,500,7.408,,,340,,,,,,,,,,,wg-a,,,,AAXX 18154 07335 12/00 63404 10250 20100 30105 40244 58011 60006 80002 91500=
07335,1998-06-18 18:00:00,25,1023.8,-0.6,36,9,0,7.408,,,260,13,25.6,,,,,,,,,wg-a,,,,AAXX 18184 07335 32/// /2604 10250 20090 30099 40238 57006 91800 333 10256 20130=
07335,1998-06-19 00:00:00,12,1024.3,-0.5,88,10,0,3.704,,,20,,,,,,,,,,,wg-a,,,,AAXX 19004 07335 12/// /0202 10120 20100 30098 40243 56005 60006 90000=
07335,1998-06-19 06:00:00,13,1023.2,0.1,100,13,25000,0,,,0,8,24.8,,,,,,,,,wg-a,,,,AAXX 19064 07335 02/75 10000 10130 20130 30088 40232 51001 60006 80001 90600 333 10248 20080 60004=
07335,1998-06-19 09:00:00,25,1022.7,0,41,11,25000,11.112,,,140,,,,,,,,,,,wg-a,,,,AAXX 19094 07335 12/75 31406 10250 20110 30088 40227 50000 60006 80002 90900=
07335,1998-06-19 12:00:00,28,1021.6,-0.9,35,11,25000,11.112,,,180,,,,,,,,,,,wg-a,,,,AAXX 19124 07335 12/75 31806 10280 20110 30079 40216 58009 60006 80002 91200=
07335,1998-06-19 15:00:00,30,1020.3,-1.2,24,7,25000,11.112,,,150,,,,,,,,,,,wg-a,,,,AAXX 19154 07335 12/75 51506 10300 20070 30067 40203 58012 60006 80002 91500=
07335,1998-06-19 18:00:00,29,1019.5,-0.9,27,8,0,11.112,,,150,13.3,30.4,,,,,,,,,wg-a,,,,AAXX 19184 07335 12/// /1506 10290 20080 30058 40195 56009 60006 91800 333 10304 20133=
07335,1998-06-20 00:00:00,20,1019.2,-0.6,64,13,0,7.408,,,110,,,,,,,,,,,wg-a,,,,AAXX 20004 07335 12/// /1104 10200 20130 30052 40192 56006 60006 90000=
07335,1998-06-20 06:00:00,18,1018.9,0.3,77,14,15000,7.408,,,150,12.6,28.6,,,,,,,,,wg-a,,,,AAXX 20064 07335 02/65 31504 10180 20140 30048 40189 50003 60006 80001 90600 333 10286 20126 60004=
07335,1998-06-20 09:00:00,28,1018.1,-0.3,42,14,25000,14.816,,,170,,,,,,,,,,,wg-a,,,,AAXX 20094 07335 12/75 31708 10280 20140 30045 40181 58003 60006 80002 90900=
07335,1998-06-20 12:00:00,32,1017.1,-0.9,29,12,25000,18.52,,,180,,,,,,,,,,,wg-a,,,,AAXX 20124 07335 12/75 31810 10320 20120 30036 40171 58009 60006 80002 91200=
07335,1998-06-20 15:00:00,34,1016.1,-0.9,22,9,25000,18.52,,,180,,,,,,,,,,,wg-a,,,,AAXX 20154 07335 12/75 21810 10340 20090 30027 40161 57009 60006 80002 91500=
07335,1998-06-20 18:00:00,33,1016,-0.1,30,13,0,14.816,,,180,17.9,34.6,,,,,,,,,wg-a,,,,AAXX 20184 07335 12/// /1808 10330 20130 30026 40160 55001 60006 91800 333 10346 20179=
07335,1998-06-21 00:00:00,23,1018.2,0.6,61,15,0,11.112,,,180,,,,,,,,,,,wg-a,,,,AAXX 21004 07335 12/// /1806 10230 20150 30043 40182 52006 60006 90000=
07335,1998-06-21 06:00:00,20,1019.5,0.8,60,12,25000,18.52,,,200,19.6,32.6,,,,,,,,,wg-a,,,,AAXX 21064 07335 02/75 62010 10200 20120 30055 40195 52008 60006 82082 90600 333 10326 20196 60004=
07335,1998-06-21 09:00:00,23,1020.2,0.8,69,17,20000,22.224,,,240,,,,,,,,,,,wg-a,,,,AAXX 21094 07335 12770 72412 10230 20170 30063 40202 51008 60006 81582 90900=
07335,1998-06-21 12:00:00,21,1021.1,0.8,78,17,10000,18.52,,,240,,,,,,,,,,21,wg-a,,,,AAXX 21124 07335 02460 72410 10210 20170 30071 40211 50008 61000 72161 84582 91200 333 6100=
07335,1998-06-21 15:00:00,25,1021.1,0.2,57,16,15000,25.928,,,250,,,,,,,,,,,wg-a,,,,AAXX 21154 07335 12565 72514 10250 20160 30073 40211 53002 60006 81182 91500=
07335,1998-06-21 18:00:00,21,1023.1,1.7,64,14,0,22.224,,,260,20.3,25.3,,,,,,,,,wg-a,,,,AAXX 21184 07335 32/// /2612 10210 20140 30090 40231 53017 91800 333 10253 20203=
07335,1998-06-22 00:00:00,13,1026.5,1.1,94,12,0,11.112,,,230,,,,,,,,,,,wg-a,,,,AAXX 22004 07335 12/// /2306 10130 20120 30120 40265 51011 60006 90000=
07335,1998-06-22 06:00:00,13,1027,0.7,100,13,8000,7.408,,,330,9.6,20.7,,,,,,,,,wg-a,,,,AAXX 22064 07335 02758 /3304 10130 20130 30125 40270 52007 60006 81501 90600 333 10207 20096 61000=
07335,1998-06-22 09:00:00,20,1026.7,0,64,13,500,3.704,,,360,,,,,,,,,,,wg-a,,,,AAXX 22094 07335 12500 /3602 10200 20130 30125 40267 50000 60006 81200 90900=
07335,1998-06-22 12:00:00,23,1025.6,-0.9,47,11,500,11.112,,,290,,,,,,,,,,,wg-a,,,,AAXX 22124 07335 12700 32906 10230 20110 30116 40256 58009 60006 83200 91200=
07335,1998-06-22 15:00:00,24,1024.5,-1,44,11,500,11.112,,,340,,,,,,,,,,,wg-a,,,,AAXX 22154 07335 12700 33406 10240 20110 30106 40245 56010 60006 83200 91500=
07335,1998-06-22 18:00:00,23,1023.9,-0.7,41,9,0,14.816,,,310,13.1,24.7,,,,,,,,,wg-a,,,,AAXX 22184 07335 12/// /3108 10230 20090 30099 40239 56007 60006 91800 333 10247 20131=
07335,1998-06-23 00:00:00,14,1025.7,0.4,72,9,0,14.816,,,330,,,,,,,,,,,wg-a,,,,AAXX 23004 07335 12/// /3308 10140 20090 30113 40257 50004 60006 90000=
07335,1998-06-23 06:00:00,13,1024.7,-0,94,12,15000,7.408,,,310,9.9,23.5,,,,,,,,,wg-a,,,,AAXX 23064 07335 02765 13104 10130 20120 30102 40247 54000 60006 81532 90600 333 10235 20099 60004=
07335,1998-06-23 09:00:00,19,1023.9,-0.5,52,9,500,7.408,,,260,,,,,,,,,,,wg-a,,,,AAXX 23094 07335 12600 22604 10190 20090 30097 40239 58005 60006 81101 90900=
07335,1998-06-23 12:00:00,22,1022.7,-1,43,9,500,3.704,,,220,,,,,,,,,,,wg-a,,,,AAXX 23124 07335 12700 62202 10220 20090 30087 40227 58010 60006 81101 91200=
07335,1998-06-23 15:00:00,25,1020.8,-1.8,39,10,500,7.408,,,290,,,,,,,,,,,wg-a,,,,AAXX 23154 07335 12/00 32904 10250 20100 30069 40208 56018 60006 80001 91500=
07335,1998-06-23 18:00:00,24,1019.6,-1.2,36,8,0,11.112,,,350,13.4,25.5,,,,,,,,,wg-a,,,,AAXX 23184 07335 12/// /3506 10240 20080 30057 40196 56012 60006 91800 333 10255 20134=
07335,1998-06-24 00:00:00,15,1018.7,-1.2,88,13,0,11.112,,,330,,,,,,,,,,,wg-a,,,,AAXX 24004 07335 12/// /3306 10150 20130 30044 40187 58012 60006 90000=
07335,1998-06-24 06:00:00,15,1017.1,-0.4,94,14,15000,3.704,,,320,10.6,23.8,,,,,,,,,wg-a,,,,AAXX 24064 07335 02/65 53202 10150 20140 30028 40171 55004 60006 80001 90600 333 10238 20106 60004=
07335,1998-06-24 09:00:00,23,1015.8,-0.9,50,12,25000,7.408,,,240,,,,,,,,,,,wg-a,,,,AAXX 24094 07335 12/75 22404 10230 20120 30019 40158 58009 60006 80001 90900=
07335,1998-06-24 12:00:00,27,1014.3,-1.3,39,12,500,14.816,,,200,,,,,,,,,,,wg-a,,,,AAXX 24124 07335 12700 12008 10270 20120 30006 40143 58013 60006 81101 91200=
07335,1998-06-24 15:00:00,27,1012.9,-1.3,39,12,500,14.816,,,270,,,,,,,,,,,wg-a,,,,AAXX 24154 07335 12/00 12708 10270 20120 39993 40129 58013 60006 80001 91500=
07335,1998-06-24 18:00:00,22,1013,-0.2,53,12,0,22.224,,,270,14.5,27.4,,,,,,,,,wg-a,,,,AAXX 24184 07335 12/// /2712 10220 20120 39991 40130 55002 60006 91800 333 10274 20145=
07335,1998-06-25 00:00:00,15,1014.2,0.3,82,12,0,11.112,,,230,,,,,,,,,,,wg-a,,,,AAXX 25004 07335 12/// /2306 10150 20120 30000 40142 51003 60006 90000=
07335,1998-06-25 06:00:00,14,1015.9,1.7,88,12,20000,3.704,,,250,13.8,22.1,,,,,,,,21,wg-a,,,,AAXX 25064 07335 02470 72502 10140 20120 30016 40159 53017 61000 72162 8587/ 90600 333 10221 20138 6001=
07335,1998-06-25 12:00:00,21,1016.2,-0.4,49,10,25000,11.112,,,240,,,,,,,,,,,wg-a,,,,AAXX 25124 07335 12675 72406 10210 20100 30022 40162 58004 60006 85202 91200=
07335,1998-06-25 15:00:00,21,1015.5,-0.7,53,11,500,14.816,,,240,,,,,,,,,,,wg-a,,,,AAXX 25154 07335 12600 72408 10210 20110 30015 40155 58007 60006 86802 91500=
07335,1998-06-25 18:00:00,22,1015.4,-0,41,8,0,18.52,,,270,13.9,22.2,,,,,,,,,wg-a,,,,AAXX 25184 07335 12/// /2710 10220 20080 30015 40154 55000 60006 91800 333 10222 20139=
07335,1998-06-26 00:00:00,10,1017.7,0.4,87,8,0,3.704,,,250,,,,,,,,,,,wg-a,,,,AAXX 26004 07335 12/// /2502 10100 20080 30032 40177 51004 60006 90000=
07335,1998-06-26 06:00:00,12,1017.4,0.3,94,11,20000,3.704,,,170,8.5,21.5,,,,,,,,,wg-a,,,,AAXX 26064 07335 02/70 71702 10120 20110 30030 40174 53003 60006 83032 90600 333 10215 20085 60004=
07335,1998-06-26 09:00:00,18,1016.9,-0.2,59,10,500,11.112,,,260,,,,,,,,,,,wg-a,,,,AAXX 26094 07335 12500 72606 10180 20100 30028 40169 58002 60006 83231 90900=
07335,1998-06-26 12:00:00,20,1016.6,-0.2,56,11,500,14.816,,,240,,,,,,,,,,,wg-a,,,,AAXX 26124 07335 12600 72408 10200 20110 30026 40166 57002 60006 8327/ 91200=
07335,1998-06-26 15:00:00,22,1015.5,-1,50,11,500,14.816,,,260,,,,,,,,,,,wg-a,,,,AAXX 26154 07335 12600 /2608 10220 20110 30016 40155 58010 60006 82231 91500=
07335,1998-06-26 18:00:00,21,1015.3,-0.3,53,11,0,18.52,,,270,12.4,22.3,,,,,,,,,wg-a,,,,AAXX 26184 07335 12/// /2710 10210 20110 30013 40153 55003 60006 91800 333 10223 20124=
07335,1998-06-27 00:00:00,12,1016.2,-0.3,94,11,0,7.408,,,260,,,,,,,,,,,wg-a,,,,AAXX 27004 07335 12/// /2604 10120 20110 30018 40162 57003 60006 90000=
07335,1998-06-27 06:00:00,15,1015.1,-0.4,82,12,20000,7.408,,,200,10,20.5,,,,,,,,,wg-a,,,,AAXX 27064 07335 02770 52004 10150 20120 30009 40151 56004 60006 81532 90600 333 10205 20100 60004=
07335,1998-06-27 09:00:00,20,1014.7,-0.2,60,12,25000,22.224,,,240,,,,,,,,,,,wg-a,,,,AAXX 27094 07335 12575 52412 10200 20120 30007 40147 58002 60006 84132 90900=
07335,1998-06-27 12:00:00,23,1014.2,-0.3,47,11,25000,25.928,,,250,,,,,,,,,,,wg-a,,,,AAXX 27124 07335 12675 /2514 10230 20110 30004 40142 56003 60006 85232 91200=
07335,1998-06-27 15:00:00,23,1013.8,-0.4,47,11,25000,31.484,,,260,,,,,,,,,,,wg-a,,,,AAXX 27154 07335 12675 /2617 10230 20110 30000 40138 58004 60006 82132 91500=
07335,1998-06-27 18:00:00,18,1015.5,1.4,83,15,0,25.928,,,290,14.7,24.5,,,,,,,,,wg-a,,,,AAXX 27184 07335 12/// /2914 10180 20150 30014 40155 53014 60006 91800 333 10245 20147=
07335,1998-06-28 00:00:00,13,1019,1.6,88,11,0,7.408,,,280,,,,,,,,,,,wg-a,,,,AAXX 28004 07335 12/// /2804 10130 20110 30046 40190 53016 60006 90000=
07335,1998-06-28 06:00:00,12,1021.2,1.3,100,12,12000,11.112,,,230,7.5,18.3,,,,,,,,,wg-a,,,,AAXX 28064 07335 02/62 02306 10120 20120 30067 40212 51013 60006 80000 90600 333 10183 20075 60004=
07335,1998-06-28 09:00:00,19,1021.5,0.6,56,10,500,14.816,,,300,,,,,,,,,,,wg-a,,,,AAXX 28094 07335 12500 33008 10190 20100 30073 40215 52006 60006 83200 90900=
07335,1998-06-28 12:00:00,20,1021.2,-0.2,49,9,500,11.112,,,290,,,,,,,,,,,wg-a,,,,AAXX 28124 07335 12600 /2906 10200 20090 30071 40212 58002 60006 86800 91200=
07335,1998-06-29 00:00:00,12,1022.4,0.4,82,9,0,11.112,,,340,,,,,,,,,,,wg-a,,,,AAXX 29004 07335 12/// /3406 10120 20090 30079 40224 51004 60006 90000=
07335,1998-06-29 06:00:00,12,1022.3,0.1,100,12,15000,7.408,,,340,8.4,21.9,,,,,,,,,wg-a,,,,AAXX 29064 07335 02/65 13404 10120 20120 30078 40223 53001 60006 80001 90600 333 10219 20084 60004=
07335,1998-06-29 12:00:00,23,1020.4,-0.9,41,9,25000,7.408,,,290,,,,,,,,,,,wg-a,,,,AAXX 29124 07335 12675 22904 10230 20090 30065 40204 58009 60006 82101 91200=
07335,1998-06-29 15:00:00,25,1018.8,-1.5,39,10,25000,14.816,,,260,,,,,,,,,,,wg-a,,,,AAXX 29154 07335 12775 42608 10250 20100 30050 40188 56015 60006 82102 91500=
07335,1998-06-29 18:00:00,23,1018.4,-0.5,47,11,0,25.928,,,10,12.1,25.7,,,,,,,,,wg-a,,,,AAXX 29184 07335 12/// /0114 10230 20110 30045 40184 55005 60006 91800 333 10257 20121=
07335,1998-06-30 00:00:00,11,1020,-0.4,87,9,0,3.704,,,290,,,,,,,,,,,wg-a,,,,AAXX 30004 07335 12/// /2902 10110 20090 30055 40200 58004 60006 90000=
07335,1998-06-30 06:00:00,12,1018.5,-0.1,94,11,20000,7.408,,,320,9.2,22.8,,,,,,,,,wg-a,,,,AAXX 30064 07335 02/70 53204 10120 20110 30041 40185 58001 60006 80004 90600 333 10228 20092 60004=
07335,1998-06-30 09:00:00,18,1018.1,-0.1,64,11,25000,14.816,,,250,,,,,,,,,,,wg-a,,,,AAXX 30094 07335 12575 72508 10180 20110 30040 40181 58001 60006 82152 90900=
07335,1998-06-30 12:00:00,20,1018.1,0,56,11,25000,14.816,,,260,,,,,,,,,,,wg-a,,,,AAXX 30124 07335 12675 72608 10200 20110 30040 40181 50000 60006 8117/ 91200=
07335,1998-06-30 15:00:00,22,1016.7,-1.2,57,13,25000,14.816,,,290,,,,,,,,,,,wg-a,,,,AAXX 30154 07335 12675 72908 10220 20130 30028 40167 56012 60006 874// 91500=
07335,1998-06-30 18:00:00,20,1015.7,-1.1,64,13,0,14.816,,,280,12.4,23,,,,,,,,,wg-a,,,,AAXX 30184 07335 12/// /2808 10200 20130 30017 40157 57011 60006 91800 333 10230 20124=
07335,1998-07-01 00:00:00,15,1015.2,-0.7,94,14,0,7.408,,,250,,,,,,,,,,,wg-a,,,,AAXX 01004 07335 12/// /2504 10150 20140 30010 40152 57007 60006 90000=
07335,1998-07-01 06:00:00,15,1011.9,-0.3,94,14,15000,3.704,,,120,11.8,20.3,,,,,,,,,wg-a,,,,AAXX 01064 07335 02/65 71202 10150 20140 39977 40119 58003 60006 81032 90600 333 10203 20118 60004=
07335,1998-07-01 09:00:00,19,1010.2,-1.5,78,15,25000,14.816,,,100,,,,,,,,,,,wg-a,,,,AAXX 01094 07335 12475 71008 10190 20150 39962 40102 56015 60006 82882 90900=
07335,1998-07-01 12:00:00,23,1008,-2,57,14,25000,18.52,,,80,,,,,,,,,,,wg-a,,,,AAXX 01124 07335 12575 /0810 10230 20140 39942 40080 58020 60006 83882 91200=
07335,1998-07-01 15:00:00,22,1007.7,-0.3,57,13,25000,14.816,,,70,,,,,,,,,,80,wg-a,,,,AAXX 01154 07335 02675 80708 10220 20130 39939 40077 55003 61000 78086 8587/ 91500 333 ////=
07335,1998-07-01 18:00:00,23,1006.3,-1.3,61,15,0,25.928,,,50,14.8,23.6,,,,,,,,,wg-a,,,,AAXX 01184 07335 32/// /0514 10230 20150 39926 40063 55013 91800 333 10236 20148=
07335,1998-07-02 00:00:00,17,1008.9,0.7,82,14,0,14.816,,,60,,,,,,,,,,,wg-a,,,,AAXX 02004 07335 12/// /0608 10170 20140 39948 40089 51007 60016 90000=
07335,1998-07-02 06:00:00,15,1009.3,0.6,94,14,3500,7.408,,,130,15,22.7,,,,,,,,21,wg-a,,,,AAXX 02064 07335 02235 81304 10150 20140 39952 40093 53006 61000 72162 875// 90600 333 10227 20150 6005=
07335,1998-07-02 09:00:00,17,1010.4,1.2,94,16,4000,7.408,,,40,,,,,,,,,,10,wg-a,,,,AAXX 02094 07335 12240 80404 10170 20160 39964 40104 51012 60006 71022 875// 90900=
07335,1998-07-02 12:00:00,20,1010.7,0.4,88,18,12000,11.112,,,20,,,,0,,,,,,25,wg-a,,,,AAXX 02124 07335 02462 70206 10200 20180 39968 40107 53004 60016 72586 86832 91200 333 60007=
07335,1998-07-02 18:00:00,18,1012.4,0.7,94,17,0,14.816,,,20,15.1,20.7,,,,,,,,,wg-a,,,,AAXX 02184 07335 32/// /0208 10180 20170 39984 40124 53007 91800 333 10207 20151=
07335,1998-07-03 00:00:00,16,1014.1,0.4,94,15,0,3.704,,,320,,,,,,,,,,,wg-a,,,,AAXX 03004 07335 12/// /3202 10160 20150 39999 40141 50004 60006 90000=
07335,1998-07-03 06:00:00,15,1015.6,1.5,100,15,2000,7.408,,,350,13.7,18.2,,,,,2,,,10,wg-a,,,,AAXX 03064 07335 02220 53504 10150 20150 30014 40156 53015 60006 71022 83232 90600 333 10182 20137 60024=
07335,1998-07-03 12:00:00,19,1019.2,1.9,73,14,15000,18.52,,,350,,,,,,,,,,1,wg-a,,,,AAXX 03124 07335 02465 73510 10190 20140 30051 40192 51019 60026 70198 872// 91200 333 61000=
07335,1998-07-03 15:00:00,21,1020.1,1,64,14,20000,18.52,,,340,,,,,,,,,,,wg-a,,,,AAXX 03154 07335 12570 /3410 10210 20140 30061 40201 51010 60006 86200 91500=
07335,1998-07-04 06:00:00,13,1025.5,0.7,88,11,7000,14.816,,,10,10.7,20.4,,,,,2,,,,wg-a,,,,AAXX 04064 07335 02657 /0108 10130 20110 30110 40255 53007 60006 86500 90600 333 10204 20107 60024=
07335,1998-07-04 09:00:00,18,1025.7,0.5,64,11,20000,11.112,,,30,,,,,,,,,,,wg-a,,,,AAXX 04094 07335 12570 /0306 10180 20110 30115 40257 50005 60006 81100 90900=
07335,1998-07-04 12:00:00,22,1025.5,-0.1,46,10,500,7.408,,,280,,,,,,,,,,,wg-a,,,,AAXX 04124 07335 12600 12804 10220 20100 30114 40255 58001 60006 81200 91200=
07335,1998-07-05 06:00:00,12,1024.5,-0,94,11,12000,11.112,,,340,10.2,22.7,,,,,,,,,wg-a,,,,AAXX 05064 07335 02/62 03406 10120 20110 30100 40245 54000 60006 80000 90600 333 10227 20102 60004=
07335,1998-07-05 12:00:00,23,1022.7,-1,50,12,25000,14.816,,,290,,,,,,,,,,,wg-a,,,,AAXX 05124 07335 12675 /2908 10230 20120 30087 40227 58010 60006 81100 91200=
07335,1998-07-05 15:00:00,25,1021.2,-1.4,44,12,25000,14.816,,,320,,,,,,,,,,,wg-a,,,,AAXX 05154 07335 12675 /3208 10250 20120 30073 40212 56014 60006 81100 91500=
07335,1998-07-06 06:00:00,13,1017.6,-0.7,100,13,8000,3.704,,,30,9.1,23.8,,,,,,,,,wg-a,,,,AAXX 06064 07335 02458 40302 10130 20130 30033 40176 55007 60006 84502 90600 333 10238 20091 60004=
07335,1998-07-06 09:00:00,18,1016.7,-0.7,73,13,15000,7.408,,,20,,,,,,,,,,,wg-a,,,,AAXX 06094 07335 12565 30204 10180 20130 30026 40167 58007 60006 831// 90900=
07335,1998-07-06 12:00:00,23,1014.2,-2.2,50,12,25000,3.704,,,20,,,,,,,,,,,wg-a,,,,AAXX 06124 07335 12675 /0202 10230 20120 30004 40142 58022 60006 81102 91200=
07335,1998-07-06 15:00:00,25,1012,-2.1,39,10,25000,7.408,,,340,,,,,,,,,,,wg-a,,,,AAXX 06154 07335 12675 /3404 10250 20100 39983 40120 58021 60006 81102 91500=
07335,1998-07-06 18:00:00,22,1010.5,-1.6,57,13,0,25.928,,,20,13.4,26.3,,,,,,,,,wg-a,,,,AAXX 06184 07335 12/// /0214 10220 20130 39967 40105 56016 60006 91800 333 10263 20134=
07335,1998-07-07 00:00:00,14,1012.5,1.1,88,12,0,7.408,,,330,,,,,,,,,,,wg-a,,,,AAXX 07004 07335 12/// /3304 10140 20120 39982 40125 52011 60006 90000=
07335,1998-07-07 06:00:00,13,1011.1,0.2,94,12,15000,14.816,,,340,11.4,22.4,,,,,,,,,wg-a,,,,AAXX 07064 07335 02265 53408 10130 20120 39968 40111 50002 60006 81632 90600 333 10224 20114 60004=
07335,1998-07-07 09:00:00,18,1012.2,1.4,73,13,11000,22.224,,,350,,,,,,,,,,,wg-a,,,,AAXX 07094 07335 12/61 /3512 10180 20130 39982 40122 51014 60006 90900=
07335,1998-07-07 12:00:00,20,1013.5,1.3,53,10,25000,18.52,,,330,,,,,,,,,,,wg-a,,,,AAXX 07124 07335 12675 73310 10200 20100 39995 40135 51013 60006 878// 91200=
07335,1998-07-07 15:00:00,20,1014.1,0.6,56,11,25000,22.224,,,330,,,,,,,,,,,wg-a,,,,AAXX 07154 07335 12675 73312 10200 20110 30001 40141 53006 60006 878// 91500=
07335,1998-07-07 18:00:00,20,1014.6,0.5,60,12,0,14.816,,,330,13.3,21.3,,,,,,,,,wg-a,,,,AAXX 07184 07335 12/// /3308 10200 20120 30006 40146 53005 60006 91800 333 10213 20133=
07335,1998-07-08 00:00:00,16,1017.3,0.5,88,14,0,7.408,,,330,,,,,,,,,,,wg-a,,,,AAXX 08004 07335 12/// /3304 10160 20140 30031 40173 51005 60006 90000=
07335,1998-07-08 06:00:00,14,1018,0.9,94,13,1500,18.52,,,340,12,20.3,,,,,,,,10,wg-a,,,,AAXX 08064 07335 02215 73410 10140 20130 30037 40180 53009 60006 71011 876// 90600 333 10203 20120 60004=
07335,1998-07-08 09:00:00,18,1018.6,0.8,73,13,7000,11.112,,,350,,,,,,,,,,,wg-a,,,,AAXX 08094 07335 12557 73506 10180 20130 30045 40186 51008 60006 878// 90900=
07335,1998-07-08 12:00:00,22,1018.2,-0.2,50,11,25000,18.52,,,310,,,,,,,,,,,wg-a,,,,AAXX 08124 07335 12675 /3110 10220 20110 30043 40182 58002 60006 85202 91200=
07335,1998-07-08 15:00:00,23,1018,-0.2,44,10,25000,18.52,,,310,,,,,,,,,,,wg-a,,,,AAXX 08154 07335 12775 53110 10230 20100 30041 40180 55002 60006 85202 91500=
07335,1998-07-08 18:00:00,21,1018.1,-0,46,9,0,18.52,,,330,13.5,23.6,,,,,,,,,wg-a,,,,AAXX 08184 07335 12/// /3310 10210 20090 30041 40181 55000 60006 91800 333 10236 20135=
07335,1998-07-09 00:00:00,13,1019.9,0.3,82,10,0,11.112,,,330,,,,,,,,,,,wg-a,,,,AAXX 09004 07335 12/// /3306 10130 20100 30055 40199 50003 60006 90000=
07335,1998-07-09 06:00:00,12,1019.9,0.4,94,11,20000,7.408,,,240,8.4,21.4,,,,,,,,,wg-a,,,,AAXX 09064 07335 02/70 02404 10120 20110 30054 40199 53004 60006 80000 90600 333 10214 20084 60004=
07335,1998-07-09 09:00:00,15,1020.4,0.7,88,13,10000,18.52,,,260,,,,,,,,,,,wg-a,,,,AAXX 09094 07335 12260 82610 10150 20130 30061 40204 53007 60006 876// 90900=
07335,1998-07-09 12:00:00,18,1019.8,-0.4,64,11,15000,18.52,,,260,,,,,,,,,,,wg-a,,,,AAXX 09124 07335 12565 82610 10180 20110 30057 40198 55004 60006 875// 91200=
07335,1998-07-09 15:00:00,20,1019.4,-0.4,53,10,25000,14.816,,,280,,,,,,,,,,,wg-a,,,,AAXX 09154 07335 12575 72808 10200 20100 30053 40194 58004 60006 875// 91500=
07335,1998-07-09 18:00:00,19,1019.1,-0.3,56,10,0,22.224,,,260,11.9,20.4,,,,,,,,,wg-a,,,,AAXX 09184 07335 12/// /2612 10190 20100 30050 40191 55003 60006 91800 333 10204 20119=
07335,1998-07-10 00:00:00,16,1019.6,-0.3,82,13,0,18.52,,,250,,,,,,,,,,,wg-a,,,,AAXX 10004 07335 12/// /2510 10160 20130 30054 40196 56003 60006 90000=
07335,1998-07-10 06:00:00,16,1018.5,-0.2,94,15,20000,14.816,,,250,14.4,19.3,,,,,,,,21,wg-a,,,,AAXX 10064 07335 02270 82508 10160 20150 30043 40185 56002 61000 72122 887// 90600 333 10193 20144 6000=
07335,1998-07-10 09:00:00,18,1018.8,0.4,83,15,20000,22.224,,,260,,,,,,,,,,,wg-a,,,,AAXX 10094 07335 12470 82612 10180 20150 30047 40188 50004 60006 885// 90900=
07335,1998-07-10 12:00:00,20,1019,0.3,78,16,25000,25.928,,,260,,,,,,,,,,1,wg-a,,,,AAXX 10124 07335 02475 72614 10200 20160 30050 40190 52003 61000 70152 878// 91200 333 6100=
07335,1998-07-10 15:00:00,23,1017.8,-1.1,61,15,500,22.224,,,240,,,,,,,,,,,wg-a,,,,AAXX 10154 07335 12500 72412 10230 20150 30039 40178 56011 60006 86802 91500=
07335,1998-07-10 18:00:00,19,1018.1,0.1,78,15,0,14.816,,,270,15.6,23.1,,,,,,,,,wg-a,,,,AAXX 10184 07335 32/// /2708 10190 20150 30040 40181 53001 91800 333 10231 20156=
07335,1998-07-11 00:00:00,17,1018.7,0,82,14,0,18.52,,,260,,,,,,,,,,,wg-a,,,,AAXX 11004 07335 12/// /2610 10170 20140 30045 40187 50000 60006 90000=
07335,1998-07-11 06:00:00,16,1019.1,0.5,88,14,20000,22.224,,,290,15.8,19.7,,,,,,,,1,wg-a,,,,AAXX 11064 07335 02370 72912 10160 20140 30049 40191 53005 60006 70162 875// 90600 333 10197 20158 60004=
07335,1998-07-11 09:00:00,18,1020,0.9,68,12,500,22.224,,,320,,,,,,,,,,,wg-a,,,,AAXX 11094 07335 12400 73212 10180 20120 30058 40200 51009 60006 878// 90900=
07335,1998-07-11 12:00:00,21,1019.7,-0.1,49,10,500,18.52,,,270,,,,,,,,,,,wg-a,,,,AAXX 11124 07335 12600 72710 10210 20100 30057 40197 58001 60006 84502 91200=
07335,1998-07-11 15:00:00,23,1018.9,-0.7,44,10,500,18.52,,,260,,,,,,,,,,,wg-a,,,,AAXX 11154 07335 12/00 72610 10230 20100 30050 40189 58007 60006 80002 91500=
07335,1998-07-11 18:00:00,22,1018.2,-0.7,57,13,0,25.928,,,260,15.9,24,,,,,,,,,wg-a,,,,AAXX 11184 07335 12/// /2614 10220 20130 30043 40182 56007 60006 91800 333 10240 20159=
07335,1998-07-12 00:00:00,14,1018.6,-0.6,88,12,0,11.112,,,230,,,,,,,,,,,wg-a,,,,AAXX 12004 07335 12/// /2306 10140 20120 30043 40186 57006 60006 90000=
07335,1998-07-12 06:00:00,16,1017.6,-0.3,94,15,3000,11.112,,,220,14.2,21.9,,,,,,,,51,wg-a,,,,AAXX 12064 07335 02130 82206 10160 20150 30034 40176 58003 61000 75152 877// 90600 333 10219 20142 6000=
07335,1998-07-12 09:00:00,18,1017.3,-0.2,88,16,12000,18.52,,,230,,,,0,,,,,,1,wg-a,,,,AAXX 12094 07335 12362 82310 10180 20160 30032 40173 57002 60007 70152 875// 90900=
07335,1998-07-12 12:00:00,22,1016.6,-0.5,65,15,20000,25.928,,,240,,,,,,,,,,1,wg-a,,,,AAXX 12124 07335 12570 72414 10220 20150 30027 40166 58005 60006 70152 875// 91200=
07335,1998-07-12 15:00:00,25,1015.2,-1.3,54,15,25000,29.632,,,260,,,,,,,,,,,wg-a,,,,AAXX 12154 07335 12675 32616 10250 20150 30014 40152 56013 60006 83100 91500=
07335,1998-07-12 18:00:00,22,1014.2,-1.1,60,14,0,29.632,,,260,15.6,24.9,,,,,,,,,wg-a,,,,AAXX 12184 07335 32/// /2616 10220 20140 30003 40142 56011 91800 333 10249 20156=
07335,1998-07-13 00:00:00,17,1013.3,-1.3,82,14,0,7.408,,,240,,,,,,,,,,,wg-a,,,,AAXX 13004 07335 12/// /2404 10170 20140 39992 40133 58013 60006 90000=
07335,1998-07-13 06:00:00,18,1012.1,0.4,83,15,20000,14.816,,,230,15.1,22.1,,,,,,,,,wg-a,,,,AAXX 13064 07335 02470 82308 10180 20150 39980 40121 50004 60006 885// 90600 333 10221 20151 60004=
07335,1998-07-13 09:00:00,19,1012,-0,78,15,25000,25.928,,,250,,,,,,,,,,,wg-a,,,,AAXX 13094 07335 12475 82514 10190 20150 39980 40120 54000 60006 885// 90900=
07335,1998-07-13 12:00:00,18,1012.5,0.5,94,17,25000,18.52,,,290,,,,3,,,,,,21,wg-a,,,,AAXX 13124 07335 02275 82910 10180 20170 39985 40125 51005 60036 72152 885// 91200 333 60037=
07335,1998-07-13 15:00:00,21,1014,1.5,56,12,500,18.52,,,330,,,,,,,,,,1,wg-a,,,,AAXX 13154 07335 02500 33310 10210 20120 30000 40140 51015 61000 70161 83800 91500 333 ////=
07335,1998-07-13 18:00:00,21,1014.3,0.4,43,8,0,18.52,,,320,17.5,22.2,,,,,,,,,wg-a,,,,AAXX 13184 07335 32/// /3210 10210 20080 30004 40143 53004 91800 333 10222 20175=
07335,1998-07-14 00:00:00,13,1017.6,0.8,88,11,0,14.816,,,330,,,,,,,,,,,wg-a,,,,AAXX 14004 07335 12/// /3308 10130 20110 30032 40176 51008 60006 90000=
07335,1998-07-14 06:00:00,11,1019,0.9,94,10,500,3.704,,,340,7.2,21.1,,,,,3,,,,wg-a,,,,AAXX 14064 07335 02800 13402 10110 20100 30045 40190 51009 60006 81530 90600 333 10211 20072 60034=
07335,1998-07-14 09:00:00,16,1019.5,0.8,63,9,500,14.816,,,310,,,,,,,,,,,wg-a,,,,AAXX 14094 07335 12500 23108 10160 20090 30053 40195 51008 60006 82200 90900=
07335,1998-07-14 12:00:00,19,1019,-0.4,43,6,500,14.816,,,310,,,,,,,,,,,wg-a,,,,AAXX 14124 07335 12600 43108 10190 20060 30049 40190 58004 60006 84200 91200=
07335,1998-07-14 15:00:00,20,1018.3,-0.7,37,5,500,14.816,,,320,,,,,,,,,,,wg-a,,,,AAXX 14154 07335 12700 63208 10200 20050 30042 40183 58007 60006 86800 91500=
07335,1998-07-14 18:00:00,19,1017.9,-0.4,46,7,0,7.408,,,300,10.8,21.5,,,,,,,,,wg-a,,,,AAXX 14184 07335 12/// /3004 10190 20070 30038 40179 55004 60006 91800 333 10215 20108=
07335,1998-07-15 00:00:00,12,1019.9,0.7,88,10,0,7.408,,,320,,,,,,,,,,,wg-a,,,,AAXX 15004 07335 12/// /3204 10120 20100 30054 40199 51007 60006 90000=
07335,1998-07-15 06:00:00,10,1020.4,0.8,100,10,20000,3.704,,,230,7.2,20,,,,,,,,,wg-a,,,,AAXX 15064 07335 02/70 22302 10100 20100 30058 40204 51008 60006 81032 90600 333 10200 20072 60004=
07335,1998-07-15 09:00:00,17,1020.4,0.4,52,7,25000,7.408,,,150,,,,,,,,,,,wg-a,,,,AAXX 15094 07335 12675 61504 10170 20070 30062 40204 50004 60006 84832 90900=
07335,1998-07-15 12:00:00,21,1019.6,-0.6,46,9,500,11.112,,,250,,,,,,,,,,,wg-a,,,,AAXX 15124 07335 12600 /2506 10210 20090 30056 40196 58006 60006 84202 91200=
07335,1998-07-15 15:00:00,23,1018.6,-0.9,38,8,500,14.816,,,260,,,,,,,,,,,wg-a,,,,AAXX 15154 07335 12700 62608 10230 20080 30047 40186 56009 60006 83202 91500=
07335,1998-07-15 18:00:00,21,1018.1,-0.6,43,8,0,18.52,,,290,10,23.1,,,,,,,,,wg-a,,,,AAXX 15184 07335 12/// /2910 10210 20080 30041 40181 56006 60006 91800 333 10231 20100=
07335,1998-07-16 00:00:00,15,1018.3,-0.6,72,10,0,11.112,,,250,,,,,,,,,,,wg-a,,,,AAXX 16004 07335 12/// /2506 10150 20100 30040 40183 56006 60006 90000=
07335,1998-07-16 06:00:00,15,1016.2,-0.4,82,12,500,14.816,,,220,14,20.8,,,,,,,,,wg-a,,,,AAXX 16064 07335 02600 72208 10150 20120 30020 40162 57004 60006 875// 90600 333 10208 20140 60004=
07335,1998-07-16 09:00:00,18,1016.2,0.1,73,13,11000,29.632,,,240,,,,,,,,,,,wg-a,,,,AAXX 16094 07335 32/61 /2416 10180 20130 30021 40162 50001 90900=
07335,1998-07-16 12:00:00,20,1016.2,0.1,73,15,500,29.632,,,230,,,,,,,,,,,wg-a,,,,AAXX 16124 07335 12400 82316 10200 20150 30022 40162 50001 60016 885// 91200=
07335,1998-07-16 18:00:00,20,1016.3,0.1,78,16,0,25.928,,,250,15.3,21.8,,,,,,,,,wg-a,,,,AAXX 16184 07335 32/// /2514 10200 20160 30023 40163 53001 91800 333 10218 20153=
07335,1998-07-17 00:00:00,16,1018.4,0.6,82,13,0,18.52,,,260,,,,,,,,,,,wg-a,,,,AAXX 17004 07335 12/// /2610 10160 20130 30042 40184 51006 60006 90000=
07335,1998-07-17 06:00:00,16,1018.3,0.3,88,14,25000,14.816,,,240,15.3,20.1,,,,,,,,,wg-a,,,,AAXX 17064 07335 02375 82408 10160 20140 30041 40183 51003 60006 885// 90600 333 10201 20153 60004=
07335,1998-07-17 09:00:00,18,1018.5,0.3,77,14,20000,25.928,,,250,,,,,,,,,,,wg-a,,,,AAXX 17094 07335 12470 82514 10180 20140 30044 40185 51003 60006 885// 90900=
07335,1998-07-17 12:00:00,21,1018,-0.4,69,15,25000,29.632,,,260,,,,,,,,,,,wg-a,,,,AAXX 17124 07335 12575 72616 10210 20150 30040 40180 55004 60006 878// 91200=
07335,1998-07-17 15:00:00,22,1017.8,-0.1,69,16,25000,22.224,,,260,,,,,,,,,,,wg-a,,,,AAXX 17154 07335 12575 72612 10220 20160 30039 40178 58001 60006 878// 91500=
07335,1998-07-17 18:00:00,21,1017.2,-0.6,73,16,0,25.928,,,260,16,22.2,,,,,,,,,wg-a,,,,AAXX 17184 07335 12/// /2614 10210 20160 30033 40172 58006 60006 91800 333 10222 20160=
07335,1998-07-18 00:00:00,17,1017.9,-0.5,100,17,0,14.816,,,240,,,,,,,,,,,wg-a,,,,AAXX 18004 07335 12/// /2408 10170 20170 30038 40179 57005 60036 90000=
07335,1998-07-18 06:00:00,17,1017.5,0.3,94,16,20000,3.704,,,250,16.1,21.3,,,,,3,,,,wg-a,,,,AAXX 18064 07335 02270 82502 10170 20160 30033 40175 50003 60006 885// 90600 333 10213 20161 60034=
07335,1998-07-18 09:00:00,20,1017.4,0.1,73,15,25000,7.408,,,250,,,,,,,,,,,wg-a,,,,AAXX 18094 07335 12475 72504 10200 20150 30034 40174 50001 60006 878// 90900=
07335,1998-07-18 12:00:00,23,1016.5,-0.8,61,15,500,11.112,,,270,,,,,,,,,,,wg-a,,,,AAXX 18124 07335 12500 72706 10230 20150 30026 40165 58008 60006 878// 91200=
07335,1998-07-18 15:00:00,25,1015.2,-1.1,54,15,500,14.816,,,280,,,,,,,,,,,wg-a,,,,AAXX 18154 07335 12600 52808 10250 20150 30015 40152 56011 60006 84201 91500=
07335,1998-07-18 18:00:00,24,1015.1,-0.2,57,15,0,18.52,,,330,16.6,26.3,,,,,,,,,wg-a,,,,AAXX 18184 07335 12/// /3310 10240 20150 30013 40151 55002 60006 91800 333 10263 20166=
07335,1998-07-19 00:00:00,16,1016.1,-0.2,88,14,0,7.408,,,110,,,,,,,,,,,wg-a,,,,AAXX 19004 07335 12/// /1104 10160 20140 30019 40161 58002 60006 90000=
07335,1998-07-19 06:00:00,18,1014,-0.8,73,13,500,11.112,,,100,12.5,24.4,,,,,,,,,wg-a,,,,AAXX 19064 07335 02/00 11006 10180 20130 39999 40140 56008 60006 81031 90600 333 10244 20125 60004=
07335,1998-07-19 09:00:00,24,1013.1,-0.5,57,15,500,3.704,,,60,,,,,,,,,,,wg-a,,,,AAXX 19094 07335 12/00 10602 10240 20150 39994 40131 58005 60006 80001 90900=
07335,1998-07-19 12:00:00,30,1011.7,-1.2,43,16,500,14.816,,,200,,,,,,,,,,,wg-a,,,,AAXX 19124 07335 12/00 12008 10300 20160 39982 40117 56012 60006 81081 91200=
07335,1998-07-19 15:00:00,33,1010.1,-1.4,34,15,500,22.224,,,230,,,,,,,,,,,wg-a,,,,AAXX 19154 07335 12700 22312 10330 20150 39968 40101 57014 60006 81131 91500=
07335,1998-07-19 18:00:00,32,1009.4,-0.7,41,17,0,14.816,,,280,17.7,33.7,,,,,,,,,wg-a,,,,AAXX 19184 07335 12/// /2808 10320 20170 39961 40094 56007 60006 91800 333 10337 20177=
07335,1998-07-20 00:00:00,19,1011.5,0.2,83,16,0,0,,,0,,,,,,,,,,,wg-a,,,,AAXX 20004 07335 12/// /0000 10190 20160 39975 40115 50002 60006 90000=
07335,1998-07-20 06:00:00,17,1010.5,-0.4,100,17,9000,0,,,0,15.5,32.2,,,,,,,,,wg-a,,,,AAXX 20064 07335 02/59 /0000 10170 20170 39965 40105 58004 60006 86080 90600 333 10322 20155 60004=
07335,1998-07-20 09:00:00,25,1008.9,-1.2,61,17,15000,14.816,,,180,,,,,,,,,,,wg-a,,,,AAXX 20094 07335 12665 71808 10250 20170 39953 40089 58012 60006 8138/ 90900=
07335,1998-07-20 12:00:00,32,1007,-1.6,34,14,15000,18.52,,,190,,,,,,,,,,,wg-a,,,,AAXX 20124 07335 12/65 31910 10320 20140 39937 40070 58016 60006 83080 91200=
07335,1998-07-20 15:00:00,35,1005,-1.9,20,9,20000,22.224,,,230,,,,,,,,,,,wg-a,,,,AAXX 20154 07335 12/70 12312 10350 20090 39918 40050 56019 60006 81080 91500=
07335,1998-07-20 18:00:00,32,1004.2,-0.9,36,15,0,22.224,,,270,17.2,35.3,,,,,,,,,wg-a,,,,AAXX 20184 07335 12/// /2712 10320 20150 39909 40042 56009 60006 91800 333 10353 20172=
07335,1998-07-21 00:00:00,17,1011.2,1.9,94,16,0,18.52,,,170,,,,8,,,,,,,wg-a,,,,AAXX 21004 07335 02/// /1710 10170 20160 39971 40112 53019 60116 90000 333 60087=
07335,1998-07-21 06:00:00,18,1012.7,1.9,88,16,15000,18.52,,,230,16.8,31.9,,,,,12,,,,wg-a,,,,AAXX 21064 07335 02465 72310 10180 20160 39987 40127 53019 60006 8588/ 90600 333 10319 20168 60124=
07335,1998-07-21 09:00:00,20,1014.5,1.8,73,15,500,18.52,,,250,,,,,,,,,,,wg-a,,,,AAXX 21094 07335 12400 42510 10200 20150 30005 40145 51018 60006 84200 90900=
07335,1998-07-21 12:00:00,23,1016,1.6,47,11,500,22.224,,,260,,,,,,,,,,,wg-a,,,,AAXX 21124 07335 12600 22612 10230 20110 30021 40160 53016 60006 82230 91200=
07335,1998-07-21 15:00:00,23,1016.7,0.7,50,12,500,25.928,,,270,,,,0,,,,,,,wg-a,,,,AAXX 21154 07335 12600 72714 10230 20120 30028 40167 51007 60007 878// 91500=
07335,1998-07-21 18:00:00,22,1017.2,0.5,46,10,0,22.224,,,270,17.6,23.6,,,,,,,,,wg-a,,,,AAXX 21184 07335 12/// /2712 10220 20100 30033 40172 53005 60006 91800 333 10236 20176=
07335,1998-07-22 00:00:00,14,1019.8,0.5,88,12,0,0,,,0,,,,,,,,,,,wg-a,,,,AAXX 22004 07335 12/// /0000 10140 20120 30054 40198 51005 60006 90000=
07335,1998-07-22 06:00:00,13,1019.5,-0.4,100,13,20000,3.704,,,170,9,22,,,,,,,,,wg-a,,,,AAXX 22064 07335 02/70 11702 10130 20130 30051 40195 58004 60006 80001 90600 333 10220 20090 60004=
07335,1998-07-22 09:00:00,21,1019.1,0,53,11,500,11.112,,,180,,,,,,,,,,,wg-a,,,,AAXX 22094 07335 12600 31806 10210 20110 30051 40191 50000 60006 81132 90900=
07335,1998-07-22 12:00:00,24,1017.8,-1.1,41,10,500,11.112,,,180,,,,,,,,,,,wg-a,,,,AAXX 22124 07335 12/00 61806 10240 20100 30040 40178 58011 60006 81032 91200=
07335,1998-07-22 15:00:00,26,1016.9,-0.9,34,9,500,14.816,,,250,,,,,,,,,,,wg-a,,,,AAXX 22154 07335 12/00 72508 10260 20090 30031 40169 56009 60006 81032 91500=
07335,1998-07-22 18:00:00,25,1016.4,-0.5,44,12,0,11.112,,,220,13.3,26.3,,,,,,,,,wg-a,,,,AAXX 22184 07335 12/// /2206 10250 20120 30026 40164 55005 60006 91800 333 10263 20133=
07335,1998-07-23 00:00:00,18,1017.2,0.6,88,16,0,14.816,,,260,,,,,,,,,,,wg-a,,,,AAXX 23004 07335 12/// /2608 10180 20160 30031 40172 51006 60006 90000=
07335,1998-07-23 06:00:00,17,1017.8,0.7,94,16,10000,7.408,,,230,15.9,25,,,,,,,,21,wg-a,,,,AAXX 23064 07335 02760 72304 10170 20160 30036 40178 53007 61000 72122 8159/ 90600 333 10250 20159 6100=
07335,1998-07-23 09:00:00,20,1018.1,0.5,73,15,20000,11.112,,,220,,,,1,,,,,,,wg-a,,,,AAXX 23094 07335 12470 82206 10200 20150 30041 40181 50005 60017 818// 90900=
07335,1998-07-23 12:00:00,24,1017.9,0,57,15,20000,11.112,,,280,,,,,,,,,,,wg-a,,,,AAXX 23124 07335 12670 72806 10240 20150 30041 40179 50000 60006 878// 91200=
07335,1998-07-23 15:00:00,26,1017.6,-0.3,51,15,20000,14.816,,,280,,,,,,,,,,,wg-a,,,,AAXX 23154 07335 12670 72808 10260 20150 30038 40176 58003 60006 878// 91500=
07335,1998-07-23 18:00:00,24,1018.4,0.7,57,15,0,14.816,,,280,16.8,25.9,,,,,,,,,wg-a,,,,AAXX 23184 07335 12/// /2808 10240 20150 30045 40184 53007 60006 91800 333 10259 20168=
07335,1998-07-24 00:00:00,18,1020,0.2,88,16,0,3.704,,,210,,,,,,,,,,,wg-a,,,,AAXX 24004 07335 12/// /2102 10180 20160 30058 40200 50002 60006 90000=
07335,1998-07-24 06:00:00,18,1019.8,0.2,100,18,8000,3.704,,,40,17.4,23.8,,,,,2,,,3,wg-a,,,,AAXX 24064 07335 02258 70402 10180 20180 30057 40198 53002 60006 70365 875// 90600 333 10238 20174 60024=
07335,1998-07-24 09:00:00,20,1020.2,0.5,83,17,15000,7.408,,,40,,,,,,,,,,,wg-a,,,,AAXX 24094 07335 12465 80404 10200 20170 30062 40202 51005 60006 885// 90900=
07335,1998-07-24 12:00:00,22,1020,-0.1,73,17,20000,3.704,,,20,,,,0,,,,,,25,wg-a,,,,AAXX 24124 07335 02570 70202 10220 20170 30061 40200 56001 60006 72552 878// 91200 333 60007=
07335,1998-07-24 15:00:00,24,1019.7,-0.3,57,15,20000,14.816,,,30,,,,,,,,,,,wg-a,,,,AAXX 24154 07335 12670 70308 10240 20150 30058 40197 57003 60006 878// 91500=
07335,1998-07-24 18:00:00,24,1019.5,-0.2,57,15,0,14.816,,,360,18.4,24.6,,,,,,,,,wg-a,,,,AAXX 24184 07335 32/// /3608 10240 20150 30056 40195 56002 91800 333 10246 20184=
07335,1998-07-25 00:00:00,18,1021.3,0.1,73,13,0,14.816,,,10,,,,,,,,,,,wg-a,,,,AAXX 25004 07335 12/// /0108 10180 20130 30071 40213 51001 60006 90000=
07335,1998-07-25 06:00:00,15,1021.7,0.3,72,10,20000,11.112,,,20,12.9,23.9,,,,,,,,,wg-a,,,,AAXX 25064 07335 02670 /0206 10150 20100 30074 40217 53003 60006 81201 90600 333 10239 20129 60004=
07335,1998-07-25 09:00:00,21,1021.3,-0.1,56,12,20000,14.816,,,60,,,,,,,,,,,wg-a,,,,AAXX 25094 07335 12670 /0608 10210 20120 30073 40213 58001 60006 81100 90900=
07335,1998-07-25 12:00:00,25,1020.2,-0.9,44,12,20000,18.52,,,100,,,,,,,,,,,wg-a,,,,AAXX 25124 07335 12770 31010 10250 20120 30064 40202 58009 60006 83131 91200=
07335,1998-07-25 15:00:00,26,1019.1,-1.1,39,11,20000,11.112,,,30,,,,,,,,,,,wg-a,,,,AAXX 25154 07335 12770 40306 10260 20110 30053 40191 57011 60006 83202 91500=
07335,1998-07-25 18:00:00,26,1017.8,-1.3,39,11,0,18.52,,,40,14.9,26.8,,,,,,,,,wg-a,,,,AAXX 25184 07335 12/// /0410 10260 20110 30040 40178 56013 60006 91800 333 10268 20149=
07335,1998-07-26 00:00:00,14,1017.8,-0.7,82,11,0,3.704,,,360,,,,,,,,,,,wg-a,,,,AAXX 26004 07335 12/// /3602 10140 20110 30035 40178 58007 60006 90000=
07335,1998-07-26 06:00:00,15,1016.2,-0.8,72,10,20000,3.704,,,30,10.9,25.7,,,,,,,,,wg-a,,,,AAXX 26064 07335 02/70 50302 10150 20100 30019 40162 56008 60006 81082 90600 333 10257 20109 60004=
07335,1998-07-26 09:00:00,23,1015.1,-0.7,44,10,20000,3.704,,,80,,,,,,,,,,,wg-a,,,,AAXX 26094 07335 12/70 60802 10230 20100 30012 40151 56007 60006 80002 90900=
07335,1998-07-26 12:00:00,27,1014,-0.9,32,9,20000,3.704,,,340,,,,,,,,,,,wg-a,,,,AAXX 26124 07335 12570 /3402 10270 20090 30003 40140 58009 60006 81182 91200=
07335,1998-07-26 15:00:00,26,1013,-1,39,11,20000,7.408,,,200,,,,,,,,,,,wg-a,,,,AAXX 26154 07335 12770 72004 10260 20110 39993 40130 56010 60006 8118/ 91500=
07335,1998-07-26 18:00:00,26,1012,-1,39,11,0,11.112,,,100,14.6,27.4,,,,,,,,,wg-a,,,,AAXX 26184 07335 12/// /1006 10260 20110 39983 40120 58010 60006 91800 333 10274 20146=
07335,1998-07-27 00:00:00,19,1012.7,-0.5,83,16,0,11.112,,,220,,,,,,,,,,,wg-a,,,,AAXX 27004 07335 12/// /2206 10190 20160 39987 40127 58005 60006 90000=
07335,1998-07-27 06:00:00,17,1012.9,0.9,63,10,25000,18.52,,,280,16,25.8,,,,,,,,,wg-a,,,,AAXX 27064 07335 02675 62810 10170 20100 39988 40129 51009 60006 82582 90600 333 10258 20160 60004=
07335,1998-07-27 09:00:00,21,1013.9,1.2,60,13,25000,14.816,,,300,,,,,,,,,,,wg-a,,,,AAXX 27094 07335 12575 53008 10210 20130 30000 40139 51012 60006 82840 90900=
07335,1998-07-27 12:00:00,23,1014.4,0.6,53,13,25000,18.52,,,310,,,,,,,,,,,wg-a,,,,AAXX 27124 07335 12675 73110 10230 20130 30006 40144 50006 60006 83852 91200=
07335,1998-07-27 15:00:00,24,1014.6,0.2,50,13,25000,22.224,,,280,,,,,,,,,,,wg-a,,,,AAXX 27154 07335 12675 72812 10240 20130 30008 40146 53002 60006 91500=
07335,1998-07-27 18:00:00,22,1015.5,0.8,50,11,0,18.52,,,320,16,25,,,,,,,,,wg-a,,,,AAXX 27184 07335 12/// /3210 10220 20110 30016 40155 53008 60006 91800 333 10250 20160=
07335,1998-07-28 00:00:00,15,1018.4,0.7,82,12,0,11.112,,,280,,,,,,,,,,,wg-a,,,,AAXX 28004 07335 12/// /2806 10150 20120 30041 40184 51007 60006 90000=
07335,1998-07-28 06:00:00,14,1018.1,0.1,94,13,500,14.816,,,240,12.2,22.4,,,,,,,,,wg-a,,,,AAXX 28064 07335 02200 72408 10140 20130 30038 40181 50001 60006 81632 90600 333 10224 20122 60004=
07335,1998-07-28 09:00:00,19,1017.9,0,68,13,10000,18.52,,,230,,,,,,,,,,,wg-a,,,,AAXX 28094 07335 12360 72310 10190 20130 30038 40179 50000 60006 84832 90900=
07335,1998-07-28 12:00:00,20,1017.2,-0.6,60,12,8000,29.632,,,250,,,,,,,,,,60,wg-a,,,,AAXX 28124 07335 02558 82516 10200 20120 30032 40172 56006 61000 76062 8687/ 91200 333 6100=
07335,1998-07-28 15:00:00,17,1015.8,-1.5,88,15,8000,29.632,,,230,,,,0,,,,,,61,wg-a,,,,AAXX 28154 07335 12458 82316 10170 20150 30017 40158 56015 60007 76162 878// 91500=
07335,1998-07-28 18:00:00,18,1014.6,-1.2,94,17,0,22.224,,,230,13.9,20.7,,0,,,,,,,wg-a,,,,AAXX 28184 07335 12/// /2312 10180 20170 30005 40146 56012 60007 91800 333 10207 20139=
07335,1998-07-29 00:00:00,17,1015.6,0,88,15,0,14.816,,,270,,,,,,,,,,,wg-a,,,,AAXX 29004 07335 12/// /2708 10170 20150 30015 40156 50000 60006 90000=
07335,1998-07-29 06:00:00,16,1016.2,0.5,82,13,15000,18.52,,,270,15.3,18.4,,,,,,,,1,wg-a,,,,AAXX 29064 07335 02565 72710 10160 20130 30020 40162 53005 60006 70152 875// 90600 333 10184 20153 60004=
07335,1998-07-29 09:00:00,17,1017.1,0.9,72,12,20000,18.52,,,270,,,,,,,,,,,wg-a,,,,AAXX 29094 07335 12570 82710 10170 20120 30029 40171 51009 60006 885// 90900=
07335,1998-07-29 12:00:00,21,1016.2,-0.7,56,12,25000,29.632,,,250,,,,,,,,,,,wg-a,,,,AAXX 29124 07335 12575 72516 10210 20120 30022 40162 58007 60006 875// 91200=
07335,1998-07-29 15:00:00,23,1014.5,-1.5,53,13,500,31.484,,,250,,,,,,,,,,,wg-a,,,,AAXX 29154 07335 12600 /2517 10230 20130 30007 40145 56015 60006 86500 91500=
07335,1998-07-29 18:00:00,20,1014.6,-0.1,68,14,0,25.928,,,260,15.6,24.1,,,,,,,,,wg-a,,,,AAXX 29184 07335 12/// /2614 10200 20140 30006 40146 55001 60006 91800 333 10241 20156=
07335,1998-07-30 00:00:00,17,1014.5,-0.6,94,16,0,14.816,,,220,,,,,,,,,,,wg-a,,,,AAXX 30004 07335 12/// /2208 10170 20160 30004 40145 58006 60006 90000=
07335,1998-07-30 06:00:00,15,1014.2,0.9,94,14,3500,11.112,,,310,15,20.4,,,,,,,,51,wg-a,,,,AAXX 30064 07335 02335 83106 10150 20140 30000 40142 53009 61000 75165 885// 90600 333 10204 20150 6002=
07335,1998-07-30 09:00:00,15,1015.3,1.1,88,13,2500,14.816,,,290,,,,2,,,,,,61,wg-a,,,,AAXX 30094 07335 12425 82908 10150 20130 30011 40153 53011 60027 76165 885// 90900=
07335,1998-07-30 12:00:00,21,1014.8,-0.3,53,11,20000,14.816,,,320,,,,0,,,,,,1,wg-a,,,,AAXX 30124 07335 02570 53208 10210 20110 30008 40148 58003 60026 70165 85800 91200 333 60007=
07335,1998-07-30 18:00:00,22,1014.3,-0.1,46,10,0,18.52,,,280,14.2,23.5,,,,,,,,,wg-a,,,,AAXX 30184 07335 32/// /2810 10220 20100 30004 40143 55001 91800 333 10235 20142=
07335,1998-07-31 00:00:00,12,1017.5,0.9,88,10,0,11.112,,,260,,,,,,,,,,,wg-a,,,,AAXX 31004 07335 12/// /2606 10120 20100 30031 40175 51009 60006 90000=
07335,1998-07-31 06:00:00,12,1018.2,0.7,94,11,3500,7.408,,,250,8.5,21.6,,,,,2,,,,wg-a,,,,AAXX 31064 07335 02235 72504 10120 20110 30038 40182 53007 60006 876// 90600 333 10216 20085 60024=
07335,1998-07-31 09:00:00,17,1018.6,0.6,72,12,15000,11.112,,,300,,,,,,,,,,,wg-a,,,,AAXX 31094 07335 12565 73006 10170 20120 30044 40186 51006 60006 86201 90900=
07335,1998-07-31 12:00:00,21,1018,-0.4,46,9,20000,14.816,,,310,,,,,,,,,,,wg-a,,,,AAXX 31124 07335 12670 /3108 10210 20090 30040 40180 58004 60006 86201 91200=
07335,1998-07-31 15:00:00,23,1017.4,-0.5,41,9,20000,3.704,,,230,,,,,,,,,,,wg-a,,,,AAXX 31154 07335 12670 72302 10230 20090 30035 40174 58005 60006 874// 91500=
07335,1998-07-31 18:00:00,22,1017.2,-0.2,43,9,0,3.704,,,30,11.7,22.6,,,,,,,,,wg-a,,,,AAXX 31184 07335 12/// /0302 10220 20090 30033 40172 58002 60006 91800 333 10226 20117=
07335,1998-08-01 00:00:00,15,1017.6,-0.7,82,12,0,11.112,,,320,,,,,,,,,,,wg-a,,,,AAXX 01004 07335 12/// /3206 10150 20120 30033 40176 58007 60006 90000=
07335,1998-08-01 06:00:00,13,1016.4,-0.3,94,12,15000,3.704,,,330,12.2,22.1,,,,,,,,,wg-a,,,,AAXX 01064 07335 02765 73302 10130 20120 30020 40164 56003 60006 82532 90600 333 10221 20122 60004=
07335,1998-08-01 09:00:00,13,1016.4,-0.3,94,12,15000,3.704,,,330,12.2,22.1,,,,,,,,,wg-a,,,,AAXX 01094 07335 02765 73302 10130 20120 30020 40164 56003 60006 82532 90900 333 10221 20122 60004=
07335,1998-08-01 12:00:00,22,1015.3,-0.7,46,10,25000,3.704,,,120,,,,,,,,,,,wg-a,,,,AAXX 01124 07335 12675 51202 10220 20100 30014 40153 58007 60006 84282 91200=
07335,1998-08-01 15:00:00,23,1015.3,-0,44,10,20000,11.112,,,200,,,,,,,,,,,wg-a,,,,AAXX 01154 07335 12670 62006 10230 20100 30014 40153 55000 60006 84282 91500=
07335,1998-08-01 18:00:00,18,1016.6,1.1,64,11,0,11.112,,,60,12.7,23.5,,,,,,,,,wg-a,,,,AAXX 01184 07335 12/// /0606 10180 20110 30025 40166 53011 60006 91800 333 10235 20127=
07335,1998-08-02 00:00:00,14,1017.9,0.1,94,13,0,3.704,,,290,,,,,,,,,,,wg-a,,,,AAXX 02004 07335 12/// /2902 10140 20130 30036 40179 50001 60036 90000=
07335,1998-08-02 06:00:00,12,1019,0.9,100,12,9000,3.704,,,200,10.1,18.1,,,,,3,,,,wg-a,,,,AAXX 02064 07335 02859 52002 10120 20120 30046 40190 53009 60006 83580 90600 333 10181 20101 60034=
07335,1998-08-02 09:00:00,15,1019.9,1,88,13,7000,14.816,,,50,,,,0,,,,,,,wg-a,,,,AAXX 02094 07335 12257 70508 10150 20130 30056 40199 53010 60007 871// 90900=
07335,1998-08-02 12:00:00,20,1019.7,0,60,12,25000,11.112,,,50,,,,,,,,,,,wg-a,,,,AAXX 02124 07335 12575 /0506 10200 20120 30056 40197 50000 60006 8523/ 91200=
07335,1998-08-02 15:00:00,21,1019.6,-0,53,11,20000,25.928,,,10,,,,,,,,,,,wg-a,,,,AAXX 02154 07335 12670 70114 10210 20110 30056 40196 55000 60006 8639/ 91500=
07335,1998-08-02 18:00:00,19,1020.9,1.2,64,12,0,3.704,,,80,11.9,23,,,,,,,,,wg-a,,,,AAXX 02184 07335 32/// /0802 10190 20120 30068 40209 53012 91800 333 10230 20119=
07335,1998-08-03 00:00:00,12,1023.7,1.1,94,11,0,0,,,0,,,,,,,,,,,wg-a,,,,AAXX 03004 07335 12/// /0000 10120 20110 30092 40237 51011 60006 90000=
07335,1998-08-03 06:00:00,12,1025.3,0.9,100,12,3500,3.704,,,340,9.9,19.7,,,,,,,,10,wg-a,,,,AAXX 03064 07335 02/35 03402 10120 20120 30108 40253 51009 60006 71090 80000 90600 333 10197 20099 60004=
07335,1998-08-03 09:00:00,19,1026.1,1.1,73,14,10000,11.112,,,320,,,,,,,,,,,wg-a,,,,AAXX 03094 07335 12/60 33206 10190 20140 30119 40261 53011 60006 80002 90900=
07335,1998-08-03 12:00:00,23,1025.7,-0.2,44,10,20000,14.816,,,340,,,,,,,,,,,wg-a,,,,AAXX 03124 07335 12670 /3408 10230 20100 30117 40257 58002 60006 82202 91200=
07335,1998-08-03 15:00:00,25,1024.4,-1.2,36,9,20000,14.816,,,340,,,,,,,,,,,wg-a,,,,AAXX 03154 07335 12770 53408 10250 20090 30105 40244 57012 60006 82202 91500=
07335,1998-08-03 18:00:00,25,1024,-0.4,39,10,0,18.52,,,300,12.1,25.6,,,,,,,,,wg-a,,,,AAXX 03184 07335 12/// /3010 10250 20100 30101 40240 55004 60006 91800 333 10256 20121=
07335,1998-08-04 00:00:00,16,1026.8,0.8,77,12,0,11.112,,,300,,,,,,,,,,,wg-a,,,,AAXX 04004 07335 12/// /3006 10160 20120 30124 40268 53008 60006 90000=
07335,1998-08-04 06:00:00,15,1026.4,0.2,94,14,10000,11.112,,,240,12.9,24.6,,,,,,,,20,wg-a,,,,AAXX 04064 07335 02260 82406 10150 20140 30120 40264 51002 61000 72052 887// 90600 333 10246 20129 6000=
07335,1998-08-04 09:00:00,19,1026.6,0.4,88,17,15000,14.816,,,260,,,,,,,,,,,wg-a,,,,AAXX 04094 07335 12365 82608 10190 20170 30124 40266 51004 60006 886// 90900=
07335,1998-08-04 12:00:00,19,1027.4,0.8,94,18,8000,14.816,,,270,,,,1,,,,,,51,wg-a,,,,AAXX 04124 07335 02258 82708 10190 20180 30132 40274 50008 60016 75152 887// 91200 333 60017=
07335,1998-08-04 18:00:00,21,1027.4,0.2,83,18,0,11.112,,,350,15,21.4,,,,,,,,,wg-a,,,,AAXX 04184 07335 32/// /3506 10210 20180 30133 40274 53002 91800 333 10214 20150=
07335,1998-08-05 00:00:00,15,1029.7,0.6,88,13,0,14.816,,,20,,,,,,,,,,,wg-a,,,,AAXX 05004 07335 12/// /0208 10150 20130 30153 40297 53006 60006 90000=
07335,1998-08-05 06:00:00,12,1030.5,0.6,94,11,12000,11.112,,,360,10.3,21.1,,,,,2,,,,wg-a,,,,AAXX 05064 07335 02/62 13606 10120 20110 30159 40305 52006 60006 80002 90600 333 10211 20103 60024=
07335,1998-08-05 09:00:00,19,1031.1,0.9,64,12,18000,14.816,,,50,,,,,,,,,,,wg-a,,,,AAXX 05094 07335 12/68 10508 10190 20120 30168 40311 51009 60006 80002 90900=
07335,1998-08-05 12:00:00,24,1030.1,-0.7,44,11,25000,25.928,,,30,,,,,,,,,,,wg-a,,,,AAXX 05124 07335 12/75 10314 10240 20110 30161 40301 58007 60006 80002 91200=
07335,1998-08-05 15:00:00,26,1028.5,-1.5,37,10,25000,25.928,,,30,,,,,,,,,,,wg-a,,,,AAXX 05154 07335 12/75 00314 10260 20100 30146 40285 57015 60006 80000 91500=
07335,1998-08-05 18:00:00,26,1027.3,-1.2,34,9,0,22.224,,,40,11.8,26.3,,,,,,,,,wg-a,,,,AAXX 05184 07335 12/// /0412 10260 20090 30134 40273 58012 60006 91800 333 10263 20118=
07335,1998-08-06 00:00:00,13,1027.8,-0.7,82,10,0,7.408,,,340,,,,,,,,,,,wg-a,,,,AAXX 06004 07335 12/// /3404 10130 20100 30133 40278 58007 60006 90000=
07335,1998-08-06 06:00:00,13,1027.3,-0,88,11,20000,3.704,,,350,9.9,25.7,,,,,,,,,wg-a,,,,AAXX 06064 07335 02/70 03502 10130 20110 30128 40273 55000 60006 80000 90600 333 10257 20099 60004=
07335,1998-08-06 09:00:00,22,1026.7,-0.2,53,12,20000,11.112,,,70,,,,,,,,,,,wg-a,,,,AAXX 06094 07335 12/70 10706 10220 20120 30126 40267 58002 60006 80002 90900=
07335,1998-08-06 12:00:00,27,1025.1,-1.3,34,10,20000,22.224,,,50,,,,,,,,,,,wg-a,,,,AAXX 06124 07335 12/70 10512 10270 20100 30113 40251 58013 60006 80002 91200=
07335,1998-08-06 15:00:00,29,1023.5,-1.5,29,9,20000,22.224,,,40,,,,,,,,,,,wg-a,,,,AAXX 06154 07335 12/70 20412 10290 20090 30098 40235 56015 60006 80002 91500=
07335,1998-08-06 18:00:00,28,1022.7,-0.8,27,7,0,18.52,,,40,13,29.1,,,,,,,,,wg-a,,,,AAXX 06184 07335 12/// /0410 10280 20070 30090 40227 56008 60006 91800 333 10291 20130=
07335,1998-08-07 00:00:00,14,1023,-0.9,77,10,0,3.704,,,350,,,,,,,,,,,wg-a,,,,AAXX 07004 07335 12/// /3502 10140 20100 30086 40230 58009 60006 90000=
07335,1998-08-07 06:00:00,13,1022.9,-0,82,10,20000,7.408,,,350,10.3,28.2,,,,,,,,,wg-a,,,,AAXX 07064 07335 02/70 13504 10130 20100 30084 40229 55000 60006 80001 90600 333 10282 20103 60004=
07335,1998-08-07 09:00:00,24,1022.2,-0.1,44,11,20000,11.112,,,60,,,,,,,,,,,wg-a,,,,AAXX 07094 07335 12/70 00606 10240 20110 30083 40222 58001 60006 80000 90900=
07335,1998-08-07 12:00:00,29,1020.8,-1.2,29,9,20000,18.52,,,80,,,,,,,,,,,wg-a,,,,AAXX 07124 07335 12/70 10810 10290 20090 30071 40208 58012 60006 80002 91200=
07335,1998-08-07 15:00:00,32,1018.8,-1.8,24,9,20000,18.52,,,90,,,,,,,,,,,wg-a,,,,AAXX 07154 07335 12/70 00910 10320 20090 30053 40188 58018 60006 80000 91500=
07335,1998-08-07 18:00:00,31,1018.1,-0.7,24,8,0,14.816,,,80,13,32.2,,,,,,,,,wg-a,,,,AAXX 07184 07335 12/// /0808 10310 20080 30046 40181 56007 60006 91800 333 10322 20130=
07335,1998-08-08 00:00:00,15,1018.3,-0.7,77,11,0,3.704,,,340,,,,,,,,,,,wg-a,,,,AAXX 08004 07335 12/// /3402 10150 20110 30040 40183 58007 60006 90000=
07335,1998-08-08 09:00:00,27,1016.2,-0.3,45,14,15000,7.408,,,170,,,,,,,,,,,wg-a,,,,AAXX 08094 07335 12/65 01704 10270 20140 30025 40162 58003 60006 80000 90900=
07335,1998-08-08 12:00:00,33,1015.3,-0.6,20,7,25000,7.408,,,220,,,,,,,,,,,wg-a,,,,AAXX 08124 07335 12/75 02204 10330 20070 30019 40153 58006 60006 80000 91200=
07335,1998-08-08 15:00:00,35,1014,-1.2,17,6,25000,11.112,,,210,,,,,,,,,,,wg-a,,,,AAXX 08154 07335 12/75 02106 10350 20060 30007 40140 58012 60006 80000 91500=
07335,1998-08-08 18:00:00,34,1013.6,-0.5,18,6,0,7.408,,,230,13.3,35,,,,,,,,,wg-a,,,,AAXX 08184 07335 12/// /2304 10340 20060 30002 40136 56005 60006 91800 333 10350 20133=
07335,1998-08-09 00:00:00,16,1015.1,-0.2,82,13,0,0,,,0,,,,,,,,,,,wg-a,,,,AAXX 09004 07335 12/// /0000 10160 20130 30009 40151 58002 60006 90000=
07335,1998-08-09 06:00:00,15,1015.2,0.3,94,14,15000,3.704,,,190,13.3,33.5,,,,,,,,,wg-a,,,,AAXX 09064 07335 02/65 11902 10150 20140 30010 40152 53003 60006 80001 90600 333 10335 20133 60004=
07335,1998-08-09 09:00:00,28,1014.8,0.2,42,14,20000,14.816,,,200,,,,,,,,,,,wg-a,,,,AAXX 09094 07335 12/70 02008 10280 20140 30012 40148 51002 60006 80000 90900=
07335,1998-08-09 12:00:00,34,1013.9,-0.6,32,15,20000,7.408,,,160,,,,,,,,,,,wg-a,,,,AAXX 09124 07335 12/70 01604 10340 20150 30006 40139 58006 60006 80000 91200=
07335,1998-08-09 15:00:00,36,1012.7,-1.2,22,11,20000,7.408,,,210,,,,,,,,,,,wg-a,,,,AAXX 09154 07335 12/70 02104 10360 20110 39994 40127 58012 60006 80000 91500=
07335,1998-08-09 18:00:00,35,1012,-0.7,23,11,0,7.408,,,200,15.5,36.7,,,,,,,,,wg-a,,,,AAXX 09184 07335 12/// /2004 10350 20110 39987 40120 57007 60006 91800 333 10367 20155=
07335,1998-08-10 00:00:00,19,1014.3,0.2,73,14,0,7.408,,,250,,,,,,,,,,,wg-a,,,,AAXX 10004 07335 12/// /2504 10190 20140 30003 40143 50002 60006 90000=
07335,1998-08-10 06:00:00,16,1015.4,0.9,88,14,20000,7.408,,,250,15.2,34.5,,,,,,,,,wg-a,,,,AAXX 10064 07335 02/70 12504 10160 20140 30012 40154 52009 60006 81030 90600 333 10345 20152 60004=
07335,1998-08-10 12:00:00,36,1015.5,0,19,9,20000,11.112,,,220,,,,,,,,,,,wg-a,,,,AAXX 10124 07335 12/70 02206 10360 20090 30022 40155 50000 60006 80000 91200=
07335,1998-08-10 15:00:00,37,1014.6,-0.8,24,13,20000,11.112,,,230,,,,,,,,,,,wg-a,,,,AAXX 10154 07335 12/70 02306 10370 20130 30014 40146 58008 60006 80000 91500=
07335,1998-08-10 18:00:00,36,1014.7,-0,31,16,0,7.408,,,270,16.4,37.2,,,,,,,,,wg-a,,,,AAXX 10184 07335 12/// /2704 10360 20160 30014 40147 55000 60006 91800 333 10372 20164=
07335,1998-08-11 00:00:00,22,1017.3,0.6,69,16,0,3.704,,,280,,,,,,,,,,,wg-a,,,,AAXX 11004 07335 12/// /2802 10220 20160 30034 40173 52006 60006 90000=
07335,1998-08-11 06:00:00,19,1017.8,0.8,83,16,20000,3.704,,,200,17,35.5,,,,,,,,,wg-a,,,,AAXX 11064 07335 02/70 12002 10190 20160 30037 40178 53008 60006 80001 90600 333 10355 20170 60004=
07335,1998-08-11 09:00:00,29,1018.1,0.8,40,14,20000,11.112,,,230,,,,,,,,,,,wg-a,,,,AAXX 11094 07335 12/70 02306 10290 20140 30045 40181 51008 60006 80000 90900=
07335,1998-08-11 12:00:00,34,1017.3,-0.6,25,11,25000,11.112,,,250,,,,,,,,,,,wg-a,,,,AAXX 11124 07335 12/75 02506 10340 20110 30039 40173 58006 60006 80000 91200=
07335,1998-08-11 15:00:00,35,1016.4,-0.8,28,14,25000,14.816,,,250,,,,,,,,,,,wg-a,,,,AAXX 11154 07335 12/75 12508 10350 20140 30031 40164 56008 60006 81030 91500=
07335,1998-08-11 18:00:00,33,1016.2,-0.3,34,15,0,11.112,,,270,18.5,35.3,,,,,,,,,wg-a,,,,AAXX 11184 07335 12/// /2706 10330 20150 30028 40162 57003 60006 91800 333 10353 20185=
07335,1998-08-12 00:00:00,22,1017.2,-0.4,69,16,0,3.704,,,300,,,,,,,,,,,wg-a,,,,AAXX 12004 07335 12/// /3002 10220 20160 30033 40172 57004 60006 90000=
07335,1998-08-12 06:00:00,20,1017.2,-0.1,83,17,10000,11.112,,,350,19.7,32.9,,,,,,,,,wg-a,,,,AAXX 12064 07335 02/60 63506 10200 20170 30032 40172 55001 60006 85032 90600 333 10329 20197 60004=
07335,1998-08-12 09:00:00,25,1017.7,0.7,57,16,12000,11.112,,,360,,,,,,,,,,,wg-a,,,,AAXX 12094 07335 12/62 33606 10250 20160 30039 40177 53007 60006 82032 90900=
07335,1998-08-12 12:00:00,29,1017.2,-0.3,43,15,15000,14.816,,,350,,,,,,,,,,,wg-a,,,,AAXX 12124 07335 12/65 53508 10290 20150 30036 40172 58003 60006 81082 91200=
07335,1998-08-12 18:00:00,25,1017.4,0.1,44,12,0,22.224,,,20,19.9,29.7,,,,,,,,,wg-a,,,,AAXX 12184 07335 12/// /0212 10250 20120 30036 40174 53001 60006 91800 333 10297 20199=
07335,1998-08-13 00:00:00,17,1019.8,0.9,63,10,0,14.816,,,10,,,,,,,,,,,wg-a,,,,AAXX 13004 07335 12/// /0108 10170 20100 30056 40198 53009 60006 90000=
07335,1998-08-13 06:00:00,13,1020.1,0.2,88,11,15000,11.112,,,350,12.3,24.6,,,,,,,,,wg-a,,,,AAXX 13064 07335 02/65 13506 10130 20110 30057 40201 53002 60006 80001 90600 333 10246 20123 60004=
07335,1998-08-13 09:00:00,19,1020.4,0.6,60,11,20000,14.816,,,30,,,,,,,,,,,wg-a,,,,AAXX 13094 07335 12/70 10308 10190 20110 30063 40204 50006 60006 80002 90900=
07335,1998-08-13 12:00:00,24,1019.4,-0.8,34,7,20000,11.112,,,30,,,,,,,,,,,wg-a,,,,AAXX 13124 07335 12/70 20306 10240 20070 30055 40194 58008 60006 80002 91200=
07335,1998-08-13 15:00:00,25,1018.4,-0.9,32,7,20000,18.52,,,360,,,,,,,,,,,wg-a,,,,AAXX 13154 07335 12/70 33610 10250 20070 30046 40184 57009 60006 80002 91500=
07335,1998-08-13 18:00:00,24,1017.4,-1.1,31,6,0,14.816,,,10,13.2,25.7,,,,,,,,,wg-a,,,,AAXX 13184 07335 12/// /0108 10240 20060 30035 40174 56011 60006 91800 333 10257 20132=
07335,1998-08-14 00:00:00,13,1018.8,0,72,8,0,11.112,,,340,,,,,,,,,,,wg-a,,,,AAXX 14004 07335 12/// /3406 10130 20080 30044 40188 50000 60006 90000=
07335,1998-08-14 06:00:00,11,1017.7,-0.1,87,9,20000,3.704,,,340,9.8,24.1,,,,,,,,,wg-a,,,,AAXX 14064 07335 02/70 33402 10110 20090 30032 40177 55001 60006 80001 90600 333 10241 20098 60004=
07335,1998-08-14 09:00:00,21,1016.4,-0.8,46,9,20000,7.408,,,70,,,,,,,,,,,wg-a,,,,AAXX 14094 07335 12/70 30704 10210 20090 30024 40164 57008 60006 80001 90900=
07335,1998-08-14 12:00:00,26,1014.7,-1.4,28,6,25000,14.816,,,70,,,,,,,,,,,wg-a,,,,AAXX 14124 07335 12/75 40708 10260 20060 30010 40147 58014 60006 80001 91200=
07335,1998-08-14 15:00:00,28,1013,-1.6,23,5,25000,11.112,,,70,,,,,,,,,,,wg-a,,,,AAXX 14154 07335 12/75 40706 10280 20050 39994 40130 58016 60006 80001 91500=
07335,1998-08-15 06:00:00,12,1014.4,0.9,88,10,20000,0,,,0,10,27.6,,,,,,,,,wg-a,,,,AAXX 15064 07335 02/70 60000 10120 20100 30000 40144 52009 60006 80002 90600 333 10276 20100 60004=
07335,1998-08-15 09:00:00,24,1014.8,1,41,10,20000,3.704,,,30,,,,,,,,,,,wg-a,,,,AAXX 15094 07335 12/70 20302 10240 20100 30010 40148 51010 60006 80001 90900=
07335,1998-08-15 12:00:00,29,1015.1,0.5,25,7,20000,3.704,,,360,,,,,,,,,,,wg-a,,,,AAXX 15124 07335 12/70 73602 10290 20070 30015 40151 51005 60006 80002 91200=
07335,1998-08-15 15:00:00,31,1014.9,-0.1,22,7,20000,11.112,,,240,,,,,,,,,,,wg-a,,,,AAXX 15154 07335 12/70 72406 10310 20070 30014 40149 57001 60006 80002 91500=
07335,1998-08-15 18:00:00,29,1015.3,0.3,29,9,0,11.112,,,270,11.8,31.2,,,,,,,,,wg-a,,,,AAXX 15184 07335 12/// /2706 10290 20090 30017 40153 53003 60006 91800 333 10312 20118=
07335,1998-08-16 15:00:00,30,1018.8,-1.4,40,15,25000,7.408,,,300,,,,,,,,,,,wg-a,,,,AAXX 16154 07335 12875 13004 10300 20150 30052 40188 56014 60006 81100 91500=
07335,1998-08-17 00:00:00,18,1019.3,-0.5,73,13,0,7.408,,,340,,,,,,,,,,,wg-a,,,,AAXX 17004 07335 12/// /3404 10180 20130 30052 40193 58005 60006 90000=
07335,1998-08-17 06:00:00,15,1019.4,0.2,88,13,15000,7.408,,,340,14.3,28.8,,,,,,,,,wg-a,,,,AAXX 17064 07335 02/65 03404 10150 20130 30051 40194 53002 60006 80000 90600 333 10288 20143 60004=
07335,1998-08-17 09:00:00,22,1019.2,0.2,57,13,20000,3.704,,,350,,,,,,,,,,,wg-a,,,,AAXX 17094 07335 12/70 03502 10220 20130 30053 40192 50002 60006 80000 90900=
07335,1998-08-17 12:00:00,29,1018.1,-0.8,37,13,20000,11.112,,,270,,,,,,,,,,,wg-a,,,,AAXX 17124 07335 12770 12706 10290 20130 30045 40181 58008 60006 81101 91200=
07335,1998-08-17 15:00:00,31,1016.2,-1.8,33,13,20000,18.52,,,250,,,,,,,,,,,wg-a,,,,AAXX 17154 07335 12770 32510 10310 20130 30027 40162 56018 60006 83201 91500=
07335,1998-08-17 18:00:00,28,1015.9,-0.4,40,13,0,22.224,,,20,15.4,31.5,,,,,,,,,wg-a,,,,AAXX 17184 07335 12/// /0212 10280 20130 30023 40159 55004 60006 91800 333 10315 20154=
07335,1998-08-18 00:00:00,17,1018.5,0.4,55,8,0,14.816,,,350,,,,,,,,,,,wg-a,,,,AAXX 18004 07335 12/// /3508 10170 20080 30043 40185 51004 60006 90000=
07335,1998-08-18 06:00:00,13,1019.1,0.8,94,12,20000,7.408,,,350,12.6,27.8,,,,,,,,,wg-a,,,,AAXX 18064 07335 02/70 33504 10130 20120 30047 40191 53008 60006 81081 90600 333 10278 20126 60004=
07335,1998-08-18 09:00:00,20,1019.2,0.4,64,13,25000,14.816,,,10,,,,,,,,,,,wg-a,,,,AAXX 18094 07335 12/75 20108 10200 20130 30051 40192 51004 60006 80001 90900=
07335,1998-08-18 12:00:00,24,1018.5,-0.4,41,10,500,11.112,,,320,,,,,,,,,,,wg-a,,,,AAXX 18124 07335 12/00 13206 10240 20100 30047 40185 58004 60006 80001 91200=
07335,1998-08-18 15:00:00,27,1017.4,-1,26,6,500,14.816,,,340,,,,,,,,,,,wg-a,,,,AAXX 18154 07335 12800 13408 10270 20060 30037 40174 58010 60006 81101 91500=
07335,1998-08-18 18:00:00,26,1017.4,-0.1,42,12,0,18.52,,,20,13.2,27.3,,,,,,,,,wg-a,,,,AAXX 18184 07335 12/// /0210 10260 20120 30036 40174 55001 60006 91800 333 10273 20132=
07335,1998-08-19 00:00:00,18,1020.2,0.6,83,15,0,11.112,,,350,,,,,,,,,,,wg-a,,,,AAXX 19004 07335 12/// /3506 10180 20150 30060 40202 51006 60006 90000=
07335,1998-08-19 06:00:00,15,1020.4,0.5,94,14,20000,7.408,,,350,13.2,25.7,,,,,,,,,wg-a,,,,AAXX 19064 07335 02870 13504 10150 20140 30061 40204 53005 60006 81501 90600 333 10257 20132 60004=
07335,1998-08-19 09:00:00,22,1020.5,0.4,60,14,25000,3.704,,,70,,,,,,,,,,,wg-a,,,,AAXX 19094 07335 12875 10702 10220 20140 30065 40205 50004 60006 81501 90900=
07335,1998-08-19 12:00:00,26,1019.7,-0.6,45,13,500,11.112,,,40,,,,,,,,,,,wg-a,,,,AAXX 19124 07335 12700 40406 10260 20130 30059 40197 58006 60006 84201 91200=
07335,1998-08-19 15:00:00,27,1018.4,-1.2,39,12,500,14.816,,,30,,,,,,,,,,,wg-a,,,,AAXX 19154 07335 12700 30308 10270 20120 30047 40184 57012 60006 82201 91500=
07335,1998-08-19 18:00:00,26,1018.1,-0.4,42,12,0,14.816,,,350,14.6,27.9,,,,,,,,,wg-a,,,,AAXX 19184 07335 12/// /3508 10260 20120 30043 40181 55004 60006 91800 333 10279 20146=
07335,1998-08-20 00:00:00,16,1019.9,-0.1,77,12,0,11.112,,,340,,,,,,,,,,,wg-a,,,,AAXX 20004 07335 12/// /3406 10160 20120 30056 40199 57001 60006 90000=
07335,1998-08-20 06:00:00,13,1020.3,0.6,94,12,10000,3.704,,,320,11.4,25.6,,,,,,,,,wg-a,,,,AAXX 20064 07335 02/60 13202 10130 20120 30059 40203 53006 60006 80001 90600 333 10256 20114 60004=
07335,1998-08-20 09:00:00,21,1020.6,0.7,56,12,12000,11.112,,,340,,,,,,,,,,,wg-a,,,,AAXX 20094 07335 12/62 03406 10210 20120 30066 40206 52007 60006 80000 90900=
07335,1998-08-20 12:00:00,26,1019.6,-0.8,42,12,20000,11.112,,,270,,,,,,,,,,,wg-a,,,,AAXX 20124 07335 12670 22706 10260 20120 30058 40196 58008 60006 82100 91200=
07335,1998-08-20 15:00:00,26,1018.8,-0.8,42,12,20000,18.52,,,280,,,,,,,,,,,wg-a,,,,AAXX 20154 07335 12770 72810 10260 20120 30050 40188 56008 60006 874// 91500=
07335,1998-08-20 18:00:00,23,1018.6,-0.3,50,12,0,18.52,,,270,12.6,26.7,,,,,,,,,wg-a,,,,AAXX 20184 07335 12/// /2710 10230 20120 30047 40186 55003 60006 91800 333 10267 20126=
07335,1998-08-21 00:00:00,16,1019.7,-0.1,77,12,0,14.816,,,270,,,,,,,,,,,wg-a,,,,AAXX 21004 07335 12/// /2708 10160 20120 30054 40197 58001 60006 90000=
07335,1998-08-21 06:00:00,16,1018,-0.4,82,13,25000,18.52,,,240,14.4,22.9,,,,,,,,,wg-a,,,,AAXX 21064 07335 02/75 72410 10160 20130 30038 40180 56004 60006 86032 90600 333 10229 20144 60004=
07335,1998-08-21 09:00:00,21,1017.6,-0.2,60,13,25000,35.188,,53.708,250,,,,,,,,,,,wg-a,,,,AAXX 21094 07335 12575 72519 10210 20130 30036 40176 55002 60006 82832 90900 333 91029=
07335,1998-08-21 12:00:00,20,1017.1,-0.5,78,16,20000,31.484,,,240,,,,,,,,,,51,wg-a,,,,AAXX 21124 07335 02270 82417 10200 20160 30031 40171 56005 61000 75165 885// 91200 333 6100=
07335,1998-08-21 15:00:00,21,1015.9,-1.1,83,18,25000,31.484,,,250,,,,,,,,,,51,wg-a,,,,AAXX 21154 07335 02475 82517 10210 20180 30020 40159 57011 61000 75166 885// 91500 333 ////=
07335,1998-08-21 18:00:00,19,1015.9,-0.1,88,17,0,25.928,,,270,15.6,21,,,,,,,,,wg-a,,,,AAXX 21184 07335 32/// /2714 10190 20170 30019 40159 56001 91800 333 10210 20156=
07335,1998-08-22 00:00:00,18,1017.7,0.5,94,17,0,18.52,,,260,,,,,,,,,,,wg-a,,,,AAXX 22004 07335 12/// /2610 10180 20170 30036 40177 51005 60006 90000=
07335,1998-08-22 06:00:00,18,1017,0,94,17,25000,11.112,,,250,17.2,18.8,,,,,1,,,,wg-a,,,,AAXX 22064 07335 02475 72506 10180 20170 30029 40170 50000 60006 875// 90600 333 10188 20172 60014=
07335,1998-08-22 09:00:00,20,1016.7,-0.2,88,18,15000,14.816,,,270,,,,,,,,,,20,wg-a,,,,AAXX 22094 07335 02265 72708 10200 20180 30027 40167 58002 61000 72052 878// 90900 333 ////=
07335,1998-08-22 12:00:00,21,1016.5,-0.1,78,17,25000,22.224,,,270,,,,,,,,,,3,wg-a,,,,AAXX 22124 07335 02475 72712 10210 20170 30026 40165 58001 61000 70352 875// 91200 333 ////=
07335,1998-08-22 15:00:00,21,1015.7,-0.8,83,18,20000,31.484,,,270,,,,0,,,,,,21,wg-a,,,,AAXX 22154 07335 12470 72717 10210 20180 30018 40157 57008 60007 72162 878// 91500=
07335,1998-08-22 18:00:00,20,1016,0.2,83,17,0,25.928,,,260,17.6,23.5,,,,,,,,,wg-a,,,,AAXX 22184 07335 32/// /2614 10200 20170 30020 40160 53002 91800 333 10235 20176=
07335,1998-08-23 00:00:00,18,1018.2,0.9,100,18,0,14.816,,,280,,,,,,,,,,,wg-a,,,,AAXX 23004 07335 12/// /2808 10180 20180 30041 40182 51009 60006 90000=
07335,1998-08-23 06:00:00,16,1019.2,0.8,94,15,10000,7.408,,,330,15.7,20,,,,,,,,20,wg-a,,,,AAXX 23064 07335 02360 73304 10160 20150 30050 40192 52008 61000 72052 875// 90600 333 10200 20157 6002=
07335,1998-08-23 09:00:00,18,1020.4,1.3,77,14,25000,11.112,,,330,,,,,,,,,,,wg-a,,,,AAXX 23094 07335 12475 43306 10180 20140 30063 40204 51013 60006 84832 90900=
07335,1998-08-23 12:00:00,23,1019.5,-0.7,50,12,25000,11.112,,,270,,,,,,,,,,,wg-a,,,,AAXX 23124 07335 12675 22706 10230 20120 30056 40195 58007 60006 82102 91200=
07335,1998-08-23 15:00:00,26,1018,-1.4,37,10,25000,14.816,,,280,,,,,,,,,,,wg-a,,,,AAXX 23154 07335 12/75 22808 10260 20100 30042 40180 58014 60006 80002 91500=
07335,1998-08-23 18:00:00,23,1017.3,-0.8,57,14,0,22.224,,,260,15.9,26.4,,,,,,,,,wg-a,,,,AAXX 23184 07335 12/// /2612 10230 20140 30034 40173 56008 60006 91800 333 10264 20159=
07335,1998-08-24 00:00:00,16,1017.9,-0.9,88,14,0,18.52,,,240,,,,,,,,,,,wg-a,,,,AAXX 24004 07335 12/// /2410 10160 20140 30037 40179 57009 60006 90000=
07335,1998-08-24 06:00:00,18,1016.5,-0.1,88,16,25000,29.632,,,260,15.9,23.3,,,,,,,,,wg-a,,,,AAXX 24064 07335 02375 82616 10180 20160 30024 40165 55001 60006 885// 90600 333 10233 20159 60004=
07335,1998-08-24 09:00:00,16,1018,1.4,100,16,2500,22.224,,,340,,,,1,,,,,,51,wg-a,,,,AAXX 24094 07335 12225 83412 10160 20160 30038 40180 53014 60017 75165 887// 90900=
07335,1998-08-24 12:00:00,21,1018.7,0.9,60,13,500,14.816,,,310,,,,0,,,,,,1,wg-a,,,,AAXX 24124 07335 02600 73108 10210 20130 30047 40187 53009 60016 70165 8743/ 91200 333 60007=
07335,1998-08-24 15:00:00,23,1018.6,-0,44,10,500,18.52,,,350,,,,,,,,,,,wg-a,,,,AAXX 24154 07335 12700 53510 10230 20100 30047 40186 54000 60006 85800 91500=
07335,1998-08-24 18:00:00,22,1018.8,0.1,50,11,0,7.408,,,340,16,23.6,,,,,,,,,wg-a,,,,AAXX 24184 07335 32/// /3404 10220 20110 30048 40188 53001 91800 333 10236 20160=
07335,1998-08-25 00:00:00,14,1021.6,0.8,82,11,0,7.408,,,350,,,,,,,,,,,wg-a,,,,AAXX 25004 07335 12/// /3504 10140 20110 30072 40216 51008 60006 90000=
07335,1998-08-25 06:00:00,11,1021.9,0.5,94,10,12000,3.704,,,340,9.5,21.8,,,,,1,,,,wg-a,,,,AAXX 25064 07335 02662 73402 10110 20100 30074 40219 53005 60006 875// 90600 333 10218 20095 60014=
07335,1998-08-25 09:00:00,20,1021.9,0.4,56,11,20000,3.704,,,140,,,,,,,,,,,wg-a,,,,AAXX 25094 07335 12670 31402 10200 20110 30078 40219 51004 60006 82532 90900=
07335,1998-08-25 12:00:00,23,1021,-0.7,47,11,25000,7.408,,,40,,,,,,,,,,,wg-a,,,,AAXX 25124 07335 12675 30404 10230 20110 30071 40210 58007 60006 83102 91200=
07335,1998-08-25 15:00:00,26,1019.6,-1.3,34,9,25000,3.704,,,200,,,,,,,,,,,wg-a,,,,AAXX 25154 07335 12775 22002 10260 20090 30058 40196 58013 60006 82102 91500=
07335,1998-08-25 18:00:00,25,1018.5,-1.1,36,9,0,3.704,,,270,11.1,26,,,,,,,,,wg-a,,,,AAXX 25184 07335 12/// /2702 10250 20090 30047 40185 56011 60006 91800 333 10260 20111=
07335,1998-08-26 00:00:00,12,1019.9,-0.1,88,10,0,3.704,,,290,,,,,,,,,,,wg-a,,,,AAXX 26004 07335 12/// /2902 10120 20100 30054 40199 58001 60006 90000=
07335,1998-08-26 06:00:00,10,1018.8,-0.2,93,9,25000,0,,,0,8.3,24.7,,,,,,,,,wg-a,,,,AAXX 26064 07335 02/75 00000 10100 20090 30042 40188 56002 60006 80000 90600 333 10247 20083 60004=
07335,1998-08-26 09:00:00,21,1018.1,-0.1,49,10,500,3.704,,,270,,,,,,,,,,,wg-a,,,,AAXX 26094 07335 12/00 02702 10210 20100 30041 40181 58001 60006 80000 90900=
07335,1998-08-26 12:00:00,26,1017.2,-0.7,34,9,500,11.112,,,250,,,,,,,,,,,wg-a,,,,AAXX 26124 07335 12/00 12506 10260 20090 30034 40172 58007 60006 80001 91200=
07335,1998-08-26 15:00:00,28,1015.2,-1.9,28,8,500,14.816,,,320,,,,,,,,,,,wg-a,,,,AAXX 26154 07335 12800 43208 10280 20080 30015 40152 58019 60006 81104 91500=
07335,1998-08-26 18:00:00,24,1014.9,-0.4,44,11,0,25.928,,,20,9.8,27.9,,,,,,,,,wg-a,,,,AAXX 26184 07335 12/// /0214 10240 20110 30011 40149 56004 60006 91800 333 10279 20098=
07335,1998-08-27 00:00:00,13,1018.2,0.8,82,10,0,7.408,,,350,,,,,,,,,,,wg-a,,,,AAXX 27004 07335 12/// /3504 10130 20100 30038 40182 51008 60006 90000=
07335,1998-08-27 06:00:00,14,1018.6,0.8,88,12,7000,22.224,,,40,10,24.3,,,,,,,,,wg-a,,,,AAXX 27064 07335 02457 70412 10140 20120 30043 40186 53008 60006 85532 90600 333 10243 20100 60004=
07335,1998-08-27 09:00:00,18,1019.7,1.2,64,11,15000,14.816,,,60,,,,,,,,,,,wg-a,,,,AAXX 27094 07335 12565 50608 10180 20110 30055 40197 51012 60006 83102 90900=
07335,1998-08-27 12:00:00,20,1019.7,0.1,43,7,25000,22.224,,,60,,,,,,,,,,,wg-a,,,,AAXX 27124 07335 12675 /0612 10200 20070 30056 40197 50001 60006 85102 91200=
07335,1998-08-27 15:00:00,21,1019.6,0,38,6,25000,25.928,,48.152,50,,,,,,,,,,,wg-a,,,,AAXX 27154 07335 12775 50514 10210 20060 30056 40196 50000 60006 85102 91500 333 91026=
07335,1998-08-27 18:00:00,19,1019.8,0.1,40,5,0,25.928,,,40,13.7,21.2,,,,,,,,,wg-a,,,,AAXX 27184 07335 12/// /0414 10190 20050 30057 40198 52001 60006 91800 333 10212 20137=
07335,1998-08-28 00:00:00,12,1022.6,0.7,62,5,0,18.52,,,40,,,,,,,,,,,wg-a,,,,AAXX 28004 07335 12/// /0410 10120 20050 30081 40226 53007 60006 90000=
07335,1998-08-28 06:00:00,8,1023.9,1.1,81,5,25000,7.408,,,10,7.2,19,,,,,,,,,wg-a,,,,AAXX 28064 07335 02/75 00104 10080 20050 30091 40239 53011 60006 80000 90600 333 10190 20072 60004=
07335,1998-08-28 09:00:00,15,1024.2,0.7,59,7,25000,18.52,,,50,,,,,,,,,,,wg-a,,,,AAXX 28094 07335 12/75 00510 10150 20070 30098 40242 51007 60006 80000 90900=
07335,1998-08-28 12:00:00,19,1023.2,-0.8,37,4,500,25.928,,,30,,,,,,,,,,,wg-a,,,,AAXX 28124 07335 12700 30314 10190 20040 30090 40232 58008 60006 83200 91200=
07335,1998-08-28 15:00:00,21,1021.6,-1.5,30,3,500,25.928,,,40,,,,,,,,,,,wg-a,,,,AAXX 28154 07335 12700 20414 10210 20030 30075 40216 58015 60006 82500 91500=
07335,1998-08-28 18:00:00,20,1021.5,-0.1,37,5,0,22.224,,,40,7.8,21,,,,,,,,,wg-a,,,,AAXX 28184 07335 12/// /0412 10200 20050 30074 40215 55001 60006 91800 333 10210 20078=
07335,1998-08-29 00:00:00,8,1022.5,-0.1,76,4,0,3.704,,,10,,,,,,,,,,,wg-a,,,,AAXX 29004 07335 12/// /0102 10080 20040 30078 40225 58001 60006 90000=
07335,1998-08-29 06:00:00,7,1022.4,0.4,93,6,15000,7.408,,,20,4.9,19.6,,,,,,,,,wg-a,,,,AAXX 29064 07335 02/65 20204 10070 20060 30076 40224 53004 60006 81031 90600 333 10196 20049 60004=
07335,1998-08-29 09:00:00,16,1022.3,0.4,51,6,500,14.816,,,100,,,,,,,,,,,wg-a,,,,AAXX 29094 07335 12/00 11008 10160 20060 30080 40223 50004 60006 80001 90900=
07335,1998-08-29 12:00:00,20,1020.9,-1.2,35,4,500,14.816,,,60,,,,,,,,,,,wg-a,,,,AAXX 29124 07335 12/00 10608 10200 20040 30068 40209 58012 60006 80001 91200=
07335,1998-08-29 15:00:00,21,1019.5,-1.3,28,2,500,18.52,,,70,,,,,,,,,,,wg-a,,,,AAXX 29154 07335 12/00 40710 10210 20020 30055 40195 56013 60006 80004 91500=
07335,1998-08-29 18:00:00,20,1019.2,-0.4,32,3,0,18.52,,,80,6.8,21.5,,,,,,,,,wg-a,,,,AAXX 29184 07335 12/// /0810 10200 20030 30051 40192 56004 60006 91800 333 10215 20068=
07335,1998-08-30 00:00:00,12,1019.5,-0.8,62,5,0,3.704,,,50,,,,,,,,,,,wg-a,,,,AAXX 30004 07335 12/// /0502 10120 20050 30050 40195 57008 60006 90000=
07335,1998-08-30 06:00:00,9,1019.1,0.1,76,5,25000,7.408,,,60,8,19.9,,,,,,,,,wg-a,,,,AAXX 30064 07335 02/75 50604 10090 20050 30045 40191 53001 60006 80004 90600 333 10199 20080 60004=
07335,1998-08-30 09:00:00,18,1018.7,0,42,5,25000,25.928,,,90,,,,,,,,,,,wg-a,,,,AAXX 30094 07335 12/75 40914 10180 20050 30045 40187 50000 60006 81042 90900=
07335,1998-08-30 12:00:00,21,1017.6,-0.9,33,4,25000,18.52,,,90,,,,,,,,,,,wg-a,,,,AAXX 30124 07335 12/75 30910 10210 20040 30036 40176 57009 60006 81042 91200=
07335,1998-08-30 15:00:00,24,1015.9,-1.5,27,4,25000,14.816,,,90,,,,,,,,,,,wg-a,,,,AAXX 30154 07335 12/75 20908 10240 20040 30021 40159 57015 60006 81042 91500=
07335,1998-08-30 18:00:00,24,1015.2,-0.8,25,3,0,14.816,,,90,9.4,24.8,,,,,,,,,wg-a,,,,AAXX 30184 07335 12/// /0908 10240 20030 30013 40152 56008 60006 91800 333 10248 20094=
07335,1998-08-31 00:00:00,17,1014.8,-1,48,6,0,7.408,,,100,,,,,,,,,,,wg-a,,,,AAXX 31004 07335 12/// /1004 10170 20060 30006 40148 58010 60006 90000=
07335,1998-08-31 06:00:00,12,1013.8,-0.3,67,6,25000,11.112,,,110,10.4,23.6,,,,,,,,,wg-a,,,,AAXX 31064 07335 02/75 41106 10120 20060 39994 40138 55003 60006 83031 90600 333 10236 20104 60004=
07335,1998-08-31 09:00:00,20,1013.4,-0,46,8,500,3.704,,,120,,,,,,,,,,,wg-a,,,,AAXX 31094 07335 12/00 71202 10200 20080 39994 40134 55000 60006 85031 90900=
07335,1998-08-31 12:00:00,26,1011.8,-1.3,32,8,500,11.112,,,120,,,,,,,,,,,wg-a,,,,AAXX 31124 07335 12/00 71206 10260 20080 39981 40118 58013 60006 81032 91200=
07335,1998-08-31 15:00:00,29,1010,-1.6,25,7,500,11.112,,,130,,,,,,,,,,,wg-a,,,,AAXX 31154 07335 12/00 71306 10290 20070 39965 40100 58016 60006 82032 91500=
07335,1998-08-31 18:00:00,28,1009.2,-0.9,27,7,0,7.408,,,120,12.3,29.9,,,,,,,,,wg-a,,,,AAXX 31184 07335 12/// /1204 10280 20070 39956 40092 56009 60006 91800 333 10299 20123=
07335,1998-09-01 00:00:00,20,1010,-0.3,56,11,0,11.112,,,160,,,,,,,,,,,wg-a,,,,AAXX 01004 07335 12/// /1606 10200 20110 39961 40100 56003 60006 90000=
07335,1998-09-01 06:00:00,20,1011,0.9,73,15,10000,7.408,,,100,18,28,,,,,,,,29,wg-a,,,,AAXX 01064 07335 02260 81004 10200 20150 39971 40110 50009 60006 72996 82988 90600 333 10280 20180 60004=
07335,1998-09-01 09:00:00,20,1012,1,88,18,10000,7.408,,,180,,,,2,,,,,,21,wg-a,,,,AAXX 01094 07335 12460 81804 10200 20180 39981 40120 51010 60027 72162 8117/ 90900=
07335,1998-09-01 12:00:00,27,1012.1,0.4,54,17,15000,18.52,,,180,,,,,,,,,,2,wg-a,,,,AAXX 01124 07335 12/65 31810 10270 20170 39985 40121 50004 60026 70261 81032 91200=
07335,1998-09-01 15:00:00,28,1011.7,-0.4,51,17,15000,14.816,,,240,,,,,,,,,,,wg-a,,,,AAXX 01154 07335 12/65 62408 10280 20170 39981 40117 55004 60006 84082 91500=
07335,1998-09-01 18:00:00,24,1012.2,0.4,65,17,0,11.112,,,210,18.1,27.5,,,,,,,,,wg-a,,,,AAXX 01184 07335 32/// /2106 10240 20170 39985 40122 53004 91800 333 10275 20181=
07335,1998-09-02 00:00:00,20,1012.5,-0.6,94,19,0,3.704,,,150,,,,,,,,,,,wg-a,,,,AAXX 02004 07335 12/// /1502 10200 20190 39986 40125 58006 60006 90000=
07335,1998-09-02 06:00:00,18,1012.2,0.8,94,17,7000,3.704,,,170,18.3,24.4,,,,,,,,61,wg-a,,,,AAXX 02064 07335 02357 81702 10180 20170 39982 40122 52008 61000 76162 8557/ 90600 333 10244 20183 6004=
07335,1998-09-02 09:00:00,20,1011.5,-0.6,88,18,10000,11.112,,,180,,,,2,,,,,,1,wg-a,,,,AAXX 02094 07335 12660 71806 10200 20180 39976 40115 55006 60027 70162 8258/ 90900=
07335,1998-09-02 12:00:00,23,1011.2,-0.2,73,18,12000,14.816,,,200,,,,,,,,,,2,wg-a,,,,AAXX 02124 07335 12762 72008 10230 20180 39974 40112 58002 60026 70262 82582 91200=
07335,1998-09-02 15:00:00,26,1010,-1,65,19,15000,14.816,,,210,,,,,,,,,,,wg-a,,,,AAXX 02154 07335 12565 72108 10260 20190 39964 40100 56010 60006 8418/ 91500=
07335,1998-09-02 18:00:00,22,1011,0.8,78,18,0,29.632,,,250,18.1,25.9,,,,,,,,,wg-a,,,,AAXX 02184 07335 32/// /2516 10220 20180 39972 40110 53008 91800 333 10259 20181=
07335,1998-09-03 00:00:00,18,1013,1,83,15,0,31.484,,,240,,,,,,,,,,,wg-a,,,,AAXX 03004 07335 12/// /2417 10180 20150 39990 40130 53010 60006 90000=
07335,1998-09-03 06:00:00,16,1016.3,2.3,88,14,20000,18.52,,,270,15.7,22.3,,,,,2,,,,wg-a,,,,AAXX 03064 07335 02470 82710 10160 20140 30021 40163 53023 60006 885// 90600 333 10223 20157 60024=
07335,1998-09-03 09:00:00,19,1017.6,1.4,73,14,500,14.816,,,300,,,,,,,,,,,wg-a,,,,AAXX 03094 07335 12400 73008 10190 20140 30035 40176 52014 60006 872// 90900=
07335,1998-09-03 12:00:00,22,1017.1,-0.3,50,11,500,18.52,,,310,,,,,,,,,,,wg-a,,,,AAXX 03124 07335 12600 43110 10220 20110 30032 40171 58003 60006 84200 91200=
07335,1998-09-03 15:00:00,24,1016,-1,38,9,500,7.408,,,270,,,,,,,,,,,wg-a,,,,AAXX 03154 07335 12700 72704 10240 20090 30022 40160 58010 60006 82204 91500=
07335,1998-09-03 18:00:00,22,1015.4,-0.7,46,10,0,7.408,,,240,16.1,24.5,,,,,,,,,wg-a,,,,AAXX 03184 07335 12/// /2404 10220 20100 30015 40154 56007 60006 91800 333 10245 20161=
07335,1998-09-04 00:00:00,13,1014.2,-1.7,94,12,0,3.704,,,180,,,,,,,,,,,wg-a,,,,AAXX 04004 07335 12/// /1802 10130 20120 39999 40142 58017 60006 90000=
07335,1998-09-04 06:00:00,16,1010.9,-1.5,88,14,20000,7.408,,,140,12.7,22.1,,,,,,,,21,wg-a,,,,AAXX 04064 07335 02470 81404 10160 20140 39968 40109 56015 61000 72162 8557/ 90600 333 10221 20127 6000=
07335,1998-09-04 09:00:00,17,1009.5,-1.4,88,15,20000,11.112,,,150,,,,1,,,,,,21,wg-a,,,,AAXX 04094 07335 12270 81506 10170 20150 39954 40095 58014 60017 72162 8557/ 90900=
07335,1998-09-04 12:00:00,23,1007.2,-1.9,69,17,20000,22.224,,,210,,,,,,,,,,3,wg-a,,,,AAXX 04124 07335 12570 72112 10230 20170 39935 40072 56019 60016 70362 878// 91200=
07335,1998-09-04 15:00:00,19,1007,-0.4,94,18,15000,14.816,,,250,,,,7,,,,,,61,wg-a,,,,AAXX 04154 07335 12265 82508 10190 20180 39931 40070 55004 60077 76162 878// 91500=
07335,1998-09-04 18:00:00,18,1006.7,-0.4,88,16,0,25.928,,,240,15.5,23.9,,,,,,,,,wg-a,,,,AAXX 04184 07335 32/// /2414 10180 20160 39927 40067 56004 91800 333 10239 20155=
07335,1998-09-05 00:00:00,15,1009.7,1.5,94,14,0,11.112,,,240,,,,,,,,,,,wg-a,,,,AAXX 05004 07335 02/// /2406 10150 20140 39956 40097 51015 61000 90000 333 ////=
07335,1998-09-05 06:00:00,16,1010.8,0.9,94,15,15000,18.52,,,240,14.9,17.6,,,,,8,,,1,wg-a,,,,AAXX 05064 07335 02365 72410 10160 20150 39967 40108 51009 60006 70186 8673/ 90600 333 10176 20149 60084=
07335,1998-09-05 09:00:00,17,1012.3,1.5,88,15,15000,25.928,,,260,,,,0,,,,,,80,wg-a,,,,AAXX 05094 07335 12265 72614 10170 20150 39982 40123 51015 60007 78086 878// 90900=
07335,1998-09-05 12:00:00,21,1012.5,0.4,60,13,500,25.928,,,270,,,,0,,,,,,1,wg-a,,,,AAXX 05124 07335 02500 72714 10210 20130 39986 40125 51004 60016 70186 83801 91200 333 60007=
07335,1998-09-05 15:00:00,22,1013,0.5,46,10,500,31.484,,,270,,,,,,,,,,,wg-a,,,,AAXX 05154 07335 12600 52717 10220 20100 39991 40130 53005 60006 82201 91500=
07335,1998-09-05 18:00:00,19,1014.1,1,64,12,0,22.224,,,260,15.6,23.1,,,,,,,,,wg-a,,,,AAXX 05184 07335 32/// /2612 10190 20120 30001 40141 51010 91800 333 10231 20156=
07335,1998-09-06 00:00:00,15,1015,-0.6,94,14,0,11.112,,,230,,,,,,,,,,,wg-a,,,,AAXX 06004 07335 12/// /2306 10150 20140 30008 40150 58006 60006 90000=
07335,1998-09-06 06:00:00,13,1013.7,-0.6,100,13,400,7.408,,,190,13.3,19.1,,,,,1,,,45,wg-a,,,,AAXX 06064 07335 02/04 91904 10130 20130 39994 40137 56006 60006 74542 89/// 90600 333 10191 20133 60014=
07335,1998-09-06 09:00:00,19,1012.8,-0.6,78,15,10000,14.816,,,190,,,,,,,,,,3,wg-a,,,,AAXX 06094 07335 12460 71908 10190 20150 39988 40128 58006 60006 70342 84102 90900=
07335,1998-09-06 12:00:00,23,1010.2,-2.4,53,13,25000,22.224,,,190,,,,,,,,,,1,wg-a,,,,AAXX 06124 07335 12675 /1912 10230 20130 39964 40102 58024 60006 70142 81102 91200=
07335,1998-09-06 18:00:00,23,1007.5,-1,47,11,0,3.704,,,190,13.3,26.5,,,,,,,,,wg-a,,,,AAXX 06184 07335 12/// /1902 10230 20110 39937 40075 57010 60006 91800 333 10265 20133=
07335,1998-09-07 00:00:00,17,1007.4,-1,82,14,0,11.112,,,240,,,,,,,,,,,wg-a,,,,AAXX 07004 07335 12/// /2406 10170 20140 39934 40074 56010 60006 90000=
07335,1998-09-07 06:00:00,17,1006.5,0.3,94,16,20000,7.408,,,190,16.3,22.9,,,,,,,,1,wg-a,,,,AAXX 07064 07335 02370 71904 10170 20160 39925 40065 53003 60006 70162 8479/ 90600 333 10229 20163 60004=
07335,1998-09-07 09:00:00,19,1007.1,0.7,88,17,20000,14.816,,,210,,,,1,,,,,,3,wg-a,,,,AAXX 07094 07335 12370 62108 10190 20170 39932 40071 53007 60017 70386 83732 90900=
07335,1998-09-07 12:00:00,21,1007,0,64,14,25000,22.224,,44.448,220,,,,,,,,,,17,wg-a,,,,AAXX 07124 07335 12575 72212 10210 20140 39932 40070 50000 60016 71798 879// 91200 333 91024=
07335,1998-09-07 15:00:00,22,1006.8,-0.2,57,13,500,22.224,,,270,,,,2,,,,,,3,wg-a,,,,AAXX 07154 07335 12600 /2712 10220 20130 39930 40068 58002 60027 70398 81201 91500=
07335,1998-09-07 18:00:00,19,1008.1,1.2,64,12,0,25.928,,,260,15.3,23.1,,,,,,,,,wg-a,,,,AAXX 07184 07335 32/// /2614 10190 20120 39942 40081 53012 91800 333 10231 20153=
07335,1998-09-08 00:00:00,16,1011.5,0.7,88,14,0,14.816,,,240,,,,,,,,,,,wg-a,,,,AAXX 08004 07335 12/// /2408 10160 20140 39974 40115 51007 60006 90000=
07335,1998-09-08 06:00:00,14,1012.2,0.2,94,13,25000,11.112,,,210,13.8,19.2,,,,,3,,,,wg-a,,,,AAXX 08064 07335 02375 32106 10140 20130 39980 40122 53002 60006 81530 90600 333 10192 20138 60034=
07335,1998-09-08 09:00:00,18,1012.5,0.5,83,15,20000,22.224,,,230,,,,,,,,,,,wg-a,,,,AAXX 08094 07335 12470 72312 10180 20150 39985 40125 53005 60006 875// 90900=
07335,1998-09-08 12:00:00,20,1012.2,-0.2,83,17,15000,29.632,,,230,,,,0,,,,,,1,wg-a,,,,AAXX 08124 07335 02465 72316 10200 20170 39983 40122 58002 60016 70151 875// 91200 333 60007=
07335,1998-09-08 15:00:00,20,1012.4,0.2,83,17,10000,31.484,,50.004,240,,,,0,,,,,,50,wg-a,,,,AAXX 08154 07335 12260 72417 10200 20170 39985 40124 53002 60007 75065 875// 91500 333 91027=
07335,1998-09-08 18:00:00,18,1012.7,0.2,94,17,0,18.52,,,220,14.2,21.6,,,,,,,,,wg-a,,,,AAXX 08184 07335 32/// /2210 10180 20170 39987 40127 50002 91800 333 10216 20142=
07335,1998-09-09 00:00:00,18,1012.2,-0.9,94,17,0,18.52,,,210,,,,,,,,,,,wg-a,,,,AAXX 09004 07335 12/// /2110 10180 20170 39982 40122 58009 60016 90000=
07335,1998-09-09 06:00:00,16,1009.8,-1,94,15,15000,14.816,,,190,16,17.8,,,,,1,,,,wg-a,,,,AAXX 09064 07335 02565 71908 10160 20150 39957 40098 56010 60006 82532 90600 333 10178 20160 60014=
07335,1998-09-09 09:00:00,21,1009.6,-0,69,15,15000,29.632,,,210,,,,,,,,,,,wg-a,,,,AAXX 09094 07335 12765 52116 10210 20150 39957 40096 55000 60006 82532 90900=
07335,1998-09-09 12:00:00,22,1008.8,-0.7,69,16,15000,22.224,,,240,,,,,,,,,,,wg-a,,,,AAXX 09124 07335 12665 62412 10220 20160 39950 40088 56007 60006 84832 91200=
07335,1998-09-09 15:00:00,23,1008.6,-0.1,61,15,15000,35.188,,,250,,,,,,,,,,,wg-a,,,,AAXX 09154 07335 12665 /2519 10230 20150 39949 40086 56001 60006 86800 91500=
07335,1998-09-09 18:00:00,21,1008.9,0.1,69,15,0,25.928,,,250,16,25.6,,,,,,,,,wg-a,,,,AAXX 09184 07335 12/// /2514 10210 20150 39950 40089 53001 60006 91800 333 10256 20160=
07335,1998-09-10 00:00:00,18,1009.6,-0.3,88,16,0,14.816,,,230,,,,,,,,,,,wg-a,,,,AAXX 10004 07335 12/// /2308 10180 20160 39956 40096 58003 60006 90000=
07335,1998-09-10 06:00:00,16,1010.3,0.4,94,15,25000,11.112,,,220,16.4,20.6,,,,,,,,,wg-a,,,,AAXX 10064 07335 02775 32206 10160 20150 39962 40103 53004 60006 83500 90600 333 10206 20164 60004=
07335,1998-09-10 09:00:00,20,1010.8,0.7,64,13,500,29.632,,,250,,,,,,,,,,,wg-a,,,,AAXX 10094 07335 12500 72516 10200 20130 39969 40108 51007 60006 83232 90900=
07335,1998-09-10 12:00:00,22,1010.5,-0.2,57,13,500,35.188,,,250,,,,,,,,,,,wg-a,,,,AAXX 10124 07335 12500 32519 10220 20130 39967 40105 58002 60006 82230 91200=
07335,1998-09-10 15:00:00,22,1010.2,-0.3,53,12,500,35.188,,,260,,,,,,,,,,,wg-a,,,,AAXX 10154 07335 12600 32619 10220 20120 39964 40102 55003 60006 83230 91500=
07335,1998-09-10 18:00:00,19,1011.3,0.9,68,13,0,18.52,,,250,16.5,23.6,,,,,,,,,wg-a,,,,AAXX 10184 07335 12/// /2510 10190 20130 39973 40113 53009 60006 91800 333 10236 20165=
07335,1998-09-11 00:00:00,14,1012.5,-0.4,94,13,0,11.112,,,250,,,,,,,,,,,wg-a,,,,AAXX 11004 07335 12/// /2506 10140 20130 39982 40125 58004 60006 90000=
07335,1998-09-11 06:00:00,14,1009.2,-1.8,100,14,10000,7.408,,,220,12.4,18.6,,,,,,,,21,wg-a,,,,AAXX 11064 07335 02260 82204 10140 20140 39950 40092 56018 61000 72162 875// 90600 333 10186 20124 6000=
07335,1998-09-11 09:00:00,16,1007.7,-1.4,88,14,12000,14.816,,,210,,,,,,,,,,,wg-a,,,,AAXX 11094 07335 12462 72108 10160 20140 39936 40077 56014 60006 8587/ 90900=
07335,1998-09-11 12:00:00,16,1005.1,-2.5,77,12,20000,29.632,,,240,,,,3,,,,,,21,wg-a,,,,AAXX 11124 07335 02270 82416 10160 20120 39911 40051 58025 60036 72162 8687/ 91200 333 60037=
07335,1998-09-11 15:00:00,14,1003.3,-1.9,94,13,10000,14.816,,,240,,,,2,,,,,,61,wg-a,,,,AAXX 11154 07335 12260 82408 10140 20130 39892 40033 58019 60027 76186 878// 91500=
07335,1998-09-11 18:00:00,13,1002.1,-1.3,94,12,0,11.112,,,270,12.9,18.2,,,,,,,,,wg-a,,,,AAXX 11184 07335 32/// /2706 10130 20120 39879 40021 55013 91800 333 10182 20129=
07335,1998-09-12 00:00:00,11,1005.9,1.4,87,9,0,18.52,,,300,,,,,,,,,,,wg-a,,,,AAXX 12004 07335 12/// /3010 10110 20090 39916 40059 51014 60006 90000=
07335,1998-09-12 06:00:00,9,1007.7,1.1,87,7,20000,18.52,,,290,9,13,,,,,11,,,,wg-a,,,,AAXX 12064 07335 02570 22910 10090 20070 39933 40077 53011 60006 81530 90600 333 10130 20090 60114=
07335,1998-09-12 09:00:00,14,1008,0.5,72,9,25000,18.52,,,290,,,,,,,,,,,wg-a,,,,AAXX 12094 07335 12475 72910 10140 20090 39938 40080 51005 60006 81232 90900=
07335,1998-09-12 12:00:00,15,1006.8,-1.1,67,9,25000,22.224,,,270,,,,,,,,,,,wg-a,,,,AAXX 12124 07335 12575 82712 10150 20090 39927 40068 58011 60006 8227/ 91200=
07335,1998-09-12 15:00:00,14,1003.5,-3.3,82,11,20000,25.928,,,240,,,,,,,,,,61,wg-a,,,,AAXX 12154 07335 02570 82414 10140 20110 39894 40035 58033 61000 76162 8227/ 91500 333 ////=
07335,1998-09-12 18:00:00,12,1003,-0.6,94,11,0,14.816,,,290,9,16.3,,,,,,,,,wg-a,,,,AAXX 12184 07335 32/// /2908 10120 20110 39888 40030 55006 91800 333 10163 20090=
07335,1998-09-13 00:00:00,8,1004,-0.3,93,7,0,14.816,,,280,,,,,,,,,,,wg-a,,,,AAXX 13004 07335 12/// /2808 10080 20070 39895 40040 58003 60016 90000=
07335,1998-09-13 06:00:00,8,1002.9,-0.6,93,7,20000,22.224,,,240,5.7,12.3,,,,,7,,,,wg-a,,,,AAXX 13064 07335 02770 72412 10080 20070 39885 40029 57006 60006 875// 90600 333 10123 20057 60074=
07335,1998-09-13 09:00:00,12,1001.9,-0.8,88,10,500,25.928,,,260,,,,,,,,,,1,wg-a,,,,AAXX 13094 07335 02400 /2614 10120 20100 39877 40019 58008 61000 70186 85831 90900 333 ////=
07335,1998-09-13 12:00:00,13,1003.1,1.2,77,9,500,29.632,,,310,,,,0,,,,,,25,wg-a,,,,AAXX 13124 07335 02500 63116 10130 20090 39889 40031 53012 60016 72586 86800 91200 333 60007=
07335,1998-09-13 15:00:00,16,1005,2,45,4,500,35.188,,55.56,330,,,,,,,,,,,wg-a,,,,AAXX 13154 07335 12600 53319 10160 20040 39909 40050 53020 60006 84202 91500 333 91030=
07335,1998-09-13 18:00:00,15,1007.4,2.3,51,5,0,18.52,,,320,8.1,17.4,,,,,,,,,wg-a,,,,AAXX 13184 07335 32/// /3210 10150 20050 39932 40074 51023 91800 333 10174 20081=
07335,1998-09-14 00:00:00,10,1008.6,0.1,87,8,0,18.52,,,300,,,,,,,,,,,wg-a,,,,AAXX 14004 07335 12/// /3010 10100 20080 39942 40086 50001 60006 90000=
07335,1998-09-14 06:00:00,8,1009.2,0.4,93,7,500,14.816,,,260,7.2,14.5,,,,,,,,,wg-a,,,,AAXX 14064 07335 02/00 22608 10080 20070 39947 40092 53004 60006 82030 90600 333 10145 20072 60004=
07335,1998-09-14 09:00:00,14,1010,1.1,77,10,500,18.52,,,260,,,,,,,,,,,wg-a,,,,AAXX 14094 07335 12500 52610 10140 20100 39958 40100 53011 60006 83831 90900=
07335,1998-09-14 12:00:00,17,1010.1,0.2,55,8,500,29.632,,,300,,,,,,,,,,,wg-a,,,,AAXX 14124 07335 12600 53016 10170 20080 39960 40101 53002 60006 84830 91200=
07335,1998-09-14 18:00:00,13,1013,2.4,88,11,0,18.52,,,310,7.8,18.6,,,,,,,,,wg-a,,,,AAXX 14184 07335 32/// /3110 10130 20110 39987 40130 51024 91800 333 10186 20078=
07335,1998-09-15 00:00:00,9,1016.1,1,93,8,0,14.816,,,260,,,,,,,,,,,wg-a,,,,AAXX 15004 07335 02/// /2608 10090 20080 30015 40161 51010 61000 90000 333 ////=
07335,1998-09-15 06:00:00,9,1017.4,0.9,93,8,20000,14.816,,,230,6.7,12.7,,,,,4,,,,wg-a,,,,AAXX 15064 07335 02770 72308 10090 20080 30028 40174 53009 60006 8553/ 90600 333 10127 20067 60044=
07335,1998-09-15 09:00:00,12,1017.8,0.6,88,10,12000,11.112,,,210,,,,,,,,,,61,wg-a,,,,AAXX 15094 07335 02462 82106 10120 20100 30034 40178 53006 61000 76162 875// 90900 333 ////=
07335,1998-09-15 12:00:00,15,1016.7,-1,94,14,500,18.52,,,230,,,,1,,,,,,61,wg-a,,,,AAXX 15124 07335 02200 82310 10150 20140 30024 40167 58010 60016 76162 875// 91200 333 60017=
07335,1998-09-15 15:00:00,17,1014.6,-1.9,88,15,8000,35.188,,,250,,,,0,,,,,,21,wg-a,,,,AAXX 15154 07335 12458 82519 10170 20150 30005 40146 58019 60007 72162 8552/ 91500=
07335,1998-09-15 18:00:00,17,1014.3,-0.3,94,16,0,25.928,,,250,9.3,18,,1,,,,,,,wg-a,,,,AAXX 15184 07335 12/// /2514 10170 20160 30002 40143 56003 60017 91800 333 10180 20093=
07335,1998-09-16 00:00:00,15,1015.5,0.1,88,13,0,11.112,,,250,,,,,,,,,,,wg-a,,,,AAXX 16004 07335 12/// /2506 10150 20130 30013 40155 53001 60006 90000=
07335,1998-09-16 06:00:00,14,1015.7,0.7,94,13,20000,11.112,,,270,13.5,16.7,,,,,,,,21,wg-a,,,,AAXX 16064 07335 02270 72706 10140 20130 30014 40157 53007 61000 72162 875// 90600 333 10167 20135 6004=
07335,1998-09-16 09:00:00,15,1016.9,1.2,82,12,20000,14.816,,,300,,,,,,,,,,,wg-a,,,,AAXX 16094 07335 12470 73008 10150 20120 30026 40169 53012 60006 878// 90900=
07335,1998-09-16 12:00:00,18,1016.4,-0.3,64,11,25000,14.816,,,290,,,,,,,,,,,wg-a,,,,AAXX 16124 07335 12575 72908 10180 20110 30023 40164 58003 60006 878// 91200=
07335,1998-09-16 18:00:00,16,1016.5,0.2,68,10,0,7.408,,,280,13.3,19.7,,,,,,,,,wg-a,,,,AAXX 16184 07335 12/// /2804 10160 20100 30023 40165 53002 60006 91800 333 10197 20133=
07335,1998-09-17 00:00:00,12,1018,0,94,11,0,11.112,,,290,,,,,,,,,,,wg-a,,,,AAXX 17004 07335 12/// /2906 10120 20110 30035 40180 50000 60006 90000=
07335,1998-09-17 06:00:00,12,1018.4,0.3,94,11,15000,7.408,,,310,9.5,15.4,,,,,,,,,wg-a,,,,AAXX 17064 07335 02665 73104 10120 20110 30040 40184 53003 60006 875// 90600 333 10154 20095 60004=
07335,1998-09-17 09:00:00,15,1019.5,1.2,88,13,20000,11.112,,,320,,,,,,,,,,,wg-a,,,,AAXX 17094 07335 12370 73206 10150 20130 30052 40195 51012 60006 875// 90900=
07335,1998-09-17 12:00:00,18,1019.1,-0.2,68,12,20000,7.408,,,330,,,,,,,,,,,wg-a,,,,AAXX 17124 07335 12570 73304 10180 20120 30050 40191 58002 60006 878// 91200=
07335,1998-09-17 15:00:00,21,1018.4,-0.6,49,10,25000,14.816,,,340,,,,,,,,,,,wg-a,,,,AAXX 17154 07335 12675 53408 10210 20100 30044 40184 56006 60006 85202 91500=
07335,1998-09-17 18:00:00,18,1019.2,0.6,64,11,0,7.408,,,360,12.1,21.3,,,,,,,,,wg-a,,,,AAXX 17184 07335 12/// /3604 10180 20110 30050 40192 53006 60006 91800 333 10213 20121=
07335,1998-09-18 00:00:00,9,1021.7,0.5,93,8,0,3.704,,,260,,,,,,,,,,,wg-a,,,,AAXX 18004 07335 12/// /2602 10090 20080 30070 40217 53005 60006 90000=
07335,1998-09-18 06:00:00,6,1022.7,0.9,100,6,15000,3.704,,,330,5.4,17.9,,,,,,,,11,wg-a,,,,AAXX 18064 07335 02/65 /3302 10060 20060 30079 40227 53009 60006 71100 80001 90600 333 10179 20054 60004=
07335,1998-09-18 12:00:00,21,1023.8,0.1,49,10,500,11.112,,,90,,,,,,,,,,,wg-a,,,,AAXX 18124 07335 12/00 00906 10210 20100 30097 40238 50001 60006 80000 91200=
07335,1998-09-18 15:00:00,22,1022.9,-0.8,43,9,500,14.816,,,80,,,,,,,,,,,wg-a,,,,AAXX 18154 07335 12/00 10808 10220 20090 30089 40229 57008 60006 80001 91500=
07335,1998-09-18 18:00:00,20,1024,1,46,8,0,11.112,,,70,6.1,22.6,,,,,,,,,wg-a,,,,AAXX 18184 07335 12/// /0706 10200 20080 30099 40240 53010 60006 91800 333 10226 20061=
07335,1998-09-19 00:00:00,14,1026,0.1,72,9,0,7.408,,,80,,,,,,,,,,,wg-a,,,,AAXX 19004 07335 12/// /0804 10140 20090 30115 40260 51001 60006 90000=
07335,1998-09-19 06:00:00,11,1026.9,0.8,87,9,20000,11.112,,,60,11.1,20.1,,,,,,,,,wg-a,,,,AAXX 19064 07335 02/70 10606 10110 20090 30123 40269 53008 60006 80001 90600 333 10201 20111 60004=
07335,1998-09-19 09:00:00,16,1027.4,0.7,59,8,20000,22.224,,,100,,,,,,,,,,,wg-a,,,,AAXX 19094 07335 12/70 11012 10160 20080 30130 40274 51007 60006 80001 90900=
07335,1998-09-19 12:00:00,21,1027.2,0.1,43,8,25000,22.224,,,80,,,,,,,,,,,wg-a,,,,AAXX 19124 07335 12/75 10812 10210 20080 30131 40272 51001 60006 80001 91200=
07335,1998-09-19 15:00:00,23,1025.7,-1.4,33,6,25000,18.52,,,70,,,,,,,,,,,wg-a,,,,AAXX 19154 07335 12/75 10710 10230 20060 30117 40257 58014 60006 80001 91500=
07335,1998-09-19 18:00:00,21,1025.9,0.1,38,6,0,18.52,,,70,11.1,23.2,,,,,,,,,wg-a,,,,AAXX 19184 07335 12/// /0710 10210 20060 30118 40259 53001 60006 91800 333 10232 20111=
07335,1998-09-20 00:00:00,15,1027.4,0.2,63,8,0,11.112,,,80,,,,,,,,,,,wg-a,,,,AAXX 20004 07335 12/// /0806 10150 20080 30130 40274 50002 60006 90000=
07335,1998-09-20 06:00:00,10,1028.2,0.6,87,8,15000,11.112,,,40,9.9,20.6,,,,,,,,,wg-a,,,,AAXX 20064 07335 02/65 10406 10100 20080 30135 40282 53006 60006 80001 90600 333 10206 20099 60004=
07335,1998-09-20 09:00:00,17,1028.7,0.8,59,9,15000,18.52,,,70,,,,,,,,,,,wg-a,,,,AAXX 20094 07335 12/65 10710 10170 20090 30143 40287 51008 60006 80001 90900=
07335,1998-09-20 12:00:00,21,1027,-1.4,43,8,25000,25.928,,,90,,,,,,,,,,,wg-a,,,,AAXX 20124 07335 12/75 00914 10210 20080 30129 40270 58014 60006 80000 91200=
07335,1998-09-20 15:00:00,24,1025.2,-1.7,38,9,25000,25.928,,,80,,,,,,,,,,,wg-a,,,,AAXX 20154 07335 12775 10814 10240 20090 30112 40252 58017 60006 81100 91500=
07335,1998-09-20 18:00:00,21,1025.3,-0,46,9,0,18.52,,,70,9.9,23.6,,,,,,,,,wg-a,,,,AAXX 20184 07335 12/// /0710 10210 20090 30112 40253 55000 60006 91800 333 10236 20099=
07335,1998-09-21 00:00:00,15,1026,0.1,67,9,0,11.112,,,60,,,,,,,,,,,wg-a,,,,AAXX 21004 07335 12/// /0606 10150 20090 30116 40260 51001 60006 90000=
07335,1998-09-21 06:00:00,12,1025.6,0.1,82,9,20000,11.112,,,60,11.6,20.8,,,,,,,,,wg-a,,,,AAXX 21064 07335 02/70 00606 10120 20090 30110 40256 50001 60006 80000 90600 333 10208 20116 60004=
07335,1998-09-21 09:00:00,16,1025.5,0.2,63,9,25000,18.52,,,80,,,,,,,,,,,wg-a,,,,AAXX 21094 07335 12/75 00810 10160 20090 30112 40255 50002 60006 80000 90900=
07335,1998-09-21 12:00:00,20,1023.3,-2,46,8,500,22.224,,,70,,,,,,,,,,,wg-a,,,,AAXX 21124 07335 12/00 00712 10200 20080 30092 40233 58020 60006 80000 91200=
07335,1998-09-21 15:00:00,22,1021.7,-1.5,43,9,500,18.52,,,90,,,,,,,,,,,wg-a,,,,AAXX 21154 07335 12/00 00910 10220 20090 30077 40217 56015 60006 80000 91500=
07335,1998-09-21 18:00:00,19,1021.5,-0.3,52,9,0,14.816,,,70,11.6,21.9,,,,,,,,,wg-a,,,,AAXX 21184 07335 12/// /0708 10190 20090 30074 40215 55003 60006 91800 333 10219 20116=
07335,1998-09-22 00:00:00,12,1020.9,-0.8,82,9,0,3.704,,,50,,,,,,,,,,,wg-a,,,,AAXX 22004 07335 12/// /0502 10120 20090 30064 40209 58008 60006 90000=
07335,1998-09-22 06:00:00,10,1019.5,-0.1,87,8,25000,7.408,,,50,9.9,19,,,,,,,,,wg-a,,,,AAXX 22064 07335 02/75 10504 10100 20080 30049 40195 57001 60006 80001 90600 333 10190 20099 60004=
07335,1998-09-22 09:00:00,15,1019.1,-0.1,72,10,25000,11.112,,,70,,,,,,,,,,,wg-a,,,,AAXX 22094 07335 12/75 10706 10150 20100 30048 40191 58001 60006 80001 90900=
07335,1998-09-22 12:00:00,21,1017,-1.8,49,10,25000,11.112,,,100,,,,,,,,,,,wg-a,,,,AAXX 22124 07335 12/75 01006 10210 20100 30030 40170 56018 60006 80000 91200=
07335,1998-09-22 15:00:00,24,1015.2,-1.6,34,7,25000,7.408,,,110,,,,,,,,,,,wg-a,,,,AAXX 22154 07335 12875 11104 10240 20070 30014 40152 56016 60006 81100 91500=
07335,1998-09-22 18:00:00,21,1015,-0.3,53,11,0,11.112,,,70,9.9,24,,,,,,,,,wg-a,,,,AAXX 22184 07335 12/// /0706 10210 20110 30011 40150 55003 60006 91800 333 10240 20099=
07335,1998-09-23 00:00:00,15,1015.5,-0,82,12,0,7.408,,,160,,,,,,,,,,,wg-a,,,,AAXX 23004 07335 12/// /1604 10150 20120 30013 40155 54000 60006 90000=
07335,1998-09-23 06:00:00,13,1016.8,0.6,77,9,20000,7.408,,,150,12.8,21.4,,,,,,,,,wg-a,,,,AAXX 23064 07335 02/70 31504 10130 20090 30024 40168 53006 60006 81031 90600 333 10214 20128 60004=
07335,1998-09-23 09:00:00,18,1017.5,1,56,9,20000,11.112,,,150,,,,,,,,,,,wg-a,,,,AAXX 23094 07335 12770 61506 10180 20090 30034 40175 51010 60006 81531 90900=
07335,1998-09-23 12:00:00,20,1016.8,-0.6,56,11,20000,11.112,,,170,,,,,,,,,,,wg-a,,,,AAXX 23124 07335 12/70 61706 10200 20110 30028 40168 58006 60006 86031 91200=
07335,1998-09-23 15:00:00,21,1016.2,-0.6,56,12,20000,22.224,,,190,,,,,,,,,,,wg-a,,,,AAXX 23154 07335 12770 61912 10210 20120 30022 40162 56006 60006 81131 91500=
07335,1998-09-23 18:00:00,17,1015.9,-0.4,72,12,0,3.704,,,270,13,23.4,,,,,,,,,wg-a,,,,AAXX 23184 07335 12/// /2702 10170 20120 30018 40159 58004 60006 91800 333 10234 20130=
07335,1998-09-24 00:00:00,12,1015.2,-1,94,11,0,3.704,,,110,,,,,,,,,,,wg-a,,,,AAXX 24004 07335 12/// /1102 10120 20110 30008 40152 58010 60006 90000=
07335,1998-09-24 06:00:00,14,1014.6,-0.2,94,13,7000,3.704,,,160,10.3,17.4,,,,,,,,21,wg-a,,,,AAXX 24064 07335 02357 71602 10140 20130 30003 40146 55002 61000 72161 8357/ 90600 333 10174 20103 6005=
07335,1998-09-24 09:00:00,17,1014.4,0,82,14,12000,11.112,,,160,,,,,,,,,,,wg-a,,,,AAXX 24094 07335 12562 71606 10170 20140 30003 40144 50000 60006 8588/ 90900=
07335,1998-09-24 12:00:00,19,1013.7,-0.6,68,13,15000,14.816,,,180,,,,,,,,,,,wg-a,,,,AAXX 24124 07335 12565 71808 10190 20130 39997 40137 58006 60006 878// 91200=
07335,1998-09-24 15:00:00,21,1011.7,-1.9,60,13,25000,22.224,,,180,,,,,,,,,,,wg-a,,,,AAXX 24154 07335 12575 51812 10210 20130 39978 40117 57019 60006 83832 91500=
07335,1998-09-24 18:00:00,18,1011.5,-0.3,73,13,0,7.408,,,160,13.8,21.1,,,,,,,,,wg-a,,,,AAXX 24184 07335 12/// /1604 10180 20130 39975 40115 56003 60006 91800 333 10211 20138=
07335,1998-09-25 00:00:00,15,1011.1,-0.7,88,13,0,11.112,,,150,,,,,,,,,,,wg-a,,,,AAXX 25004 07335 12/// /1506 10150 20130 39969 40111 58007 60006 90000=
07335,1998-09-25 06:00:00,14,1008.4,-1.4,82,11,15000,11.112,,,120,13.1,18.4,,,,,,,,,wg-a,,,,AAXX 25064 07335 02/65 11206 10140 20110 39942 40084 56014 60006 81031 90600 333 10184 20131 60004=
07335,1998-09-25 09:00:00,18,1008.9,0.7,73,13,15000,11.112,,,180,,,,,,,,,,,wg-a,,,,AAXX 25094 07335 12665 71806 10180 20130 39949 40089 52007 60006 8353/ 90900=
07335,1998-09-25 12:00:00,19,1007.1,-1.7,73,14,15000,14.816,,,170,,,,,,,,,,60,wg-a,,,,AAXX 25124 07335 02565 81708 10190 20140 39932 40071 58017 61000 76061 8357/ 91200 333 6100=
07335,1998-09-25 15:00:00,22,1005.5,-1.5,57,13,25000,22.224,,,200,,,,0,,,,,,1,wg-a,,,,AAXX 25154 07335 12675 62012 10220 20130 39917 40055 58015 60007 70162 84231 91500=
07335,1998-09-25 18:00:00,20,1004.6,-0.9,68,14,0,7.408,,,120,14.1,22.3,,,,,,,,,wg-a,,,,AAXX 25184 07335 32/// /1204 10200 20140 39908 40046 56009 91800 333 10223 20141=
07335,1998-09-26 00:00:00,19,1001.8,-1.7,73,14,0,18.52,,,150,,,,,,,,,,,wg-a,,,,AAXX 26004 07335 12/// /1510 10190 20140 39879 40018 58017 60006 90000=
07335,1998-09-26 06:00:00,16,999.6,0,94,15,10000,14.816,,,180,,,,,,,,,,60,wg-a,,,,AAXX 26064 07335 02260 81808 10160 20150 39857 49996 50000 61000 76062 8657/ 90600 333 ////=
07335,1998-09-26 09:00:00,17,1000.6,1,88,15,15000,14.816,,,210,,,,,,,,,,,wg-a,,,,AAXX 26094 07335 12365 72108 10170 20150 39867 40006 52010 60006 82272 90900=
07335,1998-09-26 12:00:00,21,999.8,-0.6,53,11,20000,18.52,,,180,,,,,,,,,,,wg-a,,,,AAXX 26124 07335 12570 71810 10210 20110 39861 49998 58006 60006 85232 91200=
07335,1998-09-26 15:00:00,21,998.5,-1.4,40,7,20000,22.224,,,210,,,,,,,,,,,wg-a,,,,AAXX 26154 07335 12670 72112 10210 20070 39847 49985 56014 60006 84832 91500=
07335,1998-09-26 18:00:00,16,998.7,-0,68,10,0,11.112,,,160,15.7,21.8,,,,,,,,,wg-a,,,,AAXX 26184 07335 12/// /1606 10160 20100 39847 49987 55000 60006 91800 333 10218 20157=
07335,1998-09-27 00:00:00,14,995.7,-3.2,94,13,0,29.632,,,180,,,,,,,,,,,wg-a,,,,AAXX 27004 07335 12/// /1816 10140 20130 39817 49957 58032 60046 90000=
07335,1998-09-27 06:00:00,14,996.2,3.5,88,12,6000,46.3,,66.672,250,13.6,16.4,,,,,,,,51,wg-a,,,,AAXX 27064 07335 02256 82525 10140 20120 39822 49962 53035 61000 75165 885// 90600 333 10164 20136 6006 91036=
07335,1998-09-27 09:00:00,18,1000.1,4,77,14,500,35.188,,55.56,260,,,,,,,,,,2,wg-a,,,,AAXX 27094 07335 02400 /2619 10180 20140 39862 40001 51040 61000 70265 82232 90900 333 //// 91030=
07335,1998-09-27 12:00:00,15,1003.3,3,94,14,8000,25.928,,,260,,,,10,,,,,,80,wg-a,,,,AAXX 27124 07335 02158 72614 10150 20140 39892 40033 51030 60106 78086 879// 91200 333 60107=
07335,1998-09-27 15:00:00,15,1004.8,1.5,94,14,25000,14.816,,,260,,,,2,,,,,,21,wg-a,,,,AAXX 27154 07335 12275 72608 10150 20140 39907 40048 51015 60027 72186 8297/ 91500=
07335,1998-09-27 18:00:00,16,1005.8,1,82,13,0,18.52,,,250,13.7,18.2,,,,,,,,,wg-a,,,,AAXX 27184 07335 32/// /2510 10160 20130 39917 40058 53010 91800 333 10182 20137=
07335,1998-09-28 00:00:00,15,1006.8,-0.4,94,14,0,14.816,,,250,,,,,,,,,,,wg-a,,,,AAXX 28004 07335 12/// /2508 10150 20140 39927 40068 58004 60006 90000=
07335,1998-09-28 09:00:00,17,1008.8,1.4,88,15,6000,14.816,,,270,,,,,,,,,,,wg-a,,,,AAXX 28094 07335 12356 72708 10170 20150 39948 40088 52014 60006 8253/ 90900=
07335,1998-09-28 12:00:00,19,1009.2,0.4,68,13,20000,14.816,,,310,,,,,,,,,,,wg-a,,,,AAXX 28124 07335 12570 43108 10190 20130 39952 40092 51004 60006 84800 91200=
07335,1998-09-28 15:00:00,20,1008.7,-0.4,60,12,25000,22.224,,,260,,,,,,,,,,,wg-a,,,,AAXX 28154 07335 12575 32612 10200 20120 39948 40087 55004 60006 83800 91500=
07335,1998-09-28 18:00:00,16,1009.8,0.9,82,13,0,14.816,,,250,13.7,20.4,,,,,,,,,wg-a,,,,AAXX 28184 07335 12/// /2508 10160 20130 39957 40098 53009 60006 91800 333 10204 20137=
07335,1998-09-29 00:00:00,14,1011.8,0.2,94,13,0,11.112,,,230,,,,,,,,,,,wg-a,,,,AAXX 29004 07335 12/// /2306 10140 20130 39975 40118 50002 60006 90000=
07335,1998-09-29 06:00:00,13,1009.8,-0.9,94,12,9000,0,,,0,12.7,15.6,,,,,,,,,wg-a,,,,AAXX 29064 07335 02459 70000 10130 20120 39956 40098 57009 60006 86502 90600 333 10156 20127 60004=
07335,1998-09-29 09:00:00,15,1008.9,-0.8,94,14,7000,11.112,,,180,,,,,,,,,,,wg-a,,,,AAXX 29094 07335 12457 81806 10150 20140 39948 40089 55008 60006 885// 90900=
07335,1998-09-29 12:00:00,16,1005.8,-3,82,13,12000,14.816,,,150,,,,,,,,,,,wg-a,,,,AAXX 29124 07335 12462 81508 10160 20130 39918 40058 58030 60006 878// 91200=
07335,1998-09-29 15:00:00,17,1002.7,-3,77,13,15000,14.816,,,150,,,,,,,,,,,wg-a,,,,AAXX 29154 07335 12565 81508 10170 20130 39888 40027 58030 60006 8387/ 91500=
07335,1998-09-29 18:00:00,15,1001.5,-1.3,88,13,0,11.112,,,140,13.1,17.4,,,,,,,,,wg-a,,,,AAXX 29184 07335 12/// /1406 10150 20130 39875 40015 57013 60006 91800 333 10174 20131=
07335,1998-09-30 00:00:00,16,1001.6,1.8,88,14,0,25.928,,,230,,,,,,,,,,,wg-a,,,,AAXX 30004 07335 12/// /2314 10160 20140 39876 40016 51018 60026 90000=
07335,1998-09-30 06:00:00,13,1003.4,1,94,12,15000,14.816,,,220,13,16.2,,,,,2,,,,wg-a,,,,AAXX 30064 07335 02465 42208 10130 20120 39892 40034 51010 60006 81802 90600 333 10162 20130 60024=
07335,1998-09-30 09:00:00,16,1003.4,0.2,82,13,20000,25.928,,,210,,,,0,,,,,,3,wg-a,,,,AAXX 30094 07335 12270 42114 10160 20130 39894 40034 51002 60007 70386 83832 90900=
07335,1998-09-30 12:00:00,14,1003.5,-0,82,11,12000,25.928,,,230,,,,2,,,,,,25,wg-a,,,,AAXX 30124 07335 02262 62314 10140 20110 39894 40035 55000 60026 72586 85902 91200 333 60027=
07335,1998-09-30 15:00:00,16,1002.6,-0.8,77,12,15000,25.928,,,250,,,,2,,,,,,25,wg-a,,,,AAXX 30154 07335 12265 42514 10160 20120 39886 40026 55008 60027 72586 83902 91500=
07335,1998-09-30 18:00:00,14,1003.5,0.8,82,11,0,25.928,,,230,12.9,17.6,,,,,,,,,wg-a,,,,AAXX 30184 07335 32/// /2314 10140 20110 39894 40035 53008 91800 333 10176 20129=
07335,1998-10-01 00:00:00,12,1002.9,-0.7,88,10,0,22.224,,,190,,,,,,,,,,,wg-a,,,,AAXX 01004 07335 12/// /1912 10120 20100 39887 40029 58007 60016 90000=
07335,1998-10-01 06:00:00,12,1001.6,-0.1,88,10,15000,22.224,,,190,11.6,14,,,,,,,,60,wg-a,,,,AAXX 01064 07335 02165 81912 10120 20100 39874 40016 55001 61000 76061 876// 90600 333 10140 20116 6005=
07335,1998-10-01 09:00:00,13,1001.5,-0.1,88,11,25000,29.632,,,190,,,,,,,,,,60,wg-a,,,,AAXX 01094 07335 02475 81916 10130 20110 39873 40015 56001 61000 76062 876// 90900 333 ////=
07335,1998-10-01 12:00:00,13,1001.2,-0.2,94,12,500,22.224,,,190,,,,1,,,,,,51,wg-a,,,,AAXX 01124 07335 02200 81912 10130 20120 39871 40012 57002 60016 75165 885// 91200 333 60017=
07335,1998-10-01 18:00:00,14,1000.4,0.2,94,13,0,14.816,,,190,11.7,16,,,,,,,,,wg-a,,,,AAXX 01184 07335 32/// /1908 10140 20130 39863 40004 53002 91800 333 10160 20117=
07335,1998-10-02 00:00:00,13,999.9,-0.4,100,13,0,14.816,,,170,,,,,,,,,,,wg-a,,,,AAXX 02004 07335 12/// /1708 10130 20130 39858 49999 56004 60046 90000=
07335,1998-10-02 06:00:00,13,1001.9,2.5,94,12,6000,22.224,,,20,12.7,13.7,,,,,,,,61,wg-a,,,,AAXX 02064 07335 02156 80212 10130 20120 39877 40019 53025 61000 76166 887// 90600 333 10137 20127 6024=
07335,1998-10-02 09:00:00,13,1004.7,2.8,94,12,8000,22.224,,,10,,,,1,,,,,,1,wg-a,,,,AAXX 02094 07335 12258 80112 10130 20120 39905 40047 51028 60017 70162 886// 90900=
07335,1998-10-02 12:00:00,14,1006.4,1.7,88,12,15000,14.816,,,20,,,,,,,,,,1,wg-a,,,,AAXX 02124 07335 12465 80208 10140 20120 39922 40064 51017 60016 70162 886// 91200=
07335,1998-10-02 15:00:00,14,1007.6,1.2,94,13,20000,25.928,,,20,,,,0,,,,,,1,wg-a,,,,AAXX 02154 07335 12370 70214 10140 20130 39934 40076 53012 60007 70152 878// 91500=
07335,1998-10-02 18:00:00,13,1009.8,2.2,94,12,0,11.112,,,350,12.3,16,,,,,,,,,wg-a,,,,AAXX 02184 07335 32/// /3506 10130 20120 39956 40098 53022 91800 333 10160 20123=
07335,1998-10-03 00:00:00,8,1013.9,1.2,100,8,0,11.112,,,320,,,,,,,,,,,wg-a,,,,AAXX 03004 07335 12/// /3206 10080 20080 39993 40139 53012 60006 90000=
07335,1998-10-03 06:00:00,8,1014.4,0.2,93,7,1800,3.704,,,230,6.4,13.3,,,,,2,,,10,wg-a,,,,AAXX 03064 07335 02218 72302 10080 20070 39998 40144 53002 60006 71011 875// 90600 333 10133 20064 60024=
07335,1998-10-03 09:00:00,12,1014.1,0,100,12,500,14.816,,,230,,,,,,,,,,,wg-a,,,,AAXX 03094 07335 12600 /2308 10120 20120 39998 40141 50000 60006 86500 90900=
07335,1998-10-03 12:00:00,15,1013.2,-0.8,77,11,12000,18.52,,,250,,,,,,,,,,,wg-a,,,,AAXX 03124 07335 12462 72510 10150 20110 39990 40132 58008 60006 878// 91200=
07335,1998-10-03 15:00:00,15,1011.7,-1.5,77,11,12000,14.816,,,260,,,,,,,,,,,wg-a,,,,AAXX 03154 07335 12562 72608 10150 20110 39975 40117 56015 60006 878// 91500=
07335,1998-10-03 18:00:00,12,1011.7,-0.2,88,10,0,7.408,,,40,7.6,16.6,,,,,,,,,wg-a,,,,AAXX 03184 07335 32/// /0404 10120 20100 39973 40117 55002 91800 333 10166 20076=
07335,1998-10-04 00:00:00,11,1009.6,-1.8,94,10,0,3.704,,,340,,,,,,,,,,,wg-a,,,,AAXX 04004 07335 12/// /3402 10110 20100 39952 40096 58018 60006 90000=
07335,1998-10-04 06:00:00,11,1005.9,-1.5,94,10,4000,3.704,,,130,10.5,11.5,,,,,,,,10,wg-a,,,,AAXX 04064 07335 02240 81302 10110 20100 39916 40059 57015 61000 71086 885// 90600 333 10115 20105 6001=
07335,1998-10-04 09:00:00,11,1005.6,-0.3,94,10,3500,7.408,,,10,,,,0,,,,,,10,wg-a,,,,AAXX 04094 07335 12235 80104 10110 20100 39913 40056 57003 60007 71062 885// 90900=
07335,1998-10-04 12:00:00,13,1005,-0.5,77,9,7000,7.408,,,10,,,,,,,,,,3,wg-a,,,,AAXX 04124 07335 02457 70104 10130 20090 39908 40050 58005 60006 70362 8511/ 91200 333 61000=
07335,1998-10-04 15:00:00,13,1004.5,-0.5,72,8,8000,7.408,,,340,,,,,,,,,,,wg-a,,,,AAXX 04154 07335 12558 73404 10130 20080 39903 40045 56005 60006 8583/ 91500=
07335,1998-10-04 18:00:00,12,1004.7,0.1,82,9,0,3.704,,,80,10.5,13.3,,,,,,,,,wg-a,,,,AAXX 04184 07335 32/// /0802 10120 20090 39904 40047 53001 91800 333 10133 20105=
07335,1998-10-05 00:00:00,8,1005.4,-0.1,93,7,0,3.704,,,10,,,,,,,,,,,wg-a,,,,AAXX 05004 07335 12/// /0102 10080 20070 39909 40054 58001 60006 90000=
07335,1998-10-05 06:00:00,8,1005.7,0.6,100,8,2200,3.704,,,60,4.9,11.9,,,,,,,,10,wg-a,,,,AAXX 05064 07335 02122 70602 10080 20080 39912 40057 51006 60006 71042 8167/ 90600 333 10119 20049 60004=
07335,1998-10-05 09:00:00,12,1006.6,1.1,76,8,15000,11.112,,,90,,,,,,,,,,,wg-a,,,,AAXX 05094 07335 12365 40906 10120 20080 39923 40066 51011 60006 81132 90900=
07335,1998-10-05 12:00:00,15,1006.6,0.1,55,6,15000,11.112,,,70,,,,,,,,,,,wg-a,,,,AAXX 05124 07335 12565 30706 10150 20060 39924 40066 50001 60006 82102 91200=
07335,1998-10-05 15:00:00,16,1006,-0.5,51,6,20000,14.816,,,40,,,,,,,,,,,wg-a,,,,AAXX 05154 07335 12670 40408 10160 20060 39919 40060 55005 60006 81102 91500=
07335,1998-10-05 18:00:00,13,1007.4,1.3,67,7,0,7.408,,,60,8.1,16.1,,,,,,,,,wg-a,,,,AAXX 05184 07335 12/// /0604 10130 20070 39932 40074 53013 60006 91800 333 10161 20081=
07335,1998-10-06 00:00:00,7,1009,0.1,93,6,0,7.408,,,20,,,,,,,,,,,wg-a,,,,AAXX 06004 07335 12/// /0204 10070 20060 39944 40090 53001 60006 90000=
07335,1998-10-06 06:00:00,5,1009.2,0.3,93,4,1000,7.408,,,330,4,13,,,,,,,,10,wg-a,,,,AAXX 06064 07335 02/10 /3304 10050 20040 39945 40092 53003 60006 71000 81030 90600 333 10130 20040 60004=
07335,1998-10-06 09:00:00,10,1011.1,2.1,93,9,3500,11.112,,,20,,,,,,,,,,10,wg-a,,,,AAXX 06094 07335 12235 30206 10100 20090 39966 40111 52021 60006 71000 81631 90900=
07335,1998-10-06 12:00:00,14,1010.8,0,63,7,20000,14.816,,,20,,,,,,,,,,,wg-a,,,,AAXX 06124 07335 12570 60208 10140 20070 39966 40108 50000 60006 81132 91200=
07335,1998-10-06 15:00:00,16,1011.6,0.8,55,7,25000,22.224,,,20,,,,,,,,,,,wg-a,,,,AAXX 06154 07335 12675 70212 10160 20070 39974 40116 53008 60006 85532 91500=
07335,1998-10-06 18:00:00,12,1013.8,2,82,9,0,3.704,,,80,4.5,16.1,,,,,,,,,wg-a,,,,AAXX 06184 07335 12/// /0802 10120 20090 39994 40138 53020 60006 91800 333 10161 20045=
07335,1998-10-07 00:00:00,5,1016,0.7,93,4,0,3.704,,,230,,,,,,,,,,,wg-a,,,,AAXX 07004 07335 12/// /2302 10050 20040 30012 40160 51007 60006 90000=
07335,1998-10-07 06:00:00,7,1017.3,0.9,100,7,2500,3.704,,,240,3.7,12,,,,,,,,21,wg-a,,,,AAXX 07064 07335 02225 82402 10070 20070 30026 40173 53009 61000 72165 8757/ 90600 333 10120 20037 6100=
07335,1998-10-07 09:00:00,10,1018.9,1.8,93,9,3000,18.52,,,360,,,,,,,,,,10,wg-a,,,,AAXX 07094 07335 12330 83610 10100 20090 30044 40189 51018 60006 71022 875// 90900=
07335,1998-10-07 12:00:00,13,1019,0.2,77,9,500,18.52,,,320,,,,,,,,,,,wg-a,,,,AAXX 07124 07335 12400 73210 10130 20090 30046 40190 53002 60006 8481/ 91200=
07335,1998-10-07 15:00:00,13,1019.7,0.7,67,7,6000,14.816,,,350,,,,,,,,,,,wg-a,,,,AAXX 07154 07335 12556 73508 10130 20070 30053 40197 51007 60006 8583/ 91500=
07335,1998-10-07 18:00:00,11,1020.6,0.8,87,9,0,3.704,,,330,6.9,13.5,,,,,,,,,wg-a,,,,AAXX 07184 07335 32/// /3302 10110 20090 30061 40206 53008 91800 333 10135 20069=
07335,1998-10-08 00:00:00,10,1021.7,-0.2,87,8,0,11.112,,,320,,,,,,,,,,,wg-a,,,,AAXX 08004 07335 02/// /3206 10100 20080 30071 40217 57002 61000 90000 333 ////=
07335,1998-10-08 06:00:00,10,1021.1,0.2,93,9,3000,18.52,,,330,9.3,10.6,,,,,,,,51,wg-a,,,,AAXX 08064 07335 02130 83310 10100 20090 30065 40211 52002 61000 75165 887// 90600 333 10106 20093 6001=
07335,1998-10-08 09:00:00,11,1022,0.9,87,9,8000,22.224,,,330,,,,0,,,,,,21,wg-a,,,,AAXX 08094 07335 12458 83312 10110 20090 30074 40220 51009 60007 72165 885// 90900=
07335,1998-10-08 12:00:00,11,1022.1,0.2,94,10,7000,22.224,,,340,,,,,,,,,,58,wg-a,,,,AAXX 08124 07335 02357 83412 10110 20100 30076 40221 51002 60006 75865 885// 91200 333 61000=
07335,1998-10-08 15:00:00,11,1021.4,-0.7,100,11,7000,18.52,,,330,,,,1,,,,,,61,wg-a,,,,AAXX 08154 07335 12257 83310 10110 20110 30069 40214 58007 60017 76166 885// 91500=
07335,1998-10-08 18:00:00,10,1021.6,0.1,100,10,0,22.224,,,330,9.4,11.6,,,,,,,,,wg-a,,,,AAXX 08184 07335 32/// /3312 10100 20100 30070 40216 53001 91800 333 10116 20094=
07335,1998-10-09 00:00:00,10,1019.6,-1.3,93,9,0,22.224,,,340,,,,,,,,,,,wg-a,,,,AAXX 09004 07335 12/// /3412 10100 20090 30050 40196 56013 60036 90000=
07335,1998-10-09 06:00:00,9,1021,1.3,93,8,8000,14.816,,,20,9.2,10.3,,,,,9,,,3,wg-a,,,,AAXX 09064 07335 02258 80208 10090 20080 30064 40210 53013 60006 70362 886// 90600 333 10103 20092 60094=
07335,1998-10-09 12:00:00,13,1022.1,-0.1,72,8,15000,3.704,,,30,,,,,,,,,,,wg-a,,,,AAXX 09124 07335 12465 70302 10130 20080 30076 40221 58001 60006 878// 91200=
07335,1998-10-09 15:00:00,12,1020.8,-1.3,82,9,15000,7.408,,,310,,,,,,,,,,,wg-a,,,,AAXX 09154 07335 12565 83104 10120 20090 30063 40208 56013 60006 888// 91500=
07335,1998-10-09 18:00:00,11,1020.7,-0.1,87,9,0,3.704,,,240,9.2,13,,,,,,,,,wg-a,,,,AAXX 09184 07335 12/// /2402 10110 20090 30062 40207 55001 60006 91800 333 10130 20092=
07335,1998-10-10 00:00:00,9,1019.9,-1.5,93,8,0,11.112,,,240,,,,,,,,,,,wg-a,,,,AAXX 10004 07335 12/// /2406 10090 20080 30053 40199 56015 60006 90000=
07335,1998-10-10 06:00:00,11,1016.5,-1.7,94,10,6000,18.52,,,200,8.4,10.8,,,,,,,,61,wg-a,,,,AAXX 10064 07335 02256 82010 10110 20100 30020 40165 57017 61000 76162 885// 90600 333 10108 20084 6001=
07335,1998-10-10 09:00:00,12,1016.3,-0.1,94,11,4000,25.928,,,210,,,,0,,,,,,50,wg-a,,,,AAXX 10094 07335 12340 82114 10120 20110 30019 40163 55001 60007 75065 887// 90900=
07335,1998-10-10 12:00:00,14,1015.5,-0.7,94,13,2500,18.52,,,230,,,,1,,,,,,51,wg-a,,,,AAXX 10124 07335 02225 82310 10140 20130 30012 40155 56007 60016 75165 887// 91200 333 60017=
07335,1998-10-10 15:00:00,15,1015.4,-0,88,13,20000,14.816,,,310,,,,0,,,,,,1,wg-a,,,,AAXX 10154 07335 12470 73108 10150 20130 30012 40154 55000 60007 70152 878// 91500=
07335,1998-10-10 18:00:00,12,1017.4,1.8,94,11,0,11.112,,,280,10.5,15.3,,,,,,,,,wg-a,,,,AAXX 10184 07335 32/// /2806 10120 20110 30030 40174 53018 91800 333 10153 20105=
07335,1998-10-11 00:00:00,11,1020.2,0.3,94,10,0,11.112,,,270,,,,,,,,,,,wg-a,,,,AAXX 11004 07335 12/// /2706 10110 20100 30057 40202 51003 60006 90000=
07335,1998-10-11 06:00:00,9,1020.8,0.3,100,9,400,11.112,,,220,7.9,12.8,,,,,2,,,45,wg-a,,,,AAXX 11064 07335 02/04 92206 10090 20090 30062 40208 50003 60006 74542 89/// 90600 333 10128 20079 60024=
07335,1998-10-11 09:00:00,12,1021.8,1.1,94,11,15000,14.816,,,220,,,,,,,,,,3,wg-a,,,,AAXX 11094 07335 12465 72208 10120 20110 30073 40218 51011 60006 70342 878// 90900=
07335,1998-10-11 12:00:00,14,1019.7,-1.9,88,12,500,25.928,,,240,,,,0,,,,,,50,wg-a,,,,AAXX 11124 07335 02300 82414 10140 20120 30054 40197 56019 60006 75054 885// 91200 333 60007=
07335,1998-10-11 15:00:00,15,1017.4,-2.3,94,14,8000,31.484,,,240,,,,,,,,,,50,wg-a,,,,AAXX 11154 07335 02358 82417 10150 20140 30031 40174 56023 61000 75052 887// 91500 333 ////=
07335,1998-10-11 18:00:00,15,1016.6,-0.7,100,15,0,18.52,,,260,8.7,15.3,,1,,,,,,,wg-a,,,,AAXX 11184 07335 12/// /2610 10150 20150 30024 40166 56007 60017 91800 333 10153 20087=
07335,1998-10-12 00:00:00,13,1017.5,0.3,94,12,0,18.52,,,360,,,,,,,,,,,wg-a,,,,AAXX 12004 07335 12/// /3610 10130 20120 30031 40175 52003 60016 90000=
07335,1998-10-12 06:00:00,9,1019.6,1.5,93,8,15000,7.408,,,260,7.7,15.5,,,,,2,,,,wg-a,,,,AAXX 12064 07335 02665 72604 10090 20080 30050 40196 51015 60006 875// 90600 333 10155 20077 60024=
07335,1998-10-12 09:00:00,12,1021.3,1.8,88,10,20000,18.52,,,300,,,,,,,,,,,wg-a,,,,AAXX 12094 07335 12670 73010 10120 20100 30068 40213 53018 60006 875// 90900=
07335,1998-10-12 12:00:00,15,1021.4,,67,9,500,22.224,,,300,,,,,,,,,,,wg-a,,,,AAXX 12124 07335 12500 /3012 10150 20090 30071 40214 60006 86800 91200=
07335,1998-10-12 15:00:00,15,1021.8,0.4,67,9,500,14.816,,,340,,,,,,,,,,,wg-a,,,,AAXX 12154 07335 12500 73408 10150 20090 30075 40218 53004 60006 878// 91500=
07335,1998-10-12 18:00:00,11,1023.5,1.4,87,9,0,7.408,,,320,8.5,15.8,,,,,,,,,wg-a,,,,AAXX 12184 07335 32/// /3204 10110 20090 30089 40235 53014 91800 333 10158 20085=
07335,1998-10-13 00:00:00,9,1025,0.2,93,8,0,3.704,,,230,,,,,,,,,,,wg-a,,,,AAXX 13004 07335 12/// /2302 10090 20080 30103 40250 50002 60006 90000=
07335,1998-10-13 06:00:00,4,1025.2,0.3,100,4,100,0,,,0,4.3,10.8,,,,,,,,41,wg-a,,,,AAXX 13064 07335 12601 /0000 10040 20040 30102 40252 51003 60006 74141 81500 90600 333 10108 20043=
07335,1998-10-13 09:00:00,13,1025.5,0.8,82,10,15000,14.816,,,230,,,,,,,,,,3,wg-a,,,,AAXX 13094 07335 12665 62308 10130 20100 30110 40255 51008 60006 70341 84531 90900=
07335,1998-10-13 12:00:00,16,1025.1,-0.2,72,11,15000,18.52,,,260,,,,,,,,,,3,wg-a,,,,AAXX 13124 07335 12565 72610 10160 20110 30108 40251 58002 60006 70341 8683/ 91200=
07335,1998-10-13 15:00:00,17,1024.3,-0.8,68,11,15000,14.816,,,250,,,,,,,,,,,wg-a,,,,AAXX 13154 07335 12565 72508 10170 20110 30100 40243 56008 60006 8483/ 91500=
07335,1998-10-13 18:00:00,14,1024.4,-0,77,10,0,11.112,,,240,4.1,17.1,,,,,,,,,wg-a,,,,AAXX 13184 07335 12/// /2406 10140 20100 30100 40244 55000 60006 91800 333 10171 20041=
07335,1998-10-14 00:00:00,13,1025,-0.1,88,11,0,14.816,,,230,,,,,,,,,,,wg-a,,,,AAXX 14004 07335 12/// /2308 10130 20110 30105 40250 56001 60006 90000=
07335,1998-10-14 06:00:00,13,1024.9,0.6,94,12,2000,11.112,,,220,12.6,14.4,,,,,,,,50,wg-a,,,,AAXX 14064 07335 02120 82206 10130 20120 30104 40249 52006 61000 75052 887// 90600 333 10144 20126 6000=
07335,1998-10-14 09:00:00,14,1026,1.2,100,14,8000,14.816,,,230,,,,1,,,,,,20,wg-a,,,,AAXX 14094 07335 12158 72308 10140 20140 30116 40260 53012 60017 72052 877// 90900=
07335,1998-10-14 12:00:00,16,1025.9,-0.1,88,14,20000,14.816,,,240,,,,0,,,,,,20,wg-a,,,,AAXX 14124 07335 02370 72408 10160 20140 30115 40259 58001 60026 72052 875// 91200 333 60007=
07335,1998-10-14 15:00:00,19,1024.9,-0.8,68,13,500,14.816,,,250,,,,,,,,,,,wg-a,,,,AAXX 14154 07335 12400 /2508 10190 20130 30107 40249 56008 60006 86500 91500=
07335,1998-10-14 18:00:00,16,1026.3,1.3,82,13,0,7.408,,,220,12.8,18.6,,,,,,,,,wg-a,,,,AAXX 14184 07335 32/// /2204 10160 20130 30120 40263 53013 91800 333 10186 20128=
07335,1998-10-15 00:00:00,13,1026.6,-0.4,94,12,0,11.112,,,220,,,,,,,,,,,wg-a,,,,AAXX 15004 07335 12/// /2206 10130 20120 30121 40266 58004 60006 90000=
07335,1998-10-15 06:00:00,13,1025.4,-0.3,100,13,0,11.112,,,210,12.6,15.8,,,,,2,,,,wg-a,,,,AAXX 15064 07335 02/// /2106 10130 20130 30109 40254 58003 60006 90600 333 10158 20126 60024=
07335,1998-10-15 12:00:00,17,1025,-0.9,82,14,0,14.816,,,240,,,,,,,,,,,wg-a,,,,AAXX 15124 07335 12/// /2408 10170 20140 30107 40250 58009 60006 91200=
07335,1998-10-15 18:00:00,16,1023.5,-0.2,94,15,0,7.408,,,240,13.2,18.2,,,,,,,,,wg-a,,,,AAXX 15184 07335 12/// /2404 10160 20150 30092 40235 55002 60006 91800 333 10182 20132=
07335,1998-10-16 00:00:00,15,1022.5,-0.9,94,14,0,7.408,,,230,,,,,,,,,,,wg-a,,,,AAXX 16004 07335 12/// /2304 10150 20140 30082 40225 58009 60006 90000=
07335,1998-10-16 06:00:00,15,1020.2,-1,88,13,15000,0,,,0,14.6,16.1,,,,,,,,,wg-a,,,,AAXX 16064 07335 02465 80000 10150 20130 30059 40202 58010 60006 87532 90600 333 10161 20146 60004=
07335,1998-10-16 09:00:00,18,1019.4,-0.7,73,13,25000,11.112,,,130,,,,,,,,,,,wg-a,,,,AAXX 16094 07335 12475 /1306 10180 20130 30052 40194 57007 60006 82802 90900=
07335,1998-10-16 12:00:00,19,1017.3,-2,73,14,25000,11.112,,,180,,,,,,,,,,,wg-a,,,,AAXX 16124 07335 12575 51806 10190 20140 30032 40173 58020 60006 81102 91200=
07335,1998-10-16 15:00:00,20,1014.7,-2.5,64,13,500,14.816,,,210,,,,,,,,,,,wg-a,,,,AAXX 16154 07335 12500 /2108 10200 20130 30007 40147 56025 60006 81102 91500=
07335,1998-10-16 18:00:00,16,1013.6,-1.2,88,14,0,7.408,,,180,13.3,20.7,,,,,,,,,wg-a,,,,AAXX 16184 07335 12/// /1804 10160 20140 39995 40136 56012 60006 91800 333 10207 20133=
07335,1998-10-17 00:00:00,15,1012.2,-0.6,88,13,0,29.632,,,220,,,,,,,,,,,wg-a,,,,AAXX 17004 07335 12/// /2216 10150 20130 39980 40122 58006 60006 90000=
07335,1998-10-17 06:00:00,14,1010.8,-0.5,94,13,3000,18.52,,,200,14.1,16.4,,,,,,,,20,wg-a,,,,AAXX 17064 07335 02130 82010 10140 20130 39966 40108 58005 61000 72052 877// 90600 333 10164 20141 6100=
07335,1998-10-17 09:00:00,15,1010.8,0,94,14,500,25.928,,,210,,,,,,,,,,21,wg-a,,,,AAXX 17094 07335 02300 72114 10150 20140 39966 40108 50000 61000 72165 8577/ 90900 333 ////=
07335,1998-10-17 12:00:00,16,1011.7,1,88,14,3000,22.224,,,250,,,,0,,,,,,51,wg-a,,,,AAXX 17124 07335 02130 82512 10160 20140 39976 40117 51010 60006 75165 885// 91200 333 60007=
07335,1998-10-17 15:00:00,16,1013,1.2,82,13,20000,18.52,,,300,,,,2,,,,,,1,wg-a,,,,AAXX 17154 07335 12470 73010 10160 20130 39988 40130 53012 60027 70165 878// 91500=
07335,1998-10-17 18:00:00,12,1015.6,2.4,82,9,0,18.52,,,280,12.3,16,,,,,,,,,wg-a,,,,AAXX 17184 07335 32/// /2810 10120 20090 30012 40156 53024 91800 333 10160 20123=
07335,1998-10-18 00:00:00,6,1020.1,1.3,100,6,0,7.408,,,240,,,,,,,,,,,wg-a,,,,AAXX 18004 07335 12/// /2404 10060 20060 30053 40201 51013 60006 90000=
07335,1998-10-18 06:00:00,4,1021.3,0.7,100,4,15000,3.704,,,170,4,12.2,,,,,2,,,,wg-a,,,,AAXX 18064 07335 02/65 31702 10040 20040 30064 40213 51007 60006 81032 90600 333 10122 20040 60024=
07335,1998-10-18 09:00:00,11,1021.8,0.8,87,9,15000,7.408,,,210,,,,,,,,,,,wg-a,,,,AAXX 18094 07335 12765 72104 10110 20090 30072 40218 51008 60006 81532 90900=
07335,1998-10-18 12:00:00,14,1020.7,-0.9,72,9,20000,11.112,,,210,,,,,,,,,,,wg-a,,,,AAXX 18124 07335 12570 72106 10140 20090 30063 40207 58009 60006 84102 91200=
07335,1998-10-18 15:00:00,16,1019,-1.6,51,6,25000,7.408,,,250,,,,,,,,,,,wg-a,,,,AAXX 18154 07335 12575 62504 10160 20060 30047 40190 56016 60006 83832 91500=
07335,1998-10-18 18:00:00,10,1019.2,-0.1,82,7,0,3.704,,,50,3.3,16,,,,,,,,,wg-a,,,,AAXX 18184 07335 12/// /0502 10100 20070 30046 40192 55001 60006 91800 333 10160 20033=
07335,1998-10-19 00:00:00,7,1018.8,-0.6,93,6,0,3.704,,,270,,,,,,,,,,,wg-a,,,,AAXX 19004 07335 12/// /2702 10070 20060 30041 40188 58006 60006 90000=
07335,1998-10-19 06:00:00,3,1019.4,0.7,100,3,300,0,,,0,3.1,10,,,,,,,,41,wg-a,,,,AAXX 19064 07335 02/03 /0000 10030 20030 30045 40194 53007 60006 74140 81030 90600 333 10100 20031 60004=
07335,1998-10-19 09:00:00,10,1021.3,2.2,93,9,12000,7.408,,,350,,,,,,,,,,1,wg-a,,,,AAXX 19094 07335 12162 /3504 10100 20090 30067 40213 52022 60006 70140 81600 90900=
07335,1998-10-19 12:00:00,14,1021.9,0.8,67,8,500,11.112,,,10,,,,,,,,,,1,wg-a,,,,AAXX 19124 07335 12500 20106 10140 20080 30075 40219 51008 60006 70140 82200 91200=
07335,1998-10-19 15:00:00,15,1021.3,-0.5,59,7,500,18.52,,,300,,,,,,,,,,,wg-a,,,,AAXX 19154 07335 12600 /3010 10150 20070 30070 40213 55005 60006 86800 91500=
07335,1998-10-19 18:00:00,10,1023.4,1.8,82,7,0,7.408,,,310,2.9,15.2,,,,,,,,,wg-a,,,,AAXX 19184 07335 12/// /3104 10100 20070 30088 40234 53018 60006 91800 333 10152 20029=
07335,1998-10-20 00:00:00,5,1025.4,0.4,100,5,0,3.704,,,240,,,,,,,,,,,wg-a,,,,AAXX 20004 07335 12/// /2402 10050 20050 30105 40254 50004 60006 90000=
07335,1998-10-20 06:00:00,2,1025.9,0.6,100,2,10000,7.408,,,230,1.6,10.6,,,,,,,,,wg-a,,,,AAXX 20064 07335 02/60 12304 10020 20020 30108 40259 51006 60006 80002 90600 333 10106 20016 60004=
07335,1998-10-20 09:00:00,10,1026.6,1.1,87,8,15000,3.704,,,160,,,,,,,,,,,wg-a,,,,AAXX 20094 07335 12/65 21602 10100 20080 30119 40266 51011 60006 81032 90900=
07335,1998-10-20 12:00:00,15,1025.8,-0.5,55,6,25000,11.112,,,200,,,,,,,,,,,wg-a,,,,AAXX 20124 07335 12575 32006 10150 20060 30114 40258 58005 60006 82102 91200=
07335,1998-10-20 15:00:00,15,1024.8,-1,55,6,25000,7.408,,,240,,,,,,,,,,,wg-a,,,,AAXX 20154 07335 12675 32404 10150 20060 30104 40248 56010 60006 82102 91500=
07335,1998-10-20 18:00:00,11,1024.5,-0.5,76,7,0,7.408,,,170,1.6,15.5,,,,,,,,,wg-a,,,,AAXX 20184 07335 12/// /1704 10110 20070 30099 40245 56005 60006 91800 333 10155 20016=
07335,1998-10-21 00:00:00,6,1023.5,-0.5,93,5,0,7.408,,,210,,,,,,,,,,,wg-a,,,,AAXX 21004 07335 12/// /2104 10060 20050 30087 40235 56005 60006 90000=
07335,1998-10-21 06:00:00,8,1021.7,-0.5,81,5,20000,14.816,,,200,6.1,10.8,,,,,,,,,wg-a,,,,AAXX 21064 07335 02/70 72008 10080 20050 30070 40217 56005 60006 83032 90600 333 10108 20061 60004=
07335,1998-10-21 09:00:00,10,1023.1,1.5,76,6,20000,14.816,,,210,,,,,,,,,,,wg-a,,,,AAXX 21094 07335 12/70 62108 10100 20060 30085 40231 53015 60006 83032 90900=
07335,1998-10-21 12:00:00,16,1022,-0.8,59,8,25000,22.224,,,220,,,,,,,,,,,wg-a,,,,AAXX 21124 07335 12/75 22212 10160 20080 30077 40220 58008 60006 80001 91200=
07335,1998-10-21 15:00:00,17,1021.4,-0.5,59,9,25000,18.52,,,220,,,,,,,,,,,wg-a,,,,AAXX 21154 07335 12/75 62210 10170 20090 30072 40214 57005 60006 81032 91500=
07335,1998-10-21 18:00:00,15,1022.9,1.3,67,9,0,14.816,,,200,7.6,17.6,,,,,,,,,wg-a,,,,AAXX 21184 07335 12/// /2008 10150 20090 30085 40229 53013 60006 91800 333 10176 20076=
07335,1998-10-22 00:00:00,12,1024.6,0.5,71,7,0,7.408,,,200,,,,,,,,,,,wg-a,,,,AAXX 22004 07335 12/// /2004 10120 20070 30100 40246 50005 60006 90000=
07335,1998-10-22 06:00:00,11,1024.7,0.3,82,8,20000,14.816,,,190,11.1,15.1,,,,,,,,,wg-a,,,,AAXX 22064 07335 02770 61908 10110 20080 30101 40247 50003 60006 82532 90600 333 10151 20111 60004=
07335,1998-10-22 09:00:00,14,1025.3,0.8,77,10,20000,22.224,,,190,,,,,,,,,,,wg-a,,,,AAXX 22094 07335 12/70 61912 10140 20100 30109 40253 50008 60006 84032 90900=
07335,1998-10-22 12:00:00,17,1025.1,-0.1,63,10,20000,18.52,,,190,,,,,,,,,,,wg-a,,,,AAXX 22124 07335 12/70 51910 10170 20100 30108 40251 58001 60006 83032 91200=
07335,1998-10-22 15:00:00,19,1023.6,-1.4,56,10,20000,22.224,,,210,,,,,,,,,,,wg-a,,,,AAXX 22154 07335 12/70 32112 10190 20100 30094 40236 56014 60006 83032 91500=
07335,1998-10-22 18:00:00,15,1024.4,0.6,67,9,0,11.112,,,200,11.1,20.1,,,,,,,,,wg-a,,,,AAXX 22184 07335 12/// /2006 10150 20090 30100 40244 51006 60006 91800 333 10201 20111=
07335,1998-10-23 00:00:00,14,1024,-0.5,82,11,0,11.112,,,200,,,,,,,,,,,wg-a,,,,AAXX 23004 07335 12/// /2006 10140 20110 30096 40240 58005 60006 90000=
07335,1998-10-23 06:00:00,13,1021.2,-1.5,88,11,20000,18.52,,,200,12.8,15.6,,,,,,,,,wg-a,,,,AAXX 23064 07335 02770 72010 10130 20110 30068 40212 58015 60006 83532 90600 333 10156 20128 60004=
07335,1998-10-23 09:00:00,13,1022.1,0.9,94,12,8000,22.224,,,210,,,,,,,,,,50,wg-a,,,,AAXX 23094 07335 02158 82112 10130 20120 30077 40221 51009 61000 75052 8677/ 90900 333 ////=
07335,1998-10-23 12:00:00,17,1020.9,-1,88,15,20000,29.632,,,240,,,,,,,,,,3,wg-a,,,,AAXX 23124 07335 02470 82416 10170 20150 30067 40209 56010 61000 70352 8683/ 91200 333 6100=
07335,1998-10-23 15:00:00,16,1019.6,-1.3,94,15,500,14.816,,,240,,,,4,,,,,,63,wg-a,,,,AAXX 23154 07335 12200 82408 10160 20150 30054 40196 56013 60047 76362 875// 91500=
07335,1998-10-23 18:00:00,16,1019.6,-0,94,15,0,25.928,,,250,12.7,17.9,,4,,,,,,,wg-a,,,,AAXX 23184 07335 12/// /2514 10160 20150 30054 40196 55000 60047 91800 333 10179 20127=
07335,1998-10-24 00:00:00,11,1023.4,1,94,10,0,3.704,,,240,,,,,,,,,,,wg-a,,,,AAXX 24004 07335 12/// /2402 10110 20100 30088 40234 53010 60006 90000=
07335,1998-10-24 06:00:00,12,1020.7,-2,100,12,1200,11.112,,,180,9.2,16.1,,,,,8,,,10,wg-a,,,,AAXX 24064 07335 02112 81806 10120 20120 30062 40207 58020 60006 71022 876// 90600 333 10161 20092 60084=
07335,1998-10-24 09:00:00,13,1018.8,-1.8,100,13,6000,22.224,,,200,,,,0,,,,,,60,wg-a,,,,AAXX 24094 07335 12256 82012 10130 20130 30044 40188 58018 60007 76065 877// 90900=
07335,1998-10-24 12:00:00,14,1014.5,-4.2,82,11,9000,29.632,,48.152,210,,,,0,,,,,,50,wg-a,,,,AAXX 24124 07335 02459 82116 10140 20110 30002 40145 56042 60016 75065 875// 91200 333 60007 91026=
07335,1998-10-24 15:00:00,15,1009.8,-4.5,100,15,3000,29.632,,,220,,,,1,,,,,,51,wg-a,,,,AAXX 24154 07335 12230 82216 10150 20150 39957 40098 56045 60017 75165 877// 91500=
07335,1998-10-24 18:00:00,17,1005.2,-4.5,88,15,0,50.004,,,240,11.9,16.7,,1,,,,,,,wg-a,,,,AAXX 24184 07335 12/// /2427 10170 20150 39912 40052 56045 60017 91800 333 10167 20119=
07335,1998-10-25 00:00:00,12,1004.8,2.4,88,10,0,25.928,,,260,,,,4,,,,,,,wg-a,,,,AAXX 25004 07335 02/// /2614 10120 20100 39906 40048 51024 60146 90000 333 60047=
07335,1998-10-25 06:00:00,13,1007.5,1.4,88,11,12000,14.816,,,260,11.4,16.7,,,,,16,,,,wg-a,,,,AAXX 25064 07335 02562 72608 10130 20110 39932 40075 53014 60006 875// 90600 333 10167 20114 60164=
07335,1998-10-25 09:00:00,13,1010,2.5,88,11,12000,14.816,,,260,,,,,,,,,,,wg-a,,,,AAXX 25094 07335 12462 82608 10130 20110 39957 40100 52025 60006 87832 90900=
07335,1998-10-25 12:00:00,15,1010.3,0.4,77,11,20000,25.928,,,260,,,,0,,,,,,25,wg-a,,,,AAXX 25124 07335 02170 72614 10150 20110 39961 40103 50004 60006 72586 86802 91200 333 60007=
07335,1998-10-25 15:00:00,15,1010.6,0.3,67,9,25000,25.928,,,280,,,,,,,,,,,wg-a,,,,AAXX 25154 07335 12675 32814 10150 20090 39964 40106 53003 60006 83800 91500=
07335,1998-10-25 18:00:00,11,1013.1,2.3,76,7,0,14.816,,,280,10.7,16.4,,,,,,,,,wg-a,,,,AAXX 25184 07335 32/// /2808 10110 20070 39987 40131 53023 91800 333 10164 20107=
07335,1998-10-26 00:00:00,8,1015.5,0.8,93,7,0,18.52,,,260,,,,,,,,,,,wg-a,,,,AAXX 26004 07335 12/// /2610 10080 20070 30009 40155 51008 60006 90000=
07335,1998-10-26 06:00:00,8,1016.9,0.6,100,8,15000,11.112,,,220,6.1,11,,,,,,,,,wg-a,,,,AAXX 26064 07335 02665 /2206 10080 20080 30023 40169 53006 60006 86500 90600 333 10110 20061 60004=
07335,1998-10-26 09:00:00,11,1017.2,0.4,94,10,12000,14.816,,,230,,,,,,,,,,21,wg-a,,,,AAXX 26094 07335 02262 72308 10110 20100 30027 40172 53004 61000 72161 8783/ 90900 333 ////=
07335,1998-10-26 12:00:00,14,1017,-0,77,10,20000,22.224,,,290,,,,7,,,,,,21,wg-a,,,,AAXX 26124 07335 02470 62912 10140 20100 30027 40170 54000 60076 72161 8583/ 91200 333 60077=
07335,1998-10-26 15:00:00,14,1019,1.9,63,7,25000,25.928,,,300,,,,,,,,,,,wg-a,,,,AAXX 26154 07335 12675 /3014 10140 20070 30046 40190 53019 60006 81200 91500=
07335,1998-10-26 18:00:00,11,1021.7,2.5,76,7,25000,18.52,,,270,7.3,14.6,,,,,,,,,wg-a,,,,AAXX 26184 07335 12775 22710 10110 20070 30071 40217 53025 60006 82500 91800 333 10146 20073=
07335,1998-10-27 00:00:00,5,1026,1.4,100,5,0,11.112,,,260,,,,,,,,,,,wg-a,,,,AAXX 27004 07335 12/// /2606 10050 20050 30111 40260 51014 60006 90000=
07335,1998-10-27 06:00:00,6,1025.6,0.3,93,5,20000,11.112,,,220,4.5,11.7,,,,,7,,,,wg-a,,,,AAXX 27064 07335 02770 12206 10060 20050 30107 40256 53003 60006 81500 90600 333 10117 20045 60074=
07335,1998-10-27 09:00:00,11,1025.7,0.4,94,10,20000,14.816,,,200,,,,,,,,,,,wg-a,,,,AAXX 27094 07335 12570 72008 10110 20100 30111 40257 53004 60006 83202 90900=
07335,1998-10-27 12:00:00,15,1023.3,-2.1,77,11,20000,29.632,,,230,,,,,,,,,,,wg-a,,,,AAXX 27124 07335 12470 72316 10150 20110 30090 40233 58021 60006 82252 91200=
07335,1998-10-27 15:00:00,14,1022.3,-1.1,77,10,20000,25.928,,,230,,,,,,,,,,,wg-a,,,,AAXX 27154 07335 12570 72314 10140 20100 30079 40223 58011 60006 8327/ 91500=
07335,1998-10-27 18:00:00,13,1021.8,-0.5,88,11,20000,22.224,,,220,5.6,15.7,,,,,,,,,wg-a,,,,AAXX 27184 07335 12570 72212 10130 20110 30074 40218 58005 60006 8227/ 91800 333 10157 20056=
07335,1998-10-28 00:00:00,13,1019.2,-1.8,88,11,0,25.928,,,220,,,,,,,,,,,wg-a,,,,AAXX 28004 07335 12/// /2214 10130 20110 30048 40192 58018 60006 90000=
07335,1998-10-28 06:00:00,16,1017.6,-0.2,94,15,8000,35.188,,,250,12.5,15.6,,,,,,,,51,wg-a,,,,AAXX 28064 07335 02258 82519 10160 20150 30034 40176 56002 61000 75152 887// 90600 333 10156 20125 6001=
07335,1998-10-28 09:00:00,16,1019.3,1.7,94,15,6000,35.188,,61.116,260,,,,0,,,,,,51,wg-a,,,,AAXX 28094 07335 12256 82619 10160 20150 30051 40193 53017 60007 75165 887// 90900 333 91033=
07335,1998-10-28 12:00:00,17,1019.2,-0.1,88,15,500,35.188,,,250,,,,0,,,,,,51,wg-a,,,,AAXX 28124 07335 02200 82519 10170 20150 30050 40192 58001 60016 75165 885// 91200 333 60007=
07335,1998-10-28 18:00:00,16,1018.5,-0.4,94,15,4000,31.484,,,240,15.6,17.5,,0,,,,,,,wg-a,,,,AAXX 28184 07335 02/40 /2417 10160 20150 30043 40185 55004 60006 91800 333 10175 20156 60007=
07335,1998-10-29 00:00:00,16,1016,-1.8,94,15,0,31.484,,,240,,,,0,,,,,,,wg-a,,,,AAXX 29004 07335 02/// /2417 10160 20150 30018 40160 58018 60026 90000 333 60007=
07335,1998-10-29 06:00:00,10,1017.4,2.9,93,9,3000,22.224,,,310,10,16.3,,,,,,,,51,wg-a,,,,AAXX 29064 07335 02230 83112 10100 20090 30029 40174 52029 61000 75152 885// 90600 333 10163 20100 6007=
07335,1998-10-29 09:00:00,11,1021.9,4.4,94,10,500,18.52,,,270,,,,3,,,,,,1,wg-a,,,,AAXX 29094 07335 12200 32710 10110 20100 30073 40219 53044 60037 70165 81531 90900=
07335,1998-10-29 12:00:00,14,1024.5,2.8,63,7,500,25.928,,,320,,,,0,,,,,,2,wg-a,,,,AAXX 29124 07335 02500 33214 10140 20070 30101 40245 53028 60036 70265 83200 91200 333 60007=
07335,1998-10-29 18:00:00,7,1028.4,1.3,87,5,500,11.112,,,280,6.3,14.6,,,,,,,,,wg-a,,,,AAXX 29184 07335 12600 /2806 10070 20050 30135 40284 52013 60006 81100 91800 333 10146 20063=
07335,1998-10-30 00:00:00,6,1029.1,0.1,93,5,0,14.816,,,260,,,,,,,,,,,wg-a,,,,AAXX 30004 07335 12/// /2608 10060 20050 30142 40291 50001 60006 90000=
07335,1998-10-30 06:00:00,7,1027.3,-0.8,87,5,20000,14.816,,,240,4,7.1,,,,,3,,,,wg-a,,,,AAXX 30064 07335 02/70 72408 10070 20050 30124 40273 56008 60006 87031 90600 333 10071 20040 60034=
07335,1998-10-30 12:00:00,12,1025.8,-1.2,88,10,15000,25.928,,,260,,,,0,,,,,,25,wg-a,,,,AAXX 30124 07335 02165 82614 10120 20100 30113 40258 58012 60006 72586 82272 91200 333 60007=
07335,1998-10-30 15:00:00,13,1024.8,-1,77,9,20000,22.224,,,280,,,,,,,,,,1,wg-a,,,,AAXX 30154 07335 02370 72812 10130 20090 30103 40248 55010 61000 70186 87802 91500 333 ////=
07335,1998-10-30 18:00:00,10,1025,0.1,93,9,11000,18.52,,,260,6.5,13.5,,,,,,,,,wg-a,,,,AAXX 30184 07335 12/61 /2610 10100 20090 30104 40250 53001 60006 91800 333 10135 20065=
07335,1998-10-31 00:00:00,8,1023.9,-1.3,100,8,0,7.408,,,250,,,,,,,,,,,wg-a,,,,AAXX 31004 07335 12/// /2504 10080 20080 30092 40239 58013 60006 90000=
07335,1998-10-31 06:00:00,10,1020.9,-1.2,93,9,12000,11.112,,,230,6.8,10.3,,,,,,,,,wg-a,,,,AAXX 31064 07335 02662 72306 10100 20090 30063 40209 58012 60006 8257/ 90600 333 10103 20068 60004=
07335,1998-10-31 09:00:00,11,1019.5,-1.3,94,10,15000,11.112,,,220,,,,,,,,,,,wg-a,,,,AAXX 31094 07335 12365 72206 10110 20100 30050 40195 58013 60006 8517/ 90900=
07335,1998-10-31 12:00:00,13,1017.1,-2.3,82,10,15000,25.928,,,240,,,,,,,,,,,wg-a,,,,AAXX 31124 07335 12465 72414 10130 20100 30027 40171 58023 60006 875// 91200=
07335,1998-10-31 15:00:00,13,1014.3,-2.7,82,10,15000,22.224,,,240,,,,,,,,,,,wg-a,,,,AAXX 31154 07335 12465 72412 10130 20100 30000 40143 56027 60006 8787/ 91500=
07335,1998-10-31 18:00:00,12,1011.8,-2.5,88,10,0,25.928,,,220,9.6,13.8,,0,,,,,,,wg-a,,,,AAXX 31184 07335 12/// /2214 10120 20100 39975 40118 58025 60007 91800 333 10138 20096=
07335,1998-11-01 00:00:00,12,1005.7,-3,100,12,0,29.632,,,220,,,,1,,,,,,,wg-a,,,,AAXX 01004 07335 02/// /2216 10120 20120 39915 40057 58030 60016 90000 333 60017=
07335,1998-11-01 06:00:00,14,1005.3,1,94,13,15000,18.52,,,260,11.3,14.9,,,,,,,,60,wg-a,,,,AAXX 01064 07335 02265 72610 10140 20130 39912 40053 53010 61000 76062 8757/ 90600 333 10149 20113 6004=
07335,1998-11-01 09:00:00,13,1009.3,3.8,88,11,25000,18.52,,,340,,,,2,,,,,,3,wg-a,,,,AAXX 01094 07335 12475 83410 10130 20110 39950 40093 53038 60027 70362 888// 90900=
07335,1998-11-01 12:00:00,12,1011.5,2.2,82,9,25000,14.816,,,340,,,,,,,,,,1,wg-a,,,,AAXX 01124 07335 12575 83408 10120 20090 39972 40115 51022 60026 70162 888// 91200=
07335,1998-11-01 15:00:00,13,1012.6,1.1,72,8,25000,11.112,,,340,,,,,,,,,,,wg-a,,,,AAXX 01154 07335 12575 /3406 10130 20080 39983 40126 53011 60006 85802 91500=
07335,1998-11-02 00:00:00,3,1015.1,-0.6,93,2,0,3.704,,,220,,,,,,,,,,,wg-a,,,,AAXX 02004 07335 12/// /2202 10030 20020 30002 40151 58006 60006 90000=
07335,1998-11-02 06:00:00,7,1010.7,-2.2,93,6,15000,3.704,,,170,1.2,,,,,,2,,,,wg-a,,,,AAXX 02064 07335 02665 71702 10070 20060 39961 40107 56022 60006 875// 90600 333 10082 20012 60024=
07335,1998-11-02 09:00:00,10,1009.2,-1.3,87,8,15000,14.816,,,200,,,,,,,,,,,wg-a,,,,AAXX 02094 07335 12265 72008 10100 20080 39948 40092 56013 60006 878// 90900=
07335,1998-11-02 12:00:00,12,1005.7,-3.4,94,11,11000,22.224,,,200,,,,,,,,,,,wg-a,,,,AAXX 02124 07335 12/61 /2012 10120 20110 39914 40057 58034 60006 91200=
07335,1998-11-02 15:00:00,13,1002.2,-3.3,94,12,8000,11.112,,,200,,,,0,,,,,,58,wg-a,,,,AAXX 02154 07335 12158 82006 10130 20120 39881 40022 56033 60007 75865 876// 91500=
07335,1998-11-02 18:00:00,14,1001.2,-1,88,12,20000,25.928,,46.3,220,7.4,14.1,,,,,,,,21,wg-a,,,,AAXX 02184 07335 02270 82214 10140 20120 39871 40012 56010 61000 72162 878// 91800 333 10141 20074 6001 91025=
07335,1998-11-03 00:00:00,10,1003.2,1.2,93,9,0,14.816,,,240,,,,,,,,,,,wg-a,,,,AAXX 03004 07335 12/// /2408 10100 20090 39889 40032 51012 60016 90000=
07335,1998-11-03 06:00:00,9,1002.8,-0.5,93,8,15000,11.112,,,210,9.4,13.6,,,,,2,,,,wg-a,,,,AAXX 03064 07335 02/65 72106 10090 20080 39884 40028 57005 60006 85032 90600 333 10136 20094 60024=
07335,1998-11-03 09:00:00,10,1003.8,1.1,93,9,12000,14.816,,,250,,,,0,,,,,,60,wg-a,,,,AAXX 03094 07335 12462 82508 10100 20090 39895 40038 51011 60007 76062 8357/ 90900=
07335,1998-11-03 12:00:00,12,1002.7,-1,82,9,20000,18.52,,,230,,,,0,,,,,,2,wg-a,,,,AAXX 03124 07335 02470 72310 10120 20090 39885 40027 58010 60016 70262 8457/ 91200 333 60007=
07335,1998-11-03 15:00:00,12,1001.7,-1,82,9,20000,18.52,,,210,,,,,,,,,,16,wg-a,,,,AAXX 03154 07335 12470 72110 10120 20090 39875 40017 58010 60006 71622 8697/ 91500=
07335,1998-11-03 18:00:00,9,1002.1,0.3,93,8,11000,11.112,,,220,9.1,12,,,,,,,,,wg-a,,,,AAXX 03184 07335 12/61 /2206 10090 20080 39878 40021 53003 60006 91800 333 10120 20091=
07335,1998-11-04 00:00:00,8,1003.3,0.7,87,6,0,11.112,,,230,,,,,,,,,,,wg-a,,,,AAXX 04004 07335 12/// /2306 10080 20060 39889 40033 51007 60016 90000=
07335,1998-11-04 06:00:00,5,1004.6,1,100,5,20000,11.112,,,220,3.8,9.5,,,,,1,,,,wg-a,,,,AAXX 04064 07335 02670 /2206 10050 20050 39900 40046 53010 60006 81530 90600 333 10095 20038 60014=
07335,1998-11-04 12:00:00,13,1006.9,0.8,72,8,500,22.224,,,250,,,,,,,,,,15,wg-a,,,,AAXX 04124 07335 12500 62512 10130 20080 39927 40069 50008 60006 71511 85930 91200=
07335,1998-11-04 15:00:00,10,1008.3,1.2,82,7,500,7.408,,,310,,,,,,,,,,3,wg-a,,,,AAXX 04154 07335 02500 /3104 10100 20070 39939 40083 53012 61000 70386 86800 91500 333 ////=
07335,1998-11-04 18:00:00,5,1011.4,2.8,87,3,11000,3.704,,,290,3.6,13.6,,,,,,,,,wg-a,,,,AAXX 04184 07335 12/61 /2902 10050 20030 39967 40114 53028 60006 91800 333 10136 20036=
07335,1998-11-05 00:00:00,3,1016.7,2.3,93,2,0,11.112,,,310,,,,,,,,,,,wg-a,,,,AAXX 05004 07335 12/// /3106 10030 20020 30018 40167 52023 60006 90000=
07335,1998-11-05 06:00:00,-2,1020.9,2,100,-2,6000,3.704,,,280,-1.8,5.1,,,,,,,,11,wg-a,,,,AAXX 05064 07335 02/56 02802 11020 21020 30057 40209 53020 60006 71100 80000 90600 333 10051 21018 61000=
07335,1998-11-05 09:00:00,5,1023.4,2.8,93,4,12000,7.408,,,330,,,,,,,,,,,wg-a,,,,AAXX 05094 07335 12/62 03304 10050 20040 30085 40234 52028 60006 80000 90900=
07335,1998-11-05 12:00:00,10,1024.4,1.2,62,3,20000,3.704,,,170,,,,,,,,,,,wg-a,,,,AAXX 05124 07335 12570 31702 10100 20030 30097 40244 51012 60006 83200 91200=
07335,1998-11-05 15:00:00,9,1024.3,-0.1,66,3,20000,7.408,,,320,,,,,,,,,,,wg-a,,,,AAXX 05154 07335 12670 23204 10090 20030 30096 40243 55001 60006 82200 91500=
07335,1998-11-05 18:00:00,2,1025.8,1.1,93,1,20000,7.408,,,250,-1.7,11.7,,,,,,,,,wg-a,,,,AAXX 05184 07335 12/70 02504 10020 20010 30107 40258 53011 60006 80000 91800 333 10117 21017=
07335,1998-11-06 00:00:00,0,1028,0.6,93,-1,0,11.112,,,240,,,,,,,,,,,wg-a,,,,AAXX 06004 07335 12/// /2406 10000 21010 30127 40280 51006 60006 90000=
07335,1998-11-06 06:00:00,3,1029.2,1.2,93,2,12000,3.704,,,350,-0.5,3.6,,,,,,,,,wg-a,,,,AAXX 06064 07335 02662 73502 10030 20020 30141 40292 53012 60006 875// 90600 333 10036 21005 60004=
07335,1998-11-06 09:00:00,6,1029.9,0.9,87,4,12000,14.816,,,230,,,,,,,,,,,wg-a,,,,AAXX 06094 07335 12662 72308 10060 20040 30150 40299 50009 60006 875// 90900=
07335,1998-11-06 12:00:00,11,1029.9,0.2,71,6,20000,11.112,,,240,,,,,,,,,,,wg-a,,,,AAXX 06124 07335 12770 72406 10110 20060 30152 40299 50002 60006 875// 91200=
07335,1998-11-06 15:00:00,12,1029.3,-0.5,67,6,18000,11.112,,,330,,,,,,,,,,,wg-a,,,,AAXX 06154 07335 12568 73306 10120 20060 30147 40293 56005 60006 878// 91500=
07335,1998-11-06 18:00:00,9,1030.4,0.9,81,6,11000,7.408,,,300,3.1,13.2,,,,,,,,,wg-a,,,,AAXX 06184 07335 12/61 /3004 10090 20060 30156 40304 53009 60006 91800 333 10132 20031=
07335,1998-11-07 00:00:00,1,1030.6,-0.7,93,0,0,0,,,0,,,,,,,,,,,wg-a,,,,AAXX 07004 07335 12/// /0000 10010 20000 30154 40306 58007 60006 90000=
07335,1998-11-07 06:00:00,0,1029.8,-0.4,93,-1,600,3.704,,,20,-1.4,9.3,,,,,,,,44,wg-a,,,,AAXX 07064 07335 02006 /0202 10000 21010 30145 40298 56004 60006 74441 85600 90600 333 10093 21014 60004=
07335,1998-11-07 09:00:00,4,1028.8,-0.8,93,3,2000,0,,,0,,,,,,,,,,10,wg-a,,,,AAXX 07094 07335 12/20 /0000 10040 20030 30137 40288 56008 60006 71041 80001 90900=
07335,1998-11-07 12:00:00,13,1025.9,-2.3,54,4,500,18.52,,,100,,,,,,,,,,2,wg-a,,,,AAXX 07124 07335 12/00 11010 10130 20040 30114 40259 58023 60006 70241 80001 91200=
07335,1998-11-07 15:00:00,14,1024.3,-1.5,55,5,500,14.816,,,120,,,,,,,,,,,wg-a,,,,AAXX 07154 07335 12/00 11208 10140 20050 30099 40243 56015 60006 80001 91500=
07335,1998-11-07 18:00:00,4,1024.9,-0,87,2,0,7.408,,,100,-0.4,14.3,,,,,,,,,wg-a,,,,AAXX 07184 07335 12/// /1004 10040 20020 30099 40249 55000 60006 91800 333 10143 21004=
07335,1998-11-08 00:00:00,6,1024.1,0.6,87,4,0,14.816,,,200,,,,,,,,,,,wg-a,,,,AAXX 08004 07335 12/// /2008 10060 20040 30093 40241 50006 60006 90000=
07335,1998-11-08 06:00:00,5,1024.1,0,81,2,20000,14.816,,,180,3.4,7.3,,,,,,,,,wg-a,,,,AAXX 08064 07335 02/70 61808 10050 20020 30092 40241 50000 60006 81032 90600 333 10073 20034 60004=
07335,1998-11-08 09:00:00,9,1025.3,1.4,66,3,20000,18.52,,,200,,,,,,,,,,,wg-a,,,,AAXX 08094 07335 12770 72010 10090 20030 30106 40253 51014 60006 875// 90900=
07335,1998-11-08 12:00:00,13,1024.9,-0.2,62,6,20000,29.632,,,200,,,,,,,,,,,wg-a,,,,AAXX 08124 07335 12770 72016 10130 20060 30104 40249 58002 60006 875// 91200=
07335,1998-11-08 15:00:00,14,1024.1,-0.7,63,7,20000,18.52,,,210,,,,,,,,,,,wg-a,,,,AAXX 08154 07335 12770 72110 10140 20070 30097 40241 56007 60006 8553/ 91500=
07335,1998-11-08 18:00:00,14,1024.3,0.2,67,8,0,18.52,,,200,5,15.2,,,,,,,,,wg-a,,,,AAXX 08184 07335 12/// /2010 10140 20080 30099 40243 53002 60006 91800 333 10152 20050=
07335,1998-11-09 00:00:00,13,1023.8,-0.5,67,7,0,18.52,,,200,,,,,,,,,,,wg-a,,,,AAXX 09004 07335 12/// /2010 10130 20070 30093 40238 57005 60006 90000=
07335,1998-11-09 06:00:00,11,1023.2,0.2,76,7,20000,25.928,,,210,10.2,14.1,,,,,,,,,wg-a,,,,AAXX 09064 07335 02/70 52114 10110 20070 30086 40232 50002 60006 82032 90600 333 10141 20102 60004=
07335,1998-11-09 09:00:00,11,1024.3,1.1,82,8,20000,18.52,,,210,,,,,,,,,,3,wg-a,,,,AAXX 09094 07335 02/70 72110 10110 20080 30097 40243 53011 61000 70362 86072 90900 333 ////=
07335,1998-11-09 12:00:00,14,1022.8,-1.3,77,10,20000,14.816,,,190,,,,,,,,,,3,wg-a,,,,AAXX 09124 07335 02570 71908 10140 20100 30084 40228 58013 61000 70362 8357/ 91200 333 ////=
07335,1998-11-09 15:00:00,14,1022,-0.8,94,13,8000,11.112,,,210,,,,0,,,,,,61,wg-a,,,,AAXX 09154 07335 12258 82106 10140 20130 30076 40220 55008 60007 76162 885// 91500=
07335,1998-11-09 18:00:00,15,1022.2,0.2,94,14,0,25.928,,,230,9.8,15.2,,,,,,,,,wg-a,,,,AAXX 09184 07335 32/// /2314 10150 20140 30078 40222 53002 91800 333 10152 20098=
07335,1998-11-10 00:00:00,15,1019.8,-1.6,94,14,0,14.816,,,220,,,,,,,,,,,wg-a,,,,AAXX 10004 07335 12/// /2208 10150 20140 30055 40198 56016 60026 90000=
07335,1998-11-10 06:00:00,12,1020,0.5,94,11,12000,11.112,,,220,11.3,14.9,,,,,,,,21,wg-a,,,,AAXX 10064 07335 02162 82206 10120 20110 30055 40200 53005 61000 72162 8672/ 90600 333 10149 20113 6010=
07335,1998-11-10 09:00:00,13,1021.2,1.3,94,12,9000,11.112,,,230,,,,0,,,,,,61,wg-a,,,,AAXX 10094 07335 12259 82306 10130 20120 30068 40212 51013 60007 76186 8577/ 90900=
07335,1998-11-10 12:00:00,14,1022,0.8,77,10,16000,22.224,,,330,,,,1,,,,,,1,wg-a,,,,AAXX 10124 07335 02566 63312 10140 20100 30076 40220 53008 60016 70186 85831 91200 333 60017=
07335,1998-11-10 15:00:00,13,1023.5,1.4,67,7,20000,22.224,,,340,,,,,,,,,,,wg-a,,,,AAXX 10154 07335 12570 73412 10130 20070 30090 40235 53014 60006 81832 91500=
07335,1998-11-10 18:00:00,10,1025.9,2.2,82,7,15000,14.816,,,330,8.8,14.5,,,,,,,,,wg-a,,,,AAXX 10184 07335 12565 /3308 10100 20070 30112 40259 53022 60006 86800 91800 333 10145 20088=
07335,1998-11-11 00:00:00,3,1029.5,1.3,93,2,0,11.112,,,320,,,,,,,,,,,wg-a,,,,AAXX 11004 07335 12/// /3206 10030 20020 30144 40295 51013 60006 90000=
07335,1998-11-11 06:00:00,1,1029.9,-0.1,93,0,10000,7.408,,,330,0.6,9.9,,,,,1,,,,wg-a,,,,AAXX 11064 07335 02/60 03304 10010 20000 30147 40299 55001 60006 80000 90600 333 10099 20006 60014=
07335,1998-11-11 09:00:00,5,1029.3,-0.4,93,4,8000,0,,,0,,,,,,,,,,,wg-a,,,,AAXX 11094 07335 12/58 20000 10050 20040 30143 40293 58004 60006 80002 90900=
07335,1998-11-11 12:00:00,11,1027.7,-1.2,66,5,20000,3.704,,,220,,,,,,,,,,,wg-a,,,,AAXX 11124 07335 12470 32202 10110 20050 30131 40277 58012 60006 81132 91200=
07335,1998-11-11 15:00:00,10,1024.5,-3.2,62,3,25000,7.408,,,130,,,,,,,,,,,wg-a,,,,AAXX 11154 07335 12675 21304 10100 20030 30099 40245 56032 60006 82132 91500=
07335,1998-11-11 18:00:00,6,1022.2,-2.5,87,4,0,11.112,,,140,-0.1,12,,,,,,,,,wg-a,,,,AAXX 11184 07335 12/// /1406 10060 20040 30074 40222 58025 60006 91800 333 10120 21001=
07335,1998-11-12 00:00:00,3,1016.2,-3.3,93,2,0,11.112,,,140,,,,,,,,,,,wg-a,,,,AAXX 12004 07335 12/// /1406 10030 20020 30013 40162 56033 60006 90000=
07335,1998-11-12 06:00:00,5,1012.2,-0.7,93,4,15000,14.816,,,210,0.1,5.8,,,,,2,,,,wg-a,,,,AAXX 12064 07335 02465 72108 10050 20040 39975 40122 55007 60006 86502 90600 333 10058 20001 60024=
07335,1998-11-12 12:00:00,12,1015.1,1.2,67,6,500,29.632,,,310,,,,,,,,,,,wg-a,,,,AAXX 12124 07335 12500 63116 10120 20060 30007 40151 51012 60006 82232 91200=
07335,1998-11-12 15:00:00,10,1016.1,0.9,66,4,500,18.52,,,300,,,,,,,,,,,wg-a,,,,AAXX 12154 07335 12600 /3010 10100 20040 30016 40161 53009 60006 81200 91500=
07335,1998-11-12 18:00:00,5,1017.7,1.3,81,2,20000,11.112,,,270,4.9,11.9,,,,,,,,,wg-a,,,,AAXX 12184 07335 12/70 32706 10050 20020 30029 40177 53013 60006 80002 91800 333 10119 20049=
07335,1998-11-13 00:00:00,5,1017.8,-0.4,93,4,0,11.112,,,230,,,,,,,,,,,wg-a,,,,AAXX 13004 07335 12/// /2306 10050 20040 30030 40178 58004 60006 90000=
07335,1998-11-13 06:00:00,6,1013.2,-1.9,93,5,12000,11.112,,,200,2,6.5,,,,,,,,,wg-a,,,,AAXX 13064 07335 02662 82006 10060 20050 39985 40132 56019 60006 875// 90600 333 10065 20020 60004=
07335,1998-11-13 09:00:00,7,1010.8,-2.3,93,6,7000,14.816,,,180,,,,1,,,,,,61,wg-a,,,,AAXX 13094 07335 12257 81808 10070 20060 39962 40108 58023 60017 76162 875// 90900=
07335,1998-11-13 12:00:00,9,1007.3,-3.3,87,7,14000,22.224,,,180,,,,0,,,,,,3,wg-a,,,,AAXX 13124 07335 02464 81812 10090 20070 39929 40073 58033 60026 70362 8657/ 91200 333 60007=
07335,1998-11-13 15:00:00,9,1004.3,-3,87,7,12000,22.224,,,170,,,,0,,,,,,60,wg-a,,,,AAXX 13154 07335 12462 81712 10090 20070 39899 40043 58030 60007 76062 8657/ 91500=
07335,1998-11-13 18:00:00,8,1002.5,-1.8,93,7,15000,22.224,,,160,6.4,9.5,,,,,,,,21,wg-a,,,,AAXX 13184 07335 02165 81612 10080 20070 39881 40025 56018 61000 72162 875// 91800 333 10095 20064 6001=
07335,1998-11-14 00:00:00,10,1001,-0.4,93,9,1600,11.112,,,220,,,,,,,,,,,wg-a,,,,AAXX 14004 07335 12/16 /2206 10100 20090 39867 40010 58004 60016 90000=
07335,1998-11-14 06:00:00,8,1008,3.2,87,6,500,25.928,,,290,7.7,11.4,,,,,4,,,,wg-a,,,,AAXX 14064 07335 02400 62914 10080 20060 39935 40080 51032 60006 85830 90600 333 10114 20077 60044=
07335,1998-11-14 09:00:00,8,1010.2,2.2,81,5,500,22.224,,,280,,,,,,,,,,,wg-a,,,,AAXX 14094 07335 12700 72812 10080 20050 39957 40102 51022 60006 8253/ 90900=
07335,1998-11-14 12:00:00,10,1010.5,0.3,57,2,500,29.632,,,300,,,,,,,,,,,wg-a,,,,AAXX 14124 07335 12500 43016 10100 20020 39960 40105 50003 60006 81130 91200=
07335,1998-11-14 15:00:00,10,1010.8,0.4,62,3,500,25.928,,,310,,,,,,,,,,,wg-a,,,,AAXX 14154 07335 12600 /3114 10100 20030 39964 40108 53004 60006 86130 91500=
07335,1998-11-14 18:00:00,7,1012.8,1.7,81,4,0,18.52,,,270,6.4,11.1,,,,,,,,,wg-a,,,,AAXX 14184 07335 12/// /2710 10070 20040 39981 40128 53017 60006 91800 333 10111 20064=
07335,1998-11-15 00:00:00,3,1016.1,1.1,93,2,500,14.816,,,260,,,,,,,,,,,wg-a,,,,AAXX 15004 07335 12/00 /2608 10030 20020 30012 40161 51011 60006 90000=
07335,1998-11-15 06:00:00,4,1017.1,0.7,93,3,15000,14.816,,,230,1,7,,,,,,,,,wg-a,,,,AAXX 15064 07335 02665 /2308 10040 20030 30022 40171 51007 60006 86500 90600 333 10070 20010 60004=
07335,1998-11-15 09:00:00,7,1018.8,1.9,93,6,25000,14.816,,,270,,,,,,,,,,,wg-a,,,,AAXX 15094 07335 12675 32708 10070 20060 30041 40188 53019 60006 83500 90900=
07335,1998-11-15 12:00:00,11,1019.6,1,71,6,500,18.52,,,340,,,,,,,,,,,wg-a,,,,AAXX 15124 07335 12500 53410 10110 20060 30051 40196 51010 60006 84230 91200=
07335,1998-11-15 15:00:00,10,1021,1.3,71,5,500,14.816,,,340,,,,,,,,,,,wg-a,,,,AAXX 15154 07335 12500 /3408 10100 20050 30064 40210 53013 60006 85200 91500=
07335,1998-11-16 00:00:00,3,1025.2,0.7,93,2,500,11.112,,,310,,,,,,,,,,,wg-a,,,,AAXX 16004 07335 12/00 /3106 10030 20020 30102 40252 51007 60006 90000=
07335,1998-11-16 06:00:00,1,1026.1,0.5,100,1,10000,11.112,,,310,-0.6,4.7,,,,,,,,,wg-a,,,,AAXX 16064 07335 02/60 03106 10010 20010 30109 40261 53005 60006 80000 90600 333 10047 21006 60004=
07335,1998-11-16 09:00:00,4,1027.8,1.9,93,3,10000,14.816,,,330,,,,,,,,,,,wg-a,,,,AAXX 16094 07335 12560 /3308 10040 20030 30128 40278 51019 60006 81532 90900=
07335,1998-11-16 12:00:00,8,1028.2,0.6,71,3,20000,14.816,,,20,,,,,,,,,,,wg-a,,,,AAXX 16124 07335 12570 30208 10080 20030 30134 40282 50006 60006 83102 91200=
07335,1998-11-16 15:00:00,8,1028.3,0.1,57,0,25000,14.816,,,20,,,,,,,,,,,wg-a,,,,AAXX 16154 07335 12575 30208 10080 20000 30135 40283 53001 60006 83100 91500=
07335,1998-11-16 18:00:00,2,1029.7,1,80,-1,20000,3.704,,,350,0.7,8.5,,,,,,,,,wg-a,,,,AAXX 16184 07335 12770 23502 10020 21010 30145 40297 53010 60006 81402 91800 333 10085 20007=
07335,1998-11-17 00:00:00,-4,1030.7,0,93,-5,0,0,,,0,,,,,,,,,,,wg-a,,,,AAXX 17004 07335 12/// /0000 11040 21050 30152 40307 50000 60006 90000=
07335,1998-11-17 06:00:00,-2,1029.2,-0.7,93,-3,12000,3.704,,,20,-4.1,1.8,,,,,,,,,wg-a,,,,AAXX 17064 07335 02762 70202 11020 21030 30138 40292 56007 60006 875// 90600 333 10018 21041 60004=
07335,1998-11-17 09:00:00,2,1029.8,0.8,87,0,10000,7.408,,,50,,,,,,,,,,,wg-a,,,,AAXX 17094 07335 12760 70504 10020 20000 30146 40298 53008 60006 875// 90900=
07335,1998-11-17 12:00:00,6,1027.6,-1.9,70,1,15000,18.52,,,80,,,,,,,,,,,wg-a,,,,AAXX 17124 07335 12465 70810 10060 20010 30127 40276 58019 60006 81132 91200=
07335,1998-11-17 15:00:00,5,1026.5,-1.2,75,1,15000,14.816,,,90,,,,,,,,,,,wg-a,,,,AAXX 17154 07335 12/65 70908 10050 20010 30115 40265 56012 60006 82032 91500=
07335,1998-11-17 18:00:00,3,1026.3,-0.2,87,1,8000,7.408,,,60,-1.8,6.7,,,,,,,,,wg-a,,,,AAXX 17184 07335 12/58 70604 10030 20010 30113 40263 56002 60006 82032 91800 333 10067 21018=
07335,1998-11-18 00:00:00,1,1025.9,-0.4,75,-3,0,14.816,,,80,,,,,,,,,,,wg-a,,,,AAXX 18004 07335 12/// /0808 10010 21030 30107 40259 57004 60006 90000=
07335,1998-11-18 06:00:00,0,1025.2,-0.3,74,-4,10000,14.816,,,60,-0.9,3.3,,,,,,,,,wg-a,,,,AAXX 18064 07335 02/60 70608 10000 21040 30100 40252 58003 60006 80002 90600 333 10033 21009 60004=
07335,1998-11-18 09:00:00,0,1026,0.8,74,-4,20000,14.816,,,60,,,,,,,,,,,wg-a,,,,AAXX 18094 07335 12770 70608 10000 21040 30108 40260 53008 60006 82532 90900=
07335,1998-11-18 12:00:00,2,1025.5,-0.4,60,-5,20000,22.224,,,60,,,,,,,,,,,wg-a,,,,AAXX 18124 07335 12/70 70612 10020 21050 30104 40255 58004 60006 83032 91200=
07335,1998-11-18 15:00:00,3,1025.1,-0.4,56,-5,20000,18.52,,,60,,,,,,,,,,,wg-a,,,,AAXX 18154 07335 12/70 70610 10030 21050 30100 40251 57004 60006 83032 91500=
07335,1998-11-18 18:00:00,-1,1026.3,1,80,-4,20000,14.816,,,30,-1.1,4.2,,,,,,,,,wg-a,,,,AAXX 18184 07335 12/70 50308 11010 21040 30110 40263 53010 60006 80002 91800 333 10042 21011=
07335,1998-11-19 00:00:00,-2,1027.1,-0.4,86,-4,0,11.112,,,60,,,,,,,,,,,wg-a,,,,AAXX 19004 07335 12/// /0606 11020 21040 30117 40271 58004 60006 90000=
07335,1998-11-19 06:00:00,-6,1027.5,0.4,93,-7,2500,3.704,,,10,-6,0.2,,,,,,,,10,wg-a,,,,AAXX 19064 07335 02/25 00102 11060 21070 30119 40275 50004 60006 71000 80000 90600 333 10002 21060 60004=
07335,1998-11-19 09:00:00,-2,1028.5,1.2,93,-3,3200,3.704,,,50,,,,,,,,,,10,wg-a,,,,AAXX 19094 07335 12132 /0502 11020 21030 30131 40285 51012 60006 71000 81602 90900=
07335,1998-11-19 12:00:00,3,1028.1,-0.1,70,-2,10000,11.112,,,40,,,,,,,,,,,wg-a,,,,AAXX 19124 07335 12/60 20406 10030 21020 30130 40281 56001 60006 80002 91200=
07335,1998-11-19 15:00:00,5,1027,-0.9,48,-5,20000,11.112,,,70,,,,,,,,,,,wg-a,,,,AAXX 19154 07335 12/70 30706 10050 21050 30121 40270 56009 60006 81032 91500=
07335,1998-11-19 18:00:00,2,1028,0.8,64,-4,20000,7.408,,,60,-6.7,5.7,,,,,,,,,wg-a,,,,AAXX 19184 07335 12/70 20604 10020 21040 30129 40280 53008 60006 81032 91800 333 10057 21067=
07335,1998-11-20 00:00:00,-5,1029.3,-0.2,86,-7,0,0,,,0,,,,,,,,,,,wg-a,,,,AAXX 20004 07335 12/// /0000 11050 21070 30137 40293 55002 60006 90000=
07335,1998-11-20 06:00:00,-5,1030.9,0.9,93,-6,3000,7.408,,,20,-5.7,1.9,,,,,,,,10,wg-a,,,,AAXX 20064 07335 02/30 00204 11050 21060 30153 40309 52009 60006 71000 80000 90600 333 10019 21057 60004=
07335,1998-11-20 09:00:00,0,1032.4,1.8,93,-1,3000,11.112,,,80,,,,,,,,,,10,wg-a,,,,AAXX 20094 07335 12230 30806 10000 21010 30171 40324 52018 60006 71000 82632 90900=
07335,1998-11-20 12:00:00,2,1032.8,0.5,75,-2,10000,11.112,,,60,,,,,,,,,,,wg-a,,,,AAXX 20124 07335 12460 30606 10020 21020 30176 40328 50005 60006 82502 91200=
07335,1998-11-20 15:00:00,4,1032.5,-0.2,60,-3,15000,14.816,,,80,,,,,,,,,,,wg-a,,,,AAXX 20154 07335 12/65 20808 10040 21030 30174 40325 55002 60006 80002 91500=
07335,1998-11-20 18:00:00,1,1033.5,0.8,69,-4,15000,7.408,,,60,-6,5.3,,,,,,,,,wg-a,,,,AAXX 20184 07335 12/65 10604 10010 21040 30182 40335 53008 60006 80002 91800 333 10053 21060=
07335,1998-11-21 00:00:00,-4,1035.2,0.4,93,-5,0,7.408,,,50,,,,,,,,,,,wg-a,,,,AAXX 21004 07335 12/// /0504 11040 21050 30196 40352 50004 60006 90000=
07335,1998-11-21 06:00:00,-5,1034.8,-0.1,93,-6,8000,7.408,,,70,-7.4,0.8,,,,,,,,,wg-a,,,,AAXX 21064 07335 02/58 00704 11050 21060 30191 40348 57001 60006 80000 90600 333 10008 21074 60004=
07335,1998-11-21 09:00:00,-4,1035.4,0.7,86,-6,8000,11.112,,,70,,,,,,,,,,,wg-a,,,,AAXX 21094 07335 12/58 /0706 11040 21060 30198 40354 50007 60006 80002 90900=
07335,1998-11-21 12:00:00,2,1033.9,-1.2,51,-7,15000,18.52,,,90,,,,,,,,,,,wg-a,,,,AAXX 21124 07335 12/65 00910 10020 21070 30186 40339 58012 60006 80000 91200=
07335,1998-11-21 15:00:00,3,1031.8,-1.9,44,-8,15000,18.52,,,80,,,,,,,,,,,wg-a,,,,AAXX 21154 07335 12/65 00810 10030 21080 30167 40318 57019 60006 80000 91500=
07335,1998-11-21 18:00:00,0,1031.5,-0.5,64,-6,0,11.112,,,60,-5.4,6.4,,,,,,,,,wg-a,,,,AAXX 21184 07335 12/// /0606 10000 21060 30162 40315 57005 60006 91800 333 10064 21054=
07335,1998-11-22 00:00:00,-3,1029.2,-1.3,80,-6,0,11.112,,,60,,,,,,,,,,,wg-a,,,,AAXX 22004 07335 12/// /0606 11030 21060 30137 40292 58013 60006 90000=
07335,1998-11-22 06:00:00,-6,1026.9,-1.2,86,-8,8000,7.408,,,60,-8.7,-0.2,,,,,,,,,wg-a,,,,AAXX 22064 07335 02/58 00604 11060 21080 30113 40269 56012 60006 80000 90600 333 11002 21087 60004=
07335,1998-11-22 09:00:00,-4,1026.2,-0.6,80,-7,8000,11.112,,,90,,,,,,,,,,,wg-a,,,,AAXX 22094 07335 12/58 /0906 11040 21070 30107 40262 58006 60006 80001 90900=
07335,1998-11-22 12:00:00,-1,1024.8,-1.2,64,-7,12000,14.816,,,90,,,,,,,,,,,wg-a,,,,AAXX 22124 07335 12/62 10908 11010 21070 30095 40248 58012 60006 80001 91200=
07335,1998-11-22 15:00:00,0,1022.7,-2,59,-7,15000,14.816,,,80,,,,,,,,,,,wg-a,,,,AAXX 22154 07335 12/65 20808 10000 21070 30075 40227 56020 60006 80001 91500=
07335,1998-11-22 18:00:00,-4,1023.2,0.3,80,-7,0,7.408,,,30,-8.7,0.2,,,,,,,,,wg-a,,,,AAXX 22184 07335 12/// /0304 11040 21070 30078 40232 53003 60006 91800 333 10002 21087=
07335,1998-11-23 00:00:00,-6,1021.9,-0.5,86,-8,0,3.704,,,30,,,,,,,,,,,wg-a,,,,AAXX 23004 07335 12/// /0302 11060 21080 30064 40219 58005 60006 90000=
07335,1998-11-23 06:00:00,-7,1022,0.7,93,-8,6000,7.408,,,30,-7.1,-3.4,,,,,,,,,wg-a,,,,AAXX 23064 07335 02/56 00304 11070 21080 30065 40220 53007 60006 80000 90600 333 11034 21071 60004=
07335,1998-11-23 09:00:00,-5,1023.1,1.1,93,-6,3500,7.408,,,20,,,,,,,,,,10,wg-a,,,,AAXX 23094 07335 12/35 30204 11050 21060 30076 40231 52011 60006 71011 80001 90900=
07335,1998-11-23 12:00:00,1,1023.4,0.6,64,-5,6000,11.112,,,20,,,,,,,,,,,wg-a,,,,AAXX 23124 07335 12/56 /0206 10010 21050 30082 40234 50006 60006 80001 91200=
07335,1998-11-23 15:00:00,1,1023.1,,69,-4,10000,11.112,,,360,,,,,,,,,,,wg-a,,,,AAXX 23154 07335 12/60 33606 10010 21040 30080 40231 60006 80001 91500=
07335,1998-11-23 18:00:00,-4,1023.9,0.5,86,-6,8000,3.704,,,360,-7.9,1.4,,,,,,,,,wg-a,,,,AAXX 23184 07335 12/58 /3602 11040 21060 30085 40239 50005 60006 80001 91800 333 10014 21079=
07335,1998-11-24 00:00:00,-7,1025.2,0.3,93,-8,0,0,,,0,,,,,,,,,,,wg-a,,,,AAXX 24004 07335 12/// /0000 11070 21080 30096 40252 50003 60006 90000=
07335,1998-11-24 06:00:00,-10,1025.8,0.7,92,-11,3000,3.704,,,210,-10,-4,,,,,,,,10,wg-a,,,,AAXX 24064 07335 02/30 02102 11100 21110 30100 40258 53007 60006 71000 80000 90600 333 11040 21100 60004=
07335,1998-11-24 09:00:00,-4,1025.1,-0.3,93,-5,2500,3.704,,,230,,,,,,,,,,10,wg-a,,,,AAXX 24094 07335 12/25 52302 11040 21050 30097 40251 55003 60006 71011 83042 90900=
07335,1998-11-24 12:00:00,2,1024.3,-0.5,75,-2,4500,7.408,,,190,,,,,,,,,,10,wg-a,,,,AAXX 24124 07335 12/45 71904 10020 21020 30092 40243 58005 60006 71011 86052 91200=
07335,1998-11-24 18:00:00,3,1022.8,-0.5,65,-3,6000,18.52,,,190,-9.8,4,,,,,,,,,wg-a,,,,AAXX 24184 07335 12456 81910 10030 21030 30078 40228 58005 60006 875// 91800 333 10040 21098=
07335,1998-11-25 00:00:00,4,1018.6,-2.7,93,3,0,22.224,,,190,,,,,,,,,,,wg-a,,,,AAXX 25004 07335 12/// /1912 10040 20030 30037 40186 58027 60016 90000=
07335,1998-11-25 06:00:00,5,1015.5,-0.1,93,4,800,7.408,,,260,2.8,5.6,,,,,,,,50,wg-a,,,,AAXX 25064 07335 02108 82604 10050 20040 30007 40155 55001 61000 75052 887// 90600 333 10056 20028 6002=
07335,1998-11-25 09:00:00,6,1016.3,0.9,100,6,1800,11.112,,,280,,,,,,,,,,10,wg-a,,,,AAXX 25094 07335 02318 82806 10060 20060 30016 40163 51009 61000 71054 886// 90900 333 ////=
07335,1998-11-25 12:00:00,8,1016.5,0.3,87,6,10000,22.224,,,320,,,,,,,,,,1,wg-a,,,,AAXX 25124 07335 02560 73212 10080 20060 30019 40165 53003 61000 70154 875// 91200 333 ////=
07335,1998-11-25 15:00:00,8,1018,1.5,87,6,12000,14.816,,,310,,,,,,,,,,,wg-a,,,,AAXX 25154 07335 12562 73108 10080 20060 30034 40180 53015 60006 875// 91500=
07335,1998-11-26 00:00:00,6,1022.3,0.4,93,5,0,14.816,,,290,,,,,,,,,,,wg-a,,,,AAXX 26004 07335 12/// /2908 10060 20050 30075 40223 52004 60006 90000=
07335,1998-11-26 06:00:00,6,1024,1.6,93,5,12000,14.816,,,330,3.9,6.4,,,,,,,,,wg-a,,,,AAXX 26064 07335 02262 83308 10060 20050 30092 40240 53016 60006 886// 90600 333 10064 20039 61000=
07335,1998-11-26 09:00:00,6,1026.4,2.3,93,5,1500,14.816,,,330,,,,,,,,,,10,wg-a,,,,AAXX 26094 07335 12115 83308 10060 20050 30115 40264 53023 60006 71022 886// 90900=
07335,1998-11-26 12:00:00,7,1026.7,0.4,100,7,6000,11.112,,,330,,,,,,,,,,,wg-a,,,,AAXX 26124 07335 12156 83306 10070 20070 30119 40267 50004 60006 886// 91200=
07335,1998-11-26 15:00:00,10,1026,-0.6,76,6,20000,14.816,,,310,,,,,,,,,,,wg-a,,,,AAXX 26154 07335 12570 73108 10100 20060 30113 40260 56006 60006 81532 91500=
07335,1998-11-26 18:00:00,6,1026.6,0.4,93,5,10000,14.816,,,260,,10.1,,,,,,,,,wg-a,,,,AAXX 26184 07335 12/60 /2608 10060 20050 30117 40266 50004 60006 91800 333 10101=
07335,1998-11-27 00:00:00,7,1025.1,-1,93,6,0,14.816,,,260,,,,,,,,,,,wg-a,,,,AAXX 27004 07335 12/// /2608 10070 20060 30103 40251 56010 60006 90000=
07335,1998-11-27 06:00:00,8,1023.7,-0.3,93,7,15000,14.816,,,290,6.4,8.4,,,,,,,,,wg-a,,,,AAXX 27064 07335 02765 82908 10080 20070 30090 40237 56003 60006 8357/ 90600 333 10084 20064 60004=
07335,1998-11-27 09:00:00,9,1024.1,0.4,93,8,12000,22.224,,,310,,,,,,,,,,,wg-a,,,,AAXX 27094 07335 12362 73112 10090 20080 30094 40241 53004 60006 877// 90900=
07335,1998-11-27 12:00:00,10,1023.7,-0.3,93,9,12000,14.816,,,310,,,,0,,,,,,61,wg-a,,,,AAXX 27124 07335 02462 83108 10100 20090 30091 40237 58003 60006 76162 877// 91200 333 60007=
07335,1998-11-27 15:00:00,10,1022.8,-0.9,93,9,2500,11.112,,,310,,,,3,,,,,,51,wg-a,,,,AAXX 27154 07335 12125 83106 10100 20090 30082 40228 55009 60037 75166 877// 91500=
07335,1998-11-27 18:00:00,10,1022.1,-0.7,93,9,2500,7.408,,,250,8.2,10.8,,,,,,,,51,wg-a,,,,AAXX 27184 07335 02125 82504 10100 20090 30075 40221 56007 61000 75166 877// 91800 333 10108 20082 6002=
07335,1998-11-28 00:00:00,9,1021.2,-0.6,100,9,1900,7.408,,,150,,,,,,,,,,,wg-a,,,,AAXX 28004 07335 12/19 /1504 10090 20090 30066 40212 56006 60016 90000=
07335,1998-11-28 06:00:00,9,1020.8,-0,100,9,3000,11.112,,,330,8.8,10,,,,,,,,51,wg-a,,,,AAXX 28064 07335 02130 83306 10090 20090 30062 40208 55000 61000 75165 877// 90600 333 10100 20088 6010=
07335,1998-11-28 12:00:00,10,1019.1,-1.2,100,10,3000,14.816,,,220,,,,0,,,,,,51,wg-a,,,,AAXX 28124 07335 02130 82208 10100 20100 30046 40191 58012 60006 75165 877// 91200 333 60007=
07335,1998-11-28 15:00:00,11,1016.9,-2.2,94,10,3000,14.816,,,210,,,,,,,,,,51,wg-a,,,,AAXX 28154 07335 02330 82108 10110 20100 30024 40169 56022 61000 75152 875// 91500 333 ////=
07335,1998-11-28 18:00:00,8,1016.3,-0.7,100,8,0,18.52,,,320,8.4,11,,,,,,,,,wg-a,,,,AAXX 28184 07335 32/// /3210 10080 20080 30017 40163 55007 91800 333 10110 20084=
07335,1998-11-29 00:00:00,4,1018,0.8,93,3,0,11.112,,,310,,,,,,,,,,,wg-a,,,,AAXX 29004 07335 12/// /3106 10040 20030 30031 40180 52008 60016 90000=
07335,1998-11-29 06:00:00,4,1018.5,0.4,93,3,15000,11.112,,,320,2,8.4,,,,,2,,,,wg-a,,,,AAXX 29064 07335 02765 53206 10040 20030 30036 40185 53004 60006 85500 90600 333 10084 20020 60024=
07335,1998-11-29 09:00:00,4,1019.4,0.9,93,3,25000,14.816,,,330,,,,,,,,,,1,wg-a,,,,AAXX 29094 07335 02575 /3308 10040 20030 30045 40194 53009 61000 70186 81800 90900 333 ////=
07335,1998-11-29 12:00:00,7,1019.3,0.1,87,5,500,14.816,,,350,,,,,,,,,,3,wg-a,,,,AAXX 29124 07335 02300 73508 10070 20050 30046 40193 50001 61000 70386 81102 91200 333 ////=
07335,1998-11-29 15:00:00,8,1019.6,0.3,76,4,500,18.52,,,360,,,,,,,,,,,wg-a,,,,AAXX 29154 07335 12500 63610 10080 20040 30049 40196 53003 60006 82202 91500=
07335,1998-11-29 18:00:00,4,1021.2,1.4,93,3,0,14.816,,,340,3.5,8.5,,,,,,,,,wg-a,,,,AAXX 29184 07335 32/// /3408 10040 20030 30063 40212 52014 91800 333 10085 20035=
07335,1998-11-30 00:00:00,2,1023.3,0.6,93,1,0,18.52,,,340,,,,,,,,,,,wg-a,,,,AAXX 30004 07335 12/// /3410 10020 20010 30082 40233 51006 60006 90000=
07335,1998-11-30 06:00:00,2,1023,-0.2,100,2,6000,22.224,,,330,1.4,4.4,,,,,,,,,wg-a,,,,AAXX 30064 07335 02156 /3312 10020 20020 30079 40230 56002 60006 85600 90600 333 10044 20014 61000=
07335,1998-11-30 09:00:00,4,1023.6,0.7,93,3,6000,18.52,,,340,,,,,,,,,,,wg-a,,,,AAXX 30094 07335 12156 73410 10040 20030 30086 40236 51007 60006 875// 90900=
07335,1998-11-30 12:00:00,5,1023.3,-0.2,93,4,7000,18.52,,,360,,,,,,,,,,,wg-a,,,,AAXX 30124 07335 12257 73610 10050 20040 30084 40233 58002 60006 875// 91200=
07335,1998-11-30 15:00:00,3,1023.8,0.4,87,1,8000,29.632,,,40,,,,,,,,,,1,wg-a,,,,AAXX 30154 07335 02458 80416 10030 20010 30088 40238 53004 61000 70165 875// 91500 333 ////=
07335,1998-11-30 18:00:00,3,1025.5,1.6,81,0,7000,25.928,,,50,1.8,5.1,,0,,,,,,1,wg-a,,,,AAXX 30184 07335 02457 80514 10030 20000 30104 40255 51016 60006 70165 875// 91800 333 10051 20018 60007=
07335,1998-12-01 00:00:00,2,1026.3,0,87,0,0,25.928,,,40,,,,,,,,,,,wg-a,,,,AAXX 01004 07335 12/// /0414 10020 20000 30112 40263 50000 60006 90000=
07335,1998-12-01 06:00:00,2,1026.9,0.6,80,-1,12000,22.224,,,50,1.4,2.6,,,,,,,,,wg-a,,,,AAXX 01064 07335 02462 80512 10020 21010 30117 40269 53006 60006 875// 90600 333 10026 20014 60004=
07335,1998-12-01 09:00:00,1,1028.4,1.5,86,-1,12000,22.224,,,50,,,,,,,,,,,wg-a,,,,AAXX 01094 07335 12462 70512 10010 21010 30132 40284 51015 60006 875// 90900=
07335,1998-12-01 12:00:00,3,1028.4,0.1,75,-1,12000,22.224,,,70,,,,,,,,,,,wg-a,,,,AAXX 01124 07335 12562 80712 10030 21010 30133 40284 50001 60006 885// 91200=
07335,1998-12-01 15:00:00,3,1027.7,-0.7,75,-1,12000,18.52,,,60,,,,,,,,,,,wg-a,,,,AAXX 01154 07335 12562 80610 10030 21010 30126 40277 56007 60006 885// 91500=
07335,1998-12-01 18:00:00,3,1027.4,-0.3,75,-1,10000,22.224,,,60,0.9,3.3,,,,,,,,,wg-a,,,,AAXX 01184 07335 12460 80612 10030 21010 30123 40274 56003 60006 885// 91800 333 10033 20009=
07335,1998-12-02 00:00:00,2,1026.3,-0.9,75,-2,0,18.52,,,60,,,,,,,,,,,wg-a,,,,AAXX 02004 07335 12/// /0610 10020 21020 30112 40263 58009 60006 90000=
07335,1998-12-02 06:00:00,1,1025.2,-0.3,80,-2,10000,18.52,,,50,0.7,2.5,,,,,,,,,wg-a,,,,AAXX 02064 07335 02460 80510 10010 21020 30100 40252 56003 60006 875// 90600 333 10025 20007 60004=
07335,1998-12-02 09:00:00,0,1025.4,0.2,86,-2,6000,18.52,,,60,,,,,,,,,,,wg-a,,,,AAXX 02094 07335 12456 80610 10000 21020 30102 40254 51002 60006 875// 90900=
07335,1998-12-02 12:00:00,1,1024.9,-0.5,80,-2,500,14.816,,,60,,,,,,,,,,,wg-a,,,,AAXX 02124 07335 12400 80608 10010 21020 30097 40249 58005 60006 875// 91200=
07335,1998-12-02 15:00:00,0,1023.5,-1.4,80,-3,4000,14.816,,,60,,,,,,,,,,10,wg-a,,,,AAXX 02154 07335 12440 80608 10000 21030 30083 40235 56014 60006 71022 875// 91500=
07335,1998-12-02 18:00:00,0,1023.1,-0.4,80,-3,4000,11.112,,,60,-0.1,0.7,,,,,,,,10,wg-a,,,,AAXX 02184 07335 12440 80606 10000 21030 30079 40231 56004 60006 71022 875// 91800 333 10007 21001=
07335,1998-12-03 00:00:00,0,1022.1,-0.9,86,-2,0,7.408,,,80,,,,,,,,,,,wg-a,,,,AAXX 03004 07335 12/// /0804 10000 21020 30069 40221 57009 60006 90000=
07335,1998-12-03 06:00:00,0,1019.5,-1.1,93,-1,3000,14.816,,,40,-0.3,0,,,,,,,,10,wg-a,,,,AAXX 03064 07335 02130 80408 10000 21010 30044 40195 56011 60006 71022 876// 90600 333 10000 21003 60004=
07335,1998-12-03 09:00:00,1,1019.1,-0.4,86,-1,3000,11.112,,,50,,,,,,,,,,10,wg-a,,,,AAXX 03094 07335 12230 80506 10010 21010 30040 40191 58004 60006 71022 876// 90900=
07335,1998-12-03 12:00:00,2,1017.9,-1.1,80,-1,3500,14.816,,,50,,,,,,,,,,10,wg-a,,,,AAXX 03124 07335 12335 80508 10020 21010 30029 40179 58011 60006 71022 876// 91200=
07335,1998-12-03 15:00:00,2,1016,-1.9,87,0,4000,18.52,,,30,,,,,,,,,,10,wg-a,,,,AAXX 03154 07335 12340 70310 10020 20000 30010 40160 56019 60006 71022 875// 91500=
07335,1998-12-04 00:00:00,0,1014.5,-1.4,93,-1,0,7.408,,,10,,,,,,,,,,,wg-a,,,,AAXX 04004 07335 12/// /0104 10000 21010 39994 40145 58014 60006 90000=
07335,1998-12-04 06:00:00,0,1013.6,-0.5,93,-1,2000,7.408,,,360,-0.7,1.3,,,,,,,,10,wg-a,,,,AAXX 04064 07335 02120 83604 10000 21010 39986 40136 56005 60006 71022 886// 90600 333 10013 21007 60004=
07335,1998-12-04 09:00:00,0,1014.5,0.9,93,-1,2500,14.816,,,350,,,,,,,,,,10,wg-a,,,,AAXX 04094 07335 12225 83508 10000 21010 39995 40145 51009 60006 71022 885// 90900=
07335,1998-12-04 12:00:00,1,1014.6,0.1,86,-1,3500,18.52,,,350,,,,,,,,,,10,wg-a,,,,AAXX 04124 07335 12335 83510 10010 21010 39996 40146 50001 60006 71022 885// 91200=
07335,1998-12-04 15:00:00,3,1014.4,-0.1,81,0,8000,11.112,,,330,,,,,,,,,,,wg-a,,,,AAXX 04154 07335 12458 83306 10030 20000 39995 40144 55001 60006 885// 91500=
07335,1998-12-04 18:00:00,3,1015.7,1.3,87,1,3000,7.408,,,270,-0.2,3.2,,,,,,,,10,wg-a,,,,AAXX 04184 07335 12430 82704 10030 20010 30008 40157 53013 60006 71022 885// 91800 333 10032 21002=
07335,1998-12-05 00:00:00,3,1018.3,1.3,93,2,0,7.408,,,350,,,,,,,,,,,wg-a,,,,AAXX 05004 07335 12/// /3504 10030 20020 30033 40183 51013 60006 90000=
07335,1998-12-05 06:00:00,1,1019.4,0.4,93,0,1200,7.408,,,260,0.4,3.4,,,,,,,,10,wg-a,,,,AAXX 05064 07335 02112 82604 10010 20000 30043 40194 53004 60006 71042 876// 90600 333 10034 20004 60004=
07335,1998-12-05 09:00:00,1,1021.2,1.8,93,0,7000,7.408,,,270,,,,,,,,,,,wg-a,,,,AAXX 05094 07335 12757 /2704 10010 20000 30061 40212 53018 60006 86500 90900=
07335,1998-12-05 12:00:00,5,1021.6,0.6,70,0,15000,11.112,,,310,,,,,,,,,,,wg-a,,,,AAXX 05124 07335 12465 73106 10050 20000 30067 40216 50006 60006 878// 91200=
07335,1998-12-05 15:00:00,6,1021.2,-0.3,75,2,25000,14.816,,,260,,,,,,,,,,,wg-a,,,,AAXX 05154 07335 12575 72608 10060 20020 30064 40212 56003 60006 86801 91500=
07335,1998-12-05 18:00:00,2,1021.7,0.3,93,1,0,14.816,,,250,-1.4,6.5,,,,,,,,,wg-a,,,,AAXX 05184 07335 12/// /2508 10020 20010 30067 40217 51003 60006 91800 333 10065 21014=
07335,1998-12-06 00:00:00,4,1021.9,-0.2,87,2,0,18.52,,,260,,,,,,,,,,,wg-a,,,,AAXX 06004 07335 12/// /2610 10040 20020 30070 40219 56002 60006 90000=
07335,1998-12-06 06:00:00,3,1023.1,0.8,93,2,20000,11.112,,,310,0,4.2,,,,,,,,,wg-a,,,,AAXX 06064 07335 02470 73106 10030 20020 30081 40231 53008 60006 875// 90600 333 10042 20000 60004=
07335,1998-12-06 09:00:00,3,1025.6,2.4,93,2,15000,11.112,,,320,,,,,,,,,,3,wg-a,,,,AAXX 06094 07335 02165 73206 10030 20020 30105 40256 51024 61000 70362 876// 90900 333 ////=
07335,1998-12-06 12:00:00,5,1026.3,0.8,65,-1,500,14.816,,,20,,,,,,,,,,1,wg-a,,,,AAXX 06124 07335 02400 /0208 10050 21010 30113 40263 50008 61000 70162 81202 91200 333 ////=
07335,1998-12-06 15:00:00,5,1027.3,1,56,-3,500,11.112,,,40,,,,,,,,,,,wg-a,,,,AAXX 06154 07335 12600 20406 10050 21030 30123 40273 53010 60006 81101 91500=
07335,1998-12-06 18:00:00,-2,1029.3,1.6,86,-4,0,3.704,,,340,-1.9,5.8,,,,,,,,,wg-a,,,,AAXX 06184 07335 32/// /3402 11020 21040 30139 40293 53016 91800 333 10058 21019=
07335,1998-12-07 00:00:00,-6,1031.1,0.5,93,-7,0,0,,,0,,,,,,,,,,,wg-a,,,,AAXX 07004 07335 12/// /0000 11060 21070 30154 40311 51005 60006 90000=
07335,1998-12-07 06:00:00,-6,1032.3,0.6,100,-6,8000,3.704,,,200,-7.2,-2,,,,,,,,,wg-a,,,,AAXX 07064 07335 02/58 02002 11060 21060 30167 40323 53006 60006 80000 90600 333 11020 21072 61000=
07335,1998-12-07 09:00:00,-3,1033.3,1.1,100,-3,7000,0,,,0,,,,,,,,,,,wg-a,,,,AAXX 07094 07335 12757 /0000 11030 21030 30178 40333 53011 60006 81531 90900=
07335,1998-12-07 12:00:00,5,1032.8,0,70,0,25000,7.408,,,240,,,,,,,,,,,wg-a,,,,AAXX 07124 07335 12775 12404 10050 20000 30178 40328 50000 60006 81501 91200=
07335,1998-12-07 15:00:00,5,1032.5,-0.3,65,-1,25000,7.408,,,230,,,,,,,,,,,wg-a,,,,AAXX 07154 07335 12775 42304 10050 21010 30175 40325 56003 60006 815/4 91500=
07335,1998-12-07 18:00:00,2,1033,0.3,80,-1,20000,7.408,,,210,-6.5,6,,,,,,,,,wg-a,,,,AAXX 07184 07335 12770 72104 10020 21010 30178 40330 51003 60006 835/4 91800 333 10060 21065=
07335,1998-12-08 00:00:00,3,1033,-0.6,81,0,0,7.408,,,190,,,,,,,,,,,wg-a,,,,AAXX 08004 07335 12/// /1904 10030 20000 30178 40330 56006 60006 90000=
07335,1998-12-08 06:00:00,3,1031.8,-0.8,81,0,15000,11.112,,,180,1.3,2.9,,,,,,,,,wg-a,,,,AAXX 08064 07335 02465 71806 10030 20000 30166 40318 57008 60006 875// 90600 333 10029 20013 60004=
07335,1998-12-08 12:00:00,7,1030.5,-1.3,45,-4,20000,14.816,,,200,,,,,,,,,,,wg-a,,,,AAXX 08124 07335 12770 72008 10070 21040 30156 40305 58013 60006 83532 91200=
07335,1998-12-08 18:00:00,6,1029.4,-0.1,65,0,20000,3.704,,,200,2.5,7.7,,,,,,,,,wg-a,,,,AAXX 08184 07335 12770 72002 10060 20000 30145 40294 58001 60006 8453/ 91800 333 10077 20025=
07335,1998-12-09 00:00:00,4,1027.2,-1.3,81,1,0,7.408,,,160,,,,,,,,,,,wg-a,,,,AAXX 09004 07335 12/// /1604 10040 20010 30122 40272 58013 60006 90000=
07335,1998-12-09 06:00:00,5,1025,-1,70,0,20000,14.816,,,200,2.9,5.8,,,,,,,,,wg-a,,,,AAXX 09064 07335 02770 82008 10050 20000 30101 40250 56010 60006 8251/ 90600 333 10058 20029 60004=
07335,1998-12-09 09:00:00,5,1025.4,0.3,81,2,6000,14.816,,,200,,,,1,,,,,,63,wg-a,,,,AAXX 09094 07335 12256 82008 10050 20020 30104 40254 53003 60017 76362 8552/ 90900=
07335,1998-12-09 12:00:00,5,1025,-0.3,100,5,7000,14.816,,,200,,,,4,,,,,,3,wg-a,,,,AAXX 09124 07335 02257 82008 10050 20050 30101 40250 58003 60046 70362 887// 91200 333 60047=
07335,1998-12-09 18:00:00,6,1025.1,0.5,100,6,1200,7.408,,,240,4.2,6.1,,,,,,,,10,wg-a,,,,AAXX 09184 07335 02112 82404 10060 20060 30102 40251 52005 61000 71086 887// 91800 333 10061 20042 6003=
07335,1998-12-10 00:00:00,7,1024.5,-0.2,100,7,200,11.112,,,220,,,,,,,,,,,wg-a,,,,AAXX 10004 07335 12/02 /2206 10070 20070 30097 40245 55002 60016 90000=
07335,1998-12-10 06:00:00,7,1023.3,-0.6,100,7,400,7.408,,,200,6.1,7.3,,,,,8,,,43,wg-a,,,,AAXX 10064 07335 02/04 92004 10070 20070 30085 40233 56006 60006 74342 89/// 90600 333 10073 20061 60084=
07335,1998-12-10 09:00:00,9,1023.4,0.2,93,8,2000,11.112,,,200,,,,,,,,,,10,wg-a,,,,AAXX 10094 07335 02120 82006 10090 20080 30087 40234 51002 61000 71054 886// 90900 333 ////=
07335,1998-12-10 12:00:00,11,1021.1,-2.1,94,10,1500,11.112,,,200,,,,0,,,,,,10,wg-a,,,,AAXX 10124 07335 02115 82006 10110 20100 30066 40211 58021 60006 71054 886// 91200 333 60007=
07335,1998-12-10 15:00:00,11,1018.5,-2.6,100,11,2500,18.52,,,190,,,,1,,,,,,10,wg-a,,,,AAXX 10154 07335 12125 81910 10110 20110 30040 40185 56026 60017 71062 886// 91500=
07335,1998-12-10 18:00:00,12,1017.5,-0.9,100,12,500,14.816,,,240,7.1,11.9,,,,,,,,,wg-a,,,,AAXX 10184 07335 12/00 /2408 10120 20120 30031 40175 56009 60006 91800 333 10119 20071=
07335,1998-12-11 00:00:00,9,1019.7,1.8,93,8,0,14.816,,,280,,,,,,,,,,,wg-a,,,,AAXX 11004 07335 12/// /2808 10090 20080 30051 40197 52018 60016 90000=
07335,1998-12-11 06:00:00,6,1022.6,1.4,100,6,3000,11.112,,,230,2.6,12.2,,,,,6,,,10,wg-a,,,,AAXX 11064 07335 02130 /2306 10060 20060 30078 40226 53014 60006 71011 85600 90600 333 10122 20026 60064=
07335,1998-12-11 09:00:00,7,1023.9,1.3,100,7,1500,11.112,,,230,,,,,,,,,,10,wg-a,,,,AAXX 11094 07335 12115 72306 10070 20070 30091 40239 51013 60006 71042 876// 90900=
07335,1998-12-11 12:00:00,9,1023.8,0,100,9,3300,11.112,,,230,,,,,,,,,,10,wg-a,,,,AAXX 11124 07335 12133 72306 10090 20090 30091 40238 50000 60006 71042 876// 91200=
07335,1998-12-11 15:00:00,10,1023.2,-0.5,93,9,4500,11.112,,,190,,,,,,,,,,10,wg-a,,,,AAXX 11154 07335 12245 71906 10100 20090 30086 40232 56005 60006 71022 876// 91500=
07335,1998-12-11 18:00:00,9,1024,0.7,100,9,4500,11.112,,,180,5.8,10.1,,,,,,,,10,wg-a,,,,AAXX 11184 07335 02145 81806 10090 20090 30093 40240 53007 61000 71062 885// 91800 333 10101 20058 6100=
07335,1998-12-12 00:00:00,9,1023.9,-0.5,93,8,0,18.52,,,200,,,,,,,,,,,wg-a,,,,AAXX 12004 07335 12/// /2010 10090 20080 30092 40239 58005 60016 90000=
07335,1998-12-12 06:00:00,11,1024.1,0.4,100,11,1000,14.816,,,220,9.1,11,,,,,,,,50,wg-a,,,,AAXX 12064 07335 02110 82208 10110 20110 30095 40241 51004 61000 75052 887// 90600 333 10110 20091 6001=
07335,1998-12-12 09:00:00,13,1025,1,100,13,2000,22.224,,,250,,,,,,,,,,10,wg-a,,,,AAXX 12094 07335 02120 82512 10130 20130 30105 40250 53010 61000 71052 887// 90900 333 ////=
07335,1998-12-12 12:00:00,15,1025.3,0.4,88,13,6000,22.224,,,260,,,,,,,,,,1,wg-a,,,,AAXX 12124 07335 02256 82612 10150 20130 30109 40253 50004 61000 70152 887// 91200 333 ////=
07335,1998-12-12 15:00:00,14,1025.7,0.4,94,13,7000,22.224,,,260,,,,,,,,,,,wg-a,,,,AAXX 12154 07335 12257 72612 10140 20130 30113 40257 53004 60006 875// 91500=
07335,1998-12-12 18:00:00,14,1027,1.2,88,12,0,18.52,,,230,10.9,14.5,,,,,,,,,wg-a,,,,AAXX 12184 07335 32/// /2310 10140 20120 30125 40270 51012 91800 333 10145 20109=
07335,1998-12-13 00:00:00,14,1028.7,1.2,94,13,0,25.928,,,260,,,,,,,,,,,wg-a,,,,AAXX 13004 07335 12/// /2614 10140 20130 30142 40287 53012 60006 90000=
07335,1998-12-13 06:00:00,6,1034.1,2.8,93,5,2000,3.704,,,290,5.1,14,,,,,,,,10,wg-a,,,,AAXX 13064 07335 02420 22902 10060 20050 30191 40341 53028 60006 71000 81502 90600 333 10140 20051 60004=
07335,1998-12-13 09:00:00,9,1036.2,2.2,100,9,1000,3.704,,,200,,,,,,,,,,10,wg-a,,,,AAXX 13094 07335 12110 82002 10090 20090 30213 40362 52022 60006 71041 876// 90900=
07335,1998-12-13 12:00:00,11,1036,-0.1,94,10,10000,14.816,,,210,,,,,,,,,,3,wg-a,,,,AAXX 13124 07335 12360 72108 10110 20100 30212 40360 58001 60006 70341 876// 91200=
07335,1998-12-13 15:00:00,12,1035.5,-0.4,88,10,15000,7.408,,,180,,,,,,,,,,,wg-a,,,,AAXX 13154 07335 12465 71804 10120 20100 30208 40355 56004 60006 84502 91500=
07335,1998-12-13 18:00:00,8,1034.9,-0.8,93,7,0,11.112,,,190,3.9,12.5,,,,,,,,,wg-a,,,,AAXX 13184 07335 12/// /1906 10080 20070 30200 40349 56008 60006 91800 333 10125 20039=
07335,1998-12-14 00:00:00,8,1035.2,-0.4,100,8,200,3.704,,,150,,,,,,,,,,,wg-a,,,,AAXX 14004 07335 12/02 /1502 10080 20080 30203 40352 58004 60006 90000=
07335,1998-12-14 06:00:00,9,1034,-0,100,9,6000,3.704,,,180,5.8,8.9,,,,,,,,,wg-a,,,,AAXX 14064 07335 02356 81802 10090 20090 30192 40340 55000 60006 886// 90600 333 10089 20058 60004=
07335,1998-12-14 09:00:00,10,1034.6,0.6,100,10,6000,7.408,,,170,,,,,,,,,,,wg-a,,,,AAXX 14094 07335 12356 81704 10100 20100 30198 40346 52006 60006 886// 90900=
07335,1998-12-14 12:00:00,11,1033.6,-0.9,94,10,10000,14.816,,,150,,,,,,,,,,,wg-a,,,,AAXX 14124 07335 12360 81508 10110 20100 30189 40336 58009 60006 886// 91200=
07335,1998-12-14 15:00:00,11,1032.8,-0.8,94,10,10000,7.408,,,200,,,,,,,,,,,wg-a,,,,AAXX 14154 07335 12260 72004 10110 20100 30181 40328 56008 60006 876// 91500=
07335,1998-12-14 18:00:00,9,1032.6,-0.3,100,9,300,3.704,,,190,8.9,11.4,,,,,,,,45,wg-a,,,,AAXX 14184 07335 12/03 91902 10090 20090 30178 40326 55003 60006 74542 89/// 91800 333 10114 20089=
07335,1998-12-15 00:00:00,3,1032.6,-0.5,100,3,200,3.704,,,210,,,,,,,,,,,wg-a,,,,AAXX 15004 07335 12/02 /2102 10030 20030 30175 40326 55005 60006 90000=
07335,1998-12-15 06:00:00,1,1031.6,-0,93,0,700,0,,,0,0.3,9.4,,,,,,,,42,wg-a,,,,AAXX 15064 07335 02007 /0000 10010 20000 30163 40316 55000 60006 74242 85600 90600 333 10094 20003 60004=
07335,1998-12-15 09:00:00,3,1032.2,0.7,100,3,3000,0,,,0,,,,,,,,,,10,wg-a,,,,AAXX 15094 07335 12130 20000 10030 20030 30170 40322 53007 60006 71041 81602 90900=
07335,1998-12-15 12:00:00,13,1029.7,-1.8,72,8,10000,3.704,,,170,,,,,,,,,,1,wg-a,,,,AAXX 15124 07335 12/60 21702 10130 20080 30152 40297 58018 60006 70141 80002 91200=
07335,1998-12-15 15:00:00,14,1029.1,-0.6,67,8,15000,3.704,,,20,,,,,,,,,,,wg-a,,,,AAXX 15154 07335 12/65 20202 10140 20080 30146 40291 55006 60006 80002 91500=
07335,1998-12-15 18:00:00,5,1030.8,1.2,93,4,7000,3.704,,,330,-0.6,15,,,,,,,,11,wg-a,,,,AAXX 15184 07335 12/57 /3302 10050 20040 30158 40308 53012 60006 71100 80002 91800 333 10150 21006=
07335,1998-12-16 00:00:00,5,1032.7,0.6,100,5,500,3.704,,,320,,,,,,,,,,,wg-a,,,,AAXX 16004 07335 12/00 /3202 10050 20050 30177 40327 51006 60006 90000=
07335,1998-12-16 06:00:00,7,1035,1,93,6,1500,11.112,,,30,2.2,6.5,,,,,,,,10,wg-a,,,,AAXX 16064 07335 02115 80306 10070 20060 30200 40350 51010 60006 71022 886// 90600 333 10065 20022 60004=
07335,1998-12-16 09:00:00,7,1034.5,-0.5,100,7,200,11.112,,,80,,,,,,,,,,44,wg-a,,,,AAXX 16094 07335 12002 80806 10070 20070 30195 40345 58005 60006 74442 876// 90900=
07335,1998-12-16 12:00:00,7,1033.2,-1.2,100,7,1700,14.816,,,80,,,,,,,,,,10,wg-a,,,,AAXX 16124 07335 12117 80808 10070 20070 30183 40332 58012 60006 71042 876// 91200=
07335,1998-12-16 15:00:00,9,1031.5,-1.6,93,8,10000,14.816,,,70,,,,,,,,,,,wg-a,,,,AAXX 16154 07335 12360 70708 10090 20080 30167 40315 56016 60006 876// 91500=
07335,1998-12-16 18:00:00,8,1031.4,-0.1,93,7,10000,14.816,,,60,6.3,8.8,,,,,,,,,wg-a,,,,AAXX 16184 07335 12460 70608 10080 20070 30166 40314 58001 60006 875// 91800 333 10088 20063=
07335,1998-12-17 00:00:00,7,1028.9,-2.2,93,6,0,14.816,,,90,,,,,,,,,,,wg-a,,,,AAXX 17004 07335 12/// /0908 10070 20060 30140 40289 57022 60006 90000=
07335,1998-12-17 06:00:00,4,1027.1,-0.1,100,4,1200,3.704,,,190,4.1,8,,,,,,,,10,wg-a,,,,AAXX 17064 07335 02112 81902 10040 20040 30121 40271 55001 60006 71022 886// 90600 333 10080 20041 60004=
07335,1998-12-17 12:00:00,9,1025.2,-1.6,76,5,10000,14.816,,,190,,,,,,,,,,2,wg-a,,,,AAXX 17124 07335 12/60 11908 10090 20050 30105 40252 58016 60006 70241 80001 91200=
07335,1998-12-17 18:00:00,4,1026,0.9,93,3,2000,18.52,,,230,2.7,12,,,,,,,,10,wg-a,,,,AAXX 17184 07335 12120 72310 10040 20030 30110 40260 53009 60006 71011 876// 91800 333 10120 20027=
07335,1998-12-18 00:00:00,6,1026.6,0,100,6,0,11.112,,,180,,,,,,,,,,,wg-a,,,,AAXX 18004 07335 12/// /1806 10060 20060 30117 40266 50000 60006 90000=
07335,1998-12-18 06:00:00,8,1025.9,-0.4,93,7,3500,14.816,,,200,3.7,7.8,,,,,,,,10,wg-a,,,,AAXX 18064 07335 02435 72008 10080 20070 30111 40259 55004 60006 71022 875// 90600 333 10078 20037 60004=
07335,1998-12-18 09:00:00,8,1025.5,-0.4,87,6,500,18.52,,,200,,,,,,,,,,,wg-a,,,,AAXX 18094 07335 12300 72010 10080 20060 30107 40255 56004 60006 876// 90900=
07335,1998-12-18 12:00:00,8,1024.4,-1,93,7,4000,18.52,,,210,,,,,,,,,,10,wg-a,,,,AAXX 18124 07335 12240 72110 10080 20070 30097 40244 58010 60006 71022 876// 91200=
07335,1998-12-18 15:00:00,9,1022.9,-1.5,93,8,4000,18.52,,,220,,,,,,,,,,20,wg-a,,,,AAXX 18154 07335 02140 82210 10090 20080 30082 40229 57015 61000 72052 8557/ 91500 333 ////=
07335,1998-12-18 18:00:00,9,1022.2,-0.7,93,8,2500,14.816,,,220,7.4,9.3,,,,,,,,60,wg-a,,,,AAXX 18184 07335 02225 82208 10090 20080 30075 40222 56007 61000 76065 885// 91800 333 10093 20074 6001=
07335,1998-12-19 00:00:00,10,1021.1,-0.4,93,9,0,22.224,,,230,,,,,,,,,,,wg-a,,,,AAXX 19004 07335 12/// /2312 10100 20090 30065 40211 58004 60016 90000=
07335,1998-12-19 06:00:00,7,1022.9,1.2,93,6,10000,14.816,,,270,6.8,10.2,,,,,,,,,wg-a,,,,AAXX 19064 07335 02/60 02708 10070 20060 30081 40229 52012 60006 80000 90600 333 10102 20068 60004=
07335,1998-12-19 09:00:00,7,1025.1,2.2,87,5,20000,14.816,,,260,,,,,,,,,,,wg-a,,,,AAXX 19094 07335 12/70 12608 10070 20050 30103 40251 51022 60006 81031 90900=
07335,1998-12-19 12:00:00,10,1025.1,0.1,71,5,500,18.52,,,280,,,,,,,,,,,wg-a,,,,AAXX 19124 07335 12500 22810 10100 20050 30104 40251 50001 60006 81101 91200=
07335,1998-12-19 15:00:00,9,1023.3,-1.8,66,3,11000,14.816,,,280,,,,,,,,,,,wg-a,,,,AAXX 19154 07335 12/61 /2808 10090 20030 30086 40233 56018 60006 91500=
07335,1998-12-19 18:00:00,4,1022.3,-1.3,93,3,0,14.816,,,250,3,10.5,,,,,,,,,wg-a,,,,AAXX 19184 07335 12/// /2508 10040 20030 30073 40223 57013 60006 91800 333 10105 20030=
07335,1998-12-20 00:00:00,6,1013.3,-5.4,93,5,0,14.816,,,190,,,,,,,,,,,wg-a,,,,AAXX 20004 07335 12/// /1908 10060 20050 39986 40133 58054 60016 90000=
07335,1998-12-20 06:00:00,7,993.6,-10.4,93,6,3000,18.52,,,190,3.4,7.8,,,,,,,,10,wg-a,,,,AAXX 20064 07335 02230 81910 10070 20060 39793 49936 56104 61000 71062 885// 90600 333 10078 20034 6014=
07335,1998-12-20 09:00:00,8,991,-2.6,93,7,7000,11.112,,,110,,,,5,,,,,,63,wg-a,,,,AAXX 20094 07335 12157 81106 10080 20070 39767 49910 55026 60057 76366 887// 90900=
07335,1998-12-20 12:00:00,3,999.4,8,93,2,10000,57.412,,79.636,30,,,,4,,,,,,21,wg-a,,,,AAXX 20124 07335 02160 80331 10030 20020 39847 49994 53080 60096 72162 887// 91200 333 60047 91043=
07335,1998-12-20 15:00:00,5,1006.5,7.1,87,3,15000,50.004,,72.228,30,,,,0,,,,,,1,wg-a,,,,AAXX 20154 07335 12465 80327 10050 20030 39918 40065 51071 60007 70176 885// 91500 333 91039=
07335,1998-12-20 18:00:00,5,1012.7,6.2,81,2,0,38.892,,,30,2.2,7.9,,,,,,,,,wg-a,,,,AAXX 20184 07335 32/// /0321 10050 20020 39980 40127 51062 91800 333 10079 20022=
07335,1998-12-21 00:00:00,1,1020.6,2.8,86,-1,0,14.816,,,350,,,,,,,,,,,wg-a,,,,AAXX 21004 07335 12/// /3508 10010 21010 30055 40206 51028 60006 90000=
07335,1998-12-21 06:00:00,-1,1023.9,1.3,100,-1,500,11.112,,,340,-0.7,5,,,,,9,,,,wg-a,,,,AAXX 21064 07335 02100 /3406 11010 21010 30087 40239 53013 60006 85600 90600 333 10050 21007 60094=
07335,1998-12-21 09:00:00,0,1026.6,2.7,93,-1,500,14.816,,,350,,,,,,,,,,,wg-a,,,,AAXX 21094 07335 12/00 /3508 10000 21010 30114 40266 53027 60006 80001 90900=
07335,1998-12-21 12:00:00,4,1027.3,0.9,87,2,8000,7.408,,,360,,,,,,,,,,,wg-a,,,,AAXX 21124 07335 12458 23604 10040 20020 30123 40273 51009 60006 82201 91200=
07335,1998-12-21 15:00:00,4,1027.6,0.3,81,1,15000,3.704,,,350,,,,,,,,,,,wg-a,,,,AAXX 21154 07335 12465 53502 10040 20010 30126 40276 52003 60006 85801 91500=
07335,1998-12-21 18:00:00,-1,1029.1,1.2,93,-2,10000,0,,,0,-1.6,4.6,,,,,,,,,wg-a,,,,AAXX 21184 07335 12/60 10000 11010 21020 30138 40291 51012 60006 80001 91800 333 10046 21016=
07335,1998-12-22 00:00:00,-4,1029.7,-0.3,100,-4,0,0,,,0,,,,,,,,,,,wg-a,,,,AAXX 22004 07335 12/// /0000 11040 21040 30142 40297 58003 60006 90000=
07335,1998-12-22 06:00:00,-5,1029.5,-0.3,100,-5,300,3.704,,,170,-4.9,-1.2,,,,,,,,49,wg-a,,,,AAXX 22064 07335 02/03 91702 11050 21050 30140 40295 56003 60006 74942 89/// 90600 333 11012 21049 60004=
07335,1998-12-22 09:00:00,-3,1030.4,1,100,-3,200,3.704,,,210,,,,,,,,,,49,wg-a,,,,AAXX 22094 07335 12/02 92102 11030 21030 30150 40304 53010 60006 74944 89/// 90900=
07335,1998-12-22 12:00:00,-1,1029.7,-0.6,100,-1,200,7.408,,,190,,,,,,,,,,49,wg-a,,,,AAXX 22124 07335 12/02 91904 11010 21010 30144 40297 58006 60006 74944 89/// 91200=
07335,1998-12-22 15:00:00,0,1028.1,-1.5,100,0,600,7.408,,,150,,,,,,,,,,42,wg-a,,,,AAXX 22154 07335 12106 81504 10000 20000 30129 40281 56015 60006 74244 886// 91500=
07335,1998-12-22 18:00:00,-1,1027.7,-0.5,100,-1,200,0,,,0,-4.6,0.3,,,,,,,,49,wg-a,,,,AAXX 22184 07335 12/02 90000 11010 21010 30124 40277 58005 60006 74944 89/// 91800 333 10003 21046=
07335,1998-12-23 00:00:00,-3,1025.8,-0.8,100,-3,0,0,,,0,,,,,,,,,,,wg-a,,,,AAXX 23004 07335 12/// /0000 11030 21030 30104 40258 58008 60006 90000=
07335,1998-12-23 06:00:00,-4,1022.8,-1.3,93,-5,15000,0,,,0,-4.5,-1.1,,,,,,,,,wg-a,,,,AAXX 23064 07335 02/65 10000 11040 21050 30074 40228 56013 60006 80001 90600 333 11011 21045 60004=
07335,1998-12-23 09:00:00,-4,1023.1,0.3,93,-5,7000,0,,,0,,,,,,,,,,,wg-a,,,,AAXX 23094 07335 12/57 /0000 11040 21050 30077 40231 51003 60006 80002 90900=
07335,1998-12-23 12:00:00,2,1021.1,-1.6,80,-1,7000,14.816,,,210,,,,,,,,,,,wg-a,,,,AAXX 23124 07335 12/57 /2108 10020 21010 30061 40211 58016 60006 81032 91200=
07335,1998-12-23 15:00:00,5,1020.1,-0.9,60,-2,15000,14.816,,,210,,,,,,,,,,,wg-a,,,,AAXX 23154 07335 12/65 72108 10050 21020 30052 40201 56009 60006 81032 91500=
07335,1998-12-23 18:00:00,2,1021,0.8,80,-1,10000,11.112,,,200,-5.2,4.9,,,,,,,,,wg-a,,,,AAXX 23184 07335 12/60 72006 10020 21010 30060 40210 51008 60006 82032 91800 333 10049 21052=
07335,1998-12-24 00:00:00,3,1020.6,-0.5,81,0,0,14.816,,,200,,,,,,,,,,,wg-a,,,,AAXX 24004 07335 32/// /2008 10030 20000 30056 40206 58005 90000=
07335,1998-12-24 06:00:00,4,1023.8,2.1,100,4,3000,11.112,,,330,2.1,4.1,,,,,2,,,10,wg-a,,,,AAXX 24064 07335 12230 83306 10040 20040 30088 40238 53021 60024 71022 886// 90600 333 10041 20021=
07335,1998-12-24 12:00:00,6,1027.7,1.2,87,4,8000,3.704,,,30,,,,,,,,,,1,wg-a,,,,AAXX 24124 07335 32258 20302 10060 20040 30128 40277 50012 70141 82630 91200=
07335,1998-12-24 15:00:00,8,1028.1,0.5,71,3,25000,0,,,0,,,,,,,,,,0,wg-a,,,,AAXX 24154 07335 32475 20000 10080 20030 30133 40281 53005 700// 81130 91500=
07335,1998-12-24 18:00:00,2,1030,1.5,100,2,1200,14.816,,,230,1.9,8.5,,,,,,,,10,wg-a,,,,AAXX 24184 07335 32012 72308 10020 20020 30148 40300 53015 71041 876// 91800 333 10085 20019=
07335,1998-12-25 00:00:00,3,1030.2,-0.1,100,3,0,11.112,,,200,,,,,,,,,,,wg-a,,,,AAXX 25004 07335 32/// /2006 10030 20030 30151 40302 58001 90000=
07335,1998-12-25 06:00:00,4,1029.8,-0,100,4,8000,14.816,,,200,2.1,4.6,,,,,,,,0,wg-a,,,,AAXX 25064 07335 12258 82008 10040 20040 30148 40298 55000 60004 700// 875// 90600 333 10046 20021=
07335,1998-12-25 09:00:00,5,1030.5,0.7,93,4,6000,18.52,,,200,,,,,,,,,,0,wg-a,,,,AAXX 25094 07335 32256 72010 10050 20040 30155 40305 53007 700// 875// 90900=
07335,1998-12-25 12:00:00,8,1029.4,-0.9,87,6,10000,18.52,,,210,,,,0,,,,,,20,wg-a,,,,AAXX 25124 07335 12360 72110 10080 20060 30146 40294 58009 60007 72052 85502 91200=
07335,1998-12-25 15:00:00,9,1028.2,-1.1,87,7,15000,18.52,,,210,,,,,,,,,,0,wg-a,,,,AAXX 25154 07335 32465 72110 10090 20070 30135 40282 55011 700// 875// 91500=
07335,1998-12-25 18:00:00,8,1027,-1.3,87,6,0,18.52,,,200,4.4,10,,,,,,,,,wg-a,,,,AAXX 25184 07335 32/// /2010 10080 20060 30122 40270 58013 91800 333 10100 20044=
07335,1998-12-26 00:00:00,5,1027.2,-0.4,87,3,0,25.928,,,210,,,,,,,,,,,wg-a,,,,AAXX 26004 07335 12/// /2114 10050 20030 30122 40272 58004 60006 90000=
07335,1998-12-26 06:00:00,5,1026,-1,81,2,15000,22.224,,,200,4.4,7.7,,,,,,,,,wg-a,,,,AAXX 26064 07335 02465 82012 10050 20020 30111 40260 58010 60006 875// 90600 333 10077 20044 60004=
07335,1998-12-26 09:00:00,6,1025.1,-0.9,81,3,15000,22.224,,,210,,,,,,,,,,1,wg-a,,,,AAXX 26094 07335 02265 82112 10060 20030 30102 40251 58009 61000 70165 8757/ 90900 333 ////=
07335,1998-12-26 12:00:00,8,1023.2,-1.7,87,6,25000,29.632,,,210,,,,,,,,,,1,wg-a,,,,AAXX 26124 07335 02575 72116 10080 20060 30085 40232 58017 61000 70165 8757/ 91200 333 ////=
07335,1998-12-26 15:00:00,10,1020.1,-3,82,7,25000,31.484,,,210,,,,,,,,,,,wg-a,,,,AAXX 26154 07335 12375 72117 10100 20070 30055 40201 56030 60006 82872 91500=
07335,1998-12-26 18:00:00,8,1019.6,-0.6,81,5,0,31.484,,,210,4.8,10.2,,,,,,,,,wg-a,,,,AAXX 26184 07335 32/// /2117 10080 20050 30049 40196 55006 91800 333 10102 20048=
07335,1998-12-27 00:00:00,8,1017.2,-1.1,87,6,0,29.632,,,210,,,,1,,,,,,,wg-a,,,,AAXX 27004 07335 02/// /2116 10080 20060 30025 40172 58011 60016 90000 333 60017=
07335,1998-12-27 06:00:00,8,1013.6,-2.2,81,5,12000,22.224,,,200,7.3,8.2,,,,,,,,60,wg-a,,,,AAXX 27064 07335 02162 72012 10080 20050 39990 40136 56022 61000 76062 875// 90600 333 10082 20073 6003=
07335,1998-12-27 09:00:00,8,1012.4,-1.2,76,4,25000,25.928,,,200,,,,0,,,,,,60,wg-a,,,,AAXX 27094 07335 12775 82014 10080 20040 39978 40124 56012 60007 76062 8257/ 90900=
07335,1998-12-27 12:00:00,11,1011.8,-0.4,62,4,25000,25.928,,,210,,,,,,,,,,21,wg-a,,,,AAXX 27124 07335 02775 72114 10110 20040 39974 40118 58004 60006 72162 8157/ 91200 333 61000=
07335,1998-12-27 18:00:00,10,1010.6,0.8,66,4,0,18.52,,,210,7.5,12.5,,,,,,,,,wg-a,,,,AAXX 27184 07335 32/// /2110 10100 20040 39961 40106 51008 91800 333 10125 20075=
07335,1998-12-28 00:00:00,10,1011.2,0.7,71,5,0,22.224,,,190,,,,,,,,,,,wg-a,,,,AAXX 28004 07335 12/// /1912 10100 20050 39967 40112 51007 60006 90000=
07335,1998-12-28 06:00:00,7,1012.2,1.1,87,5,8000,14.816,,,230,6.4,10.1,,,,,,,,61,wg-a,,,,AAXX 28064 07335 02358 82308 10070 20050 39976 40122 53011 61000 76162 875// 90600 333 10101 20064 6001=
07335,1998-12-28 09:00:00,7,1014.3,2,93,6,3000,7.408,,,220,,,,3,,,,,,61,wg-a,,,,AAXX 28094 07335 12130 82204 10070 20060 39996 40143 53020 60037 76166 875// 90900=
07335,1998-12-28 12:00:00,7,1015.3,1,93,6,4000,7.408,,,190,,,,2,,,,,,61,wg-a,,,,AAXX 28124 07335 02240 81904 10070 20060 30006 40153 51010 60056 76166 875// 91200 333 60027=
07335,1998-12-28 18:00:00,5,1017.2,1.1,93,4,10000,11.112,,,190,5,6.8,,0,,,,,,1,wg-a,,,,AAXX 28184 07335 02360 41906 10050 20040 30024 40172 51011 60006 70161 83502 91800 333 10068 20050 60007=
07335,1998-12-29 00:00:00,3,1016.5,-1.2,93,2,0,7.408,,,180,,,,,,,,,,,wg-a,,,,AAXX 29004 07335 12/// /1804 10030 20020 30016 40165 58012 60006 90000=
07335,1998-12-29 06:00:00,-2,1011.5,-2.3,93,-3,1800,3.704,,,150,-2.2,5.1,,,,,8,,,11,wg-a,,,,AAXX 29064 07335 02/18 01502 11020 21030 39964 40115 56023 60006 71100 80000 90600 333 10051 21022 60084=
07335,1998-12-29 09:00:00,4,1010,-1.2,93,3,15000,11.112,,,160,,,,,,,,,,,wg-a,,,,AAXX 29094 07335 12/65 41606 10040 20030 39952 40100 56012 60006 80002 90900=
07335,1998-12-29 12:00:00,12,1007.4,-2.1,71,7,15000,22.224,,,170,,,,,,,,,,,wg-a,,,,AAXX 29124 07335 12/65 61712 10120 20070 39931 40074 58021 60006 80006 91200=
07335,1998-12-29 15:00:00,12,1005.8,-1.6,71,7,10000,18.52,,,190,,,,,,,,,,,wg-a,,,,AAXX 29154 07335 12/60 /1910 10120 20070 39915 40058 56016 60006 91500=
07335,1998-12-29 18:00:00,10,1005.4,-0.5,76,6,15000,18.52,,,170,-2.1,12.6,,,,,,,,,wg-a,,,,AAXX 29184 07335 12/65 71710 10100 20060 39910 40054 56005 60006 81032 91800 333 10126 21021=
07335,1998-12-30 00:00:00,10,1005.9,0.6,71,5,0,22.224,,,180,,,,,,,,,,,wg-a,,,,AAXX 30004 07335 32/// /1812 10100 20050 39915 40059 51006 90000=
07335,1998-12-30 06:00:00,11,1007.6,1,66,5,15000,22.224,,,180,9.4,11,,,,,,,,60,wg-a,,,,AAXX 30064 07335 02665 81812 10110 20050 39932 40076 53010 61000 76062 8557/ 90600 333 10110 20094 6100=
07335,1998-12-30 09:00:00,10,1008.7,1.1,76,6,20000,18.52,,,180,,,,,,,,,,60,wg-a,,,,AAXX 30094 07335 02670 81810 10100 20060 39943 40087 51011 61000 76066 8157/ 90900 333 ////=
07335,1998-12-30 12:00:00,11,1009,0.3,76,7,20000,18.52,,,190,,,,,,,,,,60,wg-a,,,,AAXX 30124 07335 02770 81910 10110 20070 39946 40090 50003 61000 76062 8357/ 91200 333 ////=
07335,1998-12-30 15:00:00,10,1008.1,-0.9,87,8,20000,11.112,,,150,,,,1,,,,,,60,wg-a,,,,AAXX 30154 07335 12570 81506 10100 20080 39937 40081 56009 60017 76066 8457/ 91500=
07335,1998-12-30 18:00:00,10,1007.6,-0.5,82,7,10000,11.112,,,160,9.4,11.3,,,,,,,,,wg-a,,,,AAXX 30184 07335 32/60 /1606 10100 20070 39932 40076 57005 91800 333 10113 20094=
07335,1998-12-31 00:00:00,9,1006.9,-0.4,93,8,0,22.224,,,190,,,,,,,,,,,wg-a,,,,AAXX 31004 07335 32/// /1912 10090 20080 39925 40069 57004 90000=
07335,1998-12-31 06:00:00,9,1003.6,-1.4,93,8,10000,22.224,,,180,8.6,10.3,,2,,,3,,,61,wg-a,,,,AAXX 31064 07335 02360 81812 10090 20080 39892 40036 56014 60034 76162 885// 90600 333 10103 20086 60027=
07335,1998-12-31 12:00:00,11,1001.3,-1.4,87,9,20000,18.52,,,180,,,,0,,,,,,1,wg-a,,,,AAXX 31124 07335 12370 71810 10110 20090 39871 40013 58014 60007 70162 87500 91200=
07335,1998-12-31 18:00:00,10,1000.6,0.3,82,7,20000,11.112,,,210,8.1,13,,,,,,,,21,wg-a,,,,AAXX 31184 07335 02570 /2106 10100 20070 39863 40006 53003 61000 72161 85800 91800 333 10130 20081 ////=
