station_id,dh_utc,temperature,pression,pression_variation_3h,humidite,point_de_rosee,visibilite,vent_moyen,vent_rafales,vent_rafales_10min,vent_direction,temperature_min,temperature_max,pluie_1h,pluie_3h,pluie_6h,pluie_12h,pluie_24h,ensoleillement,temperature_sol,temps_omm,source,radiations,neige_au_sol,nebulosite,raw_msg
07335,1999-01-01 00:00:00,9,1004.1,1.7,81,6,0,3.704,,,190,,,,,,,,,,,wg-a,,,,AAXX 01004 07335 32/// /1902 10090 20060 39897 40041 51017 90000=
07335,1999-01-01 06:00:00,5,1006.4,1.6,93,4,15000,11.112,,,150,4.2,10.1,,,,,3,,,0,wg-a,,,,AAXX 01064 07335 12765 71506 10050 20040 39918 40064 53016 60034 700// 81532 90600 333 10101 20042=
07335,1999-01-01 09:00:00,6,1009.4,2.9,93,5,15000,3.704,,,180,,,,,,,,,,0,wg-a,,,,AAXX 01094 07335 32765 61802 10060 20050 39947 40094 53029 700// 81532 90900=
07335,1999-01-01 12:00:00,11,1010.4,1.3,71,6,20000,14.816,,,210,,,,,,,,,,0,wg-a,,,,AAXX 01124 07335 32/70 22108 10110 20060 39960 40104 51013 700// 81032 91200=
07335,1999-01-01 15:00:00,11,1010.9,0.5,76,7,20000,14.816,,,210,,,,,,,,,,0,wg-a,,,,AAXX 01154 07335 32/70 12108 10110 20070 39965 40109 53005 700// 80002 91500=
07335,1999-01-01 18:00:00,6,1011.9,0.7,93,5,0,7.408,,,260,3.3,11.9,,,,,,,,,wg-a,,,,AAXX 01184 07335 32/// /2604 10060 20050 39972 40119 53007 91800 333 10119 20033=
07335,1999-01-02 00:00:00,7,1011.2,-1,87,5,0,14.816,,,180,,,,,,,,,,,wg-a,,,,AAXX 02004 07335 32/// /1808 10070 20050 39966 40112 58010 90000=
07335,1999-01-02 06:00:00,7,1008.6,-1.6,87,5,10000,29.632,,,210,3.8,7.7,,,,,,,,0,wg-a,,,,AAXX 02064 07335 12160 72116 10070 20050 39940 40086 56016 60004 700// 875// 90600 333 10077 20038=
07335,1999-01-02 09:00:00,8,1009,0.5,87,6,20000,25.928,,,200,,,,1,,,,,,60,wg-a,,,,AAXX 02094 07335 12470 82014 10080 20060 39945 40090 51005 60017 76062 8557/ 90900=
07335,1999-01-02 12:00:00,9,1009.3,0.3,87,7,25000,22.224,,,210,,,,2,,,,,,3,wg-a,,,,AAXX 02124 07335 12475 72112 10090 20070 39948 40093 50003 60027 70362 872// 91200=
07335,1999-01-02 15:00:00,9,1008.7,-0.6,87,7,15000,22.224,,,210,,,,0,,,,,,80,wg-a,,,,AAXX 02154 07335 12265 72112 10090 20070 39942 40087 56006 60007 78086 879// 91500=
07335,1999-01-02 18:00:00,8,1010.6,1.8,87,6,0,25.928,,,250,7,9.7,,,,,,,,,wg-a,,,,AAXX 02184 07335 32/// /2514 10080 20060 39960 40106 53018 91800 333 10097 20070=
07335,1999-01-03 00:00:00,7,1015.2,1.8,93,6,0,18.52,,,250,,,,,,,,,,,wg-a,,,,AAXX 03004 07335 32/// /2510 10070 20060 30005 40152 51018 90000=
07335,1999-01-03 06:00:00,9,1013.3,-1.6,93,8,20000,18.52,,,230,6.7,9,,0,,,5,,,0,wg-a,,,,AAXX 03064 07335 02170 82310 10090 20080 39988 40133 56016 60054 700// 875// 90600 333 10090 20067 60007=
07335,1999-01-03 12:00:00,13,1012.4,0.3,88,11,500,38.892,,64.82,270,,,,1,,,,,,80,wg-a,,,,AAXX 03124 07335 12200 72721 10130 20110 39981 40124 53003 60017 78086 86202 91200 333 91035=
07335,1999-01-03 15:00:00,11,1015.7,3.1,71,6,25000,22.224,,,290,,,,,,,,,,1,wg-a,,,,AAXX 03154 07335 02575 42912 10110 20060 30012 40157 51031 61000 70186 84232 91500 333 ////=
07335,1999-01-03 18:00:00,10,1017.9,2.1,87,8,0,11.112,,,210,9.1,12.9,,,,,,,,,wg-a,,,,AAXX 03184 07335 32/// /2106 10100 20080 30033 40179 51021 91800 333 10129 20091=
07335,1999-01-04 00:00:00,11,1018.2,0.3,100,11,0,25.928,,,250,,,,,,,,,,,wg-a,,,,AAXX 04004 07335 32/// /2514 10110 20110 30037 40182 50003 90000=
07335,1999-01-04 06:00:00,11,1018.1,-0.5,94,10,6000,22.224,,,220,9.5,11.6,,,,,3,,,50,wg-a,,,,AAXX 04064 07335 02156 82212 10110 20100 30036 40181 55005 60034 75065 887// 90600 333 10116 20095 61000=
07335,1999-01-04 12:00:00,12,1020,0.9,94,11,500,18.52,,,210,,,,,,,,,,50,wg-a,,,,AAXX 04124 07335 02100 82110 10120 20110 30055 40200 50009 61000 75052 887// 91200 333 ////=
07335,1999-01-04 15:00:00,13,1019.5,-0.4,88,11,20000,14.816,,,220,,,,,,,,,,3,wg-a,,,,AAXX 04154 07335 02470 72208 10130 20110 30051 40195 55004 61000 70352 85532 91500 333 ////=
07335,1999-01-04 18:00:00,11,1020.3,0.7,87,9,20000,7.408,,,190,10.8,13,,,,,,,,2,wg-a,,,,AAXX 04184 07335 32770 71904 10110 20090 30058 40203 51007 70252 83532 91800 333 10130 20108=
07335,1999-01-05 00:00:00,9,1019,-1.1,93,8,0,7.408,,,160,,,,,,,,,,,wg-a,,,,AAXX 05004 07335 32/// /1604 10090 20080 30044 40190 56011 90000=
07335,1999-01-05 06:00:00,9,1016.9,-0.7,93,8,15000,11.112,,,200,5.7,11.9,,,,,,,,0,wg-a,,,,AAXX 05064 07335 12/65 32006 10090 20080 30023 40169 55007 60004 700// 80002 90600 333 10119 20057=
07335,1999-01-05 09:00:00,12,1017.8,1,82,9,20000,18.52,,,200,,,,,,,,,,0,wg-a,,,,AAXX 05094 07335 32/70 42010 10120 20090 30033 40178 53010 700// 81032 90900=
07335,1999-01-05 12:00:00,15,1018,0.4,63,8,25000,18.52,,,200,,,,,,,,,,0,wg-a,,,,AAXX 05124 07335 32/75 52010 10150 20080 30037 40180 50004 700// 81032 91200=
07335,1999-01-05 15:00:00,16,1017.3,-0.6,63,9,25000,14.816,,,190,,,,,,,,,,0,wg-a,,,,AAXX 05154 07335 32/75 21908 10160 20090 30031 40173 55006 700// 81032 91500=
07335,1999-01-05 18:00:00,11,1018.6,1,82,8,25000,7.408,,,160,8.6,16.1,,,,,,,,0,wg-a,,,,AAXX 05184 07335 32/75 21604 10110 20080 30041 40186 53010 700// 80002 91800 333 10161 20086=
07335,1999-01-06 00:00:00,8,1019,-0.2,93,7,0,7.408,,,190,,,,,,,,,,,wg-a,,,,AAXX 06004 07335 32/// /1904 10080 20070 30043 40190 56002 90000=
07335,1999-01-06 06:00:00,6,1018.1,-0.7,93,5,15000,11.112,,,190,5.9,10.9,,,,,,,,0,wg-a,,,,AAXX 06064 07335 32/65 01906 10060 20050 30033 40181 55007 700// 80000 90600 333 10109 20059=
07335,1999-01-06 12:00:00,13,1017.9,-0.4,67,7,20000,22.224,,,200,,,,,,,,,,0,wg-a,,,,AAXX 06124 07335 32/70 02012 10130 20070 30035 40179 58004 700// 80000 91200=
07335,1999-01-06 15:00:00,14,1017,-0.8,63,7,20000,18.52,,,200,,,,,,,,,,0,wg-a,,,,AAXX 06154 07335 32/70 02010 10140 20070 30027 40170 56008 700// 80000 91500=
07335,1999-01-06 18:00:00,11,1017.7,0.5,76,7,10000,22.224,,,210,4.7,14.5,,,,,,,,,wg-a,,,,AAXX 06184 07335 32/60 /2112 10110 20070 30032 40177 53005 91800 333 10145 20047=
07335,1999-01-07 00:00:00,8,1018.3,-0.3,87,6,0,14.816,,,210,,,,,,,,,,,wg-a,,,,AAXX 07004 07335 32/// /2108 10080 20060 30037 40183 56003 90000=
07335,1999-01-07 06:00:00,7,1016.4,-0.4,87,5,15000,18.52,,,200,6.7,11.2,,,,,,,,,wg-a,,,,AAXX 07064 07335 32/65 02010 10070 20050 30017 40164 58004 80000 90600 333 10112 20067=
07335,1999-01-07 09:00:00,8,1016.5,0.2,87,6,15000,18.52,,,210,,,,,,,,,,0,wg-a,,,,AAXX 07094 07335 32565 72110 10080 20060 30019 40165 50002 700// 8653/ 90900=
07335,1999-01-07 12:00:00,12,1015.3,-1,94,11,6000,22.224,,,230,,,,0,,,,,,60,wg-a,,,,AAXX 07124 07335 12356 82312 10120 20110 30009 40153 58010 60007 76061 887// 91200=
07335,1999-01-07 15:00:00,11,1015.6,0.3,87,9,20000,22.224,,,260,,,,,,,,,,1,wg-a,,,,AAXX 07154 07335 02470 72612 10110 20090 30012 40156 53003 61000 70162 8757/ 91500 333 ////=
07335,1999-01-07 18:00:00,8,1016.5,0.7,87,6,20000,11.112,,,260,6.5,12.8,,,,,,,,1,wg-a,,,,AAXX 07184 07335 32470 /2606 10080 20060 30019 40165 50007 70162 81530 91800 333 10128 20065=
07335,1999-01-08 00:00:00,9,1014.3,-1.6,87,7,0,22.224,,,240,,,,1,,,,,,,wg-a,,,,AAXX 08004 07335 12/// /2412 10090 20070 39998 40143 57016 60017 90000=
07335,1999-01-08 06:00:00,9,1011.4,-1.3,93,8,3300,22.224,,,230,7.8,9.3,,,,,1,,,51,wg-a,,,,AAXX 08064 07335 02233 82312 10090 20080 39969 40114 57013 60014 75152 877// 90600 333 10093 20078 61000=
07335,1999-01-08 09:00:00,7,1012.2,0.7,93,6,500,11.112,,,310,,,,1,,,,,,50,wg-a,,,,AAXX 08094 07335 12200 83106 10070 20060 39976 40122 50007 60017 75055 875// 90900=
07335,1999-01-08 12:00:00,9,1011.7,-0.4,81,6,15000,7.408,,,300,,,,,,,,,,3,wg-a,,,,AAXX 08124 07335 02465 73004 10090 20060 39972 40117 58004 61000 70352 8483/ 91200 333 ////=
07335,1999-01-08 15:00:00,9,1011.4,-0.3,81,6,15000,18.52,,,280,,,,,,,,,,0,wg-a,,,,AAXX 08154 07335 32565 72810 10090 20060 39969 40114 55003 700// 878// 91500=
07335,1999-01-08 18:00:00,7,1011.7,0.2,87,5,11000,14.816,,,250,6.4,9.7,,,,,,,,,wg-a,,,,AAXX 08184 07335 32/61 /2508 10070 20050 39971 40117 52002 91800 333 10097 20064=
07335,1999-01-09 00:00:00,3,1011.2,-0.7,100,3,0,14.816,,,240,,,,,,,,,,,wg-a,,,,AAXX 09004 07335 32/// /2408 10030 20030 39964 40112 58007 90000=
07335,1999-01-09 06:00:00,4,1010.9,0.5,93,3,15000,11.112,,,280,3,7.1,,,,,1,,,0,wg-a,,,,AAXX 09064 07335 12465 52806 10040 20030 39961 40109 53005 60014 700// 85500 90600 333 10071 20030=
07335,1999-01-09 09:00:00,2,1012.1,1.1,100,2,25000,7.408,,,310,,,,,,,,,,0,wg-a,,,,AAXX 09094 07335 32/75 13104 10020 20020 39972 40121 52011 700// 81030 90900=
07335,1999-01-09 12:00:00,6,1012,0.1,81,3,500,14.816,,,10,,,,,,,,,,0,wg-a,,,,AAXX 09124 07335 32400 /0108 10060 20030 39973 40120 50001 700// 81101 91200=
07335,1999-01-09 15:00:00,7,1011.1,-0.8,76,3,500,14.816,,,30,,,,,,,,,,0,wg-a,,,,AAXX 09154 07335 32500 /0308 10070 20030 39965 40111 56008 700// 83201 91500=
07335,1999-01-09 18:00:00,5,1011.4,0.2,81,2,0,11.112,,,50,1,7.2,,,,,,,,,wg-a,,,,AAXX 09184 07335 32/// /0506 10050 20020 39967 40114 50002 91800 333 10072 20010=
07335,1999-01-11 00:00:00,0,1008.5,-0.3,86,-2,0,18.52,,,350,,,,,,,,,,,wg-a,,,,AAXX 11004 07335 32/// /3510 10000 21020 39935 40085 58003 90000=
07335,1999-01-11 06:00:00,-1,1009.3,0.6,100,-1,2000,22.224,,,340,-0.8,0.6,,0,,,,,,71,wg-a,,1,,AAXX 11064 07335 02120 83412 11010 21010 39943 40093 53006 60004 77172 887// 90600 333 10006 21008 4/001 60007=
07335,1999-01-11 09:00:00,-1,1011.5,2.1,93,-2,1200,14.816,,,350,,,,0,,,,,,10,wg-a,,,,AAXX 11094 07335 12112 83508 11010 21020 39964 40115 53021 60007 71077 887// 90900=
07335,1999-01-11 12:00:00,-1,1013.1,1.6,93,-2,500,7.408,,,340,,,,1,,,,,,71,wg-a,,,,AAXX 11124 07335 12100 83404 11010 21020 39980 40131 51016 60017 77177 8271/ 91200=
07335,1999-01-11 15:00:00,1,1014.3,1.3,80,-2,20000,11.112,,,360,,,,,,,,,,1,wg-a,,,,AAXX 11154 07335 02670 73606 10010 21020 39993 40143 53013 61000 70172 8257/ 91500 333 ////=
07335,1999-01-11 18:00:00,-2,1017.2,2.7,86,-4,10000,11.112,,,350,-1.7,0.5,,,,,,,,,wg-a,,,,AAXX 11184 07335 32/60 /3506 11020 21040 30020 40172 53027 91800 333 10005 21017=
07335,1999-01-12 00:00:00,-5,1021.3,1.2,93,-6,0,0,,,0,,,,,,,,,,,wg-a,,,,AAXX 12004 07335 32/// /0000 11050 21060 30058 40213 50012 90000=
07335,1999-01-12 06:00:00,-7,1022.3,0.1,93,-8,8000,7.408,,,180,-7.6,-1.7,,,,,,,,0,wg-a,,,,AAXX 12064 07335 32/58 01804 11070 21080 30067 40223 53001 700// 80000 90600 333 11017 21076=
07335,1999-01-12 09:00:00,-3,1021.6,-0.4,93,-4,10000,14.816,,,190,,,,,,,,,,0,wg-a,,,,AAXX 12094 07335 32660 /1908 11030 21040 30063 40216 58004 700// 81532 90900=
07335,1999-01-12 12:00:00,0,1019.4,-2,74,-4,15000,18.52,,,200,,,,,,,,,,0,wg-a,,,,AAXX 12124 07335 32765 72010 10000 21040 30043 40194 58020 700// 85532 91200=
07335,1999-01-12 15:00:00,1,1016.7,-2.7,75,-3,15000,22.224,,,200,,,,,,,,,,0,wg-a,,,,AAXX 12154 07335 32665 82012 10010 21030 30016 40167 58027 700// 8353/ 91500=
07335,1999-01-12 18:00:00,1,1013.1,-3.5,75,-3,8000,29.632,,48.152,200,-6.8,1.3,,,,,,,,71,wg-a,,1,,AAXX 12184 07335 02258 82016 10010 21030 39981 40131 56035 61000 77172 875// 91800 333 10013 21068 4/001 //// 91026=
07335,1999-01-13 00:00:00,3,1012.1,1.7,93,2,0,14.816,,,250,,,,1,,,,,,,wg-a,,,,AAXX 13004 07335 12/// /2508 10030 20020 39972 40121 53017 60017 90000=
07335,1999-01-13 06:00:00,2,1015.9,1.8,100,2,12000,14.816,,,290,0.1,2.8,,,,,1,,,0,wg-a,,,,AAXX 13064 07335 02562 42908 10020 20020 30009 40159 53018 60014 700// 82532 90600 333 10028 20001 61000=
07335,1999-01-13 09:00:00,3,1018.2,2.4,93,2,25000,14.816,,,290,,,,,,,,,,0,wg-a,,,,AAXX 13094 07335 32775 52908 10030 20020 30033 40182 53024 700// 81530 90900=
07335,1999-01-13 12:00:00,8,1018.3,0.3,76,4,500,14.816,,,270,,,,,,,,,,0,wg-a,,,,AAXX 13124 07335 32700 52708 10080 20040 30036 40183 50003 700// 81531 91200=
07335,1999-01-13 15:00:00,8,1018.1,-0.2,71,3,500,14.816,,,260,,,,,,,,,,0,wg-a,,,,AAXX 13154 07335 32600 72608 10080 20030 30034 40181 56002 700// 8557/ 91500=
07335,1999-01-13 18:00:00,6,1017.6,-0.5,87,4,25000,14.816,,,230,0.7,9.2,,,,,,,,0,wg-a,,,,AAXX 13184 07335 32675 72308 10060 20040 30029 40176 58005 700// 8557/ 91800 333 10092 20007=
07335,1999-01-14 00:00:00,7,1014.9,-1.4,100,7,0,18.52,,,230,,,,,,,,,,,wg-a,,,,AAXX 14004 07335 32/// /2310 10070 20070 30003 40149 58014 90000=
07335,1999-01-14 06:00:00,8,1014.9,1.4,93,7,20000,18.52,,,310,6.2,9,,0,,,4,,,0,wg-a,,,,AAXX 14064 07335 02670 73110 10080 20070 30003 40149 53014 60044 700// 875// 90600 333 10090 20062 60007=
07335,1999-01-14 09:00:00,7,1017.6,2.6,93,6,15000,14.816,,,300,,,,,,,,,,0,wg-a,,,,AAXX 14094 07335 32/65 03008 10070 20060 30029 40176 53026 700// 80000 90900=
07335,1999-01-14 12:00:00,10,1018.4,0.9,76,6,20000,22.224,,,320,,,,,,,,,,0,wg-a,,,,AAXX 14124 07335 32570 /3212 10100 20060 30038 40184 51009 700// 81100 91200=
07335,1999-01-14 18:00:00,2,1020.1,0.9,93,1,20000,7.408,,,260,2.1,10.7,,,,,,,,0,wg-a,,,,AAXX 14184 07335 32670 /2604 10020 20010 30051 40201 53009 700// 81500 91800 333 10107 20021=
07335,1999-01-15 00:00:00,2,1021.7,0.4,100,2,0,11.112,,,230,,,,,,,,,,,wg-a,,,,AAXX 15004 07335 32/// /2306 10020 20020 30067 40217 51004 90000=
07335,1999-01-15 06:00:00,4,1020.7,-0.5,93,3,20000,11.112,,,220,0.8,4.2,,,,,,,,0,wg-a,,,,AAXX 15064 07335 12570 82206 10040 20030 30058 40207 56005 60004 700// 875// 90600 333 10042 20008=
07335,1999-01-15 12:00:00,9,1018.4,,71,4,20000,22.224,,,210,,,,,,,,,,3,wg-a,,,,AAXX 15124 07335 32670 72112 10090 20040 30038 40184 70362 875// 91200=
07335,1999-01-15 15:00:00,9,1016.1,-2.3,71,4,20000,22.224,,,210,,,,,,,,,,0,wg-a,,,,AAXX 15154 07335 32670 72112 10090 20040 30015 40161 56023 700// 875// 91500=
07335,1999-01-15 18:00:00,8,1015.1,-1,71,3,20000,22.224,,,200,3.3,10.1,,,,,,,,0,wg-a,,,,AAXX 15184 07335 32670 72012 10080 20030 30005 40151 56010 700// 875// 91800 333 10101 20033=
07335,1999-01-16 00:00:00,8,1013.2,-0.8,81,5,0,29.632,,,210,,,,,,,,,,,wg-a,,,,AAXX 16004 07335 32/// /2116 10080 20050 39986 40132 56008 90000=
07335,1999-01-16 06:00:00,7,1011.1,-1.2,70,2,15000,29.632,,,200,6.8,8,,,,,,,,0,wg-a,,,,AAXX 16064 07335 12/65 52016 10070 20020 39965 40111 56012 60004 700// 85030 90600 333 10080 20068=
07335,1999-01-16 09:00:00,8,1010.8,-0.3,66,2,20000,31.484,,51.856,190,,,,,,,,,,0,wg-a,,,,AAXX 16094 07335 32770 71917 10080 20020 39962 40108 58003 700// 81532 90900 333 91028=
07335,1999-01-16 12:00:00,10,1010.2,-0.4,66,4,25000,29.632,,46.3,210,,,,,,,,,,0,wg-a,,,,AAXX 16124 07335 32775 72116 10100 20040 39958 40102 58004 700// 81532 91200 333 91025=
07335,1999-01-16 15:00:00,10,1008.7,-1.5,66,4,25000,29.632,,,210,,,,,,,,,,0,wg-a,,,,AAXX 16154 07335 32/75 72116 10100 20040 39943 40087 56015 700// 83032 91500=
07335,1999-01-16 18:00:00,10,1008.5,-0.2,66,4,0,25.928,,,200,6.7,10.4,,,,,,,,,wg-a,,,,AAXX 16184 07335 32/// /2014 10100 20040 39941 40085 56002 91800 333 10104 20067=
07335,1999-01-17 00:00:00,8,1008.8,0.2,93,7,0,14.816,,,240,,,,,,,,,,,wg-a,,,,AAXX 17004 07335 32/// /2408 10080 20070 39943 40088 53002 90000=
07335,1999-01-17 06:00:00,5,1009.7,0.7,100,5,8000,11.112,,,200,5.4,10.3,,5,,,13,,,61,wg-a,,,,AAXX 17064 07335 02558 82006 10050 20050 39950 40097 51007 60134 76162 8657/ 90600 333 10103 20054 60057=
07335,1999-01-17 09:00:00,5,1011.4,1.7,100,5,8000,7.408,,,150,,,,4,,,,,,61,wg-a,,,,AAXX 17094 07335 12458 81504 10050 20050 39967 40114 52017 60047 76166 8557/ 90900=
07335,1999-01-17 12:00:00,7,1012.6,1.3,93,6,12000,7.408,,,160,,,,1,,,,,,61,wg-a,,,,AAXX 17124 07335 12262 81604 10070 20060 39980 40126 51013 60017 76166 8277/ 91200=
07335,1999-01-17 15:00:00,8,1013.5,0.9,87,6,20000,7.408,,,240,,,,0,,,,,,1,wg-a,,,,AAXX 17154 07335 12470 72404 10080 20060 39989 40135 53009 60007 70162 83272 91500=
07335,1999-01-17 18:00:00,5,1015.9,2.2,93,4,0,7.408,,,300,5.2,8.2,,,,,,,,,wg-a,,,,AAXX 17184 07335 32/// /3004 10050 20040 30011 40159 53022 91800 333 10082 20052=
07335,1999-01-18 00:00:00,0,1020.9,2,100,0,900,7.408,,,260,,,,,,,,,,,wg-a,,,,AAXX 18004 07335 32/09 /2604 10000 20000 30058 40209 51020 90000=
07335,1999-01-18 06:00:00,-2,1024.3,1.4,100,-2,12000,3.704,,,230,-3.1,5.3,,,,,,,,40,wg-a,,,,AAXX 18064 07335 32/62 02302 11020 21020 30090 40243 51014 74000 80000 90600 333 10053 21031=
07335,1999-01-18 09:00:00,1,1026,1.8,93,0,6000,3.704,,,210,,,,,,,,,,0,wg-a,,,,AAXX 18094 07335 32/56 02102 10010 20000 30108 40260 51018 700// 80000 90900=
07335,1999-01-18 12:00:00,9,1025.5,0,71,4,25000,14.816,,,200,,,,,,,,,,0,wg-a,,,,AAXX 18124 07335 32/75 12008 10090 20040 30108 40255 50000 700// 80001 91200=
07335,1999-01-18 15:00:00,9,1024.8,-0.7,66,3,500,18.52,,,220,,,,,,,,,,0,wg-a,,,,AAXX 18154 07335 32/00 52210 10090 20030 30101 40248 55007 700// 80002 91500=
07335,1999-01-18 18:00:00,6,1025.3,0.3,81,3,10000,11.112,,,190,-3,9.9,,,,,,,,,wg-a,,,,AAXX 18184 07335 32/60 /1906 10060 20030 30104 40253 53003 91800 333 10099 21030=
07335,1999-01-19 00:00:00,5,1024.6,-0.7,87,3,0,14.816,,,200,,,,,,,,,,,wg-a,,,,AAXX 19004 07335 32/// /2008 10050 20030 30097 40246 56007 90000=
07335,1999-01-19 06:00:00,4,1023.2,-0.8,87,2,15000,18.52,,,200,3.6,7.7,,,,,,,,0,wg-a,,,,AAXX 19064 07335 12/65 32010 10040 20020 30082 40232 56008 60004 700// 80002 90600 333 10077 20036=
07335,1999-01-19 09:00:00,5,1023.2,0.1,81,2,15000,22.224,,,200,,,,,,,,,,0,wg-a,,,,AAXX 19094 07335 32565 72012 10050 20020 30083 40232 50001 700// 875// 90900=
07335,1999-01-19 12:00:00,9,1022.1,-0.9,61,2,20000,29.632,,,200,,,,,,,,,,0,wg-a,,,,AAXX 19124 07335 32570 62016 10090 20020 30074 40221 58009 700// 83532 91200=
07335,1999-01-19 15:00:00,10,1021.2,-0.8,57,2,20000,18.52,,,200,,,,,,,,,,0,wg-a,,,,AAXX 19154 07335 32570 72010 10100 20020 30066 40212 56008 700// 875// 91500=
07335,1999-01-19 18:00:00,9,1021.3,-0,61,2,15000,14.816,,,190,3.8,10.2,,,,,,,,0,wg-a,,,,AAXX 19184 07335 32465 71908 10090 20020 30066 40213 55000 700// 875// 91800 333 10102 20038=
07335,1999-01-20 00:00:00,8,1020.8,-0.5,66,2,0,14.816,,,200,,,,,,,,,,,wg-a,,,,AAXX 20004 07335 32/// /2008 10080 20020 30061 40208 58005 90000=
07335,1999-01-20 06:00:00,5,1019.2,-0.4,65,-1,20000,11.112,,,180,5.4,8.9,,,,,,,,0,wg-a,,,,AAXX 20064 07335 12770 41806 10050 21010 30044 40192 55004 60004 700// 82532 90600 333 10089 20054=
07335,1999-01-20 09:00:00,7,1019,-0.1,70,2,500,14.816,,,190,,,,,,,,,,0,wg-a,,,,AAXX 20094 07335 32/00 71908 10070 20020 30043 40190 55001 700// 8703/ 90900=
07335,1999-01-20 12:00:00,11,1018.4,-0.4,62,4,500,18.52,,,190,,,,,,,,,,0,wg-a,,,,AAXX 20124 07335 32/00 71910 10110 20040 30039 40184 58004 700// 8707/ 91200=
07335,1999-01-20 15:00:00,10,1018.1,-0.3,71,5,500,22.224,,,190,,,,,,,,,,0,wg-a,,,,AAXX 20154 07335 32700 71912 10100 20050 30036 40181 55003 700// 8257/ 91500=
07335,1999-01-20 18:00:00,10,1018.8,0.6,71,5,500,11.112,,,200,5.1,10.7,,,,,,,,,wg-a,,,,AAXX 20184 07335 32700 72006 10100 20050 30042 40188 53006 8557/ 91800 333 10107 20051=
07335,1999-01-21 00:00:00,7,1020,0.4,87,5,0,7.408,,,160,,,,,,,,,,,wg-a,,,,AAXX 21004 07335 32/// /1604 10070 20050 30052 40200 53004 90000=
07335,1999-01-21 06:00:00,5,1019.5,-0.3,87,3,25000,7.408,,,170,4.7,9.9,,,,,,,,0,wg-a,,,,AAXX 21064 07335 12/75 51704 10050 20030 30047 40195 55003 60004 700// 82032 90600 333 10099 20047=
07335,1999-01-21 12:00:00,10,1020.3,0.1,71,5,20000,7.408,,,170,,,,,,,,,,0,wg-a,,,,AAXX 21124 07335 32/70 71704 10100 20050 30057 40203 50001 700// 84032 91200=
07335,1999-01-21 18:00:00,6,1021.5,1,87,4,20000,3.704,,,60,4.4,11.6,,,,,,,,0,wg-a,,,,AAXX 21184 07335 32/70 70602 10060 20040 30067 40215 53010 700// 82032 91800 333 10116 20044=
07335,1999-01-22 00:00:00,1,1023.4,0.6,100,1,0,0,,,0,,,,,,,,,,,wg-a,,,,AAXX 22004 07335 32/// /0000 10010 20010 30083 40234 51006 90000=
07335,1999-01-22 06:00:00,4,1023.4,-0,100,4,500,7.408,,,40,0.9,6.4,,,,,,,,0,wg-a,,,,AAXX 22064 07335 12700 40404 10040 20040 30084 40234 55000 60004 700// 84500 90600 333 10064 20009=
07335,1999-01-22 09:00:00,4,1024.6,1.2,93,3,3500,7.408,,,330,,,,,,,,,,10,wg-a,,,,AAXX 22094 07335 32735 73304 10040 20030 30096 40246 53012 71011 82532 90900=
07335,1999-01-22 12:00:00,7,1024.2,-0.2,93,6,4000,7.408,,,20,,,,,,,,,,10,wg-a,,,,AAXX 22124 07335 32/40 70204 10070 20060 30094 40242 58002 71011 85032 91200=
07335,1999-01-22 18:00:00,6,1024.1,0.4,93,5,3000,11.112,,,40,3,8.5,,,,,,,,10,wg-a,,,,AAXX 22184 07335 32130 70406 10060 20050 30092 40241 53004 71022 86632 91800 333 10085 20030=
07335,1999-01-23 00:00:00,5,1023.9,0,100,5,1400,7.408,,,80,,,,,,,,,,,wg-a,,,,AAXX 23004 07335 32/14 /0804 10050 20050 30090 40239 50000 90000=
07335,1999-01-23 06:00:00,3,1022.9,-0.3,100,3,200,7.408,,,170,2.9,5.9,,,,,,,,45,wg-a,,,,AAXX 23064 07335 32/02 91704 10030 20030 30079 40229 55003 74542 89/// 90600 333 10059 20029=
07335,1999-01-23 09:00:00,2,1023.7,0.7,100,2,100,7.408,,,160,,,,,,,,,,43,wg-a,,,,AAXX 23094 07335 32/01 91604 10020 20020 30086 40237 52007 74344 89/// 90900=
07335,1999-01-23 12:00:00,6,1023.4,0,100,6,3500,14.816,,,210,,,,,,,,,,10,wg-a,,,,AAXX 23124 07335 32135 82108 10060 20060 30086 40234 50000 71042 886// 91200=
07335,1999-01-23 15:00:00,12,1021.7,-1.4,71,7,12000,14.816,,,210,,,,,,,,,,0,wg-a,,,,AAXX 23154 07335 32462 /2108 10120 20070 30072 40217 56014 700// 81100 91500=
07335,1999-01-23 18:00:00,4,1022.8,0.6,87,2,0,7.408,,,230,2.1,11.9,,,,,,,,,wg-a,,,,AAXX 23184 07335 32/// /2304 10040 20020 30078 40228 53006 91800 333 10119 20021=
07335,1999-01-24 00:00:00,6,1023.7,0.9,93,5,0,14.816,,,210,,,,,,,,,,,wg-a,,,,AAXX 24004 07335 32/// /2108 10060 20050 30088 40237 51009 90000=
07335,1999-01-24 06:00:00,5,1023.8,0.2,100,5,3000,7.408,,,210,3.5,6.5,,,,,,,,10,wg-a,,,,AAXX 24064 07335 12130 82104 10050 20050 30089 40238 53002 60004 71022 886// 90600 333 10065 20035=
07335,1999-01-24 09:00:00,6,1025.2,1.5,100,6,1500,14.816,,,210,,,,,,,,,,28,wg-a,,,,AAXX 24094 07335 02115 82108 10060 20060 30104 40252 53015 61000 72864 886// 90900 333 ////=
07335,1999-01-24 12:00:00,8,1025.9,0.7,93,7,1800,14.816,,,200,,,,,,,,,,10,wg-a,,,,AAXX 24124 07335 32118 82008 10080 20070 30111 40259 50007 71064 886// 91200=
07335,1999-01-24 15:00:00,9,1025.8,-0,93,8,2000,18.52,,,210,,,,,,,,,,10,wg-a,,,,AAXX 24154 07335 32120 82110 10090 20080 30111 40258 55000 71022 886// 91500=
07335,1999-01-24 18:00:00,9,1026.7,0.9,93,8,0,11.112,,,200,5.3,8.9,,,,,,,,,wg-a,,,,AAXX 24184 07335 32/// /2006 10090 20080 30120 40267 52009 91800 333 10089 20053=
07335,1999-01-25 00:00:00,9,1027.7,0.6,93,8,0,18.52,,,210,,,,,,,,,,,wg-a,,,,AAXX 25004 07335 32/// /2110 10090 20080 30129 40277 53006 90000=
07335,1999-01-25 06:00:00,8,1027.3,-0.2,93,7,8000,14.816,,,200,8.1,9,,,,,,,,0,wg-a,,,,AAXX 25064 07335 12458 72008 10080 20070 30125 40273 55002 60004 700// 875// 90600 333 10090 20081=
07335,1999-01-25 12:00:00,12,1027,-0.6,76,8,15000,18.52,,,210,,,,,,,,,,0,wg-a,,,,AAXX 25124 07335 32765 62110 10120 20080 30124 40270 58006 700// 83502 91200=
07335,1999-01-25 15:00:00,13,1025.2,-1.7,77,9,15000,18.52,,,220,,,,,,,,,,0,wg-a,,,,AAXX 25154 07335 32565 72210 10130 20090 30107 40252 56017 700// 875// 91500=
07335,1999-01-25 18:00:00,12,1024.8,-0.4,82,9,20000,25.928,,,240,8.4,13.4,,,,,,,,0,wg-a,,,,AAXX 25184 07335 32570 82414 10120 20090 30103 40248 57004 700// 875// 91800 333 10134 20084=
07335,1999-01-26 00:00:00,12,1021.9,-2.1,82,9,0,25.928,,,230,,,,,,,,,,,wg-a,,,,AAXX 26004 07335 32/// /2314 10120 20090 30074 40219 56021 90000=
07335,1999-01-26 06:00:00,7,1019.3,-1.1,93,6,8000,7.408,,,340,6.7,12.4,,9,,,13,,,61,wg-a,,,,AAXX 26064 07335 02158 83404 10070 20060 30046 40193 56011 60134 76162 887// 90600 333 10124 20067 60097=
07335,1999-01-26 09:00:00,7,1020.3,0.9,93,6,10000,11.112,,,320,,,,1,,,,,,21,wg-a,,,,AAXX 26094 07335 12160 83206 10070 20060 30055 40203 53009 60017 72162 887// 90900=
07335,1999-01-26 12:00:00,8,1020.2,0,87,6,20000,11.112,,,280,,,,,,,,,,1,wg-a,,,,AAXX 26124 07335 32370 82806 10080 20060 30055 40202 50000 70162 8587/ 91200=
07335,1999-01-26 15:00:00,10,1018.6,-1.5,71,5,20000,25.928,,,280,,,,,,,,,,0,wg-a,,,,AAXX 26154 07335 32570 /2814 10100 20050 30040 40186 58015 700// 8683/ 91500=
07335,1999-01-26 18:00:00,6,1019,0.2,93,5,20000,14.816,,,250,6.3,10,,,,,,,,0,wg-a,,,,AAXX 26184 07335 32570 /2508 10060 20050 30042 40190 51002 700// 81132 91800 333 10100 20063=
07335,1999-01-27 00:00:00,8,1015,-2.7,87,6,0,29.632,,,240,,,,,,,,,,,wg-a,,,,AAXX 27004 07335 32/// /2416 10080 20060 30004 40150 58027 90000=
07335,1999-01-27 06:00:00,7,1015.7,2.7,87,5,15000,18.52,,,340,5.6,9.2,,3,,,5,,,1,wg-a,,,,AAXX 27064 07335 02/65 63410 10070 20050 30010 40157 51027 60054 70162 83032 90600 333 10092 20056 60037=
07335,1999-01-27 09:00:00,6,1019.5,3.7,87,4,20000,14.816,,,320,,,,,,,,,,0,wg-a,,,,AAXX 27094 07335 32/70 63208 10060 20040 30047 40195 53037 700// 86052 90900=
07335,1999-01-27 12:00:00,8,1020.9,1.5,71,3,25000,22.224,,,340,,,,0,,,,,,0,wg-a,,,,AAXX 27124 07335 12575 /3412 10080 20030 30062 40209 50015 60007 700// 86202 91200=
07335,1999-01-27 18:00:00,4,1022.1,0.3,87,2,25000,11.112,,,260,3.2,9.1,,,,,,,,,wg-a,,,,AAXX 27184 07335 32/75 32606 10040 20020 30072 40221 53003 83032 91800 333 10091 20032=
07335,1999-01-28 00:00:00,7,1022.2,0.3,100,7,0,22.224,,,260,,,,,,,,,,,wg-a,,,,AAXX 28004 07335 32/// /2612 10070 20070 30075 40222 53003 90000=
07335,1999-01-28 06:00:00,9,1020.3,-0.5,87,7,12000,22.224,,,280,4,9.2,,,,,,,,0,wg-a,,,,AAXX 28064 07335 12462 72812 10090 20070 30057 40203 56005 60004 700// 875// 90600 333 10092 20040=
07335,1999-01-28 09:00:00,10,1020.6,0.3,93,9,12000,29.632,,,280,,,,0,,,,,,21,wg-a,,,,AAXX 28094 07335 12162 82816 10100 20090 30060 40206 51003 60007 72162 885// 90900=
07335,1999-01-28 12:00:00,12,1020,-0.5,82,9,15000,29.632,,,300,,,,,,,,,,1,wg-a,,,,AAXX 28124 07335 32565 83016 10120 20090 30055 40200 58005 70162 888// 91200=
07335,1999-01-28 15:00:00,12,1018.6,-1.3,76,8,15000,31.484,,,300,,,,,,,,,,0,wg-a,,,,AAXX 28154 07335 32565 73017 10120 20080 30042 40186 56013 700// 878// 91500=
07335,1999-01-28 18:00:00,10,1020.1,1.3,93,9,3000,29.632,,,330,9.1,12.4,,1,,,,,,61,wg-a,,,,AAXX 28184 07335 12330 83316 10100 20090 30055 40201 52013 60017 76162 885// 91800 333 10124 20091=
07335,1999-01-29 00:00:00,9,1022.2,1,93,8,0,25.928,,,320,,,,,,,,,,,wg-a,,,,AAXX 29004 07335 02/// /3214 10090 20080 30076 40222 53010 61000 90000 333 ////=
07335,1999-01-29 06:00:00,8,1024.4,1,93,7,15000,14.816,,,350,8,10.1,,0,,,1,,,61,wg-a,,,,AAXX 29064 07335 02165 83508 10080 20070 30097 40244 53010 60014 76162 8557/ 90600 333 10101 20080 60007=
07335,1999-01-29 09:00:00,7,1027.3,2.8,93,6,15000,14.816,,,10,,,,1,,,,,,1,wg-a,,,,AAXX 29094 07335 12265 /0108 10070 20060 30125 40273 51028 60017 70162 85570 90900=
07335,1999-01-29 12:00:00,8,1028.2,0.9,66,2,25000,22.224,,,20,,,,,,,,,,3,wg-a,,,,AAXX 29124 07335 32575 60212 10080 20020 30134 40282 51009 70361 84102 91200=
07335,1999-01-29 15:00:00,9,1028.9,0.7,61,2,25000,22.224,,,30,,,,,,,,,,0,wg-a,,,,AAXX 29154 07335 32675 70312 10090 20020 30141 40289 53007 700// 84802 91500=
07335,1999-01-29 18:00:00,7,1030.6,1.6,76,3,20000,7.408,,,30,6.4,9.7,,,,,,,,0,wg-a,,,,AAXX 29184 07335 32670 70304 10070 20030 30157 40306 53016 700// 875// 91800 333 10097 20064=
07335,1999-01-30 00:00:00,2,1034.4,1.8,80,-1,0,14.816,,,70,,,,,,,,,,,wg-a,,,,AAXX 30004 07335 32/// /0708 10020 21010 30191 40344 52018 90000=
07335,1999-01-30 06:00:00,-2,1035.7,0.9,86,-4,20000,7.408,,,50,-2.8,7,,,,,1,,,0,wg-a,,,,AAXX 30064 07335 12/70 10504 11020 21040 30202 40357 53009 60014 700// 80002 90600 333 10070 21028=
07335,1999-01-30 09:00:00,-1,1037.4,1.7,80,-4,12000,7.408,,,60,,,,,,,,,,0,wg-a,,,,AAXX 30094 07335 32762 10604 11010 21040 30219 40374 53017 700// 81500 90900=
07335,1999-01-30 12:00:00,2,1037.3,0.1,55,-6,500,14.816,,,60,,,,,,,,,,0,wg-a,,,,AAXX 30124 07335 32700 10608 10020 21060 30220 40373 50001 700// 81500 91200=
07335,1999-01-30 15:00:00,4,1036.5,-0.7,41,-8,500,14.816,,,70,,,,,,,,,,0,wg-a,,,,AAXX 30154 07335 32700 10708 10040 21080 30213 40365 55007 700// 81501 91500=
07335,1999-01-30 18:00:00,1,1037.3,0.6,51,-8,0,7.408,,,60,-4,3.9,,,,,,,,,wg-a,,,,AAXX 30184 07335 32/// /0604 10010 21080 30219 40373 53006 91800 333 10039 21040=
07335,1999-01-31 00:00:00,-4,1038.8,0.5,80,-7,0,11.112,,,30,,,,,,,,,,,wg-a,,,,AAXX 31004 07335 32/// /0306 11040 21070 30232 40388 51005 90000=
07335,1999-01-31 06:00:00,-5,1038.3,-0.1,86,-7,20000,11.112,,,30,-5.3,0.7,,,,,,,,0,wg-a,,,,AAXX 31064 07335 32/70 00306 11050 21070 30226 40383 55001 700// 80000 90600 333 10007 21053=
07335,1999-01-31 09:00:00,-2,1039.3,1.2,80,-5,20000,22.224,,,40,,,,,,,,,,0,wg-a,,,,AAXX 31094 07335 32/70 10412 11020 21050 30238 40393 52012 700// 80002 90900=
07335,1999-01-31 12:00:00,2,1038.7,-0.4,60,-5,25000,25.928,,,50,,,,,,,,,,0,wg-a,,,,AAXX 31124 07335 32575 20514 10020 21050 30234 40387 58004 700// 82102 91200=
07335,1999-01-31 15:00:00,3,1037.2,-1.4,52,-6,25000,31.484,,,40,,,,,,,,,,0,wg-a,,,,AAXX 31154 07335 32675 20417 10030 21060 30220 40372 56014 700// 81102 91500=
07335,1999-01-31 18:00:00,1,1038.1,0.7,64,-5,0,25.928,,,40,-5.8,3.3,,,,,,,,,wg-a,,,,AAXX 31184 07335 32/// /0414 10010 21050 30227 40381 53007 91800 333 10033 21058=
07335,1999-02-01 00:00:00,-1,1037.5,-0.2,74,-5,0,22.224,,,40,,,,,,,,,,,wg-a,,,,AAXX 01004 07335 32/// /0412 11010 21050 30221 40375 56002 90000=
07335,1999-02-01 06:00:00,-3,1037.6,0,86,-5,20000,14.816,,,360,-3.1,0.9,,,,,,,,0,wg-a,,,,AAXX 01064 07335 12/70 13608 11030 21050 30220 40376 50000 60004 700// 80001 90600 333 10009 21031=
07335,1999-02-01 09:00:00,-1,1038.3,0.8,80,-4,20000,14.816,,,360,,,,,,,,,,0,wg-a,,,,AAXX 01094 07335 32/70 33608 11010 21040 30228 40383 51008 700// 81031 90900=
07335,1999-02-01 12:00:00,4,1037.6,-0.4,60,-3,20000,22.224,,,20,,,,,,,,,,0,wg-a,,,,AAXX 01124 07335 32/70 30212 10040 21030 30224 40376 58004 700// 83031 91200=
07335,1999-02-01 18:00:00,4,1036.7,0.1,81,1,8000,22.224,,,20,-3.2,6.4,,,,,,,,0,wg-a,,,,AAXX 01184 07335 32558 80212 10040 20010 30215 40367 51001 700// 885// 91800 333 10064 21032=
07335,1999-02-02 00:00:00,5,1036.9,0.1,93,4,0,18.52,,,30,,,,,,,,,,,wg-a,,,,AAXX 02004 07335 32/// /0310 10050 20040 30218 40369 53001 90000=
07335,1999-02-02 06:00:00,5,1037.4,0.5,81,2,10000,14.816,,,50,3.5,4.9,,,,,,,,20,wg-a,,,,AAXX 02064 07335 02460 80508 10050 20020 30223 40374 53005 61000 72052 885// 90600 333 10049 20035 6100=
07335,1999-02-02 09:00:00,5,1038.3,0.9,87,3,8000,14.816,,,360,,,,,,,,,,0,wg-a,,,,AAXX 02094 07335 32558 83608 10050 20030 30232 40383 51009 700// 885// 90900=
07335,1999-02-02 12:00:00,6,1038.1,-0.2,81,3,10000,14.816,,,20,,,,,,,,,,0,wg-a,,,,AAXX 02124 07335 32460 80208 10060 20030 30230 40381 58002 700// 885// 91200=
07335,1999-02-02 15:00:00,7,1038,-0,81,4,12000,22.224,,,30,,,,,,,,,,0,wg-a,,,,AAXX 02154 07335 32462 80312 10070 20040 30230 40380 55000 700// 885// 91500=
07335,1999-02-03 00:00:00,6,1040.8,0.6,87,4,0,14.816,,,40,,,,,,,,,,,wg-a,,,,AAXX 03004 07335 32/// /0408 10060 20040 30257 40408 53006 90000=
07335,1999-02-03 06:00:00,6,1041,0.1,87,4,7000,11.112,,,30,5.2,6.6,,,,,,,,0,wg-a,,,,AAXX 03064 07335 12457 80306 10060 20040 30259 40410 53001 60004 700// 875// 90600 333 10066 20052=
07335,1999-02-03 09:00:00,6,1041.4,0.4,87,4,500,7.408,,,70,,,,,,,,,,0,wg-a,,,,AAXX 03094 07335 32400 80704 10060 20040 30263 40414 50004 700// 875// 90900=
07335,1999-02-03 12:00:00,7,1041.4,0.1,81,4,7000,3.704,,,30,,,,,,,,,,0,wg-a,,,,AAXX 03124 07335 32457 80302 10070 20040 30264 40414 50001 700// 8553/ 91200=
07335,1999-02-03 15:00:00,9,1039.8,-1.5,76,5,6000,14.816,,,340,,,,,,,,,,0,wg-a,,,,AAXX 03154 07335 32456 73408 10090 20050 30249 40398 56015 700// 8253/ 91500=
07335,1999-02-03 18:00:00,5,1039.5,-0.5,87,3,500,7.408,,,290,5.4,9.2,,,,,,,,0,wg-a,,,,AAXX 03184 07335 32400 72904 10050 20030 30244 40395 57005 700// 8553/ 91800 333 10092 20054=
07335,1999-02-04 00:00:00,7,1039.2,-0.7,87,5,0,7.408,,,330,,,,,,,,,,,wg-a,,,,AAXX 04004 07335 32/// /3304 10070 20050 30242 40392 58007 90000=
07335,1999-02-04 06:00:00,7,1038,-0.6,87,5,6000,11.112,,,300,5.1,6.8,,,,,,,,0,wg-a,,,,AAXX 04064 07335 12556 83006 10070 20050 30230 40380 55006 60004 700// 885// 90600 333 10068 20051=
07335,1999-02-04 09:00:00,7,1038.5,0.5,93,6,3000,18.52,,,320,,,,,,,,,,10,wg-a,,,,AAXX 04094 07335 32130 83210 10070 20060 30235 40385 53005 71022 885// 90900=
07335,1999-02-04 12:00:00,8,1038.1,-0.3,87,6,500,18.52,,,310,,,,,,,,,,0,wg-a,,,,AAXX 04124 07335 32400 83110 10080 20060 30232 40381 58003 700// 885// 91200=
07335,1999-02-04 18:00:00,8,1035.7,-0.3,87,6,500,11.112,,,280,6.7,8.8,,,,,,,,,wg-a,,,,AAXX 04184 07335 32/00 /2806 10080 20060 30208 40357 55003 91800 333 10088 20067=
07335,1999-02-05 00:00:00,8,1033.1,-1.6,87,6,0,18.52,,,250,,,,,,,,,,,wg-a,,,,AAXX 05004 07335 32/// /2510 10080 20060 30182 40331 58016 90000=
07335,1999-02-05 06:00:00,8,1028.7,-2.4,93,7,3500,18.52,,,260,7.5,8.3,,0,,,,,,51,wg-a,,,,AAXX 05064 07335 02335 82610 10080 20070 30139 40287 56024 60004 75152 887// 90600 333 10083 20075 60007=
07335,1999-02-05 12:00:00,8,1029,0.2,76,4,15000,25.928,,,340,,,,,,,,,,1,wg-a,,,,AAXX 05124 07335 32565 83414 10080 20040 30142 40290 51002 70152 885// 91200=
07335,1999-02-05 18:00:00,8,1026.3,-0.1,81,5,15000,18.52,,,300,7.7,8.8,,,,,,,,0,wg-a,,,,AAXX 05184 07335 32565 83010 10080 20050 30115 40263 55001 700// 885// 91800 333 10088 20077=
07335,1999-02-06 00:00:00,7,1026.1,-0.3,81,4,0,18.52,,,300,,,,,,,,,,,wg-a,,,,AAXX 06004 07335 32/// /3010 10070 20040 30113 40261 55003 90000=
07335,1999-02-06 06:00:00,7,1024.2,-0.8,81,4,15000,22.224,,,300,6.6,7.7,,,,,,,,0,wg-a,,,,AAXX 06064 07335 12765 73012 10070 20040 30094 40242 56008 60004 700// 875// 90600 333 10077 20066=
07335,1999-02-06 09:00:00,7,1024,-0.2,76,3,20000,18.52,,,290,,,,,,,,,,0,wg-a,,,,AAXX 06094 07335 32770 72910 10070 20030 30092 40240 58002 700// 875// 90900=
07335,1999-02-06 12:00:00,8,1022.9,-1,76,4,20000,22.224,,,300,,,,,,,,,,0,wg-a,,,,AAXX 06124 07335 32770 73012 10080 20040 30082 40229 58010 700// 875// 91200=
07335,1999-02-06 15:00:00,8,1021.1,-1.8,71,3,20000,14.816,,,290,,,,,,,,,,0,wg-a,,,,AAXX 06154 07335 32670 72908 10080 20030 30064 40211 56018 700// 878// 91500=
07335,1999-02-06 18:00:00,7,1019.6,-1.5,81,4,0,14.816,,,260,6.5,8.9,,,,,,,,,wg-a,,,,AAXX 06184 07335 32/// /2608 10070 20040 30049 40196 56015 91800 333 10089 20065=
07335,1999-02-07 00:00:00,7,1016.1,-2.4,87,5,0,18.52,,,260,,,,,,,,,,,wg-a,,,,AAXX 07004 07335 32/// /2610 10070 20050 30014 40161 56024 90000=
07335,1999-02-07 06:00:00,7,1010.2,-2.4,93,6,15000,22.224,,,270,6.7,7.6,,0,,,,,,0,wg-a,,,,AAXX 07064 07335 02565 72712 10070 20060 39956 40102 56024 60004 700// 875// 90600 333 10076 20067 60007=
07335,1999-02-07 09:00:00,7,1010.5,0.3,93,6,15000,22.224,,,320,,,,2,,,,,,21,wg-a,,,,AAXX 07094 07335 12165 83212 10070 20060 39959 40105 53003 60027 72165 885// 90900=
07335,1999-02-07 12:00:00,7,1011,0.5,81,4,25000,29.632,,,340,,,,,,,,,,3,wg-a,,,,AAXX 07124 07335 32475 83416 10070 20040 39964 40110 50005 70365 878// 91200=
07335,1999-02-07 15:00:00,6,1011.8,0.7,70,1,20000,29.632,,,340,,,,,,,,,,0,wg-a,,,,AAXX 07154 07335 32570 73416 10060 20010 39971 40118 53007 700// 878// 91500=
07335,1999-02-07 18:00:00,4,1013.7,1.8,75,0,0,18.52,,,320,3.6,8.7,,,,,,,,,wg-a,,,,AAXX 07184 07335 32/// /3210 10040 20000 39989 40137 53018 91800 333 10087 20036=
07335,1999-02-08 00:00:00,0,1017.1,0.8,86,-2,0,11.112,,,280,,,,,,,,,,,wg-a,,,,AAXX 08004 07335 32/// /2806 10000 21020 30020 40171 51008 90000=
07335,1999-02-08 06:00:00,0,1015.4,-1,93,-1,15000,11.112,,,260,-0.6,3.7,,,,,2,,,0,wg-a,,,,AAXX 08064 07335 12765 52606 10000 21010 30004 40154 57010 60024 700// 85500 90600 333 10037 21006=
07335,1999-02-08 09:00:00,3,1015,-0.3,81,0,20000,14.816,,,250,,,,,,,,,,0,wg-a,,,,AAXX 08094 07335 32770 82508 10030 20000 30001 40150 58003 700// 85532 90900=
07335,1999-02-08 12:00:00,3,1011.5,-3.5,93,2,6000,14.816,,,200,,,,2,,,,,,61,wg-a,,,,AAXX 08124 07335 12356 82008 10030 20020 39966 40115 58035 60027 76162 8577/ 91200=
07335,1999-02-08 15:00:00,7,1003.9,-7.2,100,7,8000,29.632,,,250,,,,4,,,,,,61,wg-a,,,,AAXX 08154 07335 12258 82516 10070 20070 39894 40039 56072 60047 76166 8657/ 91500=
07335,1999-02-08 18:00:00,9,1002.7,-1.1,87,7,8000,31.484,,,270,-0.1,9.2,,2,,,,,,60,wg-a,,,,AAXX 08184 07335 12558 82717 10090 20070 39883 40027 58011 60027 76062 8757/ 91800 333 10092 21001=
07335,1999-02-09 00:00:00,9,998.8,-2.5,93,8,1900,35.188,,,260,,,,1,,,,,,,wg-a,,,,AAXX 09004 07335 12/19 /2619 10090 20080 39845 49988 58025 60017 90000=
07335,1999-02-09 06:00:00,5,995.7,0.1,100,5,10000,11.112,,,320,5.2,9.4,,6,,,16,,,60,wg-a,,,,AAXX 09064 07335 02260 83206 10050 20050 39812 49957 50001 60164 76062 8777/ 90600 333 10094 20052 60067=
07335,1999-02-09 09:00:00,2,1000.3,4.4,87,0,12000,25.928,,,30,,,,,,,,,,1,wg-a,,,,AAXX 09094 07335 02362 80314 10020 20000 39856 40003 51044 61000 70162 886// 90900 333 ////=
07335,1999-02-09 12:00:00,3,1002.9,2.6,75,-1,15000,29.632,,,10,,,,,,,,,,1,wg-a,,,,AAXX 09124 07335 32565 70116 10030 21010 39882 40029 51026 70162 878// 91200=
07335,1999-02-09 15:00:00,2,1005.5,2.5,87,0,20000,25.928,,,360,,,,,,,,,,0,wg-a,,,,AAXX 09154 07335 32470 73614 10020 20000 39907 40055 53025 700// 878// 91500=
07335,1999-02-09 18:00:00,1,1008.9,3.3,86,-1,20000,22.224,,,360,1,5.3,,,,,,,,0,wg-a,,,,AAXX 09184 07335 32470 53612 10010 21010 39940 40089 53033 700// 85800 91800 333 10053 20010=
07335,1999-02-10 00:00:00,-2,1013.1,1,93,-3,0,11.112,,,320,,,,,,,,,,,wg-a,,,,AAXX 10004 07335 32/// /3206 11020 21030 39979 40131 51010 90000=
07335,1999-02-10 06:00:00,-3,1012.5,-0.4,93,-4,11000,7.408,,,330,-4.8,1.1,,,,,,,,,wg-a,,,,AAXX 10064 07335 32/61 /3304 11030 21040 39973 40125 56004 90600 333 10011 21048=
07335,1999-02-10 09:00:00,-1,1013.4,1,100,-1,6000,11.112,,,360,,,,,,,,,,0,wg-a,,,,AAXX 10094 07335 32156 83606 11010 21010 39983 40134 53010 700// 886// 90900=
07335,1999-02-10 12:00:00,1,1013.7,0.4,86,-1,8000,18.52,,,350,,,,,,,,,,0,wg-a,,,,AAXX 10124 07335 32458 73510 10010 21010 39987 40137 50004 700// 875// 91200=
07335,1999-02-10 18:00:00,2,1015.3,1.6,75,-2,10000,11.112,,,350,-2.7,3.6,,,,,,,,0,wg-a,,,,AAXX 10184 07335 32160 73506 10020 21020 30004 40153 53016 700// 875// 91800 333 10036 21027=
07335,1999-02-11 00:00:00,-1,1018.7,1.1,86,-3,0,18.52,,,340,,,,,,,,,,,wg-a,,,,AAXX 11004 07335 32/// /3410 11010 21030 30036 40187 51011 90000=
07335,1999-02-11 06:00:00,-1,1020.6,1.1,86,-3,10000,14.816,,,330,-1.4,2.1,,,,,,,,0,wg-a,,,,AAXX 11064 07335 12760 63308 11010 21030 30054 40206 51011 60004 700// 86500 90600 333 10021 21014=
07335,1999-02-11 09:00:00,0,1022.2,1.6,86,-2,10000,18.52,,,320,,,,,,,,,,0,wg-a,,,,AAXX 11094 07335 32760 13210 10000 21020 30070 40222 51016 700// 81501 90900=
07335,1999-02-11 12:00:00,4,1022.2,0.3,75,0,15000,18.52,,,340,,,,,,,,,,0,wg-a,,,,AAXX 11124 07335 32465 /3410 10040 20000 30073 40222 50003 700// 81200 91200=
07335,1999-02-11 15:00:00,5,1021.9,-0.3,56,-3,15000,22.224,,,10,,,,,,,,,,0,wg-a,,,,AAXX 11154 07335 32565 /0112 10050 21030 30070 40219 56003 700// 86800 91500=
07335,1999-02-11 18:00:00,1,1023.4,1.3,75,-3,12000,7.408,,,10,-1.9,5.7,,,,,,,,0,wg-a,,,,AAXX 11184 07335 32762 50104 10010 21030 30083 40234 53013 700// 85500 91800 333 10057 21019=
07335,1999-02-12 00:00:00,-4,1025.3,0.6,93,-5,0,3.704,,,330,,,,,,,,,,,wg-a,,,,AAXX 12004 07335 32/// /3302 11040 21050 30099 40253 53006 90000=
07335,1999-02-12 06:00:00,-7,1026.3,0.8,100,-7,3000,3.704,,,340,-7.1,1.1,,,,,,,,10,wg-a,,,,AAXX 12064 07335 32/30 03402 11070 21070 30107 40263 53008 71000 80000 90600 333 10011 21071=
07335,1999-02-12 09:00:00,-2,1027.3,1.3,100,-2,3500,7.408,,,70,,,,,,,,,,10,wg-a,,,,AAXX 12094 07335 32/35 /0704 11020 21020 30120 40273 51013 71000 81030 90900=
07335,1999-02-12 12:00:00,3,1027.5,0.4,52,-6,10000,14.816,,,40,,,,,,,,,,0,wg-a,,,,AAXX 12124 07335 32560 /0408 10030 21060 30124 40275 50004 700// 81130 91200=
07335,1999-02-12 15:00:00,4,1026.9,-0.5,44,-7,12000,18.52,,,40,,,,,,,,,,0,wg-a,,,,AAXX 12154 07335 32662 /0410 10040 21070 30119 40269 55005 700// 81130 91500=
07335,1999-02-12 18:00:00,1,1028.3,1.2,64,-5,10000,7.408,,,50,-7.6,4.3,,,,,,,,0,wg-a,,,,AAXX 12184 07335 32/60 10504 10010 21050 30131 40283 53012 700// 81030 91800 333 10043 21076=
07335,1999-02-13 00:00:00,-4,1030.4,0.4,86,-6,0,3.704,,,50,,,,,,,,,,,wg-a,,,,AAXX 13004 07335 32/// /0502 11040 21060 30149 40304 53004 90000=
07335,1999-02-13 06:00:00,-7,1031.8,0.9,93,-8,4000,7.408,,,10,-6.8,1.3,,,,,,,,10,wg-a,,,,AAXX 13064 07335 32/40 00104 11070 21080 30161 40318 53009 71000 80000 90600 333 10013 21068=
07335,1999-02-13 09:00:00,-3,1033,1.4,86,-5,4000,11.112,,,30,,,,,,,,,,10,wg-a,,,,AAXX 13094 07335 32/40 00306 11030 21050 30175 40330 52014 71000 80000 90900=
07335,1999-02-13 12:00:00,2,1032.6,-0.1,40,-10,12000,18.52,,,50,,,,,,,,,,0,wg-a,,,,AAXX 13124 07335 32/62 10510 10020 21100 30174 40326 58001 700// 81030 91200=
07335,1999-02-13 15:00:00,3,1031.8,-0.8,32,-12,500,22.224,,,40,,,,,,,,,,0,wg-a,,,,AAXX 13154 07335 32/00 10412 10030 21120 30166 40318 58008 700// 80001 91500=
07335,1999-02-13 18:00:00,0,1032.5,0.6,51,-9,0,22.224,,,30,-6.9,3.2,,,,,,,,,wg-a,,,,AAXX 13184 07335 32/// /0312 10000 21090 30172 40325 53006 91800 333 10032 21069=
07335,1999-02-14 00:00:00,-2,1033.4,0.2,69,-7,0,11.112,,,10,,,,,,,,,,,wg-a,,,,AAXX 14004 07335 32/// /0106 11020 21070 30179 40334 51002 90000=
07335,1999-02-14 06:00:00,-6,1033.1,-0.1,86,-8,20000,11.112,,,360,-6,-0.3,,,,,,,,0,wg-a,,,,AAXX 14064 07335 32/70 03606 11060 21080 30174 40331 57001 700// 80000 90600 333 11003 21060=
07335,1999-02-14 09:00:00,-2,1034.1,1.2,74,-6,8000,14.816,,,50,,,,,,,,,,0,wg-a,,,,AAXX 14094 07335 32/58 00508 11020 21060 30186 40341 52012 700// 80000 90900=
07335,1999-02-14 12:00:00,2,1033.5,-0.3,60,-5,14000,14.816,,,30,,,,,,,,,,0,wg-a,,,,AAXX 14124 07335 32/64 00308 10020 21050 30183 40335 58003 700// 80000 91200=
07335,1999-02-14 15:00:00,4,1032.6,-0.8,56,-4,15000,11.112,,,360,,,,,,,,,,0,wg-a,,,,AAXX 14154 07335 32/65 13606 10040 21040 30175 40326 56008 700// 80001 91500=
07335,1999-02-14 18:00:00,-1,1032.3,-0.6,80,-4,0,7.408,,,300,-5.8,4.2,,,,,,,,,wg-a,,,,AAXX 14184 07335 32/// /3004 11010 21040 30169 40323 56006 91800 333 10042 21058=
07335,1999-02-15 00:00:00,0,1032.1,-0.4,80,-3,0,3.704,,,190,,,,,,,,,,,wg-a,,,,AAXX 15004 07335 32/// /1902 10000 21030 30168 40321 58004 90000=
07335,1999-02-15 06:00:00,1,1027.5,-2.5,86,-1,500,18.52,,,220,-4.1,1.3,,0,,,,,,61,wg-a,,,,AAXX 15064 07335 02300 82210 10010 21010 30123 40275 56025 60004 76165 885// 90600 333 10013 21041 60007=
07335,1999-02-15 12:00:00,5,1025.4,-1,93,4,1800,14.816,,,220,,,,0,,,,,,61,wg-a,,,,AAXX 15124 07335 12118 82208 10050 20040 30105 40254 58010 60007 76166 885// 91200=
07335,1999-02-15 18:00:00,6,1022.9,-0.7,100,6,1700,11.112,,,200,0.6,7.1,,0,,,,,,50,wg-a,,,,AAXX 15184 07335 12117 82006 10060 20060 30081 40229 58007 60007 75065 877// 91800 333 10071 20006=
07335,1999-02-16 00:00:00,5,1023.1,0,93,4,100,7.408,,,200,,,,,,,,,,,wg-a,,,,AAXX 16004 07335 32/01 /2004 10050 20040 30082 40231 50000 90000=
07335,1999-02-16 06:00:00,4,1021.7,-0.5,100,4,10000,11.112,,,250,1.9,6,,,,,2,,,0,wg-a,,,,AAXX 16064 07335 02560 82506 10040 20040 30068 40217 55005 60024 700// 885// 90600 333 10060 20019 61000=
07335,1999-02-16 09:00:00,6,1022.4,0.8,93,5,10000,14.816,,,250,,,,,,,,,,0,wg-a,,,,AAXX 16094 07335 32560 82508 10060 20050 30076 40224 51008 700// 885// 90900=
07335,1999-02-16 12:00:00,9,1021.2,-1,87,7,15000,22.224,,,270,,,,,,,,,,1,wg-a,,,,AAXX 16124 07335 02465 72712 10090 20070 30066 40212 58010 61000 70152 875// 91200 333 ////=
07335,1999-02-16 15:00:00,9,1020.5,-0.8,87,7,6000,14.816,,,270,,,,0,,,,,,51,wg-a,,,,AAXX 16154 07335 12256 82708 10090 20070 30058 40205 55008 60007 75152 875// 91500=
07335,1999-02-16 18:00:00,8,1020.6,0.1,93,7,12000,11.112,,,320,3.8,9.3,,0,,,,,,21,wg-a,,,,AAXX 16184 07335 12362 73206 10080 20070 30059 40206 53001 60007 72165 8683/ 91800 333 10093 20038=
07335,1999-02-17 00:00:00,3,1022.2,0,93,2,0,11.112,,,290,,,,,,,,,,,wg-a,,,,AAXX 17004 07335 32/// /2906 10030 20020 30072 40222 50000 90000=
07335,1999-02-17 06:00:00,4,1022,0.1,87,2,15000,18.52,,,290,1.9,7.8,,,,,1,,,0,wg-a,,,,AAXX 17064 07335 12665 82910 10040 20020 30071 40220 53001 60014 700// 885// 90600 333 10078 20019=
07335,1999-02-17 09:00:00,6,1023.1,1.2,87,4,25000,18.52,,,300,,,,,,,,,,0,wg-a,,,,AAXX 17094 07335 32675 63010 10060 20040 30083 40231 51012 700// 85530 90900=
07335,1999-02-17 12:00:00,9,1023.4,0.4,71,4,500,25.928,,,320,,,,,,,,,,0,wg-a,,,,AAXX 17124 07335 32500 73214 10090 20040 30087 40234 50004 700// 8683/ 91200=
07335,1999-02-17 15:00:00,10,1022.7,-0.6,62,3,500,25.928,,,320,,,,,,,,,,0,wg-a,,,,AAXX 17154 07335 32500 73214 10100 20030 30081 40227 58006 700// 878// 91500=
07335,1999-02-17 18:00:00,8,1023.9,1,76,4,500,14.816,,,290,4,9.9,,,,,,,,0,wg-a,,,,AAXX 17184 07335 32500 /2908 10080 20040 30091 40239 53010 700// 86800 91800 333 10099 20040=
07335,1999-02-18 00:00:00,7,1023.1,-0.8,93,6,0,18.52,,,250,,,,,,,,,,,wg-a,,,,AAXX 18004 07335 32/// /2510 10070 20060 30083 40231 58008 90000=
07335,1999-02-18 06:00:00,8,1020.8,-0.3,93,7,15000,18.52,,,300,6.7,8.9,,0,,,,,,21,wg-a,,,,AAXX 18064 07335 02365 /3010 10080 20070 30061 40208 58003 60004 72165 86500 90600 333 10089 20067 60007=
07335,1999-02-18 09:00:00,9,1023.6,2.8,87,7,15000,22.224,,,320,,,,,,,,,,0,wg-a,,,,AAXX 18094 07335 32465 73212 10090 20070 30089 40236 51028 700// 875// 90900=
07335,1999-02-18 12:00:00,11,1024.7,1.2,76,7,20000,25.928,,,320,,,,,,,,,,0,wg-a,,,,AAXX 18124 07335 32670 73214 10110 20070 30101 40247 51012 700// 875// 91200=
07335,1999-02-18 15:00:00,11,1025.2,0.5,76,7,20000,22.224,,,320,,,,,,,,,,0,wg-a,,,,AAXX 18154 07335 32670 73212 10110 20070 30106 40252 53005 700// 875// 91500=
07335,1999-02-18 18:00:00,9,1026.6,1.3,87,7,20000,11.112,,,280,8.3,11.1,,,,,,,,0,wg-a,,,,AAXX 18184 07335 32670 72806 10090 20070 30119 40266 53013 700// 875// 91800 333 10111 20083=
07335,1999-02-19 00:00:00,9,1027.7,0.4,87,7,0,14.816,,,260,,,,,,,,,,,wg-a,,,,AAXX 19004 07335 32/// /2608 10090 20070 30130 40277 53004 90000=
07335,1999-02-19 06:00:00,8,1026.4,-0.4,100,8,15000,14.816,,,250,8,9.3,,0,,,,,,20,wg-a,,,,AAXX 19064 07335 02365 82508 10080 20080 30116 40264 56004 60004 72022 885// 90600 333 10093 20080 60007=
07335,1999-02-19 09:00:00,9,1026.7,0.4,93,8,20000,22.224,,,250,,,,,,,,,,1,wg-a,,,,AAXX 19094 07335 02370 72512 10090 20080 30120 40267 52004 61000 70152 875// 90900 333 ////=
07335,1999-02-19 12:00:00,11,1026.4,-0.2,87,9,20000,25.928,,,260,,,,,,,,,,3,wg-a,,,,AAXX 19124 07335 32470 72614 10110 20090 30118 40264 58002 70352 875// 91200=
07335,1999-02-19 15:00:00,11,1025.6,-0.8,87,9,15000,18.52,,,260,,,,0,,,,,,61,wg-a,,,,AAXX 19154 07335 12165 82610 10110 20090 30110 40256 56008 60007 76162 885// 91500=
07335,1999-02-19 18:00:00,10,1025.9,0.2,93,9,10000,25.928,,,260,8.3,11.5,,2,,,,,,61,wg-a,,,,AAXX 19184 07335 12260 82614 10100 20090 30112 40259 53002 60027 76162 885// 91800 333 10115 20083=
07335,1999-02-20 00:00:00,9,1025.6,-0.6,100,9,0,18.52,,,250,,,,,,,,,,,wg-a,,,,AAXX 20004 07335 32/// /2510 10090 20090 30109 40256 58006 90000=
07335,1999-02-20 06:00:00,10,1022.5,-1.4,93,9,7000,29.632,,,250,9.3,10.2,,1,,,9,,,60,wg-a,,,,AAXX 20064 07335 02257 82516 10100 20090 30079 40225 56014 60094 76062 877// 90600 333 10102 20093 60017=
07335,1999-02-20 09:00:00,11,1022.4,-0.1,94,10,8000,31.484,,,260,,,,0,,,,,,61,wg-a,,,,AAXX 20094 07335 12258 82617 10110 20100 30078 40224 56001 60007 76166 877// 90900=
07335,1999-02-20 12:00:00,11,1021.9,-0.4,100,11,10000,22.224,,,260,,,,3,,,,,,61,wg-a,,,,AAXX 20124 07335 12360 82612 10110 20110 30074 40219 58004 60037 76166 877// 91200=
07335,1999-02-20 15:00:00,12,1021.4,-0.5,94,11,10000,18.52,,,260,,,,0,,,,,,50,wg-a,,,,AAXX 20154 07335 12260 82610 10120 20110 30069 40214 58005 60007 75065 877// 91500=
07335,1999-02-20 18:00:00,12,1021.7,0.3,94,11,0,18.52,,,260,10.2,12.3,,,,,,,,,wg-a,,,,AAXX 20184 07335 32/// /2610 10120 20110 30072 40217 53003 91800 333 10123 20102=
07335,1999-02-21 00:00:00,11,1021.9,-0.3,94,10,0,11.112,,,270,,,,,,,,,,,wg-a,,,,AAXX 21004 07335 32/// /2706 10110 20100 30074 40219 55003 90000=
07335,1999-02-21 06:00:00,9,1021,-0.6,93,8,12000,14.816,,,250,8.5,11.8,,,,,4,,,0,wg-a,,,,AAXX 21064 07335 02562 82508 10090 20080 30064 40210 58006 60044 700// 875// 90600 333 10118 20085 61000=
07335,1999-02-21 09:00:00,9,1021.5,0.5,93,8,15000,18.52,,,250,,,,,,,,,,0,wg-a,,,,AAXX 21094 07335 32265 82510 10090 20080 30069 40215 51005 700// 875// 90900=
07335,1999-02-21 12:00:00,11,1019.5,-1.9,87,9,7000,25.928,,,260,,,,,,,,,,51,wg-a,,,,AAXX 21124 07335 02257 82614 10110 20090 30050 40195 56019 61000 75152 877// 91200 333 ////=
07335,1999-02-21 15:00:00,13,1016.1,-3.3,82,10,15000,35.188,,,260,,,,,,,,,,3,wg-a,,,,AAXX 21154 07335 02465 72619 10130 20100 30017 40161 56033 61000 70352 86102 91500 333 ////=
07335,1999-02-21 18:00:00,11,1016.2,-0,82,8,0,29.632,,,270,8.7,12.9,,,,,,,,,wg-a,,,,AAXX 21184 07335 32/// /2716 10110 20080 30017 40162 55000 91800 333 10129 20087=
07335,1999-02-22 00:00:00,10,1013.4,-1.8,82,7,0,25.928,,,280,,,,,,,,,,,wg-a,,,,AAXX 22004 07335 32/// /2814 10100 20070 39989 40134 58018 90000=
07335,1999-02-22 06:00:00,7,1013.3,0.5,76,3,20000,25.928,,,290,7.3,11.1,,,,,,,,0,wg-a,,,,AAXX 22064 07335 12770 32914 10070 20030 39987 40133 53005 60004 700// 82502 90600 333 10111 20073=
07335,1999-02-22 09:00:00,8,1014.6,1.3,71,3,12000,31.484,,,300,,,,,,,,,,15,wg-a,,,,AAXX 22094 07335 32562 83017 10080 20030 30000 40146 51013 71511 878// 90900=
07335,1999-02-22 12:00:00,9,1015.6,1,53,0,20000,38.892,,57.412,320,,,,,,,,,,0,wg-a,,,,AAXX 22124 07335 32670 53221 10090 20000 30010 40156 51010 700// 85802 91200 333 91031=
07335,1999-02-22 15:00:00,9,1015.3,-0.3,53,0,20000,42.596,,,310,,,,,,,,,,1,wg-a,,,,AAXX 22154 07335 02570 43123 10090 20000 30007 40153 55003 61000 70186 81232 91500 333 ////=
07335,1999-02-22 18:00:00,6,1018.1,2.6,65,0,20000,25.928,,,320,4.8,9.9,,,,,,,,1,wg-a,,,,AAXX 22184 07335 32670 /3214 10060 20000 30033 40181 53026 70186 81502 91800 333 10099 20048=
07335,1999-02-23 00:00:00,3,1021,0.2,75,-1,0,22.224,,,290,,,,,,,,,,,wg-a,,,,AAXX 23004 07335 32/// /2912 10030 21010 30060 40210 51002 90000=
07335,1999-02-23 06:00:00,4,1020.3,0.2,81,1,15000,18.52,,,300,2.8,6,,,,,,,,0,wg-a,,,,AAXX 23064 07335 12665 73010 10040 20010 30054 40203 53002 60004 700// 8153/ 90600 333 10060 20028=
07335,1999-02-23 09:00:00,6,1021.6,1.4,81,3,20000,22.224,,,310,,,,,,,,,,0,wg-a,,,,AAXX 23094 07335 32/70 43112 10060 20030 30068 40216 51014 700// 84031 90900=
07335,1999-02-23 12:00:00,9,1021.9,0.4,53,0,20000,22.224,,,330,,,,,,,,,,0,wg-a,,,,AAXX 23124 07335 32670 63312 10090 20000 30072 40219 51004 700// 84231 91200=
07335,1999-02-23 15:00:00,9,1020.8,-1.1,53,0,20000,22.224,,,310,,,,,,,,,,0,wg-a,,,,AAXX 23154 07335 32670 83112 10090 20000 30061 40208 56011 700// 8327/ 91500=
07335,1999-02-23 18:00:00,7,1020.3,-0.6,61,0,20000,18.52,,,290,3.1,9.4,,,,,,,,0,wg-a,,,,AAXX 23184 07335 32670 82910 10070 20000 30055 40203 56006 700// 8117/ 91800 333 10094 20031=
07335,1999-02-24 00:00:00,5,1016.5,-3.1,93,4,1800,18.52,,,200,,,,,,,,,,,wg-a,,,,AAXX 24004 07335 32/18 /2010 10050 20040 30017 40165 58031 90000=
07335,1999-02-24 06:00:00,8,1008.5,-3.7,100,8,4000,18.52,,,210,4.3,8.3,,1,,,2,,,61,wg-a,,,,AAXX 24064 07335 02140 82110 10080 20080 39940 40085 57037 60024 76162 877// 90600 333 10083 20043 60017=
07335,1999-02-24 09:00:00,9,1006.7,-1.7,93,8,3500,14.816,,,190,,,,6,,,,,,63,wg-a,,,,AAXX 24094 07335 12235 81908 10090 20080 39923 40067 57017 60067 76366 875// 90900=
07335,1999-02-24 12:00:00,10,1006.7,0,93,9,4000,11.112,,,180,,,,8,,,,,,63,wg-a,,,,AAXX 24124 07335 12240 81806 10100 20090 39923 40067 50000 60087 76366 875// 91200=
07335,1999-02-24 15:00:00,10,1006.5,-0.2,93,9,7000,22.224,,,210,,,,1,,,,,,60,wg-a,,,,AAXX 24154 07335 12157 82112 10100 20090 39921 40065 56002 60017 76066 875// 91500=
07335,1999-02-24 18:00:00,10,1009.6,3.1,87,8,8000,7.408,,,160,8.3,10.6,,,,,,,,1,wg-a,,,,AAXX 24184 07335 02458 71604 10100 20080 39952 40096 53031 61000 70162 875// 91800 333 10106 20083 ////=
07335,1999-02-25 00:00:00,2,1014.6,1.9,100,2,500,3.704,,,230,,,,,,,,,,,wg-a,,,,AAXX 25004 07335 32/00 /2302 10020 20020 39997 40146 51019 90000=
07335,1999-02-25 06:00:00,7,1018,1.6,93,6,3000,18.52,,,40,1.6,9.7,,,,,14,,,10,wg-a,,,,AAXX 25064 07335 12130 80410 10070 20060 30033 40180 51016 60144 71022 886// 90600 333 10097 20016=
07335,1999-02-25 09:00:00,6,1020,1.9,93,5,6000,14.816,,,50,,,,,,,,,,0,wg-a,,,,AAXX 25094 07335 32256 80508 10060 20050 30052 40200 52019 700// 876// 90900=
07335,1999-02-25 12:00:00,6,1021.4,1.4,87,4,7000,11.112,,,10,,,,,,,,,,0,wg-a,,,,AAXX 25124 07335 32357 80106 10060 20040 30066 40214 51014 700// 876// 91200=
07335,1999-02-25 15:00:00,5,1021.8,0.3,87,3,8000,11.112,,,60,,,,,,,,,,0,wg-a,,,,AAXX 25154 07335 32358 80606 10050 20030 30069 40218 53003 700// 876// 91500=
07335,1999-02-25 18:00:00,2,1022.2,0.3,93,1,10000,0,,,0,2.2,6.6,,,,,,,,0,wg-a,,,,AAXX 25184 07335 32460 20000 10020 20010 30072 40222 53003 700// 81501 91800 333 10066 20022=
07335,1999-02-26 00:00:00,-3,1023.3,-0.1,93,-4,500,0,,,0,,,,,,,,,,,wg-a,,,,AAXX 26004 07335 32/00 /0000 11030 21040 30079 40233 58001 90000=
07335,1999-02-26 06:00:00,1,1021.9,-0.2,100,1,100,7.408,,,310,-3.7,2.1,,,,,,,,43,wg-a,,,,AAXX 26064 07335 32/01 93104 10010 20010 30068 40219 58002 74342 89/// 90600 333 10021 21037=
07335,1999-02-26 09:00:00,3,1021.9,0.1,100,3,2000,3.704,,,210,,,,,,,,,,10,wg-a,,,,AAXX 26094 07335 32120 82102 10030 20030 30069 40219 53001 71042 885// 90900=
07335,1999-02-26 12:00:00,8,1020.2,-1.4,71,3,8000,11.112,,,200,,,,,,,,,,1,wg-a,,,,AAXX 26124 07335 32458 /2006 10080 20030 30055 40202 58014 70142 86500 91200=
07335,1999-02-26 15:00:00,8,1017.6,-2.6,76,4,14000,7.408,,,260,,,,,,,,,,0,wg-a,,,,AAXX 26154 07335 32464 /2604 10080 20040 30029 40176 56026 700// 85500 91500=
07335,1999-02-26 18:00:00,3,1016.5,-1.3,87,1,500,7.408,,,270,1.2,8.2,,,,,,,,,wg-a,,,,AAXX 26184 07335 32/00 /2704 10030 20010 30016 40165 56013 91800 333 10082 20012=
07335,1999-02-27 00:00:00,5,1013.7,-1.5,93,4,0,7.408,,,150,,,,,,,,,,,wg-a,,,,AAXX 27004 07335 32/// /1504 10050 20040 39989 40137 58015 90000=
07335,1999-02-27 06:00:00,4,1012.8,0.2,100,4,1500,11.112,,,160,0.4,4.7,,,,,,,,10,wg-a,,,,AAXX 27064 07335 12115 81606 10040 20040 39980 40128 53002 60004 71042 886// 90600 333 10047 20004=
07335,1999-02-27 09:00:00,6,1014.2,1.5,100,6,10000,11.112,,,230,,,,,,,,,,0,wg-a,,,,AAXX 27094 07335 32460 72306 10060 20060 39995 40142 52015 700// 875// 90900=
07335,1999-02-27 12:00:00,11,1015.1,1.1,82,8,20000,18.52,,,220,,,,,,,,,,0,wg-a,,,,AAXX 27124 07335 32570 72210 10110 20080 30006 40151 52011 700// 875// 91200=
07335,1999-02-27 15:00:00,11,1015.2,0.1,82,8,10000,11.112,,,250,,,,,,,,,,0,wg-a,,,,AAXX 27154 07335 32860 82506 10110 20080 30007 40152 53001 700// 885// 91500=
07335,1999-02-27 18:00:00,7,1018.5,3.1,93,6,0,14.816,,,340,3.3,11.4,,,,,,,,,wg-a,,,,AAXX 27184 07335 32/// /3408 10070 20060 30038 40185 53031 91800 333 10114 20033=
07335,1999-02-28 00:00:00,4,1023.3,2,100,4,200,7.408,,,250,,,,,,,,,,,wg-a,,,,AAXX 28004 07335 32/02 /2504 10040 20040 30084 40233 51020 90000=
07335,1999-02-28 06:00:00,0,1025.8,1.2,93,-1,800,3.704,,,200,-1.6,7.2,,,,,5,,,42,wg-a,,,,AAXX 28064 07335 02708 /2002 10000 21010 30106 40258 52012 60054 74240 81500 90600 333 10072 21016 61000=
07335,1999-02-28 09:00:00,6,1027.3,1.8,93,5,10000,3.704,,,220,,,,,,,,,,3,wg-a,,,,AAXX 28094 07335 32560 32202 10060 20050 30124 40273 51018 70340 83501 90900=
07335,1999-02-28 12:00:00,10,1027.2,0.1,66,4,20000,3.704,,,330,,,,,,,,,,3,wg-a,,,,AAXX 28124 07335 32570 /3302 10100 20040 30125 40272 50001 70341 85102 91200=
07335,1999-02-28 15:00:00,13,1025.9,-1.1,51,3,20000,14.816,,,250,,,,,,,,,,0,wg-a,,,,AAXX 28154 07335 32670 42508 10130 20030 30114 40259 56011 700// 83102 91500=
07335,1999-02-28 18:00:00,7,1026.8,0.6,81,4,0,7.408,,,240,-1.1,12.5,,,,,,,,,wg-a,,,,AAXX 28184 07335 32/// /2404 10070 20040 30120 40268 53006 91800 333 10125 21011=
07335,1999-03-01 00:00:00,5,1028.1,0.2,93,4,0,14.816,,,240,,,,,,,,,,,wg-a,,,,AAXX 01004 07335 32/// /2408 10050 20040 30131 40281 53002 90000=
07335,1999-03-01 06:00:00,4,1026.2,-1,100,4,15000,7.408,,,210,3.8,7,,,,,,,,,wg-a,,,,AAXX 01064 07335 12265 42104 10040 20040 30112 40262 56010 60004 83502 90600 333 10070 20038=
07335,1999-03-01 09:00:00,9,1026.6,0.7,87,7,20000,22.224,,,240,,,,,,,,,,0,wg-a,,,,AAXX 01094 07335 32470 72412 10090 20070 30119 40266 53007 700// 85532 90900=
07335,1999-03-01 12:00:00,11,1026.2,-0.3,82,8,15000,29.632,,,240,,,,,,,,,,0,wg-a,,,,AAXX 01124 07335 32465 82416 10110 20080 30116 40262 56003 700// 878// 91200=
07335,1999-03-01 18:00:00,9,1025.8,0.1,93,8,2500,22.224,,,230,4.1,11,,0,,,,,,51,wg-a,,,,AAXX 01184 07335 12125 82312 10090 20080 30111 40258 53001 60007 75152 877// 91800 333 10110 20041=
07335,1999-03-02 00:00:00,10,1025.4,-0.9,93,9,0,18.52,,,250,,,,,,,,,,,wg-a,,,,AAXX 02004 07335 32/// /2510 10100 20090 30107 40254 58009 90000=
07335,1999-03-02 06:00:00,10,1022.8,-1,93,9,8000,22.224,,,250,8.9,10.4,,,,,2,,,50,wg-a,,,,AAXX 02064 07335 02258 82512 10100 20090 30082 40228 56010 60024 75052 877// 90600 333 10104 20089 61000=
07335,1999-03-02 09:00:00,11,1021.9,-0.9,94,10,3500,22.224,,,230,,,,,,,,,,51,wg-a,,,,AAXX 02094 07335 02135 82312 10110 20100 30073 40219 56009 61000 75152 877// 90900 333 ////=
07335,1999-03-02 12:00:00,12,1020.1,-1.6,94,11,20000,31.484,,,240,,,,,,,,,,2,wg-a,,,,AAXX 02124 07335 02370 82417 10120 20110 30057 40201 58016 61000 70252 876// 91200 333 ////=
07335,1999-03-02 15:00:00,12,1017.5,-2.6,94,11,10000,31.484,,,240,,,,,,,,,,20,wg-a,,,,AAXX 02154 07335 02160 72417 10120 20110 30031 40175 56026 61000 72065 877// 91500 333 ////=
07335,1999-03-02 18:00:00,11,1015.7,-1.9,94,10,4000,25.928,,,230,10.2,12.9,,0,,,,,,51,wg-a,,,,AAXX 02184 07335 12140 82314 10110 20100 30012 40157 57019 60007 75165 877// 91800 333 10129 20102=
07335,1999-03-03 00:00:00,10,1009.2,-4.1,100,10,1300,25.928,,,210,,,,1,,,,,,,wg-a,,,,AAXX 03004 07335 12/13 /2114 10100 20100 39948 40092 58041 60017 90000=
07335,1999-03-03 06:00:00,8,1005.7,-1.6,93,7,20000,22.224,,,240,8,10.8,,,,,4,,,21,wg-a,,,,AAXX 03064 07335 02470 52412 10080 20070 39912 40057 56016 60044 72162 83571 90600 333 10108 20080 61000=
07335,1999-03-03 09:00:00,9,1004.3,-1.3,87,7,20000,25.928,,,230,,,,,,,,,,0,wg-a,,,,AAXX 03094 07335 32470 72314 10090 20070 39899 40043 56013 700// 85831 90900=
07335,1999-03-03 12:00:00,9,1001.6,-2.7,81,6,25000,25.928,,,240,,,,1,,,,,,61,wg-a,,,,AAXX 03124 07335 12475 72414 10090 20060 39872 40016 58027 60017 76186 8583/ 91200=
07335,1999-03-03 15:00:00,9,997.6,-3.9,81,6,500,22.224,,,220,,,,2,,,,,,3,wg-a,,,,AAXX 03154 07335 12400 72212 10090 20060 39833 49976 58039 60027 70386 85831 91500=
07335,1999-03-03 18:00:00,7,996,-1.7,87,5,20000,29.632,,,240,6.3,10.2,,1,,,,,,3,wg-a,,,,AAXX 03184 07335 12470 72416 10070 20050 39816 49960 56017 60017 70386 879// 91800 333 10102 20063=
07335,1999-03-04 00:00:00,7,993.6,-1.8,87,5,0,22.224,,,210,,,,,,,,,,,wg-a,,,,AAXX 04004 07335 32/// /2112 10070 20050 39792 49936 56018 90000=
07335,1999-03-04 06:00:00,5,992.3,-0.9,93,4,15000,14.816,,,220,5,6.6,,1,,,5,,,0,wg-a,,,,AAXX 04064 07335 02365 62208 10050 20040 39779 49923 58009 60054 700// 85830 90600 333 10066 20050 60017=
07335,1999-03-04 12:00:00,7,991.2,-0.9,93,6,20000,25.928,,,220,,,,2,,,,,,25,wg-a,,,,AAXX 04124 07335 12270 72214 10070 20060 39769 49912 56009 60027 72586 878// 91200=
07335,1999-03-04 18:00:00,6,993.1,2.2,87,4,12000,22.224,,,260,4.5,10.5,,1,,,,,,15,wg-a,,,,AAXX 04184 07335 12262 72612 10060 20040 39787 49931 53022 60017 71586 8599/ 91800 333 10105 20045=
07335,1999-03-05 00:00:00,3,996.6,1,93,2,0,18.52,,,260,,,,,,,,,,,wg-a,,,,AAXX 05004 07335 32/// /2610 10030 20020 39820 49966 51010 90000=
07335,1999-03-05 06:00:00,1,996.9,0.3,100,1,15000,14.816,,,220,1.3,6.5,,,,,5,,,0,wg-a,,,,AAXX 05064 07335 12565 42208 10010 20010 39822 49969 53003 60054 700// 82532 90600 333 10065 20013=
07335,1999-03-05 09:00:00,5,998.1,1.4,87,3,20000,18.52,,,280,,,,,,,,,,0,wg-a,,,,AAXX 05094 07335 32470 72810 10050 20030 39836 49981 53014 700// 84832 90900=
07335,1999-03-05 12:00:00,6,999.6,1.5,81,3,20000,22.224,,,300,,,,,,,,,,0,wg-a,,,,AAXX 05124 07335 32470 73012 10060 20030 39851 49996 51015 700// 875// 91200=
07335,1999-03-05 18:00:00,5,1001.3,1,75,1,20000,11.112,,,290,1.2,8,,,,,,,,16,wg-a,,,,AAXX 05184 07335 02570 72906 10050 20010 39867 40013 53010 61000 71686 82801 91800 333 10080 20012 ////=
07335,1999-03-06 00:00:00,1,1003.3,0.4,93,0,0,11.112,,,260,,,,,,,,,,,wg-a,,,,AAXX 06004 07335 32/// /2606 10010 20000 39885 40033 51004 90000=
07335,1999-03-06 06:00:00,-1,1004.3,0.6,100,-1,12000,11.112,,,250,-1.4,5.5,,,,,,,,0,wg-a,,,,AAXX 06064 07335 12562 72506 11010 21010 39894 40043 53006 60004 700// 82532 90600 333 10055 21014=
07335,1999-03-06 09:00:00,3,1005.7,1.5,87,1,20000,11.112,,,270,,,,,,,,,,0,wg-a,,,,AAXX 06094 07335 32570 72706 10030 20010 39909 40057 51015 700// 82532 90900=
07335,1999-03-06 12:00:00,6,1006.4,0.9,70,1,25000,25.928,,,320,,,,,,,,,,0,wg-a,,,,AAXX 06124 07335 32575 73214 10060 20010 39918 40064 51009 700// 84232 91200=
07335,1999-03-06 15:00:00,7,1005.9,-0.5,57,-1,20000,31.484,,,280,,,,0,,,,,,2,wg-a,,,,AAXX 06154 07335 12570 42817 10070 21010 39913 40059 56005 60007 70286 84902 91500=
07335,1999-03-06 18:00:00,3,1007.2,1.1,81,0,0,22.224,,,310,-0.8,8,,,,,,,,,wg-a,,,,AAXX 06184 07335 02/// /3112 10030 20000 39924 40072 53011 61000 91800 333 10080 21008 ////=
07335,1999-03-07 00:00:00,-1,1008.5,0.1,93,-2,0,14.816,,,250,,,,,,,,,,,wg-a,,,,AAXX 07004 07335 32/// /2508 11010 21020 39935 40085 50001 90000=
07335,1999-03-07 06:00:00,-1,1008.6,0.6,93,-2,15000,14.816,,,240,-0.9,3.1,,,,,,,,0,wg-a,,,,AAXX 07064 07335 12765 12408 11010 21020 39936 40086 53006 60004 700// 81532 90600 333 10031 21009=
07335,1999-03-07 09:00:00,5,1009.4,1.1,75,1,500,14.816,,,240,,,,,,,,,,0,wg-a,,,,AAXX 07094 07335 32400 42408 10050 20010 39947 40094 52011 700// 81831 90900=
07335,1999-03-07 12:00:00,7,1009.6,0.3,76,3,500,22.224,,,250,,,,0,,,,,,27,wg-a,,,,AAXX 07124 07335 12500 72512 10070 20030 39950 40096 51003 60007 72711 85332 91200=
07335,1999-03-07 18:00:00,5,1009,-0.1,93,4,0,14.816,,,190,-1.3,7.9,,,,,,,,,wg-a,,,,AAXX 07184 07335 32/// /1908 10050 20040 39943 40090 56001 91800 333 10079 21013=
07335,1999-03-08 00:00:00,4,1007,-1.7,100,4,0,14.816,,,180,,,,,,,,,,,wg-a,,,,AAXX 08004 07335 32/// /1808 10040 20040 39923 40070 58017 90000=
07335,1999-03-08 06:00:00,6,1001.2,-3.6,87,4,8000,29.632,,,180,2.8,5.5,,5,,,6,,,61,wg-a,,,,AAXX 08064 07335 02458 81816 10060 20040 39867 40012 58036 60064 76162 885// 90600 333 10055 20028 60057=
07335,1999-03-08 09:00:00,6,1000.5,-0.7,93,5,10000,31.484,,51.856,200,,,,5,,,,,,61,wg-a,,,,AAXX 08094 07335 12160 82017 10060 20050 39860 40005 55007 60057 76166 875// 90900 333 91028=
07335,1999-03-08 12:00:00,9,1000.9,0.5,93,8,15000,29.632,,,230,,,,2,,,,,,60,wg-a,,,,AAXX 08124 07335 12365 82316 10090 20080 39865 40009 53005 60027 76066 877// 91200=
07335,1999-03-08 15:00:00,11,1000.4,-0.3,82,8,20000,35.188,,57.412,240,,,,,,,,,,60,wg-a,,,,AAXX 08154 07335 02570 82419 10110 20080 39862 40004 55003 61000 76062 8427/ 91500 333 //// 91031=
07335,1999-03-08 18:00:00,8,1001.9,1.3,87,6,11000,25.928,,,250,5.4,11.7,,1,,,,,,,wg-a,,,,AAXX 08184 07335 12/61 /2514 10080 20060 39875 40019 53013 60017 91800 333 10117 20054=
07335,1999-03-09 00:00:00,7,1003.9,1,93,6,0,14.816,,,230,,,,,,,,,,,wg-a,,,,AAXX 09004 07335 32/// /2308 10070 20060 39894 40039 51010 90000=
07335,1999-03-09 06:00:00,7,1003.6,-0,93,6,15000,3.704,,,220,6.6,7.8,,1,,,11,,,60,wg-a,,,,AAXX 09064 07335 02265 82202 10070 20060 39891 40036 55000 60114 76062 875// 90600 333 10078 20066 60017=
07335,1999-03-09 09:00:00,8,1004.6,1,100,8,10000,7.408,,,170,,,,1,,,,,,60,wg-a,,,,AAXX 09094 07335 12260 81704 10080 20080 39901 40046 51010 60017 76066 875// 90900=
07335,1999-03-09 12:00:00,11,1005.2,0.8,82,8,12000,3.704,,,190,,,,0,,,,,,21,wg-a,,,,AAXX 09124 07335 12262 81902 10110 20080 39909 40052 52008 60007 72162 8352/ 91200=
07335,1999-03-09 15:00:00,13,1004.8,-0.3,77,9,12000,3.704,,,30,,,,,,,,,,21,wg-a,,,,AAXX 09154 07335 02462 70302 10130 20090 39906 40048 56003 61000 72162 8357/ 91500 333 ////=
07335,1999-03-09 18:00:00,11,1006.1,1.2,87,9,8000,7.408,,,40,6.8,13.1,,,,,,,,61,wg-a,,,,AAXX 09184 07335 02258 80404 10110 20090 39918 40061 53012 61000 76162 8552/ 91800 333 10131 20068 ////=
07335,1999-03-10 00:00:00,9,1008.6,1.2,93,8,900,0,,,0,,,,,,,,,,,wg-a,,,,AAXX 10004 07335 32/09 /0000 10090 20080 39941 40086 53012 90000=
07335,1999-03-10 09:00:00,10,1009.2,1.6,93,9,8000,7.408,,,50,,,,,,,,,,0,wg-a,,,,AAXX 10094 07335 32758 80504 10100 20090 39948 40092 51016 700// 8557/ 90900=
07335,1999-03-10 12:00:00,14,1009.3,0.3,72,9,12000,7.408,,,110,,,,,,,,,,0,wg-a,,,,AAXX 10124 07335 32562 /1104 10140 20090 39951 40093 53003 700// 81132 91200=
07335,1999-03-10 15:00:00,15,1008.6,-0.6,67,9,18000,7.408,,,90,,,,,,,,,,0,wg-a,,,,AAXX 10154 07335 32/68 50904 10150 20090 39945 40086 58006 700// 85032 91500=
07335,1999-03-10 18:00:00,13,1009.4,0.7,77,9,18000,11.112,,,80,8.3,15.5,,,,,,,,0,wg-a,,,,AAXX 10184 07335 32/68 50806 10130 20090 39952 40094 53007 700// 81032 91800 333 10155 20083=
07335,1999-03-11 00:00:00,9,1010.3,0.3,87,7,0,7.408,,,110,,,,,,,,,,,wg-a,,,,AAXX 11004 07335 32/// /1104 10090 20070 39958 40103 53003 90000=
07335,1999-03-11 06:00:00,6,1010,0.3,100,6,500,7.408,,,110,6.4,13.4,,,,,,,,11,wg-a,,,,AAXX 11064 07335 12/00 21104 10060 20060 39954 40100 53003 60004 71100 82032 90600 333 10134 20064=
07335,1999-03-11 09:00:00,11,1010.6,0.8,82,8,12000,7.408,,,120,,,,,,,,,,0,wg-a,,,,AAXX 11094 07335 32/62 51204 10110 20080 39962 40106 51008 700// 83031 90900=
07335,1999-03-11 12:00:00,17,1009.7,-0.6,59,9,25000,18.52,,,180,,,,,,,,,,0,wg-a,,,,AAXX 11124 07335 32/75 51810 10170 20090 39956 40097 58006 700// 81031 91200=
07335,1999-03-11 15:00:00,19,1007.8,-1.7,52,9,25000,11.112,,,190,,,,,,,,,,0,wg-a,,,,AAXX 11154 07335 32/75 41906 10190 20090 39939 40078 57017 700// 80001 91500=
07335,1999-03-11 18:00:00,18,1007.8,-0.1,59,10,500,3.704,,,90,6.3,19.4,,,,,,,,0,wg-a,,,,AAXX 11184 07335 32/00 70902 10180 20100 39938 40078 55001 700// 81031 91800 333 10194 20063=
07335,1999-03-12 00:00:00,10,1007.7,-0.3,93,9,0,7.408,,,160,,,,,,,,,,,wg-a,,,,AAXX 12004 07335 32/// /1604 10100 20090 39933 40077 57003 90000=
07335,1999-03-12 06:00:00,10,1007.9,0.3,82,7,20000,7.408,,,180,7.8,17.4,,,,,,,,0,wg-a,,,,AAXX 12064 07335 12/70 61804 10100 20070 39935 40079 53003 60004 700// 80002 90600 333 10174 20078=
07335,1999-03-12 09:00:00,14,1008.9,1.2,67,8,20000,18.52,,,190,,,,,,,,,,0,wg-a,,,,AAXX 12094 07335 32/70 71910 10140 20080 39947 40089 53012 700// 85032 90900=
07335,1999-03-12 12:00:00,18,1009.4,0.7,56,9,20000,22.224,,,200,,,,,,,,,,0,wg-a,,,,AAXX 12124 07335 32/70 72012 10180 20090 39954 40094 51007 700// 81032 91200=
07335,1999-03-12 15:00:00,16,1010.3,0.8,63,9,20000,25.928,,,240,,,,,,,,,,0,wg-a,,,,AAXX 12154 07335 32670 72414 10160 20090 39962 40103 53008 700// 82232 91500=
07335,1999-03-12 18:00:00,13,1011.3,0.8,77,9,10000,7.408,,,190,9.4,18.2,,,,,,,,,wg-a,,,,AAXX 12184 07335 32/60 /1904 10130 20090 39970 40113 53008 91800 333 10182 20094=
07335,1999-03-13 00:00:00,8,1013.2,0.5,87,6,0,7.408,,,230,,,,,,,,,,,wg-a,,,,AAXX 13004 07335 32/// /2304 10080 20060 39986 40132 51005 90000=
07335,1999-03-13 06:00:00,5,1014.8,1,93,4,500,3.704,,,200,3.2,13.5,,,,,,,,11,wg-a,,,,AAXX 13064 07335 12700 42002 10050 20040 30000 40148 53010 60004 71100 81532 90600 333 10135 20032=
07335,1999-03-13 09:00:00,10,1016.1,1.6,93,9,10000,7.408,,,360,,,,,,,,,,0,wg-a,,,,AAXX 13094 07335 32/60 13604 10100 20090 30016 40161 51016 700// 80002 90900=
07335,1999-03-13 12:00:00,15,1016.1,0.2,59,7,20000,7.408,,,30,,,,,,,,,,0,wg-a,,,,AAXX 13124 07335 32570 30304 10150 20070 30018 40161 50002 700// 81102 91200=
07335,1999-03-13 15:00:00,16,1015.7,-0.3,59,8,20000,11.112,,,10,,,,,,,,,,0,wg-a,,,,AAXX 13154 07335 32670 80106 10160 20080 30015 40157 55003 700// 85402 91500=
07335,1999-03-13 18:00:00,13,1017,1.1,77,9,0,11.112,,,360,2.4,16.2,,,,,,,,,wg-a,,,,AAXX 13184 07335 32/// /3606 10130 20090 30026 40170 53011 91800 333 10162 20024=
07335,1999-03-14 00:00:00,10,1019.6,0.7,93,9,0,7.408,,,360,,,,,,,,,,,wg-a,,,,AAXX 14004 07335 32/// /3604 10100 20090 30050 40196 53007 90000=
07335,1999-03-14 06:00:00,9,1020.2,0.8,93,8,10000,11.112,,,30,9.1,13,,,,,2,,,0,wg-a,,,,AAXX 14064 07335 12860 70306 10090 20080 30056 40202 53008 60024 700// 8557/ 90600 333 10130 20091=
07335,1999-03-14 09:00:00,12,1022.1,2,82,9,6000,14.816,,,50,,,,,,,,,,0,wg-a,,,,AAXX 14094 07335 32356 20508 10120 20090 30076 40221 51020 700// 81631 90900=
07335,1999-03-14 12:00:00,16,1022.3,0.4,63,9,10000,18.52,,,50,,,,,,,,,,0,wg-a,,,,AAXX 14124 07335 32560 /0510 10160 20090 30080 40223 50004 700// 81101 91200=
07335,1999-03-14 15:00:00,17,1021.6,-0.6,55,8,20000,25.928,,,40,,,,,,,,,,0,wg-a,,,,AAXX 14154 07335 32670 30414 10170 20080 30074 40216 56006 700// 83100 91500=
07335,1999-03-14 18:00:00,14,1022.8,1,63,7,0,18.52,,,40,9.1,18.1,,,,,,,,,wg-a,,,,AAXX 14184 07335 32/// /0410 10140 20070 30084 40228 53010 91800 333 10181 20091=
07335,1999-03-15 00:00:00,9,1025.3,0.7,81,6,0,14.816,,,40,,,,,,,,,,,wg-a,,,,AAXX 15004 07335 32/// /0408 10090 20060 30106 40253 51007 90000=
07335,1999-03-15 06:00:00,6,1025.6,0.4,87,4,12000,14.816,,,40,5.3,14.1,,,,,,,,0,wg-a,,,,AAXX 15064 07335 32/62 00408 10060 20040 30107 40256 51004 700// 80000 90600 333 10141 20053=
07335,1999-03-15 09:00:00,9,1026.2,0.8,81,6,8000,18.52,,,30,,,,,,,,,,0,wg-a,,,,AAXX 15094 07335 32/58 00310 10090 20060 30115 40262 51008 700// 80000 90900=
07335,1999-03-15 12:00:00,15,1025.7,-0.2,63,8,10000,22.224,,,40,,,,,,,,,,0,wg-a,,,,AAXX 15124 07335 32/60 00412 10150 20080 30113 40257 58002 700// 80000 91200=
07335,1999-03-15 15:00:00,18,1024.4,-1.1,56,9,10000,25.928,,,40,,,,,,,,,,0,wg-a,,,,AAXX 15154 07335 32/60 00414 10180 20090 30102 40244 56011 700// 80000 91500=
07335,1999-03-15 18:00:00,14,1025,0.4,67,8,8000,18.52,,,30,4.3,18.2,,,,,,,,0,wg-a,,,,AAXX 15184 07335 32/58 00310 10140 20080 30106 40250 53004 700// 80000 91800 333 10182 20043=
07335,1999-03-16 00:00:00,6,1026.8,0.3,87,4,0,3.704,,,350,,,,,,,,,,,wg-a,,,,AAXX 16004 07335 32/// /3502 10060 20040 30119 40268 50003 90000=
07335,1999-03-16 06:00:00,3,1027.1,0.5,93,2,1400,7.408,,,360,3,14.2,,,,,,,,10,wg-a,,,,AAXX 16064 07335 32/14 03604 10030 20020 30120 40271 53005 71000 80000 90600 333 10142 20030=
07335,1999-03-16 09:00:00,9,1027.5,0.7,81,6,2500,18.52,,,30,,,,,,,,,,10,wg-a,,,,AAXX 16094 07335 32/25 /0310 10090 20060 30127 40275 51007 71000 80002 90900=
07335,1999-03-16 12:00:00,15,1026.4,-0.7,59,7,500,22.224,,,30,,,,,,,,,,,wg-a,,,,AAXX 16124 07335 32/00 10312 10150 20070 30120 40264 58007 80002 91200=
07335,1999-03-16 15:00:00,17,1025.1,-1.2,45,5,9000,22.224,,,50,,,,,,,,,,0,wg-a,,,,AAXX 16154 07335 32/59 20512 10170 20050 30108 40251 56012 700// 80002 91500=
07335,1999-03-16 18:00:00,13,1025.6,0.3,58,5,8000,18.52,,,30,2.6,17.2,,,,,,,,0,wg-a,,,,AAXX 16184 07335 32/58 30310 10130 20050 30111 40256 53003 700// 80003 91800 333 10172 20026=
07335,1999-03-17 00:00:00,6,1026.5,-0.2,87,4,1900,11.112,,,30,,,,,,,,,,,wg-a,,,,AAXX 17004 07335 32/19 /0306 10060 20040 30116 40265 58002 90000=
07335,1999-03-17 06:00:00,5,1025.3,-0.6,87,3,2000,14.816,,,20,4.1,13.1,,,,,,,,10,wg-a,,,,AAXX 17064 07335 12/20 20208 10050 20030 30103 40253 57006 60004 71000 80002 90600 333 10131 20041=
07335,1999-03-17 09:00:00,9,1025.8,0.8,71,4,3500,22.224,,,50,,,,,,,,,,10,wg-a,,,,AAXX 17094 07335 32/35 /0512 10090 20040 30111 40258 50008 71000 81030 90900=
07335,1999-03-17 12:00:00,15,1025,-0.5,39,1,10000,25.928,,,50,,,,,,,,,,0,wg-a,,,,AAXX 17124 07335 32/60 00514 10150 20010 30106 40250 58005 700// 80000 91200=
07335,1999-03-17 15:00:00,16,1023.8,-1.2,36,1,15000,31.484,,,50,,,,,,,,,,0,wg-a,,,,AAXX 17154 07335 32/65 00517 10160 20010 30094 40238 56012 700// 80000 91500=
07335,1999-03-17 18:00:00,13,1024.3,0.4,47,2,15000,22.224,,,30,4.3,16.3,,,,,,,,0,wg-a,,,,AAXX 17184 07335 32/65 10312 10130 20020 30098 40243 53004 700// 80001 91800 333 10163 20043=
07335,1999-03-18 00:00:00,5,1025.1,-0.1,75,1,0,11.112,,,30,,,,,,,,,,,wg-a,,,,AAXX 18004 07335 32/// /0306 10050 20010 30102 40251 58001 90000=
07335,1999-03-18 06:00:00,1,1024.5,0.6,93,0,3000,7.408,,,350,0.7,12.5,,,,,,,,10,wg-a,,,,AAXX 18064 07335 12/30 23504 10010 20000 30094 40245 53006 60004 71000 80001 90600 333 10125 20007=
07335,1999-03-18 09:00:00,7.9,1024.6,0.4,69,2.6,8000,7.408,,,40,,,,,,,,,,,og-post,,,,AAXX 18094 07335 32958 10404 10079 20026 30098 40246 50004 80001 333 81075=
07335,1999-03-18 12:00:00,14,1023.8,-0.5,41,1,15000,14.816,,,10,,,,,,,,,,0,wg-a,,,,AAXX 18124 07335 32/65 40108 10140 20010 30093 40238 58005 700// 81042 91200=
07335,1999-03-18 15:00:00,16,1021.9,-1.7,51,6,15000,14.816,,,10,,,,,,,,,,0,wg-a,,,,AAXX 18154 07335 32/65 20108 10160 20060 30076 40219 57017 700// 81041 91500=
07335,1999-03-18 18:00:00,13,1021.1,-1,72,8,3000,14.816,,,340,0.3,15.7,,,,,,,,10,wg-a,,,,AAXX 18184 07335 32/30 53408 10130 20080 30066 40211 56010 71011 84031 91800 333 10157 20003=
07335,1999-03-19 00:00:00,11,1022.8,0.7,82,8,0,18.52,,,10,,,,,,,,,,,wg-a,,,,AAXX 19004 07335 32/// /0110 10110 20080 30082 40228 51007 90000=
07335,1999-03-19 06:00:00,4,1025.6,1.6,87,2,12000,14.816,,,10,3.5,13.2,,,,,,,,0,wg-a,,,,AAXX 19064 07335 12/62 10108 10040 20020 30106 40256 53016 60004 700// 80001 90600 333 10132 20035=
07335,1999-03-19 09:00:00,8,1026.8,1.4,61,1,15000,25.928,,,40,,,,,,,,,,0,wg-a,,,,AAXX 19094 07335 32565 /0414 10080 20010 30120 40268 51014 700// 81101 90900=
07335,1999-03-19 12:00:00,10,1027,0.3,53,1,25000,25.928,,,40,,,,,,,,,,0,wg-a,,,,AAXX 19124 07335 32675 /0414 10100 20010 30123 40270 51003 700// 85401 91200=
07335,1999-03-19 15:00:00,12,1026.1,-0.8,47,1,500,22.224,,,20,,,,,,,,,,0,wg-a,,,,AAXX 19154 07335 32600 40212 10120 20010 30115 40261 56008 700// 84201 91500=
07335,1999-03-19 18:00:00,10,1026.8,0.6,53,1,25000,14.816,,,50,3.8,12.2,,,,,,,,,wg-a,,,,AAXX 19184 07335 32775 50508 10100 20010 30121 40268 53006 854/1 91800 333 10122 20038=
07335,1999-03-20 00:00:00,7,1028.8,0.6,76,3,0,14.816,,,30,,,,,,,,,,,wg-a,,,,AAXX 20004 07335 32/// /0308 10070 20030 30139 40288 52006 90000=
07335,1999-03-20 06:00:00,0,1028.5,0.7,93,-1,10000,3.704,,,330,0.3,10.3,,,,,,,,0,wg-a,,,,AAXX 20064 07335 12/60 23302 10000 21010 30133 40285 53007 60004 700// 80002 90600 333 10103 20003=
07335,1999-03-20 09:00:00,7,1029,0.8,76,3,7000,14.816,,,30,,,,,,,,,,0,wg-a,,,,AAXX 20094 07335 32757 20308 10070 20030 30141 40290 51008 700// 81502 90900=
07335,1999-03-20 12:00:00,11,1028.2,-0.6,50,1,20000,18.52,,,50,,,,,,,,,,0,wg-a,,,,AAXX 20124 07335 32670 20510 10110 20010 30135 40282 58006 700// 82132 91200=
07335,1999-03-20 15:00:00,12,1026,-2.1,47,1,25000,14.816,,,80,,,,,,,,,,0,wg-a,,,,AAXX 20154 07335 32/75 10808 10120 20010 30114 40260 56021 700// 80002 91500=
07335,1999-03-20 18:00:00,11,1025.6,-0.4,47,0,0,7.408,,,90,0.3,12.1,,,,,,,,,wg-a,,,,AAXX 20184 07335 32/// /0904 10110 20000 30110 40256 55004 91800 333 10121 20003=
07335,1999-03-21 00:00:00,0,1025.5,-0.6,86,-2,0,7.408,,,320,,,,,,,,,,,wg-a,,,,AAXX 21004 07335 32/// /3204 10000 21020 30103 40255 58006 90000=
07335,1999-03-21 06:00:00,-2,1022.7,-0.9,93,-3,8000,3.704,,,230,-2.4,10.6,,,,,,,,0,wg-a,,,,AAXX 21064 07335 32/58 02302 11020 21030 30074 40227 56009 700// 80000 90600 333 10106 21024=
07335,1999-03-21 09:00:00,7,1021.2,-1,87,5,6000,11.112,,,240,,,,,,,,,,0,wg-a,,,,AAXX 21094 07335 32656 72406 10070 20050 30064 40212 56010 700// 875// 90900=
07335,1999-03-21 12:00:00,9,1019.2,-1.8,76,5,8000,25.928,,,250,,,,,,,,,,0,wg-a,,,,AAXX 21124 07335 32558 72514 10090 20050 30046 40192 58018 700// 878// 91200=
07335,1999-03-21 15:00:00,9,1015.6,-3.6,71,4,15000,31.484,,,240,,,,,,,,,,0,wg-a,,,,AAXX 21154 07335 32565 72417 10090 20040 30010 40156 58036 700// 878// 91500=
07335,1999-03-21 18:00:00,7,1013.4,-2.2,100,7,0,25.928,,,250,-2.3,9.8,,2,,,,,,,wg-a,,,,AAXX 21184 07335 12/// /2514 10070 20070 39988 40134 56022 60027 91800 333 10098 21023=
07335,1999-03-22 00:00:00,6,1014,0.6,87,4,0,18.52,,,290,,,,,,,,,,,wg-a,,,,AAXX 22004 07335 32/// /2910 10060 20040 39993 40140 51006 90000=
07335,1999-03-22 06:00:00,5,1015.4,1.3,93,4,15000,18.52,,,310,4.4,8.3,,,,,2,,,0,wg-a,,,,AAXX 22064 07335 02565 /3110 10050 20040 30006 40154 53013 60024 700// 85530 90600 333 10083 20044 61000=
07335,1999-03-22 09:00:00,8,1016.9,1.7,87,6,500,22.224,,,330,,,,,,,,,,0,wg-a,,,,AAXX 22094 07335 32400 /3312 10080 20060 30023 40169 51017 700// 81101 90900=
07335,1999-03-22 12:00:00,10,1017.7,0.9,66,4,500,29.632,,,340,,,,,,,,,,0,wg-a,,,,AAXX 22124 07335 32500 73416 10100 20040 30032 40177 50009 700// 878// 91200=
07335,1999-03-22 15:00:00,10,1017.9,0.1,71,5,500,18.52,,,320,,,,,,,,,,0,wg-a,,,,AAXX 22154 07335 32500 73210 10100 20050 30033 40179 50001 700// 878// 91500=
07335,1999-03-22 18:00:00,9,1019.3,1.4,76,5,500,14.816,,,330,4.4,10.4,,,,,,,,0,wg-a,,,,AAXX 22184 07335 32500 73308 10090 20050 30047 40193 53014 700// 878// 91800 333 10104 20044=
07335,1999-03-23 00:00:00,5,1020.9,0.2,93,4,0,11.112,,,320,,,,,,,,,,,wg-a,,,,AAXX 23004 07335 32/// /3206 10050 20040 30061 40209 50002 90000=
07335,1999-03-23 06:00:00,5,1020,-0.4,87,3,20000,11.112,,,250,3.3,8.9,,,,,,,,0,wg-a,,,,AAXX 23064 07335 12670 82506 10050 20030 30052 40200 56004 60004 700// 875// 90600 333 10089 20033=
07335,1999-03-23 09:00:00,9,1020.7,0.8,76,5,20000,14.816,,,260,,,,,,,,,,0,wg-a,,,,AAXX 23094 07335 32570 72608 10090 20050 30060 40207 51008 700// 8553/ 90900=
07335,1999-03-23 12:00:00,9,1020.7,-0,81,6,15000,18.52,,,270,,,,,,,,,,0,wg-a,,,,AAXX 23124 07335 32265 72710 10090 20060 30060 40207 54000 700// 875// 91200=
07335,1999-03-23 13:00:00,10,1020.1,-0.6,82,7,15000,18.52,,,260,,,,,,,,,,0,wg-a,,,,AAXX 23134 07335 32465 82610 10100 20070 30055 40201 58006 700// 875// 91300=
07335,1999-03-23 14:00:00,10,1019.6,-0.9,82,7,15000,14.816,,,260,,,,,,,,,,0,wg-a,,,,AAXX 23144 07335 32565 82608 10100 20070 30050 40196 58009 700// 875// 91400=
07335,1999-03-23 15:00:00,10,1019.4,-1.2,82,7,15000,11.112,,,260,,,,,,,,,,0,wg-a,,,,AAXX 23154 07335 32465 82606 10100 20070 30048 40194 56012 700// 875// 91500=
07335,1999-03-23 16:00:00,10,1019.1,-1,82,7,15000,11.112,,,240,,,,,,,,,,0,wg-a,,,,AAXX 23164 07335 32465 82406 10100 20070 30045 40191 56010 700// 875// 91600=
07335,1999-03-23 17:00:00,10,1019.1,-0.5,82,7,12000,7.408,,,230,,,,,,,,,,0,wg-a,,,,AAXX 23174 07335 32462 82304 10100 20070 30045 40191 56005 700// 875// 91700=
07335,1999-03-23 18:00:00,9,1019,-0.4,87,7,12000,11.112,,,240,5.1,10.1,,,,,,,,0,wg-a,,,,AAXX 23184 07335 32562 82406 10090 20070 30044 40190 56004 700// 875// 91800 333 10101 20051=
07335,1999-03-24 00:00:00,8,1017.5,-0.8,87,6,0,3.704,,,150,,,,,,,,,,,wg-a,,,,AAXX 24004 07335 32/// /1502 10080 20060 30029 40175 58008 90000=
07335,1999-03-24 05:00:00,0,1014.6,-1.8,93,-1,12000,0,,,0,,,,,,,,,,0,wg-a,,,,AAXX 24054 07335 32/62 00000 10000 21010 39996 40146 56018 700// 80000 90500=
07335,1999-03-24 06:00:00,2,1014,-1.6,93,1,10000,3.704,,,50,0,9.2,,,,,,,,0,wg-a,,,,AAXX 24064 07335 32/60 00502 10020 20010 39990 40140 56016 700// 80000 90600 333 10092 20000=
07335,1999-03-24 07:00:00,5,1013.3,-1.4,93,4,12000,7.408,,,60,,,,,,,,,,0,wg-a,,,,AAXX 24074 07335 32/62 00604 10050 20040 39985 40133 58014 700// 80000 90700=
07335,1999-03-24 08:00:00,7,1012.5,-1.7,87,5,15000,11.112,,,70,,,,,,,,,,0,wg-a,,,,AAXX 24084 07335 32/65 10706 10070 20050 39979 40125 57017 700// 80002 90800=
07335,1999-03-24 09:00:00,10,1012.3,-1.2,76,6,18000,7.408,,,110,,,,,,,,,,0,wg-a,,,,AAXX 24094 07335 32/68 01104 10100 20060 39978 40123 56012 700// 80000 90900=
07335,1999-03-24 10:00:00,12,1011.5,-1.4,67,6,18000,3.704,,,110,,,,,,,,,,0,wg-a,,,,AAXX 24104 07335 32/68 01102 10120 20060 39971 40115 58014 700// 80000 91000=
07335,1999-03-24 11:00:00,14,1010.4,-1.8,58,6,25000,3.704,,,60,,,,,,,,,,0,wg-a,,,,AAXX 24114 07335 32/75 00602 10140 20060 39961 40104 58018 700// 80000 91100=
07335,1999-03-24 12:00:00,16,1009.8,-2.2,51,6,25000,3.704,,,140,,,,,,,,,,0,wg-a,,,,AAXX 24124 07335 32/75 11402 10160 20060 39956 40098 56022 700// 80001 91200=
07335,1999-03-24 13:00:00,16,1008.4,-2.8,51,6,25000,7.408,,,100,,,,,,,,,,0,wg-a,,,,AAXX 24134 07335 32/75 11004 10160 20060 39943 40084 58028 700// 80001 91300=
07335,1999-03-24 14:00:00,17,1007,-3.1,42,4,25000,11.112,,,110,,,,,,,,,,0,wg-a,,,,AAXX 24144 07335 32/75 11106 10170 20040 39930 40070 58031 700// 80001 91400=
07335,1999-03-24 15:00:00,18,1006.2,-3.4,42,5,25000,11.112,,,100,,,,,,,,,,0,wg-a,,,,AAXX 24154 07335 32/75 21006 10180 20050 39922 40062 56034 700// 80001 91500=
07335,1999-03-24 16:00:00,18,1005.2,-3.1,42,5,25000,11.112,,,130,,,,,,,,,,0,wg-a,,,,AAXX 24164 07335 32/75 21306 10180 20050 39912 40052 56031 700// 80001 91600=
07335,1999-03-24 17:00:00,17,1004.6,-2.4,48,6,25000,7.408,,,120,,,,,,,,,,0,wg-a,,,,AAXX 24174 07335 32/75 21204 10170 20060 39906 40046 56024 700// 80001 91700=
07335,1999-03-24 18:00:00,16,1004.4,-1.9,51,6,10000,7.408,,,100,1.1,17.8,,,,,,,,,wg-a,,,,AAXX 24184 07335 32/60 /1004 10160 20060 39903 40044 56019 91800 333 10178 20011=
07335,1999-03-25 00:00:00,12,1003.6,-0.1,58,4,0,25.928,,,190,,,,,,,,,,,wg-a,,,,AAXX 25004 07335 32/// /1914 10120 20040 39894 40036 56001 90000=
07335,1999-03-25 05:00:00,8,1001.2,-1.8,81,5,15000,11.112,,,180,,,,,,,,,,0,wg-a,,,,AAXX 25054 07335 32/65 71806 10080 20050 39868 40012 56018 700// 81032 90500=
07335,1999-03-25 06:00:00,9,1001,-1.3,76,5,15000,14.816,,,170,8.1,15.9,,,,,,,,0,wg-a,,,,AAXX 25064 07335 12/65 71708 10090 20050 39866 40010 56013 60004 700// 81032 90600 333 10159 20081=
07335,1999-03-25 07:00:00,10,1001,-0.7,87,8,20000,22.224,,,190,,,,,,,,,,0,wg-a,,,,AAXX 25074 07335 32770 71912 10100 20080 39867 40010 55007 700// 81532 90700=
07335,1999-03-25 08:00:00,12,1000.8,-0.2,76,8,20000,22.224,,,190,,,,,,,,,,0,wg-a,,,,AAXX 25084 07335 32770 71912 10120 20080 39866 40008 56002 700// 81532 90800=
07335,1999-03-25 09:00:00,13,1000.9,0.1,77,9,20000,22.224,,,200,,,,,,,,,,0,wg-a,,,,AAXX 25094 07335 32470 72012 10130 20090 39867 40009 52001 700// 8683/ 90900=
07335,1999-03-25 10:00:00,13,1000.7,-0.2,77,9,20000,25.928,,,210,,,,,,,,,,0,wg-a,,,,AAXX 25104 07335 32470 82114 10130 20090 39865 40007 58002 700// 878// 91000=
07335,1999-03-25 11:00:00,12,1000.5,-0.3,82,9,20000,18.52,,,220,,,,,,,,,,0,wg-a,,,,AAXX 25114 07335 32470 82210 10120 20090 39863 40005 58003 700// 8787/ 91100=
07335,1999-03-25 12:00:00,12,1000.4,-0.5,76,8,20000,11.112,,,210,,,,,,,,,,0,wg-a,,,,AAXX 25124 07335 32570 82106 10120 20080 39862 40004 56005 700// 8787/ 91200=
07335,1999-03-25 13:00:00,12,999.9,-0.8,82,9,20000,14.816,,,220,,,,,,,,,,0,wg-a,,,,AAXX 25134 07335 32170 82208 10120 20090 39857 49999 58008 700// 8687/ 91300=
07335,1999-03-25 14:00:00,12,999.6,-0.9,76,8,15000,14.816,,,220,,,,,,,,,,60,wg-a,,,,AAXX 25144 07335 02265 82208 10120 20080 39854 49996 58009 61000 76062 8687/ 91400 333 ////=
07335,1999-03-25 15:00:00,11,999.8,-0.6,94,10,8000,11.112,,,260,,,,,,,,,,,wg-a,,,,AAXX 25154 07335 32/58 /2606 10110 20100 39856 49998 55006 91500=
07335,1999-03-25 16:00:00,11,999.8,-0.1,94,10,8000,11.112,,,230,,,,,,,,,,21,wg-a,,,,AAXX 25164 07335 02358 82306 10110 20100 39856 49998 56001 61000 72165 8787/ 91600 333 ////=
07335,1999-03-25 17:00:00,11,999.9,0.3,94,10,10000,7.408,,,220,,,,,,,,,,0,wg-a,,,,AAXX 25174 07335 32460 82204 10110 20100 39857 49999 51003 700// 8587/ 91700=
07335,1999-03-25 18:00:00,11,1000.5,0.6,87,9,9000,14.816,,,230,8.4,12.9,,,,,,,,51,wg-a,,,,AAXX 25184 07335 02159 82308 10110 20090 39862 40005 53006 61000 75165 8587/ 91800 333 10129 20084 ////=
07335,1999-03-26 00:00:00,9,1001.4,0.1,93,8,0,7.408,,,200,,,,,,,,,,,wg-a,,,,AAXX 26004 07335 32/// /2004 10090 20080 39870 40014 51001 90000=
07335,1999-03-26 05:00:00,7,1001.7,0.7,93,6,20000,7.408,,,240,,,,,,,,,,0,wg-a,,,,AAXX 26054 07335 02270 82404 10070 20060 39872 40017 53007 61000 700// 8657/ 90500 333 ////=
07335,1999-03-26 06:00:00,7,1001.8,1,93,6,20000,11.112,,,240,7,10.5,,0,,,2,,,0,wg-a,,,,AAXX 26064 07335 02470 82406 10070 20060 39873 40018 51010 60024 700// 8757/ 90600 333 10105 20070 60007=
07335,1999-03-26 07:00:00,7,1002.3,1.2,100,7,20000,11.112,,,250,,,,,,,,,,0,wg-a,,,,AAXX 26074 07335 32670 72506 10070 20070 39878 40023 51012 700// 8657/ 90700=
07335,1999-03-26 08:00:00,9,1002.8,1.2,87,7,20000,14.816,,,270,,,,,,,,,,0,wg-a,,,,AAXX 26084 07335 32370 72708 10090 20070 39884 40028 53012 700// 8657/ 90800=
07335,1999-03-26 09:00:00,9,1003.4,1.7,87,7,20000,18.52,,,300,,,,,,,,,,0,wg-a,,,,AAXX 26094 07335 32470 73010 10090 20070 39890 40034 53017 700// 878// 90900=
07335,1999-03-26 10:00:00,10,1003.8,1.7,76,6,15000,18.52,,,300,,,,,,,,,,0,wg-a,,,,AAXX 26104 07335 32465 73010 10100 20060 39895 40038 51017 700// 878// 91000=
07335,1999-03-26 11:00:00,10,1004.5,1.7,76,6,15000,18.52,,,320,,,,,,,,,,0,wg-a,,,,AAXX 26114 07335 32565 /3210 10100 20060 39901 40045 52017 700// 86831 91100=
07335,1999-03-26 12:00:00,10,1004.9,1.6,76,6,25000,18.52,,,320,,,,,,,,,,0,wg-a,,,,AAXX 26124 07335 32575 73210 10100 20060 39906 40049 52016 700// 878// 91200=
07335,1999-03-26 15:00:00,11,1005,0.1,54,2,25000,22.224,,,320,,,,,,,,,,0,wg-a,,,,AAXX 26154 07335 32675 53212 10110 20020 39907 40050 53001 700// 85800 91500=
07335,1999-03-26 17:00:00,11,1005.6,0.5,54,2,25000,18.52,,37.04,290,,,,,,,,,,0,wg-a,,,,AAXX 26174 07335 32675 52910 10110 20020 39912 40056 53005 700// 85831 91700 333 91020=
07335,1999-03-26 18:00:00,9,1006.3,1.1,57,1,25000,18.52,,,270,7.1,12.1,,,,,,,,0,wg-a,,,,AAXX 26184 07335 32675 52710 10090 20010 39918 40063 53011 700// 85801 91800 333 10121 20071=
07335,1999-03-27 00:00:00,2,1006,-0.8,87,0,0,7.408,,,170,,,,,,,,,,,wg-a,,,,AAXX 27004 07335 32/// /1704 10020 20000 39912 40060 58008 90000=
07335,1999-03-27 06:00:00,2,1004.5,-0.6,100,2,15000,7.408,,,170,-0.1,8.5,,,,,,,,0,wg-a,,,,AAXX 27064 07335 12565 71704 10020 20020 39897 40045 55006 60004 700// 8553/ 90600 333 10085 21001=
07335,1999-03-27 07:00:00,3,1004.4,-0.2,100,3,15000,7.408,,,160,,,,,,,,,,0,wg-a,,,,AAXX 27074 07335 32565 71604 10030 20030 39897 40044 56002 700// 8553/ 90700=
07335,1999-03-27 08:00:00,5,1004.4,0.3,93,4,15000,7.408,,,210,,,,,,,,,,0,wg-a,,,,AAXX 27084 07335 32565 72104 10050 20040 39898 40044 51003 700// 8553/ 90800=
07335,1999-03-27 09:00:00,7,1004.6,0.4,93,6,15000,11.112,,,190,,,,,,,,,,0,wg-a,,,,AAXX 27094 07335 32465 71906 10070 20060 39901 40046 53004 700// 8553/ 90900=
07335,1999-03-27 10:00:00,10,1004.4,0.3,76,6,20000,14.816,,,220,,,,,,,,,,0,wg-a,,,,AAXX 27104 07335 32470 /2208 10100 20060 39900 40044 50003 700// 8583/ 91000=
07335,1999-03-27 11:00:00,11,1004.5,0.4,66,5,25000,11.112,,,230,,,,,,,,,,0,wg-a,,,,AAXX 27114 07335 32575 /2306 10110 20050 39902 40045 51004 700// 85230 91100=
07335,1999-03-27 12:00:00,11,1004.5,0.1,66,5,500,14.816,,,240,,,,,,,,,,0,wg-a,,,,AAXX 27124 07335 32500 72408 10110 20050 39902 40045 53001 700// 8683/ 91200=
07335,1999-03-27 13:00:00,11,1004.3,0,62,4,500,11.112,,,260,,,,,,,,,,0,wg-a,,,,AAXX 27134 07335 32500 62606 10110 20040 39900 40043 50000 700// 84830 91300=
07335,1999-03-27 14:00:00,13,1003.8,-0.6,54,4,500,18.52,,,240,,,,,,,,,,15,wg-a,,,,AAXX 27144 07335 32500 62410 10130 20040 39896 40038 58006 71522 85830 91400=
07335,1999-03-27 15:00:00,11,1004.5,-0,58,3,500,11.112,,,280,,,,,,,,,,0,wg-a,,,,AAXX 27154 07335 32600 /2806 10110 20030 39902 40045 55000 700// 82830 91500=
07335,1999-03-27 18:00:00,10,1006,1.4,66,4,0,7.408,,,360,2.4,12.9,,,,,,,,,wg-a,,,,AAXX 27184 07335 32/// /3604 10100 20040 39916 40060 53014 91800 333 10129 20024=
07335,1999-03-28 00:00:00,3,1010.4,1.8,93,2,0,3.704,,,340,,,,,,,,,,,wg-a,,,,AAXX 28004 07335 32/// /3402 10030 20020 39956 40104 53018 90000=
07335,1999-03-28 06:00:00,0,1014.8,2.5,100,0,500,3.704,,,330,0.2,10.3,,,,,,,,11,wg-a,,,,AAXX 28064 07335 12700 /3302 10000 20000 39998 40148 53025 60004 71100 81502 90600 333 10103 20002=
07335,1999-03-28 09:00:00,8,1017.1,2.7,87,6,10000,7.408,,,330,,,,,,,,,,0,wg-a,,,,AAXX 28094 07335 32/60 13304 10080 20060 30025 40171 51027 700// 80002 90900=
07335,1999-03-28 12:00:00,13,1017.5,0.6,47,2,20000,14.816,,,10,,,,,,,,,,0,wg-a,,,,AAXX 28124 07335 32670 20108 10130 20020 30031 40175 51006 700// 82102 91200=
07335,1999-03-28 15:00:00,14,1017.3,-0.2,41,1,20000,14.816,,,360,,,,,,,,,,0,wg-a,,,,AAXX 28154 07335 32670 23608 10140 20010 30029 40173 57002 700// 82102 91500=
07335,1999-03-28 18:00:00,11,1018.4,1,54,2,0,7.408,,,320,0.1,14.4,,,,,,,,,wg-a,,,,AAXX 28184 07335 32/// /3204 10110 20020 30039 40184 53010 91800 333 10144 20001=
07335,1999-03-29 00:00:00,1,1020.9,0.5,100,1,0,7.408,,,260,,,,,,,,,,,wg-a,,,,AAXX 29004 07335 32/// /2604 10010 20010 30058 40209 51005 90000=
07335,1999-03-29 06:00:00,4,1020.8,0.8,100,4,200,14.816,,,200,-0.2,11,,,,,,,,45,wg-a,,,,AAXX 29064 07335 32/02 92008 10040 20040 30059 40208 53008 74542 89/// 90600 333 10110 21002=
07335,1999-03-29 09:00:00,7,1021.4,0.7,100,7,3000,14.816,,,190,,,,,,,,,,10,wg-a,,,,AAXX 29094 07335 32130 81908 10070 20070 30066 40214 51007 71042 886// 90900=
07335,1999-03-29 12:00:00,12,1020.5,-0.6,82,9,11000,18.52,,,240,,,,,,,,,,,wg-a,,,,AAXX 29124 07335 32/61 /2410 10120 20090 30060 40205 58006 91200=
07335,1999-03-29 15:00:00,12,1020.1,-0.4,82,9,20000,14.816,,,250,,,,,,,,,,60,wg-a,,,,AAXX 29154 07335 02470 82508 10120 20090 30056 40201 58004 61000 76062 885// 91500 333 ////=
07335,1999-03-29 18:00:00,11,1019.9,-0.2,94,10,0,7.408,,,200,4,12.6,,,,,,,,,wg-a,,,,AAXX 29184 07335 32/// /2004 10110 20100 30054 40199 55002 91800 333 10126 20040=
07335,1999-03-30 00:00:00,10,1020.2,-0.3,93,9,0,3.704,,,200,,,,,,,,,,,wg-a,,,,AAXX 30004 07335 32/// /2002 10100 20090 30056 40202 58003 90000=
07335,1999-03-30 06:00:00,8,1019.4,-0,100,8,500,0,,,0,6.6,11.2,,,,,,,,0,wg-a,,,,AAXX 30064 07335 12700 70000 10080 20080 30047 40194 54000 60004 700// 875// 90600 333 10112 20066=
07335,1999-03-30 09:00:00,13,1019.5,0.4,82,10,10000,11.112,,,220,,,,,,,,,,0,wg-a,,,,AAXX 30094 07335 32760 72206 10130 20100 30051 40195 51004 700// 8453/ 90900=
07335,1999-03-30 12:00:00,18,1018.4,-0.9,49,7,25000,7.408,,,260,,,,,,,,,,0,wg-a,,,,AAXX 30124 07335 32675 62604 10180 20070 30042 40184 58009 700// 85831 91200=
07335,1999-03-30 13:00:00,18,1018.1,-1.1,52,8,25000,3.704,,,290,,,,,,,,,,0,wg-a,,,,AAXX 30134 07335 32675 62902 10180 20080 30039 40181 57011 700// 85831 91300=
07335,1999-03-30 14:00:00,19,1017.5,-1.3,46,7,25000,3.704,,,100,,,,,,,,,,0,wg-a,,,,AAXX 30144 07335 32675 61002 10190 20070 30034 40175 57013 700// 85831 91400=
07335,1999-03-30 15:00:00,18,1017.2,-1.2,49,7,25000,11.112,,,60,,,,,,,,,,0,wg-a,,,,AAXX 30154 07335 32775 60606 10180 20070 30030 40172 58012 700// 83831 91500=
07335,1999-03-30 16:00:00,18,1016.9,-1.2,49,7,25000,7.408,,,110,,,,,,,,,,0,wg-a,,,,AAXX 30164 07335 32775 61104 10180 20070 30027 40169 56012 700// 82832 91600=
07335,1999-03-30 17:00:00,17,1016.6,-1,55,8,25000,7.408,,,120,,,,,,,,,,0,wg-a,,,,AAXX 30174 07335 32775 61204 10170 20080 30024 40166 56010 700// 82802 91700=
07335,1999-03-30 18:00:00,16,1016.7,-0.5,55,7,0,7.408,,,90,8.3,18.8,,,,,,,,,wg-a,,,,AAXX 30184 07335 32/// /0904 10160 20070 30025 40167 55005 91800 333 10188 20083=
07335,1999-03-31 00:00:00,6,1018.2,0.1,93,5,0,7.408,,,350,,,,,,,,,,,wg-a,,,,AAXX 31004 07335 32/// /3504 10060 20050 30034 40182 51001 90000=
07335,1999-03-31 04:00:00,3,1017,-1.1,93,2,8000,3.704,,,350,,,,,,,,,,11,wg-a,,,,AAXX 31044 07335 32/58 03502 10030 20020 30021 40170 57011 71100 80000 90400=
07335,1999-03-31 05:00:00,2,1017,-0.9,100,2,4000,3.704,,,330,,,,,,,,,,10,wg-a,,,,AAXX 31054 07335 32/40 /3302 10020 20020 30020 40170 56009 71000 80002 90500=
07335,1999-03-31 06:00:00,2,1016.8,-0.6,100,2,4000,3.704,,,350,1.3,16.4,,,,,,,,10,wg-a,,,,AAXX 31064 07335 12/40 /3502 10020 20020 30018 40168 56006 60004 71000 80002 90600 333 10164 20013=
07335,1999-03-31 07:00:00,4,1016.9,-0.1,100,4,4500,0,,,0,,,,,,,,,,10,wg-a,,,,AAXX 31074 07335 32/45 /0000 10040 20040 30020 40169 55001 71000 80002 90700=
07335,1999-03-31 08:00:00,9,1016.6,-0,87,7,6000,7.408,,,130,,,,,,,,,,0,wg-a,,,,AAXX 31084 07335 32/56 /1304 10090 20070 30020 40166 55000 700// 80002 90800=
07335,1999-03-31 09:00:00,12,1016.4,0.2,71,7,10000,3.704,,,140,,,,,,,,,,0,wg-a,,,,AAXX 31094 07335 32/60 11402 10120 20070 30020 40164 51002 700// 80002 90900=
07335,1999-03-31 10:00:00,15,1016,-0.3,59,7,15000,7.408,,,120,,,,,,,,,,0,wg-a,,,,AAXX 31104 07335 32/65 11204 10150 20070 30017 40160 58003 700// 80002 91000=
07335,1999-03-31 11:00:00,17,1015.3,-0.9,55,8,20000,7.408,,,140,,,,,,,,,,0,wg-a,,,,AAXX 31114 07335 32/70 11404 10170 20080 30011 40153 58009 700// 80002 91100=
07335,1999-03-31 12:00:00,19,1014.7,-1.4,43,6,25000,7.408,,,130,,,,,,,,,,0,wg-a,,,,AAXX 31124 07335 32/75 11304 10190 20060 30006 40147 58014 700// 80002 91200=
07335,1999-03-31 13:00:00,20,1013.9,-1.8,40,6,25000,11.112,,,180,,,,,,,,,,0,wg-a,,,,AAXX 31134 07335 32/75 11806 10200 20060 39999 40139 58018 700// 80002 91300=
07335,1999-03-31 14:00:00,20,1013.1,-2,43,7,25000,11.112,,,180,,,,,,,,,,0,wg-a,,,,AAXX 31144 07335 32/75 11806 10200 20070 39991 40131 58020 700// 80002 91400=
07335,1999-03-31 15:00:00,20,1012.5,-2.1,35,4,25000,11.112,,,180,,,,,,,,,,0,wg-a,,,,AAXX 31154 07335 32/75 11806 10200 20040 39985 40125 56021 700// 80002 91500=
07335,1999-03-31 18:00:00,19,1011.5,-1,40,5,0,7.408,,,120,1.9,20.6,,,,,,,,,wg-a,,,,AAXX 31184 07335 32/// /1204 10190 20050 39975 40115 56010 91800 333 10206 20019=
07335,1999-04-01 00:00:00,12,1010.6,-1,67,6,0,7.408,,,120,,,,,,,,,,,wg-a,,,,AAXX 01004 07335 32/// /1204 10120 20060 39962 40106 58010 90000=
07335,1999-04-01 05:00:00,9,1009.2,-0.9,71,4,15000,11.112,,,130,,,,,,,,,,0,wg-a,,,,AAXX 01054 07335 32/65 11306 10090 20040 39947 40092 56009 700// 80001 90500=
07335,1999-04-01 06:00:00,9,1008.9,-0.9,71,4,20000,7.408,,,130,8.3,18.7,,,,,,,,0,wg-a,,,,AAXX 01064 07335 12/70 11304 10090 20040 39944 40089 56009 60004 700// 80002 90600 333 10187 20083=
07335,1999-04-01 07:00:00,11,1008.8,-0.4,66,5,20000,11.112,,,140,,,,,,,,,,0,wg-a,,,,AAXX 01074 07335 32/70 21406 10110 20050 39944 40088 56004 700// 80001 90700=
07335,1999-04-01 08:00:00,13,1008.7,-0.3,58,5,25000,14.816,,,160,,,,,,,,,,0,wg-a,,,,AAXX 01084 07335 32/75 21608 10130 20050 39944 40087 56003 700// 80001 90800=
07335,1999-04-01 09:00:00,15,1008.7,0.1,55,6,25000,18.52,,,170,,,,,,,,,,0,wg-a,,,,AAXX 01094 07335 32/75 21710 10150 20060 39945 40087 53001 700// 80001 90900=
07335,1999-04-01 10:00:00,18,1008.6,0.2,52,8,500,18.52,,,170,,,,,,,,,,0,wg-a,,,,AAXX 01104 07335 32/00 21710 10180 20080 39946 40086 53002 700// 80001 91000=
07335,1999-04-01 11:00:00,19,1008.4,0.1,49,8,500,22.224,,,200,,,,,,,,,,0,wg-a,,,,AAXX 01114 07335 32/00 42012 10190 20080 39945 40084 50001 700// 80002 91100=
07335,1999-04-01 12:00:00,20,1008.4,0,49,9,25000,18.52,,,190,,,,,,,,,,0,wg-a,,,,AAXX 01124 07335 32/75 61910 10200 20090 39945 40084 50000 700// 80002 91200=
07335,1999-04-01 13:00:00,21,1008.3,-0.2,43,8,25000,22.224,,,230,,,,,,,,,,0,wg-a,,,,AAXX 01134 07335 32/75 62312 10210 20080 39944 40083 57002 700// 80002 91300=
07335,1999-04-01 14:00:00,21,1008.3,-0,46,9,25000,18.52,,,240,,,,,,,,,,0,wg-a,,,,AAXX 01144 07335 32/75 62410 10210 20090 39945 40083 55000 700// 81082 91400=
07335,1999-04-01 15:00:00,20,1008.6,0.2,49,9,25000,18.52,,,230,,,,,,,,,,0,wg-a,,,,AAXX 01154 07335 32/75 62310 10200 20090 39947 40086 53002 700// 81082 91500=
07335,1999-04-01 16:00:00,19,1008.9,0.5,52,9,25000,22.224,,,240,,,,,,,,,,0,wg-a,,,,AAXX 01164 07335 32/75 72412 10190 20090 39949 40089 53005 700// 81032 91600=
07335,1999-04-01 17:00:00,19,1009.3,0.8,52,9,25000,14.816,,,220,,,,,,,,,,0,wg-a,,,,AAXX 01174 07335 32/75 72208 10190 20090 39953 40093 53008 700// 83082 91700=
07335,1999-04-01 18:00:00,17,1010.1,1.3,72,12,0,31.484,,,240,8.7,21.6,,,,,,,,,wg-a,,,,AAXX 01184 07335 32/// /2417 10170 20120 39960 40101 53013 91800 333 10216 20087=
07335,1999-04-02 00:00:00,7,1014.6,0.9,93,6,0,7.408,,,230,,,,,,,,,,,wg-a,,,,AAXX 02004 07335 32/// /2304 10070 20060 39999 40146 51009 90000=
07335,1999-04-02 04:00:00,6,1015.2,0.2,93,5,10000,7.408,,,160,,,,,,,,,,0,wg-a,,,,AAXX 02044 07335 32/60 31604 10060 20050 30005 40152 52002 700// 80002 90400=
07335,1999-04-02 05:00:00,3,1015.9,0.5,100,3,7000,3.704,,,200,,,,,,,,,,11,wg-a,,,,AAXX 02054 07335 32/57 32002 10030 20030 30010 40159 53005 71100 81032 90500=
07335,1999-04-02 06:00:00,5,1016.3,1.2,100,5,500,7.408,,,170,2.8,16.4,,,,,,,,11,wg-a,,,,AAXX 02064 07335 12700 /1704 10050 20050 30015 40163 53012 60004 71111 82532 90600 333 10164 20028=
07335,1999-04-02 07:00:00,7,1016.7,1.5,100,7,7000,7.408,,,170,,,,,,,,,,0,wg-a,,,,AAXX 02074 07335 32757 /1704 10070 20070 30020 40167 52015 700// 82532 90700=
07335,1999-04-02 08:00:00,10,1017.1,1.6,100,10,9000,11.112,,,190,,,,,,,,,,0,wg-a,,,,AAXX 02084 07335 32759 71906 10100 20100 30026 40171 53016 700// 82532 90800=
07335,1999-04-02 09:00:00,12,1017.5,1.6,88,10,12000,14.816,,,210,,,,,,,,,,0,wg-a,,,,AAXX 02094 07335 32762 72108 10120 20100 30031 40175 52016 700// 82532 90900=
07335,1999-04-02 10:00:00,14,1018,1.7,77,10,15000,14.816,,,240,,,,,,,,,,0,wg-a,,,,AAXX 02104 07335 32765 72408 10140 20100 30037 40180 52017 700// 82532 91000=
07335,1999-04-02 11:00:00,16,1018.1,1.3,63,9,20000,7.408,,,240,,,,,,,,,,0,wg-a,,,,AAXX 02114 07335 32570 72404 10160 20090 30039 40181 51013 700// 82832 91100=
07335,1999-04-02 12:00:00,16,1018.2,0.9,68,10,20000,14.816,,,240,,,,,,,,,,0,wg-a,,,,AAXX 02124 07335 32670 72408 10160 20100 30040 40182 51009 700// 82132 91200=
07335,1999-04-02 13:00:00,18,1017.8,0,64,11,20000,18.52,,,250,,,,,,,,,,0,wg-a,,,,AAXX 02134 07335 32670 72510 10180 20110 30037 40178 50000 700// 83232 91300=
07335,1999-04-02 14:00:00,18,1018.1,-0,56,9,25000,18.52,,,260,,,,,,,,,,0,wg-a,,,,AAXX 02144 07335 32675 72610 10180 20090 30039 40181 55000 700// 82232 91400=
07335,1999-04-02 15:00:00,17,1018.3,0.1,55,8,25000,25.928,,,260,,,,,,,,,,0,wg-a,,,,AAXX 02154 07335 32675 72614 10170 20080 30041 40183 53001 700// 82232 91500=
07335,1999-04-02 16:00:00,17,1018.6,0.7,55,8,20000,22.224,,,270,,,,,,,,,,0,wg-a,,,,AAXX 02164 07335 32670 72712 10170 20080 30044 40186 53007 700// 81232 91600=
07335,1999-04-02 17:00:00,15,1019.4,1.2,63,8,20000,22.224,,,260,,,,,,,,,,0,wg-a,,,,AAXX 02174 07335 32670 72612 10150 20080 30051 40194 53012 700// 82572 91700=
07335,1999-04-02 18:00:00,14,1020.2,1.7,67,8,0,18.52,,,260,4.7,18.4,,,,,,,,,wg-a,,,,AAXX 02184 07335 32/// /2610 10140 20080 30058 40202 53017 91800 333 10184 20047=
07335,1999-04-03 00:00:00,11,1021.9,-0.2,94,10,0,7.408,,,160,,,,,,,,,,,wg-a,,,,AAXX 03004 07335 32/// /1604 10110 20100 30074 40219 57002 90000=
07335,1999-04-03 04:00:00,11,1021.3,-0.8,94,10,8000,14.816,,,200,,,1,,,,,,,61,wg-a,,,,AAXX 03044 07335 12258 82008 10110 20100 30067 40213 58008 60015 76162 887// 90400=
07335,1999-04-03 05:00:00,11,1021,-0.7,94,10,12000,14.816,,,200,,,0,,,,,,,60,wg-a,,,,AAXX 03054 07335 12162 82008 10110 20100 30065 40210 58007 60005 76066 885// 90500=
07335,1999-04-03 06:00:00,11,1021.3,-0.4,94,10,12000,18.52,,,200,10.5,13.9,,2,,,6,,,61,wg-a,,,,AAXX 03064 07335 02162 82010 10110 20100 30068 40213 55004 60064 76162 8657/ 90600 333 10139 20105 60027=
07335,1999-04-03 07:00:00,11,1021.7,0.5,94,10,8000,18.52,,,200,,,2,,,,,,,61,wg-a,,,,AAXX 03074 07335 12258 82010 10110 20100 30072 40217 53005 60025 76166 8657/ 90700=
07335,1999-04-03 08:00:00,11,1021.7,0.7,100,11,3500,18.52,,,210,,,1,,,,,,,51,wg-a,,,,AAXX 03084 07335 12235 82110 10110 20110 30072 40217 51007 60015 75166 8757/ 90800=
07335,1999-04-03 09:00:00,12,1022.1,0.8,94,11,6000,18.52,,,220,,,,3,,,,,,50,wg-a,,,,AAXX 03094 07335 12256 82210 10120 20110 30076 40221 52008 60037 75065 8757/ 90900=
07335,1999-04-03 10:00:00,13,1022.7,1,94,12,10000,18.52,,,230,,,0,,,,,,,20,wg-a,,,,AAXX 03104 07335 12260 82310 10130 20120 30082 40227 53010 60005 72052 877// 91000=
07335,1999-04-03 11:00:00,14,1022.7,1.1,94,13,15000,18.52,,,260,,,,,,,,,,0,wg-a,,,,AAXX 03114 07335 32265 82610 10140 20130 30083 40227 51011 700// 877// 91100=
07335,1999-04-03 12:00:00,14,1023,1,94,13,12000,18.52,,,260,,,,0,,,,,,2,wg-a,,,,AAXX 03124 07335 12262 82610 10140 20130 30086 40230 51010 60007 70265 877// 91200=
07335,1999-04-03 13:00:00,15,1022.8,0.3,94,14,15000,18.52,,,240,,,,,,,,,,0,wg-a,,,,AAXX 03134 07335 32265 82410 10150 20140 30085 40228 50003 700// 875// 91300=
07335,1999-04-03 14:00:00,15,1023,0.4,94,14,12000,22.224,,,260,,,,,,,,,,0,wg-a,,,,AAXX 03144 07335 32262 82612 10150 20140 30087 40230 51004 700// 877// 91400=
07335,1999-04-03 15:00:00,15,1023,0.1,94,14,15000,18.52,,,250,,,,,,,,,,0,wg-a,,,,AAXX 03154 07335 32465 82510 10150 20140 30087 40230 53001 700// 877// 91500=
07335,1999-04-03 18:00:00,14,1024.2,1.1,94,13,0,14.816,,,250,10.6,15.6,,,,,,,,,wg-a,,,,AAXX 03184 07335 32/// /2508 10140 20130 30098 40242 53011 91800 333 10156 20106=
07335,1999-04-04 00:00:00,8,1027.5,1.3,93,7,0,3.704,,,200,,,,,,,,,,,wg-a,,,,AAXX 04004 07335 32/// /2002 10080 20070 30127 40275 51013 90000=
07335,1999-04-04 04:00:00,10,1028.1,0.1,100,10,8000,0,,,0,,,,,,,,,,0,wg-a,,,,AAXX 04044 07335 32158 80000 10100 20100 30134 40281 53001 700// 876// 90400=
07335,1999-04-04 05:00:00,10,1028.1,0.1,100,10,10000,7.408,,,210,,,,,,,,,,0,wg-a,,,,AAXX 04054 07335 32360 82104 10100 20100 30134 40281 52001 700// 875// 90500=
07335,1999-04-04 06:00:00,11,1028.8,0.8,94,10,10000,7.408,,,200,7.3,13.8,,,,,4,,,0,wg-a,,,,AAXX 04064 07335 12460 82004 10110 20100 30141 40288 53008 60044 700// 885// 90600 333 10138 20073=
07335,1999-04-04 07:00:00,11,1029.2,1.1,94,10,10000,7.408,,,220,,,,,,,,,,0,wg-a,,,,AAXX 04074 07335 32460 82204 10110 20100 30145 40292 53011 700// 885// 90700=
07335,1999-04-04 08:00:00,11,1029.6,1.6,94,10,12000,7.408,,,250,,,,,,,,,,0,wg-a,,,,AAXX 04084 07335 32462 82504 10110 20100 30150 40296 51016 700// 885// 90800=
07335,1999-04-04 09:00:00,13,1029.7,1,82,10,15000,11.112,,,190,,,,,,,,,,0,wg-a,,,,AAXX 04094 07335 32565 71906 10130 20100 30151 40297 51010 700// 875// 90900=
07335,1999-04-04 10:00:00,14,1029.7,0.7,77,10,18000,11.112,,,180,,,,,,,,,,0,wg-a,,,,AAXX 04104 07335 32468 71806 10140 20100 30152 40297 51007 700// 878// 91000=
07335,1999-04-04 11:00:00,14,1029.7,0.2,77,10,22000,3.704,,,240,,,,,,,,,,0,wg-a,,,,AAXX 04114 07335 32572 82402 10140 20100 30152 40297 51002 700// 885// 91100=
07335,1999-04-04 12:00:00,14,1029.7,0.1,77,10,26000,0,,,0,,,,,,,,,,0,wg-a,,,,AAXX 04124 07335 32576 70000 10140 20100 30152 40297 51001 700// 875// 91200=
07335,1999-04-04 13:00:00,16,1029.1,-0.5,68,10,26000,3.704,,,350,,,,,,,,,,0,wg-a,,,,AAXX 04134 07335 32576 73502 10160 20100 30147 40291 58005 700// 875// 91300=
07335,1999-04-04 14:00:00,16,1028.7,-0.9,68,10,26000,7.408,,,60,,,,,,,,,,0,wg-a,,,,AAXX 04144 07335 32576 70604 10160 20100 30143 40287 58009 700// 86502 91400=
07335,1999-04-04 15:00:00,17,1028.5,-1.1,59,9,26000,7.408,,,360,,,,,,,,,,0,wg-a,,,,AAXX 04154 07335 32576 73604 10170 20090 30141 40285 56011 700// 86502 91500=
07335,1999-04-04 18:00:00,16,1028.6,0.1,68,10,0,7.408,,,40,10.5,16.6,,,,,,,,,wg-a,,,,AAXX 04184 07335 32/// /0404 10160 20100 30142 40286 53001 91800 333 10166 20105=
07335,1999-04-05 00:00:00,8,1029.7,0.2,100,8,0,3.704,,,10,,,,,,,,,,,wg-a,,,,AAXX 05004 07335 32/// /0102 10080 20080 30149 40297 50002 90000=
07335,1999-04-05 04:00:00,5,1029.2,-0,93,4,2000,7.408,,,340,,,,,,,,,,10,wg-a,,,,AAXX 05044 07335 32/20 43404 10050 20040 30142 40292 55000 71000 80001 90400=
07335,1999-04-05 05:00:00,5,1029.2,0.1,100,5,2500,3.704,,,340,,,,,,,,,,10,wg-a,,,,AAXX 05054 07335 32/25 43402 10050 20050 30142 40292 52001 71000 80002 90500=
07335,1999-04-05 06:00:00,5,1029.6,0.5,100,5,1200,3.704,,,360,4.4,15.7,,,,,,,,11,wg-a,,,,AAXX 05064 07335 12/12 /3602 10050 20050 30146 40296 53005 60004 71111 80002 90600 333 10157 20044=
07335,1999-04-05 07:00:00,7,1029.8,0.7,100,7,7000,3.704,,,10,,,,,,,,,,0,wg-a,,,,AAXX 05074 07335 32/57 40102 10070 20070 30149 40298 53007 700// 80002 90700=
07335,1999-04-05 08:00:00,11,1029.6,0.8,100,11,12000,7.408,,,120,,,,,,,,,,0,wg-a,,,,AAXX 05084 07335 32/62 61204 10110 20110 30150 40296 51008 700// 81032 90800=
07335,1999-04-05 09:00:00,15,1029.5,0.4,77,11,20000,7.408,,,140,,,,,,,,,,0,wg-a,,,,AAXX 05094 07335 32/70 41404 10150 20110 30150 40295 51004 700// 81032 90900=
07335,1999-04-05 10:00:00,17,1029.4,0.1,63,10,25000,11.112,,,100,,,,,,,,,,0,wg-a,,,,AAXX 05104 07335 32875 51006 10170 20100 30150 40294 51001 700// 81531 91000=
07335,1999-04-05 11:00:00,18,1029.2,-0.1,59,10,500,7.408,,,100,,,,,,,,,,0,wg-a,,,,AAXX 05114 07335 32/00 71004 10180 20100 30149 40292 58001 700// 81032 91100=
07335,1999-04-05 12:00:00,20,1028.4,-0.8,53,10,500,11.112,,,130,,,,,,,,,,0,wg-a,,,,AAXX 05124 07335 32/00 71306 10200 20100 30142 40284 58008 700// 80002 91200=
07335,1999-04-05 13:00:00,21,1028,-1.1,53,11,500,7.408,,,100,,,,,,,,,,0,wg-a,,,,AAXX 05134 07335 32/00 51004 10210 20110 30139 40280 58011 700// 80002 91300=
07335,1999-04-05 14:00:00,22,1027.5,-1.5,43,9,500,7.408,,,210,,,,,,,,,,0,wg-a,,,,AAXX 05144 07335 32/00 32104 10220 20090 30134 40275 56015 700// 80001 91400=
07335,1999-04-05 15:00:00,23,1027.1,-1.1,44,10,500,7.408,,,270,,,,,,,,,,0,wg-a,,,,AAXX 05154 07335 32/00 32704 10230 20100 30131 40271 57011 700// 80001 91500=
07335,1999-04-05 18:00:00,19,1026.8,-0.5,68,13,0,7.408,,,250,5.1,22.9,,,,,,,,,wg-a,,,,AAXX 05184 07335 32/// /2504 10190 20130 30126 40268 55005 91800 333 10229 20051=
07335,1999-04-06 00:00:00,10,1027.2,-0.5,93,9,0,7.408,,,250,,,,,,,,,,,wg-a,,,,AAXX 06004 07335 32/// /2504 10100 20090 30125 40272 58005 90000=
07335,1999-04-06 04:00:00,8,1026.2,-0.7,93,7,10000,0,,,0,,,,,,,,,,11,wg-a,,,,AAXX 06044 07335 32/60 20000 10080 20070 30114 40262 56007 71100 80002 90400=
07335,1999-04-06 05:00:00,7,1026,-0.4,100,7,10000,3.704,,,180,,,,,,,,,,11,wg-a,,,,AAXX 06054 07335 32/60 31802 10070 20070 30112 40260 58004 71100 80002 90500=
07335,1999-04-06 06:00:00,7,1026.2,-0.1,100,7,8000,3.704,,,150,5.9,18.7,,,,,,,,11,wg-a,,,,AAXX 06064 07335 12/58 /1502 10070 20070 30114 40262 55001 60004 71111 81032 90600 333 10187 20059=
07335,1999-04-06 10:00:00,19,1025.9,0.2,73,14,20000,14.816,,,250,,,,,,,,,,0,wg-a,,,,AAXX 06104 07335 32870 72508 10190 20140 30117 40259 53002 700// 81582 91000=
07335,1999-04-06 11:00:00,19,1025.8,0.3,68,13,20000,14.816,,,250,,,,,,,,,,0,wg-a,,,,AAXX 06114 07335 32870 72508 10190 20130 30116 40258 50003 700// 81582 91100=
07335,1999-04-06 12:00:00,19,1025.6,-0.3,68,13,20000,14.816,,,280,,,,,,,,,,0,wg-a,,,,AAXX 06124 07335 32870 82808 10190 20130 30114 40256 58003 700// 81582 91200=
07335,1999-04-06 13:00:00,18,1025.3,-0.6,77,14,20000,18.52,,,340,,,,,,,,,,0,wg-a,,,,AAXX 06134 07335 32870 73410 10180 20140 30111 40253 58006 700// 81582 91300=
07335,1999-04-06 15:00:00,18,1024.3,-1.3,77,14,25000,18.52,,,340,,,,,,,,,,0,wg-a,,,,AAXX 06154 07335 32575 63410 10180 20140 30101 40243 56013 700// 81882 91500=
07335,1999-04-06 16:00:00,17,1024.5,-0.9,77,13,20000,25.928,,,340,,,,,,,,,,0,wg-a,,,,AAXX 06164 07335 32670 63414 10170 20130 30102 40245 55009 700// 81882 91600=
07335,1999-04-06 17:00:00,16,1024.3,-0.3,77,12,15000,18.52,,,320,,,,,,,,,,0,wg-a,,,,AAXX 06174 07335 32565 73210 10160 20120 30100 40243 57003 700// 85582 91700=
07335,1999-04-06 18:00:00,14,1024.7,0.2,82,11,0,14.816,,,300,7.2,19.9,,,,,,,,,wg-a,,,,AAXX 06184 07335 32/// /3008 10140 20110 30103 40247 53002 91800 333 10199 20072=
07335,1999-04-07 00:00:00,10,1024.9,-0,87,8,0,22.224,,,270,,,,,,,,,,,wg-a,,,,AAXX 07004 07335 32/// /2712 10100 20080 30103 40249 55000 90000=
07335,1999-04-07 04:00:00,10,1022.4,-2,87,8,10000,18.52,,,240,,,,,,,,,,0,wg-a,,,,AAXX 07044 07335 32460 72410 10100 20080 30078 40224 58020 700// 8357/ 90400=
07335,1999-04-07 05:00:00,10,1022,-2.2,93,9,10000,14.816,,,250,,,,,,,,,,60,wg-a,,,,AAXX 07054 07335 02260 72508 10100 20090 30074 40220 56022 61000 76062 8357/ 90500 333 ////=
07335,1999-04-07 06:00:00,8,1022.1,-1.4,87,6,25000,14.816,,,260,7.9,14.7,,3,,,3,,,21,wg-a,,,,AAXX 07064 07335 02275 72608 10080 20060 30074 40221 56014 60034 72162 8557/ 90600 333 10147 20079 60037=
07335,1999-04-07 07:00:00,8,1022.5,-0,93,7,3000,18.52,,,270,,,,,,,,,,10,wg-a,,,,AAXX 07074 07335 02430 82710 10080 20070 30078 40225 55000 61000 71065 875// 90700 333 ////=
07335,1999-04-07 08:00:00,9,1022.9,0.8,93,8,20000,25.928,,,310,,,0,,,,,,,21,wg-a,,,,AAXX 07084 07335 12170 83114 10090 20080 30082 40229 53008 60005 72165 877// 90800=
07335,1999-04-07 09:00:00,9,1023.5,1.4,93,8,8000,25.928,,,320,,,,0,,,,,,50,wg-a,,,,AAXX 07094 07335 12158 83214 10090 20080 30088 40235 53014 60007 75065 877// 90900=
07335,1999-04-07 10:00:00,10,1024.1,1.7,87,8,25000,35.188,,,330,,,,,,,,,,20,wg-a,,,,AAXX 07104 07335 02475 73319 10100 20080 30095 40241 53017 61000 72052 878// 91000 333 ////=
07335,1999-04-07 11:00:00,12,1024.3,1.6,76,8,500,29.632,,,340,,,,,,,,,,0,wg-a,,,,AAXX 07114 07335 32400 73416 10120 20080 30098 40243 51016 700// 878// 91100=
07335,1999-04-07 12:00:00,12,1024.3,1,71,7,500,31.484,,,340,,,,,,,,,,2,wg-a,,,,AAXX 07124 07335 02500 73417 10120 20070 30098 40243 51010 61000 70265 878// 91200 333 ////=
07335,1999-04-07 15:00:00,15,1023.4,-0.8,55,6,11000,25.928,,,320,,,,,,,,,,,wg-a,,,,AAXX 07154 07335 32/61 /3214 10150 20060 30090 40234 58008 91500=
07335,1999-04-07 18:00:00,12,1023.2,-0.3,62,5,0,18.52,,,340,7.8,15,,,,,,,,,wg-a,,,,AAXX 07184 07335 32/// /3410 10120 20050 30087 40232 56003 91800 333 10150 20078=
07335,1999-04-08 00:00:00,8,1024.2,0.1,76,4,0,14.816,,,330,,,,,,,,,,,wg-a,,,,AAXX 08004 07335 32/// /3308 10080 20040 30095 40242 52001 90000=
07335,1999-04-08 06:00:00,7,1025.3,1.1,93,6,15000,14.816,,,350,6.5,12.1,,,,,,,,0,wg-a,,,,AAXX 08064 07335 12265 /3508 10070 20060 30105 40253 53011 60004 700// 86500 90600 333 10121 20065=
07335,1999-04-08 09:00:00,11,1026.4,1.3,76,7,20000,18.52,,,20,,,,,,,,,,0,wg-a,,,,AAXX 08094 07335 32470 40210 10110 20070 30118 40264 53013 700// 84200 90900=
07335,1999-04-08 15:00:00,15,1025.7,-0.5,51,5,500,22.224,,,360,,,,,,,,,,0,wg-a,,,,AAXX 08154 07335 32600 43612 10150 20050 30113 40257 58005 700// 84800 91500=
07335,1999-04-08 18:00:00,13,1025.8,-0,62,6,0,11.112,,,350,6.4,15.3,,,,,,,,,wg-a,,,,AAXX 08184 07335 32/// /3506 10130 20060 30113 40258 55000 91800 333 10153 20064=
07335,1999-04-09 00:00:00,6,1027.2,-0.1,87,4,0,7.408,,,320,,,,,,,,,,,wg-a,,,,AAXX 09004 07335 32/// /3204 10060 20040 30123 40272 58001 90000=
07335,1999-04-09 04:00:00,3,1026.5,-0.6,100,3,12000,7.408,,,330,,,,,,,,,,0,wg-a,,,,AAXX 09044 07335 32/62 03304 10030 20030 30115 40265 56006 700// 80000 90400=
07335,1999-04-09 05:00:00,3,1026.6,-0.4,93,2,10000,7.408,,,320,,,,,,,,,,0,wg-a,,,,AAXX 09054 07335 32/60 03204 10030 20020 30115 40266 56004 700// 80000 90500=
07335,1999-04-09 06:00:00,3,1027,0.3,93,2,8000,3.704,,,320,2.5,12.8,,,,,,,,0,wg-a,,,,AAXX 09064 07335 32/58 03202 10030 20020 30119 40270 53003 700// 80000 90600 333 10128 20025=
07335,1999-04-09 10:00:00,13,1026.9,0.3,72,8,12000,3.704,,,360,,,,,,,,,,0,wg-a,,,,AAXX 09104 07335 32562 23602 10130 20080 30124 40269 50003 700// 81102 91000=
07335,1999-04-09 11:00:00,15,1026.6,0,55,6,20000,11.112,,,30,,,,,,,,,,0,wg-a,,,,AAXX 09114 07335 32670 30306 10150 20060 30122 40266 50000 700// 82102 91100=
07335,1999-04-09 12:00:00,16,1026.4,-0.5,51,6,20000,7.408,,,360,,,,,,,,,,0,wg-a,,,,AAXX 09124 07335 32670 53604 10160 20060 30120 40264 58005 700// 82102 91200=
07335,1999-04-09 13:00:00,16,1026.2,-0.6,55,7,25000,7.408,,,20,,,,,,,,,,0,wg-a,,,,AAXX 09134 07335 32675 /0204 10160 20070 30118 40262 57006 700// 82102 91300=
07335,1999-04-09 14:00:00,16,1025.7,-0.9,48,5,25000,11.112,,,30,,,,,,,,,,0,wg-a,,,,AAXX 09144 07335 32675 /0306 10160 20050 30113 40257 58009 700// 83202 91400=
07335,1999-04-09 15:00:00,17,1025,-1.3,45,5,20000,14.816,,,350,,,,,,,,,,0,wg-a,,,,AAXX 09154 07335 32670 /3508 10170 20050 30107 40250 58013 700// 82202 91500=
07335,1999-04-09 16:00:00,17,1024.6,-1.5,48,6,20000,7.408,,,340,,,,,,,,,,0,wg-a,,,,AAXX 09164 07335 32670 43404 10170 20060 30103 40246 56015 700// 81101 91600=
07335,1999-04-09 17:00:00,16,1024.4,-1.2,55,7,20000,11.112,,,340,,,,,,,,,,0,wg-a,,,,AAXX 09174 07335 32770 33406 10160 20070 30101 40244 56012 700// 81101 91700=
07335,1999-04-09 18:00:00,15,1024.5,-0.6,59,7,0,11.112,,,330,2.5,17.1,,,,,,,,,wg-a,,,,AAXX 09184 07335 32/// /3306 10150 20070 30101 40245 56006 91800 333 10171 20025=
07335,1999-04-10 00:00:00,6,1025.2,-0.1,100,6,0,7.408,,,320,,,,,,,,,,,wg-a,,,,AAXX 10004 07335 32/// /3204 10060 20060 30104 40252 58001 90000=
07335,1999-04-10 04:00:00,4,1024.1,-0.9,100,4,200,0,,,0,,,,,,,,,,41,wg-a,,,,AAXX 10044 07335 32/02 00000 10040 20040 30091 40241 56009 74140 80000 90400=
07335,1999-04-10 05:00:00,6,1023.9,-0.6,93,5,100,3.704,,,240,,,,,,,,,,45,wg-a,,,,AAXX 10054 07335 32/01 92402 10060 20050 30090 40239 56006 74544 89/// 90500=
07335,1999-04-10 06:00:00,7,1024,-0,93,6,1000,7.408,,,250,3.4,14.8,,,,,,,,10,wg-a,,,,AAXX 10064 07335 12110 82504 10070 20060 30092 40240 55000 60004 71041 886// 90600 333 10148 20034=
07335,1999-04-10 07:00:00,8,1024.1,0.3,100,8,2000,3.704,,,240,,,,,,,,,,10,wg-a,,,,AAXX 10074 07335 32120 82402 10080 20080 30094 40241 53003 71022 875// 90700=
07335,1999-04-10 08:00:00,10,1024.1,0.4,93,9,3000,11.112,,,260,,,,,,,,,,10,wg-a,,,,AAXX 10084 07335 32130 82606 10100 20090 30094 40241 51004 71022 875// 90800=
07335,1999-04-10 09:00:00,11,1024,0.2,100,11,8000,18.52,,,270,,,,,,,,,,0,wg-a,,,,AAXX 10094 07335 32458 82710 10110 20110 30094 40240 51002 700// 875// 90900=
07335,1999-04-10 10:00:00,11,1024.1,0.1,94,10,8000,11.112,,,260,,,,,,,,,,20,wg-a,,,,AAXX 10104 07335 02158 82606 10110 20100 30095 40241 53001 61000 72052 877// 91000 333 ////=
07335,1999-04-10 11:00:00,11,1023.7,-0.3,94,10,15000,14.816,,,260,,,,,,,,,,0,wg-a,,,,AAXX 10114 07335 32165 82608 10110 20100 30091 40237 58003 700// 875// 91100=
07335,1999-04-10 12:00:00,12,1023.2,-0.7,82,9,15000,11.112,,,250,,,,,,,,,,1,wg-a,,,,AAXX 10124 07335 02465 72506 10120 20090 30087 40232 58007 61000 70152 875// 91200 333 ////=
07335,1999-04-10 13:00:00,12,1023.1,-0.9,88,10,25000,18.52,,,270,,,,,,,,,,0,wg-a,,,,AAXX 10134 07335 32575 72710 10120 20100 30086 40231 56009 700// 875// 91300=
07335,1999-04-10 14:00:00,12,1022.8,-0.8,82,9,25000,14.816,,,280,,,,,,,,,,0,wg-a,,,,AAXX 10144 07335 32475 72808 10120 20090 30083 40228 56008 700// 875// 91400=
07335,1999-04-10 15:00:00,13,1022.4,-0.8,77,9,25000,14.816,,,270,,,,,,,,,,0,wg-a,,,,AAXX 10154 07335 32475 72708 10130 20090 30079 40224 58008 700// 875// 91500=
07335,1999-04-10 18:00:00,11,1022.4,-0,87,9,0,14.816,,,290,6.5,13,,,,,,,,,wg-a,,,,AAXX 10184 07335 32/// /2908 10110 20090 30079 40224 55000 91800 333 10130 20065=
07335,1999-04-11 00:00:00,8,1024.5,1.4,93,7,0,14.816,,,320,,,,,,,,,,,wg-a,,,,AAXX 11004 07335 32/// /3208 10080 20070 30098 40245 51014 90000=
07335,1999-04-11 04:00:00,5,1025.1,0.1,93,4,15000,14.816,,,290,,,,,,,,,,0,wg-a,,,,AAXX 11044 07335 32/65 02908 10050 20040 30102 40251 51001 700// 80000 90400=
07335,1999-04-11 05:00:00,5,1025.4,0.3,93,4,15000,14.816,,,300,,,,,,,,,,0,wg-a,,,,AAXX 11054 07335 32/65 53008 10050 20040 30105 40254 53003 700// 85030 90500=
07335,1999-04-11 06:00:00,5,1025.9,0.7,93,4,15000,14.816,,,290,4.2,11.2,,,,,1,,,0,wg-a,,,,AAXX 11064 07335 12/65 22908 10050 20040 30109 40259 53007 60014 700// 82030 90600 333 10112 20042=
07335,1999-04-11 07:00:00,7,1026.3,1.3,87,5,20000,18.52,,,300,,,,,,,,,,0,wg-a,,,,AAXX 11074 07335 32/70 13010 10070 20050 30115 40263 53013 700// 81031 90700=
07335,1999-04-11 08:00:00,9,1026.4,1.2,81,6,20000,18.52,,,320,,,,,,,,,,0,wg-a,,,,AAXX 11084 07335 32470 33210 10090 20060 30117 40264 51012 700// 83800 90800=
07335,1999-04-11 09:00:00,10,1026.7,1.1,82,7,20000,18.52,,,300,,,,,,,,,,0,wg-a,,,,AAXX 11094 07335 32470 73010 10100 20070 30120 40267 51011 700// 878// 90900=
07335,1999-04-11 10:00:00,11,1026.6,0.5,71,6,20000,14.816,,,300,,,,,,,,,,0,wg-a,,,,AAXX 11104 07335 32570 73008 10110 20060 30120 40266 51005 700// 878// 91000=
07335,1999-04-11 11:00:00,11,1026.4,0.1,66,5,20000,14.816,,,310,,,,,,,,,,0,wg-a,,,,AAXX 11114 07335 32570 83108 10110 20050 30118 40264 50001 700// 888// 91100=
07335,1999-04-11 12:00:00,11,1026.2,-0.4,62,4,20000,18.52,,,270,,,,,,,,,,0,wg-a,,,,AAXX 11124 07335 32570 72710 10110 20040 30116 40262 58004 700// 878// 91200=
07335,1999-04-11 13:00:00,10,1025.9,-0.8,76,6,20000,18.52,,,260,,,,,,,,,,0,wg-a,,,,AAXX 11134 07335 32570 72610 10100 20060 30112 40259 58008 700// 878// 91300=
07335,1999-04-11 14:00:00,10,1025.7,-0.8,76,6,15000,11.112,,,260,,,0,,,,,,,60,wg-a,,,,AAXX 11144 07335 12265 82606 10100 20060 30110 40257 57008 60005 76062 878// 91400=
07335,1999-04-11 15:00:00,10,1025,-1.2,76,6,20000,11.112,,,240,,,,0,,,,,,21,wg-a,,,,AAXX 11154 07335 12270 82406 10100 20060 30104 40250 58012 60007 72162 878// 91500=
07335,1999-04-11 18:00:00,10,1023.5,-1.5,87,8,0,14.816,,,210,4.7,11.6,,,,,,,,,wg-a,,,,AAXX 11184 07335 32/// /2108 10100 20080 30089 40235 56015 91800 333 10116 20047=
07335,1999-04-12 00:00:00,6,1020.6,-2.4,100,6,0,14.816,,,250,,,,,,,,,,,wg-a,,,,AAXX 12004 07335 32/// /2508 10060 20060 30058 40206 57024 90000=
07335,1999-04-12 04:00:00,8,1014.7,-4.6,87,6,15000,22.224,,,220,,,,,,,,,,0,wg-a,,,,AAXX 12044 07335 32465 82212 10080 20060 30001 40147 58046 700// 885// 90400=
07335,1999-04-12 06:00:00,8,1011.8,-4.5,100,8,8000,25.928,,,220,4,9.7,,0,,,1,,,61,wg-a,,,,AAXX 12064 07335 02158 82214 10080 20080 39973 40118 56045 60014 76162 8552/ 90600 333 10097 20040 60007=
07335,1999-04-12 07:00:00,9,1010.8,-3.8,93,8,10000,29.632,,,240,,,1,,,,,,,60,wg-a,,,,AAXX 12074 07335 12160 82416 10090 20080 39963 40108 56038 60015 76066 8452/ 90700=
07335,1999-04-12 08:00:00,10,1009.5,-3.6,93,9,3000,29.632,,,230,,,0,,,,,,,61,wg-a,,,,AAXX 12084 07335 12330 82316 10100 20090 39951 40095 56036 60005 76166 877// 90800=
07335,1999-04-12 09:00:00,11,1008.3,-3.4,94,10,4000,35.188,,,240,,,,2,,,,,,61,wg-a,,,,AAXX 12094 07335 12240 82419 10110 20100 39939 40083 58034 60027 76166 875// 90900=
07335,1999-04-12 10:00:00,12,1007.2,-3.4,94,11,4000,29.632,,,260,,,0,,,,,,,61,wg-a,,,,AAXX 12104 07335 12340 82616 10120 20110 39929 40072 56034 60005 76166 875// 91000=
07335,1999-04-12 11:00:00,12,1006.7,-2.7,88,10,12000,22.224,,,280,,,3,,,,,,,21,wg-a,,,,AAXX 12114 07335 12462 72812 10120 20100 39924 40067 56027 60035 72162 878// 91100=
07335,1999-04-12 12:00:00,13,1005.7,-2.4,72,8,15000,29.632,,46.3,290,,,,3,,,,,,3,wg-a,,,,AAXX 12124 07335 12565 72916 10130 20080 39915 40057 56024 60037 70362 878// 91200 333 91025=
07335,1999-04-12 13:00:00,13,1005,-2.1,62,6,20000,38.892,,61.116,280,,,,,,,,,,0,wg-a,,,,AAXX 12134 07335 32670 42821 10130 20060 39908 40050 58021 700// 84800 91300 333 91033=
07335,1999-04-12 14:00:00,14,1004.5,-2.1,58,6,20000,35.188,,,280,,,,,,,,,,0,wg-a,,,,AAXX 12144 07335 32670 32819 10140 20060 39903 40045 56021 700// 83830 91400=
07335,1999-04-12 15:00:00,13,1004,-1.7,58,5,8000,38.892,,,270,,,,,,,,,,15,wg-a,,,,AAXX 12154 07335 32658 62721 10130 20050 39898 40040 56017 71511 86830 91500=
07335,1999-04-12 16:00:00,11,1004,-1.1,76,7,12000,29.632,,,270,,,0,,,,,,,25,wg-a,,,,AAXX 12164 07335 12562 62716 10110 20070 39897 40040 56011 60005 72586 85830 91600=
07335,1999-04-12 17:00:00,12,1003.6,-1,67,6,15000,35.188,,,280,,,,,,,,,,0,wg-a,,,,AAXX 12174 07335 32565 62819 10120 20060 39893 40036 56010 700// 85830 91700=
07335,1999-04-12 18:00:00,10,1004.4,0.3,82,7,0,22.224,,,270,8.3,14.6,,0,,,,,,,wg-a,,,,AAXX 12184 07335 12/// /2712 10100 20070 39901 40044 53003 60007 91800 333 10146 20083=
07335,1999-04-13 00:00:00,8,1007.8,0.9,87,6,0,22.224,,,270,,,,,,,,,,,wg-a,,,,AAXX 13004 07335 32/// /2712 10080 20060 39933 40078 53009 90000=
07335,1999-04-13 04:00:00,8,1009.9,1.7,87,6,15000,29.632,,,300,,,,,,,,,,0,wg-a,,,,AAXX 13044 07335 32265 /3016 10080 20060 39953 40099 53017 700// 86500 90400=
07335,1999-04-13 05:00:00,7,1010.3,1.7,87,5,8000,25.928,,,290,,,0,,,,,,,25,wg-a,,,,AAXX 13054 07335 12258 72914 10070 20050 39957 40103 51017 60005 72586 878// 90500=
07335,1999-04-13 06:00:00,7,1011,1.7,87,5,12000,25.928,,,300,7.2,10.3,,0,,,7,,,1,wg-a,,,,AAXX 13064 07335 02562 /3014 10070 20050 39964 40110 53017 60074 70186 86500 90600 333 10103 20072 60007=
07335,1999-04-13 07:00:00,8,1012,2.1,87,6,10000,25.928,,,310,,,,,,,,,,25,wg-a,,,,AAXX 13074 07335 02560 73114 10080 20060 39974 40120 53021 61000 72586 875// 90700 333 ////=
07335,1999-04-13 08:00:00,9,1012.6,2.4,81,6,12000,29.632,,,310,,,,,,,,,,0,wg-a,,,,AAXX 13084 07335 32462 73116 10090 20060 39981 40126 52024 700// 878// 90800=
07335,1999-04-13 09:00:00,10,1013.1,2.2,76,6,12000,31.484,,,320,,,,,,,,,,2,wg-a,,,,AAXX 13094 07335 02462 73217 10100 20060 39986 40131 51022 61000 70286 878// 90900 333 ////=
07335,1999-04-13 10:00:00,10,1013.7,1.8,71,5,12000,31.484,,,310,,,,,,,,,,80,wg-a,,,,AAXX 13104 07335 02562 /3117 10100 20050 39992 40137 51018 61000 78086 86800 91000 333 ////=
07335,1999-04-13 11:00:00,10.9,1013.3,0.8,60,3.5,15000,29.632,,,310,,,,,,,,,,25,og-post,,,,AAXX 13114 07335 21565 43116 10109 20035 39989 40133 50008 72586 84400 333 69905 83823=
07335,1999-04-13 12:00:00,11,1013.3,0.3,54,2,18000,25.928,,,320,,,,,,,,,,3,wg-a,,,,AAXX 13124 07335 02668 53214 10110 20020 39989 40133 51003 61000 70386 85401 91200 333 ////=
07335,1999-04-13 13:00:00,13,1013,-0.6,41,0,18000,31.484,,,310,,,,,,,,,,0,wg-a,,,,AAXX 13134 07335 32668 53117 10130 20000 39986 40130 57006 700// 84401 91300=
07335,1999-04-13 14:00:00,12,1012.7,-0.6,47,1,20000,35.188,,53.708,310,,,,,,,,,,0,wg-a,,,,AAXX 13144 07335 32670 53119 10120 20010 39983 40127 58006 700// 84401 91400 333 91029=
07335,1999-04-13 15:00:00,12,1012.2,-1.1,50,2,20000,29.632,,,290,,,,,,,,,,0,wg-a,,,,AAXX 13154 07335 32770 52916 10120 20020 39978 40122 58011 700// 84401 91500=
07335,1999-04-13 16:00:00,12,1011.9,-1.1,54,3,12000,31.484,,,270,,,,,,,,,,15,wg-a,,,,AAXX 13164 07335 32662 62717 10120 20030 39975 40119 57011 71522 85801 91600=
07335,1999-04-13 17:00:00,10,1012.2,-0.6,66,4,10000,29.632,,,270,,,,,,,,,,15,wg-a,,,,AAXX 13174 07335 32560 72716 10100 20040 39977 40122 55006 71522 878// 91700=
07335,1999-04-13 18:00:00,9,1012.4,0.1,76,5,0,14.816,,,310,7.4,12.8,,,,,,,,,wg-a,,,,AAXX 13184 07335 32/// /3108 10090 20050 39979 40124 53001 91800 333 10128 20074=
07335,1999-04-14 00:00:00,6,1011.2,-2,87,4,0,18.52,,,250,,,,,,,,,,,wg-a,,,,AAXX 14004 07335 32/// /2510 10060 20040 39965 40112 58020 90000=
07335,1999-04-14 04:00:00,7,1005.8,-4.2,87,5,20000,18.52,,,220,,,,,,,,,,0,wg-a,,,,AAXX 14044 07335 32470 /2210 10070 20050 39913 40058 56042 700// 85500 90400=
07335,1999-04-14 05:00:00,7,1004.3,-4.3,93,6,15000,25.928,,,230,,,,,,,,,,0,wg-a,,,,AAXX 14054 07335 32165 72314 10070 20060 39898 40043 56043 700// 875// 90500=
07335,1999-04-14 06:00:00,7,1003.2,-3.8,93,6,500,25.928,,,220,5.3,8.9,,,,,,,,51,wg-a,,,,AAXX 14064 07335 02200 82214 10070 20060 39887 40032 56038 61000 75165 885// 90600 333 10089 20053 6100=
07335,1999-04-14 07:00:00,8,1001.8,-3.9,93,7,500,29.632,,,210,,,0,,,,,,,61,wg-a,,,,AAXX 14074 07335 12100 82116 10080 20070 39874 40018 56039 60005 76165 875// 90700=
07335,1999-04-14 08:00:00,9,1000.4,-3.7,93,8,6000,29.632,,48.152,220,,,0,,,,,,,60,wg-a,,,,AAXX 14084 07335 12156 82216 10090 20080 39861 40004 58037 60005 76066 875// 90800 333 91026=
07335,1999-04-14 09:00:00,9,999.2,-3.8,93,8,6000,31.484,,,220,,,,1,,,,,,60,wg-a,,,,AAXX 14094 07335 12156 82217 10090 20080 39849 49992 56038 60017 76065 878// 90900=
07335,1999-04-14 10:00:00,10,997.7,-4,93,9,500,35.188,,57.412,220,,,1,,,,,,,61,wg-a,,,,AAXX 14104 07335 12100 72219 10100 20090 39834 49977 58040 60015 76166 878// 91000 333 91031=
07335,1999-04-14 11:00:00,10,996.4,-3.9,93,9,500,35.188,,,230,,,1,,,,,,,61,wg-a,,,,AAXX 14114 07335 12100 72319 10100 20090 39822 49964 57039 60015 76166 878// 91100=
07335,1999-04-14 12:00:00,10,994.9,-4.2,93,9,500,35.188,,55.56,220,,,,3,,,,,,61,wg-a,,,,AAXX 14124 07335 12100 82219 10100 20090 39807 49949 57042 60037 76165 8681/ 91200 333 91030=
07335,1999-04-14 13:00:00,10,993.9,-3.7,93,9,4000,35.188,,57.412,220,,,2,,,,,,,10,wg-a,,,,AAXX 14134 07335 12240 82219 10100 20090 39797 49939 56037 60025 71066 878// 91300 333 91031=
07335,1999-04-14 14:00:00,5,995.7,-1,93,4,3500,25.928,,,330,,,6,,,,,,,10,wg-a,,,,AAXX 14144 07335 12235 83314 10050 20040 39812 49957 55010 60065 71087 878// 91400=
07335,1999-04-14 15:00:00,5,996.4,1.2,93,4,500,11.112,,,270,,,,11,,,,,,61,wg-a,,,,AAXX 14154 07335 12100 82706 10050 20040 39819 49964 53012 60117 76187 878// 91500=
07335,1999-04-14 16:00:00,6,996.8,2.6,93,5,8000,14.816,,,260,,,1,,,,,,,21,wg-a,,,,AAXX 14164 07335 12258 72608 10060 20050 39823 49968 51026 60015 72162 8387/ 91600=
07335,1999-04-14 17:00:00,6,997.7,2,87,4,500,18.52,,,270,,,,,,,,,,80,wg-a,,,,AAXX 14174 07335 02400 72710 10060 20040 39832 49977 53020 61000 78086 8681/ 91700 333 ////=
07335,1999-04-14 18:00:00,6,998.3,1.9,81,3,0,18.52,,,270,4.8,10.4,,1,,,,,,,wg-a,,,,AAXX 14184 07335 12/// /2710 10060 20030 39838 49983 53019 60017 91800 333 10104 20048=
07335,1999-04-15 00:00:00,2,1003.7,1.8,87,0,0,14.816,,,220,,,,,,,,,,,wg-a,,,,AAXX 15004 07335 32/// /2208 10020 20000 39889 40037 53018 90000=
07335,1999-04-15 04:00:00,-1,1004.8,0.7,93,-2,15000,11.112,,,240,,,,,,,,,,0,wg-a,,,,AAXX 15044 07335 02/65 32406 11010 21020 39898 40048 51007 61000 700// 81032 90400 333 ////=
07335,1999-04-15 05:00:00,-1,1005.1,0.6,93,-2,15000,7.408,,,230,,,,,,,,,,0,wg-a,,,,AAXX 15054 07335 32/65 32304 11010 21020 39901 40051 53006 700// 81032 90500=
07335,1999-04-15 06:00:00,-1,1005.3,0.9,100,-1,15000,11.112,,,240,-1.8,6,,,,,16,,,0,wg-a,,,,AAXX 15064 07335 12/65 22406 11010 21010 39904 40053 52009 60164 700// 81032 90600 333 10060 21018=
07335,1999-04-15 07:00:00,2,1005.5,0.9,93,1,18000,14.816,,,240,,,,,,,,,,0,wg-a,,,,AAXX 15074 07335 32/68 12408 10020 20010 39907 40055 52009 700// 81032 90700=
07335,1999-04-15 08:00:00,5,1005.6,0.8,87,3,18000,18.52,,,250,,,,,,,,,,0,wg-a,,,,AAXX 15084 07335 32368 /2510 10050 20030 39909 40056 51008 700// 81132 90800=
07335,1999-04-15 09:00:00,7,1005.4,0.4,66,1,20000,22.224,,,250,,,,,,,,,,0,wg-a,,,,AAXX 15094 07335 32570 /2512 10070 20010 39908 40054 50004 700// 81103 90900=
07335,1999-04-15 10:00:00,8,1005.3,0.1,66,2,20000,22.224,,,260,,,,,,,,,,0,wg-a,,,,AAXX 15104 07335 32670 42612 10080 20020 39908 40053 51001 700// 82203 91000=
07335,1999-04-15 11:00:00,8,1005,-0.4,61,1,10000,29.632,,,240,,,,,,,,,,15,wg-a,,,,AAXX 15114 07335 32560 72416 10080 20010 39905 40050 58004 71511 879// 91100=
07335,1999-04-15 12:00:00,6,1005.5,0.1,93,5,12000,25.928,,,240,,,,1,,,,,,25,wg-a,,,,AAXX 15124 07335 12362 72414 10060 20050 39909 40055 53001 60017 72586 8696/ 91200=
07335,1999-04-15 13:00:00,9,1005,-0.2,71,4,10000,31.484,,,250,,,,,,,,,,15,wg-a,,,,AAXX 15134 07335 32460 62517 10090 20040 39906 40050 57002 71522 86300 91300=
07335,1999-04-15 15:00:00,7,1005.2,-0.2,76,3,500,35.188,,,270,,,,0,,,,,,80,wg-a,,,,AAXX 15154 07335 12100 /2719 10070 20030 39907 40052 56002 60007 78086 86900 91500=
07335,1999-04-15 16:00:00,6,1005.7,0.5,87,4,8000,29.632,,,220,,,,,,,,,,25,wg-a,,,,AAXX 15164 07335 02458 62216 10060 20040 39911 40057 53005 61000 72586 85960 91600 333 ////=
07335,1999-04-15 17:00:00,8,1006.2,1,71,3,15000,14.816,,,240,,,,,,,,,,0,wg-a,,,,AAXX 15174 07335 32465 52408 10080 20030 39917 40062 53010 700// 82903 91700=
07335,1999-04-15 18:00:00,7,1006.4,1.2,81,4,0,18.52,,,260,-0.5,9.4,,,,,,,,,wg-a,,,,AAXX 15184 07335 32/// /2610 10070 20040 39919 40064 51012 91800 333 10094 21005=
07335,1999-04-16 00:00:00,1,1008.5,0,93,0,0,7.408,,,230,,,,,,,,,,,wg-a,,,,AAXX 16004 07335 32/// /2304 10010 20000 39936 40085 50000 90000=
07335,1999-04-16 04:00:00,1,1007.6,-0.3,100,1,10000,14.816,,,240,,,,,,,,,,51,wg-a,,,,AAXX 16044 07335 02260 72408 10010 20010 39927 40076 57003 61000 75195 877// 90400 333 ////=
07335,1999-04-16 05:00:00,2,1007,-0.8,93,1,12000,7.408,,,180,,,0,,,,,,,25,wg-a,,,,AAXX 16054 07335 12562 51804 10020 20010 39922 40070 58008 60005 72586 85800 90500=
07335,1999-04-16 06:00:00,2,1007.5,-0,100,2,15000,11.112,,,210,-0.3,7.1,,0,,,2,,,1,wg-a,,,,AAXX 16064 07335 02665 32106 10020 20020 39927 40075 55000 60024 70198 81461 90600 333 10071 21003 60007=
07335,1999-04-16 07:00:00,4,1007.5,0.1,93,3,15000,11.112,,,200,,,,,,,,,,0,wg-a,,,,AAXX 16074 07335 32365 42006 10040 20030 39928 40075 53001 700// 81861 90700=
07335,1999-04-16 08:00:00,6,1007.1,0.3,87,4,18000,22.224,,,210,,,,,,,,,,0,wg-a,,,,AAXX 16084 07335 32368 42112 10060 20040 39925 40071 50003 700// 81861 90800=
07335,1999-04-16 09:00:00,8,1006.8,-0.4,81,5,18000,22.224,,,220,,,,,,,,,,0,wg-a,,,,AAXX 16094 07335 32468 42212 10080 20050 39923 40068 58004 700// 83161 90900=
07335,1999-04-16 10:00:00,9,1006.2,-1,71,4,18000,18.52,,,220,,,,,,,,,,0,wg-a,,,,AAXX 16104 07335 32568 /2210 10090 20040 39918 40062 58010 700// 85201 91000=
07335,1999-04-16 11:00:00,9,1005.4,-1.5,71,4,12000,22.224,,,210,,,,,,,,,,15,wg-a,,,,AAXX 16114 07335 32562 /2112 10090 20040 39910 40054 58015 71522 86201 91100=
07335,1999-04-16 12:00:00,10,1004.8,-1.9,71,5,12000,14.816,,,200,,,,1,,,,,,27,wg-a,,,,AAXX 16124 07335 12562 52008 10100 20050 39904 40048 58019 60017 72787 84901 91200=
07335,1999-04-16 13:00:00,10,1004.3,-1.8,57,2,10000,29.632,,,210,,,,,,,,,,25,wg-a,,,,AAXX 16134 07335 02560 72116 10100 20020 39900 40043 56018 61000 72586 8596/ 91300 333 ////=
07335,1999-04-16 14:00:00,8,1004.3,-1.2,81,5,10000,29.632,,,240,,,,,,,,,,80,wg-a,,,,AAXX 16144 07335 02560 72416 10080 20050 39898 40043 56012 61000 78086 84963 91400 333 ////=
07335,1999-04-16 15:00:00,11,1003,-1.7,62,4,18000,11.112,,,200,,,,,,,,,,25,wg-a,,,,AAXX 16154 07335 02568 72006 10110 20040 39887 40030 58017 61000 72586 82963 91500 333 ////=
07335,1999-04-16 16:00:00,8,1002.8,-1.7,66,2,15000,18.52,,,270,,,,,,,,,,15,wg-a,,,,AAXX 16164 07335 32565 72710 10080 20020 39883 40028 58017 71522 83903 91600=
07335,1999-04-16 17:00:00,11,1002.3,-1.8,54,2,15000,7.408,,,260,,,,,,,,,,15,wg-a,,,,AAXX 16174 07335 32565 52604 10110 20020 39880 40023 56018 71522 82963 91700=
07335,1999-04-16 18:00:00,7,1002.5,-0.7,81,4,0,22.224,,,280,2.1,11.4,,0,,,,,,,wg-a,,,,AAXX 16184 07335 12/// /2812 10070 20040 39880 40025 56007 60007 91800 333 10114 20021=
07335,1999-04-17 00:00:00,5,1001.5,-0.7,87,3,0,11.112,,,120,,,,,,,,,,,wg-a,,,,AAXX 17004 07335 32/// /1206 10050 20030 39869 40015 57007 90000=
07335,1999-04-17 04:00:00,4,1000.9,-0.4,87,2,15000,7.408,,,100,,,,,,,,,,0,wg-a,,,,AAXX 17044 07335 32765 71004 10040 20020 39863 40009 55004 700// 82532 90400=
07335,1999-04-17 05:00:00,2,1001.4,0.3,93,1,15000,7.408,,,20,,,,,,,,,,0,wg-a,,,,AAXX 17054 07335 32765 70204 10020 20010 39867 40014 53003 700// 82532 90500=
07335,1999-04-17 06:00:00,2,1002.2,1.2,93,1,15000,7.408,,,30,1.2,7.6,,,,,1,,,0,wg-a,,,,AAXX 17064 07335 12765 50304 10020 20010 39874 40022 53012 60014 700// 81532 90600 333 10076 20012=
07335,1999-04-17 07:00:00,4,1002.8,1.8,93,3,15000,11.112,,,20,,,,,,,,,,0,wg-a,,,,AAXX 17074 07335 32765 50206 10040 20030 39881 40028 53018 700// 83532 90700=
07335,1999-04-17 08:00:00,6,1003.4,2.1,87,4,20000,7.408,,,20,,,,,,,,,,0,wg-a,,,,AAXX 17084 07335 32770 40204 10060 20040 39888 40034 52021 700// 81532 90800=
07335,1999-04-17 09:00:00,9,1004,2.2,71,4,20000,14.816,,,20,,,,,,,,,,0,wg-a,,,,AAXX 17094 07335 32570 30208 10090 20040 39896 40040 53022 700// 81132 90900=
07335,1999-04-17 10:00:00,11,1004.5,2.1,62,4,20000,18.52,,,360,,,,,,,,,,0,wg-a,,,,AAXX 17104 07335 32570 43610 10110 20040 39902 40045 51021 700// 82832 91000=
07335,1999-04-17 11:00:00,12,1005.2,2.1,58,4,20000,18.52,,,20,,,,,,,,,,0,wg-a,,,,AAXX 17114 07335 32570 40210 10120 20040 39909 40052 51021 700// 82832 91100=
07335,1999-04-17 12:00:00,14,1005.6,1.8,51,4,20000,14.816,,,50,,,,,,,,,,0,wg-a,,,,AAXX 17124 07335 32670 50508 10140 20040 39914 40056 51018 700// 83832 91200=
07335,1999-04-17 13:00:00,14,1006.4,2,44,2,20000,18.52,,,30,,,,,,,,,,0,wg-a,,,,AAXX 17134 07335 32670 50310 10140 20020 39922 40064 53020 700// 84832 91300=
07335,1999-04-17 14:00:00,14,1006.9,1.8,38,0,20000,14.816,,,20,,,,,,,,,,0,wg-a,,,,AAXX 17144 07335 32670 50208 10140 20000 39927 40069 52018 700// 84232 91400=
07335,1999-04-17 15:00:00,15,1007.5,1.9,36,0,25000,25.928,,,360,,,,,,,,,,0,wg-a,,,,AAXX 17154 07335 32575 53614 10150 20000 39933 40075 51019 700// 84932 91500=
07335,1999-04-17 18:00:00,11,1010.7,3,62,4,0,18.52,,,350,1.9,15,,,,,,,,,wg-a,,,,AAXX 17184 07335 32/// /3510 10110 20040 39963 40107 53030 91800 333 10150 20019=
07335,1999-04-18 00:00:00,6,1015.9,1.4,93,5,0,14.816,,,310,,,,,,,,,,,wg-a,,,,AAXX 18004 07335 32/// /3108 10060 20050 30012 40159 52014 90000=
07335,1999-04-18 04:00:00,3,1017.5,1,93,2,10000,14.816,,,290,,,,,,,,,,0,wg-a,,,,AAXX 18044 07335 32/60 02908 10030 20020 30026 40175 53010 700// 80000 90400=
07335,1999-04-18 05:00:00,3,1018,1.3,87,1,8000,14.816,,,260,,,,,,,,,,0,wg-a,,,,AAXX 18054 07335 32/58 /2608 10030 20010 30030 40180 53013 700// 80002 90500=
07335,1999-04-18 06:00:00,3,1018.5,1.6,93,2,7000,14.816,,,280,2.4,11.2,,,,,1,,,0,wg-a,,,,AAXX 18064 07335 12/57 /2808 10030 20020 30036 40185 52016 60014 700// 80002 90600 333 10112 20024=
07335,1999-04-18 07:00:00,6,1018.9,1.5,87,4,8000,14.816,,,290,,,,,,,,,,0,wg-a,,,,AAXX 18074 07335 32/58 /2908 10060 20040 30041 40189 53015 700// 80002 90700=
07335,1999-04-18 08:00:00,8,1019.2,1.5,71,3,15000,14.816,,,300,,,,,,,,,,0,wg-a,,,,AAXX 18084 07335 32465 43008 10080 20030 30045 40192 51015 700// 81132 90800=
07335,1999-04-18 09:00:00,9,1019.9,1.6,57,1,15000,22.224,,,310,,,,,,,,,,0,wg-a,,,,AAXX 18094 07335 32565 73112 10090 20010 30052 40199 53016 700// 83832 90900=
07335,1999-04-18 10:00:00,10,1019.6,0.9,57,2,15000,18.52,,,270,,,,,,,,,,0,wg-a,,,,AAXX 18104 07335 32565 72710 10100 20020 30050 40196 50009 700// 83832 91000=
07335,1999-04-18 11:00:00,9,1019.6,0.5,66,3,10000,22.224,,,250,,,,,,,,,,60,wg-a,,,,AAXX 18114 07335 02560 82512 10090 20030 30050 40196 51005 61000 76062 8427/ 91100 333 ////=
07335,1999-04-18 12:00:00,7,1020,-0,87,5,7000,25.928,,,250,,,,1,,,,,,61,wg-a,,,,AAXX 18124 07335 12157 82514 10070 20050 30052 40200 55000 60017 76161 8652/ 91200=
07335,1999-04-18 13:00:00,9,1019,-0.6,81,6,10000,22.224,,,250,,,0,,,,,,,21,wg-a,,,,AAXX 18134 07335 12160 72512 10090 20060 30044 40190 58006 60005 72162 8512/ 91300=
07335,1999-04-18 14:00:00,11,1018.3,-1.2,76,7,20000,22.224,,,250,,,,,,,,,,0,wg-a,,,,AAXX 18144 07335 32570 62512 10110 20070 30038 40183 58012 700// 85202 91400=
07335,1999-04-18 15:00:00,9,1017.8,-2,81,6,15000,25.928,,,250,,,,1,,,,,,27,wg-a,,,,AAXX 18154 07335 12265 62514 10090 20060 30032 40178 56020 60017 72787 85802 91500=
07335,1999-04-18 18:00:00,10,1018.8,1,66,4,0,22.224,,,290,3.4,11.7,,,,,,,,,wg-a,,,,AAXX 18184 07335 32/// /2912 10100 20040 30042 40188 53010 91800 333 10117 20034=
07335,1999-04-19 00:00:00,4,1020.9,0.1,93,3,0,14.816,,,270,,,,,,,,,,,wg-a,,,,AAXX 19004 07335 32/// /2708 10040 20030 30060 40209 51001 90000=
07335,1999-04-19 04:00:00,4,1020.6,-0.2,93,3,15000,0,,,0,,,,,,,,,,0,wg-a,,,,AAXX 19044 07335 32565 70000 10040 20030 30057 40206 56002 700// 875// 90400=
07335,1999-04-19 05:00:00,4,1020.5,-0.2,93,3,15000,0,,,0,,,,,,,,,,60,wg-a,,,,AAXX 19054 07335 02665 80000 10040 20030 30056 40205 57002 61000 76062 8257/ 90500 333 ////=
07335,1999-04-19 06:00:00,4,1020.7,0.1,100,4,15000,0,,,0,2.5,10.1,,,,,2,,,21,wg-a,,,,AAXX 19064 07335 02665 70000 10040 20040 30058 40207 53001 60024 72162 8157/ 90600 333 10101 20025 61000=
07335,1999-04-19 07:00:00,6,1020.6,0.1,93,5,15000,0,,,0,,,0,,,,,,,0,wg-a,,,,AAXX 19074 07335 12/65 70000 10060 20050 30058 40206 53001 60005 700// 8707/ 90700=
07335,1999-04-19 08:00:00,7,1020.7,0.3,70,2,12000,3.704,,,40,,,,,,,,,,60,wg-a,,,,AAXX 19084 07335 02/62 80402 10070 20020 30059 40207 51003 61000 76062 8707/ 90800 333 ////=
07335,1999-04-19 09:00:00,8,1020.7,0.2,61,1,12000,7.408,,,70,,,,0,,,,,,61,wg-a,,,,AAXX 19094 07335 12562 80704 10080 20010 30060 40207 53002 60007 76162 8127/ 90900=
07335,1999-04-19 10:00:00,8,1020.4,-0.1,66,2,12000,3.704,,,90,,,,,,,,,,60,wg-a,,,,AAXX 19104 07335 02562 80902 10080 20020 30057 40204 58001 61000 76066 8127/ 91000 333 ////=
07335,1999-04-19 11:00:00,9,1020,-0.5,71,4,15000,7.408,,,160,,,,,,,,,,21,wg-a,,,,AAXX 19114 07335 02565 81604 10090 20040 30054 40200 58005 61000 72162 8287/ 91100 333 ////=
07335,1999-04-19 12:00:00,10,1019.6,-1,71,5,15000,3.704,,,150,,,,0,,,,,,60,wg-a,,,,AAXX 19124 07335 12565 81502 10100 20050 30050 40196 58010 60007 76062 8457/ 91200=
07335,1999-04-19 13:00:00,10,1019.2,-1.1,76,6,15000,7.408,,,170,,,,,,,,,,21,wg-a,,,,AAXX 19134 07335 02565 81704 10100 20060 30046 40192 58011 61000 72162 8657/ 91300 333 ////=
07335,1999-04-19 14:00:00,11,1018.3,-1.6,71,6,20000,7.408,,,140,,,,,,,,,,0,wg-a,,,,AAXX 19144 07335 32470 81404 10110 20060 30038 40183 58016 700// 8657/ 91400=
07335,1999-04-19 15:00:00,11,1017.6,-1.9,76,7,15000,11.112,,,150,,,,,,,,,,60,wg-a,,,,AAXX 19154 07335 02565 81506 10110 20070 30031 40176 58019 61000 76062 8757/ 91500 333 ////=
07335,1999-04-19 16:00:00,11,1017.1,-2,76,7,20000,11.112,,,160,,,,,,,,,,21,wg-a,,,,AAXX 19164 07335 02570 81606 10110 20070 30026 40171 56020 61000 72162 8657/ 91600 333 ////=
07335,1999-04-19 17:00:00,10,1017,-1.3,87,8,12000,11.112,,,180,,,,,,,,,,60,wg-a,,,,AAXX 19174 07335 02262 81806 10100 20080 30025 40170 56013 61000 76062 8657/ 91700 333 ////=
07335,1999-04-19 18:00:00,10,1016.6,-1,93,9,0,7.408,,,160,4.1,11.4,,,,,,,,,wg-a,,,,AAXX 19184 07335 32/// /1604 10100 20090 30021 40166 56010 91800 333 10114 20041=
07335,1999-04-20 00:00:00,10,1013.6,-2,93,9,0,11.112,,,200,,,,,,,,,,,wg-a,,,,AAXX 20004 07335 32/// /2006 10100 20090 39991 40136 58020 90000=
07335,1999-04-20 04:00:00,9,1011.5,-1.1,93,8,500,14.816,,,210,,,1,,,,,,,61,wg-a,,,,AAXX 20044 07335 12100 82108 10090 20080 39970 40115 56011 60015 76162 887// 90400=
07335,1999-04-20 05:00:00,9,1010.8,-1.3,100,9,3500,14.816,,,220,,,0,,,,,,,10,wg-a,,,,AAXX 20054 07335 12135 82208 10090 20090 39963 40108 58013 60005 71066 887// 90500=
07335,1999-04-20 06:00:00,10,1010.6,-0.9,93,9,3000,18.52,,,200,8.8,10.1,,1,,,5,,,10,wg-a,,,,AAXX 20064 07335 02130 82010 10100 20090 39962 40106 57009 60054 71065 885// 90600 333 10101 20088 60017=
07335,1999-04-20 07:00:00,10,1010.1,-1.3,100,10,3500,14.816,,,210,,,,,,,,,,10,wg-a,,,,AAXX 20074 07335 02135 82108 10100 20100 39957 40101 56013 61000 71066 887// 90700 333 ////=
07335,1999-04-20 08:00:00,11,1009.7,-1,94,10,3000,18.52,,,200,,,0,,,,,,,10,wg-a,,,,AAXX 20084 07335 12130 82010 10110 20100 39953 40097 58010 60005 71066 885// 90800=
07335,1999-04-20 09:00:00,11,1009.2,-1.4,100,11,3500,18.52,,,200,,,,1,,,,,,10,wg-a,,,,AAXX 20094 07335 12135 82010 10110 20110 39948 40092 57014 60017 71066 885// 90900=
07335,1999-04-20 10:00:00,12,1008.7,-1.3,94,11,500,18.52,,,200,,,0,,,,,,,60,wg-a,,,,AAXX 20104 07335 12200 82010 10120 20110 39944 40087 57013 60005 76066 887// 91000=
07335,1999-04-20 11:00:00,12,1008.2,-1.4,94,11,500,18.52,,,200,,,,,,,,,,60,wg-a,,,,AAXX 20114 07335 02100 82010 10120 20110 39939 40082 57014 61000 76066 887// 91100 333 ////=
07335,1999-04-20 12:00:00,12,1007.4,-1.7,100,12,4000,22.224,,,200,,,,0,,,,,,10,wg-a,,,,AAXX 20124 07335 12140 82012 10120 20120 39931 40074 58017 60007 71066 887// 91200=
07335,1999-04-20 13:00:00,13,1006.7,-1.9,94,12,4000,22.224,,,200,,,0,,,,,,,10,wg-a,,,,AAXX 20134 07335 12140 82012 10130 20120 39925 40067 58019 60005 71066 885// 91300=
07335,1999-04-20 14:00:00,14,1005.8,-2.3,88,12,500,25.928,,,190,,,1,,,,,,,60,wg-a,,,,AAXX 20144 07335 12100 81914 10140 20120 39916 40058 58023 60015 76066 8651/ 91400=
07335,1999-04-20 15:00:00,14,1004.8,-2.5,88,12,500,25.928,,,190,,,,1,,,,,,60,wg-a,,,,AAXX 20154 07335 12200 81914 10140 20120 39906 40048 58025 60017 76066 8652/ 91500=
07335,1999-04-20 16:00:00,13,1004.5,-2.2,100,13,4000,25.928,,,190,,,1,,,,,,,10,wg-a,,,,AAXX 20164 07335 12140 81914 10130 20130 39903 40045 56022 60015 71066 885// 91600=
07335,1999-04-20 17:00:00,14,1003.7,-2,94,13,4000,25.928,,,190,,,1,,,,,,,10,wg-a,,,,AAXX 20174 07335 12140 81914 10140 20130 39896 40037 56020 60015 71066 8657/ 91700=
07335,1999-04-20 18:00:00,13,1004.1,-0.7,100,13,0,18.52,,,200,9.8,13.7,,,,,,,,,wg-a,,,,AAXX 20184 07335 32/// /2010 10130 20130 39899 40041 55007 91800 333 10137 20098=
07335,1999-04-21 00:00:00,11,1006.3,1.3,94,10,0,18.52,,,240,,,,,,,,,,,wg-a,,,,AAXX 21004 07335 32/// /2410 10110 20100 39920 40063 53013 90000=
07335,1999-04-21 04:00:00,11,1006.6,0.1,87,9,12000,22.224,,,210,,,,,,,,,,0,wg-a,,,,AAXX 21044 07335 02462 72112 10110 20090 39923 40066 50001 61000 700// 875// 90400 333 ////=
07335,1999-04-21 05:00:00,10,1006.6,0,93,9,10000,18.52,,,210,,,,,,,,,,0,wg-a,,,,AAXX 21054 07335 32160 72110 10100 20090 39922 40066 50000 700// 877// 90500=
07335,1999-04-21 06:00:00,11,1006.5,-0.2,94,10,7000,22.224,,,200,10.3,13.4,,,,,11,,,15,wg-a,,,,AAXX 21064 07335 12157 72012 10110 20100 39922 40065 56002 60114 71522 875// 90600 333 10134 20103=
07335,1999-04-21 07:00:00,11,1006.6,-0,94,10,6000,22.224,,,210,,,,,,,,,,60,wg-a,,,,AAXX 21074 07335 02156 72112 10110 20100 39923 40066 55000 61000 76062 875// 90700 333 ////=
07335,1999-04-21 08:00:00,12,1006.6,0.1,88,10,7000,25.928,,,210,,,0,,,,,,,25,wg-a,,,,AAXX 21084 07335 12257 52114 10120 20100 39923 40066 52001 60005 72586 85800 90800=
07335,1999-04-21 09:00:00,14,1006.5,0.1,77,10,10000,29.632,,,230,,,,0,,,,,,1,wg-a,,,,AAXX 21094 07335 12460 /2316 10140 20100 39923 40065 51001 60007 70186 85200 90900=
07335,1999-04-21 10:00:00,15,1006.3,-0.1,72,10,12000,35.188,,61.116,240,,,,,,,,,,0,wg-a,,,,AAXX 21104 07335 32562 52419 10150 20100 39922 40063 58001 700// 85800 91000 333 91033=
07335,1999-04-21 11:00:00,12,1006.8,0.2,88,10,7000,31.484,,57.412,230,,,1,,,,,,,80,wg-a,,,,AAXX 21114 07335 12157 72317 10120 20100 39925 40068 53002 60015 78086 878// 91100 333 91031=
07335,1999-04-21 12:00:00,13,1006.6,0.1,82,10,12000,35.188,,55.56,230,,,,2,,,,,,25,wg-a,,,,AAXX 21124 07335 12462 62319 10130 20100 39924 40066 52001 60027 72586 84963 91200 333 91030=
07335,1999-04-21 13:00:00,14,1006.6,0.2,72,9,12000,38.892,,61.116,250,,,,,,,,,,25,wg-a,,,,AAXX 21134 07335 02562 /2521 10140 20090 39924 40066 51002 61000 72586 86200 91300 333 //// 91033=
07335,1999-04-21 14:00:00,14,1006.7,-0,82,11,10000,38.892,,61.116,260,,,0,,,,,,,25,wg-a,,,,AAXX 21144 07335 12160 62621 10140 20110 39925 40067 55000 60005 72586 86800 91400 333 91033=
07335,1999-04-21 15:00:00,13,1006.9,0.3,82,10,10000,35.188,,,250,,,,0,,,,,,80,wg-a,,,,AAXX 21154 07335 12560 62519 10130 20100 39927 40069 53003 60007 78086 85962 91500=
07335,1999-04-21 16:00:00,14,1007.4,0.8,72,9,12000,38.892,,57.412,250,,,,,,,,,,25,wg-a,,,,AAXX 21164 07335 02562 72521 10140 20090 39932 40074 53008 61000 72586 84202 91600 333 //// 91031=
07335,1999-04-21 17:00:00,13,1007.9,1.2,77,9,15000,31.484,,51.856,250,,,,,,,,,,0,wg-a,,,,AAXX 21174 07335 32565 /2517 10130 20090 39937 40079 53012 700// 83238 91700 333 91028=
07335,1999-04-21 18:00:00,12,1008.6,1.6,82,9,0,29.632,,,240,10.5,15.1,,,,,,,,,wg-a,,,,AAXX 21184 07335 02/// /2416 10120 20090 39943 40086 53016 61000 91800 333 10151 20105 ////=
07335,1999-04-22 00:00:00,10,1011.3,0.7,87,8,0,25.928,,,240,,,,,,,,,,,wg-a,,,,AAXX 22004 07335 32/// /2414 10100 20080 39969 40113 52007 90000=
07335,1999-04-22 04:00:00,10,1012,0.7,93,9,7000,18.52,,,220,,,0,,,,,,,61,wg-a,,,,AAXX 22044 07335 12257 82210 10100 20090 39975 40120 52007 60005 76162 875// 90400=
07335,1999-04-22 05:00:00,10,1012.2,0.6,93,9,500,18.52,,,230,,,2,,,,,,,61,wg-a,,,,AAXX 22054 07335 12100 72310 10100 20090 39977 40122 53006 60025 76166 875// 90500=
07335,1999-04-22 06:00:00,10,1012.6,0.9,93,9,10000,18.52,,,210,9.4,12.3,,2,,,5,,,25,wg-a,,,,AAXX 22064 07335 02360 /2110 10100 20090 39981 40126 53009 60054 72586 83202 90600 333 10123 20094 60027=
07335,1999-04-22 07:00:00,10,1013.1,1.1,93,9,7000,22.224,,,210,,,0,,,,,,,80,wg-a,,,,AAXX 22074 07335 12157 72112 10100 20090 39986 40131 53011 60005 78086 872// 90700=
07335,1999-04-22 08:00:00,10,1013.5,1.3,93,9,10000,11.112,,,210,,,5,,,,,,,25,wg-a,,,,AAXX 22084 07335 12560 72106 10100 20090 39990 40135 52013 60055 72586 84362 90800=
07335,1999-04-22 09:00:00,12,1013.7,1.2,88,10,12000,29.632,,,240,,,,5,,,,,,1,wg-a,,,,AAXX 22094 07335 12462 /2416 10120 20100 39993 40137 51012 60057 70186 85230 90900=
07335,1999-04-22 10:00:00,14,1013.9,1,72,9,15000,25.928,,,260,,,,,,,,,,0,wg-a,,,,AAXX 22104 07335 32465 42614 10140 20090 39996 40139 51010 700// 84802 91000=
07335,1999-04-22 11:00:00,11,1014.6,1.2,87,9,500,29.632,,,270,,,0,,,,,,,80,wg-a,,,,AAXX 22114 07335 12100 72716 10110 20090 30002 40146 53012 60005 78086 878// 91100=
07335,1999-04-22 12:00:00,14,1014.2,0.6,77,10,20000,29.632,,,250,,,,1,,,,,,25,wg-a,,,,AAXX 22124 07335 12170 52516 10140 20100 39999 40142 50006 60017 72586 84902 91200=
07335,1999-04-22 13:00:00,15,1014.4,0.5,59,7,20000,31.484,,,270,,,,,,,,,,0,wg-a,,,,AAXX 22134 07335 32570 42717 10150 20070 30001 40144 51005 700// 83962 91300=
07335,1999-04-22 14:00:00,15,1014.5,-0,63,8,15000,29.632,,,250,,,,,,,,,,15,wg-a,,,,AAXX 22144 07335 32565 62516 10150 20080 30002 40145 55000 71511 85802 91400=
07335,1999-04-22 15:00:00,15,1014.6,0.4,59,7,15000,31.484,,,250,,,,,,,,,,15,wg-a,,,,AAXX 22154 07335 32565 62517 10150 20070 30003 40146 51004 71511 85802 91500=
07335,1999-04-22 16:00:00,14,1014.9,0.5,77,10,15000,14.816,,,270,,,,,,,,,,25,wg-a,,,,AAXX 22164 07335 02565 52708 10140 20100 30006 40149 53005 61000 72586 85302 91600 333 ////=
07335,1999-04-22 17:00:00,13,1014.9,0.4,77,9,20000,22.224,,,240,,,,,,,,,,0,wg-a,,,,AAXX 22174 07335 32570 52412 10130 20090 30006 40149 51004 700// 85802 91700=
07335,1999-04-22 18:00:00,12,1015.1,0.4,76,8,0,25.928,,,250,8.6,15.7,,,,,,,,,wg-a,,,,AAXX 22184 07335 32/// /2514 10120 20080 30007 40151 51004 91800 333 10157 20086=
07335,1999-04-23 00:00:00,9,1012.9,-2.1,93,8,0,11.112,,,170,,,,,,,,,,,wg-a,,,,AAXX 23004 07335 32/// /1706 10090 20080 39984 40129 58021 90000=
07335,1999-04-23 04:00:00,9,1009.1,-2.6,93,8,7000,18.52,,,170,,,1,,,,,,,61,wg-a,,,,AAXX 23044 07335 12157 81710 10090 20080 39946 40091 56026 60015 76162 875// 90400=
07335,1999-04-23 05:00:00,10,1008.3,-2.2,93,9,10000,22.224,,,180,,,,,,,,,,21,wg-a,,,,AAXX 23054 07335 02160 81812 10100 20090 39939 40083 58022 61000 72162 8557/ 90500 333 ////=
07335,1999-04-23 06:00:00,10,1007.8,-2.1,93,9,10000,29.632,,,190,8.2,12.4,,1,,,8,,,1,wg-a,,,,AAXX 23064 07335 02260 71916 10100 20090 39934 40078 56021 60084 70162 8557/ 90600 333 10124 20082 60017=
07335,1999-04-23 07:00:00,11,1007.4,-1.5,87,9,10000,29.632,,,210,,,0,,,,,,,21,wg-a,,,,AAXX 23074 07335 12260 72116 10110 20090 39931 40074 56015 60005 72162 878// 90700=
07335,1999-04-23 08:00:00,11,1007.5,-0.7,87,9,10000,35.188,,,220,,,,,,,,,,21,wg-a,,,,AAXX 23084 07335 02360 72219 10110 20090 39932 40075 55007 61000 72162 878// 90800 333 ////=
07335,1999-04-23 09:00:00,12,1007.5,-0.2,71,7,10000,42.596,,59.264,230,,,,0,,,,,,25,wg-a,,,,AAXX 23094 07335 12460 72323 10120 20070 39932 40075 56002 60007 72586 878// 90900 333 91032=
07335,1999-04-23 10:00:00,12,1008.3,0.9,71,7,10000,53.708,,81.488,240,,,,,,,,,,0,wg-a,,,,AAXX 23104 07335 32560 62429 10120 20070 39940 40083 53009 700// 86800 91000 333 91044=
07335,1999-04-23 11:00:00,11,1008.8,1.2,82,8,8000,42.596,,,240,,,,,,,,,,60,wg-a,,,,AAXX 23114 07335 02258 72423 10110 20080 39944 40088 53012 61000 76062 878// 91100 333 ////=
07335,1999-04-23 12:00:00,11,1009.4,1.8,76,7,8000,53.708,,79.636,250,,,,,,,,,,60,wg-a,,,,AAXX 23124 07335 02558 72529 10110 20070 39950 40094 51018 61000 76086 878// 91200 333 //// 91043=
07335,1999-04-23 13:00:00,9,1010.5,2,87,7,8000,42.596,,68.524,250,,,0,,,,,,,61,wg-a,,,,AAXX 23134 07335 12158 82523 10090 20070 39960 40105 53020 60005 76166 8552/ 91300 333 91037=
07335,1999-04-23 14:00:00,9,1011.4,2.5,87,7,8000,42.596,,61.116,260,,,0,,,,,,,61,wg-a,,,,AAXX 23144 07335 12158 82623 10090 20070 39969 40114 53025 60005 76166 8457/ 91400 333 91033=
07335,1999-04-23 15:00:00,10,1012,2.5,87,8,8000,31.484,,,260,,,,1,,,,,,60,wg-a,,,,AAXX 23154 07335 12458 82617 10100 20080 39975 40120 51025 60017 76066 8257/ 91500=
07335,1999-04-23 16:00:00,11,1012.5,2.1,71,6,12000,35.188,,,270,,,,,,,,,,21,wg-a,,,,AAXX 23164 07335 02562 72719 10110 20060 39981 40125 51021 61000 72162 8257/ 91600 333 ////=
07335,1999-04-23 17:00:00,12,1013.6,2.3,67,6,15000,25.928,,,270,,,,,,,,,,15,wg-a,,,,AAXX 23174 07335 32565 72714 10120 20060 39992 40136 53023 71522 8287/ 91700=
07335,1999-04-23 18:00:00,11,1014.5,2.5,66,5,0,29.632,,,270,8.8,11.8,,,,,,,,,wg-a,,,,AAXX 23184 07335 02/// /2716 10110 20050 30000 40145 53025 61000 91800 333 10118 20088 ////=
07335,1999-04-24 00:00:00,6,1018.1,1.1,100,6,0,18.52,,,250,,,,,,,,,,,wg-a,,,,AAXX 24004 07335 32/// /2510 10060 20060 30034 40181 51011 90000=
07335,1999-04-24 04:00:00,6,1018.2,-0,93,5,15000,11.112,,,240,,,,,,,,,,0,wg-a,,,,AAXX 24044 07335 32665 /2406 10060 20050 30034 40182 55000 700// 85500 90400=
07335,1999-04-24 05:00:00,5,1018.7,0.6,93,4,20000,14.816,,,250,,,,,,,,,,0,wg-a,,,,AAXX 24054 07335 32670 /2508 10050 20040 30039 40187 53006 700// 81500 90500=
07335,1999-04-24 06:00:00,5,1019,0.8,100,5,20000,7.408,,,230,4,10.9,,,,,1,,,0,wg-a,,,,AAXX 24064 07335 12670 /2304 10050 20050 30042 40190 53008 60014 700// 81500 90600 333 10109 20040=
07335,1999-04-24 07:00:00,8,1019.4,1.3,93,7,25000,11.112,,,250,,,,,,,,,,0,wg-a,,,,AAXX 24074 07335 32675 /2506 10080 20070 30047 40194 52013 700// 81500 90700=
07335,1999-04-24 08:00:00,10,1019.4,0.9,82,7,25000,11.112,,,280,,,,,,,,,,0,wg-a,,,,AAXX 24084 07335 32475 42806 10100 20070 30048 40194 51009 700// 82830 90800=
07335,1999-04-24 09:00:00,11,1019.4,0.7,82,8,25000,14.816,,,300,,,,,,,,,,0,wg-a,,,,AAXX 24094 07335 32475 53008 10110 20080 30049 40194 51007 700// 84230 90900=
07335,1999-04-24 10:00:00,12,1019.6,0.4,62,5,25000,14.816,,,310,,,,,,,,,,0,wg-a,,,,AAXX 24104 07335 32575 73108 10120 20050 30051 40196 53004 700// 85830 91000=
07335,1999-04-24 11:00:00,12,1019.5,0.2,67,6,20000,11.112,,,290,,,,,,,,,,25,wg-a,,,,AAXX 24114 07335 02570 62906 10120 20060 30050 40195 50002 61000 72586 85830 91100 333 ////=
07335,1999-04-24 12:00:00,13.2,1019,-0.3,57,4.9,30000,14.816,,,320,,,,,,,,,,1,og-post,,,,AAXX 24124 07335 /1580 53208 10132 20049 30046 40190 58003 69901 70186 84800 333 69907 84830=
07335,1999-04-24 13:00:00,15,1018.7,-0.7,51,5,500,14.816,,,340,,,,,,,,,,0,wg-a,,,,AAXX 24134 07335 32600 53408 10150 20050 30044 40187 58007 700// 8/800 91300=
07335,1999-04-24 14:00:00,15,1018.4,-0.9,48,4,500,11.112,,,260,,,,,,,,,,0,wg-a,,,,AAXX 24144 07335 32600 52606 10150 20040 30041 40184 56009 700// 8/800 91400=
07335,1999-04-24 15:00:00,14,1018.4,-0.6,58,6,500,22.224,,,250,,,,,,,,,,0,wg-a,,,,AAXX 24154 07335 32600 62512 10140 20060 30040 40184 56006 700// 86800 91500=
07335,1999-04-24 18:00:00,13,1018,-0.4,67,7,0,11.112,,,240,5.1,15.8,,,,,,,,,wg-a,,,,AAXX 24184 07335 32/// /2406 10130 20070 30036 40180 56004 91800 333 10158 20051=
07335,1999-04-25 00:00:00,5,1017.9,-0.9,100,5,0,0,,,0,,,,,,,,,,,wg-a,,,,AAXX 25004 07335 32/// /0000 10050 20050 30031 40179 58009 90000=
07335,1999-04-25 04:00:00,5,1015.2,-1.7,100,5,15000,7.408,,,160,,,,,,,,,,0,wg-a,,,,AAXX 25044 07335 32/65 61604 10050 20050 30004 40152 58017 700// 81032 90400=
07335,1999-04-25 05:00:00,6,1014.7,-1.8,100,6,20000,7.408,,,140,,,,,,,,,,0,wg-a,,,,AAXX 25054 07335 32/70 61404 10060 20060 30000 40147 56018 700// 81032 90500=
07335,1999-04-25 06:00:00,7,1014.5,-1.3,93,6,20000,7.408,,,160,2.7,13,,,,,,,,0,wg-a,,,,AAXX 25064 07335 12/70 71604 10070 20060 39999 40145 56013 60004 700// 84032 90600 333 10130 20027=
07335,1999-04-25 07:00:00,8,1014.7,-0.3,87,6,25000,7.408,,,160,,,,,,,,,,0,wg-a,,,,AAXX 25074 07335 32/75 71604 10080 20060 30001 40147 55003 700// 8703/ 90700=
07335,1999-04-25 08:00:00,11,1014.1,-0.4,76,7,500,11.112,,,160,,,,,,,,,,0,wg-a,,,,AAXX 25084 07335 32/00 61606 10110 20070 39996 40141 58004 700// 83032 90800=
07335,1999-04-25 09:00:00,14,1013.2,-1,63,7,500,14.816,,,150,,,,,,,,,,0,wg-a,,,,AAXX 25094 07335 32/00 71508 10140 20070 39989 40132 58010 700// 83032 90900=
07335,1999-04-25 10:00:00,15,1012.8,-1.6,55,6,500,14.816,,,180,,,,,,,,,,0,wg-a,,,,AAXX 25104 07335 32/00 71808 10150 20060 39985 40128 56016 700// 8703/ 91000=
07335,1999-04-25 11:00:00,16,1012.2,-1.6,48,5,500,14.816,,,160,,,,,,,,,,0,wg-a,,,,AAXX 25114 07335 32600 71608 10160 20050 39980 40122 56016 700// 8123/ 91100=
07335,1999-04-25 12:00:00,17,1011.5,-1.5,45,5,500,14.816,,,180,,,,,,,,,,0,wg-a,,,,AAXX 25124 07335 32600 71808 10170 20050 39974 40115 58015 700// 81232 91200=
07335,1999-04-25 13:00:00,17,1011.1,-1.5,48,6,500,11.112,,,140,,,,,,,,,,0,wg-a,,,,AAXX 25134 07335 32600 71406 10170 20060 39970 40111 56015 700// 81232 91300=
07335,1999-04-25 14:00:00,17,1010.6,-1.5,45,5,500,11.112,,,160,,,,,,,,,,0,wg-a,,,,AAXX 25144 07335 32600 71606 10170 20050 39965 40106 56015 700// 82232 91400=
07335,1999-04-25 15:00:00,17,1010.2,-1.3,45,5,500,11.112,,,210,,,,,,,,,,0,wg-a,,,,AAXX 25154 07335 32600 72106 10170 20050 39961 40102 57013 700// 8327/ 91500=
07335,1999-04-25 18:00:00,14,1009.9,-0.4,77,10,0,18.52,,,300,7.2,17.7,,,,,,,,,wg-a,,,,AAXX 25184 07335 32/// /3010 10140 20100 39957 40099 55004 91800 333 10177 20072=
07335,1999-04-26 00:00:00,9,1011.4,-0.6,100,9,0,3.704,,,210,,,,,,,,,,,wg-a,,,,AAXX 26004 07335 32/// /2102 10090 20090 39969 40114 58006 90000=
07335,1999-04-26 04:00:00,9,1010.6,-0.5,100,9,8000,3.704,,,240,,,,,,,,,,61,wg-a,,,,AAXX 26044 07335 02158 82402 10090 20090 39961 40106 58005 61000 76162 885// 90400 333 ////=
07335,1999-04-26 05:00:00,9,1010.4,-0.8,100,9,10000,7.408,,,170,,,,,,,,,,21,wg-a,,,,AAXX 26054 07335 02160 71704 10090 20090 39959 40104 56008 61000 72162 875// 90500 333 ////=
07335,1999-04-26 06:00:00,10,1010.6,-0.2,100,10,8000,7.408,,,160,6.5,14,,,,,,,,2,wg-a,,,,AAXX 26064 07335 02158 71604 10100 20100 39962 40106 55002 60004 70262 875// 90600 333 10140 20065 61000=
07335,1999-04-26 07:00:00,10,1010.8,0.3,100,10,8000,7.408,,,200,,,,,,,,,,0,wg-a,,,,AAXX 26074 07335 32258 72004 10100 20100 39964 40108 53003 700// 86802 90700=
07335,1999-04-26 08:00:00,11,1011,0.7,94,10,12000,7.408,,,200,,,,,,,,,,0,wg-a,,,,AAXX 26084 07335 32462 62004 10110 20100 39966 40110 51007 700// 86802 90800=
07335,1999-04-26 09:00:00,12,1010.8,0.3,82,9,15000,3.704,,,190,,,,,,,,,,0,wg-a,,,,AAXX 26094 07335 32465 61902 10120 20090 39965 40108 50003 700// 85802 90900=
07335,1999-04-26 10:00:00,14,1010.7,0.1,67,8,15000,3.704,,,110,,,,,,,,,,0,wg-a,,,,AAXX 26104 07335 32565 61102 10140 20080 39965 40107 51001 700// 86802 91000=
07335,1999-04-26 11:00:00,14,1010.5,-0.4,63,7,15000,7.408,,,60,,,,,,,,,,0,wg-a,,,,AAXX 26114 07335 32565 70604 10140 20070 39962 40105 58004 700// 878// 91100=
07335,1999-04-26 12:00:00,14,1010.3,-0.4,67,8,15000,11.112,,,80,,,,,,,,,,0,wg-a,,,,AAXX 26124 07335 32565 70806 10140 20080 39961 40103 58004 700// 878// 91200=
07335,1999-04-26 13:00:00,15,1010.4,-0.3,63,8,15000,11.112,,,80,,,,,,,,,,0,wg-a,,,,AAXX 26134 07335 32565 70806 10150 20080 39962 40104 55003 700// 878// 91300=
07335,1999-04-26 14:00:00,14,1010.3,-0.1,63,7,15000,14.816,,,70,,,,,,,,,,0,wg-a,,,,AAXX 26144 07335 32565 70708 10140 20070 39961 40103 57001 700// 878// 91400=
07335,1999-04-26 15:00:00,14,1010.2,-0.1,67,8,15000,11.112,,,50,,,,,,,,,,0,wg-a,,,,AAXX 26154 07335 32565 70506 10140 20080 39960 40102 58001 700// 878// 91500=
07335,1999-04-26 16:00:00,14,1010,-0.4,72,9,15000,11.112,,,80,,,,,,,,,,0,wg-a,,,,AAXX 26164 07335 32565 70806 10140 20090 39958 40100 58004 700// 878// 91600=
07335,1999-04-26 17:00:00,14,1010.2,-0.2,67,8,15000,14.816,,,60,,,,,,,,,,0,wg-a,,,,AAXX 26174 07335 32565 70608 10140 20080 39959 40102 55002 700// 8287/ 91700=
07335,1999-04-26 18:00:00,13,1010.3,-0,77,9,0,14.816,,,70,9.8,14.9,,,,,,,,,wg-a,,,,AAXX 26184 07335 32/// /0708 10130 20090 39960 40103 55000 91800 333 10149 20098=
07335,1999-04-27 00:00:00,11,1011.5,0.1,100,11,0,7.408,,,60,,,,,,,,,,,wg-a,,,,AAXX 27004 07335 32/// /0604 10110 20110 39971 40115 51001 90000=
07335,1999-04-27 04:00:00,10,1011.6,0.4,100,10,8000,11.112,,,70,,,,,,,,,,0,wg-a,,,,AAXX 27044 07335 32158 80706 10100 20100 39972 40116 52004 700// 887// 90400=
07335,1999-04-27 07:00:00,12,1013.4,1.8,82,9,10000,7.408,,,110,,,,,,,,,,0,wg-a,,,,AAXX 27074 07335 32360 21104 10120 20090 39990 40134 53018 700// 81102 90700=
07335,1999-04-27 08:00:00,14,1013.9,1.9,72,9,12000,7.408,,,90,,,,,,,,,,0,wg-a,,,,AAXX 27084 07335 32462 20904 10140 20090 39996 40139 52019 700// 81102 90800=
07335,1999-04-27 09:00:00,15,1014.1,1.6,67,9,15000,7.408,,,80,,,,,,,,,,0,wg-a,,,,AAXX 27094 07335 32565 20804 10150 20090 39999 40141 51016 700// 81102 90900=
07335,1999-04-27 10:00:00,17,1014.2,1,59,9,15000,11.112,,,100,,,,,,,,,,0,wg-a,,,,AAXX 27104 07335 32565 31006 10170 20090 30000 40142 51010 700// 82132 91000=
07335,1999-04-27 11:00:00,18,1014,0.3,56,9,18000,14.816,,,110,,,,,,,,,,0,wg-a,,,,AAXX 27114 07335 32668 51108 10180 20090 39999 40140 50003 700// 82282 91100=
07335,1999-04-27 12:00:00,18,1013.9,-0.1,56,9,18000,14.816,,,100,,,,,,,,,,0,wg-a,,,,AAXX 27124 07335 32668 51008 10180 20090 39998 40139 58001 700// 81282 91200=
07335,1999-04-27 13:00:00,19,1014,-0.1,46,7,18000,18.52,,,90,,,,,,,,,,0,wg-a,,,,AAXX 27134 07335 32768 50910 10190 20070 39999 40140 55001 700// 82282 91300=
07335,1999-04-27 15:00:00,20,1013.6,-0.2,46,8,18000,18.52,,,70,,,,,,,,,,15,wg-a,,,,AAXX 27154 07335 32668 50710 10200 20080 39996 40136 58002 71522 83362 91500=
07335,1999-04-27 16:00:00,19,1013.6,-0.4,56,10,18000,22.224,,,50,,,,,,,,,,15,wg-a,,,,AAXX 27164 07335 32668 40512 10190 20100 39995 40136 56004 71511 82962 91600=
07335,1999-04-27 17:00:00,19,1013.5,-0.2,49,8,20000,18.52,,,60,,,,,,,,,,0,wg-a,,,,AAXX 27174 07335 32670 40610 10190 20080 39994 40135 58002 700// 81962 91700=
07335,1999-04-27 18:00:00,18,1013.9,0.2,59,10,0,18.52,,,60,10.3,20,,,,,,,,,wg-a,,,,AAXX 27184 07335 32/// /0610 10180 20100 39998 40139 53002 91800 333 10200 20103=
07335,1999-04-28 00:00:00,12,1016,-0.2,94,11,0,11.112,,,30,,,,,,,,,,,wg-a,,,,AAXX 28004 07335 32/// /0306 10120 20110 30016 40160 56002 90000=
07335,1999-04-28 04:00:00,11,1014.7,-0.7,94,10,6000,11.112,,,60,,,,,,,,,,0,wg-a,,,,AAXX 28044 07335 32756 70606 10110 20100 30003 40147 55007 700// 875// 90400=
07335,1999-04-28 05:00:00,11,1014.7,-0.2,94,10,500,14.816,,,60,,,,,,,,,,0,wg-a,,,,AAXX 28054 07335 32/00 /0608 10110 20100 30003 40147 56002 700// 85030 90500=
07335,1999-04-28 06:00:00,12,1015.1,0.5,88,10,500,14.816,,,80,11.1,17.8,,,,,1,,,0,wg-a,,,,AAXX 28064 07335 12/00 70808 10120 20100 30007 40151 53005 60014 700// 8703/ 90600 333 10178 20111=
07335,1999-04-28 07:00:00,12,1015.2,0.5,88,10,500,18.52,,,60,,,,,,,,,,0,wg-a,,,,AAXX 28074 07335 32/00 70610 10120 20100 30008 40152 53005 700// 8708/ 90700=
07335,1999-04-28 08:00:00,13,1015,0.3,88,11,500,22.224,,,60,,,,,,,,,,0,wg-a,,,,AAXX 28084 07335 32300 /0612 10130 20110 30006 40150 50003 700// 81180 90800=
07335,1999-04-28 09:00:00,13,1015.1,0.1,82,10,8000,18.52,,,80,,,,,,,,,,0,wg-a,,,,AAXX 28094 07335 32458 70810 10130 20100 30008 40151 53001 700// 8158/ 90900=
07335,1999-04-28 10:00:00,15,1014.8,-0.2,77,11,10000,18.52,,,60,,,,,,,,,,0,wg-a,,,,AAXX 28104 07335 32460 70610 10150 20110 30006 40148 57002 700// 81108 91000=
07335,1999-04-28 11:00:00,17,1013.8,-0.9,68,11,12000,22.224,,,80,,,,,,,,,,0,wg-a,,,,AAXX 28114 07335 32562 /0812 10170 20110 39997 40138 58009 700// 81102 91100=
07335,1999-04-28 12:00:00,17,1013.3,-1.6,68,11,12000,22.224,,,70,,,,,,,,,,0,wg-a,,,,AAXX 28124 07335 32562 70712 10170 20110 39992 40133 58016 700// 85202 91200=
07335,1999-04-28 13:00:00,18,1012.5,-2.2,64,11,12000,31.484,,50.004,80,,,,,,,,,,0,wg-a,,,,AAXX 28134 07335 32562 70817 10180 20110 39984 40125 56022 700// 83232 91300 333 91027=
07335,1999-04-28 14:00:00,18,1011.7,-2.1,59,10,12000,29.632,,,90,,,,,,,,,,0,wg-a,,,,AAXX 28144 07335 32562 80916 10180 20100 39976 40117 58021 700// 8321/ 91400=
07335,1999-04-28 15:00:00,17,1011.2,-2.1,68,11,12000,25.928,,,80,,,,,,,,,,61,wg-a,,,,AAXX 28154 07335 02562 80814 10170 20110 39971 40112 56021 61000 76162 8122/ 91500 333 ////=
07335,1999-04-28 16:00:00,18,1010,-2.4,64,11,12000,22.224,,,70,,,,,,,,,,21,wg-a,,,,AAXX 28164 07335 02562 70712 10180 20110 39960 40100 58024 61000 72162 8118/ 91600 333 ////=
07335,1999-04-28 17:00:00,18,1009.5,-2.1,64,11,12000,22.224,,,70,,,,,,,,,,0,wg-a,,,,AAXX 28174 07335 32/62 80712 10180 20110 39955 40095 57021 700// 8708/ 91700=
07335,1999-04-28 18:00:00,17.8,1008.6,-2.5,62,10.4,,25.928,57.412,,60,11.6,18.2,,,,,,,,,og-post,,,,AAXX 28184 07335 /6/// /0614 10178 20104 39946 40086 56025 69902 333 10182 20116 69907 91131=
07335,1999-04-29 00:00:00,16,1007.4,-1.1,68,10,0,22.224,,,70,,,,,,,,,,,wg-a,,,,AAXX 29004 07335 32/// /0712 10160 20100 39933 40074 58011 90000=
07335,1999-04-29 04:00:00,14,1006.2,-0.7,77,10,15000,18.52,,,70,,,,,,,,,,21,wg-a,,,,AAXX 29044 07335 32765 80710 10140 20100 39920 40062 56007 72122 8258/ 90400=
07335,1999-04-29 05:00:00,14,1006.1,-0.5,72,9,15000,22.224,,,60,,,,,,,,,,0,wg-a,,,,AAXX 29054 07335 32765 80612 10140 20090 39919 40061 56005 700// 8258/ 90500=
07335,1999-04-29 06:00:00,13,1006.4,0.1,82,10,15000,18.52,,,70,13.4,17.8,,,,,,,,3,wg-a,,,,AAXX 29064 07335 02765 80710 10130 20100 39922 40064 53001 61000 70362 8358/ 90600 333 10178 20134 6100=
07335,1999-04-29 07:00:00,13,1006.6,0.4,77,9,15000,18.52,,,70,,,,,,,,,,0,wg-a,,,,AAXX 29074 07335 32765 80710 10130 20090 39924 40066 53004 700// 8458/ 90700=
07335,1999-04-29 08:00:00,14,1006.9,0.8,77,10,15000,18.52,,,80,,,,,,,,,,0,wg-a,,,,AAXX 29084 07335 32765 70810 10140 20100 39927 40069 52008 700// 8458/ 90800=
07335,1999-04-29 09:00:00,15,1007.2,0.9,72,10,15000,22.224,,,100,,,,,,,,,,0,wg-a,,,,AAXX 29094 07335 32765 71012 10150 20100 39931 40072 53009 700// 8558/ 90900=
07335,1999-04-29 10:00:00,18,1007,0.6,64,11,20000,14.816,,,90,,,,,,,,,,0,wg-a,,,,AAXX 29104 07335 32770 70908 10180 20110 39930 40070 50006 700// 83582 91000=
07335,1999-04-29 11:00:00,16,1008,1.2,82,13,8000,18.52,,,150,,,0,,,,,,,61,wg-a,,,,AAXX 29114 07335 12458 81510 10160 20130 39939 40080 53012 60005 76162 8657/ 91100=
07335,1999-04-29 12:00:00,17,1007.4,0.3,82,14,15000,11.112,,,240,,,,0,,,,,,21,wg-a,,,,AAXX 29124 07335 12565 72406 10170 20140 39934 40074 50003 60007 72162 8597/ 91200=
07335,1999-04-29 13:00:00,14,1008.7,1.5,88,12,500,14.816,,,170,,,1,,,,,,,80,wg-a,,,,AAXX 29134 07335 12200 71708 10140 20120 39945 40087 53015 60015 78098 8599/ 91300=
07335,1999-04-29 14:00:00,14,1009.1,1,94,13,10000,7.408,,,200,,,,,,,,,,29,wg-a,,,,AAXX 29144 07335 02460 72004 10140 20130 39949 40091 53010 61000 72998 8599/ 91400 333 ////=
07335,1999-04-29 15:00:00,15,1009.3,1.8,82,12,12000,14.816,,,210,,,,1,,,,,,3,wg-a,,,,AAXX 29154 07335 12462 72108 10150 20120 39952 40093 51018 60017 70398 83993 91500=
07335,1999-04-29 16:00:00,16,1009.6,1,77,12,15000,14.816,,,220,,,,,,,,,,0,wg-a,,,,AAXX 29164 07335 32565 72208 10160 20120 39955 40096 51010 700// 83893 91600=
07335,1999-04-29 17:00:00,17,1009.8,0.8,68,11,20000,14.816,,,240,,,,,,,,,,0,wg-a,,,,AAXX 29174 07335 32570 72408 10170 20110 39957 40098 51008 700// 83893 91700=
07335,1999-04-29 18:00:00,16,1010.1,0.8,77,12,0,3.704,,,10,13.3,18.5,,,,,,,,,wg-a,,,,AAXX 29184 07335 32/// /0102 10160 20120 39960 40101 52008 91800 333 10185 20133=
07335,1999-04-30 00:00:00,7,1013.6,1,100,7,600,3.704,,,350,,,,,,,,,,,wg-a,,,,AAXX 30004 07335 32/06 /3502 10070 20070 39990 40136 51010 90000=
07335,1999-04-30 04:00:00,7,1013.8,0.2,93,6,15000,3.704,,,250,,,,,,,,,,0,wg-a,,,,AAXX 30044 07335 32765 72502 10070 20060 39991 40138 50002 700// 8553/ 90400=
07335,1999-04-30 05:00:00,8,1014.3,0.7,93,7,7000,3.704,,,160,,,,,,,,,,11,wg-a,,,,AAXX 30054 07335 32757 71602 10080 20070 39997 40143 53007 71122 8353/ 90500=
07335,1999-04-30 06:00:00,8,1014.9,1.1,100,8,7000,3.704,,,170,6.3,16.2,,,,,2,,,0,wg-a,,,,AAXX 30064 07335 12757 71702 10080 20080 30003 40149 53011 60024 700// 81532 90600 333 10162 20063=
07335,1999-04-30 07:00:00,10,1015.5,1.9,100,10,8000,3.704,,,230,,,,,,,,,,0,wg-a,,,,AAXX 30074 07335 32/58 72302 10100 20100 30010 40155 53019 700// 83032 90700=
07335,1999-04-30 08:00:00,12,1016,1.9,100,12,8000,7.408,,,140,,,,,,,,,,0,wg-a,,,,AAXX 30084 07335 32/58 71404 10120 20120 30016 40160 52019 700// 81032 90800=
07335,1999-04-30 09:00:00,15,1016.2,1.6,82,12,10000,3.704,,,200,,,,,,,,,,0,wg-a,,,,AAXX 30094 07335 32/60 62002 10150 20120 30019 40162 51016 700// 80002 90900=
07335,1999-04-30 10:00:00,18,1016.3,1.2,68,12,15000,3.704,,,210,,,,,,,,,,0,wg-a,,,,AAXX 30104 07335 32565 /2102 10180 20120 30022 40163 51012 700// 81202 91000=
07335,1999-04-30 11:00:00,19,1016.1,0.5,60,11,25000,3.704,,,20,,,,,,,,,,0,wg-a,,,,AAXX 30114 07335 32675 /0202 10190 20110 30021 40161 50005 700// 82202 91100=
07335,1999-04-30 12:00:00,21,1015.8,-0.1,53,11,25000,7.408,,,90,,,,,,,,,,0,wg-a,,,,AAXX 30124 07335 32675 /0904 10210 20110 30018 40158 58001 700// 83202 91200=
07335,1999-04-30 13:00:00,20,1015.5,-0.7,53,10,25000,11.112,,,70,,,,,,,,,,0,wg-a,,,,AAXX 30134 07335 32675 /0706 10200 20100 30015 40155 58007 700// 83202 91300=
07335,1999-04-30 14:00:00,20,1015.2,-0.9,49,9,25000,3.704,,,330,,,,,,,,,,0,wg-a,,,,AAXX 30144 07335 32675 /3302 10200 20090 30012 40152 57009 700// 83202 91400=
07335,1999-04-30 15:00:00,21,1015,-0.8,49,10,25000,7.408,,,310,,,,,,,,,,0,wg-a,,,,AAXX 30154 07335 32675 /3104 10210 20100 30010 40150 56008 700// 83202 91500=
07335,1999-04-30 16:00:00,20,1015.1,-0.4,56,11,25000,7.408,,,10,,,,,,,,,,0,wg-a,,,,AAXX 30164 07335 32675 /0104 10200 20110 30011 40151 55004 700// 83202 91600=
07335,1999-04-30 17:00:00,20,1015,-0.2,56,11,25000,7.408,,,10,,,,,,,,,,0,wg-a,,,,AAXX 30174 07335 32675 60104 10200 20110 30010 40150 56002 700// 84802 91700=
07335,1999-04-30 18:00:00,21,1015.1,0.1,46,9,0,7.408,,,40,8.1,21.3,,,,,,,,,wg-a,,,,AAXX 30184 07335 32/// /0404 10210 20090 30011 40151 52001 91800 333 10213 20081=
07335,1999-05-01 00:00:00,9,1017.1,0.3,93,8,0,3.704,,,40,,,,,,,,,,,wg-a,,,,AAXX 01004 07335 32/// /0402 10090 20080 30025 40171 51003 90000=
07335,1999-05-01 04:00:00,7,1016.5,-0.2,100,7,15000,3.704,,,40,,,,,,,,,,0,wg-a,,,,AAXX 01044 07335 32/65 60402 10070 20070 30018 40165 58002 700// 81032 90400=
07335,1999-05-01 05:00:00,7,1016.9,0.2,93,6,12000,3.704,,,20,,,,,,,,,,11,wg-a,,,,AAXX 01054 07335 32/62 /0202 10070 20060 30022 40169 53002 71122 81032 90500=
07335,1999-05-01 06:00:00,9,1017.1,0.6,100,9,12000,3.704,,,30,6.5,20.8,,,,,,,,0,wg-a,,,,AAXX 01064 07335 12/62 60302 10090 20090 30025 40171 53006 60004 700// 81032 90600 333 10208 20065=
07335,1999-05-01 07:00:00,13,1016.9,0.8,88,11,18000,7.408,,,90,,,,,,,,,,0,wg-a,,,,AAXX 01074 07335 32/68 50904 10130 20110 30026 40169 51008 700// 82032 90700=
07335,1999-05-01 08:00:00,17,1016.9,0.5,72,12,25000,3.704,,,80,,,,,,,,,,0,wg-a,,,,AAXX 01084 07335 32/75 30802 10170 20120 30027 40169 51005 700// 80002 90800=
07335,1999-05-01 09:00:00,19,1016.7,0.1,60,11,25000,14.816,,,80,,,,,,,,,,0,wg-a,,,,AAXX 01094 07335 32/75 20808 10190 20110 30026 40167 50001 700// 80002 90900=
07335,1999-05-01 10:00:00,20,1016.7,0.1,49,9,500,11.112,,,80,,,,,,,,,,0,wg-a,,,,AAXX 01104 07335 32600 20806 10200 20090 30027 40167 52001 700// 81202 91000=
07335,1999-05-01 11:00:00,22,1016.3,-0.3,43,9,500,14.816,,,60,,,,,,,,,,0,wg-a,,,,AAXX 01114 07335 32600 /0608 10220 20090 30024 40163 58003 700// 81202 91100=
07335,1999-05-01 12:00:00,23,1016.1,-0.4,41,9,500,14.816,,,120,,,,,,,,,,0,wg-a,,,,AAXX 01124 07335 32700 11208 10230 20090 30022 40161 58004 700// 81102 91200=
07335,1999-05-01 15:00:00,23,1015.2,-0.9,44,10,500,11.112,,,80,,,,,,,,,,0,wg-a,,,,AAXX 01154 07335 32700 50806 10230 20100 30013 40152 58009 700// 82260 91500=
07335,1999-05-01 18:00:00,21,1015.1,-0.1,49,10,0,11.112,,,80,8.9,23.2,,,,,,,,,wg-a,,,,AAXX 01184 07335 32/// /0806 10210 20100 30012 40151 55001 91800 333 10232 20089=
07335,1999-05-02 00:00:00,11,1017,0.6,87,9,0,3.704,,,50,,,,,,,,,,,wg-a,,,,AAXX 02004 07335 32/// /0502 10110 20090 30025 40170 51006 90000=
07335,1999-05-02 04:00:00,12,1015.5,-1.1,82,9,15000,11.112,,,30,,,,,,,,,,0,wg-a,,,,AAXX 02044 07335 32/65 70306 10120 20090 30011 40155 56011 700// 80002 90400=
07335,1999-05-02 05:00:00,10,1015.8,-0.5,87,8,15000,7.408,,,20,,,,,,,,,,0,wg-a,,,,AAXX 02054 07335 32/65 70204 10100 20080 30013 40158 55005 700// 81032 90500=
07335,1999-05-02 06:00:00,12,1016,0.2,88,10,15000,11.112,,,30,10.1,21.4,,,,,,,,0,wg-a,,,,AAXX 02064 07335 12/65 70306 10120 20100 30016 40160 53002 60004 700// 81032 90600 333 10214 20101=
07335,1999-05-02 07:00:00,13,1016.2,0.8,88,11,15000,14.816,,,40,,,,,,,,,,0,wg-a,,,,AAXX 02074 07335 32/65 60408 10130 20110 30019 40162 53008 700// 81032 90700=
07335,1999-05-02 08:00:00,16,1016.2,0.7,72,11,10000,11.112,,,60,,,,,,,,,,,wg-a,,,,AAXX 02084 07335 32/60 /0606 10160 20110 30020 40162 51007 90800=
07335,1999-05-02 09:00:00,18,1015.9,0.2,64,11,15000,18.52,,,80,,,,,,,,,,0,wg-a,,,,AAXX 02094 07335 32/65 60810 10180 20110 30018 40159 50002 700// 81032 90900=
07335,1999-05-02 10:00:00,20,1015.4,-0.5,60,12,10000,18.52,,,60,,,,,,,,,,,wg-a,,,,AAXX 02104 07335 32/60 /0610 10200 20120 30014 40154 58005 91000=
07335,1999-05-02 11:00:00,22,1015.1,-0.8,53,12,25000,18.52,,,80,,,,,,,,,,0,wg-a,,,,AAXX 02114 07335 32/75 70810 10220 20120 30012 40151 57008 700// 81032 91100=
07335,1999-05-02 12:00:00,23,1014.8,-0.9,50,12,25000,22.224,,,80,,,,,,,,,,0,wg-a,,,,AAXX 02124 07335 32/75 70812 10230 20120 30009 40148 56009 700// 81032 91200=
07335,1999-05-02 13:00:00,24,1014.3,-0.9,47,12,25000,18.52,,,90,,,,,,,,,,0,wg-a,,,,AAXX 02134 07335 32675 70910 10240 20120 30005 40143 58009 700// 81132 91300=
07335,1999-05-02 14:00:00,24,1013.9,-1.1,47,12,25000,18.52,,,90,,,,,,,,,,0,wg-a,,,,AAXX 02144 07335 32675 70910 10240 20120 30001 40139 58011 700// 81132 91400=
07335,1999-05-02 15:00:00,24,1013.6,-1.1,47,12,25000,18.52,,,80,,,,,,,,,,0,wg-a,,,,AAXX 02154 07335 32775 70810 10240 20120 39998 40136 56011 700// 81132 91500=
07335,1999-05-02 18:00:00,22,1013.3,-0.4,53,12,0,11.112,,,60,11.5,24.5,,,,,,,,,wg-a,,,,AAXX 02184 07335 32/// /0606 10220 20120 39994 40133 58004 91800 333 10245 20115=
07335,1999-05-03 00:00:00,16,1014.9,0.1,82,13,0,11.112,,,30,,,,,,,,,,,wg-a,,,,AAXX 03004 07335 32/// /0306 10160 20130 30007 40149 50001 90000=
07335,1999-05-03 04:00:00,15,1013.9,-0.3,82,12,10000,11.112,,,150,,,,,,,,,,80,wg-a,,,,AAXX 03044 07335 02760 71506 10150 20120 39997 40139 55003 61000 78086 81299 90400 333 ////=
07335,1999-05-03 05:00:00,14,1014.6,0.4,88,12,10000,11.112,,,120,,,1,,,,,,,29,wg-a,,,,AAXX 03054 07335 12560 /1206 10140 20120 30003 40146 53004 60015 72998 81993 90500=
07335,1999-05-03 06:00:00,14,1015.2,1.3,88,12,10000,11.112,,,110,11.6,21.9,,1,,,1,,,1,wg-a,,,,AAXX 03064 07335 02560 /1106 10140 20120 30009 40152 53013 60014 70198 81293 90600 333 10219 20116 60017=
07335,1999-05-03 07:00:00,15,1014.7,0.8,88,13,12000,11.112,,,100,,,,,,,,,,0,wg-a,,,,AAXX 03074 07335 32562 /1006 10150 20130 30005 40147 50008 700// 81293 90700=
07335,1999-05-03 08:00:00,18,1014.2,-0.2,73,13,15000,11.112,,,130,,,,,,,,,,0,wg-a,,,,AAXX 03084 07335 32565 /1306 10180 20130 30001 40142 58002 700// 81293 90800=
07335,1999-05-03 09:00:00,20,1014.3,-0.6,64,13,20000,11.112,,,160,,,,,,,,,,0,wg-a,,,,AAXX 03094 07335 32570 /1606 10200 20130 30003 40143 55006 700// 81283 90900=
07335,1999-05-03 10:00:00,20,1014.6,0.1,64,13,20000,11.112,,,160,,,,,,,,,,0,wg-a,,,,AAXX 03104 07335 32570 71606 10200 20130 30006 40146 53001 700// 8127/ 91000=
07335,1999-05-03 11:00:00,21,1014.3,0.3,56,12,20000,7.408,,,100,,,,,,,,,,0,wg-a,,,,AAXX 03114 07335 32670 71004 10210 20120 30004 40143 50003 700// 8187/ 91100=
07335,1999-05-03 12:00:00,21,1014.5,0.3,60,13,20000,11.112,,,80,,,,,,,,,,0,wg-a,,,,AAXX 03124 07335 32770 70806 10210 20130 30006 40145 51003 700// 8357/ 91200=
07335,1999-05-03 13:00:00,21,1014,-0.5,60,13,20000,11.112,,,60,,,,,,,,,,0,wg-a,,,,AAXX 03134 07335 32770 70606 10210 20130 30001 40140 58005 700// 8257/ 91300=
07335,1999-05-03 14:00:00,21,1013.2,-1.1,60,13,15000,11.112,,,90,,,,,,,,,,0,wg-a,,,,AAXX 03144 07335 32765 70906 10210 20130 39993 40132 58011 700// 8357/ 91400=
07335,1999-05-03 15:00:00,21,1012.6,-1.9,64,14,12000,7.408,,,80,,,,,,,,,,60,wg-a,,,,AAXX 03154 07335 02662 80804 10210 20140 39987 40126 58019 61000 76062 8352/ 91500 333 ////=
07335,1999-05-03 16:00:00,21,1012.1,-1.9,64,14,12000,3.704,,,100,,,,,,,,,,60,wg-a,,,,AAXX 03164 07335 02662 81002 10210 20140 39982 40121 56019 61000 76066 8352/ 91600 333 ////=
07335,1999-05-03 17:00:00,18,1012.3,-1,83,15,10000,14.816,,,240,,,,,,,,,,60,wg-a,,,,AAXX 03174 07335 02660 82408 10180 20150 39983 40123 55010 61000 76066 8352/ 91700 333 ////=
07335,1999-05-03 18:00:00,17,1011.7,-1.1,88,15,0,11.112,,,280,14.2,21.2,,,,,,,,,wg-a,,,,AAXX 03184 07335 32/// /2806 10170 20150 39976 40117 58011 91800 333 10212 20142=
07335,1999-05-04 00:00:00,15,1010.5,-1.9,94,14,0,14.816,,,10,,,,,,,,,,,wg-a,,,,AAXX 04004 07335 32/// /0108 10150 20140 39963 40105 58019 90000=
07335,1999-05-04 04:00:00,13,1008.2,-1.5,94,12,7000,11.112,,,340,,,0,,,,,,,61,wg-a,,,,AAXX 04044 07335 12257 83406 10130 20120 39940 40082 58015 60005 76162 8552/ 90400=
07335,1999-05-04 05:00:00,13,1008.2,-1.6,94,12,8000,7.408,,,360,,,,,,,,,,60,wg-a,,,,AAXX 04054 07335 02758 83604 10130 20120 39939 40082 56016 61000 76066 8352/ 90500 333 ////=
07335,1999-05-04 06:00:00,13,1008,-0.8,94,12,6000,11.112,,,350,12.7,16.6,,0,,,5,,,60,wg-a,,,,AAXX 04064 07335 02856 83506 10130 20120 39938 40080 56008 60054 76062 8252/ 90600 333 10166 20127 60007=
07335,1999-05-04 07:00:00,14,1008.4,0.2,88,12,8000,11.112,,,10,,,,,,,,,,60,wg-a,,,,AAXX 04074 07335 02858 80106 10140 20120 39942 40084 53002 61000 76066 8252/ 90700 333 ////=
07335,1999-05-04 08:00:00,14,1008.2,0.1,88,12,12000,11.112,,,360,,,,,,,,,,21,wg-a,,,,AAXX 04084 07335 02862 83606 10140 20120 39940 40082 50001 61000 72162 8452/ 90800 333 ////=
07335,1999-05-04 09:00:00,15,1008,0.1,82,12,10000,14.816,,,20,,,,,,,,,,1,wg-a,,,,AAXX 04094 07335 02/60 80208 10150 20120 39939 40080 50001 61000 70162 8807/ 90900 333 ////=
07335,1999-05-04 10:00:00,16,1008,-0.3,77,12,10000,11.112,,,350,,,,,,,,,,0,wg-a,,,,AAXX 04104 07335 32/60 83506 10160 20120 39939 40080 56003 700// 8807/ 91000=
07335,1999-05-04 11:00:00,16,1008.1,-0,82,13,12000,11.112,,,360,,,,,,,,,,0,wg-a,,,,AAXX 04114 07335 32662 83606 10160 20130 39940 40081 55000 700// 8357/ 91100=
07335,1999-05-04 12:00:00,17,1007.6,-0.3,77,13,12000,11.112,,,360,,,,,,,,,,1,wg-a,,,,AAXX 04124 07335 32/62 73606 10170 20130 39936 40076 58003 70162 8707/ 91200=
07335,1999-05-04 13:00:00,17,1007.5,-0.4,77,13,12000,11.112,,,360,,,,,,,,,,0,wg-a,,,,AAXX 04134 07335 32/62 83606 10170 20130 39935 40075 58004 700// 8807/ 91300=
07335,1999-05-04 14:00:00,17,1007.7,-0.3,82,14,8000,3.704,,,320,,,0,,,,,,,61,wg-a,,,,AAXX 04144 07335 12158 83202 10170 20140 39937 40077 55003 60005 76162 8557/ 91400=
07335,1999-05-04 15:00:00,17,1007.6,-0,82,14,7000,3.704,,,190,,,,0,,,,,,60,wg-a,,,,AAXX 04154 07335 12757 81902 10170 20140 39936 40076 54000 60007 76062 8557/ 91500=
07335,1999-05-04 16:00:00,18,1007.4,-0.1,83,15,6000,3.704,,,170,,,,,,,,,,21,wg-a,,,,AAXX 04164 07335 02756 71702 10180 20150 39934 40074 58001 61000 72162 875// 91600 333 ////=
07335,1999-05-04 17:00:00,18,1007.1,-0.6,83,15,6000,3.704,,,240,,,,,,,,,,0,wg-a,,,,AAXX 04174 07335 32756 72402 10180 20150 39931 40071 58006 700// 875// 91700=
07335,1999-05-04 18:00:00,18,1007.4,-0.2,83,15,0,7.408,,,230,12.8,17.8,,,,,,,,,wg-a,,,,AAXX 04184 07335 32/// /2304 10180 20150 39934 40074 55002 91800 333 10178 20128=
07335,1999-05-05 00:00:00,13,1008.6,0.3,100,13,1200,11.112,,,230,,,,,,,,,,,wg-a,,,,AAXX 05004 07335 32/12 /2306 10130 20130 39944 40086 50003 90000=
07335,1999-05-05 04:00:00,12,1009,0.3,100,12,800,18.52,,,230,,,,,,,,,,47,wg-a,,,,AAXX 05044 07335 32/08 92310 10120 20120 39947 40090 53003 74742 89/// 90400=
07335,1999-05-05 05:00:00,12,1009.6,0.9,100,12,1200,14.816,,,230,,,,,,,,,,28,wg-a,,,,AAXX 05054 07335 32112 82308 10120 20120 39953 40096 53009 72842 886// 90500=
07335,1999-05-05 06:00:00,12,1010.1,1.2,100,12,2000,14.816,,,240,11.7,17.6,,,,,,,,10,wg-a,,,,AAXX 05064 07335 12120 82408 10120 20120 39958 40101 53012 60004 71042 886// 90600 333 10176 20117=
07335,1999-05-05 07:00:00,13,1010.2,1.2,88,11,3000,11.112,,,220,,,,,,,,,,10,wg-a,,,,AAXX 05074 07335 32330 82206 10130 20110 39959 40102 51012 71022 886// 90700=
07335,1999-05-05 08:00:00,13,1010.7,1.1,88,11,3500,18.52,,,210,,,,,,,,,,10,wg-a,,,,AAXX 05084 07335 32335 82110 10130 20110 39964 40107 52011 71022 885// 90800=
07335,1999-05-05 09:00:00,13,1011,0.9,94,12,3500,18.52,,,240,,,,,,,,,,10,wg-a,,,,AAXX 05094 07335 32335 82410 10130 20120 39967 40110 53009 71022 885// 90900=
07335,1999-05-05 10:00:00,13,1011.4,1.2,94,12,3500,14.816,,,220,,,,,,,,,,10,wg-a,,,,AAXX 05104 07335 32335 82208 10130 20120 39971 40114 51012 71022 885// 91000=
07335,1999-05-05 11:00:00,14,1011.6,0.9,88,12,3500,14.816,,,220,,,,,,,,,,10,wg-a,,,,AAXX 05114 07335 32335 82208 10140 20120 39973 40116 51009 71022 885// 91100=
07335,1999-05-05 12:00:00,15,1011.9,1,82,12,4500,18.52,,,230,,,,,,,,,,10,wg-a,,,,AAXX 05124 07335 32345 82310 10150 20120 39977 40119 52010 71022 885// 91200=
07335,1999-05-05 13:00:00,16,1011.8,0.6,82,13,6000,18.52,,,220,,,,,,,,,,0,wg-a,,,,AAXX 05134 07335 32456 72210 10160 20130 39977 40118 51006 700// 875// 91300=
07335,1999-05-05 14:00:00,17,1012.1,0.7,77,13,8000,18.52,,,230,,,,,,,,,,0,wg-a,,,,AAXX 05144 07335 32458 72310 10170 20130 39980 40121 51007 700// 878// 91400=
07335,1999-05-05 15:00:00,17,1012.2,0.4,82,14,8000,22.224,,,240,,,,,,,,,,0,wg-a,,,,AAXX 05154 07335 32558 72412 10170 20140 39981 40122 53004 700// 878// 91500=
07335,1999-05-05 16:00:00,18,1012.2,0.4,73,13,10000,18.52,,,250,,,,,,,,,,0,wg-a,,,,AAXX 05164 07335 32460 72510 10180 20130 39981 40122 51004 700// 8313/ 91600=
07335,1999-05-05 17:00:00,17,1012.6,0.5,77,13,10000,18.52,,,260,,,,,,,,,,0,wg-a,,,,AAXX 05174 07335 32460 72610 10170 20130 39985 40126 53005 700// 878// 91700=
07335,1999-05-05 18:00:00,16,1013,0.8,82,13,0,18.52,,,240,11.8,17.8,,,,,,,,,wg-a,,,,AAXX 05184 07335 32/// /2410 10160 20130 39989 40130 53008 91800 333 10178 20118=
07335,1999-05-06 00:00:00,10,1016.2,1,93,9,0,7.408,,,210,,,,,,,,,,,wg-a,,,,AAXX 06004 07335 32/// /2104 10100 20090 30017 40162 51010 90000=
07335,1999-05-06 04:00:00,11,1016.5,0.3,94,10,15000,3.704,,,180,,,0,,,,,,,0,wg-a,,,,AAXX 06044 07335 12265 71802 10110 20100 30020 40165 51003 60005 700// 875// 90400=
07335,1999-05-06 05:00:00,11,1016.7,0.2,100,11,12000,3.704,,,190,,,0,,,,,,,60,wg-a,,,,AAXX 06054 07335 12262 71902 10110 20110 30022 40167 53002 60005 76062 875// 90500=
07335,1999-05-06 06:00:00,12,1016.7,0.3,94,11,12000,3.704,,,140,8.5,16.4,,0,,,,,,60,wg-a,,,,AAXX 06064 07335 02262 71402 10120 20110 30023 40167 53003 60004 76062 875// 90600 333 10164 20085 60007=
07335,1999-05-06 07:00:00,12,1016.9,0.5,94,11,10000,7.408,,,160,,,,,,,,,,21,wg-a,,,,AAXX 06074 07335 02160 71604 10120 20110 30025 40169 52005 61000 72162 875// 90700 333 ////=
07335,1999-05-06 08:00:00,13,1017,0.4,94,12,8000,7.408,,,160,,,,,,,,,,0,wg-a,,,,AAXX 06084 07335 32258 71604 10130 20120 30026 40170 52004 700// 878// 90800=
07335,1999-05-06 09:00:00,14,1016.8,0.2,88,12,10000,7.408,,,140,,,,,,,,,,1,wg-a,,,,AAXX 06094 07335 02360 71404 10140 20120 30025 40168 50002 61000 70162 8683/ 90900 333 ////=
07335,1999-05-06 10:00:00,16,1016.4,-0.3,72,11,12000,7.408,,,120,,,,,,,,,,0,wg-a,,,,AAXX 06104 07335 32562 /1204 10160 20110 30022 40164 58003 700// 86801 91000=
07335,1999-05-06 11:00:00,17,1015.9,-0.8,72,12,15000,11.112,,,120,,,,,,,,,,0,wg-a,,,,AAXX 06114 07335 32565 /1206 10170 20120 30018 40159 58008 700// 86800 91100=
07335,1999-05-06 12:00:00,19,1015.2,-1.3,64,12,15000,11.112,,,120,,,,,,,,,,1,wg-a,,,,AAXX 06124 07335 32565 /1206 10190 20120 30012 40152 58013 70162 81180 91200=
07335,1999-05-06 13:00:00,21,1014.6,-1.6,60,13,18000,11.112,,,110,,,,,,,,,,0,wg-a,,,,AAXX 06134 07335 32668 41106 10210 20130 30006 40146 58016 700// 81181 91300=
07335,1999-05-06 14:00:00,22,1014,-1.7,60,14,20000,11.112,,,170,,,,,,,,,,0,wg-a,,,,AAXX 06144 07335 32670 41706 10220 20140 30001 40140 56017 700// 81882 91400=
07335,1999-05-06 15:00:00,22,1013.2,-1.9,57,13,20000,7.408,,,130,,,,,,,,,,0,wg-a,,,,AAXX 06154 07335 32670 31304 10220 20130 39993 40132 58019 700// 82882 91500=
07335,1999-05-06 16:00:00,22,1012.8,-1.7,60,14,18000,14.816,,,120,,,,,,,,,,0,wg-a,,,,AAXX 06164 07335 32668 71208 10220 20140 39989 40128 56017 700// 8123/ 91600=
07335,1999-05-06 17:00:00,22,1012.1,-1.8,60,14,18000,14.816,,,90,,,,,,,,,,0,wg-a,,,,AAXX 06174 07335 32668 /0908 10220 20140 39983 40121 56018 700// 81282 91700=
07335,1999-05-06 18:00:00,22,1011.8,-1.3,60,14,0,18.52,,,100,11.5,22.6,,,,,,,,,wg-a,,,,AAXX 06184 07335 32/// /1010 10220 20140 39980 40118 56013 91800 333 10226 20115=
07335,1999-05-07 00:00:00,17,1010.4,-1.5,82,14,0,7.408,,,130,,,,,,,,,,,wg-a,,,,AAXX 07004 07335 32/// /1304 10170 20140 39963 40104 56015 90000=
07335,1999-05-07 04:00:00,15,1009,-2.4,94,14,12000,3.704,,,70,,,0,,,,,,,0,wg-a,,,,AAXX 07044 07335 12762 40702 10150 20140 39949 40090 58024 60005 700// 84530 90400=
07335,1999-05-07 05:00:00,15,1008.7,-2.1,94,14,12000,7.408,,,130,,,,,,,,,,0,wg-a,,,,AAXX 07054 07335 32662 /1304 10150 20140 39946 40087 56021 700// 81963 90500=
07335,1999-05-07 06:00:00,15,1008.7,-1.2,88,13,15000,11.112,,,160,14.5,22.2,,0,,,1,,,0,wg-a,,,,AAXX 07064 07335 02665 51606 10150 20130 39945 40087 56012 60014 700// 81983 90600 333 10222 20145 60007=
07335,1999-05-07 09:00:00,20,1008.6,0.2,73,15,18000,25.928,,,200,,,,,,,,,,0,wg-a,,,,AAXX 07094 07335 32568 42014 10200 20150 39947 40086 53002 700// 81383 90900=
07335,1999-05-07 12:00:00,20,1008.6,0,83,17,15000,18.52,,,200,,,,0,,,,,,25,wg-a,,,,AAXX 07124 07335 12565 72010 10200 20170 39947 40086 50000 60007 72586 8228/ 91200=
07335,1999-05-07 15:00:00,17,1008,-0.7,88,15,10000,18.52,,,210,,,,1,,,,,,17,wg-a,,,,AAXX 07154 07335 12460 72110 10170 20150 39940 40080 55007 60017 71798 85983 91500=
07335,1999-05-07 16:00:00,17,1008.5,0.6,82,14,12000,14.816,,,190,,,,,,,,,,29,wg-a,,,,AAXX 07164 07335 32562 71908 10170 20140 39945 40085 53006 72992 85983 91600=
07335,1999-05-07 17:00:00,15,1009.7,2,88,13,10000,25.928,,42.596,300,,,1,,,,,,,29,wg-a,,,,AAXX 07174 07335 12560 73014 10150 20130 39955 40097 53020 60015 72998 83963 91700 333 91023=
07335,1999-05-07 18:00:00,14,1010.6,2.4,82,11,0,18.52,,,310,14.2,21.5,,,,,,,,,wg-a,,,,AAXX 07184 07335 32/// /3110 10140 20110 39964 40106 53024 91800 333 10215 20142=
07335,1999-05-08 00:00:00,9,1014.2,0.7,93,8,0,7.408,,,270,,,,,,,,,,,wg-a,,,,AAXX 08004 07335 32/// /2704 10090 20080 39997 40142 52007 90000=
07335,1999-05-08 04:00:00,8,1015.2,1,100,8,10000,11.112,,,220,,,,,,,,,,0,wg-a,,,,AAXX 08044 07335 32260 42206 10080 20080 30006 40152 52010 700// 83502 90400=
07335,1999-05-08 05:00:00,7,1015.7,1.1,93,6,8000,11.112,,,240,,,,,,,,,,0,wg-a,,,,AAXX 08054 07335 32758 32406 10070 20060 30010 40157 52011 700// 82532 90500=
07335,1999-05-08 06:00:00,10,1015.7,0.9,93,9,15000,11.112,,,250,6.6,14.2,,,,,2,,,0,wg-a,,,,AAXX 08064 07335 12/65 12506 10100 20090 30012 40157 51009 60024 700// 80001 90600 333 10142 20066=
07335,1999-05-08 07:00:00,12,1016.2,1.2,100,12,25000,14.816,,,260,,,0,,,,,,,0,wg-a,,,,AAXX 08074 07335 12075 /2608 10120 20120 30018 40162 53012 60005 700// 81601 90700=
07335,1999-05-08 08:00:00,14,1016.8,1.5,82,11,500,14.816,,,250,,,,,,,,,,0,wg-a,,,,AAXX 08084 07335 32400 /2508 10140 20110 30025 40168 53015 700// 81101 90800=
07335,1999-05-08 09:00:00,16,1017.1,1.7,68,10,500,14.816,,,260,,,,0,,,,,,0,wg-a,,,,AAXX 08094 07335 12500 32608 10160 20100 30029 40171 51017 60007 700// 83201 90900=
07335,1999-05-08 10:00:00,17,1017.3,1.3,68,11,500,11.112,,,240,,,,,,,,,,0,wg-a,,,,AAXX 08104 07335 32500 32406 10170 20110 30031 40173 51013 700// 83201 91000=
07335,1999-05-08 11:00:00,18,1017.1,0.5,59,10,500,11.112,,,230,,,,,,,,,,0,wg-a,,,,AAXX 08114 07335 32600 42306 10180 20100 30030 40171 50005 700// 84201 91100=
07335,1999-05-08 12:00:00,19,1017.1,0.1,52,9,500,18.52,,,260,,,,,,,,,,0,wg-a,,,,AAXX 08124 07335 32600 42610 10190 20090 30030 40171 51001 700// 84201 91200=
07335,1999-05-08 13:00:00,19,1017,-0.2,52,9,500,11.112,,,280,,,,,,,,,,0,wg-a,,,,AAXX 08134 07335 32600 42806 10190 20090 30029 40170 57002 700// 83231 91300=
07335,1999-05-08 14:00:00,19,1017.1,-0,52,9,500,14.816,,,260,,,,,,,,,,0,wg-a,,,,AAXX 08144 07335 32600 72608 10190 20090 30030 40171 55000 700// 878// 91400=
07335,1999-05-08 15:00:00,19,1017.1,-0,52,9,500,18.52,,,250,,,,,,,,,,0,wg-a,,,,AAXX 08154 07335 32600 52510 10190 20090 30030 40171 55000 700// 84801 91500=
07335,1999-05-08 18:00:00,17,1017.2,-0,63,10,0,7.408,,,310,9.7,19.4,,,,,,,,,wg-a,,,,AAXX 08184 07335 32/// /3104 10170 20100 30030 40172 55000 91800 333 10194 20097=
07335,1999-05-09 00:00:00,7,1018.6,-0.5,93,6,0,3.704,,,120,,,,,,,,,,,wg-a,,,,AAXX 09004 07335 32/// /1202 10070 20060 30039 40186 58005 90000=
07335,1999-05-09 04:00:00,7,1017.2,-1,87,5,15000,3.704,,,120,,,,,,,,,,0,wg-a,,,,AAXX 09044 07335 32/65 11202 10070 20050 30025 40172 56010 700// 80001 90400=
07335,1999-05-09 05:00:00,6,1017.2,-0.6,93,5,15000,3.704,,,140,,,,,,,,,,0,wg-a,,,,AAXX 09054 07335 32/65 31402 10060 20050 30025 40172 56006 700// 80001 90500=
07335,1999-05-09 06:00:00,10,1016.9,-0.3,93,9,15000,7.408,,,150,5.8,16.7,,,,,,,,0,wg-a,,,,AAXX 09064 07335 12/65 31504 10100 20090 30024 40169 56003 60004 700// 80001 90600 333 10167 20058=
07335,1999-05-09 07:00:00,13,1016.6,-0.3,77,9,20000,11.112,,,160,,,,,,,,,,0,wg-a,,,,AAXX 09074 07335 32/70 31606 10130 20090 30022 40166 58003 700// 80001 90700=
07335,1999-05-09 08:00:00,16,1016.1,-0.6,68,10,20000,14.816,,,160,,,,,,,,,,0,wg-a,,,,AAXX 09084 07335 32/70 31608 10160 20100 30019 40161 58006 700// 81031 90800=
07335,1999-05-09 09:00:00,19,1015.6,-0.9,60,11,25000,14.816,,,170,,,,,,,,,,0,wg-a,,,,AAXX 09094 07335 32/75 31708 10190 20110 30015 40156 58009 700// 81031 90900=
07335,1999-05-09 10:00:00,21,1015.2,-1,49,10,25000,14.816,,,170,,,,,,,,,,0,wg-a,,,,AAXX 09104 07335 32/75 31708 10210 20100 30012 40152 57010 700// 81031 91000=
07335,1999-05-09 11:00:00,22,1014.5,-1.3,43,9,25000,22.224,,,180,,,,,,,,,,0,wg-a,,,,AAXX 09114 07335 32/75 31812 10220 20090 30006 40145 58013 700// 81031 91100=
07335,1999-05-09 12:00:00,23,1013.9,-1.5,38,8,25000,22.224,,,190,,,,,,,,,,0,wg-a,,,,AAXX 09124 07335 32/75 41912 10230 20080 30000 40139 58015 700// 81032 91200=
07335,1999-05-09 13:00:00,23,1013.3,-1.7,41,9,25000,22.224,,,170,,,,,,,,,,0,wg-a,,,,AAXX 09134 07335 32/75 41712 10230 20090 39995 40133 56017 700// 81032 91300=
07335,1999-05-09 15:00:00,24,1012.3,-1.5,36,8,25000,14.816,,,190,,,,,,,,,,0,wg-a,,,,AAXX 09154 07335 32775 41908 10240 20080 39985 40123 58015 700// 81132 91500=
07335,1999-05-09 18:00:00,22,1011.6,-0.8,53,12,0,7.408,,,190,10.2,24.4,,,,,,,,,wg-a,,,,AAXX 09184 07335 32/// /1904 10220 20120 39977 40116 56008 91800 333 10244 20102=
07335,1999-05-10 00:00:00,16,1012.8,0.2,72,11,0,3.704,,,100,,,,,,,,,,,wg-a,,,,AAXX 10004 07335 32/// /1002 10160 20110 39987 40128 50002 90000=
07335,1999-05-10 04:00:00,14,1013.8,0.8,88,12,15000,3.704,,,190,,,,,,,,,,0,wg-a,,,,AAXX 10044 07335 32865 81902 10140 20120 39995 40138 53008 700// 8557/ 90400=
07335,1999-05-10 05:00:00,13,1014.4,0.9,94,12,15000,3.704,,,220,,,,,,,,,,0,wg-a,,,,AAXX 10054 07335 32665 72202 10130 20120 30001 40144 53009 700// 8257/ 90500=
07335,1999-05-10 06:00:00,14,1014.7,1.6,94,13,15000,7.408,,,160,13.2,21.9,,,,,,,,3,wg-a,,,,AAXX 10064 07335 12665 71604 10140 20130 30004 40147 51016 60004 70362 8557/ 90600 333 10219 20132=
07335,1999-05-10 07:00:00,15,1014.8,1.1,82,12,15000,3.704,,,170,,,,,,,,,,0,wg-a,,,,AAXX 10074 07335 32765 81702 10150 20120 30006 40148 51011 700// 81587 90700=
07335,1999-05-10 08:00:00,17,1015.7,1.5,77,13,15000,11.112,,,220,,,,,,,,,,0,wg-a,,,,AAXX 10084 07335 32/65 82206 10170 20130 30016 40157 53015 700// 82087 90800=
07335,1999-05-10 09:00:00,19,1016,1.5,68,13,18000,11.112,,,230,,,,,,,,,,0,wg-a,,,,AAXX 10094 07335 32568 82306 10190 20130 30019 40160 53015 700// 81188 90900=
07335,1999-05-10 10:00:00,20,1016.1,1.5,60,12,18000,18.52,,,260,,,,,,,,,,0,wg-a,,,,AAXX 10104 07335 32668 /2610 10200 20120 30021 40161 51015 700// 81832 91000=
07335,1999-05-10 11:00:00,20,1016.3,0.7,60,12,18000,18.52,,,250,,,,,,,,,,0,wg-a,,,,AAXX 10114 07335 32668 62510 10200 20120 30023 40163 51007 700// 83232 91100=
07335,1999-05-10 12:00:00,20,1016.5,0.6,64,13,18000,18.52,,,260,,,,,,,,,,0,wg-a,,,,AAXX 10124 07335 32668 72610 10200 20130 30025 40165 52006 700// 83807 91200=
07335,1999-05-10 13:00:00,20,1016.7,0.6,60,12,18000,22.224,,,260,,,,,,,,,,0,wg-a,,,,AAXX 10134 07335 32668 72612 10200 20120 30027 40167 52006 700// 83837 91300=
07335,1999-05-10 14:00:00,20,1017,0.7,60,12,18000,22.224,,,250,,,,,,,,,,0,wg-a,,,,AAXX 10144 07335 32668 72512 10200 20120 30030 40170 53007 700// 83808 91400=
07335,1999-05-10 15:00:00,20,1017.2,0.6,53,10,18000,22.224,,,250,,,,,,,,,,0,wg-a,,,,AAXX 10154 07335 32668 72512 10200 20100 30031 40172 51006 700// 82838 91500=
07335,1999-05-10 16:00:00,19,1017.5,0.7,60,11,18000,18.52,,,250,,,,,,,,,,0,wg-a,,,,AAXX 10164 07335 32668 82510 10190 20110 30034 40175 52007 700// 8381/ 91600=
07335,1999-05-10 17:00:00,18,1018,0.8,64,11,15000,14.816,,,270,,,,,,,,,,0,wg-a,,,,AAXX 10174 07335 32765 82708 10180 20110 30038 40180 53008 700// 8452/ 91700=
07335,1999-05-10 18:00:00,16,1018.1,0.8,68,10,0,14.816,,,250,13.9,20.4,,,,,,,,,wg-a,,,,AAXX 10184 07335 32/// /2508 10160 20100 30039 40181 51008 91800 333 10204 20139=
07335,1999-05-11 00:00:00,14,1018.6,-0.3,82,11,0,7.408,,,200,,,,,,,,,,,wg-a,,,,AAXX 11004 07335 32/// /2004 10140 20110 30042 40186 55003 90000=
07335,1999-05-11 05:00:00,12,1016.4,-0.9,94,11,12000,7.408,,,160,,,1,,,,,,,61,wg-a,,,,AAXX 11054 07335 12162 81604 10120 20110 30020 40164 58009 60015 76166 8652/ 90500=
07335,1999-05-11 06:00:00,12,1016.6,-0.7,94,11,12000,7.408,,,170,12,16.4,,2,,,3,,,61,wg-a,,,,AAXX 11064 07335 02162 81704 10120 20110 30022 40166 55007 60034 76162 875// 90600 333 10164 20120 60027=
07335,1999-05-11 07:00:00,12,1016.2,-0.6,100,12,12000,11.112,,,150,,,0,,,,,,,21,wg-a,,,,AAXX 11074 07335 12262 81506 10120 20120 30018 40162 57006 60005 72162 875// 90700=
07335,1999-05-11 08:00:00,13,1015.9,-0.4,100,13,10000,7.408,,,150,,,0,,,,,,,21,wg-a,,,,AAXX 11084 07335 12260 71504 10130 20130 30016 40159 58004 60005 72162 875// 90800=
07335,1999-05-11 09:00:00,15,1015.4,-1,88,13,12000,11.112,,,140,,,,1,,,,,,1,wg-a,,,,AAXX 11094 07335 12362 71406 10150 20130 30012 40154 57010 60017 70162 8483/ 90900=
07335,1999-05-11 10:00:00,17,1014.9,-1,82,14,15000,14.816,,,150,,,,,,,,,,0,wg-a,,,,AAXX 11104 07335 32465 71508 10170 20140 30008 40149 58010 700// 82132 91000=
07335,1999-05-11 11:00:00,18,1014.8,-0.9,77,14,15000,14.816,,,190,,,,,,,,,,0,wg-a,,,,AAXX 11114 07335 32465 71908 10180 20140 30007 40148 56009 700// 8217/ 91100=
07335,1999-05-11 12:00:00,19,1014.4,-0.8,73,14,15000,14.816,,,210,,,,,,,,,,3,wg-a,,,,AAXX 11124 07335 32565 82108 10190 20140 30004 40144 56008 70362 8117/ 91200=
07335,1999-05-11 13:00:00,19,1014.2,-0.6,73,14,15000,18.52,,,240,,,,,,,,,,0,wg-a,,,,AAXX 11134 07335 32565 82410 10190 20140 30002 40142 58006 700// 8187/ 91300=
07335,1999-05-11 14:00:00,20,1014.4,-0.3,68,14,15000,25.928,,,240,,,,,,,,,,0,wg-a,,,,AAXX 11144 07335 32565 82414 10200 20140 30004 40144 55003 700// 8357/ 91400=
07335,1999-05-11 17:00:00,18,1014.2,-0.3,83,15,10000,22.224,,,230,,,,,,,,,,60,wg-a,,,,AAXX 11174 07335 02560 82312 10180 20150 30001 40142 58003 61000 76062 875// 91700 333 ////=
07335,1999-05-11 18:00:00,16,1014.7,0.1,94,15,0,25.928,,,240,12.1,19.6,,,,,,,,,wg-a,,,,AAXX 11184 07335 32/// /2414 10160 20150 30005 40147 53001 91800 333 10196 20121=
07335,1999-05-12 00:00:00,15,1015.4,-0.1,94,14,0,11.112,,,270,,,,,,,,,,,wg-a,,,,AAXX 12004 07335 32/// /2706 10150 20140 30012 40154 55001 90000=
07335,1999-05-12 04:00:00,13,1015.2,-0.2,100,13,8000,3.704,,,300,,,0,,,,,,,61,wg-a,,,,AAXX 12044 07335 12258 83002 10130 20130 30009 40152 56002 60005 76162 875// 90400=
07335,1999-05-12 05:00:00,13,1015.6,0.3,100,13,10000,3.704,,,280,,,,,,,,,,60,wg-a,,,,AAXX 12054 07335 02360 82802 10130 20130 30013 40156 53003 61000 76066 875// 90500 333 ////=
07335,1999-05-12 06:00:00,13,1015.7,0.5,100,13,10000,3.704,,,310,13.3,16.2,,1,,,3,,,60,wg-a,,,,AAXX 12064 07335 02160 83102 10130 20130 30014 40157 53005 60034 76062 875// 90600 333 10162 20133 60017=
07335,1999-05-12 07:00:00,14,1015.9,0.7,94,13,9000,3.704,,,250,,,1,,,,,,,60,wg-a,,,,AAXX 12074 07335 12159 82502 10140 20130 30016 40159 51007 60015 76086 875// 90700=
07335,1999-05-12 08:00:00,14,1016.3,0.7,94,13,8000,7.408,,,220,,,0,,,,,,,60,wg-a,,,,AAXX 12084 07335 12258 82204 10140 20130 30020 40163 53007 60005 76066 877// 90800=
07335,1999-05-12 09:00:00,14,1015.9,0.2,94,13,7000,3.704,,,240,,,,1,,,,,,60,wg-a,,,,AAXX 12094 07335 12257 82402 10140 20130 30016 40159 50002 60017 76086 875// 90900=
07335,1999-05-12 10:00:00,14,1016.1,0.2,94,13,10000,7.408,,,330,,,0,,,,,,,21,wg-a,,,,AAXX 12104 07335 12260 83304 10140 20130 30018 40161 51002 60005 72162 875// 91000=
07335,1999-05-12 11:00:00,14,1016,-0.3,94,13,3000,7.408,,,360,,,,,,,,,,10,wg-a,,,,AAXX 12114 07335 02230 83604 10140 20130 30017 40160 56003 61000 71052 875// 91100 333 ////=
07335,1999-05-12 12:00:00,15,1015.4,-0.5,88,13,8000,3.704,,,20,,,,0,,,,,,20,wg-a,,,,AAXX 12124 07335 12358 80202 10150 20130 30011 40154 58005 60007 72086 875// 91200=
07335,1999-05-12 13:00:00,15,1014.8,-1.2,94,14,10000,3.704,,,130,,,,,,,,,,0,wg-a,,,,AAXX 12134 07335 32360 81302 10150 20140 30006 40148 58012 700// 875// 91300=
07335,1999-05-12 14:00:00,16,1014.8,-1.1,88,14,7000,7.408,,,350,,,,,,,,,,0,wg-a,,,,AAXX 12144 07335 32357 83504 10160 20140 30006 40148 56011 700// 875// 91400=
07335,1999-05-12 15:00:00,14,1014.3,-1,100,14,3500,14.816,,,30,,,,2,,,,,,10,wg-a,,,,AAXX 12154 07335 12235 80308 10140 20140 30001 40143 57010 60027 71086 875// 91500=
07335,1999-05-12 16:00:00,14,1015,0.1,94,13,500,11.112,,,360,,,1,,,,,,,25,wg-a,,,,AAXX 12164 07335 12100 83606 10140 20130 30007 40150 53001 60015 72586 877// 91600=
07335,1999-05-12 17:00:00,13,1015.7,0.8,94,12,1800,11.112,,,350,,,2,,,,,,,10,wg-a,,,,AAXX 12174 07335 12118 83506 10130 20120 30014 40157 53008 60025 71086 877// 91700=
07335,1999-05-12 18:00:00,13,1015.7,1.2,94,12,0,3.704,,,360,12.4,16.3,,,,,,,,,wg-a,,,,AAXX 12184 07335 32/// /3602 10130 20120 30013 40157 50012 91800 333 10163 20124=
07335,1999-05-13 00:00:00,12,1016.6,0.4,100,12,0,3.704,,,350,,,,,,,,,,,wg-a,,,,AAXX 13004 07335 32/// /3502 10120 20120 30022 40166 50004 90000=
07335,1999-05-13 04:00:00,12,1015.9,-0.5,100,12,8000,7.408,,,350,,,,,,,,,,0,wg-a,,,,AAXX 13044 07335 02258 83504 10120 20120 30015 40159 56005 61000 700// 876// 90400 333 ////=
07335,1999-05-13 05:00:00,11,1016.2,0.1,100,11,500,7.408,,,350,,,,,,,,,,0,wg-a,,,,AAXX 13054 07335 32100 /3504 10110 20110 30018 40162 53001 700// 86502 90500=
07335,1999-05-13 06:00:00,11,1016.3,0.3,100,11,2500,11.112,,,30,10.1,12.7,,,,,6,,,10,wg-a,,,,AAXX 13064 07335 02125 /0306 10110 20110 30018 40163 52003 60064 71022 86502 90600 333 10127 20101 61000=
07335,1999-05-13 07:00:00,12,1016.3,0.4,94,11,4500,3.704,,,50,,,,,,,,,,10,wg-a,,,,AAXX 13074 07335 32145 70502 10120 20110 30019 40163 51004 71022 876// 90700=
07335,1999-05-13 08:00:00,12,1016.5,0.3,100,12,500,0,,,0,,,,,,,,,,0,wg-a,,,,AAXX 13084 07335 32100 80000 10120 20120 30021 40165 53003 700// 876// 90800=
07335,1999-05-13 09:00:00,14,1015.9,-0.2,88,12,7000,0,,,0,,,,,,,,,,0,wg-a,,,,AAXX 13094 07335 32357 70000 10140 20120 30016 40159 58002 700// 876// 90900=
07335,1999-05-13 10:00:00,15,1015.6,-0.5,82,12,10000,3.704,,,30,,,,,,,,,,0,wg-a,,,,AAXX 13104 07335 32460 70302 10150 20120 30014 40156 58005 700// 878// 91000=
07335,1999-05-13 11:00:00,17,1014.8,-1.5,72,12,20000,3.704,,,170,,,,,,,,,,0,wg-a,,,,AAXX 13114 07335 32470 61702 10170 20120 30006 40148 58015 700// 85802 91100=
07335,1999-05-13 12:00:00,18,1014.2,-1.5,64,11,11000,11.112,,,230,,,,,,,,,,,wg-a,,,,AAXX 13124 07335 32/61 /2306 10180 20110 30001 40142 58015 91200=
07335,1999-05-13 13:00:00,19,1013.8,-1.6,64,12,20000,7.408,,,230,,,,,,,,,,0,wg-a,,,,AAXX 13134 07335 32570 82304 10190 20120 39998 40138 56016 700// 848// 91300=
07335,1999-05-13 14:00:00,18,1013.4,-1.2,68,12,20000,7.408,,,250,,,,,,,,,,0,wg-a,,,,AAXX 13144 07335 32570 82504 10180 20120 39994 40134 56012 700// 8487/ 91400=
07335,1999-05-13 15:00:00,17,1013.1,-1.1,72,12,20000,11.112,,,300,,,,,,,,,,0,wg-a,,,,AAXX 13154 07335 32570 83006 10170 20120 39990 40131 58011 700// 8487/ 91500=
07335,1999-05-13 18:00:00,14,1013.4,0.2,94,13,0,3.704,,,270,10.8,18.8,,,,,,,,,wg-a,,,,AAXX 13184 07335 32/// /2702 10140 20130 39992 40134 50002 91800 333 10188 20108=
07335,1999-05-14 04:00:00,11,1013.8,0.1,100,11,10000,3.704,,,360,,,,,,,,,,0,wg-a,,,,AAXX 14044 07335 32460 83602 10110 20110 39994 40138 53001 700// 875// 90400=
07335,1999-05-14 05:00:00,11,1014,0.5,100,11,10000,3.704,,,290,,,,,,,,,,0,wg-a,,,,AAXX 14054 07335 32460 72902 10110 20110 39996 40140 51005 700// 8757/ 90500=
07335,1999-05-14 06:00:00,12,1014.3,0.5,94,11,12000,7.408,,,300,11.1,14.2,,,,,3,,,0,wg-a,,,,AAXX 14064 07335 12362 73004 10120 20110 39999 40143 53005 60034 700// 8567/ 90600 333 10142 20111=
07335,1999-05-14 07:00:00,12,1014.5,0.7,94,11,15000,11.112,,,320,,,,,,,,,,0,wg-a,,,,AAXX 14074 07335 32365 73206 10120 20110 30001 40145 52007 700// 875// 90700=
07335,1999-05-14 09:00:00,13,1014.7,0.5,82,10,25000,11.112,,,330,,,,0,,,,,,0,wg-a,,,,AAXX 14094 07335 12475 63306 10130 20100 30004 40147 51005 60007 700// 85802 90900=
07335,1999-05-14 12:00:00,17,1014.6,0.1,59,9,500,7.408,,,280,,,,,,,,,,0,wg-a,,,,AAXX 14124 07335 32600 52804 10170 20090 30005 40146 50001 700// 85400 91200=
07335,1999-05-14 13:00:00,17,1014.8,0.1,59,9,500,11.112,,,350,,,,,,,,,,0,wg-a,,,,AAXX 14134 07335 32600 73506 10170 20090 30006 40148 51001 700// 86400 91300=
07335,1999-05-14 14:00:00,17,1014.1,-0.7,59,9,500,3.704,,,310,,,,,,,,,,0,wg-a,,,,AAXX 14144 07335 32600 /3102 10170 20090 30000 40141 58007 700// 86400 91400=
07335,1999-05-14 15:00:00,17,1013.7,-0.9,59,9,500,7.408,,,280,,,,,,,,,,0,wg-a,,,,AAXX 14154 07335 32600 72804 10170 20090 39996 40137 58009 700// 874// 91500=
07335,1999-05-14 16:00:00,17,1013.8,-0.9,63,10,500,11.112,,,340,,,,,,,,,,0,wg-a,,,,AAXX 14164 07335 32600 73406 10170 20100 39997 40138 55009 700// 874// 91600=
07335,1999-05-14 17:00:00,17,1013.6,-0.5,63,10,500,7.408,,,330,,,,,,,,,,0,wg-a,,,,AAXX 14174 07335 32600 73304 10170 20100 39995 40136 56005 700// 874// 91700=
07335,1999-05-14 18:00:00,17,1013.5,-0.3,59,9,0,3.704,,,360,11.4,18,,,,,,,,,wg-a,,,,AAXX 14184 07335 32/// /3602 10170 20090 39993 40135 58003 91800 333 10180 20114=
07335,1999-05-15 00:00:00,11,1014.1,0.2,94,10,0,11.112,,,330,,,,,,,,,,,wg-a,,,,AAXX 15004 07335 32/// /3306 10110 20100 39997 40141 50002 90000=
07335,1999-05-15 04:00:00,10,1013.6,-0.5,93,9,15000,3.704,,,10,,,,,,,,,,0,wg-a,,,,AAXX 15044 07335 32765 60102 10100 20090 39991 40136 56005 700// 85530 90400=
07335,1999-05-15 05:00:00,10,1013.8,0.1,93,9,15000,3.704,,,330,,,,,,,,,,0,wg-a,,,,AAXX 15054 07335 32765 33302 10100 20090 39993 40138 53001 700// 82530 90500=
07335,1999-05-15 06:00:00,11,1014.1,0.5,94,10,15000,3.704,,,340,9.6,16.5,,,,,,,,0,wg-a,,,,AAXX 15064 07335 12765 23402 10110 20100 39997 40141 53005 60004 700// 82530 90600 333 10165 20096=
07335,1999-05-15 07:00:00,13,1014.3,0.9,82,10,15000,7.408,,,10,,,,,,,,,,0,wg-a,,,,AAXX 15074 07335 32765 20104 10130 20100 30000 40143 53009 700// 82530 90700=
07335,1999-05-15 08:00:00,15,1014.3,0.8,72,10,20000,7.408,,,50,,,,,,,,,,0,wg-a,,,,AAXX 15084 07335 32/70 20504 10150 20100 30001 40143 51008 700// 81031 90800=
07335,1999-05-15 10:00:00,18,1014.4,0.3,56,9,20000,14.816,,,60,,,,,,,,,,0,wg-a,,,,AAXX 15104 07335 32670 40608 10180 20090 30003 40144 51003 700// 84231 91000=
07335,1999-05-15 11:00:00,19,1014.3,0.1,49,8,25000,14.816,,,80,,,,,,,,,,0,wg-a,,,,AAXX 15114 07335 32675 /0808 10190 20080 30002 40143 50001 700// 85231 91100=
07335,1999-05-15 12:00:00,19,1014.3,-0.1,46,7,25000,14.816,,,80,,,,,,,,,,0,wg-a,,,,AAXX 15124 07335 32675 /0808 10190 20070 30002 40143 57001 700// 86231 91200=
07335,1999-05-15 13:00:00,19,1014.5,0.1,49,8,25000,18.52,,,60,,,,,,,,,,0,wg-a,,,,AAXX 15134 07335 32675 /0610 10190 20080 30004 40145 53001 700// 86231 91300=
07335,1999-05-15 14:00:00,19,1014.5,0.2,49,8,25000,18.52,,,30,,,,,,,,,,0,wg-a,,,,AAXX 15144 07335 32775 60310 10190 20080 30004 40145 52002 700// 86230 91400=
07335,1999-05-15 15:00:00,19,1014,-0.2,46,7,25000,18.52,,,60,,,,,,,,,,0,wg-a,,,,AAXX 15154 07335 32775 40610 10190 20070 30000 40140 58002 700// 83230 91500=
07335,1999-05-15 18:00:00,18,1014.6,0.5,42,5,0,18.52,,,60,11,19.9,,,,,,,,,wg-a,,,,AAXX 15184 07335 32/// /0610 10180 20050 30005 40146 53005 91800 333 10199 20110=
07335,1999-05-16 00:00:00,8,1017.2,0.4,93,7,0,3.704,,,340,,,,,,,,,,,wg-a,,,,AAXX 16004 07335 32/// /3402 10080 20070 30025 40172 51004 90000=
07335,1999-05-16 04:00:00,9,1016.2,-0.7,93,8,12000,11.112,,,50,,,,,,,,,,0,wg-a,,,,AAXX 16044 07335 32/62 10506 10090 20080 30016 40162 56007 700// 80001 90400=
07335,1999-05-16 05:00:00,9,1016.2,-0.3,93,8,12000,7.408,,,60,,,,,,,,,,0,wg-a,,,,AAXX 16054 07335 32/62 10604 10090 20080 30016 40162 56003 700// 80001 90500=
07335,1999-05-16 06:00:00,10,1016.5,0.2,87,8,12000,7.408,,,60,7.1,18,,,,,,,,0,wg-a,,,,AAXX 16064 07335 32/62 00604 10100 20080 30020 40165 53002 700// 80000 90600 333 10180 20071=
07335,1999-05-16 07:00:00,12,1016.6,0.6,82,9,10000,11.112,,,70,,,,,,,,,,0,wg-a,,,,AAXX 16074 07335 32/60 00706 10120 20090 30022 40166 53006 700// 80000 90700=
07335,1999-05-16 08:00:00,14,1016.6,0.7,72,9,15000,14.816,,,80,,,,,,,,,,0,wg-a,,,,AAXX 16084 07335 32/65 00808 10140 20090 30023 40166 51007 700// 80000 90800=
07335,1999-05-16 09:00:00,16,1016.1,-0.1,68,10,20000,18.52,,,70,,,,,,,,,,0,wg-a,,,,AAXX 16094 07335 32570 /0710 10160 20100 30019 40161 58001 700// 81100 90900=
07335,1999-05-16 10:00:00,17,1015.8,-0.5,55,8,25000,22.224,,,70,,,,,,,,,,0,wg-a,,,,AAXX 16104 07335 32675 20712 10170 20080 30017 40158 58005 700// 82200 91000=
07335,1999-05-16 11:00:00,18,1015.3,-1.1,52,8,25000,22.224,,,70,,,,,,,,,,0,wg-a,,,,AAXX 16114 07335 32675 20712 10180 20080 30012 40153 58011 700// 82200 91100=
07335,1999-05-16 12:00:00,19,1014.6,-1.4,52,9,500,25.928,,,80,,,,,,,,,,0,wg-a,,,,AAXX 16124 07335 32600 30814 10190 20090 30005 40146 58014 700// 83200 91200=
07335,1999-05-16 13:00:00,19,1013.9,-1.8,49,8,500,22.224,,,80,,,,,,,,,,0,wg-a,,,,AAXX 16134 07335 32600 30812 10190 20080 39999 40139 58018 700// 83200 91300=
07335,1999-05-16 14:00:00,19,1013.6,-1.6,46,7,500,25.928,,,70,,,,,,,,,,0,wg-a,,,,AAXX 16144 07335 32600 30714 10190 20070 39996 40136 56016 700// 83200 91400=
07335,1999-05-16 15:00:00,19,1012.8,-1.7,46,7,500,22.224,,,70,,,,,,,,,,0,wg-a,,,,AAXX 16154 07335 32600 30712 10190 20070 39988 40128 58017 700// 83200 91500=
07335,1999-05-16 18:00:00,17,1011.8,-1.1,48,6,0,22.224,,,60,10.2,19.8,,,,,,,,,wg-a,,,,AAXX 16184 07335 32/// /0612 10170 20060 39977 40118 57011 91800 333 10198 20102=
07335,1999-05-17 00:00:00,11,1010.7,-0.9,71,6,0,22.224,,,40,,,,,,,,,,,wg-a,,,,AAXX 17004 07335 32/// /0412 10110 20060 39963 40107 58009 90000=
07335,1999-05-17 04:00:00,9,1008.2,-1.8,93,8,8000,18.52,,,40,,,3,,,,,,,61,wg-a,,,,AAXX 17044 07335 12258 80410 10090 20080 39937 40082 56018 60035 76162 8652/ 90400=
07335,1999-05-17 05:00:00,9,1007.9,-1.1,93,8,4000,18.52,,,50,,,,,,,,,,,wg-a,,,,AAXX 17054 07335 32/40 /0510 10090 20080 39934 40079 56011 90500=
07335,1999-05-17 06:00:00,9,1007.7,-0.8,93,8,10000,25.928,,,50,8.6,17.2,,5,,,6,,,61,wg-a,,,,AAXX 17064 07335 02260 80514 10090 20080 39932 40077 56008 60064 76162 8677/ 90600 333 10172 20086 60057=
07335,1999-05-17 07:00:00,9,1007.7,-0.4,93,8,12000,22.224,,,50,,,,,,,,,,21,wg-a,,,,AAXX 17074 07335 02262 80512 10090 20080 39933 40077 55004 61000 72162 877// 90700 333 ////=
07335,1999-05-17 08:00:00,9,1007.5,-0.3,93,8,12000,25.928,,,50,,,,,,,,,,0,wg-a,,,,AAXX 17084 07335 32262 80514 10090 20080 39931 40075 57003 700// 877// 90800=
07335,1999-05-17 09:00:00,10,1006.8,-0.8,87,8,15000,25.928,,,60,,,,,,,,,,2,wg-a,,,,AAXX 17094 07335 02265 80614 10100 20080 39924 40068 58008 61000 70262 877// 90900 333 ////=
07335,1999-05-17 10:00:00,11,1005.9,-1.7,87,9,15000,22.224,,,60,,,,,,,,,,0,wg-a,,,,AAXX 17104 07335 32265 80612 10110 20090 39916 40059 58017 700// 8577/ 91000=
07335,1999-05-17 12:00:00,12,1005.9,-0.8,88,10,20000,14.816,,,80,,,,,,,,,,1,wg-a,,,,AAXX 17124 07335 32470 80808 10120 20100 39916 40059 55008 70162 8657/ 91200=
07335,1999-05-17 13:00:00,12,1005.9,-0,88,10,12000,25.928,,,100,,,0,,,,,,,21,wg-a,,,,AAXX 17134 07335 12362 81014 10120 20100 39916 40059 55000 60005 72122 875// 91300=
07335,1999-05-17 14:00:00,12,1005.9,0.4,88,10,8000,11.112,,,90,,,0,,,,,,,61,wg-a,,,,AAXX 17144 07335 12258 80906 10120 20100 39916 40059 51004 60005 76162 877// 91400=
07335,1999-05-17 15:00:00,11,1005.3,-0.6,94,10,4000,11.112,,,60,,,,2,,,,,,10,wg-a,,,,AAXX 17154 07335 12140 80606 10110 20100 39910 40053 58006 60027 71062 887// 91500=
07335,1999-05-17 16:00:00,11,1004.9,-1,94,10,4000,11.112,,,70,,,3,,,,,,,10,wg-a,,,,AAXX 17164 07335 12140 80706 10110 20100 39906 40049 58010 60035 71066 887// 91600=
07335,1999-05-17 17:00:00,11,1004.6,-1.3,94,10,500,14.816,,,50,,,2,,,,,,,61,wg-a,,,,AAXX 17174 07335 12100 80508 10110 20100 39903 40046 56013 60025 76166 887// 91700=
07335,1999-05-17 18:00:00,11,1004.7,-0.6,94,10,0,0,,,0,8.6,12.4,,,,,,,,,wg-a,,,,AAXX 17184 07335 32/// /0000 10110 20100 39904 40047 55006 91800 333 10124 20086=
07335,1999-05-18 00:00:00,10,1006.6,0.7,93,9,600,7.408,,,170,,,,,,,,,,,wg-a,,,,AAXX 18004 07335 32/06 /1704 10100 20090 39922 40066 53007 90000=
07335,1999-05-18 04:00:00,8,1007.3,0.3,93,7,12000,7.408,,,140,,,,,,,,,,0,wg-a,,,,AAXX 18044 07335 02/62 11404 10080 20070 39928 40073 53003 61000 700// 81030 90400 333 ////=
07335,1999-05-18 05:00:00,8,1007.7,0.9,100,8,15000,7.408,,,130,,,,,,,,,,0,wg-a,,,,AAXX 18054 07335 32765 41304 10080 20080 39932 40077 53009 700// 81582 90500=
07335,1999-05-18 06:00:00,9,1007.9,1.1,100,9,15000,7.408,,,120,6.7,10.8,,,,,7,,,0,wg-a,,,,AAXX 18064 07335 12765 51204 10090 20090 39935 40079 51011 60074 700// 82582 90600 333 10108 20067=
07335,1999-05-18 07:00:00,12,1008.1,1,88,10,15000,7.408,,,160,,,,,,,,,,0,wg-a,,,,AAXX 18074 07335 32765 61604 10120 20100 39938 40081 51010 700// 84582 90700=
07335,1999-05-18 09:00:00,15,1008.3,0.7,77,11,20000,7.408,,,120,,,,,,,,,,0,wg-a,,,,AAXX 18094 07335 32470 51204 10150 20110 39942 40083 50007 700// 81882 90900=
07335,1999-05-18 10:00:00,16,1007.9,0,72,11,20000,11.112,,,70,,,,,,,,,,0,wg-a,,,,AAXX 18104 07335 32470 /0706 10160 20110 39938 40079 50000 700// 81882 91000=
07335,1999-05-18 11:00:00,17,1008.4,0.1,68,11,20000,14.816,,,80,,,,,,,,,,0,wg-a,,,,AAXX 18114 07335 32570 70808 10170 20110 39944 40084 53001 700// 82182 91100=
07335,1999-05-18 12:00:00,18,1008.2,-0,59,10,20000,11.112,,,100,,,,,,,,,,0,wg-a,,,,AAXX 18124 07335 32570 71006 10180 20100 39942 40082 55000 700// 82282 91200=
07335,1999-05-18 13:00:00,18,1008.3,0.5,64,11,20000,3.704,,,160,,,,,,,,,,0,wg-a,,,,AAXX 18134 07335 32570 71602 10180 20110 39943 40083 51005 700// 82482 91300=
07335,1999-05-18 14:00:00,18,1008,-0.4,68,12,20000,3.704,,,70,,,,,,,,,,0,wg-a,,,,AAXX 18144 07335 32570 70702 10180 20120 39940 40080 58004 700// 82982 91400=
07335,1999-05-18 15:00:00,20,1007.2,-0.9,53,10,15000,3.704,,,90,,,,,,,,,,15,wg-a,,,,AAXX 18154 07335 32565 60902 10200 20100 39933 40072 58009 71522 82982 91500=
07335,1999-05-18 16:00:00,16,1008.4,-0,68,10,3000,22.224,,,90,,,0,,,,,,,81,wg-a,,,,AAXX 18164 07335 12230 70912 10160 20100 39943 40084 55000 60005 78186 8528/ 91600=
07335,1999-05-18 17:00:00,16,1008.1,-0,77,12,12000,14.816,,,100,,,2,,,,,,,25,wg-a,,,,AAXX 18174 07335 12562 71008 10160 20120 39940 40081 55000 60025 72586 8498/ 91700=
07335,1999-05-18 18:00:00,15,1008.6,1.2,77,11,0,18.52,,,150,9.1,20.3,,,,,,,,,wg-a,,,,AAXX 18184 07335 32/// /1510 10150 20110 39945 40086 51012 91800 333 10203 20091=
07335,1999-05-19 00:00:00,11,1008.9,0.5,100,11,0,3.704,,,360,,,,,,,,,,,wg-a,,,,AAXX 19004 07335 32/// /3602 10110 20110 39946 40089 50005 90000=
07335,1999-05-19 04:00:00,11,1008.1,-0.8,100,11,3000,3.704,,,280,,,,,,,,,,10,wg-a,,,,AAXX 19044 07335 32230 82802 10110 20110 39938 40081 56008 71022 875// 90400=
07335,1999-05-19 05:00:00,11,1008.2,-0.2,100,11,10000,7.408,,,260,,,,,,,,,,0,wg-a,,,,AAXX 19054 07335 32260 82604 10110 20110 39939 40082 55002 700// 8257/ 90500=
07335,1999-05-19 06:00:00,12,1008.5,0.4,94,11,10000,14.816,,,260,11.1,15.4,,,,,4,,,61,wg-a,,,,AAXX 19064 07335 02260 82608 10120 20110 39942 40085 53004 60044 76162 8257/ 90600 333 10154 20111 61000=
07335,1999-05-19 07:00:00,12,1009,0.9,94,11,10000,11.112,,,250,,,,,,,,,,61,wg-a,,,,AAXX 19074 07335 02260 82506 10120 20110 39947 40090 53009 61000 76162 8277/ 90700 333 ////=
07335,1999-05-19 08:00:00,12,1009.5,1.3,100,12,500,11.112,,,240,,,1,,,,,,,61,wg-a,,,,AAXX 19084 07335 12200 82406 10120 20120 39952 40095 53013 60015 76166 875// 90800=
07335,1999-05-19 09:00:00,13,1009.8,1.4,100,13,10000,14.816,,,250,,,,1,,,,,,60,wg-a,,,,AAXX 19094 07335 12360 82508 10130 20130 39956 40098 51014 60017 76062 875// 90900=
07335,1999-05-19 10:00:00,13,1010.2,1.3,94,12,10000,18.52,,,240,,,,,,,,,,60,wg-a,,,,AAXX 19104 07335 02360 82410 10130 20120 39960 40102 51013 61000 76066 8377/ 91000 333 ////=
07335,1999-05-19 11:00:00,15,1010.2,0.8,94,14,12000,14.816,,,240,,,0,,,,,,,21,wg-a,,,,AAXX 19114 07335 12362 82408 10150 20140 39960 40102 51008 60005 72162 8387/ 91100=
07335,1999-05-19 12:00:00,15,1010.4,0.6,82,12,10000,18.52,,,260,,,,0,,,,,,61,wg-a,,,,AAXX 19124 07335 12460 82610 10150 20120 39962 40104 51006 60007 76162 8387/ 91200=
07335,1999-05-19 13:00:00,16,1010.4,0.3,82,13,20000,22.224,,,260,,,,,,,,,,21,wg-a,,,,AAXX 19134 07335 02570 72612 10160 20130 39963 40104 53003 61000 72162 878// 91300 333 ////=
07335,1999-05-19 14:00:00,17,1010.5,0.4,72,12,20000,22.224,,,260,,,,,,,,,,0,wg-a,,,,AAXX 19144 07335 32570 72612 10170 20120 39964 40105 51004 700// 878// 91400=
07335,1999-05-19 15:00:00,17,1010.9,0.6,68,11,20000,22.224,,,270,,,,,,,,,,1,wg-a,,,,AAXX 19154 07335 02570 62712 10170 20110 39968 40109 53006 61000 70162 82832 91500 333 ////=
07335,1999-05-19 16:00:00,17,1011,0.6,63,10,25000,25.928,,,260,,,,,,,,,,0,wg-a,,,,AAXX 19164 07335 32575 52614 10170 20100 39969 40110 52006 700// 82833 91600=
07335,1999-05-19 17:00:00,15,1011.7,1.1,77,11,25000,22.224,,,260,,,,,,,,,,0,wg-a,,,,AAXX 19174 07335 32575 62612 10150 20110 39975 40117 53011 700// 83832 91700=
07335,1999-05-19 18:00:00,14,1012.3,1.2,82,11,0,22.224,,,260,11.5,17.6,,,,,,,,,wg-a,,,,AAXX 19184 07335 32/// /2612 10140 20110 39980 40123 53012 91800 333 10176 20115=
07335,1999-05-20 00:00:00,13,1013.4,0.1,94,12,0,11.112,,,270,,,,,,,,,,,wg-a,,,,AAXX 20004 07335 32/// /2706 10130 20120 39991 40134 51001 90000=
07335,1999-05-20 04:00:00,10,1014.3,0.8,93,9,3000,14.816,,,300,,,,,,,,,,10,wg-a,,,,AAXX 20044 07335 32130 53008 10100 20090 39998 40143 52008 710// 84530 90400=
07335,1999-05-20 05:00:00,10,1015.1,1.5,100,10,3000,14.816,,,300,,,,,,,,,,10,wg-a,,,,AAXX 20054 07335 32130 /3008 10100 20100 30006 40151 53015 71022 84530 90500=
07335,1999-05-20 06:00:00,11,1015.6,1.4,94,10,3000,18.52,,,310,9.4,13.6,,,,,1,,,10,wg-a,,,,AAXX 20064 07335 12130 83110 10110 20100 30011 40156 53014 60014 71022 876// 90600 333 10136 20094=
07335,1999-05-20 07:00:00,11,1015.8,1.6,94,10,3500,22.224,,,300,,,,,,,,,,10,wg-a,,,,AAXX 20074 07335 32235 73012 10110 20100 30014 40158 51016 71022 876// 90700=
07335,1999-05-20 08:00:00,12,1016.2,1.2,88,10,500,14.816,,,310,,,,,,,,,,0,wg-a,,,,AAXX 20084 07335 32400 83108 10120 20100 30018 40162 51012 700// 885// 90800=
07335,1999-05-20 09:00:00,14,1016.1,0.7,82,11,7000,14.816,,,280,,,,,,,,,,0,wg-a,,,,AAXX 20094 07335 32457 72808 10140 20110 30018 40161 51007 700// 8683/ 90900=
07335,1999-05-20 10:00:00,15,1015.9,0.2,72,10,10000,22.224,,,280,,,,,,,,,,0,wg-a,,,,AAXX 20104 07335 32560 72812 10150 20100 30016 40159 50002 700// 8583/ 91000=
07335,1999-05-20 11:00:00,14,1015.9,-0.2,82,11,12000,22.224,,,310,,,,,,,,,,0,wg-a,,,,AAXX 20114 07335 32162 83112 10140 20110 30016 40159 57002 700// 8527/ 91100=
07335,1999-05-20 12:00:00,14,1015.9,-0.2,82,11,15000,22.224,,,290,,,,,,,,,,25,wg-a,,,,AAXX 20124 07335 32365 82912 10140 20110 30016 40159 56002 72522 8527/ 91200=
07335,1999-05-20 13:00:00,13,1016.1,0.2,88,11,15000,22.224,,,290,,,0,,,,,,,25,wg-a,,,,AAXX 20134 07335 12265 82912 10130 20110 30018 40161 53002 60005 72522 8687/ 91300=
07335,1999-05-20 14:00:00,15,1015.7,-0.1,77,11,15000,18.52,,,300,,,,,,,,,,0,wg-a,,,,AAXX 20144 07335 32565 83010 10150 20110 30015 40157 58001 700// 8587/ 91400=
07335,1999-05-20 15:00:00,15,1015.8,-0.1,77,11,15000,22.224,,,290,,,,0,,,,,,2,wg-a,,,,AAXX 20154 07335 12565 82912 10150 20110 30015 40158 58001 60007 70286 8587/ 91500=
07335,1999-05-20 16:00:00,15,1015.7,-0.3,82,12,15000,18.52,,,280,,,,,,,,,,0,wg-a,,,,AAXX 20164 07335 32565 82810 10150 20120 30015 40157 56003 700// 8587/ 91600=
07335,1999-05-20 17:00:00,14,1016.1,0.3,88,12,15000,18.52,,,280,,,,,,,,,,0,wg-a,,,,AAXX 20174 07335 32565 72810 10140 20120 30018 40161 53003 700// 8487/ 91700=
07335,1999-05-20 18:00:00,14,1016.3,0.5,88,12,0,11.112,,,300,10.6,15.6,,,,,,,,,wg-a,,,,AAXX 20184 07335 32/// /3006 10140 20120 30020 40163 53005 91800 333 10156 20106=
07335,1999-05-21 00:00:00,12,1018.6,0.8,94,11,0,18.52,,,290,,,,,,,,,,,wg-a,,,,AAXX 21004 07335 32/// /2910 10120 20110 30042 40186 53008 90000=
07335,1999-05-21 04:00:00,11,1019.7,0.8,94,10,3000,14.816,,,300,,,,,,,,,,10,wg-a,,,,AAXX 21044 07335 32130 73008 10110 20100 30052 40197 53008 71022 84601 90400=
07335,1999-05-21 05:00:00,10,1020.1,1,100,10,3000,14.816,,,300,,,,,,,,,,10,wg-a,,,,AAXX 21054 07335 32430 73008 10100 20100 30055 40201 53010 71022 84501 90500=
07335,1999-05-21 06:00:00,11,1020.6,1.5,94,10,3500,18.52,,,300,10.2,14.4,,,,,,,,10,wg-a,,,,AAXX 21064 07335 12335 73010 10110 20100 30061 40206 52015 60004 71022 85502 90600 333 10144 20102=
07335,1999-05-21 07:00:00,11,1021.3,1.6,94,10,4000,18.52,,,320,,,,,,,,,,10,wg-a,,,,AAXX 21074 07335 32440 73210 10110 20100 30068 40213 53016 71022 875// 90700=
07335,1999-05-21 08:00:00,12,1021.8,1.8,88,10,500,18.52,,,320,,,,,,,,,,0,wg-a,,,,AAXX 21084 07335 32400 73210 10120 20100 30073 40218 51018 700// 875// 90800=
07335,1999-05-21 09:00:00,15,1021.8,1.3,72,10,8000,18.52,,,300,,,,,,,,,,0,wg-a,,,,AAXX 21094 07335 32458 /3010 10150 20100 30074 40218 51013 700// 83132 90900=
07335,1999-05-21 10:00:00,16,1021.8,0.7,77,12,12000,18.52,,,300,,,,,,,,,,0,wg-a,,,,AAXX 21104 07335 32562 63010 10160 20120 30075 40218 51007 700// 83232 91000=
07335,1999-05-21 11:00:00,17,1021.7,0.2,68,11,15000,18.52,,,290,,,,,,,,,,0,wg-a,,,,AAXX 21114 07335 32565 52910 10170 20110 30075 40217 51002 700// 83232 91100=
07335,1999-05-21 12:00:00,18,1021.8,0.2,59,10,20000,22.224,,,320,,,,,,,,,,0,wg-a,,,,AAXX 21124 07335 32570 43212 10180 20100 30076 40218 52002 700// 83232 91200=
07335,1999-05-21 13:00:00,18,1021.9,0.2,64,11,20000,25.928,,,310,,,,,,,,,,0,wg-a,,,,AAXX 21134 07335 32670 43114 10180 20110 30077 40219 53002 700// 83202 91300=
07335,1999-05-21 14:00:00,19,1021.8,0.1,56,10,20000,22.224,,,310,,,,,,,,,,0,wg-a,,,,AAXX 21144 07335 32670 43112 10190 20100 30076 40218 50001 700// 83202 91400=
07335,1999-05-21 15:00:00,19,1021.5,-0.2,60,11,20000,18.52,,,310,,,,,,,,,,0,wg-a,,,,AAXX 21154 07335 32670 53110 10190 20110 30074 40215 58002 700// 83202 91500=
07335,1999-05-21 16:00:00,19,1021.7,-0.2,60,11,20000,18.52,,,280,,,,,,,,,,0,wg-a,,,,AAXX 21164 07335 32670 72810 10190 20110 30075 40217 55002 700// 83232 91600=
07335,1999-05-21 17:00:00,18,1021.9,0.1,68,12,20000,18.52,,,290,,,,,,,,,,0,wg-a,,,,AAXX 21174 07335 32670 72910 10180 20120 30077 40219 53001 700// 83232 91700=
07335,1999-05-21 18:00:00,17,1022.3,0.6,72,12,0,22.224,,,280,10.8,19.4,,,,,,,,,wg-a,,,,AAXX 21184 07335 32/// /2812 10170 20120 30080 40223 53006 91800 333 10194 20108=
07335,1999-05-22 00:00:00,13,1023.4,-0.4,88,11,0,18.52,,,280,,,,,,,,,,,wg-a,,,,AAXX 22004 07335 32/// /2810 10130 20110 30089 40234 58004 90000=
07335,1999-05-22 04:00:00,13,1022.8,-0.3,94,12,11000,14.816,,,260,,,,,,,,,,,wg-a,,,,AAXX 22044 07335 32/61 /2608 10130 20120 30083 40228 56003 90400=
07335,1999-05-22 05:00:00,13,1022.8,-0.1,94,12,10000,11.112,,,250,,,,,,,,,,20,wg-a,,,,AAXX 22054 07335 02360 82506 10130 20120 30084 40228 55001 61000 72052 885// 90500 333 ////=
07335,1999-05-22 06:00:00,13,1023.2,0.5,94,12,15000,14.816,,,270,12.2,16.7,,,,,,,,2,wg-a,,,,AAXX 22064 07335 02265 82708 10130 20120 30088 40232 53005 61000 70252 885// 90600 333 10167 20122 6100=
07335,1999-05-22 07:00:00,15,1023.3,0.6,88,13,25000,18.52,,,290,,,,,,,,,,0,wg-a,,,,AAXX 22074 07335 32475 72910 10150 20130 30089 40233 52006 700// 875// 90700=
07335,1999-05-22 08:00:00,16,1023.4,0.7,77,12,25000,22.224,,,300,,,,,,,,,,0,wg-a,,,,AAXX 22084 07335 32475 73012 10160 20120 30091 40234 51007 700// 878// 90800=
07335,1999-05-22 09:00:00,16,1023.4,0.3,72,11,25000,18.52,,,320,,,,,,,,,,0,wg-a,,,,AAXX 22094 07335 32475 73210 10160 20110 30091 40234 51003 700// 878// 90900=
07335,1999-05-22 10:00:00,17,1023.5,0.3,68,11,11000,18.52,,,300,,,,,,,,,,,wg-a,,,,AAXX 22104 07335 32/61 /3010 10170 20110 30092 40235 51003 91000=
07335,1999-05-22 11:00:00,16,1023.6,0.2,77,12,25000,18.52,,,310,,,,,,,,,,0,wg-a,,,,AAXX 22114 07335 32575 73110 10160 20120 30093 40236 53002 700// 878// 91100=
07335,1999-05-22 12:00:00,18,1023.3,0,68,12,500,18.52,,,290,,,,,,,,,,0,wg-a,,,,AAXX 22124 07335 32500 82910 10180 20120 30091 40233 50000 700// 888// 91200=
07335,1999-05-22 13:00:00,18,1023.1,-0.3,64,11,500,22.224,,,290,,,,,,,,,,0,wg-a,,,,AAXX 22134 07335 32500 72912 10180 20110 30089 40231 58003 700// 878// 91300=
07335,1999-05-22 14:00:00,19,1022.9,-0.6,64,12,500,18.52,,,280,,,,,,,,,,0,wg-a,,,,AAXX 22144 07335 32500 72810 10190 20120 30087 40229 57006 700// 878// 91400=
07335,1999-05-22 15:00:00,18,1023,-0.3,68,12,500,14.816,,,250,,,,,,,,,,0,wg-a,,,,AAXX 22154 07335 32500 72508 10180 20120 30088 40230 55003 700// 878// 91500=
07335,1999-05-22 18:00:00,16,1023.4,0.3,82,13,0,14.816,,,260,13.2,18.9,,,,,,,,,wg-a,,,,AAXX 22184 07335 32/// /2608 10160 20130 30091 40234 53003 91800 333 10189 20132=
07335,1999-05-23 04:00:00,6,1025,-0,100,6,8000,7.408,,,250,,,,,,,,,,0,wg-a,,,,AAXX 23044 07335 32/58 /2504 10060 20060 30102 40250 55000 700// 80001 90400=
07335,1999-05-23 05:00:00,6,1025.3,0.2,100,6,6000,3.704,,,270,,,,,,,,,,0,wg-a,,,,AAXX 23054 07335 32/56 /2702 10060 20060 30104 40253 53002 700// 80001 90500=
07335,1999-05-23 06:00:00,9,1025.4,0.6,100,9,7000,3.704,,,230,5.9,16.3,,,,,,,,0,wg-a,,,,AAXX 23064 07335 12/57 22302 10090 20090 30107 40254 53006 60004 700// 81031 90600 333 10163 20059=
07335,1999-05-23 07:00:00,12,1025.4,0.6,94,11,10000,3.704,,,270,,,,,,,,,,0,wg-a,,,,AAXX 23074 07335 32060 /2702 10120 20110 30108 40254 51006 700// 81101 90700=
07335,1999-05-23 08:00:00,14,1025.2,0.4,88,12,15000,3.704,,,190,,,,,,,,,,0,wg-a,,,,AAXX 23084 07335 32/65 21902 10140 20120 30108 40252 51004 700// 80001 90800=
07335,1999-05-23 09:00:00,17,1024.9,-0.1,72,12,25000,7.408,,,220,,,,,,,,,,0,wg-a,,,,AAXX 23094 07335 32475 32204 10170 20120 30106 40249 58001 700// 82201 90900=
07335,1999-05-23 10:00:00,18,1024.6,-0.4,68,12,25000,3.704,,,250,,,,,,,,,,0,wg-a,,,,AAXX 23104 07335 32575 52502 10180 20120 30104 40246 58004 700// 84201 91000=
07335,1999-05-23 11:00:00,18,1024.4,-0.6,59,10,25000,3.704,,,290,,,,,,,,,,0,wg-a,,,,AAXX 23114 07335 32575 /2902 10180 20100 30102 40244 57006 700// 86200 91100=
07335,1999-05-23 12:00:00,20,1024.1,-0.6,60,12,25000,11.112,,,230,,,,,,,,,,0,wg-a,,,,AAXX 23124 07335 32675 /2306 10200 20120 30100 40241 57006 700// 85200 91200=
07335,1999-05-23 13:00:00,20,1023.7,-0.8,60,12,25000,7.408,,,250,,,,,,,,,,0,wg-a,,,,AAXX 23134 07335 32675 /2504 10200 20120 30096 40237 58008 700// 85100 91300=
07335,1999-05-23 14:00:00,21,1023.3,-1,56,12,25000,11.112,,,330,,,,,,,,,,0,wg-a,,,,AAXX 23144 07335 32675 43306 10210 20120 30092 40233 58010 700// 84100 91400=
07335,1999-05-23 15:00:00,21,1023,-1.1,53,11,25000,7.408,,,260,,,,,,,,,,0,wg-a,,,,AAXX 23154 07335 32675 42604 10210 20110 30089 40230 56011 700// 84100 91500=
07335,1999-05-23 18:00:00,20,1022.4,-0.6,60,12,0,7.408,,,310,9,21.6,,,,,,,,,wg-a,,,,AAXX 23184 07335 32/// /3104 10200 20120 30083 40224 56006 91800 333 10216 20090=
07335,1999-05-24 00:00:00,14,1022.7,-0.6,88,12,0,3.704,,,350,,,,,,,,,,,wg-a,,,,AAXX 24004 07335 32/// /3502 10140 20120 30083 40227 58006 90000=
07335,1999-05-24 04:00:00,12,1021.8,-0.7,88,10,20000,0,,,0,,,,,,,,,,0,wg-a,,,,AAXX 24044 07335 32670 20000 10120 20100 30073 40218 57007 700// 82500 90400=
07335,1999-05-24 05:00:00,10,1022,-0.3,93,9,20000,0,,,0,,,,,,,,,,0,wg-a,,,,AAXX 24054 07335 32670 /0000 10100 20090 30074 40220 55003 700// 81502 90500=
07335,1999-05-24 06:00:00,13,1021.8,-0.2,94,12,20000,3.704,,,350,9.8,20.1,,,,,,,,0,wg-a,,,,AAXX 24064 07335 12670 /3502 10130 20120 30074 40218 56002 60004 700// 81502 90600 333 10201 20098=
07335,1999-05-24 07:00:00,15,1021.8,0.2,88,13,20000,3.704,,,360,,,,,,,,,,0,wg-a,,,,AAXX 24074 07335 32/70 13602 10150 20130 30075 40218 52002 700// 81032 90700=
07335,1999-05-24 08:00:00,18,1021.7,0.1,73,13,20000,3.704,,,30,,,,,,,,,,0,wg-a,,,,AAXX 24084 07335 32/70 10302 10180 20130 30075 40217 52001 700// 80002 90800=
07335,1999-05-24 09:00:00,20,1021.3,-0.2,60,12,25000,3.704,,,280,,,,,,,,,,0,wg-a,,,,AAXX 24094 07335 32575 /2802 10200 20120 30072 40213 58002 700// 81102 90900=
07335,1999-05-24 10:00:00,21,1021.2,-0.4,53,11,25000,3.704,,,310,,,,,,,,,,0,wg-a,,,,AAXX 24104 07335 32675 43102 10210 20110 30071 40212 58004 700// 84102 91000=
07335,1999-05-24 11:00:00,21,1020.9,-0.6,53,11,25000,7.408,,,50,,,,,,,,,,0,wg-a,,,,AAXX 24114 07335 32675 /0504 10210 20110 30069 40209 56006 700// 85102 91100=
07335,1999-05-24 12:00:00,21,1020.6,-0.6,56,12,25000,7.408,,,30,,,,,,,,,,0,wg-a,,,,AAXX 24124 07335 32675 /0304 10210 20120 30066 40206 58006 700// 85102 91200=
07335,1999-05-24 13:00:00,22,1020.5,-0.6,57,13,25000,7.408,,,310,,,,,,,,,,0,wg-a,,,,AAXX 24134 07335 32775 53104 10220 20130 30065 40205 56006 700// 85102 91300=
07335,1999-05-24 14:00:00,22,1020.1,-0.8,53,12,25000,11.112,,,50,,,,,,,,,,0,wg-a,,,,AAXX 24144 07335 32775 50506 10220 20120 30061 40201 58008 700// 85102 91400=
07335,1999-05-24 15:00:00,22,1019.9,-0.7,53,12,25000,11.112,,,340,,,,,,,,,,0,wg-a,,,,AAXX 24154 07335 32775 53406 10220 20120 30059 40199 58007 700// 85102 91500=
07335,1999-05-24 18:00:00,21,1019.6,-0.3,60,13,0,14.816,,,30,12.9,22.9,,,,,,,,,wg-a,,,,AAXX 24184 07335 32/// /0308 10210 20130 30056 40196 56003 91800 333 10229 20129=
07335,1999-05-25 00:00:00,13,1021.2,0.2,94,12,0,7.408,,,330,,,,,,,,,,,wg-a,,,,AAXX 25004 07335 32/// /3304 10130 20120 30068 40212 50002 90000=
07335,1999-05-25 04:00:00,12,1021.3,-0,94,11,6000,7.408,,,340,,,,,,,,,,0,wg-a,,,,AAXX 25044 07335 32756 73404 10120 20110 30068 40213 54000 700// 875// 90400=
07335,1999-05-25 05:00:00,11,1021.5,0.2,100,11,500,11.112,,,340,,,,,,,,,,,wg-a,,,,AAXX 25054 07335 32/00 /3406 10110 20110 30070 40215 53002 90500=
07335,1999-05-25 06:00:00,12,1021.9,0.6,100,12,500,11.112,,,350,11.3,21.1,,0,,,,,,0,wg-a,,,,AAXX 25064 07335 02300 73506 10120 20120 30074 40219 53006 60004 700// 876// 90600 333 10211 20113 60007=
07335,1999-05-25 07:00:00,13,1021.9,0.7,100,13,500,11.112,,,360,,,,,,,,,,0,wg-a,,,,AAXX 25074 07335 32200 73606 10130 20130 30075 40219 51007 700// 876// 90700=
07335,1999-05-25 08:00:00,15,1022,0.7,88,13,6000,14.816,,,10,,,,,,,,,,0,wg-a,,,,AAXX 25084 07335 32356 70108 10150 20130 30077 40220 51007 700// 876// 90800=
07335,1999-05-25 09:00:00,16,1021.9,0.2,88,14,10000,11.112,,,360,,,,,,,,,,0,wg-a,,,,AAXX 25094 07335 32460 /3606 10160 20140 30076 40219 50002 700// 86800 90900=
07335,1999-05-25 11:00:00,19,1021.6,-0.2,78,15,12000,14.816,,,20,,,,,,,,,,0,wg-a,,,,AAXX 25114 07335 32462 /0208 10190 20150 30075 40216 56002 700// 86200 91100=
07335,1999-05-25 12:00:00,20,1021.3,-0.4,68,14,15000,11.112,,,30,,,,,,,,,,0,wg-a,,,,AAXX 25124 07335 32565 /0306 10200 20140 30072 40213 58004 700// 85200 91200=
07335,1999-05-25 13:00:00,21,1020.8,-0.7,64,14,15000,11.112,,,360,,,,,,,,,,0,wg-a,,,,AAXX 25134 07335 32565 /3606 10210 20140 30068 40208 58007 700// 85200 91300=
07335,1999-05-25 14:00:00,21,1020.7,-0.8,60,13,15000,11.112,,,360,,,,,,,,,,0,wg-a,,,,AAXX 25144 07335 32565 /3606 10210 20130 30067 40207 56008 700// 85200 91400=
07335,1999-05-25 15:00:00,21,1020.3,-0.9,56,12,15000,14.816,,,340,,,,,,,,,,0,wg-a,,,,AAXX 25154 07335 32665 /3408 10210 20120 30063 40203 57009 700// 85200 91500=
07335,1999-05-25 16:00:00,21,1020.1,-0.7,60,13,15000,11.112,,,20,,,,,,,,,,0,wg-a,,,,AAXX 25164 07335 32665 /0206 10210 20130 30061 40201 58007 700// 85200 91600=
07335,1999-05-25 17:00:00,21,1019.9,-0.8,56,12,15000,11.112,,,350,,,,,,,,,,0,wg-a,,,,AAXX 25174 07335 32765 43506 10210 20120 30059 40199 56008 700// 84200 91700=
07335,1999-05-25 18:00:00,20,1019.7,-0.6,60,12,0,11.112,,,350,12.2,21.6,,,,,,,,,wg-a,,,,AAXX 25184 07335 32/// /3506 10200 20120 30057 40197 57006 91800 333 10216 20122=
07335,1999-05-26 00:00:00,14,1019.8,-0.7,88,12,0,7.408,,,70,,,,,,,,,,,wg-a,,,,AAXX 26004 07335 32/// /0704 10140 20120 30055 40198 58007 90000=
07335,1999-05-26 04:00:00,8,1018.8,-0.9,100,8,8000,3.704,,,360,,,,,,,,,,11,wg-a,,,,AAXX 26044 07335 32/58 /3602 10080 20080 30041 40188 56009 71100 80001 90400=
07335,1999-05-26 05:00:00,8,1018.6,-0.7,100,8,8000,3.704,,,350,,,,,,,,,,0,wg-a,,,,AAXX 26054 07335 32/58 /3502 10080 20080 30040 40186 56007 700// 80001 90500=
07335,1999-05-26 06:00:00,12,1018.6,-0.1,100,12,10000,3.704,,,80,7.7,20.4,,,,,,,,0,wg-a,,,,AAXX 26064 07335 32/60 00802 10120 20120 30042 40186 55001 700// 80000 90600 333 10204 20077=
07335,1999-05-26 07:00:00,16,1018.5,0.1,82,13,10000,3.704,,,70,,,,,,,,,,0,wg-a,,,,AAXX 26074 07335 32/60 10702 10160 20130 30042 40185 53001 700// 80001 90700=
07335,1999-05-26 08:00:00,18,1018.3,0.2,77,14,12000,3.704,,,70,,,,,,,,,,0,wg-a,,,,AAXX 26084 07335 32/62 10702 10180 20140 30042 40183 51002 700// 80001 90800=
07335,1999-05-26 10:00:00,22,1017.7,-0.4,57,13,20000,11.112,,,50,,,,,,,,,,0,wg-a,,,,AAXX 26104 07335 32670 10506 10220 20130 30038 40177 58004 700// 81101 91000=
07335,1999-05-26 11:00:00,23,1017.1,-1,53,13,25000,3.704,,,100,,,,,,,,,,0,wg-a,,,,AAXX 26114 07335 32675 /1002 10230 20130 30032 40171 58010 700// 81101 91100=
07335,1999-05-26 12:00:00,24,1016.5,-1.4,44,11,25000,11.112,,,110,,,,,,,,,,0,wg-a,,,,AAXX 26124 07335 32/75 11106 10240 20110 30027 40165 58014 700// 80001 91200=
07335,1999-05-26 13:00:00,25,1015.9,-1.7,47,13,25000,11.112,,,140,,,,,,,,,,0,wg-a,,,,AAXX 26134 07335 32/75 11406 10250 20130 30021 40159 57017 700// 80001 91300=
07335,1999-05-26 14:00:00,25,1015.3,-1.6,44,12,25000,7.408,,,110,,,,,,,,,,0,wg-a,,,,AAXX 26144 07335 32775 11104 10250 20120 30016 40153 57016 700// 81101 91400=
07335,1999-05-26 15:00:00,26,1014.8,-1.6,42,12,25000,11.112,,,90,,,,,,,,,,0,wg-a,,,,AAXX 26154 07335 32775 10906 10260 20120 30011 40148 56016 700// 81101 91500=
07335,1999-05-26 16:00:00,26,1014.4,-1.4,42,12,25000,11.112,,,70,,,,,,,,,,0,wg-a,,,,AAXX 26164 07335 32775 10706 10260 20120 30007 40144 56014 700// 81101 91600=
07335,1999-05-26 17:00:00,26,1014,-1.3,42,12,25000,11.112,,,90,,,,,,,,,,0,wg-a,,,,AAXX 26174 07335 32/75 10906 10260 20120 30003 40140 56013 700// 80001 91700=
07335,1999-05-26 18:00:00,25,1013.9,-0.9,50,14,0,14.816,,,80,12.3,26.3,,,,,,,,,wg-a,,,,AAXX 26184 07335 32/// /0808 10250 20140 30002 40139 56009 91800 333 10263 20123=
07335,1999-05-27 00:00:00,19,1013.2,-1.3,78,15,0,7.408,,,100,,,,,,,,,,,wg-a,,,,AAXX 27004 07335 32/// /1004 10190 20150 39992 40132 58013 90000=
07335,1999-05-27 04:00:00,16,1011.3,-1.5,88,14,15000,7.408,,,110,,,,,,,,,,0,wg-a,,,,AAXX 27044 07335 32/65 21104 10160 20140 39972 40113 56015 700// 80002 90400=
07335,1999-05-27 05:00:00,16,1011.2,-1,88,14,15000,11.112,,,100,,,,,,,,,,0,wg-a,,,,AAXX 27054 07335 32/65 31006 10160 20140 39971 40112 56010 700// 80002 90500=
07335,1999-05-27 06:00:00,17,1011.1,-0.3,82,14,20000,7.408,,,110,15.9,25.3,,,,,,,,0,wg-a,,,,AAXX 27064 07335 12/70 31104 10170 20140 39970 40111 57003 60004 700// 81082 90600 333 10253 20159=
07335,1999-05-27 07:00:00,21,1011.2,0.1,69,15,20000,11.112,,,140,,,,,,,,,,0,wg-a,,,,AAXX 27074 07335 32/70 21406 10210 20150 39973 40112 53001 700// 81082 90700=
07335,1999-05-27 08:00:00,23,1012,1.1,50,12,25000,18.52,,,170,,,,,,,,,,0,wg-a,,,,AAXX 27084 07335 32775 /1710 10230 20120 39982 40120 53011 700// 82982 90800=
07335,1999-05-27 09:00:00,18,1011.7,0.7,83,15,25000,7.408,,,160,,,,1,,,,,,17,wg-a,,,,AAXX 27094 07335 12775 71604 10180 20150 39977 40117 50007 60017 71791 8199/ 90900=
07335,1999-05-27 10:00:00,23,1011.4,0.3,69,17,25000,11.112,,,160,,,,,,,,,,29,wg-a,,,,AAXX 27104 07335 32/75 51606 10230 20170 39976 40114 50003 72992 84032 91000=
07335,1999-05-27 11:00:00,24,1011.7,-0.3,54,14,500,22.224,,,170,,,,,,,,,,0,wg-a,,,,AAXX 27114 07335 32/00 71712 10240 20140 39979 40117 55003 700// 86082 91100=
07335,1999-05-27 12:00:00,23,1011.8,0.3,57,14,25000,14.816,,,170,,,,,,,,,,3,wg-a,,,,AAXX 27124 07335 32/75 71708 10230 20140 39980 40118 53003 70398 8707/ 91200=
07335,1999-05-27 13:00:00,26,1011.8,0.5,48,14,25000,22.224,,,200,,,,,,,,,,0,wg-a,,,,AAXX 27134 07335 32/75 72012 10260 20140 39981 40118 51005 700// 86082 91300=
07335,1999-05-27 14:00:00,26,1012,0.4,51,15,25000,18.52,,,220,,,,,,,,,,0,wg-a,,,,AAXX 27144 07335 32/75 72210 10260 20150 39983 40120 53004 700// 86082 91400=
07335,1999-05-27 15:00:00,25,1012.8,1.1,57,16,25000,25.928,,,230,,,,,,,,,,0,wg-a,,,,AAXX 27154 07335 32675 /2314 10250 20160 39991 40128 53011 700// 81282 91500=
07335,1999-05-27 16:00:00,22,1014.2,2.2,69,16,25000,25.928,,,260,,,,,,,,,,0,wg-a,,,,AAXX 27164 07335 32/75 72614 10220 20160 30003 40142 53022 700// 8708/ 91600=
07335,1999-05-27 17:00:00,20,1015.9,3.6,73,15,25000,18.52,,,250,,,,,,,,,,25,wg-a,,,,AAXX 27174 07335 32/75 72510 10200 20150 30019 40159 53036 72522 8708/ 91700=
07335,1999-05-27 18:00:00,19,1015.8,2.7,83,16,0,11.112,,,250,17.2,26.3,,,,,,,,,wg-a,,,,AAXX 27184 07335 32/// /2506 10190 20160 30018 40158 50027 91800 333 10263 20172=
07335,1999-05-28 00:00:00,12,1020.6,1.5,94,11,0,0,,,0,,,,,,,,,,,wg-a,,,,AAXX 28004 07335 32/// /0000 10120 20110 30061 40206 51015 90000=
07335,1999-05-28 04:00:00,9,1021.8,0.7,93,8,200,0,,,0,,,,,,,,,,44,wg-a,,,,AAXX 28044 07335 32/02 /0000 10090 20080 30071 40218 51007 74440 81030 90400=
07335,1999-05-28 05:00:00,9,1022.2,0.8,100,9,500,0,,,0,,,,,,,,,,41,wg-a,,,,AAXX 28054 07335 32/05 /0000 10090 20090 30075 40222 53008 74144 81030 90500=
07335,1999-05-28 06:00:00,13,1022.2,0.8,100,13,8000,0,,,0,8.4,18.9,,,,,2,,,28,wg-a,,,,AAXX 28064 07335 12/58 /0000 10130 20130 30078 40222 53008 60024 72840 81030 90600 333 10189 20084=
07335,1999-05-28 07:00:00,16,1022.1,0.7,88,14,25000,11.112,,,90,,,,,,,,,,0,wg-a,,,,AAXX 28074 07335 32/75 00906 10160 20140 30078 40221 51007 700// 80000 90700=
07335,1999-05-28 08:00:00,19,1022,0.4,68,13,500,14.816,,,80,,,,,,,,,,0,wg-a,,,,AAXX 28084 07335 32/00 00808 10190 20130 30079 40220 51004 700// 80000 90800=
07335,1999-05-28 09:00:00,20,1021.8,-0.1,60,12,500,18.52,,,70,,,,,,,,,,0,wg-a,,,,AAXX 28094 07335 32/00 00710 10200 20120 30077 40218 58001 700// 80000 90900=
07335,1999-05-28 10:00:00,21,1021.1,-0.7,60,13,500,22.224,,,70,,,,,,,,,,0,wg-a,,,,AAXX 28104 07335 32/00 00712 10210 20130 30071 40211 58007 700// 80000 91000=
07335,1999-05-28 11:00:00,22,1020.5,-1.3,60,14,500,22.224,,,90,,,,,,,,,,0,wg-a,,,,AAXX 28114 07335 32/00 00912 10220 20140 30066 40205 58013 700// 80000 91100=
07335,1999-05-28 12:00:00,23,1019.7,-1.9,57,14,500,22.224,,,80,,,,,,,,,,0,wg-a,,,,AAXX 28124 07335 32/00 10812 10230 20140 30058 40197 58019 700// 80001 91200=
07335,1999-05-28 13:00:00,25,1018.9,-2,50,14,500,22.224,,,110,,,,,,,,,,0,wg-a,,,,AAXX 28134 07335 32/00 51112 10250 20140 30051 40189 58020 700// 80001 91300=
07335,1999-05-28 14:00:00,25,1018.3,-2.1,54,15,500,18.52,,,100,,,,,,,,,,0,wg-a,,,,AAXX 28144 07335 32/00 61010 10250 20150 30045 40183 56021 700// 80001 91400=
07335,1999-05-28 15:00:00,26,1017.2,-2.3,51,15,500,18.52,,,90,,,,,,,,,,0,wg-a,,,,AAXX 28154 07335 32/00 60910 10260 20150 30035 40172 58023 700// 80001 91500=
07335,1999-05-28 16:00:00,26,1016.5,-2.3,54,16,500,22.224,,,90,,,,,,,,,,0,wg-a,,,,AAXX 28164 07335 32/00 70912 10260 20160 30028 40165 58023 700// 80002 91600=
07335,1999-05-28 17:00:00,26,1016.1,-2.1,54,16,500,18.52,,,100,,,,,,,,,,0,wg-a,,,,AAXX 28174 07335 32/00 71010 10260 20160 30024 40161 56021 700// 80002 91700=
07335,1999-05-28 18:00:00,26,1015.8,-1.4,54,16,0,14.816,,,90,12.8,26.1,,,,,,,,,wg-a,,,,AAXX 28184 07335 32/// /0908 10260 20160 30021 40158 56014 91800 333 10261 20128=
07335,1999-05-29 00:00:00,19,1015.1,-0.7,83,16,0,3.704,,,140,,,,,,,,,,,wg-a,,,,AAXX 29004 07335 32/// /1402 10190 20160 30011 40151 58007 90000=
07335,1999-05-29 04:00:00,14,1014.4,-0.7,82,11,500,7.408,,,160,,,,,,,,,,0,wg-a,,,,AAXX 29044 07335 32/00 11604 10140 20110 30001 40144 56007 700// 81030 90400=
07335,1999-05-29 05:00:00,14,1014,-0.8,88,12,500,7.408,,,140,,,,,,,,,,0,wg-a,,,,AAXX 29054 07335 32/00 11404 10140 20120 39997 40140 58008 700// 80001 90500=
07335,1999-05-29 06:00:00,17,1014.2,-0.1,72,12,500,11.112,,,160,13.8,25.6,,,,,,,,0,wg-a,,,,AAXX 29064 07335 12/00 31606 10170 20120 30001 40142 55001 60004 700// 80002 90600 333 10256 20138=
07335,1999-05-29 07:00:00,20,1014.5,0.4,60,12,500,11.112,,,180,,,,,,,,,,0,wg-a,,,,AAXX 29074 07335 32/00 51806 10200 20120 30005 40145 53004 700// 80002 90700=
07335,1999-05-29 08:00:00,21,1014.4,0.8,56,12,500,22.224,,,190,,,,,,,,,,0,wg-a,,,,AAXX 29084 07335 32/00 51912 10210 20120 30005 40144 51008 700// 80002 90800=
07335,1999-05-29 09:00:00,23,1014.6,0.6,50,12,500,29.632,,,210,,,,,,,,,,0,wg-a,,,,AAXX 29094 07335 32/00 62116 10230 20120 30007 40146 51006 700// 82032 90900=
07335,1999-05-29 10:00:00,23,1014.6,0.3,53,13,500,25.928,,,190,,,,,,,,,,0,wg-a,,,,AAXX 29104 07335 32/00 51914 10230 20130 30008 40146 53003 700// 81032 91000=
07335,1999-05-29 11:00:00,25,1014.3,0.1,50,14,500,22.224,,,210,,,,,,,,,,0,wg-a,,,,AAXX 29114 07335 32/00 62112 10250 20140 30006 40143 50001 700// 81032 91100=
07335,1999-05-29 12:00:00,26,1014.4,-0,51,15,500,25.928,,,200,,,,,,,,,,0,wg-a,,,,AAXX 29124 07335 32/00 62014 10260 20150 30007 40144 54000 700// 80002 91200=
07335,1999-05-29 13:00:00,26,1014.1,-0.4,51,15,500,18.52,,,220,,,,,,,,,,0,wg-a,,,,AAXX 29134 07335 32/00 62210 10260 20150 30004 40141 58004 700// 81032 91300=
07335,1999-05-29 14:00:00,27,1013.9,-0.3,51,16,500,22.224,,,200,,,,,,,,,,0,wg-a,,,,AAXX 29144 07335 32/00 62012 10270 20160 30003 40139 58003 700// 81032 91400=
07335,1999-05-29 15:00:00,27,1014,-0.4,48,15,500,22.224,,,220,,,,,,,,,,0,wg-a,,,,AAXX 29154 07335 32600 /2212 10270 20150 30003 40140 56004 700// 81232 91500=
07335,1999-05-29 18:00:00,23,1014.5,0.4,69,17,0,18.52,,,270,17,27.2,,,,,,,,,wg-a,,,,AAXX 29184 07335 32/// /2710 10230 20170 30007 40145 51004 91800 333 10272 20170=
07335,1999-05-30 00:00:00,16,1014.1,-1.6,100,16,0,3.704,,,30,,,,,,,,,,,wg-a,,,,AAXX 30004 07335 32/// /0302 10160 20160 30000 40141 58016 90000=
07335,1999-05-30 04:00:00,17,1013.7,0.5,94,16,2500,14.816,,,290,,,,,,,,,,10,wg-a,,,,AAXX 30044 07335 32125 72908 10170 20160 39996 40137 51005 71022 8399/ 90400=
07335,1999-05-30 05:00:00,16,1013.5,-1,94,15,10000,11.112,,,10,,,,,,,,,,0,wg-a,,,,AAXX 30054 07335 32160 20106 10160 20150 39994 40135 56010 700// 81980 90500=
07335,1999-05-30 06:00:00,17,1014,1,88,15,10000,7.408,,,70,14.7,23.2,,,,,1,,,1,wg-a,,,,AAXX 30064 07335 12160 /0704 10170 20150 39999 40140 51010 60014 70186 81680 90600 333 10232 20147=
07335,1999-05-30 07:00:00,18,1014.1,0.5,88,16,20000,3.704,,,40,,,,,,,,,,0,wg-a,,,,AAXX 30074 07335 32/70 10402 10180 20160 30001 40141 53005 700// 81030 90700=
07335,1999-05-30 08:00:00,21,1014.4,1.1,78,17,20000,3.704,,,160,,,,,,,,,,0,wg-a,,,,AAXX 30084 07335 32370 /1602 10210 20170 30005 40144 51011 700// 81100 90800=
07335,1999-05-30 09:00:00,22,1014.8,1,69,16,20000,11.112,,,240,,,,,,,,,,0,wg-a,,,,AAXX 30094 07335 32470 42406 10220 20160 30009 40148 53010 700// 82880 90900=
07335,1999-05-30 10:00:00,23,1014.8,0.9,69,17,20000,11.112,,,260,,,,,,,,,,0,wg-a,,,,AAXX 30104 07335 32570 42606 10230 20170 30010 40148 51009 700// 83880 91000=
07335,1999-05-30 11:00:00,23,1014.7,0.4,69,17,25000,7.408,,,260,,,,,,,,,,0,wg-a,,,,AAXX 30114 07335 32575 22604 10230 20170 30009 40147 50004 700// 82100 91100=
07335,1999-05-30 12:00:00,25,1014.7,0.1,61,17,25000,11.112,,,210,,,,,,,,,,0,wg-a,,,,AAXX 30124 07335 32575 /2106 10250 20170 30010 40147 52001 700// 81100 91200=
07335,1999-05-30 13:00:00,26,1014.7,-0,58,17,25000,11.112,,,200,,,,,,,,,,0,wg-a,,,,AAXX 30134 07335 32675 22006 10260 20170 30010 40147 55000 700// 82200 91300=
07335,1999-05-30 14:00:00,27,1014.8,0.2,51,16,25000,14.816,,,220,,,,,,,,,,0,wg-a,,,,AAXX 30144 07335 32675 42208 10270 20160 30011 40148 52002 700// 84200 91400=
07335,1999-05-30 15:00:00,27,1014.8,0.1,51,16,25000,14.816,,,250,,,,,,,,,,0,wg-a,,,,AAXX 30154 07335 32675 32508 10270 20160 30011 40148 52001 700// 83201 91500=
07335,1999-05-30 18:00:00,25,1015.5,0.7,61,17,0,7.408,,,310,17.4,27,,,,,,,,,wg-a,,,,AAXX 30184 07335 32/// /3104 10250 20170 30018 40155 53007 91800 333 10270 20174=
07335,1999-05-31 00:00:00,15,1018.6,0.9,94,14,0,3.704,,,360,,,,,,,,,,,wg-a,,,,AAXX 31004 07335 32/// /3602 10150 20140 30043 40186 51009 90000=
07335,1999-05-31 04:00:00,16,1019.1,0.8,94,15,8000,7.408,,,250,,,,,,,,,,80,wg-a,,,,AAXX 31044 07335 02258 82504 10160 20150 30049 40191 51008 61000 78086 8199/ 90400 333 ////=
07335,1999-05-31 05:00:00,16,1018.2,-0.8,100,16,8000,14.816,,,110,,,1,,,,,,,80,wg-a,,,,AAXX 31054 07335 12258 81108 10160 20160 30040 40182 58008 60015 78088 8199/ 90500=
07335,1999-05-31 06:00:00,17,1018.4,-0.3,94,16,10000,3.704,,,60,15.3,24.9,,1,,,1,,,21,wg-a,,,,AAXX 31064 07335 02260 70602 10170 20160 30042 40184 58003 60014 72186 8179/ 90600 333 10249 20153 60017=
07335,1999-05-31 07:00:00,20,1018.3,-0.6,88,18,12000,7.408,,,30,,,,,,,,,,0,wg-a,,,,AAXX 31074 07335 32/62 30304 10200 20180 30043 40183 55006 700// 82032 90700=
07335,1999-05-31 08:00:00,22,1018.3,0.4,78,18,15000,7.408,,,90,,,,,,,,,,0,wg-a,,,,AAXX 31084 07335 32/65 60904 10220 20180 30044 40183 51004 700// 81032 90800=
07335,1999-05-31 09:00:00,22,1019.2,1.1,83,19,15000,3.704,,,10,,,,,,,,,,0,wg-a,,,,AAXX 31094 07335 32/65 70102 10220 20190 30053 40192 53011 700// 8707/ 90900=
07335,1999-05-31 10:00:00,20,1020.8,2.5,94,19,8000,14.816,,,260,,,,,,,,,,17,wg-a,,,,AAXX 31104 07335 02158 82608 10200 20190 30068 40208 53025 61000 71798 8399/ 91000 333 ////=
07335,1999-05-31 11:00:00,20,1019.3,0.9,88,18,12000,18.52,,,210,,,1,,,,,,,61,wg-a,,,,AAXX 31114 07335 12162 82110 10200 20180 30053 40193 50009 60015 76196 8377/ 91100=
07335,1999-05-31 12:00:00,22,1018.3,-0.9,78,18,25000,22.224,,,190,,,,1,,,,,,21,wg-a,,,,AAXX 31124 07335 12475 71912 10220 20180 30044 40183 58009 60017 72198 81232 91200=
07335,1999-05-31 13:00:00,23,1018.4,-2.3,69,17,25000,14.816,,,60,,,,,,,,,,0,wg-a,,,,AAXX 31134 07335 32575 70608 10230 20170 30045 40184 55023 700// 81232 91300=
07335,1999-05-31 14:00:00,25,1017.9,-1.2,54,15,500,14.816,,,60,,,,,,,,,,0,wg-a,,,,AAXX 31144 07335 32600 40608 10250 20150 30041 40179 56012 700// 81232 91400=
07335,1999-05-31 15:00:00,26,1017.5,-0.6,54,16,500,11.112,,,30,,,,,,,,,,0,wg-a,,,,AAXX 31154 07335 32600 /0306 10260 20160 30038 40175 58006 700// 81232 91500=
07335,1999-05-31 16:00:00,26,1017.3,-0.9,54,16,500,7.408,,,150,,,,,,,,,,0,wg-a,,,,AAXX 31164 07335 32600 31504 10260 20160 30036 40173 56009 700// 81282 91600=
07335,1999-05-31 17:00:00,26,1015.9,-1.9,54,16,500,11.112,,,110,,,,,,,,,,0,wg-a,,,,AAXX 31174 07335 32600 /1106 10260 20160 30022 40159 58019 700// 81280 91700=
07335,1999-05-31 18:00:00,26,1016.5,-1,61,18,0,7.408,,,100,17.1,26.4,,,,,,,,,wg-a,,,,AAXX 31184 07335 32/// /1004 10260 20180 30028 40165 55010 91800 333 10264 20171=
07335,1999-06-01 00:00:00,20,1017.7,0.2,88,18,0,7.408,,,60,,,,,,,,,,,wg-a,,,,AAXX 01004 07335 32/// /0604 10200 20180 30037 40177 53002 90000=
07335,1999-06-01 04:00:00,17,1016.7,-1,94,16,10000,0,,,0,,,,,,,,,,0,wg-a,,,,AAXX 01044 07335 32/60 50000 10170 20160 30026 40167 55010 700// 85080 90400=
07335,1999-06-01 05:00:00,17,1016.5,-0.1,100,17,10000,3.704,,,180,,,,,,,,,,0,wg-a,,,,AAXX 01054 07335 32560 51802 10170 20170 30024 40165 56001 700// 81282 90500=
07335,1999-06-01 06:00:00,19,1016.4,0.4,94,18,15000,3.704,,,130,16.8,25.7,,,,,1,,,0,wg-a,,,,AAXX 01064 07335 12565 51302 10190 20180 30024 40164 51004 60014 700// 81282 90600 333 10257 20168=
07335,1999-06-01 07:00:00,22,1016.3,-0.2,83,19,15000,3.704,,,200,,,,,,,,,,0,wg-a,,,,AAXX 01074 07335 32/65 42002 10220 20190 30024 40163 56002 700// 81082 90700=
07335,1999-06-01 08:00:00,24,1016.6,0.4,78,20,18000,11.112,,,180,,,,,,,,,,0,wg-a,,,,AAXX 01084 07335 32/68 51806 10240 20200 30028 40166 53004 700// 82082 90800=
07335,1999-06-01 09:00:00,25,1016.5,0.4,79,21,20000,14.816,,,190,,,,,,,,,,0,wg-a,,,,AAXX 01094 07335 32/70 51908 10250 20210 30028 40165 52004 700// 81082 90900=
07335,1999-06-01 10:00:00,27,1016,-0.1,58,18,20000,14.816,,,210,,,,,,,,,,0,wg-a,,,,AAXX 01104 07335 32/70 62108 10270 20180 30023 40160 58001 700// 81082 91000=
07335,1999-06-01 11:00:00,26,1015.8,-0.7,61,18,20000,14.816,,,190,,,,,,,,,,0,wg-a,,,,AAXX 01114 07335 32670 /1908 10260 20180 30021 40158 58007 700// 81182 91100=
07335,1999-06-01 12:00:00,26,1015.9,-0.6,61,18,20000,11.112,,,230,,,,,,,,,,0,wg-a,,,,AAXX 01124 07335 32670 72306 10260 20180 30022 40159 55006 700// 81284 91200=
07335,1999-06-01 13:00:00,26,1015.5,-0.5,65,19,20000,3.704,,,180,,,,,,,,,,0,wg-a,,,,AAXX 01134 07335 32670 71802 10260 20190 30018 40155 58005 700// 81284 91300=
07335,1999-06-01 14:00:00,26,1014.8,-1,70,20,15000,3.704,,,120,,,,,,,,,,61,wg-a,,,,AAXX 01144 07335 02665 71202 10260 20200 30011 40148 58010 61000 76162 81284 91400 333 ////=
07335,1999-06-01 15:00:00,26,1015,-0.9,65,19,20000,11.112,,,200,,,,,,,,,,21,wg-a,,,,AAXX 01154 07335 02770 72006 10260 20190 30013 40150 55009 61000 72162 81282 91500 333 ////=
07335,1999-06-01 16:00:00,26,1013.8,-1.7,65,19,20000,11.112,,,160,,,,,,,,,,0,wg-a,,,,AAXX 01164 07335 32770 61606 10260 20190 30001 40138 58017 700// 81182 91600=
07335,1999-06-01 17:00:00,27,1012,-2.7,54,17,20000,14.816,,,170,,,,,,,,,,0,wg-a,,,,AAXX 01174 07335 32770 51708 10270 20170 39984 40120 58027 700// 82582 91700=
07335,1999-06-01 18:00:00,26,1011.8,-3.1,65,19,0,18.52,,,170,18.8,27,,,,,,,,,wg-a,,,,AAXX 01184 07335 32/// /1710 10260 20190 39982 40118 56031 91800 333 10270 20188=
07335,1999-06-02 00:00:00,20,1010.8,-1.8,88,18,0,14.816,,,170,,,,,,,,,,,wg-a,,,,AAXX 02004 07335 32/// /1708 10200 20180 39969 40108 58018 90000=
07335,1999-06-02 04:00:00,18,1011.8,1.8,83,15,12000,22.224,,,230,,,,,,,,,,0,wg-a,,,,AAXX 02044 07335 32462 82312 10180 20150 39978 40118 53018 700// 878// 90400=
07335,1999-06-02 05:00:00,17,1011.6,1.6,88,15,20000,18.52,,,230,,,0,,,,,,,25,wg-a,,,,AAXX 02054 07335 12370 /2310 10170 20150 39975 40116 50016 60005 72586 81800 90500=
07335,1999-06-02 06:00:00,18,1012.2,1.3,83,15,20000,22.224,,,230,16.7,25.7,,0,,,,,,3,wg-a,,,,AAXX 02064 07335 02470 /2312 10180 20150 39981 40122 51013 60004 70386 86200 90600 333 10257 20167 60007=
07335,1999-06-02 07:00:00,18,1012.5,0.7,83,15,500,22.224,,,230,,,,,,,,,,0,wg-a,,,,AAXX 02074 07335 32400 /2312 10180 20150 39985 40125 53007 700// 86200 90700=
07335,1999-06-02 08:00:00,19,1013,1.5,73,14,500,29.632,,,230,,,,,,,,,,0,wg-a,,,,AAXX 02084 07335 32400 /2316 10190 20140 39990 40130 51015 700// 85200 90800=
07335,1999-06-02 09:00:00,20,1012.7,0.7,68,14,500,25.928,,44.448,230,,,,,,,,,,0,wg-a,,,,AAXX 02094 07335 32500 32314 10200 20140 39988 40127 50007 700// 83200 90900 333 91024=
07335,1999-06-02 10:00:00,20,1012.9,0.5,64,13,500,35.188,,,240,,,,,,,,,,0,wg-a,,,,AAXX 02104 07335 32500 32419 10200 20130 39990 40129 51005 700// 83200 91000=
07335,1999-06-02 11:00:00,21,1013.6,0.7,60,13,500,31.484,,51.856,240,,,,,,,,,,0,wg-a,,,,AAXX 02114 07335 32600 /2417 10210 20130 39997 40136 53007 700// 86200 91100 333 91028=
07335,1999-06-02 12:00:00,21,1013.7,1,60,13,500,38.892,,,250,,,,,,,,,,0,wg-a,,,,AAXX 02124 07335 32600 32521 10210 20130 39998 40137 51010 700// 83200 91200=
07335,1999-06-02 13:00:00,19,1014.2,1.2,68,13,500,35.188,,,250,,,,,,,,,,0,wg-a,,,,AAXX 02134 07335 32600 /2519 10190 20130 30002 40142 51012 700// 86202 91300=
07335,1999-06-02 14:00:00,17,1015,1.2,82,14,10000,31.484,,,270,,,,,,,,,,80,wg-a,,,,AAXX 02144 07335 02560 72717 10170 20140 30009 40150 53012 61000 78086 8793/ 91400 333 ////=
07335,1999-06-02 15:00:00,18,1015.7,1.8,83,15,500,29.632,,,260,,,,0,,,,,,25,wg-a,,,,AAXX 02154 07335 12400 72616 10180 20150 30016 40157 53018 60007 72586 872// 91500=
07335,1999-06-02 16:00:00,17,1016.4,2.1,77,13,500,22.224,,,260,,,,,,,,,,0,wg-a,,,,AAXX 02164 07335 32400 72612 10170 20130 30023 40164 52021 700// 878// 91600=
07335,1999-06-02 17:00:00,16,1016.8,1.7,82,13,500,25.928,,,250,,,,,,,,,,0,wg-a,,,,AAXX 02174 07335 32500 /2514 10160 20130 30026 40168 51017 700// 86800 91700=
07335,1999-06-02 18:00:00,17,1017.1,1.3,68,11,0,25.928,,,250,15.8,21.7,,,,,,,,,wg-a,,,,AAXX 02184 07335 32/// /2514 10170 20110 30029 40171 51013 91800 333 10217 20158=
07335,1999-06-03 00:00:00,12,1017.1,-0.7,94,11,0,11.112,,,200,,,,,,,,,,,wg-a,,,,AAXX 03004 07335 32/// /2006 10120 20110 30027 40171 58007 90000=
07335,1999-06-03 04:00:00,13,1015.5,-1.4,94,12,10000,7.408,,,170,,,,,,,,,,0,wg-a,,,,AAXX 03044 07335 32760 71704 10130 20120 30011 40155 58014 700// 875// 90400=
07335,1999-06-03 05:00:00,13,1014.7,-1.8,94,12,10000,7.408,,,160,,,,,,,,,,21,wg-a,,,,AAXX 03054 07335 32760 71604 10130 20120 30004 40147 58018 72122 875// 90500=
07335,1999-06-03 06:00:00,14,1013.4,-2.8,88,12,12000,14.816,,,150,11.7,16.6,,,,,,,,1,wg-a,,,,AAXX 03064 07335 02762 51508 10140 20120 39991 40134 58028 60004 70162 85501 90600 333 10166 20117 61000=
07335,1999-06-03 07:00:00,16,1012.8,-2.4,82,13,15000,14.816,,,160,,,,,,,,,,0,wg-a,,,,AAXX 03074 07335 32665 61608 10160 20130 39987 40128 56024 700// 86800 90700=
07335,1999-06-03 08:00:00,19,1012.4,-2,64,12,15000,29.632,,,200,,,,,,,,,,0,wg-a,,,,AAXX 03084 07335 32/65 42016 10190 20120 39984 40124 56020 700// 83082 90800=
07335,1999-06-03 09:00:00,19,1012.8,-0.3,73,14,20000,29.632,,,240,,,,,,,,,,25,wg-a,,,,AAXX 03094 07335 32570 62416 10190 20140 39988 40128 55003 72511 83882 90900=
07335,1999-06-03 10:00:00,20,1012.5,-0.1,64,13,20000,31.484,,50.004,230,,,,,,,,,,0,wg-a,,,,AAXX 03104 07335 32570 52317 10200 20130 39986 40125 56001 700// 84882 91000 333 91027=
07335,1999-06-03 11:00:00,21,1013,0.7,53,11,20000,38.892,,61.116,250,,,,,,,,,,0,wg-a,,,,AAXX 03114 07335 32570 52521 10210 20110 39991 40130 53007 700// 83882 91100 333 91033=
07335,1999-06-03 12:00:00,20,1013.3,0.5,56,11,20000,35.188,,,250,,,,,,,,,,3,wg-a,,,,AAXX 03124 07335 32570 62519 10200 20110 39993 40133 53005 70386 83882 91200=
07335,1999-06-03 13:00:00,15,1014.4,1.6,82,12,20000,31.484,,50.004,230,,,0,,,,,,,25,wg-a,,,,AAXX 03134 07335 12570 72317 10150 20120 30002 40144 53016 60005 72586 8328/ 91300 333 91027=
07335,1999-06-03 15:00:00,18,1013.7,0.3,64,11,20000,38.892,,61.116,240,,,,0,,,,,,2,wg-a,,,,AAXX 03154 07335 12570 /2421 10180 20110 39996 40137 50003 60007 70286 86280 91500 333 91033=
07335,1999-06-03 18:00:00,16,1014.5,0.7,77,12,0,29.632,,,240,14.1,21.4,,,,,,,,,wg-a,,,,AAXX 03184 07335 32/// /2416 10160 20120 30003 40145 53007 91800 333 10214 20141=
07335,1999-06-04 00:00:00,13,1016.8,0.3,94,12,0,18.52,,,240,,,,,,,,,,,wg-a,,,,AAXX 04004 07335 32/// /2410 10130 20120 30024 40168 50003 90000=
07335,1999-06-04 04:00:00,12,1016.9,-0,94,11,10000,14.816,,,230,,,,,,,,,,0,wg-a,,,,AAXX 04044 07335 32360 42308 10120 20110 30025 40169 55000 700// 84500 90400=
07335,1999-06-04 05:00:00,12,1017,0.3,100,12,8000,14.816,,,230,,,,,,,,,,0,wg-a,,,,AAXX 04054 07335 32358 52308 10120 20120 30026 40170 51003 700// 85600 90500=
07335,1999-06-04 06:00:00,13,1017.1,0.2,94,12,12000,14.816,,,230,11.9,16,,,,,7,,,0,wg-a,,,,AAXX 04064 07335 12362 72308 10130 20120 30027 40171 53002 60074 700// 876// 90600 333 10160 20119=
07335,1999-06-04 07:00:00,14,1017.1,0.3,94,13,12000,18.52,,,240,,,,,,,,,,0,wg-a,,,,AAXX 04074 07335 32362 72410 10140 20130 30028 40171 52003 700// 8663/ 90700=
07335,1999-06-04 08:00:00,15,1017.2,0.3,88,13,20000,22.224,,,250,,,,,,,,,,0,wg-a,,,,AAXX 04084 07335 32470 72512 10150 20130 30029 40172 52003 700// 8523/ 90800=
07335,1999-06-04 10:00:00,16,1016.9,-0.1,82,13,25000,22.224,,,240,,,,,,,,,,21,wg-a,,,,AAXX 04104 07335 02475 82412 10160 20130 30027 40169 58001 61000 72162 8557/ 91000 333 ////=
07335,1999-06-04 11:00:00,18,1016.3,-0.7,68,12,25000,29.632,,48.152,250,,,,,,,,,,0,wg-a,,,,AAXX 04114 07335 32475 72516 10180 20120 30022 40163 58007 700// 8653/ 91100 333 91026=
07335,1999-06-04 12:00:00,17,1016.3,-0.8,82,14,25000,25.928,,,240,,,,0,,,,,,21,wg-a,,,,AAXX 04124 07335 12175 72414 10170 20140 30021 40163 56008 60007 72162 8427/ 91200=
07335,1999-06-04 13:00:00,16,1015.8,-1.1,88,14,20000,22.224,,,230,,,,,,,,,,20,wg-a,,,,AAXX 04134 07335 32470 72312 10160 20140 30016 40158 57011 72022 877// 91300=
07335,1999-06-04 14:00:00,16,1015.2,-1.2,88,14,20000,29.632,,,230,,,,,,,,,,0,wg-a,,,,AAXX 04144 07335 32470 82316 10160 20140 30010 40152 58012 700// 8657/ 91400=
07335,1999-06-04 15:00:00,16,1014.9,-1.4,82,13,20000,29.632,,,240,,,,,,,,,,21,wg-a,,,,AAXX 04154 07335 02470 82416 10160 20130 30007 40149 56014 61000 72152 8657/ 91500 333 ////=
07335,1999-06-04 16:00:00,17,1014.4,-1.3,82,14,20000,29.632,,,240,,,,,,,,,,0,wg-a,,,,AAXX 04164 07335 32470 82416 10170 20140 30003 40144 56013 700// 8657/ 91600=
07335,1999-06-04 17:00:00,16,1014,-1.1,82,13,20000,31.484,,,240,,,,,,,,,,0,wg-a,,,,AAXX 04174 07335 32470 72417 10160 20130 39999 40140 58011 700// 8623/ 91700=
07335,1999-06-04 18:00:00,15,1013.8,-1.1,88,13,0,25.928,,,230,13.1,18.1,,,,,,,,,wg-a,,,,AAXX 04184 07335 32/// /2314 10150 20130 39996 40138 56011 91800 333 10181 20131=
07335,1999-06-05 00:00:00,13,1011.2,-1.9,100,13,0,22.224,,,230,,,,,,,,,,,wg-a,,,,AAXX 05004 07335 32/// /2312 10130 20130 39969 40112 58019 90000=
07335,1999-06-05 04:00:00,11,1010.6,-0.7,94,10,6000,11.112,,,230,,,3,,,,,,,63,wg-a,,,,AAXX 05044 07335 12156 82306 10110 20100 39962 40106 56007 60035 763// 887// 90400=
07335,1999-06-05 05:00:00,10,1010.5,-0.2,93,9,500,14.816,,,210,,,3,,,,,,,61,wg-a,,,,AAXX 05054 07335 12200 82108 10100 20090 39961 40105 58002 60035 76166 885// 90500=
07335,1999-06-05 06:00:00,10,1010.4,-0.4,93,9,7000,14.816,,,190,9.9,15.1,,6,,,15,,,61,wg-a,,,,AAXX 05064 07335 02257 81908 10100 20090 39960 40104 56004 60154 76166 8552/ 90600 333 10151 20099 60067=
07335,1999-06-05 07:00:00,11,1010.3,-0.3,94,10,8000,18.52,,,200,,,,,,,,,,21,wg-a,,,,AAXX 05074 07335 02458 82010 10110 20100 39959 40103 57003 61000 72162 875// 90700 333 ////=
07335,1999-06-05 08:00:00,12,1010,-0.4,94,11,10000,18.52,,,210,,,,,,,,,,0,wg-a,,,,AAXX 05084 07335 32360 72110 10120 20110 39957 40100 58004 700// 875// 90800=
07335,1999-06-05 09:00:00,13,1009.7,-0.5,88,11,12000,29.632,,46.3,210,,,,,,,,,,1,wg-a,,,,AAXX 05094 07335 02462 72116 10130 20110 39955 40097 58005 61000 70162 875// 90900 333 //// 91025=
07335,1999-06-05 10:00:00,16,1009.2,-0.8,77,12,20000,22.224,,,220,,,,,,,,,,0,wg-a,,,,AAXX 05104 07335 32470 /2212 10160 20120 39951 40092 58008 700// 86502 91000=
07335,1999-06-05 11:00:00,16,1008.8,-1,68,10,20000,25.928,,44.448,210,,,,,,,,,,0,wg-a,,,,AAXX 05114 07335 32570 /2114 10160 20100 39947 40088 58010 700// 86202 91100 333 91024=
07335,1999-06-05 12:00:00,16,1008.8,-0.8,77,12,20000,25.928,,,210,,,,,,,,,,3,wg-a,,,,AAXX 05124 07335 32570 /2114 10160 20120 39947 40088 56008 70362 86232 91200=
07335,1999-06-05 13:00:00,17,1008.5,-0.7,68,11,20000,25.928,,,250,,,,,,,,,,25,wg-a,,,,AAXX 05134 07335 02570 /2514 10170 20110 39944 40085 56007 61000 72586 85232 91300 333 ////=
07335,1999-06-05 14:00:00,18,1007.9,-0.8,64,11,20000,31.484,,,250,,,,,,,,,,0,wg-a,,,,AAXX 05144 07335 32570 /2517 10180 20110 39939 40079 58008 700// 85232 91400=
07335,1999-06-05 15:00:00,18,1007.5,-1.2,52,8,25000,31.484,,,240,,,,,,,,,,1,wg-a,,,,AAXX 05154 07335 02575 /2417 10180 20080 39935 40075 58012 61000 70186 85232 91500 333 ////=
07335,1999-06-05 18:00:00,15,1007.6,-0,59,7,0,25.928,,,240,10.2,18.1,,,,,,,,,wg-a,,,,AAXX 05184 07335 32/// /2414 10150 20070 39935 40076 55000 91800 333 10181 20102=
07335,1999-06-06 00:00:00,11,1008.1,-0.4,94,10,0,14.816,,,210,,,,,,,,,,,wg-a,,,,AAXX 06004 07335 32/// /2108 10110 20100 39938 40081 58004 90000=
07335,1999-06-06 04:00:00,10,1009.2,1,93,9,500,22.224,,,240,,,0,,,,,,,25,wg-a,,,,AAXX 06044 07335 12400 32412 10100 20090 39948 40092 53010 60005 72500 83900 90400=
07335,1999-06-06 05:00:00,10,1009.7,1.4,100,10,11000,18.52,,,230,,,,,,,,,,,wg-a,,,,AAXX 06054 07335 32/61 /2310 10100 20100 39953 40097 53014 90500=
07335,1999-06-06 06:00:00,12,1010.3,1.8,88,10,500,18.52,,,250,9.9,15.2,,0,,,5,,,0,wg-a,,,,AAXX 06064 07335 02400 /2510 10120 20100 39960 40103 53018 60054 700// 81230 90600 333 10152 20099 60007=
07335,1999-06-06 07:00:00,13,1011.1,2,88,11,500,18.52,,,260,,,,,,,,,,0,wg-a,,,,AAXX 06074 07335 32400 /2610 10130 20110 39968 40111 53020 700// 81200 90700=
07335,1999-06-06 08:00:00,14,1011.2,1.7,77,10,500,14.816,,,280,,,,,,,,,,0,wg-a,,,,AAXX 06084 07335 32400 /2808 10140 20100 39970 40112 51017 700// 85230 90800=
07335,1999-06-06 09:00:00,15,1011.4,1.2,67,9,500,18.52,,,250,,,,,,,,,,0,wg-a,,,,AAXX 06094 07335 32500 42510 10150 20090 39972 40114 51012 700// 84230 90900=
07335,1999-06-06 10:00:00,17,1011.7,0.8,59,9,500,22.224,,,250,,,,,,,,,,0,wg-a,,,,AAXX 06104 07335 32500 42512 10170 20090 39976 40117 53008 700// 84200 91000=
07335,1999-06-06 11:00:00,18,1011.9,0.8,59,10,500,22.224,,,270,,,,,,,,,,0,wg-a,,,,AAXX 06114 07335 32500 42712 10180 20100 39978 40119 52008 700// 84800 91100=
07335,1999-06-06 12:00:00,18,1011.9,0.6,59,10,500,18.52,,,250,,,,,,,,,,0,wg-a,,,,AAXX 06124 07335 32500 /2510 10180 20100 39978 40119 51006 700// 85800 91200=
07335,1999-06-06 13:00:00,19,1011.8,0.2,52,9,500,18.52,,,230,,,,,,,,,,0,wg-a,,,,AAXX 06134 07335 32600 42310 10190 20090 39978 40118 51002 700// 84800 91300=
07335,1999-06-06 14:00:00,19,1011.7,-0.1,56,10,500,22.224,,,260,,,,,,,,,,0,wg-a,,,,AAXX 06144 07335 32600 42612 10190 20100 39977 40117 58001 700// 84201 91400=
07335,1999-06-06 15:00:00,19,1011.8,-0,49,8,500,22.224,,,260,,,,,,,,,,0,wg-a,,,,AAXX 06154 07335 32600 /2612 10190 20080 39978 40118 55000 700// 83201 91500=
07335,1999-06-06 18:00:00,16,1012.5,0.6,68,10,0,18.52,,,270,11.5,19.4,,,,,,,,,wg-a,,,,AAXX 06184 07335 32/// /2710 10160 20100 39984 40125 51006 91800 333 10194 20115=
07335,1999-06-07 00:00:00,10,1014.4,0.1,93,9,0,7.408,,,210,,,,,,,,,,,wg-a,,,,AAXX 07004 07335 32/// /2104 10100 20090 39999 40144 51001 90000=
07335,1999-06-07 04:00:00,10,1014.2,-0.2,93,9,20000,11.112,,,200,,,,,,,,,,0,wg-a,,,,AAXX 07044 07335 32770 42006 10100 20090 39997 40142 56002 700// 84500 90400=
07335,1999-06-07 05:00:00,11,1014.4,0.2,94,10,20000,11.112,,,200,,,,,,,,,,0,wg-a,,,,AAXX 07054 07335 32570 /2006 10110 20100 39999 40144 53002 700// 86800 90500=
07335,1999-06-07 06:00:00,12,1014.7,0.6,94,11,20000,14.816,,,210,10,16.4,,,,,,,,1,wg-a,,,,AAXX 07064 07335 12270 42108 10120 20110 30003 40147 53006 60004 70186 84802 90600 333 10164 20100=
07335,1999-06-07 07:00:00,13,1014.8,0.8,88,11,20000,14.816,,,220,,,,,,,,,,0,wg-a,,,,AAXX 07074 07335 32370 42208 10130 20110 30005 40148 52008 700// 84802 90700=
07335,1999-06-07 08:00:00,15,1014.9,0.8,88,13,25000,18.52,,,220,,,,,,,,,,0,wg-a,,,,AAXX 07084 07335 32475 62210 10150 20130 30007 40149 51008 700// 86802 90800=
07335,1999-06-07 09:00:00,15,1014.8,0.3,77,11,25000,14.816,,,230,,,,,,,,,,0,wg-a,,,,AAXX 07094 07335 32475 72308 10150 20110 30006 40148 50003 700// 878// 90900=
07335,1999-06-07 10:00:00,18,1014.6,0,59,10,25000,25.928,,,210,,,,,,,,,,16,wg-a,,,,AAXX 07104 07335 02275 72114 10180 20100 30005 40146 50000 61000 71686 878// 91000 333 ////=
07335,1999-06-07 11:00:00,17,1014.9,-0,68,11,25000,22.224,,,210,,,,,,,,,,15,wg-a,,,,AAXX 07114 07335 32275 72112 10170 20110 30007 40149 55000 71522 878// 91100=
07335,1999-06-07 12:00:00,17,1015.2,0.4,68,11,25000,22.224,,,240,,,,,,,,,,25,wg-a,,,,AAXX 07124 07335 02275 72412 10170 20110 30010 40152 53004 61000 72586 86802 91200 333 ////=
07335,1999-06-07 13:00:00,16,1015.4,0.7,77,12,25000,22.224,,38.892,200,,,,,,,,,,0,wg-a,,,,AAXX 07134 07335 32375 72012 10160 20120 30012 40154 52007 700// 86802 91300 333 91021=
07335,1999-06-07 14:00:00,17,1015.5,0.6,59,9,25000,29.632,,,260,,,,,,,,,,0,wg-a,,,,AAXX 07144 07335 32375 72616 10170 20090 30013 40155 51006 700// 878// 91400=
07335,1999-06-07 15:00:00,18,1015.5,0.4,52,8,25000,31.484,,,260,,,,,,,,,,0,wg-a,,,,AAXX 07154 07335 32575 22617 10180 20080 30014 40155 51004 700// 82802 91500=
07335,1999-06-07 16:00:00,17,1015.9,0.5,55,8,25000,29.632,,,270,,,,,,,,,,0,wg-a,,,,AAXX 07164 07335 32575 42716 10170 20080 30017 40159 53005 700// 84800 91600=
07335,1999-06-07 17:00:00,17,1016.2,0.7,55,8,25000,29.632,,,270,,,,,,,,,,0,wg-a,,,,AAXX 07174 07335 32575 32716 10170 20080 30020 40162 53007 700// 83800 91700=
07335,1999-06-07 18:00:00,15,1017.2,1.5,63,8,0,25.928,,,270,12,18.5,,,,,,,,,wg-a,,,,AAXX 07184 07335 32/// /2714 10150 20080 30029 40172 53015 91800 333 10185 20120=
07335,1999-06-08 00:00:00,9,1021.4,1.4,87,7,0,14.816,,,250,,,,,,,,,,,wg-a,,,,AAXX 08004 07335 32/// /2508 10090 20070 30067 40214 51014 90000=
07335,1999-06-08 04:00:00,6,1023.3,1.4,93,5,20000,11.112,,,260,,,,,,,,,,0,wg-a,,,,AAXX 08044 07335 32/70 12606 10060 20050 30084 40233 53014 700// 81030 90400=
07335,1999-06-08 05:00:00,7,1023.9,1.8,100,7,20000,11.112,,,270,,,,,,,,,,0,wg-a,,,,AAXX 08054 07335 32870 12706 10070 20070 30091 40239 53018 700// 81530 90500=
07335,1999-06-08 06:00:00,9,1024.6,2.2,93,8,20000,11.112,,,270,5.3,14.5,,,,,,,,0,wg-a,,,,AAXX 08064 07335 12870 12706 10090 20080 30099 40246 53022 60004 700// 81530 90600 333 10145 20053=
07335,1999-06-08 07:00:00,12,1025.2,2.2,76,8,20000,11.112,,,300,,,,,,,,,,0,wg-a,,,,AAXX 08074 07335 32870 43006 10120 20080 30106 40252 52022 700// 83530 90700=
07335,1999-06-08 08:00:00,13,1025.7,2.1,67,7,20000,11.112,,,290,,,,,,,,,,0,wg-a,,,,AAXX 08084 07335 32570 /2906 10130 20070 30112 40257 51021 700// 86830 90800=
07335,1999-06-08 09:00:00,14,1026,1.6,55,5,20000,11.112,,,250,,,,,,,,,,0,wg-a,,,,AAXX 08094 07335 32570 /2506 10140 20050 30115 40260 51016 700// 86830 90900=
07335,1999-06-08 10:00:00,14,1026.2,1.2,58,6,20000,11.112,,,280,,,,,,,,,,0,wg-a,,,,AAXX 08104 07335 32570 72806 10140 20060 30118 40262 51012 700// 878// 91000=
07335,1999-06-08 11:00:00,15,1026.6,1,51,5,20000,14.816,,,240,,,,,,,,,,0,wg-a,,,,AAXX 08114 07335 32670 72408 10150 20050 30122 40266 53010 700// 878// 91100=
07335,1999-06-08 12:00:00,16,1026.5,0.6,55,7,20000,14.816,,,240,,,,,,,,,,0,wg-a,,,,AAXX 08124 07335 32670 /2408 10160 20070 30121 40265 50006 700// 86800 91200=
07335,1999-06-08 15:00:00,17,1025.8,-0.6,55,8,20000,7.408,,,240,,,,,,,,,,0,wg-a,,,,AAXX 08154 07335 32670 52404 10170 20080 30115 40258 58006 700// 85800 91500=
07335,1999-06-08 16:00:00,17,1025.7,-0.5,48,6,20000,11.112,,,290,,,,,,,,,,0,wg-a,,,,AAXX 08164 07335 32670 52906 10170 20060 30114 40257 58005 700// 85800 91600=
07335,1999-06-08 17:00:00,18,1025.6,-0.6,45,6,25000,11.112,,,290,,,,,,,,,,0,wg-a,,,,AAXX 08174 07335 32675 52906 10180 20060 30113 40256 56006 700// 85800 91700=
07335,1999-06-08 18:00:00,16,1026,0.1,59,8,0,11.112,,,10,9.4,17.8,,,,,,,,,wg-a,,,,AAXX 08184 07335 32/// /0106 10160 20080 30116 40260 53001 91800 333 10178 20094=
07335,1999-06-09 00:00:00,8,1027.5,-0.4,93,7,0,3.704,,,280,,,,,,,,,,,wg-a,,,,AAXX 09004 07335 32/// /2802 10080 20070 30127 40275 58004 90000=
07335,1999-06-09 11:00:00,18,1026.1,-0.7,52,8,25000,7.408,,,50,,,,,,,,,,0,wg-a,,,,AAXX 09114 07335 32675 70504 10180 20080 30118 40261 56007 700// 85132 91100=
07335,1999-06-09 12:00:00,19,1025.8,-0.6,49,8,25000,3.704,,,130,,,,,,,,,,0,wg-a,,,,AAXX 09124 07335 32675 71302 10190 20080 30116 40258 57006 700// 85132 91200=
07335,1999-06-09 13:00:00,19,1025.6,-0.6,49,8,25000,3.704,,,320,,,,,,,,,,0,wg-a,,,,AAXX 09134 07335 32675 73202 10190 20080 30114 40256 57006 700// 85132 91300=
07335,1999-06-09 14:00:00,20,1025.4,-0.6,46,8,25000,0,,,0,,,,,,,,,,0,wg-a,,,,AAXX 09144 07335 32775 70000 10200 20080 30112 40254 57006 700// 85132 91400=
07335,1999-06-09 15:00:00,20,1024.7,-1,53,10,25000,3.704,,,360,,,,,,,,,,0,wg-a,,,,AAXX 09154 07335 32775 73602 10200 20100 30106 40247 58010 700// 84132 91500=
07335,1999-06-09 16:00:00,19,1024.4,-1.2,52,9,25000,7.408,,,40,,,,,,,,,,0,wg-a,,,,AAXX 09164 07335 32775 70404 10190 20090 30102 40244 58012 700// 84132 91600=
07335,1999-06-09 17:00:00,20,1023.9,-1.4,49,9,25000,7.408,,,50,,,,,,,,,,0,wg-a,,,,AAXX 09174 07335 32775 70504 10200 20090 30098 40239 56014 700// 84132 91700=
07335,1999-06-09 18:00:00,18,1024,-0.8,59,10,0,11.112,,,30,10,20.4,,,,,,,,,wg-a,,,,AAXX 09184 07335 32/// /0306 10180 20100 30098 40240 56008 91800 333 10204 20100=
07335,1999-06-10 00:00:00,13,1025.1,-0.5,94,12,0,7.408,,,340,,,,,,,,,,,wg-a,,,,AAXX 10004 07335 32/// /3404 10130 20120 30106 40251 58005 90000=
07335,1999-06-10 04:00:00,13,1024.7,-0.5,94,12,12000,7.408,,,350,,,,,,,,,,0,wg-a,,,,AAXX 10044 07335 32762 73504 10130 20120 30102 40247 56005 700// 82532 90400=
07335,1999-06-10 05:00:00,13,1024.8,-0.2,94,12,12000,7.408,,,350,,,,,,,,,,0,wg-a,,,,AAXX 10054 07335 32762 73504 10130 20120 30103 40248 55002 700// 8557/ 90500=
07335,1999-06-10 06:00:00,14,1024.9,0.3,88,12,12000,7.408,,,350,12.7,19,,,,,,,,0,wg-a,,,,AAXX 10064 07335 12762 73504 10140 20120 30105 40249 53003 60004 700// 8357/ 90600 333 10190 20127=
07335,1999-06-10 07:00:00,15,1025.1,0.5,88,13,15000,7.408,,,360,,,,,,,,,,0,wg-a,,,,AAXX 10074 07335 32765 73604 10150 20130 30107 40251 53005 700// 8453/ 90700=
07335,1999-06-10 08:00:00,17,1025.4,0.8,72,12,15000,7.408,,,30,,,,,,,,,,0,wg-a,,,,AAXX 10084 07335 32765 70304 10170 20120 30111 40254 53008 700// 8353/ 90800=
07335,1999-06-10 09:00:00,19,1025.2,0.5,64,12,20000,3.704,,,50,,,,,,,,,,0,wg-a,,,,AAXX 10094 07335 32770 70502 10190 20120 30110 40252 50005 700// 8453/ 90900=
07335,1999-06-10 10:00:00,19,1025.1,0.2,60,11,25000,11.112,,,40,,,,,,,,,,0,wg-a,,,,AAXX 10104 07335 32675 70406 10190 20110 30109 40251 50002 700// 8583/ 91000=
07335,1999-06-10 11:00:00,20,1024.9,-0.4,56,11,25000,7.408,,,30,,,,,,,,,,0,wg-a,,,,AAXX 10114 07335 32675 70304 10200 20110 30107 40249 58004 700// 8483/ 91100=
07335,1999-06-10 12:00:00,21,1024.3,-0.8,46,9,500,11.112,,,30,,,,,,,,,,0,wg-a,,,,AAXX 10124 07335 32600 40306 10210 20090 30102 40243 58008 700// 8383/ 91200=
07335,1999-06-10 13:00:00,21,1024.1,-0.9,53,11,500,11.112,,,10,,,,,,,,,,0,wg-a,,,,AAXX 10134 07335 32600 70106 10210 20110 30100 40241 57009 700// 8683/ 91300=
07335,1999-06-10 14:00:00,21,1024,-0.8,49,10,500,11.112,,,50,,,,,,,,,,0,wg-a,,,,AAXX 10144 07335 32600 70506 10210 20100 30099 40240 56008 700// 8683/ 91400=
07335,1999-06-10 15:00:00,21,1023.7,-0.6,49,10,500,11.112,,,30,,,,,,,,,,0,wg-a,,,,AAXX 10154 07335 32600 70306 10210 20100 30096 40237 58006 700// 8683/ 91500=
07335,1999-06-10 16:00:00,21,1023.4,-0.7,53,11,500,11.112,,,40,,,,,,,,,,0,wg-a,,,,AAXX 10164 07335 32600 60406 10210 20110 30093 40234 58007 700// 85830 91600=
07335,1999-06-10 17:00:00,21,1023.3,-0.7,53,11,500,11.112,,,30,,,,,,,,,,0,wg-a,,,,AAXX 10174 07335 32600 /0306 10210 20110 30092 40233 56007 700// 85830 91700=
07335,1999-06-10 18:00:00,20,1023.6,-0.1,56,11,0,14.816,,,10,14,21.6,,,,,,,,,wg-a,,,,AAXX 10184 07335 32/// /0108 10200 20110 30095 40236 55001 91800 333 10216 20140=
07335,1999-06-11 00:00:00,12,1024.5,-0.2,94,11,0,3.704,,,310,,,,,,,,,,,wg-a,,,,AAXX 11004 07335 32/// /3102 10120 20110 30100 40245 57002 90000=
07335,1999-06-11 04:00:00,12,1023.9,-0.5,94,11,12000,3.704,,,10,,,,,,,,,,0,wg-a,,,,AAXX 11044 07335 32762 50102 10120 20110 30094 40239 56005 700// 85600 90400=
07335,1999-06-11 05:00:00,11,1024.1,-0.1,100,11,12000,7.408,,,330,,,,,,,,,,0,wg-a,,,,AAXX 11054 07335 32/62 43304 10110 20110 30096 40241 55001 700// 84080 90500=
07335,1999-06-11 06:00:00,13,1024.2,0.2,94,12,12000,11.112,,,20,10.8,20.3,,,,,,,,0,wg-a,,,,AAXX 11064 07335 12862 40206 10130 20120 30097 40242 53002 60004 700// 84500 90600 333 10203 20108=
07335,1999-06-11 07:00:00,15,1024.4,0.6,82,12,12000,7.408,,,60,,,,,,,,,,0,wg-a,,,,AAXX 11074 07335 32762 60604 10150 20120 30100 40244 53006 700// 86500 90700=
07335,1999-06-11 08:00:00,15,1024.4,0.5,82,12,10000,7.408,,,20,,,,,,,,,,0,wg-a,,,,AAXX 11084 07335 32860 70204 10150 20120 30101 40244 52005 700// 875// 90800=
07335,1999-06-11 09:00:00,18,1024.1,0.2,73,13,10000,7.408,,,60,,,,,,,,,,0,wg-a,,,,AAXX 11094 07335 32760 60604 10180 20130 30099 40241 50002 700// 86500 90900=
07335,1999-06-11 10:00:00,19,1023.9,-0.2,68,13,15000,3.704,,,330,,,,,,,,,,0,wg-a,,,,AAXX 11104 07335 32565 /3302 10190 20130 30098 40239 58002 700// 86800 91000=
07335,1999-06-11 11:00:00,20,1023.6,-0.6,60,12,18000,11.112,,,10,,,,,,,,,,0,wg-a,,,,AAXX 11114 07335 32668 70106 10200 20120 30095 40236 58006 700// 878// 91100=
07335,1999-06-11 12:00:00,21,1023.1,-0.8,56,12,20000,14.816,,,30,,,,,,,,,,0,wg-a,,,,AAXX 11124 07335 32670 60308 10210 20120 30091 40231 58008 700// 86800 91200=
07335,1999-06-11 13:00:00,21,1022.9,-1,53,11,20000,11.112,,,10,,,,,,,,,,0,wg-a,,,,AAXX 11134 07335 32670 60106 10210 20110 30088 40229 57010 700// 86800 91300=
07335,1999-06-11 14:00:00,20,1022.6,-1,53,10,18000,7.408,,,50,,,,,,,,,,0,wg-a,,,,AAXX 11144 07335 32668 70504 10200 20100 30085 40226 56010 700// 878// 91400=
07335,1999-06-11 15:00:00,19,1022.7,-0.6,64,12,18000,7.408,,,280,,,,0,,,,,,80,wg-a,,,,AAXX 11154 07335 12568 82804 10190 20120 30085 40227 56006 60007 78086 888// 91500=
07335,1999-06-11 16:00:00,18,1022.3,-0.7,73,13,18000,7.408,,,90,,,0,,,,,,,25,wg-a,,,,AAXX 11164 07335 12568 70904 10180 20130 30081 40223 58007 60005 72586 878// 91600=
07335,1999-06-11 17:00:00,20,1021.9,-0.7,60,12,22000,7.408,,,100,,,,,,,,,,0,wg-a,,,,AAXX 11174 07335 32572 /1004 10200 20120 30078 40219 58007 700// 86800 91700=
07335,1999-06-11 18:00:00,20,1021.7,-0.9,56,11,0,7.408,,,80,12.9,21.6,,,,,,,,,wg-a,,,,AAXX 11184 07335 32/// /0804 10200 20110 30076 40217 56009 91800 333 10216 20129=
07335,1999-06-12 00:00:00,14,1022,-0.7,77,10,0,3.704,,,70,,,,,,,,,,,wg-a,,,,AAXX 12004 07335 32/// /0702 10140 20100 30076 40220 58007 90000=
07335,1999-06-12 04:00:00,11,1021.4,-0.3,94,10,8000,3.704,,,60,,,,,,,,,,0,wg-a,,,,AAXX 12044 07335 32758 30602 10110 20100 30069 40214 56003 700// 83500 90400=
07335,1999-06-12 05:00:00,12,1021.1,-0.4,94,11,10000,7.408,,,110,,,,,,,,,,0,wg-a,,,,AAXX 12054 07335 32760 31104 10120 20110 30066 40211 58004 700// 83500 90500=
07335,1999-06-12 06:00:00,14,1021.1,-0.2,88,12,12000,3.704,,,80,9.4,20.1,,,,,1,,,0,wg-a,,,,AAXX 12064 07335 12762 30802 10140 20120 30067 40211 55002 60014 700// 82501 90600 333 10201 20094=
07335,1999-06-12 07:00:00,16,1021.3,0.1,82,13,12000,3.704,,,130,,,,,,,,,,0,wg-a,,,,AAXX 12074 07335 32762 31302 10160 20130 30070 40213 53001 700// 81580 90700=
07335,1999-06-12 08:00:00,18,1021,0.3,73,13,15000,7.408,,,140,,,,,,,,,,0,wg-a,,,,AAXX 12084 07335 32/65 31404 10180 20130 30069 40210 50003 700// 83080 90800=
07335,1999-06-12 09:00:00,20,1020.8,0,60,12,20000,7.408,,,210,,,,,,,,,,0,wg-a,,,,AAXX 12094 07335 32670 32104 10200 20120 30067 40208 50000 700// 81180 90900=
07335,1999-06-12 10:00:00,21,1020.6,-0.4,56,12,25000,7.408,,,230,,,,,,,,,,0,wg-a,,,,AAXX 12104 07335 32675 42304 10210 20120 30066 40206 57004 700// 84280 91000=
07335,1999-06-12 11:00:00,21,1020.5,-0.4,53,11,25000,18.52,,,250,,,,,,,,,,0,wg-a,,,,AAXX 12114 07335 32675 /2510 10210 20110 30065 40205 56004 700// 86280 91100=
07335,1999-06-12 12:00:00,22,1020.1,-0.6,53,12,25000,11.112,,,280,,,,,,,,,,0,wg-a,,,,AAXX 12124 07335 32675 /2806 10220 20120 30061 40201 58006 700// 86280 91200=
07335,1999-06-12 13:00:00,22,1020.1,-0.5,53,12,25000,18.52,,,250,,,,,,,,,,0,wg-a,,,,AAXX 12134 07335 32775 62510 10220 20120 30061 40201 56005 700// 85280 91300=
07335,1999-06-12 14:00:00,23,1019.7,-0.7,47,11,25000,14.816,,,240,,,,,,,,,,0,wg-a,,,,AAXX 12144 07335 32775 52408 10230 20110 30058 40197 56007 700// 85200 91400=
07335,1999-06-12 15:00:00,23,1019.2,-0.8,50,12,25000,18.52,,,270,,,,,,,,,,0,wg-a,,,,AAXX 12154 07335 32775 52710 10230 20120 30053 40192 58008 700// 85200 91500=
07335,1999-06-12 18:00:00,21,1018.8,-0.5,53,11,0,14.816,,,260,13.9,23.6,,,,,,,,,wg-a,,,,AAXX 12184 07335 32/// /2608 10210 20110 30048 40188 56005 91800 333 10236 20139=
07335,1999-06-13 00:00:00,13,1020.3,-0.2,94,12,0,14.816,,,320,,,,,,,,,,,wg-a,,,,AAXX 13004 07335 32/// /3208 10130 20120 30059 40203 58002 90000=
07335,1999-06-13 04:00:00,12,1020.9,0.3,88,10,4000,14.816,,,340,,,,,,,,,,10,wg-a,,,,AAXX 13044 07335 32240 83408 10120 20100 30064 40209 53003 71022 886// 90400=
07335,1999-06-13 05:00:00,11,1021.1,0.6,94,10,4000,18.52,,,330,,,,,,,,,,10,wg-a,,,,AAXX 13054 07335 32240 83310 10110 20100 30066 40211 52006 71022 886// 90500=
07335,1999-06-13 06:00:00,11,1021.8,1.1,94,10,3000,14.816,,,340,11.3,21.2,,,,,,,,10,wg-a,,,,AAXX 13064 07335 12230 83408 10110 20100 30073 40218 53011 60004 71022 886// 90600 333 10212 20113=
07335,1999-06-13 07:00:00,12,1022,1.1,88,10,3000,14.816,,,350,,,,,,,,,,10,wg-a,,,,AAXX 13074 07335 32230 83508 10120 20100 30075 40220 52011 71022 886// 90700=
07335,1999-06-13 08:00:00,14,1022.1,1.1,82,11,500,18.52,,,10,,,,,,,,,,0,wg-a,,,,AAXX 13084 07335 32400 40110 10140 20110 30077 40221 51011 700// 84100 90800=
07335,1999-06-13 09:00:00,16,1022.2,0.6,68,10,10000,18.52,,,360,,,,,,,,,,0,wg-a,,,,AAXX 13094 07335 32560 /3610 10160 20100 30079 40222 52006 700// 81100 90900=
07335,1999-06-13 11:00:00,18,1022.4,0.5,56,9,15000,18.52,,,10,,,,,,,,,,0,wg-a,,,,AAXX 13114 07335 32565 20110 10180 20090 30082 40224 52005 700// 82132 91100=
07335,1999-06-13 12:00:00,19,1022.2,0.2,56,10,15000,14.816,,,360,,,,,,,,,,0,wg-a,,,,AAXX 13124 07335 32665 33608 10190 20100 30081 40222 50002 700// 83232 91200=
07335,1999-06-13 13:00:00,19,1022.2,0.1,49,8,15000,14.816,,,340,,,,,,,,,,0,wg-a,,,,AAXX 13134 07335 32765 43408 10190 20080 30081 40222 51001 700// 83232 91300=
07335,1999-06-13 14:00:00,20,1022.4,0.1,49,9,20000,22.224,,,350,,,,,,,,,,0,wg-a,,,,AAXX 13144 07335 32770 63512 10200 20090 30083 40224 53001 700// 86202 91400=
07335,1999-06-13 15:00:00,20,1022.1,-0.1,46,8,20000,22.224,,,20,,,,,,,,,,0,wg-a,,,,AAXX 13154 07335 32770 50212 10200 20080 30080 40221 58001 700// 85202 91500=
07335,1999-06-13 18:00:00,19,1022.3,0.1,49,8,0,18.52,,,10,11.4,20.7,,,,,,,,,wg-a,,,,AAXX 13184 07335 32/// /0110 10190 20080 30081 40223 51001 91800 333 10207 20114=
07335,1999-06-14 00:00:00,11,1024.3,0.6,87,9,0,7.408,,,350,,,,,,,,,,,wg-a,,,,AAXX 14004 07335 32/// /3504 10110 20090 30097 40243 50006 90000=
07335,1999-06-14 04:00:00,9,1024.2,-0,93,8,6000,11.112,,,340,,,,,,,,,,0,wg-a,,,,AAXX 14044 07335 32656 /3406 10090 20080 30095 40242 55000 700// 81500 90400=
07335,1999-06-14 05:00:00,9,1024.5,0.4,93,8,6000,3.704,,,340,,,,,,,,,,0,wg-a,,,,AAXX 14054 07335 32456 /3402 10090 20080 30098 40245 53004 700// 81530 90500=
07335,1999-06-14 06:00:00,11,1024.5,0.5,94,10,7000,7.408,,,320,8.4,18.7,,,,,,,,0,wg-a,,,,AAXX 14064 07335 32/57 03204 10110 20100 30099 40245 52005 700// 80000 90600 333 10187 20084=
07335,1999-06-14 07:00:00,13,1024.2,0.2,88,11,8000,11.112,,,340,,,,,,,,,,0,wg-a,,,,AAXX 14074 07335 32/58 03406 10130 20110 30097 40242 50002 700// 80000 90700=
07335,1999-06-14 08:00:00,15,1024.3,0.1,77,11,9000,11.112,,,10,,,,,,,,,,0,wg-a,,,,AAXX 14084 07335 32459 30106 10150 20110 30099 40243 53001 700// 83100 90800=
07335,1999-06-14 09:00:00,16,1024.2,-0,72,11,10000,14.816,,,20,,,,,,,,,,0,wg-a,,,,AAXX 14094 07335 32560 20208 10160 20110 30099 40242 55000 700// 82100 90900=
07335,1999-06-14 10:00:00,18,1023.9,0,68,12,12000,14.816,,,360,,,,,,,,,,0,wg-a,,,,AAXX 14104 07335 32562 23608 10180 20120 30097 40239 50000 700// 82100 91000=
07335,1999-06-14 11:00:00,19,1023.9,-0.1,60,11,12000,18.52,,,30,,,,,,,,,,0,wg-a,,,,AAXX 14114 07335 32562 30310 10190 20110 30098 40239 55001 700// 83100 91100=
07335,1999-06-14 12:00:00,20,1023.5,-0.5,60,12,15000,22.224,,,360,,,,,,,,,,0,wg-a,,,,AAXX 14124 07335 32665 43612 10200 20120 30094 40235 58005 700// 84200 91200=
07335,1999-06-14 14:00:00,22,1022.8,-1,57,13,18000,18.52,,,360,,,,,,,,,,0,wg-a,,,,AAXX 14144 07335 32668 /3610 10220 20130 30088 40228 57010 700// 85200 91400=
07335,1999-06-14 15:00:00,23,1022.5,-0.9,50,12,18000,22.224,,,20,,,,,,,,,,0,wg-a,,,,AAXX 14154 07335 32668 50212 10230 20120 30085 40225 58009 700// 84830 91500=
07335,1999-06-14 16:00:00,22,1022.4,-0.8,50,11,16000,18.52,,,10,,,,,,,,,,0,wg-a,,,,AAXX 14164 07335 32666 70110 10220 20110 30084 40224 56008 700// 8683/ 91600=
07335,1999-06-14 17:00:00,22,1022.3,-0.5,53,12,16000,18.52,,,40,,,,,,,,,,0,wg-a,,,,AAXX 14174 07335 32666 20410 10220 20120 30083 40223 56005 700// 82830 91700=
07335,1999-06-14 18:00:00,22,1022.1,-0.4,53,12,0,14.816,,,20,10.7,22.8,,,,,,,,,wg-a,,,,AAXX 14184 07335 32/// /0208 10220 20120 30081 40221 58004 91800 333 10228 20107=
07335,1999-06-15 00:00:00,13,1024.7,0.4,88,11,0,7.408,,,330,,,,,,,,,,,wg-a,,,,AAXX 15004 07335 32/// /3304 10130 20110 30102 40247 51004 90000=
07335,1999-06-15 04:00:00,11,1025,0.2,94,10,500,11.112,,,350,,,,,,,,,,0,wg-a,,,,AAXX 15044 07335 32200 33506 10110 20100 30104 40250 53002 700// 81602 90400=
07335,1999-06-15 05:00:00,11,1025.5,0.8,94,10,6000,7.408,,,340,,,,,,,,,,0,wg-a,,,,AAXX 15054 07335 32/56 23404 10110 20100 30109 40255 53008 700// 80002 90500=
07335,1999-06-15 06:00:00,13,1025.7,1,88,11,6000,14.816,,,10,11.1,21.6,,,,,,,,0,wg-a,,,,AAXX 15064 07335 12/56 20108 10130 20110 30112 40257 53010 60004 700// 80002 90600 333 10216 20111=
07335,1999-06-15 07:00:00,15,1025.8,1,77,11,7000,11.112,,,20,,,,,,,,,,0,wg-a,,,,AAXX 15074 07335 32/57 20206 10150 20110 30114 40258 51010 700// 80002 90700=
07335,1999-06-15 08:00:00,17,1025.7,0.5,72,12,8000,11.112,,,50,,,,,,,,,,0,wg-a,,,,AAXX 15084 07335 32458 20506 10170 20120 30114 40257 51005 700// 81502 90800=
07335,1999-06-15 09:00:00,19,1025.4,0,68,13,10000,7.408,,,30,,,,,,,,,,0,wg-a,,,,AAXX 15094 07335 32/60 10304 10190 20130 30112 40254 50000 700// 80002 90900=
07335,1999-06-15 10:00:00,21,1025.1,-0.4,60,13,15000,11.112,,,50,,,,,,,,,,0,wg-a,,,,AAXX 15104 07335 32/65 10506 10210 20130 30110 40251 58004 700// 80002 91000=
07335,1999-06-15 11:00:00,23,1024.9,-0.5,50,12,25000,11.112,,,40,,,,,,,,,,0,wg-a,,,,AAXX 15114 07335 32/75 10406 10230 20120 30109 40249 56005 700// 80002 91100=
07335,1999-06-15 12:00:00,24,1024.6,-0.5,50,13,25000,11.112,,,50,,,,,,,,,,0,wg-a,,,,AAXX 15124 07335 32675 20506 10240 20130 30107 40246 57005 700// 81102 91200=
07335,1999-06-15 13:00:00,25,1024,-0.9,44,12,25000,14.816,,,50,,,,,,,,,,0,wg-a,,,,AAXX 15134 07335 32675 20508 10250 20120 30101 40240 58009 700// 82102 91300=
07335,1999-06-15 14:00:00,25,1023.5,-1.3,44,12,25000,11.112,,,50,,,,,,,,,,0,wg-a,,,,AAXX 15144 07335 32675 20506 10250 20120 30096 40235 58013 700// 82202 91400=
07335,1999-06-15 15:00:00,25,1023.2,-1.4,44,12,25000,14.816,,,40,,,,,,,,,,0,wg-a,,,,AAXX 15154 07335 32675 30408 10250 20120 30093 40232 56014 700// 83202 91500=
07335,1999-06-15 16:00:00,25,1022.8,-1.2,41,11,25000,14.816,,,60,,,,,,,,,,0,wg-a,,,,AAXX 15164 07335 32775 20608 10250 20110 30089 40228 56012 700// 82202 91600=
07335,1999-06-15 17:00:00,25,1022.6,-0.9,41,11,25000,7.408,,,50,,,,,,,,,,0,wg-a,,,,AAXX 15174 07335 32775 20504 10250 20110 30087 40226 56009 700// 82102 91700=
07335,1999-06-15 18:00:00,25,1022.6,-0.6,44,12,0,14.816,,,30,13.1,25.8,,,,,,,,,wg-a,,,,AAXX 15184 07335 32/// /0308 10250 20120 30087 40226 56006 91800 333 10258 20131=
07335,1999-06-16 00:00:00,17,1023.3,-0.4,82,14,0,7.408,,,50,,,,,,,,,,,wg-a,,,,AAXX 16004 07335 32/// /0504 10170 20140 30090 40233 58004 90000=
07335,1999-06-16 04:00:00,11,1023,-0.4,94,10,3000,3.704,,,330,,,,,,,,,,11,wg-a,,,,AAXX 16044 07335 32/30 /3302 10110 20100 30084 40230 58004 71100 80002 90400=
07335,1999-06-16 05:00:00,11,1022.9,-0.3,100,11,8000,7.408,,,360,,,,,,,,,,0,wg-a,,,,AAXX 16054 07335 32/58 /3604 10110 20110 30084 40229 56003 700// 80001 90500=
07335,1999-06-16 06:00:00,15,1022.8,-0.1,94,14,8000,3.704,,,10,11,25.3,,,,,,,,0,wg-a,,,,AAXX 16064 07335 12/58 20102 10150 20140 30085 40228 55001 60004 700// 80001 90600 333 10253 20110=
07335,1999-06-16 07:00:00,19,1022.7,0.2,73,14,10000,7.408,,,70,,,,,,,,,,0,wg-a,,,,AAXX 16074 07335 32/60 20704 10190 20140 30086 40227 53002 700// 80002 90700=
07335,1999-06-16 08:00:00,21,1022.6,0.2,69,15,10000,7.408,,,90,,,,,,,,,,,wg-a,,,,AAXX 16084 07335 32/60 /0904 10210 20150 30086 40226 51002 90800=
07335,1999-06-16 09:00:00,23,1022.3,-0.1,57,14,20000,7.408,,,70,,,,,,,,,,0,wg-a,,,,AAXX 16094 07335 32/70 30704 10230 20140 30084 40223 58001 700// 80002 90900=
07335,1999-06-16 10:00:00,25,1022.2,-0.3,47,13,25000,7.408,,,110,,,,,,,,,,0,wg-a,,,,AAXX 16104 07335 32775 31104 10250 20130 30083 40222 58003 700// 81102 91000=
07335,1999-06-16 11:00:00,26,1021.8,-0.6,48,14,25000,7.408,,,70,,,,,,,,,,0,wg-a,,,,AAXX 16114 07335 32775 20704 10260 20140 30080 40218 58006 700// 81102 91100=
07335,1999-06-16 12:00:00,26,1021.4,-0.8,39,11,25000,14.816,,,80,,,,,,,,,,0,wg-a,,,,AAXX 16124 07335 32775 10808 10260 20110 30076 40214 58008 700// 81101 91200=
07335,1999-06-16 14:00:00,26,1020.5,-1.3,39,11,25000,7.408,,,70,,,,,,,,,,0,wg-a,,,,AAXX 16144 07335 32775 20704 10260 20110 30067 40205 57013 700// 82201 91400=
07335,1999-06-16 15:00:00,28,1020.2,-1.1,37,12,25000,7.408,,,360,,,,,,,,,,0,wg-a,,,,AAXX 16154 07335 32775 23604 10280 20120 30065 40202 56011 700// 82201 91500=
07335,1999-06-16 16:00:00,27,1020,-0.8,37,11,25000,11.112,,,70,,,,,,,,,,0,wg-a,,,,AAXX 16164 07335 32775 30706 10270 20110 30063 40200 56008 700// 83201 91600=
07335,1999-06-16 17:00:00,27,1019.8,-0.6,39,12,25000,11.112,,,70,,,,,,,,,,0,wg-a,,,,AAXX 16174 07335 32775 30706 10270 20120 30061 40198 57006 700// 83201 91700=
07335,1999-06-16 18:00:00,26,1019.8,-0.5,42,12,0,11.112,,,80,15,27.5,,,,,,,,,wg-a,,,,AAXX 16184 07335 32/// /0806 10260 20120 30060 40198 56005 91800 333 10275 20150=
07335,1999-06-17 04:00:00,12,1021,-0.2,100,12,8000,3.704,,,320,,,,,,,,,,0,wg-a,,,,AAXX 17044 07335 32/58 23202 10120 20120 30065 40210 55002 700// 80001 90400=
07335,1999-06-17 05:00:00,13,1021,-0.1,94,12,8000,3.704,,,10,,,,,,,,,,0,wg-a,,,,AAXX 17054 07335 32/58 30102 10130 20120 30066 40210 55001 700// 80001 90500=
07335,1999-06-17 06:00:00,16,1021.2,0.6,88,14,8000,3.704,,,360,12,26.3,,,,,,,,0,wg-a,,,,AAXX 17064 07335 12/58 23602 10160 20140 30069 40212 53006 60004 700// 80001 90600 333 10263 20120=
07335,1999-06-17 07:00:00,19,1021.1,0.5,78,15,8000,7.408,,,20,,,,,,,,,,0,wg-a,,,,AAXX 17074 07335 32/58 20204 10190 20150 30070 40211 52005 700// 80001 90700=
07335,1999-06-17 08:00:00,21,1021.4,0.8,69,15,10000,11.112,,,30,,,,,,,,,,0,wg-a,,,,AAXX 17084 07335 32/60 20306 10210 20150 30074 40214 53008 700// 80001 90800=
07335,1999-06-17 09:00:00,24,1021.6,0.8,54,14,15000,11.112,,,50,,,,,,,,,,0,wg-a,,,,AAXX 17094 07335 32/65 20506 10240 20140 30077 40216 53008 700// 80001 90900=
07335,1999-06-17 10:00:00,26,1021.6,0.8,42,12,15000,14.816,,,40,,,1,,,,,,,0,wg-a,,,,AAXX 17104 07335 12665 20408 10260 20120 30078 40216 51008 60015 700// 81101 91000=
07335,1999-06-17 11:00:00,27,1021.4,0.2,39,12,20000,14.816,,,70,,,,,,,,,,0,wg-a,,,,AAXX 17114 07335 32670 40708 10270 20120 30076 40214 50002 700// 83201 91100=
07335,1999-06-17 12:00:00,27,1020.9,-0.5,39,12,25000,18.52,,,30,,,,,,,,,,0,wg-a,,,,AAXX 17124 07335 32675 /0310 10270 20120 30072 40209 58005 700// 85201 91200=
07335,1999-06-17 13:00:00,27,1020.7,-0.8,34,10,25000,18.52,,,40,,,,,,,,,,0,wg-a,,,,AAXX 17134 07335 32775 40410 10270 20100 30070 40207 57008 700// 84201 91300=
07335,1999-06-17 14:00:00,28,1020.6,-0.7,37,12,25000,22.224,,42.596,10,,,,,,,,,,0,wg-a,,,,AAXX 17144 07335 32775 40112 10280 20120 30069 40206 56007 700// 84201 91400 333 91023=
07335,1999-06-17 15:00:00,28,1020.9,-0,37,12,25000,22.224,,,30,,,,,,,,,,0,wg-a,,,,AAXX 17154 07335 32775 50312 10280 20120 30072 40209 55000 700// 84201 91500=
07335,1999-06-17 16:00:00,28,1020.7,0,35,11,25000,22.224,,,30,,,,,,,,,,0,wg-a,,,,AAXX 17164 07335 32775 30312 10280 20110 30070 40207 50000 700// 83201 91600=
07335,1999-06-17 17:00:00,27,1020.7,0,39,12,25000,22.224,,,30,,,,,,,,,,0,wg-a,,,,AAXX 17174 07335 32775 40312 10270 20120 30069 40207 50000 700// 82201 91700=
07335,1999-06-17 18:00:00,26,1020.7,-0.3,45,13,0,22.224,,,20,15.7,28.4,,,,,,,,,wg-a,,,,AAXX 17184 07335 32/// /0212 10260 20130 30069 40207 56003 91800 333 10284 20157=
07335,1999-06-18 00:00:00,16,1023.4,0.8,88,14,0,11.112,,,350,,,,,,,,,,,wg-a,,,,AAXX 18004 07335 32/// /3506 10160 20140 30091 40234 51008 90000=
07335,1999-06-18 04:00:00,12,1023.7,0.2,94,11,10000,11.112,,,360,,,,,,,,,,0,wg-a,,,,AAXX 18044 07335 32760 53606 10120 20110 30092 40237 52002 700// 83501 90400=
07335,1999-06-18 05:00:00,13,1024.1,0.6,94,12,10000,11.112,,,360,,,,,,,,,,0,wg-a,,,,AAXX 18054 07335 32660 53606 10130 20120 30096 40241 53006 700// 81531 90500=
07335,1999-06-18 06:00:00,14,1024,0.4,94,13,15000,11.112,,,360,12.1,25.9,,,,,,,,0,wg-a,,,,AAXX 18064 07335 12/65 43606 10140 20130 30096 40240 52004 60004 700// 80001 90600 333 10259 20121=
07335,1999-06-18 07:00:00,16,1024.1,0.6,82,13,20000,14.816,,,30,,,,,,,,,,0,wg-a,,,,AAXX 18074 07335 32/70 20308 10160 20130 30098 40241 51006 700// 80001 90700=
07335,1999-06-18 08:00:00,18,1024,0.2,73,13,20000,11.112,,,50,,,,,,,,,,0,wg-a,,,,AAXX 18084 07335 32/70 30506 10180 20130 30098 40240 52002 700// 80001 90800=
07335,1999-06-18 09:00:00,20,1024,0.3,64,13,20000,11.112,,,20,,,,,,,,,,0,wg-a,,,,AAXX 18094 07335 32570 30206 10200 20130 30099 40240 51003 700// 81201 90900=
07335,1999-06-18 10:00:00,21,1023.7,-0.2,56,12,25000,14.816,,,30,,,,,,,,,,0,wg-a,,,,AAXX 18104 07335 32675 40308 10210 20120 30096 40237 58002 700// 81201 91000=
07335,1999-06-18 11:00:00,22,1023.4,-0.4,50,11,25000,18.52,,,20,,,,,,,,,,0,wg-a,,,,AAXX 18114 07335 32675 40210 10220 20110 30094 40234 58004 700// 81201 91100=
07335,1999-06-18 12:00:00,23,1022.9,-1,47,11,500,18.52,,,40,,,,,,,,,,0,wg-a,,,,AAXX 18124 07335 32600 40410 10230 20110 30089 40229 58010 700// 83801 91200=
07335,1999-06-18 13:00:00,22,1022.7,-0.9,50,11,500,18.52,,,20,,,,,,,,,,0,wg-a,,,,AAXX 18134 07335 32600 70210 10220 20110 30087 40227 57009 700// 878// 91300=
07335,1999-06-18 14:00:00,23,1022.4,-1,47,11,500,18.52,,,40,,,,,,,,,,0,wg-a,,,,AAXX 18144 07335 32600 70410 10230 20110 30084 40224 56010 700// 878// 91400=
07335,1999-06-18 15:00:00,24,1022.1,-0.7,44,11,500,22.224,,,30,,,,,,,,,,0,wg-a,,,,AAXX 18154 07335 32600 60312 10240 20110 30082 40221 57007 700// 86800 91500=
07335,1999-06-18 16:00:00,23,1021.8,-0.9,47,11,500,18.52,,,30,,,,,,,,,,0,wg-a,,,,AAXX 18164 07335 32700 40310 10230 20110 30078 40218 58009 700// 84800 91600=
07335,1999-06-18 17:00:00,23,1021.5,-0.8,44,10,500,18.52,,,30,,,,,,,,,,0,wg-a,,,,AAXX 18174 07335 32700 40310 10230 20100 30076 40215 57008 700// 83801 91700=
07335,1999-06-18 18:00:00,23,1021.6,-0.6,44,10,0,25.928,,,30,14.3,24,,,,,,,,,wg-a,,,,AAXX 18184 07335 32/// /0314 10230 20100 30076 40216 56006 91800 333 10240 20143=
07335,1999-06-19 00:00:00,12,1023.7,0.7,82,9,0,3.704,,,360,,,,,,,,,,,wg-a,,,,AAXX 19004 07335 32/// /3602 10120 20090 30092 40237 53007 90000=
07335,1999-06-19 04:00:00,9,1023.7,0,93,8,8000,7.408,,,320,,,,,,,,,,0,wg-a,,,,AAXX 19044 07335 32/58 /3204 10090 20080 30090 40237 50000 700// 80002 90400=
07335,1999-06-19 05:00:00,9,1024,0.4,100,9,8000,3.704,,,320,,,,,,,,,,0,wg-a,,,,AAXX 19054 07335 32/58 /3202 10090 20090 30093 40240 52004 700// 80002 90500=
07335,1999-06-19 06:00:00,13,1024.1,0.4,88,11,17000,7.408,,,340,8.5,22.8,,,,,,,,0,wg-a,,,,AAXX 19064 07335 32/67 03404 10130 20110 30096 40241 53004 700// 80000 90600 333 10228 20085=
07335,1999-06-19 07:00:00,16,1024,0.7,77,12,26000,3.704,,,360,,,,,,,,,,0,wg-a,,,,AAXX 19074 07335 32/76 03602 10160 20120 30097 40240 51007 700// 80000 90700=
07335,1999-06-19 08:00:00,19,1024.2,0.7,56,10,500,3.704,,,70,,,,,,,,,,0,wg-a,,,,AAXX 19084 07335 32/00 00702 10190 20100 30100 40242 52007 700// 80000 90800=
07335,1999-06-19 09:00:00,20,1024.1,0.4,49,9,10000,7.408,,,30,,,,,,,,,,,wg-a,,,,AAXX 19094 07335 32/60 /0304 10200 20090 30100 40241 51004 90900=
07335,1999-06-19 10:00:00,21,1023.7,-0.1,46,9,500,11.112,,,10,,,,,,,,,,0,wg-a,,,,AAXX 19104 07335 32600 /0106 10210 20090 30096 40237 58001 700// 81100 91000=
07335,1999-06-19 11:00:00,22,1023.4,-0.6,43,9,500,7.408,,,360,,,,,,,,,,0,wg-a,,,,AAXX 19114 07335 32700 13604 10220 20090 30094 40234 58006 700// 81100 91100=
07335,1999-06-19 12:00:00,23,1022.9,-1.1,38,8,500,11.112,,,20,,,,,,,,,,0,wg-a,,,,AAXX 19124 07335 32700 10206 10230 20080 30089 40229 58011 700// 81100 91200=
07335,1999-06-19 13:00:00,24,1022.4,-1.1,34,7,500,11.112,,,10,,,,,,,,,,0,wg-a,,,,AAXX 19134 07335 32700 10106 10240 20070 30085 40224 58011 700// 81100 91300=
07335,1999-06-19 14:00:00,24,1022,-1.3,34,7,500,14.816,,,10,,,,,,,,,,0,wg-a,,,,AAXX 19144 07335 32/00 00108 10240 20070 30081 40220 56013 700// 80000 91400=
07335,1999-06-19 15:00:00,25,1021.5,-1.3,32,7,500,14.816,,,10,,,,,,,,,,0,wg-a,,,,AAXX 19154 07335 32/00 00108 10250 20070 30076 40215 58013 700// 80000 91500=
07335,1999-06-19 18:00:00,24,1020.6,-0.9,36,8,0,11.112,,,360,12.9,25.1,,,,,,,,,wg-a,,,,AAXX 19184 07335 32/// /3606 10240 20080 30067 40206 56009 91800 333 10251 20129=
07335,1999-06-20 00:00:00,14,1021.7,0,82,11,0,14.816,,,320,,,,,,,,,,,wg-a,,,,AAXX 20004 07335 32/// /3208 10140 20110 30073 40217 50000 90000=
07335,1999-06-20 04:00:00,11,1020.8,-0.7,94,10,15000,3.704,,,300,,,,,,,,,,0,wg-a,,,,AAXX 20044 07335 32/65 33002 10110 20100 30063 40208 56007 700// 80001 90400=
07335,1999-06-20 05:00:00,11,1020.9,-0.2,94,10,15000,3.704,,,320,,,,,,,,,,0,wg-a,,,,AAXX 20054 07335 32/65 63202 10110 20100 30064 40209 55002 700// 80002 90500=
07335,1999-06-20 06:00:00,13,1021.1,0.3,94,12,15000,3.704,,,310,10.5,24.3,,,,,,,,0,wg-a,,,,AAXX 20064 07335 12/65 63102 10130 20120 30067 40211 53003 60004 700// 80002 90600 333 10243 20105=
07335,1999-06-20 07:00:00,15,1021.1,0.5,88,13,15000,7.408,,,310,,,,,,,,,,0,wg-a,,,,AAXX 20074 07335 32565 73104 10150 20130 30068 40211 52005 700// 83532 90700=
07335,1999-06-20 08:00:00,17,1021.3,0.7,77,13,15000,7.408,,,320,,,,,,,,,,0,wg-a,,,,AAXX 20084 07335 32565 73204 10170 20130 30071 40213 52007 700// 83532 90800=
07335,1999-06-20 09:00:00,18,1021.2,0.3,68,12,15000,14.816,,,290,,,,,,,,,,0,wg-a,,,,AAXX 20094 07335 32565 72908 10180 20120 30070 40212 50003 700// 83532 90900=
07335,1999-06-20 10:00:00,19,1020.9,0,64,12,15000,18.52,,,290,,,,,,,,,,0,wg-a,,,,AAXX 20104 07335 32565 72910 10190 20120 30068 40209 50000 700// 83532 91000=
07335,1999-06-20 11:00:00,19,1020.7,-0.5,60,11,15000,22.224,,,260,,,,,,,,,,0,wg-a,,,,AAXX 20114 07335 32565 72612 10190 20110 30066 40207 58005 700// 8553/ 91100=
07335,1999-06-20 12:00:00,19,1020.5,-0.6,64,12,15000,18.52,,,270,,,,,,,,,,0,wg-a,,,,AAXX 20124 07335 32565 72710 10190 20120 30064 40205 57006 700// 8553/ 91200=
07335,1999-06-20 13:00:00,20,1020.1,-0.8,60,12,15000,22.224,,,260,,,,,,,,,,0,wg-a,,,,AAXX 20134 07335 32565 72612 10200 20120 30060 40201 58008 700// 8553/ 91300=
07335,1999-06-20 14:00:00,19,1019.8,-0.9,68,13,15000,22.224,,,260,,,,,,,,,,0,wg-a,,,,AAXX 20144 07335 32565 72612 10190 20130 30057 40198 58009 700// 8553/ 91400=
07335,1999-06-20 15:00:00,19,1019.5,-1,68,13,15000,22.224,,,270,,,,,,,,,,0,wg-a,,,,AAXX 20154 07335 32565 72712 10190 20130 30054 40195 56010 700// 8553/ 91500=
07335,1999-06-20 18:00:00,19,1018.3,-1.2,68,13,0,22.224,,,260,12.8,20.5,,,,,,,,,wg-a,,,,AAXX 20184 07335 32/// /2612 10190 20130 30042 40183 56012 91800 333 10205 20128=
07335,1999-06-21 00:00:00,14,1018.2,-0.5,88,12,0,18.52,,,10,,,,,,,,,,,wg-a,,,,AAXX 21004 07335 32/// /0110 10140 20120 30039 40182 55005 90000=
07335,1999-06-21 04:00:00,9,1019.1,0.5,93,8,25000,11.112,,,320,,,,,,,,,,0,wg-a,,,,AAXX 21044 07335 32/75 13206 10090 20080 30045 40191 53005 700// 81030 90400=
07335,1999-06-21 05:00:00,9,1019.8,1.1,93,8,25000,14.816,,,320,,,,,,,,,,0,wg-a,,,,AAXX 21054 07335 32/75 13208 10090 20080 30052 40198 53011 700// 81031 90500=
07335,1999-06-21 06:00:00,11,1020.1,1.3,87,9,25000,18.52,,,340,8.9,18.8,,,,,,,,1,wg-a,,,,AAXX 21064 07335 12/75 13410 10110 20090 30056 40201 53013 60004 70160 80001 90600 333 10188 20089=
07335,1999-06-21 07:00:00,13,1020.7,1.7,77,9,25000,22.224,,,350,,,,,,,,,,0,wg-a,,,,AAXX 21074 07335 32475 /3512 10130 20090 30062 40207 51017 700// 81101 90700=
07335,1999-06-21 08:00:00,14,1020.7,1.1,67,8,25000,18.52,,,350,,,,,,,,,,0,wg-a,,,,AAXX 21084 07335 32575 43510 10140 20080 30063 40207 51011 700// 84101 90800=
07335,1999-06-21 09:00:00,16,1020.7,0.8,51,6,25000,25.928,,,10,,,,,,,,,,0,wg-a,,,,AAXX 21094 07335 32575 40114 10160 20060 30064 40207 51008 700// 84201 90900=
07335,1999-06-21 10:00:00,16,1020.7,0.2,45,4,25000,22.224,,,360,,,,,,,,,,0,wg-a,,,,AAXX 21104 07335 32675 43612 10160 20040 30064 40207 51002 700// 84201 91000=
07335,1999-06-21 11:00:00,18,1020.8,0.3,39,4,500,18.52,,,10,,,,,,,,,,0,wg-a,,,,AAXX 21114 07335 32600 50110 10180 20040 30066 40208 53003 700// 85400 91100=
07335,1999-06-21 12:00:00,18,1021,0.4,39,4,500,18.52,,,360,,,,,,,,,,0,wg-a,,,,AAXX 21124 07335 32700 53610 10180 20040 30068 40210 53004 700// 85400 91200=
07335,1999-06-21 13:00:00,18,1020.9,0.3,42,5,500,22.224,,,330,,,,,,,,,,0,wg-a,,,,AAXX 21134 07335 32700 53312 10180 20050 30067 40209 50003 700// 85400 91300=
07335,1999-06-21 14:00:00,18,1021,0.2,52,8,500,18.52,,,340,,,,,,,,,,0,wg-a,,,,AAXX 21144 07335 32700 73410 10180 20080 30068 40210 51002 700// 874// 91400=
07335,1999-06-21 15:00:00,18,1021.1,0.1,45,6,500,18.52,,,330,,,,,,,,,,0,wg-a,,,,AAXX 21154 07335 32700 63310 10180 20060 30069 40211 53001 700// 86400 91500=
07335,1999-06-21 16:00:00,18,1021.1,0.2,45,6,500,18.52,,,330,,,,,,,,,,0,wg-a,,,,AAXX 21164 07335 32700 53310 10180 20060 30069 40211 51002 700// 85800 91600=
07335,1999-06-21 18:00:00,18,1021.3,0.2,42,5,0,22.224,,,360,11.1,19.5,,,,,,,,,wg-a,,,,AAXX 21184 07335 32/// /3612 10180 20050 30071 40213 53002 91800 333 10195 20111=
07335,1999-06-22 00:00:00,9,1024.4,0.9,81,6,0,7.408,,,340,,,,,,,,,,,wg-a,,,,AAXX 22004 07335 32/// /3404 10090 20060 30097 40244 51009 90000=
07335,1999-06-22 04:00:00,5,1024.6,0.1,93,4,25000,3.704,,,350,,,,,,,,,,0,wg-a,,,,AAXX 22044 07335 32775 33502 10050 20040 30097 40246 53001 700// 83500 90400=
07335,1999-06-22 05:00:00,7,1024.5,0.1,93,6,25000,3.704,,,360,,,,,,,,,,0,wg-a,,,,AAXX 22054 07335 32775 33602 10070 20060 30097 40245 52001 700// 83500 90500=
07335,1999-06-22 06:00:00,9,1024.4,0.1,87,7,25000,3.704,,,360,5.2,17.9,,,,,,,,0,wg-a,,,,AAXX 22064 07335 12775 23602 10090 20070 30097 40244 51001 60004 700// 82500 90600 333 10179 20052=
07335,1999-06-22 08:00:00,14,1024.4,0.3,63,7,25000,11.112,,,130,,,,,,,,,,0,wg-a,,,,AAXX 22084 07335 32775 11306 10140 20070 30100 40244 50003 700// 81502 90800=
07335,1999-06-22 09:00:00,16,1024.1,0.1,51,6,25000,7.408,,,140,,,,,,,,,,0,wg-a,,,,AAXX 22094 07335 32675 /1404 10160 20060 30098 40241 50001 700// 81102 90900=
07335,1999-06-22 10:00:00,17,1024,-0.4,45,5,25000,11.112,,,70,,,,,,,,,,0,wg-a,,,,AAXX 22104 07335 32775 40706 10170 20050 30097 40240 57004 700// 84100 91000=
07335,1999-06-22 11:00:00,18,1023.6,-0.6,39,4,25000,11.112,,,50,,,,,,,,,,0,wg-a,,,,AAXX 22114 07335 32775 30506 10180 20040 30094 40236 58006 700// 83100 91100=
07335,1999-06-22 12:00:00,19,1023.1,-0.9,37,4,25000,14.816,,,30,,,,,,,,,,0,wg-a,,,,AAXX 22124 07335 32775 30308 10190 20040 30089 40231 58009 700// 83100 91200=
07335,1999-06-22 13:00:00,19,1022.6,-1.3,37,4,25000,11.112,,,60,,,,,,,,,,0,wg-a,,,,AAXX 22134 07335 32775 20606 10190 20040 30084 40226 58013 700// 82100 91300=
07335,1999-06-22 14:00:00,20,1022.1,-1.4,37,5,25000,14.816,,,40,,,,,,,,,,0,wg-a,,,,AAXX 22144 07335 32875 20408 10200 20050 30080 40221 56014 700// 82400 91400=
07335,1999-06-22 15:00:00,21,1021.5,-1.5,33,4,25000,11.112,,,30,,,,,,,,,,0,wg-a,,,,AAXX 22154 07335 32875 10306 10210 20040 30074 40215 58015 700// 81400 91500=
07335,1999-06-22 16:00:00,21,1021.4,-1.1,33,4,25000,14.816,,,60,,,,,,,,,,0,wg-a,,,,AAXX 22164 07335 32875 10608 10210 20040 30073 40214 56011 700// 81500 91600=
07335,1999-06-22 17:00:00,21,1021,-1.1,33,4,25000,14.816,,,70,,,,,,,,,,0,wg-a,,,,AAXX 22174 07335 32875 10708 10210 20040 30069 40210 56011 700// 81502 91700=
07335,1999-06-22 18:00:00,20,1020.8,-0.7,35,4,0,18.52,,,60,8.7,21,,,,,,,,,wg-a,,,,AAXX 22184 07335 32/// /0610 10200 20040 30067 40208 58007 91800 333 10210 20087=
07335,1999-06-23 00:00:00,11,1021.3,-0.6,71,6,0,3.704,,,30,,,,,,,,,,,wg-a,,,,AAXX 23004 07335 32/// /0302 10110 20060 30068 40213 58006 90000=
07335,1999-06-23 04:00:00,7,1021.3,-0,93,6,25000,3.704,,,350,,,,,,,,,,0,wg-a,,,,AAXX 23044 07335 32/75 53502 10070 20060 30066 40213 55000 700// 83032 90400=
07335,1999-06-23 05:00:00,8,1021.5,0.2,87,6,20000,3.704,,,350,,,,,,,,,,0,wg-a,,,,AAXX 23054 07335 32/70 53502 10080 20060 30068 40215 53002 700// 85031 90500=
07335,1999-06-23 06:00:00,12,1021.2,0.4,71,7,20000,7.408,,,70,7.1,20.3,,,,,,,,0,wg-a,,,,AAXX 23064 07335 12/70 20704 10120 20070 30067 40212 50004 60004 700// 82030 90600 333 10203 20071=
07335,1999-06-23 07:00:00,15,1021.1,0.1,59,7,25000,7.408,,,70,,,,,,,,,,0,wg-a,,,,AAXX 23074 07335 32/75 20704 10150 20070 30067 40211 51001 700// 82032 90700=
07335,1999-06-23 08:00:00,18,1021,-0,45,6,500,11.112,,,100,,,,,,,,,,0,wg-a,,,,AAXX 23084 07335 32/00 51006 10180 20060 30068 40210 55000 700// 83032 90800=
07335,1999-06-23 09:00:00,19,1021.2,0.3,40,5,500,18.52,,,100,,,,,,,,,,0,wg-a,,,,AAXX 23094 07335 32/00 31010 10190 20050 30070 40212 53003 700// 81082 90900=
07335,1999-06-23 10:00:00,20,1020.8,0,37,5,500,18.52,,,90,,,,,,,,,,0,wg-a,,,,AAXX 23104 07335 32/00 30910 10200 20050 30067 40208 50000 700// 82032 91000=
07335,1999-06-23 11:00:00,21,1020.7,-0.2,33,4,500,18.52,,,90,,,,,,,,,,0,wg-a,,,,AAXX 23114 07335 32/00 40910 10210 20040 30066 40207 58002 700// 81032 91100=
07335,1999-06-23 12:00:00,22,1020.3,-0.7,33,5,500,18.52,,,60,,,,,,,,,,0,wg-a,,,,AAXX 23124 07335 32/00 50610 10220 20050 30063 40203 57007 700// 81082 91200=
07335,1999-06-23 13:00:00,23,1019.9,-0.8,31,5,500,18.52,,,60,,,,,,,,,,0,wg-a,,,,AAXX 23134 07335 32/00 30610 10230 20050 30059 40199 58008 700// 81082 91300=
07335,1999-06-23 15:00:00,23,1019.5,-0.7,33,6,500,18.52,,,80,,,,,,,,,,0,wg-a,,,,AAXX 23154 07335 32/00 50810 10230 20060 30056 40195 55007 700// 81082 91500=
07335,1999-06-23 16:00:00,23,1019.4,-0.4,31,5,500,18.52,,,70,,,,,,,,,,0,wg-a,,,,AAXX 23164 07335 32/00 60710 10230 20050 30055 40194 56004 700// 81082 91600=
07335,1999-06-23 17:00:00,24,1019.1,-0.3,29,5,500,18.52,,,90,,,,,,,,,,0,wg-a,,,,AAXX 23174 07335 32/00 30910 10240 20050 30052 40191 58003 700// 81032 91700=
07335,1999-06-23 18:00:00,24,1019.3,-0.2,29,5,0,18.52,,,70,11.9,24,,,,,,,,,wg-a,,,,AAXX 23184 07335 32/// /0710 10240 20050 30054 40193 55002 91800 333 10240 20119=
07335,1999-06-24 00:00:00,15,1021.8,0.7,59,7,0,11.112,,,60,,,,,,,,,,,wg-a,,,,AAXX 24004 07335 32/// /0606 10150 20070 30075 40218 51007 90000=
07335,1999-06-24 04:00:00,13,1021.3,-0.6,67,7,25000,7.408,,,60,,,,,,,,,,0,wg-a,,,,AAXX 24044 07335 32/75 00604 10130 20070 30068 40213 55006 700// 80000 90400=
07335,1999-06-24 05:00:00,13,1021.4,-0.1,67,7,25000,11.112,,,60,,,,,,,,,,0,wg-a,,,,AAXX 24054 07335 32/75 00606 10130 20070 30070 40214 55001 700// 80000 90500=
07335,1999-06-24 06:00:00,15,1021.4,0.4,63,8,25000,11.112,,,70,11.6,23.4,,,,,,,,0,wg-a,,,,AAXX 24064 07335 32/75 00706 10150 20080 30071 40214 52004 700// 80000 90600 333 10234 20116=
07335,1999-06-24 08:00:00,20,1021.4,0.3,46,8,25000,18.52,,,90,,,,,,,,,,0,wg-a,,,,AAXX 24084 07335 32/75 00910 10200 20080 30073 40214 51003 700// 80000 90800=
07335,1999-06-24 09:00:00,22,1021.2,0.1,41,8,500,22.224,,,100,,,,,,,,,,0,wg-a,,,,AAXX 24094 07335 32/00 01012 10220 20080 30072 40212 50001 700// 80000 90900=
07335,1999-06-24 10:00:00,23,1020.7,-0.6,33,6,500,31.484,,50.004,80,,,,,,,,,,0,wg-a,,,,AAXX 24104 07335 32/00 10817 10230 20060 30067 40207 58006 700// 80001 91000 333 91027=
07335,1999-06-24 11:00:00,24,1020.8,-0.4,34,7,500,25.928,,,80,,,,,,,,,,0,wg-a,,,,AAXX 24114 07335 32/00 10814 10240 20070 30069 40208 55004 700// 80001 91100=
07335,1999-06-24 12:00:00,25,1020.1,-1,30,6,500,25.928,,42.596,90,,,,,,,,,,0,wg-a,,,,AAXX 24124 07335 32/00 10914 10250 20060 30062 40201 58010 700// 80001 91200 333 91023=
07335,1999-06-24 13:00:00,26,1019.7,-0.8,26,5,500,22.224,,,90,,,,,,,,,,0,wg-a,,,,AAXX 24134 07335 32/00 10912 10260 20050 30059 40197 58008 700// 80001 91300=
07335,1999-06-24 14:00:00,27,1019.2,-1.5,24,5,500,14.816,,,90,,,,,,,,,,0,wg-a,,,,AAXX 24144 07335 32/00 10908 10270 20050 30054 40192 56015 700// 80001 91400=
07335,1999-06-24 15:00:00,27,1018.8,-1.1,23,4,500,22.224,,,80,,,,,,,,,,0,wg-a,,,,AAXX 24154 07335 32/00 10812 10270 20040 30051 40188 57011 700// 80001 91500=
07335,1999-06-24 17:00:00,27,1017.8,-1.3,24,5,500,22.224,,,90,,,,,,,,,,0,wg-a,,,,AAXX 24174 07335 32/00 10912 10270 20050 30041 40178 58013 700// 80001 91700=
07335,1999-06-24 18:00:00,27,1017.7,-1.1,24,5,0,18.52,,,90,14.9,27.5,,,,,,,,,wg-a,,,,AAXX 24184 07335 32/// /0910 10270 20050 30040 40177 56011 91800 333 10275 20149=
07335,1999-06-25 00:00:00,19,1018,-0.6,56,10,0,11.112,,,70,,,,,,,,,,,wg-a,,,,AAXX 25004 07335 32/// /0706 10190 20100 30039 40180 57006 90000=
07335,1999-06-25 04:00:00,13,1017.5,-0.6,77,9,25000,3.704,,,50,,,,,,,,,,0,wg-a,,,,AAXX 25044 07335 32/75 50502 10130 20090 30031 40175 55006 700// 80002 90400=
07335,1999-06-25 05:00:00,13,1017.2,-0.5,82,10,25000,7.408,,,40,,,,,,,,,,0,wg-a,,,,AAXX 25054 07335 32/75 50404 10130 20100 30028 40172 56005 700// 80002 90500=
07335,1999-06-25 06:00:00,16,1017,-0.1,72,11,25000,7.408,,,60,12.2,26.7,,,,,,,,0,wg-a,,,,AAXX 25064 07335 12/75 50604 10160 20110 30028 40170 58001 60004 700// 80002 90600 333 10267 20122=
07335,1999-06-25 07:00:00,18,1016.8,-0.4,64,11,25000,11.112,,,70,,,,,,,,,,0,wg-a,,,,AAXX 25074 07335 32/75 50706 10180 20110 30027 40168 56004 700// 80002 90700=
07335,1999-06-25 08:00:00,20,1016.6,-0.2,53,10,25000,14.816,,,70,,,,,,,,,,0,wg-a,,,,AAXX 25084 07335 32/75 50708 10200 20100 30026 40166 58002 700// 80002 90800=
07335,1999-06-25 09:00:00,22,1016.1,-0.6,50,11,25000,14.816,,,70,,,,,,,,,,0,wg-a,,,,AAXX 25094 07335 32/75 50708 10220 20110 30022 40161 58006 700// 80002 90900=
07335,1999-06-25 10:00:00,24,1015.6,-0.9,44,11,25000,11.112,,,90,,,,,,,,,,0,wg-a,,,,AAXX 25104 07335 32/75 30906 10240 20110 30018 40156 58009 700// 80002 91000=
07335,1999-06-25 11:00:00,26,1015.1,-1.2,42,12,25000,11.112,,,110,,,,,,,,,,0,wg-a,,,,AAXX 25114 07335 32/75 41106 10260 20120 30014 40151 57012 700// 80002 91100=
07335,1999-06-25 12:00:00,28,1014.5,-1.3,37,12,25000,11.112,,,100,,,,,,,,,,0,wg-a,,,,AAXX 25124 07335 32/75 41006 10280 20120 30009 40145 58013 700// 80002 91200=
07335,1999-06-25 13:00:00,29,1014.1,-1.3,33,11,25000,7.408,,,170,,,,,,,,,,0,wg-a,,,,AAXX 25134 07335 32/75 51704 10290 20110 30005 40141 57013 700// 80002 91300=
07335,1999-06-25 14:00:00,30,1013.5,-1.4,33,12,25000,3.704,,,30,,,,,,,,,,0,wg-a,,,,AAXX 25144 07335 32/75 60302 10300 20120 30000 40135 57014 700// 80002 91400=
07335,1999-06-25 15:00:00,30,1013.3,-1.1,29,10,25000,7.408,,,350,,,,,,,,,,0,wg-a,,,,AAXX 25154 07335 32/75 63504 10300 20100 39998 40133 56011 700// 81082 91500=
07335,1999-06-25 16:00:00,31,1012.5,-1.5,27,10,25000,7.408,,,320,,,,,,,,,,0,wg-a,,,,AAXX 25164 07335 32/75 63204 10310 20100 39990 40125 58015 700// 82082 91600=
07335,1999-06-25 17:00:00,30,1012.1,-1.4,29,10,25000,7.408,,,10,,,,,,,,,,0,wg-a,,,,AAXX 25174 07335 32775 60104 10300 20100 39986 40121 58014 700// 81382 91700=
07335,1999-06-25 18:00:00,22,1013,-0.6,78,18,0,7.408,,,200,16.2,31.1,,,,,,,,,wg-a,,,,AAXX 25184 07335 32/// /2004 10220 20180 39992 40130 55006 91800 333 10311 20162=
07335,1999-06-26 00:00:00,19,1011.9,-0.7,88,17,0,7.408,,,170,,,,,,,,,,,wg-a,,,,AAXX 26004 07335 32/// /1704 10190 20170 39979 40119 55007 90000=
07335,1999-06-26 04:00:00,18,1010.6,-1.2,94,17,3000,22.224,,,230,,,,,,,,,,10,wg-a,,,,AAXX 26044 07335 32230 82312 10180 20170 39966 40106 56012 71022 876// 90400=
07335,1999-06-26 05:00:00,18,1010.3,-0.9,88,16,4000,18.52,,,250,,,,,,,,,,10,wg-a,,,,AAXX 26054 07335 32340 82510 10180 20160 39963 40103 56009 71022 876// 90500=
07335,1999-06-26 06:00:00,18,1010.8,0.2,94,17,4500,7.408,,,270,17.3,23.7,,,,,2,,,10,wg-a,,,,AAXX 26064 07335 12345 82704 10180 20170 39968 40108 53002 60024 71022 876// 90600 333 10237 20173=
07335,1999-06-26 07:00:00,19,1011.2,0.6,88,17,10000,14.816,,,200,,,,,,,,,,0,wg-a,,,,AAXX 26074 07335 32460 82008 10190 20170 39972 40112 53006 700// 885// 90700=
07335,1999-06-26 08:00:00,19,1011.1,0.8,88,17,8000,14.816,,,210,,,,,,,,,,0,wg-a,,,,AAXX 26084 07335 32458 82108 10190 20170 39971 40111 50008 700// 875// 90800=
07335,1999-06-26 09:00:00,19,1010.9,0.1,88,17,8000,22.224,,,240,,,,,,,,,,0,wg-a,,,,AAXX 26094 07335 32458 82412 10190 20170 39969 40109 50001 700// 875// 90900=
07335,1999-06-26 10:00:00,19,1011.1,-0.1,88,17,8000,18.52,,,240,,,,,,,,,,0,wg-a,,,,AAXX 26104 07335 32458 82410 10190 20170 39971 40111 55001 700// 875// 91000=
07335,1999-06-26 11:00:00,20,1011,-0,83,17,10000,14.816,,,230,,,,,,,,,,0,wg-a,,,,AAXX 26114 07335 32460 82308 10200 20170 39971 40110 55000 700// 875// 91100=
07335,1999-06-26 13:00:00,23,1010.3,-0.6,65,16,15000,22.224,,,240,,,,,,,,,,0,wg-a,,,,AAXX 26134 07335 32565 72412 10230 20160 39965 40103 57006 700// 8728/ 91300=
07335,1999-06-26 14:00:00,23,1010.3,-0.6,61,15,0,22.224,,,250,,,,,,,,,,0,wg-a,,,,AAXX 26144 07335 325// 82512 10230 20150 39965 40103 56006 700// 8523/ 91400=
07335,1999-06-26 15:00:00,22,1010.1,-0.2,60,14,15000,18.52,,,250,,,,,,,,,,0,wg-a,,,,AAXX 26154 07335 32665 72510 10220 20140 39963 40101 58002 700// 8323/ 91500=
07335,1999-06-26 18:00:00,21,1010,-0.2,60,13,0,22.224,,,260,18.1,23.3,,,,,,,,,wg-a,,,,AAXX 26184 07335 32/// /2612 10210 20130 39961 40100 56002 91800 333 10233 20181=
07335,1999-06-27 00:00:00,15,1010.2,-0.4,94,14,0,11.112,,,200,,,,,,,,,,,wg-a,,,,AAXX 27004 07335 32/// /2006 10150 20140 39961 40102 58004 90000=
07335,1999-06-27 04:00:00,16,1007.9,-1.5,94,15,6000,14.816,,,230,,,1,,,,,,,61,wg-a,,,,AAXX 27044 07335 12156 82308 10160 20150 39938 40079 57015 60015 76162 8752/ 90400=
07335,1999-06-27 05:00:00,16,1007.8,-1.1,88,14,15000,18.52,,,230,,,0,,,,,,,21,wg-a,,,,AAXX 27054 07335 12565 72310 10160 20140 39937 40078 56011 60005 72162 83532 90500=
07335,1999-06-27 06:00:00,16,1007.6,-0.8,94,15,10000,11.112,,,210,14.6,20.6,,2,,,2,,,1,wg-a,,,,AAXX 27064 07335 02560 72106 10160 20150 39935 40076 56008 60024 70162 83532 90600 333 10206 20146 60027=
07335,1999-06-27 07:00:00,17,1007.3,-0.5,88,15,10000,22.224,,,210,,,,,,,,,,0,wg-a,,,,AAXX 27074 07335 32460 72112 10170 20150 39933 40073 58005 700// 83532 90700=
07335,1999-06-27 08:00:00,17,1007.3,-0.4,88,15,10000,22.224,,,210,,,,,,,,,,0,wg-a,,,,AAXX 27084 07335 32460 82112 10170 20150 39933 40073 56004 700// 8553/ 90800=
07335,1999-06-27 09:00:00,16,1007.5,-0.1,94,15,8000,14.816,,,240,,,,3,,,,,,61,wg-a,,,,AAXX 27094 07335 12258 82408 10160 20150 39934 40075 55001 60037 76162 878// 90900=
07335,1999-06-27 10:00:00,15,1007.6,0.2,100,15,10000,18.52,,,210,,,2,,,,,,,61,wg-a,,,,AAXX 27104 07335 12360 82110 10150 20150 39935 40076 53002 60025 76166 878// 91000=
07335,1999-06-27 11:00:00,16,1007.1,-0.2,94,15,15000,18.52,,,210,,,0,,,,,,,21,wg-a,,,,AAXX 27114 07335 12365 82110 10160 20150 39931 40071 58002 60005 72162 878// 91100=
07335,1999-06-27 12:00:00,14,1007.9,0.3,94,13,15000,14.816,,,270,,,,5,,,,,,61,wg-a,,,,AAXX 27124 07335 12265 72708 10140 20130 39937 40079 53003 60057 76162 8683/ 91200=
07335,1999-06-27 13:00:00,18,1008,0.5,83,15,15000,22.224,,,230,,,,,,,,,,16,wg-a,,,,AAXX 27134 07335 02265 72312 10180 20150 39940 40080 53005 61000 71662 878// 91300 333 ////=
07335,1999-06-27 14:00:00,19,1008.2,1.2,60,11,25000,31.484,,,270,,,,,,,,,,0,wg-a,,,,AAXX 27144 07335 32475 62717 10190 20110 39943 40082 51012 700// 84832 91400=
07335,1999-06-27 15:00:00,18,1009,1.3,56,9,25000,25.928,,,280,,,,,,,,,,3,wg-a,,,,AAXX 27154 07335 02575 /2814 10180 20090 39950 40090 53013 61000 70362 86800 91500 333 ////=
07335,1999-06-27 18:00:00,17,1010.7,1.6,55,8,0,25.928,,,270,14.4,19.2,,,,,,,,,wg-a,,,,AAXX 27184 07335 32/// /2714 10170 20080 39966 40107 53016 91800 333 10192 20144=
07335,1999-06-28 00:00:00,12,1014.6,1.2,94,11,0,11.112,,,240,,,,,,,,,,,wg-a,,,,AAXX 28004 07335 32/// /2406 10120 20110 30002 40146 51012 90000=
07335,1999-06-28 04:00:00,12,1015.4,0.7,94,11,20000,11.112,,,210,,,,,,,,,,16,wg-a,,,,AAXX 28044 07335 32670 72106 10120 20110 30010 40154 53007 71622 8457/ 90400=
07335,1999-06-28 05:00:00,12,1015.8,0.9,94,11,15000,11.112,,,220,,,,,,,,,,25,wg-a,,,,AAXX 28054 07335 32265 62206 10120 20110 30014 40158 53009 72522 86830 90500=
07335,1999-06-28 06:00:00,13,1016.1,1.2,94,12,15000,14.816,,,210,9.8,17.3,,,,,7,,,0,wg-a,,,,AAXX 28064 07335 12265 62108 10130 20120 30018 40161 52012 60074 700// 86830 90600 333 10173 20098=
07335,1999-06-28 07:00:00,15,1016.8,1.5,88,13,15000,14.816,,,220,,,,,,,,,,0,wg-a,,,,AAXX 28074 07335 32365 /2208 10150 20130 30025 40168 53015 700// 86830 90700=
07335,1999-06-28 08:00:00,15,1017.4,1.7,88,13,8000,18.52,,,240,,,0,,,,,,,80,wg-a,,,,AAXX 28084 07335 12358 72410 10150 20130 30031 40174 53017 60005 78086 872// 90800=
07335,1999-06-28 09:00:00,17,1017.8,1.8,72,12,15000,22.224,,,240,,,,0,,,,,,25,wg-a,,,,AAXX 28094 07335 12365 42412 10170 20120 30036 40178 51018 60007 72586 84830 90900=
07335,1999-06-28 10:00:00,18,1017.8,1.2,64,11,15000,25.928,,,260,,,,,,,,,,0,wg-a,,,,AAXX 28104 07335 32565 72614 10180 20110 30037 40178 51012 700// 878// 91000=
07335,1999-06-28 11:00:00,18,1018.2,1,68,12,15000,14.816,,,270,,,,,,,,,,0,wg-a,,,,AAXX 28114 07335 32565 72708 10180 20120 30041 40182 51010 700// 878// 91100=
07335,1999-06-28 12:00:00,20,1018,0.3,53,10,20000,22.224,,,230,,,,,,,,,,3,wg-a,,,,AAXX 28124 07335 32570 62312 10200 20100 30039 40180 50003 70386 86832 91200=
07335,1999-06-28 13:00:00,19,1018.2,0.4,60,11,20000,22.224,,,230,,,,,,,,,,0,wg-a,,,,AAXX 28134 07335 32570 72312 10190 20110 30041 40182 51004 700// 878// 91300=
07335,1999-06-28 14:00:00,21,1018,-0.1,49,10,20000,22.224,,,230,,,,,,,,,,0,wg-a,,,,AAXX 28144 07335 32670 72312 10210 20100 30040 40180 56001 700// 878// 91400=
07335,1999-06-28 15:00:00,20,1018.3,0.3,56,11,20000,22.224,,,240,,,,,,,,,,0,wg-a,,,,AAXX 28154 07335 32670 72412 10200 20110 30042 40183 52003 700// 878// 91500=
07335,1999-06-28 16:00:00,20,1018,-0.1,56,11,20000,18.52,,,230,,,,,,,,,,0,wg-a,,,,AAXX 28164 07335 32670 72310 10200 20110 30040 40180 58001 700// 8683/ 91600=
07335,1999-06-28 17:00:00,20,1017.9,-0.2,53,10,20000,22.224,,,240,,,,,,,,,,0,wg-a,,,,AAXX 28174 07335 32670 72412 10200 20100 30038 40179 58002 700// 8683/ 91700=
07335,1999-06-28 18:00:00,19,1018.2,-0.1,64,12,0,25.928,,,240,13.3,21,,,,,,,,,wg-a,,,,AAXX 28184 07335 32/// /2414 10190 20120 30041 40182 55001 91800 333 10210 20133=
07335,1999-06-29 00:00:00,15,1018.7,-0.1,88,13,0,7.408,,,200,,,,,,,,,,,wg-a,,,,AAXX 29004 07335 32/// /2004 10150 20130 30044 40187 57001 90000=
07335,1999-06-29 04:00:00,13,1018.1,-0.3,94,12,15000,11.112,,,230,,,,,,,,,,0,wg-a,,,,AAXX 29044 07335 32765 72306 10130 20120 30037 40181 58003 700// 82532 90400=
07335,1999-06-29 05:00:00,14,1018.2,-0.3,88,12,20000,11.112,,,200,,,,,,,,,,0,wg-a,,,,AAXX 29054 07335 32/70 72006 10140 20120 30038 40182 55003 700// 82032 90500=
07335,1999-06-29 06:00:00,15,1018.5,0.5,88,13,20000,11.112,,,220,12.1,18.7,,,,,,,,0,wg-a,,,,AAXX 29064 07335 12/70 72206 10150 20130 30042 40185 53005 60004 700// 84032 90600 333 10187 20121=
07335,1999-06-29 07:00:00,16,1018.8,0.9,88,14,20000,14.816,,,210,,,,,,,,,,0,wg-a,,,,AAXX 29074 07335 32/70 72108 10160 20140 30046 40188 53009 700// 8707/ 90700=
07335,1999-06-29 08:00:00,18,1019.3,1.3,77,14,20000,18.52,,,210,,,,,,,,,,0,wg-a,,,,AAXX 29084 07335 32/70 72110 10180 20140 30051 40193 53013 700// 85032 90800=
07335,1999-06-29 09:00:00,19,1019.3,1,68,13,25000,22.224,,,210,,,,,,,,,,0,wg-a,,,,AAXX 29094 07335 32575 72112 10190 20130 30052 40193 51010 700// 81232 90900=
07335,1999-06-29 10:00:00,20,1019.4,0.8,68,14,25000,22.224,,,230,,,,,,,,,,0,wg-a,,,,AAXX 29104 07335 32575 72312 10200 20140 30054 40194 51008 700// 8123/ 91000=
07335,1999-06-29 11:00:00,23,1019.2,0.2,50,12,500,25.928,,,250,,,,,,,,,,0,wg-a,,,,AAXX 29114 07335 32600 72514 10230 20120 30053 40192 50002 700// 8123/ 91100=
07335,1999-06-29 12:00:00,23,1019.1,0,53,13,500,25.928,,,240,,,,,,,,,,0,wg-a,,,,AAXX 29124 07335 32600 72414 10230 20130 30052 40191 50000 700// 81832 91200=
07335,1999-06-29 13:00:00,23,1019,-0.3,57,14,500,29.632,,,240,,,,,,,,,,0,wg-a,,,,AAXX 29134 07335 32600 72416 10230 20140 30051 40190 57003 700// 83832 91300=
07335,1999-06-29 14:00:00,22,1019,-0.2,65,15,500,29.632,,,270,,,,,,,,,,0,wg-a,,,,AAXX 29144 07335 32500 72716 10220 20150 30051 40190 56002 700// 83832 91400=
07335,1999-06-29 15:00:00,23,1019,-0.1,65,16,500,29.632,,,250,,,,,,,,,,0,wg-a,,,,AAXX 29154 07335 32500 52516 10230 20160 30051 40190 56001 700// 83230 91500=
07335,1999-06-29 16:00:00,23,1019,-0,61,15,500,29.632,,,250,,,,,,,,,,0,wg-a,,,,AAXX 29164 07335 32500 62516 10230 20150 30051 40190 54000 700// 84230 91600=
07335,1999-06-29 17:00:00,21,1019.2,0.1,69,15,500,31.484,,,240,,,,,,,,,,0,wg-a,,,,AAXX 29174 07335 32500 /2417 10210 20150 30052 40192 53001 700// 85230 91700=
07335,1999-06-29 18:00:00,20,1019.5,0.4,73,15,0,29.632,,,250,15,23.9,,,,,,,,,wg-a,,,,AAXX 29184 07335 32/// /2516 10200 20150 30055 40195 53004 91800 333 10239 20150=
07335,1999-06-30 00:00:00,16,1021.5,0.3,94,15,0,14.816,,,220,,,,,,,,,,,wg-a,,,,AAXX 30004 07335 32/// /2208 10160 20150 30072 40215 50003 90000=
07335,1999-06-30 04:00:00,15,1021.5,0.1,100,15,10000,14.816,,,250,,,,,,,,,,0,wg-a,,,,AAXX 30044 07335 32260 82508 10150 20150 30072 40215 53001 700// 885// 90400=
07335,1999-06-30 05:00:00,15,1021.8,0.4,100,15,15000,14.816,,,250,,,,,,,,,,0,wg-a,,,,AAXX 30054 07335 32365 82508 10150 20150 30075 40218 53004 700// 886// 90500=
07335,1999-06-30 06:00:00,15,1022.7,1.5,94,14,25000,14.816,,,280,15.2,19.9,,,,,1,,,1,wg-a,,,,AAXX 30064 07335 12475 72808 10150 20140 30084 40227 53015 60014 70186 878// 90600 333 10199 20152=
07335,1999-06-30 07:00:00,16,1022.9,1.4,88,14,25000,11.112,,,260,,,,,,,,,,0,wg-a,,,,AAXX 30074 07335 32475 72606 10160 20140 30086 40229 51014 700// 878// 90700=
07335,1999-06-30 08:00:00,17,1023.3,1.6,82,14,25000,18.52,,,290,,,,,,,,,,0,wg-a,,,,AAXX 30084 07335 32475 72910 10170 20140 30091 40233 51016 700// 878// 90800=
07335,1999-06-30 09:00:00,17,1023.7,1,77,13,25000,18.52,,,290,,,,,,,,,,0,wg-a,,,,AAXX 30094 07335 32475 72910 10170 20130 30094 40237 53010 700// 878// 90900=
07335,1999-06-30 10:00:00,19,1023.7,0.9,68,13,25000,14.816,,,270,,,,,,,,,,0,wg-a,,,,AAXX 30104 07335 32575 72708 10190 20130 30095 40237 51009 700// 878// 91000=
07335,1999-06-30 11:00:00,19,1023.9,0.6,64,12,25000,18.52,,,280,,,,,,,,,,0,wg-a,,,,AAXX 30114 07335 32575 /2810 10190 20120 30097 40239 51006 700// 86800 91100=
07335,1999-06-30 12:00:00,20,1023.6,0.1,56,11,25000,14.816,,,240,,,,,,,,,,0,wg-a,,,,AAXX 30124 07335 32675 /2408 10200 20110 30095 40236 50001 700// 86500 91200=
07335,1999-06-30 13:00:00,21,1023.7,0.1,53,11,25000,18.52,,,280,,,,,,,,,,0,wg-a,,,,AAXX 30134 07335 32675 /2810 10210 20110 30096 40237 51001 700// 85500 91300=
07335,1999-06-30 14:00:00,21,1023.6,-0.2,49,10,25000,14.816,,,270,,,,,,,,,,0,wg-a,,,,AAXX 30144 07335 32675 42708 10210 20100 30095 40236 56002 700// 84200 91400=
07335,1999-06-30 15:00:00,22,1023.2,-0.3,50,11,25000,14.816,,,250,,,,,,,,,,0,wg-a,,,,AAXX 30154 07335 32675 42508 10220 20110 30092 40232 58003 700// 84200 91500=
07335,1999-06-30 16:00:00,22,1023,-0.6,46,10,25000,18.52,,,280,,,,,,,,,,0,wg-a,,,,AAXX 30164 07335 32675 42810 10220 20100 30090 40230 58006 700// 84200 91600=
07335,1999-06-30 17:00:00,22,1022.9,-0.6,50,11,25000,22.224,,,270,,,,,,,,,,0,wg-a,,,,AAXX 30174 07335 32775 42712 10220 20110 30089 40229 56006 700// 84200 91700=
07335,1999-06-30 18:00:00,21,1022.8,-0.4,53,11,0,18.52,,,270,15.3,22.9,,,,,,,,,wg-a,,,,AAXX 30184 07335 32/// /2710 10210 20110 30088 40228 56004 91800 333 10229 20153=
07335,1999-07-01 00:00:00,11,1023.3,-0.6,94,10,0,7.408,,,250,,,,,,,,,,,wg-a,,,,AAXX 01004 07335 32/// /2504 10110 20100 30088 40233 58006 90000=
07335,1999-07-01 04:00:00,8,1022.6,-0.7,93,7,20000,7.408,,,250,,,,,,,,,,0,wg-a,,,,AAXX 01044 07335 32/70 12504 10080 20070 30079 40226 56007 700// 80002 90400=
07335,1999-07-01 05:00:00,9,1022.5,-0.6,93,8,20000,0,,,0,,,,,,,,,,0,wg-a,,,,AAXX 01054 07335 32/70 20000 10090 20080 30078 40225 56006 700// 80002 90500=
07335,1999-07-01 06:00:00,12,1022.2,-0.3,94,11,20000,0,,,0,7.7,21.2,,,,,,,,0,wg-a,,,,AAXX 01064 07335 12/70 10000 10120 20110 30077 40222 57003 60004 700// 80002 90600 333 10212 20077=
07335,1999-07-01 07:00:00,15,1022,-0.2,77,11,25000,3.704,,,50,,,,,,,,,,0,wg-a,,,,AAXX 01074 07335 32/75 10502 10150 20110 30077 40220 56002 700// 80002 90700=
07335,1999-07-01 08:00:00,18,1021.9,-0.1,68,12,10000,3.704,,,160,,,,,,,,,,,wg-a,,,,AAXX 01084 07335 32/60 /1602 10180 20120 30077 40219 56001 90800=
07335,1999-07-01 09:00:00,20,1021.4,-0.4,60,12,25000,7.408,,,190,,,,,,,,,,0,wg-a,,,,AAXX 01094 07335 32/75 11904 10200 20120 30073 40214 58004 700// 80002 90900=
07335,1999-07-01 10:00:00,21,1021.1,-0.6,53,11,10000,3.704,,,220,,,,,,,,,,,wg-a,,,,AAXX 01104 07335 32/60 /2202 10210 20110 30071 40211 58006 91000=
07335,1999-07-01 11:00:00,24,1020.8,-0.8,44,11,25000,3.704,,,180,,,,,,,,,,0,wg-a,,,,AAXX 01114 07335 32/75 11802 10240 20110 30069 40208 56008 700// 80002 91100=
07335,1999-07-01 12:00:00,25,1020.3,-0.8,41,11,25000,11.112,,,310,,,,,,,,,,0,wg-a,,,,AAXX 01124 07335 32/75 13106 10250 20110 30065 40203 58008 700// 80002 91200=
07335,1999-07-01 13:00:00,26,1019.8,-1.1,37,10,25000,7.408,,,240,,,,,,,,,,0,wg-a,,,,AAXX 01134 07335 32/75 12404 10260 20100 30060 40198 58011 700// 80002 91300=
07335,1999-07-01 14:00:00,27,1019.3,-1.3,39,12,25000,7.408,,,290,,,,,,,,,,0,wg-a,,,,AAXX 01144 07335 32775 12904 10270 20120 30056 40193 57013 700// 81102 91400=
07335,1999-07-01 15:00:00,27,1018.8,-1.4,39,12,25000,7.408,,,180,,,,,,,,,,0,wg-a,,,,AAXX 01154 07335 32775 11804 10270 20120 30051 40188 57014 700// 81100 91500=
07335,1999-07-01 16:00:00,28,1018.1,-1.6,35,11,25000,7.408,,,320,,,,,,,,,,0,wg-a,,,,AAXX 01164 07335 32775 13204 10280 20110 30044 40181 58016 700// 81100 91600=
07335,1999-07-01 17:00:00,28,1017.6,-1.7,37,12,25000,3.704,,,310,,,,,,,,,,0,wg-a,,,,AAXX 01174 07335 32775 13102 10280 20120 30039 40176 57017 700// 81100 91700=
07335,1999-07-01 18:00:00,28,1017.2,-1.6,37,12,0,7.408,,,260,11.8,28.3,,,,,,,,,wg-a,,,,AAXX 01184 07335 32/// /2604 10280 20120 30035 40172 56016 91800 333 10283 20118=
07335,1999-07-02 00:00:00,15,1017.1,-0.4,88,13,0,3.704,,,360,,,,,,,,,,,wg-a,,,,AAXX 02004 07335 32/// /3602 10150 20130 30029 40171 58004 90000=
07335,1999-07-02 04:00:00,16,1015.1,-1.7,88,14,20000,7.408,,,60,,,,,,,,,,0,wg-a,,,,AAXX 02044 07335 32/70 10604 10160 20140 30009 40151 58017 700// 80002 90400=
07335,1999-07-02 05:00:00,17,1014.6,-1.7,88,15,25000,7.408,,,60,,,,,,,,,,0,wg-a,,,,AAXX 02054 07335 32/75 10604 10170 20150 30005 40146 56017 700// 80002 90500=
07335,1999-07-02 06:00:00,19,1014.5,-1,78,15,25000,11.112,,,90,14.9,27.8,,,,,,,,0,wg-a,,,,AAXX 02064 07335 12/75 10906 10190 20150 30005 40145 56010 60004 700// 80002 90600 333 10278 20149=
07335,1999-07-02 07:00:00,21,1014,-0.8,69,15,25000,14.816,,,100,,,,,,,,,,0,wg-a,,,,AAXX 02074 07335 32/75 11008 10210 20150 30001 40140 57008 700// 80002 90700=
07335,1999-07-02 08:00:00,24,1013.5,-0.8,57,15,500,14.816,,,100,,,,,,,,,,0,wg-a,,,,AAXX 02084 07335 32/00 11008 10240 20150 39997 40135 58008 700// 80002 90800=
07335,1999-07-02 09:00:00,27,1013,-1.1,51,16,500,14.816,,,110,,,,,,,,,,0,wg-a,,,,AAXX 02094 07335 32/00 11108 10270 20160 39994 40130 56011 700// 80002 90900=
07335,1999-07-02 10:00:00,29,1012.4,-1.2,43,15,500,18.52,,,100,,,,,,,,,,0,wg-a,,,,AAXX 02104 07335 32/00 11010 10290 20150 39989 40124 58012 700// 80002 91000=
07335,1999-07-02 11:00:00,31,1011.8,-1.3,36,14,500,14.816,,,120,,,,,,,,,,0,wg-a,,,,AAXX 02114 07335 32/00 11208 10310 20140 39984 40118 58013 700// 80002 91100=
07335,1999-07-02 12:00:00,32,1011.1,-1.7,34,14,500,18.52,,,120,,,,,,,,,,0,wg-a,,,,AAXX 02124 07335 32/00 11210 10320 20140 39977 40111 58017 700// 80002 91200=
07335,1999-07-02 13:00:00,34,1010.3,-1.9,30,14,500,14.816,,,150,,,,,,,,,,0,wg-a,,,,AAXX 02134 07335 32/00 11508 10340 20140 39970 40103 58019 700// 81082 91300=
07335,1999-07-02 14:00:00,35,1009.5,-2.2,25,12,500,14.816,,,160,,,,,,,,,,0,wg-a,,,,AAXX 02144 07335 32/00 21608 10350 20120 39962 40095 58022 700// 82082 91400=
07335,1999-07-02 15:00:00,35,1009.4,-1.5,25,12,500,18.52,,,200,,,,,,,,,,0,wg-a,,,,AAXX 02154 07335 32/00 22010 10350 20120 39962 40094 56015 700// 82082 91500=
07335,1999-07-02 16:00:00,33,1009.1,-1.2,32,14,500,14.816,,,200,,,,,,,,,,0,wg-a,,,,AAXX 02164 07335 32/00 52008 10330 20140 39958 40091 56012 700// 85082 91600=
07335,1999-07-02 17:00:00,32,1008.9,-0.7,32,13,500,11.112,,,200,,,,,,,,,,0,wg-a,,,,AAXX 02174 07335 32/00 52006 10320 20130 39955 40089 58007 700// 85082 91700=
07335,1999-07-02 18:00:00,32,1009,-0.6,36,15,0,11.112,,,190,19,35.5,,,,,,,,,wg-a,,,,AAXX 02184 07335 32/// /1906 10320 20150 39956 40090 55006 91800 333 10355 20190=
07335,1999-07-03 00:00:00,19,1012.9,1.5,88,17,0,18.52,,,240,,,,,,,,,,,wg-a,,,,AAXX 03004 07335 32/// /2410 10190 20170 39989 40129 51015 90000=
07335,1999-07-03 04:00:00,15,1014,0.6,88,13,17000,11.112,,,220,,,,,,,,,,0,wg-a,,,,AAXX 03044 07335 32/67 32206 10150 20130 39998 40140 51006 700// 81031 90400=
07335,1999-07-03 05:00:00,15,1014.1,0.4,94,14,20000,11.112,,,210,,,,,,,,,,0,wg-a,,,,AAXX 03054 07335 32470 52106 10150 20140 39999 40141 51004 700// 82582 90500=
07335,1999-07-03 06:00:00,16,1014.2,0.2,88,14,20000,14.816,,,230,14.3,32,,,,,,,,0,wg-a,,,,AAXX 03064 07335 12470 42308 10160 20140 30000 40142 53002 60004 700// 81582 90600 333 10320 20143=
07335,1999-07-03 07:00:00,18,1014.7,0.8,77,14,20000,18.52,,,250,,,,,,,,,,0,wg-a,,,,AAXX 03074 07335 32470 72510 10180 20140 30006 40147 53008 700// 875// 90700=
07335,1999-07-03 08:00:00,19,1014.6,0.7,73,14,20000,14.816,,,230,,,,,,,,,,0,wg-a,,,,AAXX 03084 07335 32470 62308 10190 20140 30006 40146 51007 700// 84582 90800=
07335,1999-07-03 09:00:00,21,1014.6,0.7,69,15,20000,14.816,,,250,,,,,,,,,,0,wg-a,,,,AAXX 03094 07335 32570 52508 10210 20150 30007 40146 51007 700// 83582 90900=
07335,1999-07-03 10:00:00,22,1014.4,-0.1,65,15,25000,14.816,,,250,,,,,,,,,,0,wg-a,,,,AAXX 03104 07335 32575 52508 10220 20150 30005 40144 58001 700// 83582 91000=
07335,1999-07-03 11:00:00,23,1014,-0.4,61,15,25000,11.112,,,260,,,0,,,,,,,0,wg-a,,,,AAXX 03114 07335 12575 72606 10230 20150 30002 40140 58004 60005 700// 82582 91100=
07335,1999-07-03 12:00:00,25,1013.4,-1,54,15,25000,7.408,,,240,,,,0,,,,,,0,wg-a,,,,AAXX 03124 07335 12675 72404 10250 20150 39997 40134 58010 60007 700// 81582 91200=
07335,1999-07-03 13:00:00,26,1013.1,-1.1,45,13,25000,14.816,,,230,,,,,,,,,,0,wg-a,,,,AAXX 03134 07335 32675 72308 10260 20130 39994 40131 57011 700// 81182 91300=
07335,1999-07-03 14:00:00,27,1012.7,-1.1,45,14,25000,7.408,,,280,,,,,,,,,,0,wg-a,,,,AAXX 03144 07335 32675 72804 10270 20140 39991 40127 56011 700// 81182 91400=
07335,1999-07-03 15:00:00,27,1012.6,-0.7,45,14,25000,18.52,,,280,,,,,,,,,,0,wg-a,,,,AAXX 03154 07335 32675 72810 10270 20140 39990 40126 56007 700// 81182 91500=
07335,1999-07-03 18:00:00,25,1012.4,-0.3,54,15,0,11.112,,,300,16.3,27.4,,,,,,,,,wg-a,,,,AAXX 03184 07335 32/// /3006 10250 20150 39987 40124 56003 91800 333 10274 20163=
07335,1999-07-04 00:00:00,18,1013.1,-0,83,15,0,11.112,,,320,,,,,,,,,,,wg-a,,,,AAXX 04004 07335 32/// /3206 10180 20150 39991 40131 55000 90000=
07335,1999-07-04 04:00:00,17,1012.1,-1.1,88,15,15000,3.704,,,60,,,,,,,,,,0,wg-a,,,,AAXX 04044 07335 32765 70602 10170 20150 39980 40121 55011 700// 82582 90400=
07335,1999-07-04 05:00:00,16,1012.3,-0.4,88,14,12000,3.704,,,350,,,,,,,,,,0,wg-a,,,,AAXX 04054 07335 32762 73502 10160 20140 39981 40123 55004 700// 82582 90500=
07335,1999-07-04 07:00:00,18,1011.8,-0.2,83,15,18000,11.112,,,60,,,,,,,,,,0,wg-a,,,,AAXX 04074 07335 32568 70606 10180 20150 39978 40118 55002 700// 83582 90700=
07335,1999-07-04 08:00:00,19,1011.4,-0.7,83,16,25000,14.816,,,60,,,,,,,,,,0,wg-a,,,,AAXX 04084 07335 32375 70608 10190 20160 39974 40114 56007 700// 82882 90800=
07335,1999-07-04 09:00:00,20,1010.8,-0.6,78,16,25000,14.816,,,50,,,,,,,,,,0,wg-a,,,,AAXX 04094 07335 32475 70508 10200 20160 39969 40108 58006 700// 8327/ 90900=
07335,1999-07-04 10:00:00,21,1010.6,-1.1,73,16,25000,14.816,,,50,,,,,,,,,,0,wg-a,,,,AAXX 04104 07335 32475 80508 10210 20160 39967 40106 56011 700// 875// 91000=
07335,1999-07-04 11:00:00,22,1010,-1.2,69,16,25000,11.112,,,10,,,,,,,,,,0,wg-a,,,,AAXX 04114 07335 32575 70106 10220 20160 39962 40100 57012 700// 875// 91100=
07335,1999-07-04 12:00:00,22,1009.6,-1.1,69,16,25000,11.112,,,10,,,,,,,,,,0,wg-a,,,,AAXX 04124 07335 32575 70106 10220 20160 39958 40096 58011 700// 875// 91200=
07335,1999-07-04 13:00:00,21,1009,-1.5,73,16,25000,18.52,,,360,,,,,,,,,,0,wg-a,,,,AAXX 04134 07335 32575 73610 10210 20160 39952 40090 58015 700// 875// 91300=
07335,1999-07-04 14:00:00,20,1009.7,-0.4,78,16,25000,22.224,,,320,,,,,,,,,,0,wg-a,,,,AAXX 04144 07335 32475 73212 10200 20160 39958 40097 55004 700// 875// 91400=
07335,1999-07-04 15:00:00,18,1009.8,-0,88,16,20000,25.928,,,330,,,,,,,,,,25,wg-a,,,,AAXX 04154 07335 32470 83314 10180 20160 39958 40098 55000 72522 888// 91500=
07335,1999-07-04 18:00:00,17,1009.5,-0.3,94,16,0,7.408,,,20,16.4,22.5,,,,,,,,,wg-a,,,,AAXX 04184 07335 32/// /0204 10170 20160 39955 40095 58003 91800 333 10225 20164=
07335,1999-07-05 00:00:00,16,1010.6,-0.2,94,15,0,3.704,,,160,,,,,,,,,,,wg-a,,,,AAXX 05004 07335 32/// /1602 10160 20150 39965 40106 58002 90000=
07335,1999-07-05 04:00:00,15,1011.1,0.1,100,15,10000,3.704,,,230,,,,,,,,,,0,wg-a,,,,AAXX 05044 07335 32560 82302 10150 20150 39970 40111 53001 700// 8557/ 90400=
07335,1999-07-05 05:00:00,16,1011,0.2,94,15,7000,7.408,,,170,,,,,,,,,,0,wg-a,,,,AAXX 05054 07335 32657 81704 10160 20150 39969 40110 50002 700// 8557/ 90500=
07335,1999-07-05 06:00:00,16,1011,0,100,16,10000,11.112,,,180,15.3,16.9,,,,,6,,,0,wg-a,,,,AAXX 05064 07335 12160 71806 10160 20160 39969 40110 50000 60064 700// 82672 90600 333 10169 20153=
07335,1999-07-05 07:00:00,17,1011.2,0.1,88,15,15000,11.112,,,210,,,,,,,,,,0,wg-a,,,,AAXX 05074 07335 32365 72106 10170 20150 39971 40112 53001 700// 81632 90700=
07335,1999-07-05 08:00:00,18,1011.3,0.4,83,15,20000,11.112,,,220,,,,,,,,,,0,wg-a,,,,AAXX 05084 07335 32470 32206 10180 20150 39973 40113 53004 700// 81231 90800=
07335,1999-07-05 09:00:00,19,1011.4,0.5,73,14,20000,14.816,,,220,,,,,,,,,,0,wg-a,,,,AAXX 05094 07335 32470 42208 10190 20140 39974 40114 51005 700// 84230 90900=
07335,1999-07-05 10:00:00,20,1011.5,0.5,68,14,20000,14.816,,,220,,,,,,,,,,0,wg-a,,,,AAXX 05104 07335 32570 /2208 10200 20140 39976 40115 52005 700// 85230 91000=
07335,1999-07-05 11:00:00,21,1011.3,0.1,64,14,20000,14.816,,,200,,,,,,,,,,0,wg-a,,,,AAXX 05114 07335 32570 42008 10210 20140 39974 40113 50001 700// 84230 91100=
07335,1999-07-05 12:00:00,22,1011.2,-0.1,57,13,25000,14.816,,,290,,,,,,,,,,15,wg-a,,,,AAXX 05124 07335 32575 52908 10220 20130 39973 40112 58001 71511 84932 91200=
07335,1999-07-05 13:00:00,17,1011.8,0.1,88,15,8000,31.484,,,280,,,1,,,,,,,80,wg-a,,,,AAXX 05134 07335 12158 72817 10170 20150 39977 40118 53001 60015 78098 8697/ 91300=
07335,1999-07-05 14:00:00,16,1012.4,0.9,94,15,8000,7.408,,,220,,,4,,,,,,,61,wg-a,,,,AAXX 05144 07335 12258 82204 10160 20150 39983 40124 53009 60045 76196 8652/ 91400=
07335,1999-07-05 15:00:00,18,1012,0.7,88,16,15000,11.112,,,230,,,,4,,,,,,61,wg-a,,,,AAXX 05154 07335 12465 72306 10180 20160 39980 40120 50007 60047 76198 8227/ 91500=
07335,1999-07-05 16:00:00,18,1011.9,0.2,88,16,15000,14.816,,,250,,,,,,,,,,61,wg-a,,,,AAXX 05164 07335 02465 72508 10180 20160 39979 40119 50002 61000 76162 8227/ 91600 333 ////=
07335,1999-07-05 17:00:00,18,1011.8,-0.5,88,16,20000,14.816,,,220,,,0,,,,,,,21,wg-a,,,,AAXX 05174 07335 12470 72208 10180 20160 39978 40118 56005 60005 72162 8227/ 91700=
07335,1999-07-05 18:00:00,17,1011.8,-0.3,88,15,0,11.112,,,200,15.6,22.5,,,,,,,,,wg-a,,,,AAXX 05184 07335 32/// /2006 10170 20150 39977 40118 57003 91800 333 10225 20156=
07335,1999-07-06 00:00:00,15,1014.3,1,94,14,0,11.112,,,220,,,,,,,,,,,wg-a,,,,AAXX 06004 07335 32/// /2206 10150 20140 30001 40143 51010 90000=
07335,1999-07-06 04:00:00,15,1014.9,0.5,94,14,12000,3.704,,,230,,,,,,,,,,0,wg-a,,,,AAXX 06044 07335 32262 82302 10150 20140 30007 40149 53005 700// 876// 90400=
07335,1999-07-06 05:00:00,15,1015.2,0.7,94,14,12000,11.112,,,250,,,,,,,,,,0,wg-a,,,,AAXX 06054 07335 32262 72506 10150 20140 30010 40152 53007 700// 876// 90500=
07335,1999-07-06 06:00:00,15,1015.7,1.1,94,14,12000,11.112,,,260,13.9,17.9,,,,,6,,,0,wg-a,,,,AAXX 06064 07335 12362 72606 10150 20140 30015 40157 53011 60064 700// 875// 90600 333 10179 20139=
07335,1999-07-06 07:00:00,16,1016.6,1.7,94,15,12000,14.816,,,270,,,,,,,,,,0,wg-a,,,,AAXX 06074 07335 32362 72708 10160 20150 30024 40166 53017 700// 875// 90700=
07335,1999-07-06 08:00:00,17,1016.9,1.8,88,15,15000,14.816,,,260,,,,,,,,,,0,wg-a,,,,AAXX 06084 07335 32365 62608 10170 20150 30028 40169 51018 700// 85832 90800=
07335,1999-07-06 09:00:00,19,1017.3,1.7,78,15,15000,18.52,,,260,,,,,,,,,,0,wg-a,,,,AAXX 06094 07335 32565 62610 10190 20150 30032 40173 51017 700// 84832 90900=
07335,1999-07-06 10:00:00,19,1017.8,1.3,78,15,20000,11.112,,,310,,,2,,,,,,,25,wg-a,,,,AAXX 06104 07335 12370 63106 10190 20150 30037 40178 53013 60025 72586 85832 91000=
07335,1999-07-06 11:00:00,19,1018.1,1.2,73,14,20000,7.408,,,310,,,0,,,,,,,0,wg-a,,,,AAXX 06114 07335 12570 73104 10190 20140 30040 40181 51012 60005 700// 85832 91100=
07335,1999-07-06 12:00:00,22,1017.7,0.6,57,13,25000,11.112,,,300,,,,2,,,,,,3,wg-a,,,,AAXX 06124 07335 12575 53006 10220 20130 30038 40177 50006 60027 70386 84832 91200=
07335,1999-07-06 13:00:00,22,1018,0.4,60,14,25000,18.52,,,300,,,,,,,,,,0,wg-a,,,,AAXX 06134 07335 32675 53010 10220 20140 30041 40180 52004 700// 84832 91300=
07335,1999-07-06 14:00:00,22,1018.2,0.3,57,13,25000,22.224,,,310,,,,,,,,,,0,wg-a,,,,AAXX 06144 07335 32675 53112 10220 20130 30043 40182 53003 700// 84832 91400=
07335,1999-07-06 15:00:00,23,1018.7,1,53,13,25000,11.112,,,330,,,,,,,,,,0,wg-a,,,,AAXX 06154 07335 32675 73306 10230 20130 30048 40187 53010 700// 878// 91500=
07335,1999-07-06 16:00:00,22,1019,1,60,14,25000,14.816,,,340,,,,,,,,,,0,wg-a,,,,AAXX 06164 07335 32675 /3408 10220 20140 30051 40190 53010 700// 86832 91600=
07335,1999-07-06 17:00:00,23,1019.3,1.1,53,13,25000,18.52,,,310,,,,,,,,,,0,wg-a,,,,AAXX 06174 07335 32675 /3110 10230 20130 30054 40193 51011 700// 86832 91700=
07335,1999-07-06 18:00:00,22,1019.9,1.1,60,14,0,11.112,,,320,15.2,23.8,,,,,,,,,wg-a,,,,AAXX 06184 07335 32/// /3206 10220 20140 30059 40199 53011 91800 333 10238 20152=
07335,1999-07-07 00:00:00,15,1023.7,0.9,94,14,0,7.408,,,310,,,,,,,,,,,wg-a,,,,AAXX 07004 07335 32/// /3104 10150 20140 30093 40237 51009 90000=
07335,1999-07-07 04:00:00,15,1025.2,1.1,88,13,15000,11.112,,,330,,,,,,,,,,0,wg-a,,,,AAXX 07044 07335 32765 73306 10150 20130 30108 40252 53011 700// 85502 90400=
07335,1999-07-07 05:00:00,14,1025.6,1.2,94,13,15000,7.408,,,330,,,,,,,,,,0,wg-a,,,,AAXX 07054 07335 32765 73304 10140 20130 30112 40256 53012 700// 82532 90500=
07335,1999-07-07 06:00:00,15,1026.1,1.4,94,14,15000,7.408,,,360,14,22.1,,,,,2,,,0,wg-a,,,,AAXX 07064 07335 12765 73604 10150 20140 30117 40261 52014 60024 700// 81532 90600 333 10221 20140=
07335,1999-07-07 07:00:00,16,1026.4,1.3,88,14,15000,11.112,,,350,,,,,,,,,,0,wg-a,,,,AAXX 07074 07335 32765 73506 10160 20140 30121 40264 52013 700// 81532 90700=
07335,1999-07-07 08:00:00,18,1026.5,1.1,73,13,20000,7.408,,,10,,,,,,,,,,0,wg-a,,,,AAXX 07084 07335 32770 70104 10180 20130 30123 40265 51011 700// 85532 90800=
07335,1999-07-07 09:00:00,20,1026.6,0.7,60,12,25000,11.112,,,340,,,,,,,,,,0,wg-a,,,,AAXX 07094 07335 32575 73406 10200 20120 30124 40266 51007 700// 81132 90900=
07335,1999-07-07 10:00:00,20,1026.8,0.6,64,13,25000,14.816,,,350,,,,,,,,,,0,wg-a,,,,AAXX 07104 07335 32575 73508 10200 20130 30127 40268 53006 700// 81136 91000=
07335,1999-07-07 11:00:00,21,1026.5,0.1,60,13,25000,11.112,,,320,,,,,,,,,,0,wg-a,,,,AAXX 07114 07335 32575 73206 10210 20130 30124 40265 50001 700// 86802 91100=
07335,1999-07-07 12:00:00,21,1026.4,-0.1,64,14,25000,14.816,,,310,,,,,,,,,,0,wg-a,,,,AAXX 07124 07335 32575 83108 10210 20140 30123 40264 58001 700// 86802 91200=
07335,1999-07-07 13:00:00,22,1026.3,-0.4,60,14,25000,14.816,,,360,,,,,,,,,,0,wg-a,,,,AAXX 07134 07335 32675 73608 10220 20140 30123 40263 56004 700// 85802 91300=
07335,1999-07-07 14:00:00,24,1025.9,-0.5,50,13,25000,18.52,,,340,,,,,,,,,,0,wg-a,,,,AAXX 07144 07335 32675 73410 10240 20130 30119 40259 58005 700// 85802 91400=
07335,1999-07-07 16:00:00,23,1025.9,-0.4,53,13,25000,22.224,,,340,,,,,,,,,,0,wg-a,,,,AAXX 07164 07335 32675 43412 10230 20130 30119 40259 56004 700// 82102 91600=
07335,1999-07-07 17:00:00,23,1026,0.1,53,13,25000,18.52,,,360,,,,,,,,,,0,wg-a,,,,AAXX 07174 07335 32675 43610 10230 20130 30120 40260 53001 700// 83102 91700=
07335,1999-07-07 18:00:00,22,1026.5,0.5,53,12,0,22.224,,,360,14.8,24.1,,,,,,,,,wg-a,,,,AAXX 07184 07335 32/// /3612 10220 20120 30124 40265 53005 91800 333 10241 20148=
07335,1999-07-08 00:00:00,13,1028.1,0.2,94,12,0,7.408,,,360,,,,,,,,,,,wg-a,,,,AAXX 08004 07335 32/// /3604 10130 20120 30136 40281 50002 90000=
07335,1999-07-08 04:00:00,12,1028,-0.3,94,11,15000,7.408,,,350,,,,,,,,,,0,wg-a,,,,AAXX 08044 07335 32/65 43504 10120 20110 30134 40280 55003 700// 80002 90400=
07335,1999-07-08 05:00:00,11,1028.5,0.5,100,11,15000,3.704,,,340,,,,,,,,,,0,wg-a,,,,AAXX 08054 07335 32/65 73402 10110 20110 30139 40285 53005 700// 80002 90500=
07335,1999-07-08 06:00:00,14,1028.4,0.7,94,13,15000,7.408,,,10,10.7,21.5,,,,,,,,0,wg-a,,,,AAXX 08064 07335 12/65 70104 10140 20130 30139 40284 51007 60004 700// 80002 90600 333 10215 20107=
07335,1999-07-08 07:00:00,16,1028.5,0.7,88,14,12000,18.52,,,40,,,,,,,,,,0,wg-a,,,,AAXX 08074 07335 32662 70410 10160 20140 30141 40285 51007 700// 81502 90700=
07335,1999-07-08 08:00:00,18,1028.4,0.2,77,14,15000,14.816,,,50,,,,,,,,,,0,wg-a,,,,AAXX 08084 07335 32/65 70508 10180 20140 30141 40284 52002 700// 80002 90800=
07335,1999-07-08 09:00:00,20,1028.2,0.1,73,15,15000,14.816,,,50,,,,,,,,,,0,wg-a,,,,AAXX 08094 07335 32565 70508 10200 20150 30140 40282 50001 700// 81102 90900=
07335,1999-07-08 10:00:00,21,1027.9,-0.3,69,15,18000,11.112,,,80,,,,,,,,,,0,wg-a,,,,AAXX 08104 07335 32568 70806 10210 20150 30138 40279 58003 700// 83202 91000=
07335,1999-07-08 11:00:00,22,1027.5,-0.6,60,14,22000,14.816,,,50,,,,,,,,,,0,wg-a,,,,AAXX 08114 07335 32572 70508 10220 20140 30135 40275 58006 700// 82202 91100=
07335,1999-07-08 12:00:00,24,1026.8,-1.2,57,15,25000,14.816,,,60,,,,,,,,,,0,wg-a,,,,AAXX 08124 07335 32675 /0608 10240 20150 30128 40268 58012 700// 83202 91200=
07335,1999-07-08 13:00:00,24,1026.4,-1.3,54,14,25000,22.224,,,40,,,,,,,,,,0,wg-a,,,,AAXX 08134 07335 32675 60412 10240 20140 30125 40264 57013 700// 84202 91300=
07335,1999-07-08 16:00:00,26,1024.9,-1.4,45,13,25000,22.224,,40.744,50,,,,,,,,,,0,wg-a,,,,AAXX 08164 07335 32775 40512 10260 20130 30111 40249 58014 700// 83202 91600 333 91022=
07335,1999-07-08 17:00:00,27,1024.7,-1.3,42,13,25000,25.928,,,40,,,,,,,,,,0,wg-a,,,,AAXX 08174 07335 32775 30414 10270 20130 30109 40247 56013 700// 82202 91700=
07335,1999-07-08 18:00:00,26,1024.4,-1.3,42,12,0,18.52,,,70,13.7,26.8,,,,,,,,,wg-a,,,,AAXX 08184 07335 32/// /0710 10260 20120 30105 40244 56013 91800 333 10268 20137=
07335,1999-07-09 00:00:00,17,1024.7,-0.6,77,13,0,11.112,,,20,,,,,,,,,,,wg-a,,,,AAXX 09004 07335 32/// /0206 10170 20130 30104 40247 58006 90000=
07335,1999-07-09 04:00:00,14,1023.5,-0.8,88,12,10000,11.112,,,30,,,,,,,,,,0,wg-a,,,,AAXX 09044 07335 32/60 00306 10140 20120 30091 40235 57008 700// 80000 90400=
07335,1999-07-09 05:00:00,15,1023.5,-0.5,88,13,10000,14.816,,,40,,,,,,,,,,0,wg-a,,,,AAXX 09054 07335 32/60 00408 10150 20130 30092 40235 55005 700// 80000 90500=
07335,1999-07-09 06:00:00,17,1023.6,-0,82,14,8000,14.816,,,50,13.9,25.7,,,,,,,,0,wg-a,,,,AAXX 09064 07335 32/58 00508 10170 20140 30093 40236 55000 700// 80000 90600 333 10257 20139=
07335,1999-07-09 07:00:00,18,1023.3,0,77,14,10000,18.52,,,50,,,,,,,,,,0,wg-a,,,,AAXX 09074 07335 32/60 00510 10180 20140 30091 40233 50000 700// 80000 90700=
07335,1999-07-09 08:00:00,20,1023.1,-0.2,68,14,12000,22.224,,,50,,,,,,,,,,0,wg-a,,,,AAXX 09084 07335 32/62 00512 10200 20140 30090 40231 58002 700// 80000 90800=
07335,1999-07-09 09:00:00,22,1022.6,-0.7,60,14,20000,22.224,,,50,,,,,,,,,,0,wg-a,,,,AAXX 09094 07335 32/70 00512 10220 20140 30086 40226 58007 700// 80000 90900=
07335,1999-07-09 10:00:00,24,1022.1,-0.9,50,13,25000,25.928,,,60,,,,,,,,,,0,wg-a,,,,AAXX 09104 07335 32675 /0614 10240 20130 30082 40221 58009 700// 81100 91000=
07335,1999-07-09 11:00:00,25,1021.5,-1.3,44,12,500,25.928,,,80,,,,,,,,,,0,wg-a,,,,AAXX 09114 07335 32600 /0814 10250 20120 30077 40215 58013 700// 81100 91100=
07335,1999-07-09 12:00:00,26,1020.9,-1.5,45,13,500,25.928,,,70,,,,,,,,,,0,wg-a,,,,AAXX 09124 07335 32700 20714 10260 20130 30071 40209 58015 700// 82100 91200=
07335,1999-07-09 13:00:00,27,1020.3,-1.7,39,12,500,25.928,,,60,,,,,,,,,,0,wg-a,,,,AAXX 09134 07335 32700 20614 10270 20120 30065 40203 58017 700// 82100 91300=
07335,1999-07-09 14:00:00,27,1020,-1.4,34,10,500,29.632,,,60,,,,,,,,,,0,wg-a,,,,AAXX 09144 07335 32700 30616 10270 20100 30063 40200 56014 700// 83200 91400=
07335,1999-07-09 15:00:00,27,1019.3,-1.5,37,11,500,18.52,,,70,,,,,,,,,,0,wg-a,,,,AAXX 09154 07335 32700 30710 10270 20110 30056 40193 58015 700// 83200 91500=
07335,1999-07-09 16:00:00,27,1019.1,-1.1,39,12,500,25.928,,,50,,,,,,,,,,0,wg-a,,,,AAXX 09164 07335 32700 40514 10270 20120 30054 40191 57011 700// 84200 91600=
07335,1999-07-09 17:00:00,27,1019,-1,34,10,500,22.224,,,70,,,,,,,,,,0,wg-a,,,,AAXX 09174 07335 32700 30712 10270 20100 30053 40190 56010 700// 83200 91700=
07335,1999-07-09 18:00:00,27,1018.8,-0.6,34,10,0,22.224,,,60,16.5,27.7,,,,,,,,,wg-a,,,,AAXX 09184 07335 32/// /0612 10270 20100 30050 40188 58006 91800 333 10277 20165=
07335,1999-07-10 00:00:00,19,1018.8,-0.9,68,13,0,11.112,,,40,,,,,,,,,,,wg-a,,,,AAXX 10004 07335 32/// /0406 10190 20130 30047 40188 58009 90000=
07335,1999-07-10 04:00:00,13,1018.4,-0.3,88,11,10000,11.112,,,330,,,,,,,,,,0,wg-a,,,,AAXX 10044 07335 32/60 03306 10130 20110 30040 40184 55003 700// 80000 90400=
07335,1999-07-10 05:00:00,15,1018.4,0.1,88,13,15000,14.816,,,20,,,,,,,,,,0,wg-a,,,,AAXX 10054 07335 32/65 00208 10150 20130 30041 40184 53001 700// 80000 90500=
07335,1999-07-10 06:00:00,17,1018.4,0.3,82,14,20000,11.112,,,350,12.6,26.4,,,,,,,,0,wg-a,,,,AAXX 10064 07335 32/70 03506 10170 20140 30042 40184 52003 700// 80000 90600 333 10264 20126=
07335,1999-07-10 07:00:00,19,1018.3,0.2,68,13,25000,18.52,,,40,,,,,,,,,,0,wg-a,,,,AAXX 10074 07335 32/75 00410 10190 20130 30042 40183 51002 700// 80000 90700=
07335,1999-07-10 08:00:00,21,1018,-0.1,64,14,25000,18.52,,,30,,,,,,,,,,0,wg-a,,,,AAXX 10084 07335 32/75 10310 10210 20140 30040 40180 58001 700// 80001 90800=
07335,1999-07-10 09:00:00,23,1017.4,-0.7,53,13,500,25.928,,,40,,,,,,,,,,0,wg-a,,,,AAXX 10094 07335 32600 /0414 10230 20130 30035 40174 58007 700// 81101 90900=
07335,1999-07-10 10:00:00,24,1016.9,-1.1,54,14,500,22.224,,,50,,,,,,,,,,0,wg-a,,,,AAXX 10104 07335 32600 /0512 10240 20140 30031 40169 58011 700// 81101 91000=
07335,1999-07-10 11:00:00,25,1016.4,-1.4,47,13,500,25.928,,,30,,,,,,,,,,0,wg-a,,,,AAXX 10114 07335 32600 20314 10250 20130 30026 40164 57014 700// 82201 91100=
07335,1999-07-10 12:00:00,26,1015.8,-1.4,45,13,500,25.928,,,20,,,,,,,,,,0,wg-a,,,,AAXX 10124 07335 32700 20214 10260 20130 30021 40158 58014 700// 82201 91200=
07335,1999-07-10 13:00:00,26,1015.6,-1.2,51,15,500,25.928,,,40,,,,,,,,,,0,wg-a,,,,AAXX 10134 07335 32700 70414 10260 20150 30019 40156 56012 700// 874// 91300=
07335,1999-07-10 14:00:00,26,1015.3,-1,51,15,500,22.224,,,50,,,,,,,,,,0,wg-a,,,,AAXX 10144 07335 32700 70512 10260 20150 30016 40153 56010 700// 874// 91400=
07335,1999-07-10 15:00:00,26,1015,-0.8,51,15,500,25.928,,,40,,,,,,,,,,0,wg-a,,,,AAXX 10154 07335 32700 70414 10260 20150 30013 40150 58008 700// 875// 91500=
07335,1999-07-10 18:00:00,25,1015.5,0.4,54,15,0,18.52,,,40,16.6,26.5,,,,,,,,,wg-a,,,,AAXX 10184 07335 32/// /0410 10250 20150 30017 40155 53004 91800 333 10265 20166=
07335,1999-07-11 00:00:00,20,1015.5,-0.3,78,16,0,11.112,,,20,,,,,,,,,,,wg-a,,,,AAXX 11004 07335 32/// /0206 10200 20160 30015 40155 58003 90000=
07335,1999-07-11 04:00:00,19,1014.7,-0.5,94,18,15000,14.816,,,10,,,,,,,,,,0,wg-a,,,,AAXX 11044 07335 32365 80108 10190 20180 30007 40147 56005 700// 886// 90400=
07335,1999-07-11 05:00:00,19,1014.7,-0.2,94,18,8000,14.816,,,10,,,,,,,,,,0,wg-a,,,,AAXX 11054 07335 32358 80108 10190 20180 30007 40147 56002 700// 886// 90500=
07335,1999-07-11 06:00:00,19,1014.9,0.1,94,18,8000,18.52,,,10,18.7,24.8,,,,,,,,0,wg-a,,,,AAXX 11064 07335 12258 80110 10190 20180 30009 40149 53001 60004 700// 886// 90600 333 10248 20187=
07335,1999-07-11 07:00:00,19,1015.1,0.4,94,18,8000,18.52,,,10,,,,,,,,,,0,wg-a,,,,AAXX 11074 07335 32358 80110 10190 20180 30011 40151 53004 700// 886// 90700=
07335,1999-07-11 08:00:00,20,1015.1,0.4,88,18,9000,14.816,,,20,,,,,,,,,,0,wg-a,,,,AAXX 11084 07335 32159 80208 10200 20180 30011 40151 51004 700// 886// 90800=
07335,1999-07-11 09:00:00,21,1014.7,-0.1,83,18,10000,14.816,,,360,,,,,,,,,,0,wg-a,,,,AAXX 11094 07335 32460 73608 10210 20180 30008 40147 58001 700// 875// 90900=
07335,1999-07-11 10:00:00,23,1014.2,-0.7,73,18,12000,18.52,,,360,,,,,,,,,,0,wg-a,,,,AAXX 11104 07335 32462 73610 10230 20180 30004 40142 58007 700// 81802 91000=
07335,1999-07-11 11:00:00,24,1013.9,-0.9,74,19,12000,14.816,,,10,,,,,,,,,,0,wg-a,,,,AAXX 11114 07335 32562 70108 10240 20190 30002 40139 56009 700// 86802 91100=
07335,1999-07-11 12:00:00,25,1013.5,-1,65,18,15000,18.52,,,30,,,,,,,,,,0,wg-a,,,,AAXX 11124 07335 32565 70310 10250 20180 39998 40135 57010 700// 878// 91200=
07335,1999-07-11 13:00:00,24,1013.2,-0.9,78,20,4000,25.928,,,40,,,,,,,,,,80,wg-a,,,,AAXX 11134 07335 02440 80414 10240 20200 39995 40132 58009 61000 78086 879// 91300 333 ////=
07335,1999-07-11 14:00:00,24,1012.8,-1.1,83,21,10000,7.408,,,340,,,1,,,,,,,25,wg-a,,,,AAXX 11144 07335 12260 73404 10240 20210 39991 40128 57011 60015 72586 879// 91400=
07335,1999-07-11 15:00:00,26,1012.2,-1.2,74,21,15000,7.408,,,10,,,,1,,,,,,25,wg-a,,,,AAXX 11154 07335 12265 60104 10260 20210 39986 40122 58012 60017 72586 86800 91500=
07335,1999-07-11 18:00:00,27,1011.8,-0.4,54,17,0,11.112,,,60,19,28,,,,,,,,,wg-a,,,,AAXX 11184 07335 32/// /0606 10270 20170 39982 40118 56004 91800 333 10280 20190=
07335,1999-07-12 00:00:00,20,1013.1,-0.1,88,18,0,7.408,,,360,,,,,,,,,,,wg-a,,,,AAXX 12004 07335 32/// /3604 10200 20180 39992 40131 58001 90000=
07335,1999-07-12 04:00:00,15,1012.4,-0.4,100,15,4500,3.704,,,290,,,,,,,,,,40,wg-a,,,,AAXX 12044 07335 32/45 /2902 10150 20150 39982 40124 55004 740// 80002 90400=
07335,1999-07-12 05:00:00,16,1012.5,0.1,100,16,3500,3.704,,,320,,,,,,,,,,10,wg-a,,,,AAXX 12054 07335 32/35 /3202 10160 20160 39984 40125 53001 71000 81031 90500=
07335,1999-07-12 06:00:00,18,1012.2,0.1,100,18,500,7.408,,,10,15,27.4,,,,,1,,,0,wg-a,,,,AAXX 12064 07335 12/00 /0104 10180 20180 39982 40122 50001 60014 700// 81031 90600 333 10274 20150=
07335,1999-07-12 07:00:00,20,1012.2,0.1,94,19,7000,7.408,,,20,,,,,,,,,,,wg-a,,,,AAXX 12074 07335 32/57 /0204 10200 20190 39983 40122 51001 90700=
07335,1999-07-12 08:00:00,22,1012.1,-0.1,83,19,14000,7.408,,,20,,,,,,,,,,0,wg-a,,,,AAXX 12084 07335 32464 /0204 10220 20190 39983 40121 56001 700// 81131 90800=
07335,1999-07-12 09:00:00,24,1011.9,0,78,20,19000,11.112,,,20,,,,,,,,,,0,wg-a,,,,AAXX 12094 07335 32569 /0206 10240 20200 39982 40119 50000 700// 81131 90900=
07335,1999-07-12 10:00:00,26,1011.5,-0.4,65,19,26000,11.112,,,50,,,,,,,,,,0,wg-a,,,,AAXX 12104 07335 32576 30506 10260 20190 39979 40115 58004 700// 83201 91000=
07335,1999-07-12 11:00:00,27,1011.3,-0.6,58,18,26000,11.112,,,60,,,,,,,,,,0,wg-a,,,,AAXX 12114 07335 32676 30606 10270 20180 39977 40113 58006 700// 83201 91100=
07335,1999-07-12 12:00:00,27,1011.1,-0.7,54,17,500,7.408,,,60,,,,,,,,,,0,wg-a,,,,AAXX 12124 07335 32600 40604 10270 20170 39975 40111 56007 700// 84201 91200=
07335,1999-07-12 13:00:00,29,1010.2,-1.2,52,18,500,11.112,,,90,,,,,,,,,,0,wg-a,,,,AAXX 12134 07335 32600 50906 10290 20180 39967 40102 58012 700// 82231 91300=
07335,1999-07-12 14:00:00,29,1009.7,-1.5,48,17,500,11.112,,,60,,,,,,,,,,0,wg-a,,,,AAXX 12144 07335 32600 60606 10290 20170 39962 40097 58015 700// 84931 91400=
07335,1999-07-12 15:00:00,28,1009.3,-1.7,51,17,500,14.816,,,40,,,,,,,,,,0,wg-a,,,,AAXX 12154 07335 32600 60408 10280 20170 39958 40093 56017 700// 83931 91500=
07335,1999-07-12 16:00:00,27,1008.7,-1.5,58,18,25000,11.112,,,60,,,4,,,,,,,25,wg-a,,,,AAXX 12164 07335 12675 /0606 10270 20180 39952 40087 58015 60045 72522 83931 91600=
07335,1999-07-12 17:00:00,24,1009.3,-0.6,74,19,2500,11.112,,,80,,,2,,,,,,,81,wg-a,,,,AAXX 12174 07335 12625 70806 10240 20190 39956 40093 55006 60025 78186 879// 91700=
07335,1999-07-12 18:00:00,19,1010.7,1,94,18,0,11.112,,,310,18.3,29.3,,,,,,,,,wg-a,,,,AAXX 12184 07335 32/// /3106 10190 20180 39968 40107 53010 91800 333 10293 20183=
07335,1999-07-13 00:00:00,17,1011,-0.4,100,17,300,3.704,,,240,,,,,,,,,,,wg-a,,,,AAXX 13004 07335 32/03 /2402 10170 20170 39970 40110 56004 90000=
07335,1999-07-13 04:00:00,18,1009.8,-1,100,18,300,14.816,,,180,,,,,,,,,,45,wg-a,,,,AAXX 13044 07335 32/03 91808 10180 20180 39958 40098 57010 74542 89/// 90400=
07335,1999-07-13 05:00:00,18,1009.9,-0.6,100,18,300,11.112,,,220,,,,,,,,,,45,wg-a,,,,AAXX 13054 07335 32/03 92206 10180 20180 39959 40099 55006 74544 89/// 90500=
07335,1999-07-13 06:00:00,18,1010,-0.1,100,18,1200,11.112,,,200,16.9,19.2,,,,,52,,,10,wg-a,,,,AAXX 13064 07335 12112 82006 10180 20180 39960 40100 55001 60524 71042 886// 90600 333 10192 20169=
07335,1999-07-13 07:00:00,19,1010.5,0.7,94,18,2500,7.408,,,260,,,,,,,,,,10,wg-a,,,,AAXX 13074 07335 32125 82604 10190 20180 39965 40105 53007 71022 886// 90700=
07335,1999-07-13 08:00:00,20,1010.3,0.5,94,19,8000,11.112,,,260,,,,,,,,,,0,wg-a,,,,AAXX 13084 07335 32258 72606 10200 20190 39964 40103 50005 700// 876// 90800=
07335,1999-07-13 09:00:00,21,1010.2,0.4,88,19,12000,11.112,,,280,,,,,,,,,,0,wg-a,,,,AAXX 13094 07335 32462 52806 10210 20190 39964 40102 51004 700// 8423/ 90900=
07335,1999-07-13 10:00:00,23,1010.1,-0.1,78,19,20000,14.816,,,300,,,,,,,,,,0,wg-a,,,,AAXX 13104 07335 32470 43008 10230 20190 39964 40101 56001 700// 83230 91000=
07335,1999-07-13 11:00:00,25,1010.1,-0,74,20,25000,7.408,,,320,,,,,,,,,,0,wg-a,,,,AAXX 13114 07335 32575 53204 10250 20200 39964 40101 54000 700// 84230 91100=
07335,1999-07-13 12:00:00,26,1009.5,-0.5,65,19,25000,11.112,,,340,,,,,,,,,,0,wg-a,,,,AAXX 13124 07335 32575 /3406 10260 20190 39959 40095 58005 700// 85230 91200=
07335,1999-07-13 13:00:00,25,1009.4,-0.6,69,19,25000,14.816,,,310,,,,,,,,,,0,wg-a,,,,AAXX 13134 07335 32575 /3108 10250 20190 39958 40094 58006 700// 86230 91300=
07335,1999-07-13 14:00:00,26,1009.2,-0.8,70,20,25000,11.112,,,340,,,,,,,,,,0,wg-a,,,,AAXX 13144 07335 32575 73406 10260 20200 39956 40092 56008 700// 8623/ 91400=
07335,1999-07-13 15:00:00,26,1009.2,-0.3,65,19,25000,18.52,,,340,,,,,,,,,,25,wg-a,,,,AAXX 13154 07335 32575 /3410 10260 20190 39956 40092 56003 72522 8523/ 91500=
07335,1999-07-13 16:00:00,26,1009.1,-0.3,65,19,20000,29.632,,,330,,,,,,,,,,0,wg-a,,,,AAXX 13164 07335 32570 53316 10260 20190 39955 40091 56003 700// 84230 91600=
07335,1999-07-13 17:00:00,26,1009.3,0.1,61,18,25000,25.928,,,340,,,,,,,,,,0,wg-a,,,,AAXX 13174 07335 32575 23414 10260 20180 39957 40093 53001 700// 82200 91700=
07335,1999-07-13 18:00:00,26,1009.7,0.5,54,16,0,18.52,,,340,18.1,26.9,,,,,,,,,wg-a,,,,AAXX 13184 07335 32/// /3410 10260 20160 39961 40097 53005 91800 333 10269 20181=
07335,1999-07-14 00:00:00,17,1013.8,1.9,88,15,0,7.408,,,280,,,,,,,,,,,wg-a,,,,AAXX 14004 07335 32/// /2804 10170 20150 39997 40138 51019 90000=
07335,1999-07-14 04:00:00,17,1015.3,1.2,94,16,8000,7.408,,,280,,,,,,,,,,0,wg-a,,,,AAXX 14044 07335 32458 82804 10170 20160 30012 40153 53012 700// 885// 90400=
07335,1999-07-14 05:00:00,17,1015.6,1,88,15,8000,11.112,,,280,,,,,,,,,,0,wg-a,,,,AAXX 14054 07335 32458 72806 10170 20150 30014 40156 51010 700// 875// 90500=
07335,1999-07-14 06:00:00,17,1015.8,1,88,15,12000,18.52,,,260,16.2,25.6,,,,,,,,0,wg-a,,,,AAXX 14064 07335 12462 72610 10170 20150 30017 40158 51010 60004 700// 875// 90600 333 10256 20162=
07335,1999-07-14 07:00:00,17,1016.2,0.9,88,15,15000,14.816,,,290,,,,,,,,,,0,wg-a,,,,AAXX 14074 07335 32465 72908 10170 20150 30021 40162 53009 700// 875// 90700=
07335,1999-07-14 08:00:00,18,1016.5,1,83,15,20000,18.52,,,250,,,,,,,,,,0,wg-a,,,,AAXX 14084 07335 32470 72510 10180 20150 30024 40165 52010 700// 875// 90800=
07335,1999-07-14 09:00:00,19,1016.5,0.7,78,15,500,14.816,,,250,,,,,,,,,,0,wg-a,,,,AAXX 14094 07335 32400 72508 10190 20150 30024 40165 51007 700// 878// 90900=
07335,1999-07-14 10:00:00,20,1016.4,0.3,68,14,500,18.52,,,260,,,,,,,,,,0,wg-a,,,,AAXX 14104 07335 32500 /2610 10200 20140 30024 40164 51003 700// 86800 91000=
07335,1999-07-14 12:00:00,23,1016.1,-0.2,53,13,500,25.928,,,260,,,,,,,,,,0,wg-a,,,,AAXX 14124 07335 32600 /2614 10230 20130 30022 40161 58002 700// 85800 91200=
07335,1999-07-14 15:00:00,23,1016.1,-0,50,12,500,31.484,,,260,,,,,,,,,,0,wg-a,,,,AAXX 14154 07335 32600 42617 10230 20120 30022 40161 55000 700// 84200 91500=
07335,1999-07-14 18:00:00,20,1016.5,0.3,60,12,0,25.928,,,250,16.8,23.9,,,,,,,,,wg-a,,,,AAXX 14184 07335 32/// /2514 10200 20120 30025 40165 53003 91800 333 10239 20168=
07335,1999-07-15 00:00:00,14,1018.2,0.2,88,12,0,11.112,,,240,,,,,,,,,,,wg-a,,,,AAXX 15004 07335 32/// /2406 10140 20120 30039 40182 50002 90000=
07335,1999-07-15 06:00:00,16,1017.8,0.1,88,14,20000,11.112,,,230,13.6,20.4,,,,,,,,0,wg-a,,,,AAXX 15064 07335 12670 72306 10160 20140 30036 40178 53001 60004 700// 875// 90600 333 10204 20136=
07335,1999-07-15 09:00:00,18,1018,0.3,83,15,20000,14.816,,,230,,,,,,,,,,0,wg-a,,,,AAXX 15094 07335 32270 82308 10180 20150 30039 40180 53003 700// 878// 90900=
07335,1999-07-15 12:00:00,18,1018.2,0.2,94,17,500,18.52,,,230,,,,0,,,,,,51,wg-a,,,,AAXX 15124 07335 12100 82310 10180 20170 30041 40182 53002 60007 75165 878// 91200=
07335,1999-07-15 15:00:00,21,1017.7,-0.4,83,18,25000,14.816,,,270,,,,0,,,,,,21,wg-a,,,,AAXX 15154 07335 12275 72708 10210 20180 30037 40177 56004 60007 72165 878// 91500=
07335,1999-07-15 18:00:00,23,1017.4,-0.2,65,16,0,18.52,,,260,16,23.3,,,,,,,,,wg-a,,,,AAXX 15184 07335 32/// /2610 10230 20160 30035 40174 55002 91800 333 10233 20160=
07335,1999-07-16 00:00:00,14,1020,0.8,94,13,0,7.408,,,250,,,,,,,,,,,wg-a,,,,AAXX 16004 07335 32/// /2504 10140 20130 30057 40200 52008 90000=
07335,1999-07-16 06:00:00,14,1021.1,0.8,88,12,25000,11.112,,,360,11.9,22.8,,,,,1,,,0,wg-a,,,,AAXX 16064 07335 12/75 13606 10140 20120 30067 40211 53008 60014 700// 81031 90600 333 10228 20119=
07335,1999-07-16 09:00:00,20,1021.3,0.5,60,12,500,7.408,,,70,,,,,,,,,,0,wg-a,,,,AAXX 16094 07335 32/00 10704 10200 20120 30072 40213 51005 700// 80001 90900=
07335,1999-07-16 12:00:00,24,1021.1,0,47,12,500,3.704,,,70,,,,,,,,,,0,wg-a,,,,AAXX 16124 07335 32600 /0702 10240 20120 30072 40211 50000 700// 81201 91200=
07335,1999-07-16 15:00:00,25,1019.7,-1.3,50,14,500,7.408,,,100,,,,0,,,,,,0,wg-a,,,,AAXX 16154 07335 12700 11004 10250 20140 30059 40197 58013 60007 700// 81101 91500=
07335,1999-07-16 18:00:00,25,1018.8,-0.9,41,11,0,11.112,,,40,13.5,25.6,,,,,,,,,wg-a,,,,AAXX 16184 07335 32/// /0406 10250 20110 30050 40188 57009 91800 333 10256 20135=
07335,1999-07-17 00:00:00,15,1019.2,-0.1,88,13,0,3.704,,,40,,,,,,,,,,,wg-a,,,,AAXX 17004 07335 32/// /0402 10150 20130 30049 40192 58001 90000=
07335,1999-07-17 06:00:00,16,1017.4,-0.3,88,14,20000,7.408,,,10,11.8,25.4,,,,,,,,0,wg-a,,,,AAXX 17064 07335 32/70 00104 10160 20140 30032 40174 56003 700// 80000 90600 333 10254 20118=
07335,1999-07-17 09:00:00,24,1016.6,-0.4,54,14,25000,11.112,,,50,,,,,,,,,,0,wg-a,,,,AAXX 17094 07335 32/75 10506 10240 20140 30028 40166 58004 700// 80001 90900=
07335,1999-07-17 12:00:00,28,1015.8,-0.7,37,12,500,11.112,,,90,,,,,,,,,,0,wg-a,,,,AAXX 17124 07335 32/00 10906 10280 20120 30021 40158 56007 700// 80002 91200=
07335,1999-07-17 15:00:00,29,1014.9,-0.8,35,12,500,11.112,,,20,,,,,,,,,,0,wg-a,,,,AAXX 17154 07335 32/00 10206 10290 20120 30013 40149 57008 700// 80002 91500=
07335,1999-07-17 18:00:00,29,1014.1,-0.8,37,13,0,7.408,,,20,15.5,29.8,,,,,,,,,wg-a,,,,AAXX 17184 07335 32/// /0204 10290 20130 30005 40141 56008 91800 333 10298 20155=
07335,1999-07-18 00:00:00,19,1015.3,0,78,15,0,3.704,,,310,,,,,,,,,,,wg-a,,,,AAXX 18004 07335 32/// /3102 10190 20150 30013 40153 50000 90000=
07335,1999-07-18 06:00:00,16,1014.7,0.5,94,15,20000,0,,,0,15,28.5,,,,,,,,0,wg-a,,,,AAXX 18064 07335 12770 40000 10160 20150 30006 40147 51005 60004 700// 83531 90600 333 10285 20150=
07335,1999-07-18 12:00:00,25,1014.9,0.6,57,16,28000,18.52,,,230,,,,,,,,,,0,wg-a,,,,AAXX 18124 07335 32678 72310 10250 20160 30012 40149 53006 700// 879// 91200=
07335,1999-07-18 15:00:00,25,1014,-0.9,69,19,25000,11.112,,,210,,,,5,,,,,,3,wg-a,,,,AAXX 18154 07335 12775 72106 10250 20190 30003 40140 58009 60057 70386 875// 91500=
07335,1999-07-18 18:00:00,24,1013.5,-0.6,69,18,0,11.112,,,290,16.4,27,,,,,,,,,wg-a,,,,AAXX 18184 07335 32/// /2906 10240 20180 39997 40135 56006 91800 333 10270 20164=
07335,1999-07-19 00:00:00,19,1014.8,0.1,83,16,0,18.52,,,260,,,,,,,,,,,wg-a,,,,AAXX 19004 07335 32/// /2610 10190 20160 30008 40148 50001 90000=
07335,1999-07-19 06:00:00,17,1016.4,1,82,14,20000,11.112,,,270,16.7,23.9,,,,,6,,,0,wg-a,,,,AAXX 19064 07335 12770 72706 10170 20140 30022 40164 53010 60064 700// 81531 90600 333 10239 20167=
07335,1999-07-19 09:00:00,20,1016.4,0.2,64,13,500,18.52,,,260,,,,,,,,,,0,wg-a,,,,AAXX 19094 07335 32500 /2610 10200 20130 30024 40164 50002 700// 85200 90900=
07335,1999-07-19 12:00:00,23,1016.5,0.2,53,13,500,14.816,,,240,,,,,,,,,,0,wg-a,,,,AAXX 19124 07335 32600 22408 10230 20130 30026 40165 50002 700// 82230 91200=
07335,1999-07-19 15:00:00,25,1015.4,-1,50,14,500,14.816,,,270,,,,,,,,,,0,wg-a,,,,AAXX 19154 07335 32600 72708 10250 20140 30016 40154 58010 700// 81232 91500=
07335,1999-07-19 18:00:00,24,1015,-0.4,54,14,0,18.52,,,270,16.6,25.7,,,,,,,,,wg-a,,,,AAXX 19184 07335 32/// /2710 10240 20140 30012 40150 55004 91800 333 10257 20166=
07335,1999-07-20 00:00:00,15,1016.7,0.1,94,14,0,7.408,,,210,,,,,,,,,,,wg-a,,,,AAXX 20004 07335 32/// /2104 10150 20140 30025 40167 50001 90000=
07335,1999-07-20 06:00:00,16,1016.6,0.2,94,15,18000,11.112,,,200,13.6,23.9,,,,,,,,0,wg-a,,,,AAXX 20064 07335 12568 22006 10160 20150 30024 40166 53002 60004 700// 82500 90600 333 10239 20136=
07335,1999-07-20 09:00:00,21,1017.1,0.7,78,17,24000,25.928,,,230,,,,,,,,,,0,wg-a,,,,AAXX 20094 07335 32474 72314 10210 20170 30031 40171 53007 700// 875// 90900=
07335,1999-07-20 12:00:00,23,1016.6,-0.3,73,18,6000,25.928,,,230,,,,,,,,,,60,wg-a,,,,AAXX 20124 07335 02556 72314 10230 20180 30028 40166 58003 61000 76061 875// 91200 333 ////=
07335,1999-07-20 15:00:00,22,1016.9,0.2,78,18,500,22.224,,,250,,,,1,,,,,,2,wg-a,,,,AAXX 20154 07335 12400 72512 10220 20180 30030 40169 51002 60017 70286 878// 91500=
07335,1999-07-20 18:00:00,21,1017,0.1,83,18,0,22.224,,,250,16.1,23.8,,,,,,,,,wg-a,,,,AAXX 20184 07335 32/// /2512 10210 20180 30031 40170 53001 91800 333 10238 20161=
07335,1999-07-21 00:00:00,18,1018.3,0,94,17,0,14.816,,,220,,,,,,,,,,,wg-a,,,,AAXX 21004 07335 32/// /2208 10180 20170 30042 40183 50000 90000=
07335,1999-07-21 06:00:00,17,1019.6,1.5,94,16,23000,11.112,,,290,16,21.1,,0,,,2,,,1,wg-a,,,,AAXX 21064 07335 02473 72906 10170 20160 30054 40196 52015 60024 70162 878// 90600 333 10211 20160 60007=
07335,1999-07-21 09:00:00,21,1020.4,1,64,14,25000,14.816,,,300,,,,,,,,,,0,wg-a,,,,AAXX 21094 07335 32575 /3008 10210 20140 30064 40204 51010 700// 86800 90900=
07335,1999-07-21 12:00:00,22,1020.7,0.3,57,13,25000,18.52,,,300,,,,,,,,,,0,wg-a,,,,AAXX 21124 07335 32675 63010 10220 20130 30067 40207 50003 700// 86800 91200=
07335,1999-07-21 15:00:00,23,1020.3,-0.3,53,13,29000,18.52,,,290,,,,,,,,,,0,wg-a,,,,AAXX 21154 07335 32679 52910 10230 20130 30064 40203 58003 700// 85800 91500=
07335,1999-07-21 18:00:00,22,1019.8,-0.6,53,12,0,14.816,,,290,17.3,23.8,,,,,,,,,wg-a,,,,AAXX 21184 07335 32/// /2908 10220 20120 30058 40198 57006 91800 333 10238 20173=
07335,1999-07-22 00:00:00,15,1021.3,0.5,77,11,0,11.112,,,320,,,,,,,,,,,wg-a,,,,AAXX 22004 07335 32/// /3206 10150 20110 30070 40213 50005 90000=
07335,1999-07-22 06:00:00,14,1022.4,0.6,82,11,25000,7.408,,,300,12.2,22.3,,,,,,,,0,wg-a,,,,AAXX 22064 07335 12775 73004 10140 20110 30080 40224 52006 60004 700// 875// 90600 333 10223 20122=
07335,1999-07-22 09:00:00,18,1022.8,0.6,49,7,500,14.816,,,310,,,,,,,,,,0,wg-a,,,,AAXX 22094 07335 32600 73108 10180 20070 30086 40228 52006 700// 878// 90900=
07335,1999-07-22 12:00:00,20,1022.8,0.1,43,7,500,18.52,,,320,,,,,,,,,,0,wg-a,,,,AAXX 22124 07335 32600 73210 10200 20070 30087 40228 50001 700// 878// 91200=
07335,1999-07-22 15:00:00,19,1022.8,0,56,10,500,18.52,,,340,,,,,,,,,,0,wg-a,,,,AAXX 22154 07335 32700 73410 10190 20100 30087 40228 50000 700// 878// 91500=
07335,1999-07-22 18:00:00,19,1022.8,-0.1,56,10,0,22.224,,,10,13.8,20,,,,,,,,,wg-a,,,,AAXX 22184 07335 32/// /0112 10190 20100 30086 40228 58001 91800 333 10200 20138=
07335,1999-07-23 00:00:00,11,1025,0.2,87,9,0,3.704,,,330,,,,,,,,,,,wg-a,,,,AAXX 23004 07335 32/// /3302 10110 20090 30104 40250 51002 90000=
07335,1999-07-23 06:00:00,12,1025.2,0.1,94,11,25000,7.408,,,360,8.8,18.5,,,,,,,,0,wg-a,,,,AAXX 23064 07335 12/75 13604 10120 20110 30107 40252 53001 60004 700// 80001 90600 333 10185 20088=
07335,1999-07-23 09:00:00,18,1025.4,0.5,68,12,500,11.112,,,60,,,,,,,,,,0,wg-a,,,,AAXX 23094 07335 32500 /0606 10180 20120 30112 40254 51005 700// 86201 90900=
07335,1999-07-23 12:00:00,20,1025.4,0,53,10,500,14.816,,,40,,,,,,,,,,0,wg-a,,,,AAXX 23124 07335 32600 70408 10200 20100 30112 40254 50000 700// 878// 91200=
07335,1999-07-23 15:00:00,21,1024.4,-0.9,46,9,500,18.52,,,60,,,,,,,,,,0,wg-a,,,,AAXX 23154 07335 32600 70610 10210 20090 30103 40244 58009 700// 878// 91500=
07335,1999-07-23 18:00:00,21,1023.7,-0.7,46,9,0,14.816,,,70,11.9,21.5,,,,,,,,,wg-a,,,,AAXX 23184 07335 32/// /0708 10210 20090 30096 40237 58007 91800 333 10215 20119=
07335,1999-07-24 00:00:00,11,1024.1,-0.3,87,9,0,3.704,,,350,,,,,,,,,,,wg-a,,,,AAXX 24004 07335 32/// /3502 10110 20090 30095 40241 58003 90000=
07335,1999-07-24 06:00:00,13,1023,-0.1,82,10,15000,14.816,,,50,8.2,20.4,,,,,,,,0,wg-a,,,,AAXX 24064 07335 32/65 00508 10130 20100 30086 40230 55001 700// 80000 90600 333 10204 20082=
07335,1999-07-24 09:00:00,19,1022.6,-0.2,49,8,18000,29.632,,,80,,,,,,,,,,0,wg-a,,,,AAXX 24094 07335 32/68 00816 10190 20080 30084 40226 58002 700// 80000 90900=
07335,1999-07-24 12:00:00,23,1020.1,-2.2,38,8,20000,22.224,,,90,,,,,,,,,,0,wg-a,,,,AAXX 24124 07335 32/70 00912 10230 20080 30062 40201 58022 700// 80000 91200=
07335,1999-07-24 15:00:00,26,1018.6,-1.4,32,8,20000,22.224,,,50,,,,,,,,,,0,wg-a,,,,AAXX 24154 07335 32/70 00512 10260 20080 30048 40186 57014 700// 80000 91500=
07335,1999-07-24 18:00:00,26,1017.6,-1,32,8,0,25.928,,,70,13.3,26.5,,,,,,,,,wg-a,,,,AAXX 24184 07335 32/// /0714 10260 20080 30038 40176 56010 91800 333 10265 20133=
07335,1999-07-25 00:00:00,18,1017.5,-0.7,56,9,0,7.408,,,60,,,,,,,,,,,wg-a,,,,AAXX 25004 07335 32/// /0604 10180 20090 30033 40175 58007 90000=
07335,1999-07-25 06:00:00,16,1016.3,-0.1,72,11,12000,11.112,,,80,11.5,25.6,,,,,,,,0,wg-a,,,,AAXX 25064 07335 32/62 00806 10160 20110 30021 40163 56001 700// 80000 90600 333 10256 20115=
07335,1999-07-25 09:00:00,23,1016.1,0.1,50,12,25000,14.816,,,80,,,,,,,,,,0,wg-a,,,,AAXX 25094 07335 32/75 00808 10230 20120 30022 40161 50001 700// 80000 90900=
07335,1999-07-25 12:00:00,28,1014.9,-1,32,10,500,18.52,,,80,,,,,,,,,,0,wg-a,,,,AAXX 25124 07335 32/00 00810 10280 20100 30012 40149 58010 700// 80000 91200=
07335,1999-07-25 18:00:00,30,1012.7,-0.7,24,7,0,18.52,,,70,15.8,30.6,,,,,,,,,wg-a,,,,AAXX 25184 07335 32/// /0710 10300 20070 39992 40127 56007 91800 333 10306 20158=
07335,1999-07-26 00:00:00,18,1014,-0.2,68,12,0,3.704,,,50,,,,,,,,,,,wg-a,,,,AAXX 26004 07335 32/// /0502 10180 20120 39999 40140 57002 90000=
07335,1999-07-26 06:00:00,17,1014.5,0.9,82,14,20000,11.112,,,350,14.6,29.9,,,,,,,,0,wg-a,,,,AAXX 26064 07335 12/70 23506 10170 20140 30004 40145 53009 60004 700// 80001 90600 333 10299 20146=
07335,1999-07-26 09:00:00,26,1014,-0.1,48,14,25000,18.52,,,80,,,,,,,,,,0,wg-a,,,,AAXX 26094 07335 32/75 10810 10260 20140 30003 40140 57001 700// 80001 90900=
07335,1999-07-26 12:00:00,30,1013.4,-0.4,31,11,25000,22.224,,,100,,,,,,,,,,0,wg-a,,,,AAXX 26124 07335 32/75 11012 10300 20110 39999 40134 58004 700// 80001 91200=
07335,1999-07-26 15:00:00,32,1012.3,-1,24,9,25000,25.928,,,80,,,,,,,,,,0,wg-a,,,,AAXX 26154 07335 32/75 10814 10320 20090 39989 40123 58010 700// 80002 91500=
07335,1999-07-26 18:00:00,31,1012.3,-0.1,29,11,0,18.52,,,90,16.7,32,,,,,,,,,wg-a,,,,AAXX 26184 07335 32/// /0910 10310 20110 39988 40123 55001 91800 333 10320 20167=
07335,1999-07-27 00:00:00,24,1013.6,0.7,54,14,0,14.816,,,60,,,,,,,,,,,wg-a,,,,AAXX 27004 07335 32/// /0608 10240 20140 39998 40136 53007 90000=
07335,1999-07-27 06:00:00,21,1012.9,0.1,73,16,15000,18.52,,,70,20.3,30.9,,,,,,,,0,wg-a,,,,AAXX 27064 07335 12/65 50710 10210 20160 39990 40129 53001 60004 700// 82032 90600 333 10309 20203=
07335,1999-07-27 09:00:00,25,1012.3,-0.4,57,16,15000,18.52,,,80,,,,,,,,,,0,wg-a,,,,AAXX 27094 07335 32665 /0810 10250 20160 39986 40123 58004 700// 81182 90900=
07335,1999-07-27 12:00:00,27,1011.3,-0.9,54,17,10000,18.52,,,90,,,,,,,,,,0,wg-a,,,,AAXX 27124 07335 32/60 80910 10270 20170 39977 40113 58009 700// 85022 91200=
07335,1999-07-27 13:00:00,28,1010.9,-1,48,16,8000,18.52,,,80,,,,,,,,,,0,wg-a,,,,AAXX 27134 07335 32/58 80810 10280 20160 39974 40109 56010 700// 85022 91300=
07335,1999-07-27 14:00:00,28,1011.8,0.2,48,16,10000,14.816,,,130,,,,,,,,,,0,wg-a,,,,AAXX 27144 07335 32660 81308 10280 20160 39982 40118 53002 700// 81172 91400=
07335,1999-07-27 15:00:00,27,1011.5,0.2,58,18,15000,14.816,,,210,,,,,,,,,,0,wg-a,,,,AAXX 27154 07335 32665 72108 10270 20180 39979 40115 52002 700// 81172 91500=
07335,1999-07-27 16:00:00,27,1011.6,0.6,58,18,15000,7.408,,,210,,,,,,,,,,0,wg-a,,,,AAXX 27164 07335 32665 72104 10270 20180 39980 40116 51006 700// 8199/ 91600=
07335,1999-07-27 17:00:00,23,1012.3,0.3,78,19,12000,14.816,,,220,,,,,,,,,,0,wg-a,,,,AAXX 27174 07335 32262 82208 10230 20190 39985 40123 53003 700// 8169/ 91700=
07335,1999-07-27 18:00:00,24,1012,0.4,74,19,0,14.816,,,240,20.7,28.2,,,,,,,,,wg-a,,,,AAXX 27184 07335 32/// /2408 10240 20190 39983 40120 50004 91800 333 10282 20207=
07335,1999-07-28 00:00:00,19,1014,0.2,94,18,0,11.112,,,170,,,,,,,,,,,wg-a,,,,AAXX 28004 07335 32/// /1706 10190 20180 30000 40140 50002 90000=
07335,1999-07-28 04:00:00,18,1014.2,0.5,100,18,15000,7.408,,,170,,,0,,,,,,,0,wg-a,,,,AAXX 28044 07335 12265 81704 10180 20180 30002 40142 50005 60005 700// 8559/ 90400=
07335,1999-07-28 05:00:00,18,1014.1,0.2,100,18,6000,3.704,,,50,,,,,,,,,,0,wg-a,,,,AAXX 28054 07335 32556 80502 10180 20180 30001 40141 50002 700// 85592 90500=
07335,1999-07-28 06:00:00,18,1014.4,0.1,100,18,6000,7.408,,,50,17.6,23.5,,0,,,7,,,0,wg-a,,,,AAXX 28064 07335 02556 70504 10180 20180 30004 40144 53001 60074 700// 8119/ 90600 333 10235 20176 60007=
07335,1999-07-28 07:00:00,20,1014.7,0.5,94,19,8000,3.704,,,40,,,,,,,,,,0,wg-a,,,,AAXX 28074 07335 32358 /0402 10200 20190 30007 40147 53005 700// 81192 90700=
07335,1999-07-28 08:00:00,22,1014.7,0.7,83,19,10000,3.704,,,220,,,,,,,,,,0,wg-a,,,,AAXX 28084 07335 32460 /2202 10220 20190 30008 40147 51007 700// 81192 90800=
07335,1999-07-28 09:00:00,23,1014.8,0.6,78,19,15000,7.408,,,80,,,,,,,,,,0,wg-a,,,,AAXX 28094 07335 32465 /0804 10230 20190 30010 40148 51006 700// 84292 90900=
07335,1999-07-28 10:00:00,24,1014.7,0.3,74,19,15000,3.704,,,40,,,,,,,,,,0,wg-a,,,,AAXX 28104 07335 32565 /0402 10240 20190 30010 40147 51003 700// 84241 91000=
07335,1999-07-28 11:00:00,25,1014.9,0.4,61,17,20000,3.704,,,80,,,,,,,,,,0,wg-a,,,,AAXX 28114 07335 32570 70802 10250 20170 30012 40149 52004 700// 84291 91100=
07335,1999-07-28 12:00:00,25,1014.8,0.1,69,19,20000,7.408,,,30,,,,,,,,,,0,wg-a,,,,AAXX 28124 07335 32570 70304 10250 20190 30011 40148 50001 700// 8329/ 91200=
07335,1999-07-28 13:00:00,26,1014.6,-0.1,61,18,20000,14.816,,,10,,,,,,,,,,0,wg-a,,,,AAXX 28134 07335 32570 70108 10260 20180 30009 40146 58001 700// 8329/ 91300=
07335,1999-07-28 14:00:00,27,1014.4,-0.5,54,17,20000,18.52,,,40,,,,,,,,,,0,wg-a,,,,AAXX 28144 07335 32670 50410 10270 20170 30007 40144 58005 700// 82291 91400=
07335,1999-07-28 15:00:00,27,1014.3,-0.4,58,18,20000,14.816,,,20,,,,,,,,,,0,wg-a,,,,AAXX 28154 07335 32670 /0208 10270 20180 30007 40143 56004 700// 8229/ 91500=
07335,1999-07-28 16:00:00,27,1013.9,-0.6,54,17,11000,11.112,,,50,,,,,,,,,,,wg-a,,,,AAXX 28164 07335 32/61 /0506 10270 20170 30003 40139 58006 91600=
07335,1999-07-28 17:00:00,27.1,1014,-0.3,58,18.1,20000,7.408,,,360,,,,,,,,,,,og-post,,,,AAXX 28174 07335 32670 53604 10271 20181 30004 40140 55003 82992 333 81833 83940=
07335,1999-07-28 18:00:00,25,1014.5,0.1,61,17,0,7.408,,,350,18.4,27.3,,,,,,,,,wg-a,,,,AAXX 28184 07335 32/// /3504 10250 20170 30008 40145 53001 91800 333 10273 20184=
07335,1999-07-29 00:00:00,19,1015.9,0.1,88,17,0,7.408,,,260,,,,,,,,,,,wg-a,,,,AAXX 29004 07335 32/// /2604 10190 20170 30019 40159 51001 90000=
07335,1999-07-29 04:00:00,16,1016.2,0.2,88,14,12000,7.408,,,340,,,,,,,,,,0,wg-a,,,,AAXX 29044 07335 32/62 63404 10160 20140 30020 40162 52002 700// 83032 90400=
07335,1999-07-29 05:00:00,16,1016.3,0.1,88,14,15000,3.704,,,350,,,,,,,,,,0,wg-a,,,,AAXX 29054 07335 32/65 63502 10160 20140 30021 40163 53001 700// 81082 90500=
07335,1999-07-29 06:00:00,17,1016.3,0.4,88,15,15000,7.408,,,330,15.2,25.2,,,,,,,,0,wg-a,,,,AAXX 29064 07335 12/65 63304 10170 20150 30022 40163 51004 60004 700// 81082 90600 333 10252 20152=
07335,1999-07-29 07:00:00,19,1016.8,0.7,83,16,15000,7.408,,,360,,,,,,,,,,0,wg-a,,,,AAXX 29074 07335 32/65 73604 10190 20160 30027 40168 53007 700// 81082 90700=
07335,1999-07-29 08:00:00,21,1016.8,0.7,73,16,15000,7.408,,,350,,,,,,,,,,0,wg-a,,,,AAXX 29084 07335 32/65 73504 10210 20160 30028 40168 52007 700// 81082 90800=
07335,1999-07-29 09:00:00,23,1016.5,0.5,69,17,15000,7.408,,,360,,,,,,,,,,0,wg-a,,,,AAXX 29094 07335 32/65 63604 10230 20170 30027 40165 50005 700// 81082 90900=
07335,1999-07-29 10:00:00,25,1016.4,0,61,17,15000,7.408,,,40,,,,,,,,,,0,wg-a,,,,AAXX 29104 07335 32/65 60404 10250 20170 30027 40164 50000 700// 80002 91000=
07335,1999-07-29 11:00:00,26,1016.1,-0.4,58,17,20000,14.816,,,20,,,,,,,,,,0,wg-a,,,,AAXX 29114 07335 32/70 60208 10260 20170 30024 40161 58004 700// 81082 91100=
07335,1999-07-29 12:00:00,28,1015.8,-0.5,51,17,20000,7.408,,,20,,,,,,,,,,0,wg-a,,,,AAXX 29124 07335 32670 /0204 10280 20170 30022 40158 58005 700// 81282 91200=
07335,1999-07-29 13:00:00,29,1015.5,-0.8,48,17,20000,7.408,,,40,,,,,,,,,,0,wg-a,,,,AAXX 29134 07335 32670 60404 10290 20170 30019 40155 57008 700// 81282 91300=
07335,1999-07-29 14:00:00,29,1015,-1,45,16,20000,11.112,,,20,,,,,,,,,,0,wg-a,,,,AAXX 29144 07335 32770 50206 10290 20160 30014 40150 58010 700// 81202 91400=
07335,1999-07-29 15:00:00,29,1014.5,-1.3,45,16,20000,11.112,,,20,,,,,,,,,,0,wg-a,,,,AAXX 29154 07335 32770 30206 10290 20160 30009 40145 58013 700// 82202 91500=
07335,1999-07-29 16:00:00,30,1014.3,-1.1,43,16,20000,7.408,,,110,,,,,,,,,,0,wg-a,,,,AAXX 29164 07335 32670 41104 10300 20160 30008 40143 56011 700// 82302 91600=
07335,1999-07-29 17:00:00,28,1014.2,-0.8,51,17,20000,7.408,,,200,,,,,,,,,,15,wg-a,,,,AAXX 29174 07335 32670 52004 10280 20170 30006 40142 56008 71511 84902 91700=
07335,1999-07-30 00:00:00,19,1015.6,0.1,83,16,0,3.704,,,250,,,,,,,,,,,wg-a,,,,AAXX 30004 07335 32/// /2502 10190 20160 30015 40156 52001 90000=
07335,1999-07-30 04:00:00,16,1014.4,-1.4,94,15,12000,7.408,,,190,,,,,,,,,,0,wg-a,,,,AAXX 30044 07335 32/62 61904 10160 20150 30002 40144 57014 700// 82032 90400=
07335,1999-07-30 05:00:00,16,1014.5,-0.9,94,15,10000,3.704,,,290,,,,,,,,,,0,wg-a,,,,AAXX 30054 07335 32/60 62902 10160 20150 30003 40145 55009 700// 82032 90500=
07335,1999-07-30 06:00:00,17,1014.7,-0,100,17,10000,0,,,0,15.8,24.6,,,,,,,,0,wg-a,,,,AAXX 30064 07335 12/60 60000 10170 20170 30006 40147 55000 60004 700// 82032 90600 333 10246 20158=
07335,1999-07-30 07:00:00,19,1014.9,0.7,88,17,12000,3.704,,,240,,,,,,,,,,0,wg-a,,,,AAXX 30074 07335 32/62 62402 10190 20170 30009 40149 53007 700// 82082 90700=
07335,1999-07-30 08:00:00,22,1015,0.8,78,18,15000,3.704,,,50,,,,,,,,,,0,wg-a,,,,AAXX 30084 07335 32/65 50502 10220 20180 30011 40150 51008 700// 81082 90800=
07335,1999-07-30 09:00:00,24,1015,0.6,69,18,20000,3.704,,,60,,,,,,,,,,0,wg-a,,,,AAXX 30094 07335 32/70 50602 10240 20180 30012 40150 51006 700// 81082 90900=
07335,1999-07-30 10:00:00,26,1014.8,0.2,61,18,20000,3.704,,,100,,,,,,,,,,0,wg-a,,,,AAXX 30104 07335 32/70 61002 10260 20180 30011 40148 50002 700// 81082 91000=
07335,1999-07-30 11:00:00,27,1014.5,-0.2,51,16,25000,3.704,,,230,,,,,,,,,,0,wg-a,,,,AAXX 30114 07335 32675 /2302 10270 20160 30009 40145 58002 700// 81182 91100=
07335,1999-07-30 12:00:00,28,1014,-0.8,45,15,500,7.408,,,40,,,,,,,,,,0,wg-a,,,,AAXX 30124 07335 32600 /0404 10280 20150 30004 40140 58008 700// 81282 91200=
07335,1999-07-30 13:00:00,29,1013.5,-1.2,45,16,25000,11.112,,,360,,,,,,,,,,0,wg-a,,,,AAXX 30134 07335 32675 /3606 10290 20160 39999 40135 58012 700// 82982 91300=
07335,1999-07-30 14:00:00,28,1013.5,-1,42,14,25000,11.112,,,350,,,,,,,,,,0,wg-a,,,,AAXX 30144 07335 32675 /3506 10280 20140 39999 40135 56010 700// 82963 91400=
07335,1999-07-30 15:00:00,28,1013.2,-0.8,42,14,25000,7.408,,,330,,,,,,,,,,0,wg-a,,,,AAXX 30154 07335 32675 /3304 10280 20140 39996 40132 56008 700// 82963 91500=
07335,1999-07-30 16:00:00,29,1013,-0.5,40,14,25000,0,,,0,,,,,,,,,,0,wg-a,,,,AAXX 30164 07335 32675 70000 10290 20140 39994 40130 58005 700// 82963 91600=
07335,1999-07-30 17:00:00,29,1012.6,-0.9,37,13,25000,3.704,,,10,,,,,,,,,,0,wg-a,,,,AAXX 30174 07335 32675 70102 10290 20130 39990 40126 58009 700// 82963 91700=
07335,1999-07-30 18:00:00,26,1012.9,-0.3,61,18,0,14.816,,,200,17.4,28.9,,,,,,,,,wg-a,,,,AAXX 30184 07335 32/// /2008 10260 20180 39993 40129 55003 91800 333 10289 20174=
07335,1999-07-31 00:00:00,19,1013.7,-0.6,88,17,0,7.408,,,270,,,,,,,,,,,wg-a,,,,AAXX 31004 07335 32/// /2704 10190 20170 39997 40137 58006 90000=
07335,1999-07-31 04:00:00,16,1013.2,-0.2,88,14,10000,3.704,,,290,,,,,,,,,,0,wg-a,,,,AAXX 31044 07335 32/60 22902 10160 20140 39990 40132 55002 700// 82030 90400=
07335,1999-07-31 05:00:00,16,1013.4,0.3,94,15,6000,3.704,,,290,,,,,,,,,,0,wg-a,,,,AAXX 31054 07335 32/56 22902 10160 20150 39992 40134 53003 700// 82030 90500=
07335,1999-07-31 06:00:00,16,1013.4,0.4,94,15,8000,0,,,0,15.5,26.2,,,,,,,,0,wg-a,,,,AAXX 31064 07335 12/58 20000 10160 20150 39993 40134 52004 60004 700// 82080 90600 333 10262 20155=
07335,1999-07-31 07:00:00,18,1013.4,0.4,88,16,7000,3.704,,,330,,,,,,,,,,0,wg-a,,,,AAXX 31074 07335 32/57 23302 10180 20160 39994 40134 51004 700// 82080 90700=
07335,1999-07-31 08:00:00,21,1013.3,0.2,83,18,6000,3.704,,,350,,,,,,,,,,0,wg-a,,,,AAXX 31084 07335 32/56 23502 10210 20180 39994 40133 51002 700// 82080 90800=
07335,1999-07-31 09:00:00,24,1013,-0.1,69,18,8000,3.704,,,280,,,,,,,,,,0,wg-a,,,,AAXX 31094 07335 32/58 02802 10240 20180 39992 40130 58001 700// 80000 90900=
07335,1999-07-31 10:00:00,26,1012.7,-0.3,58,17,12000,7.408,,,220,,,,,,,,,,0,wg-a,,,,AAXX 31104 07335 32/62 12204 10260 20170 39991 40127 58003 700// 80001 91000=
07335,1999-07-31 11:00:00,28,1012.3,-0.7,45,15,20000,7.408,,,330,,,,,,,,,,0,wg-a,,,,AAXX 31114 07335 32670 23304 10280 20150 39987 40123 58007 700// 81201 91100=
07335,1999-07-31 12:00:00,29,1011.7,-1,43,15,20000,7.408,,,250,,,,,,,,,,0,wg-a,,,,AAXX 31124 07335 32670 /2504 10290 20150 39982 40117 58010 700// 86300 91200=
07335,1999-07-31 13:00:00,23,1012,-0.9,61,15,20000,14.816,,,250,,,,,,,,,,80,wg-a,,,,AAXX 31134 07335 02270 72508 10230 20150 39982 40120 56009 61000 78098 879// 91300 333 ////=
07335,1999-07-31 14:00:00,21,1012.8,0.2,73,16,15000,25.928,,,300,,,,,,,,,,80,wg-a,,,,AAXX 31144 07335 02265 73014 10210 20160 39989 40128 53002 61000 78099 879// 91400 333 ////=
07335,1999-07-31 15:00:00,20,1013.4,1.2,78,16,15000,11.112,,,200,,,,1,,,,,,80,wg-a,,,,AAXX 31154 07335 12265 72006 10200 20160 39994 40134 53012 60017 78098 879// 91500=
07335,1999-07-31 18:00:00,23,1012.1,-1.1,73,18,0,3.704,,,70,16.1,29.6,,,,,,,,,wg-a,,,,AAXX 31184 07335 32/// /0702 10230 20180 39983 40121 55011 91800 333 10296 20161=
07335,1999-08-01 00:00:00,15,1013.9,0.2,100,15,0,3.704,,,240,,,,,,,,,,,wg-a,,,,AAXX 01004 07335 32/// /2402 10150 20150 39997 40139 50002 90000=
07335,1999-08-01 04:00:00,15,1013.9,0.1,100,15,8000,7.408,,,210,,,,,,,,,,0,wg-a,,,,AAXX 01044 07335 32/58 /2104 10150 20150 39997 40139 52001 700// 81031 90400=
07335,1999-08-01 05:00:00,15,1014.2,0.4,100,15,2000,7.408,,,190,,,,,,,,,,10,wg-a,,,,AAXX 01054 07335 32/20 21904 10150 20150 30000 40142 53004 71000 82081 90500=
07335,1999-08-01 06:00:00,16,1015,1.1,94,15,400,7.408,,,230,14.6,23.1,,,,,,,,43,wg-a,,,,AAXX 01064 07335 32/04 92304 10160 20150 30008 40150 53011 74341 89/// 90600 333 10231 20146=
07335,1999-08-01 07:00:00,17,1015.2,1.4,94,16,500,7.408,,,230,,,,,,,,,,42,wg-a,,,,AAXX 01074 07335 32005 82304 10170 20160 30011 40152 52014 74244 886// 90700=
07335,1999-08-01 08:00:00,18,1015.2,1.1,100,18,4000,7.408,,,220,,,,,,,,,,10,wg-a,,,,AAXX 01084 07335 32140 22204 10180 20180 30011 40152 51011 71041 81180 90800=
07335,1999-08-01 09:00:00,21,1015,0.3,83,18,8000,7.408,,,210,,,,,,,,,,1,wg-a,,,,AAXX 01094 07335 32/58 /2104 10210 20180 30011 40150 51003 70141 81080 90900=
07335,1999-08-01 10:00:00,24,1014.7,-0.2,74,19,10000,7.408,,,190,,,,,,,,,,0,wg-a,,,,AAXX 01104 07335 32/60 01904 10240 20190 30009 40147 58002 700// 80000 91000=
07335,1999-08-01 11:00:00,25,1014.4,-0.4,65,18,15000,7.408,,,230,,,,,,,,,,0,wg-a,,,,AAXX 01114 07335 32565 /2304 10250 20180 30007 40144 58004 700// 81101 91100=
07335,1999-08-01 12:00:00,27,1014,-0.7,58,18,15000,7.408,,,210,,,,,,,,,,3,wg-a,,,,AAXX 01124 07335 32665 22104 10270 20180 30004 40140 58007 70341 81101 91200=
07335,1999-08-01 13:00:00,28,1013.7,-0.8,48,16,15000,7.408,,,230,,,,,,,,,,0,wg-a,,,,AAXX 01134 07335 32665 22304 10280 20160 30001 40137 58008 700// 81101 91300=
07335,1999-08-01 15:00:00,29,1013.2,-0.7,43,15,20000,3.704,,,180,,,,,,,,,,0,wg-a,,,,AAXX 01154 07335 32670 31802 10290 20150 39997 40132 56007 700// 83201 91500=
07335,1999-08-01 18:00:00,28,1012.5,-0.8,48,16,0,7.408,,,240,15.6,29.5,,,,,,,,,wg-a,,,,AAXX 01184 07335 32/// /2404 10280 20160 39989 40125 56008 91800 333 10295 20156=
07335,1999-08-02 00:00:00,18,1014.1,0,88,16,0,0,,,0,,,,,,,,,,,wg-a,,,,AAXX 02004 07335 32/// /0000 10180 20160 30000 40141 50000 90000=
07335,1999-08-02 04:00:00,16,1013.5,-0.4,100,16,15000,3.704,,,320,,,,,,,,,,0,wg-a,,,,AAXX 02044 07335 32/65 63202 10160 20160 39994 40135 57004 700// 84032 90400=
07335,1999-08-02 05:00:00,16,1013.2,-0.5,94,15,15000,3.704,,,360,,,,,,,,,,0,wg-a,,,,AAXX 02054 07335 32/65 63602 10160 20150 39991 40132 58005 700// 85032 90500=
07335,1999-08-02 06:00:00,17,1013.2,-0.5,100,17,10000,0,,,0,15.6,28.2,,,,,,,,0,wg-a,,,,AAXX 02064 07335 12/60 70000 10170 20170 39991 40132 56005 60004 700// 85032 90600 333 10282 20156=
07335,1999-08-02 07:00:00,20,1013.1,-0.2,83,17,10000,7.408,,,150,,,,,,,,,,0,wg-a,,,,AAXX 02074 07335 32/60 71504 10200 20170 39992 40131 55002 700// 85082 90700=
07335,1999-08-02 08:00:00,23,1012.8,-0.1,65,16,15000,7.408,,,150,,,,,,,,,,0,wg-a,,,,AAXX 02084 07335 32/65 71504 10230 20160 39990 40128 58001 700// 85082 90800=
07335,1999-08-02 09:00:00,25,1012.4,-0.4,65,18,18000,7.408,,,190,,,,,,,,,,0,wg-a,,,,AAXX 02094 07335 32/68 71904 10250 20180 39987 40124 58004 700// 84082 90900=
07335,1999-08-02 10:00:00,27,1012.4,-0.4,54,17,18000,7.408,,,240,,,,,,,,,,0,wg-a,,,,AAXX 02104 07335 32668 72404 10270 20170 39988 40124 55004 700// 85182 91000=
07335,1999-08-02 11:00:00,27,1012.3,-0.3,54,17,15000,18.52,,,260,,,,,,,,,,0,wg-a,,,,AAXX 02114 07335 32665 82610 10270 20170 39987 40123 56003 700// 81182 91100=
07335,1999-08-02 12:00:00,24,1012.4,0,69,18,15000,22.224,,,280,,,,,,,,,,0,wg-a,,,,AAXX 02124 07335 32665 82812 10240 20180 39987 40124 50000 700// 81182 91200=
07335,1999-08-02 13:00:00,21,1012.8,0.1,83,18,10000,22.224,,,260,,,,,,,,,,61,wg-a,,,,AAXX 02134 07335 02160 82612 10210 20180 39989 40128 53001 61000 76162 8418/ 91300 333 ////=
07335,1999-08-02 14:00:00,20,1013.2,0.6,94,19,7000,11.112,,,230,,,1,,,,,,,61,wg-a,,,,AAXX 02144 07335 12257 82306 10200 20190 39993 40132 53006 60015 76166 8457/ 91400=
07335,1999-08-02 15:00:00,19,1012.9,0.2,94,18,9000,14.816,,,250,,,,1,,,,,,61,wg-a,,,,AAXX 02154 07335 12259 82508 10190 20180 39989 40129 50002 60017 76162 8457/ 91500=
07335,1999-08-02 16:00:00,19,1012.5,-0.4,94,18,10000,7.408,,,250,,,0,,,,,,,61,wg-a,,,,AAXX 02164 07335 12160 82504 10190 20180 39985 40125 58004 60005 76166 8457/ 91600=
07335,1999-08-02 17:00:00,19,1012.4,-0.9,94,18,10000,11.112,,,240,,,,,,,,,,21,wg-a,,,,AAXX 02174 07335 02260 82406 10190 20180 39984 40124 56009 61000 72162 8357/ 91700 333 ////=
07335,1999-08-02 18:00:00,19,1012.2,-0.7,94,18,0,11.112,,,240,17.3,26.7,,,,,,,,,wg-a,,,,AAXX 02184 07335 32/// /2406 10190 20180 39982 40122 56007 91800 333 10267 20173=
07335,1999-08-03 00:00:00,17,1013.6,0.2,94,16,0,11.112,,,220,,,,,,,,,,,wg-a,,,,AAXX 03004 07335 32/// /2206 10170 20160 39995 40136 50002 90000=
07335,1999-08-03 04:00:00,17,1013.6,0.3,94,16,8000,11.112,,,210,,,,,,,,,,0,wg-a,,,,AAXX 03044 07335 32158 72106 10170 20160 39995 40136 53003 700// 875// 90400=
07335,1999-08-03 05:00:00,17,1013.8,0.5,94,16,4000,11.112,,,220,,,,,,,,,,10,wg-a,,,,AAXX 03054 07335 32140 72206 10170 20160 39997 40138 53005 71022 87631 90500=
07335,1999-08-03 06:00:00,17,1013.9,0.5,94,16,10000,11.112,,,220,16.1,19.1,,,,,2,,,0,wg-a,,,,AAXX 03064 07335 12160 52206 10170 20160 39998 40139 51005 60024 700// 81131 90600 333 10191 20161=
07335,1999-08-03 07:00:00,18,1014.3,0.7,94,17,15000,11.112,,,230,,,,,,,,,,0,wg-a,,,,AAXX 03074 07335 32365 72306 10180 20170 30002 40143 53007 700// 85231 90700=
07335,1999-08-03 08:00:00,19,1014.2,0.5,83,16,20000,11.112,,,230,,,,,,,,,,0,wg-a,,,,AAXX 03084 07335 32470 72306 10190 20160 30002 40142 51005 700// 85201 90800=
07335,1999-08-03 09:00:00,20,1013.9,0.2,78,16,25000,11.112,,,210,,,,,,,,,,0,wg-a,,,,AAXX 03094 07335 32475 62106 10200 20160 30000 40139 50002 700// 84201 90900=
07335,1999-08-03 10:00:00,22,1013.7,-0.4,69,16,25000,7.408,,,240,,,,,,,,,,0,wg-a,,,,AAXX 03104 07335 32575 72404 10220 20160 39998 40137 58004 700// 85201 91000=
07335,1999-08-03 11:00:00,23,1013.4,-0.6,65,16,25000,11.112,,,220,,,,,,,,,,0,wg-a,,,,AAXX 03114 07335 32575 72206 10230 20160 39996 40134 57006 700// 85201 91100=
07335,1999-08-03 12:00:00,23,1013.1,-0.7,61,15,25000,3.704,,,270,,,,,,,,,,0,wg-a,,,,AAXX 03124 07335 32675 72702 10230 20150 39993 40131 58007 700// 85201 91200=
07335,1999-08-03 13:00:00,25,1012.6,-0.9,50,14,25000,7.408,,,230,,,,,,,,,,0,wg-a,,,,AAXX 03134 07335 32675 72304 10250 20140 39989 40126 58009 700// 84202 91300=
07335,1999-08-03 14:00:00,25,1012.4,-0.9,50,14,25000,7.408,,,240,,,,,,,,,,0,wg-a,,,,AAXX 03144 07335 32675 72404 10250 20140 39987 40124 56009 700// 83204 91400=
07335,1999-08-03 15:00:00,25,1012.2,-0.8,50,14,25000,7.408,,,260,,,,,,,,,,0,wg-a,,,,AAXX 03154 07335 32675 72604 10250 20140 39985 40122 56008 700// 83204 91500=
07335,1999-08-03 16:00:00,25,1011.9,-0.7,54,15,11000,3.704,,,160,,,,,,,,,,,wg-a,,,,AAXX 03164 07335 32/61 /1602 10250 20150 39982 40119 58007 91600=
07335,1999-08-03 17:00:00,25,1011.6,-0.8,54,15,25000,11.112,,,170,,,,,,,,,,0,wg-a,,,,AAXX 03174 07335 32675 71706 10250 20150 39979 40116 58008 700// 83204 91700=
07335,1999-08-03 18:00:00,25,1011.2,-1,50,14,0,11.112,,,130,16.8,25.5,,,,,,,,,wg-a,,,,AAXX 03184 07335 32/// /1306 10250 20140 39975 40112 58010 91800 333 10255 20168=
07335,1999-08-04 00:00:00,20,1010.1,-0.9,68,14,0,11.112,,,80,,,,,,,,,,,wg-a,,,,AAXX 04004 07335 32/// /0806 10200 20140 39962 40101 58009 90000=
07335,1999-08-04 04:00:00,19,1008.4,-1.4,78,15,15000,7.408,,,120,,,,,,,,,,0,wg-a,,,,AAXX 04044 07335 32/65 31204 10190 20150 39945 40084 56014 700// 81031 90400=
07335,1999-08-04 05:00:00,18,1008.1,-1.2,83,15,15000,7.408,,,120,,,,,,,,,,0,wg-a,,,,AAXX 04054 07335 32/65 51204 10180 20150 39941 40081 57012 700// 83032 90500=
07335,1999-08-04 06:00:00,19,1008,-0.8,83,16,15000,7.408,,,110,18,24.7,,,,,,,,0,wg-a,,,,AAXX 04064 07335 12/65 31104 10190 20160 39941 40080 56008 60004 700// 81032 90600 333 10247 20180=
07335,1999-08-04 07:00:00,21,1007.8,-0.5,78,17,20000,7.408,,,130,,,,,,,,,,0,wg-a,,,,AAXX 04074 07335 32770 61304 10210 20170 39940 40078 56005 700// 81532 90700=
07335,1999-08-04 08:00:00,23,1007.5,-0.3,69,17,20000,14.816,,,130,,,,,,,,,,0,wg-a,,,,AAXX 04084 07335 32770 61308 10230 20170 39938 40075 58003 700// 81582 90800=
07335,1999-08-04 09:00:00,25,1007.3,-0.4,65,18,20000,14.816,,,160,,,,,,,,,,0,wg-a,,,,AAXX 04094 07335 32770 71608 10250 20180 39937 40073 57004 700// 82582 90900=
07335,1999-08-04 10:00:00,25,1007.2,-0.4,69,19,20000,18.52,,,160,,,,,,,,,,0,wg-a,,,,AAXX 04104 07335 32770 71610 10250 20190 39936 40072 56004 700// 82582 91000=
07335,1999-08-04 11:00:00,26,1006.7,-0.6,70,20,20000,18.52,,,180,,,,,,,,,,0,wg-a,,,,AAXX 04114 07335 32670 71810 10260 20200 39932 40067 58006 700// 82882 91100=
07335,1999-08-04 15:00:00,27,1006.3,-0.4,66,20,15000,18.52,,,210,,,,,,,,,,29,wg-a,,,,AAXX 04154 07335 02665 72110 10270 20200 39928 40063 56004 61000 72996 82972 91500 333 ////=
07335,1999-08-04 18:00:00,25,1006.9,0.5,61,17,0,14.816,,,210,18.7,28.8,,,,,,,,,wg-a,,,,AAXX 04184 07335 32/// /2108 10250 20170 39933 40069 53005 91800 333 10288 20187=
07335,1999-08-05 00:00:00,19,1010.9,1.4,94,18,0,14.816,,,250,,,,,,,,,,,wg-a,,,,AAXX 05004 07335 32/// /2508 10190 20180 39970 40109 51014 90000=
07335,1999-08-05 06:00:00,17,1013.5,1.4,94,16,15000,3.704,,,250,17,24.5,,,,,,,,0,wg-a,,,,AAXX 05064 07335 12465 72502 10170 20160 39994 40135 53014 60004 700// 83192 90600 333 10245 20170=
07335,1999-08-05 09:00:00,21,1014.2,0.9,69,15,25000,11.112,,,240,,,,,,,,,,0,wg-a,,,,AAXX 05094 07335 32575 72406 10210 20150 30003 40142 51009 700// 83132 90900=
07335,1999-08-05 12:00:00,24,1013.5,-0.6,57,15,25000,7.408,,,350,,,,,,,,,,0,wg-a,,,,AAXX 05124 07335 32675 /3504 10240 20150 39997 40135 58006 700// 83132 91200=
07335,1999-08-05 13:00:00,25,1013.4,-0.5,47,13,25000,7.408,,,210,,,,,,,,,,0,wg-a,,,,AAXX 05134 07335 32675 72104 10250 20130 39997 40134 56005 700// 83132 91300=
07335,1999-08-05 14:00:00,25,1013,-0.7,47,13,25000,11.112,,,190,,,,,,,,,,0,wg-a,,,,AAXX 05144 07335 32675 71906 10250 20130 39993 40130 58007 700// 83132 91400=
07335,1999-08-05 15:00:00,27,1012.4,-0.9,42,13,25000,7.408,,,260,,,,,,,,,,0,wg-a,,,,AAXX 05154 07335 32775 72604 10270 20130 39988 40124 58009 700// 83432 91500=
07335,1999-08-05 16:00:00,27,1012.2,-1.1,42,13,25000,7.408,,,260,,,,,,,,,,0,wg-a,,,,AAXX 05164 07335 32775 62604 10270 20130 39986 40122 56011 700// 83432 91600=
07335,1999-08-05 17:00:00,27,1011.8,-1.1,45,14,25000,7.408,,,250,,,,,,,,,,0,wg-a,,,,AAXX 05174 07335 32775 62504 10270 20140 39982 40118 56011 700// 83432 91700=
07335,1999-08-05 18:00:00,26,1011.7,-0.8,45,13,0,7.408,,,170,17.1,26.9,,,,,,,,,wg-a,,,,AAXX 05184 07335 32/// /1704 10260 20130 39980 40117 57008 91800 333 10269 20171=
07335,1999-08-06 00:00:00,18,1012.1,-0.5,77,14,0,3.704,,,360,,,,,,,,,,,wg-a,,,,AAXX 06004 07335 32/// /3602 10180 20140 39980 40121 58005 90000=
07335,1999-08-06 04:00:00,15,1009.6,-1.8,88,13,12000,7.408,,,20,,,,,,,,,,0,wg-a,,,,AAXX 06044 07335 32/62 60204 10150 20130 39955 40096 58018 700// 85092 90400=
07335,1999-08-06 05:00:00,17,1009.1,-1.6,88,15,15000,7.408,,,110,,,,,,,,,,0,wg-a,,,,AAXX 06054 07335 32665 /1104 10170 20150 39951 40091 56016 700// 85292 90500=
07335,1999-08-06 06:00:00,18,1008.4,-1.8,88,16,15000,11.112,,,120,14.4,25.7,,,,,,,,0,wg-a,,,,AAXX 06064 07335 12665 61206 10180 20160 39944 40084 57018 60004 700// 82991 90600 333 10257 20144=
07335,1999-08-06 07:00:00,19,1007.5,-1.9,88,17,20000,3.704,,,50,,,,,,,,,,0,wg-a,,,,AAXX 06074 07335 32/70 60502 10190 20170 39936 40075 58019 700// 83092 90700=
07335,1999-08-06 08:00:00,22,1007.4,-1.5,78,18,20000,11.112,,,100,,,,,,,,,,0,wg-a,,,,AAXX 06084 07335 32770 51006 10220 20180 39936 40074 56015 700// 81582 90800=
07335,1999-08-06 09:00:00,25,1007.4,-0.6,74,20,20000,14.816,,,150,,,,,,,,,,0,wg-a,,,,AAXX 06094 07335 32670 61508 10250 20200 39938 40074 55006 700// 84882 90900=
07335,1999-08-06 10:00:00,25,1007,-0.2,69,19,20000,18.52,,,180,,,,,,,,,,0,wg-a,,,,AAXX 06104 07335 32570 61810 10250 20190 39934 40070 58002 700// 84882 91000=
07335,1999-08-06 11:00:00,27,1006.2,-0.9,58,18,11000,18.52,,,220,,,,,,,,,,,wg-a,,,,AAXX 06114 07335 32/61 /2210 10270 20180 39927 40062 58009 91100=
07335,1999-08-06 12:00:00,26,1005.8,-1.5,61,18,20000,7.408,,,250,,,,,,,,,,0,wg-a,,,,AAXX 06124 07335 32670 72504 10260 20180 39923 40058 57015 700// 86982 91200=
07335,1999-08-06 13:00:00,18,1006.3,-1,94,17,10000,18.52,,,200,,,9,,,,,,,80,wg-a,,,,AAXX 06134 07335 12260 72010 10180 20170 39924 40063 55010 60095 78098 879// 91300=
07335,1999-08-06 14:00:00,19,1006.2,-0.4,94,18,20000,14.816,,,200,,,1,,,,,,,17,wg-a,,,,AAXX 06144 07335 12270 72008 10190 20180 39923 40062 56004 60015 71799 8496/ 91400=
07335,1999-08-06 15:00:00,19,1006.5,0.3,94,18,20000,14.816,,,180,,,,10,,,,,,29,wg-a,,,,AAXX 06154 07335 12470 81808 10190 20180 39926 40065 53003 60107 72998 879// 91500=
07335,1999-08-06 16:00:00,19,1006,-0.3,100,19,75000,18.52,,,180,,,0,,,,,,,80,wg-a,,,,AAXX 06164 07335 12489 81810 10190 20190 39921 40060 58003 60005 78086 8396/ 91600=
07335,1999-08-06 17:00:00,20,1005.2,-0.9,94,19,15000,14.816,,,210,,,,,,,,,,25,wg-a,,,,AAXX 06174 07335 02265 72108 10200 20190 39914 40052 58009 61000 72586 8296/ 91700 333 ////=
07335,1999-08-06 18:00:00,21,1005.7,-0.7,94,20,0,14.816,,,220,17.7,27.5,,,,,,,,,wg-a,,,,AAXX 06184 07335 32/// /2208 10210 20200 39919 40057 55007 91800 333 10275 20177=
07335,1999-08-07 00:00:00,17,1010,1.2,94,16,0,11.112,,,250,,,,,,,,,,,wg-a,,,,AAXX 07004 07335 32/// /2506 10170 20160 39959 40100 51012 90000=
07335,1999-08-07 04:00:00,17,1009.6,-0,94,16,10000,7.408,,,170,,,,,,,,,,0,wg-a,,,,AAXX 07044 07335 32260 /1704 10170 20160 39955 40096 55000 700// 86500 90400=
07335,1999-08-07 05:00:00,16,1009,-0.6,100,16,3000,7.408,,,200,,,,,,,,,,10,wg-a,,,,AAXX 07054 07335 32130 72004 10160 20160 39949 40090 58006 71022 85602 90500=
07335,1999-08-07 06:00:00,17,1009,-0.3,94,16,400,11.112,,,210,14.9,21.5,,,,,10,,,44,wg-a,,,,AAXX 07064 07335 12004 72106 10170 20160 39950 40090 58003 60104 74442 876// 90600 333 10215 20149=
07335,1999-08-07 07:00:00,17,1008.9,-0.6,100,17,3000,7.408,,,180,,,,,,,,,,10,wg-a,,,,AAXX 07074 07335 32130 71804 10170 20170 39949 40089 56006 71042 876// 90700=
07335,1999-08-07 08:00:00,18,1009.1,0.2,100,18,500,7.408,,,190,,,,,,,,,,0,wg-a,,,,AAXX 07084 07335 32200 71904 10180 20180 39951 40091 53002 700// 876// 90800=
07335,1999-08-07 09:00:00,20,1008.5,-0.4,88,18,8000,7.408,,,150,,,,,,,,,,3,wg-a,,,,AAXX 07094 07335 32458 /1504 10200 20180 39946 40085 58004 70342 85832 90900=
07335,1999-08-07 10:00:00,22,1007.5,-1.2,69,16,12000,11.112,,,130,,,,,,,,,,0,wg-a,,,,AAXX 07104 07335 32562 71306 10220 20160 39937 40075 58012 700// 85132 91000=
07335,1999-08-07 11:00:00,24,1006.2,-2.6,61,16,15000,14.816,,,120,,,,,,,,,,0,wg-a,,,,AAXX 07114 07335 32565 71208 10240 20160 39925 40062 58026 700// 84132 91100=
07335,1999-08-07 12:00:00,25,1005.7,-2.5,61,17,20000,14.816,,,150,,,,,,,,,,1,wg-a,,,,AAXX 07124 07335 32670 71508 10250 20170 39921 40057 56025 70142 83132 91200=
07335,1999-08-07 13:00:00,26,1004.8,-2.5,58,17,25000,14.816,,,140,,,,,,,,,,0,wg-a,,,,AAXX 07134 07335 32675 61408 10260 20170 39912 40048 56025 700// 84132 91300=
07335,1999-08-07 14:00:00,27,1003.5,-2.5,54,17,25000,14.816,,31.484,140,,,,,,,,,,0,wg-a,,,,AAXX 07144 07335 32675 61408 10270 20170 39900 40035 58025 700// 84132 91400 333 91017=
07335,1999-08-07 15:00:00,27,1002.3,-3.3,54,17,25000,14.816,,,120,,,,,,,,,,0,wg-a,,,,AAXX 07154 07335 32675 71208 10270 20170 39888 40023 58033 700// 84132 91500=
07335,1999-08-07 18:00:00,27,999.5,-2.8,54,17,0,11.112,,,150,16.6,27.4,,,,,,,,,wg-a,,,,AAXX 07184 07335 32/// /1506 10270 20170 39860 49995 58028 91800 333 10274 20166=
07335,1999-08-08 00:00:00,18,999.5,0.8,94,17,0,14.816,,,210,,,,,,,,,,,wg-a,,,,AAXX 08004 07335 32/// /2108 10180 20170 39857 49995 52008 90000=
07335,1999-08-08 04:00:00,17,1000,0.5,94,16,8000,14.816,,,210,,,,,,,,,,0,wg-a,,,,AAXX 08044 07335 32158 82108 10170 20160 39861 40000 53005 700// 876// 90400=
07335,1999-08-08 05:00:00,17,1000.7,1.3,94,16,8000,14.816,,,210,,,,,,,,,,0,wg-a,,,,AAXX 08054 07335 32158 82108 10170 20160 39868 40007 53013 700// 876// 90500=
07335,1999-08-08 06:00:00,17,1001.6,2,94,16,10000,14.816,,,210,16.5,26.5,,,,,3,,,0,wg-a,,,,AAXX 08064 07335 12260 82108 10170 20160 39877 40016 53020 60034 700// 8563/ 90600 333 10265 20165=
07335,1999-08-08 07:00:00,18,1002.2,2.2,94,17,15000,11.112,,,200,,,,,,,,,,0,wg-a,,,,AAXX 08074 07335 32265 72006 10180 20170 39883 40022 51022 700// 8453/ 90700=
07335,1999-08-08 08:00:00,19,1002.6,1.9,88,17,20000,11.112,,,180,,,,,,,,,,0,wg-a,,,,AAXX 08084 07335 32570 71806 10190 20170 39887 40026 51019 700// 8589/ 90800=
07335,1999-08-08 09:00:00,20,1002.6,1.1,83,17,20000,14.816,,,200,,,,,,,,,,0,wg-a,,,,AAXX 08094 07335 32270 72008 10200 20170 39888 40026 51011 700// 8389/ 90900=
07335,1999-08-08 10:00:00,22,1002.2,0.2,73,17,20000,18.52,,,200,,,,,,,,,,0,wg-a,,,,AAXX 08104 07335 32570 52010 10220 20170 39885 40022 50002 700// 8389/ 91000=
07335,1999-08-08 11:00:00,24,1001.6,-0.7,61,16,25000,18.52,,,180,,,,,,,,,,0,wg-a,,,,AAXX 08114 07335 32575 51810 10240 20160 39880 40016 58007 700// 83943 91100=
07335,1999-08-08 12:00:00,23,1001.8,-0.6,65,16,20000,22.224,,,200,,,,,,,,,,0,wg-a,,,,AAXX 08124 07335 32570 72012 10230 20160 39882 40018 55006 700// 8599/ 91200=
07335,1999-08-08 13:00:00,16,1003.6,1.1,94,15,15000,3.704,,,290,,,3,,,,,,,29,wg-a,,,,AAXX 08134 07335 12165 72902 10160 20150 39896 40036 53011 60035 72998 839// 91300=
07335,1999-08-08 14:00:00,21,1003.2,1.4,78,17,25000,7.408,,,200,,,,,,,,,,0,wg-a,,,,AAXX 08144 07335 32575 /2004 10210 20170 39894 40032 50014 700// 81232 91400=
07335,1999-08-08 18:00:00,21,1002.6,-0.2,83,18,0,11.112,,,150,16,24.6,,1,,,,,,,wg-a,,,,AAXX 08184 07335 12/// /1506 10210 20180 39889 40026 57002 60017 91800 333 10246 20160=
07335,1999-08-09 00:00:00,15,1004.2,1,88,13,0,25.928,,,300,,,,,,,,,,,wg-a,,,,AAXX 09004 07335 32/// /3014 10150 20130 39901 40042 53010 90000=
07335,1999-08-09 04:00:00,13,1004.1,-0.7,94,12,20000,11.112,,,160,,,,,,,,,,0,wg-a,,,,AAXX 09044 07335 32/70 11606 10130 20120 39899 40041 57007 700// 81030 90400=
07335,1999-08-09 05:00:00,13,1004.2,-0.2,94,12,20000,11.112,,,150,,,,,,,,,,0,wg-a,,,,AAXX 09054 07335 32/70 11506 10130 20120 39900 40042 57002 700// 81032 90500=
07335,1999-08-09 06:00:00,14,1004.3,-0.1,88,12,500,11.112,,,160,12.6,21.3,,,,,8,,,0,wg-a,,,,AAXX 09064 07335 12/00 21606 10140 20120 39902 40043 55001 60084 700// 81032 90600 333 10213 20126=
07335,1999-08-09 07:00:00,16,1004.2,0.3,88,14,500,14.816,,,160,,,,,,,,,,0,wg-a,,,,AAXX 09074 07335 32/00 31608 10160 20140 39902 40042 51003 700// 82032 90700=
07335,1999-08-09 08:00:00,20,1004.3,0.5,78,16,500,18.52,,,200,,,,,,,,,,0,wg-a,,,,AAXX 09084 07335 32500 52010 10200 20160 39905 40043 53005 700// 81232 90800=
07335,1999-08-09 09:00:00,22,1003.9,0,73,17,500,22.224,,,190,,,,,,,,,,0,wg-a,,,,AAXX 09094 07335 32500 61912 10220 20170 39902 40039 50000 700// 82332 90900=
07335,1999-08-09 10:00:00,22,1004,0.1,69,16,25000,25.928,,,240,,,,,,,,,,0,wg-a,,,,AAXX 09104 07335 32575 62414 10220 20160 39903 40040 51001 700// 83332 91000=
07335,1999-08-09 11:00:00,21,1004.5,0.2,83,18,25000,22.224,,,250,,,0,,,,,,,80,wg-a,,,,AAXX 09114 07335 12575 72512 10210 20180 39907 40045 53002 60005 78086 84872 91100=
07335,1999-08-09 12:00:00,23,1004.8,0.9,61,15,500,29.632,,,250,,,,0,,,,,,25,wg-a,,,,AAXX 09124 07335 12500 72516 10230 20150 39911 40048 53009 60007 72586 83232 91200=
07335,1999-08-09 13:00:00,24,1005.2,1.2,57,15,500,31.484,,,250,,,,,,,,,,0,wg-a,,,,AAXX 09134 07335 32500 /2517 10240 20150 39915 40052 52012 700// 83232 91300=
07335,1999-08-09 14:00:00,24,1005.3,0.9,54,14,500,35.188,,53.708,250,,,,,,,,,,0,wg-a,,,,AAXX 09144 07335 32600 62519 10240 20140 39916 40053 51009 700// 83232 91400 333 91029=
07335,1999-08-09 15:00:00,22,1005.5,0.7,65,15,500,29.632,,46.3,220,,,,,,,,,,0,wg-a,,,,AAXX 09154 07335 32600 62216 10220 20150 39918 40055 51007 700// 83232 91500 333 91025=
07335,1999-08-09 16:00:00,23,1005.4,0.2,61,15,500,35.188,,53.708,240,,,,,,,,,,0,wg-a,,,,AAXX 09164 07335 32600 72419 10230 20150 39917 40054 50002 700// 84232 91600 333 91029=
07335,1999-08-09 17:00:00,21,1006,0.6,73,16,500,31.484,,,240,,,,,,,,,,0,wg-a,,,,AAXX 09174 07335 32600 62417 10210 20160 39922 40060 53006 700// 83232 91700=
07335,1999-08-09 18:00:00,21,1006.2,0.6,69,15,0,35.188,,,250,13.6,24.2,,,,,,,,,wg-a,,,,AAXX 09184 07335 32/// /2519 10210 20150 39924 40062 53006 91800 333 10242 20136=
07335,1999-08-10 00:00:00,17,1009.9,1,94,16,0,14.816,,,220,,,,,,,,,,,wg-a,,,,AAXX 10004 07335 32/// /2208 10170 20160 39959 40099 51010 90000=
07335,1999-08-10 04:00:00,17,1011.1,1,94,16,15000,14.816,,,230,,,,,,,,,,0,wg-a,,,,AAXX 10044 07335 32365 72308 10170 20160 39970 40111 52010 700// 875// 90400=
07335,1999-08-10 05:00:00,17,1011.6,1.2,94,16,12000,11.112,,,230,,,,,,,,,,0,wg-a,,,,AAXX 10054 07335 32262 72306 10170 20160 39975 40116 53012 700// 875// 90500=
07335,1999-08-10 06:00:00,17,1012.2,1.4,94,16,10000,11.112,,,220,16.6,20.7,,,,,,,,0,wg-a,,,,AAXX 10064 07335 12260 72206 10170 20160 39981 40122 53014 60004 700// 878// 90600 333 10207 20166=
07335,1999-08-10 07:00:00,18,1012.7,1.7,94,17,12000,14.816,,,230,,,,,,,,,,0,wg-a,,,,AAXX 10074 07335 32362 72308 10180 20170 39987 40127 53017 700// 878// 90700=
07335,1999-08-10 08:00:00,19,1013.1,1.6,83,16,15000,22.224,,,250,,,,,,,,,,0,wg-a,,,,AAXX 10084 07335 32465 /2512 10190 20160 39991 40131 51016 700// 85830 90800=
07335,1999-08-10 09:00:00,20,1013.8,1.7,78,16,17000,18.52,,,260,,,,,,,,,,0,wg-a,,,,AAXX 10094 07335 32567 72610 10200 20160 39998 40138 53017 700// 878// 90900=
07335,1999-08-10 10:00:00,20,1014.1,1.5,73,15,20000,22.224,,,260,,,,,,,,,,0,wg-a,,,,AAXX 10104 07335 32570 72612 10200 20150 30002 40141 52015 700// 878// 91000=
07335,1999-08-10 11:00:00,21,1014.3,1.3,64,14,20000,22.224,,,250,,,,,,,,,,0,wg-a,,,,AAXX 10114 07335 32570 72512 10210 20140 30004 40143 51013 700// 878// 91100=
07335,1999-08-10 12:00:00,23,1014.3,0.7,61,15,25000,18.52,,,260,,,,,,,,,,0,wg-a,,,,AAXX 10124 07335 32575 72610 10230 20150 30005 40143 51007 700// 8532/ 91200=
07335,1999-08-10 13:00:00,23,1014.5,0.5,61,15,25000,22.224,,,280,,,,,,,,,,0,wg-a,,,,AAXX 10134 07335 32675 72812 10230 20150 30007 40145 52005 700// 85832 91300=
07335,1999-08-10 14:00:00,23,1014.9,0.7,57,14,25000,25.928,,,280,,,,,,,,,,25,wg-a,,,,AAXX 10144 07335 02675 62814 10230 20140 30011 40149 53007 61000 72586 84832 91400 333 ////=
07335,1999-08-10 15:00:00,23,1015.2,0.8,53,13,25000,22.224,,,270,,,,,,,,,,1,wg-a,,,,AAXX 10154 07335 02675 62712 10230 20130 30013 40152 52008 61000 70186 84832 91500 333 ////=
07335,1999-08-10 16:00:00,21,1016.1,1.5,64,14,25000,25.928,,,300,,,,,,,,,,0,wg-a,,,,AAXX 10164 07335 32675 73014 10210 20140 30022 40161 53015 700// 84832 91600=
07335,1999-08-10 17:00:00,20,1017,1.9,73,15,25000,22.224,,,310,,,,,,,,,,0,wg-a,,,,AAXX 10174 07335 32675 73112 10200 20150 30030 40170 53019 700// 85832 91700=
07335,1999-08-10 18:00:00,20,1017.7,2.4,64,13,0,18.52,,,300,17.3,23.6,,,,,,,,,wg-a,,,,AAXX 10184 07335 32/// /3010 10200 20130 30037 40177 51024 91800 333 10236 20173=
07335,1999-08-11 00:00:00,14,1020.8,0.9,94,13,0,11.112,,,270,,,,,,,,,,,wg-a,,,,AAXX 11004 07335 32/// /2706 10140 20130 30065 40208 52009 90000=
07335,1999-08-11 04:00:00,13,1021.1,0.1,94,12,12000,7.408,,,260,,,,,,,,,,0,wg-a,,,,AAXX 11044 07335 32662 62604 10130 20120 30067 40211 53001 700// 84502 90400=
07335,1999-08-11 05:00:00,12,1021.4,0.4,94,11,7000,7.408,,,240,,,,,,,,,,11,wg-a,,,,AAXX 11054 07335 32657 22404 10120 20110 30069 40214 53004 71111 82500 90500=
07335,1999-08-11 06:00:00,12,1021.8,0.7,100,12,7000,3.704,,,240,11.3,19.6,,,,,,,,0,wg-a,,,,AAXX 11064 07335 12/57 32402 10120 20120 30073 40218 53007 60004 700// 82032 90600 333 10196 20113=
07335,1999-08-11 07:00:00,14,1021.8,0.7,100,14,8000,0,,,0,,,,,,,,,,0,wg-a,,,,AAXX 11074 07335 32/58 40000 10140 20140 30074 40218 51007 700// 82032 90700=
07335,1999-08-11 08:00:00,17,1021.8,0.7,88,15,12000,3.704,,,50,,,,,,,,,,0,wg-a,,,,AAXX 11084 07335 32462 30502 10170 20150 30076 40218 51007 700// 81801 90800=
07335,1999-08-11 09:00:00,20,1021.8,0.4,68,14,15000,7.408,,,250,,,,,,,,,,0,wg-a,,,,AAXX 11094 07335 32565 72504 10200 20140 30077 40218 52004 700// 85801 90900=
07335,1999-08-11 10:00:00,19,1021.8,0.3,73,14,15000,7.408,,,240,,,,,,,,,,0,wg-a,,,,AAXX 11104 07335 32565 72404 10190 20140 30077 40218 51003 700// 86801 91000=
07335,1999-08-11 11:00:00,19,1021.6,-0.1,73,14,15000,3.704,,,180,,,,,,,,,,0,wg-a,,,,AAXX 11114 07335 32565 71802 10190 20140 30075 40216 58001 700// 84802 91100=
07335,1999-08-11 12:00:00,20,1021.3,-0.5,68,14,20000,7.408,,,230,,,,,,,,,,0,wg-a,,,,AAXX 11124 07335 32570 72304 10200 20140 30072 40213 58005 700// 86802 91200=
07335,1999-08-11 13:00:00,22,1020.9,-0.8,60,14,20000,14.816,,,230,,,,,,,,,,0,wg-a,,,,AAXX 11134 07335 32570 72308 10220 20140 30069 40209 58008 700// 86802 91300=
07335,1999-08-11 14:00:00,22,1020.5,-1,53,12,25000,11.112,,,280,,,,,,,,,,0,wg-a,,,,AAXX 11144 07335 32675 72806 10220 20120 30065 40205 58010 700// 85802 91400=
07335,1999-08-11 15:00:00,22,1020.2,-1,50,11,25000,7.408,,,250,,,,,,,,,,0,wg-a,,,,AAXX 11154 07335 32675 72504 10220 20110 30062 40202 57010 700// 8523/ 91500=
07335,1999-08-11 18:00:00,20,1019.6,-0.7,68,14,0,7.408,,,20,12.3,22.5,,,,,,,,,wg-a,,,,AAXX 11184 07335 32/// /0204 10200 20140 30055 40196 56007 91800 333 10225 20123=
07335,1999-08-12 00:00:00,16,1019.2,-0.5,88,14,0,0,,,0,,,,,,,,,,,wg-a,,,,AAXX 12004 07335 32/// /0000 10160 20140 30050 40192 58005 90000=
07335,1999-08-12 05:00:00,14,1018.5,-0.3,100,14,15000,3.704,,,320,,,,,,,,,,0,wg-a,,,,AAXX 12054 07335 32765 83202 10140 20140 30042 40185 55003 700// 8457/ 90500=
07335,1999-08-12 06:00:00,15,1018.8,0.4,94,14,15000,3.704,,,340,14.1,20.1,,,,,,,,0,wg-a,,,,AAXX 12064 07335 12765 73402 10150 20140 30045 40188 53004 60004 700// 8453/ 90600 333 10201 20141=
07335,1999-08-12 07:00:00,16,1018.9,0.6,88,14,15000,7.408,,,360,,,,,,,,,,0,wg-a,,,,AAXX 12074 07335 32765 73604 10160 20140 30047 40189 53006 700// 8553/ 90700=
07335,1999-08-12 08:00:00,17,1019.3,0.9,82,14,15000,14.816,,,30,,,,,,,,,,0,wg-a,,,,AAXX 12084 07335 32765 70308 10170 20140 30051 40193 53009 700// 8553/ 90800=
07335,1999-08-12 09:00:00,18,1019.6,0.9,73,13,15000,3.704,,,60,,,,,,,,,,0,wg-a,,,,AAXX 12094 07335 32565 70602 10180 20130 30054 40196 53009 700// 8583/ 90900=
07335,1999-08-12 10:00:00,18,1019.5,0.7,73,13,15000,3.704,,,20,,,,,,,,,,0,wg-a,,,,AAXX 12104 07335 32565 70202 10180 20130 30054 40195 51007 700// 8583/ 91000=
07335,1999-08-12 11:00:00,20,1019.1,0,60,12,20000,3.704,,,10,,,,,,,,,,0,wg-a,,,,AAXX 12114 07335 32570 60102 10200 20120 30051 40191 50000 700// 82831 91100=
07335,1999-08-12 12:00:00,22,1018.8,-0.6,57,13,20000,11.112,,,360,,,,,,,,,,,wg-a,,,,AAXX 12124 07335 32670 63606 10220 20130 30048 40188 58006 84831 91200=
07335,1999-08-12 13:00:00,22,1018.5,-0.9,57,13,20000,14.816,,,360,,,,,,,,,,0,wg-a,,,,AAXX 12134 07335 32670 53608 10220 20130 30045 40185 57009 700// 83831 91300=
07335,1999-08-12 14:00:00,23,1017.9,-1.1,50,12,20000,11.112,,,340,,,,,,,,,,0,wg-a,,,,AAXX 12144 07335 32670 63406 10230 20120 30040 40179 58011 700// 84831 91400=
07335,1999-08-12 15:00:00,23,1017.5,-1.2,53,13,20000,11.112,,,350,,,,,,,,,,0,wg-a,,,,AAXX 12154 07335 32670 53506 10230 20130 30036 40175 58012 700// 84831 91500=
07335,1999-08-12 16:00:00,23,1017.7,-0.7,50,12,20000,18.52,,,30,,,,,,,,,,0,wg-a,,,,AAXX 12164 07335 32670 50310 10230 20120 30038 40177 55007 700// 84831 91600=
07335,1999-08-12 17:00:00,22,1017.6,-0.3,57,13,20000,18.52,,,30,,,,,,,,,,0,wg-a,,,,AAXX 12174 07335 32670 60310 10220 20130 30037 40176 56003 700// 8483/ 91700=
07335,1999-08-12 18:00:00,22,1017.7,0.2,57,13,0,14.816,,,20,14.9,23.7,,,,,,,,,wg-a,,,,AAXX 12184 07335 32/// /0208 10220 20130 30038 40177 51002 91800 333 10237 20149=
07335,1999-08-13 00:00:00,13,1018.8,-0.7,94,12,0,7.408,,,280,,,,,,,,,,,wg-a,,,,AAXX 13004 07335 32/// /2804 10130 20120 30044 40188 57007 90000=
07335,1999-08-13 04:00:00,11,1018.3,-0.5,94,10,15000,3.704,,,330,,,,,,,,,,0,wg-a,,,,AAXX 13044 07335 32/65 33302 10110 20100 30038 40183 56005 700// 81031 90400=
07335,1999-08-13 05:00:00,11,1017.9,-0.8,94,10,8000,0,,,0,,,,,,,,,,0,wg-a,,,,AAXX 13054 07335 32/58 /0000 10110 20100 30034 40179 57008 700// 81031 90500=
07335,1999-08-13 07:00:00,15,1018.2,0.1,100,15,7000,0,,,0,,,,,,,,,,0,wg-a,,,,AAXX 13074 07335 32/57 40000 10150 20150 30039 40182 53001 700// 81032 90700=
07335,1999-08-13 08:00:00,18,1018.2,0.7,77,14,9000,3.704,,,280,,,,,,,,,,0,wg-a,,,,AAXX 13084 07335 32/59 32802 10180 20140 30041 40182 51007 700// 81032 90800=
07335,1999-08-13 09:00:00,21,1018,0.2,64,14,12000,3.704,,,220,,,,,,,,,,0,wg-a,,,,AAXX 13094 07335 32562 22202 10210 20140 30040 40180 50002 700// 81132 90900=
07335,1999-08-13 10:00:00,22,1017.8,0,57,13,15000,11.112,,,310,,,,,,,,,,0,wg-a,,,,AAXX 13104 07335 32665 43106 10220 20130 30039 40178 50000 700// 84132 91000=
07335,1999-08-13 11:00:00,23,1017.4,-0.6,50,12,20000,3.704,,,230,,,,,,,,,,0,wg-a,,,,AAXX 13114 07335 32670 52302 10230 20120 30035 40174 58006 700// 84232 91100=
07335,1999-08-13 12:00:00,23,1016.9,-1,57,14,25000,7.408,,,320,,,,,,,,,,0,wg-a,,,,AAXX 13124 07335 32675 53204 10230 20140 30030 40169 58010 700// 84832 91200=
07335,1999-08-13 13:00:00,23,1016.4,-1.4,53,13,25000,7.408,,,340,,,,,,,,,,0,wg-a,,,,AAXX 13134 07335 32675 53404 10230 20130 30025 40164 58014 700// 84832 91300=
07335,1999-08-13 14:00:00,25,1015.9,-1.4,50,14,25000,11.112,,,210,,,,,,,,,,0,wg-a,,,,AAXX 13144 07335 32675 52106 10250 20140 30021 40159 56014 700// 84832 91400=
07335,1999-08-13 15:00:00,24,1015.5,-1.3,50,13,25000,7.408,,,290,,,,,,,,,,0,wg-a,,,,AAXX 13154 07335 32675 62904 10240 20130 30017 40155 56013 700// 85832 91500=
07335,1999-08-13 16:00:00,25,1014.9,-1.4,47,13,25000,7.408,,,260,,,,,,,,,,0,wg-a,,,,AAXX 13164 07335 32775 52604 10250 20130 30011 40149 58014 700// 83832 91600=
07335,1999-08-13 17:00:00,24,1014.7,-1.2,50,13,25000,18.52,,,280,,,,,,,,,,0,wg-a,,,,AAXX 13174 07335 32775 62810 10240 20130 30009 40147 56012 700// 82832 91700=
07335,1999-08-13 18:00:00,23,1014.3,-1.2,57,14,0,14.816,,,270,12.7,25,,,,,,,,,wg-a,,,,AAXX 13184 07335 32/// /2708 10230 20140 30005 40143 56012 91800 333 10250 20127=
07335,1999-08-14 00:00:00,15,1014.4,-0.7,94,14,0,11.112,,,220,,,,,,,,,,,wg-a,,,,AAXX 14004 07335 32/// /2206 10150 20140 30002 40144 58007 90000=
07335,1999-08-14 04:00:00,15,1012.5,-1.5,94,14,12000,7.408,,,210,,,,,,,,,,0,wg-a,,,,AAXX 14044 07335 32462 /2104 10150 20140 39983 40125 58015 700// 83532 90400=
07335,1999-08-14 05:00:00,15,1012.3,-1.3,100,15,10000,11.112,,,200,,,,,,,,,,0,wg-a,,,,AAXX 14054 07335 32460 72006 10150 20150 39981 40123 56013 700// 85532 90500=
07335,1999-08-14 06:00:00,16,1012.4,-0.7,94,15,6000,7.408,,,210,13.7,22.8,,0,,,,,,20,wg-a,,,,AAXX 14064 07335 02256 72104 10160 20150 39983 40124 55007 60004 72052 8653/ 90600 333 10228 20137 60007=
07335,1999-08-14 07:00:00,17,1012,-0.4,94,16,8000,14.816,,,210,,,,,,,,,,0,wg-a,,,,AAXX 14074 07335 32258 72108 10170 20160 39979 40120 58004 700// 875// 90700=
07335,1999-08-14 08:00:00,18,1012,-0.1,88,16,15000,18.52,,,240,,,,,,,,,,0,wg-a,,,,AAXX 14084 07335 32465 72410 10180 20160 39980 40120 58001 700// 8553/ 90800=
07335,1999-08-14 09:00:00,20,1011.6,-0.6,78,16,25000,25.928,,,240,,,,,,,,,,0,wg-a,,,,AAXX 14094 07335 32475 72414 10200 20160 39977 40116 56006 700// 872// 90900=
07335,1999-08-14 10:00:00,21,1011.1,-0.7,73,16,25000,29.632,,,230,,,,,,,,,,0,wg-a,,,,AAXX 14104 07335 32575 72316 10210 20160 39972 40111 58007 700// 878// 91000=
07335,1999-08-14 11:00:00,21,1010.5,-1.3,73,16,25000,31.484,,50.004,240,,,,,,,,,,0,wg-a,,,,AAXX 14114 07335 32575 82417 10210 20160 39967 40105 58013 700// 8687/ 91100 333 91027=
07335,1999-08-14 12:00:00,20,1010.5,-1.1,83,17,15000,35.188,,,250,,,,,,,,,,25,wg-a,,,,AAXX 14124 07335 02565 72519 10200 20170 39966 40105 56011 61000 72586 878// 91200 333 ////=
07335,1999-08-14 13:00:00,20,1010.6,-0.5,83,17,25000,35.188,,,250,,,,,,,,,,0,wg-a,,,,AAXX 14134 07335 32475 82519 10200 20170 39967 40106 55005 700// 875// 91300=
07335,1999-08-14 14:00:00,19,1010.5,-0.1,94,18,25000,31.484,,,240,,,0,,,,,,,25,wg-a,,,,AAXX 14144 07335 12275 82417 10190 20180 39966 40105 57001 60005 72522 875// 91400=
07335,1999-08-14 15:00:00,19,1010,-0.5,88,17,12000,31.484,,,240,,,,0,,,,,,3,wg-a,,,,AAXX 14154 07335 12262 82417 10190 20170 39961 40100 58005 60007 70386 885// 91500=
07335,1999-08-14 18:00:00,19,1009.4,-0.6,94,18,0,22.224,,,260,15.8,21.6,,1,,,,,,,wg-a,,,,AAXX 14184 07335 12/// /2612 10190 20180 39955 40094 56006 60017 91800 333 10216 20158=
07335,1999-08-15 00:00:00,15,1012.6,0.9,94,14,0,18.52,,,260,,,,,,,,,,,wg-a,,,,AAXX 15004 07335 32/// /2610 10150 20140 39984 40126 52009 90000=
07335,1999-08-15 04:00:00,11,1013.7,0.8,94,10,15000,11.112,,,240,,,,,,,,,,0,wg-a,,,,AAXX 15044 07335 32/65 22406 10110 20100 39993 40137 52008 700// 81032 90400=
07335,1999-08-15 05:00:00,12,1014.1,0.9,94,11,20000,7.408,,,230,,,0,,,,,,,0,wg-a,,,,AAXX 15054 07335 12770 62304 10120 20110 39997 40141 53009 60005 700// 83502 90500=
07335,1999-08-15 06:00:00,13,1014.3,1,100,13,20000,7.408,,,210,10.4,19.1,,0,,,1,,,0,wg-a,,,,AAXX 15064 07335 02770 72104 10130 20130 30000 40143 52010 60014 700// 85502 90600 333 10191 20104 60007=
07335,1999-08-15 07:00:00,14,1014.4,0.9,100,14,20000,7.408,,,250,,,,,,,,,,0,wg-a,,,,AAXX 15074 07335 32770 72504 10140 20140 30002 40144 51009 700// 875// 90700=
07335,1999-08-15 08:00:00,16,1014.3,0.5,88,14,20000,7.408,,,210,,,,,,,,,,0,wg-a,,,,AAXX 15084 07335 32470 72104 10160 20140 30002 40143 51005 700// 85832 90800=
07335,1999-08-15 09:00:00,18,1014.3,0.2,77,14,20000,11.112,,,230,,,,,,,,,,0,wg-a,,,,AAXX 15094 07335 32470 42306 10180 20140 30002 40143 51002 700// 82832 90900=
07335,1999-08-15 10:00:00,20,1014.2,-0,64,13,20000,14.816,,,240,,,,,,,,,,0,wg-a,,,,AAXX 15104 07335 32570 62408 10200 20130 30002 40142 54000 700// 85832 91000=
07335,1999-08-15 11:00:00,20,1013.9,-0.3,56,11,20000,14.816,,,250,,,,,,,,,,0,wg-a,,,,AAXX 15114 07335 32570 72508 10200 20110 39999 40139 58003 700// 85832 91100=
07335,1999-08-15 12:00:00,21,1013.4,-0.7,56,12,20000,14.816,,,210,,,,,,,,,,0,wg-a,,,,AAXX 15124 07335 32670 /2108 10210 20120 39995 40134 58007 700// 8683/ 91200=
07335,1999-08-15 13:00:00,22,1013.2,-0.9,53,12,20000,18.52,,,240,,,,,,,,,,0,wg-a,,,,AAXX 15134 07335 32670 /2410 10220 20120 39993 40132 56009 700// 86832 91300=
07335,1999-08-15 14:00:00,21,1013,-0.8,60,13,20000,22.224,,,270,,,,,,,,,,0,wg-a,,,,AAXX 15144 07335 32670 72712 10210 20130 39991 40130 56008 700// 8587/ 91400=
07335,1999-08-15 15:00:00,22,1012.7,-0.7,57,13,20000,18.52,,,280,,,,,,,,,,0,wg-a,,,,AAXX 15154 07335 32670 /2810 10220 20130 39988 40127 58007 700// 8587/ 91500=
07335,1999-08-15 18:00:00,20,1012.2,-0.6,60,12,0,14.816,,,270,13.2,22.3,,,,,,,,,wg-a,,,,AAXX 15184 07335 32/// /2708 10200 20120 39982 40122 55006 91800 333 10223 20132=
07335,1999-08-16 00:00:00,15,1011.8,-0.6,88,13,0,0,,,0,,,,,,,,,,,wg-a,,,,AAXX 16004 07335 32/// /0000 10150 20130 39976 40118 58006 90000=
07335,1999-08-16 04:00:00,14,1011.1,-0.7,94,13,15000,3.704,,,360,,,0,,,,,,,60,wg-a,,,,AAXX 16044 07335 12165 83602 10140 20130 39969 40111 58007 60005 76062 8777/ 90400=
07335,1999-08-16 05:00:00,14,1010.6,-1.1,94,13,15000,3.704,,,350,,,0,,,,,,,21,wg-a,,,,AAXX 16054 07335 12265 73502 10140 20130 39964 40106 58011 60005 72162 81772 90500=
07335,1999-08-16 06:00:00,14,1010.6,-1,100,14,15000,3.704,,,170,13.7,19.9,,1,,,1,,,1,wg-a,,,,AAXX 16064 07335 02365 71702 10140 20140 39964 40106 56010 60014 70162 8177/ 90600 333 10199 20137 60017=
07335,1999-08-16 07:00:00,15,1011,-0.1,94,14,15000,0,,,0,,,0,,,,,,,61,wg-a,,,,AAXX 16074 07335 12165 70000 10150 20140 39968 40110 55001 60005 76162 8477/ 90700=
07335,1999-08-16 08:00:00,16,1011.2,0.7,88,14,20000,3.704,,,190,,,,,,,,,,21,wg-a,,,,AAXX 16084 07335 02670 71902 10160 20140 39971 40112 53007 61000 72162 8357/ 90800 333 ////=
07335,1999-08-16 09:00:00,16,1011.5,1,88,14,12000,3.704,,,250,,,,0,,,,,,60,wg-a,,,,AAXX 16094 07335 12462 82502 10160 20140 39974 40115 51010 60007 76062 8657/ 90900=
07335,1999-08-16 10:00:00,16,1011.6,0.7,94,15,12000,7.408,,,230,,,0,,,,,,,61,wg-a,,,,AAXX 16104 07335 12362 82304 10160 20150 39975 40116 51007 60005 76166 8657/ 91000=
07335,1999-08-16 11:00:00,16,1011.3,0.1,94,15,15000,7.408,,,290,,,1,,,,,,,60,wg-a,,,,AAXX 16114 07335 12365 72904 10160 20150 39972 40113 50001 60015 76066 8652/ 91100=
07335,1999-08-16 12:00:00,16,1011.2,-0.3,88,14,20000,7.408,,,250,,,,1,,,,,,21,wg-a,,,,AAXX 16124 07335 12470 72504 10160 20140 39971 40112 58003 60017 72162 8322/ 91200=
07335,1999-08-16 13:00:00,18,1011,-0.5,83,15,25000,7.408,,,260,,,,,,,,,,0,wg-a,,,,AAXX 16134 07335 32475 72604 10180 20150 39970 40110 56005 700// 8323/ 91300=
07335,1999-08-16 14:00:00,19,1010.6,-0.5,78,15,500,14.816,,,260,,,,,,,,,,0,wg-a,,,,AAXX 16144 07335 32400 72608 10190 20150 39967 40106 58005 700// 8523/ 91400=
07335,1999-08-16 15:00:00,20,1010.4,-0.6,73,15,500,18.52,,,260,,,,,,,,,,0,wg-a,,,,AAXX 16154 07335 32500 72610 10200 20150 39965 40104 58006 700// 8623/ 91500=
07335,1999-08-16 16:00:00,20,1010.2,-0.7,73,15,500,18.52,,,250,,,,,,,,,,15,wg-a,,,,AAXX 16164 07335 32500 72510 10200 20150 39963 40102 56007 71522 8523/ 91600=
07335,1999-08-16 17:00:00,18,1010.4,-0.3,88,16,15000,22.224,,,280,,,,,,,,,,80,wg-a,,,,AAXX 16174 07335 02565 72812 10180 20160 39964 40104 55003 61000 78086 8533/ 91700 333 ////=
07335,1999-08-16 18:00:00,18,1010.4,-0.1,88,16,0,11.112,,,260,14.4,20.7,,,,,,,,,wg-a,,,,AAXX 16184 07335 32/// /2606 10180 20160 39964 40104 56001 91800 333 10207 20144=
07335,1999-08-17 00:00:00,13,1012.1,0.1,94,12,0,11.112,,,250,,,,,,,,,,,wg-a,,,,AAXX 17004 07335 32/// /2506 10130 20120 39978 40121 50001 90000=
07335,1999-08-17 04:00:00,12,1011.8,-0.1,100,12,12000,7.408,,,210,,,,,,,,,,0,wg-a,,,,AAXX 17044 07335 32/62 32104 10120 20120 39975 40118 56001 700// 83030 90400=
07335,1999-08-17 05:00:00,12,1012,0.4,100,12,20000,11.112,,,230,,,,,,,,,,0,wg-a,,,,AAXX 17054 07335 32/70 82306 10120 20120 39977 40120 52004 700// 86032 90500=
07335,1999-08-17 06:00:00,13,1012,0.2,94,12,20000,11.112,,,240,12,18.1,,,,,2,,,0,wg-a,,,,AAXX 17064 07335 12/70 82406 10130 20120 39977 40120 52002 60024 700// 8703/ 90600 333 10181 20120=
07335,1999-08-17 07:00:00,14,1012.1,0.3,94,13,20000,3.704,,,200,,,,,,,,,,0,wg-a,,,,AAXX 17074 07335 32/70 82002 10140 20130 39978 40121 51003 700// 8707/ 90700=
07335,1999-08-17 08:00:00,15,1012,0.1,88,13,10000,11.112,,,200,,,,,,,,,,,wg-a,,,,AAXX 17084 07335 32/60 /2006 10150 20130 39978 40120 52001 90800=
07335,1999-08-17 09:00:00,16,1012,0.2,88,14,20000,11.112,,,220,,,,,,,,,,0,wg-a,,,,AAXX 17094 07335 32870 72206 10160 20140 39979 40120 52002 700// 8157/ 90900=
07335,1999-08-17 10:00:00,18,1011.7,-0.1,73,13,20000,14.816,,,230,,,,,,,,,,0,wg-a,,,,AAXX 17104 07335 32570 72308 10180 20130 39977 40117 58001 700// 8387/ 91000=
07335,1999-08-17 11:00:00,19,1011.6,-0.2,68,13,20000,18.52,,,230,,,,,,,,,,0,wg-a,,,,AAXX 17114 07335 32570 72310 10190 20130 39976 40116 58002 700// 8683/ 91100=
07335,1999-08-17 12:00:00,20,1011,-0.8,64,13,20000,18.52,,,220,,,,,,,,,,0,wg-a,,,,AAXX 17124 07335 32570 72210 10200 20130 39971 40110 58008 700// 8583/ 91200=
07335,1999-08-17 13:00:00,20,1010.7,-0.9,68,14,20000,18.52,,,230,,,,,,,,,,0,wg-a,,,,AAXX 17134 07335 32570 72310 10200 20140 39968 40107 58009 700// 8583/ 91300=
07335,1999-08-17 14:00:00,22,1010.1,-1.4,53,12,20000,18.52,,,230,,,,,,,,,,0,wg-a,,,,AAXX 17144 07335 32670 72310 10220 20120 39962 40101 58014 700// 8483/ 91400=
07335,1999-08-17 15:00:00,22,1009.5,-1.4,46,10,20000,25.928,,,240,,,,,,,,,,0,wg-a,,,,AAXX 17154 07335 32670 72414 10220 20100 39957 40095 58014 700// 83232 91500=
07335,1999-08-17 16:00:00,21,1009.1,-1.6,53,11,20000,22.224,,,250,,,,,,,,,,0,wg-a,,,,AAXX 17164 07335 32670 72512 10210 20110 39952 40091 56016 700// 83232 91600=
07335,1999-08-17 17:00:00,21,1008.9,-1.2,56,12,20000,14.816,,,240,,,,,,,,,,0,wg-a,,,,AAXX 17174 07335 32670 72408 10210 20120 39950 40089 56012 700// 83232 91700=
07335,1999-08-17 18:00:00,20,1008.5,-1.1,56,11,0,22.224,,,260,12.6,22.4,,,,,,,,,wg-a,,,,AAXX 17184 07335 32/// /2612 10200 20110 39946 40085 56011 91800 333 10224 20126=
07335,1999-08-18 00:00:00,17,1006.3,-2.2,82,14,0,22.224,,,210,,,,,,,,,,,wg-a,,,,AAXX 18004 07335 32/// /2112 10170 20140 39923 40063 56022 90000=
07335,1999-08-18 04:00:00,18,1004.2,-1.4,83,15,12000,25.928,,,210,,,,,,,,,,60,wg-a,,,,AAXX 18044 07335 02562 72114 10180 20150 39903 40042 58014 61000 76062 878// 90400 333 ////=
07335,1999-08-18 05:00:00,16,1005.1,-0,94,15,20000,14.816,,,240,,,7,,,,,,,25,wg-a,,,,AAXX 18054 07335 12270 72408 10160 20150 39911 40051 55000 60075 72586 877// 90500=
07335,1999-08-18 06:00:00,16,1005.8,0.7,94,15,500,18.52,,,250,15.6,19.5,,7,,,7,,,1,wg-a,,,,AAXX 18064 07335 02200 22510 10160 20150 39917 40058 53007 60074 70186 82730 90600 333 10195 20156 60077=
07335,1999-08-18 07:00:00,17,1005.8,1.5,88,15,25000,14.816,,,220,,,,,,,,,,0,wg-a,,,,AAXX 18074 07335 32175 72208 10170 20150 39918 40058 51015 700// 877// 90700=
07335,1999-08-18 08:00:00,17,1006.1,1,94,16,25000,22.224,,,230,,,3,,,,,,,21,wg-a,,,,AAXX 18084 07335 12175 72312 10170 20160 39921 40061 51010 60035 72122 878// 90800=
07335,1999-08-18 09:00:00,17,1006.3,0.6,88,15,25000,25.928,,,250,,,,3,,,,,,15,wg-a,,,,AAXX 18094 07335 12175 /2514 10170 20150 39923 40063 53006 60037 71511 85800 90900=
07335,1999-08-18 10:00:00,20,1006.2,0.5,73,15,25000,35.188,,,250,,,0,,,,,,,0,wg-a,,,,AAXX 18104 07335 12475 72519 10200 20150 39923 40062 51005 60005 700// 878// 91000=
07335,1999-08-18 11:00:00,21,1006.3,0.4,64,14,25000,29.632,,50.004,260,,,,,,,,,,15,wg-a,,,,AAXX 18114 07335 32575 62616 10210 20140 39925 40063 52004 71522 86900 91100 333 91027=
07335,1999-08-18 12:00:00,20,1007.1,0.9,78,16,500,29.632,,,250,,,,1,,,,,,1,wg-a,,,,AAXX 18124 07335 12400 /2516 10200 20160 39932 40071 53009 60017 70161 85800 91200=
07335,1999-08-18 13:00:00,22,1007.4,1.3,57,13,500,35.188,,,260,,,,,,,,,,0,wg-a,,,,AAXX 18134 07335 32500 52619 10220 20130 39936 40074 53013 700// 85800 91300=
07335,1999-08-18 14:00:00,21,1008,1.6,60,13,500,35.188,,,270,,,,,,,,,,0,wg-a,,,,AAXX 18144 07335 32500 32719 10210 20130 39941 40080 51016 700// 83200 91400=
07335,1999-08-18 15:00:00,21,1008.3,1.3,56,12,500,35.188,,55.56,260,,,,,,,,,,0,wg-a,,,,AAXX 18154 07335 32600 22619 10210 20120 39945 40083 52013 700// 82201 91500 333 91030=
07335,1999-08-18 16:00:00,21,1009.1,1.6,53,11,500,38.892,,57.412,270,,,,,,,,,,0,wg-a,,,,AAXX 18164 07335 32600 32721 10210 20110 39952 40091 53016 700// 83201 91600 333 91031=
07335,1999-08-18 17:00:00,20,1009.8,1.8,56,11,500,35.188,,,260,,,,,,,,,,0,wg-a,,,,AAXX 18174 07335 32600 32619 10200 20110 39959 40098 53018 700// 83201 91700=
07335,1999-08-18 18:00:00,19,1010.7,2.2,56,10,0,31.484,,,260,15.9,21.9,,,,,,,,,wg-a,,,,AAXX 18184 07335 32/// /2617 10190 20100 39967 40107 53022 91800 333 10219 20159=
07335,1999-08-19 00:00:00,12,1014.5,0.9,94,11,0,11.112,,,240,,,,,,,,,,,wg-a,,,,AAXX 19004 07335 32/// /2406 10120 20110 30001 40145 53009 90000=
07335,1999-08-19 04:00:00,11,1015.7,1,94,10,20000,7.408,,,230,,,,,,,,,,0,wg-a,,,,AAXX 19044 07335 32/70 52304 10110 20100 30012 40157 51010 700// 80001 90400=
07335,1999-08-19 05:00:00,10,1015.8,0.7,100,10,20000,11.112,,,240,,,,,,,,,,0,wg-a,,,,AAXX 19054 07335 32/70 12406 10100 20100 30013 40158 51007 700// 81031 90500=
07335,1999-08-19 06:00:00,12,1016.1,0.8,100,12,20000,7.408,,,210,9.9,18.7,,,,,3,,,0,wg-a,,,,AAXX 19064 07335 12/70 32104 10120 20120 30017 40161 53008 60034 700// 81031 90600 333 10187 20099=
07335,1999-08-19 07:00:00,14,1016.4,0.9,100,14,25000,7.408,,,220,,,0,,,,,,,0,wg-a,,,,AAXX 19074 07335 12/75 12204 10140 20140 30021 40164 53009 60005 700// 81031 90700=
07335,1999-08-19 08:00:00,17,1016.8,1.3,82,14,25000,7.408,,,210,,,,,,,,,,0,wg-a,,,,AAXX 19084 07335 32475 /2104 10170 20140 30026 40168 53013 700// 81131 90800=
07335,1999-08-19 09:00:00,19,1016.9,1.1,68,13,500,18.52,,,250,,,,0,,,,,,0,wg-a,,,,AAXX 19094 07335 12500 32510 10190 20130 30028 40169 51011 60007 700// 83230 90900=
07335,1999-08-19 10:00:00,20,1016.8,0.7,56,11,500,14.816,,,250,,,,,,,,,,0,wg-a,,,,AAXX 19104 07335 32500 52508 10200 20110 30028 40168 51007 700// 84231 91000=
07335,1999-08-19 11:00:00,21,1016.9,0.3,53,11,500,18.52,,,250,,,,,,,,,,0,wg-a,,,,AAXX 19114 07335 32600 62510 10210 20110 30029 40169 51003 700// 84231 91100=
07335,1999-08-19 12:00:00,21,1016.6,-0.2,53,11,500,14.816,,,270,,,,,,,,,,0,wg-a,,,,AAXX 19124 07335 32600 72708 10210 20110 30026 40166 58002 700// 8323/ 91200=
07335,1999-08-19 13:00:00,21,1016.6,-0.2,56,12,500,18.52,,,300,,,,,,,,,,0,wg-a,,,,AAXX 19134 07335 32600 73010 10210 20120 30026 40166 58002 700// 8325/ 91300=
07335,1999-08-19 14:00:00,22,1016.3,-0.5,53,12,500,18.52,,,270,,,,,,,,,,0,wg-a,,,,AAXX 19144 07335 32600 52710 10220 20120 30024 40163 56005 700// 83230 91400=
07335,1999-08-19 15:00:00,22,1016.2,-0.3,50,11,500,22.224,,,290,,,,,,,,,,0,wg-a,,,,AAXX 19154 07335 32600 52912 10220 20110 30023 40162 58003 700// 83230 91500=
07335,1999-08-19 16:00:00,22,1016.3,-0.2,53,12,500,18.52,,,290,,,,,,,,,,0,wg-a,,,,AAXX 19164 07335 32600 52910 10220 20120 30024 40163 55002 700// 83230 91600=
07335,1999-08-19 17:00:00,22,1016.4,0.1,50,11,500,18.52,,,300,,,,,,,,,,0,wg-a,,,,AAXX 19174 07335 32600 23010 10220 20110 30025 40164 53001 700// 81231 91700=
07335,1999-08-19 18:00:00,20,1016.6,0.3,60,12,0,14.816,,,310,12,22.4,,,,,,,,,wg-a,,,,AAXX 19184 07335 32/// /3108 10200 20120 30026 40166 52003 91800 333 10224 20120=
07335,1999-08-20 00:00:00,11,1019.9,0.9,94,10,0,11.112,,,310,,,,,,,,,,,wg-a,,,,AAXX 20004 07335 32/// /3106 10110 20100 30054 40199 51009 90000=
07335,1999-08-20 04:00:00,8,1020.2,0.1,93,7,10000,0,,,0,,,,,,,,,,11,wg-a,,,,AAXX 20044 07335 32/60 /0000 10080 20070 30055 40202 50001 71100 80001 90400=
07335,1999-08-20 05:00:00,7,1020.3,0.1,100,7,8000,3.704,,,220,,,,,,,,,,11,wg-a,,,,AAXX 20054 07335 32/58 /2202 10070 20070 30056 40203 52001 71100 80001 90500=
07335,1999-08-20 06:00:00,9,1020.4,0.2,93,8,8000,3.704,,,320,6.2,20.1,,,,,,,,11,wg-a,,,,AAXX 20064 07335 12/58 33202 10090 20080 30058 40204 53002 60004 71100 80001 90600 333 10201 20062=
07335,1999-08-20 07:00:00,12,1020.7,0.8,100,12,8000,7.408,,,10,,,,,,,,,,0,wg-a,,,,AAXX 20074 07335 32058 30104 10120 20120 30063 40207 53008 700// 81101 90700=
07335,1999-08-20 08:00:00,15,1021,1.1,94,14,15000,7.408,,,20,,,,,,,,,,0,wg-a,,,,AAXX 20084 07335 32265 30204 10150 20140 30067 40210 53011 700// 81102 90800=
07335,1999-08-20 09:00:00,17,1021.1,1.1,77,13,20000,7.408,,,20,,,,,,,,,,0,wg-a,,,,AAXX 20094 07335 32470 30204 10170 20130 30069 40211 51011 700// 81102 90900=
07335,1999-08-20 12:00:00,21,1020.4,-0.5,46,9,500,7.408,,,80,,,,,,,,,,0,wg-a,,,,AAXX 20124 07335 32600 20804 10210 20090 30064 40204 58005 700// 82201 91200=
07335,1999-08-20 15:00:00,23,1019.7,-0.6,38,8,500,11.112,,,40,,,,,,,,,,0,wg-a,,,,AAXX 20154 07335 32700 20406 10230 20080 30058 40197 58006 700// 82201 91500=
07335,1999-08-20 18:00:00,22,1019.3,-0.5,43,9,0,14.816,,,30,8.8,23.4,,,,,,,,,wg-a,,,,AAXX 20184 07335 32/// /0308 10220 20090 30053 40193 58005 91800 333 10234 20088=
07335,1999-08-21 00:00:00,13,1020.7,0,82,10,0,7.408,,,20,,,,,,,,,,,wg-a,,,,AAXX 21004 07335 32/// /0204 10130 20100 30063 40207 50000 90000=
07335,1999-08-21 04:00:00,10,1020,-0.5,93,9,20000,3.704,,,20,,,,,,,,,,0,wg-a,,,,AAXX 21044 07335 32/70 10202 10100 20090 30055 40200 56005 700// 81030 90400=
07335,1999-08-21 05:00:00,10,1020.3,-0.1,93,9,20000,3.704,,,340,,,,,,,,,,0,wg-a,,,,AAXX 21054 07335 32/70 23402 10100 20090 30057 40203 55001 700// 82030 90500=
07335,1999-08-21 06:00:00,11,1020.2,0.1,94,10,20000,7.408,,,350,9.8,22.3,,,,,,,,0,wg-a,,,,AAXX 21064 07335 12/70 23504 10110 20100 30057 40202 53001 60004 700// 82030 90600 333 10223 20098=
07335,1999-08-21 07:00:00,15,1020.1,0.3,72,10,10000,3.704,,,60,,,,,,,,,,,wg-a,,,,AAXX 21074 07335 32/60 /0602 10150 20100 30058 40201 51003 90700=
07335,1999-08-21 08:00:00,18,1020.1,0.2,64,11,500,7.408,,,80,,,,,,,,,,0,wg-a,,,,AAXX 21084 07335 32/00 20804 10180 20110 30059 40201 53002 700// 82030 90800=
07335,1999-08-21 09:00:00,21,1020.1,0.4,53,11,500,11.112,,,80,,,,,,,,,,0,wg-a,,,,AAXX 21094 07335 32/00 20806 10210 20110 30061 40201 53004 700// 82030 90900=
07335,1999-08-21 10:00:00,23,1019.9,0.2,44,10,500,11.112,,,100,,,,,,,,,,0,wg-a,,,,AAXX 21104 07335 32/00 21006 10230 20100 30060 40199 50002 700// 82030 91000=
07335,1999-08-21 11:00:00,23,1019.6,-0.2,44,10,500,18.52,,,70,,,,,,,,,,0,wg-a,,,,AAXX 21114 07335 32600 20710 10230 20100 30057 40196 58002 700// 81130 91100=
07335,1999-08-21 12:00:00,24,1019.6,-0.4,36,8,500,18.52,,,80,,,,,,,,,,0,wg-a,,,,AAXX 21124 07335 32700 20810 10240 20080 30057 40196 56004 700// 81130 91200=
07335,1999-08-21 13:00:00,24,1019,-0.9,36,8,500,22.224,,,80,,,,,,,,,,0,wg-a,,,,AAXX 21134 07335 32700 20812 10240 20080 30051 40190 58009 700// 81130 91300=
07335,1999-08-21 14:00:00,25,1018.6,-0.9,34,8,500,18.52,,,60,,,,,,,,,,0,wg-a,,,,AAXX 21144 07335 32700 20610 10250 20080 30048 40186 58009 700// 81131 91400=
07335,1999-08-21 15:00:00,25,1018.3,-1.2,34,8,500,18.52,,,80,,,,,,,,,,0,wg-a,,,,AAXX 21154 07335 32700 20810 10250 20080 30045 40183 56012 700// 81132 91500=
07335,1999-08-21 18:00:00,24,1017.8,-0.6,38,9,0,18.52,,,70,11.2,25.4,,,,,,,,,wg-a,,,,AAXX 21184 07335 32/// /0710 10240 20090 30039 40178 56006 91800 333 10254 20112=
07335,1999-08-22 00:00:00,17,1019.1,0,63,10,0,11.112,,,60,,,,,,,,,,,wg-a,,,,AAXX 22004 07335 32/// /0606 10170 20100 30049 40191 50000 90000=
07335,1999-08-22 04:00:00,14,1018.3,-0.9,72,9,12000,7.408,,,60,,,,,,,,,,0,wg-a,,,,AAXX 22044 07335 32/62 00604 10140 20090 30039 40183 56009 700// 80000 90400=
07335,1999-08-22 05:00:00,13,1018.2,-0.4,77,9,12000,7.408,,,50,,,,,,,,,,0,wg-a,,,,AAXX 22054 07335 32/62 40504 10130 20090 30038 40182 58004 700// 81032 90500=
07335,1999-08-22 06:00:00,12,1018.3,-0.3,88,10,25000,7.408,,,20,12,23.5,,,,,,,,0,wg-a,,,,AAXX 22064 07335 12/75 40204 10120 20100 30039 40183 55003 60004 700// 81032 90600 333 10235 20120=
07335,1999-08-22 07:00:00,14,1018,-0.2,77,10,25000,7.408,,,50,,,,,,,,,,0,wg-a,,,,AAXX 22074 07335 32/75 60504 10140 20100 30037 40180 58002 700// 83032 90700=
07335,1999-08-22 08:00:00,16,1017.9,-0.1,68,10,25000,11.112,,,70,,,,,,,,,,0,wg-a,,,,AAXX 22084 07335 32/75 50706 10160 20100 30037 40179 58001 700// 81032 90800=
07335,1999-08-22 09:00:00,19,1017.6,-0.4,60,11,25000,11.112,,,80,,,,,,,,,,0,wg-a,,,,AAXX 22094 07335 32/75 60806 10190 20110 30035 40176 57004 700// 80002 90900=
07335,1999-08-22 10:00:00,22,1017.1,-0.5,53,12,500,14.816,,,100,,,,,,,,,,0,wg-a,,,,AAXX 22104 07335 32/00 61008 10220 20120 30032 40171 58005 700// 80002 91000=
07335,1999-08-22 11:00:00,24,1016.8,-0.8,41,10,500,14.816,,,90,,,,,,,,,,0,wg-a,,,,AAXX 22114 07335 32/00 60908 10240 20100 30029 40168 58008 700// 80002 91100=
07335,1999-08-22 12:00:00,25,1016.4,-0.9,39,10,500,18.52,,,110,,,,,,,,,,0,wg-a,,,,AAXX 22124 07335 32/00 31110 10250 20100 30026 40164 57009 700// 80002 91200=
07335,1999-08-22 13:00:00,26,1016,-1,39,11,500,14.816,,,90,,,,,,,,,,0,wg-a,,,,AAXX 22134 07335 32/00 20908 10260 20110 30022 40160 58010 700// 80002 91300=
07335,1999-08-22 14:00:00,27,1015.5,-1.1,37,11,500,11.112,,,130,,,,,,,,,,0,wg-a,,,,AAXX 22144 07335 32/00 11306 10270 20110 30018 40155 58011 700// 80002 91400=
07335,1999-08-22 15:00:00,27,1015.1,-1.2,37,11,500,11.112,,29.632,110,,,,,,,,,,0,wg-a,,,,AAXX 22154 07335 32/00 11106 10270 20110 30014 40151 57012 700// 80002 91500 333 91016=
07335,1999-08-22 18:00:00,26,1014.6,-0.5,39,11,0,11.112,,,60,12.2,27.2,,,,,,,,,wg-a,,,,AAXX 22184 07335 32/// /0606 10260 20110 30009 40146 58005 91800 333 10272 20122=
07335,1999-08-23 00:00:00,18,1015.2,-0.5,68,12,0,3.704,,,30,,,,,,,,,,,wg-a,,,,AAXX 23004 07335 32/// /0302 10180 20120 30011 40152 58005 90000=
07335,1999-08-23 04:00:00,16,1015.1,-0.2,82,13,20000,7.408,,,210,,,,,,,,,,0,wg-a,,,,AAXX 23044 07335 32/70 72104 10160 20130 30009 40151 58002 700// 8707/ 90400=
07335,1999-08-23 05:00:00,16,1015.5,0.2,88,14,20000,11.112,,,230,,,,,,,,,,0,wg-a,,,,AAXX 23054 07335 32/70 72306 10160 20140 30013 40155 53002 700// 8707/ 90500=
07335,1999-08-23 06:00:00,17,1015.9,0.7,88,15,20000,14.816,,,240,15.1,25.7,,,,,,,,0,wg-a,,,,AAXX 23064 07335 12/70 72408 10170 20150 30017 40159 53007 60004 700// 8707/ 90600 333 10257 20151=
07335,1999-08-23 07:00:00,18,1015.9,0.9,83,15,20000,11.112,,,260,,,,,,,,,,0,wg-a,,,,AAXX 23074 07335 32/70 72606 10180 20150 30018 40159 51009 700// 8707/ 90700=
07335,1999-08-23 08:00:00,18,1016.1,0.7,88,16,25000,11.112,,,260,,,,,,,,,,0,wg-a,,,,AAXX 23084 07335 32/75 72606 10180 20160 30020 40161 51007 700// 8707/ 90800=
07335,1999-08-23 09:00:00,20,1016.5,0.8,83,17,25000,11.112,,,220,,,,,,,,,,21,wg-a,,,,AAXX 23094 07335 32/75 72206 10200 20170 30025 40165 53008 72122 8707/ 90900=
07335,1999-08-23 10:00:00,21,1016.3,0.6,83,18,25000,14.816,,,240,,,,,,,,,,0,wg-a,,,,AAXX 23104 07335 32475 72408 10210 20180 30024 40163 50006 700// 8127/ 91000=
07335,1999-08-23 11:00:00,21,1016.4,0.5,78,17,25000,14.816,,,240,,,,,,,,,,0,wg-a,,,,AAXX 23114 07335 32475 72408 10210 20170 30025 40164 51005 700// 8127/ 91100=
07335,1999-08-23 12:00:00,22,1016.6,0.2,69,16,25000,11.112,,,260,,,,,,,,,,1,wg-a,,,,AAXX 23124 07335 32575 72606 10220 20160 30027 40166 53002 70162 8127/ 91200=
07335,1999-08-23 13:00:00,24,1016.3,0.1,61,16,500,11.112,,,260,,,,,,,,,,0,wg-a,,,,AAXX 23134 07335 32500 72606 10240 20160 30025 40163 50001 700// 8223/ 91300=
07335,1999-08-23 14:00:00,25,1015.8,-0.4,54,15,500,11.112,,,270,,,,,,,,,,0,wg-a,,,,AAXX 23144 07335 32600 72706 10250 20150 30021 40158 58004 700// 8223/ 91400=
07335,1999-08-23 15:00:00,26,1015.4,-1,54,16,500,7.408,,,230,,,,,,,,,,0,wg-a,,,,AAXX 23154 07335 32600 72304 10260 20160 30017 40154 58010 700// 8223/ 91500=
07335,1999-08-23 16:00:00,26,1015.1,-1.1,51,15,500,14.816,,,310,,,,,,,,,,0,wg-a,,,,AAXX 23164 07335 32600 /3108 10260 20150 30014 40151 56011 700// 82230 91600=
07335,1999-08-23 17:00:00,24,1015.2,-0.7,54,14,500,11.112,,,310,,,,,,,,,,0,wg-a,,,,AAXX 23174 07335 32600 73106 10240 20140 30014 40152 56007 700// 8223/ 91700=
07335,1999-08-23 18:00:00,23,1015.2,-0.3,61,15,0,7.408,,,310,16.6,25.9,,,,,,,,,wg-a,,,,AAXX 23184 07335 32/// /3104 10230 20150 30014 40152 56003 91800 333 10259 20166=
07335,1999-08-24 00:00:00,15,1015.8,-0.6,94,14,0,3.704,,,210,,,,,,,,,,,wg-a,,,,AAXX 24004 07335 32/// /2102 10150 20140 30016 40158 57006 90000=
07335,1999-08-24 04:00:00,12,1015,-0.6,94,11,20000,0,,,0,,,,,,,,,,0,wg-a,,,,AAXX 24044 07335 32/70 00000 10120 20110 30006 40150 58006 700// 80000 90400=
07335,1999-08-24 05:00:00,12,1015.2,-0.3,94,11,20000,0,,,0,,,,,,,,,,11,wg-a,,,,AAXX 24054 07335 32/70 /0000 10120 20110 30008 40152 55003 71100 80001 90500=
07335,1999-08-24 06:00:00,14,1014.9,-0.2,94,13,20000,3.704,,,20,11.5,23,,,,,,,,0,wg-a,,,,AAXX 24064 07335 32/70 00202 10140 20130 30006 40149 57002 700// 80000 90600 333 10230 20115=
07335,1999-08-24 07:00:00,18,1014.8,0.1,88,16,20000,3.704,,,80,,,,,,,,,,0,wg-a,,,,AAXX 24074 07335 32/70 00802 10180 20160 30007 40148 51001 700// 80000 90700=
07335,1999-08-24 08:00:00,21,1014.7,-0,78,17,20000,3.704,,,70,,,,,,,,,,0,wg-a,,,,AAXX 24084 07335 32/70 00702 10210 20170 30008 40147 55000 700// 80000 90800=
07335,1999-08-24 09:00:00,24,1014.6,0.2,65,17,20000,11.112,,,100,,,,,,,,,,0,wg-a,,,,AAXX 24094 07335 32/70 01006 10240 20170 30008 40146 51002 700// 80000 90900=
07335,1999-08-24 10:00:00,26,1014.2,-0.2,54,16,20000,14.816,,,90,,,,,,,,,,0,wg-a,,,,AAXX 24104 07335 32/70 00908 10260 20160 30005 40142 58002 700// 80000 91000=
07335,1999-08-24 11:00:00,28,1014.2,-0.2,48,16,20000,14.816,,,120,,,,,,,,,,0,wg-a,,,,AAXX 24114 07335 32/70 01208 10280 20160 30006 40142 55002 700// 80000 91100=
07335,1999-08-24 12:00:00,29,1013.6,-0.8,40,14,20000,11.112,,,110,,,,,,,,,,0,wg-a,,,,AAXX 24124 07335 32/70 01106 10290 20140 30000 40136 58008 700// 80000 91200=
07335,1999-08-24 13:00:00,30,1012.8,-1.2,38,14,20000,11.112,,,120,,,,,,,,,,0,wg-a,,,,AAXX 24134 07335 32/70 01206 10300 20140 39993 40128 58012 700// 80000 91300=
07335,1999-08-24 14:00:00,31,1012.3,-1.8,36,14,20000,11.112,,,140,,,,,,,,,,0,wg-a,,,,AAXX 24144 07335 32/70 21406 10310 20140 39988 40123 56018 700// 82080 91400=
07335,1999-08-24 15:00:00,31,1012,-1.4,36,14,20000,7.408,,,130,,,,,,,,,,0,wg-a,,,,AAXX 24154 07335 32/70 21304 10310 20140 39986 40120 56014 700// 82080 91500=
07335,1999-08-24 16:00:00,31,1011.7,-1,38,15,20000,7.408,,,70,,,,,,,,,,0,wg-a,,,,AAXX 24164 07335 32/70 30704 10310 20150 39983 40117 56010 700// 83080 91600=
07335,1999-08-24 17:00:00,30,1011,-1.2,40,15,20000,14.816,,,90,,,,,,,,,,0,wg-a,,,,AAXX 24174 07335 32/70 30908 10300 20150 39976 40110 58012 700// 83080 91700=
07335,1999-08-24 18:00:00,30,1011.6,-0.5,40,15,0,7.408,,,60,13.7,31.7,,,,,,,,,wg-a,,,,AAXX 24184 07335 32/// /0604 10300 20150 39981 40116 55005 91800 333 10317 20137=
07335,1999-08-25 00:00:00,17,1012.2,-0.4,94,16,0,3.704,,,210,,,,,,,,,,,wg-a,,,,AAXX 25004 07335 32/// /2102 10170 20160 39981 40122 57004 90000=
07335,1999-08-25 04:00:00,19,1010.8,-1,88,17,15000,7.408,,,150,,,,,,,,,,0,wg-a,,,,AAXX 25044 07335 32/65 01504 10190 20170 39969 40108 56010 700// 80000 90400=
07335,1999-08-25 05:00:00,17,1010.3,-1.1,94,16,15000,7.408,,,20,,,,,,,,,,0,wg-a,,,,AAXX 25054 07335 32/65 20204 10170 20160 39963 40103 58011 700// 81031 90500=
07335,1999-08-25 06:00:00,18,1010.4,-0.8,100,18,12000,7.408,,,140,16.3,29.9,,,,,,,,0,wg-a,,,,AAXX 25064 07335 12/62 41404 10180 20180 39964 40104 55008 60004 700// 82081 90600 333 10299 20163=
07335,1999-08-25 07:00:00,21,1010.2,-0.5,88,19,12000,3.704,,,150,,,,,,,,,,0,wg-a,,,,AAXX 25074 07335 32/62 41502 10210 20190 39964 40102 56005 700// 82081 90700=
07335,1999-08-25 08:00:00,25,1010.1,0.2,69,19,12000,7.408,,,190,,,,,,,,,,0,wg-a,,,,AAXX 25084 07335 32/62 31904 10250 20190 39965 40101 52002 700// 82081 90800=
07335,1999-08-25 09:00:00,27,1009.8,-0.2,58,18,15000,22.224,,,200,,,,,,,,,,0,wg-a,,,,AAXX 25094 07335 32/65 22012 10270 20180 39962 40098 58002 700// 81081 90900=
07335,1999-08-25 10:00:00,30,1009.6,-0.2,52,19,15000,25.928,,,200,,,,,,,,,,0,wg-a,,,,AAXX 25104 07335 32/65 22014 10300 20190 39962 40096 58002 700// 81081 91000=
07335,1999-08-25 11:00:00,32,1009.3,-0.5,46,19,15000,29.632,,,220,,,,,,,,,,0,wg-a,,,,AAXX 25114 07335 32/65 42216 10320 20190 39960 40093 56005 700// 83081 91100=
07335,1999-08-25 12:00:00,32,1009.6,0.1,46,19,20000,25.928,,,230,,,,,,,,,,0,wg-a,,,,AAXX 25124 07335 32670 42314 10320 20190 39963 40096 53001 700// 81281 91200=
07335,1999-08-25 13:00:00,32,1009.5,-0,46,19,20000,25.928,,,220,,,,,,,,,,0,wg-a,,,,AAXX 25134 07335 32670 42214 10320 20190 39962 40095 55000 700// 81281 91300=
07335,1999-08-25 14:00:00,32,1009.7,0.4,49,20,20000,25.928,,,230,,,,,,,,,,0,wg-a,,,,AAXX 25144 07335 32670 42314 10320 20200 39964 40097 51004 700// 81381 91400=
07335,1999-08-25 15:00:00,31,1010.2,0.5,55,21,20000,22.224,,,240,,,,,,,,,,0,wg-a,,,,AAXX 25154 07335 32670 42412 10310 20210 39968 40102 53005 700// 81381 91500=
07335,1999-08-25 16:00:00,30,1010.3,0.7,59,21,20000,18.52,,,250,,,,,,,,,,0,wg-a,,,,AAXX 25164 07335 32870 62510 10300 20210 39969 40103 51007 700// 84081 91600=
07335,1999-08-25 17:00:00,28,1010.9,1,62,20,20000,22.224,,,250,,,,,,,,,,0,wg-a,,,,AAXX 25174 07335 32870 72512 10280 20200 39974 40109 53010 700// 85081 91700=
07335,1999-08-25 18:00:00,26,1011,0.6,70,20,0,14.816,,,240,18.4,32.7,,,,,,,,,wg-a,,,,AAXX 25184 07335 32/// /2408 10260 20200 39974 40110 51006 91800 333 10327 20184=
07335,1999-08-26 00:00:00,19,1013.7,0.2,94,18,0,3.704,,,210,,,,,,,,,,,wg-a,,,,AAXX 26004 07335 32/// /2102 10190 20180 39997 40137 53002 90000=
07335,1999-08-26 06:00:00,16,1015.7,1.4,100,16,6000,3.704,,,250,16.3,26.4,,,,,,,,11,wg-a,,,,AAXX 26064 07335 12/56 32502 10160 20160 30015 40157 53014 60004 71111 81081 90600 333 10264 20163=
07335,1999-08-26 09:00:00,22,1016.5,1.1,73,17,25000,11.112,,,300,,,,,,,,,,0,wg-a,,,,AAXX 26094 07335 32575 73006 10220 20170 30026 40165 53011 700// 872// 90900=
07335,1999-08-26 12:00:00,26,1016.1,-0.2,51,15,25000,14.816,,,250,,,,,,,,,,0,wg-a,,,,AAXX 26124 07335 32675 42508 10260 20150 30024 40161 58002 700// 84200 91200=
07335,1999-08-26 14:00:00,26,1016.2,-0.2,54,16,25000,14.816,,,270,,,,,,,,,,0,wg-a,,,,AAXX 26144 07335 32675 /2708 10260 20160 30025 40162 56002 700// 86200 91400=
07335,1999-08-26 15:00:00,26,1015.9,-0.2,54,16,25000,14.816,,,280,,,,,,,,,,0,wg-a,,,,AAXX 26154 07335 32675 42808 10260 20160 30022 40159 58002 700// 84201 91500=
07335,1999-08-26 16:00:00,26,1015.9,-0.3,54,16,25000,18.52,,,280,,,,,,,,,,0,wg-a,,,,AAXX 26164 07335 32675 32810 10260 20160 30022 40159 57003 700// 83201 91600=
07335,1999-08-26 17:00:00,26,1016.2,-0,51,15,25000,18.52,,,270,,,,,,,,,,0,wg-a,,,,AAXX 26174 07335 32675 42710 10260 20150 30025 40162 55000 700// 84800 91700=
07335,1999-08-27 00:00:00,17,1019.4,0.8,77,13,0,7.408,,,330,,,,,,,,,,,wg-a,,,,AAXX 27004 07335 32/// /3304 10170 20130 30052 40194 51008 90000=
07335,1999-08-27 05:00:00,13,1019.6,-0.2,94,12,20000,3.704,,,260,,,,,,,,,,0,wg-a,,,,AAXX 27054 07335 32770 72602 10130 20120 30052 40196 55002 700// 82532 90500=
07335,1999-08-27 06:00:00,13,1019.7,0.1,100,13,20000,3.704,,,270,12.2,24.4,,,,,,,,0,wg-a,,,,AAXX 27064 07335 12770 72702 10130 20130 30053 40197 53001 60004 700// 83532 90600 333 10244 20122=
07335,1999-08-27 07:00:00,16,1020,0.6,88,14,20000,11.112,,,330,,,,,,,,,,0,wg-a,,,,AAXX 27074 07335 32770 43306 10160 20140 30057 40200 53006 700// 82532 90700=
07335,1999-08-27 08:00:00,18,1020.2,0.8,83,15,20000,11.112,,,10,,,,,,,,,,0,wg-a,,,,AAXX 27084 07335 32770 30106 10180 20150 30060 40202 53008 700// 81532 90800=
07335,1999-08-27 09:00:00,20,1020.5,1.1,73,15,25000,7.408,,,10,,,,,,,,,,0,wg-a,,,,AAXX 27094 07335 32775 20104 10200 20150 30064 40205 52011 700// 81532 90900=
07335,1999-08-27 10:00:00,22,1020.3,0.6,65,15,25000,11.112,,,330,,,,,,,,,,0,wg-a,,,,AAXX 27104 07335 32575 43306 10220 20150 30063 40203 50006 700// 82832 91000=
07335,1999-08-27 11:00:00,23,1020,0.1,53,13,25000,14.816,,,360,,,,,,,,,,0,wg-a,,,,AAXX 27114 07335 32575 43608 10230 20130 30061 40200 50001 700// 82832 91100=
07335,1999-08-27 12:00:00,24,1019.5,-0.8,50,13,25000,14.816,,,40,,,,,,,,,,0,wg-a,,,,AAXX 27124 07335 32675 40408 10240 20130 30056 40195 58008 700// 82182 91200=
07335,1999-08-27 15:00:00,26,1019,-0.4,42,12,25000,14.816,,,360,,,,,,,,,,0,wg-a,,,,AAXX 27154 07335 32775 53608 10260 20120 30052 40190 58004 700// 81182 91500=
07335,1999-08-27 18:00:00,24,1019.5,0.4,44,11,0,14.816,,,20,13.3,25.8,,,,,,,,,wg-a,,,,AAXX 27184 07335 32/// /0208 10240 20110 30056 40195 53004 91800 333 10258 20133=
07335,1999-08-28 00:00:00,18,1021.6,0.3,68,12,0,7.408,,,360,,,,,,,,,,,wg-a,,,,AAXX 28004 07335 32/// /3604 10180 20120 30074 40216 53003 90000=
07335,1999-08-28 06:00:00,13,1022.6,0.7,94,12,12000,7.408,,,340,11.9,23.6,,,,,,,,0,wg-a,,,,AAXX 28064 07335 12/62 13404 10130 20120 30082 40226 53007 60004 700// 81032 90600 333 10236 20119=
07335,1999-08-28 09:00:00,21,1022.5,0.2,60,13,10000,18.52,,,40,,,,,,,,,,0,wg-a,,,,AAXX 28094 07335 32/60 /0410 10210 20130 30084 40225 52002 700// 90900=
07335,1999-08-28 12:00:00,24,1021.3,-1,50,13,25000,14.816,,,50,,,,,,,,,,0,wg-a,,,,AAXX 28124 07335 32675 30508 10240 20130 30074 40213 58010 700// 83201 91200=
07335,1999-08-28 15:00:00,25,1020.3,-0.9,44,12,500,18.52,,,50,,,,,,,,,,0,wg-a,,,,AAXX 28154 07335 32700 30510 10250 20120 30065 40203 58009 700// 83231 91500=
07335,1999-08-28 18:00:00,25,1019.9,-0.5,41,11,0,18.52,,,40,13,25.9,,,,,,,,,wg-a,,,,AAXX 28184 07335 32/// /0410 10250 20110 30060 40199 55005 91800 333 10259 20130=
07335,1999-08-29 00:00:00,15,1020.9,-0.6,82,12,0,11.112,,,350,,,,,,,,,,,wg-a,,,,AAXX 29004 07335 32/// /3506 10150 20120 30066 40209 58006 90000=
07335,1999-08-29 06:00:00,12,1020.5,0.2,94,11,25000,7.408,,,350,10.4,24.5,,,,,,,,0,wg-a,,,,AAXX 29064 07335 12/75 13504 10120 20110 30060 40205 52002 60004 700// 80001 90600 333 10245 20104=
07335,1999-08-29 09:00:00,21,1020.1,0.1,56,12,25000,11.112,,,60,,,,,,,,,,0,wg-a,,,,AAXX 29094 07335 32/75 10606 10210 20120 30061 40201 51001 700// 80001 90900=
07335,1999-08-29 12:00:00,25,1019.2,-0.7,44,12,25000,14.816,,,20,,,,,,,,,,0,wg-a,,,,AAXX 29124 07335 32675 /0208 10250 20120 30054 40192 56007 700// 81101 91200=
07335,1999-08-29 15:00:00,27,1017.9,-1.2,37,11,25000,11.112,,,80,,,,,,,,,,0,wg-a,,,,AAXX 29154 07335 32/75 20806 10270 20110 30042 40179 57012 700// 80001 91500=
07335,1999-08-29 18:00:00,24,1018.1,0.1,44,11,0,14.816,,,360,11.7,26.6,,,,,,,,,wg-a,,,,AAXX 29184 07335 32/// /3608 10240 20110 30043 40181 53001 91800 333 10266 20117=
07335,1999-08-30 00:00:00,15,1019.1,-0.1,82,12,0,3.704,,,340,,,,,,,,,,,wg-a,,,,AAXX 30004 07335 32/// /3402 10150 20120 30048 40191 58001 90000=
07335,1999-08-30 06:00:00,12,1019,0.1,94,11,15000,3.704,,,330,10.9,24.1,,,,,,,,0,wg-a,,,,AAXX 30064 07335 12/65 73302 10120 20110 30045 40190 53001 60004 700// 82032 90600 333 10241 20109=
07335,1999-08-30 09:00:00,21,1019.4,0.9,60,13,25000,7.408,,,30,,,,,,,,,,0,wg-a,,,,AAXX 30094 07335 32/75 50304 10210 20130 30054 40194 51009 700// 81032 90900=
07335,1999-08-30 12:00:00,25,1018,-1.2,41,11,500,11.112,,,60,,,,,,,,,,0,wg-a,,,,AAXX 30124 07335 32700 10606 10250 20110 30042 40180 58012 700// 81101 91200=
07335,1999-08-30 14:00:00,27,1017.2,-1.4,34,10,500,11.112,,,30,,,,,,,,,,0,wg-a,,,,AAXX 30144 07335 32800 10306 10270 20100 30035 40172 56014 700// 81101 91400=
07335,1999-08-30 15:00:00,27,1016.8,-1.1,34,10,500,11.112,,,60,,,,,,,,,,0,wg-a,,,,AAXX 30154 07335 32800 10606 10270 20100 30031 40168 58011 700// 81101 91500=
07335,1999-08-30 16:00:00,27,1016.6,-1,34,10,500,11.112,,,30,,,,,,,,,,0,wg-a,,,,AAXX 30164 07335 32800 10306 10270 20100 30029 40166 56010 700// 81101 91600=
07335,1999-08-30 17:00:00,26,1016.6,-0.6,37,10,500,11.112,,,20,,,,,,,,,,0,wg-a,,,,AAXX 30174 07335 32800 40206 10260 20100 30029 40166 56006 700// 83401 91700=
07335,1999-08-30 18:00:00,25,1016.8,-0.1,41,11,0,18.52,,,20,11.6,27,,,,,,,,,wg-a,,,,AAXX 30184 07335 32/// /0210 10250 20110 30030 40168 55001 91800 333 10270 20116=
07335,1999-08-31 00:00:00,14,1018.5,-0.1,88,12,0,3.704,,,340,,,,,,,,,,,wg-a,,,,AAXX 31004 07335 32/// /3402 10140 20120 30042 40185 57001 90000=
07335,1999-08-31 04:00:00,13,1018.3,-0.3,94,12,15000,3.704,,,360,,,,,,,,,,0,wg-a,,,,AAXX 31044 07335 32765 73602 10130 20120 30039 40183 57003 700// 875// 90400=
07335,1999-08-31 05:00:00,14,1018.5,0.1,94,13,15000,7.408,,,350,,,,,,,,,,0,wg-a,,,,AAXX 31054 07335 32765 73504 10140 20130 30042 40185 53001 700// 875// 90500=
07335,1999-08-31 06:00:00,15,1018.7,0.4,94,14,15000,7.408,,,360,12.3,24.7,,,,,,,,0,wg-a,,,,AAXX 31064 07335 12765 73604 10150 20140 30044 40187 53004 60004 700// 875// 90600 333 10247 20123=
07335,1999-08-31 07:00:00,17,1019.1,1,82,14,15000,11.112,,,10,,,,,,,,,,0,wg-a,,,,AAXX 31074 07335 32765 70106 10170 20140 30049 40191 53010 700// 875// 90700=
07335,1999-08-31 08:00:00,18,1019.4,1.1,77,14,15000,14.816,,,40,,,,,,,,,,0,wg-a,,,,AAXX 31084 07335 32765 70408 10180 20140 30053 40194 53011 700// 875// 90800=
07335,1999-08-31 09:00:00,20,1019.4,1,68,14,20000,11.112,,,60,,,,,,,,,,0,wg-a,,,,AAXX 31094 07335 32770 50606 10200 20140 30054 40194 51010 700// 85500 90900=
07335,1999-08-31 10:00:00,21,1019.7,0.8,69,15,20000,11.112,,,40,,,,,,,,,,0,wg-a,,,,AAXX 31104 07335 32770 60406 10210 20150 30057 40197 51008 700// 86500 91000=
07335,1999-08-31 11:00:00,23,1019.3,0.1,57,14,20000,11.112,,,40,,,,,,,,,,0,wg-a,,,,AAXX 31114 07335 32670 20406 10230 20140 30054 40193 50001 700// 8/800 91100=
07335,1999-08-31 12:00:00,24,1019,-0.3,47,12,20000,14.816,,,60,,,,,,,,,,0,wg-a,,,,AAXX 31124 07335 32670 60608 10240 20120 30051 40190 58003 700// 86800 91200=
07335,1999-08-31 14:00:00,26,1018.2,-1,39,11,20000,3.704,,,50,,,,,,,,,,0,wg-a,,,,AAXX 31144 07335 32670 40502 10260 20110 30044 40182 58010 700// 84800 91400=
07335,1999-08-31 15:00:00,26,1018,-0.9,39,11,20000,14.816,,,50,,,,,,,,,,0,wg-a,,,,AAXX 31154 07335 32770 40508 10260 20110 30042 40180 56009 700// 84800 91500=
07335,1999-08-31 16:00:00,26,1017.7,-0.9,39,11,20000,7.408,,,80,,,,,,,,,,0,wg-a,,,,AAXX 31164 07335 32770 30804 10260 20110 30039 40177 56009 700// 83800 91600=
07335,1999-08-31 17:00:00,25,1017.5,-0.7,44,12,20000,14.816,,,40,,,,,,,,,,0,wg-a,,,,AAXX 31174 07335 32770 30408 10250 20120 30037 40175 57007 700// 83400 91700=
07335,1999-08-31 18:00:00,24,1017.7,-0.3,50,13,0,11.112,,,40,15.1,26.7,,,,,,,,,wg-a,,,,AAXX 31184 07335 32/// /0406 10240 20130 30039 40177 55003 91800 333 10267 20151=
07335,1999-09-01 00:00:00,13.6,1013.8,1.4,88,11.7,,8,,,250,,,,,,,,,,,,,,,
07335,1999-09-01 01:00:00,13.6,1014.2,1.1,87,11.5,,10,,,260,,,,,,,,,,,,,,,
07335,1999-09-01 02:00:00,13.4,1014.3,0.5,87,11.3,,8,,,240,,,,,,,,,,,,,,,
07335,1999-09-01 03:00:00,13.5,1013.9,0.1,87,11.4,,10,,,260,,,,,,,,,,,,,,,
07335,1999-09-01 04:00:00,13.2,1014.5,0.3,90,11.6,,8,,,260,,,,,,,,,,,,,,8,
07335,1999-09-01 05:00:00,12.9,1014.4,0.1,94,12,,8,,,230,,,,,,,,,,,,,,8,
07335,1999-09-01 06:00:00,13.1,1014.8,0.9,94,12.2,,12,,,240,12.7,16.7,,,,,0.6,,12,,,,,8,
07335,1999-09-01 07:00:00,13.3,1015.7,1.2,94,12.4,,10,,,240,,,,,,,,,,,,,,7,
07335,1999-09-01 08:00:00,14,1015.8,1.4,91,12.6,,8,,,220,,,,,,,,,,,,,,7,
07335,1999-09-01 09:00:00,15.3,1015.7,1,88,13.3,,8,,,230,,,,,,,,,,,,,,7,
07335,1999-09-01 10:00:00,15.6,1016,0.4,85,13.1,14816,12,,,240,,,,,,,,,,,,,,7,
07335,1999-09-01 11:00:00,16.2,1015.9,0.2,85,13.7,,12,,,240,,,0.2,,,,,,,21,,,,7,
07335,1999-09-01 12:00:00,16.7,1015.2,-0.4,84,14,,8,,,230,,,,0.2,,,,,,3,,,,7,
07335,1999-09-01 13:00:00,16.6,1014.9,-1,80,13.1,,12,,,270,,,0.2,,,,,,,25,,,,7,
07335,1999-09-01 14:00:00,17.1,1014.5,-1.3,79,13.4,,10,,,250,,,,,,,,,,,,,,7,
07335,1999-09-01 15:00:00,16.8,1014.2,-1,80,13.3,,10,,,260,,,,0.2,,,,,,1,,,,7,
07335,1999-09-01 16:00:00,16.3,1013.8,-1.1,85,13.8,,8,,,250,,,,,,,,,,25,,,,7,
07335,1999-09-01 17:00:00,15.5,1013.8,-0.8,87,13.3,,10,,,240,,,,,,,,,,25,,,,7,
07335,1999-09-01 18:00:00,14.6,1013.8,-0.5,91,13.1,,10,,,240,13,17.6,,,,,,,,,,,,,
07335,1999-09-01 20:00:00,14.6,1013.3,-0.5,89,12.8,,8,,,220,,,,,,,,,,,,,,,
07335,1999-09-02 00:00:00,20,1019.9,0,60,12,0,11.112,,,80,,,,,,,,,,,wg-a,,,,AAXX 02004 07335 32/// /0806 10200 20120 30058 40199 50000 90000=
07335,1999-09-02 04:00:00,17,1019.4,-0.2,77,13,15000,11.112,,,80,,,,,,,,,,0,wg-a,,,,AAXX 02044 07335 32/65 00806 10170 20130 30052 40194 56002 700// 80000 90400=
07335,1999-09-02 05:00:00,16,1019,-0.4,82,13,15000,7.408,,,60,,,,,,,,,,0,wg-a,,,,AAXX 02054 07335 32/65 10604 10160 20130 30048 40190 58004 700// 80001 90500=
07335,1999-09-02 06:00:00,16,1019.3,-0.3,82,13,15000,7.408,,,50,14.8,26.5,,,,,,,,0,wg-a,,,,AAXX 02064 07335 12/65 10504 10160 20130 30050 40193 55003 60004 700// 80001 90600 333 10265 20148=
07335,1999-09-02 07:00:00,18,1019.1,-0.3,73,13,20000,7.408,,,60,,,,,,,,,,0,wg-a,,,,AAXX 02074 07335 32/70 10604 10180 20130 30049 40191 56003 700// 80001 90700=
07335,1999-09-02 08:00:00,20,1019.5,0.6,64,13,20000,14.816,,,70,,,,,,,,,,0,wg-a,,,,AAXX 02084 07335 32/70 30708 10200 20130 30054 40195 53006 700// 80001 90800=
07335,1999-09-02 09:00:00,22,1019.2,0.2,57,13,20000,18.52,,,70,,,,,,,,,,0,wg-a,,,,AAXX 02094 07335 32/70 10710 10220 20130 30052 40192 50002 700// 80001 90900=
07335,1999-09-02 10:00:00,23,1018.7,-0.1,53,13,20000,22.224,,,80,,,,,,,,,,0,wg-a,,,,AAXX 02104 07335 32/70 20812 10230 20130 30048 40187 58001 700// 80001 91000=
07335,1999-09-02 11:00:00,24,1018.3,-0.9,47,12,20000,25.928,,,80,,,,,,,,,,0,wg-a,,,,AAXX 02114 07335 32/70 30814 10240 20120 30045 40183 58009 700// 80001 91100=
07335,1999-09-02 12:00:00,26,1018,-1,39,11,25000,18.52,,,70,,,,,,,,,,0,wg-a,,,,AAXX 02124 07335 32/75 30710 10260 20110 30042 40180 56010 700// 80001 91200=
07335,1999-09-02 13:00:00,27,1017.3,-1.2,37,11,500,22.224,,,80,,,,,,,,,,0,wg-a,,,,AAXX 02134 07335 32/00 10812 10270 20110 30036 40173 58012 700// 80001 91300=
07335,1999-09-02 14:00:00,28,1016.3,-1.8,37,12,500,22.224,,,70,,,,,,,,,,0,wg-a,,,,AAXX 02144 07335 32/00 10712 10280 20120 30027 40163 58018 700// 80001 91400=
07335,1999-09-02 15:00:00,28,1015.6,-2.2,35,11,500,18.52,,,80,,,,,,,,,,0,wg-a,,,,AAXX 02154 07335 32/00 10810 10280 20110 30020 40156 58022 700// 80001 91500=
07335,1999-09-02 16:00:00,28,1015.2,-2,35,11,500,22.224,,,70,,,,,,,,,,0,wg-a,,,,AAXX 02164 07335 32/00 10712 10280 20110 30016 40152 56020 700// 80001 91600=
07335,1999-09-02 17:00:00,28,1014.6,-1.7,35,11,500,25.928,,,90,,,,,,,,,,0,wg-a,,,,AAXX 02174 07335 32/00 10914 10280 20110 30010 40146 56017 700// 80001 91700=
07335,1999-09-02 18:00:00,27,1014.3,-1.3,39,12,0,18.52,,,70,15.6,28.6,,,,,,,,,wg-a,,,,AAXX 02184 07335 32/// /0710 10270 20120 30007 40143 56013 91800 333 10286 20156=
07335,1999-09-03 00:00:00,20,1014.3,-0.7,56,11,0,11.112,,,50,,,,,,,,,,,wg-a,,,,AAXX 03004 07335 32/// /0506 10200 20110 30003 40143 58007 90000=
07335,1999-09-03 04:00:00,14,1013.1,-1.2,67,8,25000,11.112,,,40,,,,,,,,,,0,wg-a,,,,AAXX 03044 07335 32/75 00406 10140 20080 39988 40131 58012 700// 80000 90400=
07335,1999-09-03 05:00:00,15,1013.4,-0.4,63,8,25000,14.816,,,60,,,,,,,,,,0,wg-a,,,,AAXX 03054 07335 32/75 10608 10150 20080 39992 40134 55004 700// 81031 90500=
07335,1999-09-03 06:00:00,14,1013.6,-0,67,8,25000,11.112,,,50,12.8,27.1,,,,,,,,0,wg-a,,,,AAXX 03064 07335 12/75 30506 10140 20080 39993 40136 55000 60004 700// 81031 90600 333 10271 20128=
07335,1999-09-03 07:00:00,16,1013.5,0.5,59,8,25000,14.816,,,50,,,,,,,,,,0,wg-a,,,,AAXX 03074 07335 32/75 40508 10160 20080 39993 40135 51005 700// 81032 90700=
07335,1999-09-03 08:00:00,18,1013.6,0.3,52,8,500,14.816,,,70,,,,,,,,,,0,wg-a,,,,AAXX 03084 07335 32/00 50708 10180 20080 39995 40136 53003 700// 80002 90800=
07335,1999-09-03 09:00:00,20,1013.4,0.1,46,8,500,25.928,,,80,,,,,,,,,,0,wg-a,,,,AAXX 03094 07335 32/00 30814 10200 20080 39994 40134 50001 700// 80002 90900=
07335,1999-09-03 10:00:00,21,1013.2,0,46,9,500,22.224,,,40,,,,,,,,,,0,wg-a,,,,AAXX 03104 07335 32/00 20412 10210 20090 39993 40132 50000 700// 80002 91000=
07335,1999-09-03 11:00:00,23,1012.9,-0.4,38,8,500,25.928,,,60,,,,,,,,,,0,wg-a,,,,AAXX 03114 07335 32/00 10614 10230 20080 39991 40129 58004 700// 80002 91100=
07335,1999-09-03 12:00:00,25,1012.3,-0.9,34,8,500,22.224,,,50,,,,,,,,,,0,wg-a,,,,AAXX 03124 07335 32/00 10512 10250 20080 39985 40123 58009 700// 80002 91200=
07335,1999-09-03 13:00:00,25,1012.4,-0.6,34,8,500,22.224,,,50,,,,,,,,,,0,wg-a,,,,AAXX 03134 07335 32/00 10512 10250 20080 39987 40124 55006 700// 80002 91300=
07335,1999-09-03 14:00:00,26,1012.4,-0.4,32,8,500,18.52,,,40,,,,,,,,,,0,wg-a,,,,AAXX 03144 07335 32/00 10410 10260 20080 39987 40124 56004 700// 80002 91400=
07335,1999-09-03 15:00:00,26,1012.2,0,32,8,500,14.816,,,80,,,,,,,,,,0,wg-a,,,,AAXX 03154 07335 32/00 10808 10260 20080 39985 40122 50000 700// 80002 91500=
07335,1999-09-03 16:00:00,27,1012.1,-0.3,28,7,500,18.52,,,70,,,,,,,,,,0,wg-a,,,,AAXX 03164 07335 32/00 10710 10270 20070 39984 40121 58003 700// 80002 91600=
07335,1999-09-03 17:00:00,26,1012.3,-0.1,30,7,500,14.816,,,80,,,,,,,,,,0,wg-a,,,,AAXX 03174 07335 32/00 10808 10260 20070 39986 40123 55001 700// 80002 91700=
07335,1999-09-03 18:00:00,25,1012.5,0.3,34,8,0,11.112,,,90,14.2,26.7,,,,,,,,,wg-a,,,,AAXX 03184 07335 32/// /0906 10250 20080 39988 40125 53003 91800 333 10267 20142=
07335,1999-09-04 00:00:00,13,1015.2,0.3,72,8,0,3.704,,,330,,,,,,,,,,,wg-a,,,,AAXX 04004 07335 32/// /3302 10130 20080 30008 40152 51003 90000=
07335,1999-09-04 04:00:00,9,1015.5,0.1,87,7,15000,3.704,,,300,,,,,,,,,,0,wg-a,,,,AAXX 04044 07335 32/65 03002 10090 20070 30009 40155 50001 700// 80000 90400=
07335,1999-09-04 05:00:00,9,1015.7,0.1,93,8,15000,3.704,,,210,,,,,,,,,,0,wg-a,,,,AAXX 04054 07335 32/65 12102 10090 20080 30011 40157 53001 700// 80002 90500=
07335,1999-09-04 06:00:00,9,1016.2,0.6,93,8,25000,3.704,,,340,8.2,25.4,,,,,,,,0,wg-a,,,,AAXX 04064 07335 12/75 13402 10090 20080 30016 40162 53006 60004 700// 80001 90600 333 10254 20082=
07335,1999-09-04 07:00:00,12,1016.5,1.2,94,11,25000,0,,,0,,,,,,,,,,0,wg-a,,,,AAXX 04074 07335 32/75 10000 10120 20110 30021 40165 53012 700// 80001 90700=
07335,1999-09-04 10:00:00,22,1016.5,0.5,60,14,500,7.408,,,120,,,,,,,,,,0,wg-a,,,,AAXX 04104 07335 32/00 01204 10220 20140 30026 40165 50005 700// 80000 91000=
07335,1999-09-04 11:00:00,24,1016.1,-0.2,50,13,500,7.408,,,100,,,,,,,,,,0,wg-a,,,,AAXX 04114 07335 32600 /1004 10240 20130 30023 40161 58002 700// 81101 91100=
07335,1999-09-04 12:00:00,25,1015.5,-0.9,50,14,500,7.408,,,110,,,,,,,,,,0,wg-a,,,,AAXX 04124 07335 32600 /1104 10250 20140 30018 40155 58009 700// 81101 91200=
07335,1999-09-04 14:00:00,27,1014.7,-1.3,39,12,500,7.408,,,170,,,,,,,,,,0,wg-a,,,,AAXX 04144 07335 32700 11704 10270 20120 30010 40147 56013 700// 81201 91400=
07335,1999-09-04 18:00:00,26,1013.9,-0.5,42,12,0,11.112,,,90,8.6,27.9,,,,,,,,,wg-a,,,,AAXX 04184 07335 32/// /0906 10260 20120 30002 40139 56005 91800 333 10279 20086=
07335,1999-09-05 00:00:00,14,1014.5,-0.6,88,12,0,0,,,0,,,,,,,,,,,wg-a,,,,AAXX 05004 07335 32/// /0000 10140 20120 30002 40145 58006 90000=
07335,1999-09-05 04:00:00,12,1013.4,-0.8,94,11,20000,3.704,,,360,,,,,,,,,,0,wg-a,,,,AAXX 05044 07335 32870 23602 10120 20110 39990 40134 56008 700// 82500 90400=
07335,1999-09-05 05:00:00,12,1013.4,-0.5,94,11,20000,3.704,,,230,,,,,,,,,,0,wg-a,,,,AAXX 05054 07335 32770 62302 10120 20110 39990 40134 56005 700// 83582 90500=
07335,1999-09-05 07:00:00,15,1013.8,0.6,88,13,20000,3.704,,,150,,,,,,,,,,0,wg-a,,,,AAXX 05074 07335 32770 61502 10150 20130 39996 40138 53006 700// 82582 90700=
07335,1999-09-05 08:00:00,17,1014,0.9,82,14,20000,7.408,,,170,,,,,,,,,,0,wg-a,,,,AAXX 05084 07335 32770 61704 10170 20140 39999 40140 53009 700// 81582 90800=
07335,1999-09-05 11:00:00,25,1013.1,-0.5,57,16,25000,11.112,,,190,,,,,,,,,,0,wg-a,,,,AAXX 05114 07335 32675 /1906 10250 20160 39994 40131 58005 700// 81182 91100=
07335,1999-09-05 12:00:00,26,1012.5,-1.2,48,14,25000,11.112,,,210,,,,,,,,,,0,wg-a,,,,AAXX 05124 07335 32675 /2106 10260 20140 39988 40125 58012 700// 82182 91200=
07335,1999-09-05 13:00:00,27,1011.9,-1.4,42,13,25000,11.112,,,220,,,,,,,,,,0,wg-a,,,,AAXX 05134 07335 32675 72206 10270 20130 39983 40119 58014 700// 82182 91300=
07335,1999-09-05 14:00:00,29,1011.2,-1.7,37,13,25000,18.52,,,180,,,,,,,,,,0,wg-a,,,,AAXX 05144 07335 32675 71810 10290 20130 39977 40112 57017 700// 82182 91400=
07335,1999-09-06 04:00:00,18,1011.5,0.3,88,16,15000,14.816,,,190,,,,,,,,,,0,wg-a,,,,AAXX 06044 07335 32465 31908 10180 20160 39975 40115 50003 700// 81502 90400=
07335,1999-09-06 05:00:00,17,1011.6,-0.1,94,16,15000,11.112,,,200,,,,,,,,,,0,wg-a,,,,AAXX 06054 07335 32265 72006 10170 20160 39975 40116 58001 700// 85502 90500=
07335,1999-09-06 06:00:00,17,1011.8,0.1,100,17,500,14.816,,,200,16.8,25,,,,,4,,,3,wg-a,,,,AAXX 06064 07335 12100 72008 10170 20170 39978 40118 53001 60044 70386 876// 90600 333 10250 20168=
07335,1999-09-06 07:00:00,18,1012.1,0.6,94,17,500,14.816,,,210,,,,,,,,,,0,wg-a,,,,AAXX 06074 07335 32300 82108 10180 20170 39981 40121 53006 700// 876// 90700=
07335,1999-09-06 08:00:00,19,1012.7,1.2,94,18,500,11.112,,,230,,,,,,,,,,0,wg-a,,,,AAXX 06084 07335 32300 72306 10190 20180 39987 40127 53012 700// 86102 90800=
07335,1999-09-06 09:00:00,20,1013,1.3,88,18,10000,14.816,,,220,,,,,,,,,,0,wg-a,,,,AAXX 06094 07335 32460 62208 10200 20180 39991 40130 53013 700// 85232 90900=
07335,1999-09-06 10:00:00,22,1013.2,1.3,73,17,15000,18.52,,,210,,,,,,,,,,0,wg-a,,,,AAXX 06104 07335 32565 52110 10220 20170 39994 40132 51013 700// 84232 91000=
07335,1999-09-06 11:00:00,24,1013.1,0.6,61,16,20000,22.224,,,240,,,,,,,,,,0,wg-a,,,,AAXX 06114 07335 32570 52412 10240 20160 39993 40131 50006 700// 84232 91100=
07335,1999-09-06 12:00:00,25,1012.8,0,54,15,20000,18.52,,,250,,,,,,,,,,0,wg-a,,,,AAXX 06124 07335 32570 52510 10250 20150 39991 40128 50000 700// 84232 91200=
07335,1999-09-06 13:00:00,26,1012.5,-0.6,51,15,25000,22.224,,,260,,,,,,,,,,0,wg-a,,,,AAXX 06134 07335 32675 52612 10260 20150 39988 40125 58006 700// 84202 91300=
07335,1999-09-06 14:00:00,26,1012.2,-0.8,48,14,25000,18.52,,,250,,,,,,,,,,0,wg-a,,,,AAXX 06144 07335 32675 52510 10260 20140 39985 40122 58008 700// 84202 91400=
07335,1999-09-06 15:00:00,27,1012,-0.7,42,13,25000,18.52,,,280,,,,,,,,,,0,wg-a,,,,AAXX 06154 07335 32675 52810 10270 20130 39984 40120 56007 700// 84232 91500=
07335,1999-09-06 16:00:00,26,1012,-0.5,45,13,25000,22.224,,,260,,,,,,,,,,0,wg-a,,,,AAXX 06164 07335 32675 42612 10260 20130 39983 40120 56005 700// 83232 91600=
07335,1999-09-06 17:00:00,25,1012.2,-0,50,14,25000,18.52,,,250,,,,,,,,,,0,wg-a,,,,AAXX 06174 07335 32675 42510 10250 20140 39985 40122 55000 700// 83132 91700=
07335,1999-09-06 18:00:00,23,1012.4,0.2,57,14,0,14.816,,,260,17.4,27.1,,,,,,,,,wg-a,,,,AAXX 06184 07335 32/// /2608 10230 20140 39986 40124 53002 91800 333 10271 20174=
07335,1999-09-07 00:00:00,15,1015.4,0.6,94,14,0,11.112,,,260,,,,,,,,,,,wg-a,,,,AAXX 07004 07335 32/// /2606 10150 20140 30012 40154 51006 90000=
07335,1999-09-07 05:00:00,14,1015.8,0.3,100,14,3000,7.408,,,220,,,,,,,,,,10,wg-a,,,,AAXX 07054 07335 32130 72204 10140 20140 30015 40158 53003 71022 875// 90500=
07335,1999-09-07 06:00:00,15,1016.1,0.8,100,15,200,7.408,,,240,13.3,23.1,,,,,,,,45,wg-a,,,,AAXX 07064 07335 32/02 92404 10150 20150 30019 40161 52008 74542 89/// 90600 333 10231 20133=
07335,1999-09-07 07:00:00,15,1016.8,1.1,100,15,400,11.112,,,240,,,,,,,,,,42,wg-a,,,,AAXX 07074 07335 32104 82406 10150 20150 30026 40168 53011 74244 886// 90700=
07335,1999-09-07 08:00:00,17,1017,1.4,100,17,3500,11.112,,,240,,,,,,,,,,10,wg-a,,,,AAXX 07084 07335 32135 22406 10170 20170 30029 40170 51014 71041 82500 90800=
07335,1999-09-07 09:00:00,20,1017.5,1.6,68,14,8000,11.112,,,230,,,,,,,,,,1,wg-a,,,,AAXX 07094 07335 32558 /2306 10200 20140 30035 40175 51016 70141 81200 90900=
07335,1999-09-07 10:00:00,21,1017.5,0.9,60,13,12000,14.816,,,280,,,,,,,,,,0,wg-a,,,,AAXX 07104 07335 32562 /2808 10210 20130 30035 40175 51009 700// 85200 91000=
07335,1999-09-07 11:00:00,22,1017.7,0.9,53,12,15000,14.816,,,260,,,,,,,,,,0,wg-a,,,,AAXX 07114 07335 32665 /2608 10220 20120 30038 40177 51009 700// 85200 91100=
07335,1999-09-07 12:00:00,22,1017.7,0.3,53,12,20000,18.52,,,270,,,,,,,,,,1,wg-a,,,,AAXX 07124 07335 32670 42710 10220 20120 30038 40177 52003 70141 84200 91200=
07335,1999-09-07 13:00:00,23,1017.9,0.5,50,12,20000,18.52,,,280,,,,,,,,,,0,wg-a,,,,AAXX 07134 07335 32670 /2810 10230 20120 30040 40179 51005 700// 85200 91300=
07335,1999-09-07 14:00:00,23,1017.8,0.1,47,11,20000,14.816,,,290,,,,,,,,,,0,wg-a,,,,AAXX 07144 07335 32670 /2908 10230 20110 30039 40178 50001 700// 85400 91400=
07335,1999-09-07 15:00:00,23,1018,0.3,50,12,25000,11.112,,,330,,,,,,,,,,0,wg-a,,,,AAXX 07154 07335 32775 63306 10230 20120 30041 40180 52003 700// 86400 91500=
07335,1999-09-07 16:00:00,24,1018,0.1,44,11,25000,11.112,,,300,,,,,,,,,,0,wg-a,,,,AAXX 07164 07335 32775 63006 10240 20110 30041 40180 53001 700// 86400 91600=
07335,1999-09-07 17:00:00,23,1018.1,0.3,50,12,25000,11.112,,,320,,,,,,,,,,0,wg-a,,,,AAXX 07174 07335 32775 63206 10230 20120 30042 40181 51003 700// 86501 91700=
07335,1999-09-07 18:00:00,21,1018.3,0.2,60,13,0,11.112,,,300,15.1,24.3,,,,,,,,,wg-a,,,,AAXX 07184 07335 32/// /3006 10210 20130 30043 40183 53002 91800 333 10243 20151=
07335,1999-09-08 00:00:00,12,1020.8,0.3,94,11,0,0,,,0,,,,,,,,,,,wg-a,,,,AAXX 08004 07335 32/// /0000 10120 20110 30063 40208 50003 90000=
07335,1999-09-08 04:00:00,10,1020.2,-0.3,100,10,15000,3.704,,,280,,,,,,,,,,0,wg-a,,,,AAXX 08044 07335 32/65 02802 10100 20100 30056 40202 56003 700// 80000 90400=
07335,1999-09-08 05:00:00,10,1020,-0.3,93,9,500,0,,,0,,,,,,,,,,40,wg-a,,,,AAXX 08054 07335 32/00 /0000 10100 20090 30054 40200 58003 74000 80002 90500=
07335,1999-09-08 06:00:00,10,1020.2,-0.1,100,10,7000,3.704,,,180,9.2,21.3,,,,,,,,0,wg-a,,,,AAXX 08064 07335 12/57 /1802 10100 20100 30056 40202 55001 60004 700// 80002 90600 333 10213 20092=
07335,1999-09-08 07:00:00,13,1019.8,-0.2,100,13,7000,3.704,,,240,,,0,,,,,,,0,wg-a,,,,AAXX 08074 07335 12/57 /2402 10130 20130 30054 40198 57002 60005 700// 80002 90700=
07335,1999-09-08 08:00:00,17,1019.6,0,82,14,10000,7.408,,,160,,,,,,,,,,0,wg-a,,,,AAXX 08084 07335 32/60 11604 10170 20140 30054 40196 50000 700// 80002 90800=
07335,1999-09-08 09:00:00,20,1019.6,-0,68,14,12000,7.408,,,150,,,,0,,,,,,0,wg-a,,,,AAXX 08094 07335 12/62 11504 10200 20140 30056 40196 55000 60007 700// 80002 90900=
07335,1999-09-08 10:00:00,24,1019.1,-0.2,50,13,15000,14.816,,,160,,,,,,,,,,0,wg-a,,,,AAXX 08104 07335 32/65 11608 10240 20130 30052 40191 58002 700// 80002 91000=
07335,1999-09-08 11:00:00,25,1018.6,-0.6,44,12,20000,14.816,,,150,,,,,,,,,,0,wg-a,,,,AAXX 08114 07335 32/70 11508 10250 20120 30048 40186 58006 700// 80002 91100=
07335,1999-09-08 12:00:00,25,1018.1,-1.3,44,12,25000,14.816,,,210,,,,,,,,,,0,wg-a,,,,AAXX 08124 07335 32/75 12108 10250 20120 30043 40181 58013 700// 80002 91200=
07335,1999-09-08 13:00:00,26,1017.9,-1,42,12,500,7.408,,,250,,,,,,,,,,0,wg-a,,,,AAXX 08134 07335 32/00 22504 10260 20120 30042 40179 56010 700// 80002 91300=
07335,1999-09-08 14:00:00,27,1017.6,-0.9,39,12,500,11.112,,,230,,,,,,,,,,0,wg-a,,,,AAXX 08144 07335 32/00 22306 10270 20120 30039 40176 56009 700// 80002 91400=
07335,1999-09-08 15:00:00,27,1017.2,-0.8,39,12,500,7.408,,,190,,,,,,,,,,0,wg-a,,,,AAXX 08154 07335 32/00 21904 10270 20120 30035 40172 58008 700// 80002 91500=
07335,1999-09-08 16:00:00,27,1017.1,-0.8,39,12,500,11.112,,,240,,,,,,,,,,0,wg-a,,,,AAXX 08164 07335 32/00 12406 10270 20120 30034 40171 56008 700// 80002 91600=
07335,1999-09-08 17:00:00,27,1016.9,-0.7,34,10,500,7.408,,,220,,,,,,,,,,0,wg-a,,,,AAXX 08174 07335 32/00 12204 10270 20100 30032 40169 56007 700// 80002 91700=
07335,1999-09-08 18:00:00,25,1017.2,-0.1,41,11,0,3.704,,,200,10.1,27.6,,,,,,,,,wg-a,,,,AAXX 08184 07335 32/// /2002 10250 20110 30034 40172 55001 91800 333 10276 20101=
07335,1999-09-09 00:00:00,12,1020.1,0.6,88,10,0,3.704,,,310,,,,,,,,,,,wg-a,,,,AAXX 09004 07335 32/// /3102 10120 20100 30056 40201 53006 90000=
07335,1999-09-09 04:00:00,12,1021.1,0.9,94,11,500,3.704,,,300,,,,,,,,,,0,wg-a,,,,AAXX 09044 07335 32/00 03002 10120 20110 30066 40211 51009 700// 80000 90400=
07335,1999-09-09 05:00:00,11,1021.5,1,100,11,500,0,,,0,,,,,,,,,,11,wg-a,,,,AAXX 09054 07335 32/00 00000 10110 20110 30070 40215 52010 71100 80000 90500=
07335,1999-09-09 07:00:00,14,1022.7,1.7,100,14,500,0,,,0,,,,,,,,,,0,wg-a,,,,AAXX 09074 07335 32/00 /0000 10140 20140 30083 40227 53017 700// 80001 90700=
07335,1999-09-09 08:00:00,17,1023,1.8,94,16,7000,3.704,,,10,,,,,,,,,,0,wg-a,,,,AAXX 09084 07335 32/57 /0102 10170 20160 30088 40230 51018 700// 80001 90800=
07335,1999-09-09 09:00:00,22,1023.3,1.6,65,15,10000,7.408,,,70,,,,,,,,,,0,wg-a,,,,AAXX 09094 07335 32/60 10704 10220 20150 30093 40233 51016 700// 80001 90900=
07335,1999-09-09 10:00:00,23,1023.6,1.4,57,14,12000,11.112,,,30,,,,,,,,,,0,wg-a,,,,AAXX 09104 07335 32/62 20306 10230 20140 30097 40236 51014 700// 80001 91000=
07335,1999-09-09 11:00:00,25,1023.6,0.9,50,14,15000,7.408,,,60,,,,,,,,,,0,wg-a,,,,AAXX 09114 07335 32/65 30604 10250 20140 30097 40236 51009 700// 80001 91100=
07335,1999-09-09 12:00:00,26,1023.3,0.2,51,15,20000,11.112,,,20,,,,,,,,,,0,wg-a,,,,AAXX 09124 07335 32/70 30206 10260 20150 30095 40233 50002 700// 80001 91200=
07335,1999-09-09 13:00:00,27,1023,-0.5,48,15,20000,11.112,,,340,,,,,,,,,,0,wg-a,,,,AAXX 09134 07335 32/70 23406 10270 20150 30092 40230 58005 700// 80001 91300=
07335,1999-09-09 14:00:00,27,1022.8,-0.7,45,14,20000,7.408,,,310,,,,,,,,,,0,wg-a,,,,AAXX 09144 07335 32770 33104 10270 20140 30090 40228 57007 700// 81131 91400=
07335,1999-09-09 15:00:00,27,1022.8,-0.5,45,14,20000,11.112,,,80,,,,,,,,,,0,wg-a,,,,AAXX 09154 07335 32770 50806 10270 20140 30090 40228 56005 700// 81131 91500=
07335,1999-09-09 16:00:00,27,1022.7,-0.3,45,14,20000,7.408,,,30,,,,,,,,,,0,wg-a,,,,AAXX 09164 07335 32/70 40304 10270 20140 30089 40227 56003 700// 84031 91600=
07335,1999-09-09 17:00:00,27,1022.7,-0.1,45,14,20000,11.112,,,40,,,,,,,,,,0,wg-a,,,,AAXX 09174 07335 32/70 40406 10270 20140 30089 40227 57001 700// 84031 91700=
07335,1999-09-09 18:00:00,26,1022.8,-0,51,15,0,11.112,,,40,10.7,27.7,,,,,,,,,wg-a,,,,AAXX 09184 07335 32/// /0406 10260 20150 30090 40228 55000 91800 333 10277 20107=
07335,1999-09-10 00:00:00,15,1024.7,0.1,94,14,0,0,,,0,,,,,,,,,,,wg-a,,,,AAXX 10004 07335 32/// /0000 10150 20140 30103 40247 50001 90000=
07335,1999-09-10 04:00:00,14,1023.9,-0.5,94,13,6000,3.704,,,20,,,,,,,,,,12,wg-a,,,,AAXX 10044 07335 32/56 00202 10140 20130 30095 40239 57005 712// 80000 90400=
07335,1999-09-10 05:00:00,13,1023.9,-0.4,100,13,6000,0,,,0,,,,,,,,,,11,wg-a,,,,AAXX 10054 07335 32/56 00000 10130 20130 30095 40239 56004 71100 80000 90500=
07335,1999-09-10 06:00:00,13,1024.3,0.2,94,12,6000,3.704,,,340,11.9,26.2,,,,,,,,10,wg-a,,,,AAXX 10064 07335 32/56 03402 10130 20120 30098 40243 53002 71000 80000 90600 333 10262 20119=
07335,1999-09-10 07:00:00,16,1024.1,0.3,100,16,6000,0,,,0,,,,,,,,,,0,wg-a,,,,AAXX 10074 07335 32/56 00000 10160 20160 30098 40241 52003 700// 80000 90700=
07335,1999-09-10 08:00:00,20,1024,0.4,73,15,8000,3.704,,,80,,,,,,,,,,0,wg-a,,,,AAXX 10084 07335 32/58 00802 10200 20150 30099 40240 51004 700// 80000 90800=
07335,1999-09-10 09:00:00,23,1024,0.2,61,15,10000,7.408,,,100,,,,,,,,,,0,wg-a,,,,AAXX 10094 07335 32/60 11004 10230 20150 30100 40240 53002 700// 80001 90900=
07335,1999-09-10 10:00:00,26,1023.5,-0.1,51,15,15000,7.408,,,110,,,,,,,,,,0,wg-a,,,,AAXX 10104 07335 32/65 11104 10260 20150 30097 40235 58001 700// 80001 91000=
07335,1999-09-10 11:00:00,28,1022.9,-0.7,42,14,15000,11.112,,,110,,,,,,,,,,0,wg-a,,,,AAXX 10114 07335 32/65 11106 10280 20140 30092 40229 58007 700// 80001 91100=
07335,1999-09-10 12:00:00,30,1022.1,-1.5,33,12,15000,14.816,,,150,,,,,,,,,,0,wg-a,,,,AAXX 10124 07335 32/65 11508 10300 20120 30085 40221 58015 700// 80001 91200=
07335,1999-09-10 13:00:00,30,1021.4,-1.9,33,12,18000,11.112,,,140,,,,,,,,,,0,wg-a,,,,AAXX 10134 07335 32/68 11406 10300 20120 30078 40214 58019 700// 80001 91300=
07335,1999-09-10 14:00:00,30,1020.8,-2,33,12,20000,14.816,,,110,,,,,,,,,,0,wg-a,,,,AAXX 10144 07335 32/70 11108 10300 20120 30072 40208 56020 700// 80001 91400=
07335,1999-09-10 15:00:00,31,1020.1,-2,33,13,20000,7.408,,,130,,,,,,,,,,0,wg-a,,,,AAXX 10154 07335 32/70 11304 10310 20130 30065 40201 57020 700// 80001 91500=
07335,1999-09-10 16:00:00,30,1019.6,-1.8,38,14,20000,11.112,,,70,,,,,,,,,,0,wg-a,,,,AAXX 10164 07335 32/70 20706 10300 20140 30060 40196 56018 700// 80001 91600=
07335,1999-09-10 17:00:00,29,1019.6,-1.2,35,12,20000,14.816,,,80,,,,,,,,,,0,wg-a,,,,AAXX 10174 07335 32/70 40808 10290 20120 30060 40196 56012 700// 80001 91700=
07335,1999-09-10 18:00:00,28,1019.4,-0.8,37,12,0,11.112,,,80,12.5,30.8,,,,,,,,,wg-a,,,,AAXX 10184 07335 32/// /0806 10280 20120 30057 40194 56008 91800 333 10308 20125=
07335,1999-09-11 00:00:00,15,1019.2,-0.9,82,12,0,0,,,0,,,,,,,,,,,wg-a,,,,AAXX 11004 07335 32/// /0000 10150 20120 30049 40192 58009 90000=
07335,1999-09-11 04:00:00,15,1017.8,-1,88,13,15000,7.408,,,160,,,,,,,,,,0,wg-a,,,,AAXX 11044 07335 32/65 01604 10150 20130 30035 40178 57010 700// 80000 90400=
07335,1999-09-11 05:00:00,15,1017.9,-0.5,88,13,15000,7.408,,,160,,,,,,,,,,0,wg-a,,,,AAXX 11054 07335 32/65 11604 10150 20130 30036 40179 55005 700// 80001 90500=
07335,1999-09-11 06:00:00,14,1017.9,-0.3,94,13,15000,7.408,,,190,12.6,28.3,,,,,,,,0,wg-a,,,,AAXX 11064 07335 12/65 11904 10140 20130 30036 40179 56003 60004 700// 80001 90600 333 10283 20126=
07335,1999-09-11 08:00:00,21,1017.5,0,73,16,15000,14.816,,,190,,,,,,,,,,0,wg-a,,,,AAXX 11084 07335 32/65 11908 10210 20160 30036 40175 50000 700// 80001 90800=
07335,1999-09-11 09:00:00,25,1017.3,-0.1,57,16,15000,14.816,,,200,,,,,,,,,,0,wg-a,,,,AAXX 11094 07335 32/65 22008 10250 20160 30035 40173 58001 700// 80001 90900=
07335,1999-09-11 12:00:00,30,1015.8,-1.2,38,14,15000,14.816,,,190,,,,,,,,,,0,wg-a,,,,AAXX 11124 07335 32/65 31908 10300 20140 30023 40158 58012 700// 80001 91200=
07335,1999-09-11 13:00:00,31,1015.4,-1.4,38,15,15000,11.112,,,200,,,,,,,,,,0,wg-a,,,,AAXX 11134 07335 32/65 32006 10310 20150 30019 40154 56014 700// 80001 91300=
07335,1999-09-11 14:00:00,31,1015,-1.2,33,13,25000,14.816,,,170,,,,,,,,,,0,wg-a,,,,AAXX 11144 07335 32875 31708 10310 20130 30015 40150 57012 700// 81101 91400=
07335,1999-09-11 15:00:00,31,1014.7,-1.1,33,13,25000,14.816,,,200,,,,,,,,,,0,wg-a,,,,AAXX 11154 07335 32875 32008 10310 20130 30012 40147 56011 700// 82201 91500=
07335,1999-09-11 18:00:00,27,1014.9,-0,45,14,0,7.408,,,250,14.2,31.7,,,,,,,,,wg-a,,,,AAXX 11184 07335 32/// /2504 10270 20140 30012 40149 55000 91800 333 10317 20142=
07335,1999-09-12 00:00:00,18,1017.2,0.7,88,16,0,7.408,,,260,,,,,,,,,,,wg-a,,,,AAXX 12004 07335 32/// /2604 10180 20160 30031 40172 53007 90000=
07335,1999-09-12 04:00:00,17,1017.9,0.4,94,16,20000,7.408,,,230,,,,,,,,,,0,wg-a,,,,AAXX 12044 07335 32470 72304 10170 20160 30037 40179 51004 700// 875// 90400=
07335,1999-09-12 05:00:00,15,1018,0.3,94,14,20000,7.408,,,210,,,,,,,,,,0,wg-a,,,,AAXX 12054 07335 32470 42104 10150 20140 30037 40180 51003 700// 83582 90500=
07335,1999-09-12 06:00:00,14,1018,-0,94,13,3500,3.704,,,260,13.4,26.9,,,,,,,,10,wg-a,,,,AAXX 12064 07335 12/35 52602 10140 20130 30037 40180 54000 60004 71011 84082 90600 333 10269 20134=
07335,1999-09-12 09:00:00,20,1017.7,0,78,16,15000,3.704,,,100,,,,,,,,,,0,wg-a,,,,AAXX 12094 07335 32465 71002 10200 20160 30037 40177 50000 700// 878// 90900=
07335,1999-09-12 12:00:00,23,1016.6,-1,65,16,20000,7.408,,,280,,,,,,,,,,1,wg-a,,,,AAXX 12124 07335 02570 72804 10230 20160 30027 40166 58010 61000 70162 8683/ 91200 333 ////=
07335,1999-09-12 14:00:00,24,1015.4,-1.6,61,16,20000,3.704,,,330,,,,,,,,,,0,wg-a,,,,AAXX 12144 07335 32570 73302 10240 20160 30016 40154 57016 700// 8583/ 91400=
07335,1999-09-12 15:00:00,24,1014.5,-2,61,16,20000,7.408,,,80,,,,,,,,,,0,wg-a,,,,AAXX 12154 07335 32670 70804 10240 20160 30007 40145 58020 700// 82252 91500=
07335,1999-09-12 18:00:00,23,1013.8,-0.7,69,17,0,14.816,,,20,13.8,24.7,,,,,,,,,wg-a,,,,AAXX 12184 07335 32/// /0208 10230 20170 30000 40138 56007 91800 333 10247 20138=
07335,1999-09-13 00:00:00,17,1012.5,-0.9,82,14,0,22.224,,,340,,,,,,,,,,,wg-a,,,,AAXX 13004 07335 32/// /3412 10170 20140 39984 40125 56009 90000=
07335,1999-09-13 04:00:00,15,1011.6,-0.7,94,14,8000,7.408,,,330,,,2,,,,,,,80,wg-a,,,,AAXX 13044 07335 12258 83304 10150 20140 39974 40116 58007 60025 78098 879// 90400=
07335,1999-09-13 05:00:00,14,1011.8,-1.2,100,14,500,14.816,,,320,,,2,,,,,,,61,wg-a,,,,AAXX 13054 07335 12100 83208 10140 20140 39976 40118 55012 60025 76196 877// 90500=
07335,1999-09-13 06:00:00,14,1012.5,1,100,14,20000,14.816,,,330,13.9,22.6,,7,,,13,,,60,wg-a,,,,AAXX 13064 07335 02170 83308 10140 20140 39983 40125 53010 60134 76098 887// 90600 333 10226 20139 60077=
07335,1999-09-13 07:00:00,14,1011.6,0,94,13,15000,18.52,,,360,,,1,,,,,,,60,wg-a,,,,AAXX 13074 07335 12165 83610 10140 20130 39974 40116 50000 60015 76066 887// 90700=
07335,1999-09-13 08:00:00,14,1011.9,0.1,100,14,20000,14.816,,,20,,,0,,,,,,,60,wg-a,,,,AAXX 13084 07335 12170 80208 10140 20140 39977 40119 51001 60005 76066 887// 90800=
07335,1999-09-13 11:00:00,15,1012.7,0.8,94,14,500,11.112,,,360,,,,,,,,,,51,wg-a,,,,AAXX 13114 07335 02100 83606 10150 20140 39985 40127 50008 61000 75166 887// 91100 333 ////=
07335,1999-09-13 16:00:00,15,1010.6,-1.2,100,15,500,14.816,,,20,,,1,,,,,,,61,wg-a,,,,AAXX 13164 07335 12100 80208 10150 20150 39964 40106 58012 60015 76166 887// 91600=
07335,1999-09-13 17:00:00,15,1010.9,-0.8,100,15,8000,14.816,,,20,,,,,,,,,,60,wg-a,,,,AAXX 13174 07335 02158 80208 10150 20150 39968 40109 55008 61000 76066 887// 91700 333 ////=
07335,1999-09-13 18:00:00,16,1010.7,-0.2,94,15,0,14.816,,,30,13.7,15.5,,,,,,,,,wg-a,,,,AAXX 13184 07335 32/// /0308 10160 20150 39966 40107 56002 91800 333 10155 20137=
07335,1999-09-14 00:00:00,16,1009.6,-1.1,100,16,0,7.408,,,90,,,,,,,,,,,wg-a,,,,AAXX 14004 07335 32/// /0904 10160 20160 39955 40096 58011 90000=
07335,1999-09-14 04:00:00,16,1009.7,0.5,100,16,0,11.112,,,180,,,,,,,,,,,wg-a,,,,AAXX 14044 07335 32/// /1806 10160 20160 39956 40097 51005 90400=
07335,1999-09-14 05:00:00,16,1009.8,0.1,100,16,8000,18.52,,,190,,,,,,,,,,0,wg-a,,,,AAXX 14054 07335 32258 81910 10160 20160 39957 40098 53001 700// 886// 90500=
07335,1999-09-14 06:00:00,16,1010.1,0.6,100,16,10000,14.816,,,190,15.4,16.2,,,,,7,,,0,wg-a,,,,AAXX 14064 07335 12260 81908 10160 20160 39960 40101 53006 60074 700// 886// 90600 333 10162 20154=
07335,1999-09-14 07:00:00,16,1010.7,1,100,16,15000,14.816,,,250,,,,,,,,,,20,wg-a,,,,AAXX 14074 07335 02265 82508 10160 20160 39966 40107 53010 61000 72052 885// 90700 333 ////=
07335,1999-09-14 08:00:00,14,1012,2.1,94,13,9000,18.52,,,300,,,0,,,,,,,0,wg-a,,,,AAXX 14084 07335 12159 83010 10140 20130 39978 40120 53021 60005 700// 886// 90800=
07335,1999-09-14 09:00:00,14,1012.8,2.6,94,13,12000,18.52,,,290,,,,0,,,,,,3,wg-a,,,,AAXX 14094 07335 12262 82910 10140 20130 39986 40128 53026 60007 70352 886// 90900=
07335,1999-09-14 10:00:00,15,1013.4,2.6,88,13,20000,14.816,,,290,,,,,,,,,,0,wg-a,,,,AAXX 14104 07335 32470 82908 10150 20130 39992 40134 51026 700// 885// 91000=
07335,1999-09-14 11:00:00,15,1013.5,1.5,88,13,20000,14.816,,,300,,,,,,,,,,0,wg-a,,,,AAXX 14114 07335 32470 73008 10150 20130 39993 40135 51015 700// 875// 91100=
07335,1999-09-14 12:00:00,16,1014,1.2,82,13,20000,18.52,,,300,,,,,,,,,,3,wg-a,,,,AAXX 14124 07335 32470 83010 10160 20130 39998 40140 51012 70352 885// 91200=
07335,1999-09-14 13:00:00,17,1013.9,0.6,72,12,20000,22.224,,,320,,,,,,,,,,0,wg-a,,,,AAXX 14134 07335 32570 73212 10170 20120 39998 40139 51006 700// 875// 91300=
07335,1999-09-14 14:00:00,17,1014.1,0.7,72,12,20000,11.112,,,360,,,,,,,,,,0,wg-a,,,,AAXX 14144 07335 32570 73606 10170 20120 30000 40141 51007 700// 8583/ 91400=
07335,1999-09-14 15:00:00,17.8,1014.3,0.4,70,12.3,20000,11.112,,,340,,,,,,,,,,,og-post,,,,AAXX 14154 07335 32570 73406 10178 20123 30002 40143 53004 8583/ 333 83821 83636=
07335,1999-09-14 16:00:00,17.4,1014.4,0.5,72,12.3,20000,11.112,,,350,,,,,,,,,,,og-post,,,,AAXX 14164 07335 32570 73506 10174 20123 30003 40144 51005 8585/ 333 83823 85360=
07335,1999-09-14 17:00:00,16.8,1014.8,0.7,76,12.5,20000,11.112,,,340,,,,,,,,,,,og-post,,,,AAXX 14174 07335 32670 73406 10168 20125 30007 40148 53007 8445/ 333 84636 86360=
07335,1999-09-14 18:00:00,15.9,1015.3,0.9,79,12.3,,11.112,,,350,13.7,18.1,,,,0.2,,,,,og-post,,,,AAXX 14184 07335 16/// /3506 10159 20123 30011 40153 53009 69922 333 10181 20137=
07335,1999-09-14 19:00:00,15.1,1015.4,0.9,83,12.2,,11.112,,,20,,,,,,,,,,,og-post,,,,AAXX 14194 07335 36/// /0206 10151 20122 30012 40154 51009=
07335,1999-09-14 20:00:00,14.2,1016,1,87,12.1,,11.112,,,360,,,,,,,,,,,og-post,,,,AAXX 14204 07335 36/// /3606 10142 20121 30017 40160 53010=
07335,1999-09-14 21:00:00,13.4,1016.1,0.7,92,12.1,,7.408,,,360,,,,,,,,,,,og-post,,,,AAXX 14214 07335 36/// /3604 10134 20121 30018 40161 52007=
07335,1999-09-14 22:00:00,13.5,1016.2,0.7,92,12.2,,7.408,,,10,,,,,,,,,,,og-post,,,,AAXX 14224 07335 36/// /0104 10135 20122 30019 40162 51007=
07335,1999-09-14 23:00:00,13.3,1016.3,0.3,89,11.5,,11.112,,,10,,,,,,,,,,,og-post,,,,AAXX 14234 07335 36/// /0106 10133 20115 30020 40163 52003=
07335,1999-09-15 00:00:00,12.9,1016.2,0,91,11.5,,7.408,,,10,,,,,,,,,,,og-post,,,,AAXX 15004 07335 36/// /0104 10129 20115 30018 40162 50000=
07335,1999-09-15 01:00:00,12.8,1016,-0.3,91,11.4,,7.408,,,10,,,,,,,,,,,og-post,,,,AAXX 15014 07335 36/// /0104 10128 20114 30016 40160 58003=
07335,1999-09-15 02:00:00,12.6,1015.9,-0.5,92,11.3,,7.408,,,360,,,,,,,,,,,og-post,,,,AAXX 15024 07335 36/// /3604 10126 20113 30015 40159 56005=
07335,1999-09-15 03:00:00,11.2,1015.2,-1,93,10.1,,11.112,,,350,,,,,,,,,,,og-post,,,,AAXX 15034 07335 36/// /3506 10112 20101 30008 40152 58010=
07335,1999-09-15 04:00:00,10,1015.5,-0.6,93,9,10000,3.704,,,350,,,,,,,,,,0,wg-a,,,,AAXX 15044 07335 32/60 33502 10100 20090 30010 40155 55006 700// 83030 90400=
07335,1999-09-15 05:00:00,11,1015.2,-0.7,94,10,12000,7.408,,,350,,,,,,,,,,0,wg-a,,,,AAXX 15054 07335 32562 63504 10110 20100 30008 40152 56007 700// 84530 90500=
07335,1999-09-15 06:00:00,11,1015.4,0.2,100,11,7000,7.408,,,350,9.7,15.8,,,,,,,,0,wg-a,,,,AAXX 15064 07335 12557 73504 10110 20110 30010 40154 52002 60004 700// 875// 90600 333 10158 20097=
07335,1999-09-15 07:00:00,12,1015.8,0.4,94,11,8000,7.408,,,350,,,,,,,,,,0,wg-a,,,,AAXX 15074 07335 32558 /3504 10120 20110 30014 40158 53004 700// 85501 90700=
07335,1999-09-15 08:00:00,13,1016.3,1.1,88,11,12000,11.112,,,10,,,,,,,,,,0,wg-a,,,,AAXX 15084 07335 32562 50106 10130 20110 30019 40163 53011 700// 82530 90800=
07335,1999-09-15 09:00:00,15,1016.5,1.2,82,12,20000,11.112,,,360,,,,,,,,,,0,wg-a,,,,AAXX 15094 07335 32470 23606 10150 20120 30022 40165 51012 700// 81130 90900=
07335,1999-09-15 10:00:00,16,1016.5,0.9,72,11,20000,11.112,,,350,,,,,,,,,,0,wg-a,,,,AAXX 15104 07335 32570 /3506 10160 20110 30023 40165 51009 700// 85200 91000=
07335,1999-09-15 11:00:00,17,1016.1,0.1,59,9,20000,11.112,,,10,,,,,,,,,,0,wg-a,,,,AAXX 15114 07335 32570 40106 10170 20090 30020 40161 50001 700// 84200 91100=
07335,1999-09-15 12:00:00,19,1016,-0.3,52,9,20000,7.408,,,320,,,,,,,,,,0,wg-a,,,,AAXX 15124 07335 32570 33204 10190 20090 30019 40160 58003 700// 83200 91200=
07335,1999-09-15 13:00:00,19,1015.9,-0.5,49,8,20000,11.112,,,330,,,,,,,,,,0,wg-a,,,,AAXX 15134 07335 32670 33306 10190 20080 30018 40159 56005 700// 83200 91300=
07335,1999-09-15 14:00:00,19,1015.5,-0.6,46,7,20000,14.816,,,340,,,,,,,,,,0,wg-a,,,,AAXX 15144 07335 32670 33408 10190 20070 30014 40155 58006 700// 83200 91400=
07335,1999-09-15 15:00:00,20,1015.1,-0.8,43,7,20000,11.112,,,310,,,,,,,,,,0,wg-a,,,,AAXX 15154 07335 32670 33106 10200 20070 30011 40151 58008 700// 83201 91500=
07335,1999-09-15 16:00:00,20,1015.1,-0.7,40,6,20000,11.112,,,340,,,,,,,,,,0,wg-a,,,,AAXX 15164 07335 32770 33406 10200 20060 30011 40151 56007 700// 83202 91600=
07335,1999-09-15 17:00:00,19,1015.5,-0,43,6,20000,7.408,,,340,,,,,,,,,,0,wg-a,,,,AAXX 15174 07335 32770 23404 10190 20060 30014 40155 55000 700// 81202 91700=
07335,1999-09-15 18:00:00,17,1015.8,0.5,55,8,0,7.408,,,360,11,19.8,,,,,,,,,wg-a,,,,AAXX 15184 07335 32/// /3604 10170 20080 30016 40158 53005 91800 333 10198 20110=
07335,1999-09-16 00:00:00,8,1016.5,-0.3,93,7,0,3.704,,,220,,,,,,,,,,,wg-a,,,,AAXX 16004 07335 32/// /2202 10080 20070 30019 40165 56003 90000=
07335,1999-09-16 04:00:00,7,1015.2,-1,100,7,20000,7.408,,,170,,,,,,,,,,0,wg-a,,,,AAXX 16044 07335 32/70 01704 10070 20070 30005 40152 56010 700// 80000 90400=
07335,1999-09-16 05:00:00,7,1014.8,-0.9,100,7,10000,7.408,,,160,,,,,,,,,,,wg-a,,,,AAXX 16054 07335 32/60 /1604 10070 20070 30002 40148 57009 90500=
07335,1999-09-16 06:00:00,7,1014.7,-0.7,100,7,20000,7.408,,,170,5.7,16.8,,,,,,,,0,wg-a,,,,AAXX 16064 07335 12/70 11704 10070 20070 30001 40147 56007 60004 700// 81032 90600 333 10168 20057=
07335,1999-09-16 07:00:00,11,1014.9,-0.1,94,10,20000,7.408,,,210,,,,,,,,,,0,wg-a,,,,AAXX 16074 07335 32/70 12104 10110 20100 30004 40149 55001 700// 81032 90700=
07335,1999-09-16 08:00:00,14,1014.6,0.1,82,11,20000,14.816,,,180,,,,,,,,,,0,wg-a,,,,AAXX 16084 07335 32/70 11808 10140 20110 30003 40146 52001 700// 81032 90800=
07335,1999-09-16 09:00:00,17,1014.2,0,72,12,25000,18.52,,,190,,,,,,,,,,0,wg-a,,,,AAXX 16094 07335 32/75 11910 10170 20120 30001 40142 50000 700// 81032 90900=
07335,1999-09-16 10:00:00,20,1014.3,-0.1,53,10,25000,18.52,,,220,,,,,,,,,,0,wg-a,,,,AAXX 16104 07335 32/75 22210 10200 20100 30003 40143 55001 700// 81032 91000=
07335,1999-09-16 11:00:00,21,1013.7,-0.6,49,10,25000,22.224,,,220,,,,,,,,,,0,wg-a,,,,AAXX 16114 07335 32675 32212 10210 20100 39997 40137 58006 700// 81832 91100=
07335,1999-09-16 12:00:00,21,1013.2,-0.8,49,10,25000,22.224,,,210,,,,,,,,,,0,wg-a,,,,AAXX 16124 07335 32675 22112 10210 20100 39993 40132 58008 700// 81832 91200=
07335,1999-09-16 13:00:00,23,1012.8,-1.4,41,9,25000,22.224,,,240,,,,,,,,,,0,wg-a,,,,AAXX 16134 07335 32775 42412 10230 20090 39989 40128 56014 700// 82832 91300=
07335,1999-09-16 14:00:00,22,1012.1,-1.5,50,11,25000,18.52,,,220,,,,,,,,,,0,wg-a,,,,AAXX 16144 07335 32775 52210 10220 20110 39982 40121 58015 700// 83532 91400=
07335,1999-09-16 15:00:00,22,1011.4,-1.7,53,12,20000,18.52,,,220,,,,,,,,,,0,wg-a,,,,AAXX 16154 07335 32670 72210 10220 20120 39976 40114 58017 700// 84532 91500=
07335,1999-09-16 16:00:00,22,1011.3,-1.5,53,12,20000,18.52,,,210,,,,,,,,,,0,wg-a,,,,AAXX 16164 07335 32670 72110 10220 20120 39974 40113 56015 700// 84532 91600=
07335,1999-09-16 17:00:00,20,1011.9,-0.2,73,15,8000,25.928,,,260,,,,,,,,,,61,wg-a,,,,AAXX 16174 07335 02458 72614 10200 20150 39980 40119 55002 61000 76162 875// 91700 333 ////=
07335,1999-09-16 18:00:00,17.2,1012.3,0.6,83,14.3,,22.224,,,310,7.4,23.2,,,,,,,,,og-post,,,,AAXX 16184 07335 /6/// /3112 10172 20143 39982 40123 53006 69902 333 10232 20074 69907=
07335,1999-09-16 19:00:00,16.1,1012.4,0.9,88,14.1,,7.408,,,240,,,,,,,,,,,og-post,,,,AAXX 16194 07335 26/// /2404 10161 20141 39983 40124 51009 333 69905=
07335,1999-09-16 20:00:00,15.7,1012.8,0.6,91,14.2,,3.704,,,210,,,,,,,,,,,og-post,,,,AAXX 16204 07335 26/// /2102 10157 20142 39986 40128 53006 333 69905=
07335,1999-09-16 21:00:00,15.6,1012.5,0.1,93,14.5,,7.408,,,240,,,,,,,,,,,og-post,,,,AAXX 16214 07335 26/// /2404 10156 20145 39983 40125 50001 333 69907=
07335,1999-09-16 22:00:00,15.2,1012.2,-0.3,92,13.9,,,,,,,,,,,,,,,,og-post,,,,AAXX 16224 07335 26/// /0000 10152 20139 39980 40122 58003 333 69905=
07335,1999-09-16 23:00:00,14.6,1011.8,-1,92,13.3,,3.704,,,240,,,,,,,,,,,og-post,,,,AAXX 16234 07335 26/// /2402 10146 20133 39976 40118 58010 333 69905=
07335,1999-09-17 00:00:00,14.2,1011.8,-0.7,93,13.1,,7.408,,,240,,,,,,,,,,,og-post,,,,AAXX 17004 07335 /6/// /2404 10142 20131 39976 40118 56007 69901 333 69907=
07335,1999-09-17 01:00:00,14.3,1011.8,-0.4,95,13.5,,11.112,,,260,,,0.2,,,,,,,,og-post,,,,AAXX 17014 07335 26/// /2606 10143 20135 39976 40118 56004 333 69925=
07335,1999-09-17 02:00:00,14,1012,0.2,95,13.2,,7.408,,,290,,,1,,,,,,,,og-post,,,,AAXX 17024 07335 26/// /2904 10140 20132 39978 40120 53002 333 60015=
07335,1999-09-17 03:00:00,13.9,1011.5,-0.3,96,13.3,,3.704,,,60,,,,3,,,,,,,og-post,,,,AAXX 17034 07335 26/// /0602 10139 20133 39973 40115 58003 333 60037=
07335,1999-09-17 04:00:00,13.8,1011.2,-0.6,96,13.2,6000,7.408,,,180,,,0.4,,,,,,,61,og-post,,,,AAXX 17044 07335 21156 81804 10138 20132 39970 40112 58006 76162 875// 333 31/// 69945 85703 85620 87650=
07335,1999-09-17 05:00:00,13.9,1011.1,-0.9,97,13.4,15000,7.408,,,170,,,0.6,,,,,,,21,og-post,,,,AAXX 17054 07335 21165 81704 10139 20134 39969 40111 56009 72162 8577/ 333 69965 85702 88458=
07335,1999-09-17 06:00:00,13.7,1011.5,-0,97,13.2,15000,7.408,,,220,13.6,17.2,,1,,4,3.6,8.5,13,3,og-post,,,,AAXX 17064 07335 /1165 82204 10137 20132 39973 40115 55000 60042 70362 877// 333 10172 20136 3/013 55085 60017 70036 87702=
07335,1999-09-17 07:00:00,13.9,1011.8,0.6,97,13.4,15000,11.112,,,200,,,0.2,,,,,,,21,og-post,,,,AAXX 17074 07335 21165 82006 10139 20134 39976 40118 53006 72122 877// 333 69925 87702=
07335,1999-09-17 08:00:00,14.5,1011.7,0.6,96,13.9,25000,14.816,,,220,,,,,,,,,,,og-post,,,,AAXX 17084 07335 32275 72208 10145 20139 39975 40117 50006 85532 333 82704 84650 85075=
07335,1999-09-17 09:00:00,15,1011.7,0.2,93,13.9,25000,14.816,,,220,,,,0.2,,,,,,,og-post,,,,AAXX 17094 07335 22275 72208 10150 20139 39975 40117 51002 84632 333 69927 84705 84358 85075=
07335,1999-09-17 11:00:00,18.5,1011.4,-0.1,77,14.4,30000,14.816,,,210,,,,,,,,,,,og-post,,,,AAXX 17114 07335 32480 52108 10185 20144 39974 40114 58001 85200 333 85815=
07335,1999-09-17 12:00:00,19.2,1010.9,-0.6,60,11.3,30000,14.816,,,250,,,,,0.2,,,,,1,og-post,,,,AAXX 17124 07335 11580 52508 10192 20113 39969 40109 58006 69921 70162 85200 333 85828=
07335,1999-09-17 13:00:00,19.8,1010.7,-0.7,61,12.1,30000,14.816,,,240,,,,,,,,,,,og-post,,,,AAXX 17134 07335 32580 52408 10198 20121 39968 40107 57007 85201 333 85830=
07335,1999-09-17 14:00:00,20.1,1010.4,-0.9,58,11.6,30000,18.52,,,210,,,,,,,,,,,og-post,,,,AAXX 17144 07335 32680 72110 10201 20116 39965 40104 56009 82232 333 82833 85075=
07335,1999-09-17 15:00:00,20.2,1010.1,-0.7,56,11.1,30000,18.52,,,230,,,,,,,,,,15,og-post,,,,AAXX 17154 07335 31680 72310 10202 20111 39962 40101 58007 71522 82232 333 82833 86075=
07335,1999-09-17 16:00:00,19.4,1010.3,-0.5,60,11.4,30000,14.816,,,250,,,,,,,,,,,og-post,,,,AAXX 17164 07335 32680 72508 10194 20114 39963 40103 55005 83232 333 83833 86075=
07335,1999-09-17 17:00:00,18.7,1010.4,-0.1,65,12,30000,11.112,,,280,,,,,,,,,,15,og-post,,,,AAXX 17174 07335 31680 72806 10187 20120 39964 40104 55001 71522 82232 333 82833 87075=
07335,1999-09-17 18:00:00,17.2,1010.6,0.3,68,11.2,,14.816,,,240,13.7,20.6,,,,0.2,,,,,og-post,,,,AAXX 17184 07335 16/// /2408 10172 20112 39965 40106 52003 69922 333 10206 20137=
07335,1999-09-17 19:00:00,15.6,1010.8,0.4,76,11.4,,7.408,,,210,,,,,,,,,,,og-post,,,,AAXX 17194 07335 36/// /2104 10156 20114 39967 40108 53004=
07335,1999-09-18 00:00:00,13,1010.6,-0.9,94,12,0,7.408,,,200,,,,,,,,,,,wg-a,,,,AAXX 18004 07335 32/// /2004 10130 20120 39963 40106 58009 90000=
07335,1999-09-18 04:00:00,13,1009.2,-1.2,94,12,6000,11.112,,,190,,,,,,,,,,0,wg-a,,,,AAXX 18044 07335 32156 /1906 10130 20120 39949 40092 58012 700// 85600 90400=
07335,1999-09-18 05:00:00,13,1009,-1,94,12,500,14.816,,,190,,,,,,,,,,0,wg-a,,,,AAXX 18054 07335 32100 71908 10130 20120 39947 40090 56010 700// 876// 90500=
07335,1999-09-18 06:00:00,12,1009.2,-0.5,100,12,4000,14.816,,,190,12,17.2,,,,,,,,10,wg-a,,,,AAXX 18064 07335 12140 81908 10120 20120 39949 40092 55005 60004 71022 886// 90600 333 10172 20120=
07335,1999-09-18 07:00:00,13,1009,-0.2,94,12,3500,14.816,,,180,,,,,,,,,,10,wg-a,,,,AAXX 18074 07335 32135 81808 10130 20120 39947 40090 57002 71022 886// 90700=
07335,1999-09-18 08:00:00,13,1008.6,-0.3,100,13,500,14.816,,,180,,,,,,,,,,0,wg-a,,,,AAXX 18084 07335 32100 81808 10130 20130 39944 40086 58003 700// 886// 90800=
07335,1999-09-18 09:00:00,15,1008.2,-0.8,88,13,20000,18.52,,,190,,,,,,,,,,0,wg-a,,,,AAXX 18094 07335 32370 71910 10150 20130 39941 40082 58008 700// 87132 90900=
07335,1999-09-18 10:00:00,18,1007.5,-1.2,77,14,20000,18.52,,,200,,,,,,,,,,0,wg-a,,,,AAXX 18104 07335 32470 72010 10180 20140 39935 40075 58012 700// 81136 91000=
07335,1999-09-18 11:00:00,19,1006.5,-1.8,68,13,20000,22.224,,,180,,,,,,,,,,0,wg-a,,,,AAXX 18114 07335 32570 71812 10190 20130 39926 40065 58018 700// 82132 91100=
07335,1999-09-18 12:00:00,19,1006,-2,64,12,20000,22.224,,,200,,,,,,,,,,0,wg-a,,,,AAXX 18124 07335 32570 82012 10190 20120 39921 40060 56020 700// 83172 91200=
07335,1999-09-18 13:00:00,18,1005.2,-2.2,68,12,20000,22.224,,,180,,,,,,,,,,0,wg-a,,,,AAXX 18134 07335 32570 81812 10180 20120 39913 40052 56022 700// 81172 91300=
07335,1999-09-18 14:00:00,19,1004.4,-2.1,64,12,20000,25.928,,,170,,,,,,,,,,0,wg-a,,,,AAXX 18144 07335 32570 71714 10190 20120 39905 40044 58021 700// 81172 91400=
07335,1999-09-18 15:00:00,20,1003.1,-2.8,60,12,20000,25.928,,,180,,,,,,,,,,0,wg-a,,,,AAXX 18154 07335 32570 /1814 10200 20120 39893 40031 58028 700// 81142 91500=
07335,1999-09-18 18:00:00,18,1001.7,-1.5,64,11,0,14.816,,,180,12.2,20.3,,,,,,,,,wg-a,,,,AAXX 18184 07335 32/// /1808 10180 20110 39878 40017 56015 91800 333 10203 20122=
07335,1999-09-19 00:00:00,17,997.9,-1.9,72,12,0,14.816,,,180,,,,,,,,,,,wg-a,,,,AAXX 19004 07335 32/// /1808 10170 20120 39840 49979 58019 90000=
07335,1999-09-19 04:00:00,16,996.3,-1.4,82,13,8000,22.224,,,190,,,0,,,,,,,61,wg-a,,,,AAXX 19044 07335 12258 81912 10160 20130 39824 49963 58014 60005 76162 8557/ 90400=
07335,1999-09-19 05:00:00,15,996.1,-1.7,88,13,8000,18.52,,,190,,,1,,,,,,,61,wg-a,,,,AAXX 19054 07335 12258 81910 10150 20130 39821 49961 56017 60015 76166 875// 90500=
07335,1999-09-19 06:00:00,14,995.1,-2,94,13,15000,14.816,,,170,14.4,17.7,,3,,,3,,,21,wg-a,,,,AAXX 19064 07335 02265 81708 10140 20130 39811 49951 58020 60034 72162 875// 90600 333 10177 20144 60037=
07335,1999-09-19 07:00:00,15,994.9,-1.5,94,14,25000,11.112,,,160,,,,,,,,,,0,wg-a,,,,AAXX 19074 07335 32275 71606 10150 20140 39809 49949 56015 700// 8557/ 90700=
07335,1999-09-19 08:00:00,15,994.2,-1.8,94,14,25000,11.112,,,150,,,,,,,,,,0,wg-a,,,,AAXX 19084 07335 32275 71506 10150 20140 39803 49942 56018 700// 8557/ 90800=
07335,1999-09-19 09:00:00,16,994.1,-0.9,88,14,20000,11.112,,,140,,,,,,,,,,61,wg-a,,,,AAXX 19094 07335 02270 81406 10160 20140 39802 49941 56009 61000 76162 8557/ 90900 333 ////=
07335,1999-09-19 10:00:00,17,993.3,-1.4,88,15,25000,7.408,,,120,,,0,,,,,,,21,wg-a,,,,AAXX 19104 07335 12275 81204 10170 20150 39795 49933 58014 60005 72162 8557/ 91000=
07335,1999-09-19 11:00:00,18,992.9,-1.2,83,15,20000,7.408,,,150,,,,,,,,,,61,wg-a,,,,AAXX 19114 07335 02270 81504 10180 20150 39791 49929 58012 61000 76162 8557/ 91100 333 ////=
07335,1999-09-19 12:00:00,17,992.6,-1.4,82,14,20000,14.816,,,180,,,,1,,,,,,61,wg-a,,,,AAXX 19124 07335 12270 71808 10170 20140 39788 49926 56014 60017 76162 8657/ 91200=
07335,1999-09-19 13:00:00,18,991.2,-2.1,73,13,25000,11.112,,,120,,,0,,,,,,,21,wg-a,,,,AAXX 19134 07335 12475 71206 10180 20130 39774 49912 58021 60005 72162 8687/ 91300=
07335,1999-09-19 14:00:00,18,990.7,-2.1,83,15,500,14.816,,,110,,,,,,,,,,0,wg-a,,,,AAXX 19144 07335 32400 71108 10180 20150 39770 49907 58021 700// 8387/ 91400=
07335,1999-09-19 15:00:00,18,990,-2.5,77,14,500,11.112,,,160,,,,0,,,,,,2,wg-a,,,,AAXX 19154 07335 12400 71606 10180 20140 39763 49900 56025 60007 70262 8387/ 91500=
07335,1999-09-19 18:00:00,17,989.5,-0.6,82,14,0,7.408,,,150,14.4,18.4,,,,,,,,,wg-a,,,,AAXX 19184 07335 32/// /1504 10170 20140 39757 49895 55006 91800 333 10184 20144=
07335,1999-09-20 00:00:00,14,990.2,1.1,94,13,0,18.52,,,210,,,,,,,,,,,wg-a,,,,AAXX 20004 07335 32/// /2110 10140 20130 39763 49902 51011 90000=
07335,1999-09-20 04:00:00,13,992.5,1.6,100,13,10000,18.52,,,210,,,0,,,,,,,0,wg-a,,,,AAXX 20044 07335 12260 82110 10130 20130 39785 49925 52016 60005 700// 876// 90400=
07335,1999-09-20 05:00:00,13,992.9,1.5,94,12,11000,18.52,,,200,,,,,,,,,,,wg-a,,,,AAXX 20054 07335 32/61 /2010 10130 20120 39789 49929 51015 90500=
07335,1999-09-20 06:00:00,14,993.2,1.2,94,13,20000,22.224,,,190,12.8,16.6,,0,,,5,,,1,wg-a,,,,AAXX 20064 07335 02270 71912 10140 20130 39792 49932 51012 60054 70162 876// 90600 333 10166 20128 60007=
07335,1999-09-20 07:00:00,14,993.3,0.8,94,13,20000,22.224,,,200,,,,,,,,,,0,wg-a,,,,AAXX 20074 07335 32370 72012 10140 20130 39793 49933 51008 700// 876// 90700=
07335,1999-09-20 08:00:00,14,993.8,0.9,94,13,20000,25.928,,,210,,,,,,,,,,0,wg-a,,,,AAXX 20084 07335 32470 72114 10140 20130 39798 49938 53009 700// 875// 90800=
07335,1999-09-20 09:00:00,15,994.4,1.2,88,13,20000,22.224,,,200,,,,,,,,,,0,wg-a,,,,AAXX 20094 07335 32470 72012 10150 20130 39804 49944 53012 700// 875// 90900=
07335,1999-09-20 10:00:00,15,994.9,1.7,88,13,20000,29.632,,,220,,,,,,,,,,0,wg-a,,,,AAXX 20104 07335 32470 72216 10150 20130 39810 49949 53017 700// 872// 91000=
07335,1999-09-20 11:00:00,16,995.4,1.7,82,13,20000,31.484,,,210,,,,,,,,,,0,wg-a,,,,AAXX 20114 07335 32470 72117 10160 20130 39815 49954 51017 700// 872// 91100=
07335,1999-09-20 13:00:00,15,996,1.1,88,13,20000,29.632,,,200,,,,,,,,,,0,wg-a,,,,AAXX 20134 07335 32470 82016 10150 20130 39821 49960 52011 700// 875// 91300=
07335,1999-09-20 14:00:00,14,996.3,0.8,94,13,12000,29.632,,,200,,,1,,,,,,,80,wg-a,,,,AAXX 20144 07335 12262 72016 10140 20130 39823 49963 53008 60015 78086 8685/ 91400=
07335,1999-09-20 15:00:00,14,996.8,1.2,94,13,10000,25.928,,,200,,,,3,,,,,,61,wg-a,,,,AAXX 20154 07335 12260 72014 10140 20130 39828 49968 52012 60037 76186 8587/ 91500=
07335,1999-09-20 16:00:00,14,996.9,0.8,94,13,15000,18.52,,,210,,,3,,,,,,,80,wg-a,,,,AAXX 20164 07335 12265 82110 10140 20130 39829 49969 51008 60035 78086 8687/ 91600=
07335,1999-09-20 17:00:00,13,997.1,0.7,94,12,10000,18.52,,,220,,,6,,,,,,,80,wg-a,,,,AAXX 20174 07335 12260 82210 10130 20120 39830 49971 51007 60065 78088 888// 91700=
07335,1999-09-20 18:00:00,14,996.8,0,94,13,0,25.928,,,200,13.3,16.4,,10,,,,,,,wg-a,,,,AAXX 20184 07335 12/// /2014 10140 20130 39828 49968 50000 60107 91800 333 10164 20133=
07335,1999-09-21 00:00:00,15,998,1,94,14,0,22.224,,,210,,,,1,,,,,,,wg-a,,,,AAXX 21004 07335 12/// /2112 10150 20140 39840 49980 53010 60017 90000=
07335,1999-09-21 04:00:00,14,1000.3,1.4,100,14,20000,18.52,,,220,,,,,,,,,,0,wg-a,,,,AAXX 21044 07335 02170 72210 10140 20140 39862 40003 51014 61000 700// 875// 90400 333 ////=
07335,1999-09-21 05:00:00,15,1000.5,1.2,94,14,20000,18.52,,,210,,,,,,,,,,21,wg-a,,,,AAXX 21054 07335 32370 82110 10150 20140 39865 40005 51012 72122 8657/ 90500=
07335,1999-09-21 06:00:00,14,1001.1,0.9,94,13,20000,22.224,,,210,13.7,14.8,,,,,20,,,3,wg-a,,,,AAXX 21064 07335 02370 72112 10140 20130 39870 40011 53009 60204 70362 85731 90600 333 10148 20137 61000=
07335,1999-09-21 07:00:00,15,1001.3,1.1,94,14,10000,18.52,,,200,,,0,,,,,,,61,wg-a,,,,AAXX 21074 07335 12260 82010 10150 20140 39873 40013 52011 60005 76162 8677/ 90700=
07335,1999-09-21 08:00:00,15,1001.3,0.8,94,14,15000,22.224,,,200,,,,,,,,,,21,wg-a,,,,AAXX 21084 07335 02365 82012 10150 20140 39873 40013 51008 61000 72162 86732 90800 333 ////=
07335,1999-09-21 09:00:00,16,1001.4,0.4,88,14,20000,22.224,,,210,,,,0,,,,,,1,wg-a,,,,AAXX 21094 07335 12470 72112 10160 20140 39874 40014 51004 60007 70162 8353/ 90900=
07335,1999-09-21 10:00:00,17,1001.6,0.4,82,14,20000,25.928,,,200,,,,,,,,,,0,wg-a,,,,AAXX 21104 07335 32470 82014 10170 20140 39877 40016 53004 700// 8457/ 91000=
07335,1999-09-21 11:00:00,15,1001.9,0.6,94,14,15000,22.224,,,200,,,0,,,,,,,61,wg-a,,,,AAXX 21114 07335 12165 82012 10150 20140 39879 40019 53006 60005 76162 8577/ 91100=
07335,1999-09-21 12:00:00,15,1002.1,0.6,94,14,15000,25.928,,44.448,200,,,,2,,,,,,61,wg-a,,,,AAXX 21124 07335 12465 82014 10150 20140 39880 40021 51006 60027 76162 8552/ 91200 333 91024=
07335,1999-09-21 13:00:00,14,1001.4,-0.4,94,13,500,22.224,,,190,,,3,,,,,,,51,wg-a,,,,AAXX 21134 07335 12200 81912 10140 20130 39873 40014 58004 60035 75166 877// 91300=
07335,1999-09-21 14:00:00,14,1001.1,-0.9,100,14,6000,22.224,,,180,,,5,,,,,,,51,wg-a,,,,AAXX 21144 07335 12256 81812 10140 20140 39870 40011 58009 60055 75166 877// 91400=
07335,1999-09-21 15:00:00,15,1000.7,-1.3,94,14,20000,25.928,,,190,,,,9,,,,,,21,wg-a,,,,AAXX 21154 07335 12270 81914 10150 20140 39867 40007 56013 60097 72165 887// 91500=
07335,1999-09-21 16:00:00,17,1000.6,-0.6,94,16,25000,29.632,,50.004,200,,,,,,,,,,0,wg-a,,,,AAXX 21164 07335 32375 72016 10170 20160 39867 40006 56006 700// 875// 91600 333 91027=
07335,1999-09-21 17:00:00,17,1001.1,0.2,94,16,15000,22.224,,,220,,,0,,,,,,,21,wg-a,,,,AAXX 21174 07335 12165 82212 10170 20160 39872 40011 53002 60005 72122 887// 91700=
07335,1999-09-21 18:00:00,17,1001.7,1.1,94,16,0,25.928,,,210,13.9,17.6,,1,,,,,,,wg-a,,,,AAXX 21184 07335 12/// /2114 10170 20160 39878 40017 53011 60017 91800 333 10176 20139=
07335,1999-09-22 00:00:00,17,1004.3,0.1,94,16,0,14.816,,,190,,,,,,,,,,,wg-a,,,,AAXX 22004 07335 32/// /1908 10170 20160 39903 40043 51001 90000=
07335,1999-09-22 04:00:00,17,1004,-0.4,88,15,15000,18.52,,,180,,,,,,,,,,0,wg-a,,,,AAXX 22044 07335 32565 81810 10170 20150 39900 40040 56004 700// 8557/ 90400=
07335,1999-09-22 05:00:00,18,1003.8,-0.3,83,15,20000,22.224,,,190,,,,,,,,,,0,wg-a,,,,AAXX 22054 07335 32570 81912 10180 20150 39899 40038 56003 700// 8257/ 90500=
07335,1999-09-22 06:00:00,17,1004.1,0.1,88,15,20000,18.52,,,190,16.5,17.5,,,,,12,,,0,wg-a,,,,AAXX 22064 07335 12570 81910 10170 20150 39901 40041 53001 60124 700// 8357/ 90600 333 10175 20165=
07335,1999-09-22 07:00:00,17,1004.3,0.3,88,15,20000,22.224,,,190,,,,,,,,,,0,wg-a,,,,AAXX 22074 07335 32570 81912 10170 20150 39903 40043 53003 700// 8587/ 90700=
07335,1999-09-22 08:00:00,18,1004.8,1,88,16,20000,18.52,,,200,,,,,,,,,,0,wg-a,,,,AAXX 22084 07335 32570 82010 10180 20160 39909 40048 53010 700// 8481/ 90800=
07335,1999-09-22 09:00:00,19,1004.6,0.6,83,16,20000,18.52,,,190,,,,,,,,,,0,wg-a,,,,AAXX 22094 07335 32670 71910 10190 20160 39907 40046 50006 700// 8251/ 90900=
07335,1999-09-22 10:00:00,20,1005.1,0.9,78,16,20000,25.928,,42.596,200,,,,,,,,,,0,wg-a,,,,AAXX 22104 07335 32670 72014 10200 20160 39912 40051 51009 700// 8157/ 91000 333 91023=
07335,1999-09-22 11:00:00,20,1005,0.3,73,15,20000,18.52,,,200,,,,,,,,,,0,wg-a,,,,AAXX 22114 07335 32670 72010 10200 20150 39912 40050 53003 700// 8157/ 91100=
07335,1999-09-22 12:00:00,21,1004.8,0.3,69,15,20000,25.928,,,190,,,,,,,,,,0,wg-a,,,,AAXX 22124 07335 32570 71914 10210 20150 39910 40048 50003 700// 8187/ 91200=
07335,1999-09-22 13:00:00,22,1005,0.1,65,15,20000,25.928,,,210,,,,,,,,,,0,wg-a,,,,AAXX 22134 07335 32/70 72114 10220 20150 39913 40050 53001 700// 85032 91300=
07335,1999-09-22 14:00:00,22,1005.1,0.1,69,16,20000,18.52,,,190,,,,,,,,,,0,wg-a,,,,AAXX 22144 07335 32/70 71910 10220 20160 39913 40051 53001 700// 85032 91400=
07335,1999-09-22 16:00:00,22,1005,-0,73,17,20000,18.52,,,190,,,,,,,,,,0,wg-a,,,,AAXX 22164 07335 32870 71910 10220 20170 39913 40050 54000 700// 875// 91600=
07335,1999-09-22 17:00:00,22,1005,-0,69,16,20000,14.816,,,190,,,,,,,,,,0,wg-a,,,,AAXX 22174 07335 32570 71908 10220 20160 39913 40050 54000 700// 8587/ 91700=
07335,1999-09-22 18:00:00,21,1005.2,0.1,78,17,0,11.112,,,180,17.2,22.4,,,,,,,,,wg-a,,,,AAXX 22184 07335 32/// /1806 10210 20170 39914 40052 53001 91800 333 10224 20172=
07335,1999-09-23 00:00:00,16,1008,1.7,88,14,0,11.112,,,340,,,,,,,,,,,wg-a,,,,AAXX 23004 07335 32/// /3406 10160 20140 39939 40080 53017 90000=
07335,1999-09-23 04:00:00,15,1009.9,0.6,94,14,12000,11.112,,,160,,,,,,,,,,0,wg-a,,,,AAXX 23044 07335 32762 61606 10150 20140 39957 40099 53006 700// 86500 90400=
07335,1999-09-23 05:00:00,15,1010.4,1,94,14,15000,11.112,,,170,,,,,,,,,,0,wg-a,,,,AAXX 23054 07335 32765 61706 10150 20140 39962 40104 53010 700// 86500 90500=
07335,1999-09-23 06:00:00,14,1010.9,1.4,94,13,20000,7.408,,,170,13.1,21.3,,,,,1,,,15,wg-a,,,,AAXX 23064 07335 12670 /1704 10140 20130 39967 40109 53014 60014 71522 85500 90600 333 10213 20131=
07335,1999-09-23 07:00:00,15,1011.6,1.7,94,14,500,7.408,,,190,,,,,,,,,,0,wg-a,,,,AAXX 23074 07335 32700 41904 10150 20140 39974 40116 53017 700// 84500 90700=
07335,1999-09-23 08:00:00,18,1011.8,1.6,83,15,500,7.408,,,160,,,,,,,,,,0,wg-a,,,,AAXX 23084 07335 32700 21604 10180 20150 39978 40118 51016 700// 82500 90800=
07335,1999-09-23 09:00:00,21,1012.3,1.7,69,15,500,11.112,,,210,,,,,,,,,,0,wg-a,,,,AAXX 23094 07335 32700 12106 10210 20150 39984 40123 51017 700// 81500 90900=
07335,1999-09-23 10:00:00,22,1012,0.8,65,15,500,11.112,,,210,,,,,,,,,,0,wg-a,,,,AAXX 23104 07335 32500 /2106 10220 20150 39982 40120 50008 700// 81200 91000=
07335,1999-09-23 11:00:00,23,1012,0.4,61,15,500,14.816,,,200,,,,,,,,,,0,wg-a,,,,AAXX 23114 07335 32600 22008 10230 20150 39982 40120 51004 700// 82200 91100=
07335,1999-09-23 12:00:00,24,1012.1,-0.1,57,15,500,14.816,,,210,,,,,,,,,,0,wg-a,,,,AAXX 23124 07335 32600 32108 10240 20150 39983 40121 55001 700// 83200 91200=
07335,1999-09-23 13:00:00,23,1012.2,0.2,57,14,500,14.816,,,240,,,,,,,,,,0,wg-a,,,,AAXX 23134 07335 32600 32408 10230 20140 39984 40122 53002 700// 83200 91300=
07335,1999-09-23 14:00:00,24,1012.2,0.2,50,13,500,25.928,,,240,,,,,,,,,,0,wg-a,,,,AAXX 23144 07335 32600 32414 10240 20130 39984 40122 51002 700// 83200 91400=
07335,1999-09-23 15:00:00,24,1012.6,0.5,50,13,500,22.224,,,260,,,,,,,,,,0,wg-a,,,,AAXX 23154 07335 32600 /2612 10240 20130 39988 40126 53005 700// 81200 91500=
07335,1999-09-23 16:00:00,24,1012.9,0.7,47,12,500,29.632,,,250,,,,,,,,,,0,wg-a,,,,AAXX 23164 07335 32600 /2516 10240 20120 39991 40129 53007 700// 81300 91600=
07335,1999-09-23 17:00:00,21,1013.7,1.4,56,12,500,25.928,,,270,,,,,,,,,,0,wg-a,,,,AAXX 23174 07335 32600 /2714 10210 20120 39998 40137 53014 700// 81200 91700=
07335,1999-09-23 18:00:00,18,1014.7,1.8,73,13,0,11.112,,,250,13.8,25.2,,,,,,,,,wg-a,,,,AAXX 23184 07335 32/// /2506 10180 20130 30006 40147 53018 91800 333 10252 20138=
07335,1999-09-24 00:00:00,12,1017.1,0.5,100,12,0,3.704,,,140,,,,,,,,,,,wg-a,,,,AAXX 24004 07335 32/// /1402 10120 20120 30027 40171 50005 90000=
07335,1999-09-24 04:00:00,11,1016.5,-0.7,100,11,15000,3.704,,,150,,,,,,,,,,0,wg-a,,,,AAXX 24044 07335 32/65 31502 10110 20110 30021 40165 57007 700// 83030 90400=
07335,1999-09-24 05:00:00,11,1016.4,-0.8,100,11,15000,3.704,,,140,,,,,,,,,,0,wg-a,,,,AAXX 24054 07335 32/65 41402 10110 20110 30019 40164 56008 700// 84030 90500=
07335,1999-09-24 06:00:00,11,1016.5,-0.1,100,11,15000,7.408,,,170,10.6,17.9,,0,,,,,,0,wg-a,,,,AAXX 24064 07335 02/65 51704 10110 20110 30021 40165 55001 60004 700// 83032 90600 333 10179 20106 60007=
07335,1999-09-24 07:00:00,13,1016.4,-0,100,13,15000,11.112,,,160,,,,,,,,,,0,wg-a,,,,AAXX 24074 07335 32765 61606 10130 20130 30021 40164 55000 700// 81542 90700=
07335,1999-09-24 08:00:00,16,1016.4,0.3,88,14,15000,11.112,,,160,,,,,,,,,,0,wg-a,,,,AAXX 24084 07335 32565 /1606 10160 20140 30022 40164 51003 700// 81242 90800=
07335,1999-09-24 09:00:00,19,1016.4,0.3,83,16,15000,14.816,,,210,,,,,,,,,,0,wg-a,,,,AAXX 24094 07335 32665 62108 10190 20160 30024 40164 53003 700// 83242 90900=
07335,1999-09-24 10:00:00,21,1016.5,0.5,78,17,15000,18.52,,,230,,,,,,,,,,0,wg-a,,,,AAXX 24104 07335 32665 72310 10210 20170 30026 40165 53005 700// 81252 91000=
07335,1999-09-24 11:00:00,22,1016.3,0.2,73,17,15000,22.224,,,230,,,,,,,,,,0,wg-a,,,,AAXX 24114 07335 32665 62312 10220 20170 30024 40163 50002 700// 81252 91100=
07335,1999-09-24 12:00:00,24,1016.2,0,54,14,20000,14.816,,,230,,,,,,,,,,0,wg-a,,,,AAXX 24124 07335 32670 42308 10240 20140 30024 40162 50000 700// 81132 91200=
07335,1999-09-24 13:00:00,24,1016,-0.4,50,13,20000,14.816,,,240,,,,,,,,,,0,wg-a,,,,AAXX 24134 07335 32670 /2408 10240 20130 30022 40160 57004 700// 81132 91300=
07335,1999-09-24 14:00:00,24,1015.5,-0.7,54,14,20000,14.816,,,230,,,,,,,,,,0,wg-a,,,,AAXX 24144 07335 32670 /2308 10240 20140 30017 40155 58007 700// 81132 91400=
07335,1999-09-24 15:00:00,24,1015.4,-0.8,54,14,20000,14.816,,,240,,,,,,,,,,0,wg-a,,,,AAXX 24154 07335 32670 /2408 10240 20140 30016 40154 56008 700// 81132 91500=
07335,1999-09-24 16:00:00,23,1015.1,-0.9,57,14,20000,14.816,,,260,,,,,,,,,,0,wg-a,,,,AAXX 24164 07335 32670 /2608 10230 20140 30013 40151 56009 700// 81132 91600=
07335,1999-09-24 17:00:00,22,1015.3,-0.3,60,14,20000,11.112,,,260,,,,,,,,,,0,wg-a,,,,AAXX 24174 07335 32670 /2606 10220 20140 30014 40153 55003 700// 81132 91700=
07335,1999-09-24 18:00:00,19,1015.3,-0.3,73,14,0,7.408,,,280,11.1,24.6,,,,,,,,,wg-a,,,,AAXX 24184 07335 32/// /2804 10190 20140 30013 40153 56003 91800 333 10246 20111=
07335,1999-09-25 00:00:00,15,1015.6,-0.1,94,14,0,0,,,0,,,,,,,,,,,wg-a,,,,AAXX 25004 07335 32/// /0000 10150 20140 30014 40156 58001 90000=
07335,1999-09-25 04:00:00,16,1014,-2,94,15,15000,7.408,,,180,,,,,,,,,,0,wg-a,,,,AAXX 25044 07335 32465 81804 10160 20150 39998 40140 56020 700// 875// 90400=
07335,1999-09-25 05:00:00,16,1013.9,-1.3,94,15,8000,7.408,,,200,,,0,,,,,,,61,wg-a,,,,AAXX 25054 07335 12458 82004 10160 20150 39997 40139 56013 60005 76162 875// 90500=
07335,1999-09-25 06:00:00,16,1014,-0.2,94,15,10000,7.408,,,220,14.9,18.7,,0,,,,,,21,wg-a,,,,AAXX 25064 07335 02760 72204 10160 20150 39998 40140 55002 60004 72162 8357/ 90600 333 10187 20149 60007=
07335,1999-09-25 07:00:00,16,1013.9,-0.1,94,15,6000,7.408,,,200,,,,,,,,,,0,wg-a,,,,AAXX 25074 07335 32156 82004 10160 20150 39997 40139 57001 700// 8457/ 90700=
07335,1999-09-25 08:00:00,16,1013.6,-0.2,100,16,6000,7.408,,,190,,,,,,,,,,60,wg-a,,,,AAXX 25084 07335 02156 71904 10160 20160 39995 40136 58002 61000 76062 8557/ 90800 333 ////=
07335,1999-09-25 09:00:00,17,1013.9,-0,94,16,8000,11.112,,,220,,,,,,,,,,21,wg-a,,,,AAXX 25094 07335 02258 82206 10170 20160 39998 40139 55000 61000 72162 8667/ 90900 333 ////=
07335,1999-09-25 10:00:00,18,1013.7,-0.1,88,16,12000,11.112,,,180,,,,,,,,,,0,wg-a,,,,AAXX 25104 07335 32362 81806 10180 20160 39996 40137 57001 700// 875// 91000=
07335,1999-09-25 11:00:00,18,1013.4,-0.1,88,16,12000,11.112,,,200,,,,,,,,,,0,wg-a,,,,AAXX 25114 07335 32462 82006 10180 20160 39994 40134 58001 700// 878// 91100=
07335,1999-09-25 12:00:00,19,1012.8,-1,83,16,12000,14.816,,,210,,,,,,,,,,1,wg-a,,,,AAXX 25124 07335 32462 82108 10190 20160 39988 40128 58010 70162 878// 91200=
07335,1999-09-25 13:00:00,19,1011.9,-1.7,83,16,18000,11.112,,,200,,,,,,,,,,0,wg-a,,,,AAXX 25134 07335 32468 82006 10190 20160 39979 40119 58017 700// 8587/ 91300=
07335,1999-09-25 14:00:00,19,1011.2,-2.2,83,16,15000,11.112,,,210,,,,,,,,,,61,wg-a,,,,AAXX 25144 07335 02465 82106 10190 20160 39972 40112 58022 61000 76162 8687/ 91400 333 ////=
07335,1999-09-25 15:00:00,17,1011.4,-1.5,94,16,3000,14.816,,,230,,,,5,,,,,,61,wg-a,,,,AAXX 25154 07335 12230 82308 10170 20160 39973 40114 55015 60057 76162 879// 91500=
07335,1999-09-25 18:00:00,15,1010.2,-1.3,94,14,0,11.112,,,210,14.9,19.3,,,,,,,,,wg-a,,,,AAXX 25184 07335 32/// /2106 10150 20140 39960 40102 55013 91800 333 10193 20149=
07335,1999-09-26 00:00:00,15,1011,-0.1,94,14,0,14.816,,,230,,,,,,,,,,,wg-a,,,,AAXX 26004 07335 32/// /2308 10150 20140 39968 40110 58001 90000=
07335,1999-09-26 04:00:00,14,1010.6,-0.3,94,13,8000,11.112,,,220,,,,,,,,,,61,wg-a,,,,AAXX 26044 07335 02258 82206 10140 20130 39964 40106 57003 61000 76162 887// 90400 333 ////=
07335,1999-09-26 05:00:00,13,1010.8,-0,100,13,10000,11.112,,,210,,,0,,,,,,,21,wg-a,,,,AAXX 26054 07335 12360 /2106 10130 20130 39966 40108 55000 60005 72162 85700 90500=
07335,1999-09-26 06:00:00,13,1011.4,0.6,94,12,10000,7.408,,,220,12.9,14.9,,0,,,10,,,3,wg-a,,,,AAXX 26064 07335 02360 32204 10130 20120 39971 40114 53006 60104 70361 83800 90600 333 10149 20129 60007=
07335,1999-09-26 07:00:00,13,1011.6,0.9,100,13,15000,14.816,,,200,,,,,,,,,,0,wg-a,,,,AAXX 26074 07335 32365 32008 10130 20130 39973 40116 52009 700// 83802 90700=
07335,1999-09-26 08:00:00,15,1011.7,0.9,94,14,15000,14.816,,,200,,,,,,,,,,0,wg-a,,,,AAXX 26084 07335 32365 52008 10150 20140 39975 40117 51009 700// 84802 90800=
07335,1999-09-26 09:00:00,16,1011.9,0.7,94,15,15000,18.52,,,210,,,,0,,,,,,25,wg-a,,,,AAXX 26094 07335 12365 62110 10160 20150 39978 40119 53007 60007 72586 85202 90900=
07335,1999-09-26 10:00:00,16,1011.7,0.3,88,14,15000,11.112,,,210,,,,,,,,,,0,wg-a,,,,AAXX 26104 07335 32365 72106 10160 20140 39976 40117 50003 700// 86202 91000=
07335,1999-09-26 11:00:00,19,1011.1,-0.4,78,15,12000,18.52,,,220,,,0,,,,,,,25,wg-a,,,,AAXX 26114 07335 12362 /2210 10190 20150 39971 40111 58004 60005 72586 85232 91100=
07335,1999-09-26 12:00:00,17,1011,-0.9,82,14,500,22.224,,,230,,,,1,,,,,,80,wg-a,,,,AAXX 26124 07335 12200 72312 10170 20140 39969 40110 57009 60017 78086 872// 91200=
07335,1999-09-26 13:00:00,19,1010.5,-1.1,83,16,12000,22.224,,,230,,,1,,,,,,,25,wg-a,,,,AAXX 26134 07335 12262 62312 10190 20160 39965 40105 56011 60015 72586 84832 91300=
07335,1999-09-26 14:00:00,19,1010.4,-0.7,78,15,15000,29.632,,,230,,,,,,,,,,0,wg-a,,,,AAXX 26144 07335 32365 62316 10190 20150 39964 40104 56007 700// 84832 91400=
07335,1999-09-26 15:00:00,19,1010.2,-0.6,68,13,20000,29.632,,,250,,,,1,,,,,,1,wg-a,,,,AAXX 26154 07335 12570 62516 10190 20130 39963 40102 56006 60017 70186 84832 91500=
07335,1999-09-26 18:00:00,15,1010.7,0.3,88,13,0,11.112,,,230,12.7,19.7,,,,,,,,,wg-a,,,,AAXX 26184 07335 32/// /2306 10150 20130 39966 40107 53003 91800 333 10197 20127=
07335,1999-09-27 00:00:00,15,1010.8,-0.5,88,13,0,18.52,,,190,,,,,,,,,,,wg-a,,,,AAXX 27004 07335 32/// /1910 10150 20130 39966 40108 58005 90000=
07335,1999-09-27 04:00:00,13,1008.3,-2.2,94,12,20000,14.816,,,180,,,0,,,,,,,0,wg-a,,,,AAXX 27044 07335 12/70 71808 10130 20120 39941 40083 57022 60005 700// 83036 90400=
07335,1999-09-27 05:00:00,13,1007.8,-2,94,12,20000,18.52,,,190,,,,,,,,,,0,wg-a,,,,AAXX 27054 07335 32/70 61910 10130 20120 39936 40078 56020 700// 81032 90500=
07335,1999-09-27 06:00:00,14,1007.4,-1.6,88,12,20000,18.52,,,200,13,15.8,,0,,,2,,,0,wg-a,,,,AAXX 27064 07335 02/70 62010 10140 20120 39932 40074 56016 60024 700// 81032 90600 333 10158 20130 60007=
07335,1999-09-27 07:00:00,15,1007.5,-0.7,82,12,20000,22.224,,,200,,,,,,,,,,0,wg-a,,,,AAXX 27074 07335 32/70 72012 10150 20120 39934 40075 55007 700// 85032 90700=
07335,1999-09-27 08:00:00,15,1007.4,-0.3,88,13,20000,25.928,,,200,,,,,,,,,,61,wg-a,,,,AAXX 27084 07335 02270 82014 10150 20130 39933 40074 56003 61000 76162 8277/ 90800 333 ////=
07335,1999-09-27 09:00:00,16,1007.7,0.4,82,13,20000,22.224,,,210,,,,,,,,,,21,wg-a,,,,AAXX 27094 07335 02270 82112 10160 20130 39936 40077 53004 61000 72162 8277/ 90900 333 ////=
07335,1999-09-27 10:00:00,16,1007.7,0.2,88,14,8000,18.52,,,200,,,0,,,,,,,51,wg-a,,,,AAXX 27104 07335 12258 82010 10160 20140 39936 40077 53002 60005 75165 8272/ 91000=
07335,1999-09-27 11:00:00,16,1007.8,0.4,94,15,20000,18.52,,,210,,,1,,,,,,,21,wg-a,,,,AAXX 27114 07335 12270 82110 10160 20150 39937 40078 51004 60015 72165 877// 91100=
07335,1999-09-27 12:00:00,16,1007.9,0.2,94,15,12000,25.928,,,220,,,,3,,,,,,61,wg-a,,,,AAXX 27124 07335 12162 82214 10160 20150 39938 40079 53002 60037 76165 8772/ 91200=
07335,1999-09-27 14:00:00,18,1007.3,-0.4,88,16,25000,25.928,,,230,,,,,,,,,,0,wg-a,,,,AAXX 27144 07335 32475 72314 10180 20160 39933 40073 58004 700// 872// 91400=
07335,1999-09-27 15:00:00,18,1007.1,-0.7,83,15,500,22.224,,,230,,,,2,,,,,,1,wg-a,,,,AAXX 27154 07335 12400 72312 10180 20150 39931 40071 58007 60027 70162 86202 91500=
07335,1999-09-27 16:00:00,18,1007.3,-0.4,68,12,500,22.224,,,250,,,,,,,,,,0,wg-a,,,,AAXX 27164 07335 32500 72512 10180 20120 39933 40073 55004 700// 81232 91600=
07335,1999-09-27 17:00:00,17,1007.7,0.4,77,13,500,18.52,,,240,,,,,,,,,,0,wg-a,,,,AAXX 27174 07335 32500 72410 10170 20130 39937 40077 53004 700// 82832 91700=
07335,1999-09-27 18:00:00,16,1008,0.8,82,13,0,18.52,,,230,13.8,18.5,,,,,,,,,wg-a,,,,AAXX 27184 07335 32/// /2310 10160 20130 39939 40080 52008 91800 333 10185 20138=
07335,1999-09-27 20:00:00,15.4,1008.6,0.8,88,13.4,,18.52,,,220,,,,,,,,,,,og-post,,,,AAXX 27204 07335 36/// /2210 10154 20134 39945 40086 53008=
07335,1999-09-27 21:00:00,15.1,1008.7,0.7,89,13.3,,14.816,,,220,,,,,,,,,,,og-post,,,,AAXX 27214 07335 36/// /2208 10151 20133 39946 40087 51007=
07335,1999-09-27 22:00:00,15,1008.4,0.1,91,13.5,,18.52,,,220,,,,,,,,,,,og-post,,,,AAXX 27224 07335 36/// /2210 10150 20135 39943 40084 50001=
07335,1999-09-27 23:00:00,15,1008.3,-0.3,92,13.7,,18.52,,,210,,,,,,,,,,,og-post,,,,AAXX 27234 07335 36/// /2110 10150 20137 39942 40083 58003=
07335,1999-09-28 00:00:00,15.6,1008.3,-0.4,91,14.1,,22.224,,,220,,,,,,,,,,,og-post,,,,AAXX 28004 07335 36/// /2212 10156 20141 39942 40083 56004=
07335,1999-09-28 01:00:00,15.2,1008.3,-0.1,93,14.1,,25.928,,,240,,,1,,,,,,,,og-post,,,,AAXX 28014 07335 26/// /2414 10152 20141 39942 40083 56001 333 60015=
07335,1999-09-28 02:00:00,14.7,1007.8,-0.5,93,13.6,,22.224,,,240,,,7,,,,,,,,og-post,,,,AAXX 28024 07335 26/// /2412 10147 20136 39937 40078 58005 333 60075=
07335,1999-09-28 03:00:00,14.9,1007.9,-0.4,94,13.9,,14.816,,,260,,,,12,,,,,,,og-post,,,,AAXX 28034 07335 26/// /2608 10149 20139 39938 40079 55004 333 60127=
07335,1999-09-28 04:00:00,14.7,1008.4,0.1,93,13.6,12000,22.224,,,260,,,0.2,,,,,,,61,og-post,,,,AAXX 28044 07335 21262 82612 10147 20136 39943 40084 53001 76162 8372/ 333 69925 82704 88459=
07335,1999-09-28 05:00:00,13.9,1008.9,1,93,12.8,15000,14.816,,,260,,,0.8,,,,,,,21,og-post,,,,AAXX 28054 07335 21265 82608 10139 20128 39947 40089 53010 72162 8552/ 333 69985 83704 84615 88459=
07335,1999-09-28 06:00:00,13.8,1009.7,1.7,95,13,12000,11.112,,,250,13.8,16.2,,1,,13,17.6,1.7,13,60,og-post,,,,AAXX 28064 07335 /1262 82506 10138 20130 39955 40097 53017 60132 76062 8452/ 333 10162 20138 32013 55017 60017 70176 81704 84630 88459=
07335,1999-09-28 09:00:00,16,1011.9,2.3,92,14.7,15000,18.52,,,260,,,,0.2,,,,,,3,og-post,,,,AAXX 28094 07335 21365 72610 10160 20147 39978 40119 53023 70362 84832 333 69927 82708 83360=
07335,1999-09-28 12:00:00,19.1,1012.8,1,77,15,15000,22.224,,,270,,,,,0.2,,,,,3,og-post,,,,AAXX 28124 07335 11565 72712 10191 20150 39988 40128 51010 69921 70362 8683/ 333 83820 84650 87360=
07335,1999-09-28 14:00:00,18,1012.9,0.2,82,14.9,8000,18.52,,,250,,,,,,,,,,61,og-post,,,,AAXX 28144 07335 21458 82510 10180 20149 39989 40129 51002 76186 8687/ 333 69905 83819 85650 87459=
07335,1999-09-28 15:00:00,18.4,1012.7,-0.1,83,15.5,10000,14.816,,,230,,,,,,,,,,21,og-post,,,,AAXX 28154 07335 21460 82308 10184 20155 39987 40127 58001 72186 8587/ 333 69907 83817 84650 87459=
07335,1999-09-28 16:00:00,18.3,1012.5,-0.4,86,15.9,12000,18.52,,,240,,,,,,,,,,,og-post,,,,AAXX 28164 07335 32562 82410 10183 20159 39985 40125 58004 8687/ 333 83820 84650 87459=
07335,1999-09-28 18:00:00,17.7,1013.2,0.4,84,15,,22.224,,,250,13.8,19.3,,,,0.2,,,,,og-post,,,,AAXX 28184 07335 16/// /2512 10177 20150 39991 40132 53004 69922 333 10193 20138=
07335,1999-09-28 20:00:00,17,1013.8,0.9,88,15,,18.52,,,230,,,,,,,,,,,og-post,,,,AAXX 28204 07335 36/// /2310 10170 20150 39997 40138 52009=
07335,1999-09-28 21:00:00,16.9,1013.8,0.6,88,14.9,,18.52,,,230,,,,,,,,,,,og-post,,,,AAXX 28214 07335 36/// /2310 10169 20149 39997 40138 51006=
07335,1999-09-28 22:00:00,16.6,1013.7,0.2,89,14.8,,22.224,,,220,,,,,,,,,,,og-post,,,,AAXX 28224 07335 36/// /2212 10166 20148 39996 40137 50002=
07335,1999-09-28 23:00:00,16.5,1013.7,-0.1,88,14.5,,18.52,,,220,,,,,,,,,,,og-post,,,,AAXX 28234 07335 36/// /2210 10165 20145 39996 40137 57001=
07335,1999-09-29 00:00:00,16.5,1013.5,-0.3,88,14.5,,18.52,,,220,,,,,,,,,,,og-post,,,,AAXX 29004 07335 36/// /2210 10165 20145 39994 40135 58003=
07335,1999-09-29 01:00:00,16.1,1013,-0.7,90,14.5,,14.816,,,200,,,,,,,,,,,og-post,,,,AAXX 29014 07335 36/// /2008 10161 20145 39989 40130 58007=
07335,1999-09-29 02:00:00,16.2,1012.6,-1.1,90,14.6,,18.52,,,210,,,,,,,,,,,og-post,,,,AAXX 29024 07335 36/// /2110 10162 20146 39985 40126 58011=
07335,1999-09-29 03:00:00,16.2,1012.4,-1.1,89,14.4,,22.224,,,220,,,,,,,,,,,og-post,,,,AAXX 29034 07335 36/// /2212 10162 20144 39983 40124 56011=
07335,1999-09-29 04:00:00,16.2,1011.6,-1.4,88,14.2,15000,25.928,,,210,,,0.2,,,,,,,,og-post,,,,AAXX 29044 07335 22465 82114 10162 20142 39975 40116 58014 875// 333 69925 82613 83625 87650=
07335,1999-09-29 05:00:00,16.1,1011.2,-1.4,88,14.1,15000,25.928,,,210,,,,,,,,,,60,og-post,,,,AAXX 29054 07335 21165 82114 10161 20141 39971 40112 58014 76062 875// 333 69905 82702 87626=
07335,1999-09-29 07:00:00,16.5,1011.6,-0,83,13.6,12000,22.224,,,220,,,,,,,,,,60,og-post,,,,AAXX 29074 07335 21562 82212 10165 20136 39975 40116 55000 76066 875// 333 69905 87623=
07335,1999-09-29 08:00:00,16.3,1011.2,0,81,13,12000,22.224,,,210,,,,,,,,,,60,og-post,,,,AAXX 29084 07335 21262 82112 10163 20130 39971 40112 50000 76066 8557/ 333 69905 82703 83613 88360=
07335,1999-09-29 09:00:00,17.1,1010.9,-0.2,82,14,18000,22.224,,,200,,,,,,,,,,60,og-post,,,,AAXX 29094 07335 21468 82012 10171 20140 39968 40109 58002 76066 875// 333 69907 82613 87631=
07335,1999-09-29 10:00:00,17.9,1010.9,-0.6,78,14,20000,25.928,,,210,,,,,,,,,,21,og-post,,,,AAXX 29104 07335 21570 82114 10179 20140 39969 40109 55006 72162 885// 333 69905 88626=
07335,1999-09-29 11:00:00,17.6,1010.8,-0.3,84,14.9,8000,25.928,,,220,,,,,,,,,,61,og-post,,,,AAXX 29114 07335 21558 82214 10176 20149 39968 40108 56003 76162 875// 333 69905 87625=
07335,1999-09-29 12:00:00,17.2,1010.3,-0.5,91,15.7,10000,22.224,,,220,,,,0.6,0.6,,,,,61,og-post,,,,AAXX 29124 07335 /1460 82212 10172 20157 39963 40103 58005 69961 76162 8557/ 333 69967 82612 84618 88460=
07335,1999-09-29 13:00:00,16.9,1009.7,-1.2,95,16.1,6000,22.224,,,220,,,3,,,,,,,61,og-post,,,,AAXX 29134 07335 21156 82212 10169 20161 39957 40097 58012 76166 875// 333 60035 83703 86606=
07335,1999-09-29 14:00:00,17.1,1009,-1.8,96,16.5,4000,22.224,,,230,,,0.4,,,,,,,61,og-post,,,,AAXX 29144 07335 21240 82312 10171 20165 39950 40090 58018 76166 877// 333 69945 86705 87710=
07335,1999-09-29 15:00:00,17,1008.2,-2.1,96,16.4,3000,22.224,,,230,,,,4,,,,,,61,og-post,,,,AAXX 29154 07335 21230 82312 10170 20164 39942 40082 58021 76166 887// 333 60047 88706=
07335,1999-09-29 16:00:00,16.9,1007.4,-2.3,96,16.3,1800,22.224,,,220,,,0.4,,,,,,,61,og-post,,,,AAXX 29164 07335 21118 82212 10169 20163 39934 40074 58023 76166 887// 333 69945 83702 88706=
07335,1999-09-29 17:00:00,16.7,1007.3,-1.7,97,16.2,3500,22.224,,,220,,,4,,,,,,,61,og-post,,,,AAXX 29174 07335 21135 82212 10167 20162 39933 40073 56017 76166 887// 333 60045 82702 88706=
07335,1999-09-29 18:00:00,16.6,1007.3,-0.9,96,16,1600,25.928,,,230,16.1,17.9,,8,,12,,,,,og-post,,,,AAXX 29184 07335 /6/16 /2314 10166 20160 39933 40073 56009 60122 333 10179 20161 60087=
07335,1999-09-29 19:00:00,16.3,1006.9,-0.5,97,15.8,,14.816,,,210,,,7,,,,,,,,og-post,,,,AAXX 29194 07335 26/// /2108 10163 20158 39929 40069 58005 333 60075=
07335,1999-09-29 20:00:00,16.4,1006.6,-0.7,97,15.9,,18.52,,,220,,,3,,,,,,,,og-post,,,,AAXX 29204 07335 26/// /2210 10164 20159 39926 40066 58007 333 60035=
07335,1999-09-29 21:00:00,16.4,1006.5,-0.8,94,15.4,,25.928,,,240,,,,10,,,,,,,og-post,,,,AAXX 29214 07335 26/// /2414 10164 20154 39925 40065 56008 333 60107=
07335,1999-09-29 22:00:00,15.9,1004.4,-2.5,95,15.1,,14.816,,,220,,,0.2,,,,,,,,og-post,,,,AAXX 29224 07335 26/// /2208 10159 20151 39904 40044 58025 333 69925=
07335,1999-09-29 23:00:00,15.7,1003.4,-3.2,97,15.2,,18.52,,,180,,,1,,,,,,,,og-post,,,,AAXX 29234 07335 26/// /1810 10157 20152 39894 40034 58032 333 60015=
07335,1999-09-30 00:00:00,15.4,1002.8,-3.7,97,14.9,,14.816,,,190,,,,4,14,,,,,,og-post,,,,AAXX 30004 07335 /6/// /1908 10154 20149 39888 40028 56037 60141 333 60047=
07335,1999-09-30 01:00:00,15.3,1002.2,-2.2,97,14.8,,14.816,,,200,,,8,,,,,,,,og-post,,,,AAXX 30014 07335 26/// /2008 10153 20148 39882 40022 56022 333 60085=
07335,1999-09-30 02:00:00,14.7,1001.4,-2,97,14.2,,18.52,,,200,,,12,,,,,,,,og-post,,,,AAXX 30024 07335 26/// /2010 10147 20142 39874 40014 58020 333 60125=
07335,1999-09-30 03:00:00,14.5,998.5,-4.3,95,13.7,,25.928,,,200,,,,21,,,,,,,og-post,,,,AAXX 30034 07335 26/// /2014 10145 20137 39845 49985 58043 333 60217=
07335,1999-09-30 04:00:00,15,998.7,-3.5,92,13.7,20000,29.632,,,230,,,0.2,,,,,,,,og-post,,,,AAXX 30044 07335 22370 82316 10150 20137 39847 49987 55035 887// 333 69925 87708=
07335,1999-09-30 05:00:00,15.4,999.3,-2.1,92,14.1,15000,31.484,53.708,,270,,,0.2,,,,,,,61,og-post,,,,AAXX 30054 07335 21365 82717 10154 20141 39853 49993 55021 76162 878// 333 69925 82706 83816 85626 91129=
07335,1999-09-30 06:00:00,14.3,1000.6,2,90,12.7,20000,22.224,57.412,,260,14.3,16.6,,0.4,,35,47.8,,13,25,og-post,,,,AAXX 30064 07335 /1470 42612 10143 20127 3986 40006 53020 60352 72586 84800 333 10166 20143 32013 55000 69947 70478 81815 84625 91131=
07335,1999-09-30 07:00:00,14.3,1001.5,2.7,90,12.7,25000,18.52,,,250,,,,,,,,,,,og-post,,,,AAXX 30074 07335 32475 32510 10143 20127 39874 40015 53027 83832 333 81815 83625=
07335,1999-09-30 08:00:00,14.3,1002.4,3,84,11.6,12000,14.816,,,230,,,0.2,,,,,,,80,og-post,,,,AAXX 30084 07335 21262 72308 10143 20116 39883 40024 51030 78086 838// 333 69925 81704 83827 85640=
07335,1999-09-30 09:00:00,14.6,1002.9,2.3,92,13.3,20000,22.224,,,240,,,,0.6,,,,,,25,og-post,,,,AAXX 30094 07335 21270 72412 10146 20133 39888 40029 51023 72586 868// 333 69967 82703 85815=
07335,1999-09-30 10:00:00,16.1,1003,1.6,85,13.6,20000,25.928,,,250,,,,,,,,,,,og-post,,,,AAXX 30104 07335 32270 72514 10161 20136 39890 40030 51016 868// 333 81703 83815 85625=
07335,1999-09-30 11:00:00,16.1,1003.3,1,86,13.8,20000,25.928,,,260,,,,,,,,,,,og-post,,,,AAXX 30114 07335 32270 72614 10161 20138 39893 40033 51010 8583/ 333 81705 83816 85359=
07335,1999-09-30 12:00:00,18.4,1003.5,0.8,72,13.3,25000,29.632,,,270,,,,,0.6,,,,,1,og-post,,,,AAXX 30124 07335 11475 22716 10184 20133 39896 40035 53008 69961 70186 82832 333 81815=
07335,1999-09-30 13:00:00,18.3,1004.2,1.3,71,13,50000,31.484,,,280,,,,,,,,,,,og-post,,,,AAXX 30134 07335 32584 42817 10183 20130 39903 40042 53013 84100 333 84828=
07335,1999-09-30 14:00:00,18.8,1005.3,2.1,74,14.1,50000,18.52,,,290,,,,,,,,,,,og-post,,,,AAXX 30144 07335 32584 52910 10188 20141 39914 40053 53021 85102 333 85831=
07335,1999-09-30 15:00:00,18.6,1006.2,2.7,69,12.8,50000,31.484,,,300,,,,,,,,,,,og-post,,,,AAXX 30154 07335 32584 63017 10186 20128 39923 40062 53027 86132 333 84831=
07335,1999-09-30 16:00:00,17.8,1007.3,3,70,12.3,30000,25.928,,,290,,,,,,,,,,,og-post,,,,AAXX 30164 07335 32580 72914 10178 20123 39933 40073 51030 8683/ 333 81831 83646 85360=
07335,1999-09-30 17:00:00,17.3,1008.2,2.8,77,13.2,20000,22.224,,,280,,,,,,,,,,,og-post,,,,AAXX 30174 07335 32370 72812 10173 20132 39942 40082 52028 8383/ 333 81706 83656 85360=
07335,1999-09-30 18:00:00,16.6,1009.4,3,79,12.9,,18.52,,,270,13.5,19.9,,,,0.6,,,,,og-post,,,,AAXX 30184 07335 16/// /2710 10166 20129 39953 40094 53030 69962 333 10199 20135=
07335,1999-09-30 19:00:00,15.7,1010.1,2.7,81,12.4,,25.928,,,270,,,,,,,,,,,og-post,,,,AAXX 30194 07335 36/// /2714 10157 20124 39960 40101 51027=
07335,1999-09-30 20:00:00,14.9,1011.4,3,85,12.4,,25.928,,,270,,,,,,,,,,,og-post,,,,AAXX 30204 07335 36/// /2714 10149 20124 39972 40114 53030=
07335,1999-09-30 21:00:00,14.5,1012.3,2.8,87,12.4,,22.224,,,270,,,,,,,,,,,og-post,,,,AAXX 30214 07335 36/// /2712 10145 20124 39981 40123 53028=
07335,1999-09-30 22:00:00,14.6,1013,2.8,86,12.3,,18.52,,,270,,,,,,,,,,,og-post,,,,AAXX 30224 07335 36/// /2710 10146 20123 39988 40130 51028=
07335,1999-09-30 23:00:00,14.3,1013.8,2.3,86,12,,18.52,,,260,,,,,,,,,,,og-post,,,,AAXX 30234 07335 36/// /2610 10143 20120 39995 40138 51023=
07335,1999-10-01 00:00:00,13.6,1013.8,1.4,88,11.7,,14.816,,,250,,,,,,,,,,,og-post,,,,AAXX 01004 07335 36/// /2508 10136 20117 39995 40138 51014=
07335,1999-10-01 01:00:00,13.6,1014.2,1.1,87,11.5,,18.52,,,260,,,,,,,,,,,og-post,,,,AAXX 01014 07335 36/// /2610 10136 20115 39999 40142 51011=
07335,1999-10-01 02:00:00,13.4,1014.3,0.5,87,11.3,,14.816,,,240,,,,,,,,,,,og-post,,,,AAXX 01024 07335 36/// /2408 10134 20113 30000 40143 53005=
07335,1999-10-01 03:00:00,13.5,1013.9,0.1,87,11.4,,18.52,,,260,,,,,,,,,,,og-post,,,,AAXX 01034 07335 36/// /2610 10135 20114 39996 40139 50001=
07335,1999-10-01 04:00:00,13.2,1014.5,0.3,90,11.6,15000,14.816,,,260,,,,,,,,,,,og-post,,,,AAXX 01044 07335 32265 82608 10132 20116 30002 40145 53003 885// 333 82704 83621 85633=
07335,1999-10-01 05:00:00,12.9,1014.4,0.1,94,12,15000,14.816,,,230,,,,,,,,,,,og-post,,,,AAXX 01054 07335 32365 82308 10129 20120 30001 40144 53001 875// 333 81706 85625 87632=
07335,1999-10-01 06:00:00,13.1,1014.8,0.9,94,12.2,15000,22.224,,,240,12.7,16.7,,,,,0.6,3.6,12,,og-post,,,,AAXX 01064 07335 32365 82412 10131 20122 30005 40148 51009 875// 333 10167 20127 31012 55036 70006 81706 85625 87632=
07335,1999-10-01 07:00:00,13.3,1015.7,1.2,94,12.4,15000,18.52,,,240,,,,,,,,,,,og-post,,,,AAXX 01074 07335 32365 72410 10133 20124 30014 40157 53012 875// 333 81708 84633 85650=
07335,1999-10-01 08:00:00,14,1015.8,1.4,91,12.6,15000,14.816,,,220,,,,,,,,,,,og-post,,,,AAXX 01084 07335 32365 72208 10140 20126 30015 40158 51014 86502 333 81709 83636=
07335,1999-10-01 09:00:00,15.3,1015.7,1,88,13.3,15000,14.816,,,230,,,,,,,,,,,og-post,,,,AAXX 01094 07335 32265 72308 10153 20133 30015 40157 51010 875// 333 82704 83613 87650=
07335,1999-10-01 10:00:00,15.6,1016,0.4,85,13.1,12000,22.224,,,240,,,,,,,,,,,og-post,,,,AAXX 01104 07335 32262 72412 10156 20131 30018 40160 53004 875// 333 81705 84613 87630=
07335,1999-10-01 11:00:00,16.2,1015.9,0.2,85,13.7,15000,22.224,,,240,,,0.2,,,,,,,21,og-post,,,,AAXX 01114 07335 21465 72412 10162 20137 30017 40159 50002 72162 86802 333 69925 83815 86646=
07335,1999-10-01 12:00:00,16.7,1015.2,-0.4,84,14,15000,14.816,,,230,,,,0.2,0.2,,,,,3,og-post,,,,AAXX 01124 07335 /1265 72308 10167 20140 30011 40152 58004 69921 70362 878// 333 69927 81703 84816 87650=
07335,1999-10-01 13:00:00,16.6,1014.9,-1,80,13.1,15000,22.224,,,270,,,0.2,,,,,,,25,og-post,,,,AAXX 01134 07335 21265 72712 10166 20131 30008 40149 58010 72586 878// 333 69925 81703 84816 87650=
07335,1999-10-01 14:00:00,17.1,1014.5,-1.3,79,13.4,15000,18.52,,,250,,,,,,,,,,,og-post,,,,AAXX 01144 07335 32265 72510 10171 20134 30004 40145 56013 878// 333 81703 84816 87650=
07335,1999-10-01 15:00:00,16.8,1014.2,-1,80,13.3,15000,18.52,,,260,,,,0.2,,,,,,1,og-post,,,,AAXX 01154 07335 21265 72610 10168 20133 30001 40142 57010 70186 878// 333 69927 81703 83820 87650=
07335,1999-10-01 16:00:00,16.3,1013.8,-1.1,85,13.8,15000,14.816,,,250,,,,,,,,,,25,og-post,,,,AAXX 01164 07335 21165 72508 10163 20138 39997 40138 57011 72586 878// 333 69905 81703 85820 87650=
07335,1999-10-01 17:00:00,15.5,1013.8,-0.8,87,13.3,15000,18.52,,,240,,,,,,,,,,25,og-post,,,,AAXX 01174 07335 21265 72410 10155 20133 39996 40138 56008 72586 878// 333 69905 81704 84818 86641=
07335,1999-10-01 18:00:00,14.6,1013.8,-0.5,91,13.1,,18.52,,,240,13,17.6,,,,0.4,,,,,og-post,,,,AAXX 01184 07335 /6/// /2410 10146 20131 39996 40138 56005 69942 333 10176 20130 69907=
07335,1999-10-01 20:00:00,14.6,1013.3,-0.5,89,12.8,,14.816,,,220,,,,,,,,,,,og-post,,,,AAXX 01204 07335 36/// /2208 10146 20128 39991 40133 58005=
07335,1999-10-02 00:00:00,14.4,1011.3,-1.7,92,13.1,,18.52,,,210,,,,,,,,,,,og-post,,,,AAXX 02004 07335 36/// /2110 10144 20131 39971 40113 58017=
07335,1999-10-02 01:00:00,14.4,1010.8,-1.9,92,13.1,,18.52,,,210,,,,,,,,,,,og-post,,,,AAXX 02014 07335 36/// /2110 10144 20131 39966 40108 56019=
07335,1999-10-02 02:00:00,14.2,1010,-2.1,93,13.1,,18.52,,,210,,,,,,,,,,,og-post,,,,AAXX 02024 07335 36/// /2110 10142 20131 39958 40100 57021=
07335,1999-10-02 03:00:00,14.3,1009.1,-2.2,93,13.2,,22.224,,,210,,,,,,,,,,,og-post,,,,AAXX 02034 07335 36/// /2112 10143 20132 39949 40091 58022=
07335,1999-10-02 04:00:00,14.5,1008.7,-2.1,91,13,12000,22.224,,,210,,,,,,,,,,,og-post,,,,AAXX 02044 07335 32362 72112 10145 20130 39945 40087 56021 876// 333 87708=
07335,1999-10-02 05:00:00,14.3,1008.4,-1.6,92,13,15000,22.224,,,220,,,,,,,,,,,og-post,,,,AAXX 02054 07335 32365 72212 10143 20130 39942 40084 56016 876// 333 86708 86633=
07335,1999-10-02 06:00:00,14.2,1008.1,-1,93,13.1,8000,22.224,,,210,14.2,14.8,,,,,0.4,0.3,14,,og-post,,,,AAXX 02064 07335 32158 72112 10142 20131 39939 40081 56010 876// 333 10148 20142 31014 55003 70004 81703 87708=
07335,1999-10-02 07:00:00,14.2,1007.9,-0.8,95,13.4,10000,22.224,,,220,,,0.4,,,,,,,20,og-post,,,,AAXX 02074 07335 21260 72212 10142 20134 39937 40079 56008 72052 876// 333 69945 87705=
07335,1999-10-02 08:00:00,14.6,1007.7,-0.6,94,13.6,4000,22.224,,,220,,,0.4,,,,,,,50,og-post,,,,AAXX 02084 07335 21140 82212 10146 20136 39936 40077 56006 75052 875// 333 69945 85703 87611=
07335,1999-10-02 09:00:00,15.3,1007.8,-0.2,92,14,12000,25.928,,,220,,,,0.8,,,,,,20,og-post,,,,AAXX 02094 07335 21162 82214 10153 20140 39937 40078 55002 72052 875// 333 69987 82703 87610=
07335,1999-10-02 10:00:00,15.4,1007.8,-0,91,13.9,5000,31.484,57.412,57.412,240,,,0.2,,,,,,,50,og-post,,,,AAXX 02104 07335 21150 82417 10154 20139 39937 40078 55000 75052 885// 333 69925 83703 87610 91031 91131=
07335,1999-10-02 11:00:00,15.4,1007.3,-0.4,95,14.6,3000,25.928,,,230,,,0.2,,,,,,,50,og-post,,,,AAXX 02114 07335 21130 82314 10154 20146 39932 40073 58004 75055 885// 333 69925 82703 88610=
07335,1999-10-02 12:00:00,15.7,1006.5,-1.3,95,14.9,3000,29.632,57.412,,220,,,,0.6,1,,,,,50,og-post,,,,AAXX 02124 07335 /1130 82216 10157 20149 39924 40065 58013 60011 75052 885// 333 69967 81703 87608 91131=
07335,1999-10-02 13:00:00,15.5,1005.7,-2.1,96,14.9,2000,29.632,,,210,,,0.2,,,,,,,58,og-post,,,,AAXX 02134 07335 21320 82116 10155 20149 39916 40057 58021 75865 887// 333 69925 87708=
07335,1999-10-02 14:00:00,15.6,1004.9,-2.3,95,14.8,2500,29.632,57.412,,210,,,0.4,,,,,,,58,og-post,,,,AAXX 02144 07335 21325 82116 10156 20148 39909 40049 56023 75866 887// 333 69945 87706 91131=
07335,1999-10-02 15:00:00,16.2,1004.4,-2,93,15.1,8000,31.484,57.412,,220,,,,0.6,,,,,,21,og-post,,,,AAXX 02154 07335 21158 72217 10162 20151 39904 40044 56020 72165 877// 333 69967 81703 87611 91131=
07335,1999-10-02 16:00:00,15.7,1004.5,-1.1,95,14.9,500,25.928,,,230,,,0.4,,,,,,,,og-post,,,,AAXX 02164 07335 26/05 /2314 10157 20149 39905 40045 55011 333 69945=
07335,1999-10-02 17:00:00,14.6,1005.7,0.7,95,13.8,,22.224,,,280,,,2,,,,,,,,og-post,,,,AAXX 02174 07335 26/// /2812 10146 20138 39916 40057 53007 333 60025=
07335,1999-10-02 18:00:00,13.2,1006.7,2.1,93,12.1,,18.52,57.412,,290,13.2,16.4,,3,,5,,,,,og-post,,,,AAXX 02184 07335 /6/// /2910 10132 20121 39925 40067 53021 60052 333 10164 20132 60037 91131=
07335,1999-10-02 19:00:00,11.8,1007.4,2.6,93,10.7,,14.816,,,240,,,0.2,,,,,,,,og-post,,,,AAXX 02194 07335 26/// /2408 10118 20107 39931 40074 51026 333 69925=
07335,1999-10-02 20:00:00,11.7,1007.8,1.9,95,10.9,,11.112,,,220,,,,,,,,,,,og-post,,,,AAXX 02204 07335 36/// /2206 10117 20109 39935 40078 51019=
07335,1999-10-02 21:00:00,11.9,1008.3,1.5,96,11.3,,11.112,,,230,,,,0.2,,,,,,,og-post,,,,AAXX 02214 07335 26/// /2306 10119 20113 39940 40083 51015 333 69927=
07335,1999-10-02 22:00:00,12.1,1008.7,1.3,97,11.6,,11.112,,,220,,,0.2,,,,,,,,og-post,,,,AAXX 02224 07335 26/// /2206 10121 20116 39944 40087 52013 333 69925=
07335,1999-10-02 23:00:00,12.2,1008.7,0.9,97,11.7,,7.408,,,250,,,,,,,,,,,og-post,,,,AAXX 02234 07335 36/// /2504 10122 20117 39944 40087 51009=
07335,1999-10-03 00:00:00,11.7,1009,0.7,93,10.6,,11.112,,,260,,,,0.2,0.4,,,,,,og-post,,,,AAXX 03004 07335 /6/// /2606 10117 20106 39947 40090 51007 69941 333 69927=
07335,1999-10-03 01:00:00,9.8,1009.1,0.3,96,9.2,,3.704,,,240,,,,,,,,,,,og-post,,,,AAXX 03014 07335 36/// /2402 10098 20092 39947 40091 52003=
07335,1999-10-03 02:00:00,9.2,1009.1,0.2,98,8.9,100,7.408,,,220,,,,,,,,,,,og-post,,,,AAXX 03024 07335 36/01 /2204 10092 20089 39946 40091 50002=
07335,1999-10-03 03:00:00,8.4,1008.9,-0.3,98,8.1,,7.408,,,220,,,,,,,,,,,og-post,,,,AAXX 03034 07335 36/// /2204 10084 20081 39944 40089 58003=
07335,1999-10-03 04:00:00,7.7,1009.1,-0.1,98,7.4,15000,11.112,,,240,,,,,,,,,,,og-post,,,,AAXX 03044 07335 33765 12406 10077 20074 39946 40091 55001 81500 333 81650=
07335,1999-10-03 05:00:00,7,1009.4,0.2,98,6.7,15000,11.112,,,230,,,,,,,,,,,og-post,,,,AAXX 03054 07335 32765 12306 10070 20067 39948 40094 53002 81500 333 81650=
07335,1999-10-03 06:00:00,7.4,1009.6,0.6,98,7.1,15000,7.408,,,230,6.8,13.2,,,,0.4,5.6,,4,,og-post,,,,AAXX 03064 07335 12765 12304 10074 20071 39950 40096 52006 69942 81500 333 10132 20068 31004 55000 70056 81650=
07335,1999-10-03 07:00:00,9.6,1010.1,1.1,98,9.3,20000,11.112,,,230,,,,,,,,,,,og-post,,,,AAXX 03074 07335 32570 52306 10096 20093 39957 40101 53011 82902 333 82820 81923 84640=
07335,1999-10-03 08:00:00,11.6,1010.8,1.6,88,9.7,20000,14.816,,,230,,,0.2,,,,,,,25,og-post,,,,AAXX 03084 07335 21570 52308 10116 20097 39964 40108 53016 72586 85832 333 69925 83820 83633=
07335,1999-10-03 09:00:00,11.3,1011.7,2.3,89,9.6,15000,18.52,,,260,,,,1,,,,,,25,og-post,,,,AAXX 03094 07335 21565 62610 10113 20096 39973 40117 53023 72586 85832 333 60017 84820 83650=
07335,1999-10-03 10:00:00,12.7,1011.6,1.6,85,10.2,20000,14.816,,,220,,,,,,,,,,,og-post,,,,AAXX 03104 07335 32570 62208 10127 20102 39973 40116 51016 85832 333 82820 83360=
07335,1999-10-03 11:00:00,14.2,1011.8,1.2,77,10.2,20000,18.52,,,250,,,,,,,,,,,og-post,,,,AAXX 03114 07335 32470 62510 10142 20102 39976 40118 51012 83232 333 82816 84360=
07335,1999-10-03 12:00:00,14.3,1012.2,0.7,74,9.7,25000,22.224,,,270,,,,,1,,,,,3,og-post,,,,AAXX 03124 07335 11575 72712 10143 20097 39980 40122 53007 60011 70386 8623/ 333 86826 84360=
07335,1999-10-03 13:00:00,16,1012.2,0.7,64,9.2,25000,25.928,,,290,,,,,,,,,,,og-post,,,,AAXX 03134 07335 32675 62914 10160 20092 39980 40122 51007 85202 333 85833=
07335,1999-10-03 14:00:00,15.1,1012.7,0.9,55,6.1,25000,25.928,,,300,,,,,,,,,,,og-post,,,,AAXX 03144 07335 32675 63014 10151 20061 39985 40127 53009 85232 333 85836=
07335,1999-10-03 15:00:00,16.4,1013.1,0.9,60,8.6,25000,22.224,,,280,,,,,,,,,,,og-post,,,,AAXX 03154 07335 32675 62812 10164 20086 39989 40131 53009 85232 333 85836=
07335,1999-10-03 16:00:00,15.6,1013.6,1.4,58,7.4,,25.928,,,280,,,,,,,,,,,og-post,,,,AAXX 03164 07335 36/// /2814 10156 20074 39994 40136 52014=
07335,1999-10-03 17:00:00,14.1,1014.2,1.4,66,7.9,,14.816,,,290,,,,,,,,,,,og-post,,,,AAXX 03174 07335 36/// /2908 10141 20079 39999 40142 53014=
07335,1999-10-03 18:00:00,11,1014.9,1.5,77,7.1,,11.112,,,260,7.1,16.7,,,,1,,,,,og-post,,,,AAXX 03184 07335 16/// /2606 10110 20071 30004 40149 52015 60012 333 10167 20071=
07335,1999-10-03 19:00:00,9.7,1015.4,1.5,88,7.8,,14.816,,,240,,,,,,,,,,,og-post,,,,AAXX 03194 07335 36/// /2408 10097 20078 30009 40154 52015=
07335,1999-10-03 20:00:00,9.8,1016,1.6,89,8.1,,14.816,,,240,,,,,,,,,,,og-post,,,,AAXX 03204 07335 36/// /2408 10098 20081 30015 40160 53016=
07335,1999-10-03 21:00:00,9.4,1016.2,1.3,92,8.2,,14.816,,,240,,,,,,,,,,,og-post,,,,AAXX 03214 07335 36/// /2408 10094 20082 30017 40162 51013=
07335,1999-10-03 22:00:00,10.3,1016.3,0.9,94,9.4,,14.816,,,240,,,,,,,,,,,og-post,,,,AAXX 03224 07335 36/// /2408 10103 20094 30018 40163 51009=
07335,1999-10-03 23:00:00,11.5,1016.3,0.4,91,10.1,,18.52,,,250,,,,,,,,,,,og-post,,,,AAXX 03234 07335 36/// /2510 10115 20101 30019 40163 51004=
07335,1999-10-04 00:00:00,10.6,1016.8,0.6,93,9.5,,14.816,,,260,,,,,,,,,,,og-post,,,,AAXX 04004 07335 36/// /2608 10106 20095 30023 40168 53006=
07335,1999-10-04 01:00:00,9.8,1017.1,0.8,93,8.7,,11.112,,,280,,,,,,,,,,,og-post,,,,AAXX 04014 07335 36/// /2806 10098 20087 30026 40171 53008=
07335,1999-10-04 02:00:00,9.1,1017.2,0.7,93,8,,14.816,,,280,,,,,,,,,,,og-post,,,,AAXX 04024 07335 36/// /2808 10091 20080 30026 40172 51007=
07335,1999-10-04 03:00:00,8.2,1017.2,0.3,94,7.3,,11.112,,,280,,,,,,,,,,,og-post,,,,AAXX 04034 07335 36/// /2806 10082 20073 30026 40172 51003=
07335,1999-10-04 04:00:00,7.6,1017.5,0.2,94,6.7,20000,14.816,,,270,,,,,,,,,,,og-post,,,,AAXX 04044 07335 32970 02708 10076 20067 30028 40175 53002=
07335,1999-10-04 05:00:00,7,1017.7,0.4,95,6.3,20000,14.816,,,260,,,,,,,,,,,og-post,,,,AAXX 04054 07335 32970 02608 10070 20063 30030 40177 53004=
07335,1999-10-04 06:00:00,6.7,1017.9,0.6,96,6.1,20000,14.816,,,260,6.7,11.5,,,,,,7,6,,og-post,,,,AAXX 04064 07335 32970 02608 10067 20061 30032 40179 52006 333 10115 20067 30006 55070 70010=
07335,1999-10-04 07:00:00,8,1018.4,0.9,96,7.4,30000,14.816,,,260,,,,,,,,,,,og-post,,,,AAXX 04074 07335 32880 12608 10080 20074 30037 40184 53009 81530 333 81656=
07335,1999-10-04 08:00:00,10.4,1018.7,1.2,88,8.5,30000,14.816,,,280,,,,,,,,,,,og-post,,,,AAXX 04084 07335 32880 12808 10104 20085 30042 40187 53012 81530 333 81656=
07335,1999-10-04 09:00:00,12,1019.1,1.4,75,7.7,30000,22.224,,,320,,,,,,,,,,,og-post,,,,AAXX 04094 07335 32480 13212 10120 20077 30046 40191 51014 81830 333 81816=
07335,1999-10-04 10:00:00,12.6,1019.3,1.2,72,7.7,30000,25.928,,,330,,,,,,,,,,,og-post,,,,AAXX 04104 07335 32580 63314 10126 20077 30049 40193 51012 86830 333 84825 83650=
07335,1999-10-04 12:00:00,13.8,1019.2,0.2,63,6.9,30000,25.928,,,320,,,,,,,,,,,og-post,,,,AAXX 04124 07335 32580 43214 10138 20069 30048 40192 50002 84200 333 84830=
07335,1999-10-04 13:00:00,14.2,1019.2,-0.1,58,6.1,30000,25.928,,,330,,,,,,,,,,,og-post,,,,AAXX 04134 07335 32680 33314 10142 20061 30048 40192 58001 83200 333 83836=
07335,1999-10-04 15:00:00,13.1,1019.7,0.5,59,5.3,30000,18.52,,,350,,,,,,,,,,,og-post,,,,AAXX 04154 07335 32680 33510 10131 20053 30053 40197 53005 83200 333 83840=
07335,1999-10-04 17:00:00,13.1,1020.7,1.4,54,4,30000,18.52,,,350,,,,,,,,,,,og-post,,,,AAXX 04174 07335 32680 23510 10131 20040 30063 40207 53014 82200 333 82840=
07335,1999-10-04 18:00:00,9.5,1021.6,1.7,71,4.5,,7.408,,,320,6.5,15.4,,,,,,,,,og-post,,,,AAXX 04184 07335 36/// /3204 10095 20045 30070 40216 53017 333 10154 20065=
07335,1999-10-04 19:00:00,7.5,1022.7,2.3,84,5,,11.112,,,310,,,,,,,,,,,og-post,,,,AAXX 04194 07335 36/// /3106 10075 20050 30079 40227 53023=
07335,1999-10-04 21:00:00,5.4,1023.8,1.9,93,4.4,,,,,,,,,,,,,,,,og-post,,,,AAXX 04214 07335 36/// /0000 10054 20044 30089 40238 51019=
07335,1999-10-04 22:00:00,4.1,1024.2,1.3,95,3.4,,3.704,,,320,,,,,,,,,,,og-post,,,,AAXX 04224 07335 36/// /3202 10041 20034 30092 40242 51013=
07335,1999-10-04 23:00:00,3.5,1024.3,0.9,95,2.8,,7.408,,,260,,,,,,,,,,,og-post,,,,AAXX 04234 07335 36/// /2604 10035 20028 30093 40243 51009=
07335,1999-10-05 00:00:00,3.5,1024,0.1,97,3.1,,,,,,,,,,,,,,,,og-post,,,,AAXX 05004 07335 36/// /0000 10035 20031 30090 40240 50001=
07335,1999-10-05 01:00:00,3.1,1024,-0.2,97,2.7,,3.704,,,300,,,,,,,,,,,og-post,,,,AAXX 05014 07335 36/// /3002 10031 20027 30090 40240 58002=
07335,1999-10-05 02:00:00,2.9,1023.8,-0.5,98,2.6,,3.704,,,250,,,,,,,,,,,og-post,,,,AAXX 05024 07335 36/// /2502 10029 20026 30088 40238 56005=
07335,1999-10-05 03:00:00,1.9,1023.8,-0.3,98,1.6,,3.704,,,320,,,,,,,,,,,og-post,,,,AAXX 05034 07335 36/// /3202 10019 20016 30087 40238 58003=
07335,1999-10-05 04:00:00,3,1023.9,-0.1,98,2.7,10000,7.408,,,340,,,,,,,,,,,og-post,,,,AAXX 05044 07335 32960 03404 10030 20027 30089 40239 55001=
07335,1999-10-05 05:00:00,2.6,1024.6,0.8,98,2.3,12000,3.704,,,330,,,,,,,,,,,og-post,,,,AAXX 05054 07335 32962 03302 10026 20023 30096 40246 53008=
07335,1999-10-05 06:00:00,2.1,1025.1,1.3,98,1.8,7000,3.704,,,270,1.4,9.5,,,,,0,7.8,-1,11,og-post,,,,AAXX 05064 07335 31757 12702 10021 20018 30100 40251 53013 71100 81502 333 10095 20014 30101 55078 70000 81650=
07335,1999-10-05 07:00:00,2.4,1025.5,1.5,98,2.1,8000,3.704,,,270,,,,,,,,,,,og-post,,,,AAXX 05074 07335 32758 12702 10024 20021 30104 40255 51015 81502 333 81650=
07335,1999-10-05 08:00:00,6.9,1025.4,1,99,6.8,10000,3.704,,,240,,,,,,,,,,,og-post,,,,AAXX 05084 07335 32760 12402 10069 20068 30106 40254 51010 81502 333 81650=
07335,1999-10-05 09:00:00,9.9,1025.7,1,83,7.2,12000,3.704,,,90,,,,,,,,,,,og-post,,,,AAXX 05094 07335 32962 10902 10099 20072 30110 40257 52010 80002 333 81073=
07335,1999-10-05 10:00:00,12.9,1025.3,0.4,59,5.1,15000,3.704,,,60,,,,,,,,,,,og-post,,,,AAXX 05104 07335 32565 10602 10129 20051 30108 40253 50004 81100 333 81821=
07335,1999-10-05 11:00:00,12.7,1025.2,0.1,65,6.3,20000,11.112,,,30,,,,,,,,,,,og-post,,,,AAXX 05114 07335 32570 30306 10127 20063 30107 40252 50001 83100 333 83830=
07335,1999-10-05 12:00:00,14,1024.8,-0.6,56,5.4,20000,11.112,,,10,,,,,,,,,,,og-post,,,,AAXX 05124 07335 32670 30106 10140 20054 30104 40248 58006 83200 333 83840=
07335,1999-10-05 13:00:00,14.4,1024.6,-0.6,41,1.3,20000,14.816,,,20,,,,,,,,,,,og-post,,,,AAXX 05134 07335 32670 40208 10144 20013 30102 40246 58006 84800 333 83840=
07335,1999-10-05 14:00:00,14.8,1024.5,-0.6,39,1,20000,18.52,,,40,,,,,,,,,,,og-post,,,,AAXX 05144 07335 32670 40410 10148 20010 30101 40245 56006 84400 333 82840=
07335,1999-10-05 15:00:00,14.6,1024.4,-0.4,43,2.2,20000,14.816,,,40,,,,,,,,,,,og-post,,,,AAXX 05154 07335 32670 40408 10146 20022 30100 40244 56004 84400 333 81843 83656=
07335,1999-10-05 16:00:00,13.6,1024.4,-0.3,49,3.1,20000,11.112,,,60,,,,,,,,,,,og-post,,,,AAXX 05164 07335 32670 30606 10136 20031 30099 40244 57003 83400 333 81843 83656=
07335,1999-10-05 17:00:00,13.2,1024.6,-0,51,3.3,20000,11.112,,,70,,,,,,,,,,,og-post,,,,AAXX 05174 07335 32870 20706 10132 20033 30101 40246 55000 82400 333 82656=
07335,1999-10-05 18:00:00,11.7,1025.2,0.6,58,3.7,,11.112,,,40,1.3,15.4,,,,,,,,,og-post,,,,AAXX 05184 07335 36/// /0406 10117 20037 30106 40252 53006 333 10154 20013=
07335,1999-10-05 19:00:00,7.8,1026,1.3,76,3.8,,3.704,,,40,,,,,,,,,,,og-post,,,,AAXX 05194 07335 36/// /0402 10078 20038 30112 40260 53013=
07335,1999-10-05 20:00:00,6.1,1026.5,1.5,83,3.4,,7.408,,,20,,,,,,,,,,,og-post,,,,AAXX 05204 07335 36/// /0204 10061 20034 30116 40265 51015=
07335,1999-10-05 21:00:00,4.5,1026.9,1.3,90,3,,3.704,,,40,,,,,,,,,,,og-post,,,,AAXX 05214 07335 36/// /0402 10045 20030 30119 40269 51013=
07335,1999-10-05 22:00:00,5.1,1026.9,0.8,86,3,,3.704,,,50,,,,,,,,,,,og-post,,,,AAXX 05224 07335 36/// /0502 10051 20030 30120 40269 51008=
07335,1999-10-05 23:00:00,3.1,1027.4,0.7,92,1.9,,7.408,,,10,,,,,,,,,,,og-post,,,,AAXX 05234 07335 36/// /0104 10031 20019 30123 40274 52007=
07335,1999-10-06 00:00:00,2.6,1027.4,0.4,94,1.7,,3.704,,,350,,,,,,,,,,,og-post,,,,AAXX 06004 07335 36/// /3502 10026 20017 30123 40274 51004=
07335,1999-10-06 01:00:00,1.8,1027.2,0.1,96,1.2,,3.704,,,50,,,,,,,,,,,og-post,,,,AAXX 06014 07335 36/// /0502 10018 20012 30121 40272 50001=
07335,1999-10-06 02:00:00,1.7,1027,-0.4,95,1,,3.704,,,330,,,,,,,,,,,og-post,,,,AAXX 06024 07335 36/// /3302 10017 20010 30119 40270 58004=
07335,1999-10-06 03:00:00,2,1026.9,-0.5,97,1.6,,3.704,,,360,,,,,,,,,,,og-post,,,,AAXX 06034 07335 36/// /3602 10020 20016 30118 40269 56005=
07335,1999-10-06 04:00:00,1.1,1027,-0.3,96,0.5,20000,3.704,,,340,,,,,,,,,,,og-post,,,,AAXX 06044 07335 32970 03402 10011 20005 30118 40270 56003=
07335,1999-10-06 05:00:00,1.6,1026.8,-0.2,97,1.2,12000,7.408,,,20,,,,,,,,,,,og-post,,,,AAXX 06054 07335 32962 00204 10016 20012 30117 40268 57002=
07335,1999-10-06 06:00:00,0.8,1027.2,0.2,97,0.4,6000,7.408,,,20,0.8,11.4,,,,,0,8.5,-2,,og-post,,,,AAXX 06064 07335 32956 10204 10008 20004 30120 40272 53002 80002 333 10114 20008 3/102 55085 70000 81073=
07335,1999-10-06 07:00:00,2.4,1027.8,0.9,97,2,6000,7.408,,,360,,,,,,,,,,,og-post,,,,AAXX 06074 07335 32956 13604 10024 20020 30127 40278 53009 80002 333 81073=
07335,1999-10-06 08:00:00,6.4,1028,1.4,88,4.6,7000,14.816,,,50,,,,,,,,,,,og-post,,,,AAXX 06084 07335 32957 10508 10064 20046 30131 40280 53014 80002 333 81073=
07335,1999-10-06 09:00:00,9.2,1027.8,1.1,83,6.5,10000,11.112,,,50,,,,,,,,,,,og-post,,,,AAXX 06094 07335 32960 10506 10092 20065 30131 40278 51011 80002 333 81073=
07335,1999-10-06 10:00:00,11.8,1027.5,0.2,69,6.3,15000,18.52,,,90,,,,,,,,,,,og-post,,,,AAXX 06104 07335 32565 20910 10118 20063 30129 40275 50002 81102 333 81820=
07335,1999-10-06 11:00:00,13.1,1026.9,-0.7,58,5,20000,22.224,,,90,,,,,,,,,,,og-post,,,,AAXX 06114 07335 32570 10912 10131 20050 30124 40269 58007 81102 333 81830=
07335,1999-10-06 12:00:00,14.4,1026.8,-0.8,53,5,25000,22.224,,,80,,,,,,,,,,,og-post,,,,AAXX 06124 07335 32675 30812 10144 20050 30123 40268 56008 82102 333 82834=
07335,1999-10-06 13:00:00,14.6,1026,-1.3,49,4,25000,25.928,,,90,,,,,,,,,,,og-post,,,,AAXX 06134 07335 32675 20914 10146 20040 30116 40260 58013 82102 333 82839=
07335,1999-10-06 14:00:00,15.1,1025.8,-1,50,4.8,25000,25.928,,,90,,,,,,,,,,,og-post,,,,AAXX 06144 07335 32675 20914 10151 20048 30114 40258 58010 82102 333 82842=
07335,1999-10-06 15:00:00,15.2,1025.6,-1.1,49,4.6,25000,18.52,,,70,,,,,,,,,,,og-post,,,,AAXX 06154 07335 32675 20710 10152 20046 30112 40256 56011 81102 333 81846=
07335,1999-10-06 16:00:00,14.7,1025.4,-0.6,50,4.4,25000,22.224,,,80,,,,,,,,,,,og-post,,,,AAXX 06164 07335 32775 20812 10147 20044 30110 40254 57006 81102 333 81850=
07335,1999-10-06 17:00:00,14.1,1025.7,-0.2,51,4.1,25000,14.816,,,70,,,,,,,,,,,og-post,,,,AAXX 06174 07335 32775 40708 10141 20041 30112 40257 55002 81402 333 81656 84073=
07335,1999-10-06 18:00:00,12.4,1026,0.3,59,4.6,,11.112,,,60,0.8,15.4,,,,,,,,,og-post,,,,AAXX 06184 07335 36/// /0606 10124 20046 30115 40260 53003 333 10154 20008=
07335,1999-10-06 19:00:00,10.9,1026.5,0.9,68,5.2,,11.112,,,50,,,,,,,,,,,og-post,,,,AAXX 06194 07335 36/// /0506 10109 20052 30119 40265 53009=
07335,1999-10-06 20:00:00,9.9,1026.8,0.9,73,5.3,,11.112,,,60,,,,,,,,,,,og-post,,,,AAXX 06204 07335 36/// /0606 10099 20053 30121 40268 51009=
07335,1999-10-06 21:00:00,7.6,1027.4,1.1,82,4.7,,11.112,,,40,,,,,,,,,,,og-post,,,,AAXX 06214 07335 36/// /0406 10076 20047 30126 40274 53011=
07335,1999-10-06 22:00:00,6.1,1027.8,1,89,4.4,,11.112,,,30,,,,,,,,,,,og-post,,,,AAXX 06224 07335 36/// /0306 10061 20044 30129 40278 53010=
07335,1999-10-06 23:00:00,6.3,1027.6,0.6,86,4.1,,7.408,,,30,,,,,,,,,,,og-post,,,,AAXX 06234 07335 36/// /0304 10063 20041 30127 40276 50006=
07335,1999-10-07 00:00:00,5.2,1027.4,-0.1,89,3.5,,11.112,,,20,,,,,,,,,,,og-post,,,,AAXX 07004 07335 36/// /0206 10052 20035 30125 40274 58001=
07335,1999-10-07 01:00:00,4.7,1027.4,-0.5,94,3.8,,7.408,,,20,,,,,,,,,,,og-post,,,,AAXX 07014 07335 36/// /0204 10047 20038 30124 40274 56005=
07335,1999-10-07 02:00:00,3.8,1027.4,-0.3,95,3.1,,7.408,,,30,,,,,,,,,,,og-post,,,,AAXX 07024 07335 36/// /0304 10038 20031 30124 40274 56003=
07335,1999-10-07 03:00:00,3.2,1027.3,-0.3,96,2.6,,3.704,,,30,,,,,,,,,,,og-post,,,,AAXX 07034 07335 36/// /0302 10032 20026 30122 40273 58003=
07335,1999-10-07 04:00:00,3.3,1027.3,-0.1,96,2.7,8000,7.408,,,360,,,,,,,,,,,og-post,,,,AAXX 07044 07335 32958 03604 10033 20027 30123 40273 55001=
07335,1999-10-07 06:00:00,2.3,1028.3,1,97,1.9,8000,7.408,,,360,1.9,12.4,,,,,0,10.7,-1,,og-post,,,,AAXX 07064 07335 32958 23604 10023 20019 30132 40283 53010 80001 333 10124 20019 30101 55107 70000 82075=
07335,1999-10-07 09:00:00,9.6,1029,1.1,81,6.5,12000,7.408,,,70,,,,,,,,,,,og-post,,,,AAXX 07094 07335 32962 20704 10096 20065 30143 40290 51011 80001 333 82075=
07335,1999-10-07 12:00:00,15.1,1028.6,-0.1,55,6.1,15000,18.52,,,40,,,,,,,,,,,og-post,,,,AAXX 07124 07335 32965 20410 10151 20061 30142 40286 58001 80001 333 82075=
07335,1999-10-07 13:00:00,16,1028.2,-0.6,44,3.8,15000,14.816,,,70,,,,,,,,,,,og-post,,,,AAXX 07134 07335 32965 10708 10160 20038 30138 40282 58006 80001 333 81075=
07335,1999-10-07 14:00:00,16.3,1027.8,-1,47,5,20000,11.112,,,90,,,,,,,,,,,og-post,,,,AAXX 07144 07335 32970 10906 10163 20050 30134 40278 58010 80001 333 81075=
07335,1999-10-07 15:00:00,16.1,1028,-0.6,48,5.1,20000,14.816,,,20,,,,,,,,,,,og-post,,,,AAXX 07154 07335 32970 10208 10161 20051 30136 40280 55006 80001 333 81075=
07335,1999-10-07 16:00:00,15.9,1028.1,-0.1,47,4.6,20000,11.112,,,30,,,,,,,,,,,og-post,,,,AAXX 07164 07335 32970 10306 10159 20046 30137 40281 55001 80001 333 81075=
07335,1999-10-07 17:00:00,14.6,1028.5,0.6,54,5.4,20000,11.112,,,40,,,,,,,,,,,og-post,,,,AAXX 07174 07335 32970 10406 10146 20054 30140 40285 53006 80001 333 81075=
07335,1999-10-07 18:00:00,10,1029.4,1.1,71,5,,7.408,,,360,2,16.5,,,,,,,,,og-post,,,,AAXX 07184 07335 36/// /3604 10100 20050 30147 40294 53011 333 10165 20020=
07335,1999-10-07 19:00:00,7.7,1029.9,1.4,81,4.7,,7.408,,,360,,,,,,,,,,,og-post,,,,AAXX 07194 07335 36/// /3604 10077 20047 30151 40299 53014=
07335,1999-10-07 20:00:00,6.6,1030.5,1.6,85,4.3,,3.704,,,330,,,,,,,,,,,og-post,,,,AAXX 07204 07335 36/// /3302 10066 20043 30156 40305 51016=
07335,1999-10-07 21:00:00,4.9,1030.9,1.2,94,4,,3.704,,,300,,,,,,,,,,,og-post,,,,AAXX 07214 07335 36/// /3002 10049 20040 30159 40309 51012=
07335,1999-10-07 22:00:00,4.9,1031.1,1,94,4,,7.408,,,330,,,,,,,,,,,og-post,,,,AAXX 07224 07335 36/// /3304 10049 20040 30161 40311 51010=
07335,1999-10-07 23:00:00,4.7,1031.2,0.6,94,3.8,,3.704,,,320,,,,,,,,,,,og-post,,,,AAXX 07234 07335 36/// /3202 10047 20038 30162 40312 51006=
07335,1999-10-08 00:00:00,4.6,1031.1,0.2,95,3.9,,,,,,,,,,,,,,,,og-post,,,,AAXX 08004 07335 36/// /0000 10046 20039 30161 40311 50002=
07335,1999-10-08 01:00:00,3.5,1031,-0.2,96,2.9,,3.704,,,280,,,,,,,,,,,og-post,,,,AAXX 08014 07335 36/// /2802 10035 20029 30159 40310 58002=
07335,1999-10-08 02:00:00,4.2,1030.9,-0.3,97,3.8,,3.704,,,280,,,,,,,,,,,og-post,,,,AAXX 08024 07335 36/// /2802 10042 20038 30159 40309 56003=
07335,1999-10-08 03:00:00,3.5,1030.9,-0.3,97,3.1,,3.704,,,220,,,,,,,,,,,og-post,,,,AAXX 08034 07335 36/// /2202 10035 20031 30158 40309 56003=
07335,1999-10-08 04:00:00,2.6,1031,-0,97,2.2,9000,7.408,,,250,,,,,,,,,,,og-post,,,,AAXX 08044 07335 32959 02504 10026 20022 30159 40310 55000=
07335,1999-10-08 05:00:00,3.2,1030.8,-0.2,98,2.9,8000,3.704,,,210,,,,,,,,,,,og-post,,,,AAXX 08054 07335 32658 12102 10032 20029 30157 40308 58002 81500 333 81636=
07335,1999-10-08 06:00:00,4.6,1031,0.2,98,4.3,8000,3.704,,,220,2.2,9.9,,,,,0,10.7,-0,,og-post,,,,AAXX 08064 07335 32658 72202 10046 20043 30160 40310 53002 875// 333 10099 20022 30100 55107 70000 86636 83657=
07335,1999-10-08 07:00:00,5.5,1031.2,0.3,98,5.2,9000,3.704,,,170,,,,,,,,,,,og-post,,,,AAXX 08074 07335 32659 71702 10055 20052 30162 40312 53003 84502 333 84636 83075=
07335,1999-10-08 08:00:00,8.6,1031.6,1.1,92,7.4,9000,3.704,,,210,,,,,,,,,,,og-post,,,,AAXX 08084 07335 32659 72102 10086 20074 30168 40316 53011 85502 333 81636 85658=
07335,1999-10-08 09:00:00,11.9,1031.4,0.8,81,8.7,9000,7.408,,,220,,,,,,,,,,,og-post,,,,AAXX 08094 07335 32859 72204 10119 20087 30168 40314 51008 85502 333 85658 84075=
07335,1999-10-08 10:00:00,14.4,1031.3,0.6,71,9.2,10000,11.112,,,210,,,,,,,,,,,og-post,,,,AAXX 08104 07335 32860 72106 10144 20092 30168 40313 51006 85532 333 81658 84360 85075=
07335,1999-10-08 11:00:00,16,1030.9,-0.3,65,9.4,12000,11.112,,,240,,,,,,,,,,,og-post,,,,AAXX 08114 07335 32762 72406 10160 20094 30165 40309 58003 81532 333 81650 84360 85075=
07335,1999-10-08 12:00:00,16,1030.5,-0.7,68,10.1,15000,18.52,,,260,,,,,,,,,,,og-post,,,,AAXX 08124 07335 32565 82610 10160 20101 30161 40305 58007 8683/ 333 81825 86628 85360=
07335,1999-10-08 13:00:00,17,1029.8,-1.4,65,10.4,,14.816,,,270,,,,,,,,,,,og-post,,,,AAXX 08134 07335 36/// /2708 10170 20104 30154 40298 58014=
07335,1999-10-08 14:00:00,16.4,1029.4,-1.5,72,11.3,18000,14.816,,,280,,,,,,,,,,,og-post,,,,AAXX 08144 07335 32568 72808 10164 20113 30150 40294 57015 86132 333 82825 85631=
07335,1999-10-08 15:00:00,16.2,1029.3,-1.2,72,11.2,18000,14.816,,,280,,,,,,,,,,,og-post,,,,AAXX 08154 07335 32568 72808 10162 20112 30149 40293 56012 86102 333 82826 83632 85075=
07335,1999-10-08 16:00:00,16.1,1029,-0.8,76,11.9,15000,14.816,,,270,,,,,,,,,,,og-post,,,,AAXX 08164 07335 32565 72708 10161 20119 30146 40290 56008 82832 333 81822 86075=
07335,1999-10-08 17:00:00,14.6,1028.8,-0.6,83,11.7,10000,11.112,,,250,,,,,,,,,,,og-post,,,,AAXX 08174 07335 32560 72506 10146 20117 30144 40288 58006 85832 333 81823 85631 85075=
07335,1999-10-08 18:00:00,14,1029,-0.4,87,11.9,,11.112,,,240,4.5,17.3,,,,,,,,,og-post,,,,AAXX 08184 07335 36/// /2406 10140 20119 30145 40290 55004 333 10173 20045=
07335,1999-10-08 19:00:00,13.9,1029.1,-0,88,11.9,,11.112,,,250,,,,,,,,,,,og-post,,,,AAXX 08194 07335 36/// /2506 10139 20119 30146 40291 55000=
07335,1999-10-08 20:00:00,13.7,1029.1,0.2,90,12.1,,11.112,,,250,,,,,,,,,,,og-post,,,,AAXX 08204 07335 36/// /2506 10137 20121 30146 40291 51002=
07335,1999-10-08 21:00:00,12.7,1029.7,0.6,93,11.6,,11.112,,,260,,,,,,,,,,,og-post,,,,AAXX 08214 07335 36/// /2606 10127 20116 30151 40297 53006=
07335,1999-10-08 22:00:00,11.9,1029.5,0.3,97,11.4,,7.408,,,260,,,,,,,,,,,og-post,,,,AAXX 08224 07335 36/// /2604 10119 20114 30149 40295 50003=
07335,1999-10-08 23:00:00,12.3,1029.6,0.4,96,11.7,,7.408,,,240,,,,,,,,,,,og-post,,,,AAXX 08234 07335 36/// /2404 10123 20117 30150 40296 51004=
07335,1999-10-09 00:00:00,12.7,1029.5,-0.2,93,11.6,,11.112,,,260,,,,,,,,,,,og-post,,,,AAXX 09004 07335 36/// /2606 10127 20116 30149 40295 56002=
07335,1999-10-09 01:00:00,12.6,1029.4,-0.1,91,11.2,,7.408,,,240,,,,,,,,,,,og-post,,,,AAXX 09014 07335 36/// /2404 10126 20112 30148 40294 58001=
07335,1999-10-09 02:00:00,12.7,1028.9,-0.7,87,10.6,,14.816,,,270,,,,,,,,,,,og-post,,,,AAXX 09024 07335 36/// /2708 10127 20106 30143 40289 58007=
07335,1999-10-09 03:00:00,12.5,1029,-0.5,91,11.1,,7.408,,,260,,,,,,,,,,,og-post,,,,AAXX 09034 07335 36/// /2604 10125 20111 30144 40290 55005=
07335,1999-10-09 04:00:00,12.4,1028.5,-0.9,90,10.8,8000,11.112,,,240,,,,,,,,,,,og-post,,,,AAXX 09044 07335 32558 82406 10124 20108 30139 40285 57009 885// 333 88628=
07335,1999-10-09 05:00:00,12.2,1028.5,-0.4,94,11.3,6000,7.408,,,260,,,,,,,,,,,og-post,,,,AAXX 09054 07335 32556 82604 10122 20113 30139 40285 58004 885// 333 88628=
07335,1999-10-09 06:00:00,12.3,1028.8,-0.2,91,10.9,6000,,,,,10.8,14.1,,,,,0,3.9,9,,og-post,,,,AAXX 09064 07335 32656 80000 10123 20109 30142 40288 55002 885// 333 10141 20108 30009 55039 70000 88633=
07335,1999-10-09 07:00:00,12.4,1029.1,0.6,93,11.3,8000,7.408,,,250,,,,,,,,,,,og-post,,,,AAXX 09074 07335 32658 82504 10124 20113 30145 40291 53006 885// 333 88633=
07335,1999-10-09 08:00:00,13.1,1029.3,0.9,87,11,10000,7.408,,,260,,,,,,,,,,,og-post,,,,AAXX 09084 07335 32660 72604 10131 20110 30148 40293 52009 875// 333 87633=
07335,1999-10-09 09:00:00,13.9,1029.4,0.7,79,10.3,12000,7.408,,,270,,,,,,,,,,,og-post,,,,AAXX 09094 07335 32662 82704 10139 20103 30149 40294 51007 885// 333 88633=
07335,1999-10-09 10:00:00,14.5,1029.5,0.5,79,10.9,15000,7.408,,,250,,,,,,,,,,,og-post,,,,AAXX 09104 07335 32665 82504 10145 20109 30150 40295 51005 885// 333 88636=
07335,1999-10-09 11:00:00,14.9,1029.7,0.4,73,10.1,15000,7.408,,,260,,,,,,,,,,,og-post,,,,AAXX 09114 07335 32565 82604 10149 20101 30152 40297 53004 885// 333 82620 88635=
07335,1999-10-09 12:00:00,15.6,1029.2,-0.1,66,9.3,20000,7.408,,,240,,,,,,,,,,,og-post,,,,AAXX 09124 07335 32570 82404 10156 20093 30148 40292 58001 885// 333 81623 87636=
07335,1999-10-09 13:00:00,16.2,1028.7,-0.7,67,10.1,20000,11.112,,,250,,,,,,,,,,,og-post,,,,AAXX 09134 07335 32670 72506 10162 20101 30143 40287 58007 875// 333 87633=
07335,1999-10-09 14:00:00,15.9,1028.6,-1,67,9.8,20000,11.112,,,240,,,,,,,,,,,og-post,,,,AAXX 09144 07335 32670 72406 10159 20098 30142 40286 56010 875// 333 87635=
07335,1999-10-09 15:00:00,15.9,1028.5,-0.7,68,10,20000,3.704,,,250,,,,,,,,,,,og-post,,,,AAXX 09154 07335 32670 82502 10159 20100 30141 40285 56007 885// 333 88636=
07335,1999-10-09 16:00:00,15.6,1028.2,-0.5,69,9.9,,7.408,,,290,,,,,,,,,,,og-post,,,,AAXX 09164 07335 36/// /2904 10156 20099 30138 40282 58005=
07335,1999-10-09 17:00:00,15,1028.2,-0.4,79,11.4,,3.704,,,240,,,,,,,,,,,og-post,,,,AAXX 09174 07335 36/// /2402 10150 20114 30138 40282 56004=
07335,1999-10-09 18:00:00,14.2,1028.7,0.1,84,11.5,,3.704,,,270,12.1,16.2,,,,,,,,,og-post,,,,AAXX 09184 07335 36/// /2702 10142 20115 30142 40287 53001 333 10162 20121=
07335,1999-10-09 19:00:00,13.4,1028.6,0.3,89,11.6,,3.704,,,220,,,,,,,,,,,og-post,,,,AAXX 09194 07335 36/// /2202 10134 20116 30141 40286 50003=
07335,1999-10-09 20:00:00,13.3,1028.7,0.4,91,11.9,,3.704,,,260,,,,,,,,,,,og-post,,,,AAXX 09204 07335 36/// /2602 10133 20119 30142 40287 51004=
07335,1999-10-09 21:00:00,12.8,1029,0.3,93,11.7,,3.704,,,250,,,,,,,,,,,og-post,,,,AAXX 09214 07335 36/// /2502 10128 20117 30145 40290 53003=
07335,1999-10-09 22:00:00,12.6,1029,0.3,93,11.5,,3.704,,,230,,,,,,,,,,,og-post,,,,AAXX 09224 07335 36/// /2302 10126 20115 30144 40290 50003=
07335,1999-10-09 23:00:00,12.3,1028.9,0.1,95,11.5,,3.704,,,230,,,,,,,,,,,og-post,,,,AAXX 09234 07335 36/// /2302 10123 20115 30143 40289 50001=
07335,1999-10-10 00:00:00,12.5,1028.7,-0.4,93,11.4,,7.408,,,180,,,,,,,,,,,og-post,,,,AAXX 10004 07335 36/// /1804 10125 20114 30141 40287 58004=
07335,1999-10-10 01:00:00,12.4,1028.5,-0.5,92,11.1,,3.704,,,230,,,,,,,,,,,og-post,,,,AAXX 10014 07335 36/// /2302 10124 20111 30139 40285 58005=
07335,1999-10-10 02:00:00,12.4,1028.1,-0.8,91,11,,,,,,,,,,,,,,,,og-post,,,,AAXX 10024 07335 36/// /0000 10124 20110 30135 40281 58008=
07335,1999-10-10 03:00:00,12,1027.7,-1,93,10.9,,,,,,,,,,,,,,,,og-post,,,,AAXX 10034 07335 36/// /0000 10120 20109 30131 40277 58010=
07335,1999-10-10 04:00:00,12.1,1027.6,-0.9,93,11,12000,,,,,,,,,,,,,,,og-post,,,,AAXX 10044 07335 32662 80000 10121 20110 30130 40276 56009 885// 333 88636=
07335,1999-10-10 05:00:00,12.1,1027.7,-0.4,93,11,15000,3.704,,,200,,,,,,,,,,,og-post,,,,AAXX 10054 07335 32665 82002 10121 20110 30131 40277 55004 885// 333 88636=
07335,1999-10-10 06:00:00,12.2,1027.7,-0,92,10.9,10000,7.408,,,310,12,14.2,,,,,0,,12,,og-post,,,,AAXX 10064 07335 32660 83104 10122 20109 30131 40277 55000 885// 333 10142 20120 30012 55000 70000 88638=
07335,1999-10-10 07:00:00,12.1,1028,0.4,93,11,10000,,,,,,,,,,,,,,,og-post,,,,AAXX 10074 07335 32660 80000 10121 20110 30134 40280 53004 875// 333 87638=
07335,1999-10-10 08:00:00,13.2,1028.3,0.7,89,11.4,10000,3.704,,,180,,,,,,,,,,,og-post,,,,AAXX 10084 07335 32660 71802 10132 20114 30138 40283 53007 875// 333 87638=
07335,1999-10-10 09:00:00,14.4,1028.6,1,82,11.4,12000,,,,,,,,,,,,,,,og-post,,,,AAXX 10094 07335 32662 70000 10144 20114 30141 40286 52010 875// 333 87638=
07335,1999-10-10 10:00:00,15.4,1028.3,0.5,76,11.2,15000,,,,,,,,,,,,,,,og-post,,,,AAXX 10104 07335 32565 80000 10154 20112 30139 40283 50005 888// 333 81820 88635=
07335,1999-10-10 11:00:00,16,1028.1,-0.1,68,10.1,20000,3.704,,,320,,,,,,,,,,,og-post,,,,AAXX 10114 07335 32570 73202 10160 20101 30137 40281 58001 878// 333 81825 87636=
07335,1999-10-10 12:00:00,16.8,1027.7,-0.7,56,8,20000,7.408,,,60,,,,,,,,,,,og-post,,,,AAXX 10124 07335 32670 70604 10168 20080 30134 40277 58007 875// 333 87636=
07335,1999-10-10 13:00:00,17.2,1027.3,-0.9,57,8.6,20000,,,,,,,,,,,,,,,og-post,,,,AAXX 10134 07335 32670 70000 10172 20086 30130 40273 58009 875// 333 87636=
07335,1999-10-10 14:00:00,17,1027.1,-0.9,60,9.2,20000,3.704,,,160,,,,,,,,,,,og-post,,,,AAXX 10144 07335 32670 71602 10170 20092 30128 40271 56009 875// 333 87633=
07335,1999-10-10 15:00:00,16.7,1026.8,-0.9,63,9.6,20000,3.704,,,220,,,,,,,,,,,og-post,,,,AAXX 10154 07335 32670 72202 10167 20096 30125 40268 56009 875// 333 87633=
07335,1999-10-10 16:00:00,16.4,1026.5,-0.8,66,10,,3.704,,,330,,,,,,,,,,,og-post,,,,AAXX 10164 07335 36/// /3302 10164 20100 30122 40265 58008=
07335,1999-10-10 17:00:00,16.2,1026.4,-0.7,68,10.3,,7.408,,,30,,,,,,,,,,,og-post,,,,AAXX 10174 07335 36/// /0304 10162 20103 30121 40264 56007=
07335,1999-10-10 18:00:00,16.1,1026.9,-0,67,10,,3.704,,,60,12,17.5,,,,,,,,,og-post,,,,AAXX 10184 07335 36/// /0602 10161 20100 30125 40269 55000 333 10175 20120=
07335,1999-10-10 19:00:00,15.3,1027,0.4,76,11.1,,3.704,,,40,,,,,,,,,,,og-post,,,,AAXX 10194 07335 36/// /0402 10153 20111 30126 40270 53004=
07335,1999-10-10 20:00:00,14.3,1027.3,0.8,89,12.5,,3.704,,,310,,,,,,,,,,,og-post,,,,AAXX 10204 07335 36/// /3102 10143 20125 30129 40273 51008=
07335,1999-10-10 21:00:00,14.1,1027.6,0.6,89,12.3,,3.704,,,310,,,,,,,,,,,og-post,,,,AAXX 10214 07335 36/// /3102 10141 20123 30131 40276 53006=
07335,1999-10-10 22:00:00,14.1,1027.4,0.3,89,12.3,,,,,,,,,,,,,,,,og-post,,,,AAXX 10224 07335 36/// /0000 10141 20123 30129 40274 50003=
07335,1999-10-10 23:00:00,13.8,1027.5,0.1,91,12.4,,7.408,,,300,,,,,,,,,,,og-post,,,,AAXX 10234 07335 36/// /3004 10138 20124 30130 40275 51001=
07335,1999-10-11 00:00:00,13.4,1027.5,-0.1,94,12.5,,3.704,,,240,,,,,,,,,,,og-post,,,,AAXX 11004 07335 36/// /2402 10134 20125 30130 40275 56001=
07335,1999-10-11 01:00:00,13.3,1027.4,0,94,12.4,,,,,,,,,,,,,,,,og-post,,,,AAXX 11014 07335 36/// /0000 10133 20124 30129 40274 50000=
07335,1999-10-11 02:00:00,13.3,1026.6,-0.9,94,12.4,,3.704,,,20,,,,,,,,,,,og-post,,,,AAXX 11024 07335 36/// /0202 10133 20124 30121 40266 58009=
07335,1999-10-11 03:00:00,13.3,1026.5,-1,94,12.4,,3.704,,,40,,,,,,,,,,,og-post,,,,AAXX 11034 07335 36/// /0402 10133 20124 30120 40265 57010=
07335,1999-10-11 04:00:00,13.2,1026.6,-0.8,94,12.3,8000,3.704,,,320,,,,,,,,,,,og-post,,,,AAXX 11044 07335 32458 83202 10132 20123 30121 40266 55008 875// 333 85616 86640=
07335,1999-10-11 05:00:00,13.2,1026.8,0.2,95,12.4,8000,3.704,,,360,,,,,,,,,,,og-post,,,,AAXX 11054 07335 32458 83602 10132 20124 30123 40268 53002 875// 333 87614=
07335,1999-10-11 06:00:00,13.1,1026.8,0.3,95,12.3,6000,3.704,,,340,13,16.1,,,,,0,0.4,13,,og-post,,,,AAXX 11064 07335 32656 83402 10131 20123 30123 40268 51003 885// 333 10161 20130 30013 55004 70000 88640=
07335,1999-10-11 07:00:00,13.3,1027.4,0.8,95,12.5,6000,,,,,,,,,,,,,,,og-post,,,,AAXX 11074 07335 32756 80000 10133 20125 30129 40274 53008 885// 333 88656=
07335,1999-10-11 08:00:00,14,1027.3,0.5,93,12.9,8000,3.704,,,160,,,,,,,,,,,og-post,,,,AAXX 11084 07335 32658 71602 10140 20129 30128 40273 50005 875// 333 82640 87656=
07335,1999-10-11 09:00:00,15.1,1027.5,0.8,80,11.7,12000,11.112,,,110,,,,,,,,,,,og-post,,,,AAXX 11094 07335 32662 71106 10151 20117 30131 40275 51008 875// 333 82640 87656=
07335,1999-10-11 10:00:00,16,1027.7,0.4,76,11.8,14000,3.704,,,30,,,,,,,,,,,og-post,,,,AAXX 11104 07335 32464 60302 10160 20118 30133 40277 53004 86800 333 81816 86656=
07335,1999-10-11 11:00:00,17.4,1027.4,0.3,72,12.3,15000,7.408,,,40,,,,,,,,,,,og-post,,,,AAXX 11114 07335 32465 70404 10174 20123 30131 40274 50003 878// 333 82818 87656=
07335,1999-10-11 12:00:00,17.7,1026.7,-0.7,70,12.2,20000,11.112,,,40,,,,,,,,,,,og-post,,,,AAXX 11124 07335 32570 60406 10177 20122 30124 40267 58007 86801 333 83823 83656=
07335,1999-10-11 13:00:00,18.4,1026.2,-1.3,67,12.2,24000,14.816,,,30,,,,,,,,,,,og-post,,,,AAXX 11134 07335 32574 70308 10184 20122 30120 40262 58013 84802 333 82826 83656 86075=
07335,1999-10-11 14:00:00,18.8,1025.7,-1.6,64,11.9,26000,22.224,,,50,,,,,,,,,,,og-post,,,,AAXX 11144 07335 32576 30512 10188 20119 30115 40257 56016 82802 333 82828=
07335,1999-10-11 15:00:00,18.9,1025.6,-1,61,11.2,27000,14.816,,,60,,,,,,,,,,,og-post,,,,AAXX 11154 07335 32577 30608 10189 20112 30114 40256 56010 83232 333 83828=
07335,1999-10-11 16:00:00,18.8,1025.4,-0.8,62,11.4,27000,14.816,,,70,,,,,,,,,,,og-post,,,,AAXX 11164 07335 32577 30708 10188 20114 30112 40254 56008 82202 333 82828=
07335,1999-10-11 17:00:00,17.8,1025.5,-0.2,68,11.8,27000,7.408,,,70,,,,,,,,,,,og-post,,,,AAXX 11174 07335 32577 70704 10178 20118 30113 40255 55002 81232 333 81828 86075=
07335,1999-10-11 18:00:00,16.7,1025.9,0.2,74,12,,7.408,,,50,13.1,19.2,,,,,,,,,og-post,,,,AAXX 11184 07335 36/// /0504 10167 20120 30116 40259 53002 333 10192 20131=
07335,1999-10-11 19:00:00,15.9,1026.1,0.6,82,12.8,,7.408,,,60,,,,,,,,,,,og-post,,,,AAXX 11194 07335 36/// /0604 10159 20128 30118 40261 53006=
07335,1999-10-11 20:00:00,15.2,1026.5,0.8,87,13.1,,11.112,,,50,,,,,,,,,,,og-post,,,,AAXX 11204 07335 36/// /0506 10152 20131 30121 40265 52008=
07335,1999-10-11 21:00:00,13.8,1026.7,0.6,90,12.2,,11.112,,,40,,,,,,,,,,,og-post,,,,AAXX 11214 07335 36/// /0406 10138 20122 30122 40267 51006=
07335,1999-10-11 22:00:00,14.2,1026.4,0.2,90,12.6,,11.112,,,60,,,,,,,,,,,og-post,,,,AAXX 11224 07335 36/// /0606 10142 20126 30120 40264 50002=
07335,1999-10-11 23:00:00,13.4,1026.3,-0.3,95,12.6,,11.112,,,50,,,,,,,,,,,og-post,,,,AAXX 11234 07335 36/// /0506 10134 20126 30118 40263 58003=
07335,1999-10-12 00:00:00,11.7,1026.4,-0.4,96,11.1,1300,11.112,,,40,,,,,,,,,,,og-post,,,,AAXX 12004 07335 36/13 /0406 10117 20111 30118 40264 56004=
07335,1999-10-12 01:00:00,11.3,1026.3,-0.3,97,10.8,100,11.112,,,40,,,,,,,,,,,og-post,,,,AAXX 12014 07335 36/01 /0406 10113 20108 30117 40263 56003=
07335,1999-10-12 02:00:00,12.2,1025.8,-0.5,98,11.9,200,11.112,,,50,,,,,,,,,,,og-post,,,,AAXX 12024 07335 36/02 /0506 10122 20119 30113 40258 58005=
07335,1999-10-12 03:00:00,12.9,1025.6,-0.7,99,12.7,1200,14.816,,,50,,,,0.2,,,,,,,og-post,,,,AAXX 12034 07335 26/12 /0508 10129 20127 30111 40256 58007 333 69927=
07335,1999-10-12 04:00:00,13.5,1025.5,-0.6,99,13.3,4000,14.816,,,60,,,,,,,,,,10,og-post,,,,AAXX 12044 07335 31140 80608 10135 20133 30111 40255 56006 71022 886// 333 87702=
07335,1999-10-12 05:00:00,13.8,1025.5,-0.2,98,13.5,4000,11.112,,,60,,,,,,,,,,10,og-post,,,,AAXX 12054 07335 31240 70606 10138 20135 30111 40255 56002 71022 875// 333 85706 87611=
07335,1999-10-12 06:00:00,13.9,1025.5,-0,96,13.3,4000,11.112,,,70,11.1,16.7,,,,0.2,0.2,3.3,9,10,og-post,,,,AAXX 12064 07335 11240 70706 10139 20133 30111 40255 54000 69922 71022 876// 333 10167 20111 31009 55033 70002 87706=
07335,1999-10-12 07:00:00,13.8,1025.8,0.3,94,12.9,4000,11.112,,,70,,,,,,,,,,10,og-post,,,,AAXX 12074 07335 31240 70706 10138 20129 30114 40258 53003 71022 876// 333 87706=
07335,1999-10-12 08:00:00,14.1,1026,0.5,91,12.7,4500,11.112,,,80,,,,,,,,,,10,og-post,,,,AAXX 12084 07335 31345 70806 10141 20127 30116 40260 53005 71022 876// 333 87707=
07335,1999-10-12 09:00:00,14.7,1026.1,0.6,87,12.6,5000,22.224,,,70,,,,,,,,,,,og-post,,,,AAXX 12094 07335 32450 70712 10147 20126 30117 40261 51006 875// 333 87610=
07335,1999-10-12 10:00:00,15.3,1026.1,0.3,83,12.4,8000,22.224,,,80,,,,,,,,,,,og-post,,,,AAXX 12104 07335 32458 60812 10153 20124 30117 40261 51003 84102 333 84813 83073=
07335,1999-10-12 11:00:00,16.6,1026,0.1,77,12.6,12000,18.52,,,60,,,,,,,,,,,og-post,,,,AAXX 12114 07335 32462 60610 10166 20126 30117 40260 51001 84102 333 84818 83073=
07335,1999-10-12 12:00:00,17.6,1025.4,-0.6,71,12.3,15000,22.224,,,80,,,,,,,,,,,og-post,,,,AAXX 12124 07335 32565 50812 10176 20123 30111 40254 58006 83102 333 83821=
07335,1999-10-12 13:00:00,18.3,1024.4,-1.5,66,11.8,20000,25.928,,,80,,,,,,,,,,,og-post,,,,AAXX 12134 07335 32570 50814 10183 20118 30102 40244 58015 83102 333 83825=
07335,1999-10-12 14:00:00,18.7,1023.9,-2,67,12.5,25000,25.928,,,90,,,,,,,,,,,og-post,,,,AAXX 12144 07335 32575 50914 10187 20125 30097 40239 56020 83202 333 83826 83073=
07335,1999-10-12 15:00:00,18.5,1023.5,-1.8,68,12.5,25000,22.224,,,90,,,,,,,,,,,og-post,,,,AAXX 12154 07335 32575 50912 10185 20125 30093 40235 56018 82102 333 82827 85073=
07335,1999-10-12 16:00:00,18.1,1023.2,-1.2,68,12.1,25000,18.52,,,80,,,,,,,,,,,og-post,,,,AAXX 12164 07335 32575 60810 10181 20121 30090 40232 56012 82102 333 82826 86073=
07335,1999-10-12 17:00:00,17,1023.6,-0.4,77,12.9,20000,18.52,,,60,,,,,,,,,,,og-post,,,,AAXX 12174 07335 32570 60610 10170 20129 30093 40236 55004 82102 333 82830 86073=
07335,1999-10-12 18:00:00,15.4,1023.9,0.3,83,12.5,,14.816,,,60,13.8,18.7,,,,,,,,,og-post,,,,AAXX 12184 07335 36/// /0608 10154 20125 30096 40239 53003 333 10187 20138=
07335,1999-10-12 19:00:00,14.4,1024.2,0.8,87,12.3,,14.816,,,50,,,,,,,,,,,og-post,,,,AAXX 12194 07335 36/// /0508 10144 20123 30098 40242 51008=
07335,1999-10-12 20:00:00,13.7,1024,0.3,89,11.9,,18.52,,,50,,,,,,,,,,,og-post,,,,AAXX 12204 07335 36/// /0510 10137 20119 30096 40240 50003=
07335,1999-10-12 21:00:00,13.2,1024.1,0,89,11.4,,11.112,,,60,,,,,,,,,,,og-post,,,,AAXX 12214 07335 36/// /0606 10132 20114 30096 40241 50000=
07335,1999-10-12 22:00:00,12.8,1024.1,-0.2,91,11.4,,11.112,,,60,,,,,,,,,,,og-post,,,,AAXX 12224 07335 36/// /0606 10128 20114 30096 40241 56002=
07335,1999-10-12 23:00:00,12.6,1023.8,-0.3,91,11.2,,11.112,,,60,,,,,,,,,,,og-post,,,,AAXX 12234 07335 36/// /0606 10126 20112 30093 40238 58003=
07335,1999-10-13 00:00:00,12.2,1023.3,-0.8,92,10.9,,14.816,,,50,,,,,,,,,,,og-post,,,,AAXX 13004 07335 36/// /0508 10122 20109 30088 40233 58008=
07335,1999-10-13 01:00:00,12.2,1023.3,-0.8,92,10.9,,11.112,,,70,,,,,,,,,,,og-post,,,,AAXX 13014 07335 36/// /0706 10122 20109 30088 40233 56008=
07335,1999-10-13 02:00:00,12.3,1022.8,-1,93,11.2,,11.112,,,70,,,,,,,,,,,og-post,,,,AAXX 13024 07335 36/// /0706 10123 20112 30083 40228 57010=
07335,1999-10-13 03:00:00,12.3,1022.6,-0.7,93,11.2,,11.112,,,80,,,,,,,,,,,og-post,,,,AAXX 13034 07335 36/// /0806 10123 20112 30081 40226 58007=
07335,1999-10-13 04:00:00,12.4,1022.4,-0.9,93,11.3,3500,11.112,,,70,,,,,,,,,,10,og-post,,,,AAXX 13044 07335 31235 80706 10124 20113 30079 40224 56009 71022 876// 333 30/// 87705=
07335,1999-10-13 05:00:00,12.3,1022.3,-0.5,94,11.4,3500,14.816,,,70,,,,,,,,,,10,og-post,,,,AAXX 13054 07335 31235 80708 10123 20114 30078 40223 56005 71022 886// 333 87703=
07335,1999-10-13 06:00:00,12.2,1022.4,-0.2,95,11.4,3500,14.816,,,70,12.1,15.4,,,,,0,5.4,11,10,og-post,,,,AAXX 13064 07335 31135 80708 10122 20114 30079 40224 55002 71022 886// 333 10154 20121 30011 55054 70000 88702=
07335,1999-10-13 07:00:00,12.3,1022.7,0.3,96,11.7,2500,11.112,,,80,,,,,,,,,,10,og-post,,,,AAXX 13074 07335 31125 80806 10123 20117 30082 40227 53003 71022 886// 333 88702=
07335,1999-10-13 08:00:00,13,1022.8,0.6,94,12.1,3000,11.112,,,80,,,,,,,,,,10,og-post,,,,AAXX 13084 07335 31230 80806 10130 20121 30084 40228 53006 71022 886// 333 88704=
07335,1999-10-13 09:00:00,13.6,1023.1,0.8,90,12,3500,11.112,,,80,,,,,,,,,,10,og-post,,,,AAXX 13094 07335 31335 80806 10136 20120 30087 40231 52008 71022 886// 333 88706=
07335,1999-10-13 10:00:00,14.6,1023.3,0.7,87,12.5,4000,11.112,,,80,,,,,,,,,,10,og-post,,,,AAXX 13104 07335 31340 80806 10146 20125 30089 40233 52007 71022 876// 333 87708=
07335,1999-10-13 11:00:00,15.7,1023.3,0.6,83,12.8,5000,11.112,,,90,,,,,,,,,,,og-post,,,,AAXX 13114 07335 32450 80906 10157 20128 30090 40233 51006 8567/ 333 85611 88460=
07335,1999-10-13 12:00:00,15.6,1022.9,-0.1,82,12.5,6000,11.112,,,80,,,,,,,,,,,og-post,,,,AAXX 13124 07335 32456 80806 10156 20125 30086 40229 58001 8267/ 333 82612 88460=
07335,1999-10-13 13:00:00,15.3,1022.6,-0.6,84,12.6,7000,11.112,,,70,,,,,,,,,,,og-post,,,,AAXX 13134 07335 32457 80706 10153 20126 30083 40226 58006 8557/ 333 85611 88460=
07335,1999-10-13 14:00:00,15.4,1022.6,-0.7,84,12.7,6000,14.816,,,60,,,,,,,,,,,og-post,,,,AAXX 13144 07335 32456 80608 10154 20127 30083 40226 56007 8557/ 333 85611 88460=
07335,1999-10-13 15:00:00,15.1,1022.5,-0.4,88,13.1,5000,14.816,,,70,,,,,,,,,,61,og-post,,,,AAXX 13154 07335 21250 80708 10151 20131 30082 40225 56004 76162 885// 333 69907 85703 87612=
07335,1999-10-13 16:00:00,13.9,1022.7,-0,93,12.8,2500,14.816,,,60,,,2,,,,,,,61,og-post,,,,AAXX 13164 07335 21125 80608 10139 20128 30083 40227 55000 76166 887// 333 60025 85702 87710=
07335,1999-10-13 17:00:00,13.3,1022.8,0.1,96,12.7,2500,11.112,,,70,,,6,,,,,,,61,og-post,,,,AAXX 13174 07335 21225 80706 10133 20127 30084 40228 53001 76166 885// 333 60065 85705 87612=
07335,1999-10-13 18:00:00,13.2,1023.3,0.7,96,12.6,,7.408,,,110,12.1,16.2,,10,,10,,,,,og-post,,,,AAXX 13184 07335 /6/// /1104 10132 20126 30089 40233 53007 60102 333 10162 20121 60107=
07335,1999-10-13 19:00:00,13.1,1023.3,0.6,97,12.6,,7.408,,,60,,,0.8,,,,,,,,og-post,,,,AAXX 13194 07335 26/// /0604 10131 20126 30089 40233 51006 333 69985=
07335,1999-10-13 20:00:00,12.8,1023.5,0.6,97,12.3,,7.408,,,50,,,0.4,,,,,,,,og-post,,,,AAXX 13204 07335 26/// /0504 10128 20123 30090 40235 51006 333 69945=
07335,1999-10-13 21:00:00,12.8,1023.5,0.1,97,12.3,,7.408,,,50,,,,1,,,,,,,og-post,,,,AAXX 13214 07335 26/// /0504 10128 20123 30090 40235 52001 333 60017=
07335,1999-10-13 22:00:00,12.8,1023.4,0,97,12.3,,7.408,,,50,,,,,,,,,,,og-post,,,,AAXX 13224 07335 26/// /0504 10128 20123 30089 40234 50000 333 69905=
07335,1999-10-13 23:00:00,12.7,1023.2,-0.3,97,12.2,,7.408,,,40,,,,,,,,,,,og-post,,,,AAXX 13234 07335 26/// /0404 10127 20122 30087 40232 58003 333 69905=
07335,1999-10-14 00:00:00,12.6,1023.1,-0.4,97,12.1,,7.408,,,50,,,,,1,,,,,,og-post,,,,AAXX 14004 07335 /6/// /0504 10126 20121 30086 40231 57004 60011 333 69907=
07335,1999-10-14 01:00:00,12.5,1023.1,-0.3,97,12,,7.408,,,40,,,,,,,,,,,og-post,,,,AAXX 14014 07335 26/// /0404 10125 20120 30086 40231 56003 333 69905=
07335,1999-10-14 02:00:00,12.3,1022.9,-0.3,97,11.8,,7.408,,,60,,,,,,,,,,,og-post,,,,AAXX 14024 07335 26/// /0604 10123 20118 30084 40229 58003 333 69905=
07335,1999-10-14 03:00:00,12.3,1022.6,-0.5,98,12,,7.408,,,70,,,,,,,,,,,og-post,,,,AAXX 14034 07335 26/// /0704 10123 20120 30081 40226 58005 333 69907=
07335,1999-10-14 04:00:00,12.5,1022.6,-0.5,98,12.2,200,7.408,,,90,,,,,,,,,,47,og-post,,,,AAXX 14044 07335 21/02 90904 10125 20122 30081 40226 56005 74742 333 69905=
07335,1999-10-14 05:00:00,12.8,1022.3,-0.5,99,12.6,1200,11.112,,,100,,,,,,,,,,28,og-post,,,,AAXX 14054 07335 31012 81006 10128 20126 30079 40223 56005 72842 886// 333 88701=
07335,1999-10-14 06:00:00,12.9,1022.4,-0.1,99,12.7,1000,7.408,,,110,12.2,13.3,,,,1,11.2,,12,10,og-post,,,,AAXX 14064 07335 /1110 81104 10129 20127 30080 40224 55001 60012 71042 886// 333 10133 20122 32012 55000 69907 70112 88701=
07335,1999-10-14 07:00:00,13.1,1022.6,0.1,99,12.9,1500,3.704,,,130,,,,,,,,,,10,og-post,,,,AAXX 14074 07335 31115 81302 10131 20129 30082 40226 53001 71022 886// 333 88702=
07335,1999-10-14 08:00:00,13.5,1023.1,0.8,99,13.3,700,11.112,,,100,,,,,,,,,,46,og-post,,,,AAXX 14084 07335 31007 81006 10135 20133 30087 40231 53008 74642 886// 333 88701=
07335,1999-10-14 09:00:00,14.2,1023.2,0.8,99,14,2000,7.408,,,140,,,,,,,,,,28,og-post,,,,AAXX 14094 07335 31120 81404 10142 20140 30088 40232 51008 72842 886// 333 88702=
07335,1999-10-14 10:00:00,15.7,1022.9,0.4,96,15.1,3000,7.408,,,80,,,,,,,,,,10,og-post,,,,AAXX 14104 07335 31230 60804 10157 20151 30086 40229 50004 71022 86600 333 86703=
07335,1999-10-14 11:00:00,18.4,1022.6,-0.3,85,15.8,8000,7.408,,,160,,,,,,,,,,,og-post,,,,AAXX 14114 07335 32358 51604 10184 20158 30084 40226 58003 85801 333 83808=
07335,1999-10-14 12:00:00,20.1,1021.9,-1,81,16.7,20000,7.408,,,120,,,,,,,,,,1,og-post,,,,AAXX 14124 07335 31470 51204 10201 20167 30078 40219 58010 70142 82201 333 82813 84075=
07335,1999-10-14 13:00:00,19.8,1021.6,-1.1,80,16.2,20000,7.408,,,80,,,,,,,,,,,og-post,,,,AAXX 14134 07335 32570 70804 10198 20162 30075 40216 58011 84202 333 84821 86075=
07335,1999-10-14 14:00:00,20.2,1021.3,-1.2,75,15.6,20000,7.408,,,150,,,,,,,,,,,og-post,,,,AAXX 14144 07335 32570 71504 10202 20156 30072 40213 56012 82232 333 82820 87075=
07335,1999-10-14 15:00:00,20,1021.2,-0.7,76,15.6,20000,7.408,,,190,,,,,,,,,,,og-post,,,,AAXX 14154 07335 32570 71904 10200 20156 30071 40212 56007 82232 333 82821 83360 87075=
07335,1999-10-14 16:00:00,19.9,1020.8,-0.8,79,16.1,20000,3.704,,,130,,,,,,,,,,,og-post,,,,AAXX 14164 07335 32470 71302 10199 20161 30067 40208 58008 84232 333 84818 83360 87075=
07335,1999-10-14 17:00:00,19.1,1020.9,-0.4,84,16.3,16000,7.408,,,100,,,,,,,,,,15,og-post,,,,AAXX 14174 07335 31466 71004 10191 20163 30068 40209 55004 71522 8523/ 333 85819 84360=
07335,1999-10-14 18:00:00,17,1021.2,-0.1,87,14.8,,11.112,,,160,12.9,20.4,,13,,13,,,,,og-post,,,,AAXX 14184 07335 /6/// /1606 10170 20148 30070 40212 55001 60132 333 10204 20129 60137=
07335,1999-10-14 19:00:00,16.3,1021.7,0.7,89,14.5,,11.112,,,60,,,9,,,,,,,,og-post,,,,AAXX 14194 07335 26/// /0606 10163 20145 30074 40217 53007 333 60095=
07335,1999-10-14 20:00:00,15.1,1021.3,0.2,94,14.1,,7.408,,,40,,,2,,,,,,,,og-post,,,,AAXX 14204 07335 26/// /0404 10151 20141 30070 40213 50002 333 60025=
07335,1999-10-14 21:00:00,15,1021.5,0.2,96,14.4,,3.704,,,80,,,,15,,,,,,,og-post,,,,AAXX 14214 07335 26/// /0802 10150 20144 30072 40215 51002 333 60157=
07335,1999-10-14 22:00:00,14.9,1021.3,-0.4,96,14.3,,3.704,,,150,,,,,,,,,,,og-post,,,,AAXX 14224 07335 36/// /1502 10149 20143 30070 40213 56004=
07335,1999-10-14 23:00:00,14.7,1021,-0.3,97,14.2,,3.704,,,250,,,,,,,,,,,og-post,,,,AAXX 14234 07335 36/// /2502 10147 20142 30067 40210 58003=
07335,1999-10-15 00:00:00,14.7,1021,-0.5,98,14.4,,7.408,,,210,,,,,15,,,,,,og-post,,,,AAXX 15004 07335 16/// /2104 10147 20144 30067 40210 56005 60151=
07335,1999-10-15 01:00:00,12.9,1020.8,-0.6,97,12.4,,3.704,,,210,,,,,,,,,,,og-post,,,,AAXX 15014 07335 36/// /2102 10129 20124 30064 40208 57006=
07335,1999-10-15 02:00:00,12.6,1020.5,-0.6,98,12.3,,3.704,,,190,,,,,,,,,,,og-post,,,,AAXX 15024 07335 36/// /1902 10126 20123 30061 40205 58006=
07335,1999-10-15 03:00:00,13.3,1020.4,-0.7,98,13,,7.408,,,250,,,,0.2,,,,,,,og-post,,,,AAXX 15034 07335 26/// /2504 10133 20130 30060 40204 56007 333 69927=
07335,1999-10-15 04:00:00,13.7,1020.1,-0.7,99,13.5,4000,7.408,,,240,,,,,,,,,,10,og-post,,,,AAXX 15044 07335 31140 72404 10137 20135 30057 40201 57007 71022 876// 333 87702=
07335,1999-10-15 05:00:00,13.7,1020.2,-0.3,99,13.5,2000,7.408,,,210,,,,,,,,,,10,og-post,,,,AAXX 15054 07335 31020 82104 10137 20135 30058 40202 55003 71022 876// 333 87701=
07335,1999-10-15 06:00:00,13.4,1020.4,-0,99,13.2,1200,7.408,,,220,11.7,17,,,,15,28,2,9,10,og-post,,,,AAXX 15064 07335 11012 82204 10134 20132 30060 40204 55000 60152 71022 876// 333 10170 20117 32009 55020 70280 87701=
07335,1999-10-15 07:00:00,13.5,1020.5,0.4,99,13.3,1200,7.408,,,200,,,,,,,,,,10,og-post,,,,AAXX 15074 07335 31012 82004 10135 20133 30061 40205 52004 71022 876// 333 87701=
07335,1999-10-15 08:00:00,13.9,1020.8,0.6,99,13.7,2800,3.704,,,190,,,,,,,,,,10,og-post,,,,AAXX 15084 07335 31128 81902 10139 20137 30064 40208 53006 71022 876// 333 87703=
07335,1999-10-15 09:00:00,14.9,1020.6,0.3,99,14.7,5000,7.408,,,210,,,,,,,,,,,og-post,,,,AAXX 15094 07335 32250 72104 10149 20147 30063 40206 50003 876// 333 87706=
07335,1999-10-15 10:00:00,15.8,1020.5,0.1,92,14.5,8000,7.408,,,220,,,,,,,,,,,og-post,,,,AAXX 15104 07335 32358 72204 10158 20145 30062 40205 50001 875// 333 83709 87615=
07335,1999-10-15 11:00:00,16.3,1020.5,-0.1,86,14,12000,7.408,,,190,,,,,,,,,,,og-post,,,,AAXX 15114 07335 32462 71904 10163 20140 30063 40205 55001 871// 333 87816=
07335,1999-10-15 12:00:00,18.1,1019.9,-0.5,76,13.8,15000,11.112,,,200,,,,,,,,,,,og-post,,,,AAXX 15124 07335 32565 62006 10181 20138 30058 40199 58005 85802 333 84824=
07335,1999-10-15 13:00:00,18.6,1019.5,-0.8,77,14.5,20000,11.112,,,280,,,,,,,,,,,og-post,,,,AAXX 15134 07335 32570 52806 10186 20145 30054 40195 58008 84202 333 84826=
07335,1999-10-15 14:00:00,19.1,1019.3,-1.1,71,13.7,25000,7.408,,,320,,,,,,,,,,,og-post,,,,AAXX 15144 07335 32575 33204 10191 20137 30052 40193 56011 83202 333 83822=
07335,1999-10-15 15:00:00,19.5,1019,-0.9,67,13.2,25000,3.704,,,240,,,,,,,,,,,og-post,,,,AAXX 15154 07335 32575 22402 10195 20132 30049 40190 56009 82202 333 82823=
07335,1999-10-15 16:00:00,18.9,1018.8,-0.7,70,13.3,25000,7.408,,,230,,,,,,,,,,,og-post,,,,AAXX 15164 07335 32575 22304 10189 20133 30047 40188 57007 82202 333 82826=
07335,1999-10-15 17:00:00,16.2,1019,-0.4,82,13.1,20000,3.704,,,250,,,,,,,,,,,og-post,,,,AAXX 15174 07335 32570 12502 10162 20131 30048 40190 55004 81102 333 81830=
07335,1999-10-15 18:00:00,12.7,1019.5,0.2,90,11.1,,,,,,12.7,19.7,,,,,,,,,og-post,,,,AAXX 15184 07335 36/// /0000 10127 20111 30051 40195 53002 333 10197 20127=
07335,1999-10-15 19:00:00,12.8,1019.8,0.7,97,12.3,,,,,,,,,,,,,,,,og-post,,,,AAXX 15194 07335 36/// /0000 10128 20123 30054 40198 53007=
07335,1999-10-15 20:00:00,10.7,1019.9,0.6,96,10.1,,,,,,,,,,,,,,,,og-post,,,,AAXX 15204 07335 36/// /0000 10107 20101 30054 40199 51006=
07335,1999-10-15 21:00:00,10,1020.2,0.5,97,9.5,,3.704,,,210,,,,,,,,,,,og-post,,,,AAXX 15214 07335 36/// /2102 10100 20095 30056 40202 51005=
07335,1999-10-15 22:00:00,10,1020,0,97,9.5,,,,,,,,,,,,,,,,og-post,,,,AAXX 15224 07335 36/// /0000 10100 20095 30054 40200 50000=
07335,1999-10-15 23:00:00,8.7,1019.7,-0.3,98,8.4,,,,,,,,,,,,,,,,og-post,,,,AAXX 15234 07335 36/// /0000 10087 20084 30051 40197 58003=
07335,1999-10-16 00:00:00,8.3,1019.8,-0.5,98,8,,,,,,,,,,,,,,,,og-post,,,,AAXX 16004 07335 36/// /0000 10083 20080 30051 40198 56005=
07335,1999-10-16 01:00:00,8.1,1019.9,-0.2,98,7.8,200,3.704,,,220,,,,,,,,,,,og-post,,,,AAXX 16014 07335 36/02 /2202 10081 20078 30052 40199 55002=
07335,1999-10-16 02:00:00,7.2,1019.6,-0.2,99,7.1,100,3.704,,,10,,,,,,,,,,,og-post,,,,AAXX 16024 07335 36/01 /0102 10072 20071 30049 40196 58002=
07335,1999-10-16 03:00:00,7.4,1019.3,-0.5,99,7.3,200,3.704,,,340,,,,,,,,,,,og-post,,,,AAXX 16034 07335 36/02 /3402 10074 20073 30046 40193 58005=
07335,1999-10-16 04:00:00,7.1,1019.5,-0.4,99,7,100,,,,,,,,,,,,,,45,og-post,,,,AAXX 16044 07335 31/01 90000 10071 20070 30048 40195 55004 74542=
07335,1999-10-16 05:00:00,6.6,1019.1,-0.5,99,6.5,800,3.704,,,360,,,,,,,,,,42,og-post,,,,AAXX 16054 07335 31908 03602 10066 20065 30044 40191 58005 74244=
07335,1999-10-16 09:00:00,12.4,1019.2,0.4,98,12.1,9000,7.408,,,70,,,,,,,,,,3,og-post,,,,AAXX 16094 07335 31159 10704 10124 20121 30048 40192 51004 70340 81101 333 81801=
07335,1999-10-16 10:00:00,13.8,1018.7,-0.1,89,12,9000,11.112,,,60,,,,,,,,,,,og-post,,,,AAXX 16104 07335 32259 10606 10138 20120 30044 40187 58001 81101 333 81803=
07335,1999-10-16 11:00:00,15,1018.5,-0.6,84,12.3,10000,11.112,,,80,,,,,,,,,,,og-post,,,,AAXX 16114 07335 32360 30806 10150 20123 30042 40185 58006 83100 333 83808=
07335,1999-10-16 12:00:00,14.1,1017.8,-1.3,87,12,10000,14.816,,,80,,,,,,,,,,3,og-post,,,,AAXX 16124 07335 31360 70808 10141 20120 30035 40178 58013 70341 871// 333 87807=
07335,1999-10-16 13:00:00,13.7,1017.2,-1.5,88,11.7,9000,14.816,,,90,,,,,,,,,,,og-post,,,,AAXX 16134 07335 32259 80908 10137 20117 30029 40172 58015 886// 333 88706=
07335,1999-10-16 14:00:00,13.9,1016.7,-1.8,89,12.1,8000,14.816,,,80,,,,,,,,,,,og-post,,,,AAXX 16144 07335 32258 80808 10139 20121 30024 40167 56018 886// 333 87706=
07335,1999-10-16 15:00:00,13.8,1016,-1.8,89,12,8000,14.816,,,70,,,,,,,,,,,og-post,,,,AAXX 16154 07335 32358 80708 10138 20120 30017 40160 58018 886// 333 88707=
07335,1999-10-17 04:00:00,8.4,1013.5,-0.3,99,8.3,100,11.112,,,90,,,,,,,,,,,og-post,,,,AAXX 17044 07335 33/01 90906 10084 20083 39989 40135 58003=
07335,1999-10-17 05:00:00,8.5,1013.5,-0.3,99,8.4,400,7.408,,,90,,,,,,,,,,43,og-post,,,,AAXX 17054 07335 31/04 90904 10085 20084 39989 40135 56003 74344=
07335,1999-10-17 06:00:00,8.2,1013.5,-0.2,99,8.1,300,7.408,,,70,6.7,11.6,,,,0.2,,4.9,4,47,og-post,,,,AAXX 17064 07335 11/03 90704 10082 20081 39989 40135 56002 69922 74742 333 10116 20067 30004 55049 70002=
07335,1999-10-17 08:00:00,8.1,1014,0.5,99,8,200,14.816,,,110,,,,,,,,,,43,og-post,,,,AAXX 17084 07335 31/02 91108 10081 20080 39994 40140 53005 74344=
07335,1999-10-17 09:00:00,8.8,1014.1,0.7,99,8.7,600,7.408,,,110,,,,0.2,,,,,,43,og-post,,,,AAXX 17094 07335 21/06 91104 10088 20087 39996 40141 51007 74344 333 69927=
07335,1999-10-17 11:00:00,10.3,1013.9,0,99,10.1,2000,7.408,,,90,,,,,,,,,,28,og-post,,,,AAXX 17114 07335 31120 80904 10103 20101 39994 40139 50000 72842 886// 333 88702=
07335,1999-10-17 12:00:00,11.2,1013.3,-0.7,99,11,2500,7.408,,,70,,,,,0.2,,,,,10,og-post,,,,AAXX 17124 07335 11125 80704 10112 20110 39989 40133 58007 69921 71042 886// 333 88702=
07335,1999-10-17 13:00:00,12.1,1012.6,-1.2,98,11.8,2500,11.112,,,80,,,,,,,,,,10,og-post,,,,AAXX 17134 07335 31125 80806 10121 20118 39983 40126 58012 71022 886// 333 88703=
07335,1999-10-17 14:00:00,12.7,1012.5,-1.2,95,11.9,3000,7.408,,,70,,,,,,,,,,10,og-post,,,,AAXX 17144 07335 31130 80704 10127 20119 39982 40125 56012 71022 886// 333 88703=
07335,1999-10-17 15:00:00,13.3,1012.5,-0.7,94,12.4,4000,7.408,,,80,,,,,,,,,,10,og-post,,,,AAXX 17154 07335 31240 80804 10133 20124 39982 40125 56007 71022 886// 333 88704=
07335,1999-10-18 04:00:00,9.1,1007.4,-2,98,8.8,500,18.52,,,50,,,,,,,,,,46,og-post,,,,AAXX 18044 07335 31005 80510 10091 20088 39930 40074 58020 74642 886// 333 88701=
07335,1999-10-18 05:00:00,9,1007.4,-1.7,98,8.7,500,18.52,,,50,,,,,,,,,,44,og-post,,,,AAXX 18054 07335 31005 80510 10090 20087 39930 40074 56017 74444 886// 333 88701=
07335,1999-10-18 06:00:00,9.2,1007.4,-0.5,99,9.1,200,11.112,,,50,8.9,13.5,,,,,0.2,,9,44,og-post,,,,AAXX 18064 07335 31002 80506 10092 20091 39930 40074 56005 74442 886// 333 10135 20089 30009 55000 70002 88701=
07335,1999-10-18 07:00:00,9.6,1007.6,0.2,99,9.4,200,11.112,,,50,,,,,,,,,,45,og-post,,,,AAXX 18074 07335 31/02 90506 10096 20094 39932 40076 53002 74544=
07335,1999-10-18 08:00:00,9.9,1007.2,-0.2,99,9.7,1800,14.816,,,50,,,,,,,,,,28,og-post,,,,AAXX 18084 07335 31118 80508 10099 20097 39928 40072 58002 72842 886// 333 88702=
07335,1999-10-18 09:00:00,9.6,1007.7,0.3,99,9.4,1500,14.816,,,50,,,,,,,,,,60,og-post,,,,AAXX 18094 07335 21115 80508 10096 20094 39933 40077 53003 76064 887// 333 69907 88702=
07335,1999-10-18 10:00:00,10,1007.7,0.1,99,9.8,2000,11.112,,,60,,,,,,,,,,21,og-post,,,,AAXX 18104 07335 21120 80606 10100 20098 39933 40077 53001 72162 886// 333 69905 88702=
07335,1999-10-18 11:00:00,9.8,1007.6,0.4,97,9.3,2500,18.52,,,40,,,,,,,,,,10,og-post,,,,AAXX 18114 07335 31125 80410 10098 20093 39932 40076 50004 71022 886// 333 88702=
07335,1999-10-18 14:00:00,11.1,1007.1,-0.4,89,9.4,6000,14.816,,,50,,,,,,,,,,60,og-post,,,,AAXX 18144 07335 21456 80508 10111 20094 39928 40071 55004 76062 886// 333 69905 88710=
07335,1999-10-18 15:00:00,11.7,1006.9,-0.1,87,9.6,7000,18.52,,,50,,,,,,,,,,21,og-post,,,,AAXX 18154 07335 21457 80510 10117 20096 39926 40069 57001 72162 885// 333 69907 86711 88650=
07335,1999-10-18 16:00:00,11.7,1007,0.2,88,9.8,7000,22.224,,,50,,,,,,,,,,,og-post,,,,AAXX 18164 07335 32457 80512 10117 20098 39927 40070 51002 885// 333 88611=
07335,1999-10-18 17:00:00,11.5,1007.4,0.3,87,9.4,6000,18.52,,,50,,,,,,,,,,60,og-post,,,,AAXX 18174 07335 21456 80510 10115 20094 39931 40074 53003 76062 885// 333 69905 87611 88650=
07335,1999-10-18 18:00:00,11.2,1007.7,0.8,84,8.6,,18.52,,,60,9.1,11.9,,,,,,,,,og-post,,,,AAXX 18184 07335 /6/// /0610 10112 20086 39934 40077 53008 69902 333 10119 20091 69907=
07335,1999-10-18 19:00:00,11.1,1007.8,0.8,81,8,,22.224,,,50,,,,,,,,,,,og-post,,,,AAXX 18194 07335 26/// /0512 10111 20080 39935 40078 51008 333 69905=
07335,1999-10-18 20:00:00,10.8,1008,0.5,75,6.6,,18.52,,,40,,,,,,,,,,,og-post,,,,AAXX 18204 07335 26/// /0410 10108 20066 39936 40080 51005 333 69905=
07335,1999-10-18 21:00:00,10.6,1008,0.2,75,6.4,,14.816,,,40,,,,,,,,,,,og-post,,,,AAXX 18214 07335 26/// /0408 10106 20064 39936 40080 51002 333 69907=
07335,1999-10-18 22:00:00,9.9,1007.9,0,78,6.2,,14.816,,,20,,,,,,,,,,,og-post,,,,AAXX 18224 07335 26/// /0208 10099 20062 39935 40079 50000 333 69905=
07335,1999-10-18 23:00:00,9.5,1007.8,-0.2,77,5.7,,11.112,,,30,,,,,,,,,,,og-post,,,,AAXX 18234 07335 26/// /0306 10095 20057 39934 40078 58002 333 69905=
07335,1999-10-19 00:00:00,9.1,1007.8,-0.3,78,5.5,,14.816,,,30,,,,,,,,,,,og-post,,,,AAXX 19004 07335 /6/// /0308 10091 20055 39933 40078 57003 69901 333 69907=
07335,1999-10-19 02:00:00,7.1,1007.4,-0.6,82,4.2,,11.112,,,360,,,,,,,,,,,og-post,,,,AAXX 19024 07335 26/// /3606 10071 20042 39928 40074 58006 333 69905=
07335,1999-10-19 04:00:00,6,1007.3,-0.3,85,3.7,12000,11.112,,,330,,,,,,,,,,,og-post,,,,AAXX 19044 07335 22462 83306 10060 20037 39927 40073 55003 885// 333 69905 87610=
07335,1999-10-19 05:00:00,5.6,1007,-0.4,86,3.4,12000,11.112,,,360,,,,,,,,,,,og-post,,,,AAXX 19054 07335 32362 83606 10056 20034 39924 40070 58004 885// 333 81607 87608=
07335,1999-10-19 06:00:00,4.8,1007.1,-0.2,87,2.8,12000,11.112,,,340,4.8,11.3,,,,,0,,5,,og-post,,,,AAXX 19064 07335 32262 83406 10048 20028 39924 40071 58002 885// 333 10113 20048 30005 55000 79999 83606 87609=
07335,1999-10-19 07:00:00,4.3,1007,-0.4,89,2.7,12000,7.408,,,340,,,,,,,,,,,og-post,,,,AAXX 19074 07335 32262 83404 10043 20027 39923 40070 56004 885// 333 87606=
07335,1999-10-19 08:00:00,4.5,1007.1,-0,89,2.8,15000,7.408,,,320,,,,,,,,,,,og-post,,,,AAXX 19084 07335 32465 83204 10045 20028 39924 40071 55000 885// 333 83610 87626=
07335,1999-10-19 09:00:00,6.1,1006.9,-0.1,89,4.4,8000,3.704,,,50,,,,,,,,,,,og-post,,,,AAXX 19094 07335 32258 50502 10061 20044 39923 40069 57001 83601 333 83703=
07335,1999-10-19 10:00:00,8.9,1006.4,-0.3,80,5.6,8000,3.704,,,360,,,,,,,,,,,og-post,,,,AAXX 19104 07335 32358 63602 10089 20056 39920 40064 58003 82504 333 81708 83650 85075=
07335,1999-10-19 11:00:00,10.5,1006.3,-0.5,74,6.1,10000,,,,,,,,,,,,,,,og-post,,,,AAXX 19114 07335 32460 60000 10105 20061 39919 40063 57005 83504 333 81615 83650=
07335,1999-10-19 12:00:00,11.4,1005.9,-0.7,75,7.1,10000,3.704,,,130,,,,,,,,,,,og-post,,,,AAXX 19124 07335 32460 71302 10114 20071 39916 40059 57007 86504 333 84615 85650=
07335,1999-10-19 13:00:00,11.8,1005.6,-0.7,75,7.5,10000,7.408,,,170,,,,,,,,,,,og-post,,,,AAXX 19134 07335 32460 71704 10118 20075 39913 40056 58007 875// 333 87616=
07335,1999-10-19 14:00:00,11.8,1005.5,-0.7,80,8.5,10000,7.408,,,190,,,,,,,,,,,og-post,,,,AAXX 19144 07335 32460 81904 10118 20085 39912 40055 56007 875// 333 86617 86633=
07335,1999-10-19 15:00:00,11.7,1005.4,-0.5,83,8.9,9000,7.408,,,170,,,,,,,,,,,og-post,,,,AAXX 19154 07335 32459 81704 10117 20089 39911 40054 56005 875// 333 86615 87627=
07335,1999-10-19 16:00:00,10.6,1005.3,-0.3,93,9.5,2500,7.408,,,170,,,0.6,,,,,,,61,og-post,,,,AAXX 19164 07335 21225 81704 10106 20095 39910 40053 57003 76162 875// 333 69965 82704 85612 87622=
07335,1999-10-19 17:00:00,10.6,1005.2,-0.3,95,9.8,2500,3.704,,,120,,,1,,,,,,,61,og-post,,,,AAXX 19174 07335 21225 81202 10106 20098 39909 40052 57003 76166 875// 333 60015 83704 85609 87620=
07335,1999-10-19 18:00:00,10.7,1005.4,-0,96,10.1,,3.704,,,130,4.3,12,,2,,2,,,,,og-post,,,,AAXX 19184 07335 /6/// /1302 10107 20101 39911 40054 55000 60022 333 10120 20043 60027=
07335,1999-10-19 19:00:00,10.6,1005.4,0.1,96,10,,7.408,,,150,,,,,,,,,,,og-post,,,,AAXX 19194 07335 26/// /1504 10106 20100 39911 40054 53001 333 69905=
07335,1999-10-19 20:00:00,10.6,1005.2,0,97,10.1,,7.408,,,140,,,,,,,,,,,og-post,,,,AAXX 19204 07335 26/// /1404 10106 20101 39909 40052 50000 333 69905=
07335,1999-10-19 21:00:00,10.7,1005.1,-0.3,97,10.2,,3.704,,,130,,,,,,,,,,,og-post,,,,AAXX 19214 07335 26/// /1302 10107 20102 39908 40051 58003 333 69907=
07335,1999-10-19 22:00:00,10.8,1004.8,-0.6,97,10.3,,3.704,,,120,,,,,,,,,,,og-post,,,,AAXX 19224 07335 26/// /1202 10108 20103 39905 40048 58006 333 69905=
07335,1999-10-19 23:00:00,10.7,1004.5,-0.7,98,10.4,200,7.408,,,150,,,,,,,,,,,og-post,,,,AAXX 19234 07335 26/02 /1504 10107 20104 39902 40045 58007 333 69905=
07335,1999-10-20 00:00:00,10.8,1004.2,-0.9,98,10.5,,7.408,,,140,,,,,,,,,,,og-post,,,,AAXX 20004 07335 /6/// /1404 10108 20105 39899 40042 57009 69901 333 69907=
07335,1999-10-20 01:00:00,10.7,1003.4,-1.4,99,10.5,,7.408,,,150,,,0.2,,,,,,,,og-post,,,,AAXX 20014 07335 26/// /1504 10107 20105 39891 40034 58014 333 69925=
07335,1999-10-20 02:00:00,10.9,1002.8,-1.7,98,10.6,,11.112,,,160,,,,,,,,,,,og-post,,,,AAXX 20024 07335 26/// /1606 10109 20106 39885 40028 58017 333 69905=
07335,1999-10-20 03:00:00,11.3,1001.9,-2.2,98,11,,11.112,,,150,,,,0.2,,,,,,,og-post,,,,AAXX 20034 07335 26/// /1506 10113 20110 39877 40019 57022 333 69927=
07335,1999-10-20 04:00:00,11.7,1001.4,-1.9,95,11,12000,11.112,,,170,,,,,,,,,,,og-post,,,,AAXX 20044 07335 22362 81706 10117 2011 39872 40014 56019 886// 333 31/// 69905 88706=
07335,1999-10-20 05:00:00,11.5,1000.8,-1.9,96,10.9,10000,11.112,,,140,,,,,,,,,,,og-post,,,,AAXX 20054 07335 32260 81406 10115 20109 39866 40008 56019 886// 333 82703 87706=
07335,1999-10-20 06:00:00,10.6,999.9,-2,97,10.1,10000,11.112,,,110,10.5,11.7,,,,0.2,2.4,2.6,9,1,og-post,,,,AAXX 20064 07335 11160 71106 10106 20101 39857 49999 58020 69922 70186 83634 333 10117 20105 31009 55026 70024 81703 83707 85075=
07335,1999-10-20 07:00:00,10.6,999.2,-2.2,96,10,10000,11.112,,,110,,,,,,,,,,,og-post,,,,AAXX 20074 07335 32360 81106 10106 20100 39850 49992 58022 84557 333 81707 84633 85361=
07335,1999-10-20 08:00:00,11.2,999,-1.8,93,10.1,15000,11.112,,,100,,,,,,,,,,,og-post,,,,AAXX 20084 07335 32665 81006 10112 20101 39848 49990 56018 8557/ 333 81633 85650 87361=
07335,1999-10-20 09:00:00,11.7,997.9,-2,91,10.3,15000,11.112,,,80,,,,,,,,,,,og-post,,,,AAXX 20094 07335 32665 80806 10117 20103 39837 49979 58020 8357/ 333 81640 88461=
07335,1999-10-20 10:00:00,12.6,996.8,-2.3,87,10.5,15000,14.816,,,90,,,,,,,,,,,og-post,,,,AAXX 20104 07335 32665 80908 10126 20105 39827 49968 58023 8357/ 333 81640 88461=
07335,1999-10-20 11:00:00,13.8,996,-2.8,84,11.1,15000,14.816,,,90,,,,,,,,,,,og-post,,,,AAXX 20114 07335 32665 80908 10138 20111 39820 49960 56028 8357/ 333 81640 88461=
07335,1999-10-20 12:00:00,-53,994.8,-2.8,127,11.7,15000,18.52,,,90,,,,,,,,,,,og-post,,,,AAXX 20124 07335 32465 80910 1153 20117 39809 49948 58028 8187/ 333 81816 88360=
07335,1999-10-20 13:00:00,15.8,994.2,-2.4,79,12.2,15000,18.52,,,100,,,,,,,,,,,og-post,,,,AAXX 20134 07335 32665 81010 10158 20122 39803 49942 56024 8457/ 333 84636 88360=
07335,1999-10-20 14:00:00,16,993.8,-2.1,80,12.6,15000,11.112,,,100,,,,,,,,,,21,og-post,,,,AAXX 20144 07335 21665 81006 10160 20126 39799 49938 56021 72162 8457/ 333 69905 84637 88360=
07335,1999-10-20 15:00:00,15.7,993.5,-1.3,85,13.2,10000,11.112,,,100,,,,,,,,,,61,og-post,,,,AAXX 20154 07335 21260 81006 10157 20132 39796 49935 56013 76162 8487/ 333 69907 81705 84626 88360=
07335,1999-10-20 16:00:00,15.5,993,-1.2,86,13.2,10000,7.408,,,90,,,0.2,,,,,,,61,og-post,,,,AAXX 20164 07335 21260 80904 10155 20132 39791 49930 58012 76166 8487/ 333 69925 81703 84633 88360=
07335,1999-10-20 17:00:00,14.7,993.5,-0.3,92,13.4,7000,7.408,,,130,,,1,,,,,,,61,og-post,,,,AAXX 20174 07335 21257 81304 10147 20134 39796 49935 55003 76166 875// 333 60015 81706 85619 86636=
07335,1999-10-20 18:00:00,14.2,993.6,-0,94,13.2,,11.112,,,120,10.5,16,,2,,2,,,,,og-post,,,,AAXX 20184 07335 /6/// /1206 10142 20132 39796 49936 55000 60022 333 10160 20105 60027=
07335,1999-10-20 19:00:00,13.8,993.4,0.3,95,13,,11.112,,,120,,,0.4,,,,,,,,og-post,,,,AAXX 20194 07335 26/// /1206 10138 20130 39794 49934 50003 333 69945=
07335,1999-10-20 20:00:00,13.2,993.6,-0,96,12.6,,7.408,,,130,,,,,,,,,,,og-post,,,,AAXX 20204 07335 26/// /1304 10132 20126 39796 49936 55000 333 69905=
07335,1999-10-20 21:00:00,12.7,993.8,0.2,97,12.2,,7.408,,,130,,,,0.4,,,,,,,og-post,,,,AAXX 20214 07335 26/// /1304 10127 20122 39798 49938 53002 333 69947=
07335,1999-10-20 22:00:00,11.6,993.8,0.3,97,11.1,800,7.408,,,170,,,0.2,,,,,,,,og-post,,,,AAXX 20224 07335 26/08 /1704 10116 20111 39797 49938 50003 333 69925=
07335,1999-10-20 23:00:00,11.4,994.1,0.4,98,11.1,300,7.408,,,160,,,,,,,,,,,og-post,,,,AAXX 20234 07335 26/03 /1604 10114 20111 39800 49941 53004 333 69905=
07335,1999-10-21 00:00:00,10.1,994.4,0.4,98,9.8,100,7.408,,,180,,,,0.2,0.6,,,,,,og-post,,,,AAXX 21004 07335 /6/01 /1804 10101 20098 39802 49944 53004 69961 333 69927=
07335,1999-10-21 01:00:00,9.7,994.4,0.5,99,9.5,400,7.408,,,180,,,,,,,,,,,og-post,,,,AAXX 21014 07335 26/04 /1804 10097 20095 39802 49944 51005 333 69905=
07335,1999-10-21 02:00:00,9.1,994.9,0.6,99,9,1600,7.408,,,210,,,,,,,,,,,og-post,,,,AAXX 21024 07335 26/16 /2104 10091 20090 39806 49949 53006 333 69905=
07335,1999-10-21 03:00:00,8.9,995.1,0.6,99,8.8,,7.408,,,220,,,,,,,,,,,og-post,,,,AAXX 21034 07335 26/// /2204 10089 20088 39808 49951 53006 333 69907=
07335,1999-10-21 04:00:00,9,995.7,1.2,99,8.9,3000,11.112,,,200,,,,,,,,,,10,og-post,,,,AAXX 21044 07335 21130 12006 10090 20089 39814 49957 53012 71000 81600 333 31/// 69905 81702=
07335,1999-10-21 05:00:00,8.2,995.7,0.8,99,8.1,3000,7.408,,,200,,,,,,,,,,11,og-post,,,,AAXX 21054 07335 31130 12004 10082 20081 39814 49957 51008 71100 81600 333 81702=
07335,1999-10-21 06:00:00,8.8,995.9,0.8,99,8.7,3000,7.408,,,200,8,14.2,,0.2,,0.8,3.2,,5,11,og-post,,,,AAXX 21064 07335 /1130 22004 10088 20087 39816 49959 51008 69982 71100 81630 333 10142 20080 32005 55000 69927 70032 81702=
07335,1999-10-21 07:00:00,8.8,996.7,1,99,8.7,2500,7.408,,,170,,,,,,,,,,10,og-post,,,,AAXX 21074 07335 31125 31704 10088 20087 39824 49967 53010 71000 83600 333 83702=
07335,1999-10-21 08:00:00,10.4,997.4,1.8,99,10.2,4000,11.112,,,190,,,,,,,,,,10,og-post,,,,AAXX 21084 07335 31140 41906 10104 20102 39832 49974 53018 71011 84600 333 81702 84703=
07335,1999-10-21 09:00:00,12,997.6,1.9,98,11.7,6000,18.52,,,180,,,,,,,,,,,og-post,,,,AAXX 21094 07335 32256 71810 10120 20117 39835 49976 51019 876// 333 85703 85706=
07335,1999-10-21 10:00:00,12.2,998,1.5,97,11.7,6000,18.52,,,190,,,,,,,,,,,og-post,,,,AAXX 21104 07335 32156 81910 10122 20117 39839 49980 51015 886// 333 86702 85706=
07335,1999-10-21 11:00:00,13,998.4,1.1,96,12.4,7000,18.52,,,200,,,,,,,,,,,og-post,,,,AAXX 21114 07335 32157 82010 10130 20124 39843 49984 53011 886// 333 86703 85706=
07335,1999-10-21 12:00:00,14.7,998.1,0.6,92,13.4,10000,18.52,,,200,,,,,,,,,,,og-post,,,,AAXX 21124 07335 32360 72010 10147 20134 39841 49981 50006 875// 333 87607=
07335,1999-10-21 14:00:00,18.3,997.7,-0.4,70,12.7,20000,18.52,,,220,,,,,,,,,,,og-post,,,,AAXX 21144 07335 32570 42210 10183 20127 39839 49977 56004 82234 333 82821 83076=
07335,1999-10-21 15:00:00,17.6,998.5,0.5,72,12.5,30000,18.52,,,240,,,,,,,,,,,og-post,,,,AAXX 21154 07335 32580 42410 10176 20125 39846 49985 53005 82231 333 82823=
07335,1999-10-21 16:00:00,17.1,999,1.1,71,11.8,30000,14.816,,,220,,,,,,,,,,,og-post,,,,AAXX 21164 07335 32580 42208 10171 20118 39851 49990 53011 81132 333 81821 83075=
07335,1999-10-21 17:00:00,16,999,1.1,75,11.6,20000,14.816,,,190,,,,,,,,,,,og-post,,,,AAXX 21174 07335 32570 61908 10160 20116 39850 49990 50011 85832 333 81820 85656=
07335,1999-10-21 18:00:00,14.7,999.6,1,82,11.7,,14.816,,,170,8.7,18.5,,,,,,,,,og-post,,,,AAXX 21184 07335 36/// /1708 10147 20117 39856 49996 53010 333 10185 20087=
07335,1999-10-21 19:00:00,15.1,1000.4,1.3,80,11.7,,18.52,,,190,,,,,,,,,,,og-post,,,,AAXX 21194 07335 36/// /1910 10151 20117 39864 40004 53013=
07335,1999-10-21 20:00:00,14,1000.4,1.3,86,11.7,,18.52,,,180,,,,,,,,,,,og-post,,,,AAXX 21204 07335 36/// /1810 10140 20117 39863 40004 50013=
07335,1999-10-21 21:00:00,13.6,1000.4,0.7,89,11.8,,18.52,,,180,,,,,,,,,,,og-post,,,,AAXX 21214 07335 36/// /1810 10136 20118 39863 40004 51007=
07335,1999-10-21 22:00:00,13.7,1000.3,-0.2,88,11.7,,18.52,,,170,,,,,,,,,,,og-post,,,,AAXX 21224 07335 36/// /1710 10137 20117 39862 40003 57002=
07335,1999-10-21 23:00:00,13.9,1000.4,-0,86,11.6,,18.52,,,170,,,,,,,,,,,og-post,,,,AAXX 21234 07335 36/// /1710 10139 20116 39863 40004 55000=
07335,1999-10-22 00:00:00,14.3,999.7,-0.7,84,11.6,,18.52,,,180,,,,,,,,,,,og-post,,,,AAXX 22004 07335 36/// /1810 10143 20116 39856 49997 58007=
07335,1999-10-22 01:00:00,14.4,999,-1.2,83,11.6,,18.52,,,170,,,,,,,,,,,og-post,,,,AAXX 22014 07335 36/// /1710 10144 20116 39850 49990 58012=
07335,1999-10-22 02:00:00,14.9,998.8,-1.5,79,11.3,,18.52,,,180,,,,,,,,,,,og-post,,,,AAXX 22024 07335 36/// /1810 10149 20113 39848 49988 56015=
07335,1999-10-22 03:00:00,14.4,998.6,-1,83,11.6,,7.408,,,220,,,,,,,,,,,og-post,,,,AAXX 22034 07335 36/// /2204 10144 20116 39846 49986 56010=
07335,1999-10-22 04:00:00,13.3,998.2,-0.9,91,11.9,20000,7.408,,,20,,,,,,,,,,,og-post,,,,AAXX 22044 07335 33370 80204 10133 20119 39841 49982 58009 875// 333 82708 83630 85646=
07335,1999-10-22 05:00:00,13,998,-0.9,93,11.9,15000,3.704,,,20,,,,,,,,,,60,og-post,,,,AAXX 22054 07335 21165 80202 10130 20119 39839 49980 57009 76062 8557/ 333 69905 82702 85650 87459=
07335,1999-10-22 06:00:00,13,996.5,-2.2,92,11.7,20000,7.408,,,90,12.9,15.1,,,,,0,2.8,11,21,og-post,,,,AAXX 22064 07335 /1170 70904 10130 20117 39824 49965 58022 69902 72162 8557/ 333 10151 20129 32011 55028 69907 79999 82702 83706 87459=
07335,1999-10-22 07:00:00,13.1,996.4,-1.8,87,11,15000,3.704,,,140,,,0.2,,,,,,,61,og-post,,,,AAXX 22074 07335 21165 71402 10131 20110 39823 49964 56018 76162 8657/ 333 69925 83702 85650 87459=
07335,1999-10-22 08:00:00,13.2,996.3,-1.7,91,11.8,5000,7.408,,,190,,,2,,,,,,,61,og-post,,,,AAXX 22084 07335 21250 81904 10132 20118 39822 49963 56017 76166 8857/ 333 60025 83705 85626 88459=
07335,1999-10-22 09:00:00,13.5,996.2,-0.2,90,11.9,12000,29.632,,,170,,,,4,,,,,,61,og-post,,,,AAXX 22094 07335 21262 81716 10135 20119 39822 49962 56002 76162 8652/ 333 60047 83704 85626 88459=
07335,1999-10-22 10:00:00,13.6,996.3,-0,90,12,8000,31.484,,,190,,,1,,,,,,,61,og-post,,,,AAXX 22104 07335 21258 81917 10136 20120 39823 49963 55000 76166 8652/ 333 60015 83705 83625 88459=
07335,1999-10-22 11:00:00,14.6,996.8,0.6,88,12.6,25000,29.632,53.708,,190,,,0.2,,,,,,,21,og-post,,,,AAXX 22114 07335 21375 61916 10146 20126 39828 49968 53006 72162 81730 333 69925 81708 86360 91129=
07335,1999-10-22 12:00:00,14.8,997.3,1.1,90,13.2,25000,25.928,,,210,,,,1,5,,,,,3,og-post,,,,AAXX 22124 07335 /1375 72114 10148 20132 39833 49973 53011 60051 70362 8553/ 333 60017 81706 85650 87360=
07335,1999-10-22 13:00:00,15.2,997.2,0.9,91,13.7,25000,18.52,,,210,,,,,,,,,,,og-post,,,,AAXX 22134 07335 32275 72110 10152 20137 39832 49972 50009 8487/ 333 81703 83650 87360=
07335,1999-10-22 14:00:00,15.3,997,0.2,89,13.5,25000,18.52,,,200,,,,,,,,,,60,og-post,,,,AAXX 22144 07335 21275 72010 10153 20135 39830 49970 50002 76062 8487/ 333 69905 81704 84650 87360=
07335,1999-10-22 15:00:00,16,996.9,-0.3,82,12.9,25000,14.816,,,220,,,,,,,,,,21,og-post,,,,AAXX 22154 07335 21475 62208 10160 20129 39830 49969 56003 72162 82832 333 69907 81813 85360=
07335,1999-10-22 16:00:00,16,997,-0.1,79,12.4,30000,14.816,,,210,,,,,,,,,,,og-post,,,,AAXX 22164 07335 32480 62108 10160 20124 39831 49970 55001 82832 333 81816 84360=
07335,1999-10-22 17:00:00,14.2,997.5,0.5,85,11.7,30000,11.112,,,190,,,,,,,,,,,og-post,,,,AAXX 22174 07335 32480 51906 10142 20117 39835 49975 53005 82832 333 81816 83073=
07335,1999-10-22 18:00:00,12.9,998.4,1.3,89,11.1,,11.112,,,190,12.6,16.4,,,,5,,,,,og-post,,,,AAXX 22184 07335 16/// /1906 10129 20111 39843 49984 53013 60052 333 10164 20126=
07335,1999-10-22 19:00:00,12,998.6,1.3,91,10.6,,11.112,,,180,,,,,,,,,,,og-post,,,,AAXX 22194 07335 36/// /1806 10120 20106 39844 49986 51013=
07335,1999-10-22 20:00:00,11.7,998.7,1,90,10.1,,11.112,,,190,,,,,,,,,,,og-post,,,,AAXX 22204 07335 36/// /1906 10117 20101 39845 49987 51010=
07335,1999-10-22 21:00:00,11.3,998.6,0.1,93,10.2,,11.112,,,180,,,,,,,,,,,og-post,,,,AAXX 22214 07335 36/// /1806 10113 20102 39844 49986 50001=
07335,1999-10-22 22:00:00,12,998.3,-0.2,96,11.4,,18.52,,,190,,,,,,,,,,,og-post,,,,AAXX 22224 07335 36/// /1910 10120 20114 39842 49983 58002=
07335,1999-10-22 23:00:00,12.1,998.3,-0.3,94,11.2,,14.816,,,180,,,,,,,,,,,og-post,,,,AAXX 22234 07335 36/// /1808 10121 20112 39842 49983 56003=
07335,1999-10-23 00:00:00,12.4,998.3,-0.2,91,11,,14.816,,,190,,,,,,,,,,,og-post,,,,AAXX 23004 07335 36/// /1908 10124 20110 39842 49983 56002=
07335,1999-10-23 01:00:00,12.4,998.7,0.4,89,10.6,,14.816,,,200,,,,,,,,,,,og-post,,,,AAXX 23014 07335 36/// /2008 10124 20106 39846 49987 53004=
07335,1999-10-23 02:00:00,12,998.9,0.5,89,10.2,,14.816,,,180,,,,,,,,,,,og-post,,,,AAXX 23024 07335 36/// /1808 10120 20102 39847 49989 53005=
07335,1999-10-23 03:00:00,11.7,998.8,0.4,90,10.1,,14.816,,,180,,,,,,,,,,,og-post,,,,AAXX 23034 07335 36/// /1808 10117 20101 39846 49988 50004=
07335,1999-10-23 04:00:00,12.1,998.9,0.1,88,10.2,20000,18.52,,,190,,,,,,,,,,,og-post,,,,AAXX 23044 07335 32770 71910 10121 20102 39847 49989 52001 875// 333 87656=
07335,1999-10-23 05:00:00,11.9,999.3,0.4,90,10.3,20000,14.816,,,200,,,,,,,,,,,og-post,,,,AAXX 23054 07335 32670 12008 10119 20103 39851 49993 53004 81500 333 81637=
07335,1999-10-23 06:00:00,12,999.4,0.6,89,10.2,10000,18.52,,,200,11.3,12.9,,,,,5.4,2,9,,og-post,,,,AAXX 23064 07335 32360 42010 10120 20102 39852 49994 52006 82982 333 10129 20113 31009 55020 70054 81706 81916=
07335,1999-10-23 09:00:00,12.7,1001.1,1.7,90,11.1,8000,22.224,,,220,,,,1,,,,,,61,og-post,,,,AAXX 23094 07335 21258 72212 10127 20111 39869 40011 53017 76198 8499/ 333 60017 81703 81916 83626 87359=
07335,1999-10-23 10:00:00,12.7,1001.4,2,91,11.3,10000,22.224,,,200,,,0.6,,,,,,,25,og-post,,,,AAXX 23104 07335 21260 72012 10127 20113 39872 40014 51020 72586 8499/ 333 69965 81703 81916 83820 87359=
07335,1999-10-23 11:00:00,13.7,1001.5,1.3,88,11.7,15000,18.52,,,200,,,0.2,,,,,,,25,og-post,,,,AAXX 23114 07335 21265 72010 10137 20117 39874 40015 51013 72586 84993 333 69925 81703 81916 85073=
07335,1999-10-23 12:00:00,15.7,1000.8,-0.1,81,12.4,20000,25.928,,,210,,,,0.8,2,,,,,2,og-post,,,,AAXX 23124 07335 /1470 72114 10157 20124 39868 40008 58001 60021 70298 83993 333 69987 81916 83820 85073=
07335,1999-10-23 14:00:00,16.2,1000.2,-1.2,80,12.7,15000,29.632,57.412,50.004,210,,,,,,,,,,,og-post,,,,AAXX 23144 07335 32465 62116 10162 20127 39862 40002 56012 83993 333 81916 83820 91027 91131=
07335,1999-10-23 15:00:00,14.7,1000.1,-0.7,86,12.4,12000,25.928,57.412,,230,,,,0.6,,,,,,25,og-post,,,,AAXX 23154 07335 21462 62314 10147 20124 39861 40001 57007 72586 83993 333 69967 81916 83360 91131=
07335,1999-10-23 16:00:00,15.8,999.9,-0.8,80,12.4,,18.52,,,220,,,,,,,,,,,og-post,,,,AAXX 23164 07335 36/// /2210 10158 20124 39859 49999 56008=
07335,1999-10-23 17:00:00,14.6,999.4,-0.8,83,11.7,,14.816,,,190,,,,,,,,,,,og-post,,,,AAXX 23174 07335 36/// /1908 10146 20117 39854 49994 58008=
07335,1999-10-23 18:00:00,13.3,998.7,-1.5,87,11.2,,11.112,57.412,,150,12,16.3,,,,2,,,,,og-post,,,,AAXX 23184 07335 16/// /1506 10133 20112 39846 49987 58015 60022 333 10163 20120 91131=
07335,1999-10-23 19:00:00,12.5,997.6,-2.4,88,10.6,,14.816,,,160,,,,,,,,,,,og-post,,,,AAXX 23194 07335 36/// /1608 10125 20106 39835 49976 58024=
07335,1999-10-23 20:00:00,12.7,996.1,-3.4,88,10.8,,18.52,,,150,,,,,,,,,,,og-post,,,,AAXX 23204 07335 36/// /1510 10127 20108 39820 49961 58034=
07335,1999-10-23 21:00:00,13.3,994.8,-3.8,85,10.8,,18.52,,,160,,,,,,,,,,,og-post,,,,AAXX 23214 07335 36/// /1610 10133 20108 39808 49948 58038=
07335,1999-10-23 22:00:00,13.7,993.4,-4.1,82,10.7,,18.52,,,170,,,,,,,,,,,og-post,,,,AAXX 23224 07335 36/// /1710 10137 20107 39794 49934 56041=
07335,1999-10-23 23:00:00,14.2,990.8,-5.1,77,10.2,,25.928,,,160,,,0.2,,,,,,,,og-post,,,,AAXX 23234 07335 26/// /1614 10142 20102 39769 49908 58051 333 69925=
07335,1999-10-24 00:00:00,14.9,989.1,-5.6,71,9.7,,29.632,50.004,,170,,,,0.2,0.2,,,,,,og-post,,,,AAXX 24004 07335 /6/// /1716 10149 20097 39752 49891 58056 69921 333 69927 91127=
07335,1999-10-24 01:00:00,16,988.4,-4.8,64,9.2,,38.892,68.524,68.524,190,,,,,,,,,,,og-post,,,,AAXX 24014 07335 36/// /1921 10160 20092 39746 49884 56048 333 91037 91137=
07335,1999-10-24 02:00:00,13.8,990,-0.8,85,11.3,,25.928,72.228,,210,,,1,,,,,,,,og-post,,,,AAXX 24024 07335 26/// /2114 10138 20113 39761 49900 55008 333 60015 91139=
07335,1999-10-24 03:00:00,13.4,989.8,0.6,89,11.6,,25.928,72.228,,210,,,,3,,,,,,,og-post,,,,AAXX 24034 07335 26/// /2114 10134 20116 39758 49898 53006 333 60037 91139=
07335,1999-10-24 04:00:00,13.2,990.3,1.7,93,12.1,10000,25.928,,,210,,,,,,,,,,61,og-post,,,,AAXX 24044 07335 21260 82114 10132 20121 39763 49903 51017 76162 8457/ 333 31/// 69905 82703 84620 88360=
07335,1999-10-24 05:00:00,12.9,989.9,-0.2,94,12,15000,18.52,,,200,,,0.4,,,,,,,21,og-post,,,,AAXX 24054 07335 21265 82010 10129 20120 39759 49899 58002 72162 8457/ 333 69945 82705 83620 88360=
07335,1999-10-24 06:00:00,13,990.6,0.8,94,12,6000,22.224,,40.744,210,12.3,16.1,,2,,,,,,63,wg-a,,0,,AAXX 24064 07335 12256 82112 10130 20120 39766 49906 53008 60027 76362 885// 90600 333 10161 20123 4/000 91022=
07335,1999-10-24 07:00:00,12.9,990.4,0.1,94,12,25000,25.928,,,200,,,2,,,,,,,21,og-post,,,,AAXX 24074 07335 21275 72014 10129 20120 39764 49904 53001 72162875// 333 60025 82703 87611=
07335,1999-10-24 08:00:00,12.6,991.2,1.3,88,10.7,25000,25.928,,,210,,,,,,,,,,,og-post,,,,AAXX 24084 07335 32275 72114 10126 20107 39772 49912 53013 875// 333 81706 87656=
07335,1999-10-24 09:00:00,13.2,991.6,1,91,11.8,,22.224,,,200,,,,2,,,,,,,og-post,,,,AAXX 24094 07335 26/// /2012 10132 20118 39776 49916 53010 333 60027=
07335,1999-10-24 10:00:00,15.1,992.2,1.9,84,12.4,30000,25.928,,,210,,,,,,,,,,,og-post,,,,AAXX 24104 07335 32480 32114 10151 20124 39783 49922 51019 83900 333 81911 83813=
07335,1999-10-24 11:00:00,16.4,992,1,71,11.1,30000,25.928,,,220,,,,,,,,,,15,og-post,,,,AAXX 24114 07335 31580 62214 10164 20111 39782 49920 50010 71511 86900 333 82920 85825=
07335,1999-10-24 12:00:00,17.1,991.6,0.2,69,11.4,30000,22.224,,,220,,,,,2,,,,,1,og-post,,,,AAXX 24124 07335 11580 32212 10171 20114 39778 49916 50002 60021 70161 83900 333 81925 83828=
07335,1999-10-24 13:00:00,16.3,992,-0.2,60,8.5,30000,31.484,53.708,53.708,240,,,,,,,,,,,og-post,,,,AAXX 24134 07335 32580 62417 10163 20085 39781 49920 55002 86900 333 81923 86828 91029 91129=
07335,1999-10-24 14:00:00,16,991.9,-0.2,68,10.1,30000,18.52,,,240,,,,,,,,,,,og-post,,,,AAXX 24144 07335 32580 12410 10160 20101 39780 49919 56002 81801 333 81828=
07335,1999-10-24 15:00:00,16.7,992,0.4,62,9.4,30000,22.224,53.708,,230,,,,,,,,,,,og-post,,,,AAXX 24154 07335 32580 12312 10167 20094 39782 49920 51004 81800 333 81828 91129=
07335,1999-10-24 16:00:00,15.5,991.9,-0.1,68,9.6,,14.816,,,210,,,,,,,,,,,og-post,,,,AAXX 24164 07335 36/// /2108 10155 20096 39780 49919 58001=
07335,1999-10-24 17:00:00,13.4,991.9,-0.1,78,9.6,,7.408,,,180,,,,,,,,,,,og-post,,,,AAXX 24174 07335 36/// /1804 10134 20096 39779 49919 58001=
07335,1999-10-24 18:00:00,12.6,992.1,-0.1,82,9.6,,7.408,53.708,,180,12.4,17.4,,,,2,,,,,og-post,,,,AAXX 24184 07335 16/// /1804 10126 20096 39781 49921 55001 60022 333 10174 20124 91129=
07335,1999-10-24 19:00:00,12,992.3,0.2,88,10.1,,11.112,,,170,,,,,,,,,,,og-post,,,,AAXX 24194 07335 36/// /1706 10120 20101 39782 49923 53002=
07335,1999-10-24 20:00:00,11.3,992.5,0.5,92,10,,14.816,,,170,,,,,,,,,,,og-post,,,,AAXX 24204 07335 36/// /1708 10113 20100 39784 49925 52005=
07335,1999-10-24 21:00:00,12.6,992.2,0.1,81,9.4,,18.52,,,190,,,,,,,,,,,og-post,,,,AAXX 24214 07335 36/// /1910 10126 20094 39782 49922 50001=
07335,1999-10-24 22:00:00,12.5,992.6,0.3,80,9.1,,14.816,,,190,,,,,,,,,,,og-post,,,,AAXX 24224 07335 36/// /1908 10125 20091 39785 49926 53003=
07335,1999-10-24 23:00:00,11.1,994,1.5,93,10,,22.224,,,250,,,3,,,,,,,,og-post,,,,AAXX 24234 07335 26/// /2512 10111 20100 39799 49940 53015 333 60035=
07335,1999-10-25 00:00:00,10.8,993.4,1.1,95,10,,18.52,,,190,,,,5,5,,,,,,og-post,,,,AAXX 25004 07335 /6/// /1910 10108 20100 39793 49934 50011 60051 333 60057=
07335,1999-10-25 01:00:00,10.6,994.1,1.4,94,9.7,,14.816,,,190,,,0.2,,,,,,,,og-post,,,,AAXX 25014 07335 26/// /1908 10106 20097 39799 49941 51014 333 69925=
07335,1999-10-25 02:00:00,10.4,994.4,0.3,95,9.6,,14.816,,,200,,,,,,,,,,,og-post,,,,AAXX 25024 07335 36/// /2008 10104 20096 39802 49944 53003=
07335,1999-10-25 03:00:00,11.3,994.8,1.4,93,10.2,,18.52,,,210,,,,0.8,,,,,,,og-post,,,,AAXX 25034 07335 26/// /2110 10113 20102 39807 49948 51014 333 69987=
07335,1999-10-25 04:00:00,10.8,994.7,0.6,92,9.6,20000,18.52,,,200,,,0.2,,,,,,,,og-post,,,,AAXX 25044 07335 22270 62010 10108 20096 39805 49947 50006 86500 333 69925 82703 83620=
07335,1999-10-25 05:00:00,10.8,995.2,0.8,92,9.6,20000,18.52,,,210,,,1,,,,,,,25,og-post,,,,AAXX 25054 07335 21270 62110 10108 20096 39810 49952 52008 72522 86800 333 60015 82703 83815=
07335,1999-10-25 06:00:00,10.5,995.9,1,91,9.1,30000,14.816,,,200,10.3,12.8,,1,,7,9.8,5.4,7,1,og-post,,,,AAXX 25064 07335 /1480 62008 10105 20091 39817 49959 53010 60072 70186 82832 333 10128 20103 32007 55054 60017 70098 81815 83360=
07335,1999-10-25 07:00:00,10.8,996.5,1.8,93,9.7,30000,14.816,,,210,,,,,,,,,,,og-post,,,,AAXX 25074 07335 32480 62108 10108 20097 39823 49965 53018 82832 333 81816 83626=
07335,1999-10-25 08:00:00,11.2,997.7,2.5,94,10.3,20000,18.52,,,210,,,0.4,,,,,,,80,og-post,,,,AAXX 25084 07335 21170 72110 10112 20103 39835 49977 53025 78086 8293/ 333 69945 83703 82915 83633=
07335,1999-10-25 09:00:00,12.7,998.4,2.6,92,11.4,30000,18.52,,,200,,,,0.4,,,,,,25,og-post,,,,AAXX 25094 07335 21480 52010 10127 20114 39843 49984 53026 72586 82232 333 69947 82816 83360=
07335,1999-10-25 10:00:00,14.2,999.6,3.2,86,11.9,30000,22.224,,,210,,,,,,,,,,,og-post,,,,AAXX 25104 07335 32480 52112 10142 20119 39855 49996 52032 82833 333 81816 84075=
07335,1999-10-25 11:00:00,16.2,1000,2.5,80,12.7,30000,25.928,,,210,,,,,,,,,,,og-post,,,,AAXX 25114 07335 32480 52114 10162 20127 39860 40000 51025 83232 333 83815 83075=
07335,1999-10-25 12:00:00,14.9,1000.5,2.2,85,12.4,25000,22.224,,,200,,,,,0.4,,,,,80,og-post,,,,AAXX 25124 07335 /1475 72012 10149 20124 39865 40005 51022 69941 78086 86832 333 69907 85818 83075=
07335,1999-10-25 13:00:00,16.2,1000.9,1.4,80,12.7,20000,25.928,,,220,,,,,,,,,,29,og-post,,,,AAXX 25134 07335 21470 72214 10162 20127 39869 40009 51014 72998 8699/ 333 69905 81915 84818=
07335,1999-10-25 14:00:00,15.4,1001.6,1.6,83,12.5,25000,22.224,,,210,,,2,,,,,,,25,og-post,,,,AAXX 25144 07335 21475 72112 10154 20125 39876 40016 53016 72522 84993 333 60025 81915 84818 85075=
07335,1999-10-25 17:00:00,14.5,1003.9,2.2,82,11.5,30000,18.52,,,210,,,,,,,,,,,og-post,,,,AAXX 25174 07335 32580 22110 10145 20115 39898 40039 52022 81833 333 81820=
07335,1999-10-25 18:00:00,13.8,1005.4,2.9,86,11.5,,18.52,,,190,10.3,16.9,,,,2,,,,,og-post,,,,AAXX 25184 07335 16/// /1910 10138 20115 39912 40054 53029 60022 333 10169 20103=
07335,1999-10-25 21:00:00,12.4,1008.2,2.7,90,10.8,,11.112,,,210,,,,,,,,,,,og-post,,,,AAXX 25214 07335 36/// /2106 10124 20108 39939 40082 53027=
07335,1999-10-25 23:00:00,11.9,1009.8,2.7,92,10.6,,11.112,,,200,,,,,,,,,,,og-post,,,,AAXX 25234 07335 36/// /2006 10119 20106 39955 40098 51027=
07335,1999-10-26 00:00:00,11.6,1010.4,2.2,93,10.5,,11.112,,,220,,,,,,,,,,,og-post,,,,AAXX 26004 07335 36/// /2206 10116 20105 39961 40104 51022=
07335,1999-10-26 02:00:00,9.5,1011.7,1.7,96,8.9,,7.408,,,240,,,,,,,,,,,og-post,,,,AAXX 26024 07335 36/// /2404 10095 20089 39972 40117 51017=
07335,1999-10-26 03:00:00,9.8,1012.4,1.8,97,9.3,,11.112,,,210,,,,,,,,,,,og-post,,,,AAXX 26034 07335 36/// /2106 10098 20093 39979 40124 53018=
07335,1999-10-26 06:00:00,9.8,1015,2.6,98,9.5,12000,7.408,,,210,8.3,13.8,,,,,2.2,4.8,5,,og-post,,,,AAXX 26064 07335 32462 62104 10098 20095 30005 40150 53026 86100 333 10138 20083 31005 55048 70022 86811=
07335,1999-10-26 07:00:00,9.2,1015.5,2.3,97,8.7,15000,7.408,,,210,,,,,,,,,,,og-post,,,,AAXX 26074 07335 32465 22104 10092 20087 30010 40155 51023 81802 333 81811=
07335,1999-10-26 08:00:00,11.1,1017.3,3.4,97,10.6,20000,3.704,,,230,,,,,,,,,,,og-post,,,,AAXX 26084 07335 32470 22302 10111 20106 30028 40173 53034 82802 333 82816=
07335,1999-10-26 09:00:00,14.1,1017.7,2.9,89,12.3,20000,3.704,,,250,,,,,,,,,,,og-post,,,,AAXX 26094 07335 32570 22502 10141 20123 30034 40177 53029 81832 333 81823=
07335,1999-10-26 10:00:00,16.6,1018.5,3.3,80,13.1,25000,11.112,,,240,,,,,,,,,,,og-post,,,,AAXX 26104 07335 32575 32406 10166 20131 30043 40185 51033 82832 333 82826=
07335,1999-10-26 11:00:00,17.7,1018.8,1.8,71,12.4,25000,11.112,,,270,,,,,,,,,,,og-post,,,,AAXX 26114 07335 32575 32706 10177 20124 30046 40188 51018 83232 333 83826=
07335,1999-10-26 12:00:00,18.3,1018.9,1.4,65,11.6,25000,7.408,,,250,,,,,,,,,,,og-post,,,,AAXX 26124 07335 32575 32504 10183 20116 30048 40189 51014 83202 333 83826=
07335,1999-10-26 13:00:00,19.4,1018.8,0.4,63,12.2,25000,3.704,,,280,,,,,,,,,,,og-post,,,,AAXX 26134 07335 32575 32802 10194 20122 30047 40188 50004 83202 333 83828=
07335,1999-10-26 14:00:00,19.5,1018.9,0.2,56,10.5,25000,7.408,,,290,,,,,,,,,,,og-post,,,,AAXX 26144 07335 32575 32904 10195 20105 30048 40189 51002 83202 333 83831=
07335,1999-10-26 15:00:00,19.5,1019.4,,60,11.5,25000,,,,,,,,,,,,,,,og-post,,,,AAXX 26154 07335 32675 30000 10195 20115 30053 40194 3005 83202 333 83835=
07335,1999-10-26 16:00:00,17.2,1020.2,1.3,72,12.1,25000,,,,,,,,,,,,,,,og-post,,,,AAXX 26164 07335 32675 30000 10172 20121 30060 40202 53013 83202 333 83836=
07335,1999-10-26 17:00:00,14.6,1020.9,1.8,84,11.9,20000,3.704,,,350,,,,,,,,,,,og-post,,,,AAXX 26174 07335 32670 23502 10146 20119 30066 40209 53018 82102 333 82838=
07335,1999-10-26 18:00:00,11.4,1022,2.2,88,9.5,,,,,,8.9,19.6,,,,,,,,,og-post,,,,AAXX 26184 07335 36/// /0000 10114 20095 30075 40220 53022 333 10196 20089=
07335,1999-10-26 19:00:00,10.5,1022.9,2.3,94,9.6,,3.704,,,10,,,,,,,,,,,og-post,,,,AAXX 26194 07335 36/// /0102 10105 20096 30083 40229 53023=
07335,1999-10-26 20:00:00,9.3,1023.5,2.2,96,8.7,,,,,,,,,,,,,,,,og-post,,,,AAXX 26204 07335 36/// /0000 10093 20087 30088 40235 51022=
07335,1999-10-26 21:00:00,9.1,1024.1,1.9,97,8.6,,3.704,,,360,,,,,,,,,,,og-post,,,,AAXX 26214 07335 36/// /3602 10091 20086 30094 40241 51019=
07335,1999-10-26 22:00:00,7.1,1024.6,1.5,97,6.7,,,,,,,,,,,,,,,,og-post,,,,AAXX 26224 07335 36/// /0000 10071 20067 30098 40246 51015=
07335,1999-10-26 23:00:00,6.8,1024.8,1.2,98,6.5,,3.704,,,360,,,,,,,,,,,og-post,,,,AAXX 26234 07335 36/// /3602 10068 20065 30100 40248 51012=
07335,1999-10-27 00:00:00,6.3,1025.1,0.9,98,6,200,,,,,,,,,,,,,,,og-post,,,,AAXX 27004 07335 36/02 /0000 10063 20060 30103 40251 51009=
07335,1999-10-27 01:00:00,6.5,1025.6,1,98,6.2,300,3.704,,,340,,,,,,,,,,,og-post,,,,AAXX 27014 07335 36/03 /3402 10065 20062 30108 40256 53010=
07335,1999-10-27 02:00:00,5.2,1025.5,0.6,98,4.9,200,,,,,,,,,,,,,,,og-post,,,,AAXX 27024 07335 36/02 /0000 10052 20049 30106 40255 50006=
07335,1999-10-27 03:00:00,5.7,1025.6,0.4,98,5.4,,7.408,,,10,,,,,,,,,,,og-post,,,,AAXX 27034 07335 36/// /0104 10057 20054 30107 40256 51004=
07335,1999-10-27 04:00:00,5.4,1025.8,0.1,99,5.3,500,,,,,,,,,,,,,,46,og-post,,,,AAXX 27044 07335 31905 00000 10054 20053 30109 40258 53001 74640=
07335,1999-10-27 05:00:00,4.9,1026.2,0.7,99,4.8,400,3.704,,,10,,,,,,,,,,46,og-post,,,,AAXX 27054 07335 31904 00102 10049 20048 30113 40262 53007 74644=
07335,1999-10-27 06:00:00,4.1,1026.4,0.7,99,4,300,,,,,3.9,11.4,,,,,,7.9,2,46,og-post,,,,AAXX 27064 07335 31903 00000 10041 20040 30114 40264 51007 74640 333 10114 20039 30002 55079 70000=
07335,1999-10-27 07:00:00,4,1026.4,0.5,99,3.9,1000,7.408,,,360,,,,,,,,,,40,og-post,,,,AAXX 27074 07335 31910 03604 10040 20039 30114 40264 51005 74040=
07335,1999-10-27 08:00:00,7.8,1026.7,0.6,99,7.7,5000,3.704,,,10,,,,,,,,,,,og-post,,,,AAXX 27084 07335 32950 00102 10078 20077 30119 40267 53006=
07335,1999-10-27 09:00:00,11.2,1026.6,0.6,99,11,20000,3.704,,,90,,,,,,,,,,2,og-post,,,,AAXX 27094 07335 31970 00902 10112 20110 30120 40266 53006 70240=
07335,1999-10-27 10:00:00,15,1026.7,0.9,77,11,30000,7.408,,,130,,,,,,,,,,,og-post,,,,AAXX 27104 07335 32980 01304 10150 20110 30123 40267 51009=
07335,1999-10-27 11:00:00,16.6,1026.2,0,70,11.1,30000,7.408,,,90,,,,,,,,,,,og-post,,,,AAXX 27114 07335 32980 00904 10166 20111 30119 40262 50000=
07335,1999-10-27 12:00:00,17.6,1025.8,-0.5,64,10.7,30000,7.408,,,80,,,,,,,,,,2,og-post,,,,AAXX 27124 07335 31980 00804 10176 20107 30115 40258 58005 70240=
07335,1999-10-27 13:00:00,19.4,1025.3,-1.2,63,12.2,30000,7.408,,,90,,,,,,,,,,,og-post,,,,AAXX 27134 07335 32980 00904 10194 20122 30111 40253 57012=
07335,1999-10-27 14:00:00,19.8,1024.7,-1.3,58,11.3,30000,11.112,,,100,,,,,,,,,,,og-post,,,,AAXX 27144 07335 32980 11006 10198 20113 30106 40247 58013 80002 333 81073=
07335,1999-10-27 15:00:00,19.3,1023.6,-2,63,12.1,30000,11.112,,,90,,,,,,,,,,,og-post,,,,AAXX 27154 07335 32980 40906 10193 20121 30095 40236 58020 80002 333 84073=
07335,1999-10-27 16:00:00,19,1023.8,-1.5,66,12.5,,11.112,,,130,,,,,,,,,,,og-post,,,,AAXX 27164 07335 36/// /1306 10190 20125 30096 40238 55015=
07335,1999-10-27 17:00:00,17.4,1023.5,-1.3,72,12.3,30000,3.704,,,100,,,,,,,,,,,og-post,,,,AAXX 27174 07335 32980 11002 10174 20123 30093 40235 56013 81030 333 81360=
07335,1999-10-27 18:00:00,13.7,1023.7,-0.2,87,11.6,,3.704,,,20,3.7,20.1,,,,,,,,,og-post,,,,AAXX 27184 07335 36/// /0202 10137 20116 30093 40237 58002 333 10201 20037=
07335,1999-10-27 19:00:00,11.5,1023.7,-0.4,92,10.2,,,,,,,,,,,,,,,,og-post,,,,AAXX 27194 07335 36/// /0000 10115 20102 30092 40237 56004=
07335,1999-10-27 20:00:00,12.2,1023.5,-0.3,93,11.1,,3.704,,,110,,,,,,,,,,,og-post,,,,AAXX 27204 07335 36/// /1102 10122 20111 30090 40235 58003=
07335,1999-10-27 21:00:00,9.8,1023.7,-0.2,94,8.9,,,,,,,,,,,,,,,,og-post,,,,AAXX 27214 07335 36/// /0000 10098 20089 30091 40237 55002=
07335,1999-10-27 22:00:00,8.9,1023.6,-0.3,97,8.4,,,,,,,,,,,,,,,,og-post,,,,AAXX 27224 07335 36/// /0000 10089 20084 30089 40236 57003=
07335,1999-10-27 23:00:00,10.2,1023.3,-0.3,98,9.9,,7.408,,,150,,,,,,,,,,,og-post,,,,AAXX 27234 07335 36/// /1504 10102 20099 30087 40233 58003=
07335,1999-10-28 00:00:00,10,1023.4,-0.3,98,9.7,,7.408,,,160,,,,,,,,,,,og-post,,,,AAXX 28004 07335 36/// /1604 10100 20097 30088 40234 55003=
07335,1999-10-28 01:00:00,10.9,1023.4,-0.1,98,10.6,,7.408,,,190,,,,,,,,,,,og-post,,,,AAXX 28014 07335 36/// /1904 10109 20106 30088 40234 56001=
07335,1999-10-28 02:00:00,12.1,1023.4,0.2,95,11.3,,11.112,,,210,,,,,,,,,,,og-post,,,,AAXX 28024 07335 36/// /2106 10121 20113 30089 40234 52002=
07335,1999-10-28 03:00:00,12.3,1023.3,0,92,11,,11.112,,,200,,,,,,,,,,,og-post,,,,AAXX 28034 07335 36/// /2006 10123 20110 30088 40233 50000=
07335,1999-10-28 04:00:00,11.6,1023.7,0.4,93,10.5,20000,7.408,,,190,,,,,,,,,,,og-post,,,,AAXX 28044 07335 32970 81904 10116 20105 30092 40237 53004 80007 333 88270=
07335,1999-10-28 05:00:00,12.1,1023.7,0.3,94,11.2,20000,7.408,,,190,,,,,,,,,,,og-post,,,,AAXX 28054 07335 32970 81904 10121 20112 30092 40237 53003 85032 333 85360 87075=
07335,1999-10-28 06:00:00,13,1024.1,0.8,91,11.6,20000,11.112,,,190,8.8,13.7,,,,,0,9.3,6,,og-post,,,,AAXX 28064 07335 32970 81906 10130 20116 30096 40241 52008 85032 333 10137 20088 31006 55093 70000 85360 87073=
07335,1999-10-28 07:00:00,13.2,1025.2,1.5,91,11.8,20000,11.112,,,210,,,,,,,,,,,og-post,,,,AAXX 28074 07335 32970 82106 10132 20118 30107 40252 53015 8807/ 333 88460=
07335,1999-10-28 08:00:00,13.5,1024.6,1,92,12.2,15000,7.408,,,230,,,0.2,,,,,,,21,og-post,,,,AAXX 28084 07335 21265 72304 10135 20122 30102 40246 50010 72122 8177/ 333 69925 81703 87460=
07335,1999-10-28 09:00:00,15.3,1025.4,1.4,87,13.1,15000,7.408,,,220,,,,0.2,,,,,,1,og-post,,,,AAXX 28094 07335 21965 72204 10153 20131 30110 40254 51014 70162 8707/ 333 69927 87460=
07335,1999-10-28 10:00:00,16.9,1025.4,0.4,82,13.8,20000,11.112,,,240,,,,,,,,,,,og-post,,,,AAXX 28104 07335 32970 72406 10169 20138 30111 40254 53004 8707/ 333 87360=
07335,1999-10-28 11:00:00,18.4,1024.9,0.5,79,14.7,20000,3.704,,,270,,,,,,,,,,,og-post,,,,AAXX 28114 07335 32970 72702 10184 20147 30107 40249 50005 8707/ 333 87360=
07335,1999-10-28 12:00:00,20.5,1024.5,-0.6,70,14.8,25000,11.112,,,210,,,,,0.2,,,,,1,og-post,,,,AAXX 28124 07335 11875 52106 10205 20148 30104 40245 58006 69921 70162 81530 333 81656 85360=
07335,1999-10-28 13:00:00,21.6,1024,-1.1,66,15,25000,11.112,,,200,,,,,,,,,,,og-post,,,,AAXX 28134 07335 32975 72006 10216 20150 30100 40240 57011 8703/ 333 87360=
07335,1999-10-28 14:00:00,21.5,1023.7,-1,66,14.9,25000,3.704,,,240,,,,,,,,,,,og-post,,,,AAXX 28144 07335 32975 72402 10215 20149 30097 40237 57010 8703/ 333 87360=
07335,1999-10-28 15:00:00,20.7,1023.3,-1.2,70,15,25000,7.408,,,170,,,,,,,,,,,og-post,,,,AAXX 28154 07335 32975 71704 10207 20150 30092 40233 58012 8703/ 333 87360=
07335,1999-10-28 16:00:00,20.3,1023.2,-0.9,70,14.6,20000,3.704,,,100,,,,,,,,,,,og-post,,,,AAXX 28164 07335 32970 81002 10203 20146 30091 40232 56009 8807/ 333 88460=
07335,1999-10-28 17:00:00,17.3,1023.7,-0.2,85,14.8,20000,,,,,,,,,,,,,,,og-post,,,,AAXX 28174 07335 32970 80000 10173 20148 30095 40237 55002 8807/ 333 88460=
07335,1999-10-28 18:00:00,16.2,1024.2,0.7,88,14.2,,,,,,13,21.9,,,,0.2,,,,,og-post,,,,AAXX 28184 07335 16/// /0000 10162 20142 30099 40242 53007 69922 333 10219 20130=
07335,1999-10-28 19:00:00,15.9,1024.6,1.2,93,14.8,,,,,,,,,,,,,,,,og-post,,,,AAXX 28194 07335 36/// /0000 10159 20148 30103 40246 52012=
07335,1999-10-28 20:00:00,15.6,1024.8,1,95,14.8,,7.408,,,360,,,,,,,,,,,og-post,,,,AAXX 28204 07335 36/// /3604 10156 20148 30105 40248 51010=
07335,1999-10-28 21:00:00,15,1025.3,1,95,14.2,,7.408,,,30,,,,,,,,,,,og-post,,,,AAXX 28214 07335 36/// /0304 10150 20142 30109 40253 52010=
07335,1999-10-28 22:00:00,14.6,1025.4,0.7,96,14,,3.704,,,50,,,,,,,,,,,og-post,,,,AAXX 28224 07335 36/// /0502 10146 20140 30110 40254 51007=
07335,1999-10-28 23:00:00,13.8,1025.2,0.3,96,13.2,,,,,,,,,,,,,,,,og-post,,,,AAXX 28234 07335 36/// /0000 10138 20132 30108 40252 50003=
07335,1999-10-29 00:00:00,13.2,1025,-0.4,97,12.7,,,,,,,,,,,,,,,,og-post,,,,AAXX 29004 07335 36/// /0000 10132 20127 30105 40250 58004=
07335,1999-10-29 01:00:00,13.3,1024.5,-0.9,97,12.8,,7.408,,,140,,,,,,,,,,,og-post,,,,AAXX 29014 07335 36/// /1404 10133 20128 30101 40245 58009=
07335,1999-10-29 02:00:00,12.1,1024.4,-0.9,97,11.6,,,,,,,,,,,,,,,,og-post,,,,AAXX 29024 07335 36/// /0000 10121 20116 30099 40244 56009=
07335,1999-10-29 03:00:00,12.1,1024,-1,97,11.6,,7.408,,,20,,,,,,,,,,,og-post,,,,AAXX 29034 07335 36/// /0204 10121 20116 30095 40240 57010=
07335,1999-10-29 04:00:00,12.6,1023.8,-0.8,98,12.3,4000,3.704,,,60,,,,,,,,,,,og-post,,,,AAXX 29044 07335 33940 60602 10126 20123 30093 40238 57008 86030 333 86361=
07335,1999-10-29 05:00:00,10.7,1023.6,-0.9,97,10.2,6000,,,,,,,,,,,,,,40,og-post,,,,AAXX 29054 07335 31956 10000 10107 20102 30090 40236 56009 74011 80001 333 81074=
07335,1999-10-29 06:00:00,11.8,1022.9,-1.1,99,11.6,4000,3.704,,,60,10.6,16.2,,,,,0.2,2.1,8,40,og-post,,,,AAXX 29064 07335 31940 60602 10118 20116 30084 40229 58011 74011 86030 333 10162 20106 30008 55021 70002 86360=
07335,1999-10-29 07:00:00,11.3,1023.1,-0.7,98,11,4000,3.704,,,100,,,,,,,,,,40,og-post,,,,AAXX 29074 07335 31940 61002 10113 20110 30086 40231 55007 74022 84032 333 84360 85074=
07335,1999-10-29 08:00:00,13.1,1023.2,-0.2,99,12.9,4000,3.704,,,30,,,,,,,,,,10,og-post,,,,AAXX 29084 07335 31940 70302 10131 20129 30088 40232 55002 71022 82032 333 82363 87074=
07335,1999-10-29 09:00:00,14.9,1022.9,0.2,98,14.6,8000,7.408,,,90,,,,,,,,,,,og-post,,,,AAXX 29094 07335 32958 50904 10149 20146 30086 40229 50002 81032 333 81363 85074=
07335,1999-10-29 10:00:00,17.9,1022.4,-0.4,82,14.8,14000,7.408,,,110,,,,,,,,,,,og-post,,,,AAXX 29104 07335 32964 51104 10179 20148 30082 40224 58004 82032 333 82363 84074=
07335,1999-10-29 11:00:00,19.2,1022,-0.9,75,14.7,19000,11.112,,,80,,,,,,,,,,,og-post,,,,AAXX 29114 07335 32969 50806 10192 20147 30079 40220 58009 81032 333 81363 85074=
07335,1999-10-29 12:00:00,20,1020.8,-1.9,71,14.6,23000,7.408,,,70,,,,,,,,,,,og-post,,,,AAXX 29124 07335 32973 70704 10200 20146 30067 40208 58019 81032 333 81363 87074=
07335,1999-10-29 13:00:00,20.9,1019.6,-2.6,68,14.8,23000,7.408,,,60,,,,,,,,,,,og-post,,,,AAXX 29134 07335 32973 70604 10209 20148 30056 40196 58026 81032 333 81363 87074=
07335,1999-10-29 14:00:00,21.1,1018.2,-3.7,71,15.6,23000,11.112,,,60,,,,,,,,,,,og-post,,,,AAXX 29144 07335 32973 70606 10211 20156 30042 40182 58037 83032 333 83363 87074=
07335,1999-10-29 15:00:00,20.7,1017,-3.7,73,15.7,24000,7.408,,,90,,,,,,,,,,,og-post,,,,AAXX 29154 07335 32974 70904 10207 20157 30030 40170 58037 84032 333 84360 87074=
07335,1999-10-29 16:00:00,19.8,1017,-2.6,77,15.7,24000,7.408,,,120,,,,,,,,,,,og-post,,,,AAXX 29164 07335 32774 71204 10198 20157 30030 40170 56026 82532 333 82656 83360 87074=
07335,1999-10-29 17:00:00,18.8,1016.8,-1.5,83,15.9,24000,7.408,,,120,,,,,,,,,,,og-post,,,,AAXX 29174 07335 32774 71204 10188 20159 30027 40168 56015 81532 333 81656 85360 87074=
07335,1999-10-29 18:00:00,18,1016.3,-0.8,87,15.8,,7.408,,,100,11.3,21.3,,,,,,,,,og-post,,,,AAXX 29184 07335 36/// /1004 10180 20158 30022 40163 58008 333 10213 20113=
07335,1999-10-29 19:00:00,17.3,1015.9,-1.2,90,15.6,,7.408,,,150,,,,,,,,,,,og-post,,,,AAXX 29194 07335 36/// /1504 10173 20156 30018 40159 58012=
07335,1999-10-29 20:00:00,16.1,1015.6,-1.3,94,15.1,,7.408,,,160,,,,,,,,,,,og-post,,,,AAXX 29204 07335 36/// /1604 10161 20151 30014 40156 56013=
07335,1999-10-29 21:00:00,16.3,1015.5,-0.9,91,14.8,,11.112,,,180,,,,,,,,,,,og-post,,,,AAXX 29214 07335 36/// /1806 10163 20148 30013 40155 56009=
07335,1999-10-29 22:00:00,16.6,1015.2,-0.8,80,13.1,,11.112,,,190,,,,,,,,,,,og-post,,,,AAXX 29224 07335 36/// /1906 10166 20131 30010 40152 56008=
07335,1999-10-29 23:00:00,15.1,1014.7,-0.9,86,12.8,,7.408,,,190,,,,,,,,,,,og-post,,,,AAXX 29234 07335 36/// /1904 10151 20128 30005 40147 58009=
07335,1999-10-30 00:00:00,15.5,1015,-0.5,83,12.6,,7.408,,,210,,,,,,,,,,,og-post,,,,AAXX 30004 07335 36/// /2104 10155 20126 30008 40150 55005=
07335,1999-10-30 01:00:00,15.3,1014.4,-0.8,83,12.4,,11.112,,,210,,,,,,,,,,,og-post,,,,AAXX 30014 07335 36/// /2106 10153 20124 30002 40144 58008=
07335,1999-10-30 02:00:00,14.3,1014.2,-0.6,84,11.6,,3.704,,,210,,,,,,,,,,,og-post,,,,AAXX 30024 07335 36/// /2102 10143 20116 39999 40142 58006=
07335,1999-10-30 03:00:00,15.4,1013.5,-1.5,81,12.2,,18.52,,,190,,,,,,,,,,,og-post,,,,AAXX 30034 07335 36/// /1910 10154 20122 39993 40135 57015=
07335,1999-10-30 04:00:00,14.4,1013.5,-0.9,84,11.7,12000,7.408,,,210,,,,,,,,,,,og-post,,,,AAXX 30044 07335 32962 02104 10144 20117 39993 40135 56009=
07335,1999-10-30 05:00:00,12.7,1013.2,-1,89,10.9,12000,3.704,,,230,,,,,,,,,,,og-post,,,,AAXX 30054 07335 32962 02302 10127 20109 39989 40132 56010=
07335,1999-10-30 06:00:00,13.6,1013,-0.6,91,12.2,12000,11.112,,,190,12.5,18,,,,,,3.3,8,,og-post,,,,AAXX 30064 07335 32962 01906 10136 20122 39987 40130 58006 333 10180 20125 3/008 55033 70000=
07335,1999-10-30 07:00:00,14.1,1013.2,-0.4,88,12.1,15000,14.816,,,200,,,,,,,,,,,og-post,,,,AAXX 30074 07335 32965 12008 10141 20121 39989 40132 55004 81030 333 81361=
07335,1999-10-30 08:00:00,15.4,1013.5,0.4,86,13.1,15000,18.52,,,200,,,,,,,,,,,og-post,,,,AAXX 30084 07335 32965 12010 10154 20131 39993 40135 53004 81030 333 81361=
07335,1999-10-30 09:00:00,17.2,1013.4,0.6,80,13.7,18000,18.52,,,200,,,,,,,,,,,og-post,,,,AAXX 30094 07335 32968 22010 10172 20137 39993 40134 51006 81032 333 81361=
07335,1999-10-30 10:00:00,19,1013.2,0.3,71,13.6,18000,22.224,,,200,,,,,,,,,,,og-post,,,,AAXX 30104 07335 32968 32012 10190 20136 39992 40132 50003 81032 333 81361 83075=
07335,1999-10-30 11:00:00,19.6,1013,-0.3,68,13.5,18000,29.632,,,210,,,,,,,,,,,og-post,,,,AAXX 30114 07335 32968 72116 10196 20135 39990 40130 58003 81032 333 81361 87075=
07335,1999-10-30 12:00:00,20.5,1012.3,-0.9,65,13.7,18000,29.632,,,220,,,,,,,,,,,og-post,,,,AAXX 30124 07335 32568 72216 10205 20137 39984 40123 58009 81132 333 81830 87075=
07335,1999-10-30 13:00:00,20.2,1012,-1.1,67,13.9,16000,22.224,,,230,,,,,,,,,,,og-post,,,,AAXX 30134 07335 32566 72312 10202 20139 39981 40120 58011 81134 333 81830 87073=
07335,1999-10-30 14:00:00,19.3,1012.2,-0.8,70,13.7,15000,18.52,,,230,,,,,,,,,,,og-post,,,,AAXX 30144 07335 32565 72310 10193 20137 39982 40122 55008 81176 333 81830 83460 87273=
07335,1999-10-30 15:00:00,19.1,1012.1,-0.3,70,13.5,15000,18.52,,,230,,,,,,,,,,,og-post,,,,AAXX 30154 07335 32565 72310 10191 20135 39981 40121 56003 81178 333 81830 84360 87273=
07335,1999-10-30 16:00:00,18.2,1013,0.9,75,13.7,,18.52,,,240,,,,,,,,,,,og-post,,,,AAXX 30164 07335 36/// /2410 10182 20137 39990 40130 53009=
07335,1999-10-30 17:00:00,17.7,1013.6,1.3,80,14.2,,14.816,,,230,,,,,,,,,,,og-post,,,,AAXX 30174 07335 36/// /2308 10177 20142 39995 40136 53013=
07335,1999-10-30 18:00:00,15.7,1014.8,2.5,88,13.7,,25.928,,,260,13.7,20.6,,,,,,,,,og-post,,,,AAXX 30184 07335 36/// /2614 10157 20137 30006 40148 53025 333 10206 20137=
07335,1999-10-30 19:00:00,13.8,1016.6,3.3,85,11.3,,35.188,,,280,,,0.6,,,,,,,,og-post,,,,AAXX 30194 07335 26/// /2819 10138 20113 30023 40166 53033 333 69965=
07335,1999-10-30 20:00:00,12.3,1017.5,3.6,88,10.4,,14.816,,,250,,,,,,,,,,,og-post,,,,AAXX 30204 07335 36/// /2508 10123 20104 30031 40175 51036=
07335,1999-10-30 21:00:00,11.3,1018.7,3.6,94,10.4,,14.816,,,230,,,,0.6,,,,,,,og-post,,,,AAXX 30214 07335 26/// /2308 10113 20104 30042 40187 51036 333 69967=
07335,1999-10-30 22:00:00,11,1019.9,3.1,94,10.1,,14.816,,,240,,,,,,,,,,,og-post,,,,AAXX 30224 07335 36/// /2408 10110 20101 30054 40199 53031=
07335,1999-10-30 23:00:00,10.1,1020.6,2.9,95,9.3,,14.816,,,240,,,,,,,,,,,og-post,,,,AAXX 30234 07335 36/// /2408 10101 20093 30060 40206 51029=
07335,1999-10-31 00:00:00,9.6,1021.6,2.8,97,9.1,,11.112,,,230,,,,,0.6,,,,,,og-post,,,,AAXX 31004 07335 16/// /2306 10096 20091 30070 40216 51028 69961=
07335,1999-10-31 01:00:00,8.9,1022.2,2.1,97,8.4,,11.112,,,230,,,0.2,,,,,,,,og-post,,,,AAXX 31014 07335 26/// /2306 10089 20084 30075 40222 51021 333 69925=
07335,1999-10-31 02:00:00,9.2,1022.6,2,97,8.7,,14.816,,,220,,,,,,,,,,,og-post,,,,AAXX 31024 07335 36/// /2208 10092 20087 30080 40226 51020=
07335,1999-10-31 03:00:00,8.8,1023,1.3,96,8.2,,11.112,,,210,,,,0.2,,,,,,,og-post,,,,AAXX 31034 07335 26/// /2106 10088 20082 30083 40230 51013 333 69927=
07335,1999-10-31 04:00:00,8.2,1023.8,1.6,97,7.8,,11.112,,,200,,,,,,,,,,,og-post,,,,AAXX 31044 07335 36/// /2006 10082 20078 30091 40238 53016=
07335,1999-10-31 05:00:00,7.8,1024.6,1.8,97,7.4,10000,7.408,,,220,,,,,,,,,,,og-post,,,,AAXX 31054 07335 32960 02204 10078 20074 30098 40246 53018=
07335,1999-10-31 06:00:00,7.8,1025.2,2.1,98,7.5,12000,7.408,,,200,7.2,15.7,,,,0.8,0.8,5.4,4,,og-post,,,,AAXX 31064 07335 12762 12004 10078 20075 30104 40252 51021 69982 81500 333 10157 20072 3/004 55054 70008 81650=
07335,1999-10-31 07:00:00,7.6,1025.9,2,98,7.3,15000,11.112,,,190,,,,,,,,,,,og-post,,,,AAXX 31074 07335 32565 31906 10076 20073 30111 40259 52020 82830 333 81828=
07335,1999-10-31 08:00:00,9.7,1026.6,2.1,98,9.4,15000,11.112,,,200,,,,,,,,,,,og-post,,,,AAXX 31084 07335 32965 12006 10097 20094 30119 40266 53021 80001 333 81075=
07335,1999-10-31 09:00:00,12.2,1026.6,1.7,88,10.3,20000,11.112,,,210,,,,,,,,,,,og-post,,,,AAXX 31094 07335 32970 22106 10122 20103 30121 40266 51017 82031 333 82359=
07335,1999-10-31 10:00:00,14.5,1026.3,0.8,80,11.1,,11.112,,,160,,,,,,,,,,,og-post,,,,AAXX 31104 07335 36/// /1606 10145 20111 30119 40263 50008=
07335,1999-10-31 11:00:00,16.2,1026,-0.2,72,11.2,20000,14.816,,,190,,,,,,,,,,,og-post,,,,AAXX 31114 07335 32470 31908 10162 20112 30117 40260 58002 82131 333 82810=
07335,1999-10-31 12:00:00,15.6,1025.6,-0.9,72,10.6,20000,11.112,,,240,,,,,,,,,,,og-post,,,,AAXX 31124 07335 32570 42406 10156 20106 30112 40256 58009 84200 333 84825=
07335,1999-10-31 13:00:00,16.4,1025.2,-1,68,10.5,20000,7.408,,,230,,,,,,,,,,,og-post,,,,AAXX 31134 07335 32670 52304 10164 20105 30109 40252 58010 85200 333 85833=
07335,1999-10-31 14:00:00,15.6,1024.8,-1.3,63,8.6,20000,11.112,,,200,,,,,,,,,,,og-post,,,,AAXX 31144 07335 32670 52006 10156 20086 30104 40248 57013 85400 333 82833 84636=
07335,1999-10-31 15:00:00,16.5,1024.2,-1.3,58,8.2,20000,14.816,,,140,,,,,,,,,,,og-post,,,,AAXX 31154 07335 32670 31408 10165 20082 30099 40242 58013 83400 333 83640=
07335,1999-10-31 16:00:00,15.6,1023.4,-1.8,59,7.6,25000,11.112,,,150,,,,,,,,,,,og-post,,,,AAXX 31164 07335 32775 11506 10156 20076 30091 40234 58018 81400 333 81650=
07335,1999-10-31 17:00:00,13.8,1023.2,-1.6,67,7.8,,7.408,,,130,,,,,,,,,,,og-post,,,,AAXX 31174 07335 36/// /1304 10138 20078 30088 40232 56016=
07335,1999-10-31 18:00:00,11.5,1023.1,-1.3,80,8.2,,7.408,,,150,6.9,17.2,,,,,,,,,og-post,,,,AAXX 31184 07335 36/// /1504 10115 20082 30086 40231 56013 333 10172 20069=
07335,1999-10-31 19:00:00,10.5,1023.3,-0.4,85,8.1,,7.408,,,160,,,,,,,,,,,og-post,,,,AAXX 31194 07335 36/// /1604 10105 20081 30087 40233 55004=
07335,1999-10-31 20:00:00,9.8,1022.8,-0.6,86,7.6,,7.408,,,160,,,,,,,,,,,og-post,,,,AAXX 31204 07335 36/// /1604 10098 20076 30082 40228 58006=
07335,1999-10-31 21:00:00,9.1,1022.8,-0.5,88,7.2,,3.704,,,170,,,,,,,,,,,og-post,,,,AAXX 31214 07335 36/// /1702 10091 20072 30081 40228 58005=
07335,1999-10-31 22:00:00,6.8,1022.4,-1.1,94,5.9,,3.704,,,140,,,,,,,,,,,og-post,,,,AAXX 31224 07335 36/// /1402 10068 20059 30076 40224 57011=
07335,1999-10-31 23:00:00,8.2,1021.7,-1.2,93,7.1,,7.408,,,160,,,,,,,,,,,og-post,,,,AAXX 31234 07335 36/// /1604 10082 20071 30070 40217 58012=
07335,1999-11-01 00:00:00,7.9,1020.9,-1.9,93,6.8,,7.408,,,170,,,,,,,,,,,og-post,,,,AAXX 01004 07335 36/// /1704 10079 20068 30062 40209 58019=
07335,1999-11-01 01:00:00,7.9,1020.3,-2,93,6.8,,7.408,,,170,,,,,,,,,,,og-post,,,,AAXX 01014 07335 36/// /1704 10079 20068 30056 40203 57020=
07335,1999-11-01 02:00:00,7.7,1019.7,-2,93,6.6,,7.408,,,180,,,,,,,,,,,og-post,,,,AAXX 01024 07335 36/// /1804 10077 20066 30050 40197 56020=
07335,1999-11-01 03:00:00,7.9,1019.1,-1.8,93,6.8,,7.408,,,170,,,,,,,,,,,og-post,,,,AAXX 01034 07335 36/// /1704 10079 20068 30044 40191 57018=
07335,1999-11-01 04:00:00,8.9,1018.5,-1.7,92,7.7,,11.112,,,190,,,,,,,,,,,og-post,,,,AAXX 01044 07335 36/// /1906 10089 20077 30039 40185 56017=
07335,1999-11-01 05:00:00,9.5,1018.3,-1.3,92,8.3,25000,11.112,,,170,,,,,,,,,,,og-post,,,,AAXX 01054 07335 32975 41706 10095 20083 30037 40183 56013 84030 333 83360=
07335,1999-11-01 06:00:00,10.6,1017.7,-1.2,91,9.2,25000,11.112,,,180,6.6,11.5,,,,,0,6.1,3,,og-post,,,,AAXX 01064 07335 32975 61806 10106 20092 30032 40177 57012 84032 333 10115 20066 30003 55061 70000 84360 84075=
07335,1999-11-01 07:00:00,12.5,1017.6,-0.7,86,10.2,25000,14.816,,,190,,,,,,,,,,,og-post,,,,AAXX 01074 07335 32975 61908 10125 20102 30032 40176 56007 85032 333 85360 85075=
07335,1999-11-01 08:00:00,14.9,1017.8,-0.2,75,10.5,25000,25.928,,,200,,,,,,,,,,,og-post,,,,AAXX 01084 07335 32975 62014 10149 20105 30035 40178 55002 84032 333 84360 85075=
07335,1999-11-01 09:00:00,15.6,1017.8,0.4,74,11,25000,25.928,,,200,,,,,,,,,,,og-post,,,,AAXX 01094 07335 32975 62014 10156 20110 0036 40178 53004 84032 333 84360 85075=
07335,1999-11-01 10:00:00,17.5,1017.7,0.3,69,11.8,25000,29.632,,,200,,,,,,,,,,,og-post,,,,AAXX 01104 07335 32975 62016 10175 20118 30035 40177 50003 85032 333 85360 84075=
07335,1999-11-01 11:00:00,18.9,1018.1,0.5,67,12.6,25000,29.632,50.004,,210,,,,,,,,,,,og-post,,,,AAXX 01114 07335 32775 72116 10189 20126 30040 40181 53005 82532 333 82650 85360 91127=
07335,1999-11-01 12:00:00,18.2,1017.7,0,70,12.6,25000,22.224,,,210,,,,,,,,,,,og-post,,,,AAXX 01124 07335 32675 72112 10182 20126 30036 40177 50000 82532 333 82640 85360 86075=
07335,1999-11-01 13:00:00,18.8,1017.3,-0.3,72,13.6,25000,22.224,,,210,,,,,,,,,,,og-post,,,,AAXX 01134 07335 32675 72112 10188 20136 30032 40173 58003 83532 333 83646 85360 85075=
07335,1999-11-01 14:00:00,18.4,1017.4,-0.7,72,13.3,25000,18.52,,,220,,,,,,,,,,,og-post,,,,AAXX 01144 07335 32775 72210 10184 20133 30033 40174 55007 83532 333 83650 85360 85075=
07335,1999-11-01 15:00:00,18.5,1017.8,0.1,74,13.8,25000,14.816,,,220,,,,,,,,,,,og-post,,,,AAXX 01154 07335 32575 72208 10185 20138 30037 40178 53001 875// 333 87623=
07335,1999-11-01 16:00:00,18.4,1017,-0.3,75,13.9,,14.816,,,190,,,,,,,,,,,og-post,,,,AAXX 01164 07335 36/// /1908 10184 20139 30029 40170 58003=
07335,1999-11-01 17:00:00,17.9,1017.1,-0.3,77,13.8,,14.816,,,190,,,,,,,,,,,og-post,,,,AAXX 01174 07335 36/// /1908 10179 20138 30030 40171 58003=
07335,1999-11-01 18:00:00,17.8,1017.7,-0.1,76,13.5,,14.816,,,200,10.8,19.2,,,,,,,,,og-post,,,,AAXX 01184 07335 36/// /2008 10178 20135 30036 40177 55001 333 10192 20108=
07335,1999-11-01 19:00:00,17.9,1017.8,0.8,75,13.4,,18.52,,,210,,,,,,,,,,,og-post,,,,AAXX 01194 07335 36/// /2110 10179 20134 30037 40178 52008=
07335,1999-11-01 20:00:00,16.6,1018.5,1.3,87,14.4,,22.224,,,210,,,0.2,,,,,,,,og-post,,,,AAXX 01204 07335 26/// /2112 10166 20144 30043 40185 52013 333 69925=
07335,1999-11-01 21:00:00,16,1018.7,0.9,95,15.2,,18.52,,,210,,,,2,,,,,,,og-post,,,,AAXX 01214 07335 26/// /2110 10160 20152 30045 40187 53009 333 60027=
07335,1999-11-01 22:00:00,16,1018,0.1,96,15.4,,22.224,,,200,,,2,,,,,,,,og-post,,,,AAXX 01224 07335 26/// /2012 10160 20154 30038 40180 50001 333 60025=
07335,1999-11-01 23:00:00,16,1018,-0.5,96,15.4,,14.816,,,210,,,2,,,,,,,,og-post,,,,AAXX 01234 07335 26/// /2108 10160 20154 30038 40180 58005 333 60025=
07335,1999-11-02 00:00:00,16.1,1017,-1.7,97,15.6,,14.816,,,190,,,,4,6,,,,,,og-post,,,,AAXX 02004 07335 /6/// /1908 10161 20156 30028 40170 58017 60061 333 60047=
07335,1999-11-02 01:00:00,16.1,1016.6,-1.4,97,15.6,,14.816,,,210,,,1,,,,,,,,og-post,,,,AAXX 02014 07335 26/// /2108 10161 20156 30024 40166 58014 333 60015=
07335,1999-11-02 02:00:00,15.6,1015.4,-2.6,96,15,,11.112,,,200,,,2,,,,,,,,og-post,,,,AAXX 02024 07335 26/// /2006 10156 20150 30012 40154 58026 333 60025=
07335,1999-11-02 03:00:00,15.5,1015.6,-1.4,97,15,,14.816,,,240,,,,4,,,,,,,og-post,,,,AAXX 02034 07335 26/// /2408 10155 20150 30014 40156 55014 333 60047=
07335,1999-11-02 04:00:00,15.3,1016,-0.6,96,14.7,,18.52,,,240,,,6,,,,,,,,og-post,,,,AAXX 02044 07335 26/// /2410 10153 20147 30018 40160 55006 333 60065=
07335,1999-11-02 05:00:00,15.1,1016.4,1,97,14.6,3000,11.112,,,290,,,8,,,,,,,63,og-post,,,,AAXX 02054 07335 21130 82906 10151 20146 30022 40164 53010 76362 885// 333 60085 83703 83706 86615=
07335,1999-11-02 06:00:00,13.7,1017.3,1.6,97,13.2,3000,22.224,,,350,13.7,18,,23,,33,33.2,2.6,14,63,og-post,,,,AAXX 02064 07335 /1230 83512 10137 20132 30030 40173 53016 60332 76362 885// 333 10180 20137 32014 55026 60237 70332 83703 83710 86623=
07335,1999-11-02 07:00:00,13.3,1018,1.8,97,12.8,5000,7.408,,,10,,,3,,,,,,,61,og-post,,,,AAXX 02074 07335 21250 80104 10133 20128 30036 40180 53018 76166 875// 333 60035 81703 87620=
07335,1999-11-02 08:00:00,12.4,1019.7,3.1,97,11.9,8000,14.816,,,340,,,1,,,,,,,61,og-post,,,,AAXX 02084 07335 21258 83408 10124 20119 30053 40197 53031 76166 875// 333 60015 83703 85610 88620=
07335,1999-11-02 09:00:00,11.4,1021.5,4,97,10.9,8000,18.52,,,330,,,,7,,,,,,61,og-post,,,,AAXX 02094 07335 21258 83310 10114 20109 30070 40215 53040 76166 875// 333 60077 85706 85611 88620=
07335,1999-11-02 10:00:00,11.4,1022.7,4.6,97,10.9,,11.112,,,340,,,3,,,,,,,,og-post,,,,AAXX 02104 07335 26/// /3406 10114 20109 30082 40227 51046 333 60035=
07335,1999-11-02 11:00:00,12,1022.9,3.1,97,11.5,10000,11.112,,,350,,,0.4,,,,,,,21,og-post,,,,AAXX 02114 07335 21260 83506 10120 20115 30084 40229 51031 72162 875// 333 69945 86704 87620=
07335,1999-11-02 12:00:00,12.4,1023.4,1.9,95,11.6,12000,14.816,,,350,,,,3,10,,,,,60,og-post,,,,AAXX 02124 07335 /1262 83508 10124 20116 30089 40234 51019 60101 76062 875// 333 60037 86706 84620 87636=
07335,1999-11-02 13:00:00,13.1,1023.9,1.2,92,11.8,,18.52,,,340,,,,,,,,,,,og-post,,,,AAXX 02134 07335 26/// /3410 10131 20118 30094 40239 53012 333 69905=
07335,1999-11-02 14:00:00,13.6,1024.4,1.6,88,11.7,20000,14.816,,,350,,,,,,,,,,21,og-post,,,,AAXX 02144 07335 21470 73508 10136 20117 30100 40244 53016 72162 878// 333 69905 85813 87643=
07335,1999-11-02 15:00:00,13.3,1025.3,1.9,86,11,25000,22.224,,,350,,,,,,,,,,1,og-post,,,,AAXX 02154 07335 21475 73512 10133 20110 30108 40253 53019 70162 878// 333 69907 83815 86650=
07335,1999-11-02 16:00:00,12.1,1026.3,2.4,88,10.2,25000,11.112,,,340,,,,,,,,,,,og-post,,,,AAXX 02164 07335 32475 73406 10121 20102 30118 40263 53024 85832 333 81815 84650=
07335,1999-11-02 17:00:00,11.6,1027.6,3,88,9.7,25000,11.112,,,320,,,,,,,,,,,og-post,,,,AAXX 02174 07335 33475 63206 10116 20097 30130 40276 53030 85832 333 81815 85650=
07335,1999-11-02 18:00:00,9.4,1028.6,3.1,91,8,20000,11.112,,,300,9.4,13.7,,,,10,,,,1,og-post,,,,AAXX 02184 07335 11770 63006 10094 20080 30139 40286 51031 60102 70162 85832 333 10137 20094 85650=
07335,1999-11-02 19:00:00,8.5,1029.4,2.8,92,7.3,,11.112,,,320,,,,,,,,,,,og-post,,,,AAXX 02194 07335 36/// /3206 10085 20073 30146 40294 51028=
07335,1999-11-02 20:00:00,7.5,1030.2,2.3,93,6.4,,14.816,,,320,,,,,,,,,,,og-post,,,,AAXX 02204 07335 36/// /3208 10075 20064 30153 40302 51023=
07335,1999-11-02 21:00:00,7,1031.4,2.6,92,5.8,,11.112,,,310,,,,,,,,,,,og-post,,,,AAXX 02214 07335 36/// /3106 10070 20058 30165 40314 53026=
07335,1999-11-02 22:00:00,5.6,1032.2,2.6,94,4.7,,11.112,,,310,,,,,,,,,,,og-post,,,,AAXX 02224 07335 36/// /3106 10056 20047 30172 40322 52026=
07335,1999-11-02 23:00:00,4.8,1032.2,1.9,95,4.1,,7.408,,,310,,,,,,,,,,,og-post,,,,AAXX 02234 07335 36/// /3104 10048 20041 30172 40322 51019=
07335,1999-11-03 00:00:00,4.2,1032.5,0.9,96,3.6,,7.408,,,310,,,,0.2,0.2,,,,,,og-post,,,,AAXX 03004 07335 /6/// /3104 10042 20036 30174 40325 51009 69921 333 69927=
07335,1999-11-03 01:00:00,4.7,1032.5,0.3,97,4.3,,3.704,,,320,,,,,,,,,,,og-post,,,,AAXX 03014 07335 36/// /3202 10047 20043 30175 40325 53003=
07335,1999-11-03 02:00:00,3,1032.7,0.4,97,2.6,,3.704,,,320,,,,,,,,,,,og-post,,,,AAXX 03024 07335 36/// /3202 10030 20026 30176 40327 51004=
07335,1999-11-03 03:00:00,3.5,1032.6,0.1,98,3.2,,3.704,,,320,,,,,,,,,,,og-post,,,,AAXX 03034 07335 36/// /3202 10035 20032 30175 40326 50001=
07335,1999-11-03 04:00:00,3,1032.7,0.1,98,2.7,,3.704,,,300,,,,,,,,,,,og-post,,,,AAXX 03044 07335 36/// /3002 10030 20027 30176 40327 52001=
07335,1999-11-03 05:00:00,1.9,1033.2,0.4,98,1.6,10000,,,,,,,,,,,,,,11,og-post,,,,AAXX 03054 07335 31960 00000 10019 20016 30180 40332 53004 71100=
07335,1999-11-03 06:00:00,2.2,1033.4,0.7,99,2.1,15000,,,,,1.7,9.4,,,,0.2,,0.2,-1,11,og-post,,,,AAXX 03064 07335 11965 00000 10022 20021 30182 40334 53007 69922 71100 333 10094 20017 31101 55002 70100=
07335,1999-11-03 07:00:00,1.6,1033.8,1,99,1.5,8000,3.704,,,340,,,,,,,,,,11,og-post,,,,AAXX 03074 07335 31958 03402 10016 20015 30186 40338 52010 71100=
07335,1999-11-03 08:00:00,4.6,1034.2,1.1,99,4.5,8000,,,,,,,,,,,,,,,og-post,,,,AAXX 03084 07335 32958 00000 10046 20045 30191 40342 53011=
07335,1999-11-03 09:00:00,7.6,1034.2,1.1,99,7.5,10000,3.704,,,360,,,,,,,,,,,og-post,,,,AAXX 03094 07335 32960 03602 10076 20075 30193 40342 51011=
07335,1999-11-03 10:00:00,9.8,1034,0.6,88,7.9,15000,7.408,,,30,,,,,,,,,,,og-post,,,,AAXX 03104 07335 32965 00304 10098 20079 30192 40340 50006=
07335,1999-11-03 11:00:00,11.4,1033.6,-0.2,79,7.9,20000,7.408,,,70,,,,,,,,,,,og-post,,,,AAXX 03114 07335 32470 10704 10114 20079 30189 40336 58002 81200 333 81813=
07335,1999-11-03 12:00:00,12.3,1032.6,-1.3,71,7.2,25000,7.408,,,60,,,,,,,,,,,og-post,,,,AAXX 03124 07335 32575 20604 10123 20072 30180 40326 58013 82200 333 82820=
07335,1999-11-03 13:00:00,12.9,1031.8,-2,60,5.3,25000,11.112,,,40,,,,,,,,,,,og-post,,,,AAXX 03134 07335 32575 20406 10129 20053 30172 40318 58020 82200 333 82828=
07335,1999-11-03 14:00:00,12.9,1031.1,-2.4,59,5.1,30000,14.816,,,30,,,,,,,,,,,og-post,,,,AAXX 03144 07335 32580 20308 10129 20051 30165 40311 56024 82200 333 82831=
07335,1999-11-03 15:00:00,12.8,1030.7,-1.9,63,5.9,30000,11.112,,,70,,,,,,,,,,,og-post,,,,AAXX 03154 07335 32580 20706 10128 20059 30161 40307 56019 82200 333 82831=
07335,1999-11-03 16:00:00,12.5,1030.4,-1.4,64,5.9,30000,11.112,,,80,,,,,,,,,,,og-post,,,,AAXX 03164 07335 32580 10806 10125 20059 30158 40304 56014 81200 333 81830=
07335,1999-11-03 17:00:00,10.5,1030.4,-0.8,71,5.5,30000,3.704,,,80,,,,,,,,,,,og-post,,,,AAXX 03174 07335 32580 10802 10105 20055 30157 40304 56008 81400 333 81630=
07335,1999-11-03 18:00:00,6.9,1030.4,-0.6,87,4.9,30000,3.704,,,360,1.2,13.2,,,,,,,,,og-post,,,,AAXX 03184 07335 32980 03602 10069 20049 30155 40304 56006 333 10132 20012=
07335,1999-11-03 19:00:00,5.3,1030.2,-0.6,92,4.1,,3.704,,,360,,,,,,,,,,,og-post,,,,AAXX 03194 07335 36/// /3602 10053 20041 30152 40302 58006=
07335,1999-11-03 20:00:00,3.6,1099,-0.9,94,2.7,,3.704,,,360,,,,,,,,,,,og-post,,,,AAXX 03204 07335 36/// /3602 10036 20027 30148 4099 58009=
07335,1999-11-03 21:00:00,3.3,1029.5,-1.1,96,2.7,,3.704,,,50,,,,,,,,,,,og-post,,,,AAXX 03214 07335 36/// /0502 10033 20027 30144 40295 58011=
07335,1999-11-03 22:00:00,3.6,1029.4,-0.9,97,3.2,,3.704,,,350,,,,,,,,,,,og-post,,,,AAXX 03224 07335 36/// /3502 10036 20032 30143 40294 56009=
07335,1999-11-03 23:00:00,2.2,1028.8,-1.1,96,1.6,,3.704,,,50,,,,,,,,,,,og-post,,,,AAXX 03234 07335 36/// /0502 10022 20016 30137 40288 58011=
07335,1999-11-04 00:00:00,2.2,1028.5,-1,97,1.8,,3.704,,,20,,,,,,,,,,,og-post,,,,AAXX 04004 07335 36/// /0202 10022 20018 30134 40285 58010=
07335,1999-11-04 01:00:00,2.9,1028,-1.4,98,2.6,,3.704,,,60,,,,,,,,,,,og-post,,,,AAXX 04014 07335 36/// /0602 10029 20026 30129 40280 56014=
07335,1999-11-04 02:00:00,4.8,1027.2,-1.5,98,4.5,,7.408,,,70,,,,,,,,,,,og-post,,,,AAXX 04024 07335 36/// /0704 10048 20045 30122 40272 58015=
07335,1999-11-04 03:00:00,3.8,1026.5,-1.9,98,3.5,,7.408,,,60,,,,,,,,,,,og-post,,,,AAXX 04034 07335 36/// /0604 10038 20035 30115 40265 58019=
07335,1999-11-04 04:00:00,3.4,1026,-1.9,97,3,,7.408,,,40,,,,,,,,,,,og-post,,,,AAXX 04044 07335 36/// /0404 10034 20030 30110 40260 56019=
07335,1999-11-04 05:00:00,1.1,1026.3,-1.1,96,0.5,3000,7.408,,,340,,,,,,,,,,11,og-post,,,,AAXX 04054 07335 31930 03404 10011 20005 30111 40263 55011 71100=
07335,1999-11-04 06:00:00,0.3,1025.8,-0.9,97,-0.1,15000,,,,,0.3,6.9,,,,,,8.7,-2,11,og-post,,,,AAXX 04064 07335 31965 00000 10003 21001 30106 40258 57009 71100 333 10069 20003 30102 55087 70000=
07335,1999-11-04 07:00:00,0.2,1025.5,-0.7,98,-0.1,15000,3.704,,,360,,,,,,,,,,11,og-post,,,,AAXX 04074 07335 31965 03602 10002 21001 30103 40255 58007 71100=
07335,1999-11-04 08:00:00,3.3,1025.2,-0.9,99,3.2,10000,7.408,,,50,,,,,,,,,,11,og-post,,,,AAXX 04084 07335 31960 10504 10033 20032 30102 40252 56009 71100 80001 333 81075=
07335,1999-11-04 09:00:00,5.1,1025.3,-0.2,97,4.7,7000,7.408,,,60,,,,,,,,,,11,og-post,,,,AAXX 04094 07335 31157 70604 10051 20047 30104 40253 55002 71111 871// 333 87803=
07335,1999-11-04 10:00:00,5.1,1024.8,-0.4,95,4.4,3500,7.408,,,100,,,,,,,,,,10,og-post,,,,AAXX 04104 07335 31135 71004 10051 20044 30099 40248 58004 71022 876// 333 87702=
07335,1999-11-04 11:00:00,4.9,1024.1,-1,93,3.9,4000,11.112,,,100,,,,,,,,,,10,og-post,,,,AAXX 04114 07335 31140 71006 10049 20039 30092 40241 58010 71022 876// 333 87702=
07335,1999-11-04 12:00:00,5.6,1023.5,-1.8,91,4.2,8000,7.408,,,110,,,,,,,,,,,og-post,,,,AAXX 04124 07335 32258 71104 10056 20042 30086 40235 58018 876// 333 87705=
07335,1999-11-04 13:00:00,6.5,1023,-1.7,86,4.3,10000,11.112,,,90,,,,,,,,,,,og-post,,,,AAXX 04134 07335 32360 60906 10065 20043 30082 40230 56017 86601 333 86707 83075=
07335,1999-11-04 14:00:00,6.7,1021.9,-2.1,85,4.4,12000,11.112,,,90,,,,,,,,,,,og-post,,,,AAXX 04144 07335 32362 60906 10067 20044 30071 40219 58021 86501 333 85608 83075=
07335,1999-11-04 15:00:00,6.7,1021.6,-1.8,83,4,12000,11.112,,,60,,,,,,,,,,,og-post,,,,AAXX 04154 07335 32362 60606 10067 20040 30068 40216 56018 86502 333 82608 85075=
07335,1999-11-04 16:00:00,6.7,1021.6,-1.4,84,4.2,12000,11.112,,,90,,,,,,,,,,,og-post,,,,AAXX 04164 07335 32962 60906 10067 20042 30068 40216 56014 80002 333 86075=
07335,1999-11-04 17:00:00,5.9,1021.1,-0.8,88,4.1,9000,3.704,,,90,,,,,,,,,,,og-post,,,,AAXX 04174 07335 32959 60902 10059 20041 30063 40211 58008 80002 333 86075=
07335,1999-11-04 18:00:00,3.1,1021.2,-0.6,90,1.6,9000,3.704,,,90,-0.4,7.3,,,,,,,,,og-post,,,,AAXX 04184 07335 32959 50902 10031 20016 30062 40212 58006 80002 333 10073 21004 85075=
07335,1999-11-04 19:00:00,3,1020.9,-0.9,94,2.1,,3.704,,,20,,,,,,,,,,,og-post,,,,AAXX 04194 07335 36/// /0202 10030 20021 30059 40209 56009=
07335,1999-11-04 21:00:00,0.8,1019.7,-1.6,96,0.2,,3.704,,,130,,,,,,,,,,,og-post,,,,AAXX 04214 07335 36/// /1302 10008 20002 30046 40197 58016=
07335,1999-11-04 22:00:00,0.2,1019.5,-1.5,97,-0.2,,,,,,,,,,,,,,,,og-post,,,,AAXX 04224 07335 36/// /0000 10002 21002 30044 40195 56015=
07335,1999-11-04 23:00:00,0.3,1018.9,-1.5,98,0,,,,,,,,,,,,,,,,og-post,,,,AAXX 04234 07335 36/// /0000 10003 20000 30038 40189 56015=
07335,1999-11-05 00:00:00,-0.1,1018.8,-0.9,98,-0.4,,7.408,,,180,,,,,,,,,,,og-post,,,,AAXX 05004 07335 36/// /1804 11001 21004 30037 40188 56009=
07335,1999-11-05 01:00:00,1.3,1017.9,-1.5,98,1,700,7.408,,,160,,,,,,,,,,,og-post,,,,AAXX 05014 07335 36/07 /1604 10013 20010 30029 40179 58015=
07335,1999-11-05 02:00:00,1.5,1017.8,-1,99,1.4,100,3.704,,,170,,,,,,,,,,,og-post,,,,AAXX 05024 07335 36/01 /1702 10015 20014 30028 40178 57010=
07335,1999-11-05 03:00:00,1.6,1017.1,-1.6,99,1.5,1200,7.408,,,160,,,,,,,,,,,og-post,,,,AAXX 05034 07335 36/12 /1604 10016 20015 30021 40171 56016=
07335,1999-11-05 04:00:00,2.3,1016.5,-1.3,99,2.2,,7.408,,,160,,,,,,,,,,,og-post,,,,AAXX 05044 07335 36/// /1604 10023 20022 30016 40165 58013=
07335,1999-11-05 05:00:00,3,1015.9,-1.8,99,2.9,6000,7.408,,,200,,,,,,,,,,,og-post,,,,AAXX 05054 07335 33856 72004 10030 20029 30010 40159 56018 875// 333 87658=
07335,1999-11-05 06:00:00,4.5,1015.2,-1.7,99,4.4,10000,11.112,,,200,-0.5,4.5,,,,,0,5.3,-2,,og-post,,,,AAXX 05064 07335 32960 72006 10045 20044 30004 40152 58017 8707/ 333 10045 21005 30102 55053 70000 87360=
07335,1999-11-05 07:00:00,5.1,1014.2,-2.2,97,4.7,7000,11.112,,,180,,,,,,,,,,,og-post,,,,AAXX 05074 07335 32757 71806 10051 20047 39994 40142 58022 875// 333 87656=
07335,1999-11-05 08:00:00,6.2,1013.8,-1.9,90,4.7,12000,18.52,,,200,,,,,,,,,,,og-post,,,,AAXX 05084 07335 32762 72010 10062 20047 39991 40138 56019 8357/ 333 83656 87359=
07335,1999-11-05 09:00:00,7.4,1013.1,-1.9,84,4.9,15000,22.224,,,200,,,,,,,,,,,og-post,,,,AAXX 05094 07335 32765 72012 10074 20049 39985 40131 56019 8157/ 333 81656 87359=
07335,1999-11-05 10:00:00,8.4,1013,-1,81,5.3,15000,25.928,,,210,,,,,,,,,,,og-post,,,,AAXX 05104 07335 32765 72114 10084 20053 39984 40130 56010 8157/ 333 81656 87359=
07335,1999-11-05 11:00:00,9.7,1013,-0.6,76,5.7,15000,18.52,,,220,,,,,,,,,,,og-post,,,,AAXX 05114 07335 32765 72210 10097 20057 39985 40130 55006 8157/ 333 81656 87359=
07335,1999-11-05 12:00:00,9.5,1011.9,-1.1,77,5.7,15000,18.52,,,200,,,,,,,,,,,og-post,,,,AAXX 05124 07335 32765 72010 10095 20057 39974 40119 58011 8157/ 333 81656 87359=
07335,1999-11-05 13:00:00,10.2,1011.3,-1.5,75,6,15000,14.816,,,200,,,,,,,,,,,og-post,,,,AAXX 05134 07335 32765 72008 10102 20060 39969 40113 58015 8157/ 333 81656 87359=
07335,1999-11-05 14:00:00,11.2,1010.5,-2.4,73,6.5,15000,18.52,,,200,,,,,,,,,,,og-post,,,,AAXX 05144 07335 32765 72010 10112 20065 39961 40105 56024 8357/ 333 83656 87359=
07335,1999-11-05 15:00:00,11.7,1009.8,-1.9,80,8.4,15000,22.224,,,210,,,,,,,,,,,og-post,,,,AAXX 05154 07335 32765 82112 10117 20084 39955 40098 58019 8357/ 333 83656 87359=
07335,1999-11-05 16:00:00,12,1008.6,-2.6,85,9.6,15000,25.928,,,200,,,,,,,,,,,og-post,,,,AAXX 05164 07335 32665 82014 10120 20096 39943 40086 58026 8587/ 333 81836 84656 88359=
07335,1999-11-05 17:00:00,12.3,1008.5,-1.9,86,10,15000,29.632,61.116,,210,,,,,,,,,,,og-post,,,,AAXX 05174 07335 32665 82116 10123 20100 39942 40085 56019 8457/ 333 84640 88359 91133=
07335,1999-11-05 18:00:00,13,1008.2,-1.5,85,10.5,15000,31.484,61.116,,210,4.6,13,,,,,,,,,og-post,,,,AAXX 05184 07335 32565 62117 10130 20105 39940 40082 56015 84570 333 10130 20046 84626 84359 91133=
07335,1999-11-05 19:00:00,11.5,1010.1,1.5,94,10.6,,18.52,57.412,,290,,,4,,,,,,,,og-post,,,,AAXX 05194 07335 26/// /2910 10115 20106 39958 40101 53015 333 60045 91131=
07335,1999-11-05 20:00:00,10.9,1010.9,2.3,91,9.5,,14.816,,,270,,,1,,,,,,,,og-post,,,,AAXX 05204 07335 26/// /2708 10109 20095 39965 40109 53023 333 60015=
07335,1999-11-05 21:00:00,9.7,1011.3,2.8,94,8.8,,18.52,57.412,,230,,,,5,,,,,,,og-post,,,,AAXX 05214 07335 26/// /2310 10097 20088 39968 40113 51028 333 60057 91131=
07335,1999-11-05 22:00:00,9.3,1011.6,1.3,95,8.5,,14.816,,,230,,,0.2,,,,,,,,og-post,,,,AAXX 05224 07335 26/// /2308 10093 20085 39971 40116 51013 333 69925=
07335,1999-11-05 23:00:00,9.1,1011.8,0.8,96,8.5,,14.816,,,230,,,,,,,,,,,og-post,,,,AAXX 05234 07335 36/// /2308 10091 20085 39973 40118 51008=
07335,1999-11-06 00:00:00,8.2,1011.7,0.4,97,7.8,,11.112,57.412,,220,,,,0.2,6,,,,,,og-post,,,,AAXX 06004 07335 /6/// /2206 10082 20078 39972 40117 50004 60061 333 69927 91131=
07335,1999-11-06 01:00:00,7.9,1011.7,0,98,7.6,,11.112,,,240,,,,,,,,,,,og-post,,,,AAXX 06014 07335 36/// /2406 10079 20076 39971 40117 50000=
07335,1999-11-06 02:00:00,8.6,1011.6,-0.2,98,8.3,,14.816,,,240,,,,,,,,,,,og-post,,,,AAXX 06024 07335 36/// /2408 10086 20083 39971 40116 56002=
07335,1999-11-06 03:00:00,8.4,1011.1,-0.6,91,7,,18.52,,,250,,,,0.2,,,,,,,og-post,,,,AAXX 06034 07335 26/// /2510 10084 20070 39966 40111 58006 333 69927=
07335,1999-11-06 04:00:00,8.4,1011.9,0.3,91,7,,22.224,,,290,,,0.4,,,,,,,,og-post,,,,AAXX 06044 07335 26/// /2912 10084 20070 39974 40119 53003 333 69945=
07335,1999-11-06 05:00:00,7.6,1012.6,0.9,91,6.2,20000,18.52,,,270,,,0.6,,,,,,,21,og-post,,,,AAXX 06054 07335 21570 82710 10076 20062 39980 40126 53009 72122 8557/ 333 69965 83620 83640 87459=
07335,1999-11-06 06:00:00,6.9,1013.3,2.1,91,5.5,20000,14.816,,,270,6.9,13.4,,1,,7,6.8,0.1,6,,og-post,,,,AAXX 06064 07335 /2570 52708 10069 20055 39987 40133 51021 60072 8383/ 333 10134 20069 31006 55001 60017 70068 82820 83360=
07335,1999-11-06 07:00:00,6.5,1014.5,2.4,91,5.1,25000,18.52,,,290,,,,,,,,,,,og-post,,,,AAXX 06074 07335 32675 12910 10065 20051 39998 40145 53024 81530 333 81640=
07335,1999-11-06 08:00:00,7.4,1015.9,3.2,89,5.7,30000,18.52,,,290,,,,,,,,,,,og-post,,,,AAXX 06084 07335 32980 12910 10074 20057 30012 40159 53032 81030 333 81360=
07335,1999-11-06 09:00:00,8.7,1016.6,3.3,83,6,30000,22.224,,,290,,,,,,,,,,,og-post,,,,AAXX 06094 07335 32980 12912 10087 20060 30020 40166 51033 81030 333 81360=
07335,1999-11-06 10:00:00,10.1,1017.9,3.6,79,6.6,30000,25.928,,,320,,,,,,,,,,,og-post,,,,AAXX 06104 07335 32480 13214 10101 20066 30034 40179 52036 81130 333 81813=
07335,1999-11-06 11:00:00,11,1018.9,3.2,75,6.7,30000,22.224,,,320,,,,,,,,,,,og-post,,,,AAXX 06114 07335 32480 13212 10110 20067 30044 40189 53032 81130 333 81813=
07335,1999-11-06 12:00:00,11.6,1019.2,2.7,68,5.9,30000,22.224,,,330,,,,,,,,,,,og-post,,,,AAXX 06124 07335 32580 53312 10116 20059 30047 40192 51027 85200 333 85823=
07335,1999-11-06 13:00:00,12.2,1019.4,1.5,62,5.1,30000,22.224,,,340,,,,,,,,,,,og-post,,,,AAXX 06134 07335 32580 43412 10122 20051 30049 40194 51015 84200 333 84830=
07335,1999-11-06 14:00:00,12.1,1019.7,0.8,59,4.3,30000,22.224,,,330,,,,,,,,,,,og-post,,,,AAXX 06144 07335 32580 33312 10121 20043 30052 40197 52008 83200 333 83831=
07335,1999-11-06 15:00:00,8.5,1020.7,1.3,85,6.1,5000,31.484,53.708,53.708,330,,,,0.8,,,,,,80,og-post,,,,AAXX 06154 07335 21550 53317 10085 20061 30060 40207 53013 78086 83200 333 69987 81925 84830 91029 91129=
07335,1999-11-06 16:00:00,7.8,1021.1,1.5,87,5.8,25000,14.816,,,290,,,0.4,,,,,,,25,og-post,,,,AAXX 06164 07335 21575 32908 10078 20058 30064 40211 53015 72586 83800 333 69945 81826=
07335,1999-11-06 17:00:00,5.9,1022,2,90,4.4,,11.112,,,300,,,,,,,,,,,og-post,,,,AAXX 06174 07335 36/// /3006 10059 20044 30072 40220 52020=
07335,1999-11-06 18:00:00,5.5,1023.1,2.2,92,4.3,,14.816,53.708,,290,5.4,12.3,,0.4,,1,,,,,og-post,,,,AAXX 06184 07335 /6/// /2908 10055 20043 30082 40231 53022 60012 333 10123 20054 69947 91129=
07335,1999-11-06 19:00:00,4.5,1023.8,2.5,93,3.5,,11.112,,,300,,,,,,,,,,,og-post,,,,AAXX 06194 07335 36/// /3006 10045 20035 30089 40238 51025=
07335,1999-11-06 20:00:00,4.8,1024.4,2.3,92,3.6,,7.408,,,320,,,,,,,,,,,og-post,,,,AAXX 06204 07335 36/// /3204 10048 20036 30095 40244 51023=
07335,1999-11-06 21:00:00,4.2,1025.2,2,90,2.7,,11.112,,,320,,,,,,,,,,,og-post,,,,AAXX 06214 07335 36/// /3206 10042 20027 30102 40252 52020=
07335,1999-11-06 22:00:00,3,1025.8,1.9,93,2,,11.112,,,310,,,,,,,,,,,og-post,,,,AAXX 06224 07335 36/// /3106 10030 20020 30108 40258 52019=
07335,1999-11-06 23:00:00,3.6,1026,1.5,94,2.7,,11.112,,,310,,,,,,,,,,,og-post,,,,AAXX 06234 07335 36/// /3106 10036 20027 30110 40260 51015=
07335,1999-11-07 00:00:00,2.6,1026.4,1.1,94,1.7,,11.112,,,310,,,,,,,,,,,og-post,,,,AAXX 07004 07335 36/// /3106 10026 20017 30113 40264 51011=
07335,1999-11-07 01:00:00,2.3,1026.3,0.4,94,1.4,,11.112,,,310,,,,,,,,,,,og-post,,,,AAXX 07014 07335 36/// /3106 10023 20014 30112 40263 50004=
07335,1999-11-07 02:00:00,2.1,1026.8,0.7,95,1.4,,11.112,,,310,,,,,,,,,,,og-post,,,,AAXX 07024 07335 36/// /3106 10021 20014 30117 40268 53007=
07335,1999-11-07 03:00:00,1,1027.1,0.6,95,0.3,,11.112,,,320,,,,,,,,,,,og-post,,,,AAXX 07034 07335 36/// /3206 10010 20003 30119 40271 53006=
07335,1999-11-07 04:00:00,1.1,1027.5,1.1,96,0.5,,11.112,,,320,,,,,,,,,,,og-post,,,,AAXX 07044 07335 36/// /3206 10011 20005 30123 40275 51011=
07335,1999-11-07 05:00:00,0.7,1028.2,1.3,96,0.1,10000,14.816,,,320,,,,,,,,,,,og-post,,,,AAXX 07054 07335 32960 03208 10007 20001 30130 40282 53013=
07335,1999-11-07 06:00:00,0.4,1028.5,1.4,96,-0.2,15000,7.408,,,310,0.4,5.6,,,,,1.2,7,-3,,og-post,,,,AAXX 07064 07335 32965 13104 10004 21002 30133 40285 51014 80001 333 10056 20004 30103 55070 70012 81073=
07335,1999-11-07 07:00:00,0.5,1029.1,1.6,97,0.1,15000,3.704,,,300,,,,,,,,,,,og-post,,,,AAXX 07074 07335 32965 13002 10005 20001 30139 40291 51016 80001 333 81073=
07335,1999-11-07 08:00:00,2.5,1029.9,1.8,98,2.2,20000,3.704,,,40,,,,,,,,,,,og-post,,,,AAXX 07084 07335 32970 10402 10025 20022 30148 40299 53018 81031 333 81360=
07335,1999-11-07 09:00:00,5.5,1030.2,1.9,93,4.5,25000,7.408,,,340,,,,,,,,,,,og-post,,,,AAXX 07094 07335 32975 13404 10055 20045 30152 40302 51019 81031 333 81360=
07335,1999-11-07 10:00:00,8,1030.6,1.9,82,5.1,30000,7.408,,,360,,,,,,,,,,,og-post,,,,AAXX 07104 07335 32980 13604 10080 20051 30158 40306 51019 80001 333 81073=
07335,1999-11-07 11:00:00,9.8,1030.5,1,72,5,30000,7.408,,,360,,,,,,,,,,,og-post,,,,AAXX 07114 07335 32980 13604 10098 20050 30158 40305 51010 80001 333 81073=
07335,1999-11-07 12:00:00,10.7,1030.4,0.5,66,4.6,30000,11.112,,,350,,,,,,,,,,,og-post,,,,AAXX 07124 07335 32480 13506 10107 20046 30157 40304 50005 81201 333 81818=
07335,1999-11-07 13:00:00,11.2,1030.3,-0.2,59,3.5,30000,11.112,,,350,,,,,,,,,,,og-post,,,,AAXX 07134 07335 32580 13506 10112 20035 30156 40303 58002 81201 333 81826=
07335,1999-11-07 14:00:00,11.5,1030.3,-0.2,61,4.3,30000,14.816,,,360,,,,,,,,,,,og-post,,,,AAXX 07144 07335 32680 33608 10115 20043 30156 40303 56002 82201 333 82833=
07335,1999-11-07 15:00:00,11.2,1030.5,0.1,60,3.7,30000,11.112,,,360,,,,,,,,,,,og-post,,,,AAXX 07154 07335 32680 43606 10112 20037 30158 40305 53001 81204 333 81836 84073=
07335,1999-11-07 16:00:00,9.9,1031,0.6,64,3.4,30000,11.112,,,360,,,,,,,,,,,og-post,,,,AAXX 07164 07335 32680 53606 10099 20034 30162 40310 53006 81404 333 81636 85073=
07335,1999-11-07 17:00:00,6.7,1031.6,1.1,73,2.2,,7.408,,,30,,,,,,,,,,,og-post,,,,AAXX 07174 07335 36/// /0304 10067 20022 30167 40316 53011=
07335,1999-11-07 18:00:00,3.9,1032.2,1.3,82,1.1,,3.704,,,330,0.2,11.5,,,,,,,,,og-post,,,,AAXX 07184 07335 36/// /3302 10039 20011 30171 40322 52013 333 10115 20002=
07335,1999-11-07 19:00:00,1.8,1032.5,1.1,93,0.8,,3.704,,,320,,,,,,,,,,,og-post,,,,AAXX 07194 07335 36/// /3202 10018 20008 30173 40325 51011=
07335,1999-11-07 20:00:00,1.2,1033.1,1.1,95,0.5,,3.704,,,290,,,,,,,,,,,og-post,,,,AAXX 07204 07335 36/// /2902 10012 20005 30178 40331 53011=
07335,1999-11-07 21:00:00,0.7,1033.2,0.8,96,0.1,,3.704,,,270,,,,,,,,,,,og-post,,,,AAXX 07214 07335 36/// /2702 10007 20001 30179 40332 51008=
07335,1999-11-07 22:00:00,0.8,1033.5,0.9,97,0.4,,3.704,,,300,,,,,,,,,,,og-post,,,,AAXX 07224 07335 36/// /3002 10008 20004 30182 40335 51009=
07335,1999-11-07 23:00:00,0.6,1033.4,0.3,97,0.2,,3.704,,,250,,,,,,,,,,,og-post,,,,AAXX 07234 07335 36/// /2502 10006 20002 30181 40334 50003=
07335,1999-11-08 00:00:00,1.1,1033.6,0.4,98,0.8,,3.704,,,260,,,,,,,,,,,og-post,,,,AAXX 08004 07335 36/// /2602 10011 20008 30183 40336 51004=
07335,1999-11-08 01:00:00,2.9,1033.3,-0.1,98,2.6,,3.704,,,300,,,,,,,,,,,og-post,,,,AAXX 08014 07335 36/// /3002 10029 20026 30181 40333 58001=
07335,1999-11-08 02:00:00,5.1,1033.1,0,98,4.8,,11.112,,,320,,,,,,,,,,,og-post,,,,AAXX 08024 07335 36/// /3206 10051 20048 30181 40331 50000=
07335,1999-11-08 03:00:00,6.2,1033,-0.3,96,5.6,,11.112,,,300,,,,,,,,,,,og-post,,,,AAXX 08034 07335 36/// /3006 10062 20056 30180 40330 56003=
07335,1999-11-08 04:00:00,6.5,1033.1,-0,94,5.6,,7.408,,,310,,,,,,,,,,,og-post,,,,AAXX 08044 07335 36/// /3104 10065 20056 30181 40331 55000=
07335,1999-11-08 05:00:00,6.7,1033,-0,94,5.8,12000,7.408,,,340,,,,,,,,,,,og-post,,,,AAXX 08054 07335 32662 73404 10067 20058 30181 40330 55000 875// 333 87640=
07335,1999-11-08 06:00:00,7.1,1033.1,0.2,95,6.4,15000,7.408,,,330,0.1,7.1,,,,,0,8.9,-3,,og-post,,,,AAXX 08064 07335 32565 83304 10071 20064 30182 40331 52002 875// 333 10071 20001 31103 55089 70000 82625 86634=
07335,1999-11-08 07:00:00,7.1,1033.3,0.3,96,6.5,15000,3.704,,,340,,,,,,,,,,,og-post,,,,AAXX 08074 07335 32465 83402 10071 20065 30184 40333 53003 875// 333 81710 85628 86633=
07335,1999-11-08 08:00:00,8,1033.3,0.3,96,7.4,12000,7.408,,,320,,,,,,,,,,,og-post,,,,AAXX 08084 07335 32462 83204 10080 20074 30184 40333 51003 875// 333 81611 85623 86633=
07335,1999-11-08 09:00:00,9.2,1033.4,0.4,92,8,10000,11.112,,,330,,,,,,,,,,,og-post,,,,AAXX 08094 07335 32460 83306 10092 20080 30186 40334 52004 875// 333 81611 87631=
07335,1999-11-08 10:00:00,10,1033.6,0.4,91,8.6,10000,11.112,,,330,,,,,,,,,,,og-post,,,,AAXX 08104 07335 32260 83306 10100 20086 30188 40336 53004 875// 333 81703 87633=
07335,1999-11-08 11:00:00,10.9,1033.4,0.3,87,8.8,12000,7.408,,,320,,,,,,,,,,,og-post,,,,AAXX 08114 07335 32662 83204 10109 20088 30187 40334 50003 875// 333 83636 86643=
07335,1999-11-08 12:00:00,11.7,1033,-0.3,85,9.3,12000,14.816,,,340,,,,,,,,,,,og-post,,,,AAXX 08124 07335 32462 83408 10117 20093 30183 40330 58003 875// 333 81814 87643=
07335,1999-11-08 13:00:00,11.7,1032.8,-0.7,83,8.9,12000,14.816,,,10,,,,,,,,,,,og-post,,,,AAXX 08134 07335 32462 80108 10117 20089 30181 40328 58007 878// 333 81814 85643 86650=
07335,1999-11-08 14:00:00,11.6,1032.5,-0.9,86,9.3,12000,14.816,,,360,,,,,,,,,,,og-post,,,,AAXX 08144 07335 32462 83608 10116 20093 30178 40325 56009 878// 333 81814 87649=
07335,1999-11-08 15:00:00,11.4,1032.5,-0.5,85,9,12000,7.408,,,330,,,,,,,,,,,og-post,,,,AAXX 08154 07335 32462 83304 10114 20090 30178 40325 56005 878// 333 81814 87643=
07335,1999-11-08 16:00:00,11.1,1032.5,-0.3,86,8.8,10000,3.704,,,360,,,,,,,,,,,og-post,,,,AAXX 08164 07335 32660 83602 10111 20088 30178 40325 56003 875// 333 82643 86650=
07335,1999-11-08 17:00:00,10.5,1032.7,0.2,89,8.8,10000,3.704,,,300,,,,,,,,,,,og-post,,,,AAXX 08174 07335 32560 83002 10105 20088 30180 40327 53002 875// 333 82620 83649 86650=
07335,1999-11-08 18:00:00,9.8,1033,0.4,92,8.6,10000,3.704,,,330,7,11.9,,,,,,,,,og-post,,,,AAXX 08184 07335 32460 83302 10098 20086 30182 40330 53004 875// 333 10119 20070 81616 87648=
07335,1999-11-08 19:00:00,9.7,1033.1,0.5,93,8.6,,7.408,,,320,,,,,,,,,,,og-post,,,,AAXX 08194 07335 36/// /3204 10097 20086 30183 40331 51005=
07335,1999-11-08 20:00:00,9.2,1033.1,0.3,94,8.3,,7.408,,,320,,,,,,,,,,,og-post,,,,AAXX 08204 07335 36/// /3204 10092 20083 30183 40331 51003=
07335,1999-11-08 21:00:00,9.3,1033.3,0.3,94,8.4,,11.112,,,320,,,,,,,,,,,og-post,,,,AAXX 08214 07335 36/// /3206 10093 20084 30185 40333 53003=
07335,1999-11-08 22:00:00,9.4,1033.2,0.1,94,8.5,,11.112,,,320,,,,,,,,,,,og-post,,,,AAXX 08224 07335 36/// /3206 10094 20085 30184 40332 50001=
07335,1999-11-08 23:00:00,9.2,1033.1,0,94,8.3,,7.408,,,330,,,,,,,,,,,og-post,,,,AAXX 08234 07335 36/// /3304 10092 20083 30183 40331 50000=
07335,1999-11-09 00:00:00,9.2,1032.9,-0.4,95,8.4,,11.112,,,360,,,,,,,,,,,og-post,,,,AAXX 09004 07335 36/// /3606 10092 20084 30181 40329 58004=
07335,1999-11-09 01:00:00,9,1033,-0.2,96,8.4,,7.408,,,360,,,,,,,,,,,og-post,,,,AAXX 09014 07335 36/// /3604 10090 20084 30182 40330 55002=
07335,1999-11-09 02:00:00,8.9,1032.8,-0.3,96,8.3,,3.704,,,360,,,,,,,,,,,og-post,,,,AAXX 09024 07335 36/// /3602 10089 20083 30180 40328 57003=
07335,1999-11-09 03:00:00,8.6,1032.6,-0.3,96,8,,3.704,,,340,,,,,,,,,,,og-post,,,,AAXX 09034 07335 36/// /3402 10086 20080 30178 40326 58003=
07335,1999-11-09 04:00:00,8.6,1032.7,-0.3,97,8.2,,3.704,,,360,,,,,,,,,,,og-post,,,,AAXX 09044 07335 36/// /3602 10086 20082 30179 40327 55003=
07335,1999-11-09 05:00:00,8.5,1032.9,0.1,97,8.1,9000,7.408,,,360,,,,,,,,,,,og-post,,,,AAXX 09054 07335 32659 83604 10085 20081 30181 40329 53001 885// 333 88648=
07335,1999-11-09 06:00:00,8.5,1033,0.4,97,8.1,8000,7.408,,,20,8.4,9.8,,,,,0,,8,,og-post,,,,AAXX 09064 07335 32658 80204 10085 20081 30182 40330 52004 885// 333 10098 20084 30008 55000 70000 88646=
07335,1999-11-09 07:00:00,8.4,1033.1,0.4,97,8,6000,7.408,,,20,,,,,,,,,,,og-post,,,,AAXX 09074 07335 32656 70204 10084 20080 30183 40331 51004 875// 333 87646=
07335,1999-11-09 08:00:00,9,1033.9,1,95,8.2,7000,11.112,,,30,,,,,,,,,,,og-post,,,,AAXX 09084 07335 32657 70306 10090 20082 30191 40339 53010 875// 333 87646=
07335,1999-11-09 09:00:00,10.3,1033.9,0.9,88,8.4,10000,11.112,,,20,,,,,,,,,,,og-post,,,,AAXX 09094 07335 32660 30206 10103 20084 30191 40339 51009 82532 333 82646=
07335,1999-11-09 10:00:00,11.5,1033.9,0.9,82,8.5,15000,18.52,,,40,,,,,,,,,,,og-post,,,,AAXX 09104 07335 32465 30410 10115 20085 30192 40339 51009 82832 333 81811=
07335,1999-11-09 11:00:00,12.6,1033.6,-0.1,72,7.7,15000,18.52,,,50,,,,,,,,,,,og-post,,,,AAXX 09114 07335 32465 70510 10126 20077 30190 40336 58001 878// 333 82818 87650=
07335,1999-11-09 12:00:00,12.1,1033.4,-0.4,79,8.6,15000,18.52,,,50,,,,,,,,,,,og-post,,,,AAXX 09124 07335 32565 70510 10121 20086 30187 40334 58004 878// 333 83825 87650=
07335,1999-11-09 13:00:00,12.4,1033,-0.8,80,9,15000,25.928,,,30,,,,,,,,,,,og-post,,,,AAXX 09134 07335 32465 70314 10124 20090 30184 40330 58008 85802 333 83815 83650=
07335,1999-11-09 14:00:00,12.5,1032.6,-1,75,8.2,15000,18.52,,,50,,,,,,,,,,,og-post,,,,AAXX 09144 07335 32565 70510 10125 20082 30180 40326 58010 85802 333 83820 84650=
07335,1999-11-09 15:00:00,12.1,1032.6,-0.7,80,8.8,15000,14.816,,,30,,,,,,,,,,,og-post,,,,AAXX 09154 07335 32565 70308 10121 20088 30180 40326 56007 878// 333 82821 83640 87650=
07335,1999-11-09 16:00:00,11.9,1032.6,-0.5,71,6.8,15000,22.224,,,40,,,,,,,,,,,og-post,,,,AAXX 09164 07335 32565 70412 10119 20068 30179 40326 56005 878// 333 83830 87650=
07335,1999-11-09 17:00:00,10.7,1032.8,0.1,76,6.6,15000,14.816,,,20,,,,,,,,,,,og-post,,,,AAXX 09174 07335 32565 70208 10107 20066 30181 40328 53001 878// 333 82830 87650=
07335,1999-11-09 18:00:00,10.3,1033.2,0.4,78,6.6,15000,18.52,,,10,8.3,12.8,,,,,,,,,og-post,,,,AAXX 09184 07335 32565 70110 10103 20066 30184 40332 53004 874// 333 10128 20083 82631 87650=
07335,1999-11-09 19:00:00,10.1,1033.1,0.4,78,6.4,,18.52,,,10,,,,,,,,,,,og-post,,,,AAXX 09194 07335 36/// /0110 10101 20064 30183 40331 50004=
07335,1999-11-09 20:00:00,9.9,1032.9,0,80,6.6,,18.52,,,10,,,,,,,,,,,og-post,,,,AAXX 09204 07335 36/// /0110 10099 20066 30181 40329 50000=
07335,1999-11-09 21:00:00,9.7,1033,-0.2,82,6.8,,22.224,,,10,,,,,,,,,,,og-post,,,,AAXX 09214 07335 36/// /0112 10097 20068 30182 40330 55002=
07335,1999-11-09 22:00:00,8.9,1033,-0.1,86,6.7,,14.816,,,20,,,,,,,,,,,og-post,,,,AAXX 09224 07335 36/// /0208 10089 20067 30182 40330 56001=
07335,1999-11-09 23:00:00,9.2,1032.9,0,88,7.3,,18.52,,,30,,,,,,,,,,,og-post,,,,AAXX 09234 07335 36/// /0310 10092 20073 30181 40329 50000=
07335,1999-11-10 00:00:00,9.1,1032.9,-0.1,88,7.2,,18.52,,,30,,,,,,,,,,,og-post,,,,AAXX 10004 07335 36/// /0310 10091 20072 30181 40329 57001=
07335,1999-11-10 03:00:00,8.5,1032.5,-0.4,88,6.6,,18.52,,,20,,,,,,,,,,,og-post,,,,AAXX 10034 07335 36/// /0210 10085 20066 30177 40325 58004=
07335,1999-11-10 04:00:00,6.1,1032.7,-0.4,94,5.2,,14.816,,,350,,,,,,,,,,,og-post,,,,AAXX 10044 07335 36/// /3508 10061 20052 30177 40327 56004=
07335,1999-11-10 05:00:00,6.8,1032.7,-0.1,91,5.4,20000,22.224,,,30,,,,,,,,,,,og-post,,,,AAXX 10054 07335 32970 00312 10068 20054 30178 40327 55001=
07335,1999-11-10 06:00:00,6.1,1032.8,0.1,92,4.9,20000,14.816,,,10,5.4,10.3,,,,,0,3.3,4,,og-post,,,,AAXX 10064 07335 32470 20108 10061 20049 30178 40328 52001 81501 333 10103 20054 30004 55033 70000 81613=
07335,1999-11-10 07:00:00,5.9,1032.8,0.1,94,5,25000,22.224,,,20,,,,,,,,,,,og-post,,,,AAXX 10074 07335 32475 40212 10059 20050 30178 40328 51001 81531 333 81613 83360=
07335,1999-11-10 08:00:00,6.7,1032.7,-0,94,5.8,25000,22.224,,,20,,,,,,,,,,,og-post,,,,AAXX 10084 07335 32975 70212 10067 20058 30178 40327 54000 85031 333 85360 83075=
07335,1999-11-10 09:00:00,8.8,1032.2,-0.4,89,7.1,25000,18.52,,,10,,,,,,,,,,,og-post,,,,AAXX 10094 07335 32475 60110 10088 20071 30174 40322 58004 81231 333 81815 85075=
07335,1999-11-10 10:00:00,9.3,1032,-0.6,83,6.6,25000,29.632,,,20,,,,,,,,,,,og-post,,,,AAXX 10104 07335 32475 70216 10093 20066 30172 40320 58006 85234 333 85816 87075=
07335,1999-11-10 11:00:00,10.1,1031.5,-1,77,6.3,25000,29.632,,,30,,,,,,,,,,,og-post,,,,AAXX 10114 07335 32475 70316 10101 20063 30168 40315 57010 8523/ 333 85818 87360=
07335,1999-11-10 12:00:00,10.3,1030.6,-1.5,70,5.1,25000,29.632,,,20,,,,,,,,,,,og-post,,,,AAXX 10124 07335 32575 70216 10103 20051 30159 40306 58015 8523/ 333 85823 87360=
07335,1999-11-10 13:00:00,9.2,1030.4,-1.6,85,6.8,15000,25.928,,,30,,,,,,,,,,61,og-post,,,,AAXX 10134 07335 21565 80314 10092 20068 30156 40304 56016 76162 8557/ 333 69905 85621 88459=
07335,1999-11-10 14:00:00,8.9,1029.7,-1.9,87,6.9,15000,25.928,,,30,,,0.4,,,,,,,61,og-post,,,,AAXX 10144 07335 21465 80314 10089 20069 30149 40297 56019 76166 8452/ 333 69945 81616 84626 88459=
07335,1999-11-10 15:00:00,8,1029,-1.7,89,6.3,30000,18.52,,,30,,,,0.8,,,,,,21,og-post,,,,AAXX 10154 07335 21580 70310 10080 20063 30142 40290 58017 72162 8452/ 333 69987 81626 83638 86360=
07335,1999-11-10 16:00:00,8,1028.5,-1.9,94,7.1,30000,18.52,,,10,,,,,,,,,,,og-post,,,,AAXX 10164 07335 32480 70110 10080 20071 30137 40285 56019 8553/ 333 83616 83636 85360=
07335,1999-11-10 17:00:00,7.3,1028.8,-0.9,86,5.1,20000,22.224,,,40,,,0.4,,,,,,,25,og-post,,,,AAXX 10174 07335 21470 70412 10073 20051 30140 40288 55009 72522 8453/ 333 69945 82816 83633 85360=
07335,1999-11-10 18:00:00,5.2,1029.2,-0,94,4.3,25000,7.408,,,10,5.2,11.1,,0.4,,1,,,,1,og-post,,,,AAXX 10184 07335 /1475 60104 10052 20043 30142 40292 55000 60012 70186 8383/ 333 10111 20052 69947 81816 83636 85360=
07335,1999-11-10 19:00:00,6.1,1028.9,0.3,93,5.1,,14.816,,,20,,,,,,,,,,,og-post,,,,AAXX 10194 07335 36/// /0208 10061 20051 30140 40289 50003=
07335,1999-11-10 20:00:00,6.6,1029,0.1,91,5.2,,18.52,,,20,,,,,,,,,,,og-post,,,,AAXX 10204 07335 36/// /0210 10066 20052 30141 40290 51001=
07335,1999-11-10 21:00:00,6,1029,-0.1,92,4.8,,14.816,,,20,,,,,,,,,,,og-post,,,,AAXX 10214 07335 36/// /0208 10060 20048 30141 40290 56001=
07335,1999-11-10 22:00:00,6.5,1028.9,0,91,5.1,,18.52,,,20,,,,,,,,,,,og-post,,,,AAXX 10224 07335 36/// /0210 10065 20051 30140 40289 50000=
07335,1999-11-10 23:00:00,6.8,1028.8,-0.2,88,5,,18.52,,,20,,,,,,,,,,,og-post,,,,AAXX 10234 07335 36/// /0210 10068 20050 30139 40288 58002=
07335,1999-11-11 00:00:00,7.1,1028.9,-0.1,85,4.8,,22.224,,,30,,,,,,,,,,,og-post,,,,AAXX 11004 07335 36/// /0312 10071 20048 30140 40289 55001=
07335,1999-11-11 01:00:00,6.5,1028.7,-0.2,86,4.3,,22.224,,,30,,,,,,,,,,,og-post,,,,AAXX 11014 07335 36/// /0312 10065 20043 30138 40287 58002=
07335,1999-11-11 02:00:00,5.2,1028.8,-0.1,88,3.4,,18.52,,,30,,,,,,,,,,,og-post,,,,AAXX 11024 07335 36/// /0310 10052 20034 30138 40288 58001=
07335,1999-11-11 03:00:00,5.9,1028.2,-0.7,88,4.1,,18.52,,,30,,,,,,,,,,,og-post,,,,AAXX 11034 07335 36/// /0310 10059 20041 30133 40282 58007=
07335,1999-11-11 04:00:00,5.7,1027.9,-0.8,90,4.2,,18.52,,,20,,,,,,,,,,,og-post,,,,AAXX 11044 07335 36/// /0210 10057 20042 30130 40279 58008=
07335,1999-11-11 05:00:00,6.4,1027.8,-0.9,89,4.7,17000,18.52,,,30,,,,,,,,,,,og-post,,,,AAXX 11054 07335 32567 80310 10064 20047 30129 40278 56009 8157/ 333 81630 88458=
07335,1999-11-11 06:00:00,6.6,1027.7,-0.5,89,4.9,15000,22.224,,,30,5.1,7.2,,,,,1.2,1.6,3,,og-post,,,,AAXX 11064 07335 32465 80312 10066 20049 30128 40277 56005 885// 333 10072 20051 3/003 55016 70012 85612 88640=
07335,1999-11-11 07:00:00,7,1027.8,-0.1,88,5.2,10000,22.224,,,40,,,,,,,,,,60,og-post,,,,AAXX 11074 07335 21460 80412 10070 20052 30129 40278 55001 76062 885// 333 69905 86614 87640=
07335,1999-11-11 08:00:00,7,1027.5,-0.2,90,5.5,6000,22.224,,,30,,,,,,,,,,21,og-post,,,,AAXX 11084 07335 21456 80312 10070 20055 30127 40275 58002 72162 875// 333 69905 87611=
07335,1999-11-11 09:00:00,7.1,1027.5,-0.1,90,5.6,6000,22.224,,,30,,,,,,,,,,21,og-post,,,,AAXX 11094 07335 21256 80312 10071 20056 30127 40275 58001 72162 875// 333 69907 82703 87615=
07335,1999-11-11 10:00:00,7.3,1027.4,-0.3,87,5.3,6000,22.224,,,40,,,,,,,,,,,og-post,,,,AAXX 11104 07335 32156 80412 10073 20053 30126 40274 56003 875// 333 82703 87613=
07335,1999-11-11 11:00:00,7.6,1027.2,-0.3,87,5.6,4000,22.224,,,30,,,,,,,,,,61,og-post,,,,AAXX 11114 07335 21140 80312 10076 20056 30124 40272 58003 76162 875// 333 69905 82703 87615=
07335,1999-11-11 12:00:00,7.8,1026.6,-0.9,85,5.4,4000,29.632,,,40,,,,,,,,,,60,og-post,,,,AAXX 11124 07335 /1240 80416 10078 20054 30118 40266 58009 69901 76062 875// 333 69907 82703 87616=
07335,1999-11-11 13:00:00,7.9,1025.9,-1.5,85,5.5,6000,29.632,,,30,,,,,,,,,,21,og-post,,,,AAXX 11134 07335 21256 80316 10079 20055 30111 40259 58015 72162 875// 333 69905 81703 83614 87650=
07335,1999-11-11 14:00:00,8,1025.2,-2,83,5.3,10000,25.928,,,30,,,,,,,,,,,og-post,,,,AAXX 11144 07335 32460 70314 10080 20053 30104 40252 58020 875// 333 85616 87650=
07335,1999-11-11 15:00:00,7.8,1024.8,-1.8,81,4.7,10000,29.632,,,30,,,,,,,,,,1,og-post,,,,AAXX 11154 07335 21460 80316 10078 20047 30100 40248 56018 70162 875// 333 69907 84616 87650=
07335,1999-11-11 16:00:00,6.8,1024.5,-1.4,86,4.6,6000,29.632,,,40,,,,,,,,,,61,og-post,,,,AAXX 11164 07335 21256 80416 10068 20046 30097 40245 56014 76162 875// 333 69905 81704 85615 87650=
07335,1999-11-11 17:00:00,6.1,1024.7,-0.6,92,4.9,,22.224,,,40,,,,,,,,,,,og-post,,,,AAXX 11174 07335 26/// /0412 10061 20049 30098 40247 55006 333 69905=
07335,1999-11-11 18:00:00,6.2,1024.7,-0.1,92,5,,14.816,,,50,6.1,8.2,,,,,,,,,og-post,,,,AAXX 11184 07335 /6/// /0508 10062 20050 30099 40247 55001 69902 333 10082 20061 69907=
07335,1999-11-11 19:00:00,6.1,1024.5,-0.1,92,4.9,,18.52,,,40,,,,,,,,,,,og-post,,,,AAXX 11194 07335 26/// /0410 10061 20049 30096 40245 58001 333 69905=
07335,1999-11-11 20:00:00,6.1,1024.1,-0.5,87,4.1,,18.52,,,50,,,,,,,,,,,og-post,,,,AAXX 11204 07335 26/// /0510 10061 20041 30093 40241 58005 333 69905=
07335,1999-11-11 21:00:00,5.8,1024.3,-0.5,86,3.6,,22.224,,,50,,,,,,,,,,,og-post,,,,AAXX 11214 07335 26/// /0512 10058 20036 30094 40243 55005 333 69907=
07335,1999-11-11 22:00:00,,1024,-0.5,,3.6,,14.816,,,60,,,,,,,,,,,og-post,,,,AAXX 11224 07335 26/// /0608 0056 20036 30091 40240 57005 333 69905=
07335,1999-11-11 23:00:00,5.6,1023.8,-0.4,85,3.3,,18.52,,,50,,,,,,,,,,,og-post,,,,AAXX 11234 07335 26/// /0510 10056 20033 30089 40238 58004 333 69905=
07335,1999-11-12 00:00:00,5.4,1023.6,-0.7,85,3.1,,18.52,,,60,,,,,,,,,,,og-post,,,,AAXX 12004 07335 /6/// /0610 10054 20031 30087 40236 56007 69901 333 69907=
07335,1999-11-12 01:00:00,5.2,1023,-1,85,2.9,,11.112,,,60,,,,,,,,,,,og-post,,,,AAXX 12014 07335 26/// /0606 10052 20029 30081 40230 58010 333 69905=
07335,1999-11-12 02:00:00,5,1022.8,-1,87,3,,14.816,,,60,,,,,,,,,,,og-post,,,,AAXX 12024 07335 26/// /0608 10050 20030 30079 40228 57010 333 69905=
07335,1999-11-12 03:00:00,4.6,1022.4,-1.2,92,3.4,,14.816,,,60,,,,0.2,,,,,,,og-post,,,,AAXX 12034 07335 26/// /0608 10046 20034 30075 40224 56012 333 69927=
07335,1999-11-12 04:00:00,4.8,1022.2,-0.8,91,3.5,,14.816,,,70,,,,,,,,,,,og-post,,,,AAXX 12044 07335 26/// /0708 10048 20035 30073 40222 57008 333 69905=
07335,1999-11-12 05:00:00,5,1022.1,-0.7,89,3.3,15000,18.52,,,80,,,,,,,,,,,og-post,,,,AAXX 12054 07335 22465 80810 10050 20033 30072 40221 56007 885// 333 69905 87612=
07335,1999-11-12 06:00:00,5.1,1022.4,-0,88,3.3,15000,18.52,,,90,4.6,6.2,,,,0.2,0.2,,4,,og-post,,,,AAXX 12064 07335 /2465 80910 10051 20033 30075 40224 55000 69922 885// 333 10062 20046 31004 55000 69907 70002 82610 88636=
07335,1999-11-12 07:00:00,4.2,1022.6,0.4,90,2.7,15000,14.816,,,80,,,,,,,,,,,og-post,,,,AAXX 12074 07335 32665 20808 10042 20027 30077 40226 53004 82501 333 81636=
07335,1999-11-12 08:00:00,3.8,1023,0.8,92,2.6,15000,11.112,,,60,,,,,,,,,,,og-post,,,,AAXX 12084 07335 32965 50606 10038 20026 30080 40230 52008 81031 333 81360 85075=
07335,1999-11-12 09:00:00,4.5,1023.1,0.7,92,3.3,15000,14.816,,,70,,,,,,,,,,,og-post,,,,AAXX 12094 07335 32965 70708 10045 20033 30082 40231 52007 8707/ 333 87460=
07335,1999-11-12 10:00:00,5.7,1022.9,0.3,89,4,15000,14.816,,,80,,,,,,,,,,,og-post,,,,AAXX 12104 07335 32965 70808 10057 20040 30080 40229 50003 82032 333 82360 87073=
07335,1999-11-12 11:00:00,6.7,1022.9,0.1,86,4.5,18000,14.816,,,90,,,,,,,,,,,og-post,,,,AAXX 12114 07335 32968 80908 10067 20045 30081 40229 51001 8807/ 333 82360 88463=
07335,1999-11-12 12:00:00,7.6,1022.1,-0.8,85,5.2,18000,18.52,,,90,,,,,,,,,,60,og-post,,,,AAXX 12124 07335 /1668 80910 10076 20052 30074 40221 58008 69901 76061 8352/ 333 69907 83640 88460=
07335,1999-11-12 13:00:00,7.8,1021.6,-1.1,89,6.1,12000,11.112,,,90,,,0.2,,,,,,,61,og-post,,,,AAXX 12134 07335 21462 80906 10078 20061 30069 40216 58011 76166 8557/ 333 69925 85616 88458=
07335,1999-11-12 14:00:00,7.9,1020.9,-1.9,91,6.5,18000,18.52,,,80,,,0.4,,,,,,,61,og-post,,,,AAXX 12144 07335 21168 80810 10079 20065 30062 40209 57019 76166 8357/ 333 69945 81702 83620 88458=
07335,1999-11-12 15:00:00,8,1020.7,-1.4,85,5.6,18000,18.52,,,90,,,,0.6,,,,,,61,og-post,,,,AAXX 12154 07335 21668 80910 10080 20056 30060 40207 56014 76166 8357/ 333 69967 83636 88460=
07335,1999-11-12 16:00:00,7.3,1020.6,-1,88,5.4,12000,14.816,,,70,,,0.2,,,,,,,61,og-post,,,,AAXX 12164 07335 21562 80708 10073 20054 30059 40206 56010 76166 875// 333 69925 87623=
07335,1999-11-12 17:00:00,6.8,1020,-0.9,92,5.6,8000,22.224,,,50,,,2,,,,,,,61,og-post,,,,AAXX 12174 07335 21258 80512 10068 20056 30053 40200 58009 76166 875// 333 60025 82704 87620=
07335,1999-11-12 18:00:00,6.7,1019.9,-0.9,90,5.2,,18.52,,,60,3.8,8.1,,3,,3,,,,,og-post,,,,AAXX 12184 07335 /6/// /0610 10067 20052 30051 40199 58009 60032 333 10081 20038 60037=
07335,1999-11-12 19:00:00,6.9,1019.1,-1.5,89,5.2,,14.816,,,60,,,0.4,,,,,,,,og-post,,,,AAXX 12194 07335 26/// /0608 10069 20052 30044 40191 58015 333 69945=
07335,1999-11-12 20:00:00,6.9,1019.6,-0.4,88,5.1,,18.52,,,60,,,,,,,,,,,og-post,,,,AAXX 12204 07335 26/// /0610 10069 20051 30049 40196 55004 333 69905=
07335,1999-11-12 21:00:00,6.7,1018.8,-1,89,5,,22.224,,,60,,,,1,,,,,,,og-post,,,,AAXX 12214 07335 26/// /0612 10067 20050 30041 40188 58010 333 60017=
07335,1999-11-12 22:00:00,6.5,1018.6,-0.5,90,5,,22.224,,,70,,,2,,,,,,,,og-post,,,,AAXX 12224 07335 26/// /0712 10065 20050 30039 40186 58005 333 60025=
07335,1999-11-12 23:00:00,6.2,1018.4,-1.3,94,5.3,,18.52,,,70,,,2,,,,,,,,og-post,,,,AAXX 12234 07335 26/// /0710 10062 20053 30036 40184 56013 333 60025=
07335,1999-11-13 00:00:00,6.4,1017.1,-1.7,95,5.7,,25.928,,,60,,,,8,9,,,,,,og-post,,,,AAXX 13004 07335 /6/// /0614 10064 20057 30024 40171 58017 60091 333 60087=
07335,1999-11-13 01:00:00,6.7,1016.3,-2.3,96,6.1,,18.52,,,70,,,3,,,,,,,,og-post,,,,AAXX 13014 07335 26/// /0710 10067 20061 30016 40163 58023 333 60035=
07335,1999-11-13 02:00:00,7,1016.3,-2,96,6.4,,18.52,,,70,,,0.6,,,,,,,,og-post,,,,AAXX 13024 07335 26/// /0710 10070 20064 30016 40163 56020 333 69965=
07335,1999-11-13 03:00:00,6.4,1016.4,-0.7,93,5.4,,22.224,,,70,,,,4,,,,,,,og-post,,,,AAXX 13034 07335 26/// /0712 10064 20054 30017 40164 55007 333 60047=
07335,1999-11-13 04:00:00,6.2,1016.1,-0.2,94,5.3,,14.816,,,70,,,0.2,,,,,,,,og-post,,,,AAXX 13044 07335 26/// /0708 10062 20053 30014 40161 58002 333 69925=
07335,1999-11-13 05:00:00,6.7,1,-0.3,92,5.5,10000,18.52,,,80,,,,,,,,,,61,og-post,,,,AAXX 13054 07335 21160 80810 10067 20055 30013 0160 58003 76162 885// 333 69905 83702 83608 85625=
07335,1999-11-13 06:00:00,7,1015.9,-0.5,87,5,10000,18.52,,,80,6.1,7.1,,,,13,,,,61,wg-a,,,,AAXX 13064 07335 12260 80810 10070 20050 30012 40159 56005 60132 76162 885// 90600 333 10071 20061=
07335,1999-11-13 07:00:00,6.6,1015.9,-0.2,90,5.1,10000,14.816,,,70,,,,,,,,,,21,og-post,,,,AAXX 13074 07335 21260 80708 10066 20051 30012 40159 56002 72162 8552/ 333 69905 82703 85650 88459=
07335,1999-11-13 08:00:00,6.9,1016,-0,90,5.4,8000,14.816,,,70,,,,,,,,,,,og-post,,,,AAXX 13084 07335 32258 70708 10069 20054 30013 40160 55000 8557/ 333 81703 85650 87359=
07335,1999-11-13 09:00:00,7.2,1016.1,0.2,90,5.7,7000,14.816,,,60,,,,,,,,,,61,og-post,,,,AAXX 13094 07335 21257 70608 10072 20057 30014 40161 53002 76162 855// 333 69907 82703 84620 87650=
07335,1999-11-13 10:00:00,7.4,1016.2,0.3,90,5.9,8000,14.816,,,60,,,,,,,,,,60,og-post,,,,AAXX 13104 07335 21258 70608 10074 20059 30015 40162 52003 76066 875// 333 69905 82703 85620 87650=
07335,1999-11-13 11:00:00,7.7,1015.9,0,89,6,7000,18.52,,,60,,,0.2,,,,,,,60,og-post,,,,AAXX 13114 07335 21257 70610 10077 20060 30013 40159 50000 76066 875// 333 69925 81703 83620 87650=
07335,1999-11-13 12:00:00,8.4,1015.2,-0.8,87,6.4,7000,18.52,,,40,,,,0.2,0.2,,,,,21,og-post,,,,AAXX 13124 07335 /1257 70410 10084 20064 30006 40152 58008 69921 72162 875// 333 69927 81703 83620 87650=
07335,1999-11-13 13:00:00,8.9,1014.9,-1.2,83,6.2,9000,22.224,,,50,,,,,,,,,,21,og-post,,,,AAXX 13134 07335 21259 70512 10089 20062 30003 40149 58012 72162 875// 333 69905 81705 83620 87650=
07335,1999-11-13 14:00:00,8.6,1014.5,-1.4,84,6.1,9000,18.52,,,30,,,,,,,,,,,og-post,,,,AAXX 13144 07335 32259 70310 10086 20061 39999 40145 56014 875// 333 81705 83620 87650=
07335,1999-11-13 15:00:00,8.1,1014.2,-1,84,5.6,7000,22.224,,,30,,,,,,,,,,2,og-post,,,,AAXX 13154 07335 21257 70312 10081 20056 39996 40142 57010 70262 875// 333 69907 81705 83620 87650=
07335,1999-11-13 16:00:00,7.5,1014.4,-0.5,84,5,7000,18.52,,,30,,,,,,,,,,,og-post,,,,AAXX 13164 07335 32257 70310 10075 20050 39998 40144 55005 875// 333 81705 83620 87650=
07335,1999-11-13 17:00:00,7.3,1014.4,-0.1,83,4.6,,18.52,,,40,,,,,,,,,,,og-post,,,,AAXX 13174 07335 36/// /0410 10073 20046 39998 40144 56001=
07335,1999-11-13 18:00:00,7.2,1014.4,0.2,81,4.2,,25.928,,,30,6.5,8.9,,,,0.2,,,,,og-post,,,,AAXX 13184 07335 16/// /0314 10072 20042 39998 40144 51002 69922 333 10089 20065=
07335,1999-11-13 19:00:00,5.9,1014.6,0.1,84,3.4,,18.52,,,40,,,,,,,,,,,og-post,,,,AAXX 13194 07335 36/// /0410 10059 20034 39999 40146 53001=
07335,1999-11-13 20:00:00,4.8,1014.7,0.1,88,3,,18.52,,,30,,,,,,,,,,,og-post,,,,AAXX 13204 07335 36/// /0310 10048 20030 39999 40147 52001=
07335,1999-11-13 21:00:00,4.4,1014.9,0.3,91,3.1,,18.52,,,40,,,,,,,,,,,og-post,,,,AAXX 13214 07335 36/// /0410 10044 20031 30001 40149 53003=
07335,1999-11-14 00:00:00,3.3,1015,0,88,1.5,,22.224,,,60,,,,,,,,,,,og-post,,,,AAXX 14004 07335 36/// /0612 10033 20015 30001 40150 50000=
07335,1999-11-14 03:00:00,2.7,1014,-1,87,0.8,,25.928,,,60,,,,,,,,,,,og-post,,,,AAXX 14034 07335 36/// /0614 10027 20008 39991 40140 58010=
07335,1999-11-14 04:00:00,2.5,1013.9,-1,87,0.6,,18.52,,,60,,,,,,,,,,,og-post,,,,AAXX 14044 07335 36/// /0610 10025 20006 39990 40139 56010=
07335,1999-11-14 05:00:00,2.4,1014,-0.6,88,0.6,3500,22.224,,,50,,,,,,,,,,10,og-post,,,,AAXX 14054 07335 31335 80512 10024 20006 39991 40140 55006 71022 876// 333 31/// 87708=
07335,1999-11-14 06:00:00,2.2,1014,-0,88,0.4,3500,22.224,,,60,2.2,7.1,,,,,0.2,0.2,2,10,og-post,,,,AAXX 14064 07335 31335 80612 10022 20004 39991 40140 55000 71022 876// 333 10071 20022 31002 55002 70002 87708=
07335,1999-11-14 07:00:00,2.1,1014.6,0.7,87,0.2,4500,25.928,,,60,,,,,,,,,,10,og-post,,,,AAXX 14074 07335 31445 80614 10021 20002 39997 40146 53007 71022 876// 333 87710=
07335,1999-11-14 08:00:00,2.1,1015.1,1.1,87,0.2,,22.224,,,60,,,,,,,,,,,og-post,,,,AAXX 14084 07335 36/// /0612 10021 20002 30002 40151 53011=
07335,1999-11-14 09:00:00,2.2,1015.2,1.2,86,0.1,4500,22.224,,,50,,,,,,,,,,10,og-post,,,,AAXX 14094 07335 31445 80512 10022 20001 30003 40152 51012 71022 886// 333 88710=
07335,1999-11-14 10:00:00,2.5,1015.1,0.5,84,0.1,5000,22.224,,,60,,,,,,,,,,,og-post,,,,AAXX 14104 07335 32450 80612 10025 20001 30002 40151 50005 886// 333 88712=
07335,1999-11-14 11:00:00,3,1015.1,0,82,0.2,5000,25.928,,,60,,,,,,,,,,,og-post,,,,AAXX 14114 07335 32450 80614 10030 20002 30002 40151 50000 886// 333 88713=
07335,1999-11-14 12:00:00,3.6,1014.6,-0.6,82,0.8,6000,25.928,,,50,,,,,,,,,,,og-post,,,,AAXX 14124 07335 32456 70514 10036 20008 39997 40146 58006 876// 333 87613=
07335,1999-11-14 13:00:00,4.1,1014.1,-0.9,79,0.8,7000,22.224,,,70,,,,,,,,,,,og-post,,,,AAXX 14134 07335 32457 40712 10041 20008 39993 40141 58009 84100 333 84816=
07335,1999-11-14 14:00:00,5.5,1013.5,-1.4,76,1.6,9000,25.928,,,60,,,,,,,,,,,og-post,,,,AAXX 14144 07335 32459 40614 10055 20016 39988 40135 57014 84100 333 84819=
07335,1999-11-14 15:00:00,6.1,1013.4,-1,78,2.6,8000,25.928,,,60,,,,,,,,,,,og-post,,,,AAXX 14154 07335 32458 70614 10061 20026 39987 40134 56010 87100 333 87818=
07335,1999-11-14 16:00:00,6.2,1013.4,-0.6,80,3,8000,22.224,,,60,,,,,,,,,,,og-post,,,,AAXX 14164 07335 32458 70612 10062 20030 39987 40134 56006 87100 333 87816=
07335,1999-11-14 17:00:00,5.1,1014.3,0.7,81,2.1,,14.816,,,90,,,,,,,,,,,og-post,,,,AAXX 14174 07335 36/// /0908 10051 20021 39995 40143 53007=
07335,1999-11-14 18:00:00,5.2,1014.6,1.1,83,2.6,,14.816,,,80,2.1,6.3,,,,,,,,,og-post,,,,AAXX 14184 07335 36/// /0808 10052 20026 39998 40146 53011 333 10063 20021=
07335,1999-11-14 19:00:00,5.4,1014.8,1.3,85,3.1,,14.816,,,70,,,,,,,,,,,og-post,,,,AAXX 14194 07335 36/// /0708 10054 20031 30000 40148 51013=
07335,1999-11-14 20:00:00,6.2,1014.9,0.7,88,4.4,,18.52,,,60,,,,,,,,,,,og-post,,,,AAXX 14204 07335 36/// /0610 10062 20044 30002 40149 51007=
07335,1999-11-14 21:00:00,6.8,1015.2,0.7,84,4.3,,18.52,,,70,,,,,,,,,,,og-post,,,,AAXX 14214 07335 36/// /0710 10068 20043 30005 40152 53007=
07335,1999-11-14 22:00:00,6.5,1015.4,0.7,84,4,,14.816,,,60,,,,,,,,,,,og-post,,,,AAXX 14224 07335 36/// /0608 10065 20040 30007 40154 52007=
07335,1999-11-14 23:00:00,5.7,1015.3,0.4,88,3.9,,14.816,,,50,,,,,,,,,,,og-post,,,,AAXX 14234 07335 36/// /0508 10057 20039 30006 40153 50004=
07335,1999-11-15 00:00:00,4.8,1015.4,0.1,92,3.6,,14.816,,,40,,,,,,,,,,,og-post,,,,AAXX 15004 07335 36/// /0408 10048 20036 30006 40154 51001=
07335,1999-11-15 01:00:00,6.4,1015.3,-0.1,90,4.9,,14.816,,,40,,,,,,,,,,,og-post,,,,AAXX 15014 07335 36/// /0408 10064 20049 30006 40153 56001=
07335,1999-11-15 02:00:00,6.6,1015.5,0.2,88,4.8,,11.112,,,40,,,,,,,,,,,og-post,,,,AAXX 15024 07335 36/// /0406 10066 20048 30008 40155 53002=
07335,1999-11-15 03:00:00,6.7,1015.5,0.2,90,5.2,,18.52,,,50,,,,,,,,,,,og-post,,,,AAXX 15034 07335 36/// /0510 10067 20052 30008 40155 52002=
07335,1999-11-15 04:00:00,6.6,1015.7,0.4,90,5.1,,18.52,,,50,,,,,,,,,,,og-post,,,,AAXX 15044 07335 36/// /0510 10066 20051 30010 40157 52004=
07335,1999-11-15 05:00:00,5.3,1016.2,0.6,94,4.4,4000,18.52,,,30,,,,,,,,,,,og-post,,,,AAXX 15054 07335 32940 10310 10053 20044 30014 40162 53006 80001 333 81075=
07335,1999-11-15 06:00:00,5.4,1016.3,0.7,92,4.2,12000,18.52,,,40,4.8,6.9,,,,,0,1,3,,og-post,,,,AAXX 15064 07335 32662 70410 10054 20042 30015 40163 51007 875// 333 10069 20048 30003 55010 70000 87646=
07335,1999-11-15 07:00:00,5.3,1016.7,0.9,93,4.3,8000,22.224,,,40,,,,,,,,,,,og-post,,,,AAXX 15074 07335 32158 80412 10053 20043 30019 40167 52009 886// 333 81702 85706 85618=
07335,1999-11-15 08:00:00,5.7,1017.2,1,91,4.3,8000,22.224,,,40,,,,,,,,,,,og-post,,,,AAXX 15084 07335 32358 70412 10057 20043 30024 40172 53010 875// 333 85708 86645=
07335,1999-11-15 09:00:00,6.3,1017.5,1.3,88,4.5,10000,25.928,,,40,,,,,,,,,,,og-post,,,,AAXX 15094 07335 32360 60414 10063 20045 30028 40175 52013 86600 333 85708=
07335,1999-11-15 10:00:00,6.2,1017.8,1.1,85,3.9,15000,29.632,,,50,,,,,,,,,,,og-post,,,,AAXX 15104 07335 32365 30516 10062 20039 30030 40178 51011 83600 333 83709=
07335,1999-11-15 11:00:00,7.5,1018,0.9,74,3.2,15000,22.224,,,50,,,,,,,,,,,og-post,,,,AAXX 15114 07335 32465 10512 10075 20032 30033 40180 51009 81200 333 81811=
07335,1999-11-15 12:00:00,9,1017.4,0,47,-1.7,20000,25.928,,,50,,,,,,,,,,,og-post,,,,AAXX 15124 07335 32470 10514 10090 21017 30028 40174 50000 81100 333 81816=
07335,1999-11-15 13:00:00,8.9,1017,-0.6,45,-2.4,25000,31.484,,,40,,,,,,,,,,,og-post,,,,AAXX 15134 07335 32975 00417 10089 21024 30024 40170 58006=
07335,1999-11-15 14:00:00,7.7,1017.2,-0.8,54,-1,30000,31.484,,,30,,,,,,,,,,,og-post,,,,AAXX 15144 07335 32680 10317 10077 21010 30025 40172 55008 81100 333 81833=
07335,1999-11-15 15:00:00,7,1017.6,0.1,50,-2.7,30000,31.484,,,30,,,,,,,,,,,og-post,,,,AAXX 15154 07335 32980 00317 10070 21027 30029 40176 53001=
07335,1999-11-15 16:00:00,5.9,1018.2,1,53,-2.9,30000,25.928,,,40,,,,,,,,,,,og-post,,,,AAXX 15164 07335 32980 00414 10059 21029 30034 40182 53010=
07335,1999-11-15 17:00:00,4.1,1018.8,1.4,59,-3.2,30000,22.224,,,30,,,,,,,,,,,og-post,,,,AAXX 15174 07335 32980 00312 10041 21032 30039 40188 53014=
07335,1999-11-15 18:00:00,3.5,1019.1,1.3,63,-2.9,30000,22.224,,,40,3.2,9.3,,,,,,,,,og-post,,,,AAXX 15184 07335 32980 00412 10035 21029 30042 40191 51013 333 10093 20032=
07335,1999-11-15 19:00:00,2.1,1019.5,1.1,69,-3,,18.52,,,40,,,,,,,,,,,og-post,,,,AAXX 15194 07335 36/// /0410 10021 21030 30045 40195 51011=
07335,1999-11-15 20:00:00,0.7,1020.1,1.1,73,-3.6,,11.112,,,30,,,,,,,,,,,og-post,,,,AAXX 15204 07335 36/// /0306 10007 21036 30050 40201 53011=
07335,1999-11-15 21:00:00,-0.8,1020.5,1.1,81,-3.6,,11.112,,,360,,,,,,,,,,,og-post,,,,AAXX 15214 07335 36/// /3606 11008 21036 30053 40205 52011=
07335,1999-11-15 22:00:00,-1.1,1020.4,0.7,80,-4.1,,11.112,,,30,,,,,,,,,,,og-post,,,,AAXX 15224 07335 36/// /0306 11011 21041 30052 40204 50007=
07335,1999-11-15 23:00:00,-1.6,1020.4,0.2,87,-3.5,,14.816,,,350,,,,,,,,,,,og-post,,,,AAXX 15234 07335 36/// /3508 11016 21035 30052 40204 51002=
07335,1999-11-16 00:00:00,-1.9,1020.3,-0.2,88,-3.6,,11.112,,,360,,,,,,,,,,,og-post,,,,AAXX 16004 07335 36/// /3606 11019 21036 30051 40203 57002=
07335,1999-11-16 01:00:00,-1.9,1019.8,-0.6,90,-3.3,,11.112,,,40,,,,,,,,,,,og-post,,,,AAXX 16014 07335 36/// /0406 11019 21033 30046 40198 58006=
07335,1999-11-16 02:00:00,-4.1,1020.1,-0.5,90,-5.5,,7.408,,,350,,,,,,,,,,,og-post,,,,AAXX 16024 07335 36/// /3504 11041 21055 30047 40201 55005=
07335,1999-11-16 03:00:00,-4.8,1019.8,-0.7,91,-6,,7.408,,,350,,,,,,,,,,,og-post,,,,AAXX 16034 07335 36/// /3504 11048 21060 30044 40198 56007=
07335,1999-11-16 04:00:00,-4.2,1019.9,-0.1,94,-5,,7.408,,,360,,,,,,,,,,,og-post,,,,AAXX 16044 07335 36/// /3604 11042 21050 30045 40199 57001=
07335,1999-11-16 05:00:00,-5,1020.1,-0,92,-6.1,19000,3.704,,,350,,,,,,,,,,,og-post,,,,AAXX 16054 07335 32969 03502 11050 21061 30047 40201 55000=
07335,1999-11-16 06:00:00,-5.7,1020.2,0.3,93,-6.6,19000,7.408,,,320,-6,3.5,,,,,,7.2,-9,,og-post,,,,AAXX 16064 07335 32969 03204 11057 21066 30047 40202 51003 333 10035 21060 34109 55072 70000=
07335,1999-11-16 07:00:00,-6.2,1020.6,0.6,93,-7.1,12000,11.112,,,310,,,,,,,,,,,og-post,,,,AAXX 16074 07335 32962 03106 11062 21071 30051 40206 53006=
07335,1999-11-16 08:00:00,-4.4,1020.8,0.7,95,-5.1,10000,3.704,,,310,,,,,,,,,,,og-post,,,,AAXX 16084 07335 32460 13102 11044 21051 30054 40208 53007 81630 333 81710=
07335,1999-11-16 09:00:00,-1.6,1020.9,1,94,-2.4,10000,7.408,,,340,,,,,,,,,,,og-post,,,,AAXX 16094 07335 32460 13404 11016 21024 30057 40209 51010 81630 333 81710=
07335,1999-11-16 10:00:00,0.3,1020.7,0.5,87,-1.6,12000,3.704,,,310,,,,,,,,,,,og-post,,,,AAXX 16104 07335 32962 23102 10003 21016 30056 40207 50005 82030 333 82363=
07335,1999-11-16 11:00:00,2.4,1020.8,0.4,75,-1.6,15000,11.112,,,340,,,,,,,,,,,og-post,,,,AAXX 16114 07335 32965 13406 10024 21016 30058 40208 51004 81030 333 81361=
07335,1999-11-16 12:00:00,3.9,1020.1,-0.5,57,-3.8,20000,7.408,,,310,,,,,,,,,,,og-post,,,,AAXX 16124 07335 32970 13104 10039 21038 30052 40201 58005 81031 333 81361=
07335,1999-11-16 13:00:00,5,1019.6,-0.9,53,-3.8,25000,11.112,,,340,,,,,,,,,,,og-post,,,,AAXX 16134 07335 32675 13406 10050 21038 30047 40196 58009 81530 333 81633=
07335,1999-11-16 14:00:00,5.4,1019.2,-1.4,55,-2.9,25000,11.112,,,310,,,,,,,,,,,og-post,,,,AAXX 16144 07335 32775 73106 10054 21029 30044 40192 56014 8653/ 333 86650=
07335,1999-11-16 15:00:00,5.2,1019.5,-0.5,60,-1.9,25000,7.408,,,280,,,,,,,,,,,og-post,,,,AAXX 16154 07335 32575 72804 10052 21019 30047 40195 55005 875// 333 81625 87643=
07335,1999-11-16 16:00:00,4.6,1019.5,-0.1,74,0.4,15000,14.816,,,260,,,,,,,,,,61,og-post,,,,AAXX 16164 07335 21165 82608 10046 20004 30046 40195 56001 76162 875// 333 69905 82702 87625=
07335,1999-11-16 17:00:00,3.6,1019.4,0.1,80,0.5,15000,14.816,,,240,,,,,,,,,,21,og-post,,,,AAXX 16174 07335 21165 82408 10036 20005 30045 40194 50001 72162 885// 333 69905 82702 87620=
07335,1999-11-16 18:00:00,3.3,1019.5,-0.1,87,1.3,15000,14.816,,,230,-6.3,5.9,,,,,,,,21,og-post,,,,AAXX 16184 07335 /1165 82308 10033 20013 30046 40195 55001 69902 72161 885// 333 10059 21063 69907 82702 85620 87650=
07335,1999-11-16 19:00:00,1.8,1019.7,0.1,88,0,,11.112,,,240,,,,,,,,,,,og-post,,,,AAXX 16194 07335 36/// /2406 10018 20000 30047 40197 53001=
07335,1999-11-16 20:00:00,2.7,1019.6,0.1,88,0.9,,18.52,,,250,,,,,,,,,,,og-post,,,,AAXX 16204 07335 36/// /2510 10027 20009 30046 40196 50001=
07335,1999-11-16 21:00:00,3,1019.5,-0.1,87,1.1,,18.52,,,250,,,,,,,,,,,og-post,,,,AAXX 16214 07335 36/// /2510 10030 20011 30045 40195 58001=
07335,1999-11-16 22:00:00,3.5,1019.4,-0.2,89,1.9,,14.816,,,290,,,0.2,,,,,,,,og-post,,,,AAXX 16224 07335 26/// /2908 10035 20019 30045 40194 56002 333 69925=
07335,1999-11-16 23:00:00,4,1019.1,-0.4,90,2.5,,14.816,,,290,,,,,,,,,,,og-post,,,,AAXX 16234 07335 36/// /2908 10040 20025 30042 40191 58004=
07335,1999-11-17 00:00:00,3.8,1019.1,-0.3,92,2.6,,11.112,,,290,,,,0.2,0.2,,,,,,og-post,,,,AAXX 17004 07335 /6/// /2906 10038 20026 30042 40191 57003 69921 333 69927=
07335,1999-11-17 01:00:00,3.8,1018.8,-0.6,92,2.6,,14.816,,,300,,,,,,,,,,,og-post,,,,AAXX 17014 07335 36/// /3008 10038 20026 30039 40188 57006=
07335,1999-11-17 02:00:00,3.9,1018.9,-0.2,91,2.6,,11.112,,,310,,,,,,,,,,,og-post,,,,AAXX 17024 07335 36/// /3106 10039 20026 30040 40189 55002=
07335,1999-11-17 03:00:00,2,1019.2,-0,94,1.1,,11.112,,,310,,,,,,,,,,,og-post,,,,AAXX 17034 07335 36/// /3106 10020 20011 30042 40192 55000=
07335,1999-11-17 04:00:00,1.4,1019.4,0.5,95,0.7,,14.816,,,300,,,,,,,,,,,og-post,,,,AAXX 17044 07335 36/// /3008 10014 20007 30044 40194 53005=
07335,1999-11-17 05:00:00,0.6,1019.7,0.6,96,0,17000,7.408,,,300,,,,,,,,,,,og-post,,,,AAXX 17054 07335 32967 03004 10006 20000 30046 40197 52006=
07335,1999-11-17 06:00:00,0.1,1019.9,0.6,96,-0.5,15000,7.408,,,300,0.1,4.3,,,,0.2,,6.3,-4,,og-post,,,,AAXX 17064 07335 12965 03004 10001 21005 30048 40199 52006 69922 333 10043 20001 30104 55063 70002=
07335,1999-11-17 07:00:00,0.4,1020.2,0.7,97,0,15000,14.816,,,280,,,,,,,,,,,og-post,,,,AAXX 17074 07335 32765 32808 10004 20000 30051 40202 53007 83530 333 83650=
07335,1999-11-17 08:00:00,1.6,1020.4,0.8,97,1.2,20000,7.408,,,280,,,,,,,,,,,og-post,,,,AAXX 17084 07335 32770 22804 10016 20012 30054 40204 53008 82530 333 82650=
07335,1999-11-17 09:00:00,5,1020.4,0.7,88,3.2,25000,11.112,,,290,,,,,,,,,,,og-post,,,,AAXX 17094 07335 32775 22906 10050 20032 30055 40204 51007 82530 333 81650=
07335,1999-11-17 10:00:00,6,1020.3,0.4,85,3.7,25000,18.52,,,310,,,,,,,,,,,og-post,,,,AAXX 17104 07335 32675 53110 10060 20037 30055 40203 51004 82530 333 82640 84360=
07335,1999-11-17 11:00:00,7.3,1020.2,0.1,78,3.7,25000,25.928,,,320,,,,,,,,,,,og-post,,,,AAXX 17114 07335 32475 73214 10073 20037 30055 40202 51001 82530 333 81819 83637 85360=
07335,1999-11-17 12:00:00,7.5,1019.6,-0.6,80,4.3,20000,25.928,,,330,,,,,,,,,,,og-post,,,,AAXX 17124 07335 32570 73314 10075 20043 30049 40196 58006 86830 333 84820 84636=
07335,1999-11-17 13:00:00,8,1019.5,-0.7,77,4.2,25000,25.928,,,320,,,,,,,,,,,og-post,,,,AAXX 17134 07335 32575 73214 10080 20042 30048 40195 58007 8683/ 333 84820 83626=
07335,1999-11-17 14:00:00,7.9,1019.4,-0.8,75,3.8,25000,29.632,,,320,,,,,,,,,,,og-post,,,,AAXX 17144 07335 32575 63216 10079 20038 30047 40194 56008 85830 333 83820 84630=
07335,1999-11-17 15:00:00,7.8,1019.7,0.1,68,2.3,25000,25.928,,,330,,,,,,,,,,,og-post,,,,AAXX 17154 07335 32575 43314 10078 20023 30050 40197 53001 83830 333 82821=
07335,1999-11-17 16:00:00,4.7,1020.6,0.9,83,2.1,15000,29.632,,,10,,,,,,,,,,80,og-post,,,,AAXX 17164 07335 21165 70116 10047 20021 30057 40206 53009 78086 878// 333 69905 81703 85826=
07335,1999-11-17 17:00:00,4.1,1021.1,1.5,89,2.5,15000,25.928,,,340,,,0.2,,,,,,,80,og-post,,,,AAXX 17174 07335 21165 73414 10041 20025 30062 40211 53015 78086 878// 333 69925 81703 85826=
07335,1999-11-17 18:00:00,3.3,1021.9,1.9,90,1.8,20000,7.408,,,330,-0.2,8.3,,0.2,,0.2,,,,1,og-post,,,,AAXX 17184 07335 /1670 13304 10033 20018 30069 40219 52019 69922 70186 81500 333 10083 21002 69927 81633=
07335,1999-11-17 19:00:00,1.4,1022.6,1.8,94,0.5,,7.408,,,300,,,,,,,,,,,og-post,,,,AAXX 17194 07335 36/// /3004 10014 20005 30075 40226 53018=
07335,1999-11-17 20:00:00,2.1,1022.9,1.6,96,1.5,,3.704,,,300,,,,,,,,,,,og-post,,,,AAXX 17204 07335 36/// /3002 10021 20015 30078 40229 51016=
07335,1999-11-17 21:00:00,1.9,1023,1,95,1.2,,14.816,,,290,,,,,,,,,,,og-post,,,,AAXX 17214 07335 36/// /2908 10019 20012 30079 40230 51010=
07335,1999-11-17 22:00:00,2.1,1023.3,0.7,92,0.9,,11.112,,,280,,,,,,,,,,,og-post,,,,AAXX 17224 07335 36/// /2806 10021 20009 30082 40233 52007=
07335,1999-11-17 23:00:00,2.5,1023.1,0.3,93,1.5,,11.112,,,300,,,,,,,,,,,og-post,,,,AAXX 17234 07335 36/// /3006 10025 20015 30081 40231 50003=
07335,1999-11-18 00:00:00,3.6,1022.7,-0.2,91,2.3,,11.112,,,280,,,,,,,,,,,og-post,,,,AAXX 18004 07335 36/// /2806 10036 20023 30077 40227 58002=
07335,1999-11-18 01:00:00,2.7,1022.4,-0.8,94,1.8,,11.112,,,260,,,,,,,,,,,og-post,,,,AAXX 18014 07335 36/// /2606 10027 20018 30074 40224 58008=
07335,1999-11-18 02:00:00,2.8,1021.6,-1.5,94,1.9,,11.112,,,240,,,,,,,,,,,og-post,,,,AAXX 18024 07335 36/// /2406 10028 20019 30066 40216 58015=
07335,1999-11-18 03:00:00,3.1,1020.9,-1.8,96,2.5,,14.816,,,230,,,,,,,,,,,og-post,,,,AAXX 18034 07335 36/// /2308 10031 20025 30059 40209 58018=
07335,1999-11-18 04:00:00,3.5,1020.1,-2.2,96,2.9,,14.816,,,230,,,0.2,,,,,,,,og-post,,,,AAXX 18044 07335 26/// /2308 10035 20029 30052 40201 56022 333 69925=
07335,1999-11-18 05:00:00,3.7,1019.1,-2.4,97,3.3,,14.816,,,230,,,0.6,,,,,,,,og-post,,,,AAXX 18054 07335 26/// /2308 10037 20033 30042 40191 58024 333 69965=
07335,1999-11-18 06:00:00,4,1017.5,-3.3,97,3.6,3000,18.52,,,210,1.3,4,,2,,2,2.2,3.5,-3,63,og-post,,,,AAXX 18064 07335 /1230 82110 10040 20036 30026 40175 58033 60022 76362 875// 333 10040 20013 32103 55035 60027 70022 84703 87623=
07335,1999-11-18 07:00:00,4.5,1015.7,-4.3,97,4.1,5000,18.52,,,220,,,0.2,,,,,,,61,og-post,,,,AAXX 18074 07335 21250 82210 10045 20041 30009 40157 58043 76166 885// 333 69925 84706 84613 87626=
07335,1999-11-18 08:00:00,5.1,1014.7,-4.3,97,4.7,5000,22.224,,,240,,,0.4,,,,,,,61,og-post,,,,AAXX 18084 07335 21250 82412 10051 20047 39999 40147 56043 76166 885// 333 69945 84705 87615=
07335,1999-11-18 09:00:00,6.1,1013.4,-3.9,98,5.8,5000,22.224,,,240,,,,0.8,,,,,,61,og-post,,,,AAXX 18094 07335 21250 82412 10061 20058 39987 40134 56039 76166 885// 333 69987 84704 87616=
07335,1999-11-18 10:00:00,8,1012.2,-3.3,97,7.6,7000,25.928,,,260,,,,,,,,,,21,og-post,,,,AAXX 18104 07335 21357 82614 10080 20076 39976 40122 58033 72162 885// 333 69905 84706 87620=
07335,1999-11-18 11:00:00,9.6,1011.2,-3.2,92,8.4,10000,25.928,,,280,,,,,,,,,,,og-post,,,,AAXX 18114 07335 32460 82814 10096 20084 39967 40112 56032 885// 333 83611 85621 87650=
07335,1999-11-18 12:00:00,10.5,1009.5,-3.6,89,8.8,10000,25.928,,,280,,,,,0.8,,,,,1,og-post,,,,AAXX 18124 07335 /1460 82814 10105 20088 39951 40095 58036 69981 70162 885// 333 69907 85616 87641=
07335,1999-11-18 13:00:00,10.2,1008.3,-3.7,94,9.3,3500,25.928,,,280,,,,,,,,,,61,og-post,,,,AAXX 18134 07335 21335 82814 10102 20093 39939 40083 58037 76162 885// 333 69905 84706 84615 87623=
07335,1999-11-18 14:00:00,10.9,1006.2,-4.8,91,9.5,7000,22.224,,,260,,,,,,,,,,21,og-post,,,,AAXX 18144 07335 21257 82612 10109 20095 39919 40062 58048 72162 885// 333 69905 84704 87616=
07335,1999-11-18 15:00:00,10.5,1004.7,-4.7,95,9.7,3000,25.928,,,260,,,,1,,,,,,61,og-post,,,,AAXX 18154 07335 21230 82614 10105 20097 39904 40047 58047 76162 885// 333 60017 84706 87616=
07335,1999-11-18 16:00:00,8.9,1005.4,-2.9,97,8.4,3500,22.224,50.004,,330,,,5,,,,,,,61,og-post,,,,AAXX 18164 07335 21335 83312 10089 20084 39910 40054 55029 76166 885// 333 60055 84706 85615 87633 91127=
07335,1999-11-18 19:00:00,5.1,1010.2,4.5,87,3.1,,25.928,,,20,,,,,,,,,,,og-post,,,,AAXX 18194 07335 36/// /0214 10051 20031 39955 40102 53045=
07335,1999-11-18 20:00:00,4,1011.8,4.9,87,2,,22.224,,,20,,,,,,,,,,,og-post,,,,AAXX 18204 07335 36/// /0212 10040 20020 39970 40118 51049=
07335,1999-11-18 21:00:00,2.4,1013.1,4.1,86,0.3,,11.112,,,340,,,,,,,,,,,og-post,,,,AAXX 18214 07335 36/// /3406 10024 20003 39982 40131 51041=
07335,1999-11-18 22:00:00,1.7,1013.8,3.4,90,0.2,,11.112,,,340,,,,,,,,,,,og-post,,,,AAXX 18224 07335 36/// /3406 10017 20002 39989 40138 51034=
07335,1999-11-18 23:00:00,1.5,1014.2,2.2,89,-0.1,,18.52,,,320,,,,,,,,,,,og-post,,,,AAXX 18234 07335 36/// /3210 10015 21001 39992 40142 51022=
07335,1999-11-19 00:00:00,1.1,1014.7,1.5,91,-0.2,,18.52,,,320,,,,,,,,,,,og-post,,,,AAXX 19004 07335 36/// /3210 10011 21002 39997 40147 51015=
07335,1999-11-19 01:00:00,1.7,1014.7,0.8,89,0.1,,22.224,,,320,,,,,,,,,,,og-post,,,,AAXX 19014 07335 36/// /3212 10017 20001 39997 40147 51008=
07335,1999-11-19 02:00:00,1.8,1015.4,1.2,87,-0.1,,25.928,,,330,,,,,,,,,,,og-post,,,,AAXX 19024 07335 36/// /3314 10018 21001 30004 40154 53012=
07335,1999-11-19 03:00:00,1.9,1015.5,0.8,88,0.1,,22.224,,,330,,,,,,,,,,,og-post,,,,AAXX 19034 07335 36/// /3312 10019 20001 30005 40155 53008=
07335,1999-11-19 04:00:00,1.6,1015.8,1.1,89,0,,22.224,,,330,,,,,,,,,,,og-post,,,,AAXX 19044 07335 36/// /3312 10016 20000 30008 40158 51011=
07335,1999-11-19 06:00:00,0.9,1016.1,0.6,93,-0.1,8000,14.816,,,330,0.8,6.3,,,,,,,-1,,og-post,,,,AAXX 19064 07335 32958 03308 10009 21001 30011 40161 51006 333 10063 20008 31101 55000 70090=
07335,1999-11-19 07:00:00,1.4,1016.1,0.3,93,0.4,8000,22.224,,,330,,,,,,,,,,,og-post,,,,AAXX 19074 07335 32658 13312 10014 20004 30011 40161 51003 81500 333 81633=
07335,1999-11-19 08:00:00,1.9,1015.7,-0.3,92,0.7,12000,22.224,,,310,,,,,,,,,,,og-post,,,,AAXX 19084 07335 32562 23112 10019 20007 30007 40157 58003 81532 333 81626=
07335,1999-11-19 09:00:00,3.5,1015.4,-0.6,89,1.9,12000,22.224,,,320,,,,,,,,,,,og-post,,,,AAXX 19094 07335 32562 23212 10035 20019 30005 40154 58006 82532 333 82626=
07335,1999-11-19 10:00:00,5.3,1015.1,-0.8,83,2.7,15000,29.632,,,330,,,,,,,,,,,og-post,,,,AAXX 19104 07335 32365 53316 10053 20027 30003 40151 56008 84532 333 81708 84638=
07335,1999-11-19 11:00:00,5.8,1014.7,-0.7,82,3,15000,29.632,,,330,,,,,,,,,,,og-post,,,,AAXX 19114 07335 32365 53316 10058 20030 30000 40147 58007 85532 333 81708 85638=
07335,1999-11-19 12:00:00,5.7,1014.3,-0.9,80,2.5,8000,25.928,,,340,,,,,,,,,,61,og-post,,,,AAXX 19124 07335 /1358 73414 10057 20025 39996 40143 58009 69901 76161 875// 333 69907 82706 84616 87635=
07335,1999-11-19 13:00:00,5.8,1013.8,-1.2,80,2.6,,25.928,,,310,,,,,,,,,,,og-post,,,,AAXX 19134 07335 26/// /3114 10058 20026 39991 40138 58012 333 69905=
07335,1999-11-19 14:00:00,3.2,1013.7,-1.2,93,2.2,10000,11.112,,,320,,,4,,,,,,,29,og-post,,,,AAXX 19144 07335 21360 73206 10032 20022 39988 40137 56012 72998 875// 333 60045 82706 81915 87635=
07335,1999-11-19 15:00:00,5.5,1012.7,-1.6,86,3.3,12000,18.52,,,330,,,,4,,,,,,1,og-post,,,,AAXX 19154 07335 21262 73310 10055 20033 39980 40127 58016 70198 879// 333 60047 81705 81915 84628 86650=
07335,1999-11-19 16:00:00,5.4,1012.5,-1.3,86,3.3,5000,25.928,,,340,,,,,,,,,,80,og-post,,,,AAXX 19164 07335 21250 73414 10054 20033 39978 40125 56013 78086 879// 333 69905 82703 81915 85628 87650=
07335,1999-11-19 17:00:00,4.3,1013.5,-0.1,89,2.7,10000,29.632,,,10,,,0.4,,,,,,,25,og-post,,,,AAXX 19174 07335 21260 70116 10043 20027 39987 40135 55001 72586 879// 333 69945 82703 81915 85623 85640=
07335,1999-11-19 18:00:00,2.9,1014.2,1.3,91,1.6,15000,22.224,,,350,0.9,6.2,,0.4,,4,,,,1,og-post,,,,AAXX 19184 07335 /1265 33512 10029 20016 39993 40142 53013 60042 70198 83830 333 10062 20009 69947 81705 83640=
07335,1999-11-19 19:00:00,3.1,1014.7,2,90,1.6,,22.224,,,350,,,,,,,,,,,og-post,,,,AAXX 19194 07335 36/// /3512 10031 20016 39998 40147 51020=
07335,1999-11-19 20:00:00,3.1,1015.1,1.5,87,1.2,,25.928,,,10,,,,,,,,,,,og-post,,,,AAXX 19204 07335 36/// /0114 10031 20012 30002 40151 51015=
07335,1999-11-19 21:00:00,2.6,1015.7,1.5,89,1,,25.928,,,20,,,,,,,,,,,og-post,,,,AAXX 19214 07335 36/// /0214 10026 20010 30008 40157 53015=
07335,1999-11-19 22:00:00,1.5,1016.6,1.8,84,-0.9,,29.632,,,40,,,,,,,,,,,og-post,,,,AAXX 19224 07335 36/// /0416 10015 21009 30016 40166 53018=
07335,1999-11-19 23:00:00,1.2,1017.1,1.9,86,-0.9,,18.52,,,20,,,,,,,,,,,og-post,,,,AAXX 19234 07335 36/// /0210 10012 21009 30021 40171 51019=
07335,1999-11-20 00:00:00,0.1,1017.6,1.7,88,-1.6,,18.52,,,10,,,,,,,,,,,og-post,,,,AAXX 20004 07335 36/// /0110 10001 21016 30025 40176 51017=
07335,1999-11-20 01:00:00,0.1,1017.4,0.7,90,-1.3,,14.816,,,360,,,,,,,,,,,og-post,,,,AAXX 20014 07335 36/// /3608 10001 21013 30023 40174 50007=
07335,1999-11-20 02:00:00,0.1,1017.6,0.4,88,-1.6,,18.52,,,20,,,,,,,,,,,og-post,,,,AAXX 20024 07335 36/// /0210 10001 21016 30025 40176 51004=
07335,1999-11-20 03:00:00,-0.3,1017.3,-0.3,89,-1.9,,14.816,,,20,,,,,,,,,,,og-post,,,,AAXX 20034 07335 36/// /0208 11003 21019 30022 40173 58003=
07335,1999-11-20 04:00:00,-1,1017.3,-0.1,92,-2.1,,14.816,,,10,,,,,,,,,,,og-post,,,,AAXX 20044 07335 36/// /0108 11010 21021 30022 40173 58001=
07335,1999-11-20 05:00:00,-0.8,1017.1,-0.5,91,-2.1,10000,14.816,,,20,,,,,,,,,,,og-post,,,,AAXX 20054 07335 32960 30208 11008 21021 30020 40171 56005 80002 333 83073=
07335,1999-11-20 06:00:00,-0.5,1017,-0.3,92,-1.6,10000,11.112,,,10,-1,3.5,,,,,4.2,3.2,-2,,og-post,,,,AAXX 20064 07335 32560 80106 11005 21016 30019 40170 58003 885// 333 10035 21010 31102 55032 70042 88623=
07335,1999-11-20 07:00:00,-0.3,1016.5,-0.8,93,-1.3,6000,11.112,,,350,,,,,,,,,,,og-post,,,,AAXX 20074 07335 32556 83506 11003 21013 30014 40165 58008 885// 333 88623=
07335,1999-11-20 08:00:00,-0.3,1016.8,-0.3,94,-1.1,1500,14.816,,,350,,,,,,,,,,85,og-post,,,,AAXX 20084 07335 21115 83508 11003 21011 30017 40168 55003 78587 885// 333 69905 82703 88611=
07335,1999-11-20 09:00:00,0.2,1016.5,-0.5,96,-0.4,3000,18.52,,,360,,,,,,,,,,26,og-post,,,,AAXX 20094 07335 21230 83610 10002 21004 30014 40165 56005 72687 875// 333 69907 83705 87608=
07335,1999-11-20 10:00:00,1.2,1016.4,0,94,0.3,3000,22.224,,,10,,,,,,,,,,10,og-post,,,,AAXX 20104 07335 31230 80112 10012 20003 30014 40164 50000 71022 886// 333 87704=
07335,1999-11-20 11:00:00,0.9,1016.3,-0.4,96,0.3,2000,18.52,,,10,,,,,,,,,,70,og-post,,,,AAXX 20114 07335 21220 80110 10009 20003 30013 40163 56004 77072 887// 333 69905 87704=
07335,1999-11-20 12:00:00,1.6,1015.8,-0.6,94,0.7,5000,22.224,,,20,,,,,,,,,,22,og-post,,,,AAXX 20124 07335 /1350 80212 10016 20007 30008 40158 58006 69901 72287 886// 333 69907 87708=
07335,1999-11-20 13:00:00,2.3,1015.2,-1.1,91,1,7000,18.52,,,30,,,,,,,,,,,og-post,,,,AAXX 20134 07335 32457 70310 10023 20010 30003 40152 58011 875// 333 83611 85620=
07335,1999-11-20 14:00:00,2.6,1014.6,-1.6,87,0.7,10000,18.52,,,30,,,,,,,,,,,og-post,,,,AAXX 20144 07335 32460 70310 10026 20007 39997 40146 58016 875// 333 82611 87640=
07335,1999-11-20 15:00:00,2.5,1014.4,-1.3,85,0.2,10000,18.52,,,30,,,,,,,,,,,og-post,,,,AAXX 20154 07335 32460 70310 10025 20002 39995 40144 56013 8587/ 333 83816 83643 86359=
07335,1999-11-20 16:00:00,2.3,1014.6,-0.6,82,-0.4,10000,14.816,,,50,,,,,,,,,,,og-post,,,,AAXX 20164 07335 32460 80508 10023 21004 39997 40146 55006 8687/ 333 82816 84643 86359=
07335,1999-11-20 17:00:00,1.9,1014.7,0.1,88,0.1,,14.816,,,50,,,,,,,,,,,og-post,,,,AAXX 20174 07335 36/// /0508 10019 20001 39998 40147 53001=
07335,1999-11-20 18:00:00,1.1,1015,0.5,93,0.1,,11.112,,,50,-0.5,2.9,,,,,,,,,og-post,,,,AAXX 20184 07335 16/// /0506 10011 20001 30000 40150 52005 69902 333 10029 21005=
07335,1999-11-20 19:00:00,0.7,1015.1,0.4,96,0.1,,11.112,,,20,,,,,,,,,,,og-post,,,,AAXX 20194 07335 36/// /0206 10007 20001 30001 40151 52004=
07335,1999-11-20 20:00:00,0.8,1015.6,0.8,95,0.1,,22.224,,,40,,,,,,,,,,,og-post,,,,AAXX 20204 07335 36/// /0412 10008 20001 30006 40156 53008=
07335,1999-11-20 21:00:00,0.9,1015.6,0.6,95,0.2,,14.816,,,40,,,,,,,,,,,og-post,,,,AAXX 20214 07335 36/// /0408 10009 20002 30006 40156 51006=
07335,1999-11-20 22:00:00,1.1,1015.5,0.4,94,0.2,,18.52,,,40,,,,,,,,,,,og-post,,,,AAXX 20224 07335 36/// /0410 10011 20002 30005 40155 50004=
07335,1999-11-20 23:00:00,1.2,1015.5,-0.1,93,0.2,,18.52,,,40,,,,,,,,,,,og-post,,,,AAXX 20234 07335 36/// /0410 10012 20002 30005 40155 57001=
07335,1999-11-21 00:00:00,1.1,1015.3,-0.3,92,-0.1,,18.52,,,40,,,,,,,,,,,og-post,,,,AAXX 21004 07335 36/// /0410 10011 21001 30003 40153 58003=
07335,1999-11-21 01:00:00,1.2,1015.1,-0.4,92,0,,22.224,,,40,,,,,,,,,,,og-post,,,,AAXX 21014 07335 36/// /0412 10012 20000 30001 40151 58004=
07335,1999-11-21 02:00:00,0.9,1015.1,-0.4,92,-0.2,,22.224,,,40,,,,,,,,,,,og-post,,,,AAXX 21024 07335 36/// /0412 10009 21002 30001 40151 56004=
07335,1999-11-21 03:00:00,0.6,1015.1,-0.2,89,-1,,25.928,,,40,,,,,,,,,,,og-post,,,,AAXX 21034 07335 36/// /0414 10006 21010 30001 40151 56002=
07335,1999-11-21 04:00:00,0.4,1014.8,-0.3,89,-1.2,,18.52,,,40,,,,,,,,,,,og-post,,,,AAXX 21044 07335 36/// /0410 10004 21012 39998 40148 58003=
07335,1999-11-21 05:00:00,0.5,1014.9,-0.2,88,-1.3,,25.928,,,40,,,,,,,,,,,og-post,,,,AAXX 21054 07335 36/// /0414 10005 21013 39999 40149 55002=
07335,1999-11-21 06:00:00,0.5,1014.9,-0.2,85,-1.7,10000,25.928,,,30,0.4,1.2,,,,,0,,-0,,og-post,,,,AAXX 21064 07335 32560 70314 10005 21017 39999 40149 56002 875// 333 10012 20004 31100 55000 79999 87620=
07335,1999-11-21 07:00:00,0.1,1015.1,0.2,87,-1.8,18000,22.224,,,30,,,,,,,,,,,og-post,,,,AAXX 21074 07335 32468 70312 10001 21018 30000 40151 52002 875// 333 81614 87621=
07335,1999-11-21 08:00:00,0.2,1015.5,0.5,81,-2.7,20000,29.632,,,40,,,,,,,,,,,og-post,,,,AAXX 21084 07335 32470 70416 10002 21027 30004 40155 53005 875// 333 83615 87620=
07335,1999-11-21 09:00:00,0.5,1015.4,0.5,81,-2.4,20000,22.224,,,30,,,,,,,,,,,og-post,,,,AAXX 21094 07335 32570 70312 10005 21024 30004 40154 51005 875// 333 87620=
07335,1999-11-21 10:00:00,0.7,1015.8,0.8,79,-2.5,25000,25.928,,,30,,,,,,,,,,,og-post,,,,AAXX 21104 07335 32475 70314 10007 21025 30008 40158 52008 875// 333 87615=
07335,1999-11-21 11:00:00,0.9,1015.7,0.3,78,-2.5,25000,29.632,,,20,,,,,,,,,,,og-post,,,,AAXX 21114 07335 32475 70216 10009 21025 30007 40157 50003 85201 333 85815 83073=
07335,1999-11-21 12:00:00,1.8,1015.6,0.2,74,-2.3,25000,25.928,,,30,,,,,,,,,,,og-post,,,,AAXX 21124 07335 32475 70314 10018 21023 30006 40156 50002 872// 333 87819=
07335,1999-11-21 13:00:00,1.9,1015.4,-0.4,69,-3.2,25000,25.928,,,40,,,,,,,,,,,og-post,,,,AAXX 21134 07335 32475 70414 10019 21032 30004 40154 58004 878// 333 82818 87626=
07335,1999-11-21 14:00:00,1.1,1015.2,-0.5,77,-2.5,25000,22.224,,,20,,,,,,,,,,,og-post,,,,AAXX 21144 07335 32475 70212 10011 21025 30002 40152 58005 878// 333 84816 87628=
07335,1999-11-21 15:00:00,1.2,1015.1,-0.5,70,-3.6,25000,18.52,,,40,,,,,,,,,,,og-post,,,,AAXX 21154 07335 32575 70410 10012 21036 30001 40151 56005 878// 333 84820 87626=
07335,1999-11-21 16:00:00,0.9,1015.5,0.1,78,-2.5,25000,14.816,,,20,,,,,,,,,,,og-post,,,,AAXX 21164 07335 32575 70208 10009 21025 30005 40155 53001 878// 333 81825 87630=
07335,1999-11-21 17:00:00,0.5,1015.8,0.6,84,-1.9,,14.816,,,360,,,,,,,,,,,og-post,,,,AAXX 21174 07335 36/// /3608 10005 21019 30008 40158 53006=
07335,1999-11-21 18:00:00,0.4,1016.4,1.2,85,-1.8,,11.112,,,360,0.1,2.1,,,,,,,,,og-post,,,,AAXX 21184 07335 36/// /3606 10004 21018 30013 40164 53012 333 10021 20001=
07335,1999-11-21 19:00:00,0.3,1016.9,1.3,89,-1.3,,14.816,,,360,,,,,,,,,,,og-post,,,,AAXX 21194 07335 36/// /3608 10003 21013 30018 40169 53013=
07335,1999-11-21 20:00:00,0.3,1017,1.1,87,-1.6,,14.816,,,10,,,,,,,,,,,og-post,,,,AAXX 21204 07335 36/// /0108 10003 21016 30019 40170 51011=
07335,1999-11-21 21:00:00,0.2,1017.2,0.8,88,-1.5,,14.816,,,10,,,,,,,,,,,og-post,,,,AAXX 21214 07335 36/// /0108 10002 21015 30021 40172 51008=
07335,1999-11-21 22:00:00,0.1,1017.5,0.6,86,-2,,11.112,,,20,,,,,,,,,,,og-post,,,,AAXX 21224 07335 36/// /0206 10001 21020 30024 40175 53006=
07335,1999-11-21 23:00:00,-0.1,1017.8,0.8,86,-2.2,,11.112,,,360,,,,,,,,,,,og-post,,,,AAXX 21234 07335 36/// /3606 11001 21022 30027 40178 53008=
07335,1999-11-22 00:00:00,-0.4,1018,0.8,86,-2.4,,11.112,,,360,,,,,,,,,,,og-post,,,,AAXX 22004 07335 36/// /3606 11004 21024 30029 40180 51008=
07335,1999-11-22 01:00:00,-1.1,1018.3,0.7,90,-2.5,,7.408,,,350,,,,,,,,,,,og-post,,,,AAXX 22014 07335 36/// /3504 11011 21025 30031 40183 51007=
07335,1999-11-22 02:00:00,-1,1018.6,0.7,88,-2.7,,7.408,,,360,,,,,,,,,,,og-post,,,,AAXX 22024 07335 36/// /3604 11010 21027 30034 40186 53007=
07335,1999-11-22 03:00:00,-1.6,1018.7,0.6,89,-3.2,,11.112,,,360,,,,,,,,,,,og-post,,,,AAXX 22034 07335 36/// /3606 11016 21032 30035 40187 51006=
07335,1999-11-22 04:00:00,-3.8,1019.3,0.9,89,-5.3,,7.408,,,330,,,,,,,,,,,og-post,,,,AAXX 22044 07335 36/// /3304 11038 21053 30040 40193 53009=
07335,1999-11-22 05:00:00,-4.4,1019.6,0.8,94,-5.2,,7.408,,,330,,,,,,,,,,,og-post,,,,AAXX 22054 07335 36/// /3304 11044 21052 30042 40196 53008=
07335,1999-11-22 06:00:00,-5.9,1020.1,1.1,92,-7,8000,7.408,,,310,-5.9,0.4,,,,,0,0.6,-9,,og-post,,,,AAXX 22064 07335 32658 13104 11059 21070 30046 40201 51011 81500 333 10004 21059 30109 55006 70000 81640=
07335,1999-11-22 07:00:00,-4.5,1020.5,1.1,96,-5,3000,,,,,,,,,,,,,,10,og-post,,,,AAXX 22074 07335 31630 10000 11045 21050 30051 40205 53011 71000 81502 333 81640=
07335,1999-11-22 08:00:00,-4.3,1021.6,2,96,-4.8,3000,3.704,,,290,,,,,,,,,,10,og-post,,,,AAXX 22084 07335 31630 32902 11043 21048 30062 40216 53020 71000 81532 333 81633=
07335,1999-11-22 09:00:00,-1.9,1022.1,2.2,95,-2.6,3500,7.408,,,300,,,,,,,,,,10,og-post,,,,AAXX 22094 07335 31635 33004 11019 21026 30068 40221 53022 71000 83532 333 83633=
07335,1999-11-22 10:00:00,-0.3,1022.3,2,89,-1.9,4500,7.408,,,250,,,,,,,,,,10,og-post,,,,AAXX 22104 07335 31645 72504 11003 21019 30071 40223 51020 71011 875// 333 87638=
07335,1999-11-22 11:00:00,0.6,1022.5,1.2,79,-2.6,5000,7.408,,,260,,,,,,,,,,,og-post,,,,AAXX 22114 07335 32550 72604 10006 21026 30074 40225 51012 875// 333 87631=
07335,1999-11-22 12:00:00,1,1022.2,0.3,79,-2.2,6000,7.408,,,230,,,,,,,,,,,og-post,,,,AAXX 22124 07335 32556 72304 10010 21022 30071 40222 50003 875// 333 87623=
07335,1999-11-22 13:00:00,1.2,1022.2,0,76,-2.5,6000,11.112,,,230,,,,,,,,,,,og-post,,,,AAXX 22134 07335 32556 82306 10012 21025 30071 40222 50000 875// 333 87622=
07335,1999-11-22 14:00:00,1.7,1022.1,-0.4,74,-2.4,6000,14.816,,,220,,,,,,,,,,,og-post,,,,AAXX 22144 07335 32456 82208 10017 21024 30070 40221 56004 875// 333 87618=
07335,1999-11-22 15:00:00,1.7,1022.5,0.3,77,-1.9,6000,14.816,,,220,,,,,,,,,,,og-post,,,,AAXX 22154 07335 32556 82208 10017 21019 30074 40225 53003 875// 333 87620=
07335,1999-11-22 16:00:00,1.6,1023.1,0.9,79,-1.6,5000,14.816,,,220,,,,,,,,,,,og-post,,,,AAXX 22164 07335 32450 82208 10016 21016 30080 40231 53009 875// 333 87616=
07335,1999-11-22 17:00:00,1.2,1023.5,1.4,84,-1.2,4000,18.52,,,220,,,,,,,,,,61,og-post,,,,AAXX 22174 07335 21140 82210 10012 21012 30084 40235 52014 76162 875// 333 69905 85703 87615=
07335,1999-11-22 18:00:00,1.3,1023.5,1,83,-1.3,6000,18.52,,,230,-6,1.8,,,,,,,,21,og-post,,,,AAXX 22184 07335 /1156 82310 10013 21013 30084 40235 51010 69902 72162 875// 333 10018 21060 69907 81703 87630=
07335,1999-11-22 19:00:00,1.5,1023.9,0.8,81,-1.4,,14.816,,,220,,,,,,,,,,,og-post,,,,AAXX 22194 07335 36/// /2208 10015 21014 30088 40239 52008=
07335,1999-11-22 20:00:00,1.7,1024.2,0.7,83,-0.9,,18.52,,,210,,,,,,,,,,,og-post,,,,AAXX 22204 07335 36/// /2110 10017 21009 30091 40242 53007=
07335,1999-11-22 21:00:00,1.4,1024.4,0.9,92,0.2,1900,14.816,,,210,,,,,,,,,,,og-post,,,,AAXX 22214 07335 36/19 /2108 10014 20002 30093 40244 51009=
07335,1999-11-22 22:00:00,1.5,1024.8,0.9,96,0.9,1300,14.816,,,200,,,0.2,,,,,,,,og-post,,,,AAXX 22224 07335 26/13 /2008 10015 20009 30097 40248 53009 333 69925=
07335,1999-11-22 23:00:00,1.9,1024.8,0.6,97,1.5,1400,18.52,,,200,,,,,,,,,,,og-post,,,,AAXX 22234 07335 36/14 /2010 10019 20015 30097 40248 51006=
07335,1999-11-23 00:00:00,2.3,1024.8,0.4,97,1.9,1500,18.52,,,200,,,,0.2,0.2,,,,,,og-post,,,,AAXX 23004 07335 /6/15 /2010 10023 20019 30097 40248 51004 69921 333 69927=
07335,1999-11-23 01:00:00,2.7,1024.7,-0,98,2.4,1500,18.52,,,210,,,,,,,,,,,og-post,,,,AAXX 23014 07335 36/15 /2110 10027 20024 30097 40247 54000=
07335,1999-11-23 02:00:00,2.8,1024.9,0.2,98,2.5,1300,18.52,,,220,,,,,,,,,,,og-post,,,,AAXX 23024 07335 36/13 /2210 10028 20025 30099 40249 53002=
07335,1999-11-23 03:00:00,3,1024.9,0.2,98,2.7,1200,18.52,,,220,,,,,,,,,,,og-post,,,,AAXX 23034 07335 36/12 /2210 10030 20027 30099 40249 52002=
07335,1999-11-23 04:00:00,3.1,1025,0.3,98,2.8,1500,11.112,,,200,,,0.2,,,,,,,,og-post,,,,AAXX 23044 07335 26/15 /2006 10031 20028 30100 40250 51003 333 69925=
07335,1999-11-23 05:00:00,3.2,1025.3,0.4,98,2.9,1800,11.112,,,200,,,,,,,,,,10,og-post,,,,AAXX 23054 07335 31118 82006 10032 20029 30103 40253 53004 71022 876// 333 31/// 87702=
07335,1999-11-23 06:00:00,3.4,1025.8,0.9,98,3.1,800,7.408,,,220,1.3,3.4,,0.2,,0.4,0.4,1.8,1,46,og-post,,,,AAXX 23064 07335 /1008 82204 10034 20031 30108 40258 53009 69942 74642 876// 333 10034 20013 31001 55018 69927 70004 87701=
07335,1999-11-23 07:00:00,3.4,1025.8,0.8,98,3.1,500,14.816,,,200,,,,,,,,,,46,og-post,,,,AAXX 23074 07335 31005 82008 10034 20031 30108 40258 51008 74644 886// 333 88701=
07335,1999-11-23 08:00:00,3.6,1026.5,1.2,99,3.5,300,11.112,,,220,,,,,,,,,,46,og-post,,,,AAXX 23084 07335 31003 82206 10036 20035 30115 40265 53012 74644 886// 333 88701=
07335,1999-11-23 09:00:00,3.9,1027,1.2,99,3.8,300,11.112,,,230,,,,,,,,,,44,og-post,,,,AAXX 23094 07335 31003 82306 10039 20038 30120 40270 53012 74444 886// 333 88701=
07335,1999-11-23 10:00:00,4.4,1027.2,1.4,99,4.3,1000,14.816,,,230,,,,,,,,,,28,og-post,,,,AAXX 23104 07335 31110 82308 10044 20043 30122 40272 51014 72842 886// 333 88702=
07335,1999-11-23 11:00:00,5,1027.5,1,99,4.9,1500,11.112,,,250,,,,,,,,,,10,og-post,,,,AAXX 23114 07335 31115 82506 10050 20049 30125 40275 51010 71022 886// 333 88702=
07335,1999-11-23 12:00:00,5.5,1027.2,0.3,99,5.4,2500,7.408,,,280,,,,,,,,,,10,og-post,,,,AAXX 23124 07335 31125 82804 10055 20054 30123 40272 50003 71042 886// 333 88702=
07335,1999-11-23 13:00:00,6.4,1027,-0.1,99,6.3,6000,7.408,,,220,,,,,,,,,,,og-post,,,,AAXX 23134 07335 32156 72204 10064 20063 30121 40270 58001 876// 333 87702=
07335,1999-11-23 14:00:00,7.4,1026.6,-0.7,91,6,8000,7.408,,,230,,,,,,,,,,,og-post,,,,AAXX 23144 07335 32158 72304 10074 20060 30118 40266 58007 876// 333 83703 86706=
07335,1999-11-23 15:00:00,7,1026.7,-0.4,93,5.9,6000,11.112,,,210,,,,,,,,,,,og-post,,,,AAXX 23154 07335 32256 72106 10070 20059 30119 40267 55004 875// 333 83706 87650=
07335,1999-11-23 16:00:00,6.3,1027,-0,96,5.7,4000,11.112,,,210,,,,,,,,,,61,og-post,,,,AAXX 23164 07335 21240 72106 10063 20057 30121 40270 55000 76162 877// 333 69905 87703=
07335,1999-11-23 17:00:00,5.9,1027.3,0.6,97,5.5,4000,11.112,,,210,,,,,,,,,,21,og-post,,,,AAXX 23174 07335 21140 82106 10059 20055 30124 40273 53006 72162 886// 333 69905 88702=
07335,1999-11-23 18:00:00,6,1027.7,0.9,98,5.7,3500,14.816,,,220,3.4,8.5,,,,,,,,10,og-post,,,,AAXX 23184 07335 /1135 82208 10060 20057 30128 40277 53009 69902 71062 886// 333 10085 20034 69907 88702=
07335,1999-11-23 19:00:00,6,1027.9,0.9,98,5.7,1200,14.816,,,240,,,,,,,,,,,og-post,,,,AAXX 23194 07335 36/12 /2408 10060 20057 30130 40279 51009=
07335,1999-11-23 20:00:00,5.8,1028.1,0.8,98,5.5,1500,11.112,,,240,,,,,,,,,,,og-post,,,,AAXX 23204 07335 36/15 /2406 10058 20055 30132 40281 51008=
07335,1999-11-23 21:00:00,5.7,1028.3,0.6,98,5.4,1200,11.112,,,230,,,,,,,,,,,og-post,,,,AAXX 23214 07335 36/12 /2306 10057 2005430134 40283 52006=
07335,1999-11-23 22:00:00,5.5,1028.3,0.4,98,5.2,800,11.112,,,230,,,,,,,,,,,og-post,,,,AAXX 23224 07335 36/08 /2306 10055 20052 30134 40283 51004=
07335,1999-11-23 23:00:00,5.4,1028.4,0.3,99,5.3,1000,7.408,,,220,,,,,,,,,,,og-post,,,,AAXX 23234 07335 36/10 /2204 10054 20053 30135 40284 51003=
07335,1999-11-24 00:00:00,5.3,1028.5,0.1,99,5.2,1200,7.408,,,210,,,,,,,,,,,og-post,,,,AAXX 24004 07335 36/12 /2104 10053 20052 30135 40285 52001=
07335,1999-11-24 01:00:00,5.3,1028.6,0.2,99,5.2,1100,7.408,,,220,,,,,,,,,,,og-post,,,,AAXX 24014 07335 36/11 /2204 10053 20052 30136 40286 52002=
07335,1999-11-24 02:00:00,5.4,1028.6,0.2,99,5.3,1500,7.408,,,220,,,,,,,,,,,og-post,,,,AAXX 24024 07335 36/15 /2204 10054 20053 30137 40286 53002=
07335,1999-11-24 03:00:00,5.5,1028.8,0.4,98,5.2,1600,7.408,,,220,,,,,,,,,,,og-post,,,,AAXX 24034 07335 36/16 /2204 10055 20052 30139 40288 53004=
07335,1999-11-24 04:00:00,5.4,1028.6,0.1,98,5.1,1700,3.704,,,210,,,,,,,,,,,og-post,,,,AAXX 24044 07335 36/17 /2102 10054 20051 30137 40286 50001=
07335,1999-11-24 05:00:00,5.4,1028.6,0,98,5.1,3000,7.408,,,200,,,,,,,,,,10,og-post,,,,AAXX 24054 07335 31330 82004 10054 20051 30137 40286 50000 71022 886// 333 88708=
07335,1999-11-24 06:00:00,5.2,1029,0.1,98,4.9,3000,3.704,,,200,5.2,6,,,,,0,0.3,5,10,og-post,,,,AAXX 24064 07335 31330 82002 10052 20049 30140 40290 53001 71022 8567/ 333 10060 20052 31005 55003 79999 85708 88458=
07335,1999-11-24 07:00:00,5.4,1029.4,0.7,98,5.1,1800,3.704,,,220,,,,,,,,,,10,og-post,,,,AAXX 24074 07335 31318 82202 10054 20051 30144 40294 53007 71022 886// 333 88707=
07335,1999-11-24 08:00:00,5.7,1029.9,1.3,98,5.4,2100,7.408,,,190,,,,,,,,,,10,og-post,,,,AAXX 24084 07335 31321 81904 10057 20054 30150 40299 53013 71022 876// 333 86708 86612=
07335,1999-11-24 09:00:00,6.2,1030.2,1.3,96,5.6,2500,7.408,,,200,,,,,,,,,,10,og-post,,,,AAXX 24094 07335 31425 72004 10062 20056 30153 40302 51013 71022 875// 333 82710 87650=
07335,1999-11-24 10:00:00,7.2,1030.7,1.4,94,6.3,3000,7.408,,,210,,,,,,,,,,10,og-post,,,,AAXX 24104 07335 31230 82104 10072 20063 30158 40307 51014 71022 875// 333 85706 86611=
07335,1999-11-24 11:00:00,8.2,1030.8,1,91,6.8,3500,3.704,,,170,,,,,,,,,,10,og-post,,,,AAXX 24114 07335 31235 81702 10082 20068 30160 40308 51010 71022 876// 333 87706=
07335,1999-11-24 12:00:00,8.7,1030.6,0.5,90,7.2,3500,7.408,,,150,,,,,,,,,,10,og-post,,,,AAXX 24124 07335 31335 81504 10087 20072 30158 40306 50005 71022 876// 333 87708=
07335,1999-11-24 13:00:00,9.1,1030.5,-0.1,88,7.2,5000,7.408,,,160,,,,,,,,,,,og-post,,,,AAXX 24134 07335 32350 71604 10091 20072 30157 40305 58001 876// 333 87708=
07335,1999-11-24 14:00:00,9.6,1030.1,-0.6,86,7.4,9000,7.408,,,210,,,,,,,,,,,og-post,,,,AAXX 24144 07335 32459 72104 10096 20074 30154 40301 58006 876// 333 87710=
07335,1999-11-24 15:00:00,9.4,1030.4,-0.2,86,7.2,10000,7.408,,,170,,,,,,,,,,,og-post,,,,AAXX 24154 07335 32460 41704 10094 20072 30156 40304 55002 84100 333 84813=
07335,1999-11-24 16:00:00,8.5,1030.7,0.2,91,7.1,10000,3.704,,,180,,,,,,,,,,,og-post,,,,AAXX 24164 07335 32460 61802 10085 20071 30159 40307 53002 86500 333 86619=
07335,1999-11-24 17:00:00,7.3,1031.1,0.8,89,5.6,10000,3.704,,,170,,,,,,,,,,,og-post,,,,AAXX 24174 07335 32460 31702 10073 20056 30162 40311 53008 83500 333 83618=
07335,1999-11-24 18:00:00,6.8,1031.4,0.9,98,6.5,9000,7.408,,,170,5.1,9.8,,,,,,,,,og-post,,,,AAXX 24184 07335 32459 81704 10068 20065 30165 40314 52009 875// 333 10098 20051 82613 86621=
07335,1999-11-24 19:00:00,3.9,1031.8,0.8,92,2.7,1200,7.408,,,170,,,,,,,,,,,og-post,,,,AAXX 24194 07335 36/12 /1704 10039 20027 30167 40318 51008=
07335,1999-11-24 20:00:00,1.7,1032.1,0.7,97,1.3,1500,,,,,,,,,,,,,,,og-post,,,,AAXX 24204 07335 36/15 /0000 10017 20013 30169 40321 51007=
07335,1999-11-24 21:00:00,2.3,1032.4,0.7,99,2.2,300,3.704,,,180,,,,,,,,,,,og-post,,,,AAXX 24214 07335 36/03 /1802 10023 20022 30172 40324 53007=
07335,1999-11-24 22:00:00,5.4,1032.4,0.7,99,5.3,,3.704,,,170,,,,,,,,,,,og-post,,,,AAXX 24224 07335 36/// /1702 10054 20053 30174 40324 52007=
07335,1999-11-24 23:00:00,5.9,1032.3,0.4,99,5.8,,,,,,,,,,,,,,,,og-post,,,,AAXX 24234 07335 36/// /0000 10059 20058 30173 40323 50004=
07335,1999-11-25 00:00:00,6,1032.6,0.4,99,5.9,,,,,,,,,,,,,,,,og-post,,,,AAXX 25004 07335 36/// /0000 10060 20059 30176 40326 53004=
07335,1999-11-25 01:00:00,5.9,1032.7,0.3,99,5.8,,3.704,,,160,,,,,,,,,,,og-post,,,,AAXX 25014 07335 36/// /1602 10059 20058 30177 40327 53003=
07335,1999-11-25 02:00:00,6,1032.8,0.5,99,5.9,,,,,,,,,,,,,,,,og-post,,,,AAXX 25024 07335 36/// /0000 10060 20059 30178 40328 51005=
07335,1999-11-25 03:00:00,6.2,1032.6,0,98,5.9,,3.704,,,210,,,,,,,,,,,og-post,,,,AAXX 25034 07335 36/// /2102 10062 20059 30176 40326 50000=
07335,1999-11-25 04:00:00,6.5,1032.5,-0.1,98,6.2,1900,3.704,,,180,,,,,,,,,,,og-post,,,,AAXX 25044 07335 36/19 /1802 10065 20062 30176 40325 58001=
07335,1999-11-25 05:00:00,6.5,1032.7,-0,98,6.2,1500,7.408,,,170,,,,,,,,,,10,og-post,,,,AAXX 25054 07335 31115 81704 10065 20062 30178 40327 55000 71022 886// 333 88703=
07335,1999-11-25 06:00:00,6.6,1032.9,0.4,99,6.5,500,7.408,,,180,0.7,7,,,,,0,0.6,-2,46,og-post,,,,AAXX 25064 07335 31105 81804 10066 20065 30180 40329 53004 74642 886// 333 10070 20007 30102 55006 70000 88703=
07335,1999-11-25 07:00:00,6.6,1033.2,0.7,99,6.5,1200,7.408,,,180,,,,,,,,,,28,og-post,,,,AAXX 25074 07335 31112 81804 10066 20065 30183 40332 53007 72842 886// 333 88703=
07335,1999-11-25 08:00:00,6.6,1033.9,1.1,99,6.5,3000,7.408,,,180,,,,,,,,,,10,og-post,,,,AAXX 25084 07335 31130 81804 10066 20065 30189 40339 53011 71022 886// 333 81703 88706=
07335,1999-11-25 09:00:00,7,1034.2,1.3,96,6.4,5000,7.408,,,200,,,,,,,,,,1,og-post,,,,AAXX 25094 07335 31350 82004 10070 20064 30193 40342 53013 70142 876// 333 87707=
07335,1999-11-25 10:00:00,7.4,1034.5,1.3,93,6.3,6000,7.408,,,170,,,,,,,,,,,og-post,,,,AAXX 25104 07335 32256 81704 10074 20063 30196 40345 51013 886// 333 87706=
07335,1999-11-25 11:00:00,7.4,1034.6,0.8,93,6.3,,11.112,,,150,,,,,,,,,,,og-post,,,,AAXX 25114 07335 36/// /1506 10074 20063 30197 40346 51008=
07335,1999-11-25 12:00:00,7.2,1034.4,0.2,95,6.5,9000,3.704,,,180,,,,,,,,,,3,og-post,,,,AAXX 25124 07335 31159 81802 10072 20065 30195 40344 50002 70342 886// 333 87703=
07335,1999-11-25 13:00:00,7.5,1033.9,-0.6,94,6.6,12000,3.704,,,240,,,,,,,,,,,og-post,,,,AAXX 25134 07335 32262 82402 10075 20066 30190 40339 58006 886// 333 87705=
07335,1999-11-25 14:00:00,8,1033.5,-1.1,92,6.8,12000,,,,,,,,,,,,,,,og-post,,,,AAXX 25144 07335 32262 80000 10080 20068 30186 40335 58011 886// 333 87706=
07335,1999-11-25 15:00:00,8.3,1033.5,-0.9,90,6.8,15000,3.704,,,120,,,,,,,,,,,og-post,,,,AAXX 25154 07335 32365 81202 10083 20068 30186 40335 56009 886// 333 87707=
07335,1999-11-25 16:00:00,8.4,1033.7,-0.2,89,6.7,15000,3.704,,,120,,,,,,,,,,,og-post,,,,AAXX 25164 07335 32365 81202 10084 20067 30188 40337 55002 886// 333 87708=
07335,1999-11-25 17:00:00,8.4,1033.5,0,90,6.9,12000,3.704,,,70,,,,,,,,,,,og-post,,,,AAXX 25174 07335 32362 80702 10084 20069 30186 40335 50000 886// 333 88708=
07335,1999-11-25 18:00:00,8.4,1033.8,0.3,88,6.5,12000,7.408,,,100,6.5,8.5,,,,,,,,,og-post,,,,AAXX 25184 07335 32362 81004 10084 20065 30189 40338 53003 886// 333 10085 20065 88709=
07335,1999-11-25 19:00:00,8.5,1033.7,-0,87,6.5,,7.408,,,80,,,,,,,,,,,og-post,,,,AAXX 25194 07335 36/// /0804 10085 20065 30188 40337 55000=
07335,1999-11-25 20:00:00,8.1,1033.4,-0.1,87,6.1,,11.112,,,110,,,,,,,,,,,og-post,,,,AAXX 25204 07335 36/// /1106 10081 20061 30185 40334 58001=
07335,1999-11-25 21:00:00,7.3,1033.2,-0.6,90,5.8,,11.112,,,110,,,,,,,,,,,og-post,,,,AAXX 25214 07335 36/// /1106 10073 20058 30183 40332 58006=
07335,1999-11-25 22:00:00,6.7,1032.8,-0.9,94,5.8,,11.112,,,100,,,,,,,,,,,og-post,,,,AAXX 25224 07335 36/// /1006 10067 20058 30179 40328 58009=
07335,1999-11-25 23:00:00,5.5,1032.6,-0.9,97,5.1,,11.112,,,100,,,,,,,,,,,og-post,,,,AAXX 25234 07335 36/// /1006 10055 20051 30176 40326 58009=
07335,1999-11-26 00:00:00,4.8,1032,-1.3,96,4.2,,14.816,,,100,,,,,,,,,,,og-post,,,,AAXX 26004 07335 36/// /1008 10048 20042 30170 40320 58013=
07335,1999-11-26 01:00:00,4.6,1031.7,-1.2,95,3.9,,11.112,,,100,,,,,,,,,,,og-post,,,,AAXX 26014 07335 36/// /1006 10046 20039 30167 40317 57012=
07335,1999-11-26 02:00:00,4.6,1031,-1.6,96,4,,7.408,,,80,,,,,,,,,,,og-post,,,,AAXX 26024 07335 36/// /0804 10046 20040 30160 40310 58016=
07335,1999-11-26 03:00:00,3.9,1030.1,-2,97,3.5,1700,7.408,,,80,,,,,,,,,,,og-post,,,,AAXX 26034 07335 36/17 /0804 10039 20035 30150 40301 58020=
07335,1999-11-26 04:00:00,3.3,1029.9,-1.9,97,2.9,,11.112,,,130,,,,,,,,,,,og-post,,,,AAXX 26044 07335 36/// /1306 10033 20029 30148 40299 56019=
07335,1999-11-26 05:00:00,2.6,1029.5,-1.6,97,2.2,2000,11.112,,,140,,,,,,,,,,,og-post,,,,AAXX 26054 07335 32120 71406 10026 20022 30144 40295 56016 876// 333 87702=
07335,1999-11-26 06:00:00,2.2,1029,-1.1,98,1.9,2500,7.408,,,170,2.2,8.5,,,,,0,,1,10,og-post,,,,AAXX 26064 07335 31125 71704 10022 20019 30139 40290 58011 71022 876// 333 10085 20022 3/001 55000 70000 87702=
07335,1999-11-26 07:00:00,1.8,1028.8,-1.2,99,1.7,1200,7.408,,,180,,,,,,,,,,10,og-post,,,,AAXX 26074 07335 31012 81804 10018 20017 30136 40288 56012 71022 886// 333 82701 88702=
07335,1999-11-26 08:00:00,1.4,1028.7,-0.9,99,1.3,1200,7.408,,,160,,,,,,,,,,10,og-post,,,,AAXX 26084 07335 31112 71604 10014 20013 30135 40287 56009 71022 876// 333 87702=
07335,1999-11-26 09:00:00,2.5,1028.4,-0.6,93,1.5,8000,11.112,,,170,,,,,,,,,,,og-post,,,,AAXX 26094 07335 32958 11706 10025 20015 30133 40284 56006 80001 333 81073=
07335,1999-11-26 10:00:00,4.9,1028.2,-0.4,76,1,20000,22.224,,,190,,,,,,,,,,,og-post,,,,AAXX 26104 07335 32970 11912 10049 20010 30132 40282 57004 80001 333 81073=
07335,1999-11-26 11:00:00,6.9,1027.5,-0.9,70,1.8,20000,22.224,,,190,,,,,,,,,,,og-post,,,,AAXX 26114 07335 32970 11912 10069 20018 30126 40275 58009 80001 333 81073=
07335,1999-11-26 12:00:00,8.6,1026.6,-1.5,63,2,25000,22.224,,,200,,,,,,,,,,,og-post,,,,AAXX 26124 07335 32975 12012 10086 20020 30118 40266 58015 80001 333 81073=
07335,1999-11-26 13:00:00,9.1,1025.9,-2,58,1.3,25000,29.632,,,190,,,,,,,,,,,og-post,,,,AAXX 26134 07335 32975 11916 10091 20013 30112 40259 57020 80001 333 81073=
07335,1999-11-26 14:00:00,9.6,1025.5,-1.8,60,2.2,25000,18.52,,,200,,,,,,,,,,,og-post,,,,AAXX 26144 07335 32975 12010 10096 20022 30108 40255 56018 80001 333 81073=
07335,1999-11-26 15:00:00,9.5,1025.2,-1.3,60,2.1,25000,18.52,,,190,,,,,,,,,,,og-post,,,,AAXX 26154 07335 32975 11910 10095 20021 30105 40252 56013 80001 333 81073=
07335,1999-11-26 16:00:00,8.2,1025.5,-0.5,66,2.2,25000,14.816,,,200,,,,,,,,,,,og-post,,,,AAXX 26164 07335 32975 12008 10082 20022 30107 40255 55005 80001 333 81073=
07335,1999-11-26 17:00:00,6.2,1026,0.3,75,2.1,25000,11.112,,,200,,,,,,,,,,,og-post,,,,AAXX 26174 07335 32975 12006 10062 20021 30111 40260 53003 80001 333 81073=
07335,1999-11-26 18:00:00,6.2,1026.2,0.8,78,2.7,,11.112,,,210,1.2,9.7,,,,,,,,,og-post,,,,AAXX 26184 07335 36/// /2106 10062 20027 30113 40262 52008 333 10097 20012=
07335,1999-11-26 19:00:00,6.5,1026.1,0.5,78,2.9,,18.52,,,190,,,,,,,,,,,og-post,,,,AAXX 26194 07335 36/// /1910 10065 20029 30112 40261 50005=
07335,1999-11-26 20:00:00,7.4,1025.9,0,79,4,,18.52,,,190,,,,,,,,,,,og-post,,,,AAXX 26204 07335 36/// /1910 10074 20040 30111 40259 50000=
07335,1999-11-26 21:00:00,7.9,1026,-0.1,78,4.3,,18.52,,,200,,,,,,,,,,,og-post,,,,AAXX 26214 07335 36/// /2010 10079 20043 30112 40260 55001=
07335,1999-11-26 22:00:00,7.7,1026,-0,80,4.5,,22.224,,,200,,,,,,,,,,,og-post,,,,AAXX 26224 07335 36/// /2012 10077 20045 30112 40260 55000=
07335,1999-11-26 23:00:00,8.3,1026.2,0.3,81,5.2,,14.816,,,200,,,,,,,,,,,og-post,,,,AAXX 26234 07335 36/// /2008 10083 20052 30114 40262 53003=
07335,1999-11-27 00:00:00,8.3,1026.4,0.4,83,5.6,,14.816,,,190,,,,,,,,,,,og-post,,,,AAXX 27004 07335 36/// /1908 10083 20056 30116 40264 53004=
07335,1999-11-27 01:00:00,8.4,1025.9,0,83,5.7,,18.52,,,200,,,,,,,,,,,og-post,,,,AAXX 27014 07335 36/// /2010 10084 20057 30112 40259 50000=
07335,1999-11-27 02:00:00,7.8,1026.4,0.2,88,5.9,,14.816,,,190,,,,,,,,,,,og-post,,,,AAXX 27024 07335 36/// /1908 10078 20059 30116 40264 53002=
07335,1999-11-27 03:00:00,7.4,1025.8,-0.6,90,5.9,,14.816,,,200,,,,,,,,,,,og-post,,,,AAXX 27034 07335 36/// /2008 10074 20059 30110 40258 58006=
07335,1999-11-27 04:00:00,7.4,1026,0,91,6,,14.816,,,210,,,,,,,,,,,og-post,,,,AAXX 27044 07335 36/// /2108 10074 20060 30112 40260 50000=
07335,1999-11-27 05:00:00,8,1026,-0.4,90,6.5,15000,18.52,,,200,,,,,,,,,,,og-post,,,,AAXX 27054 07335 32565 72010 10080 20065 30112 40260 56004 875// 333 30/// 85630 87650=
07335,1999-11-27 06:00:00,8.6,1026.5,0.8,89,6.9,15000,22.224,,,210,6.2,8.6,,,,,0,7.6,3,,og-post,,,,AAXX 27064 07335 32565 72112 10086 20069 30118 40265 53008 875// 333 10086 20062 30003 55076 70000 85628 87650=
07335,1999-11-27 07:00:00,8.1,1027.3,1.3,96,7.5,2000,18.52,,,210,,,1,,,,,,,61,og-post,,,,AAXX 27074 07335 21420 72110 10081 20075 30125 40273 53013 76165 875// 333 60015 85615 87625=
07335,1999-11-27 08:00:00,8.3,1027.5,1.5,96,7.7,3000,18.52,,,210,,,,,,,,,,21,og-post,,,,AAXX 27084 07335 21230 82110 10083 20077 30127 40275 51015 72162 876// 333 69905 87705=
07335,1999-11-27 09:00:00,8.3,1028,1.4,97,7.9,1800,18.52,,,210,,,,2,,,,,,61,og-post,,,,AAXX 27094 07335 21218 82110 10083 20079 30132 40280 51014 76165 877// 333 60027 86705 87621=
07335,1999-11-27 10:00:00,8.7,1028.6,1.3,95,7.9,3000,18.52,,,210,,,0.2,,,,,,,60,og-post,,,,AAXX 27104 07335 21130 82110 10087 20079 30138 40286 53013 76066 877// 333 69925 81702 86706 87620=
07335,1999-11-27 11:00:00,8.8,1028.7,1.2,95,8,3000,18.52,,,210,,,,,,,,,,60,og-post,,,,AAXX 27114 07335 21230 82110 10088 20080 30139 40287 51012 76066 875// 333 69905 84703 87622=
07335,1999-11-27 12:00:00,8.6,1028.7,0.7,96,8,3000,14.816,,,200,,,,0.6,2,,,,,60,og-post,,,,AAXX 27124 07335 /1230 82008 10086 20080 30139 40287 51007 60021 76065 875// 333 69967 84703 87620=
07335,1999-11-27 13:00:00,9,1028.3,-0.2,94,8.1,3500,18.52,,,210,,,,,,,,,,21,og-post,,,,AAXX 27134 07335 21535 82110 10090 20081 30136 40283 58002 72162 875// 333 69905 87620=
07335,1999-11-27 15:00:00,10,1028.4,-0.2,87,7.9,7000,18.52,,,210,,,,,,,,,,3,og-post,,,,AAXX 27154 07335 21557 82110 10100 20079 30137 40284 55002 70362 875// 333 69907 87620=
07335,1999-11-27 18:00:00,9.7,1029,0.6,85,7.3,,11.112,,,200,8.1,10,,,,2,,,,,og-post,,,,AAXX 27184 07335 16/// /2006 10097 20073 30143 40290 53006 60022 333 10100 20081=
07335,1999-11-27 21:00:00,9.4,1028.5,-0.5,82,6.5,,11.112,,,190,,,,,,,,,,,og-post,,,,AAXX 27214 07335 36/// /1906 10094 20065 30138 40285 58005=
07335,1999-11-28 00:00:00,5.9,1028.1,-0.6,89,4.2,,7.408,,,180,,,,,,,,,,,og-post,,,,AAXX 28004 07335 36/// /1804 10059 20042 30132 40281 56006=
07335,1999-11-28 03:00:00,4.4,1027.2,-1,93,3.4,,7.408,,,160,,,,,,,,,,,og-post,,,,AAXX 28034 07335 36/// /1604 10044 20034 30122 40272 56010=
07335,1999-11-28 06:00:00,3.9,1025.7,-1.5,92,2.7,12000,11.112,,,170,3.9,9.9,,,,,2.2,,-0,,og-post,,,,AAXX 28064 07335 32962 21706 10039 20027 30107 40257 56015 80002 333 10099 20039 31100 55000 70022 82073=
07335,1999-11-28 09:00:00,6.3,1024.8,-0.7,88,4.5,12000,18.52,,,170,,,,,,,,,,,og-post,,,,AAXX 28094 07335 32962 71710 10063 20045 30100 40248 56007 82032 333 82360 87073=
07335,1999-11-28 12:00:00,12,1022.7,-1.8,65,5.6,20000,22.224,,,190,,,,,,,,,,,og-post,,,,AAXX 28124 07335 32970 61912 10120 20056 30082 40227 58018 81032 333 81360 86073=
07335,1999-11-28 15:00:00,12,1021.6,-1.1,66,5.9,20000,14.816,,,190,,,,,,,,,,,og-post,,,,AAXX 28154 07335 32970 61908 10120 20059 30071 40216 57011 81032 333 81360 86073=
07335,1999-11-28 18:00:00,4.5,1022.3,0.3,86,2.4,,3.704,,,140,3.7,12.7,,,,,,,,,og-post,,,,AAXX 28184 07335 36/// /1402 10045 20024 30074 40223 53003 333 10127 20037=
07335,1999-11-28 21:00:00,8.7,1021.6,-0.5,77,4.9,,18.52,,,180,,,,,,,,,,,og-post,,,,AAXX 28214 07335 36/// /1810 10087 20049 30069 40216 56005=
07335,1999-11-29 00:00:00,9.4,1021.4,-0.1,72,4.6,,25.928,,,190,,,,,,,,,,,og-post,,,,AAXX 29004 07335 36/// /1914 10094 20046 30068 40214 55001=
07335,1999-11-29 03:00:00,8.5,1021.6,0.1,76,4.5,,18.52,,,180,,,,,,,,,,,og-post,,,,AAXX 29034 07335 36/// /1810 10085 20045 30069 40216 53001=
07335,1999-11-29 06:00:00,8.6,1022,0.4,75,4.4,20000,22.224,,,180,4.4,9.9,,,,,0,5.6,-0,,og-post,,,,AAXX 29064 07335 32970 51812 10086 20044 30073 40220 53004 80002 333 10099 20044 30100 55056 70000 85073=
07335,1999-11-29 09:00:00,9.8,1023.4,1.5,70,4.6,25000,18.52,,,180,,,,,,,,,,,og-post,,,,AAXX 29094 07335 32975 71810 10098 20046 30088 40234 53015 80002 333 87073=
07335,1999-11-29 12:00:00,13,1024.2,0.9,61,5.7,30000,18.52,,,190,,,,,,,,,,,og-post,,,,AAXX 29124 07335 32980 71910 10130 20057 30097 40242 51009 80002 333 87073=
07335,1999-11-29 14:00:00,13.4,1024.6,0.4,59,5.6,30000,14.816,,,200,,,,,,,,,,,og-post,,,,AAXX 29144 07335 32980 72008 10134 20056 30101 40246 53004 80002 333 87073=
07335,1999-11-29 15:00:00,12.5,1024.8,0.6,62,5.4,30000,11.112,,,200,,,,,,,,,,,og-post,,,,AAXX 29154 07335 32980 72006 10125 20054 30103 40248 53006 81032 333 81363 87073=
07335,1999-11-29 16:00:00,10.3,1025.8,1.4,69,4.9,30000,3.704,,,150,,,,,,,,,,,og-post,,,,AAXX 29164 07335 32980 71502 10103 20049 30111 40258 53014 81032 333 81363 87073=
07335,1999-11-29 17:00:00,9,1026.5,1.7,74,4.6,30000,7.408,,,190,,,,,,,,,,,og-post,,,,AAXX 29174 07335 32980 71904 10090 20046 30118 40265 53017 80002 333 87073=
07335,1999-11-29 18:00:00,7.9,1027.4,2.3,83,5.2,30000,3.704,,,170,7.7,14,,,,,,,,,og-post,,,,AAXX 29184 07335 32980 51702 10079 20052 30126 40274 52023 80002 333 10140 20077 85073=
07335,1999-11-29 19:00:00,4.7,1028.3,2.2,94,3.8,,,,,,,,,,,,,,,,og-post,,,,AAXX 29194 07335 36/// /0000 10047 20038 30133 40283 52022=
07335,1999-11-29 20:00:00,3.1,1029,2.1,91,1.8,,3.704,,,80,,,,,,,,,,,og-post,,,,AAXX 29204 07335 36/// /0802 10031 20018 30139 40290 51021=
07335,1999-11-29 21:00:00,1.7,1029.5,1.7,96,1.1,,3.704,,,310,,,,,,,,,,,og-post,,,,AAXX 29214 07335 36/// /3102 10017 20011 30143 40295 51017=
07335,1999-11-29 22:00:00,1.4,1029.5,1,98,1.1,,3.704,,,210,,,,,,,,,,,og-post,,,,AAXX 29224 07335 36/// /2102 10014 20011 30143 40295 51010=
07335,1999-11-29 23:00:00,1.2,1030.2,1.1,97,0.8,,3.704,,,150,,,,,,,,,,,og-post,,,,AAXX 29234 07335 36/// /1502 10012 20008 30150 40302 53011=
07335,1999-11-30 00:00:00,0.2,1030.8,1.2,97,-0.2,,3.704,,,160,,,,,,,,,,,og-post,,,,AAXX 30004 07335 36/// /1602 10002 21002 30155 40308 53012=
07335,1999-11-30 01:00:00,1.3,1030.4,0.9,99,1.2,,,,,,,,,,,,,,,,og-post,,,,AAXX 30014 07335 36/// /0000 10013 20012 30152 40304 50009=
07335,1999-11-30 02:00:00,-0.4,1030.7,0.4,98,-0.7,1700,,,,,,,,,,,,,,,og-post,,,,AAXX 30024 07335 36/17 /0000 11004 21007 30154 40307 51004=
07335,1999-11-30 03:00:00,-0.2,1030.6,-0.2,98,-0.5,1800,3.704,,,160,,,,,,,,,,,og-post,,,,AAXX 30034 07335 36/18 /1602 11002 21005 30153 40306 56002=
07335,1999-11-30 04:00:00,-0.6,1030.7,0.2,99,-0.7,,,,,,,,,,,,,,,,og-post,,,,AAXX 30044 07335 36/// /0000 11006 21007 30154 40307 51002=
07335,1999-11-30 06:00:00,-1.9,1031.2,0.5,98,-2.2,10000,3.704,,,10,-2.2,7.8,,,,,,5.3,-5,,og-post,,,,AAXX 30064 07335 32960 00102 11019 21022 30158 40312 53005 333 10078 21022 30105 55053 70000=
07335,1999-11-30 07:00:00,-1.1,1031.4,0.6,99,-1.2,2500,,,,,,,,,,,,,,11,og-post,,,,AAXX 30074 07335 31925 10000 11011 21012 30160 40314 53006 71100 81030 333 81363=
07335,1999-11-30 08:00:00,-1.7,1032.2,1.4,98,-2,4500,,,,,,,,,,,,,,10,og-post,,,,AAXX 30084 07335 31945 10000 11017 21020 30168 40322 53014 71000 81030 333 81363=
07335,1999-11-30 09:00:00,1.7,1032.6,1.6,99,1.6,6000,,,,,,,,,,,,,,,og-post,,,,AAXX 30094 07335 32956 10000 10017 20016 30174 40326 53016 81030 333 81363=
07335,1999-11-30 10:00:00,6.3,1032.4,1.4,86,4.1,8000,7.408,,,160,,,,,,,,,,,og-post,,,,AAXX 30104 07335 32958 01604 10063 20041 30174 40324 51014=
07335,1999-11-30 11:00:00,10,1031.7,0.2,74,5.6,12000,3.704,,,160,,,,,,,,,,,og-post,,,,AAXX 30114 07335 32962 11602 10100 20056 30170 40317 50002 80001 333 81075=
07335,1999-11-30 12:00:00,12.5,1031,-1,63,5.7,20000,3.704,,,210,,,,,,,,,,,og-post,,,,AAXX 30124 07335 32970 12102 10125 20057 30164 40310 58010 80001 333 81075=
07335,1999-11-30 15:00:00,13,1029.8,-1.2,64,6.4,25000,7.408,,,260,,,,,,,,,,,og-post,,,,AAXX 30154 07335 32975 22604 10130 20064 30152 40298 56012 80001 333 82075=
07335,1999-11-30 16:00:00,9.4,1030.1,-0.5,73,4.8,25000,3.704,,,250,,,,,,,,,,,og-post,,,,AAXX 30164 07335 32975 32502 10094 20048 30153 40301 55005 80001 333 83075=
07335,1999-11-30 17:00:00,5.1,1030.7,0.5,84,2.6,25000,3.704,,,240,,,,,,,,,,,og-post,,,,AAXX 30174 07335 32975 22402 10051 20026 30157 40307 53005 80001 333 82075=
07335,1999-11-30 18:00:00,3.7,1030.8,0.5,92,2.5,25000,7.408,,,220,-2.6,13.5,,,,,,,,,og-post,,,,AAXX 30184 07335 32975 12204 10037 20025 30157 40308 51005 80001 333 10135 21026 81075=
07335,1999-11-30 20:00:00,2,1031.6,0.7,96,1.4,,3.704,,,340,,,,,,,,,,,og-post,,,,AAXX 30204 07335 36/// /3402 10020 20014 30164 40316 53007=
07335,1999-11-30 21:00:00,3.8,1031.5,0.7,99,3.7,500,,,,,,,,,,,,,,,og-post,,,,AAXX 30214 07335 36/05 /0000 10038 20037 30164 40315 51007=
07335,1999-11-30 22:00:00,2,1031.5,0.2,98,1.7,100,3.704,,,270,,,,,,,,,,,og-post,,,,AAXX 30224 07335 36/01 /2702 10020 20017 30163 40315 50002=
07335,1999-11-30 23:00:00,1,1031.6,-0,98,0.7,500,3.704,,,280,,,,,,,,,,,og-post,,,,AAXX 30234 07335 36/00 /2802 10010 20007 30164 40316 55000=
07335,1999-12-01 00:00:00,1.6,1031.5,-0.1,99,1.5,500,3.704,,,210,,,,,,,,,,,og-post,,,,AAXX 01004 07335 36/00 /2102 10016 20015 30163 40315 57001=
07335,1999-12-01 01:00:00,0,1031.4,-0.1,116,2,100,3.704,,,220,,,,,,,,,,,og-post,,,,AAXX 01014 07335 36/01 /2202 1000 20020 30162 40314 58001=
07335,1999-12-01 02:00:00,3.4,1031.2,-0.3,99,3.3,1100,3.704,,,190,,,,,,,,,,,og-post,,,,AAXX 01024 07335 36/11 /1902 10034 20033 30161 40312 57003=
07335,1999-12-01 03:00:00,4,1031.1,-0.3,99,3.9,1400,3.704,,,210,,,,,,,,,,,og-post,,,,AAXX 01034 07335 36/14 /2102 10040 20039 30160 40311 57003=
07335,1999-12-01 04:00:00,4.6,1030.9,-0.3,99,4.5,1200,,,,,,,,,,,,,,,og-post,,,,AAXX 01044 07335 36/12 /0000 10046 20045 30159 40309 57003=
07335,1999-12-01 05:00:00,3.5,1030.9,-0.3,99,3.4,500,3.704,,,320,,,,,,,,,,46,og-post,,,,AAXX 01054 07335 31005 83202 10035 20034 30158 40309 57003 74642 886// 333 85701 88702=
07335,1999-12-01 06:00:00,5,1031.1,0.1,99,4.9,400,3.704,,,320,0.5,5,,,,,0,7.9,-2,46,og-post,,,,AAXX 01064 07335 31004 83202 10050 20049 30161 40311 53001 74642 886// 333 10050 20005 30102 55079 70000 88701=
07335,1999-12-01 07:00:00,4.5,1031.1,0.2,99,4.4,400,3.704,,,250,,,,,,,,,,44,og-post,,,,AAXX 01074 07335 31004 82502 10045 20044 30161 40311 53002 74444 886// 333 88701=
07335,1999-12-01 08:00:00,3.8,1031.7,0.8,99,3.7,200,3.704,,,220,,,,,,,,,,46,og-post,,,,AAXX 01084 07335 31002 82202 10038 20037 30166 40317 53008 74644 886// 333 88701=
07335,1999-12-01 09:00:00,3.7,1031.9,0.7,100,3.7,200,7.408,,,200,,,,,,,,,,42,og-post,,,,AAXX 01094 07335 31002 82004 10037 20037 30168 40319 53007 74244 886// 333 88701=
07335,1999-12-01 10:00:00,5.5,1031.8,0.7,100,5.5,3000,7.408,,,190,,,,,,,,,,28,og-post,,,,AAXX 01104 07335 31130 71904 10055 20055 30168 40318 51007 72842 875// 333 83703 87630=
07335,1999-12-01 11:00:00,7.2,1031.3,-0.2,98,6.9,5000,7.408,,,210,,,,,,,,,,,og-post,,,,AAXX 01114 07335 32150 72104 10072 20069 30164 40313 58002 875// 333 81703 87630=
07335,1999-12-01 12:00:00,8.4,1030.8,-0.8,90,6.9,10000,14.816,,,230,,,,,,,,,,1,og-post,,,,AAXX 01124 07335 31560 72308 10084 20069 30160 40308 58008 70142 875// 333 87627=
07335,1999-12-01 13:00:00,9.2,1030.5,-1.1,85,6.8,12000,14.816,,,250,,,,,,,,,,,og-post,,,,AAXX 01134 07335 32562 72508 10092 20068 30157 40305 56011 875// 333 87625=
07335,1999-12-01 14:00:00,9.5,1029.8,-1.3,80,6.2,15000,14.816,,,240,,,,,,,,,,,og-post,,,,AAXX 01144 07335 32565 72408 10095 20062 30151 40298 58013 875// 333 87627=
07335,1999-12-01 15:00:00,9.6,1029.7,-1,80,6.3,15000,14.816,,,260,,,,,,,,,,,og-post,,,,AAXX 01154 07335 32565 72608 10096 20063 30150 40297 56010 875// 333 87627=
07335,1999-12-01 16:00:00,9,1030,-0.5,82,6.1,15000,14.816,,,240,,,,,,,,,,,og-post,,,,AAXX 01164 07335 32565 72408 10090 20061 30152 40300 55005 875// 333 83620 87630=
07335,1999-12-01 17:00:00,8.6,1030.1,0.2,86,6.4,15000,11.112,,,250,,,,,,,,,,,og-post,,,,AAXX 01174 07335 32565 72506 10086 20064 30153 40301 53002 875// 333 83620 87629=
07335,1999-12-01 18:00:00,8.4,1030.1,0.3,90,6.9,15000,11.112,,,240,3.5,9.7,,,,,,,,,og-post,,,,AAXX 01184 07335 32565 82406 10084 20069 30153 40301 51003 875// 333 10097 20035 82620 87630=
07335,1999-12-01 19:00:00,8.4,1030.3,0.3,91,7,,14.816,,,230,,,,,,,,,,,og-post,,,,AAXX 01194 07335 36/// /2308 10084 20070 30155 40303 53003=
07335,1999-12-01 20:00:00,8.2,1030.3,0.2,93,7.1,,18.52,,,250,,,,,,,,,,,og-post,,,,AAXX 01204 07335 36/// /2510 10082 20071 30155 40303 52002=
07335,1999-12-01 21:00:00,8.6,1030.5,0.4,92,7.4,,14.816,,,260,,,,,,,,,,,og-post,,,,AAXX 01214 07335 36/// /2608 10086 20074 30157 40305 52004=
07335,1999-12-01 22:00:00,8.6,1030.3,0,93,7.5,,14.816,,,250,,,,,,,,,,,og-post,,,,AAXX 01224 07335 36/// /2508 10086 20075 30155 40303 50000=
07335,1999-12-01 23:00:00,8.3,1030.4,0.1,94,7.4,,11.112,,,250,,,,,,,,,,,og-post,,,,AAXX 01234 07335 36/// /2506 10083 20074 30156 40304 51001=
07335,1999-12-02 00:00:00,8.4,1030.3,-0.2,95,7.6,,14.816,,,250,,,,,,,,,,,og-post,,,,AAXX 02004 07335 36/// /2508 10084 20076 30155 40303 56002=
07335,1999-12-02 01:00:00,8.4,1029.9,-0.4,97,8,1800,14.816,,,240,,,,,,,,,,,og-post,,,,AAXX 02014 07335 36/18 /2408 10084 20080 30151 40299 58004=
07335,1999-12-02 02:00:00,8.6,1030,-0.4,98,8.3,,14.816,,,240,,,,,,,,,,,og-post,,,,AAXX 02024 07335 36/// /2408 10086 20083 30152 40300 55004=
07335,1999-12-02 03:00:00,8.8,1029.7,-0.6,98,8.5,,18.52,,,240,,,,,,,,,,,og-post,,,,AAXX 02034 07335 36/// /2410 10088 20085 30149 40297 56006=
07335,1999-12-02 06:00:00,9.2,1030.4,0.7,97,8.7,8000,7.408,,,260,8.1,9.2,,,,,0,0.2,7,,og-post,,,,AAXX 02064 07335 32258 82604 10092 20087 30156 40304 53007 886// 333 10092 20081 31007 55002 70000 88703=
07335,1999-12-02 09:00:00,9.4,1031.4,1,98,9.1,1800,11.112,,,290,,,,0.8,,,,,,58,og-post,,,,AAXX 02094 07335 21218 82906 10094 20091 30166 40314 52010 75865 887// 333 69987 87704 87613=
07335,1999-12-02 12:00:00,11.9,1031,-0.2,78,8.2,30000,11.112,,,230,,,,0.2,1,,,,,1,og-post,,,,AAXX 02124 07335 /1480 52306 10119 20082 30164 40310 58002 60011 70165 84801 333 69927 81813 84643=
07335,1999-12-02 13:00:00,12.3,1030.7,-1.1,73,7.6,30000,7.408,,,210,,,,,,,,,,,og-post,,,,AAXX 02134 07335 32580 62104 10123 20076 30161 40307 58011 85801 333 81821 85643=
07335,1999-12-02 14:00:00,11.6,1030.7,-1.1,78,7.9,30000,7.408,,,250,,,,,,,,,,,og-post,,,,AAXX 02144 07335 32580 72504 10116 20079 30161 40307 56011 878// 333 81823 87638=
07335,1999-12-02 15:00:00,11.2,1030.9,-0.2,79,7.7,30000,7.408,,,220,,,,,,,,,,,og-post,,,,AAXX 02154 07335 32580 72204 10112 20077 30162 40309 55002 878// 333 83628 87635=
07335,1999-12-02 16:00:00,10.4,1031.1,0.3,85,8,30000,7.408,,,240,,,,,,,,,,,og-post,,,,AAXX 02164 07335 32580 72404 10104 20080 30164 40311 53003 875// 333 84628 87635=
07335,1999-12-02 17:00:00,9.9,1031,0.2,86,7.7,25000,3.704,,,230,,,,,,,,,,,og-post,,,,AAXX 02174 07335 32575 72302 10099 20077 30163 40310 50002 875// 333 87630=
07335,1999-12-02 18:00:00,9.6,1031,0,89,7.9,20000,7.408,,,210,8.9,12.7,,,,1,,,,,og-post,,,,AAXX 02184 07335 12570 82104 10096 20079 30162 40310 50000 60012 875// 333 10127 20089 87628=
07335,1999-12-02 19:00:00,9.5,1030.9,-0.3,93,8.4,,3.704,,,230,,,,,,,,,,,og-post,,,,AAXX 02194 07335 36/// /2302 10095 20084 30161 40309 57003=
07335,1999-12-02 20:00:00,8.8,1030.6,-0.5,96,8.2,,11.112,,,220,,,,,,,,,,,og-post,,,,AAXX 02204 07335 36/// /2206 10088 20082 30158 40306 58005=
07335,1999-12-02 21:00:00,8.5,1030.4,-0.6,98,8.2,1400,11.112,,,220,,,,,,,,,,,og-post,,,,AAXX 02214 07335 36/14 /2206 10085 20082 30156 40304 58006=
07335,1999-12-02 22:00:00,8.3,1030,-0.9,98,8,,7.408,,,210,,,,,,,,,,,og-post,,,,AAXX 02224 07335 36/// /2104 10083 20080 30152 40300 58009=
07335,1999-12-02 23:00:00,8.1,1029.5,-1.1,98,7.8,,7.408,,,210,,,,,,,,,,,og-post,,,,AAXX 02234 07335 36/// /2104 10081 20078 30147 40295 58011=
07335,1999-12-03 00:00:00,8.3,1029.3,-1.1,98,8,300,7.408,,,200,,,,,,,,,,,og-post,,,,AAXX 03004 07335 36/03 /2004 10083 20080 30145 40293 56011=
07335,1999-12-03 01:00:00,8.3,1028.8,-1.2,99,8.2,400,3.704,,,160,,,,,,,,,,,og-post,,,,AAXX 03014 07335 36/04 /1602 10083 20082 30140 40288 57012=
07335,1999-12-03 02:00:00,8.2,1028.7,-0.8,99,8.1,700,3.704,,,170,,,,,,,,,,,og-post,,,,AAXX 03024 07335 36/07 /1702 10082 20081 30139 40287 56008=
07335,1999-12-03 03:00:00,8.2,1027.6,-1.7,99,8.1,600,3.704,,,170,,,,0.2,,,,,,,og-post,,,,AAXX 03034 07335 26/06 /1702 10082 20081 30128 40276 58017 333 69927=
07335,1999-12-03 04:00:00,8.4,1026.2,-2.5,99,8.3,1100,7.408,,,160,,,0.2,,,,,,,,og-post,,,,AAXX 03044 07335 26/11 /1604 10084 20083 30115 40262 58025 333 69925=
07335,1999-12-03 05:00:00,8.7,1025.3,-3.3,99,8.6,1500,11.112,,,200,,,0.2,,,,,,,50,og-post,,,,AAXX 03054 07335 21115 82006 10087 20086 30106 40253 56033 75052 886// 333 69925 88702=
07335,1999-12-03 06:00:00,8.4,1025.4,-2.1,99,8.3,1800,7.408,,,210,8.1,9.8,,0.4,,0.6,1.6,1.1,6,20,og-post,,,,AAXX 03064 07335 /1118 82104 10084 20083 30107 40254 55021 69962 72052 886// 333 10098 20081 32006 55011 69947 70016 87702=
07335,1999-12-03 07:00:00,8.3,1025.1,-1.1,99,8.2,1800,11.112,,,220,,,,,,,,,,10,og-post,,,,AAXX 03074 07335 31118 82206 10083 20082 30104 40251 56011 71022 886// 333 88702=
07335,1999-12-03 08:00:00,8.2,1024.5,-0.8,99,8.1,2500,14.816,,,230,,,,,,,,,,28,og-post,,,,AAXX 03084 07335 31125 82308 10082 20081 30098 40245 58008 72842 886// 333 88702=
07335,1999-12-03 09:00:00,8.2,1024.5,-0.9,98,7.9,5000,11.112,,,220,,,,,,,,,,1,og-post,,,,AAXX 03094 07335 31150 72206 10082 20079 30098 40245 56009 70142 876// 333 84702 87706=
07335,1999-12-03 10:00:00,8.7,1024.3,-0.8,96,8.1,6000,14.816,,,230,,,,,,,,,,,og-post,,,,AAXX 03104 07335 32256 82308 10087 20081 30096 40243 56008 885// 333 84706 87630=
07335,1999-12-03 11:00:00,10.2,1023.5,-0.9,87,8.1,8000,22.224,,,230,,,,,,,,,,,og-post,,,,AAXX 03114 07335 32258 52312 10102 20081 30089 40235 58009 82802 333 81806 85075=
07335,1999-12-03 12:00:00,10.3,1022.8,-1.6,85,7.9,15000,18.52,,,240,,,,,,,,,,3,og-post,,,,AAXX 03124 07335 31465 82410 10103 20079 30082 40228 58016 70342 888// 333 81810 88630=
07335,1999-12-03 13:00:00,10.6,1022.1,-2.1,81,7.5,15000,22.224,,,240,,,,,,,,,,,og-post,,,,AAXX 03134 07335 32465 72412 10106 20075 30075 40221 57021 878// 333 82616 87630=
07335,1999-12-03 14:00:00,10.7,1021.4,-2.1,80,7.4,15000,22.224,,,240,,,,,,,,,,,og-post,,,,AAXX 03144 07335 32465 72412 10107 20074 30068 40214 57021 875// 333 81616 87630=
07335,1999-12-03 15:00:00,10.3,1021.2,-1.6,80,7,,22.224,,,240,,,,,,,,,,,og-post,,,,AAXX 03154 07335 36/// /2412 10103 20070 30066 40212 56016=
07335,1999-12-03 16:00:00,9.7,1021.6,-0.5,82,6.8,15000,18.52,,,230,,,,,,,,,,,og-post,,,,AAXX 03164 07335 32565 72310 10097 20068 30070 40216 55005 875// 333 81620 87628=
07335,1999-12-03 17:00:00,9.3,1021.9,0.5,83,6.6,15000,18.52,,,230,,,,,,,,,,,og-post,,,,AAXX 03174 07335 32565 72310 10093 20066 30073 40219 53005 875// 333 81620 87630=
07335,1999-12-03 18:00:00,9,1022,0.7,84,6.4,15000,18.52,,,220,8.1,10.7,,,,,,,,,og-post,,,,AAXX 03184 07335 32665 82210 10090 20064 30073 40220 51007 885// 333 10107 20081 88633=
07335,1999-12-03 20:00:00,8.7,1022.2,0.2,86,6.5,,14.816,,,210,,,,,,,,,,,og-post,,,,AAXX 03204 07335 36/// /2108 10087 20065 30075 40222 53002=
07335,1999-12-03 21:00:00,8.2,1022.2,0.2,89,6.5,,18.52,,,210,,,,,,,,,,,og-post,,,,AAXX 03214 07335 36/// /2110 10082 20065 30075 40222 52002=
07335,1999-12-03 22:00:00,7.4,1021.6,-0.4,91,6,,22.224,,,210,,,,,,,,,,,og-post,,,,AAXX 03224 07335 36/// /2112 10074 20060 30069 40216 58004=
07335,1999-12-03 23:00:00,7.3,1021.3,-0.9,91,5.9,,22.224,,,210,,,,,,,,,,,og-post,,,,AAXX 03234 07335 36/// /2112 10073 20059 30066 40213 58009=
07335,1999-12-04 00:00:00,7.2,1021.3,-0.9,91,5.8,,18.52,,,210,,,,,,,,,,,og-post,,,,AAXX 04004 07335 36/// /2110 10072 20058 30066 40213 56009=
07335,1999-12-04 01:00:00,7.2,1020.5,-1.1,92,6,,14.816,,,220,,,,,,,,,,,og-post,,,,AAXX 04014 07335 36/// /2208 10072 20060 30058 40205 58011=
07335,1999-12-04 02:00:00,7.1,1020,-1.3,93,6,,18.52,,,210,,,,,,,,,,,og-post,,,,AAXX 04024 07335 36/// /2110 10071 20060 30053 40200 58013=
07335,1999-12-04 03:00:00,7.1,1019.1,-2.2,95,6.4,,22.224,,,210,,,,,,,,,,,og-post,,,,AAXX 04034 07335 36/// /2112 10071 20064 30044 40191 58022=
07335,1999-12-04 04:00:00,7.5,1018.4,-2.1,95,6.8,,18.52,,,220,,,,,,,,,,,og-post,,,,AAXX 04044 07335 36/// /2210 10075 20068 30037 40184 58021=
07335,1999-12-04 05:00:00,7.8,1017.7,-2.3,96,7.2,6000,14.816,,,220,,,,,,,,,,50,og-post,,,,AAXX 04054 07335 21256 82208 10078 20072 30030 40177 56023 75052 887// 333 69905 82704 87706=
07335,1999-12-04 06:00:00,8.3,1017.1,-1.9,96,7.7,6000,18.52,,,220,7,9,,,,,0,0.9,6,50,og-post,,,,AAXX 04064 07335 /1256 82210 10083 20077 30025 40171 56019 69902 75052 877// 333 10090 20070 31006 55009 69907 79999 87704=
07335,1999-12-04 07:00:00,8.7,1016.9,-1.4,97,8.3,5000,18.52,,,220,,,,,,,,,,61,og-post,,,,AAXX 04074 07335 21150 82210 10087 20083 30023 40169 56014 76165 877// 333 69905 87703=
07335,1999-12-04 08:00:00,9.1,1016.9,-0.7,97,8.6,4000,18.52,,,230,,,0.2,,,,,,,61,og-post,,,,AAXX 04084 07335 21140 82310 10091 20086 30023 40169 56007 76166 877// 333 69925 84702 87706=
07335,1999-12-04 09:00:00,9.3,1016.6,-0.5,97,8.8,3500,22.224,,,220,,,,0.6,,,,,,61,og-post,,,,AAXX 04094 07335 21235 82212 10093 20088 30020 40166 58005 76165 877// 333 69967 84703 87705=
07335,1999-12-04 10:00:00,9.8,1016.8,-0,97,9.3,3500,18.52,,,240,,,1,,,,,,,61,og-post,,,,AAXX 04104 07335 21235 82410 10098 20093 30023 40168 55000 76166 877// 333 60015 83703 87706=
07335,1999-12-04 11:00:00,8.3,1017.3,0.4,97,7.9,4500,14.816,,,330,,,1,,,,,,,61,og-post,,,,AAXX 04114 07335 21245 83308 10083 20079 30027 40173 53004 76166 877// 333 60015 83705 83620 87630=
07335,1999-12-04 13:00:00,9.4,1017.2,0.3,88,7.5,15000,25.928,,,330,,,,,,,,,,,og-post,,,,AAXX 04134 07335 32465 73314 10094 20075 30026 40172 50003 878// 333 84813 87650=
07335,1999-12-04 14:00:00,9.2,1017.2,-0.1,80,5.9,20000,18.52,,,320,,,,,,,,,,,og-post,,,,AAXX 04144 07335 32570 53210 10092 20059 30026 40172 57001 85800 333 83820 83650=
07335,1999-12-04 15:00:00,9.2,1017.5,0.2,78,5.6,20000,22.224,,,310,,,,,,,,,,,og-post,,,,AAXX 04154 07335 32570 43112 10092 20056 30029 40175 53002 84800 333 82821=
07335,1999-12-04 16:00:00,7.6,1018,0.7,84,5.1,20000,11.112,,,300,,,,,,,,,,,og-post,,,,AAXX 04164 07335 32570 33006 10076 20051 30033 40180 53007 83800 333 81825=
07335,1999-12-04 17:00:00,5.5,1018.7,1.3,92,4.3,,14.816,,,270,,,,,,,,,,,og-post,,,,AAXX 04174 07335 36/// /2708 10055 20043 30039 40187 53013=
07335,1999-12-04 18:00:00,6,1019.9,2.2,91,4.6,,14.816,,,290,5.4,10.3,,,,3,,,,,og-post,,,,AAXX 04184 07335 16/// /2908 10060 20046 30051 40199 53022 60032 333 10103 20054=
07335,1999-12-04 19:00:00,6.1,1020.5,2.4,91,4.7,,7.408,,,300,,,,,,,,,,,og-post,,,,AAXX 04194 07335 36/// /3004 10061 20047 30057 40205 52024=
07335,1999-12-04 20:00:00,5.2,1020.9,2.2,97,4.8,,11.112,,,280,,,,,,,,,,,og-post,,,,AAXX 04204 07335 36/// /2806 10052 20048 30061 40209 51022=
07335,1999-12-04 21:00:00,4.3,1021.7,1.7,94,3.4,,11.112,,,280,,,,,,,,,,,og-post,,,,AAXX 04214 07335 36/// /2806 10043 20034 30068 40217 53017=
07335,1999-12-04 22:00:00,4.8,1022.3,1.7,89,3.1,,14.816,,,290,,,,,,,,,,,og-post,,,,AAXX 04224 07335 36/// /2908 10048 20031 30074 40223 53017=
07335,1999-12-04 23:00:00,3.9,1023.3,2.2,92,2.7,,14.816,,,290,,,,,,,,,,,og-post,,,,AAXX 04234 07335 36/// /2908 10039 20027 30083 40233 53022=
07335,1999-12-05 00:00:00,3.2,1023.8,2,89,1.6,,11.112,,,300,,,,,,,,,,,og-post,,,,AAXX 05004 07335 36/// /3006 10032 20016 30088 40238 51020=
07335,1999-12-05 01:00:00,2.4,1024.4,1.9,97,2,,14.816,,,300,,,,,,,,,,,og-post,,,,AAXX 05014 07335 36/// /3008 10024 20020 30093 40244 51019=
07335,1999-12-05 02:00:00,2.9,1025.1,1.8,95,2.2,,14.816,,,300,,,,,,,,,,,og-post,,,,AAXX 05024 07335 36/// /3008 10029 20022 30101 40251 53018=
07335,1999-12-05 03:00:00,1.9,1025.6,1.7,96,1.3,,11.112,,,300,,,,,,,,,,,og-post,,,,AAXX 05034 07335 36/// /3006 10019 20013 30105 40256 51017=
07335,1999-12-05 04:00:00,1.7,1026,1.6,97,1.3,,11.112,,,300,,,,,,,,,,,og-post,,,,AAXX 05044 07335 36/// /3006 10017 20013 30109 40260 51016=
07335,1999-12-05 05:00:00,0.8,1026.6,1.3,96,0.2,10000,11.112,,,310,,,,,,,,,,,og-post,,,,AAXX 05054 07335 33960 03106 10008 20002 30114 40266 53013=
07335,1999-12-05 06:00:00,0.3,1027.4,1.7,97,-0.1,15000,11.112,,,310,0.2,6.6,,,,,,1.7,-2,,og-post,,,,AAXX 05064 07335 32965 03106 10003 21001 30122 40274 53017 333 10066 20002 31102 55017 70032=
07335,1999-12-05 07:00:00,-0.3,1028.4,2.2,96,-0.9,15000,14.816,,,310,,,,,,,,,,,og-post,,,,AAXX 05074 07335 32765 13108 11003 21009 30131 40284 53022 81500 333 81650=
07335,1999-12-05 08:00:00,0.2,1029.2,2.5,97,-0.2,25000,11.112,,,320,,,,,,,,,,,og-post,,,,AAXX 05084 07335 32775 13206 10002 21002 30139 40292 52025 81530 333 81650=
07335,1999-12-05 09:00:00,2.4,1029.5,2.2,95,1.7,30000,11.112,,,320,,,,,,,,,,,og-post,,,,AAXX 05094 07335 32980 13206 10024 20017 30144 40295 51022 80001 333 81075=
07335,1999-12-05 10:00:00,4.8,1030.2,2.1,86,2.7,30000,14.816,,,340,,,,,,,,,,,og-post,,,,AAXX 05104 07335 32980 13408 10048 20027 30152 40302 52021 80001 333 81075=
07335,1999-12-05 11:00:00,6.4,1030.6,1.8,81,3.4,30000,14.816,,,340,,,,,,,,,,,og-post,,,,AAXX 05114 07335 32980 13408 10064 20034 30157 40306 52018 80001 333 81075=
07335,1999-12-05 12:00:00,7.3,1030.4,1.1,71,2.4,30000,11.112,,,350,,,,,,,,,,,og-post,,,,AAXX 05124 07335 32580 13506 10073 20024 30155 40304 50011 81201 333 81820=
07335,1999-12-05 13:00:00,8,1030.2,0.2,62,1.2,30000,14.816,,,340,,,,,,,,,,,og-post,,,,AAXX 05134 07335 32580 13408 10080 20012 30154 40302 50002 81201 333 81826=
07335,1999-12-05 14:00:00,8.2,1030.2,-0.3,62,1.4,30000,11.112,,,340,,,,,,,,,,,og-post,,,,AAXX 05144 07335 32580 13406 10082 20014 30154 40302 56003 81201 333 81830=
07335,1999-12-05 15:00:00,7.6,1030.9,0.5,64,1.2,30000,11.112,,,340,,,,,,,,,,,og-post,,,,AAXX 05154 07335 32580 13406 10076 20012 30160 40309 53005 81201 333 81830=
07335,1999-12-05 16:00:00,5.2,1031.2,0.8,76,1.3,30000,,,,,,,,,,,,,,,og-post,,,,AAXX 05164 07335 32580 30000 10052 20013 30162 40312 53008 81201 333 81826 83075=
07335,1999-12-05 17:00:00,1,1031.8,1.1,80,-2.1,,3.704,,,240,,,,,,,,,,,og-post,,,,AAXX 05174 07335 36/// /2402 10010 21021 30165 40318 51011=
07335,1999-12-05 18:00:00,0.5,1031.8,0.5,93,-0.5,,3.704,,,250,-0.4,8.2,,,,,,,,,og-post,,,,AAXX 05184 07335 36/// /2502 10005 21005 30165 40318 51005 333 10082 21004=
07335,1999-12-05 19:00:00,-0.2,1032.6,1.1,95,-0.9,,3.704,,,220,,,,,,,,,,,og-post,,,,AAXX 05194 07335 36/// /2202 11002 21009 30173 40326 53011=
07335,1999-12-05 20:00:00,-0.8,1033.3,1.4,91,-2.1,,11.112,,,240,,,,,,,,,,,og-post,,,,AAXX 05204 07335 36/// /2406 11008 21021 30179 40333 53014=
07335,1999-12-05 21:00:00,-1.2,1033.5,1.6,96,-1.8,,7.408,,,250,,,,,,,,,,,og-post,,,,AAXX 05214 07335 36/// /2504 11012 21018 30181 40335 51016=
07335,1999-12-05 22:00:00,-0.2,1033.1,0.5,95,-0.9,,7.408,,,230,,,,,,,,,,,og-post,,,,AAXX 05224 07335 36/// /2304 11002 21009 30178 40331 50005=
07335,1999-12-05 23:00:00,-0.9,1033.3,0,94,-1.7,,3.704,,,200,,,,,,,,,,,og-post,,,,AAXX 05234 07335 36/// /2002 11009 21017 30179 40333 50000=
07335,1999-12-06 00:00:00,-1.2,1033.1,-0.4,96,-1.8,,7.408,,,230,,,,,,,,,,,og-post,,,,AAXX 06004 07335 36/// /2304 11012 21018 30177 40331 56004=
07335,1999-12-06 01:00:00,-1.3,1033,-0.2,97,-1.7,,7.408,,,240,,,,,,,,,,,og-post,,,,AAXX 06014 07335 36/// /2404 11013 21017 30176 40330 58002=
07335,1999-12-06 02:00:00,-1.4,1032.8,-0.5,96,-2,,7.408,,,210,,,,,,,,,,,og-post,,,,AAXX 06024 07335 36/// /2104 11014 21020 30174 40328 57005=
07335,1999-12-06 03:00:00,-1.3,1032.6,-0.5,97,-1.7,,7.408,,,230,,,,,,,,,,,og-post,,,,AAXX 06034 07335 36/// /2304 11013 21017 30172 40326 58005=
07335,1999-12-06 04:00:00,-1.4,1032.3,-0.7,95,-2.1,,7.408,,,210,,,,,,,,,,,og-post,,,,AAXX 06044 07335 36/// /2104 11014 21021 30169 40323 58007=
07335,1999-12-06 05:00:00,-1.3,1032.2,-0.6,97,-1.7,12000,7.408,,,200,,,,,,,,,,,og-post,,,,AAXX 06054 07335 32962 02004 11013 21017 30168 40322 56006 333 30///=
07335,1999-12-06 06:00:00,-1.4,1032.3,-0.3,95,-2.1,15000,7.408,,,220,-2,0.5,,,,,,7.6,-5,,og-post,,,,AAXX 06064 07335 32965 02204 11014 21021 30169 40323 55003 333 10005 21020 30105 55076 70000=
07335,1999-12-06 07:00:00,-0.9,1032.1,-0.2,96,-1.5,15000,7.408,,,200,,,,,,,,,,,og-post,,,,AAXX 06074 07335 32965 22004 11009 21015 30167 40321 58002 80002 333 82075=
07335,1999-12-06 08:00:00,-0.6,1031.8,-0.3,96,-1.2,15000,11.112,,,220,,,,,,,,,,,og-post,,,,AAXX 06084 07335 32765 42206 11006 21012 30165 40318 58003 81502 333 81650 84075=
07335,1999-12-06 09:00:00,1.4,1031.6,-0.5,91,0.1,15000,11.112,,,210,,,,,,,,,,,og-post,,,,AAXX 06094 07335 32665 52106 10014 20001 30164 40316 56005 81502 333 81640 85075=
07335,1999-12-06 11:00:00,4.9,1031.3,-0.2,76,1,20000,18.52,,,210,,,,,,,,,,,og-post,,,,AAXX 06114 07335 32670 62110 10049 20010 30163 40313 58002 83502 333 83640 86075=
07335,1999-12-06 12:00:00,5.7,1030.6,-0.8,74,1.4,20000,14.816,,,210,,,,,,,,,,,og-post,,,,AAXX 06124 07335 32670 62108 10057 20014 30156 40306 58008 83502 333 83633 86075=
07335,1999-12-06 13:00:00,7.7,1029.8,-1.8,66,1.8,20000,18.52,,,210,,,,,,,,,,,og-post,,,,AAXX 06134 07335 32670 52110 10077 20018 30149 40298 58018 81502 333 81633 85075=
07335,1999-12-06 14:00:00,8.3,1029.2,-1.9,63,1.7,20000,14.816,,,220,,,,,,,,,,,og-post,,,,AAXX 06144 07335 32570 72208 10083 20017 30144 40292 56019 85502 333 85627 85075=
07335,1999-12-06 15:00:00,7.3,1029.3,-1.2,67,1.6,20000,11.112,,,210,,,,,,,,,,,og-post,,,,AAXX 06154 07335 32570 72106 10073 20016 30144 40293 56012 875// 333 87627=
07335,1999-12-06 16:00:00,7,1029.2,-0.6,70,1.9,20000,11.112,,,210,,,,,,,,,,,og-post,,,,AAXX 06164 07335 32570 72106 10070 20019 30143 40292 56006 875// 333 87625=
07335,1999-12-06 17:00:00,6.1,1029.1,-0.2,74,1.8,20000,7.408,,,200,,,,,,,,,,,og-post,,,,AAXX 06174 07335 32570 72004 10061 20018 30142 40291 58002 875// 333 87626=
07335,1999-12-06 18:00:00,4.7,1029.1,-0.3,78,1.2,20000,7.408,,,190,-1.4,8.3,,,,,,,,,og-post,,,,AAXX 06184 07335 32570 11904 10047 20012 30141 40291 57003 81500 333 10083 21014 81626=
07335,1999-12-06 19:00:00,3.3,1028.7,-0.7,85,1,,11.112,,,190,,,,,,,,,,,og-post,,,,AAXX 06194 07335 36/// /1906 10033 20010 30136 40287 58007=
07335,1999-12-06 20:00:00,2.7,1028.4,-0.9,85,0.4,,11.112,,,190,,,,,,,,,,,og-post,,,,AAXX 06204 07335 36/// /1906 10027 20004 30133 40284 58009=
07335,1999-12-06 21:00:00,2.7,1027.9,-1.3,84,0.3,,11.112,,,210,,,,,,,,,,,og-post,,,,AAXX 06214 07335 36/// /2106 10027 20003 30128 40279 57013=
07335,1999-12-06 22:00:00,2.2,1027.7,-1,86,0.1,,7.408,,,200,,,,,,,,,,,og-post,,,,AAXX 06224 07335 36/// /2004 10022 20001 30126 40277 56010=
07335,1999-12-06 23:00:00,-0.5,1027.5,-1.1,85,-2.7,,3.704,,,200,,,,,,,,,,,og-post,,,,AAXX 06234 07335 36/// /2002 11005 21027 30122 40275 56011=
07335,1999-12-07 00:00:00,-1.4,1027.1,-1,92,-2.5,,,,,,,,,,,,,,,,og-post,,,,AAXX 07004 07335 36/// /0000 11014 21025 30118 40271 58010=
07335,1999-12-07 01:00:00,-2,1026.6,-1.3,97,-2.4,,,,,,,,,,,,,,,,og-post,,,,AAXX 07014 07335 36/// /0000 11020 21024 30113 40266 58013=
07335,1999-12-07 02:00:00,-1.2,1026,-1.5,96,-1.8,,11.112,,,180,,,,,,,,,,,og-post,,,,AAXX 07024 07335 36/// /1806 11012 21018 30107 40260 58015=
07335,1999-12-07 03:00:00,-0.4,1025.2,-1.8,93,-1.4,,7.408,,,190,,,,,,,,,,,og-post,,,,AAXX 07034 07335 36/// /1904 11004 21014 30100 40252 58018=
07335,1999-12-07 04:00:00,-1,1024.8,-1.8,96,-1.6,,7.408,,,220,,,,,,,,,,,og-post,,,,AAXX 07044 07335 36/// /2204 11010 21016 30095 40248 56018=
07335,1999-12-07 05:00:00,-1.8,1024.4,-1.6,96,-2.4,20000,7.408,,,200,,,,,,,,,,,og-post,,,,AAXX 07054 07335 32970 02004 11018 21024 30091 40244 56016=
07335,1999-12-07 06:00:00,-0.8,1024.2,-1,93,-1.8,20000,14.816,,,200,-2.4,4.7,,,,,,4.6,-6,,og-post,,,,AAXX 07064 07335 32970 02008 11008 21018 30090 40242 56010 333 10047 21024 30106 55046 70000=
07335,1999-12-07 07:00:00,0.6,1024.1,-0.6,91,-0.7,12000,14.816,,,200,,,,,,,,,,,og-post,,,,AAXX 07074 07335 32562 72008 10006 21007 30089 40241 56006 875// 333 87620=
07335,1999-12-07 08:00:00,1.1,1024.2,-0,89,-0.5,12000,11.112,,,200,,,,,,,,,,,og-post,,,,AAXX 07084 07335 32562 72006 10011 21005 30091 40242 55000 875// 333 87623=
07335,1999-12-07 09:00:00,2.3,1024.2,0.1,85,0,12000,11.112,,,200,,,,,,,,,,,og-post,,,,AAXX 07094 07335 32562 72006 10023 20000 30091 40242 53001 875// 333 87624=
07335,1999-12-07 10:00:00,2.7,1023.9,0,85,0.4,12000,14.816,,,190,,,,,,,,,,,og-post,,,,AAXX 07104 07335 32562 71908 10027 20004 30089 40239 50000 875// 333 87625=
07335,1999-12-07 11:00:00,4.1,1023.6,-0.5,86,2,12000,14.816,,,200,,,,,,,,,,,og-post,,,,AAXX 07114 07335 32562 72008 10041 20020 30086 40236 58005 875// 333 87628=
07335,1999-12-07 12:00:00,5.6,1022.6,-1.4,85,3.3,15000,14.816,,,200,,,,,,,,,,,og-post,,,,AAXX 07124 07335 32565 62008 10056 20033 30077 40226 58014 83532 333 83632 83360=
07335,1999-12-07 13:00:00,7.1,1021.9,-1.8,87,5.1,15000,14.816,,,210,,,,,,,,,,,og-post,,,,AAXX 07134 07335 32565 72108 10071 20051 30071 40219 58018 875// 333 87628=
07335,1999-12-07 14:00:00,8.3,1020.9,-2.4,85,5.9,15000,14.816,,,210,,,,,,,,,,,og-post,,,,AAXX 07144 07335 32565 72108 10083 20059 30062 40209 57024 875// 333 87628=
07335,1999-12-07 15:00:00,8.7,1020.9,-1.5,86,6.5,15000,22.224,,,210,,,,,,,,,,,og-post,,,,AAXX 07154 07335 32465 72112 10087 20065 30062 40209 56015 85532 333 85618 83360=
07335,1999-12-07 16:00:00,9,1020.8,-0.9,88,7.1,12000,18.52,,,210,,,,,,,,,,,og-post,,,,AAXX 07164 07335 32262 72110 10090 20071 30062 40208 56009 875// 333 82703 87615=
07335,1999-12-07 17:00:00,8,1020.8,-0.1,95,7.2,7000,22.224,,,220,,,,,,,,,,61,og-post,,,,AAXX 07174 07335 21357 82212 10080 20072 30061 40208 58001 76162 875// 333 69905 83706 87614=
07335,1999-12-07 18:00:00,8.2,1021.1,0.2,96,7.6,3500,22.224,,,220,-0.9,9,,,,,,,,58,og-post,,,,AAXX 07184 07335 /1235 82212 10082 20076 30064 40211 53002 69902 75865 875// 333 10090 21009 69907 84706 87610=
07335,1999-12-07 19:00:00,8.2,1021.9,1,98,7.9,1700,18.52,,,230,,,0.4,,,,,,,,og-post,,,,AAXX 07194 07335 26/17 /2310 10082 20079 30072 40219 53010 333 69945=
07335,1999-12-07 20:00:00,8.3,1022.1,1.3,97,7.9,,14.816,,,210,,,,,,,,,,,og-post,,,,AAXX 07204 07335 26/// /2108 10083 20079 30074 40221 51013 333 69905=
07335,1999-12-07 21:00:00,8.3,1022.3,1.2,98,8,,14.816,,,210,,,,0.4,,,,,,,og-post,,,,AAXX 07214 07335 26/// /2108 10083 20080 30076 40223 51012 333 69947=
07335,1999-12-07 22:00:00,8.5,1022.2,0.3,98,8.2,1700,14.816,,,220,,,,,,,,,,,og-post,,,,AAXX 07224 07335 26/17 /2208 10085 20082 30075 40222 50003 333 69905=
07335,1999-12-07 23:00:00,8.5,1022.1,0,99,8.4,500,11.112,,,210,,,,,,,,,,,og-post,,,,AAXX 07234 07335 26/05 /2106 10085 20084 30074 40221 50000 333 69905=
07335,1999-12-08 00:00:00,8.4,1022.4,0.1,99,8.3,1600,11.112,,,210,,,,,0.4,,,,,,og-post,,,,AAXX 08004 07335 /6/16 /2106 10084 20083 30077 40224 53001 69941 333 69907=
07335,1999-12-08 01:00:00,8.4,1022.1,-0.1,99,8.3,300,11.112,,,200,,,,,,,,,,,og-post,,,,AAXX 08014 07335 26/03 /2006 10084 20083 30074 40221 58001 333 69905=
07335,1999-12-08 02:00:00,8.1,1021.7,-0.4,99,8,1200,11.112,,,210,,,,,,,,,,,og-post,,,,AAXX 08024 07335 26/12 /2106 10081 20080 30070 40217 58004 333 69905=
07335,1999-12-08 03:00:00,8.1,1021.6,-0.8,99,8,,11.112,,,210,,,,,,,,,,,og-post,,,,AAXX 08034 07335 26/// /2106 10081 20080 30069 40216 56008 333 69907=
07335,1999-12-08 04:00:00,7.8,1020.9,-1.2,99,7.7,,14.816,,,210,,,,,,,,,,,og-post,,,,AAXX 08044 07335 26/// /2108 10078 20077 30062 40209 58012 333 69905=
07335,1999-12-08 05:00:00,8.4,1020.7,-1,99,8.3,3000,14.816,,,210,,,,,,,,,,10,og-post,,,,AAXX 08054 07335 21130 82108 10084 20083 30060 40207 58010 71022 886// 333 69905 87702=
07335,1999-12-08 06:00:00,8.4,1020.5,-1.1,99,8.3,2000,11.112,,,200,7.5,8.6,,,,0.4,0.4,0.6,6,10,og-post,,,,AAXX 08064 07335 /1120 82006 10084 20083 30058 40205 56011 69942 71022 886// 333 10086 20075 31006 55006 69907 70004 87702=
07335,1999-12-08 07:00:00,8.4,1020.1,-0.8,99,8.3,600,14.816,,,190,,,,,,,,,,47,og-post,,,,AAXX 08074 07335 31/06 91908 10084 20083 30054 40201 58008 74742=
07335,1999-12-08 08:00:00,8.6,1019.6,-1,99,8.5,400,11.112,,,200,,,,,,,,,,47,og-post,,,,AAXX 08084 07335 31/04 92006 10086 20085 30050 40196 58010 74744=
07335,1999-12-08 09:00:00,9.1,1019.2,-1.2,99,9,2500,14.816,,,210,,,,,,,,,,28,og-post,,,,AAXX 08094 07335 31125 82108 10091 20090 30046 40192 57012 72842 886// 333 88702=
07335,1999-12-08 10:00:00,9.9,1018.9,-1.1,98,9.6,10000,18.52,,,210,,,,,,,,,,,og-post,,,,AAXX 08104 07335 32160 72110 10099 20096 30043 40189 56011 876// 333 83703 87706=
07335,1999-12-08 11:00:00,10.1,1018,-1.5,96,9.5,6000,18.52,,,210,,,,,,,,,,51,og-post,,,,AAXX 08114 07335 21156 82110 10101 20095 30035 40180 58015 75152 887// 333 69905 82703 87706=
07335,1999-12-08 12:00:00,10.8,1016.9,-2.2,94,9.9,20000,18.52,,,220,,,,0.2,0.2,,,,,20,og-post,,,,AAXX 08124 07335 /1270 82210 10108 20099 30024 40169 58022 69921 72054 887// 333 69927 85705 87708=
07335,1999-12-08 13:00:00,11,1016,-2.8,95,10.2,20000,22.224,,,230,,,,,,,,,,20,og-post,,,,AAXX 08134 07335 31270 72312 10110 20102 30015 40160 58028 72022 877// 333 81703 85707 86636=
07335,1999-12-08 14:00:00,11.4,1015,-2.9,90,9.8,25000,22.224,,,240,,,,,,,,,,,og-post,,,,AAXX 08144 07335 32475 72412 10114 20098 30006 40150 56029 86801 333 85811 83636=
07335,1999-12-08 15:00:00,11.2,1014.5,-2.3,88,9.3,25000,25.928,,,230,,,,,,,,,,1,og-post,,,,AAXX 08154 07335 21475 72314 10112 20093 30001 40145 56023 70152 86801 333 69907 85813 85075=
07335,1999-12-08 16:00:00,10.9,1014.1,-1.8,90,9.3,25000,18.52,,,220,,,,,,,,,,,og-post,,,,AAXX 08164 07335 32475 72210 10109 20093 39997 40141 56018 86501 333 86613 85075=
07335,1999-12-08 17:00:00,10.3,1013.5,-1.6,89,8.6,25000,22.224,,,220,,,,,,,,,,,og-post,,,,AAXX 08174 07335 32475 72212 10103 20086 39990 40135 58016 86501 333 85612 83640 85075=
07335,1999-12-08 18:00:00,9.7,1013.6,-1,92,8.5,15000,22.224,,,230,8.3,11.9,,,,0.2,,,,61,og-post,,,,AAXX 08184 07335 /1165 82312 10097 20085 39991 40136 55010 69922 76165 875// 333 10119 20083 69907 82703 86613=
07335,1999-12-08 19:00:00,10.1,1013.3,-0.9,93,9,,22.224,,,230,,,0.4,,,,,,,,og-post,,,,AAXX 08194 07335 26/// /2312 10101 20090 39988 40133 56009 333 69945=
07335,1999-12-08 21:00:00,9.7,1012.5,-1.1,93,8.6,,25.928,,,220,,,,0.4,,,,,,,og-post,,,,AAXX 08214 07335 26/// /2214 10097 20086 39980 40125 57011 333 69947=
07335,1999-12-08 22:00:00,9.7,1011.9,-1.4,95,8.9,,25.928,,,210,,,0.2,,,,,,,,og-post,,,,AAXX 08224 07335 26/// /2114 10097 20089 39974 40119 58014 333 69925=
07335,1999-12-08 23:00:00,9.4,1011.1,-1.7,95,8.6,,25.928,,,200,,,,,,,,,,,og-post,,,,AAXX 08234 07335 26/// /2014 10094 20086 39966 40111 58017 333 69905=
07335,1999-12-09 00:00:00,9.2,1010.6,-1.9,96,8.6,,25.928,,,210,,,,0.2,0.6,,,,,,og-post,,,,AAXX 09004 07335 /6/// /2114 10092 20086 39961 40106 56019 69961 333 69927=
07335,1999-12-09 01:00:00,8.8,1009.4,-2.5,97,8.3,1700,25.928,,,200,,,0.4,,,,,,,,og-post,,,,AAXX 09014 07335 26/17 /2014 10088 20083 39949 40094 58025 333 69945=
07335,1999-12-09 02:00:00,8.8,1008.9,-2.2,96,8.2,,25.928,,,200,,,0.2,,,,,,,,og-post,,,,AAXX 09024 07335 26/// /2014 10088 20082 39944 40089 57022 333 69925=
07335,1999-12-09 03:00:00,8.8,1007.9,-2.7,96,8.2,,25.928,,,200,,,,0.8,,,,,,,og-post,,,,AAXX 09034 07335 26/// /2014 10088 20082 39934 40079 56027 333 69987=
07335,1999-12-09 04:00:00,8.7,1007.3,-2.1,97,8.3,1700,22.224,,,200,,,1,,,,,,,,og-post,,,,AAXX 09044 07335 26/17 /2012 10087 20083 39928 40073 58021 333 60015=
07335,1999-12-09 05:00:00,8.8,1006.9,-1.9,97,8.3,6000,18.52,,,210,,,8,,,,,,,61,og-post,,,,AAXX 09054 07335 21256 82110 10088 20083 39925 40069 56019 76162 885// 333 60085 85705 88621=
07335,1999-12-09 06:00:00,8.6,1006.4,-1.4,97,8.2,8000,14.816,,,210,8.4,10.2,,11,,12,12.6,0.3,8,61,og-post,,,,AAXX 09064 07335 /1258 82108 10086 20082 39920 40064 56014 60122 76162 885// 333 10102 20084 32008 55003 60117 70126 85706 87625=
07335,1999-12-09 07:00:00,8.5,1006.2,-1.1,97,8.1,8000,14.816,,,210,,,1,,,,,,,61,og-post,,,,AAXX 09074 07335 21258 82108 10085 20081 39917 40062 57011 76166 885// 333 60015 85705 85615 85625=
07335,1999-12-09 08:00:00,8.6,1006.1,-0.8,97,8.2,9000,11.112,,,200,,,0.2,,,,,,,61,og-post,,,,AAXX 09084 07335 21259 82006 10086 20082 39917 40061 56008 76166 885// 333 69925 82706 85628 87636=
07335,1999-12-09 09:00:00,8.4,1006.7,0.2,97,8,6000,14.816,,,240,,,,3,,,,,,61,og-post,,,,AAXX 09094 07335 21256 82408 10084 20080 39922 40067 53002 76162 885// 333 60037 82704 85628 87636=
07335,1999-12-09 10:00:00,8.8,1006.6,0.5,97,8.3,12000,11.112,,,220,,,,,,,,,,60,og-post,,,,AAXX 09104 07335 21262 72206 10088 20083 39922 40066 52005 76062 875// 333 69905 81706 83621 86628=
07335,1999-12-09 11:00:00,8.8,1006.2,0.1,95,8,15000,14.816,,,230,,,0.2,,,,,,,21,og-post,,,,AAXX 09114 07335 21265 72308 10088 20080 39918 40062 50001 72162 875// 333 69925 81706 83621 86646=
07335,1999-12-09 12:00:00,9.3,1005.4,-1.2,92,8.1,20000,14.816,,,220,,,,0.2,3,,,,,1,og-post,,,,AAXX 09124 07335 /1370 72208 10093 20081 39910 40054 58012 60031 70162 87802 333 69927 81706 83646 85075=
07335,1999-12-09 13:00:00,10.3,1004.5,-2,88,8.4,20000,14.816,,,230,,,,,,,,,,,og-post,,,,AAXX 09134 07335 32470 72308 10103 20084 39902 40045 58020 84802 333 83812 85075=
07335,1999-12-09 14:00:00,9.3,1004.1,-2.1,91,7.9,8000,14.816,,,240,,,0.4,,,,,,,80,og-post,,,,AAXX 09144 07335 21258 72408 10093 20079 39897 40041 56021 78086 878// 333 69945 81704 85816=
07335,1999-12-09 15:00:00,9.6,1003.7,-1.7,83,6.9,20000,18.52,,,230,,,,0.6,,,,,,25,og-post,,,,AAXX 09154 07335 21470 52310 10096 20069 39893 40037 56017 72586 84802 333 69967 82815 83650=
07335,1999-12-09 16:00:00,8.4,1003.6,-1,86,6.2,20000,14.816,,,230,,,,,,,,,,15,og-post,,,,AAXX 09164 07335 31270 62308 10084 20062 39892 40036 56010 71522 84802 333 81704 83636 85075=
07335,1999-12-09 17:00:00,7.6,1003.8,-0.4,89,5.9,20000,11.112,,,220,,,,,,,,,,,og-post,,,,AAXX 09174 07335 32570 72206 10076 20059 39893 40038 55004 84802 333 82822 83636 86075=
07335,1999-12-09 18:00:00,7.5,1004,0.2,91,6.1,,14.816,,,230,7.5,10.5,,,,3,,,,,og-post,,,,AAXX 09184 07335 16/// /2308 10075 20061 39895 40040 53002 60032 333 10105 20075=
07335,1999-12-09 19:00:00,7.3,1004.5,0.8,93,6.2,,18.52,,,240,,,0.4,,,,,,,,og-post,,,,AAXX 09194 07335 26/// /2410 10073 20062 39900 40045 53008 333 69945=
07335,1999-12-09 20:00:00,6.4,1004.6,0.8,96,5.8,,11.112,,,210,,,0.2,,,,,,,,og-post,,,,AAXX 09204 07335 26/// /2106 10064 20058 39901 40046 51008 333 69925=
07335,1999-12-09 21:00:00,6.3,1005.1,1,96,5.7,,14.816,,,230,,,,0.6,,,,,,,og-post,,,,AAXX 09214 07335 26/// /2308 10063 20057 39905 40051 51010 333 69967=
07335,1999-12-09 22:00:00,5.8,1005.4,0.8,94,4.9,,14.816,,,250,,,,,,,,,,,og-post,,,,AAXX 09224 07335 36/// /2508 10058 20049 39908 40054 53008=
07335,1999-12-09 23:00:00,4.8,1005.9,1.1,94,3.9,,18.52,,,240,,,,,,,,,,,og-post,,,,AAXX 09234 07335 36/// /2410 10048 20039 39912 40059 52011=
07335,1999-12-10 00:00:00,4.1,1006.5,1.3,96,3.5,,14.816,,,250,,,,,0.6,,,,,,og-post,,,,AAXX 10004 07335 16/// /2508 10041 20035 39918 40065 53013 69961=
07335,1999-12-10 01:00:00,3.7,1006.7,1.2,97,3.3,,14.816,,,240,,,,,,,,,,,og-post,,,,AAXX 10014 07335 36/// /2408 10037 20033 39920 40067 51012=
07335,1999-12-10 02:00:00,3.7,1007,1.1,95,3,,18.52,,,250,,,,,,,,,,,og-post,,,,AAXX 10024 07335 36/// /2510 10037 20030 39923 40070 51011=
07335,1999-12-10 04:00:00,2.5,1008.1,1.3,97,2.1,,14.816,,,240,,,,,,,,,,,og-post,,,,AAXX 10044 07335 36/// /2408 10025 20021 39933 40081 53013=
07335,1999-12-10 05:00:00,1.9,1008.7,1.5,97,1.5,10000,14.816,,,240,,,,,,,,,,,og-post,,,,AAXX 10054 07335 32960 02408 10019 20015 39938 40087 52015=
07335,1999-12-10 06:00:00,2.6,1009.2,1.6,96,2,15000,14.816,,,240,1.8,7.6,,,,0.6,,1.1,0,,og-post,,,,AAXX 10064 07335 12965 02408 10026 20020 39944 40092 53016 69962 333 10076 20018 31000 55011 70040=
07335,1999-12-10 07:00:00,2,1009.8,1.6,94,1.1,20000,14.816,,,250,,,,,,,,,,,og-post,,,,AAXX 10074 07335 32770 12508 10020 20011 39949 40098 52016 81500 333 81650=
07335,1999-12-10 08:00:00,2.1,1010.8,2.1,97,1.7,25000,14.816,,,240,,,,,,,,,,,og-post,,,,AAXX 10084 07335 32775 12408 10021 20017 39959 40108 53021 81530 333 81650=
07335,1999-12-10 09:00:00,4.6,1011.6,2.5,90,3.1,30000,18.52,,,250,,,,,,,,,,,og-post,,,,AAXX 10094 07335 32680 52510 10046 20031 39969 40116 53025 81530 333 81646 85359=
07335,1999-12-10 10:00:00,6.6,1012.5,2.9,83,3.9,30000,18.52,,,270,,,,,,,,,,,og-post,,,,AAXX 10104 07335 32780 12710 10066 20039 39978 40125 51029 81530 333 81650=
07335,1999-12-10 11:00:00,8.4,1012.7,2.2,76,4.4,30000,14.816,,,260,,,,,,,,,,,og-post,,,,AAXX 10114 07335 32780 32608 10084 20044 39981 40127 51022 81501 333 81650 83075=
07335,1999-12-10 12:00:00,8.7,1012.8,1.3,68,3.1,30000,22.224,,,270,,,,,,,,,,,og-post,,,,AAXX 10124 07335 32580 72712 10087 20031 39982 40128 51013 81101 333 81823 87075=
07335,1999-12-10 13:00:00,9.1,1012.6,0.3,68,3.5,30000,18.52,,,280,,,,,,,,,,,og-post,,,,AAXX 10134 07335 32580 72810 10091 20035 39981 40126 50003 81201 333 81825 87075=
07335,1999-12-10 14:00:00,8.8,1012.9,0.3,67,3,30000,22.224,,,280,,,,,,,,,,,og-post,,,,AAXX 10144 07335 32580 42812 10088 20030 39984 40129 53003 81232 333 81825 84073=
07335,1999-12-10 15:00:00,8.3,1013.2,0.4,67,2.5,30000,14.816,,,260,,,,,,,,,,,og-post,,,,AAXX 10154 07335 32580 72608 10083 20025 39986 40132 53004 81231 333 81825 87073=
07335,1999-12-10 16:00:00,7.4,1013.2,0.5,77,3.6,30000,14.816,,,240,,,,,,,,,,,og-post,,,,AAXX 10164 07335 32580 72408 10074 20036 39986 40132 51005 81152 333 81823 85361 87073=
07335,1999-12-10 17:00:00,7.2,1013,0,79,3.8,30000,14.816,,,220,,,,,,,,,,,og-post,,,,AAXX 10174 07335 32780 82208 10072 20038 39984 40130 50000 8257/ 333 82650 87360=
07335,1999-12-10 18:00:00,7.3,1012.7,-0.5,84,4.8,25000,14.816,,,220,1.9,9.5,,,,,,,,61,og-post,,,,AAXX 10184 07335 /1775 82208 10073 20048 39981 40127 58005 69902 76161 8557/ 333 10095 20019 69907 85650 88360=
07335,1999-12-10 19:00:00,6.5,1012.7,-0.6,92,5.3,,14.816,,,210,,,0.8,,,,,,,,og-post,,,,AAXX 10194 07335 26/// /2108 10065 20053 39980 40127 56006 333 69985=
07335,1999-12-10 20:00:00,6.5,1012,-1,94,5.6,,18.52,,,200,,,0.4,,,,,,,,og-post,,,,AAXX 10204 07335 26/// /2010 10065 20056 39974 40120 58010 333 69945=
07335,1999-12-10 21:00:00,6.6,1011.3,-1.4,96,6,,25.928,,,210,,,,1,,,,,,,og-post,,,,AAXX 10214 07335 26/// /2114 10066 20060 39967 40113 58014 333 60017=
07335,1999-12-10 22:00:00,6.8,1010.7,-1.9,96,6.2,,25.928,,,210,,,0.2,,,,,,,,og-post,,,,AAXX 10224 07335 26/// /2114 10068 20062 39961 40107 57019 333 69925=
07335,1999-12-10 23:00:00,7,1010,-2,97,6.6,,22.224,,,210,,,0.2,,,,,,,,og-post,,,,AAXX 10234 07335 26/// /2112 10070 20066 39954 40100 57020 333 69925=
07335,1999-12-11 00:00:00,7.5,1009.2,-2,97,7.1,1800,18.52,,,210,,,,1,3,,,,,,og-post,,,,AAXX 11004 07335 /6/18 /2110 10075 20071 39947 40092 58020 60031 333 60017=
07335,1999-12-11 01:00:00,8.5,1008.3,-2.3,98,8.2,,18.52,,,210,,,0.2,,,,,,,,og-post,,,,AAXX 11014 07335 26/// /2110 10085 20082 39938 40083 58023 333 69925=
07335,1999-12-11 02:00:00,10.6,1007.4,-2.4,97,10.1,,25.928,,,230,,,2,,,,,,,,og-post,,,,AAXX 11024 07335 26/// /2314 10106 20101 39930 40074 58024 333 60025=
07335,1999-12-11 03:00:00,11.3,1006.8,-2.2,96,10.7,,29.632,,,260,,,,3,,,,,,,og-post,,,,AAXX 11034 07335 26/// /2616 10113 20107 39925 40068 56022 333 60037=
07335,1999-12-11 04:00:00,11.6,1006.8,-1.3,93,10.5,,25.928,,,270,,,,,,,,,,,og-post,,,,AAXX 11044 07335 26/// /2714 10116 20105 39925 40068 56013 333 69905=
07335,1999-12-11 05:00:00,12,1007.2,-0.1,90,10.4,15000,29.632,,,280,,,,,,,,,,,og-post,,,,AAXX 11054 07335 22465 82816 10120 20104 39929 40072 55001 885// 333 69905 88614=
07335,1999-12-11 06:00:00,12,1007.6,0.8,91,10.6,15000,29.632,,,270,6.4,12.1,,,,5,5.4,6,6,,og-post,,,,AAXX 11064 07335 /2465 82716 10120 20106 39933 40076 53008 60052 885// 333 10121 20064 32006 55060 69907 70054 83711 88630=
07335,1999-12-11 07:00:00,11.4,1008.3,1.5,96,10.8,15000,22.224,,,270,,,0.4,,,,,,,60,og-post,,,,AAXX 11074 07335 21265 82712 10114 20108 39940 40083 53015 76062 885// 333 69945 83705 83710 87636=
07335,1999-12-11 08:00:00,11.6,1008.6,1.4,94,10.7,15000,25.928,,,260,,,,,,,,,,60,og-post,,,,AAXX 11084 07335 21165 82614 10116 20107 39943 40086 51014 76066 885// 333 69905 81702 83710 87616=
07335,1999-12-11 09:00:00,12,1008.9,1.3,91,10.6,15000,29.632,,,250,,,,0.4,,,,,,21,og-post,,,,AAXX 11094 07335 21465 82516 10120 20106 39946 40089 51013 72162 885// 333 69947 87613=
07335,1999-12-11 10:00:00,12.4,1009.3,1,89,10.6,15000,31.484,50.004,,270,,,,,,,,,,,og-post,,,,AAXX 11104 07335 32465 82717 10124 20106 39950 40093 53010 885// 333 87613 91127=
07335,1999-12-11 11:00:00,12.7,1009.1,0.5,87,10.6,15000,35.188,61.116,,260,,,,,,,,,,,og-post,,,,AAXX 11114 07335 32465 82619 10127 20106 39948 40091 50005 885// 333 85615 87650 91133=
07335,1999-12-11 12:00:00,13.1,1008.7,-0.1,84,10.5,15000,35.188,61.116,57.412,260,,,,,0.4,,,,,2,og-post,,,,AAXX 11124 07335 11465 82619 10131 20105 39945 40087 58001 69941 70262 885// 333 85616 87650 91031 91133=
07335,1999-12-11 13:00:00,13,1008.3,-0.9,86,10.7,15000,35.188,,,250,,,,,,,,,,,og-post,,,,AAXX 11134 07335 32465 82519 10130 20107 39941 40083 58009 885// 333 85616 87630=
07335,1999-12-11 14:00:00,12.9,1007.9,-1.1,83,10.1,15000,35.188,64.82,,250,,,,,,,,,,,og-post,,,,AAXX 11144 07335 32565 82519 10129 20101 39937 40079 58011 885// 333 85620 87650 91135=
07335,1999-12-11 15:00:00,12.9,1008,-0.7,83,10.1,15000,31.484,64.82,,250,,,,,,,,,,,og-post,,,,AAXX 11154 07335 32565 82517 10129 20101 39938 40080 55007 885// 333 85620 87650 91135=
07335,1999-12-11 16:00:00,12.6,1007.9,-0.5,84,10,12000,35.188,57.412,57.412,250,,,,,,,,,,60,og-post,,,,AAXX 11164 07335 21262 82519 10126 20100 39936 40079 56005 76062 885// 333 69905 82704 85620 87630 91031 91131=
07335,1999-12-11 17:00:00,12.6,1007.8,-0.2,84,10,,35.188,61.116,,240,,,,,,,,,,,og-post,,,,AAXX 11174 07335 26/// /2419 10126 20100 39935 40078 58002 333 69905 91133=
07335,1999-12-11 18:00:00,12.6,1007.4,-0.7,85,10.1,,38.892,64.82,,240,11.3,13.1,,,,0.4,,,,,og-post,,,,AAXX 11184 07335 /6/// /2421 10126 20101 39931 40074 58007 69942 333 10131 20113 69907 91135=
07335,1999-12-11 19:00:00,11.9,1007.4,-0.5,94,11,,31.484,61.116,,240,,,0.2,,,,,,,,og-post,,,,AAXX 11194 07335 26/// /2417 10119 20110 39931 40074 56005 333 69925 91133=
07335,1999-12-11 20:00:00,12.2,1006.7,-1.1,92,10.9,,35.188,57.412,57.412,250,,,0.6,,,,,,,,og-post,,,,AAXX 11204 07335 26/// /2519 10122 20109 39924 40067 58011 333 69965 91031 91131=
07335,1999-12-11 21:00:00,12.6,1006.5,-0.8,89,10.8,,38.892,64.82,64.82,250,,,,0.8,,,,,,,og-post,,,,AAXX 11214 07335 26/// /2521 10126 20108 39923 40065 58008 333 69987 91035 91135=
07335,1999-12-11 22:00:00,12.7,1005.6,-1.7,88,10.8,,35.188,61.116,,250,,,,,,,,,,,og-post,,,,AAXX 11224 07335 26/// /2519 10127 20108 39914 40056 58017 333 69905 91133=
07335,1999-12-12 00:00:00,12.4,1004.1,-2.4,92,11.1,1900,38.892,64.82,64.82,250,,,,1,2,,,,,,og-post,,,,AAXX 12004 07335 /6/19 /2521 10124 20111 39899 40041 57024 60021 333 60017 91035 91135=
07335,1999-12-12 01:00:00,12.4,1002.5,-3.1,89,10.6,,38.892,75.932,57.412,240,,,0.4,,,,,,,,og-post,,,,AAXX 12014 07335 26/// /2421 10124 20106 39883 40025 58031 333 69945 91031 91141=
07335,1999-12-12 02:00:00,12.3,1001.2,-3.8,87,10.2,,31.484,83.34,,230,,,0.2,,,,,,,,og-post,,,,AAXX 12024 07335 26/// /2317 10123 20102 39870 40012 58038 333 69925 91145=
07335,1999-12-12 03:00:00,11.7,1000,-4.1,91,10.3,600,38.892,83.34,61.116,220,,,,1,,,,,,,og-post,,,,AAXX 12034 07335 26/06 /2221 10117 20103 39858 40000 56041 333 60017 91033 91145=
07335,1999-12-12 04:00:00,10.9,998,-4.5,89,9.2,1700,38.892,68.524,,210,,,2,,,,,,,,og-post,,,,AAXX 12044 07335 26/17 /2121 10109 20092 39838 49980 58045 333 60025 91137=
07335,1999-12-12 05:00:00,10.6,996.5,-4.7,94,9.7,3000,42.596,72.228,68.524,210,,,2,,,,,,,61,og-post,,,,AAXX 12054 07335 21230 82123 10106 20097 39823 49965 58047 76162 877// 333 60025 84705 87615 91037 91139=
07335,1999-12-12 06:00:00,11,996.5,-3.5,94,10,12000,46.3,,68.524,250,10.6,12.9,,5,,,,,,60,wg-a,,,,AAXX 12064 07335 12262 62525 10110 20100 39823 49965 56035 60057 76062 86500 90600 333 10129 20106 91037=
07335,1999-12-12 07:00:00,10.8,997.7,-0.3,89,9.1,5000,35.188,75.932,,260,,,0.4,,,,,,,80,og-post,,,,AAXX 12074 07335 21250 72619 10108 20091 39835 49977 55003 78086 873// 333 69945 81705 84913 85620 91141=
07335,1999-12-12 08:00:00,10.1,998.7,2.1,80,6.8,15000,50.004,79.636,79.636,260,,,0.6,,,,,,,25,og-post,,,,AAXX 12084 07335 21265 62627 10101 20068 39844 49987 53021 72586 86900 333 69965 81703 83913 91043 91143=
07335,1999-12-12 09:00:00,9.6,1001,4.4,80,6.3,25000,38.892,96.304,64.82,270,,,,1,,,,,,25,og-post,,,,AAXX 12094 07335 21275 62721 10096 20063 39867 40010 53044 72586 86900 333 60017 82703 82913 83626 91035 91152=
07335,1999-12-12 10:00:00,10.3,1003,5.2,81,7.2,25000,35.188,68.524,53.708,270,,,,,,,,,,,og-post,,,,AAXX 12104 07335 32475 72719 10103 20072 39887 40030 53052 879// 333 82913 86825 91029 91137=
07335,1999-12-12 11:00:00,10.6,1003.9,5.2,69,5.2,15000,42.596,72.228,72.228,270,,,,,,,,,,80,og-post,,,,AAXX 12114 07335 21365 62723 10106 20052 39896 40039 51052 78086 86900 333 69905 82706 81913 85626 91039 91139=
07335,1999-12-12 12:00:00,10.1,1005.1,4,67,4.3,30000,46.3,96.304,79.636,280,,,,0.2,2,,,,,25,og-post,,,,AAXX 12124 07335 /1480 32825 10101 20043 39907 40051 51040 60021 72586 82802 333 69927 82813 91043 91152=
07335,1999-12-12 13:00:00,10.6,1006.7,3.6,66,4.5,30000,50.004,75.932,68.524,280,,,,,,,,,,15,og-post,,,,AAXX 12134 07335 31480 42827 10106 20045 39923 40067 53036 71500 83902 333 82916 91037 91141=
07335,1999-12-12 14:00:00,10.3,1007.7,3.7,62,3.3,30000,38.892,72.228,61.116,280,,,,,,,,,,,og-post,,,,AAXX 12144 07335 32480 22821 10103 20033 39933 40077 51037 82902 333 81916 91033 91139=
07335,1999-12-12 15:00:00,9.3,1008.8,3.6,67,3.5,30000,35.188,75.932,53.708,280,,,,,,,,,,,og-post,,,,AAXX 12154 07335 32480 32819 10093 20035 39943 40088 51036 83902 333 82916 91029 91141=
07335,1999-12-12 16:00:00,8.9,1009.5,2.7,68,3.3,30000,31.484,61.116,,270,,,,,,,,,,,og-post,,,,AAXX 12164 07335 32480 32717 10089 20033 39950 40095 51027 82932 333 82916 91133=
07335,1999-12-12 17:00:00,8.6,1010.7,2.9,70,3.4,,25.928,50.004,,280,,,,,,,,,,,og-post,,,,AAXX 12174 07335 36/// /2814 10086 20034 39962 40107 53029 333 91127=
07335,1999-12-12 19:00:00,6.2,1013.1,3.4,76,2.3,,18.52,,,260,,,,,,,,,,,og-post,,,,AAXX 12194 07335 36/// /2610 10062 20023 39984 40131 52034=
07335,1999-12-12 20:00:00,6.6,1013.6,2.7,74,2.3,,25.928,,,270,,,,,,,,,,,og-post,,,,AAXX 12204 07335 36/// /2714 10066 20023 39989 40136 51027=
07335,1999-12-12 21:00:00,5.7,1014.5,2.6,77,2,,18.52,,,280,,,,,,,,,,,og-post,,,,AAXX 12214 07335 36/// /2810 10057 20020 39998 40145 51026=
07335,1999-12-12 22:00:00,5,1015.4,2.2,82,2.2,,14.816,,,250,,,,,,,,,,,og-post,,,,AAXX 12224 07335 36/// /2508 10050 20022 30006 40154 53022=
07335,1999-12-12 23:00:00,4.8,1016,2.3,83,2.2,,18.52,,,260,,,,,,,,,,,og-post,,,,AAXX 12234 07335 36/// /2610 10048 20022 30012 40160 51023=
07335,1999-12-13 00:00:00,4.6,1016.5,1.9,86,2.5,,22.224,,,260,,,,,,,,,,,og-post,,,,AAXX 13004 07335 36/// /2612 10046 20025 30017 40165 51019=
07335,1999-12-13 01:00:00,4.6,1017.1,1.7,86,2.5,,22.224,,,250,,,,,,,,,,,og-post,,,,AAXX 13014 07335 36/// /2512 10046 20025 30023 40171 52017=
07335,1999-12-13 02:00:00,4.2,1017.6,1.5,88,2.4,,18.52,,,250,,,,,,,,,,,og-post,,,,AAXX 13024 07335 36/// /2510 10042 20024 30027 40176 51015=
07335,1999-12-13 03:00:00,4,1017.8,1.2,90,2.5,,18.52,,,250,,,,,,,,,,,og-post,,,,AAXX 13034 07335 36/// /2510 10040 20025 30029 40178 51012=
07335,1999-12-13 04:00:00,5,1017.8,0.7,87,3,,18.52,,,250,,,,,,,,,,,og-post,,,,AAXX 13044 07335 36/// /2510 10050 20030 30030 40178 51007=
07335,1999-12-13 05:00:00,5.3,1017.8,0.3,87,3.3,10000,14.816,,,240,,,,,,,,,,,og-post,,,,AAXX 13054 07335 33660 82408 10053 20033 30030 40178 51003 875// 333 83633 87650=
07335,1999-12-13 06:00:00,5.1,1017.9,0.2,88,3.3,12000,14.816,,,230,3.7,,,,,,1.6,3,2,,og-post,,,,AAXX 13064 07335 32662 72308 10051 20033 30031 40179 52002 875// 333 10078 20037 31002 55030 70016 83633 87650=
07335,1999-12-13 07:00:00,5,1017.7,-0.1,89,3.3,12000,11.112,,,200,,,,,,,,,,,og-post,,,,AAXX 13074 07335 32662 72006 10050 20033 30029 40177 58001 875// 333 83633 87650=
07335,1999-12-13 08:00:00,5.5,1017.6,-0.2,90,4,12000,11.112,,,210,,,,,,,,,,,og-post,,,,AAXX 13084 07335 32562 72106 10055 20040 30028 40176 58002 875// 333 82630 87650=
07335,1999-12-13 09:00:00,5.9,1017.9,-0,94,5,5000,18.52,,,230,,,,0.8,,,,,,61,og-post,,,,AAXX 13094 07335 21150 82310 10059 20050 30031 40179 55000 76162 885// 333 69987 83702 85620 87631=
07335,1999-12-13 10:00:00,6.1,1017.4,-0.2,96,5.5,8000,14.816,,,200,,,0.6,,,,,,,21,og-post,,,,AAXX 13104 07335 21258 82008 10061 20055 30027 40174 58002 72162 8552/ 333 69965 82703 84620 88459=
07335,1999-12-13 11:00:00,7,1016.7,-0.8,94,6.1,12000,18.52,,,220,,,,,,,,,,,og-post,,,,AAXX 13114 07335 32362 82210 10070 20061 30020 40167 58008 8552/ 333 82706 84623 88459=
07335,1999-12-13 12:00:00,7.5,1015.6,-2.1,91,6.1,10000,18.52,,,230,,,,0.8,2,,,,,61,og-post,,,,AAXX 13124 07335 /1260 82310 10075 20061 30010 40156 58021 60021 76162 8652/ 333 69987 83705 85623 88459=
07335,1999-12-13 13:00:00,8,1014.7,-2.6,92,6.8,10000,14.816,,,210,,,,,,,,,,60,og-post,,,,AAXX 13134 07335 21260 82108 10080 20068 30001 40147 58026 76066 8652/ 333 69905 83705 85623 88459=
07335,1999-12-13 14:00:00,8.7,1013.7,-2.9,85,6.3,12000,18.52,,,230,,,,,,,,,,21,og-post,,,,AAXX 13144 07335 21362 82310 10087 20063 39991 40137 57029 72162 8657/ 333 69905 81706 84633 87359=
07335,1999-12-13 15:00:00,8.9,1013,-2.5,84,6.3,12000,22.224,,,230,,,,,,,,,,3,og-post,,,,AAXX 13154 07335 21462 72312 10089 20063 39985 40130 56025 70362 8683/ 333 69907 83818 85650 87359=
07335,1999-12-13 16:00:00,8.8,1012.1,-2.5,87,6.8,12000,18.52,,,230,,,,,,,,,,,og-post,,,,AAXX 13164 07335 32462 72310 10088 20068 39976 40121 56025 8683/ 333 82818 85636 87359=
07335,1999-12-13 17:00:00,8.5,1011.9,-1.7,87,6.5,10000,22.224,,,240,,,0.2,,,,,,,21,og-post,,,,AAXX 13174 07335 21460 72412 10085 20065 39974 40119 56017 72162 8583/ 333 69925 82818 84636 87359=
07335,1999-12-13 19:00:00,8.5,1010.7,-1.4,90,7,,22.224,,,220,,,,,,,,,,,og-post,,,,AAXX 13194 07335 26/// /2212 10085 20070 39962 40107 58014 333 69905=
07335,1999-12-13 20:00:00,8.4,1009.8,-2.1,91,7,,22.224,,,220,,,,,,,,,,,og-post,,,,AAXX 13204 07335 26/// /2212 10084 20070 39953 40098 58021 333 69905=
07335,1999-12-13 21:00:00,8.4,1008.9,-2.4,94,7.5,,22.224,,,230,,,,1,,,,,,,og-post,,,,AAXX 13214 07335 26/// /2312 10084 20075 39944 40089 58024 333 60017=
07335,1999-12-13 22:00:00,8.8,1008,-2.7,94,7.9,,25.928,,,230,,,0.2,,,,,,,,og-post,,,,AAXX 13224 07335 26/// /2314 10088 20079 39935 40080 57027 333 69925=
07335,1999-12-13 23:00:00,8.9,1007.3,-2.4,94,8,,29.632,,,240,,,0.2,,,,,,,,og-post,,,,AAXX 13234 07335 26/// /2416 10089 20080 39929 40073 56024 333 69925=
07335,1999-12-14 00:00:00,8.9,1006.4,-2.4,92,7.7,,31.484,,,250,,,,0.8,2,,,,,,og-post,,,,AAXX 14004 07335 /6/// /2517 10089 20077 39920 40064 57024 60021 333 69987=
07335,1999-12-14 01:00:00,8.8,1005.5,-2.4,95,8,,25.928,,,240,,,0.4,,,,,,,,og-post,,,,AAXX 14014 07335 26/// /2414 10088 20080 39911 40055 58024 333 69945=
07335,1999-12-14 02:00:00,8.7,1004.9,-2.4,96,8.1,,25.928,,,240,,,2,,,,,,,,og-post,,,,AAXX 14024 07335 26/// /2414 10087 20081 39905 40049 56024 333 60025=
07335,1999-12-14 03:00:00,8.7,1004.4,-2,96,8.1,1700,18.52,,,270,,,,6,,,,,,,og-post,,,,AAXX 14034 07335 26/17 /2710 10087 20081 39900 40044 56020 333 60067=
07335,1999-12-14 04:00:00,8.8,1003.5,-2,96,8.2,,22.224,,,240,,,3,,,,,,,,og-post,,,,AAXX 14044 07335 26/// /2412 10088 20082 39891 40035 58020 333 60035=
07335,1999-12-14 05:00:00,8.8,1003.3,-1.6,96,8.2,15000,18.52,,,250,,,3,,,,,,,61,og-post,,,,AAXX 14054 07335 21265 82510 10088 20082 39889 40033 56016 76162 885// 333 60035 81705 87625=
07335,1999-12-14 06:00:00,8.5,1003.5,-0.9,97,8.1,10000,14.816,,,260,8.2,9,,6,,14,15.6,,7,61,og-post,,,,AAXX 14064 07335 /1460 82608 10085 20081 39891 40035 55009 60142 76162 885// 333 10090 20082 32007 55000 60067 70156 84711 87630=
07335,1999-12-14 07:00:00,7.5,1003.8,0.2,93,6.4,15000,14.816,,,280,,,0.6,,,,,,,60,og-post,,,,AAXX 14074 07335 21465 82808 10075 20064 39893 40038 53002 76066 885// 333 69965 81710 87627=
07335,1999-12-14 08:00:00,7.3,1004.1,0.7,91,5.9,25000,14.816,,,270,,,,,,,,,,21,og-post,,,,AAXX 14084 07335 21575 72708 10073 20059 39896 40041 53007 72162 875// 333 69905 86628 86650=
07335,1999-12-14 09:00:00,7.2,1004,0.4,92,6,25000,11.112,,,270,,,,0.6,,,,,,1,og-post,,,,AAXX 14094 07335 21675 72706 10072 20060 39895 40040 50004 70162 875// 333 69967 87646=
07335,1999-12-14 10:00:00,7.4,1004.6,0.8,91,6,30000,11.112,,,260,,,,,,,,,,,og-post,,,,AAXX 14104 07335 32680 72606 10074 20060 39901 40046 53008 875// 333 82638 87656=
07335,1999-12-14 11:00:00,7.4,1004.5,0.4,82,4.5,30000,14.816,,,290,,,,,,,,,,,og-post,,,,AAXX 14114 07335 32680 72908 10074 20045 39900 40045 52004 87532 333 82640 85656 85075=
07335,1999-12-14 12:00:00,7.5,1004.2,0.2,77,3.7,30000,18.52,,,300,,,,,0.6,,,,,1,og-post,,,,AAXX 14124 07335 11780 73010 10075 20037 39897 40042 50002 69961 70162 87532 333 84656 87075=
07335,1999-12-14 13:00:00,7.4,1003.9,-0.7,75,3.3,,14.816,,,290,,,,,,,,,,,og-post,,,,AAXX 14134 07335 36/// /2908 10074 20033 39894 40039 58007=
07335,1999-12-14 14:00:00,7.1,1003.8,-0.7,72,2.4,30000,14.816,,,290,,,,,,,,,,,og-post,,,,AAXX 14144 07335 32580 72908 10071 20024 39893 40038 56007 87532 333 81823 87075=
07335,1999-12-14 15:00:00,6.6,1004.1,-0.1,76,2.7,30000,11.112,,,300,,,,,,,,,,,og-post,,,,AAXX 14154 07335 32580 73006 10066 20027 39896 40041 55001 82532 333 81823 87075=
07335,1999-12-14 16:00:00,5.1,1004.5,0.5,83,2.5,30000,11.112,,,280,,,,,,,,,,,og-post,,,,AAXX 14164 07335 32580 62806 10051 20025 39899 40045 53005 82832 333 81823 86075=
07335,1999-12-14 17:00:00,3.2,1004.9,0.9,89,1.6,30000,7.408,,,280,,,,,,,,,,,og-post,,,,AAXX 14174 07335 32580 52804 10032 20016 39902 40049 52009 81832 333 81821 85073=
07335,1999-12-14 19:00:00,-0.4,1005.2,0.4,94,-1.2,,11.112,,,270,,,,,,,,,,,og-post,,,,AAXX 14194 07335 36/// /2706 11004 21012 39903 40052 52004=
07335,1999-12-14 20:00:00,-0.4,1005.4,0.3,97,-0.8,,11.112,,,290,,,,,,,,,,,og-post,,,,AAXX 14204 07335 36/// /2906 11004 21008 39905 40054 53003=
07335,1999-12-14 21:00:00,-0.9,1005.5,0.5,97,-1.3,,7.408,,,270,,,,,,,,,,,og-post,,,,AAXX 14214 07335 36/// /2704 11009 21013 39905 40055 51005=
07335,1999-12-14 22:00:00,-1.1,1005.9,0.6,97,-1.5,,3.704,,,280,,,,,,,,,,,og-post,,,,AAXX 14224 07335 36/// /2802 11011 21015 39909 40059 53006=
07335,1999-12-14 23:00:00,-1,1005.9,0.4,97,-1.4,,3.704,,,220,,,,,,,,,,,og-post,,,,AAXX 14234 07335 36/// /2202 11010 21014 39909 40059 52004=
07335,1999-12-15 00:00:00,-1.6,1006.1,0.6,98,-1.9,,3.704,,,320,,,,,,,,,,,og-post,,,,AAXX 15004 07335 36/// /3202 11016 21019 39911 40061 51006=
07335,1999-12-15 02:00:00,0.4,1006.3,0.5,97,0,,7.408,,,360,,,,,,,,,,,og-post,,,,AAXX 15024 07335 36/// /3604 10004 20000 39914 40063 51005=
07335,1999-12-15 03:00:00,-0.4,1007,0.9,96,-1,,7.408,,,340,,,,,,,,,,,og-post,,,,AAXX 15034 07335 36/// /3404 11004 21010 39920 40070 53009=
07335,1999-12-15 04:00:00,-1.8,1007.1,0.8,96,-2.4,,3.704,,,330,,,,,,,,,,,og-post,,,,AAXX 15044 07335 36/// /3302 11018 21024 39921 40071 52008=
07335,1999-12-15 05:00:00,-1.5,1007.7,1.3,98,-1.8,8000,,,,,,,,,,,,,,,og-post,,,,AAXX 15054 07335 32958 00000 11015 21018 39927 40077 52013 333 31///=
07335,1999-12-15 06:00:00,-1.4,1008.3,1.3,99,-1.5,7000,14.816,,,340,-3.3,,,,,,,,-6,,og-post,,,,AAXX 15064 07335 32957 03408 11014 21015 39933 40083 53013 333 10019 21033 31106 55000 70006=
07335,1999-12-15 07:00:00,-1,1008.8,1.7,98,-1.3,7000,11.112,,,340,,,,,,,,,,,og-post,,,,AAXX 15074 07335 32157 13406 11010 21013 39938 40088 51017 81600 333 81702=
07335,1999-12-15 08:00:00,-1.4,1009.5,1.7,98,-1.7,2500,11.112,,,350,,,,,,,,,,10,og-post,,,,AAXX 15084 07335 31125 83506 11014 21017 39944 40095 52017 71011 886// 333 88702=
07335,1999-12-15 09:00:00,-0.1,1010.5,2.2,99,-0.2,200,18.52,,,360,,,,,,,,,,47,og-post,,,,AAXX 15094 07335 31/02 93610 11001 21002 39955 40105 53022 74741=
07335,1999-12-15 10:00:00,0.4,1011.5,2.7,99,0.3,1500,14.816,,,350,,,,,,,,,,28,og-post,,,,AAXX 15104 07335 31115 83508 10004 20003 39965 40115 53027 72842 886// 333 88702=
07335,1999-12-15 11:00:00,0.5,1012.1,2.7,99,0.4,3000,25.928,,,10,,,,,,,,,,10,og-post,,,,AAXX 15114 07335 31130 80114 10005 20004 39971 40121 51027 71022 886// 333 88702=
07335,1999-12-15 12:00:00,1.5,1012.4,2,98,1.2,5000,14.816,,,350,,,,,,,,,,1,og-post,,,,AAXX 15124 07335 31150 83508 10015 20012 39975 40124 51020 70141 886// 333 87703=
07335,1999-12-15 13:00:00,2.4,1012.6,1.2,92,1.2,12000,14.816,,,360,,,,,,,,,,,og-post,,,,AAXX 15134 07335 32362 63608 10024 20012 39977 40126 51012 86600 333 86707=
07335,1999-12-15 14:00:00,3.5,1012.5,0.6,80,0.4,15000,25.928,,,360,,,,,,,,,,,og-post,,,,AAXX 15144 07335 32465 53614 10035 20004 39977 40125 51006 85800 333 83816=
07335,1999-12-15 15:00:00,1.7,1013.5,1.1,87,-0.2,20000,31.484,79.636,,10,,,,0.2,,,,,,26,og-post,,,,AAXX 15154 07335 21370 40117 10017 21002 39986 40135 53011 72687 84900 333 69927 81707 82920 91143=
07335,1999-12-15 18:00:00,0.7,1016.8,3.2,85,-1.5,30000,25.928,79.636,,360,-1.6,4.5,,,,0.2,,,,1,og-post,,,,AAXX 15184 07335 /1580 13614 10007 21015 30018 40168 53032 69922 70187 81800 333 10045 21016 69907 81820 91143=
07335,1999-12-15 19:00:00,0.9,1018.2,3.6,85,-1.3,,25.928,,,10,,,,,,,,,,,og-post,,,,AAXX 15194 07335 36/// /0114 10009 21013 30031 40182 53036=
07335,1999-12-15 20:00:00,0.2,1019,3.3,88,-1.5,,18.52,,,360,,,,,,,,,,,og-post,,,,AAXX 15204 07335 36/// /3610 10002 21015 30039 40190 51033=
07335,1999-12-15 21:00:00,0.7,1019.9,3,84,-1.7,,22.224,,,360,,,,,,,,,,,og-post,,,,AAXX 15214 07335 36/// /3612 10007 21017 30048 40199 51030=
07335,1999-12-15 22:00:00,0.5,1020.7,2.5,89,-1.1,,22.224,,,360,,,,,,,,,,,og-post,,,,AAXX 15224 07335 36/// /3612 10005 21011 30056 40207 52025=
07335,1999-12-15 23:00:00,-0.4,1021,1.9,92,-1.5,,18.52,,,330,,,,,,,,,,,og-post,,,,AAXX 15234 07335 36/// /3310 11004 21015 30058 40210 51019=
07335,1999-12-16 00:00:00,-0.2,1021.5,1.5,93,-1.2,,22.224,,,340,,,,,,,,,,,og-post,,,,AAXX 16004 07335 36/// /3412 11002 21012 30063 40215 51015=
07335,1999-12-16 01:00:00,0.3,1021.7,1,93,-0.7,,25.928,,,340,,,,,,,,,,,og-post,,,,AAXX 16014 07335 36/// /3414 10003 21007 30066 40217 53010=
07335,1999-12-16 02:00:00,0.4,1022.1,1.2,96,-0.2,,25.928,50.004,,350,,,0.2,,,,,,,,og-post,,,,AAXX 16024 07335 26/// /3514 10004 21002 30070 40221 51012 333 69925 91127=
07335,1999-12-16 03:00:00,0.4,1022.5,1.1,94,-0.5,,22.224,50.004,,340,,,,0.2,,,,,,,og-post,,,,AAXX 16034 07335 26/// /3412 10004 21005 30074 40225 53011 333 69927 91127=
07335,1999-12-16 04:00:00,0.5,1023.3,1.5,90,-0.9,,22.224,,,360,,,,,,,,,,,og-post,,,,AAXX 16044 07335 36/// /3612 10005 21009 30081 40233 53015=
07335,1999-12-16 05:00:00,0.4,1024.2,2,95,-0.3,20000,14.816,,,350,,,,,,,,,,,og-post,,,,AAXX 16054 07335 32370 73508 10004 21003 30090 40242 53020 877// 333 86707 84650=
07335,1999-12-16 06:00:00,0.6,1024.6,2,96,0,20000,18.52,50.004,,350,-0.6,1,,,,0.2,0.4,1.3,-2,26,og-post,,,,AAXX 16064 07335 11270 83510 10006 20000 30094 40246 51020 69922 72622 885// 333 10010 21006 31102 55013 70004 81704 85628 87650 91127=
07335,1999-12-16 07:00:00,0.5,1025.3,2,97,0.1,15000,14.816,,,350,,,,,,,,,,26,og-post,,,,AAXX 16074 07335 31165 83508 10005 20001 30101 40253 51020 72622 885// 333 85702 84610 87650=
07335,1999-12-16 08:00:00,0.4,1026.1,1.9,97,0,15000,11.112,,,350,,,,,,,,,,,og-post,,,,AAXX 16084 07335 32165 73506 10004 20000 30109 40261 53019 875// 333 83702 86620=
07335,1999-12-16 09:00:00,0.3,1026.7,2.1,96,-0.3,20000,11.112,,,340,,,,,,,,,,,og-post,,,,AAXX 16094 07335 32170 33406 10003 21003 30115 40267 51021 83500 333 81702=
07335,1999-12-16 10:00:00,1.5,1027.3,2,94,0.6,20000,14.816,,,340,,,,,,,,,,,og-post,,,,AAXX 16104 07335 32570 53408 10015 20006 30121 40273 51020 85530 333 83621 83650=
07335,1999-12-16 11:00:00,2.8,1027.6,1.6,89,1.2,20000,14.816,,,350,,,,,,,,,,,og-post,,,,AAXX 16114 07335 32370 33508 10028 20012 30125 40276 51016 83800 333 82808=
07335,1999-12-16 12:00:00,3.5,1027.6,1.1,86,1.4,,14.816,,,340,,,,,,,,,,,og-post,,,,AAXX 16124 07335 36/// /3408 10035 20014 30126 40276 51011=
07335,1999-12-16 13:00:00,3.8,1027.7,0.6,86,1.7,20000,14.816,,,350,,,,,,,,,,,og-post,,,,AAXX 16134 07335 32470 63508 10038 20017 30127 40277 51006 86800 333 81810 86621=
07335,1999-12-16 14:00:00,4.1,1027.4,-0.1,86,2,20000,14.816,,,350,,,,,,,,,,,og-post,,,,AAXX 16144 07335 32470 23508 10041 20020 30124 40274 58001 82800 333 81811=
07335,1999-12-16 15:00:00,3.9,1027.9,0.3,85,1.6,20000,14.816,,,360,,,,,,,,,,,og-post,,,,AAXX 16154 07335 32470 23608 10039 20016 30129 40279 53003 82800 333 82811=
07335,1999-12-16 16:00:00,3.4,1028.7,0.9,88,1.6,20000,11.112,,,350,,,,,,,,,,,og-post,,,,AAXX 16164 07335 32470 43506 10034 20016 30136 40287 53009 84800 333 84815=
07335,1999-12-16 17:00:00,3,1029.2,1.7,91,1.7,20000,7.408,,,340,,,,,,,,,,,og-post,,,,AAXX 16174 07335 32470 63404 10030 20017 30141 40292 52017 86500 333 86610=
07335,1999-12-16 18:00:00,1.8,1029.9,1.8,92,0.6,,7.408,,,360,0.1,4.3,,,,,,,,,og-post,,,,AAXX 16184 07335 16/// /3604 10018 20006 30147 40299 51018 69902 333 10043 20001=
07335,1999-12-16 19:00:00,-0.4,1030.6,1.7,95,-1.1,,3.704,,,360,,,,,,,,,,,og-post,,,,AAXX 16194 07335 36/// /3602 11004 21011 30153 40306 53017=
07335,1999-12-16 20:00:00,-1,1030.9,1.5,96,-1.6,,7.408,,,330,,,,,,,,,,,og-post,,,,AAXX 16204 07335 36/// /3304 11010 21016 30156 40309 51015=
07335,1999-12-16 21:00:00,-1.2,1031.4,1.3,98,-1.5,1500,3.704,,,310,,,,,,,,,,,og-post,,,,AAXX 16214 07335 36/15 /3102 11012 21015 30160 40314 51013=
07335,1999-12-16 22:00:00,-2.2,1031.4,0.7,97,-2.6,400,3.704,,,310,,,,,,,,,,,og-post,,,,AAXX 16224 07335 36/04 /3102 11022 21026 30160 40314 51007=
07335,1999-12-16 23:00:00,-2.9,1031.5,0.4,98,-3.2,300,,,,,,,,,,,,,,,og-post,,,,AAXX 16234 07335 36/03 /0000 11029 21032 30160 40315 51004=
07335,1999-12-17 00:00:00,-2.8,1031.1,-0.4,98,-3.1,1000,,,,,,,,,,,,,,,og-post,,,,AAXX 17004 07335 36/10 /0000 11028 21031 30156 40311 58004=
07335,1999-12-17 01:00:00,-1.5,1031,-0.4,99,-1.6,1500,11.112,,,260,,,,,,,,,,,og-post,,,,AAXX 17014 07335 36/15 /2606 11015 21016 30156 40310 57004=
07335,1999-12-17 02:00:00,-0.6,1031.1,-0.2,99,-0.7,1700,7.408,,,240,,,,,,,,,,,og-post,,,,AAXX 17024 07335 36/17 /2404 11006 21007 30158 40311 55002=
07335,1999-12-17 03:00:00,-0.6,1031,0.1,99,-0.7,1600,7.408,,,240,,,,,,,,,,,og-post,,,,AAXX 17034 07335 36/16 /2404 11006 21007 30157 40310 50001=
07335,1999-12-17 04:00:00,-0.2,1030.3,-0.6,99,-0.3,1800,11.112,,,230,,,,,,,,,,,og-post,,,,AAXX 17044 07335 36/18 /2306 11002 21003 30150 40303 58006=
07335,1999-12-17 05:00:00,0.2,1029.8,-1.3,99,0.1,15000,11.112,,,200,,,,,,,,,,,og-post,,,,AAXX 17054 07335 32965 82006 10002 20001 30145 40298 58013 8807/ 333 88461=
07335,1999-12-17 06:00:00,0.2,1029.8,-1.2,99,0.1,2500,14.816,,,200,-3.2,1.7,,,,,0,4.3,-6,10,og-post,,,,AAXX 17064 07335 31125 72008 10002 20001 30145 40298 56012 71022 876// 333 10017 21032 30106 55043 79999 87702=
07335,1999-12-17 07:00:00,0.3,1029.6,-0.7,99,0.2,2500,14.816,,,210,,,,,,,,,,10,og-post,,,,AAXX 17074 07335 31125 72108 10003 20002 30143 40296 56007 71022 876// 333 87702=
07335,1999-12-17 08:00:00,0.6,1029.6,-0.1,99,0.5,2000,14.816,,,210,,,,,,,,,,10,og-post,,,,AAXX 17084 07335 31120 72108 10006 20005 30144 40296 55001 71022 876// 333 87702=
07335,1999-12-17 09:00:00,1.1,1029.8,0.1,98,0.8,3000,14.816,,,210,,,,,,,,,,10,og-post,,,,AAXX 17094 07335 31130 82108 10011 20008 30146 40298 53001 71022 876// 333 87703=
07335,1999-12-17 10:00:00,2,1030.1,0.6,97,1.6,3500,18.52,,,210,,,,,,,,,,10,og-post,,,,AAXX 17104 07335 31235 82110 10020 20016 30149 40301 53006 71022 875// 333 83703 85630 87650=
07335,1999-12-17 11:00:00,3.2,1029.1,-0.4,96,2.6,4000,14.816,,,200,,,,,,,,,,10,og-post,,,,AAXX 17114 07335 31240 82008 10032 20026 30140 40291 58004 71022 875// 333 84705 85633 87650=
07335,1999-12-17 12:00:00,3.8,1028.4,-1.2,92,2.6,4500,18.52,,,210,,,,,,,,,,10,og-post,,,,AAXX 17124 07335 31345 82110 10038 20026 30134 40284 58012 71022 875// 333 84707 85633 87650=
07335,1999-12-17 13:00:00,4.1,1027.2,-2.7,93,3.1,5000,22.224,,,210,,,,,,,,,,60,og-post,,,,AAXX 17134 07335 21250 82112 10041 20031 30122 40272 58027 76062 875// 333 69905 85706 85633 87650=
07335,1999-12-17 14:00:00,4.5,1026.3,-2.7,92,3.3,5000,18.52,,,210,,,,,,,,,,21,og-post,,,,AAXX 17144 07335 21350 82110 10045 20033 30113 40263 58027 72162 876// 333 69905 87708=
07335,1999-12-17 15:00:00,4.8,1025.8,-2.5,93,3.8,5000,18.52,,,210,,,,,,,,,,61,og-post,,,,AAXX 17154 07335 21150 82110 10048 20038 30109 40258 56025 76162 875// 333 69907 83703 85625 87650=
07335,1999-12-17 16:00:00,5,1025.1,-2,95,4.3,5000,18.52,,,210,,,,,,,,,,61,og-post,,,,AAXX 17164 07335 21150 82110 10050 20043 30102 40251 56020 76166 875// 333 69905 83702 84610 87625=
07335,1999-12-17 17:00:00,5.6,1024.4,-1.8,95,4.9,5000,25.928,,,220,,,0.2,,,,,,,61,og-post,,,,AAXX 17174 07335 21350 82214 10056 20049 30095 40244 58018 76166 875// 333 69925 84708 85626 87650=
07335,1999-12-17 18:00:00,5.8,1024.3,-1.5,97,5.4,3500,25.928,,,220,0.2,5.9,,0.6,,0.6,,,,61,og-post,,,,AAXX 17184 07335 /1335 82214 10058 20054 30094 40243 56015 69962 76162 875// 333 10059 20002 69967 85708 85625 87650=
07335,1999-12-17 19:00:00,6.1,1023.9,-1.1,97,5.7,1300,25.928,,,210,,,1,,,,,,,,og-post,,,,AAXX 17194 07335 26/13 /2114 10061 20057 30091 40239 56011 333 60015=
07335,1999-12-17 20:00:00,6.3,1023.3,-1,97,5.9,1700,25.928,,,210,,,2,,,,,,,,og-post,,,,AAXX 17204 07335 26/17 /2114 10063 20059 30085 40233 58010 333 60025=
07335,1999-12-17 21:00:00,6.7,1022.4,-1.8,97,6.3,1200,29.632,,,210,,,,5,,,,,,,og-post,,,,AAXX 17214 07335 26/12 /2116 10067 20063 30076 40224 58018 333 60057=
07335,1999-12-17 22:00:00,6.9,1022.5,-1.4,98,6.6,1800,18.52,,,210,,,2,,,,,,,,og-post,,,,AAXX 17224 07335 26/18 /2110 10069 20066 30077 40225 55014 333 60025=
07335,1999-12-17 23:00:00,7.1,1022.1,-1.2,98,6.8,1000,22.224,,,210,,,2,,,,,,,,og-post,,,,AAXX 17234 07335 26/10 /2112 10071 20068 30073 40221 56012 333 60025=
07335,1999-12-18 00:00:00,7.5,1021.5,-0.8,98,7.2,800,22.224,,,210,,,,5,11,,,,,,og-post,,,,AAXX 18004 07335 /6/08 /2112 10075 20072 30068 40215 58008 60111 333 60057=
07335,1999-12-18 01:00:00,8,1021,-1.4,98,7.7,1000,22.224,,,220,,,2,,,,,,,,og-post,,,,AAXX 18014 07335 26/10 /2212 10080 20077 30063 40210 58014 333 60025=
07335,1999-12-18 02:00:00,8.3,1020.8,-1.2,98,8,1700,14.816,,,210,,,2,,,,,,,,og-post,,,,AAXX 18024 07335 26/17 /2108 10083 20080 30061 40208 56012 333 60025=
07335,1999-12-18 03:00:00,8.9,1020.3,-1.1,99,8.8,1700,14.816,,,220,,,,5,,,,,,,og-post,,,,AAXX 18034 07335 26/17 /2208 10089 20088 30057 40203 56011 333 60057=
07335,1999-12-18 04:00:00,9.8,1019.7,-1.2,99,9.6,,11.112,,,220,,,0.2,,,,,,,,og-post,,,,AAXX 18044 07335 26/// /2206 10098 20096 30051 40197 58012 333 69925=
07335,1999-12-18 05:00:00,10.5,1019.5,-1.1,99,10.3,15000,18.52,,,250,,,,,,,,,,,og-post,,,,AAXX 18054 07335 22265 82510 10105 20103 30050 40195 56011 876// 333 69905 84703 87705=
07335,1999-12-18 06:00:00,10.9,1019.3,-0.9,97,10.4,15000,22.224,,,250,5.8,10.9,,0.2,,16,16.2,,6,,og-post,,,,AAXX 18064 07335 /2265 82512 10109 20104 30048 40193 56009 60162 876// 333 10109 20058 32006 55000 69927 70162 84703 87706=
07335,1999-12-18 07:00:00,11,1019.1,-0.5,97,10.5,15000,25.928,,,250,,,0.2,,,,,,,60,og-post,,,,AAXX 18074 07335 21265 82514 10110 20105 30046 40191 58005 76062 885// 333 69925 84703 87708=
07335,1999-12-18 08:00:00,11.2,1019.2,-0.3,97,10.7,15000,25.928,,,260,,,1,,,,,,,61,og-post,,,,AAXX 18084 07335 21265 82614 10112 20107 30047 40192 55003 76162 885// 333 60015 85706 88612=
07335,1999-12-18 09:00:00,11.5,1019.1,-0.2,96,10.9,15000,29.632,,,260,,,,1,,,,,,60,og-post,,,,AAXX 18094 07335 21265 82616 10115 20109 30046 40191 56002 76062 885// 333 60017 85706 87611=
07335,1999-12-18 10:00:00,11.5,1019.8,0.7,97,11,3500,25.928,,,270,,,,,,,,,,58,og-post,,,,AAXX 18104 07335 21235 82714 10115 20110 30053 40198 53007 75866 885// 333 69905 86706 87611=
07335,1999-12-18 11:00:00,11.7,1019.5,0.3,97,11.2,5000,22.224,,,260,,,0.2,,,,,,,58,og-post,,,,AAXX 18114 07335 21250 82612 10117 20112 30050 40195 50003 75866 885// 333 69925 86706 87611=
07335,1999-12-18 12:00:00,12,1019.3,0.3,95,11.2,15000,22.224,,,270,,,,0.2,2,,,,,21,og-post,,,,AAXX 18124 07335 /1165 82712 10120 20112 30049 40193 50003 60021 72165 885// 333 69927 84703 87611=
07335,1999-12-18 13:00:00,12.3,1018.9,-0.8,95,11.5,18000,22.224,,,270,,,,,,,,,,,og-post,,,,AAXX 18134 07335 32168 82712 10123 20115 30045 40189 58008 887// 333 82702 87707=
07335,1999-12-18 14:00:00,12.6,1018.7,-0.7,93,11.5,18000,25.928,,,270,,,,,,,,,,,og-post,,,,AAXX 18144 07335 32468 82714 10126 20115 30043 40187 58007 887// 333 87710=
07335,1999-12-18 15:00:00,12.6,1018.8,-0.5,93,11.5,15000,25.928,,,270,,,,,,,,,,,og-post,,,,AAXX 18154 07335 32365 82714 10126 20115 30044 40188 55005 887// 333 87709=
07335,1999-12-18 16:00:00,12.4,1018.5,-0.4,93,11.3,15000,22.224,,,270,,,,,,,,,,,og-post,,,,AAXX 18164 07335 32365 82712 10124 20113 30041 40185 58004 887// 333 87709=
07335,1999-12-18 17:00:00,12.1,1018.9,0.2,94,11.2,,22.224,,,270,,,,,,,,,,,og-post,,,,AAXX 18174 07335 36/// /2712 10121 20112 30045 40189 53002=
07335,1999-12-18 18:00:00,12,1018.8,-0,95,11.2,,22.224,,,260,10.8,12.6,,,,2,,,,,og-post,,,,AAXX 18184 07335 16/// /2612 10120 20112 30044 40188 55000 60022 333 10126 20108=
07335,1999-12-18 19:00:00,11.8,1018.9,0.3,96,11.2,,25.928,,,260,,,,,,,,,,,og-post,,,,AAXX 18194 07335 36/// /2614 10118 20112 30044 40189 51003=
07335,1999-12-18 20:00:00,11.7,1018.5,-0.5,95,10.9,,25.928,,,260,,,,,,,,,,,og-post,,,,AAXX 18204 07335 36/// /2614 10117 20109 30040 40185 58005=
07335,1999-12-18 21:00:00,11.5,1018.4,-0.5,95,10.7,,31.484,,,260,,,,,,,,,,,og-post,,,,AAXX 18214 07335 36/// /2617 10115 20107 30039 40184 58005=
07335,1999-12-18 22:00:00,11.2,1018.2,-0.7,96,10.6,,29.632,,,260,,,,,,,,,,,og-post,,,,AAXX 18224 07335 36/// /2616 10112 20106 30037 40182 56007=
07335,1999-12-18 23:00:00,11.3,1017.6,-0.9,94,10.4,,29.632,,,250,,,0.2,,,,,,,,og-post,,,,AAXX 18234 07335 26/// /2516 10113 20104 30031 40176 58009 333 69925=
07335,1999-12-19 00:00:00,11.4,1016.8,-1.5,92,10.1,,29.632,53.708,50.004,250,,,,0.2,0.2,,,,,,og-post,,,,AAXX 19004 07335 /6/// /2516 10114 20101 30024 40168 58015 69921 333 69927 91027 91129=
07335,1999-12-19 01:00:00,11.2,1015.8,-2.3,96,10.6,,31.484,50.004,,250,,,,,,,,,,,og-post,,,,AAXX 19014 07335 36/// /2517 10112 20106 30014 40158 58023 333 91127=
07335,1999-12-19 02:00:00,11.1,1014.8,-2.7,96,10.5,1400,31.484,,,240,,,1,,,,,,,,og-post,,,,AAXX 19024 07335 26/14 /2417 10111 20105 30004 40148 58027 333 60015=
07335,1999-12-19 03:00:00,11.1,1014,-2.8,97,10.6,,29.632,50.004,,240,,,,1,,,,,,,og-post,,,,AAXX 19034 07335 26/// /2416 10111 20106 39996 40140 56028 333 60017 91127=
07335,1999-12-19 04:00:00,11.4,1013.1,-2.7,97,10.9,,25.928,,,250,,,,,,,,,,,og-post,,,,AAXX 19044 07335 36/// /2514 10114 20109 39987 40131 56027=
07335,1999-12-19 05:00:00,11.8,1012.3,-2.5,97,11.3,5000,25.928,,,250,,,,,,,,,,51,og-post,,,,AAXX 19054 07335 21150 82514 10118 20113 39979 40123 57025 75152 887// 333 69905 85702 87706=
07335,1999-12-19 06:00:00,11.8,1012.2,-1.8,97,11.3,3000,25.928,50.004,,260,11,12,,,,1,2.8,,11,51,og-post,,,,AAXX 19064 07335 /1330 82614 10118 20113 39978 40122 56018 60012 75152 887// 333 10120 20110 32011 55000 69907 70028 87706 91127=
07335,1999-12-19 07:00:00,11.7,1012.1,-1,97,11.2,3000,18.52,,,260,,,0.4,,,,,,,51,og-post,,,,AAXX 19074 07335 21330 82610 10117 20112 39977 40121 56010 75155 885// 333 69945 86707 87612=
07335,1999-12-19 08:00:00,11.8,1012.4,0.1,93,10.7,20000,18.52,,,280,,,,,,,,,,20,og-post,,,,AAXX 19084 07335 21370 72810 10118 20107 39980 40124 53001 72052 875// 333 69905 82707 86612 85623=
07335,1999-12-19 09:00:00,11.5,1012.7,0.5,94,10.6,25000,18.52,,,270,,,,0.4,,,,,,1,og-post,,,,AAXX 19094 07335 21375 72710 10115 20106 39983 40127 53005 70152 875// 333 69947 81707 83618 86633=
07335,1999-12-19 10:00:00,11.5,1013.4,1.3,94,10.6,25000,14.816,,,300,,,,,,,,,,,og-post,,,,AAXX 19104 07335 32375 73008 10115 20106 39990 40134 53013 875// 333 82707 87614=
07335,1999-12-19 11:00:00,11.6,1013.5,1.1,95,10.8,3000,14.816,,,310,,,0.2,,,,,,,51,og-post,,,,AAXX 19114 07335 21230 83108 10116 20108 39991 40135 51011 75152 875// 333 69925 86706 87614=
07335,1999-12-19 12:00:00,7.3,1014.8,1.9,94,6.4,10000,31.484,,,40,,,,0.8,1,,,,,21,og-post,,,,AAXX 19124 07335 /1260 80417 10073 20064 30002 40148 53019 60011 72165 877// 333 69987 87706=
07335,1999-12-19 13:00:00,5.8,1015.9,2.2,85,3.5,20000,25.928,,,40,,,,,,,,,,,og-post,,,,AAXX 19134 07335 32270 70414 10058 20035 30012 40159 53022 875// 333 82706 86611 86650=
07335,1999-12-19 14:00:00,5.4,1016.9,3,85,3.1,25000,31.484,50.004,,40,,,,,,,,,,,og-post,,,,AAXX 19144 07335 32475 70417 10054 20031 30021 40169 51030 87502 333 86613 84633 91127=
07335,1999-12-19 15:00:00,4.5,1018.2,3.1,82,1.7,25000,35.188,,,40,,,,,,,,,,,og-post,,,,AAXX 19154 07335 32475 70419 10045 20017 30033 40182 53031 875// 333 87615=
07335,1999-12-19 16:00:00,3.9,1019.1,3,78,0.4,30000,31.484,,,60,,,,,,,,,,,og-post,,,,AAXX 19164 07335 32480 50617 10039 20004 30042 40191 52030 85500 333 85616=
07335,1999-12-19 17:00:00,3.2,1020.3,3.2,83,0.6,,14.816,,,50,,,,,,,,,,,og-post,,,,AAXX 19174 07335 36/// /0508 10032 20006 30053 40203 51032=
07335,1999-12-19 18:00:00,2.6,1021.3,3,82,-0.2,,14.816,,,40,2.6,11.9,,,,1,,,,,og-post,,,,AAXX 19184 07335 16/// /0408 10026 21002 30063 40213 53030 60012 333 10119 20026=
07335,1999-12-19 19:00:00,1.7,1022.5,3.2,87,-0.2,,18.52,,,30,,,,,,,,,,,og-post,,,,AAXX 19194 07335 36/// /0310 10017 21002 30074 40225 52032=
07335,1999-12-19 20:00:00,1.2,1023.2,2.8,88,-0.6,,18.52,,,30,,,,,,,,,,,og-post,,,,AAXX 19204 07335 36/// /0310 10012 21006 30081 40232 51028=
07335,1999-12-19 21:00:00,0.1,1023.8,2.3,92,-1,,14.816,,,30,,,,,,,,,,,og-post,,,,AAXX 19214 07335 36/// /0308 10001 21010 30086 40238 51023=
07335,1999-12-19 22:00:00,0.6,1024.5,1.9,91,-0.7,,22.224,,,30,,,,,,,,,,,og-post,,,,AAXX 19224 07335 36/// /0312 10006 21007 30093 40245 52019=
07335,1999-12-19 23:00:00,0.7,1025.5,2.2,76,-3,,31.484,,,40,,,,,,,,,,,og-post,,,,AAXX 19234 07335 36/// /0417 10007 21030 30103 40255 53022=
07335,1999-12-20 00:00:00,-0.3,1025.5,1.7,77,-3.8,,25.928,,,40,,,,,,,,,,,og-post,,,,AAXX 20004 07335 36/// /0414 11003 21038 30103 40255 51017=
07335,1999-12-20 01:00:00,-0.9,1025.6,1,74,-4.9,,18.52,,,40,,,,,,,,,,,og-post,,,,AAXX 20014 07335 36/// /0410 11009 21049 30103 40256 51010=
07335,1999-12-20 02:00:00,-1.6,1026,0.4,83,-4.1,,22.224,,,30,,,,,,,,,,,og-post,,,,AAXX 20024 07335 36/// /0312 11016 21041 30107 40260 53004=
07335,1999-12-20 03:00:00,-2,1026.5,0.9,85,-4.2,,18.52,,,30,,,,,,,,,,,og-post,,,,AAXX 20034 07335 36/// /0310 11020 21042 30112 40265 53009=
07335,1999-12-20 04:00:00,-2.8,1026.8,1.1,87,-4.7,,11.112,,,30,,,,,,,,,,,og-post,,,,AAXX 20044 07335 36/// /0306 11028 21047 30114 40268 51011=
07335,1999-12-20 05:00:00,-3.4,1026.9,0.8,91,-4.7,15000,11.112,,,20,,,,,,,,,,,og-post,,,,AAXX 20054 07335 32965 00206 11034 21047 30115 40269 51008=
07335,1999-12-20 06:00:00,-3.4,1027.3,0.7,91,-4.7,15000,7.408,,,30,-3.5,2.6,,,,,,0.1,-6,,og-post,,,,AAXX 20064 07335 32965 00304 11034 21047 30119 40273 53007 333 10026 21035 34106 55001 70012=
07335,1999-12-20 07:00:00,-4.2,1027.9,1,91,-5.4,15000,11.112,,,20,,,,,,,,,,,og-post,,,,AAXX 20074 07335 32965 00206 11042 21054 30124 40279 53010=
07335,1999-12-20 08:00:00,-4.3,1028.4,1.4,94,-5.1,15000,7.408,,,10,,,,,,,,,,,og-post,,,,AAXX 20084 07335 32965 00104 11043 21051 30129 40284 53014=
07335,1999-12-20 09:00:00,-2.3,1029.2,1.9,91,-3.6,,11.112,,,30,,,,,,,,,,,og-post,,,,AAXX 20094 07335 36/// /0306 11023 21036 30138 40292 53019=
07335,1999-12-20 10:00:00,-1.3,1029.5,1.8,89,-2.9,10000,18.52,,,80,,,,,,,,,,,og-post,,,,AAXX 20104 07335 32360 70810 11013 21029 30142 40295 51018 876// 333 87708=
07335,1999-12-20 11:00:00,-1,1029.5,1.3,86,-3,15000,11.112,,,80,,,,,,,,,,,og-post,,,,AAXX 20114 07335 32365 70806 11010 21030 30142 40295 51013 876// 333 87708=
07335,1999-12-20 12:00:00,-0.3,1029.4,0.3,83,-2.8,18000,3.704,,,20,,,,,,,,,,,og-post,,,,AAXX 20124 07335 32468 70202 11003 21028 30141 40294 50003 875// 333 87612=
07335,1999-12-20 13:00:00,0.3,1028.9,-0.5,81,-2.6,20000,11.112,,,40,,,,,,,,,,,og-post,,,,AAXX 20134 07335 32470 50406 10003 21026 30137 40289 58005 85500 333 85613=
07335,1999-12-20 14:00:00,0.7,1028.7,-0.7,78,-2.7,20000,7.408,,,60,,,,,,,,,,,og-post,,,,AAXX 20144 07335 32470 30604 10007 21027 30135 40287 58007 83500 333 83614=
07335,1999-12-20 15:00:00,0.5,1028.7,-0.6,78,-2.9,20000,14.816,,,60,,,,,,,,,,,og-post,,,,AAXX 20154 07335 32470 30608 10005 21029 30135 40287 56006 81501 333 82615=
07335,1999-12-20 16:00:00,0,1028.8,-0.2,80,-3,20000,11.112,,,60,,,,,,,,,,,og-post,,,,AAXX 20164 07335 32470 10606 10000 21030 30135 40288 56002 81501 333 81614=
07335,1999-12-20 17:00:00,-0.6,1028.4,-0.4,85,-2.8,15000,7.408,,,70,,,,,,,,,,,og-post,,,,AAXX 20174 07335 32965 10704 11006 21028 30131 40284 58004 80001 333 81075=
07335,1999-12-20 18:00:00,-1.2,1028.9,0.1,89,-2.8,15000,7.408,,,70,-4.7,0.7,,,,,,,,,og-post,,,,AAXX 20184 07335 32965 10704 11012 21028 30136 40289 53001 80001 333 10007 21047 81075=
07335,1999-12-20 19:00:00,-1.4,1028.8,-0,90,-2.8,,11.112,,,80,,,,,,,,,,,og-post,,,,AAXX 20194 07335 36/// /0806 11014 21028 30135 40288 55000=
07335,1999-12-20 20:00:00,-1.5,1028.8,0.4,91,-2.8,,7.408,,,90,,,,,,,,,,,og-post,,,,AAXX 20204 07335 36/// /0904 11015 21028 30135 40288 51004=
07335,1999-12-20 21:00:00,-1.8,1028.8,-0.2,92,-2.9,,7.408,,,90,,,,,,,,,,,og-post,,,,AAXX 20214 07335 36/// /0904 11018 21029 30134 40288 57002=
07335,1999-12-20 22:00:00,-2.4,1028.9,-0,93,-3.4,,3.704,,,110,,,,,,,,,,,og-post,,,,AAXX 20224 07335 36/// /1102 11024 21034 30135 40289 55000=
07335,1999-12-20 23:00:00,-2.3,1029.1,0.2,94,-3.1,,7.408,,,100,,,,,,,,,,,og-post,,,,AAXX 20234 07335 36/// /1004 11023 21031 30137 40291 53002=
07335,1999-12-21 00:00:00,-1.8,1028.8,0,94,-2.6,,7.408,,,110,,,,,,,,,,,og-post,,,,AAXX 21004 07335 36/// /1104 11018 21026 30134 40288 50000=
07335,1999-12-21 01:00:00,-1.9,1028.1,-0.8,92,-3,,11.112,,,140,,,,,,,,,,,og-post,,,,AAXX 21014 07335 36/// /1406 11019 21030 30127 40281 58008=
07335,1999-12-21 02:00:00,-1.8,1028.1,-1,89,-3.4,,14.816,,,120,,,,,,,,,,,og-post,,,,AAXX 21024 07335 36/// /1208 11018 21034 30127 40281 56010=
07335,1999-12-21 03:00:00,-1.6,1028,-0.7,87,-3.5,,11.112,,,120,,,,,,,,,,,og-post,,,,AAXX 21034 07335 36/// /1206 11016 21035 30127 40280 56007=
07335,1999-12-21 04:00:00,-1.5,1027.4,-0.6,87,-3.4,,11.112,,,130,,,,,,,,,,,og-post,,,,AAXX 21044 07335 36/// /1306 11015 21034 30121 40274 58006=
07335,1999-12-21 05:00:00,-1.6,1027.9,-0.1,88,-3.3,15000,7.408,,,150,,,,,,,,,,,og-post,,,,AAXX 21054 07335 32765 81504 11016 21033 30126 40279 55001 8353/ 333 83650 88360=
07335,1999-12-21 06:00:00,-1.5,1027.7,-0.3,87,-3.4,15000,11.112,,,130,-2.5,-1.1,,,,,0,3.8,-5,,og-post,,,,AAXX 21064 07335 32765 81306 11015 21034 30124 40277 56003 8353/ 333 11011 21025 34105 55038 70000 83650 88360=
07335,1999-12-21 08:00:00,-1.3,1027.9,-0,85,-3.5,15000,,,,,,,,,,,,,,,og-post,,,,AAXX 21084 07335 32965 70000 11013 21035 30126 40279 55000 85032 333 85360 84075=
07335,1999-12-21 09:00:00,-1,1028.1,0.4,85,-3.2,15000,,,,,,,,,,,,,,,og-post,,,,AAXX 21094 07335 32965 70000 11010 21032 30128 40281 53004 85032 333 84360 86075=
07335,1999-12-21 11:00:00,0.9,1027.2,-0.6,77,-2.7,20000,11.112,,,160,,,,,,,,,,,og-post,,,,AAXX 21114 07335 32970 71606 10009 21027 30120 40272 58006 83032 333 83360 87075=
07335,1999-12-21 12:00:00,1.7,1027.1,-0.8,73,-2.6,20000,3.704,,,140,,,,,,,,,,,og-post,,,,AAXX 21124 07335 32770 81402 10017 21026 30120 40271 56008 81552 333 81650 85360 87075=
07335,1999-12-21 13:00:00,2.5,1026.3,-1.4,71,-2.2,,7.408,,,140,,,,,,,,,,,og-post,,,,AAXX 21134 07335 36/// /1404 10025 21022 30112 40263 58014=
07335,1999-12-21 14:00:00,3.3,1026.9,-0.2,65,-2.6,20000,3.704,,,110,,,,,,,,,,,og-post,,,,AAXX 21144 07335 32970 81102 10033 21026 30118 40269 55002 8707/ 333 87359=
07335,1999-12-21 15:00:00,3.5,1026.3,-0.7,66,-2.2,20000,7.408,,,120,,,,,,,,,,,og-post,,,,AAXX 21154 07335 32970 71204 10035 21022 30113 40263 56007 8707/ 333 87359=
07335,1999-12-21 17:00:00,2.8,1026.9,-0,76,-1,20000,11.112,,,110,,,,,,,,,,,og-post,,,,AAXX 21174 07335 32970 71106 10028 21010 30118 40269 55000 85032 333 85359 86075=
07335,1999-12-21 18:00:00,2.4,1026.8,0.4,78,-1,20000,11.112,,,130,-1.6,3.5,,,,,,,,,og-post,,,,AAXX 21184 07335 32770 71306 10024 21010 30117 40268 50004 83532 333 10035 21016 83650 84359 85075=
07335,1999-12-21 20:00:00,1.5,1027.1,0.1,83,-1.1,,7.408,,,140,,,,,,,,,,,og-post,,,,AAXX 21204 07335 36/// /1404 10015 21011 30119 40271 50001=
07335,1999-12-21 21:00:00,0.5,1027,0.1,88,-1.3,,7.408,,,140,,,,,,,,,,,og-post,,,,AAXX 21214 07335 36/// /1404 10005 21013 30118 40270 50001=
07335,1999-12-22 01:00:00,-0.2,1026.8,-0.7,89,-1.8,,11.112,,,160,,,,,,,,,,,og-post,,,,AAXX 22014 07335 36/// /1606 11002 21018 30116 40268 58007=
07335,1999-12-22 02:00:00,-0.5,1027,-0.4,85,-2.7,,7.408,,,180,,,,,,,,,,,og-post,,,,AAXX 22024 07335 36/// /1804 11005 21027 30117 40270 55004=
07335,1999-12-22 03:00:00,0.4,1026.6,-0.7,80,-2.6,,14.816,,,150,,,,,,,,,,,og-post,,,,AAXX 22034 07335 36/// /1508 10004 21026 30114 40266 56007=
07335,1999-12-22 04:00:00,1,1026.3,-0.5,76,-2.7,,11.112,,,180,,,,,,,,,,,og-post,,,,AAXX 22044 07335 36/// /1806 10010 21027 30111 40263 58005=
07335,1999-12-22 05:00:00,2.2,1025.8,-1,68,-3.1,15000,11.112,,,180,,,,,,,,,,,og-post,,,,AAXX 22054 07335 32765 71806 10022 21031 30107 40258 58010 875// 333 87650=
07335,1999-12-22 06:00:00,2.4,1026.1,-0.4,62,-4.1,15000,11.112,,,190,-0.5,2.6,,,,,0,0.1,-4,,og-post,,,,AAXX 22064 07335 32765 71906 10024 21041 30110 40261 55004 875// 333 10026 21005 3/104 55001 70000 87650=
07335,1999-12-22 07:00:00,1.5,1025.6,-0.6,70,-3.4,15000,11.112,,,180,,,,,,,,,,,og-post,,,,AAXX 22074 07335 32765 51806 10015 21034 30105 40256 58006 81532 333 81650 83360=
07335,1999-12-22 08:00:00,2.4,1025.6,-0.2,63,-3.9,15000,14.816,,,190,,,,,,,,,,,og-post,,,,AAXX 22084 07335 32765 51908 10024 21039 30105 40256 58002 81572 333 81650 85360 85075=
07335,1999-12-22 09:00:00,3.6,1025.9,-0.1,60,-3.4,15000,14.816,,,210,,,,,,,,,,,og-post,,,,AAXX 22094 07335 32965 62108 10036 21034 30109 40259 55001 85072 333 85360 85075=
07335,1999-12-22 10:00:00,4.2,1025.7,0.2,59,-3.1,15000,18.52,,,190,,,,,,,,,,,og-post,,,,AAXX 22104 07335 32965 51910 10042 21031 30107 40257 50002 83032 333 82360 85075=
07335,1999-12-22 11:00:00,7.1,1025.4,0.1,47,-3.4,,14.816,,,200,,,,,,,,,,,og-post,,,,AAXX 22114 07335 36/// /2008 10071 21034 30106 40254 50001=
07335,1999-12-22 12:00:00,8.7,1024.7,-0.9,42,-3.5,2000,14.816,,,200,,,,,,,,,,,og-post,,,,AAXX 22124 07335 32920 62008 10087 21035 30100 40247 58009 83032 333 83360 86075=
07335,1999-12-22 13:00:00,9.4,1023.7,-1.7,40,-3.5,20000,14.816,,,190,,,,,,,,,,,og-post,,,,AAXX 22134 07335 32970 71908 10094 21035 30090 40237 58017 85072 333 85360 87075=
07335,1999-12-22 14:00:00,9.2,1023.5,-1.8,37,-4.7,15000,18.52,,,190,,,,,,,,,,,og-post,,,,AAXX 22144 07335 32965 81910 10092 21047 30088 40235 56018 86072 333 86360 87075=
07335,1999-12-22 15:00:00,8.9,1023.2,-1.5,42,-3.3,15000,11.112,,,190,,,,,,,,,,,og-post,,,,AAXX 22154 07335 32965 81906 10089 21033 30085 40232 56015 8707/ 333 87360=
07335,1999-12-22 16:00:00,8.6,1023.1,-0.6,45,-2.6,15000,11.112,,,180,,,,,,,,,,,og-post,,,,AAXX 22164 07335 32965 71806 10086 21026 30084 40231 56006 86072 333 87360 87075=
07335,1999-12-22 17:00:00,7.6,1023.3,-0.3,49,-2.4,15000,7.408,,,210,,,,,,,,,,,og-post,,,,AAXX 22174 07335 32765 72104 10076 21024 30085 40233 55003 83532 333 83650 84360 86075=
07335,1999-12-22 18:00:00,7.9,1023,-0.3,49,-2.1,15000,11.112,,,210,1.4,9.8,,,,,,,,,og-post,,,,AAXX 22184 07335 32765 72106 10079 21021 30082 40230 58003 82532 333 10098 20014 82650 84360 85075=
07335,1999-12-22 19:00:00,8,1022.9,-0.2,48,-2.3,,14.816,,,200,,,,,,,,,,,og-post,,,,AAXX 22194 07335 36/// /2008 10080 21023 30082 40229 58002=
07335,1999-12-22 20:00:00,7.7,1022.7,-0.6,48,-2.6,,11.112,,,200,,,,,,,,,,,og-post,,,,AAXX 22204 07335 36/// /2006 10077 21026 30079 40227 57006=
07335,1999-12-22 21:00:00,7.9,1022.5,-0.4,46,-3,,11.112,,,210,,,,,,,,,,,og-post,,,,AAXX 22214 07335 36/// /2106 10079 21030 30078 40225 58004=
07335,1999-12-22 22:00:00,7.4,1022.4,-0.6,46,-3.4,,14.816,,,210,,,,,,,,,,,og-post,,,,AAXX 22224 07335 36/// /2108 10074 21034 30076 40224 56006=
07335,1999-12-22 23:00:00,7,1022.2,-0.5,50,-2.7,,14.816,,,200,,,,,,,,,,,og-post,,,,AAXX 22234 07335 36/// /2008 10070 21027 30074 40222 58005=
07335,1999-12-23 00:00:00,6.5,1021.7,-0.9,55,-1.9,,22.224,,,200,,,,,,,,,,,og-post,,,,AAXX 23004 07335 36/// /2012 10065 21019 30069 40217 58009=
07335,1999-12-23 01:00:00,6,1021.8,-0.6,61,-0.9,,25.928,57.412,,210,,,,,,,,,,,og-post,,,,AAXX 23014 07335 36/// /2114 10060 21009 30070 40218 55006 333 91131=
07335,1999-12-23 02:00:00,5.5,1023,0.7,69,0.3,,22.224,50.004,,210,,,,,,,,,,,og-post,,,,AAXX 23024 07335 36/// /2112 10055 20003 30081 40230 53007 333 91127=
07335,1999-12-23 03:00:00,6,1023,1.3,72,1.3,,22.224,57.412,,210,,,,,,,,,,,og-post,,,,AAXX 23034 07335 36/// /2112 10060 20013 30082 40230 52013 333 91131=
07335,1999-12-23 04:00:00,5.2,1023.5,1.6,84,2.7,,22.224,,,210,,,,,,,,,,,og-post,,,,AAXX 23044 07335 36/// /2112 10052 20027 30086 40235 51016=
07335,1999-12-23 05:00:00,4.6,1024,1,93,3.6,15000,22.224,,,210,,,,,,,,,,60,og-post,,,,AAXX 23054 07335 21165 82112 10046 20036 30091 40240 53010 76062 875// 333 69905 82703 87611=
07335,1999-12-23 06:00:00,5,1024.5,1.4,90,3.5,15000,14.816,57.412,,220,4.6,8,,,,,0,2.4,4,21,og-post,,,,AAXX 23064 07335 /1365 82208 10050 20035 30096 40245 53014 69902 72162 877// 333 10080 20046 31004 55024 69907 79999 87708 91131=
07335,1999-12-23 07:00:00,5.1,1025.2,1.7,89,3.4,15000,14.816,,,210,,,,,,,,,,,og-post,,,,AAXX 23074 07335 32365 82108 10051 20034 30103 40252 53017 877// 333 87709=
07335,1999-12-23 08:00:00,5.6,1026,2,88,3.8,12000,11.112,,,210,,,,,,,,,,,og-post,,,,AAXX 23084 07335 32362 82106 10056 20038 30111 40260 53020 877// 333 87709=
07335,1999-12-23 09:00:00,6.3,1026.8,2.3,86,4.1,10000,11.112,,,210,,,,,,,,,,,og-post,,,,AAXX 23094 07335 32360 82106 10063 20041 30119 40268 53023 876// 333 87708=
07335,1999-12-23 10:00:00,6.8,1027.1,1.9,85,4.5,10000,11.112,,,200,,,,,,,,,,,og-post,,,,AAXX 23104 07335 32360 82006 10068 20045 30122 40271 51019 876// 333 87708=
07335,1999-12-23 11:00:00,7.6,1027.1,1.2,85,5.2,10000,11.112,,,210,,,,,,,,,,,og-post,,,,AAXX 23114 07335 32360 82106 10076 20052 30123 40271 51012 876// 333 87709=
07335,1999-12-23 13:00:00,8.3,1026.1,-0.9,87,6.3,12000,11.112,,,220,,,,,,,,,,,og-post,,,,AAXX 23134 07335 32362 72206 10083 20063 30113 40261 58009 876// 333 87709=
07335,1999-12-23 14:00:00,8.4,1025.2,-1.8,88,6.5,12000,7.408,,,210,,,,,,,,,,,og-post,,,,AAXX 23144 07335 32362 72104 10084 20065 30105 40252 58018 876// 333 87708=
07335,1999-12-23 15:00:00,8.8,1024.9,-1.7,86,6.6,12000,7.408,,,200,,,,,,,,,,,og-post,,,,AAXX 23154 07335 32462 72004 10088 20066 30102 40249 56017 875// 333 87610=
07335,1999-12-23 16:00:00,8.3,1024.6,-1.4,91,6.9,10000,11.112,,,180,,,,,,,,,,,og-post,,,,AAXX 23164 07335 32460 71806 10083 20069 30099 40246 56014 875// 333 87610=
07335,1999-12-23 17:00:00,7,1024.6,-0.7,92,5.8,10000,11.112,,,200,,,,,,,,,,,og-post,,,,AAXX 23174 07335 32460 52006 10070 20058 30098 40246 56007 85500 333 83610 83625=
07335,1999-12-23 20:00:00,7.6,1024.1,-0.5,92,6.4,,14.816,,,190,,,,,,,,,,,og-post,,,,AAXX 23204 07335 36/// /1908 10076 20064 30093 40241 58005=
07335,1999-12-23 21:00:00,7.5,1023.4,-1.3,95,6.8,,14.816,,,190,,,,,,,,,,,og-post,,,,AAXX 23214 07335 36/// /1908 10075 20068 30086 40234 58013=
07335,1999-12-23 22:00:00,7.8,1022.7,-1.9,96,7.2,,14.816,,,200,,,,,,,,,,,og-post,,,,AAXX 23224 07335 36/// /2008 10078 20072 30080 40227 57019=
07335,1999-12-23 23:00:00,8,1022.3,-1.7,96,7.4,,14.816,,,200,,,,,,,,,,,og-post,,,,AAXX 23234 07335 36/// /2008 10080 20074 30076 40223 56017=
07335,1999-12-24 00:00:00,8.2,1022.2,-1.1,96,7.6,,14.816,,,210,,,,,,,,,,,og-post,,,,AAXX 24004 07335 36/// /2108 10082 20076 30075 40222 56011=
07335,1999-12-24 01:00:00,8.4,1021.7,-1,97,8,,14.816,,,220,,,,,,,,,,,og-post,,,,AAXX 24014 07335 36/// /2208 10084 20080 30070 40217 58010=
07335,1999-12-24 02:00:00,8.4,1021.8,-0.5,95,7.6,,14.816,,,210,,,,,,,,,,,og-post,,,,AAXX 24024 07335 36/// /2108 10084 20076 30071 40218 55005=
07335,1999-12-24 03:00:00,8.1,1020.9,-1.3,95,7.3,,18.52,,,190,,,,,,,,,,,og-post,,,,AAXX 24034 07335 36/// /1910 10081 20073 30062 40209 58013=
07335,1999-12-24 04:00:00,8.2,1020.4,-1.3,93,7.1,,22.224,,,200,,,,,,,,,,,og-post,,,,AAXX 24044 07335 36/// /2012 10082 20071 30057 40204 58013=
07335,1999-12-24 05:00:00,8.4,1019.8,-2,92,7.2,15000,22.224,,,200,,,,,,,,,,,og-post,,,,AAXX 24054 07335 32365 82012 10084 20072 30051 40198 56020 876// 333 30/// 87708=
07335,1999-12-24 06:00:00,8.2,1019.3,-1.6,93,7.1,15000,22.224,,,210,7.5,8.5,,,,,0,0.1,6,,og-post,,,,AAXX 24064 07335 32365 82112 10082 20071 30046 40193 57016 8657/ 333 10085 20075 30006 55001 70000 83708 85633 88359=
07335,1999-12-24 07:00:00,8.2,1019.2,-1.2,93,7.1,15000,22.224,,,200,,,,,,,,,,,og-post,,,,AAXX 24074 07335 32365 82012 10082 20071 30045 40192 56012 876// 333 87707=
07335,1999-12-24 08:00:00,8,1019,-0.8,92,6.8,12000,25.928,,,200,,,,,,,,,,,og-post,,,,AAXX 24084 07335 32362 82014 10080 20068 30043 40190 56008 876// 333 87708=
07335,1999-12-24 09:00:00,7.8,1018.9,-0.4,90,6.3,12000,25.928,,,200,,,,,,,,,,,og-post,,,,AAXX 24094 07335 32362 82014 10078 20063 30042 40189 57004 8557/ 333 82708 84643 87359=
07335,1999-12-24 10:00:00,8.4,1019.2,0.1,92,7.2,12000,25.928,,,210,,,,,,,,,,,og-post,,,,AAXX 24104 07335 32362 82114 10084 20072 30046 40192 53001 875// 333 82708 87633=
07335,1999-12-24 11:00:00,9.1,1018.4,-0.5,89,7.4,12000,29.632,,,200,,,,,,,,,,,og-post,,,,AAXX 24114 07335 32462 82016 10091 20074 30038 40184 58005 8867/ 333 84710 88359=
07335,1999-12-24 12:00:00,9.7,1017.5,-1.3,88,7.8,12000,25.928,,,210,,,,,,,,,,,og-post,,,,AAXX 24124 07335 32462 82114 10097 20078 30029 40175 58013 885// 333 85612 87633=
07335,1999-12-24 13:00:00,10.2,1016.5,-2.6,83,7.4,15000,29.632,53.708,,210,,,,,,,,,,,og-post,,,,AAXX 24134 07335 32465 82116 10102 20074 30020 40165 58026 875// 333 81612 87630 91129=
07335,1999-12-24 14:00:00,10.8,1015.5,-2.8,77,6.9,15000,29.632,,,210,,,,,,,,,,,og-post,,,,AAXX 24144 07335 32665 82116 10108 20069 30010 40155 58028 8357/ 333 83633 88359=
07335,1999-12-24 15:00:00,10.5,1015,-2.4,75,6.3,15000,25.928,53.708,,210,,,,,,,,,,,og-post,,,,AAXX 24154 07335 32665 72114 10105 20063 30005 40150 56024 8157/ 333 81633 87359 91129=
07335,1999-12-24 16:00:00,10.2,1014.2,-2.3,75,6,15000,29.632,53.708,50.004,200,,,,,,,,,,,og-post,,,,AAXX 24164 07335 32665 82016 10102 20060 39997 40142 56023 875// 333 87646 91027 91129=
07335,1999-12-24 17:00:00,9.9,1014.2,-1.3,75,5.7,15000,31.484,53.708,,210,,,,,,,,,,,og-post,,,,AAXX 24174 07335 32665 82117 10099 20057 39997 40142 56013 875// 333 87646 91129=
07335,1999-12-24 18:00:00,9.9,1013.1,-1.9,76,5.9,10000,31.484,57.412,,200,7.8,10.9,,,,,,,,60,og-post,,,,AAXX 24184 07335 /1560 82017 10099 20059 39986 40131 58019 69902 76062 885// 333 10109 20078 69907 82630 87646 91131=
07335,1999-12-24 19:00:00,8.8,1012.8,-1.4,87,6.8,,29.632,53.708,,200,,,0.6,,,,,,,,og-post,,,,AAXX 24194 07335 26/// /2016 10088 20068 39983 40128 58014 333 69965 91129=
07335,1999-12-24 20:00:00,9,1010.7,-3.5,85,6.6,,31.484,,,200,,,0.4,,,,,,,,og-post,,,,AAXX 24204 07335 26/// /2017 10090 20066 39962 40107 58035 333 69945=
07335,1999-12-24 21:00:00,9,1010,-3.1,82,6.1,,31.484,53.708,53.708,200,,,,1,,,,,,,og-post,,,,AAXX 24214 07335 26/// /2017 10090 20061 39955 40100 58031 333 60017 91029 91129=
07335,1999-12-24 22:00:00,9,1009.9,-2.9,82,6.1,,29.632,,,200,,,,,,,,,,,og-post,,,,AAXX 24224 07335 26/// /2016 10090 20061 39954 40099 56029 333 69905=
07335,1999-12-24 23:00:00,9.7,1008.2,-2.4,78,6.1,,38.892,61.116,61.116,210,,,,,,,,,,,og-post,,,,AAXX 24234 07335 26/// /2121 10097 20061 39938 40082 58024 333 69905 91033 91133=
07335,1999-12-25 00:00:00,9,1007.1,-2.8,88,7.1,300,38.892,72.228,68.524,220,,,,0.4,1,,,,,,og-post,,,,AAXX 25004 07335 /6/03 /2221 10090 20071 39927 40071 58028 60011 333 69947 91037 91139=
07335,1999-12-25 03:00:00,9.4,1005.3,-1.8,96,8.8,300,31.484,68.524,64.82,230,,,,5,,,,,,,og-post,,,,AAXX 25034 07335 26/03 /2317 10094 20088 39909 40053 55018 333 60057 91035 91137=
07335,1999-12-25 05:00:00,9.8,1005.4,0.3,92,8.6,,38.892,64.82,64.82,230,,,2,,,,,,,,og-post,,,,AAXX 25054 07335 26/// /2321 10098 20086 39910 40054 50003 333 60025 91035 91135=
07335,1999-12-25 06:00:00,9.9,1006,0.7,88,8,15000,35.188,83.34,57.412,240,8.7,10.1,,4,,10,10.2,,8,60,og-post,,,,AAXX 25064 07335 /1265 82419 10099 20080 39916 40060 51007 60102 76062 8757/ 333 10101 20087 32008 55000 60047 70102 81705 88359 91031 91145=
07335,1999-12-25 15:00:00,7.8,1009.2,1.6,87,5.8,15000,31.484,83.34,53.708,270,,,,0.8,,,,,,60,og-post,,,,AAXX 25154 07335 21365 82717 10078 20058 39947 40092 53016 76086 888// 333 69987 81808 87630 91029 91145=
07335,1999-12-26 06:00:00,13.3,992.2,-5.7,88,11.4,2500,61.116,118.528,103.712,260,7.5,13.5,,7,,16,23.2,0.4,7,63,og-post,,,,AAXX 26064 07335 /1325 82633 10133 20114 39782 49922 56057 60162 76362 877// 333 10135 20075 31007 55004 60077 70232 87709 91056 91164=
07335,1999-12-26 07:00:00,12.9,995.7,1.2,69,7.4,8000,61.116,118.528,94.452,280,,,0.2,,,,,,,21,og-post,,,,AAXX 26074 07335 21258 52833 10129 20074 39816 49957 53012 72162 85500 333 69925 83705 84640 91051 91164=
07335,1999-12-26 08:00:00,11.7,999.1,6.4,68,6,10000,57.412,114.824,94.452,290,,,,,,,,,,80,og-post,,,,AAXX 26084 07335 21560 52931 10117 20060 39849 49991 53064 78086 85800 333 69905 82820 84636 91051 91162=
07335,1999-12-26 09:00:00,10.9,1002,9.5,72,6.1,30000,38.892,118.528,64.82,290,,,,0.2,,,,,,25,og-post,,,,AAXX 26094 07335 21580 62921 10109 20061 39877 40020 51095 72586 86530 333 69927 85630 91035 91164=
07335,1999-12-26 11:00:00,10.8,1005.3,6.1,76,6.7,30000,29.632,,,270,,,,,,,,,,,og-post,,,,AAXX 26114 07335 32580 32716 10108 20067 39910 40053 51061 81531 333 81630 83360=
07335,1999-12-26 12:00:00,11.5,1004.7,2.7,74,7,30000,29.632,118.528,,260,,,,,0.2,,,,,3,og-post,,,,AAXX 26124 07335 11580 52616 10115 20070 39904 40047 50027 69921 70386 84831 333 82821 83656 91164=
07335,1999-12-26 13:00:00,11.9,1003.3,-0.6,76,7.8,20000,31.484,53.708,53.708,250,,,,,,,,,,,og-post,,,,AAXX 26134 07335 32570 72517 10119 20078 39891 40033 58006 872// 333 87821 91029 91129=
07335,1999-12-26 14:00:00,12,1002.1,-3.1,77,8.1,20000,42.596,68.524,68.524,250,,,,,,,,,,,og-post,,,,AAXX 26144 07335 32470 72523 10120 20081 39879 40021 58031 872// 333 87819 91037 91137=
07335,1999-12-26 15:00:00,12.2,1001.6,-3,79,8.7,8000,50.004,75.932,75.932,260,,,,,,,,,,61,og-post,,,,AAXX 26154 07335 21158 72627 10122 20087 39874 40016 56030 76162 872// 333 69907 82702 87815 91041 91141=
07335,1999-12-26 16:00:00,12.1,1000.7,-2.6,83,9.3,4000,50.004,87.044,72.228,260,,,,,,,,,,61,og-post,,,,AAXX 26164 07335 21140 72627 10121 20093 39865 40007 56026 76166 872// 333 69905 84702 86820 91039 91147=
07335,1999-12-26 17:00:00,10.9,1001.8,-0.4,77,7,,46.3,83.34,83.34,280,,,0.2,,,,,,,,og-post,,,,AAXX 26174 07335 26/// /2825 10109 20070 39875 40018 55004 333 69925 91045 91145=
07335,1999-12-26 18:00:00,8.8,1002.3,0.5,84,6.2,,38.892,87.044,79.636,290,8.8,13.6,,2,,3,,,,,og-post,,,,AAXX 26184 07335 /6/// /2921 10088 20062 39879 40023 53005 60032 333 10136 20088 60027 91043 91147=
07335,1999-12-26 19:00:00,9.5,1001.4,0.6,87,7.4,,29.632,,,270,,,0.2,,,,,,,,og-post,,,,AAXX 26194 07335 26/// /2716 10095 20074 39871 40014 50006 333 69925=
07335,1999-12-26 20:00:00,11.7,1000.6,-1.1,81,8.6,,46.3,83.34,79.636,270,,,0.4,,,,,,,,og-post,,,,AAXX 26204 07335 26/// /2725 10117 20086 39864 40006 58011 333 69945 91043 91145=
07335,1999-12-26 22:00:00,9.8,1001.8,0.4,78,6.2,,38.892,72.228,,290,,,0.4,,,,,,,,og-post,,,,AAXX 26224 07335 26/// /2921 10098 20062 39875 40018 53004 333 69945 91139=
07335,1999-12-26 23:00:00,9.3,1002.4,1.6,78,5.7,,35.188,64.82,,280,,,,,,,,,,,og-post,,,,AAXX 26234 07335 26/// /2819 10093 20057 39880 40024 51016 333 69905 91135=
07335,1999-12-27 00:00:00,9.1,1003.1,1.7,78,5.5,,29.632,87.044,53.708,280,,,,0.4,4,,,,,,og-post,,,,AAXX 27004 07335 /6/// /2816 10091 20055 39887 40031 53017 60041 333 69947 91029 91147=
07335,1999-12-27 01:00:00,7.7,1004,2,80,4.5,,35.188,72.228,,280,,,0.6,,,,,,,,og-post,,,,AAXX 27014 07335 26/// /2819 10077 20045 39895 40040 53020 333 69965 91139=
07335,1999-12-27 03:00:00,7.4,1005.7,2.5,76,3.5,,22.224,72.228,,260,,,,0.6,,,,,,,og-post,,,,AAXX 27034 07335 26/// /2612 10074 20035 39912 40057 53025 333 69967 91139=
07335,1999-12-27 04:00:00,7.2,1006,2,72,2.5,,22.224,,,280,,,,,,,,,,,og-post,,,,AAXX 27044 07335 26/// /2812 10072 20025 39915 40060 51020 333 69905=
07335,1999-12-27 05:00:00,6.7,1006.1,1.2,76,2.8,20000,18.52,,,260,,,,,,,,,,,og-post,,,,AAXX 27054 07335 22970 72610 10067 20028 39915 40061 51012 8701/ 333 69905 87460=
07335,1999-12-27 06:00:00,6.2,1006.1,0.3,83,3.5,20000,14.816,72.228,,240,6.2,12,,,,5,7.4,1.2,5,,og-post,,,,AAXX 27064 07335 /2970 72408 10062 20035 39915 40061 51003 60052 8701/ 333 10120 20062 31005 55012 69907 70074 87460 91139=
07335,1999-12-27 07:00:00,6,1005.4,-0.7,85,3.7,20000,7.408,,,220,,,,,,,,,,,og-post,,,,AAXX 27074 07335 32970 82204 10060 20037 39908 40054 58007 8807/ 333 88460=
07335,1999-12-27 08:00:00,6,1004.6,-1.5,87,4,20000,7.408,,,220,,,,,,,,,,,og-post,,,,AAXX 27084 07335 32970 82204 10060 20040 39900 40046 58015 8807/ 333 88460=
07335,1999-12-27 09:00:00,6.6,1003.7,-2.3,85,4.3,20000,14.816,,,210,,,,,,,,,,,og-post,,,,AAXX 27094 07335 32770 82108 10066 20043 39892 40037 58023 8357/ 333 83650 87359=
07335,1999-12-27 10:00:00,7,1002.9,-2.4,83,4.3,15000,18.52,,,220,,,,,,,,,,61,og-post,,,,AAXX 27104 07335 21165 82210 10070 20043 39884 40029 57024 76162 8577/ 333 69905 83702 83650 88459=
07335,1999-12-27 11:00:00,6.2,1001,-3.5,93,5.2,8000,14.816,,,200,,,2,,,,,,,61,og-post,,,,AAXX 27114 07335 21258 82008 10062 20052 39865 40010 58035 76166 8657/ 333 60025 82704 85616 88459=
07335,1999-12-27 12:00:00,5.9,998.2,-5.5,95,5.2,8000,14.816,,,170,,,,4,4,,,,,61,og-post,,,,AAXX 27124 07335 /1258 81708 10059 20052 39837 49982 58055 60041 76162 8657/ 333 60047 82704 85616 88459=
07335,1999-12-27 13:00:00,6,993.9,-8.9,97,5.6,5000,22.224,,,170,,,3,,,,,,,61,og-post,,,,AAXX 27134 07335 21250 81712 10060 20056 39795 49939 58089 76166 8672/ 333 60035 85705 83616 88459=
07335,1999-12-27 14:00:00,5.7,989.6,-11.3,96,5.1,5000,29.632,,,170,,,5,,,,,,,61,og-post,,,,AAXX 27144 07335 21250 81716 10057 20051 39752 49896 58113 76166 8672/ 333 60055 85706 83616 88459=
07335,1999-12-27 15:00:00,6.1,985,-13,95,5.4,8000,31.484,61.116,,180,,,,11,,,,,,61,og-post,,,,AAXX 27154 07335 21258 81817 10061 20054 39707 49850 58130 76166 877// 333 60117 84704 86620 91133=
07335,1999-12-27 16:00:00,8,979.8,-13.8,97,7.6,4000,35.188,57.412,57.412,200,,,5,,,,,,,63,og-post,,,,AAXX 27164 07335 21240 82019 10080 20076 39657 49798 58138 76366 887// 333 60055 87706 91031 91131=
07335,1999-12-27 17:00:00,11.5,976.4,-12.7,88,9.6,8000,50.004,96.304,75.932,260,,,6,,,,,,,61,og-post,,,,AAXX 27174 07335 21258 82627 10115 20096 39625 49764 56127 76166 8672/ 333 60065 84705 85623 87459 91041 91152=
07335,1999-12-27 18:00:00,8.7,973.3,-11.4,86,6.5,8000,64.82,125.936,103.712,240,5.7,12.1,,11,,26,,,,61,og-post,,,,AAXX 27184 07335 /1258 82435 10087 20065 39593 49733 56114 60262 76166 8672/ 333 10121 20057 60117 85705 85623 87459 91056 91168=
07335,1999-12-27 19:00:00,8.4,969.5,-10.1,93,7.3,300,61.116,140.752,96.304,240,,,1,,,,,,,,og-post,,,,AAXX 27194 07335 26/03 /2433 10084 20073 39556 49695 58101 333 60015 91052 91176=
07335,1999-12-27 20:00:00,10,969.8,-6.6,88,8.1,,50.004,103.712,,250,,,1,,,,,,,,og-post,,,,AAXX 27204 07335 26/// /2527 10100 20081 39559 49698 55066 333 60015 91156=
07335,1999-12-27 21:00:00,6.2,973.7,0.3,88,4.4,,68.524,140.752,103.712,290,,,,5,,,,,,,og-post,,,,AAXX 27214 07335 26/// /2937 10062 20044 39596 49737 53003 333 60057 91056 91176=
07335,1999-12-27 22:00:00,3.2,982,0,91,1.9,,79.636,122.232,122.232,310,,,0.8,,,,,,,,og-post,,,,AAXX 27224 07335 26/// /3143 10032 20019 39676 49820 53120 333 69985 91066 91166=
07335,1999-12-27 23:00:00,4.7,988.9,0.6,88,2.9,,64.82,111.12,96.304,320,,,0.4,,,,,,,,og-post,,,,AAXX 27234 07335 26/// /3235 10047 20029 39745 49889 53186 333 69945 91052 91160=
07335,1999-12-28 00:00:00,5.5,993.4,0.4,85,3.2,,50.004,140.752,72.228,310,,,,1,6,,,,,,og-post,,,,AAXX 28004 07335 /6/// /3127 10055 20032 39790 49934 51194 60061 333 60017 91039 91176=
07335,1999-12-28 01:00:00,5.7,996.5,0.4,85,3.4,,42.596,83.34,64.82,310,,,,,,,,,,,og-post,,,,AAXX 28014 07335 26/// /3123 10057 20034 39820 49965 51144 333 69905 91035 91145=
07335,1999-12-28 02:00:00,5.2,999.2,0.2,89,3.5,,35.188,64.82,,310,,,0.4,,,,,,,,og-post,,,,AAXX 28024 07335 26/// /3119 10052 20035 39847 49992 51102 333 69945 91135=
07335,1999-12-28 03:00:00,4.5,1001.3,7.7,90,3,,38.892,83.34,,320,,,,0.6,,,,,,,og-post,,,,AAXX 28034 07335 26/// /3221 10045 20030 39867 40013 51077 333 69967 91145=
07335,1999-12-28 04:00:00,4.5,1002.2,5.6,89,2.8,,29.632,57.412,,300,,,0.2,,,,,,,,og-post,,,,AAXX 28044 07335 26/// /3016 10045 20028 39876 40022 51056 333 69925 91131=
07335,1999-12-28 05:00:00,3.7,1003.5,4.1,87,1.7,,25.928,,,300,,,,,,,,,,,og-post,,,,AAXX 28054 07335 26/// /3014 10037 20017 39888 40035 51041 333 69905=
07335,1999-12-28 06:00:00,3.2,1004.3,2.9,88,1.4,25000,18.52,83.34,,290,3.1,10.5,,0.2,,7,33,,2,,og-post,,,,AAXX 28064 07335 /2575 12910 10032 20014 39896 40043 51029 60072 81500 333 10105 20031 32002 55000 69927 70330 81625 91145=
07335,1999-12-28 07:00:00,2.6,1005.2,2.8,89,1,25000,14.816,,,270,,,,,,,,,,,og-post,,,,AAXX 28074 07335 32575 12708 10026 20010 39904 40052 51028 81500 333 81625=
07335,1999-12-28 08:00:00,2.4,1005.8,2.2,90,0.9,25000,18.52,,,260,,,,,,,,,,,og-post,,,,AAXX 28084 07335 32575 22610 10024 20009 39910 40058 51022 81531 333 81625=
07335,1999-12-28 09:00:00,3.7,1006.8,2.5,87,1.7,30000,14.816,,,270,,,,,,,,,,,og-post,,,,AAXX 28094 07335 32580 22708 10037 20017 39921 40068 53025 81531 333 81625=
07335,1999-12-28 10:00:00,5,1007.2,2.1,83,2.4,30000,18.52,,,270,,,,,,,,,,,og-post,,,,AAXX 28104 07335 32580 22710 10050 20024 39925 40072 51021 81831 333 81820=
07335,1999-12-28 11:00:00,6.3,1007.5,1.9,76,2.4,30000,22.224,,,280,,,,,,,,,,,og-post,,,,AAXX 28114 07335 32580 22812 10063 20024 39929 40075 51019 81831 333 81820=
07335,1999-12-28 12:00:00,6.1,1007.3,0.6,72,1.4,,25.928,,,310,,,,,,,,,,,og-post,,,,AAXX 28124 07335 36/// /3114 10061 20014 39927 40073 50006=
07335,1999-12-28 13:00:00,6.4,1007.5,0.4,76,2.5,30000,25.928,,,310,,,,,,,,,,,og-post,,,,AAXX 28134 07335 32580 63114 10064 20025 39929 40075 51004 85801 333 85825=
07335,1999-12-28 14:00:00,7,1007.4,-0.1,71,2.1,30000,18.52,,,300,,,,,,,,,,,og-post,,,,AAXX 28144 07335 32580 33010 10070 20021 39928 40074 56001 83201 333 83826=
07335,1999-12-28 15:00:00,5.9,1007.8,0.5,72,1.2,30000,14.816,,,310,,,,,,,,,,,og-post,,,,AAXX 28154 07335 32580 33108 10059 20012 39932 40078 53005 82231 333 82825=
07335,1999-12-28 16:00:00,4.5,1008.7,1.1,76,0.6,30000,7.408,,,300,,,,,,,,,,,og-post,,,,AAXX 28164 07335 32580 43004 10045 20006 39940 40087 53011 82231 333 82825=
07335,1999-12-28 17:00:00,2.9,1009.2,1.6,87,1,25000,7.408,,,280,,,,,,,,,,,og-post,,,,AAXX 28174 07335 32575 52804 10029 20010 39944 40092 52016 83831 333 81825=
07335,1999-12-28 18:00:00,3.1,1009.7,1.7,88,1.3,25000,11.112,,,270,1.8,7.4,,,,,,,,,og-post,,,,AAXX 28184 07335 32575 62706 10031 20013 39949 40097 51017 83831 333 10074 20018 81825=
07335,1999-12-28 19:00:00,3.6,1010.4,1.6,86,1.5,,11.112,,,280,,,,,,,,,,,og-post,,,,AAXX 28194 07335 36/// /2806 10036 20015 39956 40104 53016=
07335,1999-12-28 20:00:00,2.5,1011.6,2.3,94,1.6,,14.816,,,360,,,0.2,,,,,,,,og-post,,,,AAXX 28204 07335 26/// /3608 10025 20016 39967 40116 53023 333 69925=
07335,1999-12-28 21:00:00,2.5,1012.2,2.4,88,0.7,,18.52,,,330,,,,0.2,,,,,,,og-post,,,,AAXX 28214 07335 26/// /3310 10025 20007 39973 40122 51024 333 69927=
07335,1999-12-28 22:00:00,1.8,1012.6,2.1,93,0.8,,18.52,,,330,,,,,,,,,,,og-post,,,,AAXX 28224 07335 36/// /3310 10018 20008 39977 40126 51021=
07335,1999-12-28 23:00:00,0.5,1013.4,1.7,94,-0.4,,11.112,,,310,,,,,,,,,,,og-post,,,,AAXX 28234 07335 36/// /3106 10005 21004 39984 40134 53017=
07335,1999-12-29 00:00:00,0.9,1013.8,1.5,95,0.2,,18.52,,,300,,,,,0.2,,,,,,og-post,,,,AAXX 29004 07335 16/// /3010 10009 20002 39988 40138 52015 69921=
07335,1999-12-29 01:00:00,1,1014.2,1.5,95,0.3,,14.816,,,320,,,,,,,,,,,og-post,,,,AAXX 29014 07335 36/// /3208 10010 20003 39992 40142 51015=
07335,1999-12-29 02:00:00,0.6,1015,1.6,95,-0.1,,11.112,,,330,,,,,,,,,,,og-post,,,,AAXX 29024 07335 36/// /3306 10006 21001 30000 40150 53016=
07335,1999-12-29 03:00:00,-0.5,1015.8,1.9,95,-1.2,,11.112,,,320,,,,,,,,,,,og-post,,,,AAXX 29034 07335 36/// /3206 11005 21012 30007 40158 53019=
07335,1999-12-29 04:00:00,-2.4,1016.5,2.1,95,-3.1,,7.408,,,250,,,,,,,,,,,og-post,,,,AAXX 29044 07335 36/// /2504 11024 21031 30013 40165 51021=
07335,1999-12-29 05:00:00,-2,1016.9,1.7,97,-2.4,12000,7.408,,,290,,,,,,,,,,,og-post,,,,AAXX 29054 07335 32962 02904 11020 21024 30017 40169 51017=
07335,1999-12-29 06:00:00,-1.7,1017.7,1.8,98,-2,10000,,,,,-2.7,4,,,,0.2,0.2,,-6,,og-post,,,,AAXX 29064 07335 12/60 10000 11017 21020 30025 40177 53018 69922 80001 333 10040 21027 31106 55000 70002 81073=
07335,1999-12-29 07:00:00,-4,1018.3,1.7,97,-4.4,2000,3.704,,,260,,,,,,,,,,40,og-post,,,,AAXX 29074 07335 31/20 12602 11040 21044 30030 40183 53017 74000 80001 333 81073=
07335,1999-12-29 08:00:00,-3.6,1018.8,1.8,98,-3.9,2000,3.704,,,230,,,,,,,,,,40,og-post,,,,AAXX 29084 07335 31/20 12302 11036 21039 30035 40188 51018 74000 80001 333 81073=
07335,1999-12-29 09:00:00,-1,1019.5,1.8,99,-1.1,3500,7.408,,,260,,,,,,,,,,10,og-post,,,,AAXX 29094 07335 31935 12604 11010 21011 30043 40195 53018 71000 81031 333 81360=
07335,1999-12-29 10:00:00,1.7,1020.1,2.1,97,1.3,6000,11.112,,,320,,,0.2,,,,,,,,og-post,,,,AAXX 29104 07335 22956 13206 10017 20013 30051 40201 53021 81030 333 69925 81360=
07335,1999-12-29 11:00:00,3.7,1020.2,1.8,87,1.7,10000,7.408,,,310,,,,,,,,,,,og-post,,,,AAXX 29114 07335 32960 13104 10037 20017 30053 40202 51018 81030 333 81360=
07335,1999-12-29 12:00:00,5.3,1020.6,1.5,81,2.3,15000,11.112,,,320,,,,0.2,0.2,,,,,,og-post,,,,AAXX 29124 07335 /2465 13206 10053 20023 30058 40206 51015 69921 81130 333 69927 81811=
07335,1999-12-29 13:00:00,6.5,1020.7,0.8,77,2.8,20000,11.112,,,310,,,,,,,,,,,og-post,,,,AAXX 29134 07335 32470 23106 10065 20028 30059 40207 51008 81130 333 81816=
07335,1999-12-29 14:00:00,6.6,1020.7,0.6,72,1.9,20000,11.112,,,310,,,,,,,,,,,og-post,,,,AAXX 29144 07335 32570 73106 10066 20019 30059 40207 51006 878// 333 82820 85640=
07335,1999-12-29 15:00:00,6.1,1021.1,0.5,74,1.8,20000,11.112,,,320,,,,,,,,,,,og-post,,,,AAXX 29154 07335 32570 63206 10061 20018 30063 40211 53005 86800 333 82826 84640=
07335,1999-12-29 16:00:00,5.6,1021.7,1,75,1.5,20000,11.112,,,300,,,,,,,,,,,og-post,,,,AAXX 29164 07335 32570 53006 10056 20015 30069 40217 53010 85800 333 81827 85640=
07335,1999-12-29 17:00:00,3.7,1,,86,1.6,20000,7.408,,,280,,,,,,,,,,,og-post,,,,AAXX 29174 07335 32670 62804 10037 20016 30014=
07335,1999-12-29 18:00:00,2.9,1023.2,1.9,88,1.1,20000,7.408,,,260,-4.1,6.8,,,,,,,,,og-post,,,,AAXX 29184 07335 32570 62604 10029 20011 30082 40232 53019 86500 333 10068 21041 83628 85640=
07335,1999-12-29 19:00:00,1,1024.1,2.1,90,-0.5,,7.408,,,260,,,,,,,,,,,og-post,,,,AAXX 29194 07335 36/// /2604 10010 21005 30090 40241 53021=
07335,1999-12-29 20:00:00,0.9,1025,2.3,93,-0.1,,11.112,,,250,,,,,,,,,,,og-post,,,,AAXX 29204 07335 36/// /2506 10009 21001 30098 40250 53023=
07335,1999-12-29 21:00:00,0.9,1025.3,1.9,93,-0.1,,11.112,,,290,,,,,,,,,,,og-post,,,,AAXX 29214 07335 36/// /2906 10009 21001 30101 40253 51019=
07335,1999-12-29 22:00:00,0.3,1026,1.8,95,-0.4,,3.704,,,290,,,,,,,,,,,og-post,,,,AAXX 29224 07335 36/// /2902 10003 21004 30108 40260 51018=
07335,1999-12-29 23:00:00,-0.8,1026.6,1.5,97,-1.2,,7.408,,,230,,,,,,,,,,,og-post,,,,AAXX 29234 07335 36/// /2304 11008 21012 30113 40266 53015=
07335,1999-12-30 00:00:00,-0.3,1027.4,2,98,-0.6,,3.704,,,190,,,,,,,,,,,og-post,,,,AAXX 30004 07335 36/// /1902 11003 21006 30121 40274 53020=
07335,1999-12-30 01:00:00,-0.6,1027.8,1.7,98,-0.9,,,,,,,,,,,,,,,,og-post,,,,AAXX 30014 07335 36/// /0000 11006 21009 30125 40278 51017=
07335,1999-12-30 02:00:00,-2.9,1028,1.3,96,-3.4,,3.704,,,310,,,,,,,,,,,og-post,,,,AAXX 30024 07335 36/// /3102 11029 21034 30126 40280 51013=
07335,1999-12-30 03:00:00,-2.8,1027.6,0.1,98,-3.1,1100,3.704,,,190,,,,,,,,,,,og-post,,,,AAXX 30034 07335 36/11 /1902 11028 21031 30122 40276 50001=
07335,1999-12-30 04:00:00,-2.2,1027.8,-0.1,99,-2.3,400,3.704,,,200,,,,,,,,,,,og-post,,,,AAXX 30044 07335 36/04 /2002 11022 21023 30124 40278 55001=
07335,1999-12-30 05:00:00,-2.4,1028.3,0.3,98,-2.7,500,3.704,,,230,,,,,,,,,,41,og-post,,,,AAXX 30054 07335 31905 02302 11024 21027 30129 40283 53003 74140=
07335,1999-12-30 06:00:00,-3.3,1028.5,0.9,98,-3.6,500,3.704,,,230,-3.8,2.9,,,,,,5.5,-7,41,og-post,,,,AAXX 30064 07335 31905 02302 11033 21036 30131 40285 52009 74140 333 10029 21038 34107 55055 70000=
07335,1999-12-30 07:00:00,-2.9,1029.2,1.4,98,-3.2,3000,3.704,,,220,,,,,,,,,,28,og-post,,,,AAXX 30074 07335 31930 02202 11029 21032 30138 40292 53014 72840=
07335,1999-12-30 08:00:00,-2.2,1029.6,1.3,99,-2.3,1500,7.408,,,170,,,,,,,,,,10,og-post,,,,AAXX 30084 07335 31015 61704 11022 21023 30142 40296 53013 71011 81634 333 81701 83360 85075=
07335,1999-12-30 09:00:00,-1.2,1029.8,1.4,99,-1.3,500,11.112,,,180,,,,,,,,,,47,og-post,,,,AAXX 30094 07335 31/05 91806 11012 21013 30145 40298 51014 74741=
07335,1999-12-30 10:00:00,-0.5,1030.3,1.2,99,-0.6,300,14.816,,,220,,,,,,,,,,47,og-post,,,,AAXX 30104 07335 31/03 92208 11005 21006 30150 40303 53012 74744=
07335,1999-12-30 11:00:00,0.7,1030.1,0.7,99,0.6,300,14.816,,,210,,,,,,,,,,43,og-post,,,,AAXX 30114 07335 31/03 92108 10007 20006 30149 40301 50007 74344=
07335,1999-12-30 12:00:00,1,1029.3,-0.4,99,0.9,500,18.52,,,210,,,,,,,,,,43,og-post,,,,AAXX 30124 07335 31/05 92110 10010 20009 30141 40293 58004 74341=
07335,1999-12-30 13:00:00,1,1028.9,-1.3,99,0.9,1200,18.52,,,210,,,,,,,,,,28,og-post,,,,AAXX 30134 07335 31112 82110 10010 20009 30137 40289 58013 72842 886// 333 88702=
07335,1999-12-30 14:00:00,1.9,1028.1,-1.9,99,1.8,2500,14.816,,,210,,,,,,,,,,10,og-post,,,,AAXX 30144 07335 31125 82108 10019 20018 30130 40281 56019 71022 886// 333 88702=
07335,1999-12-30 15:00:00,2.3,1027.9,-1.3,98,2,2500,14.816,,,190,,,,,,,,,,10,og-post,,,,AAXX 30154 07335 31125 81908 10023 20020 30128 40279 56013 71042 886// 333 88702=
07335,1999-12-30 16:00:00,2.3,1027.8,-1,98,2,3000,14.816,,,210,,,,,,,,,,20,og-post,,,,AAXX 30164 07335 31130 82108 10023 20020 30127 40278 56010 72022 887// 333 87703=
07335,1999-12-30 17:00:00,2.2,1027.3,-0.8,97,1.8,3500,14.816,,,200,,,,,,,,,,10,og-post,,,,AAXX 30174 07335 31135 82008 10022 20018 30122 40273 58008 71022 887// 333 87703=
07335,1999-12-30 18:00:00,2.5,1026.9,-1,97,2.1,4000,18.52,,,210,-3.8,2.5,,,,,,,,61,og-post,,,,AAXX 30184 07335 /1240 82110 10025 20021 30118 40269 58010 69902 76164 8677/ 333 10025 21038 69907 85703 83615 88459=
07335,1999-12-30 19:00:00,2.8,1026.3,-1.5,96,2.2,,14.816,,,190,,,0.4,,,,,,,,og-post,,,,AAXX 30194 07335 26/// /1908 10028 20022 30112 40263 58015 333 69945=
07335,1999-12-30 20:00:00,2.9,1025.7,-1.5,95,2.2,,14.816,,,200,,,0.2,,,,,,,,og-post,,,,AAXX 30204 07335 26/// /2008 10029 20022 30107 40257 58015 333 69925=
07335,1999-12-30 21:00:00,3.2,1025.3,-1.5,96,2.6,,18.52,,,210,,,,0.6,,,,,,,og-post,,,,AAXX 30214 07335 26/// /2110 10032 20026 30103 40253 56015 333 69967=
07335,1999-12-30 22:00:00,3.5,1025,-1.2,97,3.1,,18.52,,,210,,,,,,,,,,,og-post,,,,AAXX 30224 07335 26/// /2110 10035 20031 30100 40250 56012 333 69905=
07335,1999-12-30 23:00:00,3.8,1024.1,-1.6,96,3.2,,18.52,,,210,,,,,,,,,,,og-post,,,,AAXX 30234 07335 26/// /2110 10038 20032 30091 40241 58016 333 69905=
07335,1999-12-31 00:00:00,4.1,1023.5,-1.7,97,3.7,,22.224,,,210,,,,0.2,0.8,,,,,,og-post,,,,AAXX 31004 07335 /6/// /2112 10041 20037 30086 40235 58017 69981 333 69927=
07335,1999-12-31 01:00:00,4.6,1022.8,-2.1,97,4.2,,18.52,,,210,,,0.8,,,,,,,,og-post,,,,AAXX 31014 07335 26/// /2110 10046 20042 30079 40228 56021 333 69985=
07335,1999-12-31 02:00:00,5,1022,-2,98,4.7,,22.224,,,220,,,,,,,,,,,og-post,,,,AAXX 31024 07335 26/// /2212 10050 20047 30071 40220 58020 333 69905=
07335,1999-12-31 03:00:00,5.3,1021.3,-2.1,98,5,,14.816,,,230,,,,0.8,,,,,,,og-post,,,,AAXX 31034 07335 26/// /2308 10053 20050 30065 40213 56021 333 69987=
07335,1999-12-31 04:00:00,5.7,1020.5,-2.2,98,5.4,1400,14.816,,,220,,,0.4,,,,,,,,og-post,,,,AAXX 31044 07335 26/14 /2208 10057 20054 30057 40205 57022 333 69945=
07335,1999-12-31 05:00:00,6.6,1020,-1.9,99,6.5,2000,18.52,,,230,,,0.4,,,,,,,51,og-post,,,,AAXX 31054 07335 21120 82310 10066 20065 30052 40200 56019 75152 887// 333 69945 83702 87706=
07335,1999-12-31 06:00:00,7.1,1020.2,-1,99,7,2000,14.816,,,240,2.5,7.1,,1,,3,3,,2,58,og-post,,,,AAXX 31064 07335 /1120 82408 10071 20070 30055 40202 55010 60032 75865 887// 333 10071 20025 32002 55000 60017 70030 81702 87705=
07335,1999-12-31 07:00:00,7.6,1020.7,0.3,99,7.5,12000,11.112,,,250,,,0.2,,,,,,,21,og-post,,,,AAXX 31074 07335 21262 82506 10076 20075 30060 40207 53003 72165 877// 333 69925 82704 87706=
07335,1999-12-31 08:00:00,8,1021,1.1,99,7.9,15000,11.112,,,270,,,,,,,,,,,og-post,,,,AAXX 31084 07335 32365 72706 10080 20079 30063 40210 52011 875// 333 83708 87620=
07335,1999-12-31 09:00:00,8.8,1021.7,1.5,98,8.5,15000,11.112,,,300,,,,0.2,,,,,,25,og-post,,,,AAXX 31094 07335 21465 73006 10088 20085 30070 40217 53015 72586 875// 333 69927 87615=
07335,1999-12-31 10:00:00,9.2,1022.2,1.6,96,8.6,5000,14.816,,,290,,,,,,,,,,50,og-post,,,,AAXX 31104 07335 21250 82908 10092 20086 30076 40222 53016 75052 875// 333 69905 85706 87611=
07335,1999-12-31 11:00:00,9.3,1022.6,1.7,97,8.8,5000,14.816,,,310,,,0.6,,,,,,,20,og-post,,,,AAXX 31114 07335 21250 73108 10093 20088 30080 40226 51017 72052 877// 333 69965 85706 87611=
07335,1999-12-31 12:00:00,10,1022.4,0.8,94,9.1,8000,14.816,,,300,,,,0.6,0.8,,,,,20,og-post,,,,AAXX 31124 07335 /1258 73008 10100 20091 30078 40224 50008 69981 72086 875// 333 69967 86706 86611=
07335,1999-12-31 13:00:00,9.8,1022.3,0.1,93,8.7,15000,11.112,,,310,,,,,,,,,,,og-post,,,,AAXX 31134 07335 32365 73106 10098 20087 30077 40223 50001 875// 333 86708 87628=
07335,1999-12-31 14:00:00,9.9,1022.4,-0.2,93,8.8,6000,11.112,,,320,,,,,,,,,,50,og-post,,,,AAXX 31144 07335 21256 83206 10099 20088 30078 40224 55002 75052 875// 333 69905 85706 87626=
07335,1999-12-31 15:00:00,9.7,1022.5,0.1,93,8.6,10000,11.112,,,310,,,,,,,,,,20,og-post,,,,AAXX 31154 07335 21360 83106 10097 20086 30079 40225 53001 72052 875// 333 69907 86708 87630=
07335,1999-12-31 16:00:00,8.9,1023.1,0.7,96,8.3,10000,11.112,,,310,,,,,,,,,,20,og-post,,,,AAXX 31164 07335 21260 73106 10089 20083 30084 40231 53007 72052 878// 333 69905 81706 87626=
07335,1999-12-31 17:00:00,8.3,1023.5,1,97,7.9,15000,7.408,,,300,,,,,,,,,,,og-post,,,,AAXX 31174 07335 32565 73004 10083 20079 30088 40235 53010 878// 333 87632=
07335,1999-12-31 18:00:00,8,1024,1.4,97,7.6,15000,7.408,,,290,7.1,10.2,,,,0.8,,,,1,og-post,,,,AAXX 31184 07335 /1665 72904 10080 20076 30093 40240 52014 69982 70152 875// 333 10102 20071 69907 87633=
07335,1999-12-31 19:00:00,8.5,1024.4,1.3,97,8.1,,7.408,,,290,,,,,,,,,,,og-post,,,,AAXX 31194 07335 36/// /2904 10085 20081 30097 40244 52013=
07335,1999-12-31 20:00:00,8,1024.9,1.4,97,7.6,,3.704,,,310,,,,,,,,,,,og-post,,,,AAXX 31204 07335 36/// /3102 10080 20076 30102 40249 52014=
07335,1999-12-31 21:00:00,7.9,1025.4,1.3,98,7.6,,7.408,,,290,,,,,,,,,,,og-post,,,,AAXX 31214 07335 36/// /2904 10079 20076 30106 40254 52013=
07335,1999-12-31 22:00:00,7.7,1025.6,1.1,98,7.4,,3.704,,,240,,,,,,,,,,,og-post,,,,AAXX 31224 07335 36/// /2402 10077 20074 30108 40256 51011=
07335,1999-12-31 23:00:00,7.6,1026,1,98,7.3,,3.704,,,230,,,,,,,,,,,og-post,,,,AAXX 31234 07335 36/// /2302 10076 20073 30112 40260 52010=
