station_id,dh_utc,temperature,pression,pression_variation_3h,humidite,point_de_rosee,visibilite,vent_moyen,vent_rafales,vent_rafales_10min,vent_direction,temperature_min,temperature_max,pluie_1h,pluie_3h,pluie_6h,pluie_12h,pluie_24h,ensoleillement,temperature_sol,temps_omm,source,radiations,neige_au_sol,nebulosite,raw_msg
07650,1996-01-01 00:00:00,7,1002.1,1.3,93,6,20000,7.408,,,20,,,,,,,,,,,wg-a,,,,AAXX 01004 07650 12/70 20204 10070 20060 39976 40021 51013 60006 80001 90000=
07650,1996-01-01 03:00:00,6,1002.1,-0,100,6,20000,11.112,,,350,,,,0,,,,,,,wg-a,,,,AAXX 01034 07650 12/70 23506 10060 20060 39976 40021 55000 60007 80001 90300=
07650,1996-01-01 06:00:00,7,1001.6,-0.5,93,6,15000,7.408,,,10,5.6,10.7,,,,,1,,,,wg-a,,,,AAXX 01064 07650 02/65 40104 10070 20060 39971 40016 57005 60006 80002 90600 333 10107 20056 60014=
07650,1996-01-01 09:00:00,9,1001,-0.6,87,7,35000,11.112,,,170,,,,,,,,,,,wg-a,,,,AAXX 01094 07650 12581 71706 10090 20070 39965 40010 55006 60006 82582 90900=
07650,1996-01-01 12:00:00,13,999.2,-1.7,67,7,40000,3.704,,,120,,,,,,,,,,,wg-a,,,,AAXX 01124 07650 12/82 71202 10130 20070 39948 49992 58017 60006 86032 91200=
07650,1996-01-01 15:00:00,14,997.3,-1.9,63,7,40000,11.112,,,70,,,,,,,,,,,wg-a,,,,AAXX 01154 07650 12682 70706 10140 20070 39929 49973 55019 60006 8357/ 91500=
07650,1996-01-01 18:00:00,11,997.6,0.3,87,9,12000,18.52,,,100,6,15,,1,,,,,,61,wg-a,,,,AAXX 01184 07650 12562 81010 10110 20090 39932 49976 50003 60017 76162 8557/ 91800 333 10150 20060=
07650,1996-01-01 21:00:00,9,1002.3,4.6,93,8,12000,3.704,,,260,,,,0,,,,,,60,wg-a,,,,AAXX 01214 07650 12562 82602 10090 20080 39978 40023 53046 60007 76062 8351/ 92100=
07650,1996-01-02 00:00:00,9,1003.7,1.4,93,8,10000,3.704,,,40,,,,0,,,,,,21,wg-a,,,,AAXX 02004 07650 02460 80402 10090 20080 39992 40037 52014 60016 72162 8457/ 90000 333 60007=
07650,1996-01-02 03:00:00,9,1004.6,0.9,93,8,12000,3.704,,,40,,,,,,,,,,,wg-a,,,,AAXX 02034 07650 12662 70402 10090 20080 30001 40046 53009 60006 8257/ 90300=
07650,1996-01-02 06:00:00,11,1005.4,0.9,76,7,18000,22.224,,,300,8.3,11.5,,,,,2,,,,wg-a,,,,AAXX 02064 07650 12668 43012 10110 20070 30010 40054 53009 60024 81532 90600 333 10115 20083=
07650,1996-01-02 09:00:00,12,1006.5,1.1,76,8,20000,31.484,,,240,,,,,,,,,,,wg-a,,,,AAXX 02094 07650 12570 52417 10120 20080 30021 40065 53011 60006 81580 90900=
07650,1996-01-02 12:00:00,12,1007.1,0.6,82,9,20000,31.484,,,240,,,,0,,,,,,60,wg-a,,,,AAXX 02124 07650 02570 72417 10120 20090 30027 40071 50006 60006 76061 8187/ 91200 333 60007=
07650,1996-01-02 15:00:00,12,1007.8,0.7,82,9,40000,25.928,,,300,,,,,,,,,,1,wg-a,,,,AAXX 02154 07650 02582 53014 10120 20090 30034 40078 53007 61000 70162 81141 91500 333 ////=
07650,1996-01-02 18:00:00,11,1009.9,2,71,6,500,31.484,,,320,10.5,12.9,,,,,,,,2,wg-a,,,,AAXX 02184 07650 32500 33217 10110 20060 30054 40099 53020 70261 81130 91800 333 10129 20105=
07650,1996-01-02 21:00:00,10,1012.3,2.4,71,5,500,25.928,,,300,,,,,,,,,,,wg-a,,,,AAXX 02214 07650 12/00 23014 10100 20050 30078 40123 51024 60006 82040 92100=
07650,1996-01-03 00:00:00,10,1013.1,0.8,71,5,40000,31.484,,50.004,330,,,,,,,,,,,wg-a,,,,AAXX 03004 07650 12/82 03317 10100 20050 30086 40131 51008 60006 80000 90000 333 91027=
07650,1996-01-03 03:00:00,9,1013.5,0.4,71,4,40000,31.484,,,320,,,,,,,,,,,wg-a,,,,AAXX 03034 07650 12/82 03217 10090 20040 30090 40135 51004 60006 80000 90300=
07650,1996-01-03 06:00:00,8,1013.5,-0,76,4,500,22.224,,,330,7.4,11,,,,,,,,,wg-a,,,,AAXX 03064 07650 02/00 03312 10080 20040 30090 40135 55000 60006 80000 90600 333 10110 20074 60004=
07650,1996-01-03 09:00:00,9,1015.1,1.6,76,5,75000,18.52,,,330,,,,,,,,,,,wg-a,,,,AAXX 03094 07650 12589 23310 10090 20050 30106 40151 53016 60006 81130 90900=
07650,1996-01-03 12:00:00,12,1014.8,-0.3,67,6,75000,22.224,,,320,,,,,,,,,,,wg-a,,,,AAXX 03124 07650 12/89 13212 10120 20060 30103 40148 58003 60006 81030 91200=
07650,1996-01-03 15:00:00,11,1014.4,-0.4,66,5,50000,25.928,,,330,,,,,,,,,,,wg-a,,,,AAXX 03154 07650 12/84 03314 10110 20050 30099 40144 55004 60006 80000 91500=
07650,1996-01-03 18:00:00,7,1015.7,1.2,81,4,500,14.816,,,320,6.6,12.5,,,,,,,,,wg-a,,,,AAXX 03184 07650 12/00 03208 10070 20040 30111 40157 53012 60006 80000 91800 333 10125 20066=
07650,1996-01-03 21:00:00,5,1016.6,0.9,87,3,25000,7.408,,,120,,,,,,,,,,,wg-a,,,,AAXX 03214 07650 12/75 01204 10050 20030 30120 40166 50009 60006 80000 92100=
07650,1996-01-04 00:00:00,3,1016.7,0.1,93,2,15000,7.408,,,140,,,,,,,,,,,wg-a,,,,AAXX 04004 07650 12/65 21404 10030 20020 30121 40167 52001 60006 80002 90000=
07650,1996-01-04 03:00:00,2,1016.9,0.1,93,1,15000,3.704,,,140,,,,0,,,,,,,wg-a,,,,AAXX 04034 07650 12/65 21402 10020 20010 30122 40169 50001 60007 80002 90300=
07650,1996-01-04 06:00:00,1,1016.2,-0.7,100,1,15000,0,,,0,1.1,6.5,,,,,,,,,wg-a,,,,AAXX 04064 07650 12/65 30000 10010 20010 30115 40162 55007 60006 80002 90600 333 10065 20011=
07650,1996-01-04 09:00:00,8,1016.4,0.4,66,2,25000,3.704,,,70,,,,,,,,,,,wg-a,,,,AAXX 04094 07650 12/75 30702 10080 20020 30119 40164 52004 60006 80002 90900=
07650,1996-01-04 12:00:00,12,1015.3,-1.1,67,6,15000,3.704,,,290,,,,,,,,,,,wg-a,,,,AAXX 04124 07650 12/65 52902 10120 20060 30108 40153 58011 60006 80002 91200=
07650,1996-01-04 15:00:00,14,1014.4,-0.8,55,5,20000,18.52,,,100,,,,,,,,,,,wg-a,,,,AAXX 04154 07650 12570 /1010 10140 20050 30100 40144 56008 60006 81432 91500=
07650,1996-01-04 18:00:00,10,1013.7,-0.8,66,4,20000,7.408,,,90,1.3,14.2,,,,,,,,,wg-a,,,,AAXX 04184 07650 12570 /0904 10100 20040 30092 40137 57008 60006 81532 91800 333 10142 20013=
07650,1996-01-04 21:00:00,11,1012.6,-1.1,76,7,20000,14.816,,,100,,,,,,,,,,,wg-a,,,,AAXX 04214 07650 12570 81008 10110 20070 30081 40126 56011 60006 81537 92100=
07650,1996-01-05 00:00:00,9,1011,-1.6,81,6,20000,14.816,,,100,,,,,,,,,,,wg-a,,,,AAXX 05004 07650 12570 51008 10090 20060 30065 40110 56016 60006 81532 90000=
07650,1996-01-05 03:00:00,9,1009.3,-1.7,76,5,20000,11.112,,,80,,,,,,,,,,,wg-a,,,,AAXX 05034 07650 12570 50806 10090 20050 30048 40093 56017 60006 81532 90300=
07650,1996-01-05 06:00:00,10,1006.8,-2.5,76,6,20000,14.816,,,100,8.3,11,,,,,,,,,wg-a,,,,AAXX 05064 07650 12570 71008 10100 20060 30023 40068 56025 60006 85532 90600 333 10110 20083=
07650,1996-01-05 09:00:00,11,1006,-0.8,76,7,15000,29.632,,,90,,,,,,,,,,,wg-a,,,,AAXX 05094 07650 12565 80916 10110 20070 30015 40060 56008 60006 845// 90900=
07650,1996-01-05 12:00:00,11,1002.7,-3.2,82,8,10000,25.928,,,90,,,,,,,,,,,wg-a,,,,AAXX 05124 07650 12560 70914 10110 20080 39983 40027 58032 60006 845// 91200=
07650,1996-01-05 15:00:00,11,999.3,-3.4,87,9,10000,22.224,,,100,,,,2,,,,,,60,wg-a,,,,AAXX 05154 07650 12560 81012 10110 20090 39949 49993 56034 60027 76062 8457/ 91500=
07650,1996-01-05 18:00:00,11,998.6,-0.7,87,9,11000,29.632,,,120,9.9,11.6,,,,,,,,,wg-a,,,,AAXX 05184 07650 32/61 /1216 10110 20090 39942 49986 56007 91800 333 10116 20099=
07650,1996-01-05 21:00:00,10,998.5,-0.1,93,9,12000,3.704,,,120,,,,2,,,,,,61,wg-a,,,,AAXX 05214 07650 12462 81202 10100 20090 39941 49985 55001 60027 76166 8687/ 92100=
07650,1996-01-06 00:00:00,10,999.3,0.8,93,9,4000,3.704,,,260,,,,2,,,,,,10,wg-a,,,,AAXX 06004 07650 02240 82602 10100 20090 39949 49993 51008 60036 71062 887// 90000 333 60027=
07650,1996-01-06 03:00:00,10,999.5,0.2,93,9,8000,3.704,,,150,,,,1,,,,,,20,wg-a,,,,AAXX 06034 07650 12358 81502 10100 20090 39951 49995 53002 60017 72065 885// 90300=
07650,1996-01-06 06:00:00,10,1000.2,0.7,93,9,10000,3.704,,,140,9.5,11.3,,,,,9,,,3,wg-a,,,,AAXX 06064 07650 02260 81402 10100 20090 39958 40002 53007 60094 70365 875// 90600 333 10113 20095 61000=
07650,1996-01-06 09:00:00,11,1002.4,2.2,87,9,15000,7.408,,,140,,,,,,,,,,,wg-a,,,,AAXX 06094 07650 12465 71404 10110 20090 39980 40024 51022 60006 84532 90900=
07650,1996-01-06 12:00:00,12,1002.4,-0,88,10,15000,7.408,,,150,,,,,,,,,,,wg-a,,,,AAXX 06124 07650 12465 81504 10120 20100 39980 40024 54000 60006 8687/ 91200=
07650,1996-01-06 15:00:00,12,1002.4,-0,82,9,15000,18.52,,,140,,,,,,,,,,,wg-a,,,,AAXX 06154 07650 12465 61410 10120 20090 39980 40024 55000 60006 84532 91500=
07650,1996-01-06 18:00:00,11,1001.6,-0.8,82,8,15000,25.928,,,120,9.7,12.8,,,,,,,,,wg-a,,,,AAXX 06184 07650 12465 /1214 10110 20080 39972 40016 56008 60006 83532 91800 333 10128 20097=
07650,1996-01-06 21:00:00,12,1002.2,0.6,71,7,15000,35.188,,,120,,,,,,,,,,,wg-a,,,,AAXX 06214 07650 12565 81219 10120 20070 39978 40022 53006 60006 8557/ 92100=
07650,1996-01-07 00:00:00,11,1001.4,-0.8,82,8,12000,31.484,,50.004,120,,,,5,,,,,,60,wg-a,,,,AAXX 07004 07650 02562 81217 10110 20080 39970 40014 58008 60056 76062 8687/ 90000 333 60057 91027=
07650,1996-01-07 03:00:00,11,999,-2.4,82,8,12000,25.928,,50.004,100,,,,,,,,,,1,wg-a,,,,AAXX 07034 07650 02462 81014 10110 20080 39946 49990 58024 61000 70162 8587/ 90300 333 //// 91027=
07650,1996-01-07 06:00:00,12,998.6,-0.4,76,8,15000,18.52,,,100,10.3,11.7,,,,,5,,,1,wg-a,,,,AAXX 07064 07650 02465 71010 10120 20080 39942 49986 55004 60054 70166 8587/ 90600 333 10117 20103 61000=
07650,1996-01-07 09:00:00,11,1000.9,2.3,82,8,20000,11.112,,,80,,,,,,,,,,,wg-a,,,,AAXX 07094 07650 12570 80806 10110 20080 39965 40009 53023 60006 876// 90900=
07650,1996-01-07 10:00:00,9,1,3.8,93,8,15000,7.408,,,300,9,12.3,,,,,,,,,wg-a,,,,AAXX 07104 07650 32565 /3004 10090 20080 51038 81532 91000 333 10123 20090=
07650,1996-01-07 12:00:00,12,1002.4,1.5,82,9,20000,11.112,,,50,,,,,,,,,,,wg-a,,,,AAXX 07124 07650 12570 80506 10120 20090 39980 40024 51015 60006 8557/ 91200=
07650,1996-01-07 15:00:00,12,1003.1,0.7,82,9,25000,11.112,,,100,,,,,,,,,,1,wg-a,,,,AAXX 07154 07650 02675 71006 10120 20090 39987 40031 53007 61000 70162 81512 91500 333 ////=
07650,1996-01-07 18:00:00,9,1007,3.8,93,8,15000,7.408,,,300,9,12.3,,,,,,,,,wg-a,,,,AAXX 07184 07650 32565 /3004 10090 20080 30025 40070 51038 81532 91800 333 10123 20090=
07650,1996-01-07 21:00:00,8,1008.9,1.9,93,7,10000,3.704,,,160,,,,,,,,,,,wg-a,,,,AAXX 07214 07650 12460 51602 10080 20070 30044 40089 51019 60006 85500 92100=
07650,1996-01-08 00:00:00,7,1010.6,1.7,100,7,15000,11.112,,,310,,,,,,,,,,,wg-a,,,,AAXX 08004 07650 12/65 43106 10070 20070 30061 40106 51017 60006 84030 90000=
07650,1996-01-08 03:00:00,6,1011.9,1.2,93,5,20000,7.408,,,40,,,,,,,,,,,wg-a,,,,AAXX 08034 07650 12/70 00404 10060 20050 30073 40119 51012 60006 80000 90300=
07650,1996-01-08 06:00:00,5,1012.3,0.4,93,4,20000,11.112,,,300,4.6,8.9,,,,,,,,,wg-a,,,,AAXX 08064 07650 02/70 03006 10050 20040 30077 40123 51004 60006 80000 90600 333 10089 20046 61000=
07650,1996-01-08 09:00:00,9,1014.1,1.9,81,6,75000,7.408,,,300,,,,,,,,,,,wg-a,,,,AAXX 08094 07650 12/89 13004 10090 20060 30096 40141 51019 60006 80002 90900=
07650,1996-01-08 12:00:00,13,1013.1,-0.9,62,6,75000,3.704,,,20,,,,,,,,,,,wg-a,,,,AAXX 08124 07650 12/89 00202 10130 20060 30087 40131 58009 60006 80000 91200=
07650,1996-01-08 15:00:00,15,1011.5,-1.6,59,7,75000,11.112,,,90,,,,,,,,,,,wg-a,,,,AAXX 08154 07650 12/89 40906 10150 20070 30071 40115 56016 60006 80001 91500=
07650,1996-01-08 18:00:00,11,1012.6,1,76,7,25000,14.816,,,120,4.8,15.4,,,,,,,,,wg-a,,,,AAXX 08184 07650 12/75 41208 10110 20070 30081 40126 51010 60006 80001 91800 333 10154 20048=
07650,1996-01-08 21:00:00,12,1012.8,0.2,54,3,20000,18.52,,,120,,,,,,,,,,,wg-a,,,,AAXX 08214 07650 12/70 41210 10120 20030 30083 40128 51002 60006 80001 92100=
07650,1996-01-09 00:00:00,12,1012.9,0.1,71,7,20000,22.224,,,120,,,,,,,,,,,wg-a,,,,AAXX 09004 07650 12/70 /1212 10120 20070 30084 40129 53001 60006 90000=
07650,1996-01-09 03:00:00,13,1012.4,-0.4,77,9,20000,25.928,,,120,,,,,,,,,,,wg-a,,,,AAXX 09034 07650 12570 61214 10130 20090 30080 40124 55004 60006 82532 90300=
07650,1996-01-09 06:00:00,13,1011.5,-0.9,77,9,20000,31.484,,53.708,120,10,13.4,,,,,,,,,wg-a,,,,AAXX 09064 07650 12570 71217 10130 20090 30071 40115 56009 60006 82532 90600 333 10134 20100 91029=
07650,1996-01-09 09:00:00,14,1012.4,0.9,67,8,20000,38.892,,61.116,120,,,,,,,,,,,wg-a,,,,AAXX 09094 07650 12570 81221 10140 20080 30080 40124 51009 60006 82832 90900 333 91033=
07650,1996-01-09 12:00:00,16,1009.7,-2.7,55,7,40000,31.484,,50.004,100,,,,,,,,,,,wg-a,,,,AAXX 09124 07650 12582 61017 10160 20070 30053 40097 58027 60006 83832 91200 333 91027=
07650,1996-01-09 15:00:00,15,1008.6,-1.1,55,6,20000,35.188,,53.708,90,,,,,,,,,,,wg-a,,,,AAXX 09154 07650 12670 /0919 10150 20060 30042 40086 55011 60006 82532 91500 333 91029=
07650,1996-01-09 18:00:00,14,1008.7,0.1,58,6,20000,35.188,,,100,13.3,17.1,,,,,,,,,wg-a,,,,AAXX 09184 07650 12670 /1019 10140 20060 30043 40087 53001 60006 82532 91800 333 10171 20133=
07650,1996-01-09 21:00:00,14,1006.1,-2.6,55,5,20000,42.596,,57.412,90,,,,,,,,,,,wg-a,,,,AAXX 09214 07650 12670 50923 10140 20050 30017 40061 58026 60006 82532 92100 333 91031=
07650,1996-01-10 00:00:00,15,1005.6,-0.5,55,6,20000,22.224,,,120,,,,,,,,,,,wg-a,,,,AAXX 10004 07650 12670 71212 10150 20060 30012 40056 56005 60006 83532 90000=
07650,1996-01-10 03:00:00,15,1003.7,-1.9,59,7,20000,42.596,,57.412,100,,,,,,,,,,,wg-a,,,,AAXX 10034 07650 12670 /1023 10150 20070 39993 40037 56019 60006 82532 90300 333 91031=
07650,1996-01-10 06:00:00,13,1003.2,-0.5,77,9,20000,42.596,,72.228,100,12.7,15.2,,0,,,,,,60,wg-a,,,,AAXX 10064 07650 02670 71023 10130 20090 39988 40032 55005 60004 76062 8557/ 90600 333 10152 20127 60007 91039=
07650,1996-01-10 09:00:00,15,1004.6,1.4,77,11,40000,31.484,,,110,,,,,,,,,,80,wg-a,,,,AAXX 10094 07650 02582 71117 10150 20110 30002 40046 51014 61000 78086 86231 90900 333 ////=
07650,1996-01-10 12:00:00,14,1004.4,-0.2,88,12,10000,31.484,,,120,,,,1,,,,,,80,wg-a,,,,AAXX 10124 07650 02460 81217 10140 20120 30000 40044 58002 60016 78086 888// 91200 333 60017=
07650,1996-01-10 15:00:00,14,1006.6,2.2,82,11,25000,29.632,,50.004,140,,,,1,,,,,,3,wg-a,,,,AAXX 10154 07650 12475 71416 10140 20110 30022 40066 53022 60017 70382 86201 91500 333 91027=
07650,1996-01-10 18:00:00,13,1009.4,2.8,82,10,20000,14.816,,,150,12.5,15.1,,0,,,,,,25,wg-a,,,,AAXX 10184 07650 12570 71508 10130 20100 30050 40094 53028 60007 72582 86801 91800 333 10151 20125=
07650,1996-01-10 21:00:00,12,1011.3,1.9,82,9,12000,11.112,,,140,,,,0,,,,,,,wg-a,,,,AAXX 10214 07650 12462 81406 10120 20090 30069 40113 51019 60007 8687/ 92100=
07650,1996-01-11 00:00:00,12,1011.2,-0.2,88,10,15000,3.704,,,200,,,,,,,,,,3,wg-a,,,,AAXX 11004 07650 12665 72002 10120 20100 30067 40112 58002 60006 70388 85532 90000=
07650,1996-01-11 03:00:00,11,1010.8,-0.4,94,10,20000,11.112,,,110,,,,,,,,,,60,wg-a,,,,AAXX 11034 07650 02670 71106 10110 20100 30063 40108 58004 61000 76062 8557/ 90300 333 ////=
07650,1996-01-11 06:00:00,11,1010.5,-0.3,94,10,15000,3.704,,,30,10.8,12.6,,0,,,3,,,61,wg-a,,,,AAXX 11064 07650 02365 70302 10110 20100 30060 40105 58003 60034 76162 875// 90600 333 10126 20108 60007=
07650,1996-01-11 09:00:00,11,1011,0.5,94,10,15000,0,,,0,,,,,,,,,,,wg-a,,,,AAXX 11094 07650 02565 80000 10110 20100 30065 40110 53005 61000 875// 90900 333 ////=
07650,1996-01-11 12:00:00,13,1008.7,-2.2,94,12,12000,7.408,,,110,,,,0,,,,,,60,wg-a,,,,AAXX 11124 07650 02562 81104 10130 20120 30043 40087 58022 60006 76062 885// 91200 333 60007=
07650,1996-01-11 15:00:00,14,1008.3,-0.4,82,11,15000,18.52,,,150,,,,0,,,,,,,wg-a,,,,AAXX 11154 07650 12465 81510 10140 20110 30039 40083 55004 60007 8357/ 91500=
07650,1996-01-11 18:00:00,13,1008.4,0.1,77,9,13000,14.816,,,140,10.5,13.8,,,,,,,,,wg-a,,,,AAXX 11184 07650 32463 81408 10130 20090 30040 40084 53001 8457/ 91800 333 10138 20105=
07650,1996-01-11 21:00:00,12,1007.8,-0.6,82,9,15000,22.224,,,110,,,,,,,,,,,wg-a,,,,AAXX 11214 07650 12665 81112 10120 20090 30034 40078 58006 60006 83532 92100=
07650,1996-01-12 00:00:00,12,1006.6,-1.2,82,9,15000,22.224,,,130,,,,,,,,,,,wg-a,,,,AAXX 12004 07650 12665 51312 10120 20090 30022 40066 58012 60006 82532 90000=
07650,1996-01-12 03:00:00,12,1005.1,-1.5,82,9,12000,22.224,,,120,,,,,,,,,,,wg-a,,,,AAXX 12034 07650 12662 61212 10120 20090 30007 40051 58015 60006 82532 90300=
07650,1996-01-12 06:00:00,12,1004.2,-0.9,82,9,15000,18.52,,,120,11.8,12.6,,,,,,,,60,wg-a,,,,AAXX 12064 07650 02565 71210 10120 20090 39998 40042 55009 60004 76062 8257/ 90600 333 10126 20118 61000=
07650,1996-01-12 09:00:00,12,1004.6,0.4,71,7,9000,11.112,,,120,,,,1,,,,,,60,wg-a,,,,AAXX 12094 07650 12559 71206 10120 20070 30002 40046 53004 60017 76062 8287/ 90900=
07650,1996-01-12 12:00:00,14,1003.3,-1.3,72,9,18000,14.816,,,130,,,,0,,,,,,1,wg-a,,,,AAXX 12124 07650 02568 71308 10140 20090 39989 40033 58013 60016 70162 8257/ 91200 333 60007=
07650,1996-01-12 15:00:00,14,1004.4,1.1,82,11,10000,22.224,,,110,,,,,,,,,,,wg-a,,,,AAXX 12154 07650 12560 81112 10140 20110 30000 40044 53011 60006 8587/ 91500=
07650,1996-01-13 00:00:00,14,1008.5,0.9,82,11,20000,25.928,,,90,,,,,,,,,,,wg-a,,,,AAXX 13004 07650 12670 70914 10140 20110 30041 40085 53009 60006 8257/ 90000=
07650,1996-01-13 03:00:00,14,1010,1.5,77,10,20000,25.928,,,90,,,,,,,,,,,wg-a,,,,AAXX 13034 07650 12670 70914 10140 20100 30056 40100 53015 60006 81532 90300=
07650,1996-01-13 06:00:00,14,1011.4,1.4,77,10,20000,29.632,,,80,10.4,14.5,,,,,19,,,,wg-a,,,,AAXX 13064 07650 02670 /0816 10140 20100 30070 40114 51014 60006 81532 90600 333 10145 20104 60194=
07650,1996-01-13 09:00:00,15,1014,2.6,67,9,20000,14.816,,,110,,,,,,,,,,,wg-a,,,,AAXX 13094 07650 12570 71108 10150 20090 30096 40140 52026 60006 83532 90900=
07650,1996-01-13 12:00:00,17,1014.6,0.6,55,8,500,22.224,,,90,,,,,,,,,,,wg-a,,,,AAXX 13124 07650 12500 60912 10170 20080 30102 40146 50006 60006 84832 91200=
07650,1996-01-13 15:00:00,15,1015.3,0.7,72,10,500,11.112,,,320,,,,,,,,,,,wg-a,,,,AAXX 13154 07650 12500 73206 10150 20100 30109 40153 53007 60006 878// 91500=
07650,1996-01-13 18:00:00,12,1016.7,1.3,88,10,25000,3.704,,,20,12.1,17.8,,,,,,,,,wg-a,,,,AAXX 13184 07650 12675 /0202 10120 20100 30122 40167 53013 60006 85530 91800 333 10178 20121=
07650,1996-01-13 21:00:00,13,1017.7,1,82,10,20000,3.704,,,110,,,,,,,,,,,wg-a,,,,AAXX 13214 07650 12670 /1102 10130 20100 30132 40177 51010 60006 85530 92100=
07650,1996-01-14 00:00:00,13,1017.9,0.2,77,9,20000,3.704,,,200,,,,,,,,,,2,wg-a,,,,AAXX 14004 07650 02670 72002 10130 20090 30134 40179 51002 61000 70262 8557/ 90000 333 6100=
07650,1996-01-14 03:00:00,13,1017.6,-0.3,77,9,20000,11.112,,,100,,,,,,,,,,,wg-a,,,,AAXX 14034 07650 12670 71006 10130 20090 30131 40176 58003 60006 8457/ 90300=
07650,1996-01-14 06:00:00,11,1017.9,0.3,82,8,20000,7.408,,,120,11.3,13.2,,,,,,,,,wg-a,,,,AAXX 14064 07650 02670 71204 10110 20080 30134 40179 53003 61000 8457/ 90600 333 10132 20113 ////=
07650,1996-01-14 09:00:00,13,1019.2,1.3,77,9,15000,11.112,,,120,,,,0,,,,,,1,wg-a,,,,AAXX 14094 07650 12665 61206 10130 20090 30147 40192 51013 60007 70162 83530 90900=
07650,1996-01-14 12:00:00,16,1018.6,-0.5,68,10,20000,25.928,,,130,,,,,,,,,,1,wg-a,,,,AAXX 14124 07650 12670 /1314 10160 20100 30142 40186 58005 60006 70162 81532 91200=
07650,1996-01-14 15:00:00,15,1019,0.4,67,9,20000,25.928,,,120,,,,,,,,,,,wg-a,,,,AAXX 14154 07650 12670 71214 10150 20090 30146 40190 53004 60006 83532 91500=
07650,1996-01-14 18:00:00,13,1020.3,1.2,77,9,20000,22.224,,,100,11.2,16.3,,,,,,,,,wg-a,,,,AAXX 14184 07650 32670 31012 10130 20090 30158 40203 51012 81532 91800 333 10163 20112=
07650,1996-01-14 21:00:00,12,1021.8,1.5,76,8,20000,7.408,,,110,,,,,,,,,,,wg-a,,,,AAXX 14214 07650 12/70 11104 10120 20080 30173 40218 51015 60006 80002 92100=
07650,1996-01-15 00:00:00,12,1022.1,0.3,76,8,15000,7.408,,,100,,,,,,,,,,,wg-a,,,,AAXX 15004 07650 12/65 11004 10120 20080 30176 40221 51003 60006 80002 90000=
07650,1996-01-15 03:00:00,11,1022.6,0.5,82,8,15000,7.408,,,100,,,,,,,,,,,wg-a,,,,AAXX 15034 07650 12/65 11004 10110 20080 30181 40226 51005 60006 80002 90300=
07650,1996-01-15 06:00:00,11,1023,0.4,76,7,15000,7.408,,,100,10.3,13,,,,,,,,,wg-a,,,,AAXX 15064 07650 02/65 11004 10110 20070 30185 40230 53004 60006 80002 90600 333 10130 20103 60004=
07650,1996-01-15 09:00:00,13,1024.3,1.3,72,8,10000,7.408,,31.484,100,,,,,,,,,,,wg-a,,,,AAXX 15094 07650 12/60 11004 10130 20080 30198 40243 52013 60006 80002 90900 333 91017=
07650,1996-01-15 12:00:00,17,1024.4,0.2,52,7,15000,7.408,,,280,,,,,,,,,,,wg-a,,,,AAXX 15124 07650 12/65 12804 10170 20070 30200 40244 50002 60006 80002 91200=
07650,1996-01-15 15:00:00,16,1023.9,-0.5,68,10,20000,11.112,,,190,,,,,,,,,,,wg-a,,,,AAXX 15154 07650 12570 /1906 10160 20100 30195 40239 56005 60006 81100 91500=
07650,1996-01-15 18:00:00,11,1025.1,1.1,94,10,20000,3.704,,,140,9.7,17.1,,,,,,,,,wg-a,,,,AAXX 15184 07650 12/70 01402 10110 20100 30206 40251 53011 60006 80000 91800 333 10171 20097=
07650,1996-01-15 21:00:00,9,1026.2,1,93,8,12000,7.408,,,120,,,,,,,,,,,wg-a,,,,AAXX 15214 07650 12/62 01204 10090 20080 30216 40262 52010 60006 80000 92100=
07650,1996-01-16 00:00:00,9,1026.5,0.3,93,8,12000,7.408,,,50,,,,,,,,,,,wg-a,,,,AAXX 16004 07650 12562 10504 10090 20080 30219 40265 53003 60006 81500 90000=
07650,1996-01-16 03:00:00,10,1027.3,0.8,93,9,8000,7.408,,,20,,,,0,,,,,,,wg-a,,,,AAXX 16034 07650 12558 /0204 10100 20090 30227 40273 53008 60007 86500 90300=
07650,1996-01-16 06:00:00,10,1027.4,0.1,93,9,8000,3.704,,,230,8.2,11.4,,,,,,,,,wg-a,,,,AAXX 16064 07650 12558 72302 10100 20090 30228 40274 53001 60006 875// 90600 333 10114 20082=
07650,1996-01-16 09:00:00,11,1028,0.7,94,10,7000,3.704,,,40,,,,,,,,,,,wg-a,,,,AAXX 16094 07650 12757 70402 10110 20100 30235 40280 53007 60006 875// 90900=
07650,1996-01-16 12:00:00,13,1027.5,-0.5,82,10,8000,3.704,,,280,,,,,,,,,,,wg-a,,,,AAXX 16124 07650 12558 /2802 10130 20100 30230 40275 58005 60006 86500 91200=
07650,1996-01-16 15:00:00,13,1026.8,-0.7,72,8,12000,11.112,,,160,,,,,,,,,,,wg-a,,,,AAXX 16154 07650 12562 71606 10130 20080 30223 40268 56007 60006 875// 91500=
07650,1996-01-16 18:00:00,12,1027.3,0.5,82,9,12000,3.704,,,140,9.7,13.6,,,,,,,,,wg-a,,,,AAXX 16184 07650 12562 71402 10120 20090 30228 40273 53005 60006 8551/ 91800 333 10136 20097=
07650,1996-01-16 21:00:00,11,1028.3,1,82,8,8000,3.704,,,50,,,,,,,,,,,wg-a,,,,AAXX 16214 07650 12/58 /0502 10110 20080 30238 40283 51010 60006 92100=
07650,1996-01-17 00:00:00,10,1027.7,-0.7,87,8,6000,14.816,,,100,,,,,,,,,,,wg-a,,,,AAXX 17004 07650 12556 51008 10100 20080 30231 40277 58007 60006 84502 90000=
07650,1996-01-17 03:00:00,8,1027.5,-0.2,87,6,8000,7.408,,,120,,,,,,,,,,,wg-a,,,,AAXX 17034 07650 12558 /1204 10080 20060 30229 40275 58002 60006 81501 90300=
07650,1996-01-17 06:00:00,5,1027.5,-0,93,4,8000,7.408,,,80,4.8,11.5,,,,,,,,,wg-a,,,,AAXX 17064 07650 12558 /0804 10050 20040 30229 40275 54000 60006 81501 90600 333 10115 20048=
07650,1996-01-17 09:00:00,8,1028.1,0.6,81,5,10000,3.704,,,80,,,,,,,,,,,wg-a,,,,AAXX 17094 07650 12/60 10802 10080 20050 30235 40281 52006 60006 80002 90900=
07650,1996-01-17 12:00:00,11,1026.7,-1.3,71,6,10000,7.408,,,240,,,,,,,,,,,wg-a,,,,AAXX 17124 07650 12/60 12404 10110 20060 30222 40267 58013 60006 80002 91200=
07650,1996-01-17 15:00:00,13,1025.5,-1.2,58,5,15000,7.408,,,310,,,,,,,,,,,wg-a,,,,AAXX 17154 07650 12/65 23104 10130 20050 30210 40255 56012 60006 80002 91500=
07650,1996-01-17 18:00:00,9,1026.1,0.5,66,3,15000,14.816,,,140,5,14.2,,,,,,,,,wg-a,,,,AAXX 17184 07650 12/65 21408 10090 20030 30215 40261 51005 60006 80002 91800 333 10142 20050=
07650,1996-01-17 21:00:00,6,1026.1,-0,56,-2,25000,14.816,,,140,,,,,,,,,,,wg-a,,,,AAXX 17214 07650 12/75 01408 10060 21020 30215 40261 54000 60006 80000 92100=
07650,1996-01-18 00:00:00,4,1026.1,-0.1,75,0,25000,0,,,0,,,,,,,,,,,wg-a,,,,AAXX 18004 07650 12/75 00000 10040 20000 30214 40261 58001 60006 80000 90000=
07650,1996-01-18 03:00:00,4,1025.1,-0.9,75,0,25000,7.408,,,140,,,,,,,,,,,wg-a,,,,AAXX 18034 07650 12/75 01404 10040 20000 30205 40251 56009 60006 80000 90300=
07650,1996-01-18 06:00:00,2,1024.7,-0.5,80,-1,25000,3.704,,,130,1.8,8.7,,,,,,,,,wg-a,,,,AAXX 18064 07650 12/75 01302 10020 21010 30200 40247 56005 60006 80000 90600 333 10087 20018=
07650,1996-01-18 09:00:00,7,1024.1,-0.5,61,0,20000,3.704,,,90,,,,,,,,,,,wg-a,,,,AAXX 18094 07650 12670 20902 10070 20000 30195 40241 56005 60006 81502 90900=
07650,1996-01-18 12:00:00,13,1023,-1,47,2,25000,7.408,,,40,,,,,,,,,,,wg-a,,,,AAXX 18124 07650 12/75 20404 10130 20020 30185 40230 58010 60006 80001 91200=
07650,1996-01-18 15:00:00,13,1021.5,-1.5,51,3,500,14.816,,,280,,,,,,,,,,,wg-a,,,,AAXX 18154 07650 12/00 22808 10130 20030 30170 40215 56015 60006 80001 91500=
07650,1996-01-18 18:00:00,7,1021.6,-0,81,4,500,0,,,0,1.8,14.4,,,,,,,,,wg-a,,,,AAXX 18184 07650 12600 20000 10070 20040 30170 40216 55000 60006 81501 91800 333 10144 20018=
07650,1996-01-18 21:00:00,5,1021.4,-0.2,87,3,15000,7.408,,,120,,,,,,,,,,,wg-a,,,,AAXX 18214 07650 12565 31204 10050 20030 30168 40214 57002 60006 83502 92100=
07650,1996-01-19 00:00:00,3,1020.6,-0.8,87,1,10000,7.408,,,120,,,,,,,,,,,wg-a,,,,AAXX 19004 07650 12/60 01204 10030 20010 30160 40206 58008 60006 80000 90000=
07650,1996-01-19 03:00:00,3,1019.4,-1.2,87,1,10000,11.112,,,130,,,,,,,,,,,wg-a,,,,AAXX 19034 07650 12/60 01306 10030 20010 30148 40194 56012 60006 80000 90300=
07650,1996-01-19 06:00:00,2,1018.3,-1.1,93,1,12000,3.704,,,120,1.8,7.2,,0,,,,,,,wg-a,,,,AAXX 19064 07650 02562 31202 10020 20010 30137 40183 58011 60004 83500 90600 333 10072 20018 60007=
07650,1996-01-19 09:00:00,6,1018,-0.3,81,3,9000,3.704,,,210,,,,,,,,,,,wg-a,,,,AAXX 19094 07650 12/59 /2102 10060 20030 30134 40180 58003 60006 80000 90900=
07650,1996-01-19 12:00:00,11,1016.5,-1.4,66,5,10000,0,,,0,,,,,,,,,,,wg-a,,,,AAXX 19124 07650 12560 /0000 10110 20050 30120 40165 58014 60006 81101 91200=
07650,1996-01-19 18:00:00,6,1014.3,-0.4,81,3,15000,0,,,0,1.9,13.2,,,,,,,,,wg-a,,,,AAXX 19184 07650 12565 /0000 10060 20030 30097 40143 57004 60006 81501 91800 333 10132 20019=
07650,1996-01-19 21:00:00,4,1014.2,-0.1,93,3,10000,0,,,0,,,,,,,,,,,wg-a,,,,AAXX 19214 07650 12/60 00000 10040 20030 30096 40142 56001 60006 80000 92100=
07650,1996-01-20 00:00:00,6,1013.5,-0.7,81,3,10000,0,,,0,,,,,,,,,,,wg-a,,,,AAXX 20004 07650 12660 /0000 10060 20030 30089 40135 57007 60006 81500 90000=
07650,1996-01-20 03:00:00,7,1012.1,-1.3,76,3,12000,25.928,,,80,,,,,,,,,,,wg-a,,,,AAXX 20034 07650 12562 70814 10070 20030 30076 40121 56013 60006 875// 90300=
07650,1996-01-20 06:00:00,8,1010.8,-1.3,76,4,12000,22.224,,,90,3.9,8.2,,,,,,,,,wg-a,,,,AAXX 20064 07650 12562 /0912 10080 20040 30063 40108 56013 60006 86500 90600 333 10082 20039=
07650,1996-01-20 09:00:00,10,1011,0.2,71,5,15000,14.816,,,90,,,,,,,,,,,wg-a,,,,AAXX 20094 07650 12565 70908 10100 20050 30065 40110 51002 60006 875// 90900=
07650,1996-01-20 12:00:00,14,1010,-0.9,63,7,20000,35.188,,,120,,,,,,,,,,,wg-a,,,,AAXX 20124 07650 12570 /1219 10140 20070 30056 40100 58009 60006 86530 91200=
07650,1996-01-20 15:00:00,12,1009.6,-0.4,76,8,10000,18.52,,,110,,,,0,,,,,,60,wg-a,,,,AAXX 20154 07650 12560 71110 10120 20080 30052 40096 55004 60007 76062 875// 91500=
07650,1996-01-20 18:00:00,10,1010.3,0.6,87,8,10000,25.928,,,90,8.1,15.1,,2,,,,,,60,wg-a,,,,AAXX 20184 07650 12560 70914 10100 20080 30058 40103 53006 60027 76066 875// 91800 333 10151 20081=
07650,1996-01-20 21:00:00,10,1011.5,1.2,87,8,20000,25.928,,,80,,,,0,,,,,,2,wg-a,,,,AAXX 20214 07650 12570 70814 10100 20080 30070 40115 51012 60007 70262 8553/ 92100=
07650,1996-01-21 00:00:00,10,1012.1,0.6,82,7,20000,25.928,,,100,,,,0,,,,,,61,wg-a,,,,AAXX 21004 07650 02570 71014 10100 20070 30076 40121 53006 60016 76196 878// 90000 333 60007=
07650,1996-01-21 03:00:00,11,1012,-0.1,76,7,20000,18.52,,,80,,,,0,,,,,,61,wg-a,,,,AAXX 21034 07650 12570 70810 10110 20070 30075 40120 58001 60007 76162 8587/ 90300=
07650,1996-01-21 06:00:00,10,1012,-0,82,7,20000,25.928,,,90,9.7,10.8,,0,,,3,,,60,wg-a,,,,AAXX 21064 07650 02570 80914 10100 20070 30075 40120 55000 60034 76062 8587/ 90600 333 10108 20097 60007=
07650,1996-01-21 09:00:00,12,1013.7,1.7,71,7,20000,25.928,,,110,,,,,,,,,,1,wg-a,,,,AAXX 21094 07650 02570 /1114 10120 20070 30092 40137 53017 61000 70162 84831 90900 333 ////=
07650,1996-01-21 12:00:00,12,1013.7,0,82,9,10000,22.224,,,110,,,,1,,,,,,60,wg-a,,,,AAXX 21124 07650 02460 71112 10120 20090 30092 40137 50000 60016 76066 8587/ 91200 333 60017=
07650,1996-01-21 15:00:00,12,1013.4,-0.3,71,7,15000,25.928,,,100,,,,,,,,,,,wg-a,,,,AAXX 21154 07650 02465 71014 10120 20070 30089 40134 55003 61000 8587/ 91500 333 ////=
07650,1996-01-21 18:00:00,11,1013.8,0.4,76,7,25000,25.928,,,100,10.4,13.3,,,,,,,,1,wg-a,,,,AAXX 21184 07650 32675 /1014 10110 20070 30093 40138 53004 70162 85571 91800 333 10133 20104=
07650,1996-01-21 21:00:00,11,1013.7,-0.1,76,7,25000,22.224,,,100,,,,,,,,,,,wg-a,,,,AAXX 21214 07650 12675 /1012 10110 20070 30092 40137 58001 60006 82530 92100=
07650,1996-01-22 00:00:00,11,1013.7,-0.1,76,7,25000,22.224,,,100,,,,,,,,,,,wg-a,,,,AAXX 22004 07650 12675 /1012 10110 20070 30092 40137 58001 60006 82530 90000=
07650,1996-01-22 03:00:00,11,1012.6,-1,82,8,25000,22.224,,,90,,,,,,,,,,,wg-a,,,,AAXX 22034 07650 12675 70912 10110 20080 30081 40126 58010 60006 8557/ 90300=
07650,1996-01-22 06:00:00,11,1011.7,-0.9,76,7,25000,22.224,,,100,10.5,11.4,,,,,1,,,,wg-a,,,,AAXX 22064 07650 02675 71012 10110 20070 30072 40117 55009 60006 8557/ 90600 333 10114 20105 60014=
07650,1996-01-22 09:00:00,13,1011.9,0.3,67,7,20000,31.484,,53.708,120,,,,,,,,,,,wg-a,,,,AAXX 22094 07650 12570 71217 10130 20070 30075 40119 51003 60006 8557/ 90900 333 91029=
07650,1996-01-22 12:00:00,14,1010.9,-1,55,5,20000,38.892,,68.524,120,,,,,,,,,,,wg-a,,,,AAXX 22124 07650 12570 71221 10140 20050 30065 40109 58010 60006 8557/ 91200 333 91037=
07650,1996-01-22 15:00:00,14,1009.5,-1.4,58,6,20000,35.188,,,120,,,,,,,,,,,wg-a,,,,AAXX 22154 07650 12570 71219 10140 20060 30051 40095 55014 60006 8457/ 91500=
07650,1996-01-22 18:00:00,14,1009.5,-0,58,6,20000,35.188,,,110,11.3,14,,,,,,,,2,wg-a,,,,AAXX 22184 07650 02570 71119 10140 20060 30051 40095 55000 61000 70262 8457/ 91800 333 10140 20113 ////=
07650,1996-01-22 21:00:00,13,1009.2,-0.3,67,7,18000,29.632,,,90,,,,,,,,,,60,wg-a,,,,AAXX 22214 07650 02668 70916 10130 20070 30048 40092 55003 61000 76062 8357/ 92100 333 ////=
07650,1996-01-23 00:00:00,14,1008.9,-0.3,63,7,18000,35.188,,,110,,,,,,,,,,,wg-a,,,,AAXX 23004 07650 02668 71119 10140 20070 30045 40089 56003 61000 8357/ 90000 333 6100=
07650,1996-01-23 03:00:00,14,1006.9,-2,67,8,20000,42.596,,64.82,110,,,,,,,,,,,wg-a,,,,AAXX 23034 07650 12670 71123 10140 20080 30025 40069 58020 60006 8257/ 90300 333 91035=
07650,1996-01-23 06:00:00,14,1006.7,-0.2,72,9,18000,42.596,,61.116,120,12.6,15.1,,0,,,,,,60,wg-a,,,,AAXX 23064 07650 02668 71223 10140 20090 30023 40067 55002 60004 76062 8557/ 90600 333 10151 20126 60007 91033=
07650,1996-01-23 09:00:00,13,1006.6,-0.1,82,10,11000,42.596,,64.82,110,,,,2,,,,,,21,wg-a,,,,AAXX 23094 07650 12661 81123 10130 20100 30022 40066 55001 60027 72162 8557/ 90900 333 91035=
07650,1996-01-23 12:00:00,13,1005.6,-1,77,9,12000,22.224,,53.708,90,,,,2,,,,,,21,wg-a,,,,AAXX 23124 07650 02662 80912 10130 20090 30012 40056 58010 60046 72162 8457/ 91200 333 60027 91029=
07650,1996-01-23 15:00:00,13,1004.4,,82,10,6000,31.484,,,120,,,,,,,,,,60,wg-a,,,,AAXX 23154 07650 32556 81217 10130 20100 30000 40044 76062 8557/ 91500=
07650,1996-01-23 18:00:00,12,1005.1,0.7,94,11,7000,22.224,,,130,12.2,14.3,,8,,,,,,61,wg-a,,,,AAXX 23184 07650 12557 81312 10120 20110 30007 40051 53007 60087 76166 875// 91800 333 10143 20122=
07650,1996-01-23 21:00:00,12,1005.4,0.3,88,10,10000,22.224,,,120,,,,13,,,,,,21,wg-a,,,,AAXX 23214 07650 12560 81212 10120 20100 30010 40054 50003 60137 72162 8457/ 92100=
07650,1996-01-24 00:00:00,12,1004.8,-0.6,82,9,15000,25.928,,,90,,,,1,,,,,,21,wg-a,,,,AAXX 24004 07650 02665 80914 10120 20090 30004 40048 56006 60136 72162 8367/ 90000 333 60017=
07650,1996-01-24 03:00:00,10,1003.7,-1.1,87,8,15000,18.52,,,110,,,,1,,,,,,,wg-a,,,,AAXX 24034 07650 12665 81110 10100 20080 39993 40037 56011 60017 8357/ 90300=
07650,1996-01-24 06:00:00,10,1003.2,-0.5,87,8,10000,29.632,,,80,10.1,12.3,,,,,29,,,60,wg-a,,,,AAXX 24064 07650 02660 80816 10100 20080 39988 40032 58005 60294 76062 8357/ 90600 333 10123 20101 61000=
07650,1996-01-24 09:00:00,11,1003.9,0.7,87,9,20000,14.816,,,100,,,,,,,,,,1,wg-a,,,,AAXX 24094 07650 02570 /1008 10110 20090 39995 40039 53007 61000 70162 83572 90900 333 ////=
07650,1996-01-24 12:00:00,14,1002.4,-1.5,72,9,20000,25.928,,,110,,,,,,,,,,2,wg-a,,,,AAXX 24124 07650 02570 /1114 10140 20090 39980 40024 58015 61000 70262 83842 91200 333 ////=
07650,1996-01-24 15:00:00,12,1000.7,-1.7,76,8,35000,29.632,,,90,,,,,,,,,,,wg-a,,,,AAXX 24154 07650 12581 70916 10120 20080 39963 40007 56017 60006 878// 91500=
07650,1996-01-24 18:00:00,10,1001.4,0.7,87,8,10000,22.224,,,80,10.2,15.4,,3,,,,,,80,wg-a,,,,AAXX 24184 07650 12560 80812 10100 20080 39970 40014 53007 60037 78099 8597/ 91800 333 10154 20102=
07650,1996-01-24 21:00:00,10,1001.9,0.5,87,8,25000,18.52,,,120,,,,4,,,,,,1,wg-a,,,,AAXX 24214 07650 12575 /1210 10100 20080 39975 40019 53005 60047 70196 8487/ 92100=
07650,1996-01-25 00:00:00,10,1001.2,-0.7,87,8,25000,25.928,,,80,,,,,,,,,,3,wg-a,,,,AAXX 25004 07650 12675 60814 10100 20080 39968 40012 58007 60046 70396 84571 90000=
07650,1996-01-25 03:00:00,10,1000.7,-0.5,87,8,15000,25.928,,,90,,,,4,,,,,,81,wg-a,,,,AAXX 25034 07650 12565 70914 10100 20080 39963 40007 58005 60047 78196 8697/ 90300=
07650,1996-01-25 06:00:00,10,1000.4,-0.3,82,7,15000,31.484,,,80,9.5,10.6,,,,,11,,,13,wg-a,,,,AAXX 25064 07650 02565 /0817 10100 20070 39960 40004 56003 60114 71396 83970 90600 333 10106 20095 61000=
07650,1996-01-25 09:00:00,11,1001.8,1.4,87,9,9000,18.52,,,100,,,,1,,,,,,25,wg-a,,,,AAXX 25094 07650 12559 81010 10110 20090 39974 40018 53014 60017 72582 85970 90900=
07650,1996-01-25 12:00:00,10,1002.9,1,87,8,4000,7.408,,,90,,,,12,,,,,,81,wg-a,,,,AAXX 25124 07650 02540 80904 10100 20080 39984 40029 50010 60136 78198 8597/ 91200 333 60127=
07650,1996-01-25 15:00:00,10,1002.8,-0.1,87,8,4000,11.112,,,140,,,,12,,,,,,10,wg-a,,,,AAXX 25154 07650 12540 81406 10100 20080 39984 40028 57001 60127 71096 8597/ 91500=
07650,1996-01-25 18:00:00,10,1004.3,1.4,87,8,9000,11.112,,,80,9.2,13,,11,,,,,,60,wg-a,,,,AAXX 25184 07650 12359 80806 10100 20080 39998 40043 53014 60117 76096 8427/ 91800 333 10130 20092=
07650,1996-01-25 21:00:00,10,1005.7,1.4,82,7,15000,14.816,,,90,,,,,,,,,,,wg-a,,,,AAXX 25214 07650 02565 /0908 10100 20070 30012 40057 53014 61000 86830 92100 333 ////=
07650,1996-01-26 00:00:00,9,1006.5,0.8,87,7,18000,11.112,,,110,,,,,,,,,,1,wg-a,,,,AAXX 26004 07650 02568 41106 10090 20070 30020 40065 53008 61000 70161 84830 90000 333 6100=
07650,1996-01-26 03:00:00,6,1006.7,0.2,93,5,18000,7.408,,,100,,,,,,,,,,,wg-a,,,,AAXX 26034 07650 32668 21004 10060 20050 30022 40067 50002 82500 90300=
07650,1996-01-26 06:00:00,5,1007.3,0.6,93,4,18000,0,,,0,5.1,9.9,,,,,36,,,,wg-a,,,,AAXX 26064 07650 12668 20000 10050 20040 30028 40073 53006 60364 82500 90600 333 10099 20051=
07650,1996-01-26 09:00:00,8,1008.5,1.2,93,7,12000,0,,,0,,,,,,,,,,,wg-a,,,,AAXX 26094 07650 12662 20000 10080 20070 30040 40085 51012 60006 81502 90900=
07650,1996-01-26 12:00:00,11,1008.6,0.1,82,8,12000,7.408,,,300,,,,,,,,,,,wg-a,,,,AAXX 26124 07650 12562 23004 10110 20080 30041 40086 50001 60006 82202 91200=
07650,1996-01-26 15:00:00,13,1008.3,-0.2,67,7,20000,11.112,,,230,,,,,,,,,,,wg-a,,,,AAXX 26154 07650 12570 32306 10130 20070 30039 40083 55002 60006 82802 91500=
07650,1996-01-26 21:00:00,7,1010.7,1.2,93,6,20000,7.408,,,130,,,,,,,,,,,wg-a,,,,AAXX 26214 07650 12670 61304 10070 20060 30062 40107 52012 60006 84502 92100=
07650,1996-01-27 00:00:00,7,1011,0.3,93,6,12000,7.408,,,120,,,,0,,,,,,,wg-a,,,,AAXX 27004 07650 02662 /1204 10070 20060 30065 40110 50003 60006 85500 90000 333 60007=
07650,1996-01-27 03:00:00,5,1011.2,0.1,93,4,12000,3.704,,,60,,,,,,,,,,,wg-a,,,,AAXX 27034 07650 12/62 /0602 10050 20040 30066 40112 52001 60006 80000 90300=
07650,1996-01-27 06:00:00,7,1011.1,-0,87,5,15000,7.408,,,100,5.1,8.5,,,,,,,,,wg-a,,,,AAXX 27064 07650 12465 /1004 10070 20050 30066 40111 55000 60004 81502 90600 333 10085 20051=
07650,1996-01-27 09:00:00,9,1012.5,1.4,81,6,25000,18.52,,,90,,,,,,,,,,,wg-a,,,,AAXX 27094 07650 12/75 70910 10090 20060 30080 40125 51014 60006 8707/ 90900=
07650,1996-01-27 12:00:00,15,1012.2,-0.2,59,7,25000,22.224,,,130,,,,,,,,,,,wg-a,,,,AAXX 27124 07650 12575 /1312 10150 20070 30078 40122 58002 60006 83870 91200=
07650,1996-01-27 15:00:00,15,1011.6,-0.6,55,6,25000,18.52,,,140,,,,,,,,,,,wg-a,,,,AAXX 27154 07650 12675 /1410 10150 20060 30072 40116 56006 60006 84231 91500=
07650,1996-01-27 18:00:00,11,1012.7,1,71,6,25000,11.112,,,100,7.3,15.3,,,,,,,,,wg-a,,,,AAXX 27184 07650 12675 41006 10110 20060 30082 40127 50010 60006 84131 91800 333 10153 20073=
07650,1996-01-27 21:00:00,10,1013.7,1,76,6,20000,14.816,,,80,,,,,,,,,,,wg-a,,,,AAXX 27214 07650 12670 40808 10100 20060 30092 40137 51010 60006 81531 92100=
07650,1996-01-28 00:00:00,10,1012.9,-0.8,76,6,20000,18.52,,,80,,,,,,,,,,,wg-a,,,,AAXX 28004 07650 12670 30810 10100 20060 30084 40129 58008 60006 81531 90000=
07650,1996-01-28 03:00:00,11,1012.2,-0.7,82,8,20000,25.928,,,90,,,,,,,,,,80,wg-a,,,,AAXX 28034 07650 02570 70914 10110 20080 30077 40122 58007 61000 78086 84832 90300 333 ////=
07650,1996-01-28 06:00:00,10,1011.5,-0.7,87,8,15000,18.52,,,90,9.6,11.1,,1,,,1,,,61,wg-a,,,,AAXX 28064 07650 02565 70910 10100 20080 30070 40115 55007 60014 76186 8487/ 90600 333 10111 20096 60017=
07650,1996-01-28 09:00:00,11,1011.2,-0.3,82,8,15000,14.816,,,110,,,,0,,,,,,21,wg-a,,,,AAXX 28094 07650 12465 71108 10110 20080 30067 40112 55003 60007 72162 8387/ 90900=
07650,1996-01-28 12:00:00,12,1009.4,-1.7,71,7,15000,35.188,,50.004,80,,,,0,,,,,,60,wg-a,,,,AAXX 28124 07650 02465 70819 10120 20070 30050 40094 58017 60016 76062 8387/ 91200 333 60007 91027=
07650,1996-01-28 15:00:00,12,1007.5,-1.9,71,7,15000,29.632,,,90,,,,0,,,,,,60,wg-a,,,,AAXX 28154 07650 12465 70916 10120 20070 30031 40075 56019 60007 76066 8387/ 91500=
07650,1996-01-28 18:00:00,11,1007.6,-0,82,8,15000,38.892,,,90,10.1,12.5,,1,,,,,,60,wg-a,,,,AAXX 28184 07650 12465 70921 10110 20080 30031 40076 55000 60017 76066 8387/ 91800 333 10125 20101=
07650,1996-01-29 00:00:00,10,1008,-0.2,87,8,15000,35.188,,57.412,90,,,,3,,,,,,60,wg-a,,,,AAXX 29004 07650 02565 80919 10100 20080 30035 40080 56002 60076 76066 8457/ 90000 333 60037 91031=
07650,1996-01-29 03:00:00,11,1007.4,-0.6,71,6,15000,31.484,,57.412,90,,,,1,,,,,,21,wg-a,,,,AAXX 29034 07650 12565 50917 10110 20060 30029 40074 56006 60017 72162 83530 90300 333 91031=
07650,1996-01-29 06:00:00,12,1007.3,-0,62,5,18000,31.484,,64.82,90,9.8,11.7,,,,,10,,,2,wg-a,,,,AAXX 29064 07650 12668 /0917 10120 20050 30029 40073 55000 60104 70261 83530 90600 333 10117 20098 91035=
07650,1996-01-29 09:00:00,13,1008.5,1.2,58,5,500,35.188,,64.82,100,,,,,,,,,,,wg-a,,,,AAXX 29094 07650 12600 71019 10130 20050 30041 40085 51012 60006 85530 90900 333 91035=
07650,1996-01-29 12:00:00,14,1008.5,0,58,6,500,29.632,,,90,,,,,,,,,,,wg-a,,,,AAXX 29124 07650 12600 70916 10140 20060 30041 40085 50000 60006 85532 91200=
07650,1996-01-29 15:00:00,14,1008.4,-0.1,58,6,500,29.632,,,100,,,,,,,,,,,wg-a,,,,AAXX 29154 07650 12600 71016 10140 20060 30040 40084 55001 60006 83532 91500=
07650,1996-01-29 18:00:00,14,1009.7,1.3,55,5,500,22.224,,,100,11.7,14.5,,,,,,,,,wg-a,,,,AAXX 29184 07650 12600 71012 10140 20050 30053 40097 51013 60006 85532 91800 333 10145 20117=
07650,1996-01-29 21:00:00,13,1010.7,1,58,5,20000,18.52,,,90,,,,,,,,,,,wg-a,,,,AAXX 29214 07650 12670 /0910 10130 20050 30063 40107 53010 60006 82532 92100=
07650,1996-01-30 00:00:00,12,1010.9,0.2,67,6,20000,25.928,,,90,,,,,,,,,,,wg-a,,,,AAXX 30004 07650 12670 60914 10120 20060 30065 40109 51002 60006 83532 90000=
07650,1996-01-30 03:00:00,12,1011.3,0.3,67,6,25000,14.816,,,40,,,,,,,,,,,wg-a,,,,AAXX 30034 07650 12675 70408 10120 20060 30068 40113 52003 60006 8357/ 90300=
07650,1996-01-30 06:00:00,10,1012,0.7,71,5,25000,14.816,,,20,9.7,13.9,,,,,,,,,wg-a,,,,AAXX 30064 07650 12675 50208 10100 20050 30075 40120 53007 60006 81531 90600 333 10139 20097=
07650,1996-01-30 09:00:00,11,1013.7,1.7,71,6,25000,7.408,,,270,,,,,,,,,,,wg-a,,,,AAXX 30094 07650 12675 32704 10110 20060 30092 40137 52017 60006 81532 90900=
07650,1996-01-30 12:00:00,14,1013.5,-0.1,67,8,20000,14.816,,,240,,,,,,,,,,,wg-a,,,,AAXX 30124 07650 12/70 12408 10140 20080 30091 40135 58001 60006 80002 91200=
07650,1996-01-30 15:00:00,15,1013,-0.5,48,4,15000,7.408,,,310,,,,,,,,,,,wg-a,,,,AAXX 30154 07650 12/65 13104 10150 20040 30086 40130 56005 60006 80002 91500=
07650,1996-01-30 18:00:00,10,1014,0.9,71,5,12000,7.408,,,270,8.6,15.7,,,,,,,,,wg-a,,,,AAXX 30184 07650 12/62 12704 10100 20050 30095 40140 53009 60006 80002 91800 333 10157 20086=
07650,1996-01-30 21:00:00,7,1015,0.9,81,4,8000,7.408,,,140,,,,,,,,,,,wg-a,,,,AAXX 30214 07650 12/58 01404 10070 20040 30104 40150 51009 60006 80000 92100=
07650,1996-01-31 00:00:00,6,1016.1,1.1,87,4,6000,3.704,,,20,,,,,,,,,,,wg-a,,,,AAXX 31004 07650 12656 /0202 10060 20040 30115 40161 51011 60006 85500 90000=
07650,1996-01-31 03:00:00,8,1015.4,-0.6,81,5,8000,3.704,,,310,,,,,,,,,,,wg-a,,,,AAXX 31034 07650 12658 /3102 10080 20050 30109 40154 57006 60006 86500 90300=
07650,1996-01-31 06:00:00,8,1015.6,0.2,81,5,11000,7.408,,,190,5.2,9.7,,,,,,,,,wg-a,,,,AAXX 31064 07650 12661 71904 10080 20050 30111 40156 51002 60006 875// 90600 333 10097 20052=
07650,1996-01-31 09:00:00,8,1016.8,1.2,87,6,500,11.112,,,180,,,,1,,,,,,61,wg-a,,,,AAXX 31094 07650 12500 81806 10080 20060 30123 40168 53012 60017 76162 875// 90900=
07650,1996-01-31 12:00:00,8,1017.1,0.3,81,5,11000,11.112,,,120,,,,1,,,,,,1,wg-a,,,,AAXX 31124 07650 02461 81206 10080 20050 30126 40171 50003 60026 70162 8587/ 91200 333 60017=
07650,1996-01-31 15:00:00,6,1017.4,0.2,93,5,6000,11.112,,,140,,,,3,,,,,,10,wg-a,,,,AAXX 31154 07650 12456 81406 10060 20050 30128 40174 53002 60037 71062 878// 91500=
07650,1996-01-31 18:00:00,5,1018.8,1.4,81,2,9000,14.816,,,140,4.7,8.2,,3,,,,,,21,wg-a,,,,AAXX 31184 07650 12459 81408 10050 20020 30142 40188 53014 60037 72162 8657/ 91800 333 10082 20047=
07650,1996-01-31 21:00:00,5,1018.8,0,70,0,12000,14.816,,,100,,,,,,,,,,,wg-a,,,,AAXX 31214 07650 02562 71008 10050 20000 30142 40188 50000 61000 8257/ 92100 333 ////=
07650,1996-02-01 00:00:00,4,1018.2,-0.6,60,-3,15000,7.408,,,80,,,,,,,,,,,wg-a,,,,AAXX 01004 07650 02/65 /0804 10040 21030 30136 40182 58006 61000 83030 90000 333 ////=
07650,1996-02-01 03:00:00,2,1017.8,-0.4,80,-1,15000,3.704,,,80,,,,,,,,,,,wg-a,,,,AAXX 01034 07650 12665 70802 10020 21010 30132 40178 58004 60006 8353/ 90300=
07650,1996-02-01 06:00:00,7,1016.6,-1.2,57,-1,15000,25.928,,,80,1.8,6.6,,,,,7,,,,wg-a,,,,AAXX 01064 07650 12665 /0814 10070 21010 30120 40166 56012 60074 83530 90600 333 10066 20018=
07650,1996-02-01 09:00:00,9,1016,-0.5,57,1,15000,25.928,,,110,,,,,,,,,,,wg-a,,,,AAXX 01094 07650 12665 /1114 10090 20010 30115 40160 55005 60006 81530 90900=
07650,1996-02-01 12:00:00,9,1014.9,-1.1,71,4,15000,35.188,,57.412,80,,,,,,,,,,21,wg-a,,,,AAXX 01124 07650 02665 70819 10090 20040 30104 40149 58011 61000 72166 8457/ 91200 333 6100 91031=
07650,1996-02-01 15:00:00,10,1012.9,-2,71,5,15000,38.892,,,90,,,,,,,,,,60,wg-a,,,,AAXX 01154 07650 02665 70921 10100 20050 30084 40129 56020 61000 76062 8557/ 91500 333 ////=
07650,1996-02-01 18:00:00,10,1012.7,-0.2,71,5,15000,50.004,,72.228,90,6.1,10.4,,0,,,,,,60,wg-a,,,,AAXX 01184 07650 12465 70927 10100 20050 30082 40127 57002 60007 76066 8557/ 91800 333 10104 20061 91039=
07650,1996-02-01 21:00:00,9,1011.3,-1.4,81,6,10000,50.004,,79.636,80,,,,1,,,,,,60,wg-a,,,,AAXX 01214 07650 12460 80827 10090 20060 30068 40113 58014 60017 76066 8557/ 92100 333 91043=
07650,1996-02-02 00:00:00,10,1010,-1.3,76,6,15000,42.596,,,80,,,,,,,,,,,wg-a,,,,AAXX 02004 07650 12465 70823 10100 20060 30055 40100 58013 60016 8557/ 90000=
07650,1996-02-02 03:00:00,11,1006.7,-3.3,76,7,18000,42.596,,64.82,90,,,,,,,,,,60,wg-a,,,,AAXX 02034 07650 02668 80923 10110 20070 30022 40067 58033 61000 76062 8457/ 90300 333 //// 91035=
07650,1996-02-02 06:00:00,11,1006.8,0.2,71,6,18000,38.892,,61.116,100,9,11.2,,1,,,2,,,1,wg-a,,,,AAXX 02064 07650 02568 71021 10110 20060 30024 40068 52002 60024 70162 8487/ 90600 333 10112 20090 60017 91033=
07650,1996-02-02 09:00:00,11,1007.5,0.7,76,7,500,31.484,,61.116,100,,,,,,,,,,,wg-a,,,,AAXX 02094 07650 12500 71017 10110 20070 30031 40075 53007 60006 8687/ 90900 333 91033=
07650,1996-02-02 12:00:00,12,1007.4,-0.1,71,7,40000,38.892,,61.116,90,,,,,,,,,,,wg-a,,,,AAXX 02124 07650 12582 70921 10120 20070 30030 40074 58001 60006 8687/ 91200 333 91033=
07650,1996-02-02 15:00:00,13,1007.3,-0.1,72,8,40000,14.816,,,80,,,,,,,,,,,wg-a,,,,AAXX 02154 07650 12582 70808 10130 20080 30029 40073 55001 60006 8687/ 91500=
07650,1996-02-02 18:00:00,12,1008.6,1.3,76,8,40000,7.408,,,250,10.5,13.2,,,,,,,,,wg-a,,,,AAXX 02184 07650 12682 72504 10120 20080 30042 40086 53013 60006 8557/ 91800 333 10132 20105=
07650,1996-02-02 21:00:00,10,1010.2,1.5,93,9,20000,14.816,,,20,,,,1,,,,,,60,wg-a,,,,AAXX 02214 07650 12670 70208 10100 20090 30057 40102 51015 60017 76062 8557/ 92100=
07650,1996-02-03 00:00:00,9,1010.9,0.7,100,9,15000,3.704,,,170,,,,1,,,,,,60,wg-a,,,,AAXX 03004 07650 02565 81702 10090 20090 30064 40109 52007 60026 76062 8557/ 90000 333 60017=
07650,1996-02-03 03:00:00,9,1010.4,-0.5,93,8,7000,0,,,0,,,,0,,,,,,1,wg-a,,,,AAXX 03034 07650 12257 70000 10090 20080 30059 40104 58005 60007 70162 83532 90300=
07650,1996-02-03 06:00:00,8,1010.7,0.3,93,7,400,3.704,,,290,7.7,11.5,,,,,2,,,40,wg-a,,,,AAXX 03064 07650 12204 72902 10080 20070 30062 40107 53003 60024 74042 876// 90600 333 10115 20077=
07650,1996-02-03 09:00:00,7,1011.6,0.9,100,7,100,3.704,,,260,,,,,,,,,,43,wg-a,,,,AAXX 03094 07650 12/01 92602 10070 20070 30071 40116 51009 60006 74344 89/// 90900=
07650,1996-02-03 12:00:00,10,1011.1,,93,9,6000,7.408,,,260,,,,,,,,,,11,wg-a,,,,AAXX 03124 07650 32556 22604 10100 20090 30066 40111 71142 82800 91200=
07650,1996-02-03 15:00:00,13,1008.8,-2.2,72,8,15000,11.112,,,240,,,,,,,,,,,wg-a,,,,AAXX 03154 07650 12565 /2406 10130 20080 30044 40088 56022 60006 81100 91500=
07650,1996-02-03 18:00:00,9,1009.8,0.9,87,7,10000,3.704,,,350,7.1,13.1,,,,,,,,,wg-a,,,,AAXX 03184 07650 12/60 13502 10090 20070 30053 40098 53009 60006 81030 91800 333 10131 20071=
07650,1996-02-03 21:00:00,7,1009.8,-0,93,6,10000,7.408,,,140,,,,,,,,,,,wg-a,,,,AAXX 03214 07650 12/60 01404 10070 20060 30053 40098 55000 60006 80000 92100=
07650,1996-02-04 00:00:00,6,1009.2,-0.6,93,5,6000,7.408,,,110,,,,,,,,,,,wg-a,,,,AAXX 04004 07650 12356 41104 10060 20050 30047 40092 58006 60006 84530 90000=
07650,1996-02-04 03:00:00,4,1008.3,-1,93,3,8000,7.408,,,10,,,,,,,,,,,wg-a,,,,AAXX 04034 07650 12458 /0104 10040 20030 30037 40083 58010 60006 81500 90300=
07650,1996-02-04 06:00:00,4,1007.9,-0.4,93,3,7000,11.112,,,340,3.5,9.3,,,,,,,,3,wg-a,,,,AAXX 04064 07650 12257 /3406 10040 20030 30033 40079 55004 60006 70341 85600 90600 333 10093 20035=
07650,1996-02-04 09:00:00,5,1008.4,0.5,87,3,6000,22.224,,,320,,,,,,,,,,,wg-a,,,,AAXX 04094 07650 32356 /3212 10050 20030 30038 40084 51005 81600 90900=
07650,1996-02-04 12:00:00,9,1007.2,-1.1,57,1,12000,29.632,,,340,,,,,,,,,,,wg-a,,,,AAXX 04124 07650 32/62 03416 10090 20010 30027 40072 57011 80000 91200=
07650,1996-02-04 15:00:00,8,1006.7,-0.5,49,-2,15000,38.892,,,340,,,,,,,,,,,wg-a,,,,AAXX 04154 07650 12/65 03421 10080 21020 30022 40067 55005 60006 80000 91500=
07650,1996-02-04 18:00:00,6,1007.6,0.9,52,-3,20000,38.892,,57.412,340,,,,,,,,,,,wg-a,,,,AAXX 04184 07650 32/70 23421 10060 21030 30031 40076 53009 82030 91800 333 91031=
07650,1996-02-04 21:00:00,4,1009.4,1.7,52,-5,500,42.596,,68.524,320,,,,,,,,,,,wg-a,,,,AAXX 04214 07650 12/00 23223 10040 21050 30048 40094 53017 60006 82032 92100 333 91037=
07650,1996-02-05 00:00:00,3,1008.5,-0.9,56,-5,500,31.484,,,320,,,,,,,,,,,wg-a,,,,AAXX 05004 07650 12/00 23217 10030 21050 30039 40085 56009 60006 82030 90000=
07650,1996-02-05 03:00:00,2,1006.8,-1.7,60,-5,500,50.004,,72.228,320,,,,,,,,,,,wg-a,,,,AAXX 05034 07650 12/00 13227 10020 21050 30022 40068 56017 60006 80001 90300 333 91039=
07650,1996-02-05 06:00:00,2,1005.8,-1,60,-5,500,40.744,,64.82,320,1.5,5.6,,,,,,,,,wg-a,,,,AAXX 05064 07650 12/00 13222 10020 21050 30012 40058 56010 60006 80001 90600 333 10056 20015 91035=
07650,1996-02-05 09:00:00,2,1006.1,0.3,64,-4,15000,42.596,,,330,,,,,,,,,,,wg-a,,,,AAXX 05094 07650 12/65 03323 10020 21040 30015 40061 50003 60006 80000 90900=
07650,1996-02-05 12:00:00,5,1005.7,-0.4,56,-3,18000,35.188,,64.82,320,,,,,,,,,,,wg-a,,,,AAXX 05124 07650 12/68 03219 10050 21030 30011 40057 58004 60006 80000 91200 333 91035=
07650,1996-02-05 15:00:00,5,1004.7,-1,48,-5,18000,38.892,,53.708,320,,,,,,,,,,,wg-a,,,,AAXX 05154 07650 12/68 03221 10050 21050 30001 40047 56010 60006 80000 91500 333 91029=
07650,1996-02-05 18:00:00,2,1004.7,-0,60,-5,15000,18.52,,,340,1.5,5.1,,,,,,,,,wg-a,,,,AAXX 05184 07650 12/65 03410 10020 21050 30001 40047 54000 60006 80000 91800 333 10051 20015=
07650,1996-02-05 21:00:00,0,1003.7,-1,69,-5,15000,14.816,,,340,,,,,,,,,,,wg-a,,,,AAXX 05214 07650 12/65 03408 10000 21050 39991 40037 58010 60006 80000 92100=
07650,1996-02-06 00:00:00,-2,1001.7,-2,80,-5,12000,7.408,,,120,,,,,,,,,,,wg-a,,,,AAXX 06004 07650 12/62 01204 11020 21050 39971 40017 56020 60006 80000 90000=
07650,1996-02-06 03:00:00,1,998.7,,69,-4,15000,7.408,,,90,,,,,,,,,,,wg-a,,,,AAXX 06034 07650 32/65 50904 10010 21040 39941 49987 80001 90300=
07650,1996-02-06 06:00:00,4,996.4,-2.1,65,-2,15000,14.816,,,120,,4,,,,,,,,,wg-a,,,,AAXX 06064 07650 12665 71208 10040 21020 39919 49964 56021 60006 83532 90600 333 10040=
07650,1996-02-06 09:00:00,4,994.6,-1.8,87,2,500,22.224,,,120,,,,1,,,,,,60,wg-a,,,,AAXX 06094 07650 12600 71212 10040 20020 39901 49946 58018 60017 76066 8557/ 90900=
07650,1996-02-06 12:00:00,5,994,-0.6,93,4,6000,14.816,,,100,,,,3,,,,,,61,wg-a,,,,AAXX 06124 07650 02656 71008 10050 20040 39895 49940 58006 60036 76166 8557/ 91200 333 60037=
07650,1996-02-06 15:00:00,6,994,-0,81,3,10000,18.52,,,90,,,,1,,,,,,21,wg-a,,,,AAXX 06154 07650 12560 70910 10060 20030 39895 49940 55000 60017 72166 875// 91500=
07650,1996-02-06 18:00:00,5,997,3,87,3,10000,14.816,,,80,4,5.7,,,,,,,,3,wg-a,,,,AAXX 06184 07650 02560 70808 10050 20030 39925 49970 53030 61000 70362 8557/ 91800 333 10057 20040 ////=
07650,1996-02-06 21:00:00,4,1000.3,3.3,93,3,8000,7.408,,,360,,,,2,,,,,,61,wg-a,,,,AAXX 06214 07650 12258 83604 10040 20030 39958 40003 51033 60027 76166 8/57/ 92100=
07650,1996-02-07 00:00:00,3,1001.6,1.2,93,2,11000,11.112,,,20,,,,0,,,,,,,wg-a,,,,AAXX 07004 07650 02561 30206 10030 20020 39970 40016 51012 60026 83530 90000 333 60007=
07650,1996-02-07 03:00:00,3,1002.2,0.6,93,2,8000,14.816,,,330,,,,,,,,,,,wg-a,,,,AAXX 07034 07650 12558 73308 10030 20020 39976 40022 51006 60006 8557/ 90300=
07650,1996-02-07 06:00:00,3,1002.6,0.4,93,2,8000,18.52,,,340,2.1,5.4,,,,,6,,,,wg-a,,,,AAXX 07064 07650 12558 73410 10030 20020 39980 40026 50004 60064 8557/ 90600 333 10054 20021=
07650,1996-02-07 09:00:00,5,1001.2,-1.3,81,2,12000,22.224,,,320,,,,,,,,,,,wg-a,,,,AAXX 07094 07650 12/62 /3212 10050 20020 39967 40012 58013 60006 90900=
07650,1996-02-07 12:00:00,6,1000,-1.2,75,2,15000,14.816,,,290,,,,,,,,,,,wg-a,,,,AAXX 07124 07650 12565 72908 10060 20020 39955 40000 58012 60006 81572 91200=
07650,1996-02-07 15:00:00,7,997.6,-2.4,66,1,12000,7.408,,,130,,,,,,,,,,,wg-a,,,,AAXX 07154 07650 12562 71304 10070 20010 39931 49976 56024 60006 8257/ 91500=
07650,1996-02-07 18:00:00,4,997.5,-0.1,81,1,12000,7.408,,,60,2.4,7.6,,0,,,,,,60,wg-a,,,,AAXX 07184 07650 12562 80604 10040 20010 39930 49975 55001 60007 76062 8587/ 91800 333 10076 20024=
07650,1996-02-07 21:00:00,4,996.3,-1.2,87,2,12000,3.704,,,150,,,,,,,,,,,wg-a,,,,AAXX 07214 07650 02562 81502 10040 20020 39918 49963 56012 61000 8587/ 92100 333 ////=
07650,1996-02-08 00:00:00,5,993.6,-2.7,87,3,12000,7.408,,,110,,,,1,,,,,,60,wg-a,,,,AAXX 08004 07650 02562 81104 10050 20030 39891 49936 58027 60016 76062 8587/ 90000 333 60017=
07650,1996-02-08 03:00:00,6,992.9,-0.7,87,4,15000,14.816,,,280,,,,0,,,,,,1,wg-a,,,,AAXX 08034 07650 12565 72808 10060 20040 39884 49929 55007 60007 70162 8457/ 90300=
07650,1996-02-08 06:00:00,5,998.9,6,87,3,15000,31.484,,,300,3.5,6,,,,,1,,,1,wg-a,,,,AAXX 08064 07650 12565 /3017 10050 20030 39944 49989 53060 60014 70162 82572 90600 333 10060 20035=
07650,1996-02-08 09:00:00,6,1004.1,5.2,65,0,25000,42.596,,64.82,340,,,,,,,,,,,wg-a,,,,AAXX 08094 07650 12575 23423 10060 20000 39996 40041 51052 60006 8/800 90900 333 91035=
07650,1996-02-08 12:00:00,8,1008.8,4.7,46,-3,500,46.3,,87.044,340,,,,,,,,,,,wg-a,,,,AAXX 08124 07650 12500 33425 10080 21030 30043 40088 51047 60006 8/800 91200 333 91047=
07650,1996-02-08 15:00:00,7,1009.5,0.7,53,-2,25000,53.708,,68.524,340,,,,,,,,,,,wg-a,,,,AAXX 08154 07650 12575 33429 10070 21020 30050 40095 53007 60006 83800 91500 333 91037=
07650,1996-02-08 18:00:00,5,1013.3,3.7,56,-3,25000,46.3,,75.932,350,4.5,7.9,,,,,,,,,wg-a,,,,AAXX 08184 07650 12575 /3525 10050 21030 30087 40133 53037 60006 81400 91800 333 10079 20045 91041=
07650,1996-02-09 00:00:00,4,1015.2,-0.3,56,-4,500,46.3,,68.524,340,,,,,,,,,,,wg-a,,,,AAXX 09004 07650 12/00 03425 10040 21040 30106 40152 55003 60006 80000 90000 333 91037=
07650,1996-02-09 03:00:00,3,1015.4,0.2,60,-4,500,38.892,,72.228,340,,,,,,,,,,,wg-a,,,,AAXX 09034 07650 12/00 03421 10030 21040 30108 40154 53002 60006 80000 90300 333 91039=
07650,1996-02-09 06:00:00,2,1015.9,0.5,64,-4,500,29.632,,,340,2.3,5.2,,,,,,,,,wg-a,,,,AAXX 09064 07650 12/00 03416 10020 21040 30113 40159 53005 60006 80000 90600 333 10052 20023=
07650,1996-02-09 09:00:00,3,1016.6,0.7,60,-4,12000,11.112,,,20,,,,,,,,,,,wg-a,,,,AAXX 09094 07650 12/62 20206 10030 21040 30120 40166 50007 60006 80001 90900=
07650,1996-02-09 12:00:00,9,1015.2,-1.3,43,-3,15000,11.112,,,340,,,,,,,,,,,wg-a,,,,AAXX 09124 07650 12/65 /3406 10090 21030 30107 40152 58013 60006 91200=
07650,1996-02-09 15:00:00,11,1014.9,-0.3,43,-1,18000,7.408,,,240,,,,,,,,,,,wg-a,,,,AAXX 09154 07650 12/68 42404 10110 21010 30104 40149 55003 60006 80005 91500=
07650,1996-02-09 18:00:00,6,1015.3,0.3,70,1,12000,3.704,,,110,2,10.7,,,,,,,,,wg-a,,,,AAXX 09184 07650 12/62 61102 10060 20010 30107 40153 53003 60006 80006 91800 333 10107 20020=
07650,1996-02-09 21:00:00,7,1015.7,0.4,70,2,20000,7.408,,,140,,,,,,,,,,,wg-a,,,,AAXX 09214 07650 12/70 11404 10070 20020 30111 40157 53004 60006 80002 92100=
07650,1996-02-10 00:00:00,6,1016.6,0.9,70,1,20000,3.704,,,80,,,,,,,,,,,wg-a,,,,AAXX 10004 07650 12/70 20802 10060 20010 30120 40166 51009 60006 81032 90000=
07650,1996-02-10 03:00:00,5,1016.3,-0.3,81,2,15000,3.704,,,310,,,,,,,,,,,wg-a,,,,AAXX 10034 07650 12/65 43102 10050 20020 30117 40163 56003 60006 81032 90300=
07650,1996-02-10 06:00:00,5,1016.8,0.5,81,2,15000,0,,,0,4.7,8.1,,,,,,,,,wg-a,,,,AAXX 10064 07650 12565 /0000 10050 20020 30122 40168 53005 60006 81531 90600 333 10081 20047=
07650,1996-02-10 09:00:00,6,1018,1.2,81,3,15000,0,,,0,,,,,,,,,,,wg-a,,,,AAXX 10094 07650 12/65 40000 10060 20030 30134 40180 51012 60006 81032 90900=
07650,1996-02-10 12:00:00,9,1017.5,-0.4,66,3,15000,3.704,,,320,,,,,,,,,,,wg-a,,,,AAXX 10124 07650 12/65 73202 10090 20030 30130 40175 58004 60006 83032 91200=
07650,1996-02-10 15:00:00,12,1016.3,-1.2,58,4,25000,14.816,,,300,,,,,,,,,,,wg-a,,,,AAXX 10154 07650 12575 33008 10120 20040 30118 40163 56012 60006 81132 91500=
07650,1996-02-10 18:00:00,8,1017.3,0.9,76,4,25000,0,,,0,3.3,11.8,,,,,,,,,wg-a,,,,AAXX 10184 07650 12/75 10000 10080 20040 30127 40173 53009 60006 81041 91800 333 10118 20033=
07650,1996-02-10 21:00:00,5,1018.2,0.9,87,3,20000,11.112,,,140,,,,,,,,,,,wg-a,,,,AAXX 10214 07650 12/70 11406 10050 20030 30136 40182 51009 60006 81040 92100=
07650,1996-02-11 00:00:00,4,1018.2,-0,87,2,20000,7.408,,,140,,,,,,,,,,,wg-a,,,,AAXX 11004 07650 12/70 11404 10040 20020 30136 40182 54000 60006 81040 90000=
07650,1996-02-11 03:00:00,3,1017.5,-0.7,93,2,20000,3.704,,,140,,,,0,,,,,,,wg-a,,,,AAXX 11034 07650 12/70 31402 10030 20020 30129 40175 56007 60007 80001 90300=
07650,1996-02-11 06:00:00,3,1017.9,0.4,93,2,20000,3.704,,,110,2.7,7.5,,,,,,,,,wg-a,,,,AAXX 11064 07650 12/70 31102 10030 20020 30133 40179 53004 60006 80001 90600 333 10075 20027=
07650,1996-02-11 09:00:00,6,1019.2,1.3,93,5,15000,0,,,0,,,,,,,,,,,wg-a,,,,AAXX 11094 07650 12/65 40000 10060 20050 30146 40192 51013 60006 81032 90900=
07650,1996-02-11 12:00:00,10,1018.4,-0.7,62,3,500,11.112,,,250,,,,,,,,,,,wg-a,,,,AAXX 11124 07650 12600 32506 10100 20030 30139 40184 58007 60006 81102 91200=
07650,1996-02-11 15:00:00,13,1017.3,-1.1,47,2,40000,18.52,,,300,,,,,,,,,,,wg-a,,,,AAXX 11154 07650 12682 33010 10130 20020 30128 40173 56011 60006 81102 91500=
07650,1996-02-11 18:00:00,9,1018.4,1.1,71,4,20000,7.408,,,310,2,12.7,,,,,,,,,wg-a,,,,AAXX 11184 07650 12670 33104 10090 20040 30139 40184 53011 60006 81102 91800 333 10127 20020=
07650,1996-02-11 21:00:00,6,1019.8,1.3,81,3,20000,7.408,,,320,,,,,,,,,,,wg-a,,,,AAXX 11214 07650 12/70 43204 10060 20030 30152 40198 51013 60006 81032 92100=
07650,1996-02-12 00:00:00,5,1019.8,-0,87,3,20000,7.408,,,300,,,,,,,,,,,wg-a,,,,AAXX 12004 07650 12/70 33004 10050 20030 30152 40198 54000 60006 81032 90000=
07650,1996-02-12 03:00:00,3,1018.8,-1,93,2,20000,7.408,,,140,,,,,,,,,,,wg-a,,,,AAXX 12034 07650 12/70 01404 10030 20020 30142 40188 58010 60006 80000 90300=
07650,1996-02-12 06:00:00,2,1018.6,-0.3,93,1,20000,3.704,,,130,2,8.8,,,,,,,,,wg-a,,,,AAXX 12064 07650 12/70 01302 10020 20010 30139 40186 56003 60006 80000 90600 333 10088 20020=
07650,1996-02-12 09:00:00,7,1018.5,-0,87,5,10000,3.704,,,50,,,,0,,,,,,3,wg-a,,,,AAXX 12094 07650 12/60 50502 10070 20050 30139 40185 54000 60007 70322 82032 90900=
07650,1996-02-12 12:00:00,12,1016.2,-2.2,67,6,15000,3.704,,,290,,,,,,,,,,,wg-a,,,,AAXX 12124 07650 12565 /2902 10120 20060 30117 40162 58022 60006 82132 91200=
07650,1996-02-12 15:00:00,12,1011.9,-4.2,76,8,15000,25.928,,,180,,,,,,,,,,,wg-a,,,,AAXX 12154 07650 12565 71814 10120 20080 30075 40119 57042 60006 84832 91500=
07650,1996-02-12 18:00:00,11,1008.8,-3.1,76,7,15000,22.224,,,180,1.4,12.8,,,,,,,,21,wg-a,,,,AAXX 12184 07650 02565 71812 10110 20070 30044 40088 58031 61000 72162 8447/ 91800 333 10128 20014 ////=
07650,1996-02-12 21:00:00,12,1006,-2.8,76,8,15000,25.928,,,220,,,,,,,,,,60,wg-a,,,,AAXX 12214 07650 02665 82214 10120 20080 30016 40060 58028 61000 76062 8357/ 92100 333 ////=
07650,1996-02-13 00:00:00,11,1006.6,0.5,62,4,20000,31.484,,,290,,,,,,,,,,1,wg-a,,,,AAXX 13004 07650 02/70 12917 10110 20040 30021 40066 53005 61000 70161 81030 90000 333 6100=
07650,1996-02-13 03:00:00,8,1006.6,0,71,3,20000,25.928,,,300,,,,,,,,,,,wg-a,,,,AAXX 13034 07650 12/70 13014 10080 20030 30021 40066 50000 60006 81030 90300=
07650,1996-02-13 06:00:00,8,1006.2,-0.4,76,4,20000,31.484,,,280,6.3,12.6,,,,,,,,,wg-a,,,,AAXX 13064 07650 02/70 32817 10080 20040 30017 40062 55004 61000 82032 90600 333 10126 20063 ////=
07650,1996-02-13 09:00:00,10,1007,0.8,66,4,20000,31.484,,,280,,,,,,,,,,,wg-a,,,,AAXX 13094 07650 12570 22817 10100 20040 30025 40070 52008 60006 81830 90900=
07650,1996-02-13 12:00:00,13,1006.5,-0.4,51,3,35000,25.928,,,290,,,,,,,,,,,wg-a,,,,AAXX 13124 07650 12581 42914 10130 20030 30021 40065 58004 60006 83130 91200=
07650,1996-02-13 15:00:00,12,1006.4,-0.1,44,0,40000,29.632,,,10,,,,,,,,,,,wg-a,,,,AAXX 13154 07650 12582 40116 10120 20000 30020 40064 55001 60006 84402 91500=
07650,1996-02-13 18:00:00,9,1008.3,1.8,53,0,40000,18.52,,,330,7.9,13.7,,,,,,,,,wg-a,,,,AAXX 13184 07650 12682 33310 10090 20000 30038 40083 53018 60006 83400 91800 333 10137 20079=
07650,1996-02-13 21:00:00,6,1009.1,0.8,70,1,500,25.928,,,340,,,,,,,,,,,wg-a,,,,AAXX 13214 07650 12/00 03414 10060 20010 30046 40091 51008 60006 80000 92100=
07650,1996-02-14 00:00:00,6,1009.8,0.7,70,1,20000,29.632,,,320,,,,,,,,,,,wg-a,,,,AAXX 14004 07650 12/70 03216 10060 20010 30053 40098 53007 60006 80000 90000=
07650,1996-02-14 03:00:00,6,1009.9,-0,65,0,40000,25.928,,,340,,,,,,,,,,,wg-a,,,,AAXX 14034 07650 12/82 03414 10060 20000 30053 40099 55000 60006 80000 90300=
07650,1996-02-14 06:00:00,5,1009.7,-0.2,65,-1,40000,35.188,,,330,4.7,9.2,,,,,,,,,wg-a,,,,AAXX 14064 07650 12/82 03319 10050 21010 30051 40097 55002 60006 80000 90600 333 10092 20047=
07650,1996-02-14 09:00:00,6,1011.4,1.7,70,1,15000,38.892,,,350,,,,,,,,,,,wg-a,,,,AAXX 14094 07650 12/65 03521 10060 20010 30068 40114 53017 60006 80000 90900=
07650,1996-02-14 12:00:00,6,1011.4,1.7,70,1,15000,38.892,,,350,,,,,,,,,,,wg-a,,,,AAXX 14124 07650 12/65 03521 10060 20010 30068 40114 53017 60006 80000 91200=
07650,1996-02-14 15:00:00,9,1013.2,1.1,53,0,15000,42.596,,53.708,20,,,,,,,,,,,wg-a,,,,AAXX 14154 07650 12565 /0223 10090 20000 30087 40132 53011 60006 81100 91500 333 91029=
07650,1996-02-14 18:00:00,6,1015.7,2.4,61,-1,15000,31.484,,,360,,,,,,,,,,,wg-a,,,,AAXX 14184 07650 12565 /3617 10060 21010 30111 40157 53024 60006 81100 91800=
07650,1996-02-14 21:00:00,4,1018.3,2.6,65,-2,15000,11.112,,,10,,,,,,,,,,,wg-a,,,,AAXX 14214 07650 12/65 00106 10040 21020 30137 40183 53026 60006 80000 92100=
07650,1996-02-15 00:00:00,3,1020.7,2.4,70,-2,15000,14.816,,,20,,,,,,,,,,,wg-a,,,,AAXX 15004 07650 12/65 00208 10030 21020 30161 40207 52024 60006 80000 90000=
07650,1996-02-15 03:00:00,3,1021.8,1,70,-2,20000,14.816,,,20,,,,,,,,,,,wg-a,,,,AAXX 15034 07650 12/70 00208 10030 21020 30171 40218 51010 60006 80000 90300=
07650,1996-02-15 06:00:00,2,1023.5,1.7,69,-3,15000,11.112,,,40,0.9,5.5,,,,,,,,,wg-a,,,,AAXX 15064 07650 12/65 00406 10020 21030 30188 40235 52017 60006 80000 90600 333 10055 20009=
07650,1996-02-15 09:00:00,5,1025.1,1.7,65,-1,10000,7.408,,,30,,,,,,,,,,,wg-a,,,,AAXX 15094 07650 12/60 00304 10050 21010 30205 40251 51017 60006 80000 90900=
07650,1996-02-15 12:00:00,9,1024.1,-1,49,-1,15000,22.224,,,360,,,,,,,,,,,wg-a,,,,AAXX 15124 07650 12/65 03612 10090 21010 30195 40241 58010 60006 80000 91200=
07650,1996-02-15 15:00:00,9,1023.5,-0.6,49,-1,15000,25.928,,,340,,,,,,,,,,,wg-a,,,,AAXX 15154 07650 12/65 03414 10090 21010 30189 40235 56006 60006 80000 91500=
07650,1996-02-15 18:00:00,5,1024.9,1.4,60,-2,12000,11.112,,,340,1.5,9.9,,,,,,,,,wg-a,,,,AAXX 15184 07650 12/62 03406 10050 21020 30203 40249 53014 60006 80000 91800 333 10099 20015=
07650,1996-02-15 21:00:00,1,1025.8,0.8,75,-3,15000,7.408,,,140,,,,,,,,,,,wg-a,,,,AAXX 15214 07650 12/65 01404 10010 21030 30211 40258 53008 60006 80000 92100=
07650,1996-02-16 00:00:00,-1,1025.8,-0,86,-3,12000,3.704,,,140,,,,,,,,,,,wg-a,,,,AAXX 16004 07650 12/62 11402 11010 21030 30211 40258 55000 60006 80001 90000=
07650,1996-02-16 03:00:00,1,1024.8,-1,69,-4,15000,14.816,,,20,,,,,,,,,,,wg-a,,,,AAXX 16034 07650 12/65 00208 10010 21040 30201 40248 58010 60006 80000 90300=
07650,1996-02-16 06:00:00,1,1023.9,-0.9,69,-4,20000,22.224,,,20,-1,4.8,,,,,,,,,wg-a,,,,AAXX 16064 07650 12/70 00212 10010 21040 30192 40239 57009 60006 80000 90600 333 10048 21010=
07650,1996-02-16 09:00:00,3,1023.7,-0.2,70,-2,14000,18.52,,,10,,,,,,,,,,,wg-a,,,,AAXX 16094 07650 12/64 10110 10030 21020 30190 40237 58002 60006 81041 90900=
07650,1996-02-16 12:00:00,9,1022.2,-1.4,46,-2,18000,14.816,,,350,,,,,,,,,,,wg-a,,,,AAXX 16124 07650 12/68 13508 10090 21020 30176 40222 58014 60006 81040 91200=
07650,1996-02-16 15:00:00,10,1020.3,-1.8,50,0,20000,18.52,,,340,,,,,,,,,,,wg-a,,,,AAXX 16154 07650 12/70 03410 10100 20000 30158 40203 56018 60006 80000 91500=
07650,1996-02-16 18:00:00,7,1020.6,0.2,57,-1,10000,25.928,,,360,0.5,10.5,,,,,,,,,wg-a,,,,AAXX 16184 07650 12/60 /3614 10070 21010 30160 40206 53002 60006 91800 333 10105 20005=
07650,1996-02-16 21:00:00,5,1020.6,0,70,0,20000,18.52,,,360,,,,,,,,,,,wg-a,,,,AAXX 16214 07650 12/70 03610 10050 20000 30160 40206 50000 60006 80000 92100=
07650,1996-02-17 00:00:00,7,1020,-0.6,76,3,500,35.188,,,340,,,,,,,,,,,wg-a,,,,AAXX 17004 07650 12/00 03419 10070 20030 30154 40200 58006 60006 80000 90000=
07650,1996-02-17 03:00:00,7,1019.1,-0.9,76,3,500,29.632,,,340,,,,,,,,,,,wg-a,,,,AAXX 17034 07650 12/00 03416 10070 20030 30145 40191 58009 60006 80000 90300=
07650,1996-02-17 06:00:00,8,1019.1,-0,71,3,500,53.708,,79.636,340,4.9,8,,,,,,,,,wg-a,,,,AAXX 17064 07650 12/00 03429 10080 20030 30145 40191 55000 60006 80000 90600 333 10080 20049 91043=
07650,1996-02-17 09:00:00,10,1019.5,0.5,57,2,500,50.004,,83.34,350,,,,,,,,,,,wg-a,,,,AAXX 17094 07650 12500 /3527 10100 20020 30150 40195 51005 60006 81500 90900 333 91045=
07650,1996-02-17 12:00:00,13,1020,0.5,44,1,500,61.116,,90.748,330,,,,,,,,,,,wg-a,,,,AAXX 17124 07650 12/00 03333 10130 20010 30155 40200 53005 60006 80000 91200 333 91049=
07650,1996-02-17 18:00:00,9,1022.1,2.6,53,0,500,46.3,,68.524,330,7.6,12.8,,,,,,,,,wg-a,,,,AAXX 17184 07650 12500 /3325 10090 20000 30176 40221 53026 60006 81500 91800 333 10128 20076 91037=
07650,1996-02-17 21:00:00,9,1018.6,-3.5,53,0,500,72.228,,,340,,,,,,,,,,,wg-a,,,,AAXX 17214 07650 12/00 03439 10090 20000 30141 40186 56035 60006 80000 92100=
07650,1996-02-18 00:00:00,7,1021.7,3,66,1,500,25.928,,,340,,,,,,,,,,,wg-a,,,,AAXX 18004 07650 12/00 03414 10070 20010 30171 40217 51030 60006 80000 90000=
07650,1996-02-18 03:00:00,8,1020.7,-1,66,2,500,29.632,,,330,,,,,,,,,,,wg-a,,,,AAXX 18034 07650 12/00 03316 10080 20020 30161 40207 58010 60006 80000 90300=
07650,1996-02-18 06:00:00,5,1019.7,-1,75,1,500,14.816,,,310,5.3,9.2,,,,,,,,,wg-a,,,,AAXX 18064 07650 12/00 03108 10050 20010 30151 40197 58010 60006 80000 90600 333 10092 20053=
07650,1996-02-18 09:00:00,9,1018.1,-1.5,66,3,20000,11.112,,,300,,,,,,,,,,,wg-a,,,,AAXX 18094 07650 12/70 33006 10090 20030 30136 40181 58015 60006 80002 90900=
07650,1996-02-18 12:00:00,12,1016.5,-1.6,50,2,500,22.224,,,300,,,,,,,,,,,wg-a,,,,AAXX 18124 07650 12/00 33012 10120 20020 30120 40165 58016 60006 80002 91200=
07650,1996-02-18 15:00:00,12,1013.1,-3.4,58,4,500,22.224,,,240,,,,,,,,,,,wg-a,,,,AAXX 18154 07650 12/00 62412 10120 20040 30086 40131 56034 60006 81032 91500=
07650,1996-02-18 18:00:00,10,1011,-2.1,66,4,25000,3.704,,,170,5,12.8,,,,,,,,,wg-a,,,,AAXX 18184 07650 12475 61702 10100 20040 30065 40110 56021 60006 82532 91800 333 10128 20050=
07650,1996-02-18 21:00:00,10,1007.9,-3.1,87,8,12000,11.112,,,140,,,,,,,,,,,wg-a,,,,AAXX 18214 07650 12462 /1406 10100 20080 30034 40079 56031 60006 82532 92100=
07650,1996-02-19 00:00:00,10,1005.1,-2.8,87,8,12000,11.112,,,240,,,,,,,,,,,wg-a,,,,AAXX 19004 07650 12/62 /2406 10100 20080 30000 40051 56028 60006 90000=
07650,1996-02-19 03:00:00,9,1002.3,-2.8,81,6,12000,31.484,,,280,,,,2,,,,,,60,wg-a,,,,AAXX 19034 07650 12462 82817 10090 20060 39978 40023 58028 60027 76066 8557/ 90300=
07650,1996-02-19 06:00:00,7,1000.6,-1.7,87,5,20000,14.816,,,300,7.1,10.2,,,,,2,,,,wg-a,,,,AAXX 19064 07650 02570 83008 10070 20050 39961 40006 58017 60024 8257/ 90600 333 10102 20071 61000=
07650,1996-02-19 09:00:00,7,1000.8,0.2,81,4,25000,22.224,,,320,,,,,,,,,,,wg-a,,,,AAXX 19094 07650 12575 /3212 10070 20040 39963 40008 50002 60006 81832 90900=
07650,1996-02-19 12:00:00,11,998.9,-1.8,54,2,75000,25.928,,,300,,,,,,,,,,,wg-a,,,,AAXX 19124 07650 12589 23014 10110 20020 39945 49989 56018 60006 82102 91200=
07650,1996-02-19 15:00:00,12,997.8,-1.1,54,3,75000,14.816,,,240,,,,,,,,,,,wg-a,,,,AAXX 19154 07650 12589 52408 10120 20030 39934 49978 56011 60006 83232 91500=
07650,1996-02-19 18:00:00,9,998.1,0.3,71,4,40000,14.816,,,280,6.4,12.1,,,,,,,,,wg-a,,,,AAXX 19184 07650 12582 72808 10090 20040 39937 49981 53003 60006 83872 91800 333 10121 20064=
07650,1996-02-19 21:00:00,8,998.5,0.3,76,4,20000,14.816,,,300,,,,,,,,,,,wg-a,,,,AAXX 19214 07650 12570 /3008 10080 20040 39940 49985 53003 60006 82930 92100=
07650,1996-02-20 00:00:00,5,999.7,1.2,60,-2,20000,29.632,,,350,,,,,,,,,,,wg-a,,,,AAXX 20004 07650 12570 /3516 10050 21020 39952 49997 51012 60006 82530 90000=
07650,1996-02-20 03:00:00,3,1001,1.2,65,-3,20000,38.892,,,340,,,,,,,,,,,wg-a,,,,AAXX 20034 07650 12/70 33421 10030 21030 39964 40010 50012 60006 80001 90300=
07650,1996-02-20 06:00:00,2,1001.7,0.7,69,-3,20000,46.3,,68.524,340,2.1,9.5,,,,,,,,,wg-a,,,,AAXX 20064 07650 12/70 53425 10020 21030 39971 40017 51007 60006 81031 90600 333 10095 20021 91037=
07650,1996-02-20 09:00:00,3,1003.1,1.4,52,-6,50000,50.004,,68.524,340,,,,,,,,,,,wg-a,,,,AAXX 20094 07650 12584 /3427 10030 21060 39985 40031 52014 60006 81142 90900 333 91037=
07650,1996-02-20 12:00:00,5,1003.2,0.2,45,-6,40000,42.596,,68.524,350,,,,,,,,,,,wg-a,,,,AAXX 20124 07650 12/82 33523 10050 21060 39987 40032 53002 60006 80002 91200 333 91037=
07650,1996-02-20 15:00:00,5,1004.3,1.1,35,-9,60000,50.004,,64.82,340,,,,,,,,,,,wg-a,,,,AAXX 20154 07650 12586 33427 10050 21090 39998 40043 53011 60006 81201 91500 333 91035=
07650,1996-02-20 18:00:00,3,1006,1.6,44,-8,60000,42.596,,61.116,350,1.8,5.6,,,,,,,,,wg-a,,,,AAXX 20184 07650 12/86 13523 10030 21080 30014 40060 51016 60006 81040 91800 333 10056 20018 91033=
07650,1996-02-20 21:00:00,1,1006.2,0.2,55,-7,40000,29.632,,,330,,,,,,,,,,,wg-a,,,,AAXX 20214 07650 12/82 13316 10010 21070 30016 40062 50002 60006 81040 92100=
07650,1996-02-21 00:00:00,0,1006.1,-0.1,69,-5,40000,31.484,,,320,,,,,,,,,,,wg-a,,,,AAXX 21004 07650 12/82 03217 10000 21050 30015 40061 56001 60006 80000 90000=
07650,1996-02-21 03:00:00,0,1004.8,-1.3,74,-4,40000,25.928,,,320,,,,,,,,,,,wg-a,,,,AAXX 21034 07650 12582 33214 10000 21040 30002 40048 58013 60006 82540 90300=
07650,1996-02-21 06:00:00,0,1003.9,-0.9,74,-4,500,18.52,,,320,-0.3,2.8,,,,,,,,,wg-a,,,,AAXX 21064 07650 12500 43210 10000 21040 39993 40039 56009 60006 83530 90600 333 10028 21003=
07650,1996-02-21 09:00:00,2,1003.6,-0.3,69,-3,20000,25.928,,,310,,,,,,,,,,,wg-a,,,,AAXX 21094 07650 12570 43114 10020 21030 39990 40036 58003 60006 82531 90900=
07650,1996-02-21 12:00:00,7,1003.5,0,45,-4,20000,22.224,,,350,,,,,,,,,,,wg-a,,,,AAXX 21124 07650 12570 /3512 10070 21040 39990 40035 50000 60006 81532 91200=
07650,1996-02-21 15:00:00,8,1003.4,-0.1,53,-1,20000,25.928,,,320,,,,,,,,,,,wg-a,,,,AAXX 21154 07650 12570 /3214 10080 21010 39989 40034 55001 60006 81132 91500=
07650,1996-02-21 18:00:00,4,1005.8,2.3,65,-2,20000,25.928,,,20,-0.2,8,,,,,,,,,wg-a,,,,AAXX 21184 07650 12570 40214 10040 21020 30012 40058 53023 60006 81532 91800 333 10080 21002=
07650,1996-02-21 21:00:00,2,1008.4,2.6,69,-3,20000,18.52,,,360,,,,,,,,,,,wg-a,,,,AAXX 21214 07650 12/70 33610 10020 21030 30038 40084 52026 60006 81032 92100=
07650,1996-02-22 00:00:00,1,1009.9,1.5,69,-4,25000,22.224,,,360,,,,,,,,,,,wg-a,,,,AAXX 22004 07650 12/75 23612 10010 21040 30053 40099 52015 60006 80002 90000=
07650,1996-02-22 03:00:00,0,1010.6,0.6,69,-5,20000,31.484,,,350,,,,,,,,,,,wg-a,,,,AAXX 22034 07650 12/70 03517 10000 21050 30059 40106 51006 60006 80000 90300=
07650,1996-02-22 06:00:00,-1,1011.4,0.8,69,-6,25000,35.188,,57.412,340,-0.7,3.5,,,,,,,,,wg-a,,,,AAXX 22064 07650 12/75 03419 11010 21060 30067 40114 53008 60006 80000 90600 333 10035 21007 91031=
07650,1996-02-22 09:00:00,1,1013,1.6,55,-7,20000,50.004,,72.228,350,,,,,,,,,,,wg-a,,,,AAXX 22094 07650 12/70 03527 10010 21070 30083 40130 51016 60006 80000 90900 333 91039=
07650,1996-02-22 12:00:00,3,1013.6,0.7,48,-7,20000,46.3,,,340,,,,,,,,,,,wg-a,,,,AAXX 22124 07650 12/70 03425 10030 21070 30090 40136 50007 60006 80000 91200=
07650,1996-02-22 15:00:00,3,1013.6,-0,44,-8,20000,61.116,,72.228,340,,,,,,,,,,,wg-a,,,,AAXX 22154 07650 12/70 03433 10030 21080 30090 40136 55000 60006 80000 91500 333 91039=
07650,1996-02-22 18:00:00,0,1015.7,,51,-9,20000,61.116,,87.044,330,,,,,,,,,,,wg-a,,,,AAXX 22184 07650 12/70 03333 10000 21090 30110 40157 60006 80000 91800 333 91047=
07650,1996-02-22 21:00:00,-1,1017.2,1.1,50,-10,20000,42.596,,64.82,350,,,,,,,,,,,wg-a,,,,AAXX 22214 07650 12/70 03523 11010 21100 30125 40172 50011 60006 80000 92100 333 91035=
07650,1996-02-23 00:00:00,-1,1016.6,-0.6,59,-8,20000,42.596,,53.708,350,,,,,,,,,,,wg-a,,,,AAXX 23004 07650 12/70 03523 11010 21080 30119 40166 57006 60006 80000 90000 333 91029=
07650,1996-02-23 03:00:00,-1,1015.5,-1.1,54,-9,20000,38.892,,53.708,330,,,,,,,,,,,wg-a,,,,AAXX 23034 07650 12/70 23321 11010 21090 30108 40155 58011 60006 80002 90300 333 91029=
07650,1996-02-23 06:00:00,-2,1015.4,-0.1,59,-9,20000,22.224,,,350,-2,0.2,,,,,,,,,wg-a,,,,AAXX 23064 07650 12/70 23512 11020 21090 30107 40154 57001 60006 80002 90600 333 10002 21020=
07650,1996-02-23 09:00:00,1,1015.6,0.2,47,-9,18000,7.408,,,300,,,,,,,,,,,wg-a,,,,AAXX 23094 07650 12/68 23004 10010 21090 30109 40156 50002 60006 82030 90900=
07650,1996-02-23 12:00:00,8,1014.3,-1.1,49,-2,40000,35.188,,,320,,,,,,,,,,,wg-a,,,,AAXX 23124 07650 12682 23219 10080 21020 30098 40143 58011 60006 81501 91200=
07650,1996-02-23 15:00:00,10,1013.1,-1.2,46,-1,40000,29.632,,,330,,,,,,,,,,,wg-a,,,,AAXX 23154 07650 12682 /3316 10100 21010 30086 40131 56012 60006 81500 91500=
07650,1996-02-23 18:00:00,7,1014.4,1.2,53,-2,20000,31.484,,,340,-2,9.8,,,,,,,,,wg-a,,,,AAXX 23184 07650 12670 /3417 10070 21020 30098 40144 53012 60006 81500 91800 333 10098 21020=
07650,1996-02-23 21:00:00,4,1015.5,1.1,70,-1,20000,22.224,,,320,,,,,,,,,,,wg-a,,,,AAXX 23214 07650 12670 /3212 10040 21010 30109 40155 51011 60006 81500 92100=
07650,1996-02-24 00:00:00,3,1016,0.5,75,-1,20000,25.928,,,340,,,,,,,,,,,wg-a,,,,AAXX 24004 07650 12/70 03414 10030 21010 30114 40160 53005 60006 80000 90000=
07650,1996-02-24 03:00:00,2,1015.9,-0.1,75,-2,18000,25.928,,,350,,,,,,,,,,,wg-a,,,,AAXX 24034 07650 12/68 03514 10020 21020 30113 40159 56001 60006 80000 90300=
07650,1996-02-24 06:00:00,-1,1016.9,0.9,80,-4,15000,7.408,,,20,-1,7.1,,,,,,,,,wg-a,,,,AAXX 24064 07650 12/65 00204 11010 21040 30122 40169 51009 60006 80000 90600 333 10071 21010=
07650,1996-02-24 09:00:00,3,1017.6,0.8,70,-2,15000,3.704,,,10,,,,,,,,,,,wg-a,,,,AAXX 24094 07650 12/65 00102 10030 21020 30130 40176 51008 60006 80000 90900=
07650,1996-02-24 12:00:00,8,1017.1,-0.5,53,-1,15000,14.816,,,270,,,,,,,,,,,wg-a,,,,AAXX 24124 07650 12565 /2708 10080 21010 30125 40171 58005 60006 81102 91200=
07650,1996-02-24 15:00:00,11,1016,-1,40,-2,500,3.704,,,320,,,,,,,,,,,wg-a,,,,AAXX 24154 07650 12600 /3202 10110 21020 30115 40160 56010 60006 81102 91500=
07650,1996-02-24 18:00:00,8,1016.8,0.8,66,2,500,7.408,,,210,-1.3,10.9,,,,,,,,,wg-a,,,,AAXX 24184 07650 12/00 12104 10080 20020 30123 40168 53008 60006 80001 91800 333 10109 21013=
07650,1996-02-24 21:00:00,4,1017.7,0.8,81,1,500,0,,,0,,,,,,,,,,,wg-a,,,,AAXX 24214 07650 12/00 00000 10040 20010 30131 40177 53008 60006 80000 92100=
07650,1996-02-25 00:00:00,3,1017.9,0.2,87,1,20000,3.704,,,220,,,,,,,,,,,wg-a,,,,AAXX 25004 07650 12/70 02202 10030 20010 30133 40179 53002 60006 80000 90000=
07650,1996-02-25 03:00:00,3,1017.9,0.2,93,2,20000,3.704,,,220,,,,,,,,,,,wg-a,,,,AAXX 25034 07650 32/70 /2202 10030 20020 30133 40179 53002 80000 90300=
07650,1996-02-25 06:00:00,6,1017.1,0.2,75,2,15000,11.112,,,100,2.5,8,,,,,,,,,wg-a,,,,AAXX 25064 07650 12665 41006 10060 20020 30125 40171 53002 60006 83530 90600 333 10080 20025=
07650,1996-02-25 09:00:00,11,1017.8,0.8,62,4,18000,25.928,,,120,,,,,,,,,,,wg-a,,,,AAXX 25094 07650 12568 /1214 10110 20040 30133 40178 53008 60006 85800 90900=
07650,1996-02-25 12:00:00,13,1017.4,-0.4,62,6,15000,29.632,,,140,,,,,,,,,,3,wg-a,,,,AAXX 25124 07650 02565 71416 10130 20060 30129 40174 58004 61000 70361 8587/ 91200 333 6100=
07650,1996-02-25 14:00:00,11,1016.5,-0.9,76,7,25000,35.188,,,140,,,,1,,,,,,0,wg-a,,,,AAXX 25144 07650 12575 71419 10110 20070 30120 40165 56009 60017 700// 8/87/ 91400=
07650,1996-02-25 15:00:00,11,1016.5,-0.9,76,7,25000,35.188,,,140,,,,1,,,,,,60,wg-a,,,,AAXX 25154 07650 12575 71419 10110 20070 30120 40165 56009 60017 76061 8587/ 91500=
07650,1996-02-25 18:00:00,10,1017.3,0.8,76,6,15000,25.928,,,130,6.3,13.3,,0,,,,,,2,wg-a,,,,AAXX 25184 07650 12565 41314 10100 20060 30128 40173 53008 60007 70261 84430 91800 333 10133 20063=
07650,1996-02-25 21:00:00,8,1017.6,0.3,76,4,15000,11.112,,,100,,,,,,,,,,,wg-a,,,,AAXX 25214 07650 12565 /1006 10080 20040 30131 40176 51003 60006 81500 92100=
07650,1996-02-26 00:00:00,8,1017.3,-0.3,76,4,15000,14.816,,,100,,,,,,,,,,,wg-a,,,,AAXX 26004 07650 12/65 01008 10080 20040 30128 40173 58003 60006 80000 90000=
07650,1996-02-26 03:00:00,9,1015.7,-1.6,71,4,15000,29.632,,,100,,,,,,,,,,,wg-a,,,,AAXX 26034 07650 12/65 01016 10090 20040 30112 40157 58016 60006 80000 90300=
07650,1996-02-26 06:00:00,10,1014.9,-0.8,71,5,18000,29.632,,,100,7.5,10.1,,,,,1,,,,wg-a,,,,AAXX 26064 07650 02568 31016 10100 20050 30104 40149 58008 60006 83800 90600 333 10101 20075 60014=
07650,1996-02-26 09:00:00,9,1015.9,1,87,7,10000,22.224,,,120,,,,1,,,,,,60,wg-a,,,,AAXX 26094 07650 12560 71212 10090 20070 30114 40159 51010 60017 76066 878// 90900=
07650,1996-02-26 12:00:00,12,1015.2,-0.7,71,7,15000,29.632,,,120,,,,1,,,,,,21,wg-a,,,,AAXX 26124 07650 02565 71216 10120 20070 30107 40152 58007 60026 72162 878// 91200 333 60017=
07650,1996-02-26 15:00:00,12,1013.8,-1.4,67,6,15000,31.484,,64.82,120,,,,,,,,,,,wg-a,,,,AAXX 26154 07650 12565 71217 10120 20060 30093 40138 56014 60006 8587/ 91500 333 91035=
07650,1996-02-26 18:00:00,10,1013.9,0.1,71,5,15000,42.596,,,110,9.3,12.5,,,,,,,,,wg-a,,,,AAXX 26184 07650 32565 /1123 10100 20050 30094 40139 50001 85572 91800 333 10125 20093=
07650,1996-02-26 21:00:00,10,1013.2,-0.7,71,5,15000,42.596,,61.116,90,,,,,,,,,,,wg-a,,,,AAXX 26214 07650 12565 70923 10100 20050 30087 40132 56007 60006 82532 92100 333 91033=
07650,1996-02-27 00:00:00,10,1013.4,0.2,71,5,15000,35.188,,68.524,100,,,,,,,,,,,wg-a,,,,AAXX 27004 07650 12565 81019 10100 20050 30089 40134 50002 60006 83532 90000 333 91037=
07650,1996-02-27 03:00:00,10,1011.7,-1.7,66,4,15000,46.3,,64.82,100,,,,,,,,,,,wg-a,,,,AAXX 27034 07650 12565 81025 10100 20040 30072 40117 56017 60006 8557/ 90300 333 91035=
07650,1996-02-27 06:00:00,10,1012.5,0.8,71,5,15000,42.596,,68.524,100,9.6,10.3,,,,,2,,,21,wg-a,,,,AAXX 27064 07650 02565 81023 10100 20050 30080 40125 52008 60024 72162 8557/ 90600 333 10103 20096 61000 91037=
07650,1996-02-27 09:00:00,11,1013.9,1.4,66,5,15000,35.188,,57.412,100,,,,,,,,,,60,wg-a,,,,AAXX 27094 07650 02565 81019 10110 20050 30094 40139 53014 61000 76062 8557/ 90900 333 //// 91031=
07650,1996-02-27 12:00:00,14,1014.5,0.7,58,6,15000,29.632,,,110,,,,,,,,,,21,wg-a,,,,AAXX 27124 07650 02565 81116 10140 20060 30101 40145 50007 61000 72162 8587/ 91200 333 6100=
07650,1996-02-27 15:00:00,15,1014.7,0.2,51,5,15000,18.52,,,110,,,,,,,,,,,wg-a,,,,AAXX 27154 07650 12565 81110 10150 20050 30103 40147 53002 60006 8457/ 91500=
07650,1996-02-27 18:00:00,13,1016.3,1.5,51,3,15000,14.816,,,130,10.1,15,,,,,,,,,wg-a,,,,AAXX 27184 07650 32565 /1308 10130 20030 30118 40163 51015 82532 91800 333 10150 20101=
07650,1996-02-27 21:00:00,11,1017.1,0.8,54,2,18000,7.408,,,140,,,,,,,,,,,wg-a,,,,AAXX 27214 07650 12568 /1404 10110 20020 30126 40171 51008 60006 81532 92100=
07650,1996-02-28 00:00:00,9,1017.5,0.4,66,3,18000,3.704,,,180,,,,,,,,,,,wg-a,,,,AAXX 28004 07650 12568 /1802 10090 20030 30130 40175 50004 60006 82532 90000=
07650,1996-02-28 03:00:00,4,1017.4,-0.2,87,2,15000,3.704,,,360,,,,,,,,,,,wg-a,,,,AAXX 28034 07650 12/65 03602 10040 20020 30128 40174 58002 60006 80000 90300=
07650,1996-02-28 05:00:00,3,1017.6,,87,1,15000,3.704,,,360,,,,,,,,,,,wg-a,,,,AAXX 28054 07650 12/65 03602 10030 20010 30130 40176 60006 80000 90500=
07650,1996-02-28 06:00:00,3,1017.7,0.3,93,2,15000,7.408,,,160,2.6,12.9,,,,,,,,,wg-a,,,,AAXX 28064 07650 02/65 11604 10030 20020 30131 40177 53003 60006 80001 90600 333 10129 20026 61000=
07650,1996-02-28 09:00:00,7,1018.4,0.7,81,4,10000,7.408,,,280,,,,,,,,,,,wg-a,,,,AAXX 28094 07650 12/60 02804 10070 20040 30138 40184 52007 60006 80000 90900=
07650,1996-02-28 12:00:00,13,1017.9,-0.4,62,6,15000,11.112,,,280,,,,,,,,,,,wg-a,,,,AAXX 28124 07650 12/65 12806 10130 20060 30134 40179 58004 60006 80002 91200=
07650,1996-02-28 15:00:00,15,1016.5,-1.3,55,6,15000,14.816,,,280,,,,,,,,,,,wg-a,,,,AAXX 28154 07650 12/65 12808 10150 20060 30121 40165 56013 60006 80002 91500=
07650,1996-02-28 18:00:00,12,1017.8,1.2,71,7,15000,7.408,,,150,2.5,15.4,,,,,,,,,wg-a,,,,AAXX 28184 07650 12/65 11504 10120 20070 30133 40178 53012 60006 80002 91800 333 10154 20025=
07650,1996-02-28 21:00:00,9,1018.1,0.3,87,7,12000,11.112,,,140,,,,,,,,,,,wg-a,,,,AAXX 28214 07650 12/62 01406 10090 20070 30136 40181 51003 60006 80000 92100=
07650,1996-02-29 03:00:00,5,1018.8,0.3,93,4,6000,7.408,,,200,,,,,,,,,,,wg-a,,,,AAXX 29034 07650 12/56 /2004 10050 20040 30142 40188 51003 60006 80001 90300=
07650,1996-02-29 06:00:00,4,1019.9,1.1,93,3,4000,3.704,,,350,3.7,11.8,,,,,,,,10,wg-a,,,,AAXX 29064 07650 12/40 /3502 10040 20030 30153 40199 53011 60006 71000 80002 90600 333 10118 20037=
07650,1996-02-29 09:00:00,8,1021,1.1,93,7,4000,7.408,,,290,,,,,,,,,,10,wg-a,,,,AAXX 29094 07650 12/40 /2904 10080 20070 30164 40210 51011 60006 71000 80001 90900=
07650,1996-02-29 12:00:00,12,1021,0.1,71,7,7000,7.408,,,280,,,,,,,,,,,wg-a,,,,AAXX 29124 07650 12557 /2804 10120 20070 30165 40210 50001 60006 81100 91200=
07650,1996-02-29 15:00:00,15,1020.3,-0.6,59,7,11000,11.112,,,240,,,,,,,,,,,wg-a,,,,AAXX 29154 07650 12561 /2406 10150 20070 30159 40203 56006 60006 81101 91500=
07650,1996-02-29 18:00:00,11,1020.8,0.4,76,7,8000,11.112,,,280,3.3,15,,,,,,,,,wg-a,,,,AAXX 29184 07650 12/58 12806 10110 20070 30163 40208 53004 60006 80001 91800 333 10150 20033=
07650,1996-02-29 21:00:00,9,1020.6,-0.2,61,2,9000,14.816,,,330,,,,,,,,,,,wg-a,,,,AAXX 29214 07650 12/59 03308 10090 20020 30161 40206 58002 60006 80000 92100=
07650,1996-03-01 00:00:00,5,1020.5,-0.2,75,1,8000,3.704,,,340,,,,,,,,,,,wg-a,,,,AAXX 01004 07650 12/58 03402 10050 20010 30159 40205 57002 60006 80000 90000=
07650,1996-03-01 03:00:00,3,1019.3,-1.2,87,1,9000,3.704,,,140,,,,,,,,,,,wg-a,,,,AAXX 01034 07650 12/59 01402 10030 20010 30147 40193 58012 60006 80000 90300=
07650,1996-03-01 06:00:00,2,1018.5,-0.9,87,0,8000,7.408,,,140,1.9,11.2,,,,,,,,,wg-a,,,,AAXX 01064 07650 12/58 01404 10020 20000 30138 40185 58009 60006 80000 90600 333 10112 20019=
07650,1996-03-01 09:00:00,7,1018.1,-0.3,70,2,500,0,,,0,,,,,,,,,,,wg-a,,,,AAXX 01094 07650 12/00 00000 10070 20020 30135 40181 58003 60006 80000 90900=
07650,1996-03-01 12:00:00,14,1014.8,-3.1,41,1,10000,35.188,,,340,,,,,,,,,,,wg-a,,,,AAXX 01124 07650 12/60 03419 10140 20010 30104 40148 58031 60006 80000 91200=
07650,1996-03-01 15:00:00,12,1012.2,-2.7,50,2,20000,53.708,,72.228,350,,,,,,,,,,,wg-a,,,,AAXX 01154 07650 12/70 03529 10120 20020 30077 40122 56027 60006 80000 91500 333 91039=
07650,1996-03-01 18:00:00,8,1011.6,-0.6,61,1,15000,57.412,,87.044,340,1.3,13.5,,,,,,,,,wg-a,,,,AAXX 01184 07650 12/65 13431 10080 20010 30071 40116 56006 60006 81040 91800 333 10135 20013 91047=
07650,1996-03-01 19:00:00,8,1011.6,-0.6,61,1,15000,57.412,,75.932,340,1.3,13.5,,,,,,,,,wg-a,,,,AAXX 01194 07650 12/65 13431 10080 20010 30071 40116 56006 60006 91900 333 10135 20013 91041=
07650,1996-03-01 21:00:00,6,1011.3,-0.3,65,0,20000,46.3,,57.412,360,,,,,,,,,,,wg-a,,,,AAXX 01214 07650 12/70 03625 10060 20000 30068 40113 58003 60006 80000 92100 333 91031=
07650,1996-03-02 00:00:00,6,1010.5,-0.9,61,-1,20000,25.928,,,360,,,,,,,,,,,wg-a,,,,AAXX 02004 07650 12/70 03614 10060 21010 30059 40105 58009 60006 80000 90000=
07650,1996-03-02 03:00:00,5,1009.6,-0.9,60,-2,20000,29.632,,,10,,,,,,,,,,,wg-a,,,,AAXX 02034 07650 12/70 00116 10050 21020 30050 40096 58009 60006 80000 90300=
07650,1996-03-02 06:00:00,3,1010.9,1.3,60,-4,20000,14.816,,,20,3.3,7.5,,,,,,,,,wg-a,,,,AAXX 02064 07650 12/70 00208 10030 21040 30063 40109 53013 60006 80000 90600 333 10075 20033=
07650,1996-03-02 09:00:00,7,1013.5,2.7,53,-2,500,14.816,,,10,,,,,,,,,,,wg-a,,,,AAXX 02094 07650 12500 20108 10070 21020 30090 40135 51027 60006 82502 90900=
07650,1996-03-02 12:00:00,10,1014,0.5,50,0,500,18.52,,,360,,,,,,,,,,,wg-a,,,,AAXX 02124 07650 12500 73610 10100 20000 30095 40140 51005 60006 875// 91200=
07650,1996-03-02 15:00:00,9,1014,-0,46,-2,500,22.224,,,10,,,,,,,,,,60,wg-a,,,,AAXX 02154 07650 02400 70112 10090 21020 30095 40140 55000 61000 76062 8457/ 91500 333 ////=
07650,1996-03-02 18:00:00,8,1014.5,0.5,53,-1,25000,7.408,,,360,3,9.9,,,,,,,,1,wg-a,,,,AAXX 02184 07650 02675 73604 10080 21010 30100 40145 53005 61000 70162 8357/ 91800 333 10099 20030 ////=
07650,1996-03-02 21:00:00,5,1014.6,-0,70,0,20000,14.816,,,360,,,,,,,,,,,wg-a,,,,AAXX 02214 07650 12670 /3608 10050 20000 30100 40146 54000 60006 82532 92100=
07650,1996-03-03 00:00:00,5,1014.8,0.2,48,-5,20000,18.52,,,10,,,,,,,,,,,wg-a,,,,AAXX 03004 07650 12670 40110 10050 21050 30102 40148 51002 60006 82532 90000=
07650,1996-03-03 03:00:00,2,1013.7,-1.1,55,-6,15000,11.112,,,10,,,,,,,,,,,wg-a,,,,AAXX 03034 07650 12/65 10106 10020 21060 30091 40137 58011 60006 81030 90300=
07650,1996-03-03 06:00:00,2,1013.5,-0.2,51,-7,18000,14.816,,,30,1.1,7.7,,,,,,,,,wg-a,,,,AAXX 03064 07650 02/68 50308 10020 21070 30089 40135 55002 60006 84032 90600 333 10077 20011 61000=
07650,1996-03-03 09:00:00,5,1013.9,0.4,41,-7,500,7.408,,,20,,,,,,,,,,,wg-a,,,,AAXX 03094 07650 12/00 /0204 10050 21070 30093 40139 50004 60006 90900=
07650,1996-03-03 12:00:00,10,1012.6,-1.2,37,-4,35000,22.224,,,330,,,,,,,,,,,wg-a,,,,AAXX 03124 07650 12/81 63312 10100 21040 30081 40126 58012 60006 81032 91200=
07650,1996-03-03 15:00:00,10,1011.4,-1.2,34,-5,35000,18.52,,,330,,,,,,,,,,,wg-a,,,,AAXX 03154 07650 12/81 33310 10100 21050 30069 40114 56012 60006 81032 91500=
07650,1996-03-03 18:00:00,7,1012.2,0.8,42,-5,35000,31.484,,,350,1.4,10.5,,,,,,,,,wg-a,,,,AAXX 03184 07650 12/81 /3517 10070 21050 30077 40122 53008 60006 80002 91800 333 10105 20014=
07650,1996-03-03 21:00:00,4,1013.3,1,52,-5,25000,11.112,,,20,,,,,,,,,,,wg-a,,,,AAXX 03214 07650 12/75 10206 10040 21050 30087 40133 51010 60006 80002 92100=
07650,1996-03-04 00:00:00,1,1014.4,1,64,-5,20000,11.112,,,20,,,,,,,,,,,wg-a,,,,AAXX 04004 07650 12/70 00206 10010 21050 30097 40144 52010 60006 80000 90000=
07650,1996-03-04 03:00:00,0,1014.5,0.1,74,-4,18000,0,,,0,,,,,,,,,,,wg-a,,,,AAXX 04034 07650 12/68 20000 10000 21040 30098 40145 50001 60006 82032 90300=
07650,1996-03-04 06:00:00,1,1015.3,0.8,75,-3,15000,11.112,,,30,-0.5,7.2,,,,,,,,,wg-a,,,,AAXX 04064 07650 12665 40306 10010 21030 30106 40153 53008 60006 83530 90600 333 10072 21005=
07650,1996-03-04 09:00:00,3,1016.3,1.1,60,-4,12000,7.408,,,40,,,,,,,,,,,wg-a,,,,AAXX 04094 07650 12662 30404 10030 21040 30117 40163 51011 60006 83530 90900=
07650,1996-03-04 12:00:00,9,1015.2,-1,37,-5,15000,11.112,,,300,,,,,,,,,,,wg-a,,,,AAXX 04124 07650 12765 13006 10090 21050 30107 40152 58010 60006 81500 91200=
07650,1996-03-04 15:00:00,10,1014.1,-1.1,32,-6,20000,25.928,,,310,,,,,,,,,,,wg-a,,,,AAXX 04154 07650 12670 /3114 10100 21060 30096 40141 56011 60006 81100 91500=
07650,1996-03-04 18:00:00,7,1014.9,0.7,42,-5,25000,31.484,,,340,0.4,10.5,,,,,,,,,wg-a,,,,AAXX 04184 07650 12/75 03417 10070 21050 30103 40149 53007 60006 80000 91800 333 10105 20004=
07650,1996-03-04 21:00:00,6,1016.5,1.6,45,-5,20000,35.188,,,350,,,,,,,,,,,wg-a,,,,AAXX 04214 07650 12/70 03519 10060 21050 30119 40165 53016 60006 80000 92100=
07650,1996-03-05 00:00:00,3,1018.6,2.1,48,-7,20000,14.816,,,20,,,,,,,,,,,wg-a,,,,AAXX 05004 07650 12/70 00208 10030 21070 30140 40186 51021 60006 80000 90000=
07650,1996-03-05 03:00:00,0,1020.3,1.6,64,-6,20000,3.704,,,160,,,,,,,,,,,wg-a,,,,AAXX 05034 07650 12/70 01602 10000 21060 30156 40203 51016 60006 80000 90300=
07650,1996-03-05 06:00:00,-1,1022,1.7,69,-6,20000,11.112,,,150,-1.4,7,,,,,,,,,wg-a,,,,AAXX 05064 07650 12/70 01506 11010 21060 30173 40220 51017 60006 80000 90600 333 10070 21014=
07650,1996-03-05 09:00:00,5,1023.5,1.6,52,-4,12000,0,,,0,,,,,,,,,,,wg-a,,,,AAXX 05094 07650 12/62 10000 10050 21040 30189 40235 51016 60006 81030 90900=
07650,1996-03-05 12:00:00,12,1023.6,0.2,40,-1,12000,7.408,,,230,,,,,,,,,,,wg-a,,,,AAXX 05124 07650 12762 62304 10120 21010 30191 40236 51002 60006 85280 91200=
07650,1996-03-05 15:00:00,11,1022.6,-1,47,0,18000,18.52,,,140,,,,,,,,,,,wg-a,,,,AAXX 05154 07650 12768 71410 10110 20000 30181 40226 56010 60006 8583/ 91500=
07650,1996-03-05 18:00:00,10,1023,0.4,62,3,18000,7.408,,,200,-1.2,12.6,,,,,,,,,wg-a,,,,AAXX 05184 07650 12768 42004 10100 20030 30185 40230 53004 60006 83830 91800 333 10126 21012=
07650,1996-03-05 21:00:00,4,1023.6,0.5,81,1,18000,3.704,,,190,,,,,,,,,,,wg-a,,,,AAXX 05214 07650 12/68 31902 10040 20010 30190 40236 52005 60006 82031 92100=
07650,1996-03-06 00:00:00,3,1023.5,-0.2,87,1,12000,3.704,,,140,,,,,,,,,,,wg-a,,,,AAXX 06004 07650 12/62 11402 10030 20010 30188 40235 58002 60006 80001 90000=
07650,1996-03-06 03:00:00,1,1022.2,-1.3,93,0,11000,3.704,,,160,,,,,,,,,,,wg-a,,,,AAXX 06034 07650 12/61 11602 10010 20000 30175 40222 58013 60006 80001 90300=
07650,1996-03-06 06:00:00,0,1022,-0.2,93,-1,7000,7.408,,,140,0.1,9.5,,,,,,,,,wg-a,,,,AAXX 06064 07650 12/57 31404 10000 21010 30173 40220 55002 60006 83030 90600 333 10095 20001=
07650,1996-03-06 09:00:00,5,1021.4,-0.5,87,3,500,3.704,,,320,,,,,,,,,,,wg-a,,,,AAXX 06094 07650 12/00 03202 10050 20030 30168 40214 58005 60006 80000 90900=
07650,1996-03-06 12:00:00,10,1019.8,-1.5,57,2,12000,11.112,,,260,,,,,,,,,,,wg-a,,,,AAXX 06124 07650 12562 42606 10100 20020 30153 40198 58015 60006 82130 91200=
07650,1996-03-06 15:00:00,12,1017.9,-1.9,47,1,12000,11.112,,,280,,,,,,,,,,,wg-a,,,,AAXX 06154 07650 12562 32806 10120 20010 30134 40179 56019 60006 81102 91500=
07650,1996-03-06 18:00:00,10,1017.4,-0.5,57,2,20000,11.112,,,180,-0.1,12.4,,,,,,,,,wg-a,,,,AAXX 06184 07650 12570 41806 10100 20020 30129 40174 56005 60006 81530 91800 333 10124 21001=
07650,1996-03-06 21:00:00,6,1017,-0.5,75,2,12000,3.704,,,50,,,,,,,,,,,wg-a,,,,AAXX 06214 07650 12662 30502 10060 20020 30124 40170 58005 60006 83530 92100=
07650,1996-03-07 00:00:00,5,1015.6,-1.4,81,2,9000,7.408,,,20,,,,,,,,,,,wg-a,,,,AAXX 07004 07650 12659 /0204 10050 20020 30110 40156 57014 60006 81530 90000=
07650,1996-03-07 03:00:00,3,1013.5,-2.1,87,1,9000,11.112,,,140,,,,,,,,,,,wg-a,,,,AAXX 07034 07650 12/59 21406 10030 20010 30089 40135 58021 60006 82030 90300=
07650,1996-03-07 06:00:00,3,1012.5,-1,87,1,500,3.704,,,160,1.6,9.5,,,,,,,,,wg-a,,,,AAXX 07064 07650 12/00 31602 10030 20010 30079 40125 56010 60006 83030 90600 333 10095 20016=
07650,1996-03-07 09:00:00,10,1011.8,-0.6,66,4,500,7.408,,,280,,,,,,,,,,,wg-a,,,,AAXX 07094 07650 12400 42804 10100 20040 30073 40118 58006 60006 81632 90900=
07650,1996-03-07 12:00:00,11,1012,0.2,54,2,10000,7.408,,,280,,,,,,,,,,,wg-a,,,,AAXX 07124 07650 12660 72804 10110 20020 30075 40120 52002 60006 8583/ 91200=
07650,1996-03-07 15:00:00,11,1012,-0,58,3,12000,7.408,,,90,,,,,,,,,,,wg-a,,,,AAXX 07154 07650 02662 /0904 10110 20030 30075 40120 55000 61000 84830 91500 333 ////=
07650,1996-03-07 18:00:00,9,1013.8,1.8,61,2,15000,31.484,,,100,1.9,11.6,,,,,,,,1,wg-a,,,,AAXX 07184 07650 32665 31017 10090 20020 30093 40138 53018 70161 83530 91800 333 10116 20019=
07650,1996-03-07 21:00:00,9,1015.4,1.6,57,1,15000,11.112,,,140,,,,,,,,,,,wg-a,,,,AAXX 07214 07650 12665 51406 10090 20010 30109 40154 51016 60006 83530 92100=
07650,1996-03-08 00:00:00,9,1016,0.6,49,-1,12000,7.408,,,140,,,,,,,,,,,wg-a,,,,AAXX 08004 07650 12662 41404 10090 21010 30115 40160 53006 60006 81532 90000=
07650,1996-03-08 03:00:00,9,1016.2,0.2,43,-3,15000,18.52,,,120,,,,,,,,,,,wg-a,,,,AAXX 08034 07650 12/65 21210 10090 21030 30117 40162 51002 60006 80002 90300=
07650,1996-03-08 06:00:00,8,1016.9,0.7,46,-3,13000,18.52,,,120,8.2,9.4,,,,,,,,,wg-a,,,,AAXX 08064 07650 02/63 21210 10080 21030 30124 40169 53007 60006 81032 90600 333 10094 20082 61000=
07650,1996-03-08 09:00:00,13,1018.4,1.5,35,-2,15000,35.188,,,120,,,,,,,,,,,wg-a,,,,AAXX 08094 07650 12/65 11219 10130 21020 30139 40184 53015 60006 80002 90900=
07650,1996-03-08 12:00:00,15,1018.2,0.1,36,0,15000,22.224,,,110,,,,,,,,,,,wg-a,,,,AAXX 08124 07650 12665 21112 10150 20000 30138 40182 50001 60006 81130 91200=
07650,1996-03-08 15:00:00,14,1018.2,-0.1,36,-1,20000,25.928,,42.596,110,,,,,,,,,,,wg-a,,,,AAXX 08154 07650 12670 51114 10140 21010 30137 40182 55001 60006 82530 91500 333 91023=
07650,1996-03-08 18:00:00,12,1019.3,1.1,40,-1,20000,25.928,,,120,8.3,15.8,,,,,,,,,wg-a,,,,AAXX 08184 07650 12770 61214 10120 21010 30148 40193 52011 60006 82530 91800 333 10158 20083=
07650,1996-03-08 21:00:00,9,1020.1,0.8,49,-1,20000,0,,,0,,,,,,,,,,,wg-a,,,,AAXX 08214 07650 12/70 50000 10090 21010 30156 40201 51008 60006 85030 92100=
07650,1996-03-09 00:00:00,8,1020.3,0.1,61,1,20000,3.704,,,340,,,,,,,,,,,wg-a,,,,AAXX 09004 07650 12/70 53402 10080 20010 30157 40203 50001 60006 85030 90000=
07650,1996-03-09 03:00:00,10,1019.8,-0.4,53,1,20000,18.52,,,110,,,,,,,,,,,wg-a,,,,AAXX 09034 07650 12/70 61110 10100 20010 30153 40198 58004 60006 8607/ 90300=
07650,1996-03-09 06:00:00,9,1019.8,-0,57,1,20000,22.224,,,110,8.4,11.7,,,,,,,,,wg-a,,,,AAXX 09064 07650 12/70 41112 10090 20010 30153 40198 55000 60006 83031 90600 333 10117 20084=
07650,1996-03-09 09:00:00,13,1020.3,0.5,41,0,14000,22.224,,,100,,,,,,,,,,,wg-a,,,,AAXX 09094 07650 12/64 31012 10130 20000 30158 40203 50005 60006 83030 90900=
07650,1996-03-09 12:00:00,14,1019,-1.3,38,0,18000,14.816,,,90,,,,,,,,,,,wg-a,,,,AAXX 09124 07650 12668 40908 10140 20000 30145 40190 58013 60006 81530 91200=
07650,1996-03-09 15:00:00,14,1019,-1.3,41,1,18000,14.816,,,90,,,,,,,,,,,wg-a,,,,AAXX 09154 07650 12668 40908 10140 20010 30130 40190 58013 60006 81530 91500=
07650,1996-03-09 18:00:00,12,1018.5,0.6,44,0,10000,22.224,,,100,8.5,14.6,,,,,,,,,wg-a,,,,AAXX 09184 07650 12/60 61012 10120 20000 30140 40185 53006 60006 8607/ 91800 333 10146 20085=
07650,1996-03-09 21:00:00,10,1018.9,0.4,50,0,10000,18.52,,,110,,,,,,,,,,,wg-a,,,,AAXX 09214 07650 12660 71110 10100 20000 30144 40189 51004 60006 8357/ 92100=
07650,1996-03-10 00:00:00,9,1018.5,-0.4,53,0,10000,18.52,,,100,,,,,,,,,,,wg-a,,,,AAXX 10004 07650 12660 /1010 10090 20000 30140 40185 58004 60006 82530 90000=
07650,1996-03-10 03:00:00,8,1017.6,-0.9,57,0,10000,7.408,,,140,,,,,,,,,,,wg-a,,,,AAXX 10034 07650 12/60 51404 10080 20000 30131 40176 58009 60006 85050 90300=
07650,1996-03-10 06:00:00,6,1017.7,,75,2,8000,3.704,,,140,6.2,11.5,,,,,,,,,wg-a,,,,AAXX 10064 07650 12/58 /1402 10060 20020 30131 40177 60006 86030 90600 333 10115 20062=
07650,1996-03-10 09:00:00,9,1017.5,-0.1,66,3,6000,3.704,,,230,,,,,,,,,,,wg-a,,,,AAXX 10094 07650 12856 72302 10090 20030 30130 40175 57001 60006 87030 90900=
07650,1996-03-10 12:00:00,13,1016,-1.5,47,2,12000,11.112,,,290,,,,,,,,,,,wg-a,,,,AAXX 10124 07650 12662 22906 10130 20020 30115 40160 58015 60006 82500 91200=
07650,1996-03-10 15:00:00,13,1014.5,-1.5,51,3,12000,18.52,,,240,,,,,,,,,,,wg-a,,,,AAXX 10154 07650 12662 52410 10130 20030 30100 40145 56015 60006 83532 91500=
07650,1996-03-10 18:00:00,11,1015.4,0.9,62,4,9000,7.408,,,200,6.3,13.6,,,,,,,,,wg-a,,,,AAXX 10184 07650 12659 62004 10110 20040 30109 40154 53009 60006 82530 91800 333 10136 20063=
07650,1996-03-10 21:00:00,10,1015.6,0.2,66,4,12000,7.408,,,180,,,,,,,,,,,wg-a,,,,AAXX 10214 07650 12662 61804 10100 20040 30111 40156 51002 60006 83530 92100=
07650,1996-03-11 03:00:00,6,1014.2,-1,65,0,12000,18.52,,,320,,,,,,,,,,,wg-a,,,,AAXX 11034 07650 12/62 33210 10060 20000 30096 40142 56010 60006 82032 90300=
07650,1996-03-11 06:00:00,3,1013.6,-0.6,75,-1,6000,7.408,,,10,3.3,10.9,,,,,,,,,wg-a,,,,AAXX 11064 07650 12/56 10104 10030 21010 30090 40136 56006 60006 81030 90600 333 10109 20033=
07650,1996-03-11 09:00:00,7,1013.6,,66,1,4500,7.408,,,310,,,,,,,,,,10,wg-a,,,,AAXX 11094 07650 32/45 03104 10070 20010 30091 40136 71000 80000 90900=
07650,1996-03-11 12:00:00,11,1012.8,-0.8,50,1,500,14.816,,,270,,,,,,,,,,,wg-a,,,,AAXX 11124 07650 32/00 02708 10110 20010 30083 40128 58008 80000 91200=
07650,1996-03-11 21:00:00,7,1009.9,-0.6,57,-1,12000,18.52,,,320,,,,,,,,,,,wg-a,,,,AAXX 11214 07650 12/62 03210 10070 21010 30054 40099 58006 60006 80000 92100=
07650,1996-03-12 00:00:00,4,1009.2,-0.8,56,-4,12000,11.112,,,10,,,,,,,,,,,wg-a,,,,AAXX 12004 07650 12/62 00106 10040 21040 30046 40092 58008 60006 80000 90000=
07650,1996-03-12 03:00:00,3,1007.6,-1.6,56,-5,15000,18.52,,,350,,,,,,,,,,,wg-a,,,,AAXX 12034 07650 12/65 03510 10030 21050 30030 40076 58016 60006 80000 90300=
07650,1996-03-12 06:00:00,4,1007,-0.6,52,-5,11000,3.704,,,350,1.7,10.4,,,,,,,,,wg-a,,,,AAXX 12064 07650 12/61 13502 10040 21050 30024 40070 55006 60006 81040 90600 333 10104 20017=
07650,1996-03-12 09:00:00,9,1006.1,-0.8,43,-3,15000,18.52,,,310,,,,,,,,,,,wg-a,,,,AAXX 12094 07650 12/65 43110 10090 21030 30016 40061 58008 60006 83042 90900=
07650,1996-03-12 12:00:00,14,1004.1,-1.9,21,-8,15000,35.188,,,320,,,,,,,,,,,wg-a,,,,AAXX 12124 07650 12/65 13219 10140 21080 39997 40041 58019 60006 81040 91200=
07650,1996-03-12 15:00:00,15,1002.4,-1.7,29,-3,15000,14.816,,,300,,,,,,,,,,,wg-a,,,,AAXX 12154 07650 12/65 13008 10150 21030 39980 40024 56017 60006 81040 91500=
07650,1996-03-12 18:00:00,10,1001.8,-0.6,62,3,15000,7.408,,,240,4.1,14.9,,,,,,,,,wg-a,,,,AAXX 12184 07650 12/65 22404 10100 20030 39974 40018 55006 60006 81042 91800 333 10149 20041=
07650,1996-03-12 21:00:00,7,1002.3,0.4,66,1,12000,3.704,,,250,,,,,,,,,,,wg-a,,,,AAXX 12214 07650 12/62 02502 10070 20010 39978 40023 52004 60006 80000 92100=
07650,1996-03-13 00:00:00,7,1003.1,0.8,53,-2,12000,11.112,,,140,,,,,,,,,,,wg-a,,,,AAXX 13004 07650 12/62 01406 10070 21020 39986 40031 51008 60006 80000 90000=
07650,1996-03-13 03:00:00,7,1002.9,-0.2,61,0,9000,7.408,,,70,,,,,,,,,,,wg-a,,,,AAXX 13034 07650 12/59 30704 10070 20000 39984 40029 58002 60006 80002 90300=
07650,1996-03-13 06:00:00,7,1003.2,0.3,76,3,6000,25.928,,,100,4.8,10.1,,,,,,,,,wg-a,,,,AAXX 13064 07650 12/56 21014 10070 20030 39987 40032 51003 60006 81031 90600 333 10101 20048=
07650,1996-03-13 09:00:00,12,1003.6,0.5,62,5,7000,18.52,,,110,,,,,,,,,,,wg-a,,,,AAXX 13094 07650 12557 51110 10120 20050 39992 40036 53005 60006 8/500 90900=
07650,1996-03-13 12:00:00,15,1003.9,,55,6,8000,29.632,,,150,,,,,,,,,,,wg-a,,,,AAXX 13124 07650 32558 /1516 10150 20060 39995 40039 85200 91200=
07650,1996-03-13 15:00:00,14,1003.6,-0.3,58,6,12000,25.928,,,140,,,,,,,,,,,wg-a,,,,AAXX 13154 07650 12562 71414 10140 20060 39992 40036 58003 60006 8587/ 91500=
07650,1996-03-13 18:00:00,12,1003.9,0.3,62,5,8000,25.928,,,130,7,15.1,,,,,,,,,wg-a,,,,AAXX 13184 07650 12558 71314 10120 20050 39995 40039 53003 60006 8557/ 91800 333 10151 20070=
07650,1996-03-13 21:00:00,11,1005.1,1.2,62,4,8000,25.928,,,110,,,,,,,,,,,wg-a,,,,AAXX 13214 07650 12558 71114 10110 20040 30007 40051 51012 60006 8557/ 92100=
07650,1996-03-14 00:00:00,10,1004.9,-0.3,62,3,10000,25.928,,,100,,,,,,,,,,,wg-a,,,,AAXX 14004 07650 12560 71014 10100 20030 30004 40049 58003 60006 8557/ 90000=
07650,1996-03-14 03:00:00,10,1002.6,-2.2,71,5,10000,29.632,,,100,,,,,,,,,,,wg-a,,,,AAXX 14034 07650 12560 81016 10100 20050 39982 40026 58022 60006 885// 90300=
07650,1996-03-14 06:00:00,10,1001.4,-1.2,82,7,8000,46.3,,,100,9.4,12.2,,1,,,1,,,60,wg-a,,,,AAXX 14064 07650 02558 81025 10100 20070 39970 40014 56012 60014 76062 8657/ 90600 333 10122 20094 60017=
07650,1996-03-14 09:00:00,11,1001.4,-0,82,8,9000,31.484,,53.708,110,,,,3,,,,,,60,wg-a,,,,AAXX 14094 07650 12559 71117 10110 20080 39970 40014 55000 60037 76062 8557/ 90900 333 91029=
07650,1996-03-14 12:00:00,11,1002.2,0.8,87,9,7000,31.484,,,100,,,,4,,,,,,61,wg-a,,,,AAXX 14124 07650 02657 81017 10110 20090 39978 40022 52008 60076 76166 8457/ 91200 333 60047=
07650,1996-03-14 15:00:00,11,1002.6,,82,8,7000,31.484,,53.708,110,,,,3,,,,,,60,wg-a,,,,AAXX 14154 07650 12657 81117 10110 20080 39982 40026 60037 76062 8557/ 91500 333 91029=
07650,1996-03-14 18:00:00,10,1004,,82,7,8000,22.224,,,130,9.4,11.4,,3,,,,,,60,wg-a,,,,AAXX 14184 07650 12658 81312 10100 20070 39995 40040 60037 76062 8557/ 91800 333 10114 20094=
07650,1996-03-14 21:00:00,9,1004.7,0.7,87,7,10000,22.224,,,140,,,,3,,,,,,61,wg-a,,,,AAXX 14214 07650 12660 81412 10090 20070 30002 40047 51007 60037 76162 8457/ 92100=
07650,1996-03-15 00:00:00,10,1003,-1.7,87,8,8000,31.484,,,90,,,,4,,,,,,60,wg-a,,,,AAXX 15004 07650 02658 80917 10100 20080 39985 40030 56017 60076 76062 8357/ 90000 333 60047=
07650,1996-03-15 03:00:00,11,1001.1,-1.8,76,7,12000,35.188,,53.708,100,,,,2,,,,,,1,wg-a,,,,AAXX 15034 07650 12662 81019 10110 20070 39967 40011 58018 60027 70162 8457/ 90300 333 91029=
07650,1996-03-15 06:00:00,11,1001.4,0.3,76,7,11000,29.632,,,100,9.3,11.3,,1,,,23,,,60,wg-a,,,,AAXX 15064 07650 02561 81016 10110 20070 39970 40014 53003 60234 76062 8457/ 90600 333 10113 20093 60017=
07650,1996-03-15 09:00:00,10,1002.1,0.7,87,8,7000,11.112,,,90,,,,2,,,,,,60,wg-a,,,,AAXX 15094 07650 12557 80906 10100 20080 39977 40021 53007 60027 76066 8557/ 90900=
07650,1996-03-15 12:00:00,10,1001.8,-0.3,93,9,7000,14.816,,,330,,,,6,,,,,,60,wg-a,,,,AAXX 15124 07650 02357 83308 10100 20090 39974 40018 58003 60086 76066 8557/ 91200 333 60067=
07650,1996-03-15 15:00:00,10,1000.5,-1.3,93,9,6000,22.224,,,10,,,,3,,,,,,61,wg-a,,,,AAXX 15154 07650 12356 80112 10100 20090 39961 40005 56013 60037 76166 8552/ 91500=
07650,1996-03-15 18:00:00,9,1001.8,1.2,93,8,6000,7.408,,,340,9.2,10.7,,1,,,,,,61,wg-a,,,,AAXX 15184 07650 12356 83404 10090 20080 39973 40018 52012 60017 76166 8552/ 91800 333 10107 20092=
07650,1996-03-15 21:00:00,9,1002.9,1.1,93,8,8000,11.112,,,240,,,,0,,,,,,1,wg-a,,,,AAXX 15214 07650 12558 82406 10090 20080 39984 40029 51011 60007 70166 8452/ 92100=
07650,1996-03-16 00:00:00,9,1003.3,0.4,93,8,8000,11.112,,,20,,,,0,,,,,,1,wg-a,,,,AAXX 16004 07650 02558 70206 10090 20080 39988 40033 53004 60016 70166 8452/ 90000 333 60007=
07650,1996-03-16 03:00:00,8,1003.2,-0.1,93,7,10000,14.816,,,280,,,,,,,,,,,wg-a,,,,AAXX 16034 07650 12660 82808 10080 20070 39987 40032 58001 60006 8457/ 90300=
07650,1996-03-16 06:00:00,8,1003.5,0.3,93,7,10000,14.816,,,300,8.3,9.3,,,,,13,,,,wg-a,,,,AAXX 16064 07650 12660 83008 10080 20070 39990 40035 51003 60134 8457/ 90600 333 10093 20083=
07650,1996-03-16 09:00:00,10,1004.1,0.6,87,8,10000,14.816,,,290,,,,0,,,,,,21,wg-a,,,,AAXX 16094 07650 12560 72908 10100 20080 39996 40041 51006 60007 72162 8457/ 90900=
07650,1996-03-16 12:00:00,12,1004,-0,76,8,10000,25.928,,,300,,,,,,,,,,,wg-a,,,,AAXX 16124 07650 12660 83014 10120 20080 39996 40040 55000 60016 8457/ 91200=
07650,1996-03-16 15:00:00,14,1004,-0,67,8,12000,31.484,,,340,,,,,,,,,,,wg-a,,,,AAXX 16154 07650 12662 73417 10140 20080 39996 40040 55000 60006 8457/ 91500=
07650,1996-03-16 18:00:00,11,1006.4,2.4,66,5,15000,31.484,,,340,8.2,14.4,,,,,,,,,wg-a,,,,AAXX 16184 07650 32565 73417 10110 20050 30020 40064 53024 8457/ 91800 333 10144 20082=
07650,1996-03-16 21:00:00,10,1008.1,1.6,71,5,20000,29.632,,,340,,,,,,,,,,,wg-a,,,,AAXX 16214 07650 12670 73416 10100 20050 30036 40081 53016 60006 8157/ 92100=
07650,1996-03-17 00:00:00,10,1009.2,1.1,71,5,15000,22.224,,,340,,,,,,,,,,60,wg-a,,,,AAXX 17004 07650 02665 73412 10100 20050 30047 40092 53011 61000 76062 8257/ 90000 333 6100=
07650,1996-03-17 03:00:00,9,1009.7,0.5,71,4,15000,18.52,,,10,,,,,,,,,,3,wg-a,,,,AAXX 17034 07650 02665 70110 10090 20040 30052 40097 50005 61000 70362 8257/ 90300 333 ////=
07650,1996-03-17 06:00:00,9,1010.7,1,76,5,15000,7.408,,,360,8.7,10.9,,,,,,,,60,wg-a,,,,AAXX 17064 07650 02665 73604 10090 20050 30062 40107 53010 60004 76062 8357/ 90600 333 10109 20087 61000=
07650,1996-03-17 09:00:00,10,1011.7,1,76,6,15000,14.816,,,360,,,,0,,,,,,60,wg-a,,,,AAXX 17094 07650 12665 83608 10100 20060 30072 40117 52010 60007 76066 8457/ 90900=
07650,1996-03-17 12:00:00,11,1011.9,0.2,82,8,12000,22.224,,,10,,,,,,,,,,60,wg-a,,,,AAXX 17124 07650 02662 80112 10110 20080 30074 40119 50002 60016 76066 8457/ 91200 333 61000=
07650,1996-03-17 15:00:00,11,1011.4,-0.5,82,8,12000,25.928,,,340,,,,,,,,,,2,wg-a,,,,AAXX 17154 07650 02662 83414 10110 20080 30069 40114 56005 61000 70266 8157/ 91500 333 ////=
07650,1996-03-17 18:00:00,9,1012,0.6,87,7,12000,22.224,,,350,8.4,12.1,,,,,,,,2,wg-a,,,,AAXX 17184 07650 02662 83512 10090 20070 30075 40120 53006 61000 70262 8457/ 91800 333 10121 20084 ////=
07650,1996-03-17 21:00:00,9,1012.6,0.6,87,7,15000,18.52,,,10,,,,,,,,,,,wg-a,,,,AAXX 17214 07650 12565 80110 10090 20070 30081 40126 51006 60006 875// 92100=
07650,1996-03-18 00:00:00,9,1013.3,0.7,81,6,15000,7.408,,,40,,,,,,,,,,,wg-a,,,,AAXX 18004 07650 12665 70404 10090 20060 30088 40133 51007 60006 8253/ 90000=
07650,1996-03-18 06:00:00,8,1013.5,0.4,87,6,8000,0,,,0,7.8,9.2,,,,,1,,,60,wg-a,,,,AAXX 18064 07650 02658 70000 10080 20060 30090 40135 53004 60014 76062 8357/ 90600 333 10092 20078 61000=
07650,1996-03-18 09:00:00,9,1014.5,1,87,7,6000,7.408,,,290,,,,0,,,,,,3,wg-a,,,,AAXX 18094 07650 12656 72904 10090 20070 30100 40145 52010 60007 70362 8357/ 90900=
07650,1996-03-18 12:00:00,13,1014,-0.5,72,8,8000,14.816,,,270,,,,,,,,,,,wg-a,,,,AAXX 18124 07650 12558 /2708 10130 20080 30095 40140 58005 60006 82270 91200=
07650,1996-03-18 15:00:00,15,1012.8,-1.1,55,6,12000,18.52,,,300,,,,,,,,,,,wg-a,,,,AAXX 18154 07650 12562 33010 10150 20060 30084 40128 56011 60006 81802 91500=
07650,1996-03-18 18:00:00,11,1014,1.1,66,5,12000,18.52,,,330,7.9,15.1,,,,,,,,,wg-a,,,,AAXX 18184 07650 32562 23310 10110 20050 30095 40140 53011 81102 91800 333 10151 20079=
07650,1996-03-18 21:00:00,8,1014.6,0.6,76,4,12000,14.816,,,360,,,,,,,,,,,wg-a,,,,AAXX 18214 07650 12/62 13608 10080 20040 30101 40146 51006 60006 81030 92100=
07650,1996-03-19 00:00:00,5,1015,0.3,87,3,10000,7.408,,,360,,,,,,,,,,,wg-a,,,,AAXX 19004 07650 12/60 03604 10050 20030 30104 40150 51003 60006 80000 90000=
07650,1996-03-19 03:00:00,3,1014.4,-0.6,93,2,10000,7.408,,,140,,,,,,,,,,,wg-a,,,,AAXX 19034 07650 12/60 11404 10030 20020 30098 40144 58006 60006 81030 90300=
07650,1996-03-19 06:00:00,3,1014.2,-0.2,93,2,4500,3.704,,,140,2.6,11,,,,,,,,10,wg-a,,,,AAXX 19064 07650 02/45 31402 10030 20020 30096 40142 55002 60006 71000 81032 90600 333 10110 20026 60004=
07650,1996-03-19 09:00:00,8,1014,-0.1,87,6,6000,3.704,,,280,,,,,,,,,,,wg-a,,,,AAXX 19094 07650 12/56 32802 10080 20060 30095 40140 58001 60006 80001 90900=
07650,1996-03-19 12:00:00,13,1012.8,-1.1,67,7,8000,7.408,,,300,,,,,,,,,,,wg-a,,,,AAXX 19124 07650 12658 /3004 10130 20070 30084 40128 58011 60006 81102 91200=
07650,1996-03-19 18:00:00,11,1012.1,0.4,76,7,8000,7.408,,,150,2.7,16.2,,,,,,,,,wg-a,,,,AAXX 19184 07650 12/58 /1504 10110 20070 30076 40121 53004 60006 82032 91800 333 10162 20027=
07650,1996-03-19 21:00:00,9,1012.2,0.1,76,5,8000,11.112,,,120,,,,,,,,,,,wg-a,,,,AAXX 19214 07650 12/58 41206 10090 20050 30077 40122 50001 60006 80002 92100=
07650,1996-03-20 00:00:00,8,1012,-0.2,76,4,7000,11.112,,,80,,,,,,,,,,,wg-a,,,,AAXX 20004 07650 12457 30806 10080 20040 30075 40120 58002 60006 81602 90000=
07650,1996-03-20 03:00:00,8,1011.1,-0.9,76,4,8000,14.816,,,100,,,,,,,,,,,wg-a,,,,AAXX 20034 07650 12558 21008 10080 20040 30066 40111 58009 60006 81502 90300=
07650,1996-03-20 06:00:00,9,1011,-0.1,76,5,8000,18.52,,,100,7.7,11.3,,,,,,,,,wg-a,,,,AAXX 20064 07650 12558 /1010 10090 20050 30065 40110 55001 60006 81502 90600 333 10113 20077=
07650,1996-03-20 09:00:00,13,1011.9,1,72,8,8000,18.52,,,100,,,,,,,,,,,wg-a,,,,AAXX 20094 07650 12558 71010 10130 20080 30075 40119 53010 60006 82572 90900=
07650,1996-03-20 12:00:00,16,1011.9,0,63,9,8000,22.224,,,140,,,,,,,,,,,wg-a,,,,AAXX 20124 07650 12558 71412 10160 20090 30075 40119 50000 60006 8557/ 91200=
07650,1996-03-20 15:00:00,16,1011.2,-0.7,59,8,18000,22.224,,,160,,,,,,,,,,,wg-a,,,,AAXX 20154 07650 12568 41612 10160 20080 30068 40112 57007 60006 83830 91500=
07650,1996-03-20 18:00:00,13,1012.2,1,77,9,18000,11.112,,,160,8.8,16.4,,,,,,,,,wg-a,,,,AAXX 20184 07650 12568 31606 10130 20090 30078 40122 53010 60006 81802 91800 333 10164 20088=
07650,1996-03-20 21:00:00,11,1013.3,1,87,9,18000,7.408,,,140,,,,,,,,,,,wg-a,,,,AAXX 20214 07650 12/68 31404 10110 20090 30088 40133 51010 60006 80002 92100=
07650,1996-03-21 00:00:00,9,1013.6,0.3,87,7,18000,3.704,,,40,,,,,,,,,,,wg-a,,,,AAXX 21004 07650 12/68 30402 10090 20070 30091 40136 50003 60006 80002 90000=
07650,1996-03-21 03:00:00,9,1013.4,-0.2,87,7,15000,0,,,0,,,,,,,,,,,wg-a,,,,AAXX 21034 07650 12/65 20000 10090 20070 30089 40134 57002 60006 80001 90300=
07650,1996-03-21 06:00:00,7,1014.2,0.8,93,6,7000,7.408,,,40,6.8,13.3,,,,,,,,,wg-a,,,,AAXX 21064 07650 12557 20404 10070 20060 30097 40142 53008 60006 81501 90600 333 10133 20068=
07650,1996-03-21 09:00:00,12,1015.7,1.5,82,9,8000,3.704,,,210,,,,,,,,,,,wg-a,,,,AAXX 21094 07650 12558 /2102 10120 20090 30112 40157 53015 60006 85502 90900=
07650,1996-03-21 12:00:00,17,1015.4,-0.2,63,10,12000,14.816,,,190,,,,,,,,,,,wg-a,,,,AAXX 21124 07650 12562 51908 10170 20100 30110 40154 56002 60006 83502 91200=
07650,1996-03-21 15:00:00,15,1015.2,-0.2,72,10,15000,18.52,,,200,,,,,,,,,,,wg-a,,,,AAXX 21154 07650 12565 72010 10150 20100 30108 40152 56002 60006 83102 91500=
07650,1996-03-21 18:00:00,13,1016.1,0.8,77,9,15000,7.408,,,170,6.7,17.1,,,,,,,,,wg-a,,,,AAXX 21184 07650 12565 41704 10130 20090 30116 40161 53008 60006 82102 91800 333 10171 20067=
07650,1996-03-21 21:00:00,10,1016.7,0.6,87,8,15000,0,,,0,,,,,,,,,,,wg-a,,,,AAXX 21214 07650 12/65 20000 10100 20080 30122 40167 51006 60006 80002 92100=
07650,1996-03-22 00:00:00,11,1017.3,0.6,87,9,15000,7.408,,,140,,,,,,,,,,,wg-a,,,,AAXX 22004 07650 12/65 21404 10110 20090 30128 40173 51006 60006 80002 90000=
07650,1996-03-22 03:00:00,11,1016.8,-0.5,94,10,8000,3.704,,,110,,,,,,,,,,,wg-a,,,,AAXX 22034 07650 12458 71102 10110 20100 30123 40168 58005 60006 876// 90300=
07650,1996-03-22 06:00:00,11,1017.2,0.4,94,10,500,7.408,,,320,9.3,13,,,,,,,,,wg-a,,,,AAXX 22064 07650 12400 83204 10110 20100 30127 40172 51004 60006 886// 90600 333 10130 20093=
07650,1996-03-22 09:00:00,13,1018.2,1,82,10,7000,7.408,,,300,,,,,,,,,,,wg-a,,,,AAXX 22094 07650 12457 43004 10130 20100 30137 40182 53010 60006 83602 90900=
07650,1996-03-22 12:00:00,17,1017.3,-0.8,72,12,10000,11.112,,,270,,,,,,,,,,,wg-a,,,,AAXX 22124 07650 12/60 22706 10170 20120 30129 40173 58008 60006 80002 91200=
07650,1996-03-22 15:00:00,16,1016.4,-0.9,77,12,10000,22.224,,,230,,,,,,,,,,,wg-a,,,,AAXX 22154 07650 12/60 72312 10160 20120 30120 40164 56009 60006 80002 91500=
07650,1996-03-22 18:00:00,14,1017,0.6,82,11,8000,11.112,,,250,11.1,18.2,,,,,,,,,wg-a,,,,AAXX 22184 07650 12/58 /2506 10140 20110 30126 40170 52006 60006 80002 91800 333 10182 20111=
07650,1996-03-22 21:00:00,12,1018.4,1.3,88,10,8000,3.704,,,160,,,,,,,,,,,wg-a,,,,AAXX 22214 07650 12/58 31602 10120 20100 30139 40184 52013 60006 80002 92100=
07650,1996-03-23 00:00:00,10,1018.8,0.4,93,9,7000,3.704,,,140,,,,,,,,,,,wg-a,,,,AAXX 23004 07650 12457 41402 10100 20090 30143 40188 52004 60006 82602 90000=
07650,1996-03-23 03:00:00,9,1018.1,-0.7,93,8,500,11.112,,,100,,,,,,,,,,,wg-a,,,,AAXX 23034 07650 12300 /1006 10090 20080 30136 40181 58007 60006 86600 90300=
07650,1996-03-23 06:00:00,9,1018.7,0.6,93,8,4000,11.112,,,100,8,13.4,,,,,,,,10,wg-a,,,,AAXX 23064 07650 12340 /1006 10090 20080 30142 40187 53006 60006 71011 86600 90600 333 10134 20080=
07650,1996-03-23 09:00:00,14,1019.8,1.1,77,10,6000,7.408,,,10,,,,,,,,,,,wg-a,,,,AAXX 23094 07650 12356 /0104 10140 20100 30153 40198 53011 60006 81600 90900=
07650,1996-03-23 12:00:00,17,1018.8,-0.9,72,12,7000,25.928,,,200,,,,,,,,,,,wg-a,,,,AAXX 23124 07650 12/57 /2014 10170 20120 30144 40188 57009 60006 91200=
07650,1996-03-23 15:00:00,16,1018.6,-0.2,72,11,7000,25.928,,,210,,,,,,,,,,,wg-a,,,,AAXX 23154 07650 12/57 32114 10160 20110 30142 40186 58002 60006 80001 91500=
07650,1996-03-23 18:00:00,14,1019.9,1.2,82,11,500,14.816,,,180,9.2,17.6,,,,,,,,,wg-a,,,,AAXX 23184 07650 12400 71808 10140 20110 30154 40199 51012 60006 85601 91800 333 10176 20092=
07650,1996-03-23 21:00:00,13,1020.8,0.9,88,11,6000,3.704,,,160,,,,,,,,,,,wg-a,,,,AAXX 23214 07650 12456 71602 10130 20110 30163 40208 51009 60006 85601 92100=
07650,1996-03-24 00:00:00,10,1021.6,0.8,93,9,4000,3.704,,,140,,,,,,,,,,,wg-a,,,,AAXX 24004 07650 12540 31402 10100 20090 30171 40216 51008 60006 83600 90000=
07650,1996-03-24 03:00:00,8,1021.7,0,93,7,8000,0,,,0,,,,,,,,,,,wg-a,,,,AAXX 24034 07650 12/58 00000 10080 20070 30171 40217 50000 60006 80000 90300=
07650,1996-03-24 06:00:00,9,1022.5,0.8,93,8,6000,7.408,,,140,7.5,13.5,,,,,,,,,wg-a,,,,AAXX 24064 07650 12/56 01404 10090 20080 30179 40225 53008 60006 80000 90600 333 10135 20075=
07650,1996-03-24 09:00:00,13,1023,0.6,88,11,500,7.408,,,300,,,,,,,,,,,wg-a,,,,AAXX 24094 07650 12500 /3004 10130 20110 30185 40230 53006 60006 81502 90900=
07650,1996-03-24 12:00:00,17,1021.7,-1.2,68,11,8000,11.112,,,270,,,,,,,,,,,wg-a,,,,AAXX 24124 07650 12558 /2706 10170 20110 30173 40217 58012 60006 81502 91200=
07650,1996-03-24 15:00:00,16,1021,-0.7,68,10,10000,18.52,,,200,,,,,,,,,,,wg-a,,,,AAXX 24154 07650 12/60 72010 10160 20100 30166 40210 56007 60006 80002 91500=
07650,1996-03-24 21:00:00,13,1020.2,0.6,88,11,12000,3.704,,,90,,,,,,,,,,,wg-a,,,,AAXX 24214 07650 12/62 70902 10130 20110 30157 40202 50006 60006 82032 92100=
07650,1996-03-25 00:00:00,12,1018.7,-1.5,88,10,12000,3.704,,,100,,,,,,,,,,,wg-a,,,,AAXX 25004 07650 12/62 71002 10120 20100 30142 40187 57015 60006 82032 90000=
07650,1996-03-25 03:00:00,12,1018.7,-0,82,9,9000,3.704,,,120,,,,,,,,,,,wg-a,,,,AAXX 25034 07650 12/59 71202 10120 20090 30142 40187 55000 60006 83032 90300=
07650,1996-03-25 06:00:00,12,1018.7,-0,82,9,9000,0,,,0,11.3,14,,,,,,,,,wg-a,,,,AAXX 25064 07650 12559 /0000 10120 20090 30142 40187 55000 60006 82532 90600 333 10140 20113=
07650,1996-03-25 09:00:00,17,1018.5,-0.1,68,11,8000,3.704,,,120,,,,,,,,,,,wg-a,,,,AAXX 25094 07650 12558 41202 10170 20110 30141 40185 57001 60006 83530 90900=
07650,1996-03-25 12:00:00,18,1018,-0.5,64,11,8000,14.816,,,270,,,,,,,,,,,wg-a,,,,AAXX 25124 07650 12558 32708 10180 20110 30136 40180 55005 60006 81502 91200=
07650,1996-03-25 15:00:00,17,1016.2,-1.8,72,12,9000,18.52,,,240,,,,,,,,,,,wg-a,,,,AAXX 25154 07650 12559 62410 10170 20120 30118 40162 57018 60006 81102 91500=
07650,1996-03-25 18:00:00,14,1016.4,0.2,88,12,7000,11.112,,,180,12.4,18.9,,,,,,,,,wg-a,,,,AAXX 25184 07650 12557 71806 10140 20120 30120 40164 53002 60006 83502 91800 333 10189 20124=
07650,1996-03-25 21:00:00,12,1016.1,-0.4,88,10,8000,3.704,,,70,,,,,,,,,,,wg-a,,,,AAXX 25214 07650 12558 20702 10120 20100 30116 40161 58004 60006 81501 92100=
07650,1996-03-26 00:00:00,12,1015.7,-0.4,94,11,6000,7.408,,,140,,,,,,,,,,,wg-a,,,,AAXX 26004 07650 12456 71404 10120 20110 30112 40157 58004 60006 876// 90000=
07650,1996-03-26 03:00:00,13,1014.6,-1,88,11,6000,3.704,,,140,,,,,,,,,,,wg-a,,,,AAXX 26034 07650 12556 81402 10130 20110 30102 40146 56010 60006 8557/ 90300=
07650,1996-03-26 06:00:00,13,1013.8,-0.8,88,11,500,0,,,0,11.5,14.4,,,,,,,,,wg-a,,,,AAXX 26064 07650 12500 70000 10130 20110 30094 40138 56008 60006 83532 90600 333 10144 20115=
07650,1996-03-26 09:00:00,15,1013,-0.8,77,11,9000,7.408,,,50,,,,,,,,,,,wg-a,,,,AAXX 26094 07650 12559 70504 10150 20110 30086 40130 58008 60006 8457/ 90900=
07650,1996-03-26 12:00:00,16,1011.8,-1.2,77,12,11000,14.816,,,280,,,,,,,,,,,wg-a,,,,AAXX 26124 07650 12561 72808 10160 20120 30074 40118 56012 60006 8457/ 91200=
07650,1996-03-26 15:00:00,15,1010.9,-0.9,82,12,6000,11.112,,,190,,,,,,,,,,21,wg-a,,,,AAXX 26154 07650 02556 71906 10150 20120 30065 40109 58009 61000 72162 8457/ 91500 333 ////=
07650,1996-03-26 18:00:00,13,1010.4,-0.5,94,12,1500,14.816,,,340,12.8,17.5,,,,,,,,10,wg-a,,,,AAXX 26184 07650 02415 83408 10130 20120 30060 40104 56005 61000 71062 8567/ 91800 333 10175 20128 ////=
07650,1996-03-26 21:00:00,13,1010.4,-0,94,12,500,11.112,,,300,,,,1,,,,,,21,wg-a,,,,AAXX 26214 07650 12500 83006 10130 20120 30060 40104 54000 60017 72162 8457/ 92100=
07650,1996-03-27 00:00:00,13,1008.9,-1.5,94,12,7000,3.704,,,300,,,,,,,,,,2,wg-a,,,,AAXX 27004 07650 12557 83002 10130 20120 30045 40089 58015 60016 70262 8357/ 90000=
07650,1996-03-27 03:00:00,13,1007.1,-1.8,94,12,7000,18.52,,,300,,,,,,,,,,,wg-a,,,,AAXX 27034 07650 12457 83010 10130 20120 30027 40071 56018 60006 8577/ 90300=
07650,1996-03-27 06:00:00,12,1007.1,-0,94,11,1200,11.112,,,310,11.6,13.3,,,,,1,,,10,wg-a,,,,AAXX 27064 07650 12312 83106 10120 20110 30027 40071 55000 60014 71022 8467/ 90600 333 10133 20116=
07650,1996-03-27 09:00:00,16,1007.1,0,68,10,10000,35.188,,,330,,,,,,,,,,,wg-a,,,,AAXX 27094 07650 12560 23319 10160 20100 30027 40071 50000 60006 82500 90900=
07650,1996-03-27 12:00:00,17,1007.2,-0.1,55,8,25000,38.892,,,350,,,,,,,,,,,wg-a,,,,AAXX 27124 07650 12575 53521 10170 20080 30028 40072 55001 60006 83842 91200=
07650,1996-03-27 15:00:00,15,1006.5,-0.7,55,6,25000,57.412,,68.524,350,,,,,,,,,,,wg-a,,,,AAXX 27154 07650 12575 /3531 10150 20060 30021 40065 56007 60006 81542 91500 333 91037=
07650,1996-03-27 18:00:00,11,1007.7,1.1,62,4,20000,53.708,,75.932,340,10.7,18,,,,,,,,,wg-a,,,,AAXX 27184 07650 12570 43429 10110 20040 30032 40077 53011 60006 81542 91800 333 10180 20107 91041=
07650,1996-03-27 21:00:00,9,1009,1.3,71,4,25000,57.412,,79.636,350,,,,,,,,,,,wg-a,,,,AAXX 27214 07650 12/75 43531 10090 20040 30045 40090 51013 60006 81041 92100 333 91043=
07650,1996-03-28 00:00:00,7,1009.9,0.9,76,3,25000,31.484,,57.412,350,,,,,,,,,,,wg-a,,,,AAXX 28004 07650 12/75 33517 10070 20030 30054 40099 51009 60006 81041 90000 333 91031=
07650,1996-03-28 03:00:00,7,1008.9,-1,70,2,25000,29.632,,,340,,,,,,,,,,,wg-a,,,,AAXX 28034 07650 12/75 33416 10070 20020 30044 40089 56010 60006 80001 90300=
07650,1996-03-28 06:00:00,6,1008,-0.9,75,2,25000,31.484,,57.412,350,6,10.7,,,,,,,,,wg-a,,,,AAXX 28064 07650 12/75 33517 10060 20020 30035 40080 56009 60006 81042 90600 333 10107 20060 91031=
07650,1996-03-28 09:00:00,9,1009.5,1.5,57,1,10000,35.188,,,350,,,,,,,,,,,wg-a,,,,AAXX 28094 07650 12660 33519 10090 20010 30050 40095 53015 60006 83500 90900=
07650,1996-03-28 12:00:00,13,1010.2,0.8,51,3,15000,29.632,,,350,,,,,,,,,,,wg-a,,,,AAXX 28124 07650 12/65 13516 10130 20030 30058 40102 51008 60006 80002 91200=
07650,1996-03-28 15:00:00,14,1010,-0.2,31,-3,15000,38.892,,,350,,,,,,,,,,,wg-a,,,,AAXX 28154 07650 12/65 03521 10140 21030 30056 40100 58002 60006 80000 91500=
07650,1996-03-28 18:00:00,13,1011,1,30,-4,500,42.596,,,350,6.2,14.5,,,,,,,,,wg-a,,,,AAXX 28184 07650 12/00 43523 10130 21040 30066 40110 53010 60006 80001 91800 333 10145 20062=
07650,1996-03-29 03:00:00,8,1012.8,-0.7,53,-1,500,38.892,,,340,,,,,,,,,,,wg-a,,,,AAXX 29034 07650 12/00 03421 10080 21010 30083 40128 56007 60006 80000 90300=
07650,1996-03-29 06:00:00,8,1013.2,0.4,57,0,25000,35.188,,,340,7.4,12.9,,,,,,,,,wg-a,,,,AAXX 29064 07650 12/75 13419 10080 20000 30087 40132 53004 60006 80002 90600 333 10129 20074=
07650,1996-03-29 09:00:00,10,1013.5,0.3,46,-1,15000,46.3,,61.116,340,,,,,,,,,,,wg-a,,,,AAXX 29094 07650 12/65 03425 10100 21010 30090 40135 51003 60006 80000 90900 333 91033=
07650,1996-03-29 12:00:00,13,1012.7,-0.7,41,0,15000,42.596,,,320,,,,,,,,,,,wg-a,,,,AAXX 29124 07650 12/65 03223 10130 20000 30083 40127 58007 60006 80000 91200=
07650,1996-03-29 15:00:00,14,1010.9,-1.8,36,-1,20000,35.188,,,340,,,,,,,,,,,wg-a,,,,AAXX 29154 07650 12/70 03419 10140 21010 30065 40109 56018 60006 80000 91500=
07650,1996-03-29 18:00:00,11,1010.8,-0.2,40,-2,15000,29.632,,,330,7.6,14.2,,,,,,,,,wg-a,,,,AAXX 29184 07650 12/65 03316 10110 21020 30063 40108 56002 60006 80000 91800 333 10142 20076=
07650,1996-03-29 21:00:00,9,1010.7,-0.1,46,-2,15000,25.928,,,340,,,,,,,,,,,wg-a,,,,AAXX 29214 07650 12/65 03414 10090 21020 30062 40107 58001 60006 80000 92100=
07650,1996-03-30 00:00:00,8,1009.5,-1.2,53,-1,10000,29.632,,,340,,,,,,,,,,,wg-a,,,,AAXX 30004 07650 12/60 /3416 10080 21010 30050 40095 58012 60006 90000=
07650,1996-03-30 03:00:00,6,1008.3,-1.2,61,-1,18000,25.928,,,340,,,,,,,,,,,wg-a,,,,AAXX 30034 07650 12/68 13414 10060 21010 30038 40083 58012 60006 80002 90300=
07650,1996-03-30 06:00:00,4,1008,-0.4,65,-2,18000,14.816,,,340,4,11.4,,,,,,,,,wg-a,,,,AAXX 30064 07650 12/68 23408 10040 21020 30034 40080 56004 60006 80002 90600 333 10114 20040=
07650,1996-03-30 09:00:00,10,1007.7,-0.2,50,0,20000,29.632,,,340,,,,,,,,,,,wg-a,,,,AAXX 30094 07650 12/70 33416 10100 20000 30032 40077 58002 60006 80002 90900=
07650,1996-03-30 12:00:00,14,1007.4,-0.2,36,-1,20000,29.632,,,330,,,,,,,,,,,wg-a,,,,AAXX 30124 07650 12/70 33316 10140 21010 30030 40074 57002 60006 80002 91200=
07650,1996-03-30 15:00:00,14,1006.8,-0.6,38,0,500,50.004,,,340,,,,,,,,,,,wg-a,,,,AAXX 30154 07650 12/00 53427 10140 20000 30024 40068 56006 60006 80002 91500=
07650,1996-03-30 18:00:00,11,1007.7,0.8,43,-1,500,53.708,,75.932,360,4.3,15.1,,,,,,,,,wg-a,,,,AAXX 30184 07650 12/00 53629 10110 21010 30032 40077 53008 60006 80002 91800 333 10151 20043 91041=
07650,1996-03-30 21:00:00,9,1009.5,1.8,43,-3,25000,53.708,,72.228,340,,,,,,,,,,,wg-a,,,,AAXX 30214 07650 12/75 03429 10090 21030 30050 40095 51018 60006 80000 92100 333 91039=
07650,1996-03-31 00:00:00,7,1011.4,1.9,53,-2,20000,31.484,,53.708,350,,,,,,,,,,,wg-a,,,,AAXX 31004 07650 12/70 03517 10070 21020 30069 40114 51019 60006 80000 90000 333 91029=
07650,1996-03-31 03:00:00,5,1011.2,-0.3,56,-3,20000,38.892,,53.708,330,,,,,,,,,,,wg-a,,,,AAXX 31034 07650 12/70 03321 10050 21030 30066 40112 55003 60006 80000 90300 333 91029=
07650,1996-03-31 06:00:00,4,1012.7,1.5,56,-4,20000,18.52,,,330,3.7,11.2,,,,,,,,,wg-a,,,,AAXX 31064 07650 12/70 03310 10040 21040 30081 40127 53015 60006 80000 90600 333 10112 20037=
07650,1996-03-31 09:00:00,8,1013.4,0.8,49,-2,500,7.408,,,350,,,,,,,,,,,wg-a,,,,AAXX 31094 07650 12/00 03504 10080 21020 30089 40134 51008 60006 80000 90900=
07650,1996-03-31 12:00:00,13,1011.9,-1.4,38,-1,10000,11.112,,,290,,,,,,,,,,,wg-a,,,,AAXX 31124 07650 12/60 /2906 10130 21010 30075 40119 58014 60006 91200=
07650,1996-03-31 15:00:00,14,1010.5,-1.4,33,-2,500,14.816,,,300,,,,,,,,,,,wg-a,,,,AAXX 31154 07650 12/00 63008 10140 21020 30061 40105 57014 60006 81032 91500=
07650,1996-03-31 18:00:00,11,1010.8,0.2,54,2,500,22.224,,,250,3.7,14.3,,,,,,,,,wg-a,,,,AAXX 31184 07650 12/00 42512 10110 20020 30063 40108 52002 60006 82032 91800 333 10143 20037=
07650,1996-03-31 21:00:00,9,1011.6,0.8,61,2,20000,7.408,,,110,,,,,,,,,,,wg-a,,,,AAXX 31214 07650 12/70 41104 10090 20020 30071 40116 50008 60006 81032 92100=
07650,1996-04-01 00:00:00,9,1010.2,-1.4,66,3,20000,11.112,,,120,,,,,,,,,,,wg-a,,,,AAXX 01004 07650 12570 61206 10090 20030 30057 40102 56014 60006 85501 90000=
07650,1996-04-01 03:00:00,9,1007.5,-2.7,76,5,20000,14.816,,,100,,,,,,,,,,,wg-a,,,,AAXX 01034 07650 12670 71008 10090 20050 30030 40075 56027 60006 8353/ 90300=
07650,1996-04-01 06:00:00,9,1005.3,-2.2,87,7,8000,18.52,,,100,8,11.2,,0,,,,,,60,wg-a,,,,AAXX 01064 07650 02558 81010 10090 20070 30008 40053 56022 60004 76062 8387/ 90600 333 10112 20080 60007=
07650,1996-04-01 09:00:00,10,1003.9,-1.3,82,7,8000,25.928,,,110,,,,,,,,,,1,wg-a,,,,AAXX 01094 07650 02458 81114 10100 20070 39995 40039 58013 61000 70162 8587/ 90900 333 ////=
07650,1996-04-01 12:00:00,13,1001.4,-2.5,77,9,11000,25.928,,,90,,,,,,,,,,,wg-a,,,,AAXX 01124 07650 02/61 /0914 10130 20090 39970 40014 57025 61000 91200 333 ////=
07650,1996-04-01 15:00:00,14,999,-2.4,82,11,11000,18.52,,,140,,,,,,,,,,21,wg-a,,,,AAXX 01154 07650 02461 81410 10140 20110 39946 49990 58024 61000 72162 8557/ 91500 333 ////=
07650,1996-04-01 21:00:00,11,999.7,0.6,82,8,11000,18.52,,,80,,,,,,,,,,,wg-a,,,,AAXX 01214 07650 32/61 /0810 10110 20080 39953 49997 50006 92100=
07650,1996-04-02 00:00:00,10,1000.3,0.6,87,8,15000,7.408,,,80,,,,,,,,,,60,wg-a,,,,AAXX 02004 07650 02565 70804 10100 20080 39959 40003 51006 61000 76062 875// 90000 333 6100=
07650,1996-04-02 03:00:00,9,1000.1,-0.2,87,7,15000,14.816,,,340,,,,,,,,,,,wg-a,,,,AAXX 02034 07650 02565 /3408 10090 20070 39957 40001 55002 61000 86500 90300 333 ////=
07650,1996-04-02 06:00:00,7,1001.2,1,87,5,8000,18.52,,,360,7,11.8,,,,,,,,1,wg-a,,,,AAXX 02064 07650 02558 /3610 10070 20050 39967 40012 53010 61000 70162 84582 90600 333 10118 20070 ////=
07650,1996-04-02 09:00:00,9,1003.1,1.9,76,5,11000,31.484,,,320,,,,,,,,,,,wg-a,,,,AAXX 02094 07650 12661 /3217 10090 20050 39986 40031 52019 60006 83532 90900=
07650,1996-04-02 12:00:00,11,1003.6,0.6,54,2,20000,46.3,,,340,,,,,,,,,,,wg-a,,,,AAXX 02124 07650 12670 23425 10110 20020 39992 40036 51006 60006 81102 91200=
07650,1996-04-02 15:00:00,11,1003.9,0.3,54,2,20000,64.82,,87.044,350,,,,,,,,,,,wg-a,,,,AAXX 02154 07650 12570 /3535 10110 20020 39995 40039 53003 60006 81502 91500 333 91047=
07650,1996-04-02 18:00:00,10,1005.5,1.5,46,-1,20000,57.412,,75.932,340,7.2,11.7,,,,,,,,,wg-a,,,,AAXX 02184 07650 12/70 03431 10100 21010 30010 40055 53015 60006 80000 91800 333 10117 20072 91041=
07650,1996-04-02 21:00:00,9,1007,1.5,40,-4,25000,53.708,,72.228,330,,,,,,,,,,,wg-a,,,,AAXX 02214 07650 12/75 03329 10090 21040 30025 40070 51015 60006 80000 92100 333 91039=
07650,1996-04-03 00:00:00,8,1006.5,-0.5,42,-4,25000,57.412,,72.228,330,,,,,,,,,,,wg-a,,,,AAXX 03004 07650 12/75 03331 10080 21040 30020 40065 58005 60006 80000 90000 333 91039=
07650,1996-04-03 03:00:00,6,1006.9,0.4,49,-4,25000,50.004,,75.932,330,,,,,,,,,,,wg-a,,,,AAXX 03034 07650 12/75 03327 10060 21040 30024 40069 50004 60006 80000 90300 333 91041=
07650,1996-04-03 06:00:00,5,1006.9,-0.1,56,-3,25000,53.708,,75.932,330,4.6,9.9,,,,,,,,,wg-a,,,,AAXX 03064 07650 12/75 03329 10050 21030 30023 40069 55001 60006 80000 90600 333 10099 20046 91041=
07650,1996-04-03 09:00:00,7,1006.9,0.1,49,-3,12000,57.412,,87.044,350,,,,,,,,,,,wg-a,,,,AAXX 03094 07650 12/62 43531 10070 21030 30024 40069 53001 60006 80002 90900 333 91047=
07650,1996-04-03 12:00:00,7,1008.2,1.3,57,-1,12000,46.3,,,350,,,,,,,,,,,wg-a,,,,AAXX 03124 07650 12/62 83525 10070 21010 30037 40082 53013 60006 83032 91200=
07650,1996-04-03 15:00:00,8,1009.6,1.4,57,0,9000,53.708,,64.82,360,,,,,,,,,,21,wg-a,,,,AAXX 03154 07650 02459 73629 10080 20000 30051 40096 53014 61000 72166 8777/ 91500 333 //// 91035=
07650,1996-04-03 18:00:00,8,1011.6,2,53,-1,9000,35.188,,,340,4.6,8.7,,,,,,,,,wg-a,,,,AAXX 03184 07650 32559 /3419 10080 21010 30071 40116 51020 83532 91800 333 10087 20046=
07650,1996-04-03 21:00:00,7,1013.7,2,53,-2,10000,35.188,,,360,,,,,,,,,,,wg-a,,,,AAXX 03214 07650 12/60 23619 10070 21020 30091 40137 51020 60006 81032 92100=
07650,1996-04-04 00:00:00,5,1015,1.3,52,-4,15000,14.816,,,20,,,,,,,,,,,wg-a,,,,AAXX 04004 07650 12/65 00208 10050 21040 30104 40150 53013 60006 80000 90000=
07650,1996-04-04 03:00:00,4,1015.1,0.1,60,-3,15000,18.52,,,350,,,,,,,,,,,wg-a,,,,AAXX 04034 07650 12/65 03510 10040 21030 30105 40151 52001 60006 80000 90300=
07650,1996-04-04 06:00:00,3,1015.1,-0,65,-3,10000,22.224,,,360,2.4,8.2,,,,,,,,,wg-a,,,,AAXX 04064 07650 02/60 03612 10030 21030 30105 40151 55000 60006 80000 90600 333 10082 20024 61000=
07650,1996-04-04 09:00:00,8,1015.2,0.2,49,-2,10000,31.484,,,360,,,,,,,,,,,wg-a,,,,AAXX 04094 07650 12/60 03617 10080 21020 30107 40152 52002 60006 80000 90900=
07650,1996-04-04 12:00:00,12,1014.1,-1.1,47,1,15000,29.632,,,350,,,,,,,,,,,wg-a,,,,AAXX 04124 07650 12/65 03516 10120 20010 30096 40141 58011 60006 80000 91200=
07650,1996-04-04 15:00:00,12,1013.9,-0.2,44,0,12000,31.484,,,350,,,,,,,,,,,wg-a,,,,AAXX 04154 07650 12/62 03517 10120 20000 30094 40139 55002 60006 80000 91500=
07650,1996-04-04 18:00:00,9,1014.6,0.7,49,-1,12000,25.928,,,350,3.5,13,,,,,,,,,wg-a,,,,AAXX 04184 07650 12/62 03514 10090 21010 30101 40146 51007 60006 80000 91800 333 10130 20035=
07650,1996-04-04 21:00:00,5,1015,0.3,65,-1,15000,7.408,,,40,,,,,,,,,,,wg-a,,,,AAXX 04214 07650 12/65 00404 10050 21010 30104 40150 53003 60006 80000 92100=
07650,1996-04-05 00:00:00,4,1015.4,0.4,70,-1,15000,7.408,,,360,,,,,,,,,,,wg-a,,,,AAXX 05004 07650 12/65 03604 10040 21010 30108 40154 50004 60006 80000 90000=
07650,1996-04-05 03:00:00,2,1014.2,-1.2,75,-2,10000,7.408,,,140,,,,,,,,,,,wg-a,,,,AAXX 05034 07650 12/60 01404 10020 21020 30096 40142 56012 60006 80000 90300=
07650,1996-04-05 06:00:00,2,1014.4,0.2,80,-1,7000,7.408,,,140,0.9,8.7,,,,,,,,,wg-a,,,,AAXX 05064 07650 12/57 /1404 10020 21010 30098 40144 53002 60006 80001 90600 333 10087 20009=
07650,1996-04-05 09:00:00,9,1014.5,0.2,57,1,9000,3.704,,,290,,,,,,,,,,,wg-a,,,,AAXX 05094 07650 12/59 /2902 10090 20010 30100 40145 53002 60006 81030 90900=
07650,1996-04-05 12:00:00,16,1013.4,-1,51,6,9000,22.224,,,170,,,,,,,,,,,wg-a,,,,AAXX 05124 07650 12659 /1712 10160 20060 30090 40134 58010 60006 81050 91200=
07650,1996-04-05 15:00:00,15,1013.3,-0.1,55,6,10000,29.632,,,180,,,,,,,,,,,wg-a,,,,AAXX 05154 07650 12660 21816 10150 20060 30089 40133 55001 60006 81201 91500=
07650,1996-04-05 18:00:00,12,1014.3,0.9,71,7,10000,11.112,,,170,1.8,16.1,,,,,,,,,wg-a,,,,AAXX 05184 07650 12660 41706 10120 20070 30098 40143 51009 60006 81202 91800 333 10161 20018=
07650,1996-04-05 21:00:00,8,1016.1,1.8,87,6,12000,3.704,,,210,,,,,,,,,,,wg-a,,,,AAXX 05214 07650 12/62 12102 10080 20060 30116 40161 51018 60006 80002 92100=
07650,1996-04-06 00:00:00,6,1016.9,0.7,93,5,10000,3.704,,,140,,,,,,,,,,,wg-a,,,,AAXX 06004 07650 12/60 51402 10060 20050 30123 40169 52007 60006 80002 90000=
07650,1996-04-06 03:00:00,6,1016.6,-0.3,93,5,9000,7.408,,,110,,,,,,,,,,,wg-a,,,,AAXX 06034 07650 12/59 /1104 10060 20050 30120 40166 55003 60006 82021 90300=
07650,1996-04-06 06:00:00,6,1017.2,0.6,93,5,500,7.408,,,140,5.6,12,,,,,,,,,wg-a,,,,AAXX 06064 07650 12600 51404 10060 20050 30126 40172 53006 60006 82532 90600 333 10120 20056=
07650,1996-04-06 09:00:00,11,1018.1,1,71,6,500,7.408,,,310,,,,,,,,,,,wg-a,,,,AAXX 06094 07650 12500 73104 10110 20060 30136 40181 52010 60006 85502 90900=
07650,1996-04-06 12:00:00,15,1017.8,-0.2,59,7,8000,7.408,,,320,,,,,,,,,,,wg-a,,,,AAXX 06124 07650 12658 /3204 10150 20070 30134 40178 58002 60006 81102 91200=
07650,1996-04-06 15:00:00,16,1017.5,-0.3,45,4,10000,18.52,,,280,,,,,,,,,,,wg-a,,,,AAXX 06154 07650 12660 /2810 10160 20040 30131 40175 57003 60006 81502 91500=
07650,1996-04-06 18:00:00,14,1017.8,0.2,55,5,12000,11.112,,,240,6.4,16.8,,,,,,,,,wg-a,,,,AAXX 06184 07650 12/62 42406 10140 20050 30133 40178 53002 60006 80002 91800 333 10168 20064=
07650,1996-04-06 21:00:00,10,1019,1.2,82,7,12000,3.704,,,330,,,,,,,,,,,wg-a,,,,AAXX 06214 07650 12/62 43302 10100 20070 30145 40190 51012 60006 80002 92100=
07650,1996-04-07 00:00:00,9,1018.9,0.1,87,7,8000,7.408,,,140,,,,,,,,,,,wg-a,,,,AAXX 07004 07650 12/58 /1404 10090 20070 30144 40189 50001 60006 80002 90000=
07650,1996-04-07 03:00:00,8,1018.2,-0.7,93,7,8000,3.704,,,130,,,,,,,,,,,wg-a,,,,AAXX 07034 07650 12/58 /1302 10080 20070 30137 40182 56007 60006 80002 90300=
07650,1996-04-07 06:00:00,7,1018.7,0.4,87,5,7000,3.704,,,140,6.7,13.5,,,,,,,,,wg-a,,,,AAXX 07064 07650 12/57 31402 10070 20050 30141 40187 53004 60006 81032 90600 333 10135 20067=
07650,1996-04-07 09:00:00,13,1019.2,0.6,72,8,7000,7.408,,,270,,,,,,,,,,,wg-a,,,,AAXX 07094 07650 12/57 32704 10130 20080 30147 40192 52006 60006 80002 90900=
07650,1996-04-07 12:00:00,17,1018.2,-0.9,55,8,10000,14.816,,,270,,,,,,,,,,,wg-a,,,,AAXX 07124 07650 12/60 32708 10170 20080 30138 40182 58009 60006 80002 91200=
07650,1996-04-07 15:00:00,19,1017.5,-0.7,52,9,10000,14.816,,,240,,,,,,,,,,,wg-a,,,,AAXX 07154 07650 12/60 62408 10190 20090 30131 40175 56007 60006 80002 91500=
07650,1996-04-07 18:00:00,16,1018,0.5,51,6,15000,3.704,,,160,6.6,19.4,,,,,,,,,wg-a,,,,AAXX 07184 07650 12/65 61602 10160 20060 30136 40180 52005 60006 80002 91800 333 10194 20066=
07650,1996-04-07 21:00:00,13,1019.5,1.4,77,9,15000,7.408,,,140,,,,,,,,,,,wg-a,,,,AAXX 07214 07650 12/65 31404 10130 20090 30150 40195 51014 60006 80002 92100=
07650,1996-04-08 00:00:00,11,1019.6,0.1,82,8,12000,3.704,,,80,,,,,,,,,,,wg-a,,,,AAXX 08004 07650 12/62 20802 10110 20080 30151 40196 51001 60006 80002 90000=
07650,1996-04-08 03:00:00,8,1019.6,-0.1,87,6,12000,7.408,,,140,,,,,,,,,,,wg-a,,,,AAXX 08034 07650 12/62 31404 10080 20060 30150 40196 57001 60006 80002 90300=
07650,1996-04-08 06:00:00,7,1020.2,0.6,93,6,9000,7.408,,,140,6.6,16.2,,0,,,,,,,wg-a,,,,AAXX 08064 07650 02/59 21404 10070 20060 30156 40202 53006 60004 80002 90600 333 10162 20066 60007=
07650,1996-04-08 09:00:00,15,1021,1,59,7,10000,0,,,0,,,,,,,,,,,wg-a,,,,AAXX 08094 07650 12/60 30000 10150 20070 30166 40210 51010 60006 80002 90900=
07650,1996-04-08 12:00:00,21,1020.2,-0.8,43,8,10000,14.816,,,240,,,,,,,,,,,wg-a,,,,AAXX 08124 07650 12/60 /2408 10210 20080 30158 40202 58008 60006 91200=
07650,1996-04-08 15:00:00,22,1019,-1.1,38,7,10000,22.224,,,320,,,,,,,,,,,wg-a,,,,AAXX 08154 07650 12560 33212 10220 20070 30147 40190 57011 60006 81201 91500=
07650,1996-04-08 18:00:00,18,1020.2,1.1,49,7,10000,22.224,,,340,,,,,,,,,,,wg-a,,,,AAXX 08184 07650 12560 23412 10180 20070 30158 40202 53011 60006 81280 91800=
07650,1996-04-08 21:00:00,14,1021,0.7,58,6,15000,3.704,,,20,,,,,,,,,,,wg-a,,,,AAXX 08214 07650 12/65 00202 10140 20060 30165 40210 51007 60006 80000 92100=
07650,1996-04-09 03:00:00,9,1020.3,-0.8,81,6,10000,14.816,,,20,,,,,,,,,,,wg-a,,,,AAXX 09034 07650 12/60 00208 10090 20060 30158 40203 58008 60006 80000 90300=
07650,1996-04-09 06:00:00,9,1020.7,0.4,81,6,6000,7.408,,,20,8.2,17.7,,,,,,,,,wg-a,,,,AAXX 09064 07650 12/56 00204 10090 20060 30162 40207 53004 60006 80000 90600 333 10177 20082=
07650,1996-04-09 09:00:00,15,1020.9,0.3,63,8,7000,7.408,,,260,,,,,,,,,,,wg-a,,,,AAXX 09094 07650 12/57 02604 10150 20080 30165 40209 51003 60006 80000 90900=
07650,1996-04-09 12:00:00,19,1020.4,-0.5,49,8,9000,14.816,,,300,,,,,,,,,,,wg-a,,,,AAXX 09124 07650 12559 /3008 10190 20080 30160 40204 58005 60006 81100 91200=
07650,1996-04-09 15:00:00,19,1020.4,-0,49,8,11000,18.52,,,190,,,,,,,,,,,wg-a,,,,AAXX 09154 07650 12561 21910 10190 20080 30160 40204 55000 60006 81402 91500=
07650,1996-04-09 18:00:00,16,1020.4,0,59,8,15000,7.408,,,190,8.4,19.7,,,,,,,,,wg-a,,,,AAXX 09184 07650 12565 21904 10160 20080 30160 40204 50000 60006 81502 91800 333 10197 20084=
07650,1996-04-09 21:00:00,13,1021.4,0.9,77,9,15000,7.408,,,170,,,,,,,,,,,wg-a,,,,AAXX 09214 07650 12/65 11704 10130 20090 30169 40214 51009 60006 80002 92100=
07650,1996-04-10 00:00:00,11,1020.6,-0.8,82,8,15000,7.408,,,140,,,,,,,,,,,wg-a,,,,AAXX 10004 07650 12/65 01404 10110 20080 30161 40206 58008 60006 80000 90000=
07650,1996-04-10 03:00:00,9,1019.5,-1.1,87,7,10000,11.112,,,140,,,,,,,,,,,wg-a,,,,AAXX 10034 07650 12/60 01406 10090 20070 30150 40195 56011 60006 80000 90300=
07650,1996-04-10 06:00:00,7,1018.8,-0.8,93,6,6000,3.704,,,160,7.1,16.3,,,,,,,,,wg-a,,,,AAXX 10064 07650 12/56 01602 10070 20060 30142 40188 56008 60006 80000 90600 333 10163 20071=
07650,1996-04-10 09:00:00,13,1018.6,-0.1,77,9,6000,3.704,,,280,,,,,,,,,,,wg-a,,,,AAXX 10094 07650 12/56 02802 10130 20090 30141 40186 58001 60006 80000 90900=
07650,1996-04-10 12:00:00,19,1017,-1.5,49,8,7000,14.816,,,260,,,,,,,,,,,wg-a,,,,AAXX 10124 07650 12/57 42608 10190 20080 30126 40170 58015 60006 80002 91200=
07650,1996-04-10 15:00:00,18,1015.3,-1.7,56,9,7000,22.224,,,240,,,,,,,,,,,wg-a,,,,AAXX 10154 07650 12557 72412 10180 20090 30109 40153 56017 60006 83502 91500=
07650,1996-04-10 18:00:00,16,1015,-0.3,68,10,11000,7.408,,,170,7.3,19.5,,,,,,,,,wg-a,,,,AAXX 10184 07650 12/61 51704 10160 20100 30106 40150 58003 60006 81032 91800 333 10195 20073=
07650,1996-04-10 21:00:00,13,1015,-0.1,77,9,10000,0,,,0,,,,,,,,,,,wg-a,,,,AAXX 10214 07650 12/60 30000 10130 20090 30105 40150 57001 60006 81032 92100=
07650,1996-04-11 00:00:00,10,1014.7,-0.3,93,9,10000,3.704,,,180,,,,,,,,,,,wg-a,,,,AAXX 11004 07650 12/60 51802 10100 20090 30102 40147 55003 60006 81032 90000=
07650,1996-04-11 03:00:00,10,1013.8,-0.9,93,9,9000,11.112,,,140,,,,,,,,,,,wg-a,,,,AAXX 11034 07650 12/59 31406 10100 20090 30093 40138 56009 60006 81032 90300=
07650,1996-04-11 06:00:00,11,1013.5,-0.3,82,8,8000,18.52,,,320,9.4,16.3,,,,,,,,,wg-a,,,,AAXX 11064 07650 12558 /3210 10110 20080 30090 40135 56003 60006 81532 90600 333 10163 20094=
07650,1996-04-11 09:00:00,17,1013.6,0.2,55,8,9000,11.112,,,310,,,,,,,,,,,wg-a,,,,AAXX 11094 07650 12/59 /3106 10170 20080 30092 40136 51002 60006 82011 90900=
07650,1996-04-11 12:00:00,20,1011.6,-1.9,40,6,15000,29.632,,,310,,,,,,,,,,,wg-a,,,,AAXX 11124 07650 12565 43116 10200 20060 30073 40116 58019 60006 81180 91200=
07650,1996-04-11 15:00:00,21,1009.8,-1.8,40,7,20000,22.224,,,290,,,,,,,,,,,wg-a,,,,AAXX 11154 07650 12670 32912 10210 20070 30055 40098 57018 60006 81231 91500=
07650,1996-04-11 18:00:00,19,1009.3,-0.5,40,5,20000,22.224,,,320,11.2,21.7,,,,,,,,,wg-a,,,,AAXX 11184 07650 12/70 53212 10190 20050 30050 40093 58005 60006 81042 91800 333 10217 20112=
07650,1996-04-11 21:00:00,17,1009.6,0.2,48,6,20000,29.632,,,360,,,,,,,,,,,wg-a,,,,AAXX 11214 07650 12/70 53616 10170 20060 30052 40096 53002 60006 81032 92100=
07650,1996-04-12 00:00:00,14,1010.1,0.5,55,5,20000,18.52,,,20,,,,,,,,,,,wg-a,,,,AAXX 12004 07650 12/70 30210 10140 20050 30057 40101 53005 60006 81032 90000=
07650,1996-04-12 03:00:00,13,1009.5,-0.6,62,6,15000,18.52,,,340,,,,,,,,,,,wg-a,,,,AAXX 12034 07650 12/65 33410 10130 20060 30051 40095 56006 60006 81032 90300=
07650,1996-04-12 06:00:00,10,1010.3,0.7,76,6,8000,11.112,,,20,9.2,18.4,,,,,,,,,wg-a,,,,AAXX 12064 07650 12/58 50206 10100 20060 30058 40103 53007 60006 80002 90600 333 10184 20092=
07650,1996-04-12 09:00:00,15,1010.5,0.3,59,7,7000,0,,,0,,,,,,,,,,,wg-a,,,,AAXX 12094 07650 12/57 /0000 10150 20070 30061 40105 50003 60006 80002 90900=
07650,1996-04-12 12:00:00,19,1009.7,-0.7,46,7,10000,11.112,,,250,,,,,,,,,,,wg-a,,,,AAXX 12124 07650 12/60 62506 10190 20070 30054 40097 58007 60006 80002 91200=
07650,1996-04-12 15:00:00,20,1009.1,-0.6,40,6,12000,14.816,,,180,,,,,,,,,,,wg-a,,,,AAXX 12154 07650 12/62 51808 10200 20060 30048 40091 58006 60006 80002 91500=
07650,1996-04-12 18:00:00,16,1009.9,0.7,63,9,10000,7.408,,,160,9.8,20.9,,,,,,,,,wg-a,,,,AAXX 12184 07650 12/60 11604 10160 20090 30055 40099 53007 60006 80002 91800 333 10209 20098=
07650,1996-04-12 21:00:00,13,1011.5,1.6,72,8,15000,7.408,,,140,,,,,,,,,,,wg-a,,,,AAXX 12214 07650 12/65 01404 10130 20080 30071 40115 51016 60006 80000 92100=
07650,1996-04-13 03:00:00,10,1011,-0.7,82,7,15000,7.408,,,140,,,,,,,,,,,wg-a,,,,AAXX 13034 07650 12/65 11404 10100 20070 30065 40110 56007 60006 80001 90300=
07650,1996-04-13 06:00:00,10,1011.5,0.5,76,6,12000,7.408,,,140,8.3,16.1,,,,,,,,,wg-a,,,,AAXX 13064 07650 12/62 21404 10100 20060 30070 40115 53005 60006 80001 90600 333 10161 20083=
07650,1996-04-13 07:00:00,10,1011.5,0.5,76,6,12000,7.408,,,140,8.3,16.1,,,,,,,,,wg-a,,,,AAXX 13074 07650 12/62 21404 10100 20060 30070 40115 53005 60006 80001 90700 333 10161 20083=
07650,1996-04-13 09:00:00,16,1011.9,0.5,55,7,15000,11.112,,,240,,,,,,,,,,,wg-a,,,,AAXX 13094 07650 12/65 22406 10160 20070 30075 40119 51005 60006 80001 90900=
07650,1996-04-13 12:00:00,22,1010.6,-1.2,33,5,15000,31.484,,,300,,,,,,,,,,,wg-a,,,,AAXX 13124 07650 12/65 23017 10220 20050 30063 40106 58012 60006 80001 91200=
07650,1996-04-13 14:00:00,19,1010.2,0.5,46,7,20000,25.928,,,350,,22.7,,,,,,,,,wg-a,,,,AAXX 13144 07650 12670 63514 10190 20070 30059 40102 53005 60006 81532 91400 333 10227=
07650,1996-04-13 15:00:00,22,1009.7,-0.9,41,8,15000,22.224,,,300,,,,,,,,,,,wg-a,,,,AAXX 13154 07650 12665 /3012 10220 20080 30054 40097 56009 60006 81542 91500=
07650,1996-04-13 18:00:00,19,1010.2,0.5,46,7,20000,25.928,,,350,9.6,22.7,,,,,,,,,wg-a,,,,AAXX 13184 07650 12670 /3514 10190 20070 30059 40102 53005 60006 82532 91800 333 10227 20096=
07650,1996-04-13 21:00:00,17,1011.8,1.5,52,7,20000,25.928,,,360,,,,,,,,,,,wg-a,,,,AAXX 13214 07650 12/70 53614 10170 20070 30074 40118 51015 60006 81032 92100=
07650,1996-04-14 00:00:00,15,1012.2,0.4,63,8,20000,35.188,,,330,,,,,,,,,,,wg-a,,,,AAXX 14004 07650 12/70 43319 10150 20080 30078 40122 51004 60006 81032 90000=
07650,1996-04-14 03:00:00,13,1011.8,-0.4,72,8,20000,29.632,,,330,,,,,,,,,,,wg-a,,,,AAXX 14034 07650 12/70 03316 10130 20080 30074 40118 56004 60006 80000 90300=
07650,1996-04-14 06:00:00,13,1012.8,1,67,7,9000,42.596,,,340,12.4,19.1,,,,,,,,,wg-a,,,,AAXX 14064 07650 12559 33423 10130 20070 30084 40128 52010 60006 82532 90600 333 10191 20124=
07650,1996-04-14 09:00:00,17,1015.1,2.3,52,7,15000,29.632,,,320,,,,,,,,,,,wg-a,,,,AAXX 14094 07650 12/65 33216 10170 20070 30107 40151 51023 60006 81032 90900=
07650,1996-04-14 12:00:00,19,1014.5,-0.6,37,4,20000,38.892,,64.82,350,,,,,,,,,,,wg-a,,,,AAXX 14124 07650 12670 33521 10190 20040 30101 40145 58006 60006 81102 91200 333 91035=
07650,1996-04-14 15:00:00,19,1014,-0.5,37,4,20000,42.596,,57.412,350,,,,,,,,,,,wg-a,,,,AAXX 14154 07650 12670 73523 10190 20040 30096 40140 56005 60006 81132 91500 333 91031=
07650,1996-04-14 18:00:00,17,1014.2,0.2,36,2,20000,35.188,,61.116,360,13.2,19.4,,,,,,,,,wg-a,,,,AAXX 14184 07650 12670 73619 10170 20020 30098 40142 53002 60006 81132 91800 333 10194 20132 91033=
07650,1996-04-14 21:00:00,15,1017.2,3,48,4,20000,25.928,,,350,,,,,,,,,,,wg-a,,,,AAXX 14214 07650 12/70 53514 10150 20040 30128 40172 53030 60006 84032 92100=
07650,1996-04-15 00:00:00,13,1017.8,0.5,54,4,20000,31.484,,,10,,,,,,,,,,,wg-a,,,,AAXX 15004 07650 12/70 20117 10130 20040 30133 40178 51005 60006 81032 90000=
07650,1996-04-15 03:00:00,9,1018.2,0.4,66,3,20000,3.704,,,20,,,,,,,,,,,wg-a,,,,AAXX 15034 07650 12/70 20202 10090 20030 30137 40182 51004 60006 80002 90300=
07650,1996-04-15 06:00:00,10,1018.8,0.6,66,4,20000,7.408,,,140,8.1,17.4,,,,,,,,,wg-a,,,,AAXX 15064 07650 12/70 61404 10100 20040 30143 40188 53006 60006 81042 90600 333 10174 20081=
07650,1996-04-15 09:00:00,16,1019.5,0.8,45,4,25000,11.112,,,360,,,,,,,,,,,wg-a,,,,AAXX 15094 07650 12/75 13606 10160 20040 30151 40195 53008 60006 80002 90900=
07650,1996-04-15 12:00:00,20,1018.9,-0.6,32,3,25000,18.52,,,280,,,,,,,,,,,wg-a,,,,AAXX 15124 07650 12575 /2810 10200 20030 30145 40189 58006 60006 81100 91200=
07650,1996-04-15 15:00:00,20,1018.2,-0.7,26,0,25000,18.52,,,280,,,,,,,,,,,wg-a,,,,AAXX 15154 07650 12575 /2810 10200 20000 30138 40182 58007 60006 81500 91500=
07650,1996-04-15 21:00:00,14,1019,0.5,38,0,20000,18.52,,,340,,,,,,,,,,,wg-a,,,,AAXX 15214 07650 12/70 03410 10140 20000 30145 40190 50005 60006 80000 92100=
07650,1996-04-16 00:00:00,9,1018.9,-0.1,49,-1,20000,7.408,,,10,,,,,,,,,,,wg-a,,,,AAXX 16004 07650 12/70 00104 10090 21010 30144 40189 57001 60006 80000 90000=
07650,1996-04-16 03:00:00,7,1018,-1,57,-1,15000,11.112,,,140,,,,,,,,,,,wg-a,,,,AAXX 16034 07650 12/65 01406 10070 21010 30134 40180 56010 60006 80000 90300=
07650,1996-04-16 06:00:00,7,1017.2,-0.8,66,1,15000,3.704,,,140,5.5,17.4,,,,,,,,,wg-a,,,,AAXX 16064 07650 12/65 01402 10070 20010 30126 40172 56008 60006 80000 90600 333 10174 20055=
07650,1996-04-16 09:00:00,14,1016.9,-0.1,47,3,15000,7.408,,,300,,,,,,,,,,,wg-a,,,,AAXX 16094 07650 12/65 23004 10140 20030 30125 40169 56001 60006 80001 90900=
07650,1996-04-16 12:00:00,19,1015.6,-1.3,30,1,20000,22.224,,,200,,,,,,,,,,,wg-a,,,,AAXX 16124 07650 12/70 32012 10190 20010 30112 40156 57013 60006 80001 91200=
07650,1996-04-16 15:00:00,19,1014.6,-1,21,-4,25000,22.224,,,190,,,,,,,,,,,wg-a,,,,AAXX 16154 07650 12/75 /1912 10190 21040 30102 40146 56010 60006 80001 91500=
07650,1996-04-16 18:00:00,15,1014.2,-0.4,63,8,25000,18.52,,,140,7.4,20,,,,,,,,,wg-a,,,,AAXX 16184 07650 12/75 61410 10150 20080 30098 40142 56004 60006 80002 91800 333 10200 20074=
07650,1996-04-16 21:00:00,14,1013.7,-0.5,82,11,12000,14.816,,,140,,,,,,,,,,,wg-a,,,,AAXX 16214 07650 12562 31408 10140 20110 30093 40137 58005 60006 81502 92100=
07650,1996-04-17 00:00:00,13,1012.8,-0.9,82,10,12000,14.816,,,120,,,,,,,,,,,wg-a,,,,AAXX 17004 07650 12562 71208 10130 20100 30084 40128 57009 60006 81532 90000=
07650,1996-04-17 03:00:00,13,1011.3,-1.5,77,9,12000,14.816,,,120,,,,,,,,,,,wg-a,,,,AAXX 17034 07650 12562 71208 10130 20090 30069 40113 58015 60006 8253/ 90300=
07650,1996-04-17 06:00:00,14,1010.8,-0.5,77,10,12000,18.52,,,130,13.1,15.2,,,,,,,,,wg-a,,,,AAXX 17064 07650 12662 71310 10140 20100 30064 40108 55005 60006 8357/ 90600 333 10152 20131=
07650,1996-04-17 09:00:00,16,1010.7,-0.1,63,9,15000,22.224,,,140,,,,,,,,,,,wg-a,,,,AAXX 17094 07650 12465 71412 10160 20090 30063 40107 55001 60006 8327/ 90900=
07650,1996-04-17 12:00:00,13,1012,1.3,72,8,15000,18.52,,,140,,,,,,,,,,60,wg-a,,,,AAXX 17124 07650 02465 71410 10130 20080 30076 40120 53013 61000 76062 8387/ 91200 333 6100=
07650,1996-04-17 15:00:00,12,1013.5,1.4,82,9,8000,11.112,,,240,,,,2,,,,,,60,wg-a,,,,AAXX 17154 07650 12558 72406 10120 20090 30090 40135 51014 60027 76066 8387/ 91500=
07650,1996-04-17 18:00:00,11,1014.9,1.4,87,9,8000,3.704,,,240,11,15.5,,,,,,,,,wg-a,,,,AAXX 17184 07650 32/58 /2402 10110 20090 30104 40149 52014 91800 333 10155 20110=
07650,1996-04-17 21:00:00,11,1015.6,0.7,94,10,10000,11.112,,,320,,,,1,,,,,,60,wg-a,,,,AAXX 17214 07650 12460 83206 10110 20100 30111 40156 51007 60017 76066 8457/ 92100=
07650,1996-04-18 00:00:00,11,1015.4,-0.2,82,8,15000,18.52,,,340,,,,0,,,,,,2,wg-a,,,,AAXX 18004 07650 02565 83410 10110 20080 30109 40154 58002 60026 70262 8357/ 90000 333 60007=
07650,1996-04-18 03:00:00,9,1015.4,-0,87,7,20000,11.112,,,360,,,,,,,,,,,wg-a,,,,AAXX 18034 07650 12/70 73606 10090 20070 30109 40154 55000 60006 83032 90300=
07650,1996-04-18 06:00:00,8,1016.8,1.4,93,7,10000,7.408,,,140,7.7,11.5,,,,,5,,,,wg-a,,,,AAXX 18064 07650 12/60 /1404 10080 20070 30123 40168 53014 60054 90600 333 10115 20077=
07650,1996-04-18 12:00:00,20,1017.5,-0.3,46,8,25000,14.816,,,250,,,,,,,,,,,wg-a,,,,AAXX 18124 07650 12675 /2508 10200 20080 30131 40175 58003 60006 81100 91200=
07650,1996-04-18 15:00:00,21,1017.3,-0.1,43,8,25000,11.112,,,200,,,,,,,,,,,wg-a,,,,AAXX 18154 07650 12675 /2006 10210 20080 30130 40173 58001 60006 81100 91500=
07650,1996-04-18 18:00:00,18,1018,0.6,52,8,10000,11.112,,,180,8.3,21.5,,,,,,,,,wg-a,,,,AAXX 18184 07650 12/60 /1806 10180 20080 30136 40180 53006 60006 91800 333 10215 20083=
07650,1996-04-18 21:00:00,14,1019.8,1.7,72,9,20000,11.112,,,140,,,,,,,,,,,wg-a,,,,AAXX 18214 07650 12/70 21406 10140 20090 30153 40198 51017 60006 80001 92100=
07650,1996-04-19 00:00:00,11,1020.5,0.7,82,8,20000,7.408,,,140,,,,,,,,,,,wg-a,,,,AAXX 19004 07650 12/70 21404 10110 20080 30160 40205 51007 60006 80001 90000=
07650,1996-04-19 03:00:00,10,1019.8,-0.7,76,6,20000,11.112,,,140,,,,,,,,,,,wg-a,,,,AAXX 19034 07650 12/70 11406 10100 20060 30153 40198 56007 60006 80001 90300=
07650,1996-04-19 06:00:00,10,1020.7,0.9,82,7,13000,7.408,,,110,8.4,17.7,,,,,,,,,wg-a,,,,AAXX 19064 07650 12/63 11104 10100 20070 30162 40207 53009 60006 80001 90600 333 10177 20084=
07650,1996-04-19 09:00:00,18,1021.5,0.9,49,7,17000,11.112,,,210,,,,,,,,,,,wg-a,,,,AAXX 19094 07650 12/67 12106 10180 20070 30171 40215 52009 60006 80001 90900=
07650,1996-04-19 12:00:00,19,1021.6,0.1,43,6,500,18.52,,,190,,,,,,,,,,,wg-a,,,,AAXX 19124 07650 12500 /1910 10190 20060 30172 40216 50001 60006 81100 91200=
07650,1996-04-19 15:00:00,18,1021.2,-0.4,45,6,40000,14.816,,,190,,,,,,,,,,,wg-a,,,,AAXX 19154 07650 12/82 21908 10180 20060 30168 40212 57004 60006 80001 91500=
07650,1996-04-19 18:00:00,16,1020.5,-0.7,48,5,500,14.816,,,180,10.1,19.9,,,,,,,,,wg-a,,,,AAXX 19184 07650 12/00 31808 10160 20050 30161 40205 56007 60006 80002 91800 333 10199 20101=
07650,1996-04-19 21:00:00,12,1021.5,0.9,71,7,20000,3.704,,,130,,,,,,,,,,,wg-a,,,,AAXX 19214 07650 12/70 01302 10120 20070 30170 40215 51009 60006 80000 92100=
07650,1996-04-20 00:00:00,10,1021.1,-0.4,76,6,20000,7.408,,,80,,,,,,,,,,,wg-a,,,,AAXX 20004 07650 12/70 00804 10100 20060 30166 40211 58004 60006 80000 90000=
07650,1996-04-20 03:00:00,10,1020,-1.1,62,3,20000,7.408,,,110,,,,,,,,,,,wg-a,,,,AAXX 20034 07650 12/70 01104 10100 20030 30155 40200 56011 60006 80000 90300=
07650,1996-04-20 06:00:00,10,1020.2,0.2,57,2,15000,3.704,,,140,7.8,16.1,,,,,,,,,wg-a,,,,AAXX 20064 07650 12/65 21402 10100 20020 30157 40202 53002 60006 80001 90600 333 10161 20078=
07650,1996-04-20 09:00:00,20,1019.9,-0.2,30,2,25000,14.816,,,150,,,,,,,,,,,wg-a,,,,AAXX 20094 07650 12/75 41508 10200 20020 30155 40199 58002 60006 80004 90900=
07650,1996-04-20 12:00:00,22,1018.5,-1.3,25,1,25000,25.928,,,160,,,,,,,,,,,wg-a,,,,AAXX 20124 07650 12/75 31614 10220 20010 30142 40185 58013 60006 80002 91200=
07650,1996-04-20 15:00:00,21,1017.1,-1.4,26,1,25000,29.632,,,160,,,,,,,,,,,wg-a,,,,AAXX 20154 07650 12/75 41616 10210 20010 30128 40171 58014 60006 80001 91500=
07650,1996-04-20 18:00:00,17,1017.2,-0,48,6,10000,22.224,,,160,9.8,22.4,,,,,,,,,wg-a,,,,AAXX 20184 07650 12/60 /1612 10170 20060 30128 40172 55000 60006 91800 333 10224 20098=
07650,1996-04-20 21:00:00,15,1017.8,0.6,48,4,10000,14.816,,,100,,,,,,,,,,,wg-a,,,,AAXX 20214 07650 12/60 /1008 10150 20040 30134 40178 50006 60006 92100=
07650,1996-04-21 00:00:00,13,1017.9,0,51,3,20000,3.704,,,120,,,,,,,,,,,wg-a,,,,AAXX 21004 07650 12/70 61202 10130 20030 30134 40179 50000 60006 82031 90000=
07650,1996-04-21 03:00:00,14,1015.8,-2,44,2,25000,18.52,,,100,,,,,,,,,,,wg-a,,,,AAXX 21034 07650 12575 /1010 10140 20020 30114 40158 56020 60006 82532 90300=
07650,1996-04-21 06:00:00,14,1015.9,0.1,55,5,18000,14.816,,,100,12.8,16.9,,0,,,,,,60,wg-a,,,,AAXX 21064 07650 02568 71008 10140 20050 30115 40159 50001 60004 76062 83532 90600 333 10169 20128 60007=
07650,1996-04-21 09:00:00,19,1016.3,0.4,32,2,20000,14.816,,,130,,,,,,,,,,,wg-a,,,,AAXX 21094 07650 02/70 71308 10190 20020 30119 40163 53004 61000 8707/ 90900 333 ////=
07650,1996-04-21 12:00:00,23,1015,-1.2,29,4,20000,22.224,,,140,,,,,,,,,,,wg-a,,,,AAXX 21124 07650 02670 71412 10230 20040 30107 40150 58012 61000 8258/ 91200 333 ////=
07650,1996-04-21 15:00:00,22,1014.2,-0.8,29,3,20000,29.632,,,140,,,,,,,,,,,wg-a,,,,AAXX 21154 07650 12670 71416 10220 20030 30099 40142 56008 60006 8288/ 91500=
07650,1996-04-21 18:00:00,21,1014.1,-0.1,23,-1,15000,22.224,,,120,13.8,23.9,,,,,,,,,wg-a,,,,AAXX 21184 07650 32/65 61212 10210 21010 30098 40141 58001 85081 91800 333 10239 20138=
07650,1996-04-21 21:00:00,17,1015.1,0.9,48,6,12000,25.928,,,100,,,,,,,,,,,wg-a,,,,AAXX 21214 07650 12562 71014 10170 20060 30107 40151 51009 60006 81532 92100=
07650,1996-04-22 03:00:00,16,1013.6,-1.6,45,4,15000,11.112,,,120,,,,,,,,,,,wg-a,,,,AAXX 22034 07650 12/65 31206 10160 20040 30092 40136 56016 60006 82031 90300=
07650,1996-04-22 06:00:00,16,1012.8,-0.8,51,6,17000,14.816,,,120,13.4,21,,,,,,,,,wg-a,,,,AAXX 22064 07650 02667 71208 10160 20060 30084 40128 58008 60006 8353/ 90600 333 10210 20134 61000=
07650,1996-04-22 09:00:00,20,1014.3,1.6,40,6,20000,29.632,,,120,,,,,,,,,,,wg-a,,,,AAXX 22094 07650 12570 71216 10200 20060 30100 40143 53016 60006 82282 90900=
07650,1996-04-22 12:00:00,18,1014.1,-0.3,45,6,25000,29.632,,53.708,140,,,,,,,,,,60,wg-a,,,,AAXX 22124 07650 02675 81416 10180 20060 30097 40141 58003 61000 76062 8557/ 91200 333 6100 91029=
07650,1996-04-22 15:00:00,17,1012.7,-1.4,55,8,15000,31.484,,75.932,120,,,,1,,,,,,21,wg-a,,,,AAXX 22154 07650 12665 71217 10170 20080 30083 40127 57014 60017 72162 8587/ 91500 333 91041=
07650,1996-04-22 18:00:00,17,1011.7,-1,59,9,15000,14.816,,,70,15.7,20.3,,,,,,,,60,wg-a,,,,AAXX 22184 07650 02565 80708 10170 20090 30073 40117 56010 61000 76062 8587/ 91800 333 10203 20157 ////=
07650,1996-04-22 21:00:00,16,1011.5,-0.2,59,8,12000,31.484,,50.004,100,,,,0,,,,,,25,wg-a,,,,AAXX 22214 07650 12562 81017 10160 20080 30071 40115 55002 60007 72562 8687/ 92100 333 91027=
07650,1996-04-23 00:00:00,17,1011.9,0.4,55,8,15000,7.408,,,140,,,,,,,,,,,wg-a,,,,AAXX 23004 07650 12565 71404 10170 20080 30075 40119 53004 60006 8587/ 90000=
07650,1996-04-23 03:00:00,17,1011.6,-0.3,52,7,20000,7.408,,,130,,,,,,,,,,,wg-a,,,,AAXX 23034 07650 12670 71304 10170 20070 30072 40116 56003 60006 8457/ 90300=
07650,1996-04-23 06:00:00,17,1010.7,-0.9,48,6,20000,22.224,,,130,15.7,17.3,,,,,1,,,,wg-a,,,,AAXX 23064 07650 12570 71312 10170 20060 30063 40107 55009 60014 8483/ 90600 333 10173 20157=
07650,1996-04-23 09:00:00,18,1012.7,2,56,9,12000,11.112,,,140,,,,,,,,,,2,wg-a,,,,AAXX 23094 07650 02562 81406 10180 20090 30083 40127 51020 61000 70262 8487/ 90900 333 ////=
07650,1996-04-23 12:00:00,18,1013.2,0.5,64,11,15000,18.52,,,140,,,,,,,,,,2,wg-a,,,,AAXX 23124 07650 02565 81410 10180 20110 30088 40132 51005 61000 70262 8487/ 91200 333 ////=
07650,1996-04-23 15:00:00,19,1013.4,0.3,64,12,12000,29.632,,,130,,,,,,,,,,,wg-a,,,,AAXX 23154 07650 12/62 /1316 10190 20120 30091 40134 51003 60006 91500=
07650,1996-04-23 18:00:00,17,1014.5,1,72,12,12000,14.816,,,140,16.8,19.2,,,,,,,,,wg-a,,,,AAXX 23184 07650 32562 /1408 10170 20120 30101 40145 51010 83232 91800 333 10192 20168=
07650,1996-04-23 21:00:00,13,1017.9,3.3,88,11,10000,25.928,,,20,,,,1,,,,,,61,wg-a,,,,AAXX 23214 07650 12460 80214 10130 20110 30134 40179 53033 60017 76162 8477/ 92100=
07650,1996-04-24 00:00:00,13,1018.3,0.4,88,11,10000,3.704,,,100,,,,1,,,,,,60,wg-a,,,,AAXX 24004 07650 02460 71002 10130 20110 30138 40183 50004 60016 76066 8377/ 90000 333 60017=
07650,1996-04-24 03:00:00,10,1017.8,-0.5,100,10,20000,7.408,,,360,,,,0,,,,,,,wg-a,,,,AAXX 24034 07650 12470 /3604 10100 20100 30133 40178 55005 60007 81800 90300=
07650,1996-04-24 06:00:00,10,1018.4,0.6,93,9,7000,3.704,,,150,8.7,17,,,,,1,,,,wg-a,,,,AAXX 24064 07650 12157 41502 10100 20090 30139 40184 51006 60014 82602 90600 333 10170 20087=
07650,1996-04-24 09:00:00,14,1018.8,0.5,82,11,12000,7.408,,,40,,,,,,,,,,,wg-a,,,,AAXX 24094 07650 12462 /0404 10140 20110 30144 40188 52005 60006 81101 90900=
07650,1996-04-24 12:00:00,20,1018.3,-0.5,53,10,11000,14.816,,,280,,,,,,,,,,,wg-a,,,,AAXX 24124 07650 12/61 /2808 10200 20100 30139 40183 58005 60006 91200=
07650,1996-04-24 15:00:00,22,1016.8,-1.4,41,8,11000,25.928,,,360,,,,,,,,,,,wg-a,,,,AAXX 24154 07650 12/61 /3614 10220 20080 30125 40168 57014 60006 91500=
07650,1996-04-24 18:00:00,19,1017.6,0.7,37,4,20000,25.928,,,330,9.7,21.6,,,,,,,,,wg-a,,,,AAXX 24184 07650 12570 43314 10190 20040 30132 40176 53007 60006 81102 91800 333 10216 20097=
07650,1996-04-24 21:00:00,15,1018.9,1.3,51,5,20000,7.408,,,320,,,,,,,,,,,wg-a,,,,AAXX 24214 07650 12/70 33204 10150 20050 30145 40189 51013 60006 80002 92100=
07650,1996-04-25 00:00:00,13,1018.7,-0.3,82,10,15000,14.816,,,140,,,,,,,,,,,wg-a,,,,AAXX 25004 07650 12/65 21408 10130 20100 30142 40187 56003 60006 80001 90000=
07650,1996-04-25 03:00:00,11,1018.6,-0.1,87,9,15000,7.408,,,140,,,,,,,,,,,wg-a,,,,AAXX 25034 07650 12/65 31404 10110 20090 30141 40186 58001 60006 80001 90300=
07650,1996-04-25 06:00:00,11,1019.3,0.7,87,9,12000,3.704,,,200,10.1,19.4,,,,,,,,,wg-a,,,,AAXX 25064 07650 12/62 62002 10110 20090 30148 40193 53007 60006 81031 90600 333 10194 20101=
07650,1996-04-25 09:00:00,17,1019.4,0.2,63,10,12000,14.816,,,330,,,,,,,,,,,wg-a,,,,AAXX 25094 07650 12662 83308 10170 20100 30150 40194 51002 60006 81237 90900=
07650,1996-04-25 12:00:00,19,1018.8,-0.6,49,8,12000,11.112,,,250,,,,,,,,,,,wg-a,,,,AAXX 25124 07650 12662 82506 10190 20080 30144 40188 58006 60006 81237 91200=
07650,1996-04-25 15:00:00,21,1017.6,-1.1,43,8,12000,11.112,,,210,,,,,,,,,,,wg-a,,,,AAXX 25154 07650 12662 82106 10210 20080 30133 40176 58011 60006 82237 91500=
07650,1996-04-25 18:00:00,17,1018,0.3,63,10,12000,14.816,,,170,11,21,,,,,,,,,wg-a,,,,AAXX 25184 07650 12662 71708 10170 20100 30136 40180 53003 60006 81232 91800 333 10210 20110=
07650,1996-04-25 21:00:00,15,1018.8,0.8,77,11,15000,14.816,,,170,,,,,,,,,,,wg-a,,,,AAXX 25214 07650 12/65 61708 10150 20110 30144 40188 50008 60006 83032 92100=
07650,1996-04-26 00:00:00,15,1017.5,-1.3,82,12,15000,11.112,,,140,,,,,,,,,,,wg-a,,,,AAXX 26004 07650 12/65 71406 10150 20120 30131 40175 58013 60006 8707/ 90000=
07650,1996-04-26 03:00:00,14,1016.3,-1.2,82,11,12000,7.408,,,100,,,,,,,,,,,wg-a,,,,AAXX 26034 07650 12762 71004 10140 20110 30119 40163 56012 60006 8257/ 90300=
07650,1996-04-26 06:00:00,14,1016.1,-0.2,82,11,8000,3.704,,,50,13.6,17,,,,,,,,,wg-a,,,,AAXX 26064 07650 12558 70502 10140 20110 30117 40161 55002 60006 81542 90600 333 10170 20136=
07650,1996-04-26 09:00:00,16,1016,-0.1,82,13,6000,3.704,,,240,,,,,,,,,,,wg-a,,,,AAXX 26094 07650 12556 82402 10160 20130 30116 40160 55001 60006 8257/ 90900=
07650,1996-04-26 12:00:00,17,1015.3,-0.7,72,12,12000,14.816,,,290,,,,,,,,,,,wg-a,,,,AAXX 26124 07650 12562 82908 10170 20120 30109 40153 58007 60006 8487/ 91200=
07650,1996-04-26 15:00:00,15,1014.7,-0.6,88,13,6000,11.112,,,320,,,,1,,,,,,60,wg-a,,,,AAXX 26154 07650 12556 83206 10150 20130 30103 40147 57006 60017 76062 8487/ 91500=
07650,1996-04-26 18:00:00,15,1014,-0.7,88,13,6000,3.704,,,160,13.8,17.3,,2,,,,,,60,wg-a,,,,AAXX 26184 07650 12556 81602 10150 20130 30096 40140 55007 60027 76062 8487/ 91800 333 10173 20138=
07650,1996-04-26 21:00:00,14,1014.4,0.4,94,13,3000,3.704,,,350,,,,2,,,,,,61,wg-a,,,,AAXX 26214 07650 12430 83502 10140 20130 30100 40144 51004 60027 76166 8487/ 92100=
07650,1996-04-27 00:00:00,14,1013.7,-0.7,94,13,8000,7.408,,,20,,,,1,,,,,,21,wg-a,,,,AAXX 27004 07650 02258 80204 10140 20130 30093 40137 56007 60036 72162 8487/ 90000 333 60017=
07650,1996-04-27 03:00:00,13,1012.6,-1.1,100,13,500,0,,,0,,,,1,,,,,,61,wg-a,,,,AAXX 27034 07650 12200 80000 10130 20130 30082 40126 56011 60017 76162 8487/ 90300=
07650,1996-04-27 06:00:00,13,1012.4,-0.2,94,12,3000,7.408,,,20,12.9,14.8,,2,,,8,,,10,wg-a,,,,AAXX 27064 07650 02230 80204 10130 20120 30080 40124 55002 60084 71062 8487/ 90600 333 10148 20129 60027=
07650,1996-04-27 09:00:00,14,1012.3,-0.1,94,13,6000,3.704,,,40,,,,0,,,,,,2,wg-a,,,,AAXX 27094 07650 12356 80402 10140 20130 30079 40123 55001 60007 70262 8557/ 90900=
07650,1996-04-27 12:00:00,16,1011.9,-0.4,88,14,10000,7.408,,,320,,,,,,,,,,,wg-a,,,,AAXX 27124 07650 12460 83204 10160 20140 30075 40119 58004 60006 8357/ 91200=
07650,1996-04-27 15:00:00,17,1010.7,-1.2,82,14,15000,0,,,0,,,,,,,,,,,wg-a,,,,AAXX 27154 07650 12465 80000 10170 20140 30063 40107 56012 60006 8157/ 91500=
07650,1996-04-27 18:00:00,16,1010.7,-0,88,14,10000,0,,,0,12.9,16.9,,,,,,,,,wg-a,,,,AAXX 27184 07650 32/60 /0000 10160 20140 30063 40107 55000 91800 333 10169 20129=
07650,1996-04-27 21:00:00,16,1011.9,1.2,82,13,10000,7.408,,,110,,,,,,,,,,60,wg-a,,,,AAXX 27214 07650 02560 81104 10160 20130 30075 40119 51012 61000 76062 8487/ 92100 333 ////=
07650,1996-04-28 00:00:00,14,1011.2,-0.7,88,12,8000,7.408,,,100,,,,1,,,,,,60,wg-a,,,,AAXX 28004 07650 02558 81004 10140 20120 30068 40112 58007 60016 76062 8487/ 90000 333 60017=
07650,1996-04-28 03:00:00,13,1009.9,-1.3,94,12,10000,7.408,,,10,,,,1,,,,,,60,wg-a,,,,AAXX 28034 07650 12560 80104 10130 20120 30055 40099 56013 60017 76066 8487/ 90300=
07650,1996-04-28 06:00:00,13,1009.2,-0.7,94,12,6000,7.408,,,30,12.9,16.2,,2,,,5,,,60,wg-a,,,,AAXX 28064 07650 02356 80304 10130 20120 30048 40092 56007 60054 76062 8657/ 90600 333 10162 20129 60027=
07650,1996-04-28 09:00:00,14,1008.9,-0.3,94,13,6000,14.816,,,20,,,,3,,,,,,10,wg-a,,,,AAXX 28094 07650 12356 80208 10140 20130 30045 40089 58003 60037 71066 8657/ 90900=
07650,1996-04-28 12:00:00,14,1008.1,-0.8,94,13,8000,7.408,,,50,,,,4,,,,,,61,wg-a,,,,AAXX 28124 07650 02458 80504 10140 20130 30037 40081 58008 60076 76166 8557/ 91200 333 60047=
07650,1996-04-28 15:00:00,15,1006.6,-1.5,88,13,6000,11.112,,,60,,,,1,,,,,,60,wg-a,,,,AAXX 28154 07650 12456 80606 10150 20130 30022 40066 56015 60017 76066 8567/ 91500=
07650,1996-04-28 18:00:00,14,1006.2,-0.4,94,13,8000,3.704,,,30,12.9,14.9,,2,,,,,,60,wg-a,,,,AAXX 28184 07650 12458 80302 10140 20130 30018 40062 55004 60027 76066 8557/ 91800 333 10149 20129=
07650,1996-04-28 21:00:00,13,1006.1,-0.1,94,12,9000,14.816,,,20,,,,1,,,,,,60,wg-a,,,,AAXX 28214 07650 12459 80208 10130 20120 30017 40061 58001 60017 76066 8/87/ 92100=
07650,1996-04-29 00:00:00,14,1005.4,-0.7,88,12,12000,18.52,,,60,,,,1,,,,,,21,wg-a,,,,AAXX 29004 07650 02562 80610 10140 20120 30010 40054 57007 60016 72162 8457/ 90000 333 60017=
07650,1996-04-29 03:00:00,14,1004.3,-1.1,88,12,10000,18.52,,,80,,,,0,,,,,,21,wg-a,,,,AAXX 29034 07650 12660 80810 10140 20120 39999 40043 57011 60007 72162 8457/ 90300=
07650,1996-04-29 06:00:00,14,1004.4,0.1,88,12,8000,14.816,,,100,13.4,14.4,,,,,12,,,2,wg-a,,,,AAXX 29064 07650 02658 81008 10140 20120 30000 40044 53001 60124 70262 8657/ 90600 333 10144 20134 61000=
07650,1996-04-29 09:00:00,17,1004.9,0.6,77,13,20000,11.112,,,90,,,,,,,,,,,wg-a,,,,AAXX 29094 07650 12570 70906 10170 20130 30006 40049 51006 60006 8583/ 90900=
07650,1996-04-29 12:00:00,15,1004.9,-0.1,94,14,4000,3.704,,,220,,,,8,,,,,,61,wg-a,,,,AAXX 29124 07650 02540 82202 10150 20140 30005 40049 58001 60086 76166 8587/ 91200 333 60087=
07650,1996-04-29 15:00:00,15,1003.9,-1,94,14,10000,7.408,,,350,,,,1,,,,,,1,wg-a,,,,AAXX 29154 07650 12460 73504 10150 20140 39995 40039 58010 60017 70196 878// 91500=
07650,1996-04-29 18:00:00,15,1004,0.1,88,13,20000,3.704,,,360,14.4,17,,,,,,,,,wg-a,,,,AAXX 29184 07650 32370 73602 10150 20130 39996 40040 50001 838// 91800 333 10170 20144=
07650,1996-04-29 21:00:00,14,1005.1,1.1,94,13,20000,7.408,,,160,,,,,,,,,,,wg-a,,,,AAXX 29214 07650 12670 71604 10140 20130 30007 40051 51011 60006 8657/ 92100=
07650,1996-04-30 00:00:00,13,1004.9,-0.2,94,12,20000,0,,,0,,,,,,,,,,,wg-a,,,,AAXX 30004 07650 12670 70000 10130 20120 30005 40049 58002 60006 8353/ 90000=
07650,1996-04-30 03:00:00,13,1003.7,-1.2,94,12,12000,0,,,0,,,,,,,,,,21,wg-a,,,,AAXX 30034 07650 02562 70000 10130 20120 39993 40037 56012 61000 72162 8457/ 90300 333 ////=
07650,1996-04-30 04:00:00,14,1003.9,0.2,94,13,6000,3.704,,,140,12.9,15.2,,,,,9,,,1,wg-a,,,,AAXX 30044 07650 12556 71402 10140 20130 39995 40039 53002 60094 70162 8687/ 90400 333 10152 20129=
07650,1996-04-30 06:00:00,14,1003.9,0.2,94,13,6000,3.704,,,140,12.9,15.2,,,,,9,,,1,wg-a,,,,AAXX 30064 07650 12556 71402 10140 20130 39995 40039 53002 60094 70162 8687/ 90600 333 10152 20129=
07650,1996-04-30 09:00:00,,1,-0.1,,,6000,14.816,,,300,,,,,,,,,,,wg-a,,,,AAXX 30094 07650 32456 73008 1//// 2//// 39994 58001 878// 90900=
07650,1996-04-30 12:00:00,,1,-1.3,,,10000,18.52,,,290,,,,,,,,,,,wg-a,,,,AAXX 30124 07650 32560 72910 1//// 2//// 39981 58013 872// 91200=
07650,1996-04-30 15:00:00,,1,-1.3,,,12000,14.816,,,280,,,,,,,,,,,wg-a,,,,AAXX 30154 07650 32562 32808 1//// 2//// 39968 56013 83800 91500=
07650,1996-04-30 18:00:00,18,1001.5,0.4,68,12,15000,25.928,,,240,,,,,,,,,,,wg-a,,,,AAXX 30184 07650 32665 32414 10180 20120 39972 40015 53004 82530 91800=
07650,1996-04-30 21:00:00,15,1002.9,1.3,82,12,12000,3.704,,,110,,,,,,,,,,,wg-a,,,,AAXX 30214 07650 12662 31102 10150 20120 39985 40029 51013 60006 83400 92100=
07650,1996-05-01 00:00:00,14,1002.9,0,77,10,12000,7.408,,,160,,,,,,,,,,,wg-a,,,,AAXX 01004 07650 12/62 /1604 10140 20100 39985 40029 50000 60006 80000 90000=
07650,1996-05-01 03:00:00,12,1002.1,-0.8,94,11,10000,11.112,,,120,,,,,,,,,,,wg-a,,,,AAXX 01034 07650 12/60 41206 10120 20110 39977 40021 56008 60006 82031 90300=
07650,1996-05-01 06:00:00,13,1002.1,-0,88,11,10000,7.408,,,140,12,17.6,,,,,,,,,wg-a,,,,AAXX 01064 07650 12560 41404 10130 20110 39977 40021 55000 60006 81131 90600 333 10176 20120=
07650,1996-05-01 09:00:00,18,1002.3,0.3,68,12,25000,14.816,,,150,,,,,,,,,,,wg-a,,,,AAXX 01094 07650 12575 41508 10180 20120 39980 40023 53003 60006 83232 90900=
07650,1996-05-01 12:00:00,18,1002.1,-0.2,73,13,25000,25.928,,,160,,,,,,,,,,,wg-a,,,,AAXX 01124 07650 12575 /1614 10180 20130 39978 40021 58002 60006 82232 91200=
07650,1996-05-01 15:00:00,17,1000.9,-1.2,82,14,15000,29.632,,42.596,150,,,,,,,,,,,wg-a,,,,AAXX 01154 07650 12565 71516 10170 20140 39966 40009 56012 60006 84832 91500 333 91023=
07650,1996-05-01 18:00:00,16,1000.6,-0.3,88,14,11000,18.52,,,150,12.9,18.5,,,,,,,,25,wg-a,,,,AAXX 01184 07650 02461 51510 10160 20140 39963 40006 58003 61000 72582 85283 91800 333 10185 20129 ////=
07650,1996-05-01 21:00:00,15,1001.6,0.9,88,13,12000,14.816,,,160,,,,,,,,,,,wg-a,,,,AAXX 01214 07650 12562 51608 10150 20130 39972 40016 51009 60006 85402 92100=
07650,1996-05-02 00:00:00,15,1001,-0.6,82,12,12000,11.112,,,140,,,,,,,,,,,wg-a,,,,AAXX 02004 07650 12562 31406 10150 20120 39966 40010 58006 60006 82502 90000=
07650,1996-05-02 03:00:00,14,1000.2,-0.8,82,11,15000,18.52,,,140,,,,,,,,,,,wg-a,,,,AAXX 02034 07650 12565 /1410 10140 20110 39958 40002 57008 60006 81530 90300=
07650,1996-05-02 06:00:00,15,1000.1,-0,82,12,15000,18.52,,,140,13.6,16,,,,,,,,,wg-a,,,,AAXX 02064 07650 02565 /1410 10150 20120 39958 40001 55000 60006 85800 90600 333 10160 20136 61000=
07650,1996-05-02 09:00:00,18,1000.4,0.3,68,12,15000,25.928,,,150,,,,,,,,,,,wg-a,,,,AAXX 02094 07650 12565 /1514 10180 20120 39961 40004 53003 60006 85230 90900=
07650,1996-05-02 12:00:00,17,1001.2,0.8,72,12,20000,22.224,,,270,,,,,,,,,,,wg-a,,,,AAXX 02124 07650 12570 72712 10170 20120 39969 40012 51008 60006 84230 91200=
07650,1996-05-02 15:00:00,17,1001.7,0.5,52,7,20000,25.928,,,300,,,,,,,,,,,wg-a,,,,AAXX 02154 07650 12570 73014 10170 20070 39974 40017 53005 60006 86831 91500=
07650,1996-05-02 18:00:00,16,1001.6,-0.1,48,5,40000,3.704,,,40,15,18.5,,,,,,,,,wg-a,,,,AAXX 02184 07650 12582 70402 10160 20050 39973 40016 55001 60006 83832 91800 333 10185 20150=
07650,1996-05-02 21:00:00,14,1003.2,1.5,58,6,40000,18.52,,,300,,,,,,,,,,,wg-a,,,,AAXX 02214 07650 12682 73010 10140 20060 39988 40032 51015 60006 83531 92100=
07650,1996-05-03 00:00:00,12,1003.2,0,67,6,40000,7.408,,,360,,,,,,,,,,,wg-a,,,,AAXX 03004 07650 12682 /3604 10120 20060 39988 40032 50000 60006 81101 90000=
07650,1996-05-03 03:00:00,9,1003.9,0.6,81,6,40000,3.704,,,80,,,,,,,,,,,wg-a,,,,AAXX 03034 07650 12582 30802 10090 20060 39994 40039 50006 60006 81231 90300=
07650,1996-05-03 04:00:00,11,1005.4,1.6,82,8,12000,7.408,,,140,8.7,16.1,,,,,,,,,wg-a,,,,AAXX 03044 07650 12662 /1404 10110 20080 30010 40054 53016 60006 84231 90400 333 10161 20087=
07650,1996-05-03 06:00:00,11,1005.4,1.6,82,8,12000,7.408,,,140,8.7,16.1,,,,,,,,,wg-a,,,,AAXX 03064 07650 12262 /1404 10110 20080 30010 40054 53016 60006 84831 90600 333 10161 20087=
07650,1996-05-03 09:00:00,15,1006,0.6,59,7,20000,22.224,,,240,,,,,,,,,,,wg-a,,,,AAXX 03094 07650 12570 /2412 10150 20070 30016 40060 52006 60006 84800 90900=
07650,1996-05-03 12:00:00,17,1006.4,,52,7,25000,22.224,,,250,,,,,,,,,,,wg-a,,,,AAXX 03124 07650 32575 32512 10170 20070 30020 40064 83200 91200=
07650,1996-05-03 15:00:00,17,1007.1,0.7,52,7,25000,22.224,,,200,,,,,,,,,,,wg-a,,,,AAXX 03154 07650 12575 32012 10170 20070 30027 40071 51007 60006 83200 91500=
07650,1996-05-03 18:00:00,15,1007.7,0.6,67,9,25000,18.52,,,160,10.8,18,,,,,,,,,wg-a,,,,AAXX 03184 07650 12575 31610 10150 20090 30033 40077 53006 60006 81202 91800 333 10180 20108=
07650,1996-05-03 21:00:00,13,1009.5,1.8,82,10,25000,0,,,0,,,,,,,,,,,wg-a,,,,AAXX 03214 07650 12575 30000 10130 20100 30051 40095 53018 60006 81203 92100=
07650,1996-05-04 00:00:00,11,1010.1,0.5,82,8,25000,7.408,,,130,,,,,,,,,,,wg-a,,,,AAXX 04004 07650 12475 /1304 10110 20080 30056 40101 51005 60006 81500 90000=
07650,1996-05-04 03:00:00,11,1009.9,-0.2,82,8,25000,7.408,,,190,,,,,,,,,,,wg-a,,,,AAXX 04034 07650 12/75 11904 10110 20080 30054 40099 56002 60006 80001 90300=
07650,1996-05-04 06:00:00,11,1011.2,1.3,76,7,50000,11.112,,,90,9.6,15.1,,,,,,,,,wg-a,,,,AAXX 04064 07650 12/84 10906 10110 20070 30067 40112 51013 60006 81031 90600 333 10151 20096=
07650,1996-05-04 09:00:00,17,1012.1,1,59,9,40000,11.112,,,280,,,,,,,,,,,wg-a,,,,AAXX 04094 07650 12582 /2806 10170 20090 30077 40121 51010 60006 81100 90900=
07650,1996-05-04 12:00:00,20,1012.3,0.3,43,7,40000,11.112,,,260,,,,,,,,,,,wg-a,,,,AAXX 04124 07650 12682 22606 10200 20070 30080 40123 50003 60006 82100 91200=
07650,1996-05-04 15:00:00,20,1012,-0.3,56,11,15000,18.52,,,260,,,,,,,,,,,wg-a,,,,AAXX 04154 07650 12665 /2610 10200 20110 30077 40120 58003 60006 81201 91500=
07650,1996-05-04 18:00:00,17,1012.7,0.6,63,10,40000,18.52,,,180,11.5,20.7,,,,,,,,,wg-a,,,,AAXX 04184 07650 12682 31810 10170 20100 30083 40127 53006 60006 81101 91800 333 10207 20115=
07650,1996-05-04 21:00:00,14,1014.5,1.8,77,10,20000,7.408,,,140,,,,,,,,,,,wg-a,,,,AAXX 04214 07650 12/70 21404 10140 20100 30101 40145 51018 60006 80001 92100=
07650,1996-05-05 00:00:00,12,1014.8,0.2,82,9,20000,11.112,,,130,,,,,,,,,,,wg-a,,,,AAXX 05004 07650 12/70 21306 10120 20090 30103 40148 50002 60006 80001 90000=
07650,1996-05-05 03:00:00,11,1014,-0.8,82,8,20000,3.704,,,140,,,,,,,,,,,wg-a,,,,AAXX 05034 07650 12/70 21402 10110 20080 30095 40140 58008 60006 80001 90300=
07650,1996-05-05 06:00:00,13,1014.2,0.3,72,8,25000,3.704,,,130,10.6,17.1,,,,,,,,,wg-a,,,,AAXX 05064 07650 12/75 31302 10130 20080 30098 40142 53003 60006 80001 90600 333 10171 20106=
07650,1996-05-05 09:00:00,18,1014.7,0.5,49,7,25000,7.408,,,310,,,,,,,,,,,wg-a,,,,AAXX 05094 07650 12575 /3104 10180 20070 30103 40147 51005 60006 81101 90900=
07650,1996-05-05 12:00:00,19,1013.9,-0.7,56,10,25000,14.816,,,300,,,,,,,,,,,wg-a,,,,AAXX 05124 07650 12575 /3008 10190 20100 30096 40139 58007 60006 82201 91200=
07650,1996-05-05 15:00:00,20,1012.8,-1.1,56,11,25000,18.52,,,200,,,,,,,,,,,wg-a,,,,AAXX 05154 07650 12575 32010 10200 20110 30085 40128 56011 60006 81201 91500=
07650,1996-05-05 18:00:00,17,1012.7,-0.2,77,13,25000,11.112,,,180,13.3,20.6,,,,,,,,,wg-a,,,,AAXX 05184 07650 12575 31806 10170 20130 30083 40127 55002 60006 81131 91800 333 10206 20133=
07650,1996-05-05 21:00:00,15,1013.6,0.9,88,13,15000,7.408,,,160,,,,,,,,,,,wg-a,,,,AAXX 05214 07650 12465 31604 10150 20130 30092 40136 51009 60006 83600 92100=
07650,1996-05-06 00:00:00,15,1013.4,-0.2,88,13,15000,7.408,,,120,,,,,,,,,,,wg-a,,,,AAXX 06004 07650 12465 /1204 10150 20130 30090 40134 58002 60006 85500 90000=
07650,1996-05-06 03:00:00,12,1012.2,-1.2,94,11,8000,7.408,,,90,,,,,,,,,,,wg-a,,,,AAXX 06034 07650 12458 20904 10120 20110 30078 40122 58012 60006 82500 90300=
07650,1996-05-06 06:00:00,13,1012.4,0.2,88,11,7000,3.704,,,150,11.2,17.4,,,,,,,,,wg-a,,,,AAXX 06064 07650 12457 /1502 10130 20110 30080 40124 53002 60006 81530 90600 333 10174 20112=
07650,1996-05-06 09:00:00,19,1012.2,-0.1,64,12,20000,18.52,,,140,,,,,,,,,,,wg-a,,,,AAXX 06094 07650 12570 41410 10190 20120 30079 40122 58001 60006 82530 90900=
07650,1996-05-06 12:00:00,21,1011.4,-0.8,64,14,35000,25.928,,,180,,,,,,,,,,,wg-a,,,,AAXX 06124 07650 12581 41814 10210 20140 30071 40114 58008 60006 83130 91200=
07650,1996-05-06 15:00:00,21,1010.3,-1.1,56,12,500,25.928,,,150,,,,,,,,,,,wg-a,,,,AAXX 06154 07650 12500 21514 10210 20120 30060 40103 58011 60006 82202 91500=
07650,1996-05-06 18:00:00,18,1010.6,0.3,73,13,35000,25.928,,,160,13,20.7,,,,,,,,,wg-a,,,,AAXX 06184 07650 12581 31614 10180 20130 30063 40106 53003 60006 82102 91800 333 10207 20130=
07650,1996-05-06 21:00:00,16,1011.3,0.6,82,13,25000,11.112,,,150,,,,,,,,,,,wg-a,,,,AAXX 06214 07650 12575 21506 10160 20130 30069 40113 51006 60006 82401 92100=
07650,1996-05-07 00:00:00,15,1009.7,-1.6,77,11,25000,14.816,,,100,,,,,,,,,,,wg-a,,,,AAXX 07004 07650 12575 21008 10150 20110 30053 40097 58016 60006 81530 90000=
07650,1996-05-07 03:00:00,14,1009.5,-0.2,82,11,25000,7.408,,,60,,,,,,,,,,,wg-a,,,,AAXX 07034 07650 12575 50604 10140 20110 30051 40095 58002 60006 82531 90300=
07650,1996-05-07 06:00:00,16,1009.8,0.3,72,11,20000,7.408,,,140,14.1,17.9,,,,,,,,,wg-a,,,,AAXX 07064 07650 12570 /1404 10160 20110 30054 40098 50003 60006 83531 90600 333 10179 20141=
07650,1996-05-07 09:00:00,20,1008.7,-1,53,10,20000,14.816,,,140,,,,,,,,,,,wg-a,,,,AAXX 07094 07650 12570 71408 10200 20100 30044 40087 58010 60006 83532 90900=
07650,1996-05-07 12:00:00,22,1008.8,0.1,53,12,500,31.484,,,140,,,,,,,,,,3,wg-a,,,,AAXX 07124 07650 02500 71417 10220 20120 30045 40088 50001 61000 70362 8587/ 91200 333 6100=
07650,1996-05-07 15:00:00,20,1009.3,0.5,64,13,20000,29.632,,,150,,,,,,,,,,,wg-a,,,,AAXX 07154 07650 12570 61516 10200 20130 30050 40093 51005 60006 84832 91500=
07650,1996-05-07 18:00:00,19,1009.6,0.3,68,13,20000,18.52,,,150,16.2,22.3,,,,,,,,,wg-a,,,,AAXX 07184 07650 32570 71510 10190 20130 30053 40096 53003 84832 91800 333 10223 20162=
07650,1996-05-07 21:00:00,18,1011.2,1.5,73,13,20000,11.112,,,140,,,,,,,,,,,wg-a,,,,AAXX 07214 07650 12670 /1406 10180 20130 30068 40112 51015 60006 81500 92100=
07650,1996-05-08 00:00:00,17,1011.5,0.3,82,14,20000,11.112,,,140,,,,,,,,,,21,wg-a,,,,AAXX 08004 07650 02570 71406 10170 20140 30071 40115 52003 61000 72162 8257/ 90000 333 6100=
07650,1996-05-08 03:00:00,16,1011.2,-0.3,88,14,20000,7.408,,,150,,,,1,,,,,,21,wg-a,,,,AAXX 08034 07650 12570 71504 10160 20140 30068 40112 56003 60017 72162 8587/ 90300=
07650,1996-05-08 06:00:00,14,1011.2,0,88,12,15000,11.112,,,80,13.4,19,,8,,,9,,,29,wg-a,,,,AAXX 08064 07650 02465 80806 10140 20120 30068 40112 50000 60094 72996 8597/ 90600 333 10190 20134 60087=
07650,1996-05-08 09:00:00,19,1011.6,0.5,73,14,500,14.816,,,110,,,,,,,,,,,wg-a,,,,AAXX 08094 07650 12500 /1108 10190 20140 30073 40116 51005 60006 84833 90900=
07650,1996-05-08 12:00:00,17,1012,0.3,77,13,500,18.52,,,80,,,,,,,,,,,wg-a,,,,AAXX 08124 07650 12500 60810 10170 20130 30076 40120 53003 60006 85933 91200=
07650,1996-05-08 15:00:00,20,1010.8,-1.1,64,13,500,11.112,,,210,,,,,,,,,,1,wg-a,,,,AAXX 08154 07650 12500 52106 10200 20130 30065 40108 58011 60006 70192 83933 91500=
07650,1996-05-08 18:00:00,18,1010.9,-0,64,11,25000,11.112,,,180,13.8,20.8,,,,,,,,1,wg-a,,,,AAXX 08184 07650 12575 51806 10180 20110 30065 40109 55000 60006 70191 84983 91800 333 10208 20138=
07650,1996-05-08 21:00:00,15,1011.3,0.4,82,12,25000,0,,,0,,,,,,,,,,,wg-a,,,,AAXX 08214 07650 12575 50000 10150 20120 30069 40113 50004 60006 83863 92100=
07650,1996-05-09 00:00:00,14,1009.7,-1.6,82,11,11000,3.704,,,40,,,,,,,,,,,wg-a,,,,AAXX 09004 07650 12/61 /0402 10140 20110 30053 40097 58016 60006 90000=
07650,1996-05-09 03:00:00,12,1008.3,-1.4,94,11,20000,11.112,,,140,,,,,,,,,,,wg-a,,,,AAXX 09034 07650 12/70 21406 10120 20110 30039 40083 56014 60006 81032 90300=
07650,1996-05-09 06:00:00,14,1008.4,0.1,94,13,20000,0,,,0,11.9,17.7,,,,,,,,,wg-a,,,,AAXX 09064 07650 12570 70000 10140 20130 30040 40084 53001 60006 8228/ 90600 333 10177 20119=
07650,1996-05-09 09:00:00,17,1007.7,,82,14,15000,7.408,,,270,,,,,,,,,,,wg-a,,,,AAXX 09094 07650 12565 /2704 10170 20140 30034 40077 60006 83230 90900=
07650,1996-05-09 12:00:00,21,1005.8,-1.9,60,13,20000,18.52,,,280,,,,,,,,,,,wg-a,,,,AAXX 09124 07650 12570 52810 10210 20130 30015 40058 58019 60006 84202 91200=
07650,1996-05-09 15:00:00,21,1004.5,-1.3,53,11,35000,25.928,,,300,,,,,,,,,,,wg-a,,,,AAXX 09154 07650 12681 /3014 10210 20110 30002 40045 56013 60006 85900 91500=
07650,1996-05-09 18:00:00,17,1004.9,0.4,68,11,20000,22.224,,,330,13.7,22.2,,,,,,,,1,wg-a,,,,AAXX 09184 07650 12670 53312 10170 20110 30006 40049 53004 60006 70192 82932 91800 333 10222 20137=
07650,1996-05-09 21:00:00,14,1005.5,0.5,77,10,12000,18.52,,,320,,,,,,,,,,,wg-a,,,,AAXX 09214 07650 12562 33210 10140 20100 30011 40055 50005 60006 81502 92100=
07650,1996-05-10 00:00:00,11,1004.8,-0.7,87,9,12000,14.816,,,350,,,,,,,,,,,wg-a,,,,AAXX 10004 07650 12/62 23508 10110 20090 30004 40048 58007 60006 80002 90000=
07650,1996-05-10 03:00:00,10,1003.8,-1.1,87,8,12000,0,,,0,,,,,,,,,,,wg-a,,,,AAXX 10034 07650 12/62 20000 10100 20080 39993 40038 56011 60006 80002 90300=
07650,1996-05-10 06:00:00,11,1003.7,-0,87,9,9000,11.112,,,40,9.4,17.4,,,,,,,,,wg-a,,,,AAXX 10064 07650 12/59 40406 10110 20090 39993 40037 54000 60006 82032 90600 333 10174 20094=
07650,1996-05-10 09:00:00,16,1003.8,0.2,72,11,15000,14.816,,,300,,,,,,,,,,,wg-a,,,,AAXX 10094 07650 12665 /3008 10160 20110 39995 40038 50002 60006 81132 90900=
07650,1996-05-10 12:00:00,20,1002.8,-1,56,11,25000,25.928,,,300,,,,,,,,,,,wg-a,,,,AAXX 10124 07650 12675 /3014 10200 20110 39985 40028 56010 60006 83202 91200=
07650,1996-05-10 15:00:00,21,1002.6,-0.2,53,11,25000,22.224,,,290,,,,,,,,,,,wg-a,,,,AAXX 10154 07650 12575 62912 10210 20110 39983 40026 58002 60006 83962 91500=
07650,1996-05-10 18:00:00,20,1003.5,0.9,53,10,25000,14.816,,,330,11.1,21.5,,,,,,,,,wg-a,,,,AAXX 10184 07650 12675 33308 10200 20100 39992 40035 53009 60006 83232 91800 333 10215 20111=
07650,1996-05-10 21:00:00,16,1005.2,1.6,77,12,18000,11.112,,,190,,,,,,,,,,,wg-a,,,,AAXX 10214 07650 12668 31906 10160 20120 30008 40052 51016 60006 81403 92100=
07650,1996-05-11 00:00:00,13,1005.6,0.4,88,11,18000,3.704,,,140,,,,,,,,,,,wg-a,,,,AAXX 11004 07650 12/68 21402 10130 20110 30012 40056 51004 60006 80002 90000=
07650,1996-05-11 03:00:00,12,1005.5,-0.1,94,11,15000,3.704,,,30,,,,,,,,,,,wg-a,,,,AAXX 11034 07650 12/65 50302 10120 20110 30011 40055 56001 60006 84032 90300=
07650,1996-05-11 06:00:00,13,1005.8,0.3,94,12,9000,0,,,0,11.7,20.3,,,,,,,,,wg-a,,,,AAXX 11064 07650 12/59 50000 10130 20120 30014 40058 53003 60006 82032 90600 333 10203 20117=
07650,1996-05-11 09:00:00,18,1005.8,0.1,73,13,11000,11.112,,,280,,,,,,,,,,,wg-a,,,,AAXX 11094 07650 12661 /2806 10180 20130 30015 40058 52001 60006 82202 90900=
07650,1996-05-11 12:00:00,21,1005.4,-0.4,53,11,12000,14.816,,,300,,,,,,,,,,,wg-a,,,,AAXX 11124 07650 12662 /3008 10210 20110 30011 40054 58004 60006 82232 91200=
07650,1996-05-11 15:00:00,22,1004.7,-0.7,50,11,15000,14.816,,,260,,,,,,,,,,,wg-a,,,,AAXX 11154 07650 12565 52608 10220 20110 30004 40047 58007 60006 82932 91500=
07650,1996-05-11 18:00:00,18,1006.1,1.4,68,12,15000,11.112,,,220,13.4,22.3,,,,,,,,,wg-a,,,,AAXX 11184 07650 12565 62206 10180 20120 30018 40061 52014 60006 83932 91800 333 10223 20134=
07650,1996-05-11 21:00:00,16,1006.9,0.7,77,12,20000,7.408,,,340,,,,,,,,,,,wg-a,,,,AAXX 11214 07650 12/70 23404 10160 20120 30025 40069 51007 60006 81011 92100=
07650,1996-05-12 00:00:00,14,1006.4,-0.5,82,11,20000,7.408,,,360,,,,,,,,,,,wg-a,,,,AAXX 12004 07650 12/70 13604 10140 20110 30020 40064 56005 60006 80001 90000=
07650,1996-05-12 03:00:00,12,1005.9,-0.5,82,9,20000,3.704,,,110,,,,,,,,,,,wg-a,,,,AAXX 12034 07650 12/70 01102 10120 20090 30015 40059 56005 60006 80000 90300=
07650,1996-05-12 06:00:00,13,1007,1.1,82,10,20000,18.52,,,340,11.5,18.2,,,,,,,,,wg-a,,,,AAXX 12064 07650 12670 33410 10130 20100 30026 40070 53011 60006 81532 90600 333 10182 20115=
07650,1996-05-12 09:00:00,18,1007,0.1,64,11,10000,29.632,,,340,,,,,,,,,,,wg-a,,,,AAXX 12094 07650 12560 33416 10180 20110 30027 40070 51001 60006 81502 90900=
07650,1996-05-12 12:00:00,19,1007.5,0.5,56,10,12000,46.3,,,340,,,,,,,,,,,wg-a,,,,AAXX 12124 07650 12562 /3425 10190 20100 30032 40075 53005 60006 81502 91200=
07650,1996-05-12 15:00:00,18,1007.8,0.3,52,8,12000,61.116,,83.34,340,,,,,,,,,,,wg-a,,,,AAXX 12154 07650 12562 73433 10180 20080 30035 40078 52003 60006 84502 91500 333 91045=
07650,1996-05-12 18:00:00,16,1009.7,1.8,59,8,15000,50.004,,83.34,350,12.6,19.5,,,,,,,,,wg-a,,,,AAXX 12184 07650 12565 73527 10160 20080 30053 40097 53018 60006 83502 91800 333 10195 20126 91045=
07650,1996-05-12 21:00:00,14,1010.7,1,67,8,15000,57.412,,87.044,340,,,,,,,,,,,wg-a,,,,AAXX 12214 07650 12665 73431 10140 20080 30063 40107 51010 60006 83502 92100 333 91047=
07650,1996-05-13 00:00:00,14,1011,0.3,63,7,15000,53.708,,87.044,340,,,,,,,,,,,wg-a,,,,AAXX 13004 07650 12665 33429 10140 20070 30066 40110 50003 60006 81502 90000 333 91047=
07650,1996-05-13 03:00:00,13,1011.6,0.6,67,7,20000,50.004,,72.228,340,,,,,,,,,,,wg-a,,,,AAXX 13034 07650 12670 33427 10130 20070 30072 40116 51006 60006 81502 90300 333 91039=
07650,1996-05-13 06:00:00,13,1012.2,0.6,67,7,25000,42.596,,,340,12.6,15.7,,,,,,,,,wg-a,,,,AAXX 13064 07650 12675 33423 10130 20070 30078 40122 51006 60006 81132 90600 333 10157 20126=
07650,1996-05-13 09:00:00,16,1011.9,-0.3,63,9,500,42.596,,,340,,,,,,,,,,,wg-a,,,,AAXX 13094 07650 12500 33423 10160 20090 30075 40119 58003 60006 82102 90900=
07650,1996-05-13 12:00:00,19,1011.7,-0.1,56,10,500,31.484,,,340,,,,,,,,,,,wg-a,,,,AAXX 13124 07650 12500 33417 10190 20100 30074 40117 58001 60006 81102 91200=
07650,1996-05-13 15:00:00,18,1011.9,0.1,56,9,500,35.188,,,350,,,,,,,,,,,wg-a,,,,AAXX 13154 07650 12500 /3519 10180 20090 30075 40119 53001 60006 81102 91500=
07650,1996-05-13 18:00:00,16,1012.6,0.7,59,8,500,29.632,,,330,13.2,19.1,,,,,,,,,wg-a,,,,AAXX 13184 07650 12500 43316 10160 20080 30082 40126 51007 60006 81102 91800 333 10191 20132=
07650,1996-05-13 21:00:00,12,1013.4,0.7,76,8,25000,14.816,,,320,,,,,,,,,,,wg-a,,,,AAXX 13214 07650 12/75 33208 10120 20080 30089 40134 51007 60006 80002 92100=
07650,1996-05-14 00:00:00,10,1013.1,-0.3,87,8,25000,11.112,,,30,,,,,,,,,,,wg-a,,,,AAXX 14004 07650 12/75 20306 10100 20080 30086 40131 58003 60006 81032 90000=
07650,1996-05-14 03:00:00,10,1012,-1.1,82,7,25000,11.112,,,30,,,,,,,,,,,wg-a,,,,AAXX 14034 07650 12/75 00306 10100 20070 30075 40120 58011 60006 80000 90300=
07650,1996-05-14 06:00:00,12,1011.7,-0.3,76,8,25000,11.112,,,30,9,15.6,,,,,,,,,wg-a,,,,AAXX 14064 07650 12/75 20306 10120 20080 30072 40117 56003 60006 80002 90600 333 10156 20090=
07650,1996-05-14 09:00:00,19,1011.2,-0.3,60,11,25000,14.816,,,300,,,,,,,,,,,wg-a,,,,AAXX 14094 07650 12/75 23008 10190 20110 30069 40112 58003 60006 80001 90900=
07650,1996-05-14 12:00:00,23,1010.1,-1.1,47,11,25000,18.52,,,280,,,,,,,,,,,wg-a,,,,AAXX 14124 07650 12675 22810 10230 20110 30058 40101 58011 60006 81101 91200=
07650,1996-05-14 15:00:00,23,1009.3,-0.8,47,11,500,14.816,,,240,,,,,,,,,,,wg-a,,,,AAXX 14154 07650 12600 42408 10230 20110 30050 40093 58008 60006 81202 91500=
07650,1996-05-14 18:00:00,19,1008.8,-0.5,68,13,500,22.224,,,250,12,23.4,,,,,,,,,wg-a,,,,AAXX 14184 07650 12/00 52512 10190 20130 30045 40088 55005 60006 80001 91800 333 10234 20120=
07650,1996-05-14 21:00:00,17,1009.8,0.9,63,10,500,11.112,,,320,,,,,,,,,,,wg-a,,,,AAXX 14214 07650 12/00 43206 10170 20100 30054 40098 51009 60006 80001 92100=
07650,1996-05-15 00:00:00,14,1009.1,-0.7,72,9,25000,7.408,,,310,,,,,,,,,,,wg-a,,,,AAXX 15004 07650 12/75 43104 10140 20090 30047 40091 58007 60006 81031 90000=
07650,1996-05-15 03:00:00,12,1008.9,-0.2,82,9,20000,7.408,,,30,,,,,,,,,,,wg-a,,,,AAXX 15034 07650 12/70 10304 10120 20090 30045 40089 56002 60006 81030 90300=
07650,1996-05-15 06:00:00,13,1009.6,0.7,82,10,9000,3.704,,,160,10.8,19.2,,,,,,,,,wg-a,,,,AAXX 15064 07650 12/59 /1602 10130 20100 30052 40096 52007 60006 80002 90600 333 10192 20108=
07650,1996-05-15 09:00:00,18,1010.3,0.7,59,10,11000,7.408,,,280,,,,,,,,,,,wg-a,,,,AAXX 15094 07650 12/61 42804 10180 20100 30059 40103 51007 60006 80002 90900=
07650,1996-05-15 12:00:00,22,1009.7,-0.5,53,12,15000,11.112,,,290,,,,,,,,,,,wg-a,,,,AAXX 15124 07650 12665 22906 10220 20120 30054 40097 58005 60006 81102 91200=
07650,1996-05-15 15:00:00,22,1009.1,-0.6,53,12,15000,18.52,,,210,,,,,,,,,,,wg-a,,,,AAXX 15154 07650 12665 /2110 10220 20120 30048 40091 56006 60006 81101 91500=
07650,1996-05-15 18:00:00,19,1009.6,0.5,60,11,15000,14.816,,,180,13,22.5,,,,,,,,,wg-a,,,,AAXX 15184 07650 12/65 11808 10190 20110 30053 40096 53005 60006 80001 91800 333 10225 20130=
07650,1996-05-15 21:00:00,15,1011.1,1.4,88,13,12000,7.408,,,160,,,,,,,,,,,wg-a,,,,AAXX 15214 07650 12462 /1604 10150 20130 30067 40111 53014 60006 81500 92100=
07650,1996-05-16 00:00:00,14,1011.5,0.4,88,12,12000,7.408,,,140,,,,,,,,,,,wg-a,,,,AAXX 16004 07650 12/62 /1404 10140 20120 30071 40115 53004 60006 80000 90000=
07650,1996-05-16 03:00:00,13,1011.3,-0.2,88,11,12000,7.408,,,120,,,,,,,,,,,wg-a,,,,AAXX 16034 07650 12462 21204 10130 20110 30069 40113 55002 60006 82500 90300=
07650,1996-05-16 06:00:00,14,1012.1,0.8,88,12,8000,11.112,,,110,11.9,18.5,,,,,,,,,wg-a,,,,AAXX 16064 07650 12458 21106 10140 20120 30077 40121 52008 60006 82501 90600 333 10185 20119=
07650,1996-05-16 09:00:00,19,1012.6,0.6,64,12,12000,18.52,,,160,,,,,,,,,,,wg-a,,,,AAXX 16094 07650 12562 31610 10190 20120 30083 40126 51006 60006 83501 90900=
07650,1996-05-16 12:00:00,21,1012.4,-0.2,53,11,15000,22.224,,,180,,,,,,,,,,,wg-a,,,,AAXX 16124 07650 12565 21812 10210 20110 30081 40124 58002 60006 82501 91200=
07650,1996-05-16 15:00:00,19,1012.4,-0,68,13,20000,29.632,,,160,,,,,,,,,,,wg-a,,,,AAXX 16154 07650 12570 41616 10190 20130 30081 40124 54000 60006 84501 91500=
07650,1996-05-16 18:00:00,18,1011.8,-0.7,52,8,20000,25.928,,,140,14.4,21.3,,,,,,,,,wg-a,,,,AAXX 16184 07650 12570 /1414 10180 20080 30074 40118 56007 60006 81500 91800 333 10213 20144=
07650,1996-05-16 21:00:00,18,1012.7,0.9,42,5,20000,11.112,,,140,,,,,,,,,,,wg-a,,,,AAXX 16214 07650 12/70 21406 10180 20050 30083 40127 53009 60006 82032 92100=
07650,1996-05-17 00:00:00,16,1012.2,-0.5,48,5,20000,14.816,,,120,,,,,,,,,,,wg-a,,,,AAXX 17004 07650 12670 21208 10160 20050 30078 40122 58005 60006 82502 90000=
07650,1996-05-17 03:00:00,15,1012.3,0.1,48,4,15000,11.112,,,130,,,,,,,,,,,wg-a,,,,AAXX 17034 07650 12665 51306 10150 20040 30079 40123 52001 60006 82532 90300=
07650,1996-05-17 06:00:00,16,1011.6,-0.7,55,7,20000,14.816,,,80,14.6,18.4,,,,,,,,,wg-a,,,,AAXX 17064 07650 12670 30808 10160 20070 30072 40116 56007 60006 81532 90600 333 10184 20146=
07650,1996-05-17 09:00:00,22,1011,-0.5,46,10,20000,14.816,,,140,,,,,,,,,,,wg-a,,,,AAXX 17094 07650 12670 61408 10220 20100 30067 40110 55005 60006 81502 90900=
07650,1996-05-17 12:00:00,23,1010.2,-0.8,41,9,20000,25.928,,,160,,,,,,,,,,,wg-a,,,,AAXX 17124 07650 12670 71614 10230 20090 30059 40102 58008 60006 82502 91200=
07650,1996-05-17 15:00:00,22,1009.6,-0.6,53,12,25000,29.632,,,150,,,,,,,,,,,wg-a,,,,AAXX 17154 07650 12675 71516 10220 20120 30053 40096 58006 60006 83502 91500=
07650,1996-05-17 18:00:00,21,1008.3,-1.3,46,9,20000,22.224,,,150,16.4,24,,,,,,,,,wg-a,,,,AAXX 17184 07650 12670 51512 10210 20090 30040 40083 56013 60006 82582 91800 333 10240 20164=
07650,1996-05-17 21:00:00,19,1009.3,1,40,5,20000,25.928,,,140,,,,,,,,,,,wg-a,,,,AAXX 17214 07650 12670 31414 10190 20050 30050 40093 53010 60006 81502 92100=
07650,1996-05-18 00:00:00,18,1008.9,-0.4,73,13,20000,25.928,,,140,,,,,,,,,,,wg-a,,,,AAXX 18004 07650 12670 31414 10180 20130 30046 40089 57004 60006 81502 90000=
07650,1996-05-18 03:00:00,18,1007.7,-1.2,68,12,20000,18.52,,,110,,,,,,,,,,,wg-a,,,,AAXX 18034 07650 12670 41110 10180 20120 30034 40077 58012 60006 81532 90300=
07650,1996-05-18 06:00:00,19,1008,0.3,68,13,20000,11.112,,,140,17.5,21.1,,,,,,,,,wg-a,,,,AAXX 18064 07650 12570 61406 10190 20130 30037 40080 53003 60006 84832 90600 333 10211 20175=
07650,1996-05-18 09:00:00,22,1007.6,-0.4,60,14,500,25.928,,50.004,140,,,,,,,,,,,wg-a,,,,AAXX 18094 07650 12400 71414 10220 20140 30033 40076 56004 60006 8388/ 90900 333 91027=
07650,1996-05-18 12:00:00,24,1007.2,-0.3,47,12,500,42.596,,,120,,,,,,,,,,,wg-a,,,,AAXX 18124 07650 12500 41223 10240 20120 30030 40072 58003 60006 81232 91200=
07650,1996-05-18 15:00:00,22,1006.7,-0.6,60,14,20000,29.632,,,140,,,,,,,,,,,wg-a,,,,AAXX 18154 07650 12570 71416 10220 20140 30024 40067 58006 60006 81232 91500=
07650,1996-05-18 18:00:00,20,1005.4,-1.3,68,14,15000,35.188,,57.412,150,18.8,24.7,,,,,,,,,wg-a,,,,AAXX 18184 07650 12565 21519 10200 20140 30011 40054 56013 60006 81102 91800 333 10247 20188 91031=
07650,1996-05-18 21:00:00,18,1008,2.6,73,13,15000,22.224,,,140,,,,,,,,,,,wg-a,,,,AAXX 18214 07650 12/65 21412 10180 20130 30037 40080 51026 60006 80002 92100=
07650,1996-05-19 00:00:00,18,1007.4,-0.6,73,13,15000,29.632,,,130,,,,,,,,,,,wg-a,,,,AAXX 19004 07650 12665 41316 10180 20130 30031 40074 58006 60006 81532 90000=
07650,1996-05-19 03:00:00,18,1006.1,-1.3,59,10,15000,29.632,,,120,,,,,,,,,,,wg-a,,,,AAXX 19034 07650 12665 51216 10180 20100 30018 40061 56013 60006 83532 90300=
07650,1996-05-19 06:00:00,17,1007.6,1.4,82,14,15000,11.112,,,150,16.6,19.9,,1,,,1,,,80,wg-a,,,,AAXX 19064 07650 02465 71506 10170 20140 30032 40076 53014 60014 78081 8588/ 90600 333 10199 20166 60017=
07650,1996-05-19 09:00:00,20,1007.5,0,68,14,10000,25.928,,,140,,,,0,,,,,,1,wg-a,,,,AAXX 19094 07650 12460 /1414 10200 20140 30032 40075 50000 60007 70182 86800 90900=
07650,1996-05-19 12:00:00,21,1007.7,-0.2,73,16,12000,31.484,,,170,,,,0,,,,,,,wg-a,,,,AAXX 19124 07650 02562 41717 10210 20160 30034 40077 55002 60016 84800 91200 333 60007=
07650,1996-05-19 15:00:00,20,1008.5,0.8,64,13,25000,18.52,,,200,,,,,,,,,,,wg-a,,,,AAXX 19154 07650 12575 /2010 10200 20130 30042 40085 50008 60006 84800 91500=
07650,1996-05-19 17:00:00,19,1008.7,0.2,52,9,25000,14.816,,,220,16.3,21.4,,,,,,,,,wg-a,,,,AAXX 19174 07650 32575 22208 10190 20090 30044 40087 50002 81237 91700 333 10214 20163=
07650,1996-05-19 18:00:00,19,1008.7,0.2,52,9,25000,14.816,,,220,16.3,21.4,,,,,,,,,wg-a,,,,AAXX 19184 07650 32575 22208 10190 20090 30044 40087 50002 81230 91800 333 10214 20163=
07650,1996-05-19 21:00:00,15,1011.3,2.5,77,11,20000,11.112,,,200,,,,,,,,,,,wg-a,,,,AAXX 19214 07650 12/70 32006 10150 20110 30069 40113 53025 60006 81042 92100=
07650,1996-05-20 00:00:00,15,1011.3,-0,77,11,20000,11.112,,,140,,,,,,,,,,,wg-a,,,,AAXX 20004 07650 12670 51406 10150 20110 30069 40113 55000 60006 85500 90000=
07650,1996-05-20 03:00:00,14,1011.6,0.3,82,11,20000,7.408,,,130,,,,,,,,,,,wg-a,,,,AAXX 20034 07650 12570 41304 10140 20110 30072 40116 51003 60006 84500 90300=
07650,1996-05-20 06:00:00,15,1012.5,0.9,82,12,20000,7.408,,,140,13,18.7,,,,,,,,,wg-a,,,,AAXX 20064 07650 02570 31404 10150 20120 30081 40125 53009 60006 83832 90600 333 10187 20130 60004=
07650,1996-05-20 09:00:00,18,1014.5,2,68,12,500,14.816,,,280,,,,,,,,,,,wg-a,,,,AAXX 20094 07650 12500 32808 10180 20120 30101 40145 51020 60006 81102 90900=
07650,1996-05-20 12:00:00,21,1015.3,0.9,40,7,500,29.632,,,300,,,,,,,,,,,wg-a,,,,AAXX 20124 07650 12600 33016 10210 20070 30110 40153 51009 60006 81202 91200=
07650,1996-05-20 15:00:00,22,1015.5,0.2,43,9,500,18.52,,,270,,,,,,,,,,,wg-a,,,,AAXX 20154 07650 12600 22710 10220 20090 30112 40155 53002 60006 81202 91500=
07650,1996-05-20 18:00:00,20,1016.4,0.9,53,10,500,29.632,,,260,15,22.3,,,,,,,,,wg-a,,,,AAXX 20184 07650 12600 22616 10200 20100 30121 40164 53009 60006 81202 91800 333 10223 20150=
07650,1996-05-20 21:00:00,18,1018.6,2.1,68,12,40000,14.816,,,290,,,,,,,,,,,wg-a,,,,AAXX 20214 07650 12/82 02908 10180 20120 30142 40186 53021 60006 80000 92100=
07650,1996-05-21 00:00:00,14,1019.7,1.1,77,10,500,3.704,,,280,,,,,,,,,,,wg-a,,,,AAXX 21004 07650 12/00 02802 10140 20100 30153 40197 51011 60006 80000 90000=
07650,1996-05-21 03:00:00,12,1020.5,0.7,82,9,20000,18.52,,,300,,,,,,,,,,,wg-a,,,,AAXX 21034 07650 12/70 03010 10120 20090 30160 40205 53007 60006 80000 90300=
07650,1996-05-21 06:00:00,14,1021.8,1.3,72,9,20000,3.704,,,150,11.3,20.2,,,,,,,,,wg-a,,,,AAXX 21064 07650 12/70 11502 10140 20090 30173 40218 53013 60006 80001 90600 333 10202 20113=
07650,1996-05-21 09:00:00,18,1022.2,0.5,56,9,25000,11.112,,,260,,,,,,,,,,,wg-a,,,,AAXX 21094 07650 12/75 32606 10180 20090 30178 40222 50005 60006 80002 90900=
07650,1996-05-21 12:00:00,22,1022,-0.2,38,7,25000,18.52,,,280,,,,,,,,,,,wg-a,,,,AAXX 21124 07650 12675 32810 10220 20070 30176 40220 58002 60006 81202 91200=
07650,1996-05-21 15:00:00,22,1021.4,-0.5,46,10,25000,35.188,,,240,,,,,,,,,,,wg-a,,,,AAXX 21154 07650 12575 /2419 10220 20100 30171 40214 56005 60006 81102 91500=
07650,1996-05-21 18:00:00,22,1021.6,0.2,43,9,40000,29.632,,,310,13.8,23.1,,,,,,,,,wg-a,,,,AAXX 21184 07650 12582 43116 10220 20090 30173 40216 53002 60006 82102 91800 333 10231 20138=
07650,1996-05-21 21:00:00,17,1024.1,2.4,55,8,40000,29.632,,,320,,,,,,,,,,,wg-a,,,,AAXX 21214 07650 12682 33216 10170 20080 30197 40241 53024 60006 81502 92100=
07650,1996-05-22 00:00:00,16,1024.1,-0.1,55,7,20000,25.928,,,330,,,,,,,,,,,wg-a,,,,AAXX 22004 07650 12670 73314 10160 20070 30196 40241 57001 60006 81502 90000=
07650,1996-05-22 03:00:00,14,1023.6,-0.5,58,6,20000,31.484,,,340,,,,,,,,,,,wg-a,,,,AAXX 22034 07650 12/70 43417 10140 20060 30191 40236 58005 60006 81032 90300=
07650,1996-05-22 06:00:00,14,1023.8,0.2,63,7,40000,29.632,,,330,12.5,21.9,,,,,,,,,wg-a,,,,AAXX 22064 07650 12/82 23316 10140 20070 30193 40238 51002 60006 81031 90600 333 10219 20125=
07650,1996-05-22 09:00:00,17,1023.7,-0,55,8,20000,31.484,,50.004,350,,,,,,,,,,,wg-a,,,,AAXX 22094 07650 12/70 53517 10170 20080 30193 40237 54000 60006 80002 90900 333 91027=
07650,1996-05-22 12:00:00,22,1022.7,-1,35,6,25000,25.928,,,330,,,,,,,,,,,wg-a,,,,AAXX 22124 07650 12/75 33314 10220 20060 30183 40227 58010 60006 80002 91200=
07650,1996-05-22 18:00:00,20,1022.2,-0.2,56,11,20000,25.928,,,240,13.7,23.6,,,,,,,,,wg-a,,,,AAXX 22184 07650 12/70 52414 10200 20110 30178 40222 57002 60006 81032 91800 333 10236 20137=
07650,1996-05-22 21:00:00,17,1024,1.8,68,11,20000,14.816,,,320,,,,,,,,,,,wg-a,,,,AAXX 22214 07650 12/70 23208 10170 20110 30196 40240 52018 60006 81032 92100=
07650,1996-05-23 00:00:00,14,1023.5,-0.6,82,11,20000,3.704,,,140,,,,,,,,,,,wg-a,,,,AAXX 23004 07650 12/70 01402 10140 20110 30190 40235 58006 60006 80000 90000=
07650,1996-05-23 03:00:00,12,1023.1,-0.4,88,10,20000,3.704,,,150,,,,,,,,,,,wg-a,,,,AAXX 23034 07650 12/70 01502 10120 20100 30186 40231 56004 60006 80000 90300=
07650,1996-05-23 06:00:00,15,1023,-0,88,13,25000,7.408,,,350,11.6,20,,,,,,,,,wg-a,,,,AAXX 23064 07650 12/75 53504 10150 20130 30186 40230 55000 60006 81042 90600 333 10200 20116=
07650,1996-05-23 09:00:00,20,1022.6,-0.4,60,12,25000,22.224,,,290,,,,,,,,,,,wg-a,,,,AAXX 23094 07650 12/75 42912 10200 20120 30182 40226 58004 60006 81032 90900=
07650,1996-05-23 12:00:00,25,1021.4,-1.1,44,12,35000,22.224,,,300,,,,,,,,,,,wg-a,,,,AAXX 23124 07650 12/81 33012 10250 20120 30171 40214 58011 60006 81032 91200=
07650,1996-05-23 15:00:00,26,1019.6,-1.8,45,13,35000,29.632,,,240,,,,,,,,,,,wg-a,,,,AAXX 23154 07650 12/81 32416 10260 20130 30153 40196 56018 60006 81032 91500=
07650,1996-05-23 18:00:00,23,1019.4,-0.2,47,11,500,25.928,,,240,14.9,27.1,,,,,,,,,wg-a,,,,AAXX 23184 07650 12/00 32414 10230 20110 30151 40194 55002 60006 80002 91800 333 10271 20149=
07650,1996-05-23 21:00:00,19,1021.2,1.7,56,10,20000,7.408,,,150,,,,,,,,,,,wg-a,,,,AAXX 23214 07650 12/70 11504 10190 20100 30168 40212 51017 60006 80001 92100=
07650,1996-05-24 00:00:00,17,1020.5,-0.7,63,10,20000,7.408,,,120,,,,,,,,,,,wg-a,,,,AAXX 24004 07650 12/70 01204 10170 20100 30161 40205 58007 60006 80000 90000=
07650,1996-05-24 03:00:00,15,1019.6,-0.9,77,11,20000,3.704,,,90,,,,,,,,,,,wg-a,,,,AAXX 24034 07650 12/70 00902 10150 20110 30152 40196 57009 60006 80000 90300=
07650,1996-05-24 06:00:00,17,1019.9,0.3,72,12,25000,7.408,,31.484,80,14.9,22.6,,,,,,,,,wg-a,,,,AAXX 24064 07650 12/75 10804 10170 20120 30155 40199 53003 60006 80002 90600 333 10226 20149 91017=
07650,1996-05-24 09:00:00,22,1019.6,-0.2,57,13,25000,11.112,,,280,,,,,,,,,,,wg-a,,,,AAXX 24094 07650 12/75 02806 10220 20130 30153 40196 58002 60006 80000 90900=
07650,1996-05-24 12:00:00,23,1018.8,-0.8,57,14,25000,25.928,,,190,,,,,,,,,,,wg-a,,,,AAXX 24124 07650 12775 11914 10230 20140 30145 40188 58008 60006 81100 91200=
07650,1996-05-24 15:00:00,23,1017.8,-1,50,12,25000,25.928,,,150,,,,,,,,,,,wg-a,,,,AAXX 24154 07650 12675 11514 10230 20120 30135 40178 58010 60006 81200 91500=
07650,1996-05-24 18:00:00,22,1017.6,-0.2,46,10,25000,18.52,,,160,16.7,24.3,,,,,,,,,wg-a,,,,AAXX 24184 07650 12/75 01610 10220 20100 30133 40176 55002 60006 80000 91800 333 10243 20167=
07650,1996-05-24 21:00:00,19,1018.8,1.1,60,11,25000,18.52,,,140,,,,,,,,,,,wg-a,,,,AAXX 24214 07650 12/75 31410 10190 20110 30144 40188 53011 60006 81032 92100=
07650,1996-05-25 00:00:00,17,1018.1,-0.7,52,7,20000,3.704,,,150,,,,,,,,,,,wg-a,,,,AAXX 25004 07650 12/70 31502 10170 20070 30137 40181 55007 60006 81032 90000=
07650,1996-05-25 03:00:00,17,1017.2,-0.9,55,8,25000,0,,,0,,,,,,,,,,,wg-a,,,,AAXX 25034 07650 12/75 30000 10170 20080 30128 40172 55009 60006 82032 90300=
07650,1996-05-25 06:00:00,19,1016.4,-0.8,46,7,25000,11.112,,,140,16.6,21.6,,,,,,,,,wg-a,,,,AAXX 25064 07650 12675 41406 10190 20070 30120 40164 55008 60006 81532 90600 333 10216 20166=
07650,1996-05-25 09:00:00,21,1016.6,0.3,64,14,500,22.224,,,150,,,,,,,,,,,wg-a,,,,AAXX 25094 07650 12500 41512 10210 20140 30123 40166 50003 60006 83101 90900=
07650,1996-05-25 12:00:00,21,1016.7,0.1,64,14,500,25.928,,,170,,,,,,,,,,,wg-a,,,,AAXX 25124 07650 12500 /1714 10210 20140 30124 40167 53001 60006 81101 91200=
07650,1996-05-25 15:00:00,20,1016.9,0.2,73,15,20000,22.224,,,180,,,,,,,,,,,wg-a,,,,AAXX 25154 07650 12570 71812 10200 20150 30126 40169 52002 60006 81102 91500=
07650,1996-05-25 18:00:00,19,1017.3,0.3,68,13,500,14.816,,,160,18.6,22,,,,,,,,,wg-a,,,,AAXX 25184 07650 12500 41608 10190 20130 30129 40173 52003 60006 81131 91800 333 10220 20186=
07650,1996-05-25 21:00:00,17,1018.1,0.8,88,15,20000,7.408,,,160,,,,,,,,,,,wg-a,,,,AAXX 25214 07650 12/70 31604 10170 20150 30137 40181 52008 60006 81032 92100=
07650,1996-05-26 00:00:00,16,1017.5,-0.6,88,14,20000,11.112,,,140,,,,,,,,,,,wg-a,,,,AAXX 26004 07650 12370 51406 10160 20140 30131 40175 58006 60006 85600 90000=
07650,1996-05-26 03:00:00,16,1017.1,-0.4,94,15,10000,3.704,,,140,,,,,,,,,,,wg-a,,,,AAXX 26034 07650 12360 /1402 10160 20150 30127 40171 57004 60006 82602 90300=
07650,1996-05-26 06:00:00,18,1017.7,0.6,83,15,15000,18.52,,,310,16,18.6,,,,,,,,,wg-a,,,,AAXX 26064 07650 12665 73110 10180 20150 30133 40177 53006 60006 81532 90600 333 10186 20160=
07650,1996-05-26 09:00:00,23,1018,0.4,57,14,500,29.632,,,310,,,,,,,,,,,wg-a,,,,AAXX 26094 07650 12500 43116 10230 20140 30137 40180 50004 60006 82132 90900=
07650,1996-05-26 12:00:00,26,1017.4,-0.6,39,11,500,29.632,,,300,,,,,,,,,,,wg-a,,,,AAXX 26124 07650 12500 33016 10260 20110 30131 40174 58006 60006 83102 91200=
07650,1996-05-26 15:00:00,27,1016.9,-0.4,34,10,500,25.928,,,300,,,,,,,,,,,wg-a,,,,AAXX 26154 07650 12500 23014 10270 20100 30127 40169 56004 60006 81102 91500=
07650,1996-05-26 18:00:00,24,1017,0.1,54,14,500,25.928,,,250,17.6,27,,,,,,,,,wg-a,,,,AAXX 26184 07650 12600 52514 10240 20140 30127 40170 53001 60006 83502 91800 333 10270 20176=
07650,1996-05-26 21:00:00,22,1017.6,0.6,60,14,25000,25.928,,,300,,,,,,,,,,,wg-a,,,,AAXX 26214 07650 12/75 23014 10220 20140 30133 40176 53006 60006 81032 92100=
07650,1996-05-27 00:00:00,19,1017.9,0.2,64,12,20000,29.632,,,320,,,,,,,,,,,wg-a,,,,AAXX 27004 07650 12/70 03216 10190 20120 30135 40179 50002 60006 80000 90000=
07650,1996-05-27 03:00:00,18,1017.4,-0.5,59,10,20000,11.112,,,340,,,,,,,,,,,wg-a,,,,AAXX 27034 07650 12/70 33406 10180 20100 30130 40174 58005 60006 80002 90300=
07650,1996-05-27 06:00:00,19,1017.5,0.1,68,13,20000,29.632,,,290,17.6,24.1,,,,,,,,60,wg-a,,,,AAXX 27064 07650 02570 72916 10190 20130 30131 40175 51001 61000 76061 82572 90600 333 10241 20176 6100=
07650,1996-05-27 09:00:00,21,1017,-0.4,60,13,20000,38.892,,,300,,,,,,,,,,1,wg-a,,,,AAXX 27094 07650 02670 /3021 10210 20130 30127 40170 58004 61000 70162 81132 90900 333 ////=
07650,1996-05-27 12:00:00,25,1015.1,-1.9,44,12,25000,38.892,,,300,,,,,,,,,,1,wg-a,,,,AAXX 27124 07650 02675 43021 10250 20120 30108 40151 56019 61000 70161 82232 91200 333 ////=
07650,1996-05-27 15:00:00,26,1013.6,-1.5,34,9,20000,46.3,,,310,,,,,,,,,,,wg-a,,,,AAXX 27154 07650 12670 /3125 10260 20090 30093 40136 56015 60006 81212 91500=
07650,1996-05-27 18:00:00,22,1014.1,0.5,43,9,20000,46.3,,64.82,310,18.7,26,,,,,,,,,wg-a,,,,AAXX 27184 07650 32670 53125 10220 20090 30098 40141 53005 82802 91800 333 10260 20187 91035=
07650,1996-05-27 21:00:00,19,1016.4,2.2,52,9,25000,38.892,,,340,,,,,,,,,,,wg-a,,,,AAXX 27214 07650 12/75 03421 10190 20090 30120 40164 51022 60006 80000 92100=
07650,1996-05-28 00:00:00,18,1017.4,1,56,9,25000,42.596,,,340,,,,,,,,,,,wg-a,,,,AAXX 28004 07650 12/75 03423 10180 20090 30130 40174 51010 60006 80000 90000=
07650,1996-05-28 03:00:00,16,1016.4,-1,68,10,25000,46.3,,,340,,,,,,,,,,,wg-a,,,,AAXX 28034 07650 12675 13425 10160 20100 30120 40164 58010 60006 81501 90300=
07650,1996-05-28 06:00:00,17,1016.7,0.3,63,10,500,42.596,,50.004,330,16.2,22.3,,,,,,,,,wg-a,,,,AAXX 28064 07650 02600 43323 10170 20100 30123 40167 50003 60006 81542 90600 333 10223 20162 61000 91027=
07650,1996-05-28 09:00:00,20,1015.9,-0.7,49,9,500,50.004,,79.636,350,,,,,,,,,,,wg-a,,,,AAXX 28094 07650 12600 23527 10200 20090 30116 40159 56007 60006 81102 90900 333 91043=
07650,1996-05-28 12:00:00,21,1014.5,-1.4,46,9,40000,68.524,,94.452,340,,,,,,,,,,,wg-a,,,,AAXX 28124 07650 12682 /3437 10210 20090 30102 40145 58014 60006 81102 91200 333 91051=
07650,1996-05-28 15:00:00,22,1014.2,-0.3,41,8,500,72.228,,94.452,340,,,,,,,,,,,wg-a,,,,AAXX 28154 07650 12/00 43439 10220 20080 30099 40142 55003 60006 80002 91500 333 91051=
07650,1996-05-28 18:00:00,21,1014.4,0.2,43,8,40000,50.004,,90.748,340,17.4,22.6,,,,,,,,,wg-a,,,,AAXX 28184 07650 12/82 13427 10210 20080 30101 40144 53002 60006 80001 91800 333 10226 20174 91049=
07650,1996-05-28 21:00:00,18,1016.1,1.6,45,6,40000,25.928,,50.004,340,,,,,,,,,,,wg-a,,,,AAXX 28214 07650 12/82 13414 10180 20060 30117 40161 50016 60006 80001 92100 333 91027=
07650,1996-05-29 00:00:00,16,1016.7,0.6,48,5,20000,22.224,,,10,,,,,,,,,,,wg-a,,,,AAXX 29004 07650 12/70 10112 10160 20050 30123 40167 50006 60006 80001 90000=
07650,1996-05-29 03:00:00,14,1016.6,-0.1,58,6,10000,18.52,,,360,,,,,,,,,,,wg-a,,,,AAXX 29034 07650 12/60 /3610 10140 20060 30122 40166 55001 60006 90300=
07650,1996-05-29 06:00:00,15,1017.8,1.2,55,6,40000,11.112,,,20,12.9,20.6,,,,,,,,,wg-a,,,,AAXX 29064 07650 12/82 10206 10150 20060 30134 40178 53012 60006 80001 90600 333 10206 20129=
07650,1996-05-29 09:00:00,23,1018.4,0.7,41,9,75000,11.112,,,300,,,,,,,,,,,wg-a,,,,AAXX 29094 07650 12/89 03006 10230 20090 30141 40184 51007 60006 80000 90900=
07650,1996-05-29 12:00:00,26,1018.4,0,24,4,50000,11.112,,,300,,,,,,,,,,,wg-a,,,,AAXX 29124 07650 12/84 03006 10260 20040 30141 40184 50000 60006 80000 91200=
07650,1996-05-29 15:00:00,25,1018,-0.4,28,5,50000,22.224,,,180,,,,,,,,,,,wg-a,,,,AAXX 29154 07650 12/84 01812 10250 20050 30137 40180 57004 60006 80000 91500=
07650,1996-05-29 18:00:00,24,1018.3,0.3,31,6,40000,18.52,,,170,15.4,27.5,,,,,,,,,wg-a,,,,AAXX 29184 07650 12/82 01710 10240 20060 30140 40183 53003 60006 80000 91800 333 10275 20154=
07650,1996-05-29 21:00:00,19,1019.9,1.5,40,5,500,3.704,,,140,,,,,,,,,,,wg-a,,,,AAXX 29214 07650 12/00 01402 10190 20050 30155 40199 53015 60006 80000 92100=
07650,1996-05-30 00:00:00,16,1020.5,0.6,51,6,500,0,,,0,,,,,,,,,,,wg-a,,,,AAXX 30004 07650 12/00 00000 10160 20060 30161 40205 51006 60006 80000 90000=
07650,1996-05-30 03:00:00,14,1020.5,-0.1,58,6,500,7.408,,,140,,,,,,,,,,,wg-a,,,,AAXX 30034 07650 12/00 01404 10140 20060 30160 40205 55001 60006 80000 90300=
07650,1996-05-30 06:00:00,18,1021,0.6,42,5,75000,3.704,,,160,13.1,23.6,,,,,,,,,wg-a,,,,AAXX 30064 07650 12/89 01602 10180 20050 30166 40210 53006 60006 80000 90600 333 10236 20131=
07650,1996-05-30 09:00:00,23,1021.7,0.8,31,5,75000,7.408,,,300,,,,,,,,,,,wg-a,,,,AAXX 30094 07650 12/89 03004 10230 20050 30174 40217 51008 60006 80000 90900=
07650,1996-05-30 12:00:00,26,1021.8,0.1,21,2,50000,22.224,,,200,,,,,,,,,,,wg-a,,,,AAXX 30124 07650 12/84 12012 10260 20020 30175 40218 50001 60006 80002 91200=
07650,1996-05-30 15:00:00,25,1021.4,-0.4,26,4,50000,18.52,,,210,,,,,,,,,,,wg-a,,,,AAXX 30154 07650 12/84 12110 10250 20040 30171 40214 58004 60006 80001 91500=
07650,1996-05-30 18:00:00,23,1021.4,-0,29,4,50000,11.112,,,200,17.9,26.7,,,,,,,,,wg-a,,,,AAXX 30184 07650 12/84 02006 10230 20040 30171 40214 55000 60006 80000 91800 333 10267 20179=
07650,1996-05-30 21:00:00,18,1022.3,0.8,49,7,20000,3.704,,,170,,,,,,,,,,,wg-a,,,,AAXX 30214 07650 12/70 01702 10180 20070 30179 40223 53008 60006 80000 92100=
07650,1996-05-31 00:00:00,16,1022.3,0,51,6,20000,3.704,,,90,,,,,,,,,,,wg-a,,,,AAXX 31004 07650 12/70 00902 10160 20060 30179 40223 50000 60006 80000 90000=
07650,1996-05-31 03:00:00,15,1021.8,-0.6,51,5,20000,11.112,,,150,,,,,,,,,,,wg-a,,,,AAXX 31034 07650 12/70 01506 10150 20050 30173 40218 56006 60006 80000 90300=
07650,1996-05-31 06:00:00,18,1022.7,1,49,7,35000,3.704,,,140,13.6,22.7,,,,,,,,,wg-a,,,,AAXX 31064 07650 12/81 01402 10180 20070 30183 40227 53010 60006 80000 90600 333 10227 20136=
07650,1996-05-31 09:00:00,23,1023,0.4,41,9,10000,11.112,,,300,,,,,,,,,,,wg-a,,,,AAXX 31094 07650 12/60 /3006 10230 20090 30187 40230 51004 60006 90900=
07650,1996-05-31 12:00:00,26,1022.1,-0.9,34,9,40000,14.816,,,280,,,,,,,,,,,wg-a,,,,AAXX 31124 07650 12/82 02808 10260 20090 30178 40221 57009 60006 80000 91200=
07650,1996-05-31 15:00:00,26,1021.4,-0.7,30,7,40000,14.816,,,190,,,,,,,,,,,wg-a,,,,AAXX 31154 07650 12/82 01908 10260 20070 30171 40214 57007 60006 80000 91500=
07650,1996-05-31 18:00:00,21,1020.9,-0.5,56,12,500,18.52,,,180,17.8,26.5,,,,,,,,,wg-a,,,,AAXX 31184 07650 12400 /1810 10210 20120 30166 40209 55005 60006 81601 91800 333 10265 20178=
07650,1996-05-31 21:00:00,18,1022.5,1.5,77,14,20000,7.408,,,150,,,,,,,,,,,wg-a,,,,AAXX 31214 07650 12470 /1504 10180 20140 30181 40225 53015 60006 81601 92100=
07650,1996-06-01 00:00:00,17,1022.5,0,82,14,20000,7.408,,,140,,,,,,,,,,,wg-a,,,,AAXX 01004 07650 12470 41404 10170 20140 30181 40225 50000 60006 84601 90000=
07650,1996-06-01 03:00:00,15,1021.5,-1,88,13,15000,11.112,,,140,,,,,,,,,,,wg-a,,,,AAXX 01034 07650 12/65 21406 10150 20130 30171 40215 56010 60006 81032 90300=
07650,1996-06-01 06:00:00,17,1020.8,-0.7,77,13,10000,7.408,,,340,14.3,21.2,,,,,,,,,wg-a,,,,AAXX 01064 07650 12560 53404 10170 20130 30164 40208 55007 60006 81232 90600 333 10212 20143=
07650,1996-06-01 09:00:00,20,1021.1,0.3,68,14,9000,11.112,,,270,,,,,,,,,,,wg-a,,,,AAXX 01094 07650 12459 42706 10200 20140 30167 40211 50003 60006 83532 90900=
07650,1996-06-01 12:00:00,24,1019.6,-1.4,47,12,11000,11.112,,,280,,,,,,,,,,,wg-a,,,,AAXX 01124 07650 12561 /2806 10240 20120 30153 40196 58014 60006 81532 91200=
07650,1996-06-01 15:00:00,24,1018.2,-1.4,57,15,15000,22.224,,,190,,,,,,,,,,,wg-a,,,,AAXX 01154 07650 12/65 51912 10240 20150 30139 40182 56014 60006 83082 91500=
07650,1996-06-01 18:00:00,21,1018.2,-0,64,14,15000,22.224,,,180,16.5,25.8,,,,,,,,,wg-a,,,,AAXX 01184 07650 12465 61812 10210 20140 30139 40182 55000 60006 81582 91800 333 10258 20165=
07650,1996-06-01 21:00:00,19,1017.5,-0.8,78,15,15000,11.112,,,90,,,,,,,,,,,wg-a,,,,AAXX 01214 07650 12465 /0906 10190 20150 30131 40175 58008 60006 81582 92100=
07650,1996-06-02 00:00:00,18,1016.7,-0.8,88,16,20000,7.408,,,170,,,,,,,,,,3,wg-a,,,,AAXX 02004 07650 02470 61704 10180 20160 30123 40167 58008 61000 70362 83531 90000 333 6100=
07650,1996-06-02 03:00:00,17,1015.3,-1.4,88,15,15000,3.704,,,120,,,,,,,,,,,wg-a,,,,AAXX 02034 07650 12565 71202 10170 20150 30109 40153 56014 60006 82531 90300=
07650,1996-06-02 06:00:00,18,1014.8,-0.5,83,15,11000,3.704,,,130,16.7,20.6,,,,,,,,,wg-a,,,,AAXX 02064 07650 02561 71302 10180 20150 30104 40148 57005 61000 8457/ 90600 333 10206 20167 ////=
07650,1996-06-02 09:00:00,19,1013.9,-0.8,78,15,8000,11.112,,,140,,,,,,,,,,,wg-a,,,,AAXX 02094 07650 12558 71406 10190 20150 30096 40139 58008 60006 875// 90900=
07650,1996-06-02 12:00:00,19,1013.3,-0.6,78,15,10000,25.928,,,180,,,,,,,,,,3,wg-a,,,,AAXX 02124 07650 02460 71814 10190 20150 30090 40133 55006 61000 70362 8587/ 91200 333 6100=
07650,1996-06-02 15:00:00,16,1013.6,0.2,88,14,500,14.816,,,220,,,,9,,,,,,61,wg-a,,,,AAXX 02154 07650 12300 82208 10160 20140 30092 40136 51002 60097 76166 8687/ 91500=
07650,1996-06-02 18:00:00,15,1013.4,-0.2,88,13,500,3.704,,,140,14.8,19.9,,7,,,,,,63,wg-a,,,,AAXX 02184 07650 12200 81402 10150 20130 30090 40134 55002 60077 76366 888// 91800 333 10199 20148=
07650,1996-06-02 21:00:00,15,1014,0.6,94,14,10000,3.704,,,180,,,,1,,,,,,60,wg-a,,,,AAXX 02214 07650 12360 81802 10150 20140 30096 40140 53006 60017 76062 888// 92100=
07650,1996-06-03 00:00:00,15,1013.5,-0.5,94,14,15000,3.704,,,110,,,,3,,,,,,1,wg-a,,,,AAXX 03004 07650 02365 81102 10150 20140 30091 40135 58005 60046 70162 8657/ 90000 333 60037=
07650,1996-06-03 03:00:00,15,1013,-0.5,94,14,15000,7.408,,,340,,,,,,,,,,,wg-a,,,,AAXX 03034 07650 12565 /3404 10150 20140 30086 40130 56005 60006 8457/ 90300=
07650,1996-06-03 06:00:00,15,1013.9,0.9,94,14,15000,7.408,,,20,14.6,15.3,,,,,19,,,,wg-a,,,,AAXX 03064 07650 12465 70204 10150 20140 30095 40139 53009 60194 8487/ 90600 333 10153 20146=
07650,1996-06-03 12:00:00,17,1015.9,1.1,88,15,12000,7.408,,,40,,,,2,,,,,,60,wg-a,,,,AAXX 03124 07650 02562 70404 10170 20150 30115 40159 51011 60026 76062 8487/ 91200 333 60027=
07650,1996-06-03 15:00:00,19,1016.6,0.7,83,16,12000,11.112,,,120,,,,0,,,,,,60,wg-a,,,,AAXX 03154 07650 12562 81206 10190 20160 30122 40166 53007 60007 76066 885// 91500=
07650,1996-06-03 18:00:00,18,1017.2,0.6,88,16,12000,3.704,,,160,15.2,19.8,,1,,,,,,60,wg-a,,,,AAXX 03184 07650 12562 71602 10180 20160 30128 40172 53006 60017 76066 8487/ 91800 333 10198 20152=
07650,1996-06-03 21:00:00,17,1018,0.8,94,16,12000,11.112,,,140,,,,,,,,,,,wg-a,,,,AAXX 03214 07650 02562 71406 10170 20160 30136 40180 53008 61000 8487/ 92100 333 ////=
07650,1996-06-04 00:00:00,17,1018.6,0.6,94,16,12000,3.704,,,110,,,,,,,,,,2,wg-a,,,,AAXX 04004 07650 02562 71102 10170 20160 30142 40186 50006 61000 70262 8487/ 90000 333 ////=
07650,1996-06-04 03:00:00,17,1018.8,0.2,88,15,15000,7.408,,,100,,,,,,,,,,,wg-a,,,,AAXX 04034 07650 12665 71004 10170 20150 30144 40188 52002 60006 8457/ 90300=
07650,1996-06-04 06:00:00,17,1020.4,1.6,94,16,13000,3.704,,,160,16.1,17.7,,,,,4,,,,wg-a,,,,AAXX 04064 07650 12/63 61602 10170 20160 30160 40204 51016 60044 86030 90600 333 10177 20161=
07650,1996-06-04 09:00:00,20,1021,0.6,83,17,15000,0,,,0,,,,,,,,,,,wg-a,,,,AAXX 04094 07650 12665 70000 10200 20170 30166 40210 51006 60006 8257/ 90900=
07650,1996-06-04 12:00:00,25,1020.3,-0.6,57,16,20000,18.52,,,300,,,,,,,,,,,wg-a,,,,AAXX 04124 07650 12570 43010 10250 20160 30160 40203 58006 60006 81230 91200=
07650,1996-06-04 15:00:00,25,1019.6,-0.7,57,16,35000,18.52,,,340,,,,,,,,,,,wg-a,,,,AAXX 04154 07650 12581 /3410 10250 20160 30153 40196 56007 60006 83880 91500=
07650,1996-06-04 18:00:00,24,1020.1,0.5,54,14,40000,7.408,,,350,17.3,27.2,,,,,,,,,wg-a,,,,AAXX 04184 07650 12582 /3504 10240 20140 30158 40201 53005 60006 81270 91800 333 10272 20173=
07650,1996-06-04 21:00:00,20,1020.6,0.4,73,15,25000,11.112,,,340,,,,,,,,,,,wg-a,,,,AAXX 04214 07650 12/75 13406 10200 20150 30162 40206 53004 60006 81030 92100=
07650,1996-06-05 00:00:00,19,1020.8,0.2,78,15,25000,11.112,,,130,,,,,,,,,,,wg-a,,,,AAXX 05004 07650 12/75 11306 10190 20150 30164 40208 50002 60006 81030 90000=
07650,1996-06-05 03:00:00,17,1020.9,0.1,82,14,25000,3.704,,,150,,,,,,,,,,,wg-a,,,,AAXX 05034 07650 12/75 01502 10170 20140 30165 40209 51001 60006 80000 90300=
07650,1996-06-05 06:00:00,19,1021.7,0.8,78,15,25000,0,,,0,15.5,24.3,,,,,,,,,wg-a,,,,AAXX 05064 07650 12/75 10000 10190 20150 30173 40217 51008 60006 80002 90600 333 10243 20155=
07650,1996-06-05 09:00:00,24,1021.6,0,61,16,15000,11.112,,,250,,,,,,,,,,,wg-a,,,,AAXX 05094 07650 12/65 02506 10240 20160 30173 40216 50000 60006 80000 90900=
07650,1996-06-05 12:00:00,30,1020.9,-0.6,33,12,25000,14.816,,,300,,,,,,,,,,,wg-a,,,,AAXX 05124 07650 12675 /3008 10300 20120 30167 40209 58006 60006 81100 91200=
07650,1996-06-05 15:00:00,30,1020.4,-0.5,31,11,40000,18.52,,,240,,,,,,,,,,,wg-a,,,,AAXX 05154 07650 12682 22410 10300 20110 30162 40204 58005 60006 82100 91500=
07650,1996-06-05 18:00:00,27,1020.8,0.3,45,14,40000,14.816,,,240,18.5,30.3,,,,,,,,,wg-a,,,,AAXX 05184 07650 12/82 12408 10270 20140 30165 40208 53003 60006 81080 91800 333 10303 20185=
07650,1996-06-05 21:00:00,23,1021.8,1,57,14,25000,7.408,,,140,,,,,,,,,,,wg-a,,,,AAXX 05214 07650 12/75 01404 10230 20140 30175 40218 51010 60006 80000 92100=
07650,1996-06-06 00:00:00,21,1021.4,-0.5,64,14,20000,7.408,,,90,,,,,,,,,,,wg-a,,,,AAXX 06004 07650 12/70 00904 10210 20140 30170 40214 56005 60006 80000 90000=
07650,1996-06-06 03:00:00,19,1021,-0.4,78,15,20000,0,,,0,,,,,,,,,,,wg-a,,,,AAXX 06034 07650 12/70 00000 10190 20150 30166 40210 56004 60006 80000 90300=
07650,1996-06-06 06:00:00,22,1021.6,0.7,60,14,25000,3.704,,,240,18.5,27.2,,,,,,,,,wg-a,,,,AAXX 06064 07650 12/75 02402 10220 20140 30173 40216 53007 60006 80000 90600 333 10272 20185=
07650,1996-06-06 09:00:00,26,1021.8,0.2,58,17,15000,7.408,,,270,,,,,,,,,,,wg-a,,,,AAXX 06094 07650 12/65 02704 10260 20170 30175 40218 50002 60006 80000 90900=
07650,1996-06-06 12:00:00,30,1021.3,-0.4,40,15,15000,14.816,,,200,,,,,,,,,,,wg-a,,,,AAXX 06124 07650 12665 22008 10300 20150 30171 40213 58004 60006 82200 91200=
07650,1996-06-06 15:00:00,29,1021.1,-0.2,43,15,15000,14.816,,,220,,,,,,,,,,,wg-a,,,,AAXX 06154 07650 12/65 02208 10290 20150 30169 40211 58002 60006 80000 91500=
07650,1996-06-06 18:00:00,27,1021.1,-0,45,14,15000,11.112,,,200,21.6,29.8,,,,,,,,,wg-a,,,,AAXX 06184 07650 12/65 22006 10270 20140 30168 40211 54000 60006 80002 91800 333 10298 20216=
07650,1996-06-06 21:00:00,23,1021.8,0.7,61,15,12000,11.112,,,140,,,,,,,,,,,wg-a,,,,AAXX 06214 07650 12/62 01406 10230 20150 30175 40218 53007 60006 80000 92100=
07650,1996-06-07 00:00:00,21,1021.2,-0.6,69,15,12000,11.112,,,140,,,,,,,,,,,wg-a,,,,AAXX 07004 07650 12/62 01406 10210 20150 30169 40212 56006 60006 80000 90000=
07650,1996-06-07 03:00:00,20,1021.2,-0.1,78,16,12000,7.408,,,120,,,,,,,,,,,wg-a,,,,AAXX 07034 07650 12/62 01204 10200 20160 30168 40212 56001 60006 80000 90300=
07650,1996-06-07 06:00:00,22,1021.9,0.8,73,17,9000,3.704,,,110,18.8,26.6,,,,,,,,,wg-a,,,,AAXX 07064 07650 12/59 01102 10220 20170 30176 40219 53008 60006 80000 90600 333 10266 20188=
07650,1996-06-07 09:00:00,27,1022.3,0.4,48,15,9000,11.112,,,200,,,,,,,,,,,wg-a,,,,AAXX 07094 07650 12/59 02006 10270 20150 30180 40223 51004 60006 80000 90900=
07650,1996-06-07 12:00:00,27,1021.9,-0.4,48,15,12000,22.224,,,210,,,,,,,,,,,wg-a,,,,AAXX 07124 07650 12/62 12112 10270 20150 30176 40219 57004 60006 80001 91200=
07650,1996-06-07 15:00:00,27,1021.5,-0.4,45,14,18000,18.52,,,210,,,,,,,,,,,wg-a,,,,AAXX 07154 07650 12568 /2110 10270 20140 30172 40215 56004 60006 81102 91500=
07650,1996-06-07 18:00:00,25,1021.1,-0.4,54,15,20000,14.816,,,170,21.9,28.2,,,,,,,,,wg-a,,,,AAXX 07184 07650 12/70 01708 10250 20150 30168 40211 56004 60006 80000 91800 333 10282 20219=
07650,1996-06-07 21:00:00,23,1021.7,0.6,57,14,20000,7.408,,,160,,,,,,,,,,,wg-a,,,,AAXX 07214 07650 12/70 01604 10230 20140 30174 40217 53006 60006 80000 92100=
07650,1996-06-08 00:00:00,20,1021.5,-0.3,64,13,20000,7.408,,,150,,,,,,,,,,,wg-a,,,,AAXX 08004 07650 12/70 01504 10200 20130 30171 40215 58003 60006 80000 90000=
07650,1996-06-08 03:00:00,18,1022,0.5,77,14,20000,0,,,0,,,,,,,,,,,wg-a,,,,AAXX 08034 07650 12/70 00000 10180 20140 30176 40220 53005 60006 80000 90300=
07650,1996-06-08 06:00:00,20,1022.5,0.5,83,17,9000,7.408,,,130,18.2,24.5,,,,,,,,,wg-a,,,,AAXX 08064 07650 12459 /1304 10200 20170 30181 40225 51005 60006 82530 90600 333 10245 20182=
07650,1996-06-08 09:00:00,24,1022.6,0.2,57,15,10000,11.112,,,210,,,,,,,,,,,wg-a,,,,AAXX 08094 07650 12/60 52106 10240 20150 30183 40226 50002 60006 80001 90900=
07650,1996-06-08 12:00:00,27,1021.9,-0.7,45,14,20000,18.52,,,200,,,,,,,,,,,wg-a,,,,AAXX 08124 07650 12670 32010 10270 20140 30176 40219 57007 60006 81101 91200=
07650,1996-06-08 15:00:00,26,1021.5,-0.4,51,15,11000,14.816,,,210,,,,,,,,,,,wg-a,,,,AAXX 08154 07650 12/61 /2108 10260 20150 30172 40215 57004 60006 91500=
07650,1996-06-08 18:00:00,24,1021.4,-0.1,57,15,20000,11.112,,,180,20.3,27.1,,,,,,,,,wg-a,,,,AAXX 08184 07650 12670 21806 10240 20150 30171 40214 55001 60006 81102 91800 333 10271 20203=
07650,1996-06-08 21:00:00,21,1022.5,1,73,16,10000,3.704,,,180,,,,,,,,,,,wg-a,,,,AAXX 08214 07650 12/60 11802 10210 20160 30181 40225 53010 60006 80001 92100=
07650,1996-06-09 00:00:00,19,1021.9,-0.6,83,16,12000,7.408,,,140,,,,,,,,,,,wg-a,,,,AAXX 09004 07650 12/62 01404 10190 20160 30175 40219 56006 60006 80000 90000=
07650,1996-06-09 03:00:00,18,1021.1,-0.8,88,16,8000,7.408,,,140,,,,,,,,,,,wg-a,,,,AAXX 09034 07650 12/58 /1404 10180 20160 30167 40211 56008 60006 80001 90300=
07650,1996-06-09 06:00:00,20,1021.2,0.1,83,17,6000,7.408,,,150,17.5,23.8,,,,,,,,,wg-a,,,,AAXX 09064 07650 12/56 /1504 10200 20170 30168 40212 50001 60006 80001 90600 333 10238 20175=
07650,1996-06-09 09:00:00,24,1021.2,0.1,69,18,7000,7.408,,,280,,,,,,,,,,,wg-a,,,,AAXX 09094 07650 12/57 02804 10240 20180 30169 40212 52001 60006 80000 90900=
07650,1996-06-09 12:00:00,27,1020.7,-0.4,58,18,9000,18.52,,,260,,,,,,,,,,,wg-a,,,,AAXX 09124 07650 12659 /2610 10270 20180 30165 40207 58004 60006 81100 91200=
07650,1996-06-09 15:00:00,27,1019.7,-1,51,16,10000,22.224,,,260,,,,,,,,,,,wg-a,,,,AAXX 09154 07650 12/60 02612 10270 20160 30155 40197 56010 60006 80000 91500=
07650,1996-06-09 18:00:00,25,1019.6,-0.2,57,16,15000,14.816,,,280,20.1,28.1,,,,,,,,,wg-a,,,,AAXX 09184 07650 12665 /2808 10250 20160 30153 40196 58002 60006 81202 91800 333 10281 20201=
07650,1996-06-09 21:00:00,21,1020.6,1,83,18,15000,7.408,,,140,,,,,,,,,,,wg-a,,,,AAXX 09214 07650 12/65 11404 10210 20180 30163 40206 51010 60006 80002 92100=
07650,1996-06-10 00:00:00,20,1020.8,0.1,83,17,15000,7.408,,,140,,,,,,,,,,,wg-a,,,,AAXX 10004 07650 12465 31404 10200 20170 30164 40208 50001 60006 83500 90000=
07650,1996-06-10 03:00:00,19,1020.8,-0,88,17,10000,11.112,,,140,,,,,,,,,,,wg-a,,,,AAXX 10034 07650 12/60 /1406 10190 20170 30164 40208 54000 60006 90300=
07650,1996-06-10 06:00:00,21,1021.3,0.6,83,18,6000,7.408,,,90,18.4,25,,,,,,,,,wg-a,,,,AAXX 10064 07650 12456 /0904 10210 20180 30170 40213 51006 60006 81502 90600 333 10250 20184=
07650,1996-06-10 09:00:00,25,1021.6,0.3,54,15,10000,11.112,,,290,,,,,,,,,,,wg-a,,,,AAXX 10094 07650 12560 /2906 10250 20150 30173 40216 52003 60006 81100 90900=
07650,1996-06-10 12:00:00,29,1020.7,-0.8,45,16,15000,11.112,,,280,,,,,,,,,,,wg-a,,,,AAXX 10124 07650 12565 /2806 10290 20160 30165 40207 58008 60006 81200 91200=
07650,1996-06-10 15:00:00,29,1019.8,-0.9,48,17,15000,22.224,,,260,,,,,,,,,,,wg-a,,,,AAXX 10154 07650 12565 22612 10290 20170 30156 40198 58009 60006 82903 91500=
07650,1996-06-10 18:00:00,25,1020.4,0.5,61,17,15000,11.112,,,170,20.5,29.5,,,,,,,,,wg-a,,,,AAXX 10184 07650 12/65 61706 10250 20170 30161 40204 52005 60006 81033 91800 333 10295 20205=
07650,1996-06-10 21:00:00,23,1022.3,1.9,73,18,10000,7.408,,,190,,,,,,,,,,,wg-a,,,,AAXX 10214 07650 12/60 21904 10230 20180 30180 40223 53019 60006 80002 92100=
07650,1996-06-11 00:00:00,21,1021.8,-0.5,83,18,10000,7.408,,,140,,,,,,,,,,,wg-a,,,,AAXX 11004 07650 12/60 01404 10210 20180 30175 40218 58005 60006 80000 90000=
07650,1996-06-11 03:00:00,20,1021.7,-0.2,83,17,10000,7.408,,,140,,,,,,,,,,,wg-a,,,,AAXX 11034 07650 12/60 01404 10200 20170 30173 40217 58002 60006 80000 90300=
07650,1996-06-11 06:00:00,22,1022.3,0.7,83,19,6000,0,,,0,19.4,25.1,,,,,,,,,wg-a,,,,AAXX 11064 07650 12/56 /0000 10220 20190 30180 40223 51007 60006 80001 90600 333 10251 20194=
07650,1996-06-11 09:00:00,26,1023.1,0.8,65,19,10000,11.112,,,280,,,,,,,,,,,wg-a,,,,AAXX 11094 07650 12/60 02806 10260 20190 30188 40231 51008 60006 80000 90900=
07650,1996-06-11 12:00:00,30,1022.2,-0.8,49,18,11000,14.816,,,250,,,,,,,,,,,wg-a,,,,AAXX 11124 07650 12/61 22508 10300 20180 30180 40222 58008 60006 80001 91200=
07650,1996-06-11 15:00:00,30,1021.5,-0.7,55,20,12000,18.52,,,190,,,,,,,,,,,wg-a,,,,AAXX 11154 07650 12662 21910 10300 20200 30173 40215 56007 60006 82900 91500=
07650,1996-06-11 18:00:00,26,1021.9,0.3,65,19,12000,7.408,,,170,21.9,31.3,,,,,,,,,wg-a,,,,AAXX 11184 07650 12662 41704 10260 20190 30176 40219 50003 60006 81202 91800 333 10313 20219=
07650,1996-06-11 21:00:00,25,1022.4,0.5,69,19,12000,11.112,,,180,,,,,,,,,,,wg-a,,,,AAXX 11214 07650 12662 41806 10250 20190 30181 40224 50005 60006 82202 92100=
07650,1996-06-12 00:00:00,23,1022.7,0.3,78,19,12000,3.704,,,140,,,,,,,,,,,wg-a,,,,AAXX 12004 07650 12/62 11402 10230 20190 30184 40227 50003 60006 80001 90000=
07650,1996-06-12 03:00:00,21,1021.5,-1.2,83,18,10000,7.408,,,140,,,,,,,,,,,wg-a,,,,AAXX 12034 07650 12/60 11404 10210 20180 30172 40215 56012 60006 80001 90300=
07650,1996-06-12 06:00:00,23,1022.2,0.7,73,18,10000,3.704,,,170,20.7,26.3,,,,,,,,,wg-a,,,,AAXX 12064 07650 12/60 11702 10230 20180 30179 40222 53007 60006 80002 90600 333 10263 20207=
07650,1996-06-12 09:00:00,28,1022.3,0.2,58,19,15000,14.816,,,300,,,,,,,,,,,wg-a,,,,AAXX 12094 07650 12/65 03008 10280 20190 30181 40223 50002 60006 80000 90900=
07650,1996-06-12 12:00:00,32,1021.5,-0.8,41,17,20000,18.52,,,240,,,,,,,,,,,wg-a,,,,AAXX 12124 07650 12570 /2410 10320 20170 30173 40215 58008 60006 81100 91200=
07650,1996-06-12 15:00:00,32,1020.3,-1.2,46,19,25000,22.224,,,180,,,,,,,,,,,wg-a,,,,AAXX 12154 07650 12575 21812 10320 20190 30161 40203 56012 60006 81102 91500=
07650,1996-06-12 18:00:00,28,1019.7,-0.6,58,19,18000,7.408,,,150,23.4,33.6,,,,,,,,,wg-a,,,,AAXX 12184 07650 12568 41504 10280 20190 30155 40197 56006 60006 81102 91800 333 10336 20234=
07650,1996-06-12 21:00:00,27,1020,0.3,66,20,20000,14.816,,,10,,,,,,,,,,,wg-a,,,,AAXX 12214 07650 12/70 30108 10270 20200 30158 40200 51003 60006 81032 92100=
07650,1996-06-13 00:00:00,25,1020.6,0.5,65,18,20000,11.112,,,20,,,,,,,,,,,wg-a,,,,AAXX 13004 07650 12/70 00206 10250 20180 30163 40206 51005 60006 80000 90000=
07650,1996-06-13 03:00:00,23,1020.3,,65,16,500,22.224,,,10,,,,,,,,,,,wg-a,,,,AAXX 13034 07650 32/00 00112 10230 20160 30160 40203 80000 90300=
07650,1996-06-13 06:00:00,23,1020.1,-0.2,65,16,500,14.816,,,20,22,28.4,,,,,,,,,wg-a,,,,AAXX 13064 07650 12/00 00208 10230 20160 30158 40201 57002 60006 80000 90600 333 10284 20220=
07650,1996-06-13 09:00:00,27,1019.5,-0.5,54,17,20000,18.52,,,330,,,,,,,,,,,wg-a,,,,AAXX 13094 07650 12/70 03310 10270 20170 30153 40195 58005 60006 80000 90900=
07650,1996-06-13 12:00:00,30,1018.7,-0.8,49,18,500,22.224,,,290,,,,,,,,,,,wg-a,,,,AAXX 13124 07650 12/00 02912 10300 20180 30145 40187 58008 60006 80000 91200=
07650,1996-06-13 15:00:00,31,1016.9,-1.8,43,17,500,18.52,,,320,,,,,,,,,,,wg-a,,,,AAXX 13154 07650 12500 13210 10310 20170 30127 40169 57018 60006 81500 91500=
07650,1996-06-13 18:00:00,28,1016.5,-0.4,51,17,500,22.224,,,330,22.5,31.3,,,,,,,,,wg-a,,,,AAXX 13184 07650 12/00 33312 10280 20170 30123 40165 55004 60006 80002 91800 333 10313 20225=
07650,1996-06-13 21:00:00,24,1017.1,0.5,65,17,20000,18.52,,,330,,,,,,,,,,,wg-a,,,,AAXX 13214 07650 12/70 13310 10240 20170 30128 40171 52005 60006 80002 92100=
07650,1996-06-14 00:00:00,22,1016.9,-0.2,69,16,20000,14.816,,,10,,,,,,,,,,,wg-a,,,,AAXX 14004 07650 12/70 00108 10220 20160 30126 40169 58002 60006 80000 90000=
07650,1996-06-14 03:00:00,20,1016.3,-0.6,64,13,20000,14.816,,,20,,,,,,,,,,,wg-a,,,,AAXX 14034 07650 12/70 10208 10200 20130 30120 40163 58006 60006 81030 90300=
07650,1996-06-14 06:00:00,21,1017.2,0.9,64,14,25000,18.52,,,20,19.4,28.1,,,,,,,,,wg-a,,,,AAXX 14064 07650 12/75 10210 10210 20140 30129 40172 53009 60006 81030 90600 333 10281 20194=
07650,1996-06-14 09:00:00,26,1018,0.8,51,15,500,14.816,,,240,,,,,,,,,,,wg-a,,,,AAXX 14094 07650 12/00 02408 10260 20150 30137 40180 51008 60006 80000 90900=
07650,1996-06-14 12:00:00,28,1018.3,0.4,55,18,500,18.52,,,280,,,,,,,,,,,wg-a,,,,AAXX 14124 07650 12600 /2810 10280 20180 30141 40183 50004 60006 81100 91200=
07650,1996-06-14 15:00:00,28,1018.5,0.2,58,19,8000,14.816,,,260,,,,,,,,,,,wg-a,,,,AAXX 14154 07650 12658 32608 10280 20190 30143 40185 50002 60006 82101 91500=
07650,1996-06-14 18:00:00,27,1018.7,0.2,66,20,8000,7.408,,,200,20.8,29.1,,,,,,,,,wg-a,,,,AAXX 14184 07650 12658 52004 10270 20200 30145 40187 53002 60006 84803 91800 333 10291 20208=
07650,1996-06-14 21:00:00,24,1019.7,0.9,78,20,10000,7.408,,,280,,,,,,,,,,,wg-a,,,,AAXX 14214 07650 12/60 22804 10240 20200 30154 40197 53009 60006 80002 92100=
07650,1996-06-15 00:00:00,22,1019.7,0,88,20,10000,7.408,,,140,,,,,,,,,,,wg-a,,,,AAXX 15004 07650 12/60 21404 10220 20200 30154 40197 50000 60006 80002 90000=
07650,1996-06-15 03:00:00,21,1018.4,-1.3,60,13,15000,7.408,,,90,,,,,,,,,,,wg-a,,,,AAXX 15034 07650 12/65 00904 10210 20130 30141 40184 57013 60006 80000 90300=
07650,1996-06-15 06:00:00,22,1018.8,0.4,60,14,25000,11.112,,,100,20,26.9,,,,,,,,,wg-a,,,,AAXX 15064 07650 12/75 01006 10220 20140 30145 40188 53004 60006 80000 90600 333 10269 20200=
07650,1996-06-15 09:00:00,28,1018.6,-0.1,48,16,25000,11.112,,,290,,,,,,,,,,,wg-a,,,,AAXX 15094 07650 12/75 02906 10280 20160 30144 40186 58001 60006 80000 90900=
07650,1996-06-15 12:00:00,30,1018.3,-0.3,40,15,25000,22.224,,,210,,,,,,,,,,,wg-a,,,,AAXX 15124 07650 12675 32112 10300 20150 30141 40183 56003 60006 83200 91200=
07650,1996-06-15 15:00:00,30,1017.5,-0.8,22,6,500,25.928,,,160,,,,,,,,,,17,wg-a,,,,AAXX 15154 07650 12600 51614 10300 20060 30133 40175 56008 60006 71791 84981 91500=
07650,1996-06-15 18:00:00,25,1018.5,0.9,54,15,50000,25.928,,,90,22.4,30.2,,,,,,,,1,wg-a,,,,AAXX 15184 07650 12684 70914 10250 20150 30142 40185 53009 60006 70191 8698/ 91800 333 10302 20224=
07650,1996-06-15 21:00:00,22,1018.1,-0.4,57,13,40000,7.408,,,100,,,,,,,,,,1,wg-a,,,,AAXX 15214 07650 02682 71004 10220 20130 30138 40181 58004 61000 70182 83284 92100 333 ////=
07650,1996-06-16 00:00:00,20,1018.9,0.7,60,12,500,7.408,,,70,,,,,,,,,,1,wg-a,,,,AAXX 16004 07650 02/00 00704 10200 20120 30145 40189 50007 61000 70181 80000 90000 333 ////=
07650,1996-06-16 03:00:00,18,1018,-0.9,68,12,20000,3.704,,,110,,,,,,,,,,,wg-a,,,,AAXX 16034 07650 12/70 01102 10180 20120 30136 40180 56009 60006 80000 90300=
07650,1996-06-16 06:00:00,21,1017.7,-0.2,56,12,20000,11.112,,,90,18.1,25,,,,,,,,,wg-a,,,,AAXX 16064 07650 02/70 10906 10210 20120 30134 40177 56002 61000 80001 90600 333 10250 20181 ////=
07650,1996-06-16 09:00:00,25,1017.7,,57,16,15000,7.408,,,290,,,,,,,,,,,wg-a,,,,AAXX 16094 07650 12565 12904 10250 20160 30134 40177 60006 81100 90900=
07650,1996-06-16 12:00:00,28,1017.2,-0.4,40,13,15000,22.224,,,200,,,,,,,,,,,wg-a,,,,AAXX 16124 07650 12565 32012 10280 20130 30130 40172 58004 60006 81102 91200=
07650,1996-06-16 15:00:00,27,1016.5,-0.7,42,13,15000,14.816,,,180,,,,,,,,,,,wg-a,,,,AAXX 16154 07650 12565 71808 10270 20130 30123 40165 58007 60006 81202 91500=
07650,1996-06-16 18:00:00,26,1015.5,-1,42,12,15000,14.816,,,180,20.6,28.8,,,,,,,,,wg-a,,,,AAXX 16184 07650 12565 /1808 10260 20120 30113 40155 55010 60006 81102 91800 333 10288 20206=
07650,1996-06-16 21:00:00,23,1016.3,0.7,50,12,20000,7.408,,,220,,,,,,,,,,,wg-a,,,,AAXX 16214 07650 12670 /2204 10230 20120 30120 40163 50007 60006 82403 92100=
07650,1996-06-17 00:00:00,20,1016.7,0.4,60,12,20000,3.704,,,140,,,,,,,,,,,wg-a,,,,AAXX 17004 07650 12/70 31402 10200 20120 30124 40167 50004 60006 80002 90000=
07650,1996-06-17 03:00:00,19,1017.1,0.3,64,12,20000,7.408,,,120,,,,,,,,,,,wg-a,,,,AAXX 17034 07650 12/70 21204 10190 20120 30127 40171 51003 60006 80002 90300=
07650,1996-06-17 06:00:00,21,1017.6,0.6,64,14,20000,7.408,,,120,18,26.4,,,,,,,,,wg-a,,,,AAXX 17064 07650 12/70 11204 10210 20140 30133 40176 53006 60006 80001 90600 333 10264 20180=
07650,1996-06-17 09:00:00,26,1018.5,0.9,45,13,15000,18.52,,,150,,,,,,,,,,,wg-a,,,,AAXX 17094 07650 12/65 11510 10260 20130 30142 40185 51009 60006 80001 90900=
07650,1996-06-17 12:00:00,27,1018.8,0.3,37,11,20000,22.224,,,190,,,,,,,,,,,wg-a,,,,AAXX 17124 07650 12670 41912 10270 20110 30145 40188 53003 60006 82202 91200=
07650,1996-06-17 15:00:00,26,1018.8,-0,51,15,15000,22.224,,,180,,,,,,,,,,,wg-a,,,,AAXX 17154 07650 12565 21812 10260 20150 30145 40188 55000 60006 82400 91500=
07650,1996-06-17 18:00:00,24,1018.3,-0.5,57,15,15000,18.52,,,190,21.1,27.3,,,,,,,,,wg-a,,,,AAXX 17184 07650 12/65 11910 10240 20150 30140 40183 56005 60006 80002 91800 333 10273 20211=
07650,1996-06-17 21:00:00,21,1019.1,0.8,73,16,20000,3.704,,,140,,,,,,,,,,,wg-a,,,,AAXX 17214 07650 12/70 01402 10210 20160 30148 40191 52008 60006 80000 92100=
07650,1996-06-18 00:00:00,19,1019.4,0.2,78,15,20000,11.112,,,140,,,,,,,,,,,wg-a,,,,AAXX 18004 07650 12/70 01406 10190 20150 30150 40194 50002 60006 80000 90000=
07650,1996-06-18 03:00:00,18,1018.4,-1,83,15,20000,7.408,,,110,,,,,,,,,,,wg-a,,,,AAXX 18034 07650 12/70 01104 10180 20150 30140 40184 56010 60006 80000 90300=
07650,1996-06-18 06:00:00,20,1017.9,-0.4,68,14,15000,7.408,,,150,17.7,24.1,,,,,,,,,wg-a,,,,AAXX 18064 07650 12/65 11504 10200 20140 30136 40179 56004 60006 81032 90600 333 10241 20177=
07650,1996-06-18 09:00:00,24,1017.6,-0.3,54,14,10000,7.408,,,300,,,,,,,,,,,wg-a,,,,AAXX 18094 07650 12/60 /3004 10240 20140 30133 40176 56003 60006 90900=
07650,1996-06-18 12:00:00,25,1017.3,-0.3,61,17,11000,22.224,,,270,,,,,,,,,,,wg-a,,,,AAXX 18124 07650 12661 /2712 10250 20170 30130 40173 58003 60006 81202 91200=
07650,1996-06-18 15:00:00,26,1016.1,-1.2,58,17,17000,11.112,,,250,,,,,,,,,,,wg-a,,,,AAXX 18154 07650 12667 /2506 10260 20170 30118 40161 58012 60006 81131 91500=
07650,1996-06-18 18:00:00,24,1015.1,-1,74,19,11000,11.112,,,200,20,26.1,,,,,,,,,wg-a,,,,AAXX 18184 07650 12661 42006 10240 20190 30108 40151 55010 60006 81202 91800 333 10261 20200=
07650,1996-06-18 21:00:00,22,1015.3,0.2,83,19,10000,7.408,,,140,,,,,,,,,,,wg-a,,,,AAXX 18214 07650 12560 41404 10220 20190 30110 40153 51002 60006 82583 92100=
07650,1996-06-19 00:00:00,20,1013.8,-1.5,88,18,10000,11.112,,,110,,,,,,,,,,,wg-a,,,,AAXX 19004 07650 12560 /1106 10200 20180 30095 40138 58015 60006 81500 90000=
07650,1996-06-19 03:00:00,20,1012.6,-1.2,83,17,11000,3.704,,,150,,,,,,,,,,,wg-a,,,,AAXX 19034 07650 12/61 01502 10200 20170 30083 40126 57012 60006 80000 90300=
07650,1996-06-19 09:00:00,24,1013.2,0.2,74,19,7000,14.816,,,290,,,,,,,,,,,wg-a,,,,AAXX 19094 07650 12457 72908 10240 20190 30089 40132 50002 60006 85502 90900=
07650,1996-06-19 12:00:00,28,1012.2,-0.9,58,19,8000,11.112,,,280,,,,,,,,,,,wg-a,,,,AAXX 19124 07650 12658 72806 10280 20190 30080 40122 58009 60006 82101 91200=
07650,1996-06-19 15:00:00,30,1010.4,-1.8,55,20,10000,25.928,,,240,,,,,,,,,,,wg-a,,,,AAXX 19154 07650 12660 /2414 10300 20200 30062 40104 56018 60006 81102 91500=
07650,1996-06-19 18:00:00,28,1010,-0.4,51,17,10000,22.224,,,240,20.6,30.4,,,,,,,,,wg-a,,,,AAXX 19184 07650 12/60 32412 10280 20170 30058 40100 55004 60006 80002 91800 333 10304 20206=
07650,1996-06-19 21:00:00,24,1011.9,1.8,74,19,12000,11.112,,,250,,,,,,,,,,,wg-a,,,,AAXX 19214 07650 12/62 32506 10240 20190 30076 40119 51018 60006 80002 92100=
07650,1996-06-20 00:00:00,23,1010.4,-1.5,73,18,12000,11.112,,,120,,,,,,,,,,,wg-a,,,,AAXX 20004 07650 12/62 31206 10230 20180 30061 40104 58015 60006 80002 90000=
07650,1996-06-20 03:00:00,22,1009.4,-1,73,17,15000,7.408,,,140,,,,,,,,,,,wg-a,,,,AAXX 20034 07650 12/65 21404 10220 20170 30051 40094 56010 60006 81041 90300=
07650,1996-06-20 06:00:00,23,1009.6,0.2,78,19,9000,0,,,0,21.4,27.9,,,,,,,,,wg-a,,,,AAXX 20064 07650 12/59 20000 10230 20190 30053 40096 52002 60006 81041 90600 333 10279 20214=
07650,1996-06-20 09:00:00,27,1009.6,0.1,66,20,15000,7.408,,,320,,,,,,,,,,,wg-a,,,,AAXX 20094 07650 12/65 33204 10270 20200 30054 40096 50001 60006 83030 90900=
07650,1996-06-20 12:00:00,31,1008.7,-0.8,40,16,20000,11.112,,,270,,,,,,,,,,,wg-a,,,,AAXX 20124 07650 12570 /2706 10310 20160 30046 40087 58008 60006 81130 91200=
07650,1996-06-20 15:00:00,29,1008.4,-0.4,48,17,20000,22.224,,,180,,,,,,,,,,,wg-a,,,,AAXX 20154 07650 12570 21812 10290 20170 30042 40084 58004 60006 82200 91500=
07650,1996-06-20 18:00:00,25,1008,-0.4,74,20,15000,18.52,,,180,23.3,31.3,,,,,,,,,wg-a,,,,AAXX 20184 07650 12565 31810 10250 20200 30038 40080 56004 60006 81102 91800 333 10313 20233=
07650,1996-06-20 21:00:00,23,1009.1,1,78,19,12000,7.408,,,140,,,,,,,,,,,wg-a,,,,AAXX 20214 07650 12662 71404 10230 20190 30048 40091 53010 60006 81232 92100=
07650,1996-06-21 00:00:00,23,1008.1,-1,78,19,13000,11.112,,,140,,,,,,,,,,,wg-a,,,,AAXX 21004 07650 12663 71406 10230 20190 30038 40081 58010 60006 8383/ 90000=
07650,1996-06-21 03:00:00,23,1007,-1.1,78,19,10000,11.112,,,140,,,,,,,,,,,wg-a,,,,AAXX 21034 07650 12460 71406 10230 20190 30027 40070 55011 60006 878// 90300=
07650,1996-06-21 06:00:00,23,1006.5,-0.4,73,18,15000,11.112,,,90,21.9,24.9,,,,,,,,,wg-a,,,,AAXX 21064 07650 12465 70906 10230 20180 30023 40065 56004 60006 8387/ 90600 333 10249 20219=
07650,1996-06-21 09:00:00,24,1005,-1.5,61,16,12000,29.632,,53.708,130,,,,1,,,,,,81,wg-a,,,,AAXX 21094 07650 12562 71316 10240 20160 30008 40050 58015 60017 78192 879// 90900 333 91029=
07650,1996-06-21 12:00:00,28,1003.8,-1.2,42,14,25000,31.484,,,140,,,,0,,,,,,1,wg-a,,,,AAXX 21124 07650 02575 61417 10280 20140 39996 40038 56012 60016 70198 84903 91200 333 60007=
07650,1996-06-21 18:00:00,23,1003.9,0.5,65,16,25000,14.816,,,330,22.9,27.8,,,,,,,,1,wg-a,,,,AAXX 21184 07650 02575 73308 10230 20160 39997 40039 53005 61000 70182 878// 91800 333 10278 20229 ////=
07650,1996-06-21 21:00:00,21,1005.8,1.8,64,14,25000,18.52,,,330,,,,0,,,,,,,wg-a,,,,AAXX 21214 07650 12575 73310 10210 20140 30015 40058 53018 60007 83532 92100=
07650,1996-06-22 00:00:00,20,1006.4,0.6,56,11,25000,29.632,,,310,,,,,,,,,,,wg-a,,,,AAXX 22004 07650 12675 73116 10200 20110 30021 40064 52006 60006 83532 90000=
07650,1996-06-22 03:00:00,19,1006.2,-0.2,64,12,25000,38.892,,,300,,,,,,,,,,,wg-a,,,,AAXX 22034 07650 12775 63021 10190 20120 30019 40062 58002 60006 81532 90300=
07650,1996-06-22 06:00:00,17,1008.2,2,68,11,40000,38.892,,,330,16.3,23,,0,,,1,,,1,wg-a,,,,AAXX 22064 07650 02582 43321 10170 20110 30039 40082 53020 60014 70182 82242 90600 333 10230 20163 60007=
07650,1996-06-22 09:00:00,19,1010.5,2.3,40,5,40000,57.412,,79.636,340,,,,,,,,,,,wg-a,,,,AAXX 22094 07650 12/82 13431 10190 20050 30062 40105 51023 60006 81032 90900 333 91043=
07650,1996-06-22 12:00:00,20,1011.4,0.9,35,4,40000,61.116,,87.044,340,,,,,,,,,,,wg-a,,,,AAXX 22124 07650 12682 23433 10200 20040 30071 40114 52009 60006 82100 91200 333 91047=
07650,1996-06-22 15:00:00,20,1013.2,1.8,35,4,40000,57.412,,,350,,,,,,,,,,,wg-a,,,,AAXX 22154 07650 12582 33531 10200 20040 30089 40132 51018 60006 83800 91500=
07650,1996-06-22 18:00:00,19,1014.4,1.1,40,5,40000,50.004,,64.82,340,17,20.8,,,,,,,,,wg-a,,,,AAXX 22184 07650 12682 /3427 10190 20050 30100 40144 53011 60006 81500 91800 333 10208 20170 91035=
07650,1996-06-22 21:00:00,16,1016.6,2.2,51,6,40000,46.3,,64.82,330,,,,,,,,,,,wg-a,,,,AAXX 22214 07650 12/82 /3325 10160 20060 30122 40166 52022 60006 81040 92100 333 91035=
07650,1996-06-23 00:00:00,15,1016.3,-0.3,55,6,500,46.3,,68.524,330,,,,,,,,,,,wg-a,,,,AAXX 23004 07650 12/00 03325 10150 20060 30119 40163 55003 60006 80000 90000 333 91037=
07650,1996-06-23 03:00:00,14,1015.7,-0.6,63,7,25000,42.596,,,320,,,,,,,,,,,wg-a,,,,AAXX 23034 07650 12575 13223 10140 20070 30113 40157 57006 60006 81100 90300=
07650,1996-06-23 06:00:00,15,1016.1,0.4,59,7,25000,46.3,,,340,14,18.7,,,,,,,,,wg-a,,,,AAXX 23064 07650 12575 23425 10150 20070 30117 40161 51004 60006 81141 90600 333 10187 20140=
07650,1996-06-23 09:00:00,19,1016.2,-0,46,7,50000,46.3,,68.524,340,,,,,,,,,,,wg-a,,,,AAXX 23094 07650 12584 23425 10190 20070 30118 40162 54000 60006 81102 90900 333 91037=
07650,1996-06-23 12:00:00,21,1015.7,-0.4,38,6,50000,50.004,,72.228,340,,,,,,,,,,,wg-a,,,,AAXX 23124 07650 12584 /3427 10210 20060 30114 40157 58004 60006 81102 91200 333 91039=
07650,1996-06-23 15:00:00,23,1015.4,-0.3,33,6,50000,38.892,,61.116,350,,,,,,,,,,,wg-a,,,,AAXX 23154 07650 12584 23521 10230 20060 30111 40154 55003 60006 81201 91500 333 91033=
07650,1996-06-23 18:00:00,20,1015.8,0.3,40,6,50000,46.3,,,340,15.5,22.9,,,,,,,,,wg-a,,,,AAXX 23184 07650 12584 23425 10200 20060 30114 40158 53003 60006 81202 91800 333 10229 20155=
07650,1996-06-23 21:00:00,17,1016.7,0.9,48,6,500,35.188,,,350,,,,,,,,,,,wg-a,,,,AAXX 23214 07650 12600 13519 10170 20060 30123 40167 50009 60006 81401 92100=
07650,1996-06-24 00:00:00,14,1017.1,0.4,63,7,500,14.816,,,10,,,,,,,,,,,wg-a,,,,AAXX 24004 07650 12/00 00108 10140 20070 30127 40171 53004 60006 80000 90000=
07650,1996-06-24 03:00:00,13,1017.6,0.4,67,7,10000,18.52,,,20,,,,,,,,,,,wg-a,,,,AAXX 24034 07650 12/60 /0210 10130 20070 30131 40176 53004 60006 90300=
07650,1996-06-24 06:00:00,15,1018.8,1.3,63,8,50000,14.816,,,10,12.4,19.5,,,,,,,,,wg-a,,,,AAXX 24064 07650 12684 20108 10150 20080 30144 40188 53013 60006 81142 90600 333 10195 20124=
07650,1996-06-24 09:00:00,20,1019.4,0.6,46,8,500,7.408,,,290,,,,,,,,,,,wg-a,,,,AAXX 24094 07650 12600 22904 10200 20080 30150 40194 53006 60006 82802 90900=
07650,1996-06-24 12:00:00,23,1018.4,-0.9,36,7,500,25.928,,,280,,,,,,,,,,,wg-a,,,,AAXX 24124 07650 12600 32814 10230 20070 30141 40184 58009 60006 82202 91200=
07650,1996-06-24 15:00:00,24,1017.3,-1.1,34,7,500,25.928,,,330,,,,,,,,,,,wg-a,,,,AAXX 24154 07650 12600 43314 10240 20070 30130 40173 56011 60006 83802 91500=
07650,1996-06-24 18:00:00,21,1018,0.7,40,7,500,7.408,,,210,14.6,24.7,,,,,,,,,wg-a,,,,AAXX 24184 07650 12600 42104 10210 20070 30137 40180 50007 60006 83902 91800 333 10247 20146=
07650,1996-06-24 21:00:00,18,1018.1,0,52,8,500,29.632,,,350,,,,,,,,,,,wg-a,,,,AAXX 24214 07650 12600 53516 10180 20080 30137 40181 50000 60006 82502 92100=
07650,1996-06-25 00:00:00,15,1018.3,0.2,72,10,500,22.224,,,360,,,,,,,,,,,wg-a,,,,AAXX 25004 07650 12/00 03612 10150 20100 30139 40183 50002 60006 80000 90000=
07650,1996-06-25 03:00:00,14,1018.3,-0.1,67,8,20000,11.112,,,20,,,,,,,,,,,wg-a,,,,AAXX 25034 07650 12/70 00206 10140 20080 30138 40183 55001 60006 80000 90300=
07650,1996-06-25 06:00:00,15,1018.5,0.3,67,9,20000,11.112,,,20,12.9,21.5,,,,,,,,,wg-a,,,,AAXX 25064 07650 12670 30206 10150 20090 30141 40185 51003 60006 81502 90600 333 10215 20129=
07650,1996-06-25 09:00:00,20,1018.3,-0.2,53,10,500,14.816,,,290,,,,,,,,,,,wg-a,,,,AAXX 25094 07650 12500 /2908 10200 20100 30139 40183 58002 60006 81130 90900=
07650,1996-06-25 12:00:00,23,1017.3,-0.9,44,10,40000,25.928,,,280,,,,,,,,,,,wg-a,,,,AAXX 25124 07650 12582 32814 10230 20100 30130 40173 58009 60006 83201 91200=
07650,1996-06-25 15:00:00,24,1016.6,-0.7,38,9,40000,22.224,,,300,,,,,,,,,,,wg-a,,,,AAXX 25154 07650 12582 33012 10240 20090 30123 40166 57007 60006 83903 91500=
07650,1996-06-25 18:00:00,22,1016.9,0.3,46,10,500,25.928,,,330,14.9,24.7,,,,,,,,,wg-a,,,,AAXX 25184 07650 12500 23314 10220 20100 30126 40169 53003 60006 82232 91800 333 10247 20149=
07650,1996-06-25 21:00:00,19,1017.2,0.2,52,9,500,25.928,,,350,,,,,,,,,,,wg-a,,,,AAXX 25214 07650 12500 23514 10190 20090 30128 40172 52002 60006 81402 92100=
07650,1996-06-26 00:00:00,17,1017.2,-0,59,9,500,25.928,,,10,,,,,,,,,,,wg-a,,,,AAXX 26004 07650 12/00 20114 10170 20090 30128 40172 54000 60006 80001 90000=
07650,1996-06-26 03:00:00,16,1016.2,-1,59,8,500,29.632,,,350,,,,,,,,,,,wg-a,,,,AAXX 26034 07650 12/00 13516 10160 20080 30118 40162 58010 60006 80001 90300=
07650,1996-06-26 06:00:00,17,1016.6,0.4,55,8,500,22.224,,,360,15.2,22.2,,,,,,,,,wg-a,,,,AAXX 26064 07650 12/00 43612 10170 20080 30122 40166 51004 60006 81031 90600 333 10222 20152=
07650,1996-06-26 09:00:00,21,1016.9,0.4,46,9,18000,14.816,,,350,,,,,,,,,,,wg-a,,,,AAXX 26094 07650 12668 13508 10210 20090 30126 40169 51004 60006 81100 90900=
07650,1996-06-26 12:00:00,24,1016.6,-0.3,38,9,20000,25.928,,,300,,,,,,,,,,,wg-a,,,,AAXX 26124 07650 12670 /3014 10240 20090 30123 40166 58003 60006 81100 91200=
07650,1996-06-26 15:00:00,25,1016.5,-0.1,34,8,25000,38.892,,,320,,,,,,,,,,,wg-a,,,,AAXX 26154 07650 12675 /3221 10250 20080 30122 40165 55001 60006 81202 91500=
07650,1996-06-26 18:00:00,24,1017.1,0.6,36,8,20000,35.188,,,340,17,25.5,,,,,,,,,wg-a,,,,AAXX 26184 07650 12670 /3419 10240 20080 30128 40171 53006 60006 81100 91800 333 10255 20170=
07650,1996-06-26 21:00:00,21,1018.6,1.5,40,7,20000,25.928,,,350,,,,,,,,,,,wg-a,,,,AAXX 26214 07650 12/70 /3514 10210 20070 30143 40186 53015 60006 80000 92100=
07650,1996-06-27 00:00:00,18,1019.4,0.7,52,8,20000,22.224,,,360,,,,,,,,,,,wg-a,,,,AAXX 27004 07650 12/70 03612 10180 20080 30150 40194 53007 60006 80000 90000=
07650,1996-06-27 03:00:00,15,1019.5,0.1,63,8,20000,3.704,,,140,,,,,,,,,,,wg-a,,,,AAXX 27034 07650 12/70 01402 10150 20080 30151 40195 53001 60006 80000 90300=
07650,1996-06-27 06:00:00,17,1020.7,1.2,68,11,15000,11.112,,,320,14,23.7,,,,,,,,,wg-a,,,,AAXX 27064 07650 12/65 13206 10170 20110 30163 40207 53012 60006 80001 90600 333 10237 20140=
07650,1996-06-27 09:00:00,22,1021.4,0.8,43,9,15000,7.408,,,290,,,,,,,,,,,wg-a,,,,AAXX 27094 07650 12/65 12904 10220 20090 30171 40214 51008 60006 80002 90900=
07650,1996-06-27 12:00:00,26,1020.9,-0.5,32,8,20000,18.52,,,240,,,,,,,,,,,wg-a,,,,AAXX 27124 07650 12570 /2410 10260 20080 30166 40209 58005 60006 81202 91200=
07650,1996-06-27 15:00:00,28,1020.1,-0.8,28,8,20000,22.224,,,290,,,,,,,,,,,wg-a,,,,AAXX 27154 07650 12670 /2912 10280 20080 30158 40201 56008 60006 81400 91500=
07650,1996-06-27 18:00:00,27,1020.1,-0,30,8,20000,25.928,,,340,17,28.1,,,,,,,,,wg-a,,,,AAXX 27184 07650 12/70 13414 10270 20080 30158 40201 55000 60006 80002 91800 333 10281 20170=
07650,1996-06-27 21:00:00,22,1021.3,1.2,57,13,20000,14.816,,,250,,,,,,,,,,,wg-a,,,,AAXX 27214 07650 12/70 12508 10220 20130 30170 40213 53012 60006 80001 92100=
07650,1996-06-28 00:00:00,20,1021.3,-0.1,64,13,20000,14.816,,,280,,,,,,,,,,,wg-a,,,,AAXX 28004 07650 12/70 02808 10200 20130 30169 40213 58001 60006 80000 90000=
07650,1996-06-28 03:00:00,17,1020.9,-0.4,72,12,20000,7.408,,,140,,,,,,,,,,,wg-a,,,,AAXX 28034 07650 12/70 21404 10170 20120 30165 40209 56004 60006 81032 90300=
07650,1996-06-28 06:00:00,19,1021.6,0.7,60,11,15000,0,,,0,15.8,26.6,,,,,,,,,wg-a,,,,AAXX 28064 07650 12/65 30000 10190 20110 30172 40216 53007 60006 80002 90600 333 10266 20158=
07650,1996-06-28 09:00:00,23,1021.9,0.4,50,12,10000,11.112,,,280,,,,,,,,,,,wg-a,,,,AAXX 28094 07650 12/60 12806 10230 20120 30176 40219 52004 60006 80001 90900=
07650,1996-06-28 12:00:00,28,1020.5,-1.3,37,12,15000,18.52,,,250,,,,,,,,,,,wg-a,,,,AAXX 28124 07650 12665 /2510 10280 20120 30163 40205 58013 60006 81200 91200=
07650,1996-06-28 15:00:00,29,1019.3,-1.2,35,12,20000,25.928,,,240,,,,,,,,,,,wg-a,,,,AAXX 28154 07650 12670 /2414 10290 20120 30151 40193 56012 60006 81101 91500=
07650,1996-06-28 18:00:00,24,1019,-0.4,50,13,20000,11.112,,,170,18.6,29.2,,,,,,,,,wg-a,,,,AAXX 28184 07650 12/70 11706 10240 20130 30147 40190 56004 60006 80001 91800 333 10292 20186=
07650,1996-06-28 21:00:00,20,1019.8,0.8,73,15,20000,11.112,,,140,,,,,,,,,,,wg-a,,,,AAXX 28214 07650 12/70 11406 10200 20150 30155 40198 51008 60006 80001 92100=
07650,1996-06-29 00:00:00,19,1019.1,-0.8,83,16,12000,7.408,,,100,,,,,,,,,,,wg-a,,,,AAXX 29004 07650 12/62 11004 10190 20160 30147 40191 58008 60006 80001 90000=
07650,1996-06-29 03:00:00,17,1018,-1.1,82,14,20000,7.408,,,110,,,,,,,,,,,wg-a,,,,AAXX 29034 07650 12/70 01104 10170 20140 30136 40180 56011 60006 80000 90300=
07650,1996-06-29 06:00:00,19,1018.6,0.6,83,16,11000,7.408,,,310,16.6,23.9,,,,,,,,,wg-a,,,,AAXX 29064 07650 12/61 33104 10190 20160 30142 40186 53006 60006 81032 90600 333 10239 20166=
07650,1996-06-29 09:00:00,22,1018.3,-0.2,73,17,7000,11.112,,,280,,,,,,,,,,,wg-a,,,,AAXX 29094 07650 12557 22806 10220 20170 30140 40183 58002 60006 82500 90900=
07650,1996-06-29 12:00:00,28,1017,-1.2,42,14,500,22.224,,,280,,,,,,,,,,,wg-a,,,,AAXX 29124 07650 12600 42812 10280 20140 30128 40170 58012 60006 81102 91200=
07650,1996-06-29 15:00:00,29,1015.3,-1.7,43,15,500,25.928,,,240,,,,,,,,,,,wg-a,,,,AAXX 29154 07650 12600 /2414 10290 20150 30111 40153 58017 60006 81102 91500=
07650,1996-06-29 18:00:00,28,1014.1,,40,13,500,38.892,,,300,18.9,29.9,,,,,,,,,wg-a,,,,AAXX 29184 07650 12600 /3021 10280 20130 30099 40141 60006 81102 91800 333 10299 20189=
07650,1996-06-29 21:00:00,23,1016.2,1.3,53,13,500,29.632,,,320,,,,,,,,,,,wg-a,,,,AAXX 29214 07650 12600 33216 10230 20130 30119 40162 53013 60006 81501 92100=
07650,1996-06-30 00:00:00,22,1016.7,0.5,53,12,500,31.484,,,330,,,,,,,,,,,wg-a,,,,AAXX 30004 07650 12/00 23317 10220 20120 30124 40167 50005 60006 80001 90000=
07650,1996-06-30 03:00:00,20,1016.4,-0.3,49,9,500,29.632,,,340,,,,,,,,,,,wg-a,,,,AAXX 30034 07650 12/00 23416 10200 20090 30121 40164 58003 60006 80002 90300=
07650,1996-06-30 06:00:00,20,1016.9,0.4,56,11,50000,38.892,,,310,19.1,27.3,,,,,,,,,wg-a,,,,AAXX 30064 07650 12/84 33121 10200 20110 30125 40169 53004 60006 81042 90600 333 10273 20191=
07650,1996-06-30 09:00:00,23,1015.7,-1.1,41,9,500,42.596,,,340,,,,,,,,,,,wg-a,,,,AAXX 30094 07650 12/00 03423 10230 20090 30114 40157 58011 60006 80000 90900=
07650,1996-06-30 12:00:00,26,1014,-1.6,32,8,500,38.892,,61.116,340,,,,,,,,,,,wg-a,,,,AAXX 30124 07650 12/00 13421 10260 20080 30098 40140 58016 60006 80001 91200 333 91033=
07650,1996-06-30 15:00:00,28,1013.1,-0.9,23,5,500,35.188,,50.004,340,,,,,,,,,,,wg-a,,,,AAXX 30154 07650 12/00 33419 10280 20050 30089 40131 58009 60006 80002 91500 333 91027=
07650,1996-06-30 18:00:00,28,1012.6,-0.5,35,11,500,18.52,,,310,19.8,28.7,,,,,,,,,wg-a,,,,AAXX 30184 07650 12/00 13110 10280 20110 30084 40126 55005 60006 80001 91800 333 10287 20198=
07650,1996-06-30 21:00:00,24,1013.4,0.7,41,10,40000,22.224,,,320,,,,,,,,,,,wg-a,,,,AAXX 30214 07650 12/82 13212 10240 20100 30091 40134 51007 60006 81040 92100=
07650,1996-07-01 00:00:00,21,1012.9,-0.5,49,10,40000,18.52,,,290,,,,,,,,,,,wg-a,,,,AAXX 01004 07650 12/82 02910 10210 20100 30086 40129 55005 60006 80000 90000=
07650,1996-07-01 03:00:00,19,1012.1,-0.8,56,10,40000,11.112,,,340,,,,,,,,,,,wg-a,,,,AAXX 01034 07650 12/82 03406 10190 20100 30078 40121 58008 60006 80000 90300=
07650,1996-07-01 06:00:00,20,1012.3,0.2,56,11,500,14.816,,,300,18.5,27.7,,,,,,,,,wg-a,,,,AAXX 01064 07650 12/00 23008 10200 20110 30080 40123 53002 60006 81082 90600 333 10277 20185=
07650,1996-07-01 09:00:00,25,1011.5,-0.8,41,11,20000,18.52,,,290,,,,,,,,,,,wg-a,,,,AAXX 01094 07650 12/70 22910 10250 20110 30072 40115 58008 60006 81032 90900=
07650,1996-07-01 12:00:00,27,1010.7,-0.7,42,13,500,29.632,,,240,,,,,,,,,,,wg-a,,,,AAXX 01124 07650 12/00 22416 10270 20130 30065 40107 58007 60006 81032 91200=
07650,1996-07-01 15:00:00,27,1009.7,-1,45,14,20000,31.484,,,250,,,,,,,,,,,wg-a,,,,AAXX 01154 07650 12/70 42517 10270 20140 30055 40097 56010 60006 82032 91500=
07650,1996-07-01 18:00:00,25,1009.8,0.1,54,15,500,22.224,,,230,20.2,28.2,,,,,,,,,wg-a,,,,AAXX 01184 07650 12600 42312 10250 20150 30056 40098 51001 60006 81232 91800 333 10282 20202=
07650,1996-07-02 00:00:00,21,1011.5,0.3,56,12,25000,25.928,,,320,,,,,,,,,,,wg-a,,,,AAXX 02004 07650 12/75 43214 10210 20120 30072 40115 53003 60006 84032 90000=
07650,1996-07-02 03:00:00,21,1010,-1.5,53,11,20000,18.52,,,360,,,,,,,,,,,wg-a,,,,AAXX 02034 07650 12/70 63610 10210 20110 30057 40100 57015 60006 82032 90300=
07650,1996-07-02 06:00:00,19,1011.7,1.7,68,13,25000,29.632,,,300,19,25.7,,0,,,,,,60,wg-a,,,,AAXX 02064 07650 02675 83016 10190 20130 30074 40117 53017 60004 76011 82532 90600 333 10257 20190 60007=
07650,1996-07-02 09:00:00,17,1013.3,1.5,77,13,25000,31.484,,,320,,,,,,,,,,60,wg-a,,,,AAXX 02094 07650 02675 73217 10170 20130 30089 40133 53015 61000 76066 8357/ 90900 333 ////=
07650,1996-07-02 12:00:00,17,1012.8,-0.5,77,13,25000,22.224,,,340,,,,0,,,,,,60,wg-a,,,,AAXX 02124 07650 02475 73412 10170 20130 30074 40128 58005 60016 76062 878// 91200 333 60007=
07650,1996-07-02 15:00:00,20,1012,-0.7,60,12,25000,22.224,,,340,,,,,,,,,,1,wg-a,,,,AAXX 02154 07650 02475 /3412 10200 20120 30077 40120 58007 61000 70162 85840 91500 333 ////=
07650,1996-07-02 18:00:00,20,1011.4,-0.6,68,14,50000,29.632,,,280,16.8,21.8,,,,,,,,,wg-a,,,,AAXX 02184 07650 32584 72816 10200 20140 30071 40114 56006 81102 91800 333 10218 20168=
07650,1996-07-02 21:00:00,19,1012.4,1,60,11,20000,25.928,,,320,,,,,,,,,,,wg-a,,,,AAXX 02214 07650 12/70 43214 10190 20110 30081 40124 53010 60006 82032 92100=
07650,1996-07-03 00:00:00,18,1012.7,0.2,64,11,20000,25.928,,,320,,,,,,,,,,,wg-a,,,,AAXX 03004 07650 12/70 03214 10180 20110 30083 40127 53002 60006 80000 90000=
07650,1996-07-03 03:00:00,16,1012.8,0.1,72,11,25000,25.928,,,320,,,,,,,,,,,wg-a,,,,AAXX 03034 07650 12/75 13214 10160 20110 30084 40128 50001 60006 80001 90300=
07650,1996-07-03 06:00:00,17,1014,1.2,59,9,500,14.816,,,320,14.7,20.3,,,,,,,,,wg-a,,,,AAXX 03064 07650 02/00 13208 10170 20090 30096 40140 51012 60006 80001 90600 333 10203 20147 60004=
07650,1996-07-03 09:00:00,22,1014.8,0.9,43,9,40000,25.928,,,300,,,,,,,,,,,wg-a,,,,AAXX 03094 07650 12/82 13014 10220 20090 30105 40148 51009 60006 80001 90900=
07650,1996-07-03 12:00:00,25,1014.9,0.1,34,8,40000,14.816,,,280,,,,,,,,,,,wg-a,,,,AAXX 03124 07650 12/82 02808 10250 20080 30106 40149 50001 60006 80000 91200=
07650,1996-07-03 15:00:00,25,1014.9,-0,41,11,40000,29.632,,,240,,,,,,,,,,,wg-a,,,,AAXX 03154 07650 12/82 02416 10250 20110 30106 40149 55000 60006 80000 91500=
07650,1996-07-03 18:00:00,23,1015.4,0.5,53,13,500,22.224,,,270,17.1,25.7,,,,,,,,,wg-a,,,,AAXX 03184 07650 12/00 02712 10230 20130 30111 40154 53005 60006 80000 91800 333 10257 20171=
07650,1996-07-03 21:00:00,20,1016.9,1.5,78,16,500,3.704,,,220,,,,,,,,,,,wg-a,,,,AAXX 03214 07650 12/00 12202 10200 20160 30126 40169 52015 60006 81030 92100=
07650,1996-07-04 00:00:00,20,1017.1,0.2,78,16,500,7.408,,,140,,,,,,,,,,,wg-a,,,,AAXX 04004 07650 12/00 31404 10200 20160 30128 40171 50002 60006 83030 90000=
07650,1996-07-04 03:00:00,19,1016.9,-0.3,78,15,20000,7.408,,,110,,,,,,,,,,,wg-a,,,,AAXX 04034 07650 12/70 71104 10190 20150 30125 40169 57003 60006 8703/ 90300=
07650,1996-07-04 06:00:00,21,1017.3,0.5,78,17,500,3.704,,,110,18.6,23.1,,,,,,,,,wg-a,,,,AAXX 04064 07650 12400 31102 10210 20170 30130 40173 53005 60006 81580 90600 333 10231 20186=
07650,1996-07-04 09:00:00,24,1017.9,0.6,74,19,10000,7.408,,,210,,,,,,,,,,,wg-a,,,,AAXX 04094 07650 12460 /2104 10240 20190 30136 40179 52006 60006 85501 90900=
07650,1996-07-04 12:00:00,25,1017.8,-0.1,65,18,15000,18.52,,,180,,,,,,,,,,,wg-a,,,,AAXX 04124 07650 12/65 /1810 10250 20180 30135 40178 56001 60006 91200=
07650,1996-07-04 15:00:00,23,1017.5,-0.3,78,19,13000,22.224,,,150,,,,,,,,,,,wg-a,,,,AAXX 04154 07650 12463 71512 10230 20190 30132 40175 56003 60006 875// 91500=
07650,1996-07-04 18:00:00,22,1017.1,-0.4,83,19,20000,18.52,,,190,20.8,26.3,,,,,,,,,wg-a,,,,AAXX 04184 07650 12470 41910 10220 20190 30128 40171 55004 60006 84501 91800 333 10263 20208=
07650,1996-07-04 21:00:00,22,1017.6,0.5,73,17,15000,11.112,,,140,,,,,,,,,,,wg-a,,,,AAXX 04214 07650 12465 61406 10220 20170 30133 40176 51005 60006 86501 92100=
07650,1996-07-05 00:00:00,22,1016.6,-1,69,16,20000,11.112,,,120,,,,,,,,,,,wg-a,,,,AAXX 05004 07650 12470 71206 10220 20160 30123 40166 58010 60006 875// 90000=
07650,1996-07-05 03:00:00,21,1015,-1.6,78,17,20000,18.52,,,140,,,,,,,,,,,wg-a,,,,AAXX 05034 07650 12570 61410 10210 20170 30107 40150 58016 60006 83531 90300=
07650,1996-07-05 06:00:00,21,1014.1,-0.9,78,17,20000,18.52,,,130,20.1,22.4,,0,,,,,,1,wg-a,,,,AAXX 05064 07650 02570 /1310 10210 20170 30098 40141 58009 60004 70186 81182 90600 333 10224 20201 60007=
07650,1996-07-05 09:00:00,24,1013.4,-0.7,50,13,500,29.632,,,140,,,,,,,,,,13,wg-a,,,,AAXX 05094 07650 12600 61416 10240 20130 30091 40134 56007 60006 71322 8398/ 90900=
07650,1996-07-05 12:00:00,26,1011.9,-1.4,45,13,500,31.484,,,150,,,,,,,,,,,wg-a,,,,AAXX 05124 07650 02600 71517 10260 20130 30077 40119 58014 61000 8388/ 91200 333 6100=
07650,1996-07-05 15:00:00,24,1011.2,-0.8,61,16,20000,35.188,,,140,,,,,,,,,,,wg-a,,,,AAXX 05154 07650 12670 61419 10240 20160 30069 40112 58008 60006 82882 91500=
07650,1996-07-05 18:00:00,22,1010.8,-0.4,83,19,8000,18.52,,,170,20.9,26.1,,,,,,,,80,wg-a,,,,AAXX 05184 07650 02458 81710 10220 20190 30065 40108 55004 61000 78082 8697/ 91800 333 10261 20209 ////=
07650,1996-07-05 21:00:00,21,1011.2,0.4,78,17,20000,3.704,,,90,,,,,,,,,,1,wg-a,,,,AAXX 05214 07650 02470 /0902 10210 20170 30069 40112 52004 61000 70182 85531 92100 333 ////=
07650,1996-07-06 00:00:00,20,1010.9,-0.3,78,16,25000,3.704,,,320,,,,,,,,,,1,wg-a,,,,AAXX 06004 07650 02675 /3202 10200 20160 30066 40109 56003 61000 70182 81570 90000 333 ////=
07650,1996-07-06 03:00:00,17,1010.8,-0.2,94,16,20000,3.704,,,180,,,,,,,,,,,wg-a,,,,AAXX 06034 07650 12670 31802 10170 20160 30064 40108 55002 60006 81530 90300=
07650,1996-07-06 06:00:00,19,1011.3,0.6,83,16,20000,0,,,0,16.8,22,,,,,,,,,wg-a,,,,AAXX 06064 07650 02570 30000 10190 20160 30070 40113 53006 61000 81530 90600 333 10220 20168 ////=
07650,1996-07-06 09:00:00,23,1011.4,0.1,61,15,500,18.52,,,290,,,,,,,,,,,wg-a,,,,AAXX 06094 07650 12500 32910 10230 20150 30071 40114 53001 60006 81132 90900=
07650,1996-07-06 12:00:00,26,1010.1,-1.2,48,14,500,18.52,,,300,,,,,,,,,,,wg-a,,,,AAXX 06124 07650 12600 23010 10260 20140 30059 40101 58012 60006 82102 91200=
07650,1996-07-06 15:00:00,27,1008.7,-1.4,45,14,500,22.224,,,240,,,,,,,,,,,wg-a,,,,AAXX 06154 07650 12600 32412 10270 20140 30045 40087 58014 60006 82132 91500=
07650,1996-07-06 18:00:00,24,1008.2,-0.5,50,13,500,31.484,,,270,19,27.8,,,,,,,,,wg-a,,,,AAXX 06184 07650 12500 72717 10240 20130 30040 40082 55005 60006 83832 91800 333 10278 20190=
07650,1996-07-06 21:00:00,23,1008.6,0.3,50,12,20000,14.816,,,290,,,,,,,,,,,wg-a,,,,AAXX 06214 07650 12670 72908 10230 20120 30043 40086 51003 60006 83532 92100=
07650,1996-07-07 00:00:00,20,1007.8,-0.8,60,12,20000,7.408,,,130,,,,,,,,,,,wg-a,,,,AAXX 07004 07650 12/70 21304 10200 20120 30035 40078 58008 60006 81032 90000=
07650,1996-07-07 03:00:00,18,1006.2,-1.6,68,12,20000,3.704,,,80,,,,,,,,,,,wg-a,,,,AAXX 07034 07650 12670 /0802 10180 20120 30019 40062 58016 60006 82532 90300=
07650,1996-07-07 06:00:00,21,1005.1,-1.1,56,12,20000,3.704,,,140,18,24.3,,,,,,,,,wg-a,,,,AAXX 07064 07650 12670 71402 10210 20120 30008 40051 56011 60006 82532 90600 333 10243 20180=
07650,1996-07-07 09:00:00,23,1004.3,-0.8,47,11,500,25.928,,,160,,,,,,,,,,,wg-a,,,,AAXX 07094 07650 12600 71614 10230 20110 30000 40043 55008 60006 8357/ 90900=
07650,1996-07-07 12:00:00,22,1002.7,-1.6,60,14,500,29.632,,,150,,,,,,,,,,,wg-a,,,,AAXX 07124 07650 12500 71516 10220 20140 39984 40027 58016 60006 8557/ 91200=
07650,1996-07-07 15:00:00,22,999.9,-2.7,73,17,10000,31.484,,,140,,,,,,,,,,,wg-a,,,,AAXX 07154 07650 12560 71417 10220 20170 39957 49999 56027 60006 875// 91500=
07650,1996-07-07 18:00:00,17,1001.3,1.3,82,14,20000,22.224,,46.3,40,16.9,23.8,,2,,,,,,1,wg-a,,,,AAXX 07184 07650 12470 70412 10170 20140 39970 40013 53013 60027 70186 875// 91800 333 10238 20169 91025=
07650,1996-07-07 21:00:00,18,1003.9,2.6,73,13,500,31.484,,,290,,,,,,,,,,,wg-a,,,,AAXX 07214 07650 12500 /2917 10180 20130 39996 40039 51026 60006 83832 92100=
07650,1996-07-08 00:00:00,17,1005,1.1,68,11,500,38.892,,,290,,,,,,,,,,,wg-a,,,,AAXX 08004 07650 12500 /2921 10170 20110 30007 40050 51011 60006 84830 90000=
07650,1996-07-08 03:00:00,15,1006.6,1.5,72,10,500,46.3,,,320,,,,,,,,,,,wg-a,,,,AAXX 08034 07650 12600 53225 10150 20100 30022 40066 53015 60006 83502 90300=
07650,1996-07-08 06:00:00,16,1009.4,2.8,63,9,500,50.004,,,320,15.2,18.3,,,,,2,,,,wg-a,,,,AAXX 08064 07650 02600 63227 10160 20090 30050 40094 53028 60006 84532 90600 333 10183 20152 60024=
07650,1996-07-08 09:00:00,19,1012,2.7,52,9,500,46.3,,68.524,330,,,,,,,,,,,wg-a,,,,AAXX 08094 07650 12500 /3325 10190 20090 30077 40120 52027 60006 84802 90900 333 91037=
07650,1996-07-08 12:00:00,20,1014.4,2.4,49,9,500,50.004,,75.932,340,,,,,,,,,,,wg-a,,,,AAXX 08124 07650 12500 63427 10200 20090 30101 40144 53024 60006 85802 91200 333 91041=
07650,1996-07-08 15:00:00,22,1015.2,0.8,38,7,500,64.82,,94.452,340,,,,,,,,,,,wg-a,,,,AAXX 08154 07650 12600 43435 10220 20070 30109 40152 51008 60006 83502 91500 333 91051=
07650,1996-07-08 18:00:00,20,1016.9,1.7,43,7,500,61.116,,68.524,340,16.1,21.7,,,,,,,,,wg-a,,,,AAXX 08184 07650 12600 /3433 10200 20070 30126 40169 53017 60006 81502 91800 333 10217 20161 91037=
07650,1996-07-08 21:00:00,18,1020.2,3.2,56,9,20000,42.596,,64.82,350,,,,,,,,,,,wg-a,,,,AAXX 08214 07650 12/70 03523 10180 20090 30158 40202 53032 60006 80000 92100 333 91035=
07650,1996-07-09 00:00:00,16,1020.9,0.7,63,9,20000,35.188,,,320,,,,,,,,,,,wg-a,,,,AAXX 09004 07650 12/70 03219 10160 20090 30165 40209 51007 60006 80000 90000=
07650,1996-07-09 03:00:00,16,1020.2,-0.7,63,9,20000,50.004,,61.116,340,,,,,,,,,,,wg-a,,,,AAXX 09034 07650 12/70 03427 10160 20090 30158 40202 58007 60006 80000 90300 333 91033=
07650,1996-07-09 06:00:00,17,1020.7,0.5,63,10,500,50.004,,57.412,330,15.6,20.2,,,,,,,,,wg-a,,,,AAXX 09064 07650 12/00 13327 10170 20100 30163 40207 53005 60006 81040 90600 333 10202 20156 91031=
07650,1996-07-09 09:00:00,20,1020.8,0.1,49,9,35000,57.412,,83.34,340,,,,,,,,,,,wg-a,,,,AAXX 09094 07650 12/81 13431 10200 20090 30164 40208 52001 60006 81040 90900 333 91045=
07650,1996-07-09 12:00:00,23,1020.8,0.1,38,8,35000,53.708,,72.228,350,,,,,,,,,,,wg-a,,,,AAXX 09124 07650 12/81 13529 10230 20080 30165 40208 50001 60006 80002 91200 333 91039=
07650,1996-07-09 15:00:00,24,1020.5,-0.3,36,8,35000,57.412,,,340,,,,,,,,,,,wg-a,,,,AAXX 09154 07650 12681 13431 10240 20080 30162 40205 56003 60006 81102 91500=
07650,1996-07-09 18:00:00,24,1020.4,-0.1,34,7,35000,46.3,,72.228,340,16.7,24.3,,,,,,,,,wg-a,,,,AAXX 09184 07650 12/81 13425 10240 20070 30161 40204 58001 60006 80001 91800 333 10243 20167 91039=
07650,1996-07-09 21:00:00,21,1021.6,1.1,40,7,60000,35.188,,53.708,330,,,,,,,,,,,wg-a,,,,AAXX 09214 07650 12/86 03319 10210 20070 30172 40216 51011 60006 80000 92100 333 91029=
07650,1996-07-10 00:00:00,19,1021.2,-0.4,49,8,50000,35.188,,,350,,,,,,,,,,,wg-a,,,,AAXX 10004 07650 12/84 03519 10190 20080 30168 40212 58004 60006 80000 90000=
07650,1996-07-10 03:00:00,17,1021.4,0.2,55,8,40000,22.224,,,360,,,,,,,,,,,wg-a,,,,AAXX 10034 07650 12/82 13612 10170 20080 30170 40214 53002 60006 80002 90300=
07650,1996-07-10 06:00:00,18,1022,0.6,59,10,40000,25.928,,,340,16.7,23.4,,,,,,,,,wg-a,,,,AAXX 10064 07650 12/82 13414 10180 20100 30176 40220 53006 60006 81032 90600 333 10234 20167=
07650,1996-07-10 09:00:00,22,1021.1,-0.8,46,10,40000,31.484,,,340,,,,,,,,,,,wg-a,,,,AAXX 10094 07650 12/82 13417 10220 20100 30168 40211 56008 60006 80002 90900=
07650,1996-07-10 12:00:00,26,1019.3,-1.8,39,11,40000,35.188,,53.708,330,,,,,,,,,,,wg-a,,,,AAXX 10124 07650 12/82 03319 10260 20110 30150 40193 57018 60006 80000 91200 333 91029=
07650,1996-07-10 15:00:00,27,1017.3,,39,12,40000,46.3,,,340,,,,,,,,,,,wg-a,,,,AAXX 10154 07650 12582 23425 10270 20120 30130 40173 60006 81102 91500=
07650,1996-07-10 18:00:00,24,1016.5,-0.8,47,12,40000,53.708,,64.82,340,18.3,26.5,,,,,,,,,wg-a,,,,AAXX 10184 07650 12/82 23429 10240 20120 30122 40165 56008 60006 81042 91800 333 10265 20183 91035=
07650,1996-07-10 21:00:00,21,1016.6,0.1,60,13,500,42.596,,61.116,340,,,,,,,,,,,wg-a,,,,AAXX 10214 07650 12/00 23423 10210 20130 30123 40166 50001 60006 81042 92100 333 91033=
07650,1996-07-11 00:00:00,20,1017.1,0.4,60,12,500,25.928,,,360,,,,,,,,,,,wg-a,,,,AAXX 11004 07650 12/00 13614 10200 20120 30127 40171 50004 60006 80002 90000=
07650,1996-07-11 03:00:00,17,1017.4,0.3,72,12,500,0,,,0,,,,,,,,,,,wg-a,,,,AAXX 11034 07650 12/00 10000 10170 20120 30130 40174 51003 60006 81030 90300=
07650,1996-07-11 06:00:00,18,1018.1,0.7,73,13,25000,3.704,,,30,16,24.4,,,,,,,,,wg-a,,,,AAXX 11064 07650 12/75 10302 10180 20130 30137 40181 51007 60006 81040 90600 333 10244 20160=
07650,1996-07-11 09:00:00,24,1017.7,-0.3,47,12,500,11.112,,,290,,,,,,,,,,,wg-a,,,,AAXX 11094 07650 12/00 02906 10240 20120 30134 40177 58003 60006 80000 90900=
07650,1996-07-11 12:00:00,27,1017.2,-0.4,42,13,500,22.224,,,280,,,,,,,,,,,wg-a,,,,AAXX 11124 07650 12600 /2812 10270 20130 30130 40172 58004 60006 81100 91200=
07650,1996-07-11 15:00:00,29,1016.8,-0.4,35,12,40000,22.224,,,300,,,,,,,,,,,wg-a,,,,AAXX 11154 07650 12682 /3012 10290 20120 30126 40168 58004 60006 81100 91500=
07650,1996-07-11 18:00:00,27,1016.9,-0,39,12,40000,18.52,,,320,18.4,28.7,,,,,,,,,wg-a,,,,AAXX 11184 07650 12/82 03210 10270 20120 30126 40169 55000 60006 80000 91800 333 10287 20184=
07650,1996-07-11 21:00:00,22,1018,1.1,53,12,20000,18.52,,,320,,,,,,,,,,,wg-a,,,,AAXX 11214 07650 12/70 03210 10220 20120 30137 40180 52011 60006 80000 92100=
07650,1996-07-12 00:00:00,20,1017.5,-0.6,60,12,20000,18.52,,,320,,,,,,,,,,,wg-a,,,,AAXX 12004 07650 12/70 03210 10200 20120 30131 40175 58006 60006 80000 90000=
07650,1996-07-12 03:00:00,16,1017,-0.5,77,12,20000,7.408,,,20,,,,,,,,,,,wg-a,,,,AAXX 12034 07650 12/70 00204 10160 20120 30126 40170 58005 60006 80000 90300=
07650,1996-07-12 06:00:00,17,1017,-0,72,12,20000,3.704,,,140,15.3,26.5,,,,,,,,,wg-a,,,,AAXX 12064 07650 12/70 01402 10170 20120 30126 40170 55000 60006 80000 90600 333 10265 20153=
07650,1996-07-12 09:00:00,23,1017.3,0.4,53,13,20000,11.112,,,270,,,,,,,,,,,wg-a,,,,AAXX 12094 07650 12/70 02706 10230 20130 30130 40173 51004 60006 80000 90900=
07650,1996-07-12 12:00:00,28,1016.6,-0.6,35,11,20000,14.816,,,280,,,,,,,,,,,wg-a,,,,AAXX 12124 07650 12670 12808 10280 20110 30124 40166 58006 60006 81100 91200=
07650,1996-07-12 15:00:00,28,1015.9,-0.7,37,12,20000,25.928,,,190,,,,,,,,,,,wg-a,,,,AAXX 12154 07650 12670 /1914 10280 20120 30117 40159 56007 60006 81100 91500=
07650,1996-07-12 18:00:00,26,1016.6,0.6,39,11,20000,14.816,,,180,17,29.8,,,,,,,,,wg-a,,,,AAXX 12184 07650 12670 /1808 10260 20110 30123 40166 53006 60006 81900 91800 333 10298 20170=
07650,1996-07-12 21:00:00,23,1018,1.4,44,10,20000,7.408,,,190,,,,,,,,,,,wg-a,,,,AAXX 12214 07650 12/70 11904 10230 20100 30137 40180 53014 60006 80002 92100=
07650,1996-07-13 00:00:00,19,1018.4,0.3,68,13,15000,3.704,,,170,,,,,,,,,,,wg-a,,,,AAXX 13004 07650 12/65 01702 10190 20130 30140 40184 51003 60006 80000 90000=
07650,1996-07-13 03:00:00,18,1018.4,0,68,12,18000,7.408,,,130,,,,,,,,,,,wg-a,,,,AAXX 13034 07650 12/68 01304 10180 20120 30140 40184 50000 60006 80000 90300=
07650,1996-07-13 06:00:00,19,1019.9,1.5,68,13,15000,0,,,0,16.9,25.8,,,,,,,,,wg-a,,,,AAXX 13064 07650 12/65 10000 10190 20130 30155 40199 53015 60006 80001 90600 333 10258 20169=
07650,1996-07-13 09:00:00,24,1020.9,1.1,54,14,15000,7.408,,,310,,,,,,,,,,,wg-a,,,,AAXX 13094 07650 12/65 33104 10240 20140 30166 40209 51011 60006 80002 90900=
07650,1996-07-13 12:00:00,27,1021,0.1,48,15,15000,22.224,,,280,,,,,,,,,,,wg-a,,,,AAXX 13124 07650 12665 32812 10270 20150 30167 40210 52001 60006 81101 91200=
07650,1996-07-13 15:00:00,27,1020.8,-0.2,48,15,20000,22.224,,,210,,,,,,,,,,,wg-a,,,,AAXX 13154 07650 12670 /2112 10270 20150 30165 40208 57002 60006 81100 91500=
07650,1996-07-13 18:00:00,24,1021.4,0.6,54,14,20000,14.816,,,200,19.2,27.1,,,,,,,,,wg-a,,,,AAXX 13184 07650 12/70 22008 10240 20140 30171 40214 53006 60006 80002 91800 333 10271 20192=
07650,1996-07-13 21:00:00,21,1023.2,1.7,69,15,20000,0,,,0,,,,,,,,,,,wg-a,,,,AAXX 13214 07650 12/70 20000 10210 20150 30188 40232 52017 60006 80002 92100=
07650,1996-07-14 00:00:00,20,1023.5,0.3,78,16,20000,3.704,,,10,,,,,,,,,,,wg-a,,,,AAXX 14004 07650 12/70 00102 10200 20160 30191 40235 52003 60006 80000 90000=
07650,1996-07-14 03:00:00,19,1023,-0.5,78,15,20000,3.704,,,180,,,,,,,,,,,wg-a,,,,AAXX 14034 07650 12/70 01802 10190 20150 30186 40230 56005 60006 80000 90300=
07650,1996-07-14 06:00:00,20,1023.5,0.5,78,16,10000,3.704,,,170,17.7,24.4,,,,,,,,,wg-a,,,,AAXX 14064 07650 12/60 21702 10200 20160 30191 40235 52005 60006 80001 90600 333 10244 20177=
07650,1996-07-14 09:00:00,26,1023.5,0.1,58,17,10000,7.408,,,280,,,,,,,,,,,wg-a,,,,AAXX 14094 07650 12/60 62804 10260 20170 30192 40235 50001 60006 80002 90900=
07650,1996-07-14 12:00:00,30,1023,-0.4,38,14,12000,14.816,,,270,,,,,,,,,,,wg-a,,,,AAXX 14124 07650 12562 /2708 10300 20140 30188 40230 58004 60006 81102 91200=
07650,1996-07-14 15:00:00,30,1022.1,-0.9,40,15,10000,14.816,,,240,,,,,,,,,,,wg-a,,,,AAXX 14154 07650 12560 82408 10300 20150 30179 40221 58009 60006 81107 91500=
07650,1996-07-14 18:00:00,28,1021.2,-0.9,51,17,12000,11.112,,,230,19.8,30.6,,,,,,,,,wg-a,,,,AAXX 14184 07650 12562 /2306 10280 20170 30170 40212 56009 60006 81133 91800 333 10306 20198=
07650,1996-07-14 21:00:00,23,1021.7,0.4,78,19,12000,3.704,,,200,,,,,,,,,,,wg-a,,,,AAXX 14214 07650 12/62 42002 10230 20190 30174 40217 51004 60006 81032 92100=
07650,1996-07-15 00:00:00,22,1020.8,-0.9,78,18,12000,7.408,,,140,,,,,,,,,,,wg-a,,,,AAXX 15004 07650 12/62 31404 10220 20180 30165 40208 56009 60006 81032 90000=
07650,1996-07-15 03:00:00,20,1020.1,-0.8,83,17,12000,3.704,,,120,,,,,,,,,,,wg-a,,,,AAXX 15034 07650 12/62 31202 10200 20170 30157 40201 57008 60006 80002 90300=
07650,1996-07-15 06:00:00,22,1019.9,-0.1,78,18,9000,3.704,,,330,19.6,28.2,,,,,,,,,wg-a,,,,AAXX 15064 07650 12/59 23302 10220 20180 30156 40199 56001 60006 82030 90600 333 10282 20196=
07650,1996-07-15 09:00:00,28,1020.2,0.4,55,18,8000,11.112,,,250,,,,,,,,,,,wg-a,,,,AAXX 15094 07650 12/58 52506 10280 20180 30160 40202 50004 60006 80002 90900=
07650,1996-07-15 12:00:00,30,1020,-0.2,40,15,12000,14.816,,,190,,,,,,,,,,,wg-a,,,,AAXX 15124 07650 12562 61908 10300 20150 30158 40200 58002 60006 81232 91200=
07650,1996-07-15 15:00:00,30,1019.2,-0.8,38,14,15000,22.224,,,160,,,,,,,,,,,wg-a,,,,AAXX 15154 07650 12565 71612 10300 20140 30150 40192 56008 60006 81232 91500=
07650,1996-07-15 18:00:00,28,1018.3,-0.9,48,16,20000,7.408,,,220,21.7,31.1,,,,,,,,,wg-a,,,,AAXX 15184 07650 12570 /2204 10280 20160 30141 40183 58009 60006 81832 91800 333 10311 20217=
07650,1996-07-15 21:00:00,24,1019.4,1,61,16,20000,0,,,0,,,,,,,,,,,wg-a,,,,AAXX 15214 07650 12670 40000 10240 20160 30151 40194 51010 60006 81532 92100=
07650,1996-07-16 00:00:00,22,1019.3,-0.1,73,17,20000,7.408,,,140,,,,,,,,,,,wg-a,,,,AAXX 16004 07650 12/70 11404 10220 20170 30150 40193 58001 60006 80002 90000=
07650,1996-07-16 03:00:00,20,1018,-1.3,78,16,20000,7.408,,,140,,,,,,,,,,,wg-a,,,,AAXX 16034 07650 12/70 01404 10200 20160 30137 40180 56013 60006 80000 90300=
07650,1996-07-16 06:00:00,23,1018.2,0.2,73,18,9000,3.704,,,150,19.8,28.1,,,,,,,,,wg-a,,,,AAXX 16064 07650 12/59 /1502 10230 20180 30139 40182 53002 60006 80002 90600 333 10281 20198=
07650,1996-07-16 09:00:00,27,1018.3,0.2,58,18,8000,11.112,,,280,,,,,,,,,,,wg-a,,,,AAXX 16094 07650 12/58 02806 10270 20180 30141 40183 52002 60006 80000 90900=
07650,1996-07-16 12:00:00,32,1017.6,-0.7,43,18,10000,11.112,,,270,,,,,,,,,,,wg-a,,,,AAXX 16124 07650 12/60 02706 10320 20180 30134 40176 58007 60006 80000 91200=
07650,1996-07-16 15:00:00,31,1016.5,-1.1,46,18,12000,18.52,,,200,,,,,,,,,,,wg-a,,,,AAXX 16154 07650 12662 /2010 10310 20180 30123 40165 58011 60006 81200 91500=
07650,1996-07-16 18:00:00,28,1016,-0.5,58,19,20000,11.112,,,180,22.6,31.9,,,,,,,,,wg-a,,,,AAXX 16184 07650 12670 31806 10280 20190 30118 40160 55005 60006 81904 91800 333 10319 20226=
07650,1996-07-16 21:00:00,24,1017.3,1.2,78,20,12000,7.408,,,170,,,,,,,,,,,wg-a,,,,AAXX 16214 07650 12/62 11704 10240 20200 30130 40173 51012 60006 80001 92100=
07650,1996-07-17 00:00:00,23,1016.9,-0.4,78,19,12000,11.112,,,140,,,,,,,,,,,wg-a,,,,AAXX 17004 07650 12/62 01406 10230 20190 30126 40169 58004 60006 80000 90000=
07650,1996-07-17 03:00:00,22,1016.3,-0.6,78,18,15000,7.408,,,140,,,,,,,,,,,wg-a,,,,AAXX 17034 07650 12/65 01404 10220 20180 30120 40163 56006 60006 80000 90300=
07650,1996-07-17 06:00:00,23,1016.4,0.1,78,19,10000,0,,,0,20.8,28.2,,,,,,,,,wg-a,,,,AAXX 17064 07650 12/60 00000 10230 20190 30121 40164 53001 60006 80000 90600 333 10282 20208=
07650,1996-07-17 09:00:00,27,1016.5,0.2,66,20,10000,11.112,,,290,,,,,,,,,,,wg-a,,,,AAXX 17094 07650 12/60 02906 10270 20200 30123 40165 51002 60006 80000 90900=
07650,1996-07-17 12:00:00,29,1016,-0.5,58,20,15000,18.52,,,190,,,,,,,,,,,wg-a,,,,AAXX 17124 07650 12/65 21910 10290 20200 30118 40160 58005 60006 80002 91200=
07650,1996-07-17 15:00:00,30,1014.9,-1.1,52,19,15000,22.224,,,190,,,,,,,,,,,wg-a,,,,AAXX 17154 07650 12665 /1912 10300 20190 30107 40149 58011 60006 81202 91500=
07650,1996-07-17 18:00:00,27,1015.4,0.5,62,19,15000,14.816,,,200,23,29.9,,,,,,,,,wg-a,,,,AAXX 17184 07650 12665 32008 10270 20190 30112 40154 53005 60006 81902 91800 333 10299 20230=
07650,1996-07-17 21:00:00,24,1016.2,0.7,74,19,11000,7.408,,,210,,,,,,,,,,,wg-a,,,,AAXX 17214 07650 12/61 32104 10240 20190 30119 40162 53007 60006 81032 92100=
07650,1996-07-18 00:00:00,23,1016.9,0.7,78,19,11000,3.704,,,160,,,,,,,,,,,wg-a,,,,AAXX 18004 07650 12/61 11602 10230 20190 30126 40169 51007 60006 80001 90000=
07650,1996-07-18 03:00:00,22,1016.5,-0.4,78,18,14000,7.408,,,80,,,,,,,,,,,wg-a,,,,AAXX 18034 07650 12/64 20804 10220 20180 30122 40165 58004 60006 80001 90300=
07650,1996-07-18 06:00:00,22,1016.7,0.2,78,18,8000,3.704,,,150,20.9,26.8,,,,,,,,,wg-a,,,,AAXX 18064 07650 12558 31502 10220 20180 30124 40167 53002 60006 83500 90600 333 10268 20209=
07650,1996-07-18 09:00:00,26,1017.1,0.5,70,20,8000,11.112,,,290,,,,,,,,,,,wg-a,,,,AAXX 18094 07650 12/58 /2906 10260 20200 30129 40171 51005 60006 80002 90900=
07650,1996-07-18 12:00:00,30,1016.5,-0.6,55,20,9000,14.816,,,250,,,,,,,,,,,wg-a,,,,AAXX 18124 07650 12559 /2508 10300 20200 30123 40165 58006 60006 81100 91200=
07650,1996-07-18 15:00:00,31,1015.1,-1.4,49,19,10000,22.224,,,250,,,,,,,,,,,wg-a,,,,AAXX 18154 07650 12660 /2512 10310 20190 30109 40151 58014 60006 81100 91500=
07650,1996-07-18 18:00:00,29,1014.6,-0.5,58,20,10000,22.224,,,240,22.4,31.4,,,,,,,,,wg-a,,,,AAXX 18184 07650 12/60 02412 10290 20200 30104 40146 56005 60006 80000 91800 333 10314 20224=
07650,1996-07-18 21:00:00,26,1016,1.4,65,19,12000,18.52,,,270,,,,,,,,,,,wg-a,,,,AAXX 18214 07650 12/62 12710 10260 20190 30118 40160 52014 60006 80001 92100=
07650,1996-07-19 00:00:00,23,1016.2,0.1,53,13,15000,18.52,,,320,,,,,,,,,,,wg-a,,,,AAXX 19004 07650 12/65 03210 10230 20130 30119 40162 51001 60006 80000 90000=
07650,1996-07-19 03:00:00,20,1015.8,-0.4,60,12,20000,18.52,,,330,,,,,,,,,,,wg-a,,,,AAXX 19034 07650 12/70 03310 10200 20120 30115 40158 57004 60006 80000 90300=
07650,1996-07-19 06:00:00,22,1016,0.2,46,10,40000,29.632,,,340,19.1,28.5,,,,,,,,,wg-a,,,,AAXX 19064 07650 12/82 03416 10220 20100 30117 40160 51002 60006 80000 90600 333 10285 20191=
07650,1996-07-19 09:00:00,26,1016.3,0.3,39,11,500,22.224,,,340,,,,,,,,,,,wg-a,,,,AAXX 19094 07650 12/00 03412 10260 20110 30120 40163 50003 60006 80000 90900=
07650,1996-07-19 12:00:00,30,1015.3,-0.9,31,11,500,25.928,,,340,,,,,,,,,,,wg-a,,,,AAXX 19124 07650 12600 33414 10300 20110 30111 40153 58009 60006 81102 91200=
07650,1996-07-19 15:00:00,31,1014.8,-0.5,27,10,500,38.892,,,340,,,,,,,,,,,wg-a,,,,AAXX 19154 07650 12600 33421 10310 20100 30106 40148 56005 60006 81202 91500=
07650,1996-07-19 18:00:00,29,1014.4,-0.4,23,6,500,38.892,,57.412,360,21.5,31.6,,,,,,,,,wg-a,,,,AAXX 19184 07650 12600 23621 10290 20060 30102 40144 55004 60006 81102 91800 333 10316 20215 91031=
07650,1996-07-19 21:00:00,25,1016.1,1.6,41,11,500,31.484,,,360,,,,,,,,,,,wg-a,,,,AAXX 19214 07650 12/00 23617 10250 20110 30118 40161 51016 60006 81031 92100=
07650,1996-07-20 00:00:00,22,1016.3,0.2,50,11,500,3.704,,,80,,,,,,,,,,,wg-a,,,,AAXX 20004 07650 12/00 00802 10220 20110 30120 40163 50002 60006 80000 90000=
07650,1996-07-20 03:00:00,19,1016.3,-0.1,60,11,500,7.408,,,140,,,,,,,,,,,wg-a,,,,AAXX 20034 07650 12/00 01404 10190 20110 30119 40163 56001 60006 80000 90300=
07650,1996-07-20 06:00:00,20,1016.7,0.5,64,13,20000,0,,,0,17.9,29.4,,,,,,,,,wg-a,,,,AAXX 20064 07650 12/70 20000 10200 20130 30124 40167 53005 60006 81042 90600 333 10294 20179=
07650,1996-07-20 09:00:00,25,1017.3,0.6,47,13,20000,14.816,,,280,,,,,,,,,,,wg-a,,,,AAXX 20094 07650 12/70 22808 10250 20130 30130 40173 51006 60006 80002 90900=
07650,1996-07-20 12:00:00,29,1016.7,-0.5,40,14,20000,11.112,,,290,,,,,,,,,,,wg-a,,,,AAXX 20124 07650 12670 /2906 10290 20140 30125 40167 58005 60006 81102 91200=
07650,1996-07-20 15:00:00,30,1016.4,-0.3,35,13,20000,14.816,,,180,,,,,,,,,,,wg-a,,,,AAXX 20154 07650 12670 31808 10300 20130 30122 40164 58003 60006 81302 91500=
07650,1996-07-20 18:00:00,27,1017,0.6,58,18,20000,18.52,,,170,20,29.9,,,,,,,,,wg-a,,,,AAXX 20184 07650 12/70 21710 10270 20180 30128 40170 53006 60006 8//02 91800 333 10299 20200=
07650,1996-07-20 21:00:00,23,1019,1.9,78,19,20000,14.816,,,180,,,,,,,,,,,wg-a,,,,AAXX 20214 07650 12/70 01808 10230 20190 30147 40190 53019 60006 80000 92100=
07650,1996-07-21 00:00:00,22,1019,0,83,19,20000,11.112,,,170,,,,,,,,,,,wg-a,,,,AAXX 21004 07650 12/70 01706 10220 20190 30147 40190 50000 60006 80000 90000=
07650,1996-07-21 03:00:00,20,1018.9,-0.1,88,18,15000,11.112,,,130,,,,,,,,,,,wg-a,,,,AAXX 21034 07650 12/65 01306 10200 20180 30146 40189 55001 60006 80000 90300=
07650,1996-07-21 06:00:00,21,1019.9,1,73,16,12000,7.408,,,70,19.6,26.5,,,,,,,,,wg-a,,,,AAXX 21064 07650 12/62 00704 10210 20160 30156 40199 52010 60006 80000 90600 333 10265 20196=
07650,1996-07-21 09:00:00,27,1019.9,0,48,15,15000,11.112,,,190,,,,,,,,,,,wg-a,,,,AAXX 21094 07650 12565 11906 10270 20150 30156 40199 50000 60006 81100 90900=
07650,1996-07-21 12:00:00,28,1019.6,-0.2,45,15,500,22.224,,,200,,,,,,,,,,,wg-a,,,,AAXX 21124 07650 12500 /2012 10280 20150 30154 40196 58002 60006 81200 91200=
07650,1996-07-21 15:00:00,28,1019.2,-0.4,45,15,500,14.816,,,200,,,,,,,,,,,wg-a,,,,AAXX 21154 07650 12500 /2008 10280 20150 30150 40192 57004 60006 81100 91500=
07650,1996-07-21 18:00:00,25,1019,-0.3,61,17,20000,14.816,,,180,21.4,28.6,,,,,,,,,wg-a,,,,AAXX 21184 07650 12/70 /1808 10250 20170 30147 40190 56003 60006 91800 333 10286 20214=
07650,1996-07-21 21:00:00,22,1020.3,1.3,78,18,15000,3.704,,,170,,,,,,,,,,,wg-a,,,,AAXX 21214 07650 12/65 01702 10220 20180 30160 40203 53013 60006 80000 92100=
07650,1996-07-22 00:00:00,20,1020.9,0.5,78,16,15000,11.112,,,130,,,,,,,,,,,wg-a,,,,AAXX 22004 07650 12/65 01306 10200 20160 30165 40209 51005 60006 80000 90000=
07650,1996-07-22 03:00:00,19,1020.7,-0.2,73,14,20000,7.408,,,120,,,,,,,,,,,wg-a,,,,AAXX 22034 07650 12/70 /1204 10190 20140 30163 40207 55002 60006 90300=
07650,1996-07-22 06:00:00,22,1020.9,0.3,57,13,15000,3.704,,,110,18.3,25.1,,,,,,,,,wg-a,,,,AAXX 22064 07650 12/65 01102 10220 20130 30166 40209 53003 60006 80000 90600 333 10251 20183=
07650,1996-07-22 09:00:00,28,1021.2,0.4,37,12,18000,22.224,,,170,,,,,,,,,,,wg-a,,,,AAXX 22094 07650 12/68 01712 10280 20120 30170 40212 51004 60006 80000 90900=
07650,1996-07-22 12:00:00,29,1020.7,-0.5,37,13,20000,25.928,,,180,,,,,,,,,,,wg-a,,,,AAXX 22124 07650 12670 /1814 10290 20130 30165 40207 58005 60006 81100 91200=
07650,1996-07-22 15:00:00,28,1020.2,-0.5,42,14,25000,29.632,,,160,,,,,,,,,,,wg-a,,,,AAXX 22154 07650 12675 /1616 10280 20140 30160 40202 58005 60006 81100 91500=
07650,1996-07-22 18:00:00,26,1020.4,0.1,48,14,15000,18.52,,,170,21.8,29.3,,,,,,,,,wg-a,,,,AAXX 22184 07650 12/65 01710 10260 20140 30161 40204 53001 60006 80000 91800 333 10293 20218=
07650,1996-07-22 21:00:00,23,1021.3,0.9,61,15,12000,7.408,,,140,,,,,,,,,,,wg-a,,,,AAXX 22214 07650 12/62 01404 10230 20150 30170 40213 52009 60006 80000 92100=
07650,1996-07-23 00:00:00,21,1021.5,0.1,56,12,12000,7.408,,,120,,,,,,,,,,,wg-a,,,,AAXX 23004 07650 12/62 01204 10210 20120 30171 40215 50001 60006 80000 90000=
07650,1996-07-23 03:00:00,19,1020.9,-0.6,64,12,12000,7.408,,,120,,,,,,,,,,,wg-a,,,,AAXX 23034 07650 12/62 01204 10190 20120 30165 40209 58006 60006 80000 90300=
07650,1996-07-23 06:00:00,22,1021.3,0.5,50,11,15000,11.112,,,120,18.7,25.6,,,,,,,,,wg-a,,,,AAXX 23064 07650 12/65 01206 10220 20110 30170 40213 50005 60006 80000 90600 333 10256 20187=
07650,1996-07-23 09:00:00,27,1021.1,-0.2,45,14,25000,22.224,,,140,,,,,,,,,,,wg-a,,,,AAXX 23094 07650 12575 /1412 10270 20140 30168 40211 58002 60006 81100 90900=
07650,1996-07-23 12:00:00,28,1020.6,-0.4,45,15,25000,25.928,,,180,,,,,,,,,,,wg-a,,,,AAXX 23124 07650 12575 /1814 10280 20150 30164 40206 58004 60006 81100 91200=
07650,1996-07-23 15:00:00,28,1020.6,-0,40,13,25000,22.224,,,190,,,,,,,,,,,wg-a,,,,AAXX 23154 07650 12/75 31912 10280 20130 30164 40206 55000 60006 82031 91500=
07650,1996-07-23 18:00:00,26,1020.7,-0,48,14,20000,14.816,,,230,22,29.6,,,,,,,,17,wg-a,,,,AAXX 23184 07650 12570 62308 10260 20140 30164 40207 55000 60006 71711 83981 91800 333 10296 20220=
07650,1996-07-23 21:00:00,24,1021.3,0.6,65,17,20000,11.112,,,160,,,,,,,,,,1,wg-a,,,,AAXX 23214 07650 12570 /1606 10240 20170 30170 40213 53006 60006 70192 81881 92100=
07650,1996-07-24 00:00:00,23,1020.6,-0.7,69,17,10000,7.408,,,340,,,,,,,,,,,wg-a,,,,AAXX 24004 07650 12/60 /3404 10230 20170 30163 40206 55007 60006 90000=
07650,1996-07-24 03:00:00,22,1017.6,-3,69,16,20000,11.112,,,140,,,,,,,,,,,wg-a,,,,AAXX 24034 07650 12470 51406 10220 20160 30133 40176 56030 60006 82532 90300=
07650,1996-07-24 06:00:00,23,1017.5,-0.1,69,17,15000,11.112,,,130,21.9,26,,,,,,,,,wg-a,,,,AAXX 24064 07650 12565 41306 10230 20170 30132 40175 58001 60006 82131 90600 333 10260 20219=
07650,1996-07-24 09:00:00,27,1017,-0.4,66,20,14000,18.52,,,160,,,,,,,,,,,wg-a,,,,AAXX 24094 07650 12564 41610 10270 20200 30128 40170 55004 60006 84500 90900=
07650,1996-07-24 15:00:00,28,1014.8,-0.9,66,21,15000,29.632,,,190,,,,,,,,,,,wg-a,,,,AAXX 24154 07650 12565 /1916 10280 20210 30106 40148 58009 60006 81100 91500=
07650,1996-07-24 18:00:00,26,1014.8,-0,74,21,10000,14.816,,,180,23.4,29.5,,,,,,,,,wg-a,,,,AAXX 24184 07650 12560 21808 10260 20210 30106 40148 55000 60006 81530 91800 333 10295 20234=
07650,1996-07-24 21:00:00,24,1016.5,1.6,83,21,12000,7.408,,,160,,,,,,,,,,17,wg-a,,,,AAXX 24214 07650 12562 71604 10240 20210 30122 40165 53016 60006 71791 83982 92100=
07650,1996-07-25 00:00:00,23,1014.6,-1.9,89,21,12000,7.408,,,110,,,,,,,,,,1,wg-a,,,,AAXX 25004 07650 12/62 31104 10230 20210 30103 40146 56019 60006 70191 80002 90000=
07650,1996-07-25 03:00:00,23,1015.5,0.9,89,21,10000,22.224,,,300,,,,,,,,,,,wg-a,,,,AAXX 25034 07650 12760 33012 10230 20210 30112 40155 53009 60006 815/2 90300=
07650,1996-07-25 06:00:00,23,1014.4,-1.1,83,20,7000,7.408,,,340,22.3,25.7,,,,,,,,,wg-a,,,,AAXX 25064 07650 12/57 63404 10230 20200 30101 40144 57011 60006 83082 90600 333 10257 20223=
07650,1996-07-25 09:00:00,28,1015.1,0.8,55,18,15000,22.224,,,320,,,,,,,,,,,wg-a,,,,AAXX 25094 07650 12/65 53212 10280 20180 30109 40151 53008 60006 80002 90900=
07650,1996-07-25 12:00:00,31,1015.3,0.2,38,15,20000,18.52,,,260,,,,,,,,,,,wg-a,,,,AAXX 25124 07650 12/70 32610 10310 20150 30111 40153 52002 60006 80002 91200=
07650,1996-07-25 15:00:00,33,1013.1,-2.1,30,13,25000,25.928,,,340,,,,,,,,,,,wg-a,,,,AAXX 25154 07650 12/75 53414 10330 20130 30090 40131 58021 60006 80002 91500=
07650,1996-07-25 18:00:00,30,1011.9,-1.3,43,16,20000,18.52,,,330,22.8,33.2,,,,,,,,,wg-a,,,,AAXX 25184 07650 12/70 63310 10300 20160 30077 40119 56013 60006 81032 91800 333 10332 20228=
07650,1996-07-25 21:00:00,26,1013.1,1.2,51,15,20000,18.52,,,340,,,,,,,,,,,wg-a,,,,AAXX 25214 07650 12/70 53410 10260 20150 30089 40131 53012 60006 81032 92100=
07650,1996-07-26 00:00:00,23,1014.1,0.9,53,13,20000,11.112,,,20,,,,,,,,,,,wg-a,,,,AAXX 26004 07650 12/70 20206 10230 20130 30098 40141 50009 60006 80003 90000=
07650,1996-07-26 03:00:00,21,1013.1,-1,69,15,20000,14.816,,,330,,,,,,,,,,,wg-a,,,,AAXX 26034 07650 12/70 13308 10210 20150 30088 40131 55010 60006 80001 90300=
07650,1996-07-26 06:00:00,22,1013,-0.1,60,14,20000,0,,,0,20.8,30,,,,,,,,,wg-a,,,,AAXX 26064 07650 12/70 50000 10220 20140 30087 40130 57001 60006 82082 90600 333 10300 20208=
07650,1996-07-26 09:00:00,27,1013.5,0.6,54,17,500,14.816,,,300,,,,,,,,,,,wg-a,,,,AAXX 26094 07650 12/00 33008 10270 20170 30093 40135 51006 60006 83082 90900=
07650,1996-07-26 12:00:00,32,1013.2,-0.3,38,16,10000,11.112,,,270,,,,,,,,,,,wg-a,,,,AAXX 26124 07650 12/60 /2706 10320 20160 30090 40132 58003 60006 91200=
07650,1996-07-26 15:00:00,30,1013,-0.2,49,18,20000,11.112,,,270,,,,,,,,,,,wg-a,,,,AAXX 26154 07650 12/70 /2706 10300 20180 30088 40130 58002 60006 91500=
07650,1996-07-26 18:00:00,29,1012.4,-0.6,58,20,20000,22.224,,,220,21.6,32.6,,,,,,,,,wg-a,,,,AAXX 26184 07650 12/70 /2212 10290 20200 30082 40124 55006 60006 91800 333 10326 20216=
07650,1996-07-26 21:00:00,26,1014.5,2.1,65,19,15000,14.816,,,40,,,,,,,,,,,wg-a,,,,AAXX 26214 07650 12/65 30408 10260 20190 30103 40145 51021 60006 83030 92100=
07650,1996-07-27 00:00:00,25,1012.6,-1.9,69,19,15000,0,,,0,,,,,,,,,,,wg-a,,,,AAXX 27004 07650 12665 60000 10250 20190 30084 40126 58019 60006 81532 90000=
07650,1996-07-27 03:00:00,25,1013.6,0.9,65,18,15000,7.408,,,180,,,,,,,,,,,wg-a,,,,AAXX 27034 07650 12/65 71804 10250 20180 30093 40136 53009 60006 87080 90300=
07650,1996-07-27 06:00:00,25,1013.3,-0.3,61,17,10000,7.408,,,90,24.4,28.6,,,,,,,,,wg-a,,,,AAXX 27064 07650 12560 70904 10250 20170 30090 40133 58003 60006 8158/ 90600 333 10286 20244=
07650,1996-07-27 09:00:00,28,1014.3,1.1,62,20,10000,18.52,,,320,,,,,,,,,,,wg-a,,,,AAXX 27094 07650 12560 73210 10280 20200 30101 40143 53011 60006 81181 90900=
07650,1996-07-27 12:00:00,26,1015.1,0.8,74,21,9000,18.52,,,30,,,,1,,,,,,60,wg-a,,,,AAXX 27124 07650 02559 80310 10260 20210 30109 40151 50008 60016 76082 8597/ 91200 333 60017=
07650,1996-07-27 15:00:00,25,1016.2,1.1,79,21,7000,22.224,,,80,,,,1,,,,,,3,wg-a,,,,AAXX 27154 07650 12557 80812 10250 20210 30120 40162 50011 60017 70386 8597/ 91500=
07650,1996-07-27 18:00:00,25,1015.6,-0.7,65,18,20000,3.704,,,360,24,27.7,,1,,,,,,3,wg-a,,,,AAXX 27184 07650 12570 73602 10250 20180 30113 40156 55007 60017 70386 8588/ 91800 333 10277 20240=
07650,1996-07-27 21:00:00,23,1016.5,0.9,73,18,11000,14.816,,,330,,,,,,,,,,,wg-a,,,,AAXX 27214 07650 12/61 /3308 10230 20180 30122 40165 53009 60006 92100=
07650,1996-07-28 00:00:00,22,1015.8,-0.7,73,17,11000,3.704,,,190,,,,,,,,,,,wg-a,,,,AAXX 28004 07650 12/61 /1902 10220 20170 30115 40158 56007 60006 90000=
07650,1996-07-28 03:00:00,20,1014.9,-0.9,83,17,25000,3.704,,,150,,,,,,,,,,,wg-a,,,,AAXX 28034 07650 12/75 /1502 10200 20170 30106 40149 58009 60006 81031 90300=
07650,1996-07-28 06:00:00,21,1015.5,0.6,83,18,25000,3.704,,,150,19.2,24.7,,,,,2,,,,wg-a,,,,AAXX 28064 07650 02/75 41502 10210 20180 30112 40155 53006 60006 82031 90600 333 10247 20192 60024=
07650,1996-07-28 09:00:00,25,1015.8,0.3,65,18,25000,7.408,,,300,,,,,,,,,,,wg-a,,,,AAXX 28094 07650 12675 13004 10250 20180 30115 40158 51003 60006 81100 90900=
07650,1996-07-28 12:00:00,30,1015.4,-0.3,49,18,20000,18.52,,,290,,,,,,,,,,,wg-a,,,,AAXX 28124 07650 12670 22910 10300 20180 30112 40154 58003 60006 81230 91200=
07650,1996-07-28 15:00:00,28,1015.6,0.2,55,18,20000,25.928,,,140,,,,,,,,,,,wg-a,,,,AAXX 28154 07650 12570 71414 10280 20180 30114 40156 50002 60006 8488/ 91500=
07650,1996-07-28 18:00:00,27,1015.3,-0.3,58,18,15000,7.408,,,100,20.7,30.5,,,,,,,,,wg-a,,,,AAXX 28184 07650 12/65 21004 10270 20180 30111 40153 57003 60006 82030 91800 333 10305 20207=
07650,1996-07-28 21:00:00,24,1016.4,1,69,18,12000,3.704,,,130,,,,,,,,,,,wg-a,,,,AAXX 28214 07650 12/62 01302 10240 20180 30121 40164 53010 60006 80000 92100=
07650,1996-07-29 00:00:00,21,1016.1,-0.3,83,18,12000,0,,,0,,,,,,,,,,,wg-a,,,,AAXX 29004 07650 12/62 00000 10210 20180 30118 40161 58003 60006 80000 90000=
07650,1996-07-29 03:00:00,19,1015.4,-0.7,88,17,15000,7.408,,,140,,,,,,,,,,,wg-a,,,,AAXX 29034 07650 12/65 01404 10190 20170 30111 40154 56007 60006 80000 90300=
07650,1996-07-29 06:00:00,21,1016.3,0.9,83,18,7000,3.704,,,140,18.6,27.3,,,,,,,,,wg-a,,,,AAXX 29064 07650 12/57 01402 10210 20180 30120 40163 52009 60006 80000 90600 333 10273 20186=
07650,1996-07-29 09:00:00,26,1016.2,-0,65,19,12000,7.408,,,250,,,,,,,,,,,wg-a,,,,AAXX 29094 07650 12/62 02504 10260 20190 30120 40162 54000 60006 80000 90900=
07650,1996-07-29 12:00:00,31,1015.1,-1.1,36,14,15000,18.52,,,270,,,,,,,,,,,wg-a,,,,AAXX 29124 07650 12/65 02710 10310 20140 30109 40151 58011 60006 80000 91200=
07650,1996-07-29 15:00:00,31,1013.6,-1.5,40,16,15000,29.632,,,250,,,,,,,,,,,wg-a,,,,AAXX 29154 07650 12/65 02516 10310 20160 30094 40136 56015 60006 80000 91500=
07650,1996-07-29 18:00:00,28,1013.2,-0.4,48,16,15000,14.816,,,240,20.7,32.6,,,,,,,,,wg-a,,,,AAXX 29184 07650 12665 22408 10280 20160 30090 40132 58004 60006 81202 91800 333 10326 20207=
07650,1996-07-29 21:00:00,25,1014.9,1.6,61,17,15000,11.112,,,240,,,,,,,,,,,wg-a,,,,AAXX 29214 07650 12665 52406 10250 20170 30106 40149 51016 60006 81232 92100=
07650,1996-07-30 00:00:00,24,1013.8,-1.1,78,20,15000,7.408,,,300,,,,,,,,,,,wg-a,,,,AAXX 30004 07650 12665 /3004 10240 20200 30095 40138 58011 60006 81232 90000=
07650,1996-07-30 03:00:00,23,1012.6,-1.2,69,17,20000,18.52,,,340,,,,,,,,,,,wg-a,,,,AAXX 30034 07650 12670 43410 10230 20170 30083 40126 56012 60006 81532 90300=
07650,1996-07-30 06:00:00,22,1013.2,0.6,69,16,20000,14.816,,,360,21.8,28,,,,,,,,,wg-a,,,,AAXX 30064 07650 12/70 23608 10220 20160 30089 40132 52006 60006 81032 90600 333 10280 20218=
07650,1996-07-30 09:00:00,27,1013.5,0.4,48,15,500,38.892,,,340,,,,,,,,,,,wg-a,,,,AAXX 30094 07650 12/00 13421 10270 20150 30093 40135 53004 60006 80002 90900=
07650,1996-07-30 12:00:00,30,1013.1,-0.4,35,13,500,42.596,,57.412,330,,,,,,,,,,,wg-a,,,,AAXX 30124 07650 12500 /3323 10300 20130 30089 40131 58004 60006 81100 91200 333 91031=
07650,1996-07-30 15:00:00,30,1012.3,-0.8,33,12,500,50.004,,61.116,320,,,,,,,,,,,wg-a,,,,AAXX 30154 07650 12500 /3227 10300 20120 30081 40123 58008 60006 81100 91500 333 91033=
07650,1996-07-30 18:00:00,28,1012.4,0.1,35,11,35000,38.892,,,340,,,,,,,,,,,wg-a,,,,AAXX 30184 07650 32581 /3421 10280 20110 30082 40124 53001 81502 91800=
07650,1996-07-30 21:00:00,25,1013.1,0.6,47,13,35000,22.224,,,330,,,,,,,,,,,wg-a,,,,AAXX 30214 07650 12/81 03312 10250 20130 30088 40131 53006 60006 80000 92100=
07650,1996-07-31 00:00:00,23,1013.3,0.2,53,13,35000,31.484,,,10,,,,,,,,,,,wg-a,,,,AAXX 31004 07650 12/81 00117 10230 20130 30090 40133 51002 60006 80000 90000=
07650,1996-07-31 03:00:00,21,1013.4,0.1,60,13,35000,11.112,,,30,,,,,,,,,,,wg-a,,,,AAXX 31034 07650 12/81 00306 10210 20130 30091 40134 50001 60006 80000 90300=
07650,1996-07-31 06:00:00,21,1014.6,1.2,60,13,500,7.408,,,30,19,28.4,,,,,,,,,wg-a,,,,AAXX 31064 07650 12/00 00304 10210 20130 30103 40146 53012 60006 80000 90600 333 10284 20190=
07650,1996-07-31 09:00:00,28,1015,0.5,40,13,500,14.816,,,310,,,,,,,,,,,wg-a,,,,AAXX 31094 07650 12/00 03108 10280 20130 30108 40150 51005 60006 80000 90900=
07650,1996-07-31 12:00:00,32,1015.1,0.1,28,11,35000,14.816,,,290,,,,,,,,,,,wg-a,,,,AAXX 31124 07650 12681 /2908 10320 20110 30109 40151 50001 60006 81100 91200=
07650,1996-07-31 15:00:00,31,1015,-0.1,29,11,35000,22.224,,,180,,,,,,,,,,,wg-a,,,,AAXX 31154 07650 12681 /1812 10310 20110 30108 40150 56001 60006 81100 91500=
07650,1996-07-31 18:00:00,30,1014.6,-0.4,33,12,35000,11.112,,,190,20.9,32.4,,,,,,,,,wg-a,,,,AAXX 31184 07650 12/81 01906 10300 20120 30104 40146 57004 60006 80000 91800 333 10324 20209=
07650,1996-07-31 21:00:00,25,1016,1.3,61,17,500,7.408,,,280,,,,,,,,,,,wg-a,,,,AAXX 31214 07650 12/00 02804 10250 20170 30117 40160 53013 60006 80000 92100=
07650,1996-08-01 00:00:00,23,1015.7,-0.3,69,17,25000,0,,,0,,,,,,,,,,,wg-a,,,,AAXX 01004 07650 12/75 00000 10230 20170 30114 40157 58003 60006 80000 90000=
07650,1996-08-01 03:00:00,20,1015.7,-0,68,14,20000,3.704,,,140,,,,,,,,,,,wg-a,,,,AAXX 01034 07650 12/70 01402 10200 20140 30114 40157 54000 60006 80000 90300=
07650,1996-08-01 04:00:00,22,1016.6,0.9,60,14,20000,0,,,0,19.6,29.9,,,,,,,,,wg-a,,,,AAXX 01044 07650 12/70 20000 10220 20140 30123 40166 53009 60006 80002 90400 333 10299 20196=
07650,1996-08-01 06:00:00,22,1016.6,0.9,60,14,20000,0,,,0,19.6,29.9,,,,,,,,,wg-a,,,,AAXX 01064 07650 12/70 20000 10220 20140 30123 40166 53009 60006 80002 90600 333 10299 20196=
07650,1996-08-01 09:00:00,29,1017,0.5,43,15,10000,11.112,,,300,,,,,,,,,,,wg-a,,,,AAXX 01094 07650 12/60 /3006 10290 20150 30128 40170 51005 60006 90900=
07650,1996-08-01 12:00:00,31,1017.1,0.1,33,13,500,29.632,,,170,,,,,,,,,,,wg-a,,,,AAXX 01124 07650 12500 /1716 10310 20130 30129 40171 50001 60006 81100 91200=
07650,1996-08-01 15:00:00,30,1017,-0.1,35,13,500,22.224,,,200,,,,,,,,,,,wg-a,,,,AAXX 01154 07650 12500 /2012 10300 20130 30128 40170 58001 60006 81100 91500=
07650,1996-08-01 18:00:00,27,1017,-0,45,14,20000,11.112,,,180,21.6,31.7,,,,,,,,,wg-a,,,,AAXX 01184 07650 12/70 11806 10270 20140 30128 40170 54000 60006 80002 91800 333 10317 20216=
07650,1996-08-01 21:00:00,24,1018.7,1.6,57,15,25000,11.112,,,140,,,,,,,,,,,wg-a,,,,AAXX 01214 07650 12/75 21406 10240 20150 30144 40187 53016 60006 81032 92100=
07650,1996-08-02 00:00:00,21,1018.4,-0.3,69,15,25000,11.112,,,140,,,,,,,,,,,wg-a,,,,AAXX 02004 07650 12/75 11406 10210 20150 30141 40184 58003 60006 80002 90000=
07650,1996-08-02 03:00:00,20,1017.8,-0.6,64,13,25000,7.408,,,130,,,,,,,,,,,wg-a,,,,AAXX 02034 07650 12/75 21304 10200 20130 30135 40178 58006 60006 82030 90300=
07650,1996-08-02 06:00:00,21,1018.9,1.1,69,15,8000,3.704,,,140,19.7,27.4,,,,,,,,,wg-a,,,,AAXX 02064 07650 12458 41402 10210 20150 30146 40189 51011 60006 82582 90600 333 10274 20197=
07650,1996-08-02 09:00:00,25,1019.4,0.5,65,18,9000,7.408,,,300,,,,,,,,,,,wg-a,,,,AAXX 02094 07650 12459 33004 10250 20180 30151 40194 51005 60006 81532 90900=
07650,1996-08-02 12:00:00,29,1018.7,-0.6,58,20,10000,11.112,,,290,,,,,,,,,,,wg-a,,,,AAXX 02124 07650 12660 32906 10290 20200 30145 40187 58006 60006 81102 91200=
07650,1996-08-02 15:00:00,29,1017.9,-0.8,55,19,15000,14.816,,,210,,,,,,,,,,,wg-a,,,,AAXX 02154 07650 12665 32108 10290 20190 30137 40179 58008 60006 82902 91500=
07650,1996-08-02 18:00:00,27,1018.2,0.3,58,18,15000,25.928,,,340,21,30.1,,,,,,,,,wg-a,,,,AAXX 02184 07650 12565 53414 10270 20180 30140 40182 50003 60006 82963 91800 333 10301 20210=
07650,1996-08-02 21:00:00,25,1018.9,0.6,61,17,15000,22.224,,,340,,,,,,,,,,,wg-a,,,,AAXX 02214 07650 12565 53412 10250 20170 30146 40189 51006 60006 81532 92100=
07650,1996-08-03 00:00:00,23,1018.5,-0.4,61,15,15000,18.52,,,340,,,,,,,,,,,wg-a,,,,AAXX 03004 07650 12565 73410 10230 20150 30142 40185 58004 60006 82932 90000=
07650,1996-08-03 03:00:00,21,1018.8,0.3,73,16,18000,18.52,,,330,,,,,,,,,,,wg-a,,,,AAXX 03034 07650 12668 43310 10210 20160 30145 40188 53003 60006 81532 90300=
07650,1996-08-03 06:00:00,21,1018.7,-0.1,78,17,12000,18.52,,,340,20,27.3,,,,,,,,,wg-a,,,,AAXX 03064 07650 12/62 33410 10210 20170 30144 40187 58001 60006 82032 90600 333 10273 20200=
07650,1996-08-03 09:00:00,26,1018.5,-0.2,58,17,20000,25.928,,,310,,,,,,,,,,,wg-a,,,,AAXX 03094 07650 12/70 /3114 10260 20170 30142 40185 56002 60006 90900=
07650,1996-08-03 12:00:00,30,1017.5,-0.9,40,15,40000,35.188,,,310,,,,,,,,,,,wg-a,,,,AAXX 03124 07650 12582 33119 10300 20150 30133 40175 58009 60006 81180 91200=
07650,1996-08-03 15:00:00,31,1016.2,-1.3,33,13,40000,38.892,,,340,,,,,,,,,,,wg-a,,,,AAXX 03154 07650 12582 23421 10310 20130 30120 40162 57013 60006 81180 91500=
07650,1996-08-03 18:00:00,29,1016,-0.2,40,14,20000,31.484,,,330,20.7,31.5,,,,,,,,,wg-a,,,,AAXX 03184 07650 12/70 /3317 10290 20140 30118 40160 56002 60006 91800 333 10315 20207=
07650,1996-08-03 21:00:00,25,1016.5,0.4,41,11,20000,29.632,,,340,,,,,,,,,,,wg-a,,,,AAXX 03214 07650 12/70 03416 10250 20110 30122 40165 51004 60006 80000 92100=
07650,1996-08-04 00:00:00,23,1016.5,0,47,11,20000,22.224,,,340,,,,,,,,,,,wg-a,,,,AAXX 04004 07650 12/70 03412 10230 20110 30122 40165 50000 60006 80000 90000=
07650,1996-08-04 03:00:00,20,1015.8,-0.7,53,10,20000,18.52,,,20,,,,,,,,,,,wg-a,,,,AAXX 04034 07650 12/70 00210 10200 20100 30115 40158 56007 60006 80000 90300=
07650,1996-08-04 06:00:00,19,1016.2,0.3,60,11,500,0,,,0,17.3,28.4,,,,,,,,,wg-a,,,,AAXX 04064 07650 12/00 00000 10190 20110 30118 40162 53003 60006 80000 90600 333 10284 20173=
07650,1996-08-04 09:00:00,25,1015.7,-0.4,50,14,40000,14.816,,,280,,,,,,,,,,,wg-a,,,,AAXX 04094 07650 12/82 12808 10250 20140 30114 40157 58004 60006 80002 90900=
07650,1996-08-04 12:00:00,29,1014.4,-1.2,43,15,40000,14.816,,,280,,,,,,,,,,,wg-a,,,,AAXX 04124 07650 12682 /2808 10290 20150 30102 40144 57012 60006 81102 91200=
07650,1996-08-04 15:00:00,29,1014,-0.4,40,14,40000,22.224,,,190,,,,,,,,,,,wg-a,,,,AAXX 04154 07650 12682 /1912 10290 20140 30098 40140 55004 60006 81200 91500=
07650,1996-08-04 18:00:00,25,1014.2,0.1,57,16,500,14.816,,,190,18.9,30.3,,,,,,,,,wg-a,,,,AAXX 04184 07650 12500 /1908 10250 20160 30099 40142 53001 60006 81230 91800 333 10303 20189=
07650,1996-08-04 21:00:00,23,1014.3,0.1,57,14,500,7.408,,,140,,,,,,,,,,,wg-a,,,,AAXX 04214 07650 12/00 31404 10230 20140 30100 40143 50001 60006 80002 92100=
07650,1996-08-05 00:00:00,21,1014.4,0.1,60,13,25000,7.408,,,130,,,,,,,,,,,wg-a,,,,AAXX 05004 07650 12/75 31304 10210 20130 30101 40144 50001 60006 82032 90000=
07650,1996-08-05 03:00:00,22,1013.5,-0.9,57,13,25000,7.408,,,140,,,,,,,,,,21,wg-a,,,,AAXX 05034 07650 02575 71404 10220 20130 30092 40135 55009 61000 72162 8393/ 90300 333 ////=
07650,1996-08-05 06:00:00,19,1012.8,-0.7,83,16,15000,22.224,,,90,18.8,25.1,,7,,,7,,,29,wg-a,,,,AAXX 05064 07650 02565 /0912 10190 20160 30085 40128 58007 60074 72998 84933 90600 333 10251 20188 60077=
07650,1996-08-05 09:00:00,24,1014,1.2,57,15,15000,3.704,,,110,,,,,,,,,,,wg-a,,,,AAXX 05094 07650 12565 81102 10240 20150 30097 40140 51012 60006 83832 90900=
07650,1996-08-05 12:00:00,27,1013.5,-0.4,54,17,15000,29.632,,,150,,,,,,,,,,,wg-a,,,,AAXX 05124 07650 12565 61516 10270 20170 30093 40135 55004 60006 83832 91200=
07650,1996-08-05 15:00:00,27,1012.8,-0.7,62,19,15000,22.224,,,170,,,,,,,,,,,wg-a,,,,AAXX 05154 07650 12565 51712 10270 20190 30086 40128 58007 60006 83932 91500=
07650,1996-08-05 18:00:00,25,1013.2,0.4,74,20,15000,11.112,,,160,19.2,27.9,,,,,,,,,wg-a,,,,AAXX 05184 07650 12565 61606 10250 20200 30090 40132 53004 60006 83982 91800 333 10279 20192=
07650,1996-08-05 21:00:00,24,1014.1,0.8,74,19,15000,7.408,,,140,,,,,,,,,,13,wg-a,,,,AAXX 05214 07650 12565 61404 10240 20190 30098 40141 53008 60006 71322 83963 92100=
07650,1996-08-06 00:00:00,22,1013.6,-0.5,83,19,12000,11.112,,,120,,,,1,,,,,,61,wg-a,,,,AAXX 06004 07650 02562 81206 10220 20190 30093 40136 58005 60016 76166 8496/ 90000 333 60017=
07650,1996-08-06 03:00:00,20,1013.7,-0.1,88,18,15000,3.704,,,80,,,,,,,,,,,wg-a,,,,AAXX 06034 07650 02565 30802 10200 20180 30094 40137 55001 61000 81532 90300 333 ////=
07650,1996-08-06 06:00:00,21,1014.1,0.4,83,18,15000,3.704,,,140,19.7,24.6,,,,,1,,,3,wg-a,,,,AAXX 06064 07650 12565 61402 10210 20180 30098 40141 53004 60014 70361 83532 90600 333 10246 20197=
07650,1996-08-06 09:00:00,27,1014.2,0.2,54,17,15000,11.112,,,170,,,,,,,,,,,wg-a,,,,AAXX 06094 07650 12565 51706 10270 20170 30100 40142 51002 60006 81282 90900=
07650,1996-08-06 12:00:00,28,1014.1,-0.1,55,18,15000,22.224,,,220,,,,,,,,,,,wg-a,,,,AAXX 06124 07650 12565 42212 10280 20180 30099 40141 58001 60006 81282 91200=
07650,1996-08-06 15:00:00,27,1014.2,0.1,62,19,15000,22.224,,,190,,,,,,,,,,,wg-a,,,,AAXX 06154 07650 12565 31912 10270 20190 30100 40142 50001 60006 81302 91500=
07650,1996-08-06 18:00:00,25,1014.9,0.6,74,20,15000,14.816,,,160,21.4,28.8,,,,,,,,,wg-a,,,,AAXX 06184 07650 12565 31608 10250 20200 30106 40149 53006 60006 81202 91800 333 10288 20214=
07650,1996-08-06 21:00:00,23,1016.2,1.3,83,20,15000,7.408,,,140,,,,,,,,,,,wg-a,,,,AAXX 06214 07650 12665 51404 10230 20200 30119 40162 52013 60006 83532 92100=
07650,1996-08-07 00:00:00,22,1016.6,0.4,83,19,12000,7.408,,,120,,,,,,,,,,,wg-a,,,,AAXX 07004 07650 12662 71204 10220 20190 30123 40166 51004 60006 82572 90000=
07650,1996-08-07 03:00:00,22,1016,-0.6,83,19,15000,7.408,,,110,,,,,,,,,,1,wg-a,,,,AAXX 07034 07650 02665 /1104 10220 20190 30117 40160 58006 61000 70162 81530 90300 333 ////=
07650,1996-08-07 06:00:00,22,1017,1,83,19,11000,3.704,,,150,21.2,24.5,,,,,,,,3,wg-a,,,,AAXX 07064 07650 02561 21502 10220 20190 30127 40170 53010 61000 70361 81230 90600 333 10245 20212 ////=
07650,1996-08-07 09:00:00,26,1016.5,-0.4,65,19,15000,7.408,,,280,,,,,,,,,,,wg-a,,,,AAXX 07094 07650 12565 /2804 10260 20190 30123 40165 58004 60006 81200 90900=
07650,1996-08-07 12:00:00,29,1015.3,-1.2,52,18,20000,14.816,,,250,,,,,,,,,,,wg-a,,,,AAXX 07124 07650 12570 32508 10290 20180 30111 40153 58012 60006 81280 91200=
07650,1996-08-07 15:00:00,29,1015.1,-0.2,62,21,12000,22.224,,,230,,,,,,,,,,,wg-a,,,,AAXX 07154 07650 12562 42312 10290 20210 30109 40151 55002 60006 83230 91500=
07650,1996-08-07 18:00:00,25,1014.6,-0.5,79,21,15000,11.112,,,200,22.2,30.6,,,,,,,,,wg-a,,,,AAXX 07184 07650 12565 52006 10250 20210 30104 40146 55005 60006 82232 91800 333 10306 20222=
07650,1996-08-07 21:00:00,24,1016,1.3,83,21,15000,7.408,,,300,,,,,,,,,,,wg-a,,,,AAXX 07214 07650 12465 33004 10240 20210 30117 40160 51013 60006 83200 92100=
07650,1996-08-08 00:00:00,23,1014.2,-1.8,89,21,15000,3.704,,,140,,,,,,,,,,,wg-a,,,,AAXX 08004 07650 12665 31402 10230 20210 30099 40142 58018 60006 81230 90000=
07650,1996-08-08 03:00:00,23,1013.6,-0.6,83,20,15000,7.408,,,140,,,,,,,,,,,wg-a,,,,AAXX 08034 07650 12365 61404 10230 20200 30093 40136 55006 60006 86200 90300=
07650,1996-08-08 06:00:00,23,1012.8,-0.8,89,21,8000,3.704,,,150,22.5,25.1,,,,,,,,,wg-a,,,,AAXX 08064 07650 12358 71502 10230 20210 30085 40128 55008 60006 81682 90600 333 10251 20225=
07650,1996-08-08 09:00:00,24,1013.5,0.7,83,21,8000,11.112,,,130,,,,,,,,,,21,wg-a,,,,AAXX 08094 07650 02458 81306 10240 20210 30092 40135 51007 61000 72162 8688/ 90900 333 ////=
07650,1996-08-08 12:00:00,23,1014.3,0.8,78,19,6000,18.52,,,350,,,,1,,,,,,17,wg-a,,,,AAXX 08124 07650 02456 83510 10230 20190 30100 40143 53008 60016 71798 8698/ 91200 333 60017=
07650,1996-08-08 15:00:00,26,1012.9,-1.3,65,19,18000,11.112,,,200,,,,5,,,,,,1,wg-a,,,,AAXX 08154 07650 12568 42006 10260 20190 30087 40129 58013 60057 70198 82832 91500=
07650,1996-08-08 18:00:00,26,1012.8,-0.1,61,18,20000,7.408,,,280,21.5,26.3,,,,,,,,1,wg-a,,,,AAXX 08184 07650 32570 22804 10260 20180 30086 40128 58001 70198 82200 91800 333 10263 20215=
07650,1996-08-08 21:00:00,23,1014.3,1.4,78,19,10000,14.816,,,330,,,,,,,,,,,wg-a,,,,AAXX 08214 07650 12/60 /3308 10230 20190 30100 40143 53014 60006 92100=
07650,1996-08-09 00:00:00,21,1014.5,0.2,83,18,20000,7.408,,,160,,,,,,,,,,,wg-a,,,,AAXX 09004 07650 12/70 01604 10210 20180 30102 40145 51002 60006 80000 90000=
07650,1996-08-09 03:00:00,20,1013.7,-0.8,88,18,20000,7.408,,,90,,,,,,,,,,,wg-a,,,,AAXX 09034 07650 12/70 10904 10200 20180 30094 40137 57008 60006 80002 90300=
07650,1996-08-09 06:00:00,21,1014.3,0.6,83,18,11000,3.704,,,120,19.3,25.9,,,,,6,,,,wg-a,,,,AAXX 09064 07650 02/61 31202 10210 20180 30100 40143 51006 60006 81032 90600 333 10259 20193 60064=
07650,1996-08-09 12:00:00,29,1014.7,-0.1,52,18,11000,22.224,,,180,,,,,,,,,,,wg-a,,,,AAXX 09124 07650 12/61 /1812 10290 20180 30105 40147 57001 60006 91200=
07650,1996-08-09 18:00:00,27,1013.8,-0.2,58,18,15000,11.112,,,180,20.7,29.4,,,,,,,,,wg-a,,,,AAXX 09184 07650 12665 /1806 10270 20180 30096 40138 55002 60006 81201 91800 333 10294 20207=
07650,1996-08-09 21:00:00,23,1014.8,0.9,73,18,15000,7.408,,,140,,,,,,,,,,,wg-a,,,,AAXX 09214 07650 12/65 11404 10230 20180 30105 40148 51009 60006 80002 92100=
07650,1996-08-10 00:00:00,22,1014.5,-0.3,73,17,15000,7.408,,,140,,,,,,,,,,,wg-a,,,,AAXX 10004 07650 12/65 01404 10220 20170 30102 40145 58003 60006 80000 90000=
07650,1996-08-10 03:00:00,21,1013.4,-1.1,73,16,15000,7.408,,,130,,,,,,,,,,,wg-a,,,,AAXX 10034 07650 12/65 01304 10210 20160 30091 40134 58011 60006 80000 90300=
07650,1996-08-10 06:00:00,22,1013.1,-0.3,69,16,15000,7.408,,,110,19.9,26.7,,,,,,,,,wg-a,,,,AAXX 10064 07650 12/65 21104 10220 20160 30088 40131 57003 60006 82030 90600 333 10267 20199=
07650,1996-08-10 09:00:00,28,1013.6,0.6,51,17,25000,22.224,,,150,,,,,,,,,,,wg-a,,,,AAXX 10094 07650 12/75 11512 10280 20170 30094 40136 51006 60006 80002 90900=
07650,1996-08-10 12:00:00,30,1012.4,-1.2,40,15,500,29.632,,,160,,,,,,,,,,,wg-a,,,,AAXX 10124 07650 12600 31616 10300 20150 30082 40124 58012 60006 82102 91200=
07650,1996-08-10 15:00:00,29,1011.1,-1.3,48,17,500,35.188,,,160,,,,,,,,,,,wg-a,,,,AAXX 10154 07650 12600 /1619 10290 20170 30069 40111 58013 60006 81102 91500=
07650,1996-08-10 18:00:00,26,1010.2,-0.9,65,19,500,25.928,,,150,21.8,30.6,,,,,,,,,wg-a,,,,AAXX 10184 07650 12600 71514 10260 20190 30060 40102 55009 60006 82935 91800 333 10306 20218=
07650,1996-08-10 21:00:00,24,1010.6,0.4,89,22,15000,25.928,,50.004,170,,,,3,,,,,,17,wg-a,,,,AAXX 10214 07650 12465 81714 10240 20220 30064 40106 51004 60037 71798 8497/ 92100 333 91027=
07650,1996-08-11 00:00:00,22,1010.7,0.1,73,17,20000,22.224,,,80,,,,,,,,,,,wg-a,,,,AAXX 11004 07650 12670 40812 10220 20170 30064 40107 52001 60036 82230 90000=
07650,1996-08-11 03:00:00,21,1010.2,-0.5,78,17,18000,7.408,,,10,,,,,,,,,,,wg-a,,,,AAXX 11034 07650 12668 30104 10210 20170 30059 40102 58005 60006 81230 90300=
07650,1996-08-11 06:00:00,21,1010.9,0.7,83,18,500,3.704,,,70,20.4,26.1,,,,,3,,,,wg-a,,,,AAXX 11064 07650 12600 /0702 10210 20180 30066 40109 53007 60034 83580 90600 333 10261 20204=
07650,1996-08-11 09:00:00,23,1011.7,0.8,78,19,40000,11.112,,,300,,,,,,,,,,17,wg-a,,,,AAXX 11094 07650 12582 73006 10230 20190 30074 40117 51008 60006 71792 8398/ 90900=
07650,1996-08-11 12:00:00,21,1011.9,0.2,83,18,10000,18.52,,,40,,,,2,,,,,,17,wg-a,,,,AAXX 11124 07650 02460 70410 10210 20180 30076 40119 50002 60026 71796 8398/ 91200 333 60027=
07650,1996-08-11 15:00:00,21,1011.5,-0.4,83,18,15000,3.704,,,100,,,,6,,,,,,17,wg-a,,,,AAXX 11154 07650 12565 71002 10210 20180 30072 40115 58004 60067 71796 8297/ 91500=
07650,1996-08-11 18:00:00,22,1010.9,-0.6,73,17,20000,11.112,,,330,18.6,23,,,,,,,,1,wg-a,,,,AAXX 11184 07650 32570 /3306 10220 20170 30066 40109 55006 70196 81280 91800 333 10230 20186=
07650,1996-08-11 21:00:00,19,1011.6,0.7,88,17,20000,7.408,,,140,,,,,,,,,,,wg-a,,,,AAXX 11214 07650 12570 31404 10190 20170 30073 40116 53007 60006 81530 92100=
07650,1996-08-12 00:00:00,20,1011.2,-0.4,78,16,20000,11.112,,,10,,,,,,,,,,,wg-a,,,,AAXX 12004 07650 12570 30106 10200 20160 30069 40112 58004 60006 81530 90000=
07650,1996-08-12 03:00:00,18,1010.9,-0.3,83,15,20000,25.928,,,330,,,,,,,,,,,wg-a,,,,AAXX 12034 07650 12/70 13314 10180 20150 30066 40109 55003 60006 81040 90300=
07650,1996-08-12 06:00:00,19,1011.5,0.6,68,13,500,25.928,,,340,17.3,22,,,,,7,,,,wg-a,,,,AAXX 12064 07650 02400 43414 10190 20130 30072 40115 53006 60006 81130 90600 333 10220 20173 60074=
07650,1996-08-12 09:00:00,22,1011.8,0.3,57,13,500,29.632,,,320,,,,,,,,,,,wg-a,,,,AAXX 12094 07650 12500 33216 10220 20130 30075 40118 50003 60006 82132 90900=
07650,1996-08-12 12:00:00,25,1012,0.2,44,12,500,22.224,,,310,,,,,,,,,,,wg-a,,,,AAXX 12124 07650 12500 43112 10250 20120 30077 40120 50002 60006 84242 91200=
07650,1996-08-12 15:00:00,27,1011.3,-0.6,39,12,40000,29.632,,,340,,,,,,,,,,,wg-a,,,,AAXX 12154 07650 12582 33416 10270 20120 30071 40113 56006 60006 83202 91500=
07650,1996-08-12 18:00:00,25,1011.3,-0.1,39,10,40000,25.928,,,340,18.7,26.8,,,,,,,,,wg-a,,,,AAXX 12184 07650 12582 23414 10250 20100 30070 40113 55001 60006 82200 91800 333 10268 20187=
07650,1996-08-12 21:00:00,21,1013.2,1.9,53,11,500,18.52,,,320,,,,,,,,,,,wg-a,,,,AAXX 12214 07650 12/00 13210 10210 20110 30089 40132 51019 60006 81031 92100=
07650,1996-08-13 00:00:00,18,1013.7,0.4,68,12,500,22.224,,,340,,,,,,,,,,,wg-a,,,,AAXX 13004 07650 12/00 03412 10180 20120 30093 40137 50004 60006 80000 90000=
07650,1996-08-13 03:00:00,17,1013.4,-0.3,68,11,500,3.704,,,60,,,,,,,,,,,wg-a,,,,AAXX 13034 07650 12/00 00602 10170 20110 30090 40134 55003 60006 80000 90300=
07650,1996-08-13 06:00:00,18,1013.9,0.5,64,11,500,11.112,,,30,16.5,25.1,,,,,,,,,wg-a,,,,AAXX 13064 07650 12/00 20306 10180 20110 30095 40139 53005 60006 82030 90600 333 10251 20165=
07650,1996-08-13 09:00:00,23,1014.3,0.5,50,12,500,22.224,,,310,,,,,,,,,,,wg-a,,,,AAXX 13094 07650 12/00 03112 10230 20120 30100 40143 51005 60006 80000 90900=
07650,1996-08-13 12:00:00,26,1013.4,-0.8,42,12,500,29.632,,,300,,,,,,,,,,,wg-a,,,,AAXX 13124 07650 12500 /3016 10260 20120 30092 40134 58008 60006 81180 91200=
07650,1996-08-13 15:00:00,28,1012.7,-0.7,37,12,500,29.632,,,310,,,,,,,,,,,wg-a,,,,AAXX 13154 07650 12500 /3116 10280 20120 30085 40127 58007 60006 81102 91500=
07650,1996-08-13 18:00:00,25,1012.8,-0,44,12,500,25.928,,,290,17.6,27.5,,,,,,,,,wg-a,,,,AAXX 13184 07650 12600 22914 10250 20120 30085 40128 55000 60006 81502 91800 333 10275 20176=
07650,1996-08-13 21:00:00,23,1013.8,1,57,14,25000,22.224,,,320,,,,,,,,,,,wg-a,,,,AAXX 13214 07650 12/75 03212 10230 20140 30095 40138 50010 60006 80000 92100=
07650,1996-08-14 00:00:00,20,1013.9,0.1,56,11,25000,14.816,,,20,,,,,,,,,,,wg-a,,,,AAXX 14004 07650 12/75 10208 10200 20110 30096 40139 50001 60006 80002 90000=
07650,1996-08-14 03:00:00,18,1013.4,-0.6,68,12,25000,14.816,,,330,,,,,,,,,,,wg-a,,,,AAXX 14034 07650 12/75 03308 10180 20120 30090 40134 58006 60006 80000 90300=
07650,1996-08-14 06:00:00,18,1013.3,-0.1,68,12,35000,14.816,,,20,17.4,25,,,,,,,,,wg-a,,,,AAXX 14064 07650 12/81 20208 10180 20120 30089 40133 57001 60006 81032 90600 333 10250 20174=
07650,1996-08-14 09:00:00,22,1014,0.8,53,12,500,3.704,,,360,,,,,,,,,,,wg-a,,,,AAXX 14094 07650 12/00 33602 10220 20120 30097 40140 51008 60006 81032 90900=
07650,1996-08-14 12:00:00,27,1012.6,-1.3,45,14,500,22.224,,,280,,,,,,,,,,,wg-a,,,,AAXX 14124 07650 12/00 42812 10270 20140 30079 40126 55013 60006 82082 91200=
07650,1996-08-14 15:00:00,26,1012.2,-0.4,51,15,25000,25.928,,,300,,,,,,,,,,,wg-a,,,,AAXX 14154 07650 12575 43014 10260 20150 30080 40122 56004 60006 81180 91500=
07650,1996-08-14 18:00:00,24,1012.3,-0,54,14,20000,25.928,,,330,18.4,28.5,,,,,,,,,wg-a,,,,AAXX 14184 07650 12/70 53314 10240 20140 30080 40123 55000 60006 82082 91800 333 10285 20184=
07650,1996-08-14 21:00:00,21,1013,0.7,60,13,20000,18.52,,,320,,,,,,,,,,,wg-a,,,,AAXX 14214 07650 12/70 43210 10210 20130 30087 40130 53007 60006 82032 92100=
07650,1996-08-15 00:00:00,18,1013.9,0.8,73,13,20000,7.408,,,40,,,,,,,,,,,wg-a,,,,AAXX 15004 07650 12/70 10404 10180 20130 30095 40139 53008 60006 80002 90000=
07650,1996-08-15 03:00:00,17,1013.4,-0.5,77,13,20000,7.408,,,150,,,,,,,,,,,wg-a,,,,AAXX 15034 07650 12/70 11504 10170 20130 30090 40134 56005 60006 80002 90300=
07650,1996-08-15 06:00:00,17,1014.1,0.7,82,14,9000,7.408,,,30,15.9,24.1,,,,,,,,,wg-a,,,,AAXX 15064 07650 12/59 30304 10170 20140 30097 40141 53007 60006 81042 90600 333 10241 20159=
07650,1996-08-15 09:00:00,22,1014.6,0.6,65,15,10000,11.112,,,310,,,,,,,,,,,wg-a,,,,AAXX 15094 07650 12660 13106 10220 20150 30103 40146 51006 60006 81100 90900=
07650,1996-08-15 12:00:00,27,1013.7,-0.8,51,16,11000,14.816,,,310,,,,,,,,,,,wg-a,,,,AAXX 15124 07650 12/61 /3108 10270 20160 30095 40137 58008 60006 91200=
07650,1996-08-15 15:00:00,28,1013.2,-0.5,42,14,12000,29.632,,,340,,,,,,,,,,,wg-a,,,,AAXX 15154 07650 12662 /3416 10280 20140 30090 40132 57005 60006 81100 91500=
07650,1996-08-15 18:00:00,26,1012.8,-0.4,51,15,25000,38.892,,,360,16.8,28.5,,,,,,,,,wg-a,,,,AAXX 15184 07650 12/75 03621 10260 20150 30086 40128 57004 60006 80000 91800 333 10285 20168=
07650,1996-08-15 21:00:00,23,1014.1,1.2,57,14,10000,25.928,,,330,,,,,,,,,,,wg-a,,,,AAXX 15214 07650 12/60 /3314 10230 20140 30098 40141 51012 60006 92100=
07650,1996-08-16 00:00:00,20,1014.8,0.7,64,13,15000,11.112,,,30,,,,,,,,,,,wg-a,,,,AAXX 16004 07650 12/65 00306 10200 20130 30105 40148 51007 60006 80000 90000=
07650,1996-08-16 03:00:00,17,1015,0.1,77,13,15000,11.112,,,20,,,,,,,,,,,wg-a,,,,AAXX 16034 07650 12/65 00206 10170 20130 30106 40150 52001 60006 80000 90300=
07650,1996-08-16 06:00:00,17,1016,1,77,13,10000,3.704,,,140,15.9,26,,,,,,,,,wg-a,,,,AAXX 16064 07650 12/60 01402 10170 20130 30116 40160 53010 60006 80000 90600 333 10260 20159=
07650,1996-08-16 09:00:00,25,1016.2,,54,15,10000,7.408,,,250,,,,,,,,,,,wg-a,,,,AAXX 16094 07650 32/60 02504 10250 20150 30119 40162 80000 90900=
07650,1996-08-16 12:00:00,29,1015.5,-0.6,43,15,12000,14.816,,,270,,,,,,,,,,,wg-a,,,,AAXX 16124 07650 12562 /2708 10290 20150 30113 40155 58006 60006 81100 91200=
07650,1996-08-16 15:00:00,31,1015.1,-0.4,29,11,12000,11.112,,,260,,,,,,,,,,,wg-a,,,,AAXX 16154 07650 12562 /2606 10310 20110 30109 40151 58004 60006 81100 91500=
07650,1996-08-16 18:00:00,27,1015.7,0.6,34,10,12000,11.112,,,170,17.3,30.7,,,,,,,,,wg-a,,,,AAXX 16184 07650 12/62 01706 10270 20100 30115 40157 53006 60006 80000 91800 333 10307 20173=
07650,1996-08-16 21:00:00,23,1017.1,1.3,65,16,12000,7.408,,,160,,,,,,,,,,,wg-a,,,,AAXX 16214 07650 12/62 01604 10230 20160 30128 40171 51013 60006 80000 92100=
07650,1996-08-17 06:00:00,19,1017.7,0.5,68,13,15000,7.408,,,140,17,26.7,,,,,,,,,wg-a,,,,AAXX 17064 07650 12/65 11404 10190 20130 30133 40177 53005 60006 81032 90600 333 10267 20170=
07650,1996-08-17 09:00:00,25,1017.9,0.3,54,15,12000,11.112,,,250,,,,,,,,,,,wg-a,,,,AAXX 17094 07650 12562 /2506 10250 20150 30136 40179 50003 60006 81100 90900=
07650,1996-08-17 12:00:00,29,1017,-0.8,37,13,15000,18.52,,,280,,,,,,,,,,,wg-a,,,,AAXX 17124 07650 12565 /2810 10290 20130 30128 40170 58008 60006 81101 91200=
07650,1996-08-17 15:00:00,29,1015.9,-1.1,45,16,15000,25.928,,,240,,,,,,,,,,,wg-a,,,,AAXX 17154 07650 12/65 02414 10290 20160 30117 40159 58011 60006 80000 91500=
07650,1996-08-17 18:00:00,27,1015.6,-0.3,51,16,20000,18.52,,,260,18.8,31,,,,,,,,,wg-a,,,,AAXX 17184 07650 12/70 02610 10270 20160 30114 40156 55003 60006 80000 91800 333 10310 20188=
07650,1996-08-17 21:00:00,23,1016.8,1.1,73,18,15000,11.112,,,260,,,,,,,,,,,wg-a,,,,AAXX 17214 07650 12/65 02606 10230 20180 30125 40168 51011 60006 80000 92100=
07650,1996-08-18 00:00:00,21,1015.8,-1,78,17,15000,7.408,,,140,,,,,,,,,,,wg-a,,,,AAXX 18004 07650 12/65 01404 10210 20170 30115 40158 57010 60006 80000 90000=
07650,1996-08-18 03:00:00,19,1015,-0.8,83,16,15000,3.704,,,80,,,,,,,,,,,wg-a,,,,AAXX 18034 07650 12/65 00802 10190 20160 30107 40150 58008 60006 80000 90300=
07650,1996-08-18 06:00:00,19,1015.3,0.2,83,16,10000,7.408,,,140,17.6,27,,,,,,,,,wg-a,,,,AAXX 18064 07650 12/60 01404 10190 20160 30109 40153 53002 60006 80000 90600 333 10270 20176=
07650,1996-08-18 09:00:00,25,1015.5,0.3,54,15,12000,11.112,,,280,,,,,,,,,,,wg-a,,,,AAXX 18094 07650 12/62 02806 10250 20150 30112 40155 51003 60006 80000 90900=
07650,1996-08-18 12:00:00,29,1014.9,-0.5,45,16,15000,11.112,,,260,,,,,,,,,,,wg-a,,,,AAXX 18124 07650 12/65 02606 10290 20160 30107 40149 58005 60006 80000 91200=
07650,1996-08-18 15:00:00,30,1014,-0.9,40,15,18000,18.52,,,270,,,,,,,,,,,wg-a,,,,AAXX 18154 07650 12568 /2710 10300 20150 30098 40140 58009 60006 81100 91500=
07650,1996-08-18 18:00:00,27,1013.7,-0.3,51,16,18000,7.408,,,180,18.8,30,,,,,,,,,wg-a,,,,AAXX 18184 07650 12568 /1804 10270 20160 30095 40137 55003 60006 81100 91800 333 10300 20188=
07650,1996-08-18 21:00:00,23,1015.2,1.4,61,15,15000,3.704,,,160,,,,,,,,,,,wg-a,,,,AAXX 18214 07650 12/65 01602 10230 20150 30109 40152 51014 60006 80000 92100=
07650,1996-08-19 00:00:00,21,1015.2,-0,73,16,15000,3.704,,,120,,,,,,,,,,,wg-a,,,,AAXX 19004 07650 12/65 01202 10210 20160 30109 40152 55000 60006 80000 90000=
07650,1996-08-19 03:00:00,20,1015,-0.2,73,15,15000,11.112,,,140,,,,,,,,,,,wg-a,,,,AAXX 19034 07650 12/65 01406 10200 20150 30107 40150 55002 60006 80000 90300=
07650,1996-08-19 06:00:00,21,1014.9,-0.1,69,15,15000,7.408,,,120,19.3,26.6,,,,,,,,,wg-a,,,,AAXX 19064 07650 12/65 21204 10210 20150 30106 40149 55001 60006 81032 90600 333 10266 20193=
07650,1996-08-19 09:00:00,27,1015.7,0.9,51,16,12000,3.704,,,310,,,,,,,,,,,wg-a,,,,AAXX 19094 07650 12562 13102 10270 20160 30115 40157 51009 60006 81100 90900=
07650,1996-08-19 12:00:00,28,1015.3,-0.4,51,17,11000,29.632,,,180,,,,,,,,,,,wg-a,,,,AAXX 19124 07650 12/61 /1816 10280 20170 30111 40153 58004 60006 91200=
07650,1996-08-19 15:00:00,28,1014.3,-1,48,16,15000,25.928,,,170,,,,,,,,,,,wg-a,,,,AAXX 19154 07650 12565 31714 10280 20160 30101 40143 58010 60006 82909 91500=
07650,1996-08-19 18:00:00,25,1014.2,-0.1,69,19,15000,18.52,,,180,20.5,29.2,,,,,,,,,wg-a,,,,AAXX 19184 07650 12565 31810 10250 20190 30100 40142 55001 60006 81282 91800 333 10292 20205=
07650,1996-08-19 21:00:00,23,1015.7,1.4,73,18,20000,7.408,,,170,,,,,,,,,,,wg-a,,,,AAXX 19214 07650 12/70 01704 10230 20180 30114 40157 51014 60006 80000 92100=
07650,1996-08-20 00:00:00,22,1015.8,0.1,60,14,20000,7.408,,,130,,,,,,,,,,,wg-a,,,,AAXX 20004 07650 12/70 21304 10220 20140 30115 40158 50001 60006 82080 90000=
07650,1996-08-20 03:00:00,21,1014.7,-1.1,56,12,20000,3.704,,,120,,,,,,,,,,,wg-a,,,,AAXX 20034 07650 12/70 21202 10210 20120 30104 40147 58011 60006 82030 90300=
07650,1996-08-20 06:00:00,22,1015,0.3,57,13,500,14.816,,,100,20.1,25.3,,,,,,,,,wg-a,,,,AAXX 20064 07650 12600 41008 10220 20130 30107 40150 53003 60006 82582 90600 333 10253 20201=
07650,1996-08-20 09:00:00,28,1015.3,0.4,42,14,20000,18.52,,,160,,,,,,,,,,,wg-a,,,,AAXX 20094 07650 12670 31610 10280 20140 30111 40153 52004 60006 81502 90900=
07650,1996-08-20 12:00:00,29,1014.6,-0.7,43,15,20000,25.928,,,170,,,,,,,,,,,wg-a,,,,AAXX 20124 07650 12670 21714 10290 20150 30104 40146 56007 60006 81502 91200=
07650,1996-08-20 15:00:00,28,1013.2,-1.4,51,17,20000,25.928,,,170,,,,,,,,,,,wg-a,,,,AAXX 20154 07650 12670 /1714 10280 20170 30090 40132 57014 60006 81102 91500=
07650,1996-08-20 18:00:00,25,1013.1,-0.1,69,19,20000,22.224,,,180,21.7,29.8,,,,,,,,,wg-a,,,,AAXX 20184 07650 12670 41812 10250 20190 30089 40131 55001 60006 81182 91800 333 10298 20217=
07650,1996-08-20 21:00:00,24,1014.6,1.4,69,18,11000,7.408,,,140,,,,,,,,,,,wg-a,,,,AAXX 20214 07650 12/61 /1404 10240 20180 30103 40146 51014 60006 92100=
07650,1996-08-21 00:00:00,23,1014.4,-0.2,78,19,10000,11.112,,,60,,,,,,,,,,29,wg-a,,,,AAXX 21004 07650 02560 70606 10230 20190 30101 40144 58002 61000 72962 83832 90000 333 6100=
07650,1996-08-21 03:00:00,22,1012.8,-1.6,60,14,15000,11.112,,,100,,,,,,,,,,,wg-a,,,,AAXX 21034 07650 12565 21006 10220 20140 30085 40128 56016 60006 81530 90300=
07650,1996-08-21 06:00:00,22,1012.9,0.1,53,12,15000,7.408,,,100,21.3,25.1,,,,,,,,,wg-a,,,,AAXX 21064 07650 02665 61004 10220 20120 30086 40129 53001 61000 84532 90600 333 10251 20213 ////=
07650,1996-08-21 09:00:00,28,1012.6,-0.2,35,11,20000,14.816,,,130,,,,,,,,,,,wg-a,,,,AAXX 21094 07650 12670 51308 10280 20110 30084 40126 56002 60006 82581 90900=
07650,1996-08-21 12:00:00,28,1012,-0.6,40,13,20000,29.632,,,160,,,,,,,,,,,wg-a,,,,AAXX 21124 07650 12570 /1616 10280 20130 30078 40120 56006 60006 83983 91200=
07650,1996-08-21 15:00:00,26,1010.5,-1.5,45,13,20000,3.704,,,290,,,,,,,,,,7,wg-a,,,,AAXX 21154 07650 02570 72902 10260 20130 30063 40105 57015 61000 70762 8498/ 91500 333 ////=
07650,1996-08-21 18:00:00,26,1010.5,0,54,16,20000,11.112,,,160,22.4,30.6,,,,,,,,3,wg-a,,,,AAXX 21184 07650 32570 71606 10260 20160 30063 40105 50000 70362 83983 91800 333 10306 20224=
07650,1996-08-21 21:00:00,18,1014.5,3.8,88,16,8000,22.224,,,10,,,,4,,,,,,81,wg-a,,,,AAXX 21214 07650 12458 80112 10180 20160 30101 40145 51038 60047 78199 8598/ 92100=
07650,1996-08-22 00:00:00,18,1012.8,-1.7,88,16,20000,3.704,,,270,,,,1,,,,,,1,wg-a,,,,AAXX 22004 07650 02670 72702 10180 20160 30084 40128 55017 60056 70196 82572 90000 333 60017=
07650,1996-08-22 03:00:00,17,1011.9,-0.9,88,15,15000,14.816,,,330,,,,,,,,,,,wg-a,,,,AAXX 22034 07650 12365 33308 10170 20150 30075 40119 56009 60006 83500 90300=
07650,1996-08-22 06:00:00,17,1012.5,0.6,88,15,9000,14.816,,,340,16.6,26.2,,,,,5,,,,wg-a,,,,AAXX 22064 07650 12559 43408 10170 20150 30081 40125 51006 60054 83532 90600 333 10262 20166=
07650,1996-08-22 09:00:00,22,1013,0.6,69,16,15000,25.928,,,310,,,,,,,,,,,wg-a,,,,AAXX 22094 07650 12565 /3114 10220 20160 30087 40130 51006 60006 81502 90900=
07650,1996-08-22 12:00:00,25,1012.7,-0.2,57,16,20000,31.484,,,340,,,,,,,,,,,wg-a,,,,AAXX 22124 07650 12570 33417 10250 20160 30085 40127 58002 60006 82102 91200=
07650,1996-08-22 15:00:00,26,1011.8,-0.9,48,14,20000,29.632,,,330,,,,,,,,,,,wg-a,,,,AAXX 22154 07650 12570 /3316 10260 20140 30076 40118 58009 60006 81102 91500=
07650,1996-08-22 18:00:00,25,1012.3,0.4,50,14,20000,29.632,,,340,17.1,26.8,,,,,,,,,wg-a,,,,AAXX 22184 07650 12670 /3416 10250 20140 30080 40123 53004 60006 81400 91800 333 10268 20171=
07650,1996-08-22 21:00:00,22,1013.5,1.2,60,14,15000,25.928,,,320,,,,,,,,,,,wg-a,,,,AAXX 22214 07650 12/65 13214 10220 20140 30092 40135 51012 60006 80002 92100=
07650,1996-08-23 00:00:00,19,1013.4,-0.1,73,14,20000,7.408,,,350,,,,,,,,,,,wg-a,,,,AAXX 23004 07650 12/70 03504 10190 20140 30091 40134 58001 60006 80000 90000=
07650,1996-08-23 03:00:00,17,1012.7,-0.8,82,14,15000,11.112,,,140,,,,,,,,,,,wg-a,,,,AAXX 23034 07650 12/65 01406 10170 20140 30083 40127 56008 60006 80000 90300=
07650,1996-08-23 06:00:00,17,1013,0.3,82,14,40000,11.112,,,140,15.8,24.6,,,,,,,,,wg-a,,,,AAXX 23064 07650 12/82 11406 10170 20140 30086 40130 53003 60006 80002 90600 333 10246 20158=
07650,1996-08-23 09:00:00,22,1013.4,0.5,65,15,25000,3.704,,,300,,,,,,,,,,,wg-a,,,,AAXX 23094 07650 12/75 13002 10220 20150 30091 40134 51005 60006 80001 90900=
07650,1996-08-23 12:00:00,28,1012.6,-0.7,40,13,25000,14.816,,,290,,,,,,,,,,,wg-a,,,,AAXX 23124 07650 12/75 02908 10280 20130 30084 40126 58007 60006 80000 91200=
07650,1996-08-23 15:00:00,27,1011.9,-0.7,51,16,60000,25.928,,,250,,,,,,,,,,,wg-a,,,,AAXX 23154 07650 12/86 02514 10270 20160 30077 40119 57007 60006 80000 91500=
07650,1996-08-23 18:00:00,24,1012.1,-0.1,65,17,500,14.816,,,270,17,28.7,,,,,,,,,wg-a,,,,AAXX 23184 07650 12/00 12708 10240 20170 30078 40121 55001 60006 81031 91800 333 10287 20170=
07650,1996-08-23 21:00:00,22,1012.9,0.8,69,16,25000,7.408,,,140,,,,,,,,,,,wg-a,,,,AAXX 23214 07650 12/75 11404 10220 20160 30086 40129 51008 60006 81031 92100=
07650,1996-08-24 00:00:00,22,1012.6,-0.3,73,17,25000,3.704,,,140,,,,,,,,,,,wg-a,,,,AAXX 24004 07650 12/75 41402 10220 20170 30083 40126 56003 60006 84031 90000=
07650,1996-08-24 03:00:00,21,1011.8,-0.8,83,18,15000,0,,,0,,,,,,,,,,,wg-a,,,,AAXX 24034 07650 12665 40000 10210 20180 30075 40118 56008 60006 81532 90300=
07650,1996-08-24 06:00:00,20,1011.8,-0,83,17,15000,11.112,,,340,19.3,24.2,,,,,,,,,wg-a,,,,AAXX 24064 07650 12/65 33406 10200 20170 30075 40118 55000 60006 83030 90600 333 10242 20193=
07650,1996-08-24 09:00:00,18,1014.7,2.8,88,16,9000,22.224,,,330,,,,5,,,,,,21,wg-a,,,,AAXX 24094 07650 12459 83312 10180 20160 30103 40147 51028 60057 72166 8587/ 90900=
07650,1996-08-24 12:00:00,20,1013.8,-0.8,83,17,15000,3.704,,,350,,,,1,,,,,,21,wg-a,,,,AAXX 24124 07650 02565 /3502 10200 20170 30095 40138 56008 60056 72162 83832 91200 333 60017=
07650,1996-08-24 15:00:00,26,1012.1,-1.6,51,15,25000,18.52,,,290,,,,,,,,,,,wg-a,,,,AAXX 24154 07650 12575 42910 10260 20150 30079 40121 58016 60006 82832 91500=
07650,1996-08-24 18:00:00,24,1012.1,-0.1,57,15,500,25.928,,,270,17.8,25.7,,,,,,,,,wg-a,,,,AAXX 24184 07650 32500 /2714 10240 20150 30078 40121 56001 81130 91800 333 10257 20178=
07650,1996-08-24 21:00:00,21,1013.2,1.1,69,15,20000,31.484,,,310,,,,,,,,,,,wg-a,,,,AAXX 24214 07650 12/70 13117 10210 20150 30089 40132 52011 60006 81030 92100=
07650,1996-08-25 00:00:00,19,1014,0.8,73,14,20000,29.632,,,320,,,,,,,,,,,wg-a,,,,AAXX 25004 07650 12/70 03216 10190 20140 30097 40140 51008 60006 80000 90000=
07650,1996-08-25 03:00:00,18,1013.7,-0.4,73,13,20000,22.224,,,330,,,,,,,,,,,wg-a,,,,AAXX 25034 07650 12/70 23312 10180 20130 30093 40137 57004 60006 80002 90300=
07650,1996-08-25 06:00:00,18,1014.2,0.5,68,12,25000,14.816,,,350,17.4,24.1,,,,,5,,,,wg-a,,,,AAXX 25064 07650 02/75 53508 10180 20120 30098 40142 53005 60006 82042 90600 333 10241 20174 60054=
07650,1996-08-25 09:00:00,23,1014.9,0.8,50,12,75000,31.484,,,330,,,,,,,,,,,wg-a,,,,AAXX 25094 07650 12/89 23317 10230 20120 30106 40149 51008 60006 81042 90900=
07650,1996-08-25 12:00:00,25,1014.6,-0.3,41,11,75000,29.632,,,330,,,,,,,,,,,wg-a,,,,AAXX 25124 07650 12689 43316 10250 20110 30103 40146 56003 60006 81101 91200=
07650,1996-08-25 15:00:00,25,1013.8,-0.8,47,13,60000,18.52,,,250,,,,,,,,,,,wg-a,,,,AAXX 25154 07650 12686 /2510 10250 20130 30095 40138 57008 60006 83202 91500=
07650,1996-08-25 18:00:00,24,1013.5,-0.3,54,14,75000,22.224,,,270,17.5,26,,,,,,,,,wg-a,,,,AAXX 25184 07650 12689 /2712 10240 20140 30092 40135 55003 60006 82402 91800 333 10260 20175=
07650,1996-08-25 21:00:00,22,1013.9,0.4,69,16,40000,18.52,,,290,,,,,,,,,,,wg-a,,,,AAXX 25214 07650 12682 /2910 10220 20160 30096 40139 50004 60006 81532 92100=
07650,1996-08-26 00:00:00,19,1013.9,-0,78,15,500,7.408,,,210,,,,,,,,,,,wg-a,,,,AAXX 26004 07650 12/00 32104 10190 20150 30096 40139 55000 60006 81032 90000=
07650,1996-08-26 03:00:00,18,1013.6,-0.4,77,14,500,7.408,,,140,,,,,,,,,,,wg-a,,,,AAXX 26034 07650 12/00 21404 10180 20140 30092 40136 56004 60006 81031 90300=
07650,1996-08-26 06:00:00,18,1014.7,1.1,77,14,500,11.112,,,140,16.9,24,,,,,,,,,wg-a,,,,AAXX 26064 07650 12/00 21406 10180 20140 30103 40147 53011 60006 82031 90600 333 10240 20169=
07650,1996-08-26 09:00:00,23,1015.9,1.3,53,13,500,7.408,,,10,,,,,,,,,,,wg-a,,,,AAXX 26094 07650 12600 50104 10230 20130 30116 40159 52013 60006 81274 90900=
07650,1996-08-26 12:00:00,24,1015.2,-0.7,54,14,500,3.704,,,270,,,,,,,,,,,wg-a,,,,AAXX 26124 07650 12600 82702 10240 20140 30109 40152 56007 60006 84574 91200=
07650,1996-08-26 15:00:00,19,1014.6,-0.6,88,17,12000,3.704,,,100,,,,20,,,,,,17,wg-a,,,,AAXX 26154 07650 12562 81002 10190 20170 30103 40146 58006 60207 71796 8397/ 91500=
07650,1996-08-26 18:00:00,19,1014.9,0.3,94,18,8000,14.816,,,110,18.2,25.3,,28,,,,,,17,wg-a,,,,AAXX 26184 07650 12458 81108 10190 20180 30106 40149 53003 60287 71799 8697/ 91800 333 10253 20182=
07650,1996-08-26 21:00:00,18,1015.8,0.8,94,17,10000,3.704,,,340,,,,,,,,,,17,wg-a,,,,AAXX 26214 07650 12560 83402 10180 20170 30114 40158 53008 60006 71792 8627/ 92100=
07650,1996-08-27 00:00:00,17,1015.6,-0.2,94,16,15000,7.408,,,110,,,,,,,,,,1,wg-a,,,,AAXX 27004 07650 12665 31104 10170 20160 30112 40156 58002 60006 70196 81230 90000=
07650,1996-08-27 03:00:00,18,1014.8,-0.8,88,16,12000,7.408,,,150,,,,,,,,,,,wg-a,,,,AAXX 27034 07650 12562 /1504 10180 20160 30104 40148 56008 60006 83230 90300=
07650,1996-08-27 06:00:00,18,1014.7,-0.1,88,16,12000,3.704,,,130,17.3,19,,,,,48,,,60,wg-a,,,,AAXX 27064 07650 02562 71302 10180 20160 30103 40147 55001 60484 76061 8227/ 90600 333 10190 20173 61000=
07650,1996-08-27 09:00:00,22,1015,0.4,78,18,12000,3.704,,,310,,,,,,,,,,1,wg-a,,,,AAXX 27094 07650 02662 /3102 10220 20180 30107 40150 53004 61000 70162 83582 90900 333 ////=
07650,1996-08-27 12:00:00,25,1014.8,-0.2,69,19,9000,14.816,,,280,,,,,,,,,,3,wg-a,,,,AAXX 27124 07650 02559 72808 10250 20190 30105 40148 55002 61000 70362 8487/ 91200 333 6100=
07650,1996-08-27 15:00:00,23,1014.6,-0.2,65,16,12000,14.816,,,20,,,,,,,,,,,wg-a,,,,AAXX 27154 07650 12562 70208 10230 20160 30103 40146 58002 60006 8487/ 91500=
07650,1996-08-27 21:00:00,19,1016.4,1.5,88,17,20000,18.52,,,360,,,,2,,,,,,60,wg-a,,,,AAXX 27214 07650 12570 73610 10190 20170 30120 40164 50015 60027 76062 8357/ 92100=
07650,1996-08-28 00:00:00,18,1016.1,-0.3,88,16,20000,22.224,,,330,,,,,,,,,,1,wg-a,,,,AAXX 28004 07650 02570 63312 10180 20160 30117 40161 58003 60026 70162 83532 90000 333 61000=
07650,1996-08-28 03:00:00,17,1014.9,-1.2,88,15,20000,18.52,,,340,,,,,,,,,,,wg-a,,,,AAXX 28034 07650 12470 23410 10170 20150 30105 40149 58012 60006 82500 90300=
07650,1996-08-28 06:00:00,16,1015.4,0.5,82,13,500,38.892,,,320,15.6,21.7,,,,,2,,,,wg-a,,,,AAXX 28064 07650 12400 /3221 10160 20130 30110 40154 53005 60024 81500 90600 333 10217 20156=
07650,1996-08-28 09:00:00,20,1015.3,,60,12,500,35.188,,,330,,,,,,,,,,,wg-a,,,,AAXX 28094 07650 12400 /3319 10200 20120 30110 40153 60006 81100 90900=
07650,1996-08-28 12:00:00,23,1014.7,-0.6,44,10,50000,50.004,,,340,,,,,,,,,,,wg-a,,,,AAXX 28124 07650 12484 /3427 10230 20100 30104 40147 58006 60006 81100 91200=
07650,1996-08-28 15:00:00,24,1014.1,-0.6,36,8,50000,38.892,,,340,,,,,,,,,,,wg-a,,,,AAXX 28154 07650 12584 /3421 10240 20080 30098 40141 58006 60006 81100 91500=
07650,1996-08-28 18:00:00,22,1014.4,0.3,41,8,50000,31.484,,,340,16,24,,,,,,,,,wg-a,,,,AAXX 28184 07650 12584 /3417 10220 20080 30101 40144 51003 60006 81100 91800 333 10240 20160=
07650,1996-08-28 21:00:00,19,1015.9,1.4,56,10,40000,29.632,,,340,,,,,,,,,,,wg-a,,,,AAXX 28214 07650 12/82 03416 10190 20100 30115 40159 51014 60006 80000 92100=
07650,1996-08-29 00:00:00,17,1016.4,0.5,59,9,10000,18.52,,,340,,,,,,,,,,,wg-a,,,,AAXX 29004 07650 12/60 /3410 10170 20090 30120 40164 51005 60006 90000=
07650,1996-08-29 03:00:00,16,1015.5,-0.9,63,9,500,29.632,,,340,,,,,,,,,,,wg-a,,,,AAXX 29034 07650 12/00 03416 10160 20090 30111 40155 56009 60006 80000 90300=
07650,1996-08-29 06:00:00,15,1015.8,0.3,72,10,50000,22.224,,,320,14.4,21.6,,,,,,,,,wg-a,,,,AAXX 29064 07650 12/84 13212 10150 20100 30114 40158 53003 60006 81040 90600 333 10216 20144=
07650,1996-08-29 09:00:00,20,1016,0.3,53,10,75000,29.632,,,330,,,,,,,,,,,wg-a,,,,AAXX 29094 07650 12/89 13316 10200 20100 30117 40160 53003 60006 81040 90900=
07650,1996-08-29 12:00:00,24,1014.9,-1.1,41,10,75000,31.484,,,320,,,,,,,,,,,wg-a,,,,AAXX 29124 07650 12/89 13217 10240 20100 30106 40149 57011 60006 81040 91200=
07650,1996-08-29 15:00:00,25,1014.1,-0.8,36,9,10000,29.632,,,330,,,,,,,,,,,wg-a,,,,AAXX 29154 07650 12/60 /3316 10250 20090 30098 40141 57008 60006 91500=
07650,1996-08-29 18:00:00,23,1014.5,0.4,44,10,50000,22.224,,,330,15.2,25,,,,,,,,,wg-a,,,,AAXX 29184 07650 12/84 03312 10230 20100 30102 40145 53004 60006 80000 91800 333 10250 20152=
07650,1996-08-29 21:00:00,19,1016,1.4,52,9,50000,18.52,,,320,,,,,,,,,,,wg-a,,,,AAXX 29214 07650 12/84 03210 10190 20090 30116 40160 51014 60006 80000 92100=
07650,1996-08-30 00:00:00,16,1016.4,0.4,63,9,50000,14.816,,,10,,,,,,,,,,,wg-a,,,,AAXX 30004 07650 12/84 00108 10160 20090 30120 40164 51004 60006 80000 90000=
07650,1996-08-30 03:00:00,16,1015.9,-0.5,68,10,500,18.52,,,320,,,,,,,,,,,wg-a,,,,AAXX 30034 07650 12/00 03210 10160 20100 30115 40159 58005 60006 80000 90300=
07650,1996-08-30 06:00:00,16,1016.7,0.8,68,10,500,22.224,,,340,15.5,22.7,,,,,,,,,wg-a,,,,AAXX 30064 07650 12/00 13412 10160 20100 30123 40167 51008 60006 81040 90600 333 10227 20155=
07650,1996-08-30 09:00:00,20,1017.1,0.5,53,10,500,29.632,,,350,,,,,,,,,,,wg-a,,,,AAXX 30094 07650 12/00 23516 10200 20100 30128 40171 50005 60006 80002 90900=
07650,1996-08-30 12:00:00,23,1016.5,-0.6,47,11,500,31.484,,,340,,,,,,,,,,,wg-a,,,,AAXX 30124 07650 12/00 53417 10230 20110 30122 40165 57006 60006 80002 91200=
07650,1996-08-30 15:00:00,23,1015.6,-0.9,47,11,500,31.484,,,340,,,,,,,,,,,wg-a,,,,AAXX 30154 07650 12500 /3417 10230 20110 30113 40156 56009 60006 81102 91500=
07650,1996-08-30 18:00:00,22,1015.4,-0.2,46,10,500,25.928,,50.004,340,15.7,23.9,,,,,,,,,wg-a,,,,AAXX 30184 07650 12/00 43414 10220 20100 30111 40154 58002 60006 81032 91800 333 10239 20157 91027=
07650,1996-08-30 21:00:00,19,1016.4,0.9,52,9,500,29.632,,,340,,,,,,,,,,,wg-a,,,,AAXX 30214 07650 12/00 53416 10190 20090 30120 40164 51009 60006 81032 92100=
07650,1996-08-31 00:00:00,17,1016.7,0.3,59,9,500,25.928,,,340,,,,,,,,,,,wg-a,,,,AAXX 31004 07650 12/00 13414 10170 20090 30123 40167 50003 60006 81032 90000=
07650,1996-08-31 03:00:00,15,1017.1,0.4,67,9,500,14.816,,,360,,,,,,,,,,,wg-a,,,,AAXX 31034 07650 12/00 03608 10150 20090 30127 40171 50004 60006 80000 90300=
07650,1996-08-31 06:00:00,14,1017.4,0.3,77,10,500,3.704,,,140,13.3,21.9,,,,,,,,,wg-a,,,,AAXX 31064 07650 12/00 31402 10140 20100 30130 40174 53003 60006 81042 90600 333 10219 20133=
07650,1996-08-31 09:00:00,20,1017.8,0.5,56,11,500,11.112,,,10,,,,,,,,,,,wg-a,,,,AAXX 31094 07650 12/00 30106 10200 20110 30135 40178 53005 60006 80002 90900=
07650,1996-08-31 12:00:00,25,1016.9,-0.9,41,11,500,22.224,,,340,,,,,,,,,,,wg-a,,,,AAXX 31124 07650 12600 23412 10250 20110 30126 40169 57009 60006 81202 91200=
07650,1996-08-31 15:00:00,26,1016.2,-0.7,39,11,500,25.928,,,340,,,,,,,,,,,wg-a,,,,AAXX 31154 07650 12600 /3414 10260 20110 30119 40162 58007 60006 81200 91500=
07650,1996-08-31 18:00:00,23,1015.8,-0.4,47,11,25000,42.596,,,350,13.8,25.9,,,,,,,,,wg-a,,,,AAXX 31184 07650 12/75 13523 10230 20110 30115 40158 56004 60006 80002 91800 333 10259 20138=
07650,1996-08-31 21:00:00,20,1017.8,1.9,53,10,25000,22.224,,,340,,,,,,,,,,,wg-a,,,,AAXX 31214 07650 12/75 33412 10200 20100 30134 40178 51019 60006 80002 92100=
07650,1996-09-01 00:00:00,17,1017.8,0,63,10,25000,22.224,,,330,,,,,,,,,,,wg-a,,,,AAXX 01004 07650 12/75 03312 10170 20100 30134 40178 50000 60006 80000 90000=
07650,1996-09-01 03:00:00,15,1017.6,-0.2,67,9,25000,14.816,,,360,,,,,,,,,,,wg-a,,,,AAXX 01034 07650 12/75 03608 10150 20090 30132 40176 56002 60006 80000 90300=
07650,1996-09-01 06:00:00,14,1017.8,0.2,77,10,25000,11.112,,,360,13.4,22.7,,,,,,,,,wg-a,,,,AAXX 01064 07650 12/75 23606 10140 20100 30134 40178 53002 60006 80002 90600 333 10227 20134=
07650,1996-09-01 09:00:00,20,1017.5,-0.3,56,11,20000,11.112,,,360,,,,,,,,,,,wg-a,,,,AAXX 01094 07650 12/70 53606 10200 20110 30131 40175 55003 60006 80002 90900=
07650,1996-09-01 12:00:00,24,1016.5,-0.9,47,12,11000,22.224,,,350,,,,,,,,,,,wg-a,,,,AAXX 01124 07650 12/61 /3512 10240 20120 30122 40165 57009 60006 91200=
07650,1996-09-01 15:00:00,25,1015,-1.5,44,12,20000,31.484,,,340,,,,,,,,,,,wg-a,,,,AAXX 01154 07650 12670 /3417 10250 20120 30107 40150 58015 60006 81201 91500=
07650,1996-09-01 18:00:00,22,1014.9,-0.1,46,10,25000,25.928,,,340,14.1,25.3,,,,,,,,,wg-a,,,,AAXX 01184 07650 12675 /3414 10220 20100 30106 40149 55001 60006 81200 91800 333 10253 20141=
07650,1996-09-01 21:00:00,19,1015.7,0.7,52,9,20000,18.52,,,360,,,,,,,,,,,wg-a,,,,AAXX 01214 07650 12670 23610 10190 20090 30113 40157 50007 60006 81101 92100=
07650,1996-09-02 00:00:00,16,1015.8,0.1,63,9,20000,14.816,,,360,,,,,,,,,,,wg-a,,,,AAXX 02004 07650 12/70 23608 10160 20090 30114 40158 53001 60006 82030 90000=
07650,1996-09-02 03:00:00,16,1014.7,-1.1,63,9,20000,14.816,,,360,,,,,,,,,,,wg-a,,,,AAXX 02034 07650 12/70 43608 10160 20090 30103 40147 58011 60006 81032 90300=
07650,1996-09-02 06:00:00,15,1014.7,-0,67,9,15000,11.112,,,360,15.1,21.8,,,,,,,,,wg-a,,,,AAXX 02064 07650 12565 73606 10150 20090 30103 40147 55000 60006 8587/ 90600 333 10218 20151=
07650,1996-09-02 09:00:00,17,1014.7,-0,68,11,12000,14.816,,,320,,,,,,,,,,,wg-a,,,,AAXX 02094 07650 02562 73208 10170 20110 30103 40147 55000 61000 8587/ 90900 333 ////=
07650,1996-09-02 10:00:00,19,1013.9,0.1,64,12,15000,3.704,,,170,,,,,,,,,,,wg-a,,,,AAXX 02104 07650 32665 51702 10190 20120 30096 40139 51001 85200 91000=
07650,1996-09-02 12:00:00,22,1013.1,-1.5,50,11,15000,11.112,,,330,,,,,,,,,,,wg-a,,,,AAXX 02124 07650 02665 43306 10220 20110 30088 40131 56015 61000 83130 91200 333 ////=
07650,1996-09-02 15:00:00,21,1013.8,0.7,56,12,12000,11.112,,,180,,,,0,,,,,,16,wg-a,,,,AAXX 02154 07650 12562 /1806 10210 20120 30095 40138 53007 60007 71622 86200 91500=
07650,1996-09-02 18:00:00,19,1013.9,0.1,64,12,15000,3.704,,,170,15.2,23,,,,,,,,,wg-a,,,,AAXX 02184 07650 32665 /1702 10190 20120 30096 40139 51001 85200 91800 333 10230 20152=
07650,1996-09-02 21:00:00,17,1014.5,0.5,77,13,12000,0,,,0,,,,,,,,,,,wg-a,,,,AAXX 02214 07650 12/62 /0000 10170 20130 30101 40145 50005 60006 92100=
07650,1996-09-03 00:00:00,17,1014.5,0,72,12,12000,7.408,,,110,,,,,,,,,,,wg-a,,,,AAXX 03004 07650 12662 /1104 10170 20120 30101 40145 50000 60006 82130 90000=
07650,1996-09-03 03:00:00,16,1013,-1.5,77,12,12000,11.112,,,90,,,,,,,,,,,wg-a,,,,AAXX 03034 07650 12662 70906 10160 20120 30086 40130 58015 60006 8327/ 90300=
07650,1996-09-03 06:00:00,15,1013.1,0.1,72,10,25000,7.408,,,110,14.7,19.4,,,,,,,,,wg-a,,,,AAXX 03064 07650 02575 51104 10150 20100 30087 40131 53001 60006 82832 90600 333 10194 20147 61000=
07650,1996-09-03 09:00:00,18,1013.4,0.3,64,11,20000,11.112,,,30,,,,,,,,,,,wg-a,,,,AAXX 03094 07650 12570 60306 10180 20110 30090 40134 53003 60006 85802 90900=
07650,1996-09-03 12:00:00,20,1012.6,-0.7,60,12,40000,18.52,,,90,,,,,,,,,,,wg-a,,,,AAXX 03124 07650 12582 70910 10200 20120 30083 40126 55007 60006 83272 91200=
07650,1996-09-03 15:00:00,16,1012.9,0.2,88,14,20000,14.816,,,70,,,,1,,,,,,60,wg-a,,,,AAXX 03154 07650 12570 /0708 10160 20140 30085 40129 51002 60017 76066 8397/ 91500=
07650,1996-09-03 18:00:00,15,1012.8,-0.1,82,12,15000,11.112,,,20,14.7,21,,0,,,,,,21,wg-a,,,,AAXX 03184 07650 12565 70206 10150 20120 30084 40128 58001 60007 72166 8397/ 91800 333 10210 20147=
07650,1996-09-03 21:00:00,15,1013.4,0.6,88,13,15000,14.816,,,340,,,,4,,,,,,60,wg-a,,,,AAXX 03214 07650 12565 83408 10150 20130 30090 40134 51006 60047 76062 878// 92100=
07650,1996-09-04 00:00:00,14,1012.5,-0.9,94,13,18000,7.408,,,150,,,,1,,,,,,21,wg-a,,,,AAXX 04004 07650 02668 /1504 10140 20130 30081 40125 55009 60056 72162 83531 90000 333 60017=
07650,1996-09-04 03:00:00,13,1012.5,0,94,12,20000,7.408,,,330,,,,,,,,,,,wg-a,,,,AAXX 04034 07650 12670 33304 10130 20120 30081 40125 50000 60006 82530 90300=
07650,1996-09-04 06:00:00,13,1013.3,0.8,94,12,6000,3.704,,,70,13.1,15.1,,,,,6,,,,wg-a,,,,AAXX 04064 07650 12356 50702 10130 20120 30089 40133 53008 60064 83730 90600 333 10151 20131=
07650,1996-09-04 09:00:00,18,1013.4,0.1,77,14,8000,11.112,,,30,,,,,,,,,,,wg-a,,,,AAXX 04094 07650 12458 50306 10180 20140 30090 40134 50001 60006 83102 90900=
07650,1996-09-04 12:00:00,21,1013.7,0.4,64,14,15000,11.112,,,260,,,,,,,,,,,wg-a,,,,AAXX 04124 07650 12565 22606 10210 20140 30094 40137 51004 60006 82100 91200=
07650,1996-09-04 15:00:00,23,1013,-0.7,57,14,20000,18.52,,,240,,,,,,,,,,,wg-a,,,,AAXX 04154 07650 12/70 02410 10230 20140 30087 40130 58007 60006 80000 91500=
07650,1996-09-04 18:00:00,20,1013.3,0.3,64,13,20000,18.52,,,240,13.3,23.5,,,,,,,,,wg-a,,,,AAXX 04184 07650 12670 /2410 10200 20130 30090 40133 53003 60006 81900 91800 333 10235 20133=
07650,1996-09-04 21:00:00,17,1014.6,1.2,77,13,15000,3.704,,,150,,,,,,,,,,,wg-a,,,,AAXX 04214 07650 12/65 01502 10170 20130 30102 40146 53012 60006 80000 92100=
07650,1996-09-05 00:00:00,15,1014.1,-0.5,88,13,15000,11.112,,,140,,,,,,,,,,,wg-a,,,,AAXX 05004 07650 12/65 01406 10150 20130 30097 40141 58005 60006 80000 90000=
07650,1996-09-05 03:00:00,15,1013.3,-0.8,82,12,15000,7.408,,,160,,,,,,,,,,,wg-a,,,,AAXX 05034 07650 12/65 01604 10150 20120 30089 40133 56008 60006 80000 90300=
07650,1996-09-05 06:00:00,14,1013.4,0.1,88,12,12000,7.408,,,140,13.5,20.4,,,,,,,,,wg-a,,,,AAXX 05064 07650 12/62 11404 10140 20120 30090 40134 53001 60006 80001 90600 333 10204 20135=
07650,1996-09-05 09:00:00,20,1013.5,0.2,68,14,10000,3.704,,,280,,,,,,,,,,,wg-a,,,,AAXX 05094 07650 12/60 02802 10200 20140 30092 40135 51002 60006 80000 90900=
07650,1996-09-05 12:00:00,25,1011.9,-1.5,54,15,15000,22.224,,,300,,,,,,,,,,,wg-a,,,,AAXX 05124 07650 12/65 03012 10250 20150 30077 40119 58015 60006 80000 91200=
07650,1996-09-05 15:00:00,25,1010.4,-1.5,50,14,12000,29.632,,,240,,,,,,,,,,,wg-a,,,,AAXX 05154 07650 12562 12416 10250 20140 30062 40104 58015 60006 81100 91500=
07650,1996-09-05 18:00:00,22,1010.2,-0.3,69,16,12000,14.816,,,280,14.3,26.6,,,,,,,,,wg-a,,,,AAXX 05184 07650 12/62 02808 10220 20160 30059 40102 56003 60006 80000 91800 333 10266 20143=
07650,1996-09-05 21:00:00,21,1010.9,0.7,73,16,20000,25.928,,,270,,,,,,,,,,,wg-a,,,,AAXX 05214 07650 12/70 02714 10210 20160 30066 40109 50007 60006 80000 92100=
07650,1996-09-06 00:00:00,19,1010.6,-0.3,73,14,20000,25.928,,,320,,,,,,,,,,,wg-a,,,,AAXX 06004 07650 12/70 03214 10190 20140 30063 40106 55003 60006 80000 90000=
07650,1996-09-06 03:00:00,19,1010.4,-0.2,68,13,20000,25.928,,,320,,,,,,,,,,,wg-a,,,,AAXX 06034 07650 12/70 03214 10190 20130 30061 40104 56002 60006 80000 90300=
07650,1996-09-06 06:00:00,19,1011,0.6,64,12,20000,22.224,,,320,18.2,21.9,,,,,,,,,wg-a,,,,AAXX 06064 07650 12/70 03212 10190 20120 30067 40110 53006 60006 80000 90600 333 10219 20182=
07650,1996-09-06 09:00:00,22,1011.5,0.5,53,12,18000,29.632,,,350,,,,,,,,,,,wg-a,,,,AAXX 06094 07650 12/68 03516 10220 20120 30072 40115 52005 60006 80000 90900=
07650,1996-09-06 12:00:00,25,1010.8,-0.6,41,11,20000,35.188,,,360,,,,,,,,,,,wg-a,,,,AAXX 06124 07650 12/70 03619 10250 20110 30066 40108 58006 60006 80000 91200=
07650,1996-09-06 15:00:00,26,1010.2,-0.6,34,9,500,38.892,,,360,,,,,,,,,,,wg-a,,,,AAXX 06154 07650 12/00 03621 10260 20090 30060 40102 58006 60006 80000 91500=
07650,1996-09-06 18:00:00,24,1010.5,,31,6,500,35.188,,,340,18.5,26.3,,,,,,,,,wg-a,,,,AAXX 06184 07650 12/00 03419 10240 20060 30062 40105 60006 80000 91800 333 10263 20185=
07650,1996-09-06 21:00:00,21,1011.1,0.6,40,7,500,25.928,,,340,,,,,,,,,,,wg-a,,,,AAXX 06214 07650 12/00 03414 10210 20070 30068 40111 51006 60006 80000 92100=
07650,1996-09-07 00:00:00,20,1011.4,0.3,40,6,500,25.928,,,330,,,,,,,,,,,wg-a,,,,AAXX 07004 07650 12/00 03314 10200 20060 30071 40114 51003 60006 80000 90000=
07650,1996-09-07 03:00:00,18,1010.6,-0.9,45,6,500,25.928,,,340,,,,,,,,,,,wg-a,,,,AAXX 07034 07650 12/00 03414 10180 20060 30062 40106 57009 60006 80000 90300=
07650,1996-09-07 06:00:00,17,1010.9,0.3,45,5,500,18.52,,,340,16.7,24,,,,,,,,,wg-a,,,,AAXX 07064 07650 12/00 03410 10170 20050 30065 40109 53003 60006 80000 90600 333 10240 20167=
07650,1996-09-07 09:00:00,21,1011.9,1.1,40,7,75000,29.632,,,340,,,,,,,,,,,wg-a,,,,AAXX 07094 07650 12/89 03416 10210 20070 30076 40119 53011 60006 80000 90900=
07650,1996-09-07 12:00:00,24,1011.9,-0,34,7,75000,31.484,,,350,,,,,,,,,,,wg-a,,,,AAXX 07124 07650 12/89 03517 10240 20070 30076 40119 55000 60006 80000 91200=
07650,1996-09-07 15:00:00,24,1012.5,0.6,34,7,60000,31.484,,,340,,,,,,,,,,,wg-a,,,,AAXX 07154 07650 12586 /3417 10240 20070 30082 40125 53006 60006 81200 91500=
07650,1996-09-07 18:00:00,21,1013.8,1.3,40,7,60000,22.224,,,330,17.1,25,,,,,,,,,wg-a,,,,AAXX 07184 07650 12/86 /3312 10210 20070 30095 40138 53013 60006 80000 91800 333 10250 20171=
07650,1996-09-07 21:00:00,17,1014.8,0.9,55,8,25000,7.408,,,140,,,,,,,,,,,wg-a,,,,AAXX 07214 07650 12/75 01404 10170 20080 30104 40148 50009 60006 80000 92100=
07650,1996-09-08 00:00:00,17,1014.7,-0.1,52,7,25000,7.408,,,100,,,,,,,,,,,wg-a,,,,AAXX 08004 07650 12/75 01004 10170 20070 30103 40147 58001 60006 80000 90000=
07650,1996-09-08 03:00:00,16,1014,-0.7,55,7,25000,3.704,,,100,,,,,,,,,,,wg-a,,,,AAXX 08034 07650 12/75 01002 10160 20070 30096 40140 58007 60006 80000 90300=
07650,1996-09-08 06:00:00,14,1013.7,-0.3,67,8,40000,7.408,,,160,14.2,21.4,,,,,,,,,wg-a,,,,AAXX 08064 07650 12/82 61604 10140 20080 30093 40137 55003 60006 80002 90600 333 10214 20142=
07650,1996-09-08 09:00:00,19,1014.2,0.5,52,9,25000,11.112,,,310,,,,,,,,,,,wg-a,,,,AAXX 08094 07650 12/75 43106 10190 20090 30098 40142 51005 60006 80002 90900=
07650,1996-09-08 12:00:00,22,1013.1,-1,43,9,25000,18.52,,,290,,,,,,,,,,,wg-a,,,,AAXX 08124 07650 12575 32910 10220 20090 30088 40131 58010 60006 81202 91200=
07650,1996-09-08 15:00:00,24,1011.5,-1.6,27,4,25000,11.112,,,300,,,,,,,,,,,wg-a,,,,AAXX 08154 07650 12575 23006 10240 20040 30072 40115 57016 60006 81102 91500=
07650,1996-09-08 18:00:00,21,1011.2,-0.3,43,8,25000,18.52,,,340,14.4,24.6,,,,,,,,,wg-a,,,,AAXX 08184 07650 12/75 23410 10210 20080 30069 40112 55003 60006 80002 91800 333 10246 20144=
07650,1996-09-08 21:00:00,17,1011.9,0.6,55,8,20000,7.408,,,120,,,,,,,,,,,wg-a,,,,AAXX 08214 07650 12/70 01204 10170 20080 30075 40119 50006 60006 80000 92100=
07650,1996-09-09 00:00:00,14,1011.9,-0,67,8,20000,11.112,,,140,,,,,,,,,,,wg-a,,,,AAXX 09004 07650 12/70 01406 10140 20080 30075 40119 54000 60006 80000 90000=
07650,1996-09-09 03:00:00,12,1011.6,-0.3,76,8,20000,7.408,,,140,,,,,,,,,,,wg-a,,,,AAXX 09034 07650 12/70 01404 10120 20080 30072 40116 55003 60006 80000 90300=
07650,1996-09-09 06:00:00,14,1012,0.4,67,8,15000,3.704,,,160,12,21.4,,,,,,,,,wg-a,,,,AAXX 09064 07650 12565 21602 10140 20080 30076 40120 53004 60006 81231 90600 333 10214 20120=
07650,1996-09-09 09:00:00,21,1012.8,0.9,56,12,15000,7.408,,,280,,,,,,,,,,,wg-a,,,,AAXX 09094 07650 12565 22804 10210 20120 30085 40128 53009 60006 82202 90900=
07650,1996-09-09 12:00:00,20,1013.9,1.1,73,15,9000,0,,,0,,,,,,,,,,81,wg-a,,,,AAXX 09124 07650 32559 60000 10200 20150 30096 40139 53011 78191 85902 91200=
07650,1996-09-09 15:00:00,22,1013.1,,60,14,25000,3.704,,,190,,,,19,,,,,,1,wg-a,,,,AAXX 09154 07650 12575 /1902 10220 20140 30088 40131 60197 70192 83202 91500=
07650,1996-09-09 18:00:00,19,1014.2,1.1,64,12,25000,11.112,,,340,14.3,23,,,,,,,,1,wg-a,,,,AAXX 09184 07650 32575 63406 10190 20120 30099 40142 53011 70198 84802 91800 333 10230 20143=
07650,1996-09-09 21:00:00,16,1015.8,1.5,72,11,25000,0,,,0,,,,,,,,,,,wg-a,,,,AAXX 09214 07650 12675 40000 10160 20110 30114 40158 51015 60006 83502 92100=
07650,1996-09-10 00:00:00,15,1015.5,-0.3,77,11,25000,7.408,,,180,,,,,,,,,,,wg-a,,,,AAXX 10004 07650 12/75 01804 10150 20110 30111 40155 58003 60006 80000 90000=
07650,1996-09-10 03:00:00,13,1015,-0.5,82,10,25000,11.112,,,160,,,,,,,,,,,wg-a,,,,AAXX 10034 07650 12/75 01606 10130 20100 30106 40150 56005 60006 80000 90300=
07650,1996-09-10 06:00:00,13,1015.5,0.5,82,10,25000,7.408,,,180,11.9,19.3,,,,,30,,,,wg-a,,,,AAXX 10064 07650 02/75 01804 10130 20100 30111 40155 53005 60006 80000 90600 333 10193 20119 60304=
07650,1996-09-10 09:00:00,18,1015.7,0.2,68,12,20000,7.408,,,280,,,,,,,,,,,wg-a,,,,AAXX 10094 07650 12/70 02804 10180 20120 30113 40157 50002 60006 80000 90900=
07650,1996-09-10 12:00:00,22,1016,0.4,50,11,25000,7.408,,,300,,,,,,,,,,,wg-a,,,,AAXX 10124 07650 02575 /3004 10220 20110 30117 40160 50004 61000 81100 91200 333 6100=
07650,1996-09-10 15:00:00,24,1014.3,-1.7,44,11,500,11.112,,,270,,,,,,,,,,,wg-a,,,,AAXX 10154 07650 12500 /2706 10240 20110 30100 40143 56017 60006 81100 91500=
07650,1996-09-10 18:00:00,21,1014.1,-0.2,53,11,20000,7.408,,,170,13.2,24.5,,,,,,,,,wg-a,,,,AAXX 10184 07650 32/70 21704 10210 20110 30098 40141 55002 80001 91800 333 10245 20132=
07650,1996-09-10 21:00:00,17,1015.2,1,72,12,20000,11.112,,,140,,,,,,,,,,,wg-a,,,,AAXX 10214 07650 12/70 11406 10170 20120 30108 40152 51010 60006 80001 92100=
07650,1996-09-11 00:00:00,16,1015.1,-0.1,77,12,20000,7.408,,,100,,,,,,,,,,,wg-a,,,,AAXX 11004 07650 12/70 31004 10160 20120 30107 40151 55001 60006 80001 90000=
07650,1996-09-11 03:00:00,14,1014.4,-0.7,82,11,18000,11.112,,,110,,,,,,,,,,,wg-a,,,,AAXX 11034 07650 12/68 11106 10140 20110 30100 40144 58007 60006 80001 90300=
07650,1996-09-11 06:00:00,14,1014.2,-0.2,77,10,18000,3.704,,,170,13.5,20.9,,,,,,,,,wg-a,,,,AAXX 11064 07650 02/68 11702 10140 20100 30098 40142 55002 60006 81031 90600 333 10209 20135 61000=
07650,1996-09-11 09:00:00,19,1013.4,-0.7,68,13,12000,7.408,,,280,,,,,,,,,,,wg-a,,,,AAXX 11094 07650 12/62 12804 10190 20130 30091 40134 58007 60006 80001 90900=
07650,1996-09-11 12:00:00,23,1012.1,-1.3,53,13,20000,11.112,,,280,,,,,,,,,,,wg-a,,,,AAXX 11124 07650 12/70 /2806 10230 20130 30078 40121 58013 60006 91200=
07650,1996-09-11 15:00:00,22,1010.8,-1.3,65,15,20000,18.52,,,230,,,,,,,,,,,wg-a,,,,AAXX 11154 07650 12670 /2310 10220 20150 30065 40108 56013 60006 81101 91500=
07650,1996-09-11 18:00:00,20,1009.8,-1,73,15,25000,3.704,,,210,14.1,24.4,,,,,,,,,wg-a,,,,AAXX 11184 07650 12/75 72102 10200 20150 30055 40098 58010 60006 81032 91800 333 10244 20141=
07650,1996-09-11 21:00:00,19,1010.4,0.6,78,15,20000,3.704,,,340,,,,,,,,,,,wg-a,,,,AAXX 11214 07650 12/70 73402 10190 20150 30061 40104 50006 60006 83032 92100=
07650,1996-09-12 00:00:00,17,1008.7,-1.7,82,14,20000,7.408,,,200,,,,,,,,,,,wg-a,,,,AAXX 12004 07650 12/70 72004 10170 20140 30044 40087 58017 60006 83032 90000=
07650,1996-09-12 03:00:00,17,1006.5,-2.2,77,13,25000,3.704,,,210,,,,,,,,,,1,wg-a,,,,AAXX 12034 07650 02/75 /2102 10170 20130 30022 40065 56022 61000 70162 83032 90300 333 ////=
07650,1996-09-12 06:00:00,17,1005.5,-1,77,13,25000,3.704,,,240,16.3,20.4,,,,,,,,3,wg-a,,,,AAXX 12064 07650 02775 62402 10170 20130 30012 40055 56010 61000 70361 83541 90600 333 10204 20163 ////=
07650,1996-09-12 12:00:00,22,1003.4,-1.5,53,12,15000,14.816,,,270,,,,,,,,,,,wg-a,,,,AAXX 12124 07650 12765 72708 10220 20120 39991 40034 57015 60006 83532 91200=
07650,1996-09-12 15:00:00,24,1001.5,-1.8,41,10,25000,11.112,,,260,,,,,,,,,,,wg-a,,,,AAXX 12154 07650 12575 42606 10240 20100 39973 40015 58018 60006 81802 91500=
07650,1996-09-12 18:00:00,21,1000.8,-0.8,35,5,500,42.596,,,340,16.6,24.3,,,,,,,,,wg-a,,,,AAXX 12184 07650 12/00 33423 10210 20050 39965 40008 56008 60006 80002 91800 333 10243 20166=
07650,1996-09-12 21:00:00,19,1002.3,1.5,43,6,25000,53.708,,68.524,340,,,,,,,,,,,wg-a,,,,AAXX 12214 07650 12/75 13429 10190 20060 39980 40023 51015 60006 80001 92100 333 91037=
07650,1996-09-13 00:00:00,18,1003.7,1.4,52,8,500,50.004,,75.932,330,,,,,,,,,,,wg-a,,,,AAXX 13004 07650 12/00 03327 10180 20080 39994 40037 51014 60006 80000 90000 333 91041=
07650,1996-09-13 03:00:00,17,1005.7,1.9,55,8,500,42.596,,,330,,,,,,,,,,,wg-a,,,,AAXX 13034 07650 12/00 03323 10170 20080 30013 40057 51019 60006 80000 90300=
07650,1996-09-13 06:00:00,16,1007.3,1.6,55,7,500,46.3,,,340,15.4,20.5,,,,,,,,,wg-a,,,,AAXX 13064 07650 12600 33425 10160 20070 30029 40073 53016 60006 81540 90600 333 10205 20154=
07650,1996-09-13 09:00:00,18,1008.1,0.9,45,6,500,53.708,,72.228,340,,,,,,,,,,,wg-a,,,,AAXX 13094 07650 12/00 03429 10180 20060 30038 40081 51009 60006 80000 90900 333 91039=
07650,1996-09-13 12:00:00,19,1008.9,0.8,34,3,500,57.412,,75.932,350,,,,,,,,,,,wg-a,,,,AAXX 13124 07650 12600 /3531 10190 20030 30046 40089 51008 60006 81100 91200 333 91041=
07650,1996-09-13 15:00:00,20,1009,-0.1,32,3,500,57.412,,,350,,,,,,,,,,,wg-a,,,,AAXX 13154 07650 12600 /3531 10200 20030 30047 40090 55001 60006 81100 91500=
07650,1996-09-13 18:00:00,17,1010.4,1.3,39,3,500,46.3,,79.636,330,15.6,19.8,,,,,,,,,wg-a,,,,AAXX 13184 07650 12/00 03325 10170 20030 30060 40104 51013 60006 80000 91800 333 10198 20156 91043=
07650,1996-09-13 21:00:00,16,1011.9,1.5,45,4,500,46.3,,,340,,,,,,,,,,,wg-a,,,,AAXX 13214 07650 12/00 03425 10160 20040 30075 40119 50015 60006 80000 92100=
07650,1996-09-14 00:00:00,14,1013.3,1.4,51,4,500,25.928,,,350,,,,,,,,,,,wg-a,,,,AAXX 14004 07650 12/00 03514 10140 20040 30089 40133 51014 60006 80000 90000=
07650,1996-09-14 03:00:00,13,1013.4,0.1,54,4,500,31.484,,,360,,,,,,,,,,,wg-a,,,,AAXX 14034 07650 12/00 03617 10130 20040 30089 40134 53001 60006 80000 90300=
07650,1996-09-14 06:00:00,12,1013.8,0.4,62,5,500,31.484,,,360,11.7,17.4,,,,,,,,,wg-a,,,,AAXX 14064 07650 12/00 03617 10120 20050 30093 40138 53004 60006 80000 90600 333 10174 20117=
07650,1996-09-14 09:00:00,17,1015,1.3,48,6,75000,18.52,,,350,,,,,,,,,,,wg-a,,,,AAXX 14094 07650 12/89 03510 10170 20060 30106 40150 51013 60006 80000 90900=
07650,1996-09-14 12:00:00,22,1014.4,-0.5,35,6,75000,18.52,,,330,,,,,,,,,,,wg-a,,,,AAXX 14124 07650 12/89 03310 10220 20060 30101 40144 58005 60006 80000 91200=
07650,1996-09-14 15:00:00,23,1013.9,-0.5,38,8,75000,25.928,,,310,,,,,,,,,,,wg-a,,,,AAXX 14154 07650 12/89 03114 10230 20080 30096 40139 56005 60006 80000 91500=
07650,1996-09-14 18:00:00,19,1014.6,0.6,46,7,75000,25.928,,,320,11.8,23.1,,,,,,,,,wg-a,,,,AAXX 14184 07650 12/89 03214 10190 20070 30102 40146 53006 60006 80000 91800 333 10231 20118=
07650,1996-09-14 21:00:00,17,1015.3,0.7,52,7,75000,18.52,,,350,,,,,,,,,,,wg-a,,,,AAXX 14214 07650 12/89 03510 10170 20070 30109 40153 50007 60006 80000 92100=
07650,1996-09-15 00:00:00,14,1016.2,0.9,63,7,40000,18.52,,,340,,,,,,,,,,,wg-a,,,,AAXX 15004 07650 12/82 03410 10140 20070 30118 40162 51009 60006 80000 90000=
07650,1996-09-15 03:00:00,10,1016.3,0.1,82,7,40000,0,,,0,,,,,,,,,,,wg-a,,,,AAXX 15034 07650 12/82 00000 10100 20070 30118 40163 51001 60006 80000 90300=
07650,1996-09-15 06:00:00,10,1016.7,0.4,82,7,40000,7.408,,,160,9.2,19,,,,,,,,,wg-a,,,,AAXX 15064 07650 12/82 11604 10100 20070 30122 40167 53004 60006 80001 90600 333 10190 20092=
07650,1996-09-15 09:00:00,17,1017.4,0.8,63,10,50000,7.408,,,280,,,,,,,,,,,wg-a,,,,AAXX 15094 07650 12/84 02804 10170 20100 30130 40174 52008 60006 80000 90900=
07650,1996-09-15 12:00:00,22,1017,-0.3,46,10,50000,18.52,,,270,,,,,,,,,,,wg-a,,,,AAXX 15124 07650 12584 /2710 10220 20100 30127 40170 57003 60006 81100 91200=
07650,1996-09-15 15:00:00,24,1016.4,-0.6,38,9,50000,11.112,,,250,,,,,,,,,,,wg-a,,,,AAXX 15154 07650 12684 /2506 10240 20090 30121 40164 56006 60006 81100 91500=
07650,1996-09-15 18:00:00,20,1017.2,0.7,64,13,25000,11.112,,,170,9.8,24.2,,,,,,,,,wg-a,,,,AAXX 15184 07650 12/75 01706 10200 20130 30128 40172 53007 60006 80000 91800 333 10242 20098=
07650,1996-09-15 21:00:00,16,1017.7,0.5,77,12,25000,11.112,,,140,,,,,,,,,,,wg-a,,,,AAXX 15214 07650 12/75 01406 10160 20120 30133 40177 50005 60006 80000 92100=
07650,1996-09-16 00:00:00,14,1017.3,-0.4,82,11,25000,11.112,,,140,,,,,,,,,,,wg-a,,,,AAXX 16004 07650 12/75 01406 10140 20110 30129 40173 58004 60006 80000 90000=
07650,1996-09-16 03:00:00,12,1016.6,-0.8,88,10,25000,7.408,,,180,,,,,,,,,,,wg-a,,,,AAXX 16034 07650 12/75 01804 10120 20100 30121 40166 58008 60006 80000 90300=
07650,1996-09-16 06:00:00,11,1016.4,-0.2,94,10,10000,3.704,,,180,10.5,19.5,,,,,,,,,wg-a,,,,AAXX 16064 07650 12/60 01802 10110 20100 30119 40164 56002 60006 80000 90600 333 10195 20105=
07650,1996-09-16 09:00:00,17,1016.6,0.3,72,12,10000,3.704,,,290,,,,,,,,,,,wg-a,,,,AAXX 16094 07650 12/60 02902 10170 20120 30122 40166 53003 60006 80000 90900=
07650,1996-09-16 12:00:00,22,1015.8,-0.7,53,12,15000,11.112,,,260,,,,,,,,,,,wg-a,,,,AAXX 16124 07650 12565 /2606 10220 20120 30115 40158 56007 60006 81100 91200=
07650,1996-09-16 15:00:00,22,1014.9,-0.9,53,12,20000,14.816,,,170,,,,,,,,,,,wg-a,,,,AAXX 16154 07650 12570 /1708 10220 20120 30106 40149 57009 60006 81200 91500=
07650,1996-09-16 18:00:00,19,1015.2,0.2,60,11,20000,7.408,,,230,11.1,23.7,,,,,,,,,wg-a,,,,AAXX 16184 07650 12670 32304 10190 20110 30108 40152 52002 60006 83500 91800 333 10237 20111=
07650,1996-09-16 21:00:00,16,1015.5,0.3,77,12,15000,7.408,,,140,,,,,,,,,,,wg-a,,,,AAXX 16214 07650 12665 /1404 10160 20120 30111 40155 51003 60006 81500 92100=
07650,1996-09-17 00:00:00,15,1014.8,-0.7,82,12,13000,7.408,,,110,,,,,,,,,,,wg-a,,,,AAXX 17004 07650 12/63 01104 10150 20120 30104 40148 58007 60006 80000 90000=
07650,1996-09-17 03:00:00,15,1013.2,-1.6,82,12,15000,14.816,,,100,,,,,,,,,,,wg-a,,,,AAXX 17034 07650 12/65 01008 10150 20120 30088 40132 58016 60006 80000 90300=
07650,1996-09-17 06:00:00,15,1012.6,-0.6,77,11,20000,18.52,,,120,14,19.3,,,,,,,,,wg-a,,,,AAXX 17064 07650 12670 71210 10150 20110 30082 40126 56006 60006 83532 90600 333 10193 20140=
07650,1996-09-17 09:00:00,19,1012.1,-0.4,56,10,15000,14.816,,,160,,,,,,,,,,,wg-a,,,,AAXX 17094 07650 12665 71608 10190 20100 30078 40121 55004 60006 86502 90900=
07650,1996-09-17 12:00:00,21,1011.4,-0.7,60,13,15000,25.928,,,170,,,,,,,,,,,wg-a,,,,AAXX 17124 07650 12665 71714 10210 20130 30071 40114 56007 60006 84532 91200=
07650,1996-09-17 15:00:00,19,1010.3,-1.1,83,16,8000,11.112,,,200,,,,1,,,,,,95,wg-a,,,,AAXX 17154 07650 12558 82006 10190 20160 30060 40103 55011 60017 79599 8497/ 91500=
07650,1996-09-17 18:00:00,18,1009.4,-0.9,88,16,7000,14.816,,,130,15.4,21.3,,5,,,,,,60,wg-a,,,,AAXX 17184 07650 12457 81308 10180 20160 30051 40094 57009 60057 76066 8557/ 91800 333 10213 20154=
07650,1996-09-18 00:00:00,16,1008.6,-0.8,88,14,9000,18.52,,,110,,,,3,,,,,,60,wg-a,,,,AAXX 18004 07650 02459 81110 10160 20140 30042 40086 58008 60056 76066 8587/ 90000 333 60037=
07650,1996-09-18 03:00:00,16,1007.8,-0.8,88,14,9000,11.112,,,110,,,,6,,,,,,,wg-a,,,,AAXX 18034 07650 12559 81106 10160 20140 30034 40078 58008 60067 8587/ 90300=
07650,1996-09-18 06:00:00,15,1007.3,-0.5,88,13,10000,3.704,,,110,15.2,17.5,,,,,,,,60,wg-a,,,,AAXX 18064 07650 32560 81102 10150 20130 30029 40073 55005 76066 8557/ 90600 333 10175 20152=
07650,1996-09-18 09:00:00,18,1006.4,-0.8,73,13,15000,3.704,,,300,,,,,,,,,,2,wg-a,,,,AAXX 18094 07650 02565 /3002 10180 20130 30021 40064 56008 61000 70262 8254/ 90900 333 ////=
07650,1996-09-18 12:00:00,21,1005.7,-0.7,64,14,15000,7.408,,,190,,,,,,,,,,2,wg-a,,,,AAXX 18124 07650 02565 /1904 10210 20140 30014 40057 58007 61000 70262 82840 91200 333 ////=
07650,1996-09-18 15:00:00,21,1004.8,-0.9,69,15,15000,7.408,,,290,,,,,,,,,,,wg-a,,,,AAXX 18154 07650 12565 72904 10210 20150 30005 40048 56009 60006 8587/ 91500=
07650,1996-09-18 18:00:00,17,1004.8,0,88,15,6000,3.704,,,80,15.1,21,,7,,,,,,81,wg-a,,,,AAXX 18184 07650 12556 70802 10170 20150 30005 40048 50000 60077 78199 8597/ 91800 333 10210 20151=
07650,1996-09-18 21:00:00,16,1005.4,0.5,94,15,15000,3.704,,,170,,,,0,,,,,,1,wg-a,,,,AAXX 18214 07650 12565 71702 10160 20150 30010 40054 50005 60007 70192 8457/ 92100=
07650,1996-09-19 00:00:00,16,1004.3,-1.1,82,13,11000,3.704,,,130,,,,,,,,,,,wg-a,,,,AAXX 19004 07650 12/61 /1302 10160 20130 39999 40043 58011 60016 90000=
07650,1996-09-19 03:00:00,17,1002.8,-1.4,82,14,8000,25.928,,,130,,,,0,,,,,,61,wg-a,,,,AAXX 19034 07650 12558 81314 10170 20140 39985 40028 56014 60007 76162 8587/ 90300=
07650,1996-09-19 06:00:00,18,1002.1,-0.7,73,13,18000,22.224,,,140,15.6,18,,0,,,8,,,2,wg-a,,,,AAXX 19064 07650 02568 71412 10180 20130 39978 40021 56007 60084 70262 8487/ 90600 333 10180 20156 60007=
07650,1996-09-19 09:00:00,17,1002.8,0.7,82,14,12000,22.224,,,120,,,,2,,,,,,60,wg-a,,,,AAXX 19094 07650 12562 71212 10170 20140 39985 40028 52007 60027 76086 8587/ 90900=
07650,1996-09-19 12:00:00,17,1003.4,0.6,82,14,12000,22.224,,,110,,,,,,,,,,61,wg-a,,,,AAXX 19124 07650 12562 81112 10170 20140 39991 40034 51006 60036 761// 8608/ 91200=
07650,1996-09-19 15:00:00,16,1003,-0.4,88,14,8000,11.112,,,60,,,,10,,,,,,61,wg-a,,,,AAXX 19154 07650 12458 80606 10160 20140 39987 40030 55004 60107 76166 8557/ 91500=
07650,1996-09-19 18:00:00,16,1004.1,1,82,13,15000,18.52,,,100,15.6,19.3,,1,,,,,,21,wg-a,,,,AAXX 19184 07650 12565 71010 10160 20130 39997 40041 53010 60017 72162 8557/ 91800 333 10193 20156=
07650,1996-09-19 21:00:00,16,1006.2,2.1,82,13,20000,11.112,,,120,,,,,,,,,,,wg-a,,,,AAXX 19214 07650 12670 71206 10160 20130 30018 40062 51021 60006 8367/ 92100=
07650,1996-09-20 00:00:00,15,1007.5,1.3,94,14,10000,7.408,,,160,,,,0,,,,,,21,wg-a,,,,AAXX 20004 07650 02560 71604 10150 20140 30031 40075 51013 60016 72162 8587/ 90000 333 60007=
07650,1996-09-20 06:00:00,13,1007.1,-0.1,94,12,12000,7.408,,,180,12.5,16.3,,,,,14,,,,wg-a,,,,AAXX 20064 07650 12462 71804 10130 20120 30027 40071 55001 60144 875// 90600 333 10163 20125=
07650,1996-09-20 09:00:00,17,1007.3,0.2,82,14,7000,14.816,,,280,,,,,,,,,,,wg-a,,,,AAXX 20094 07650 12457 32808 10170 20140 30029 40073 53002 60006 83200 90900=
07650,1996-09-20 12:00:00,20,1006.8,-0.4,53,10,15000,7.408,,,310,,,,,,,,,,,wg-a,,,,AAXX 20124 07650 12565 /3104 10200 20100 30025 40068 58004 60006 81100 91200=
07650,1996-09-20 15:00:00,18,1006.1,-0.7,59,10,12000,7.408,,,180,,,,,,,,,,60,wg-a,,,,AAXX 20154 07650 02562 71804 10180 20100 30018 40061 58007 61000 76062 8557/ 91500 333 ////=
07650,1996-09-20 18:00:00,15,1004.7,-1.5,82,12,7000,11.112,,,80,13.2,20.8,,5,,,,,,60,wg-a,,,,AAXX 20184 07650 12557 80806 10150 20120 30003 40047 58015 60057 76066 8557/ 91800 333 10208 20132=
07650,1996-09-20 21:00:00,14,1002.7,-2,94,13,12000,25.928,,,90,,,,8,,,,,,60,wg-a,,,,AAXX 20214 07650 12562 80914 10140 20130 39983 40027 58020 60087 76066 875// 92100=
07650,1996-09-21 00:00:00,15,1001.5,-1.2,88,13,20000,22.224,,,100,,,,0,,,,,,1,wg-a,,,,AAXX 21004 07650 02570 /1012 10150 20130 39971 40015 58012 60086 70162 82530 90000 333 60007=
07650,1996-09-21 03:00:00,15,1000.6,-0.8,88,13,20000,11.112,,25.928,90,,,,,,,,,,,wg-a,,,,AAXX 21034 07650 12470 /0906 10150 20130 39963 40006 58008 60006 83530 90300 333 91014=
07650,1996-09-21 06:00:00,15,1000.9,0.3,88,13,20000,18.52,,,100,14.2,15.6,,,,,13,,,,wg-a,,,,AAXX 21064 07650 12570 /1010 10150 20130 39966 40009 53003 60134 83550 90600 333 10156 20142=
07650,1996-09-21 09:00:00,21,1001.2,0.3,69,15,20000,22.224,,,140,,,,,,,,,,,wg-a,,,,AAXX 21094 07650 12570 /1412 10210 20150 39969 40012 51003 60006 85830 90900=
07650,1996-09-21 12:00:00,22,1000.9,-0.2,65,15,18000,22.224,,,210,,,,,,,,,,,wg-a,,,,AAXX 21124 07650 12568 72112 10220 20150 39967 40009 58002 60006 8427/ 91200=
07650,1996-09-21 15:00:00,21,1000.2,-0.7,69,15,25000,22.224,,,200,,,,,,,,,,,wg-a,,,,AAXX 21154 07650 12575 72012 10210 20150 39960 40002 55007 60006 84830 91500=
07650,1996-09-21 18:00:00,19,1000.5,0.2,83,16,12000,18.52,,,190,15.3,22.8,,,,,,,,29,wg-a,,,,AAXX 21184 07650 02562 71910 10190 20160 39962 40005 53002 61000 72996 86970 91800 333 10228 20153 ////=
07650,1996-09-21 21:00:00,16,1001.5,1,94,15,12000,3.704,,,180,,,,25,,,,,,80,wg-a,,,,AAXX 21214 07650 12462 81802 10160 20150 39972 40015 51010 60257 78096 889// 92100=
07650,1996-09-22 00:00:00,16,1001,-0.5,94,15,12000,11.112,,,340,,,,,,,,,,3,wg-a,,,,AAXX 22004 07650 02562 73406 10160 20150 39967 40010 55005 60256 70396 8457/ 90000 333 61000=
07650,1996-09-22 03:00:00,16,1000.5,-0.5,94,15,12000,3.704,,,60,,,,3,,,,,,80,wg-a,,,,AAXX 22034 07650 12562 70602 10160 20150 39962 40005 56005 60037 78096 879// 90300=
07650,1996-09-22 06:00:00,16,1000,-0.5,88,14,12000,11.112,,,120,15.2,19.4,,12,,,40,,,29,wg-a,,,,AAXX 22064 07650 02562 71206 10160 20140 39957 40000 56005 60404 72996 8497/ 90600 333 10194 20152 60127=
07650,1996-09-22 09:00:00,15,1000.8,0.8,94,14,8000,11.112,,,350,,,,6,,,,,,61,wg-a,,,,AAXX 22094 07650 12458 83506 10150 20140 39965 40008 53008 60067 76162 889// 90900=
07650,1996-09-22 12:00:00,16,1001.4,0.6,94,15,8000,18.52,,,340,,,,6,,,,,,60,wg-a,,,,AAXX 22124 07650 02358 83410 10160 20150 39971 40014 51006 60116 76096 889// 91200 333 60067=
07650,1996-09-22 15:00:00,16,1001.4,-0,88,14,6000,22.224,,,350,,,,4,,,,,,60,wg-a,,,,AAXX 22154 07650 12356 83512 10160 20140 39971 40014 55000 60047 76066 889// 91500=
07650,1996-09-22 18:00:00,14,1003,1.5,82,11,15000,25.928,,,360,13.7,16.6,,2,,,,,,60,wg-a,,,,AAXX 22184 07650 12365 73614 10140 20110 39986 40030 51015 60027 76066 8687/ 91800 333 10166 20137=
07650,1996-09-22 21:00:00,15,1003.8,0.8,67,9,500,42.596,,,340,,,,,,,,,,1,wg-a,,,,AAXX 22214 07650 02/00 43423 10150 20090 39994 40038 50008 61000 70161 82041 92100 333 ////=
07650,1996-09-23 00:00:00,14,1004.8,1,72,9,500,35.188,,,330,,,,,,,,,,,wg-a,,,,AAXX 23004 07650 02/00 23319 10140 20090 30004 40048 51010 61000 80001 90000 333 ////=
07650,1996-09-23 03:00:00,13,1004.5,-0.3,67,7,500,42.596,,68.524,340,,,,,,,,,,,wg-a,,,,AAXX 23034 07650 12/00 23423 10130 20070 30001 40045 58003 60006 80001 90300 333 91037=
07650,1996-09-23 06:00:00,13,1004.8,0.3,67,7,13000,42.596,,,330,12.7,15.2,,,,,17,,,,wg-a,,,,AAXX 23064 07650 12563 /3323 10130 20070 30004 40048 52003 60174 81500 90600 333 10152 20127=
07650,1996-09-23 09:00:00,15,1005.1,0.3,59,7,15000,50.004,,64.82,330,,,,0,,,,,,,wg-a,,,,AAXX 23094 07650 12/65 03327 10150 20070 30007 40051 50003 60007 80000 90900 333 91035=
07650,1996-09-23 12:00:00,18,1004.7,-0.3,52,8,20000,50.004,,72.228,330,,,,,,,,,,,wg-a,,,,AAXX 23124 07650 12570 43327 10180 20080 30004 40047 56003 60006 84100 91200 333 91039=
07650,1996-09-23 15:00:00,17,1005,,55,8,15000,46.3,,64.82,330,,,,,,,,,,,wg-a,,,,AAXX 23154 07650 12565 /3325 10170 20080 30007 40050 60006 81400 91500 333 91035=
07650,1996-09-23 18:00:00,15,1007.8,,59,7,15000,35.188,,53.708,340,,,,,,,,,,,wg-a,,,,AAXX 23184 07650 12565 /3419 10150 20070 30028 40078 60006 83021 91800 333 91029=
07650,1996-09-23 21:00:00,14,1007.8,0.6,58,6,15000,38.892,,,340,,,,,,,,,,,wg-a,,,,AAXX 23214 07650 12/65 13421 10140 20060 30034 40078 50006 60006 80001 92100=
07650,1996-09-24 00:00:00,13,1008.5,0.7,67,7,20000,35.188,,,320,,,,,,,,,,,wg-a,,,,AAXX 24004 07650 12/70 23219 10130 20070 30041 40085 51007 60006 80001 90000=
07650,1996-09-24 03:00:00,13,1008.1,-0.4,62,6,25000,35.188,,,330,,,,,,,,,,,wg-a,,,,AAXX 24034 07650 12/75 03319 10130 20060 30037 40081 58004 60006 80000 90300=
07650,1996-09-24 06:00:00,13,1008.9,0.8,62,6,25000,29.632,,,330,12.4,14.4,,,,,,,,,wg-a,,,,AAXX 24064 07650 12/75 23316 10130 20060 30045 40089 53008 60006 80001 90600 333 10144 20124=
07650,1996-09-24 09:00:00,16,1010,1.1,55,7,15000,35.188,,61.116,340,,,,,,,,,,,wg-a,,,,AAXX 24094 07650 12/65 03419 10160 20070 30056 40100 53011 60006 80000 90900 333 91033=
07650,1996-09-24 12:00:00,19,1009.9,0,49,8,15000,35.188,,,330,,,,,,,,,,,wg-a,,,,AAXX 24124 07650 12/65 03319 10190 20080 30056 40099 50000 60006 80000 91200=
07650,1996-09-24 15:00:00,20,1009.6,-0.3,37,5,20000,29.632,,,340,,,,,,,,,,,wg-a,,,,AAXX 24154 07650 12/70 03416 10200 20050 30053 40096 57003 60006 80000 91500=
07650,1996-09-24 18:00:00,18,1010.6,0.9,52,8,20000,22.224,,,300,12.6,20.3,,,,,,,,,wg-a,,,,AAXX 24184 07650 12/70 03012 10180 20080 30062 40106 53009 60006 80000 91800 333 10203 20126=
07650,1996-09-24 21:00:00,14,1011.8,1.2,67,8,20000,11.112,,,340,,,,,,,,,,,wg-a,,,,AAXX 24214 07650 12/70 03406 10140 20080 30074 40118 51012 60006 80000 92100=
07650,1996-09-25 00:00:00,13,1011.7,-0.1,72,8,20000,7.408,,,340,,,,,,,,,,,wg-a,,,,AAXX 25004 07650 12/70 13404 10130 20080 30073 40117 55001 60006 80002 90000=
07650,1996-09-25 03:00:00,12,1011.8,-0,76,8,15000,0,,,0,,,,,,,,,,,wg-a,,,,AAXX 25034 07650 12665 70000 10120 20080 30073 40118 54000 60006 81572 90300=
07650,1996-09-25 06:00:00,12,1011.2,-0.5,76,8,12000,3.704,,,160,10.6,17.6,,,,,,,,,wg-a,,,,AAXX 25064 07650 12662 71602 10120 20080 30068 40112 55005 60006 81572 90600 333 10176 20106=
07650,1996-09-25 09:00:00,15,1012.2,1,67,9,10000,3.704,,,300,,,,,,,,,,,wg-a,,,,AAXX 25094 07650 12660 73002 10150 20090 30078 40122 53010 60006 83571 90900=
07650,1996-09-25 12:00:00,20,1011.5,-0.6,56,11,10000,7.408,,,320,,,,,,,,,,,wg-a,,,,AAXX 25124 07650 12660 53204 10200 20110 30072 40115 58006 60006 81271 91200=
07650,1996-09-25 15:00:00,21,1010,-1.5,56,12,25000,11.112,,,280,,,,,,,,,,,wg-a,,,,AAXX 25154 07650 12675 52806 10210 20120 30057 40100 56015 60006 84231 91500=
07650,1996-09-25 18:00:00,18,1011.1,1.1,77,14,25000,14.816,,,270,12,21.1,,,,,,,,,wg-a,,,,AAXX 25184 07650 12675 42708 10180 20140 30068 40111 53011 60006 83401 91800 333 10211 20120=
07650,1996-09-25 21:00:00,15,1012.8,1.6,82,12,25000,11.112,,,350,,,,,,,,,,,wg-a,,,,AAXX 25214 07650 12675 33506 10150 20120 30084 40128 51016 60006 81541 92100=
07650,1996-09-26 00:00:00,14,1013.6,0.8,88,12,0,18.52,,,340,,,,,,,,,,,wg-a,,,,AAXX 26004 07650 12/// /3410 10140 20120 30092 40136 51008 60006 90000=
07650,1996-09-26 03:00:00,13,1014,0.4,88,11,25000,14.816,,,330,,,,,,,,,,,wg-a,,,,AAXX 26034 07650 12/75 03308 10130 20110 30096 40140 51004 60006 80000 90300=
07650,1996-09-26 06:00:00,13,1016,1.9,82,10,12000,18.52,,,350,12.2,18.4,,,,,,,,,wg-a,,,,AAXX 26064 07650 12562 /3510 10130 20100 30115 40160 51019 60006 81500 90600 333 10184 20122=
07650,1996-09-26 09:00:00,17,1017.4,1.5,68,11,20000,14.816,,,360,,,,,,,,,,,wg-a,,,,AAXX 26094 07650 12570 /3608 10170 20110 30130 40174 53015 60006 81100 90900=
07650,1996-09-26 12:00:00,21,1016.6,-0.7,53,11,25000,11.112,,,340,,,,,,,,,,,wg-a,,,,AAXX 26124 07650 12575 33406 10210 20110 30123 40166 58007 60006 83201 91200=
07650,1996-09-26 15:00:00,21,1015.9,-0.7,46,9,25000,29.632,,,360,,,,,,,,,,,wg-a,,,,AAXX 26154 07650 12575 33616 10210 20090 30116 40159 56007 60006 81402 91500=
07650,1996-09-26 18:00:00,19,1016.6,0.6,49,8,500,18.52,,,340,12.7,21.8,,,,,,,,,wg-a,,,,AAXX 26184 07650 12/00 33410 10190 20080 30122 40166 53006 60006 81032 91800 333 10218 20127=
07650,1996-09-26 21:00:00,16,1017.7,1.1,59,8,25000,11.112,,,300,,,,,,,,,,,wg-a,,,,AAXX 26214 07650 12/75 23006 10160 20080 30133 40177 51011 60006 81032 92100=
07650,1996-09-27 00:00:00,13,1018.9,1.1,72,8,20000,0,,,0,,,,,,,,,,,wg-a,,,,AAXX 27004 07650 12/70 10000 10130 20080 30144 40189 53011 60006 80001 90000=
07650,1996-09-27 03:00:00,12,1018.6,-0.3,82,9,20000,3.704,,,120,,,,,,,,,,,wg-a,,,,AAXX 27034 07650 12/70 41202 10120 20090 30141 40186 58003 60006 81032 90300=
07650,1996-09-27 06:00:00,12,1019.1,0.5,82,9,20000,11.112,,,140,11.7,18.9,,,,,,,,,wg-a,,,,AAXX 27064 07650 12570 61406 10120 20090 30146 40191 51005 60006 82530 90600 333 10189 20117=
07650,1996-09-27 09:00:00,17,1019.7,0.7,63,10,12000,0,,,0,,,,,,,,,,,wg-a,,,,AAXX 27094 07650 12562 10000 10170 20100 30153 40197 50007 60006 81532 90900=
07650,1996-09-27 12:00:00,22,1018.9,-0.7,46,10,15000,11.112,,,250,,,,,,,,,,,wg-a,,,,AAXX 27124 07650 12565 32506 10220 20100 30146 40189 56007 60006 81532 91200=
07650,1996-09-27 15:00:00,22,1018.2,-0.7,65,15,15000,18.52,,,300,,,,,,,,,,60,wg-a,,,,AAXX 27154 07650 02565 73010 10220 20150 30139 40182 56007 61000 76066 82572 91500 333 ////=
07650,1996-09-27 18:00:00,20,1018.8,0.6,83,17,20000,3.704,,,320,11.9,23.4,,,,,,,,,wg-a,,,,AAXX 27184 07650 02570 53202 10200 20170 30145 40188 52006 61000 83532 91800 333 10234 20119 ////=
07650,1996-09-27 20:00:00,20,1018.8,0.6,83,17,20000,3.704,,,320,11.9,23.4,,,,,,,,,wg-a,,,,AAXX 27204 07650 02570 53202 10200 20170 30145 40188 52006 61000 83532 92000 333 10234 20119 ////=
07650,1996-09-27 21:00:00,18,1019.7,0.8,88,16,25000,11.112,,,320,,,,,,,,,,,wg-a,,,,AAXX 27214 07650 12/75 13206 10180 20160 30153 40197 53008 60006 80001 92100=
07650,1996-09-28 00:00:00,17,1020,0.3,72,12,25000,31.484,,,320,,,,,,,,,,,wg-a,,,,AAXX 28004 07650 12/75 23217 10170 20120 30156 40200 53003 60006 80001 90000=
07650,1996-09-28 03:00:00,16,1020,-0,77,12,25000,38.892,,,300,,,,,,,,,,,wg-a,,,,AAXX 28034 07650 12/75 33021 10160 20120 30156 40200 54000 60006 80002 90300=
07650,1996-09-28 06:00:00,16,1021.1,1.1,72,11,500,25.928,,,320,15.4,20,,,,,,,,,wg-a,,,,AAXX 28064 07650 02/00 33214 10160 20110 30167 40211 53011 60006 81032 90600 333 10200 20154 61000=
07650,1996-09-28 12:00:00,22,1021.9,-0.2,50,11,500,22.224,,,330,,,,,,,,,,,wg-a,,,,AAXX 28124 07650 12/00 23312 10220 20110 30176 40219 55002 60006 81042 91200=
07650,1996-09-28 15:00:00,23,1021.6,-0.3,47,11,500,22.224,,,340,,,,,,,,,,,wg-a,,,,AAXX 28154 07650 12/00 43412 10230 20110 30173 40216 58003 60006 80002 91500=
07650,1996-09-28 18:00:00,19,1022.7,1,56,10,500,11.112,,,340,15.6,23.3,,,,,,,,,wg-a,,,,AAXX 28184 07650 12/00 33406 10190 20100 30183 40227 53010 60006 80002 91800 333 10233 20156=
07650,1996-09-28 21:00:00,16,1024,1.3,68,10,20000,7.408,,,140,,,,,,,,,,,wg-a,,,,AAXX 28214 07650 12/70 21404 10160 20100 30196 40240 51013 60006 80002 92100=
07650,1996-09-29 00:00:00,14,1024.1,-0,82,11,20000,0,,,0,,,,,,,,,,,wg-a,,,,AAXX 29004 07650 12/70 20000 10140 20110 30196 40241 55000 60006 80002 90000=
07650,1996-09-29 03:00:00,12,1024.1,-0,82,9,18000,3.704,,,140,,,,,,,,,,,wg-a,,,,AAXX 29034 07650 12/68 21402 10120 20090 30196 40241 55000 60006 80002 90300=
07650,1996-09-29 06:00:00,11,1024.8,0.7,94,10,500,0,,,0,11.2,19.2,,0,,,,,,,wg-a,,,,AAXX 29064 07650 02/00 40000 10110 20100 30203 40248 53007 60004 80002 90600 333 10192 20112 60007=
07650,1996-09-29 09:00:00,17,1025.8,1.1,72,12,500,0,,,0,,,,,,,,,,,wg-a,,,,AAXX 29094 07650 12/00 50000 10170 20120 30214 40258 51011 60006 81032 90900=
07650,1996-09-29 12:00:00,22,1025.2,-0.6,46,10,18000,7.408,,,280,,,,,,,,,,,wg-a,,,,AAXX 29124 07650 12/68 62804 10220 20100 30208 40252 58006 60006 80001 91200=
07650,1996-09-29 15:00:00,23,1024,-1.1,47,11,25000,11.112,,,240,,,,,,,,,,,wg-a,,,,AAXX 29154 07650 12/75 42406 10230 20110 30197 40240 56011 60006 80001 91500=
07650,1996-09-29 18:00:00,19,1024.5,0.4,64,12,20000,11.112,,,160,11.2,23.5,,,,,,,,,wg-a,,,,AAXX 29184 07650 12/70 11606 10190 20120 30201 40245 53004 60006 80001 91800 333 10235 20112=
07650,1996-09-29 21:00:00,15,1024.8,0.2,88,13,20000,7.408,,,130,,,,,,,,,,,wg-a,,,,AAXX 29214 07650 12/70 01304 10150 20130 30203 40248 52002 60006 80000 92100=
07650,1996-09-30 00:00:00,14,1023.8,-1,94,13,20000,3.704,,,140,,,,,,,,,,,wg-a,,,,AAXX 30004 07650 12/70 01402 10140 20130 30193 40238 56010 60006 80000 90000=
07650,1996-09-30 03:00:00,13,1022.8,-1,94,12,20000,7.408,,,140,,,,,,,,,,,wg-a,,,,AAXX 30034 07650 12/70 01404 10130 20120 30183 40228 58010 60006 80000 90300=
07650,1996-09-30 06:00:00,13,1022.5,-0.3,88,11,9000,7.408,,,140,12.7,19.1,,0,,,,,,,wg-a,,,,AAXX 30064 07650 02459 31404 10130 20110 30180 40225 56003 60004 83501 90600 333 10191 20127 60007=
07650,1996-09-30 09:00:00,20,1022.5,0.1,73,15,9000,7.408,,,120,,,,,,,,,,,wg-a,,,,AAXX 30094 07650 12559 /1204 10200 20150 30181 40225 50001 60006 81500 90900=
07650,1996-09-30 12:00:00,23,1021.2,-1.2,53,13,11000,22.224,,,180,,,,,,,,,,,wg-a,,,,AAXX 30124 07650 12561 /1812 10230 20130 30169 40212 56012 60006 81500 91200=
07650,1996-09-30 15:00:00,22,1019.3,-1.9,65,15,15000,14.816,,,170,,,,,,,,,,,wg-a,,,,AAXX 30154 07650 12565 11708 10220 20150 30150 40193 56019 60006 81500 91500=
07650,1996-09-30 18:00:00,19,1018.9,-0.5,78,15,15000,18.52,,,140,12.7,23,,,,,,,,,wg-a,,,,AAXX 30184 07650 12565 31410 10190 20150 30145 40189 55005 60006 81542 91800 333 10230 20127=
07650,1996-09-30 21:00:00,19,1018.6,-0.3,73,14,12000,18.52,,,130,,,,,,,,,,,wg-a,,,,AAXX 30214 07650 12662 41310 10190 20140 30142 40186 58003 60006 82502 92100=
07650,1996-10-01 00:00:00,17,1016.9,-1.7,77,13,12000,14.816,,,100,,,,,,,,,,,wg-a,,,,AAXX 01004 07650 12562 61008 10170 20130 30125 40169 58017 60006 84502 90000=
07650,1996-10-01 03:00:00,18,1014.4,-2.5,77,14,12000,22.224,,,130,,,,,,,,,,,wg-a,,,,AAXX 01034 07650 12562 61312 10180 20140 30100 40144 56025 60006 84532 90300=
07650,1996-10-01 06:00:00,18,1013.2,-1.2,77,14,10000,22.224,,,130,16.1,19.2,,,,,,,,,wg-a,,,,AAXX 01064 07650 12460 71312 10180 20140 30088 40132 56012 60006 878// 90600 333 10192 20161=
07650,1996-10-01 09:00:00,20,1013.8,0.7,64,13,10000,25.928,,53.708,140,,,,,,,,,,,wg-a,,,,AAXX 01094 07650 12460 71414 10200 20130 30095 40138 53007 60006 878// 90900 333 91029=
07650,1996-10-01 12:00:00,,1,,,,10000,35.188,,53.708,140,,,,,,,,,,,wg-a,,,,AAXX 01124 07650 32460 71419 1//// 2//// 30072 878// 91200 333 91029=
07650,1996-10-01 15:00:00,,1,2.6,,,12000,0,,,0,,,,,,,,,,60,wg-a,,,,AAXX 01154 07650 32462 8//// 1//// 2//// 30098 51026 76066 885// 91500=
07650,1996-10-01 18:00:00,,1,-0.6,,,15000,0,,,0,,,,,,,,,,,wg-a,,,,AAXX 01184 07650 32465 70000 1//// 2//// 30092 56006 8557/ 91800=
07650,1996-10-01 21:00:00,14,1013.6,0,88,12,20000,7.408,,,180,,,,,,,,,,,wg-a,,,,AAXX 01214 07650 32470 71804 10140 20120 30092 40136 50000 8557/ 92100=
07650,1996-10-02 00:00:00,13,1013.8,0.2,88,11,20000,29.632,,,340,,,,,,,,,,,wg-a,,,,AAXX 02004 07650 32570 43416 10130 20110 30094 40138 53002 82570 90000=
07650,1996-10-02 03:00:00,13,1013.7,-0.2,77,9,25000,29.632,,,320,,,,,,,,,,,wg-a,,,,AAXX 02034 07650 12575 23216 10130 20090 30092 40137 58002 60006 81501 90300=
07650,1996-10-02 06:00:00,12,1013.2,-0.5,76,8,50000,22.224,,,330,,,,,,,,,,,wg-a,,,,AAXX 02064 07650 32584 23312 10120 20080 30087 40132 58005 81531 90600=
07650,1996-10-02 09:00:00,15,1013.7,0.6,67,9,50000,42.596,,,320,,,,,,,,,,,wg-a,,,,AAXX 02094 07650 12584 33223 10150 20090 30093 40137 51006 60006 81142 90900=
07650,1996-10-02 18:00:00,16,1013,0.3,55,7,50000,35.188,,,320,12,18.8,,,,,,,,,wg-a,,,,AAXX 02184 07650 12684 33219 10160 20070 30086 40130 52003 60006 81431 91800 333 10188 20120=
07650,1996-10-02 21:00:00,15,1014,1,63,8,50000,35.188,,61.116,350,,,,,,,,,,,wg-a,,,,AAXX 02214 07650 12/84 23519 10150 20080 30096 40140 52010 60006 80001 92100 333 91033=
07650,1996-10-03 00:00:00,13,1015.4,1.4,67,7,50000,31.484,,,350,,,,,,,,,,,wg-a,,,,AAXX 03004 07650 12/84 23517 10130 20070 30110 40154 53014 60006 81031 90000=
07650,1996-10-03 03:00:00,12,1017,1.5,67,6,40000,18.52,,38.892,350,,,,,,,,,,,wg-a,,,,AAXX 03034 07650 12/82 33510 10120 20060 30125 40170 53015 60006 82032 90300 333 91021=
07650,1996-10-03 06:00:00,11,1019,2,66,5,75000,18.52,,,20,11.1,16.3,,,,,,,,,wg-a,,,,AAXX 03064 07650 12/89 10210 10110 20050 30145 40190 53020 60006 80001 90600 333 10163 20111=
07650,1996-10-03 09:00:00,15,1021.6,2.7,59,7,75000,18.52,,,360,,,,,,,,,,,wg-a,,,,AAXX 03094 07650 12/89 13610 10150 20070 30172 40216 51027 60006 81030 90900=
07650,1996-10-03 12:00:00,19,1021.5,-0.1,49,8,20000,18.52,,,350,,,,,,,,,,,wg-a,,,,AAXX 03124 07650 12570 /3510 10190 20080 30171 40215 58001 60006 81100 91200=
07650,1996-10-03 15:00:00,20,1021,-0.5,43,7,40000,14.816,,,340,,,,,,,,,,,wg-a,,,,AAXX 03154 07650 12/82 03408 10200 20070 30166 40210 55005 60006 80000 91500=
07650,1996-10-03 18:00:00,,1,,,,0,0,,,0,,,,,,,,,,0,wg-a,,,,AAXX 03184 07650 32/// ///// 1//// 2//// 700// 91800=
07650,1996-10-03 21:00:00,12,1022.4,0.8,71,7,25000,3.704,,,80,,,,,,,,,,,wg-a,,,,AAXX 03214 07650 12/75 00802 10120 20070 30179 40224 53008 60006 80000 92100=
07650,1996-10-04 00:00:00,11,1022.6,0.2,76,7,20000,11.112,,,150,,,,,,,,,,,wg-a,,,,AAXX 04004 07650 12/70 11506 10110 20070 30181 40226 50002 60006 80001 90000=
07650,1996-10-04 03:00:00,9,1022.3,-0.3,87,7,20000,0,,,0,,,,,,,,,,,wg-a,,,,AAXX 04034 07650 12/70 00000 10090 20070 30178 40223 58003 60006 80000 90300=
07650,1996-10-04 06:00:00,9,1021.2,-1.1,87,7,20000,7.408,,,200,8.7,15.9,,,,,,,,,wg-a,,,,AAXX 04064 07650 12/70 32004 10090 20070 30167 40212 58011 60006 80001 90600 333 10159 20087=
07650,1996-10-04 09:00:00,15,1021.3,0.1,63,8,15000,3.704,,,300,,,,0,,,,,,,wg-a,,,,AAXX 04094 07650 12/65 53002 10150 20080 30168 40213 53001 60007 80002 90900=
07650,1996-10-04 12:00:00,19,1019.7,-1.5,56,10,15000,11.112,,,270,,,,,,,,,,,wg-a,,,,AAXX 04124 07650 12665 22706 10190 20100 30153 40197 58015 60006 81102 91200=
07650,1996-10-04 15:00:00,21,1016.8,-2.8,46,9,15000,14.816,,,290,,,,,,,,,,,wg-a,,,,AAXX 04154 07650 12/65 12908 10210 20090 30125 40168 56028 60006 80001 91500=
07650,1996-10-04 18:00:00,17,1015.6,-1.3,55,8,20000,7.408,,,320,9,20.7,,,,,,,,,wg-a,,,,AAXX 04184 07650 32/70 43204 10170 20080 30112 40156 55013 81032 91800 333 10207 20090=
07650,1996-10-04 21:00:00,14,1015.4,-0.2,77,10,20000,11.112,,,320,,,,,,,,,,,wg-a,,,,AAXX 04214 07650 12/70 23206 10140 20100 30110 40154 55002 60006 80002 92100=
07650,1996-10-05 00:00:00,15,1014,-1.4,67,9,20000,18.52,,,350,,,,,,,,,,,wg-a,,,,AAXX 05004 07650 12/70 43510 10150 20090 30096 40140 58014 60006 80002 90000=
07650,1996-10-05 03:00:00,13,1013,-1,72,8,20000,18.52,,,340,,,,,,,,,,,wg-a,,,,AAXX 05034 07650 12/70 33410 10130 20080 30086 40130 57010 60006 81042 90300=
07650,1996-10-05 06:00:00,13,1012.6,-0.4,82,10,20000,18.52,,,330,12.5,17.2,,,,,,,,,wg-a,,,,AAXX 05064 07650 02/70 33310 10130 20100 30082 40126 57004 60006 81042 90600 333 10172 20125 60004=
07650,1996-10-05 09:00:00,16,1012.7,0.1,55,7,500,38.892,,57.412,340,,,,,,,,,,,wg-a,,,,AAXX 05094 07650 12500 /3421 10160 20070 30083 40127 52001 60006 81502 90900 333 91031=
07650,1996-10-05 12:00:00,18,1011.9,-0.8,42,5,500,50.004,,68.524,340,,,,,,,,,,,wg-a,,,,AAXX 05124 07650 12500 23427 10180 20050 30075 40119 58008 60006 81502 91200 333 91037=
07650,1996-10-05 15:00:00,18,1010.7,-1.2,45,6,50000,46.3,,75.932,330,,,,,,,,,,,wg-a,,,,AAXX 05154 07650 12584 23325 10180 20060 30063 40107 56012 60006 81502 91500 333 91041=
07650,1996-10-05 18:00:00,15,1010.7,-0,51,5,50000,42.596,,61.116,340,12.3,18,,,,,,,,,wg-a,,,,AAXX 05184 07650 12584 23423 10150 20050 30063 40107 54000 60006 81501 91800 333 10180 20123 91033=
07650,1996-10-05 21:00:00,14,1010.5,-0.2,55,5,25000,38.892,,57.412,340,,,,,,,,,,,wg-a,,,,AAXX 05214 07650 12/75 23421 10140 20050 30061 40105 55002 60006 80002 92100 333 91031=
07650,1996-10-06 00:00:00,12,1009.8,-0.8,62,5,25000,38.892,,,350,,,,,,,,,,,wg-a,,,,AAXX 06004 07650 12/75 03521 10120 20050 30053 40098 58008 60006 80000 90000=
07650,1996-10-06 03:00:00,10,1009.2,-0.6,71,5,25000,25.928,,,360,,,,,,,,,,,wg-a,,,,AAXX 06034 07650 12/75 03614 10100 20050 30047 40092 56006 60006 80000 90300=
07650,1996-10-06 06:00:00,8,1010,0.8,81,5,500,7.408,,,20,7.7,15.3,,,,,,,,,wg-a,,,,AAXX 06064 07650 12400 50204 10080 20050 30055 40100 53008 60006 83130 90600 333 10153 20077=
07650,1996-10-06 09:00:00,12,1011.1,1.1,67,6,500,18.52,,,10,,,,,,,,,,,wg-a,,,,AAXX 06094 07650 12500 80110 10120 20060 30066 40111 53011 60006 8557/ 90900=
07650,1996-10-06 12:00:00,15,1011,0,63,8,500,14.816,,42.596,360,,,,,,,,,,,wg-a,,,,AAXX 06124 07650 12600 73608 10150 20080 30066 40110 50000 60006 8357/ 91200 333 91023=
07650,1996-10-06 15:00:00,15,1011.5,0.5,63,8,20000,22.224,,,360,,,,,,,,,,60,wg-a,,,,AAXX 06154 07650 02570 83612 10150 20080 30071 40115 53005 61000 76062 8687/ 91500 333 ////=
07650,1996-10-06 18:00:00,13,1012.7,1.2,77,9,15000,7.408,,,30,8,15.3,,,,,,,,,wg-a,,,,AAXX 06184 07650 02665 80304 10130 20090 30083 40127 51012 61000 8457/ 91800 333 10153 20080 ////=
07650,1996-10-06 21:00:00,12,1013.2,0.4,76,8,20000,3.704,,,10,,,,,,,,,,,wg-a,,,,AAXX 06214 07650 12670 70102 10120 20080 30087 40132 50004 60006 8457/ 92100=
07650,1996-10-07 00:00:00,12,1012,-1.2,76,8,25000,18.52,,,20,,,,,,,,,,,wg-a,,,,AAXX 07004 07650 12675 50210 10120 20080 30075 40120 58012 60006 84530 90000=
07650,1996-10-07 03:00:00,13,1010.6,-1.3,67,7,25000,22.224,,,20,,,,,,,,,,,wg-a,,,,AAXX 07034 07650 12675 70212 10130 20070 30062 40106 58013 60006 8357/ 90300=
07650,1996-10-07 06:00:00,13,1010.7,0.1,67,7,20000,18.52,,,20,11.3,12.7,,,,,,,,60,wg-a,,,,AAXX 07064 07650 02670 70210 10130 20070 30063 40107 51001 61000 76062 8357/ 90600 333 10127 20113 6100=
07650,1996-10-07 09:00:00,13,1011.5,0.8,72,8,15000,22.224,,,350,,,,,,,,,,21,wg-a,,,,AAXX 07094 07650 02565 83512 10130 20080 30071 40115 51008 61000 72166 8587/ 90900 333 ////=
07650,1996-10-07 12:00:00,15,1011.3,-0.2,67,9,18000,18.52,,,340,,,,,,,,,,,wg-a,,,,AAXX 07124 07650 02568 83410 10150 20090 30069 40113 58002 61000 8487/ 91200 333 ////=
07650,1996-10-07 15:00:00,13,1012.2,0.9,88,11,7000,14.816,,,340,,,,2,,,,,,60,wg-a,,,,AAXX 07154 07650 12557 83408 10130 20110 30078 40122 50009 60027 76066 8587/ 91500=
07650,1996-10-07 18:00:00,13,1013.7,1.5,88,11,7000,11.112,,,360,12.4,15.7,,2,,,,,,60,wg-a,,,,AAXX 07184 07650 12557 83606 10130 20110 30093 40137 51015 60027 76066 8587/ 91800 333 10157 20124=
07650,1996-10-07 21:00:00,12,1013.4,-0.4,88,10,8000,18.52,,,320,,,,1,,,,,,60,wg-a,,,,AAXX 07214 07650 12558 83210 10120 20100 30089 40134 58004 60017 76066 8687/ 92100=
07650,1996-10-08 00:00:00,12,1012.1,-1.2,82,9,15000,22.224,,,360,,,,,,,,,,1,wg-a,,,,AAXX 08004 07650 02665 83612 10120 20090 30077 40121 56012 60016 70162 8357/ 90000 333 61000=
07650,1996-10-08 03:00:00,12,1011.9,-0.2,88,10,15000,14.816,,,320,,,,,,,,,,,wg-a,,,,AAXX 08034 07650 12665 83208 10120 20100 30075 40119 58002 60006 8357/ 90300=
07650,1996-10-08 06:00:00,13,1011.6,-0.3,82,10,12000,22.224,,,320,11.8,12.6,,0,,,6,,,2,wg-a,,,,AAXX 08064 07650 02562 83212 10130 20100 30072 40116 58003 60064 70262 8357/ 90600 333 10126 20118 60007=
07650,1996-10-08 09:00:00,14,1011.5,-0.1,72,9,15000,31.484,,,340,,,,,,,,,,,wg-a,,,,AAXX 08094 07650 12565 83417 10140 20090 30071 40115 57001 60006 8257/ 90900=
07650,1996-10-08 12:00:00,15,1011.1,-0.4,72,10,20000,25.928,,,360,,,,,,,,,,,wg-a,,,,AAXX 08124 07650 12570 83614 10150 20100 30067 40111 56004 60006 8287/ 91200=
07650,1996-10-08 15:00:00,15,1011.1,,72,10,20000,25.928,,,360,,,,,,,,,,,wg-a,,,,AAXX 08154 07650 12570 83614 10150 20100 30067 40111 60006 91500=
07650,1996-10-08 18:00:00,14,1012.2,0.7,77,10,20000,18.52,,,340,12.5,15.4,,,,,,,,1,wg-a,,,,AAXX 08184 07650 02570 /3410 10140 20100 30078 40122 52007 61000 70162 82832 91800 333 10154 20125 ////=
07650,1996-10-08 21:00:00,14,1012.8,0.6,77,10,20000,18.52,,,360,,,,,,,,,,,wg-a,,,,AAXX 08214 07650 12670 73610 10140 20100 30084 40128 53006 60006 8357/ 92100=
07650,1996-10-09 00:00:00,13,1013.2,0.4,82,10,20000,14.816,,,360,,,,,,,,,,,wg-a,,,,AAXX 09004 07650 12/70 53608 10130 20100 30088 40132 53004 60006 83032 90000=
07650,1996-10-09 03:00:00,11,1012.9,-0.4,94,10,18000,14.816,,,350,,,,0,,,,,,,wg-a,,,,AAXX 09034 07650 12/68 33508 10110 20100 30084 40129 56004 60007 82032 90300=
07650,1996-10-09 06:00:00,10,1013.4,0.5,93,9,9000,7.408,,,10,10.2,14.1,,,,,,,,,wg-a,,,,AAXX 09064 07650 12/59 30104 10100 20090 30089 40134 53005 60004 83030 90600 333 10141 20102=
07650,1996-10-09 09:00:00,16,1014.5,1.2,72,11,8000,7.408,,,40,,,,,,,,,,,wg-a,,,,AAXX 09094 07650 12/58 /0404 10160 20110 30101 40145 51012 60006 80002 90900=
07650,1996-10-09 12:00:00,20,1014.1,-0.3,56,11,15000,22.224,,,340,,,,,,,,,,,wg-a,,,,AAXX 09124 07650 12/65 13412 10200 20110 30098 40141 58003 60006 80001 91200=
07650,1996-10-09 15:00:00,20,1013.8,-0.3,56,11,15000,29.632,,,330,,,,,,,,,,,wg-a,,,,AAXX 09154 07650 12/65 03316 10200 20110 30095 40138 55003 60006 80000 91500=
07650,1996-10-09 18:00:00,16,1014.8,0.9,68,10,15000,25.928,,,330,10.3,20.8,,,,,,,,,wg-a,,,,AAXX 09184 07650 12/65 63314 10160 20100 30104 40148 53009 60006 83042 91800 333 10208 20103=
07650,1996-10-09 21:00:00,14,1015.4,0.6,77,10,20000,18.52,,,320,,,,,,,,,,,wg-a,,,,AAXX 09214 07650 12/70 43210 10140 20100 30110 40154 53006 60006 81031 92100=
07650,1996-10-10 00:00:00,11,1016,0.5,87,9,20000,3.704,,,360,,,,,,,,,,,wg-a,,,,AAXX 10004 07650 12/70 23602 10110 20090 30115 40160 51005 60006 80001 90000=
07650,1996-10-10 03:00:00,10,1015.7,-0.3,87,8,20000,0,,,0,,,,,,,,,,,wg-a,,,,AAXX 10034 07650 12/70 20000 10100 20080 30112 40157 57003 60006 80001 90300=
07650,1996-10-10 06:00:00,10,1015.7,-0,93,9,15000,14.816,,,10,8.9,15.8,,,,,,,,,wg-a,,,,AAXX 10064 07650 12/65 20108 10100 20090 30112 40157 55000 60006 80001 90600 333 10158 20089=
07650,1996-10-10 09:00:00,16,1016.9,1.3,72,11,15000,11.112,,,340,,,,,,,,,,,wg-a,,,,AAXX 10094 07650 12/65 03406 10160 20110 30125 40169 51013 60006 80000 90900=
07650,1996-10-10 12:00:00,20,1015.8,-1,60,12,15000,18.52,,,330,,,,0,,,,,,,wg-a,,,,AAXX 10124 07650 02565 63310 10200 20120 30115 40158 58010 60006 81132 91200 333 60007=
07650,1996-10-10 15:00:00,20,1015,-0.8,56,11,15000,22.224,,,340,,,,,,,,,,,wg-a,,,,AAXX 10154 07650 12665 33412 10200 20110 30107 40150 56008 60006 83532 91500=
07650,1996-10-10 18:00:00,17,1016.2,1.1,63,10,15000,11.112,,,310,10.1,21,,,,,,,,,wg-a,,,,AAXX 10184 07650 32665 33106 10170 20100 30118 40162 53011 83500 91800 333 10210 20101=
07650,1996-10-10 21:00:00,15,1017.2,1,72,10,20000,7.408,,,140,,,,,,,,,,,wg-a,,,,AAXX 10214 07650 12/70 /1404 10150 20100 30128 40172 51010 60006 92100=
07650,1996-10-11 00:00:00,14,1017.8,0.6,82,11,15000,11.112,,,140,,,,,,,,,,,wg-a,,,,AAXX 11004 07650 12565 /1406 10140 20110 30134 40178 51006 60006 81532 90000=
07650,1996-10-11 03:00:00,14,1017.7,-0.1,88,12,10000,3.704,,,200,,,,,,,,,,,wg-a,,,,AAXX 11034 07650 12660 72002 10140 20120 30133 40177 58001 60006 8453/ 90300=
07650,1996-10-11 06:00:00,13,1018.3,0.5,94,12,9000,0,,,0,12.8,16.8,,,,,,,,,wg-a,,,,AAXX 11064 07650 02659 70000 10130 20120 30138 40183 53005 60006 875// 90600 333 10168 20128 60004=
07650,1996-10-11 09:00:00,16,1019.7,1.5,82,13,7000,7.408,,,250,,,,,,,,,,,wg-a,,,,AAXX 11094 07650 12657 72504 10160 20130 30153 40197 53015 60006 8357/ 90900=
07650,1996-10-11 12:00:00,18,1019.1,-0.6,68,12,7000,3.704,,,210,,,,,,,,,,,wg-a,,,,AAXX 11124 07650 12557 /2102 10180 20120 30147 40191 58006 60006 83870 91200=
07650,1996-10-11 15:00:00,19,1018.2,-0.9,64,12,10000,3.704,,,280,,,,,,,,,,,wg-a,,,,AAXX 11154 07650 12560 /2802 10190 20120 30138 40182 56009 60006 81230 91500=
07650,1996-10-11 18:00:00,16,1018.7,0.5,77,12,10000,3.704,,,180,13.3,19.4,,,,,,,,,wg-a,,,,AAXX 11184 07650 12/60 11802 10160 20120 30143 40187 53005 60006 80001 91800 333 10194 20133=
07650,1996-10-11 21:00:00,13,1019.6,0.8,88,11,10000,7.408,,,140,,,,,,,,,,,wg-a,,,,AAXX 11214 07650 12/60 01404 10130 20110 30151 40196 51008 60006 80000 92100=
07650,1996-10-12 00:00:00,12,1019,-0.6,88,10,8000,7.408,,,140,,,,,,,,,,,wg-a,,,,AAXX 12004 07650 12/58 01404 10120 20100 30145 40190 58006 60006 80000 90000=
07650,1996-10-12 03:00:00,11,1018.1,-0.9,94,10,8000,3.704,,,160,,,,,,,,,,,wg-a,,,,AAXX 12034 07650 12/58 01602 10110 20100 30136 40181 58009 60006 80000 90300=
07650,1996-10-12 06:00:00,10,1018.2,0.1,93,9,7000,0,,,0,10,15.7,,0,,,,,,,wg-a,,,,AAXX 12064 07650 02/57 10000 10100 20090 30137 40182 53001 60004 80001 90600 333 10157 20100 60007=
07650,1996-10-12 09:00:00,16,1019.4,1.3,88,14,8000,3.704,,,310,,,,,,,,,,,wg-a,,,,AAXX 12094 07650 12/58 /3102 10160 20140 30150 40194 51013 60006 80003 90900=
07650,1996-10-12 12:00:00,22,1017.8,-1.5,50,11,10000,14.816,,,160,,,,,,,,,,,wg-a,,,,AAXX 12124 07650 12560 21608 10220 20110 30135 40178 58015 60006 82200 91200=
07650,1996-10-12 15:00:00,21,1016.6,-1.2,53,11,12000,25.928,,,140,,,,,,,,,,,wg-a,,,,AAXX 12154 07650 12/62 31414 10210 20110 30123 40166 55012 60006 80002 91500=
07650,1996-10-12 18:00:00,18,1017.2,0.5,68,12,10000,18.52,,,140,9.9,22.7,,,,,,,,,wg-a,,,,AAXX 12184 07650 12/60 31410 10180 20120 30128 40172 53005 60006 80002 91800 333 10227 20099=
07650,1996-10-12 21:00:00,15,1017.7,0.5,77,11,10000,7.408,,,90,,,,,,,,,,,wg-a,,,,AAXX 12214 07650 12/60 20904 10150 20110 30133 40177 53005 60006 80002 92100=
07650,1996-10-13 00:00:00,14,1016.8,-0.9,77,10,12000,11.112,,,110,,,,,,,,,,,wg-a,,,,AAXX 13004 07650 12/62 21106 10140 20100 30124 40168 58009 60006 80002 90000=
07650,1996-10-13 03:00:00,14,1015.3,-1.5,77,10,12000,14.816,,,100,,,,,,,,,,,wg-a,,,,AAXX 13034 07650 12/62 31008 10140 20100 30109 40153 58015 60006 80001 90300=
07650,1996-10-13 06:00:00,16,1014.3,-1,72,11,9000,14.816,,,120,13.1,17.7,,,,,,,,,wg-a,,,,AAXX 13064 07650 12559 /1208 10160 20110 30099 40143 58010 60006 83530 90600 333 10177 20131=
07650,1996-10-13 09:00:00,21,1014.2,0,49,10,15000,31.484,,,140,,,,,,,,,,,wg-a,,,,AAXX 13094 07650 12665 /1417 10210 20100 30099 40142 50000 60006 82532 90900=
07650,1996-10-13 12:00:00,21,1012.6,-1.6,53,11,25000,29.632,,,100,,,,,,,,,,,wg-a,,,,AAXX 13124 07650 12675 61016 10210 20110 30083 40126 58016 60006 84230 91200=
07650,1996-10-13 15:00:00,21,1011.1,-1.5,56,12,500,25.928,,53.708,110,,,,,,,,,,,wg-a,,,,AAXX 13154 07650 12600 71114 10210 20120 30068 40111 56015 60006 81132 91500 333 91029=
07650,1996-10-13 18:00:00,19,1010.5,-0.6,60,11,15000,29.632,,,110,15.4,22.6,,,,,,,,,wg-a,,,,AAXX 13184 07650 12665 71116 10190 20110 30062 40105 56006 60006 83582 91800 333 10226 20154=
07650,1996-10-13 21:00:00,20,1009.8,-0.7,56,11,15000,38.892,,,120,,,,,,,,,,,wg-a,,,,AAXX 13214 07650 12665 81221 10200 20110 30055 40098 56007 60006 8357/ 92100=
07650,1996-10-14 00:00:00,19,1008.9,-0.9,60,11,25000,35.188,,61.116,120,,,,,,,,,,,wg-a,,,,AAXX 14004 07650 12675 81219 10190 20110 30046 40089 55009 60006 8457/ 90000 333 91033=
07650,1996-10-14 03:00:00,18,1007.3,-1.6,64,11,25000,35.188,,53.708,110,,,,,,,,,,,wg-a,,,,AAXX 14034 07650 12675 61119 10180 20110 30030 40073 56016 60006 82532 90300 333 91029=
07650,1996-10-14 06:00:00,19,1007.8,0.5,60,11,20000,31.484,,,130,17.9,19.6,,,,,,,,,wg-a,,,,AAXX 14064 07650 12670 71317 10190 20110 30035 40078 53005 60006 83532 90600 333 10196 20179=
07650,1996-10-14 09:00:00,19,1009.8,2,64,12,15000,35.188,,57.412,120,,,,,,,,,,,wg-a,,,,AAXX 14094 07650 12565 71219 10190 20120 30055 40098 50020 60006 8457/ 90900 333 91031=
07650,1996-10-14 12:00:00,17,1009.4,0.5,77,13,12000,29.632,,57.412,110,,,,1,,,,,,60,wg-a,,,,AAXX 14124 07650 02562 71116 10170 20130 30050 40094 50005 60016 76066 8557/ 91200 333 60017 91031=
07650,1996-10-14 15:00:00,17,1008.2,-1.2,82,14,12000,25.928,,,110,,,,1,,,,,,60,wg-a,,,,AAXX 14154 07650 12562 71114 10170 20140 30038 40082 56012 60017 76066 8557/ 91500=
07650,1996-10-14 18:00:00,18,1007.4,-0.7,68,12,10000,22.224,,,110,16.6,19.3,,0,,,,,,60,wg-a,,,,AAXX 14184 07650 12560 71112 10180 20120 30031 40074 55007 60007 76066 8557/ 91800 333 10193 20166=
07650,1996-10-14 21:00:00,19,1006.1,-1.3,68,13,20000,25.928,,,100,,,,,,,,,,3,wg-a,,,,AAXX 14214 07650 02670 81014 10190 20130 30018 40061 56013 61000 70362 8457/ 92100 333 ////=
07650,1996-10-15 00:00:00,20,1004.9,-1.2,64,13,20000,22.224,,,100,,,,,,,,,,2,wg-a,,,,AAXX 15004 07650 02670 81012 10200 20130 30006 40049 58012 61000 70262 8457/ 90000 333 ////=
07650,1996-10-15 03:00:00,20,1002.7,-2.2,68,14,15000,22.224,,,100,,,,1,,,,,,21,wg-a,,,,AAXX 15034 07650 12565 81012 10200 20140 39984 40027 58022 60017 72162 8557/ 90300=
07650,1996-10-15 06:00:00,17,1004.3,1.6,88,15,10000,11.112,,,120,16.4,20.4,,7,,,11,,,61,wg-a,,,,AAXX 15064 07650 02560 81206 10170 20150 30000 40043 53016 60114 76162 8557/ 90600 333 10204 20164 60077=
07650,1996-10-15 09:00:00,16,1005.7,1.4,94,15,500,11.112,,,320,,,,2,,,,,,61,wg-a,,,,AAXX 15094 07650 12200 83206 10160 20150 30014 40057 53014 60027 76166 888// 90900=
07650,1996-10-15 12:00:00,17,1005.1,-0.6,88,15,15000,22.224,,,360,,,,7,,,,,,21,wg-a,,,,AAXX 15124 07650 02465 73612 10170 20150 30008 40051 58006 60096 72162 8587/ 91200 333 60077=
07650,1996-10-15 15:00:00,17,1005.1,-0.6,88,15,11000,22.224,,,360,,,,7,,,,,,0,wg-a,,,,AAXX 15154 07650 02161 73612 10170 20150 30008 40051 58006 60096 700// 8587/ 91500 333 60077=
07650,1996-10-15 18:00:00,14,1005.9,0.9,82,11,13000,38.892,,57.412,350,14,16.8,,3,,,,,,61,wg-a,,,,AAXX 15184 07650 12463 83521 10140 20110 30015 40059 53009 60037 76162 8687/ 91800 333 10168 20140 91031=
07650,1996-10-15 21:00:00,14,1006.1,0.2,77,10,15000,29.632,,,350,,,,3,,,,,,21,wg-a,,,,AAXX 15214 07650 12665 83516 10140 20100 30017 40061 51002 60037 72162 875// 92100=
07650,1996-10-16 00:00:00,15,1005.4,-0.7,67,9,500,35.188,,61.116,340,,,,0,,,,,,,wg-a,,,,AAXX 16004 07650 02/00 /3419 10150 20090 30010 40054 56007 60036 90000 333 60007 91033=
07650,1996-10-16 03:00:00,14,1004.6,-0.8,72,9,500,50.004,,68.524,340,,,,,,,,,,,wg-a,,,,AAXX 16034 07650 12/00 63427 10140 20090 30002 40046 58008 60006 85032 90300 333 91037=
07650,1996-10-16 06:00:00,13,1005.1,0.5,72,8,500,42.596,,64.82,340,13,14.8,,,,,14,,,2,wg-a,,,,AAXX 16064 07650 02600 73423 10130 20080 30007 40051 50005 60144 70262 8257/ 90600 333 10148 20130 61000 91035=
07650,1996-10-16 09:00:00,14,1005.2,0.1,72,9,500,46.3,,,330,,,,,,,,,,,wg-a,,,,AAXX 16094 07650 12600 73325 10140 20090 30008 40052 50001 60006 85572 90900=
07650,1996-10-16 12:00:00,15,1005.8,0.6,59,7,40000,46.3,,75.932,340,,,,,,,,,,,wg-a,,,,AAXX 16124 07650 12582 73425 10150 20070 30014 40058 53006 60006 81132 91200 333 91041=
07650,1996-10-16 15:00:00,14,1005.8,-0,55,5,40000,57.412,,79.636,340,,,,,,,,,,,wg-a,,,,AAXX 16154 07650 12582 /3431 10140 20050 30014 40058 54000 60006 84542 91500 333 91043=
07650,1996-10-16 18:00:00,13,1007.1,1.3,54,4,500,42.596,,64.82,340,13,14.8,,,,,,,,,wg-a,,,,AAXX 16184 07650 12600 /3423 10130 20040 30027 40071 53013 60006 83542 91800 333 10148 20130 91035=
07650,1996-10-17 00:00:00,12,1008.8,0.8,62,5,0,42.596,,,320,,,,,,,,,,,wg-a,,,,AAXX 17004 07650 12/// /3223 10120 20050 30044 40088 52008 60006 90000=
07650,1996-10-17 06:00:00,11,1010.4,0.6,66,5,0,22.224,,,330,10.5,13.1,,,,,,,,,wg-a,,,,AAXX 17064 07650 12/// /3312 10110 20050 30059 40104 53006 60006 90600 333 10131 20105=
07650,1996-10-17 09:00:00,13,1010.8,0.5,67,7,75000,22.224,,,310,,,,,,,,,,,wg-a,,,,AAXX 17094 07650 12/89 13112 10130 20070 30064 40108 52005 60006 81040 90900=
07650,1996-10-17 12:00:00,17,1010.6,-0.2,55,8,11000,18.52,,,300,,,,,,,,,,,wg-a,,,,AAXX 17124 07650 12/61 /3010 10170 20080 30062 40106 58002 60006 91200=
07650,1996-10-17 15:00:00,17,1009.9,-0.7,63,10,0,29.632,,,300,,,,,,,,,,,wg-a,,,,AAXX 17154 07650 12/// /3016 10170 20100 30055 40099 55007 60006 91500=
07650,1996-10-17 18:00:00,15,1010.9,1,72,10,75000,25.928,,,300,10.2,18.1,,,,,,,,,wg-a,,,,AAXX 17184 07650 12689 43014 10150 20100 30065 40109 53010 60006 82430 91800 333 10181 20102=
07650,1996-10-18 00:00:00,9,1012.4,0.4,87,7,0,14.816,,,320,,,,,,,,,,,wg-a,,,,AAXX 18004 07650 12/// /3208 10090 20070 30079 40124 53004 60006 90000=
07650,1996-10-18 06:00:00,9,1013.8,1,76,5,0,11.112,,,340,8.7,14.7,,,,,,,,,wg-a,,,,AAXX 18064 07650 12/// /3406 10090 20050 30093 40138 52010 60006 90600 333 10147 20087=
07650,1996-10-18 09:00:00,13,1015.6,1.8,62,6,75000,18.52,,,320,,,,,,,,,,,wg-a,,,,AAXX 18094 07650 12/89 03210 10130 20060 30111 40156 53018 60006 80000 90900=
07650,1996-10-18 12:00:00,17,1015.5,-0.1,45,5,75000,29.632,,,320,,,,,,,,,,,wg-a,,,,AAXX 18124 07650 12/89 13216 10170 20050 30111 40155 58001 60006 81040 91200=
07650,1996-10-18 15:00:00,18,1016.1,0.6,49,7,75000,18.52,,,280,,,,,,,,,,,wg-a,,,,AAXX 18154 07650 12/89 22810 10180 20070 30117 40161 53006 60006 82040 91500=
07650,1996-10-18 18:00:00,14,1017.4,1.3,82,11,10000,7.408,,,290,9,17.8,,,,,,,,,wg-a,,,,AAXX 18184 07650 12/60 /2904 10140 20110 30130 40174 51013 60006 91800 333 10178 20090=
07650,1996-10-18 21:00:00,12,1018.7,1.2,88,10,500,7.408,,,120,,,,,,,,,,,wg-a,,,,AAXX 18214 07650 12/00 21204 10120 20100 30142 40187 53012 60006 82030 92100=
07650,1996-10-19 00:00:00,11,1018.7,0,87,9,20000,3.704,,,140,,,,,,,,,,,wg-a,,,,AAXX 19004 07650 12/70 11402 10110 20090 30142 40187 50000 60006 81030 90000=
07650,1996-10-19 03:00:00,9,1018.9,0.2,93,8,20000,7.408,,,360,,,,,,,,,,,wg-a,,,,AAXX 19034 07650 12/70 03604 10090 20080 30144 40189 50002 60006 80000 90300=
07650,1996-10-19 06:00:00,11,1020,1.1,87,9,20000,18.52,,,360,9.1,14.4,,,,,,,,,wg-a,,,,AAXX 19064 07650 12/70 33610 10110 20090 30155 40200 51011 60006 82031 90600 333 10144 20091=
07650,1996-10-19 09:00:00,14,1021.8,1.8,77,10,25000,22.224,,,310,,,,,,,,,,,wg-a,,,,AAXX 19094 07650 12675 53112 10140 20100 30173 40218 51018 60006 81532 90900=
07650,1996-10-19 12:00:00,19,1021.5,-0.2,60,11,20000,29.632,,,320,,,,,,,,,,,wg-a,,,,AAXX 19124 07650 12670 43216 10190 20110 30171 40215 58002 60006 81532 91200=
07650,1996-10-19 15:00:00,19,1021.2,-0.3,49,8,500,31.484,,,340,,,,,,,,,,,wg-a,,,,AAXX 19154 07650 12500 23417 10190 20080 30168 40212 55003 60006 82132 91500=
07650,1996-10-19 18:00:00,17,1022,0.8,52,7,500,50.004,,61.116,340,10.5,20,,,,,,,,,wg-a,,,,AAXX 19184 07650 12500 /3427 10170 20070 30176 40220 50008 60006 81500 91800 333 10200 20105 91033=
07650,1996-10-19 21:00:00,15,1023.8,1.7,63,8,500,29.632,,46.3,340,,,,,,,,,,,wg-a,,,,AAXX 19214 07650 12/00 03416 10150 20080 30193 40238 51017 60006 80000 92100 333 91025=
07650,1996-10-20 00:00:00,14,1023.9,0.1,63,7,500,29.632,,,340,,,,,,,,,,,wg-a,,,,AAXX 20004 07650 12/00 03416 10140 20070 30194 40239 53001 60006 80000 90000=
07650,1996-10-20 06:00:00,11,1023.4,0.4,71,6,500,11.112,,,350,10.7,17,,,,,,,,,wg-a,,,,AAXX 20064 07650 12/00 33506 10110 20060 30189 40234 53004 60006 80001 90600 333 10170 20107=
07650,1996-10-20 12:00:00,19,1024.2,-0.7,52,9,40000,14.816,,,240,,,,,,,,,,,wg-a,,,,AAXX 20124 07650 12/82 42408 10190 20090 30198 40242 58007 60006 80001 91200=
07650,1996-10-20 15:00:00,21,1023.3,-0.9,43,8,40000,11.112,,,250,,,,,,,,,,,wg-a,,,,AAXX 20154 07650 12/82 42506 10210 20080 30189 40233 56009 60006 80002 91500=
07650,1996-10-20 18:00:00,16,1023.7,0.4,63,9,25000,7.408,,,170,10.5,21.7,,,,,,,,,wg-a,,,,AAXX 20184 07650 12/75 31704 10160 20090 30193 40237 53004 60006 81041 91800 333 10217 20105=
07650,1996-10-20 21:00:00,15,1023.3,-0.5,63,8,25000,18.52,,,330,,,,,,,,,,,wg-a,,,,AAXX 20214 07650 12/75 33310 10150 20080 30188 40233 58005 60006 81041 92100=
07650,1996-10-21 00:00:00,13,1022.7,-0.6,67,7,25000,14.816,,,360,,,,,,,,,,,wg-a,,,,AAXX 21004 07650 12/75 23608 10130 20070 30182 40227 58006 60006 81031 90000=
07650,1996-10-21 03:00:00,14,1021.3,-1.4,67,8,20000,3.704,,,310,,,,,,,,,,,wg-a,,,,AAXX 21034 07650 12/70 03102 10140 20080 30168 40213 58014 60006 80000 90300=
07650,1996-10-21 06:00:00,13,1021.3,0,72,8,20000,11.112,,,220,11.4,16,,,,,,,,,wg-a,,,,AAXX 21064 07650 12/70 32206 10130 20080 30168 40213 50000 60006 81032 90600 333 10160 20114=
07650,1996-10-21 09:00:00,17,1020.7,-0.5,63,10,500,14.816,,,240,,,,,,,,,,,wg-a,,,,AAXX 21094 07650 12600 32408 10170 20100 30163 40207 58005 60006 81542 90900=
07650,1996-10-21 12:00:00,21,1019,-1.6,56,12,50000,29.632,,,310,,,,,,,,,,,wg-a,,,,AAXX 21124 07650 12684 53116 10210 20120 30147 40190 56016 60006 81542 91200=
07650,1996-10-21 15:00:00,22,1017.7,-1.3,60,14,25000,31.484,,,310,,,,,,,,,,,wg-a,,,,AAXX 21154 07650 12675 /3117 10220 20140 30134 40177 56013 60006 81142 91500=
07650,1996-10-21 18:00:00,19,1018.1,0.3,73,14,25000,31.484,,,320,12.6,22.8,,,,,,,,,wg-a,,,,AAXX 21184 07650 12675 23217 10190 20140 30137 40181 53003 60006 81430 91800 333 10228 20126=
07650,1996-10-21 21:00:00,18,1018.2,0.1,73,13,20000,31.484,,,340,,,,,,,,,,,wg-a,,,,AAXX 21214 07650 12/70 03417 10180 20130 30138 40182 50001 60006 80000 92100=
07650,1996-10-22 00:00:00,17,1017.4,-0.8,77,13,20000,35.188,,50.004,340,,,,,,,,,,,wg-a,,,,AAXX 22004 07650 12/70 03419 10170 20130 30130 40174 56008 60006 80000 90000 333 91027=
07650,1996-10-22 03:00:00,16,1016.7,-0.7,77,12,20000,18.52,,,350,,,,,,,,,,,wg-a,,,,AAXX 22034 07650 12/70 03510 10160 20120 30123 40167 58007 60006 80000 90300=
07650,1996-10-22 06:00:00,12,1017.3,0.5,88,10,12000,3.704,,,140,11.5,19.1,,,,,,,,,wg-a,,,,AAXX 22064 07650 02/62 11402 10120 20100 30128 40173 51005 61000 81031 90600 333 10191 20115 6100=
07650,1996-10-22 09:00:00,17,1018,0.8,72,12,75000,7.408,,,10,,,,,,,,,,,wg-a,,,,AAXX 22094 07650 12/89 20104 10170 20120 30136 40180 50008 60006 81041 90900=
07650,1996-10-22 12:00:00,22,1017,-0.9,53,12,75000,7.408,,,280,,,,,,,,,,,wg-a,,,,AAXX 22124 07650 12/89 22804 10220 20120 30127 40170 58009 60006 80001 91200=
07650,1996-10-22 15:00:00,22,1016.7,-0.3,50,11,75000,11.112,,,220,,,,,,,,,,,wg-a,,,,AAXX 22154 07650 12/89 22206 10220 20110 30124 40167 56003 60006 80001 91500=
07650,1996-10-22 18:00:00,17,1017.9,1.1,82,14,25000,7.408,,,170,11.2,22.4,,,,,,,,,wg-a,,,,AAXX 22184 07650 12/75 11704 10170 20140 30135 40179 53011 60006 80001 91800 333 10224 20112=
07650,1996-10-22 21:00:00,14,1018.5,0.6,88,12,20000,3.704,,,150,,,,,,,,,,,wg-a,,,,AAXX 22214 07650 12/70 01502 10140 20120 30141 40185 51006 60006 80000 92100=
07650,1996-10-23 00:00:00,12,1018.6,0,94,11,20000,0,,,0,,,,,,,,,,,wg-a,,,,AAXX 23004 07650 12/70 00000 10120 20110 30141 40186 50000 60006 80000 90000=
07650,1996-10-23 03:00:00,11,1018.7,0.1,94,10,10000,0,,,0,,,,,,,,,,,wg-a,,,,AAXX 23034 07650 32/60 00000 10110 20100 30142 40187 53001 80000 90300=
07650,1996-10-23 06:00:00,10,1019.9,1.2,93,9,8000,3.704,,,120,9.8,16.9,,,,,,,,,wg-a,,,,AAXX 23064 07650 12/58 21202 10100 20090 30154 40199 53012 60004 80001 90600 333 10169 20098=
07650,1996-10-23 12:00:00,18,1021.4,,83,15,8000,7.408,,,300,,,,,,,,,,,wg-a,,,,AAXX 23124 07650 12558 33004 10180 20150 30170 40214 60006 91200=
07650,1996-10-23 15:00:00,20,1020.8,-0.5,73,15,12000,11.112,,,220,,,,0,,,,,,,wg-a,,,,AAXX 23154 07650 12562 42206 10200 20150 30164 40208 56005 60007 83102 91500=
07650,1996-10-23 18:00:00,16,1022,,88,14,9000,3.704,,,200,9.8,20.4,,,,,,,,,wg-a,,,,AAXX 23184 07650 12459 /2002 10160 20140 30176 40220 60006 91800 333 10204 20098=
07650,1996-10-23 21:00:00,16,1023.1,1.1,88,14,8000,11.112,,,70,,,,,,,,,,,wg-a,,,,AAXX 23214 07650 12458 70706 10160 20140 30187 40231 53011 60006 875// 92100=
07650,1996-10-24 00:00:00,15,1024,0.8,88,13,6000,3.704,,,120,,,,,,,,,,,wg-a,,,,AAXX 24004 07650 12456 21202 10150 20130 30195 40240 51008 60006 82500 90000=
07650,1996-10-24 03:00:00,13,1024.1,0.1,94,12,6000,3.704,,,150,,,,,,,,,,,wg-a,,,,AAXX 24034 07650 12456 21502 10130 20120 30196 40241 51001 60006 82500 90300=
07650,1996-10-24 06:00:00,13,1024.5,0.4,88,11,500,0,,,0,12.2,16.5,,,,,,,,,wg-a,,,,AAXX 24064 07650 12500 30000 10130 20110 30200 40245 51004 60006 83500 90600 333 10165 20122=
07650,1996-10-24 09:00:00,16,1024.6,0.2,82,13,500,11.112,,,90,,,,,,,,,,,wg-a,,,,AAXX 24094 07650 12400 40906 10160 20130 30202 40246 50002 60006 84500 90900=
07650,1996-10-24 12:00:00,19,1023.4,-1.2,68,13,6000,3.704,,,240,,,,,,,,,,,wg-a,,,,AAXX 24124 07650 12456 72402 10190 20130 30190 40234 58012 60006 875// 91200=
07650,1996-10-24 15:00:00,18,1022.2,-1.2,68,12,10000,7.408,,,290,,,,,,,,,,,wg-a,,,,AAXX 24154 07650 12560 /2904 10180 20120 30178 40222 56012 60006 86500 91500=
07650,1996-10-24 18:00:00,15,1022.5,0.2,82,12,15000,0,,,0,12.4,19.9,,,,,,,,,wg-a,,,,AAXX 24184 07650 12565 20000 10150 20120 30180 40225 53002 60006 82500 91800 333 10199 20124=
07650,1996-10-24 21:00:00,15,1023.1,0.6,88,13,9000,0,,,0,,,,,,,,,,,wg-a,,,,AAXX 24214 07650 12559 70000 10150 20130 30186 40231 53006 60006 8353/ 92100=
07650,1996-10-25 00:00:00,16,1023.7,0.6,82,13,8000,3.704,,,320,,,,,,,,,,,wg-a,,,,AAXX 25004 07650 12458 /3202 10160 20130 30192 40237 51006 60006 85530 90000=
07650,1996-10-25 03:00:00,15,1023.4,-0.2,82,12,8000,11.112,,,100,,,,,,,,,,,wg-a,,,,AAXX 25034 07650 12458 71006 10150 20120 30190 40234 58002 60006 875// 90300=
07650,1996-10-25 06:00:00,16,1023.9,0.5,82,13,8000,3.704,,,130,14.1,15.6,,,,,,,,,wg-a,,,,AAXX 25064 07650 12458 71302 10160 20130 30195 40239 51005 60006 875// 90600 333 10156 20141=
07650,1996-10-25 09:00:00,17,1024.7,0.8,77,13,8000,3.704,,,10,,,,,,,,,,,wg-a,,,,AAXX 25094 07650 12658 70102 10170 20130 30203 40247 51008 60006 875// 90900=
07650,1996-10-25 12:00:00,20,1023.8,-0.9,60,12,9000,11.112,,,290,,,,,,,,,,,wg-a,,,,AAXX 25124 07650 12/59 /2906 10200 20120 30194 40238 58009 60006 91200=
07650,1996-10-25 18:00:00,16,1023.8,0.6,82,13,12000,7.408,,,140,15.4,20.6,,,,,,,,,wg-a,,,,AAXX 25184 07650 12462 /1404 10160 20130 30194 40238 53006 60006 83532 91800 333 10206 20154=
07650,1996-10-26 00:00:00,14,1025,-0,94,13,4000,0,,,0,,,,,,,,,,10,wg-a,,,,AAXX 26004 07650 12240 70000 10140 20130 30205 40250 54000 60006 71011 876// 90000=
07650,1996-10-26 06:00:00,14,1025.2,0.6,100,14,1500,11.112,,,320,13.4,16.4,,0,,,,,,28,wg-a,,,,AAXX 26064 07650 02115 93206 10140 20140 30207 40252 50006 60004 72842 896// 90600 333 10164 20134 60007=
07650,1996-10-26 12:00:00,20,1024.9,-1.2,68,14,6000,3.704,,,240,,,,,,,,,,1,wg-a,,,,AAXX 26124 07650 12456 /2402 10200 20140 30205 40249 58012 60006 70142 84600 91200=
07650,1996-10-26 15:00:00,20,1023.9,-1,53,10,15000,22.224,,,330,,,,,,,,,,,wg-a,,,,AAXX 26154 07650 12565 73312 10200 20100 30195 40239 56010 60006 84502 91500=
07650,1996-10-26 18:00:00,17,1024.7,0.8,77,13,15000,11.112,,,250,14.1,20.7,,,,,,,,,wg-a,,,,AAXX 26184 07650 12465 72506 10170 20130 30203 40247 53008 60006 81502 91800 333 10207 20141=
07650,1996-10-26 21:00:00,14,1025,0.2,88,12,15000,0,,,0,,,,,,,,,,,wg-a,,,,AAXX 26214 07650 12/65 40000 10140 20120 30205 40250 51002 60006 80002 92100=
07650,1996-10-27 00:00:00,14,1025.2,0.2,77,10,15000,11.112,,,140,,,,,,,,,,,wg-a,,,,AAXX 27004 07650 12/65 51406 10140 20100 30207 40252 52002 60006 80002 90000=
07650,1996-10-27 03:00:00,14,1025,-0.2,82,11,15000,3.704,,,100,,,,,,,,,,,wg-a,,,,AAXX 27034 07650 12465 31002 10140 20110 30205 40250 58002 60006 81502 90300=
07650,1996-10-27 06:00:00,14,1025.3,0.3,82,11,7000,7.408,,,90,13.6,17.1,,,,,,,,,wg-a,,,,AAXX 27064 07650 12457 80904 10140 20110 30208 40253 53003 60006 81502 90600 333 10171 20136=
07650,1996-10-27 09:00:00,17,1026.5,1.3,72,12,9000,11.112,,,80,,,,,,,,,,,wg-a,,,,AAXX 27094 07650 12559 50806 10170 20120 30221 40265 53013 60006 82532 90900=
07650,1996-10-27 12:00:00,18,1025.9,-0.6,73,13,10000,7.408,,,310,,,,,,,,,,,wg-a,,,,AAXX 27124 07650 12560 /3104 10180 20130 30215 40259 58006 60006 84802 91200=
07650,1996-10-27 15:00:00,18,1025,-0.9,73,13,10000,14.816,,,170,,,,,,,,,,,wg-a,,,,AAXX 27154 07650 12660 /1708 10180 20130 30206 40250 55009 60006 82502 91500=
07650,1996-10-27 18:00:00,16,1025.2,0.2,77,12,10000,7.408,,,170,14.1,19.9,,,,,,,,,wg-a,,,,AAXX 27184 07650 12/60 31704 10160 20120 30208 40252 53002 60006 80002 91800 333 10199 20141=
07650,1996-10-27 21:00:00,16,1025.3,-0,77,12,10000,11.112,,,110,,,,,,,,,,,wg-a,,,,AAXX 27214 07650 12/60 51106 10160 20120 30208 40253 55000 60006 80002 92100=
07650,1996-10-28 00:00:00,14,1024.3,-1,82,11,10000,11.112,,,110,,,,,,,,,,,wg-a,,,,AAXX 28004 07650 12/60 21106 10140 20110 30198 40243 58010 60006 80002 90000=
07650,1996-10-28 03:00:00,14,1023,-1.3,82,11,8000,3.704,,,80,,,,,,,,,,,wg-a,,,,AAXX 28034 07650 12558 70802 10140 20110 30185 40230 58013 60006 84530 90300=
07650,1996-10-28 06:00:00,14,1022,-1,82,11,7000,11.112,,,70,13,15.6,,,,,,,,,wg-a,,,,AAXX 28064 07650 12557 70706 10140 20110 30175 40220 58010 60006 8653/ 90600 333 10156 20130=
07650,1996-10-28 09:00:00,16,1021.7,-0.2,77,12,7000,7.408,,,100,,,,,,,,,,,wg-a,,,,AAXX 28094 07650 12557 71004 10160 20120 30173 40217 58002 60006 875// 90900=
07650,1996-10-28 12:00:00,20,1019.9,-1.8,73,15,9000,7.408,,,360,,,,,,,,,,,wg-a,,,,AAXX 28124 07650 12559 43604 10200 20150 30155 40199 58018 60006 84500 91200=
07650,1996-10-28 15:00:00,20,1018.7,-1.2,68,14,9000,7.408,,,290,,,,,,,,,,,wg-a,,,,AAXX 28154 07650 12659 42904 10200 20140 30143 40187 56012 60006 82502 91500=
07650,1996-10-28 18:00:00,16,1019.1,0.4,88,14,7000,7.408,,,140,14,20.5,,,,,,,,,wg-a,,,,AAXX 28184 07650 12557 41404 10160 20140 30147 40191 53004 60006 81502 91800 333 10205 20140=
07650,1996-10-28 21:00:00,14,1019.1,-0,94,13,6000,7.408,,,120,,,,,,,,,,,wg-a,,,,AAXX 28214 07650 12/56 31204 10140 20130 30147 40191 55000 60006 81032 92100=
07650,1996-10-29 00:00:00,14,1018,-1.1,94,13,500,7.408,,,120,,,,,,,,,,,wg-a,,,,AAXX 29004 07650 12400 51204 10140 20130 30136 40180 58011 60006 84502 90000=
07650,1996-10-29 03:00:00,14,1017.2,-0.8,94,13,4000,0,,,0,,,,0,,,,,,10,wg-a,,,,AAXX 29034 07650 12440 /0000 10140 20130 30128 40172 56008 60007 71011 86502 90300=
07650,1996-10-29 06:00:00,15,1016.1,-1.1,88,13,4000,11.112,,,90,13.5,16.4,,,,,,,,10,wg-a,,,,AAXX 29064 07650 02540 80906 10150 20130 30117 40161 58011 60004 71061 8357/ 90600 333 10164 20135 61000=
07650,1996-10-29 09:00:00,15,1017.1,1,94,14,3000,3.704,,,80,,,,,,,,,,10,wg-a,,,,AAXX 29094 07650 12630 70802 10150 20140 30127 40171 50010 60006 71022 8257/ 90900=
07650,1996-10-29 12:00:00,17,1016.9,-0.2,77,13,10000,22.224,,,320,,,,,,,,,,10,wg-a,,,,AAXX 29124 07650 02660 73212 10170 20130 30125 40169 58002 61000 71062 8357/ 91200 333 6100=
07650,1996-10-29 15:00:00,18,1016.4,-0.5,56,9,20000,25.928,,,310,,,,0,,,,,,,wg-a,,,,AAXX 29154 07650 12670 /3114 10180 20090 30120 40164 56005 60007 81532 91500=
07650,1996-10-29 18:00:00,15,1017.5,1.1,63,8,20000,29.632,,,320,14.6,18.1,,,,,,,,,wg-a,,,,AAXX 29184 07650 32670 33216 10150 20080 30131 40175 53011 81532 91800 333 10181 20146=
07650,1996-10-29 21:00:00,14,1018.9,1.3,63,7,20000,35.188,,,320,,,,,,,,,,20,wg-a,,,,AAXX 29214 07650 02/70 23219 10140 20070 30144 40189 51013 61000 7200/ 81032 92100 333 ////=
07650,1996-10-30 00:00:00,14,1020.1,1.2,63,7,20000,29.632,,,320,,,,,,,,,,,wg-a,,,,AAXX 30004 07650 02/70 23216 10140 20070 30156 40201 51012 61000 80001 90000 333 ////=
07650,1996-10-30 03:00:00,13,1020.3,0.2,72,8,20000,38.892,,,330,,,,,,,,,,,wg-a,,,,AAXX 30034 07650 02/70 23321 10130 20080 30158 40203 53002 61000 80001 90300 333 ////=
07650,1996-10-30 06:00:00,13,1020.6,0.3,54,4,20000,38.892,,,340,12.1,15.4,,,,,,,,,wg-a,,,,AAXX 30064 07650 12/70 03421 10130 20040 30161 40206 53003 60004 80000 90600 333 10154 20121=
07650,1996-10-30 09:00:00,14,1022.2,1.6,51,4,40000,50.004,,72.228,350,,,,,,,,,,,wg-a,,,,AAXX 30094 07650 12/82 03527 10140 20040 30177 40222 50016 60006 80000 90900 333 91039=
07650,1996-10-30 12:00:00,16,1022.5,0.4,48,5,40000,42.596,,57.412,340,,,,,,,,,,,wg-a,,,,AAXX 30124 07650 12/82 23423 10160 20050 30181 40225 50004 60006 80001 91200 333 91031=
07650,1996-10-30 15:00:00,16,1022.4,-0.1,45,4,25000,38.892,,,340,,,,,,,,,,,wg-a,,,,AAXX 30154 07650 12/75 33421 10160 20040 30180 40224 55001 60006 80002 91500=
07650,1996-10-30 18:00:00,12,1023.3,0.8,50,2,20000,25.928,,,360,12.2,16.2,,,,,,,,,wg-a,,,,AAXX 30184 07650 12/70 23614 10120 20020 30188 40233 53008 60006 80002 91800 333 10162 20122=
07650,1996-10-30 21:00:00,8,1024.4,1,66,2,20000,14.816,,,330,,,,,,,,,,,wg-a,,,,AAXX 30214 07650 12/70 03308 10080 20020 30198 40244 53010 60006 80000 92100=
07650,1996-10-31 00:00:00,5,1025.1,0.7,81,2,20000,11.112,,,340,,,,,,,,,,,wg-a,,,,AAXX 31004 07650 12/70 13406 10050 20020 30205 40251 51007 60006 80002 90000=
07650,1996-10-31 03:00:00,5,1025.2,0.1,81,2,20000,11.112,,,150,,,,,,,,,,,wg-a,,,,AAXX 31034 07650 12/70 01506 10050 20020 30206 40252 51001 60006 80000 90300=
07650,1996-10-31 06:00:00,4,1025.6,0.4,87,2,20000,3.704,,,140,4,12.2,,,,,,,,,wg-a,,,,AAXX 31064 07650 12/70 11402 10040 20020 30210 40256 50004 60006 80001 90600 333 10122 20040=
07650,1996-10-31 09:00:00,10,1026.4,0.9,66,4,15000,3.704,,,310,,,,,,,,,,,wg-a,,,,AAXX 31094 07650 12/65 23102 10100 20040 30219 40264 51009 60006 80002 90900=
07650,1996-10-31 12:00:00,15,1026.2,-0.2,55,6,10000,7.408,,,290,,,,,,,,,,,wg-a,,,,AAXX 31124 07650 12/60 22904 10150 20060 30217 40262 58002 60006 80002 91200=
07650,1996-10-31 15:00:00,19,1025,-1.1,43,6,20000,7.408,,,280,,,,,,,,,,,wg-a,,,,AAXX 31154 07650 12/70 32804 10190 20060 30206 40250 55011 60006 80002 91500=
07650,1996-10-31 18:00:00,13,1025.9,0.8,72,8,20000,3.704,,,280,3.8,19,,,,,,,,,wg-a,,,,AAXX 31184 07650 12/70 12802 10130 20080 30214 40259 53008 60006 80002 91800 333 10190 20038=
07650,1996-10-31 21:00:00,9,1026.2,0.2,87,7,15000,11.112,,,140,,,,,,,,,,,wg-a,,,,AAXX 31214 07650 32/65 01406 10090 20070 30216 40262 52002 80000 92100=
07650,1996-11-01 00:00:00,8,1025.6,-0.6,87,6,10000,7.408,,,20,,,,,,,,,,,wg-a,,,,AAXX 01004 07650 12/60 00204 10080 20060 30210 40256 56006 60006 80000 90000=
07650,1996-11-01 03:00:00,7,1025.9,0.3,93,6,10000,7.408,,,310,,,,,,,,,,,wg-a,,,,AAXX 01034 07650 12/60 03104 10070 20060 30213 40259 50003 60006 80000 90300=
07650,1996-11-01 06:00:00,7,1026,0.1,93,6,15000,7.408,,,310,6.5,12,,0,,,,,,,wg-a,,,,AAXX 01064 07650 02/65 03104 10070 20060 30214 40260 50001 60004 80000 90600 333 10120 20065 60007=
07650,1996-11-01 09:00:00,15,1025.7,-0.2,72,10,15000,25.928,,,320,,,,,,,,,,,wg-a,,,,AAXX 01094 07650 12665 23214 10150 20100 30212 40257 58002 60006 81502 90900=
07650,1996-11-01 12:00:00,19,1025.9,0.3,52,9,15000,25.928,,,330,,,,,,,,,,,wg-a,,,,AAXX 01124 07650 12665 /3314 10190 20090 30215 40259 53003 60006 81102 91200=
07650,1996-11-01 15:00:00,19,1023.4,-2.5,49,8,20000,50.004,,83.34,330,,,,,,,,,,,wg-a,,,,AAXX 01154 07650 12670 73327 10190 20080 30190 40234 56025 60006 81102 91500 333 91045=
07650,1996-11-01 18:00:00,17,1024.8,1.4,55,8,20000,31.484,,53.708,340,7.1,19.1,,,,,,,,,wg-a,,,,AAXX 01184 07650 12/70 53417 10170 20080 30204 40248 53014 60006 80002 91800 333 10191 20071 91029=
07650,1996-11-01 21:00:00,15,1025.2,0.3,59,7,20000,18.52,,,360,,,,,,,,,,,wg-a,,,,AAXX 01214 07650 12/70 23610 10150 20070 30207 40252 53003 60006 80002 92100=
07650,1996-11-02 00:00:00,10,1025.7,0.5,76,6,20000,7.408,,,140,,,,,,,,,,,wg-a,,,,AAXX 02004 07650 12/70 01404 10100 20060 30212 40257 51005 60006 80000 90000=
07650,1996-11-02 03:00:00,8,1026.3,0.5,87,6,20000,0,,,0,,,,,,,,,,,wg-a,,,,AAXX 02034 07650 12/70 10000 10080 20060 30217 40263 51005 60006 80002 90300=
07650,1996-11-02 06:00:00,7,1027.1,0.8,87,5,20000,3.704,,,160,6.9,17,,,,,,,,,wg-a,,,,AAXX 02064 07650 12/70 11602 10070 20050 30225 40271 53008 60006 80002 90600 333 10170 20069=
07650,1996-11-02 09:00:00,14,1027.9,0.9,67,8,20000,3.704,,,230,,,,,,,,,,,wg-a,,,,AAXX 02094 07650 12/70 12302 10140 20080 30234 40279 51009 60006 80002 90900=
07650,1996-11-02 12:00:00,18,1027.2,-0.6,56,9,20000,7.408,,,270,,,,,,,,,,,wg-a,,,,AAXX 02124 07650 12/70 12704 10180 20090 30228 40272 58006 60006 80002 91200=
07650,1996-11-02 15:00:00,19,1026.4,-0.8,52,9,500,3.704,,,230,,,,,,,,,,,wg-a,,,,AAXX 02154 07650 12/00 02302 10190 20090 30220 40264 55008 60006 80000 91500=
07650,1996-11-02 18:00:00,13,1027.1,0.6,77,9,10000,7.408,,,140,6.5,20.1,,,,,,,,,wg-a,,,,AAXX 02184 07650 12/60 /1404 10130 20090 30226 40271 53006 60006 91800 333 10201 20065=
07650,1996-11-02 21:00:00,10,1027.6,0.5,87,8,20000,7.408,,,140,,,,,,,,,,,wg-a,,,,AAXX 02214 07650 12/70 01404 10100 20080 30231 40276 53005 60006 80000 92100=
07650,1996-11-03 00:00:00,9,1027.7,-0,87,7,20000,3.704,,,130,,,,,,,,,,,wg-a,,,,AAXX 03004 07650 12/70 01302 10090 20070 30231 40277 55000 60006 80000 90000=
07650,1996-11-03 03:00:00,9,1027.4,-0.3,93,8,20000,7.408,,,110,,,,,,,,,,,wg-a,,,,AAXX 03034 07650 32/70 01104 10090 20080 30228 40274 58003 80000 90300=
07650,1996-11-03 06:00:00,9,1027.7,0.3,93,8,10000,3.704,,,80,7.8,13.3,,,,,,,,,wg-a,,,,AAXX 03064 07650 12/60 00802 10090 20080 30231 40277 53003 60004 80000 90600 333 10133 20078=
07650,1996-11-03 09:00:00,13,1028.7,1.1,94,12,500,0,,,0,,,,,,,,,,,wg-a,,,,AAXX 03094 07650 12200 /0000 10130 20120 30242 40287 51011 60006 81600 90900=
07650,1996-11-03 12:00:00,17,1027.3,-1.3,77,13,8000,7.408,,,290,,,,,,,,,,,wg-a,,,,AAXX 03124 07650 12558 /2904 10170 20130 30229 40273 58013 60006 81100 91200=
07650,1996-11-03 15:00:00,18,1026,-1.3,68,12,12000,7.408,,,240,,,,,,,,,,,wg-a,,,,AAXX 03154 07650 12562 /2404 10180 20120 30216 40260 56013 60006 81101 91500=
07650,1996-11-03 18:00:00,14,1026.5,0.4,82,11,12000,7.408,,,140,8.4,18.6,,,,,,,,,wg-a,,,,AAXX 03184 07650 12/62 11404 10140 20110 30220 40265 53004 60006 80001 91800 333 10186 20084=
07650,1996-11-03 21:00:00,12,1026.4,-0.1,94,11,12000,3.704,,,140,,,,,,,,,,,wg-a,,,,AAXX 03214 07650 12/62 31402 10120 20110 30219 40264 56001 60006 80001 92100=
07650,1996-11-04 00:00:00,14,1026,-0.4,88,12,8000,11.112,,,80,,,,,,,,,,,wg-a,,,,AAXX 04004 07650 12458 /0806 10140 20120 30215 40260 58004 60006 85500 90000=
07650,1996-11-04 03:00:00,14,1024.9,-1.1,82,11,8000,11.112,,,100,,,,,,,,,,,wg-a,,,,AAXX 04034 07650 12558 71006 10140 20110 30204 40249 58011 60006 875// 90300=
07650,1996-11-04 06:00:00,13,1024.5,-0.4,82,10,8000,11.112,,,110,11.7,13.9,,,,,,,,,wg-a,,,,AAXX 04064 07650 12558 71106 10130 20100 30200 40245 56004 60006 875// 90600 333 10139 20117=
07650,1996-11-04 09:00:00,14,1024.3,-0.2,77,10,8000,22.224,,,90,,,,,,,,,,,wg-a,,,,AAXX 04094 07650 12558 70912 10140 20100 30198 40243 58002 60006 875// 90900=
07650,1996-11-04 12:00:00,18,1022.7,-1.5,68,12,10000,18.52,,,140,,,,,,,,,,,wg-a,,,,AAXX 04124 07650 12560 71410 10180 20120 30183 40227 58015 60006 875// 91200=
07650,1996-11-04 15:00:00,17,1020.9,-1.8,77,13,10000,14.816,,,140,,,,,,,,,,,wg-a,,,,AAXX 04154 07650 12560 71408 10170 20130 30165 40209 56018 60006 875// 91500=
07650,1996-11-04 18:00:00,17,1019.6,-1.3,82,14,9000,18.52,,,150,13.2,17.9,,,,,,,,,wg-a,,,,AAXX 04184 07650 02459 71510 10170 20140 30152 40196 58013 61000 875// 91800 333 10179 20132 ////=
07650,1996-11-04 21:00:00,17,1018,-1.6,82,14,15000,25.928,,,140,,,,,,,,,,,wg-a,,,,AAXX 04214 07650 12665 /1414 10170 20140 30136 40180 57016 60006 86500 92100=
07650,1996-11-05 00:00:00,17,1016.9,-1.1,72,12,15000,29.632,,,140,,,,,,,,,,,wg-a,,,,AAXX 05004 07650 12/65 /1416 10170 20120 30125 40169 58011 60006 90000=
07650,1996-11-05 03:00:00,17,1015,-1.9,77,13,15000,22.224,,,140,,,,,,,,,,,wg-a,,,,AAXX 05034 07650 12565 /1412 10170 20130 30106 40150 57019 60006 85502 90300=
07650,1996-11-05 06:00:00,17,1014,-1,82,14,15000,25.928,,,140,16.3,17.4,,0,,,,,,2,wg-a,,,,AAXX 05064 07650 02565 71414 10170 20140 30096 40140 58010 60004 70262 875// 90600 333 10174 20163 60007=
07650,1996-11-05 09:00:00,13,1017.3,3.2,94,12,12000,22.224,,,320,,,,7,,,,,,60,wg-a,,,,AAXX 05094 07650 12462 73212 10130 20120 30128 40173 53032 60077 76066 8557/ 90900=
07650,1996-11-05 12:00:00,14,1017.5,0.3,88,12,15000,22.224,,,330,,,,1,,,,,,1,wg-a,,,,AAXX 05124 07650 02465 /3312 10140 20120 30131 40175 53003 60086 70166 85570 91200 333 60017=
07650,1996-11-05 15:00:00,16,1017,-0.5,63,9,20000,25.928,,,330,,,,,,,,,,,wg-a,,,,AAXX 05154 07650 12570 /3314 10160 20090 30126 40170 55005 60006 81500 91500=
07650,1996-11-05 18:00:00,14,1019.1,2,63,7,20000,25.928,,,340,13,16.9,,,,,,,,,wg-a,,,,AAXX 05184 07650 32570 /3414 10140 20070 30146 40191 52020 81500 91800 333 10169 20130=
07650,1996-11-05 21:00:00,13,1020.5,1.4,67,7,20000,35.188,,,330,,,,,,,,,,,wg-a,,,,AAXX 05214 07650 12/70 03319 10130 20070 30160 40205 51014 60006 80000 92100=
07650,1996-11-06 00:00:00,12,1021.1,0.6,62,5,20000,31.484,,,340,,,,,,,,,,,wg-a,,,,AAXX 06004 07650 12/70 03417 10120 20050 30166 40211 50006 60006 80000 90000=
07650,1996-11-06 03:00:00,10,1022.3,1.2,71,5,20000,18.52,,,330,,,,,,,,,,,wg-a,,,,AAXX 06034 07650 12/70 03310 10100 20050 30178 40223 51012 60006 80000 90300=
07650,1996-11-06 06:00:00,7,1023.2,0.8,81,4,20000,7.408,,,130,6.6,14,,,,,7,,,,wg-a,,,,AAXX 06064 07650 02/70 11304 10070 20040 30186 40232 51008 60006 80001 90600 333 10140 20066 60074=
07650,1996-11-06 09:00:00,10,1024.4,1.3,76,6,500,3.704,,,20,,,,,,,,,,,wg-a,,,,AAXX 06094 07650 12/00 00202 10100 20060 30199 40244 51013 60006 80000 90900=
07650,1996-11-06 12:00:00,15,1023.5,-0.9,55,6,40000,14.816,,,330,,,,,,,,,,,wg-a,,,,AAXX 06124 07650 12582 13308 10150 20060 30190 40235 58009 60006 81100 91200=
07650,1996-11-06 15:00:00,16,1022.7,-0.7,51,6,40000,7.408,,,270,,,,,,,,,,,wg-a,,,,AAXX 06154 07650 12/82 02704 10160 20060 30183 40227 58007 60006 80000 91500=
07650,1996-11-06 18:00:00,12,1023.6,0.8,71,7,20000,7.408,,,290,6,16.6,,,,,,,,,wg-a,,,,AAXX 06184 07650 12/70 02904 10120 20070 30191 40236 51008 60006 80000 91800 333 10166 20060=
07650,1996-11-06 21:00:00,9,1023.8,0.1,81,6,12000,7.408,,,140,,,,,,,,,,,wg-a,,,,AAXX 06214 07650 12/62 01404 10090 20060 30192 40238 53001 60006 80000 92100=
07650,1996-11-07 00:00:00,8,1023.2,-0.6,81,5,12000,7.408,,,140,,,,,,,,,,,wg-a,,,,AAXX 07004 07650 12/62 01404 10080 20050 30186 40232 58006 60006 80000 90000=
07650,1996-11-07 03:00:00,7,1023,-0.2,87,5,12000,7.408,,,130,,,,,,,,,,,wg-a,,,,AAXX 07034 07650 12/62 01304 10070 20050 30184 40230 56002 60006 80000 90300=
07650,1996-11-07 06:00:00,6,1022.3,-0.7,93,5,15000,7.408,,,100,6.3,11.8,,0,,,,,,,wg-a,,,,AAXX 07064 07650 02/65 01004 10060 20050 30177 40223 56007 60004 80000 90600 333 10118 20063 60007=
07650,1996-11-07 09:00:00,13,1023.5,1.3,72,8,10000,3.704,,,160,,,,,,,,,,,wg-a,,,,AAXX 07094 07650 12/60 11602 10130 20080 30190 40235 51013 60006 80002 90900=
07650,1996-11-07 12:00:00,18,1022.4,-1,64,11,500,3.704,,,280,,,,,,,,,,,wg-a,,,,AAXX 07124 07650 12500 12802 10180 20110 30180 40224 58010 60006 81100 91200=
07650,1996-11-07 15:00:00,18,1021.6,-0.8,73,13,20000,7.408,,,260,,,,,,,,,,,wg-a,,,,AAXX 07154 07650 12570 /2604 10180 20130 30172 40216 56008 60006 81100 91500=
07650,1996-11-07 18:00:00,15,1022.1,0.4,82,12,20000,7.408,,,150,6.2,19.2,,,,,,,,,wg-a,,,,AAXX 07184 07650 12/70 /1504 10150 20120 30176 40221 51004 60006 91800 333 10192 20062=
07650,1996-11-07 21:00:00,12,1022.4,0.3,94,11,18000,3.704,,,170,,,,,,,,,,,wg-a,,,,AAXX 07214 07650 12/68 01702 10120 20110 30179 40224 53003 60006 80000 92100=
07650,1996-11-08 00:00:00,12,1023,0.6,88,10,18000,18.52,,,350,,,,,,,,,,,wg-a,,,,AAXX 08004 07650 12/68 03510 10120 20100 30185 40230 53006 60006 80000 90000=
07650,1996-11-08 03:00:00,13,1023.5,0.5,72,8,20000,31.484,,,330,,,,,,,,,,,wg-a,,,,AAXX 08034 07650 12/70 03317 10130 20080 30190 40235 53005 60006 80000 90300=
07650,1996-11-08 06:00:00,12,1024.5,1,71,7,20000,31.484,,,320,11.6,14.5,,,,,,,,,wg-a,,,,AAXX 08064 07650 12/70 03217 10120 20070 30200 40245 53010 60006 80000 90600 333 10145 20116=
07650,1996-11-08 09:00:00,14,1026,1.5,58,6,20000,38.892,,53.708,340,,,,,,,,,,,wg-a,,,,AAXX 08094 07650 12/70 03421 10140 20060 30215 40260 51015 60006 80000 90900 333 91029=
07650,1996-11-08 12:00:00,16,1025.7,-0.3,48,5,60000,38.892,,53.708,330,,,,,,,,,,,wg-a,,,,AAXX 08124 07650 12/86 03321 10160 20050 30212 40257 58003 60006 80000 91200 333 91029=
07650,1996-11-08 15:00:00,16,1025.6,-0.1,45,4,60000,35.188,,57.412,330,,,,,,,,,,,wg-a,,,,AAXX 08154 07650 12/86 03319 10160 20040 30211 40256 56001 60006 80000 91500 333 91031=
07650,1996-11-08 18:00:00,13,1026.9,1.3,51,3,50000,22.224,,,330,11.1,16.3,,,,,,,,,wg-a,,,,AAXX 08184 07650 12/84 13312 10130 20030 30224 40269 53013 60006 80001 91800 333 10163 20111=
07650,1996-11-08 21:00:00,12,1027.8,0.9,54,3,40000,18.52,,,320,,,,,,,,,,,wg-a,,,,AAXX 08214 07650 12/82 13210 10120 20030 30233 40278 53009 60006 80001 92100=
07650,1996-11-09 00:00:00,11,1028.1,0.3,62,4,40000,11.112,,,320,,,,,,,,,,,wg-a,,,,AAXX 09004 07650 12/82 53206 10110 20040 30236 40281 51003 60006 83032 90000=
07650,1996-11-09 03:00:00,9,1027.7,-0.5,71,4,40000,18.52,,,360,,,,,,,,,,,wg-a,,,,AAXX 09034 07650 12/82 63610 10090 20040 30231 40277 56005 60006 83032 90300=
07650,1996-11-09 06:00:00,5,1028.3,0.6,87,3,40000,7.408,,,140,5.3,13.1,,,,,,,,,wg-a,,,,AAXX 09064 07650 12/82 21404 10050 20030 30237 40283 51006 60006 81032 90600 333 10131 20053=
07650,1996-11-09 09:00:00,9,1029.3,1,66,3,40000,3.704,,,350,,,,,,,,,,,wg-a,,,,AAXX 09094 07650 12/82 63502 10090 20030 30247 40293 50010 60006 81044 90900=
07650,1996-11-09 12:00:00,14,1028.3,-0.9,58,6,500,7.408,,,250,,,,,,,,,,,wg-a,,,,AAXX 09124 07650 12600 /2504 10140 20060 30238 40283 58009 60006 81102 91200=
07650,1996-11-09 15:00:00,15,1027.1,-1.2,55,6,500,0,,,0,,,,,,,,,,,wg-a,,,,AAXX 09154 07650 12600 /0000 10150 20060 30226 40271 56012 60006 81102 91500=
07650,1996-11-09 18:00:00,12,1026.9,-0.2,71,7,18000,7.408,,,140,5.1,15.6,,,,,,,,,wg-a,,,,AAXX 09184 07650 12568 71404 10120 20070 30224 40269 56002 60006 83502 91800 333 10156 20051=
07650,1996-11-09 21:00:00,12,1026.6,-0.3,82,9,15000,7.408,,,110,,,,,,,,,,,wg-a,,,,AAXX 09214 07650 12565 31104 10120 20090 30221 40266 56003 60006 81502 92100=
07650,1996-11-10 00:00:00,13,1025.5,-1.1,77,9,18000,7.408,,,140,,,,,,,,,,,wg-a,,,,AAXX 10004 07650 12668 21404 10130 20090 30210 40255 58011 60006 81502 90000=
07650,1996-11-10 03:00:00,12,1023.3,-2.2,82,9,15000,11.112,,,110,,,,,,,,,,,wg-a,,,,AAXX 10034 07650 12665 41106 10120 20090 30188 40233 56022 60006 82502 90300=
07650,1996-11-10 06:00:00,13,1021.6,-1.7,82,10,15000,0,,,0,11.1,13.1,,,,,,,,,wg-a,,,,AAXX 10064 07650 12665 50000 10130 20100 30171 40216 56017 60006 84502 90600 333 10131 20111=
07650,1996-11-10 09:00:00,13,1020.8,-0.8,88,11,9000,11.112,,,40,,,,0,,,,,,21,wg-a,,,,AAXX 10094 07650 12559 80406 10130 20110 30163 40208 58008 60007 72166 8687/ 90900=
07650,1996-11-10 12:00:00,13,1018.5,-2.3,88,11,7000,25.928,,,140,,,,3,,,,,,60,wg-a,,,,AAXX 10124 07650 02457 81414 10130 20110 30140 40185 58023 60036 76066 8687/ 91200 333 60037=
07650,1996-11-10 15:00:00,14,1015.8,-2.6,88,12,9000,25.928,,,140,,,,2,,,,,,1,wg-a,,,,AAXX 10154 07650 12459 71414 10140 20120 30114 40158 56026 60027 70166 8587/ 91500=
07650,1996-11-10 18:00:00,16,1014.5,-1.3,82,13,12000,31.484,,,150,12.8,15.6,,1,,,,,,1,wg-a,,,,AAXX 10184 07650 12462 71517 10160 20130 30101 40145 56013 60017 70166 8587/ 91800 333 10156 20128=
07650,1996-11-10 21:00:00,16,1012.7,-1.8,82,13,15000,35.188,,53.708,140,,,,0,,,,,,,wg-a,,,,AAXX 10214 07650 12565 71419 10160 20130 30083 40127 58018 60007 83532 92100 333 91029=
07650,1996-11-11 00:00:00,16,1010.9,-1.8,77,12,15000,29.632,,,140,,,,,,,,,,3,wg-a,,,,AAXX 11004 07650 12565 71416 10160 20120 30065 40109 58018 60016 70366 8453/ 90000=
07650,1996-11-11 03:00:00,16,1008.1,-2.8,72,11,15000,31.484,,57.412,140,,,,,,,,,,,wg-a,,,,AAXX 11034 07650 12565 71417 10160 20110 30037 40081 57028 60006 8587/ 90300 333 91031=
07650,1996-11-11 06:00:00,16,1005.1,-3,82,13,12000,31.484,,53.708,140,15.2,15.9,,0,,,7,,,60,wg-a,,,,AAXX 11064 07650 02562 71417 10160 20130 30007 40051 56030 60074 76062 85830 90600 333 10159 20152 60007 91029=
07650,1996-11-11 09:00:00,17,1003.8,-1.2,82,14,12000,42.596,,64.82,150,,,,,,,,,,3,wg-a,,,,AAXX 11094 07650 02462 71523 10170 20140 39995 40038 58012 61000 70362 875// 90900 333 //// 91035=
07650,1996-11-11 12:00:00,18,1001.3,-2.5,83,15,12000,46.3,,61.116,150,,,,,,,,,,,wg-a,,,,AAXX 11124 07650 02462 71525 10180 20150 39970 40013 57025 61000 875// 91200 333 //// 91033=
07650,1996-11-11 15:00:00,18,1000.3,-1,83,15,10000,42.596,,68.524,140,,,,0,,,,,,21,wg-a,,,,AAXX 11154 07650 12460 71423 10180 20150 39960 40003 58010 60007 72166 878// 91500 333 91037=
07650,1996-11-11 18:00:00,18,1001.2,0.9,83,15,8000,46.3,,64.82,160,15.6,18.1,,0,,,,,,80,wg-a,,,,AAXX 11184 07650 12458 81625 10180 20150 39969 40012 50009 60007 78082 888// 91800 333 10181 20156 91035=
07650,1996-11-11 21:00:00,17,1000.9,-0.3,88,15,11000,46.3,,64.82,150,,,,1,,,,,,60,wg-a,,,,AAXX 11214 07650 12461 81525 10170 20150 39966 40009 58003 60017 76086 888// 92100 333 91035=
07650,1996-11-12 00:00:00,17,1001.2,0.3,82,14,12000,38.892,,,140,,,,0,,,,,,60,wg-a,,,,AAXX 12004 07650 02562 81421 10170 20140 39969 40012 50003 60026 76086 85873 90000 333 60007=
07650,1996-11-12 03:00:00,18,999.8,-1.4,73,13,12000,50.004,,79.636,140,,,,0,,,,,,60,wg-a,,,,AAXX 12034 07650 12462 71427 10180 20130 39955 49998 55014 60007 76062 8587/ 90300 333 91043=
07650,1996-11-12 06:00:00,18,1001.2,1.4,77,14,8000,42.596,,50.004,150,15.8,18.5,,1,,,4,,,21,wg-a,,,,AAXX 12064 07650 02458 81523 10180 20140 39969 40012 51014 60044 72162 885// 90600 333 10185 20158 60017 91027=
07650,1996-11-12 09:00:00,19,1002.6,1.4,73,14,8000,50.004,,75.932,140,,,,,,,,,,,wg-a,,,,AAXX 12094 07650 12458 71427 10190 20140 39983 40026 53014 60006 875// 90900 333 91041=
07650,1996-11-12 12:00:00,19,1002.8,0.2,68,13,15000,42.596,,57.412,140,,,,,,,,,,21,wg-a,,,,AAXX 12124 07650 02465 71423 10190 20130 39985 40028 52002 61000 72162 8457/ 91200 333 6100 91031=
07650,1996-11-12 15:00:00,19,1002.8,-0,68,13,15000,42.596,,61.116,140,,,,,,,,,,,wg-a,,,,AAXX 12154 07650 12465 81423 10190 20130 39985 40028 54000 60006 8457/ 91500 333 91033=
07650,1996-11-12 18:00:00,18,1003.2,0.4,77,14,15000,42.596,,61.116,140,18.2,19.5,,,,,,,,60,wg-a,,,,AAXX 12184 07650 02465 81423 10180 20140 39989 40032 52004 61000 76062 8457/ 91800 333 10195 20182 //// 91033=
07650,1996-11-12 21:00:00,18,1004.8,1.6,73,13,15000,29.632,,50.004,140,,,,1,,,,,,60,wg-a,,,,AAXX 12214 07650 12465 81416 10180 20130 30005 40048 53016 60017 76086 8457/ 92100 333 91027=
07650,1996-11-13 00:00:00,18,1004.3,-0.5,73,13,15000,31.484,,53.708,140,,,,0,,,,,,21,wg-a,,,,AAXX 13004 07650 02465 81417 10180 20130 30000 40043 55005 60016 72186 8457/ 90000 333 60007 91029=
07650,1996-11-13 03:00:00,17,1004.7,0.4,77,13,15000,22.224,,,130,,,,1,,,,,,21,wg-a,,,,AAXX 13034 07650 12465 81312 10170 20130 30004 40047 53004 60017 72162 8557/ 90300=
07650,1996-11-13 06:00:00,17,1005.3,0.6,77,13,15000,11.112,,,140,16.4,18.2,,0,,,2,,,60,wg-a,,,,AAXX 13064 07650 02465 81406 10170 20130 30010 40053 53006 60024 76062 8557/ 90600 333 10182 20164 60007=
07650,1996-11-13 09:00:00,16,1006.8,1.4,88,14,12000,14.816,,,120,,,,1,,,,,,21,wg-a,,,,AAXX 13094 07650 12462 81208 10160 20140 30024 40068 51014 60017 72162 8587/ 90900=
07650,1996-11-13 12:00:00,17,1007.6,,88,15,15000,7.408,,,320,,,,,,,,,,1,wg-a,,,,AAXX 13124 07650 12465 73204 10170 20150 30033 40076 60016 70182 91200=
07650,1996-11-13 15:00:00,15,1008,0.3,88,13,8000,0,,,0,,,,,,,,,,60,wg-a,,,,AAXX 13154 07650 02458 80000 10150 20130 30036 40080 53003 61000 76062 8587/ 91500 333 ////=
07650,1996-11-13 18:00:00,13,1008.4,0.4,94,12,8000,3.704,,,130,13.2,17,,5,,,,,,61,wg-a,,,,AAXX 13184 07650 12358 81302 10130 20120 30040 40084 50004 60057 76162 8687/ 91800 333 10170 20132=
07650,1996-11-13 21:00:00,12,1009.5,1.1,94,11,12000,7.408,,,320,,,,2,,,,,,,wg-a,,,,AAXX 13214 07650 12/62 /3204 10120 20110 30051 40095 53011 60027 92100=
07650,1996-11-14 00:00:00,12,1009.5,-0,94,11,12000,3.704,,,150,,,,1,,,,,,2,wg-a,,,,AAXX 14004 07650 02462 81502 10120 20110 30051 40095 55000 60036 70262 8387/ 90000 333 60017=
07650,1996-11-14 03:00:00,11,1009.2,-0.4,87,9,15000,14.816,,,330,,,,,,,,,,,wg-a,,,,AAXX 14034 07650 12565 83308 10110 20090 30047 40092 58004 60006 8287/ 90300=
07650,1996-11-14 06:00:00,10,1009.6,0.4,87,8,15000,18.52,,,330,9.9,13.2,,,,,8,,,,wg-a,,,,AAXX 14064 07650 12665 33310 10100 20080 30051 40096 50004 60084 81530 90600 333 10132 20099=
07650,1996-11-14 09:00:00,10,1010.8,1.2,82,7,25000,14.816,,,340,,,,,,,,,,,wg-a,,,,AAXX 14094 07650 12475 43408 10100 20070 30063 40108 51012 60006 82801 90900=
07650,1996-11-14 12:00:00,13,1010.9,0.2,67,7,500,25.928,,,340,,,,,,,,,,,wg-a,,,,AAXX 14124 07650 12500 43414 10130 20070 30065 40109 53002 60006 81531 91200=
07650,1996-11-14 15:00:00,11,1011.5,0.5,66,5,25000,25.928,,,330,,,,,,,,,,,wg-a,,,,AAXX 14154 07650 12575 23314 10110 20050 30070 40115 53005 60006 81530 91500=
07650,1996-11-14 18:00:00,8,1012.1,0.6,76,4,500,18.52,,,330,7.5,12.7,,,,,,,,,wg-a,,,,AAXX 14184 07650 12600 33310 10080 20040 30076 40121 50006 60006 81531 91800 333 10127 20075=
07650,1996-11-14 21:00:00,7,1012.8,0.7,81,4,25000,14.816,,,330,,,,,,,,,,,wg-a,,,,AAXX 14214 07650 12675 /3308 10070 20040 30083 40128 53007 60006 81571 92100=
07650,1996-11-15 00:00:00,6,1012.9,0.1,81,3,25000,22.224,,,340,,,,,,,,,,,wg-a,,,,AAXX 15004 07650 12475 53412 10060 20030 30083 40129 52001 60006 82531 90000=
07650,1996-11-15 03:00:00,5,1013,0.1,87,3,20000,7.408,,,20,,,,,,,,,,,wg-a,,,,AAXX 15034 07650 12470 60204 10050 20030 30084 40130 50001 60006 84530 90300=
07650,1996-11-15 06:00:00,4,1013.3,0.3,93,3,18000,3.704,,,120,3.6,7.5,,,,,,,,,wg-a,,,,AAXX 15064 07650 12368 41202 10040 20030 30087 40133 53003 60006 82630 90600 333 10075 20036=
07650,1996-11-15 09:00:00,6,1015,1.7,93,5,8000,7.408,,,340,,,,,,,,,,,wg-a,,,,AAXX 15094 07650 12458 73404 10060 20050 30104 40150 53017 60006 85632 90900=
07650,1996-11-15 12:00:00,8,1015.6,0.7,87,6,8000,3.704,,,300,,,,,,,,,,60,wg-a,,,,AAXX 15124 07650 02458 83002 10080 20060 30111 40156 52007 61000 76062 8757/ 91200 333 6100=
07650,1996-11-15 15:00:00,9,1015.2,-0.4,93,8,4500,3.704,,,290,,,,2,,,,,,61,wg-a,,,,AAXX 15154 07650 12445 72902 10090 20080 30107 40152 55004 60027 76166 8557/ 91500=
07650,1996-11-15 18:00:00,10,1016,0.8,93,9,6000,3.704,,,30,3.7,9.8,,1,,,,,,60,wg-a,,,,AAXX 15184 07650 12456 80302 10100 20090 30115 40160 51008 60017 76062 8557/ 91800 333 10098 20037=
07650,1996-11-15 20:00:00,10,1016,0.8,93,9,6000,3.704,,,30,3.7,9.8,,1,,,,,,60,wg-a,,,,AAXX 15204 07650 12456 80302 10100 20090 30115 40160 51008 60017 76062 8557/ 92000 333 10098 20037=
07650,1996-11-15 21:00:00,11,1016,-0,94,10,6000,14.816,,,340,,,,4,,,,,,80,wg-a,,,,AAXX 15214 07650 12356 83408 10110 20100 30115 40160 55000 60047 78096 889// 92100=
07650,1996-11-16 00:00:00,10,1017,1,93,9,6000,3.704,,,160,,,,4,,,,,,3,wg-a,,,,AAXX 16004 07650 02256 81602 10100 20090 30125 40170 51010 60086 70396 8557/ 90000 333 60047=
07650,1996-11-16 03:00:00,10,1017.1,0.1,93,9,8000,7.408,,,210,,,,,,,,,,,wg-a,,,,AAXX 16034 07650 12258 72104 10100 20090 30126 40171 51001 60006 8357/ 90300=
07650,1996-11-16 06:00:00,13,1016.7,-0.4,94,12,12000,11.112,,,230,9.5,12.9,,,,,10,,,,wg-a,,,,AAXX 16064 07650 12562 72306 10130 20120 30122 40167 55004 60104 8357/ 90600 333 10129 20095=
07650,1996-11-16 09:00:00,12,1016.9,0.2,94,11,3000,11.112,,,160,,,,1,,,,,,60,wg-a,,,,AAXX 16094 07650 12130 71606 10120 20110 30124 40169 53002 60017 76062 8557/ 90900=
07650,1996-11-16 12:00:00,15,1015,-1.8,88,13,10000,7.408,,,190,,,,,,,,,,1,wg-a,,,,AAXX 16124 07650 02260 71904 10150 20130 30106 40150 58018 60016 70166 84633 91200 333 61000=
07650,1996-11-16 15:00:00,14,1014,-1,94,13,9000,7.408,,,200,,,,0,,,,,,3,wg-a,,,,AAXX 16154 07650 12559 82004 10140 20130 30096 40140 56010 60007 70362 8597/ 91500=
07650,1996-11-16 18:00:00,13,1013.3,-0.7,94,12,10000,7.408,,,160,11.6,15.6,,2,,,,,,13,wg-a,,,,AAXX 16184 07650 12460 81604 10130 20120 30089 40133 57007 60027 71396 8593/ 91800 333 10156 20116=
07650,1996-11-16 21:00:00,11,1013.1,-0.3,94,10,12000,3.704,,,130,,,,,,,,,,,wg-a,,,,AAXX 16214 07650 12562 71302 10110 20100 30086 40131 56003 60006 85532 92100=
07650,1996-11-17 00:00:00,11,1011.3,-1.8,94,10,10000,0,,,0,,,,,,,,,,17,wg-a,,,,AAXX 17004 07650 12560 70000 10110 20100 30068 40113 58018 60006 71722 85932 90000=
07650,1996-11-17 03:00:00,14,1009.8,-1.4,88,12,12000,11.112,,,110,,,,,,,,,,1,wg-a,,,,AAXX 17034 07650 12562 61106 10140 20120 30054 40098 55014 60006 70192 83532 90300=
07650,1996-11-17 06:00:00,14,1008.6,-1.2,88,12,18000,14.816,,,110,10.4,15.5,,0,,,4,,,3,wg-a,,,,AAXX 17064 07650 02568 71108 10140 20120 30042 40086 58012 60044 70396 8557/ 90600 333 10155 20104 60007=
07650,1996-11-17 09:00:00,13,1010.1,1.5,88,11,6000,22.224,,,140,,,,7,,,,,,80,wg-a,,,,AAXX 17094 07650 12456 81412 10130 20110 30057 40101 53015 60077 78099 889// 90900=
07650,1996-11-17 12:00:00,13,1007.1,-3,88,11,20000,11.112,,,120,,,,1,,,,,,,wg-a,,,,AAXX 17124 07650 02570 81206 10130 20110 30027 40071 57030 60076 8587/ 91200 333 60017=
07650,1996-11-17 15:00:00,14,1005.5,-1.6,82,11,20000,11.112,,,100,,,,,,,,,,,wg-a,,,,AAXX 17154 07650 12570 /1006 10140 20110 30011 40055 56016 60006 85840 91500=
07650,1996-11-17 18:00:00,13,1004.1,-1.4,88,11,8000,18.52,,,210,12.6,15.2,,2,,,,,,61,wg-a,,,,AAXX 17184 07650 12558 82110 10130 20110 39997 40041 56014 60027 76162 8697/ 91800 333 10152 20126=
07650,1996-11-17 21:00:00,10,1004.1,0,87,8,8000,11.112,,,90,,,,14,,,,,,61,wg-a,,,,AAXX 17214 07650 12458 80906 10100 20080 39997 40041 50000 60147 76166 8687/ 92100=
07650,1996-11-18 00:00:00,10,1001.1,-3,87,8,12000,14.816,,46.3,70,,,,5,,,,,,21,wg-a,,,,AAXX 18004 07650 02562 80708 10100 20080 39967 40011 56030 60196 72162 8587/ 90000 333 60057 91025=
07650,1996-11-18 03:00:00,10,998.9,-2.2,82,7,18000,22.224,,,110,,,,,,,,,,,wg-a,,,,AAXX 18034 07650 12568 71112 10100 20070 39945 49989 56022 60006 8487/ 90300=
07650,1996-11-18 06:00:00,9,998.4,-0.5,87,7,15000,7.408,,,340,8.5,12.9,,1,,,29,,,60,wg-a,,,,AAXX 18064 07650 02565 83404 10090 20070 39940 49984 58005 60294 76062 8587/ 90600 333 10129 20085 60017=
07650,1996-11-18 09:00:00,7,1000.3,1.8,93,6,4000,31.484,,,360,,,,6,,,,,,10,wg-a,,,,AAXX 18094 07650 12240 83617 10070 20060 39958 40003 53018 60067 71066 875// 90900=
07650,1996-11-18 12:00:00,7,1002.6,2.3,87,5,12000,38.892,,57.412,340,,,,1,,,,,,1,wg-a,,,,AAXX 18124 07650 02462 73421 10070 20050 39981 40026 51023 60076 70162 83872 91200 333 60017 91031=
07650,1996-11-18 15:00:00,8,1004.3,1.7,81,5,18000,31.484,,,340,,,,,,,,,,,wg-a,,,,AAXX 18154 07650 12568 /3417 10080 20050 39998 40043 53017 60006 84101 91500=
07650,1996-11-18 18:00:00,6,1005.2,0.9,81,3,18000,25.928,,,330,6,8.9,,,,,,,,,wg-a,,,,AAXX 18184 07650 32568 43314 10060 20030 30007 40052 52009 82441 91800 333 10089 20060=
07650,1996-11-18 21:00:00,6,1006.9,1.7,81,3,20000,29.632,,,320,,,,,,,,,,,wg-a,,,,AAXX 18214 07650 12/70 13216 10060 20030 30024 40069 51017 60006 80001 92100=
07650,1996-11-19 00:00:00,7,1007.8,0.9,76,3,20000,31.484,,,320,,,,,,,,,,,wg-a,,,,AAXX 19004 07650 12/70 03217 10070 20030 30033 40078 53009 60006 80000 90000=
07650,1996-11-19 03:00:00,6,1008.5,0.7,75,2,20000,31.484,,,320,,,,,,,,,,,wg-a,,,,AAXX 19034 07650 12/70 03217 10060 20020 30040 40085 51007 60006 80000 90300=
07650,1996-11-19 06:00:00,5,1008.7,0.1,75,1,20000,31.484,,53.708,320,4.8,6.6,,,,,7,,,,wg-a,,,,AAXX 19064 07650 02/70 13217 10050 20010 30041 40087 53001 60006 80001 90600 333 10066 20048 60074 91029=
07650,1996-11-19 09:00:00,6,1009.5,0.9,70,1,25000,25.928,,,310,,,,,,,,,,,wg-a,,,,AAXX 19094 07650 12/75 73114 10060 20010 30050 40095 50009 60006 84032 90900=
07650,1996-11-19 12:00:00,9,1007.2,-2.3,43,-3,75000,7.408,,,170,,,,,,,,,,,wg-a,,,,AAXX 19124 07650 12/89 61704 10090 21030 30027 40072 58023 60006 83032 91200=
07650,1996-11-19 15:00:00,10,1003.4,-3.7,57,2,75000,18.52,,,130,,,,,,,,,,,wg-a,,,,AAXX 19154 07650 12589 81310 10100 20020 39990 40034 58037 60006 83242 91500=
07650,1996-11-19 18:00:00,13,1000.9,-2.5,62,6,25000,18.52,,,140,4.4,12.6,,,,,,,,,wg-a,,,,AAXX 19184 07650 12575 81410 10130 20060 39965 40009 56025 60006 8687/ 91800 333 10126 20044=
07650,1996-11-19 21:00:00,12,999.2,-1.7,67,6,25000,11.112,,,120,,,,,,,,,,,wg-a,,,,AAXX 19214 07650 12575 81206 10120 20060 39948 49992 55017 60006 8757/ 92100=
07650,1996-11-20 00:00:00,10,1000.1,0.9,87,8,15000,3.704,,,160,,,,2,,,,,,60,wg-a,,,,AAXX 20004 07650 02565 81602 10100 20080 39957 40001 53009 60026 76062 875// 90000 333 60027=
07650,1996-11-20 03:00:00,10,998.7,-1.4,87,8,20000,25.928,,,270,,,,1,,,,,,,wg-a,,,,AAXX 20034 07650 12570 82714 10100 20080 39943 49987 56014 60017 8357/ 90300=
07650,1996-11-20 06:00:00,11,998.8,0.1,76,7,20000,25.928,,,290,9.6,13,,,,,3,,,1,wg-a,,,,AAXX 20064 07650 12570 62914 10110 20070 39944 49988 53001 60034 70162 83531 90600 333 10130 20096=
07650,1996-11-20 09:00:00,11,999.8,1,66,5,500,29.632,,,300,,,,,,,,,,,wg-a,,,,AAXX 20094 07650 12500 73016 10110 20050 39954 49998 53010 60006 84532 90900=
07650,1996-11-20 12:00:00,12,1000.4,0.6,62,5,500,38.892,,,290,,,,,,,,,,,wg-a,,,,AAXX 20124 07650 12500 /2921 10120 20050 39960 40004 51006 60006 82202 91200=
07650,1996-11-20 15:00:00,12,1002,1.6,58,4,500,29.632,,53.708,290,,,,,,,,,,,wg-a,,,,AAXX 20154 07650 12500 52916 10120 20040 39976 40020 53016 60006 83202 91500 333 91029=
07650,1996-11-20 18:00:00,10,1005.4,3.3,62,3,25000,29.632,,,280,9.8,12.5,,,,,,,,,wg-a,,,,AAXX 20184 07650 12575 42816 10100 20030 30009 40054 53033 60006 82842 91800 333 10125 20098=
07650,1996-11-20 21:00:00,8,1007.2,1.8,71,3,25000,29.632,,,320,,,,,,,,,,,wg-a,,,,AAXX 20214 07650 12675 33216 10080 20030 30027 40072 51018 60006 82540 92100=
07650,1996-11-21 00:00:00,8,1008.3,1.1,71,3,25000,29.632,,,300,,,,,,,,,,,wg-a,,,,AAXX 21004 07650 12/75 13016 10080 20030 30038 40083 51011 60006 81030 90000=
07650,1996-11-21 03:00:00,7,1009.7,1.4,76,3,25000,25.928,,,300,,,,,,,,,,,wg-a,,,,AAXX 21034 07650 12/75 03014 10070 20030 30052 40097 53014 60006 80000 90300=
07650,1996-11-21 06:00:00,4,1011.4,1.6,81,1,20000,3.704,,,10,3.5,9.9,,,,,,,,,wg-a,,,,AAXX 21064 07650 12/70 20102 10040 20010 30068 40114 51016 60006 81042 90600 333 10099 20035=
07650,1996-11-21 09:00:00,8,1012.8,1.5,71,3,40000,7.408,,,10,,,,,,,,,,,wg-a,,,,AAXX 21094 07650 12482 20104 10080 20030 30083 40128 52015 60006 81132 90900=
07650,1996-11-21 12:00:00,11,1012.8,0,50,1,75000,22.224,,,300,,,,,,,,,,,wg-a,,,,AAXX 21124 07650 12489 43012 10110 20010 30083 40128 50000 60006 81131 91200=
07650,1996-11-21 15:00:00,10,1011.9,-0.9,50,0,75000,14.816,,,310,,,,,,,,,,,wg-a,,,,AAXX 21154 07650 12589 /3108 10100 20000 30074 40119 56009 60006 81142 91500=
07650,1996-11-21 18:00:00,9,1011.3,-0.6,61,2,40000,7.408,,,10,2.9,11.1,,,,,,,,,wg-a,,,,AAXX 21184 07650 12682 70104 10090 20020 30068 40113 58006 60006 8153/ 91800 333 10111 20029=
07650,1996-11-21 21:00:00,9,1008.5,-2.8,53,0,20000,14.816,,,140,,,,,,,,,,,wg-a,,,,AAXX 21214 07650 12670 71408 10090 20000 30040 40085 56028 60006 8557/ 92100=
07650,1996-11-22 00:00:00,8,1005.6,-2.9,81,5,8000,14.816,,,120,,,,1,,,,,,60,wg-a,,,,AAXX 22004 07650 02458 71208 10080 20050 30011 40056 58029 60016 76062 875// 90000 333 60017=
07650,1996-11-22 03:00:00,12,1002.5,-3,88,10,15000,14.816,,,210,,,,1,,,,,,1,wg-a,,,,AAXX 22034 07650 12565 42108 10120 20100 39981 40025 56030 60017 70162 82530 90300=
07650,1996-11-22 06:00:00,11,1004.6,2.1,82,8,20000,25.928,,,320,7.4,12.1,,,,,3,,,1,wg-a,,,,AAXX 22064 07650 12670 33214 10110 20080 30002 40046 53021 60034 70161 81530 90600 333 10121 20074=
07650,1996-11-22 09:00:00,6,1009.9,5.2,75,2,500,50.004,,,350,,,,,,,,,,,wg-a,,,,AAXX 22094 07650 12500 23527 10060 20020 30054 40099 51052 60006 81530 90900=
07650,1996-11-22 12:00:00,9,1010.3,0.4,57,1,500,57.412,,,340,,,,,,,,,,,wg-a,,,,AAXX 22124 07650 12500 /3431 10090 20010 30058 40103 50004 60006 81502 91200=
07650,1996-11-22 15:00:00,8,1011.5,1.2,49,-2,500,46.3,,61.116,340,,,,,,,,,,,wg-a,,,,AAXX 22154 07650 12500 13425 10080 21020 30070 40115 53012 60006 81500 91500 333 91033=
07650,1996-11-22 18:00:00,5,1013.4,1.8,65,-1,500,18.52,,,330,4.9,11.3,,,,,,,,,wg-a,,,,AAXX 22184 07650 12/00 /3310 10050 21010 30088 40134 53018 60006 91800 333 10113 20049=
07650,1996-11-22 21:00:00,2,1014.7,1.3,80,-1,25000,7.408,,,140,,,,,,,,,,,wg-a,,,,AAXX 22214 07650 12/75 11404 10020 21010 30101 40147 50013 60006 80001 92100=
07650,1996-11-23 00:00:00,2,1013.9,-0.8,80,-1,25000,7.408,,,140,,,,,,,,,,,wg-a,,,,AAXX 23004 07650 12/75 11404 10020 21010 30093 40139 58008 60006 80001 90000=
07650,1996-11-23 03:00:00,4,1013,-0.9,81,1,15000,7.408,,,130,,,,,,,,,,,wg-a,,,,AAXX 23034 07650 12/65 61304 10040 20010 30084 40130 57009 60006 85032 90300=
07650,1996-11-23 06:00:00,5,1014.6,1.6,93,4,7000,11.112,,,140,1.3,5,,3,,,3,,,61,wg-a,,,,AAXX 23064 07650 02557 81406 10050 20040 30100 40146 50016 60034 76161 875// 90600 333 10050 20013 60037=
07650,1996-11-23 09:00:00,7,1015,0.4,93,6,15000,0,,,0,,,,3,,,,,,21,wg-a,,,,AAXX 23094 07650 12465 80000 10070 20060 30104 40150 53004 60037 72162 8487/ 90900=
07650,1996-11-23 12:00:00,10,1015.1,0.2,82,7,500,18.52,,,300,,,,,,,,,,1,wg-a,,,,AAXX 23124 07650 12600 53010 10100 20070 30106 40151 51002 60036 70162 83831 91200=
07650,1996-11-23 15:00:00,10,1014.6,-0.5,71,5,25000,18.52,,,320,,,,,,,,,,,wg-a,,,,AAXX 23154 07650 12575 23210 10100 20050 30101 40146 55005 60006 81130 91500=
07650,1996-11-23 18:00:00,7,1016.7,2,87,5,20000,7.408,,,340,5,10.6,,,,,,,,,wg-a,,,,AAXX 23184 07650 32/70 13404 10070 20050 30121 40167 51020 81030 91800 333 10106 20050=
07650,1996-11-23 21:00:00,7,1018.7,2,70,2,20000,31.484,,,320,,,,,,,,,,,wg-a,,,,AAXX 23214 07650 12/70 03217 10070 20020 30141 40187 53020 60006 80000 92100=
07650,1996-11-24 00:00:00,7,1020.4,1.7,66,1,20000,22.224,,,340,,,,,,,,,,,wg-a,,,,AAXX 24004 07650 12/70 03412 10070 20010 30158 40204 51017 60006 80000 90000=
07650,1996-11-24 03:00:00,6,1022.1,1.7,65,0,20000,35.188,,,340,,,,,,,,,,,wg-a,,,,AAXX 24034 07650 12/70 03419 10060 20000 30175 40221 53017 60006 80000 90300=
07650,1996-11-24 06:00:00,6,1022.9,0.8,52,-3,20000,46.3,,,340,5.4,8.5,,,,,3,,,,wg-a,,,,AAXX 24064 07650 02/70 03425 10060 21030 30183 40229 51008 60006 80000 90600 333 10085 20054 60034=
07650,1996-11-24 09:00:00,6,1025.3,2.4,56,-2,75000,42.596,,,350,,,,,,,,,,,wg-a,,,,AAXX 24094 07650 12/89 13523 10060 21020 30207 40253 51024 60006 80002 90900=
07650,1996-11-24 12:00:00,8,1023.7,-1.6,53,-1,75000,50.004,,,350,,,,,,,,,,,wg-a,,,,AAXX 24124 07650 12/89 13527 10080 21010 30191 40237 58016 60006 80001 91200=
07650,1996-11-24 15:00:00,8,1023.4,-0.3,49,-2,60000,31.484,,,340,,,,,,,,,,,wg-a,,,,AAXX 24154 07650 12/86 43417 10080 21020 30188 40234 57003 60006 80001 91500=
07650,1996-11-24 18:00:00,6,1023.6,0.2,52,-3,500,14.816,,,30,4.8,8.9,,,,,,,,,wg-a,,,,AAXX 24184 07650 12/00 40308 10060 21030 30190 40236 53002 60006 80001 91800 333 10089 20048=
07650,1996-11-24 21:00:00,4,1023.8,0.2,60,-3,500,14.816,,,10,,,,,,,,,,,wg-a,,,,AAXX 24214 07650 12/00 50108 10040 21030 30192 40238 53002 60006 81031 92100=
07650,1996-11-25 00:00:00,3,1022.7,-1.2,70,-2,25000,7.408,,,140,,,,,,,,,,,wg-a,,,,AAXX 25004 07650 12/75 51404 10030 21020 30180 40227 56012 60006 81031 90000=
07650,1996-11-25 03:00:00,6,1019.8,-2.8,52,-3,25000,11.112,,,360,,,,,,,,,,,wg-a,,,,AAXX 25034 07650 12675 83606 10060 21030 30152 40198 56028 60006 85532 90300=
07650,1996-11-25 06:00:00,7,1017.6,-2.2,45,-4,25000,7.408,,,90,2.6,6.5,,,,,,,,,wg-a,,,,AAXX 25064 07650 12575 80904 10070 21040 30130 40176 57022 60006 8657/ 90600 333 10065 20026=
07650,1996-11-25 09:00:00,6,1015.8,-1.8,81,3,15000,7.408,,,100,,,,2,,,,,,60,wg-a,,,,AAXX 25094 07650 12565 81004 10060 20030 30112 40158 56018 60027 76066 8657/ 90900=
07650,1996-11-25 12:00:00,7,1012.5,-3.2,87,5,15000,3.704,,,180,,,,0,,,,,,1,wg-a,,,,AAXX 25124 07650 02665 81802 10070 20050 30080 40125 58032 60026 70162 8357/ 91200 333 60007=
07650,1996-11-25 15:00:00,10,1008.7,-3.8,87,8,6000,11.112,,,140,,,,3,,,,,,60,wg-a,,,,AAXX 25154 07650 12456 81406 10100 20080 30042 40087 56038 60037 76066 8667/ 91500=
07650,1996-11-25 18:00:00,9,1006.3,-2.4,100,9,7000,3.704,,,40,5.1,9.7,,6,,,,,,61,wg-a,,,,AAXX 25184 07650 12357 80402 10090 20090 30018 40063 56024 60067 76166 885// 91800 333 10097 20051=
07650,1996-11-25 21:00:00,9,1005.2,-1.1,93,8,7000,3.704,,,300,,,,1,,,,,,2,wg-a,,,,AAXX 25214 07650 12357 83002 10090 20080 30007 40052 55011 60017 70262 8657/ 92100=
07650,1996-11-26 00:00:00,8,1003.2,-2,93,7,7000,14.816,,,300,,,,,,,,,,3,wg-a,,,,AAXX 26004 07650 12357 83008 10080 20070 39987 40032 56020 60016 70362 8657/ 90000=
07650,1996-11-26 03:00:00,6,1004.5,1.3,93,5,4000,18.52,,,300,,,,,,,,,,10,wg-a,,,,AAXX 26034 07650 12140 83010 10060 20050 30000 40045 52013 60006 71022 886// 90300=
07650,1996-11-26 06:00:00,5,1006.3,1.8,93,4,8000,25.928,,,300,5,9.3,,,,,12,,,1,wg-a,,,,AAXX 26064 07650 12258 23014 10050 20040 30018 40063 53018 60124 70142 81630 90600 333 10093 20050=
07650,1996-11-26 09:00:00,9,1007.9,1.6,81,6,50000,29.632,,,320,,,,,,,,,,,wg-a,,,,AAXX 26094 07650 12484 /3216 10090 20060 30034 40079 52016 60006 81800 90900=
07650,1996-11-26 12:00:00,12,1008.4,0.6,62,5,50000,31.484,,,340,,,,,,,,,,,wg-a,,,,AAXX 26124 07650 12484 23417 10120 20050 30040 40084 51006 60006 8/800 91200=
07650,1996-11-26 15:00:00,11,1009,0.5,54,2,50000,38.892,,,350,,,,,,,,,,,wg-a,,,,AAXX 26154 07650 12584 /3521 10110 20020 30045 40090 53005 60006 81800 91500=
07650,1996-11-26 18:00:00,9,1009.6,0.6,66,3,50000,46.3,,68.524,340,5,12.3,,,,,,,,,wg-a,,,,AAXX 26184 07650 12584 /3425 10090 20030 30051 40096 50006 60006 81840 91800 333 10123 20050 91037=
07650,1996-11-26 21:00:00,8,1010,0.4,71,3,50000,42.596,,64.82,340,,,,,,,,,,,wg-a,,,,AAXX 26214 07650 12/84 13423 10080 20030 30055 40100 52004 60006 81040 92100 333 91035=
07650,1996-11-27 00:00:00,7,1010.4,0.4,70,2,50000,35.188,,,330,,,,,,,,,,,wg-a,,,,AAXX 27004 07650 12/84 13319 10070 20020 30059 40104 50004 60006 81041 90000=
07650,1996-11-27 03:00:00,7,1010.1,-0.3,66,1,50000,35.188,,,360,,,,,,,,,,,wg-a,,,,AAXX 27034 07650 12684 /3619 10070 20010 30056 40101 55003 60006 81540 90300=
07650,1996-11-27 06:00:00,7,1009.6,-0.5,61,0,40000,38.892,,,340,6.6,8.9,,,,,,,,,wg-a,,,,AAXX 27064 07650 12682 23421 10070 20000 30051 40096 55005 60006 82540 90600 333 10089 20066=
07650,1996-11-27 09:00:00,7,1010.4,0.8,66,1,500,25.928,,,360,,,,,,,,,,3,wg-a,,,,AAXX 27094 07650 12/00 33614 10070 20010 30059 40104 50008 60006 70330 82032 90900=
07650,1996-11-27 12:00:00,,1,-0.5,,,20000,22.224,,,310,,,,,,,,,,,wg-a,,,,AAXX 27124 07650 32670 83112 1//// 2//// 30054 58005 8257/ 91200=
07650,1996-11-27 15:00:00,8,1008.3,-1.1,66,2,500,0,,,0,,,,,,,,,,60,wg-a,,,,AAXX 27154 07650 02600 7//// 10080 20020 30043 40083 56011 61000 76066 8557/ 91500 333 ////=
07650,1996-11-27 18:00:00,7,1005.8,-2.5,87,5,15000,11.112,,,110,,,,,,,,,,1,wg-a,,,,AAXX 27184 07650 32465 81106 10070 20050 30018 40058 58025 70162 8657/ 91800=
07650,1996-11-28 00:00:00,5,1007.2,0.7,93,4,12000,11.112,,,180,,,,,,,,,,,wg-a,,,,AAXX 28004 07650 12/62 01806 10050 20040 30031 40072 52007 60006 80000 90000=
07650,1996-11-28 03:00:00,6,1005.6,-1.5,93,5,20000,25.928,,,290,,,,,,,,,,,wg-a,,,,AAXX 28034 07650 12/70 22914 10060 20050 30016 40056 58015 60006 82030 90300=
07650,1996-11-28 06:00:00,7,1004.9,-0.7,76,3,20000,11.112,,,20,4.1,8.2,,,,,,,,,wg-a,,,,AAXX 28064 07650 12/70 20206 10070 20030 30009 40049 55007 60006 82030 90600 333 10082 20041=
07650,1996-11-28 09:00:00,6,1007.6,2.7,70,1,40000,57.412,,79.636,320,,,,,,,,,,,wg-a,,,,AAXX 28094 07650 12582 53231 10060 20010 30036 40076 53027 60006 82541 90900 333 91043=
07650,1996-11-28 12:00:00,7,1009.4,1.8,49,-3,40000,79.636,,100.008,320,,,,,,,,,,,wg-a,,,,AAXX 28124 07650 12582 43243 10070 21030 30054 40094 50018 60006 81140 91200 333 91054=
07650,1996-11-28 15:00:00,6,1009.9,-0,52,-3,40000,75.932,,103.712,330,,,,,,,,,,,wg-a,,,,AAXX 28154 07650 32582 /3341 10060 21030 30058 40099 54000 81100 91500 333 91056=
07650,1996-11-28 18:00:00,4,1013,3.1,65,-2,25000,57.412,,75.932,320,4.4,7.5,,,,,,,,,wg-a,,,,AAXX 28184 07650 12/75 /3231 10040 21020 30089 40130 50031 60006 80000 91800 333 10075 20044 91041=
07650,1996-11-28 21:00:00,4,1015.5,2.5,56,-4,25000,61.116,,72.228,300,,,,,,,,,,,wg-a,,,,AAXX 28214 07650 12/75 03033 10040 21040 30114 40155 51025 60006 80000 92100 333 91039=
07650,1996-11-29 00:00:00,3,1016.3,0.8,60,-4,25000,35.188,,61.116,330,,,,,,,,,,,wg-a,,,,AAXX 29004 07650 12/75 03319 10030 21040 30122 40163 53008 60006 80000 90000 333 91033=
07650,1996-11-29 03:00:00,3,1016.9,0.6,60,-4,25000,42.596,,75.932,320,,,,,,,,,,,wg-a,,,,AAXX 29034 07650 12/75 03223 10030 21040 30128 40169 53006 60006 80000 90300 333 91041=
07650,1996-11-29 06:00:00,3,1017.7,0.8,60,-4,25000,42.596,,75.932,310,2.7,4.4,,,,,,,,,wg-a,,,,AAXX 29064 07650 12/75 03123 10030 21040 30136 40177 53008 60006 80000 90600 333 10044 20027 91041=
07650,1996-11-29 09:00:00,5,1020,2.3,52,-4,500,31.484,,,320,,,,,,,,,,,wg-a,,,,AAXX 29094 07650 12/00 23217 10050 21040 30159 40200 53023 60006 81042 90900=
07650,1996-11-29 12:00:00,8,1019.8,-0.2,49,-2,40000,31.484,,,330,,,,,,,,,,,wg-a,,,,AAXX 29124 07650 12/82 53317 10080 21020 30157 40198 58002 60006 81042 91200=
07650,1996-11-29 15:00:00,8,1018.4,-1.4,57,0,500,22.224,,,290,,,,,,,,,,,wg-a,,,,AAXX 29154 07650 12/00 72912 10080 20000 30143 40184 56014 60006 84032 91500=
07650,1996-11-29 18:00:00,7,1016.9,-1.5,61,0,500,0,,,0,3,9.1,,,,,,,,,wg-a,,,,AAXX 29184 07650 12/00 70000 10070 20000 30128 40169 58015 60006 83032 91800 333 10091 20030=
07650,1996-11-29 21:00:00,7,1015,-1.9,81,4,25000,7.408,,,130,,,,,,,,,,,wg-a,,,,AAXX 29214 07650 02675 81304 10070 20040 30109 40150 56019 61000 83532 92100 333 ////=
07650,1996-11-30 00:00:00,8,1012.5,-2.4,87,6,20000,11.112,,,310,,,,,,,,,,1,wg-a,,,,AAXX 30004 07650 02/70 73106 10080 20060 30085 40125 57024 61000 70162 85032 90000 333 ////=
07650,1996-11-30 03:00:00,12,1009.2,-3.3,76,8,15000,29.632,,,250,,,,,,,,,,,wg-a,,,,AAXX 30034 07650 12665 72516 10120 20080 30052 40092 56033 60006 81572 90300=
07650,1996-11-30 06:00:00,13,1006.2,-2.9,72,8,20000,31.484,,,260,6.7,12.5,,,,,,,,,wg-a,,,,AAXX 30064 07650 02670 72617 10130 20080 30023 40062 56029 61000 81572 90600 333 10125 20067 ////=
07650,1996-11-30 09:00:00,14,1005.1,-1.1,72,9,15000,22.224,,,250,,,,,,,,,,,wg-a,,,,AAXX 30094 07650 12665 72512 10140 20090 30012 40051 56011 60006 83832 90900=
07650,1996-11-30 12:00:00,14,1003.6,-1.5,72,9,25000,29.632,,,280,,,,,,,,,,,wg-a,,,,AAXX 30124 07650 12575 72816 10140 20090 39997 40036 58015 60006 8457/ 91200=
07650,1996-11-30 15:00:00,11,1004.5,0.8,76,7,15000,18.52,,,330,,,,0,,,,,,60,wg-a,,,,AAXX 30154 07650 12565 73310 10110 20070 30005 40045 51008 60007 76062 878// 91500=
07650,1996-11-30 18:00:00,10,1006.2,1.7,66,4,20000,31.484,,,320,9.7,15.3,,,,,,,,3,wg-a,,,,AAXX 30184 07650 02/70 43217 10100 20040 30022 40062 53017 61000 70362 84030 91800 333 10153 20097 ////=
07650,1996-11-30 21:00:00,9,1009.1,2.9,66,3,50000,31.484,,,320,,,,,,,,,,,wg-a,,,,AAXX 30214 07650 12/84 13217 10090 20030 30051 40091 53029 60006 81040 92100=
07650,1996-12-01 00:00:00,9,1011,1.5,66,3,50000,42.596,,68.524,340,0.3,,,,,,,,,,wg-a,,70,,AAXX 01004 07650 12/84 03423 10090 20030 30070 40110 53015 60006 80000 90000 333 20003 4/070 91037=
07650,1996-12-01 03:00:00,8,1013.1,2.1,66,2,50000,25.928,,,340,,,,,,,,,,,wg-a,,,,AAXX 01034 07650 12/84 03414 10080 20020 30091 40131 50021 60006 80000 90300=
07650,1996-12-01 06:00:00,8,1013.8,0.7,66,2,500,29.632,,,310,7.6,10,,,,,,,,,wg-a,,,,AAXX 01064 07650 02/00 03116 10080 20020 30098 40138 52007 60006 80000 90600 333 10100 20076 60004=
07650,1996-12-01 09:00:00,9,1015.5,1.7,53,0,500,46.3,,64.82,330,,,,,,,,,,,wg-a,,,,AAXX 01094 07650 12600 /3325 10090 20000 30115 40155 51017 60006 81500 90900 333 91035=
07650,1996-12-01 12:00:00,10,1016.7,1.2,50,0,500,42.596,,68.524,320,,,,,,,,,,,wg-a,,,,AAXX 01124 07650 12/00 03223 10100 20000 30127 40167 51012 60006 80000 91200 333 91037=
07650,1996-12-01 15:00:00,10,1016.9,0.2,43,-2,500,42.596,,72.228,310,,,,,,,,,,,wg-a,,,,AAXX 01154 07650 12/00 03123 10100 21020 30129 40169 53002 60006 80000 91500 333 91039=
07650,1996-12-01 18:00:00,8,1017.5,0.5,53,-1,500,38.892,,50.004,320,7.8,10.4,,,,,,,,,wg-a,,,,AAXX 01184 07650 12/00 23221 10080 21010 30134 40175 51005 60006 80002 91800 333 10104 20078 91027=
07650,1996-12-01 21:00:00,8,1018.1,0.6,53,-1,500,31.484,,57.412,330,,,,,,,,,,,wg-a,,,,AAXX 01214 07650 12/00 23317 10080 21010 30140 40181 51006 60006 80002 92100 333 91031=
07650,1996-12-02 00:00:00,8,1017.5,-0.6,53,-1,500,22.224,,,320,,,,,,,,,,,wg-a,,,,AAXX 02004 07650 12/00 03212 10080 21010 30134 40175 58006 60006 80000 90000=
07650,1996-12-02 03:00:00,9,1017.3,-0.1,61,2,500,31.484,,,300,,,,,,,,,,,wg-a,,,,AAXX 02034 07650 12/00 63017 10090 20020 30133 40173 58001 60006 85032 90300=
07650,1996-12-02 06:00:00,7,1017.3,-0.1,76,3,500,11.112,,,250,6.6,9.2,,,,,,,,,wg-a,,,,AAXX 02064 07650 12/00 12506 10070 20030 30132 40173 58001 60006 81032 90600 333 10092 20066=
07650,1996-12-02 09:00:00,12,1016.3,-0.9,58,4,500,38.892,,,320,,,,,,,,,,,wg-a,,,,AAXX 02094 07650 12600 43221 10120 20040 30123 40163 58009 60006 81502 90900=
07650,1996-12-02 12:00:00,14,1016.5,0.2,47,3,75000,57.412,,79.636,320,,,,,,,,,,,wg-a,,,,AAXX 02124 07650 12589 /3231 10140 20030 30125 40165 50002 60006 81142 91200 333 91043=
07650,1996-12-02 15:00:00,12,1017,0.5,47,1,75000,53.708,,83.34,320,,,,,,,,,,,wg-a,,,,AAXX 02154 07650 12589 /3229 10120 20010 30130 40170 53005 60006 81201 91500 333 91045=
07650,1996-12-02 18:00:00,10,1019.5,2.5,53,1,75000,35.188,,64.82,310,6.3,13.7,,,,,,,,,wg-a,,,,AAXX 02184 07650 12589 33119 10100 20010 30155 40195 51025 60006 81102 91800 333 10137 20063 91035=
07650,1996-12-02 21:00:00,9,1020.1,0.5,57,1,40000,46.3,,,300,,,,,,,,,,,wg-a,,,,AAXX 02214 07650 12/82 33025 10090 20010 30160 40201 51005 60006 80001 92100=
07650,1996-12-03 00:00:00,7,1020.6,0.5,70,2,500,31.484,,,300,,,,,,,,,,,wg-a,,,,AAXX 03004 07650 12/00 13017 10070 20020 30165 40206 50005 60006 80001 90000=
07650,1996-12-03 03:00:00,7,1019.8,-0.8,76,3,500,25.928,,,310,,,,,,,,,,,wg-a,,,,AAXX 03034 07650 12/00 03114 10070 20030 30157 40198 58008 60006 80000 90300=
07650,1996-12-03 06:00:00,6,1019.3,-0.5,75,2,500,18.52,,,280,6.1,10.1,,,,,,,,,wg-a,,,,AAXX 03064 07650 12/00 42810 10060 20020 30152 40193 56005 60006 83032 90600 333 10101 20061=
07650,1996-12-03 09:00:00,7,1018.8,-0.5,76,3,25000,7.408,,,330,,,,,,,,,,,wg-a,,,,AAXX 03094 07650 12/75 13304 10070 20030 30147 40188 56005 60006 80002 90900=
07650,1996-12-03 12:00:00,10,1016.7,-2,62,3,25000,11.112,,,280,,,,,,,,,,,wg-a,,,,AAXX 03124 07650 12/75 12806 10100 20030 30127 40167 58020 60006 80002 91200=
07650,1996-12-03 15:00:00,12,1015.2,-1.5,50,2,25000,3.704,,,300,,,,,,,,,,,wg-a,,,,AAXX 03154 07650 12/75 23002 10120 20020 30112 40152 56015 60006 80002 91500=
07650,1996-12-03 18:00:00,8,1015.4,0.2,76,4,25000,11.112,,,100,5.3,12.8,,,,,,,,,wg-a,,,,AAXX 03184 07650 12/75 41006 10080 20040 30114 40154 50002 60006 80002 91800 333 10128 20053=
07650,1996-12-03 21:00:00,8,1015.5,0.1,66,2,20000,14.816,,,80,,,,,,,,,,,wg-a,,,,AAXX 03214 07650 12570 30808 10080 20020 30115 40155 50001 60006 83500 92100=
07650,1996-12-04 00:00:00,9,1014.8,-0.7,57,1,20000,22.224,,,90,,,,,,,,,,,wg-a,,,,AAXX 04004 07650 12670 /0912 10090 20010 30108 40148 58007 60006 85500 90000=
07650,1996-12-04 03:00:00,10,1013.1,-1.7,71,5,20000,18.52,,,100,,,,,,,,,,21,wg-a,,,,AAXX 04034 07650 02570 71010 10100 20050 30091 40131 58017 61000 72162 875// 90300 333 ////=
07650,1996-12-04 06:00:00,10,1013.3,0.2,87,8,12000,14.816,,,90,7.5,10.7,,1,,,1,,,60,wg-a,,,,AAXX 04064 07650 02562 70908 10100 20080 30093 40133 53002 60014 76062 875// 90600 333 10107 20075 60017=
07650,1996-12-04 09:00:00,11,1013.8,0.5,82,8,18000,25.928,,,90,,,,0,,,,,,3,wg-a,,,,AAXX 04094 07650 12568 70914 10110 20080 30098 40138 53005 60007 70362 875// 90900=
07650,1996-12-04 12:00:00,12,1013.6,-0.2,76,8,500,22.224,,,80,,,,,,,,,,2,wg-a,,,,AAXX 04124 07650 12500 70812 10120 20080 30096 40136 58002 60006 70262 875// 91200=
07650,1996-12-04 15:00:00,12,1012.4,-1.2,71,7,500,22.224,,,90,,,,,,,,,,,wg-a,,,,AAXX 04154 07650 12500 70912 10120 20070 30084 40124 56012 60006 8557/ 91500=
07650,1996-12-04 18:00:00,12,1012.9,0.5,67,6,500,29.632,,,110,9.6,13.8,,,,,,,,,wg-a,,,,AAXX 04184 07650 32500 71116 10120 20060 30089 40129 53005 8553/ 91800 333 10138 20096=
07650,1996-12-04 21:00:00,12,1013.3,0.4,67,6,500,22.224,,,120,,,,,,,,,,,wg-a,,,,AAXX 04214 07650 12600 71212 10120 20060 30093 40133 52004 60006 8357/ 92100=
07650,1996-12-05 00:00:00,13,1012.7,-0.6,62,6,20000,35.188,,,80,,,,,,,,,,,wg-a,,,,AAXX 05004 07650 12670 70819 10130 20060 30087 40127 58006 60006 8457/ 90000=
07650,1996-12-05 03:00:00,13,1012.1,-0.6,62,6,20000,29.632,,,90,,,,,,,,,,,wg-a,,,,AAXX 05034 07650 12670 60916 10130 20060 30081 40121 58006 60006 84530 90300=
07650,1996-12-05 06:00:00,13,1012.6,0.5,62,6,20000,31.484,,,90,11.2,13,,,,,,,,,wg-a,,,,AAXX 05064 07650 02670 /0917 10130 20060 30086 40126 53005 60006 85530 90600 333 10130 20112 60004=
07650,1996-12-05 09:00:00,14,1012.9,0.4,55,5,25000,29.632,,,90,,,,,,,,,,,wg-a,,,,AAXX 05094 07650 12/75 30916 10140 20050 30090 40129 53004 60006 80002 90900=
07650,1996-12-05 12:00:00,16,1012.6,-0.3,45,4,25000,25.928,,,100,,,,,,,,,,,wg-a,,,,AAXX 05124 07650 12/75 71014 10160 20040 30087 40126 58003 60006 83042 91200=
07650,1996-12-05 15:00:00,15,1012.3,-0.3,48,4,25000,22.224,,,80,,,,,,,,,,,wg-a,,,,AAXX 05154 07650 12/75 60812 10150 20040 30084 40123 55003 60006 83042 91500=
07650,1996-12-05 18:00:00,13,1013.3,0.9,44,1,25000,7.408,,,140,12.5,16.5,,,,,,,,,wg-a,,,,AAXX 05184 07650 12/75 61404 10130 20010 30093 40133 51009 60006 83042 91800 333 10165 20125=
07650,1996-12-05 21:00:00,14,1012.8,-0.5,47,3,25000,29.632,,,90,,,,,,,,,,,wg-a,,,,AAXX 05214 07650 12675 /0916 10140 20030 30088 40128 56005 60006 81532 92100=
07650,1996-12-06 00:00:00,14,1012.1,-0.7,51,4,25000,35.188,,,80,,,,,,,,,,,wg-a,,,,AAXX 06004 07650 12/75 40819 10140 20040 30081 40121 58007 60006 81032 90000=
07650,1996-12-06 03:00:00,14,1012.9,0.8,55,5,25000,29.632,,,90,,,,,,,,,,,wg-a,,,,AAXX 06034 07650 12675 70916 10140 20050 30089 40129 53008 60006 8553/ 90300=
07650,1996-12-06 06:00:00,14,1012.6,-0.3,55,5,25000,35.188,,,80,12.3,14.1,,,,,,,,1,wg-a,,,,AAXX 06064 07650 02675 70819 10140 20050 30086 40126 58003 61000 70162 8453/ 90600 333 10141 20123 6100=
07650,1996-12-06 09:00:00,14,1014.2,1.6,55,5,15000,22.224,,,80,,,,,,,,,,,wg-a,,,,AAXX 06094 07650 12665 70812 10140 20050 30102 40142 53016 60006 82572 90900=
07650,1996-12-06 12:00:00,16,1014.5,0.4,51,6,15000,18.52,,,80,,,,,,,,,,,wg-a,,,,AAXX 06124 07650 12/65 /0810 10160 20060 30106 40145 51004 60006 91200=
07650,1996-12-06 15:00:00,15,1014.3,-0.2,55,6,15000,35.188,,,80,,,,,,,,,,,wg-a,,,,AAXX 06154 07650 12665 70819 10150 20060 30104 40143 55002 60006 82572 91500=
07650,1996-12-06 18:00:00,14,1015,0.6,63,7,15000,29.632,,,90,13.3,16.3,,,,,,,,,wg-a,,,,AAXX 06184 07650 12665 70916 10140 20070 30110 40150 53006 60006 82532 91800 333 10163 20133=
07650,1996-12-06 21:00:00,15,1015.3,0.4,59,7,20000,35.188,,53.708,80,,,,,,,,,,,wg-a,,,,AAXX 06214 07650 12670 70819 10150 20070 30114 40153 53004 60006 81532 92100 333 91029=
07650,1996-12-07 00:00:00,14,1015.6,0.2,72,9,20000,38.892,,64.82,90,,,,1,,,,,,3,wg-a,,,,AAXX 07004 07650 02670 70921 10140 20090 30116 40156 51002 60016 70382 82532 90000 333 60017 91035=
07650,1996-12-07 03:00:00,13,1016.2,0.6,77,9,15000,38.892,,61.116,80,,,,1,,,,,,80,wg-a,,,,AAXX 07034 07650 12565 80821 10130 20090 30122 40162 50006 60017 78098 8357/ 90300 333 91033=
07650,1996-12-07 06:00:00,14,1016.1,-0.1,72,9,15000,42.596,,61.116,70,12.4,14.8,,,,,1,,,60,wg-a,,,,AAXX 07064 07650 02565 70723 10140 20090 30121 40161 55001 60014 76098 8357/ 90600 333 10148 20124 61000 91033=
07650,1996-12-07 09:00:00,15,1017.6,1.5,63,8,20000,29.632,,53.708,80,,,,,,,,,,,wg-a,,,,AAXX 07094 07650 02570 /0816 10150 20080 30136 40176 53015 61000 81502 90900 333 //// 91029=
07650,1996-12-07 12:00:00,18,1018,0.5,56,9,20000,25.928,,,80,,,,,,,,,,,wg-a,,,,AAXX 07124 07650 02/70 60814 10180 20090 30141 40180 50005 61000 80002 91200 333 ////=
07650,1996-12-07 15:00:00,16,1018.2,0.2,59,8,20000,29.632,,,80,,,,,,,,,,,wg-a,,,,AAXX 07154 07650 12670 70816 10160 20080 30143 40182 52002 60006 84532 91500=
07650,1996-12-07 18:00:00,15,1018.9,0.6,63,8,20000,11.112,,,70,13.5,17.5,,,,,,,,,wg-a,,,,AAXX 07184 07650 32670 70706 10150 20080 30149 40189 53006 8457/ 91800 333 10175 20135=
07650,1996-12-07 21:00:00,15,1019.7,0.8,63,8,15000,18.52,,,40,,,,,,,,,,,wg-a,,,,AAXX 07214 07650 12665 70410 10150 20080 30157 40197 51008 60006 82532 92100=
07650,1996-12-08 00:00:00,15,1017.6,-2.1,55,6,15000,38.892,,57.412,70,,,,,,,,,,,wg-a,,,,AAXX 08004 07650 12665 /0721 10150 20060 30136 40176 57021 60006 81532 90000 333 91031=
07650,1996-12-08 03:00:00,16,1015.9,-1.6,48,5,15000,35.188,,,60,,,,,,,,,,,wg-a,,,,AAXX 08034 07650 12665 70619 10160 20050 30120 40159 58016 60006 82532 90300=
07650,1996-12-08 06:00:00,17,1016.5,0.6,45,5,15000,31.484,,,80,14.2,16.8,,,,,,,,,wg-a,,,,AAXX 08064 07650 02665 70817 10170 20050 30126 40165 53006 60006 81532 90600 333 10168 20142 61000=
07650,1996-12-08 09:00:00,17,1017.8,1.3,42,4,20000,0,,,0,,,,,,,,,,,wg-a,,,,AAXX 08094 07650 12670 7//// 10170 20040 30139 40178 51013 60006 8457/ 90900=
07650,1996-12-08 12:00:00,15,1018,0.1,59,7,25000,29.632,,,90,,,,,,,,,,,wg-a,,,,AAXX 08124 07650 12675 70916 10150 20070 30140 40180 50001 60006 8457/ 91200=
07650,1996-12-08 15:00:00,13,1016.9,-1.1,72,8,20000,18.52,,,80,,,,0,,,,,,60,wg-a,,,,AAXX 08154 07650 12570 70810 10130 20080 30129 40169 56011 60007 76062 8457/ 91500=
07650,1996-12-08 18:00:00,13,1016.9,-0,62,6,20000,22.224,,,80,12.4,17,,0,,,,,,60,wg-a,,,,AAXX 08184 07650 12570 80812 10130 20060 30129 40169 54000 60007 76062 8457/ 91800 333 10170 20124=
07650,1996-12-08 21:00:00,14,1016.7,-0.2,55,5,25000,27.78,,46.3,80,,,,,,,,,,,wg-a,,,,AAXX 08214 07650 02675 80815 10140 20050 30127 40167 58002 61000 8457/ 92100 333 //// 91025=
07650,1996-12-09 00:00:00,13,1015.7,-1,62,6,25000,29.632,,,60,,,,,,,,,,,wg-a,,,,AAXX 09004 07650 02675 80616 10130 20060 30117 40157 58010 61000 8357/ 90000 333 ////=
07650,1996-12-09 03:00:00,11,1014.4,-1.3,82,8,20000,14.816,,,30,,,,1,,,,,,60,wg-a,,,,AAXX 09034 07650 12670 80308 10110 20080 30104 40144 56013 60017 76062 8357/ 90300=
07650,1996-12-09 06:00:00,9,1012.8,-1.6,87,7,15000,7.408,,,240,8.5,14,,1,,,2,,,60,wg-a,,,,AAXX 09064 07650 02565 72404 10090 20070 30088 40128 56016 60024 76062 8457/ 90600 333 10140 20085 60017=
07650,1996-12-09 09:00:00,8,1013.4,0.6,93,7,8000,7.408,,,120,,,,0,,,,,,,wg-a,,,,AAXX 09094 07650 12/58 /1204 10080 20070 30094 40134 53006 60007 90900=
07650,1996-12-09 12:00:00,12,1011.6,,76,8,40000,29.632,,,60,,,,1,,,,,,21,wg-a,,,,AAXX 09124 07650 02482 70616 10120 20080 30078 40116 60016 72162 8497/ 91200 333 60017=
07650,1996-12-09 15:00:00,13,1012.2,0.6,62,6,40000,38.892,,72.228,60,,,,,,,,,,,wg-a,,,,AAXX 09154 07650 12582 70621 10130 20060 30084 40122 51006 60006 83872 91500 333 91039=
07650,1996-12-09 18:00:00,13,1012,-0.2,58,5,40000,22.224,,,60,8,14.2,,,,,,,,,wg-a,,,,AAXX 09184 07650 32582 /0612 10130 20050 30082 40120 56002 82532 91800 333 10142 20080=
07650,1996-12-09 21:00:00,12,1012,-0.1,62,5,15000,7.408,,,40,,,,,,,,,,,wg-a,,,,AAXX 09214 07650 12665 30404 10120 20050 30081 40120 58001 60006 81530 92100=
07650,1996-12-10 00:00:00,9,1011.5,-0.5,81,6,15000,3.704,,,150,,,,,,,,,,,wg-a,,,,AAXX 10004 07650 12665 /1502 10090 20060 30076 40115 58005 60006 81532 90000=
07650,1996-12-10 03:00:00,8,1010,-1.5,81,5,15000,11.112,,,170,,,,,,,,,,,wg-a,,,,AAXX 10034 07650 12665 71706 10080 20050 30061 40100 58015 60006 8257/ 90300=
07650,1996-12-10 06:00:00,7,1009.4,-0.6,87,5,15000,3.704,,,130,7.2,12.9,,,,,1,,,60,wg-a,,,,AAXX 10064 07650 02565 71302 10070 20050 30055 40094 55006 60014 76062 8357/ 90600 333 10129 20072 61000=
07650,1996-12-10 09:00:00,7,1010.5,1.1,87,5,500,0,,,0,,,,2,,,,,,60,wg-a,,,,AAXX 10094 07650 12500 80000 10070 20050 30066 40105 51011 60027 76066 8757/ 90900=
07650,1996-12-10 12:00:00,8,1009.7,-0.8,93,7,3000,11.112,,,310,,,,5,,,,,,62,wg-a,,,,AAXX 10124 07650 02430 83106 10080 20070 30058 40097 58008 60086 76266 8687/ 91200 333 60057=
07650,1996-12-10 15:00:00,10,1009.9,0.2,87,8,12000,7.408,,,340,,,,1,,,,,,60,wg-a,,,,AAXX 10154 07650 12562 73404 10100 20080 30060 40099 53002 60017 76062 8357/ 91500=
07650,1996-12-10 18:00:00,11,1011,1.1,76,7,18000,18.52,,,80,6.9,11.2,,,,,,,,1,wg-a,,,,AAXX 10184 07650 02668 /0810 10110 20070 30071 40110 53011 61000 70162 84530 91800 333 10112 20069 ////=
07650,1996-12-10 21:00:00,8,1012.6,1.6,87,6,15000,3.704,,,180,,,,,,,,,,,wg-a,,,,AAXX 10214 07650 12665 51802 10080 20060 30087 40126 52016 60006 83530 92100=
07650,1996-12-11 00:00:00,6,1013.1,0.5,93,5,15000,3.704,,,170,,,,,,,,,,,wg-a,,,,AAXX 11004 07650 12665 41702 10060 20050 30092 40131 50005 60006 82532 90000=
07650,1996-12-11 03:00:00,5,1013.5,0.3,93,4,15000,3.704,,,10,,,,0,,,,,,,wg-a,,,,AAXX 11034 07650 12665 40102 10050 20040 30095 40135 53003 60007 81532 90300=
07650,1996-12-11 06:00:00,5,1013.9,0.4,93,4,15000,0,,,0,4.6,10.9,,,,,8,,,,wg-a,,,,AAXX 11064 07650 12665 40000 10050 20040 30099 40139 53004 60084 82531 90600 333 10109 20046=
07650,1996-12-11 09:00:00,7,1014.9,1.1,93,6,10000,3.704,,,20,,,,,,,,,,,wg-a,,,,AAXX 11094 07650 12660 /0202 10070 20060 30110 40149 51011 60006 81500 90900=
07650,1996-12-11 12:00:00,11,1014,-0.9,76,7,12000,3.704,,,280,,,,,,,,,,,wg-a,,,,AAXX 11124 07650 12662 /2802 10110 20070 30101 40140 58009 60006 81500 91200=
07650,1996-12-11 15:00:00,14,1014.2,0.3,58,6,12000,3.704,,,310,,,,,,,,,,,wg-a,,,,AAXX 11154 07650 12562 33102 10140 20060 30104 40142 53003 60006 83100 91500=
07650,1996-12-11 18:00:00,9,1014.9,0.6,81,6,15000,3.704,,,190,5.1,14.1,,,,,,,,,wg-a,,,,AAXX 11184 07650 12565 21902 10090 20060 30110 40149 53006 60006 82500 91800 333 10141 20051=
07650,1996-12-11 21:00:00,9,1015.6,0.7,81,6,15000,7.408,,,110,,,,,,,,,,,wg-a,,,,AAXX 11214 07650 12/65 01104 10090 20060 30117 40156 52007 60006 80000 92100=
07650,1996-12-12 00:00:00,9,1015.5,-0.1,81,6,15000,7.408,,,210,,,,,,,,,,,wg-a,,,,AAXX 12004 07650 12/65 22104 10090 20060 30116 40155 57001 60006 80001 90000=
07650,1996-12-12 03:00:00,9,1014.7,-0.8,81,6,12000,3.704,,,140,,,,,,,,,,,wg-a,,,,AAXX 12034 07650 12662 51402 10090 20060 30108 40147 58008 60006 81532 90300=
07650,1996-12-12 06:00:00,11,1013.9,-0.8,76,7,12000,18.52,,,120,6.8,11.2,,,,,,,,,wg-a,,,,AAXX 12064 07650 12662 71210 10110 20070 30100 40139 56008 60006 81572 90600 333 10112 20068=
07650,1996-12-12 09:00:00,11,1015,1.1,87,9,8000,22.224,,,110,,,,1,,,,,,60,wg-a,,,,AAXX 12094 07650 12658 81112 10110 20090 30111 40150 52011 60017 76066 8357/ 90900=
07650,1996-12-12 12:00:00,11,1014.1,-0.9,87,9,6000,18.52,,,100,,,,1,,,,,,60,wg-a,,,,AAXX 12124 07650 02556 81010 10110 20090 30102 40141 58009 60026 76066 878// 91200 333 60017=
07650,1996-12-12 15:00:00,11,1012.7,-1.4,87,9,8000,31.484,,,80,,,,1,,,,,,60,wg-a,,,,AAXX 12154 07650 12558 80817 10110 20090 30088 40127 56014 60017 76066 878// 91500=
07650,1996-12-12 18:00:00,11,1012.7,0,82,8,15000,31.484,,,70,10.5,11.9,,,,,,,,,wg-a,,,,AAXX 12184 07650 02465 80717 10110 20080 30088 40127 50000 61000 878// 91800 333 10119 20105 ////=
07650,1996-12-12 21:00:00,11,1012.3,-0.4,82,8,15000,22.224,,,90,,,,,,,,,,,wg-a,,,,AAXX 12214 07650 12565 80912 10110 20080 30084 40123 58004 60006 875// 92100=
07650,1996-12-13 00:00:00,11,1010.6,-1.7,82,8,20000,14.816,,,90,,,,,,,,,,,wg-a,,,,AAXX 13004 07650 12470 80908 10110 20080 30067 40106 58017 60006 875// 90000=
07650,1996-12-13 03:00:00,12,1008.5,-2,82,9,20000,18.52,,,90,,,,,,,,,,,wg-a,,,,AAXX 13034 07650 12670 70910 10120 20090 30047 40085 57020 60006 8357/ 90300=
07650,1996-12-13 06:00:00,14,1005.9,-2.6,77,10,20000,31.484,,50.004,120,10.5,13.8,,,,,3,,,,wg-a,,,,AAXX 13064 07650 02570 71217 10140 20100 30021 40059 56026 60006 8357/ 90600 333 10138 20105 60034 91027=
07650,1996-12-13 09:00:00,15,1004.3,-1.6,82,12,10000,22.224,,,120,,,,,,,,,,60,wg-a,,,,AAXX 13094 07650 02460 71212 10150 20120 30005 40043 56016 61000 76066 8657/ 90900 333 ////=
07650,1996-12-13 12:00:00,16,1001.2,-3.1,82,13,12000,29.632,,,130,,,,,,,,,,,wg-a,,,,AAXX 13124 07650 02462 71316 10160 20130 39974 40012 58031 61000 875// 91200 333 6100=
07650,1996-12-13 15:00:00,15,999.3,-1.9,82,12,12000,11.112,,,140,,,,,,,,,,,wg-a,,,,AAXX 13154 07650 12462 71406 10150 20120 39955 49993 56019 60006 875// 91500=
07650,1996-12-13 18:00:00,14,999.1,-0.2,88,12,20000,3.704,,,110,13.6,15.7,,,,,,,,60,wg-a,,,,AAXX 13184 07650 02470 /1102 10140 20120 39953 49991 55002 61000 76062 86500 91800 333 10157 20136 ////=
07650,1996-12-13 21:00:00,13,998.7,-0.4,88,11,12000,11.112,,,170,,,,0,,,,,,,wg-a,,,,AAXX 13214 07650 12462 71706 10130 20110 39949 49987 58004 60007 875// 92100=
07650,1996-12-14 00:00:00,11,999.2,0.5,94,10,12000,7.408,,,140,,,,,,,,,,,wg-a,,,,AAXX 14004 07650 12562 /1404 10110 20100 39954 49992 52005 60016 85530 90000=
07650,1996-12-14 03:00:00,11,998.4,-0.8,87,9,6000,7.408,,,260,,,,,,,,,,,wg-a,,,,AAXX 14034 07650 12456 72604 10110 20090 39946 49984 56008 60006 875// 90300=
07650,1996-12-14 06:00:00,9,998.5,0.1,93,8,400,3.704,,,340,8.7,14.1,,,,,,,,44,wg-a,,,,AAXX 14064 07650 12204 /3402 10090 20080 39947 49985 53001 60004 74444 85600 90600 333 10141 20087=
07650,1996-12-14 09:00:00,10,999.2,0.7,100,10,900,11.112,,,340,,,,1,,,,,,10,wg-a,,,,AAXX 14094 07650 12309 73406 10100 20100 39954 49992 53007 60017 71054 8557/ 90900=
07650,1996-12-14 12:00:00,12,999.1,-0.1,94,11,4000,3.704,,,250,,,,,,,,,,1,wg-a,,,,AAXX 14124 07650 12440 62502 10120 20110 39953 49991 58001 60016 70164 84632 91200=
07650,1996-12-14 15:00:00,12,999.6,0.5,88,10,10000,18.52,,,300,,,,,,,,,,,wg-a,,,,AAXX 14154 07650 12560 43010 10120 20100 39958 49996 53005 60006 83832 91500=
07650,1996-12-14 18:00:00,9,1001.5,1.8,87,7,15000,7.408,,,330,8.8,13.2,,,,,,,,,wg-a,,,,AAXX 14184 07650 32565 33304 10090 20070 39976 40015 52018 82502 91800 333 10132 20088=
07650,1996-12-14 21:00:00,7,1004,2.5,87,5,15000,25.928,,,320,,,,,,,,,,,wg-a,,,,AAXX 14214 07650 12565 23214 10070 20050 30001 40040 51025 60006 82502 92100=
07650,1996-12-15 00:00:00,5,1006.4,2.4,87,3,15000,11.112,,,330,,,,,,,,,,,wg-a,,,,AAXX 15004 07650 12/65 13306 10050 20030 30025 40064 51024 60006 80002 90000=
07650,1996-12-15 03:00:00,5,1008.4,2,93,4,18000,0,,,0,,,,,,,,,,,wg-a,,,,AAXX 15034 07650 12568 40000 10050 20040 30045 40084 51020 60006 84500 90300=
07650,1996-12-15 06:00:00,6,1010,1.6,93,5,15000,7.408,,,310,4.6,9.2,,0,,,1,,,,wg-a,,,,AAXX 15064 07650 02565 /3104 10060 20050 30061 40100 53016 60014 86500 90600 333 10092 20046 60007=
07650,1996-12-15 09:00:00,7,1012.2,2.2,87,5,15000,7.408,,,340,,,,,,,,,,,wg-a,,,,AAXX 15094 07650 12/65 /3404 10070 20050 30083 40122 52022 60006 81040 90900=
07650,1996-12-15 12:00:00,11,1012.5,0.3,71,6,15000,7.408,,,320,,,,,,,,,,,wg-a,,,,AAXX 15124 07650 12/65 03204 10110 20060 30086 40125 50003 60006 80000 91200=
07650,1996-12-15 15:00:00,12,1012.4,-0.1,67,6,15000,14.816,,,300,,,,,,,,,,,wg-a,,,,AAXX 15154 07650 12/65 03008 10120 20060 30085 40124 55001 60006 80000 91500=
07650,1996-12-15 18:00:00,7,1013.9,1.5,87,5,15000,7.408,,,330,5.4,12.5,,,,,,,,,wg-a,,,,AAXX 15184 07650 12/65 03304 10070 20050 30100 40139 53015 60006 80000 91800 333 10125 20054=
07650,1996-12-15 21:00:00,6,1014.8,0.8,87,4,8000,7.408,,,140,,,,,,,,,,,wg-a,,,,AAXX 15214 07650 12/58 /1404 10060 20040 30108 40148 51008 60006 80001 92100=
07650,1996-12-16 00:00:00,5,1015.5,0.7,93,4,7000,11.112,,,130,,,,,,,,,,,wg-a,,,,AAXX 16004 07650 12/57 /1306 10050 20040 30115 40155 51007 60006 80001 90000=
07650,1996-12-16 03:00:00,3,1015.7,0.2,93,2,7000,7.408,,,120,,,,,,,,,,,wg-a,,,,AAXX 16034 07650 12357 /1204 10030 20020 30117 40157 50002 60006 81601 90300=
07650,1996-12-16 06:00:00,4,1016.2,0.5,93,3,7000,0,,,0,2.7,7.2,,0,,,,,,,wg-a,,,,AAXX 16064 07650 02357 /0000 10040 20030 30122 40162 53005 60004 86600 90600 333 10072 20027 60007=
07650,1996-12-16 09:00:00,7,1017.4,1.3,100,7,4000,3.704,,,180,,,,,,,,,,,wg-a,,,,AAXX 16094 07650 12/40 /1802 10070 20070 30135 40174 52013 60006 80000 90900=
07650,1996-12-16 12:00:00,13,1017.9,0.5,67,7,8000,7.408,,,10,,,,,,,,,,4,wg-a,,,,AAXX 16124 07650 12558 /0104 10130 20070 30140 40179 50005 60006 70400 81200 91200=
07650,1996-12-16 15:00:00,13,1017.5,-0.4,67,7,12000,11.112,,,20,,,,,,,,,,,wg-a,,,,AAXX 16154 07650 12662 /0206 10130 20070 30136 40175 56004 60006 85500 91500=
07650,1996-12-16 18:00:00,9,1018.2,0.7,81,6,12000,0,,,0,3.4,13.5,,,,,,,,,wg-a,,,,AAXX 16184 07650 12662 30000 10090 20060 30143 40182 53007 60006 83500 91800 333 10135 20034=
07650,1996-12-16 21:00:00,7,1019.7,1.4,87,5,10000,7.408,,,180,,,,,,,,,,,wg-a,,,,AAXX 16214 07650 12560 21804 10070 20050 30157 40197 51014 60006 82500 92100=
07650,1996-12-17 00:00:00,9,1019.2,-0.4,87,7,10000,18.52,,,80,,,,,,,,,,,wg-a,,,,AAXX 17004 07650 12560 /0810 10090 20070 30153 40192 58004 60006 81500 90000=
07650,1996-12-17 03:00:00,9,1018.8,-0.4,81,6,12000,14.816,,,80,,,,,,,,,,,wg-a,,,,AAXX 17034 07650 12662 30808 10090 20060 30149 40188 58004 60006 83500 90300=
07650,1996-12-17 06:00:00,7,1018.7,-0.1,93,6,12000,3.704,,,70,6.2,8.9,,,,,,,,,wg-a,,,,AAXX 17064 07650 12662 30702 10070 20060 30148 40187 55001 60006 83500 90600 333 10089 20062=
07650,1996-12-17 09:00:00,9,1019.8,1.1,87,7,12000,7.408,,,60,,,,,,,,,,,wg-a,,,,AAXX 17094 07650 12662 40604 10090 20070 30159 40198 51011 60006 84500 90900=
07650,1996-12-17 12:00:00,13,1019.2,-0.6,77,9,12000,3.704,,,40,,,,,,,,,,,wg-a,,,,AAXX 17124 07650 12562 /0402 10130 20090 30153 40192 58006 60006 86800 91200=
07650,1996-12-17 15:00:00,14,1017.7,,67,8,15000,3.704,,,260,,,,,,,,,,,wg-a,,,,AAXX 17154 07650 32565 72602 10140 20080 30139 40177 878// 91500=
07650,1996-12-17 18:00:00,12,1017.8,-0,82,9,15000,11.112,,,100,,,,,,,,,,,wg-a,,,,AAXX 17184 07650 12665 /1006 10120 20090 30139 40178 54000 60006 86500 91800=
07650,1996-12-17 21:00:00,12,1017.9,0.1,82,9,12000,7.408,,,100,,,,,,,,,,,wg-a,,,,AAXX 17214 07650 12662 /1004 10120 20090 30140 40179 50001 60006 86500 92100=
07650,1996-12-18 00:00:00,11,1017,-0.9,82,8,12000,7.408,,,90,,,,,,,,,,,wg-a,,,,AAXX 18004 07650 12662 40904 10110 20080 30131 40170 58009 60006 84500 90000=
07650,1996-12-18 03:00:00,10,1015.7,-1.3,87,8,12000,11.112,,,80,,,,,,,,,,,wg-a,,,,AAXX 18034 07650 12662 /0806 10100 20080 30118 40157 58013 60006 84530 90300=
07650,1996-12-18 06:00:00,11,1014.3,-1.4,76,7,12000,18.52,,,90,10.3,12.2,,,,,,,,,wg-a,,,,AAXX 18064 07650 12662 70910 10110 20070 30104 40143 58014 60006 8357/ 90600 333 10122 20103=
07650,1996-12-18 09:00:00,13,1014.3,0.1,77,9,12000,14.816,,,110,,,,,,,,,,,wg-a,,,,AAXX 18094 07650 12562 81108 10130 20090 30105 40143 53001 60006 8557/ 90900=
07650,1996-12-18 12:00:00,16,1012.9,-1.4,68,10,15000,22.224,,,140,,,,,,,,,,,wg-a,,,,AAXX 18124 07650 12565 /1412 10160 20100 30091 40129 58014 60006 83832 91200=
07650,1996-12-18 15:00:00,14,1011.1,-1.8,77,10,12000,22.224,,,110,,,,,,,,,,,wg-a,,,,AAXX 18154 07650 12562 71112 10140 20100 30073 40111 56018 60006 8587/ 91500=
07650,1996-12-18 18:00:00,12,1011,-0.1,94,11,9000,14.816,,,110,11.4,15.6,,,,,,,,60,wg-a,,,,AAXX 18184 07650 02459 81108 10120 20110 30072 40110 57001 61000 76062 8587/ 91800 333 10156 20114 6100=
07650,1996-12-18 21:00:00,13,1010.6,-0.4,82,10,15000,14.816,,,100,,,,,,,,,,1,wg-a,,,,AAXX 18214 07650 02565 81008 10130 20100 30068 40106 58004 61000 70162 8587/ 92100 333 ////=
07650,1996-12-19 00:00:00,13,1009.2,-1.4,82,10,15000,25.928,,,110,,,,,,,,,,2,wg-a,,,,AAXX 19004 07650 02565 81114 10130 20100 30054 40092 58014 61000 70262 8587/ 90000 333 ////=
07650,1996-12-19 03:00:00,12,1007.9,-1.3,88,10,10000,25.928,,,100,,,,2,,,,,,60,wg-a,,,,AAXX 19034 07650 12460 81014 10120 20100 30041 40079 58013 60027 76066 878// 90300=
07650,1996-12-19 06:00:00,12,1006.5,-1.4,82,9,7000,25.928,,,100,11.4,13,,,,,,,,60,wg-a,,,,AAXX 19064 07650 02457 81014 10120 20090 30027 40065 58014 61000 76066 878// 90600 333 10130 20114 6003=
07650,1996-12-19 09:00:00,12,1005.8,-0.7,88,10,7000,25.928,,,110,,,,1,,,,,,60,wg-a,,,,AAXX 19094 07650 12557 81114 10120 20100 30020 40058 57007 60017 76066 885// 90900=
07650,1996-12-19 12:00:00,13,1003.1,-2.7,82,10,10000,35.188,,53.708,110,,,,1,,,,,,60,wg-a,,,,AAXX 19124 07650 02460 81119 10130 20100 39993 40031 58027 60026 76066 8687/ 91200 333 60017 91029=
07650,1996-12-19 15:00:00,13,1001.2,-1.9,82,10,8000,35.188,,,110,,,,2,,,,,,60,wg-a,,,,AAXX 19154 07650 12458 81119 10130 20100 39974 40012 56019 60027 76066 885// 91500=
07650,1996-12-19 18:00:00,12,1001.7,0.5,88,10,8000,18.52,,,110,11.6,12.8,,,,,,,,60,wg-a,,,,AAXX 19184 07650 02458 81110 10120 20100 39979 40017 53005 61000 76066 885// 91800 333 10128 20116 6002=
07650,1996-12-19 21:00:00,12,1001.4,-0.3,82,9,15000,11.112,,,110,,,,,,,,,,1,wg-a,,,,AAXX 19214 07650 02465 71106 10120 20090 39976 40014 58003 61000 70162 8557/ 92100 333 ////=
07650,1996-12-20 00:00:00,12,1001.3,0.1,82,9,20000,7.408,,,80,,,,,,,,,,1,wg-a,,,,AAXX 20004 07650 02570 80804 10120 20090 39975 40013 50001 61000 70162 875// 90000 333 ////=
07650,1996-12-20 03:00:00,11,1001.4,0.1,87,9,20000,7.408,,,300,,,,,,,,,,,wg-a,,,,AAXX 20034 07650 12670 73004 10110 20090 39976 40014 53001 60006 875// 90300=
07650,1996-12-20 06:00:00,10,1001.3,-0.1,93,9,15000,7.408,,,120,10.2,12.4,,,,,,,,60,wg-a,,,,AAXX 20064 07650 02365 71204 10100 20090 39975 40013 56001 61000 76066 875// 90600 333 10124 20102 6007=
07650,1996-12-20 09:00:00,12,1002.7,1.4,94,11,12000,0,,,0,,,,,,,,,,21,wg-a,,,,AAXX 20094 07650 02562 70000 10120 20110 39989 40027 53014 61000 72162 82532 90900 333 ////=
07650,1996-12-20 12:00:00,15,1002.1,-0.6,77,11,15000,18.52,,,140,,,,,,,,,,1,wg-a,,,,AAXX 20124 07650 02465 61410 10150 20110 39983 40021 58006 61000 70162 86800 91200 333 ////=
07650,1996-12-20 15:00:00,14,1002,-0.1,77,10,15000,18.52,,,160,,,,,,,,,,,wg-a,,,,AAXX 20154 07650 12565 41610 10140 20100 39982 40020 55001 60006 82230 91500=
07650,1996-12-20 18:00:00,12,1002.4,0.4,82,9,12000,18.52,,,100,10.2,15.4,,,,,,,,,wg-a,,,,AAXX 20184 07650 12562 61010 10120 20090 39986 40024 51004 60006 83832 91800 333 10154 20102=
07650,1996-12-20 21:00:00,13,1002.9,0.5,82,10,12000,18.52,,,100,,,,,,,,,,1,wg-a,,,,AAXX 20214 07650 02562 71010 10130 20100 39991 40029 50005 61000 70162 8557/ 92100 333 ////=
07650,1996-12-21 00:00:00,13,1003.8,0.9,88,11,15000,18.52,,,130,,,,,,,,,,2,wg-a,,,,AAXX 21004 07650 02465 41310 10130 20110 30000 40038 53009 61000 70261 84500 90000 333 ////=
07650,1996-12-21 03:00:00,12,1003.8,-0,82,9,15000,11.112,,,110,,,,,,,,,,,wg-a,,,,AAXX 21034 07650 12465 41106 10120 20090 30000 40038 55000 60006 81502 90300=
07650,1996-12-21 06:00:00,13,1004.6,0.8,77,9,15000,18.52,,,100,11.5,13.7,,,,,,,,,wg-a,,,,AAXX 21064 07650 02565 71010 10130 20090 30008 40046 53008 60006 8157/ 90600 333 10137 20115 61000=
07650,1996-12-21 09:00:00,15,1005.3,0.7,77,11,15000,25.928,,,90,,,,,,,,,,,wg-a,,,,AAXX 21094 07650 02565 70914 10150 20110 30015 40053 51007 61000 83532 90900 333 ////=
07650,1996-12-21 12:00:00,16,1004.2,-1.1,72,11,15000,35.188,,,110,,,,,,,,,,60,wg-a,,,,AAXX 21124 07650 02565 81119 10160 20110 30004 40042 58011 61000 76022 84832 91200 333 ////=
07650,1996-12-21 15:00:00,16,1004.6,0.4,77,12,15000,31.484,,,110,,,,,,,,,,,wg-a,,,,AAXX 21154 07650 12565 81117 10160 20120 30008 40046 53004 60006 8587/ 91500=
07650,1996-12-21 18:00:00,16,1005.5,0.9,77,12,15000,29.632,,,110,12.4,17.3,,,,,,,,21,wg-a,,,,AAXX 21184 07650 02565 81116 10160 20120 30017 40055 52009 61000 72162 8587/ 91800 333 10173 20124 6100=
07650,1996-12-21 21:00:00,15,1005,-0.5,72,10,15000,22.224,,,100,,,,,,,,,,,wg-a,,,,AAXX 21214 07650 12565 /1012 10150 20100 30012 40050 58005 60006 82532 92100=
07650,1996-12-22 00:00:00,15,1006.2,1.2,72,10,15000,31.484,,,90,,,,,,,,,,,wg-a,,,,AAXX 22004 07650 12/65 30917 10150 20100 30024 40062 50012 60006 81032 90000=
07650,1996-12-22 03:00:00,14,1007.1,0.9,77,10,20000,11.112,,,110,,,,,,,,,,,wg-a,,,,AAXX 22034 07650 12670 71106 10140 20100 30033 40071 51009 60006 81532 90300=
07650,1996-12-22 06:00:00,15,1006.9,-0.2,72,10,20000,25.928,,,90,14.3,15.9,,,,,,,,,wg-a,,,,AAXX 22064 07650 02670 80914 10150 20100 30031 40069 56002 60006 81532 90600 333 10159 20143 61000=
07650,1996-12-22 09:00:00,15,1007.2,0.3,72,10,20000,29.632,,,90,,,,,,,,,,,wg-a,,,,AAXX 22094 07650 12570 70916 10150 20100 30034 40072 53003 60006 81832 90900=
07650,1996-12-22 12:00:00,18,1006.2,-1,56,9,20000,31.484,,,120,,,,,,,,,,,wg-a,,,,AAXX 22124 07650 12570 71217 10180 20090 30024 40062 58010 60006 81172 91200=
07650,1996-12-22 15:00:00,17,1005.1,-1.1,59,9,500,42.596,,,120,,,,,,,,,,,wg-a,,,,AAXX 22154 07650 12500 71223 10170 20090 30013 40051 56011 60006 81132 91500=
07650,1996-12-22 18:00:00,16,1004.8,-0.3,63,9,20000,29.632,,,110,14.6,18.8,,,,,,,,,wg-a,,,,AAXX 22184 07650 12570 /1116 10160 20090 30010 40048 57003 60006 81541 91800 333 10188 20146=
07650,1996-12-22 21:00:00,15,1003.2,-1.6,72,10,20000,18.52,,,80,,,,,,,,,,,wg-a,,,,AAXX 22214 07650 12570 70810 10150 20100 39994 40032 58016 60006 8253/ 92100=
07650,1996-12-23 00:00:00,15,1002.4,-0.8,82,12,20000,31.484,,,120,,,,1,,,,,,60,wg-a,,,,AAXX 23004 07650 02570 81217 10150 20120 39986 40024 58008 60016 76062 8357/ 90000 333 60017=
07650,1996-12-23 03:00:00,15,1000.6,-1.8,77,11,20000,29.632,,,140,,,,,,,,,,1,wg-a,,,,AAXX 23034 07650 02570 51416 10150 20110 39968 40006 56018 61000 70162 82531 90300 333 ////=
07650,1996-12-23 06:00:00,15,1000,-0.6,82,12,20000,25.928,,,150,14.3,16.5,,,,,1,,,3,wg-a,,,,AAXX 23064 07650 02470 61514 10150 20120 39962 40000 56006 60006 70361 85531 90600 333 10165 20143 60014=
07650,1996-12-23 09:00:00,15,999.7,-0.3,82,12,15000,14.816,,,140,,,,,,,,,,,wg-a,,,,AAXX 23094 07650 12465 /1408 10150 20120 39959 49997 58003 60006 86502 90900=
07650,1996-12-23 12:00:00,16,998.9,-0.7,77,12,15000,25.928,,,150,,,,,,,,,,,wg-a,,,,AAXX 23124 07650 12465 61514 10160 20120 39952 49989 58007 60006 84802 91200=
07650,1996-12-23 15:00:00,15,998.2,-0.8,82,12,15000,18.52,,,150,,,,,,,,,,,wg-a,,,,AAXX 23154 07650 12465 /1510 10150 20120 39944 49982 56008 60006 84502 91500=
07650,1996-12-23 18:00:00,13,997.8,-0.4,88,11,15000,11.112,,,140,13.4,16.5,,,,,,,,,wg-a,,,,AAXX 23184 07650 12465 /1406 10130 20110 39940 49978 56004 60006 85502 91800 333 10165 20134=
07650,1996-12-23 21:00:00,12,997.3,-0.5,88,10,15000,11.112,,,60,,,,,,,,,,,wg-a,,,,AAXX 23214 07650 12565 50606 10120 20100 39935 49973 58005 60006 85500 92100=
07650,1996-12-24 00:00:00,12,996.5,-0.8,82,9,15000,14.816,,,70,,,,,,,,,,,wg-a,,,,AAXX 24004 07650 12565 /0708 10120 20090 39927 49965 58008 60006 86500 90000=
07650,1996-12-24 03:00:00,12,995.8,-0.7,82,9,15000,11.112,,,80,,,,,,,,,,,wg-a,,,,AAXX 24034 07650 12465 70806 10120 20090 39920 49958 56007 60006 878// 90300=
07650,1996-12-24 06:00:00,12,995.5,-0.3,82,9,12000,14.816,,,120,11.4,13.4,,,,,,,,,wg-a,,,,AAXX 24064 07650 12562 /1208 10120 20090 39917 49955 55003 60006 84830 90600 333 10134 20114=
07650,1996-12-24 09:00:00,13,996.4,0.9,77,9,15000,14.816,,,80,,,,,,,,,,,wg-a,,,,AAXX 24094 07650 12565 /0808 10130 20090 39926 49964 52009 60006 85201 90900=
07650,1996-12-24 12:00:00,16,995.9,-0.4,72,11,15000,22.224,,,140,,,,,,,,,,,wg-a,,,,AAXX 24124 07650 12565 51412 10160 20110 39922 49959 58004 60006 84201 91200=
07650,1996-12-24 15:00:00,14,995.1,-0.9,72,9,15000,22.224,,,130,,,,,,,,,,,wg-a,,,,AAXX 24154 07650 12565 /1312 10140 20090 39913 49951 56009 60006 85202 91500=
07650,1996-12-24 18:00:00,13,995.7,0.6,82,10,15000,14.816,,,140,11.8,15.8,,,,,,,,60,wg-a,,,,AAXX 24184 07650 02565 81408 10130 20100 39919 49957 53006 61000 76062 83232 91800 333 10158 20118 6100=
07650,1996-12-24 21:00:00,11,996.5,0.8,82,8,12000,7.408,,,120,,,,0,,,,,,21,wg-a,,,,AAXX 24214 07650 12562 71204 10110 20080 39927 49965 53008 60007 72162 82272 92100=
07650,1996-12-25 00:00:00,11,997.3,0.8,76,7,12000,11.112,,,10,,,,,,,,,,1,wg-a,,,,AAXX 25004 07650 12662 /0106 10110 20070 39935 49973 52008 60016 70162 82230 90000=
07650,1996-12-25 03:00:00,8,998.5,1.1,87,6,20000,3.704,,,210,,,,,,,,,,,wg-a,,,,AAXX 25034 07650 12670 /2102 10080 20060 39946 49985 52011 60006 81532 90300=
07650,1996-12-25 06:00:00,8,999.6,1.1,87,6,8000,18.52,,,300,6.6,12.8,,,,,,,,,wg-a,,,,AAXX 25064 07650 02558 73010 10080 20060 39957 49996 53011 60006 84532 90600 333 10128 20066 60004=
07650,1996-12-25 09:00:00,9,1001.2,1.6,76,5,20000,18.52,,,310,,,,,,,,,,,wg-a,,,,AAXX 25094 07650 12570 53110 10090 20050 39973 40012 53016 60006 81532 90900=
07650,1996-12-25 12:00:00,11,1001.4,0.3,62,4,11000,29.632,,,320,,,,,,,,,,,wg-a,,,,AAXX 25124 07650 12661 43216 10110 20040 39976 40014 50003 60006 81532 91200=
07650,1996-12-25 15:00:00,10,1002.7,1.3,62,3,20000,50.004,,61.116,310,,,,,,,,,,,wg-a,,,,AAXX 25154 07650 12670 43127 10100 20030 39989 40027 53013 60006 81142 91500 333 91033=
07650,1996-12-25 18:00:00,7,1005.2,2.4,70,2,20000,42.596,,64.82,300,6.9,12.2,,,,,,,,,wg-a,,,,AAXX 25184 07650 12/70 23023 10070 20020 30013 40052 53024 60006 81042 91800 333 10122 20069 91035=
07650,1996-12-25 21:00:00,5,1008.1,2.9,65,-1,20000,35.188,,72.228,320,,,,,,,,,,,wg-a,,,,AAXX 25214 07650 12/70 13219 10050 21010 30042 40081 53029 60006 80002 92100 333 91039=
07650,1996-12-26 00:00:00,3,1009.1,0.9,70,-2,20000,50.004,,,320,,,,,,,,,,,wg-a,,,,AAXX 26004 07650 12/70 13227 10030 21020 30051 40091 53009 60006 81042 90000=
07650,1996-12-26 03:00:00,3,1010.9,1.8,65,-3,20000,29.632,,,340,,,,,,,,,,,wg-a,,,,AAXX 26034 07650 12070 53416 10030 21030 30069 40109 52018 60006 85500 90300=
07650,1996-12-26 06:00:00,2,1013.1,2.2,64,-4,15000,25.928,,,340,1.9,6.9,,,,,,,,,wg-a,,,,AAXX 26064 07650 12665 /3414 10020 21040 30091 40131 53022 60006 86500 90600 333 10069 20019=
07650,1996-12-26 09:00:00,2,1016.8,3.7,60,-5,8000,14.816,,,330,,,,,,,,,,,wg-a,,,,AAXX 26094 07650 12658 /3308 10020 21050 30128 40168 53037 60006 86530 90900=
07650,1996-12-26 12:00:00,3,1019.1,2.3,56,-5,12000,18.52,,61.116,340,,,,,,,,,,,wg-a,,,,AAXX 26124 07650 12662 83410 10030 21050 30151 40191 51023 60006 8553/ 91200 333 91033=
07650,1996-12-26 15:00:00,2,1021.2,2.1,60,-5,15000,25.928,,,330,,,,,,,,,,,wg-a,,,,AAXX 26154 07650 12665 /3314 10020 21050 30172 40212 53021 60006 8457/ 91500=
07650,1996-12-26 18:00:00,2,1022.9,1.6,60,-5,12000,14.816,,,350,1.3,3,,,,,,,,,wg-a,,,,AAXX 26184 07650 12662 /3508 10020 21050 30188 40229 51016 60006 85530 91800 333 10030 20013=
07650,1996-12-26 21:00:00,2,1024.6,1.8,60,-5,12000,14.816,,,360,,,,,,,,,,,wg-a,,,,AAXX 26214 07650 12662 /3608 10020 21050 30206 40246 51018 60006 86500 92100=
07650,1996-12-27 00:00:00,1,1026.2,1.5,64,-5,12000,14.816,,,340,,,,,,,,,,,wg-a,,,,AAXX 27004 07650 12662 73408 10010 21050 30221 40262 52015 60006 875// 90000=
07650,1996-12-27 03:00:00,1,1026.3,0.1,64,-5,15000,7.408,,,330,,,,,,,,,,,wg-a,,,,AAXX 27034 07650 12665 73304 10010 21050 30222 40263 50001 60006 875// 90300=
07650,1996-12-27 06:00:00,2,1025.8,-0.5,69,-3,15000,3.704,,,320,1,2.4,,,,,,,,,wg-a,,,,AAXX 27064 07650 12665 73202 10020 21030 30217 40258 56005 60006 875// 90600 333 10024 20010=
07650,1996-12-27 09:00:00,2,1025.6,-0.2,87,0,9000,3.704,,,170,,,,,,,,,,60,wg-a,,,,AAXX 27094 07650 02659 71702 10020 20000 30215 40256 58002 61000 76062 8557/ 90900 333 ////=
07650,1996-12-27 12:00:00,5,1024,-1.5,87,3,4000,3.704,,,180,,,,0,,,,,,60,wg-a,,,,AAXX 27124 07650 02340 81802 10050 20030 30200 40240 58015 60016 76062 885// 91200 333 60007=
07650,1996-12-27 15:00:00,6,1022.4,-1.6,81,3,6000,14.816,,,100,,,,0,,,,,,60,wg-a,,,,AAXX 27154 07650 12556 81008 10060 20030 30184 40224 58016 60007 76066 885// 91500=
07650,1996-12-27 18:00:00,6,1021.1,-1.3,75,2,11000,18.52,,,110,1.7,6,,,,,,,,1,wg-a,,,,AAXX 27184 07650 02561 71110 10060 20020 30171 40211 56013 60006 70162 875// 91800 333 10060 20017 61000=
07650,1996-12-27 21:00:00,6,1019.3,-1.8,61,-1,15000,18.52,,,120,,,,,,,,,,,wg-a,,,,AAXX 27214 07650 12565 71210 10060 21010 30153 40193 58018 60006 875// 92100=
07650,1996-12-28 00:00:00,4,1017.2,-2.1,81,1,8000,18.52,,,100,,,,1,,,,,,61,wg-a,,,,AAXX 28004 07650 02458 81010 10040 20010 30132 40172 58021 60016 76166 885// 90000 333 60017=
07650,1996-12-28 03:00:00,3,1014,-3.2,87,1,15000,25.928,,,70,,,,0,,,,,,3,wg-a,,,,AAXX 28034 07650 12565 80714 10030 20010 30100 40140 58032 60007 70362 875// 90300=
07650,1996-12-28 06:00:00,4,1011.5,-2.5,75,0,15000,22.224,,,80,3.3,5.7,,,,,2,,,1,wg-a,,,,AAXX 28064 07650 02565 80812 10040 20000 30075 40115 56025 60006 70162 8657/ 90600 333 10057 20033 60024=
07650,1996-12-28 09:00:00,3,1010.8,-0.7,75,-1,20000,18.52,,,40,,,,,,,,,,,wg-a,,,,AAXX 28094 07650 12570 80410 10030 21010 30068 40108 58007 60006 8657/ 90900=
07650,1996-12-28 12:00:00,3,1010.3,-0.5,75,-1,10000,22.224,,,50,,,,0,,,,,,60,wg-a,,,,AAXX 28124 07650 02560 80512 10030 21010 30063 40103 58005 60006 76076 8657/ 91200 333 60007=
07650,1996-12-28 15:00:00,2,1010.3,-0,75,-2,8000,18.52,,,50,,,,,,,,,,70,wg-a,,,,AAXX 28154 07650 02558 70510 10020 21020 30063 40103 55000 61000 77072 875// 91500 333 ////=
07650,1996-12-28 18:00:00,2,1011.3,1,80,-1,10000,11.112,,,10,1.3,3.8,,,,,,,,70,wg-a,,,,AAXX 28184 07650 02360 80106 10020 21010 30073 40113 53010 61000 77077 885// 91800 333 10038 20013 6000=
07650,1996-12-28 21:00:00,2,1011.9,0.6,69,-3,9000,7.408,,,60,,,,,,,,,,70,wg-a,,,,AAXX 28214 07650 02459 80604 10020 21030 30079 40119 50006 61000 77077 8657/ 92100 333 ////=
07650,1996-12-29 00:00:00,2,1011.7,-0.2,60,-5,9000,18.52,,,80,,,,,,,,,,1,wg-a,,,,AAXX 29004 07650 02659 70810 10020 21050 30077 40117 58002 61000 70172 8457/ 90000 333 6100=
07650,1996-12-29 03:00:00,2,1010.9,-0.8,55,-6,12000,18.52,,,60,,,,,,,,,,,wg-a,,,,AAXX 29034 07650 12662 70610 10020 21060 30069 40109 58008 60006 8557/ 90300=
07650,1996-12-29 06:00:00,-1,1010.9,-0,74,-5,12000,14.816,,,10,-1.4,2.3,,,,,1,,,,wg-a,,,,AAXX 29064 07650 02/62 10108 11010 21050 30069 40109 55000 60006 81030 90600 333 10023 21014 60014=
07650,1996-12-29 09:00:00,1,1011.1,0.2,69,-4,15000,0,,,0,,,,,,,,,,,wg-a,,,,AAXX 29094 07650 12/65 00000 10010 21040 30071 40111 53002 60006 80000 90900=
07650,1996-12-29 12:00:00,3,1010,-1.1,70,-2,10000,11.112,,,300,,,,,,,,,,,wg-a,,,,AAXX 29124 07650 12/60 03006 10030 21020 30060 40100 58011 60006 80000 91200=
07650,1996-12-29 15:00:00,2,1009.1,-0.9,64,-4,6000,11.112,,,310,,,,,,,,,,,wg-a,,,,AAXX 29154 07650 12/56 /3106 10020 21040 30051 40091 56009 60006 80002 91500=
07650,1996-12-29 18:00:00,-2,1009,-0.1,80,-5,7000,22.224,,,320,-1.8,3.4,,,,,,,,,wg-a,,,,AAXX 29184 07650 12457 /3212 11020 21050 30050 40090 57001 60006 81502 91800 333 10034 21018=
07650,1996-12-29 21:00:00,-3,1008.2,-0.9,80,-6,8000,14.816,,,350,,,,,,,,,,,wg-a,,,,AAXX 29214 07650 12/58 /3508 11030 21060 30041 40082 57009 60006 80002 92100=
07650,1996-12-30 00:00:00,-4,1007,-1.2,80,-7,10000,11.112,,,340,,,,,,,,,,,wg-a,,,,AAXX 30004 07650 12/60 03406 11040 21070 30029 40070 58012 60006 80000 90000=
07650,1996-12-30 03:00:00,-5,1005.6,-1.4,86,-7,10000,14.816,,,320,,,,,,,,,,,wg-a,,,,AAXX 30034 07650 12/60 03208 11050 21070 30015 40056 58014 60006 80000 90300=
07650,1996-12-30 06:00:00,-5,1003.9,-1.7,86,-7,10000,22.224,,,350,-5.1,-1.8,,,,,,,,,wg-a,,,,AAXX 30064 07650 12460 33512 11050 21070 39998 40039 56017 60006 83500 90600 333 11018 21051=
07650,1996-12-30 09:00:00,-3,1003.7,-0.1,80,-6,500,11.112,,,340,,,,,,,,,,,wg-a,,,,AAXX 30094 07650 12/00 /3406 11030 21060 39997 40037 55001 60006 80001 90900=
07650,1996-12-30 12:00:00,1,1002.7,-1,64,-5,7000,11.112,,,290,,,,0,,,,,,,wg-a,,,,AAXX 30124 07650 02/57 /2906 10010 21050 39987 40027 58010 60006 80001 91200 333 60007=
07650,1996-12-30 15:00:00,3,1002,-0.6,56,-5,10000,11.112,,,290,,,,,,,,,,,wg-a,,,,AAXX 30154 07650 12/60 02906 10030 21050 39981 40020 56006 60006 80000 91500=
07650,1996-12-30 18:00:00,-1,1003,0.9,74,-5,8000,3.704,,,350,-5,3.2,,,,,,,,,wg-a,,,,AAXX 30184 07650 12/58 03502 11010 21050 39990 40030 53009 60006 80000 91800 333 10032 21050=
07650,1996-12-30 21:00:00,-2,1004.3,1.3,80,-5,10000,7.408,,,140,,,,,,,,,,,wg-a,,,,AAXX 30214 07650 12/60 01404 11020 21050 30003 40043 51013 60006 80000 92100=
07650,1996-12-31 00:00:00,-3,1005.1,0.8,80,-6,10000,11.112,,,130,,,,,,,,,,,wg-a,,,,AAXX 31004 07650 12/60 11306 11030 21060 30011 40051 51008 60006 80002 90000=
07650,1996-12-31 03:00:00,-2,1005.7,0.6,86,-4,9000,3.704,,,140,,,,,,,,,,,wg-a,,,,AAXX 31034 07650 12659 /1402 11020 21040 30017 40057 52006 60006 82530 90300=
07650,1996-12-31 06:00:00,-3,1006.1,0.4,93,-4,8000,7.408,,,130,-3.3,-0.6,,,,,,,,,wg-a,,,,AAXX 31064 07650 02658 71304 11030 21040 30021 40061 53004 60006 8257/ 90600 333 11006 21033 60004=
07650,1996-12-31 09:00:00,0,1007.5,1.4,80,-3,8000,7.408,,,150,,,,,,,,,,,wg-a,,,,AAXX 31094 07650 12658 71504 10000 21030 30035 40075 51014 60006 86531 90900=
07650,1996-12-31 12:00:00,2,1006.6,-0.9,80,-1,4500,3.704,,,230,,,,,,,,,,60,wg-a,,,,AAXX 31124 07650 02545 82302 10020 21010 30026 40066 58009 61000 76062 8657/ 91200 333 6100=
07650,1996-12-31 15:00:00,4,1004.1,-2.4,87,2,500,29.632,,,70,,,,2,,,,,,61,wg-a,,,,AAXX 31154 07650 12500 80716 10040 20020 30002 40041 56024 60027 76166 875// 91500=
07650,1996-12-31 18:00:00,4,1003.2,-0.9,93,3,8000,22.224,,50.004,80,-2.5,4.7,,,,,,,,61,wg-a,,,,AAXX 31184 07650 02558 80812 10040 20030 39993 40032 55009 61000 76162 878// 91800 333 10047 21025 6008 91027=
07650,1996-12-31 21:00:00,4,999.9,-3.3,93,3,6000,53.708,,75.932,60,,,,10,,,,,,61,wg-a,,,,AAXX 31214 07650 12556 80629 10040 20030 39960 49999 56033 60107 76166 885// 92100 333 91041=
