station_id,dh_utc,temperature,pression,pression_variation_3h,humidite,point_de_rosee,visibilite,vent_moyen,vent_rafales,vent_rafales_10min,vent_direction,temperature_min,temperature_max,pluie_1h,pluie_3h,pluie_6h,pluie_12h,pluie_24h,ensoleillement,temperature_sol,temps_omm,source,radiations,neige_au_sol,nebulosite,raw_msg
07650,1997-01-01 00:00:00,6,1002.8,2.9,81,3,12000,3.704,,,330,,,,,,,,,,3,wg-a,,,,AAXX 01004 07650 02462 83302 10060 20030 39989 40028 53029 60106 70362 875// 90000 333 61000=
07650,1997-01-01 03:00:00,2,1006.3,3.4,93,1,12000,3.704,,,350,,,,,,,,,,,wg-a,,,,AAXX 01034 07650 12462 43502 10020 20010 30023 40063 51034 60006 81531 90300=
07650,1997-01-01 06:00:00,2,1008.5,2.2,93,1,10000,3.704,,,150,1.4,5.8,,,,,20,,,,wg-a,,,,AAXX 01064 07650 02460 /1502 10020 20010 30045 40085 51022 60006 85530 90600 333 10058 20014 60204=
07650,1997-01-01 09:00:00,4,1011.8,3.3,87,2,500,0,,,0,,,,,,,,,,,wg-a,,,,AAXX 01094 07650 12300 70000 10040 20020 30078 40118 51033 60006 86530 90900=
07650,1997-01-01 12:00:00,5,1012.8,1,87,3,3000,0,,,0,,,,0,,,,,,60,wg-a,,,,AAXX 01124 07650 02330 80000 10050 20030 30088 40128 51010 60006 76062 885// 91200 333 60007=
07650,1997-01-01 15:00:00,7,1012.8,0.1,87,5,6000,3.704,,,170,,,,0,,,,,,1,wg-a,,,,AAXX 01154 07650 12356 71702 10070 20050 30089 40128 52001 60007 70162 8557/ 91500=
07650,1997-01-01 18:00:00,7,1012.9,0.1,87,5,8000,7.408,,,30,2.1,7.4,,,,,,,,21,wg-a,,,,AAXX 01184 07650 02458 70304 10070 20050 30090 40129 50001 61000 72162 8657/ 91800 333 10074 20021 6002=
07650,1997-01-01 21:00:00,7,1014,1.1,87,5,15000,3.704,,,30,,,,,,,,,,,wg-a,,,,AAXX 01214 07650 12465 80302 10070 20050 30101 40140 53011 60006 8787/ 92100=
07650,1997-01-02 00:00:00,8,1012.7,-1.3,81,5,18000,7.408,,,100,,,,,,,,,,,wg-a,,,,AAXX 02004 07650 12568 81004 10080 20050 30088 40127 58013 60006 8557/ 90000=
07650,1997-01-02 03:00:00,8,1011,-1.7,87,6,15000,22.224,,,80,,,,0,,,,,,61,wg-a,,,,AAXX 02034 07650 12665 80812 10080 20060 30071 40110 58017 60007 76162 8557/ 90300=
07650,1997-01-02 06:00:00,9,1009,-2,87,7,15000,29.632,,,70,6,8.9,,,,,,,,61,wg-a,,,,AAXX 02064 07650 02565 80716 10090 20070 30051 40090 56020 61000 76162 8557/ 90600 333 10089 20060 6006=
07650,1997-01-02 09:00:00,9,1007.4,-1.6,87,7,6000,14.816,,,100,,,,4,,,,,,61,wg-a,,,,AAXX 02094 07650 12456 81008 10090 20070 30035 40074 58016 60047 76166 8587/ 90900=
07650,1997-01-02 12:00:00,11,1003,-4.3,82,8,11000,25.928,,,80,,,,3,,,,,,21,wg-a,,,,AAXX 02124 07650 02561 80814 10110 20080 39992 40030 58043 60076 72162 8587/ 91200 333 60037=
07650,1997-01-02 15:00:00,11,1002.6,-0.4,82,8,12000,25.928,,53.708,90,,,,1,,,,,,60,wg-a,,,,AAXX 02154 07650 12562 70914 10110 20080 39988 40026 55004 60017 76066 878// 91500 333 91029=
07650,1997-01-02 18:00:00,12,1002.5,-0.1,88,10,11000,18.52,,,130,8.4,14.3,,,,,,,,60,wg-a,,,,AAXX 02184 07650 02461 81310 10120 20100 39987 40025 55001 61000 76066 885// 91800 333 10143 20084 6008=
07650,1997-01-02 21:00:00,11,1004.9,2.4,87,9,10000,25.928,,,180,,,,1,,,,,,3,wg-a,,,,AAXX 02214 07650 12460 71814 10110 20090 30011 40049 53024 60017 70362 86630 92100=
07650,1997-01-03 00:00:00,8,1006.1,1.1,93,7,12000,3.704,,,180,,,,,,,,,,1,wg-a,,,,AAXX 03004 07650 12462 51802 10080 20070 30022 40061 51011 60016 70162 85500 90000=
07650,1997-01-03 03:00:00,8,1006,-0.1,93,7,10000,3.704,,,70,,,,,,,,,,3,wg-a,,,,AAXX 03034 07650 12360 60702 10080 20070 30021 40060 56001 60006 70341 86500 90300=
07650,1997-01-03 06:00:00,9,1004.2,-1.8,87,7,15000,14.816,,,100,7.8,13,,,,,17,,,3,wg-a,,,,AAXX 03064 07650 02365 21008 10090 20070 30003 40042 55018 60006 70341 82530 90600 333 10130 20078 60174=
07650,1997-01-03 09:00:00,11,1002.9,-1.2,76,7,15000,14.816,,,100,,,,,,,,,,,wg-a,,,,AAXX 03094 07650 12465 71008 10110 20070 39991 40029 56012 60006 83502 90900=
07650,1997-01-03 12:00:00,13,999.9,-3,67,7,15000,35.188,,,110,,,,,,,,,,,wg-a,,,,AAXX 03124 07650 12465 71119 10130 20070 39961 49999 58030 60006 85502 91200=
07650,1997-01-03 15:00:00,11,996.4,-3.5,82,8,7000,35.188,,,110,,,,3,,,,,,61,wg-a,,,,AAXX 03154 07650 12557 81119 10110 20080 39926 49964 55035 60037 76162 889// 91500=
07650,1997-01-03 18:00:00,11,997.4,1,71,6,25000,22.224,,,170,8,13.4,,8,,,,,,17,wg-a,,,,AAXX 03184 07650 02575 71712 10110 20060 39936 49974 53010 60006 71798 8597/ 91800 333 10134 20080 60087=
07650,1997-01-03 21:00:00,9,998.1,0.7,76,5,20000,14.816,,,90,,,,0,,,,,,3,wg-a,,,,AAXX 03214 07650 12570 70908 10090 20050 39943 49981 53007 60007 70382 8457/ 92100=
07650,1997-01-04 00:00:00,8,996.6,-1.5,61,1,20000,22.224,,,170,,,,,,,,,,1,wg-a,,,,AAXX 04004 07650 12670 21712 10080 20010 39928 49966 56015 60006 70181 81530 90000=
07650,1997-01-04 03:00:00,9,996.2,-0.4,53,0,20000,18.52,,,150,,,,,,,,,,17,wg-a,,,,AAXX 04034 07650 12570 71510 10090 20000 39924 49962 58004 60006 71792 84970 90300=
07650,1997-01-04 06:00:00,7,996.2,-0.1,81,4,15000,14.816,,,180,5.7,11.3,,,,,,,,1,wg-a,,,,AAXX 04064 07650 02565 71808 10070 20040 39923 49962 55001 61000 70196 8797/ 90600 333 10113 20057 6014=
07650,1997-01-04 09:00:00,7,997.2,1,81,4,25000,14.816,,,140,,,,1,,,,,,3,wg-a,,,,AAXX 04094 07650 12575 81408 10070 20040 39933 49972 53010 60017 70392 8557/ 90900=
07650,1997-01-04 12:00:00,7,998.3,1.1,76,3,15000,18.52,,,220,,,,,,,,,,3,wg-a,,,,AAXX 04124 07650 12565 72210 10070 20030 39944 49983 51011 60016 70392 8457/ 91200=
07650,1997-01-04 15:00:00,6,999.2,0.9,81,3,20000,7.408,,,220,,,,,,,,,,21,wg-a,,,,AAXX 04154 07650 02470 72204 10060 20030 39953 49992 53009 61000 72166 875// 91500 333 ////=
07650,1997-01-04 18:00:00,5,1000.9,1.7,93,4,15000,14.816,,,290,5,7.8,,,,,,,,,wg-a,,,,AAXX 04184 07650 12365 72908 10050 20040 39970 40009 53017 60006 875// 91800 333 10078 20050=
07650,1997-01-04 21:00:00,5,1003.6,2.7,87,3,15000,29.632,,,270,,,,,,,,,,,wg-a,,,,AAXX 04214 07650 12365 82716 10050 20030 39997 40036 52027 60006 878// 92100=
07650,1997-01-05 00:00:00,4,1005.4,1.8,81,1,15000,18.52,,,270,,,,,,,,,,,wg-a,,,,AAXX 05004 07650 12565 82710 10040 20010 30015 40054 51018 60006 875// 90000=
07650,1997-01-05 03:00:00,3,1007.5,2,75,-1,20000,14.816,,,310,,,,,,,,,,,wg-a,,,,AAXX 05034 07650 12470 83108 10030 21010 30035 40075 51020 60006 8487/ 90300=
07650,1997-01-05 06:00:00,3,1008.6,1.1,75,-1,20000,22.224,,,300,2.5,5.3,,,,,1,,,,wg-a,,,,AAXX 05064 07650 02570 /3012 10030 21010 30046 40086 53011 60006 82531 90600 333 10053 20025 60014=
07650,1997-01-05 09:00:00,3,1011.3,2.7,81,0,10000,14.816,,,290,,,,,,,,,,,wg-a,,,,AAXX 05094 07650 12560 52908 10030 20000 30073 40113 51027 60006 81130 90900=
07650,1997-01-05 12:00:00,5,1011.5,0.2,75,1,12000,7.408,,,280,,,,,,,,,,,wg-a,,,,AAXX 05124 07650 12562 52804 10050 20010 30075 40115 50002 60006 82131 91200=
07650,1997-01-05 15:00:00,7,1010.7,-0.7,66,1,12000,14.816,,,300,,,,,,,,,,,wg-a,,,,AAXX 05154 07650 12/62 /3008 10070 20010 30068 40107 56007 60006 91500=
07650,1997-01-05 18:00:00,3,1011.2,0.4,81,0,15000,3.704,,,40,1.8,7.2,,,,,,,,,wg-a,,,,AAXX 05184 07650 12/65 50402 10030 20000 30072 40112 53004 60006 82031 91800 333 10072 20018=
07650,1997-01-05 21:00:00,2,1012.3,1.1,87,0,12000,11.112,,,140,,,,,,,,,,,wg-a,,,,AAXX 05214 07650 12562 61406 10020 20000 30083 40123 51011 60006 81531 92100=
07650,1997-01-06 00:00:00,2,1012.3,-0,87,0,12000,7.408,,,130,,,,,,,,,,,wg-a,,,,AAXX 06004 07650 12662 61304 10020 20000 30083 40123 55000 60006 82531 90000=
07650,1997-01-06 03:00:00,2,1011.2,-1.1,80,-1,12000,11.112,,,140,,,,,,,,,,,wg-a,,,,AAXX 06034 07650 12662 /1406 10020 21010 30072 40112 57011 60006 82531 90300=
07650,1997-01-06 06:00:00,3,1010.3,-0.9,81,0,18000,7.408,,,280,1.4,3.3,,,,,,,,,wg-a,,,,AAXX 06064 07650 12668 /2804 10030 20000 30063 40103 56009 60006 82531 90600 333 10033 20014=
07650,1997-01-06 09:00:00,4,1010.4,0.1,81,1,15000,3.704,,,160,,,,,,,,,,,wg-a,,,,AAXX 06094 07650 12665 71602 10040 20010 30064 40104 53001 60006 82532 90900=
07650,1997-01-06 12:00:00,7,1009,-1.3,61,0,15000,7.408,,,180,,,,,,,,,,,wg-a,,,,AAXX 06124 07650 12665 71804 10070 20000 30051 40090 58013 60006 82532 91200=
07650,1997-01-06 15:00:00,9,1007.9,-1.1,66,3,12000,11.112,,,330,,,,,,,,,,,wg-a,,,,AAXX 06154 07650 12662 73306 10090 20030 30040 40079 56011 60006 83532 91500=
07650,1997-01-06 18:00:00,6,1008.3,0.4,75,2,12000,22.224,,,350,3.2,9.6,,,,,,,,21,wg-a,,,,AAXX 06184 07650 02662 73512 10060 20020 30044 40083 53004 61000 72162 8557/ 91800 333 10096 20032 6100=
07650,1997-01-06 21:00:00,5,1009.5,1.2,81,2,9000,3.704,,,10,,,,1,,,,,,60,wg-a,,,,AAXX 06214 07650 12459 80102 10050 20020 30056 40095 52012 60017 76062 8657/ 92100=
07650,1997-01-07 00:00:00,4,1010.1,0.5,93,3,8000,18.52,,,350,,,,6,,,,,,61,wg-a,,,,AAXX 07004 07650 02558 83510 10040 20030 30061 40101 50005 60076 76166 8557/ 90000 333 60067=
07650,1997-01-07 03:00:00,4,1010.8,0.7,93,3,7000,11.112,,,330,,,,3,,,,,,61,wg-a,,,,AAXX 07034 07650 12557 73306 10040 20030 30068 40108 51007 60037 76166 875// 90300=
07650,1997-01-07 06:00:00,4,1011.2,0.4,93,3,8000,7.408,,,310,3.5,6.1,,,,,10,,,2,wg-a,,,,AAXX 07064 07650 02358 73104 10040 20030 30072 40112 53004 60006 70262 875// 90600 333 10061 20035 60104=
07650,1997-01-07 09:00:00,4,1012.9,1.7,93,3,6000,7.408,,,340,,,,,,,,,,,wg-a,,,,AAXX 07094 07650 12356 53404 10040 20030 30089 40129 52017 60006 84502 90900=
07650,1997-01-07 12:00:00,7,1013.2,0.4,81,4,8000,11.112,,,290,,,,,,,,,,,wg-a,,,,AAXX 07124 07650 12658 42906 10070 20040 30093 40132 50004 60006 83532 91200=
07650,1997-01-07 15:00:00,8,1012.9,-0.3,71,3,8000,7.408,,,270,,,,,,,,,,,wg-a,,,,AAXX 07154 07650 12658 32704 10080 20030 30090 40129 56003 60006 82532 91500=
07650,1997-01-07 18:00:00,5,1013.6,0.6,87,3,8000,11.112,,,140,3.7,9.1,,,,,,,,,wg-a,,,,AAXX 07184 07650 12/58 21406 10050 20030 30096 40136 53006 60006 80002 91800 333 10091 20037=
07650,1997-01-07 21:00:00,6,1013.3,-0.3,81,3,10000,7.408,,,260,,,,,,,,,,,wg-a,,,,AAXX 07214 07650 12/60 02604 10060 20030 30093 40133 58003 60006 80000 92100=
07650,1997-01-08 00:00:00,4,1013.2,-0.1,93,3,9000,7.408,,,230,,,,,,,,,,,wg-a,,,,AAXX 08004 07650 12/59 22304 10040 20030 30092 40132 58001 60006 80002 90000=
07650,1997-01-08 03:00:00,8,1011.7,-1.4,81,5,10000,7.408,,,110,,,,,,,,,,,wg-a,,,,AAXX 08034 07650 12460 71104 10080 20050 30078 40117 58014 60006 875// 90300=
07650,1997-01-08 06:00:00,8,1010.1,-1.6,87,6,10000,18.52,,,100,2.5,8.3,,,,,,,,,wg-a,,,,AAXX 08064 07650 12560 41010 10080 20060 30062 40101 56016 60006 84500 90600 333 10083 20025=
07650,1997-01-08 09:00:00,10,1009.3,-0.8,71,5,25000,22.224,,,110,,,,,,,,,,,wg-a,,,,AAXX 08094 07650 12575 71112 10100 20050 30054 40093 56008 60006 8487/ 90900=
07650,1997-01-08 12:00:00,10,1007.2,-2.1,82,7,8000,25.928,,,120,,,,1,,,,,,61,wg-a,,,,AAXX 08124 07650 02558 81214 10100 20070 30033 40072 58021 60016 76162 8587/ 91200 333 60017=
07650,1997-01-08 15:00:00,9,1005.3,-1.9,87,7,6000,25.928,,,120,,,,7,,,,,,61,wg-a,,,,AAXX 08154 07650 12456 81214 10090 20070 30014 40053 56019 60077 76166 8657/ 91500=
07650,1997-01-08 18:00:00,8,1003.1,-2.2,87,6,6000,31.484,,,90,8.1,10.1,,,,,,,,61,wg-a,,,,AAXX 08184 07650 02456 80917 10080 20060 39992 40031 56022 61000 76166 8657/ 91800 333 10101 20081 6008=
07650,1997-01-08 21:00:00,8,1000.8,-2.3,87,6,12000,31.484,,,70,,,,5,,,,,,61,wg-a,,,,AAXX 08214 07650 12462 80717 10080 20060 39969 40008 58023 60057 76166 8657/ 92100=
07650,1997-01-09 00:00:00,8,999.6,-1.2,81,5,12000,35.188,,64.82,70,,,,6,,,,,,63,wg-a,,,,AAXX 09004 07650 02/62 /0719 10080 20050 39957 49996 56012 60116 763// 90000 333 60067 91035=
07650,1997-01-09 03:00:00,8,1000,0.4,81,5,15000,29.632,,,90,,,,2,,,,,,21,wg-a,,,,AAXX 09034 07650 12565 80916 10080 20050 39961 40000 50004 60027 72162 8557/ 90300=
07650,1997-01-09 06:00:00,9,999.4,-0.5,76,5,15000,29.632,,,80,7.4,8.9,,,,,29,,,,wg-a,,,,AAXX 09064 07650 02565 70816 10090 20050 39956 49994 56005 60006 8187/ 90600 333 10089 20074 60294=
07650,1997-01-09 09:00:00,10,1000.6,1.2,71,5,15000,25.928,,,80,,,,0,,,,,,60,wg-a,,,,AAXX 09094 07650 12565 70814 10100 20050 39968 40006 53012 60007 76062 8387/ 90900=
07650,1997-01-09 12:00:00,10,1001.2,0.6,76,6,20000,18.52,,,60,,,,,,,,,,60,wg-a,,,,AAXX 09124 07650 02570 70610 10100 20060 39974 40012 50006 60016 76066 8587/ 91200 333 61000=
07650,1997-01-09 15:00:00,9,1002.6,1.3,87,7,15000,3.704,,,10,,,,0,,,,,,60,wg-a,,,,AAXX 09154 07650 12565 70102 10090 20070 39987 40026 53013 60007 76066 8587/ 91500=
07650,1997-01-09 18:00:00,8,1004.8,2.2,87,6,15000,7.408,,,320,8.4,10.2,,0,,,,,,2,wg-a,,,,AAXX 09184 07650 02565 73204 10080 20060 30009 40048 53022 60006 70262 8587/ 91800 333 10102 20084 60007=
07650,1997-01-09 21:00:00,7,1006.5,1.7,87,5,15000,3.704,,,200,,,,0,,,,,,,wg-a,,,,AAXX 09214 07650 12565 52002 10070 20050 30026 40065 51017 60007 83570 92100=
07650,1997-01-10 00:00:00,5,1007.7,1.2,93,4,10000,3.704,,,350,,,,,,,,,,,wg-a,,,,AAXX 10004 07650 12660 43502 10050 20040 30038 40077 51012 60006 83530 90000=
07650,1997-01-10 03:00:00,4,1007.7,-0.1,87,2,15000,11.112,,,310,,,,0,,,,,,,wg-a,,,,AAXX 10034 07650 12565 23106 10040 20020 30037 40077 58001 60007 81531 90300=
07650,1997-01-10 06:00:00,3,1007.1,-0.6,93,2,15000,18.52,,,280,2.5,8.4,,,,,1,,,,wg-a,,,,AAXX 10064 07650 02665 62810 10030 20020 30031 40071 56006 60006 84531 90600 333 10084 20025 60014=
07650,1997-01-10 09:00:00,7,1007.9,0.9,81,4,15000,31.484,,,320,,,,,,,,,,,wg-a,,,,AAXX 10094 07650 12465 /3217 10070 20040 30040 40079 53009 60006 84531 90900=
07650,1997-01-10 12:00:00,9,1008.7,0.8,71,4,25000,29.632,,,330,,,,,,,,,,,wg-a,,,,AAXX 10124 07650 12475 43316 10090 20040 30048 40087 51008 60006 81141 91200=
07650,1997-01-10 15:00:00,9,1010,1.3,66,3,75000,25.928,,,340,,,,,,,,,,,wg-a,,,,AAXX 10154 07650 12589 /3414 10090 20030 30061 40100 53013 60006 81140 91500=
07650,1997-01-10 18:00:00,5,1012.3,2.2,75,1,75000,22.224,,,320,3.3,9.7,,,,,,,,,wg-a,,,,AAXX 10184 07650 12/89 03212 10050 20010 30083 40123 53022 60006 80000 91800 333 10097 20033=
07650,1997-01-10 21:00:00,3,1014.4,2.1,81,0,40000,14.816,,,330,,,,,,,,,,,wg-a,,,,AAXX 10214 07650 12/82 03308 10030 20000 30104 40144 51021 60006 80000 92100=
07650,1997-01-11 00:00:00,1,1015.4,1,86,-1,10000,3.704,,,10,,,,,,,,,,,wg-a,,,,AAXX 11004 07650 12/60 /0102 10010 21010 30114 40154 51010 60006 90000=
07650,1997-01-11 03:00:00,0,1016.1,0.7,93,-1,20000,3.704,,,360,,,,,,,,,,,wg-a,,,,AAXX 11034 07650 12/70 13602 10000 21010 30121 40161 51007 60006 80001 90300=
07650,1997-01-11 06:00:00,2,1016.9,0.8,87,0,20000,22.224,,,350,-0.5,5.3,,,,,,,,,wg-a,,,,AAXX 11064 07650 12/70 13512 10020 20000 30129 40169 52008 60006 80001 90600 333 10053 21005=
07650,1997-01-11 09:00:00,4,1018.8,1.9,81,1,18000,14.816,,,350,,,,0,,,,,,,wg-a,,,,AAXX 11094 07650 12/68 13508 10040 20010 30148 40188 52019 60007 80001 90900=
07650,1997-01-11 12:00:00,8,1018.4,-0.3,61,1,18000,18.52,,,340,,,,,,,,,,,wg-a,,,,AAXX 11124 07650 12/68 23410 10080 20010 30145 40184 58003 60006 80001 91200=
07650,1997-01-11 15:00:00,8,1018,-0.4,61,1,15000,22.224,,,320,,,,,,,,,,,wg-a,,,,AAXX 11154 07650 12/65 23212 10080 20010 30141 40180 55004 60006 80001 91500=
07650,1997-01-11 18:00:00,4,1019.4,1.3,70,-1,15000,14.816,,,330,2,9.4,,,,,,,,,wg-a,,,,AAXX 11184 07650 12/65 13308 10040 21010 30154 40194 53013 60006 81031 91800 333 10094 20020=
07650,1997-01-11 21:00:00,1,1020.6,1.1,80,-2,15000,14.816,,,350,,,,,,,,,,,wg-a,,,,AAXX 11214 07650 12/65 13508 10010 21020 30165 40206 53011 60006 80001 92100=
07650,1997-01-12 00:00:00,-1,1021.3,0.7,86,-3,15000,11.112,,,10,,,,,,,,,,,wg-a,,,,AAXX 12004 07650 12/65 00106 11010 21030 30172 40213 53007 60006 80000 90000=
07650,1997-01-12 03:00:00,-1,1021.7,0.4,93,-2,15000,7.408,,,130,,,,,,,,,,,wg-a,,,,AAXX 12034 07650 12/65 01304 11010 21020 30176 40217 53004 60006 80000 90300=
07650,1997-01-12 06:00:00,-2,1021.9,0.2,93,-3,15000,3.704,,,160,-2,3.7,,,,,,,,,wg-a,,,,AAXX 12064 07650 12/65 01602 11020 21030 30178 40219 53002 60006 80000 90600 333 10037 21020=
07650,1997-01-12 09:00:00,2,1022.8,1,87,0,10000,7.408,,,130,,,,,,,,,,,wg-a,,,,AAXX 12094 07650 12/60 /1304 10020 20000 30188 40228 52010 60006 90900=
07650,1997-01-12 12:00:00,9,1022.4,-0.3,53,0,10000,7.408,,,200,,,,,,,,,,,wg-a,,,,AAXX 12124 07650 12/60 02004 10090 20000 30185 40224 58003 60006 80000 91200=
07650,1997-01-12 15:00:00,11,1022.4,-0,47,0,18000,3.704,,,160,,,,,,,,,,,wg-a,,,,AAXX 12154 07650 12/68 01602 10110 20000 30185 40224 55000 60006 80000 91500=
07650,1997-01-12 18:00:00,5,1023.1,0.6,75,1,12000,7.408,,,130,-2.1,11.2,,,,,,,,,wg-a,,,,AAXX 12184 07650 12/62 01304 10050 20010 30191 40231 51006 60006 80000 91800 333 10112 21021=
07650,1997-01-12 21:00:00,1,1024,0.8,86,-1,10000,7.408,,,110,,,,,,,,,,,wg-a,,,,AAXX 12214 07650 12/60 01104 10010 21010 30199 40240 51008 60006 80000 92100=
07650,1997-01-13 00:00:00,0,1024.3,0.3,93,-1,9000,3.704,,,140,,,,,,,,,,,wg-a,,,,AAXX 13004 07650 12/59 01402 10000 21010 30202 40243 52003 60006 80000 90000=
07650,1997-01-13 03:00:00,-1,1024,-0.3,93,-2,10000,0,,,0,,,,,,,,,,,wg-a,,,,AAXX 13034 07650 12/60 00000 11010 21020 30199 40240 58003 60006 80000 90300=
07650,1997-01-13 06:00:00,-1,1024.1,0.1,93,-2,10000,0,,,0,-1.2,4.5,,,,,,,,,wg-a,,,,AAXX 13064 07650 12/60 00000 11010 21020 30200 40241 53001 60006 80000 90600 333 10045 21012=
07650,1997-01-13 09:00:00,2,1024.7,0.7,100,2,12000,0,,,0,,,,,,,,,,,wg-a,,,,AAXX 13094 07650 32/62 00000 10020 20020 30207 40247 53007 80000 90900=
07650,1997-01-13 12:00:00,9,1024.1,-0.5,49,-1,12000,3.704,,,280,,,,,,,,,,,wg-a,,,,AAXX 13124 07650 12/62 02802 10090 21010 30202 40241 58005 60006 80000 91200=
07650,1997-01-13 15:00:00,12,1023.2,-0.9,40,-1,10000,3.704,,,230,,,,,,,,,,,wg-a,,,,AAXX 13154 07650 12/60 02302 10120 21010 30193 40232 56009 60006 80000 91500=
07650,1997-01-13 18:00:00,6,1023.7,0.4,70,1,15000,7.408,,,150,-1,12.8,,,,,,,,,wg-a,,,,AAXX 13184 07650 12/65 01504 10060 20010 30197 40237 53004 60006 80000 91800 333 10128 21010=
07650,1997-01-13 21:00:00,2,1024.5,0.7,80,-1,15000,11.112,,,140,,,,,,,,,,,wg-a,,,,AAXX 13214 07650 12/65 01406 10020 21010 30204 40245 51007 60006 80000 92100=
07650,1997-01-14 00:00:00,0,1024.2,-0.3,86,-2,15000,3.704,,,150,,,,,,,,,,,wg-a,,,,AAXX 14004 07650 12/65 01502 10000 21020 30201 40242 58003 60006 80000 90000=
07650,1997-01-14 03:00:00,-1,1023.8,-0.4,93,-2,15000,0,,,0,,,,,,,,,,,wg-a,,,,AAXX 14034 07650 12/65 00000 11010 21020 30197 40238 56004 60006 80000 90300=
07650,1997-01-14 06:00:00,-1,1023.9,0.1,93,-2,12000,3.704,,,40,-1.1,6.1,,,,,,,,,wg-a,,,,AAXX 14064 07650 02/62 00402 11010 21020 30198 40239 53001 60006 80000 90600 333 10061 21011 60004=
07650,1997-01-14 09:00:00,4,1024.4,0.6,75,0,15000,3.704,,,260,,,,,,,,,,,wg-a,,,,AAXX 14094 07650 32/65 02602 10040 20000 30204 40244 53006 80000 90900=
07650,1997-01-14 12:00:00,10,1024,-0.3,50,0,15000,3.704,,,270,,,,,,,,,,2,wg-a,,,,AAXX 14124 07650 12/65 02702 10100 20000 30201 40240 58003 60006 70260 80000 91200=
07650,1997-01-14 15:00:00,13,1023.6,-0.4,41,0,15000,0,,,0,,,,,,,,,,,wg-a,,,,AAXX 14154 07650 12/65 00000 10130 20000 30197 40236 55004 60006 80000 91500=
07650,1997-01-14 18:00:00,6,1024.5,0.8,81,3,15000,7.408,,,120,-0.8,13.5,,,,,,,,,wg-a,,,,AAXX 14184 07650 12/65 01204 10060 20030 30205 40245 53008 60006 80000 91800 333 10135 21008=
07650,1997-01-15 00:00:00,1,1025.8,0.4,93,0,12000,0,,,0,,,,,,,,,,,wg-a,,,,AAXX 15004 07650 12/62 00000 10010 20000 30217 40258 50004 60006 80000 90000=
07650,1997-01-15 03:00:00,1,1025.8,0,86,-1,12000,3.704,,,240,,,,,,,,,,,wg-a,,,,AAXX 15034 07650 12/62 02402 10010 21010 30217 40258 50000 60006 80000 90300=
07650,1997-01-15 06:00:00,-1,1026.1,0.3,93,-2,12000,3.704,,,150,-0.5,6.3,,,,,,,,,wg-a,,,,AAXX 15064 07650 02/62 01502 11010 21020 30220 40261 52003 60006 80000 90600 333 10063 21005 60004=
07650,1997-01-15 09:00:00,4,1027.1,1.1,87,2,15000,0,,,0,,,,,,,,,,,wg-a,,,,AAXX 15094 07650 32/65 00000 10040 20020 30231 40271 53011 80000 90900=
07650,1997-01-15 12:00:00,10,1026.2,-0.8,53,1,15000,3.704,,,340,,,,,,,,,,,wg-a,,,,AAXX 15124 07650 12/65 03402 10100 20010 30223 40262 58008 60006 80000 91200=
07650,1997-01-15 15:00:00,12,1025.4,-0.8,54,3,15000,3.704,,,300,,,,,,,,,,,wg-a,,,,AAXX 15154 07650 12/65 03002 10120 20030 30215 40254 56008 60006 80000 91500=
07650,1997-01-15 18:00:00,7,1025.6,0.1,87,5,12000,3.704,,,100,-0.9,13.3,,,,,,,,,wg-a,,,,AAXX 15184 07650 12462 21002 10070 20050 30216 40256 52001 60006 81502 91800 333 10133 21009=
07650,1997-01-15 21:00:00,4,1026.2,0.6,87,2,12000,0,,,0,,,,,,,,,,,wg-a,,,,AAXX 15214 07650 12/62 10000 10040 20020 30222 40262 51006 60006 80001 92100=
07650,1997-01-16 00:00:00,2,1026.1,-0.2,93,1,6000,3.704,,,330,,,,,,,,,,,wg-a,,,,AAXX 16004 07650 12056 43302 10020 20010 30220 40261 58002 60006 84600 90000=
07650,1997-01-16 03:00:00,1,1025.3,-0.8,93,0,8000,0,,,0,,,,,,,,,,,wg-a,,,,AAXX 16034 07650 12/58 00000 10010 20000 30212 40253 57008 60006 80000 90300=
07650,1997-01-16 06:00:00,1,1024.7,-0.6,93,0,12000,0,,,0,0.2,7,,,,,,,,,wg-a,,,,AAXX 16064 07650 02/62 00000 10010 20000 30206 40247 55006 60006 80000 90600 333 10070 20002 60004=
07650,1997-01-16 09:00:00,3,1025.1,0.5,100,3,10000,0,,,0,,,,0,,,,,,,wg-a,,,,AAXX 16094 07650 12/60 10000 10030 20030 30211 40251 53005 60007 80002 90900=
07650,1997-01-16 12:00:00,10,1024.4,-0.6,62,3,12000,3.704,,,280,,,,,,,,,,,wg-a,,,,AAXX 16124 07650 12562 12802 10100 20030 30205 40244 58006 60006 81100 91200=
07650,1997-01-16 15:00:00,12,1022.7,-1.7,58,4,12000,3.704,,,260,,,,,,,,,,,wg-a,,,,AAXX 16154 07650 12562 /2602 10120 20040 30188 40227 56017 60006 81102 91500=
07650,1997-01-16 18:00:00,7,1023.2,0.4,81,4,12000,7.408,,,10,0,12.5,,,,,,,,,wg-a,,,,AAXX 16184 07650 12662 /0104 10070 20040 30192 40232 53004 60006 81502 91800 333 10125 20000=
07650,1997-01-16 21:00:00,8,1023.1,-0.1,76,4,12000,14.816,,,100,,,,,,,,,,,wg-a,,,,AAXX 16214 07650 12/62 11008 10080 20040 30191 40231 56001 60006 80002 92100=
07650,1997-01-17 00:00:00,9,1023.1,0.1,76,5,12000,11.112,,,100,,,,,,,,,,,wg-a,,,,AAXX 17004 07650 12/62 01006 10090 20050 30192 40231 50001 60006 80000 90000=
07650,1997-01-17 03:00:00,7,1022.1,-1.1,81,4,15000,18.52,,,100,,,,,,,,,,,wg-a,,,,AAXX 17034 07650 12565 21010 10070 20040 30181 40221 56011 60006 81502 90300=
07650,1997-01-17 06:00:00,8,1021.2,-0.8,81,5,15000,22.224,,,70,6.3,9.2,,,,,,,,,wg-a,,,,AAXX 17064 07650 02565 40712 10080 20050 30173 40212 57008 60006 84500 90600 333 10092 20063 60004=
07650,1997-01-17 09:00:00,9,1021.5,0.3,81,6,13000,18.52,,,80,,,,,,,,,,,wg-a,,,,AAXX 17094 07650 12663 70810 10090 20060 30176 40215 53003 60006 875// 90900=
07650,1997-01-17 12:00:00,13,1020.3,-1.2,67,7,13000,25.928,,,120,,,,,,,,,,,wg-a,,,,AAXX 17124 07650 12563 71214 10130 20070 30164 40203 58012 60006 8487/ 91200=
07650,1997-01-17 15:00:00,13,1019.7,-0.6,67,7,11000,22.224,,,110,,,,,,,,,,,wg-a,,,,AAXX 17154 07650 12561 71112 10130 20070 30158 40197 56006 60006 8357/ 91500=
07650,1997-01-17 18:00:00,12,1019.7,0,67,6,15000,18.52,,,100,7.7,13.2,,,,,,,,,wg-a,,,,AAXX 17184 07650 12665 71010 10120 20060 30158 40197 50000 60006 8457/ 91800 333 10132 20077=
07650,1997-01-17 21:00:00,12,1020.6,0.9,67,6,15000,11.112,,,90,,,,,,,,,,,wg-a,,,,AAXX 17214 07650 12665 70906 10120 20060 30167 40206 51009 60006 8357/ 92100=
07650,1997-01-18 00:00:00,11,1020.6,0,76,7,15000,14.816,,,90,,,,,,,,,,,wg-a,,,,AAXX 18004 07650 12665 70908 10110 20070 30167 40206 50000 60006 8257/ 90000=
07650,1997-01-18 03:00:00,11,1020.4,-0.2,76,7,18000,11.112,,,100,,,,,,,,,,,wg-a,,,,AAXX 18034 07650 12668 71006 10110 20070 30165 40204 56002 60006 8357/ 90300=
07650,1997-01-18 06:00:00,11,1020.1,-0.3,76,7,18000,18.52,,,80,10.7,12.5,,,,,,,,,wg-a,,,,AAXX 18064 07650 12668 70810 10110 20070 30162 40201 55003 60006 8257/ 90600 333 10125 20107=
07650,1997-01-18 09:00:00,11,1020.6,0.5,71,6,15000,25.928,,,70,,,,,,,,,,,wg-a,,,,AAXX 18094 07650 12665 70714 10110 20060 30167 40206 53005 60006 8153/ 90900=
07650,1997-01-18 12:00:00,15,1019.8,-0.7,59,7,20000,14.816,,,90,,,,,,,,,,,wg-a,,,,AAXX 18124 07650 12670 /0908 10150 20070 30160 40198 58007 60006 81530 91200=
07650,1997-01-18 15:00:00,15,1017.8,-2,51,5,20000,25.928,,,130,,,,,,,,,,,wg-a,,,,AAXX 18154 07650 12570 71314 10150 20050 30140 40178 56020 60006 8383/ 91500=
07650,1997-01-18 18:00:00,13,1017.6,-0.3,67,7,15000,29.632,,,100,10.7,15.8,,,,,,,,,wg-a,,,,AAXX 18184 07650 12665 81016 10130 20070 30137 40176 58003 60006 8557/ 91800 333 10158 20107=
07650,1997-01-18 21:00:00,13,1017.1,-0.5,67,7,12000,31.484,,,110,,,,,,,,,,,wg-a,,,,AAXX 18214 07650 12662 71117 10130 20070 30132 40171 58005 60006 8457/ 92100=
07650,1997-01-19 00:00:00,12,1016.3,-0.8,88,10,12000,18.52,,,120,,,,0,,,,,,,wg-a,,,,AAXX 19004 07650 02/62 /1210 10120 20100 30124 40163 58008 60006 90000 333 60007=
07650,1997-01-19 03:00:00,12,1015.9,-0.4,88,10,8000,22.224,,,180,,,,6,,,,,,61,wg-a,,,,AAXX 19034 07650 12458 81812 10120 20100 30120 40159 55004 60067 76162 875// 90300=
07650,1997-01-19 06:00:00,12,1015.4,-0.5,88,10,10000,18.52,,,140,11.1,13.4,,,,,,,,60,wg-a,,,,AAXX 19064 07650 02460 71410 10120 20100 30115 40154 56005 61000 76062 875// 90600 333 10134 20111 6007=
07650,1997-01-19 09:00:00,12,1015.6,0.2,88,10,15000,25.928,,,150,,,,0,,,,,,60,wg-a,,,,AAXX 19094 07650 12465 81514 10120 20100 30117 40156 53002 60007 76066 8687/ 90900=
07650,1997-01-19 12:00:00,12,1014.6,-1,88,10,13000,22.224,,,120,,,,1,,,,,,21,wg-a,,,,AAXX 19124 07650 02263 81212 10120 20100 30107 40146 58010 60016 72162 878// 91200 333 60017=
07650,1997-01-19 15:00:00,13,1013.6,-0.9,88,11,2000,22.224,,,150,,,,4,,,,,,10,wg-a,,,,AAXX 19154 07650 12220 81512 10130 20110 30098 40136 55009 60047 71066 875// 91500=
07650,1997-01-19 18:00:00,13,1013.6,-0,88,11,12000,18.52,,,150,11.5,13.3,,1,,,,,,1,wg-a,,,,AAXX 19184 07650 02462 71510 10130 20110 30098 40136 55000 60006 70162 875// 91800 333 10133 20115 60017=
07650,1997-01-19 21:00:00,11,1013.8,0.1,87,9,13000,14.816,,,90,,,,,,,,,,50,wg-a,,,,AAXX 19214 07650 02363 80908 10110 20090 30099 40138 53001 61000 75052 877// 92100 333 ////=
07650,1997-01-20 00:00:00,11,1013.1,-0.7,94,10,8000,14.816,,,90,,,,3,,,,,,61,wg-a,,,,AAXX 20004 07650 02358 80908 10110 20100 30092 40131 58007 60036 76165 877// 90000 333 60037=
07650,1997-01-20 03:00:00,13,1011.5,-1.5,88,11,8000,22.224,,,130,,,,4,,,,,,61,wg-a,,,,AAXX 20034 07650 12358 81312 10130 20110 30077 40115 56015 60047 76166 875// 90300=
07650,1997-01-20 06:00:00,13,1011,-0.5,88,11,12000,25.928,,,100,10.8,13.3,,,,,,,,60,wg-a,,,,AAXX 20064 07650 02462 71014 10130 20110 30072 40110 56005 61000 76062 8557/ 90600 333 10133 20108 6014=
07650,1997-01-20 09:00:00,13,1013.3,2.3,82,10,20000,25.928,,,110,,,,,,,,,,,wg-a,,,,AAXX 20094 07650 02570 71114 10130 20100 30095 40133 53023 61000 8583/ 90900 333 ////=
07650,1997-01-20 12:00:00,14,1014.3,1,77,10,20000,11.112,,,40,,,,,,,,,,,wg-a,,,,AAXX 20124 07650 02470 80406 10140 20100 30105 40143 50010 61000 878// 91200 333 ////=
07650,1997-01-20 15:00:00,14,1014.9,0.6,72,9,500,11.112,,,110,,,,,,,,,,,wg-a,,,,AAXX 20154 07650 12400 71106 10140 20090 30111 40149 53006 60006 8487/ 91500=
07650,1997-01-20 18:00:00,14,1014.5,-0.4,63,7,20000,22.224,,,110,12.3,14.3,,,,,,,,1,wg-a,,,,AAXX 20184 07650 02670 71112 10140 20070 30107 40145 55004 60006 70162 8457/ 91800 333 10143 20123 61000=
07650,1997-01-20 21:00:00,13,1016,1.4,62,6,20000,18.52,,,100,,,,,,,,,,,wg-a,,,,AAXX 20214 07650 12670 51010 10130 20060 30121 40160 51014 60006 82630 92100=
07650,1997-01-21 00:00:00,14,1017.1,1.1,63,7,12000,14.816,,,110,,,,,,,,,,,wg-a,,,,AAXX 21004 07650 12662 51108 10140 20070 30132 40171 50011 60006 82530 90000=
07650,1997-01-21 03:00:00,13,1017.4,0.3,72,8,20000,25.928,,,90,,,,0,,,,,,60,wg-a,,,,AAXX 21034 07650 12570 70914 10130 20080 30135 40174 50003 60007 76062 8257/ 90300=
07650,1997-01-21 06:00:00,13,1018.3,0.9,72,8,500,35.188,,,80,12.6,13.9,,,,,1,,,3,wg-a,,,,AAXX 21064 07650 02600 /0819 10130 20080 30144 40183 51009 60006 70362 85830 90600 333 10139 20126 60014=
07650,1997-01-21 09:00:00,14,1019.8,1.5,67,8,25000,35.188,,,80,,,,,,,,,,,wg-a,,,,AAXX 21094 07650 12675 70819 10140 20080 30159 40198 53015 60006 8454/ 90900=
07650,1997-01-21 12:00:00,18,1020,0.3,56,9,25000,25.928,,,90,,,,,,,,,,,wg-a,,,,AAXX 21124 07650 12/75 40914 10180 20090 30162 40200 50003 60006 84040 91200=
07650,1997-01-21 15:00:00,17,1020.2,0.2,59,9,25000,25.928,,,80,,,,,,,,,,,wg-a,,,,AAXX 21154 07650 12775 70814 10170 20090 30164 40202 53002 60006 81541 91500=
07650,1997-01-21 18:00:00,15,1020.6,0.4,63,8,25000,18.52,,,110,12.9,18.3,,,,,,,,,wg-a,,,,AAXX 21184 07650 12675 71110 10150 20080 30168 40206 53004 60006 82542 91800 333 10183 20129=
07650,1997-01-21 21:00:00,16,1021.1,0.5,59,8,20000,22.224,,,90,,,,,,,,,,,wg-a,,,,AAXX 21214 07650 12/70 40912 10160 20080 30173 40211 50005 60006 81031 92100=
07650,1997-01-22 00:00:00,16,1021.1,-0,55,7,20000,7.408,,,280,,,,,,,,,,,wg-a,,,,AAXX 22004 07650 12/70 52804 10160 20070 30173 40211 54000 60006 82031 90000=
07650,1997-01-22 03:00:00,16,1019.6,-1.5,55,7,20000,31.484,,,90,,,,,,,,,,,wg-a,,,,AAXX 22034 07650 12/70 70917 10160 20070 30158 40196 58015 60006 83043 90300=
07650,1997-01-22 06:00:00,16,1021.8,2.2,51,6,20000,25.928,,,100,15,16.2,,,,,,,,,wg-a,,,,AAXX 22064 07650 12/70 81014 10160 20060 30180 40218 53022 60006 83032 90600 333 10162 20150=
07650,1997-01-22 09:00:00,16,1023.7,1.9,55,7,20000,29.632,,,90,,,,,,,,,,,wg-a,,,,AAXX 22094 07650 12/70 80916 10160 20070 30199 40237 50019 60006 86032 90900=
07650,1997-01-22 12:00:00,16,1024.4,0.6,55,7,20000,25.928,,,90,,,,,,,,,,,wg-a,,,,AAXX 22124 07650 12/70 80914 10160 20070 30205 40244 51006 60006 86072 91200=
07650,1997-01-22 15:00:00,16,1023.6,-0.7,55,7,20000,31.484,,,100,,,,,,,,,,,wg-a,,,,AAXX 22154 07650 12/70 81017 10160 20070 30198 40236 55007 60006 86072 91500=
07650,1997-01-22 18:00:00,15,1023.4,-0.3,51,5,20000,31.484,,,80,15.3,16.6,,,,,,,,,wg-a,,,,AAXX 22184 07650 12/70 80817 10150 20050 30195 40234 55003 60006 86072 91800 333 10166 20153=
07650,1997-01-22 21:00:00,15,1023.4,-0.3,51,5,20000,31.484,,,80,15.3,16.6,,,,,,,,,wg-a,,,,AAXX 22214 07650 12/70 80817 10150 20050 30195 40234 55003 60006 86072 92100 333 10166 20153=
07650,1997-01-23 00:00:00,14,1022.9,-1.2,51,4,12000,3.704,,,130,,,,,,,,,,,wg-a,,,,AAXX 23004 07650 12/62 41302 10140 20040 30190 40229 56012 60006 82032 90000=
07650,1997-01-23 03:00:00,13,1022.6,-0.3,54,4,20000,11.112,,,120,,,,,,,,,,,wg-a,,,,AAXX 23034 07650 12/70 51206 10130 20040 30187 40226 56003 60006 83032 90300=
07650,1997-01-23 06:00:00,14,1023.1,0.5,58,6,20000,14.816,,,80,10.1,15.6,,,,,,,,,wg-a,,,,AAXX 23064 07650 12/70 60808 10140 20060 30192 40231 53005 60006 84032 90600 333 10156 20101=
07650,1997-01-23 09:00:00,15,1024,0.9,59,7,20000,29.632,,,90,,,,,,,,,,,wg-a,,,,AAXX 23094 07650 12/70 70916 10150 20070 30201 40240 51009 60006 84032 90900=
07650,1997-01-23 12:00:00,16,1022.8,-1.1,59,8,25000,22.224,,,80,,,,,,,,,,,wg-a,,,,AAXX 23124 07650 12/75 70812 10160 20080 30190 40228 58011 60006 85032 91200=
07650,1997-01-23 18:00:00,14,1024,0.7,58,6,25000,7.408,,,90,13.7,17,,,,,,,,,wg-a,,,,AAXX 23184 07650 12/75 70904 10140 20060 30201 40240 50007 60006 85032 91800 333 10170 20137=
07650,1997-01-23 21:00:00,14,1024.6,0.6,55,5,20000,11.112,,,120,,,,,,,,,,,wg-a,,,,AAXX 23214 07650 12/70 51206 10140 20050 30207 40246 53006 60006 83032 92100=
07650,1997-01-24 00:00:00,12,1024.6,0,67,6,20000,7.408,,,90,,,,,,,,,,,wg-a,,,,AAXX 24004 07650 12/70 30904 10120 20060 30207 40246 50000 60006 82032 90000=
07650,1997-01-24 03:00:00,14,1024.1,-0.5,63,7,20000,11.112,,,80,,,,,,,,,,,wg-a,,,,AAXX 24034 07650 12670 70806 10140 20070 30202 40241 56005 60006 8353/ 90300=
07650,1997-01-24 06:00:00,14,1024.7,0.6,63,7,20000,14.816,,,80,11.6,15.1,,,,,,,,,wg-a,,,,AAXX 24064 07650 12670 70808 10140 20070 30208 40247 53006 60006 8353/ 90600 333 10151 20116=
07650,1997-01-24 09:00:00,14,1025.8,1.1,67,8,25000,18.52,,,70,,,,,,,,,,,wg-a,,,,AAXX 24094 07650 12/75 30710 10140 20080 30219 40258 53011 60006 83040 90900=
07650,1997-01-24 12:00:00,18,1025.2,-0.5,52,8,20000,18.52,,,100,,,,,,,,,,,wg-a,,,,AAXX 24124 07650 12570 61010 10180 20080 30214 40252 58005 60006 83532 91200=
07650,1997-01-24 15:00:00,18,1024.8,-0.4,52,8,20000,11.112,,,240,,,,,,,,,,,wg-a,,,,AAXX 24154 07650 12670 /2406 10180 20080 30210 40248 56004 60006 84502 91500=
07650,1997-01-24 18:00:00,14,1026.5,1.6,63,7,20000,11.112,,,60,13.1,18.2,,,,,,,,,wg-a,,,,AAXX 24184 07650 12/70 50606 10140 20070 30226 40265 53016 60006 81032 91800 333 10182 20131=
07650,1997-01-25 00:00:00,9,1027.1,-0.5,87,7,15000,3.704,,,180,,,,,,,,,,,wg-a,,,,AAXX 25004 07650 12/65 21802 10090 20070 30232 40271 57005 60006 80002 90000=
07650,1997-01-25 03:00:00,9,1026.1,-1,87,7,15000,7.408,,,90,,,,,,,,,,,wg-a,,,,AAXX 25034 07650 12/65 60904 10090 20070 30222 40261 56010 60006 83032 90300=
07650,1997-01-25 06:00:00,10,1026.2,0.1,82,7,12000,7.408,,,150,8.2,13.9,,,,,,,,,wg-a,,,,AAXX 25064 07650 12662 71504 10100 20070 30223 40262 50001 60006 83532 90600 333 10139 20082=
07650,1997-01-25 09:00:00,11,1026.7,0.5,82,8,10000,3.704,,,280,,,,,,,,,,,wg-a,,,,AAXX 25094 07650 12/60 /2802 10110 20080 30228 40267 53005 60006 86030 90900=
07650,1997-01-25 12:00:00,14,1025.8,-0.9,67,8,15000,3.704,,,280,,,,,,,,,,,wg-a,,,,AAXX 25124 07650 12565 52802 10140 20080 30219 40258 58009 60006 83831 91200=
07650,1997-01-25 15:00:00,15,1024.1,-1.7,67,9,11000,18.52,,,250,,,,,,,,,,,wg-a,,,,AAXX 25154 07650 12/61 /2510 10150 20090 30202 40241 56017 60006 91500=
07650,1997-01-25 18:00:00,11,1024.9,0.8,87,9,12000,3.704,,,140,9.1,16.3,,,,,,,,,wg-a,,,,AAXX 25184 07650 12/62 31402 10110 20090 30210 40249 53008 60006 81042 91800 333 10163 20091=
07650,1997-01-25 21:00:00,9,1025,0.1,87,7,9000,0,,,0,,,,,,,,,,,wg-a,,,,AAXX 25214 07650 12/59 30000 10090 20070 30211 40250 51001 60006 80002 92100=
07650,1997-01-26 00:00:00,7,1024.4,-0.7,87,5,6000,3.704,,,250,,,,,,,,,,,wg-a,,,,AAXX 26004 07650 12/56 02502 10070 20050 30204 40244 58007 60006 80000 90000=
07650,1997-01-26 03:00:00,5,1023.4,-1,93,4,2500,7.408,,,90,,,,,,,,,,10,wg-a,,,,AAXX 26034 07650 12/25 00904 10050 20040 30194 40234 56010 60006 71000 80000 90300=
07650,1997-01-26 06:00:00,5,1023.4,-0,93,4,3000,7.408,,,100,4.4,11.3,,,,,,,,11,wg-a,,,,AAXX 26064 07650 02230 21004 10050 20040 30194 40234 54000 60006 71140 82600 90600 333 10113 20044 60004=
07650,1997-01-26 09:00:00,7,1024.7,1.3,100,7,500,0,,,0,,,,,,,,,,1,wg-a,,,,AAXX 26094 07650 12/00 /0000 10070 20070 30207 40247 53013 60006 70140 80001 90900=
07650,1997-01-26 12:00:00,12,1024.6,0,82,9,8000,3.704,,,290,,,,,,,,,,,wg-a,,,,AAXX 26124 07650 12458 22902 10120 20090 30207 40246 50000 60006 81101 91200=
07650,1997-01-26 15:00:00,14,1024.1,-0.5,72,9,15000,11.112,,,200,,,,,,,,,,,wg-a,,,,AAXX 26154 07650 12565 22006 10140 20090 30202 40241 55005 60006 81101 91500=
07650,1997-01-26 18:00:00,10,1025,0.9,87,8,15000,3.704,,,120,4.4,15,,,,,,,,,wg-a,,,,AAXX 26184 07650 12565 71202 10100 20080 30211 40250 53009 60006 875// 91800 333 10150 20044=
07650,1997-01-26 21:00:00,10,1026,1,87,8,15000,7.408,,,120,,,,,,,,,,,wg-a,,,,AAXX 26214 07650 12565 61204 10100 20080 30221 40260 51010 60006 85501 92100=
07650,1997-01-27 00:00:00,9,1026.3,0.2,87,7,10000,3.704,,,120,,,,,,,,,,,wg-a,,,,AAXX 27004 07650 12560 41202 10090 20070 30223 40263 51002 60006 83501 90000=
07650,1997-01-27 03:00:00,9,1026.2,0,93,8,10000,3.704,,,260,,,,,,,,,,,wg-a,,,,AAXX 27034 07650 12660 72602 10090 20080 30223 40262 50000 60006 875// 90300=
07650,1997-01-27 06:00:00,9,1026.5,0.3,93,8,6000,0,,,0,8.7,11,,,,,,,,,wg-a,,,,AAXX 27064 07650 12556 70000 10090 20080 30226 40265 53003 60006 875// 90600 333 10110 20087=
07650,1997-01-27 09:00:00,10,1028,1.5,87,8,2000,3.704,,,250,,,,,,,,,,10,wg-a,,,,AAXX 27094 07650 12420 72502 10100 20080 30241 40280 51015 60006 71022 875// 90900=
07650,1997-01-27 12:00:00,13,1027.9,-0.1,82,10,3000,3.704,,,330,,,,,,,,,,10,wg-a,,,,AAXX 27124 07650 12430 73302 10130 20100 30240 40279 58001 60006 71022 875// 91200=
07650,1997-01-27 15:00:00,13,1026.9,-1,72,8,6000,7.408,,,250,,,,,,,,,,,wg-a,,,,AAXX 27154 07650 12556 /2504 10130 20080 30230 40269 56010 60006 82532 91500=
07650,1997-01-27 18:00:00,10,1027.5,0.6,82,7,8000,7.408,,,260,9.2,13.1,,,,,,,,,wg-a,,,,AAXX 27184 07650 12/58 /2604 10100 20070 30236 40275 53006 60006 80002 91800 333 10131 20092=
07650,1997-01-27 21:00:00,8,1028,0.4,81,5,8000,11.112,,,280,,,,,,,,,,,wg-a,,,,AAXX 27214 07650 12/58 32806 10080 20050 30240 40280 51004 60006 80001 92100=
07650,1997-01-28 00:00:00,5,1028,-0,87,3,12000,7.408,,,330,,,,,,,,,,,wg-a,,,,AAXX 28004 07650 12/62 03304 10050 20030 30240 40280 54000 60006 80000 90000=
07650,1997-01-28 03:00:00,3,1027.5,-0.5,93,2,15000,14.816,,,330,,,,,,,,,,,wg-a,,,,AAXX 28034 07650 12665 43308 10030 20020 30235 40275 56005 60006 84501 90300=
07650,1997-01-28 06:00:00,3,1027.6,0.1,81,0,20000,11.112,,,350,3.1,9.9,,,,,,,,,wg-a,,,,AAXX 28064 07650 12/70 23506 10030 20000 30236 40276 53001 60006 80001 90600 333 10099 20031=
07650,1997-01-28 09:00:00,5,1028.5,0.9,75,1,15000,11.112,,,350,,,,,,,,,,,wg-a,,,,AAXX 28094 07650 12465 73506 10050 20010 30245 40285 53009 60006 86502 90900=
07650,1997-01-28 12:00:00,8,1028.8,0.3,71,3,12000,11.112,,,270,,,,,,,,,,,wg-a,,,,AAXX 28124 07650 12662 52706 10080 20030 30248 40288 50003 60006 84502 91200=
07650,1997-01-28 15:00:00,9,1029.3,0.5,66,3,12000,11.112,,,290,,,,,,,,,,,wg-a,,,,AAXX 28154 07650 12562 /2906 10090 20030 30253 40293 53005 60006 86502 91500=
07650,1997-01-28 18:00:00,7,1031.4,2.1,76,3,9000,3.704,,,340,2.5,9,,,,,,,,,wg-a,,,,AAXX 28184 07650 12559 63402 10070 20030 30274 40314 53021 60006 86502 91800 333 10090 20025=
07650,1997-01-28 21:00:00,6,1032.8,1.4,81,3,9000,7.408,,,140,,,,,,,,,,,wg-a,,,,AAXX 28214 07650 12559 /1404 10060 20030 30288 40328 51014 60006 84500 92100=
07650,1997-01-29 00:00:00,4,1033.1,0.3,87,2,9000,7.408,,,150,,,,,,,,,,,wg-a,,,,AAXX 29004 07650 12559 21504 10040 20020 30291 40331 51003 60006 82500 90000=
07650,1997-01-29 03:00:00,3,1033.4,0.2,93,2,8000,3.704,,,130,,,,,,,,,,,wg-a,,,,AAXX 29034 07650 12/58 01302 10030 20020 30293 40334 51002 60006 80000 90300=
07650,1997-01-29 06:00:00,3,1033.2,-0.2,93,2,9000,0,,,0,2.6,7.1,,,,,,,,,wg-a,,,,AAXX 29064 07650 12/59 /0000 10030 20020 30291 40332 55002 60006 80002 90600 333 10071 20026=
07650,1997-01-29 09:00:00,6,1033.6,0.5,93,5,500,3.704,,,160,,,,,,,,,,,wg-a,,,,AAXX 29094 07650 12/00 01602 10060 20050 30296 40336 51005 60006 80000 90900=
07650,1997-01-29 12:00:00,10,1032.5,-1.1,66,4,8000,7.408,,,260,,,,,,,,,,,wg-a,,,,AAXX 29124 07650 12/58 02604 10100 20040 30285 40325 58011 60006 80000 91200=
07650,1997-01-29 15:00:00,13,1031.1,-1.3,54,4,10000,11.112,,,270,,,,,,,,,,,wg-a,,,,AAXX 29154 07650 12/60 02706 10130 20040 30272 40311 56013 60006 80000 91500=
07650,1997-01-29 18:00:00,8,1031.8,0.6,76,4,10000,3.704,,,190,2.7,12.6,,,,,,,,,wg-a,,,,AAXX 29184 07650 12/60 11902 10080 20040 30278 40318 53006 60006 80002 91800 333 10126 20027=
07650,1997-01-29 21:00:00,5,1032.1,0.3,87,3,10000,11.112,,,140,,,,,,,,,,,wg-a,,,,AAXX 29214 07650 12/60 01406 10050 20030 30281 40321 51003 60006 80000 92100=
07650,1997-01-30 00:00:00,5,1032.3,0.2,87,3,8000,11.112,,,120,,,,,,,,,,,wg-a,,,,AAXX 30004 07650 12/58 01206 10050 20030 30283 40323 50002 60006 80000 90000=
07650,1997-01-30 03:00:00,2,1032.3,-0.1,93,1,7000,0,,,0,,,,,,,,,,,wg-a,,,,AAXX 30034 07650 12/57 00000 10020 20010 30282 40323 56001 60006 80000 90300=
07650,1997-01-30 06:00:00,1,1032.1,-0.2,93,0,7000,0,,,0,1.3,8,,,,,,,,,wg-a,,,,AAXX 30064 07650 02/57 00000 10010 20000 30280 40321 55002 60006 80000 90600 333 10080 20013 60004=
07650,1997-01-30 09:00:00,5,1032.8,0.8,93,4,8000,0,,,0,,,,,,,,,,,wg-a,,,,AAXX 30094 07650 12/58 00000 10050 20040 30288 40328 53008 60006 80000 90900=
07650,1997-01-30 12:00:00,10,1032.3,-0.5,76,6,500,7.408,,,260,,,,,,,,,,,wg-a,,,,AAXX 30124 07650 12/00 02604 10100 20060 30283 40323 58005 60006 80000 91200=
07650,1997-01-30 15:00:00,13,1030.5,-1.7,58,5,8000,3.704,,,250,,,,,,,,,,,wg-a,,,,AAXX 30154 07650 12/58 02502 10130 20050 30266 40305 57017 60006 80000 91500=
07650,1997-01-30 18:00:00,8,1030.7,0.1,81,5,9000,7.408,,,230,1.4,13.6,,,,,,,,,wg-a,,,,AAXX 30184 07650 12/59 /2304 10080 20050 30267 40307 53001 60006 80000 91800 333 10136 20014=
07650,1997-01-31 00:00:00,4,1030.5,-0.2,93,3,500,11.112,,,120,,,,,,,,,,,wg-a,,,,AAXX 31004 07650 12/00 01206 10040 20030 30265 40305 58002 60006 80000 90000=
07650,1997-01-31 03:00:00,2,1030,-0.6,93,1,3000,0,,,0,,,,,,,,,,10,wg-a,,,,AAXX 31034 07650 32/30 00000 10020 20010 30259 40300 58006 71000 80000 90300=
07650,1997-01-31 12:00:00,8,1028.6,-1.2,87,6,3000,7.408,,,260,,,,,,,,,,10,wg-a,,,,AAXX 31124 07650 12/30 02604 10080 20060 30246 40286 58012 60006 71000 80000 91200=
07650,1997-01-31 15:00:00,12,1026.6,-1.9,54,3,7000,3.704,,,240,,,,,,,,,,,wg-a,,,,AAXX 31154 07650 12/57 02402 10120 20030 30227 40266 56019 60006 80000 91500=
07650,1997-01-31 18:00:00,7,1026.7,-0,66,1,10000,11.112,,,330,0.6,11.8,,,,,,,,,wg-a,,,,AAXX 31184 07650 12/60 03306 10070 20010 30227 40267 55000 60006 80000 91800 333 10118 20006=
07650,1997-01-31 21:00:00,4,1026.6,-0.1,75,0,12000,14.816,,,310,,,,,,,,,,,wg-a,,,,AAXX 31214 07650 12/62 03108 10040 20000 30226 40266 58001 60006 80000 92100=
07650,1997-02-01 00:00:00,0,1026.9,0.2,86,-2,10000,11.112,,,310,,,,,,,,,,,wg-a,,,,AAXX 01004 07650 12/60 03106 10000 21020 30228 40269 50002 60006 80000 90000=
07650,1997-02-01 03:00:00,-1,1025.9,-1,86,-3,7000,3.704,,,110,,,,,,,,,,,wg-a,,,,AAXX 01034 07650 12/57 01102 11010 21030 30218 40259 58010 60006 80000 90300=
07650,1997-02-01 06:00:00,-2,1025.8,-0.1,93,-3,6000,7.408,,,140,-1.8,7.2,,,,,,,,,wg-a,,,,AAXX 01064 07650 12/56 01404 11020 21030 30217 40258 55001 60006 80000 90600 333 10072 21018=
07650,1997-02-01 09:00:00,2,1026.4,0.6,87,0,4000,3.704,,,130,,,,0,,,,,,10,wg-a,,,,AAXX 01094 07650 12440 /1302 10020 20000 30223 40264 52006 60007 71000 81700 90900=
07650,1997-02-01 15:00:00,11,1025,-0.9,50,1,8000,3.704,,,200,,,,,,,,,,,wg-a,,,,AAXX 01154 07650 12/58 02002 10110 20010 30211 40250 56009 60006 80000 91500=
07650,1997-02-01 18:00:00,7,1025.3,0.2,66,1,8000,3.704,,,190,-2.1,11.2,,,,,,,,,wg-a,,,,AAXX 01184 07650 12/58 /1902 10070 20010 30213 40253 51002 60006 80001 91800 333 10112 21021=
07650,1997-02-01 21:00:00,4,1025.6,0.3,81,1,8000,3.704,,,130,,,,,,,,,,,wg-a,,,,AAXX 01214 07650 12/58 01302 10040 20010 30216 40256 53003 60006 80000 92100=
07650,1997-02-02 06:00:00,0,1025.1,-0.1,93,-1,7000,3.704,,,160,0,6.6,,,,,,,,,wg-a,,,,AAXX 02064 07650 12/57 /1602 10000 21010 30210 40251 55001 60006 80001 90600 333 10066 20000=
07650,1997-02-02 09:00:00,5,1026,1,93,4,4000,0,,,0,,,,0,,,,,,10,wg-a,,,,AAXX 02094 07650 12/40 /0000 10050 20040 30220 40260 53010 60007 71000 80002 90900=
07650,1997-02-02 12:00:00,10,1025.5,-0.4,76,6,6000,3.704,,,260,,,,,,,,,,,wg-a,,,,AAXX 02124 07650 12556 32602 10100 20060 30216 40255 58004 60006 83802 91200=
07650,1997-02-02 15:00:00,13,1024.8,-0.7,58,5,8000,7.408,,,280,,,,,,,,,,,wg-a,,,,AAXX 02154 07650 12558 52804 10130 20050 30209 40248 55007 60006 84802 91500=
07650,1997-02-02 18:00:00,9,1025.5,0.6,81,6,10000,3.704,,,110,0,13.5,,,,,,,,,wg-a,,,,AAXX 02184 07650 12560 31102 10090 20060 30215 40255 53006 60006 83500 91800 333 10135 20000=
07650,1997-02-02 21:00:00,6,1026.2,0.7,87,4,7000,0,,,0,,,,,,,,,,,wg-a,,,,AAXX 02214 07650 12557 30000 10060 20040 30222 40262 53007 60006 81502 92100=
07650,1997-02-03 00:00:00,5,1025.8,-0.4,93,4,6000,7.408,,,150,,,,,,,,,,,wg-a,,,,AAXX 03004 07650 12/56 31504 10050 20040 30218 40258 58004 60006 80002 90000=
07650,1997-02-03 03:00:00,4,1025.2,-0.6,87,2,6000,3.704,,,130,,,,,,,,,,,wg-a,,,,AAXX 03034 07650 12/56 /1302 10040 20020 30212 40252 58006 60006 80001 90300=
07650,1997-02-03 06:00:00,5,1024.6,-0.6,93,4,6000,0,,,0,3.4,8.6,,,,,,,,,wg-a,,,,AAXX 03064 07650 12/56 /0000 10050 20040 30206 40246 55006 60006 83031 90600 333 10086 20034=
07650,1997-02-03 09:00:00,6,1026.1,1.5,93,5,4000,3.704,,,290,,,,,,,,,,10,wg-a,,,,AAXX 03094 07650 12/40 72902 10060 20050 30221 40261 51015 60006 71022 84032 90900=
07650,1997-02-03 12:00:00,8,1026.1,0,87,6,8000,3.704,,,260,,,,,,,,,,,wg-a,,,,AAXX 03124 07650 12658 72602 10080 20060 30221 40261 50000 60006 8257/ 91200=
07650,1997-02-03 15:00:00,10,1025,-1,71,5,8000,7.408,,,260,,,,,,,,,,,wg-a,,,,AAXX 03154 07650 12/58 32604 10100 20050 30211 40250 56010 60006 83031 91500=
07650,1997-02-03 18:00:00,7,1026.1,1,87,5,8000,3.704,,,260,4.8,10.4,,,,,,,,,wg-a,,,,AAXX 03184 07650 12/58 22602 10070 20050 30221 40261 53010 60006 82030 91800 333 10104 20048=
07650,1997-02-03 21:00:00,4,1026.8,0.7,87,2,7000,3.704,,,40,,,,,,,,,,,wg-a,,,,AAXX 03214 07650 12/57 /0402 10040 20020 30228 40268 53007 60006 81030 92100=
07650,1997-02-04 00:00:00,2,1027.8,,87,0,7000,0,,,0,,,,,,,,,,,wg-a,,,,AAXX 04004 07650 12/57 /0000 10020 20000 30231 40278 60006 81030 90000=
07650,1997-02-04 03:00:00,1,1027,-0.3,93,0,6000,3.704,,,110,,,,,,,,,,,wg-a,,,,AAXX 04034 07650 12/56 01102 10010 20000 30229 40270 58003 60006 80000 90300=
07650,1997-02-04 06:00:00,2,1027,-0,93,1,500,0,,,0,0.7,7,,,,,,,,,wg-a,,,,AAXX 04064 07650 02200 /0000 10020 20010 30229 40270 54000 60006 86600 90600 333 10070 20007 60004=
07650,1997-02-04 09:00:00,5,1027.6,0.7,93,4,4000,3.704,,,220,,,,,,,,,,10,wg-a,,,,AAXX 04094 07650 32340 72202 10050 20040 30236 40276 53007 71022 875// 90900=
07650,1997-02-04 12:00:00,10,1027,-0.5,76,6,6000,7.408,,,260,,,,,,,,,,,wg-a,,,,AAXX 04124 07650 12556 22604 10100 20060 30231 40270 58005 60006 82202 91200=
07650,1997-02-04 15:00:00,12,1025.5,-1.5,67,6,7000,3.704,,,280,,,,,,,,,,,wg-a,,,,AAXX 04154 07650 12557 /2802 10120 20060 30216 40255 56015 60006 81102 91500=
07650,1997-02-04 18:00:00,8,1026.1,0.5,81,5,7000,3.704,,,180,2.1,12.3,,,,,,,,,wg-a,,,,AAXX 04184 07650 12/57 /1802 10080 20050 30221 40261 53005 60006 80002 91800 333 10123 20021=
07650,1997-02-04 21:00:00,6,1026.9,0.8,87,4,8000,0,,,0,,,,,,,,,,,wg-a,,,,AAXX 04214 07650 12558 20000 10060 20040 30229 40269 51008 60006 82500 92100=
07650,1997-02-05 00:00:00,5,1027.5,0.6,93,4,500,7.408,,,140,,,,,,,,,,,wg-a,,,,AAXX 05004 07650 12400 31404 10050 20040 30235 40275 52006 60006 83500 90000=
07650,1997-02-05 03:00:00,3,1026.7,-0.8,87,1,4000,0,,,0,,,,,,,,,,10,wg-a,,,,AAXX 05034 07650 12440 40000 10030 20010 30227 40267 58008 60006 71000 84700 90300=
07650,1997-02-05 06:00:00,5,1025.8,-0.9,93,4,4000,3.704,,,180,2.6,8,,,,,,,,10,wg-a,,,,AAXX 05064 07650 12540 /1802 10050 20040 30218 40258 56009 60006 71011 86500 90600 333 10080 20026=
07650,1997-02-05 09:00:00,6,1026.2,0.4,93,5,4000,7.408,,,350,,,,,,,,,,10,wg-a,,,,AAXX 05094 07650 12540 73504 10060 20050 30222 40262 53004 60006 71022 83532 90900=
07650,1997-02-05 12:00:00,10,1025.6,-0.5,76,6,6000,7.408,,,260,,,,,,,,,,,wg-a,,,,AAXX 05124 07650 12556 72604 10100 20060 30217 40256 58005 60006 81532 91200=
07650,1997-02-05 15:00:00,12,1023.7,-1.9,67,6,9000,7.408,,,270,,,,,,,,,,,wg-a,,,,AAXX 05154 07650 12659 42704 10120 20060 30198 40237 56019 60006 81532 91500=
07650,1997-02-05 18:00:00,8,1023.1,-0.6,87,6,9000,11.112,,,300,4.8,11.9,,,,,,,,,wg-a,,,,AAXX 05184 07650 12659 33006 10080 20060 30192 40231 55006 60006 81530 91800 333 10119 20048=
07650,1997-02-05 21:00:00,10,1024.2,1.1,71,5,12000,31.484,,,320,,,,,,,,,,,wg-a,,,,AAXX 05214 07650 12/62 03217 10100 20050 30203 40242 50011 60006 80000 92100=
07650,1997-02-06 00:00:00,10,1023.7,-0.5,62,3,15000,61.116,,79.636,320,,,,,,,,,,,wg-a,,,,AAXX 06004 07650 12/65 03233 10100 20030 30198 40237 58005 60006 80000 90000 333 91043=
07650,1997-02-06 03:00:00,8,1025.6,1.8,61,1,20000,38.892,,57.412,310,,,,,,,,,,,wg-a,,,,AAXX 06034 07650 12/70 03121 10080 20010 30216 40256 52018 60006 80000 90300 333 91031=
07650,1997-02-06 06:00:00,7,1025.4,-0.2,70,2,25000,46.3,,,300,6.5,10.3,,,,,,,,,wg-a,,,,AAXX 06064 07650 12/75 03025 10070 20020 30214 40254 55002 60006 80000 90600 333 10103 20065=
07650,1997-02-06 09:00:00,8,1028.7,3.3,61,1,500,14.816,,,340,,,,,,,,,,,wg-a,,,,AAXX 06094 07650 12/00 03408 10080 20010 30247 40287 51033 60006 80000 90900=
07650,1997-02-06 12:00:00,13,1029.4,0.8,47,2,500,14.816,,,260,,,,,,,,,,,wg-a,,,,AAXX 06124 07650 12/00 02608 10130 20020 30255 40294 51008 60006 80000 91200=
07650,1997-02-06 15:00:00,15,1029.4,-0,44,3,500,14.816,,,250,,,,,,,,,,,wg-a,,,,AAXX 06154 07650 12/00 02508 10150 20030 30255 40294 55000 60006 80000 91500=
07650,1997-02-06 18:00:00,10,1031.1,1.6,62,3,25000,7.408,,,190,6.1,15.4,,,,,,,,,wg-a,,,,AAXX 06184 07650 12/75 01904 10100 20030 30271 40311 53016 60006 80000 91800 333 10154 20061=
07650,1997-02-06 21:00:00,5,1032.5,1.4,81,2,20000,3.704,,,110,,,,,,,,,,,wg-a,,,,AAXX 06214 07650 12/70 01102 10050 20020 30285 40325 53014 60006 80000 92100=
07650,1997-02-07 00:00:00,4,1033.3,0.7,81,1,20000,0,,,0,,,,,,,,,,,wg-a,,,,AAXX 07004 07650 12/70 00000 10040 20010 30292 40333 51007 60006 80000 90000=
07650,1997-02-07 03:00:00,2,1032.9,-0.4,87,0,20000,3.704,,,90,,,,,,,,,,,wg-a,,,,AAXX 07034 07650 12/70 00902 10020 20000 30288 40329 56004 60006 80000 90300=
07650,1997-02-07 06:00:00,1,1033.6,0.7,80,-2,20000,7.408,,,130,0.8,9.4,,,,,,,,,wg-a,,,,AAXX 07064 07650 12/70 01304 10010 21020 30295 40336 53007 60006 80000 90600 333 10094 20008=
07650,1997-02-07 09:00:00,6,1034.9,1.4,65,0,75000,0,,,0,,,,,,,,,,,wg-a,,,,AAXX 07094 07650 12/89 00000 10060 20000 30309 40349 51014 60006 80000 90900=
07650,1997-02-07 12:00:00,13,1034.8,0,51,3,75000,11.112,,,240,,,,,,,,,,,wg-a,,,,AAXX 07124 07650 12/89 02406 10130 20030 30309 40348 50000 60006 80000 91200=
07650,1997-02-07 15:00:00,15,1033.7,-1.1,48,4,60000,11.112,,,230,,,,,,,,,,,wg-a,,,,AAXX 07154 07650 12/86 02306 10150 20040 30298 40337 56011 60006 80000 91500=
07650,1997-02-07 18:00:00,10,1034.5,0.7,71,5,20000,3.704,,,190,0.7,15.5,,,,,,,,,wg-a,,,,AAXX 07184 07650 12/70 01902 10100 20050 30305 40345 53007 60006 80000 91800 333 10155 20007=
07650,1997-02-07 21:00:00,6,1035,0.5,87,4,20000,0,,,0,,,,,,,,,,,wg-a,,,,AAXX 07214 07650 12/70 00000 10060 20040 30310 40350 52005 60006 80000 92100=
07650,1997-02-08 00:00:00,4,1035.3,0.2,87,2,20000,3.704,,,300,,,,,,,,,,,wg-a,,,,AAXX 08004 07650 12/70 03002 10040 20020 30312 40353 51002 60006 80000 90000=
07650,1997-02-08 03:00:00,3,1034.8,-0.5,87,1,10000,3.704,,,300,,,,,,,,,,,wg-a,,,,AAXX 08034 07650 12/60 03002 10030 20010 30307 40348 57005 60006 80000 90300=
07650,1997-02-08 06:00:00,2,1034.8,-0,93,1,8000,7.408,,,130,1.7,9.5,,,,,,,,,wg-a,,,,AAXX 08064 07650 02/58 01304 10020 20010 30307 40348 55000 60006 80000 90600 333 10095 20017 60004=
07650,1997-02-08 09:00:00,5,1035.1,0.4,93,4,7000,3.704,,,270,,,,,,,,,,,wg-a,,,,AAXX 08094 07650 32/57 02702 10050 20040 30311 40351 53004 80000 90900=
07650,1997-02-08 12:00:00,12,1034.2,-0.8,58,4,8000,7.408,,,250,,,,,,,,,,,wg-a,,,,AAXX 08124 07650 12/58 02504 10120 20040 30303 40342 58008 60006 80000 91200=
07650,1997-02-08 15:00:00,14,1032.4,-1.8,55,5,10000,7.408,,,260,,,,,,,,,,,wg-a,,,,AAXX 08154 07650 12/60 02604 10140 20050 30285 40324 56018 60006 80000 91500=
07650,1997-02-08 18:00:00,9,1032.7,0.2,81,6,10000,7.408,,,270,1.8,14.5,,,,,,,,,wg-a,,,,AAXX 08184 07650 12/60 02704 10090 20060 30287 40327 53002 60006 80000 91800 333 10145 20018=
07650,1997-02-08 21:00:00,6,1033.1,0.4,87,4,20000,3.704,,,130,,,,,,,,,,,wg-a,,,,AAXX 08214 07650 12/70 01302 10060 20040 30291 40331 52004 60006 80000 92100=
07650,1997-02-09 00:00:00,4,1033.2,0,93,3,20000,0,,,0,,,,,,,,,,,wg-a,,,,AAXX 09004 07650 12/70 00000 10040 20030 30291 40332 50000 60006 80000 90000=
07650,1997-02-09 03:00:00,4,1032.1,-1,93,3,8000,7.408,,,160,,,,,,,,,,,wg-a,,,,AAXX 09034 07650 12558 31604 10040 20030 30281 40321 58010 60006 83500 90300=
07650,1997-02-09 06:00:00,5,1031.7,-0.4,93,4,8000,3.704,,,50,3.3,9.4,,,,,,,,,wg-a,,,,AAXX 09064 07650 12558 /0502 10050 20040 30277 40317 58004 60006 85500 90600 333 10094 20033=
07650,1997-02-09 09:00:00,7,1032.6,0.9,93,6,8000,3.704,,,300,,,,,,,,,,,wg-a,,,,AAXX 09094 07650 12558 73002 10070 20060 30286 40326 51009 60006 875// 90900=
07650,1997-02-09 12:00:00,11,1032,-0.5,71,6,10000,3.704,,,280,,,,,,,,,,,wg-a,,,,AAXX 09124 07650 12560 22802 10110 20060 30281 40320 58005 60006 82100 91200=
07650,1997-02-09 15:00:00,12,1030.1,-1.9,62,5,15000,7.408,,,260,,,,,,,,,,,wg-a,,,,AAXX 09154 07650 12/65 12604 10120 20050 30262 40301 56019 60006 80001 91500=
07650,1997-02-09 18:00:00,9,1030.7,0.5,76,5,15000,3.704,,,210,4.5,12.8,,,,,,,,,wg-a,,,,AAXX 09184 07650 12/65 22102 10090 20050 30267 40307 53005 60006 80001 91800 333 10128 20045=
07650,1997-02-09 21:00:00,6,1031.4,0.7,87,4,10000,7.408,,,120,,,,,,,,,,,wg-a,,,,AAXX 09214 07650 12/60 21204 10060 20040 30274 40314 51007 60006 80001 92100=
07650,1997-02-10 00:00:00,4,1031.3,-0.1,87,2,8000,7.408,,,150,,,,,,,,,,,wg-a,,,,AAXX 10004 07650 12/58 21504 10040 20020 30273 40313 56001 60006 80001 90000=
07650,1997-02-10 03:00:00,3,1030.5,-0.9,93,2,6000,0,,,0,,,,,,,,,,,wg-a,,,,AAXX 10034 07650 12/56 20000 10030 20020 30264 40305 58009 60006 80001 90300=
07650,1997-02-10 06:00:00,2,1030,-0.5,93,1,500,0,,,0,1.9,8.5,,,,,,,,,wg-a,,,,AAXX 10064 07650 02/00 20000 10020 20010 30259 40300 57005 60006 80001 90600 333 10085 20019 60004=
07650,1997-02-10 09:00:00,6,1030.6,0.7,100,6,1500,3.704,,,300,,,,,,,,,,10,wg-a,,,,AAXX 10094 07650 12415 33002 10060 20060 30266 40306 51007 60006 71000 81601 90900=
07650,1997-02-10 12:00:00,10,1030,-0.6,82,7,4000,7.408,,,280,,,,,,,,,,10,wg-a,,,,AAXX 10124 07650 12540 /2804 10100 20070 30260 40300 58006 60006 71000 81100 91200=
07650,1997-02-10 15:00:00,12,1028.3,-1.6,71,7,9000,7.408,,,260,,,,,,,,,,,wg-a,,,,AAXX 10154 07650 12559 /2604 10120 20070 30244 40283 56016 60006 81100 91500=
07650,1997-02-10 18:00:00,8,1028.8,0.4,87,6,7000,0,,,0,1.9,12.9,,,,,,,,,wg-a,,,,AAXX 10184 07650 12/57 00000 10080 20060 30248 40288 53004 60006 80000 91800 333 10129 20019=
07650,1997-02-10 21:00:00,7,1029.1,0.3,87,5,6000,7.408,,,140,,,,,,,,,,,wg-a,,,,AAXX 10214 07650 12456 51404 10070 20050 30251 40291 50003 60006 84502 92100=
07650,1997-02-11 00:00:00,7,1029.2,0.1,93,6,4000,7.408,,,170,,,,,,,,,,10,wg-a,,,,AAXX 11004 07650 12440 71704 10070 20060 30252 40292 52001 60006 71011 875// 90000=
07650,1997-02-11 03:00:00,5,1028.2,-1,93,4,2000,3.704,,,280,,,,,,,,,,10,wg-a,,,,AAXX 11034 07650 12520 42802 10050 20040 30242 40282 56010 60006 71011 83502 90300=
07650,1997-02-11 06:00:00,6,1027.3,-0.9,93,5,2000,7.408,,,140,4.9,7.9,,,,,,,,10,wg-a,,,,AAXX 11064 07650 02220 71404 10060 20050 30233 40273 58009 61000 71064 84772 90600 333 10079 20049 6000=
07650,1997-02-11 09:00:00,7,1028.6,1.3,93,6,100,3.704,,,190,,,,,,,,,,45,wg-a,,,,AAXX 11094 07650 32/01 91902 10070 20060 30246 40286 51013 74544 89/// 90900=
07650,1997-02-11 12:00:00,10,1028,-0.5,82,7,2000,7.408,,,260,,,,,,,,,,10,wg-a,,,,AAXX 11124 07650 12320 42604 10100 20070 30241 40280 58005 60006 71064 84600 91200=
07650,1997-02-11 15:00:00,13,1026.8,-1.2,72,8,500,7.408,,,240,,,,,,,,,,,wg-a,,,,AAXX 11154 07650 12300 /2404 10130 20080 30229 40268 56012 60006 86530 91500=
07650,1997-02-11 18:00:00,10,1026.8,-0,87,8,6000,3.704,,,250,5.8,13.6,,,,,,,,,wg-a,,,,AAXX 11184 07650 12556 /2502 10100 20080 30229 40268 55000 60006 83530 91800 333 10136 20058=
07650,1997-02-11 21:00:00,10,1027,0.2,87,8,9000,7.408,,,170,,,,,,,,,,,wg-a,,,,AAXX 11214 07650 12/59 31704 10100 20080 30231 40270 51002 60006 82031 92100=
07650,1997-02-12 00:00:00,10,1027.4,0.4,87,8,8000,7.408,,,130,,,,,,,,,,,wg-a,,,,AAXX 12004 07650 12758 61304 10100 20080 30235 40274 52004 60006 84531 90000=
07650,1997-02-12 03:00:00,9,1025.4,-2,87,7,9000,14.816,,,340,,,,,,,,,,,wg-a,,,,AAXX 12034 07650 12659 43408 10090 20070 30215 40254 58020 60006 81530 90300=
07650,1997-02-12 06:00:00,7,1025.5,0,93,6,10000,3.704,,,180,6.8,10.5,,,,,,,,,wg-a,,,,AAXX 12064 07650 02/60 21802 10070 20060 30215 40255 50000 60006 82030 90600 333 10105 20068 60004=
07650,1997-02-12 09:00:00,9,1026.1,0.7,93,8,6000,3.704,,,300,,,,,,,,,,,wg-a,,,,AAXX 12094 07650 12556 53002 10090 20080 30222 40261 51007 60006 81531 90900=
07650,1997-02-12 12:00:00,16,1024.2,-1.8,59,8,15000,14.816,,,270,,,,,,,,,,,wg-a,,,,AAXX 12124 07650 12/65 22708 10160 20080 30204 40242 58018 60006 81031 91200=
07650,1997-02-12 15:00:00,16,1021.8,-2.4,68,10,25000,22.224,,,250,,,,,,,,,,,wg-a,,,,AAXX 12154 07650 12/75 62512 10160 20100 30180 40218 56024 60006 81034 91500=
07650,1997-02-12 18:00:00,12,1020.9,-1,82,9,20000,3.704,,,250,6,17.3,,,,,,,,,wg-a,,,,AAXX 12184 07650 12/70 22502 10120 20090 30170 40209 56010 60006 81032 91800 333 10173 20060=
07650,1997-02-12 21:00:00,10,1022,1.1,87,8,20000,0,,,0,,,,,,,,,,,wg-a,,,,AAXX 12214 07650 12/70 20000 10100 20080 30181 40220 53011 60006 80002 92100=
07650,1997-02-13 00:00:00,8,1020.9,-1.1,93,7,20000,0,,,0,,,,,,,,,,,wg-a,,,,AAXX 13004 07650 12/70 10000 10080 20070 30170 40209 58011 60006 80001 90000=
07650,1997-02-13 03:00:00,7,1019.6,-1.3,93,6,20000,3.704,,,260,,,,,,,,,,,wg-a,,,,AAXX 13034 07650 12/70 22602 10070 20060 30157 40196 58013 60006 81041 90300=
07650,1997-02-13 06:00:00,10,1020,0.4,82,7,20000,18.52,,,310,7.1,12.5,,,,,,,,,wg-a,,,,AAXX 13064 07650 12/70 63110 10100 20070 30161 40200 53004 60006 85031 90600 333 10125 20071=
07650,1997-02-13 09:00:00,12,1020.5,0.5,71,7,20000,14.816,,,300,,,,,,,,,,,wg-a,,,,AAXX 13094 07650 12570 73008 10120 20070 30166 40205 53005 60006 81554 90900=
07650,1997-02-13 12:00:00,14,1018.9,-1.6,67,8,20000,35.188,,,250,,,,,,,,,,,wg-a,,,,AAXX 13124 07650 12570 72519 10140 20080 30150 40189 58016 60006 81532 91200=
07650,1997-02-13 18:00:00,12,1017.8,0.9,54,3,20000,29.632,,,270,9.9,14.6,,,,,,,,,wg-a,,,,AAXX 13184 07650 12570 52716 10120 20030 30139 40178 53009 60006 81441 91800 333 10146 20099=
07650,1997-02-13 21:00:00,10,1019.5,1.7,53,1,20000,25.928,,,290,,,,,,,,,,,wg-a,,,,AAXX 13214 07650 12/70 32914 10100 20010 30156 40195 53017 60006 80001 92100=
07650,1997-02-14 00:00:00,8,1019,-0.5,61,1,20000,18.52,,,310,,,,,,,,,,,wg-a,,,,AAXX 14004 07650 12/70 23110 10080 20010 30151 40190 55005 60006 80002 90000=
07650,1997-02-14 03:00:00,6,1017.3,-1.8,65,0,20000,7.408,,,340,,,,,,,,,,,wg-a,,,,AAXX 14034 07650 12/70 33404 10060 20000 30133 40173 58018 60006 80001 90300=
07650,1997-02-14 06:00:00,7,1015.8,-1.4,66,1,15000,3.704,,,150,5.5,12.1,,,,,,,,60,wg-a,,,,AAXX 14064 07650 02665 71502 10070 20010 30119 40158 56014 61000 76061 84572 90600 333 10121 20055 6100=
07650,1997-02-14 09:00:00,10,1014.9,-0.9,62,3,12000,3.704,,,60,,,,,,,,,,3,wg-a,,,,AAXX 14094 07650 02462 70602 10100 20030 30110 40149 57009 61000 70362 875// 90900 333 ////=
07650,1997-02-14 12:00:00,14,1013.1,-1.7,77,10,12000,7.408,,,210,,,,,,,,,,,wg-a,,,,AAXX 14124 07650 02662 72104 10140 20100 30093 40131 58017 61000 8557/ 91200 333 ////=
07650,1997-02-14 15:00:00,16,1010.9,-2.2,68,10,15000,18.52,,,230,,,,,,,,,,,wg-a,,,,AAXX 14154 07650 12665 72310 10160 20100 30071 40109 57022 60006 8553/ 91500=
07650,1997-02-14 18:00:00,15,1010,-0.9,67,9,20000,14.816,,,230,6.9,16.6,,,,,,,,,wg-a,,,,AAXX 14184 07650 12670 72308 10150 20090 30062 40100 57009 60006 8357/ 91800 333 10166 20069=
07650,1997-02-14 21:00:00,13,1009.1,-0.9,82,10,20000,3.704,,,280,,,,,,,,,,,wg-a,,,,AAXX 14214 07650 12670 /2802 10130 20100 30053 40091 58009 60006 82530 92100=
07650,1997-02-15 00:00:00,12,1007.9,-1.2,82,9,20000,25.928,,,300,,,,,,,,,,60,wg-a,,,,AAXX 15004 07650 02670 73014 10120 20090 30041 40079 56012 61000 76062 8357/ 90000 333 6100=
07650,1997-02-15 03:00:00,11,1006.1,-1.8,82,8,20000,7.408,,,30,,,,1,,,,,,2,wg-a,,,,AAXX 15034 07650 12670 70304 10110 20080 30023 40061 58018 60017 70262 8357/ 90300=
07650,1997-02-15 06:00:00,10,1006,-0.2,87,8,20000,11.112,,,300,9.8,14.7,,,,,1,,,2,wg-a,,,,AAXX 15064 07650 02670 73006 10100 20080 30021 40060 55002 60006 70262 8357/ 90600 333 10147 20098 60014=
07650,1997-02-15 09:00:00,12,1007.9,2,82,9,500,14.816,,,330,,,,,,,,,,,wg-a,,,,AAXX 15094 07650 12500 53308 10120 20090 30041 40079 52020 60006 83830 90900=
07650,1997-02-15 12:00:00,15,1008,0.1,59,7,40000,46.3,,,320,,,,,,,,,,,wg-a,,,,AAXX 15124 07650 12582 53225 10150 20070 30042 40080 50001 60006 84241 91200=
07650,1997-02-15 15:00:00,11,1010.6,2.5,50,1,40000,83.34,,96.304,320,,,,,,,,,,,wg-a,,,,AAXX 15154 07650 12682 23245 10110 20010 30067 40106 53025 60006 82240 91500 333 91052=
07650,1997-02-15 18:00:00,9,1014,3.4,46,-2,40000,64.82,,100.008,320,9,15.3,,,,,,,,,wg-a,,,,AAXX 15184 07650 12/82 03235 10090 21020 30101 40140 53034 60006 80000 91800 333 10153 20090 91054=
07650,1997-02-15 21:00:00,8,1015,1,53,-1,500,61.116,,79.636,320,,,,,,,,,,,wg-a,,,,AAXX 15214 07650 12/00 03233 10080 21010 30111 40150 50010 60006 80000 92100 333 91043=
07650,1997-02-16 00:00:00,6,1015.3,0.2,56,-2,500,57.412,,68.524,320,,,,,,,,,,,wg-a,,,,AAXX 16004 07650 12/00 03231 10060 21020 30113 40153 50002 60006 80000 90000 333 91037=
07650,1997-02-16 03:00:00,5,1015.4,0.1,60,-2,500,53.708,,,330,,,,,,,,,,,wg-a,,,,AAXX 16034 07650 12/00 03329 10050 21020 30114 40154 50001 60006 80000 90300=
07650,1997-02-16 06:00:00,4,1018.2,2.8,60,-3,500,18.52,,,10,3.6,9.1,,,,,,,,,wg-a,,,,AAXX 16064 07650 12/00 00110 10040 21030 30142 40182 53028 60006 80000 90600 333 10091 20036=
07650,1997-02-16 09:00:00,6,1020.2,2,52,-3,500,7.408,,,10,,,,,,,,,,,wg-a,,,,AAXX 16094 07650 12/00 30104 10060 21030 30162 40202 52020 60006 80002 90900=
07650,1997-02-16 12:00:00,11,1021.4,1.3,43,-1,500,11.112,,,260,,,,,,,,,,,wg-a,,,,AAXX 16124 07650 12/00 22606 10110 21010 30175 40214 52013 60006 80001 91200=
07650,1997-02-16 15:00:00,15,1020.9,-0.4,41,2,500,7.408,,,290,,,,,,,,,,,wg-a,,,,AAXX 16154 07650 12500 /2904 10150 20020 30171 40209 58004 60006 81501 91500=
07650,1997-02-16 18:00:00,10,1022.6,1.6,62,3,500,3.704,,,260,1.7,15.2,,,,,,,,,wg-a,,,,AAXX 16184 07650 12/00 12602 10100 20030 30187 40226 53016 60006 80001 91800 333 10152 20017=
07650,1997-02-16 21:00:00,6,1023.5,0.8,81,3,500,3.704,,,100,,,,,,,,,,,wg-a,,,,AAXX 16214 07650 12/00 01002 10060 20030 30195 40235 51008 60006 80000 92100=
07650,1997-02-17 00:00:00,6,1023.8,0.3,87,4,20000,11.112,,,340,,,,,,,,,,,wg-a,,,,AAXX 17004 07650 12/70 03406 10060 20040 30198 40238 53003 60006 80000 90000=
07650,1997-02-17 03:00:00,5,1023.7,-0.1,87,3,20000,0,,,0,,,,,,,,,,,wg-a,,,,AAXX 17034 07650 12/70 50000 10050 20030 30197 40237 58001 60006 82032 90300=
07650,1997-02-17 06:00:00,3,1023.9,0.2,87,1,15000,7.408,,,340,2.7,9.7,,,,,,,,,wg-a,,,,AAXX 17064 07650 12/65 33404 10030 20010 30199 40239 53002 60006 81032 90600 333 10097 20027=
07650,1997-02-17 09:00:00,8,1025.4,1.5,76,4,8000,3.704,,,290,,,,,,,,,,,wg-a,,,,AAXX 17094 07650 12/58 42902 10080 20040 30214 40254 51015 60006 80002 90900=
07650,1997-02-17 12:00:00,12,1024.6,-0.7,54,3,10000,7.408,,,250,,,,,,,,,,,wg-a,,,,AAXX 17124 07650 12/60 22504 10120 20030 30207 40246 58007 60006 80002 91200=
07650,1997-02-17 15:00:00,15,1023.6,-1,44,3,25000,25.928,,,290,,,,,,,,,,,wg-a,,,,AAXX 17154 07650 12/75 22914 10150 20030 30197 40236 55010 60006 80002 91500=
07650,1997-02-17 18:00:00,11,1024.6,1,71,6,18000,11.112,,,290,2.6,15.4,,,,,,,,,wg-a,,,,AAXX 17184 07650 12/68 32906 10110 20060 30207 40246 53010 60006 80002 91800 333 10154 20026=
07650,1997-02-17 21:00:00,9,1025.9,1.3,66,3,18000,3.704,,,280,,,,,,,,,,,wg-a,,,,AAXX 17214 07650 12/68 32802 10090 20030 30220 40259 51013 60006 81032 92100=
07650,1997-02-18 00:00:00,8,1026.8,0.8,66,2,18000,3.704,,,280,,,,,,,,,,,wg-a,,,,AAXX 18004 07650 12/68 32802 10080 20020 30228 40268 51008 60006 81032 90000=
07650,1997-02-18 03:00:00,7,1026.1,-0.7,70,2,18000,7.408,,,140,,,,,,,,,,,wg-a,,,,AAXX 18034 07650 12/68 41404 10070 20020 30221 40261 58007 60006 82032 90300=
07650,1997-02-18 06:00:00,5,1026.4,0.3,87,3,18000,3.704,,,120,5.3,11.2,,,,,,,,,wg-a,,,,AAXX 18064 07650 12/68 31202 10050 20030 30224 40264 53003 60006 81032 90600 333 10112 20053=
07650,1997-02-18 09:00:00,9,1027.9,1.5,76,5,15000,3.704,,,300,,,,,,,,,,,wg-a,,,,AAXX 18094 07650 12565 /3002 10090 20050 30239 40279 51015 60006 81532 90900=
07650,1997-02-18 12:00:00,13,1027,-0.8,54,4,20000,7.408,,,240,,,,,,,,,,,wg-a,,,,AAXX 18124 07650 12570 /2404 10130 20040 30231 40270 58008 60006 81532 91200=
07650,1997-02-18 15:00:00,14,1026,-1,58,6,25000,18.52,,,270,,,,,,,,,,,wg-a,,,,AAXX 18154 07650 12575 72710 10140 20060 30221 40260 55010 60006 82832 91500=
07650,1997-02-18 18:00:00,12,1026,0,71,7,20000,22.224,,,260,5.5,14.9,,,,,,,,,wg-a,,,,AAXX 18184 07650 12570 72612 10120 20070 30221 40260 50000 60006 81532 91800 333 10149 20055=
07650,1997-02-18 21:00:00,11,1027.9,1.9,71,6,20000,22.224,,,290,,,,,,,,,,,wg-a,,,,AAXX 18214 07650 12/70 /2912 10110 20060 30240 40279 51019 60006 92100=
07650,1997-02-19 00:00:00,10,1028.9,1,76,6,20000,25.928,,,300,,,,,,,,,,,wg-a,,,,AAXX 19004 07650 12/70 23014 10100 20060 30250 40289 53010 60006 80002 90000=
07650,1997-02-19 03:00:00,11,1029.3,0.4,54,2,20000,29.632,,,310,,,,,,,,,,,wg-a,,,,AAXX 19034 07650 12/70 23116 10110 20020 30254 40293 52004 60006 80002 90300=
07650,1997-02-19 06:00:00,10,1029.3,-0.1,50,0,20000,46.3,,,320,9.6,11.9,,,,,,,,,wg-a,,,,AAXX 19064 07650 12/70 23225 10100 20000 30253 40293 58001 60006 80002 90600 333 10119 20096=
07650,1997-02-19 09:00:00,11,1029.8,0.6,47,0,75000,53.708,,,310,,,,,,,,,,,wg-a,,,,AAXX 19094 07650 12/89 13129 10110 20000 30259 40298 50006 60006 80001 90900=
07650,1997-02-19 12:00:00,13,1029.5,-0.9,38,-1,75000,35.188,,72.228,330,,,,,,,,,,,wg-a,,,,AAXX 19124 07650 12/89 03319 10130 21010 30250 40295 56009 60006 80000 91200 333 91039=
07650,1997-02-19 15:00:00,15,1028,-0.9,27,-4,40000,31.484,,,310,,,,,,,,,,,wg-a,,,,AAXX 19154 07650 12/82 43117 10150 21040 30241 40280 58009 60006 80001 91500=
07650,1997-02-19 18:00:00,12,1027.9,-0.1,38,-2,40000,3.704,,,130,9,15,,,,,,,,,wg-a,,,,AAXX 19184 07650 12/82 71302 10120 21020 30240 40279 55001 60006 80002 91800 333 10150 20090=
07650,1997-02-19 21:00:00,9,1029.2,1.2,53,0,500,14.816,,,260,,,,,,,,,,,wg-a,,,,AAXX 19214 07650 12/00 62608 10090 20000 30252 40292 53012 60006 80002 92100=
07650,1997-02-20 00:00:00,6,1029.1,-0.1,61,-1,500,3.704,,,180,,,,,,,,,,,wg-a,,,,AAXX 20004 07650 12/00 41802 10060 21010 30251 40291 58001 60006 80002 90000=
07650,1997-02-20 03:00:00,5,1029,-0.1,60,-2,500,7.408,,,140,,,,,,,,,,,wg-a,,,,AAXX 20034 07650 12/00 61404 10050 21020 30250 40290 58001 60006 80002 90300=
07650,1997-02-20 06:00:00,3,1029.3,0.3,81,0,500,7.408,,,130,2.8,11.5,,,,,,,,,wg-a,,,,AAXX 20064 07650 12/00 31304 10030 20000 30253 40293 53003 60006 80001 90600 333 10115 20028=
07650,1997-02-20 09:00:00,9,1030.1,0.8,61,2,20000,14.816,,,340,,,,,,,,,,,wg-a,,,,AAXX 20094 07650 12/70 33408 10090 20020 30261 40301 50008 60006 80002 90900=
07650,1997-02-20 12:00:00,17,1028.5,-1.5,42,4,50000,38.892,,,330,,,,,,,,,,,wg-a,,,,AAXX 20124 07650 12/84 33321 10170 20040 30246 40285 58015 60006 80002 91200=
07650,1997-02-20 18:00:00,14,1027.1,0.2,55,5,20000,18.52,,,290,2.8,18,,,,,,,,,wg-a,,,,AAXX 20184 07650 12/70 12910 10140 20050 30232 40271 53002 60006 80002 91800 333 10180 20028=
07650,1997-02-20 21:00:00,10,1027.8,0.7,71,5,15000,0,,,0,,,,,,,,,,,wg-a,,,,AAXX 20214 07650 12/65 00000 10100 20050 30239 40278 53007 60006 80000 92100=
07650,1997-02-21 00:00:00,7,1027.7,-0.2,81,4,15000,14.816,,,260,,,,,,,,,,,wg-a,,,,AAXX 21004 07650 12/65 02608 10070 20040 30237 40277 56002 60006 80000 90000=
07650,1997-02-21 03:00:00,7,1027.6,-0.1,81,4,20000,18.52,,,290,,,,,,,,,,,wg-a,,,,AAXX 21034 07650 12/70 02910 10070 20040 30236 40276 57001 60006 80000 90300=
07650,1997-02-21 06:00:00,8,1028.1,0.5,66,2,20000,11.112,,,340,5.4,13.5,,,,,,,,,wg-a,,,,AAXX 21064 07650 12/70 03406 10080 20020 30241 40281 53005 60006 80000 90600 333 10135 20054=
07650,1997-02-21 12:00:00,15,1030.4,0.7,39,1,20000,3.704,,,320,,,,,,,,,,,wg-a,,,,AAXX 21124 07650 12/70 43202 10150 20010 30265 40304 50007 60006 80002 91200=
07650,1997-02-21 15:00:00,17,1028.9,-1.5,39,3,20000,7.408,,,220,,,,,,,,,,,wg-a,,,,AAXX 21154 07650 12/70 32204 10170 20030 30250 40289 56015 60006 80002 91500=
07650,1997-02-21 18:00:00,13,1029.6,,54,4,20000,7.408,,,270,5.7,17.5,,,,,,,,,wg-a,,,,AAXX 21184 07650 12/70 32704 10130 20040 30257 40296 60006 80002 91800 333 10175 20057=
07650,1997-02-21 21:00:00,9,1030.3,0.6,66,3,20000,7.408,,,190,,,,,,,,,,,wg-a,,,,AAXX 21214 07650 12/70 01904 10090 20030 30263 40303 51006 60006 80000 92100=
07650,1997-02-22 00:00:00,7,1030.3,-0,76,3,20000,0,,,0,,,,,,,,,,,wg-a,,,,AAXX 22004 07650 12/70 00000 10070 20030 30263 40303 55000 60006 80000 90000=
07650,1997-02-22 03:00:00,5,1030.4,0.1,81,2,20000,3.704,,,190,,,,,,,,,,,wg-a,,,,AAXX 22034 07650 12/70 01902 10050 20020 30264 40304 53001 60006 80000 90300=
07650,1997-02-22 06:00:00,6,1030.6,0.2,93,5,15000,3.704,,,90,4.2,12.4,,,,,,,,,wg-a,,,,AAXX 22064 07650 12465 10902 10060 20050 30266 40306 52002 60006 81500 90600 333 10124 20042=
07650,1997-02-22 09:00:00,9,1031.4,0.8,93,8,7000,3.704,,,280,,,,,,,,,,,wg-a,,,,AAXX 22094 07650 12357 22802 10090 20080 30274 40314 51008 60006 82600 90900=
07650,1997-02-22 12:00:00,13,1030.6,-0.7,72,8,14000,11.112,,,290,,,,,,,,,,,wg-a,,,,AAXX 22124 07650 12564 42906 10130 20080 30267 40306 58007 60006 84100 91200=
07650,1997-02-22 15:00:00,15,1029.1,-1.5,63,8,18000,22.224,,,160,,,,,,,,,,,wg-a,,,,AAXX 22154 07650 12568 51612 10150 20080 30252 40291 56015 60006 81101 91500=
07650,1997-02-22 18:00:00,12,1029.2,0.1,71,7,25000,11.112,,,150,5.7,15.3,,,,,,,,,wg-a,,,,AAXX 22184 07650 12675 /1506 10120 20070 30253 40292 53001 60006 81501 91800 333 10153 20057=
07650,1997-02-22 21:00:00,10,1029.4,0.1,76,6,20000,14.816,,,110,,,,,,,,,,,wg-a,,,,AAXX 22214 07650 12570 /1108 10100 20060 30254 40294 51001 60006 81501 92100=
07650,1997-02-23 00:00:00,8,1029.1,-0.3,76,4,20000,3.704,,,70,,,,,,,,,,,wg-a,,,,AAXX 23004 07650 12/70 20702 10080 20040 30251 40291 58003 60006 80001 90000=
07650,1997-02-23 03:00:00,8,1027.4,-1.7,81,5,20000,7.408,,,120,,,,,,,,,,,wg-a,,,,AAXX 23034 07650 12/70 01204 10080 20050 30234 40274 56017 60006 80000 90300=
07650,1997-02-23 06:00:00,8,1026.5,-0.9,81,5,20000,0,,,0,7.2,12,,,,,,,,,wg-a,,,,AAXX 23064 07650 12/70 30000 10080 20050 30225 40265 56009 60006 81032 90600 333 10120 20072=
07650,1997-02-23 09:00:00,11,1026.4,-0,76,7,15000,11.112,,,70,,,,,,,,,,,wg-a,,,,AAXX 23094 07650 12665 70706 10110 20070 30225 40264 54000 60006 85502 90900=
07650,1997-02-23 12:00:00,14,1025,-1.4,58,6,20000,14.816,,,150,,,,,,,,,,,wg-a,,,,AAXX 23124 07650 12570 71508 10140 20060 30211 40250 58014 60006 85804 91200=
07650,1997-02-23 15:00:00,13,1022.6,-2.4,67,7,20000,18.52,,,180,,,,,,,,,,,wg-a,,,,AAXX 23154 07650 12670 71810 10130 20070 30187 40226 56024 60006 85502 91500=
07650,1997-02-23 18:00:00,12,1021.5,-1.1,71,7,12000,11.112,,,110,8,14.3,,,,,,,,,wg-a,,,,AAXX 23184 07650 12562 71106 10120 20070 30176 40215 58011 60006 85502 91800 333 10143 20080=
07650,1997-02-23 21:00:00,11,1022.1,0.6,76,7,20000,11.112,,,110,,,,,,,,,,1,wg-a,,,,AAXX 23214 07650 02670 71106 10110 20070 30182 40221 51006 61000 70162 8557/ 92100 333 ////=
07650,1997-02-24 00:00:00,11,1021.2,-0.9,82,8,18000,3.704,,,80,,,,,,,,,,,wg-a,,,,AAXX 24004 07650 02468 70802 10110 20080 30173 40212 58009 61000 875// 90000 333 ////=
07650,1997-02-24 06:00:00,11,1019,-0.8,82,8,15000,7.408,,,90,10.6,12.1,,,,,,,,,wg-a,,,,AAXX 24064 07650 02465 80904 10110 20080 30151 40190 56008 60006 875// 90600 333 10121 20106 61000=
07650,1997-02-24 09:00:00,12,1019.6,0.6,76,8,10000,14.816,,,70,,,,,,,,,,,wg-a,,,,AAXX 24094 07650 12460 80708 10120 20080 30157 40196 52006 60006 885// 90900=
07650,1997-02-24 12:00:00,14,1019.9,0.3,77,10,8000,18.52,,,130,,,,,,,,,,,wg-a,,,,AAXX 24124 07650 12458 81310 10140 20100 30160 40199 51003 60006 885// 91200=
07650,1997-02-24 15:00:00,13,1018.8,-1.1,82,10,8000,14.816,,,150,,,,,,,,,,,wg-a,,,,AAXX 24154 07650 12458 81508 10130 20100 30149 40188 55011 60006 885// 91500=
07650,1997-02-24 18:00:00,12,1019.4,0.6,88,10,7000,14.816,,,110,10.9,14,,,,,,,,21,wg-a,,,,AAXX 24184 07650 02457 81108 10120 20100 30155 40194 52006 61000 72162 885// 91800 333 10140 20109 6000=
07650,1997-02-25 00:00:00,13,1020.9,0.4,82,10,10000,7.408,,,110,,,,,,,,,,2,wg-a,,,,AAXX 25004 07650 02460 71104 10130 20100 30170 40209 50004 61000 70262 875// 90000 333 ////=
07650,1997-02-25 03:00:00,13,1020.2,-0.7,82,10,8000,11.112,,,110,,,,,,,,,,,wg-a,,,,AAXX 25034 07650 12458 71106 10130 20100 30163 40202 58007 60006 875// 90300=
07650,1997-02-25 06:00:00,12,1020.2,0,82,9,7000,14.816,,,100,11.9,12.8,,,,,,,,,wg-a,,,,AAXX 25064 07650 02457 71008 10120 20090 30163 40202 50000 60006 875// 90600 333 10128 20119 60004=
07650,1997-02-25 09:00:00,15,1021.9,1.7,72,10,6000,7.408,,,100,,,,,,,,,,,wg-a,,,,AAXX 25094 07650 12456 71004 10150 20100 30180 40219 51017 60006 87500 90900=
07650,1997-02-25 12:00:00,16,1021.1,-0.7,72,11,8000,22.224,,,150,,,,,,,,,,,wg-a,,,,AAXX 25124 07650 12558 71512 10160 20110 30173 40211 58007 60006 8457/ 91200=
07650,1997-02-25 15:00:00,16,1019.8,-1.3,68,10,8000,18.52,,,160,,,,,,,,,,,wg-a,,,,AAXX 25154 07650 12558 /1610 10160 20100 30160 40198 58013 60006 86500 91500=
07650,1997-02-25 18:00:00,14,1020.2,0.3,77,10,8000,11.112,,,140,11.7,17,,,,,,,,,wg-a,,,,AAXX 25184 07650 12558 71406 10140 20100 30163 40202 53003 60006 86502 91800 333 10170 20117=
07650,1997-02-25 21:00:00,13,1021.6,1.4,77,9,9000,7.408,,,110,,,,,,,,,,,wg-a,,,,AAXX 25214 07650 12559 31104 10130 20090 30177 40216 53014 60006 82502 92100=
07650,1997-02-26 00:00:00,12,1021,-0.6,88,10,7000,11.112,,,90,,,,,,,,,,,wg-a,,,,AAXX 26004 07650 12457 70906 10120 20100 30171 40210 58006 60006 875// 90000=
07650,1997-02-26 03:00:00,12,1020.5,-0.5,88,10,6000,0,,,0,,,,,,,,,,,wg-a,,,,AAXX 26034 07650 12456 80000 10120 20100 30166 40205 58005 60006 8557/ 90300=
07650,1997-02-26 06:00:00,11,1021.6,1.1,94,10,8000,11.112,,,280,11,13.9,,,,,,,,,wg-a,,,,AAXX 26064 07650 12458 72806 10110 20100 30177 40216 53011 60006 875// 90600 333 10139 20110=
07650,1997-02-26 09:00:00,13,1023.4,1.8,88,11,2500,7.408,,,310,,,,,,,,,,10,wg-a,,,,AAXX 26094 07650 12325 33104 10130 20110 30195 40234 53018 60006 71011 82630 90900=
07650,1997-02-26 12:00:00,17,1022.8,-0.5,63,10,8000,7.408,,,250,,,,,,,,,,,wg-a,,,,AAXX 26124 07650 12558 22504 10170 20100 30190 40228 58005 60006 82140 91200=
07650,1997-02-26 15:00:00,17,1021.7,-1.1,55,8,500,38.892,,,270,,,,,,,,,,,wg-a,,,,AAXX 26154 07650 12600 62721 10170 20080 30179 40217 55011 60006 83532 91500=
07650,1997-02-26 18:00:00,15,1023.4,1.6,51,5,40000,35.188,,,270,11,18.8,,,,,,,,,wg-a,,,,AAXX 26184 07650 12682 42719 10150 20050 30195 40234 53016 60006 82441 91800 333 10188 20110=
07650,1997-02-27 00:00:00,11,1028.8,2.5,54,2,40000,46.3,,,290,,,,,,,,,,,wg-a,,,,AAXX 27004 07650 12/82 12925 10110 20020 30249 40288 53025 60006 80001 90000=
07650,1997-02-27 03:00:00,9,1030.1,1.2,57,1,40000,29.632,,,310,,,,,,,,,,,wg-a,,,,AAXX 27034 07650 12/82 03116 10090 20010 30261 40301 52012 60006 80000 90300=
07650,1997-02-27 06:00:00,8,1032.6,2.5,66,2,40000,29.632,,,290,8.1,15.3,,,,,,,,,wg-a,,,,AAXX 27064 07650 12/82 02916 10080 20020 30286 40326 51025 60006 80000 90600 333 10153 20081=
07650,1997-02-27 09:00:00,11,1034.6,2,43,-1,50000,50.004,,,320,,,,,,,,,,,wg-a,,,,AAXX 27094 07650 12584 /3227 10110 21010 30306 40346 51020 60006 81100 90900=
07650,1997-02-27 12:00:00,13,1033.6,-0.9,38,-1,75000,46.3,,68.524,320,,,,,,,,,,,wg-a,,,,AAXX 27124 07650 12/89 03225 10130 21010 30297 40336 56009 60006 80000 91200 333 91037=
07650,1997-02-28 00:00:00,8,1033.2,0.1,49,-2,50000,11.112,,,10,,,,,,,,,,,wg-a,,,,AAXX 28004 07650 12/84 00106 10080 21020 30292 40332 53001 60006 80000 90000=
07650,1997-02-28 03:00:00,4,1032.9,-0.4,65,-2,500,7.408,,,140,,,,,,,,,,,wg-a,,,,AAXX 28034 07650 12/00 01404 10040 21020 30288 40329 56004 60006 80000 90300=
07650,1997-02-28 06:00:00,3,1033.5,0.6,70,-2,500,7.408,,,220,2.9,11.7,,,,,,,,,wg-a,,,,AAXX 28064 07650 12/00 02204 10030 21020 30294 40335 53006 60006 80000 90600 333 10117 20029=
07650,1997-02-28 09:00:00,11,1034.5,1.1,54,2,500,7.408,,,240,,,,,,,,,,,wg-a,,,,AAXX 28094 07650 12/00 12404 10110 20020 30305 40345 51011 60006 80002 90900=
07650,1997-02-28 12:00:00,16,1034.3,-0.1,36,1,500,7.408,,,260,,,,,,,,,,,wg-a,,,,AAXX 28124 07650 12/00 12604 10160 20010 30304 40343 58001 60006 80002 91200=
07650,1997-02-28 18:00:00,13,1033.7,0.4,62,6,500,3.704,,,160,2.6,18.3,,,,,,,,,wg-a,,,,AAXX 28184 07650 12/00 21602 10130 20060 30298 40337 53004 60006 80002 91800 333 10183 20026=
07650,1997-02-28 21:00:00,8,1034.1,0.3,81,5,500,7.408,,,130,,,,,,,,,,,wg-a,,,,AAXX 28214 07650 12/00 21304 10080 20050 30301 40341 53003 60006 80002 92100=
07650,1997-03-01 00:00:00,7,1033.2,-0.9,81,4,500,3.704,,,10,,,,,,,,,,,wg-a,,,,AAXX 01004 07650 12/00 20102 10070 20040 30292 40332 58009 60006 80002 90000=
07650,1997-03-01 03:00:00,5,1032,-1.2,87,3,20000,3.704,,,350,,,,,,,,,,,wg-a,,,,AAXX 01034 07650 12/70 13502 10050 20030 30280 40320 58012 60006 80001 90300=
07650,1997-03-01 06:00:00,3,1032.1,-0,87,1,20000,7.408,,,150,3,12.8,,,,,,,,,wg-a,,,,AAXX 01064 07650 02/70 21504 10030 20010 30280 40321 55000 60006 81032 90600 333 10128 20030 60004=
07650,1997-03-01 09:00:00,9,1032.4,0.4,71,4,75000,0,,,0,,,,,,,,,,,wg-a,,,,AAXX 01094 07650 12/89 20000 10090 20040 30284 40324 53004 60006 80001 90900=
07650,1997-03-01 12:00:00,14,1031.3,-1,51,4,20000,3.704,,,300,,,,,,,,,,,wg-a,,,,AAXX 01124 07650 12/70 33002 10140 20040 30274 40313 58010 60006 80002 91200=
07650,1997-03-01 15:00:00,16,1029.5,-1.8,51,6,20000,14.816,,,250,,,,,,,,,,,wg-a,,,,AAXX 01154 07650 12/70 52508 10160 20060 30256 40295 56018 60006 81032 91500=
07650,1997-03-01 18:00:00,12,1029.5,-0,82,9,20000,3.704,,,200,2.7,16.2,,,,,,,,,wg-a,,,,AAXX 01184 07650 12570 72002 10120 20090 30256 40295 55000 60006 82552 91800 333 10162 20027=
07650,1997-03-01 21:00:00,10,1030.2,0.6,87,8,20000,3.704,,,150,,,,,,,,,,,wg-a,,,,AAXX 01214 07650 12670 71502 10100 20080 30262 40302 51006 60006 82532 92100=
07650,1997-03-02 00:00:00,8,1029.4,-0.8,93,7,12000,3.704,,,40,,,,,,,,,,,wg-a,,,,AAXX 02004 07650 12462 /0402 10080 20070 30254 40294 58008 60006 82502 90000=
07650,1997-03-02 03:00:00,8,1028.6,-0.8,87,6,8000,3.704,,,100,,,,,,,,,,,wg-a,,,,AAXX 02034 07650 12/58 31002 10080 20060 30246 40286 58008 60006 80001 90300=
07650,1997-03-02 06:00:00,7,1028.9,0.3,93,6,500,3.704,,,70,6.8,11.5,,,,,,,,,wg-a,,,,AAXX 02064 07650 12500 70702 10070 20060 30249 40289 53003 60006 82532 90600 333 10115 20068=
07650,1997-03-02 09:00:00,9,1030.3,1.4,93,8,4000,3.704,,,20,,,,,,,,,,10,wg-a,,,,AAXX 02094 07650 12/40 20202 10090 20080 30263 40303 51014 60006 71011 81502 90900=
07650,1997-03-02 12:00:00,14,1029.5,-0.7,67,8,10000,7.408,,,250,,,,,,,,,,,wg-a,,,,AAXX 02124 07650 12/60 /2504 10140 20080 30256 40295 58007 60006 80002 91200=
07650,1997-03-02 15:00:00,17,1029,-0.5,55,8,10000,11.112,,,240,,,,,,,,,,,wg-a,,,,AAXX 02154 07650 12/60 02406 10170 20080 30251 40290 56005 60006 80000 91500=
07650,1997-03-02 18:00:00,13,1029.7,0.7,77,9,10000,14.816,,,250,6.5,17,,,,,,,,,wg-a,,,,AAXX 02184 07650 12/60 02508 10130 20090 30258 40297 53007 60006 80000 91800 333 10170 20065=
07650,1997-03-02 21:00:00,9,1031.2,1.4,93,8,9000,3.704,,,160,,,,,,,,,,,wg-a,,,,AAXX 02214 07650 12/59 /1602 10090 20080 30272 40312 51014 60006 80001 92100=
07650,1997-03-03 00:00:00,7,1031.3,0.1,93,6,7000,7.408,,,120,,,,,,,,,,,wg-a,,,,AAXX 03004 07650 12/57 /1204 10070 20060 30273 40313 50001 60006 80001 90000=
07650,1997-03-03 03:00:00,6,1031.1,-0.2,93,5,500,0,,,0,,,,,,,,,,,wg-a,,,,AAXX 03034 07650 12/00 /0000 10060 20050 30271 40311 55002 60006 80001 90300=
07650,1997-03-03 06:00:00,6,1031.5,0.4,93,5,4500,3.704,,,120,5.6,12.6,,,,,,,,10,wg-a,,,,AAXX 03064 07650 02/45 /1202 10060 20050 30275 40315 51004 60006 71000 80001 90600 333 10126 20056 60004=
07650,1997-03-03 09:00:00,9,1032.5,1,100,9,100,3.704,,,250,,,,,,,,,,44,wg-a,,,,AAXX 03094 07650 12101 72502 10090 20090 30285 40325 51010 60006 74442 85602 90900=
07650,1997-03-03 12:00:00,17,1031.4,-1,52,7,8000,3.704,,,250,,,,,,,,,,1,wg-a,,,,AAXX 03124 07650 12/58 52502 10170 20070 30275 40314 58010 60006 70141 80001 91200=
07650,1997-03-03 15:00:00,21,1029.7,-1.6,49,10,12000,14.816,,,240,,,,,,,,,,,wg-a,,,,AAXX 03154 07650 12/62 32408 10210 20100 30259 40297 56016 60006 80002 91500=
07650,1997-03-03 18:00:00,17,1030.6,0.8,59,9,10000,3.704,,,110,5.7,21.5,,,,,,,,,wg-a,,,,AAXX 03184 07650 12/60 31102 10170 20090 30267 40306 53008 60006 80002 91800 333 10215 20057=
07650,1997-03-03 21:00:00,13,1031.5,0.9,77,9,15000,7.408,,,150,,,,,,,,,,,wg-a,,,,AAXX 03214 07650 12/65 41504 10130 20090 30276 40315 51009 60006 80002 92100=
07650,1997-03-04 00:00:00,11,1030.9,-0.6,82,8,12000,7.408,,,120,,,,,,,,,,,wg-a,,,,AAXX 04004 07650 12/62 11204 10110 20080 30270 40309 58006 60006 80002 90000=
07650,1997-03-04 03:00:00,8,1030.6,-0.4,87,6,8000,3.704,,,190,,,,,,,,,,,wg-a,,,,AAXX 04034 07650 12/58 01902 10080 20060 30266 40306 57004 60006 80000 90300=
07650,1997-03-04 06:00:00,7,1031.1,0.5,93,6,500,3.704,,,160,7,16.6,,,,,,,,,wg-a,,,,AAXX 04064 07650 12/00 /1602 10070 20060 30271 40311 53005 60006 81030 90600 333 10166 20070=
07650,1997-03-04 09:00:00,11,1032.2,1.2,87,9,3000,3.704,,,290,,,,,,,,,,10,wg-a,,,,AAXX 04094 07650 12/30 32902 10110 20090 30283 40322 53012 60006 71000 80002 90900=
07650,1997-03-04 12:00:00,15,1031,-1.2,77,11,4000,11.112,,,290,,,,,,,,,,10,wg-a,,,,AAXX 04124 07650 12/40 32906 10150 20110 30271 40310 58012 60006 71000 80002 91200=
07650,1997-03-04 15:00:00,17,1029.3,-1.6,63,10,6000,18.52,,,200,,,,,,,,,,,wg-a,,,,AAXX 04154 07650 12/56 /2010 10170 20100 30255 40293 56016 60006 80002 91500=
07650,1997-03-04 18:00:00,13,1029.7,0.3,82,10,6000,11.112,,,190,6.8,17.3,,,,,,,,,wg-a,,,,AAXX 04184 07650 12/56 31906 10130 20100 30258 40297 53003 60006 80002 91800 333 10173 20068=
07650,1997-03-04 21:00:00,10,1030.4,0.7,93,9,3500,3.704,,,30,,,,,,,,,,10,wg-a,,,,AAXX 04214 07650 12/35 30302 10100 20090 30265 40304 53007 60006 71000 80002 92100=
07650,1997-03-05 00:00:00,11,1030,-0.4,87,9,2500,3.704,,,70,,,,,,,,,,10,wg-a,,,,AAXX 05004 07650 12325 70702 10110 20090 30261 40300 58004 60006 71011 876// 90000=
07650,1997-03-05 03:00:00,10,1029.2,-0.8,93,9,1200,11.112,,,20,,,,,,,,,,10,wg-a,,,,AAXX 05034 07650 12112 70206 10100 20090 30253 40292 57008 60006 71022 876// 90300=
07650,1997-03-05 06:00:00,10,1029.4,0.2,93,9,1000,3.704,,,130,9.3,12.9,,,,,,,,10,wg-a,,,,AAXX 05064 07650 12110 71302 10100 20090 30255 40294 50002 60006 71022 836// 90600 333 10129 20093=
07650,1997-03-05 09:00:00,11,1029.8,0.4,94,10,1800,7.408,,,340,,,,,,,,,,10,wg-a,,,,AAXX 05094 07650 12218 83404 10110 20100 30259 40298 51004 60006 71042 876// 90900=
07650,1997-03-05 12:00:00,15,1028.4,-1.4,72,10,500,11.112,,,300,,,,,,,,,,,wg-a,,,,AAXX 05124 07650 12400 43006 10150 20100 30245 40284 58014 60006 81501 91200=
07650,1997-03-05 15:00:00,18,1026.3,-2,68,12,8000,11.112,,,240,,,,,,,,,,,wg-a,,,,AAXX 05154 07650 12/58 42406 10180 20120 30225 40263 56020 60006 80001 91500=
07650,1997-03-05 18:00:00,15,1025.9,-0.5,72,10,9000,11.112,,,250,10.4,17.9,,,,,,,,,wg-a,,,,AAXX 05184 07650 12/59 42506 10150 20100 30220 40259 56005 60006 81042 91800 333 10179 20104=
07650,1997-03-06 00:00:00,12,1026.6,0.2,58,4,0,22.224,,,330,,,,,,,,,,,wg-a,,,,AAXX 06004 07650 12/// /3312 10120 20040 30227 40266 51002 60006 90000=
07650,1997-03-06 06:00:00,10,1025.6,-0.2,62,3,15000,38.892,,,330,10.2,15.3,,,,,,,,,wg-a,,,,AAXX 06064 07650 12565 33321 10100 20030 30217 40256 58002 60006 82502 90600 333 10153 20102=
07650,1997-03-06 09:00:00,13,1025.6,-0,54,4,60000,50.004,,68.524,330,,,,,,,,,,,wg-a,,,,AAXX 06094 07650 12/86 43327 10130 20040 30217 40256 55000 60006 80002 90900 333 91037=
07650,1997-03-06 12:00:00,17,1024.3,-1.2,36,2,60000,46.3,,,330,,,,,,,,,,,wg-a,,,,AAXX 06124 07650 12/86 23325 10170 20020 30205 40243 56012 60006 81042 91200=
07650,1997-03-06 15:00:00,17,1022.5,-1.8,39,3,60000,46.3,,,310,,,,,,,,,,,wg-a,,,,AAXX 06154 07650 12/86 03125 10170 20030 30187 40225 57018 60006 80000 91500=
07650,1997-03-06 18:00:00,14,1024,1.4,51,4,40000,35.188,,50.004,330,10.3,17.8,,,,,,,,,wg-a,,,,AAXX 06184 07650 12/82 03319 10140 20040 30201 40240 53014 60006 80000 91800 333 10178 20103 91027=
07650,1997-03-07 00:00:00,8,1026.6,0.3,71,3,0,7.408,,,100,,,,,,,,,,,wg-a,,,,AAXX 07004 07650 12/// /1004 10080 20030 30226 40266 51003 60006 90000=
07650,1997-03-07 09:00:00,10,1028,,76,6,11000,3.704,,,290,,,,,,,,,,,wg-a,,,,AAXX 07094 07650 32/61 02902 10100 20060 30241 40280 80000 90900=
07650,1997-03-07 12:00:00,16,1027.5,-0.5,51,6,11000,7.408,,,270,,,,,,,,,,,wg-a,,,,AAXX 07124 07650 12/61 02704 10160 20060 30236 40275 58005 60006 80000 91200=
07650,1997-03-07 15:00:00,18,1026,-1.4,42,5,10000,11.112,,,250,,,,,,,,,,,wg-a,,,,AAXX 07154 07650 12/60 12506 10180 20050 30222 40260 56014 60006 81030 91500=
07650,1997-03-07 18:00:00,15,1026.9,0.8,48,4,13000,11.112,,,210,4.8,18.7,,,,,,,,,wg-a,,,,AAXX 07184 07650 12/63 12106 10150 20040 30230 40269 53008 60006 80001 91800 333 10187 20048=
07650,1997-03-07 21:00:00,12,1028.3,1.4,62,5,20000,11.112,,,110,,,,,,,,,,,wg-a,,,,AAXX 07214 07650 12/70 01106 10120 20050 30244 40283 52014 60006 80000 92100=
07650,1997-03-08 00:00:00,9,1028.7,0.3,76,5,20000,7.408,,,330,,,,,,,,,,,wg-a,,,,AAXX 08004 07650 12/70 03304 10090 20050 30247 40287 51003 60006 80000 90000=
07650,1997-03-08 03:00:00,6,1028.4,-0.3,81,3,15000,3.704,,,120,,,,,,,,,,,wg-a,,,,AAXX 08034 07650 12/65 01202 10060 20030 30244 40284 58003 60006 80000 90300=
07650,1997-03-08 06:00:00,6,1028.9,0.5,81,3,15000,0,,,0,5.6,14.7,,,,,,,,,wg-a,,,,AAXX 08064 07650 12/65 10000 10060 20030 30249 40289 51005 60006 80001 90600 333 10147 20056=
07650,1997-03-08 09:00:00,11,1029.6,0.8,66,5,8000,3.704,,,290,,,,,,,,,,,wg-a,,,,AAXX 08094 07650 12/58 02902 10110 20050 30257 40296 50008 60006 80000 90900=
07650,1997-03-08 12:00:00,17,1029.1,-0.4,48,6,10000,11.112,,,250,,,,,,,,,,,wg-a,,,,AAXX 08124 07650 12/60 02506 10170 20060 30253 40291 58004 60006 80000 91200=
07650,1997-03-08 15:00:00,19,1027.9,-1.2,43,6,10000,11.112,,,250,,,,,,,,,,,wg-a,,,,AAXX 08154 07650 12/60 02506 10190 20060 30241 40279 56012 60006 80000 91500=
07650,1997-03-08 18:00:00,15,1028.9,0.9,48,4,8000,11.112,,,140,5.2,19.7,,,,,,,,,wg-a,,,,AAXX 08184 07650 12/58 01406 10150 20040 30250 40289 53009 60006 80000 91800 333 10197 20052=
07650,1997-03-09 00:00:00,9,1030,0.4,71,4,7000,3.704,,,100,,,,,,,,,,,wg-a,,,,AAXX 09004 07650 12/57 /1002 10090 20040 30260 40300 51004 60006 80001 90000=
07650,1997-03-09 03:00:00,7,1029.7,-0.3,76,3,7000,3.704,,,170,,,,,,,,,,,wg-a,,,,AAXX 09034 07650 12/57 /1702 10070 20030 30257 40297 58003 60006 80001 90300=
07650,1997-03-09 06:00:00,5,1030.9,1.2,87,3,6000,3.704,,,130,5,14.7,,,,,,,,,wg-a,,,,AAXX 09064 07650 12/56 /1302 10050 20030 30269 40309 53012 60006 80000 90600 333 10147 20050=
07650,1997-03-09 09:00:00,12,1032.4,1.6,71,7,8000,3.704,,,260,,,,,,,,,,,wg-a,,,,AAXX 09094 07650 12/58 02602 10120 20070 30285 40324 51016 60006 80000 90900=
07650,1997-03-09 12:00:00,17,1031.9,-0.5,42,4,12000,7.408,,,280,,,,,,,,,,,wg-a,,,,AAXX 09124 07650 12/62 02804 10170 20040 30280 40319 58005 60006 80000 91200=
07650,1997-03-09 15:00:00,18,1031.2,-0.6,49,7,20000,14.816,,,230,,,,,,,,,,,wg-a,,,,AAXX 09154 07650 12/70 02308 10180 20070 30274 40312 55006 60006 80000 91500=
07650,1997-03-09 18:00:00,13,1032,0.7,77,9,15000,7.408,,,280,4.9,18.4,,,,,,,,,wg-a,,,,AAXX 09184 07650 12/65 12804 10130 20090 30281 40320 53007 60006 80001 91800 333 10184 20049=
07650,1997-03-10 00:00:00,8,1032.8,0.2,87,6,10000,3.704,,,150,,,,,,,,,,,wg-a,,,,AAXX 10004 07650 12/60 /1502 10080 20060 30288 40328 50002 60006 90000=
07650,1997-03-10 03:00:00,8,1032.3,-0.5,87,6,15000,11.112,,,140,,,,,,,,,,,wg-a,,,,AAXX 10034 07650 12/65 01406 10080 20060 30283 40323 58005 60006 80000 90300=
07650,1997-03-10 06:00:00,7,1033,0.7,87,5,7000,3.704,,,120,6.8,13.3,,,,,,,,,wg-a,,,,AAXX 10064 07650 02/57 01202 10070 20050 30290 40330 53007 60006 80000 90600 333 10133 20068 60004=
07650,1997-03-10 09:00:00,11,1033.3,0.4,76,7,7000,7.408,,,260,,,,,,,,,,,wg-a,,,,AAXX 10094 07650 12/57 02604 10110 20070 30294 40333 51004 60006 80000 90900=
07650,1997-03-10 12:00:00,18,1031.9,-1.4,39,4,11000,11.112,,,250,,,,,,,,,,,wg-a,,,,AAXX 10124 07650 12/61 02506 10180 20040 30280 40319 58014 60006 80000 91200=
07650,1997-03-10 15:00:00,20,1029.6,-2.2,35,4,15000,14.816,,,260,,,,,,,,,,,wg-a,,,,AAXX 10154 07650 12/65 02608 10200 20040 30258 40296 56022 60006 80000 91500=
07650,1997-03-10 18:00:00,15,1029.4,-0.3,48,4,12000,0,,,0,6.7,19.7,,,,,,,,,wg-a,,,,AAXX 10184 07650 12/62 00000 10150 20040 30255 40294 55003 60006 80000 91800 333 10197 20067=
07650,1997-03-11 00:00:00,9,1028.1,-1,57,1,15000,3.704,,,110,,,,,,,,,,,wg-a,,,,AAXX 11004 07650 12/65 01102 10090 20010 30241 40281 58010 60006 80000 90000=
07650,1997-03-11 03:00:00,8,1027,-1.1,66,2,15000,7.408,,,160,,,,,,,,,,,wg-a,,,,AAXX 11034 07650 12/65 01604 10080 20020 30230 40270 56011 60006 80000 90300=
07650,1997-03-11 06:00:00,8,1027.7,0.7,71,3,10000,0,,,0,6,14.6,,,,,,,,,wg-a,,,,AAXX 11064 07650 12/60 00000 10080 20030 30237 40277 53007 60006 80000 90600 333 10146 20060=
07650,1997-03-11 09:00:00,14,1028.4,0.8,58,6,10000,3.704,,,240,,,,,,,,,,,wg-a,,,,AAXX 11094 07650 12/60 02402 10140 20060 30245 40284 51008 60006 80000 90900=
07650,1997-03-11 12:00:00,20,1028.2,-0.1,32,3,10000,14.816,,,260,,,,,,,,,,,wg-a,,,,AAXX 11124 07650 12/60 02608 10200 20030 30244 40282 58001 60006 80000 91200=
07650,1997-03-11 15:00:00,19,1027.2,-1,40,5,11000,18.52,,,190,,,,,,,,,,,wg-a,,,,AAXX 11154 07650 12/61 01910 10190 20050 30234 40272 56010 60006 80000 91500=
07650,1997-03-11 18:00:00,15,1028.8,1.5,51,5,11000,7.408,,,180,8,19.9,,,,,,,,,wg-a,,,,AAXX 11184 07650 12/61 01804 10150 20050 30249 40288 53015 60006 80000 91800 333 10199 20080=
07650,1997-03-12 00:00:00,9,1033.6,2.2,76,5,11000,0,,,0,,,,,,,,,,,wg-a,,,,AAXX 12004 07650 12/61 00000 10090 20050 30296 40336 51022 60006 80000 90000=
07650,1997-03-12 03:00:00,8,1034.1,0.5,66,2,12000,7.408,,,110,,,,,,,,,,,wg-a,,,,AAXX 12034 07650 12/62 01104 10080 20020 30301 40341 50005 60006 80000 90300=
07650,1997-03-12 06:00:00,6,1034.9,0.8,70,1,12000,7.408,,,150,6,15.1,,,,,,,,,wg-a,,,,AAXX 12064 07650 12/62 01504 10060 20010 30309 40349 52008 60006 80000 90600 333 10151 20060=
07650,1997-03-12 09:00:00,12,1034.9,0.1,67,6,12000,3.704,,,290,,,,,,,,,,,wg-a,,,,AAXX 12094 07650 12/62 02902 10120 20060 30310 40349 50001 60006 80000 90900=
07650,1997-03-12 12:00:00,17,1033.4,-1.5,42,4,15000,14.816,,,260,,,,,,,,,,,wg-a,,,,AAXX 12124 07650 12/65 02608 10170 20040 30295 40334 58015 60006 80000 91200=
07650,1997-03-12 15:00:00,17,1030.7,-2.7,42,4,18000,11.112,,,260,,,,,,,,,,,wg-a,,,,AAXX 12154 07650 12/68 02606 10170 20040 30268 40307 56027 60006 80000 91500=
07650,1997-03-12 18:00:00,13,1029.7,-1,62,6,20000,14.816,,,230,5.6,17.7,,,,,,,,,wg-a,,,,AAXX 12184 07650 12/70 02308 10130 20060 30258 40297 55010 60006 80000 91800 333 10177 20056=
07650,1997-03-13 00:00:00,8,1027.7,-1.7,93,7,12000,3.704,,,130,,,,,,,,,,,wg-a,,,,AAXX 13004 07650 12/62 01302 10080 20070 30237 40277 58017 60006 80000 90000=
07650,1997-03-13 03:00:00,7,1026.3,-1.4,93,6,9000,3.704,,,110,,,,,,,,,,,wg-a,,,,AAXX 13034 07650 12/59 01102 10070 20060 30223 40263 57014 60006 80000 90300=
07650,1997-03-13 06:00:00,6,1025.7,-0.6,87,4,6000,11.112,,,120,5.5,13.2,,,,,,,,,wg-a,,,,AAXX 13064 07650 02/56 11206 10060 20040 30217 40257 56006 60006 80001 90600 333 10132 20055 60004=
07650,1997-03-13 09:00:00,11,1025.8,0.2,87,9,7000,3.704,,,290,,,,,,,,,,,wg-a,,,,AAXX 13094 07650 12/57 02902 10110 20090 30219 40258 50002 60006 80000 90900=
07650,1997-03-13 12:00:00,20,1023.8,-1.9,46,8,8000,7.408,,,180,,,,,,,,,,,wg-a,,,,AAXX 13124 07650 12/58 01804 10200 20080 30200 40238 58019 60006 80000 91200=
07650,1997-03-13 15:00:00,22,1021.1,-2.7,33,5,12000,14.816,,,290,,,,,,,,,,,wg-a,,,,AAXX 13154 07650 12/62 02908 10220 20050 30173 40211 56027 60006 80000 91500=
07650,1997-03-13 18:00:00,18,1020.7,-0.4,49,7,10000,22.224,,,310,5.4,22.3,,,,,,,,,wg-a,,,,AAXX 13184 07650 12/60 13112 10180 20070 30169 40207 55004 60006 80001 91800 333 10223 20054=
07650,1997-03-13 21:00:00,15,1020.9,0.2,44,3,10000,14.816,,,340,,,,,,,,,,,wg-a,,,,AAXX 13214 07650 12/60 13408 10150 20030 30171 40209 52002 60006 80001 92100=
07650,1997-03-14 00:00:00,11,1020.8,-0.2,62,4,12000,14.816,,,10,,,,,,,,,,,wg-a,,,,AAXX 14004 07650 12/62 10108 10110 20040 30169 40208 55002 60006 80001 90000=
07650,1997-03-14 06:00:00,7,1021.3,0.4,93,6,7000,11.112,,,130,7.1,18,,,,,,,,,wg-a,,,,AAXX 14064 07650 12/57 01306 10070 20060 30173 40213 53004 60006 80000 90600 333 10180 20071=
07650,1997-03-14 09:00:00,12,1021.6,0.4,71,7,6000,3.704,,,30,,,,,,,,,,,wg-a,,,,AAXX 14094 07650 12/56 00302 10120 20070 30177 40216 50004 60006 80000 90900=
07650,1997-03-14 12:00:00,18,1020.2,-1.3,52,8,8000,14.816,,,250,,,,,,,,,,,wg-a,,,,AAXX 14124 07650 12/58 02508 10180 20080 30164 40202 58013 60006 80000 91200=
07650,1997-03-14 15:00:00,20,1017.7,-2.5,30,2,10000,29.632,,50.004,310,,,,,,,,,,,wg-a,,,,AAXX 14154 07650 12/60 33116 10200 20020 30139 40177 56025 60006 80001 91500 333 91027=
07650,1997-03-14 18:00:00,18,1017.8,0.1,37,3,500,35.188,,,320,7,20.4,,,,,,,,,wg-a,,,,AAXX 14184 07650 12/00 23219 10180 20030 30140 40178 53001 60006 81042 91800 333 10204 20070=
07650,1997-03-14 21:00:00,14,1019.4,1.5,51,4,500,53.708,,75.932,320,,,,,,,,,,,wg-a,,,,AAXX 14214 07650 12/00 23229 10140 20040 30155 40194 51015 60006 80002 92100 333 91041=
07650,1997-03-15 00:00:00,12,1018.8,-0.6,58,4,500,57.412,,,310,,,,,,,,,,,wg-a,,,,AAXX 15004 07650 12/00 03131 10120 20040 30149 40188 58006 60006 80000 90000=
07650,1997-03-15 03:00:00,12,1018.3,-0.5,58,4,500,38.892,,,340,,,,,,,,,,,wg-a,,,,AAXX 15034 07650 12/00 03421 10120 20040 30144 40183 55005 60006 80000 90300=
07650,1997-03-15 06:00:00,10,1020.6,2.3,71,5,500,29.632,,,330,10.3,17.8,,,,,,,,,wg-a,,,,AAXX 15064 07650 12/00 13316 10100 20050 30167 40206 51023 60006 80001 90600 333 10178 20103=
07650,1997-03-15 09:00:00,14,1021.8,1.2,55,5,20000,29.632,,,340,,,,,,,,,,,wg-a,,,,AAXX 15094 07650 12/70 03416 10140 20050 30179 40218 51012 60006 80000 90900=
07650,1997-03-15 12:00:00,18,1021.4,-0.3,49,7,20000,25.928,,,330,,,,,,,,,,,wg-a,,,,AAXX 15124 07650 12/70 13314 10180 20070 30176 40214 58003 60006 80001 91200=
07650,1997-03-15 15:00:00,19,1020.3,-1.1,40,5,20000,31.484,,,330,,,,,,,,,,,wg-a,,,,AAXX 15154 07650 12/70 13317 10190 20050 30165 40203 56011 60006 80001 91500=
07650,1997-03-15 18:00:00,16,1020.2,-0.1,42,3,20000,46.3,,,340,10.1,19.1,,,,,,,,,wg-a,,,,AAXX 15184 07650 12/70 13425 10160 20030 30164 40202 55001 60006 80001 91800 333 10191 20101=
07650,1997-03-15 21:00:00,13,1021.6,1.3,54,4,20000,25.928,,,350,,,,,,,,,,,wg-a,,,,AAXX 15214 07650 12/70 03514 10130 20040 30177 40216 53013 60006 80000 92100=
07650,1997-03-16 00:00:00,10,1022.7,1.1,62,3,20000,3.704,,,110,,,,,,,,,,,wg-a,,,,AAXX 16004 07650 12/70 01102 10100 20030 30188 40227 51011 60006 80000 90000=
07650,1997-03-16 03:00:00,8,1022.9,0.1,71,3,15000,7.408,,,120,,,,,,,,,,,wg-a,,,,AAXX 16034 07650 12/65 01204 10080 20030 30189 40229 50001 60006 80000 90300=
07650,1997-03-16 06:00:00,5,1023.2,0.3,81,2,15000,7.408,,,120,5.4,15.6,,,,,,,,,wg-a,,,,AAXX 16064 07650 12/65 11204 10050 20020 30192 40232 51003 60006 80001 90600 333 10156 20054=
07650,1997-03-16 12:00:00,20,1022.4,-1.2,43,7,20000,14.816,,,340,,,,,,,,,,,wg-a,,,,AAXX 16124 07650 12/70 03408 10200 20070 30186 40224 58012 60006 80000 91200=
07650,1997-03-16 18:00:00,17,1021.2,0.6,52,7,20000,22.224,,,310,5.4,21.5,,,,,,,,,wg-a,,,,AAXX 16184 07650 12/70 03112 10170 20070 30174 40212 53006 60006 80000 91800 333 10215 20054=
07650,1997-03-16 21:00:00,13,1021.5,0.2,62,6,20000,14.816,,,310,,,,,,,,,,,wg-a,,,,AAXX 16214 07650 12/70 03108 10130 20060 30176 40215 53002 60006 80000 92100=
07650,1997-03-17 00:00:00,10,1021.3,-0.2,71,5,20000,0,,,0,,,,,,,,,,,wg-a,,,,AAXX 17004 07650 12/70 00000 10100 20050 30174 40213 58002 60006 80000 90000=
07650,1997-03-17 03:00:00,8,1020.4,-0.9,76,4,20000,7.408,,,140,,,,,,,,,,,wg-a,,,,AAXX 17034 07650 12/70 01404 10080 20040 30165 40204 58009 60006 80000 90300=
07650,1997-03-17 06:00:00,7,1020.2,-0.3,81,4,20000,3.704,,,130,6.5,17.2,,,,,,,,,wg-a,,,,AAXX 17064 07650 12/70 21302 10070 20040 30162 40202 55003 60006 80001 90600 333 10172 20065=
07650,1997-03-17 09:00:00,16,1019.9,-0.1,51,6,20000,3.704,,,240,,,,,,,,,,,wg-a,,,,AAXX 17094 07650 12/70 22402 10160 20060 30161 40199 58001 60006 80002 90900=
07650,1997-03-17 12:00:00,22,1018.3,-1.5,35,6,25000,18.52,,,330,,,,,,,,,,,wg-a,,,,AAXX 17124 07650 12/75 13310 10220 20060 30146 40183 58015 60006 80002 91200=
07650,1997-03-17 15:00:00,22,1016.5,-1.8,38,7,500,38.892,,,340,,,,,,,,,,,wg-a,,,,AAXX 17154 07650 12/00 13421 10220 20070 30128 40165 56018 60006 80001 91500=
07650,1997-03-17 18:00:00,19,1017.7,1.1,43,6,500,18.52,,,310,6.5,23.1,,,,,,,,,wg-a,,,,AAXX 17184 07650 12/00 23110 10190 20060 30139 40177 53011 60006 80001 91800 333 10231 20065=
07650,1997-03-17 21:00:00,13,1018.2,0.4,67,7,500,3.704,,,290,,,,,,,,,,,wg-a,,,,AAXX 17214 07650 12/00 12902 10130 20070 30143 40182 51004 60006 80001 92100=
07650,1997-03-18 00:00:00,11,1019.1,0.9,76,7,25000,3.704,,,30,,,,,,,,,,,wg-a,,,,AAXX 18004 07650 12/75 00302 10110 20070 30152 40191 51009 60006 80000 90000=
07650,1997-03-18 03:00:00,9,1018.3,-0.8,87,7,20000,3.704,,,110,,,,,,,,,,,wg-a,,,,AAXX 18034 07650 12/70 01102 10090 20070 30144 40183 58008 60006 80000 90300=
07650,1997-03-18 06:00:00,8,1018.5,0.2,87,6,11000,3.704,,,140,7.5,18.6,,,,,,,,,wg-a,,,,AAXX 18064 07650 12/61 11402 10080 20060 30146 40185 53002 60006 80001 90600 333 10186 20075=
07650,1997-03-18 09:00:00,16,1018.6,0.2,55,7,12000,3.704,,,150,,,,,,,,,,,wg-a,,,,AAXX 18094 07650 12/62 01502 10160 20070 30148 40186 50002 60006 80000 90900=
07650,1997-03-18 12:00:00,20,1017.6,-1,46,8,12000,7.408,,,260,,,,,,,,,,,wg-a,,,,AAXX 18124 07650 12/62 02604 10200 20080 30138 40176 58010 60006 80000 91200=
07650,1997-03-18 15:00:00,22,1014.9,-2.6,46,10,12000,11.112,,,190,,,,,,,,,,,wg-a,,,,AAXX 18154 07650 12/62 01906 10220 20100 30112 40149 56026 60006 80000 91500=
07650,1997-03-18 18:00:00,17,1013.3,-1.7,52,7,12000,11.112,,,160,7.5,21.6,,,,,,,,,wg-a,,,,AAXX 18184 07650 12/62 01606 10170 20070 30095 40133 56017 60006 80000 91800 333 10216 20075=
07650,1997-03-18 21:00:00,15,1013.4,0.1,59,7,15000,3.704,,,240,,,,,,,,,,,wg-a,,,,AAXX 18214 07650 12/65 12402 10150 20070 30096 40134 53001 60006 81040 92100=
07650,1997-03-19 00:00:00,14,1012.3,-1.1,58,6,15000,38.892,,,280,,,,,,,,,,,wg-a,,,,AAXX 19004 07650 12/65 02821 10140 20060 30085 40123 58011 60006 80000 90000=
07650,1997-03-19 03:00:00,14,1011.2,-1.1,63,7,20000,42.596,,,280,,,,,,,,,,,wg-a,,,,AAXX 19034 07650 12/70 02823 10140 20070 30074 40112 58011 60006 80000 90300=
07650,1997-03-19 06:00:00,13,1011.8,0.6,51,3,20000,46.3,,,280,11.8,17.4,,,,,,,,,wg-a,,,,AAXX 19064 07650 12670 32825 10130 20030 30080 40118 52006 60006 81140 90600 333 10174 20118=
07650,1997-03-19 12:00:00,15,1010.3,-2,36,0,50000,42.596,,,310,,,,,,,,,,,wg-a,,,,AAXX 19124 07650 12684 33123 10150 20000 30065 40103 58020 60006 83102 91200=
07650,1997-03-19 15:00:00,16,1008.3,-2,36,1,40000,50.004,,,340,,,,,,,,,,,wg-a,,,,AAXX 19154 07650 12682 23427 10160 20010 30045 40083 56020 60006 82100 91500=
07650,1997-03-19 18:00:00,13,1010.1,1.8,41,0,500,42.596,,72.228,340,12.5,17,,,,,,,,,wg-a,,,,AAXX 19184 07650 12600 23423 10130 20000 30063 40101 53018 60006 82400 91800 333 10170 20125 91039=
07650,1997-03-19 21:00:00,11,1012.5,2.3,54,2,20000,25.928,,,310,,,,,,,,,,,wg-a,,,,AAXX 19214 07650 12670 23114 10110 20020 30086 40125 51023 60006 82500 92100=
07650,1997-03-20 00:00:00,11,1013.6,1.1,54,2,20000,29.632,,,310,,,,,,,,,,,wg-a,,,,AAXX 20004 07650 12670 43116 10110 20020 30097 40136 51011 60006 84500 90000=
07650,1997-03-20 03:00:00,10,1012.5,-1.1,57,2,20000,46.3,,,300,,,,,,,,,,,wg-a,,,,AAXX 20034 07650 12/70 03025 10100 20020 30086 40125 58011 60006 80000 90300=
07650,1997-03-20 06:00:00,9,1012.9,0.4,57,1,500,46.3,,68.524,320,8.9,13.3,,,,,,,,,wg-a,,,,AAXX 20064 07650 12500 /3225 10090 20010 30090 40129 51004 60006 81100 90600 333 10133 20089 91037=
07650,1997-03-20 09:00:00,12,1013.4,0.5,44,0,500,53.708,,64.82,330,,,,,,,,,,,wg-a,,,,AAXX 20094 07650 12/00 03329 10120 20000 30095 40134 51005 60006 80000 90900 333 91035=
07650,1997-03-20 12:00:00,15,1012.9,-0.4,39,1,500,50.004,,,330,,,,,,,,,,,wg-a,,,,AAXX 20124 07650 12/00 03327 10150 20010 30091 40129 58004 60006 80000 91200=
07650,1997-03-20 15:00:00,15,1011.7,-1.2,36,0,500,50.004,,68.524,330,,,,,,,,,,,wg-a,,,,AAXX 20154 07650 12/00 03327 10150 20000 30079 40117 55012 60006 80000 91500 333 91037=
07650,1997-03-20 18:00:00,11,1011.3,-0.5,50,1,50000,68.524,,96.304,330,8.8,15.5,,,,,,,,,wg-a,,,,AAXX 20184 07650 12/84 03337 10110 20010 30074 40113 55005 60006 80000 91800 333 10155 20088 91052=
07650,1997-03-20 21:00:00,10,1012.8,1.5,50,0,50000,35.188,,,330,,,,,,,,,,,wg-a,,,,AAXX 20214 07650 12/84 03319 10100 20000 30089 40128 50015 60006 80000 92100=
07650,1997-03-21 00:00:00,8,1012.7,-0.1,57,0,50000,31.484,,,310,,,,,,,,,,,wg-a,,,,AAXX 21004 07650 12/84 03117 10080 20000 30088 40127 58001 60006 80000 90000=
07650,1997-03-21 03:00:00,7,1013.2,0.5,57,-1,40000,29.632,,,330,,,,,,,,,,,wg-a,,,,AAXX 21034 07650 12/82 03316 10070 21010 30093 40132 53005 60006 80000 90300=
07650,1997-03-21 06:00:00,5,1014.9,1.6,60,-2,40000,22.224,,,360,5,11.4,,,,,,,,,wg-a,,,,AAXX 21064 07650 12/82 13612 10050 21020 30109 40149 53016 60006 80001 90600 333 10114 20050=
07650,1997-03-21 09:00:00,12,1016.2,1.4,44,0,500,11.112,,,320,,,,,,,,,,,wg-a,,,,AAXX 21094 07650 12/00 03206 10120 20000 30123 40162 51014 60006 80000 90900=
07650,1997-03-21 12:00:00,16,1016.4,0.3,34,0,20000,22.224,,,270,,,,,,,,,,,wg-a,,,,AAXX 21124 07650 12/70 22712 10160 20000 30126 40164 50003 60006 80001 91200=
07650,1997-03-21 15:00:00,18,1015.3,-1.1,28,-1,25000,14.816,,,260,,,,,,,,,,,wg-a,,,,AAXX 21154 07650 12/75 42608 10180 21010 30115 40153 57011 60006 80002 91500=
07650,1997-03-21 18:00:00,15,1015.4,0.1,41,2,25000,14.816,,,300,4.8,18.3,,,,,,,,,wg-a,,,,AAXX 21184 07650 12/75 63008 10150 20020 30116 40154 53001 60006 81032 91800 333 10183 20048=
07650,1997-03-21 21:00:00,13,1016,0.5,44,1,25000,18.52,,,330,,,,,,,,,,,wg-a,,,,AAXX 21214 07650 12/75 53310 10130 20010 30121 40160 51005 60006 80001 92100=
07650,1997-03-22 00:00:00,11,1015.9,-0.1,50,1,25000,22.224,,,350,,,,,,,,,,,wg-a,,,,AAXX 22004 07650 12/75 53512 10110 20010 30120 40159 56001 60006 82032 90000=
07650,1997-03-22 06:00:00,6,1016.8,0.9,70,1,15000,7.408,,,140,5.2,14.8,,,,,,,,,wg-a,,,,AAXX 22064 07650 12/65 31404 10060 20010 30128 40168 53009 60006 81032 90600 333 10148 20052=
07650,1997-03-22 09:00:00,11,1018.6,1.9,54,2,20000,3.704,,,320,,,,,,,,,,,wg-a,,,,AAXX 22094 07650 12/70 53202 10110 20020 30147 40186 52019 60006 80002 90900=
07650,1997-03-22 12:00:00,17,1018.7,0.2,39,3,20000,14.816,,,260,,,,,,,,,,,wg-a,,,,AAXX 22124 07650 12570 /2608 10170 20030 30149 40187 51002 60006 81102 91200=
07650,1997-03-22 15:00:00,17,1018.1,-0.6,45,5,20000,14.816,,,250,,,,,,,,,,,wg-a,,,,AAXX 22154 07650 12570 32508 10170 20050 30143 40181 56006 60006 81202 91500=
07650,1997-03-22 18:00:00,14,1018.6,0.4,72,9,15000,7.408,,,180,5.6,17.5,,,,,,,,,wg-a,,,,AAXX 22184 07650 12/65 11804 10140 20090 30147 40186 53004 60006 80002 91800 333 10175 20056=
07650,1997-03-22 21:00:00,11,1019.3,0.7,82,8,15000,11.112,,,130,,,,,,,,,,,wg-a,,,,AAXX 22214 07650 12/65 01306 10110 20080 30154 40193 51007 60006 80000 92100=
07650,1997-03-23 00:00:00,9,1018.7,-0.6,87,7,15000,7.408,,,160,,,,,,,,,,,wg-a,,,,AAXX 23004 07650 12/65 01604 10090 20070 30148 40187 56006 60006 80000 90000=
07650,1997-03-23 03:00:00,8,1018.1,-0.6,87,6,8000,7.408,,,120,,,,,,,,,,,wg-a,,,,AAXX 23034 07650 12458 31204 10080 20060 30142 40181 58006 60006 82502 90300=
07650,1997-03-23 06:00:00,6,1018.7,0.5,87,4,6000,7.408,,,140,5.3,13.6,,,,,,,,,wg-a,,,,AAXX 23064 07650 02/56 31404 10060 20040 30147 40187 53005 60006 90600 333 10136 20053 60004=
07650,1997-03-23 09:00:00,14,1018.8,0.2,58,6,6000,7.408,,,110,,,,,,,,,,,wg-a,,,,AAXX 23094 07650 12/56 01104 10140 20060 30149 40188 50002 60006 80000 90900=
07650,1997-03-23 12:00:00,16,1017.4,-1.3,48,5,11000,18.52,,,210,,,,,,,,,,,wg-a,,,,AAXX 23124 07650 12/61 52110 10160 20050 30136 40174 58013 60006 80002 91200=
07650,1997-03-23 15:00:00,16,1015.8,-1.6,42,3,12000,18.52,,,240,,,,,,,,,,,wg-a,,,,AAXX 23154 07650 12/62 72410 10160 20030 30120 40158 58016 60006 80002 91500=
07650,1997-03-23 18:00:00,13,1015.3,-0.6,58,5,15000,7.408,,,170,5.5,16.7,,,,,,,,,wg-a,,,,AAXX 23184 07650 12/65 71704 10130 20050 30114 40153 56006 60006 84042 91800 333 10167 20055=
07650,1997-03-23 21:00:00,11,1014.4,-0.9,76,7,18000,11.112,,,100,,,,,,,,,,,wg-a,,,,AAXX 23214 07650 12/68 51006 10110 20070 30105 40144 58009 60006 83032 92100=
07650,1997-03-24 00:00:00,12,1011.6,-2.8,82,9,15000,11.112,,,130,,,,,,,,,,,wg-a,,,,AAXX 24004 07650 12665 /1306 10120 20090 30077 40116 58028 60006 83572 90000=
07650,1997-03-24 03:00:00,12,1009.1,-2.4,76,8,15000,25.928,,,300,,,,,,,,,,,wg-a,,,,AAXX 24034 07650 12665 73014 10120 20080 30053 40091 56024 60006 8257/ 90300=
07650,1997-03-24 06:00:00,9,1009.1,-0.1,81,6,10000,22.224,,,310,9.1,12.7,,,,,,,,,wg-a,,,,AAXX 24064 07650 12/60 13112 10090 20060 30052 40091 55001 60006 81031 90600 333 10127 20091=
07650,1997-03-24 09:00:00,14,1009.1,0.1,51,4,25000,38.892,,50.004,320,,,,,,,,,,,wg-a,,,,AAXX 24094 07650 12/75 23221 10140 20040 30053 40091 50001 60006 81032 90900 333 91027=
07650,1997-03-24 12:00:00,16,1007.7,-1.4,45,4,500,53.708,,64.82,320,,,,,,,,,,,wg-a,,,,AAXX 24124 07650 12600 /3229 10160 20040 30039 40077 57014 60006 81201 91200 333 91035=
07650,1997-03-24 15:00:00,16,1006.3,-1.4,36,1,40000,42.596,,53.708,330,,,,,,,,,,,wg-a,,,,AAXX 24154 07650 12/82 13323 10160 20010 30025 40063 58014 60006 81041 91500 333 91029=
07650,1997-03-24 18:00:00,13,1006.8,0.5,44,1,25000,38.892,,,340,,17,,,,,,,,,wg-a,,,,AAXX 24184 07650 12/75 43421 10130 20010 30030 40068 53005 60006 83045 91800 333 10170=
07650,1997-03-24 21:00:00,11,1008.7,1.8,50,1,25000,22.224,,,350,,,,,,,,,,,wg-a,,,,AAXX 24214 07650 12/75 33512 10110 20010 30048 40087 53018 60006 82032 92100=
07650,1997-03-25 00:00:00,8,1009.7,1,61,1,20000,7.408,,,100,,,,,,,,,,,wg-a,,,,AAXX 25004 07650 12/70 21004 10080 20010 30058 40097 51010 60006 80002 90000=
07650,1997-03-25 03:00:00,7,1010.6,0.9,66,1,20000,7.408,,,120,,,,,,,,,,,wg-a,,,,AAXX 25034 07650 12/70 31204 10070 20010 30067 40106 53009 60006 80001 90300=
07650,1997-03-25 06:00:00,6,1012.2,1.6,87,4,12000,11.112,,,140,5.6,13.3,,,,,,,,,wg-a,,,,AAXX 25064 07650 12562 31406 10060 20040 30083 40122 53016 60006 81531 90600 333 10133 20056=
07650,1997-03-25 09:00:00,12,1012.9,0.7,62,5,8000,7.408,,,260,,,,,,,,,,,wg-a,,,,AAXX 25094 07650 12/58 02604 10120 20050 30090 40129 51007 60006 80000 90900=
07650,1997-03-25 12:00:00,17,1011.9,-0.9,45,5,15000,14.816,,,270,,,,,,,,,,,wg-a,,,,AAXX 25124 07650 12665 22708 10170 20050 30081 40119 58009 60006 82100 91200=
07650,1997-03-25 15:00:00,18,1010.5,-1.4,37,3,15000,35.188,,,320,,,,,,,,,,,wg-a,,,,AAXX 25154 07650 12/65 03219 10180 20030 30067 40105 56014 60006 80000 91500=
07650,1997-03-25 18:00:00,15,1011.7,1.2,44,3,25000,42.596,,64.82,330,6.2,19.3,,,,,,,,,wg-a,,,,AAXX 25184 07650 12675 23323 10150 20030 30079 40117 53012 60006 82500 91800 333 10193 20062 91035=
07650,1997-03-25 21:00:00,12,1014.7,2.9,58,4,500,25.928,,,10,,,,,,,,,,,wg-a,,,,AAXX 25214 07650 12700 30114 10120 20040 30108 40147 53029 60006 83500 92100=
07650,1997-03-26 00:00:00,10,1016.9,2.2,71,5,500,14.816,,,350,,,,,,,,,,,wg-a,,,,AAXX 26004 07650 12600 /3508 10100 20050 30130 40169 51022 60006 85500 90000=
07650,1997-03-26 06:00:00,6,1018.7,1.1,87,4,20000,11.112,,,140,5.6,14.6,,,,,,,,,wg-a,,,,AAXX 26064 07650 12/70 01406 10060 20040 30147 40187 53011 60006 80000 90600 333 10146 20056=
07650,1997-03-26 09:00:00,12,1020.4,1.8,62,5,12000,7.408,,,330,,,,,,,,,,,wg-a,,,,AAXX 26094 07650 12/62 03304 10120 20050 30165 40204 51018 60006 80000 90900=
07650,1997-03-26 12:00:00,17,1020.1,-0.2,42,4,20000,14.816,,,250,,,,,,,,,,,wg-a,,,,AAXX 26124 07650 12/70 02508 10170 20040 30163 40201 56002 60006 80000 91200=
07650,1997-03-26 18:00:00,17,1020.6,0.6,52,7,20000,11.112,,,230,6.1,19.5,,,,,,,,,wg-a,,,,AAXX 26184 07650 12/70 /2306 10170 20070 30168 40206 53006 60006 91800 333 10195 20061=
07650,1997-03-26 21:00:00,12,1022.4,1.7,67,6,20000,3.704,,,130,,,,,,,,,,,wg-a,,,,AAXX 26214 07650 12/70 01302 10120 20060 30185 40224 51017 60006 80000 92100=
07650,1997-03-27 00:00:00,9,1022.9,0.5,76,5,18000,3.704,,,160,,,,,,,,,,,wg-a,,,,AAXX 27004 07650 12/68 21602 10090 20050 30190 40229 53005 60006 80002 90000=
07650,1997-03-27 03:00:00,7,1022.3,-0.7,81,4,18000,11.112,,,140,,,,,,,,,,,wg-a,,,,AAXX 27034 07650 12/68 21406 10070 20040 30183 40223 58007 60006 80002 90300=
07650,1997-03-27 06:00:00,6,1022.6,0.3,81,3,12000,3.704,,,140,6.2,16.8,,,,,,,,,wg-a,,,,AAXX 27064 07650 12/62 31402 10060 20030 30186 40226 53003 60006 80002 90600 333 10168 20062=
07650,1997-03-27 09:00:00,13,1023,0.5,54,4,12000,14.816,,,320,,,,,,,,,,,wg-a,,,,AAXX 27094 07650 12/62 13208 10130 20040 30191 40230 51005 60006 80002 90900=
07650,1997-03-27 12:00:00,20,1021.7,-1.2,40,6,12000,7.408,,,200,,,,,,,,,,,wg-a,,,,AAXX 27124 07650 12/62 02004 10200 20060 30179 40217 58012 60006 80000 91200=
07650,1997-03-27 15:00:00,21,1020.2,-1.5,30,3,25000,29.632,,,240,,,,,,,,,,,wg-a,,,,AAXX 27154 07650 12/75 02416 10210 20030 30164 40202 56015 60006 80000 91500=
07650,1997-03-27 18:00:00,16,1020.8,0.6,59,8,500,0,,,0,6.3,22.2,,,,,,,,,wg-a,,,,AAXX 27184 07650 12/00 00000 10160 20080 30170 40208 53006 60006 80000 91800 333 10222 20063=
07650,1997-03-27 21:00:00,13,1021,0.1,72,8,20000,11.112,,,130,,,,,,,,,,,wg-a,,,,AAXX 27214 07650 12/70 01306 10130 20080 30171 40210 50001 60006 80000 92100=
07650,1997-03-28 00:00:00,11,1019.6,-1.4,82,8,15000,7.408,,,130,,,,,,,,,,,wg-a,,,,AAXX 28004 07650 12/65 01304 10110 20080 30157 40196 56014 60006 80000 90000=
07650,1997-03-28 03:00:00,9,1017.4,-2.2,87,7,15000,7.408,,,120,,,,,,,,,,,wg-a,,,,AAXX 28034 07650 12/65 01204 10090 20070 30135 40174 57022 60006 80000 90300=
07650,1997-03-28 06:00:00,9,1016.4,-1,93,8,7000,3.704,,,120,8.6,16.3,,,,,,,,,wg-a,,,,AAXX 28064 07650 12/57 /1202 10090 20080 30125 40164 58010 60006 80001 90600 333 10163 20086=
07650,1997-03-28 09:00:00,19,1015.2,-1.1,52,9,500,22.224,,,290,,,,,,,,,,,wg-a,,,,AAXX 28094 07650 12/00 02912 10190 20090 30114 40152 58011 60006 80000 90900=
07650,1997-03-28 12:00:00,22,1013.2,-1.9,43,9,500,35.188,,53.708,310,,,,,,,,,,,wg-a,,,,AAXX 28124 07650 12500 /3119 10220 20090 30095 40132 56019 60006 81100 91200 333 91029=
07650,1997-03-28 15:00:00,22,1010.4,-2.8,41,8,500,50.004,,57.412,320,,,,,,,,,,,wg-a,,,,AAXX 28154 07650 12500 33227 10220 20080 30067 40104 58028 60006 83800 91500 333 91031=
07650,1997-03-28 18:00:00,16,1011.3,0.8,39,2,60000,68.524,,87.044,340,9.2,23.2,,,,,,,,,wg-a,,,,AAXX 28184 07650 12786 13437 10160 20020 30075 40113 53008 60006 814/0 91800 333 10232 20092 91047=
07650,1997-03-28 21:00:00,13,1013.1,1.8,38,-1,50000,57.412,,83.34,320,,,,,,,,,,,wg-a,,,,AAXX 28214 07650 12/84 03231 10130 21010 30093 40131 51018 60006 80000 92100 333 91045=
07650,1997-03-29 00:00:00,11,1013.6,0.4,37,-3,50000,46.3,,,310,,,,,,,,,,,wg-a,,,,AAXX 29004 07650 12/84 03125 10110 21030 30097 40136 50004 60006 80000 90000=
07650,1997-03-29 03:00:00,10,1014.2,0.6,37,-4,50000,42.596,,64.82,310,,,,,,,,,,,wg-a,,,,AAXX 29034 07650 12/84 03123 10100 21040 30103 40142 50006 60006 80000 90300 333 91035=
07650,1997-03-29 06:00:00,9,1014.8,0.6,43,-3,50000,35.188,,,310,8.1,16.3,,,,,,,,,wg-a,,,,AAXX 29064 07650 12/84 03119 10090 21030 30109 40148 52006 60006 80000 90600 333 10163 20081=
07650,1997-03-29 09:00:00,12,1014.8,-0,35,-3,50000,46.3,,61.116,340,,,,,,,,,,,wg-a,,,,AAXX 29094 07650 12/84 13425 10120 21030 30109 40148 55000 60006 80001 90900 333 91033=
07650,1997-03-29 12:00:00,15,1014.9,0.2,31,-2,50000,50.004,,,340,,,,,,,,,,,wg-a,,,,AAXX 29124 07650 12684 13427 10150 21020 30111 40149 52002 60006 81100 91200=
07650,1997-03-29 15:00:00,15,1013.6,-1.3,25,-5,50000,53.708,,68.524,330,,,,,,,,,,,wg-a,,,,AAXX 29154 07650 12/84 /3329 10150 21050 30098 40136 56013 60006 80000 91500 333 91037=
07650,1997-03-29 18:00:00,13,1013.7,0.1,33,-3,50000,57.412,,79.636,330,8.6,16.3,,,,,,,,,wg-a,,,,AAXX 29184 07650 12/84 03331 10130 21030 30098 40137 52001 60006 80000 91800 333 10163 20086 91043=
07650,1997-03-29 21:00:00,11,1015.3,1.6,37,-3,20000,35.188,,68.524,330,,,,,,,,,,,wg-a,,,,AAXX 29214 07650 12/70 03319 10110 21030 30114 40153 51016 60006 80000 92100 333 91037=
07650,1997-03-30 00:00:00,8,1016.8,1.5,42,-4,25000,29.632,,,350,,,,,,,,,,,wg-a,,,,AAXX 30004 07650 12/75 03516 10080 21040 30129 40168 53015 60006 80000 90000=
07650,1997-03-30 03:00:00,6,1017.1,0.2,49,-4,25000,14.816,,,350,,,,,,,,,,,wg-a,,,,AAXX 30034 07650 12/75 03508 10060 21040 30131 40171 53002 60006 80000 90300=
07650,1997-03-30 06:00:00,4,1018.2,1.1,56,-4,50000,14.816,,,10,3,12.7,,,,,,,,,wg-a,,,,AAXX 30064 07650 12/84 00108 10040 21040 30142 40182 53011 60006 80000 90600 333 10127 20030=
07650,1997-03-30 12:00:00,16,1016.7,,36,1,50000,18.52,,,290,,,,,,,,,,,wg-a,,,,AAXX 30124 07650 12/84 02910 10160 20010 30129 40167 60006 80000 91200=
07650,1997-03-30 15:00:00,18,1015.3,-1.4,28,-1,50000,18.52,,,300,,,,,,,,,,,wg-a,,,,AAXX 30154 07650 12/84 03010 10180 21010 30115 40153 56014 60006 80000 91500=
07650,1997-03-30 18:00:00,15,1015.9,0.6,44,3,50000,29.632,,,330,4.4,18.1,,,,,,,,,wg-a,,,,AAXX 30184 07650 12/84 13316 10150 20030 30121 40159 53006 60006 80001 91800 333 10181 20044=
07650,1997-03-30 21:00:00,11,1017.3,1.3,47,0,50000,3.704,,,330,,,,,,,,,,,wg-a,,,,AAXX 30214 07650 12/84 03302 10110 20000 30134 40173 51013 60006 80000 92100=
07650,1997-03-31 00:00:00,8,1018.8,1.5,57,0,50000,11.112,,,130,,,,,,,,,,,wg-a,,,,AAXX 31004 07650 12/84 01306 10080 20000 30149 40188 51015 60006 80000 90000=
07650,1997-03-31 06:00:00,5,1020.6,1.4,70,0,500,7.408,,,140,4.4,15.1,,,,,,,,,wg-a,,,,AAXX 31064 07650 12/00 01404 10050 20000 30166 40206 53014 60006 80000 90600 333 10151 20044=
07650,1997-03-31 09:00:00,15,1021.7,1.2,39,1,50000,3.704,,,360,,,,,,,,,,,wg-a,,,,AAXX 31094 07650 12/84 03602 10150 20010 30178 40217 51012 60006 80000 90900=
07650,1997-03-31 12:00:00,19,1021.3,-0.3,34,3,40000,25.928,,,170,,,,,,,,,,,wg-a,,,,AAXX 31124 07650 12682 11714 10190 20030 30175 40213 58003 60006 81100 91200=
07650,1997-03-31 15:00:00,18,1020.6,-0.7,30,0,40000,29.632,,,160,,,,,,,,,,,wg-a,,,,AAXX 31154 07650 12682 /1616 10180 20000 30168 40206 56007 60006 81100 91500=
07650,1997-03-31 18:00:00,14,1021.3,0.6,77,10,25000,11.112,,,190,4.6,19.4,,,,,,,,,wg-a,,,,AAXX 31184 07650 12575 21906 10140 20100 30174 40213 53006 60006 82100 91800 333 10194 20046=
07650,1997-03-31 21:00:00,10,1021.9,0.6,87,8,20000,3.704,,,140,,,,,,,,,,,wg-a,,,,AAXX 31214 07650 12/70 01402 10100 20080 30180 40219 51006 60006 80000 92100=
07650,1997-04-01 00:00:00,8,1021.3,-0.7,87,6,20000,7.408,,,130,,,,,,,,,,,wg-a,,,,AAXX 01004 07650 12/70 01304 10080 20060 30173 40213 57007 60006 80000 90000=
07650,1997-04-01 03:00:00,7,1019.9,-1.4,87,5,20000,7.408,,,150,,,,,,,,,,,wg-a,,,,AAXX 01034 07650 12/70 11504 10070 20050 30159 40199 57014 60006 80001 90300=
07650,1997-04-01 06:00:00,7,1020,0.1,81,4,8000,0,,,0,5.9,13.6,,,,,,,,,wg-a,,,,AAXX 01064 07650 02/58 /0000 10070 20040 30160 40200 53001 60006 80001 90600 333 10136 20059 60004=
07650,1997-04-01 09:00:00,12,1019.7,-0.2,71,7,8000,7.408,,,260,,,,,,,,,,,wg-a,,,,AAXX 01094 07650 12/58 02604 10120 20070 30158 40197 58002 60006 80000 90900=
07650,1997-04-01 12:00:00,18,1018.4,-1.2,49,7,25000,11.112,,,250,,,,,,,,,,,wg-a,,,,AAXX 01124 07650 12/75 02506 10180 20070 30146 40184 58012 60006 80000 91200=
07650,1997-04-01 15:00:00,18,1016.3,-2.1,39,4,25000,22.224,,,250,,,,,,,,,,,wg-a,,,,AAXX 01154 07650 12/75 02512 10180 20040 30125 40163 56021 60006 80000 91500=
07650,1997-04-01 18:00:00,14,1016.2,-0.1,67,8,25000,14.816,,,250,6.9,19.1,,,,,,,,,wg-a,,,,AAXX 01184 07650 12/75 02508 10140 20080 30124 40162 55001 60006 80000 91800 333 10191 20069=
07650,1997-04-01 21:00:00,11,1016.4,0.1,76,7,20000,7.408,,,140,,,,,,,,,,,wg-a,,,,AAXX 01214 07650 12/70 01404 10110 20070 30125 40164 50001 60006 80000 92100=
07650,1997-04-02 00:00:00,10,1015.6,-0.8,87,8,20000,7.408,,,100,,,,,,,,,,,wg-a,,,,AAXX 02004 07650 12/70 01004 10100 20080 30117 40156 56008 60006 80000 90000=
07650,1997-04-02 03:00:00,8,1014.7,-0.9,87,6,8000,7.408,,,120,,,,,,,,,,,wg-a,,,,AAXX 02034 07650 12/58 01204 10080 20060 30108 40147 57009 60006 80000 90300=
07650,1997-04-02 06:00:00,9,1015.8,1.1,71,4,8000,11.112,,,70,7.2,13.8,,,,,,,,,wg-a,,,,AAXX 02064 07650 12/58 00706 10090 20040 30119 40158 53011 60006 80000 90600 333 10138 20072=
07650,1997-04-02 09:00:00,19,1017.3,1.6,40,5,10000,11.112,,,270,,,,,,,,,,,wg-a,,,,AAXX 02094 07650 12/60 /2706 10190 20050 30135 40173 51016 60006 90900=
07650,1997-04-02 12:00:00,20,1017.4,0.1,37,5,20000,25.928,,,160,,,,,,,,,,,wg-a,,,,AAXX 02124 07650 12670 /1614 10200 20050 30136 40174 51001 60006 81200 91200=
07650,1997-04-02 18:00:00,16,1017.1,-0.3,51,6,15000,7.408,,,180,9.1,20.4,,,,,,,,,wg-a,,,,AAXX 02184 07650 12/65 21804 10160 20060 30133 40171 57003 60006 80001 91800 333 10204 20091=
07650,1997-04-02 21:00:00,11,1018,0.8,71,6,20000,7.408,,,160,,,,,,,,,,,wg-a,,,,AAXX 02214 07650 12/70 01604 10110 20060 30141 40180 51008 60006 80000 92100=
07650,1997-04-03 00:00:00,11,1017.1,-0.9,87,9,9000,3.704,,,110,,,,,,,,,,,wg-a,,,,AAXX 03004 07650 12359 /1102 10110 20090 30132 40171 58009 60006 82600 90000=
07650,1997-04-03 03:00:00,10,1016.1,-1,93,9,500,0,,,0,,,,,,,,,,,wg-a,,,,AAXX 03034 07650 12100 70000 10100 20090 30122 40161 56010 60006 876// 90300=
07650,1997-04-03 06:00:00,11,1015.7,-0.4,87,9,2000,7.408,,,340,9,15.6,,,,,,,,10,wg-a,,,,AAXX 03064 07650 12120 83404 10110 20090 30118 40157 56004 60006 71011 876// 90600 333 10156 20090=
07650,1997-04-03 09:00:00,13,1015.4,-0.3,82,10,500,11.112,,,260,,,,,,,,,,,wg-a,,,,AAXX 03094 07650 12200 /2606 10130 20100 30115 40154 58003 60006 85600 90900=
07650,1997-04-03 12:00:00,22,1012.9,-2.3,35,6,15000,31.484,,,310,,,,,,,,,,,wg-a,,,,AAXX 03124 07650 12/65 03117 10220 20060 30092 40129 58023 60006 80000 91200=
07650,1997-04-03 15:00:00,23,1011.3,-1.6,33,6,25000,35.188,,,310,,,,,,,,,,,wg-a,,,,AAXX 03154 07650 12/75 03119 10230 20060 30076 40113 56016 60006 80000 91500=
07650,1997-04-03 18:00:00,21,1011,-0.3,28,2,25000,22.224,,,330,10.6,23.7,,,,,,,,,wg-a,,,,AAXX 03184 07650 12/75 13312 10210 20020 30073 40110 55003 60006 81040 91800 333 10237 20106=
07650,1997-04-04 00:00:00,16,1013,0.4,48,5,25000,29.632,,,330,,,,,,,,,,,wg-a,,,,AAXX 04004 07650 12/75 03316 10160 20050 30092 40130 53004 60006 80000 90000=
07650,1997-04-04 03:00:00,15,1012.9,-0.1,48,4,25000,42.596,,53.708,300,,,,,,,,,,,wg-a,,,,AAXX 04034 07650 12/75 03023 10150 20040 30091 40129 55001 60006 80000 90300 333 91029=
07650,1997-04-04 06:00:00,14,1012.3,-0.6,47,3,25000,57.412,,87.044,320,13.7,20.7,,,,,,,,,wg-a,,,,AAXX 04064 07650 12775 63231 10140 20030 30085 40123 55006 60006 81531 90600 333 10207 20137 91047=
07650,1997-04-04 09:00:00,14,1013.9,1.6,51,4,25000,64.82,,79.636,320,,,,,,,,,,,wg-a,,,,AAXX 04094 07650 12/75 73235 10140 20040 30101 40139 52016 60006 84042 90900 333 91043=
07650,1997-04-04 12:00:00,16,1011.9,-2,39,2,15000,79.636,,103.712,330,,,,,,,,,,,wg-a,,,,AAXX 04124 07650 12/65 73343 10160 20020 30081 40119 58020 60006 80002 91200 333 91056=
07650,1997-04-04 15:00:00,16,1011.2,-0.7,34,0,20000,83.34,,107.416,320,,,,,,,,,,,wg-a,,,,AAXX 04154 07650 12/70 23245 10160 20000 30074 40112 58007 60006 80002 91500 333 91058=
07650,1997-04-04 18:00:00,14,1012,0.8,33,-2,25000,75.932,,100.008,330,13.6,16.9,,,,,,,,,wg-a,,,,AAXX 04184 07650 12/75 43341 10140 21020 30082 40120 53008 60006 80002 91800 333 10169 20136 91054=
07650,1997-04-04 21:00:00,12,1013.7,1.6,38,-2,500,64.82,,90.748,320,,,,,,,,,,,wg-a,,,,AAXX 04214 07650 12/00 33235 10120 21020 30098 40137 51016 60006 80001 92100 333 91049=
07650,1997-04-05 00:00:00,10,1015.1,1.4,40,-3,500,46.3,,68.524,340,,,,,,,,,,,wg-a,,,,AAXX 05004 07650 12/00 03425 10100 21030 30112 40151 51014 60006 80000 90000 333 91037=
07650,1997-04-05 03:00:00,9,1016.2,1.1,40,-4,20000,29.632,,,350,,,,,,,,,,,wg-a,,,,AAXX 05034 07650 12/70 03516 10090 21040 30123 40162 53011 60006 80000 90300=
07650,1997-04-05 06:00:00,8,1018.9,2.7,46,-3,40000,11.112,,,10,7.3,14.3,,,,,,,,,wg-a,,,,AAXX 05064 07650 12/82 10106 10080 21030 30150 40189 52027 60006 80001 90600 333 10143 20073=
07650,1997-04-05 09:00:00,12,1020.5,1.6,38,-2,40000,14.816,,,340,,,,,,,,,,,wg-a,,,,AAXX 05094 07650 12/82 03408 10120 21020 30166 40205 50016 60006 80000 90900=
07650,1997-04-05 12:00:00,18,1019.6,-0.8,32,1,40000,22.224,,,300,,,,,,,,,,,wg-a,,,,AAXX 05124 07650 12582 33012 10180 20010 30158 40196 58008 60006 81102 91200=
07650,1997-04-05 15:00:00,18,1017.5,-2.1,26,-2,40000,22.224,,,330,,,,,,,,,,,wg-a,,,,AAXX 05154 07650 12/82 53312 10180 21020 30137 40175 58021 60006 80002 91500=
07650,1997-04-05 18:00:00,16,1016.7,-0.8,31,-1,40000,22.224,,,310,7.5,18.2,,,,,,,,,wg-a,,,,AAXX 05184 07650 12/82 53112 10160 21010 30129 40167 58008 60006 80002 91800 333 10182 20075=
07650,1997-04-05 21:00:00,15,1017.2,0.5,39,1,500,31.484,,,300,,,,,,,,,,,wg-a,,,,AAXX 05214 07650 12/00 13017 10150 20010 30134 40172 53005 60006 80002 92100=
07650,1997-04-06 00:00:00,13,1016.2,-1.1,51,3,500,35.188,,,290,,,,,,,,,,,wg-a,,,,AAXX 06004 07650 12/00 02919 10130 20030 30123 40162 58011 60006 80000 90000=
07650,1997-04-06 03:00:00,13,1013.6,-2.6,51,3,50000,38.892,,,320,,,,,,,,,,,wg-a,,,,AAXX 06034 07650 12/84 03221 10130 20030 30097 40136 58026 60006 80000 90300=
07650,1997-04-06 06:00:00,13,1013.9,0.4,54,4,50000,35.188,,53.708,310,12.6,15.6,,,,,,,,,wg-a,,,,AAXX 06064 07650 12/84 03119 10130 20040 30101 40139 53004 60006 80000 90600 333 10156 20126 91029=
07650,1997-04-06 09:00:00,16,1014,0.1,51,6,50000,25.928,,,300,,,,,,,,,,,wg-a,,,,AAXX 06094 07650 12/84 13014 10160 20060 30102 40140 53001 60006 80002 90900=
07650,1997-04-06 12:00:00,20,1012.3,-1.7,43,7,40000,46.3,,53.708,330,,,,,,,,,,,wg-a,,,,AAXX 06124 07650 12/82 03325 10200 20070 30085 40123 58017 60006 80000 91200 333 91029=
07650,1997-04-06 15:00:00,20,1010.2,-2,43,7,40000,42.596,,,330,,,,,,,,,,,wg-a,,,,AAXX 06154 07650 12/82 03323 10200 20070 30065 40102 58020 60006 80000 91500=
07650,1997-04-06 18:00:00,18,1010.1,-0.2,45,6,40000,38.892,,75.932,340,13.2,20.8,,,,,,,,,wg-a,,,,AAXX 06184 07650 12/82 13421 10180 20060 30063 40101 56002 60006 81032 91800 333 10208 20132 91041=
07650,1997-04-06 21:00:00,14,1012.1,2,55,5,50000,7.408,,,350,,,,,,,,,,,wg-a,,,,AAXX 06214 07650 12/84 03504 10140 20050 30083 40121 53020 60006 80000 92100=
07650,1997-04-07 00:00:00,11,1014.3,2.1,66,5,500,3.704,,,110,,,,,,,,,,,wg-a,,,,AAXX 07004 07650 12/00 01102 10110 20050 30104 40143 51021 60006 80000 90000=
07650,1997-04-07 03:00:00,8,1016.2,1.9,81,5,20000,7.408,,,130,,,,,,,,,,,wg-a,,,,AAXX 07034 07650 12/70 01304 10080 20050 30123 40162 51019 60006 80000 90300=
07650,1997-04-07 12:00:00,20,1019.6,0.3,40,6,500,14.816,,,280,,,,,,,,,,,wg-a,,,,AAXX 07124 07650 12/00 02808 10200 20060 30158 40196 51003 60006 80000 91200=
07650,1997-04-07 18:00:00,17,1020.3,0.7,42,4,20000,3.704,,,120,7.8,22.2,,,,,,,,,wg-a,,,,AAXX 07184 07650 12/70 51202 10170 20040 30165 40203 53007 60006 80002 91800 333 10222 20078=
07650,1997-04-07 21:00:00,14,1022.1,1.7,51,4,20000,14.816,,,70,,,,,,,,,,,wg-a,,,,AAXX 07214 07650 12/70 30708 10140 20040 30182 40221 53017 60006 80002 92100=
07650,1997-04-08 00:00:00,12,1023.4,1.3,40,-1,20000,3.704,,,130,,,,,,,,,,,wg-a,,,,AAXX 08004 07650 12/70 21302 10120 21010 30195 40234 51013 60006 80001 90000=
07650,1997-04-08 03:00:00,13,1023.7,0.3,35,-2,25000,18.52,,,90,,,,,,,,,,,wg-a,,,,AAXX 08034 07650 12/75 00910 10130 21020 30198 40237 53003 60006 80000 90300=
07650,1997-04-08 06:00:00,14,1026,2.3,51,4,20000,14.816,,,140,11.1,16.6,,,,,,,,,wg-a,,,,AAXX 08064 07650 12/70 61408 10140 20040 30221 40260 53023 60006 81032 90600 333 10166 20111=
07650,1997-04-08 09:00:00,16,1027.4,1.4,42,3,20000,22.224,,,130,,,,,,,,,,,wg-a,,,,AAXX 08094 07650 12770 71312 10160 20030 30235 40274 51014 60006 825/2 90900=
07650,1997-04-08 12:00:00,18,1027,-0.3,37,3,25000,22.224,,,190,,,,,,,,,,,wg-a,,,,AAXX 08124 07650 12675 71912 10180 20030 30232 40270 58003 60006 85802 91200=
07650,1997-04-08 15:00:00,17,1026.4,-0.6,34,1,500,25.928,,,170,,,,,,,,,,,wg-a,,,,AAXX 08154 07650 12700 61714 10170 20010 30226 40264 58006 60006 845/2 91500=
07650,1997-04-08 18:00:00,14,1027,0.5,51,4,500,22.224,,,160,13.5,18.6,,,,,,,,,wg-a,,,,AAXX 08184 07650 12/00 11612 10140 20040 30231 40270 53005 60006 80001 91800 333 10186 20135=
07650,1997-04-08 21:00:00,11,1028.5,1.5,58,3,500,11.112,,,80,,,,,,,,,,,wg-a,,,,AAXX 08214 07650 12/00 00806 10110 20030 30246 40285 52015 60006 80000 92100=
07650,1997-04-09 00:00:00,10,1029.2,0.6,62,3,500,3.704,,,130,,,,,,,,,,,wg-a,,,,AAXX 09004 07650 12/00 01302 10100 20030 30252 40292 51006 60006 80000 90000=
07650,1997-04-09 03:00:00,9,1028.9,-0.3,61,2,500,7.408,,,170,,,,,,,,,,,wg-a,,,,AAXX 09034 07650 12/00 01704 10090 20020 30249 40289 55003 60006 80000 90300=
07650,1997-04-09 06:00:00,9,1030.3,1.4,66,3,20000,7.408,,,150,7.9,13.5,,,,,,,,,wg-a,,,,AAXX 09064 07650 12/70 11504 10090 20030 30263 40303 52014 60006 81030 90600 333 10135 20079=
07650,1997-04-09 09:00:00,15,1030.8,0.6,48,4,20000,7.408,,,80,,,,,,,,,,,wg-a,,,,AAXX 09094 07650 12670 /0804 10150 20040 30269 40308 52006 60006 81100 90900=
07650,1997-04-09 12:00:00,18,1030.4,-0.4,42,5,20000,25.928,,,170,,,,,,,,,,,wg-a,,,,AAXX 09124 07650 12670 21714 10180 20050 30265 40304 58004 60006 82100 91200=
07650,1997-04-09 15:00:00,16,1030.2,-0.2,55,7,20000,29.632,,,180,,,,,,,,,,,wg-a,,,,AAXX 09154 07650 12670 21816 10160 20070 30263 40302 57002 60006 82100 91500=
07650,1997-04-09 18:00:00,14,1030.5,0.3,63,7,20000,11.112,,,190,9.1,17.9,,,,,,,,,wg-a,,,,AAXX 09184 07650 12670 /1906 10140 20070 30266 40305 53003 60006 81101 91800 333 10179 20091=
07650,1997-04-09 21:00:00,10,1031.7,1.1,82,7,20000,7.408,,,140,,,,,,,,,,,wg-a,,,,AAXX 09214 07650 12/70 11404 10100 20070 30277 40317 51011 60006 80001 92100=
07650,1997-04-10 00:00:00,9,1032,0.3,81,6,20000,7.408,,,140,,,,,,,,,,,wg-a,,,,AAXX 10004 07650 12/70 11404 10090 20060 30280 40320 53003 60006 80001 90000=
07650,1997-04-10 03:00:00,7,1030.8,-1.2,87,5,12000,0,,,0,,,,,,,,,,,wg-a,,,,AAXX 10034 07650 12/62 20000 10070 20050 30268 40308 58012 60006 80002 90300=
07650,1997-04-10 06:00:00,7,1030.9,0.1,87,5,10000,7.408,,,130,6.4,13.5,,,,,,,,,wg-a,,,,AAXX 10064 07650 12/60 11304 10070 20050 30269 40309 53001 60006 80001 90600 333 10135 20064=
07650,1997-04-10 09:00:00,13,1030.4,-0.4,67,7,6000,7.408,,,250,,,,,,,,,,,wg-a,,,,AAXX 10094 07650 12/56 02504 10130 20070 30265 40304 56004 60006 80000 90900=
07650,1997-04-10 12:00:00,18,1028.8,-1.5,45,6,18000,7.408,,,260,,,,,,,,,,,wg-a,,,,AAXX 10124 07650 12/68 22604 10180 20060 30250 40288 58015 60006 80001 91200=
07650,1997-04-10 15:00:00,17,1027.5,-1.3,55,8,15000,22.224,,,250,,,,,,,,,,,wg-a,,,,AAXX 10154 07650 12/65 12512 10170 20080 30237 40275 57013 60006 80001 91500=
07650,1997-04-10 18:00:00,14,1028,0.4,58,6,20000,11.112,,,180,7.3,18.1,,,,,,,,,wg-a,,,,AAXX 10184 07650 12/70 01806 10140 20060 30241 40280 53004 60006 80000 91800 333 10181 20073=
07650,1997-04-10 21:00:00,11,1029,1,76,7,20000,11.112,,,120,,,,,,,,,,,wg-a,,,,AAXX 10214 07650 12/70 01206 10110 20070 30251 40290 51010 60006 80000 92100=
07650,1997-04-11 00:00:00,9,1028.6,-0.5,81,6,15000,7.408,,,140,,,,,,,,,,,wg-a,,,,AAXX 11004 07650 12/65 01404 10090 20060 30246 40286 56005 60006 80000 90000=
07650,1997-04-11 03:00:00,8,1026.6,-2,87,6,15000,7.408,,,130,,,,,,,,,,,wg-a,,,,AAXX 11034 07650 12/65 01304 10080 20060 30226 40266 56020 60006 80000 90300=
07650,1997-04-11 06:00:00,8,1025.6,-1,93,7,7000,7.408,,,130,6.8,13.6,,,,,,,,,wg-a,,,,AAXX 11064 07650 12557 21304 10080 20070 30216 40256 55010 60006 82501 90600 333 10136 20068=
07650,1997-04-11 09:00:00,14,1024.2,-1.3,77,10,7000,7.408,,,360,,,,,,,,,,,wg-a,,,,AAXX 11094 07650 32/57 /3604 10140 20100 30203 40242 57013 80000 90900=
07650,1997-04-11 12:00:00,19,1020.5,-3.6,56,10,10000,22.224,,,240,,,,,,,,,,,wg-a,,,,AAXX 11124 07650 12/60 02412 10190 20100 30167 40205 58036 60006 80000 91200=
07650,1997-04-11 18:00:00,16,1015.1,-1.6,68,10,15000,35.188,,,250,8,19.9,,,,,,,,,wg-a,,,,AAXX 11184 07650 12/65 02519 10160 20100 30113 40151 56016 60006 80000 91800 333 10199 20080=
07650,1997-04-11 21:00:00,19,1013.9,-1.2,32,2,20000,35.188,,,320,,,,,,,,,,,wg-a,,,,AAXX 11214 07650 12/70 03219 10190 20020 30101 40139 58012 60006 80000 92100=
07650,1997-04-12 00:00:00,17,1012.4,-1.5,39,3,20000,31.484,,,310,,,,,,,,,,,wg-a,,,,AAXX 12004 07650 12/70 03117 10170 20030 30086 40124 56015 60006 80000 90000=
07650,1997-04-12 03:00:00,15,1011.5,-0.9,55,6,20000,42.596,,,320,,,,,,,,,,,wg-a,,,,AAXX 12034 07650 12/70 03223 10150 20060 30077 40115 55009 60006 80000 90300=
07650,1997-04-12 06:00:00,13,1011.7,0.2,54,4,20000,57.412,,75.932,330,12.4,18.8,,,,,,,,,wg-a,,,,AAXX 12064 07650 12/70 33331 10130 20040 30079 40117 53002 60006 80001 90600 333 10188 20124 91041=
07650,1997-04-12 09:00:00,14,1013.2,1.5,47,3,20000,35.188,,,340,,,,,,,,,,,wg-a,,,,AAXX 12094 07650 12/70 43419 10140 20030 30094 40132 53015 60006 80001 90900=
07650,1997-04-12 12:00:00,18,1013.2,0,39,4,20000,25.928,,,320,,,,,,,,,,,wg-a,,,,AAXX 12124 07650 12/70 43214 10180 20040 30094 40132 50000 60006 80001 91200=
07650,1997-04-12 15:00:00,20,1012.8,-0.4,32,3,500,14.816,,,300,,,,,,,,,,,wg-a,,,,AAXX 12154 07650 12600 43008 10200 20030 30090 40128 58004 60006 81101 91500=
07650,1997-04-12 18:00:00,16,1013.2,0.4,34,0,500,31.484,,,320,12.4,19.9,,,,,,,,,wg-a,,,,AAXX 12184 07650 12/00 /3217 10160 20000 30094 40132 52004 60006 91800 333 10199 20124=
07650,1997-04-12 21:00:00,13,1014.4,1.1,33,-3,500,35.188,,,340,,,,,,,,,,,wg-a,,,,AAXX 12214 07650 12/00 03419 10130 21030 30105 40144 51011 60006 80000 92100=
07650,1997-04-13 00:00:00,10,1015.4,1,40,-3,500,22.224,,,340,,,,,,,,,,,wg-a,,,,AAXX 13004 07650 12/00 03412 10100 21030 30115 40154 53010 60006 80000 90000=
07650,1997-04-13 03:00:00,8,1015.6,0.2,49,-2,500,18.52,,,340,,,,,,,,,,,wg-a,,,,AAXX 13034 07650 12/00 03410 10080 21020 30117 40156 53002 60006 80000 90300=
07650,1997-04-13 06:00:00,7,1016.6,1,53,-2,500,11.112,,,350,6.5,16.3,,,,,,,,,wg-a,,,,AAXX 13064 07650 12/00 03506 10070 21020 30127 40166 53010 60006 80000 90600 333 10163 20065=
07650,1997-04-13 09:00:00,14,1017.8,1.2,38,0,25000,11.112,,31.484,270,,,,,,,,,,,wg-a,,,,AAXX 13094 07650 12/75 02706 10140 20000 30139 40178 51012 60006 80000 90900 333 91017=
07650,1997-04-13 12:00:00,19,1017.3,-0.4,40,5,25000,11.112,,,290,,,,,,,,,,,wg-a,,,,AAXX 13124 07650 12675 /2906 10190 20050 30135 40173 58004 60006 81100 91200=
07650,1997-04-13 18:00:00,16,1017.2,0.3,68,10,20000,22.224,,,180,7.1,20.3,,,,,,,,,wg-a,,,,AAXX 13184 07650 12/70 01812 10160 20100 30134 40172 53003 60006 80000 91800 333 10203 20071=
07650,1997-04-13 21:00:00,13,1018.9,1.6,82,10,15000,3.704,,,170,,,,,,,,,,,wg-a,,,,AAXX 13214 07650 12/65 01702 10130 20100 30150 40189 51016 60006 80000 92100=
07650,1997-04-14 00:00:00,11,1019,0.1,87,9,12000,11.112,,,130,,,,,,,,,,,wg-a,,,,AAXX 14004 07650 12/62 01306 10110 20090 30151 40190 53001 60006 80000 90000=
07650,1997-04-14 03:00:00,9,1018.9,-0.1,87,7,12000,11.112,,,120,,,,,,,,,,,wg-a,,,,AAXX 14034 07650 12/62 01206 10090 20070 30150 40189 55001 60006 80000 90300=
07650,1997-04-14 06:00:00,11,1019.9,1,82,8,8000,11.112,,,70,8.6,15.4,,,,,,,,,wg-a,,,,AAXX 14064 07650 12558 20706 10110 20080 30160 40199 53010 60006 82501 90600 333 10154 20086=
07650,1997-04-14 09:00:00,17,1019.9,0.1,48,6,9000,14.816,,,340,,,,,,,,,,,wg-a,,,,AAXX 14094 07650 12559 23408 10170 20060 30161 40199 50001 60006 82500 90900=
07650,1997-04-14 12:00:00,18,1019.8,-0.1,52,8,12000,11.112,,,270,,,,,,,,,,,wg-a,,,,AAXX 14124 07650 12562 22706 10180 20080 30160 40198 58001 60006 82100 91200=
07650,1997-04-14 15:00:00,18,1018.9,-0.9,52,8,15000,14.816,,,200,,,,,,,,,,,wg-a,,,,AAXX 14154 07650 12565 /2008 10180 20080 30151 40189 58009 60006 81100 91500=
07650,1997-04-14 18:00:00,15,1019.2,0.3,72,10,15000,11.112,,,180,10.6,19.3,,,,,,,,,wg-a,,,,AAXX 14184 07650 12565 /1806 10150 20100 30154 40192 53003 60006 81100 91800 333 10193 20106=
07650,1997-04-14 21:00:00,13,1020.6,1.3,88,11,20000,7.408,,,140,,,,,,,,,,,wg-a,,,,AAXX 14214 07650 12/70 01404 10130 20110 30167 40206 52013 60006 80000 92100=
07650,1997-04-15 00:00:00,12,1019.9,-0.7,88,10,15000,0,,,0,,,,0,,,,,,,wg-a,,,,AAXX 15004 07650 02565 30000 10120 20100 30160 40199 57007 60006 83500 90000 333 60007=
07650,1997-04-15 03:00:00,12,1019,-0.9,94,11,7000,14.816,,,300,,,,,,,,,,,wg-a,,,,AAXX 15034 07650 12257 73008 10120 20110 30151 40190 56009 60006 876// 90300=
07650,1997-04-15 06:00:00,11,1017.7,-1.3,71,6,15000,22.224,,,300,9.8,15.3,,,,,,,,,wg-a,,,,AAXX 15064 07650 12/65 /3012 10110 20060 30138 40177 56013 60006 80000 90600 333 10153 20098=
07650,1997-04-15 09:00:00,17,1016.3,-1.3,45,5,500,31.484,,,310,,,,,,,,,,,wg-a,,,,AAXX 15094 07650 12/00 03117 10170 20050 30125 40163 58013 60006 80000 90900=
07650,1997-04-15 12:00:00,20,1014.4,-1.9,37,5,500,46.3,,64.82,320,,,,,,,,,,,wg-a,,,,AAXX 15124 07650 12/00 03225 10200 20050 30106 40144 56019 60006 80000 91200 333 91035=
07650,1997-04-15 15:00:00,21,1012.6,-1.7,33,4,500,42.596,,83.34,320,,,,,,,,,,,wg-a,,,,AAXX 15154 07650 12/00 03223 10210 20040 30089 40126 56017 60006 80000 91500 333 91045=
07650,1997-04-15 18:00:00,18,1012.9,0.2,34,2,500,38.892,,75.932,310,11.1,21.3,,,,,,,,,wg-a,,,,AAXX 15184 07650 12/00 03121 10180 20020 30091 40129 53002 60006 80000 91800 333 10213 20111 91041=
07650,1997-04-15 21:00:00,15,1014,1.1,33,-1,500,42.596,,,330,,,,,,,,,,,wg-a,,,,AAXX 15214 07650 12/00 03323 10150 21010 30102 40140 53011 60006 80000 92100=
07650,1997-04-16 00:00:00,13,1013.9,-0.2,38,-1,20000,35.188,,,330,,,,,,,,,,,wg-a,,,,AAXX 16004 07650 12/70 03319 10130 21010 30100 40139 55002 60006 80000 90000=
07650,1997-04-16 03:00:00,11,1013.4,-0.5,37,-3,20000,22.224,,,10,,,,,,,,,,,wg-a,,,,AAXX 16034 07650 12/70 00112 10110 21030 30095 40134 57005 60006 80000 90300=
07650,1997-04-16 06:00:00,8,1014.2,0.8,49,-2,40000,14.816,,,350,7.6,18.2,,,,,,,,,wg-a,,,,AAXX 16064 07650 12/82 13508 10080 21020 30103 40142 53008 60006 80001 90600 333 10182 20076=
07650,1997-04-16 09:00:00,15,1014.1,0,33,-1,35000,7.408,,,330,,,,,,,,,,,wg-a,,,,AAXX 16094 07650 12/81 13304 10150 21010 30103 40141 50000 60006 80002 90900=
07650,1997-04-16 12:00:00,19,1012,-2.1,26,-1,35000,22.224,,,290,,,,,,,,,,,wg-a,,,,AAXX 16124 07650 12/81 02912 10190 21010 30082 40120 58021 60006 80000 91200=
07650,1997-04-16 15:00:00,21,1009.2,-2.7,25,0,500,25.928,,,320,,,,,,,,,,,wg-a,,,,AAXX 16154 07650 12/00 03214 10210 20000 30055 40092 57027 60006 80000 91500=
07650,1997-04-16 18:00:00,17,1008.6,-0.7,29,-1,35000,50.004,,72.228,330,8.4,20.9,,,,,,,,,wg-a,,,,AAXX 16184 07650 12/81 03327 10170 21010 30048 40086 55007 60006 80000 91800 333 10209 20084 91039=
07650,1997-04-16 21:00:00,14,1011.1,2.5,33,-2,500,18.52,,,340,,,,,,,,,,,wg-a,,,,AAXX 16214 07650 12/00 03410 10140 21020 30073 40111 51025 60006 80000 92100=
07650,1997-04-17 00:00:00,12,1012,0.8,67,6,500,11.112,,,140,,,,,,,,,,,wg-a,,,,AAXX 17004 07650 12500 21406 10120 20060 30081 40120 51008 60006 82500 90000=
07650,1997-04-17 03:00:00,11,1011.7,-0.3,62,4,20000,3.704,,,60,,,,,,,,,,,wg-a,,,,AAXX 17034 07650 12/70 60602 10110 20040 30078 40117 56003 60006 85052 90300=
07650,1997-04-17 06:00:00,12,1012.3,0.6,54,3,20000,22.224,,,80,10.2,17.1,,,,,,,,,wg-a,,,,AAXX 17064 07650 12670 70812 10120 20030 30084 40123 52006 60006 83532 90600 333 10171 20102=
07650,1997-04-17 09:00:00,13,1013,0.8,47,2,500,11.112,,,90,,,,,,,,,,,wg-a,,,,AAXX 17094 07650 12600 70906 10130 20020 30092 40130 52008 60006 8357/ 90900=
07650,1997-04-17 12:00:00,15,1013.2,0.2,44,3,500,7.408,,,190,,,,,,,,,,,wg-a,,,,AAXX 17124 07650 12500 71904 10150 20030 30094 40132 50002 60006 8487/ 91200=
07650,1997-04-17 15:00:00,14,1013.6,0.4,36,-1,500,31.484,,,70,,,,,,,,,,,wg-a,,,,AAXX 17154 07650 12/00 /0717 10140 21010 30098 40136 53004 60006 91500=
07650,1997-04-17 18:00:00,12,1015.7,2,38,-2,500,29.632,,,80,11.5,15.4,,,,,,,,,wg-a,,,,AAXX 17184 07650 12600 /0816 10120 21020 30118 40157 51020 60006 82532 91800 333 10154 20115=
07650,1997-04-17 21:00:00,9,1017.3,1.6,46,-2,500,11.112,,,70,,,,,,,,,,,wg-a,,,,AAXX 17214 07650 12/00 30706 10090 21020 30134 40173 51016 60006 81031 92100=
07650,1997-04-18 00:00:00,6,1018,0.6,61,-1,500,11.112,,,70,,,,,,,,,,,wg-a,,,,AAXX 18004 07650 12/00 00706 10060 21010 30140 40180 51006 60006 80000 90000=
07650,1997-04-18 03:00:00,7,1016.9,-1.1,61,0,500,11.112,,,30,,,,,,,,,,,wg-a,,,,AAXX 18034 07650 12/00 00306 10070 20000 30129 40169 56011 60006 80000 90300=
07650,1997-04-18 06:00:00,7,1017.3,0.5,53,-2,500,7.408,,,30,4.6,11.8,,,,,,,,,wg-a,,,,AAXX 18064 07650 12/00 30304 10070 21020 30134 40173 53005 60006 81032 90600 333 10118 20046=
07650,1997-04-18 12:00:00,17,1015.8,-1.2,34,1,500,18.52,,,260,,,,,,,,,,,wg-a,,,,AAXX 18124 07650 12600 32610 10170 20010 30120 40158 58012 60006 81102 91200=
07650,1997-04-18 15:00:00,17,1014.3,-1.5,34,1,500,18.52,,,180,,,,,,,,,,,wg-a,,,,AAXX 18154 07650 12600 /1810 10170 20010 30105 40143 56015 60006 81100 91500=
07650,1997-04-18 18:00:00,14,1014.3,-0,38,0,500,14.816,,,180,7.3,18.3,,,,,,,,,wg-a,,,,AAXX 18184 07650 12/00 01808 10140 20000 30105 40143 55000 60006 80000 91800 333 10183 20073=
07650,1997-04-18 21:00:00,11,1014.9,0.5,43,-1,20000,3.704,,,110,,,,,,,,,,,wg-a,,,,AAXX 18214 07650 12/70 21102 10110 21010 30110 40149 50005 60006 80002 92100=
07650,1997-04-19 00:00:00,9,1014.1,-0.8,57,1,20000,3.704,,,170,,,,,,,,,,,wg-a,,,,AAXX 19004 07650 12/70 31702 10090 20010 30102 40141 58008 60006 80002 90000=
07650,1997-04-19 03:00:00,8,1012.3,-1.8,57,0,20000,7.408,,,100,,,,,,,,,,32,wg-a,,,,AAXX 19034 07650 12/70 71004 10080 20000 30084 40123 56018 60006 7322/ 8707/ 90300=
07650,1997-04-19 06:00:00,9,1011.2,-1.1,46,-2,20000,3.704,,,90,7.7,14,,,,,,,,,wg-a,,,,AAXX 19064 07650 12/70 70902 10090 21020 30073 40112 55011 60006 8707/ 90600 333 10140 20077=
07650,1997-04-19 09:00:00,15,1011.1,-0,36,0,20000,3.704,,,110,,,,,,,,,,,wg-a,,,,AAXX 19094 07650 12/70 71102 10150 20000 30073 40111 55000 60006 83032 90900=
07650,1997-04-19 12:00:00,15,1010.6,-0.5,39,1,20000,11.112,,,190,,,,,,,,,,,wg-a,,,,AAXX 19124 07650 12/70 /1906 10150 20010 30068 40106 58005 60006 91200=
07650,1997-04-19 15:00:00,14,1008.7,-1.9,47,3,25000,11.112,,,280,,,,,,,,,,,wg-a,,,,AAXX 19154 07650 12/75 72806 10140 20030 30049 40087 58019 60006 8707/ 91500=
07650,1997-04-19 18:00:00,12,1007.6,-1.1,71,7,15000,11.112,,,330,9.3,15.5,,,,,,,,60,wg-a,,,,AAXX 19184 07650 02665 83306 10120 20070 30038 40076 57011 61000 76062 8357/ 91800 333 10155 20093 6000=
07650,1997-04-19 21:00:00,10,1007.8,0.1,82,7,15000,14.816,,,50,,,,1,,,,,,60,wg-a,,,,AAXX 19214 07650 12665 80508 10100 20070 30039 40078 50001 60017 76066 8357/ 92100=
07650,1997-04-20 00:00:00,10,1006.5,-1.3,82,7,10000,14.816,,,80,,,,1,,,,,,60,wg-a,,,,AAXX 20004 07650 02560 80808 10100 20070 30026 40065 58013 60016 76066 8657/ 90000 333 60017=
07650,1997-04-20 03:00:00,10,1004,-2.5,87,8,6000,18.52,,,70,,,,2,,,,,,60,wg-a,,,,AAXX 20034 07650 12556 80710 10100 20080 30001 40040 56025 60027 76066 8657/ 90300=
07650,1997-04-20 06:00:00,10,1003.3,-0.6,87,8,18000,18.52,,,70,9.4,11.9,,,,,,,,21,wg-a,,,,AAXX 20064 07650 02568 70710 10100 20080 39995 40033 55006 61000 72162 8587/ 90600 333 10119 20094 6005=
07650,1997-04-20 09:00:00,14,1003.3,0,77,10,20000,14.816,,,300,,,,,,,,,,,wg-a,,,,AAXX 20094 07650 12570 53008 10140 20100 39995 40033 50000 60006 82832 90900=
07650,1997-04-20 12:00:00,17,1001.9,-1.3,55,8,500,18.52,,,310,,,,,,,,,,,wg-a,,,,AAXX 20124 07650 12500 63110 10170 20080 39982 40019 58013 60006 81162 91200=
07650,1997-04-20 15:00:00,17,1000.6,-1.3,42,4,500,38.892,,,320,,,,,,,,,,,wg-a,,,,AAXX 20154 07650 12/00 /3221 10170 20040 39969 40006 58013 60006 80002 91500=
07650,1997-04-20 18:00:00,15,999.6,-1.1,39,1,500,50.004,,,330,10.3,17.9,,,,,,,,,wg-a,,,,AAXX 20184 07650 12/00 53327 10150 20010 39958 49996 56011 60006 80002 91800 333 10179 20103=
07650,1997-04-20 21:00:00,11,1000.4,0.8,40,-2,500,29.632,,,340,,,,,,,,,,,wg-a,,,,AAXX 20214 07650 12/00 53416 10110 21020 39966 40004 52008 60006 82031 92100=
07650,1997-04-21 00:00:00,10,1001,0.6,46,-1,20000,18.52,,,350,,,,,,,,,,,wg-a,,,,AAXX 21004 07650 12470 53510 10100 21010 39972 40010 51006 60006 83501 90000=
07650,1997-04-21 03:00:00,7,1000.4,-0.7,61,0,500,14.816,,,350,,,,,,,,,,,wg-a,,,,AAXX 21034 07650 12500 33508 10070 20000 39965 40004 56007 60006 82501 90300=
07650,1997-04-21 06:00:00,6,999.7,-0.7,56,-2,500,14.816,,,360,6,14.5,,,,,,,,,wg-a,,,,AAXX 21064 07650 12500 23608 10060 21020 39958 49997 56007 60006 82501 90600 333 10145 20060=
07650,1997-04-21 09:00:00,12,998.7,-0.9,44,0,500,18.52,,,310,,,,,,,,,,,wg-a,,,,AAXX 21094 07650 12600 /3110 10120 20000 39949 49987 58009 60006 81500 90900=
07650,1997-04-21 12:00:00,16,997.1,-1.5,36,1,500,18.52,,,290,,,,,,,,,,,wg-a,,,,AAXX 21124 07650 12500 /2910 10160 20010 39934 49971 58015 60006 81230 91200=
07650,1997-04-21 15:00:00,18,996.6,-0.5,26,-2,500,29.632,,,310,,,,,,,,,,,wg-a,,,,AAXX 21154 07650 12600 /3116 10180 21020 39929 49966 57005 60006 81200 91500=
07650,1997-04-21 18:00:00,16,996.6,-0.1,29,-2,500,38.892,,53.708,330,6.3,18,,,,,,,,,wg-a,,,,AAXX 21184 07650 12/00 03321 10160 21020 39928 49966 55001 60006 80000 91800 333 10180 20063 91029=
07650,1997-04-21 21:00:00,12,998.9,2.3,35,-3,500,38.892,,,340,,,,,,,,,,,wg-a,,,,AAXX 21214 07650 12/00 03421 10120 21030 39951 49989 51023 60006 80000 92100=
07650,1997-04-22 00:00:00,10,1000.3,1.4,34,-5,500,31.484,,,340,,,,,,,,,,,wg-a,,,,AAXX 22004 07650 12/00 03417 10100 21050 39965 40003 51014 60006 80000 90000=
07650,1997-04-22 03:00:00,8,1000.5,0.1,42,-4,500,35.188,,,330,,,,,,,,,,,wg-a,,,,AAXX 22034 07650 12/00 03319 10080 21040 39966 40005 53001 60006 80000 90300=
07650,1997-04-22 06:00:00,8,1001.8,1.3,39,-5,500,35.188,,,320,7.7,15.8,,,,,,,,,wg-a,,,,AAXX 22064 07650 12/00 03219 10080 21050 39979 40018 53013 60006 80000 90600 333 10158 20077=
07650,1997-04-22 09:00:00,12,1002.3,0.6,30,-5,50000,31.484,,57.412,320,,,,,,,,,,,wg-a,,,,AAXX 22094 07650 12/84 03217 10120 21050 39985 40023 52006 60006 80000 90900 333 91031=
07650,1997-04-22 12:00:00,15,1002.3,0,21,-7,50000,46.3,,61.116,340,,,,,,,,,,,wg-a,,,,AAXX 22124 07650 12/84 03425 10150 21070 39985 40023 50000 60006 80000 91200 333 91033=
07650,1997-04-22 15:00:00,17,1002,-0.3,25,-3,50000,50.004,,87.044,320,,,,,,,,,,,wg-a,,,,AAXX 22154 07650 12/84 03227 10170 21030 39982 40020 55003 60006 80000 91500 333 91047=
07650,1997-04-22 18:00:00,15,1003.6,1.6,25,-5,50000,57.412,,79.636,320,8.2,16.7,,,,,,,,,wg-a,,,,AAXX 22184 07650 12/84 03231 10150 21050 39998 40036 53016 60006 80000 91800 333 10167 20082 91043=
07650,1997-04-22 21:00:00,13,1007.2,3.6,30,-4,500,35.188,,57.412,340,,,,,,,,,,,wg-a,,,,AAXX 22214 07650 12/00 03419 10130 21040 30034 40072 53036 60006 80000 92100 333 91031=
07650,1997-04-23 00:00:00,9,1009.5,2.2,37,-5,500,11.112,,,350,,,,,,,,,,,wg-a,,,,AAXX 23004 07650 12/00 03506 10090 21050 30056 40095 51022 60006 80000 90000=
07650,1997-04-23 03:00:00,6,1010.8,1.3,49,-4,500,7.408,,,90,,,,,,,,,,,wg-a,,,,AAXX 23034 07650 12/00 00904 10060 21040 30069 40108 53013 60006 80000 90300=
07650,1997-04-23 06:00:00,7,1013.3,2.5,57,-1,500,7.408,,,150,3.9,15.1,,,,,,,,,wg-a,,,,AAXX 23064 07650 12/00 01504 10070 21010 30094 40133 53025 60006 80000 90600 333 10151 20039=
07650,1997-04-23 09:00:00,14,1015.1,1.9,33,-2,20000,11.112,,,250,,,,,,,,,,,wg-a,,,,AAXX 23094 07650 12670 /2506 10140 21020 30113 40151 51019 60006 81100 90900=
07650,1997-04-23 12:00:00,17,1015.6,0.5,48,6,20000,11.112,,,270,,,,,,,,,,,wg-a,,,,AAXX 23124 07650 12670 32706 10170 20060 30118 40156 51005 60006 83200 91200=
07650,1997-04-23 15:00:00,17,1016.1,0.5,45,5,20000,18.52,,,190,,,,,,,,,,,wg-a,,,,AAXX 23154 07650 12670 /1910 10170 20050 30123 40161 53005 60006 81200 91500=
07650,1997-04-23 18:00:00,15,1017.5,1.4,63,8,20000,14.816,,,180,6.9,17.9,,,,,,,,,wg-a,,,,AAXX 23184 07650 12/70 01808 10150 20080 30137 40175 52014 60006 80000 91800 333 10179 20069=
07650,1997-04-23 21:00:00,12,1020.1,2.5,71,7,20000,3.704,,,140,,,,,,,,,,,wg-a,,,,AAXX 23214 07650 12/70 01402 10120 20070 30162 40201 51025 60006 80000 92100=
07650,1997-04-24 00:00:00,9,1020.9,0.8,87,7,20000,7.408,,,110,,,,,,,,,,,wg-a,,,,AAXX 24004 07650 12/70 01104 10090 20070 30170 40209 51008 60006 80000 90000=
07650,1997-04-24 03:00:00,9,1020.8,-0.1,87,7,12000,3.704,,,110,,,,,,,,,,,wg-a,,,,AAXX 24034 07650 12/62 01102 10090 20070 30169 40208 55001 60006 80000 90300=
07650,1997-04-24 06:00:00,10,1022.2,1.4,82,7,7000,7.408,,,60,8.6,14.7,,,,,,,,,wg-a,,,,AAXX 24064 07650 12557 40604 10100 20070 30183 40222 53014 60006 83501 90600 333 10147 20086=
07650,1997-04-24 12:00:00,17,1023.3,-0.3,52,7,12000,22.224,,,180,,,,,,,,,,,wg-a,,,,AAXX 24124 07650 12562 21812 10170 20070 30195 40233 58003 60006 81102 91200=
07650,1997-04-24 18:00:00,15,1023,-0,67,9,15000,18.52,,,180,9.6,18.1,,,,,,,,,wg-a,,,,AAXX 24184 07650 12565 21810 10150 20090 30191 40230 55000 60006 81502 91800 333 10181 20096=
07650,1997-04-24 21:00:00,12,1023.9,0.9,76,8,15000,3.704,,,100,,,,,,,,,,,wg-a,,,,AAXX 24214 07650 12/65 11002 10120 20080 30200 40239 53009 60006 80001 92100=
07650,1997-04-25 00:00:00,11,1023.4,-0.5,82,8,15000,11.112,,,100,,,,,,,,,,,wg-a,,,,AAXX 25004 07650 12/65 11006 10110 20080 30195 40234 58005 60006 80001 90000=
07650,1997-04-25 03:00:00,9,1022.9,-0.5,87,7,8000,7.408,,,120,,,,,,,,,,,wg-a,,,,AAXX 25034 07650 12/58 11204 10090 20070 30190 40229 56005 60006 80001 90300=
07650,1997-04-25 06:00:00,10,1023.2,0.3,82,7,8000,11.112,,,70,8,14.7,,,,,,,,,wg-a,,,,AAXX 25064 07650 12/58 30706 10100 20070 30193 40232 53003 60006 80001 90600 333 10147 20080=
07650,1997-04-25 09:00:00,17,1023.6,0.5,59,9,9000,7.408,,,260,,,,,,,,,,,wg-a,,,,AAXX 25094 07650 12659 62604 10170 20090 30198 40236 51005 60006 82132 90900=
07650,1997-04-25 12:00:00,19,1022.6,-1,49,8,20000,18.52,,,200,,,,,,,,,,,wg-a,,,,AAXX 25124 07650 12670 32010 10190 20080 30188 40226 58010 60006 81232 91200=
07650,1997-04-25 15:00:00,18,1021.4,-1.2,64,11,20000,18.52,,,190,,,,,,,,,,,wg-a,,,,AAXX 25154 07650 12670 51910 10180 20110 30176 40214 58012 60006 82232 91500=
07650,1997-04-25 18:00:00,16,1021.4,-0,77,12,10000,11.112,,,180,10,19.4,,,,,,,,,wg-a,,,,AAXX 25184 07650 12560 71806 10160 20120 30176 40214 55000 60006 85502 91800 333 10194 20100=
07650,1997-04-25 21:00:00,14,1021.9,0.4,82,11,12000,11.112,,,130,,,,,,,,,,,wg-a,,,,AAXX 25214 07650 12562 31306 10140 20110 30180 40219 50004 60006 81502 92100=
07650,1997-04-26 00:00:00,15,1021.1,-0.7,82,12,12000,7.408,,,140,,,,,,,,,,,wg-a,,,,AAXX 26004 07650 12562 71404 10150 20120 30173 40211 58007 60006 84532 90000=
07650,1997-04-26 03:00:00,15,1019.2,-1.9,82,12,12000,7.408,,,70,,,,,,,,,,,wg-a,,,,AAXX 26034 07650 12462 70704 10150 20120 30154 40192 56019 60006 875// 90300=
07650,1997-04-26 06:00:00,15,1018.8,-0.4,82,12,8000,3.704,,,100,13.5,15.9,,,,,,,,,wg-a,,,,AAXX 26064 07650 12458 71002 10150 20120 30150 40188 56004 60006 8557/ 90600 333 10159 20135=
07650,1997-04-26 09:00:00,17,1018.7,-0.1,77,13,7000,11.112,,,280,,,,,,,,,,,wg-a,,,,AAXX 26094 07650 12457 82806 10170 20130 30149 40187 55001 60006 875// 90900=
07650,1997-04-26 12:00:00,20,1016.9,-1.8,68,14,8000,18.52,,,260,,,,,,,,,,,wg-a,,,,AAXX 26124 07650 12558 32610 10200 20140 30131 40169 56018 60006 81130 91200=
07650,1997-04-26 15:00:00,19,1015,-1.9,64,12,7000,18.52,,,180,,,,,,,,,,,wg-a,,,,AAXX 26154 07650 12/57 71810 10190 20120 30112 40150 57019 60006 83031 91500=
07650,1997-04-26 18:00:00,16,1014.3,-0.7,77,12,6000,11.112,,,120,14.9,21.1,,,,,,,,,wg-a,,,,AAXX 26184 07650 12456 81206 10160 20120 30105 40143 57007 60006 8467/ 91800 333 10211 20149=
07650,1997-04-26 21:00:00,16,1014.7,0.4,82,13,8000,11.112,,,50,,,,,,,,,,,wg-a,,,,AAXX 26214 07650 12358 70506 10160 20130 30109 40147 50004 60006 876// 92100=
07650,1997-04-27 00:00:00,15,1013.3,-1.4,88,13,500,3.704,,,80,,,,1,,,,,,61,wg-a,,,,AAXX 27004 07650 02400 80802 10150 20130 30095 40133 57014 60016 76162 8357/ 90000 333 60017=
07650,1997-04-27 03:00:00,14,1013.1,-0.2,94,13,500,25.928,,,300,,,,8,,,,,,63,wg-a,,,,AAXX 27034 07650 12200 83014 10140 20130 30093 40131 56002 60087 76366 875// 90300=
07650,1997-04-27 06:00:00,13,1013.1,-0,88,11,8000,18.52,,,280,12.5,15.8,,,,,,,,21,wg-a,,,,AAXX 27064 07650 02458 72810 10130 20110 30093 40131 55000 61000 72162 8557/ 90600 333 10158 20125 6013=
07650,1997-04-27 09:00:00,17,1013,0.1,72,12,20000,14.816,,,290,,,,,,,,,,,wg-a,,,,AAXX 27094 07650 12570 /2908 10170 20120 30092 40130 50001 60006 85500 90900=
07650,1997-04-27 12:00:00,18,1011.6,-1.4,68,12,25000,22.224,,,260,,,,,,,,,,,wg-a,,,,AAXX 27124 07650 12575 52612 10180 20120 30078 40116 58014 60006 85800 91200=
07650,1997-04-27 18:00:00,19,1011.6,0.5,52,9,500,29.632,,,330,12.5,20.3,,,,,,,,,wg-a,,,,AAXX 27184 07650 12500 /3316 10190 20090 30078 40116 53005 60006 81800 91800 333 10203 20125=
07650,1997-04-27 21:00:00,16,1015.3,3.7,63,9,25000,25.928,,,320,,,,,,,,,,,wg-a,,,,AAXX 27214 07650 12675 23214 10160 20090 30115 40153 52037 60006 82530 92100=
07650,1997-04-28 00:00:00,15,1016.1,0.8,63,8,25000,31.484,,,310,,,,,,,,,,,wg-a,,,,AAXX 28004 07650 12/75 13117 10150 20080 30123 40161 52008 60006 81040 90000=
07650,1997-04-28 03:00:00,15,1016.3,0.2,67,9,500,35.188,,,300,,,,,,,,,,,wg-a,,,,AAXX 28034 07650 12/00 53019 10150 20090 30125 40163 52002 60006 80002 90300=
07650,1997-04-28 06:00:00,14,1017.4,1.1,67,8,500,31.484,,,320,13.8,18.8,,,,,1,,,,wg-a,,,,AAXX 28064 07650 02600 53217 10140 20080 30136 40174 51011 60006 81532 90600 333 10188 20138 60014=
07650,1997-04-28 12:00:00,21,1017.4,-0.8,46,9,25000,31.484,,,280,,,,,,,,,,,wg-a,,,,AAXX 28124 07650 12675 /2817 10210 20090 30136 40174 58008 60006 81242 91200=
07650,1997-04-28 15:00:00,23,1016.3,-1,50,12,25000,25.928,,,280,,,,,,,,,,,wg-a,,,,AAXX 28154 07650 12675 /2814 10230 20120 30126 40163 56010 60006 81242 91500=
07650,1997-04-28 18:00:00,20,1015.5,-0.9,60,12,25000,14.816,,,290,14.2,23,,,,,,,,,wg-a,,,,AAXX 28184 07650 12575 72908 10200 20120 30117 40155 58009 60006 85542 91800 333 10230 20142=
07650,1997-04-28 21:00:00,18,1015.5,-0,77,14,25000,22.224,,,290,,,,,,,,,,,wg-a,,,,AAXX 28214 07650 12575 42912 10180 20140 30117 40155 55000 60006 81531 92100=
07650,1997-04-29 03:00:00,16,1013.4,-1.5,59,8,25000,35.188,,,300,,,,,,,,,,,wg-a,,,,AAXX 29034 07650 12/75 53019 10160 20080 30096 40134 58015 60006 82041 90300=
07650,1997-04-29 06:00:00,15,1013.9,0.5,55,6,25000,25.928,,,300,14,20.1,,,,,,,,,wg-a,,,,AAXX 29064 07650 12575 53014 10150 20060 30101 40139 53005 60006 81141 90600 333 10201 20140=
07650,1997-04-29 12:00:00,19,1013.3,-0.2,40,5,40000,53.708,,72.228,330,,,,,,,,,,,wg-a,,,,AAXX 29124 07650 12582 33329 10190 20050 30095 40133 58002 60006 83200 91200 333 91039=
07650,1997-04-29 18:00:00,19,1013.5,0.3,43,6,50000,50.004,,75.932,310,15.3,20.4,,,,,,,,,wg-a,,,,AAXX 29184 07650 12584 /3127 10190 20060 30097 40135 52003 60006 81400 91800 333 10204 20153 91041=
07650,1997-04-30 00:00:00,15,1014,-1.2,55,6,500,35.188,,,310,,,,,,,,,,,wg-a,,,,AAXX 30004 07650 12/00 13119 10150 20060 30102 40140 56012 60006 81030 90000=
07650,1997-04-30 03:00:00,13,1013.5,-0.6,62,6,500,31.484,,57.412,320,,,,,,,,,,,wg-a,,,,AAXX 30034 07650 12/00 13217 10130 20060 30096 40135 55006 60006 81040 90300 333 91031=
07650,1997-04-30 06:00:00,13,1013.3,-0.1,62,6,500,35.188,,,330,12.1,18.7,,,,,,,,,wg-a,,,,AAXX 30064 07650 12600 /3319 10130 20060 30095 40133 55001 60006 81840 90600 333 10187 20121=
07650,1997-04-30 09:00:00,18,1015.6,2.3,45,6,75000,25.928,,,330,,,,,,,,,,,wg-a,,,,AAXX 30094 07650 12689 /3314 10180 20060 30118 40156 53023 60006 81180 90900=
07650,1997-04-30 12:00:00,22,1015.7,0.2,38,7,75000,22.224,,,290,,,,,,,,,,,wg-a,,,,AAXX 30124 07650 12689 /2912 10220 20070 30120 40157 51002 60006 81140 91200=
07650,1997-04-30 15:00:00,23,1015.1,-0.6,36,7,75000,25.928,,,310,,,,,,,,,,,wg-a,,,,AAXX 30154 07650 12689 /3114 10230 20070 30114 40151 58006 60006 81200 91500=
07650,1997-04-30 18:00:00,20,1015.1,-0.1,43,7,75000,38.892,,,330,13.4,22.6,,,,,,,,,wg-a,,,,AAXX 30184 07650 12789 13321 10200 20070 30113 40151 55001 60006 81400 91800 333 10226 20134=
07650,1997-04-30 21:00:00,16,1017.1,2,48,5,20000,22.224,,,350,,,,,,,,,,,wg-a,,,,AAXX 30214 07650 12/70 03512 10160 20050 30133 40171 53020 60006 80000 92100=
07650,1997-05-01 00:00:00,12,1018.2,1,67,6,20000,11.112,,,350,,,,,,,,,,,wg-a,,,,AAXX 01004 07650 12/70 03506 10120 20060 30143 40182 51010 60006 80000 90000=
07650,1997-05-01 03:00:00,11,1018.9,0.7,66,5,40000,7.408,,,100,,,,,,,,,,,wg-a,,,,AAXX 01034 07650 12/82 01004 10110 20050 30150 40189 53007 60006 80000 90300=
07650,1997-05-01 06:00:00,12,1020.6,1.7,67,6,75000,3.704,,,140,9.4,19.7,,,,,,,,,wg-a,,,,AAXX 01064 07650 12789 11402 10120 20060 30167 40206 52017 60006 81500 90600 333 10197 20094=
07650,1997-05-01 12:00:00,23,1020.9,0,36,7,500,11.112,,,280,,,,,,,,,,,wg-a,,,,AAXX 01124 07650 12600 22806 10230 20070 30172 40209 50000 60006 82200 91200=
07650,1997-05-01 15:00:00,22,1020.4,-0.6,29,3,500,22.224,,,170,,,,,,,,,,,wg-a,,,,AAXX 01154 07650 12600 /1712 10220 20030 30166 40204 58006 60006 81100 91500=
07650,1997-05-01 18:00:00,20,1021.4,1,35,4,500,22.224,,,170,11.9,23.6,,,,,,,,,wg-a,,,,AAXX 01184 07650 12600 /1712 10200 20040 30176 40214 53010 60006 81500 91800 333 10236 20119=
07650,1997-05-01 21:00:00,16,1024.1,2.7,48,5,25000,7.408,,,30,,,,,,,,,,,wg-a,,,,AAXX 01214 07650 12/75 30304 10160 20050 30203 40241 51027 60006 83030 92100=
07650,1997-05-02 00:00:00,15,1024.7,0.5,51,5,25000,3.704,,,90,,,,,,,,,,,wg-a,,,,AAXX 02004 07650 12/75 00902 10150 20050 30208 40247 51005 60006 80000 90000=
07650,1997-05-02 03:00:00,13,1025,0.3,67,7,20000,7.408,,,150,,,,,,,,,,,wg-a,,,,AAXX 02034 07650 12/70 01504 10130 20070 30211 40250 53003 60006 80000 90300=
07650,1997-05-02 06:00:00,15,1026.1,1.1,59,7,500,3.704,,,150,11.7,19.9,,,,,,,,,wg-a,,,,AAXX 02064 07650 12/00 01502 10150 20070 30222 40261 53011 60006 80000 90600 333 10199 20117=
07650,1997-05-02 09:00:00,21,1026.5,0.5,43,8,60000,7.408,,,280,,,,,,,,,,,wg-a,,,,AAXX 02094 07650 12586 12804 10210 20080 30227 40265 51005 60006 81101 90900=
07650,1997-05-02 12:00:00,23,1025.8,-0.7,27,3,60000,22.224,,,210,,,,,,,,,,,wg-a,,,,AAXX 02124 07650 12686 /2112 10230 20030 30220 40258 58007 60006 81101 91200=
07650,1997-05-02 15:00:00,22,1024.7,-1.1,31,4,50000,18.52,,,190,,,,,,,,,,,wg-a,,,,AAXX 02154 07650 12684 21910 10220 20040 30209 40247 58011 60006 81501 91500=
07650,1997-05-02 18:00:00,20,1024.6,-0.1,37,5,40000,7.408,,,180,14.7,23.4,,,,,,,,,wg-a,,,,AAXX 02184 07650 12/82 11804 10200 20050 30208 40246 55001 60006 80001 91800 333 10234 20147=
07650,1997-05-02 21:00:00,15,1025.5,0.8,51,5,500,7.408,,,120,,,,,,,,,,,wg-a,,,,AAXX 02214 07650 12/00 11204 10150 20050 30216 40255 53008 60006 80001 92100=
07650,1997-05-03 00:00:00,12,1025.2,-0.3,58,4,500,7.408,,,120,,,,,,,,,,,wg-a,,,,AAXX 03004 07650 12/00 01204 10120 20040 30213 40252 57003 60006 80000 90000=
07650,1997-05-03 06:00:00,14,1023.8,-0.1,51,4,500,3.704,,,120,11.1,20,,,,,,,,,wg-a,,,,AAXX 03064 07650 12/00 11202 10140 20040 30199 40238 55001 60006 80001 90600 333 10200 20111=
07650,1997-05-03 09:00:00,21,1023.4,-0.3,33,4,20000,7.408,,,270,,,,,,,,,,,wg-a,,,,AAXX 03094 07650 12/70 12704 10210 20040 30196 40234 58003 60006 80001 90900=
07650,1997-05-03 12:00:00,23,1022.1,-1.3,33,6,40000,18.52,,,170,,,,,,,,,,,wg-a,,,,AAXX 03124 07650 12582 /1710 10230 20060 30183 40221 58013 60006 81101 91200=
07650,1997-05-03 18:00:00,17,1019.5,-0.8,77,13,15000,14.816,,,180,14.3,22.7,,,,,,,,,wg-a,,,,AAXX 03184 07650 12465 61808 10170 20130 30157 40195 56008 60006 85502 91800 333 10227 20143=
07650,1997-05-03 21:00:00,16,1019.4,-0.1,82,13,12000,7.408,,,140,,,,,,,,,,,wg-a,,,,AAXX 03214 07650 12562 31404 10160 20130 30156 40194 58001 60006 81502 92100=
07650,1997-05-04 00:00:00,15,1018,-1.4,82,12,12000,0,,,0,,,,,,,,,,,wg-a,,,,AAXX 04004 07650 12/62 00000 10150 20120 30142 40180 56014 60006 80000 90000=
07650,1997-05-04 06:00:00,15,1015.2,-1.1,82,12,10000,7.408,,,80,13.9,16.9,,,,,,,,,wg-a,,,,AAXX 04064 07650 12/60 30804 10150 20120 30114 40152 56011 60006 83082 90600 333 10169 20139=
07650,1997-05-04 09:00:00,19,1014.9,-0.3,68,13,12000,7.408,,,290,,,,,,,,,,,wg-a,,,,AAXX 04094 07650 12662 72904 10190 20130 30111 40149 58003 60006 81542 90900=
07650,1997-05-04 12:00:00,20,1014.2,-0.6,68,14,12000,25.928,,,160,,,,,,,,,,,wg-a,,,,AAXX 04124 07650 12/62 71614 10200 20140 30105 40142 58006 60006 82032 91200=
07650,1997-05-04 15:00:00,19,1013.1,-1.2,68,13,15000,18.52,,,160,,,,,,,,,,,wg-a,,,,AAXX 04154 07650 12665 71610 10190 20130 30093 40131 58012 60006 81532 91500=
07650,1997-05-04 18:00:00,18,1012.4,-0.7,73,13,15000,22.224,,,130,15.3,20.5,,,,,,,,,wg-a,,,,AAXX 04184 07650 12665 /1312 10180 20130 30086 40124 56007 60006 81532 91800 333 10205 20153=
07650,1997-05-05 00:00:00,16,1010.7,-1.9,59,8,12000,18.52,,,100,,,,,,,,,,,wg-a,,,,AAXX 05004 07650 12/62 61010 10160 20080 30069 40107 58019 60006 84032 90000=
07650,1997-05-05 03:00:00,16,1008,-2.7,68,10,12000,25.928,,,110,,,,,,,,,,,wg-a,,,,AAXX 05034 07650 12/62 41114 10160 20100 30042 40080 56027 60006 82032 90300=
07650,1997-05-05 06:00:00,16,1006.4,-1.6,72,11,15000,31.484,,,120,15.1,17.6,,,,,,,,21,wg-a,,,,AAXX 05064 07650 02565 71217 10160 20110 30026 40064 55016 61000 72162 85882 90600 333 10176 20151 6001=
07650,1997-05-05 12:00:00,21,1005,-0.7,60,13,20000,25.928,,,130,,,,,,,,,,3,wg-a,,,,AAXX 05124 07650 12570 51314 10210 20130 30013 40050 58007 60026 70398 84202 91200=
07650,1997-05-05 15:00:00,22,1003.5,-1.5,57,13,25000,22.224,,,140,,,,,,,,,,,wg-a,,,,AAXX 05154 07650 12575 51412 10220 20130 39998 40035 58015 60006 84830 91500=
07650,1997-05-05 18:00:00,19,1001.8,-1.7,64,12,500,22.224,,,150,15.4,22.5,,,,,,,,,wg-a,,,,AAXX 05184 07650 12600 51512 10190 20120 39981 40018 56017 60006 81131 91800 333 10225 20154=
07650,1997-05-05 21:00:00,18,1001.2,-0.6,64,11,15000,25.928,,,110,,,,,,,,,,,wg-a,,,,AAXX 05214 07650 12665 61114 10180 20110 39975 40012 58006 60006 82532 92100=
07650,1997-05-06 00:00:00,17,1000,-1.2,68,11,15000,14.816,,,80,,,,,,,,,,,wg-a,,,,AAXX 06004 07650 12665 50808 10170 20110 39963 40000 58012 60006 83531 90000=
07650,1997-05-06 06:00:00,18,997.4,0.4,73,13,12000,18.52,,,170,15.5,19.2,,,,,2,,,,wg-a,,,,AAXX 06064 07650 02562 71710 10180 20130 39937 49974 53004 60006 878// 90600 333 10192 20155 60024=
07650,1997-05-06 09:00:00,13,1000.4,2.9,72,8,10000,25.928,,,330,,,,1,,,,,,21,wg-a,,,,AAXX 06094 07650 12560 83314 10130 20080 39966 40004 51029 60017 72186 888// 90900=
07650,1997-05-06 12:00:00,16,1000.5,0.1,55,7,500,7.408,,,280,,,,0,,,,,,,wg-a,,,,AAXX 06124 07650 02500 42804 10160 20070 39967 40005 52001 60016 84840 91200 333 60007=
07650,1997-05-06 15:00:00,18,1000.5,0.1,42,5,500,42.596,,61.116,250,,,,,,,,,,,wg-a,,,,AAXX 06154 07650 12500 42523 10180 20050 39968 40005 53001 60006 84202 91500 333 91033=
07650,1997-05-06 18:00:00,15,1002.8,2.2,48,4,40000,50.004,,,270,12.2,19.3,,,,,,,,,wg-a,,,,AAXX 06184 07650 12682 52727 10150 20040 39990 40028 53022 60006 82231 91800 333 10193 20122=
07650,1997-05-07 00:00:00,12,1006.5,0.8,50,2,500,35.188,,,290,,,,,,,,,,,wg-a,,,,AAXX 07004 07650 12500 72919 10120 20020 30027 40065 50008 60006 82532 90000=
07650,1997-05-07 03:00:00,10,1005.5,-1.1,53,1,500,31.484,,,300,,,,,,,,,,,wg-a,,,,AAXX 07034 07650 12500 73017 10100 20010 30016 40055 57011 60006 81532 90300=
07650,1997-05-07 06:00:00,10,1004.9,-0.6,57,2,50000,18.52,,,300,9.3,15.2,,,,,1,,,,wg-a,,,,AAXX 07064 07650 02/84 63010 10100 20020 30010 40049 55006 60006 82031 90600 333 10152 20093 60014=
07650,1997-05-07 12:00:00,15,1003.5,-1,36,0,500,18.52,,,250,,,,,,,,,,,wg-a,,,,AAXX 07124 07650 12600 72510 10150 20000 39997 40035 58010 60006 81102 91200=
07650,1997-05-07 15:00:00,15,1001.7,-1.8,44,3,500,18.52,,,240,,,,,,,,,,,wg-a,,,,AAXX 07154 07650 12500 72410 10150 20030 39979 40017 56018 60006 81102 91500=
07650,1997-05-07 18:00:00,13,1001.1,-0.6,54,4,500,14.816,,,210,10.3,15.6,,,,,,,,,wg-a,,,,AAXX 07184 07650 12500 72108 10130 20040 39973 40011 55006 60006 81102 91800 333 10156 20103=
07650,1997-05-07 21:00:00,12,1002,0.9,71,7,25000,38.892,,,280,,,,,,,,,,,wg-a,,,,AAXX 07214 07650 12575 /2821 10120 20070 39982 40020 53009 60006 83232 92100=
07650,1997-05-08 00:00:00,10,1002.2,0.2,76,6,40000,22.224,,,310,,,,,,,,,,,wg-a,,,,AAXX 08004 07650 12582 53112 10100 20060 39984 40022 50002 60006 84840 90000=
07650,1997-05-08 03:00:00,9,1003.3,1,57,1,40000,50.004,,61.116,320,,,,,,,,,,,wg-a,,,,AAXX 08034 07650 12582 53227 10090 20010 39994 40033 51010 60006 81132 90300 333 91033=
07650,1997-05-08 06:00:00,8,1005.7,2.4,57,0,40000,53.708,,75.932,310,8.2,13.2,,,,,,,,,wg-a,,,,AAXX 08064 07650 12582 43129 10080 20000 30018 40057 53024 60006 81132 90600 333 10132 20082 91041=
07650,1997-05-08 09:00:00,12,1007.3,1.7,40,-1,500,64.82,,87.044,320,,,,,,,,,,,wg-a,,,,AAXX 08094 07650 12500 23235 10120 21010 30035 40073 52017 60006 81130 90900 333 91047=
07650,1997-05-08 12:00:00,15,1008.6,1.3,33,-1,40000,50.004,,68.524,310,,,,,,,,,,,wg-a,,,,AAXX 08124 07650 12582 23127 10150 21010 30048 40086 51013 60006 81101 91200 333 91037=
07650,1997-05-08 15:00:00,17,1009,0.4,32,0,40000,38.892,,,280,,,,,,,,,,,wg-a,,,,AAXX 08154 07650 12682 22821 10170 20000 30052 40090 53004 60006 81830 91500=
07650,1997-05-08 18:00:00,16,1010.3,1.3,42,3,500,29.632,,,280,8.5,17.4,,,,,,,,,wg-a,,,,AAXX 08184 07650 12600 32816 10160 20030 30065 40103 51013 60006 82802 91800 333 10174 20085=
07650,1997-05-09 00:00:00,13,1013.7,1.1,67,7,12000,22.224,,,270,,,,,,,,,,,wg-a,,,,AAXX 09004 07650 12/62 32712 10130 20070 30099 40137 51011 60006 81032 90000=
07650,1997-05-09 03:00:00,12,1013.2,-0.6,71,7,12000,11.112,,,260,,,,,,,,,,,wg-a,,,,AAXX 09034 07650 12/62 /2606 10120 20070 30093 40132 58006 60006 83032 90300=
07650,1997-05-09 06:00:00,13,1014.1,1,72,8,20000,7.408,,,130,10.7,16.2,,,,,,,,,wg-a,,,,AAXX 09064 07650 12570 71304 10130 20080 30103 40141 53010 60006 8253/ 90600 333 10162 20107=
07650,1997-05-09 09:00:00,17,1014.7,0.6,55,8,20000,14.816,,,210,,,,,,,,,,,wg-a,,,,AAXX 09094 07650 12570 72108 10170 20080 30109 40147 51006 60006 82832 90900=
07650,1997-05-09 12:00:00,18,1014.6,-0.1,56,9,20000,25.928,,,180,,,,,,,,,,,wg-a,,,,AAXX 09124 07650 12570 51814 10180 20090 30108 40146 58001 60006 82832 91200=
07650,1997-05-09 18:00:00,16,1014.9,0.1,68,10,20000,14.816,,,170,13,19.2,,,,,,,,,wg-a,,,,AAXX 09184 07650 12570 61708 10160 20100 30111 40149 53001 60006 81282 91800 333 10192 20130=
07650,1997-05-09 21:00:00,15,1016.6,1.7,77,11,15000,3.704,,,190,,,,,,,,,,,wg-a,,,,AAXX 09214 07650 12565 61902 10150 20110 30128 40166 51017 60006 82532 92100=
07650,1997-05-10 00:00:00,13,1017.6,0.9,82,10,15000,7.408,,,100,,,,,,,,,,,wg-a,,,,AAXX 10004 07650 12565 41004 10130 20100 30137 40176 52009 60006 81532 90000=
07650,1997-05-10 03:00:00,12,1017.4,-0.2,88,10,15000,3.704,,,90,,,,,,,,,,,wg-a,,,,AAXX 10034 07650 12565 /0902 10120 20100 30135 40174 56002 60006 81530 90300=
07650,1997-05-10 06:00:00,14,1017.8,0.5,67,8,15000,0,,,0,12,16.1,,,,,,,,,wg-a,,,,AAXX 10064 07650 12565 /0000 10140 20080 30140 40178 53005 60006 81532 90600 333 10161 20120=
07650,1997-05-10 09:00:00,21,1017.8,-0,35,5,20000,11.112,,,80,,,,,,,,,,,wg-a,,,,AAXX 10094 07650 12/70 30806 10210 20050 30140 40178 54000 60006 81031 90900=
07650,1997-05-10 12:00:00,21,1017.8,0,46,9,20000,25.928,,,170,,,,,,,,,,,wg-a,,,,AAXX 10124 07650 12570 31714 10210 20090 30140 40178 50000 60006 81102 91200=
07650,1997-05-10 15:00:00,21,1016.6,-1.2,38,6,500,25.928,,,150,,,,,,,,,,,wg-a,,,,AAXX 10154 07650 12500 /1514 10210 20060 30128 40166 58012 60006 81202 91500=
07650,1997-05-10 18:00:00,18,1016.5,-0.1,52,8,500,18.52,,,140,13.9,21.8,,,,,,,,,wg-a,,,,AAXX 10184 07650 12500 /1410 10180 20080 30127 40165 58001 60006 81232 91800 333 10218 20139=
07650,1997-05-11 00:00:00,15,1017.1,-0.3,72,10,20000,29.632,,,70,,,,,,,,,,,wg-a,,,,AAXX 11004 07650 12/70 50716 10150 20100 30133 40171 58003 60006 82032 90000=
07650,1997-05-11 03:00:00,15,1015.8,-1.3,67,9,500,14.816,,,90,,,,,,,,,,,wg-a,,,,AAXX 11034 07650 12/00 10908 10150 20090 30120 40158 56013 60006 80001 90300=
07650,1997-05-11 06:00:00,17,1015.4,-0.4,45,5,50000,25.928,,,90,14.4,17.8,,,,,,,,,wg-a,,,,AAXX 11064 07650 12/84 30914 10170 20050 30116 40154 56004 60006 81032 90600 333 10178 20144=
07650,1997-05-11 09:00:00,20,1015.2,-0.2,40,6,50000,25.928,,,80,,,,,,,,,,,wg-a,,,,AAXX 11094 07650 12/84 80814 10200 20060 30114 40152 57002 60006 85072 90900=
07650,1997-05-11 12:00:00,20,1016.9,1.7,40,6,50000,31.484,,,120,,,,,,,,,,,wg-a,,,,AAXX 11124 07650 12584 81217 10200 20060 30131 40169 53017 60006 8357/ 91200=
07650,1997-05-11 18:00:00,17,1016.8,0.6,63,10,40000,14.816,,,70,16.7,21.9,,,,,,,,,wg-a,,,,AAXX 11184 07650 12582 80708 10170 20100 30130 40168 53006 60006 8487/ 91800 333 10219 20167=
07650,1997-05-11 21:00:00,17,1018.7,1.9,59,9,25000,14.816,,,100,,,,,,,,,,,wg-a,,,,AAXX 11214 07650 12675 71008 10170 20090 30149 40187 53019 60006 8257/ 92100=
07650,1997-05-12 00:00:00,17,1018.7,0,52,7,25000,11.112,,,110,,,,,,,,,,,wg-a,,,,AAXX 12004 07650 12675 71106 10170 20070 30149 40187 50000 60006 8257/ 90000=
07650,1997-05-12 06:00:00,16,1020.1,1,63,9,20000,11.112,,,100,15.3,17.4,,,,,,,,21,wg-a,,,,AAXX 12064 07650 02670 71006 10160 20090 30163 40201 53010 61000 72162 8557/ 90600 333 10174 20153 6100=
07650,1997-05-12 09:00:00,18,1021.1,1,59,10,20000,11.112,,,300,,,,,,,,,,,wg-a,,,,AAXX 12094 07650 12670 73006 10180 20100 30173 40211 51010 60006 8557/ 90900=
07650,1997-05-12 12:00:00,19,1021.5,0.4,64,12,15000,11.112,,,250,,,,,,,,,,60,wg-a,,,,AAXX 12124 07650 02565 72506 10190 20120 30177 40215 51004 61000 76062 8557/ 91200 333 6100=
07650,1997-05-12 15:00:00,18,1021,-0.5,73,13,12000,3.704,,,260,,,,1,,,,,,21,wg-a,,,,AAXX 12154 07650 12562 72602 10180 20130 30172 40210 55005 60017 72166 8557/ 91500=
07650,1997-05-12 18:00:00,16,1021.5,0.5,88,14,3000,14.816,,,320,15.5,19.4,,,,,,,,60,wg-a,,,,AAXX 12184 07650 02230 83208 10160 20140 30177 40215 50005 61000 76062 8557/ 91800 333 10194 20155 6000=
07650,1997-05-12 21:00:00,15,1022.4,0.9,88,13,12000,11.112,,,10,,,,,,,,,,2,wg-a,,,,AAXX 12214 07650 02562 70106 10150 20130 30186 40224 51009 61000 70262 8457/ 92100 333 ////=
07650,1997-05-13 00:00:00,15,1021.9,-0.5,88,13,12000,3.704,,,150,,,,0,,,,,,60,wg-a,,,,AAXX 13004 07650 02562 81502 10150 20130 30181 40219 56005 60006 76062 8557/ 90000 333 60007=
07650,1997-05-13 03:00:00,15,1020.5,-1.4,88,13,12000,11.112,,,40,,,,0,,,,,,60,wg-a,,,,AAXX 13034 07650 12562 80406 10150 20130 30167 40205 58014 60007 76066 8557/ 90300=
07650,1997-05-13 06:00:00,15,1020.6,0.1,82,12,18000,7.408,,,40,14.8,15.8,,,,,,,,60,wg-a,,,,AAXX 13064 07650 02568 70404 10150 20120 30168 40206 53001 61000 76062 8557/ 90600 333 10158 20148 6002=
07650,1997-05-13 09:00:00,19,1021.3,0.7,73,14,20000,11.112,,,240,,,,,,,,,,1,wg-a,,,,AAXX 13094 07650 02570 72406 10190 20140 30175 40213 51007 61000 70162 8557/ 90900 333 ////=
07650,1997-05-13 12:00:00,23,1019.9,-1.3,57,14,15000,11.112,,,260,,,,,,,,,,,wg-a,,,,AAXX 13124 07650 02565 72606 10230 20140 30162 40199 58013 61000 84832 91200 333 ////=
07650,1997-05-13 15:00:00,24,1017.5,-2.4,50,13,20000,14.816,,,290,,,,,,,,,,,wg-a,,,,AAXX 13154 07650 12570 72908 10240 20130 30138 40175 58024 60006 81502 91500=
07650,1997-05-13 18:00:00,21,1017.4,-0.2,53,11,20000,11.112,,,260,15.4,24.8,,,,,,,,,wg-a,,,,AAXX 13184 07650 12670 /2606 10210 20110 30136 40174 56002 60006 81502 91800 333 10248 20154=
07650,1997-05-13 21:00:00,17,1018.1,0.7,77,13,12000,3.704,,,120,,,,,,,,,,,wg-a,,,,AAXX 13214 07650 12/62 31202 10170 20130 30143 40181 53007 60006 80002 92100=
07650,1997-05-14 00:00:00,15,1018.3,0.2,88,13,12000,3.704,,,150,,,,,,,,,,,wg-a,,,,AAXX 14004 07650 12/62 51502 10150 20130 30145 40183 50002 60006 81032 90000=
07650,1997-05-14 03:00:00,15,1017.5,-0.8,88,13,10000,7.408,,,60,,,,,,,,,,,wg-a,,,,AAXX 14034 07650 12/60 20604 10150 20130 30137 40175 57008 60006 80002 90300=
07650,1997-05-14 06:00:00,15,1017.9,0.4,88,13,9000,0,,,0,13.8,21,,,,,,,,,wg-a,,,,AAXX 14064 07650 02659 /0000 10150 20130 30141 40179 53004 60006 83532 90600 333 10210 20138 60004=
07650,1997-05-14 09:00:00,25,1017.6,-0.2,39,10,20000,7.408,,,320,,,,,,,,,,,wg-a,,,,AAXX 14094 07650 12670 53204 10250 20100 30139 40176 58002 60006 81132 90900=
07650,1997-05-14 12:00:00,25,1016.8,-0.8,41,11,500,25.928,,,160,,,,,,,,,,,wg-a,,,,AAXX 14124 07650 12/00 61614 10250 20110 30131 40168 58008 60006 81032 91200=
07650,1997-05-14 15:00:00,25,1016.2,-0.6,34,8,500,18.52,,,190,,,,,,,,,,,wg-a,,,,AAXX 14154 07650 12/00 61910 10250 20080 30125 40162 56006 60006 82032 91500=
07650,1997-05-14 18:00:00,22,1016.4,0.2,53,12,25000,11.112,,,330,15.2,26.2,,,,,,,,,wg-a,,,,AAXX 14184 07650 12675 /3306 10220 20120 30127 40164 50002 60006 81532 91800 333 10262 20152=
07650,1997-05-14 21:00:00,17,1017,0.5,77,13,25000,3.704,,,140,,,,,,,,,,,wg-a,,,,AAXX 14214 07650 12/75 31402 10170 20130 30132 40170 51005 60006 81031 92100=
07650,1997-05-15 00:00:00,16,1016.3,-0.7,77,12,25000,0,,,0,,,,,,,,,,,wg-a,,,,AAXX 15004 07650 12775 50000 10160 20120 30125 40163 58007 60006 83501 90000=
07650,1997-05-15 03:00:00,13,1014.8,-1.5,82,10,25000,0,,,0,,,,,,,,,,,wg-a,,,,AAXX 15034 07650 12/75 20000 10130 20100 30110 40148 56015 60006 80001 90300=
07650,1997-05-15 06:00:00,18,1015,0.2,64,11,500,3.704,,,270,13,21.6,,,,,,,,,wg-a,,,,AAXX 15064 07650 12/00 52702 10180 20110 30112 40150 53002 60006 82041 90600 333 10216 20130=
07650,1997-05-15 09:00:00,23,1014.9,0,53,13,25000,7.408,,,250,,,,,,,,,,,wg-a,,,,AAXX 15094 07650 12/75 52504 10230 20130 30112 40149 50000 60006 80001 90900=
07650,1997-05-15 12:00:00,27,1014.5,-0.4,24,5,500,25.928,,,160,,,,,,,,,,,wg-a,,,,AAXX 15124 07650 12600 /1614 10270 20050 30108 40145 58004 60006 81202 91200=
07650,1997-05-15 15:00:00,27,1012.9,-1.6,32,9,500,14.816,,,190,,,,,,,,,,,wg-a,,,,AAXX 15154 07650 12600 71908 10270 20090 30092 40129 57016 60006 82232 91500=
07650,1997-05-15 18:00:00,21,1014.2,1.3,49,10,500,0,,,0,17.7,27.5,,,,,,,,,wg-a,,,,AAXX 15184 07650 12700 60000 10210 20100 30105 40142 53013 60006 81442 91800 333 10275 20177=
07650,1997-05-15 21:00:00,20,1015,0.7,53,10,25000,11.112,,,100,,,,,,,,,,,wg-a,,,,AAXX 15214 07650 12/75 51006 10200 20100 30112 40150 53007 60006 81032 92100=
07650,1997-05-16 00:00:00,19,1014.6,-0.4,49,8,25000,7.408,,,120,,,,,,,,,,,wg-a,,,,AAXX 16004 07650 12/75 51204 10190 20080 30108 40146 57004 60006 82032 90000=
07650,1997-05-16 03:00:00,17,1014.4,-0.2,55,8,25000,0,,,0,,,,,,,,,,,wg-a,,,,AAXX 16034 07650 12/75 60000 10170 20080 30106 40144 55002 60006 82031 90300=
07650,1997-05-16 06:00:00,17,1015.3,0.9,63,10,25000,7.408,,,180,16.1,21.1,,,,,,,,,wg-a,,,,AAXX 16064 07650 12/75 61804 10170 20100 30115 40153 52009 60006 82041 90600 333 10211 20161=
07650,1997-05-16 09:00:00,21,1015.6,0.4,56,12,18000,7.408,,,290,,,,,,,,,,,wg-a,,,,AAXX 16094 07650 12668 72904 10210 20120 30119 40156 51004 60006 81532 90900=
07650,1997-05-16 12:00:00,25,1015.3,-0.3,36,9,500,11.112,,,280,,,,,,,,,,,wg-a,,,,AAXX 16124 07650 12500 72806 10250 20090 30116 40153 57003 60006 81232 91200=
07650,1997-05-16 18:00:00,22,1014.6,-0.5,50,11,500,0,,,0,16.9,25.7,,,,,,,,,wg-a,,,,AAXX 16184 07650 12/00 70000 10220 20110 30109 40146 58005 60006 83062 91800 333 10257 20169=
07650,1997-05-16 21:00:00,18,1016,1.3,68,12,20000,7.408,,,120,,,,,,,,,,,wg-a,,,,AAXX 16214 07650 12/70 61204 10180 20120 30122 40160 51013 60006 83062 92100=
07650,1997-05-17 00:00:00,17,1016,-0,68,11,20000,7.408,,,120,,,,,,,,,,,wg-a,,,,AAXX 17004 07650 12670 61204 10170 20110 30122 40160 55000 60006 83532 90000=
07650,1997-05-17 03:00:00,16,1015.7,-0.3,72,11,25000,7.408,,,110,,,,,,,,,,,wg-a,,,,AAXX 17034 07650 12/75 51104 10160 20110 30119 40157 56003 60006 81032 90300=
07650,1997-05-17 06:00:00,18,1016.2,0.5,64,11,25000,11.112,,,120,15.5,22,,,,,,,,,wg-a,,,,AAXX 17064 07650 12/75 51206 10180 20110 30124 40162 53005 60006 83032 90600 333 10220 20155=
07650,1997-05-17 09:00:00,23,1016.2,0.1,47,11,500,18.52,,,160,,,,,,,,,,,wg-a,,,,AAXX 17094 07650 12500 41610 10230 20110 30125 40162 51001 60006 81131 90900=
07650,1997-05-17 12:00:00,22,1016.2,0,53,12,500,25.928,,,180,,,,,,,,,,,wg-a,,,,AAXX 17124 07650 12500 /1814 10220 20120 30125 40162 50000 60006 81232 91200=
07650,1997-05-17 15:00:00,20,1015.4,-0.9,68,14,15000,18.52,,,180,,,,,,,,,,,wg-a,,,,AAXX 17154 07650 12565 71810 10200 20140 30116 40154 56009 60006 82132 91500=
07650,1997-05-17 18:00:00,18,1015.8,0.4,83,15,9000,14.816,,,170,17.8,23.9,,,,,,,,21,wg-a,,,,AAXX 17184 07650 02459 81708 10180 20150 30120 40158 53004 61000 72162 83872 91800 333 10239 20178 6100=
07650,1997-05-18 00:00:00,17,1016.5,-0.2,88,15,20000,11.112,,,150,,,,,,,,,,,wg-a,,,,AAXX 18004 07650 12570 31506 10170 20150 30127 40165 58002 60006 81532 90000=
07650,1997-05-18 03:00:00,17,1015.7,-0.8,82,14,15000,7.408,,,130,,,,,,,,,,,wg-a,,,,AAXX 18034 07650 12465 61304 10170 20140 30119 40157 56008 60006 85532 90300=
07650,1997-05-18 06:00:00,17,1015.6,-0.1,88,15,15000,18.52,,,130,16.5,18,,,,,,,,,wg-a,,,,AAXX 18064 07650 02465 41310 10170 20150 30118 40156 58001 60006 83202 90600 333 10180 20165 61000=
07650,1997-05-18 09:00:00,20,1016.4,0.8,64,13,15000,18.52,,,160,,,,,,,,,,,wg-a,,,,AAXX 18094 07650 12465 21610 10200 20130 30126 40164 51008 60006 82200 90900=
07650,1997-05-18 12:00:00,20,1016.6,0.2,64,13,20000,29.632,,,170,,,,,,,,,,,wg-a,,,,AAXX 18124 07650 12470 21716 10200 20130 30128 40166 53002 60006 82200 91200=
07650,1997-05-18 18:00:00,19,1015.2,-0.4,73,14,15000,18.52,,,160,17.4,21.3,,,,,,,,,wg-a,,,,AAXX 18184 07650 12465 /1610 10190 20140 30114 40152 55004 60006 81101 91800 333 10213 20174=
07650,1997-05-18 21:00:00,17,1015.5,0.3,72,12,18000,7.408,,,120,,,,,,,,,,,wg-a,,,,AAXX 18214 07650 12468 21204 10170 20120 30117 40155 53003 60006 81402 92100=
07650,1997-05-19 00:00:00,15,1015.3,-0.2,72,10,20000,11.112,,,60,,,,,,,,,,,wg-a,,,,AAXX 19004 07650 12/70 20606 10150 20100 30115 40153 56002 60006 80002 90000=
07650,1997-05-19 03:00:00,15,1014.2,-1.1,67,9,20000,14.816,,,100,,,,,,,,,,,wg-a,,,,AAXX 19034 07650 12/70 51008 10150 20090 30104 40142 56011 60006 83032 90300=
07650,1997-05-19 06:00:00,16,1014.2,-0,59,8,20000,7.408,,,120,14.6,18.7,,,,,,,,,wg-a,,,,AAXX 19064 07650 12570 71204 10160 20080 30104 40142 55000 60006 81572 90600 333 10187 20146=
07650,1997-05-19 09:00:00,20,1015.1,,64,13,11000,29.632,,,160,,,,,,,,,,,wg-a,,,,AAXX 19094 07650 32761 71616 10200 20130 30113 40151 90900=
07650,1997-05-19 12:00:00,21,1014.8,-0.2,60,13,20000,29.632,,,150,,,,,,,,,,,wg-a,,,,AAXX 19124 07650 12570 /1516 10210 20130 30111 40148 58002 60006 82532 91200=
07650,1997-05-19 15:00:00,22,1012.9,-1.9,60,14,20000,22.224,,,150,,,,,,,,,,,wg-a,,,,AAXX 19154 07650 12570 71512 10220 20140 30092 40129 58019 60006 82502 91500=
07650,1997-05-19 18:00:00,20,1012.4,-0.5,64,13,15000,22.224,,,150,16.1,22.1,,,,,,,,,wg-a,,,,AAXX 19184 07650 12565 71512 10200 20130 30087 40124 58005 60006 85502 91800 333 10221 20161=
07650,1997-05-19 21:00:00,19,1012.8,0.3,68,13,25000,14.816,,,120,,,,,,,,,,,wg-a,,,,AAXX 19214 07650 12/75 41208 10190 20130 30090 40128 53003 60006 82031 92100=
07650,1997-05-20 00:00:00,18,1012.5,-0.3,68,12,25000,18.52,,,120,,,,,,,,,,,wg-a,,,,AAXX 20004 07650 12675 61210 10180 20120 30087 40125 58003 60006 82531 90000=
07650,1997-05-20 03:00:00,17,1010.5,-2,72,12,20000,7.408,,,160,,,,,,,,,,,wg-a,,,,AAXX 20034 07650 12570 71604 10170 20120 30067 40105 56020 60006 83532 90300=
07650,1997-05-20 06:00:00,19,1011.2,0.7,68,13,20000,14.816,,,120,16.8,19.7,,,,,,,,,wg-a,,,,AAXX 20064 07650 12570 71208 10190 20130 30074 40112 51007 60006 81532 90600 333 10197 20168=
07650,1997-05-20 09:00:00,22,1011.4,0.3,60,14,20000,25.928,,,150,,,,,,,,,,,wg-a,,,,AAXX 20094 07650 12570 41514 10220 20140 30077 40114 53003 60006 81532 90900=
07650,1997-05-20 12:00:00,22,1010.7,-0.7,57,13,20000,14.816,,,170,,,,,,,,,,,wg-a,,,,AAXX 20124 07650 12570 81708 10220 20130 30070 40107 58007 60006 82506 91200=
07650,1997-05-20 15:00:00,20,1011.1,0.4,73,15,12000,14.816,,,180,,,,,,,,,,,wg-a,,,,AAXX 20154 07650 12462 81808 10200 20150 30074 40111 53004 60006 84802 91500=
07650,1997-05-20 18:00:00,21,1011.3,0.2,64,14,15000,7.408,,,230,18.8,22.6,,,,,,,,,wg-a,,,,AAXX 20184 07650 12565 42304 10210 20140 30076 40113 53002 60006 82302 91800 333 10226 20188=
07650,1997-05-20 21:00:00,17,1013,1.6,82,14,15000,7.408,,,90,,,,,,,,,,,wg-a,,,,AAXX 20214 07650 12/65 30904 10170 20140 30092 40130 51016 60006 80002 92100=
07650,1997-05-21 00:00:00,15,1013.1,0.1,94,14,15000,11.112,,,300,,,,,,,,,,,wg-a,,,,AAXX 21004 07650 12/65 23006 10150 20140 30093 40131 50001 60006 80002 90000=
07650,1997-05-21 03:00:00,12,1012.7,-0.5,82,9,20000,7.408,,,30,,,,,,,,,,,wg-a,,,,AAXX 21034 07650 12/70 30304 10120 20090 30088 40127 56005 60006 81042 90300=
07650,1997-05-21 06:00:00,15,1013.3,0.7,67,9,25000,7.408,,,290,11.3,21.2,,,,,,,,,wg-a,,,,AAXX 21064 07650 12/75 62904 10150 20090 30095 40133 53007 60006 82032 90600 333 10212 20113=
07650,1997-05-21 09:00:00,21,1013.6,0.4,46,9,25000,25.928,,,280,,,,,,,,,,,wg-a,,,,AAXX 21094 07650 12/75 52814 10210 20090 30099 40136 51004 60006 80002 90900=
07650,1997-05-21 12:00:00,23,1012.7,-0.9,36,7,25000,22.224,,,270,,,,,,,,,,,wg-a,,,,AAXX 21124 07650 12575 /2712 10230 20070 30090 40127 58009 60006 81132 91200=
07650,1997-05-21 15:00:00,24,1010.8,-1.9,31,6,25000,29.632,,,280,,,,,,,,,,,wg-a,,,,AAXX 21154 07650 12575 32816 10240 20060 30071 40108 56019 60006 83102 91500=
07650,1997-05-21 18:00:00,22,1011.6,0.8,46,10,25000,11.112,,,280,15.4,25,,,,,,,,,wg-a,,,,AAXX 21184 07650 12575 52806 10220 20100 30079 40116 53008 60006 84202 91800 333 10250 20154=
07650,1997-05-21 21:00:00,19,1013.2,1.5,52,9,20000,29.632,,,300,,,,,,,,,,,wg-a,,,,AAXX 21214 07650 12670 23016 10190 20090 30094 40132 52015 60006 81502 92100=
07650,1997-05-22 00:00:00,16,1013.6,0.4,59,8,20000,22.224,,,310,,,,,,,,,,,wg-a,,,,AAXX 22004 07650 12/70 03112 10160 20080 30098 40136 50004 60006 80000 90000=
07650,1997-05-22 03:00:00,15,1013.1,-0.5,67,9,20000,25.928,,,310,,,,,,,,,,,wg-a,,,,AAXX 22034 07650 12/70 03114 10150 20090 30093 40131 56005 60006 80000 90300=
07650,1997-05-22 06:00:00,16,1013.8,0.7,68,10,500,29.632,,,300,,,,,,,,,,,wg-a,,,,AAXX 22064 07650 12/00 13016 10160 20100 30100 40138 51007 60006 80001 90600=
07650,1997-05-22 09:00:00,20,1013.8,0.1,49,9,50000,31.484,,,300,,,,,,,,,,,wg-a,,,,AAXX 22094 07650 12584 /3017 10200 20090 30101 40138 51001 60006 81101 90900=
07650,1997-05-22 12:00:00,23,1013.3,-0.5,41,9,50000,35.188,,,280,,,,,,,,,,,wg-a,,,,AAXX 22124 07650 12684 /2819 10230 20090 30096 40133 58005 60006 81101 91200=
07650,1997-05-22 18:00:00,21,1012.3,-0.2,53,11,40000,25.928,,,240,16.5,24.8,,,,,,,,,wg-a,,,,AAXX 22184 07650 12682 /2414 10210 20110 30086 40123 56002 60006 81401 91800 333 10248 20165=
07650,1997-05-22 21:00:00,18,1014.3,1.9,68,12,25000,25.928,,,240,,,,,,,,,,,wg-a,,,,AAXX 22214 07650 12/75 22414 10180 20120 30105 40143 51019 60006 80002 92100=
07650,1997-05-23 00:00:00,17,1014.8,0.5,72,12,25000,11.112,,,240,,,,,,,,,,,wg-a,,,,AAXX 23004 07650 12/75 12406 10170 20120 30110 40148 51005 60006 80001 90000=
07650,1997-05-23 03:00:00,15,1014,-0.8,82,12,25000,11.112,,,100,,,,,,,,,,,wg-a,,,,AAXX 23034 07650 12/75 31006 10150 20120 30102 40140 56008 60006 80001 90300=
07650,1997-05-23 06:00:00,17,1014.5,0.5,82,14,15000,7.408,,,90,14.1,21.1,,,,,,,,,wg-a,,,,AAXX 23064 07650 12465 30904 10170 20140 30107 40145 53005 60006 81501 90600 333 10211 20141=
07650,1997-05-23 09:00:00,22,1015.3,0.9,50,11,25000,14.816,,,180,,,,,,,,,,,wg-a,,,,AAXX 23094 07650 12575 61808 10220 20110 30116 40153 53009 60006 81131 90900=
07650,1997-05-23 12:00:00,23,1015.7,0.4,41,9,25000,22.224,,,160,,,,,,,,,,,wg-a,,,,AAXX 23124 07650 12575 51612 10230 20090 30120 40157 50004 60006 81131 91200=
07650,1997-05-23 15:00:00,22,1014.8,-0.9,57,13,500,29.632,,,180,,,,,,,,,,,wg-a,,,,AAXX 23154 07650 12500 /1816 10220 20130 30111 40148 58009 60006 81101 91500=
07650,1997-05-23 18:00:00,20,1015.2,0.3,64,13,10000,18.52,,,150,16.6,23.3,,,,,,,,,wg-a,,,,AAXX 23184 07650 12/60 /1510 10200 20130 30114 40152 53003 60006 91800 333 10233 20166=
07650,1997-05-24 00:00:00,17,1016.5,0.2,72,12,20000,3.704,,,90,,,,,,,,,,,wg-a,,,,AAXX 24004 07650 12/70 40902 10170 20120 30127 40165 51002 60006 82031 90000=
07650,1997-05-24 03:00:00,16,1015.9,-0.6,77,12,20000,3.704,,,80,,,,,,,,,,,wg-a,,,,AAXX 24034 07650 12/70 40802 10160 20120 30121 40159 57006 60006 82031 90300=
07650,1997-05-24 06:00:00,17,1016.3,0.4,72,12,15000,11.112,,,90,15.2,20.2,,,,,,,,,wg-a,,,,AAXX 24064 07650 12/65 50906 10170 20120 30125 40163 53004 60006 82032 90600 333 10202 20152=
07650,1997-05-24 09:00:00,23,1016.8,0.6,53,13,20000,14.816,,,240,,,,,,,,,,,wg-a,,,,AAXX 24094 07650 12/70 42408 10230 20130 30131 40168 51006 60006 80002 90900=
07650,1997-05-24 12:00:00,24,1016.5,-0.3,36,8,500,22.224,,,200,,,,,,,,,,,wg-a,,,,AAXX 24124 07650 12700 62012 10240 20080 30128 40165 57003 60006 81132 91200=
07650,1997-05-24 15:00:00,24,1016.7,0.2,34,7,500,18.52,,,210,,,,,,,,,,,wg-a,,,,AAXX 24154 07650 12/00 72110 10240 20070 30130 40167 50002 60006 80002 91500=
07650,1997-05-24 18:00:00,21,1016.8,0.1,43,8,25000,11.112,,,200,17.2,24.9,,,,,,,,,wg-a,,,,AAXX 24184 07650 12/75 72006 10210 20080 30131 40168 53001 60006 80002 91800 333 10249 20172=
07650,1997-05-24 21:00:00,18,1018,1.1,52,8,20000,7.408,,,180,,,,,,,,,,,wg-a,,,,AAXX 24214 07650 12/70 31804 10180 20080 30142 40180 53011 60006 80002 92100=
07650,1997-05-25 00:00:00,16,1017.6,-0.4,59,8,20000,7.408,,,130,,,,,,,,,,,wg-a,,,,AAXX 25004 07650 12/70 21304 10160 20080 30138 40176 55004 60006 82030 90000=
07650,1997-05-25 03:00:00,16,1017.5,-0.1,72,11,25000,3.704,,,150,,,,,,,,,,,wg-a,,,,AAXX 25034 07650 12/75 51502 10160 20110 30137 40175 55001 60006 85032 90300=
07650,1997-05-25 06:00:00,18,1018.1,0.6,64,11,500,3.704,,,100,16,21.3,,,,,,,,,wg-a,,,,AAXX 25064 07650 12800 71002 10180 20110 30143 40181 50006 60006 8353/ 90600 333 10213 20160=
07650,1997-05-25 09:00:00,23,1018.8,0.8,50,12,25000,7.408,,,310,,,,,,,,,,,wg-a,,,,AAXX 25094 07650 12875 63104 10230 20120 30151 40188 51008 60006 81532 90900=
07650,1997-05-25 12:00:00,25,1018.3,-0.5,44,12,500,14.816,,,270,,,,,,,,,,,wg-a,,,,AAXX 25124 07650 12700 72708 10250 20120 30146 40183 56005 60006 81536 91200=
07650,1997-05-25 15:00:00,23,1018,-0.3,53,13,500,18.52,,,250,,,,,,,,,,,wg-a,,,,AAXX 25154 07650 12/00 72510 10230 20130 30143 40180 55003 60006 83036 91500=
07650,1997-05-25 18:00:00,22,1018.4,0.4,65,15,500,7.408,,,220,18.3,25.3,,,,,,,,,wg-a,,,,AAXX 25184 07650 12600 72204 10220 20150 30147 40184 51004 60006 83532 91800 333 10253 20183=
07650,1997-05-25 21:00:00,20,1018.9,0.4,68,14,20000,3.704,,,220,,,,,,,,,,,wg-a,,,,AAXX 25214 07650 12/70 62202 10200 20140 30151 40189 53004 60006 83032 92100=
07650,1997-05-26 00:00:00,20,1018.9,0,64,13,20000,3.704,,,150,,,,,,,,,,,wg-a,,,,AAXX 26004 07650 12670 71502 10200 20130 30151 40189 50000 60006 83532 90000=
07650,1997-05-26 06:00:00,20,1018.5,0.3,68,14,25000,3.704,,,120,17.2,21.6,,,,,,,,,wg-a,,,,AAXX 26064 07650 12/75 11202 10200 20140 30147 40185 51003 60006 81040 90600 333 10216 20172=
07650,1997-05-26 09:00:00,24,1018.9,0.5,47,12,25000,7.408,,,260,,,,,,,,,,,wg-a,,,,AAXX 26094 07650 12/75 02604 10240 20120 30152 40189 51005 60006 80000 90900=
07650,1997-05-26 12:00:00,28,1017.6,,37,12,20000,22.224,,,240,,,,,,,,,,,wg-a,,,,AAXX 26124 07650 12/70 02412 10280 20120 30139 40176 60006 80000 91200=
07650,1997-05-26 15:00:00,25,1017.1,-0.5,50,14,20000,22.224,,,190,,,,,,,,,,,wg-a,,,,AAXX 26154 07650 12/70 01912 10250 20140 30134 40171 56005 60006 80000 91500=
07650,1997-05-26 18:00:00,22,1016.9,-0.2,65,15,20000,14.816,,,190,20,28,,,,,,,,,wg-a,,,,AAXX 26184 07650 12/70 01908 10220 20150 30132 40169 56002 60006 80000 91800 333 10280 20200=
07650,1997-05-26 21:00:00,19,1017.6,0.6,68,13,20000,7.408,,,160,,,,,,,,,,,wg-a,,,,AAXX 26214 07650 12/70 01604 10190 20130 30138 40176 53006 60006 80000 92100=
07650,1997-05-27 00:00:00,17,1017,-0.6,77,13,20000,7.408,,,140,,,,,,,,,,,wg-a,,,,AAXX 27004 07650 12/70 01404 10170 20130 30132 40170 58006 60006 80000 90000=
07650,1997-05-27 03:00:00,16,1015.8,-1.2,82,13,15000,7.408,,,130,,,,,,,,,,,wg-a,,,,AAXX 27034 07650 12/65 01304 10160 20130 30120 40158 57012 60006 80000 90300=
07650,1997-05-27 06:00:00,18,1015.7,-0.1,83,15,6000,7.408,,,140,14.9,22.1,,,,,,,,,wg-a,,,,AAXX 27064 07650 12/56 /1404 10180 20150 30119 40157 56001 60006 80002 90600 333 10221 20149=
07650,1997-05-27 08:00:00,18,1015.7,-0.1,83,15,6000,7.408,,,140,14.9,22.1,,,,,,,,,wg-a,,,,AAXX 27084 07650 12/56 /1404 10180 20150 30119 40157 56001 60006 80002 90800 333 10221 20149=
07650,1997-05-27 09:00:00,23,1015.4,-0.2,69,17,8000,11.112,,,250,,,,,,,,,,,wg-a,,,,AAXX 27094 07650 12/58 /2506 10230 20170 30117 40154 58002 60006 80002 90900=
07650,1997-05-27 12:00:00,29,1014,-1.3,33,11,12000,14.816,,,240,,,,,,,,,,,wg-a,,,,AAXX 27124 07650 12/62 02408 10290 20110 30104 40140 58013 60006 80000 91200=
07650,1997-05-27 18:00:00,25,1012.4,0.4,39,10,12000,14.816,,,240,18,30.7,,,,,,,,,wg-a,,,,AAXX 27184 07650 12/62 02408 10250 20100 30087 40124 52004 60006 80000 91800 333 10307 20180=
07650,1997-05-28 00:00:00,19,1012.7,-0.8,60,11,12000,11.112,,,130,,,,,,,,,,,wg-a,,,,AAXX 28004 07650 12/62 01306 10190 20110 30089 40127 58008 60006 80000 90000=
07650,1997-05-28 03:00:00,16,1012.1,-0.6,82,13,15000,7.408,,,140,,,,,,,,,,,wg-a,,,,AAXX 28034 07650 12/65 01404 10160 20130 30083 40121 56006 60006 80000 90300=
07650,1997-05-28 06:00:00,19,1011.8,-0.3,64,12,15000,3.704,,,20,15.3,25,,,,,,,,,wg-a,,,,AAXX 28064 07650 12/65 00202 10190 20120 30080 40118 58003 60006 80000 90600 333 10250 20153=
07650,1997-05-28 09:00:00,25,1011.1,-0.6,44,12,20000,29.632,,,310,,,,,,,,,,,wg-a,,,,AAXX 28094 07650 12/70 03116 10250 20120 30074 40111 57006 60006 80000 90900=
07650,1997-05-28 12:00:00,29,1009.6,-1.4,37,13,40000,35.188,,,320,,,,,,,,,,,wg-a,,,,AAXX 28124 07650 12/82 13219 10290 20130 30060 40096 57014 60006 80001 91200=
07650,1997-05-28 18:00:00,26,1009.7,0.7,39,11,40000,31.484,,,320,19.1,30.1,,,,,,,,,wg-a,,,,AAXX 28184 07650 12/82 03217 10260 20110 30060 40097 53007 60006 80000 91800 333 10301 20191=
07650,1997-05-28 21:00:00,21,1013.2,3.5,49,10,25000,7.408,,,30,,,,,,,,,,,wg-a,,,,AAXX 28214 07650 12/75 20304 10210 20100 30095 40132 51035 60006 80002 92100=
07650,1997-05-29 00:00:00,19,1015.5,2.2,64,12,20000,7.408,,,90,,,,,,,,,,,wg-a,,,,AAXX 29004 07650 12/70 10904 10190 20120 30117 40155 51022 60006 80001 90000=
07650,1997-05-29 03:00:00,18,1016.9,1.4,73,13,20000,11.112,,,20,,,,,,,,,,,wg-a,,,,AAXX 29034 07650 12/70 20206 10180 20130 30131 40169 51014 60006 80001 90300=
07650,1997-05-29 06:00:00,22,1018.6,1.8,41,8,20000,11.112,,,90,17.7,26.4,,,,,,,,,wg-a,,,,AAXX 29064 07650 12/70 20906 10220 20080 30149 40186 53018 60006 80001 90600 333 10264 20177=
07650,1997-05-29 09:00:00,25,1019.9,1.3,39,10,10000,18.52,,,250,,,,,,,,,,,wg-a,,,,AAXX 29094 07650 12/60 /2510 10250 20100 30162 40199 51013 60006 90900=
07650,1997-05-29 12:00:00,27,1020.1,0.2,32,9,25000,18.52,,,250,,,,,,,,,,,wg-a,,,,AAXX 29124 07650 12/75 02510 10270 20090 30164 40201 50002 60006 80000 91200=
07650,1997-05-29 15:00:00,26,1019.5,-0.6,32,8,25000,22.224,,,190,,,,,,,,,,,wg-a,,,,AAXX 29154 07650 12/75 01912 10260 20080 30158 40195 58006 60006 80000 91500=
07650,1997-05-29 18:00:00,23,1020.1,0.6,41,9,10000,11.112,,,180,21.9,27.4,,,,,,,,,wg-a,,,,AAXX 29184 07650 12/60 /1806 10230 20090 30164 40201 53006 60006 91800 333 10274 20219=
07650,1997-05-29 21:00:00,20,1021,0.8,49,9,25000,18.52,,,10,,,,,,,,,,,wg-a,,,,AAXX 29214 07650 12/75 00110 10200 20090 30172 40210 53008 60006 80000 92100=
07650,1997-05-30 00:00:00,17,1021.4,0.4,55,8,25000,3.704,,,130,,,,,,,,,,,wg-a,,,,AAXX 30004 07650 12/75 01302 10170 20080 30176 40214 50004 60006 80000 90000=
07650,1997-05-30 03:00:00,15,1020.1,-1.3,59,7,20000,7.408,,,110,,,,,,,,,,,wg-a,,,,AAXX 30034 07650 12/70 01104 10150 20070 30163 40201 58013 60006 80000 90300=
07650,1997-05-30 06:00:00,18,1020.4,0.3,64,11,20000,3.704,,,150,14.5,23.2,,,,,,,,,wg-a,,,,AAXX 30064 07650 12/70 01502 10180 20110 30166 40204 50003 60006 80000 90600 333 10232 20145=
07650,1997-05-30 09:00:00,23,1018.8,-1.5,44,10,25000,11.112,,,240,,,,,,,,,,,wg-a,,,,AAXX 30094 07650 12/75 42406 10230 20100 30151 40188 58015 60006 80002 90900=
07650,1997-05-30 12:00:00,26,1016.6,-2.2,39,11,25000,22.224,,,230,,,,,,,,,,,wg-a,,,,AAXX 30124 07650 12/75 62312 10260 20110 30129 40166 58022 60006 80002 91200=
07650,1997-05-30 15:00:00,27,1014.8,-1.8,37,11,20000,22.224,,,240,,,,,,,,,,,wg-a,,,,AAXX 30154 07650 12/70 62412 10270 20110 30111 40148 56018 60006 80002 91500=
07650,1997-05-30 18:00:00,22,1014.6,-0.2,50,11,20000,14.816,,,180,17.9,27.3,,,,,,,,,wg-a,,,,AAXX 30184 07650 12/70 51808 10220 20110 30109 40146 55002 60006 80002 91800 333 10273 20179=
07650,1997-05-30 21:00:00,20,1015.3,0.6,53,10,20000,11.112,,,160,,,,,,,,,,,wg-a,,,,AAXX 30214 07650 12/70 21606 10200 20100 30115 40153 53006 60006 80001 92100=
07650,1997-05-31 00:00:00,18,1015,-0.3,59,10,20000,11.112,,,110,,,,,,,,,,,wg-a,,,,AAXX 31004 07650 12/70 01106 10180 20100 30112 40150 58003 60006 80000 90000=
07650,1997-05-31 03:00:00,17,1014.3,-0.7,55,8,20000,7.408,,,70,,,,,,,,,,,wg-a,,,,AAXX 31034 07650 12/70 10704 10170 20080 30105 40143 56007 60006 81030 90300=
07650,1997-05-31 06:00:00,18,1013.6,-0.7,64,11,20000,3.704,,,100,16.6,22.5,,,,,,,,,wg-a,,,,AAXX 31064 07650 12/70 71002 10180 20110 30098 40136 57007 60006 82032 90600 333 10225 20166=
07650,1997-05-31 09:00:00,24,1013.3,-0.2,41,10,10000,7.408,,,290,,,,,,,,,,,wg-a,,,,AAXX 31094 07650 12/60 /2904 10240 20100 30096 40133 58002 60006 90900=
07650,1997-05-31 12:00:00,25,1012.3,-1,30,6,500,22.224,,,200,,,,,,,,,,,wg-a,,,,AAXX 31124 07650 12600 42012 10250 20060 30086 40123 58010 60006 81139 91200=
07650,1997-05-31 15:00:00,24,1011,-1.3,36,8,500,22.224,,,170,,,,,,,,,,,wg-a,,,,AAXX 31154 07650 12/00 61712 10240 20080 30073 40110 58013 60006 80002 91500=
07650,1997-05-31 18:00:00,22,1010.4,-0.6,46,10,20000,18.52,,,170,18,25.8,,,,,,,,,wg-a,,,,AAXX 31184 07650 12/70 71710 10220 20100 30067 40104 56006 60006 82082 91800 333 10258 20180=
07650,1997-06-01 00:00:00,19,1009.8,-1.6,56,10,20000,7.408,,,170,,,,,,,,,,,wg-a,,,,AAXX 01004 07650 12/70 71704 10190 20100 30061 40098 58016 60006 84032 90000=
07650,1997-06-01 03:00:00,19,1008.1,-1.7,64,12,20000,14.816,,,120,,,,,,,,,,,wg-a,,,,AAXX 01034 07650 12670 71208 10190 20120 30044 40081 58017 60006 81572 90300=
07650,1997-06-01 06:00:00,19,1004.9,-3.2,56,10,15000,25.928,,,90,18.2,21.9,,,,,,,,2,wg-a,,,,AAXX 01064 07650 02665 80914 10190 20100 30012 40049 57032 60006 70262 8157/ 90600 333 10219 20182 61000=
07650,1997-06-01 09:00:00,16,1005.5,0.5,82,13,12000,35.188,,53.708,70,,,,9,,,,,,60,wg-a,,,,AAXX 01094 07650 12562 80719 10160 20130 30017 40055 50005 60097 76062 8387/ 90900 333 91029=
07650,1997-06-01 12:00:00,18,1003.5,-1.9,68,12,20000,38.892,,,70,,,,1,,,,,,2,wg-a,,,,AAXX 01124 07650 02570 70721 10180 20120 39998 40035 57019 60096 70262 8487/ 91200 333 60017=
07650,1997-06-01 15:00:00,17,1005.2,1.6,82,14,6000,14.816,,,140,,,,2,,,,,,60,wg-a,,,,AAXX 01154 07650 12556 81408 10170 20140 30014 40052 53016 60027 76062 8587/ 91500=
07650,1997-06-01 18:00:00,18,1005.3,0.2,73,13,20000,18.52,,,120,15.1,19.4,,2,,,,,,,wg-a,,,,AAXX 01184 07650 02570 81210 10180 20130 30016 40053 53002 60006 869// 91800 333 10194 20151 60027=
07650,1997-06-01 21:00:00,17,1006.8,1.4,68,11,15000,25.928,,,90,,,,0,,,,,,60,wg-a,,,,AAXX 01214 07650 12565 80914 10170 20110 30030 40068 53014 60007 76062 8587/ 92100=
07650,1997-06-02 00:00:00,15,1006.8,0,77,11,15000,22.224,,,100,,,,1,,,,,,21,wg-a,,,,AAXX 02004 07650 02665 81012 10150 20110 30030 40068 50000 60016 72162 8557/ 90000 333 60017=
07650,1997-06-02 03:00:00,16,1007.6,0.8,68,10,15000,7.408,,,120,,,,,,,,,,3,wg-a,,,,AAXX 02034 07650 02565 71204 10160 20100 30038 40076 53008 61000 70362 878// 90300 333 ////=
07650,1997-06-02 06:00:00,16,1009.3,1.7,72,11,25000,14.816,,,100,15,18,,,,,14,,,2,wg-a,,,,AAXX 02064 07650 02575 71008 10160 20110 30055 40093 53017 60006 70262 8687/ 90600 333 10180 20150 60144=
07650,1997-06-02 09:00:00,17,1011.4,2.1,68,11,25000,14.816,,,70,,,,,,,,,,21,wg-a,,,,AAXX 02094 07650 02575 80708 10170 20110 30076 40114 51021 61000 72166 888// 90900 333 ////=
07650,1997-06-02 12:00:00,19,1012.7,1.3,64,12,25000,11.112,,,70,,,,,,,,,,,wg-a,,,,AAXX 02124 07650 02575 70706 10190 20120 30089 40127 51013 61000 8587/ 91200 333 ////=
07650,1997-06-02 18:00:00,20,1014.2,0.6,64,13,25000,7.408,,,230,16,21.2,,,,,,,,,wg-a,,,,AAXX 02184 07650 12575 72304 10200 20130 30104 40142 51006 60006 85542 91800 333 10212 20160=
07650,1997-06-02 21:00:00,17,1015.5,1.3,82,14,20000,7.408,,,150,,,,,,,,,,,wg-a,,,,AAXX 02214 07650 12670 /1504 10170 20140 30117 40155 53013 60006 82532 92100=
07650,1997-06-03 00:00:00,15,1015.9,0.4,88,13,20000,3.704,,,100,,,,,,,,,,,wg-a,,,,AAXX 03004 07650 12/70 /1002 10150 20130 30121 40159 51004 60006 90000=
07650,1997-06-03 03:00:00,14,1015.1,-0.8,94,13,20000,3.704,,,150,,,,,,,,,,,wg-a,,,,AAXX 03034 07650 12570 31502 10140 20130 30113 40151 55008 60006 81502 90300=
07650,1997-06-03 06:00:00,17,1015.2,0.1,82,14,11000,3.704,,,210,13.9,19.8,,,,,,,,,wg-a,,,,AAXX 03064 07650 02561 42102 10170 20140 30114 40152 53001 60006 81131 90600 333 10198 20139 61000=
07650,1997-06-03 09:00:00,19,1016.2,1,73,14,12000,11.112,,,260,,,,,,,,,,,wg-a,,,,AAXX 03094 07650 12562 72606 10190 20140 30124 40162 53010 60006 83832 90900=
07650,1997-06-03 12:00:00,22,1016.3,0.2,57,13,12000,14.816,,,280,,,,,,,,,,,wg-a,,,,AAXX 03124 07650 12562 72808 10220 20130 30126 40163 50002 60006 8583/ 91200=
07650,1997-06-03 15:00:00,24,1015.1,-1.2,54,14,18000,22.224,,,240,,,,,,,,,,,wg-a,,,,AAXX 03154 07650 12568 22412 10240 20140 30114 40151 56012 60006 82202 91500=
07650,1997-06-03 18:00:00,22,1014.2,-0.9,65,15,18000,11.112,,,230,16.8,24.1,,,,,,,,,wg-a,,,,AAXX 03184 07650 12/68 42306 10220 20150 30105 40142 57009 60006 80002 91800 333 10241 20168=
07650,1997-06-03 21:00:00,18,1015.6,1.3,88,16,15000,3.704,,,220,,,,,,,,,,,wg-a,,,,AAXX 03214 07650 12465 42202 10180 20160 30118 40156 53013 60006 81501 92100=
07650,1997-06-04 00:00:00,17,1015.7,0.1,88,15,15000,3.704,,,110,,,,,,,,,,,wg-a,,,,AAXX 04004 07650 12365 41102 10170 20150 30119 40157 51001 60006 83602 90000=
07650,1997-06-04 03:00:00,16,1014.2,-1.5,94,15,12000,7.408,,,100,,,,,,,,,,,wg-a,,,,AAXX 04034 07650 12362 21004 10160 20150 30104 40142 58015 60006 81632 90300=
07650,1997-06-04 06:00:00,18,1014.8,0.6,83,15,6000,7.408,,,120,16.2,22.2,,,,,,,,,wg-a,,,,AAXX 04064 07650 02256 21204 10180 20150 30110 40148 53006 60006 81601 90600 333 10222 20162 60004=
07650,1997-06-04 09:00:00,22,1014.3,-0.4,69,16,6000,11.112,,,220,,,,,,,,,,,wg-a,,,,AAXX 04094 07650 12356 72206 10220 20160 30106 40143 58004 60006 83502 90900=
07650,1997-06-04 12:00:00,23,1014.5,0.2,65,16,8000,25.928,,,180,,,,,,,,,,,wg-a,,,,AAXX 04124 07650 12458 71814 10230 20160 30108 40145 53002 60006 82502 91200=
07650,1997-06-04 15:00:00,24,1012.7,-1.8,54,14,11000,18.52,,,130,,,,,,,,,,,wg-a,,,,AAXX 04154 07650 12461 71310 10240 20140 30090 40127 58018 60006 85502 91500=
07650,1997-06-04 18:00:00,21,1011.4,-1.3,73,16,9000,18.52,,,80,18,24.2,,,,,,,,60,wg-a,,,,AAXX 04184 07650 02459 80810 10210 20160 30077 40114 55013 61000 76066 8557/ 91800 333 10242 20180 6000=
07650,1997-06-04 21:00:00,19,1012.7,1.2,88,17,9000,11.112,,,60,,,,0,,,,,,60,wg-a,,,,AAXX 04214 07650 12659 80606 10190 20170 30089 40127 50012 60007 76066 8557/ 92100=
07650,1997-06-05 00:00:00,18,1008.8,-3.9,83,15,12000,35.188,,,70,,,,0,,,,,,60,wg-a,,,,AAXX 05004 07650 02662 80719 10180 20150 30050 40088 58039 60016 76062 8457/ 90000 333 60007=
07650,1997-06-05 03:00:00,19,1006.1,-2.6,73,14,10000,29.632,,53.708,70,,,,,,,,,,21,wg-a,,,,AAXX 05034 07650 02660 80716 10190 20140 30024 40061 56026 61000 72162 8457/ 90300 333 //// 91029=
07650,1997-06-05 06:00:00,18,1005.9,-0.2,83,15,8000,11.112,,,100,17.4,20.8,,,,,,,,61,wg-a,,,,AAXX 05064 07650 02458 81006 10180 20150 30022 40059 58002 61000 76162 8697/ 90600 333 10208 20174 6003=
07650,1997-06-05 09:00:00,17,1005.5,-0.4,94,16,500,3.704,,,80,,,,9,,,,,,63,wg-a,,,,AAXX 05094 07650 12400 80802 10170 20160 30018 40055 58004 60097 76366 8587/ 90900=
07650,1997-06-05 12:00:00,17,1005.7,0.1,88,15,6000,31.484,,53.708,140,,,,14,,,,,,61,wg-a,,,,AAXX 05124 07650 02356 81417 10170 20150 30019 40057 53001 60236 76166 8427/ 91200 333 60147 91029=
07650,1997-06-05 18:00:00,20,1006.4,0.7,78,16,12000,18.52,,,130,16.7,20.3,,0,,,,,,1,wg-a,,,,AAXX 05184 07650 02462 61310 10200 20160 30027 40064 53007 60006 70186 84230 91800 333 10203 20167 60007=
07650,1997-06-06 00:00:00,19,1009.1,0.7,83,16,15000,7.408,,,110,,,,,,,,,,,wg-a,,,,AAXX 06004 07650 12465 61104 10190 20160 30054 40091 51007 60006 85501 90000=
07650,1997-06-06 06:00:00,19,1011,1.6,83,16,12000,11.112,,,50,17.2,20.1,,,,,23,,,,wg-a,,,,AAXX 06064 07650 02562 70506 10190 20160 30073 40110 53016 60006 83501 90600 333 10201 20172 60234=
07650,1997-06-06 09:00:00,23,1012.7,1.7,57,14,10000,11.112,,,150,,,,,,,,,,,wg-a,,,,AAXX 06094 07650 12560 71506 10230 20140 30090 40127 51017 60006 83502 90900=
07650,1997-06-06 12:00:00,26,1012.5,-0.2,51,15,20000,14.816,,,180,,,,,,,,,,,wg-a,,,,AAXX 06124 07650 12570 51808 10260 20150 30088 40125 58002 60006 82102 91200=
07650,1997-06-06 15:00:00,25,1012,-0.5,50,14,20000,18.52,,,200,,,,,,,,,,,wg-a,,,,AAXX 06154 07650 12570 /2010 10250 20140 30083 40120 57005 60006 81102 91500=
07650,1997-06-06 18:00:00,22,1012.5,0.5,69,16,20000,18.52,,,180,18.9,26.2,,,,,,,,,wg-a,,,,AAXX 06184 07650 12570 /1810 10220 20160 30088 40125 51005 60006 81100 91800 333 10262 20189=
07650,1997-06-07 00:00:00,18,1013.8,0,88,16,20000,7.408,,,130,,,,,,,,,,,wg-a,,,,AAXX 07004 07650 12/70 01304 10180 20160 30100 40138 50000 60006 80000 90000=
07650,1997-06-07 03:00:00,17,1013.4,-0.4,88,15,20000,3.704,,,140,,,,,,,,,,,wg-a,,,,AAXX 07034 07650 12/70 11402 10170 20150 30096 40134 55004 60006 80001 90300=
07650,1997-06-07 06:00:00,19,1013.3,-0,83,16,20000,11.112,,,80,16.8,22.1,,,,,,,,,wg-a,,,,AAXX 07064 07650 12/70 50806 10190 20160 30095 40133 54000 60006 81032 90600 333 10221 20168=
07650,1997-06-07 12:00:00,24,1014.5,0.3,57,15,500,18.52,,,160,,,,,,,,,,,wg-a,,,,AAXX 07124 07650 12600 71610 10240 20150 30108 40145 51003 60006 81232 91200=
07650,1997-06-07 15:00:00,26,1013.8,-0.7,42,12,500,22.224,,,140,,,,,,,,,,,wg-a,,,,AAXX 07154 07650 12600 /1412 10260 20120 30101 40138 56007 60006 81132 91500=
07650,1997-06-07 18:00:00,24,1013.6,-0.2,50,13,500,18.52,,,180,19.2,26.3,,,,,,,,,wg-a,,,,AAXX 07184 07650 12600 71810 10240 20130 30099 40136 55002 60006 81132 91800 333 10263 20192=
07650,1997-06-07 21:00:00,21,1013.9,0.3,64,14,35000,22.224,,,100,,,,,,,,,,,wg-a,,,,AAXX 07214 07650 12/81 51012 10210 20140 30102 40139 51003 60006 82032 92100=
07650,1997-06-08 00:00:00,21,1013.8,-0.1,60,13,35000,18.52,,,120,,,,,,,,,,,wg-a,,,,AAXX 08004 07650 12/81 51210 10210 20130 30101 40138 58001 60006 82032 90000=
07650,1997-06-08 03:00:00,19,1014.8,0.9,73,14,500,7.408,,,90,,,,,,,,,,,wg-a,,,,AAXX 08034 07650 12/00 30904 10190 20140 30110 40148 50009 60006 81031 90300=
07650,1997-06-08 06:00:00,21,1015.4,0.7,73,16,20000,11.112,,,80,18.7,24.3,,,,,,,,,wg-a,,,,AAXX 08064 07650 12570 30806 10210 20160 30117 40154 53007 60006 82531 90600 333 10243 20187=
07650,1997-06-08 12:00:00,27,1016.4,0.1,58,18,25000,14.816,,,250,,,,,,,,,,,wg-a,,,,AAXX 08124 07650 12575 /2508 10270 20180 30127 40164 51001 60006 81201 91200=
07650,1997-06-08 15:00:00,25,1016.6,0.2,65,18,25000,22.224,,,190,,,,,,,,,,,wg-a,,,,AAXX 08154 07650 12575 41912 10250 20180 30129 40166 52002 60006 81202 91500=
07650,1997-06-08 18:00:00,21,1017.7,1.1,78,17,20000,18.52,,,180,20.7,27.1,,,,,,,,,wg-a,,,,AAXX 08184 07650 12470 /1810 10210 20170 30140 40177 51011 60006 81401 91800 333 10271 20207=
07650,1997-06-09 00:00:00,18,1019.6,0,88,16,500,0,,,0,,,,,,,,,,,wg-a,,,,AAXX 09004 07650 12200 70000 10180 20160 30158 40196 50000 60006 876// 90000=
07650,1997-06-09 03:00:00,18,1019,-0.6,94,17,800,3.704,,,90,,,,,,,,,,45,wg-a,,,,AAXX 09034 07650 12/08 90902 10180 20170 30152 40190 56006 60006 74542 89/// 90300=
07650,1997-06-09 06:00:00,18,1020.5,1.5,94,17,2000,11.112,,,180,17.1,20.9,,,,,,,,10,wg-a,,,,AAXX 09064 07650 12220 71806 10180 20170 30167 40205 53015 60006 71042 876// 90600 333 10209 20171=
07650,1997-06-09 09:00:00,23,1021.5,1.1,73,18,6000,14.816,,,170,,,,,,,,,,,wg-a,,,,AAXX 09094 07650 12456 /1708 10230 20180 30178 40215 51011 60006 86600 90900=
07650,1997-06-09 12:00:00,26,1021,-0.5,65,19,10000,14.816,,,290,,,,,,,,,,,wg-a,,,,AAXX 09124 07650 12560 22908 10260 20190 30173 40210 58005 60006 81501 91200=
07650,1997-06-09 15:00:00,27,1019.4,-1.6,62,19,10000,11.112,,,270,,,,,,,,,,,wg-a,,,,AAXX 09154 07650 12560 72706 10270 20190 30157 40194 58016 60006 81102 91500=
07650,1997-06-09 18:00:00,23,1019.8,0.4,73,18,11000,14.816,,,180,18.3,28,,,,,,,,,wg-a,,,,AAXX 09184 07650 12/61 /1808 10230 20180 30161 40198 53004 60006 91800 333 10280 20183=
07650,1997-06-09 21:00:00,20,1020.3,0.4,88,18,12000,3.704,,,190,,,,,,,,,,,wg-a,,,,AAXX 09214 07650 12/62 31902 10200 20180 30165 40203 52004 60006 80002 92100=
07650,1997-06-10 00:00:00,19,1019,-1.3,88,17,12000,7.408,,,360,,,,,,,,,,,wg-a,,,,AAXX 10004 07650 12/62 23604 10190 20170 30152 40190 58013 60006 80002 90000=
07650,1997-06-10 06:00:00,22,1017.9,0.5,78,18,10000,0,,,0,18.1,22.7,,,,,,,,,wg-a,,,,AAXX 10064 07650 12/60 50000 10220 20180 30142 40179 51005 60006 84081 90600 333 10227 20181=
07650,1997-06-10 09:00:00,25,1016.6,-1.3,69,19,12000,11.112,,,270,,,,,,,,,,,wg-a,,,,AAXX 10094 07650 12662 /2706 10250 20190 30129 40166 58013 60006 81182 90900=
07650,1997-06-10 12:00:00,28,1015.1,-1.4,55,18,12000,11.112,,,270,,,,,,,,,,,wg-a,,,,AAXX 10124 07650 12662 72706 10280 20180 30115 40151 56014 60006 81182 91200=
07650,1997-06-10 18:00:00,27,1013.8,-0.4,48,15,15000,18.52,,,170,21.5,32.1,,,,,,,,,wg-a,,,,AAXX 10184 07650 12565 /1710 10270 20150 30101 40138 55004 60006 81182 91800 333 10321 20215=
07650,1997-06-10 21:00:00,23,1012.9,-0.9,61,15,15000,3.704,,,90,,,,,,,,,,,wg-a,,,,AAXX 10214 07650 12865 30902 10230 20150 30092 40129 58009 60006 81082 92100=
07650,1997-06-11 00:00:00,23,1013.1,0.2,57,14,15000,7.408,,,140,,,,,,,,,,,wg-a,,,,AAXX 11004 07650 12/65 21404 10230 20140 30094 40131 53002 60006 80002 90000=
07650,1997-06-11 03:00:00,25,1010.3,-2.8,44,12,12000,14.816,,,110,,,,,,,,,,,wg-a,,,,AAXX 11034 07650 12/62 31108 10250 20120 30066 40103 58028 60006 80002 90300=
07650,1997-06-11 06:00:00,25,1009.8,-0.5,54,15,15000,11.112,,,350,22,26.9,,,,,,,,,wg-a,,,,AAXX 11064 07650 12/65 73506 10250 20150 30061 40098 58005 60006 83032 90600 333 10269 20220=
07650,1997-06-11 09:00:00,24,1010.9,1.1,74,19,15000,18.52,,,300,,,,,,,,,,,wg-a,,,,AAXX 11094 07650 12/65 43010 10240 20190 30072 40109 50011 60006 83082 90900=
07650,1997-06-11 12:00:00,29,1010.7,-0.1,45,16,10000,18.52,,,160,,,,,,,,,,,wg-a,,,,AAXX 11124 07650 02/60 /1610 10290 20160 30071 40107 55001 61000 91200 333 ////=
07650,1997-06-11 18:00:00,25,1010,0.4,61,17,20000,18.52,,,180,24,30.3,,,,,,,,,wg-a,,,,AAXX 11184 07650 12/70 51810 10250 20170 30063 40100 53004 60006 81031 91800 333 10303 20240=
07650,1997-06-11 21:00:00,22,1011.4,1.4,73,17,20000,0,,,0,,,,,,,,,,,wg-a,,,,AAXX 11214 07650 12/70 40000 10220 20170 30077 40114 51014 60006 81031 92100=
07650,1997-06-12 00:00:00,20,1011.4,-0,83,17,20000,11.112,,,10,,,,,,,,,,,wg-a,,,,AAXX 12004 07650 12/70 30106 10200 20170 30077 40114 54000 60006 80001 90000=
07650,1997-06-12 03:00:00,19,1010.9,-0.5,88,17,20000,3.704,,,150,,,,,,,,,,,wg-a,,,,AAXX 12034 07650 12/70 31502 10190 20170 30072 40109 56005 60006 80001 90300=
07650,1997-06-12 06:00:00,21,1010.9,-0,83,18,15000,3.704,,,150,19.1,24.8,,,,,,,,,wg-a,,,,AAXX 12064 07650 02/65 61502 10210 20180 30072 40109 55000 60006 81032 90600 333 10248 20191 61000=
07650,1997-06-12 09:00:00,24,1010.6,-0.3,74,19,12000,7.408,,,260,,,,,,,,,,,wg-a,,,,AAXX 12094 07650 12562 /2604 10240 20190 30069 40106 58003 60006 81102 90900=
07650,1997-06-12 12:00:00,28,1010,-0.5,45,15,15000,14.816,,,210,,,,,,,,,,,wg-a,,,,AAXX 12124 07650 12565 52108 10280 20150 30064 40100 57005 60006 81102 91200=
07650,1997-06-12 15:00:00,28,1009.1,-0.9,48,16,20000,18.52,,,180,,,,,,,,,,,wg-a,,,,AAXX 12154 07650 12570 /1810 10280 20160 30055 40091 58009 60006 81102 91500=
07650,1997-06-12 18:00:00,24,1009.1,-0.1,65,17,15000,11.112,,,190,20.4,28.5,,,,,,,,,wg-a,,,,AAXX 12184 07650 12565 /1906 10240 20170 30054 40091 55001 60006 81136 91800 333 10285 20204=
07650,1997-06-12 21:00:00,22,1010,0.9,78,18,7000,7.408,,,160,,,,,,,,,,,wg-a,,,,AAXX 12214 07650 12/57 71604 10220 20180 30063 40100 53009 60006 83032 92100=
07650,1997-06-13 00:00:00,21,1009.6,-0.4,83,18,8000,7.408,,,160,,,,,,,,,,,wg-a,,,,AAXX 13004 07650 12458 71604 10210 20180 30059 40096 55004 60006 81632 90000=
07650,1997-06-13 06:00:00,22,1007.5,-1.2,83,19,4000,7.408,,,50,19.9,24.5,,,,,,,,10,wg-a,,,,AAXX 13064 07650 12340 80504 10220 20190 30038 40075 58012 60006 71022 84632 90600 333 10245 20199=
07650,1997-06-13 09:00:00,26,1008.1,0.7,74,21,500,11.112,,,270,,,,,,,,,,,wg-a,,,,AAXX 13094 07650 12/00 /2706 10260 20210 30045 40081 52007 60006 85032 90900=
07650,1997-06-13 12:00:00,27,1008.3,0.2,58,18,8000,22.224,,,190,,,,,,,,,,,wg-a,,,,AAXX 13124 07650 12/58 71912 10270 20180 30047 40083 53002 60006 83032 91200=
07650,1997-06-13 15:00:00,26,1007.8,-0.5,61,18,9000,18.52,,,170,,,,,,,,,,,wg-a,,,,AAXX 13154 07650 12559 71710 10260 20180 30042 40078 58005 60006 81532 91500=
07650,1997-06-13 18:00:00,25,1007.7,-0.2,57,16,11000,11.112,,,170,21.5,26.9,,,,,,,,,wg-a,,,,AAXX 13184 07650 12561 51706 10250 20160 30040 40077 55002 60006 81532 91800 333 10269 20215=
07650,1997-06-14 00:00:00,22,1009.1,0.3,83,19,15000,3.704,,,160,,,,,,,,,,,wg-a,,,,AAXX 14004 07650 12/65 61602 10220 20190 30054 40091 53003 60006 84032 90000=
07650,1997-06-14 03:00:00,21,1008.9,-0.2,83,18,12000,11.112,,,10,,,,,,,,,,,wg-a,,,,AAXX 14034 07650 12362 60106 10210 20180 30052 40089 58002 60006 82632 90300=
07650,1997-06-14 06:00:00,22,1010.2,1.3,83,19,500,7.408,,,310,20.5,25.2,,,,,,,,60,wg-a,,,,AAXX 14064 07650 02300 73104 10220 20190 30065 40102 53013 61000 76062 8557/ 90600 333 10252 20205 6100=
07650,1997-06-14 09:00:00,24,1011.9,1.7,65,17,15000,35.188,,,330,,,,,,,,,,,wg-a,,,,AAXX 14094 07650 02565 73319 10240 20170 30082 40119 51017 61000 81272 90900 333 ////=
07650,1997-06-14 12:00:00,24,1013.5,1.6,65,17,20000,25.928,,,330,,,,,,,,,,1,wg-a,,,,AAXX 14124 07650 02570 73314 10240 20170 30098 40135 51016 61000 70162 8287/ 91200 333 ////=
07650,1997-06-14 15:00:00,26,1013.2,-0.3,51,15,20000,29.632,,,330,,,,,,,,,,,wg-a,,,,AAXX 14154 07650 12570 33316 10260 20150 30095 40132 55003 60006 81130 91500=
07650,1997-06-14 18:00:00,26,1012.8,-0.4,54,16,25000,29.632,,,300,21.4,27,,,,,,,,,wg-a,,,,AAXX 14184 07650 12575 /3016 10260 20160 30091 40128 55004 60006 81130 91800 333 10270 20214=
07650,1997-06-14 21:00:00,23,1014.3,1.5,61,15,25000,25.928,,,300,,,,,,,,,,,wg-a,,,,AAXX 14214 07650 12675 /3014 10230 20150 30106 40143 53015 60006 81500 92100=
07650,1997-06-15 00:00:00,21,1014.6,0.3,64,14,25000,22.224,,,300,,,,,,,,,,,wg-a,,,,AAXX 15004 07650 12/75 03012 10210 20140 30109 40146 53003 60006 80000 90000=
07650,1997-06-15 06:00:00,20,1015.2,0.2,60,12,500,29.632,,,330,17.9,26.3,,,,,,,,,wg-a,,,,AAXX 15064 07650 02/00 13316 10200 20120 30114 40152 53002 60006 80001 90600 333 10263 20179 61000=
07650,1997-06-15 09:00:00,24,1015.6,0.5,47,12,50000,25.928,,,310,,,,,,,,,,,wg-a,,,,AAXX 15094 07650 12/84 03114 10240 20120 30119 40156 51005 60006 80000 90900=
07650,1997-06-15 12:00:00,27,1015.2,-0.4,39,12,50000,25.928,,,260,,,,,,,,,,,wg-a,,,,AAXX 15124 07650 12/84 02614 10270 20120 30115 40152 58004 60006 80000 91200=
07650,1997-06-15 18:00:00,26,1014.5,0.2,51,15,40000,22.224,,,240,19.9,29.3,,,,,,,,,wg-a,,,,AAXX 15184 07650 12/82 42412 10260 20150 30108 40145 53002 60006 81032 91800 333 10293 20199=
07650,1997-06-15 21:00:00,22,1017,2.5,65,15,20000,18.52,,,230,,,,,,,,,,,wg-a,,,,AAXX 15214 07650 12/70 52310 10220 20150 30133 40170 53025 60006 83032 92100=
07650,1997-06-16 00:00:00,21,1016.6,-0.4,64,14,20000,3.704,,,200,,,,,,,,,,,wg-a,,,,AAXX 16004 07650 12/70 42002 10210 20140 30129 40166 55004 60006 83032 90000=
07650,1997-06-16 03:00:00,20,1015.1,-1.6,73,15,20000,3.704,,,90,,,,,,,,,,,wg-a,,,,AAXX 16034 07650 12/70 40902 10200 20150 30113 40151 57016 60006 83032 90300=
07650,1997-06-16 06:00:00,21,1014.7,-0.3,64,14,25000,3.704,,,130,18.8,25.4,,,,,,,,,wg-a,,,,AAXX 16064 07650 12575 41302 10210 20140 30110 40147 56003 60006 81281 90600 333 10254 20188=
07650,1997-06-16 09:00:00,26,1014.9,0.2,45,13,500,11.112,,,260,,,,,,,,,,,wg-a,,,,AAXX 16094 07650 12700 62606 10260 20130 30112 40149 50002 60006 83532 90900=
07650,1997-06-16 12:00:00,26,1015,0.1,45,13,500,25.928,,,180,,,,0,,,,,,1,wg-a,,,,AAXX 16124 07650 02500 51814 10260 20130 30113 40150 51001 60016 70181 81832 91200 333 60007=
07650,1997-06-16 15:00:00,26,1014.4,-0.6,51,15,500,22.224,,,150,,,,,,,,,,,wg-a,,,,AAXX 16154 07650 12600 61512 10260 20150 30107 40144 58006 60006 83532 91500=
07650,1997-06-16 18:00:00,23,1013.5,-0.9,65,16,500,14.816,,,160,21.2,26.9,,,,,,,,1,wg-a,,,,AAXX 16184 07650 02500 51608 10230 20160 30098 40135 55009 60006 70182 83863 91800 333 10269 20212 61000=
07650,1997-06-17 00:00:00,20,1015.4,2,88,18,20000,3.704,,,290,,,,,,,,,,,wg-a,,,,AAXX 17004 07650 12470 42902 10200 20180 30117 40154 51020 60006 82802 90000=
07650,1997-06-17 03:00:00,18,1014.9,-0.6,88,16,20000,11.112,,,330,,,,,,,,,,,wg-a,,,,AAXX 17034 07650 12570 23306 10180 20160 30111 40149 56006 60006 81502 90300=
07650,1997-06-17 06:00:00,19,1014.8,-0.1,83,16,15000,7.408,,,310,17.5,22.9,,,,,,,,,wg-a,,,,AAXX 17064 07650 02565 /3104 10190 20160 30110 40148 55001 60006 81502 90600 333 10229 20175 60004=
07650,1997-06-17 09:00:00,24,1014.8,0.1,65,17,10000,11.112,,,260,,,,,,,,,,,wg-a,,,,AAXX 17094 07650 12/60 32606 10240 20170 30111 40148 50001 60006 80002 90900=
07650,1997-06-17 12:00:00,26,1014.8,0,51,15,20000,25.928,,,290,,,,,,,,,,,wg-a,,,,AAXX 17124 07650 12670 /2914 10260 20150 30111 40148 50000 60006 82882 91200=
07650,1997-06-17 15:00:00,28,1014,-0.7,32,10,25000,22.224,,,280,,,,,,,,,,,wg-a,,,,AAXX 17154 07650 12/75 52812 10280 20100 30104 40140 58007 60006 80002 91500=
07650,1997-06-17 18:00:00,27,1013.6,-0.5,37,11,25000,22.224,,,300,19.2,28.6,,,,,,,,,wg-a,,,,AAXX 17184 07650 12/75 33012 10270 20110 30099 40136 56005 60006 80002 91800 333 10286 20192=
07650,1997-06-17 21:00:00,23,1014.4,0.8,53,13,25000,14.816,,,310,,,,,,,,,,,wg-a,,,,AAXX 17214 07650 12/75 43108 10230 20130 30107 40144 53008 60006 81032 92100=
07650,1997-06-18 00:00:00,20,1015,0.5,60,12,25000,11.112,,,340,,,,,,,,,,,wg-a,,,,AAXX 18004 07650 12/75 23406 10200 20120 30112 40150 51005 60006 80002 90000=
07650,1997-06-18 03:00:00,19,1013.7,-1.3,64,12,25000,14.816,,,340,,,,,,,,,,,wg-a,,,,AAXX 18034 07650 12/75 33408 10190 20120 30099 40137 58013 60006 80002 90300=
07650,1997-06-18 06:00:00,19,1014.2,0.5,68,13,40000,22.224,,,330,17.8,26.9,,,,,,,,,wg-a,,,,AAXX 18064 07650 12/82 33312 10190 20130 30104 40142 52005 60006 81032 90600 333 10269 20178=
07650,1997-06-18 09:00:00,25,1013.3,-0.8,44,12,40000,29.632,,,310,,,,,,,,,,,wg-a,,,,AAXX 18094 07650 12/82 23116 10250 20120 30096 40133 58008 60006 81032 90900=
07650,1997-06-18 12:00:00,27,1012.7,-0.6,39,12,40000,31.484,,,320,,,,,,,,,,,wg-a,,,,AAXX 18124 07650 12/82 33217 10270 20120 30090 40127 58006 60006 80002 91200=
07650,1997-06-18 15:00:00,29,1011.6,-1,29,9,40000,31.484,,,310,,,,,,,,,,,wg-a,,,,AAXX 18154 07650 12682 43117 10290 20090 30080 40116 58010 60006 81102 91500=
07650,1997-06-18 18:00:00,26,1010.2,-1.5,32,8,40000,38.892,,,330,19.1,28.6,,,,,,,,,wg-a,,,,AAXX 18184 07650 12782 63321 10260 20080 30065 40102 56015 60006 81532 91800 333 10286 20191=
07650,1997-06-18 21:00:00,23,1009.9,-0.3,47,11,25000,22.224,,,290,,,,,,,,,,,wg-a,,,,AAXX 18214 07650 12675 /2912 10230 20110 30062 40099 55003 60006 81532 92100=
07650,1997-06-19 00:00:00,22,1010.5,0.6,50,11,25000,14.816,,,290,,,,,,,,,,,wg-a,,,,AAXX 19004 07650 12675 72908 10220 20110 30068 40105 53006 60006 81572 90000=
07650,1997-06-19 03:00:00,19,1007.8,-2.7,64,12,20000,7.408,,,10,,,,,,,,,,60,wg-a,,,,AAXX 19034 07650 02670 70104 10190 20120 30041 40078 56027 61000 76086 81572 90300 333 ////=
07650,1997-06-19 06:00:00,19,1007.9,0.1,68,13,20000,11.112,,,10,18.6,26.3,,,,,,,,2,wg-a,,,,AAXX 19064 07650 02670 70106 10190 20130 30042 40079 53001 60006 70286 83572 90600 333 10263 20186 61000=
07650,1997-06-19 12:00:00,25,1007.1,-0.8,47,13,500,22.224,,,270,,,,0,,,,,,3,wg-a,,,,AAXX 19124 07650 02500 32712 10250 20130 30034 40071 58008 60006 70361 82131 91200 333 60007=
07650,1997-06-19 15:00:00,26,1006.5,-0.5,45,13,40000,22.224,,,230,,,,,,,,,,,wg-a,,,,AAXX 19154 07650 12582 32312 10260 20130 30029 40065 55005 60006 82232 91500=
07650,1997-06-19 18:00:00,26,1006.9,0.3,39,11,40000,29.632,,,320,18.9,27.4,,,,,,,,,wg-a,,,,AAXX 19184 07650 12582 /3216 10260 20110 30032 40069 53003 60006 81102 91800 333 10274 20189=
07650,1997-06-19 21:00:00,22,1009,2.1,50,11,500,25.928,,,300,,,,,,,,,,,wg-a,,,,AAXX 19214 07650 12/00 /3014 10220 20110 30053 40090 51021 60006 81042 92100=
07650,1997-06-20 00:00:00,20,1009.7,0.7,53,10,500,25.928,,,310,,,,,,,,,,,wg-a,,,,AAXX 20004 07650 12/00 43114 10200 20100 30060 40097 51007 60006 82032 90000=
07650,1997-06-20 03:00:00,18,1009.9,0.1,64,11,500,25.928,,,300,,,,,,,,,,,wg-a,,,,AAXX 20034 07650 12/00 23014 10180 20110 30061 40099 50001 60006 81032 90300=
07650,1997-06-20 06:00:00,18,1010.7,0.8,64,11,20000,31.484,,,300,17.2,25.8,,,,,,,,,wg-a,,,,AAXX 20064 07650 02570 43017 10180 20110 30069 40107 53008 60006 81132 90600 333 10258 20172 60004=
07650,1997-06-20 09:00:00,23,1010.8,0.2,44,10,40000,25.928,,,280,,,,,,,,,,,wg-a,,,,AAXX 20094 07650 12582 /2814 10230 20100 30071 40108 50002 60006 81102 90900=
07650,1997-06-20 12:00:00,24,1010.4,-0.4,47,12,50000,22.224,,,250,,,,,,,,,,,wg-a,,,,AAXX 20124 07650 12684 /2512 10240 20120 30067 40104 58004 60006 81202 91200=
07650,1997-06-20 15:00:00,25,1009.4,-1,34,8,50000,29.632,,,240,,,,,,,,,,,wg-a,,,,AAXX 20154 07650 12684 32416 10250 20080 30057 40094 56010 60006 81102 91500=
07650,1997-06-20 18:00:00,23,1009.3,-0.1,44,10,40000,14.816,,,220,18.3,25.4,,,,,,,,,wg-a,,,,AAXX 20184 07650 12/82 /2208 10230 20100 30056 40093 58001 60006 81032 91800 333 10254 20183=
07650,1997-06-20 21:00:00,19,1010.4,1.1,68,13,500,11.112,,,180,,,,,,,,,,,wg-a,,,,AAXX 20214 07650 12/00 11806 10190 20130 30067 40104 53011 60006 81042 92100=
07650,1997-06-21 00:00:00,18,1010.2,-0.3,77,14,500,11.112,,,100,,,,,,,,,,,wg-a,,,,AAXX 21004 07650 12600 /1006 10180 20140 30064 40102 58003 60006 81502 90000=
07650,1997-06-21 03:00:00,17,1008.8,-1.4,82,14,20000,11.112,,,80,,,,,,,,,,,wg-a,,,,AAXX 21034 07650 12470 50806 10170 20140 30050 40088 56014 60006 84502 90300=
07650,1997-06-21 06:00:00,19,1008.4,-0.3,78,15,15000,14.816,,,90,16.9,22.7,,,,,,,,,wg-a,,,,AAXX 21064 07650 12465 30908 10190 20150 30047 40084 57003 60006 81502 90600 333 10227 20169=
07650,1997-06-21 09:00:00,23,1008.5,0.1,73,18,15000,25.928,,,150,,,,,,,,,,,wg-a,,,,AAXX 21094 07650 12465 71514 10230 20180 30048 40085 50001 60006 878// 90900=
07650,1997-06-21 12:00:00,25,1008,-0.5,61,17,14000,29.632,,,140,,,,,,,,,,,wg-a,,,,AAXX 21124 07650 12564 51416 10250 20170 30043 40080 58005 60006 84230 91200=
07650,1997-06-21 18:00:00,24,1005.8,-0.5,65,17,15000,25.928,,,140,19.5,26.1,,,,,,,,,wg-a,,,,AAXX 21184 07650 12465 71414 10240 20170 30021 40058 56005 60006 8583/ 91800 333 10261 20195=
07650,1997-06-21 21:00:00,23,1005.7,-0.1,73,18,18000,25.928,,,150,,,,,,,,,,,wg-a,,,,AAXX 21214 07650 12568 71514 10230 20180 30020 40057 56001 60006 8457/ 92100=
07650,1997-06-22 00:00:00,21,1005.2,-0.5,88,19,18000,18.52,,,170,,,,,,,,,,60,wg-a,,,,AAXX 22004 07650 02468 71710 10210 20190 30015 40052 56005 61000 76062 8457/ 90000 333 6100=
07650,1997-06-22 03:00:00,17,1005.7,0.4,77,13,15000,25.928,,,340,,,,,,,,,,,wg-a,,,,AAXX 22034 07650 02465 73414 10170 20130 30019 40057 53004 61000 8487/ 90300 333 ////=
07650,1997-06-22 06:00:00,17,1007.1,1.4,68,11,20000,29.632,,,320,16.4,24.1,,,,,,,,1,wg-a,,,,AAXX 22064 07650 02670 73216 10170 20110 30033 40071 51014 60006 70162 83532 90600 333 10241 20164 61000=
07650,1997-06-22 09:00:00,17,1008.7,1.6,63,10,40000,22.224,,,310,,,,,,,,,,,wg-a,,,,AAXX 22094 07650 12682 /3112 10170 20100 30049 40087 51016 60006 81570 90900=
07650,1997-06-22 12:00:00,19,1009.4,0.7,64,12,50000,29.632,,,290,,,,,,,,,,,wg-a,,,,AAXX 22124 07650 12584 /2916 10190 20120 30056 40094 50007 60006 81270 91200=
07650,1997-06-22 15:00:00,23,1008.6,-0.7,53,13,11000,31.484,,,250,,,,,,,,,,,wg-a,,,,AAXX 22154 07650 12/61 /2517 10230 20130 30049 40086 56007 60006 91500=
07650,1997-06-22 18:00:00,22,1008.9,0.3,50,11,40000,29.632,,,250,16.5,23.4,,,,,,,,,wg-a,,,,AAXX 22184 07650 12582 32516 10220 20110 30052 40089 53003 60006 82270 91800 333 10234 20165=
07650,1997-06-22 21:00:00,19,1011.4,2.4,49,8,25000,50.004,,,290,,,,,,,,,,,wg-a,,,,AAXX 22214 07650 12/75 /2927 10190 20080 30076 40114 53024 60006 81030 92100=
07650,1997-06-23 00:00:00,17,1012.3,0.9,59,9,500,38.892,,,290,,,,,,,,,,,wg-a,,,,AAXX 23004 07650 12/00 12921 10170 20090 30085 40123 51009 60006 81030 90000=
07650,1997-06-23 03:00:00,16,1012.1,-0.2,68,10,25000,38.892,,,290,,,,,,,,,,,wg-a,,,,AAXX 23034 07650 12/75 12921 10160 20100 30083 40121 56002 60006 81030 90300=
07650,1997-06-23 06:00:00,16,1013,0.9,68,10,50000,22.224,,,310,15.1,22.5,,,,,,,,,wg-a,,,,AAXX 23064 07650 12684 /3112 10160 20100 30092 40130 53009 60006 81500 90600 333 10225 20151=
07650,1997-06-23 09:00:00,20,1013.3,0.4,53,10,50000,35.188,,,290,,,,,,,,,,,wg-a,,,,AAXX 23094 07650 12684 /2919 10200 20100 30096 40133 52004 60006 81800 90900=
07650,1997-06-23 12:00:00,23,1013.3,0,41,9,50000,29.632,,,310,,,,,,,,,,,wg-a,,,,AAXX 23124 07650 12684 43116 10230 20090 30096 40133 50000 60006 84100 91200=
07650,1997-06-23 15:00:00,24,1012.7,-0.6,41,10,50000,31.484,,,290,,,,,,,,,,,wg-a,,,,AAXX 23154 07650 12684 32917 10240 20100 30090 40127 56006 60006 83800 91500=
07650,1997-06-23 18:00:00,24,1012.6,-0.1,38,9,75000,25.928,,,330,16.3,25.3,,,,,,,,,wg-a,,,,AAXX 23184 07650 12689 /3314 10240 20090 30089 40126 55001 60006 81100 91800 333 10253 20163=
07650,1997-06-24 00:00:00,17,1015.3,0.6,63,10,40000,35.188,,,300,,,,,,,,,,,wg-a,,,,AAXX 24004 07650 12/82 03019 10170 20100 30115 40153 51006 60006 80000 90000=
07650,1997-06-24 03:00:00,16,1015.3,-0,72,11,35000,31.484,,,300,,,,,,,,,,,wg-a,,,,AAXX 24034 07650 12/81 13017 10160 20110 30115 40153 55000 60006 80002 90300=
07650,1997-06-24 06:00:00,18,1015.5,0.2,64,11,50000,38.892,,,290,15.6,23.5,,,,,,,,,wg-a,,,,AAXX 24064 07650 12684 /2921 10180 20110 30117 40155 52002 60006 81500 90600 333 10235 20156=
07650,1997-06-24 09:00:00,21,1015.1,-0.3,49,10,50000,42.596,,,300,,,,,,,,,,,wg-a,,,,AAXX 24094 07650 12584 /3023 10210 20100 30114 40151 58003 60006 81500 90900=
07650,1997-06-24 12:00:00,25,1013.8,-1.3,39,10,50000,35.188,,64.82,320,,,,,,,,,,,wg-a,,,,AAXX 24124 07650 12584 /3219 10250 20100 30101 40138 58013 60006 81100 91200 333 91035=
07650,1997-06-24 15:00:00,25,1013.2,-0.6,39,10,50000,42.596,,,320,,,,,,,,,,,wg-a,,,,AAXX 24154 07650 12584 /3223 10250 20100 30095 40132 58006 60006 81400 91500=
07650,1997-06-24 18:00:00,23,1012.1,-1.1,36,7,50000,38.892,,61.116,320,17.4,25,,,,,,,,,wg-a,,,,AAXX 24184 07650 12/84 13221 10230 20070 30084 40121 56011 60006 80002 91800 333 10250 20174 91033=
07650,1997-06-24 21:00:00,20,1013.1,0.9,43,7,500,29.632,,,310,,,,,,,,,,,wg-a,,,,AAXX 24214 07650 12/00 23116 10200 20070 30093 40131 53009 60006 82040 92100=
07650,1997-06-25 00:00:00,17,1012.6,-0.5,52,7,500,29.632,,,300,,,,,,,,,,,wg-a,,,,AAXX 25004 07650 12/00 03016 10170 20070 30088 40126 58005 60006 80000 90000=
07650,1997-06-25 03:00:00,15,1012.6,-0,59,7,500,18.52,,,340,,,,,,,,,,,wg-a,,,,AAXX 25034 07650 12/00 03410 10150 20070 30088 40126 55000 60006 80000 90300=
07650,1997-06-25 06:00:00,16,1012.4,-0.2,59,8,40000,3.704,,,350,12.8,23.2,,,,,,,,,wg-a,,,,AAXX 25064 07650 12/82 13502 10160 20080 30086 40124 58002 60006 80001 90600 333 10232 20128=
07650,1997-06-25 09:00:00,20,1011.8,-0.5,49,9,20000,14.816,,,260,,,,,,,,,,,wg-a,,,,AAXX 25094 07650 12/70 32608 10200 20090 30081 40118 58005 60006 80002 90900=
07650,1997-06-25 12:00:00,24,1010.8,-1,34,7,20000,14.816,,,260,,,,,,,,,,,wg-a,,,,AAXX 25124 07650 12570 /2608 10240 20070 30071 40108 58010 60006 81532 91200=
07650,1997-06-25 15:00:00,23,1009.6,-1.2,41,9,20000,22.224,,,240,,,,,,,,,,,wg-a,,,,AAXX 25154 07650 12570 /2412 10230 20090 30059 40096 58012 60006 81532 91500=
07650,1997-06-25 18:00:00,22,1009.1,-0.5,53,12,20000,18.52,,,240,15.7,24.6,,,,,,,,,wg-a,,,,AAXX 25184 07650 12570 72410 10220 20120 30054 40091 56005 60006 81532 91800 333 10246 20157=
07650,1997-06-25 21:00:00,20,1009.3,0.2,68,14,20000,3.704,,,130,,,,,,,,,,,wg-a,,,,AAXX 25214 07650 12570 71302 10200 20140 30056 40093 52002 60006 81532 92100=
07650,1997-06-26 00:00:00,19,1007.8,-1.5,73,14,20000,3.704,,,140,,,,,,,,,,,wg-a,,,,AAXX 26004 07650 12/70 /1402 10190 20140 30041 40078 56015 60006 90000=
07650,1997-06-26 03:00:00,19,1005.8,-2,78,15,18000,7.408,,,90,,,,,,,,,,,wg-a,,,,AAXX 26034 07650 12468 70904 10190 20150 30021 40058 57020 60006 8653/ 90300=
07650,1997-06-26 06:00:00,19,1004.9,-0.9,73,14,11000,11.112,,,80,18.3,21.8,,,,,,,,,wg-a,,,,AAXX 26064 07650 12461 70806 10190 20140 30012 40049 56009 60006 8557/ 90600 333 10218 20183=
07650,1997-06-26 12:00:00,22,1003.3,-0.9,60,14,15000,22.224,,,280,,,,,,,,,,,wg-a,,,,AAXX 26124 07650 12465 72812 10220 20140 39996 40033 56009 60006 8327/ 91200=
07650,1997-06-26 15:00:00,22,1002.4,-0.9,50,11,15000,14.816,,,280,,,,,,,,,,,wg-a,,,,AAXX 26154 07650 12465 72808 10220 20110 39987 40024 58009 60006 878// 91500=
07650,1997-06-26 18:00:00,20,1001.7,-0.7,64,13,20000,14.816,,,250,19,23.4,,,,,,,,21,wg-a,,,,AAXX 26184 07650 02670 72508 10200 20130 39980 40017 56007 61000 72162 8557/ 91800 333 10234 20190 6100=
07650,1997-06-26 21:00:00,19,1002.2,0.5,73,14,18000,7.408,,,280,,,,,,,,,,,wg-a,,,,AAXX 26214 07650 12568 72804 10190 20140 39985 40022 51005 60006 8383/ 92100=
07650,1997-06-27 00:00:00,18,1002,-0.2,83,15,14000,14.816,,,290,,,,,,,,,,60,wg-a,,,,AAXX 27004 07650 02564 82908 10180 20150 39983 40020 55002 61000 76062 8587/ 90000 333 6100=
07650,1997-06-27 03:00:00,16,1001.9,-0.2,82,13,15000,11.112,,,310,,,,2,,,,,,60,wg-a,,,,AAXX 27034 07650 12465 83106 10160 20130 39981 40019 58002 60027 76066 8687/ 90300=
07650,1997-06-27 06:00:00,15,1002.7,0.8,88,13,15000,31.484,,,300,15.3,20.6,,,,,,,,60,wg-a,,,,AAXX 27064 07650 02465 83017 10150 20130 39989 40027 53008 61000 76066 8687/ 90600 333 10206 20153 6003=
07650,1997-06-27 09:00:00,15,1003.4,0.7,82,12,15000,11.112,,,330,,,,0,,,,,,21,wg-a,,,,AAXX 27094 07650 12565 73306 10150 20120 39996 40034 50007 60007 72166 8557/ 90900=
07650,1997-06-27 12:00:00,18,1004,0.7,59,10,20000,11.112,,,290,,,,,,,,,,,wg-a,,,,AAXX 27124 07650 12570 /2906 10180 20100 30003 40040 50007 60006 81132 91200=
07650,1997-06-27 18:00:00,20,1003.9,0.4,56,11,20000,22.224,,,240,14.2,21.1,,,,,,,,,wg-a,,,,AAXX 27184 07650 12570 22412 10200 20110 30002 40039 53004 60006 81132 91800 333 10211 20142=
07650,1997-06-28 00:00:00,15,1006.5,0.7,82,12,20000,7.408,,,120,,,,,,,,,,,wg-a,,,,AAXX 28004 07650 12/70 11204 10150 20120 30027 40065 50007 60006 81030 90000=
07650,1997-06-28 06:00:00,16,1006.4,-0.1,72,11,500,7.408,,,300,12.4,20.4,,,,,,,,,wg-a,,,,AAXX 28064 07650 02500 43004 10160 20110 30026 40064 55001 60006 81532 90600 333 10204 20124 60004=
07650,1997-06-28 09:00:00,19,1007.6,1.3,64,12,40000,11.112,,,260,,,,,,,,,,,wg-a,,,,AAXX 28094 07650 12682 72606 10190 20120 30039 40076 52013 60006 8157/ 90900=
07650,1997-06-28 12:00:00,23,1006.3,-1.3,41,9,500,11.112,,,350,,,,,,,,,,,wg-a,,,,AAXX 28124 07650 12600 73506 10230 20090 30026 40063 58013 60006 81532 91200=
07650,1997-06-28 15:00:00,18,1006.3,-0,77,14,10000,11.112,,,190,,,,1,,,,,,21,wg-a,,,,AAXX 28154 07650 12560 /1906 10180 20140 30026 40063 55000 60017 72166 83872 91500=
07650,1997-06-28 18:00:00,19,1005.2,-1.1,78,15,20000,7.408,,,30,16,25.7,,,,,,,,3,wg-a,,,,AAXX 28184 07650 12570 80304 10190 20150 30015 40052 58011 60006 70362 8387/ 91800 333 10257 20160=
07650,1997-06-28 21:00:00,18,1004.4,-0.8,73,13,12000,29.632,,,100,,,,1,,,,,,63,wg-a,,,,AAXX 28214 07650 12562 81016 10180 20130 30007 40044 58008 60017 76362 8587/ 92100=
07650,1997-06-29 00:00:00,20,1004.9,0.5,73,15,12000,25.928,,,130,,,,,,,,,,2,wg-a,,,,AAXX 29004 07650 02562 71314 10200 20150 30012 40049 53005 60016 70262 82572 90000 333 61000=
07650,1997-06-29 03:00:00,20,1003.6,-1.3,83,17,15000,25.928,,,140,,,,,,,,,,,wg-a,,,,AAXX 29034 07650 12565 51414 10200 20170 39999 40036 56013 60006 84532 90300=
07650,1997-06-29 06:00:00,20,1004.2,0.6,68,14,12000,22.224,,,140,18.1,20.9,,,,,3,,,,wg-a,,,,AAXX 29064 07650 02562 41412 10200 20140 30005 40042 53006 60006 83830 90600 333 10209 20181 60034=
07650,1997-06-29 09:00:00,20,1005,0.8,60,12,15000,29.632,,,180,,,,,,,,,,,wg-a,,,,AAXX 29094 07650 12565 /1816 10200 20120 30013 40050 51008 60006 84800 90900=
07650,1997-06-29 12:00:00,21,1006,1,56,12,25000,18.52,,,190,,,,,,,,,,,wg-a,,,,AAXX 29124 07650 12575 41910 10210 20120 30023 40060 51010 60006 84800 91200=
07650,1997-06-29 15:00:00,21,1006.8,0.8,46,9,20000,18.52,,,200,,,,,,,,,,,wg-a,,,,AAXX 29154 07650 12570 22010 10210 20090 30031 40068 51008 60006 82202 91500=
07650,1997-06-29 18:00:00,19,1007.6,0.8,52,9,500,25.928,,,240,18.4,21.3,,,,,,,,,wg-a,,,,AAXX 29184 07650 12500 32414 10190 20090 30039 40076 51008 60006 82232 91800 333 10213 20184=
07650,1997-06-29 21:00:00,18,1009.3,1.6,64,11,500,35.188,,,250,,,,,,,,,,,wg-a,,,,AAXX 29214 07650 12600 72519 10180 20110 30055 40093 53016 60006 8457/ 92100=
07650,1997-06-30 00:00:00,17,1009.9,0.6,63,10,500,29.632,,,270,,,,,,,,,,1,wg-a,,,,AAXX 30004 07650 02600 42716 10170 20100 30061 40099 51006 61000 70161 82540 90000 333 6100=
07650,1997-06-30 03:00:00,16,1010.3,0.4,72,11,500,25.928,,,270,,,,,,,,,,,wg-a,,,,AAXX 30034 07650 12600 22714 10160 20110 30065 40103 53004 60006 81530 90300=
07650,1997-06-30 06:00:00,17,1011.1,0.8,72,12,35000,3.704,,,290,14.5,19.2,,,,,,,,,wg-a,,,,AAXX 30064 07650 02581 22902 10170 20120 30073 40111 53008 60006 81541 90600 333 10192 20145 61000=
07650,1997-06-30 09:00:00,20,1011.5,0.5,56,11,20000,22.224,,,250,,,,,,,,,,,wg-a,,,,AAXX 30094 07650 12570 32512 10200 20110 30078 40115 51005 60006 83102 90900=
07650,1997-06-30 12:00:00,21,1011.8,0.3,49,10,20000,22.224,,,240,,,,,,,,,,,wg-a,,,,AAXX 30124 07650 12570 22412 10210 20100 30081 40118 51003 60006 82202 91200=
07650,1997-06-30 15:00:00,22,1011.4,-0.4,43,9,500,29.632,,,250,,,,,,,,,,,wg-a,,,,AAXX 30154 07650 12500 22516 10220 20090 30077 40114 57004 60006 81202 91500=
07650,1997-06-30 18:00:00,20,1012.3,0.9,64,13,500,18.52,,,210,16.6,22.6,,,,,,,,,wg-a,,,,AAXX 30184 07650 12500 72110 10200 20130 30086 40123 53009 60006 8387/ 91800 333 10226 20166=
07650,1997-06-30 21:00:00,18,1013.5,1.1,77,14,15000,3.704,,,150,,,,,,,,,,,wg-a,,,,AAXX 30214 07650 12565 /1502 10180 20140 30097 40135 53011 60006 81530 92100=
07650,1997-07-01 00:00:00,17,1013.5,-0,82,14,12000,7.408,,,140,,,,,,,,,,,wg-a,,,,AAXX 01004 07650 12/62 11404 10170 20140 30097 40135 54000 60006 80002 90000=
07650,1997-07-01 03:00:00,16,1013.2,-0.3,77,12,15000,7.408,,,330,,,,,,,,,,,wg-a,,,,AAXX 01034 07650 12/65 33304 10160 20120 30094 40132 58003 60006 82032 90300=
07650,1997-07-01 06:00:00,18,1014.1,0.9,68,12,500,7.408,,,290,15.5,19.8,,,,,,,,,wg-a,,,,AAXX 01064 07650 12600 /2904 10180 20120 30103 40141 51009 60006 81531 90600 333 10198 20155=
07650,1997-07-01 12:00:00,24,1014.9,0.1,41,10,500,14.816,,,250,,,,,,,,,,,wg-a,,,,AAXX 01124 07650 12600 /2508 10240 20100 30112 40149 50001 60006 81202 91200=
07650,1997-07-01 15:00:00,24,1014.5,-0.4,41,10,40000,18.52,,,240,,,,,,,,,,,wg-a,,,,AAXX 01154 07650 12582 42410 10240 20100 30108 40145 56004 60006 81132 91500=
07650,1997-07-01 18:00:00,22,1014.3,-0.2,50,11,40000,14.816,,,180,17.7,24.3,,,,,,,,,wg-a,,,,AAXX 01184 07650 12582 /1808 10220 20110 30106 40143 55002 60006 81232 91800 333 10243 20177=
07650,1997-07-01 21:00:00,20,1014.8,0.4,53,10,500,3.704,,,140,,,,,,,,,,,wg-a,,,,AAXX 01214 07650 12500 /1402 10200 20100 30110 40148 53004 60006 81131 92100=
07650,1997-07-02 00:00:00,20,1014.6,-0.2,49,9,500,14.816,,,110,,,,,,,,,,,wg-a,,,,AAXX 02004 07650 12500 /1108 10200 20090 30108 40146 58002 60006 81532 90000=
07650,1997-07-02 03:00:00,20,1013.4,-1.2,49,9,500,14.816,,,100,,,,,,,,,,,wg-a,,,,AAXX 02034 07650 12500 71008 10200 20090 30096 40134 57012 60006 81532 90300=
07650,1997-07-02 06:00:00,21,1012.9,-0.4,40,7,500,18.52,,,120,19,21.5,,,,,,,,,wg-a,,,,AAXX 02064 07650 12500 71210 10210 20070 30092 40129 58004 60006 81532 90600 333 10215 20190=
07650,1997-07-02 09:00:00,24,1013.1,0.2,38,9,500,22.224,,,110,,,,,,,,,,,wg-a,,,,AAXX 02094 07650 12600 81112 10240 20090 30094 40131 53002 60006 8357/ 90900=
07650,1997-07-02 12:00:00,22,1013.4,0.3,50,11,500,31.484,,50.004,120,,,,,,,,,,,wg-a,,,,AAXX 02124 07650 12500 81217 10220 20110 30097 40134 51003 60006 8157/ 91200 333 91027=
07650,1997-07-02 15:00:00,23,1012.3,-1.1,47,11,20000,35.188,,,120,,,,,,,,,,,wg-a,,,,AAXX 02154 07650 02570 81219 10230 20110 30086 40123 55011 61000 81572 91500 333 ////=
07650,1997-07-02 18:00:00,22,1012.2,-0.1,57,13,500,31.484,,53.708,120,21.2,23.9,,,,,,,,1,wg-a,,,,AAXX 02184 07650 12500 41217 10220 20130 30085 40122 55001 60006 70162 81832 91800 333 10239 20212 91029=
07650,1997-07-02 21:00:00,21,1014.6,2.4,69,15,15000,22.224,,,130,,,,,,,,,,,wg-a,,,,AAXX 02214 07650 12565 71312 10210 20150 30109 40146 51024 60006 8587/ 92100=
07650,1997-07-03 00:00:00,20,1014.1,-0.5,73,15,15000,14.816,,,130,,,,,,,,,,,wg-a,,,,AAXX 03004 07650 12565 71308 10200 20150 30104 40141 58005 60006 8587/ 90000=
07650,1997-07-03 03:00:00,19,1014.3,0.1,83,16,20000,22.224,,,150,,,,,,,,,,25,wg-a,,,,AAXX 03034 07650 02570 71512 10190 20160 30105 40143 50001 61000 72522 878// 90300 333 ////=
07650,1997-07-03 06:00:00,19,1015,0.7,83,16,15000,18.52,,,160,18.4,22.2,,,,,1,,,3,wg-a,,,,AAXX 03064 07650 02565 71610 10190 20160 30112 40150 53007 60006 70382 8687/ 90600 333 10222 20184 60014=
07650,1997-07-03 10:00:00,20,1016,,78,16,10000,14.816,,,70,17.3,20.7,,0,,,,,,1,wg-a,,,,AAXX 03104 07650 12460 /0708 10200 20160 30125 40160 60007 70162 83540 91000 333 10207 20173=
07650,1997-07-03 12:00:00,20,1017,0.4,73,15,20000,14.816,,,180,,,,,,,,,,60,wg-a,,,,AAXX 03124 07650 02570 81808 10200 20150 30132 40170 51004 61000 76062 8487/ 91200 333 6100=
07650,1997-07-03 15:00:00,18,1017.5,0.5,83,15,6000,11.112,,,290,,,,1,,,,,,60,wg-a,,,,AAXX 03154 07650 12456 82906 10180 20150 30137 40175 52005 60017 76066 8557/ 91500=
07650,1997-07-03 18:00:00,20,1016.3,-1.2,78,16,10000,14.816,,,70,17.3,20.7,,0,,,,,,1,wg-a,,,,AAXX 03184 07650 02460 /0708 10200 20160 30125 40163 56012 60006 70162 8357/ 91800 333 10207 20173 60007=
07650,1997-07-03 21:00:00,19,1017.6,1.3,78,15,20000,7.408,,,120,,,,,,,,,,,wg-a,,,,AAXX 03214 07650 12670 51204 10190 20150 30138 40176 53013 60006 81530 92100=
07650,1997-07-04 00:00:00,17,1017.8,0.2,88,15,20000,7.408,,,150,,,,,,,,,,,wg-a,,,,AAXX 04004 07650 12670 31504 10170 20150 30140 40178 50002 60006 81530 90000=
07650,1997-07-04 03:00:00,16,1016.9,-0.9,82,13,15000,7.408,,,120,,,,,,,,,,,wg-a,,,,AAXX 04034 07650 12/65 31204 10160 20130 30131 40169 58009 60006 81032 90300=
07650,1997-07-04 06:00:00,17,1018.1,1.2,88,15,10000,3.704,,,250,14.9,20.2,,,,,2,,,,wg-a,,,,AAXX 04064 07650 02560 72502 10170 20150 30143 40181 53012 60006 8453/ 90600 333 10202 20149 60024=
07650,1997-07-04 09:00:00,19,1019.1,1,88,17,12000,14.816,,,340,,,,2,,,,,,1,wg-a,,,,AAXX 04094 07650 12562 63408 10190 20170 30153 40191 50010 60027 70182 85872 90900=
07650,1997-07-04 12:00:00,23,1018.6,-0.4,61,15,15000,31.484,,,280,,,,,,,,,,1,wg-a,,,,AAXX 04124 07650 12565 32817 10230 20150 30149 40186 55004 60026 70181 81202 91200=
07650,1997-07-04 15:00:00,25,1017.6,-1,44,12,15000,11.112,,,260,,,,,,,,,,,wg-a,,,,AAXX 04154 07650 12565 32606 10250 20120 30139 40176 57010 60006 81202 91500=
07650,1997-07-04 18:00:00,22,1017.4,-0.2,69,16,25000,22.224,,,240,17,25.6,,,,,,,,,wg-a,,,,AAXX 04184 07650 12675 62412 10220 20160 30137 40174 55002 60006 81282 91800 333 10256 20170=
07650,1997-07-04 21:00:00,20,1018.8,1.3,68,14,20000,7.408,,,240,,,,,,,,,,,wg-a,,,,AAXX 04214 07650 12670 72404 10200 20140 30150 40188 51013 60006 8487/ 92100=
07650,1997-07-05 00:00:00,16,1020,1.2,88,14,75000,11.112,,,310,,,,3,,,,,,61,wg-a,,,,AAXX 05004 07650 02489 83106 10160 20140 30162 40200 51012 60036 76166 8587/ 90000 333 60037=
07650,1997-07-05 06:00:00,17,1019.8,0.6,77,13,25000,35.188,,,290,15.2,22.4,,,,,6,,,3,wg-a,,,,AAXX 05064 07650 02475 22919 10170 20130 30160 40198 53006 60006 70361 81830 90600 333 10224 20152 60064=
07650,1997-07-05 09:00:00,19,1020.4,0.6,64,12,25000,31.484,,,310,,,,,,,,,,,wg-a,,,,AAXX 05094 07650 12575 63117 10190 20120 30166 40204 53006 60006 86802 90900=
07650,1997-07-05 12:00:00,22,1020.2,-0.1,50,11,500,38.892,,,310,,,,,,,,,,,wg-a,,,,AAXX 05124 07650 12500 53121 10220 20110 30165 40202 58001 60006 85800 91200=
07650,1997-07-05 15:00:00,23,1019.3,-0.9,47,11,500,42.596,,,310,,,,,,,,,,,wg-a,,,,AAXX 05154 07650 12500 23123 10230 20110 30156 40193 55009 60006 82800 91500=
07650,1997-07-05 18:00:00,22,1019.8,0.5,46,10,500,42.596,,,330,17.1,23.5,,,,,,,,,wg-a,,,,AAXX 05184 07650 12600 /3323 10220 20100 30161 40198 52005 60006 81400 91800 333 10235 20171=
07650,1997-07-05 21:00:00,19,1021.4,1.5,56,10,500,42.596,,,310,,,,,,,,,,,wg-a,,,,AAXX 05214 07650 12/00 13123 10190 20100 30176 40214 51015 60006 81040 92100=
07650,1997-07-06 00:00:00,18,1021.1,-0.3,64,11,500,42.596,,,300,,,,,,,,,,,wg-a,,,,AAXX 06004 07650 12/00 13023 10180 20110 30173 40211 58003 60006 81040 90000=
07650,1997-07-06 03:00:00,17,1019.6,-1.5,68,11,500,38.892,,57.412,320,,,,,,,,,,,wg-a,,,,AAXX 06034 07650 12/00 13221 10170 20110 30158 40196 56015 60006 81040 90300 333 91031=
07650,1997-07-06 06:00:00,18,1019.7,-0.1,64,11,500,42.596,,53.708,330,16.8,22.2,,,,,,,,,wg-a,,,,AAXX 06064 07650 12500 /3323 10180 20110 30159 40197 55001 60006 81100 90600 333 10222 20168 91029=
07650,1997-07-06 09:00:00,22,1019.4,-0.2,53,12,500,38.892,,,330,,,,,,,,,,,wg-a,,,,AAXX 06094 07650 12500 /3321 10220 20120 30157 40194 56002 60006 81100 90900=
07650,1997-07-06 12:00:00,24,1019,-0.4,50,13,10000,46.3,,64.82,330,,,,,,,,,,,wg-a,,,,AAXX 06124 07650 12/60 /3325 10240 20130 30153 40190 58004 60006 91200 333 91035=
07650,1997-07-06 18:00:00,24,1017.9,-0.3,44,11,500,50.004,,68.524,330,18,25.4,,,,,,,,,wg-a,,,,AAXX 06184 07650 12/00 03327 10240 20110 30142 40179 58003 60006 80000 91800 333 10254 20180 91037=
07650,1997-07-06 21:00:00,20,1018.6,0.6,53,10,500,38.892,,,330,,,,,,,,,,,wg-a,,,,AAXX 06214 07650 12/00 03321 10200 20100 30148 40186 53006 60006 80000 92100=
07650,1997-07-07 00:00:00,18,1018.6,0,56,9,500,22.224,,,350,,,,,,,,,,,wg-a,,,,AAXX 07004 07650 12/00 03512 10180 20090 30148 40186 50000 60006 80000 90000=
07650,1997-07-07 03:00:00,16,1017.8,-0.8,68,10,20000,11.112,,,340,,,,,,,,,,,wg-a,,,,AAXX 07034 07650 12/70 03406 10160 20100 30140 40178 56008 60006 80000 90300=
07650,1997-07-07 06:00:00,18,1017.5,-0.3,64,11,20000,18.52,,,340,14.7,23.7,,,,,,,,,wg-a,,,,AAXX 07064 07650 12/70 13410 10180 20110 30137 40175 58003 60006 81040 90600 333 10237 20147=
07650,1997-07-07 09:00:00,23,1016.4,-1,47,11,20000,31.484,,,330,,,,,,,,,,,wg-a,,,,AAXX 07094 07650 12/70 03317 10230 20110 30127 40164 58010 60006 80000 90900=
07650,1997-07-07 12:00:00,26,1015.6,-0.8,42,12,500,38.892,,,330,,,,,,,,,,,wg-a,,,,AAXX 07124 07650 12600 /3321 10260 20120 30119 40156 56008 60006 81100 91200=
07650,1997-07-07 15:00:00,28,1014.7,-0.9,40,13,20000,31.484,,,320,,,,,,,,,,,wg-a,,,,AAXX 07154 07650 12670 /3217 10280 20130 30110 40147 56009 60006 81100 91500=
07650,1997-07-07 18:00:00,26,1014.8,0.1,45,13,20000,25.928,,,320,17.9,28.2,,,,,,,,,wg-a,,,,AAXX 07184 07650 12/70 03214 10260 20130 30111 40148 53001 60006 80000 91800 333 10282 20179=
07650,1997-07-07 21:00:00,22,1015.6,0.8,50,11,20000,7.408,,,360,,,,,,,,,,,wg-a,,,,AAXX 07214 07650 12/70 03604 10220 20110 30119 40156 53008 60006 80000 92100=
07650,1997-07-08 00:00:00,18,1015.7,-0,64,11,20000,3.704,,,160,,,,,,,,,,,wg-a,,,,AAXX 08004 07650 12/70 01602 10180 20110 30119 40157 55000 60006 80000 90000=
07650,1997-07-08 06:00:00,17,1015.6,0.1,68,11,25000,3.704,,,50,14.2,25.8,,,,,,,,,wg-a,,,,AAXX 08064 07650 12/75 00502 10170 20110 30118 40156 50001 60006 80000 90600 333 10258 20142=
07650,1997-07-08 09:00:00,24,1015.4,-0.1,47,12,35000,7.408,,,250,,,,,,,,,,,wg-a,,,,AAXX 08094 07650 12/81 02504 10240 20120 30117 40154 58001 60006 80000 90900=
07650,1997-07-08 12:00:00,29,1014.7,-0.6,31,10,35000,11.112,,,290,,,,,,,,,,,wg-a,,,,AAXX 08124 07650 12581 /2906 10290 20100 30111 40147 58006 60006 81100 91200=
07650,1997-07-08 15:00:00,29,1013.7,-1,33,11,35000,18.52,,,240,,,,,,,,,,,wg-a,,,,AAXX 08154 07650 12581 /2410 10290 20110 30101 40137 58010 60006 81100 91500=
07650,1997-07-08 18:00:00,26,1013.3,-0.5,51,15,35000,14.816,,,190,17.2,29.7,,,,,,,,,wg-a,,,,AAXX 08184 07650 12/81 01908 10260 20150 30096 40133 56005 60006 80000 91800 333 10297 20172=
07650,1997-07-08 21:00:00,22,1014.2,0.9,57,13,500,7.408,,,190,,,,,,,,,,,wg-a,,,,AAXX 08214 07650 12/00 01904 10220 20130 30105 40142 53009 60006 80000 92100=
07650,1997-07-09 00:00:00,20,1014,-0.3,64,13,500,11.112,,,130,,,,,,,,,,,wg-a,,,,AAXX 09004 07650 12/00 01306 10200 20130 30102 40140 56003 60006 80000 90000=
07650,1997-07-09 03:00:00,17,1013.1,-0.9,72,12,20000,7.408,,,120,,,,,,,,,,,wg-a,,,,AAXX 09034 07650 12/70 01204 10170 20120 30093 40131 56009 60006 80000 90300=
07650,1997-07-09 06:00:00,20,1013.5,0.5,68,14,15000,3.704,,,10,16.3,26.1,,,,,,,,,wg-a,,,,AAXX 09064 07650 12/65 10102 10200 20140 30098 40135 53005 60006 80001 90600 333 10261 20163=
07650,1997-07-09 12:00:00,25,1013.5,-0.2,50,14,20000,29.632,,,190,,,,,,,,,,,wg-a,,,,AAXX 09124 07650 12570 21916 10250 20140 30098 40135 55002 60006 81102 91200=
07650,1997-07-09 15:00:00,25,1012.9,-0.6,50,14,20000,22.224,,,180,,,,,,,,,,,wg-a,,,,AAXX 09154 07650 12670 /1812 10250 20140 30092 40129 56006 60006 81102 91500=
07650,1997-07-09 18:00:00,23,1013.2,0.3,65,16,20000,14.816,,,200,19.6,27.2,,,,,,,,,wg-a,,,,AAXX 09184 07650 12670 32008 10230 20160 30095 40132 53003 60006 81202 91800 333 10272 20196=
07650,1997-07-10 00:00:00,20,1013,0,83,17,15000,7.408,,,140,,,,,,,,,,,wg-a,,,,AAXX 10004 07650 12565 51404 10200 20170 30093 40130 50000 60006 83502 90000=
07650,1997-07-10 03:00:00,19,1012.1,-0.9,73,14,15000,0,,,0,,,,,,,,,,,wg-a,,,,AAXX 10034 07650 12/65 20000 10190 20140 30084 40121 56009 60006 80002 90300=
07650,1997-07-10 06:00:00,20,1012.7,0.6,68,14,15000,3.704,,,140,18.9,23.1,,,,,,,,,wg-a,,,,AAXX 10064 07650 12/65 /1402 10200 20140 30090 40127 53006 60006 90600 333 10231 20189=
07650,1997-07-10 09:00:00,23,1012.9,0.2,69,17,15000,18.52,,,180,,,,,,,,,,,wg-a,,,,AAXX 10094 07650 12565 /1810 10230 20170 30092 40129 53002 60006 82582 90900=
07650,1997-07-10 12:00:00,24,1012.9,0,65,17,15000,14.816,,,160,,,,,,,,,,,wg-a,,,,AAXX 10124 07650 12565 /1608 10240 20170 30092 40129 50000 60006 81132 91200=
07650,1997-07-10 18:00:00,23,1012.7,0.9,69,17,20000,14.816,,,180,20.1,26,,,,,,,,,wg-a,,,,AAXX 10184 07650 12570 41808 10230 20170 30090 40127 51009 60006 81282 91800 333 10260 20201=
07650,1997-07-11 00:00:00,20,1013.7,-0.2,83,17,15000,7.408,,,140,,,,,,,,,,,wg-a,,,,AAXX 11004 07650 12/65 /1404 10200 20170 30100 40137 57002 60006 82030 90000=
07650,1997-07-11 06:00:00,19,1013.1,0.2,83,16,8000,3.704,,,110,17.9,23.2,,,,,,,,,wg-a,,,,AAXX 11064 07650 12/58 41102 10190 20160 30093 40131 51002 60006 83032 90600 333 10232 20179=
07650,1997-07-11 12:00:00,27,1013,-0.2,58,18,10000,22.224,,,240,,,,,,,,,,,wg-a,,,,AAXX 11124 07650 12560 32412 10270 20180 30093 40130 58002 60006 82201 91200=
07650,1997-07-11 15:00:00,28,1011.5,-1.4,55,18,15000,25.928,,,230,,,,,,,,,,,wg-a,,,,AAXX 11154 07650 12565 32314 10280 20180 30079 40115 56014 60006 82202 91500=
07650,1997-07-11 18:00:00,27,1011.9,0.4,54,17,20000,22.224,,,280,19.2,28.3,,,,,,,,,wg-a,,,,AAXX 11184 07650 12570 32812 10270 20170 30083 40119 53004 60006 81362 91800 333 10283 20192=
07650,1997-07-11 21:00:00,23,1012.9,0.9,69,17,20000,25.928,,,290,,,,,,,,,,,wg-a,,,,AAXX 11214 07650 12/70 22914 10230 20170 30092 40129 53009 60006 80002 92100=
07650,1997-07-12 00:00:00,23,1013.1,0.2,61,15,20000,22.224,,,300,,,,,,,,,,,wg-a,,,,AAXX 12004 07650 12/70 03012 10230 20150 30094 40131 51002 60006 80000 90000=
07650,1997-07-12 03:00:00,21,1013.3,0.2,69,15,20000,14.816,,,310,,,,,,,,,,,wg-a,,,,AAXX 12034 07650 12/70 03108 10210 20150 30096 40133 53002 60006 80000 90300=
07650,1997-07-12 06:00:00,21,1014.2,0.9,69,15,20000,7.408,,,330,18.9,27.6,,,,,,,,,wg-a,,,,AAXX 12064 07650 12/70 03304 10210 20150 30105 40142 51009 60006 80000 90600 333 10276 20189=
07650,1997-07-12 09:00:00,25,1014.8,0.6,57,16,12000,7.408,,,250,,,,,,,,,,,wg-a,,,,AAXX 12094 07650 12/62 02504 10250 20160 30111 40148 51006 60006 80000 90900=
07650,1997-07-12 12:00:00,29,1014.3,-0.4,45,16,20000,11.112,,,240,,,,,,,,,,,wg-a,,,,AAXX 12124 07650 12670 /2406 10290 20160 30107 40143 58004 60006 81100 91200=
07650,1997-07-12 15:00:00,27,1014.3,-0.1,48,15,20000,29.632,,,240,,,,,,,,,,,wg-a,,,,AAXX 12154 07650 12670 /2416 10270 20150 30106 40143 55001 60006 81100 91500=
07650,1997-07-12 18:00:00,25,1014.8,0.5,54,15,20000,18.52,,,240,20.8,30,,,,,,,,,wg-a,,,,AAXX 12184 07650 12670 /2410 10250 20150 30111 40148 53005 60006 81100 91800 333 10300 20208=
07650,1997-07-12 21:00:00,22,1016.4,1.6,65,15,25000,7.408,,,200,,,,,,,,,,,wg-a,,,,AAXX 12214 07650 12/75 22004 10220 20150 30127 40164 53016 60006 80001 92100=
07650,1997-07-13 00:00:00,20,1016.5,-0,78,16,25000,11.112,,,130,,,,,,,,,,,wg-a,,,,AAXX 13004 07650 12/75 11306 10200 20160 30127 40165 55000 60006 80001 90000=
07650,1997-07-13 06:00:00,21,1016.3,0.3,64,14,15000,3.704,,,150,18.4,25.3,,,,,,,,,wg-a,,,,AAXX 13064 07650 12/65 01502 10210 20140 30126 40163 53003 60006 80000 90600 333 10253 20184=
07650,1997-07-13 09:00:00,24,1017.6,1.3,69,18,20000,11.112,,,270,,,,,,,,,,,wg-a,,,,AAXX 13094 07650 12/70 /2706 10240 20180 30139 40176 51013 60006 80001 90900=
07650,1997-07-13 12:00:00,29,1016.5,-1,48,17,20000,14.816,,,260,,,,,,,,,,,wg-a,,,,AAXX 13124 07650 12670 32608 10290 20170 30129 40165 58010 60006 81101 91200=
07650,1997-07-13 15:00:00,27,1015.9,-0.7,54,17,20000,22.224,,,180,,,,,,,,,,,wg-a,,,,AAXX 13154 07650 12670 21812 10270 20170 30122 40159 55007 60006 81101 91500=
07650,1997-07-13 18:00:00,25,1016.1,0.2,61,17,12000,7.408,,,180,21.2,30.2,,,,,,,,,wg-a,,,,AAXX 13184 07650 12/62 /1804 10250 20170 30124 40161 51002 60006 80000 91800 333 10302 20212=
07650,1997-07-13 21:00:00,21,1017.8,1.7,83,18,10000,3.704,,,120,,,,,,,,,,,wg-a,,,,AAXX 13214 07650 12/60 11202 10210 20180 30141 40178 53017 60006 80002 92100=
07650,1997-07-14 00:00:00,20,1017.4,-0.5,83,17,8000,3.704,,,160,,,,,,,,,,0,wg-a,,,,AAXX 14004 07650 12/58 01602 10200 20170 30136 40174 56005 60006 700// 80000 90000=
07650,1997-07-14 03:00:00,19,1017.5,0.1,83,16,8000,3.704,,,130,,,,,,,,,,,wg-a,,,,AAXX 14034 07650 12/58 11302 10190 20160 30137 40175 51001 60006 80001 90300=
07650,1997-07-14 06:00:00,21,1018.2,0.7,78,17,4000,0,,,0,17.9,24.5,,,,,,,,10,wg-a,,,,AAXX 14064 07650 12340 20000 10210 20170 30144 40182 53007 60006 71000 81601 90600 333 10245 20179=
07650,1997-07-14 09:00:00,27,1018.1,0,58,18,500,11.112,,,240,,,,,,,,,,,wg-a,,,,AAXX 14094 07650 12300 22406 10270 20180 30144 40181 50000 60006 82600 90900=
07650,1997-07-14 12:00:00,29,1017.9,-0.1,55,19,9000,11.112,,,260,,,,,,,,,,,wg-a,,,,AAXX 14124 07650 12459 /2606 10290 20190 30143 40179 58001 60006 81500 91200=
07650,1997-07-14 15:00:00,30,1017.3,-0.6,43,16,15000,18.52,,,190,,,,,,,,,,,wg-a,,,,AAXX 14154 07650 12565 /1910 10300 20160 30137 40173 56006 60006 81100 91500=
07650,1997-07-14 18:00:00,27,1017.1,-0.3,62,19,20000,11.112,,,270,20.4,31.4,,,,,,,,,wg-a,,,,AAXX 14184 07650 12/70 02706 10270 20190 30134 40171 55003 60006 80000 91800 333 10314 20204=
07650,1997-07-14 21:00:00,24,1019.1,2,74,19,12000,0,,,0,,,,,,,,,,,wg-a,,,,AAXX 14214 07650 12662 /0000 10240 20190 30154 40191 53020 60006 81500 92100=
07650,1997-07-15 00:00:00,22,1018.4,-0.7,83,19,12000,3.704,,,10,,,,,,,,,,,wg-a,,,,AAXX 15004 07650 12/62 10102 10220 20190 30147 40184 58007 60006 81030 90000=
07650,1997-07-15 06:00:00,22,1017.9,-0.9,73,17,20000,14.816,,,340,20.3,27.2,,,,,,,,,wg-a,,,,AAXX 15064 07650 12/70 23408 10220 20170 30142 40179 56009 60006 80002 90600 333 10272 20203=
07650,1997-07-15 09:00:00,29,1018.5,0.6,48,17,500,29.632,,,310,,,,,,,,,,,wg-a,,,,AAXX 15094 07650 12/00 23116 10290 20170 30148 40185 51006 60006 80002 90900=
07650,1997-07-15 12:00:00,32,1017.2,-1.2,34,14,500,35.188,,,330,,,,,,,,,,,wg-a,,,,AAXX 15124 07650 12/00 33319 10320 20140 30136 40172 56012 60006 80002 91200=
07650,1997-07-15 18:00:00,30,1015.4,-0.8,31,11,500,31.484,,,340,22.4,32.5,,,,,,,,,wg-a,,,,AAXX 15184 07650 12/00 33417 10300 20110 30118 40154 58008 60006 80002 91800 333 10325 20224=
07650,1997-07-15 21:00:00,26,1015.7,0.2,48,14,500,7.408,,,350,,,,,,,,,,,wg-a,,,,AAXX 15214 07650 12/00 33504 10260 20140 30120 40157 53002 60006 80002 92100=
07650,1997-07-16 00:00:00,23,1015.8,0.1,53,13,20000,11.112,,,130,,,,,,,,,,,wg-a,,,,AAXX 16004 07650 12/70 01306 10230 20130 30121 40158 53001 60006 80000 90000=
07650,1997-07-16 03:00:00,22,1016,0.2,60,14,20000,3.704,,,80,,,,,,,,,,,wg-a,,,,AAXX 16034 07650 12/70 00802 10220 20140 30123 40160 53002 60006 80000 90300=
07650,1997-07-16 06:00:00,24,1014.7,-1.3,61,16,15000,3.704,,,350,20.4,29.9,,,,,,,,,wg-a,,,,AAXX 16064 07650 12/65 43502 10240 20160 30110 40147 58013 60006 80002 90600 333 10299 20204=
07650,1997-07-16 12:00:00,27,1013.2,-2.9,54,17,10000,7.408,,,20,,,,,,,,,,,wg-a,,,,AAXX 16124 07650 12660 70204 10270 20170 30095 40132 58029 60006 82502 91200=
07650,1997-07-16 15:00:00,31,1014.4,1.3,38,15,15000,18.52,,,220,,,,,,,,,,,wg-a,,,,AAXX 16154 07650 12/65 72210 10310 20150 30108 40144 50013 60006 80002 91500=
07650,1997-07-16 18:00:00,29,1012.7,-1.7,45,16,15000,18.52,,,360,23.7,30.9,,,,,,,,,wg-a,,,,AAXX 16184 07650 12/65 73610 10290 20160 30091 40127 56017 60006 80002 91800 333 10309 20237=
07650,1997-07-17 00:00:00,25,1010.7,-1.5,47,13,12000,18.52,,,100,,,,,,,,,,,wg-a,,,,AAXX 17004 07650 12/62 21010 10250 20130 30070 40107 58015 60006 80002 90000=
07650,1997-07-17 03:00:00,22,1010.1,-0.6,69,16,12000,7.408,,,340,,,,,,,,,,,wg-a,,,,AAXX 17034 07650 12/62 23404 10220 20160 30064 40101 58006 60006 80002 90300=
07650,1997-07-17 06:00:00,25,1009.7,-0.4,61,17,15000,14.816,,,140,21.1,28.8,,,,,,,,,wg-a,,,,AAXX 17064 07650 12665 71408 10250 20170 30060 40097 55004 60006 875// 90600 333 10288 20211=
07650,1997-07-17 09:00:00,26,1009.6,-0,70,20,12000,29.632,,,150,,,,,,,,,,,wg-a,,,,AAXX 17094 07650 12562 71516 10260 20200 30060 40096 55000 60006 878// 90900=
07650,1997-07-17 12:00:00,25,1009.6,-0.1,74,20,7000,22.224,,,190,,,,,,,,,,,wg-a,,,,AAXX 17124 07650 12457 71912 10250 20200 30059 40096 58001 60006 85202 91200=
07650,1997-07-17 15:00:00,25,1009.1,-0.5,74,20,9000,14.816,,,200,,,,,,,,,,,wg-a,,,,AAXX 17154 07650 12459 72008 10250 20200 30054 40091 57005 60006 84901 91500=
07650,1997-07-17 18:00:00,23,1009.1,-0,83,20,8000,25.928,,,280,22.5,26.9,,,,,,,,29,wg-a,,,,AAXX 17184 07650 02458 72814 10230 20200 30054 40091 54000 60006 72992 83932 91800 333 10269 20225 61000=
07650,1997-07-17 21:00:00,22,1010.9,1.8,83,19,12000,22.224,,,300,,,,,,,,,,,wg-a,,,,AAXX 17214 07650 12462 53012 10220 20190 30072 40109 51018 60006 83830 92100=
07650,1997-07-18 00:00:00,21,1011,0.1,88,19,20000,35.188,,,290,,,,,,,,,,,wg-a,,,,AAXX 18004 07650 12/70 02919 10210 20190 30073 40110 51001 60006 80000 90000=
07650,1997-07-18 06:00:00,21,1011.6,0.3,69,15,500,46.3,,,280,20.1,23.1,,,,,,,,,wg-a,,,,AAXX 18064 07650 02500 22825 10210 20150 30079 40116 50003 60006 81131 90600 333 10231 20201 61000=
07650,1997-07-18 09:00:00,23,1012.3,0.7,57,14,500,42.596,,,270,,,,,,,,,,,wg-a,,,,AAXX 18094 07650 12400 22723 10230 20140 30086 40123 51007 60006 81131 90900=
07650,1997-07-18 12:00:00,26,1012.1,-0.2,42,12,500,38.892,,,300,,,,,,,,,,,wg-a,,,,AAXX 18124 07650 12500 53021 10260 20120 30084 40121 56002 60006 85200 91200=
07650,1997-07-18 15:00:00,27,1011.7,-0.4,32,9,75000,38.892,,,320,,,,,,,,,,,wg-a,,,,AAXX 18154 07650 12689 23221 10270 20090 30080 40117 56004 60006 82200 91500=
07650,1997-07-18 18:00:00,25,1012.7,1,36,9,500,46.3,,,330,20.9,27.9,,,,,,,,,wg-a,,,,AAXX 18184 07650 12600 /3325 10250 20090 30090 40127 53010 60006 81400 91800 333 10279 20209=
07650,1997-07-18 21:00:00,22,1014.9,2.2,46,10,500,38.892,,,340,,,,,,,,,,,wg-a,,,,AAXX 18214 07650 12500 /3421 10220 20100 30112 40149 51022 60006 81500 92100=
07650,1997-07-19 00:00:00,20,1015.9,0.9,53,10,500,35.188,,,310,,,,,,,,,,,wg-a,,,,AAXX 19004 07650 12/00 03119 10200 20100 30121 40159 51009 60006 80000 90000=
07650,1997-07-19 03:00:00,18,1015.4,-0.5,64,11,50000,38.892,,64.82,320,,,,,,,,,,,wg-a,,,,AAXX 19034 07650 12/84 03221 10180 20110 30116 40154 56005 60006 80000 90300 333 91035=
07650,1997-07-19 06:00:00,19,1016.1,0.7,60,11,50000,38.892,,57.412,310,17.8,25.2,,,,,,,,,wg-a,,,,AAXX 19064 07650 12584 /3121 10190 20110 30123 40161 52007 60006 81100 90600 333 10252 20178 91031=
07650,1997-07-19 09:00:00,23,1016,0,47,11,50000,53.708,,72.228,320,,,,,,,,,,,wg-a,,,,AAXX 19094 07650 12/84 03229 10230 20110 30123 40160 50000 60006 80000 90900 333 91039=
07650,1997-07-19 12:00:00,25,1015.5,-0.5,39,10,50000,50.004,,61.116,310,,,,,,,,,,,wg-a,,,,AAXX 19124 07650 12684 /3127 10250 20100 30118 40155 58005 60006 81100 91200 333 91033=
07650,1997-07-19 15:00:00,25,1015.6,0.1,41,11,50000,50.004,,72.228,310,,,,,,,,,,,wg-a,,,,AAXX 19154 07650 12684 /3127 10250 20110 30119 40156 53001 60006 81100 91500 333 91039=
07650,1997-07-19 18:00:00,24,1015.3,-0.3,47,12,50000,42.596,,68.524,320,19.2,25.9,,,,,,,,,wg-a,,,,AAXX 19184 07650 12/84 /3223 10240 20120 30116 40153 55003 60006 80000 91800 333 10259 20192 91037=
07650,1997-07-19 21:00:00,21,1016.7,1.3,56,12,500,31.484,,61.116,320,,,,,,,,,,,wg-a,,,,AAXX 19214 07650 12/00 03217 10210 20120 30129 40167 53013 60006 80000 92100 333 91033=
07650,1997-07-20 00:00:00,19,1015.7,-1,68,13,500,25.928,,,340,,,,,,,,,,,wg-a,,,,AAXX 20004 07650 12/00 03414 10190 20130 30119 40157 56010 60006 80000 90000=
07650,1997-07-20 03:00:00,16,1015.5,-0.2,77,12,500,18.52,,,340,,,,,,,,,,,wg-a,,,,AAXX 20034 07650 12/00 03410 10160 20120 30117 40155 58002 60006 80000 90300=
07650,1997-07-20 06:00:00,18,1016.2,0.7,68,12,40000,7.408,,,350,15.1,24,,,,,,,,,wg-a,,,,AAXX 20064 07650 12/82 13504 10180 20120 30124 40162 53007 60006 81031 90600 333 10240 20151=
07650,1997-07-20 09:00:00,24,1015.8,-0.3,50,13,50000,18.52,,,330,,,,,,,,,,,wg-a,,,,AAXX 20094 07650 12/84 33310 10240 20130 30121 40158 58003 60006 80002 90900=
07650,1997-07-20 12:00:00,29,1014.9,-0.8,35,12,45000,22.224,,,270,,,,,,,,,,,wg-a,,,,AAXX 20124 07650 12583 52712 10290 20120 30113 40149 58008 60006 81132 91200=
07650,1997-07-20 15:00:00,30,1013.9,-1,27,9,50000,22.224,,,300,,,,,,,,,,,wg-a,,,,AAXX 20154 07650 12684 /3012 10300 20090 30103 40139 58010 60006 81132 91500=
07650,1997-07-20 18:00:00,27,1013.2,-0.8,34,10,45000,35.188,,,320,18.1,29.9,,,,,,,,,wg-a,,,,AAXX 20184 07650 12/83 13219 10270 20100 30095 40132 55008 60006 80001 91800 333 10299 20181=
07650,1997-07-20 21:00:00,23,1014.5,1.3,47,11,40000,22.224,,,330,,,,,,,,,,,wg-a,,,,AAXX 20214 07650 12/82 23312 10230 20110 30108 40145 53013 60006 80002 92100=
07650,1997-07-21 00:00:00,21,1014.5,-0,53,11,500,22.224,,,340,,,,,,,,,,,wg-a,,,,AAXX 21004 07650 12/00 13412 10210 20110 30108 40145 54000 60006 80001 90000=
07650,1997-07-21 06:00:00,19,1014.9,0.4,64,12,500,3.704,,,270,16.1,27.4,,,,,,,,,wg-a,,,,AAXX 21064 07650 12/00 12702 10190 20120 30111 40149 52004 60006 80002 90600 333 10274 20161=
07650,1997-07-21 09:00:00,23,1015.1,0.3,50,12,40000,7.408,,,280,,,,,,,,,,,wg-a,,,,AAXX 21094 07650 12/82 32804 10230 20120 30114 40151 50003 60006 80001 90900=
07650,1997-07-21 12:00:00,27,1014.8,-0.3,39,12,40000,14.816,,,240,,,,,,,,,,,wg-a,,,,AAXX 21124 07650 12/82 32408 10270 20120 30111 40148 58003 60006 80001 91200=
07650,1997-07-21 15:00:00,30,1014.2,-0.5,24,7,40000,11.112,,,250,,,,,,,,,,,wg-a,,,,AAXX 21154 07650 12582 32506 10300 20070 30106 40142 56005 60006 81101 91500=
07650,1997-07-21 18:00:00,25,1014.3,-0,44,12,40000,18.52,,,170,18.6,29.6,,,,,,,,,wg-a,,,,AAXX 21184 07650 12/82 21710 10250 20120 30106 40143 55000 60006 80001 91800 333 10296 20186=
07650,1997-07-21 21:00:00,21,1015.8,1.5,49,10,25000,7.408,,,140,,,,,,,,,,,wg-a,,,,AAXX 21214 07650 12/75 11404 10210 20100 30121 40158 52015 60006 80002 92100=
07650,1997-07-22 00:00:00,20,1015.8,-0.1,56,11,25000,11.112,,,110,,,,,,,,,,,wg-a,,,,AAXX 22004 07650 12/75 51106 10200 20110 30120 40158 58001 60006 81032 90000=
07650,1997-07-22 03:00:00,18,1015.6,-0.2,59,10,500,7.408,,,80,,,,,,,,,,,wg-a,,,,AAXX 22034 07650 12/00 30804 10180 20100 30118 40156 55002 60006 80001 90300=
07650,1997-07-22 06:00:00,20,1016.9,1.3,53,10,500,3.704,,,40,17.2,24.6,,,,,,,,,wg-a,,,,AAXX 22064 07650 12/00 30402 10200 20100 30131 40169 53013 60006 81032 90600 333 10246 20172=
07650,1997-07-22 09:00:00,25,1016.3,-0.5,47,13,500,7.408,,,290,,,,,,,,,,,wg-a,,,,AAXX 22094 07650 12/00 22904 10250 20130 30126 40163 58005 60006 82031 90900=
07650,1997-07-22 12:00:00,28,1016.5,0.2,42,14,500,25.928,,,180,,,,,,,,,,,wg-a,,,,AAXX 22124 07650 12/00 31814 10280 20140 30128 40165 53002 60006 80001 91200=
07650,1997-07-22 15:00:00,28,1016.4,-0.1,35,11,500,22.224,,,190,,,,,,,,,,,wg-a,,,,AAXX 22154 07650 12/00 21912 10280 20110 30127 40164 58001 60006 81031 91500=
07650,1997-07-22 18:00:00,25,1016.6,0.2,44,12,500,11.112,,,250,19.9,28.2,,,,,,,,,wg-a,,,,AAXX 22184 07650 12600 42506 10250 20120 30129 40166 53002 60006 81632 91800 333 10282 20199=
07650,1997-07-22 21:00:00,23,1015.9,-0.7,69,17,20000,3.704,,,210,,,,,,,,,,,wg-a,,,,AAXX 22214 07650 12670 52102 10230 20170 30122 40159 58007 60006 82463 92100=
07650,1997-07-23 00:00:00,21,1017.3,1.4,73,16,20000,7.408,,,20,,,,,,,,,,,wg-a,,,,AAXX 23004 07650 12670 20204 10210 20160 30136 40173 51014 60006 82500 90000=
07650,1997-07-23 03:00:00,19,1016.1,-1.3,73,14,20000,7.408,,,140,,,,,,,,,,,wg-a,,,,AAXX 23034 07650 12/70 01404 10190 20140 30123 40161 58013 60006 80000 90300=
07650,1997-07-23 06:00:00,21,1016.6,0.6,73,16,20000,3.704,,,170,18.4,25.1,,,,,,,,,wg-a,,,,AAXX 23064 07650 12/70 11702 10210 20160 30121 40166 53006 60006 81031 90600 333 10251 20184=
07650,1997-07-23 09:00:00,26,1016.5,-0.1,61,18,15000,14.816,,,250,,,,,,,,,,,wg-a,,,,AAXX 23094 07650 12/65 12508 10260 20180 30128 40165 58001 60006 80001 90900=
07650,1997-07-23 12:00:00,32,1015.6,-0.8,32,13,15000,11.112,,,270,,,,,,,,,,,wg-a,,,,AAXX 23124 07650 12/65 12706 10320 20130 30120 40156 56008 60006 80001 91200=
07650,1997-07-23 18:00:00,26,1015.2,0.5,54,16,20000,18.52,,,170,21,32.1,,,,,,,,,wg-a,,,,AAXX 23184 07650 12/70 41710 10260 20160 30115 40152 52005 60006 80001 91800 333 10321 20210=
07650,1997-07-24 00:00:00,23,1015.3,0.9,73,18,12000,7.408,,,110,,,,,,,,,,,wg-a,,,,AAXX 24004 07650 12662 51104 10230 20180 30116 40153 51009 60006 81182 90000=
07650,1997-07-24 03:00:00,22,1013.8,-1.5,65,15,12000,7.408,,,100,,,,,,,,,,,wg-a,,,,AAXX 24034 07650 12/62 31004 10220 20150 30101 40138 58015 60006 81032 90300=
07650,1997-07-24 06:00:00,23,1014.6,0.8,61,15,15000,3.704,,,120,20.5,26.3,,,,,,,,,wg-a,,,,AAXX 24064 07650 12/65 31202 10230 20150 30109 40146 53008 60006 81082 90600 333 10263 20205=
07650,1997-07-24 09:00:00,26,1014.3,-0.3,58,17,13000,14.816,,,280,,,,,,,,,,,wg-a,,,,AAXX 24094 07650 12/63 22808 10260 20170 30106 40143 55003 60006 82080 90900=
07650,1997-07-24 12:00:00,32,1013.5,-0.7,32,13,20000,14.816,,,250,,,,,,,,,,,wg-a,,,,AAXX 24124 07650 12670 42508 10320 20130 30099 40135 57007 60006 81282 91200=
07650,1997-07-24 15:00:00,32,1012,-1.5,38,16,500,25.928,,,270,,,,,,,,,,,wg-a,,,,AAXX 24154 07650 12600 22714 10320 20160 30084 40120 58015 60006 81202 91500=
07650,1997-07-24 18:00:00,28,1012.3,0.3,55,18,500,18.52,,,270,22.6,32.4,,,,,,,,,wg-a,,,,AAXX 24184 07650 12600 /2710 10280 20180 30087 40123 50003 60006 83282 91800 333 10324 20226=
07650,1997-07-24 21:00:00,25,1014.2,1.8,61,17,20000,25.928,,,300,,,,,,,,,,,wg-a,,,,AAXX 24214 07650 12/70 43014 10250 20170 30105 40142 53018 60006 82031 92100=
07650,1997-07-25 00:00:00,24,1014.4,0.2,65,17,20000,29.632,,,290,,,,,,,,,,,wg-a,,,,AAXX 25004 07650 12/70 22916 10240 20170 30107 40144 52002 60006 81032 90000=
07650,1997-07-25 03:00:00,22,1014.3,-0.1,57,13,20000,38.892,,,290,,,,,,,,,,,wg-a,,,,AAXX 25034 07650 12/70 22921 10220 20130 30106 40143 56001 60006 80001 90300=
07650,1997-07-25 06:00:00,22,1014.7,0.4,50,11,500,46.3,,,290,21,28.4,,,,,,,,,wg-a,,,,AAXX 25064 07650 12/00 42925 10220 20110 30110 40147 52004 60006 82042 90600 333 10284 20210=
07650,1997-07-25 09:00:00,26,1015.3,0.6,48,14,500,38.892,,,320,,,,,,,,,,,wg-a,,,,AAXX 25094 07650 12600 53221 10260 20140 30116 40153 51006 60006 81542 90900=
07650,1997-07-25 12:00:00,28,1014.8,-0.5,37,12,500,35.188,,,300,,,,,,,,,,,wg-a,,,,AAXX 25124 07650 12600 /3019 10280 20120 30111 40148 58005 60006 81142 91200=
07650,1997-07-25 18:00:00,27,1014,-0,45,14,500,38.892,,57.412,330,21.7,28.1,,,,,,,,,wg-a,,,,AAXX 25184 07650 12600 43321 10270 20140 30103 40140 55000 60006 81142 91800 333 10281 20217 91031=
07650,1997-07-25 21:00:00,24,1015.9,1.9,54,14,50000,38.892,,,320,,,,,,,,,,,wg-a,,,,AAXX 25214 07650 12684 33221 10240 20140 30122 40159 53019 60006 81242 92100=
07650,1997-07-26 00:00:00,22,1016.5,0.6,60,14,50000,25.928,,,310,,,,,,,,,,,wg-a,,,,AAXX 26004 07650 12/84 13114 10220 20140 30128 40165 51006 60006 81040 90000=
07650,1997-07-26 03:00:00,21,1015.8,-0.7,69,15,40000,25.928,,,300,,,,,,,,,,,wg-a,,,,AAXX 26034 07650 12/82 13014 10210 20150 30121 40158 56007 60006 80002 90300=
07650,1997-07-26 06:00:00,22,1015.4,-0.4,65,15,50000,35.188,,,310,20.8,26.6,,,,,,,,,wg-a,,,,AAXX 26064 07650 12684 33119 10220 20150 30117 40154 56004 60006 81801 90600 333 10266 20208=
07650,1997-07-26 09:00:00,26,1015,-0.4,48,14,50000,53.708,,72.228,320,,,,,,,,,,,wg-a,,,,AAXX 26094 07650 12684 33229 10260 20140 30113 40150 58004 60006 81101 90900 333 91039=
07650,1997-07-26 12:00:00,29,1014.3,-0.6,40,14,50000,61.116,,72.228,330,,,,,,,,,,,wg-a,,,,AAXX 26124 07650 12684 23333 10290 20140 30107 40143 58006 60006 81101 91200 333 91039=
07650,1997-07-26 18:00:00,28,1013.2,-0.6,42,14,500,53.708,,75.932,320,22.4,29.6,,,,,,,,,wg-a,,,,AAXX 26184 07650 12/00 33229 10280 20140 30096 40132 55006 60006 80001 91800 333 10296 20224 91041=
07650,1997-07-26 21:00:00,25,1014.1,0.8,50,14,25000,53.708,,,340,,,,,,,,,,,wg-a,,,,AAXX 26214 07650 12/75 33429 10250 20140 30104 40141 51008 60006 80001 92100=
07650,1997-07-27 00:00:00,23,1015.1,1,53,13,25000,29.632,,,340,,,,,,,,,,,wg-a,,,,AAXX 27004 07650 12/75 03416 10230 20130 30114 40151 50010 60006 80000 90000=
07650,1997-07-27 03:00:00,19,1015.8,0.6,68,13,500,3.704,,,10,,,,,,,,,,,wg-a,,,,AAXX 27034 07650 12/00 00102 10190 20130 30120 40158 53006 60006 80000 90300=
07650,1997-07-27 06:00:00,21,1016.5,0.8,64,14,500,7.408,,,170,18.6,27.8,,,,,,,,,wg-a,,,,AAXX 27064 07650 12/00 31704 10210 20140 30128 40165 53008 60006 80001 90600 333 10278 20186=
07650,1997-07-27 09:00:00,28,1017,0.5,45,15,500,11.112,,,250,,,,,,,,,,,wg-a,,,,AAXX 27094 07650 12/00 32506 10280 20150 30133 40170 51005 60006 80002 90900=
07650,1997-07-27 12:00:00,32,1017,0.1,36,15,500,11.112,,,270,,,,,,,,,,,wg-a,,,,AAXX 27124 07650 12500 32706 10320 20150 30134 40170 50001 60006 81102 91200=
07650,1997-07-27 15:00:00,32,1016.5,-0.5,34,14,500,11.112,,,200,,,,,,,,,,,wg-a,,,,AAXX 27154 07650 12500 /2006 10320 20140 30129 40165 58005 60006 81102 91500=
07650,1997-07-27 18:00:00,30,1016,-0.5,38,14,500,11.112,,,200,20.8,32.5,,,,,,,,,wg-a,,,,AAXX 27184 07650 12/00 42006 10300 20140 30124 40160 56005 60006 80002 91800 333 10325 20208=
07650,1997-07-28 00:00:00,23,1016.7,-0.2,65,16,500,7.408,,,330,,,,,,,,,,,wg-a,,,,AAXX 28004 07650 12/00 13304 10230 20160 30130 40167 57002 60006 80002 90000=
07650,1997-07-28 03:00:00,20,1016.3,-0.5,73,15,25000,0,,,0,,,,,,,,,,,wg-a,,,,AAXX 28034 07650 12/75 10000 10200 20150 30125 40163 56005 60006 80001 90300=
07650,1997-07-28 06:00:00,21,1017.5,1.3,73,16,500,7.408,,,150,19.4,30.4,,,,,,,,,wg-a,,,,AAXX 28064 07650 12/00 31504 10210 20160 30138 40175 51013 60006 81032 90600 333 10304 20194=
07650,1997-07-28 09:00:00,27,1018.2,0.7,58,18,500,11.112,,,250,,,,,,,,,,,wg-a,,,,AAXX 28094 07650 12/00 22506 10270 20180 30145 40182 51007 60006 80002 90900=
07650,1997-07-28 12:00:00,31,1017.9,-0.2,40,16,20000,18.52,,,250,,,,,,,,,,,wg-a,,,,AAXX 28124 07650 12670 22510 10310 20160 30143 40179 57002 60006 81101 91200=
07650,1997-07-28 15:00:00,29,1017.3,-0.6,48,17,20000,22.224,,,200,,,,,,,,,,,wg-a,,,,AAXX 28154 07650 12670 32012 10290 20170 30137 40173 58006 60006 81902 91500=
07650,1997-07-28 18:00:00,28,1017.5,0.1,45,15,500,14.816,,,190,21.2,31.1,,,,,,,,,wg-a,,,,AAXX 28184 07650 12500 41908 10280 20150 30138 40175 53001 60006 81902 91800 333 10311 20212=
07650,1997-07-28 21:00:00,24,1019.1,1.6,74,19,500,3.704,,,210,,,,,,,,,,,wg-a,,,,AAXX 28214 07650 12600 22102 10240 20190 30154 40191 53016 60006 81402 92100=
07650,1997-07-29 00:00:00,22,1018.3,-0.8,69,16,500,3.704,,,150,,,,,,,,,,,wg-a,,,,AAXX 29004 07650 12/00 21502 10220 20160 30146 40183 58008 60006 80002 90000=
07650,1997-07-29 03:00:00,21,1017.6,-0.7,69,15,500,11.112,,,140,,,,,,,,,,,wg-a,,,,AAXX 29034 07650 12/00 21406 10210 20150 30139 40176 58007 60006 80002 90300=
07650,1997-07-29 06:00:00,23,1018,0.4,69,17,15000,7.408,,,130,20.2,28.3,,,,,,,,,wg-a,,,,AAXX 29064 07650 12/65 21304 10230 20170 30143 40180 51004 60006 81032 90600 333 10283 20202=
07650,1997-07-29 09:00:00,27,1018.3,0.3,54,17,12000,7.408,,,260,,,,,,,,,,,wg-a,,,,AAXX 29094 07650 12/62 42604 10270 20170 30146 40183 51003 60006 80001 90900=
07650,1997-07-29 12:00:00,32,1017,-1.2,38,16,15000,14.816,,,240,,,,,,,,,,,wg-a,,,,AAXX 29124 07650 12665 42408 10320 20160 30134 40170 58012 60006 81101 91200=
07650,1997-07-29 15:00:00,32,1015.6,-1.4,43,18,20000,22.224,,,240,,,,,,,,,,,wg-a,,,,AAXX 29154 07650 12670 42412 10320 20180 30120 40156 58014 60006 81201 91500=
07650,1997-07-29 18:00:00,28,1015.7,-0.1,51,17,25000,25.928,,,240,23,32.9,,,,,,,,,wg-a,,,,AAXX 29184 07650 12675 42414 10280 20170 30121 40157 55001 60006 81201 91800 333 10329 20230=
07650,1997-07-29 21:00:00,26,1016.7,0.9,61,18,25000,3.704,,,200,,,,,,,,,,,wg-a,,,,AAXX 29214 07650 12675 32002 10260 20180 30130 40167 51009 60006 81532 92100=
07650,1997-07-30 00:00:00,24,1016.6,-0.1,69,18,25000,7.408,,,130,,,,,,,,,,,wg-a,,,,AAXX 30004 07650 12/75 01304 10240 20180 30129 40166 58001 60006 80000 90000=
07650,1997-07-30 03:00:00,23,1016.4,-0.2,69,17,25000,7.408,,,360,,,,,,,,,,,wg-a,,,,AAXX 30034 07650 12/75 03604 10230 20170 30127 40164 58002 60006 80000 90300=
07650,1997-07-30 06:00:00,24,1017.4,1,61,16,25000,7.408,,,140,21.1,28.5,,,,,,,,,wg-a,,,,AAXX 30064 07650 12/75 21404 10240 20160 30137 40174 53010 60006 80002 90600 333 10285 20211=
07650,1997-07-30 12:00:00,31,1016.8,-0.9,43,17,20000,18.52,,,250,,,,,,,,,,,wg-a,,,,AAXX 30124 07650 12/70 32510 10310 20170 30132 40168 58009 60006 80002 91200=
07650,1997-07-30 18:00:00,29,1014.9,-0.5,52,18,10000,22.224,,,250,23.4,32.9,,,,,,,,,wg-a,,,,AAXX 30184 07650 12/60 /2512 10290 20180 30113 40149 56005 60006 91800 333 10329 20234=
07650,1997-07-30 21:00:00,27,1016,1,58,18,20000,25.928,,,250,,,,,,,,,,,wg-a,,,,AAXX 30214 07650 12/70 52514 10270 20180 30123 40160 51010 60006 80002 92100=
07650,1997-07-31 00:00:00,25,1015.6,-0.4,69,19,20000,11.112,,,270,,,,,,,,,,,wg-a,,,,AAXX 31004 07650 12/70 32706 10250 20190 30119 40156 58004 60006 80002 90000=
07650,1997-07-31 03:00:00,22,1014.9,-0.7,60,14,25000,11.112,,,140,,,,,,,,,,,wg-a,,,,AAXX 31034 07650 12/75 01406 10220 20140 30112 40149 56007 60006 80000 90300=
07650,1997-07-31 06:00:00,22,1015.5,0.6,60,14,500,7.408,,,360,19.8,28.7,,,,,,,,,wg-a,,,,AAXX 31064 07650 12/00 23604 10220 20140 30118 40155 53006 60006 80002 90600 333 10287 20198=
07650,1997-07-31 09:00:00,28,1015.5,0,40,13,20000,14.816,,,320,,,,,,,,,,,wg-a,,,,AAXX 31094 07650 12/70 13208 10280 20130 30118 40155 50000 60006 80002 90900=
07650,1997-07-31 12:00:00,32,1014.1,-1.3,38,16,25000,29.632,,,320,,,,,,,,,,,wg-a,,,,AAXX 31124 07650 12/75 43216 10320 20160 30105 40141 58013 60006 80002 91200=
07650,1997-07-31 15:00:00,31,1013.1,-1,33,13,40000,42.596,,,320,,,,,,,,,,,wg-a,,,,AAXX 31154 07650 12/82 63223 10310 20130 30095 40131 57010 60006 80002 91500=
07650,1997-07-31 18:00:00,29,1011.9,-1.2,40,14,60000,29.632,,,330,22.1,32.8,,,,,,,,,wg-a,,,,AAXX 31184 07650 12/86 63316 10290 20140 30083 40119 58012 60006 81042 91800 333 10328 20221=
07650,1997-08-01 00:00:00,24,1011.5,-1.2,44,11,500,42.596,,,300,,,,,,,,,,,wg-a,,,,AAXX 01004 07650 12/00 33023 10240 20110 30078 40115 58012 60006 80002 90000=
07650,1997-08-01 03:00:00,23,1010.7,-0.8,44,10,25000,29.632,,57.412,320,,,,,,,,,,,wg-a,,,,AAXX 01034 07650 12/75 43216 10230 20100 30070 40107 56008 60006 80002 90300 333 91031=
07650,1997-08-01 06:00:00,22,1010.6,-0.1,46,10,50000,35.188,,,320,21.7,29.2,,,,,,,,,wg-a,,,,AAXX 01064 07650 12/84 53219 10220 20100 30069 40106 56001 60006 83042 90600 333 10292 20217=
07650,1997-08-01 09:00:00,25,1010.1,-0.5,39,10,50000,57.412,,72.228,320,,,,,,,,,,,wg-a,,,,AAXX 01094 07650 12/84 13231 10250 20100 30064 40101 58005 60006 81042 90900 333 91039=
07650,1997-08-01 12:00:00,29,1009.4,-0.6,33,11,50000,42.596,,64.82,320,,,,,,,,,,,wg-a,,,,AAXX 01124 07650 12/84 03223 10290 20110 30058 40094 58006 60006 80000 91200 333 91035=
07650,1997-08-01 18:00:00,28,1008.5,-0.1,37,12,50000,50.004,,68.524,310,21.7,30.4,,,,,,,,,wg-a,,,,AAXX 01184 07650 12/84 13127 10280 20120 30049 40085 55001 60006 81042 91800 333 10304 20217 91037=
07650,1997-08-01 21:00:00,25,1010.2,1.6,44,12,500,46.3,,68.524,320,,,,,,,,,,,wg-a,,,,AAXX 01214 07650 12/00 03225 10250 20120 30065 40102 51016 60006 80000 92100 333 91037=
07650,1997-08-02 00:00:00,23,1010.7,0.5,53,13,500,22.224,,53.708,330,,,,,,,,,,,wg-a,,,,AAXX 02004 07650 12/00 03312 10230 20130 30070 40107 53005 60006 80000 90000 333 91029=
07650,1997-08-02 06:00:00,22,1012.8,1.7,60,14,50000,11.112,,,350,20,28.3,,,,,,,,,wg-a,,,,AAXX 02064 07650 12/84 13506 10220 20140 30091 40128 53017 60006 80001 90600 333 10283 20200=
07650,1997-08-02 09:00:00,28,1013.2,0.5,42,14,50000,14.816,,,310,,,,,,,,,,,wg-a,,,,AAXX 02094 07650 12/84 23108 10280 20140 30096 40132 51005 60006 80001 90900=
07650,1997-08-02 12:00:00,32,1013,-0.2,36,15,50000,14.816,,,260,,,,,,,,,,,wg-a,,,,AAXX 02124 07650 12584 /2608 10320 20150 30094 40130 57002 60006 81101 91200=
07650,1997-08-02 15:00:00,30,1012.8,-0.2,43,16,35000,22.224,,,190,,,,,,,,,,,wg-a,,,,AAXX 02154 07650 12681 /1912 10300 20160 30092 40128 55002 60006 81100 91500=
07650,1997-08-02 18:00:00,28,1012.6,-0.2,51,17,25000,14.816,,,160,21.6,31.7,,,,,,,,,wg-a,,,,AAXX 02184 07650 12/75 11608 10280 20170 30090 40126 58002 60006 81030 91800 333 10317 20216=
07650,1997-08-02 21:00:00,24,1014.4,1.7,65,17,15000,3.704,,,150,,,,,,,,,,,wg-a,,,,AAXX 02214 07650 12/65 01502 10240 20170 30107 40144 51017 60006 80000 92100=
07650,1997-08-03 00:00:00,23,1014.8,0.4,73,18,15000,7.408,,,140,,,,,,,,,,,wg-a,,,,AAXX 03004 07650 12/65 01404 10230 20180 30111 40148 50004 60006 80000 90000=
07650,1997-08-03 03:00:00,22,1014.3,-0.5,73,17,15000,7.408,,,120,,,,,,,,,,,wg-a,,,,AAXX 03034 07650 12/65 01204 10220 20170 30106 40143 56005 60006 80000 90300=
07650,1997-08-03 06:00:00,23,1015.3,1,78,19,12000,3.704,,,110,21.1,27.5,,,,,,,,,wg-a,,,,AAXX 03064 07650 12/62 01102 10230 20190 30116 40153 51010 60006 80000 90600 333 10275 20211=
07650,1997-08-03 09:00:00,27,1016.1,0.8,62,19,12000,11.112,,,300,,,,,,,,,,,wg-a,,,,AAXX 03094 07650 12662 /3006 10270 20190 30124 40161 51008 60006 81100 90900=
07650,1997-08-03 12:00:00,29,1015.6,-0.4,55,19,20000,18.52,,,190,,,,,,,,,,,wg-a,,,,AAXX 03124 07650 12670 /1910 10290 20190 30120 40156 56004 60006 81100 91200=
07650,1997-08-03 15:00:00,28,1015.5,-0.1,58,19,20000,18.52,,,190,,,,,,,,,,,wg-a,,,,AAXX 03154 07650 12570 /1910 10280 20190 30119 40155 55001 60006 81100 91500=
07650,1997-08-03 18:00:00,26,1015.6,-0,61,18,500,14.816,,,180,22.7,29.6,,,,,,,,,wg-a,,,,AAXX 03184 07650 12500 21808 10260 20180 30119 40156 55000 60006 81230 91800 333 10296 20227=
07650,1997-08-03 21:00:00,23,1016.8,1.2,78,19,20000,7.408,,,190,,,,,,,,,,,wg-a,,,,AAXX 03214 07650 12/70 11904 10230 20190 30131 40168 53012 60006 80001 92100=
07650,1997-08-04 00:00:00,22,1016.8,0,73,17,20000,0,,,0,,,,,,,,,,,wg-a,,,,AAXX 04004 07650 12/70 00000 10220 20170 30131 40168 50000 60006 80000 90000=
07650,1997-08-04 03:00:00,21,1016.5,-0.3,78,17,20000,7.408,,,170,,,,,,,,,,,wg-a,,,,AAXX 04034 07650 12/70 01704 10210 20170 30128 40165 55003 60006 80000 90300=
07650,1997-08-04 06:00:00,22,1017.2,0.7,73,17,13000,7.408,,,70,20.4,26.4,,,,,,,,,wg-a,,,,AAXX 04064 07650 12563 30704 10220 20170 30135 40172 53007 60006 81580 90600 333 10264 20204=
07650,1997-08-04 09:00:00,27,1017,-0.2,62,19,20000,11.112,,,290,,,,,,,,,,,wg-a,,,,AAXX 04094 07650 12/70 32906 10270 20190 30133 40170 58002 60006 82032 90900=
07650,1997-08-04 12:00:00,28,1016.8,-0.1,62,20,20000,25.928,,,180,,,,,,,,,,,wg-a,,,,AAXX 04124 07650 12570 21814 10280 20200 30132 40168 55001 60006 81132 91200=
07650,1997-08-04 15:00:00,28,1016.4,-0.5,45,15,25000,22.224,,,170,,,,,,,,,,,wg-a,,,,AAXX 04154 07650 12575 /1712 10280 20150 30127 40164 55005 60006 81200 91500=
07650,1997-08-04 18:00:00,25,1016.3,-0.1,74,20,20000,11.112,,,140,21.6,30.2,,,,,,,,,wg-a,,,,AAXX 04184 07650 12570 31406 10250 20200 30126 40163 58001 60006 81502 91800 333 10302 20216=
07650,1997-08-04 21:00:00,24,1017.3,1,69,18,15000,7.408,,,130,,,,,,,,,,,wg-a,,,,AAXX 04214 07650 12/65 31304 10240 20180 30136 40173 51010 60006 80001 92100=
07650,1997-08-05 00:00:00,23,1016.7,-0.6,73,18,15000,7.408,,,150,,,,,,,,,,,wg-a,,,,AAXX 05004 07650 12/65 21504 10230 20180 30130 40167 57006 60006 80002 90000=
07650,1997-08-05 03:00:00,22,1016,-0.7,73,17,15000,0,,,0,,,,,,,,,,,wg-a,,,,AAXX 05034 07650 12/65 40000 10220 20170 30123 40160 56007 60006 80002 90300=
07650,1997-08-05 06:00:00,23,1016.4,0.4,69,17,15000,3.704,,,150,21.2,25.2,,,,,,,,,wg-a,,,,AAXX 05064 07650 12465 /1502 10230 20170 30127 40164 53004 60006 81132 90600 333 10252 20212=
07650,1997-08-05 09:00:00,27,1016.2,-0.2,54,17,15000,7.408,,,170,,,,,,,,,,,wg-a,,,,AAXX 05094 07650 12465 71704 10270 20170 30125 40162 58002 60006 83172 90900=
07650,1997-08-05 12:00:00,28,1016.2,-0,48,16,15000,22.224,,,180,,,,,,,,,,,wg-a,,,,AAXX 05124 07650 12465 71812 10280 20160 30125 40162 55000 60006 81132 91200=
07650,1997-08-05 15:00:00,26,1015.2,-1,70,20,15000,11.112,,,160,,,,,,,,,,3,wg-a,,,,AAXX 05154 07650 12465 71606 10260 20200 30115 40152 58010 60006 70382 83272 91500=
07650,1997-08-05 18:00:00,26,1014,-1.2,70,20,15000,11.112,,,250,22.9,29.1,,,,,,,,,wg-a,,,,AAXX 05184 07650 12/65 /2506 10260 20200 30103 40140 55012 60006 91800 333 10291 20229=
07650,1997-08-05 21:00:00,24,1014.6,0.6,83,21,10000,3.704,,,120,,,,,,,,,,,wg-a,,,,AAXX 05214 07650 12560 61202 10240 20210 30109 40146 50006 60006 83532 92100=
07650,1997-08-06 00:00:00,23,1014.4,-0.2,89,21,10000,7.408,,,190,,,,,,,,,,,wg-a,,,,AAXX 06004 07650 12360 71904 10230 20210 30107 40144 55002 60006 84832 90000=
07650,1997-08-06 03:00:00,22,1013,-1.4,94,21,10000,7.408,,,80,,,,,,,,,,,wg-a,,,,AAXX 06034 07650 12460 60804 10220 20210 30093 40130 57014 60006 82502 90300=
07650,1997-08-06 06:00:00,23,1012.6,-0.4,89,21,7000,11.112,,,90,22,26.1,,,,,,,,,wg-a,,,,AAXX 06064 07650 02457 /0906 10230 20210 30089 40126 56004 60006 81630 90600 333 10261 20220 61000=
07650,1997-08-06 09:00:00,25,1012.9,0.3,79,21,75000,7.408,,,300,,,,,,,,,,,wg-a,,,,AAXX 06094 07650 12489 43004 10250 20210 30092 40129 51003 60006 83231 90900=
07650,1997-08-06 12:00:00,29,1011.9,-0.9,48,17,20000,22.224,,,180,,,,,,,,,,,wg-a,,,,AAXX 06124 07650 12570 41812 10290 20170 30083 40119 58009 60006 82202 91200=
07650,1997-08-06 15:00:00,27,1011.2,-0.7,62,19,25000,22.224,,,170,,,,,,,,,,,wg-a,,,,AAXX 06154 07650 12475 21712 10270 20190 30076 40112 56007 60006 82300 91500=
07650,1997-08-06 18:00:00,25,1011.6,0.3,69,19,20000,14.816,,,180,22.9,29.4,,,,,,,,,wg-a,,,,AAXX 06184 07650 12470 21808 10250 20190 30079 40116 51003 60006 82902 91800 333 10294 20229=
07650,1997-08-06 21:00:00,23,1013.2,1.6,83,20,15000,3.704,,,130,,,,,,,,,,,wg-a,,,,AAXX 06214 07650 12465 21302 10230 20200 30095 40132 50016 60006 81202 92100=
07650,1997-08-07 00:00:00,23,1012.8,-0.4,78,19,15000,11.112,,,90,,,,,,,,,,,wg-a,,,,AAXX 07004 07650 12465 30906 10230 20190 30091 40128 58004 60006 82802 90000=
07650,1997-08-07 03:00:00,22,1012.7,-0.1,83,19,15000,7.408,,,120,,,,,,,,,,,wg-a,,,,AAXX 07034 07650 12465 31204 10220 20190 30090 40127 57001 60006 81102 90300=
07650,1997-08-07 06:00:00,22,1013.5,0.8,83,19,9000,11.112,,,70,21.4,25.2,,,,,,,,,wg-a,,,,AAXX 07064 07650 12459 20706 10220 20190 30098 40135 51008 60006 81230 90600 333 10252 20214=
07650,1997-08-07 09:00:00,28,1013.6,0.2,55,18,9000,18.52,,,170,,,,,,,,,,,wg-a,,,,AAXX 07094 07650 12559 21710 10280 20180 30100 40136 53002 60006 82102 90900=
07650,1997-08-07 12:00:00,29,1013.6,-0,55,19,20000,25.928,,,180,,,,,,,,,,,wg-a,,,,AAXX 07124 07650 12570 31814 10290 20190 30100 40136 54000 60006 81280 91200=
07650,1997-08-07 15:00:00,28,1012.9,-0.7,55,18,20000,22.224,,,180,,,,,,,,,,,wg-a,,,,AAXX 07154 07650 12570 /1812 10280 20180 30093 40129 56007 60006 81102 91500=
07650,1997-08-07 18:00:00,26,1013.1,0.1,61,18,20000,18.52,,,170,22.3,29.6,,,,,,,,,wg-a,,,,AAXX 07184 07650 12570 31710 10260 20180 30094 40131 53001 60006 81202 91800 333 10296 20223=
07650,1997-08-07 21:00:00,23,1014.8,1.7,78,19,15000,7.408,,,130,,,,,,,,,,,wg-a,,,,AAXX 07214 07650 12/65 11304 10230 20190 30111 40148 51017 60006 80001 92100=
07650,1997-08-08 00:00:00,22,1015,0.2,78,18,15000,3.704,,,160,,,,,,,,,,,wg-a,,,,AAXX 08004 07650 12/65 01602 10220 20180 30113 40150 53002 60006 80000 90000=
07650,1997-08-08 06:00:00,21,1016.1,0.8,73,16,20000,7.408,,,110,19.4,26.1,,,,,,,,,wg-a,,,,AAXX 08064 07650 12/70 11104 10210 20160 30124 40161 52008 60006 80001 90600 333 10261 20194=
07650,1997-08-08 09:00:00,28,1016.5,0.4,42,14,25000,7.408,,,290,,,,,,,,,,,wg-a,,,,AAXX 08094 07650 12675 /2904 10280 20140 30128 40165 51004 60006 81101 90900=
07650,1997-08-08 12:00:00,31,1015.9,-0.5,46,18,25000,18.52,,,260,,,,,,,,,,,wg-a,,,,AAXX 08124 07650 12675 62610 10310 20180 30123 40159 58005 60006 81102 91200=
07650,1997-08-08 15:00:00,31,1014.9,-1,40,16,25000,11.112,,,270,,,,,,,,,,,wg-a,,,,AAXX 08154 07650 12675 42706 10310 20160 30113 40149 58010 60006 81102 91500=
07650,1997-08-08 18:00:00,28,1015.1,0.2,48,16,25000,14.816,,,210,21.1,31.5,,,,,,,,,wg-a,,,,AAXX 08184 07650 12/75 32108 10280 20160 30115 40151 53002 60006 81032 91800 333 10315 20211=
07650,1997-08-09 00:00:00,23,1016.5,0.6,69,17,25000,0,,,0,,,,,,,,,,,wg-a,,,,AAXX 09004 07650 12/75 20000 10230 20170 30128 40165 51006 60006 80001 90000=
07650,1997-08-09 06:00:00,23,1016.2,0.7,65,16,15000,7.408,,,130,22.1,28.1,,,,,,,,,wg-a,,,,AAXX 09064 07650 12/65 21304 10230 20160 30125 40162 53007 60006 80002 90600 333 10281 20221=
07650,1997-08-09 09:00:00,28,1016,-0.1,58,19,16000,7.408,,,290,,,,,,,,,,,wg-a,,,,AAXX 09094 07650 12/66 12904 10280 20190 30124 40160 58001 60006 80001 90900=
07650,1997-08-09 12:00:00,31,1015.4,-0.6,52,20,20000,14.816,,,210,,,,,,,,,,,wg-a,,,,AAXX 09124 07650 12570 32108 10310 20200 30118 40154 58006 60006 81101 91200=
07650,1997-08-09 15:00:00,31,1014.3,-1.1,52,20,17000,14.816,,,200,,,,,,,,,,,wg-a,,,,AAXX 09154 07650 12/67 12008 10310 20200 30107 40143 57011 60006 80001 91500=
07650,1997-08-09 18:00:00,28,1013.5,-0.8,58,19,15000,14.816,,,180,23.1,31.7,,,,,,,,,wg-a,,,,AAXX 09184 07650 12/65 01808 10280 20190 30099 40135 56008 60006 80000 91800 333 10317 20231=
07650,1997-08-09 21:00:00,25,1015,1.4,79,21,15000,7.408,,,160,,,,,,,,,,,wg-a,,,,AAXX 09214 07650 12/65 11604 10250 20210 30113 40150 52014 60006 80001 92100=
07650,1997-08-10 00:00:00,24,1015.3,0.3,69,18,15000,7.408,,,100,,,,,,,,,,,wg-a,,,,AAXX 10004 07650 12/65 01004 10240 20180 30116 40153 53003 60006 80000 90000=
07650,1997-08-10 03:00:00,23,1014.5,-0.8,73,18,15000,11.112,,,150,,,,,,,,,,,wg-a,,,,AAXX 10034 07650 12/65 21506 10230 20180 30108 40145 56008 60006 80002 90300=
07650,1997-08-10 06:00:00,24,1015,0.5,69,18,12000,7.408,,,80,21.8,28.4,,,,,,,,,wg-a,,,,AAXX 10064 07650 12/62 30804 10240 20180 30113 40150 50005 60006 80001 90600 333 10284 20218=
07650,1997-08-10 09:00:00,29,1015.1,0.2,55,19,10000,11.112,,,280,,,,,,,,,,,wg-a,,,,AAXX 10094 07650 12/60 /2806 10290 20190 30115 40151 50002 60006 80002 90900=
07650,1997-08-10 12:00:00,32,1014.3,-0.8,46,19,15000,22.224,,,180,,,,,,,,,,,wg-a,,,,AAXX 10124 07650 12565 11812 10320 20190 30107 40143 58008 60006 81100 91200=
07650,1997-08-10 15:00:00,31,1013.5,-0.8,52,20,15000,25.928,,,180,,,,,,,,,,,wg-a,,,,AAXX 10154 07650 12565 41814 10310 20200 30099 40135 56008 60006 81102 91500=
07650,1997-08-10 18:00:00,28,1013.2,-0.3,70,22,7000,18.52,,,160,24.3,31.9,,,,,,,,,wg-a,,,,AAXX 10184 07650 12/57 71610 10280 20220 30096 40132 56003 60006 81032 91800 333 10319 20243=
07650,1997-08-10 21:00:00,27,1013.3,-0,70,21,10000,3.704,,,160,,,,,,,,,,,wg-a,,,,AAXX 10214 07650 12/60 51602 10270 20210 30096 40133 55000 60006 82032 92100=
07650,1997-08-11 00:00:00,26,1013.1,-0.2,74,21,9000,11.112,,,110,,,,,,,,,,,wg-a,,,,AAXX 11004 07650 12759 81106 10260 20210 30094 40131 58002 60006 83572 90000=
07650,1997-08-11 03:00:00,26,1011.4,-1.7,58,17,15000,7.408,,,130,,,,,,,,,,,wg-a,,,,AAXX 11034 07650 12/65 81304 10260 20170 30077 40114 58017 60006 85072 90300=
07650,1997-08-11 06:00:00,24,1013.5,2.1,74,19,12000,35.188,,,210,24.2,29.2,,,,,,,,,wg-a,,,,AAXX 11064 07650 12562 82119 10240 20190 30098 40135 53021 60006 84872 90600 333 10292 20242=
07650,1997-08-11 09:00:00,19,1016.2,2.6,88,17,6000,18.52,,,90,,,,16,,,,,,80,wg-a,,,,AAXX 11094 07650 12356 70910 10190 20170 30124 40162 53026 60167 78098 879// 90900=
07650,1997-08-11 12:00:00,20,1014.1,-2,83,17,15000,29.632,,,70,,,,23,,,,,,17,wg-a,,,,AAXX 11124 07650 02565 70716 10200 20170 30104 40141 56020 60396 71798 8597/ 91200 333 60237=
07650,1997-08-11 18:00:00,21,1017,2.2,69,15,15000,0,,,0,18.3,24.2,,,,,,,,3,wg-a,,,,AAXX 11184 07650 12565 70000 10210 20150 30133 40170 53022 60006 70396 83972 91800 333 10242 20183=
07650,1997-08-11 21:00:00,20,1019.6,2.5,78,16,15000,14.816,,,20,,,,,,,,,,,wg-a,,,,AAXX 11214 07650 12565 30208 10200 20160 30158 40196 51025 60006 81501 92100=
07650,1997-08-12 00:00:00,19,1019.9,0.3,83,16,15000,3.704,,,170,,,,,,,,,,,wg-a,,,,AAXX 12004 07650 12/65 01702 10190 20160 30161 40199 51003 60006 80000 90000=
07650,1997-08-12 03:00:00,18,1019.8,-0.1,88,16,15000,3.704,,,360,,,,,,,,,,,wg-a,,,,AAXX 12034 07650 12/65 03602 10180 20160 30160 40198 57001 60006 80000 90300=
07650,1997-08-12 06:00:00,20,1020.5,0.7,78,16,40000,0,,,0,17.6,21.3,,,,,40,,,,wg-a,,,,AAXX 12064 07650 02/82 10000 10200 20160 30167 40205 53007 60006 81031 90600 333 10213 20176 60404=
07650,1997-08-12 09:00:00,26,1020.9,0.5,54,16,500,7.408,,,260,,,,,,,,,,,wg-a,,,,AAXX 12094 07650 12/00 12604 10260 20160 30172 40209 51005 60006 80002 90900=
07650,1997-08-12 12:00:00,30,1020.4,-0.4,46,17,500,14.816,,,260,,,,,,,,,,,wg-a,,,,AAXX 12124 07650 12500 22608 10300 20170 30168 40204 58004 60006 81102 91200=
07650,1997-08-12 15:00:00,31,1019.9,-0.5,40,16,500,18.52,,,240,,,,,,,,,,,wg-a,,,,AAXX 12154 07650 12500 /2410 10310 20160 30163 40199 56005 60006 81101 91500=
07650,1997-08-12 18:00:00,28,1020.1,0.1,48,16,500,14.816,,,210,19.3,31.3,,,,,,,,,wg-a,,,,AAXX 12184 07650 12/00 02108 10280 20160 30164 40201 53001 60006 80000 91800 333 10313 20193=
07650,1997-08-12 21:00:00,24,1021.2,1.1,69,18,25000,7.408,,,140,,,,,,,,,,,wg-a,,,,AAXX 12214 07650 12/75 11404 10240 20180 30175 40212 51011 60006 80001 92100=
07650,1997-08-13 00:00:00,22,1021.4,0.2,78,18,25000,7.408,,,130,,,,,,,,,,,wg-a,,,,AAXX 13004 07650 12/75 01304 10220 20180 30177 40214 53002 60006 80000 90000=
07650,1997-08-13 03:00:00,21,1021.1,-0.4,78,17,20000,3.704,,,110,,,,,,,,,,,wg-a,,,,AAXX 13034 07650 12/70 01102 10210 20170 30173 40211 58004 60006 80000 90300=
07650,1997-08-13 06:00:00,22,1021.6,0.5,69,16,20000,3.704,,,360,20.1,28,,,,,,,,,wg-a,,,,AAXX 13064 07650 12/70 13602 10220 20160 30178 40216 53005 60006 81031 90600 333 10280 20201=
07650,1997-08-13 09:00:00,27,1021.5,0,62,19,18000,11.112,,,260,,,,,,,,,,,wg-a,,,,AAXX 13094 07650 12/68 12606 10270 20190 30178 40215 50000 60006 80001 90900=
07650,1997-08-13 12:00:00,31,1020.7,-0.7,43,17,20000,14.816,,,280,,,,,,,,,,,wg-a,,,,AAXX 13124 07650 12670 /2808 10310 20170 30171 40207 58007 60006 81101 91200=
07650,1997-08-13 18:00:00,27,1020,-0,66,20,500,14.816,,,220,21.7,31.5,,,,,,,,,wg-a,,,,AAXX 13184 07650 12600 32208 10270 20200 30163 40200 55000 60006 81902 91800 333 10315 20217=
07650,1997-08-13 21:00:00,25,1020.5,0.5,74,20,20000,3.704,,,160,,,,,,,,,,,wg-a,,,,AAXX 13214 07650 12/70 11602 10250 20200 30168 40205 50005 60006 80002 92100=
07650,1997-08-14 00:00:00,23,1020.1,-0.4,89,21,18000,7.408,,,120,,,,,,,,,,,wg-a,,,,AAXX 14004 07650 12/68 11204 10230 20210 30164 40201 58004 60006 80002 90000=
07650,1997-08-14 03:00:00,22,1019.7,-0.4,88,20,8000,3.704,,,80,,,,,,,,,,,wg-a,,,,AAXX 14034 07650 12/58 /0802 10220 20200 30160 40197 57004 60006 80001 90300=
07650,1997-08-14 06:00:00,22,1020.7,1,83,19,7000,7.408,,,140,21.3,27.4,,,,,,,,,wg-a,,,,AAXX 14064 07650 12/57 /1404 10220 20190 30170 40207 53010 60006 80001 90600 333 10274 20213=
07650,1997-08-14 09:00:00,28,1020.9,0.2,62,20,7000,7.408,,,260,,,,,,,,,,,wg-a,,,,AAXX 14094 07650 12/57 /2604 10280 20200 30172 40209 51002 60006 80002 90900=
07650,1997-08-14 12:00:00,31,1019.8,,46,18,12000,14.816,,,250,,,,,,,,,,,wg-a,,,,AAXX 14124 07650 12562 /2508 10310 20180 30162 40198 60006 81200 91200=
07650,1997-08-14 15:00:00,31,1019,-0.8,43,17,12000,18.52,,,200,,,,,,,,,,,wg-a,,,,AAXX 14154 07650 12562 32010 10310 20170 30154 40190 57008 60006 81202 91500=
07650,1997-08-14 18:00:00,28,1018.5,-0.6,51,17,18000,14.816,,,190,22.2,31.8,,,,,,,,,wg-a,,,,AAXX 14184 07650 12568 /1908 10280 20170 30148 40185 55006 60006 81902 91800 333 10318 20222=
07650,1997-08-14 21:00:00,25,1019.4,0.9,65,18,17000,7.408,,,210,,,,,,,,,,,wg-a,,,,AAXX 14214 07650 12/67 12104 10250 20180 30157 40194 52009 60006 80002 92100=
07650,1997-08-15 00:00:00,22,1019.2,-0.2,73,17,14000,3.704,,,130,,,,,,,,,,,wg-a,,,,AAXX 15004 07650 12464 /1302 10220 20170 30155 40192 58002 60006 81602 90000=
07650,1997-08-15 03:00:00,22,1018.3,-0.9,83,19,14000,3.704,,,130,,,,,,,,,,,wg-a,,,,AAXX 15034 07650 12464 /1302 10220 20190 30146 40183 57009 60006 81602 90300=
07650,1997-08-15 06:00:00,22,1018.5,0.2,78,18,8000,0,,,0,21,27.7,,,,,,,,,wg-a,,,,AAXX 15064 07650 12/58 30000 10220 20180 30148 40185 53002 60006 81031 90600 333 10277 20210=
07650,1997-08-15 12:00:00,30,1018.4,-0.4,55,20,7000,14.816,,,250,,,,,,,,,,,wg-a,,,,AAXX 15124 07650 12657 32508 10300 20200 30148 40184 58004 60006 81102 91200=
07650,1997-08-15 15:00:00,29,1017.4,-1,58,20,8000,18.52,,,190,,,,,,,,,,,wg-a,,,,AAXX 15154 07650 12658 /1910 10290 20200 30138 40174 56010 60006 81201 91500=
07650,1997-08-15 18:00:00,26,1017.3,-0.2,79,22,8000,7.408,,,190,22.1,31.1,,,,,,,,,wg-a,,,,AAXX 15184 07650 12558 /1904 10260 20220 30136 40173 55002 60006 81202 91800 333 10311 20221=
07650,1997-08-15 21:00:00,25,1017.1,-0.2,83,22,9000,11.112,,,180,,,,,,,,,,,wg-a,,,,AAXX 15214 07650 12559 /1806 10250 20220 30134 40171 55002 60006 81102 92100=
07650,1997-08-16 00:00:00,24,1016.2,-0.9,83,21,9000,14.816,,,290,,,,,,,,,,,wg-a,,,,AAXX 16004 07650 12559 /2908 10240 20210 30125 40162 58009 60006 81502 90000=
07650,1997-08-16 03:00:00,22,1015.3,-0.9,78,18,12000,3.704,,,320,,,,,,,,,,,wg-a,,,,AAXX 16034 07650 12/62 23202 10220 20180 30116 40153 56009 60006 80002 90300=
07650,1997-08-16 06:00:00,22,1015.4,0.1,83,19,9000,0,,,0,20.4,26.7,,,,,,,,,wg-a,,,,AAXX 16064 07650 12/59 30000 10220 20190 30117 40154 53001 60006 81082 90600 333 10267 20204=
07650,1997-08-16 09:00:00,26,1016.1,0.7,70,20,10000,7.408,,,360,,,,,,,,,,,wg-a,,,,AAXX 16094 07650 12/60 33604 10260 20200 30124 40161 51007 60006 80002 90900=
07650,1997-08-16 12:00:00,30,1015.8,-0.2,46,17,15000,7.408,,,270,,,,,,,,,,,wg-a,,,,AAXX 16124 07650 12565 32704 10300 20170 30122 40158 58002 60006 81202 91200=
07650,1997-08-16 15:00:00,31,1014.9,-0.9,49,19,25000,14.816,,,190,,,,,,,,,,,wg-a,,,,AAXX 16154 07650 12575 41908 10310 20190 30113 40149 55009 60006 81902 91500=
07650,1997-08-16 18:00:00,26,1015.7,0.7,70,20,15000,38.892,,,290,21.5,32.6,,,,,,,,,wg-a,,,,AAXX 16184 07650 12565 /2921 10260 20200 30120 40157 50007 60006 81932 91800 333 10326 20215=
07650,1997-08-16 21:00:00,23,1016.5,0.8,78,19,15000,11.112,,,350,,,,0,,,,,,1,wg-a,,,,AAXX 16214 07650 12565 53506 10230 20190 30128 40165 51008 60007 70162 83832 92100=
07650,1997-08-17 00:00:00,22,1016.5,0,78,18,15000,7.408,,,10,,,,,,,,,,1,wg-a,,,,AAXX 17004 07650 12/65 10104 10220 20180 30128 40165 50000 60006 70161 80002 90000=
07650,1997-08-17 03:00:00,21,1016.1,-0.4,83,18,15000,3.704,,,210,,,,,,,,,,,wg-a,,,,AAXX 17034 07650 12/65 12102 10210 20180 30124 40161 57004 60006 80002 90300=
07650,1997-08-17 06:00:00,21,1016.3,0.2,83,18,20000,7.408,,,160,20.2,25.9,,,,,,,,,wg-a,,,,AAXX 17064 07650 02/70 11604 10210 20180 30126 40163 53002 60006 81032 90600 333 10259 20202 60004=
07650,1997-08-17 09:00:00,25,1016.7,0.4,65,18,15000,14.816,,,280,,,,,,,,,,,wg-a,,,,AAXX 17094 07650 12/65 12808 10250 20180 30130 40167 51004 60006 80002 90900=
07650,1997-08-17 12:00:00,30,1015.4,-1.2,43,16,500,29.632,,,300,,,,,,,,,,,wg-a,,,,AAXX 17124 07650 12500 /3016 10300 20160 30118 40154 58012 60006 81200 91200=
07650,1997-08-17 15:00:00,31,1014.1,-1.3,40,16,500,31.484,,,300,,,,,,,,,,,wg-a,,,,AAXX 17154 07650 12500 /3017 10310 20160 30105 40141 56013 60006 81202 91500=
07650,1997-08-17 18:00:00,28,1014.7,0.6,58,19,500,22.224,,,250,21.3,31.6,,,,,,,,,wg-a,,,,AAXX 17184 07650 12500 32512 10280 20190 30111 40147 53006 60006 81202 91800 333 10316 20213=
07650,1997-08-17 21:00:00,25,1016.9,2.1,74,20,15000,11.112,,,170,,,,,,,,,,,wg-a,,,,AAXX 17214 07650 12/65 11706 10250 20200 30132 40169 51021 60006 80001 92100=
07650,1997-08-18 00:00:00,24,1016.3,-0.6,78,20,12000,11.112,,,130,,,,,,,,,,,wg-a,,,,AAXX 18004 07650 12/62 01306 10240 20200 30126 40163 57006 60006 80000 90000=
07650,1997-08-18 03:00:00,21,1015.6,-0.7,83,18,15000,7.408,,,60,,,,,,,,,,,wg-a,,,,AAXX 18034 07650 12/65 00604 10210 20180 30119 40156 58007 60006 80000 90300=
07650,1997-08-18 06:00:00,21,1016.1,0.5,83,18,15000,3.704,,,90,20.3,28.1,,,,,,,,,wg-a,,,,AAXX 18064 07650 12565 /0902 10210 20180 30124 40161 53005 60006 85502 90600 333 10281 20203=
07650,1997-08-18 09:00:00,26,1016.7,0.6,70,20,15000,7.408,,,300,,,,,,,,,,,wg-a,,,,AAXX 18094 07650 12565 43004 10260 20200 30130 40167 53006 60006 83502 90900=
07650,1997-08-18 12:00:00,29,1016.1,-0.5,58,20,15000,11.112,,,250,,,,,,,,,,,wg-a,,,,AAXX 18124 07650 12565 32506 10290 20200 30125 40161 58005 60006 82101 91200=
07650,1997-08-18 15:00:00,29,1014.4,-1.7,62,21,20000,18.52,,,210,,,,,,,,,,,wg-a,,,,AAXX 18154 07650 12570 /2110 10290 20210 30108 40144 56017 60006 81201 91500=
07650,1997-08-18 18:00:00,26,1015.1,0.6,74,21,15000,11.112,,,180,21.3,29.8,,,,,,,,,wg-a,,,,AAXX 18184 07650 12565 /1806 10260 20210 30114 40151 52006 60006 81982 91800 333 10298 20213=
07650,1997-08-18 21:00:00,25,1016.1,1,83,22,12000,11.112,,,180,,,,,,,,,,,wg-a,,,,AAXX 18214 07650 12/62 21806 10250 20220 30124 40161 51010 60006 80002 92100=
07650,1997-08-19 00:00:00,23,1015.5,-0.6,83,20,15000,11.112,,,110,,,,,,,,,,,wg-a,,,,AAXX 19004 07650 12/65 01106 10230 20200 30118 40155 58006 60006 80000 90000=
07650,1997-08-19 03:00:00,22,1014.8,-0.7,88,20,15000,7.408,,,130,,,,,,,,,,,wg-a,,,,AAXX 19034 07650 12/65 21304 10220 20200 30111 40148 58007 60006 82031 90300=
07650,1997-08-19 06:00:00,22,1015.2,0.4,88,20,8000,7.408,,,100,21.4,25.9,,,,,,,,,wg-a,,,,AAXX 19064 07650 12458 41004 10220 20200 30115 40152 51004 60006 83632 90600 333 10259 20214=
07650,1997-08-19 09:00:00,27,1015.7,0.5,70,21,15000,7.408,,,350,,,,,,,,,,,wg-a,,,,AAXX 19094 07650 12565 43504 10270 20210 30120 40157 51005 60006 83102 90900=
07650,1997-08-19 12:00:00,29,1015.4,-0.2,62,21,15000,14.816,,,250,,,,,,,,,,,wg-a,,,,AAXX 19124 07650 12565 52508 10290 20210 30118 40154 57002 60006 83202 91200=
07650,1997-08-19 15:00:00,29,1014.3,-1.1,62,21,20000,14.816,,,210,,,,,,,,,,,wg-a,,,,AAXX 19154 07650 12570 /2108 10290 20210 30107 40143 58011 60006 82202 91500=
07650,1997-08-19 18:00:00,26,1014.5,0.1,74,21,20000,11.112,,,180,22.3,29.5,,,,,,,,,wg-a,,,,AAXX 19184 07650 12570 31806 10260 20210 30108 40145 53001 60006 81902 91800 333 10295 20223=
07650,1997-08-19 21:00:00,24,1015.7,1.2,83,21,18000,3.704,,,170,,,,,,,,,,,wg-a,,,,AAXX 19214 07650 12668 41702 10240 20210 30120 40157 51012 60006 81132 92100=
07650,1997-08-20 00:00:00,23,1015.5,-0.2,78,19,18000,7.408,,,90,,,,,,,,,,,wg-a,,,,AAXX 20004 07650 12/68 40904 10230 20190 30118 40155 58002 60006 82031 90000=
07650,1997-08-20 03:00:00,22,1015.3,-0.2,78,18,14000,7.408,,,60,,,,,,,,,,,wg-a,,,,AAXX 20034 07650 12/64 50604 10220 20180 30116 40153 55002 60006 82032 90300=
07650,1997-08-20 06:00:00,23,1016.3,1,73,18,8000,3.704,,,110,21.3,26.3,,,,,,,,,wg-a,,,,AAXX 20064 07650 12/58 /1102 10230 20180 30126 40163 53010 60006 85032 90600 333 10263 20213=
07650,1997-08-20 09:00:00,27,1017.1,0.8,70,21,9000,7.408,,,280,,,,,,,,,,,wg-a,,,,AAXX 20094 07650 12559 52804 10270 20210 30134 40171 51008 60006 82232 90900=
07650,1997-08-20 12:00:00,29,1016.7,-0.3,62,21,12000,14.816,,,230,,,,,,,,,,,wg-a,,,,AAXX 20124 07650 12562 42308 10290 20210 30131 40167 58003 60006 83202 91200=
07650,1997-08-20 15:00:00,28,1016.1,-0.6,62,20,12000,22.224,,,190,,,,,,,,,,,wg-a,,,,AAXX 20154 07650 12562 31912 10280 20200 30125 40161 56006 60006 83202 91500=
07650,1997-08-20 18:00:00,26,1016.4,0.2,74,21,12000,14.816,,,190,22.8,30.1,,,,,,,,,wg-a,,,,AAXX 20184 07650 12562 31908 10260 20210 30127 40164 53002 60006 82253 91800 333 10301 20228=
07650,1997-08-20 21:00:00,24,1017.5,1.1,83,21,12000,7.408,,,170,,,,,,,,,,,wg-a,,,,AAXX 20214 07650 12/62 21704 10240 20210 30138 40175 51011 60006 80003 92100=
07650,1997-08-21 00:00:00,23,1017.6,0.1,83,20,9000,7.408,,,110,,,,,,,,,,,wg-a,,,,AAXX 21004 07650 12/59 31104 10230 20200 30139 40176 50001 60006 81032 90000=
07650,1997-08-21 03:00:00,22,1018.1,0.5,83,19,8000,7.408,,,340,,,,,,,,,,,wg-a,,,,AAXX 21034 07650 12/58 33404 10220 20190 30144 40181 50005 60006 80002 90300=
07650,1997-08-21 06:00:00,22,1019,0.9,83,19,6000,3.704,,,90,21.9,25.9,,,,,,,,,wg-a,,,,AAXX 21064 07650 12/56 50902 10220 20190 30153 40190 51009 60006 83082 90600 333 10259 20219=
07650,1997-08-21 07:00:00,22,1019,0.9,83,19,6000,3.704,,,90,21.9,,,,,,,,,,wg-a,,,,AAXX 21074 07650 12/56 /0902 10220 20190 30153 40190 51009 60006 83182 90700 333 20219=
07650,1997-08-21 09:00:00,28,1019.3,0.3,62,20,10000,7.408,,,270,,,,,,,,,,,wg-a,,,,AAXX 21094 07650 12560 52704 10280 20200 30156 40193 50003 60006 81182 90900=
07650,1997-08-21 12:00:00,29,1018.6,-0.6,52,18,12000,11.112,,,280,,,,,,,,,,,wg-a,,,,AAXX 21124 07650 12562 72806 10290 20180 30150 40186 58006 60006 81182 91200=
07650,1997-08-21 18:00:00,26,1018.1,0.3,74,21,15000,14.816,,,260,22.4,30.8,,,,,,,,3,wg-a,,,,AAXX 21184 07650 12565 72608 10260 20210 30144 40181 51003 60006 70392 83902 91800 333 10308 20224=
07650,1997-08-22 00:00:00,21,1019.8,0.2,73,16,20000,3.704,,,140,,,,,,,,,,,wg-a,,,,AAXX 22004 07650 12670 41402 10210 20160 30161 40198 51002 60006 81531 90000=
07650,1997-08-22 06:00:00,21,1020,0.3,69,15,500,7.408,,,100,20.2,26.3,,,,,,,,,wg-a,,,,AAXX 22064 07650 12600 31004 10210 20150 30162 40200 52003 60006 81501 90600 333 10263 20202=
07650,1997-08-22 09:00:00,28,1020.4,0.5,48,16,15000,11.112,,,280,,,,,,,,,,,wg-a,,,,AAXX 22094 07650 12/65 02806 10280 20160 30167 40204 51005 60006 80000 90900=
07650,1997-08-22 12:00:00,29,1020.1,-0.3,48,17,15000,18.52,,,200,,,,,,,,,,,wg-a,,,,AAXX 22124 07650 12565 42010 10290 20170 30164 40201 57003 60006 82201 91200=
07650,1997-08-22 15:00:00,29,1018.7,-1.4,43,15,20000,18.52,,,190,,,,,,,,,,,wg-a,,,,AAXX 22154 07650 12570 41910 10290 20150 30150 40187 58014 60006 81102 91500=
07650,1997-08-22 18:00:00,27,1018.5,-0.2,51,16,20000,11.112,,,180,21.2,29.9,,,,,,,,,wg-a,,,,AAXX 22184 07650 12570 31806 10270 20160 30148 40185 55002 60006 81102 91800 333 10299 20212=
07650,1997-08-22 21:00:00,25,1019.8,1.3,65,18,25000,3.704,,,140,,,,,,,,,,,wg-a,,,,AAXX 22214 07650 12/75 21402 10250 20180 30161 40198 51013 60006 80002 92100=
07650,1997-08-23 00:00:00,23,1019.6,-0.2,69,17,20000,11.112,,,60,,,,,,,,,,,wg-a,,,,AAXX 23004 07650 12/70 10606 10230 20170 30159 40196 58002 60006 81032 90000=
07650,1997-08-23 03:00:00,22,1018.9,-0.7,69,16,12000,7.408,,,70,,,,,,,,,,,wg-a,,,,AAXX 23034 07650 12/62 20704 10220 20160 30152 40189 57007 60006 81031 90300=
07650,1997-08-23 06:00:00,23,1018.7,-0.2,65,16,10000,7.408,,,140,21.2,26.7,,,,,,,,,wg-a,,,,AAXX 23064 07650 12660 41404 10230 20160 30150 40187 56002 60006 83531 90600 333 10267 20212=
07650,1997-08-23 09:00:00,27,1018.9,0.2,54,17,25000,7.408,,,260,,,,,,,,,,,wg-a,,,,AAXX 23094 07650 12/75 02604 10270 20170 30152 40189 52002 60006 80000 90900=
07650,1997-08-23 12:00:00,31,1018.2,-0.6,38,15,20000,11.112,,,260,,,,,,,,,,,wg-a,,,,AAXX 23124 07650 12670 /2606 10310 20150 30146 40182 58006 60006 81101 91200=
07650,1997-08-23 15:00:00,30,1017.2,-1,40,15,20000,18.52,,,210,,,,,,,,,,,wg-a,,,,AAXX 23154 07650 12670 /2110 10300 20150 30136 40172 58010 60006 81101 91500=
07650,1997-08-23 18:00:00,28,1017.1,-0.2,48,16,20000,11.112,,,220,22.5,30.9,,,,,,,,,wg-a,,,,AAXX 23184 07650 12/70 32206 10280 20160 30134 40171 55002 60006 83030 91800 333 10309 20225=
07650,1997-08-23 21:00:00,25,1017.1,0,65,18,12000,3.704,,,150,,,,,,,,,,,wg-a,,,,AAXX 23214 07650 12/62 41502 10250 20180 30134 40171 50000 60006 83032 92100=
07650,1997-08-24 00:00:00,24,1017.3,0.2,69,18,12000,11.112,,,130,,,,,,,,,,,wg-a,,,,AAXX 24004 07650 12/62 21306 10240 20180 30136 40173 50002 60006 80001 90000=
07650,1997-08-24 03:00:00,22,1016.9,-0.4,78,18,15000,7.408,,,110,,,,,,,,,,,wg-a,,,,AAXX 24034 07650 12/65 11104 10220 20180 30132 40169 56004 60006 80001 90300=
07650,1997-08-24 06:00:00,22,1017.4,0.5,73,17,12000,11.112,,,130,21.1,27.4,,,,,,,,,wg-a,,,,AAXX 24064 07650 12/62 01306 10220 20170 30137 40174 53005 60006 80000 90600 333 10274 20211=
07650,1997-08-24 09:00:00,27,1017.3,-0.1,51,16,10000,7.408,,,260,,,,,,,,,,,wg-a,,,,AAXX 24094 07650 12/60 /2604 10270 20160 30136 40173 58001 60006 80002 90900=
07650,1997-08-24 12:00:00,29,1016.5,-0.7,45,16,12000,11.112,,,260,,,,,,,,,,,wg-a,,,,AAXX 24124 07650 12/62 02606 10290 20160 30129 40165 58007 60006 80000 91200=
07650,1997-08-24 15:00:00,30,1015.3,-1.2,49,18,12000,22.224,,,250,,,,,,,,,,,wg-a,,,,AAXX 24154 07650 12/62 22512 10300 20180 30117 40153 58012 60006 80002 91500=
07650,1997-08-24 18:00:00,27,1014.8,-0.6,58,18,12000,11.112,,,180,22,30.5,,,,,,,,,wg-a,,,,AAXX 24184 07650 12/62 01806 10270 20180 30111 40148 56006 60006 80000 91800 333 10305 20220=
07650,1997-08-24 21:00:00,25,1014.8,-0,74,20,18000,7.408,,,140,,,,,,,,,,,wg-a,,,,AAXX 24214 07650 12/68 01404 10250 20200 30111 40148 54000 60006 80000 92100=
07650,1997-08-25 00:00:00,24,1015,0.2,74,19,18000,7.408,,,120,,,,,,,,,,,wg-a,,,,AAXX 25004 07650 12/68 01204 10240 20190 30113 40150 50002 60006 80000 90000=
07650,1997-08-25 03:00:00,23,1014.2,-0.8,78,19,15000,11.112,,,100,,,,,,,,,,,wg-a,,,,AAXX 25034 07650 12665 31006 10230 20190 30105 40142 56008 60006 83500 90300=
07650,1997-08-25 06:00:00,22,1014,-0.2,78,18,9000,14.816,,,90,21.1,26.8,,,,,,,,,wg-a,,,,AAXX 25064 07650 12559 /0908 10220 20180 30103 40140 58002 60006 81201 90600 333 10268 20211=
07650,1997-08-25 09:00:00,27,1014,-0,58,18,15000,14.816,,,150,,,,,,,,,,,wg-a,,,,AAXX 25094 07650 12565 41508 10270 20180 30103 40140 55000 60006 82202 90900=
07650,1997-08-25 12:00:00,30,1013.2,-0.7,38,14,20000,22.224,,,160,,,,,,,,,,,wg-a,,,,AAXX 25124 07650 12670 /1612 10300 20140 30096 40132 58007 60006 82201 91200=
07650,1997-08-25 15:00:00,29,1012.1,-1.1,40,14,20000,22.224,,,180,,,,,,,,,,,wg-a,,,,AAXX 25154 07650 12670 31812 10290 20140 30085 40121 56011 60006 81102 91500=
07650,1997-08-25 18:00:00,25,1011.7,-0.5,65,18,18000,14.816,,,170,21.8,30.1,,,,,,,,,wg-a,,,,AAXX 25184 07650 12668 71708 10250 20180 30080 40117 56005 60006 81532 91800 333 10301 20218=
07650,1997-08-26 00:00:00,23,1012.4,0.1,78,19,15000,14.816,,,190,,,,0,,,,,,61,wg-a,,,,AAXX 26004 07650 02565 81908 10230 20190 30087 40124 53001 60006 76162 8527/ 90000 333 60007=
07650,1997-08-26 03:00:00,21,1011.6,-0.8,88,19,15000,7.408,,,120,,,,1,,,,,,,wg-a,,,,AAXX 26034 07650 12465 81204 10210 20190 30079 40116 56008 60017 8597/ 90300=
07650,1997-08-26 06:00:00,21,1011.6,-0,88,19,12000,3.704,,,180,20.6,25.6,,,,,1,,,3,wg-a,,,,AAXX 26064 07650 02562 81802 10210 20190 30079 40116 55000 60006 70362 8387/ 90600 333 10256 20206 60014=
07650,1997-08-26 09:00:00,24,1011.8,0.2,61,16,12000,7.408,,,60,,,,,,,,,,,wg-a,,,,AAXX 26094 07650 12562 70604 10240 20160 30081 40118 53002 60006 8587/ 90900=
07650,1997-08-26 12:00:00,26,1011.5,-0.3,58,17,15000,11.112,,,260,,,,,,,,,,,wg-a,,,,AAXX 26124 07650 12565 82606 10260 20170 30078 40115 56003 60006 8487/ 91200=
07650,1997-08-26 18:00:00,25,1010.8,-0,61,17,20000,11.112,,,190,21.2,27,,,,,,,,,wg-a,,,,AAXX 26184 07650 12570 /1906 10250 20170 30071 40108 55000 60006 81202 91800 333 10270 20212=
07650,1997-08-26 21:00:00,23,1011.2,0.4,69,17,12000,7.408,,,130,,,,,,,,,,,wg-a,,,,AAXX 26214 07650 12/62 11304 10230 20170 30075 40112 50004 60006 80001 92100=
07650,1997-08-27 00:00:00,21,1011.2,-0,78,17,12000,7.408,,,100,,,,,,,,,,,wg-a,,,,AAXX 27004 07650 12562 51004 10210 20170 30075 40112 55000 60006 82501 90000=
07650,1997-08-27 06:00:00,22,1010.3,-0.1,78,18,12000,11.112,,,80,21,24.9,,,,,,,,,wg-a,,,,AAXX 27064 07650 12562 /0806 10220 20180 30066 40103 56001 60006 84802 90600 333 10249 20210=
07650,1997-08-27 09:00:00,26,1010.3,0,61,18,18000,18.52,,,140,,,,,,,,,,,wg-a,,,,AAXX 27094 07650 12568 41410 10260 20180 30066 40103 50000 60006 83232 90900=
07650,1997-08-27 12:00:00,27,1009.9,-0.3,58,18,20000,25.928,,,140,,,,,,,,,,,wg-a,,,,AAXX 27124 07650 12570 51414 10270 20180 30063 40099 58003 60006 83202 91200=
07650,1997-08-27 15:00:00,27,1008.4,-1.5,62,19,20000,31.484,,,150,,,,,,,,,,,wg-a,,,,AAXX 27154 07650 12570 /1517 10270 20190 30048 40084 58015 60006 83201 91500=
07650,1997-08-27 18:00:00,26,1007.8,-0.6,70,20,20000,29.632,,,140,21.2,27.9,,,,,,,,,wg-a,,,,AAXX 27184 07650 12570 /1416 10260 20200 30042 40078 56006 60006 83201 91800 333 10279 20212=
07650,1997-08-27 21:00:00,26,1007.3,-0.5,74,21,18000,35.188,,,130,,,,,,,,,,,wg-a,,,,AAXX 27214 07650 12568 /1319 10260 20210 30037 40073 58005 60006 83201 92100=
07650,1997-08-28 00:00:00,26,1006.6,-0.7,79,22,18000,29.632,,50.004,160,,,,,,,,,,,wg-a,,,,AAXX 28004 07650 12568 61616 10260 20220 30030 40066 56007 60006 83201 90000 333 91027=
07650,1997-08-28 06:00:00,22,1005.5,-0.4,78,18,20000,11.112,,,290,22.1,26.2,,,,,3,,,13,wg-a,,,,AAXX 28064 07650 02470 82906 10220 20180 30018 40055 55004 60006 71362 8597/ 90600 333 10262 20221 60034=
07650,1997-08-28 09:00:00,18,1008.5,3,83,15,20000,22.224,,,320,,,,6,,,,,,15,wg-a,,,,AAXX 28094 07650 12470 83212 10180 20150 30048 40085 51030 60067 71562 8588/ 90900=
07650,1997-08-28 12:00:00,19,1009.5,1,78,15,40000,29.632,,,300,,,,,,,,,,1,wg-a,,,,AAXX 28124 07650 12482 /3016 10190 20150 30058 40095 51010 60066 70162 82872 91200=
07650,1997-08-28 15:00:00,24,1009.9,0.4,50,13,60000,29.632,,,290,,,,,,,,,,,wg-a,,,,AAXX 28154 07650 12586 /2916 10240 20130 30062 40099 51004 60006 83932 91500=
07650,1997-08-28 18:00:00,21,1011.8,1.9,53,11,50000,31.484,,,310,18.2,23.8,,,,,,,,,wg-a,,,,AAXX 28184 07650 12584 53117 10210 20110 30081 40118 53019 60006 83933 91800 333 10238 20182=
07650,1997-08-28 21:00:00,19,1014.5,2.6,60,11,25000,46.3,,,280,,,,,,,,,,,wg-a,,,,AAXX 28214 07650 12675 /2825 10190 20110 30107 40145 51026 60006 81530 92100=
07650,1997-08-29 00:00:00,19,1015.9,1.4,60,11,25000,46.3,,,280,,,,,,,,,,,wg-a,,,,AAXX 29004 07650 12675 32825 10190 20110 30121 40159 51014 60006 81530 90000=
07650,1997-08-29 03:00:00,18,1016.7,0.8,68,12,25000,38.892,,,280,,,,,,,,,,,wg-a,,,,AAXX 29034 07650 12/75 22821 10180 20120 30129 40167 53008 60006 81031 90300=
07650,1997-08-29 06:00:00,16,1018,1.3,77,12,500,31.484,,,300,15.7,21.1,,,,,6,,,,wg-a,,,,AAXX 29064 07650 02500 /3017 10160 20120 30142 40180 53013 60006 81530 90600 333 10211 20157 60064=
07650,1997-08-29 09:00:00,22,1018.8,0.9,50,11,500,31.484,,,300,,,,,,,,,,,wg-a,,,,AAXX 29094 07650 12500 /3017 10220 20110 30151 40188 53009 60006 81500 90900=
07650,1997-08-29 12:00:00,24,1019,0.2,41,10,50000,29.632,,,290,,,,,,,,,,,wg-a,,,,AAXX 29124 07650 12584 32916 10240 20100 30153 40190 50002 60006 83200 91200=
07650,1997-08-29 15:00:00,25,1018.2,-0.8,41,11,50000,22.224,,,320,,,,,,,,,,,wg-a,,,,AAXX 29154 07650 12584 43212 10250 20110 30145 40182 56008 60006 83202 91500=
07650,1997-08-29 18:00:00,24,1018.3,0.1,44,11,50000,22.224,,,330,16.4,25.8,,,,,,,,,wg-a,,,,AAXX 29184 07650 12584 23312 10240 20110 30146 40183 53001 60006 81102 91800 333 10258 20164=
07650,1997-08-30 00:00:00,18,1020.2,0.2,64,11,40000,18.52,,,310,,,,,,,,,,,wg-a,,,,AAXX 30004 07650 12/82 33110 10180 20110 30164 40202 52002 60006 81032 90000=
07650,1997-08-30 03:00:00,15,1019.9,-0.3,72,10,40000,11.112,,,320,,,,,,,,,,,wg-a,,,,AAXX 30034 07650 12/82 13206 10150 20100 30161 40199 58003 60006 80002 90300=
07650,1997-08-30 06:00:00,17,1019.8,-0.1,68,11,60000,14.816,,,200,15.1,23.5,,,,,,,,,wg-a,,,,AAXX 30064 07650 12/86 12008 10170 20110 30160 40198 56001 60006 81042 90600 333 10235 20151=
07650,1997-08-30 09:00:00,23,1019.6,-0.1,53,13,75000,25.928,,,290,,,,,,,,,,,wg-a,,,,AAXX 30094 07650 12/89 12914 10230 20130 30159 40196 57001 60006 80002 90900=
07650,1997-08-30 12:00:00,27,1018.8,-0.8,39,12,75000,25.928,,,280,,,,,,,,,,,wg-a,,,,AAXX 30124 07650 12/89 12814 10270 20120 30151 40188 58008 60006 81040 91200=
07650,1997-08-30 15:00:00,29,1017.6,-1.2,40,14,75000,25.928,,,280,,,,,,,,,,,wg-a,,,,AAXX 30154 07650 12/89 02814 10290 20140 30139 40176 56012 60006 80000 91500=
07650,1997-08-30 18:00:00,25,1017.4,-0.2,57,16,75000,18.52,,,260,16.8,28.9,,,,,,,,,wg-a,,,,AAXX 30184 07650 12/89 02610 10250 20160 30137 40174 55002 60006 80000 91800 333 10289 20168=
07650,1997-08-30 21:00:00,22,1017.9,0.5,73,17,40000,22.224,,,300,,,,,,,,,,,wg-a,,,,AAXX 30214 07650 12/82 03012 10220 20170 30142 40179 53005 60006 80000 92100=
07650,1997-08-31 00:00:00,21,1017,-0.9,69,15,40000,0,,,0,,,,,,,,,,,wg-a,,,,AAXX 31004 07650 12/82 00000 10210 20150 30133 40170 56009 60006 80000 90000=
07650,1997-08-31 03:00:00,18,1016.4,-0.7,83,15,500,7.408,,,100,,,,,,,,,,,wg-a,,,,AAXX 31034 07650 12/00 01004 10180 20150 30126 40164 56007 60006 80000 90300=
07650,1997-08-31 06:00:00,19,1017.2,0.8,78,15,500,7.408,,,120,18,25,,,,,,,,,wg-a,,,,AAXX 31064 07650 12/00 01204 10190 20150 30134 40172 53008 60006 80000 90600 333 10250 20180=
07650,1997-08-31 12:00:00,28,1017.9,0.2,48,16,500,22.224,,,180,,,,,,,,,,,wg-a,,,,AAXX 31124 07650 12/00 01812 10280 20160 30142 40179 53002 60006 80000 91200=
07650,1997-08-31 15:00:00,28,1017.4,-0.5,35,11,500,14.816,,,180,,,,,,,,,,,wg-a,,,,AAXX 31154 07650 12/00 11808 10280 20110 30137 40174 58005 60006 80002 91500=
07650,1997-08-31 18:00:00,25,1017.2,-0.2,54,15,500,14.816,,,170,18.8,28.8,,,,,,,,,wg-a,,,,AAXX 31184 07650 12/00 11708 10250 20150 30135 40172 55002 60006 80002 91800 333 10288 20188=
07650,1997-08-31 21:00:00,21,1018.2,1,73,16,500,7.408,,,130,,,,,,,,,,,wg-a,,,,AAXX 31214 07650 12/00 11304 10210 20160 30145 40182 51010 60006 80002 92100=
07650,1997-09-01 00:00:00,21,1018.4,0.1,60,13,500,7.408,,,130,,,,,,,,,,,wg-a,,,,AAXX 01004 07650 12/00 01304 10210 20130 30146 40184 50001 60006 80000 90000=
07650,1997-09-01 03:00:00,18,1018,-0.4,73,13,20000,7.408,,,110,,,,,,,,,,,wg-a,,,,AAXX 01034 07650 12/70 01104 10180 20130 30142 40180 57004 60006 80000 90300=
07650,1997-09-01 06:00:00,20,1018,0,64,13,25000,7.408,,,50,17.7,24.9,,,,,,,,,wg-a,,,,AAXX 01064 07650 12575 40504 10200 20130 30142 40180 50000 60006 81501 90600 333 10249 20177=
07650,1997-09-01 09:00:00,26,1017.8,-0.1,48,14,50000,11.112,,,200,,,,,,,,,,,wg-a,,,,AAXX 01094 07650 12/84 52006 10260 20140 30141 40178 55001 60006 80002 90900=
07650,1997-09-01 12:00:00,28,1017.1,-0.7,51,17,50000,25.928,,,190,,,,,,,,,,,wg-a,,,,AAXX 01124 07650 12484 /1914 10280 20170 30134 40171 56007 60006 81182 91200=
07650,1997-09-01 15:00:00,25,1017.6,0.5,65,18,500,14.816,,,180,,,,,,,,,,,wg-a,,,,AAXX 01154 07650 12500 /1808 10250 20180 30139 40176 50005 60006 81182 91500=
07650,1997-09-01 18:00:00,24,1016.9,-0.7,61,16,500,3.704,,,300,19.5,29,,,,,,,,,wg-a,,,,AAXX 01184 07650 12400 73002 10240 20160 30132 40169 56007 60006 81182 91800 333 10290 20195=
07650,1997-09-01 21:00:00,23,1017.6,0.7,69,17,15000,7.408,,,180,,,,,,,,,,,wg-a,,,,AAXX 01214 07650 12465 71804 10230 20170 30139 40176 51007 60006 8388/ 92100=
07650,1997-09-02 00:00:00,23,1015.5,-2.1,61,15,15000,11.112,,,100,,,,,,,,,,2,wg-a,,,,AAXX 02004 07650 02565 71006 10230 20150 30118 40155 55021 61000 70262 8328/ 90000 333 6100=
07650,1997-09-02 03:00:00,20,1017.5,1.9,83,17,8000,22.224,,,100,,,,2,,,,,,63,wg-a,,,,AAXX 02034 07650 12458 71012 10200 20170 30137 40175 50019 60027 76366 8497/ 90300=
07650,1997-09-02 06:00:00,20,1017.9,0.4,88,18,15000,7.408,,,190,19.6,24,,,,,,,,60,wg-a,,,,AAXX 02064 07650 02565 71904 10200 20180 30141 40179 53004 61000 76062 8387/ 90600 333 10240 20196 6003=
07650,1997-09-02 09:00:00,21,1019.5,1.6,83,18,11000,7.408,,,310,,,,,,,,,,,wg-a,,,,AAXX 02094 07650 02461 83104 10210 20180 30157 40195 53016 61000 8587/ 90900 333 ////=
07650,1997-09-02 12:00:00,22,1018.8,-0.6,78,18,1600,7.408,,,20,,,,,,,,,,,wg-a,,,,AAXX 02124 07650 02416 80204 10220 20180 30151 40188 56006 61000 84871 91200 333 ////=
07650,1997-09-02 18:00:00,21,1017.3,-0.3,83,18,25000,11.112,,,300,19.7,22.7,,,,,,,,,wg-a,,,,AAXX 02184 07650 12475 /3006 10210 20180 30136 40173 58003 60006 84842 91800 333 10227 20197=
07650,1997-09-02 21:00:00,20,1018.4,1,88,18,18000,14.816,,,350,,,,,,,,,,,wg-a,,,,AAXX 02214 07650 12468 /3508 10200 20180 30146 40184 51010 60006 83530 92100=
07650,1997-09-03 00:00:00,19,1017.5,-0.9,88,17,20000,22.224,,,300,,,,,,,,,,,wg-a,,,,AAXX 03004 07650 12570 33012 10190 20170 30137 40175 56009 60006 83800 90000=
07650,1997-09-03 01:00:00,19,1017.5,-0.9,88,17,20000,22.224,,,300,,,,,,,,,,,wg-a,,,,AAXX 03014 07650 12570 33012 10190 20170 30137 40175 56009 60006 8/933 90100=
07650,1997-09-03 03:00:00,18,1016.7,-0.8,88,16,20000,7.408,,,330,,,,,,,,,,,wg-a,,,,AAXX 03034 07650 12570 53304 10180 20160 30129 40167 56008 60006 81630 90300=
07650,1997-09-03 06:00:00,18,1017.5,0.8,88,16,20000,7.408,,,350,17.6,20.7,,,,,,,,,wg-a,,,,AAXX 03064 07650 02570 63504 10180 20160 30137 40175 53008 60006 84830 90600 333 10207 20176 61000=
07650,1997-09-03 09:00:00,22,1018,0.6,78,18,12000,7.408,,,260,,,,,,,,,,,wg-a,,,,AAXX 03094 07650 12562 /2604 10220 20180 30143 40180 51006 60006 82832 90900=
07650,1997-09-03 12:00:00,25,1017.4,-0.6,61,17,20000,14.816,,,260,,,,,,,,,,,wg-a,,,,AAXX 03124 07650 12570 52608 10250 20170 30137 40174 58006 60006 84231 91200=
07650,1997-09-03 18:00:00,23,1017.7,0.7,69,17,25000,11.112,,,180,17.7,26.1,,,,,,,,,wg-a,,,,AAXX 03184 07650 12575 /1806 10230 20170 30140 40177 51007 60006 81400 91800 333 10261 20177=
07650,1997-09-03 21:00:00,21,1018.7,1,78,17,25000,7.408,,,120,,,,,,,,,,,wg-a,,,,AAXX 03214 07650 12775 11204 10210 20170 30150 40187 50010 60006 81502 92100=
07650,1997-09-04 00:00:00,20,1018.4,-0.4,83,17,18000,3.704,,,120,,,,,,,,,,,wg-a,,,,AAXX 04004 07650 12/68 01202 10200 20170 30146 40184 58004 60006 80000 90000=
07650,1997-09-04 03:00:00,18,1017.9,-0.5,88,16,15000,3.704,,,150,,,,,,,,,,,wg-a,,,,AAXX 04034 07650 12/65 01502 10180 20160 30141 40179 56005 60006 80000 90300=
07650,1997-09-04 06:00:00,19,1018.4,0.5,88,17,12000,3.704,,,190,17.9,23.2,,,,,,,,,wg-a,,,,AAXX 04064 07650 12/62 21902 10190 20170 30146 40184 53005 60006 80001 90600 333 10232 20179=
07650,1997-09-04 09:00:00,24,1019,0.7,69,18,12000,7.408,,,250,,,,,,,,,,,wg-a,,,,AAXX 04094 07650 12/62 22504 10240 20180 30153 40190 51007 60006 80002 90900=
07650,1997-09-04 15:00:00,30,1017.8,-1.1,43,16,25000,14.816,,,270,,,,,,,,,,,wg-a,,,,AAXX 04154 07650 12575 32708 10300 20160 30142 40178 58011 60006 81102 91500=
07650,1997-09-04 18:00:00,27,1017.2,0.3,58,18,20000,11.112,,,230,18.8,31.1,,,,,,,,,wg-a,,,,AAXX 04184 07650 12/70 62306 10270 20180 30135 40172 53003 60006 80002 91800 333 10311 20188=
07650,1997-09-04 21:00:00,23,1019.1,1.9,78,19,20000,3.704,,,220,,,,,,,,,,,wg-a,,,,AAXX 04214 07650 12/70 22202 10230 20190 30154 40191 51019 60006 80002 92100=
07650,1997-09-05 00:00:00,20,1018.8,-0.4,88,18,20000,7.408,,,140,,,,,,,,,,,wg-a,,,,AAXX 05004 07650 12/70 21404 10200 20180 30150 40188 58004 60006 80002 90000=
07650,1997-09-05 03:00:00,19,1018.3,-0.5,83,16,20000,3.704,,,110,,,,,,,,,,,wg-a,,,,AAXX 05034 07650 12/70 11102 10190 20160 30145 40183 56005 60006 80001 90300=
07650,1997-09-05 06:00:00,20,1018.8,0.5,83,17,15000,3.704,,,140,18.7,27.5,,,,,,,,,wg-a,,,,AAXX 05064 07650 12/65 11402 10200 20170 30150 40188 53005 60006 80001 90600 333 10275 20187=
07650,1997-09-05 12:00:00,30,1019.5,0,43,16,25000,18.52,,,180,,,,,,,,,,,wg-a,,,,AAXX 05124 07650 12575 /1810 10300 20160 30159 40195 50000 60006 81101 91200=
07650,1997-09-05 15:00:00,29,1019,-0.6,40,14,500,14.816,,,200,,,,,,,,,,,wg-a,,,,AAXX 05154 07650 12500 /2008 10290 20140 30153 40190 57006 60006 81201 91500=
07650,1997-09-05 18:00:00,26,1019.2,0.2,54,16,40000,7.408,,,190,20.2,30.1,,,,,,,,,wg-a,,,,AAXX 05184 07650 12/82 11904 10260 20160 30155 40192 53002 60006 80001 91800 333 10301 20202=
07650,1997-09-05 21:00:00,21,1020.3,1,69,15,40000,7.408,,,130,,,,,,,,,,,wg-a,,,,AAXX 05214 07650 12/82 01304 10210 20150 30165 40203 50010 60006 80000 92100=
07650,1997-09-06 00:00:00,20,1020.7,0.4,68,14,10000,3.704,,,120,,,,,,,,,,,wg-a,,,,AAXX 06004 07650 12/60 /1202 10200 20140 30169 40207 53004 60006 90000=
07650,1997-09-06 03:00:00,18,1020,-0.7,77,14,500,7.408,,,120,,,,,,,,,,,wg-a,,,,AAXX 06034 07650 12/00 01204 10180 20140 30162 40200 56007 60006 80000 90300=
07650,1997-09-06 06:00:00,18,1020.7,0.7,73,13,500,0,,,0,17.2,26.1,,,,,,,,,wg-a,,,,AAXX 06064 07650 12/00 10000 10180 20130 30169 40207 53007 60006 81031 90600 333 10261 20172=
07650,1997-09-06 09:00:00,25,1021.1,0.5,54,15,20000,7.408,,,290,,,,,,,,,,,wg-a,,,,AAXX 06094 07650 12/70 02904 10250 20150 30174 40211 51005 60006 80000 90900=
07650,1997-09-06 12:00:00,28,1020.6,-0.5,55,18,500,11.112,,,280,,,,,,,,,,,wg-a,,,,AAXX 06124 07650 12/00 12806 10280 20180 30169 40206 58005 60006 80002 91200=
07650,1997-09-06 18:00:00,25,1019.8,0.1,69,19,500,11.112,,,180,17.8,29.5,,,,,,,,,wg-a,,,,AAXX 06184 07650 12/00 11806 10250 20190 30161 40198 53001 60006 80002 91800 333 10295 20178=
07650,1997-09-06 21:00:00,22,1020.4,0.6,83,19,20000,7.408,,,140,,,,,,,,,,,wg-a,,,,AAXX 06214 07650 12/70 11404 10220 20190 30167 40204 50006 60006 80002 92100=
07650,1997-09-07 00:00:00,22,1020.7,0.3,83,19,12000,3.704,,,120,,,,,,,,,,,wg-a,,,,AAXX 07004 07650 12562 51202 10220 20190 30170 40207 50003 60006 84502 90000=
07650,1997-09-07 03:00:00,20,1019.8,-1,88,18,7000,7.408,,,60,,,,,,,,,,,wg-a,,,,AAXX 07034 07650 12457 40604 10200 20180 30160 40198 57010 60006 83502 90300=
07650,1997-09-07 06:00:00,19,1020.5,0.7,94,18,6000,7.408,,,20,18.6,24.9,,,,,,,,,wg-a,,,,AAXX 07064 07650 12356 60204 10190 20180 30167 40205 53007 60006 85601 90600 333 10249 20186=
07650,1997-09-07 09:00:00,23,1021.4,1,73,18,15000,14.816,,,320,,,,,,,,,,,wg-a,,,,AAXX 07094 07650 12/65 /3208 10230 20180 30177 40214 51010 60006 80000 90900=
07650,1997-09-07 12:00:00,28,1020.4,-1,51,17,18000,25.928,,,290,,,,,,,,,,,wg-a,,,,AAXX 07124 07650 12568 12914 10280 20170 30167 40204 58010 60006 81100 91200=
07650,1997-09-07 18:00:00,25,1019.1,-0.2,50,14,40000,31.484,,,320,18.9,29.2,,,,,,,,,wg-a,,,,AAXX 07184 07650 12/82 03217 10250 20140 30154 40191 55002 60006 80000 91800 333 10292 20189=
07650,1997-09-07 21:00:00,22,1020.3,1.2,57,13,40000,29.632,,50.004,340,,,,,,,,,,,wg-a,,,,AAXX 07214 07650 12/82 03416 10220 20130 30166 40203 51012 60006 80000 92100 333 91027=
07650,1997-09-08 00:00:00,19,1020.8,0.4,60,11,40000,22.224,,,320,,,,,,,,,,,wg-a,,,,AAXX 08004 07650 12/82 03212 10190 20110 30170 40208 51004 60006 80000 90000=
07650,1997-09-08 03:00:00,16,1020.4,-0.4,77,12,20000,7.408,,,100,,,,,,,,,,,wg-a,,,,AAXX 08034 07650 12470 31004 10160 20120 30166 40204 55004 60006 83500 90300=
07650,1997-09-08 06:00:00,17,1021.1,0.7,77,13,10000,7.408,,,120,15.5,25.3,,,,,,,,,wg-a,,,,AAXX 08064 07650 12460 31204 10170 20130 30173 40211 53007 60006 83500 90600 333 10253 20155=
07650,1997-09-08 09:00:00,22,1022,1,65,15,10000,3.704,,,270,,,,,,,,,,,wg-a,,,,AAXX 08094 07650 12560 /2702 10220 20150 30183 40220 51010 60006 84502 90900=
07650,1997-09-08 12:00:00,26,1021.6,-0.4,58,17,12000,14.816,,,270,,,,,,,,,,,wg-a,,,,AAXX 08124 07650 12662 22708 10260 20170 30179 40216 58004 60006 82200 91200=
07650,1997-09-08 15:00:00,29,1020.3,-1.3,48,17,12000,11.112,,,270,,,,,,,,,,,wg-a,,,,AAXX 08154 07650 12/62 22706 10290 20170 30166 40203 57013 60006 80002 91500=
07650,1997-09-08 18:00:00,25,1020.3,-0,57,16,12000,11.112,,,180,16.7,28.6,,,,,,,,,wg-a,,,,AAXX 08184 07650 12/62 11806 10250 20160 30166 40203 55000 60006 80002 91800 333 10286 20167=
07650,1997-09-08 21:00:00,22,1020.6,0.3,69,16,15000,7.408,,,150,,,,,,,,,,,wg-a,,,,AAXX 08214 07650 12/65 01504 10220 20160 30169 40206 50003 60006 80000 92100=
07650,1997-09-09 03:00:00,18,1019.1,-0.9,83,15,15000,0,,,0,,,,,,,,,,,wg-a,,,,AAXX 09034 07650 12/65 00000 10180 20150 30153 40191 56009 60006 80000 90300=
07650,1997-09-09 06:00:00,17,1019.1,-0,88,15,13000,11.112,,,340,16.2,25.1,,,,,,,,,wg-a,,,,AAXX 09064 07650 12/63 03406 10170 20150 30153 40191 55000 60006 80000 90600 333 10251 20162=
07650,1997-09-09 09:00:00,23,1018.7,-0.3,61,15,20000,11.112,,,300,,,,,,,,,,,wg-a,,,,AAXX 09094 07650 12/70 03006 10230 20150 30150 40187 56003 60006 80000 90900=
07650,1997-09-09 12:00:00,28,1017.1,-1.6,48,16,20000,18.52,,,260,,,,,,,,,,,wg-a,,,,AAXX 09124 07650 12/70 02610 10280 20160 30134 40171 57016 60006 80000 91200=
07650,1997-09-09 18:00:00,27,1014.3,-0.7,42,13,20000,25.928,,,300,16.9,30.2,,,,,,,,,wg-a,,,,AAXX 09184 07650 12/70 03014 10270 20130 30106 40143 56007 60006 80000 91800 333 10302 20169=
07650,1997-09-10 00:00:00,20,1013.1,-0.8,60,12,15000,18.52,,,340,,,,,,,,,,,wg-a,,,,AAXX 10004 07650 12/65 03410 10200 20120 30094 40131 56008 60006 80000 90000=
07650,1997-09-10 03:00:00,19,1012.7,-0.5,64,12,15000,11.112,,,360,,,,,,,,,,,wg-a,,,,AAXX 10034 07650 12/65 03606 10190 20120 30089 40127 57005 60006 80000 90300=
07650,1997-09-10 06:00:00,17,1013,0.3,68,11,20000,11.112,,,20,16.5,26.6,,,,,,,,,wg-a,,,,AAXX 10064 07650 12/70 10206 10170 20110 30092 40130 53003 60006 80001 90600 333 10266 20165=
07650,1997-09-10 09:00:00,24,1013.5,0.6,54,14,15000,14.816,,,340,,,,,,,,,,,wg-a,,,,AAXX 10094 07650 12/65 03408 10240 20140 30098 40135 53006 60006 80000 90900=
07650,1997-09-10 12:00:00,27,1013.4,-0.1,48,15,15000,14.816,,,270,,,,,,,,,,,wg-a,,,,AAXX 10124 07650 12/65 02708 10270 20150 30097 40134 57001 60006 80000 91200=
07650,1997-09-10 18:00:00,26,1013.4,0.9,51,15,20000,11.112,,,290,16.9,28.6,,,,,,,,,wg-a,,,,AAXX 10184 07650 12/70 12906 10260 20150 30097 40134 53009 60006 80001 91800 333 10286 20169=
07650,1997-09-11 00:00:00,19,1015.5,0.6,78,15,15000,7.408,,,130,,,,,,,,,,,wg-a,,,,AAXX 11004 07650 12/65 01304 10190 20150 30117 40155 51006 60006 80000 90000=
07650,1997-09-11 03:00:00,20,1015.8,0.3,78,16,15000,3.704,,,50,,,,,,,,,,,wg-a,,,,AAXX 11034 07650 12/65 00502 10200 20160 30120 40158 52003 60006 80000 90300=
07650,1997-09-11 06:00:00,20,1016.1,0.3,83,17,15000,7.408,,,90,18.6,26.1,,,,,,,,,wg-a,,,,AAXX 11064 07650 12565 /0904 10200 20170 30123 40161 53003 60006 81501 90600 333 10261 20186=
07650,1997-09-11 09:00:00,25,1016.8,0.8,61,17,12000,14.816,,,90,,,,,,,,,,,wg-a,,,,AAXX 11094 07650 12562 40908 10250 20170 30131 40168 51008 60006 84800 90900=
07650,1997-09-11 12:00:00,27,1016.1,-0.7,58,18,15000,22.224,,,160,,,,,,,,,,,wg-a,,,,AAXX 11124 07650 12665 41612 10270 20180 30124 40161 58007 60006 84200 91200=
07650,1997-09-11 15:00:00,26,1015.3,-0.8,51,15,18000,25.928,,,170,,,,,,,,,,,wg-a,,,,AAXX 11154 07650 12668 /1714 10260 20150 30116 40153 56008 60006 81100 91500=
07650,1997-09-11 18:00:00,24,1015.3,-0,65,17,20000,22.224,,,150,19.8,26.8,,,,,,,,,wg-a,,,,AAXX 11184 07650 12/70 01512 10240 20170 30116 40153 55000 60006 80000 91800 333 10268 20198=
07650,1997-09-12 00:00:00,20,1016.5,0.2,78,16,20000,7.408,,,80,,,,,,,,,,,wg-a,,,,AAXX 12004 07650 12/70 00804 10200 20160 30127 40165 53002 60006 80000 90000=
07650,1997-09-12 03:00:00,20,1015.8,-0.6,83,17,20000,7.408,,,60,,,,,,,,,,,wg-a,,,,AAXX 12034 07650 12/70 00604 10200 20170 30121 40158 58006 60006 80000 90300=
07650,1997-09-12 06:00:00,21,1015.5,-0.3,78,17,15000,14.816,,,90,19.9,23.7,,,,,,,,,wg-a,,,,AAXX 12064 07650 12565 50908 10210 20170 30118 40155 56003 60006 85800 90600 333 10237 20199=
07650,1997-09-12 09:00:00,25,1015.9,0.4,65,18,15000,22.224,,,140,,,,,,,,,,,wg-a,,,,AAXX 12094 07650 12565 /1412 10250 20180 30122 40159 52004 60006 86800 90900=
07650,1997-09-12 12:00:00,27,1014.9,-1,58,18,20000,25.928,,,160,,,,,,,,,,,wg-a,,,,AAXX 12124 07650 12570 51614 10270 20180 30112 40149 58010 60006 83202 91200=
07650,1997-09-12 18:00:00,24,1012.8,-0.7,65,17,500,14.816,,,140,,,,,,,,,,,wg-a,,,,AAXX 12184 07650 12/00 51408 10240 20170 30091 40128 58007 60006 82082 91800=
07650,1997-09-12 21:00:00,23,1013.8,1,73,18,12000,14.816,,,110,,,,,,,,,,,wg-a,,,,AAXX 12214 07650 12562 /1108 10230 20180 30101 40138 51010 60006 81502 92100=
07650,1997-09-13 00:00:00,23,1013.1,-0.7,69,17,12000,18.52,,,100,,,,,,,,,,,wg-a,,,,AAXX 13004 07650 12562 71010 10230 20170 30094 40131 58007 60006 8357/ 90000=
07650,1997-09-13 03:00:00,22,1012.1,-1,73,17,12000,7.408,,,60,,,,,,,,,,,wg-a,,,,AAXX 13034 07650 12662 70604 10220 20170 30084 40121 56010 60006 8157/ 90300=
07650,1997-09-13 06:00:00,22,1011.9,-0.2,73,17,10000,7.408,,,60,21.8,24.2,,,,,,,,,wg-a,,,,AAXX 13064 07650 12560 80604 10220 20170 30082 40119 55002 60006 8387/ 90600 333 10242 20218=
07650,1997-09-13 09:00:00,24,1012.6,0.7,69,18,10000,25.928,,,310,,,,,,,,,,,wg-a,,,,AAXX 13094 07650 12460 83114 10240 20180 30089 40126 53007 60006 8597/ 90900=
07650,1997-09-13 12:00:00,24,1013.2,,78,20,9000,11.112,,,20,,,,,,,,,,,wg-a,,,,AAXX 13124 07650 12459 60206 10240 20200 30095 40132 60006 81130 91200=
07650,1997-09-13 15:00:00,24,1013,-0.2,57,15,15000,31.484,,,310,,,,,,,,,,,wg-a,,,,AAXX 13154 07650 12565 /3117 10240 20150 30093 40130 56002 60006 82202 91500=
07650,1997-09-13 18:00:00,21,1014,1,64,14,500,35.188,,,320,20.3,26.2,,,,,,,,,wg-a,,,,AAXX 13184 07650 12/00 53219 10210 20140 30103 40140 53010 60006 82042 91800 333 10262 20203=
07650,1997-09-14 00:00:00,16,1015.8,-0.1,68,10,10000,29.632,,,320,,,,,,,,,,,wg-a,,,,AAXX 14004 07650 12/60 /3216 10160 20100 30120 40158 58001 60006 90000=
07650,1997-09-14 03:00:00,15,1014.8,-1,67,9,500,35.188,,,310,,,,,,,,,,,wg-a,,,,AAXX 14034 07650 12/00 23119 10150 20090 30110 40148 56010 60006 80002 90300=
07650,1997-09-14 06:00:00,15,1014.8,-0,63,8,50000,42.596,,,310,14.5,20.8,,,,,13,,,,wg-a,,,,AAXX 14064 07650 02/84 43123 10150 20080 30110 40148 55000 60006 81042 90600 333 10208 20145 60134=
07650,1997-09-14 12:00:00,22,1016.1,-0.4,46,10,75000,31.484,,,320,,,,,,,,,,,wg-a,,,,AAXX 14124 07650 12/89 53217 10220 20100 30124 40161 56004 60006 80002 91200=
07650,1997-09-14 15:00:00,23,1015.4,-0.7,44,10,50000,22.224,,,310,,,,,,,,,,,wg-a,,,,AAXX 14154 07650 12584 63112 10230 20100 30117 40154 55007 60006 81132 91500=
07650,1997-09-14 18:00:00,20,1016.6,1.1,49,9,50000,18.52,,,310,14.5,24,,,,,,,,,wg-a,,,,AAXX 14184 07650 12584 73110 10200 20090 30128 40166 53011 60006 81432 91800 333 10240 20145=
07650,1997-09-14 21:00:00,17,1018.6,2,63,10,25000,14.816,,,320,,,,,,,,,,,wg-a,,,,AAXX 14214 07650 12/75 53208 10170 20100 30148 40186 51020 60006 83032 92100=
07650,1997-09-15 00:00:00,16,1019,0.4,68,10,20000,7.408,,,30,,,,,,,,,,,wg-a,,,,AAXX 15004 07650 12/70 40304 10160 20100 30152 40190 51004 60006 81032 90000=
07650,1997-09-15 03:00:00,15,1018.7,-0.3,77,11,20000,3.704,,,140,,,,,,,,,,,wg-a,,,,AAXX 15034 07650 12670 41402 10150 20110 30149 40187 55003 60006 83502 90300=
07650,1997-09-15 06:00:00,17,1020.1,1.4,72,12,25000,3.704,,,220,15.1,20.4,,,,,,,,,wg-a,,,,AAXX 15064 07650 12575 72202 10170 20120 30163 40201 53014 60006 86802 90600 333 10204 20151=
07650,1997-09-15 09:00:00,23,1021,1,61,15,20000,7.408,,,260,,,,,,,,,,,wg-a,,,,AAXX 15094 07650 12570 32604 10230 20150 30173 40210 53010 60006 82802 90900=
07650,1997-09-15 12:00:00,23,1020.9,-0.1,69,17,500,14.816,,,220,,,,2,,,,,,80,wg-a,,,,AAXX 15124 07650 02500 /2208 10230 20170 30172 40209 58001 60026 78081 85200 91200 333 60027=
07650,1997-09-15 18:00:00,22,1021.5,0.9,60,14,500,3.704,,,200,17.1,25.6,,,,,,,,,wg-a,,,,AAXX 15184 07650 12500 72002 10220 20140 30178 40215 51009 60006 84802 91800 333 10256 20171=
07650,1997-09-15 21:00:00,20,1022.9,1.3,73,15,20000,7.408,,,50,,,,,,,,,,,wg-a,,,,AAXX 15214 07650 12570 40504 10200 20150 30191 40229 51013 60006 84831 92100=
07650,1997-09-16 00:00:00,19,1023.1,0.2,78,15,20000,7.408,,,140,,,,,,,,,,,wg-a,,,,AAXX 16004 07650 12670 71404 10190 20150 30193 40231 50002 60006 875// 90000=
07650,1997-09-16 03:00:00,18,1022.6,-0.5,73,13,15000,7.408,,,120,,,,,,,,,,,wg-a,,,,AAXX 16034 07650 12665 41204 10180 20130 30188 40226 57005 60006 81532 90300=
07650,1997-09-16 06:00:00,16,1023.2,0.6,77,12,12000,7.408,,,130,15.8,22.2,,,,,2,,,,wg-a,,,,AAXX 16064 07650 02662 31304 10160 20120 30194 40232 53006 60006 81502 90600 333 10222 20158 60024=
07650,1997-09-16 09:00:00,22,1023.6,0.4,57,13,500,7.408,,,280,,,,,,,,,,,wg-a,,,,AAXX 16094 07650 12500 22804 10220 20130 30198 40236 51004 60006 81130 90900=
07650,1997-09-16 15:00:00,24,1021.5,-1.1,54,14,500,18.52,,,210,,,,,,,,,,,wg-a,,,,AAXX 16154 07650 12500 /2110 10240 20140 30178 40215 56011 60006 81100 91500=
07650,1997-09-16 18:00:00,22,1022,0.4,57,13,500,11.112,,,190,16.5,25.6,,,,,,,,,wg-a,,,,AAXX 16184 07650 12/00 11906 10220 20130 30182 40220 53004 60006 80002 91800 333 10256 20165=
07650,1997-09-16 21:00:00,20,1023,1,64,13,500,7.408,,,360,,,,,,,,,,,wg-a,,,,AAXX 16214 07650 12/00 63604 10200 20130 30192 40230 51010 60006 86030 92100=
07650,1997-09-17 00:00:00,18,1023,0,73,13,20000,7.408,,,60,,,,,,,,,,,wg-a,,,,AAXX 17004 07650 12/70 20604 10180 20130 30192 40230 50000 60006 82030 90000=
07650,1997-09-17 06:00:00,16,1022.9,0.4,77,12,13000,3.704,,,140,15.2,21.6,,,,,,,,,wg-a,,,,AAXX 17064 07650 12/63 11402 10160 20120 30191 40229 53004 60006 80001 90600 333 10216 20152=
07650,1997-09-17 12:00:00,26,1022.9,-0.7,32,8,20000,14.816,,,270,,,,,,,,,,,wg-a,,,,AAXX 17124 07650 12/70 02708 10260 20080 30192 40229 58007 60006 80000 91200=
07650,1997-09-17 15:00:00,25,1022.3,-0.6,47,13,20000,18.52,,,220,,,,,,,,,,,wg-a,,,,AAXX 17154 07650 12/70 02210 10250 20130 30186 40223 55006 60006 80000 91500=
07650,1997-09-17 18:00:00,22,1022.7,0.3,57,13,20000,7.408,,,180,16.1,26.3,,,,,,,,,wg-a,,,,AAXX 17184 07650 12/70 11804 10220 20130 30189 40227 53003 60006 80002 91800 333 10263 20161=
07650,1997-09-18 00:00:00,17,1023.9,0.3,77,13,20000,7.408,,,60,,,,,,,,,,,wg-a,,,,AAXX 18004 07650 12/70 00604 10170 20130 30201 40239 53003 60006 80000 90000=
07650,1997-09-18 06:00:00,16,1023.1,-0,68,10,18000,11.112,,,120,15.5,21.7,,,,,,,,,wg-a,,,,AAXX 18064 07650 12/68 11206 10160 20100 30193 40231 55000 60006 80001 90600 333 10217 20155=
07650,1997-09-18 09:00:00,22,1023.8,0.7,65,15,12000,7.408,,,260,,,,,,,,,,,wg-a,,,,AAXX 18094 07650 12/62 02604 10220 20150 30200 40238 51007 60006 80000 90900=
07650,1997-09-18 12:00:00,26,1022.8,-0.9,39,11,12000,14.816,,,280,,,,,,,,,,,wg-a,,,,AAXX 18124 07650 12/62 02808 10260 20110 30191 40228 58009 60006 80000 91200=
07650,1997-09-18 15:00:00,26,1021.4,-1.4,34,9,20000,14.816,,,250,,,,,,,,,,,wg-a,,,,AAXX 18154 07650 12/70 02508 10260 20090 30177 40214 56014 60006 80000 91500=
07650,1997-09-18 18:00:00,23,1021.2,-0.2,41,9,20000,7.408,,,200,15.9,26.8,,,,,,,,,wg-a,,,,AAXX 18184 07650 12/70 02004 10230 20090 30175 40212 55002 60006 80000 91800 333 10268 20159=
07650,1997-09-19 00:00:00,15,1021.7,-0.4,72,10,12000,7.408,,,120,,,,,,,,,,,wg-a,,,,AAXX 19004 07650 12/62 01204 10150 20100 30179 40217 57004 60006 80000 90000=
07650,1997-09-19 03:00:00,14,1021.3,-0.5,77,10,12000,3.704,,,110,,,,,,,,,,,wg-a,,,,AAXX 19034 07650 12/62 01102 10140 20100 30174 40213 56005 60006 80000 90300=
07650,1997-09-19 06:00:00,15,1021.1,-0.1,82,12,16000,7.408,,,100,13.8,22.8,,,,,,,,,wg-a,,,,AAXX 19064 07650 12566 /1004 10150 20120 30173 40211 55001 60006 81500 90600 333 10228 20138=
07650,1997-09-19 09:00:00,22,1021.3,0.3,65,15,12000,7.408,,,300,,,,,,,,,,,wg-a,,,,AAXX 19094 07650 12/62 03004 10220 20150 30176 40213 50003 60006 80000 90900=
07650,1997-09-19 12:00:00,25,1020,-1.3,54,15,12000,14.816,,,270,,,,,,,,,,,wg-a,,,,AAXX 19124 07650 12/62 02708 10250 20150 30163 40200 58013 60006 80000 91200=
07650,1997-09-19 15:00:00,27,1018.4,-1.6,48,15,15000,18.52,,,210,,,,,,,,,,,wg-a,,,,AAXX 19154 07650 12/65 02110 10270 20150 30147 40184 58016 60006 80000 91500=
07650,1997-09-19 18:00:00,22,1018.6,0.2,57,13,15000,7.408,,,200,15,27.7,,,,,,,,,wg-a,,,,AAXX 19184 07650 12/65 02004 10220 20130 30149 40186 53002 60006 80000 91800 333 10277 20150=
07650,1997-09-20 00:00:00,18,1018.7,-0.5,83,15,15000,11.112,,,120,,,,,,,,,,,wg-a,,,,AAXX 20004 07650 12/65 01206 10180 20150 30149 40187 57005 60006 80000 90000=
07650,1997-09-20 03:00:00,17,1018.1,-0.6,82,14,12000,7.408,,,90,,,,,,,,,,,wg-a,,,,AAXX 20034 07650 12/62 00904 10170 20140 30143 40181 58006 60006 80000 90300=
07650,1997-09-20 06:00:00,17,1018.6,0.5,82,14,8000,0,,,0,15.8,22.3,,,,,,,,,wg-a,,,,AAXX 20064 07650 12458 20000 10170 20140 30148 40186 51005 60006 81502 90600 333 10223 20158=
07650,1997-09-20 09:00:00,21,1019.7,1.1,73,16,10000,7.408,,,280,,,,,,,,,,,wg-a,,,,AAXX 20094 07650 12560 12804 10210 20160 30159 40197 52011 60006 81102 90900=
07650,1997-09-20 12:00:00,25,1018.9,-0.7,57,16,12000,11.112,,,280,,,,,,,,,,,wg-a,,,,AAXX 20124 07650 12662 42806 10250 20160 30152 40189 58007 60006 82101 91200=
07650,1997-09-20 15:00:00,25,1018.3,-0.6,61,17,12000,18.52,,,180,,,,,,,,,,,wg-a,,,,AAXX 20154 07650 12/62 61810 10250 20170 30146 40183 55006 60006 80002 91500=
07650,1997-09-20 18:00:00,22,1018.5,0.2,73,17,12000,11.112,,,160,16.6,25.8,,,,,,,,,wg-a,,,,AAXX 20184 07650 12562 61606 10220 20170 30148 40185 53002 60006 81501 91800 333 10258 20166=
07650,1997-09-20 21:00:00,19,1020,1.4,83,16,25000,3.704,,,130,,,,,,,,,,,wg-a,,,,AAXX 20214 07650 12/75 31302 10190 20160 30162 40200 51014 60006 80002 92100=
07650,1997-09-21 00:00:00,18,1020.4,0.4,88,16,15000,7.408,,,80,,,,,,,,,,,wg-a,,,,AAXX 21004 07650 12/65 20804 10180 20160 30166 40204 51004 60006 80001 90000=
07650,1997-09-21 06:00:00,17,1020,0.2,82,14,7000,11.112,,,100,16,21.9,,,,,,,,,wg-a,,,,AAXX 21064 07650 12457 31006 10170 20140 30162 40200 53002 60006 81501 90600 333 10219 20160=
07650,1997-09-21 09:00:00,22,1020.6,0.7,73,17,8000,3.704,,,330,,,,,,,,,,,wg-a,,,,AAXX 21094 07650 12558 33302 10220 20170 30169 40206 51007 60006 81101 90900=
07650,1997-09-21 12:00:00,26,1019.5,-1.1,51,15,10000,11.112,,,270,,,,,,,,,,,wg-a,,,,AAXX 21124 07650 12560 32706 10260 20150 30158 40195 58011 60006 81101 91200=
07650,1997-09-21 15:00:00,26,1018.7,-0.8,51,15,18000,18.52,,,190,,,,,,,,,,,wg-a,,,,AAXX 21154 07650 12568 41910 10260 20150 30150 40187 56008 60006 81101 91500=
07650,1997-09-21 18:00:00,22,1019.7,1,69,16,18000,7.408,,,170,16.7,26.8,,,,,,,,,wg-a,,,,AAXX 21184 07650 12568 /1704 10220 20160 30160 40197 53010 60006 81201 91800 333 10268 20167=
07650,1997-09-21 21:00:00,20,1020.6,0.8,78,16,15000,7.408,,,130,,,,,,,,,,,wg-a,,,,AAXX 21214 07650 12565 31304 10200 20160 30168 40206 51008 60006 81502 92100=
07650,1997-09-22 00:00:00,18,1020.4,-0.2,88,16,15000,7.408,,,120,,,,,,,,,,,wg-a,,,,AAXX 22004 07650 12565 31204 10180 20160 30166 40204 58002 60006 81502 90000=
07650,1997-09-22 03:00:00,18,1020,-0.4,83,15,11000,3.704,,,20,,,,,,,,,,,wg-a,,,,AAXX 22034 07650 12/61 10202 10180 20150 30162 40200 58004 60006 80001 90300=
07650,1997-09-22 09:00:00,23,1020.7,0.7,65,16,9000,3.704,,,310,,,,,,,,,,,wg-a,,,,AAXX 22094 07650 12559 33102 10230 20160 30170 40207 51007 60006 81102 90900=
07650,1997-09-22 12:00:00,26,1019.7,-1,48,14,9000,11.112,,,270,,,,,,,,,,,wg-a,,,,AAXX 22124 07650 12559 32706 10260 20140 30160 40197 58010 60006 81102 91200=
07650,1997-09-22 15:00:00,26,1018.7,-1,51,15,10000,14.816,,,260,,,,,,,,,,,wg-a,,,,AAXX 22154 07650 12560 42608 10260 20150 30150 40187 56010 60006 81202 91500=
07650,1997-09-22 18:00:00,23,1019.4,0.7,69,17,8000,7.408,,,170,16.9,26.4,,,,,,,,,wg-a,,,,AAXX 22184 07650 12558 31704 10230 20170 30157 40194 53007 60006 81202 91800 333 10264 20169=
07650,1997-09-22 21:00:00,20,1020.1,0.6,78,16,8000,3.704,,,120,,,,,,,,,,,wg-a,,,,AAXX 22214 07650 12/58 21202 10200 20160 30163 40201 51006 60006 80001 92100=
07650,1997-09-23 00:00:00,19,1019.5,-0.6,64,12,10000,3.704,,,50,,,,,,,,,,,wg-a,,,,AAXX 23004 07650 12/60 10502 10190 20120 30157 40195 57006 60006 80001 90000=
07650,1997-09-23 03:00:00,17,1018.9,-0.6,68,11,12000,11.112,,,100,,,,,,,,,,,wg-a,,,,AAXX 23034 07650 12/62 01006 10170 20110 30151 40189 58006 60006 80000 90300=
07650,1997-09-23 06:00:00,17,1018.9,-0,68,11,20000,11.112,,,70,16.5,22.5,,,,,,,,,wg-a,,,,AAXX 23064 07650 12/70 20706 10170 20110 30151 40189 55000 60006 80002 90600 333 10225 20165=
07650,1997-09-23 09:00:00,22,1019,0.2,57,13,15000,7.408,,,280,,,,,,,,,,,wg-a,,,,AAXX 23094 07650 12/65 12804 10220 20130 30153 40190 51002 60006 81032 90900=
07650,1997-09-23 12:00:00,26,1018,-1,45,13,15000,7.408,,,280,,,,,,,,,,,wg-a,,,,AAXX 23124 07650 12665 /2804 10260 20130 30143 40180 58010 60006 81100 91200=
07650,1997-09-23 15:00:00,27,1016.4,,45,14,15000,14.816,,,250,,,,,,,,,,,wg-a,,,,AAXX 23154 07650 32665 /2508 10270 20140 30121 40164 81200 91500=
07650,1997-09-23 18:00:00,22,1017.4,0.8,65,15,15000,7.408,,,160,16.8,27.4,,,,,,,,,wg-a,,,,AAXX 23184 07650 12665 /1604 10220 20150 30137 40174 53008 60006 81502 91800 333 10274 20168=
07650,1997-09-23 21:00:00,20,1019.1,,73,15,12000,11.112,,,130,,,,,,,,,,,wg-a,,,,AAXX 23214 07650 12/62 11306 10200 20150 30147 40191 60006 80002 92100=
07650,1997-09-24 00:00:00,19,1018,-0.5,78,15,12000,11.112,,,120,,,,,,,,,,,wg-a,,,,AAXX 24004 07650 12/62 01206 10190 20150 30142 40180 58005 60006 80000 90000=
07650,1997-09-24 06:00:00,17,1017.7,0.5,82,14,7000,14.816,,,70,16.6,22.4,,,,,,,,,wg-a,,,,AAXX 24064 07650 12/57 /0708 10170 20140 30139 40177 53005 60006 81030 90600 333 10224 20166=
07650,1997-09-24 12:00:00,26,1017.3,-0.9,58,17,10000,11.112,,,270,,,,,,,,,,,wg-a,,,,AAXX 24124 07650 12/60 02706 10260 20170 30136 40173 58009 60006 80000 91200=
07650,1997-09-24 15:00:00,27,1016.4,-0.9,45,14,12000,14.816,,,200,,,,,,,,,,,wg-a,,,,AAXX 24154 07650 12/62 02008 10270 20140 30127 40164 56009 60006 80000 91500=
07650,1997-09-24 18:00:00,23,1017.1,0.7,69,17,12000,11.112,,,170,16.6,27.7,,,,,,,,,wg-a,,,,AAXX 24184 07650 12562 /1706 10230 20170 30134 40171 53007 60006 81400 91800 333 10277 20166=
07650,1997-09-24 21:00:00,19,1019,1.8,78,15,15000,3.704,,,360,,,,,,,,,,,wg-a,,,,AAXX 24214 07650 12/65 13602 10190 20150 30152 40190 51018 60006 80001 92100=
07650,1997-09-25 00:00:00,18,1019.5,0.5,77,14,15000,7.408,,,90,,,,,,,,,,,wg-a,,,,AAXX 25004 07650 12/65 00904 10180 20140 30157 40195 52005 60006 80000 90000=
07650,1997-09-25 03:00:00,17,1019.5,0,82,14,12000,7.408,,,140,,,,,,,,,,,wg-a,,,,AAXX 25034 07650 12/62 11404 10170 20140 30157 40195 50000 60006 80001 90300=
07650,1997-09-25 06:00:00,16,1020.5,1,77,12,8000,3.704,,,110,15.7,22.8,,,,,,,,,wg-a,,,,AAXX 25064 07650 12/58 /1102 10160 20120 30167 40205 53010 60006 80001 90600 333 10228 20157=
07650,1997-09-25 09:00:00,25,1021.4,1,36,9,10000,7.408,,,310,,,,,,,,,,,wg-a,,,,AAXX 25094 07650 12/60 03104 10250 20090 30177 40214 51010 60006 80000 90900=
07650,1997-09-25 12:00:00,27,1020.8,-0.6,37,11,10000,14.816,,,260,,,,,,,,,,,wg-a,,,,AAXX 25124 07650 12/60 02608 10270 20110 30171 40208 58006 60006 80000 91200=
07650,1997-09-25 15:00:00,27,1020.1,-0.7,34,10,15000,18.52,,,200,,,,,,,,,,,wg-a,,,,AAXX 25154 07650 12/65 02010 10270 20100 30164 40201 56007 60006 80000 91500=
07650,1997-09-26 00:00:00,17,1021.7,-0.1,82,14,13000,7.408,,,120,,,,,,,,,,,wg-a,,,,AAXX 26004 07650 12/63 01204 10170 20140 30179 40217 57001 60006 80000 90000=
07650,1997-09-26 03:00:00,16,1021.2,-0.5,72,11,13000,7.408,,,120,,,,,,,,,,,wg-a,,,,AAXX 26034 07650 12/63 01204 10160 20110 30174 40212 58005 60006 80000 90300=
07650,1997-09-26 06:00:00,16,1021.4,0.2,68,10,12000,11.112,,,130,15.8,22.8,,,,,,,,,wg-a,,,,AAXX 26064 07650 12/62 01306 10160 20100 30176 40214 53002 60006 80000 90600 333 10228 20158=
07650,1997-09-26 09:00:00,22,1021.7,0.3,60,14,15000,3.704,,,290,,,,,,,,,,,wg-a,,,,AAXX 26094 07650 12/65 02902 10220 20140 30179 40217 51003 60006 80000 90900=
07650,1997-09-26 12:00:00,26,1020.5,-1.1,45,13,15000,11.112,,,260,,,,,,,,,,,wg-a,,,,AAXX 26124 07650 12/65 02606 10260 20130 30168 40205 58011 60006 80000 91200=
07650,1997-09-26 15:00:00,25,1018.9,-1.6,50,14,12000,22.224,,,250,,,,,,,,,,,wg-a,,,,AAXX 26154 07650 12/62 02512 10250 20140 30152 40189 56016 60006 80000 91500=
07650,1997-09-26 18:00:00,22,1018.8,-0.1,73,17,10000,7.408,,,200,15.9,26.4,,,,,,,,,wg-a,,,,AAXX 26184 07650 12/60 02004 10220 20170 30151 40188 55001 60006 80000 91800 333 10264 20159=
07650,1997-09-26 21:00:00,20,1018.6,-0.3,83,17,8000,7.408,,,120,,,,,,,,,,,wg-a,,,,AAXX 26214 07650 12458 /1204 10200 20170 30148 40186 58003 60006 83500 92100=
07650,1997-09-27 00:00:00,18,1018.1,-0.5,94,17,8000,7.408,,,100,,,,,,,,,,,wg-a,,,,AAXX 27004 07650 12458 51004 10180 20170 30143 40181 57005 60006 85500 90000=
07650,1997-09-27 03:00:00,18,1017,-1.1,88,16,6000,7.408,,,140,,,,,,,,,,,wg-a,,,,AAXX 27034 07650 12456 /1404 10180 20160 30132 40170 58011 60006 83500 90300=
07650,1997-09-27 06:00:00,17,1016.4,-0.6,94,16,3000,7.408,,,130,16.5,22.1,,,,,,,,10,wg-a,,,,AAXX 27064 07650 12330 /1304 10170 20160 30126 40164 56006 60006 71011 86500 90600 333 10221 20165=
07650,1997-09-27 09:00:00,21,1016.4,0.1,83,18,3000,3.704,,,260,,,,,,,,,,10,wg-a,,,,AAXX 27094 07650 12530 /2602 10210 20180 30127 40164 50001 60006 71022 86500 90900=
07650,1997-09-27 12:00:00,24,1015.1,-1.3,61,16,500,7.408,,,300,,,,,,,,,,,wg-a,,,,AAXX 27124 07650 12500 23004 10240 20160 30114 40151 58013 60006 82100 91200=
07650,1997-09-27 15:00:00,24,1013.9,-1.2,61,16,8000,22.224,,,240,,,,,,,,,,,wg-a,,,,AAXX 27154 07650 12/58 /2412 10240 20160 30102 40139 56012 60006 80000 91500=
07650,1997-09-27 18:00:00,21,1014,0.1,78,17,12000,11.112,,,220,16.7,25.3,,,,,,,,,wg-a,,,,AAXX 27184 07650 12562 12206 10210 20170 30103 40140 53001 60006 81500 91800 333 10253 20167=
07650,1997-09-27 21:00:00,19,1014,-0.1,83,16,11000,7.408,,,130,,,,,,,,,,,wg-a,,,,AAXX 27214 07650 12/61 /1304 10190 20160 30102 40140 58001 60006 80000 92100=
07650,1997-09-28 00:00:00,18,1014.1,0.1,88,16,8000,7.408,,,110,,,,,,,,,,,wg-a,,,,AAXX 28004 07650 12/58 01104 10180 20160 30103 40141 50001 60006 80000 90000=
07650,1997-09-28 03:00:00,17,1014.2,0.1,94,16,7000,3.704,,,70,,,,,,,,,,,wg-a,,,,AAXX 28034 07650 12557 /0702 10170 20160 30104 40142 50001 60006 83500 90300=
07650,1997-09-28 06:00:00,17,1014.9,0.7,94,16,4000,0,,,0,16.8,21.3,,,,,,,,10,wg-a,,,,AAXX 28064 07650 12440 /0000 10170 20160 30111 40149 53007 60006 71011 85500 90600 333 10213 20168=
07650,1997-09-28 12:00:00,24,1014.8,-0.6,65,17,9000,7.408,,,280,,,,,,,,,,,wg-a,,,,AAXX 28124 07650 12559 /2804 10240 20170 30111 40148 58006 60006 81100 91200=
07650,1997-09-28 15:00:00,25,1014.3,-0.5,61,17,15000,18.52,,,250,,,,,,,,,,,wg-a,,,,AAXX 28154 07650 12665 /2510 10250 20170 30106 40143 58005 60006 81100 91500=
07650,1997-09-28 18:00:00,22,1015,0.7,73,17,15000,11.112,,,210,17,25.2,,,,,,,,,wg-a,,,,AAXX 28184 07650 12/65 22106 10220 20170 30113 40150 53007 60006 80002 91800 333 10252 20170=
07650,1997-09-28 21:00:00,19,1016.6,1.5,83,16,12000,7.408,,,110,,,,,,,,,,,wg-a,,,,AAXX 28214 07650 12/62 11104 10190 20160 30128 40166 51015 60006 80001 92100=
07650,1997-09-29 00:00:00,18,1017,0.4,88,16,8000,7.408,,,120,,,,,,,,,,,wg-a,,,,AAXX 29004 07650 12/58 /1204 10180 20160 30132 40170 51004 60006 80001 90000=
07650,1997-09-29 03:00:00,17,1017.2,0.2,88,15,8000,11.112,,,70,,,,0,,,,,,,wg-a,,,,AAXX 29034 07650 12/58 30706 10170 20150 30134 40172 52002 60007 83030 90300=
07650,1997-09-29 06:00:00,17,1018.9,1.7,88,15,8000,7.408,,,100,16.6,21.6,,,,,,,,,wg-a,,,,AAXX 29064 07650 02/58 31004 10170 20150 30151 40189 53017 60006 83030 90600 333 10216 20166 60004=
07650,1997-09-29 09:00:00,23,1019.9,1.1,65,16,8000,0,,,0,,,,,,,,,,,wg-a,,,,AAXX 29094 07650 12558 20000 10230 20160 30162 40199 51011 60006 82500 90900=
07650,1997-09-29 12:00:00,25,1019.8,-0.1,57,16,9000,11.112,,,260,,,,,,,,,,,wg-a,,,,AAXX 29124 07650 12559 32606 10250 20160 30161 40198 57001 60006 82532 91200=
07650,1997-09-29 15:00:00,26,1019.2,-0.6,54,16,10000,18.52,,,240,,,,,,,,,,,wg-a,,,,AAXX 29154 07650 12/60 12410 10260 20160 30155 40192 58006 60006 80002 91500=
07650,1997-09-29 18:00:00,22,1019.9,0.7,73,17,12000,7.408,,,160,16.5,26.9,,,,,,,,,wg-a,,,,AAXX 29184 07650 12/62 11604 10220 20170 30162 40199 53007 60006 80002 91800 333 10269 20165=
07650,1997-09-29 21:00:00,20,1021.6,1.6,78,16,15000,11.112,,,130,,,,,,,,,,,wg-a,,,,AAXX 29214 07650 12/65 01306 10200 20160 30178 40216 51016 60006 80000 92100=
07650,1997-09-30 00:00:00,18,1022.2,0.6,88,16,10000,3.704,,,150,,,,,,,,,,,wg-a,,,,AAXX 30004 07650 12/60 01502 10180 20160 30184 40222 51006 60006 80000 90000=
07650,1997-09-30 03:00:00,18,1022.2,0,88,16,7000,3.704,,,80,,,,,,,,,,,wg-a,,,,AAXX 30034 07650 12457 30802 10180 20160 30184 40222 50000 60006 83500 90300=
07650,1997-09-30 06:00:00,17,1022.2,-0,88,15,6000,3.704,,,130,16.5,22.1,,,,,,,,,wg-a,,,,AAXX 30064 07650 12456 21302 10170 20150 30184 40222 54000 60006 81502 90600 333 10221 20165=
07650,1997-09-30 09:00:00,21,1022.7,0.5,78,17,7000,3.704,,,290,,,,,,,,,,,wg-a,,,,AAXX 30094 07650 12/57 22902 10210 20170 30189 40227 50005 60006 80001 90900=
07650,1997-09-30 12:00:00,26,1021.9,-0.7,54,16,9000,18.52,,,210,,,,,,,,,,,wg-a,,,,AAXX 30124 07650 12/59 32110 10260 20160 30182 40219 56007 60006 80002 91200=
07650,1997-09-30 15:00:00,26,1020.8,-1.1,51,15,12000,11.112,,,210,,,,,,,,,,,wg-a,,,,AAXX 30154 07650 12/62 32106 10260 20150 30171 40208 56011 60006 80002 91500=
07650,1997-09-30 18:00:00,22,1020.3,-0.5,73,17,12000,11.112,,,190,16.5,26.7,,,,,,,,,wg-a,,,,AAXX 30184 07650 12/62 41906 10220 20170 30166 40203 56005 60006 80002 91800 333 10267 20165=
07650,1997-10-01 00:00:00,20,1019.9,-0.8,88,18,9000,14.816,,,130,,,,,,,,,,,wg-a,,,,AAXX 01004 07650 12/59 31308 10200 20180 30161 40199 58008 60006 80002 90000=
07650,1997-10-01 03:00:00,18,1018.8,-1.1,88,16,6000,3.704,,,160,,,,,,,,,,,wg-a,,,,AAXX 01034 07650 12356 61602 10180 20160 30150 40188 56011 60006 86500 90300=
07650,1997-10-01 06:00:00,16,1018.1,-0.7,94,15,4000,11.112,,,350,15.8,22.1,,,,,,,,10,wg-a,,,,AAXX 01064 07650 02/40 23506 10160 20150 30143 40181 56007 60006 71000 80002 90600 333 10221 20158 60004=
07650,1997-10-01 12:00:00,25,1016.4,-1.5,47,13,13000,14.816,,,250,,,,,,,,,,,wg-a,,,,AAXX 01124 07650 12/63 42508 10250 20130 30127 40164 58015 60006 80002 91200=
07650,1997-10-01 15:00:00,26,1013.6,-2.8,54,16,15000,29.632,,,240,,,,,,,,,,,wg-a,,,,AAXX 01154 07650 12/65 22416 10260 20160 30099 40136 56028 60006 80002 91500=
07650,1997-10-01 18:00:00,25,1013.5,-0.1,50,14,20000,40.744,,,280,15.8,28.2,,,,,,,,,wg-a,,,,AAXX 01184 07650 12/70 32822 10250 20140 30098 40135 55001 60006 80002 91800 333 10282 20158=
07650,1997-10-01 21:00:00,21,1013.4,-0.1,60,13,18000,11.112,,,330,,,,,,,,,,,wg-a,,,,AAXX 01214 07650 12768 33306 10210 20130 30097 40134 58001 60006 81502 92100=
07650,1997-10-02 00:00:00,20,1013,-0.4,78,16,14000,7.408,,,110,,,,,,,,,,,wg-a,,,,AAXX 02004 07650 12/64 11104 10200 20160 30093 40130 58004 60006 80002 90000=
07650,1997-10-02 03:00:00,17,1012.8,-0.3,88,15,12000,7.408,,,100,,,,,,,,,,,wg-a,,,,AAXX 02034 07650 12/62 01004 10170 20150 30090 40128 58003 60006 80000 90300=
07650,1997-10-02 06:00:00,17,1012.7,-0.1,88,15,500,7.408,,,140,16.1,25.3,,,,,,,,,wg-a,,,,AAXX 02064 07650 12/00 21404 10170 20150 30089 40127 58001 60006 80002 90600 333 10253 20161=
07650,1997-10-02 12:00:00,29,1010.2,-2,40,14,20000,25.928,,,310,,,,,,,,,,,wg-a,,,,AAXX 02124 07650 12/70 03114 10290 20140 30066 40102 58020 60006 80000 91200=
07650,1997-10-02 15:00:00,30,1009,-1.2,33,12,500,38.892,,,310,,,,,,,,,,,wg-a,,,,AAXX 02154 07650 12/00 03121 10300 20120 30054 40090 56012 60006 80000 91500=
07650,1997-10-02 18:00:00,26,1009.5,0.4,45,13,25000,42.596,,,310,16.9,30.4,,,,,,,,,wg-a,,,,AAXX 02184 07650 12/75 03123 10260 20130 30058 40095 53004 60006 80000 91800 333 10304 20169=
07650,1997-10-02 21:00:00,24,1010.2,0.7,47,12,25000,25.928,,,330,,,,,,,,,,,wg-a,,,,AAXX 02214 07650 12/75 03314 10240 20120 30065 40102 50007 60006 80000 92100=
07650,1997-10-03 00:00:00,22,1010,-0.2,57,13,25000,18.52,,,360,,,,,,,,,,,wg-a,,,,AAXX 03004 07650 12/75 03610 10220 20130 30063 40100 56002 60006 80000 90000=
07650,1997-10-03 03:00:00,20,1009.7,-0.3,60,12,20000,25.928,,,320,,,,,,,,,,,wg-a,,,,AAXX 03034 07650 12/70 03214 10200 20120 30060 40097 58003 60006 80000 90300=
07650,1997-10-03 06:00:00,18,1010.6,0.8,64,11,35000,25.928,,,330,18,25.9,,,,,,,,,wg-a,,,,AAXX 03064 07650 12/81 13314 10180 20110 30068 40106 51008 60006 80002 90600 333 10259 20180=
07650,1997-10-03 09:00:00,22,1011.6,1.1,50,11,40000,7.408,,,310,,,,,,,,,,,wg-a,,,,AAXX 03094 07650 12/82 13104 10220 20110 30079 40116 50011 60006 80002 90900=
07650,1997-10-03 12:00:00,27,1011.1,-0.5,37,11,40000,25.928,,,330,,,,,,,,,,,wg-a,,,,AAXX 03124 07650 12/82 13314 10270 20110 30074 40111 58005 60006 80001 91200=
07650,1997-10-03 15:00:00,28,1010.4,-0.6,35,11,35000,29.632,,,320,,,,,,,,,,,wg-a,,,,AAXX 03154 07650 12/81 13216 10280 20110 30068 40104 56006 60006 80001 91500=
07650,1997-10-03 18:00:00,23,1012.6,2.1,33,6,500,14.816,,,300,18.2,28.6,,,,,,,,,wg-a,,,,AAXX 03184 07650 12/00 03008 10230 20060 30089 40126 53021 60006 80000 91800 333 10286 20182=
07650,1997-10-03 21:00:00,18,1014.3,1.6,49,7,500,3.704,,,120,,,,,,,,,,,wg-a,,,,AAXX 03214 07650 12/00 01202 10180 20070 30105 40143 53016 60006 80000 92100=
07650,1997-10-04 00:00:00,15,1015.3,1,59,7,500,11.112,,,130,,,,,,,,,,,wg-a,,,,AAXX 04004 07650 12/00 01306 10150 20070 30115 40153 52010 60006 80000 90000=
07650,1997-10-04 03:00:00,14,1016.2,0.9,67,8,500,11.112,,,140,,,,,,,,,,,wg-a,,,,AAXX 04034 07650 12/00 01406 10140 20080 30124 40162 53009 60006 80000 90300=
07650,1997-10-04 06:00:00,13,1017.3,1,72,8,500,3.704,,,130,13.1,23.2,,,,,,,,,wg-a,,,,AAXX 04064 07650 12/00 01302 10130 20080 30134 40173 53010 60006 80000 90600 333 10232 20131=
07650,1997-10-04 09:00:00,20,1018.7,1.5,60,12,500,3.704,,,280,,,,,,,,,,,wg-a,,,,AAXX 04094 07650 12/00 02802 10200 20120 30149 40187 51015 60006 80000 90900=
07650,1997-10-04 12:00:00,26,1018.5,-0.1,51,15,500,7.408,,,270,,,,,,,,,,,wg-a,,,,AAXX 04124 07650 12/00 02704 10260 20150 30148 40185 58001 60006 80000 91200=
07650,1997-10-04 18:00:00,22,1019.1,1.1,83,19,12000,7.408,,,190,13,26.6,,,,,,,,,wg-a,,,,AAXX 04184 07650 12/62 /1904 10220 20190 30154 40191 53011 60006 80000 91800 333 10266 20130=
07650,1997-10-04 21:00:00,20,1019.4,0.2,88,18,7000,7.408,,,140,,,,,,,,,,,wg-a,,,,AAXX 04214 07650 12/57 01404 10200 20180 30156 40194 53002 60006 80000 92100=
07650,1997-10-05 00:00:00,19,1019.2,-0.2,88,17,500,3.704,,,330,,,,,,,,,,,wg-a,,,,AAXX 05004 07650 12400 33302 10190 20170 30154 40192 58002 60006 83500 90000=
07650,1997-10-05 03:00:00,18,1018.3,-0.9,83,15,6000,7.408,,,90,,,,,,,,,,,wg-a,,,,AAXX 05034 07650 12/56 /0904 10180 20150 30145 40183 58009 60006 80000 90300=
07650,1997-10-05 06:00:00,16,1018.3,-0,88,14,8000,7.408,,,80,16.3,22.4,,,,,,,,,wg-a,,,,AAXX 05064 07650 12/58 00804 10160 20140 30145 40183 55000 60006 80000 90600 333 10224 20163=
07650,1997-10-05 09:00:00,24,1018.7,0.5,54,14,8000,3.704,,,20,,,,,,,,,,,wg-a,,,,AAXX 05094 07650 12/58 00202 10240 20140 30150 40187 50005 60006 80000 90900=
07650,1997-10-05 12:00:00,27,1017.5,-1.2,54,17,15000,14.816,,,170,,,,,,,,,,,wg-a,,,,AAXX 05124 07650 12565 /1708 10270 20170 30138 40175 58012 60006 81200 91200=
07650,1997-10-05 15:00:00,26,1015,-2.5,58,17,0,22.224,,,180,,,,,,,,,,,wg-a,,,,AAXX 05154 07650 125// /1812 10260 20170 30113 40150 56025 60006 81400 91500=
07650,1997-10-05 18:00:00,23,1014.7,-0.3,69,17,10000,18.52,,,150,16.3,27.1,,,,,,,,,wg-a,,,,AAXX 05184 07650 12560 /1510 10230 20170 30110 40147 55003 60006 81102 91800 333 10271 20163=
07650,1997-10-05 21:00:00,21,1014.9,0.2,69,15,12000,3.704,,,70,,,,,,,,,,,wg-a,,,,AAXX 05214 07650 12/62 10702 10210 20150 30112 40149 50002 60006 80001 92100=
07650,1997-10-06 00:00:00,20,1014.5,-0.4,78,16,12000,11.112,,,80,,,,,,,,,,,wg-a,,,,AAXX 06004 07650 12/62 10806 10200 20160 30108 40145 58004 60006 80001 90000=
07650,1997-10-06 03:00:00,20,1013,-1.5,83,17,12000,18.52,,,90,,,,,,,,,,,wg-a,,,,AAXX 06034 07650 12562 40910 10200 20170 30093 40130 58015 60006 84500 90300=
07650,1997-10-06 06:00:00,21,1011.8,-1.2,73,16,12000,25.928,,,80,19.5,22.6,,,,,,,,,wg-a,,,,AAXX 06064 07650 12662 /0814 10210 20160 30081 40118 58012 60006 82530 90600 333 10226 20195=
07650,1997-10-06 09:00:00,24,1011.5,,57,15,15000,14.816,,,80,,,,,,,,,,,wg-a,,,,AAXX 06094 07650 32565 70808 10240 20150 30078 40115 83572 90900=
07650,1997-10-06 12:00:00,25,1010.7,-0.8,54,15,20000,38.892,,,110,,,,,,,,,,,wg-a,,,,AAXX 06124 07650 12570 71121 10250 20150 30070 40107 58008 60006 84832 91200=
07650,1997-10-06 15:00:00,24,1009.7,-1,65,17,15000,22.224,,,110,,,,0,,,,,,1,wg-a,,,,AAXX 06154 07650 12565 51112 10240 20170 30060 40097 58010 60007 70162 83932 91500=
07650,1997-10-06 18:00:00,22,1009,-0.7,73,17,15000,22.224,,,110,20.7,26.2,,,,,,,,,wg-a,,,,AAXX 06184 07650 12565 /1112 10220 20170 30053 40090 58007 60006 82902 91800 333 10262 20207=
07650,1997-10-07 00:00:00,22,1008.7,-0.6,73,17,15000,29.632,,,120,,,,,,,,,,,wg-a,,,,AAXX 07004 07650 12565 31216 10220 20170 30050 40087 58006 60006 83502 90000=
07650,1997-10-07 03:00:00,22,1007.7,-1,73,17,15000,22.224,,,120,,,,,,,,,,21,wg-a,,,,AAXX 07034 07650 02565 51212 10220 20170 30040 40077 55010 61000 72161 84932 90300 333 ////=
07650,1997-10-07 06:00:00,21,1007.8,-0.1,78,17,10000,18.52,,,110,19.7,22.2,,,,,18,,,17,wg-a,,,,AAXX 07064 07650 02360 61110 10210 20170 30041 40078 55001 60006 71796 85903 90600 333 10222 20197 60184=
07650,1997-10-07 12:00:00,27,1010.4,0.8,58,18,12000,18.52,,,130,,,,,,,,,,16,wg-a,,,,AAXX 07124 07650 12462 71310 10270 20180 30068 40104 50008 60006 71692 84903 91200=
07650,1997-10-07 15:00:00,27,1009.7,-0.7,54,17,20000,7.408,,,150,,,,,,,,,,2,wg-a,,,,AAXX 07154 07650 12570 31504 10270 20170 30061 40097 56007 60006 70291 81903 91500=
07650,1997-10-07 18:00:00,23,1011.7,1.9,78,19,20000,3.704,,,170,20.2,27.1,,,,,,,,13,wg-a,,,,AAXX 07184 07650 12570 31702 10230 20190 30080 40117 53019 60006 71391 82903 91800 333 10271 20202=
07650,1997-10-07 21:00:00,22,1014.1,2.4,83,19,12000,7.408,,,360,,,,0,,,,,,61,wg-a,,,,AAXX 07214 07650 12462 63604 10220 20190 30104 40141 53024 60007 76196 85902 92100=
07650,1997-10-08 00:00:00,20,1013.4,-0.7,88,18,20000,3.704,,,160,,,,3,,,,,,,wg-a,,,,AAXX 08004 07650 02/70 31602 10200 20180 30097 40134 55007 60036 81032 90000 333 60037=
07650,1997-10-08 03:00:00,18,1014.4,0.9,94,17,15000,3.704,,,360,,,,0,,,,,,,wg-a,,,,AAXX 08034 07650 12/65 23602 10180 20170 30106 40144 51009 60007 80002 90300=
07650,1997-10-08 06:00:00,18,1015.1,0.7,88,16,15000,3.704,,,60,17.5,23.1,,,,,3,,,,wg-a,,,,AAXX 08064 07650 02/65 30602 10180 20160 30113 40151 53007 60006 81032 90600 333 10231 20175 60034=
07650,1997-10-08 12:00:00,25,1015.7,-0.4,61,17,8000,11.112,,,270,,,,,,,,,,4,wg-a,,,,AAXX 08124 07650 12558 62706 10250 20170 30120 40157 58004 60006 70411 81102 91200=
07650,1997-10-08 18:00:00,22,1016.6,0.8,78,18,8000,7.408,,,150,17.5,27,,,,,,,,,wg-a,,,,AAXX 08184 07650 12/58 31504 10220 20180 30129 40166 53008 60006 80001 91800 333 10270 20175=
07650,1997-10-08 21:00:00,19,1017.7,1,88,17,7000,3.704,,,110,,,,,,,,,,,wg-a,,,,AAXX 08214 07650 12/57 /1102 10190 20170 30139 40177 51010 60006 80001 92100=
07650,1997-10-09 00:00:00,19,1017.7,-0,88,17,6000,7.408,,,110,,,,,,,,,,,wg-a,,,,AAXX 09004 07650 12/56 /1104 10190 20170 30139 40177 55000 60006 80001 90000=
07650,1997-10-09 03:00:00,18,1017.4,-0.3,88,16,6000,7.408,,,130,,,,,,,,,,,wg-a,,,,AAXX 09034 07650 12456 /1304 10180 20160 30136 40174 58003 60006 82600 90300=
07650,1997-10-09 06:00:00,17,1017.7,0.3,88,15,6000,11.112,,,70,17,21.9,,,,,,,,,wg-a,,,,AAXX 09064 07650 12456 /0706 10170 20150 30139 40177 52003 60006 81600 90600 333 10219 20170=
07650,1997-10-09 12:00:00,25,1018.6,-0.5,61,17,14000,11.112,,,250,,,,,,,,,,,wg-a,,,,AAXX 09124 07650 12564 42506 10250 20170 30149 40186 58005 60006 81132 91200=
07650,1997-10-09 15:00:00,26,1017.6,-1,61,18,15000,11.112,,,250,,,,,,,,,,,wg-a,,,,AAXX 09154 07650 12/65 42506 10260 20180 30139 40176 56010 60006 80002 91500=
07650,1997-10-09 18:00:00,22,1018.1,0.5,83,19,9000,18.52,,,250,17.1,26.4,,,,,,,,,wg-a,,,,AAXX 09184 07650 12/59 22510 10220 20190 30144 40181 53005 60006 80002 91800 333 10264 20171=
07650,1997-10-09 21:00:00,21,1018.5,0.4,88,19,8000,11.112,,,280,,,,,,,,,,,wg-a,,,,AAXX 09214 07650 12/58 /2806 10210 20190 30148 40185 51004 60006 80002 92100=
07650,1997-10-10 00:00:00,20,1017.5,-1.1,88,18,6000,0,,,0,,,,,,,,,,,wg-a,,,,AAXX 10004 07650 12256 /0000 10200 20180 30137 40175 57011 60006 86600 90000=
07650,1997-10-10 03:00:00,20,1016.4,-1,94,19,1500,3.704,,,10,,,,,,,,,,10,wg-a,,,,AAXX 10034 07650 12015 80102 10200 20190 30127 40164 58010 60006 71022 886// 90300=
07650,1997-10-10 06:00:00,19,1015.6,-0.9,94,18,900,3.704,,,10,18.6,22.3,,,,,,,,44,wg-a,,,,AAXX 10064 07650 12109 70102 10190 20180 30118 40156 55009 60006 74442 85602 90600 333 10223 20186=
07650,1997-10-10 09:00:00,21,1015.4,-0.1,88,19,2500,3.704,,,10,,,,,,,,,,10,wg-a,,,,AAXX 10094 07650 12225 /0102 10210 20190 30117 40154 58001 60006 71044 84602 90900=
07650,1997-10-10 12:00:00,26,1014.7,-0.7,61,18,500,3.704,,,10,,,,,,,,,,,wg-a,,,,AAXX 10124 07650 12300 50102 10260 20180 30110 40147 58007 60006 82632 91200=
07650,1997-10-10 15:00:00,23,1013.2,-1.5,78,19,7000,0,,,0,,,,0,,,,,,60,wg-a,,,,AAXX 10154 07650 12557 8//// 10230 20190 30095 40132 56015 60007 76066 8357/ 91500=
07650,1997-10-10 18:00:00,23,1012.3,-0.9,73,18,15000,25.928,,,270,19,26.5,,,,,,,,,wg-a,,,,AAXX 10184 07650 02565 42714 10230 20180 30086 40123 55009 60006 81532 91800 333 10265 20190 61000=
07650,1997-10-10 21:00:00,22,1012.5,0.2,78,18,20000,29.632,,,280,,,,,,,,,,,wg-a,,,,AAXX 10214 07650 12670 32816 10220 20180 30088 40125 50002 60006 81532 92100=
07650,1997-10-11 00:00:00,21,1011.9,-0.6,83,18,25000,22.224,,,310,,,,,,,,,,,wg-a,,,,AAXX 11004 07650 12/75 23112 10210 20180 30082 40119 55006 60006 81032 90000=
07650,1997-10-11 03:00:00,20,1011.2,-0.7,83,17,25000,29.632,,,300,,,,,,,,,,,wg-a,,,,AAXX 11034 07650 12/75 03016 10200 20170 30075 40112 56007 60006 80000 90300=
07650,1997-10-11 06:00:00,19,1011.4,0.2,78,15,25000,29.632,,,300,19.1,23,,,,,,,,,wg-a,,,,AAXX 11064 07650 02675 23016 10190 20150 30077 40114 53002 60006 81501 90600 333 10230 20191 60004=
07650,1997-10-11 09:00:00,22,1012.2,0.8,57,13,20000,31.484,,,320,,,,,,,,,,,wg-a,,,,AAXX 11094 07650 12/70 /3217 10220 20130 30085 40122 51008 60006 90900=
07650,1997-10-11 12:00:00,24,1010.6,-1.6,41,10,50000,35.188,,,320,,,,,,,,,,,wg-a,,,,AAXX 11124 07650 12/84 23219 10240 20100 30069 40106 58016 60006 80002 91200=
07650,1997-10-11 15:00:00,25,1009.2,-1.4,44,12,40000,25.928,,,290,,,,,,,,,,,wg-a,,,,AAXX 11154 07650 12/82 32914 10250 20120 30055 40092 56014 60006 81042 91500=
07650,1997-10-11 18:00:00,22,1008.3,-0.9,57,13,20000,14.816,,,300,19,25.2,,,,,,,,,wg-a,,,,AAXX 11184 07650 12/70 /3008 10220 20130 30046 40083 55009 60006 91800 333 10252 20190=
07650,1997-10-11 21:00:00,21,1008.3,0,78,17,20000,3.704,,,10,,,,,,,,,,21,wg-a,,,,AAXX 11214 07650 02670 60102 10210 20170 30046 40083 50000 61000 72161 84532 92100 333 ////=
07650,1997-10-12 00:00:00,20,1006.5,-1.8,88,18,500,22.224,,,270,,,,,,,,,,1,wg-a,,,,AAXX 12004 07650 02/00 32712 10200 20180 30028 40065 56018 61000 70161 82041 90000 333 ////=
07650,1997-10-12 03:00:00,22,1005.1,-1.4,60,14,500,50.004,,64.82,280,,,,,,,,,,,wg-a,,,,AAXX 12034 07650 12/00 22827 10220 20140 30014 40051 56014 60006 82030 90300 333 91035=
07650,1997-10-12 06:00:00,21,1004.8,-0.3,64,14,500,42.596,,,270,19.7,22.7,,,,,,,,,wg-a,,,,AAXX 12064 07650 02600 42723 10210 20140 30011 40048 55003 60006 83530 90600 333 10227 20197 61000=
07650,1997-10-12 09:00:00,21,1006.6,1.8,43,8,75000,57.412,,68.524,290,,,,,,,,,,,wg-a,,,,AAXX 12094 07650 12689 32931 10210 20080 30029 40066 53018 60006 83830 90900 333 91037=
07650,1997-10-12 12:00:00,21,1005.9,-0.7,43,8,75000,42.596,,,300,,,,,,,,,,,wg-a,,,,AAXX 12124 07650 12689 63023 10210 20080 30022 40059 58007 60006 86800 91200=
07650,1997-10-12 18:00:00,19,1007.3,1.8,52,9,40000,29.632,,,310,19.1,22,,,,,,,,,wg-a,,,,AAXX 12184 07650 12682 /3116 10190 20090 30036 40073 53018 60006 85800 91800 333 10220 20191=
07650,1997-10-12 21:00:00,15,1010.1,2.7,59,7,40000,50.004,,68.524,320,,,,,,,,,,,wg-a,,,,AAXX 12214 07650 12682 33227 10150 20070 30063 40101 51027 60006 83500 92100 333 91037=
07650,1997-10-13 00:00:00,14,1010,0.1,58,6,40000,50.004,,75.932,320,,,,,,,,,,,wg-a,,,,AAXX 13004 07650 12682 /3227 10140 20060 30062 40100 50001 60006 81500 90000 333 91041=
07650,1997-10-13 03:00:00,13,1009.2,-0.8,67,7,40000,50.004,,68.524,320,,,,,,,,,,,wg-a,,,,AAXX 13034 07650 12/82 03227 10130 20070 30054 40092 58008 60006 80000 90300 333 91037=
07650,1997-10-13 06:00:00,13,1009.1,-0.1,67,7,40000,46.3,,64.82,320,12.3,19.1,,,,,,,,,wg-a,,,,AAXX 13064 07650 12/82 13225 10130 20070 30053 40091 55001 60006 81030 90600 333 10191 20123 91035=
07650,1997-10-13 09:00:00,15,1010.4,1.3,55,6,40000,57.412,,72.228,330,,,,,,,,,,,wg-a,,,,AAXX 13094 07650 12/82 13331 10150 20060 30066 40104 51013 60006 80002 90900 333 91039=
07650,1997-10-13 12:00:00,16,1010,-0.4,45,4,40000,68.524,,90.748,320,,,,,,,,,,,wg-a,,,,AAXX 13124 07650 12582 23237 10160 20040 30062 40100 58004 60006 81101 91200 333 91049=
07650,1997-10-13 15:00:00,15,1010.2,0.2,41,2,40000,61.116,,94.452,330,,,,,,,,,,,wg-a,,,,AAXX 13154 07650 12/82 13333 10150 20020 30064 40102 53002 60006 81042 91500 333 91051=
07650,1997-10-13 18:00:00,13,1011.4,1.2,47,2,500,53.708,,75.932,320,12.4,16.8,,,,,,,,,wg-a,,,,AAXX 13184 07650 12/00 /3229 10130 20020 30076 40114 53012 60006 91800 333 10168 20124 91041=
07650,1997-10-13 21:00:00,12,1011.9,0.4,54,3,500,57.412,,75.932,320,,,,,,,,,,,wg-a,,,,AAXX 13214 07650 12/00 13231 10120 20030 30080 40119 50004 60006 80001 92100 333 91041=
07650,1997-10-14 00:00:00,11,1011.7,-0.2,62,4,500,50.004,,75.932,320,,,,,,,,,,,wg-a,,,,AAXX 14004 07650 12/00 03227 10110 20040 30078 40117 58002 60006 80000 90000 333 91041=
07650,1997-10-14 03:00:00,11,1011.7,-0,62,4,500,46.3,,64.82,320,,,,,,,,,,,wg-a,,,,AAXX 14034 07650 12/00 23225 10110 20040 30078 40117 55000 60006 81032 90300 333 91035=
07650,1997-10-14 06:00:00,10,1011.9,0.2,71,5,20000,46.3,,75.932,330,10.1,13.3,,,,,,,,,wg-a,,,,AAXX 14064 07650 12570 /3325 10100 20050 30080 40119 51002 60006 81840 90600 333 10133 20101 91041=
07650,1997-10-14 09:00:00,13,1012.5,0.6,54,4,40000,64.82,,72.228,340,,,,,,,,,,,wg-a,,,,AAXX 14094 07650 12582 /3435 10130 20040 30086 40125 53006 60006 81102 90900 333 91039=
07650,1997-10-14 12:00:00,15,1013.7,1.3,44,3,75000,53.708,,68.524,330,,,,,,,,,,,wg-a,,,,AAXX 14124 07650 12589 /3329 10150 20030 30099 40137 50013 60006 81100 91200 333 91037=
07650,1997-10-14 15:00:00,15,1013.4,-0.3,44,3,75000,64.82,,90.748,330,,,,,,,,,,,wg-a,,,,AAXX 14154 07650 12589 33335 10150 20030 30096 40134 58003 60006 81102 91500 333 91049=
07650,1997-10-14 18:00:00,13,1015.2,1.7,54,4,60000,57.412,,75.932,330,9.8,15.9,,,,,,,,,wg-a,,,,AAXX 14184 07650 12586 /3331 10130 20040 30113 40152 53017 60006 81502 91800 333 10159 20098 91041=
07650,1997-10-14 21:00:00,11,1017.2,2,62,4,40000,46.3,,57.412,330,,,,,,,,,,,wg-a,,,,AAXX 14214 07650 12/82 23325 10110 20040 30133 40172 51020 60006 81031 92100 333 91031=
07650,1997-10-15 00:00:00,11,1017.6,0.4,62,4,40000,31.484,,,330,,,,,,,,,,,wg-a,,,,AAXX 15004 07650 12/82 33317 10110 20040 30137 40176 53004 60006 80002 90000=
07650,1997-10-15 03:00:00,10,1017.3,-0.3,71,5,40000,38.892,,,320,,,,,,,,,,,wg-a,,,,AAXX 15034 07650 12/82 43221 10100 20050 30134 40173 58003 60006 81032 90300=
07650,1997-10-15 06:00:00,10,1017.4,0.1,71,5,40000,25.928,,,310,9.2,12.8,,,,,,,,,wg-a,,,,AAXX 15064 07650 12/82 53114 10100 20050 30135 40174 50001 60006 82042 90600 333 10128 20092=
07650,1997-10-15 09:00:00,13,1016.4,-1,54,4,60000,53.708,,75.932,320,,,,,,,,,,,wg-a,,,,AAXX 15094 07650 12/86 63229 10130 20040 30125 40164 58010 60006 84042 90900 333 91041=
07650,1997-10-15 12:00:00,14,1016.3,0,51,4,60000,29.632,,,320,,,,,,,,,,,wg-a,,,,AAXX 15124 07650 12/86 73216 10140 20040 30125 40163 50000 60006 85032 91200=
07650,1997-10-15 18:00:00,14,1014.5,-0.4,58,6,60000,18.52,,,300,9.8,15.9,,,,,,,,,wg-a,,,,AAXX 15184 07650 12/86 43010 10140 20060 30107 40145 56004 60006 83042 91800 333 10159 20098=
07650,1997-10-15 21:00:00,11,1015,0.4,76,7,40000,11.112,,,320,,,,,,,,,,,wg-a,,,,AAXX 15214 07650 12/82 23206 10110 20070 30111 40150 51004 60006 81230 92100=
07650,1997-10-16 00:00:00,10,1014.4,-0.6,82,7,40000,11.112,,,310,,,,,,,,,,,wg-a,,,,AAXX 16004 07650 12/82 13106 10100 20070 30105 40144 58006 60006 81032 90000=
07650,1997-10-16 03:00:00,8,1013.3,-1.1,87,6,40000,3.704,,,120,,,,,,,,,,,wg-a,,,,AAXX 16034 07650 12/82 31202 10080 20060 30094 40133 58011 60006 82032 90300=
07650,1997-10-16 06:00:00,7,1013.6,0.3,93,6,500,3.704,,,30,7.2,14,,,,,,,,,wg-a,,,,AAXX 16064 07650 12/00 20302 10070 20060 30097 40136 53003 60006 81042 90600 333 10140 20072=
07650,1997-10-16 09:00:00,14,1014.4,0.9,72,9,15000,11.112,,,260,,,,,,,,,,,wg-a,,,,AAXX 16094 07650 12/65 52606 10140 20090 30106 40144 51009 60006 80002 90900=
07650,1997-10-16 12:00:00,19,1013.2,-1.2,56,10,40000,18.52,,,270,,,,,,,,,,,wg-a,,,,AAXX 16124 07650 12682 32710 10190 20100 30094 40132 58012 60006 81102 91200=
07650,1997-10-16 15:00:00,20,1012.3,-0.8,53,10,500,22.224,,,320,,,,,,,,,,,wg-a,,,,AAXX 16154 07650 12600 53212 10200 20100 30086 40123 56008 60006 81102 91500=
07650,1997-10-16 18:00:00,17,1013.9,1.5,63,10,500,14.816,,,300,7.2,20.7,,,,,,,,,wg-a,,,,AAXX 16184 07650 12/00 53008 10170 20100 30101 40139 53015 60006 80002 91800 333 10207 20072=
07650,1997-10-17 00:00:00,12,1015.7,0.4,82,9,20000,3.704,,,130,,,,,,,,,,,wg-a,,,,AAXX 17004 07650 12/70 21302 10120 20090 30118 40157 52004 60006 80002 90000=
07650,1997-10-17 03:00:00,13,1016.1,0.4,82,10,20000,3.704,,,180,,,,,,,,,,,wg-a,,,,AAXX 17034 07650 12/70 01802 10130 20100 30122 40161 51004 60006 80000 90300=
07650,1997-10-17 06:00:00,12,1017,0.9,82,9,20000,7.408,,,140,11.4,16.8,,,,,,,,,wg-a,,,,AAXX 17064 07650 12570 11404 10120 20090 30131 40170 53009 60006 81530 90600 333 10168 20114=
07650,1997-10-17 09:00:00,18,1018.2,1.3,68,12,40000,3.704,,,220,,,,,,,,,,,wg-a,,,,AAXX 17094 07650 12582 22202 10180 20120 30144 40182 51013 60006 81132 90900=
07650,1997-10-17 12:00:00,22,1017.9,-0.2,57,13,40000,18.52,,,170,,,,,,,,,,,wg-a,,,,AAXX 17124 07650 12682 41710 10220 20130 30142 40179 58002 60006 84430 91200=
07650,1997-10-17 15:00:00,21,1017.7,-0.2,60,13,500,22.224,,,170,,,,,,,,,,,wg-a,,,,AAXX 17154 07650 12600 51712 10210 20130 30140 40177 56002 60006 84802 91500=
07650,1997-10-17 18:00:00,19,1019.2,1.4,68,13,25000,18.52,,,140,11.5,22.6,,,,,,,,,wg-a,,,,AAXX 17184 07650 12675 41410 10190 20130 30154 40192 53014 60006 82802 91800 333 10226 20115=
07650,1997-10-17 21:00:00,17,1020.7,1.5,72,12,25000,18.52,,,110,,,,,,,,,,,wg-a,,,,AAXX 17214 07650 12/75 11110 10170 20120 30169 40207 52015 60006 81011 92100=
07650,1997-10-18 00:00:00,16,1021.5,0.8,77,12,25000,14.816,,,90,,,,,,,,,,,wg-a,,,,AAXX 18004 07650 12/75 00908 10160 20120 30177 40215 53008 60006 80000 90000=
07650,1997-10-18 03:00:00,16,1021.9,0.4,77,12,20000,14.816,,,90,,,,,,,,,,,wg-a,,,,AAXX 18034 07650 12670 40908 10160 20120 30181 40219 51004 60006 81530 90300=
07650,1997-10-18 06:00:00,16,1022.5,0.6,82,13,20000,14.816,,,100,15.2,18.6,,,,,,,,,wg-a,,,,AAXX 18064 07650 12670 41008 10160 20130 30187 40225 53006 60006 81530 90600 333 10186 20152=
07650,1997-10-18 09:00:00,21,1024.1,1.6,60,13,20000,29.632,,,120,,,,,,,,,,,wg-a,,,,AAXX 18094 07650 12570 /1216 10210 20130 30203 40241 51016 60006 81102 90900=
07650,1997-10-18 12:00:00,24,1023.3,-0.7,50,13,20000,25.928,,,160,,,,,,,,,,,wg-a,,,,AAXX 18124 07650 12570 21614 10240 20130 30196 40233 58007 60006 82102 91200=
07650,1997-10-18 15:00:00,22,1022.9,-0.5,65,15,20000,22.224,,,160,,,,,,,,,,,wg-a,,,,AAXX 18154 07650 12570 21612 10220 20150 30191 40229 56005 60006 82400 91500=
07650,1997-10-18 18:00:00,19,1023.4,0.5,78,15,20000,11.112,,,140,16.2,24.1,,,,,,,,,wg-a,,,,AAXX 18184 07650 12570 /1406 10190 20150 30196 40234 53005 60006 81500 91800 333 10241 20162=
07650,1997-10-18 21:00:00,16,1023.7,0.3,77,12,20000,3.704,,,40,,,,,,,,,,,wg-a,,,,AAXX 18214 07650 12/70 00402 10160 20120 30199 40237 52003 60006 80000 92100=
07650,1997-10-19 00:00:00,16,1023.3,-0.4,82,13,20000,11.112,,,90,,,,,,,,,,,wg-a,,,,AAXX 19004 07650 12/70 00906 10160 20130 30195 40233 57004 60006 80000 90000=
07650,1997-10-19 03:00:00,16,1022.3,-1,82,13,16000,11.112,,,110,,,,,,,,,,,wg-a,,,,AAXX 19034 07650 12566 /1106 10160 20130 30185 40223 58010 60006 81500 90300=
07650,1997-10-19 06:00:00,16,1021.9,-0.4,82,13,15000,11.112,,,80,15.6,19.2,,,,,,,,,wg-a,,,,AAXX 19064 07650 12565 40806 10160 20130 30181 40219 55004 60006 84800 90600 333 10192 20156=
07650,1997-10-19 09:00:00,21,1022.3,0.4,64,14,15000,7.408,,,70,,,,,,,,,,,wg-a,,,,AAXX 19094 07650 12565 20704 10210 20140 30185 40223 51004 60006 81101 90900=
07650,1997-10-19 12:00:00,24,1020.6,-1.6,47,12,20000,22.224,,,160,,,,,,,,,,,wg-a,,,,AAXX 19124 07650 12570 51612 10240 20120 30169 40206 58016 60006 82502 91200=
07650,1997-10-19 15:00:00,22,1019,-1.6,57,13,500,14.816,,,160,,,,,,,,,,,wg-a,,,,AAXX 19154 07650 12500 51608 10220 20130 30153 40190 56016 60006 81132 91500=
07650,1997-10-19 18:00:00,19,1018,-1.1,78,15,20000,18.52,,,130,15.5,23.7,,,,,,,,,wg-a,,,,AAXX 19184 07650 12570 /1310 10190 20150 30142 40180 58011 60006 81132 91800 333 10237 20155=
07650,1997-10-19 21:00:00,17,1018.3,0.3,88,15,20000,3.704,,,100,,,,,,,,,,,wg-a,,,,AAXX 19214 07650 12/70 71002 10170 20150 30145 40183 53003 60006 83032 92100=
07650,1997-10-20 00:00:00,17,1017.2,-1.1,88,15,20000,14.816,,,90,,,,,,,,,,,wg-a,,,,AAXX 20004 07650 12/70 40908 10170 20150 30134 40172 56011 60006 81032 90000=
07650,1997-10-20 03:00:00,17,1014.9,-2.3,77,13,12000,14.816,,,90,,,,,,,,,,,wg-a,,,,AAXX 20034 07650 12662 70908 10170 20130 30111 40149 56023 60006 8357/ 90300=
07650,1997-10-20 06:00:00,17,1013.6,-1.3,82,14,12000,18.52,,,80,16.6,19.4,,,,,,,,21,wg-a,,,,AAXX 20064 07650 02462 70810 10170 20140 30098 40136 58013 61000 72161 8457/ 90600 333 10194 20166 6100=
07650,1997-10-20 09:00:00,18,1012.8,-0.8,88,16,9000,18.52,,,80,,,,1,,,,,,60,wg-a,,,,AAXX 20094 07650 12459 70810 10180 20160 30090 40128 56008 60017 76066 875// 90900=
07650,1997-10-20 12:00:00,21,1010.9,-1.8,88,19,10000,14.816,,,170,,,,1,,,,,,3,wg-a,,,,AAXX 20124 07650 02360 81708 10210 20190 30072 40109 58018 60026 70362 876// 91200 333 60017=
07650,1997-10-20 15:00:00,21,1009.4,-1.5,88,19,10000,14.816,,,170,,,,,,,,,,,wg-a,,,,AAXX 20154 07650 12360 71708 10210 20190 30057 40094 56015 60006 875// 91500=
07650,1997-10-20 18:00:00,21,1009.3,-0.1,88,19,7000,11.112,,,150,16.9,21.2,,,,,,,,60,wg-a,,,,AAXX 20184 07650 02357 71506 10210 20190 30056 40093 55001 61000 76062 877// 91800 333 10212 20169 6000=
07650,1997-10-20 21:00:00,19,1008.5,-0.8,88,17,12000,14.816,,,80,,,,,,,,,,1,wg-a,,,,AAXX 20214 07650 02462 /0808 10190 20170 30048 40085 57008 61000 70162 86500 92100 333 ////=
07650,1997-10-21 00:00:00,19,1007.5,-1,83,16,12000,11.112,,,100,,,,,,,,,,3,wg-a,,,,AAXX 21004 07650 02462 51006 10190 20160 30038 40075 58010 61000 70362 84502 90000 333 ////=
07650,1997-10-21 03:00:00,18,1006.9,-0.6,88,16,12000,3.704,,,40,,,,,,,,,,,wg-a,,,,AAXX 21034 07650 12462 70402 10180 20160 30032 40069 55006 60006 875// 90300=
07650,1997-10-21 06:00:00,18,1006.4,-0.5,88,16,20000,3.704,,,170,18.2,20.5,,,,,3,,,,wg-a,,,,AAXX 21064 07650 02470 71702 10180 20160 30027 40064 56005 60006 8457/ 90600 333 10205 20182 60034=
07650,1997-10-21 09:00:00,20,1007,0.6,83,17,20000,11.112,,,250,,,,,,,,,,,wg-a,,,,AAXX 21094 07650 12/70 12506 10200 20170 30033 40070 53006 60006 81030 90900=
07650,1997-10-21 12:00:00,24,1006.8,-0.2,65,17,12000,11.112,,,250,,,,,,,,,,,wg-a,,,,AAXX 21124 07650 12562 /2506 10240 20170 30031 40068 58002 60006 81201 91200=
07650,1997-10-21 15:00:00,22,1007.1,0.3,78,18,20000,22.224,,,180,,,,,,,,,,,wg-a,,,,AAXX 21154 07650 12670 21812 10220 20180 30034 40071 53003 60006 81201 91500=
07650,1997-10-21 18:00:00,21,1008.8,1.7,83,18,15000,7.408,,,180,18.2,25.4,,,,,,,,,wg-a,,,,AAXX 21184 07650 12565 /1804 10210 20180 30051 40088 53017 60006 82530 91800 333 10254 20182=
07650,1997-10-21 21:00:00,20,1009.7,0.9,88,18,15000,7.408,,,160,,,,1,,,,,,21,wg-a,,,,AAXX 21214 07650 12465 71604 10200 20180 30060 40097 53009 60017 72162 8557/ 92100=
07650,1997-10-22 00:00:00,19,1009.9,0.2,88,17,15000,0,,,0,,,,,,,,,,1,wg-a,,,,AAXX 22004 07650 12565 80000 10190 20170 30062 40099 50002 60016 70162 8557/ 90000=
07650,1997-10-22 03:00:00,18,1010.1,0.1,94,17,12000,7.408,,,30,,,,2,,,,,,21,wg-a,,,,AAXX 22034 07650 12562 70304 10180 20170 30063 40101 53001 60027 72162 875// 90300=
07650,1997-10-22 06:00:00,18,1010.3,0.2,88,16,12000,11.112,,,90,17.5,20.6,,,,,,,,60,wg-a,,,,AAXX 22064 07650 02662 80906 10180 20160 30065 40103 50002 61000 76062 885// 90600 333 10206 20175 6004=
07650,1997-10-22 09:00:00,17,1011.5,1.2,94,16,7000,7.408,,,40,,,,3,,,,,,60,wg-a,,,,AAXX 22094 07650 12557 80404 10170 20160 30077 40115 51012 60037 76066 8684/ 90900=
07650,1997-10-22 12:00:00,19,1010.7,-0.7,83,16,7000,11.112,,,60,,,,,,,,,,3,wg-a,,,,AAXX 22124 07650 12457 80606 10190 20160 30070 40107 58007 60036 70362 8587/ 91200=
07650,1997-10-22 15:00:00,20,1010.3,-0.4,83,17,500,3.704,,,260,,,,,,,,,,,wg-a,,,,AAXX 22154 07650 12400 82602 10200 20170 30066 40103 57004 60006 8687/ 91500=
07650,1997-10-22 18:00:00,18,1010.4,-0,88,16,7000,7.408,,,70,16.9,19.7,,,,,,,,60,wg-a,,,,AAXX 22184 07650 02457 80704 10180 20160 30066 40104 55000 61000 76062 878// 91800 333 10197 20169 6100=
07650,1997-10-22 21:00:00,18,1010.7,0.3,88,16,6000,3.704,,,110,,,,0,,,,,,3,wg-a,,,,AAXX 22214 07650 12456 81102 10180 20160 30069 40107 53003 60007 70362 8587/ 92100=
07650,1997-10-23 00:00:00,17,1010.6,-0.1,94,16,8000,0,,,0,,,,2,,,,,,60,wg-a,,,,AAXX 23004 07650 02458 80000 10170 20160 30068 40106 58001 60026 76062 8587/ 90000 333 60027=
07650,1997-10-23 03:00:00,17,1009.5,-1.1,88,15,6000,7.408,,,100,,,,1,,,,,,1,wg-a,,,,AAXX 23034 07650 12456 71004 10170 20150 30057 40095 56011 60017 70162 8387/ 90300=
07650,1997-10-23 06:00:00,17,1009.2,-0.3,88,15,6000,7.408,,,120,16.5,18.4,,,,,6,,,1,wg-a,,,,AAXX 23064 07650 02456 71204 10170 20150 30054 40092 58003 60006 70162 878// 90600 333 10184 20165 60064=
07650,1997-10-23 09:00:00,18,1009.7,0.5,88,16,6000,3.704,,,40,,,,,,,,,,,wg-a,,,,AAXX 23094 07650 12456 80402 10180 20160 30059 40097 50005 60006 888// 90900=
07650,1997-10-23 12:00:00,20,1008.7,-0.9,73,15,6000,7.408,,,280,,,,,,,,,,21,wg-a,,,,AAXX 23124 07650 02456 82804 10200 20150 30050 40087 58009 61000 72162 8487/ 91200 333 6100=
07650,1997-10-23 15:00:00,20,1008,-0.7,73,15,6000,11.112,,,260,,,,,,,,,,,wg-a,,,,AAXX 23154 07650 12456 72606 10200 20150 30043 40080 55007 60006 8587/ 91500=
07650,1997-10-23 18:00:00,18,1008.9,0.8,94,17,6000,14.816,,,270,16.6,21,,,,,,,,80,wg-a,,,,AAXX 23184 07650 02256 82708 10180 20170 30051 40089 51008 61000 78099 889// 91800 333 10210 20166 6021=
07650,1997-10-24 00:00:00,16,1008.8,-0.5,94,15,9000,14.816,,,300,,,,,,,,,,1,wg-a,,,,AAXX 24004 07650 12659 43008 10160 20150 30050 40088 56005 60016 70196 82532 90000=
07650,1997-10-24 03:00:00,15,1008.5,-0.3,88,13,14000,18.52,,,320,,,,,,,,,,,wg-a,,,,AAXX 24034 07650 12464 33210 10150 20130 30047 40085 56003 60006 83500 90300=
07650,1997-10-24 06:00:00,14,1008.6,0.1,82,11,15000,22.224,,,330,14.1,17.9,,,,,22,,,,wg-a,,,,AAXX 24064 07650 02565 /3312 10140 20110 30048 40086 51001 60006 81500 90600 333 10179 20141 60224=
07650,1997-10-24 09:00:00,15,1009.5,0.9,72,10,500,29.632,,,330,,,,,,,,,,,wg-a,,,,AAXX 24094 07650 12/00 03316 10150 20100 30057 40095 51009 60006 80000 90900=
07650,1997-10-24 12:00:00,17,1009.5,0,68,11,500,29.632,,,320,,,,,,,,,,,wg-a,,,,AAXX 24124 07650 12/00 03216 10170 20110 30057 40095 50000 60006 80000 91200=
07650,1997-10-24 15:00:00,17,1010.2,0.7,59,9,25000,29.632,,,320,,,,,,,,,,,wg-a,,,,AAXX 24154 07650 12/75 03216 10170 20090 30064 40102 53007 60006 80000 91500=
07650,1997-10-24 18:00:00,12,1012.3,2,62,5,20000,29.632,,,320,11.7,17.9,,,,,,,,,wg-a,,,,AAXX 24184 07650 12/70 03216 10120 20050 30084 40123 53020 60006 80000 91800 333 10179 20117=
07650,1997-10-24 21:00:00,10,1013.9,1.6,66,4,20000,14.816,,,360,,,,,,,,,,,wg-a,,,,AAXX 24214 07650 12/70 03608 10100 20040 30100 40139 53016 60006 80000 92100=
07650,1997-10-25 00:00:00,10,1014.8,0.9,71,5,20000,22.224,,,10,,,,,,,,,,,wg-a,,,,AAXX 25004 07650 12/70 00112 10100 20050 30109 40148 53009 60006 80000 90000=
07650,1997-10-25 03:00:00,8,1016.1,1.3,87,6,20000,11.112,,,350,,,,,,,,,,,wg-a,,,,AAXX 25034 07650 12570 13506 10080 20060 30122 40161 51013 60006 81500 90300=
07650,1997-10-25 06:00:00,7,1018.2,2.1,87,5,20000,14.816,,,350,7.1,11.7,,,,,,,,,wg-a,,,,AAXX 25064 07650 12/70 13508 10070 20050 30143 40182 52021 60006 81030 90600 333 10117 20071=
07650,1997-10-25 09:00:00,13,1020.1,1.9,67,7,15000,0,,,0,,,,,,,,,,,wg-a,,,,AAXX 25094 07650 12/65 10000 10130 20070 30162 40201 51019 60006 80002 90900=
07650,1997-10-25 12:00:00,19,1019.7,-0.3,60,11,20000,18.52,,,260,,,,,,,,,,,wg-a,,,,AAXX 25124 07650 12570 /2610 10190 20110 30159 40197 58003 60006 81100 91200=
07650,1997-10-25 15:00:00,19,1019.7,-0,52,9,15000,11.112,,,270,,,,,,,,,,,wg-a,,,,AAXX 25154 07650 12/65 /2706 10190 20090 30159 40197 54000 60006 80002 91500=
07650,1997-10-25 18:00:00,14,1020.5,0.7,72,9,15000,7.408,,,300,7.1,19.3,,,,,,,,,wg-a,,,,AAXX 25184 07650 12565 /3004 10140 20090 30166 40205 53007 60006 81500 91800 333 10193 20071=
07650,1997-10-25 21:00:00,11,1021.1,0.6,87,9,15000,7.408,,,130,,,,,,,,,,,wg-a,,,,AAXX 25214 07650 12/65 01304 10110 20090 30172 40211 51006 60006 80000 92100=
07650,1997-10-26 00:00:00,10,1020.9,-0.2,87,8,15000,11.112,,,130,,,,,,,,,,,wg-a,,,,AAXX 26004 07650 12/65 01306 10100 20080 30170 40209 58002 60006 80000 90000=
07650,1997-10-26 03:00:00,9,1020.1,-0.8,87,7,10000,14.816,,,120,,,,,,,,,,,wg-a,,,,AAXX 26034 07650 12/60 01208 10090 20070 30162 40201 58008 60006 80000 90300=
07650,1997-10-26 06:00:00,8,1019.7,-0.4,93,7,500,11.112,,,130,7.8,14.2,,,,,,,,,wg-a,,,,AAXX 26064 07650 12/00 11306 10080 20070 30158 40197 56004 60006 80001 90600 333 10142 20078=
07650,1997-10-26 09:00:00,13,1020.1,0.4,82,10,6000,3.704,,,250,,,,,,,,,,,wg-a,,,,AAXX 26094 07650 12/56 /2502 10130 20100 30162 40201 50004 60006 80001 90900=
07650,1997-10-26 12:00:00,17,1019.3,-0.7,72,12,8000,3.704,,,290,,,,,,,,,,,wg-a,,,,AAXX 26124 07650 12/58 22902 10170 20120 30155 40193 58007 60006 80001 91200=
07650,1997-10-26 15:00:00,19,1017.9,-1.4,56,10,10000,7.408,,,260,,,,,,,,,,,wg-a,,,,AAXX 26154 07650 12/60 22604 10190 20100 30141 40179 56014 60006 80001 91500=
07650,1997-10-26 18:00:00,13,1018.4,0.4,77,9,15000,3.704,,,180,7.8,20,,,,,,,,,wg-a,,,,AAXX 26184 07650 12/65 11802 10130 20090 30145 40184 53004 60006 80001 91800 333 10200 20078=
07650,1997-10-26 21:00:00,10,1018.2,-0.2,93,9,12000,3.704,,,120,,,,,,,,,,,wg-a,,,,AAXX 26214 07650 12/62 01202 10100 20090 30143 40182 56002 60006 80000 92100=
07650,1997-10-27 00:00:00,9,1017.6,-0.6,93,8,12000,3.704,,,140,,,,,,,,,,,wg-a,,,,AAXX 27004 07650 12/62 01402 10090 20080 30137 40176 56006 60006 80000 90000=
07650,1997-10-27 03:00:00,9,1016.5,-1.1,87,7,10000,7.408,,,130,,,,,,,,,,,wg-a,,,,AAXX 27034 07650 12/60 01304 10090 20070 30126 40165 56011 60006 80000 90300=
07650,1997-10-27 06:00:00,8,1016,-0.5,87,6,8000,7.408,,,150,7.5,13.3,,,,,,,,,wg-a,,,,AAXX 27064 07650 12/58 01504 10080 20060 30121 40160 57005 60006 80000 90600 333 10133 20075=
07650,1997-10-27 09:00:00,12,1016.3,0.3,82,9,7000,3.704,,,260,,,,,,,,,,,wg-a,,,,AAXX 27094 07650 12/57 /2602 10120 20090 30124 40163 50003 60006 80001 90900=
07650,1997-10-27 12:00:00,17,1014.4,-1.8,63,10,11000,11.112,,,240,,,,,,,107,,,,wg-a,,,,AAXX 27124 07650 02/61 /2406 10170 20100 30106 40144 58018 60006 91200 333 61074=
07650,1997-10-27 18:00:00,13,1014,0.7,67,7,12000,7.408,,,330,7.3,18.7,,,,,,,,,wg-a,,,,AAXX 27184 07650 12/62 13304 10130 20070 30102 40140 53007 60006 80001 91800 333 10187 20073=
07650,1997-10-27 21:00:00,11,1014.8,0.7,76,7,12000,7.408,,,120,,,,,,,,,,,wg-a,,,,AAXX 27214 07650 12/62 01204 10110 20070 30109 40148 52007 60006 80000 92100=
07650,1997-10-28 00:00:00,10,1014.8,-0,93,9,8000,3.704,,,150,,,,,,,,,,,wg-a,,,,AAXX 28004 07650 12/58 01502 10100 20090 30109 40148 55000 60006 80000 90000=
07650,1997-10-28 03:00:00,11,1014.1,-0.7,94,10,9000,3.704,,,160,,,,,,,,,,,wg-a,,,,AAXX 28034 07650 12559 21602 10110 20100 30102 40141 56007 60006 82500 90300=
07650,1997-10-28 06:00:00,11,1014,-0.1,94,10,10000,3.704,,,60,9.5,13.1,,,,,,,,,wg-a,,,,AAXX 28064 07650 12660 60602 10110 20100 30101 40140 58001 60006 86500 90600 333 10131 20095=
07650,1997-10-28 12:00:00,17,1014.3,-0.3,52,7,10000,7.408,,,40,,,,,,,,,,,wg-a,,,,AAXX 28124 07650 12560 70404 10170 20070 30105 40143 58003 60006 8587/ 91200=
07650,1997-10-28 15:00:00,15,1015.3,1,55,6,12000,22.224,,,90,,,,,,,,,,60,wg-a,,,,AAXX 28154 07650 02562 70912 10150 20060 30115 40153 53010 61000 76062 8487/ 91500 333 ////=
07650,1997-10-28 18:00:00,13,1019,3.6,58,5,12000,14.816,,,90,11.2,18.3,,,,,,,,60,wg-a,,,,AAXX 28184 07650 02562 70908 10130 20050 30151 40190 53036 61000 76062 8587/ 91800 333 10183 20112 6100=
07650,1997-10-28 21:00:00,9,1020.5,1.5,87,7,7000,22.224,,,10,,,,,,,,,,1,wg-a,,,,AAXX 28214 07650 02557 50112 10090 20070 30166 40205 51015 61000 70162 83530 92100 333 ////=
07650,1997-10-29 00:00:00,8,1021.5,1,93,7,8000,14.816,,,340,,,,,,,,,,,wg-a,,,,AAXX 29004 07650 02/58 /3408 10080 20070 30176 40215 51010 61000 90000 333 ////=
07650,1997-10-29 03:00:00,8,1022,0.5,93,7,8000,7.408,,,130,,,,,,,,,,,wg-a,,,,AAXX 29034 07650 12558 71304 10080 20070 30181 40220 51005 60006 8153/ 90300=
07650,1997-10-29 06:00:00,9,1022.7,0.7,87,7,8000,3.704,,,140,7.8,13.2,,,,,,,,,wg-a,,,,AAXX 29064 07650 02558 71402 10090 20070 30188 40227 51007 60006 8353/ 90600 333 10132 20078 61000=
07650,1997-10-29 09:00:00,12,1024.2,1.5,50,2,15000,3.704,,,330,,,,,,,,,,,wg-a,,,,AAXX 29094 07650 12/65 33302 10120 20020 30203 40242 51015 60006 83030 90900=
07650,1997-10-29 12:00:00,13,1023.5,-0.7,41,0,75000,7.408,,,260,,,,,,,,,,,wg-a,,,,AAXX 29124 07650 12/89 22604 10130 20000 30196 40235 58007 60006 82030 91200=
07650,1997-10-29 15:00:00,12,1022.9,-0.6,47,1,20000,18.52,,,310,,,,,,,,,,,wg-a,,,,AAXX 29154 07650 12/70 33110 10120 20010 30190 40229 55006 60006 83030 91500=
07650,1997-10-29 18:00:00,9,1023.2,0.3,57,1,20000,18.52,,,320,8.2,14.8,,,,,,,,,wg-a,,,,AAXX 29184 07650 12/70 43210 10090 20010 30193 40232 53003 60006 82032 91800 333 10148 20082=
07650,1997-10-29 21:00:00,5,1023.6,0.3,75,1,20000,14.816,,,360,,,,,,,,,,,wg-a,,,,AAXX 29214 07650 12/70 23608 10050 20010 30196 40236 53003 60006 80002 92100=
07650,1997-10-30 00:00:00,3,1023.4,-0.2,81,0,20000,11.112,,,140,,,,,,,,,,,wg-a,,,,AAXX 30004 07650 12/70 01406 10030 20000 30194 40234 58002 60006 80000 90000=
07650,1997-10-30 03:00:00,2,1022.2,-1.2,87,0,15000,3.704,,,140,,,,,,,,,,,wg-a,,,,AAXX 30034 07650 12/65 01402 10020 20000 30182 40222 58012 60006 80000 90300=
07650,1997-10-30 06:00:00,1,1021.7,-0.6,80,-2,12000,14.816,,,140,0.6,9,,,,,,,,,wg-a,,,,AAXX 30064 07650 12/62 11408 10010 21020 30176 40217 56006 60006 81030 90600 333 10090 20006=
07650,1997-10-30 09:00:00,6,1021.6,0,70,1,12000,3.704,,,280,,,,,,,,,,,wg-a,,,,AAXX 30094 07650 12/62 22802 10060 20010 30176 40216 50000 60006 81032 90900=
07650,1997-10-30 12:00:00,13,1020.1,-1.4,44,1,15000,7.408,,,250,,,,,,,,,,,wg-a,,,,AAXX 30124 07650 12765 12504 10130 20010 30162 40201 58014 60006 81502 91200=
07650,1997-10-30 18:00:00,9,1021.3,1.6,57,1,15000,7.408,,,210,0.4,14.5,,,,,,,,,wg-a,,,,AAXX 30184 07650 12/65 12104 10090 20010 30174 40213 53016 60006 80002 91800 333 10145 20004=
07650,1997-10-30 21:00:00,5,1022.1,0.7,75,1,15000,7.408,,,140,,,,,,,,,,,wg-a,,,,AAXX 30214 07650 12/65 01404 10050 20010 30181 40221 53007 60006 80000 92100=
07650,1997-10-31 00:00:00,3,1022.4,0.3,81,0,15000,14.816,,,310,,,,,,,,,,,wg-a,,,,AAXX 31004 07650 12/65 03108 10030 20000 30184 40224 53003 60006 80000 90000=
07650,1997-10-31 03:00:00,1,1021.9,-0.5,86,-1,15000,7.408,,,130,,,,,,,,,,,wg-a,,,,AAXX 31034 07650 12/65 01304 10010 21010 30179 40219 58005 60006 80000 90300=
07650,1997-10-31 06:00:00,1,1021.6,-0.4,86,-1,15000,3.704,,,140,0.5,8.9,,,,,,,,,wg-a,,,,AAXX 31064 07650 12565 11402 10010 21010 30175 40216 58004 60006 81500 90600 333 10089 20005=
07650,1997-10-31 09:00:00,6,1021.3,0.8,70,1,11000,3.704,,,200,,,,,,,,,,,wg-a,,,,AAXX 31094 07650 12/61 02002 10060 20010 30183 40213 51008 60006 80000 90900=
07650,1997-10-31 12:00:00,13,1021.1,-1.1,51,3,12000,7.408,,,270,,,,,,,,,,,wg-a,,,,AAXX 31124 07650 12/62 02704 10130 20030 30172 40211 58011 60006 80000 91200=
07650,1997-10-31 15:00:00,15,1020.4,-0.6,48,4,12000,3.704,,,270,,,,,,,,,,,wg-a,,,,AAXX 31154 07650 12/62 12702 10150 20040 30166 40204 55006 60006 80001 91500=
07650,1997-10-31 18:00:00,10,1021,0.5,66,4,10000,3.704,,,80,0.5,15.6,,,,,,,,,wg-a,,,,AAXX 31184 07650 12/60 00802 10100 20040 30171 40210 53005 60006 80000 91800 333 10156 20005=
07650,1997-10-31 21:00:00,7,1021.7,0.6,66,1,10000,7.408,,,110,,,,,,,,,,,wg-a,,,,AAXX 31214 07650 12/60 01104 10070 20010 30177 40217 52006 60006 80000 92100=
07650,1997-11-01 00:00:00,6,1021.4,-0.3,75,2,10000,7.408,,,150,,,,,,,,,,,wg-a,,,,AAXX 01004 07650 12/60 01504 10060 20020 30174 40214 57003 60006 80000 90000=
07650,1997-11-01 03:00:00,5,1020.4,-1,87,3,11000,3.704,,,140,,,,,,,,,,,wg-a,,,,AAXX 01034 07650 12/61 01402 10050 20030 30164 40204 58010 60006 80000 90300=
07650,1997-11-01 06:00:00,5,1020.7,0.3,81,2,10000,7.408,,,120,4.5,9.5,,,,,,,,,wg-a,,,,AAXX 01064 07650 12/60 11204 10050 20020 30167 40207 52003 60006 80001 90600 333 10095 20045=
07650,1997-11-01 09:00:00,10,1021.6,1,71,5,12000,3.704,,,350,,,,,,,,,,,wg-a,,,,AAXX 01094 07650 12562 23502 10100 20050 30177 40216 51010 60006 81502 90900=
07650,1997-11-01 12:00:00,15,1020.4,-1.1,59,7,12000,7.408,,,280,,,,,,,,,,,wg-a,,,,AAXX 01124 07650 12562 22804 10150 20070 30166 40204 58011 60006 81502 91200=
07650,1997-11-01 15:00:00,16,1019.6,-0.8,45,4,16000,3.704,,,310,,,,,,,,,,,wg-a,,,,AAXX 01154 07650 12/66 53102 10160 20040 30158 40196 56008 60006 81032 91500=
07650,1997-11-01 18:00:00,12,1019.8,0.1,71,7,12000,7.408,,,150,5,16.8,,,,,,,,,wg-a,,,,AAXX 01184 07650 12/62 51504 10120 20070 30159 40198 53001 60006 81032 91800 333 10168 20050=
07650,1997-11-01 21:00:00,10,1019.8,-0,82,7,10000,7.408,,,120,,,,,,,,,,,wg-a,,,,AAXX 01214 07650 12/60 11204 10100 20070 30159 40198 55000 60006 80002 92100=
07650,1997-11-02 00:00:00,8,1019.6,-0.2,87,6,10000,7.408,,,120,,,,,,,,,,,wg-a,,,,AAXX 02004 07650 12/60 01204 10080 20060 30157 40196 58002 60006 80000 90000=
07650,1997-11-02 03:00:00,6,1018.7,-1,93,5,8000,7.408,,,130,,,,,,,,,,,wg-a,,,,AAXX 02034 07650 12/58 01304 10060 20050 30147 40187 56010 60006 80000 90300=
07650,1997-11-02 06:00:00,8,1017.7,-0.9,87,6,8000,7.408,,,170,6.4,11.9,,,,,,,,,wg-a,,,,AAXX 02064 07650 12658 21704 10080 20060 30138 40177 56009 60006 82500 90600 333 10119 20064=
07650,1997-11-02 12:00:00,15,1016.8,-1.2,72,10,9000,7.408,,,260,,,,,,,,,,,wg-a,,,,AAXX 02124 07650 12659 /2604 10150 20100 30130 40168 58012 60006 86800 91200=
07650,1997-11-02 15:00:00,15,1015.5,-1.3,77,11,8000,0,,,0,,,,,,,,,,,wg-a,,,,AAXX 02154 07650 12558 70000 10150 20110 30117 40155 56013 60006 875// 91500=
07650,1997-11-02 18:00:00,15,1015.6,0.1,77,11,7000,7.408,,,100,8.1,15.6,,,,,,,,,wg-a,,,,AAXX 02184 07650 12657 71004 10150 20110 30118 40156 53001 60006 875// 91800 333 10156 20081=
07650,1997-11-02 21:00:00,14,1015.3,-0.3,82,11,8000,11.112,,,90,,,,,,,,,,,wg-a,,,,AAXX 02214 07650 12658 70906 10140 20110 30115 40153 55003 60006 8357/ 92100=
07650,1997-11-03 00:00:00,15,1015,-0.3,82,12,8000,11.112,,,90,,,,,,,,,,,wg-a,,,,AAXX 03004 07650 12658 70906 10150 20120 30112 40150 58003 60006 875// 90000=
07650,1997-11-03 03:00:00,14,1014,-1,82,11,8000,7.408,,,90,,,,,,,,,,,wg-a,,,,AAXX 03034 07650 12658 70904 10140 20110 30102 40140 56010 60006 875// 90300=
07650,1997-11-03 06:00:00,13,1013.7,-0.3,82,10,10000,14.816,,,70,13.3,14.8,,,,,,,,,wg-a,,,,AAXX 03064 07650 12660 70708 10130 20100 30099 40137 55003 60006 83530 90600 333 10148 20133=
07650,1997-11-03 09:00:00,16,1013.6,-0.1,68,10,12000,14.816,,,70,,,,,,,,,,,wg-a,,,,AAXX 03094 07650 12562 70708 10160 20100 30098 40136 58001 60006 8487/ 90900=
07650,1997-11-03 12:00:00,19,1012.6,-1,60,11,12000,25.928,,,140,,,,,,,,,,,wg-a,,,,AAXX 03124 07650 12562 71414 10190 20110 30088 40126 58010 60006 8387/ 91200=
07650,1997-11-03 15:00:00,18,1011.1,-1.5,68,12,15000,22.224,,,150,,,,,,,,,,,wg-a,,,,AAXX 03154 07650 12565 71512 10180 20120 30073 40111 56015 60006 8587/ 91500=
07650,1997-11-03 18:00:00,17,1010.9,-0.2,68,11,12000,22.224,,,130,13.2,19.3,,,,,,,,,wg-a,,,,AAXX 03184 07650 12562 71312 10170 20110 30071 40109 58002 60006 8387/ 91800 333 10193 20132=
07650,1997-11-03 21:00:00,16,1010.7,-0.2,68,10,12000,11.112,,,90,,,,,,,,,,,wg-a,,,,AAXX 03214 07650 12562 70906 10160 20100 30069 40107 55002 60006 8257/ 92100=
07650,1997-11-04 00:00:00,16,1009.8,-0.9,72,11,15000,18.52,,,90,,,,,,,,,,,wg-a,,,,AAXX 04004 07650 12565 70910 10160 20110 30060 40098 58009 60006 8157/ 90000=
07650,1997-11-04 03:00:00,17,1008.7,-1.1,59,9,15000,25.928,,,90,,,,,,,,,,,wg-a,,,,AAXX 04034 07650 12565 70914 10170 20090 30049 40087 57011 60006 8157/ 90300=
07650,1997-11-04 06:00:00,17,1008.3,-0.4,59,9,15000,29.632,,,90,15.8,17.1,,,,,,,,,wg-a,,,,AAXX 04064 07650 12565 70916 10170 20090 30045 40083 56004 60006 8157/ 90600 333 10171 20158=
07650,1997-11-04 12:00:00,18,1010.3,0.5,59,10,15000,29.632,,,110,,,,0,,,,,,21,wg-a,,,,AAXX 04124 07650 02565 71116 10180 20100 30065 40103 50005 60026 72162 8357/ 91200 333 60007=
07650,1997-11-04 18:00:00,18,1010.8,0.8,56,9,15000,7.408,,,70,15.5,19.3,,,,,,,,,wg-a,,,,AAXX 04184 07650 12565 70704 10180 20090 30070 40108 53008 60006 85542 91800 333 10193 20155=
07650,1997-11-04 21:00:00,18,1011.3,0.5,52,8,15000,7.408,,,140,,,,,,,,,,21,wg-a,,,,AAXX 04214 07650 02565 81404 10180 20080 30075 40113 51005 61000 72162 8487/ 92100 333 ////=
07650,1997-11-05 00:00:00,17,1010.7,-0.6,63,10,15000,18.52,,,90,,,,,,,,,,21,wg-a,,,,AAXX 05004 07650 02565 80910 10170 20100 30069 40107 56006 61000 72162 8587/ 90000 333 6100=
07650,1997-11-05 03:00:00,17,1009.6,-1.1,68,11,15000,22.224,,,120,,,,,,,,,,60,wg-a,,,,AAXX 05034 07650 02665 81212 10170 20110 30058 40096 58011 61000 76062 8557/ 90300 333 ////=
07650,1997-11-05 06:00:00,15,1009.2,-0.4,82,12,8000,22.224,,,100,15,17.7,,,,,,,,60,wg-a,,,,AAXX 05064 07650 02558 81012 10150 20120 30054 40092 55004 61000 76062 885// 90600 333 10177 20150 6002=
07650,1997-11-05 09:00:00,15,1009.2,-0,82,12,12000,22.224,,,90,,,,2,,,,,,60,wg-a,,,,AAXX 05094 07650 12562 80912 10150 20120 30054 40092 54000 60027 76062 885// 90900=
07650,1997-11-05 12:00:00,18,1007.3,-1.8,73,13,15000,38.892,,,110,,,,2,,,,,,3,wg-a,,,,AAXX 05124 07650 02565 81121 10180 20130 30036 40073 58018 60046 70362 8687/ 91200 333 60027=
07650,1997-11-05 15:00:00,18,1005.1,-2.2,73,13,12000,38.892,,53.708,110,,,,0,,,,,,60,wg-a,,,,AAXX 05154 07650 12562 81121 10180 20130 30014 40051 58022 60007 76062 8787/ 91500 333 91029=
07650,1997-11-05 18:00:00,18,1005.3,0.2,77,14,12000,29.632,,,120,14.4,18.2,,,,,,,,3,wg-a,,,,AAXX 05184 07650 02562 81216 10180 20140 30016 40053 50002 60006 70362 885// 91800 333 10182 20144 61000=
07650,1997-11-05 21:00:00,17,1004.4,-0.9,82,14,12000,29.632,,,110,,,,1,,,,,,60,wg-a,,,,AAXX 05214 07650 12462 81116 10170 20140 30007 40044 58009 60017 76062 885// 92100=
07650,1997-11-06 00:00:00,17,1000.9,-3.5,88,15,12000,35.188,,,120,,,,2,,,,,,60,wg-a,,,,AAXX 06004 07650 02/62 /1219 10170 20150 39972 40009 58035 60026 76066 90000 333 60027=
07650,1997-11-06 06:00:00,20,996.6,-2,78,16,12000,38.892,,72.228,130,16.2,20.3,,,,,7,,,2,wg-a,,,,AAXX 06064 07650 02462 71321 10200 20160 39929 49966 58020 60006 70262 875// 90600 333 10203 20162 60074 91039=
07650,1997-11-06 12:00:00,20,994.3,-2.5,83,17,8000,42.596,,68.524,130,,,,1,,,,,,21,wg-a,,,,AAXX 06124 07650 02458 81323 10200 20170 39906 49943 58025 60026 72166 8587/ 91200 333 60017 91037=
07650,1997-11-06 15:00:00,20,993.4,-0.9,83,17,8000,42.596,,,150,,,,4,,,,,,21,wg-a,,,,AAXX 06154 07650 12458 81523 10200 20170 39897 49934 55009 60047 72162 878// 91500=
07650,1997-11-06 18:00:00,19,994.4,1,83,16,15000,42.596,,72.228,150,18.9,21.2,,1,,,,,,1,wg-a,,,,AAXX 06184 07650 02565 71523 10190 20160 39907 49944 52010 60006 70186 8487/ 91800 333 10212 20189 60017 91039=
07650,1997-11-06 21:00:00,18,997.2,2.8,68,12,15000,29.632,,57.412,160,,,,2,,,,,,3,wg-a,,,,AAXX 06214 07650 12565 71616 10180 20120 39935 49972 53028 60027 70388 8583/ 92100 333 91031=
07650,1997-11-07 00:00:00,16,997.9,0.7,72,11,15000,25.928,,50.004,170,,,,2,,,,,,25,wg-a,,,,AAXX 07004 07650 02465 61714 10160 20110 39942 49979 53007 60036 72582 8483/ 90000 333 60027 91027=
07650,1997-11-07 03:00:00,14,999.8,1.8,88,12,17000,11.112,,,170,,,,2,,,,,,,wg-a,,,,AAXX 07034 07650 12567 71706 10140 20120 39960 49998 51018 60027 8587/ 90300=
07650,1997-11-07 06:00:00,11,1002.2,2.4,94,10,15000,0,,,0,10.7,19.4,,,,,12,,,,wg-a,,,,AAXX 07064 07650 02565 40000 10110 20100 39984 40022 51024 60006 81832 90600 333 10194 20107 60124=
07650,1997-11-07 09:00:00,16,1004.1,1.9,63,9,20000,3.704,,,150,,,,,,,,,,,wg-a,,,,AAXX 07094 07650 12570 51502 10160 20090 30003 40041 51019 60006 82831 90900=
07650,1997-11-07 12:00:00,17,1002.3,-1.7,59,9,500,7.408,,,280,,,,,,,,,,,wg-a,,,,AAXX 07124 07650 12500 32804 10170 20090 39986 40023 58017 60006 82131 91200=
07650,1997-11-07 18:00:00,15,1002.2,0.5,72,10,25000,11.112,,,100,10.5,18.2,,,,,,,,,wg-a,,,,AAXX 07184 07650 12575 41006 10150 20100 39984 40022 52005 60006 83831 91800 333 10182 20105=
07650,1997-11-08 00:00:00,14,1002.8,0.4,77,10,500,18.52,,,100,,,,,,,,,,,wg-a,,,,AAXX 08004 07650 12500 41010 10140 20100 39990 40028 51004 60006 83501 90000=
07650,1997-11-08 06:00:00,12,1004.5,2.1,82,9,500,7.408,,,160,11.6,14.6,,,,,,,,,wg-a,,,,AAXX 08064 07650 12500 /1604 10120 20090 30007 40045 53021 60006 82530 90600 333 10146 20116=
07650,1997-11-08 09:00:00,14,1007.5,3,82,11,20000,3.704,,,290,,,,,,,,,,,wg-a,,,,AAXX 08094 07650 12670 /2902 10140 20110 30037 40075 51030 60006 84532 90900=
07650,1997-11-08 12:00:00,18,1007.5,0,56,9,500,22.224,,,280,,,,,,,,,,,wg-a,,,,AAXX 08124 07650 12500 22812 10180 20090 30037 40075 50000 60006 82800 91200=
07650,1997-11-08 18:00:00,14,1008.8,0.8,67,8,500,11.112,,,160,10.6,18.3,,,,,,,,,wg-a,,,,AAXX 08184 07650 12500 31606 10140 20080 30050 40088 53008 60006 81502 91800 333 10183 20106=
07650,1997-11-08 21:00:00,14,1008.7,-0.1,72,9,25000,11.112,,,110,,,,,,,,,,,wg-a,,,,AAXX 08214 07650 12/75 31106 10140 20090 30049 40087 57001 60006 80002 92100=
07650,1997-11-09 00:00:00,16,1006.5,-2.2,77,12,20000,22.224,,,120,,,,,,,,,,,wg-a,,,,AAXX 09004 07650 12570 71212 10160 20120 30027 40065 56022 60006 81532 90000=
07650,1997-11-09 03:00:00,18,1004.4,-2,73,13,20000,25.928,,,150,,,,,,,,,,,wg-a,,,,AAXX 09034 07650 12570 81514 10180 20130 30007 40044 56020 60006 8357/ 90300=
07650,1997-11-09 06:00:00,18,1002.7,-1.7,77,14,15000,18.52,,,190,13.3,18.3,,,,,,,,21,wg-a,,,,AAXX 09064 07650 02565 /1910 10180 20140 39990 40027 58017 61000 72162 83532 90600 333 10183 20133 6100=
07650,1997-11-09 09:00:00,16,1006.9,4.1,63,9,40000,22.224,,,290,,,,,,,,,,,wg-a,,,,AAXX 09094 07650 12582 /2912 10160 20090 30031 40069 53041 60006 85830 90900=
07650,1997-11-09 12:00:00,16,1007.7,0.8,59,8,40000,18.52,,,260,,,,,,,,,,,wg-a,,,,AAXX 09124 07650 12582 /2610 10160 20080 30039 40077 50008 60006 84832 91200=
07650,1997-11-09 15:00:00,18,1008.4,0.7,45,6,40000,22.224,,,280,,,,,,,,,,,wg-a,,,,AAXX 09154 07650 12582 32812 10180 20060 30046 40084 53007 60006 81132 91500=
07650,1997-11-09 18:00:00,13,1009.8,1.4,67,7,500,7.408,,,210,12.6,18.1,,,,,,,,,wg-a,,,,AAXX 09184 07650 12500 22104 10130 20070 30060 40098 53014 60006 81402 91800 333 10181 20126=
07650,1997-11-09 21:00:00,11,1010.8,0.9,66,5,10000,7.408,,,90,,,,,,,,,,,wg-a,,,,AAXX 09214 07650 12/60 /0904 10110 20050 30069 40108 53009 60006 92100=
07650,1997-11-10 00:00:00,11,1010,-0.8,71,6,20000,3.704,,,170,,,,,,,,,,,wg-a,,,,AAXX 10004 07650 12/70 11702 10110 20060 30061 40100 58008 60006 81030 90000=
07650,1997-11-10 03:00:00,10,1008.5,-1.5,71,5,20000,7.408,,,80,,,,,,,,,,,wg-a,,,,AAXX 10034 07650 12/70 20804 10100 20050 30046 40085 56015 60006 81032 90300=
07650,1997-11-10 06:00:00,9,1008.1,-0.4,71,4,20000,7.408,,,120,9.2,12.9,,,,,,,,,wg-a,,,,AAXX 10064 07650 12/70 31204 10090 20040 30042 40081 58004 60006 82032 90600 333 10129 20092=
07650,1997-11-10 12:00:00,18,1006,-1.4,64,11,50000,22.224,,,140,,,,,,,,,,,wg-a,,,,AAXX 10124 07650 12584 41412 10180 20110 30023 40060 58014 60006 83202 91200=
07650,1997-11-10 15:00:00,17,1005.6,-0.5,59,9,500,18.52,,,190,,,,,,,,,,,wg-a,,,,AAXX 10154 07650 12500 /1910 10170 20090 30018 40056 55005 60006 84902 91500=
07650,1997-11-10 18:00:00,13,1007.1,1.5,62,6,500,18.52,,,20,9.3,19.2,,,,,,,,,wg-a,,,,AAXX 10184 07650 12600 30210 10130 20060 30033 40071 53015 60006 81230 91800 333 10192 20093=
07650,1997-11-11 00:00:00,10,1008,-0.4,76,6,15000,7.408,,,90,,,,,,,,,,,wg-a,,,,AAXX 11004 07650 12665 /0904 10100 20060 30041 40080 58004 60006 81530 90000=
07650,1997-11-11 03:00:00,11,1006.5,-1.4,62,4,15000,7.408,,,80,,,,,,,,,,,wg-a,,,,AAXX 11034 07650 12665 /0804 10110 20040 30027 40065 58014 60006 81530 90300=
07650,1997-11-11 06:00:00,14,1004.9,-1.6,63,7,15000,25.928,,,110,9.4,14.2,,,,,,,,,wg-a,,,,AAXX 11064 07650 12665 /1114 10140 20070 30011 40049 56016 60006 81530 90600 333 10142 20094=
07650,1997-11-11 09:00:00,18,1004.2,-0.6,52,8,500,29.632,,,170,,,,,,,,,,,wg-a,,,,AAXX 11094 07650 12600 /1716 10180 20080 30005 40042 58006 60006 82802 90900=
07650,1997-11-11 12:00:00,19,1002.4,-1.8,60,11,40000,31.484,,53.708,180,,,,,,,,,,,wg-a,,,,AAXX 11124 07650 12582 61817 10190 20110 39987 40024 58018 60006 85832 91200 333 91029=
07650,1997-11-11 15:00:00,18,1000.4,-2,64,11,25000,29.632,,57.412,170,,,,,,,,,,,wg-a,,,,AAXX 11154 07650 12575 71716 10180 20110 39967 40004 57020 60006 8527/ 91500 333 91031=
07650,1997-11-11 18:00:00,17,999.9,-0.5,63,10,20000,31.484,,64.82,180,14,19.2,,,,,,,,,wg-a,,,,AAXX 11184 07650 12570 71817 10170 20100 39962 49999 58005 60006 8687/ 91800 333 10192 20140 91035=
07650,1997-11-11 21:00:00,16,998.6,-1.3,77,12,15000,25.928,,,160,,,,0,,,,,,60,wg-a,,,,AAXX 11214 07650 12565 71614 10160 20120 39949 49986 58013 60007 76062 8597/ 92100=
07650,1997-11-12 00:00:00,14,998.6,-0.1,82,11,20000,7.408,,,210,,,,0,,,,,,21,wg-a,,,,AAXX 12004 07650 02570 72104 10140 20110 39948 49986 55001 60016 72162 8457/ 90000 333 60007=
07650,1997-11-12 03:00:00,11,998.9,0.3,76,7,20000,22.224,,,270,,,,,,,,,,,wg-a,,,,AAXX 12034 07650 12470 /2712 10110 20070 39951 49989 51003 60006 82532 90300=
07650,1997-11-12 06:00:00,10,999.9,1,76,6,500,14.816,,,280,9.4,17.4,,,,,1,,,,wg-a,,,,AAXX 12064 07650 02500 /2808 10100 20060 39961 49999 51010 60006 81500 90600 333 10174 20094 60014=
07650,1997-11-12 09:00:00,11,1002.2,2.3,71,6,500,22.224,,,280,,,,,,,,,,,wg-a,,,,AAXX 12094 07650 12500 /2812 10110 20060 39984 40022 51023 60006 81100 90900=
07650,1997-11-12 12:00:00,13,1003.2,1,62,6,500,14.816,,,290,,,,,,,,,,,wg-a,,,,AAXX 12124 07650 12500 32908 10130 20060 39994 40032 51010 60006 83830 91200=
07650,1997-11-12 15:00:00,14,1003.8,0.6,55,5,500,18.52,,,270,,,,,,,,,,,wg-a,,,,AAXX 12154 07650 12500 42710 10140 20050 30000 40038 53006 60006 84800 91500=
07650,1997-11-12 18:00:00,12,1005.7,1.9,67,6,500,22.224,,,270,9.2,14.4,,,,,,,,,wg-a,,,,AAXX 12184 07650 12500 22712 10120 20060 30019 40057 53019 60006 81430 91800 333 10144 20092=
07650,1997-11-12 21:00:00,10,1007.3,1.5,82,7,20000,29.632,,,300,,,,,,,,,,,wg-a,,,,AAXX 12214 07650 12/70 33016 10100 20070 30034 40073 51015 60006 81032 92100=
07650,1997-11-13 00:00:00,8,1007.8,0.5,81,5,20000,11.112,,,320,,,,,,,,,,,wg-a,,,,AAXX 13004 07650 12670 /3206 10080 20050 30039 40078 50005 60006 81530 90000=
07650,1997-11-13 03:00:00,6,1007.8,,93,5,20000,14.816,,,320,,,,,,,,,,,wg-a,,,,AAXX 13034 07650 32/70 03208 10060 20050 30033 40078 80000 90300=
07650,1997-11-13 06:00:00,7,1007.4,-0.2,87,5,20000,22.224,,,310,4.9,12,,,,,,,,,wg-a,,,,AAXX 13064 07650 12/70 03112 10070 20050 30035 40074 58002 60006 80000 90600 333 10120 20049=
07650,1997-11-13 09:00:00,9,1007.8,0.4,76,5,500,18.52,,,300,,,,,,,,,,,wg-a,,,,AAXX 13094 07650 12600 23010 10090 20050 30039 40078 52004 60006 81532 90900=
07650,1997-11-13 12:00:00,14,1006.4,-1.3,51,4,40000,25.928,,,290,,,,,,,,,,,wg-a,,,,AAXX 13124 07650 12582 22914 10140 20040 30026 40064 58013 60006 81531 91200=
07650,1997-11-13 15:00:00,14,1005.5,-0.9,55,5,40000,25.928,,,270,,,,,,,,,,,wg-a,,,,AAXX 13154 07650 12582 22714 10140 20050 30017 40055 55009 60006 81501 91500=
07650,1997-11-13 18:00:00,10,1006.5,0.9,62,3,500,14.816,,,330,6.3,14.6,,,,,,,,,wg-a,,,,AAXX 13184 07650 12/00 13308 10100 20030 30026 40065 53009 60006 81031 91800 333 10146 20063=
07650,1997-11-13 21:00:00,8,1007.1,0.6,76,4,10000,11.112,,,320,,,,,,,,,,,wg-a,,,,AAXX 13214 07650 12/60 /3206 10080 20040 30032 40071 51006 60006 92100=
07650,1997-11-14 00:00:00,7,1007.4,0.3,81,4,500,7.408,,,300,,,,,,,,,,,wg-a,,,,AAXX 14004 07650 12/00 13004 10070 20040 30035 40074 53003 60006 80002 90000=
07650,1997-11-14 03:00:00,7,1007.3,-0.1,81,4,500,14.816,,,310,,,,,,,,,,,wg-a,,,,AAXX 14034 07650 12/00 13108 10070 20040 30034 40073 58001 60006 81042 90300=
07650,1997-11-14 06:00:00,7,1007.8,0.5,76,3,500,25.928,,,320,5.7,10,,,,,,,,,wg-a,,,,AAXX 14064 07650 12/00 33214 10070 20030 30039 40078 53005 60006 81042 90600 333 10100 20057=
07650,1997-11-14 09:00:00,10,1011,3.2,66,4,20000,25.928,,,350,,,,,,,,,,,wg-a,,,,AAXX 14094 07650 12/70 13514 10100 20040 30071 40110 51032 60006 80002 90900=
07650,1997-11-14 12:00:00,14,1011.1,0.2,51,4,500,22.224,,,340,,,,,,,,,,,wg-a,,,,AAXX 14124 07650 12600 23412 10140 20040 30073 40111 50002 60006 81102 91200=
07650,1997-11-14 15:00:00,14,1012,0.9,51,4,500,31.484,,,320,,,,,,,,,,,wg-a,,,,AAXX 14154 07650 12/00 13217 10140 20040 30082 40120 53009 60006 80002 91500=
07650,1997-11-14 18:00:00,11,1013.7,1.6,58,3,20000,25.928,,,330,6.3,14.9,,,,,,,,,wg-a,,,,AAXX 14184 07650 12/70 03314 10110 20030 30098 40137 51016 60006 80000 91800 333 10149 20063=
07650,1997-11-14 21:00:00,7,1015.8,2.1,70,2,20000,7.408,,,20,,,,,,,,,,,wg-a,,,,AAXX 14214 07650 12/70 00204 10070 20020 30119 40158 52021 60006 80000 92100=
07650,1997-11-15 00:00:00,4,1017,1.1,87,2,20000,7.408,,,140,,,,,,,,,,,wg-a,,,,AAXX 15004 07650 12/70 01404 10040 20020 30130 40170 51011 60006 80000 90000=
07650,1997-11-15 03:00:00,3,1017.9,0.9,87,1,20000,11.112,,,130,,,,,,,,,,,wg-a,,,,AAXX 15034 07650 12/70 01306 10030 20010 30139 40179 52009 60006 80000 90300=
07650,1997-11-15 06:00:00,3,1019.1,1.2,87,1,20000,7.408,,,140,2.9,10.9,,,,,,,,,wg-a,,,,AAXX 15064 07650 12/70 01404 10030 20010 30151 40191 53012 60006 80000 90600 333 10109 20029=
07650,1997-11-15 09:00:00,9,1020.3,1.3,66,3,20000,3.704,,,170,,,,,,,,,,,wg-a,,,,AAXX 15094 07650 12/70 11702 10090 20030 30164 40203 51013 60006 80001 90900=
07650,1997-11-15 12:00:00,14,1019.8,-0.5,55,5,20000,7.408,,,250,,,,,,,,,,,wg-a,,,,AAXX 15124 07650 12/70 22504 10140 20050 30159 40198 58005 60006 80002 91200=
07650,1997-11-15 15:00:00,15,1019.4,-0.3,51,5,20000,11.112,,,270,,,,,,,,,,,wg-a,,,,AAXX 15154 07650 12/70 12706 10150 20050 30156 40194 55003 60006 80002 91500=
07650,1997-11-15 18:00:00,10,1020.1,0.6,76,6,20000,11.112,,,140,2.4,15.5,,,,,,,,,wg-a,,,,AAXX 15184 07650 12/70 31406 10100 20060 30162 40201 53006 60006 80002 91800 333 10155 20024=
07650,1997-11-15 21:00:00,7,1020.3,0.1,87,5,20000,3.704,,,120,,,,,,,,,,,wg-a,,,,AAXX 15214 07650 12/70 21202 10070 20050 30163 40203 53001 60006 80002 92100=
07650,1997-11-16 00:00:00,6,1020.4,0.1,93,5,12000,7.408,,,120,,,,,,,,,,,wg-a,,,,AAXX 16004 07650 12/62 31204 10060 20050 30164 40204 50001 60006 82032 90000=
07650,1997-11-16 03:00:00,6,1019.1,-1.3,87,4,20000,7.408,,,140,,,,,,,,,,,wg-a,,,,AAXX 16034 07650 12/70 /1404 10060 20040 30151 40191 58013 60006 90300=
07650,1997-11-16 06:00:00,5,1018.3,-0.8,93,4,8000,3.704,,,120,4.4,9.9,,,,,,,,,wg-a,,,,AAXX 16064 07650 12/58 /1202 10050 20040 30143 40183 56008 60006 80002 90600 333 10099 20044=
07650,1997-11-16 09:00:00,10,1018.2,-0,82,7,10000,3.704,,,210,,,,,,,,,,,wg-a,,,,AAXX 16094 07650 12/60 22102 10100 20070 30143 40182 54000 60006 81042 90900=
07650,1997-11-16 12:00:00,14,1015.7,-2.4,55,5,12000,7.408,,,250,,,,,,,,,,,wg-a,,,,AAXX 16124 07650 12/62 62504 10140 20050 30119 40157 58024 60006 81032 91200=
07650,1997-11-16 15:00:00,15,1012.9,-2.8,59,7,15000,25.928,,,290,,,,,,,,,,,wg-a,,,,AAXX 16154 07650 12/65 72914 10150 20070 30091 40129 56028 60006 81032 91500=
07650,1997-11-16 18:00:00,14,1012.3,-0.6,72,9,15000,18.52,,,270,4.4,15.4,,,,,,,,,wg-a,,,,AAXX 16184 07650 12/65 62710 10140 20090 30085 40123 56006 60006 80002 91800 333 10154 20044=
07650,1997-11-16 21:00:00,14,1012.6,0.3,77,10,15000,7.408,,,320,,,,,,,,,,,wg-a,,,,AAXX 16214 07650 12/65 63204 10140 20100 30088 40126 52003 60006 82032 92100=
07650,1997-11-17 00:00:00,11,1013.9,1.2,76,7,15000,3.704,,,170,,,,,,,,,,,wg-a,,,,AAXX 17004 07650 12/65 31702 10110 20070 30100 40139 51012 60006 80002 90000=
07650,1997-11-17 03:00:00,11,1014.1,0.2,76,7,15000,7.408,,,130,,,,,,,,,,,wg-a,,,,AAXX 17034 07650 12/65 21304 10110 20070 30102 40141 50002 60006 80002 90300=
07650,1997-11-17 06:00:00,8,1014.8,0.7,87,6,15000,3.704,,,200,8.4,14.6,,,,,,,,,wg-a,,,,AAXX 17064 07650 12/65 32002 10080 20060 30109 40148 53007 60006 80002 90600 333 10146 20084=
07650,1997-11-17 09:00:00,12,1015.8,1,82,9,10000,3.704,,,230,,,,,,,,,,,wg-a,,,,AAXX 17094 07650 12/60 22302 10120 20090 30119 40158 51010 60006 81032 90900=
07650,1997-11-17 12:00:00,16,1014.2,-1.5,68,10,15000,7.408,,,280,,,,,,,,,,,wg-a,,,,AAXX 17124 07650 12665 22804 10160 20100 30104 40142 58015 60006 81202 91200=
07650,1997-11-17 15:00:00,17,1013.7,-0.5,68,11,20000,3.704,,,250,,,,,,,,,,,wg-a,,,,AAXX 17154 07650 12570 32502 10170 20110 30099 40137 57005 60006 82201 91500=
07650,1997-11-17 18:00:00,13,1014,0.3,88,11,15000,3.704,,,60,7.8,17.3,,,,,,,,,wg-a,,,,AAXX 17184 07650 12565 30602 10130 20110 30102 40140 52003 60006 82802 91800 333 10173 20078=
07650,1997-11-18 00:00:00,13,1014.7,-0.3,72,8,12000,7.408,,,90,,,,,,,,,,,wg-a,,,,AAXX 18004 07650 12662 70904 10130 20080 30108 40147 55003 60006 85501 90000=
07650,1997-11-18 06:00:00,11,1013.4,-0.2,71,6,11000,11.112,,,110,10.3,13.8,,,,,,,,,wg-a,,,,AAXX 18064 07650 12761 31106 10110 20060 30095 40134 55002 60006 82531 90600 333 10138 20103=
07650,1997-11-18 09:00:00,13,1013.7,0.4,67,7,12000,11.112,,,100,,,,,,,,,,,wg-a,,,,AAXX 18094 07650 12662 /1006 10130 20070 30099 40137 50004 60006 81530 90900=
07650,1997-11-18 12:00:00,15,1012,-1.7,55,6,12000,7.408,,,130,,,,,,,,,,,wg-a,,,,AAXX 18124 07650 12662 71304 10150 20060 30082 40120 58017 60006 8257/ 91200=
07650,1997-11-18 15:00:00,15,1010.3,-1.7,63,8,20000,7.408,,,150,,,,,,,,,,,wg-a,,,,AAXX 18154 07650 12670 71504 10150 20080 30065 40103 56017 60006 875// 91500=
07650,1997-11-18 18:00:00,14,1009.4,-0.9,67,8,15000,11.112,,,10,11,15.4,,,,,,,,,wg-a,,,,AAXX 18184 07650 12565 80106 10140 20080 30056 40094 56009 60006 8557/ 91800 333 10154 20110=
07650,1997-11-19 00:00:00,11,1005.4,-2.5,82,8,15000,3.704,,,210,,,,,,,,,,,wg-a,,,,AAXX 19004 07650 12565 72102 10110 20080 30016 40054 57025 60006 85570 90000=
07650,1997-11-19 06:00:00,10,1002.8,-0.1,93,9,12000,3.704,,,220,10.1,13.6,,,,,,,,60,wg-a,,,,AAXX 19064 07650 02662 72202 10100 20090 39990 40028 55001 61000 76062 8357/ 90600 333 10136 20101 6000=
07650,1997-11-19 09:00:00,11,1003,0.2,87,9,6000,11.112,,,340,,,,0,,,,,,60,wg-a,,,,AAXX 19094 07650 12556 83406 10110 20090 39992 40030 53002 60007 760// 8487/ 90900=
07650,1997-11-19 12:00:00,13,1002.6,-0.4,82,10,7000,11.112,,,240,,,,,,,,,,21,wg-a,,,,AAXX 19124 07650 02557 82406 10130 20100 39988 40026 58004 60006 72162 8387/ 91200 333 61000=
07650,1997-11-19 15:00:00,12,1003.1,0.5,94,11,4000,7.408,,,250,,,,1,,,,,,60,wg-a,,,,AAXX 19154 07650 12440 82504 10120 20110 39993 40031 53005 60017 76062 8587/ 91500=
07650,1997-11-19 18:00:00,12,1004.3,1.2,94,11,4000,3.704,,,230,10.3,12.8,,,,,,,,60,wg-a,,,,AAXX 19184 07650 02340 82302 10120 20110 30005 40043 53012 61000 76062 8687/ 91800 333 10128 20103 6001=
07650,1997-11-19 21:00:00,12,1005.6,1.3,94,11,500,7.408,,,260,,,,3,,,,,,1,wg-a,,,,AAXX 19214 07650 12200 82604 10120 20110 30018 40056 51013 60037 70162 875// 92100=
07650,1997-11-20 00:00:00,11,1005.8,0.2,94,10,10000,3.704,,,90,,,,3,,,,,,1,wg-a,,,,AAXX 20004 07650 02460 80902 10110 20100 30020 40058 51002 60066 70162 878// 90000 333 60037=
07650,1997-11-20 03:00:00,11,1005.9,0.1,94,10,10000,3.704,,,80,,,,,,,,,,,wg-a,,,,AAXX 20034 07650 12560 70802 10110 20100 30021 40059 50001 60006 878// 90300=
07650,1997-11-20 06:00:00,11,1005.8,-0.1,82,8,10000,11.112,,,110,10.5,11.8,,,,,8,,,,wg-a,,,,AAXX 20064 07650 02560 /1106 10110 20080 30020 40058 55001 60006 85800 90600 333 10118 20105 60084=
07650,1997-11-20 09:00:00,13,1007.1,1.3,77,9,10000,18.52,,,120,,,,,,,,,,,wg-a,,,,AAXX 20094 07650 12560 71210 10130 20090 30033 40071 53013 60006 878// 90900=
07650,1997-11-20 12:00:00,14,1006.8,-0.3,77,10,6000,29.632,,,110,,,,1,,,,,,1,wg-a,,,,AAXX 20124 07650 02556 71116 10140 20100 30030 40068 58003 60016 70166 878// 91200 333 60017=
07650,1997-11-20 15:00:00,14,1006.3,-0.5,72,9,6000,18.52,,,110,,,,,,,,,,,wg-a,,,,AAXX 20154 07650 12556 71110 10140 20090 30025 40063 57005 60006 8597/ 91500=
07650,1997-11-20 18:00:00,11,1008.5,2.1,87,9,10000,11.112,,,100,10.4,14.6,,,,,,,,29,wg-a,,,,AAXX 20184 07650 02460 71006 10110 20090 30046 40085 51021 61000 72998 879// 91800 333 10146 20104 6006=
07650,1997-11-20 21:00:00,9,1009.9,1.4,93,8,13000,14.816,,,360,,,,,,,,,,,wg-a,,,,AAXX 20214 07650 12563 53608 10090 20080 30060 40099 51014 60006 83830 92100=
07650,1997-11-21 00:00:00,7,1009.6,-0.3,93,6,9000,0,,,0,,,,,,,,,,,wg-a,,,,AAXX 21004 07650 12/59 20000 10070 20060 30057 40096 57003 60006 80002 90000=
07650,1997-11-21 03:00:00,7,1010.4,0.8,93,6,7000,11.112,,,140,,,,0,,,,,,,wg-a,,,,AAXX 21034 07650 12257 21406 10070 20060 30065 40104 50008 60007 82600 90300=
07650,1997-11-21 06:00:00,5,1010.3,-0.1,100,5,7000,3.704,,,90,5,10.8,,,,,7,,,2,wg-a,,,,AAXX 21064 07650 02257 /0902 10050 20050 30064 40103 58001 60006 70240 81600 90600 333 10108 20050 60074=
07650,1997-11-21 09:00:00,8,1011.5,1.2,100,8,800,3.704,,,350,,,,0,,,,,,41,wg-a,,,,AAXX 21094 07650 12/08 /3502 10080 20080 30076 40115 51012 60007 741// 90900=
07650,1997-11-21 12:00:00,11,1010.9,-0.6,87,9,3000,3.704,,,260,,,,,,,,,,10,wg-a,,,,AAXX 21124 07650 12230 72602 10110 20090 30070 40109 56006 60006 71042 8457/ 91200=
07650,1997-11-21 15:00:00,11,1010,-0.9,87,9,500,7.408,,,200,,,,,,,,,,,wg-a,,,,AAXX 21154 07650 12200 82004 10110 20090 30061 40100 55009 60006 8557/ 91500=
07650,1997-11-21 18:00:00,10,1010,-0,93,9,8000,3.704,,,180,5.1,11.1,,,,,,,,,wg-a,,,,AAXX 21184 07650 12658 71802 10100 20090 30061 40100 55000 60006 8457/ 91800 333 10111 20051=
07650,1997-11-21 21:00:00,10,1010.2,0.2,87,8,10000,3.704,,,210,,,,,,,,,,,wg-a,,,,AAXX 21214 07650 12660 /2102 10100 20080 30063 40102 51002 60006 82532 92100=
07650,1997-11-22 00:00:00,10,1009.7,-0.5,82,7,12000,3.704,,,310,,,,,,,,,,,wg-a,,,,AAXX 22004 07650 12562 /3102 10100 20070 30058 40097 58005 60006 85500 90000=
07650,1997-11-22 03:00:00,9,1008.7,-1,87,7,15000,7.408,,,120,,,,,,,,,,,wg-a,,,,AAXX 22034 07650 12565 /1204 10090 20070 30048 40087 56010 60006 81530 90300=
07650,1997-11-22 06:00:00,9,1008.3,-0.4,81,6,15000,3.704,,,200,7.9,10.5,,,,,,,,,wg-a,,,,AAXX 22064 07650 12/65 42002 10090 20060 30044 40083 55004 60006 82032 90600 333 10105 20079=
07650,1997-11-22 09:00:00,10,1009.5,1.2,82,7,20000,11.112,,,290,,,,,,,,,,,wg-a,,,,AAXX 22094 07650 12/70 62906 10100 20070 30056 40095 50012 60006 81031 90900=
07650,1997-11-22 12:00:00,11,1008.9,-0.6,82,8,20000,18.52,,,280,,,,,,,,,,,wg-a,,,,AAXX 22124 07650 12670 72810 10110 20080 30050 40089 56006 60006 81572 91200=
07650,1997-11-22 15:00:00,12,1007.3,-1.5,76,8,15000,7.408,,,220,,,,,,,,,,,wg-a,,,,AAXX 22154 07650 12/65 72204 10120 20080 30035 40073 56015 60006 85072 91500=
07650,1997-11-22 18:00:00,11,1008.1,0.7,71,6,20000,22.224,,,330,7.5,12.1,,,,,,,,,wg-a,,,,AAXX 22184 07650 12/70 43312 10110 20060 30042 40081 52007 60006 81032 91800 333 10121 20075=
07650,1997-11-23 00:00:00,7,1010.3,0.5,81,4,20000,14.816,,,330,,,,,,,,,,,wg-a,,,,AAXX 23004 07650 12/70 23308 10070 20040 30064 40103 51005 60006 80002 90000=
07650,1997-11-23 03:00:00,8,1010.7,0.4,81,5,20000,18.52,,,350,,,,,,,,,,,wg-a,,,,AAXX 23034 07650 12/70 23510 10080 20050 30068 40107 52004 60006 81031 90300=
07650,1997-11-23 06:00:00,8,1011.9,1.2,76,4,20000,25.928,,,320,5.9,11,,,,,,,,,wg-a,,,,AAXX 23064 07650 12/70 03214 10080 20040 30080 40119 53012 60006 80000 90600 333 10110 20059=
07650,1997-11-23 12:00:00,13,1013.4,-0.4,58,5,20000,31.484,,,330,,,,,,,,,,,wg-a,,,,AAXX 23124 07650 12/70 03317 10130 20050 30095 40134 58004 60006 80000 91200=
07650,1997-11-23 15:00:00,12,1013.5,0.1,58,4,20000,38.892,,,310,,,,,,,,,,,wg-a,,,,AAXX 23154 07650 12/70 03121 10120 20040 30096 40135 53001 60006 80000 91500=
07650,1997-11-23 18:00:00,9,1014.4,0.9,66,3,20000,22.224,,,330,7.5,12.7,,,,,,,,,wg-a,,,,AAXX 23184 07650 12/70 23312 10090 20030 30105 40144 51009 60006 80002 91800 333 10127 20075=
07650,1997-11-23 21:00:00,6,1015.6,1.1,81,3,20000,18.52,,,330,,,,,,,,,,,wg-a,,,,AAXX 23214 07650 12/70 03310 10060 20030 30116 40156 53011 60006 80000 92100=
07650,1997-11-24 00:00:00,3,1015,-0.6,87,1,20000,3.704,,,80,,,,,,,,,,,wg-a,,,,AAXX 24004 07650 12/70 00802 10030 20010 30110 40150 58006 60006 80000 90000=
07650,1997-11-24 03:00:00,2,1014.8,-0.2,87,0,15000,3.704,,,150,,,,,,,,,,,wg-a,,,,AAXX 24034 07650 12/65 01502 10020 20000 30108 40148 56002 60006 80000 90300=
07650,1997-11-24 06:00:00,2,1013.4,-1.4,93,1,15000,7.408,,,140,1.5,9,,,,,,,,,wg-a,,,,AAXX 24064 07650 12/65 31404 10020 20010 30094 40134 56014 60006 80002 90600 333 10090 20015=
07650,1997-11-24 09:00:00,6,1014.3,0.9,87,4,12000,0,,,0,,,,,,,,,,,wg-a,,,,AAXX 24094 07650 12/62 70000 10060 20040 30103 40143 51009 60006 80002 90900=
07650,1997-11-24 12:00:00,15,1012.7,-1.4,67,9,12000,22.224,,,130,,,,,,,,,,,wg-a,,,,AAXX 24124 07650 12662 71312 10150 20090 30089 40127 58014 60006 82532 91200=
07650,1997-11-24 15:00:00,14,1011.7,-1,77,10,12000,11.112,,,150,,,,,,,,,,,wg-a,,,,AAXX 24154 07650 12562 71506 10140 20100 30079 40117 57010 60006 83542 91500=
07650,1997-11-24 18:00:00,13,1011.3,-0.4,77,9,15000,25.928,,,110,1.6,14.8,,,,,,,,,wg-a,,,,AAXX 24184 07650 12565 /1114 10130 20090 30075 40113 58004 60006 81542 91800 333 10148 20016=
07650,1997-11-24 21:00:00,12,1011.7,0.3,67,6,15000,14.816,,,80,,,,,,,,,,,wg-a,,,,AAXX 24214 07650 12565 60808 10120 20060 30078 40117 50003 60006 84832 92100=
07650,1997-11-25 00:00:00,13,1010.8,-0.8,77,9,15000,22.224,,,90,,,,,,,,,,,wg-a,,,,AAXX 25004 07650 12565 50912 10130 20090 30070 40108 57008 60006 83832 90000=
07650,1997-11-25 03:00:00,13,1009.5,-1.3,72,8,20000,22.224,,,100,,,,,,,,,,,wg-a,,,,AAXX 25034 07650 12570 51012 10130 20080 30057 40095 55013 60006 81832 90300=
07650,1997-11-25 06:00:00,12,1008.5,-1,76,8,20000,14.816,,,100,11.2,13.5,,,,,,,,,wg-a,,,,AAXX 25064 07650 12570 41008 10120 20080 30047 40085 57010 60006 81832 90600 333 10135 20112=
07650,1997-11-25 09:00:00,15,1008.9,0.4,67,9,15000,25.928,,,110,,,,,,,,,,,wg-a,,,,AAXX 25094 07650 12565 71114 10150 20090 30051 40089 53004 60006 8587/ 90900=
07650,1997-11-25 12:00:00,15,1008.4,-0.5,72,10,15000,31.484,,,110,,,,0,,,,,,60,wg-a,,,,AAXX 25124 07650 02565 71117 10150 20100 30046 40084 58005 60006 76062 8687/ 91200 333 60007=
07650,1997-11-25 18:00:00,14,1006.9,-0,72,9,20000,22.224,,,90,11.6,16.1,,,,,,,,21,wg-a,,,,AAXX 25184 07650 02570 70912 10140 20090 30031 40069 55000 61000 72162 8687/ 91800 333 10161 20116 6100=
07650,1997-11-25 21:00:00,14,1006.8,-0.1,72,9,20000,22.224,,,90,,,,0,,,,,,21,wg-a,,,,AAXX 25214 07650 12670 70912 10140 20090 30030 40068 58001 60007 72162 8557/ 92100=
07650,1997-11-26 00:00:00,14,1006.3,-0.5,72,9,15000,22.224,,,90,,,,,,,,,,60,wg-a,,,,AAXX 26004 07650 02465 70912 10140 20090 30025 40063 58005 60006 76062 8657/ 90000 333 61000=
07650,1997-11-26 03:00:00,14,1005.5,-0.8,72,9,20000,29.632,,,80,,,,0,,,,,,,wg-a,,,,AAXX 26034 07650 12570 70816 10140 20090 30017 40055 58008 60007 878// 90300=
07650,1997-11-26 06:00:00,14,1005.5,-0,72,9,20000,22.224,,,90,13.1,14.3,,,,,1,,,,wg-a,,,,AAXX 26064 07650 02570 70912 10140 20090 30017 40055 55000 60006 8487/ 90600 333 10143 20131 60014=
07650,1997-11-26 09:00:00,13,1006.3,0.8,82,10,15000,42.596,,,70,,,,1,,,,,,60,wg-a,,,,AAXX 26094 07650 12565 80723 10130 20100 30025 40063 52008 60017 76066 8587/ 90900=
07650,1997-11-26 12:00:00,15,1005.8,-0.5,67,9,20000,29.632,,,90,,,,,,,,,,2,wg-a,,,,AAXX 26124 07650 02570 80916 10150 20090 30020 40058 58005 60016 70262 8587/ 91200 333 61000=
07650,1997-11-26 15:00:00,16,1005.7,-0.1,63,9,20000,31.484,,,80,,,,,,,,,,21,wg-a,,,,AAXX 26154 07650 02570 80817 10160 20090 30019 40057 57001 61000 72166 8457/ 91500 333 ////=
07650,1997-11-26 18:00:00,15,1006.5,0.8,67,9,25000,29.632,,53.708,80,12.8,15.7,,,,,,,,,wg-a,,,,AAXX 26184 07650 12675 /0816 10150 20090 30027 40065 53008 60006 82540 91800 333 10157 20128 91029=
07650,1997-11-26 21:00:00,15,1008.5,2,67,9,20000,25.928,,,80,,,,,,,,,,21,wg-a,,,,AAXX 26214 07650 02670 80814 10150 20090 30047 40085 51020 61000 72162 8257/ 92100 333 ////=
07650,1997-11-27 00:00:00,15,1009,0.5,67,9,20000,25.928,,,80,,,,,,,,,,1,wg-a,,,,AAXX 27004 07650 02670 70814 10150 20090 30052 40090 53005 61000 70162 8157/ 90000 333 ////=
07650,1997-11-27 03:00:00,15,1010.3,1.3,63,8,20000,14.816,,,100,,,,,,,,,,,wg-a,,,,AAXX 27034 07650 12670 71008 10150 20080 30065 40103 53013 60006 8157/ 90300=
07650,1997-11-27 06:00:00,14,1011.7,1.4,67,8,20000,7.408,,,30,14.1,15.5,,,,,1,,,,wg-a,,,,AAXX 27064 07650 02670 70304 10140 20080 30079 40117 53014 60006 8157/ 90600 333 10155 20141 60014=
07650,1997-11-27 09:00:00,14,1011.7,1.4,67,8,20000,7.408,,,30,14.1,15.5,,,,,1,,,,wg-a,,,,AAXX 27094 07650 12670 70304 10140 20080 30079 40117 53014 60014 8157/ 90900 333 10155 20141=
07650,1997-11-27 12:00:00,16,1013.8,-0.1,59,8,20000,3.704,,,240,,,,,,,,,,,wg-a,,,,AAXX 27124 07650 12570 /2402 10160 20080 30100 40138 58001 60006 82832 91200=
07650,1997-11-27 15:00:00,17,1014,0.2,59,9,18000,11.112,,,280,,,,,,,,,,,wg-a,,,,AAXX 27154 07650 12568 /2806 10170 20090 30102 40140 53002 60006 81801 91500=
07650,1997-11-27 18:00:00,13,1015,0.9,77,9,10000,7.408,,,120,12,17.1,,,,,,,,,wg-a,,,,AAXX 27184 07650 12/60 /1204 10130 20090 30111 40150 53009 60006 91800 333 10171 20120=
07650,1997-11-27 21:00:00,11,1016.7,1.7,82,8,12000,7.408,,,140,,,,,,,,,,,wg-a,,,,AAXX 27214 07650 12662 41404 10110 20080 30128 40167 51017 60006 81532 92100=
07650,1997-11-28 00:00:00,10,1016.2,-0.5,87,8,10000,0,,,0,,,,,,,,,,,wg-a,,,,AAXX 28004 07650 12/60 20000 10100 20080 30123 40162 56005 60006 80002 90000=
07650,1997-11-28 03:00:00,8,1016.1,-0.1,93,7,10000,7.408,,,150,,,,,,,,,,,wg-a,,,,AAXX 28034 07650 12/60 01504 10080 20070 30122 40161 55001 60006 80000 90300=
07650,1997-11-28 06:00:00,8,1016.5,0.4,93,7,10000,0,,,0,7.6,12.5,,,,,,,,,wg-a,,,,AAXX 28064 07650 12/60 20000 10080 20070 30126 40165 53004 60006 81031 90600 333 10125 20076=
07650,1997-11-28 09:00:00,14,1016.9,0.5,77,10,10000,3.704,,,340,,,,,,,,,,,wg-a,,,,AAXX 28094 07650 12560 43402 10140 20100 30131 40169 53005 60006 82531 90900=
07650,1997-11-28 12:00:00,16,1015.9,-1,72,11,18000,18.52,,,140,,,,,,,,,,,wg-a,,,,AAXX 28124 07650 12568 /1410 10160 20110 30121 40159 58010 60006 83830 91200=
07650,1997-11-28 15:00:00,16,1015.3,-0.6,77,12,15000,14.816,,,140,,,,,,,,,,,wg-a,,,,AAXX 28154 07650 12565 81408 10160 20120 30115 40153 57006 60006 84872 91500=
07650,1997-11-28 18:00:00,14,1015.3,-0,88,12,15000,14.816,,,110,7.8,17.3,,,,,,,,60,wg-a,,,,AAXX 28184 07650 02565 81108 10140 20120 30115 40153 55000 61000 76062 888// 91800 333 10173 20078 6000=
07650,1997-11-28 21:00:00,14,1014.5,-0.8,94,13,500,7.408,,,90,,,,6,,,,,,61,wg-a,,,,AAXX 28214 07650 12400 80904 10140 20130 30107 40145 58008 60067 76166 878// 92100=
07650,1997-11-29 00:00:00,13,1013.7,-0.8,88,11,12000,3.704,,,230,,,,4,,,,,,21,wg-a,,,,AAXX 29004 07650 02462 82302 10130 20110 30099 40137 58008 60106 721// 8587/ 90000 333 60047=
07650,1997-11-29 03:00:00,11,1013.3,-0.5,94,10,12000,3.704,,,300,,,,,,,,,,,wg-a,,,,AAXX 29034 07650 12462 /3002 10110 20100 30094 40133 56005 60006 84832 90300=
07650,1997-11-29 06:00:00,10,1013.2,-0.1,93,9,12000,0,,,0,9.7,14.3,,,,,10,,,,wg-a,,,,AAXX 29064 07650 02362 50000 10100 20090 30093 40132 55001 60006 81132 90600 333 10143 20097 60104=
07650,1997-11-29 09:00:00,10,1012.7,-0.5,100,10,500,14.816,,,290,,,,,,,,,,45,wg-a,,,,AAXX 29094 07650 12/00 92908 10100 20100 30088 40127 58005 60006 74544 89/// 90900=
07650,1997-11-29 15:00:00,15,1009.3,-1.7,72,10,15000,11.112,,,250,,,,,,,,,,,wg-a,,,,AAXX 29154 07650 12465 42506 10150 20100 30055 40093 56017 60006 83202 91500=
07650,1997-11-29 18:00:00,11,1008.9,-0.5,82,8,15000,14.816,,,280,9.5,15.5,,,,,,,,,wg-a,,,,AAXX 29184 07650 12/65 32808 10110 20080 30050 40089 57005 60006 81042 91800 333 10155 20095=
07650,1997-11-29 21:00:00,9,1008.7,-0.2,87,7,15000,7.408,,,310,,,,,,,,,,,wg-a,,,,AAXX 29214 07650 12/65 /3104 10090 20070 30048 40087 58002 60006 80002 92100=
07650,1997-11-30 00:00:00,9,1007.6,-1.1,87,7,15000,22.224,,,300,,,,,,,,,,,wg-a,,,,AAXX 30004 07650 12/65 13012 10090 20070 30037 40076 58011 60006 80002 90000=
07650,1997-11-30 03:00:00,9,1007.8,0.2,81,6,20000,14.816,,,320,,,,,,,,,,,wg-a,,,,AAXX 30034 07650 12/70 13208 10090 20060 30039 40078 53002 60006 80001 90300=
07650,1997-11-30 06:00:00,10,1008,0.2,76,6,20000,35.188,,,320,6.9,11.1,,,,,,,,30,wg-a,,,,AAXX 30064 07650 12570 13219 10100 20060 30041 40080 52002 60006 73000 81530 90600 333 10111 20069=
07650,1997-11-30 09:00:00,12,1009,1.1,67,6,50000,42.596,,61.116,310,,,,,,,,,,,wg-a,,,,AAXX 30094 07650 12484 /3123 10120 20060 30052 40090 52011 60006 81102 90900 333 91033=
07650,1997-11-30 12:00:00,14,1008.4,-0.6,55,5,60000,50.004,,72.228,320,,,,,,,,,,,wg-a,,,,AAXX 30124 07650 12686 /3227 10140 20050 30046 40084 58006 60006 81142 91200 333 91039=
07650,1997-11-30 18:00:00,12,1009.6,0.8,62,5,40000,29.632,,,320,10.3,14.5,,,,,,,,,wg-a,,,,AAXX 30184 07650 12682 /3216 10120 20050 30058 40096 53008 60006 81140 91800 333 10145 20103=
07650,1997-11-30 21:00:00,10,1010.2,0.5,76,6,500,35.188,,,310,,,,,,,,,,,wg-a,,,,AAXX 30214 07650 12/00 03119 10100 20060 30063 40102 50005 60006 80000 92100=
07650,1997-12-01 00:00:00,10,1009.7,-0.5,76,6,500,42.596,,,320,,,,,,,,,,,wg-a,,,,AAXX 01004 07650 12/00 03223 10100 20060 30058 40097 55005 60006 80000 90000=
07650,1997-12-01 03:00:00,10,1009.5,-0.2,71,5,500,42.596,,,310,,,,,,,,,,,wg-a,,,,AAXX 01034 07650 12/00 03123 10100 20050 30056 40095 56002 60006 80000 90300=
07650,1997-12-01 06:00:00,10,1008.6,-0.9,71,5,500,53.708,,64.82,320,9.9,11.8,,,,,,,,,wg-a,,,,AAXX 01064 07650 12/00 03229 10100 20050 30047 40086 56009 60006 80000 90600 333 10118 20099 91035=
07650,1997-12-01 09:00:00,11,1010.7,2.1,66,5,75000,50.004,,75.932,330,,,,,,,,,,,wg-a,,,,AAXX 01094 07650 12589 /3327 10110 20050 30068 40107 53021 60006 81102 90900 333 91041=
07650,1997-12-01 12:00:00,12,1008.8,-1.8,58,4,75000,64.82,,87.044,320,,,,,,,,,,,wg-a,,,,AAXX 01124 07650 12589 23235 10120 20040 30050 40088 55018 60006 81102 91200 333 91047=
07650,1997-12-01 15:00:00,11,1008.9,0.1,58,3,60000,46.3,,75.932,320,,,,,,,,,,,wg-a,,,,AAXX 01154 07650 12686 43225 10110 20030 30050 40089 53001 60006 81132 91500 333 91041=
07650,1997-12-01 18:00:00,9,1009.6,0.7,61,2,500,31.484,,,310,9.2,12.4,,,,,,,,,wg-a,,,,AAXX 01184 07650 12/00 23117 10090 20020 30057 40096 50007 60006 81032 91800 333 10124 20092=
07650,1997-12-01 21:00:00,8,1009.6,-0,66,2,25000,25.928,,,310,,,,,,,,,,,wg-a,,,,AAXX 01214 07650 12/75 23114 10080 20020 30057 40096 55000 60006 81032 92100=
07650,1997-12-02 00:00:00,7,1007.9,-1.7,70,2,25000,11.112,,,340,,,,,,,,,,,wg-a,,,,AAXX 02004 07650 12/75 63406 10070 20020 30040 40079 58017 60006 82032 90000=
07650,1997-12-02 03:00:00,5,1007.3,-0.6,81,2,20000,11.112,,,140,,,,,,,,,,,wg-a,,,,AAXX 02034 07650 12/70 61406 10050 20020 30034 40073 58006 60006 83031 90300=
07650,1997-12-02 06:00:00,7,1004.5,-2.8,76,3,20000,0,,,0,4.3,9.3,,,,,,,,,wg-a,,,,AAXX 02064 07650 12470 70000 10070 20030 30006 40045 56028 60006 875// 90600 333 10093 20043=
07650,1997-12-02 12:00:00,14,1000.6,-1.7,77,10,25000,29.632,,,270,,,,0,,,,,,21,wg-a,,,,AAXX 02124 07650 02575 32716 10140 20100 39968 40006 58017 60016 72162 83802 91200 333 60007=
07650,1997-12-02 15:00:00,13,1000.2,-0.4,51,3,40000,38.892,,,270,,,,,,,,,,,wg-a,,,,AAXX 02154 07650 12582 32721 10130 20030 39964 40002 55004 60006 82840 91500=
07650,1997-12-02 18:00:00,10,1000.9,0.7,57,2,40000,42.596,,,300,6.6,14.4,,,,,,,,,wg-a,,,,AAXX 02184 07650 12582 33023 10100 20020 39971 40009 51007 60006 82440 91800 333 10144 20066=
07650,1997-12-02 21:00:00,8,1002.7,1.7,61,1,500,29.632,,,310,,,,,,,,,,,wg-a,,,,AAXX 02214 07650 12500 63116 10080 20010 39988 40027 51017 60006 85530 92100=
07650,1997-12-03 00:00:00,6,1003.4,0.7,65,0,500,29.632,,,310,,,,,,,,,,,wg-a,,,,AAXX 03004 07650 12600 43116 10060 20000 39995 40034 50007 60006 83532 90000=
07650,1997-12-03 03:00:00,5,1003,-0.4,70,0,500,18.52,,,320,,,,,,,,,,,wg-a,,,,AAXX 03034 07650 12600 53210 10050 20000 39991 40030 57004 60006 85830 90300=
07650,1997-12-03 06:00:00,5,1002.7,-0.3,60,-2,500,42.596,,,320,4.1,9.9,,,,,,,,,wg-a,,,,AAXX 03064 07650 02/00 23223 10050 21020 39988 40027 55003 60006 82040 90600 333 10099 20041 60004=
07650,1997-12-03 09:00:00,5,1004.1,1.4,60,-2,40000,35.188,,,320,,,,,,,,,,,wg-a,,,,AAXX 03094 07650 12682 23219 10050 21020 30002 40041 51014 60006 81530 90900=
07650,1997-12-03 12:00:00,6,1004.4,0.3,56,-2,40000,46.3,,79.636,320,,,,,,,,,,,wg-a,,,,AAXX 03124 07650 12682 33225 10060 21020 30005 40044 50003 60006 82130 91200 333 91043=
07650,1997-12-03 15:00:00,6,1005.3,0.9,52,-3,40000,50.004,,83.34,320,,,,,,,,,,,wg-a,,,,AAXX 03154 07650 12682 33227 10060 21030 30014 40053 53009 60006 82130 91500 333 91045=
07650,1997-12-03 18:00:00,4,1006.9,1.6,60,-3,500,35.188,,57.412,320,4,6.7,,,,,,,,,wg-a,,,,AAXX 03184 07650 12600 23219 10040 21030 30030 40069 51016 60006 81530 91800 333 10067 20040 91031=
07650,1997-12-04 00:00:00,3,1007.6,0.9,65,-3,40000,46.3,,72.228,320,,,,,,,,,,,wg-a,,,,AAXX 04004 07650 12/82 13225 10030 21030 30036 40076 50009 60006 81040 90000 333 91039=
07650,1997-12-04 03:00:00,2,1007.9,0.3,75,-2,500,31.484,,,320,,,,,,,,,,,wg-a,,,,AAXX 04034 07650 12/00 03217 10020 21020 30039 40079 51003 60006 80000 90300=
07650,1997-12-04 06:00:00,2,1008.2,0.3,75,-2,500,22.224,,,310,1.6,4.3,,,,,,,,,wg-a,,,,AAXX 04064 07650 12/00 03112 10020 21020 30042 40082 53003 60006 80000 90600 333 10043 20016=
07650,1997-12-04 09:00:00,3,1009.4,1.2,75,-1,15000,7.408,,,340,,,,,,,,,,,wg-a,,,,AAXX 04094 07650 12/65 33404 10030 21010 30054 40094 53012 60006 80002 90900=
07650,1997-12-04 12:00:00,6,1009.1,-0.2,56,-2,20000,14.816,,,330,,,,,,,,,,,wg-a,,,,AAXX 04124 07650 12/70 73308 10060 21020 30052 40091 58002 60006 81032 91200=
07650,1997-12-04 15:00:00,7,1008.9,-0.2,61,0,20000,14.816,,,330,,,,,,,,,,,wg-a,,,,AAXX 04154 07650 12/70 63308 10070 20000 30050 40089 55002 60006 80002 91500=
07650,1997-12-04 18:00:00,4,1010.1,1.1,70,-1,20000,7.408,,,360,-0.1,7.4,,,,,,,,,wg-a,,,,AAXX 04184 07650 12/70 63604 10040 21010 30061 40101 53011 60006 81032 91800 333 10074 21001=
07650,1997-12-04 21:00:00,3,1011.5,1.4,75,-1,12000,7.408,,,160,,,,,,,,,,,wg-a,,,,AAXX 04214 07650 12662 /1604 10030 21010 30075 40115 51014 60006 81532 92100=
07650,1997-12-05 00:00:00,3,1012.2,0.7,81,0,12000,3.704,,,300,,,,,,,,,,,wg-a,,,,AAXX 05004 07650 12662 73002 10030 20000 30082 40122 51007 60006 81532 90000=
07650,1997-12-05 03:00:00,5,1012.6,0.4,75,1,12000,7.408,,,340,,,,,,,,,,,wg-a,,,,AAXX 05034 07650 12662 73404 10050 20010 30086 40126 52004 60006 8153/ 90300=
07650,1997-12-05 06:00:00,4,1013.2,0.6,70,-1,12000,25.928,,,340,2.3,4.8,,,,,,,,,wg-a,,,,AAXX 05064 07650 12662 /3414 10040 21010 30092 40132 53006 60006 81532 90600 333 10048 20023=
07650,1997-12-05 09:00:00,5,1014.9,1.7,65,-1,15000,14.816,,,330,,,,,,,,,,,wg-a,,,,AAXX 05094 07650 12/65 53308 10050 21010 30109 40149 53017 60006 80002 90900=
07650,1997-12-05 12:00:00,9,1014.6,-0.2,57,1,15000,18.52,,,330,,,,,,,,,,,wg-a,,,,AAXX 05124 07650 12/65 53310 10090 20010 30107 40146 58002 60006 80002 91200=
07650,1997-12-05 15:00:00,8,1014.7,0.1,57,0,20000,29.632,,,320,,,,,,,,,,,wg-a,,,,AAXX 05154 07650 12/70 33216 10080 20000 30108 40147 53001 60006 80002 91500=
07650,1997-12-05 18:00:00,4,1016.4,1.6,70,-1,20000,18.52,,,310,2.2,9.4,,,,,,,,,wg-a,,,,AAXX 05184 07650 12/70 33110 10040 21010 30124 40164 53016 60006 80002 91800 333 10094 20022=
07650,1997-12-05 21:00:00,0,1017.7,1.3,86,-2,15000,7.408,,,350,,,,,,,,,,,wg-a,,,,AAXX 05214 07650 12/65 23504 10000 21020 30137 40177 51013 60006 80001 92100=
07650,1997-12-06 00:00:00,2,1018.1,0.4,75,-2,15000,14.816,,,360,,,,,,,,,,,wg-a,,,,AAXX 06004 07650 12/65 13608 10020 21020 30141 40181 50004 60006 80001 90000=
07650,1997-12-06 03:00:00,1,1018.2,0.1,80,-2,20000,14.816,,,350,,,,,,,,,,,wg-a,,,,AAXX 06034 07650 12/70 03508 10010 21020 30142 40182 52001 60006 80000 90300=
07650,1997-12-06 06:00:00,-1,1018,-0.3,86,-3,15000,14.816,,,350,-1.5,3.6,,,,,,,,,wg-a,,,,AAXX 06064 07650 12/65 03508 11010 21030 30139 40180 56003 60006 80000 90600 333 10036 21015=
07650,1997-12-06 12:00:00,8,1018.2,-0.7,57,0,16000,18.52,,,340,,,,,,,,,,,wg-a,,,,AAXX 06124 07650 12/66 23410 10080 20000 30143 40182 58007 60006 80001 91200=
07650,1997-12-06 15:00:00,8,1017.8,-0.4,57,0,10000,22.224,,,310,,,,,,,,,,,wg-a,,,,AAXX 06154 07650 12/60 /3112 10080 20000 30139 40178 55004 60006 91500=
07650,1997-12-06 18:00:00,3,1019.3,1.4,70,-2,14000,11.112,,,10,-1.3,9.2,,,,,,,,,wg-a,,,,AAXX 06184 07650 12/64 00106 10030 21020 30153 40193 51014 60006 80000 91800 333 10092 21013=
07650,1997-12-06 21:00:00,0,1020.4,1,80,-3,12000,0,,,0,,,,,,,,,,,wg-a,,,,AAXX 06214 07650 12/62 00000 10000 21030 30163 40204 51010 60006 80000 92100=
07650,1997-12-07 00:00:00,-1,1020,-0.4,86,-3,8000,3.704,,,140,,,,,,,,,,,wg-a,,,,AAXX 07004 07650 12/58 01402 11010 21030 30159 40200 58004 60006 80000 90000=
07650,1997-12-07 06:00:00,-1,1018.8,-0.1,93,-2,6000,7.408,,,120,-1.9,3,,,,,,,,,wg-a,,,,AAXX 07064 07650 12/56 01204 11010 21020 30147 40188 58001 60006 80000 90600 333 10030 21019=
07650,1997-12-07 12:00:00,8,1019,-0.2,57,0,8000,7.408,,,260,,,,,,,,,,,wg-a,,,,AAXX 07124 07650 12558 22604 10080 20000 30151 40190 58002 60006 81102 91200=
07650,1997-12-07 15:00:00,10,1017.5,-1.5,57,2,12000,3.704,,,200,,,,,,,,,,,wg-a,,,,AAXX 07154 07650 12/62 02002 10100 20020 30136 40175 56015 60006 80000 91500=
07650,1997-12-07 18:00:00,6,1017.4,-0.2,75,2,8000,7.408,,,110,-1.1,10.4,,,,,,,,,wg-a,,,,AAXX 07184 07650 12258 /1104 10060 20020 30134 40174 56002 60006 81600 91800 333 10104 21011=
07650,1997-12-07 21:00:00,4,1017.4,0,87,2,4000,3.704,,,20,,,,,,,,,,10,wg-a,,,,AAXX 07214 07650 12540 /0202 10040 20020 30134 40174 50000 60006 71000 82500 92100=
07650,1997-12-08 00:00:00,3,1016.7,-0.7,93,2,4500,3.704,,,160,,,,,,,,,,10,wg-a,,,,AAXX 08004 07650 12/45 01602 10030 20020 30127 40167 56007 60006 71000 80000 90000=
07650,1997-12-08 03:00:00,3,1016.1,-0.6,93,2,6000,3.704,,,160,,,,,,,,,,,wg-a,,,,AAXX 08034 07650 12/56 /1602 10030 20020 30121 40161 57006 60006 80001 90300=
07650,1997-12-08 06:00:00,2,1015.6,-0.5,93,1,6000,0,,,0,1.6,5.5,,,,,,,,,wg-a,,,,AAXX 08064 07650 02/56 20000 10020 20010 30116 40156 57005 60006 80001 90600 333 10055 20016 60004=
07650,1997-12-08 09:00:00,5,1016.3,0.7,87,3,500,7.408,,,20,,,,,,,,,,,wg-a,,,,AAXX 08094 07650 12500 70204 10050 20030 30123 40163 52007 60006 82502 90900=
07650,1997-12-08 12:00:00,8,1015.1,-1.1,66,2,500,3.704,,,260,,,,,,,,,,,wg-a,,,,AAXX 08124 07650 12500 /2602 10080 20020 30112 40151 58011 60006 81502 91200=
07650,1997-12-08 15:00:00,9,1013.4,-1.7,66,3,8000,3.704,,,320,,,,,,,,,,,wg-a,,,,AAXX 08154 07650 12/58 43202 10090 20030 30095 40134 56017 60006 80002 91500=
07650,1997-12-08 18:00:00,5,1014,0.5,87,3,9000,3.704,,,100,1.3,10.3,,,,,,,,,wg-a,,,,AAXX 08184 07650 12/59 31002 10050 20030 30100 40140 53005 60006 80002 91800 333 10103 20013=
07650,1997-12-08 21:00:00,3,1014.7,0.7,93,2,6000,0,,,0,,,,,,,,,,,wg-a,,,,AAXX 08214 07650 12/56 /0000 10030 20020 30107 40147 50007 60006 80002 92100=
07650,1997-12-09 00:00:00,3,1014.8,0.1,93,2,6000,3.704,,,90,,,,,,,,,,,wg-a,,,,AAXX 09004 07650 12/56 /0902 10030 20020 30108 40148 53001 60006 80002 90000=
07650,1997-12-09 03:00:00,5,1014.2,-0.6,87,3,7000,7.408,,,100,,,,,,,,,,,wg-a,,,,AAXX 09034 07650 12/57 /1004 10050 20030 30102 40142 58006 60006 86030 90300=
07650,1997-12-09 06:00:00,3,1015.2,1,87,1,7000,7.408,,,150,2.5,4.7,,,,,,,,,wg-a,,,,AAXX 09064 07650 12/57 21504 10030 20010 30112 40152 53010 60006 81031 90600 333 10047 20025=
07650,1997-12-09 09:00:00,6,1016.4,1.2,81,3,3000,3.704,,,210,,,,,,,,,,10,wg-a,,,,AAXX 09094 07650 12/30 32102 10060 20030 30124 40164 53012 60006 71000 81032 90900=
07650,1997-12-09 10:00:00,10,1015.7,-0.6,71,5,6000,11.112,,,250,,,,,,,,,,,wg-a,,,,AAXX 09104 07650 12/56 /2506 10100 20050 30118 40157 58006 60006 80001 91000=
07650,1997-12-09 12:00:00,10,1015.7,-0.6,71,5,6000,11.112,,,250,,,,,,,,,,,wg-a,,,,AAXX 09124 07650 12/56 /2506 10100 20050 30118 40157 58006 60006 80001 91200=
07650,1997-12-09 18:00:00,10,1017.6,2.2,66,4,20000,25.928,,,290,2,14.2,,,,,,,,,wg-a,,,,AAXX 09184 07650 12/70 12914 10100 20040 30137 40176 51022 60006 81041 91800 333 10142 20020=
07650,1997-12-09 21:00:00,9,1018.6,1,71,4,15000,29.632,,,270,,,,,,,,,,,wg-a,,,,AAXX 09214 07650 12/65 12716 10090 20040 30147 40186 52010 60006 80001 92100=
07650,1997-12-10 00:00:00,7,1019.2,0.5,81,4,15000,14.816,,,300,,,,,,,,,,,wg-a,,,,AAXX 10004 07650 12/65 03008 10070 20040 30152 40192 51005 60006 80000 90000=
07650,1997-12-10 06:00:00,2,1020.5,0.7,93,1,12000,7.408,,,130,2.2,10.4,,,,,,,,,wg-a,,,,AAXX 10064 07650 12/62 01304 10020 20010 30165 40205 53007 60006 80000 90600 333 10104 20022=
07650,1997-12-10 09:00:00,5,1021.6,1.1,87,3,13000,7.408,,,270,,,,,,,,,,,wg-a,,,,AAXX 10094 07650 12/63 52704 10050 20030 30176 40216 53011 60006 80002 90900=
07650,1997-12-10 12:00:00,9,1020.7,-0.8,71,4,14000,3.704,,,260,,,,,,,,,,,wg-a,,,,AAXX 10124 07650 12/64 72602 10090 20040 30168 40207 58008 60006 82072 91200=
07650,1997-12-10 18:00:00,8,1021.1,0.5,87,6,8000,0,,,0,1.7,10.3,,,,,,,,60,wg-a,,,,AAXX 10184 07650 02758 80000 10080 20060 30172 40211 50005 61000 76062 8257/ 91800 333 10103 20017 6000=
07650,1997-12-10 21:00:00,7,1021.3,0.1,93,6,6000,0,,,0,,,,,,,,,,,wg-a,,,,AAXX 10214 07650 02656 70000 10070 20060 30173 40213 50001 61000 81532 92100 333 ////=
07650,1997-12-11 00:00:00,6,1020.4,-0.9,93,5,6000,3.704,,,90,,,,,,,,,,3,wg-a,,,,AAXX 11004 07650 02656 70902 10060 20050 30164 40204 58009 61000 70362 8157/ 90000 333 ////=
07650,1997-12-11 03:00:00,6,1019.6,-0.8,93,5,6000,3.704,,,200,,,,0,,,,,,,wg-a,,,,AAXX 11034 07650 12656 /2002 10060 20050 30156 40196 56008 60007 81532 90300=
07650,1997-12-11 06:00:00,6,1019.1,-0.5,93,5,6000,3.704,,,180,5.1,8,,,,,1,,,,wg-a,,,,AAXX 11064 07650 02/56 /1802 10060 20050 30151 40191 56005 60006 82032 90600 333 10080 20051 60014=
07650,1997-12-11 09:00:00,7,1020.4,1.3,100,7,7000,0,,,0,,,,,,,,,,,wg-a,,,,AAXX 11094 07650 12/57 70000 10070 20070 30164 40204 51013 60006 83032 90900=
07650,1997-12-11 12:00:00,11,1018.9,-1.4,82,8,7000,3.704,,,340,,,,,,,,,,,wg-a,,,,AAXX 11124 07650 12/57 /3402 10110 20080 30150 40189 58014 60006 91200=
07650,1997-12-11 15:00:00,13,1018.2,-0.7,77,9,8000,3.704,,,210,,,,,,,,,,,wg-a,,,,AAXX 11154 07650 12/58 /2102 10130 20090 30143 40182 55007 60006 84032 91500=
07650,1997-12-11 18:00:00,9,1017.1,-1.1,93,8,8000,3.704,,,360,5,13.8,,,,,,,,,wg-a,,,,AAXX 11184 07650 12/58 /3602 10090 20080 30132 40171 57011 60006 8607/ 91800 333 10138 20050=
07650,1997-12-11 21:00:00,9,1016.4,-0.7,93,8,500,3.704,,,150,,,,,,,,,,,wg-a,,,,AAXX 11214 07650 12/00 /1502 10090 20080 30125 40164 57007 60006 85032 92100=
07650,1997-12-12 00:00:00,9,1015.2,-1.2,93,8,3000,3.704,,,200,,,,,,,,,,10,wg-a,,,,AAXX 12004 07650 12230 72002 10090 20080 30113 40152 58012 60006 71022 8463/ 90000=
07650,1997-12-12 06:00:00,9,1013.8,-0.3,100,9,9000,11.112,,,310,7.8,9.8,,,,,,,,1,wg-a,,,,AAXX 12064 07650 12259 73106 10090 20090 30099 40138 55003 60006 70142 8177/ 90600 333 10098 20078=
07650,1997-12-12 12:00:00,14,1015.7,-0.1,51,4,500,50.004,,61.116,330,,,,,,,,,,,wg-a,,,,AAXX 12124 07650 12500 33327 10140 20040 30119 40157 58001 60006 81102 91200 333 91033=
07650,1997-12-12 18:00:00,11,1018,1.7,58,3,500,42.596,,,320,9,14.4,,,,,,,,,wg-a,,,,AAXX 12184 07650 12500 /3223 10110 20030 30141 40180 51017 60006 81402 91800 333 10144 20090=
07650,1997-12-12 21:00:00,10,1018.5,0.5,66,4,25000,53.708,,64.82,320,,,,,,,,,,,wg-a,,,,AAXX 12214 07650 12/75 23229 10100 20040 30146 40185 50005 60006 80002 92100 333 91035=
07650,1997-12-13 00:00:00,10,1017.9,-0.6,62,3,20000,64.82,,83.34,330,,,,,,,,,,,wg-a,,,,AAXX 13004 07650 12/70 03335 10100 20030 30140 40179 58006 60006 80000 90000 333 91045=
07650,1997-12-13 06:00:00,9,1017.9,-0.7,61,2,20000,38.892,,64.82,330,8.9,10.8,,,,,,,,,wg-a,,,,AAXX 13064 07650 12/70 53321 10090 20020 30140 40179 55007 60006 85030 90600 333 10108 20089 91035=
07650,1997-12-13 09:00:00,9,1019.8,1.9,61,2,500,38.892,,64.82,330,,,,,,,,,,,wg-a,,,,AAXX 13094 07650 12500 /3321 10090 20020 30159 40198 53019 60006 82532 90900 333 91035=
07650,1997-12-13 12:00:00,11,1019.9,0.1,54,2,500,38.892,,,330,,,,,,,,,,,wg-a,,,,AAXX 13124 07650 12500 53321 10110 20020 30160 40199 50001 60006 81532 91200=
07650,1997-12-13 15:00:00,11,1020.7,0.8,54,2,500,38.892,,57.412,340,,,,,,,,,,,wg-a,,,,AAXX 13154 07650 12/00 13421 10110 20020 30168 40207 53008 60006 80002 91500 333 91031=
07650,1997-12-13 18:00:00,8,1021.4,0.7,61,1,25000,31.484,,,350,8.3,12,,,,,,,,,wg-a,,,,AAXX 13184 07650 12/75 13517 10080 20010 30175 40214 53007 60006 80002 91800 333 10120 20083=
07650,1997-12-14 00:00:00,6,1023.8,0.7,61,-1,20000,18.52,,,350,,,,,,,,,,,wg-a,,,,AAXX 14004 07650 12/70 03510 10060 21010 30198 40238 52007 60006 80000 90000=
07650,1997-12-14 03:00:00,2,1023.3,-0.5,75,-2,15000,11.112,,,10,,,,,,,,,,,wg-a,,,,AAXX 14034 07650 12/65 00106 10020 21020 30193 40233 57005 60006 80000 90300=
07650,1997-12-14 06:00:00,1,1023.5,0.1,75,-3,15000,11.112,,,10,0.7,8.2,,,,,,,,,wg-a,,,,AAXX 14064 07650 12/65 00106 10010 21030 30194 40235 53001 60006 80000 90600 333 10082 20007=
07650,1997-12-14 09:00:00,5,1023.5,0.1,60,-2,40000,18.52,,,360,,,,,,,,,,,wg-a,,,,AAXX 14094 07650 12/82 13610 10050 21020 30195 40235 52001 60006 80001 90900=
07650,1997-12-14 12:00:00,10,1021.5,-1.9,50,0,50000,22.224,,,340,,,,,,,,,,,wg-a,,,,AAXX 14124 07650 12/84 13412 10100 20000 30176 40215 58019 60006 80001 91200=
07650,1997-12-14 15:00:00,10,1018.9,-2.6,53,1,60000,18.52,,,300,,,,,,,,,,,wg-a,,,,AAXX 14154 07650 12/86 13010 10100 20010 30150 40189 56026 60006 80001 91500=
07650,1997-12-14 18:00:00,4,1018.1,-0.9,75,0,25000,14.816,,,300,0.8,11.2,,,,,,,,,wg-a,,,,AAXX 14184 07650 12/75 23008 10040 20000 30141 40181 58009 60006 80002 91800 333 10112 20008=
07650,1997-12-14 21:00:00,1,1016.8,-1.3,80,-2,20000,18.52,,,340,,,,,,,,,,,wg-a,,,,AAXX 14214 07650 12/70 03410 10010 21020 30128 40168 58013 60006 80000 92100=
07650,1997-12-15 00:00:00,2,1015.5,-1.3,80,-1,20000,14.816,,,350,,,,,,,,,,,wg-a,,,,AAXX 15004 07650 12/70 03508 10020 21010 30115 40155 58013 60006 80000 90000=
07650,1997-12-15 03:00:00,3,1013.8,-1.7,81,0,20000,11.112,,,40,,,,,,,,,,,wg-a,,,,AAXX 15034 07650 12/70 10406 10030 20000 30098 40138 58017 60006 80001 90300=
07650,1997-12-15 06:00:00,2,1012.6,-1.2,80,-1,20000,14.816,,,10,1.1,4.4,,,,,,,,,wg-a,,,,AAXX 15064 07650 12/70 10108 10020 21010 30086 40126 56012 60006 80001 90600 333 10044 20011=
07650,1997-12-15 09:00:00,3,1012.5,-0.1,81,0,18000,3.704,,,220,,,,,,,,,,,wg-a,,,,AAXX 15094 07650 12568 22202 10030 20000 30085 40125 55001 60006 82800 90900=
07650,1997-12-15 12:00:00,8,1012.3,-0.1,66,2,500,14.816,,,280,,,,,,,,,,,wg-a,,,,AAXX 15124 07650 12500 72808 10080 20020 30084 40123 58001 60006 878// 91200=
07650,1997-12-15 15:00:00,9,1012.4,0.1,53,0,500,25.928,,,90,,,,,,,,,,60,wg-a,,,,AAXX 15154 07650 02500 70914 10090 20000 30085 40124 53001 61000 76062 8587/ 91500 333 ////=
07650,1997-12-15 18:00:00,5,1013.1,0.6,70,0,20000,11.112,,,330,-0.3,10.1,,,,,,,,1,wg-a,,,,AAXX 15184 07650 02570 43306 10050 20000 30091 40131 51006 60006 70161 82832 91800 333 10101 21003 61000=
07650,1997-12-16 00:00:00,3,1013.4,-0.4,87,1,15000,7.408,,,190,,,,,,,,,,,wg-a,,,,AAXX 16004 07650 12565 71904 10030 20010 30094 40134 58004 60006 8257/ 90000=
07650,1997-12-16 03:00:00,9,1011.1,-2.2,40,-4,15000,25.928,,,100,,,,,,,,,,,wg-a,,,,AAXX 16034 07650 12565 /1014 10090 21040 30072 40111 56022 60006 82530 90300=
07650,1997-12-16 06:00:00,8,1010.6,-0.5,42,-4,15000,35.188,,50.004,90,1.7,9,,,,,,,,,wg-a,,,,AAXX 16064 07650 02565 /0919 10080 21040 30067 40106 55005 60006 82530 90600 333 10090 20017 61000 91027=
07650,1997-12-16 15:00:00,10,1008.7,-1,46,-1,500,42.596,,75.932,90,,,,,,,,,,,wg-a,,,,AAXX 16154 07650 12600 70923 10100 21010 30048 40087 56010 60006 8257/ 91500 333 91041=
07650,1997-12-16 18:00:00,8,1007.4,-1.3,57,0,25000,64.82,,100.008,80,8.1,10.9,,,,,,,,,wg-a,,,,AAXX 16184 07650 12675 70835 10080 20000 30035 40074 58013 60006 8257/ 91800 333 10109 20081 91054=
07650,1997-12-16 21:00:00,8,1007.2,-0.2,61,1,20000,57.412,,83.34,90,,,,,,,,,,,wg-a,,,,AAXX 16214 07650 12670 70931 10080 20010 30033 40072 58002 60006 8257/ 92100 333 91045=
07650,1997-12-17 00:00:00,8,1007.2,-0,66,2,20000,57.412,,94.452,80,,,,,,,,,,,wg-a,,,,AAXX 17004 07650 12670 70831 10080 20020 30033 40072 55000 60006 8257/ 90000 333 91051=
07650,1997-12-17 03:00:00,9,1007.2,-0,66,3,20000,46.3,,68.524,90,,,,,,,,,,25,wg-a,,,,AAXX 17034 07650 02670 70925 10090 20030 30033 40072 55000 61000 72586 8587/ 90300 333 //// 91037=
07650,1997-12-17 06:00:00,9,1007.5,0.3,66,3,20000,57.412,,75.932,80,7.5,9.2,,,,,,,,,wg-a,,,,AAXX 17064 07650 02670 70831 10090 20030 30036 40075 52003 60006 8457/ 90600 333 10092 20075 61000 91041=
07650,1997-12-17 09:00:00,10,1009.4,1.9,66,4,20000,53.708,,79.636,90,,,,,,,,,,2,wg-a,,,,AAXX 17094 07650 02670 70929 10100 20040 30055 40094 51019 61000 70262 8457/ 90900 333 //// 91043=
07650,1997-12-17 12:00:00,13,1009.7,0.4,62,6,20000,50.004,,64.82,110,,,,,,,,,,,wg-a,,,,AAXX 17124 07650 02670 71127 10130 20060 30059 40097 50004 61000 8657/ 91200 333 //// 91035=
07650,1997-12-17 18:00:00,14,1010.8,1,63,7,15000,38.892,,61.116,110,8.8,14.2,,,,,,,,,wg-a,,,,AAXX 17184 07650 12665 71121 10140 20070 30070 40108 53010 60006 8557/ 91800 333 10142 20088 91033=
07650,1997-12-17 21:00:00,14,1011.7,0.9,67,8,20000,38.892,,57.412,110,,,,,,,,,,,wg-a,,,,AAXX 17214 07650 12670 81121 10140 20080 30079 40117 53009 60006 8787/ 92100 333 91031=
07650,1997-12-18 00:00:00,14,1011.4,-0.3,67,8,20000,46.3,,72.228,110,,,,,,,,,,,wg-a,,,,AAXX 18004 07650 12670 81125 10140 20080 30076 40114 58003 60006 8587/ 90000 333 91039=
07650,1997-12-18 03:00:00,14,1010.6,-0.8,72,9,20000,42.596,,,120,,,,,,,,,,1,wg-a,,,,AAXX 18034 07650 02670 81223 10140 20090 30068 40106 56008 61000 70162 8257/ 90300 333 ////=
07650,1997-12-18 06:00:00,12,1009.9,-0.7,82,9,20000,18.52,,,90,11.5,14.3,,,,,,,,21,wg-a,,,,AAXX 18064 07650 02570 80910 10120 20090 30061 40099 55007 61000 72162 8557/ 90600 333 10143 20115 6002=
07650,1997-12-18 09:00:00,13,1009.8,-0.1,82,10,12000,35.188,,57.412,110,,,,1,,,,,,60,wg-a,,,,AAXX 18094 07650 12562 81119 10130 20100 30060 40098 55001 60017 76066 8557/ 90900 333 91031=
07650,1997-12-18 12:00:00,14,1007.2,-2.6,72,9,12000,42.596,,57.412,110,,,,1,,,,,,60,wg-a,,,,AAXX 18124 07650 02562 81123 10140 20090 30034 40072 58026 60026 76062 8387/ 91200 333 60017 91031=
07650,1997-12-18 15:00:00,15,1005.1,-2.1,67,9,12000,46.3,,,100,,,,0,,,,,,60,wg-a,,,,AAXX 18154 07650 12562 81025 10150 20090 30013 40051 58021 60007 76066 8387/ 91500=
07650,1997-12-18 18:00:00,14,1004.4,-0.7,77,10,8000,50.004,,75.932,120,11.7,15,,,,,,,,61,wg-a,,,,AAXX 18184 07650 02458 81227 10140 20100 30006 40044 55007 61000 76166 8387/ 91800 333 10150 20117 6002 91041=
07650,1997-12-18 21:00:00,14,1004.8,0.4,82,11,13000,46.3,,72.228,120,,,,3,,,,,,61,wg-a,,,,AAXX 18214 07650 12463 81225 10140 20110 30010 40048 53004 60037 76162 8587/ 92100 333 91039=
07650,1997-12-19 00:00:00,15,1004.5,-0.3,82,12,18000,31.484,,,110,,,,3,,,,,,21,wg-a,,,,AAXX 19004 07650 02468 81117 10150 20120 30007 40045 58003 60066 72162 8557/ 90000 333 60037=
07650,1997-12-19 03:00:00,15,1003.7,-0.8,82,12,20000,25.928,,,130,,,,,,,,,,,wg-a,,,,AAXX 19034 07650 12470 /1314 10150 20120 39999 40037 58008 60006 85500 90300=
07650,1997-12-19 06:00:00,15,1003.9,0.2,82,12,20000,35.188,,,140,13.4,15.3,,,,,10,,,,wg-a,,,,AAXX 19064 07650 02470 71419 10150 20120 30001 40039 53002 60006 8457/ 90600 333 10153 20134 60104=
07650,1997-12-19 09:00:00,15,1004.5,0.6,88,13,12000,25.928,,,130,,,,,,,,,,,wg-a,,,,AAXX 19094 07650 12462 71314 10150 20130 30007 40045 51006 60006 84832 90900=
07650,1997-12-19 12:00:00,15,1004.1,-0.4,82,12,8000,31.484,,,130,,,,,,,,,,60,wg-a,,,,AAXX 19124 07650 02458 81317 10150 20120 30003 40041 58004 61000 76066 8587/ 91200 333 6100=
07650,1997-12-19 15:00:00,13,1002.7,-1.4,88,11,6000,14.816,,,80,,,,2,,,,,,60,wg-a,,,,AAXX 19154 07650 12456 80808 10130 20110 39989 40027 56014 60027 76066 8487/ 91500=
07650,1997-12-19 18:00:00,12,1001.1,-1.6,94,11,6000,14.816,,,70,11.9,16,,,,,,,,63,wg-a,,,,AAXX 19184 07650 02456 80708 10120 20110 39973 40011 58016 61000 76366 888// 91800 333 10160 20119 6011=
07650,1997-12-19 21:00:00,11,999.6,-1.5,94,10,15000,18.52,,,270,,,,6,,,,,,21,wg-a,,,,AAXX 19214 07650 12465 82710 10110 20100 39958 49996 55015 60067 72162 8587/ 92100=
07650,1997-12-20 00:00:00,11,1000.1,0.5,94,10,7000,0,,,0,,,,1,,,,,,61,wg-a,,,,AAXX 20004 07650 02357 80000 10110 20100 39963 40001 50005 60076 76162 8687/ 90000 333 60017=
07650,1997-12-20 03:00:00,11,1000.3,0.2,94,10,700,3.704,,,190,,,,1,,,,,,41,wg-a,,,,AAXX 20034 07650 12207 /1902 10110 20100 39965 40003 53002 60017 74162 84832 90300=
07650,1997-12-20 06:00:00,8,1001,0.6,100,8,1000,0,,,0,8.4,11.9,,,,,21,,,40,wg-a,,,,AAXX 20064 07650 02210 50000 10080 20080 39971 40010 53006 60006 74064 83632 90600 333 10119 20084 60214=
07650,1997-12-20 09:00:00,9,1003.6,2.6,100,9,4500,3.704,,,230,,,,,,,,,,10,wg-a,,,,AAXX 20094 07650 12345 52302 10090 20090 39997 40036 53026 60006 71041 84641 90900=
07650,1997-12-20 15:00:00,13,1004,0.2,77,9,20000,18.52,,,310,,,,,,,,,,,wg-a,,,,AAXX 20154 07650 12570 43110 10130 20090 30002 40040 53002 60006 81141 91500=
07650,1997-12-20 18:00:00,9,1005.9,1.8,87,7,20000,0,,,0,7.4,13,,,,,,,,,wg-a,,,,AAXX 20184 07650 12570 40000 10090 20070 30020 40059 51018 60006 81541 91800 333 10130 20074=
07650,1997-12-20 21:00:00,7,1007.7,1.8,93,6,25000,7.408,,,340,,,,,,,,,,,wg-a,,,,AAXX 20214 07650 12/75 33404 10070 20060 30038 40077 51018 60006 81032 92100=
07650,1997-12-21 00:00:00,5,1008.3,0.6,100,5,25000,3.704,,,340,,,,,,,,,,,wg-a,,,,AAXX 21004 07650 12/75 23402 10050 20050 30044 40083 51006 60006 80002 90000=
07650,1997-12-21 03:00:00,4,1008.9,0.6,100,4,20000,3.704,,,110,,,,,,,,,,,wg-a,,,,AAXX 21034 07650 12/70 31102 10040 20040 30050 40089 53006 60006 81032 90300=
07650,1997-12-21 06:00:00,7,1009.2,0.3,93,6,20000,3.704,,,100,4.3,9,,,,,,,,,wg-a,,,,AAXX 21064 07650 02570 71002 10070 20060 30053 40092 53003 60006 82572 90600 333 10090 20043 60004=
07650,1997-12-21 09:00:00,9,1010.4,1.2,93,8,15000,7.408,,,20,,,,,,,,,,,wg-a,,,,AAXX 21094 07650 12565 /0204 10090 20080 30065 40104 53012 60006 83532 90900=
07650,1997-12-21 12:00:00,12,1009.6,-0.7,76,8,15000,25.928,,,290,,,,,,,,,,,wg-a,,,,AAXX 21124 07650 12565 62914 10120 20080 30058 40096 58007 60006 85832 91200=
07650,1997-12-21 15:00:00,13,1009.1,-0.5,67,7,20000,25.928,,,260,,,,,,,,,,,wg-a,,,,AAXX 21154 07650 12570 72614 10130 20070 30053 40091 55005 60006 8583/ 91500=
07650,1997-12-21 18:00:00,10,1010.4,1.2,87,8,20000,18.52,,,310,6.4,13.5,,,,,,,,,wg-a,,,,AAXX 21184 07650 12570 /3110 10100 20080 30065 40104 53012 60006 83540 91800 333 10135 20064=
07650,1997-12-21 21:00:00,9,1011.3,0.9,81,6,25000,18.52,,,310,,,,,,,,,,,wg-a,,,,AAXX 21214 07650 12/75 03110 10090 20060 30074 40113 51009 60006 80000 92100=
07650,1997-12-22 00:00:00,8,1011.3,0,87,6,25000,25.928,,,290,,,,,,,,,,,wg-a,,,,AAXX 22004 07650 12/75 02914 10080 20060 30074 40113 50000 60006 80000 90000=
07650,1997-12-22 03:00:00,7,1011.4,-0,87,5,25000,22.224,,,270,,,,,,,,,,,wg-a,,,,AAXX 22034 07650 12/75 02712 10070 20050 30075 40114 54000 60006 80000 90300=
07650,1997-12-22 06:00:00,7,1011.1,-0.3,87,5,20000,18.52,,,280,6.3,10,,,,,,,,,wg-a,,,,AAXX 22064 07650 12/70 12810 10070 20050 30072 40111 55003 60006 80001 90600 333 10100 20063=
07650,1997-12-22 09:00:00,7,1012.5,1.4,87,5,15000,14.816,,,290,,,,,,,,,,,wg-a,,,,AAXX 22094 07650 12/65 02908 10070 20050 30086 40125 53014 60006 80000 90900=
07650,1997-12-22 12:00:00,10,1012.4,-0.1,71,5,20000,7.408,,,20,,,,,,,,,,,wg-a,,,,AAXX 22124 07650 12570 20204 10100 20050 30085 40124 58001 60006 82100 91200=
07650,1997-12-22 15:00:00,11,1011.9,-0.5,66,5,20000,7.408,,,330,,,,,,,,,,,wg-a,,,,AAXX 22154 07650 12/70 33304 10110 20050 30080 40119 55005 60006 80002 91500=
07650,1997-12-22 18:00:00,7,1012.6,0.7,81,4,20000,3.704,,,110,5.9,11.5,,,,,,,,,wg-a,,,,AAXX 22184 07650 12/70 71102 10070 20040 30087 40126 52007 60006 80002 91800 333 10115 20059=
07650,1997-12-22 21:00:00,6,1013.7,1.1,87,4,15000,3.704,,,130,,,,,,,,,,,wg-a,,,,AAXX 22214 07650 12/65 71302 10060 20040 30098 40137 51011 60006 82032 92100=
07650,1997-12-23 00:00:00,7,1014.9,1.2,87,5,15000,3.704,,,220,,,,,,,,,,21,wg-a,,,,AAXX 23004 07650 02565 82202 10070 20050 30110 40149 51012 61000 72162 84532 90000 333 6100=
07650,1997-12-23 03:00:00,7,1015.5,0.6,93,6,12000,0,,,0,,,,,,,,,,,wg-a,,,,AAXX 23034 07650 12562 80000 10070 20060 30116 40155 53006 60006 8257/ 90300=
07650,1997-12-23 06:00:00,7,1016.3,0.8,93,6,10000,7.408,,,200,5.4,7.3,,,,,,,,21,wg-a,,,,AAXX 23064 07650 02660 72004 10070 20060 30124 40163 53008 61000 72162 8557/ 90600 333 10073 20054 6100=
07650,1997-12-23 09:00:00,7,1019.2,2.9,93,6,500,3.704,,,300,,,,,,,,,,,wg-a,,,,AAXX 23094 07650 12600 73002 10070 20060 30153 40192 53029 60006 83532 90900=
07650,1997-12-23 12:00:00,12,1019.3,0.1,76,8,10000,14.816,,,290,,,,,,,,,,,wg-a,,,,AAXX 23124 07650 12660 /2908 10120 20080 30154 40193 50001 60006 81532 91200=
07650,1997-12-23 15:00:00,13,1019.8,0.5,62,6,20000,35.188,,,310,,,,,,,,,,,wg-a,,,,AAXX 23154 07650 12/70 13119 10130 20060 30159 40198 53005 60006 80002 91500=
07650,1997-12-23 18:00:00,12,1021.8,2,67,6,25000,50.004,,,320,6.7,13.5,,,,,,,,,wg-a,,,,AAXX 23184 07650 12/75 03227 10120 20060 30179 40218 51020 60006 80000 91800 333 10135 20067=
07650,1997-12-23 21:00:00,11,1024.5,2.7,66,5,20000,29.632,,,340,,,,,,,,,,,wg-a,,,,AAXX 23214 07650 12/70 03416 10110 20050 30206 40245 51027 60006 80000 92100=
07650,1997-12-24 00:00:00,10,1026.3,1.8,76,6,20000,25.928,,,330,,,,,,,,,,,wg-a,,,,AAXX 24004 07650 12/70 03314 10100 20060 30224 40263 50018 60006 80000 90000=
07650,1997-12-24 03:00:00,7,1027.5,1.1,87,5,20000,3.704,,,90,,,,,,,,,,,wg-a,,,,AAXX 24034 07650 12/70 10902 10070 20050 30235 40275 53011 60006 81030 90300=
07650,1997-12-24 06:00:00,5,1027.6,0.1,93,4,20000,7.408,,,140,5,12.1,,,,,,,,,wg-a,,,,AAXX 24064 07650 12/70 21404 10050 20040 30236 40276 53001 60006 81031 90600 333 10121 20050=
07650,1997-12-24 09:00:00,8,1028.7,1.1,76,4,10000,7.408,,,190,,,,,,,,,,,wg-a,,,,AAXX 24094 07650 12/60 /1904 10080 20040 30247 40287 51011 60006 90900=
07650,1997-12-24 12:00:00,11,1028.3,-0.3,71,6,500,3.704,,,290,,,,,,,,,,,wg-a,,,,AAXX 24124 07650 12/00 62902 10110 20060 30244 40283 58003 60006 81032 91200=
07650,1997-12-24 15:00:00,12,1027.6,-0.7,67,6,20000,3.704,,,280,,,,,,,,,,,wg-a,,,,AAXX 24154 07650 12/70 52802 10120 20060 30237 40276 55007 60006 81032 91500=
07650,1997-12-24 18:00:00,9,1027.5,-0.2,87,7,12000,11.112,,,130,4.6,12.4,,,,,,,,,wg-a,,,,AAXX 24184 07650 12/62 51306 10090 20070 30235 40275 58002 60006 80002 91800 333 10124 20046=
07650,1997-12-24 21:00:00,8,1028.5,1,93,7,10000,3.704,,,160,,,,,,,,,,,wg-a,,,,AAXX 24214 07650 12/60 /1602 10080 20070 30245 40285 50010 60006 92100=
07650,1997-12-25 00:00:00,7,1027.8,-0.7,93,6,15000,0,,,0,,,,,,,,,,,wg-a,,,,AAXX 25004 07650 12/65 50000 10070 20060 30238 40278 58007 60006 80002 90000=
07650,1997-12-25 06:00:00,6,1026.2,-0.8,93,5,500,3.704,,,330,5.6,8.7,,,,,,,,,wg-a,,,,AAXX 25064 07650 12300 /3302 10060 20050 30222 40262 55008 60006 81602 90600 333 10087 20056=
07650,1997-12-25 09:00:00,8,1026.8,0.6,93,7,500,0,,,0,,,,0,,,,,,,wg-a,,,,AAXX 25094 07650 12/00 50000 10080 20070 30228 40268 53006 60007 83032 90900=
07650,1997-12-25 12:00:00,13,1024.8,-1.9,77,9,8000,11.112,,,260,,,,,,,,,,,wg-a,,,,AAXX 25124 07650 12/58 22606 10130 20090 30209 40248 58019 60006 81032 91200=
07650,1997-12-25 18:00:00,10,1022.5,-1.1,93,9,15000,3.704,,,80,5.9,15.8,,,,,,,,,wg-a,,,,AAXX 25184 07650 12565 40802 10100 20090 30186 40225 58011 60006 81532 91800 333 10158 20059=
07650,1997-12-25 21:00:00,9,1022.9,0.4,93,8,7000,7.408,,,130,,,,,,,,,,,wg-a,,,,AAXX 25214 07650 12557 /1304 10090 20080 30190 40229 50004 60006 82572 92100=
07650,1997-12-26 00:00:00,8,1021.5,-1.4,93,7,8000,3.704,,,210,,,,,,,,,,,wg-a,,,,AAXX 26004 07650 12558 /2102 10080 20070 30176 40215 57014 60006 81572 90000=
07650,1997-12-26 03:00:00,8,1019.6,-1.9,93,7,8000,3.704,,,270,,,,,,,,,,,wg-a,,,,AAXX 26034 07650 12558 72702 10080 20070 30157 40196 56019 60006 8357/ 90300=
07650,1997-12-26 06:00:00,9,1017.7,-1.9,93,8,8000,7.408,,,130,7.5,10.7,,,,,,,,,wg-a,,,,AAXX 26064 07650 02558 71304 10090 20080 30138 40177 58019 60006 8357/ 90600 333 10107 20075 60004=
07650,1997-12-26 09:00:00,9,1018,0.3,93,8,6000,3.704,,,250,,,,,,,,,,,wg-a,,,,AAXX 26094 07650 12456 72502 10090 20080 30141 40180 53003 60006 8557/ 90900=
07650,1997-12-26 12:00:00,11,1016.1,-1.9,87,9,3000,25.928,,,280,,,,,,,,,,10,wg-a,,,,AAXX 26124 07650 12430 72814 10110 20090 30122 40161 56019 60006 71022 8557/ 91200=
07650,1997-12-26 18:00:00,9,1015,-0.3,81,6,20000,18.52,,,300,7.9,11.4,,,,,,,,,wg-a,,,,AAXX 26184 07650 12/70 53010 10090 20060 30111 40150 55003 60006 81042 91800 333 10114 20079=
07650,1997-12-26 21:00:00,8,1014.9,-0.1,76,4,20000,22.224,,,310,,,,,,,,,,,wg-a,,,,AAXX 26214 07650 12/70 33112 10080 20040 30110 40149 57001 60006 80002 92100=
07650,1997-12-27 00:00:00,5,1014.3,-0.7,93,4,20000,11.112,,,300,,,,,,,,,,,wg-a,,,,AAXX 27004 07650 12/70 03006 10050 20040 30103 40143 58007 60006 80000 90000=
07650,1997-12-27 03:00:00,6,1013.5,-0.7,81,3,20000,11.112,,,340,,,,,,,,,,,wg-a,,,,AAXX 27034 07650 12/70 13406 10060 20030 30096 40135 58007 60006 80001 90300=
07650,1997-12-27 06:00:00,5,1013.2,-0.4,87,3,25000,11.112,,,330,4.5,8.8,,,,,,,,,wg-a,,,,AAXX 27064 07650 12/75 23306 10050 20030 30092 40132 55004 60006 82030 90600 333 10088 20045=
07650,1997-12-27 09:00:00,8,1014.6,1.5,81,5,10000,25.928,,,290,,,,,,,,,,,wg-a,,,,AAXX 27094 07650 12/60 /2914 10080 20050 30107 40146 53015 60006 90900=
07650,1997-12-27 12:00:00,12,1013.3,-1.3,54,3,25000,35.188,,,300,,,,,,,,,,,wg-a,,,,AAXX 27124 07650 12575 23019 10120 20030 30094 40133 58013 60006 81102 91200=
07650,1997-12-27 15:00:00,12,1012.8,-0.5,54,3,25000,29.632,,,320,,,,,,,,,,,wg-a,,,,AAXX 27154 07650 12575 /3216 10120 20030 30089 40128 55005 60006 81102 91500=
07650,1997-12-27 18:00:00,9,1014.1,1.3,71,4,25000,25.928,,,300,4.8,12.3,,,,,,,,,wg-a,,,,AAXX 27184 07650 12575 /3014 10090 20040 30102 40141 53013 60006 81500 91800 333 10123 20048=
07650,1997-12-27 21:00:00,7,1015.5,1.4,81,4,25000,25.928,,,300,,,,,,,,,,,wg-a,,,,AAXX 27214 07650 12/75 13014 10070 20040 30116 40155 51014 60006 80002 92100=
07650,1997-12-28 00:00:00,7,1015.7,0.2,81,4,25000,22.224,,,300,,,,,,,,,,,wg-a,,,,AAXX 28004 07650 12/75 13012 10070 20040 30118 40157 53002 60006 81031 90000=
07650,1997-12-28 03:00:00,6,1015.7,-0.1,81,3,25000,29.632,,,290,,,,,,,,,,,wg-a,,,,AAXX 28034 07650 12/75 12916 10060 20030 30117 40157 58001 60006 80001 90300=
07650,1997-12-28 06:00:00,5,1015.5,-0.2,81,2,25000,22.224,,,300,4.3,9.1,,,,,,,,,wg-a,,,,AAXX 28064 07650 12/75 13012 10050 20020 30115 40155 55002 60006 80001 90600 333 10091 20043=
07650,1997-12-28 09:00:00,8,1016,0.6,66,2,500,25.928,,,310,,,,,,,,,,,wg-a,,,,AAXX 28094 07650 12/00 23114 10080 20020 30121 40160 53006 60006 80001 90900=
07650,1997-12-28 12:00:00,11,1014.2,-1.8,50,1,75000,35.188,,,300,,,,,,,,,,,wg-a,,,,AAXX 28124 07650 12/89 33019 10110 20010 30103 40142 58018 60006 80001 91200=
07650,1997-12-28 15:00:00,10,1013.4,-0.8,50,0,60000,29.632,,,310,,,,,,,,,,,wg-a,,,,AAXX 28154 07650 12686 43116 10100 20000 30095 40134 56008 60006 81141 91500=
07650,1997-12-28 18:00:00,7,1013.5,0.1,66,1,25000,22.224,,,290,5.3,11.2,,,,,,,,,wg-a,,,,AAXX 28184 07650 12/75 22912 10070 20010 30096 40135 53001 60006 80002 91800 333 10112 20053=
07650,1997-12-28 21:00:00,5,1013.5,-0.1,70,0,25000,14.816,,,330,,,,,,,,,,,wg-a,,,,AAXX 28214 07650 12/75 13308 10050 20000 30095 40135 58001 60006 80002 92100=
07650,1997-12-29 00:00:00,3,1013,-0.5,81,0,25000,7.408,,,320,,,,,,,,,,,wg-a,,,,AAXX 29004 07650 12/75 13204 10030 20000 30090 40130 55005 60006 80002 90000=
07650,1997-12-29 03:00:00,0,1012.8,-0.2,86,-2,25000,11.112,,,140,,,,,,,,,,,wg-a,,,,AAXX 29034 07650 12/75 01406 10000 21020 30088 40128 58002 60006 80000 90300=
07650,1997-12-29 06:00:00,-1,1012.3,-0.5,93,-2,20000,11.112,,,130,-1.1,7.3,,,,,,,,,wg-a,,,,AAXX 29064 07650 12/70 01306 11010 21020 30083 40123 55005 60006 80000 90600 333 10073 21011=
07650,1997-12-29 09:00:00,2,1013.7,1.4,80,-1,75000,3.704,,,160,,,,,,,,,,,wg-a,,,,AAXX 29094 07650 12789 11602 10020 21010 30097 40137 53014 60006 81501 90900=
07650,1997-12-29 12:00:00,8,1012.8,-0.8,61,1,500,3.704,,,280,,,,,,,,,,,wg-a,,,,AAXX 29124 07650 12500 /2802 10080 20010 30089 40128 58008 60006 81100 91200=
07650,1997-12-29 15:00:00,12,1012.6,-0.2,58,4,500,3.704,,,270,,,,,,,,,,,wg-a,,,,AAXX 29154 07650 12500 /2702 10120 20040 30087 40126 55002 60006 81100 91500=
07650,1997-12-29 18:00:00,6,1013.5,0.9,81,3,500,0,,,0,-1.2,12.9,,,,,,,,,wg-a,,,,AAXX 29184 07650 12/00 00000 10060 20030 30096 40135 53009 60006 80000 91800 333 10129 21012=
07650,1997-12-30 00:00:00,7,1014.7,0.2,76,3,20000,11.112,,,50,,,,,,,,,,,wg-a,,,,AAXX 30004 07650 12670 30506 10070 20030 30108 40147 51002 60006 83500 90000=
07650,1997-12-30 03:00:00,8,1014.5,-0.2,71,3,20000,22.224,,,80,,,,,,,,,,,wg-a,,,,AAXX 30034 07650 12670 70812 10080 20030 30106 40145 58002 60006 8457/ 90300=
07650,1997-12-30 06:00:00,9,1014.7,0.2,76,5,20000,25.928,,,80,5.3,9.1,,,,,,,,,wg-a,,,,AAXX 30064 07650 12670 /0814 10090 20050 30108 40147 53002 60006 83530 90600 333 10091 20053=
07650,1997-12-30 09:00:00,11,1016.9,2.2,66,5,20000,22.224,,,90,,,,,,,,,,,wg-a,,,,AAXX 30094 07650 12670 80912 10110 20050 30130 40169 53022 60006 8553/ 90900=
07650,1997-12-30 12:00:00,13,1016,-0.9,67,7,20000,22.224,,,110,,,,,,,,,,3,wg-a,,,,AAXX 30124 07650 02570 81112 10130 20070 30121 40160 58009 61000 70362 8383/ 91200 333 6100=
07650,1997-12-30 15:00:00,12,1015.5,-0.5,71,7,20000,18.52,,,80,,,,,,,,,,3,wg-a,,,,AAXX 30154 07650 02570 70810 10120 20070 30116 40155 56005 61000 70362 85832 91500 333 ////=
07650,1997-12-30 18:00:00,11,1015.7,0.2,66,5,20000,18.52,,,80,9.1,13.5,,,,,,,,,wg-a,,,,AAXX 30184 07650 12670 60810 10110 20050 30118 40157 53002 60006 83532 91800 333 10135 20091=
07650,1997-12-31 00:00:00,11,1014.6,-1.4,76,7,15000,14.816,,,90,,,,,,,,,,,wg-a,,,,AAXX 31004 07650 12665 70908 10110 20070 30107 40146 58014 60006 83532 90000=
07650,1997-12-31 06:00:00,12,1013.9,-0.2,76,8,20000,11.112,,,100,10.8,11.7,,,,,,,,,wg-a,,,,AAXX 31064 07650 02470 71006 10120 20080 30100 40139 55002 60006 875// 90600 333 10117 20108 61000=
07650,1997-12-31 09:00:00,12,1015.2,1.3,82,9,25000,18.52,,,80,,,,,,,,,,,wg-a,,,,AAXX 31094 07650 12575 70810 10120 20090 30113 40152 53013 60006 8687/ 90900=
07650,1997-12-31 12:00:00,15,1014,-1.1,67,9,500,22.224,,,100,,,,,,,,,,,wg-a,,,,AAXX 31124 07650 12500 71012 10150 20090 30102 40140 58011 60006 8687/ 91200=
07650,1997-12-31 18:00:00,13,1014,0.5,72,8,20000,14.816,,,110,11.5,15.1,,,,,,,,,wg-a,,,,AAXX 31184 07650 12670 /1108 10130 20080 30102 40140 52005 60006 83532 91800 333 10151 20115=
07650,1997-12-31 21:00:00,11,1015,0.9,87,9,18000,11.112,,,120,,,,,,,,,,,wg-a,,,,AAXX 31214 07650 12668 71206 10110 20090 30111 40150 53009 60006 8683/ 92100=
