station_id,dh_utc,temperature,pression,pression_variation_3h,humidite,point_de_rosee,visibilite,vent_moyen,vent_rafales,vent_rafales_10min,vent_direction,temperature_min,temperature_max,pluie_1h,pluie_3h,pluie_6h,pluie_12h,pluie_24h,ensoleillement,temperature_sol,temps_omm,source,radiations,neige_au_sol,nebulosite,raw_msg
07650,1998-01-01 00:00:00,8,1014.6,-0.4,93,7,17000,3.704,,,20,,,,,,,,,,,wg-a,,,,AAXX 01004 07650 12667 30202 10080 20070 30107 40146 55004 60006 81502 90000=
07650,1998-01-01 03:00:00,12,1014.9,0.3,76,8,20000,14.816,,,100,,,,,,,,,,,wg-a,,,,AAXX 01034 07650 12670 /1008 10120 20080 30110 40149 50003 60006 83532 90300=
07650,1998-01-01 06:00:00,13,1015.2,0.3,72,8,20000,11.112,,,90,7.5,13,,,,,,,,,wg-a,,,,AAXX 01064 07650 12670 70906 10130 20080 30113 40152 53003 60006 8457/ 90600 333 10130 20075=
07650,1998-01-01 09:00:00,13,1017.1,1.9,77,9,20000,11.112,,31.484,80,,,,,,,,,,,wg-a,,,,AAXX 01094 07650 12670 70806 10130 20090 30132 40171 53019 60006 8657/ 90900 333 91017=
07650,1998-01-01 12:00:00,15,1017.1,0.1,67,9,12000,29.632,,,120,,,,,,,,,,60,wg-a,,,,AAXX 01124 07650 02662 81216 10150 20090 30133 40171 50001 61000 76062 8687/ 91200 333 6100=
07650,1998-01-01 15:00:00,14,1017.5,0.4,77,10,12000,22.224,,,120,,,,2,,,,,,21,wg-a,,,,AAXX 01154 07650 12562 71212 10140 20100 30137 40175 53004 60027 72162 8587/ 91500=
07650,1998-01-01 18:00:00,14,1017.7,0.1,72,9,20000,18.52,,,120,12.5,15.5,,0,,,,,,,wg-a,,,,AAXX 01184 07650 02570 71210 10140 20090 30138 40177 53001 60006 8357/ 91800 333 10155 20125 60007=
07650,1998-01-01 21:00:00,13,1017.7,-0,77,9,20000,18.52,,,120,,,,,,,,,,,wg-a,,,,AAXX 01214 07650 12570 71210 10130 20090 30138 40177 54000 60006 8257/ 92100=
07650,1998-01-02 00:00:00,13,1017,-0.7,77,9,15000,11.112,,,130,,,,,,,,,,,wg-a,,,,AAXX 02004 07650 12665 71306 10130 20090 30131 40170 58007 60006 875// 90000=
07650,1998-01-02 06:00:00,13,1013.5,-2,94,12,15000,14.816,,,170,12.4,13.9,,,,,,,,60,wg-a,,,,AAXX 02064 07650 02465 71708 10130 20120 30097 40135 56020 61000 76062 875// 90600 333 10139 20124 6002=
07650,1998-01-02 09:00:00,14,1012.5,-1,82,11,10000,14.816,,,150,,,,1,,,,,,21,wg-a,,,,AAXX 02094 07650 12560 71508 10140 20110 30087 40125 56010 60017 72162 8583/ 90900=
07650,1998-01-02 12:00:00,14,1007.9,-4.6,82,11,15000,29.632,,,140,,,,,,,,,,,wg-a,,,,AAXX 02124 07650 12465 71416 10140 20110 30041 40079 58046 60016 8587/ 91200=
07650,1998-01-02 15:00:00,13,1007.4,-0.5,82,10,15000,14.816,,,190,,,,0,,,,,,21,wg-a,,,,AAXX 02154 07650 12465 81908 10130 20100 30036 40074 58005 60007 72162 888// 91500=
07650,1998-01-02 18:00:00,11,1008.5,1,82,8,12000,29.632,,61.116,280,10.5,13.9,,,,,,,,1,wg-a,,,,AAXX 02184 07650 12562 /2816 10110 20080 30046 40085 53010 60006 70162 84870 91800 333 10139 20105 91033=
07650,1998-01-02 21:00:00,8,1011,2.5,87,6,20000,29.632,,,280,,,,,,,,,,,wg-a,,,,AAXX 02214 07650 12/70 02816 10080 20060 30071 40110 51025 60006 80000 92100=
07650,1998-01-03 00:00:00,8,1012.4,1.4,81,5,20000,31.484,,,280,,,,,,,,,,,wg-a,,,,AAXX 03004 07650 12/70 02817 10080 20050 30085 40124 51014 60006 80000 90000=
07650,1998-01-03 03:00:00,8,1013.9,1.5,71,3,20000,25.928,,,320,,,,,,,,,,,wg-a,,,,AAXX 03034 07650 12/70 03214 10080 20030 30100 40139 50015 60006 80000 90300=
07650,1998-01-03 06:00:00,7,1015.2,1.3,76,3,20000,22.224,,,330,6.7,10.5,,,,,1,,,,wg-a,,,,AAXX 03064 07650 02/70 13312 10070 20030 30113 40152 53013 60006 80002 90600 333 10105 20067 60014=
07650,1998-01-03 09:00:00,9,1016.8,1.6,66,3,40000,7.408,,,290,,,,,,,,,,,wg-a,,,,AAXX 03094 07650 12/82 52904 10090 20030 30129 40168 53016 60006 82044 90900=
07650,1998-01-03 12:00:00,12,1017.4,0.6,58,4,50000,3.704,,,310,,,,,,,,,,,wg-a,,,,AAXX 03124 07650 12/84 23102 10120 20040 30135 40174 50006 60006 81042 91200=
07650,1998-01-03 15:00:00,14,1016.6,-0.7,55,5,500,0,,,0,,,,,,,,,,,wg-a,,,,AAXX 03154 07650 12600 /0000 10140 20050 30128 40166 58007 60006 83830 91500=
07650,1998-01-03 21:00:00,8,1018.3,1.3,93,7,15000,3.704,,,70,,,,,,,,,,,wg-a,,,,AAXX 03214 07650 12565 60702 10080 20070 30144 40183 51013 60006 82530 92100=
07650,1998-01-04 00:00:00,9,1018.8,0.5,93,8,8000,3.704,,,200,,,,0,,,,,,60,wg-a,,,,AAXX 04004 07650 02558 82002 10090 20080 30149 40188 53005 60006 76061 8257/ 90000 333 60007=
07650,1998-01-04 09:00:00,9,1019.2,1.7,81,6,15000,3.704,,,220,,,,,,,,,,,wg-a,,,,AAXX 04094 07650 12/65 62202 10090 20060 30153 40192 53017 60006 81032 90900=
07650,1998-01-04 12:00:00,12,1017.8,-1.4,67,6,15000,3.704,,,50,,,,,,,,,,,wg-a,,,,AAXX 04124 07650 12/65 80502 10120 20060 30139 40178 58014 60006 85032 91200=
07650,1998-01-05 00:00:00,7,1018.5,0.3,93,6,12000,3.704,,,170,,,,,,,,,,,wg-a,,,,AAXX 05004 07650 12/62 31702 10070 20060 30146 40185 50003 60006 80002 90000=
07650,1998-01-05 03:00:00,7,1019.1,0.5,93,6,15000,0,,,0,,,,,,,,,,,wg-a,,,,AAXX 05034 07650 12/65 50000 10070 20060 30151 40191 53005 60006 85030 90300=
07650,1998-01-05 06:00:00,6,1019.3,0.2,93,5,15000,11.112,,,130,6,13.3,,,,,,,,,wg-a,,,,AAXX 05064 07650 12/65 21306 10060 20050 30153 40193 53002 60006 80002 90600 333 10133 20060=
07650,1998-01-05 09:00:00,9,1020.5,1.3,81,6,15000,7.408,,,140,,,,,,,,,,,wg-a,,,,AAXX 05094 07650 12/65 31404 10090 20060 30166 40205 53013 60006 82032 90900=
07650,1998-01-05 12:00:00,13,1020,-0.5,54,4,15000,7.408,,,240,,,,,,,,,,,wg-a,,,,AAXX 05124 07650 12665 32404 10130 20040 30161 40200 58005 60006 81532 91200=
07650,1998-01-05 15:00:00,13,1019,-1,54,4,15000,7.408,,,240,,,,,,,,,,,wg-a,,,,AAXX 05154 07650 12665 32404 10130 20040 30151 40190 55010 60006 81532 91500=
07650,1998-01-05 21:00:00,6,1020.5,0.2,87,4,15000,7.408,,,10,,,,,,,,,,,wg-a,,,,AAXX 05214 07650 12/65 10104 10060 20040 30165 40205 51002 60006 80002 92100=
07650,1998-01-06 00:00:00,5,1020.5,0,93,4,15000,0,,,0,,,,,,,,,,,wg-a,,,,AAXX 06004 07650 12/65 10000 10050 20040 30165 40205 50000 60006 80002 90000=
07650,1998-01-06 06:00:00,6,1020.1,-0.1,93,5,15000,11.112,,,340,4.1,8.1,,,,,,,,,wg-a,,,,AAXX 06064 07650 02565 /3406 10060 20050 30161 40201 55001 60006 82502 90600 333 10081 20041 60004=
07650,1998-01-06 09:00:00,10,1021.3,1.3,82,7,15000,7.408,,,140,,,,,,,,,,,wg-a,,,,AAXX 06094 07650 12565 21404 10100 20070 30174 40213 53013 60006 81502 90900=
07650,1998-01-06 12:00:00,14,1021.5,0.2,63,7,15000,3.704,,,350,,,,,,,,,,,wg-a,,,,AAXX 06124 07650 12/65 13502 10140 20070 30176 40215 50002 60006 80002 91200=
07650,1998-01-06 18:00:00,10,1021.9,0.7,82,7,15000,3.704,,,110,5.3,15.6,,,,,,,,,wg-a,,,,AAXX 06184 07650 12/65 11102 10100 20070 30180 40219 53007 60006 81030 91800 333 10156 20053=
07650,1998-01-06 21:00:00,8,1021.9,0,87,6,17000,7.408,,,150,,,,,,,,,,,wg-a,,,,AAXX 06214 07650 12567 /1504 10080 20060 30180 40219 50000 60006 81500 92100=
07650,1998-01-07 00:00:00,7,1021.7,-0.3,93,6,15000,14.816,,,110,,,,,,,,,,,wg-a,,,,AAXX 07004 07650 12665 31108 10070 20060 30177 40217 58003 60006 81532 90000=
07650,1998-01-07 03:00:00,4,1021.7,0,100,4,13000,3.704,,,110,,,,0,,,,,,,wg-a,,,,AAXX 07034 07650 12663 41102 10040 20040 30177 40217 50000 60007 82502 90300=
07650,1998-01-07 06:00:00,4,1022.1,0.4,93,3,11000,0,,,0,3.3,9.9,,,,,,,,,wg-a,,,,AAXX 07064 07650 02/61 20000 10040 20030 30181 40221 53004 60006 81031 90600 333 10099 20033 60004=
07650,1998-01-07 09:00:00,6,1023.6,1.5,100,6,8000,3.704,,,310,,,,,,,,,,,wg-a,,,,AAXX 07094 07650 12/58 /3102 10060 20060 30196 40236 53015 60006 80002 90900=
07650,1998-01-07 12:00:00,10,1023.8,0.3,87,8,10000,7.408,,,270,,,,,,,,,,,wg-a,,,,AAXX 07124 07650 12/60 22704 10100 20080 30199 40238 50003 60006 80001 91200=
07650,1998-01-07 15:00:00,15,1023.9,0.1,55,6,16000,3.704,,,210,,,,,,,,,,,wg-a,,,,AAXX 07154 07650 12/66 12102 10150 20060 30200 40239 53001 60006 80001 91500=
07650,1998-01-07 18:00:00,9,1025.6,1.6,81,6,18000,0,,,0,3.4,14.8,,,,,,,,,wg-a,,,,AAXX 07184 07650 12/68 10000 10090 20060 30216 40256 53016 60006 80002 91800 333 10148 20034=
07650,1998-01-07 21:00:00,6,1026.8,1.2,87,4,15000,7.408,,,120,,,,,,,,,,,wg-a,,,,AAXX 07214 07650 12/65 11204 10060 20040 30228 40268 51012 60006 80001 92100=
07650,1998-01-08 00:00:00,5,1027.8,1,93,4,12000,3.704,,,160,,,,,,,,,,,wg-a,,,,AAXX 08004 07650 12/62 11602 10050 20040 30238 40278 53010 60006 80001 90000=
07650,1998-01-08 03:00:00,3,1028.2,0.4,100,3,8000,3.704,,,190,,,,,,,,,,,wg-a,,,,AAXX 08034 07650 12/58 11902 10030 20030 30242 40282 51004 60006 80001 90300=
07650,1998-01-08 06:00:00,2,1028.9,0.6,100,2,8000,0,,,0,2.2,8.7,,,,,,,,,wg-a,,,,AAXX 08064 07650 12/58 /0000 10020 20020 30248 40289 53006 60006 80001 90600 333 10087 20022=
07650,1998-01-08 09:00:00,5,1030.4,1.6,100,5,10000,0,,,0,,,,0,,,,,,,wg-a,,,,AAXX 08094 07650 12/60 10000 10050 20050 30264 40304 53016 60007 81031 90900=
07650,1998-01-08 15:00:00,13,1030.1,-0.4,67,7,11000,0,,,0,,,,,,,,,,,wg-a,,,,AAXX 08154 07650 12/61 00000 10130 20070 30262 40301 56004 60006 80000 91500=
07650,1998-01-08 18:00:00,8,1031.6,1.4,87,6,12000,7.408,,,140,2.3,13.3,,,,,,,,,wg-a,,,,AAXX 08184 07650 12/62 01404 10080 20060 30276 40316 53014 60006 80000 91800 333 10133 20023=
07650,1998-01-09 00:00:00,4,1033.2,0.5,93,3,6000,3.704,,,170,,,,,,,,,,,wg-a,,,,AAXX 09004 07650 12/56 01702 10040 20030 30291 40332 51005 60006 80000 90000=
07650,1998-01-09 03:00:00,2,1032.9,-0.3,100,2,8000,0,,,0,,,,,,,,,,,wg-a,,,,AAXX 09034 07650 12/58 00000 10020 20020 30288 40329 56003 60006 80000 90300=
07650,1998-01-09 06:00:00,2,1033,0.1,93,1,4000,3.704,,,170,1.1,8.3,,,,,,,,10,wg-a,,,,AAXX 09064 07650 02/40 01702 10020 20010 30289 40330 53001 60006 71000 80000 90600 333 10083 20011 60004=
07650,1998-01-09 09:00:00,4,1033.8,0.9,100,4,6000,0,,,0,,,,,,,,,,,wg-a,,,,AAXX 09094 07650 32/56 /0000 10040 20040 30298 40338 51009 80000 90900=
07650,1998-01-09 12:00:00,11,1033.1,-0.6,66,5,6000,7.408,,,270,,,,,,,,,,,wg-a,,,,AAXX 09124 07650 12556 /2704 10110 20050 30292 40331 58006 60006 81100 91200=
07650,1998-01-09 18:00:00,8,1032.5,0.1,87,6,10000,7.408,,,140,1.3,13.8,,,,,,,,,wg-a,,,,AAXX 09184 07650 12/60 11404 10080 20060 30285 40325 53001 60006 80002 91800 333 10138 20013=
07650,1998-01-10 00:00:00,3,1033.3,-0.2,100,3,3000,0,,,0,,,,,,,,,,10,wg-a,,,,AAXX 10004 07650 12430 40000 10030 20030 30292 40333 58002 60006 71011 84500 90000=
07650,1998-01-10 03:00:00,5,1032.7,-0.5,100,5,8000,3.704,,,280,,,,,,,,,,,wg-a,,,,AAXX 10034 07650 12558 /2802 10050 20050 30287 40327 56005 60006 86500 90300=
07650,1998-01-10 06:00:00,5,1032.1,-0.6,93,4,8000,0,,,0,3.2,7.6,,,,,,,,,wg-a,,,,AAXX 10064 07650 02558 /0000 10050 20040 30281 40321 55006 60006 86500 90600 333 10076 20032 60004=
07650,1998-01-10 09:00:00,7,1033,0.9,93,6,8000,3.704,,,290,,,,,,,,,,,wg-a,,,,AAXX 10094 07650 12558 /2902 10070 20060 30290 40330 51009 60006 86500 90900=
07650,1998-01-10 12:00:00,11,1032.1,-0.8,82,8,9000,3.704,,,250,,,,,,,,,,,wg-a,,,,AAXX 10124 07650 12559 72502 10110 20080 30282 40321 58008 60006 876// 91200=
07650,1998-01-10 15:00:00,13,1030.8,-1.3,67,7,12000,11.112,,,130,,,,,,,,,,,wg-a,,,,AAXX 10154 07650 12562 71306 10130 20070 30269 40308 56013 60006 875// 91500=
07650,1998-01-10 18:00:00,12,1030.4,-0.4,71,7,12000,11.112,,,100,4.5,13.2,,,,,,,,,wg-a,,,,AAXX 10184 07650 12562 71006 10120 20070 30265 40304 56004 60006 875// 91800 333 10132 20045=
07650,1998-01-10 21:00:00,11,1030.3,-0.1,76,7,15000,11.112,,,90,,,,,,,,,,,wg-a,,,,AAXX 10214 07650 12565 /0906 10110 20070 30264 40303 58001 60006 86800 92100=
07650,1998-01-11 00:00:00,10,1030,-0.4,76,6,14000,14.816,,,70,,,,,,,,,,,wg-a,,,,AAXX 11004 07650 12564 70708 10100 20060 30260 40300 58004 60006 878// 90000=
07650,1998-01-11 06:00:00,8,1028.9,-0.9,81,5,15000,14.816,,,70,7.4,11.5,,,,,,,,,wg-a,,,,AAXX 11064 07650 12565 70708 10080 20050 30249 40289 55009 60006 875// 90600 333 10115 20074=
07650,1998-01-11 09:00:00,10,1029.2,0.4,76,6,20000,14.816,,,60,,,,,,,,,,,wg-a,,,,AAXX 11094 07650 12570 70608 10100 20060 30253 40292 53004 60006 85531 90900=
07650,1998-01-11 12:00:00,14,1028.6,-0.6,63,7,20000,18.52,,,120,,,,,,,,,,,wg-a,,,,AAXX 11124 07650 12570 71210 10140 20070 30247 40286 58006 60006 8653/ 91200=
07650,1998-01-11 15:00:00,14,1027.6,-1,63,7,20000,25.928,,,130,,,,,,,,,,,wg-a,,,,AAXX 11154 07650 12570 71314 10140 20070 30237 40276 56010 60006 84531 91500=
07650,1998-01-11 18:00:00,10,1027.4,-0.2,82,7,15000,11.112,,,130,7.7,14.6,,,,,,,,,wg-a,,,,AAXX 11184 07650 12565 41306 10100 20070 30235 40274 56002 60006 82531 91800 333 10146 20077=
07650,1998-01-12 00:00:00,8,1027.1,-0.4,87,6,20000,7.408,,,70,,,,,,,,,,,wg-a,,,,AAXX 12004 07650 12/70 40704 10080 20060 30231 40271 58004 60006 84030 90000=
07650,1998-01-12 03:00:00,9,1026.7,-0.3,87,7,20000,7.408,,,90,,,,,,,,,,,wg-a,,,,AAXX 12034 07650 12/70 50904 10090 20070 30228 40267 56003 60006 85030 90300=
07650,1998-01-12 06:00:00,9,1025.7,-1,81,6,20000,7.408,,,60,8.1,10,,,,,,,,,wg-a,,,,AAXX 12064 07650 12/70 40604 10090 20060 30218 40257 57010 60006 82031 90600 333 10100 20081=
07650,1998-01-12 09:00:00,9,1025.5,-0.2,87,7,15000,7.408,,29.632,70,,,,,,,,,,,wg-a,,,,AAXX 12094 07650 12665 70704 10090 20070 30216 40255 58002 60006 8757/ 90900 333 91016=
07650,1998-01-12 12:00:00,15,1024.7,-0.8,63,8,25000,35.188,,50.004,120,,,,,,,,,,,wg-a,,,,AAXX 12124 07650 12675 71219 10150 20080 30208 40247 58008 60006 83532 91200 333 91027=
07650,1998-01-12 15:00:00,15,1023.4,,63,8,20000,31.484,,,120,,,,,,,,,,,wg-a,,,,AAXX 12154 07650 32570 71217 10150 20080 30195 40234 878// 91500=
07650,1998-01-12 18:00:00,13,1022.9,-0.5,62,6,20000,18.52,,,120,7.6,15,,,,,,,,,wg-a,,,,AAXX 12184 07650 12670 71210 10130 20060 30190 40229 56005 60006 86502 91800 333 10150 20076=
07650,1998-01-12 21:00:00,11,1022.1,-0.8,71,6,20000,11.112,,,110,,,,,,,,,,,wg-a,,,,AAXX 12214 07650 12670 51106 10110 20060 30182 40221 58008 60006 83532 92100=
07650,1998-01-13 00:00:00,12,1020.9,-1.2,71,7,20000,25.928,,,120,,,,,,,,,,,wg-a,,,,AAXX 13004 07650 12670 /1214 10120 20070 30170 40209 58012 60006 81531 90000=
07650,1998-01-13 12:00:00,15,1016.1,-1.7,59,7,20000,35.188,,,120,,,,,,,,,,,wg-a,,,,AAXX 13124 07650 12670 71219 10150 20070 30123 40161 58017 60006 84232 91200=
07650,1998-01-13 15:00:00,15,1015.1,-1,63,8,20000,31.484,,53.708,110,,,,,,,,,,,wg-a,,,,AAXX 13154 07650 12670 71117 10150 20080 30113 40151 56010 60006 8523/ 91500 333 91029=
07650,1998-01-13 21:00:00,13,1013.8,-0.2,67,7,20000,25.928,,,100,,,,,,,,,,60,wg-a,,,,AAXX 13214 07650 02670 71014 10130 20070 30100 40138 58002 61000 76062 8587/ 92100 333 ////=
07650,1998-01-14 00:00:00,13,1012.5,-1.3,67,7,12000,31.484,,,110,,,,0,,,,,,61,wg-a,,,,AAXX 14004 07650 02462 71117 10130 20070 30087 40125 58013 60006 76162 8688/ 90000 333 60007=
07650,1998-01-14 06:00:00,9,1013.9,0.6,87,7,20000,25.928,,,350,8.7,13.9,,,,,,,,60,wg-a,,,,AAXX 14064 07650 02670 73514 10090 20070 30100 40139 52006 61000 76098 8457/ 90600 333 10139 20087 6003=
07650,1998-01-14 09:00:00,8,1016.2,2.3,93,7,500,25.928,,,290,,,,,,,,,,1,wg-a,,,,AAXX 14094 07650 02500 52914 10080 20070 30123 40162 53023 61000 70162 8383/ 90900 333 ////=
07650,1998-01-14 12:00:00,12,1016.5,0.3,71,7,40000,25.928,,,290,,,,,,,,,,1,wg-a,,,,AAXX 14124 07650 02582 62914 10120 20070 30126 40165 50003 61000 70161 83830 91200 333 ////=
07650,1998-01-14 15:00:00,13,1016.5,-0,58,5,40000,29.632,,,310,,,,,,,,,,,wg-a,,,,AAXX 14154 07650 12682 33116 10130 20050 30126 40165 55000 60006 82230 91500=
07650,1998-01-14 18:00:00,11,1017.9,1.4,66,5,11000,35.188,,,290,8.2,13,,,,,,,,,wg-a,,,,AAXX 14184 07650 12/61 /2919 10110 20050 30140 40179 52014 60006 91800 333 10130 20082=
07650,1998-01-14 21:00:00,10,1019.4,1.5,66,4,20000,46.3,,,310,,,,,,,,,,,wg-a,,,,AAXX 14214 07650 12670 43125 10100 20040 30155 40194 51015 60006 81530 92100=
07650,1998-01-15 03:00:00,8,1022.1,0.8,71,3,20000,18.52,,,290,,,,,,,,,,,wg-a,,,,AAXX 15034 07650 12/70 12910 10080 20030 30182 40221 53008 60006 81030 90300=
07650,1998-01-15 06:00:00,7,1022.6,0.4,76,3,20000,18.52,,,310,7.1,11.1,,,,,,,,,wg-a,,,,AAXX 15064 07650 02/70 03110 10070 20030 30186 40226 52004 60006 80000 90600 333 10111 20071 61000=
07650,1998-01-15 09:00:00,8,1024.6,2,71,3,75000,7.408,,,330,,,,,,,,,,,wg-a,,,,AAXX 15094 07650 12/89 13304 10080 20030 30206 40246 51020 60006 80001 90900=
07650,1998-01-15 12:00:00,11,1024.2,-0.3,58,3,75000,11.112,,,10,,,,,,,,,,,wg-a,,,,AAXX 15124 07650 12/89 20106 10110 20030 30203 40242 58003 60006 80002 91200=
07650,1998-01-15 15:00:00,11,1024.3,0.1,62,4,20000,14.816,,,280,,,,,,,,,,,wg-a,,,,AAXX 15154 07650 12/70 72808 10110 20040 30204 40243 53001 60006 81034 91500=
07650,1998-01-15 18:00:00,8,1024.6,0.2,76,4,20000,3.704,,,240,5.9,11.8,,,,,,,,,wg-a,,,,AAXX 15184 07650 12/70 52402 10080 20040 30206 40246 51002 60006 81032 91800 333 10118 20059=
07650,1998-01-15 21:00:00,5,1024.5,-0.1,87,3,15000,11.112,,,110,,,,,,,,,,,wg-a,,,,AAXX 15214 07650 12/65 41106 10050 20030 30205 40245 58001 60006 81032 92100=
07650,1998-01-16 00:00:00,4,1024.7,0.2,93,3,15000,11.112,,,140,,,,,,,,,,,wg-a,,,,AAXX 16004 07650 12/65 21406 10040 20030 30207 40247 50002 60006 80002 90000=
07650,1998-01-16 03:00:00,5,1023,-1.7,87,3,13000,0,,,0,,,,,,,,,,,wg-a,,,,AAXX 16034 07650 12563 70000 10050 20030 30190 40230 58017 60006 81532 90300=
07650,1998-01-16 06:00:00,5,1021.1,-1.9,87,3,13000,0,,,0,3.5,7.7,,,,,,,,,wg-a,,,,AAXX 16064 07650 02563 70000 10050 20030 30171 40211 56019 60006 81532 90600 333 10077 20035 60004=
07650,1998-01-16 09:00:00,7,1021.2,0.1,81,4,13000,3.704,,,330,,,,,,,,,,60,wg-a,,,,AAXX 16094 07650 02563 73302 10070 20040 30172 40212 53001 61000 76062 82532 90900 333 ////=
07650,1998-01-16 12:00:00,8,1020.1,-1,93,7,8000,7.408,,,210,,,,1,,,,,,60,wg-a,,,,AAXX 16124 07650 02558 82104 10080 20070 30162 40201 58010 60016 76062 8357/ 91200 333 60017=
07650,1998-01-16 15:00:00,10,1018,-2.1,87,8,9000,11.112,,,230,,,,0,,,,,,1,wg-a,,,,AAXX 16154 07650 12559 /2306 10100 20080 30141 40180 56021 60007 70162 83830 91500=
07650,1998-01-16 21:00:00,9,1018.6,1,76,5,20000,31.484,,,290,,,,,,,,,,,wg-a,,,,AAXX 16214 07650 12670 32917 10090 20050 30147 40186 52010 60006 81532 92100=
07650,1998-01-17 00:00:00,9,1019.5,0.9,71,4,25000,29.632,,,310,,,,,,,,,,,wg-a,,,,AAXX 17004 07650 12675 /3116 10090 20040 30156 40195 51009 60006 81531 90000=
07650,1998-01-17 03:00:00,9,1019.2,-0.3,66,3,20000,57.412,,68.524,310,,,,,,,,,,,wg-a,,,,AAXX 17034 07650 12/70 03131 10090 20030 30153 40192 58003 60006 80000 90300 333 91037=
07650,1998-01-17 06:00:00,8,1020.2,1,66,2,20000,50.004,,,310,7.7,9.4,,,,,2,,,,wg-a,,,,AAXX 17064 07650 02/70 03127 10080 20020 30163 40202 53010 60006 80000 90600 333 10094 20077 60024=
07650,1998-01-17 09:00:00,9,1022.3,2.1,61,2,75000,22.224,,,320,,,,,,,,,,,wg-a,,,,AAXX 17094 07650 12589 /3212 10090 20020 30184 40223 53021 60006 81100 90900=
07650,1998-01-17 12:00:00,11,1021.5,-0.8,54,2,11000,42.596,,,310,,,,,,,,,,,wg-a,,,,AAXX 17124 07650 12/61 /3123 10110 20020 30176 40215 56008 60006 91200=
07650,1998-01-17 21:00:00,3,1023.5,0.8,87,1,500,7.408,,,150,,,,,,,,,,,wg-a,,,,AAXX 17214 07650 12/00 01504 10030 20010 30195 40235 53008 60006 80000 92100=
07650,1998-01-18 00:00:00,3,1023.1,-0.4,75,-1,500,0,,,0,,,,,,,,,,,wg-a,,,,AAXX 18004 07650 12/00 20000 10030 21010 30191 40231 56004 60006 80001 90000=
07650,1998-01-18 03:00:00,6,1023.5,0.4,61,-1,500,3.704,,,80,,,,,,,,,,,wg-a,,,,AAXX 18034 07650 12/00 20802 10060 21010 30195 40235 51004 60006 80001 90300=
07650,1998-01-18 06:00:00,7,1022.7,-0.8,57,-1,500,7.408,,,120,2.7,7.8,,,,,,,,,wg-a,,,,AAXX 18064 07650 02/00 11204 10070 21010 30187 40227 55008 60006 80001 90600 333 10078 20027 60004=
07650,1998-01-18 09:00:00,10,1022.1,-0.5,62,3,500,7.408,,,140,,,,,,,,,,,wg-a,,,,AAXX 18094 07650 12600 41404 10100 20030 30182 40221 55005 60006 81501 90900=
07650,1998-01-18 12:00:00,13,1021.1,-1,67,7,500,14.816,,,180,,,,,,,,,,,wg-a,,,,AAXX 18124 07650 12500 71808 10130 20070 30172 40211 58010 60006 84572 91200=
07650,1998-01-18 15:00:00,12,1019.8,-1.3,67,6,20000,14.816,,,120,,,,,,,,,,,wg-a,,,,AAXX 18154 07650 12570 71208 10120 20060 30159 40198 56013 60006 8257/ 91500=
07650,1998-01-18 18:00:00,11,1017.8,-2,76,7,12000,18.52,,,120,6.5,13.1,,,,,,,,21,wg-a,,,,AAXX 18184 07650 02562 81210 10110 20070 30139 40178 57020 61000 72162 8557/ 91800 333 10131 20065 6100=
07650,1998-01-18 21:00:00,12,1015.9,-1.9,82,9,20000,7.408,,,310,,,,,,,,,,,wg-a,,,,AAXX 18214 07650 12470 83104 10120 20090 30120 40159 58019 60006 875// 92100=
07650,1998-01-19 00:00:00,10,1014.4,-1.5,93,9,12000,3.704,,,340,,,,1,,,,,,61,wg-a,,,,AAXX 19004 07650 02462 83402 10100 20090 30105 40144 58015 60016 76162 8557/ 90000 333 60017=
07650,1998-01-19 03:00:00,11,1011.9,-2.5,87,9,12000,11.112,,,140,,,,1,,,,,,61,wg-a,,,,AAXX 19034 07650 12462 81406 10110 20090 30080 40119 58025 60017 76166 8557/ 90300=
07650,1998-01-19 06:00:00,12,1008.1,-3.7,88,10,15000,18.52,,,200,9.8,12.2,,,,,4,,,,wg-a,,,,AAXX 19064 07650 02565 82010 10120 20100 30043 40081 56037 60006 90600 333 10122 20098 60044=
07650,1998-01-19 09:00:00,13,1006.1,-2,77,9,22000,42.596,,,240,,,,,,,,,,,wg-a,,,,AAXX 19094 07650 12572 82423 10130 20090 30023 40061 56020 60006 878// 90900=
07650,1998-01-19 15:00:00,10,1006.2,0.5,76,6,500,25.928,,,320,,,,1,,,,,,1,wg-a,,,,AAXX 19154 07650 12400 /3214 10100 20060 30023 40062 53005 60017 70161 81232 91500=
07650,1998-01-19 18:00:00,9,1010,3.8,71,4,40000,25.928,,,300,8.8,13.6,,,,,,,,1,wg-a,,,,AAXX 19184 07650 12582 /3014 10090 20040 30061 40100 52038 60006 70161 81530 91800 333 10136 20088=
07650,1998-01-19 21:00:00,8,1011.4,1.4,66,2,40000,22.224,,,290,,,,,,,,,,,wg-a,,,,AAXX 19214 07650 12/82 02912 10080 20020 30075 40114 53014 60006 80000 92100=
07650,1998-01-20 00:00:00,7,1011.7,0.3,70,2,40000,18.52,,,310,,,,,,,,,,,wg-a,,,,AAXX 20004 07650 12/82 03110 10070 20020 30078 40117 50003 60006 80000 90000=
07650,1998-01-20 03:00:00,3,1011.7,-0.1,81,0,40000,3.704,,,10,,,,,,,,,,,wg-a,,,,AAXX 20034 07650 12/82 00102 10030 20000 30077 40117 57001 60006 80000 90300=
07650,1998-01-20 06:00:00,7,1009.9,-1.7,81,4,500,31.484,,,280,3,8.8,,,,,1,,,,wg-a,,,,AAXX 20064 07650 02600 32817 10070 20040 30060 40099 58017 60006 82531 90600 333 10088 20030 60014=
07650,1998-01-20 09:00:00,6,1014.7,4.7,52,-3,500,64.82,,88.896,320,,,,,,,,,,,wg-a,,,,AAXX 20094 07650 12500 /3235 10060 21030 30107 40147 51047 60006 81130 90900 333 91048=
07650,1998-01-20 12:00:00,6,1015.8,1.1,49,-4,40000,75.932,,92.6,330,,,,,,,,,,,wg-a,,,,AAXX 20124 07650 12682 23341 10060 21040 30118 40158 53011 60006 82100 91200 333 91050=
07650,1998-01-20 21:00:00,5,1020.6,2.3,65,-1,40000,31.484,,55.56,340,,,,,,,,,,,wg-a,,,,AAXX 20214 07650 12682 /3417 10050 21010 30166 40206 50023 60006 81500 92100 333 91030=
07650,1998-01-21 00:00:00,6,1020.2,-0.4,65,0,500,53.708,,,330,,,,,,,,,,,wg-a,,,,AAXX 21004 07650 12600 /3329 10060 20000 30162 40202 58004 60006 81500 90000=
07650,1998-01-21 03:00:00,6,1018.8,-1.4,65,0,500,25.928,,,330,,,,,,,,,,,wg-a,,,,AAXX 21034 07650 12600 /3314 10060 20000 30148 40188 56014 60006 81500 90300=
07650,1998-01-21 06:00:00,6,1018.4,-0.4,70,1,500,46.3,,74.08,340,5,6,,,,,,,,,wg-a,,,,AAXX 21064 07650 02/00 03425 10060 20010 30144 40184 55004 60006 80000 90600 333 10060 20050 60004 91040=
07650,1998-01-21 09:00:00,7,1018.7,0.4,61,0,40000,38.892,,,330,,,,,,,,,,,wg-a,,,,AAXX 21094 07650 12682 /3321 10070 20000 30148 40187 50004 60006 81500 90900=
07650,1998-01-21 12:00:00,10,1019.1,0.4,53,1,40000,35.188,,,330,,,,,,,,,,,wg-a,,,,AAXX 21124 07650 12682 /3319 10100 20010 30152 40191 50004 60006 81500 91200=
07650,1998-01-21 15:00:00,9,1018.7,-0.4,53,0,10000,50.004,,,340,,,,,,,,,,,wg-a,,,,AAXX 21154 07650 12/60 /3427 10090 20000 30148 40187 55004 60006 91500=
07650,1998-01-21 21:00:00,5,1019.3,0.3,65,-1,500,31.484,,,340,,,,,,,,,,,wg-a,,,,AAXX 21214 07650 12/00 03417 10050 21010 30153 40193 50003 60006 80000 92100=
07650,1998-01-22 00:00:00,4,1019.3,0,65,-2,500,18.52,,,350,,,,,,,,,,,wg-a,,,,AAXX 22004 07650 12/00 03510 10040 21020 30153 40193 50000 60006 80000 90000=
07650,1998-01-22 03:00:00,2,1019,-0.3,69,-3,500,18.52,,,360,,,,,,,,,,,wg-a,,,,AAXX 22034 07650 12/00 03610 10020 21030 30150 40190 58003 60006 80000 90300=
07650,1998-01-22 06:00:00,2,1019,-0,69,-3,25000,22.224,,,350,1.1,6.1,,,,,,,,,wg-a,,,,AAXX 22064 07650 02/75 03512 10020 21030 30150 40190 55000 60006 80000 90600 333 10061 20011 60004=
07650,1998-01-22 09:00:00,3,1019.4,0.4,70,-2,50000,22.224,,,340,,,,,,,,,,,wg-a,,,,AAXX 22094 07650 12/84 03412 10030 21020 30154 40194 51004 60006 80000 90900=
07650,1998-01-22 12:00:00,8,1018.6,-0.7,53,-1,50000,14.816,,,330,,,,,,,,,,,wg-a,,,,AAXX 22124 07650 12/84 03308 10080 21010 30147 40186 58007 60006 80000 91200=
07650,1998-01-22 15:00:00,8,1016.9,-1.7,53,-1,50000,22.224,,,320,,,,,,,,,,,wg-a,,,,AAXX 22154 07650 12/84 03212 10080 21010 30130 40169 56017 60006 80000 91500=
07650,1998-01-22 18:00:00,3,1016.8,-0.2,70,-2,25000,18.52,,,310,1.2,8.7,,,,,,,,,wg-a,,,,AAXX 22184 07650 12/75 03110 10030 21020 30128 40168 55002 60006 80000 91800 333 10087 20012=
07650,1998-01-22 21:00:00,0,1016.8,-0.1,80,-3,10000,3.704,,,10,,,,,,,,,,,wg-a,,,,AAXX 22214 07650 12/60 /0102 10000 21030 30120 40168 58001 60006 92100=
07650,1998-01-23 03:00:00,3,1016.9,0,87,1,15000,14.816,,,100,,,,,,,,,,,wg-a,,,,AAXX 23034 07650 12/65 31008 10030 20010 30129 40169 50000 60006 83030 90300=
07650,1998-01-23 06:00:00,1,1018.1,1.2,86,-1,15000,7.408,,,150,-1.1,3.5,,,,,,,,,wg-a,,,,AAXX 23064 07650 02/65 11504 10010 21010 30141 40181 53012 60006 81030 90600 333 10035 21011 60004=
07650,1998-01-23 09:00:00,4,1019.3,1.2,81,1,8000,3.704,,,220,,,,,,,,,,,wg-a,,,,AAXX 23094 07650 12658 /2202 10040 20010 30153 40193 53012 60006 81500 90900=
07650,1998-01-23 12:00:00,9,1019.1,-0.1,61,2,15000,7.408,,,250,,,,,,,,,,,wg-a,,,,AAXX 23124 07650 12565 22504 10090 20020 30152 40191 58001 60006 81202 91200=
07650,1998-01-23 15:00:00,12,1018.3,-0.8,54,3,18000,3.704,,,300,,,,,,,,,,,wg-a,,,,AAXX 23154 07650 12668 23002 10120 20030 30144 40183 55008 60006 82100 91500=
07650,1998-01-23 18:00:00,7,1019.3,0.9,70,2,11000,7.408,,,10,0,12.3,,,,,,,,,wg-a,,,,AAXX 23184 07650 12/61 /0104 10070 20020 30153 40193 53009 60006 91800 333 10123 20000=
07650,1998-01-23 21:00:00,3,1019.8,0.5,81,0,15000,11.112,,,110,,,,,,,,,,,wg-a,,,,AAXX 23214 07650 12665 /1106 10030 20000 30158 40198 51005 60006 81500 92100=
07650,1998-01-24 00:00:00,1,1019.6,-0.2,86,-1,12000,3.704,,,180,,,,,,,,,,,wg-a,,,,AAXX 24004 07650 12/62 01802 10010 21010 30156 40196 58002 60006 80000 90000=
07650,1998-01-24 03:00:00,0,1018.6,-1,93,-1,12000,7.408,,,130,,,,,,,,,,,wg-a,,,,AAXX 24034 07650 12/62 01304 10000 21010 30146 40186 58010 60006 80000 90300=
07650,1998-01-24 06:00:00,-1,1017.8,-0.9,93,-2,12000,7.408,,,140,-0.7,6.9,,,,,,,,,wg-a,,,,AAXX 24064 07650 02/62 01404 11010 21020 30137 40178 56009 60006 80000 90600 333 10069 21007 60004=
07650,1998-01-24 09:00:00,3,1017.4,-0.3,87,1,12000,3.704,,,260,,,,,,,,,,,wg-a,,,,AAXX 24094 07650 32/62 02602 10030 20010 30134 40174 58003 80000 90900=
07650,1998-01-24 12:00:00,8,1015.4,-1.9,57,0,12000,14.816,,,310,,,,,,,,,,,wg-a,,,,AAXX 24124 07650 12/62 13108 10080 20000 30115 40154 58019 60006 80002 91200=
07650,1998-01-24 18:00:00,3,1013.4,-0.4,65,-3,15000,22.224,,,310,-1.1,9.1,,,,,,,,,wg-a,,,,AAXX 24184 07650 12/65 13112 10030 21030 30094 40134 58004 60006 80002 91800 333 10091 21011=
07650,1998-01-24 21:00:00,1,1012.7,-0.7,75,-3,12000,22.224,,,330,,,,,,,,,,,wg-a,,,,AAXX 24214 07650 12/62 03312 10010 21030 30087 40127 56007 60006 80000 92100=
07650,1998-01-25 00:00:00,-2,1012,-0.8,86,-4,12000,3.704,,,140,,,,,,,,,,,wg-a,,,,AAXX 25004 07650 12/62 01402 11020 21040 30079 40120 57008 60006 80000 90000=
07650,1998-01-25 03:00:00,-1,1011.3,-0.6,86,-3,10000,11.112,,,120,,,,,,,,,,,wg-a,,,,AAXX 25034 07650 12560 61206 11010 21030 30073 40113 55006 60006 84502 90300=
07650,1998-01-25 06:00:00,0,1011.8,0.5,80,-3,9000,11.112,,,130,-1.8,3,,,,,,,,,wg-a,,,,AAXX 25064 07650 02559 31306 10000 21030 30078 40118 53005 60006 81502 90600 333 10030 21018 60004=
07650,1998-01-25 09:00:00,2,1013.9,2.1,80,-1,7000,7.408,,,160,,,,,,,,,,,wg-a,,,,AAXX 25094 07650 12557 71604 10020 21010 30099 40139 51021 60006 875// 90900=
07650,1998-01-25 12:00:00,4,1015.4,1.5,81,1,4000,7.408,,,260,,,,,,,,,,10,wg-a,,,,AAXX 25124 07650 12540 72604 10040 20010 30114 40154 51015 60006 71011 875// 91200=
07650,1998-01-25 15:00:00,4,1017,1.6,87,2,2000,3.704,,,80,,,,0,,,,,,10,wg-a,,,,AAXX 25154 07650 12220 80802 10040 20020 30130 40170 53016 60007 71062 8587/ 91500=
07650,1998-01-25 18:00:00,5,1018.4,1.4,93,4,4000,3.704,,,210,-0.4,4.9,,1,,,,,,10,wg-a,,,,AAXX 25184 07650 02540 72102 10050 20040 30144 40184 53014 60006 71062 875// 91800 333 10049 21004 60017=
07650,1998-01-25 21:00:00,4,1019.9,1.5,100,4,500,11.112,,,130,,,,,,,,,,,wg-a,,,,AAXX 25214 07650 12500 71306 10040 20040 30159 40199 53015 60006 8557/ 92100=
07650,1998-01-26 00:00:00,2,1020.9,1,93,1,800,3.704,,,120,,,,0,,,,,,41,wg-a,,,,AAXX 26004 07650 02108 /1202 10020 20010 30169 40209 53010 60006 74141 81700 90000 333 60007=
07650,1998-01-26 03:00:00,1,1020.8,-0.1,100,1,12000,3.704,,,190,,,,,,,,,,3,wg-a,,,,AAXX 26034 07650 12/62 41902 10010 20010 30168 40208 56001 60006 70340 84030 90300=
07650,1998-01-26 06:00:00,2,1021.2,0.4,100,2,12000,7.408,,,210,1,4.9,,,,,2,,,2,wg-a,,,,AAXX 26064 07650 02562 /2104 10020 20020 30172 40212 53004 60006 70241 81530 90600 333 10049 20010 60024=
07650,1998-01-26 09:00:00,5,1022.4,1.2,87,3,15000,3.704,,,160,,,,,,,,,,,wg-a,,,,AAXX 26094 07650 12665 /1602 10050 20030 30184 40224 51012 60006 81500 90900=
07650,1998-01-26 12:00:00,9,1021.8,-0.5,66,3,15000,7.408,,,220,,,,,,,,,,,wg-a,,,,AAXX 26124 07650 12565 /2204 10090 20030 30179 40218 58005 60006 81101 91200=
07650,1998-01-26 15:00:00,11,1020.6,-1.2,50,1,15000,11.112,,,270,,,,,,,,,,,wg-a,,,,AAXX 26154 07650 12565 /2706 10110 20010 30167 40206 56012 60006 81101 91500=
07650,1998-01-26 18:00:00,6,1020.7,-0,81,3,9000,7.408,,,210,1.7,11.4,,,,,,,,,wg-a,,,,AAXX 26184 07650 12659 /2104 10060 20030 30167 40207 55000 60006 81401 91800 333 10114 20017=
07650,1998-01-26 21:00:00,3,1021.1,0.4,87,1,7000,7.408,,,160,,,,,,,,,,,wg-a,,,,AAXX 26214 07650 12557 21604 10030 20010 30171 40211 51004 60006 81502 92100=
07650,1998-01-27 00:00:00,1,1021.1,-0.1,93,0,7000,3.704,,,150,,,,,,,,,,,wg-a,,,,AAXX 27004 07650 12557 21502 10010 20000 30170 40211 58001 60006 81502 90000=
07650,1998-01-27 03:00:00,2,1020,-1,93,1,7000,7.408,,,50,,,,,,,,,,,wg-a,,,,AAXX 27034 07650 12657 /0504 10020 20010 30160 40200 58010 60006 85500 90300=
07650,1998-01-27 06:00:00,3,1019.4,-0.6,93,2,9000,7.408,,,200,0.5,5.9,,,,,,,,,wg-a,,,,AAXX 27064 07650 02659 72004 10030 20020 30154 40194 56006 60006 87500 90600 333 10059 20005 60004=
07650,1998-01-27 09:00:00,8,1019.7,0.4,61,1,12000,11.112,,,110,,,,,,,,,,,wg-a,,,,AAXX 27094 07650 12762 51106 10080 20010 30158 40197 52004 60006 84530 90900=
07650,1998-01-27 12:00:00,13,1018.9,-0.8,41,0,17000,11.112,,,40,,,,,,,,,,,wg-a,,,,AAXX 27124 07650 12667 30406 10130 20000 30150 40189 58008 60006 81530 91200=
07650,1998-01-27 15:00:00,11,1017.7,-1.2,50,1,20000,14.816,,,180,,,,,,,,,,,wg-a,,,,AAXX 27154 07650 12670 /1808 10110 20010 30138 40177 56012 60006 81502 91500=
07650,1998-01-27 18:00:00,6,1017.7,-0.1,70,1,12000,3.704,,,110,3.2,12.7,,,,,,,,,wg-a,,,,AAXX 27184 07650 12/62 21102 10060 20010 30137 40177 55001 60006 80002 91800 333 10127 20032=
07650,1998-01-27 21:00:00,5,1018.4,0.7,65,-1,9000,11.112,,,120,,,,,,,,,,,wg-a,,,,AAXX 27214 07650 12/59 /1206 10050 21010 30144 40184 51007 60006 80001 92100=
07650,1998-01-28 00:00:00,4,1018.4,0,70,-1,8000,11.112,,,60,,,,,,,,,,,wg-a,,,,AAXX 28004 07650 12/58 /0606 10040 21010 30144 40184 50000 60006 80001 90000=
07650,1998-01-28 03:00:00,3,1018,-0.4,70,-2,8000,3.704,,,70,,,,,,,,,,,wg-a,,,,AAXX 28034 07650 12/58 /0702 10030 21020 30140 40180 58004 60006 80001 90300=
07650,1998-01-28 06:00:00,2,1017.3,-0.7,75,-2,8000,3.704,,,170,1.9,6.4,,,,,,,,,wg-a,,,,AAXX 28064 07650 02/58 /1702 10020 21020 30133 40173 56007 60006 80001 90600 333 10064 20019 60004=
07650,1998-01-28 12:00:00,9,1016.8,-1,57,1,14000,11.112,,,260,,,,,,,,,,,wg-a,,,,AAXX 28124 07650 12/64 12606 10090 20010 30129 40168 58010 60006 81031 91200=
07650,1998-01-28 15:00:00,11,1015.9,-0.9,43,-1,18000,14.816,,,280,,,,,,,,,,,wg-a,,,,AAXX 28154 07650 12/68 12808 10110 21010 30120 40159 57009 60006 80001 91500=
07650,1998-01-28 18:00:00,7,1015.3,-0.6,61,0,14000,11.112,,,120,1.4,11.2,,,,,,,,,wg-a,,,,AAXX 28184 07650 12/64 11206 10070 20000 30114 40153 56006 60006 80002 91800 333 10112 20014=
07650,1998-01-28 21:00:00,3,1016.3,0.9,81,0,12000,3.704,,,10,,,,,,,,,,,wg-a,,,,AAXX 28214 07650 12/62 10102 10030 20000 30123 40163 52009 60006 80002 92100=
07650,1998-01-29 00:00:00,1,1016.5,0.2,86,-1,10000,3.704,,,100,,,,,,,,,,,wg-a,,,,AAXX 29004 07650 12/60 11002 10010 21010 30125 40165 50002 60006 80002 90000=
07650,1998-01-29 03:00:00,2,1016,-0.5,87,0,12000,3.704,,,170,,,,,,,,,,,wg-a,,,,AAXX 29034 07650 12662 /1702 10020 20000 30120 40160 58005 60006 86500 90300=
07650,1998-01-29 06:00:00,3,1015.7,-0.3,75,-1,12000,0,,,0,0.3,6.7,,,,,,,,,wg-a,,,,AAXX 29064 07650 02/62 00000 10030 21010 30117 40157 55003 60006 80000 90600 333 10067 20003 60004=
07650,1998-01-29 09:00:00,5,1016.5,0.8,75,1,6000,3.704,,,270,,,,,,,,,,,wg-a,,,,AAXX 29094 07650 12/56 /2702 10050 20010 30125 40165 53008 60006 80001 90900=
07650,1998-01-29 12:00:00,8,1016.5,0.1,61,1,12000,7.408,,,260,,,,,,,,,,,wg-a,,,,AAXX 29124 07650 12/62 12604 10080 20010 30126 40165 50001 60006 80002 91200=
07650,1998-01-29 15:00:00,11,1015.4,-1.1,54,2,9000,14.816,,,250,,,,,,,,,,,wg-a,,,,AAXX 29154 07650 12/59 /2508 10110 20020 30115 40154 56011 60006 91500=
07650,1998-01-29 18:00:00,6,1016.7,1.2,70,1,12000,11.112,,,290,2,10.8,,,,,,,,,wg-a,,,,AAXX 29184 07650 12/62 /2906 10060 20010 30127 40167 53012 60006 80002 91800 333 10108 20020=
07650,1998-01-29 21:00:00,2,1018.2,1.5,80,-1,7000,11.112,,,110,,,,,,,,,,,wg-a,,,,AAXX 29214 07650 12657 11106 10020 21010 30142 40182 51015 60006 81500 92100=
07650,1998-01-30 00:00:00,2,1018.7,0.5,87,0,6000,7.408,,,100,,,,,,,,,,,wg-a,,,,AAXX 30004 07650 12656 /1004 10020 20000 30147 40187 51005 60006 86500 90000=
07650,1998-01-30 03:00:00,2,1018.7,0,87,0,6000,7.408,,,120,,,,,,,,,,,wg-a,,,,AAXX 30034 07650 12656 41204 10020 20000 30147 40187 50000 60006 84500 90300=
07650,1998-01-30 06:00:00,3,1018.5,-0.2,93,2,9000,3.704,,,220,1.3,5.7,,,,,,,,,wg-a,,,,AAXX 30064 07650 02559 /2202 10030 20020 30145 40185 58002 60006 85500 90600 333 10057 20013 60004=
07650,1998-01-30 09:00:00,7,1019.1,0.6,76,3,8000,3.704,,,180,,,,,,,,,,,wg-a,,,,AAXX 30094 07650 12658 71802 10070 20030 30151 40191 51006 60006 8553/ 90900=
07650,1998-01-30 21:00:00,7,1014.8,-0.6,87,5,500,0,,,0,,,,,,,,,,2,wg-a,,,,AAXX 30214 07650 02500 70000 10070 20050 30109 40148 58006 61000 70262 8357/ 92100 333 ////=
07650,1998-01-31 03:00:00,9,1011.5,-2.2,71,4,8000,3.704,,,80,,,,,,,,,,,wg-a,,,,AAXX 31034 07650 12558 70802 10090 20040 30076 40115 58022 60006 8257/ 90300=
07650,1998-01-31 06:00:00,9,1010.3,-1.2,66,3,8000,11.112,,,100,7,9.1,,,,,,,,,wg-a,,,,AAXX 31064 07650 02558 71006 10090 20030 30064 40103 58012 60006 8257/ 90600 333 10091 20070 61000=
07650,1998-01-31 12:00:00,12,1008.6,-1.8,50,2,17000,7.408,,,30,,,,,,,,,,,wg-a,,,,AAXX 31124 07650 12667 70304 10120 20020 30048 40086 58018 60006 8557/ 91200=
07650,1998-01-31 15:00:00,12,1007.1,-1.5,54,3,20000,3.704,,,220,,,,,,,,,,,wg-a,,,,AAXX 31154 07650 12670 /2202 10120 20030 30033 40071 56015 60006 83542 91500=
07650,1998-01-31 18:00:00,9,1008.1,0.9,71,4,10000,3.704,,,180,8.4,13.9,,,,,,,,,wg-a,,,,AAXX 31184 07650 12/60 61802 10090 20040 30042 40081 53009 60006 83042 91800 333 10139 20084=
07650,1998-02-01 00:00:00,5,1009,0.6,87,3,11000,7.408,,,150,,,,,,,,,,,wg-a,,,,AAXX 01004 07650 12/61 01504 10050 20030 30051 40090 52006 60006 80000 90000=
07650,1998-02-01 03:00:00,4,1009.2,0.1,93,3,7000,7.408,,,140,,,,,,,,,,,wg-a,,,,AAXX 01034 07650 12/57 41404 10040 20030 30052 40092 53001 60006 83032 90300=
07650,1998-02-01 06:00:00,3,1009.4,0.2,93,2,7000,0,,,0,2.7,9,,,,,,,,,wg-a,,,,AAXX 01064 07650 02757 /0000 10030 20020 30054 40094 51002 60006 82532 90600 333 10090 20027 60004=
07650,1998-02-01 09:00:00,5,1011,1.7,87,3,6000,3.704,,,280,,,,,,,,,,,wg-a,,,,AAXX 01094 07650 12756 32802 10050 20030 30071 40110 52017 60006 81530 90900=
07650,1998-02-01 12:00:00,10,1011.1,0.1,62,3,8000,3.704,,,270,,,,,,,,,,,wg-a,,,,AAXX 01124 07650 12/58 /2702 10100 20030 30072 40111 50001 60006 84030 91200=
07650,1998-02-01 15:00:00,12,1010.6,-0.4,54,3,12000,3.704,,,340,,,,,,,,,,,wg-a,,,,AAXX 01154 07650 12/62 /3402 10120 20030 30068 40106 55004 60006 81030 91500=
07650,1998-02-01 18:00:00,8,1011.7,1,71,3,15000,3.704,,,120,1.6,12.4,,,,,,,,,wg-a,,,,AAXX 01184 07650 12/65 21202 10080 20030 30078 40117 53010 60006 82030 91800 333 10124 20016=
07650,1998-02-01 21:00:00,5,1012.8,1,81,2,12000,3.704,,,100,,,,,,,,,,,wg-a,,,,AAXX 01214 07650 12/62 31002 10050 20020 30088 40128 53010 60006 83030 92100=
07650,1998-02-02 00:00:00,5,1012.5,-0.3,87,3,9000,3.704,,,140,,,,,,,,,,,wg-a,,,,AAXX 02004 07650 12659 /1402 10050 20030 30085 40125 58003 60006 86500 90000=
07650,1998-02-02 03:00:00,6,1011.5,-0.9,87,4,9000,7.408,,,240,,,,,,,,,,,wg-a,,,,AAXX 02034 07650 12659 72404 10060 20040 30076 40115 58009 60006 875// 90300=
07650,1998-02-02 06:00:00,6,1010.7,-0.8,87,4,9000,3.704,,,340,3.5,7.7,,,,,,,,,wg-a,,,,AAXX 02064 07650 02659 /3402 10060 20040 30068 40107 56008 60006 86500 90600 333 10077 20035 60004=
07650,1998-02-02 09:00:00,10,1010.6,-0.1,76,6,10000,7.408,,,130,,,,,,,,,,,wg-a,,,,AAXX 02094 07650 12460 /1304 10100 20060 30067 40106 56001 60006 85830 90900=
07650,1998-02-02 12:00:00,12,1009.6,-0.9,67,6,13000,14.816,,,170,,,,,,,,,,,wg-a,,,,AAXX 02124 07650 12563 81708 10120 20060 30058 40096 58009 60006 8587/ 91200=
07650,1998-02-02 15:00:00,12,1008.3,-1.3,62,5,15000,11.112,,,150,,,,,,,,,,,wg-a,,,,AAXX 02154 07650 12565 81506 10120 20050 30045 40083 57013 60006 85870 91500=
07650,1998-02-02 18:00:00,11,1008.2,-0.2,71,6,10000,7.408,,,100,6.1,12.7,,,,,,,,,wg-a,,,,AAXX 02184 07650 12660 81004 10110 20060 30043 40082 58002 60006 8357/ 91800 333 10127 20061=
07650,1998-02-02 21:00:00,10,1008.2,0,82,7,8000,7.408,,,60,,,,0,,,,,,61,wg-a,,,,AAXX 02214 07650 12658 80604 10100 20070 30043 40082 50000 60007 76162 8457/ 92100=
07650,1998-02-03 00:00:00,9,1007.4,-0.8,87,7,7000,11.112,,,80,,,,,,,,,,60,wg-a,,,,AAXX 03004 07650 02557 80806 10090 20070 30035 40074 56008 60006 76062 875// 90000 333 61000=
07650,1998-02-03 03:00:00,9,1006.8,-0.6,81,6,7000,3.704,,,110,,,,1,,,,,,60,wg-a,,,,AAXX 03034 07650 12657 81102 10090 20060 30029 40068 56006 60017 76066 8457/ 90300=
07650,1998-02-03 06:00:00,8,1006.1,-0.7,87,6,8000,11.112,,,60,8.1,11.1,,,,,,,,60,wg-a,,,,AAXX 03064 07650 02658 80606 10080 20060 30022 40061 56007 61000 76066 8357/ 90600 333 10111 20081 6002=
07650,1998-02-03 09:00:00,9,1005.5,-0.6,81,6,8000,7.408,,,90,,,,0,,,,,,2,wg-a,,,,AAXX 03094 07650 12658 70904 10090 20060 30016 40055 56006 60007 70262 8357/ 90900=
07650,1998-02-03 12:00:00,11,1004.6,-0.8,76,7,8000,18.52,,,80,,,,,,,,,,3,wg-a,,,,AAXX 03124 07650 12458 70810 10110 20070 30008 40046 58008 60006 70362 8457/ 91200=
07650,1998-02-03 15:00:00,11,1003.3,-1.3,76,7,8000,7.408,,27.78,10,,,,,,,,,,3,wg-a,,,,AAXX 03154 07650 02658 70104 10110 20070 39995 40033 55013 61000 70362 8557/ 91500 333 //// 91015=
07650,1998-02-03 18:00:00,9,1003.2,-0.2,81,6,8000,11.112,,,340,7.8,11.3,,,,,,,,1,wg-a,,,,AAXX 03184 07650 12658 73406 10090 20060 39993 40032 56002 60006 70162 84532 91800 333 10113 20078=
07650,1998-02-03 21:00:00,7,1003.8,0.6,87,5,12000,7.408,,,150,,,,,,,,,,,wg-a,,,,AAXX 03214 07650 12662 71504 10070 20050 39999 40038 51006 60006 82532 92100=
07650,1998-02-04 00:00:00,5,1004,0.2,87,3,12000,7.408,,,330,,,,,,,,,,,wg-a,,,,AAXX 04004 07650 12662 73304 10050 20030 30001 40040 53002 60006 81532 90000=
07650,1998-02-04 03:00:00,4,1004.4,0.4,87,2,8000,14.816,,,340,,,,,,,,,,,wg-a,,,,AAXX 04034 07650 12658 73408 10040 20020 30005 40044 52004 60006 81532 90300=
07650,1998-02-04 06:00:00,3,1005.1,0.6,87,1,8000,7.408,,,350,2.7,8.7,,,,,,,,,wg-a,,,,AAXX 04064 07650 02658 73504 10030 20010 30011 40051 53006 60006 81532 90600 333 10087 20027 60004=
07650,1998-02-04 12:00:00,7,1007.1,0.9,70,2,7000,18.52,,,270,,,,,,,,,,,wg-a,,,,AAXX 04124 07650 12657 /2710 10070 20020 30032 40071 51009 60006 81532 91200=
07650,1998-02-04 15:00:00,8,1007.2,0.1,61,1,7000,11.112,,,270,,,,,,,,,,,wg-a,,,,AAXX 04154 07650 12657 /2706 10080 20010 30033 40072 53001 60006 81532 91500=
07650,1998-02-04 18:00:00,5,1008.9,1.7,70,0,7000,11.112,,,300,2.6,8.3,,,,,,,,,wg-a,,,,AAXX 04184 07650 12657 /3006 10050 20000 30050 40089 53017 60006 81532 91800 333 10083 20026=
07650,1998-02-05 00:00:00,0,1011.5,0.7,80,-3,10000,11.112,,,350,,,,,,,,,,,wg-a,,,,AAXX 05004 07650 12/60 23506 10000 21030 30075 40115 51007 60006 80001 90000=
07650,1998-02-05 03:00:00,-2,1012,0.4,93,-3,8000,0,,,0,,,,,,,,,,,wg-a,,,,AAXX 05034 07650 12/58 /0000 11020 21030 30079 40120 52004 60006 80001 90300=
07650,1998-02-05 06:00:00,-1,1013,1,86,-3,7000,11.112,,,360,-2.2,5.1,,,,,,,,,wg-a,,,,AAXX 05064 07650 02/57 /3606 11010 21030 30089 40130 53010 60006 80001 90600 333 10051 21022 60004=
07650,1998-02-05 09:00:00,2,1014.5,1.6,80,-1,7000,11.112,,,340,,,,,,,,,,,wg-a,,,,AAXX 05094 07650 12/57 03406 10020 21010 30105 40145 51016 60006 80000 90900=
07650,1998-02-05 12:00:00,9,1013.9,-0.5,49,-1,8000,14.816,,,290,,,,,,,,,,,wg-a,,,,AAXX 05124 07650 12/58 02908 10090 21010 30100 40139 58005 60006 80000 91200=
07650,1998-02-05 15:00:00,11,1013.7,-0.2,50,1,10000,14.816,,,270,,,,,,,,,,,wg-a,,,,AAXX 05154 07650 12/60 02708 10110 20010 30098 40137 55002 60006 80000 91500=
07650,1998-02-05 18:00:00,7,1015.4,1.7,66,1,9000,0,,,0,-1.6,11.6,,,,,,,,,wg-a,,,,AAXX 05184 07650 12/59 00000 10070 20010 30115 40154 53017 60006 80000 91800 333 10116 21016=
07650,1998-02-06 00:00:00,0,1018.5,1.4,86,-2,6000,7.408,,,150,,,,,,,,,,,wg-a,,,,AAXX 06004 07650 12/56 01504 10000 21020 30144 40185 51014 60006 80000 90000=
07650,1998-02-06 03:00:00,-1,1018.7,0.2,93,-2,500,3.704,,,120,,,,,,,,,,,wg-a,,,,AAXX 06034 07650 12/00 01202 11010 21020 30146 40187 51002 60006 80000 90300=
07650,1998-02-06 06:00:00,-1,1019.4,0.7,93,-2,500,7.408,,,120,-1.6,6.8,,,,,,,,,wg-a,,,,AAXX 06064 07650 02/00 01204 11010 21020 30153 40194 53007 60006 80000 90600 333 10068 21016 60004=
07650,1998-02-06 12:00:00,10,1021.2,0.2,46,-1,8000,3.704,,,260,,,,,,,,,,,wg-a,,,,AAXX 06124 07650 12/58 02602 10100 21010 30173 40212 50002 60006 80000 91200=
07650,1998-02-06 15:00:00,13,1020.8,-0.4,41,0,9000,7.408,,,240,,,,,,,,,,,wg-a,,,,AAXX 06154 07650 12/59 32404 10130 20000 30169 40208 55004 60006 80002 91500=
07650,1998-02-06 18:00:00,8,1021.7,0.8,53,-1,9000,7.408,,,150,-1.9,13.7,,,,,,,,,wg-a,,,,AAXX 06184 07650 12/59 21504 10080 21010 30177 40217 53008 60006 80002 91800 333 10137 21019=
07650,1998-02-06 21:00:00,2,1023.2,1.5,80,-1,12000,11.112,,,130,,,,,,,,,,,wg-a,,,,AAXX 06214 07650 12/62 01306 10020 21010 30192 40232 51015 60006 80000 92100=
07650,1998-02-07 00:00:00,1,1024.2,0.9,80,-2,6000,3.704,,,140,,,,,,,,,,,wg-a,,,,AAXX 07004 07650 12/56 01402 10010 21020 30201 40242 53009 60006 80000 90000=
07650,1998-02-07 03:00:00,-1,1024.3,0.1,86,-3,8000,3.704,,,130,,,,,,,,,,,wg-a,,,,AAXX 07034 07650 12/58 01302 11010 21030 30202 40243 52001 60006 80000 90300=
07650,1998-02-07 06:00:00,-2,1024.9,0.6,93,-3,8000,0,,,0,-2.1,8,,,,,,,,,wg-a,,,,AAXX 07064 07650 02/58 20000 11020 21030 30208 40249 53006 60006 80001 90600 333 10080 21021 60004=
07650,1998-02-07 09:00:00,4,1026,1.2,70,-1,10000,0,,,0,,,,0,,,,,,,wg-a,,,,AAXX 07094 07650 12/60 20000 10040 21010 30220 40260 52012 60007 80001 90900=
07650,1998-02-07 12:00:00,10,1026.2,0.3,46,-1,12000,3.704,,,210,,,,,,,,,,,wg-a,,,,AAXX 07124 07650 12/62 62102 10100 21010 30223 40262 50003 60006 80002 91200=
07650,1998-02-07 15:00:00,12,1025.2,-1,47,1,10000,11.112,,,260,,,,,,,,,,,wg-a,,,,AAXX 07154 07650 12/60 52606 10120 20010 30213 40252 58010 60006 80002 91500=
07650,1998-02-07 18:00:00,7,1025.7,0.4,76,3,9000,11.112,,,250,-2.1,12.5,,,,,,,,,wg-a,,,,AAXX 07184 07650 12/59 /2506 10070 20030 30217 40257 53004 60006 80002 91800 333 10125 21021=
07650,1998-02-07 21:00:00,3,1025.7,-0,93,2,8000,3.704,,,170,,,,,,,,,,,wg-a,,,,AAXX 07214 07650 12/58 21702 10030 20020 30217 40257 55000 60006 80002 92100=
07650,1998-02-08 00:00:00,6,1025.2,-0.5,61,-1,10000,29.632,,,320,,,,,,,,,,,wg-a,,,,AAXX 08004 07650 12/60 13216 10060 21010 30212 40252 56005 60006 80002 90000=
07650,1998-02-08 03:00:00,8,1025.2,-0,66,2,10000,35.188,,,320,,,,,,,,,,,wg-a,,,,AAXX 08034 07650 12/60 /3219 10080 20020 30212 40252 54000 60006 90300=
07650,1998-02-08 06:00:00,6,1024.8,-0.4,75,2,20000,35.188,,,320,2.2,8.8,,,,,,,,,wg-a,,,,AAXX 08064 07650 02/70 03219 10060 20020 30208 40248 58004 60006 80000 90600 333 10088 20022 60004=
07650,1998-02-08 12:00:00,11,1026,-0.3,54,2,20000,14.816,,,280,,,,,,,,,,,wg-a,,,,AAXX 08124 07650 12/70 42808 10110 20020 30221 40260 58003 60006 80002 91200=
07650,1998-02-08 15:00:00,13,1025.8,-0.2,51,3,20000,11.112,,,260,,,,,,,,,,,wg-a,,,,AAXX 08154 07650 12/70 52606 10130 20030 30219 40258 55002 60006 80001 91500=
07650,1998-02-08 18:00:00,9,1027.9,2,61,2,25000,3.704,,,180,5.7,13.3,,,,,,,,,wg-a,,,,AAXX 08184 07650 12/75 31802 10090 20020 30239 40279 53020 60006 80001 91800 333 10133 20057=
07650,1998-02-08 21:00:00,5,1029.6,1.7,81,2,20000,0,,,0,,,,,,,,,,,wg-a,,,,AAXX 08214 07650 12/70 20000 10050 20020 30256 40296 51017 60006 80001 92100=
07650,1998-02-09 00:00:00,2,1030.4,0.7,87,0,10000,3.704,,,150,,,,,,,,,,,wg-a,,,,AAXX 09004 07650 12/60 11502 10020 20000 30263 40304 50007 60006 80001 90000=
07650,1998-02-09 03:00:00,1,1030.3,-0.1,86,-1,10000,0,,,0,,,,,,,,,,,wg-a,,,,AAXX 09034 07650 12/60 00000 10010 21010 30262 40303 58001 60006 80000 90300=
07650,1998-02-09 06:00:00,0,1030.8,0.5,93,-1,15000,3.704,,,160,0.4,8.7,,,,,,,,,wg-a,,,,AAXX 09064 07650 02/65 01602 10000 21010 30267 40308 53005 60006 80000 90600 333 10087 20004 60004=
07650,1998-02-09 09:00:00,5,1032.4,1.7,75,1,10000,3.704,,,250,,,,,,,,,,,wg-a,,,,AAXX 09094 07650 12/60 /2502 10050 20010 30284 40324 51017 60006 90900=
07650,1998-02-09 12:00:00,12,1031.7,-0.6,50,2,12000,3.704,,,250,,,,,,,,,,,wg-a,,,,AAXX 09124 07650 12/62 02502 10120 20020 30278 40317 58006 60006 80000 91200=
07650,1998-02-09 15:00:00,15,1031,,31,-2,18000,18.52,,,170,,,,,,,,,,,wg-a,,,,AAXX 09154 07650 32/68 01710 10150 21020 30271 40310 80000 91500=
07650,1998-02-09 18:00:00,10,1032.1,1,50,0,10000,7.408,,,150,0.3,15,,,,,,,,,wg-a,,,,AAXX 09184 07650 12/60 /1504 10100 20000 30281 40321 53010 60006 91800 333 10150 20003=
07650,1998-02-09 21:00:00,7,1033.1,1,66,1,20000,3.704,,,180,,,,,,,,,,,wg-a,,,,AAXX 09214 07650 12/70 01802 10070 20010 30291 40331 51010 60006 80000 92100=
07650,1998-02-10 00:00:00,6,1033.6,0.5,65,0,15000,7.408,,,250,,,,,,,,,,,wg-a,,,,AAXX 10004 07650 12/65 02504 10060 20000 30296 40336 51005 60006 80000 90000=
07650,1998-02-10 03:00:00,2,1033.1,-0.6,87,0,15000,3.704,,,10,,,,,,,,,,,wg-a,,,,AAXX 10034 07650 12/65 00102 10020 20000 30290 40331 57006 60006 80000 90300=
07650,1998-02-10 06:00:00,1,1033.6,0.5,86,-1,12000,3.704,,,110,0.7,10.2,,,,,,,,,wg-a,,,,AAXX 10064 07650 12/62 01102 10010 21010 30295 40336 52005 60006 80000 90600 333 10102 20007=
07650,1998-02-10 12:00:00,12,1034.2,-0.4,58,4,15000,7.408,,,260,,,,,,,,,,,wg-a,,,,AAXX 10124 07650 12/65 02604 10120 20040 30303 40342 58004 60006 80000 91200=
07650,1998-02-10 15:00:00,14,1033,-1.2,58,6,500,11.112,,,250,,,,,,,,,,,wg-a,,,,AAXX 10154 07650 12/00 02506 10140 20060 30291 40330 56012 60006 80000 91500=
07650,1998-02-10 18:00:00,10,1034,0.9,76,6,500,3.704,,,170,0.5,14.8,,,,,,,,,wg-a,,,,AAXX 10184 07650 12/00 01702 10100 20060 30300 40340 53009 60006 80000 91800 333 10148 20005=
07650,1998-02-10 21:00:00,5,1034.6,0.6,93,4,10000,3.704,,,60,,,,,,,,,,,wg-a,,,,AAXX 10214 07650 12/60 /0602 10050 20040 30306 40346 52006 60006 92100=
07650,1998-02-11 00:00:00,3,1035.3,0.6,93,2,15000,3.704,,,10,,,,,,,,,,,wg-a,,,,AAXX 11004 07650 12/65 00102 10030 20020 30312 40353 51006 60006 80000 90000=
07650,1998-02-11 06:00:00,2,1034.9,-0.1,100,2,8000,3.704,,,260,1.6,9.6,,,,,,,,,wg-a,,,,AAXX 11064 07650 02/58 02602 10020 20020 30308 40349 55001 60006 80000 90600 333 10096 20016 60004=
07650,1998-02-11 12:00:00,13,1035.4,-0.3,58,5,12000,3.704,,,320,,,,,,,,,,,wg-a,,,,AAXX 11124 07650 12562 13202 10130 20050 30315 40354 58003 60006 81101 91200=
07650,1998-02-11 15:00:00,15,1034.2,-1.2,55,6,15000,3.704,,,300,,,,,,,,,,,wg-a,,,,AAXX 11154 07650 12/65 13002 10150 20060 30303 40342 56012 60006 80001 91500=
07650,1998-02-11 18:00:00,10,1034.6,0.3,76,6,12000,3.704,,,220,1.1,15.1,,,,,,,,,wg-a,,,,AAXX 11184 07650 12/62 02202 10100 20060 30306 40346 53003 60006 80000 91800 333 10151 20011=
07650,1998-02-11 21:00:00,6,1035.3,0.7,93,5,12000,3.704,,,30,,,,,,,,,,,wg-a,,,,AAXX 11214 07650 12/62 00302 10060 20050 30313 40353 51007 60006 80000 92100=
07650,1998-02-12 00:00:00,4,1035.2,-0.2,100,4,8000,7.408,,,170,,,,,,,,,,,wg-a,,,,AAXX 12004 07650 12/58 01704 10040 20040 30311 40352 56002 60006 80000 90000=
07650,1998-02-12 03:00:00,2,1034.9,-0.3,100,2,500,3.704,,,230,,,,,,,,,,,wg-a,,,,AAXX 12034 07650 12/00 02302 10020 20020 30308 40349 57003 60006 80000 90300=
07650,1998-02-12 06:00:00,1,1035.2,0.3,100,1,800,0,,,0,1.3,9.4,,,,,,,,40,wg-a,,,,AAXX 12064 07650 02008 /0000 10010 20010 30311 40352 53003 60006 74041 85600 90600 333 10094 20013 60004=
07650,1998-02-12 09:00:00,5,1036,0.9,100,5,3500,3.704,,,260,,,,,,,,,,,wg-a,,,,AAXX 12094 07650 12/35 /2602 10050 20050 30320 40360 51009 60006 90900=
07650,1998-02-12 12:00:00,11,1035.1,-0.9,71,6,8000,3.704,,,250,,,,,,,,,,3,wg-a,,,,AAXX 12124 07650 12258 22502 10110 20060 30311 40351 58009 60006 70341 81601 91200=
07650,1998-02-12 15:00:00,16,1033.7,-1.3,48,5,11000,3.704,,,250,,,,,,,,,,,wg-a,,,,AAXX 12154 07650 12/61 02502 10160 20050 30298 40337 56013 60006 80000 91500=
07650,1998-02-12 18:00:00,11,1033.9,0.1,76,7,11000,11.112,,,240,1.3,16.1,,,,,,,,,wg-a,,,,AAXX 12184 07650 12/61 12406 10110 20070 30299 40339 53001 60006 81030 91800 333 10161 20013=
07650,1998-02-12 21:00:00,6,1034.6,0.7,93,5,11000,7.408,,,150,,,,,,,,,,,wg-a,,,,AAXX 12214 07650 12/61 01504 10060 20050 30306 40346 51007 60006 80000 92100=
07650,1998-02-13 00:00:00,4,1034.9,0.2,93,3,8000,7.408,,,140,,,,,,,,,,,wg-a,,,,AAXX 13004 07650 12/58 /1404 10040 20030 30308 40349 52002 60006 80001 90000=
07650,1998-02-13 03:00:00,6,1034.1,-0.7,100,6,400,3.704,,,30,,,,,,,,,,10,wg-a,,,,AAXX 13034 07650 12/04 90302 10060 20060 30301 40341 58007 60006 71041 89/// 90300=
07650,1998-02-13 09:00:00,5,1034.5,0.5,100,5,200,3.704,,,10,,,,,,,,,,45,wg-a,,,,AAXX 13094 07650 32/02 90102 10050 20050 30305 40345 51005 74544 89/// 90900=
07650,1998-02-13 12:00:00,11,1033.7,-0.8,76,7,4000,3.704,,,280,,,,,,,,,,10,wg-a,,,,AAXX 13124 07650 12/40 02802 10110 20070 30297 40337 58008 60006 71041 80000 91200=
07650,1998-02-13 15:00:00,14,1032,-1.6,67,8,15000,18.52,,,240,,,,,,,,,,,wg-a,,,,AAXX 13154 07650 12/65 02410 10140 20080 30281 40320 56016 60006 80000 91500=
07650,1998-02-13 18:00:00,11,1032.3,0.3,82,8,12000,11.112,,,240,4,14.5,,,,,,,,,wg-a,,,,AAXX 13184 07650 12/62 02406 10110 20080 30284 40323 53003 60006 80000 91800 333 10145 20040=
07650,1998-02-13 21:00:00,8,1032.7,0.3,93,7,500,3.704,,,110,,,,,,,,,,,wg-a,,,,AAXX 13214 07650 12300 71102 10080 20070 30287 40327 50003 60006 87600 92100=
07650,1998-02-14 00:00:00,7,1032.7,0,93,6,3500,3.704,,,170,,,,,,,,,,10,wg-a,,,,AAXX 14004 07650 12335 /1702 10070 20060 30287 40327 50000 60006 71011 86600 90000=
07650,1998-02-14 03:00:00,8,1032.1,-0.6,93,7,1000,3.704,,,130,,,,,,,,,,28,wg-a,,,,AAXX 14034 07650 12110 81302 10080 20070 30281 40321 56006 60006 72842 88600 90300=
07650,1998-02-14 06:00:00,6,1032.2,0.1,100,6,100,7.408,,,280,6.4,10.6,,,,,,,,44,wg-a,,,,AAXX 14064 07650 02001 82804 10060 20060 30282 40322 52001 60006 74442 88600 90600 333 10106 20064 60004=
07650,1998-02-14 09:00:00,6,1033.6,1.4,100,6,200,3.704,,,120,,,,,,,,,,45,wg-a,,,,AAXX 14094 07650 12/02 91202 10060 20060 30296 40336 51014 60006 74544 89/// 90900=
07650,1998-02-14 12:00:00,8,1033.5,-0.1,87,6,1000,7.408,,,350,,,,,,,,,,28,wg-a,,,,AAXX 14124 07650 12010 /3504 10080 20060 30295 40335 58001 60006 72841 84600 91200=
07650,1998-02-14 15:00:00,13,1032.4,-1,72,8,7000,14.816,,,250,,,,,,,,,,2,wg-a,,,,AAXX 14154 07650 12/57 02508 10130 20080 30285 40324 56010 60006 70240 80000 91500=
07650,1998-02-14 18:00:00,8,1033.5,1,93,7,100,18.52,,,260,5.2,14.6,,,,,,,,44,wg-a,,,,AAXX 14184 07650 12/01 92610 10080 20070 30295 40335 53010 60006 74441 89/// 91800 333 10146 20052=
07650,1998-02-14 21:00:00,7,1033.6,0.1,100,7,2500,7.408,,,60,,,,,,,,,,10,wg-a,,,,AAXX 14214 07650 12125 /0604 10070 20070 30296 40336 50001 60006 71041 85600 92100=
07650,1998-02-15 00:00:00,6,1032.9,-0.7,100,6,3000,11.112,,,130,,,,,,,,,,10,wg-a,,,,AAXX 15004 07650 12130 71306 10060 20060 30289 40329 58007 60006 71041 876// 90000=
07650,1998-02-15 03:00:00,6,1031.1,-1.8,100,6,100,7.408,,,20,,,,,,,,,,45,wg-a,,,,AAXX 15034 07650 12/01 90204 10060 20060 30271 40311 58018 60006 74542 89/// 90300=
07650,1998-02-15 06:00:00,6,1030.5,-0.6,93,5,400,7.408,,,350,5.6,8,,,,,,,,45,wg-a,,,,AAXX 15064 07650 02/04 93504 10060 20050 30265 40305 55006 60006 74542 89/// 90600 333 10080 20056 60004=
07650,1998-02-15 09:00:00,7,1030.7,0.2,93,6,6000,3.704,,,360,,,,,,,,,,1,wg-a,,,,AAXX 15094 07650 12456 /3602 10070 20060 30267 40307 53002 60006 70141 81700 90900=
07650,1998-02-15 12:00:00,14,1030,-0.6,58,6,8000,3.704,,,290,,,,,,,,,,2,wg-a,,,,AAXX 15124 07650 12/58 02902 10140 20060 30261 40300 58006 60006 70241 80000 91200=
07650,1998-02-15 15:00:00,17,1028.7,-1.2,52,7,10000,7.408,,,240,,,,,,,,,,,wg-a,,,,AAXX 15154 07650 12/60 /2404 10170 20070 30249 40287 56012 60006 91500=
07650,1998-02-15 18:00:00,12,1029.9,1.1,88,10,7000,7.408,,,160,4.8,18,,,,,,,,,wg-a,,,,AAXX 15184 07650 12/57 /1604 10120 20100 30260 40299 53011 60006 91800 333 10180 20048=
07650,1998-02-15 21:00:00,8,1031,1,100,8,4000,7.408,,,140,,,,,,,,,,10,wg-a,,,,AAXX 15214 07650 12/40 /1404 10080 20080 30270 40310 51010 60006 71000 80001 92100=
07650,1998-02-16 00:00:00,10,1031.2,0.2,93,9,1200,3.704,,,130,,,,,,,,,,10,wg-a,,,,AAXX 16004 07650 12212 71302 10100 20090 30272 40312 50002 60006 71011 87600 90000=
07650,1998-02-16 03:00:00,8,1030.5,-0.7,93,7,300,3.704,,,140,,,,,,,,,,40,wg-a,,,,AAXX 16034 07650 12/03 91402 10080 20070 30265 40305 58007 60006 74042 89/// 90300=
07650,1998-02-16 06:00:00,5,1029.8,-0.7,100,5,200,0,,,0,5.3,11.9,,,,,,,,42,wg-a,,,,AAXX 16064 07650 02002 40000 10050 20050 30258 40298 56007 60006 74241 84600 90600 333 10119 20053 60004=
07650,1998-02-16 09:00:00,6,1030.6,0.8,100,6,500,7.408,,,270,,,,,,,,,,45,wg-a,,,,AAXX 16094 07650 12/00 92704 10060 20060 30266 40306 51008 60006 74544 89/// 90900=
07650,1998-02-16 12:00:00,9,1029.1,-1.5,93,8,400,3.704,,,280,,,,,,,,,,44,wg-a,,,,AAXX 16124 07650 12004 /2802 10090 20080 30251 40291 58015 60006 74444 83602 91200=
07650,1998-02-16 15:00:00,11,1026.7,-2.3,87,9,3000,11.112,,,260,,,,,,,,,,10,wg-a,,,,AAXX 16154 07650 12/30 /2606 10110 20090 30228 40267 57023 60006 71041 80002 91500=
07650,1998-02-16 18:00:00,10,1026.3,-0.4,87,8,3000,11.112,,,290,5.3,12.1,,,,,,,,10,wg-a,,,,AAXX 16184 07650 12230 82906 10100 20080 30224 40263 56004 60006 71041 876// 91800 333 10121 20053=
07650,1998-02-16 21:00:00,9,1025.5,-0.8,100,9,1500,11.112,,,300,,,,,,,,,,10,wg-a,,,,AAXX 16214 07650 12115 83006 10090 20090 30216 40255 58008 60006 71022 876// 92100=
07650,1998-02-17 00:00:00,8,1024.3,-1.2,100,8,100,14.816,,,280,,,,,,,,,,45,wg-a,,,,AAXX 17004 07650 12/01 92808 10080 20080 30204 40243 56012 60006 74542 89/// 90000=
07650,1998-02-17 03:00:00,13,1022.8,-1.5,58,5,20000,46.3,,,320,,,,,,,,,,2,wg-a,,,,AAXX 17034 07650 12/70 03225 10130 20050 30189 40228 56015 60006 70241 80000 90300=
07650,1998-02-17 06:00:00,11,1023.7,0.9,62,4,500,46.3,,,330,7.6,13.4,,,,,,,,3,wg-a,,,,AAXX 17064 07650 02/00 13325 10110 20040 30198 40237 52009 60006 70341 80001 90600 333 10134 20076 60004=
07650,1998-02-17 09:00:00,12,1023.8,0.1,58,4,25000,35.188,,66.672,320,,,,,,,,,,28,wg-a,,,,AAXX 17094 07650 12/75 03219 10120 20040 30199 40238 51001 60006 72840 80000 90900 333 91036=
07650,1998-02-17 12:00:00,15,1024,0.2,48,4,500,50.004,,61.116,340,,,,,,,,,,2,wg-a,,,,AAXX 17124 07650 12/00 03427 10150 20040 30201 40240 53002 60006 70240 80000 91200 333 91033=
07650,1998-02-17 15:00:00,17,1024.5,0.6,42,4,10000,22.224,,,330,,,,,,,,,,,wg-a,,,,AAXX 17154 07650 12/60 /3312 10170 20040 30207 40245 53006 60006 91500=
07650,1998-02-17 18:00:00,13,1027.3,2.7,58,5,20000,7.408,,,290,10.5,17.3,,,,,,,,,wg-a,,,,AAXX 17184 07650 12/70 02904 10130 20050 30234 40273 53027 60006 80000 91800 333 10173 20105=
07650,1998-02-17 21:00:00,8,1029.3,1.9,76,4,20000,3.704,,,130,,,,,,,,,,,wg-a,,,,AAXX 17214 07650 12/70 01302 10080 20040 30253 40293 51019 60006 80000 92100=
07650,1998-02-18 00:00:00,6,1031.1,1.8,87,4,15000,0,,,0,,,,,,,,,,,wg-a,,,,AAXX 18004 07650 12/65 00000 10060 20040 30271 40311 51018 60006 80000 90000=
07650,1998-02-18 03:00:00,4,1031.5,0.4,93,3,12000,7.408,,,130,,,,,,,,,,,wg-a,,,,AAXX 18034 07650 12/62 01304 10040 20030 30275 40315 50004 60006 80000 90300=
07650,1998-02-18 06:00:00,3,1032.5,0.9,100,3,12000,3.704,,,220,3.2,12.9,,,,,,,,,wg-a,,,,AAXX 18064 07650 02/62 02202 10030 20030 30284 40325 51009 60006 80000 90600 333 10129 20032 60004=
07650,1998-02-18 09:00:00,10,1033.4,1,76,6,25000,3.704,,,310,,,,,,,,,,,wg-a,,,,AAXX 18094 07650 12/75 03102 10100 20060 30294 40334 51010 60006 80000 90900=
07650,1998-02-18 12:00:00,18,1033.2,-0.1,42,5,14000,3.704,,,340,,,,,,,,,,,wg-a,,,,AAXX 18124 07650 12/64 03402 10180 20050 30293 40332 58001 60006 80000 91200=
07650,1998-02-18 15:00:00,21,1032.7,-0.4,35,5,25000,11.112,,,240,,,,,,,,,,,wg-a,,,,AAXX 18154 07650 32/75 02406 10210 20050 30289 40327 55004 80000 91500=
07650,1998-02-18 18:00:00,13,1033.7,0.9,62,6,16000,7.408,,,90,3.1,21.8,,,,,,,,,wg-a,,,,AAXX 18184 07650 12/66 00904 10130 20060 30298 40337 53009 60006 80000 91800 333 10218 20031=
07650,1998-02-18 21:00:00,8,1034.4,0.6,81,5,15000,0,,,0,,,,,,,,,,,wg-a,,,,AAXX 18214 07650 12/65 00000 10080 20050 30304 40344 51006 60006 80000 92100=
07650,1998-02-19 00:00:00,7,1034.3,-0.1,87,5,10000,3.704,,,310,,,,,,,,,,,wg-a,,,,AAXX 19004 07650 12/60 /3102 10070 20050 30303 40343 58001 60006 90000=
07650,1998-02-19 03:00:00,8,1033.1,-1.2,66,2,12000,3.704,,,80,,,,,,,,,,,wg-a,,,,AAXX 19034 07650 12/62 00802 10080 20020 30291 40331 58012 60006 80000 90300=
07650,1998-02-19 06:00:00,8,1031.9,-1.2,81,5,15000,0,,,0,5.7,13,,,,,,,,,wg-a,,,,AAXX 19064 07650 02/65 00000 10080 20050 30279 40319 56012 60006 80000 90600 333 10130 20057 60004=
07650,1998-02-19 09:00:00,12,1032.2,0.4,62,5,15000,3.704,,,30,,,,,,,,,,,wg-a,,,,AAXX 19094 07650 12/65 10302 10120 20050 30283 40322 50004 60006 80001 90900=
07650,1998-02-19 12:00:00,15,1030.9,-1.3,67,9,15000,11.112,,,270,,,,,,,,,,,wg-a,,,,AAXX 19124 07650 12/65 12706 10150 20090 30270 40309 58013 60006 80001 91200=
07650,1998-02-19 15:00:00,15,1029.2,-1.7,72,10,6000,11.112,,,180,,,,,,,,,,,wg-a,,,,AAXX 19154 07650 12/56 /1806 10150 20100 30253 40292 56017 60006 80001 91500=
07650,1998-02-19 18:00:00,11,1029,-0.2,87,9,3500,11.112,,,180,5.6,16.7,,,,,,,,10,wg-a,,,,AAXX 19184 07650 12/35 31806 10110 20090 30251 40290 55002 60006 71000 80001 91800 333 10167 20056=
07650,1998-02-19 21:00:00,10,1028.9,-0.1,93,9,2000,7.408,,,160,,,,,,,,,,10,wg-a,,,,AAXX 19214 07650 12120 71604 10100 20090 30250 40289 55001 60006 71011 876// 92100=
07650,1998-02-20 00:00:00,9,1027.7,-1.2,100,9,1200,7.408,,,80,,,,,,,,,,10,wg-a,,,,AAXX 20004 07650 12012 70804 10090 20090 30238 40277 58012 60006 71011 876// 90000=
07650,1998-02-20 03:00:00,9,1026.5,-1.3,93,8,800,7.408,,,60,,,,,,,,,,44,wg-a,,,,AAXX 20034 07650 12108 70604 10090 20080 30225 40265 58013 60006 74442 876// 90300=
07650,1998-02-20 06:00:00,8,1026.4,-0.1,93,7,3000,7.408,,,50,7.7,11,,,,,,,,10,wg-a,,,,AAXX 20064 07650 02230 /0504 10080 20070 30224 40264 56001 60006 71042 85600 90600 333 10110 20077 60004=
07650,1998-02-20 09:00:00,12,1027.4,1.1,82,9,7000,18.52,,,110,,,,,,,,,,,wg-a,,,,AAXX 20094 07650 12457 41110 10120 20090 30235 40274 51011 60006 82802 90900=
07650,1998-02-20 12:00:00,16,1027.3,-0.1,63,9,12000,25.928,,,150,,,,,,,,,,,wg-a,,,,AAXX 20124 07650 12562 21514 10160 20090 30234 40273 58001 60006 81102 91200=
07650,1998-02-20 15:00:00,17,1025.8,-1.4,55,8,16000,25.928,,,150,,,,,,,,,,,wg-a,,,,AAXX 20154 07650 12566 31514 10170 20080 30220 40258 56014 60006 81102 91500=
07650,1998-02-20 18:00:00,13,1026.4,0.5,77,9,12000,14.816,,,130,7.7,17.5,,,,,,,,,wg-a,,,,AAXX 20184 07650 12562 /1308 10130 20090 30225 40264 53005 60006 81102 91800 333 10175 20077=
07650,1998-02-20 21:00:00,12,1027.5,1.1,76,8,12000,14.816,,,100,,,,,,,,,,,wg-a,,,,AAXX 20214 07650 12/62 41008 10120 20080 30236 40275 51011 60006 80002 92100=
07650,1998-02-21 00:00:00,9,1027.3,-0.2,81,6,12000,7.408,,,40,,,,,,,,,,,wg-a,,,,AAXX 21004 07650 12/62 20404 10090 20060 30234 40273 58002 60006 80002 90000=
07650,1998-02-21 03:00:00,10,1026,-1.3,76,6,10000,3.704,,,100,,,,,,,,,,,wg-a,,,,AAXX 21034 07650 12/60 31002 10100 20060 30221 40260 58013 60006 80002 90300=
07650,1998-02-21 06:00:00,10,1025.7,-0.3,71,5,12000,3.704,,,60,8.2,13,,,,,,,,,wg-a,,,,AAXX 21064 07650 02/62 50602 10100 20050 30218 40257 58003 60006 82032 90600 333 10130 20082 60004=
07650,1998-02-21 09:00:00,14,1026.6,0.9,51,4,15000,11.112,,,90,,,,,,,,,,,wg-a,,,,AAXX 21094 07650 12565 30906 10140 20040 30227 40266 52009 60006 81532 90900=
07650,1998-02-21 12:00:00,18,1025.6,-0.9,42,5,25000,29.632,,,140,,,,,,,,,,,wg-a,,,,AAXX 21124 07650 12575 21416 10180 20050 30218 40256 58009 60006 81101 91200=
07650,1998-02-21 15:00:00,18,1024,-1.6,39,4,25000,31.484,,,140,,,,,,,,,,,wg-a,,,,AAXX 21154 07650 12/75 71417 10180 20040 30202 40240 56016 60006 81032 91500=
07650,1998-02-21 18:00:00,15,1024.5,0.4,39,1,25000,29.632,,,120,9.7,18.3,,,,,,,,,wg-a,,,,AAXX 21184 07650 12675 71216 10150 20010 30206 40245 51004 60006 81572 91800 333 10183 20097=
07650,1998-02-21 21:00:00,14,1024,-0.5,44,2,20000,14.816,,,110,,,,,,,,,,,wg-a,,,,AAXX 21214 07650 12670 81108 10140 20020 30201 40240 56005 60006 8157/ 92100=
07650,1998-02-22 00:00:00,14,1023,-1,55,5,18000,22.224,,,110,,,,,,,,,,,wg-a,,,,AAXX 22004 07650 12668 /1112 10140 20050 30191 40230 58010 60006 83532 90000=
07650,1998-02-22 03:00:00,13,1021.6,-1.4,72,8,18000,25.928,,,100,,,,,,,,,,,wg-a,,,,AAXX 22034 07650 12568 71014 10130 20080 30177 40216 58014 60006 8457/ 90300=
07650,1998-02-22 06:00:00,14,1021.5,-0.1,72,9,18000,25.928,,,110,12.9,14.7,,,,,,,,,wg-a,,,,AAXX 22064 07650 02568 71114 10140 20090 30176 40215 56001 60006 8557/ 90600 333 10147 20129 60004=
07650,1998-02-22 09:00:00,11,1023.7,2.2,87,9,8000,14.816,,,10,,,,2,,,,,,60,wg-a,,,,AAXX 22094 07650 12558 80108 10110 20090 30198 40237 53022 60027 76062 875// 90900=
07650,1998-02-22 12:00:00,12,1024.1,0.4,88,10,15000,18.52,,,280,,,,0,,,,,,3,wg-a,,,,AAXX 22124 07650 02565 82810 10120 20100 30202 40241 50004 60026 70362 878// 91200 333 60007=
07650,1998-02-22 15:00:00,12,1023.5,-0.6,58,4,500,31.484,,,300,,,,,,,,,,,wg-a,,,,AAXX 22154 07650 12500 73017 10120 20040 30196 40235 55006 60006 83530 91500=
07650,1998-02-22 18:00:00,10,1024.1,0.6,62,3,40000,31.484,,,280,10.1,13.6,,,,,,,,,wg-a,,,,AAXX 22184 07650 12582 /2817 10100 20030 30202 40241 53006 60006 81532 91800 333 10136 20101=
07650,1998-02-22 21:00:00,8,1024.6,0.4,71,3,25000,38.892,,,290,,,,,,,,,,,wg-a,,,,AAXX 22214 07650 12/75 22921 10080 20030 30206 40246 53004 60006 80002 92100=
07650,1998-02-23 00:00:00,7,1023.6,-1,76,3,25000,31.484,,,310,,,,,,,,,,,wg-a,,,,AAXX 23004 07650 12575 23117 10070 20030 30196 40236 58010 60006 81502 90000=
07650,1998-02-23 03:00:00,7,1021.4,-2.2,76,3,25000,38.892,,,310,,,,,,,,,,,wg-a,,,,AAXX 23034 07650 12575 /3121 10070 20030 30174 40214 58022 60006 8553/ 90300=
07650,1998-02-23 06:00:00,8,1020.3,-1,71,3,25000,46.3,,61.116,330,6.6,10.1,,,,,2,,,,wg-a,,,,AAXX 23064 07650 02575 33325 10080 20030 30164 40203 57010 60006 83500 90600 333 10101 20066 60024 91033=
07650,1998-02-23 09:00:00,8,1021.6,1.3,71,3,20000,38.892,,,340,,,,,,,,,,,wg-a,,,,AAXX 23094 07650 12570 /3421 10080 20030 30177 40216 53013 60006 84530 90900=
07650,1998-02-23 12:00:00,12,1022.4,0.8,54,3,500,38.892,,,330,,,,,,,,,,,wg-a,,,,AAXX 23124 07650 12500 53321 10120 20030 30185 40224 50008 60006 82232 91200=
07650,1998-02-23 15:00:00,12,1022.7,0.3,54,3,500,35.188,,,330,,,,,,,,,,,wg-a,,,,AAXX 23154 07650 12600 63319 10120 20030 30188 40227 53003 60006 81232 91500=
07650,1998-02-23 18:00:00,8,1024.2,1.4,71,3,20000,11.112,,,350,7.7,12.9,,,,,,,,,wg-a,,,,AAXX 23184 07650 12/70 /3506 10080 20030 30202 40242 53014 60006 81032 91800 333 10129 20077=
07650,1998-02-23 21:00:00,8,1025.1,0.9,71,3,18000,18.52,,,350,,,,,,,,,,,wg-a,,,,AAXX 23214 07650 12668 83510 10080 20030 30211 40251 53009 60006 83572 92100=
07650,1998-02-24 00:00:00,8,1026.1,1,71,3,16000,7.408,,,340,,,,,,,,,,,wg-a,,,,AAXX 24004 07650 12666 73404 10080 20030 30221 40261 53010 60006 83572 90000=
07650,1998-02-24 03:00:00,7,1026,-0.1,76,3,15000,14.816,,,350,,,,,,,,,,,wg-a,,,,AAXX 24034 07650 12665 /3508 10070 20030 30220 40260 58001 60006 83570 90300=
07650,1998-02-24 06:00:00,5,1027,1,87,3,8000,3.704,,,40,5.3,8.4,,,,,,,,,wg-a,,,,AAXX 24064 07650 02658 50402 10050 20030 30230 40270 53010 60006 82530 90600 333 10084 20053 60004=
07650,1998-02-24 09:00:00,10,1028.6,1.6,66,4,15000,14.816,,,300,,,,,,,,,,,wg-a,,,,AAXX 24094 07650 12/65 13008 10100 20040 30246 40286 51016 60006 80002 90900=
07650,1998-02-24 12:00:00,15,1028.3,-0.2,51,5,20000,18.52,,,320,,,,,,,,,,,wg-a,,,,AAXX 24124 07650 12/70 13210 10150 20050 30244 40283 58002 60006 81030 91200=
07650,1998-02-24 15:00:00,15,1027,-1.3,51,5,20000,22.224,,,310,,,,,,,,,,,wg-a,,,,AAXX 24154 07650 12/70 13112 10150 20050 30231 40270 56013 60006 81080 91500=
07650,1998-02-24 18:00:00,11,1027.8,0.8,66,5,20000,18.52,,,300,4.5,15.8,,,,,,,,,wg-a,,,,AAXX 24184 07650 12/70 13010 10110 20050 30239 40278 53008 60006 81030 91800 333 10158 20045=
07650,1998-02-24 21:00:00,7,1028.8,0.9,81,4,12000,3.704,,,30,,,,,,,,,,,wg-a,,,,AAXX 24214 07650 12/62 00302 10070 20040 30248 40288 51009 60006 80000 92100=
07650,1998-02-25 00:00:00,5,1029.5,0.7,87,3,9000,3.704,,,190,,,,,,,,,,,wg-a,,,,AAXX 25004 07650 12/59 11902 10050 20030 30255 40295 51007 60006 80001 90000=
07650,1998-02-25 03:00:00,4,1029.2,-0.3,93,3,15000,3.704,,,160,,,,,,,,,,,wg-a,,,,AAXX 25034 07650 12/65 11602 10040 20030 30252 40292 58003 60006 80001 90300=
07650,1998-02-25 06:00:00,3,1029.5,0.3,93,2,15000,3.704,,,150,3.1,11,,,,,,,,,wg-a,,,,AAXX 25064 07650 02/65 11502 10030 20020 30255 40295 53003 60006 80001 90600 333 10110 20031 60004=
07650,1998-02-25 09:00:00,8,1030.1,0.6,76,4,12000,0,,,0,,,,,,,,,,,wg-a,,,,AAXX 25094 07650 12/62 10000 10080 20040 30261 40301 51006 60006 81031 90900=
07650,1998-02-25 12:00:00,15,1029.4,-0.6,51,5,12000,11.112,,,270,,,,,,,,,,,wg-a,,,,AAXX 25124 07650 12/62 32706 10150 20050 30255 40294 58006 60006 81031 91200=
07650,1998-02-25 18:00:00,13,1028.9,0.6,62,6,10000,11.112,,,330,2.9,16.9,,,,,,,,,wg-a,,,,AAXX 25184 07650 12660 73306 10130 20060 30250 40289 53006 60006 81532 91800 333 10169 20029=
07650,1998-02-25 21:00:00,11,1030,1.1,71,6,15000,7.408,,,110,,,,,,,,,,,wg-a,,,,AAXX 25214 07650 12/65 51104 10110 20060 30261 40300 51011 60006 85030 92100=
07650,1998-02-26 00:00:00,7,1030.6,0.5,87,5,15000,3.704,,,140,,,,,,,,,,,wg-a,,,,AAXX 26004 07650 12/65 31402 10070 20050 30266 40306 51005 60006 83030 90000=
07650,1998-02-26 03:00:00,5,1030.5,-0.1,93,4,8000,3.704,,,20,,,,,,,,,,,wg-a,,,,AAXX 26034 07650 12/58 00202 10050 20040 30265 40305 56001 60006 80000 90300=
07650,1998-02-26 06:00:00,5,1030.7,0.2,93,4,7000,11.112,,,130,4.6,13.4,,,,,,,,,wg-a,,,,AAXX 26064 07650 02457 21306 10050 20040 30267 40307 53002 60006 81501 90600 333 10134 20046 60004=
07650,1998-02-26 09:00:00,11,1031.8,1.2,82,8,6000,0,,,0,,,,,,,,,,,wg-a,,,,AAXX 26094 07650 12/56 /0000 10110 20080 30279 40318 51012 60006 90900=
07650,1998-02-26 12:00:00,17,1031.5,-0.3,55,8,15000,18.52,,,190,,,,,,,,,,,wg-a,,,,AAXX 26124 07650 12/65 01910 10170 20080 30276 40315 58003 60006 80000 91200=
07650,1998-02-26 15:00:00,17,1030.6,-0.9,48,6,20000,18.52,,,200,,,,,,,,,,,wg-a,,,,AAXX 26154 07650 12/70 02010 10170 20060 30267 40306 56009 60006 80000 91500=
07650,1998-02-26 18:00:00,14,1031,0.4,72,9,15000,3.704,,,150,4.4,18.6,,,,,,,,,wg-a,,,,AAXX 26184 07650 12/65 01502 10140 20090 30271 40310 53004 60006 80000 91800 333 10186 20044=
07650,1998-02-27 00:00:00,8,1030.3,-1,87,6,7000,7.408,,,130,,,,,,,,,,,wg-a,,,,AAXX 27004 07650 12/57 21304 10080 20060 30263 40303 58010 60006 80002 90000=
07650,1998-02-27 03:00:00,6,1029.2,-1.1,93,5,6000,11.112,,,130,,,,,,,,,,,wg-a,,,,AAXX 27034 07650 12/56 21306 10060 20050 30252 40292 56011 60006 80002 90300=
07650,1998-02-27 06:00:00,5,1028.5,-0.7,93,4,500,7.408,,,140,4.7,13.7,,,,,,,,,wg-a,,,,AAXX 27064 07650 02/00 /1404 10050 20040 30245 40285 56007 60006 80000 90600 333 10137 20047 60004=
07650,1998-02-27 09:00:00,9,1028.5,0,100,9,4000,0,,,0,,,,,,,,,,10,wg-a,,,,AAXX 27094 07650 12/40 /0000 10090 20090 30245 40285 50000 60006 71000 80001 90900=
07650,1998-02-27 12:00:00,14,1026.9,-1.5,67,8,8000,7.408,,,240,,,,,,,,,,,wg-a,,,,AAXX 27124 07650 12/58 /2404 10140 20080 30230 40269 58015 60006 80000 91200=
07650,1998-02-27 15:00:00,17,1024,-2.8,55,8,9000,14.816,,,260,,,,,,,,,,,wg-a,,,,AAXX 27154 07650 12/59 02608 10170 20080 30202 40240 56028 60006 80000 91500=
07650,1998-02-27 18:00:00,13,1023.9,-0.2,77,9,8000,14.816,,,260,4.5,17.7,,,,,,,,,wg-a,,,,AAXX 27184 07650 12/58 /2608 10130 20090 30200 40239 55002 60006 80001 91800 333 10177 20045=
07650,1998-02-27 21:00:00,9,1023.7,-0.2,87,7,8000,3.704,,,140,,,,,,,,,,,wg-a,,,,AAXX 27214 07650 12/58 01402 10090 20070 30198 40237 58002 60006 80000 92100=
07650,1998-02-28 00:00:00,7,1022.3,-1.5,93,6,500,0,,,0,,,,,,,,,,,wg-a,,,,AAXX 28004 07650 12/00 00000 10070 20060 30183 40223 56015 60006 80000 90000=
07650,1998-02-28 03:00:00,6,1020.9,-1.4,100,6,3000,7.408,,,140,,,,,,,,,,10,wg-a,,,,AAXX 28034 07650 12130 71404 10060 20060 30169 40209 57014 60006 71011 876// 90300=
07650,1998-02-28 06:00:00,6,1020,-0.9,93,5,500,11.112,,,140,5.3,13.3,,,,,,,,,wg-a,,,,AAXX 28064 07650 02/00 /1406 10060 20050 30160 40200 56009 60006 90600 333 10133 20053 60004=
07650,1998-02-28 09:00:00,7,1020.2,0.2,100,7,200,3.704,,,280,,,,,,,,,,42,wg-a,,,,AAXX 28094 07650 12002 32802 10070 20070 30162 40202 51002 60006 74241 83600 90900=
07650,1998-02-28 12:00:00,15,1018.9,-1.1,51,5,12000,31.484,,,310,,,,,,,,,,2,wg-a,,,,AAXX 28124 07650 12/62 03117 10150 20050 30151 40189 58011 60006 70241 80000 91200=
07650,1998-02-28 15:00:00,16,1016.6,-2.3,45,4,500,31.484,,,310,,,,,,,,,,,wg-a,,,,AAXX 28154 07650 12600 /3117 10160 20040 30128 40166 56023 60006 81100 91500=
07650,1998-02-28 18:00:00,13,1017.4,0.7,51,3,40000,22.224,,,300,4.4,16.8,,,,,,,,,wg-a,,,,AAXX 28184 07650 12682 /3012 10130 20030 30135 40174 53007 60006 81501 91800 333 10168 20044=
07650,1998-02-28 21:00:00,11,1018.3,0.9,66,5,40000,25.928,,,290,,,,,,,,,,,wg-a,,,,AAXX 28214 07650 12/82 12914 10110 20050 30144 40183 53009 60006 80001 92100=
07650,1998-03-01 00:00:00,10,1018.7,0.4,76,6,40000,22.224,,,280,,,,,,,,,,,wg-a,,,,AAXX 01004 07650 12/82 12812 10100 20060 30148 40187 53004 60006 80001 90000=
07650,1998-03-01 03:00:00,8,1018.2,-0.5,76,4,25000,18.52,,,300,,,,,,,,,,,wg-a,,,,AAXX 01034 07650 12/75 03010 10080 20040 30143 40182 58005 60006 80000 90300=
07650,1998-03-01 06:00:00,7,1018.9,0.6,76,3,500,25.928,,,290,6.7,13.7,,,,,,,,,wg-a,,,,AAXX 01064 07650 02/00 22914 10070 20030 30149 40189 53006 60006 81032 90600 333 10137 20067 60004=
07650,1998-03-01 09:00:00,11,1020.3,,62,4,50000,22.224,,,290,,,,,,,,,,,wg-a,,,,AAXX 01094 07650 12/84 12912 10110 20040 30164 40203 60006 81042 90900=
07650,1998-03-01 12:00:00,15,1019.9,-0.3,48,4,50000,38.892,,,320,,,,,,,,,,,wg-a,,,,AAXX 01124 07650 12584 23221 10150 20040 30161 40199 58003 60006 81142 91200=
07650,1998-03-01 15:00:00,15,1019.1,-0.8,44,3,50000,35.188,,,330,,,,,,,,,,,wg-a,,,,AAXX 01154 07650 12684 23319 10150 20030 30153 40191 55008 60006 81402 91500=
07650,1998-03-01 18:00:00,12,1019.8,0.6,50,2,500,22.224,,,310,6.2,16,,,,,,,,,wg-a,,,,AAXX 01184 07650 12600 23112 10120 20020 30159 40198 53006 60006 81402 91800 333 10160 20062=
07650,1998-03-01 21:00:00,9,1021.6,1.8,57,1,500,18.52,,,300,,,,,,,,,,,wg-a,,,,AAXX 01214 07650 12/00 03010 10090 20010 30177 40216 53018 60006 80000 92100=
07650,1998-03-02 00:00:00,8,1022.2,0.6,61,1,500,18.52,,,320,,,,,,,,,,,wg-a,,,,AAXX 02004 07650 12/00 03210 10080 20010 30183 40222 51006 60006 80000 90000=
07650,1998-03-02 03:00:00,8,1021.7,-0.6,57,0,500,18.52,,,310,,,,,,,,,,,wg-a,,,,AAXX 02034 07650 12/00 03110 10080 20000 30177 40217 58006 60006 80000 90300=
07650,1998-03-02 06:00:00,8,1022.2,0.5,66,2,500,25.928,,,290,6.6,12.2,,,,,,,,,wg-a,,,,AAXX 02064 07650 02/00 12914 10080 20020 30182 40222 53005 60006 80001 90600 333 10122 20066 60004=
07650,1998-03-02 09:00:00,11,1023.5,1.4,50,1,50000,35.188,,,320,,,,,,,,,,,wg-a,,,,AAXX 02094 07650 12/84 23219 10110 20010 30196 40235 51014 60006 80001 90900=
07650,1998-03-02 15:00:00,16,1022,-1.2,36,1,50000,18.52,,,260,,,,,,,,,,,wg-a,,,,AAXX 02154 07650 12/84 12610 10160 20010 30182 40220 56012 60006 80002 91500=
07650,1998-03-02 18:00:00,12,1023.3,1.2,71,7,45000,18.52,,,250,7,16.3,,,,,,,,,wg-a,,,,AAXX 02184 07650 12/83 12510 10120 20070 30194 40233 53012 60006 80002 91800 333 10163 20070=
07650,1998-03-02 21:00:00,8,1024.9,1.5,87,6,500,3.704,,,120,,,,,,,,,,,wg-a,,,,AAXX 02214 07650 12/00 01202 10080 20060 30209 40249 51015 60006 80000 92100=
07650,1998-03-03 00:00:00,7,1025,0.1,87,5,500,7.408,,,110,,,,,,,,,,,wg-a,,,,AAXX 03004 07650 12/00 01104 10070 20050 30210 40250 53001 60006 80000 90000=
07650,1998-03-03 03:00:00,5,1024.5,-0.5,93,4,10000,3.704,,,120,,,,,,,,,,,wg-a,,,,AAXX 03034 07650 12/60 /1202 10050 20040 30205 40245 56005 60006 90300=
07650,1998-03-03 06:00:00,4,1025.3,0.8,93,3,12000,3.704,,,130,4.2,12.1,,,,,,,,,wg-a,,,,AAXX 03064 07650 02662 21302 10040 20030 30213 40253 53008 60006 81501 90600 333 10121 20042 60004=
07650,1998-03-03 09:00:00,13,1026.1,0.9,77,9,9000,3.704,,,70,,,,,,,,,,,wg-a,,,,AAXX 03094 07650 12659 20702 10130 20090 30222 40261 50009 60006 81102 90900=
07650,1998-03-03 12:00:00,16,1026.3,0.2,63,9,15000,11.112,,,240,,,,,,,,,,,wg-a,,,,AAXX 03124 07650 12565 22406 10160 20090 30224 40263 50002 60006 82102 91200=
07650,1998-03-03 15:00:00,15,1026.1,-0.2,67,9,12000,14.816,,,180,,,,,,,,,,,wg-a,,,,AAXX 03154 07650 12562 /1808 10150 20090 30222 40261 55002 60006 82102 91500=
07650,1998-03-03 18:00:00,13,1026.2,0.1,77,9,9000,11.112,,,140,3.9,16.3,,,,,,,,,wg-a,,,,AAXX 03184 07650 12/59 /1406 10130 20090 30223 40262 53001 60006 91800 333 10163 20039=
07650,1998-03-03 21:00:00,11,1026.9,0.7,87,9,10000,11.112,,,120,,,,,,,,,,,wg-a,,,,AAXX 03214 07650 12460 /1206 10110 20090 30230 40269 51007 60006 84832 92100=
07650,1998-03-04 00:00:00,11,1026.3,-0.6,87,9,8000,11.112,,,80,,,,,,,,,,,wg-a,,,,AAXX 04004 07650 12558 70806 10110 20090 30224 40263 58006 60006 875// 90000=
07650,1998-03-04 03:00:00,12,1025.1,-1.2,82,9,7000,11.112,,,80,,,,,,,,,,,wg-a,,,,AAXX 04034 07650 12457 70806 10120 20090 30212 40251 58012 60006 877// 90300=
07650,1998-03-04 06:00:00,11,1024.4,-0.7,82,8,7000,14.816,,,90,10.1,12.9,,,,,,,,,wg-a,,,,AAXX 04064 07650 02/57 /0908 10110 20080 30205 40244 56007 60006 90600 333 10129 20101 60004=
07650,1998-03-04 09:00:00,14,1024.4,-0,77,10,8000,14.816,,,130,,,,,,,,,,,wg-a,,,,AAXX 04094 07650 12458 71308 10140 20100 30205 40244 55000 60006 8553/ 90900=
07650,1998-03-04 12:00:00,16,1023.6,-0.7,72,11,11000,31.484,,,140,,,,,,,,,,,wg-a,,,,AAXX 04124 07650 12561 /1417 10160 20110 30198 40236 58007 60006 84102 91200=
07650,1998-03-04 15:00:00,16,1021.6,-2,68,10,11000,31.484,,,130,,,,,,,,,,,wg-a,,,,AAXX 04154 07650 12561 71317 10160 20100 30178 40216 56020 60006 83402 91500=
07650,1998-03-04 18:00:00,14,1021.2,-0.5,72,9,11000,22.224,,,120,10.7,16.7,,,,,,,,,wg-a,,,,AAXX 04184 07650 12561 /1212 10140 20090 30173 40212 55005 60006 81402 91800 333 10167 20107=
07650,1998-03-04 21:00:00,14,1020.7,-0.5,77,10,20000,14.816,,,110,,,,,,,,,,,wg-a,,,,AAXX 04214 07650 12570 /1108 10140 20100 30168 40207 56005 60006 85502 92100=
07650,1998-03-05 00:00:00,14,1019.9,-0.8,72,9,20000,14.816,,,90,,,,,,,,,,,wg-a,,,,AAXX 05004 07650 12570 /0908 10140 20090 30160 40199 58008 60006 85502 90000=
07650,1998-03-05 03:00:00,13,1020.1,0.2,77,9,20000,18.52,,,360,,,,,,,,,,,wg-a,,,,AAXX 05034 07650 12470 73610 10130 20090 30162 40201 53002 60006 875// 90300=
07650,1998-03-05 06:00:00,12,1020.2,0.1,82,9,15000,7.408,,,180,11.9,14.5,,,,,,,,,wg-a,,,,AAXX 05064 07650 02565 71804 10120 20090 30163 40202 53001 60006 8357/ 90600 333 10145 20119 60004=
07650,1998-03-05 09:00:00,12,1022.3,2.1,88,10,8000,18.52,,,290,,,,,,,,,,,wg-a,,,,AAXX 05094 07650 12658 72910 10120 20100 30184 40223 51021 60006 8352/ 90900=
07650,1998-03-05 12:00:00,16,1022.2,0,45,4,15000,46.3,,,330,,,,,,,,,,,wg-a,,,,AAXX 05124 07650 12/65 73325 10160 20040 30184 40222 50000 60006 81012 91200=
07650,1998-03-05 15:00:00,17,1022.2,-0,23,-4,20000,46.3,,,320,,,,,,,,,,,wg-a,,,,AAXX 05154 07650 12/70 13225 10170 21040 30184 40222 55000 60006 81030 91500=
07650,1998-03-05 18:00:00,14,1024.5,2.2,33,-2,500,38.892,,,340,11.1,17.4,,,,,,,,,wg-a,,,,AAXX 05184 07650 12/00 13421 10140 21020 30206 40245 53022 60006 81030 91800 333 10174 20111=
07650,1998-03-05 21:00:00,11,1026.6,2.1,32,-5,10000,31.484,,,340,,,,,,,,,,,wg-a,,,,AAXX 05214 07650 12/60 /3417 10110 21050 30227 40266 53021 60006 92100=
07650,1998-03-06 00:00:00,9,1027.7,1,43,-3,500,22.224,,,350,,,,,,,,,,,wg-a,,,,AAXX 06004 07650 12/00 03512 10090 21030 30237 40277 51010 60006 80000 90000=
07650,1998-03-06 03:00:00,5,1027.7,0,52,-4,500,3.704,,,320,,,,,,,,,,,wg-a,,,,AAXX 06034 07650 12/00 03202 10050 21040 30237 40277 50000 60006 80000 90300=
07650,1998-03-06 06:00:00,3,1028.2,0.5,75,-1,500,3.704,,,120,2.8,13.8,,,,,,,,,wg-a,,,,AAXX 06064 07650 02/00 21202 10030 21010 30242 40282 53005 60006 81032 90600 333 10138 20028 60004=
07650,1998-03-06 09:00:00,11,1029.1,1,43,-1,40000,3.704,,,360,,,,,,,,,,,wg-a,,,,AAXX 06094 07650 12882 23602 10110 21010 30252 40291 50010 60006 81042 90900=
07650,1998-03-06 12:00:00,16,1028.2,-0.9,25,-4,40000,7.408,,,250,,,,,,,,,,,wg-a,,,,AAXX 06124 07650 12882 52504 10160 21040 30243 40282 58009 60006 81042 91200=
07650,1998-03-06 15:00:00,17,1026.1,-2,36,2,40000,18.52,,,240,,,,,,,,,,,wg-a,,,,AAXX 06154 07650 12/82 32410 10170 20020 30223 40261 56020 60006 80002 91500=
07650,1998-03-06 18:00:00,13,1026.1,-0.1,67,7,500,7.408,,,220,2.9,17.5,,,,,,,,,wg-a,,,,AAXX 06184 07650 12/00 22204 10130 20070 30222 40261 55001 60006 80002 91800 333 10175 20029=
07650,1998-03-06 21:00:00,9,1026,-0.1,81,6,25000,3.704,,,110,,,,,,,,,,,wg-a,,,,AAXX 06214 07650 12/75 01102 10090 20060 30221 40260 58001 60006 80000 92100=
07650,1998-03-07 00:00:00,7,1024.8,-1.3,93,6,20000,3.704,,,10,,,,,,,,,,,wg-a,,,,AAXX 07004 07650 12/70 10102 10070 20060 30208 40248 58013 60006 81030 90000=
07650,1998-03-07 03:00:00,7,1023.3,-1.5,87,5,15000,0,,,0,,,,,,,,,,,wg-a,,,,AAXX 07034 07650 12/65 20000 10070 20050 30193 40233 58015 60006 81032 90300=
07650,1998-03-07 06:00:00,6,1023.3,-0,93,5,8000,7.408,,,130,4.8,12.6,,,,,,,,,wg-a,,,,AAXX 07064 07650 02/58 21304 10060 20050 30193 40233 54000 60006 81032 90600 333 10126 20048 60004=
07650,1998-03-07 12:00:00,17,1022.7,-1.4,55,8,12000,7.408,,,280,,,,,,,,,,,wg-a,,,,AAXX 07124 07650 12/62 12804 10170 20080 30189 40227 58014 60006 80002 91200=
07650,1998-03-07 15:00:00,18,1020.8,-1.9,56,9,15000,22.224,,,270,,,,,,,,,,,wg-a,,,,AAXX 07154 07650 12665 72712 10180 20090 30170 40208 56019 60006 81132 91500=
07650,1998-03-07 18:00:00,14,1021.2,0.3,72,9,15000,18.52,,,260,5.2,18.8,,,,,,,,1,wg-a,,,,AAXX 07184 07650 02665 42610 10140 20090 30173 40212 53003 60006 70161 81542 91800 333 10188 20052 61000=
07650,1998-03-07 21:00:00,14,1021.3,0.1,72,9,15000,22.224,,,290,,,,,,,,,,,wg-a,,,,AAXX 07214 07650 12665 72912 10140 20090 30174 40213 53001 60006 81532 92100=
07650,1998-03-08 00:00:00,14,1020.6,-0.7,67,8,15000,29.632,,,280,,,,,,,,,,,wg-a,,,,AAXX 08004 07650 12665 62816 10140 20080 30167 40206 58007 60006 81532 90000=
07650,1998-03-08 03:00:00,12,1019.3,-1.3,76,8,11000,22.224,,,280,,,,,,,,,,,wg-a,,,,AAXX 08034 07650 12/61 /2812 10120 20080 30154 40193 58013 60006 90300=
07650,1998-03-08 06:00:00,12,1017.9,-1.4,67,6,15000,38.892,,,270,11.6,14.3,,,,,,,,,wg-a,,,,AAXX 08064 07650 02665 72721 10120 20060 30140 40179 57014 60006 82532 90600 333 10143 20116 61000=
07650,1998-03-08 09:00:00,14,1017.1,-0.7,63,7,25000,31.484,,,280,,,,,,,,,,,wg-a,,,,AAXX 08094 07650 12575 72817 10140 20070 30133 40171 58007 60006 81532 90900=
07650,1998-03-08 12:00:00,15,1015.2,-1.9,67,9,25000,14.816,,,260,,,,,,,,,,21,wg-a,,,,AAXX 08124 07650 02575 72608 10150 20090 30114 40152 58019 61000 72162 8257/ 91200 333 6100=
07650,1998-03-08 15:00:00,16,1010.2,-5,68,10,20000,31.484,,,240,,,,,,,,,,,wg-a,,,,AAXX 08154 07650 12670 72417 10160 20100 30064 40102 58050 60006 8457/ 91500=
07650,1998-03-08 18:00:00,16,1007.8,-2.4,55,7,500,42.596,,,270,11.8,17.4,,,,,,,,,wg-a,,,,AAXX 08184 07650 12600 42723 10160 20070 30040 40078 55024 60006 83532 91800 333 10174 20118=
07650,1998-03-08 21:00:00,14,1008.9,1.1,58,6,500,35.188,,,280,,,,,,,,,,,wg-a,,,,AAXX 08214 07650 12600 32819 10140 20060 30051 40089 51011 60006 82531 92100=
07650,1998-03-09 03:00:00,10,1009.2,-0.1,66,4,500,38.892,,,320,,,,,,,,,,,wg-a,,,,AAXX 09034 07650 12/00 23221 10100 20040 30053 40092 58001 60006 81031 90300=
07650,1998-03-09 06:00:00,9,1009.3,0.1,71,4,500,50.004,,,330,9.2,16.3,,,,,,,,,wg-a,,,,AAXX 09064 07650 02600 23327 10090 20040 30054 40093 53001 60006 81530 90600 333 10163 20092 61000=
07650,1998-03-09 09:00:00,12,1011,1.7,58,4,40000,68.524,,75.932,320,,,,,,,,,,,wg-a,,,,AAXX 09094 07650 12682 43237 10120 20040 30071 40110 51017 60006 81142 90900 333 91041=
07650,1998-03-09 12:00:00,14,1011.7,0.8,44,2,40000,68.524,,88.896,330,,,,,,,,,,,wg-a,,,,AAXX 09124 07650 12682 33337 10140 20020 30079 40117 50008 60006 81142 91200 333 91048=
07650,1998-03-09 18:00:00,8,1013.4,1.1,57,0,40000,61.116,,88.896,330,8.3,13.9,,,,,,,,,wg-a,,,,AAXX 09184 07650 12682 /3333 10080 20000 30095 40134 51011 60006 81400 91800 333 10139 20083 91048=
07650,1998-03-09 21:00:00,7,1015.2,1.8,49,-3,40000,53.708,,59.264,340,,,,,,,,,,,wg-a,,,,AAXX 09214 07650 12/82 03429 10070 21030 30113 40152 51018 60006 80000 92100 333 91032=
07650,1998-03-10 00:00:00,5,1017.8,2.5,45,-6,40000,50.004,,64.82,340,,,,,,,,,,,wg-a,,,,AAXX 10004 07650 12/82 13427 10050 21060 30138 40178 53025 60006 81040 90000 333 91035=
07650,1998-03-10 03:00:00,3,1021.2,3.4,44,-8,40000,29.632,,,340,,,,,,,,,,,wg-a,,,,AAXX 10034 07650 12/82 33416 10030 21080 30172 40212 51034 60006 82032 90300=
07650,1998-03-10 06:00:00,2,1024.9,3.6,47,-8,60000,14.816,,,350,1.4,8.4,,,,,,,,,wg-a,,,,AAXX 10064 07650 02586 13508 10020 21080 30208 40249 51036 60006 81500 90600 333 10084 20014 60004=
07650,1998-03-10 09:00:00,6,1027.1,2.3,39,-7,75000,7.408,,,280,,,,,,,,,,,wg-a,,,,AAXX 10094 07650 12/89 02804 10060 21070 30231 40271 51023 60006 80000 90900=
07650,1998-03-10 12:00:00,12,1027.4,0.4,32,-4,75000,11.112,,,260,,,,,,,,,,,wg-a,,,,AAXX 10124 07650 12589 /2606 10120 21040 30235 40274 50004 60006 81101 91200=
07650,1998-03-10 15:00:00,12,1026.8,-0.6,38,-2,25000,18.52,,,190,,,,,,,,,,,wg-a,,,,AAXX 10154 07650 12675 /1910 10120 21020 30229 40268 56006 60006 81100 91500=
07650,1998-03-10 18:00:00,9,1026.7,-0.2,49,-1,20000,11.112,,,160,1.1,13.2,,,,,,,,,wg-a,,,,AAXX 10184 07650 12/70 41606 10090 21010 30227 40267 58002 60006 81032 91800 333 10132 20011=
07650,1998-03-10 21:00:00,7,1025.7,-1,57,-1,20000,7.408,,,140,,,,,,,,,,,wg-a,,,,AAXX 10214 07650 12/70 31404 10070 21010 30217 40257 58010 60006 81032 92100=
07650,1998-03-11 00:00:00,9,1023.4,-2.2,46,-2,20000,3.704,,,200,,,,,,,,,,,wg-a,,,,AAXX 11004 07650 12/70 82002 10090 21020 30195 40234 57022 60006 80007 90000=
07650,1998-03-11 03:00:00,7,1020.9,-2.6,61,0,20000,7.408,,,130,,,,,,,,,,,wg-a,,,,AAXX 11034 07650 12/70 71304 10070 20000 30169 40209 58026 60006 85012 90300=
07650,1998-03-11 06:00:00,8,1016.4,-4.4,49,-2,11000,14.816,,,90,6.9,9.5,,,,,,,,,wg-a,,,,AAXX 11064 07650 02/61 /0908 10080 21020 30125 40164 56044 60006 90600 333 10095 20069 60004=
07650,1998-03-11 09:00:00,6,1015.5,-0.9,87,4,7000,11.112,,,50,,,,3,,,,,,60,wg-a,,,,AAXX 11094 07650 12457 80506 10060 20040 30116 40155 55009 60037 76062 8457/ 90900=
07650,1998-03-11 12:00:00,8,1013.5,-2,81,5,15000,14.816,,,70,,,,0,,,,,,3,wg-a,,,,AAXX 11124 07650 02565 80708 10080 20050 30096 40135 57020 60046 70362 8557/ 91200 333 60007=
07650,1998-03-11 15:00:00,10,1011.3,-2.2,71,5,15000,7.408,,,340,,,,,,,,,,,wg-a,,,,AAXX 11154 07650 12565 /3404 10100 20050 30074 40113 56022 60006 8584/ 91500=
07650,1998-03-11 18:00:00,9,1011.6,0.3,76,5,16000,14.816,,,310,5.8,10.4,,,,,,,,,wg-a,,,,AAXX 11184 07650 12566 63108 10090 20050 30077 40116 53003 60006 85502 91800 333 10104 20058=
07650,1998-03-11 21:00:00,7,1012.8,,81,4,14000,3.704,,,130,,,,,,,,,,,wg-a,,,,AAXX 11214 07650 12564 71302 10070 20040 30089 40128 60006 8457/ 92100=
07650,1998-03-12 00:00:00,6,1012.8,-0,87,4,12000,0,,,0,,,,,,,,,,,wg-a,,,,AAXX 12004 07650 12662 50000 10060 20040 30089 40128 55000 60006 83532 90000=
07650,1998-03-12 03:00:00,4,1012.5,-0.4,93,3,12000,11.112,,,340,,,,,,,,,,,wg-a,,,,AAXX 12034 07650 12662 23406 10040 20030 30085 40125 58004 60006 81502 90300=
07650,1998-03-12 06:00:00,6,1012.6,0.2,87,4,15000,25.928,,,330,3.9,7.4,,,,,4,,,,wg-a,,,,AAXX 12064 07650 02565 23314 10060 20040 30087 40126 53002 60006 81502 90600 333 10074 20039 60044=
07650,1998-03-12 09:00:00,10,1013.6,1,62,3,500,38.892,,,330,,,,,,,,,,,wg-a,,,,AAXX 12094 07650 12500 /3321 10100 20030 30097 40136 51010 60006 81502 90900=
07650,1998-03-12 12:00:00,13,1014.1,0.5,51,3,500,29.632,,,310,,,,,,,,,,,wg-a,,,,AAXX 12124 07650 12500 23116 10130 20030 30102 40141 51005 60006 81102 91200=
07650,1998-03-12 15:00:00,12,1014,-0.1,50,2,60000,42.596,,,320,,,,,,,,,,,wg-a,,,,AAXX 12154 07650 12586 23223 10120 20020 30101 40140 55001 60006 81101 91500=
07650,1998-03-12 18:00:00,8,1015.8,1.8,66,2,60000,29.632,,,340,6.1,13.2,,,,,,,,,wg-a,,,,AAXX 12184 07650 12586 /3416 10080 20020 30119 40158 53018 60006 81130 91800 333 10132 20061=
07650,1998-03-12 21:00:00,6,1017.8,1.9,70,1,40000,14.816,,,350,,,,,,,,,,,wg-a,,,,AAXX 12214 07650 12/82 13508 10060 20010 30138 40178 51019 60006 81030 92100=
07650,1998-03-13 00:00:00,4,1018.8,1,81,1,40000,7.408,,,350,,,,,,,,,,,wg-a,,,,AAXX 13004 07650 12/82 13504 10040 20010 30148 40188 51010 60006 81030 90000=
07650,1998-03-13 03:00:00,2,1018.9,0.1,87,0,40000,3.704,,,120,,,,,,,,,,,wg-a,,,,AAXX 13034 07650 12/82 11202 10020 20000 30149 40189 50001 60006 81030 90300=
07650,1998-03-13 06:00:00,1,1019.9,1,86,-1,40000,7.408,,,140,0.8,7.6,,,,,4,,,,wg-a,,,,AAXX 13064 07650 02/82 11404 10010 21010 30159 40199 53010 60006 80001 90600 333 10076 20008 60044=
07650,1998-03-13 09:00:00,7,1021.1,1.2,70,2,40000,3.704,,,270,,,,,,,,,,,wg-a,,,,AAXX 13094 07650 12/82 02702 10070 20020 30171 40211 51012 60006 80000 90900=
07650,1998-03-13 12:00:00,13,1021,0,51,3,40000,18.52,,,300,,,,,,,,,,,wg-a,,,,AAXX 13124 07650 12682 13010 10130 20030 30171 40210 50000 60006 81200 91200=
07650,1998-03-13 15:00:00,14,1020.4,-0.6,41,1,40000,25.928,,,310,,,,,,,,,,,wg-a,,,,AAXX 13154 07650 12682 /3114 10140 20010 30165 40204 56006 60006 81200 91500=
07650,1998-03-13 18:00:00,10,1021.3,0.9,50,0,40000,25.928,,,300,0.7,14.4,,,,,,,,,wg-a,,,,AAXX 13184 07650 12/82 03014 10100 20000 30174 40213 53009 60006 80000 91800 333 10144 20007=
07650,1998-03-13 21:00:00,8,1022.5,1.1,61,1,40000,22.224,,,300,,,,,,,,,,,wg-a,,,,AAXX 13214 07650 12/82 03012 10080 20010 30185 40225 51011 60006 80000 92100=
07650,1998-03-14 00:00:00,4,1023.2,0.7,70,-1,40000,7.408,,,20,,,,,,,,,,,wg-a,,,,AAXX 14004 07650 12/82 00204 10040 21010 30192 40232 52007 60006 80000 90000=
07650,1998-03-14 03:00:00,4,1022.8,-0.4,70,-1,40000,11.112,,,360,,,,,,,,,,,wg-a,,,,AAXX 14034 07650 12/82 03606 10040 21010 30188 40228 58004 60006 80000 90300=
07650,1998-03-14 06:00:00,1,1023.6,0.7,80,-2,500,18.52,,,10,1.1,9.7,,,,,4,,,,wg-a,,,,AAXX 14064 07650 02/00 10110 10010 21020 30195 40236 53007 60006 80001 90600 333 10097 20011 60044=
07650,1998-03-14 09:00:00,9,1023.8,0.4,53,0,10000,11.112,,,330,,,,,,,,,,,wg-a,,,,AAXX 14094 07650 12/60 /3306 10090 20000 30199 40238 52004 60006 90900=
07650,1998-03-14 12:00:00,15,1022.5,-1.3,41,2,500,14.816,,,330,,,,,,,,,,,wg-a,,,,AAXX 14124 07650 12/00 03308 10150 20020 30186 40225 58013 60006 80000 91200=
07650,1998-03-14 15:00:00,16,1020.2,-2.2,36,1,500,29.632,,,320,,,,,,,,,,,wg-a,,,,AAXX 14154 07650 12/00 03216 10160 20010 30164 40202 56022 60006 80000 91500=
07650,1998-03-14 18:00:00,12,1019.5,-0.8,54,3,40000,35.188,,,330,1,16,,,,,,,,,wg-a,,,,AAXX 14184 07650 12/82 03319 10120 20030 30156 40195 55008 60006 80000 91800 333 10160 20010=
07650,1998-03-14 21:00:00,10,1019.6,0.1,62,3,10000,18.52,,,330,,,,,,,,,,,wg-a,,,,AAXX 14214 07650 12/60 /3310 10100 20030 30157 40196 53001 60006 92100=
07650,1998-03-15 00:00:00,6,1019.4,-0.3,75,2,40000,11.112,,,340,,,,,,,,,,,wg-a,,,,AAXX 15004 07650 12/82 03406 10060 20020 30154 40194 58003 60006 80000 90000=
07650,1998-03-15 03:00:00,4,1019.5,0.1,81,1,20000,7.408,,,140,,,,,,,,,,,wg-a,,,,AAXX 15034 07650 12/70 01404 10040 20010 30155 40195 51001 60006 80000 90300=
07650,1998-03-15 06:00:00,6,1020,0.5,75,2,20000,18.52,,,10,3.2,11.5,,,,,4,,,,wg-a,,,,AAXX 15064 07650 02/70 00110 10060 20020 30160 40200 51005 60006 80000 90600 333 10115 20032 60044=
07650,1998-03-15 09:00:00,12,1019.6,-0.3,58,4,20000,25.928,,,340,,,,,,,,,,,wg-a,,,,AAXX 15094 07650 12/70 03414 10120 20040 30157 40196 58003 60006 80000 90900=
07650,1998-03-15 12:00:00,17,1018.2,-1.3,42,4,20000,35.188,,,330,,,,,,,,,,,wg-a,,,,AAXX 15124 07650 12/70 23319 10170 20040 30144 40182 58013 60006 80001 91200=
07650,1998-03-15 15:00:00,17,1018.3,0.1,45,5,25000,31.484,,,340,,,,,,,,,,,wg-a,,,,AAXX 15154 07650 12/75 23417 10170 20050 30145 40183 53001 60006 80001 91500=
07650,1998-03-15 18:00:00,13,1018.2,-0.2,54,4,20000,46.3,,70.376,320,6.2,17.9,,,,,,,,,wg-a,,,,AAXX 15184 07650 12/70 33225 10130 20040 30143 40182 56002 60006 81041 91800 333 10179 20062 91038=
07650,1998-03-15 21:00:00,11,1019.7,1.5,58,3,20000,46.3,,,340,,,,,,,,,,,wg-a,,,,AAXX 15214 07650 12/70 23425 10110 20030 30158 40197 51015 60006 80001 92100=
07650,1998-03-16 00:00:00,11,1020.1,0.4,58,3,20000,38.892,,,340,,,,,,,,,,,wg-a,,,,AAXX 16004 07650 12/70 33421 10110 20030 30162 40201 53004 60006 80001 90000=
07650,1998-03-16 06:00:00,8,1020.1,0.3,71,3,13000,11.112,,,10,7.7,13.4,,,,,,,,,wg-a,,,,AAXX 16064 07650 02/63 10106 10080 20030 30162 40201 50003 60006 81042 90600 333 10134 20077 60004=
07650,1998-03-16 09:00:00,13,1020.9,0.8,54,4,13000,11.112,,,350,,,,,,,,,,,wg-a,,,,AAXX 16094 07650 12/63 13506 10130 20040 30170 40209 50008 60006 80002 90900=
07650,1998-03-16 12:00:00,17,1020,-0.8,48,6,15000,22.224,,,310,,,,,,,,,,,wg-a,,,,AAXX 16124 07650 12/65 13112 10170 20060 30162 40200 56008 60006 81042 91200=
07650,1998-03-16 15:00:00,17,1018.9,-1.1,52,7,15000,29.632,,,320,,,,,,,,,,,wg-a,,,,AAXX 16154 07650 12/65 63216 10170 20070 30151 40189 56011 60006 81042 91500=
07650,1998-03-16 18:00:00,14,1019.8,0.8,58,6,15000,14.816,,,330,7.3,18.1,,,,,,,,,wg-a,,,,AAXX 16184 07650 12/65 13308 10140 20060 30159 40198 53008 60006 81041 91800 333 10181 20073=
07650,1998-03-17 00:00:00,9,1021.3,0.6,76,5,25000,3.704,,,330,,,,,,,,,,,wg-a,,,,AAXX 17004 07650 12/75 03302 10090 20050 30174 40213 51006 60006 80000 90000=
07650,1998-03-17 03:00:00,7,1021.3,-0.1,87,5,20000,11.112,,,350,,,,,,,,,,,wg-a,,,,AAXX 17034 07650 12/70 03506 10070 20050 30173 40213 58001 60006 80000 90300=
07650,1998-03-17 06:00:00,7,1021.9,0.6,87,5,15000,7.408,,,360,6.9,13.5,,,,,,,,,wg-a,,,,AAXX 17064 07650 02/65 03604 10070 20050 30179 40219 51006 60006 80000 90600 333 10135 20069 60004=
07650,1998-03-17 09:00:00,13,1022.6,0.8,62,6,15000,3.704,,,240,,,,,,,,,,,wg-a,,,,AAXX 17094 07650 12/65 02402 10130 20060 30187 40226 51008 60006 80000 90900=
07650,1998-03-17 12:00:00,18,1021.6,-0.9,45,6,10000,25.928,,,320,,,,,,,,,,,wg-a,,,,AAXX 17124 07650 12/60 /3214 10180 20060 30178 40216 58009 60006 91200=
07650,1998-03-17 15:00:00,18,1020.2,-1.4,45,6,10000,31.484,,,310,,,,,,,,,,,wg-a,,,,AAXX 17154 07650 12/60 /3117 10180 20060 30164 40202 56014 60006 91500=
07650,1998-03-17 18:00:00,14,1020.7,0.4,58,6,10000,22.224,,,330,7.4,18.9,,,,,,,,,wg-a,,,,AAXX 17184 07650 12/60 /3312 10140 20060 30168 40207 53004 60006 91800 333 10189 20074=
07650,1998-03-17 21:00:00,11,1021.2,0.5,62,4,25000,22.224,,,350,,,,,,,,,,,wg-a,,,,AAXX 17214 07650 12/75 03512 10110 20040 30173 40212 51005 60006 80000 92100=
07650,1998-03-18 00:00:00,10,1021.7,0.5,71,5,25000,22.224,,,340,,,,,,,,,,,wg-a,,,,AAXX 18004 07650 12/75 03412 10100 20050 30178 40217 51005 60006 80000 90000=
07650,1998-03-18 03:00:00,7,1022.3,0.5,76,3,25000,0,,,0,,,,,,,,,,,wg-a,,,,AAXX 18034 07650 12/75 00000 10070 20030 30183 40223 51005 60006 80000 90300=
07650,1998-03-18 06:00:00,6,1024.5,2.2,81,3,15000,7.408,,,150,6.3,14.2,,,,,,,,,wg-a,,,,AAXX 18064 07650 02/65 01504 10060 20030 30205 40245 53022 60006 80000 90600 333 10142 20063 60004=
07650,1998-03-18 09:00:00,13,1026.7,2.3,58,5,12000,3.704,,,250,,,,,,,,,,,wg-a,,,,AAXX 18094 07650 12/62 02502 10130 20050 30228 40267 51023 60006 80000 90900=
07650,1998-03-18 12:00:00,19,1027.5,0.9,43,6,18000,14.816,,,250,,,,,,,,,,,wg-a,,,,AAXX 18124 07650 12/68 32508 10190 20060 30237 40275 51009 60006 80002 91200=
07650,1998-03-18 15:00:00,21,1027.5,-0,38,6,20000,14.816,,,240,,,,,,,,,,,wg-a,,,,AAXX 18154 07650 12/70 12408 10210 20060 30237 40275 55000 60006 80002 91500=
07650,1998-03-18 18:00:00,16,1028.5,0.9,63,9,14000,11.112,,,260,6,21.5,,,,,,,,,wg-a,,,,AAXX 18184 07650 12/64 42606 10160 20090 30246 40285 53009 60006 81032 91800 333 10215 20060=
07650,1998-03-18 21:00:00,12,1029.6,1.1,71,7,20000,3.704,,,240,,,,,,,,,,,wg-a,,,,AAXX 18214 07650 12/70 22402 10120 20070 30257 40296 51011 60006 80001 92100=
07650,1998-03-19 00:00:00,9,1030,0.3,76,5,12000,11.112,,,140,,,,,,,,,,,wg-a,,,,AAXX 19004 07650 12/62 01406 10090 20050 30260 40300 50003 60006 80000 90000=
07650,1998-03-19 03:00:00,7,1029.1,-0.9,87,5,12000,18.52,,,330,,,,,,,,,,,wg-a,,,,AAXX 19034 07650 12/62 03310 10070 20050 30251 40291 58009 60006 80000 90300=
07650,1998-03-19 06:00:00,5,1028.7,-0.4,87,3,6000,3.704,,,150,5.2,16,,,,,,,,,wg-a,,,,AAXX 19064 07650 02/56 01502 10050 20030 30247 40287 56004 60006 80000 90600 333 10160 20052 60004=
07650,1998-03-19 09:00:00,13,1028,-0.6,62,6,10000,25.928,,,320,,,,,,,,,,,wg-a,,,,AAXX 19094 07650 12/60 03214 10130 20060 30241 40280 58006 60006 80000 90900=
07650,1998-03-19 12:00:00,19,1026.7,-1.2,37,4,12000,29.632,,,320,,,,,,,,,,,wg-a,,,,AAXX 19124 07650 12/62 03216 10190 20040 30229 40267 58012 60006 80000 91200=
07650,1998-03-19 15:00:00,18,1024.4,-2.3,39,4,20000,50.004,,,320,,,,,,,,,,,wg-a,,,,AAXX 19154 07650 12/70 13227 10180 20040 30206 40244 56023 60006 80002 91500=
07650,1998-03-19 18:00:00,15,1025.3,0.8,41,2,20000,50.004,,,330,5.3,19.6,,,,,,,,,wg-a,,,,AAXX 19184 07650 12/70 13327 10150 20020 30214 40253 53008 60006 80002 91800 333 10196 20053=
07650,1998-03-19 21:00:00,12,1027.4,2.1,47,1,20000,25.928,,,340,,,,,,,,,,,wg-a,,,,AAXX 19214 07650 12/70 03414 10120 20010 30235 40274 52021 60006 80000 92100=
07650,1998-03-20 00:00:00,7,1028.3,0.8,61,0,18000,7.408,,,150,,,,,,,,,,,wg-a,,,,AAXX 20004 07650 12/68 11504 10070 20000 30243 40283 51008 60006 80002 90000=
07650,1998-03-20 03:00:00,5,1028.1,-0.2,70,0,18000,3.704,,,120,,,,,,,,,,,wg-a,,,,AAXX 20034 07650 12/68 21202 10050 20000 30241 40281 58002 60006 80002 90300=
07650,1998-03-20 06:00:00,4,1028.1,-0,70,-1,20000,7.408,,,360,4.2,14.7,,,,,,,,,wg-a,,,,AAXX 20064 07650 02/70 13604 10040 21010 30241 40281 55000 60006 81030 90600 333 10147 20042 60004=
07650,1998-03-20 09:00:00,11,1026.6,-1.4,47,0,500,14.816,,,340,,,,,,,,,,,wg-a,,,,AAXX 20094 07650 12/00 03408 10110 20000 30227 40266 57014 60006 80000 90900=
07650,1998-03-20 12:00:00,16,1024.9,-1.6,36,1,500,29.632,,,330,,,,,,,,,,,wg-a,,,,AAXX 20124 07650 12/00 13316 10160 20010 30211 40249 58016 60006 80002 91200=
07650,1998-03-20 15:00:00,15,1022.7,-2.3,33,-1,20000,42.596,,53.708,320,,,,,,,,,,,wg-a,,,,AAXX 20154 07650 12/70 43223 10150 21010 30188 40227 56023 60006 80002 91500 333 91029=
07650,1998-03-20 18:00:00,13,1022,-0.7,41,0,20000,35.188,,,320,4,17.4,,,,,,,,,wg-a,,,,AAXX 20184 07650 12/70 03219 10130 20000 30181 40220 55007 60006 80000 91800 333 10174 20040=
07650,1998-03-20 21:00:00,11,1022,0,43,-1,20000,31.484,,55.56,350,,,,,,,,,,,wg-a,,,,AAXX 20214 07650 12/70 03517 10110 21010 30181 40220 50000 60006 80000 92100 333 91030=
07650,1998-03-21 00:00:00,8,1022.1,0,53,-1,20000,18.52,,,330,,,,,,,,,,,wg-a,,,,AAXX 21004 07650 12/70 03310 10080 21010 30181 40221 50000 60006 80000 90000=
07650,1998-03-21 03:00:00,6,1020.9,-1.2,56,-2,20000,14.816,,,10,,,,,,,,,,,wg-a,,,,AAXX 21034 07650 12/70 20108 10060 21020 30169 40209 58012 60006 80001 90300=
07650,1998-03-21 06:00:00,4,1019.7,-1.2,65,-2,50000,7.408,,,80,4.1,13.1,,,,,,,,,wg-a,,,,AAXX 21064 07650 02/84 10804 10040 21020 30157 40197 56012 60006 80002 90600 333 10131 20041 60004=
07650,1998-03-21 09:00:00,13,1018.8,-0.8,47,2,75000,31.484,,,340,,,,,,,,,,,wg-a,,,,AAXX 21094 07650 12/89 13417 10130 20020 30149 40188 58008 60006 80002 90900=
07650,1998-03-21 12:00:00,16,1017,-1.7,42,3,10000,42.596,,,330,,,,,,,,,,,wg-a,,,,AAXX 21124 07650 12/60 /3323 10160 20030 30132 40170 58017 60006 91200=
07650,1998-03-21 15:00:00,17,1015.8,-1.2,45,5,10000,42.596,,,340,,,,,,,,,,,wg-a,,,,AAXX 21154 07650 12/60 /3423 10170 20050 30120 40158 56012 60006 91500=
07650,1998-03-21 18:00:00,15,1017.2,1.4,44,3,50000,22.224,,,360,4.1,17.2,,,,,,,,,wg-a,,,,AAXX 21184 07650 12/84 13612 10150 20030 30134 40172 53014 60006 80002 91800 333 10172 20041=
07650,1998-03-21 21:00:00,10,1019.7,2.4,62,3,0,3.704,,,50,,,,,,,,,,,wg-a,,,,AAXX 21214 07650 12/// 10502 10100 20030 30158 40197 53024 60006 80002 92100=
07650,1998-03-22 00:00:00,10,1022.8,3.1,66,4,500,14.816,,,130,,,,,,,,,,,wg-a,,,,AAXX 22004 07650 12/00 01308 10100 20040 30189 40228 53031 60006 80000 90000=
07650,1998-03-22 03:00:00,10,1024.2,1.4,62,3,25000,11.112,,,70,,,,,,,,,,,wg-a,,,,AAXX 22034 07650 12/75 00706 10100 20030 30203 40242 53014 60006 80000 90300=
07650,1998-03-22 06:00:00,9,1026.1,1.8,61,2,25000,11.112,,,100,7.6,14.6,,,,,,,,,wg-a,,,,AAXX 22064 07650 02575 61006 10090 20020 30221 40261 51018 60006 84532 90600 333 10146 20076 60004=
07650,1998-03-22 12:00:00,12,1026.6,-0.4,54,3,25000,7.408,,,270,,,,,,,,,,,wg-a,,,,AAXX 22124 07650 12675 /2704 10120 20030 30227 40266 58004 60006 86200 91200=
07650,1998-03-22 15:00:00,14,1025.1,-1.5,51,4,25000,7.408,,,250,,,,,,,,,,,wg-a,,,,AAXX 22154 07650 12675 52504 10140 20040 30212 40251 56015 60006 85800 91500=
07650,1998-03-22 18:00:00,12,1025.1,-0,58,4,10000,11.112,,,220,8.6,14.3,,,,,,,,,wg-a,,,,AAXX 22184 07650 12/60 /2206 10120 20040 30212 40251 55000 60006 91800 333 10143 20086=
07650,1998-03-22 21:00:00,9,1026.2,1,71,4,20000,3.704,,,150,,,,,,,,,,,wg-a,,,,AAXX 22214 07650 12/70 01502 10090 20040 30222 40262 51010 60006 80000 92100=
07650,1998-03-23 00:00:00,8,1026,-0.2,66,2,20000,14.816,,,300,,,,,,,,,,,wg-a,,,,AAXX 23004 07650 12/70 03008 10080 20020 30220 40260 58002 60006 80000 90000=
07650,1998-03-23 03:00:00,4,1025.6,-0.4,75,0,20000,11.112,,,140,,,,,,,,,,,wg-a,,,,AAXX 23034 07650 12/70 01406 10040 20000 30216 40256 56004 60006 80000 90300=
07650,1998-03-23 06:00:00,3,1025.5,-0.1,87,1,15000,3.704,,,110,2.8,11.6,,,,,,,,,wg-a,,,,AAXX 23064 07650 02/65 11102 10030 20010 30215 40255 55001 60006 80001 90600 333 10116 20028 60004=
07650,1998-03-23 09:00:00,10,1025.4,0,66,4,15000,11.112,,,260,,,,,,,,,,,wg-a,,,,AAXX 23094 07650 12/65 12606 10100 20040 30215 40254 50000 60006 80001 90900=
07650,1998-03-23 12:00:00,14,1023.7,-1.7,41,1,15000,11.112,,,250,,,,,,,,,,,wg-a,,,,AAXX 23124 07650 12/65 02506 10140 20010 30198 40237 58017 60006 80000 91200=
07650,1998-03-23 15:00:00,16,1020.8,-2.8,27,-3,20000,14.816,,,250,,,,,,,,,,,wg-a,,,,AAXX 23154 07650 12/70 02508 10160 21030 30170 40208 56028 60006 80000 91500=
07650,1998-03-23 18:00:00,12,1020.3,-0.6,62,5,20000,25.928,,,260,3,16.2,,,,,,,,,wg-a,,,,AAXX 23184 07650 12/70 12614 10120 20050 30164 40203 55006 60006 80002 91800 333 10162 20030=
07650,1998-03-23 21:00:00,10,1020.7,0.4,53,1,10000,22.224,,,300,,,,,,,,,,,wg-a,,,,AAXX 23214 07650 12/60 /3012 10100 20010 30168 40207 51004 60006 92100=
07650,1998-03-24 00:00:00,9,1019.2,-1.5,53,0,20000,31.484,,,330,,,,,,,,,,,wg-a,,,,AAXX 24004 07650 12670 33317 10090 20000 30153 40192 58015 60006 83502 90000=
07650,1998-03-24 03:00:00,7,1017.6,-1.6,61,0,20000,31.484,,,320,,,,,,,,,,,wg-a,,,,AAXX 24034 07650 12/70 03217 10070 20000 30137 40176 58016 60006 80000 90300=
07650,1998-03-24 06:00:00,7,1017.3,-0.3,70,2,14000,42.596,,,330,6.9,12.2,,,,,,,,,wg-a,,,,AAXX 24064 07650 02664 /3323 10070 20020 30134 40173 56003 60006 81530 90600 333 10122 20069 60004=
07650,1998-03-24 09:00:00,7,1017.9,0.5,45,-4,500,64.82,,79.636,320,,,,,,,,,,,wg-a,,,,AAXX 24094 07650 12500 /3235 10070 21040 30139 40179 50005 60006 81130 90900 333 91043=
07650,1998-03-24 12:00:00,10,1019.3,1.5,43,-2,500,42.596,,,330,,,,,,,,,,,wg-a,,,,AAXX 24124 07650 12500 /3323 10100 21020 30154 40193 51015 60006 81130 91200=
07650,1998-03-24 15:00:00,12,1020.2,0.9,44,0,40000,35.188,,,330,,,,,,,,,,,wg-a,,,,AAXX 24154 07650 12582 23319 10120 20000 30163 40202 51009 60006 81202 91500=
07650,1998-03-24 18:00:00,9,1021.1,0.9,46,-2,20000,29.632,,,340,6.5,12.4,,,,,,,,,wg-a,,,,AAXX 24184 07650 12/70 23416 10090 21020 30172 40211 53009 60006 80002 91800 333 10124 20065=
07650,1998-03-24 21:00:00,7,1023.3,2.1,53,-2,20000,25.928,,,340,,,,,,,,,,,wg-a,,,,AAXX 24214 07650 12/70 03414 10070 21020 30193 40233 53021 60006 80000 92100=
07650,1998-03-25 00:00:00,5,1023.9,0.6,60,-2,20000,18.52,,,360,,,,,,,,,,,wg-a,,,,AAXX 25004 07650 12/70 03610 10050 21020 30199 40239 51006 60006 80000 90000=
07650,1998-03-25 03:00:00,2,1024.3,0.3,69,-3,20000,3.704,,,130,,,,,,,,,,,wg-a,,,,AAXX 25034 07650 12/70 01302 10020 21030 30202 40243 51003 60006 80000 90300=
07650,1998-03-25 06:00:00,1,1024.5,0.2,75,-3,12000,7.408,,,350,0.6,8.7,,,,,,,,,wg-a,,,,AAXX 25064 07650 02/62 23504 10010 21030 30204 40245 53002 60006 80002 90600 333 10087 20006 60004=
07650,1998-03-25 09:00:00,8,1024.3,-0.1,53,-1,15000,11.112,,,340,,,,,,,,,,,wg-a,,,,AAXX 25094 07650 12/65 23406 10080 21010 30203 40243 58001 60006 80002 90900=
07650,1998-03-25 12:00:00,14,1023.6,-0.6,44,2,11000,14.816,,,270,,,,,,,,,,,wg-a,,,,AAXX 25124 07650 12/61 /2708 10140 20020 30197 40236 58006 60006 91200=
07650,1998-03-25 15:00:00,14,1023.3,-0.3,44,2,20000,14.816,,,250,,,,,,,,,,,wg-a,,,,AAXX 25154 07650 12570 22508 10140 20020 30194 40233 57003 60006 82500 91500=
07650,1998-03-25 18:00:00,11,1023.8,0.5,54,2,20000,7.408,,,180,0.7,14.2,,,,,,,,,wg-a,,,,AAXX 25184 07650 12/70 31804 10110 20020 30199 40238 53005 60006 80002 91800 333 10142 20007=
07650,1998-03-25 21:00:00,9,1025.7,1.8,61,2,20000,7.408,,,130,,,,,,,,,,,wg-a,,,,AAXX 25214 07650 12/70 41304 10090 20020 30217 40257 51018 60006 80002 92100=
07650,1998-03-26 00:00:00,8,1025.1,-0.6,71,3,18000,11.112,,,120,,,,,,,,,,,wg-a,,,,AAXX 26004 07650 12/68 31206 10080 20030 30211 40251 58006 60006 80002 90000=
07650,1998-03-26 03:00:00,6,1024.5,-0.6,75,2,10000,3.704,,,110,,,,,,,,,,,wg-a,,,,AAXX 26034 07650 12/60 /1102 10060 20020 30205 40245 56006 60006 90300=
07650,1998-03-26 06:00:00,4,1024.3,-0.2,81,1,8000,7.408,,,120,4.2,10.6,,,,,,,,,wg-a,,,,AAXX 26064 07650 02/58 31204 10040 20010 30203 40243 55002 60006 81032 90600 333 10106 20042 60004=
07650,1998-03-26 09:00:00,10,1024,-0.2,62,3,9000,3.704,,,260,,,,,,,,,,,wg-a,,,,AAXX 26094 07650 12/59 02602 10100 20030 30201 40240 58002 60006 80000 90900=
07650,1998-03-26 12:00:00,15,1022.5,-1.5,36,0,15000,7.408,,,260,,,,,,,,,,,wg-a,,,,AAXX 26124 07650 12/65 02604 10150 20000 30186 40225 58015 60006 80000 91200=
07650,1998-03-26 15:00:00,14,1019.7,,51,4,20000,25.928,,,240,,,,,,,,,,,wg-a,,,,AAXX 26154 07650 32/70 02414 10140 20040 30158 40197 80000 91500=
07650,1998-03-26 18:00:00,12,1020.1,0.4,71,7,20000,14.816,,,260,4.2,15.5,,,,,,,,,wg-a,,,,AAXX 26184 07650 12/70 02608 10120 20070 30162 40201 53004 60006 80000 91800 333 10155 20042=
07650,1998-03-27 00:00:00,8,1020.2,-0.3,87,6,12000,7.408,,,120,,,,,,,,,,,wg-a,,,,AAXX 27004 07650 12462 41204 10080 20060 30163 40202 58003 60006 82501 90000=
07650,1998-03-27 01:00:00,8,1020.8,0.4,81,5,7000,3.704,,,40,6.7,11.9,,,,,,,,,wg-a,,,,AAXX 27014 07650 12/57 30402 10080 20050 30169 40208 53004 60006 81042 90100 333 10119 20067=
07650,1998-03-27 03:00:00,7,1020.5,0.2,93,6,7000,3.704,,,60,,,,,,,,,,,wg-a,,,,AAXX 27034 07650 12/57 20602 10070 20060 30165 40205 53002 60006 80001 90300=
07650,1998-03-27 06:00:00,8,1020.8,0.4,81,5,7000,3.704,,,40,6.7,11.9,,,,,,,,,wg-a,,,,AAXX 27064 07650 02/57 30402 10080 20050 30169 40208 53004 60006 81042 90600 333 10119 20067 60004=
07650,1998-03-27 09:00:00,14,1021.8,1,58,6,8000,3.704,,,20,,,,,,,,,,,wg-a,,,,AAXX 27094 07650 12/58 20202 10140 20060 30179 40218 53010 60006 81032 90900=
07650,1998-03-27 12:00:00,16,1021,-0.7,51,6,9000,11.112,,,280,,,,,,,,,,,wg-a,,,,AAXX 27124 07650 12/59 52806 10160 20060 30172 40210 58007 60006 81032 91200=
07650,1998-03-27 15:00:00,16,1019.7,-1.3,55,7,10000,18.52,,,190,,,,,,,,,,,wg-a,,,,AAXX 27154 07650 12/60 /1910 10160 20070 30159 40197 56013 60006 91500=
07650,1998-03-27 18:00:00,13,1019.9,0.1,72,8,10000,14.816,,,170,7.8,16.9,,,,,,,,,wg-a,,,,AAXX 27184 07650 12/60 51708 10130 20080 30160 40199 53001 60006 80002 91800 333 10169 20078=
07650,1998-03-27 21:00:00,11,1021,1.1,76,7,10000,14.816,,,110,,,,,,,,,,,wg-a,,,,AAXX 27214 07650 12/60 /1108 10110 20070 30171 40210 50011 60006 92100=
07650,1998-03-28 00:00:00,9,1021.3,0.3,81,6,10000,3.704,,,120,,,,,,,,,,,wg-a,,,,AAXX 28004 07650 12/60 /1202 10090 20060 30174 40213 53003 60006 90000=
07650,1998-03-28 03:00:00,9,1021.5,0.2,87,7,8000,7.408,,,80,,,,,,,,,,,wg-a,,,,AAXX 28034 07650 12458 30804 10090 20070 30176 40215 50002 60006 82502 90300=
07650,1998-03-28 06:00:00,8,1021.2,-0.3,87,6,6000,18.52,,,70,7.7,13.1,,,,,,,,,wg-a,,,,AAXX 28064 07650 02/56 /0710 10080 20060 30173 40212 55003 60006 80000 90600 333 10131 20077 60004=
07650,1998-03-28 09:00:00,15,1021.3,0.1,41,2,10000,7.408,,,270,,,,,,,,,,,wg-a,,,,AAXX 28094 07650 12/60 /2704 10150 20020 30174 40213 51001 60006 80002 90900=
07650,1998-03-28 12:00:00,16,1021.1,-0.1,59,8,12000,25.928,,,150,,,,,,,,,,,wg-a,,,,AAXX 28124 07650 12662 /1514 10160 20080 30173 40211 58001 60006 81101 91200=
07650,1998-03-28 15:00:00,16,1019.2,-1.9,59,8,12000,18.52,,,170,,,,,,,,,,,wg-a,,,,AAXX 28154 07650 12/62 61710 10160 20080 30154 40192 57019 60006 80001 91500=
07650,1998-03-28 18:00:00,13,1018.7,-0.6,72,8,12000,11.112,,,180,8.1,16.9,,,,,,,,,wg-a,,,,AAXX 28184 07650 12/62 61806 10130 20080 30148 40187 58006 60006 82032 91800 333 10169 20081=
07650,1998-03-28 21:00:00,11,1018.9,0.2,82,8,15000,7.408,,,100,,,,,,,,,,,wg-a,,,,AAXX 28214 07650 12/65 21004 10110 20080 30150 40189 50002 60006 80002 92100=
07650,1998-03-29 00:00:00,11,1017.6,-1.3,76,7,10000,11.112,,,100,,,,,,,,,,,wg-a,,,,AAXX 29004 07650 12/60 21006 10110 20070 30138 40176 58013 60006 80002 90000=
07650,1998-03-29 03:00:00,9,1016.4,-1.2,87,7,10000,7.408,,,90,,,,,,,,,,,wg-a,,,,AAXX 29034 07650 12/60 20904 10090 20070 30125 40164 58012 60006 80002 90300=
07650,1998-03-29 06:00:00,9,1016.3,-0.1,81,6,7000,11.112,,,60,7.7,13.4,,,,,,,,,wg-a,,,,AAXX 29064 07650 02/57 50606 10090 20060 30124 40163 55001 60006 80002 90600 333 10134 20077 60004=
07650,1998-03-29 09:00:00,15,1015.7,-0.5,55,6,10000,14.816,,,120,,,,,,,,,,,wg-a,,,,AAXX 29094 07650 12/60 /1208 10150 20060 30119 40157 56005 60006 90900=
07650,1998-03-29 12:00:00,18,1014.4,-1.3,56,9,10000,22.224,,,170,,,,,,,,,,,wg-a,,,,AAXX 29124 07650 12/60 /1712 10180 20090 30106 40144 58013 60006 91200=
07650,1998-03-29 15:00:00,17,1013.1,-1.3,52,7,15000,25.928,,,170,,,,,,,,,,,wg-a,,,,AAXX 29154 07650 12/65 61714 10170 20070 30093 40131 56013 60006 80002 91500=
07650,1998-03-29 18:00:00,15,1013.7,0.6,63,8,15000,14.816,,,170,9.2,18.2,,,,,,,,,wg-a,,,,AAXX 29184 07650 12/65 71708 10150 20080 30099 40137 53006 60006 80002 91800 333 10182 20092=
07650,1998-03-29 21:00:00,11,1015.2,1.4,76,7,10000,7.408,,,70,,,,,,,,,,,wg-a,,,,AAXX 29214 07650 12660 /0704 10110 20070 30113 40152 51014 60006 81502 92100=
07650,1998-03-30 00:00:00,11,1015.4,0.2,50,1,10000,7.408,,,170,,,,,,,,,,,wg-a,,,,AAXX 30004 07650 12/60 31704 10110 20010 30115 40154 53002 60006 80002 90000=
07650,1998-03-30 03:00:00,7,1015.4,,66,1,10000,3.704,,,320,,,,,,,,,,,wg-a,,,,AAXX 30034 07650 12/60 /3202 10070 20010 30111 40154 60006 90300=
07650,1998-03-30 15:00:00,17,1016.6,-0.4,52,7,15000,7.408,,,250,,,,,,,,,,,wg-a,,,,AAXX 30154 07650 12/65 62504 10170 20070 30128 40166 56004 60006 82032 91500=
07650,1998-03-30 18:00:00,14,1017.9,1.3,77,10,15000,7.408,,,200,7.9,18.4,,,,,,,,,wg-a,,,,AAXX 30184 07650 12/65 62004 10140 20100 30141 40179 53013 60006 80002 91800 333 10184 20079=
07650,1998-03-30 21:00:00,11,1019.1,1.1,87,9,12000,0,,,0,,,,,,,,,,,wg-a,,,,AAXX 30214 07650 12/62 60000 10110 20090 30152 40191 51011 60006 80002 92100=
07650,1998-03-31 00:00:00,9,1019.4,0.3,76,5,20000,3.704,,,150,,,,,,,,,,,wg-a,,,,AAXX 31004 07650 12/70 01502 10090 20050 30155 40194 50003 60006 80000 90000=
07650,1998-03-31 03:00:00,9,1018.6,-0.8,46,-2,15000,0,,,0,,,,,,,,,,,wg-a,,,,AAXX 31034 07650 12/65 10000 10090 21020 30147 40186 58008 60006 80002 90300=
07650,1998-03-31 06:00:00,11,1019.1,0.5,54,2,18000,3.704,,,120,7.6,14,,,,,,,,,wg-a,,,,AAXX 31064 07650 02868 51202 10110 20020 30152 40191 53005 60006 82032 90600 333 10140 20076 60004=
07650,1998-03-31 09:00:00,16,1019.6,0.6,48,5,20000,7.408,,,290,,,,,,,,,,,wg-a,,,,AAXX 31094 07650 12870 42904 10160 20050 30158 40196 51006 60006 81032 90900=
07650,1998-03-31 12:00:00,17,1019.1,-0.5,63,10,18000,18.52,,,190,,,,,,,,,,,wg-a,,,,AAXX 31124 07650 12668 /1910 10170 20100 30153 40191 58005 60006 81132 91200=
07650,1998-03-31 15:00:00,17,1018.1,-1,55,8,18000,18.52,,,180,,,,,,,,,,,wg-a,,,,AAXX 31154 07650 12668 71810 10170 20080 30143 40181 56010 60006 81532 91500=
07650,1998-03-31 18:00:00,15,1018.2,0.1,72,10,18000,7.408,,,180,11.1,18.4,,,,,,,,,wg-a,,,,AAXX 31184 07650 12668 71804 10150 20100 30144 40182 53001 60006 81532 91800 333 10184 20111=
07650,1998-03-31 21:00:00,13,1019.1,0.8,77,9,18000,11.112,,,100,,,,,,,,,,,wg-a,,,,AAXX 31214 07650 12/68 41006 10130 20090 30152 40191 51008 60006 82032 92100=
07650,1998-04-01 00:00:00,14,1018.9,-0.2,72,9,18000,11.112,,,140,,,,,,,,,,,wg-a,,,,AAXX 01004 07650 12/68 51406 10140 20090 30150 40189 56002 60006 83032 90000=
07650,1998-04-01 03:00:00,13,1017.7,-1.2,77,9,18000,3.704,,,30,,,,,,,,,,,wg-a,,,,AAXX 01034 07650 12668 70302 10130 20090 30138 40177 58012 60006 8357/ 90300=
07650,1998-04-01 06:00:00,14,1017.5,-0.2,77,10,13000,11.112,,,110,12.7,15.2,,,,,,,,,wg-a,,,,AAXX 01064 07650 02563 71106 10140 20100 30136 40175 57002 60006 875// 90600 333 10152 20127 60004=
07650,1998-04-01 09:00:00,16,1017.6,0.2,72,11,15000,14.816,,,140,,,,,,,,,,,wg-a,,,,AAXX 01094 07650 12565 71408 10160 20110 30138 40176 53002 60006 8587/ 90900=
07650,1998-04-01 12:00:00,13,1016.8,-0.9,88,11,8000,18.52,,,140,,,,4,,,,,,61,wg-a,,,,AAXX 01124 07650 02458 81410 10130 20110 30129 40168 58009 60046 76162 878// 91200 333 60047=
07650,1998-04-01 15:00:00,16,1015.7,-1,77,12,20000,11.112,,,130,,,,,,,,,,3,wg-a,,,,AAXX 01154 07650 02470 71306 10160 20120 30119 40157 58010 61000 70362 8587/ 91500 333 ////=
07650,1998-04-01 18:00:00,14,1016.2,0.5,88,12,15000,11.112,,,290,12.8,16.4,,,,,,,,1,wg-a,,,,AAXX 01184 07650 12465 72906 10140 20120 30124 40162 53005 60006 70162 858// 91800 333 10164 20128=
07650,1998-04-01 21:00:00,12,1017,0.7,94,11,8000,3.704,,,80,,,,1,,,,,,1,wg-a,,,,AAXX 01214 07650 12358 50802 10120 20110 30131 40170 51007 60017 70162 82602 92100=
07650,1998-04-02 00:00:00,11,1016.6,-0.4,100,11,1400,7.408,,,120,,,,0,,,,,,28,wg-a,,,,AAXX 02004 07650 02414 71204 10110 20110 30127 40166 58004 60016 72864 875// 90000 333 60007=
07650,1998-04-02 03:00:00,11,1015.1,-1.5,100,11,1500,7.408,,,110,,,,,,,,,,10,wg-a,,,,AAXX 02034 07650 12115 81104 10110 20110 30112 40151 56015 60006 71042 845// 90300=
07650,1998-04-02 06:00:00,10,1014,-1.1,100,10,4000,14.816,,,70,9.7,14.1,,,,,6,,,10,wg-a,,,,AAXX 02064 07650 02240 50708 10100 20100 30101 40140 57011 60006 71041 85531 90600 333 10141 20097 60064=
07650,1998-04-02 09:00:00,15,1014.4,0.5,77,11,8000,11.112,,,150,,,,,,,,,,,wg-a,,,,AAXX 02094 07650 12658 71506 10150 20110 30106 40144 51005 60006 81502 90900=
07650,1998-04-02 12:00:00,18,1012.4,-2,64,11,15000,29.632,,,150,,,,,,,,,,,wg-a,,,,AAXX 02124 07650 12665 /1516 10180 20110 30086 40124 58020 60006 81132 91200=
07650,1998-04-02 15:00:00,16,1010.9,-1.5,77,12,15000,18.52,,,160,,,,,,,,,,,wg-a,,,,AAXX 02154 07650 12565 71610 10160 20120 30071 40109 56015 60006 878// 91500=
07650,1998-04-02 18:00:00,15,1010.2,-0.7,82,12,15000,7.408,,,190,10.2,18.5,,,,,,,,,wg-a,,,,AAXX 02184 07650 12565 /1904 10150 20120 30064 40102 55007 60006 83542 91800 333 10185 20102=
07650,1998-04-02 21:00:00,14,1011.5,1.3,94,13,10000,3.704,,,200,,,,0,,,,,,60,wg-a,,,,AAXX 02214 07650 12460 82002 10140 20130 30077 40115 51013 60007 76062 8357/ 92100=
07650,1998-04-03 00:00:00,14,1010.6,-0.9,88,12,8000,3.704,,,160,,,,,,,,,,21,wg-a,,,,AAXX 03004 07650 02558 71602 10140 20120 30068 40106 56009 60006 72162 8257/ 90000 333 61000=
07650,1998-04-03 03:00:00,12,1009.5,-1.1,94,11,8000,11.112,,,120,,,,,,,,,,,wg-a,,,,AAXX 03034 07650 12558 51206 10120 20110 30057 40095 58011 60006 81531 90300=
07650,1998-04-03 06:00:00,12,1009,-0.5,94,11,12000,7.408,,,110,11.2,15.4,,,,,,,,,wg-a,,,,AAXX 03064 07650 02/62 /1104 10120 20110 30052 40090 56005 60006 81031 90600 333 10154 20112 60004=
07650,1998-04-03 09:00:00,21,1008.6,-0.3,46,9,10000,25.928,,,130,,,,,,,,,,,wg-a,,,,AAXX 03094 07650 12/60 /1314 10210 20090 30049 40086 58003 60006 90900=
07650,1998-04-03 12:00:00,21,1007.9,-0.7,56,12,18000,38.892,,,140,,,,0,,,,,,,wg-a,,,,AAXX 03124 07650 02568 /1421 10210 20120 30042 40079 58007 60006 81101 91200 333 60007=
07650,1998-04-03 15:00:00,21,1006.9,-1,53,11,18000,35.188,,,130,,,,,,,,,,,wg-a,,,,AAXX 03154 07650 12568 41319 10210 20110 30032 40069 58010 60006 81101 91500=
07650,1998-04-03 18:00:00,17,1007.1,0.1,68,11,15000,29.632,,,130,12.3,21.5,,,,,,,,,wg-a,,,,AAXX 03184 07650 12565 61316 10170 20110 30033 40071 53001 60006 83501 91800 333 10215 20123=
07650,1998-04-03 21:00:00,17,1007.1,-0,72,12,20000,31.484,,,130,,,,,,,,,,,wg-a,,,,AAXX 03214 07650 12570 21317 10170 20120 30033 40071 55000 60006 81501 92100=
07650,1998-04-04 00:00:00,17,1006.6,-0.5,72,12,25000,35.188,,,130,,,,,,,,,,,wg-a,,,,AAXX 04004 07650 12675 61319 10170 20120 30028 40066 55005 60006 82502 90000=
07650,1998-04-04 03:00:00,16,1005.4,-1.2,77,12,20000,35.188,,,120,,,,,,,,,,,wg-a,,,,AAXX 04034 07650 12570 81219 10160 20120 30016 40054 56012 60006 8557/ 90300=
07650,1998-04-04 06:00:00,15,1006.1,0.7,88,13,500,25.928,,,130,14.5,17.7,,,,,,,,,wg-a,,,,AAXX 04064 07650 02/00 /1314 10150 20130 30023 40061 52007 60006 90600 333 10177 20145 60004=
07650,1998-04-04 09:00:00,17,1007.1,1,82,14,11000,18.52,,,140,,,,0,,,,,,3,wg-a,,,,AAXX 04094 07650 12461 /1410 10170 20140 30033 40071 51010 60007 70362 85802 90900=
07650,1998-04-04 12:00:00,18,1006.7,-0.3,73,13,11000,18.52,,,190,,,,,,,,,,,wg-a,,,,AAXX 04124 07650 12/61 /1910 10180 20130 30030 40067 58003 60016 91200=
07650,1998-04-04 15:00:00,18,1007.1,0.3,68,12,17000,18.52,,,180,,,,,,,,,,,wg-a,,,,AAXX 04154 07650 12567 71810 10180 20120 30033 40071 53003 60006 82232 91500=
07650,1998-04-04 18:00:00,15,1008.1,1,59,7,20000,11.112,,,230,14.4,19.2,,,,,,,,,wg-a,,,,AAXX 04184 07650 12670 72306 10150 20070 30043 40081 51010 60006 82542 91800 333 10192 20144=
07650,1998-04-04 21:00:00,12,1009.7,1.6,82,9,20000,7.408,,,110,,,,,,,,,,,wg-a,,,,AAXX 04214 07650 12/70 41104 10120 20090 30059 40097 51016 60006 80002 92100=
07650,1998-04-05 00:00:00,10,1009.9,0.1,82,7,20000,11.112,,,120,,,,,,,,,,,wg-a,,,,AAXX 05004 07650 12/70 21206 10100 20070 30060 40099 50001 60006 80002 90000=
07650,1998-04-05 03:00:00,9,1008.5,-1.4,81,6,20000,3.704,,,70,,,,,,,,,,,wg-a,,,,AAXX 05034 07650 12/70 30702 10090 20060 30046 40085 56014 60006 80002 90300=
07650,1998-04-05 06:00:00,9,1009.3,0.8,87,7,20000,3.704,,,100,8.1,15.4,,,,,,,,,wg-a,,,,AAXX 05064 07650 02570 71002 10090 20070 30054 40093 51008 60006 81132 90600 333 10154 20081 60004=
07650,1998-04-05 09:00:00,14,1009,-0.2,63,7,20000,18.52,,,90,,,,,,,,,,,wg-a,,,,AAXX 05094 07650 12570 70910 10140 20070 30052 40090 55002 60006 83532 90900=
07650,1998-04-05 12:00:00,18,1008.8,-0.2,49,7,20000,22.224,,,150,,,,,,,,,,,wg-a,,,,AAXX 05124 07650 12570 71512 10180 20070 30050 40088 58002 60006 81532 91200=
07650,1998-04-05 15:00:00,17,1008.2,-0.6,59,9,500,31.484,,,150,,,,,,,,,,,wg-a,,,,AAXX 05154 07650 12500 71517 10170 20090 30044 40082 58006 60006 82832 91500=
07650,1998-04-05 18:00:00,14,1009.1,0.9,77,10,500,11.112,,,170,9.3,18,,,,,,,,,wg-a,,,,AAXX 05184 07650 12500 /1706 10140 20100 30053 40091 53009 60006 85802 91800 333 10180 20093=
07650,1998-04-05 21:00:00,12,1011.6,2.4,71,7,500,35.188,,,270,,,,,,,,,,,wg-a,,,,AAXX 05214 07650 12500 72719 10120 20070 30077 40116 53024 60006 8457/ 92100=
07650,1998-04-06 00:00:00,11,1012.8,1.2,82,8,500,29.632,,,290,,,,,,,,,,,wg-a,,,,AAXX 06004 07650 12600 /2916 10110 20080 30089 40128 51012 60006 82532 90000=
07650,1998-04-06 03:00:00,10,1013.8,1,76,6,500,29.632,,,280,,,,,,,,,,,wg-a,,,,AAXX 06034 07650 12/00 22816 10100 20060 30099 40138 52010 60006 80002 90300=
07650,1998-04-06 06:00:00,8,1015.5,1.7,87,6,500,14.816,,,320,7.8,14.3,,,,,,,,,wg-a,,,,AAXX 06064 07650 02/00 13208 10080 20060 30116 40155 53017 60006 81030 90600 333 10143 20078 60004=
07650,1998-04-06 09:00:00,14,1016.3,0.9,58,6,500,11.112,,,290,,,,,,,,,,,wg-a,,,,AAXX 06094 07650 12/00 12906 10140 20060 30125 40163 53009 60006 80002 90900=
07650,1998-04-06 12:00:00,17,1015.4,-0.9,45,5,500,14.816,,,240,,,,,,,,,,,wg-a,,,,AAXX 06124 07650 12500 42408 10170 20050 30116 40154 58009 60006 81102 91200=
07650,1998-04-06 15:00:00,17,1013.5,,52,7,500,18.52,,,180,,,,,,,,,,,wg-a,,,,AAXX 06154 07650 32500 61810 10170 20070 30097 40135 81202 91500=
07650,1998-04-06 18:00:00,14,1012.8,-0.7,72,9,500,18.52,,,140,8.3,17.4,,,,,,,,,wg-a,,,,AAXX 06184 07650 12500 71410 10140 20090 30090 40128 57007 60006 82542 91800 333 10174 20083=
07650,1998-04-06 21:00:00,15,1012.2,-0.6,63,8,20000,25.928,,,130,,,,,,,,,,,wg-a,,,,AAXX 06214 07650 12570 81314 10150 20080 30084 40122 58006 60006 82532 92100=
07650,1998-04-07 00:00:00,14,1009.7,-2.5,82,11,20000,31.484,,,140,,,,,,,,,,,wg-a,,,,AAXX 07004 07650 12470 /1417 10140 20110 30059 40097 56025 60006 82532 90000=
07650,1998-04-07 03:00:00,15,1007.2,-2.5,77,11,20000,35.188,,,120,,,,,,,,,,,wg-a,,,,AAXX 07034 07650 12570 71219 10150 20110 30034 40072 57025 60006 83532 90300=
07650,1998-04-07 06:00:00,14,1006.4,-0.8,82,11,12000,29.632,,,130,13.5,15,,,,,,,,61,wg-a,,,,AAXX 07064 07650 02462 81316 10140 20110 30026 40064 56008 61000 76162 8687/ 90600 333 10150 20135 6001=
07650,1998-04-07 12:00:00,15,1006.5,1.2,67,9,20000,31.484,,,300,,,,,,,,,,1,wg-a,,,,AAXX 07124 07650 02570 83017 10150 20090 30027 40065 53012 60016 70186 8557/ 91200 333 61000=
07650,1998-04-07 15:00:00,15,1007.4,0.9,59,7,20000,7.408,,,300,,,,,,,,,,,wg-a,,,,AAXX 07154 07650 12570 /3004 10150 20070 30036 40074 51009 60006 83842 91500=
07650,1998-04-07 18:00:00,15,1007.7,0.3,55,6,20000,3.704,,,140,13.5,16.2,,,,,,,,,wg-a,,,,AAXX 07184 07650 12570 /1402 10150 20060 30039 40077 53003 60006 81402 91800 333 10162 20135=
07650,1998-04-07 21:00:00,13,1009.8,2.1,67,7,40000,18.52,,,250,,,,,,,,,,,wg-a,,,,AAXX 07214 07650 12/82 42510 10130 20070 30060 40098 53021 60006 82032 92100=
07650,1998-04-08 00:00:00,12,1010.6,0.8,62,5,40000,22.224,,,280,,,,,,,,,,,wg-a,,,,AAXX 08004 07650 12/82 62812 10120 20050 30068 40106 51008 60006 84032 90000=
07650,1998-04-08 03:00:00,11,1009.8,-0.9,71,6,500,14.816,,,310,,,,,,,,,,,wg-a,,,,AAXX 08034 07650 12700 63108 10110 20060 30059 40098 58009 60006 8157/ 90300=
07650,1998-04-08 06:00:00,10,1009.6,-0.2,71,5,500,14.816,,,300,8.5,15,,,,,,,,,wg-a,,,,AAXX 08064 07650 02/00 53008 10100 20050 30057 40096 55002 60006 80002 90600 333 10150 20085 60004=
07650,1998-04-08 09:00:00,13,1009.8,0.3,58,5,500,18.52,,,270,,,,,,,,,,,wg-a,,,,AAXX 08094 07650 12/00 52710 10130 20050 30060 40098 53003 60006 80002 90900=
07650,1998-04-08 12:00:00,16,1008.2,-1.6,42,3,500,18.52,,,270,,,,,,,,,,,wg-a,,,,AAXX 08124 07650 12500 /2710 10160 20030 30044 40082 58016 60006 81202 91200=
07650,1998-04-08 15:00:00,17,1005.7,-2.5,52,7,500,25.928,,,240,,,,,,,,,,,wg-a,,,,AAXX 08154 07650 12500 /2414 10170 20070 30019 40057 57025 60006 82202 91500=
07650,1998-04-08 18:00:00,15,1005.6,-0.1,59,7,500,18.52,,,250,9.6,18.1,,,,,,,,,wg-a,,,,AAXX 08184 07650 12500 42510 10150 20070 30018 40056 55001 60006 82232 91800 333 10181 20096=
07650,1998-04-08 21:00:00,13,1006.6,1,77,9,500,14.816,,,260,,,,,,,,,,,wg-a,,,,AAXX 08214 07650 12500 32608 10130 20090 30028 40066 51010 60006 81532 92100=
07650,1998-04-09 00:00:00,11,1006.1,-0.5,71,6,500,18.52,,,290,,,,,,,,,,,wg-a,,,,AAXX 09004 07650 12500 32910 10110 20060 30023 40061 58005 60006 81532 90000=
07650,1998-04-09 03:00:00,11,1004.8,-1.3,76,7,500,11.112,,,330,,,,,,,,,,,wg-a,,,,AAXX 09034 07650 12500 /3306 10110 20070 30010 40048 58013 60006 82532 90300=
07650,1998-04-09 06:00:00,8,1004.2,-0.7,87,6,500,3.704,,,20,7.9,14.5,,,,,,,,,wg-a,,,,AAXX 09064 07650 02500 20202 10080 20060 30003 40042 55007 60006 81531 90600 333 10145 20079 60004=
07650,1998-04-09 09:00:00,14,1003.9,-0.2,55,5,50000,3.704,,,360,,,,,,,,,,,wg-a,,,,AAXX 09094 07650 12584 23602 10140 20050 30001 40039 57002 60006 81131 90900=
07650,1998-04-09 12:00:00,16,1002.7,-1.2,48,5,40000,25.928,,,170,,,,,,,,,,,wg-a,,,,AAXX 09124 07650 12582 31714 10160 20050 39989 40027 58012 60006 82131 91200=
07650,1998-04-09 15:00:00,16,1000.3,-2.4,63,9,40000,42.596,,,140,,,,,,,,,,,wg-a,,,,AAXX 09154 07650 12582 /1423 10160 20090 39965 40003 57024 60006 83831 91500=
07650,1998-04-09 18:00:00,15,999.4,-0.9,72,10,40000,35.188,,,140,8.4,16.5,,,,,,,,,wg-a,,,,AAXX 09184 07650 12582 /1419 10150 20100 39956 49994 56009 60006 81231 91800 333 10165 20084=
07650,1998-04-09 21:00:00,14,999.1,-0.3,77,10,15000,29.632,,,150,,,,,,,,,,13,wg-a,,,,AAXX 09214 07650 12465 /1516 10140 20100 39953 49991 58003 60006 71322 82962 92100=
07650,1998-04-10 00:00:00,13,998.5,-0.6,77,9,15000,11.112,,,150,,,,0,,,,,,17,wg-a,,,,AAXX 10004 07650 02565 61506 10130 20090 39947 49985 58006 60016 71796 83930 90000 333 60007=
07650,1998-04-10 03:00:00,10,995.8,-2.7,87,8,15000,18.52,,,100,,,,7,,,,,,1,wg-a,,,,AAXX 10034 07650 12565 71010 10100 20080 39920 49958 57027 60077 70196 8257/ 90300=
07650,1998-04-10 06:00:00,12,995.1,-0.7,82,9,15000,11.112,,,160,9.8,14.7,,,,,8,,,1,wg-a,,,,AAXX 10064 07650 02465 71606 10120 20090 39913 49951 55007 60006 70196 8387/ 90600 333 10147 20098 60084=
07650,1998-04-10 09:00:00,12,996.4,1.3,71,7,25000,11.112,,,190,,,,,,,,,,,wg-a,,,,AAXX 10094 07650 12475 71906 10120 20070 39926 49964 52013 60006 8387/ 90900=
07650,1998-04-10 12:00:00,14,996,-0.4,55,5,40000,18.52,,,260,,,,,,,,,,,wg-a,,,,AAXX 10124 07650 12582 42610 10140 20050 39922 49960 57004 60006 82202 91200=
07650,1998-04-10 15:00:00,14,996.8,0.8,51,4,40000,22.224,,,210,,,,,,,,,,,wg-a,,,,AAXX 10154 07650 12682 32112 10140 20040 39930 49968 51008 60006 82231 91500=
07650,1998-04-10 18:00:00,12,998.6,1.8,67,6,40000,3.704,,,180,11.7,15.3,,,,,,,,,wg-a,,,,AAXX 10184 07650 12582 /1802 10120 20060 39948 49986 53018 60006 81963 91800 333 10153 20117=
07650,1998-04-10 21:00:00,10,1000.6,2,71,5,500,3.704,,,80,,,,,,,,,,,wg-a,,,,AAXX 10214 07650 12/00 50802 10100 20050 39968 40006 51020 60006 82032 92100=
07650,1998-04-11 00:00:00,9,1001.4,0.7,76,5,500,7.408,,,90,,,,,,,,,,25,wg-a,,,,AAXX 11004 07650 02500 /0904 10090 20050 39975 40014 51007 61000 72586 81502 90000 333 6100=
07650,1998-04-11 03:00:00,8,1000.6,-0.8,81,5,20000,7.408,,,90,,,,,,,,,,,wg-a,,,,AAXX 11034 07650 12570 70904 10080 20050 39967 40006 58008 60006 8587/ 90300=
07650,1998-04-11 06:00:00,8,1000.4,-0.2,93,7,20000,7.408,,,270,7.6,12,,,,,,,,21,wg-a,,,,AAXX 11064 07650 02570 72704 10080 20070 39965 40004 55002 61000 72186 8587/ 90600 333 10120 20076 6000=
07650,1998-04-11 09:00:00,7,1001.9,1.5,87,5,9000,29.632,,,300,,,,0,,,,,,81,wg-a,,,,AAXX 11094 07650 12459 73016 10070 20050 39980 40019 53015 60007 78186 872// 90900=
07650,1998-04-11 12:00:00,9,1002.9,1,76,5,25000,11.112,,,300,,,,,,,,,,1,wg-a,,,,AAXX 11124 07650 02575 73006 10090 20050 39990 40029 51010 60016 70186 878// 91200 333 61000=
07650,1998-04-11 18:00:00,7,1004.5,1.7,81,4,7000,3.704,,,10,6.6,10.4,,,,,,,,16,wg-a,,,,AAXX 11184 07650 02457 60102 10070 20040 30006 40045 53017 61000 71698 86900 91800 333 10104 20066 6001=
07650,1998-04-12 00:00:00,8,1005.4,0.4,76,4,25000,18.52,,,300,,,,,,,,,,1,wg-a,,,,AAXX 12004 07650 02575 73010 10080 20040 30015 40054 50004 61000 70198 8483/ 90000 333 ////=
07650,1998-04-12 03:00:00,,1,-0.2,,,20000,18.52,,,310,,,,,,,,,,,wg-a,,,,AAXX 12034 07650 32570 53110 1//// 2//// 30013 56002 85801 90300=
07650,1998-04-12 06:00:00,,1,,,,500,7.408,,,10,,,,,,,,,,,wg-a,,,,AAXX 12064 07650 12500 40104 1//// 2//// 30020 60006 81231 90600=
07650,1998-04-12 09:00:00,,1,1.5,,,500,31.484,,,280,,,,,,,,,,,wg-a,,,,AAXX 12094 07650 32500 /2817 1//// 2//// 30035 53015 83231 90900=
07650,1998-04-12 12:00:00,13,1007.6,0.3,54,4,500,31.484,,,270,,,,,,,,,,,wg-a,,,,AAXX 12124 07650 12500 72717 10130 20040 30038 40076 50003 60006 84231 91200=
07650,1998-04-12 15:00:00,13,1007,-0.6,47,2,40000,38.892,,,270,,,,,,,,,,,wg-a,,,,AAXX 12154 07650 12582 42721 10130 20020 30032 40070 56006 60006 82231 91500=
07650,1998-04-12 18:00:00,11,1008.3,1.2,50,1,40000,50.004,,,280,,,,,,,,,,,wg-a,,,,AAXX 12184 07650 12582 42827 10110 20010 30044 40083 53012 60006 82931 91800=
07650,1998-04-12 21:00:00,9,1010.5,2.2,57,1,500,35.188,,,270,,,,,,,,,,,wg-a,,,,AAXX 12214 07650 12500 22719 10090 20010 30066 40105 51022 60006 82230 92100=
07650,1998-04-13 00:00:00,8,1010.7,0.2,61,1,500,31.484,,,270,,,,,,,,,,,wg-a,,,,AAXX 13004 07650 12700 52717 10080 20010 30068 40107 50002 60006 82530 90000=
07650,1998-04-13 03:00:00,7,1009.5,-1.2,70,2,10000,31.484,,,280,,,,,,,,,,,wg-a,,,,AAXX 13034 07650 12/60 /2817 10070 20020 30056 40095 56012 60006 90300=
07650,1998-04-13 06:00:00,5,1009.8,0.3,75,1,500,18.52,,,320,4.3,10.8,,,,,1,,,,wg-a,,,,AAXX 13064 07650 02500 33210 10050 20010 30059 40098 53003 60006 81130 90600 333 10108 20043 60014=
07650,1998-04-13 09:00:00,8,1010.4,0.6,57,0,60000,18.52,,,260,,,,,,,,,,,wg-a,,,,AAXX 13094 07650 12586 /2610 10080 20000 30065 40104 53006 60006 81242 90900=
07650,1998-04-13 12:00:00,12,1009.5,-0.9,38,-2,60000,25.928,,,270,,,,,,,,,,,wg-a,,,,AAXX 13124 07650 12586 52714 10120 21020 30056 40095 56009 60006 83242 91200=
07650,1998-04-13 15:00:00,12,1007.6,-1.8,38,-2,60000,29.632,,,290,,,,,,,,,,,wg-a,,,,AAXX 13154 07650 12586 52916 10120 21020 30038 40076 56018 60006 84302 91500=
07650,1998-04-13 18:00:00,10,1007.3,-0.4,43,-2,11000,31.484,,,340,5,13.2,,,,,,,,,wg-a,,,,AAXX 13184 07650 12/61 /3417 10100 21020 30034 40073 57004 60006 91800 333 10132 20050=
07650,1998-04-13 21:00:00,7,1009.9,2.6,57,-1,40000,25.928,,,330,,,,,,,,,,,wg-a,,,,AAXX 13214 07650 12682 23314 10070 21010 30060 40099 51026 60006 81502 92100=
07650,1998-04-14 00:00:00,5,1011.1,1.2,70,0,40000,22.224,,,310,,,,,,,,,,,wg-a,,,,AAXX 14004 07650 12/82 03112 10050 20000 30072 40111 51012 60006 80000 90000=
07650,1998-04-14 03:00:00,4,1010.7,-0.5,75,0,40000,18.52,,,300,,,,,,,,,,,wg-a,,,,AAXX 14034 07650 12/82 23010 10040 20000 30067 40107 55005 60006 80002 90300=
07650,1998-04-14 06:00:00,4,1011.2,0.5,75,0,40000,22.224,,,330,2,10.1,,,,,1,,,,wg-a,,,,AAXX 14064 07650 02/82 23312 10040 20000 30072 40112 53005 60006 80001 90600 333 10101 20020 60014=
07650,1998-04-14 09:00:00,9,1011.5,0.4,46,-2,20000,7.408,,,310,,,,,,,,,,,wg-a,,,,AAXX 14094 07650 12/70 43104 10090 21020 30076 40115 51004 60006 80004 90900=
07650,1998-04-14 12:00:00,13,1010.7,-0.7,35,-2,75000,11.112,,,260,,,,,,,,,,,wg-a,,,,AAXX 14124 07650 12689 42606 10130 21020 30069 40107 56007 60006 82202 91200=
07650,1998-04-14 15:00:00,12,1010.1,-0.7,47,1,75000,22.224,,,170,,,,,,,,,,,wg-a,,,,AAXX 14154 07650 12689 /1712 10120 20010 30062 40101 58007 60006 83201 91500=
07650,1998-04-14 18:00:00,11,1008.8,-1.3,58,3,75000,18.52,,,130,3.6,13.7,,,,,,,,,wg-a,,,,AAXX 14184 07650 12689 71310 10110 20030 30049 40088 58013 60006 82404 91800 333 10137 20036=
07650,1998-04-14 21:00:00,11,1009.1,0.3,66,5,500,22.224,,,120,,,,,,,,,,,wg-a,,,,AAXX 14214 07650 12600 81212 10110 20050 30052 40091 50003 60006 83572 92100=
07650,1998-04-15 00:00:00,12,1007.6,-1.4,71,7,20000,31.484,,,110,,,,,,,,,,,wg-a,,,,AAXX 15004 07650 12670 81117 10120 20070 30038 40076 58014 60006 8657/ 90000=
07650,1998-04-15 03:00:00,13,1006.2,-1.4,77,9,15000,31.484,,,140,,,,,,,,,,60,wg-a,,,,AAXX 15034 07650 02265 81417 10130 20090 30024 40062 56014 61000 76062 8557/ 90300 333 ////=
07650,1998-04-15 06:00:00,12,1005.9,-0.3,76,8,10000,35.188,,57.412,130,10.5,13.2,,,,,,,,21,wg-a,,,,AAXX 15064 07650 02460 81319 10120 20080 30021 40059 55003 61000 72162 8567/ 90600 333 10132 20105 6003 91031=
07650,1998-04-15 09:00:00,13,1004.9,-1,62,6,10000,31.484,,,100,,,,,,,,,,3,wg-a,,,,AAXX 15094 07650 02460 81017 10130 20060 30011 40049 58010 61000 70362 8687/ 90900 333 ////=
07650,1998-04-15 12:00:00,11,1003.2,-1.7,82,8,6000,35.188,,,110,,,,1,,,,,,63,wg-a,,,,AAXX 15124 07650 02456 81119 10110 20080 39994 40032 58017 60016 76362 8687/ 91200 333 60017=
07650,1998-04-15 15:00:00,11,999.5,-3.7,82,8,500,46.3,,,110,,,,6,,,,,,61,wg-a,,,,AAXX 15154 07650 12400 81125 10110 20080 39957 49995 58037 60067 76166 8687/ 91500=
07650,1998-04-15 18:00:00,12,1000.8,1.3,88,10,4000,25.928,,44.448,170,10.5,13.4,,,,,,,,61,wg-a,,,,AAXX 15184 07650 02540 81714 10120 20100 39970 40008 51013 61000 76196 8637/ 91800 333 10134 20105 6010 91024=
07650,1998-04-15 21:00:00,9,1004.1,3.2,87,7,20000,18.52,,,300,,,,,,,,,,1,wg-a,,,,AAXX 15214 07650 02670 /3010 10090 20070 30002 40041 51032 61000 70196 8153/ 92100 333 ////=
07650,1998-04-16 00:00:00,9,1004.9,0.8,87,7,20000,22.224,,,300,,,,0,,,,,,2,wg-a,,,,AAXX 16004 07650 02670 73012 10090 20070 30010 40049 52008 60006 70296 875// 90000 333 60007=
07650,1998-04-16 06:00:00,6,1004.5,-0.4,81,3,40000,29.632,,,290,5.9,11.7,,,,,18,,,,wg-a,,,,AAXX 16064 07650 02682 32916 10060 20030 30006 40045 56004 60006 81532 90600 333 10117 20059 60184=
07650,1998-04-16 09:00:00,10,1005.3,0.8,50,0,50000,25.928,,,290,,,,,,,,,,,wg-a,,,,AAXX 16094 07650 12584 /2914 10100 20000 30014 40053 51008 60006 81132 90900=
07650,1998-04-16 12:00:00,12,1003.2,-2,40,-1,50000,7.408,,,270,,,,,,,,,,,wg-a,,,,AAXX 16124 07650 12/84 52704 10120 21010 39994 40032 58020 60006 81032 91200=
07650,1998-04-16 15:00:00,13,1000.8,-2.4,51,3,50000,22.224,,,180,,,,,,,,,,,wg-a,,,,AAXX 16154 07650 12684 41812 10130 20030 39970 40008 57024 60006 8/800 91500=
07650,1998-04-16 18:00:00,12,998,-2.8,62,5,25000,25.928,,,110,6.3,14,,,,,,,,,wg-a,,,,AAXX 16184 07650 12575 71114 10120 20050 39942 49980 58028 60006 83576 91800 333 10140 20063=
07650,1998-04-16 21:00:00,13,995.5,-2.5,72,8,15000,22.224,,,90,,,,,,,,,,,wg-a,,,,AAXX 16214 07650 12565 70912 10130 20080 39917 49955 56025 60006 8357/ 92100=
07650,1998-04-17 00:00:00,11,993.7,-1.8,82,8,12000,18.52,,,80,,,,,,,,,,3,wg-a,,,,AAXX 17004 07650 02562 /0810 10110 20080 39899 49937 58018 61000 70362 8257/ 90000 333 6100=
07650,1998-04-17 03:00:00,10,994.6,0.9,82,7,12000,3.704,,,330,,,,,,,,,,,wg-a,,,,AAXX 17034 07650 12562 33302 10100 20070 39908 49946 51009 60006 81530 90300=
07650,1998-04-17 06:00:00,12,995.8,1.2,67,6,20000,31.484,,,260,9.6,12.9,,,,,,,,,wg-a,,,,AAXX 17064 07650 02670 32617 10120 20060 39920 49958 53012 60006 82530 90600 333 10129 20096 61000=
07650,1998-04-17 09:00:00,14,997.6,1.8,51,4,40000,50.004,,,270,,,,,,,,,,,wg-a,,,,AAXX 17094 07650 12582 32727 10140 20040 39938 49976 53018 60006 83201 90900=
07650,1998-04-17 12:00:00,15,998.3,0.7,48,4,40000,38.892,,,290,,,,,,,,,,,wg-a,,,,AAXX 17124 07650 12582 /2921 10150 20040 39945 49983 51007 60006 83201 91200=
07650,1998-04-17 15:00:00,14,998.3,0,51,4,40000,31.484,,,240,,,,,,,,,,,wg-a,,,,AAXX 17154 07650 12582 72417 10140 20040 39945 49983 50000 60006 82242 91500=
07650,1998-04-17 18:00:00,12,998.7,0.4,50,2,40000,31.484,,,270,11.8,15.8,,,,,,,,,wg-a,,,,AAXX 17184 07650 12682 72717 10120 20020 39949 49987 53004 60006 82572 91800 333 10158 20118=
07650,1998-04-18 00:00:00,9,1001.8,0.3,66,3,40000,38.892,,,270,,,,,,,,,,,wg-a,,,,AAXX 18004 07650 12682 52721 10090 20030 39979 40018 51003 60006 83502 90000=
07650,1998-04-18 03:00:00,9,1001.7,-0.1,71,4,40000,42.596,,,280,,,,,,,,,,,wg-a,,,,AAXX 18034 07650 12682 /2823 10090 20040 39978 40017 56001 60006 81502 90300=
07650,1998-04-18 09:00:00,12,1004.7,1.4,54,3,40000,46.3,,,300,,,,,,,,,,,wg-a,,,,AAXX 18094 07650 12582 /3025 10120 20030 30009 40047 51014 60006 81132 90900=
07650,1998-04-18 12:00:00,14,1005.3,0.6,41,1,40000,46.3,,,310,,,,,,,,,,,wg-a,,,,AAXX 18124 07650 12682 63125 10140 20010 30015 40053 50006 60006 84201 91200=
07650,1998-04-18 15:00:00,14,1005.8,0.5,36,-1,40000,35.188,,59.264,320,,,,,,,,,,,wg-a,,,,AAXX 18154 07650 12682 /3219 10140 21010 30020 40058 53005 60006 85400 91500 333 91032=
07650,1998-04-18 18:00:00,12,1007.6,1.8,44,0,40000,31.484,,,310,9.4,15.4,,,,,,,,,wg-a,,,,AAXX 18184 07650 12682 23117 10120 20000 30038 40076 52018 60006 82400 91800 333 10154 20094=
07650,1998-04-18 21:00:00,10,1010.1,2.4,57,2,40000,22.224,,,310,,,,,,,,,,,wg-a,,,,AAXX 18214 07650 12682 23112 10100 20020 30062 40101 51024 60006 82400 92100=
07650,1998-04-19 00:00:00,7,1011.1,1,66,1,20000,18.52,,,290,,,,,,,,,,,wg-a,,,,AAXX 19004 07650 12/70 02910 10070 20010 30072 40111 51010 60006 80000 90000=
07650,1998-04-19 03:00:00,7,1011,-0.1,76,3,20000,18.52,,,310,,,,,,,,,,,wg-a,,,,AAXX 19034 07650 12/70 03110 10070 20030 30071 40110 55001 60006 80000 90300=
07650,1998-04-19 06:00:00,8,1012,1,76,4,20000,14.816,,,300,5.5,12.3,,,,,,,,,wg-a,,,,AAXX 19064 07650 02770 13008 10080 20040 30081 40120 53010 60006 81530 90600 333 10123 20055 60004=
07650,1998-04-19 09:00:00,13,1012.4,0.4,54,4,40000,22.224,,,270,,,,,,,,,,,wg-a,,,,AAXX 19094 07650 12682 22712 10130 20040 30085 40124 51004 60006 81102 90900=
07650,1998-04-19 12:00:00,16,1011.7,-0.6,39,2,40000,25.928,,,260,,,,,,,,,,,wg-a,,,,AAXX 19124 07650 12682 42614 10160 20020 30079 40117 58006 60006 82102 91200=
07650,1998-04-19 15:00:00,15,1011.6,-0.1,51,5,75000,31.484,,,240,,,,,,,,,,,wg-a,,,,AAXX 19154 07650 12689 42417 10150 20050 30078 40116 57001 60006 82202 91500=
07650,1998-04-19 18:00:00,14,1012.7,1.1,63,7,40000,25.928,,,250,7.7,16.3,,,,,,,,,wg-a,,,,AAXX 19184 07650 12/82 /2514 10140 20070 30089 40127 53011 60006 81031 91800 333 10163 20077=
07650,1998-04-19 21:00:00,10,1014.6,1.8,87,8,500,7.408,,,320,,,,,,,,,,,wg-a,,,,AAXX 19214 07650 12/00 03204 10100 20080 30107 40146 51018 60006 80000 92100=
07650,1998-04-20 00:00:00,8,1015.1,0.5,93,7,500,7.408,,,130,,,,,,,,,,,wg-a,,,,AAXX 20004 07650 12/00 01304 10080 20070 30112 40151 50005 60006 80000 90000=
07650,1998-04-20 03:00:00,7,1014.9,-0.2,93,6,20000,7.408,,,130,,,,,,,,,,,wg-a,,,,AAXX 20034 07650 12/70 21304 10070 20060 30110 40149 56002 60006 80002 90300=
07650,1998-04-20 06:00:00,8,1016.4,1.5,93,7,20000,7.408,,,60,6.4,13.6,,,,,,,,,wg-a,,,,AAXX 20064 07650 02/70 10604 10080 20070 30125 40164 53015 60006 80001 90600 333 10136 20064 60004=
07650,1998-04-20 09:00:00,15,1017.6,1.3,67,9,40000,7.408,,,260,,,,,,,,,,,wg-a,,,,AAXX 20094 07650 12682 32604 10150 20090 30138 40176 51013 60006 81102 90900=
07650,1998-04-20 12:00:00,19,1017.8,0.2,32,2,40000,18.52,,,170,,,,,,,,,,,wg-a,,,,AAXX 20124 07650 12682 21710 10190 20020 30140 40178 50002 60006 81102 91200=
07650,1998-04-20 15:00:00,18,1018.2,0.4,45,6,40000,25.928,,,170,,,,,,,,,,,wg-a,,,,AAXX 20154 07650 12682 31714 10180 20060 30144 40182 53004 60006 81102 91500=
07650,1998-04-20 18:00:00,15,1019.1,0.9,55,6,500,14.816,,,170,7.8,19.2,,,,,,,,,wg-a,,,,AAXX 20184 07650 12/00 11708 10150 20060 30153 40191 52009 60006 80002 91800 333 10192 20078=
07650,1998-04-20 21:00:00,12,1020.4,1.2,58,4,500,7.408,,,50,,,,,,,,,,,wg-a,,,,AAXX 20214 07650 12/00 10504 10120 20040 30165 40204 51012 60006 80002 92100=
07650,1998-04-21 00:00:00,10,1021,0.6,66,4,20000,3.704,,,120,,,,,,,,,,,wg-a,,,,AAXX 21004 07650 12470 11202 10100 20040 30171 40210 53006 60006 81502 90000=
07650,1998-04-21 03:00:00,10,1019.9,-1.1,62,3,20000,11.112,,,70,,,,,,,,,,,wg-a,,,,AAXX 21034 07650 12470 /0706 10100 20030 30160 40199 56011 60006 81502 90300=
07650,1998-04-21 06:00:00,10,1020.3,0.4,66,4,500,0,,,0,8.3,15.2,,,,,,,,,wg-a,,,,AAXX 21064 07650 02400 /0000 10100 20040 30164 40203 53004 60006 81502 90600 333 10152 20083 60004=
07650,1998-04-21 09:00:00,15,1020.6,0.3,63,8,50000,7.408,,,310,,,,,,,,,,,wg-a,,,,AAXX 21094 07650 12684 33104 10150 20080 30167 40206 52003 60006 81102 90900=
07650,1998-04-21 12:00:00,19,1019.7,-0.8,60,11,40000,18.52,,,210,,,,,,,,,,,wg-a,,,,AAXX 21124 07650 12682 32110 10190 20110 30159 40197 57008 60006 81102 91200=
07650,1998-04-21 18:00:00,16,1018,-0.7,59,8,500,11.112,,,190,9.5,18.8,,,,,,,,,wg-a,,,,AAXX 21184 07650 12600 21906 10160 20080 30142 40180 56007 60006 81402 91800 333 10188 20095=
07650,1998-04-21 21:00:00,12,1018.2,0.1,67,6,25000,3.704,,,140,,,,,,,,,,,wg-a,,,,AAXX 21214 07650 12/75 21402 10120 20060 30143 40182 50001 60006 80002 92100=
07650,1998-04-22 00:00:00,11,1017.5,-0.7,66,5,25000,7.408,,,100,,,,,,,,,,,wg-a,,,,AAXX 22004 07650 12/75 01004 10110 20050 30136 40175 56007 60006 80000 90000=
07650,1998-04-22 03:00:00,10,1016.9,-0.6,82,7,25000,11.112,,,60,,,,,,,,,,,wg-a,,,,AAXX 22034 07650 12/75 00606 10100 20070 30130 40169 58006 60006 80000 90300=
07650,1998-04-22 06:00:00,12,1015.8,-1.1,82,9,15000,7.408,,,100,9.6,16.4,,,,,,,,,wg-a,,,,AAXX 22064 07650 02/65 11004 10120 20090 30119 40158 55011 60006 81030 90600 333 10164 20096 60004=
07650,1998-04-22 09:00:00,17,1015.5,-0.2,63,10,15000,11.112,,,290,,,,,,,,,,,wg-a,,,,AAXX 22094 07650 12/65 22906 10170 20100 30117 40155 58002 60006 80002 90900=
07650,1998-04-22 12:00:00,19,1013.9,-1.6,52,9,11000,7.408,,,300,,,,,,,,,,,wg-a,,,,AAXX 22124 07650 12/61 /3004 10190 20090 30101 40139 58016 60006 91200=
07650,1998-04-22 15:00:00,21,1011.6,-2.2,46,9,20000,18.52,,,210,,,,,,,,,,,wg-a,,,,AAXX 22154 07650 12670 /2110 10210 20090 30079 40116 56022 60006 82202 91500=
07650,1998-04-22 18:00:00,17,1012.3,0.6,63,10,15000,11.112,,,250,11.9,21.7,,,,,,,,,wg-a,,,,AAXX 22184 07650 12665 72506 10170 20100 30085 40123 53006 60006 81532 91800 333 10217 20119=
07650,1998-04-22 21:00:00,15,1013.6,1.3,72,10,15000,7.408,,,310,,,,,,,,,,,wg-a,,,,AAXX 22214 07650 12665 73104 10150 20100 30098 40136 51013 60006 81532 92100=
07650,1998-04-23 00:00:00,14,1013.7,0.1,77,10,12000,0,,,0,,,,,,,,,,,wg-a,,,,AAXX 23004 07650 12662 70000 10140 20100 30099 40137 53001 60006 81532 90000=
07650,1998-04-23 03:00:00,14,1013.1,-0.6,72,9,14000,7.408,,,130,,,,,,,,,,,wg-a,,,,AAXX 23034 07650 12/64 81304 10140 20090 30093 40131 56006 60006 83032 90300=
07650,1998-04-23 06:00:00,14,1013.7,0.6,63,7,16000,0,,,0,13.1,17.2,,,,,,,,,wg-a,,,,AAXX 23064 07650 02/66 80000 10140 20070 30099 40137 53006 60006 84032 90600 333 10172 20131 60004=
07650,1998-04-23 09:00:00,16,1014.9,1.2,68,10,10000,3.704,,,180,,,,,,,,,,,wg-a,,,,AAXX 23094 07650 12760 81802 10160 20100 30111 40149 51012 60006 83332 90900=
07650,1998-04-23 12:00:00,20,1014.8,-0.1,46,8,15000,3.704,,,290,,,,,,,,,,,wg-a,,,,AAXX 23124 07650 12765 72902 10200 20080 30110 40148 58001 60006 83532 91200=
07650,1998-04-23 15:00:00,21,1014.8,0.1,46,9,18000,18.52,,,240,,,,,,,,,,,wg-a,,,,AAXX 23154 07650 12768 62410 10210 20090 30111 40148 53001 60006 81531 91500=
07650,1998-04-23 18:00:00,20,1015.1,0.2,43,7,10000,11.112,,,160,13.8,22.9,,,,,,,,,wg-a,,,,AAXX 23184 07650 12/60 /1606 10200 20070 30113 40151 53002 60006 91800 333 10229 20138=
07650,1998-04-23 21:00:00,17,1016.6,1.5,52,7,500,7.408,,,140,,,,,,,,,,,wg-a,,,,AAXX 23214 07650 12/00 31404 10170 20070 30128 40166 53015 60006 80002 92100=
07650,1998-04-24 00:00:00,14,1017.5,0.9,77,10,20000,18.52,,,280,,,,,,,,,,,wg-a,,,,AAXX 24004 07650 12/70 32810 10140 20100 30137 40175 53009 60006 80002 90000=
07650,1998-04-24 03:00:00,14,1017.7,0.2,72,9,20000,14.816,,,300,,,,,,,,,,,wg-a,,,,AAXX 24034 07650 12/70 23008 10140 20090 30139 40177 53002 60006 80002 90300=
07650,1998-04-24 06:00:00,15,1018.1,0.4,72,10,500,25.928,,,290,13.2,19.9,,,,,,,,,wg-a,,,,AAXX 24064 07650 02/00 32914 10150 20100 30143 40181 53004 60006 81032 90600 333 10199 20132 60004=
07650,1998-04-24 09:00:00,20,1018.9,0.8,46,8,50000,31.484,,,330,,,,,,,,,,,wg-a,,,,AAXX 24094 07650 12/84 43317 10200 20080 30151 40189 51008 60006 81034 90900=
07650,1998-04-24 12:00:00,23,1018.2,-0.6,41,9,60000,35.188,,,320,,,,,,,,,,,wg-a,,,,AAXX 24124 07650 12686 43219 10230 20090 30145 40182 58006 60006 81102 91200=
07650,1998-04-24 18:00:00,21,1017.8,0.5,40,7,40000,42.596,,,320,14.3,23.1,,,,,,,,,wg-a,,,,AAXX 24184 07650 12/82 23223 10210 20070 30140 40178 53005 60006 81041 91800 333 10231 20143=
07650,1998-04-25 00:00:00,16,1018.8,-0,55,7,500,22.224,,,320,,,,,,,,,,,wg-a,,,,AAXX 25004 07650 12/00 13212 10160 20070 30150 40188 55000 60006 80001 90000=
07650,1998-04-25 06:00:00,12,1018.7,0.1,67,6,25000,3.704,,,140,11.3,20.7,,,,,,,,,wg-a,,,,AAXX 25064 07650 02/75 61402 10120 20060 30148 40187 53001 60006 80001 90600 333 10207 20113 60004=
07650,1998-04-25 12:00:00,23,1018.3,-1.1,36,7,500,22.224,,,200,,,,,,,,,,,wg-a,,,,AAXX 25124 07650 12/00 12012 10230 20070 30146 40183 57011 60006 80001 91200=
07650,1998-04-25 18:00:00,18,1017.6,-0.2,59,10,500,7.408,,,210,12.4,23.2,,,,,,,,,wg-a,,,,AAXX 25184 07650 12/00 62104 10180 20100 30138 40176 58002 60006 80002 91800 333 10232 20124=
07650,1998-04-26 00:00:00,14,1016.5,-1.5,82,11,500,0,,,70,,,,,,,,,,,wg-a,,,,AAXX 26004 07650 12/00 307// 10140 20110 30121 40165 57015 60006 8000/ 90000=
07650,1998-04-26 06:00:00,16,1013.4,-0.9,59,8,20000,18.52,,,110,14.1,18.3,,,,,,,,,wg-a,,,,AAXX 26064 07650 02/70 71110 10160 20080 30096 40134 56009 60006 82032 90600 333 10183 20141 60004=
07650,1998-04-26 12:00:00,20,1010.7,-1.8,56,11,25000,31.484,,,140,,,,,,,,,,,wg-a,,,,AAXX 26124 07650 12575 71417 10200 20110 30070 40107 58018 60006 81132 91200=
07650,1998-04-26 18:00:00,18,1006.6,-2.2,52,8,11000,25.928,,,140,16,20.9,,,,,,,,,wg-a,,,,AAXX 26184 07650 12/61 /1414 10180 20080 30028 40066 58022 60006 91800 333 10209 20160=
07650,1998-04-27 00:00:00,15,1002.2,-3.3,67,9,20000,22.224,,,70,,,,,,,,,,,wg-a,,,,AAXX 27004 07650 12670 70712 10150 20090 39984 40022 58033 60006 82570 90000=
07650,1998-04-27 06:00:00,9,1002.3,2.5,93,8,15000,29.632,,,260,8.7,17.9,,,,,,,,21,wg-a,,,,AAXX 27064 07650 02365 72616 10090 20080 39984 40023 51025 61000 72196 872// 90600 333 10179 20087 6030=
07650,1998-04-27 09:00:00,11,1004.9,2.7,82,8,15000,35.188,,,320,,,,,,,,,,1,wg-a,,,,AAXX 27094 07650 02465 73219 10110 20080 30011 40049 53027 61000 70162 87802 90900 333 ////=
07650,1998-04-27 12:00:00,15,1006.1,1.2,59,7,40000,31.484,,,300,,,,,,,,,,1,wg-a,,,,AAXX 27124 07650 02582 43017 10150 20070 30023 40061 51012 61000 70161 83802 91200 333 ////=
07650,1998-04-27 15:00:00,17,1005.6,-0.5,45,5,40000,25.928,,,330,,,,,,,,,,,wg-a,,,,AAXX 27154 07650 12682 23314 10170 20050 30018 40056 58005 60006 82802 91500=
07650,1998-04-27 18:00:00,13,1006.5,0.9,67,7,20000,42.596,,,300,9,17.1,,,,,,,,80,wg-a,,,,AAXX 27184 07650 02470 53023 10130 20070 30027 40065 53009 61000 78086 84903 91800 333 10171 20090 6100=
07650,1998-04-27 21:00:00,12,1007.7,1.2,82,9,500,18.52,,,300,,,,,,,,,,1,wg-a,,,,AAXX 27214 07650 02600 /3010 10120 20090 30039 40077 53012 61000 70186 81500 92100 333 ////=
07650,1998-04-28 00:00:00,11,1007.7,-0.1,76,7,500,35.188,,,290,,,,,,,,,,3,wg-a,,,,AAXX 28004 07650 02/00 22919 10110 20070 30038 40077 56001 61000 70386 80002 90000 333 ////=
07650,1998-04-28 03:00:00,9,1007.5,-0.2,76,5,500,22.224,,,310,,,,,,,,,,,wg-a,,,,AAXX 28034 07650 12/00 13112 10090 20050 30036 40075 56002 60006 80002 90300=
07650,1998-04-28 06:00:00,10,1007.8,0.3,71,5,40000,29.632,,,290,8.6,13.5,,,,,,,,,wg-a,,,,AAXX 28064 07650 02582 /2916 10100 20050 30039 40078 52003 60006 81530 90600 333 10135 20086 61000=
07650,1998-04-28 09:00:00,14,1007.6,-0.1,55,5,50000,31.484,,,300,,,,,,,,,,,wg-a,,,,AAXX 28094 07650 12584 /3017 10140 20050 30038 40076 58001 60006 81800 90900=
07650,1998-04-28 12:00:00,17,1006.9,-0.7,45,5,60000,31.484,,,300,,,,,,,,,,,wg-a,,,,AAXX 28124 07650 12586 23017 10170 20050 30031 40069 58007 60006 82800 91200=
07650,1998-04-28 15:00:00,19,1006.1,-0.7,40,5,75000,29.632,,,290,,,,,,,,,,,wg-a,,,,AAXX 28154 07650 12589 32916 10190 20050 30024 40061 58007 60006 83200 91500=
07650,1998-04-28 18:00:00,17,1006.2,0,55,8,75000,22.224,,,240,9.6,19.2,,,,,,,,,wg-a,,,,AAXX 28184 07650 12589 /2412 10170 20080 30024 40062 50000 60006 81400 91800 333 10192 20096=
07650,1998-04-28 21:00:00,14,1007.3,1.1,77,10,25000,29.632,,,250,,,,,,,,,,,wg-a,,,,AAXX 28214 07650 12/75 02516 10140 20100 30035 40073 51011 60006 80000 92100=
07650,1998-04-29 00:00:00,11,1007.3,0,87,9,25000,3.704,,,320,,,,,,,,,,,wg-a,,,,AAXX 29004 07650 12/75 03202 10110 20090 30035 40073 50000 60006 80000 90000=
07650,1998-04-29 03:00:00,10,1006,-1.4,93,9,25000,14.816,,,140,,,,,,,,,,,wg-a,,,,AAXX 29034 07650 12/75 11408 10100 20090 30021 40060 56014 60006 80001 90300=
07650,1998-04-29 06:00:00,11,1004.6,-1.3,82,8,20000,18.52,,,80,9.3,16.6,,,,,,,,,wg-a,,,,AAXX 29064 07650 02/70 60810 10110 20080 30008 40046 58013 60006 81032 90600 333 10166 20093 60004=
07650,1998-04-29 09:00:00,17,1004.3,-0.3,63,10,25000,25.928,,,140,,,,,,,,,,,wg-a,,,,AAXX 29094 07650 12575 71414 10170 20100 30005 40043 56003 60006 84802 90900=
07650,1998-04-29 12:00:00,17,1003.6,-0.7,59,9,25000,29.632,,,110,,,,,,,,,,,wg-a,,,,AAXX 29124 07650 12575 71116 10170 20090 39998 40036 58007 60006 8587/ 91200=
07650,1998-04-29 18:00:00,12,1000.8,-1.3,88,10,8000,46.3,,,70,10.8,18.6,,,,,,,,80,wg-a,,,,AAXX 29184 07650 02458 80725 10120 20100 39970 40008 58013 61000 78096 879// 91800 333 10186 20108 6005=
07650,1998-04-29 21:00:00,12,1001.8,1,82,9,10000,38.892,,64.82,80,,,,7,,,,,,61,wg-a,,,,AAXX 29214 07650 12660 80821 10120 20090 39980 40018 51010 60077 76196 8457/ 92100 333 91035=
07650,1998-04-30 00:00:00,11,1000.6,-1.2,87,9,15000,42.596,,61.116,80,,,,5,,,,,,61,wg-a,,,,AAXX 30004 07650 02665 80823 10110 20090 39968 40006 56012 60126 76196 8757/ 90000 333 60057 91033=
07650,1998-04-30 03:00:00,13,999.7,-0.9,82,10,20000,35.188,,,80,,,,0,,,,,,21,wg-a,,,,AAXX 30034 07650 12470 70819 10130 20100 39959 49997 55009 60007 72162 85831 90300=
07650,1998-04-30 06:00:00,12,1000.7,1,82,9,8000,25.928,,,100,11.1,13,,,,,,,,61,wg-a,,,,AAXX 30064 07650 02458 71014 10120 20090 39969 40007 53010 61000 76186 878// 90600 333 10130 20111 6021=
07650,1998-04-30 09:00:00,13,1001.4,0.7,88,11,12000,25.928,,,110,,,,3,,,,,,60,wg-a,,,,AAXX 30094 07650 12462 81114 10130 20110 39976 40014 53007 60037 76062 888// 90900=
07650,1998-04-30 12:00:00,14,1004,2.6,82,11,18000,18.52,,,210,,,,0,,,,,,3,wg-a,,,,AAXX 30124 07650 02468 72110 10140 20110 30002 40040 53026 60036 70362 878// 91200 333 60007=
07650,1998-04-30 15:00:00,15,1005.7,1.7,77,11,25000,7.408,,,10,,,,,,,,,,,wg-a,,,,AAXX 30154 07650 12575 /0104 10150 20110 30019 40057 51017 60006 86900 91500=
07650,1998-04-30 18:00:00,14,1007.6,1.9,77,10,500,18.52,,,180,11.9,16.2,,,,,,,,,wg-a,,,,AAXX 30184 07650 12500 31810 10140 20100 30038 40076 53019 60006 83932 91800 333 10162 20119=
07650,1998-04-30 21:00:00,12,1009.9,2.3,82,9,25000,11.112,,,110,,,,,,,,,,,wg-a,,,,AAXX 30214 07650 12675 31106 10120 20090 30061 40099 51023 60006 82502 92100=
07650,1998-05-01 00:00:00,11,1010.5,0.5,87,9,15000,3.704,,,160,,,,,,,,,,,wg-a,,,,AAXX 01004 07650 12765 21602 10110 20090 30066 40105 51005 60006 82500 90000=
07650,1998-05-01 03:00:00,11,1010.4,-0.1,82,8,12000,7.408,,,140,,,,,,,,,,,wg-a,,,,AAXX 01034 07650 12662 41404 10110 20080 30065 40104 56001 60006 84530 90300=
07650,1998-05-01 06:00:00,10,1010.9,0.5,87,8,40000,7.408,,,70,9,14.3,,,,,3,,,,wg-a,,,,AAXX 01064 07650 02582 50704 10100 20080 30070 40109 53005 60006 82830 90600 333 10143 20090 60034=
07650,1998-05-01 09:00:00,15,1011.4,0.6,72,10,40000,11.112,,,260,,,,,,,,,,,wg-a,,,,AAXX 01094 07650 12582 42606 10150 20100 30076 40114 51006 60006 83832 90900=
07650,1998-05-01 12:00:00,14,1011.2,-0.2,72,9,20000,11.112,,,230,,,,4,,,,,,61,wg-a,,,,AAXX 01124 07650 02470 72306 10140 20090 30074 40112 58002 60046 76186 86902 91200 333 60047=
07650,1998-05-01 15:00:00,15,1010.9,-0.3,72,10,18000,11.112,,,240,,,,0,,,,,,17,wg-a,,,,AAXX 01154 07650 12568 72406 10150 20100 30071 40109 58003 60007 71798 8697/ 91500=
07650,1998-05-01 18:00:00,15,1011.3,0.4,67,9,40000,3.704,,,200,9.8,16.6,,,,,,,,1,wg-a,,,,AAXX 01184 07650 02582 /2002 10150 20090 30075 40113 53004 60006 70198 84833 91800 333 10166 20098 61000=
07650,1998-05-01 21:00:00,12,1012.4,1,82,9,18000,3.704,,,110,,,,,,,,,,,wg-a,,,,AAXX 01214 07650 12568 41102 10120 20090 30085 40124 51010 60006 83802 92100=
07650,1998-05-02 00:00:00,10,1012.2,-0.2,87,8,15000,11.112,,,140,,,,,,,,,,,wg-a,,,,AAXX 02004 07650 12565 31406 10100 20080 30083 40122 58002 60006 81832 90000=
07650,1998-05-02 03:00:00,9,1011.8,-0.4,93,8,15000,11.112,,,130,,,,,,,,,,,wg-a,,,,AAXX 02034 07650 12565 31306 10090 20080 30079 40118 56004 60006 81532 90300=
07650,1998-05-02 06:00:00,11,1012.4,0.6,87,9,20000,3.704,,,120,8.4,15,,,,,4,,,,wg-a,,,,AAXX 02064 07650 02570 31202 10110 20090 30085 40124 53006 60006 81802 90600 333 10150 20084 60044=
07650,1998-05-02 09:00:00,15,1012.9,0.6,72,10,25000,7.408,,,250,,,,,,,,,,,wg-a,,,,AAXX 02094 07650 12575 32504 10150 20100 30091 40129 51006 60006 82232 90900=
07650,1998-05-02 12:00:00,18,1011.7,-1.2,52,8,20000,7.408,,,260,,,,,,,,,,,wg-a,,,,AAXX 02124 07650 12570 42604 10180 20080 30079 40117 58012 60006 83232 91200=
07650,1998-05-02 15:00:00,18,1010.1,-1.6,59,10,500,25.928,,,240,,,,,,,,,,,wg-a,,,,AAXX 02154 07650 12500 52414 10180 20100 30063 40101 58016 60006 84902 91500=
07650,1998-05-02 18:00:00,16,1010.7,0.6,59,8,14000,7.408,,,240,10.6,19.2,,,,,,,,29,wg-a,,,,AAXX 02184 07650 12564 72404 10160 20080 30069 40107 53006 60006 72991 8693/ 91800 333 10192 20106=
07650,1998-05-02 21:00:00,13,1010.9,0.2,77,9,20000,0,,,0,,,,,,,,,,,wg-a,,,,AAXX 02214 07650 12670 50000 10130 20090 30071 40109 50002 60006 84532 92100=
07650,1998-05-03 03:00:00,11,1007.1,-2.5,82,8,20000,7.408,,,130,,,,,,,,,,,wg-a,,,,AAXX 03034 07650 12/70 31304 10110 20080 30032 40071 56025 60006 82032 90300=
07650,1998-05-03 06:00:00,11,1005.9,-1.1,87,9,20000,7.408,,,140,9.3,15.8,,,,,,,,,wg-a,,,,AAXX 03064 07650 02/70 /1404 10110 20090 30021 40059 55011 60006 81032 90600 333 10158 20093 60004=
07650,1998-05-03 09:00:00,16,1004.7,-1.2,72,11,500,11.112,,,280,,,,,,,,,,,wg-a,,,,AAXX 03094 07650 12500 62806 10160 20110 30009 40047 56012 60006 81132 90900=
07650,1998-05-03 12:00:00,20,1003,-1.6,46,8,40000,14.816,,,270,,,,,,,,,,,wg-a,,,,AAXX 03124 07650 12582 /2708 10200 20080 39993 40030 58016 60006 82832 91200=
07650,1998-05-03 15:00:00,21,1000.5,-2.5,49,10,40000,25.928,,,320,,,,,,,,,,,wg-a,,,,AAXX 03154 07650 12582 /3214 10210 20100 39968 40005 56025 60006 82832 91500=
07650,1998-05-03 17:00:00,18,1000.6,,59,10,25000,22.224,,,290,10.7,,,,,,,,,,wg-a,,,,AAXX 03174 07650 12575 72912 10180 20100 39963 40006 60006 8387/ 91700 333 20107=
07650,1998-05-03 18:00:00,18,1000,-0.5,59,10,25000,22.224,,,290,10.7,21.3,,,,,,,,,wg-a,,,,AAXX 03184 07650 12575 72912 10180 20100 39963 40000 55005 60006 8387/ 91800 333 10213 20107=
07650,1998-05-03 21:00:00,15,1001,0.9,88,13,15000,18.52,,,120,,,,0,,,,,,21,wg-a,,,,AAXX 03214 07650 12665 71210 10150 20130 39972 40010 53009 60007 72162 8357/ 92100=
07650,1998-05-04 00:00:00,14,999.3,-1.7,77,10,25000,29.632,,,340,,,,,,,,,,1,wg-a,,,,AAXX 04004 07650 12675 /3416 10140 20100 39955 49993 57017 60006 70162 82531 90000=
07650,1998-05-04 03:00:00,15,998.5,-0.8,72,10,25000,22.224,,,330,,,,,,,,,,,wg-a,,,,AAXX 04034 07650 12475 73312 10150 20100 39947 49985 56008 60006 82622 90300=
07650,1998-05-04 06:00:00,14,999.2,0.7,72,9,10000,22.224,,,310,13.7,18.2,,,,,,,,,wg-a,,,,AAXX 04064 07650 02660 83112 10140 20090 39954 49992 53007 60006 8157/ 90600 333 10182 20137 60004=
07650,1998-05-04 09:00:00,15,999.5,0.3,72,10,10000,35.188,,,340,,,,,,,,,,,wg-a,,,,AAXX 04094 07650 12660 83419 10150 20100 39957 49995 51003 60006 8257/ 90900=
07650,1998-05-04 12:00:00,17,999,-0.4,63,10,14000,31.484,,,330,,,,,,,,,,,wg-a,,,,AAXX 04124 07650 12664 83317 10170 20100 39953 49990 58004 60006 81577 91200=
07650,1998-05-04 15:00:00,18,999.5,0.5,59,10,14000,35.188,,,330,,,,,,,,,,,wg-a,,,,AAXX 04154 07650 12664 83319 10180 20100 39958 49995 53005 60006 81577 91500=
07650,1998-05-04 18:00:00,16,1000.8,1.2,63,9,12000,31.484,,,330,13.6,17.8,,,,,,,,,wg-a,,,,AAXX 04184 07650 12762 83317 10160 20090 39970 40008 53012 60006 8157/ 91800 333 10178 20136=
07650,1998-05-04 21:00:00,14,1003.2,2.4,67,8,12000,22.224,,,300,,,,,,,,,,,wg-a,,,,AAXX 04214 07650 12/62 73012 10140 20080 39994 40032 51024 60006 86072 92100=
07650,1998-05-05 00:00:00,12,1004.4,1.2,71,7,12000,14.816,,,330,,,,,,,,,,,wg-a,,,,AAXX 05004 07650 12/62 73308 10120 20070 30006 40044 51012 60006 84072 90000=
07650,1998-05-05 03:00:00,12,1005,0.6,67,6,25000,18.52,,,320,,,,,,,,,,,wg-a,,,,AAXX 05034 07650 12/75 43210 10120 20060 30012 40050 52006 60006 82031 90300=
07650,1998-05-05 06:00:00,11,1006.1,1.1,66,5,25000,22.224,,,310,10.9,15.5,,,,,,,,,wg-a,,,,AAXX 05064 07650 02/75 53112 10110 20050 30023 40061 53011 60006 81032 90600 333 10155 20109 60004=
07650,1998-05-05 09:00:00,16,1006.5,0.4,51,6,500,29.632,,,320,,,,,,,,,,,wg-a,,,,AAXX 05094 07650 12/00 43216 10160 20060 30027 40065 51004 60006 80002 90900=
07650,1998-05-05 12:00:00,20,1006.1,-0.3,46,8,40000,25.928,,,330,,,,,,,,,,,wg-a,,,,AAXX 05124 07650 12/82 33314 10200 20080 30024 40061 58003 60006 80001 91200=
07650,1998-05-05 15:00:00,20,1005.5,-0.6,49,9,40000,29.632,,,330,,,,,,,,,,,wg-a,,,,AAXX 05154 07650 12/82 53316 10200 20090 30018 40055 58006 60006 80002 91500=
07650,1998-05-05 18:00:00,18,1006.5,0.9,52,8,35000,46.3,,,320,11.2,21.2,,,,,,,,,wg-a,,,,AAXX 05184 07650 12/81 43225 10180 20080 30027 40065 53009 60006 80002 91800 333 10212 20112=
07650,1998-05-05 21:00:00,15,1008.6,2.1,55,6,17000,42.596,,,330,,,,,,,,,,,wg-a,,,,AAXX 05214 07650 12/67 23323 10150 20060 30048 40086 53021 60006 80002 92100=
07650,1998-05-06 00:00:00,14,1009.9,1.3,58,6,17000,29.632,,,320,,,,,,,,,,,wg-a,,,,AAXX 06004 07650 12/67 13216 10140 20060 30061 40099 51013 60006 80002 90000=
07650,1998-05-06 03:00:00,13,1010.1,0.2,62,6,17000,31.484,,,320,,,,,,,,,,,wg-a,,,,AAXX 06034 07650 12/67 13217 10130 20060 30063 40101 53002 60006 80002 90300=
07650,1998-05-06 06:00:00,13,1011.8,1.7,67,7,20000,29.632,,,320,12.4,18,,,,,,,,,wg-a,,,,AAXX 06064 07650 02/70 13216 10130 20070 30080 40118 53017 60006 80002 90600 333 10180 20124 60004=
07650,1998-05-06 09:00:00,18,1012.3,0.5,52,8,25000,29.632,,,320,,,,,,,,,,,wg-a,,,,AAXX 06094 07650 12/75 53216 10180 20080 30085 40123 51005 60006 80002 90900=
07650,1998-05-06 12:00:00,20,1012.2,0,46,8,500,22.224,,,310,,,,,,,,,,,wg-a,,,,AAXX 06124 07650 12/00 63112 10200 20080 30085 40122 50000 60006 80002 91200=
07650,1998-05-06 15:00:00,22,1012,-0.2,43,9,500,25.928,,,310,,,,,,,,,,,wg-a,,,,AAXX 06154 07650 12500 /3114 10220 20090 30083 40120 58002 60006 81102 91500=
07650,1998-05-06 18:00:00,20,1012.6,0.6,43,7,40000,22.224,,,320,13.4,22,,,,,,,,,wg-a,,,,AAXX 06184 07650 12682 /3212 10200 20070 30089 40126 53006 60006 81502 91800 333 10220 20134=
07650,1998-05-06 21:00:00,16,1014.8,2.1,48,5,500,11.112,,,310,,,,,,,,,,,wg-a,,,,AAXX 06214 07650 12/00 03106 10160 20050 30110 40148 51021 60006 80000 92100=
07650,1998-05-07 00:00:00,13,1016.3,1.4,67,7,25000,11.112,,,130,,,,,,,,,,,wg-a,,,,AAXX 07004 07650 12/75 01306 10130 20070 30124 40163 51014 60006 80000 90000=
07650,1998-05-07 03:00:00,11,1017.1,0.8,82,8,20000,3.704,,,140,,,,,,,,,,,wg-a,,,,AAXX 07034 07650 12/70 01402 10110 20080 30132 40171 53008 60006 80000 90300=
07650,1998-05-07 06:00:00,13,1019,1.9,82,10,10000,0,,,0,10.9,20.6,,,,,,,,,wg-a,,,,AAXX 07064 07650 02/60 /0000 10130 20100 30151 40190 53019 60006 90600 333 10206 20109 60004=
07650,1998-05-07 09:00:00,18,1020.3,1.4,68,12,12000,7.408,,,290,,,,,,,,,,,wg-a,,,,AAXX 07094 07650 12562 /2904 10180 20120 30165 40203 51014 60006 81100 90900=
07650,1998-05-07 12:00:00,20,1020.7,0.4,64,13,15000,22.224,,,200,,,,,,,,,,,wg-a,,,,AAXX 07124 07650 12565 22012 10200 20130 30169 40207 51004 60006 8/100 91200=
07650,1998-05-07 15:00:00,20,1020.8,0.1,68,14,15000,22.224,,,190,,,,,,,,,,,wg-a,,,,AAXX 07154 07650 12565 /1912 10200 20140 30170 40208 51001 60006 81130 91500=
07650,1998-05-07 18:00:00,18,1021.6,0.8,73,13,16000,14.816,,,150,12.7,21.5,,,,,,,,,wg-a,,,,AAXX 07184 07650 12566 /1508 10180 20130 30178 40216 53008 60006 81402 91800 333 10215 20127=
07650,1998-05-07 21:00:00,15,1024.2,2.5,82,12,13000,3.704,,,200,,,,,,,,,,,wg-a,,,,AAXX 07214 07650 12/63 /2002 10150 20120 30203 40242 51025 60006 80000 92100=
07650,1998-05-08 00:00:00,13,1025,0.8,94,12,12000,3.704,,,150,,,,,,,,,,,wg-a,,,,AAXX 08004 07650 12/62 01502 10130 20120 30211 40250 51008 60006 80000 90000=
07650,1998-05-08 03:00:00,12,1024.9,-0.1,88,10,8000,7.408,,,110,,,,,,,,,,,wg-a,,,,AAXX 08034 07650 12/58 01104 10120 20100 30210 40249 58001 60006 80000 90300=
07650,1998-05-08 06:00:00,14,1026.4,1.5,88,12,10000,7.408,,,80,10.7,17.6,,,,,,,,,wg-a,,,,AAXX 08064 07650 02460 20804 10140 20120 30225 40264 51015 60006 82500 90600 333 10176 20107 60004=
07650,1998-05-08 09:00:00,18,1027.1,0.8,73,13,15000,7.408,,,290,,,,,,,,,,,wg-a,,,,AAXX 08094 07650 12565 /2904 10180 20130 30233 40271 51008 60006 81102 90900=
07650,1998-05-08 12:00:00,23,1026.3,-0.8,44,10,17000,22.224,,,190,,,,,,,,,,,wg-a,,,,AAXX 08124 07650 12467 31912 10230 20100 30225 40263 56008 60006 81102 91200=
07650,1998-05-08 15:00:00,22,1026,-0.3,38,7,500,25.928,,,170,,,,,,,,,,,wg-a,,,,AAXX 08154 07650 12500 /1714 10220 20070 30222 40260 55003 60006 81102 91500=
07650,1998-05-08 18:00:00,18,1026.3,0.3,52,8,18000,14.816,,,170,14.1,23.1,,,,,,,,,wg-a,,,,AAXX 08184 07650 12/68 51708 10180 20080 30225 40263 53003 60006 81032 91800 333 10231 20141=
07650,1998-05-08 21:00:00,15,1027.7,1.3,67,9,18000,0,,,0,,,,,,,,,,,wg-a,,,,AAXX 08214 07650 12/68 30000 10150 20090 30238 40277 53013 60006 82032 92100=
07650,1998-05-09 00:00:00,13,1027.1,-0.6,77,9,18000,7.408,,,80,,,,,,,,,,,wg-a,,,,AAXX 09004 07650 12/68 30804 10130 20090 30232 40271 58006 60006 82032 90000=
07650,1998-05-09 03:00:00,12,1026.3,-0.8,82,9,20000,7.408,,,140,,,,,,,,,,,wg-a,,,,AAXX 09034 07650 12/70 31404 10120 20090 30224 40263 56008 60006 82032 90300=
07650,1998-05-09 06:00:00,14,1026.6,0.3,77,10,15000,3.704,,,150,10.5,18.4,,,,,,,,,wg-a,,,,AAXX 09064 07650 02/65 31502 10140 20100 30227 40266 53003 60006 82032 90600 333 10184 20105 60004=
07650,1998-05-09 09:00:00,19,1026.4,-0.1,60,11,10000,3.704,,,270,,,,,,,,,,,wg-a,,,,AAXX 09094 07650 12/60 /2702 10190 20110 30226 40264 58001 60006 90900=
07650,1998-05-09 12:00:00,25,1025,-1.3,41,11,20000,14.816,,,260,,,,,,,,,,,wg-a,,,,AAXX 09124 07650 12570 42608 10250 20110 30213 40250 57013 60006 81102 91200=
07650,1998-05-09 15:00:00,24,1023.9,-1.1,41,10,20000,14.816,,,260,,,,,,,,,,,wg-a,,,,AAXX 09154 07650 12570 /2608 10240 20100 30202 40239 58011 60006 81102 91500=
07650,1998-05-09 18:00:00,20,1023.1,-0.9,56,11,20000,11.112,,,250,13.8,25.4,,,,,,,,,wg-a,,,,AAXX 09184 07650 12/70 02506 10200 20110 30193 40231 56009 60006 80000 91800 333 10254 20138=
07650,1998-05-10 00:00:00,15,1022.3,-1.1,72,10,15000,3.704,,,80,,,,,,,,,,,wg-a,,,,AAXX 10004 07650 12/65 10802 10150 20100 30184 40223 58011 60006 80002 90000=
07650,1998-05-10 03:00:00,13,1021.6,-0.7,77,9,14000,3.704,,,120,,,,,,,,,,,wg-a,,,,AAXX 10034 07650 12/64 01202 10130 20090 30177 40216 56007 60006 80000 90300=
07650,1998-05-10 06:00:00,15,1021,-0.5,72,10,12000,3.704,,,150,11.8,20.6,,,,,,,,,wg-a,,,,AAXX 10064 07650 02/62 11502 10150 20100 30172 40210 57005 60006 81031 90600 333 10206 20118 60004=
07650,1998-05-10 09:00:00,21,1020.4,-0.6,60,13,15000,7.408,,,270,,,,,,,,,,,wg-a,,,,AAXX 10094 07650 12/65 12704 10210 20130 30166 40204 56006 60006 80001 90900=
07650,1998-05-10 12:00:00,26,1019.2,-1.1,34,9,500,11.112,,,260,,,,,,,,,,,wg-a,,,,AAXX 10124 07650 12/00 12606 10260 20090 30155 40192 58011 60006 80001 91200=
07650,1998-05-10 15:00:00,25,1017.8,-1.4,34,8,500,11.112,,,270,,,,,,,,,,,wg-a,,,,AAXX 10154 07650 12/00 12706 10250 20080 30141 40178 58014 60006 80001 91500=
07650,1998-05-10 18:00:00,22,1016.7,-1.1,43,9,500,11.112,,,270,14.9,26.8,,,,,,,,,wg-a,,,,AAXX 10184 07650 12/00 /2706 10220 20090 30130 40167 56011 60006 91800 333 10268 20149=
07650,1998-05-10 21:00:00,18,1017.6,0.8,64,11,20000,7.408,,,140,,,,,,,,,,,wg-a,,,,AAXX 10214 07650 12/70 01404 10180 20110 30138 40176 51008 60006 80000 92100=
07650,1998-05-11 00:00:00,16,1017.2,-0.4,63,9,10000,7.408,,,130,,,,,,,,,,,wg-a,,,,AAXX 11004 07650 12/60 /1304 10160 20090 30134 40172 56004 60006 90000=
07650,1998-05-11 03:00:00,15,1016.3,-0.9,67,9,10000,3.704,,,110,,,,,,,,,,,wg-a,,,,AAXX 11034 07650 12/60 /1102 10150 20090 30125 40163 58009 60006 90300=
07650,1998-05-11 06:00:00,17,1016.7,0.4,68,11,16000,7.408,,,150,14.1,22.4,,,,,,,,,wg-a,,,,AAXX 11064 07650 02/66 21504 10170 20110 30129 40167 53004 60006 80001 90600 333 10224 20141 60004=
07650,1998-05-11 09:00:00,23,1016.4,-0.2,53,13,15000,7.408,,,270,,,,,,,,,,,wg-a,,,,AAXX 11094 07650 12/65 32704 10230 20130 30127 40164 58002 60006 80002 90900=
07650,1998-05-11 12:00:00,26,1016.1,-0.3,42,12,10000,22.224,,,180,,,,,,,,,,,wg-a,,,,AAXX 11124 07650 12/60 /1812 10260 20120 30124 40161 58003 60006 91200=
07650,1998-05-11 15:00:00,26,1015.5,-0.6,37,10,15000,29.632,,,170,,,,,,,,,,,wg-a,,,,AAXX 11154 07650 32565 /1716 10260 20100 30118 40155 56006 81502 91500=
07650,1998-05-11 18:00:00,22,1015.9,0.4,43,9,15000,18.52,,,170,,,,,,,,,,,wg-a,,,,AAXX 11184 07650 12/65 31710 10220 20090 30122 40159 53004 60006 80002 91800=
07650,1998-05-11 21:00:00,18,1017.7,1.7,59,10,20000,3.704,,,140,,,,,,,,,,,wg-a,,,,AAXX 11214 07650 12/70 21402 10180 20100 30139 40177 53017 60006 81031 92100=
07650,1998-05-12 00:00:00,17,1017.5,-0.2,63,10,20000,0,,,0,,,,,,,,,,,wg-a,,,,AAXX 12004 07650 12/70 50000 10170 20100 30137 40175 58002 60006 84031 90000=
07650,1998-05-12 03:00:00,15,1016.8,-0.7,72,10,9000,7.408,,,130,,,,,,,,,,,wg-a,,,,AAXX 12034 07650 12/59 /1304 10150 20100 30130 40168 58007 60006 82032 90300=
07650,1998-05-12 06:00:00,17,1017.5,0.7,63,10,10000,3.704,,,150,14.1,22,,,,,,,,,wg-a,,,,AAXX 12064 07650 12/60 61502 10170 20100 30137 40175 53007 60006 82032 90600 333 10220 20141=
07650,1998-05-12 09:00:00,22,1018.3,0.9,53,12,13000,3.704,,,10,,,,,,,,,,,wg-a,,,,AAXX 12094 07650 12/63 70102 10220 20120 30146 40183 51009 60006 80002 90900=
07650,1998-05-12 12:00:00,27,1017.9,-0.4,28,7,20000,18.52,,,270,,,,,,,,,,,wg-a,,,,AAXX 12124 07650 12/70 52710 10270 20070 30142 40179 56004 60006 81032 91200=
07650,1998-05-12 15:00:00,28,1016.8,-1.1,27,7,20000,18.52,,,200,,,,,,,,,,,wg-a,,,,AAXX 12154 07650 12/70 52010 10280 20070 30131 40168 56011 60006 81032 91500=
07650,1998-05-12 18:00:00,22,1018.2,1.4,50,11,15000,7.408,,,230,16.8,28.7,,,,,,,,,wg-a,,,,AAXX 12184 07650 12/65 62304 10220 20110 30145 40182 51014 60006 81032 91800 333 10287 20168=
07650,1998-05-12 21:00:00,19,1019.3,1,60,11,20000,7.408,,,130,,,,,,,,,,,wg-a,,,,AAXX 12214 07650 12/70 61304 10190 20110 30155 40193 51010 60006 82032 92100=
07650,1998-05-13 00:00:00,20,1019.1,-0.2,64,13,20000,11.112,,,260,,,,,,,,,,,wg-a,,,,AAXX 13004 07650 12/70 62606 10200 20130 30153 40191 55002 60006 80002 90000=
07650,1998-05-13 03:00:00,18,1018.3,-0.8,59,10,20000,7.408,,,160,,,,,,,,,,,wg-a,,,,AAXX 13034 07650 12/70 71604 10180 20100 30145 40183 56008 60006 80002 90300=
07650,1998-05-13 06:00:00,19,1018.8,0.5,60,11,11000,3.704,,,160,17.8,22,,,,,,,,1,wg-a,,,,AAXX 13064 07650 02661 71602 10190 20110 30150 40188 53005 60006 70162 81532 90600 333 10220 20178 61000=
07650,1998-05-13 09:00:00,23,1019.3,0.6,47,11,11000,3.704,,,120,,,,,,,,,,60,wg-a,,,,AAXX 13094 07650 02661 71202 10230 20110 30156 40193 52006 61000 76062 81532 90900 333 ////=
07650,1998-05-13 12:00:00,27,1018.8,-0.5,32,9,10000,11.112,,,260,,,,,,,,,,,wg-a,,,,AAXX 13124 07650 02/60 /2606 10270 20090 30151 40188 57005 61000 91200 333 ////=
07650,1998-05-13 15:00:00,27,1018.3,-0.5,28,7,20000,18.52,,,250,,,,,,,,,,,wg-a,,,,AAXX 13154 07650 12/70 42510 10270 20070 30146 40183 56005 60006 82032 91500=
07650,1998-05-13 18:00:00,23,1017.8,-0.5,50,12,18000,7.408,,,290,18.7,28.2,,,,,,,,,wg-a,,,,AAXX 13184 07650 12668 72904 10230 20120 30141 40178 58005 60006 81532 91800 333 10282 20187=
07650,1998-05-13 21:00:00,20,1017.6,,68,14,14000,7.408,,,310,,,,,,,,,,,wg-a,,,,AAXX 13214 07650 32/64 /3104 10200 20140 30138 40176 83032 92100=
07650,1998-05-14 00:00:00,17,1017,-0.6,72,12,13000,11.112,,,120,,,,,,,,,,,wg-a,,,,AAXX 14004 07650 12/63 11206 10170 20120 30132 40170 57006 60006 80002 90000=
07650,1998-05-14 03:00:00,16,1015.6,-1.4,63,9,13000,7.408,,,100,,,,,,,,,,,wg-a,,,,AAXX 14034 07650 12/63 31004 10160 20090 30118 40156 56014 60006 80002 90300=
07650,1998-05-14 06:00:00,19,1015,-0.6,60,11,13000,3.704,,,90,15.7,23.4,,,,,,,,,wg-a,,,,AAXX 14064 07650 02/63 10902 10190 20110 30112 40150 58006 60006 80002 90600 333 10234 20157 61000=
07650,1998-05-14 09:00:00,24,1014.9,-0,57,15,13000,7.408,,,250,,,,,,,,,,,wg-a,,,,AAXX 14094 07650 12/63 12504 10240 20150 30112 40149 55000 60006 80002 90900=
07650,1998-05-14 12:00:00,29,1014.1,-0.7,31,10,15000,18.52,,,200,,,,,,,,,,,wg-a,,,,AAXX 14124 07650 12665 22010 10290 20100 30105 40141 56007 60006 81102 91200=
07650,1998-05-14 15:00:00,27,1013.2,-1,30,8,15000,18.52,,,180,,,,,,,,,,,wg-a,,,,AAXX 14154 07650 12565 11810 10270 20080 30095 40132 56010 60006 81102 91500=
07650,1998-05-14 18:00:00,25,1012.3,-0.9,44,12,15000,7.408,,,320,18.6,28.9,,,,,,,,,wg-a,,,,AAXX 14184 07650 12/65 23204 10250 20120 30086 40123 57009 60006 80002 91800 333 10289 20186=
07650,1998-05-14 21:00:00,21,1012.9,0.6,49,10,15000,7.408,,,180,,,,,,,,,,,wg-a,,,,AAXX 14214 07650 12/65 31804 10210 20100 30092 40129 51006 60006 81082 92100=
07650,1998-05-15 00:00:00,21,1013.3,0.4,64,14,15000,7.408,,,130,,,,,,,,,,,wg-a,,,,AAXX 15004 07650 12665 71304 10210 20140 30096 40133 51004 60006 8198/ 90000=
07650,1998-05-15 03:00:00,22,1012.2,-1.1,50,11,15000,7.408,,,180,,,,,,,,,,,wg-a,,,,AAXX 15034 07650 12665 71804 10220 20110 30085 40122 56011 60006 8158/ 90300=
07650,1998-05-15 06:00:00,21,1012.8,0.6,53,11,20000,7.408,,,60,20.6,24.9,,,,,,,,,wg-a,,,,AAXX 15064 07650 02/70 70604 10210 20110 30091 40128 53006 60006 85082 90600 333 10249 20206 60004=
07650,1998-05-15 09:00:00,21,1013.9,1.1,69,15,15000,18.52,,,280,,,,,,,,,,,wg-a,,,,AAXX 15094 07650 12665 72810 10210 20150 30102 40139 51011 60006 83582 90900=
07650,1998-05-15 12:00:00,22,1013.6,-0.3,65,15,11000,11.112,,,210,,,,,,,,,,,wg-a,,,,AAXX 15124 07650 02/61 /2106 10220 20150 30099 40136 58003 61000 91200 333 ////=
07650,1998-05-15 15:00:00,21,1012.6,-1,69,15,20000,11.112,,,180,,,,0,,,,,,,wg-a,,,,AAXX 15154 07650 12670 71806 10210 20150 30089 40126 56010 60007 8487/ 91500=
07650,1998-05-15 18:00:00,20,1011.9,-0.7,73,15,12000,11.112,,,300,20.1,22.9,,,,,,,,,wg-a,,,,AAXX 15184 07650 12662 83006 10200 20150 30082 40119 56007 60006 84872 91800 333 10229 20201=
07650,1998-05-15 21:00:00,18,1011.8,-0.2,83,15,8000,7.408,,,340,,,,,,,,,,,wg-a,,,,AAXX 15214 07650 12658 73404 10180 20150 30080 40118 58002 60006 81582 92100=
07650,1998-05-16 03:00:00,15,1009.9,-1.2,94,14,7000,7.408,,,140,,,,,,,,,,,wg-a,,,,AAXX 16034 07650 12/57 21404 10150 20140 30061 40099 58012 60006 80001 90300=
07650,1998-05-16 06:00:00,15,1010.2,0.3,94,14,900,3.704,,,60,14.2,20.1,,,,,,,,42,wg-a,,,,AAXX 16064 07650 02209 70602 10150 20140 30064 40102 53003 60006 74241 87600 90600 333 10201 20142 60004=
07650,1998-05-16 09:00:00,21,1010.7,0.6,73,16,10000,14.816,,,250,,,,,,,,,,1,wg-a,,,,AAXX 16094 07650 12/60 02508 10210 20160 30070 40107 52006 60006 70141 80000 90900=
07650,1998-05-16 12:00:00,25,1011.1,0.4,50,14,20000,7.408,,,270,,,,,,,,,,3,wg-a,,,,AAXX 16124 07650 12570 22704 10250 20140 30074 40111 50004 60006 70341 82200 91200=
07650,1998-05-16 15:00:00,24,1011.1,0,61,16,14000,29.632,,,170,,,,,,,,,,,wg-a,,,,AAXX 16154 07650 12564 21716 10240 20160 30074 40111 50000 60006 82900 91500=
07650,1998-05-16 18:00:00,20,1011.7,0.6,68,14,12000,25.928,,,160,15.1,25.7,,,,,,,,,wg-a,,,,AAXX 16184 07650 12562 21614 10200 20140 30080 40117 53006 60006 81203 91800 333 10257 20151=
07650,1998-05-16 21:00:00,18,1013.3,1.5,64,11,20000,7.408,,,140,,,,,,,,,,,wg-a,,,,AAXX 16214 07650 12/70 21404 10180 20110 30095 40133 51015 60006 80002 92100=
07650,1998-05-17 00:00:00,16,1013.3,-0,68,10,20000,7.408,,,80,,,,,,,,,,,wg-a,,,,AAXX 17004 07650 12/70 00804 10160 20100 30095 40133 54000 60006 80000 90000=
07650,1998-05-17 03:00:00,14,1012.9,-0.4,88,12,20000,7.408,,,120,,,,,,,,,,,wg-a,,,,AAXX 17034 07650 12/70 01204 10140 20120 30091 40129 56004 60006 80000 90300=
07650,1998-05-17 06:00:00,16,1013.1,0.2,82,13,12000,3.704,,,130,13.4,20.2,,,,,,,,,wg-a,,,,AAXX 17064 07650 02/62 11302 10160 20130 30093 40131 53002 60006 81030 90600 333 10202 20134 60004=
07650,1998-05-17 09:00:00,21,1013.3,0.3,60,13,12000,14.816,,,280,,,,,,,,,,,wg-a,,,,AAXX 17094 07650 12/62 12808 10210 20130 30096 40133 51003 60006 81030 90900=
07650,1998-05-17 12:00:00,24,1013.1,-0.2,41,10,20000,14.816,,,250,,,,,,,,,,,wg-a,,,,AAXX 17124 07650 12570 /2508 10240 20100 30094 40131 58002 60006 81100 91200=
07650,1998-05-17 15:00:00,27,1011.6,-1.5,28,7,20000,22.224,,,270,,,,,,,,,,,wg-a,,,,AAXX 17154 07650 12570 /2712 10270 20070 30079 40116 57015 60006 81200 91500=
07650,1998-05-17 18:00:00,25,1011.1,-0.5,36,9,500,42.596,,,320,16,26.7,,,,,,,,,wg-a,,,,AAXX 17184 07650 12500 /3223 10250 20090 30074 40111 56005 60006 81100 91800 333 10267 20160=
07650,1998-05-17 21:00:00,20,1015.1,3.9,56,11,500,22.224,,,110,,,,,,,,,,,wg-a,,,,AAXX 17214 07650 12/00 01112 10200 20110 30113 40151 53039 60006 80000 92100=
07650,1998-05-18 00:00:00,16,1017.9,2.8,68,10,500,3.704,,,80,,,,,,,,,,,wg-a,,,,AAXX 18004 07650 12600 10802 10160 20100 30141 40179 51028 60006 81500 90000=
07650,1998-05-18 03:00:00,15,1018.7,0.8,67,9,25000,11.112,,,20,,,,,,,,,,,wg-a,,,,AAXX 18034 07650 12675 /0206 10150 20090 30149 40187 51008 60006 83530 90300=
07650,1998-05-18 06:00:00,15,1019.8,1.1,67,9,25000,7.408,,,80,14.3,25,,,,,,,,,wg-a,,,,AAXX 18064 07650 02/75 20804 10150 20090 30160 40198 51011 60006 82032 90600 333 10250 20143 60004=
07650,1998-05-18 09:00:00,21,1020.2,0.4,43,8,500,14.816,,,280,,,,,,,,,,,wg-a,,,,AAXX 18094 07650 12500 /2808 10210 20080 30164 40202 50004 60006 81100 90900=
07650,1998-05-18 12:00:00,22,1019.3,-0.8,53,12,25000,14.816,,,250,,,,,,,,,,,wg-a,,,,AAXX 18124 07650 12575 /2508 10220 20120 30156 40193 58008 60006 81100 91200=
07650,1998-05-18 15:00:00,23,1018.7,-0.6,50,12,11000,18.52,,,210,,,,,,,,,,,wg-a,,,,AAXX 18154 07650 12/61 /2110 10230 20120 30150 40187 58006 60006 91500=
07650,1998-05-18 18:00:00,20,1019.2,0.4,64,13,22000,14.816,,,190,15.3,23.6,,,,,,,,,wg-a,,,,AAXX 18184 07650 12/72 01908 10200 20130 30154 40192 53004 60006 80000 91800 333 10236 20153=
07650,1998-05-18 21:00:00,17,1020.7,1.5,82,14,22000,7.408,,,150,,,,,,,,,,,wg-a,,,,AAXX 18214 07650 12/72 01504 10170 20140 30169 40207 53015 60006 80000 92100=
07650,1998-05-19 00:00:00,16,1021.3,0.6,82,13,20000,7.408,,,100,,,,,,,,,,,wg-a,,,,AAXX 19004 07650 12/70 01004 10160 20130 30175 40213 51006 60006 80000 90000=
07650,1998-05-19 03:00:00,14,1020.7,-0.7,82,11,20000,7.408,,,120,,,,,,,,,,,wg-a,,,,AAXX 19034 07650 12/70 01204 10140 20110 30168 40207 56007 60006 80000 90300=
07650,1998-05-19 06:00:00,16,1020.6,0,77,12,12000,7.408,,,60,13.3,19.5,,,,,,,,,wg-a,,,,AAXX 19064 07650 02/62 10604 10160 20120 30168 40206 50000 60006 80001 90600 333 10195 20133 60004=
07650,1998-05-19 09:00:00,21,1020.4,-0.2,56,12,12000,11.112,,,270,,,,,,,,,,,wg-a,,,,AAXX 19094 07650 12562 12706 10210 20120 30166 40204 56002 60006 81100 90900=
07650,1998-05-19 12:00:00,23,1019.7,-0.6,50,12,9000,18.52,,,260,,,,,,,,,,,wg-a,,,,AAXX 19124 07650 12559 22610 10230 20120 30160 40197 58006 60006 82200 91200=
07650,1998-05-19 15:00:00,23,1018.7,-1,47,11,15000,14.816,,,240,,,,,,,,,,,wg-a,,,,AAXX 19154 07650 12565 /2408 10230 20110 30150 40187 58010 60006 81100 91500=
07650,1998-05-19 18:00:00,20,1018.6,-0.2,60,12,20000,11.112,,,230,15.6,23.6,,,,,,,,,wg-a,,,,AAXX 19184 07650 12570 /2306 10200 20120 30148 40186 55002 60006 81500 91800 333 10236 20156=
07650,1998-05-19 21:00:00,17,1019.7,1.1,77,13,17000,7.408,,,140,,,,,,,,,,,wg-a,,,,AAXX 19214 07650 12/67 11404 10170 20130 30159 40197 51011 60006 80002 92100=
07650,1998-05-20 00:00:00,16,1019.3,-0.4,82,13,16000,11.112,,,150,,,,,,,,,,,wg-a,,,,AAXX 20004 07650 12/66 11506 10160 20130 30155 40193 58004 60006 80002 90000=
07650,1998-05-20 03:00:00,14,1018.5,-0.8,88,12,18000,7.408,,,140,,,,,,,,,,,wg-a,,,,AAXX 20034 07650 12/68 11404 10140 20120 30147 40185 56008 60006 80001 90300=
07650,1998-05-20 06:00:00,16,1018.4,-0.1,82,13,10000,3.704,,,160,12.9,20.1,,,,,,,,,wg-a,,,,AAXX 20064 07650 02/60 61602 10160 20130 30146 40184 57001 60006 80002 90600 333 10201 20129 60004=
07650,1998-05-20 09:00:00,20,1018.8,0.4,64,13,15000,7.408,,,310,,,,,,,,,,,wg-a,,,,AAXX 20094 07650 12565 73104 10200 20130 30150 40188 51004 60006 81182 90900=
07650,1998-05-20 12:00:00,23,1018,-0.7,44,10,15000,18.52,,,290,,,,,,,,,,,wg-a,,,,AAXX 20124 07650 12565 /2910 10230 20100 30143 40180 58007 60006 81102 91200=
07650,1998-05-20 15:00:00,23,1017,-1,38,8,15000,18.52,,,280,,,,,,,,,,,wg-a,,,,AAXX 20154 07650 12665 42810 10230 20080 30133 40170 57010 60006 81202 91500=
07650,1998-05-20 18:00:00,21,1016.9,-0.2,49,10,20000,14.816,,,240,16.2,23.9,,,,,,,,,wg-a,,,,AAXX 20184 07650 12670 22408 10210 20100 30131 40169 55002 60006 81282 91800 333 10239 20162=
07650,1998-05-20 21:00:00,17,1017.7,0.8,77,13,15000,11.112,,,160,,,,,,,,,,,wg-a,,,,AAXX 20214 07650 12/65 21606 10170 20130 30139 40177 51008 60006 80002 92100=
07650,1998-05-21 00:00:00,15,1017.1,-0.6,82,12,15000,7.408,,,150,,,,,,,,,,,wg-a,,,,AAXX 21004 07650 12/65 21504 10150 20120 30133 40171 58006 60006 80002 90000=
07650,1998-05-21 03:00:00,13,1016.2,-0.9,94,12,12000,7.408,,,150,,,,,,,,,,,wg-a,,,,AAXX 21034 07650 12/62 01504 10130 20120 30124 40162 56009 60006 80000 90300=
07650,1998-05-21 06:00:00,16,1016.8,0.6,82,13,15000,7.408,,,160,12.7,20.5,,,,,,,,,wg-a,,,,AAXX 21064 07650 02465 /1604 10160 20130 30130 40168 53006 60006 81502 90600 333 10205 20127 60004=
07650,1998-05-21 09:00:00,20,1017,0.2,60,12,14000,7.408,,,320,,,,,,,,,,,wg-a,,,,AAXX 21094 07650 12564 /3204 10200 20120 30132 40170 50002 60006 81100 90900=
07650,1998-05-21 12:00:00,24,1015.7,-1.2,54,14,15000,14.816,,,280,,,,,,,,,,,wg-a,,,,AAXX 21124 07650 12565 22808 10240 20140 30120 40157 58012 60006 81102 91200=
07650,1998-05-21 15:00:00,24,1014.7,-1,54,14,18000,18.52,,,230,,,,,,,,,,,wg-a,,,,AAXX 21154 07650 12568 /2310 10240 20140 30110 40147 56010 60006 81203 91500=
07650,1998-05-21 18:00:00,21,1015.2,0.5,64,14,15000,14.816,,,210,15.7,25.3,,,,,,,,,wg-a,,,,AAXX 21184 07650 12565 /2108 10210 20140 30115 40152 53005 60006 81900 91800 333 10253 20157=
07650,1998-05-21 21:00:00,19,1015.7,0.4,78,15,15000,11.112,,,150,,,,,,,,,,,wg-a,,,,AAXX 21214 07650 12565 31506 10190 20150 30119 40157 51004 60006 81501 92100=
07650,1998-05-22 00:00:00,17,1014.5,-1.2,82,14,15000,11.112,,,160,,,,,,,,,,,wg-a,,,,AAXX 22004 07650 12/65 11606 10170 20140 30107 40145 56012 60006 80002 90000=
07650,1998-05-22 03:00:00,15,1014,-0.5,88,13,15000,3.704,,,170,,,,,,,,,,,wg-a,,,,AAXX 22034 07650 12/65 01702 10150 20130 30102 40140 56005 60006 80000 90300=
07650,1998-05-22 06:00:00,18,1013.9,-0.1,64,11,18000,22.224,,,10,14.5,21.1,,,,,,,,,wg-a,,,,AAXX 22064 07650 02/68 10112 10180 20110 30101 40139 56001 60006 80002 90600 333 10211 20145 60004=
07650,1998-05-22 09:00:00,23,1013.2,-0.6,50,12,18000,38.892,,,340,,,,,,,,,,,wg-a,,,,AAXX 22094 07650 12/68 13421 10230 20120 30095 40132 58006 60006 80002 90900=
07650,1998-05-22 12:00:00,26,1012.6,-0.6,39,11,18000,42.596,,,350,,,,,,,,,,,wg-a,,,,AAXX 22124 07650 12/68 13523 10260 20110 30089 40126 58006 60006 80002 91200=
07650,1998-05-22 15:00:00,25,1012,-0.6,34,8,20000,50.004,,64.82,340,,,,,,,,,,,wg-a,,,,AAXX 22154 07650 12/70 13427 10250 20080 30083 40120 57006 60006 80002 91500 333 91035=
07650,1998-05-22 18:00:00,23,1012.3,0.3,33,6,20000,31.484,,59.264,360,18.4,25.9,,,,,,,,,wg-a,,,,AAXX 22184 07650 12/70 13617 10230 20060 30086 40123 53003 60006 80002 91800 333 10259 20184 91032=
07650,1998-05-22 21:00:00,20,1013,0.6,40,6,25000,35.188,,,340,,,,,,,,,,,wg-a,,,,AAXX 22214 07650 12/75 13419 10200 20060 30092 40130 51006 60006 80002 92100=
07650,1998-05-23 00:00:00,17,1012.8,-0.2,48,6,20000,29.632,,,350,,,,,,,,,,,wg-a,,,,AAXX 23004 07650 12/70 03516 10170 20060 30090 40128 58002 60006 80000 90000=
07650,1998-05-23 06:00:00,14,1013.8,1.1,63,7,500,18.52,,,330,13.4,23,,,,,,,,,wg-a,,,,AAXX 23064 07650 02/00 13310 10140 20070 30100 40138 53011 60006 80002 90600 333 10230 20134 60004=
07650,1998-05-23 09:00:00,19,1013.3,-0.5,49,8,500,22.224,,,340,,,,,,,,,,,wg-a,,,,AAXX 23094 07650 12/00 03412 10190 20080 30095 40133 58005 60006 80000 90900=
07650,1998-05-23 12:00:00,23,1012.7,-0.5,38,8,500,25.928,,,300,,,,,,,,,,,wg-a,,,,AAXX 23124 07650 12/00 23014 10230 20080 30090 40127 56005 60006 80002 91200=
07650,1998-05-23 15:00:00,24,1011.6,-1.1,36,8,500,22.224,,,290,,,,,,,,,,,wg-a,,,,AAXX 23154 07650 12500 32912 10240 20080 30079 40116 58011 60006 81202 91500=
07650,1998-05-23 18:00:00,23,1011.1,-0.5,36,7,500,22.224,,,330,14.5,25,,,,,,,,,wg-a,,,,AAXX 23184 07650 12/00 23312 10230 20070 30074 40111 55005 60006 80002 91800 333 10250 20145=
07650,1998-05-23 21:00:00,20,1012.4,1.2,43,7,500,25.928,,,320,,,,,,,,,,,wg-a,,,,AAXX 23214 07650 12/00 23214 10200 20070 30086 40124 51012 60006 80002 92100=
07650,1998-05-24 00:00:00,17,1011.4,-1,48,6,500,14.816,,,330,,,,,,,,,,,wg-a,,,,AAXX 24004 07650 12/00 23308 10170 20060 30076 40114 57010 60006 80002 90000=
07650,1998-05-24 03:00:00,15,1010.6,-0.8,59,7,25000,18.52,,,330,,,,,,,,,,,wg-a,,,,AAXX 24034 07650 12/75 13310 10150 20070 30068 40106 58008 60006 80001 90300=
07650,1998-05-24 06:00:00,15,1010.3,-0.3,55,6,40000,14.816,,,350,13.2,23.2,,,,,,,,,wg-a,,,,AAXX 24064 07650 02/82 23508 10150 20060 30065 40103 55003 60006 80001 90600 333 10232 20132 60004=
07650,1998-05-24 09:00:00,20,1009.8,-0.4,46,8,40000,22.224,,,340,,,,,,,,,,,wg-a,,,,AAXX 24094 07650 12/82 23412 10200 20080 30061 40098 58004 60006 80001 90900=
07650,1998-05-24 12:00:00,24,1008.4,-1.4,36,8,40000,29.632,,,320,,,,,,,,,,,wg-a,,,,AAXX 24124 07650 12582 23216 10240 20080 30047 40084 57014 60006 81202 91200=
07650,1998-05-24 15:00:00,25,1006.6,-1.8,30,6,40000,31.484,,,340,,,,,,,,,,,wg-a,,,,AAXX 24154 07650 12582 23417 10250 20060 30029 40066 56018 60006 81202 91500=
07650,1998-05-24 18:00:00,23,1006.3,-0.3,33,6,11000,31.484,,,340,15,25.4,,,,,,,,,wg-a,,,,AAXX 24184 07650 12/61 /3417 10230 20060 30026 40063 55003 60006 91800 333 10254 20150=
07650,1998-05-24 21:00:00,20,1007.4,1.1,40,6,10000,38.892,,,360,,,,,,,,,,,wg-a,,,,AAXX 24214 07650 12/60 /3621 10200 20060 30037 40074 53011 60006 92100=
07650,1998-05-25 00:00:00,16,1008,0.5,48,5,10000,14.816,,,20,,,,,,,,,,,wg-a,,,,AAXX 25004 07650 12/60 /0208 10160 20050 30042 40080 50005 60006 90000=
07650,1998-05-25 03:00:00,13,1007.4,-0.6,62,6,500,3.704,,,110,,,,,,,,,,,wg-a,,,,AAXX 25034 07650 12/00 01102 10130 20060 30036 40074 56006 60006 80000 90300=
07650,1998-05-25 06:00:00,15,1008,0.6,63,8,10000,3.704,,,310,12,22.9,,,,,,,,,wg-a,,,,AAXX 25064 07650 02/60 /3102 10150 20080 30042 40080 51006 60006 90600 333 10229 20120 60004=
07650,1998-05-25 09:00:00,20,1007.8,-0.1,53,10,25000,7.408,,,290,,,,,,,,,,,wg-a,,,,AAXX 25094 07650 12/75 02904 10200 20100 30041 40078 58001 60006 80000 90900=
07650,1998-05-25 12:00:00,23,1007.4,-0.4,41,9,500,22.224,,,280,,,,,,,,,,,wg-a,,,,AAXX 25124 07650 12500 /2812 10230 20090 30037 40074 58004 60006 81200 91200=
07650,1998-05-25 15:00:00,25,1006.2,-1.2,36,9,500,29.632,,,320,,,,,,,,,,,wg-a,,,,AAXX 25154 07650 12600 23216 10250 20090 30025 40062 56012 60006 82200 91500=
07650,1998-05-25 18:00:00,24,1006.3,0.1,34,7,40000,31.484,,,340,15.1,25.7,,,,,,,,,wg-a,,,,AAXX 25184 07650 12682 /3417 10240 20070 30026 40063 53001 60006 81500 91800 333 10257 20151=
07650,1998-05-25 21:00:00,21,1007.8,1.5,43,8,20000,25.928,,,330,,,,,,,,,,,wg-a,,,,AAXX 25214 07650 12/70 03314 10210 20080 30041 40078 53015 60006 80000 92100=
07650,1998-05-26 00:00:00,18,1007.7,-0.2,56,9,25000,25.928,,,330,,,,,,,,,,,wg-a,,,,AAXX 26004 07650 12/75 03314 10180 20090 30039 40077 56002 60006 80000 90000=
07650,1998-05-26 03:00:00,16,1007.8,0.1,59,8,25000,18.52,,,330,,,,,,,,,,,wg-a,,,,AAXX 26034 07650 12/75 03310 10160 20080 30040 40078 51001 60006 80000 90300=
07650,1998-05-26 06:00:00,17,1008.6,0.8,59,9,25000,18.52,,,340,15.1,23.6,,,,,,,,,wg-a,,,,AAXX 26064 07650 02/75 03410 10170 20090 30048 40086 53008 60006 80000 90600 333 10236 20151 60004=
07650,1998-05-26 09:00:00,22,1009.1,0.6,46,10,500,22.224,,,290,,,,,,,,,,,wg-a,,,,AAXX 26094 07650 12500 12912 10220 20100 30054 40091 51006 60006 81100 90900=
07650,1998-05-26 12:00:00,25,1009,,41,11,18000,31.484,,,270,,,,,,,,,,,wg-a,,,,AAXX 26124 07650 12568 22717 10250 20110 30053 40090 60006 82202 91200=
07650,1998-05-26 15:00:00,24,1009.1,0.1,41,10,20000,29.632,,,270,,,,,,,,,,,wg-a,,,,AAXX 26154 07650 12570 /2716 10240 20100 30054 40091 53001 60006 81202 91500=
07650,1998-05-26 18:00:00,22,1009.6,0.5,46,10,18000,25.928,,,250,17,24.9,,,,,,,,,wg-a,,,,AAXX 26184 07650 12/68 02514 10220 20100 30059 40096 53005 60006 80000 91800 333 10249 20170=
07650,1998-05-26 21:00:00,19,1011.3,1.6,73,14,12000,3.704,,,240,,,,,,,,,,,wg-a,,,,AAXX 26214 07650 12/62 02402 10190 20140 30075 40113 51016 60006 80000 92100=
07650,1998-05-27 00:00:00,18,1010.8,-0.5,83,15,12000,14.816,,,150,,,,,,,,,,,wg-a,,,,AAXX 27004 07650 12462 /1508 10180 20150 30070 40108 58005 60006 86500 90000=
07650,1998-05-27 03:00:00,18,1009.8,-1,83,15,8000,11.112,,,150,,,,,,,,,,21,wg-a,,,,AAXX 27034 07650 02458 /1506 10180 20150 30060 40098 56010 61000 72162 85530 90300 333 ////=
07650,1998-05-27 06:00:00,19,1010.5,0.7,83,16,8000,11.112,,,170,17.6,21.6,,,,,,,,1,wg-a,,,,AAXX 27064 07650 02458 71706 10190 20160 30067 40105 53007 60006 70162 8787/ 90600 333 10216 20176 60004=
07650,1998-05-27 09:00:00,22,1010.1,-0.3,65,15,16000,22.224,,,180,,,,,,,,,,,wg-a,,,,AAXX 27094 07650 12466 61812 10220 20150 30064 40101 58003 60006 85232 90900=
07650,1998-05-27 12:00:00,20,1009.7,-0.4,78,16,8000,29.632,,,170,,,,5,,,,,,25,wg-a,,,,AAXX 27124 07650 02458 71716 10200 20160 30060 40097 58004 60056 72598 8597/ 91200 333 60057=
07650,1998-05-27 15:00:00,20,1008.3,-1.4,78,16,9000,29.632,,,160,,,,,,,,,,80,wg-a,,,,AAXX 27154 07650 02459 71616 10200 20160 30046 40083 58014 61000 78086 8687/ 91500 333 ////=
07650,1998-05-27 18:00:00,19,1008.5,0.2,78,15,14000,31.484,,,170,18.2,22.2,,,,,,,,1,wg-a,,,,AAXX 27184 07650 02464 71717 10190 20150 30048 40085 51002 60006 70186 84832 91800 333 10222 20182 61000=
07650,1998-05-27 21:00:00,19,1009.5,1,73,14,13000,18.52,,,140,,,,,,,,,,3,wg-a,,,,AAXX 27214 07650 02563 71410 10190 20140 30058 40095 52010 61000 70362 85832 92100 333 ////=
07650,1998-05-28 00:00:00,18,1009.2,-0.4,73,13,14000,18.52,,,120,,,,,,,,,,13,wg-a,,,,AAXX 28004 07650 02564 41210 10180 20130 30054 40092 56004 61000 71361 82832 90000 333 ////=
07650,1998-05-28 03:00:00,17,1007.7,-1.5,77,13,15000,18.52,,,130,,,,,,,,,,,wg-a,,,,AAXX 28034 07650 12565 41310 10170 20130 30039 40077 58015 60006 82832 90300=
07650,1998-05-28 06:00:00,18,1007.1,-0.6,77,14,18000,14.816,,,90,16.5,19.3,,,,,5,,,,wg-a,,,,AAXX 28064 07650 02568 80908 10180 20140 30033 40071 56006 60006 878// 90600 333 10193 20165 60054=
07650,1998-05-28 09:00:00,16,1006.7,-0.4,94,15,2500,7.408,,,150,,,,16,,,,,,81,wg-a,,,,AAXX 28094 07650 12025 81504 10160 20150 30029 40067 56004 60167 78196 879// 90900=
07650,1998-05-28 12:00:00,18,1006.6,0,83,15,10000,7.408,,,250,,,,2,,,,,,60,wg-a,,,,AAXX 28124 07650 02460 82504 10180 20150 30029 40066 50000 60176 76096 878// 91200 333 60027=
07650,1998-05-28 15:00:00,18,1006.9,0.3,77,14,20000,7.408,,,60,,,,12,,,,,,1,wg-a,,,,AAXX 28154 07650 12470 70604 10180 20140 30032 40069 50003 60127 70162 8587/ 91500=
07650,1998-05-28 18:00:00,19,1007.8,0.9,73,14,20000,3.704,,,320,14.9,19.5,,,,,,,,1,wg-a,,,,AAXX 28184 07650 12470 63202 10190 20140 30041 40078 51009 60006 70162 85802 91800 333 10195 20149=
07650,1998-05-28 21:00:00,17,1009.7,1.8,88,15,18000,14.816,,,310,,,,,,,,,,,wg-a,,,,AAXX 28214 07650 12568 /3108 10170 20150 30059 40097 53018 60006 86500 92100=
07650,1998-05-29 00:00:00,16,1010.5,0.8,94,15,10000,14.816,,,290,,,,,,,,,,,wg-a,,,,AAXX 29004 07650 12260 62908 10160 20150 30067 40105 51008 60006 86800 90000=
07650,1998-05-29 03:00:00,15,1010.6,0.1,94,14,10000,18.52,,,330,,,,,,,,,,,wg-a,,,,AAXX 29034 07650 12260 73310 10150 20140 30068 40106 53001 60006 875// 90300=
07650,1998-05-29 06:00:00,16,1011.4,0.8,88,14,8000,14.816,,,10,14.4,19.1,,,,,30,,,,wg-a,,,,AAXX 29064 07650 02358 60108 10160 20140 30076 40114 53008 60006 86500 90600 333 10191 20144 60304=
07650,1998-05-29 09:00:00,18,1012.4,1,73,13,12000,11.112,,,290,,,,,,,,,,,wg-a,,,,AAXX 29094 07650 12462 32906 10180 20130 30086 40124 52010 60006 83200 90900=
07650,1998-05-29 12:00:00,22,1012.4,0.1,50,11,20000,7.408,,,290,,,,,,,,,,,wg-a,,,,AAXX 29124 07650 12570 32904 10220 20110 30087 40124 51001 60006 83200 91200=
07650,1998-05-29 15:00:00,22,1011.9,-0.5,53,12,20000,22.224,,,270,,,,,,,,,,,wg-a,,,,AAXX 29154 07650 12570 22712 10220 20120 30082 40119 56005 60006 82200 91500=
07650,1998-05-29 18:00:00,20,1012.8,0.8,56,11,20000,18.52,,,240,15.5,22.9,,,,,,,,,wg-a,,,,AAXX 29184 07650 12570 /2410 10200 20110 30090 40128 53008 60006 81201 91800 333 10229 20155=
07650,1998-05-29 21:00:00,17,1014.4,1.6,77,13,20000,11.112,,,140,,,,,,,,,,,wg-a,,,,AAXX 29214 07650 12/70 11406 10170 20130 30106 40144 53016 60006 80001 92100=
07650,1998-05-30 00:00:00,15,1014.1,-0.3,72,10,20000,11.112,,,140,,,,,,,,,,,wg-a,,,,AAXX 30004 07650 12/70 01406 10150 20100 30103 40141 58003 60006 80000 90000=
07650,1998-05-30 03:00:00,15,1012.8,-1.3,72,10,20000,18.52,,,110,,,,,,,,,,,wg-a,,,,AAXX 30034 07650 12570 21110 10150 20100 30090 40128 57013 60006 81531 90300=
07650,1998-05-30 06:00:00,17,1013,0.2,72,12,18000,14.816,,,100,14.4,19.6,,,,,,,,,wg-a,,,,AAXX 30064 07650 02568 /1008 10170 20120 30092 40130 50002 60006 81532 90600 333 10196 20144 60004=
07650,1998-05-30 09:00:00,21,1013.7,0.8,64,14,40000,35.188,,,170,,,,,,,,,,,wg-a,,,,AAXX 30094 07650 12582 /1719 10210 20140 30100 40137 53008 60006 85201 90900=
07650,1998-05-30 12:00:00,23,1013.5,-0.2,47,11,40000,29.632,,,170,,,,,,,,,,,wg-a,,,,AAXX 30124 07650 12682 51716 10230 20110 30098 40135 58002 60006 82232 91200=
07650,1998-05-30 15:00:00,23,1012.7,-0.8,47,11,40000,29.632,,,170,,,,,,,,,,,wg-a,,,,AAXX 30154 07650 12682 61716 10230 20110 30090 40127 56008 60006 81172 91500=
07650,1998-05-30 18:00:00,21,1012.9,0.2,60,13,50000,25.928,,,170,16.8,23.4,,,,,,,,,wg-a,,,,AAXX 30184 07650 12684 31714 10210 20130 30092 40129 53002 60006 81131 91800 333 10234 20168=
07650,1998-05-30 21:00:00,19,1014.1,1.1,64,12,500,22.224,,,130,,,,,,,,,,,wg-a,,,,AAXX 30214 07650 12600 31312 10190 20120 30103 40141 51011 60006 81501 92100=
07650,1998-05-31 00:00:00,18,1013.1,-1,73,13,500,25.928,,,130,,,,,,,,,,,wg-a,,,,AAXX 31004 07650 12/00 21314 10180 20130 30093 40131 58010 60006 80001 90000=
07650,1998-05-31 03:00:00,18,1012.2,,73,13,15000,18.52,,,120,,,,,,,,,,61,wg-a,,,,AAXX 31034 07650 32565 81210 10180 20130 30084 40122 76161 8557/ 90300=
07650,1998-05-31 06:00:00,17,1012.6,0.4,88,15,12000,18.52,,,140,16.5,20.7,,,,,,,,21,wg-a,,,,AAXX 31064 07650 02562 71410 10170 20150 30088 40126 53004 61000 72161 8387/ 90600 333 10207 20165 6001=
07650,1998-05-31 09:00:00,20,1013.2,0.7,83,17,18000,22.224,,,180,,,,,,,,,,3,wg-a,,,,AAXX 31094 07650 12468 81812 10200 20170 30095 40132 50007 60006 70392 8687/ 90900=
07650,1998-05-31 12:00:00,21,1012.7,-0.5,64,14,25000,35.188,,,170,,,,,,,,,,3,wg-a,,,,AAXX 31124 07650 12475 71719 10210 20140 30090 40127 58005 60006 70392 83832 91200=
07650,1998-05-31 15:00:00,19,1014,1.2,73,14,20000,11.112,,,50,,,,,,,,,,17,wg-a,,,,AAXX 31154 07650 02470 70506 10190 20140 30102 40140 53012 61000 71798 878// 91500 333 ////=
07650,1998-05-31 18:00:00,21,1014.3,0.4,73,16,20000,11.112,,,190,17.3,22.8,,,,,,,,1,wg-a,,,,AAXX 31184 07650 12470 41906 10210 20160 30106 40143 53004 60006 70198 84200 91800 333 10228 20173=
07650,1998-05-31 21:00:00,17,1016,1.6,94,16,15000,3.704,,,180,,,,,,,,,,,wg-a,,,,AAXX 31214 07650 12565 41802 10170 20160 30122 40160 52016 60006 82502 92100=
07650,1998-06-01 00:00:00,17,1015.7,-0.3,82,14,15000,11.112,,,100,,,,,,,,,,,wg-a,,,,AAXX 01004 07650 12/65 21006 10170 20140 30119 40157 56003 60006 80001 90000=
07650,1998-06-01 03:00:00,16,1015.2,-0.5,88,14,13000,7.408,,,110,,,,,,,,,,,wg-a,,,,AAXX 01034 07650 12/63 51104 10160 20140 30114 40152 58005 60006 81032 90300=
07650,1998-06-01 06:00:00,18,1015.5,0.3,73,13,17000,11.112,,,100,15.1,20.8,,,,,,,,,wg-a,,,,AAXX 01064 07650 02567 21006 10180 20130 30117 40155 53003 60006 81132 90600 333 10208 20151 61000=
07650,1998-06-01 09:00:00,22,1015.7,0.3,53,12,60000,25.928,,,160,,,,,,,,,,,wg-a,,,,AAXX 01094 07650 12586 31614 10220 20120 30120 40157 51003 60006 81132 90900=
07650,1998-06-01 12:00:00,23,1016,0.3,47,11,60000,31.484,,,180,,,,,,,,,,,wg-a,,,,AAXX 01124 07650 12586 71817 10230 20110 30123 40160 53003 60006 81131 91200=
07650,1998-06-01 15:00:00,24,1015.3,-0.7,38,9,60000,25.928,,,160,,,,,,,,,,,wg-a,,,,AAXX 01154 07650 12/86 71614 10240 20090 30116 40153 56007 60006 8707/ 91500=
07650,1998-06-01 18:00:00,21,1015.4,0.1,53,11,60000,18.52,,,160,17.6,24.4,,,,,,,,,wg-a,,,,AAXX 01184 07650 12/86 71610 10210 20110 30117 40154 51001 60006 82032 91800 333 10244 20176=
07650,1998-06-01 21:00:00,20,1015.6,0.1,60,12,500,18.52,,,140,,,,,,,,,,,wg-a,,,,AAXX 01214 07650 12/00 61410 10200 20120 30118 40156 50001 60006 82032 92100=
07650,1998-06-02 00:00:00,18,1015.7,0.1,64,11,25000,11.112,,,90,,,,,,,,,,,wg-a,,,,AAXX 02004 07650 12/75 70906 10180 20110 30119 40157 53001 60006 84032 90000=
07650,1998-06-02 03:00:00,18,1015.4,-0.3,64,11,25000,18.52,,,120,,,,,,,,,,,wg-a,,,,AAXX 02034 07650 12/75 71210 10180 20110 30116 40154 56003 60006 84032 90300=
07650,1998-06-02 06:00:00,19,1015.2,-0.2,60,11,500,14.816,,,130,17.8,21.4,,,,,,,,,wg-a,,,,AAXX 02064 07650 02/00 71308 10190 20110 30114 40152 58002 60006 82032 90600 333 10214 20178 60004=
07650,1998-06-02 09:00:00,26,1014.8,-0.3,37,10,500,25.928,,,140,,,,,,,,,,,wg-a,,,,AAXX 02094 07650 12500 /1414 10260 20100 30111 40148 58003 60006 81532 90900=
07650,1998-06-02 12:00:00,26,1014.9,0.1,42,12,500,18.52,,,230,,,,,,,,,,,wg-a,,,,AAXX 02124 07650 12500 72310 10260 20120 30112 40149 53001 60006 82532 91200=
07650,1998-06-02 15:00:00,28,1013.1,-1.8,35,11,500,18.52,,,150,,,,,,,,,,,wg-a,,,,AAXX 02154 07650 12500 71510 10280 20110 30094 40131 55018 60006 8383/ 91500=
07650,1998-06-02 18:00:00,25,1013,-0.1,50,14,500,3.704,,,110,19.1,28.6,,,,,,,,,wg-a,,,,AAXX 02184 07650 12500 71102 10250 20140 30093 40130 55001 60006 8383/ 91800 333 10286 20191=
07650,1998-06-02 21:00:00,21,1014.8,1.8,64,14,20000,11.112,,,130,,,,,,,,,,,wg-a,,,,AAXX 02214 07650 12/70 61306 10210 20140 30111 40148 53018 60006 82032 92100=
07650,1998-06-03 00:00:00,19,1014.8,-0.1,73,14,20000,0,,,0,,,,,,,,,,,wg-a,,,,AAXX 03004 07650 12/70 30000 10190 20140 30110 40148 58001 60006 81032 90000=
07650,1998-06-03 03:00:00,17,1014.3,-0.5,82,14,18000,3.704,,,220,,,,,,,,,,,wg-a,,,,AAXX 03034 07650 12568 42202 10170 20140 30105 40143 56005 60006 81532 90300=
07650,1998-06-03 06:00:00,19,1014.7,0.4,78,15,18000,0,,,0,16.6,25.3,,,,,,,,,wg-a,,,,AAXX 03064 07650 02568 70000 10190 20150 30109 40147 53004 60006 81532 90600 333 10253 20166 60004=
07650,1998-06-03 09:00:00,24,1015,0.4,61,16,17000,11.112,,,280,,,,,,,,,,,wg-a,,,,AAXX 03094 07650 12667 /2806 10240 20160 30113 40150 51004 60006 81282 90900=
07650,1998-06-03 12:00:00,27,1015,-0,45,14,20000,18.52,,,230,,,,,,,,,,,wg-a,,,,AAXX 03124 07650 12770 52310 10270 20140 30113 40150 55000 60006 81182 91200=
07650,1998-06-03 15:00:00,27,1014.7,-0.3,51,16,17000,11.112,,,290,,,,,,,,,,,wg-a,,,,AAXX 03154 07650 12767 72906 10270 20160 30110 40147 57003 60006 81282 91500=
07650,1998-06-03 18:00:00,22,1015.8,1.1,78,18,9000,18.52,,,340,19.2,27.6,,,,,,,,60,wg-a,,,,AAXX 03184 07650 02559 73410 10220 20180 30121 40158 51011 61000 76062 81282 91800 333 10276 20192 6000=
07650,1998-06-03 21:00:00,24,1014,-1.8,61,16,11000,25.928,,,130,,,,,,,,,,1,wg-a,,,,AAXX 03214 07650 02661 71314 10240 20160 30103 40140 56018 61000 70162 81182 92100 333 ////=
07650,1998-06-04 00:00:00,21,1016.3,2.3,88,19,10000,7.408,,,190,,,,,,,,,,3,wg-a,,,,AAXX 04004 07650 02660 61904 10210 20190 30126 40163 51023 61000 70361 81532 90000 333 ////=
07650,1998-06-04 03:00:00,21,1014.6,-1.7,83,18,10000,22.224,,,90,,,,,,,,,,60,wg-a,,,,AAXX 04034 07650 02660 70912 10210 20180 30109 40146 58017 61000 76062 81582 90300 333 ////=
07650,1998-06-04 06:00:00,23,1015.2,0.6,65,16,15000,7.408,,,200,20.2,24.2,,,,,,,,1,wg-a,,,,AAXX 04064 07650 02/65 52004 10230 20160 30115 40152 50006 60006 70162 81031 90600 333 10242 20202 60004=
07650,1998-06-04 09:00:00,29,1014.8,-0.3,37,13,20000,22.224,,,90,,,,,,,,,,,wg-a,,,,AAXX 04094 07650 12/70 20912 10290 20130 30112 40148 58003 60006 80001 90900=
07650,1998-06-04 12:00:00,30,1014.2,-0.6,38,14,20000,18.52,,,230,,,,,,,,,,,wg-a,,,,AAXX 04124 07650 12/70 22310 10300 20140 30106 40142 56006 60006 80001 91200=
07650,1998-06-04 15:00:00,30,1013.5,-0.7,49,18,20000,18.52,,,320,,,,,,,,,,,wg-a,,,,AAXX 04154 07650 12/70 33210 10300 20180 30099 40135 58007 60006 82081 91500=
07650,1998-06-04 18:00:00,30,1012.3,-1.2,31,11,20000,29.632,,,110,23.5,31.6,,,,,,,,,wg-a,,,,AAXX 04184 07650 12770 51116 10300 20110 30087 40123 56012 60006 81580 91800 333 10316 20235=
07650,1998-06-04 21:00:00,27,1013.4,1,42,13,16000,25.928,,,120,,,,,,,,,,,wg-a,,,,AAXX 04214 07650 12/66 11214 10270 20130 30097 40134 51010 60006 81031 92100=
07650,1998-06-05 00:00:00,26,1013.2,-0.2,48,14,15000,22.224,,,110,,,,,,,,,,,wg-a,,,,AAXX 05004 07650 12/65 21112 10260 20140 30095 40132 58002 60006 80002 90000=
07650,1998-06-05 03:00:00,24,1013,-0.2,61,16,15000,31.484,,,100,,,,,,,,,,,wg-a,,,,AAXX 05034 07650 12/65 21017 10240 20160 30093 40130 58002 60006 80002 90300=
07650,1998-06-05 06:00:00,26,1013.4,0.4,51,15,15000,25.928,,,130,23.7,29.7,,,,,,,,,wg-a,,,,AAXX 05064 07650 02/65 61314 10260 20150 30097 40134 53004 60006 80004 90600 333 10297 20237 60004=
07650,1998-06-05 09:00:00,31,1013.7,0.4,38,15,15000,14.816,,,270,,,,,,,,,,,wg-a,,,,AAXX 05094 07650 12/65 72708 10310 20150 30101 40137 53004 60006 80001 90900=
07650,1998-06-05 12:00:00,33,1012.2,-1.5,32,14,20000,31.484,,,100,,,,,,,,,,,wg-a,,,,AAXX 05124 07650 12/70 61017 10330 20140 30086 40122 56015 60006 80001 91200=
07650,1998-06-05 15:00:00,33,1012.4,0.2,28,12,20000,31.484,,,140,,,,,,,,,,,wg-a,,,,AAXX 05154 07650 12/70 51417 10330 20120 30088 40124 53002 60006 80001 91500=
07650,1998-06-05 18:00:00,30,1011.5,-0.9,31,11,20000,29.632,,,110,25.7,34.4,,,,,,,,,wg-a,,,,AAXX 05184 07650 12/70 61116 10300 20110 30079 40115 56009 60006 80001 91800 333 10344 20257=
07650,1998-06-05 21:00:00,29,1012,0.5,29,9,20000,11.112,,,140,,,,,,,,,,,wg-a,,,,AAXX 05214 07650 12/70 61406 10290 20090 30084 40120 50005 60006 80001 92100=
07650,1998-06-06 00:00:00,28,1012.2,0.2,37,12,20000,22.224,,,150,,,,,,,,,,,wg-a,,,,AAXX 06004 07650 12/70 61512 10280 20120 30086 40122 50002 60006 80001 90000=
07650,1998-06-06 03:00:00,24,1013.3,1,54,14,20000,18.52,,,140,,,,,,,,,,,wg-a,,,,AAXX 06034 07650 12/70 61410 10240 20140 30096 40133 51010 60006 83031 90300=
07650,1998-06-06 06:00:00,25,1013.3,0,44,12,20000,29.632,,,140,23.6,30,,,,,,,,,wg-a,,,,AAXX 06064 07650 02770 71416 10250 20120 30096 40133 50000 60006 81572 90600 333 10300 20236 60004=
07650,1998-06-06 09:00:00,25,1013.1,-0.2,54,15,20000,31.484,,,310,,,,,,,,,,,wg-a,,,,AAXX 06094 07650 12570 73117 10250 20150 30094 40131 55002 60006 81572 90900=
07650,1998-06-06 12:00:00,22,1015.6,2.5,78,18,9000,31.484,,,160,,,,,,,,,,60,wg-a,,,,AAXX 06124 07650 02459 71617 10220 20180 30119 40156 51025 61000 76062 8227/ 91200 333 6100=
07650,1998-06-06 15:00:00,24,1013.5,-2.1,65,17,15000,11.112,,,180,,,,0,,,,,,2,wg-a,,,,AAXX 06154 07650 12465 71806 10240 20170 30098 40135 56021 60007 70262 8557/ 91500=
07650,1998-06-06 18:00:00,23,1013.5,-0,65,16,15000,18.52,,,160,21.3,26.7,,,,,,,,21,wg-a,,,,AAXX 06184 07650 02565 71610 10230 20160 30098 40135 55000 61000 72162 8487/ 91800 333 10267 20213 6100=
07650,1998-06-06 21:00:00,21,1014.9,1.4,83,18,12000,14.816,,,170,,,,1,,,,,,1,wg-a,,,,AAXX 06214 07650 12562 71708 10210 20180 30112 40149 53014 60017 70162 8487/ 92100=
07650,1998-06-07 00:00:00,20,1014.5,-0.4,88,18,12000,3.704,,,170,,,,5,,,,,,21,wg-a,,,,AAXX 07004 07650 02462 71702 10200 20180 30108 40145 58004 60066 72162 8457/ 90000 333 60057=
07650,1998-06-07 03:00:00,19,1013.8,-0.7,94,18,12000,11.112,,,170,,,,1,,,,,,61,wg-a,,,,AAXX 07034 07650 12462 81706 10190 20180 30101 40138 56007 60017 76162 8587/ 90300=
07650,1998-06-07 06:00:00,19,1014.7,0.8,94,18,10000,3.704,,,170,18.6,22.9,,,,,,,,10,wg-a,,,,AAXX 07064 07650 02260 /1702 10190 20180 30109 40147 52008 61000 71062 85831 90600 333 10229 20186 6017=
07650,1998-06-07 09:00:00,22,1015.3,0.7,78,18,17000,11.112,,,270,,,,,,,,,,,wg-a,,,,AAXX 07094 07650 12467 42706 10220 20180 30116 40153 51007 60006 83201 90900=
07650,1998-06-07 12:00:00,25,1015.2,-0.1,65,18,20000,25.928,,,310,,,,,,,,,,,wg-a,,,,AAXX 07124 07650 12470 73114 10250 20180 30115 40152 56001 60006 83232 91200=
07650,1998-06-07 15:00:00,27,1014.8,-0.4,51,16,11000,22.224,,,330,,,,,,,,,,,wg-a,,,,AAXX 07154 07650 12/61 /3312 10270 20160 30111 40148 58004 60006 91500=
07650,1998-06-07 18:00:00,25,1015.2,0.4,50,14,500,25.928,,,310,18.6,27.2,,,,,,,,,wg-a,,,,AAXX 07184 07650 12600 /3114 10250 20140 30115 40152 53004 60006 81800 91800 333 10272 20186=
07650,1998-06-07 21:00:00,22,1016.9,1.7,50,11,500,35.188,,,310,,,,,,,,,,,wg-a,,,,AAXX 07214 07650 12700 13119 10220 20110 30132 40169 53017 60006 81500 92100=
07650,1998-06-08 00:00:00,19,1017.5,0.5,64,12,500,35.188,,,320,,,,,,,,,,,wg-a,,,,AAXX 08004 07650 12/00 03219 10190 20120 30137 40175 51005 60006 80000 90000=
07650,1998-06-08 03:00:00,17,1017.1,-0.4,72,12,40000,35.188,,,320,,,,,,,,,,,wg-a,,,,AAXX 08034 07650 12/82 23219 10170 20120 30133 40171 56004 60006 81041 90300=
07650,1998-06-08 06:00:00,18,1017.6,0.5,68,12,40000,31.484,,,340,16.2,25.2,,,,,,,,,wg-a,,,,AAXX 08064 07650 02682 73417 10180 20120 30138 40176 53005 60006 81542 90600 333 10252 20162 60004=
07650,1998-06-08 09:00:00,22,1017.7,0.2,53,12,50000,29.632,,,340,,,,,,,,,,,wg-a,,,,AAXX 08094 07650 12/84 13416 10220 20120 30140 40177 51002 60006 80002 90900=
07650,1998-06-08 12:00:00,24,1017.9,0.2,44,11,50000,35.188,,,320,,,,,,,,,,,wg-a,,,,AAXX 08124 07650 12/84 13219 10240 20110 30142 40179 50002 60006 80002 91200=
07650,1998-06-08 15:00:00,25,1017.1,-0.8,36,9,50000,35.188,,,340,,,,,,,,,,,wg-a,,,,AAXX 08154 07650 12/84 23419 10250 20090 30134 40171 58008 60006 80002 91500=
07650,1998-06-08 18:00:00,25,1016.8,-0.3,41,11,50000,18.52,,,340,17.9,25.8,,,,,,,,,wg-a,,,,AAXX 08184 07650 12/84 53410 10250 20110 30131 40168 55003 60006 81032 91800 333 10258 20179=
07650,1998-06-08 21:00:00,21,1017.8,1,53,11,40000,22.224,,,310,,,,,,,,,,,wg-a,,,,AAXX 08214 07650 12/82 13112 10210 20110 30141 40178 53010 60006 81042 92100=
07650,1998-06-09 03:00:00,18,1017,-0.7,64,11,25000,22.224,,,340,,,,,,,,,,,wg-a,,,,AAXX 09034 07650 12675 53412 10180 20110 30132 40170 58007 60006 81532 90300=
07650,1998-06-09 06:00:00,19,1016.8,-0.2,60,11,500,7.408,,,20,17.2,24.6,,,,,,,,,wg-a,,,,AAXX 09064 07650 02/00 40204 10190 20110 30130 40168 56002 60006 81032 90600 333 10246 20172 60004=
07650,1998-06-09 09:00:00,23,1017,0.3,50,12,500,18.52,,,350,,,,,,,,,,,wg-a,,,,AAXX 09094 07650 12/00 43510 10230 20120 30133 40170 50003 60006 81042 90900=
07650,1998-06-09 12:00:00,27,1015.4,-1.6,39,12,500,14.816,,,260,,,,,,,,,,,wg-a,,,,AAXX 09124 07650 12/00 62608 10270 20120 30117 40154 58016 60006 81042 91200=
07650,1998-06-09 15:00:00,26,1014.1,-1.3,51,15,500,25.928,,,250,,,,,,,,,,,wg-a,,,,AAXX 09154 07650 12/00 32514 10260 20150 30104 40141 56013 60006 80002 91500=
07650,1998-06-09 18:00:00,24,1013.7,-0.4,50,13,500,14.816,,,190,18.7,28.2,,,,,,,,,wg-a,,,,AAXX 09184 07650 12/00 11908 10240 20130 30100 40137 57004 60006 81030 91800 333 10282 20187=
07650,1998-06-09 21:00:00,21,1014.2,0.5,60,13,500,3.704,,,180,,,,,,,,,,,wg-a,,,,AAXX 09214 07650 12/00 11802 10210 20130 30105 40142 53005 60006 81031 92100=
07650,1998-06-10 00:00:00,19,1013.2,-1.1,64,12,20000,3.704,,,100,,,,,,,,,,,wg-a,,,,AAXX 10004 07650 12/70 01002 10190 20120 30094 40132 58011 60006 80000 90000=
07650,1998-06-10 03:00:00,19,1011.7,-1.5,64,12,20000,0,,,0,,,,,,,,,,,wg-a,,,,AAXX 10034 07650 12/70 50000 10190 20120 30079 40117 56015 60006 81032 90300=
07650,1998-06-10 06:00:00,21,1011.2,-0.4,60,13,20000,7.408,,,170,18.4,24,,,,,,,,,wg-a,,,,AAXX 10064 07650 02/70 51704 10210 20130 30075 40112 57004 60006 80002 90600 333 10240 20184 60004=
07650,1998-06-10 09:00:00,23,1010.8,-0.4,73,18,20000,18.52,,,230,,,,,,,,,,,wg-a,,,,AAXX 10094 07650 12570 /2310 10230 20180 30071 40108 58004 60006 81502 90900=
07650,1998-06-10 12:00:00,23,1010.2,-0.6,69,17,15000,18.52,,,210,,,,,,,,,,,wg-a,,,,AAXX 10124 07650 12565 /2110 10230 20170 30065 40102 56006 60006 81242 91200=
07650,1998-06-10 15:00:00,23,1009.1,-1.1,73,18,15000,7.408,,,270,,,,0,,,,,,95,wg-a,,,,AAXX 10154 07650 12565 72704 10230 20180 30054 40091 57011 60007 79596 81942 91500=
07650,1998-06-10 18:00:00,19,1009.3,0.2,94,18,10000,29.632,,,350,19.2,24.9,,,,,,,,60,wg-a,,,,AAXX 10184 07650 02360 73516 10190 20180 30056 40093 50002 61000 76096 8427/ 91800 333 10249 20192 6001=
07650,1998-06-10 21:00:00,19,1010.2,0.9,88,17,15000,11.112,,,340,,,,0,,,,,,3,wg-a,,,,AAXX 10214 07650 12365 73406 10190 20170 30065 40102 51009 60007 70362 85830 92100=
07650,1998-06-11 00:00:00,17,1009.6,-0.7,77,13,20000,18.52,,,340,,,,,,,,,,1,wg-a,,,,AAXX 11004 07650 12670 43410 10170 20130 30058 40096 56007 60006 70161 81530 90000=
07650,1998-06-11 03:00:00,16,1008.9,-0.7,77,12,25000,22.224,,,340,,,,,,,,,,,wg-a,,,,AAXX 11034 07650 12775 13412 10160 20120 30051 40089 56007 60006 81530 90300=
07650,1998-06-11 06:00:00,17,1008.9,-0,68,11,40000,42.596,,,310,15.1,19.3,,,,,1,,,,wg-a,,,,AAXX 11064 07650 02782 13123 10170 20110 30051 40089 54000 60006 81540 90600 333 10193 20151 60014=
07650,1998-06-11 09:00:00,20,1008.6,-0.2,53,10,40000,35.188,,,320,,,,,,,,,,,wg-a,,,,AAXX 11094 07650 12582 23219 10200 20100 30049 40086 57002 60006 82200 90900=
07650,1998-06-11 12:00:00,22,1008.4,-0.2,41,8,40000,38.892,,,300,,,,,,,,,,,wg-a,,,,AAXX 11124 07650 12582 33021 10220 20080 30047 40084 58002 60006 83800 91200=
07650,1998-06-11 15:00:00,22,1008,-0.4,38,7,40000,46.3,,,310,,,,,,,,,,,wg-a,,,,AAXX 11154 07650 12582 33125 10220 20070 30043 40080 57004 60006 83800 91500=
07650,1998-06-11 18:00:00,19,1009.2,1.2,43,6,40000,50.004,,79.636,330,17,23.2,,,,,,,,,wg-a,,,,AAXX 11184 07650 12582 33327 10190 20060 30055 40092 53012 60006 83802 91800 333 10232 20170 91043=
07650,1998-06-11 21:00:00,16,1010.9,1.6,48,5,40000,57.412,,,330,,,,,,,,,,,wg-a,,,,AAXX 11214 07650 12682 /3331 10160 20050 30071 40109 53016 60006 81501 92100=
07650,1998-06-12 00:00:00,14,1012.2,1.3,55,5,40000,53.708,,,320,,,,,,,,,,,wg-a,,,,AAXX 12004 07650 12682 /3229 10140 20050 30084 40122 51013 60006 81501 90000=
07650,1998-06-12 03:00:00,13,1012.2,0,58,5,40000,50.004,,,330,,,,,,,,,,,wg-a,,,,AAXX 12034 07650 12/82 13327 10130 20050 30084 40122 50000 60006 81040 90300=
07650,1998-06-12 06:00:00,13,1013.5,1.3,62,6,40000,42.596,,,330,12.7,19.2,,,,,,,,,wg-a,,,,AAXX 12064 07650 02582 63323 10130 20060 30097 40135 51013 60006 81130 90600 333 10192 20127 60004=
07650,1998-06-12 09:00:00,17,1014.2,0.7,52,7,60000,46.3,,,350,,,,,,,,,,,wg-a,,,,AAXX 12094 07650 12586 53525 10170 20070 30104 40142 52007 60006 84242 90900=
07650,1998-06-12 12:00:00,18,1015.4,1.2,49,7,60000,53.708,,,360,,,,,,,,,,,wg-a,,,,AAXX 12124 07650 12686 /3629 10180 20070 30116 40154 53012 60006 85242 91200=
07650,1998-06-12 15:00:00,18,1015.6,0.2,49,7,60000,61.116,,88.896,340,,,,,,,,,,,wg-a,,,,AAXX 12154 07650 12686 /3433 10180 20070 30118 40156 50002 60006 81200 91500 333 91048=
07650,1998-06-12 18:00:00,18,1016.4,0.8,39,4,60000,64.82,,92.6,350,13.4,18.8,,,,,,,,,wg-a,,,,AAXX 12184 07650 12686 /3535 10180 20040 30126 40164 51008 60006 81800 91800 333 10188 20134 91050=
07650,1998-06-12 21:00:00,15,1017.7,1.3,55,6,40000,53.708,,,340,,,,,,,,,,,wg-a,,,,AAXX 12214 07650 12/82 13429 10150 20060 30139 40177 50013 60006 81040 92100=
07650,1998-06-13 00:00:00,14,1017.1,-0.6,58,6,40000,53.708,,,340,,,,,,,,,,,wg-a,,,,AAXX 13004 07650 12/82 13429 10140 20060 30133 40171 58006 60006 81040 90000=
07650,1998-06-13 03:00:00,13,1016.9,-0.3,62,6,40000,38.892,,,330,,,,,,,,,,,wg-a,,,,AAXX 13034 07650 12/82 13321 10130 20060 30130 40169 58003 60006 81040 90300=
07650,1998-06-13 06:00:00,15,1017.4,0.6,55,6,75000,31.484,,55.56,350,13.2,17.7,,,,,,,,,wg-a,,,,AAXX 13064 07650 02/89 03517 10150 20060 30136 40174 53006 60006 80000 90600 333 10177 20132 60004 91030=
07650,1998-06-13 12:00:00,22,1015.9,-0.6,38,7,50000,31.484,,,340,,,,,,,,,,,wg-a,,,,AAXX 13124 07650 12/84 13417 10220 20070 30122 40159 58006 60006 81032 91200=
07650,1998-06-13 15:00:00,22,1014.9,-1,43,9,50000,25.928,,,270,,,,,,,,,,,wg-a,,,,AAXX 13154 07650 12/84 62714 10220 20090 30112 40149 56010 60006 82042 91500=
07650,1998-06-13 18:00:00,20,1015.2,0.2,49,9,50000,31.484,,,280,15,23.4,,,,,,,,,wg-a,,,,AAXX 13184 07650 12784 22817 10200 20090 30114 40152 53002 60006 81542 91800 333 10234 20150=
07650,1998-06-13 21:00:00,18,1015.6,0.4,68,12,500,18.52,,,310,,,,,,,,,,,wg-a,,,,AAXX 13214 07650 12/00 03110 10180 20120 30118 40156 53004 60006 80000 92100=
07650,1998-06-14 00:00:00,16,1015.8,0.2,68,10,25000,11.112,,,360,,,,,,,,,,,wg-a,,,,AAXX 14004 07650 12775 23606 10160 20100 30120 40158 50002 60006 81532 90000=
07650,1998-06-14 03:00:00,16,1015.5,-0.3,68,10,25000,7.408,,,350,,,,,,,,,,,wg-a,,,,AAXX 14034 07650 12675 53504 10160 20100 30117 40155 58003 60006 83530 90300=
07650,1998-06-14 06:00:00,17,1015.4,-0.1,72,12,40000,11.112,,,350,14.4,20.4,,,,,,,,,wg-a,,,,AAXX 14064 07650 02782 23506 10170 20120 30116 40154 58001 60006 81541 90600 333 10204 20144 60004=
07650,1998-06-14 09:00:00,21,1015.1,-0.2,53,11,40000,18.52,,,320,,,,,,,,,,,wg-a,,,,AAXX 14094 07650 12582 23210 10210 20110 30114 40151 58002 60006 81131 90900=
07650,1998-06-14 12:00:00,24,1014.4,-0.7,41,10,40000,14.816,,,290,,,,,,,,,,,wg-a,,,,AAXX 14124 07650 12682 42908 10240 20100 30107 40144 58007 60006 83131 91200=
07650,1998-06-14 15:00:00,22,1014.6,0.2,53,12,40000,35.188,,,260,,,,,,,,,,,wg-a,,,,AAXX 14154 07650 12682 72619 10220 20120 30109 40146 52002 60006 83131 91500=
07650,1998-06-14 18:00:00,20,1014.6,-0.1,64,13,40000,31.484,,,260,17.4,24.3,,,,,,,,,wg-a,,,,AAXX 14184 07650 12682 52617 10200 20130 30108 40146 55001 60006 82532 91800 333 10243 20174=
07650,1998-06-15 00:00:00,18,1016,0.5,64,11,500,22.224,,,310,,,,,,,,,,,wg-a,,,,AAXX 15004 07650 12600 /3112 10180 20110 30122 40160 51005 60006 81532 90000=
07650,1998-06-15 03:00:00,17,1015.4,-0.6,68,11,500,14.816,,,330,,,,,,,,,,,wg-a,,,,AAXX 15034 07650 12600 73308 10170 20110 30116 40154 56006 60006 8713/ 90300=
07650,1998-06-15 06:00:00,17,1015.8,0.4,68,11,40000,18.52,,,330,16.4,20,,,,,,,,,wg-a,,,,AAXX 15064 07650 02582 /3310 10170 20110 30120 40158 51004 60006 81542 90600 333 10200 20164 60004=
07650,1998-06-15 09:00:00,21,1015.8,0,46,9,40000,25.928,,,300,,,,,,,,,,,wg-a,,,,AAXX 15094 07650 12582 23014 10210 20090 30120 40158 50000 60006 81202 90900=
07650,1998-06-15 12:00:00,22,1015.8,0.1,41,8,40000,14.816,,,300,,,,,,,,,,,wg-a,,,,AAXX 15124 07650 12582 23008 10220 20080 30121 40158 50001 60006 82102 91200=
07650,1998-06-15 15:00:00,23,1014.9,-0.9,44,10,40000,31.484,,,260,,,,,,,,,,,wg-a,,,,AAXX 15154 07650 12582 32617 10230 20100 30112 40149 58009 60006 81102 91500=
07650,1998-06-15 18:00:00,22,1015,0.1,50,11,40000,31.484,,,270,16.8,23.5,,,,,,,,,wg-a,,,,AAXX 15184 07650 12582 /2717 10220 20110 30113 40150 53001 60006 81102 91800 333 10235 20168=
07650,1998-06-15 21:00:00,20,1017.1,2,53,10,500,31.484,,,300,,,,,,,,,,,wg-a,,,,AAXX 15214 07650 12500 43017 10200 20100 30133 40171 53020 60006 81102 92100=
07650,1998-06-16 00:00:00,17,1018.1,1,59,9,500,22.224,,,330,,,,,,,,,,,wg-a,,,,AAXX 16004 07650 12/00 23312 10170 20090 30143 40181 52010 60006 80002 90000=
07650,1998-06-16 03:00:00,15,1018.2,0.1,72,10,500,25.928,,,330,,,,,,,,,,,wg-a,,,,AAXX 16034 07650 12/00 03314 10150 20100 30144 40182 53001 60006 80000 90300=
07650,1998-06-16 06:00:00,16,1019.1,0.9,63,9,75000,22.224,,,330,14.5,21.8,,,,,,,,,wg-a,,,,AAXX 16064 07650 02/89 03312 10160 20090 30153 40191 51009 60006 80000 90600 333 10218 20145 60004=
07650,1998-06-16 09:00:00,21,1019.5,0.4,46,9,11000,35.188,,,350,,,,,,,,,,,wg-a,,,,AAXX 16094 07650 12/61 /3519 10210 20090 30157 40195 50004 60006 90900=
07650,1998-06-16 12:00:00,23,1020,0.6,41,9,75000,38.892,,,330,,,,,,,,,,,wg-a,,,,AAXX 16124 07650 12689 23321 10230 20090 30163 40200 51006 60006 81101 91200=
07650,1998-06-16 15:00:00,24,1019.6,-0.4,34,7,75000,42.596,,53.708,340,,,,,,,,,,,wg-a,,,,AAXX 16154 07650 12689 23423 10240 20070 30159 40196 56004 60006 81102 91500 333 91029=
07650,1998-06-16 18:00:00,22,1020.2,0.5,33,5,75000,35.188,,,340,16,24.1,,,,,,,,,wg-a,,,,AAXX 16184 07650 12/89 13419 10220 20050 30164 40202 53005 60006 80002 91800 333 10241 20160=
07650,1998-06-16 21:00:00,19,1021.8,1.6,40,5,50000,31.484,,,350,,,,,,,,,,,wg-a,,,,AAXX 16214 07650 12/84 03517 10190 20050 30180 40218 53016 60006 80000 92100=
07650,1998-06-17 00:00:00,18,1022.1,0.3,39,4,500,22.224,,,340,,,,,,,,,,,wg-a,,,,AAXX 17004 07650 12/00 03412 10180 20040 30183 40221 51003 60006 80000 90000=
07650,1998-06-17 03:00:00,15,1022.1,-0,55,6,500,29.632,,,340,,,,,,,,,,,wg-a,,,,AAXX 17034 07650 12/00 03416 10150 20060 30183 40221 55000 60006 80000 90300=
07650,1998-06-17 06:00:00,17,1022.7,0.6,52,7,500,38.892,,,350,15,22.2,,,,,,,,,wg-a,,,,AAXX 17064 07650 02/00 33521 10170 20070 30189 40227 53006 60006 80002 90600 333 10222 20150 60004=
07650,1998-06-17 09:00:00,21,1023.2,0.5,38,6,500,29.632,,,350,,,,,,,,,,,wg-a,,,,AAXX 17094 07650 12/00 43516 10210 20060 30194 40232 51005 60006 80002 90900=
07650,1998-06-17 12:00:00,25,1022.7,-0.4,30,6,500,25.928,,,330,,,,,,,,,,,wg-a,,,,AAXX 17124 07650 12/00 43314 10250 20060 30190 40227 58004 60006 80002 91200=
07650,1998-06-17 15:00:00,26,1022.3,-0.4,32,8,500,29.632,,,330,,,,,,,,,,,wg-a,,,,AAXX 17154 07650 12/00 43316 10260 20080 30186 40223 58004 60006 80002 91500=
07650,1998-06-17 18:00:00,24,1022.2,-0.1,36,8,500,22.224,,,340,17,26.3,,,,,,,,,wg-a,,,,AAXX 17184 07650 12/00 33412 10240 20080 30185 40222 55001 60006 80002 91800 333 10263 20170=
07650,1998-06-17 21:00:00,21,1023.2,0.9,46,9,500,25.928,,,300,,,,,,,,,,,wg-a,,,,AAXX 17214 07650 12/00 23014 10210 20090 30194 40232 53009 60006 81041 92100=
07650,1998-06-18 00:00:00,19,1023.3,0.1,46,7,500,25.928,,,330,,,,,,,,,,,wg-a,,,,AAXX 18004 07650 12/00 03314 10190 20070 30195 40233 50001 60006 80000 90000=
07650,1998-06-18 03:00:00,15,1023.1,-0.3,59,7,500,7.408,,,340,,,,,,,,,,,wg-a,,,,AAXX 18034 07650 12/00 03404 10150 20070 30192 40231 56003 60006 80000 90300=
07650,1998-06-18 06:00:00,15,1023.6,0.5,63,8,40000,7.408,,,30,13.4,24.1,,,,,,,,,wg-a,,,,AAXX 18064 07650 02/82 30304 10150 20080 30197 40236 53005 60006 81032 90600 333 10241 20134 60004=
07650,1998-06-18 09:00:00,22,1024,0.5,46,10,75000,18.52,,,290,,,,,,,,,,,wg-a,,,,AAXX 18094 07650 12589 22910 10220 20100 30202 40240 50005 60006 81102 90900=
07650,1998-06-18 12:00:00,26,1023.7,-0.2,34,9,75000,18.52,,,280,,,,,,,,,,,wg-a,,,,AAXX 18124 07650 12589 /2810 10260 20090 30200 40237 58002 60006 81102 91200=
07650,1998-06-18 15:00:00,27,1022.7,-1,39,12,75000,25.928,,,260,,,,,,,,,,,wg-a,,,,AAXX 18154 07650 12589 /2614 10270 20120 30190 40227 58010 60006 81202 91500=
07650,1998-06-18 18:00:00,24,1021.9,-0.8,47,12,40000,25.928,,,280,15.3,28.3,,,,,,,,,wg-a,,,,AAXX 18184 07650 12/82 52814 10240 20120 30182 40219 55008 60006 80002 91800 333 10283 20153=
07650,1998-06-18 21:00:00,20,1023.4,1.4,60,12,40000,11.112,,,300,,,,,,,,,,,wg-a,,,,AAXX 18214 07650 12/82 53006 10200 20120 30196 40234 51014 60006 80002 92100=
07650,1998-06-19 00:00:00,18,1022.5,-0.9,68,12,40000,3.704,,,310,,,,,,,,,,,wg-a,,,,AAXX 19004 07650 12/82 33102 10180 20120 30187 40225 58009 60006 80002 90000=
07650,1998-06-19 03:00:00,16,1021.9,-0.6,68,10,500,7.408,,,140,,,,,,,,,,,wg-a,,,,AAXX 19034 07650 12/00 01404 10160 20100 30181 40219 55006 60006 80000 90300=
07650,1998-06-19 06:00:00,18,1022.4,0.5,64,11,60000,3.704,,,200,14.3,24.3,,,,,,,,,wg-a,,,,AAXX 19064 07650 02/86 12002 10180 20110 30186 40224 53005 60006 80002 90600 333 10243 20143 60004=
07650,1998-06-19 09:00:00,24,1022.6,0.3,50,13,40000,14.816,,,260,,,,,,,,,,,wg-a,,,,AAXX 19094 07650 12/82 12608 10240 20130 30189 40226 53003 60006 80002 90900=
07650,1998-06-19 12:00:00,26,1022.4,-0.2,48,14,20000,22.224,,,220,,,,,,,,,,,wg-a,,,,AAXX 19124 07650 12/70 12212 10260 20140 30187 40224 58002 60006 80002 91200=
07650,1998-06-19 15:00:00,26,1021.5,-0.9,42,12,20000,22.224,,,220,,,,,,,,,,,wg-a,,,,AAXX 19154 07650 12/70 12212 10260 20120 30178 40215 58009 60006 80002 91500=
07650,1998-06-19 18:00:00,23,1021.4,-0.1,61,15,20000,18.52,,,230,18.4,26.9,,,,,,,,,wg-a,,,,AAXX 19184 07650 12/70 12310 10230 20150 30177 40214 55001 60006 80002 91800 333 10269 20184=
07650,1998-06-19 21:00:00,19,1022.6,1.1,78,15,20000,0,,,0,,,,,,,,,,,wg-a,,,,AAXX 19214 07650 12/70 20000 10190 20150 30188 40226 53011 60006 80001 92100=
07650,1998-06-20 00:00:00,18,1022.5,-0.1,73,13,20000,7.408,,,150,,,,,,,,,,,wg-a,,,,AAXX 20004 07650 12/70 01504 10180 20130 30187 40225 58001 60006 80000 90000=
07650,1998-06-20 03:00:00,17,1022.6,0.1,72,12,20000,11.112,,,160,,,,,,,,,,,wg-a,,,,AAXX 20034 07650 12/70 11606 10170 20120 30188 40226 53001 60006 80002 90300=
07650,1998-06-20 06:00:00,20,1023.5,0.9,60,12,20000,3.704,,,110,16.3,22.9,,,,,,,,,wg-a,,,,AAXX 20064 07650 02/70 21102 10200 20120 30197 40235 53009 60006 80002 90600 333 10229 20163 60004=
07650,1998-06-20 09:00:00,25,1024.3,0.9,50,14,20000,14.816,,,290,,,,,,,,,,,wg-a,,,,AAXX 20094 07650 12/70 32908 10250 20140 30206 40243 51009 60006 80001 90900=
07650,1998-06-20 12:00:00,29,1024.3,0,27,8,40000,25.928,,,230,,,,,,,,,,,wg-a,,,,AAXX 20124 07650 12/82 22314 10290 20080 30206 40243 50000 60006 80001 91200=
07650,1998-06-20 15:00:00,27,1024,-0.3,30,8,50000,22.224,,,230,,,,,,,,,,,wg-a,,,,AAXX 20154 07650 12/84 12312 10270 20080 30203 40240 57003 60006 80001 91500=
07650,1998-06-20 18:00:00,25,1024.4,0.4,39,10,50000,11.112,,,230,20,28.7,,,,,,,,,wg-a,,,,AAXX 20184 07650 12/84 12306 10250 20100 30207 40244 53004 60006 80001 91800 333 10287 20200=
07650,1998-06-20 21:00:00,20,1025.2,0.7,53,10,40000,7.408,,,160,,,,,,,,,,,wg-a,,,,AAXX 20214 07650 12/82 01604 10200 20100 30214 40252 51007 60006 80000 92100=
07650,1998-06-21 00:00:00,17,1025.3,0.1,52,7,10000,3.704,,,150,,,,,,,,,,,wg-a,,,,AAXX 21004 07650 12/60 /1502 10170 20070 30215 40253 50001 60006 90000=
07650,1998-06-21 03:00:00,16,1024.4,-0.9,63,9,500,3.704,,,130,,,,,,,,,,,wg-a,,,,AAXX 21034 07650 12/00 01302 10160 20090 30206 40244 58009 60006 80000 90300=
07650,1998-06-21 06:00:00,20,1024.8,0.4,60,12,40000,0,,,0,15.1,24.5,,,,,,,,,wg-a,,,,AAXX 21064 07650 02/82 00000 10200 20120 30210 40248 51004 60006 80000 90600 333 10245 20151 60004=
07650,1998-06-21 09:00:00,26,1025,0.3,42,12,40000,7.408,,,310,,,,,,,,,,,wg-a,,,,AAXX 21094 07650 12/82 03104 10260 20120 30213 40250 50003 60006 80000 90900=
07650,1998-06-21 12:00:00,28,1025,0,30,9,50000,11.112,,,290,,,,,,,,,,,wg-a,,,,AAXX 21124 07650 12/84 02906 10280 20090 30213 40250 50000 60006 80000 91200=
07650,1998-06-21 15:00:00,29,1024.3,-0.7,23,6,50000,14.816,,,230,,,,,,,,,,,wg-a,,,,AAXX 21154 07650 12/84 02308 10290 20060 30206 40243 56007 60006 80000 91500=
07650,1998-06-21 18:00:00,27,1024,-0.3,34,10,50000,11.112,,,220,19.9,29.2,,,,,,,,,wg-a,,,,AAXX 21184 07650 12/84 02206 10270 20100 30203 40240 55003 60006 80000 91800 333 10292 20199=
07650,1998-06-21 21:00:00,22,1025.2,1.1,38,7,40000,7.408,,,160,,,,,,,,,,,wg-a,,,,AAXX 21214 07650 12/82 21604 10220 20070 30214 40252 53011 60006 81082 92100=
07650,1998-06-22 00:00:00,20,1024.6,-0.6,53,10,500,7.408,,,340,,,,,,,,,,,wg-a,,,,AAXX 22004 07650 12/00 43404 10200 20100 30208 40246 55006 60006 83032 90000=
07650,1998-06-22 03:00:00,18,1022.8,-1.8,59,10,500,7.408,,,150,,,,,,,,,,,wg-a,,,,AAXX 22034 07650 12/00 11504 10180 20100 30190 40228 58018 60006 81030 90300=
07650,1998-06-22 06:00:00,21,1022.5,-0.3,53,11,20000,3.704,,,200,17.1,26.8,,,,,,,,,wg-a,,,,AAXX 22064 07650 02670 32002 10210 20110 30187 40225 56003 60006 81502 90600 333 10268 20171 60004=
07650,1998-06-22 09:00:00,25,1022.1,-0.3,39,10,500,7.408,,,280,,,,,,,,,,,wg-a,,,,AAXX 22094 07650 12/00 32804 10250 20100 30184 40221 58003 60006 80001 90900=
07650,1998-06-22 12:00:00,28,1020.9,-1.2,37,12,500,18.52,,,270,,,,,,,,,,,wg-a,,,,AAXX 22124 07650 12/00 52710 10280 20120 30172 40209 58012 60006 80002 91200=
07650,1998-06-22 15:00:00,29,1019.5,-1.4,45,16,10000,25.928,,,280,,,,,,,,,,,wg-a,,,,AAXX 22154 07650 12/60 /2814 10290 20160 30158 40195 56014 60006 91500=
07650,1998-06-22 18:00:00,27,1018.8,-0.7,58,18,18000,18.52,,,250,20.4,30.3,,,,,,,,,wg-a,,,,AAXX 22184 07650 12/68 42510 10270 20180 30151 40188 56007 60006 83082 91800 333 10303 20204=
07650,1998-06-22 21:00:00,25,1019.1,0.3,65,18,10000,3.704,,,220,,,,,,,,,,80,wg-a,,,,AAXX 22214 07650 02560 /2202 10250 20180 30154 40191 51003 61000 78096 84980 92100 333 ////=
07650,1998-06-23 00:00:00,22,1018.7,-0.4,83,19,15000,11.112,,,330,,,,0,,,,,,1,wg-a,,,,AAXX 23004 07650 02665 43306 10220 20190 30150 40187 57004 60006 70196 81230 90000 333 60007=
07650,1998-06-23 03:00:00,22,1017.5,-1.2,69,16,12000,18.52,,,340,,,,,,,,,,,wg-a,,,,AAXX 23034 07650 12/62 23410 10220 20160 30138 40175 56012 60006 81032 90300=
07650,1998-06-23 06:00:00,22,1018,0.5,69,16,15000,14.816,,,330,20.4,27.3,,,,,,,,,wg-a,,,,AAXX 23064 07650 02/65 23308 10220 20160 30143 40180 51005 60006 81032 90600 333 10273 20204 60004=
07650,1998-06-23 09:00:00,26,1017.3,-0.7,51,15,15000,29.632,,,350,,,,,,,,,,,wg-a,,,,AAXX 23094 07650 12/65 13516 10260 20150 30136 40173 58007 60006 80002 90900=
07650,1998-06-23 12:00:00,30,1016.1,-1.1,35,13,20000,31.484,,,330,,,,,,,,,,,wg-a,,,,AAXX 23124 07650 12/70 13317 10300 20130 30125 40161 56011 60006 80002 91200=
07650,1998-06-23 15:00:00,30,1015.2,-0.9,35,13,20000,35.188,,,340,,,,,,,,,,,wg-a,,,,AAXX 23154 07650 12/70 13419 10300 20130 30116 40152 56009 60006 80002 91500=
07650,1998-06-23 18:00:00,28,1014.3,-1,40,13,20000,29.632,,,340,22,30.5,,,,,,,,,wg-a,,,,AAXX 23184 07650 12/70 13416 10280 20130 30106 40143 56010 60006 80002 91800 333 10305 20220=
07650,1998-06-23 21:00:00,24,1014.6,0.3,47,12,20000,22.224,,,340,,,,,,,,,,,wg-a,,,,AAXX 23214 07650 12/70 03412 10240 20120 30109 40146 53003 60006 80000 92100=
07650,1998-06-24 00:00:00,22,1014.2,-0.4,46,10,20000,14.816,,,360,,,,,,,,,,,wg-a,,,,AAXX 24004 07650 12/70 03608 10220 20100 30105 40142 56004 60006 80000 90000=
07650,1998-06-24 03:00:00,19,1013.8,-0.5,68,13,20000,7.408,,,140,,,,,,,,,,,wg-a,,,,AAXX 24034 07650 12/70 21404 10190 20130 30100 40138 58005 60006 80002 90300=
07650,1998-06-24 06:00:00,21,1014.3,0.6,73,16,12000,3.704,,,160,17.5,28.3,,,,,,,,,wg-a,,,,AAXX 24064 07650 02462 /1602 10210 20160 30106 40143 53006 60006 81532 90600 333 10283 20175 60004=
07650,1998-06-24 09:00:00,25,1014.3,0,61,17,11000,11.112,,,230,,,,,,,,,,,wg-a,,,,AAXX 24094 07650 12561 /2306 10250 20170 30106 40143 50000 60006 81202 90900=
07650,1998-06-24 12:00:00,26,1013.6,-0.7,61,18,10000,18.52,,,230,,,,,,,,,,,wg-a,,,,AAXX 24124 07650 12560 22310 10260 20180 30099 40136 58007 60006 81202 91200=
07650,1998-06-24 15:00:00,26,1012.9,-0.7,51,15,13000,18.52,,,220,,,,,,,,,,,wg-a,,,,AAXX 24154 07650 12/63 52210 10260 20150 30092 40129 58007 60006 80002 91500=
07650,1998-06-24 18:00:00,26,1012.4,-0.5,48,14,14000,14.816,,,270,20,26.9,,,,,,,,,wg-a,,,,AAXX 24184 07650 12/64 62708 10260 20140 30087 40124 56005 60006 80002 91800 333 10269 20200=
07650,1998-06-24 21:00:00,21,1013.5,1.1,69,15,20000,7.408,,,160,,,,,,,,,,,wg-a,,,,AAXX 24214 07650 12/70 21604 10210 20150 30098 40135 52011 60006 80002 92100=
07650,1998-06-25 00:00:00,20,1013.5,-0,73,15,20000,11.112,,,160,,,,,,,,,,,wg-a,,,,AAXX 25004 07650 12/70 01606 10200 20150 30098 40135 55000 60006 80000 90000=
07650,1998-06-25 03:00:00,19,1013.1,-0.5,68,13,20000,3.704,,,120,,,,,,,,,,,wg-a,,,,AAXX 25034 07650 12/70 01202 10190 20130 30093 40131 55005 60006 80000 90300=
07650,1998-06-25 06:00:00,22,1013.7,0.7,57,13,15000,7.408,,,80,17.9,26,,,,,,,,,wg-a,,,,AAXX 25064 07650 02/65 10804 10220 20130 30100 40137 51007 60006 80002 90600 333 10260 20179 60004=
07650,1998-06-25 09:00:00,27,1013.5,-0.2,42,13,15000,14.816,,,290,,,,,,,,,,,wg-a,,,,AAXX 25094 07650 12/65 12908 10270 20130 30098 40135 58002 60006 80002 90900=
07650,1998-06-25 12:00:00,29,1013.5,0.1,43,15,500,14.816,,,240,,,,,,,,,,,wg-a,,,,AAXX 25124 07650 12/00 32408 10290 20150 30099 40135 50001 60006 80002 91200=
07650,1998-06-25 15:00:00,27,1013.1,-0.5,54,17,500,14.816,,,220,,,,,,,,,,,wg-a,,,,AAXX 25154 07650 12/00 32208 10270 20170 30094 40131 56005 60006 80002 91500=
07650,1998-06-25 18:00:00,25,1013.1,-0,65,18,500,18.52,,,220,21.4,29.4,,,,,,,,,wg-a,,,,AAXX 25184 07650 12/00 02210 10250 20180 30094 40131 55000 60006 80000 91800 333 10294 20214=
07650,1998-06-25 21:00:00,22,1014.4,1.3,78,18,12000,7.408,,,180,,,,,,,,,,,wg-a,,,,AAXX 25214 07650 12/62 31804 10220 20180 30107 40144 51013 60006 81082 92100=
07650,1998-06-26 00:00:00,20,1014.3,-0.1,78,16,12000,7.408,,,150,,,,,,,,,,,wg-a,,,,AAXX 26004 07650 12/62 01504 10200 20160 30106 40143 58001 60006 80000 90000=
07650,1998-06-26 03:00:00,19,1013.8,-0.6,83,16,15000,7.408,,,170,,,,,,,,,,,wg-a,,,,AAXX 26034 07650 12/65 31704 10190 20160 30100 40138 56006 60006 80002 90300=
07650,1998-06-26 06:00:00,22,1014.4,0.7,73,17,9000,11.112,,,130,18.5,25.1,,,,,,,,,wg-a,,,,AAXX 26064 07650 02/59 /1306 10220 20170 30107 40144 50007 60006 81082 90600 333 10251 20185 60004=
07650,1998-06-26 09:00:00,27,1015.3,0.9,54,17,12000,7.408,,,300,,,,,,,,,,,wg-a,,,,AAXX 26094 07650 12/62 43004 10270 20170 30116 40153 51009 60006 80001 90900=
07650,1998-06-26 12:00:00,29,1015,-0.2,45,16,10000,22.224,,,230,,,,,,,,,,,wg-a,,,,AAXX 26124 07650 12/60 /2312 10290 20160 30114 40150 58002 60006 91200=
07650,1998-06-26 15:00:00,28,1015,-0.1,48,16,20000,18.52,,,220,,,,,,,,,,,wg-a,,,,AAXX 26154 07650 12570 22210 10280 20160 30113 40150 58001 60006 81102 91500=
07650,1998-06-26 18:00:00,25,1015,-0,57,16,18000,14.816,,,210,22,29.3,,,,,,,,,wg-a,,,,AAXX 26184 07650 12/68 12108 10250 20160 30113 40150 55000 60006 80002 91800 333 10293 20220=
07650,1998-06-26 21:00:00,22,1015.9,0.9,83,19,20000,7.408,,,180,,,,,,,,,,,wg-a,,,,AAXX 26214 07650 12/70 21804 10220 20190 30122 40159 53009 60006 80001 92100=
07650,1998-06-27 00:00:00,21,1015.8,-0.1,78,17,20000,7.408,,,140,,,,,,,,,,,wg-a,,,,AAXX 27004 07650 12/70 11404 10210 20170 30121 40158 57001 60006 80001 90000=
07650,1998-06-27 03:00:00,19,1015.7,-0.2,78,15,20000,7.408,,,160,,,,,,,,,,,wg-a,,,,AAXX 27034 07650 12/70 11604 10190 20150 30119 40157 58002 60006 80001 90300=
07650,1998-06-27 06:00:00,22,1015.7,0.1,69,16,12000,3.704,,,140,18.3,25.5,,,,,,,,,wg-a,,,,AAXX 27064 07650 02562 21402 10220 20160 30120 40157 52001 60006 81102 90600 333 10255 20183 60004=
07650,1998-06-27 09:00:00,27,1015.5,-0.2,51,16,15000,11.112,,,310,,,,,,,,,,,wg-a,,,,AAXX 27094 07650 12/65 23106 10270 20160 30118 40155 56002 60006 80002 90900=
07650,1998-06-27 12:00:00,29,1015.3,-0.1,40,14,25000,25.928,,,220,,,,,,,,,,,wg-a,,,,AAXX 27124 07650 12/75 22214 10290 20140 30117 40153 55001 60006 80002 91200=
07650,1998-06-27 15:00:00,28,1014.9,-0.5,42,14,25000,18.52,,,220,,,,,,,,,,,wg-a,,,,AAXX 27154 07650 12/75 22210 10280 20140 30112 40149 57005 60006 80002 91500=
07650,1998-06-27 18:00:00,26,1015.3,0.4,51,15,25000,11.112,,,220,21.8,29.9,,,,,,,,,wg-a,,,,AAXX 27184 07650 12/75 02206 10260 20150 30116 40153 53004 60006 80000 91800 333 10299 20218=
07650,1998-06-27 21:00:00,23,1015.9,0.6,65,16,25000,3.704,,,170,,,,,,,,,,,wg-a,,,,AAXX 27214 07650 12/75 11702 10230 20160 30122 40159 53006 60006 80001 92100=
07650,1998-06-28 00:00:00,21,1016.1,0.2,83,18,25000,0,,,0,,,,,,,,,,,wg-a,,,,AAXX 28004 07650 12/75 20000 10210 20180 30124 40161 50002 60006 80001 90000=
07650,1998-06-28 03:00:00,20,1015.9,-0.2,88,18,15000,11.112,,,10,,,,,,,,,,,wg-a,,,,AAXX 28034 07650 12/65 00106 10200 20180 30122 40159 57002 60006 80000 90300=
07650,1998-06-28 06:00:00,22,1016.5,0.6,78,18,15000,11.112,,,360,19.2,26.1,,,,,,,,,wg-a,,,,AAXX 28064 07650 02565 /3606 10220 20180 30128 40165 53006 60006 81200 90600 333 10261 20192 60004=
07650,1998-06-28 09:00:00,27,1016.3,-0.2,54,17,20000,11.112,,,290,,,,,,,,,,,wg-a,,,,AAXX 28094 07650 12570 /2906 10270 20170 30126 40163 58002 60006 81101 90900=
07650,1998-06-28 12:00:00,32,1015.6,-0.6,36,15,20000,18.52,,,290,,,,,,,,,,,wg-a,,,,AAXX 28124 07650 12/70 02910 10320 20150 30120 40156 58006 60006 80000 91200=
07650,1998-06-28 18:00:00,31,1014.9,-0.3,40,16,20000,18.52,,,340,21.8,33.3,,,,,,,,,wg-a,,,,AAXX 28184 07650 12/70 03410 10310 20160 30113 40149 55003 60006 80000 91800 333 10333 20218=
07650,1998-06-28 21:00:00,27,1015.7,0.7,62,19,20000,18.52,,,310,,,,,,,,,,,wg-a,,,,AAXX 28214 07650 12/70 03110 10270 20190 30120 40157 53007 60006 80000 92100=
07650,1998-06-29 00:00:00,24,1015.9,0.2,61,16,20000,14.816,,,330,,,,,,,,,,,wg-a,,,,AAXX 29004 07650 12/70 03308 10240 20160 30122 40159 53002 60006 80000 90000=
07650,1998-06-29 06:00:00,22,1017.1,0.9,60,14,500,11.112,,,330,19.7,31.4,,,,,,,,,wg-a,,,,AAXX 29064 07650 02/00 03306 10220 20140 30134 40171 52009 60006 80000 90600 333 10314 20197 60004=
07650,1998-06-29 09:00:00,27,1016.8,-0.3,48,15,500,14.816,,,330,,,,,,,,,,,wg-a,,,,AAXX 29094 07650 12/00 03308 10270 20150 30131 40168 58003 60006 80000 90900=
07650,1998-06-29 12:00:00,31,1015.6,-1.1,36,14,500,25.928,,,280,,,,,,,,,,,wg-a,,,,AAXX 29124 07650 12/00 12814 10310 20140 30120 40156 56011 60006 80001 91200=
07650,1998-06-29 15:00:00,33,1015.1,-0.5,24,10,500,18.52,,,310,,,,,,,,,,,wg-a,,,,AAXX 29154 07650 12/00 13110 10330 20100 30115 40151 58005 60006 80001 91500=
07650,1998-06-29 18:00:00,31,1014.6,-0.5,40,16,500,18.52,,,260,21.8,33.5,,,,,,,,,wg-a,,,,AAXX 29184 07650 12/00 12610 10310 20160 30110 40146 55005 60006 80001 91800 333 10335 20218=
07650,1998-06-29 21:00:00,26,1015.8,1.1,54,16,500,18.52,,,290,,,,,,,,,,,wg-a,,,,AAXX 29214 07650 12/00 42910 10260 20160 30121 40158 53011 60006 81031 92100=
07650,1998-06-30 00:00:00,24,1014.9,-0.9,65,17,500,3.704,,,260,,,,,,,,,,,wg-a,,,,AAXX 30004 07650 12/00 22602 10240 20170 30112 40149 58009 60006 80001 90000=
07650,1998-06-30 03:00:00,24,1014.7,-0.2,54,14,500,7.408,,,130,,,,,,,,,,,wg-a,,,,AAXX 30034 07650 12/00 61304 10240 20140 30110 40147 58002 60006 82063 90300=
07650,1998-06-30 06:00:00,24,1014.5,-0.2,61,16,500,11.112,,,320,22.7,31.1,,,,,,,,,wg-a,,,,AAXX 30064 07650 02700 63206 10240 20160 30108 40145 55002 60006 83532 90600 333 10311 20227 60004=
07650,1998-06-30 09:00:00,28,1014.1,-0.4,45,15,500,11.112,,,280,,,,,,,,,,,wg-a,,,,AAXX 30094 07650 12700 32806 10280 20150 30104 40141 58004 60006 815/2 90900=
07650,1998-06-30 12:00:00,32,1012.9,-1.1,38,16,10000,22.224,,,280,,,,,,,,,,,wg-a,,,,AAXX 30124 07650 12/60 /2812 10320 20160 30093 40129 56011 60006 91200=
07650,1998-06-30 15:00:00,33,1012.1,-0.8,44,19,500,29.632,,,270,,,,,,,,,,,wg-a,,,,AAXX 30154 07650 12/00 12716 10330 20190 30085 40121 58008 60006 80002 91500=
07650,1998-06-30 18:00:00,29,1011.9,-0.2,55,19,500,14.816,,,260,24,34,,,,,,,,,wg-a,,,,AAXX 30184 07650 12/00 12608 10290 20190 30083 40119 55002 60006 80002 91800 333 10340 20240=
07650,1998-06-30 21:00:00,26,1011.6,-0.4,61,18,500,3.704,,,280,,,,,,,,,,,wg-a,,,,AAXX 30214 07650 12500 72802 10260 20180 30079 40116 56004 60006 83581 92100=
07650,1998-07-01 00:00:00,26,1009.2,-2.4,58,17,20000,14.816,,,100,,,,,,,,,,,wg-a,,,,AAXX 01004 07650 12570 61008 10260 20170 30055 40092 58024 60006 83581 90000=
07650,1998-07-01 03:00:00,25,1009.7,0.5,61,17,20000,14.816,,,120,,,,,,,,,,,wg-a,,,,AAXX 01034 07650 12/70 41208 10250 20170 30060 40097 50005 60006 82031 90300=
07650,1998-07-01 06:00:00,25,1008.7,-1,65,18,15000,7.408,,,20,23.3,28.8,,,,,,,,,wg-a,,,,AAXX 01064 07650 02665 60204 10250 20180 30050 40087 56010 60006 83282 90600 333 10288 20233 60004=
07650,1998-07-01 09:00:00,30,1007.5,-1.1,52,19,15000,14.816,,,290,,,,,,,,,,,wg-a,,,,AAXX 01094 07650 12/65 22908 10300 20190 30039 40075 56011 60006 81082 90900=
07650,1998-07-01 12:00:00,34,1004.7,-2.7,39,18,500,25.928,,,200,,,,1,,,,,,,wg-a,,,,AAXX 01124 07650 02600 /2014 10340 20180 30012 40047 58027 60016 81101 91200 333 60017=
07650,1998-07-01 15:00:00,31,1003.4,-1.4,43,17,500,38.892,,,180,,,,,,,,,,,wg-a,,,,AAXX 01154 07650 12/00 21821 10310 20170 39998 40034 56014 60006 81081 91500=
07650,1998-07-01 18:00:00,27,1004.4,1,62,19,500,31.484,,,180,24.5,34.3,,,,,,,,,wg-a,,,,AAXX 01184 07650 12/00 31817 10270 20190 30008 40044 53010 60006 81081 91800 333 10343 20245=
07650,1998-07-01 21:00:00,23,1006.9,2.4,83,20,20000,18.52,,,180,,,,,,,,,,,wg-a,,,,AAXX 01214 07650 12470 71810 10230 20200 30032 40069 51024 60006 84282 92100=
07650,1998-07-02 00:00:00,23,1007.5,0.6,89,21,20000,11.112,,,210,,,,,,,,,,,wg-a,,,,AAXX 02004 07650 12370 72106 10230 20210 30038 40075 53006 60006 84282 90000=
07650,1998-07-02 03:00:00,22,1008.4,0.9,73,17,20000,11.112,,,280,,,,,,,,,,,wg-a,,,,AAXX 02034 07650 12370 32806 10220 20170 30047 40084 53009 60006 81102 90300=
07650,1998-07-02 06:00:00,23,1010,1.6,78,19,500,7.408,,,250,20.7,27.1,,,,,1,,,,wg-a,,,,AAXX 02064 07650 02400 /2504 10230 20190 30063 40100 52016 60006 81500 90600 333 10271 20207 60014=
07650,1998-07-02 09:00:00,26,1010.5,0.5,61,18,500,11.112,,,320,,,,,,,,,,,wg-a,,,,AAXX 02094 07650 12/00 /3206 10260 20180 30068 40105 51005 60006 80000 90900=
07650,1998-07-02 12:00:00,30,1009.9,-0.5,49,18,25000,11.112,,,320,,,,,,,,,,,wg-a,,,,AAXX 02124 07650 12575 /3206 10300 20180 30063 40099 58005 60006 81282 91200=
07650,1998-07-02 18:00:00,26,1009.2,-0.5,61,18,25000,18.52,,,200,22.1,31.4,,,,,,,,,wg-a,,,,AAXX 02184 07650 12/75 02010 10260 20180 30056 40092 56005 60006 80000 91800 333 10314 20221=
07650,1998-07-03 00:00:00,23,1011.4,0.6,83,20,8000,7.408,,,240,,,,,,,,,,,wg-a,,,,AAXX 03004 07650 12558 72404 10230 20200 30077 40114 52006 60006 876// 90000=
07650,1998-07-03 03:00:00,22,1010.6,-0.8,83,19,12000,0,,,0,,,,,,,,,,,wg-a,,,,AAXX 03034 07650 12562 40000 10220 20190 30069 40106 55008 60006 84500 90300=
07650,1998-07-03 06:00:00,21,1012.4,1.8,78,17,20000,18.52,,,330,20.4,26.3,,,,,,,,,wg-a,,,,AAXX 03064 07650 02570 /3310 10210 20170 30087 40124 53018 60006 81500 90600 333 10263 20204 60004=
07650,1998-07-03 09:00:00,25,1013.1,0.7,61,17,20000,14.816,,,270,,,,,,,,,,,wg-a,,,,AAXX 03094 07650 12570 /2708 10250 20170 30094 40131 53007 60006 81240 90900=
07650,1998-07-03 12:00:00,30,1013.5,0.5,35,13,60000,29.632,,,310,,,,,,,,,,,wg-a,,,,AAXX 03124 07650 12586 23116 10300 20130 30099 40135 51005 60006 82240 91200=
07650,1998-07-03 15:00:00,30,1013.6,0.1,38,14,60000,35.188,,,300,,,,,,,,,,,wg-a,,,,AAXX 03154 07650 12586 23019 10300 20140 30100 40136 52001 60006 82100 91500=
07650,1998-07-03 18:00:00,28,1014.8,1.1,37,12,60000,42.596,,,10,21,31.4,,,,,,,,,wg-a,,,,AAXX 03184 07650 12586 /0123 10280 20120 30111 40148 53011 60006 81800 91800 333 10314 20210=
07650,1998-07-03 21:00:00,24,1017.4,2.6,47,12,60000,31.484,,,340,,,,,,,,,,,wg-a,,,,AAXX 03214 07650 12/86 03417 10240 20120 30137 40174 52026 60006 80000 92100=
07650,1998-07-04 00:00:00,22,1018,0.6,57,13,60000,35.188,,,340,,,,,,,,,,,wg-a,,,,AAXX 04004 07650 12/86 03419 10220 20130 30143 40180 51006 60006 80000 90000=
07650,1998-07-04 03:00:00,21,1017.8,-0.3,69,15,40000,31.484,,,340,,,,,,,,,,,wg-a,,,,AAXX 04034 07650 12/82 03417 10210 20150 30140 40178 57003 60006 80000 90300=
07650,1998-07-04 06:00:00,21,1018,0.3,64,14,50000,35.188,,,340,19.7,27.9,,,,,,,,,wg-a,,,,AAXX 04064 07650 02/84 03419 10210 20140 30143 40180 50003 60006 80000 90600 333 10279 20197 60004=
07650,1998-07-04 09:00:00,25,1018,0,50,14,50000,38.892,,,340,,,,,,,,,,,wg-a,,,,AAXX 04094 07650 12/84 03421 10250 20140 30143 40180 50000 60006 80000 90900=
07650,1998-07-04 12:00:00,29,1018,0,37,13,50000,38.892,,,340,,,,,,,,,,,wg-a,,,,AAXX 04124 07650 12/84 03421 10290 20130 30143 40180 50000 60006 80000 91200=
07650,1998-07-04 15:00:00,29,1017.2,-0.8,37,13,40000,42.596,,,340,,,,,,,,,,,wg-a,,,,AAXX 04154 07650 12/82 03423 10290 20130 30135 40172 56008 60006 80000 91500=
07650,1998-07-04 18:00:00,27,1017.1,-0.1,34,10,40000,42.596,,,350,20.6,29.2,,,,,,,,,wg-a,,,,AAXX 04184 07650 12/82 03523 10270 20100 30134 40171 55001 60006 80000 91800 333 10292 20206=
07650,1998-07-04 21:00:00,24,1017.7,0.6,44,11,25000,42.596,,,350,,,,,,,,,,,wg-a,,,,AAXX 04214 07650 12/75 03523 10240 20110 30140 40177 53006 60006 80000 92100=
07650,1998-07-05 00:00:00,22,1017.3,-0.4,50,11,25000,35.188,,,340,,,,,,,,,,,wg-a,,,,AAXX 05004 07650 12/75 03419 10220 20110 30136 40173 58004 60006 80000 90000=
07650,1998-07-05 03:00:00,20,1016.6,-0.8,56,11,10000,42.596,,,340,,,,,,,,,,,wg-a,,,,AAXX 05034 07650 12/60 /3423 10200 20110 30128 40166 57008 60006 90300=
07650,1998-07-05 06:00:00,21,1016.1,-0.4,53,11,500,38.892,,,340,19.5,27.1,,,,,,,,,wg-a,,,,AAXX 05064 07650 02/00 03421 10210 20110 30124 40161 56004 60006 80000 90600 333 10271 20195 60004=
07650,1998-07-05 09:00:00,25,1016,-0.1,44,12,500,35.188,,,350,,,,,,,,,,,wg-a,,,,AAXX 05094 07650 12/00 03519 10250 20120 30123 40160 58001 60006 80000 90900=
07650,1998-07-05 12:00:00,29,1015.3,-0.6,35,12,500,35.188,,,340,,,,,,,,,,,wg-a,,,,AAXX 05124 07650 12/00 03419 10290 20120 30117 40153 58006 60006 80000 91200=
07650,1998-07-05 15:00:00,30,1013.6,-1.7,33,12,500,38.892,,,350,,,,,,,,,,,wg-a,,,,AAXX 05154 07650 12/00 03521 10300 20120 30100 40136 57017 60006 80000 91500=
07650,1998-07-05 18:00:00,29,1012.9,-0.7,29,9,500,35.188,,,350,20.3,30.4,,,,,,,,,wg-a,,,,AAXX 05184 07650 12/00 03519 10290 20090 30093 40129 56007 60006 80000 91800 333 10304 20203=
07650,1998-07-05 21:00:00,26,1013.6,0.6,37,10,20000,29.632,,,350,,,,,,,,,,,wg-a,,,,AAXX 05214 07650 12/70 03516 10260 20100 30099 40136 53006 60006 80000 92100=
07650,1998-07-06 00:00:00,24,1012.9,-0.7,47,12,20000,25.928,,,350,,,,,,,,,,,wg-a,,,,AAXX 06004 07650 12/70 03514 10240 20120 30092 40129 58007 60006 80000 90000=
07650,1998-07-06 03:00:00,21,1012.6,-0.3,56,12,20000,18.52,,,340,,,,,,,,,,,wg-a,,,,AAXX 06034 07650 12/70 03410 10210 20120 30089 40126 55003 60006 80000 90300=
07650,1998-07-06 06:00:00,22,1012.6,-0,57,13,500,14.816,,,350,20,28.8,,,,,,,,,wg-a,,,,AAXX 06064 07650 02/00 03508 10220 20130 30089 40126 55000 60006 80000 90600 333 10288 20200 60004=
07650,1998-07-06 09:00:00,27,1012.8,0.2,45,14,500,11.112,,,300,,,,,,,,,,,wg-a,,,,AAXX 06094 07650 12/00 03006 10270 20140 30091 40128 50002 60006 80000 90900=
07650,1998-07-06 12:00:00,31,1011.8,-0.9,31,12,500,18.52,,,280,,,,,,,,,,,wg-a,,,,AAXX 06124 07650 12/00 02810 10310 20120 30082 40118 58009 60006 80000 91200=
07650,1998-07-06 15:00:00,30,1010.5,-1.3,38,14,20000,29.632,,,270,,,,,,,,,,,wg-a,,,,AAXX 06154 07650 12/70 02716 10300 20140 30069 40105 58013 60006 80000 91500=
07650,1998-07-06 18:00:00,27,1009.9,-0.6,48,15,20000,11.112,,,220,21.5,31.6,,,,,,,,,wg-a,,,,AAXX 06184 07650 12/70 02206 10270 20150 30063 40099 58006 60006 80000 91800 333 10316 20215=
07650,1998-07-06 21:00:00,23,1010.5,0.5,69,17,25000,7.408,,,150,,,,,,,,,,,wg-a,,,,AAXX 06214 07650 12/75 01504 10230 20170 30068 40105 53005 60006 80000 92100=
07650,1998-07-07 00:00:00,23,1009.2,-1.3,69,17,25000,11.112,,,150,,,,,,,,,,,wg-a,,,,AAXX 07004 07650 12/75 51506 10230 20170 30055 40092 58013 60006 82032 90000=
07650,1998-07-07 03:00:00,22,1008.2,-1,65,15,20000,11.112,,,40,,,,,,,,,,,wg-a,,,,AAXX 07034 07650 12/70 20406 10220 20150 30045 40082 55010 60006 82032 90300=
07650,1998-07-07 06:00:00,24,1006.4,-1.8,57,15,20000,3.704,,,230,21.2,26.4,,,,,,,,,wg-a,,,,AAXX 07064 07650 02570 22302 10240 20150 30027 40064 56018 60006 81532 90600 333 10264 20212 60004=
07650,1998-07-07 09:00:00,26,1006.2,-0.1,61,18,20000,14.816,,,160,,,,,,,,,,,wg-a,,,,AAXX 07094 07650 12570 /1608 10260 20180 30026 40062 58001 60006 85802 90900=
07650,1998-07-07 12:00:00,27,1005.6,-0.6,54,17,20000,11.112,,,250,,,,,,,,,,,wg-a,,,,AAXX 07124 07650 12570 72506 10270 20170 30020 40056 58006 60006 83831 91200=
07650,1998-07-07 15:00:00,29,1005,-0.6,43,15,20000,35.188,,,350,,,,,,,,,,,wg-a,,,,AAXX 07154 07650 12570 43519 10290 20150 30014 40050 58006 60006 82832 91500=
07650,1998-07-07 18:00:00,24,1005.7,0.6,65,17,20000,25.928,,,320,22.5,29.1,,,,,,,,25,wg-a,,,,AAXX 07184 07650 02570 /3214 10240 20170 30020 40057 53006 61000 72586 82902 91800 333 10291 20225 6100=
07650,1998-07-07 21:00:00,24,1008.2,2.5,50,13,20000,42.596,,,340,,,,,,,,,,,wg-a,,,,AAXX 07214 07650 12570 33423 10240 20130 30045 40082 53025 60006 81531 92100=
07650,1998-07-08 00:00:00,21,1009.8,1.6,53,11,500,46.3,,,340,,,,,,,,,,,wg-a,,,,AAXX 08004 07650 12/00 13425 10210 20110 30061 40098 51016 60006 81030 90000=
07650,1998-07-08 03:00:00,19,1009.1,-0.8,52,9,500,42.596,,64.82,340,,,,,,,,,,,wg-a,,,,AAXX 08034 07650 12/00 03423 10190 20090 30053 40091 58008 60006 80000 90300 333 91035=
07650,1998-07-08 06:00:00,19,1010,0.9,56,10,50000,50.004,,,340,17.5,25.3,,,,,,,,,wg-a,,,,AAXX 08064 07650 02/84 13427 10190 20100 30062 40100 53009 60006 81040 90600 333 10253 20175 61000=
07650,1998-07-08 09:00:00,22,1010.7,0.8,43,9,40000,61.116,,81.488,350,,,,,,,,,,,wg-a,,,,AAXX 08094 07650 12/82 /3533 10220 20090 30070 40107 51008 60006 80002 90900 333 91044=
07650,1998-07-08 12:00:00,25,1010.7,0,32,7,40000,68.524,,79.636,340,,,,,,,,,,,wg-a,,,,AAXX 08124 07650 12/82 13437 10250 20070 30070 40107 50000 60006 80002 91200 333 91043=
07650,1998-07-08 15:00:00,26,1010.4,-0.3,32,8,40000,61.116,,83.34,350,,,,,,,,,,,wg-a,,,,AAXX 08154 07650 12/82 13533 10260 20080 30067 40104 58003 60006 80002 91500 333 91045=
07650,1998-07-08 18:00:00,25,1010.1,-0.3,36,9,500,61.116,,,350,18.5,26.3,,,,,,,,,wg-a,,,,AAXX 08184 07650 12/00 03533 10250 20090 30064 40101 55003 60006 80000 91800 333 10263 20185=
07650,1998-07-08 21:00:00,22,1011.7,1.6,43,9,500,42.596,,,340,,,,,,,,,,,wg-a,,,,AAXX 08214 07650 12/00 03423 10220 20090 30080 40117 52016 60006 80000 92100=
07650,1998-07-09 00:00:00,20,1012.7,1,46,8,500,25.928,,,330,,,,,,,,,,,wg-a,,,,AAXX 09004 07650 12/00 03314 10200 20080 30090 40127 53010 60006 80000 90000=
07650,1998-07-09 03:00:00,19,1012.6,-0.2,52,9,10000,35.188,,,360,,,,,,,,,,,wg-a,,,,AAXX 09034 07650 12/60 /3619 10190 20090 30088 40126 55002 60006 90300=
07650,1998-07-09 06:00:00,20,1013.5,0.9,53,10,500,29.632,,,360,17.8,24.6,,,,,,,,,wg-a,,,,AAXX 09064 07650 02/00 03616 10200 20100 30097 40135 51009 60006 80000 90600 333 10246 20178 60004=
07650,1998-07-09 09:00:00,24,1013.6,0.2,41,10,500,25.928,,,10,,,,,,,,,,,wg-a,,,,AAXX 09094 07650 12/00 00114 10240 20100 30099 40136 50002 60006 80000 90900=
07650,1998-07-09 12:00:00,28,1013.1,-0.4,35,11,500,29.632,,,340,,,,,,,,,,,wg-a,,,,AAXX 09124 07650 12/00 03416 10280 20110 30095 40131 58004 60006 80000 91200=
07650,1998-07-09 15:00:00,30,1012.1,-1,33,12,500,31.484,,,330,,,,,,,,,,,wg-a,,,,AAXX 09154 07650 12/00 03317 10300 20120 30085 40121 58010 60006 80000 91500=
07650,1998-07-09 18:00:00,28,1011.8,-0.3,37,12,500,35.188,,,340,19.3,29.8,,,,,,,,,wg-a,,,,AAXX 09184 07650 12/00 03419 10280 20120 30082 40118 56003 60006 80000 91800 333 10298 20193=
07650,1998-07-09 21:00:00,26,1013.2,1.3,45,13,40000,31.484,,,360,,,,,,,,,,,wg-a,,,,AAXX 09214 07650 12/82 13617 10260 20130 30095 40132 53013 60006 80001 92100=
07650,1998-07-10 00:00:00,23,1013.5,0.3,53,13,40000,25.928,,,340,,,,,,,,,,,wg-a,,,,AAXX 10004 07650 12/82 03414 10230 20130 30098 40135 50003 60006 80000 90000=
07650,1998-07-10 03:00:00,21,1013.6,0.1,56,12,500,14.816,,,330,,,,,,,,,,,wg-a,,,,AAXX 10034 07650 12/00 03308 10210 20120 30099 40136 53001 60006 80000 90300=
07650,1998-07-10 06:00:00,21,1014,0.4,60,13,500,31.484,,,340,20,28.2,,,,,,,,,wg-a,,,,AAXX 10064 07650 02/00 13417 10210 20130 30103 40140 50004 60006 80001 90600 333 10282 20200 60004=
07650,1998-07-10 09:00:00,25,1014.7,0.7,50,14,500,29.632,,,310,,,,,,,,,,,wg-a,,,,AAXX 10094 07650 12/00 03116 10250 20140 30110 40147 51007 60006 80000 90900=
07650,1998-07-10 12:00:00,29,1014,-0.6,35,12,35000,25.928,,,300,,,,,,,,,,,wg-a,,,,AAXX 10124 07650 12/81 13014 10290 20120 30104 40140 58006 60006 80002 91200=
07650,1998-07-10 15:00:00,28,1013.1,-0.9,45,15,40000,31.484,,,270,,,,,,,,,,,wg-a,,,,AAXX 10154 07650 12/82 12717 10280 20150 30095 40131 56009 60006 80001 91500=
07650,1998-07-10 18:00:00,27,1012.8,-0.4,48,15,25000,29.632,,,260,20.7,30.8,,,,,,,,,wg-a,,,,AAXX 10184 07650 12/75 02616 10270 20150 30091 40128 56004 60006 80000 91800 333 10308 20207=
07650,1998-07-10 21:00:00,23,1014.1,1.3,65,16,15000,3.704,,,250,,,,,,,,,,,wg-a,,,,AAXX 10214 07650 12/65 02502 10230 20160 30104 40141 53013 60006 80000 92100=
07650,1998-07-11 00:00:00,22,1014.6,0.5,60,14,15000,14.816,,,300,,,,,,,,,,,wg-a,,,,AAXX 11004 07650 12/65 03008 10220 20140 30109 40146 53005 60006 80000 90000=
07650,1998-07-11 03:00:00,22,1014.4,-0.2,57,13,20000,29.632,,,340,,,,,,,,,,,wg-a,,,,AAXX 11034 07650 12/70 03416 10220 20130 30107 40144 56002 60006 80000 90300=
07650,1998-07-11 06:00:00,22,1015.7,1.3,57,13,500,31.484,,,320,20,26.4,,,,,,,,,wg-a,,,,AAXX 11064 07650 02/00 23217 10220 20130 30120 40157 52013 60006 80002 90600 333 10264 20200 60004=
07650,1998-07-11 09:00:00,26,1015.5,-0.2,48,14,40000,38.892,,,330,,,,,,,,,,,wg-a,,,,AAXX 11094 07650 12/82 33321 10260 20140 30118 40155 58002 60006 80002 90900=
07650,1998-07-11 12:00:00,28,1014.8,-0.7,42,14,75000,38.892,,,330,,,,,,,,,,,wg-a,,,,AAXX 11124 07650 12589 /3321 10280 20140 30111 40148 58007 60006 81102 91200=
07650,1998-07-11 15:00:00,29,1013.7,-1,37,13,75000,42.596,,,340,,,,,,,,,,,wg-a,,,,AAXX 11154 07650 12589 /3423 10290 20130 30101 40137 56010 60006 81102 91500=
07650,1998-07-11 18:00:00,28,1013.3,-0.4,40,13,75000,25.928,,,350,21.9,29.8,,,,,,,,,wg-a,,,,AAXX 11184 07650 12/89 63514 10280 20130 30097 40133 56004 60006 80002 91800 333 10298 20219=
07650,1998-07-11 21:00:00,25,1014.7,1.3,57,16,500,22.224,,,290,,,,,,,,,,,wg-a,,,,AAXX 11214 07650 12/00 22912 10250 20160 30110 40147 53013 60006 80002 92100=
07650,1998-07-12 00:00:00,22,1014.7,-0,57,13,500,29.632,,,330,,,,,,,,,,,wg-a,,,,AAXX 12004 07650 12/00 03316 10220 20130 30110 40147 55000 60006 80000 90000=
07650,1998-07-12 03:00:00,21,1014.8,0.1,60,13,500,22.224,,,310,,,,,,,,,,,wg-a,,,,AAXX 12034 07650 12/00 23112 10210 20130 30111 40148 53001 60006 80002 90300=
07650,1998-07-12 06:00:00,22,1014.3,-0.5,57,13,75000,18.52,,,300,20.6,27.9,,,,,,,,,wg-a,,,,AAXX 12064 07650 02/89 33010 10220 20130 30106 40143 57005 60006 80002 90600 333 10279 20206 60004=
07650,1998-07-12 09:00:00,28,1013.9,-0.4,37,12,75000,35.188,,,350,,,,,,,,,,,wg-a,,,,AAXX 12094 07650 12/89 53519 10280 20120 30102 40139 58004 60006 81032 90900=
07650,1998-07-12 12:00:00,31,1013.2,-0.6,31,12,75000,25.928,,,300,,,,,,,,,,,wg-a,,,,AAXX 12124 07650 12/89 33014 10310 20120 30096 40132 58006 60006 80002 91200=
07650,1998-07-12 15:00:00,30,1012.2,-1,40,15,75000,35.188,,,270,,,,,,,,,,,wg-a,,,,AAXX 12154 07650 12/89 32719 10300 20150 30086 40122 57010 60006 80002 91500=
07650,1998-07-12 18:00:00,25,1012.9,0.6,54,15,75000,18.52,,,280,21.6,33,,,,,,,,,wg-a,,,,AAXX 12184 07650 12/89 32810 10250 20150 30092 40129 53006 60006 80002 91800 333 10330 20216=
07650,1998-07-12 21:00:00,23,1013.7,0.8,69,17,75000,7.408,,,180,,,,,,,,,,,wg-a,,,,AAXX 12214 07650 12/89 21804 10230 20170 30100 40137 53008 60006 80001 92100=
07650,1998-07-13 00:00:00,23,1013.2,-0.5,65,16,50000,7.408,,,140,,,,,,,,,,,wg-a,,,,AAXX 13004 07650 12/84 21404 10230 20160 30095 40132 58005 60006 80001 90000=
07650,1998-07-13 06:00:00,23,1012.7,0.5,65,16,11000,11.112,,,160,20.1,25.5,,,,,,,,,wg-a,,,,AAXX 13064 07650 02/61 /1606 10230 20160 30090 40127 50005 60006 90600 333 10255 20201 60004=
07650,1998-07-13 09:00:00,28,1012.6,0,51,17,40000,18.52,,,210,,,,,,,,,,,wg-a,,,,AAXX 13094 07650 12/82 12110 10280 20170 30090 40126 50000 60006 80009 90900=
07650,1998-07-13 12:00:00,29,1011.8,-0.8,52,18,40000,22.224,,,180,,,,,,,,,,,wg-a,,,,AAXX 13124 07650 12482 21812 10290 20180 30082 40118 58008 60006 81101 91200=
07650,1998-07-13 15:00:00,26,1012.1,0.2,61,18,20000,18.52,,,190,,,,,,,,,,,wg-a,,,,AAXX 13154 07650 12470 /1910 10260 20180 30084 40121 53002 60006 81102 91500=
07650,1998-07-13 18:00:00,23,1011.8,-0.3,83,20,6000,18.52,,,230,23.1,29.3,,,,,,,,,wg-a,,,,AAXX 13184 07650 12456 /2310 10230 20200 30081 40118 55003 60006 83502 91800 333 10293 20231=
07650,1998-07-13 21:00:00,22,1012.6,0.8,88,20,7000,11.112,,,300,,,,,,,,,,,wg-a,,,,AAXX 13214 07650 12457 73006 10220 20200 30089 40126 53008 60006 8497/ 92100=
07650,1998-07-14 00:00:00,22,1011.3,-1.3,94,21,8000,18.52,,,340,,,,0,,,,,,3,wg-a,,,,AAXX 14004 07650 02458 73410 10220 20210 30076 40113 56013 60016 70362 8457/ 90000 333 60007=
07650,1998-07-14 03:00:00,21,1010.6,-0.7,73,16,10000,29.632,,,340,,,,,,,,,,,wg-a,,,,AAXX 14034 07650 12460 73416 10210 20160 30069 40106 58007 60006 8357/ 90300=
07650,1998-07-14 06:00:00,19,1011.9,1.2,68,13,500,18.52,,,340,18.2,23.4,,,,,,,,,wg-a,,,,AAXX 14064 07650 02500 /3410 10190 20130 30081 40119 52012 60006 81542 90600 333 10234 20182 60004=
07650,1998-07-14 09:00:00,23,1011.2,-0.6,47,11,60000,46.3,,,330,,,,,,,,,,,wg-a,,,,AAXX 14094 07650 12586 23325 10230 20110 30075 40112 58006 60006 81542 90900=
07650,1998-07-14 12:00:00,25,1010.9,-0.3,39,10,75000,50.004,,,330,,,,,,,,,,,wg-a,,,,AAXX 14124 07650 12/89 23327 10250 20100 30072 40109 58003 60006 80002 91200=
07650,1998-07-14 15:00:00,27,1009.8,-1.1,30,8,75000,46.3,,,340,,,,,,,,,,,wg-a,,,,AAXX 14154 07650 12/89 13425 10270 20080 30061 40098 56011 60006 80001 91500=
07650,1998-07-14 18:00:00,24,1010.1,0.3,34,7,75000,42.596,,,350,19,26.9,,,,,,,,,wg-a,,,,AAXX 14184 07650 12589 23523 10240 20070 30064 40101 53003 60006 81241 91800 333 10269 20190=
07650,1998-07-14 21:00:00,22,1011.9,1.8,38,7,50000,46.3,,,340,,,,,,,,,,,wg-a,,,,AAXX 14214 07650 12/84 13425 10220 20070 30082 40119 53018 60006 80001 92100=
07650,1998-07-15 00:00:00,20,1012.1,0.1,43,7,50000,42.596,,62.968,340,,,,,,,,,,,wg-a,,,,AAXX 15004 07650 12/84 13423 10200 20070 30083 40121 51001 60006 80001 90000 333 91034=
07650,1998-07-15 03:00:00,19,1012.7,0.6,46,7,40000,35.188,,,340,,,,,,,,,,,wg-a,,,,AAXX 15034 07650 12/82 13419 10190 20070 30089 40127 53006 60006 80002 90300=
07650,1998-07-15 06:00:00,19,1014.1,1.4,46,7,75000,25.928,,,350,17,24.4,,,,,,,,,wg-a,,,,AAXX 15064 07650 02/89 13514 10190 20070 30103 40141 51014 60006 80002 90600 333 10244 20170 60004=
07650,1998-07-15 09:00:00,24,1014.3,0.3,38,9,75000,22.224,,,340,,,,,,,,,,,wg-a,,,,AAXX 15094 07650 12/89 13412 10240 20090 30106 40143 51003 60006 80002 90900=
07650,1998-07-15 12:00:00,27,1014,-0.3,30,8,75000,22.224,,,320,,,,,,,,,,,wg-a,,,,AAXX 15124 07650 12589 23212 10270 20080 30103 40140 58003 60006 81102 91200=
07650,1998-07-15 15:00:00,28,1013.8,-0.2,28,8,11000,29.632,,,330,,,,,,,,,,,wg-a,,,,AAXX 15154 07650 12/61 /3316 10280 20080 30101 40138 55002 60006 91500=
07650,1998-07-15 18:00:00,26,1013.9,0.1,34,9,60000,38.892,,,350,18.2,28.7,,,,,,,,,wg-a,,,,AAXX 15184 07650 12/86 23521 10260 20090 30102 40139 53001 60006 81042 91800 333 10287 20182=
07650,1998-07-15 21:00:00,22,1015.4,1.5,43,9,60000,29.632,,,350,,,,,,,,,,,wg-a,,,,AAXX 15214 07650 12/86 13516 10220 20090 30117 40154 53015 60006 80001 92100=
07650,1998-07-16 00:00:00,21,1016,0.6,49,10,0,22.224,,,330,,,,,,,,,,,wg-a,,,,AAXX 16004 07650 12/// /3312 10210 20100 30123 40160 51006 60006 90000=
07650,1998-07-16 03:00:00,17,1015.5,-0.6,55,8,40000,11.112,,,360,,,,,,,,,,,wg-a,,,,AAXX 16034 07650 12/82 03606 10170 20080 30117 40155 56006 60006 80000 90300=
07650,1998-07-16 06:00:00,19,1016.8,1.3,52,9,40000,0,,,0,15.4,25.9,,,,,,,,,wg-a,,,,AAXX 16064 07650 02/82 00000 10190 20090 30130 40168 53013 60006 80000 90600 333 10259 20154 60004=
07650,1998-07-16 09:00:00,23,1017.3,0.6,44,10,500,7.408,,,290,,,,,,,,,,,wg-a,,,,AAXX 16094 07650 12/00 02904 10230 20100 30136 40173 50006 60006 80000 90900=
07650,1998-07-16 12:00:00,28,1017,-0.3,35,11,500,11.112,,,280,,,,,,,,,,,wg-a,,,,AAXX 16124 07650 12/00 12806 10280 20110 30133 40170 58003 60006 81040 91200=
07650,1998-07-16 15:00:00,27,1015.9,-1.1,32,9,500,25.928,,,270,,,,,,,,,,,wg-a,,,,AAXX 16154 07650 12/00 02714 10270 20090 30122 40159 58011 60006 80000 91500=
07650,1998-07-16 18:00:00,25,1015.7,-0.2,50,14,500,7.408,,,300,18.5,28.3,,,,,,,,,wg-a,,,,AAXX 16184 07650 12/00 03004 10250 20140 30120 40157 56002 60006 80000 91800 333 10283 20185=
07650,1998-07-16 21:00:00,23,1016.2,0.5,69,17,500,7.408,,,190,,,,,,,,,,,wg-a,,,,AAXX 16214 07650 12/00 01904 10230 20170 30125 40162 53005 60006 80000 92100=
07650,1998-07-17 00:00:00,20,1016.3,0.1,78,16,500,7.408,,,170,,,,,,,,,,,wg-a,,,,AAXX 17004 07650 12/00 01704 10200 20160 30126 40163 51001 60006 80000 90000=
07650,1998-07-17 03:00:00,19,1015.6,-0.8,78,15,20000,7.408,,,350,,,,,,,,,,,wg-a,,,,AAXX 17034 07650 12/70 03504 10190 20150 30118 40156 58008 60006 80000 90300=
07650,1998-07-17 06:00:00,22,1016.4,0.9,60,14,40000,14.816,,,310,18,25.5,,,,,,,,,wg-a,,,,AAXX 17064 07650 02/82 03108 10220 20140 30127 40164 53009 60006 80000 90600 333 10255 20180 60004=
07650,1998-07-17 09:00:00,27,1016.3,-0.1,48,15,40000,25.928,,,350,,,,,,,,,,,wg-a,,,,AAXX 17094 07650 12/82 03514 10270 20150 30126 40163 57001 60006 80000 90900=
07650,1998-07-17 12:00:00,30,1015.4,-0.8,38,14,40000,22.224,,,300,,,,,,,,,,,wg-a,,,,AAXX 17124 07650 12/82 03012 10300 20140 30118 40154 58008 60006 80000 91200=
07650,1998-07-17 15:00:00,28,1014.8,-0.6,48,16,40000,35.188,,,270,,,,,,,,,,,wg-a,,,,AAXX 17154 07650 12/82 02719 10280 20160 30112 40148 57006 60006 80000 91500=
07650,1998-07-17 18:00:00,27,1014.8,-0.1,51,16,500,22.224,,,270,21.6,30.6,,,,,,,,,wg-a,,,,AAXX 17184 07650 12/00 02712 10270 20160 30111 40148 55001 60006 80000 91800 333 10306 20216=
07650,1998-07-17 21:00:00,24,1016.3,1.5,65,17,18000,11.112,,,250,,,,,,,,,,,wg-a,,,,AAXX 17214 07650 12/68 02506 10240 20170 30126 40163 51015 60006 80000 92100=
07650,1998-07-18 00:00:00,22,1015.8,-0.5,73,17,18000,3.704,,,150,,,,,,,,,,,wg-a,,,,AAXX 18004 07650 12/68 01502 10220 20170 30121 40158 58005 60006 80000 90000=
07650,1998-07-18 03:00:00,20,1015.4,-0.5,78,16,16000,7.408,,,160,,,,,,,,,,,wg-a,,,,AAXX 18034 07650 12/66 01604 10200 20160 30116 40154 58005 60006 80000 90300=
07650,1998-07-18 06:00:00,22,1015.7,0.4,78,18,15000,7.408,,,20,18.5,27.3,,,,,,,,,wg-a,,,,AAXX 18064 07650 02765 10204 10220 20180 30120 40157 50004 60006 81500 90600 333 10273 20185 60004=
07650,1998-07-18 09:00:00,27,1016.2,0.5,51,16,15000,7.408,,,290,,,,,,,,,,,wg-a,,,,AAXX 18094 07650 12/65 02904 10270 20160 30125 40162 51005 60006 80000 90900=
07650,1998-07-18 12:00:00,30,1015.4,-0.7,49,18,11000,29.632,,,210,,,,,,,,,,,wg-a,,,,AAXX 18124 07650 12/61 /2116 10300 20180 30118 40154 57007 60006 91200=
07650,1998-07-18 15:00:00,30,1015.1,-0.3,43,16,40000,18.52,,,220,,,,,,,,,,,wg-a,,,,AAXX 18154 07650 12582 22210 10300 20160 30115 40151 58003 60006 81101 91500=
07650,1998-07-18 18:00:00,27,1015.3,0.1,45,14,500,14.816,,,210,21.7,33.2,,,,,,,,,wg-a,,,,AAXX 18184 07650 12/00 22108 10270 20140 30116 40153 53001 60006 81031 91800 333 10332 20217=
07650,1998-07-18 21:00:00,24,1016.3,1,54,14,500,11.112,,,150,,,,,,,,,,,wg-a,,,,AAXX 18214 07650 12600 31506 10240 20140 30126 40163 51010 60006 81402 92100=
07650,1998-07-19 00:00:00,24,1015.8,-0.5,47,12,20000,11.112,,,160,,,,,,,,,,,wg-a,,,,AAXX 19004 07650 12/70 21606 10240 20120 30121 40158 58005 60006 80002 90000=
07650,1998-07-19 03:00:00,24,1015.3,-0.5,41,10,20000,11.112,,,170,,,,,,,,,,,wg-a,,,,AAXX 19034 07650 12/70 21706 10240 20100 30116 40153 55005 60006 80002 90300=
07650,1998-07-19 06:00:00,23,1016.3,1,65,16,20000,11.112,,,100,21.6,27,,,,,,,,,wg-a,,,,AAXX 19064 07650 02570 21006 10230 20160 30126 40163 51010 60006 81502 90600 333 10270 20216 60004=
07650,1998-07-19 09:00:00,29,1016.9,0.7,37,13,40000,18.52,,,180,,,,,,,,,,,wg-a,,,,AAXX 19094 07650 12/82 01810 10290 20130 30133 40169 51007 60006 80000 90900=
07650,1998-07-19 12:00:00,31,1017.1,0.2,33,13,40000,25.928,,,200,,,,,,,,,,,wg-a,,,,AAXX 19124 07650 12/82 02014 10310 20130 30135 40171 50002 60006 80000 91200=
07650,1998-07-19 15:00:00,30,1016.8,-0.3,33,12,40000,22.224,,,200,,,,,,,,,,,wg-a,,,,AAXX 19154 07650 12/82 12012 10300 20120 30132 40168 56003 60006 80002 91500=
07650,1998-07-19 18:00:00,30,1016.6,-0.2,33,12,40000,18.52,,,230,22.9,31.8,,,,,,,,,wg-a,,,,AAXX 19184 07650 12/82 12310 10300 20120 30130 40166 55002 60006 81032 91800 333 10318 20229=
07650,1998-07-19 21:00:00,25,1018,1.3,54,15,500,7.408,,,170,,,,,,,,,,,wg-a,,,,AAXX 19214 07650 12/00 11704 10250 20150 30143 40180 51013 60006 81033 92100=
07650,1998-07-20 00:00:00,22,1018.2,0.2,60,14,500,3.704,,,150,,,,,,,,,,,wg-a,,,,AAXX 20004 07650 12/00 01502 10220 20140 30145 40182 50002 60006 80000 90000=
07650,1998-07-20 03:00:00,21,1017.4,-0.8,69,15,500,7.408,,,130,,,,,,,,,,,wg-a,,,,AAXX 20034 07650 12/00 01304 10210 20150 30137 40174 56008 60006 80000 90300=
07650,1998-07-20 06:00:00,22,1017.6,0.2,73,17,20000,3.704,,,30,20.4,29.5,,,,,,,,,wg-a,,,,AAXX 20064 07650 02570 20302 10220 20170 30139 40176 52002 60006 81532 90600 333 10295 20204 60004=
07650,1998-07-20 09:00:00,28,1017.7,0.1,55,18,15000,7.408,,,310,,,,,,,,,,,wg-a,,,,AAXX 20094 07650 12/65 03104 10280 20180 30140 40177 50001 60006 80000 90900=
07650,1998-07-20 12:00:00,34,1015.8,-1.8,34,16,20000,25.928,,,200,,,,,,,,,,,wg-a,,,,AAXX 20124 07650 12/70 02014 10340 20160 30122 40158 58018 60006 80000 91200=
07650,1998-07-20 15:00:00,32,1014.4,-1.4,41,17,15000,31.484,,,170,,,,,,,,,,,wg-a,,,,AAXX 20154 07650 12565 /1717 10320 20170 30108 40144 58014 60006 81100 91500=
07650,1998-07-20 18:00:00,30,1013.6,-0.8,40,15,17000,22.224,,,190,22.3,34.2,,,,,,,,,wg-a,,,,AAXX 20184 07650 12/67 01912 10300 20150 30100 40136 56008 60006 80000 91800 333 10342 20223=
07650,1998-07-20 21:00:00,27,1014.2,0.5,51,16,18000,18.52,,,170,,,,,,,,,,,wg-a,,,,AAXX 20214 07650 12/68 21710 10270 20160 30105 40142 53005 60006 80002 92100=
07650,1998-07-21 00:00:00,25,1013.9,-0.3,54,15,18000,7.408,,,100,,,,,,,,,,,wg-a,,,,AAXX 21004 07650 12/68 31004 10250 20150 30102 40139 58003 60006 80002 90000=
07650,1998-07-21 03:00:00,21,1014,0.1,78,17,12000,3.704,,,40,,,,,,,,,,,wg-a,,,,AAXX 21034 07650 12/62 30402 10210 20170 30103 40140 53001 60006 80002 90300=
07650,1998-07-21 06:00:00,23,1013.6,-0.4,61,15,12000,7.408,,,80,20.2,30.1,,,,,,,,,wg-a,,,,AAXX 21064 07650 02/62 20804 10230 20150 30099 40136 56004 60006 80002 90600 333 10301 20202 60004=
07650,1998-07-21 09:00:00,29,1013.7,0.2,40,14,15000,7.408,,,320,,,,,,,,,,,wg-a,,,,AAXX 21094 07650 12565 /3204 10290 20140 30101 40137 51002 60006 81100 90900=
07650,1998-07-21 12:00:00,31,1013.7,-0,46,18,11000,18.52,,,260,,,,,,,,,,,wg-a,,,,AAXX 21124 07650 12/61 /2610 10310 20180 30101 40137 55000 60006 91200=
07650,1998-07-21 15:00:00,29,1013.6,-0.1,52,18,20000,14.816,,,230,,,,,,,,,,,wg-a,,,,AAXX 21154 07650 12570 32308 10290 20180 30100 40136 57001 60006 81281 91500=
07650,1998-07-21 18:00:00,27,1013.9,0.2,58,18,18000,7.408,,,270,23,31.9,,,,,,,,,wg-a,,,,AAXX 21184 07650 12668 /2704 10270 20180 30102 40139 53002 60006 81432 91800 333 10319 20230=
07650,1998-07-21 21:00:00,25,1014.7,0.8,65,18,18000,0,,,0,,,,,,,,,,,wg-a,,,,AAXX 21214 07650 12/68 50000 10250 20180 30110 40147 51008 60006 80002 92100=
07650,1998-07-22 00:00:00,23,1014.6,-0.1,73,18,18000,0,,,0,,,,,,,,,,,wg-a,,,,AAXX 22004 07650 12/68 00000 10230 20180 30109 40146 58001 60006 80000 90000=
07650,1998-07-22 03:00:00,21,1014.5,-0.1,78,17,18000,3.704,,,160,,,,,,,,,,,wg-a,,,,AAXX 22034 07650 12/68 11602 10210 20170 30108 40145 55001 60006 80002 90300=
07650,1998-07-22 06:00:00,23,1015.1,0.6,65,16,20000,7.408,,,160,20.3,26.9,,,,,,,,,wg-a,,,,AAXX 22064 07650 02570 /1604 10230 20160 30114 40151 52006 60006 81500 90600 333 10269 20203 60004=
07650,1998-07-22 09:00:00,28,1015.5,0.5,48,16,500,7.408,,,280,,,,,,,,,,,wg-a,,,,AAXX 22094 07650 12/00 32804 10280 20160 30119 40155 51005 60006 80002 90900=
07650,1998-07-22 12:00:00,32,1015.5,-0,38,16,20000,18.52,,,220,,,,,,,,,,,wg-a,,,,AAXX 22124 07650 12670 /2210 10320 20160 30119 40155 55000 60006 81102 91200=
07650,1998-07-22 15:00:00,31,1014.9,-0.6,38,15,20000,18.52,,,210,,,,,,,,,,,wg-a,,,,AAXX 22154 07650 12670 /2110 10310 20150 30113 40149 58006 60006 81101 91500=
07650,1998-07-22 18:00:00,29,1015.3,0.4,45,16,35000,7.408,,,210,22.6,32,,,,,,,,,wg-a,,,,AAXX 22184 07650 12781 12104 10290 20160 30117 40153 53004 60006 81401 91800 333 10320 20226=
07650,1998-07-22 21:00:00,26,1016.4,1,54,16,35000,7.408,,,220,,,,,,,,,,,wg-a,,,,AAXX 22214 07650 12/81 12204 10260 20160 30127 40164 53010 60006 80002 92100=
07650,1998-07-23 00:00:00,23,1016.3,-0.1,69,17,500,11.112,,,150,,,,,,,,,,,wg-a,,,,AAXX 23004 07650 12/00 01506 10230 20170 30126 40163 58001 60006 80000 90000=
07650,1998-07-23 03:00:00,21,1015.3,-1,69,15,500,0,,,0,,,,,,,,,,,wg-a,,,,AAXX 23034 07650 12/00 10000 10210 20150 30116 40153 56010 60006 80001 90300=
07650,1998-07-23 06:00:00,24,1015.7,0.4,54,14,20000,11.112,,,160,20,29.4,,,,,,,,,wg-a,,,,AAXX 23064 07650 02/70 11606 10240 20140 30120 40157 50004 60006 80001 90600 333 10294 20200 60004=
07650,1998-07-23 09:00:00,29,1015.8,0.2,52,18,25000,7.408,,,290,,,,,,,,,,,wg-a,,,,AAXX 23094 07650 12/75 22904 10290 20180 30122 40158 50002 60006 80001 90900=
07650,1998-07-23 12:00:00,35,1014.8,-1,25,12,25000,11.112,,,270,,,,,,,,,,,wg-a,,,,AAXX 23124 07650 12575 22706 10350 20120 30112 40148 58010 60006 81101 91200=
07650,1998-07-23 15:00:00,34,1014.1,-0.7,36,17,20000,29.632,,,270,,,,,,,,,,,wg-a,,,,AAXX 23154 07650 12570 22716 10340 20170 30105 40141 58007 60006 81101 91500=
07650,1998-07-23 18:00:00,30,1014.9,0.8,49,18,500,11.112,,,290,23.6,35.5,,,,,,,,,wg-a,,,,AAXX 23184 07650 12/00 12906 10300 20180 30113 40149 53008 60006 81031 91800 333 10355 20236=
07650,1998-07-23 21:00:00,26,1016.1,1.1,54,16,18000,7.408,,,260,,,,,,,,,,,wg-a,,,,AAXX 23214 07650 12/68 02604 10260 20160 30124 40161 52011 60006 80000 92100=
07650,1998-07-24 00:00:00,24,1015.5,-0.6,61,16,15000,7.408,,,170,,,,,,,,,,,wg-a,,,,AAXX 24004 07650 12/65 21704 10240 20160 30118 40155 56006 60006 80002 90000=
07650,1998-07-24 03:00:00,22,1015,-0.5,73,17,16000,3.704,,,330,,,,,,,,,,,wg-a,,,,AAXX 24034 07650 12/66 13302 10220 20170 30113 40150 57005 60006 80002 90300=
07650,1998-07-24 06:00:00,25,1015.4,0.4,54,15,40000,3.704,,,200,21.1,30,,,,,,,,,wg-a,,,,AAXX 24064 07650 02/82 12002 10250 20150 30117 40154 51004 60006 81031 90600 333 10300 20211 60004=
07650,1998-07-24 09:00:00,31,1015.4,0.1,43,17,40000,22.224,,,330,,,,,,,,,,,wg-a,,,,AAXX 24094 07650 12/82 23312 10310 20170 30118 40154 50001 60006 81032 90900=
07650,1998-07-24 12:00:00,33,1014.9,-0.5,36,16,40000,25.928,,,300,,,,,,,,,,,wg-a,,,,AAXX 24124 07650 12/82 03014 10330 20160 30113 40149 58005 60006 80000 91200=
07650,1998-07-24 15:00:00,32,1014.1,-0.8,43,18,40000,31.484,,,260,,,,,,,,,,,wg-a,,,,AAXX 24154 07650 12/82 02617 10320 20180 30105 40141 58008 60006 80000 91500=
07650,1998-07-24 18:00:00,29,1014.3,0.2,55,19,35000,22.224,,,270,24.7,34.4,,,,,,,,,wg-a,,,,AAXX 24184 07650 12/81 12712 10290 20190 30107 40143 51002 60006 80002 91800 333 10344 20247=
07650,1998-07-24 21:00:00,26,1015.2,0.8,65,19,15000,3.704,,,230,,,,,,,,,,,wg-a,,,,AAXX 24214 07650 12/65 02302 10260 20190 30115 40152 52008 60006 80000 92100=
07650,1998-07-25 00:00:00,25,1014.5,-0.7,61,17,15000,3.704,,,150,,,,,,,,,,,wg-a,,,,AAXX 25004 07650 12/65 01502 10250 20170 30108 40145 58007 60006 80000 90000=
07650,1998-07-25 03:00:00,22,1013.9,-0.6,73,17,12000,3.704,,,210,,,,,,,,,,,wg-a,,,,AAXX 25034 07650 12/62 02102 10220 20170 30102 40139 56006 60006 80000 90300=
07650,1998-07-25 06:00:00,25,1014.2,0.3,54,15,15000,11.112,,,10,21.6,29,,,,,,,,,wg-a,,,,AAXX 25064 07650 02/65 00106 10250 20150 30105 40142 53003 60006 80000 90600 333 10290 20216 60004=
07650,1998-07-25 09:00:00,29,1014.1,0,48,17,20000,18.52,,,300,,,,,,,,,,,wg-a,,,,AAXX 25094 07650 12/70 03010 10290 20170 30105 40141 50000 60006 80000 90900=
07650,1998-07-25 12:00:00,31,1013.2,-0.8,46,18,25000,18.52,,,280,,,,,,,,,,,wg-a,,,,AAXX 25124 07650 12/75 12810 10310 20180 30090 40132 58008 60006 81080 91200=
07650,1998-07-25 15:00:00,34,1012.8,-1.1,32,15,500,31.484,,,320,,,,,,,,,,,wg-a,,,,AAXX 25154 07650 32500 /3217 10340 20150 30092 40128 56011 81100 91500=
07650,1998-07-25 18:00:00,30,1012.5,-0.3,46,17,500,31.484,,,290,24.2,34.5,,,,,,,,,wg-a,,,,AAXX 25184 07650 12/00 02917 10300 20170 30089 40125 55003 60006 80000 91800 333 10345 20242=
07650,1998-07-25 21:00:00,27,1013.9,1.3,62,19,500,18.52,,,290,,,,,,,,,,,wg-a,,,,AAXX 25214 07650 12/00 02910 10270 20190 30102 40139 52013 60006 80000 92100=
07650,1998-07-26 00:00:00,25,1013.8,-0.1,57,16,500,11.112,,,310,,,,,,,,,,,wg-a,,,,AAXX 26004 07650 12/00 03106 10250 20160 30101 40138 57001 60006 80000 90000=
07650,1998-07-26 03:00:00,23,1013.5,-0.3,65,16,20000,3.704,,,190,,,,,,,,,,,wg-a,,,,AAXX 26034 07650 12/70 01902 10230 20160 30098 40135 55003 60006 80000 90300=
07650,1998-07-26 06:00:00,24,1013.9,0.4,65,17,500,7.408,,,170,21.1,30.4,,,,,,,,,wg-a,,,,AAXX 26064 07650 12/00 11704 10240 20170 30102 40139 53004 60006 80001 90600 333 10304 20211=
07650,1998-07-26 09:00:00,29,1013.7,-0.1,45,16,18000,7.408,,,290,,,,,,,,,,,wg-a,,,,AAXX 26094 07650 12/68 /2904 10290 20160 30101 40137 58001 60006 81080 90900=
07650,1998-07-26 12:00:00,32,1012.9,-0.8,43,18,20000,22.224,,,230,,,,,,,,,,,wg-a,,,,AAXX 26124 07650 12/70 12312 10320 20180 30093 40129 58008 60006 81030 91200=
07650,1998-07-26 15:00:00,30,1012.7,-0.2,46,17,20000,18.52,,,200,,,,,,,,,,,wg-a,,,,AAXX 26154 07650 12/70 52010 10300 20170 30091 40127 55002 60006 85030 91500=
07650,1998-07-26 18:00:00,28,1012.5,-0.2,45,15,25000,14.816,,,300,23.8,34.2,,,,,,,,,wg-a,,,,AAXX 26184 07650 12/75 33008 10280 20150 30089 40125 57002 60006 83080 91800 333 10342 20238=
07650,1998-07-26 21:00:00,25,1013,0.4,54,15,25000,11.112,,,140,,,,,,,,,,,wg-a,,,,AAXX 26214 07650 12/75 31406 10250 20150 30093 40130 51004 60006 83080 92100=
07650,1998-07-27 00:00:00,24,1012.6,-0.4,54,14,500,11.112,,,170,,,,,,,,,,,wg-a,,,,AAXX 27004 07650 12/00 01706 10240 20140 30089 40126 58004 60006 80000 90000=
07650,1998-07-27 03:00:00,23,1012.4,-0.2,57,14,500,7.408,,,20,,,,,,,,,,,wg-a,,,,AAXX 27034 07650 12/00 40204 10230 20140 30087 40124 55002 60006 84030 90300=
07650,1998-07-27 06:00:00,24,1012.9,0.5,65,17,12000,7.408,,,90,22.1,27.9,,,,,,,,,wg-a,,,,AAXX 27064 07650 02562 70904 10240 20170 30092 40129 53005 60006 8128/ 90600 333 10279 20221 60004=
07650,1998-07-27 09:00:00,26,1012.5,-0.4,65,19,15000,11.112,,,340,,,,,,,,,,60,wg-a,,,,AAXX 27094 07650 02565 /3406 10260 20190 30088 40125 58004 61000 76061 8128/ 90900 333 ////=
07650,1998-07-27 12:00:00,29,1012,-0.4,52,18,15000,14.816,,,210,,,,,,,,,,3,wg-a,,,,AAXX 27124 07650 02865 82108 10290 20180 30084 40120 58004 61000 70361 8808/ 91200 333 6100=
07650,1998-07-27 15:00:00,29,1011.5,-0.5,52,18,12000,18.52,,,270,,,,,,,,,,,wg-a,,,,AAXX 27154 07650 12662 72710 10290 20180 30079 40115 58005 60006 81282 91500=
07650,1998-07-27 18:00:00,27,1011.1,-0.4,48,15,18000,35.188,,,350,23.5,29.4,,,,,,,,,wg-a,,,,AAXX 27184 07650 12668 73519 10270 20150 30075 40111 55004 60006 81282 91800 333 10294 20235=
07650,1998-07-27 21:00:00,24,1012.6,1.4,57,15,18000,31.484,,,330,,,,,,,,,,17,wg-a,,,,AAXX 27214 07650 12668 73317 10240 20150 30089 40126 51014 60006 71792 8398/ 92100=
07650,1998-07-28 00:00:00,22,1013.2,0.6,69,16,20000,38.892,,,330,,,,,,,,,,1,wg-a,,,,AAXX 28004 07650 12870 23321 10220 20160 30095 40132 51006 60006 70191 82080 90000=
07650,1998-07-28 03:00:00,20,1012.7,-0.5,64,13,25000,25.928,,,340,,,,,,,,,,,wg-a,,,,AAXX 28034 07650 12/75 23414 10200 20130 30090 40127 56005 60006 80002 90300=
07650,1998-07-28 06:00:00,21,1012.9,0.2,69,15,75000,38.892,,,320,20,27.5,,,,,,,,,wg-a,,,,AAXX 28064 07650 02/89 23221 10210 20150 30092 40129 50002 60006 81032 90600 333 10275 20200 61000=
07650,1998-07-28 09:00:00,25,1012.2,-0.7,54,15,40000,42.596,,,330,,,,,,,,,,,wg-a,,,,AAXX 28094 07650 12/82 53323 10250 20150 30085 40122 58007 60006 82042 90900=
07650,1998-07-28 12:00:00,27,1012,-0.2,42,13,40000,42.596,,,350,,,,,,,,,,,wg-a,,,,AAXX 28124 07650 12682 73523 10270 20130 30083 40120 58002 60006 81182 91200=
07650,1998-07-28 15:00:00,29,1010.6,-1.3,37,13,40000,42.596,,,340,,,,,,,,,,,wg-a,,,,AAXX 28154 07650 12682 23423 10290 20130 30070 40106 57013 60006 81141 91500=
07650,1998-07-28 18:00:00,26,1010.4,-0.3,39,11,40000,53.708,,,350,20.8,29.1,,,,,,,,,wg-a,,,,AAXX 28184 07650 12/82 63529 10260 20110 30067 40104 56003 60006 81042 91800 333 10291 20208=
07650,1998-07-28 21:00:00,24,1012.2,1.8,47,12,40000,35.188,,,340,,,,,,,,,,,wg-a,,,,AAXX 28214 07650 12/82 33419 10240 20120 30085 40122 53018 60006 80002 92100=
07650,1998-07-29 00:00:00,23,1013.4,1.2,50,12,500,29.632,,,330,,,,,,,,,,,wg-a,,,,AAXX 29004 07650 12/00 23316 10230 20120 30097 40134 51012 60006 80002 90000=
07650,1998-07-29 03:00:00,22,1012.7,-0.7,57,13,500,22.224,,,330,,,,,,,,,,,wg-a,,,,AAXX 29034 07650 12/00 03312 10220 20130 30090 40127 58007 60006 80000 90300=
07650,1998-07-29 06:00:00,21,1012.8,0.1,60,13,75000,29.632,,,310,20.1,26.4,,,,,,,,,wg-a,,,,AAXX 29064 07650 02589 /3116 10210 20130 30091 40128 53001 60006 81500 90600 333 10264 20201 60004=
07650,1998-07-29 09:00:00,26,1012.8,0,45,13,75000,38.892,,,340,,,,,,,,,,,wg-a,,,,AAXX 29094 07650 12589 /3421 10260 20130 30091 40128 50000 60006 81500 90900=
07650,1998-07-29 12:00:00,29,1011.8,-0.9,37,13,10000,35.188,,,340,,,,,,,,,,,wg-a,,,,AAXX 29124 07650 12/60 /3419 10290 20130 30082 40118 57009 60006 91200=
07650,1998-07-29 15:00:00,32,1010.5,-1.3,32,13,75000,31.484,,,330,,,,,,,,,,,wg-a,,,,AAXX 29154 07650 12/89 03317 10320 20130 30069 40105 58013 60006 80000 91500=
07650,1998-07-29 18:00:00,31,1009.8,-0.7,31,12,50000,22.224,,,350,21.2,32.2,,,,,,,,,wg-a,,,,AAXX 29184 07650 12/84 03512 10310 20120 30062 40098 55007 60006 80000 91800 333 10322 20212=
07650,1998-07-29 21:00:00,25,1011.3,1.4,54,15,50000,3.704,,,240,,,,,,,,,,,wg-a,,,,AAXX 29214 07650 12/84 02402 10250 20150 30076 40113 53014 60006 80000 92100=
07650,1998-07-30 00:00:00,23,1011.2,-0.1,69,17,500,3.704,,,230,,,,,,,,,,,wg-a,,,,AAXX 30004 07650 12/00 02302 10230 20170 30075 40112 58001 60006 80000 90000=
07650,1998-07-30 03:00:00,21,1010.8,-0.4,73,16,500,7.408,,,240,,,,,,,,,,,wg-a,,,,AAXX 30034 07650 12/00 02404 10210 20160 30071 40108 58004 60006 80000 90300=
07650,1998-07-30 06:00:00,22,1011.9,1.1,69,16,40000,7.408,,,10,20.4,31.3,,,,,,,,,wg-a,,,,AAXX 30064 07650 02/82 00104 10220 20160 30082 40119 53011 60006 80000 90600 333 10313 20204 60004=
07650,1998-07-30 09:00:00,26,1012.5,0.6,48,14,500,11.112,,,280,,,,,,,,,,,wg-a,,,,AAXX 30094 07650 12/00 02806 10260 20140 30088 40125 53006 60006 80000 90900=
07650,1998-07-30 12:00:00,32,1011.7,-0.7,38,16,500,22.224,,,270,,,,,,,,,,,wg-a,,,,AAXX 30124 07650 12/00 02712 10320 20160 30081 40117 58007 60006 80000 91200=
07650,1998-07-30 15:00:00,30,1011.6,-0.1,38,14,500,22.224,,,270,,,,,,,,,,,wg-a,,,,AAXX 30154 07650 12500 /2712 10300 20140 30080 40116 55001 60006 81100 91500=
07650,1998-07-30 18:00:00,26,1012.1,0.4,61,18,500,22.224,,,270,21.9,32.1,,,,,,,,,wg-a,,,,AAXX 30184 07650 12/00 22712 10260 20180 30084 40121 53004 60006 81031 91800 333 10321 20219=
07650,1998-07-30 21:00:00,24,1013.1,1,78,20,15000,11.112,,,180,,,,,,,,,,,wg-a,,,,AAXX 30214 07650 12/65 21806 10240 20200 30094 40131 51010 60006 81081 92100=
07650,1998-07-31 00:00:00,23,1012.4,-0.7,83,20,15000,14.816,,,150,,,,,,,,,,,wg-a,,,,AAXX 31004 07650 12/65 21508 10230 20200 30087 40124 58007 60006 82080 90000=
07650,1998-07-31 03:00:00,22,1012.3,-0.1,88,20,8000,3.704,,,20,,,,,,,,,,,wg-a,,,,AAXX 31034 07650 12458 50202 10220 20200 30086 40123 55001 60006 85500 90300=
07650,1998-07-31 06:00:00,22,1012.8,0.5,88,20,10000,11.112,,,330,21,26.4,,,,,,,,,wg-a,,,,AAXX 31064 07650 02460 73306 10220 20200 30091 40128 53005 60006 82582 90600 333 10264 20210 60004=
07650,1998-07-31 09:00:00,24,1013.3,0.5,78,20,20000,11.112,,,300,,,,,,,,,,,wg-a,,,,AAXX 31094 07650 12570 13006 10240 20200 30096 40133 50005 60006 81100 90900=
07650,1998-07-31 12:00:00,30,1012.9,-0.3,43,16,40000,18.52,,,280,,,,,,,,,,,wg-a,,,,AAXX 31124 07650 12682 42810 10300 20160 30093 40129 58003 60006 81132 91200=
07650,1998-07-31 15:00:00,28,1012.8,-0.1,55,18,35000,29.632,,,270,,,,,,,,,,,wg-a,,,,AAXX 31154 07650 12681 52716 10280 20180 30092 40128 56001 60006 81832 91500=
07650,1998-07-31 18:00:00,27,1012.8,-0.1,58,18,500,25.928,,,270,20.5,31.4,,,,,,,,,wg-a,,,,AAXX 31184 07650 12600 42714 10270 20180 30091 40128 55001 60006 81182 91800 333 10314 20205=
07650,1998-07-31 21:00:00,24,1013.9,1.1,65,17,500,7.408,,,220,,,,,,,,,,,wg-a,,,,AAXX 31214 07650 12/00 02204 10240 20170 30102 40139 51011 60006 80000 92100=
07650,1998-08-01 00:00:00,22,1013.1,-0.8,69,16,500,7.408,,,150,,,,,,,,,,,wg-a,,,,AAXX 01004 07650 12/00 01504 10220 20160 30094 40131 58008 60006 80000 90000=
07650,1998-08-01 03:00:00,21,1011.8,-1.3,73,16,500,7.408,,,180,,,,,,,,,,,wg-a,,,,AAXX 01034 07650 12/00 01804 10210 20160 30081 40118 56013 60006 80000 90300=
07650,1998-08-01 06:00:00,23,1012.1,0.3,65,16,25000,7.408,,,140,20.3,27.1,,,,,,,,,wg-a,,,,AAXX 01064 07650 02/75 11404 10230 20160 30084 40121 53003 60006 81080 90600 333 10271 20203 60004=
07650,1998-08-01 09:00:00,27,1012.2,0.2,62,19,20000,14.816,,,190,,,,,,,,,,,wg-a,,,,AAXX 01094 07650 12570 21908 10270 20190 30086 40122 50002 60006 82230 90900=
07650,1998-08-01 12:00:00,28,1012.6,0.4,58,19,25000,29.632,,,200,,,,,,,,,,,wg-a,,,,AAXX 01124 07650 12575 32016 10280 20190 30090 40126 53004 60006 82289 91200=
07650,1998-08-01 15:00:00,29,1011.9,-0.7,48,17,40000,14.816,,,320,,,,,,,,,,,wg-a,,,,AAXX 01154 07650 12682 33208 10290 20170 30083 40119 58007 60006 82232 91500=
07650,1998-08-01 18:00:00,28,1011.6,-0.3,48,16,40000,11.112,,,260,23.2,29.8,,,,,,,,,wg-a,,,,AAXX 01184 07650 12682 32606 10280 20160 30080 40116 55003 60006 81282 91800 333 10298 20232=
07650,1998-08-01 21:00:00,23,1013.4,1.7,57,14,25000,14.816,,,330,,,,,,,,,,,wg-a,,,,AAXX 01214 07650 12/75 23308 10230 20140 30097 40134 51017 60006 80002 92100=
07650,1998-08-02 00:00:00,20,1013,-0.4,64,13,25000,7.408,,,330,,,,,,,,,,,wg-a,,,,AAXX 02004 07650 12/75 23304 10200 20130 30093 40130 58004 60006 80002 90000=
07650,1998-08-02 03:00:00,18,1013.4,0.3,77,14,20000,14.816,,,20,,,,,,,,,,,wg-a,,,,AAXX 02034 07650 12870 30208 10180 20140 30096 40134 53003 60006 81032 90300=
07650,1998-08-02 06:00:00,19,1014.5,1.1,73,14,20000,14.816,,,10,17.3,27.8,,,,,,,,,wg-a,,,,AAXX 02064 07650 02670 50108 10190 20140 30107 40145 53011 60006 81530 90600 333 10278 20173 60004=
07650,1998-08-02 09:00:00,21,1015.9,1.5,64,14,25000,35.188,,,350,,,,,,,,,,,wg-a,,,,AAXX 02094 07650 12675 73519 10210 20140 30122 40159 53015 60006 8153/ 90900=
07650,1998-08-02 12:00:00,25,1015.9,0,47,13,500,29.632,,,340,,,,,,,,,,,wg-a,,,,AAXX 02124 07650 12600 73416 10250 20130 30122 40159 50000 60006 81131 91200=
07650,1998-08-02 15:00:00,21,1017.3,1.3,64,14,500,38.892,,,320,,,,,,,,,,,wg-a,,,,AAXX 02154 07650 12600 73221 10210 20140 30135 40173 53013 60006 8127/ 91500=
07650,1998-08-02 18:00:00,18,1017.6,0.3,83,15,11000,18.52,,,20,18.1,26.3,,,,,,,,,wg-a,,,,AAXX 02184 07650 12/61 /0210 10180 20150 30138 40176 53003 60006 91800 333 10263 20181=
07650,1998-08-02 21:00:00,18,1017.7,0.1,83,15,20000,7.408,,,90,,,,,,,,,,,wg-a,,,,AAXX 02214 07650 12670 40904 10180 20150 30139 40177 53001 60006 81531 92100=
07650,1998-08-03 00:00:00,17,1019,1.3,88,15,20000,14.816,,,340,,,,,,,,,,,wg-a,,,,AAXX 03004 07650 12570 43408 10170 20150 30152 40190 53013 60006 83530 90000=
07650,1998-08-03 03:00:00,16,1017.9,-1.1,88,14,15000,18.52,,,340,,,,,,,,,,,wg-a,,,,AAXX 03034 07650 12665 53410 10160 20140 30141 40179 58011 60006 84530 90300=
07650,1998-08-03 06:00:00,17,1018.2,0.3,82,14,20000,18.52,,,330,15.9,18.8,,,,,,,,21,wg-a,,,,AAXX 03064 07650 02470 73310 10170 20140 30144 40182 53003 61000 72161 875// 90600 333 10188 20159 6100=
07650,1998-08-03 09:00:00,19,1018.7,0.5,73,14,20000,11.112,,,30,,,,,,,,,,,wg-a,,,,AAXX 03094 07650 12470 70306 10190 20140 30149 40187 53005 60006 83872 90900=
07650,1998-08-03 12:00:00,20,1017.9,-0.8,78,16,12000,11.112,,,70,,,,1,,,,,,61,wg-a,,,,AAXX 03124 07650 02462 70706 10200 20160 30141 40179 58008 60016 76162 8587/ 91200 333 60017=
07650,1998-08-03 15:00:00,18,1017,-0.9,94,17,500,14.816,,,350,,,,6,,,,,,63,wg-a,,,,AAXX 03154 07650 12400 83508 10180 20170 30132 40170 58009 60067 76366 8657/ 91500=
07650,1998-08-03 18:00:00,18,1016.2,-0.8,94,17,7000,14.816,,,290,16.5,21.3,,,,,,,,61,wg-a,,,,AAXX 03184 07650 02257 82908 10180 20170 30124 40162 56008 61000 76166 8687/ 91800 333 10213 20165 6028=
07650,1998-08-03 21:00:00,17,1018.4,2.2,94,16,15000,7.408,,,90,,,,0,,,,,,1,wg-a,,,,AAXX 03214 07650 12265 70904 10170 20160 30146 40184 52022 60007 70162 848// 92100=
07650,1998-08-04 00:00:00,16,1019.1,0.7,100,16,15000,7.408,,,90,,,,,,,,,,1,wg-a,,,,AAXX 04004 07650 12465 30904 10160 20160 30153 40191 50007 60006 70161 82882 90000=
07650,1998-08-04 03:00:00,17,1018.1,-1,94,16,25000,7.408,,,180,,,,,,,,,,,wg-a,,,,AAXX 04034 07650 12475 31804 10170 20160 30143 40181 58010 60006 81580 90300=
07650,1998-08-04 06:00:00,18,1019.1,1,94,17,40000,3.704,,,150,16,18.1,,,,,35,,,,wg-a,,,,AAXX 04064 07650 02482 51502 10180 20170 30153 40191 53010 60006 83530 90600 333 10181 20160 60354=
07650,1998-08-04 09:00:00,20,1020.9,1.8,88,18,20000,11.112,,,70,,,,0,,,,,,60,wg-a,,,,AAXX 04094 07650 12570 70706 10200 20180 30171 40209 53018 60007 76062 86870 90900=
07650,1998-08-04 12:00:00,25,1020,-0.8,69,19,35000,18.52,,,290,,,,1,,,,,,1,wg-a,,,,AAXX 04124 07650 02581 62910 10250 20190 30163 40200 56008 60016 70162 81132 91200 333 60017=
07650,1998-08-04 18:00:00,27,1018.9,-0.1,51,16,20000,11.112,,,250,17.6,28.1,,,,,,,,,wg-a,,,,AAXX 04184 07650 12570 32506 10270 20160 30152 40189 55001 60006 81402 91800 333 10281 20176=
07650,1998-08-05 00:00:00,21,1018.5,-1.1,73,16,20000,3.704,,,140,,,,,,,,,,,wg-a,,,,AAXX 05004 07650 12/70 01402 10210 20160 30147 40185 58011 60006 80000 90000=
07650,1998-08-05 03:00:00,20,1018,-0.5,78,16,500,11.112,,,30,,,,,,,,,,,wg-a,,,,AAXX 05034 07650 12/00 00306 10200 20160 30142 40180 55005 60006 80000 90300=
07650,1998-08-05 06:00:00,21,1017.8,-0.1,78,17,500,11.112,,,30,18.8,27.2,,,,,1,,,,wg-a,,,,AAXX 05064 07650 02/00 00306 10210 20170 30141 40178 58001 60006 80000 90600 333 10272 20188 60014=
07650,1998-08-05 09:00:00,27,1017.9,0.1,58,18,10000,18.52,,,360,,,,,,,,,,,wg-a,,,,AAXX 05094 07650 12/60 /3610 10270 20180 30142 40179 51001 60006 90900=
07650,1998-08-05 12:00:00,30,1017.5,-0.3,49,18,50000,25.928,,,350,,,,,,,,,,,wg-a,,,,AAXX 05124 07650 12/84 03514 10300 20180 30139 40175 56003 60006 80000 91200=
07650,1998-08-05 15:00:00,31,1016.9,-0.6,43,17,50000,31.484,,,350,,,,,,,,,,,wg-a,,,,AAXX 05154 07650 12684 /3517 10310 20170 30133 40169 58006 60006 81203 91500=
07650,1998-08-05 18:00:00,28,1016.5,-0.4,51,17,50000,25.928,,,360,21.1,31.3,,,,,,,,,wg-a,,,,AAXX 05184 07650 12/84 23614 10280 20170 30129 40165 58004 60006 80003 91800 333 10313 20211=
07650,1998-08-05 21:00:00,25,1017.4,0.8,57,16,20000,14.816,,,20,,,,,,,,,,,wg-a,,,,AAXX 05214 07650 12/70 00208 10250 20160 30137 40174 53008 60006 80000 92100=
07650,1998-08-06 00:00:00,22,1018.2,0.8,65,15,500,18.52,,,40,,,,,,,,,,,wg-a,,,,AAXX 06004 07650 12/00 00410 10220 20150 30145 40182 52008 60006 80000 90000=
07650,1998-08-06 03:00:00,20,1018.2,-0.1,78,16,18000,7.408,,,170,,,,,,,,,,,wg-a,,,,AAXX 06034 07650 12/68 11704 10200 20160 30144 40182 55001 60006 80002 90300=
07650,1998-08-06 06:00:00,22,1019.6,1.5,69,16,18000,3.704,,,180,19.8,28.3,,,,,,,,,wg-a,,,,AAXX 06064 07650 02/68 01802 10220 20160 30159 40196 53015 60006 80000 90600 333 10283 20198 60004=
07650,1998-08-06 09:00:00,28,1020.1,0.5,51,17,500,11.112,,,270,,,,,,,,,,,wg-a,,,,AAXX 06094 07650 12/00 02706 10280 20170 30164 40201 51005 60006 80000 90900=
07650,1998-08-06 12:00:00,32,1019.8,-0.2,43,18,40000,14.816,,,300,,,,,,,,,,,wg-a,,,,AAXX 06124 07650 12582 /3008 10320 20180 30162 40198 58002 60006 81100 91200=
07650,1998-08-06 15:00:00,32,1018.7,-1.1,43,18,40000,14.816,,,290,,,,,,,,,,,wg-a,,,,AAXX 06154 07650 12/82 /2908 10320 20180 30151 40187 58011 60006 80000 91500=
07650,1998-08-06 18:00:00,30,1017.5,-1.2,43,16,40000,22.224,,,340,21.5,32.6,,,,,,,,,wg-a,,,,AAXX 06184 07650 12/82 03412 10300 20160 30139 40175 56012 60006 80000 91800 333 10326 20215=
07650,1998-08-06 21:00:00,26,1018.4,0.8,51,15,40000,14.816,,,330,,,,,,,,,,,wg-a,,,,AAXX 06214 07650 12/82 03308 10260 20150 30147 40184 52008 60006 80000 92100=
07650,1998-08-07 00:00:00,22,1018,-0.4,65,15,500,7.408,,,160,,,,,,,,,,,wg-a,,,,AAXX 07004 07650 12/00 01604 10220 20150 30143 40180 58004 60006 80000 90000=
07650,1998-08-07 03:00:00,20,1017.8,-0.3,73,15,500,3.704,,,120,,,,,,,,,,,wg-a,,,,AAXX 07034 07650 12/00 01202 10200 20150 30140 40178 56003 60006 80000 90300=
07650,1998-08-07 06:00:00,21,1018.4,0.7,78,17,15000,3.704,,,180,18.9,29.9,,,,,,,,,wg-a,,,,AAXX 07064 07650 02/65 01802 10210 20170 30147 40184 53007 60006 80000 90600 333 10299 20189 60004=
07650,1998-08-07 09:00:00,27,1018.7,0.3,58,18,14000,7.408,,,290,,,,,,,,,,,wg-a,,,,AAXX 07094 07650 12/64 02904 10270 20180 30150 40187 52003 60006 80000 90900=
07650,1998-08-07 12:00:00,30,1018.9,0.3,38,14,500,25.928,,,200,,,,,,,,,,,wg-a,,,,AAXX 07124 07650 12/00 12014 10300 20140 30153 40189 51003 60006 80001 91200=
07650,1998-08-07 15:00:00,29,1018.6,-0.3,45,16,25000,14.816,,,230,,,,,,,,,,,wg-a,,,,AAXX 07154 07650 12/75 12308 10290 20160 30150 40186 58003 60006 81032 91500=
07650,1998-08-07 18:00:00,28,1018.6,-0.1,45,15,25000,14.816,,,280,21.1,30.9,,,,,,,,,wg-a,,,,AAXX 07184 07650 12/75 12808 10280 20150 30149 40186 55001 60006 80002 91800 333 10309 20211=
07650,1998-08-07 21:00:00,24,1019,0.4,57,15,25000,7.408,,,140,,,,,,,,,,,wg-a,,,,AAXX 07214 07650 12/75 11404 10240 20150 30153 40190 52004 60006 80001 92100=
07650,1998-08-08 00:00:00,22,1019,0,65,15,25000,3.704,,,140,,,,,,,,,,,wg-a,,,,AAXX 08004 07650 12/75 01402 10220 20150 30153 40190 50000 60006 80000 90000=
07650,1998-08-08 03:00:00,21,1017.9,-1.2,64,14,25000,7.408,,,50,,,,,,,,,,,wg-a,,,,AAXX 08034 07650 12/75 00504 10210 20140 30141 40179 58012 60006 80000 90300=
07650,1998-08-08 09:00:00,27,1018.1,0.4,54,17,15000,7.408,,,290,,,,,,,,,,,wg-a,,,,AAXX 08094 07650 12/65 02904 10270 20170 30144 40181 53004 60006 80000 90900=
07650,1998-08-08 12:00:00,32,1017.5,-0.5,36,15,15000,14.816,,,300,,,,,,,,,,,wg-a,,,,AAXX 08124 07650 12/65 03008 10320 20150 30139 40175 58005 60006 80000 91200=
07650,1998-08-08 15:00:00,32,1016.7,-0.8,36,15,15000,22.224,,,280,,,,,,,,,,,wg-a,,,,AAXX 08154 07650 12/65 02812 10320 20150 30131 40167 56008 60006 80000 91500=
07650,1998-08-08 18:00:00,28,1016.7,-0,48,16,18000,14.816,,,270,22.3,33,,,,,,,,,wg-a,,,,AAXX 08184 07650 12/68 02708 10280 20160 30131 40167 55000 60006 80000 91800 333 10330 20223=
07650,1998-08-08 21:00:00,24,1017.8,1,54,14,18000,7.408,,,170,,,,,,,,,,,wg-a,,,,AAXX 08214 07650 12/68 01704 10240 20140 30141 40178 53010 60006 80000 92100=
07650,1998-08-09 00:00:00,21,1017.4,-0.4,64,14,14000,7.408,,,160,,,,,,,,,,,wg-a,,,,AAXX 09004 07650 12/64 01604 10210 20140 30137 40174 58004 60006 80000 90000=
07650,1998-08-09 03:00:00,19,1016.9,-0.6,73,14,14000,11.112,,,160,,,,,,,,,,,wg-a,,,,AAXX 09034 07650 12/64 01606 10190 20140 30131 40169 56006 60006 80000 90300=
07650,1998-08-09 06:00:00,21,1016.6,-0.2,64,14,18000,3.704,,,150,18.5,28.3,,,,,,,,,wg-a,,,,AAXX 09064 07650 02/68 01502 10210 20140 30129 40166 55002 60006 80000 90600 333 10283 20185 60004=
07650,1998-08-09 09:00:00,27,1017,0.4,51,16,12000,3.704,,,290,,,,,,,,,,,wg-a,,,,AAXX 09094 07650 12/62 02902 10270 20160 30133 40170 53004 60006 80000 90900=
07650,1998-08-09 18:00:00,28,1015.3,,48,16,500,7.408,,,220,20.7,32.2,,,,,,,,,wg-a,,,,AAXX 09184 07650 12/00 32204 10280 20160 30116 40153 60006 80001 91800 333 10322 20207=
07650,1998-08-09 21:00:00,24,1016.2,0.9,57,15,20000,11.112,,,160,,,,,,,,,,,wg-a,,,,AAXX 09214 07650 12/70 21606 10240 20150 30125 40162 52009 60006 80001 92100=
07650,1998-08-10 00:00:00,21,1016,-0.2,64,14,20000,7.408,,,160,,,,,,,,,,,wg-a,,,,AAXX 10004 07650 12/70 21604 10210 20140 30123 40160 58002 60006 80001 90000=
07650,1998-08-10 03:00:00,19,1016,-0.1,73,14,20000,11.112,,,150,,,,,,,,,,,wg-a,,,,AAXX 10034 07650 12/70 21506 10190 20140 30122 40160 56001 60006 80001 90300=
07650,1998-08-10 06:00:00,22,1016.5,0.6,60,14,20000,7.408,,,100,18.9,27.9,,,,,,,,,wg-a,,,,AAXX 10064 07650 02/70 41004 10220 20140 30128 40165 51006 60006 80001 90600 333 10279 20189 60004=
07650,1998-08-10 09:00:00,26,1017.4,0.9,54,16,15000,11.112,,,280,,,,,,,,,,,wg-a,,,,AAXX 10094 07650 12/65 52806 10260 20160 30137 40174 51009 60006 80002 90900=
07650,1998-08-10 12:00:00,30,1017.6,0.3,52,19,20000,18.52,,,230,,,,,,,,,,,wg-a,,,,AAXX 10124 07650 12/70 62310 10300 20190 30140 40176 50003 60006 80002 91200=
07650,1998-08-10 15:00:00,29,1017.1,-0.5,55,19,20000,22.224,,,220,,,,,,,,,,,wg-a,,,,AAXX 10154 07650 12/70 52212 10290 20190 30135 40171 58005 60006 80002 91500=
07650,1998-08-10 18:00:00,26,1017.3,0.1,79,22,20000,14.816,,,220,21.6,30.6,,,,,,,,,wg-a,,,,AAXX 10184 07650 12470 42208 10260 20220 30136 40173 53001 60006 81502 91800 333 10306 20216=
07650,1998-08-10 21:00:00,24,1018.4,1.1,89,22,10000,7.408,,,210,,,,,,,,,,,wg-a,,,,AAXX 10214 07650 12/60 22104 10240 20220 30147 40184 52011 60006 80002 92100=
07650,1998-08-11 00:00:00,23,1018.5,0.1,94,22,7000,0,,,0,,,,,,,,,,,wg-a,,,,AAXX 11004 07650 12357 40000 10230 20220 30148 40185 51001 60006 84600 90000=
07650,1998-08-11 03:00:00,23,1018,-0.5,94,22,4000,11.112,,,360,,,,,,,,,,10,wg-a,,,,AAXX 11034 07650 12240 73606 10230 20220 30143 40180 56005 60006 71011 876// 90300=
07650,1998-08-11 06:00:00,23,1018.5,0.5,83,20,3000,7.408,,,160,22.1,26.5,,,,,,,,10,wg-a,,,,AAXX 11064 07650 02130 21604 10230 20200 30148 40185 53005 60006 71011 82600 90600 333 10265 20221 60004=
07650,1998-08-11 09:00:00,26,1019.3,0.8,79,22,4500,3.704,,,310,,,,,,,,,,10,wg-a,,,,AAXX 11094 07650 12/45 /3102 10260 20220 30156 40193 51008 60006 71000 80002 90900=
07650,1998-08-11 12:00:00,30,1018.3,-0.9,62,22,6000,18.52,,,270,,,,,,,,,,,wg-a,,,,AAXX 11124 07650 12/56 /2710 10300 20220 30147 40183 58009 60006 80002 91200=
07650,1998-08-11 15:00:00,30,1017.7,-0.6,59,21,500,14.816,,,220,,,,,,,,,,,wg-a,,,,AAXX 11154 07650 12/00 /2208 10300 20210 30141 40177 57006 60006 80002 91500=
07650,1998-08-11 18:00:00,27,1018,0.2,74,22,6000,11.112,,,290,22.6,30.9,,,,,,,,,wg-a,,,,AAXX 11184 07650 12/56 /2906 10270 20220 30143 40180 53002 60006 80002 91800 333 10309 20226=
07650,1998-08-11 21:00:00,25,1018.5,0.5,83,22,7000,7.408,,,270,,,,,,,,,,,wg-a,,,,AAXX 11214 07650 12/57 /2704 10250 20220 30148 40185 53005 60006 80002 92100=
07650,1998-08-12 00:00:00,23,1017.8,-0.7,89,21,6000,3.704,,,230,,,,,,,,,,,wg-a,,,,AAXX 12004 07650 12/56 02302 10230 20210 30141 40178 56007 60006 80000 90000=
07650,1998-08-12 03:00:00,22,1017,-0.8,88,20,4500,7.408,,,160,,,,,,,,,,10,wg-a,,,,AAXX 12034 07650 12/45 01604 10220 20200 30133 40170 58008 60006 71000 80000 90300=
07650,1998-08-12 06:00:00,23,1016.5,-0.5,83,20,3000,3.704,,,160,21.5,27.4,,,,,,,,10,wg-a,,,,AAXX 12064 07650 02/30 /1602 10230 20200 30128 40165 56005 60006 71000 80001 90600 333 10274 20215 60004=
07650,1998-08-12 09:00:00,27,1017,0.5,62,19,4000,3.704,,,320,,,,,,,,,,,wg-a,,,,AAXX 12094 07650 12/40 /3202 10270 20190 30133 40170 53005 60006 90900=
07650,1998-08-12 12:00:00,31,1016,-0.9,55,21,7000,14.816,,,250,,,,,,,,,,,wg-a,,,,AAXX 12124 07650 12/57 /2508 10310 20210 30124 40160 58009 60006 91200=
07650,1998-08-12 18:00:00,27,1014.8,0.2,62,19,9000,3.704,,,230,23.1,31.4,,,,,,,,,wg-a,,,,AAXX 12184 07650 12659 /2302 10270 20190 30111 40148 51002 60006 81182 91800 333 10314 20231=
07650,1998-08-12 21:00:00,25,1014.8,-0,69,19,7000,7.408,,,150,,,,,,,,,,,wg-a,,,,AAXX 12214 07650 12657 /1504 10250 20190 30111 40148 55000 60006 81582 92100=
07650,1998-08-13 00:00:00,24,1014.3,-0.5,83,21,7000,7.408,,,160,,,,,,,,,,,wg-a,,,,AAXX 13004 07650 12457 41604 10240 20210 30106 40143 58005 60006 81602 90000=
07650,1998-08-13 03:00:00,23,1013,-1.3,94,22,7000,3.704,,,340,,,,,,,,,,,wg-a,,,,AAXX 13034 07650 12457 43402 10230 20220 30093 40130 56013 60006 82602 90300=
07650,1998-08-13 06:00:00,23,1012.6,-0.4,78,19,500,3.704,,,190,21.5,27.3,,,,,,,,,wg-a,,,,AAXX 13064 07650 02/00 /1902 10230 20190 30089 40126 56004 60006 90600 333 10273 20215 60004=
07650,1998-08-13 09:00:00,26,1013.1,0.5,65,19,6000,14.816,,,320,,,,,,,,,,,wg-a,,,,AAXX 13094 07650 12/56 /3208 10260 20190 30094 40131 51005 60006 80002 90900=
07650,1998-08-13 12:00:00,33,1011.9,-1.1,44,19,20000,18.52,,,270,,,,,,,,,,,wg-a,,,,AAXX 13124 07650 12/70 12710 10330 20190 30083 40119 58011 60006 80002 91200=
07650,1998-08-13 15:00:00,34,1010.5,-1.4,36,17,20000,25.928,,,340,,,,,,,,,,,wg-a,,,,AAXX 13154 07650 12/70 53414 10340 20170 30069 40105 56014 60006 80002 91500=
07650,1998-08-13 18:00:00,31,1010.4,-0.1,40,16,20000,18.52,,,310,22.8,35.3,,,,,,,,,wg-a,,,,AAXX 13184 07650 12/70 53110 10310 20160 30068 40104 55001 60006 80002 91800 333 10353 20228=
07650,1998-08-13 21:00:00,27,1011.3,0.9,62,19,12000,18.52,,,310,,,,,,,,,,,wg-a,,,,AAXX 13214 07650 12662 /3110 10270 20190 30077 40113 50009 60006 81482 92100=
07650,1998-08-14 00:00:00,26,1010.7,-0.7,54,16,12000,25.928,,,340,,,,,,,,,,,wg-a,,,,AAXX 14004 07650 12/62 03414 10260 20160 30070 40107 58007 60006 80000 90000=
07650,1998-08-14 03:00:00,24,1010.4,-0.3,57,15,20000,25.928,,,340,,,,,,,,,,,wg-a,,,,AAXX 14034 07650 12/70 03414 10240 20150 30067 40104 58003 60006 80000 90300=
07650,1998-08-14 06:00:00,22,1010.9,0.5,53,12,20000,22.224,,,340,21.8,30.7,,,,,,,,,wg-a,,,,AAXX 14064 07650 02/70 03412 10220 20120 30072 40109 52005 60006 80000 90600 333 10307 20218 60004=
07650,1998-08-14 09:00:00,26,1011.4,0.5,48,14,500,18.52,,,330,,,,,,,,,,,wg-a,,,,AAXX 14094 07650 12/00 03310 10260 20140 30077 40114 53005 60006 80000 90900=
07650,1998-08-14 12:00:00,30,1010.9,-0.4,35,13,500,22.224,,,300,,,,,,,,,,,wg-a,,,,AAXX 14124 07650 12/00 03012 10300 20130 30073 40109 58004 60006 80000 91200=
07650,1998-08-14 15:00:00,32,1010,-0.9,28,11,500,14.816,,,280,,,,,,,,,,,wg-a,,,,AAXX 14154 07650 12500 12808 10320 20110 30064 40100 58009 60006 81140 91500=
07650,1998-08-15 03:00:00,21,1013.7,0.8,78,17,16000,7.408,,,140,,,,,,,,,,,wg-a,,,,AAXX 15034 07650 12/66 01404 10210 20170 30100 40137 53008 60006 80000 90300=
07650,1998-08-15 06:00:00,23,1014.3,0.6,73,18,10000,7.408,,,140,20.7,27.8,,,,,,,,,wg-a,,,,AAXX 15064 07650 02/60 01404 10230 20180 30106 40143 53006 60006 80000 90600 333 10278 20207 60004=
07650,1998-08-15 09:00:00,29,1015.3,1.1,55,19,15000,3.704,,,300,,,,,,,,,,,wg-a,,,,AAXX 15094 07650 12/65 03002 10290 20190 30117 40153 51011 60006 80000 90900=
07650,1998-08-15 12:00:00,30,1015.4,0.1,55,20,14000,25.928,,,220,,,,,,,,,,,wg-a,,,,AAXX 15124 07650 12664 /2214 10300 20200 30118 40154 53001 60006 81200 91200=
07650,1998-08-15 15:00:00,29,1015.4,0,66,22,14000,22.224,,,190,,,,,,,,,,,wg-a,,,,AAXX 15154 07650 12664 31912 10290 20220 30118 40154 50000 60006 81302 91500=
07650,1998-08-15 18:00:00,26,1016.3,0.8,79,22,8000,14.816,,,210,22.6,31.3,,,,,,,,,wg-a,,,,AAXX 15184 07650 12458 52108 10260 20220 30126 40163 53008 60006 81933 91800 333 10313 20226=
07650,1998-08-16 15:00:00,29,1017.9,-0.4,66,22,12000,22.224,,,200,,,,,,,,,,,wg-a,,,,AAXX 16154 07650 12662 /2012 10290 20220 30143 40179 58004 60006 81202 91500=
07650,1998-08-16 21:00:00,24,1018.9,0.6,89,22,12000,0,,,0,,,,,,,,,,,wg-a,,,,AAXX 16214 07650 12662 50000 10240 20220 30152 40189 50006 60006 81482 92100=
07650,1998-08-17 00:00:00,24,1017.4,-1.5,74,19,20000,7.408,,,160,,,,,,,,,,,wg-a,,,,AAXX 17004 07650 12/70 21604 10240 20190 30137 40174 56015 60006 80001 90000=
07650,1998-08-17 03:00:00,22,1017.2,-0.2,78,18,15000,7.408,,,160,,,,,,,,,,,wg-a,,,,AAXX 17034 07650 12/65 21604 10220 20180 30135 40172 55002 60006 80001 90300=
07650,1998-08-17 06:00:00,23,1017.5,0.3,69,17,18000,7.408,,,90,21.3,27,,,,,,,,,wg-a,,,,AAXX 17064 07650 02668 /0904 10230 20170 30138 40175 53003 60006 81501 90600 333 10270 20213 60004=
07650,1998-08-17 09:00:00,28,1017.8,0.3,58,19,18000,3.704,,,300,,,,,,,,,,,wg-a,,,,AAXX 17094 07650 12/68 13002 10280 20190 30141 40178 50003 60006 80001 90900=
07650,1998-08-17 12:00:00,32,1016.8,-0.9,38,16,25000,14.816,,,270,,,,,,,,,,,wg-a,,,,AAXX 17124 07650 12675 /2708 10320 20160 30132 40168 58009 60006 81202 91200=
07650,1998-08-17 15:00:00,33,1014.6,-2.2,39,17,25000,18.52,,,270,,,,,,,,,,,wg-a,,,,AAXX 17154 07650 12675 /2710 10330 20170 30110 40146 56022 60006 81301 91500=
07650,1998-08-17 18:00:00,29,1014.7,0.1,55,19,22000,18.52,,,260,22.9,33.3,,,,,,,,,wg-a,,,,AAXX 17184 07650 12772 /2610 10290 20190 30111 40147 53001 60006 82402 91800 333 10333 20229=
07650,1998-08-17 21:00:00,26,1016,1.2,70,20,20000,3.704,,,20,,,,,,,,,,,wg-a,,,,AAXX 17214 07650 12770 40202 10260 20200 30123 40160 50012 60006 81482 92100=
07650,1998-08-18 00:00:00,24,1014.6,-1.4,78,20,20000,11.112,,,110,,,,,,,,,,,wg-a,,,,AAXX 18004 07650 12770 51106 10240 20200 30109 40146 58014 60006 82532 90000=
07650,1998-08-18 03:00:00,23,1014,-0.6,78,19,17000,11.112,,,30,,,,,,,,,,,wg-a,,,,AAXX 18034 07650 12667 /0306 10230 20190 30103 40140 58006 60006 82532 90300=
07650,1998-08-18 06:00:00,23,1014.1,0.1,78,19,10000,3.704,,,110,22.7,29,,,,,,,,21,wg-a,,,,AAXX 18064 07650 02660 71102 10230 20190 30104 40141 53001 61000 72162 8358/ 90600 333 10290 20227 6100=
07650,1998-08-18 09:00:00,25,1015.5,1.4,69,19,15000,7.408,,,320,,,,,,,,,,,wg-a,,,,AAXX 18094 07650 12565 73204 10250 20190 30118 40155 51014 60006 8387/ 90900=
07650,1998-08-18 12:00:00,27,1014.1,-1.4,62,19,20000,3.704,,,30,,,,,,,,,,,wg-a,,,,AAXX 18124 07650 12570 70302 10270 20190 30104 40141 58014 60006 81132 91200=
07650,1998-08-18 15:00:00,29,1012.7,-1.3,55,19,20000,25.928,,,260,,,,,,,,,,,wg-a,,,,AAXX 18154 07650 12570 /2614 10290 20190 30091 40127 56013 60006 83832 91500=
07650,1998-08-18 18:00:00,26,1012.9,0.1,65,19,11000,22.224,,,270,23.2,30.4,,,,,,,,,wg-a,,,,AAXX 18184 07650 12/61 /2712 10260 20190 30092 40129 53001 60006 91800 333 10304 20232=
07650,1998-08-18 21:00:00,24,1013.3,0.4,74,19,20000,7.408,,,290,,,,,,,,,,,wg-a,,,,AAXX 18214 07650 12/70 22904 10240 20190 30096 40133 50004 60006 80002 92100=
07650,1998-08-19 00:00:00,23,1013.4,0.1,69,17,20000,11.112,,,10,,,,,,,,,,,wg-a,,,,AAXX 19004 07650 12/70 20106 10230 20170 30097 40134 53001 60006 80002 90000=
07650,1998-08-19 03:00:00,23,1013.4,-0,65,16,20000,22.224,,,350,,,,,,,,,,,wg-a,,,,AAXX 19034 07650 12/70 13512 10230 20160 30097 40134 55000 60006 80002 90300=
07650,1998-08-19 06:00:00,23,1014.1,0.7,65,16,25000,18.52,,,340,21.8,26.3,,,,,,,,,wg-a,,,,AAXX 19064 07650 02/75 03410 10230 20160 30104 40141 53007 60006 80000 90600 333 10263 20218 60004=
07650,1998-08-19 09:00:00,27,1014.3,0.2,54,17,40000,22.224,,,350,,,,,,,,,,,wg-a,,,,AAXX 19094 07650 12/82 03512 10270 20170 30106 40143 50002 60006 80000 90900=
07650,1998-08-19 12:00:00,32,1013.8,-0.4,38,16,40000,18.52,,,290,,,,,,,,,,,wg-a,,,,AAXX 19124 07650 12682 /2910 10320 20160 30102 40138 58004 60006 81100 91200=
07650,1998-08-19 15:00:00,33,1012.9,-0.9,39,17,500,25.928,,,290,,,,,,,,,,,wg-a,,,,AAXX 19154 07650 12600 22914 10330 20170 30093 40129 56009 60006 81202 91500=
07650,1998-08-19 18:00:00,29,1013.2,0.3,45,16,20000,25.928,,,270,22.6,33,,,,,,,,,wg-a,,,,AAXX 19184 07650 12670 22714 10290 20160 30096 40132 53003 60006 81202 91800 333 10330 20226=
07650,1998-08-19 21:00:00,27,1014.9,1.6,54,17,20000,18.52,,,300,,,,,,,,,,,wg-a,,,,AAXX 19214 07650 12/70 03010 10270 20170 30112 40149 51016 60006 80000 92100=
07650,1998-08-20 00:00:00,23,1015,0.1,61,15,20000,7.408,,,20,,,,,,,,,,,wg-a,,,,AAXX 20004 07650 12/70 10204 10230 20150 30113 40150 53001 60006 80002 90000=
07650,1998-08-20 03:00:00,20,1014.8,-0.2,73,15,20000,7.408,,,160,,,,,,,,,,,wg-a,,,,AAXX 20034 07650 12/70 01604 10200 20150 30111 40148 57002 60006 80000 90300=
07650,1998-08-20 06:00:00,21,1015.9,1.1,69,15,18000,7.408,,,190,19.2,29.4,,,,,,,,,wg-a,,,,AAXX 20064 07650 02668 41904 10210 20150 30122 40159 53011 60006 81502 90600 333 10294 20192 60004=
07650,1998-08-20 09:00:00,26,1016.8,1.3,54,16,20000,11.112,,,310,,,,,,,,,,,wg-a,,,,AAXX 20094 07650 32/70 13106 10260 20160 30131 40168 51013 80002 90900=
07650,1998-08-20 12:00:00,31,1015.6,-1.1,38,15,20000,22.224,,,310,,,,,,,,,,,wg-a,,,,AAXX 20124 07650 12570 23112 10310 20150 30120 40156 58011 60006 81232 91200=
07650,1998-08-20 15:00:00,32,1014.8,-0.8,29,12,20000,14.816,,,290,,,,,,,,,,,wg-a,,,,AAXX 20154 07650 12570 /2908 10320 20120 30112 40148 56008 60006 81202 91500=
07650,1998-08-20 18:00:00,28,1014.1,-0.7,51,17,20000,29.632,,,270,22.7,32.7,,,,,,,,,wg-a,,,,AAXX 20184 07650 12570 /2716 10280 20170 30105 40141 56007 60006 81102 91800 333 10327 20227=
07650,1998-08-20 21:00:00,25,1015,0.8,69,19,20000,0,,,0,,,,,,,,,,,wg-a,,,,AAXX 20214 07650 12/70 10000 10250 20190 30113 40150 51008 60006 81030 92100=
07650,1998-08-21 00:00:00,23,1014.9,-0.1,50,12,20000,7.408,,,340,,,,,,,,,,,wg-a,,,,AAXX 21004 07650 12/70 03404 10230 20120 30112 40149 56001 60006 80000 90000=
07650,1998-08-21 03:00:00,22,1014.5,-0.4,65,15,20000,18.52,,,330,,,,,,,,,,,wg-a,,,,AAXX 21034 07650 12/70 03310 10220 20150 30108 40145 58004 60006 80000 90300=
07650,1998-08-21 06:00:00,22,1015.5,1,69,16,3000,35.188,,,320,20.9,27.7,,,,,,,,,wg-a,,,,AAXX 21064 07650 12/30 33219 10220 20160 30118 40155 53010 60006 82031 90600 333 10277 20209=
07650,1998-08-21 09:00:00,26,1016,0.5,51,15,500,29.632,,,310,,,,,,,,,,,wg-a,,,,AAXX 21094 07650 12/00 13116 10260 20150 30123 40160 51005 60006 81042 90900=
07650,1998-08-21 12:00:00,29,1014.4,-1.5,43,15,10000,29.632,,,300,,,,,,,,,,,wg-a,,,,AAXX 21124 07650 12/60 /3016 10290 20150 30108 40144 56015 60006 91200=
07650,1998-08-21 15:00:00,29,1013.1,-1.3,43,15,500,31.484,,,280,,,,,,,,,,,wg-a,,,,AAXX 21154 07650 12/00 32817 10290 20150 30095 40131 58013 60006 81042 91500=
07650,1998-08-21 18:00:00,26,1012.8,-0.4,51,15,500,35.188,,,290,22,30.3,,,,,,,,,wg-a,,,,AAXX 21184 07650 12800 52919 10260 20150 30091 40128 55004 60006 81542 91800 333 10303 20220=
07650,1998-08-21 21:00:00,25,1014.6,1.8,47,13,500,42.596,,,330,,,,,,,,,,,wg-a,,,,AAXX 21214 07650 12/00 23323 10250 20130 30109 40146 53018 60006 81032 92100=
07650,1998-08-22 00:00:00,24,1014.8,0.2,54,14,500,25.928,,,310,,,,,,,,,,,wg-a,,,,AAXX 22004 07650 12/00 23114 10240 20140 30111 40148 50002 60006 80002 90000=
07650,1998-08-22 03:00:00,23,1014.3,-0.5,61,15,500,31.484,,,300,,,,,,,,,,,wg-a,,,,AAXX 22034 07650 12/00 33017 10230 20150 30106 40143 56005 60006 80002 90300=
07650,1998-08-22 06:00:00,23,1015,0.7,65,16,40000,29.632,,,310,22,26.7,,,,,,,,,wg-a,,,,AAXX 22064 07650 02/82 13116 10230 20160 30113 40150 53007 60006 81031 90600 333 10267 20220 60004=
07650,1998-08-22 09:00:00,26,1014.7,-0.3,54,16,40000,31.484,,,310,,,,,,,,,,,wg-a,,,,AAXX 22094 07650 12582 33117 10260 20160 30110 40147 58003 60006 82840 90900=
07650,1998-08-22 12:00:00,28,1013.8,-0.8,51,17,40000,35.188,,,300,,,,,,,,,,,wg-a,,,,AAXX 22124 07650 12582 /3019 10280 20170 30102 40138 58008 60006 85832 91200=
07650,1998-08-22 18:00:00,29,1011.5,-0.6,52,18,40000,38.892,,,320,22.5,31.1,,,,,,,,,wg-a,,,,AAXX 22184 07650 12682 63221 10290 20180 30079 40115 55006 60006 81102 91800 333 10311 20225=
07650,1998-08-22 21:00:00,26,1013.3,1.7,58,17,500,38.892,,,320,,,,,,,,,,,wg-a,,,,AAXX 22214 07650 12/00 03221 10260 20170 30096 40133 51017 60006 80000 92100=
07650,1998-08-23 00:00:00,24,1013.6,0.3,61,16,500,31.484,,,320,,,,,,,,,,,wg-a,,,,AAXX 23004 07650 12/00 03217 10240 20160 30099 40136 51003 60006 80000 90000=
07650,1998-08-23 03:00:00,23,1013.4,-0.2,69,17,500,35.188,,,300,,,,,,,,,,,wg-a,,,,AAXX 23034 07650 12/00 03019 10230 20170 30097 40134 58002 60006 80000 90300=
07650,1998-08-23 06:00:00,23,1014.4,1,69,17,40000,31.484,,,320,22.2,28.8,,,,,,,,,wg-a,,,,AAXX 23064 07650 02582 23217 10230 20170 30107 40144 53010 60006 81131 90600 333 10288 20222 60004=
07650,1998-08-23 09:00:00,28,1014.7,0.3,51,17,50000,38.892,,55.56,330,,,,,,,,,,,wg-a,,,,AAXX 23094 07650 12584 23321 10280 20170 30110 40147 51003 60006 81831 90900 333 91030=
07650,1998-08-23 12:00:00,30,1013.9,-0.7,43,16,50000,42.596,,,340,,,,,,,,,,,wg-a,,,,AAXX 23124 07650 12584 23423 10300 20160 30103 40139 58007 60006 82200 91200=
07650,1998-08-23 15:00:00,31,1012.6,-1.3,36,14,50000,38.892,,,350,,,,,,,,,,,wg-a,,,,AAXX 23154 07650 12684 /3521 10310 20140 30090 40126 58013 60006 81400 91500=
07650,1998-08-23 18:00:00,29,1012.1,-0.5,37,13,75000,31.484,,,330,22.9,31.1,,,,,,,,,wg-a,,,,AAXX 23184 07650 12/89 /3317 10290 20130 30085 40121 55005 60006 80001 91800 333 10311 20229=
07650,1998-08-23 21:00:00,25,1013.9,1.7,50,14,40000,18.52,,,320,,,,,,,,,,,wg-a,,,,AAXX 23214 07650 12/82 03210 10250 20140 30102 40139 51017 60006 80000 92100=
07650,1998-08-24 00:00:00,24,1014.2,0.3,50,13,40000,22.224,,,320,,,,,,,,,,,wg-a,,,,AAXX 24004 07650 12/82 03212 10240 20130 30105 40142 53003 60006 80000 90000=
07650,1998-08-24 03:00:00,23,1013.8,-0.4,57,14,40000,14.816,,,310,,,,,,,,,,,wg-a,,,,AAXX 24034 07650 12/82 03108 10230 20140 30101 40138 56004 60006 80000 90300=
07650,1998-08-24 06:00:00,21,1014.4,0.6,64,14,75000,22.224,,,310,20.9,28.5,,,,,,,,,wg-a,,,,AAXX 24064 07650 02/89 /3112 10210 20140 30107 40144 53006 60006 80002 90600 333 10285 20209 60004=
07650,1998-08-24 09:00:00,27,1014.7,0.3,48,15,75000,25.928,,,310,,,,,,,,,,,wg-a,,,,AAXX 24094 07650 12/89 13114 10270 20150 30110 40147 50003 60006 81042 90900=
07650,1998-08-24 12:00:00,31,1013.8,-0.8,31,12,75000,31.484,,,310,,,,,,,,,,,wg-a,,,,AAXX 24124 07650 12/89 13117 10310 20120 30102 40138 56008 60006 81082 91200=
07650,1998-08-24 15:00:00,30,1012.1,-1.7,40,15,75000,35.188,,,260,,,,,,,,,,,wg-a,,,,AAXX 24154 07650 12/89 22619 10300 20150 30085 40121 58017 60006 82052 91500=
07650,1998-08-24 18:00:00,29,1012.3,0.2,40,14,40000,29.632,,,330,21.4,31.5,,,,,,,,,wg-a,,,,AAXX 24184 07650 12682 53316 10290 20140 30087 40123 53002 60006 81541 91800 333 10315 20214=
07650,1998-08-24 21:00:00,23,1014.8,2.4,61,15,40000,38.892,,,340,,,,,,,,,,,wg-a,,,,AAXX 24214 07650 12/82 33421 10230 20150 30111 40148 51024 60006 82041 92100=
07650,1998-08-25 00:00:00,20,1016.2,1.3,60,12,60000,35.188,,,350,,,,,,,,,,,wg-a,,,,AAXX 25004 07650 12/86 23519 10200 20120 30124 40162 53013 60006 81041 90000=
07650,1998-08-25 03:00:00,19,1015.6,-0.6,64,12,50000,31.484,,,340,,,,,,,,,,,wg-a,,,,AAXX 25034 07650 12/84 03417 10190 20120 30118 40156 56006 60006 80000 90300=
07650,1998-08-25 06:00:00,19,1015.4,-0.2,64,12,50000,35.188,,,350,18.3,28.9,,,,,,,,,wg-a,,,,AAXX 25064 07650 02684 13519 10190 20120 30116 40154 55002 60006 81100 90600 333 10289 20183 60004=
07650,1998-08-25 09:00:00,23,1015.7,0.4,50,12,60000,38.892,,,350,,,,,,,,,,,wg-a,,,,AAXX 25094 07650 12/86 13521 10230 20120 30120 40157 52004 60006 81040 90900=
07650,1998-08-25 12:00:00,27,1015.8,0.1,39,12,60000,25.928,,,330,,,,,,,,,,,wg-a,,,,AAXX 25124 07650 12686 /3314 10270 20120 30121 40158 50001 60006 81102 91200=
07650,1998-08-25 15:00:00,29,1014.8,-0.9,35,12,50000,29.632,,,340,,,,,,,,,,,wg-a,,,,AAXX 25154 07650 12/84 03416 10290 20120 30112 40148 58009 60006 80000 91500=
07650,1998-08-25 18:00:00,27,1014.5,-0.4,37,11,60000,29.632,,,350,18.8,29.1,,,,,,,,,wg-a,,,,AAXX 25184 07650 12/86 03516 10270 20110 30108 40145 58004 60006 80000 91800 333 10291 20188=
07650,1998-08-25 21:00:00,23,1015.7,1.2,41,9,40000,18.52,,,20,,,,,,,,,,,wg-a,,,,AAXX 25214 07650 12/82 00210 10230 20090 30120 40157 51012 60006 80000 92100=
07650,1998-08-26 00:00:00,20,1016,0.2,49,9,40000,7.408,,,120,,,,,,,,,,,wg-a,,,,AAXX 26004 07650 12/82 01204 10200 20090 30122 40160 50002 60006 80000 90000=
07650,1998-08-26 03:00:00,17,1015.5,-0.5,63,10,40000,7.408,,,30,,,,,,,,,,,wg-a,,,,AAXX 26034 07650 12/82 00304 10170 20100 30117 40155 57005 60006 80000 90300=
07650,1998-08-26 06:00:00,17,1015.9,0.4,63,10,50000,7.408,,,180,15.2,26.5,,,,,,,,,wg-a,,,,AAXX 26064 07650 02/84 11804 10170 20100 30121 40159 53004 60006 80001 90600 333 10265 20152 60004=
07650,1998-08-26 09:00:00,23,1016,0.2,50,12,50000,14.816,,,290,,,,,,,,,,,wg-a,,,,AAXX 26094 07650 12/84 12908 10230 20120 30123 40160 52002 60006 80001 90900=
07650,1998-08-26 12:00:00,28,1014.5,-1.4,37,12,10000,11.112,,,270,,,,,,,,,,,wg-a,,,,AAXX 26124 07650 12/60 /2706 10280 20120 30109 40145 58014 60006 91200=
07650,1998-08-26 15:00:00,28,1013,-1.5,40,13,50000,31.484,,,270,,,,,,,,,,,wg-a,,,,AAXX 26154 07650 12/84 12717 10280 20130 30094 40130 57015 60006 80002 91500=
07650,1998-08-26 18:00:00,23,1012.1,-1,61,15,25000,11.112,,,280,16.8,29.8,,,,,,,,,wg-a,,,,AAXX 26184 07650 12/75 12806 10230 20150 30084 40121 58010 60006 81032 91800 333 10298 20168=
07650,1998-08-26 21:00:00,22,1013.9,1.8,69,16,18000,3.704,,,190,,,,,,,,,,,wg-a,,,,AAXX 26214 07650 12/68 61902 10220 20160 30102 40139 50018 60006 82032 92100=
07650,1998-08-27 00:00:00,21,1011.8,-2.1,69,15,17000,11.112,,,90,,,,,,,,,,,wg-a,,,,AAXX 27004 07650 12/67 60906 10210 20150 30081 40118 56021 60006 81032 90000=
07650,1998-08-27 03:00:00,20,1010.5,-1.3,78,16,15000,7.408,,,210,,,,,,,,,,,wg-a,,,,AAXX 27034 07650 12/65 62104 10200 20160 30068 40105 56013 60006 82032 90300=
07650,1998-08-27 06:00:00,20,1010.8,0.3,78,16,15000,3.704,,,200,19.3,23.4,,,,,,,,,wg-a,,,,AAXX 27064 07650 02665 /2002 10200 20160 30071 40108 53003 60006 81532 90600 333 10234 20193 60004=
07650,1998-08-27 09:00:00,25,1010.9,0.1,47,13,15000,14.816,,,310,,,,,,,,,,,wg-a,,,,AAXX 27094 07650 12/65 23108 10250 20130 30072 40109 53001 60006 80002 90900=
07650,1998-08-27 12:00:00,29,1009.2,-1.6,37,13,25000,35.188,,,330,,,,,,,,,,,wg-a,,,,AAXX 27124 07650 12/75 13319 10290 20130 30056 40092 56016 60006 80002 91200=
07650,1998-08-27 15:00:00,29,1008,-1.2,33,11,25000,46.3,,,350,,,,,,,,,,,wg-a,,,,AAXX 27154 07650 12/75 23525 10290 20110 30044 40080 58012 60006 80002 91500=
07650,1998-08-27 18:00:00,25,1007.2,-0.9,34,8,25000,61.116,,66.672,10,19.8,29.7,,,,,,,,,wg-a,,,,AAXX 27184 07650 12/75 70133 10250 20080 30035 40072 56009 60006 81042 91800 333 10297 20198 91036=
07650,1998-08-27 21:00:00,20,1009.5,2.3,43,7,25000,50.004,,87.044,350,,,,,,,,,,,wg-a,,,,AAXX 27214 07650 12/75 73527 10200 20070 30058 40095 51023 60006 81042 92100 333 91047=
07650,1998-08-28 00:00:00,17,1008.3,-1.3,52,7,20000,42.596,,,350,,,,,,,,,,,wg-a,,,,AAXX 28004 07650 12/70 43523 10170 20070 30045 40083 58013 60006 81042 90000=
07650,1998-08-28 03:00:00,16,1008.5,0.2,55,7,20000,35.188,,,340,,,,,,,,,,,wg-a,,,,AAXX 28034 07650 12/70 23419 10160 20070 30047 40085 53002 60006 80002 90300=
07650,1998-08-28 06:00:00,15,1008.9,0.4,55,6,25000,38.892,,,350,14.4,24.6,,,,,,,,,wg-a,,,,AAXX 28064 07650 02/75 43521 10150 20060 30051 40089 53004 60006 82032 90600 333 10246 20144 60004=
07650,1998-08-28 09:00:00,19,1009.5,0.7,49,8,25000,42.596,,,360,,,,,,,,,,,wg-a,,,,AAXX 28094 07650 12575 /3623 10190 20080 30058 40095 51007 60006 81130 90900=
07650,1998-08-28 12:00:00,24,1009.7,0.2,38,9,500,31.484,,,350,,,,,,,,,,,wg-a,,,,AAXX 28124 07650 12600 /3517 10240 20090 30060 40097 51002 60006 81200 91200=
07650,1998-08-28 15:00:00,26,1010,0.3,34,9,500,29.632,,,350,,,,,,,,,,,wg-a,,,,AAXX 28154 07650 12600 33516 10260 20090 30063 40100 53003 60006 83830 91500=
07650,1998-08-28 18:00:00,22,1011.2,1.2,41,8,500,25.928,,,340,14.6,26.6,,,,,,,,,wg-a,,,,AAXX 28184 07650 12600 /3414 10220 20080 30075 40112 52012 60006 81500 91800 333 10266 20146=
07650,1998-08-28 21:00:00,19,1012.7,1.4,43,6,500,29.632,,,360,,,,,,,,,,,wg-a,,,,AAXX 28214 07650 12/00 03616 10190 20060 30089 40127 51014 60006 80000 92100=
07650,1998-08-29 00:00:00,17,1013,0.3,48,6,25000,22.224,,,10,,,,,,,,,,,wg-a,,,,AAXX 29004 07650 12/75 00112 10170 20060 30092 40130 51003 60006 80000 90000=
07650,1998-08-29 03:00:00,15,1013.3,0.3,51,5,25000,18.52,,,10,,,,,,,,,,,wg-a,,,,AAXX 29034 07650 12/75 00110 10150 20050 30095 40133 53003 60006 80000 90300=
07650,1998-08-29 06:00:00,15,1013.9,0.6,55,6,500,18.52,,,10,13.6,22.1,,,,,,,,,wg-a,,,,AAXX 29064 07650 02/00 00110 10150 20060 30101 40139 53006 60006 80000 90600 333 10221 20136 60004=
07650,1998-08-29 09:00:00,21,1015.2,1.3,43,8,40000,11.112,,,320,,,,,,,,,,,wg-a,,,,AAXX 29094 07650 12682 /3206 10210 20080 30114 40152 51013 60006 81231 90900=
07650,1998-08-29 12:00:00,24,1015.1,0,41,10,40000,11.112,,,310,,,,,,,,,,,wg-a,,,,AAXX 29124 07650 12682 23106 10240 20100 30114 40151 50000 60006 81831 91200=
07650,1998-08-29 15:00:00,25,1014.8,-0.3,47,13,500,14.816,,,260,,,,,,,,,,,wg-a,,,,AAXX 29154 07650 12600 32608 10250 20130 30111 40148 55003 60006 82802 91500=
07650,1998-08-29 18:00:00,23,1015.1,0.3,44,10,40000,11.112,,,220,14.3,25.7,,,,,,,,,wg-a,,,,AAXX 29184 07650 12782 12206 10230 20100 30114 40151 53003 60006 81502 91800 333 10257 20143=
07650,1998-08-29 21:00:00,20,1016.2,1,64,13,500,7.408,,,220,,,,,,,,,,,wg-a,,,,AAXX 29214 07650 12/00 02204 10200 20130 30124 40162 50010 60006 80000 92100=
07650,1998-08-30 00:00:00,16,1016.8,0.6,63,9,500,3.704,,,210,,,,,,,,,,,wg-a,,,,AAXX 30004 07650 12/00 02102 10160 20090 30130 40168 52006 60006 80000 90000=
07650,1998-08-30 03:00:00,14,1016.8,-0,72,9,500,7.408,,,160,,,,,,,,,,,wg-a,,,,AAXX 30034 07650 12/00 01604 10140 20090 30130 40168 55000 60006 80000 90300=
07650,1998-08-30 06:00:00,14,1017.4,0.6,72,9,500,11.112,,,170,12.7,22.6,,,,,,,,,wg-a,,,,AAXX 30064 07650 02/00 11706 10140 20090 30136 40174 53006 60006 80001 90600 333 10226 20127 60004=
07650,1998-08-30 09:00:00,22,1017.8,0.5,50,11,500,7.408,,,290,,,,,,,,,,,wg-a,,,,AAXX 30094 07650 12/00 12904 10220 20110 30141 40178 52005 60006 80002 90900=
07650,1998-08-30 12:00:00,26,1017.6,-0.2,28,6,500,18.52,,,230,,,,,,,,,,,wg-a,,,,AAXX 30124 07650 12500 32310 10260 20060 30139 40176 58002 60006 81102 91200=
07650,1998-08-30 15:00:00,25,1016.8,-0.8,30,6,500,22.224,,,220,,,,,,,,,,,wg-a,,,,AAXX 30154 07650 12/00 42212 10250 20060 30131 40168 56008 60006 80002 91500=
07650,1998-08-30 18:00:00,21,1016.8,0,46,9,500,11.112,,,190,14.1,26.8,,,,,,,,,wg-a,,,,AAXX 30184 07650 12600 /1906 10210 20090 30131 40168 50000 60006 81532 91800 333 10268 20141=
07650,1998-08-30 21:00:00,19,1017.5,0.6,64,12,18000,3.704,,,160,,,,,,,,,,,wg-a,,,,AAXX 30214 07650 12668 61602 10190 20120 30137 40175 50006 60006 83532 92100=
07650,1998-08-31 00:00:00,18,1017,-0.5,64,11,18000,3.704,,,90,,,,,,,,,,,wg-a,,,,AAXX 31004 07650 12668 20902 10180 20110 30132 40170 58005 60006 81502 90000=
07650,1998-08-31 03:00:00,18,1015.8,-1.2,52,8,18000,3.704,,,110,,,,,,,,,,,wg-a,,,,AAXX 31034 07650 12668 41102 10180 20080 30120 40158 56012 60006 84502 90300=
07650,1998-08-31 06:00:00,20,1016,0.2,56,11,15000,11.112,,,100,17.1,21.4,,,,,,,,,wg-a,,,,AAXX 31064 07650 02565 71006 10200 20110 30122 40160 53002 60006 875// 90600 333 10214 20171 60004=
07650,1998-08-31 09:00:00,21,1016.5,0.6,83,18,10000,7.408,,,70,,,,3,,,,,,25,wg-a,,,,AAXX 31094 07650 12460 70704 10210 20180 30128 40165 53006 60037 72586 878// 90900=
07650,1998-08-31 12:00:00,26,1015.7,-0.8,61,18,15000,18.52,,,160,,,,,,,,,,3,wg-a,,,,AAXX 31124 07650 12565 71610 10260 20180 30120 40157 58008 60036 70386 878// 91200=
07650,1998-08-31 15:00:00,25,1015.4,-0.3,65,18,15000,14.816,,,170,,,,,,,,,,,wg-a,,,,AAXX 31154 07650 12565 /1708 10250 20180 30117 40154 58003 60006 86842 91500=
07650,1998-08-31 18:00:00,23,1015.4,0,78,19,15000,14.816,,,200,19.8,26.4,,,,,,,,,wg-a,,,,AAXX 31184 07650 12665 32008 10230 20190 30117 40154 50000 60006 82542 91800 333 10264 20198=
07650,1998-08-31 21:00:00,21,1015.9,0.5,83,18,15000,0,,,0,,,,,,,,,,,wg-a,,,,AAXX 31214 07650 12/65 30000 10210 20180 30122 40159 53005 60006 80002 92100=
07650,1998-09-01 00:00:00,20,1015.8,-0.2,78,16,15000,7.408,,,130,,,,,,,,,,,wg-a,,,,AAXX 01004 07650 12/65 21304 10200 20160 30120 40158 58002 60006 80002 90000=
07650,1998-09-01 03:00:00,18,1015.4,-0.4,83,15,15000,3.704,,,150,,,,,,,,,,,wg-a,,,,AAXX 01034 07650 12/65 21502 10180 20150 30116 40154 56004 60006 80002 90300=
07650,1998-09-01 06:00:00,19,1016.6,1.2,78,15,11000,3.704,,,100,17.3,23,,,,,3,,,,wg-a,,,,AAXX 01064 07650 02661 51002 10190 20150 30128 40166 51012 60006 82532 90600 333 10230 20173 60034=
07650,1998-09-01 09:00:00,27,1016.4,-0.1,48,15,15000,7.408,,,300,,,,,,,,,,,wg-a,,,,AAXX 01094 07650 12/65 33004 10270 20150 30127 40164 58001 60006 80001 90900=
07650,1998-09-01 12:00:00,29,1015.4,-0.9,45,16,20000,25.928,,,210,,,,,,,,,,,wg-a,,,,AAXX 01124 07650 12/70 52114 10290 20160 30118 40154 56009 60006 80002 91200=
07650,1998-09-01 15:00:00,29,1014.9,-0.5,45,16,10000,31.484,,,190,,,,,,,,,,,wg-a,,,,AAXX 01154 07650 12/60 /1917 10290 20160 30113 40149 55005 60006 91500=
07650,1998-09-01 18:00:00,26,1015.9,0.9,51,15,40000,22.224,,,170,19.2,29.8,,,,,,,,,wg-a,,,,AAXX 01184 07650 12/82 31712 10260 20150 30122 40159 51009 60006 80001 91800 333 10298 20192=
07650,1998-09-01 21:00:00,24,1016.8,0.9,61,16,40000,11.112,,,110,,,,,,,,,,,wg-a,,,,AAXX 01214 07650 12/82 11106 10240 20160 30131 40168 51009 60006 80001 92100=
07650,1998-09-02 00:00:00,22,1016.8,0,73,17,10000,11.112,,,130,,,,,,,,,,,wg-a,,,,AAXX 02004 07650 12/60 /1306 10220 20170 30131 40168 50000 60006 90000=
07650,1998-09-02 03:00:00,21,1016.5,-0.3,78,17,500,3.704,,,140,,,,,,,,,,,wg-a,,,,AAXX 02034 07650 12/00 01402 10210 20170 30128 40165 56003 60006 80000 90300=
07650,1998-09-02 06:00:00,22,1016.3,-0.2,69,16,500,7.408,,,150,20.6,25.7,,,,,,,,,wg-a,,,,AAXX 02064 07650 02/00 21504 10220 20160 30126 40163 56002 60006 81031 90600 333 10257 20206 60004=
07650,1998-09-02 09:00:00,29,1015.9,-0.3,48,17,20000,14.816,,,290,,,,,,,,,,,wg-a,,,,AAXX 02094 07650 12/70 22908 10290 20170 30123 40159 55003 60006 80002 90900=
07650,1998-09-02 12:00:00,30,1015.1,-0.8,52,19,20000,18.52,,,290,,,,,,,,,,,wg-a,,,,AAXX 02124 07650 12/70 52910 10300 20190 30115 40151 58008 60006 80002 91200=
07650,1998-09-02 15:00:00,29,1014.1,-1,45,16,20000,14.816,,,220,,,,,,,,,,,wg-a,,,,AAXX 02154 07650 12670 72208 10290 20160 30105 40141 58010 60006 82502 91500=
07650,1998-09-02 18:00:00,26,1014.8,0.6,70,20,20000,11.112,,,310,21.8,30.6,,,,,,,,,wg-a,,,,AAXX 02184 07650 12670 73106 10260 20200 30111 40148 53006 60006 82502 91800 333 10306 20218=
07650,1998-09-02 21:00:00,23,1016,1.2,83,20,15000,7.408,,,10,,,,,,,,,,,wg-a,,,,AAXX 02214 07650 12665 /0104 10230 20200 30123 40160 51012 60006 81582 92100=
07650,1998-09-03 00:00:00,23,1016.5,0.5,83,20,15000,18.52,,,350,,,,,,,,,,,wg-a,,,,AAXX 03004 07650 12765 53510 10230 20200 30128 40165 53005 60006 825/2 90000=
07650,1998-09-03 03:00:00,22,1016.8,0.3,83,19,10000,11.112,,,20,,,,,,,,,,60,wg-a,,,,AAXX 03034 07650 02560 70206 10220 20190 30131 40168 50003 61000 76062 8357/ 90300 333 ////=
07650,1998-09-03 06:00:00,22,1016.3,-0.5,88,20,12000,14.816,,,330,21.6,25.6,,,,,,,,25,wg-a,,,,AAXX 03064 07650 02662 63308 10220 20200 30126 40163 55005 61000 72586 83281 90600 333 10256 20216 6100=
07650,1998-09-03 09:00:00,25,1017.1,0.8,69,19,15000,14.816,,,290,,,,,,,,,,,wg-a,,,,AAXX 03094 07650 12665 32908 10250 20190 30134 40171 52008 60006 81132 90900=
07650,1998-09-03 12:00:00,28,1015.5,-1.5,55,18,15000,11.112,,,310,,,,,,,,,,,wg-a,,,,AAXX 03124 07650 12565 /3106 10280 20180 30119 40155 58015 60006 81102 91200=
07650,1998-09-03 15:00:00,29,1013.7,-1.8,52,18,15000,18.52,,,270,,,,,,,,,,,wg-a,,,,AAXX 03154 07650 12565 /2710 10290 20180 30101 40137 56018 60006 81102 91500=
07650,1998-09-03 18:00:00,26,1013.4,-0.4,61,18,15000,14.816,,,260,21.7,29.8,,,,,,,,,wg-a,,,,AAXX 03184 07650 12/65 32608 10260 20180 30097 40134 56004 60006 80001 91800 333 10298 20217=
07650,1998-09-04 00:00:00,22,1013.4,-0.8,78,18,12000,3.704,,,110,,,,,,,,,,,wg-a,,,,AAXX 04004 07650 12/62 41102 10220 20180 30097 40134 58008 60006 81032 90000=
07650,1998-09-04 03:00:00,22,1012.2,-1.2,73,17,12000,3.704,,,50,,,,,,,,,,,wg-a,,,,AAXX 04034 07650 12662 50502 10220 20170 30085 40122 56012 60006 81532 90300=
07650,1998-09-04 06:00:00,22,1012.5,0.3,88,20,15000,3.704,,,150,20.2,25.9,,,,,,,,,wg-a,,,,AAXX 04064 07650 02665 61502 10220 20200 30088 40125 53003 60006 81531 90600 333 10259 20202 60004=
07650,1998-09-04 09:00:00,26,1012.4,-0.1,61,18,10000,11.112,,,180,,,,,,,,,,,wg-a,,,,AAXX 04094 07650 12/60 /1806 10260 20180 30087 40124 58001 60006 90900=
07650,1998-09-04 12:00:00,28,1011.6,-0.7,51,17,20000,22.224,,,200,,,,,,,,,,,wg-a,,,,AAXX 04124 07650 12570 /2012 10280 20170 30080 40116 56007 60006 81132 91200=
07650,1998-09-04 15:00:00,27,1010.2,-1.4,51,16,11000,29.632,,,180,,,,,,,,,,,wg-a,,,,AAXX 04154 07650 12/61 /1816 10270 20160 30066 40102 56014 60006 91500=
07650,1998-09-04 18:00:00,25,1008.5,-1.8,57,16,18000,22.224,,,140,22.2,29,,,,,,,,,wg-a,,,,AAXX 04184 07650 12568 81412 10250 20160 30048 40085 57018 60006 872// 91800 333 10290 20222=
07650,1998-09-04 21:00:00,24,1006.9,-1.6,78,20,18000,31.484,,,160,,,,,,,,,,17,wg-a,,,,AAXX 04214 07650 12468 81617 10240 20200 30032 40069 56016 60006 71792 879// 92100=
07650,1998-09-05 00:00:00,20,1008.2,1.3,88,18,12000,29.632,,,330,,,,4,,,,,,29,wg-a,,,,AAXX 05004 07650 02362 83316 10200 20180 30045 40082 53013 60046 72998 8696/ 90000 333 60047=
07650,1998-09-05 03:00:00,20,1009.1,0.9,78,16,20000,22.224,,,330,,,,,,,,,,,wg-a,,,,AAXX 05034 07650 12570 43312 10200 20160 30054 40091 53009 60006 82532 90300=
07650,1998-09-05 06:00:00,19,1010.4,1.3,83,16,25000,25.928,,,310,19,25.3,,,,,4,,,,wg-a,,,,AAXX 05064 07650 02575 73114 10190 20160 30067 40104 53013 60006 83882 90600 333 10253 20190 60044=
07650,1998-09-05 09:00:00,22,1011.1,0.7,65,15,40000,35.188,,,330,,,,,,,,,,,wg-a,,,,AAXX 05094 07650 12582 /3319 10220 20150 30074 40111 50007 60006 81132 90900=
07650,1998-09-05 12:00:00,25,1011.3,0.2,47,13,40000,38.892,,,330,,,,,,,,,,,wg-a,,,,AAXX 05124 07650 12682 43321 10250 20130 30076 40113 51002 60006 81132 91200=
07650,1998-09-05 15:00:00,27,1010.8,-0.5,42,13,60000,31.484,,,350,,,,,,,,,,,wg-a,,,,AAXX 05154 07650 12686 53517 10270 20130 30071 40108 58005 60006 83232 91500=
07650,1998-09-05 18:00:00,24,1011.1,0.3,54,14,60000,29.632,,,310,19,27.1,,,,,,,,,wg-a,,,,AAXX 05184 07650 12686 33116 10240 20140 30074 40111 53003 60006 81132 91800 333 10271 20190=
07650,1998-09-05 21:00:00,21,1013.7,2.6,56,12,60000,25.928,,,330,,,,,,,,,,,wg-a,,,,AAXX 05214 07650 12/86 03314 10210 20120 30100 40137 53026 60006 80000 92100=
07650,1998-09-06 00:00:00,19,1013.6,-0.2,64,12,500,25.928,,,330,,,,,,,,,,,wg-a,,,,AAXX 06004 07650 12/00 13314 10190 20120 30098 40136 58002 60006 81040 90000=
07650,1998-09-06 03:00:00,18,1013,-0.6,73,13,500,35.188,,,330,,,,,,,,,,,wg-a,,,,AAXX 06034 07650 12/00 13319 10180 20130 30092 40130 57006 60006 81032 90300=
07650,1998-09-06 06:00:00,18,1012.9,-0.1,68,12,40000,29.632,,,350,16.9,24.3,,,,,,,,,wg-a,,,,AAXX 06064 07650 02/82 /3516 10180 20120 30091 40129 55001 60006 81030 90600 333 10243 20169 60004=
07650,1998-09-06 09:00:00,22,1013,0.2,53,12,75000,18.52,,,340,,,,,,,,,,,wg-a,,,,AAXX 06094 07650 12/89 03410 10220 20120 30093 40130 50002 60006 80000 90900=
07650,1998-09-06 12:00:00,25,1012.1,-0.9,41,11,75000,22.224,,,300,,,,,,,,,,,wg-a,,,,AAXX 06124 07650 12/89 13012 10250 20110 30084 40121 58009 60006 80001 91200=
07650,1998-09-06 15:00:00,26,1010.2,-1.9,48,14,75000,29.632,,,270,,,,,,,,,,,wg-a,,,,AAXX 06154 07650 12/89 02716 10260 20140 30065 40102 56019 60006 80000 91500=
07650,1998-09-06 18:00:00,23,1009.6,-0.6,53,13,50000,11.112,,,260,17.5,28,,,,,,,,,wg-a,,,,AAXX 06184 07650 12/84 22606 10230 20130 30059 40096 58006 60006 80001 91800 333 10280 20175=
07650,1998-09-06 21:00:00,20,1010.2,0.6,64,13,25000,11.112,,,160,,,,,,,,,,,wg-a,,,,AAXX 06214 07650 12/75 21606 10200 20130 30065 40102 50006 60006 80002 92100=
07650,1998-09-07 00:00:00,18,1009.3,-0.9,77,14,25000,7.408,,,150,,,,,,,,,,,wg-a,,,,AAXX 07004 07650 12675 /1504 10180 20140 30056 40093 58009 60006 81532 90000=
07650,1998-09-07 03:00:00,19,1007.3,-2,64,12,20000,14.816,,,110,,,,,,,,,,,wg-a,,,,AAXX 07034 07650 12470 71108 10190 20120 30036 40073 58020 60006 8357/ 90300=
07650,1998-09-07 06:00:00,21,1007.2,-0.1,64,14,12000,18.52,,,120,17.9,22.6,,,,,,,,,wg-a,,,,AAXX 07064 07650 02462 71210 10210 20140 30035 40072 58001 60006 8587/ 90600 333 10226 20179 60004=
07650,1998-09-07 09:00:00,19,1007.4,0.2,94,18,1000,14.816,,,10,,,,23,,,,,,17,wg-a,,,,AAXX 07094 07650 12410 70108 10190 20180 30037 40074 51002 60237 71796 879// 90900=
07650,1998-09-07 12:00:00,18,1006.5,-0.9,94,17,3000,25.928,,,130,,,,97,,,,,,81,wg-a,,,,AAXX 07124 07650 02330 81314 10180 20170 30028 40065 58009 61216 78198 889// 91200 333 60977=
07650,1998-09-07 15:00:00,18,1005.5,-1,88,16,7000,31.484,,,120,,,,18,,,,,,81,wg-a,,,,AAXX 07154 07650 12357 81217 10180 20160 30018 40055 58010 60187 78199 889// 91500=
07650,1998-09-07 18:00:00,17,1007.3,1.7,94,16,20000,25.928,,,340,16.7,21.9,,,,,,,,25,wg-a,,,,AAXX 07184 07650 02470 83414 10170 20160 30035 40073 53017 61000 72598 889// 91800 333 10219 20167 6008=
07650,1998-09-07 21:00:00,17,1009.4,2.1,94,16,20000,11.112,,,330,,,,,,,,,,,wg-a,,,,AAXX 07214 07650 12470 83306 10170 20160 30056 40094 50021 60006 876// 92100=
07650,1998-09-08 00:00:00,17,1009.3,-0.1,94,16,20000,14.816,,,310,,,,,,,,,,,wg-a,,,,AAXX 08004 07650 12470 63108 10170 20160 30055 40093 58001 60006 84530 90000=
07650,1998-09-08 03:00:00,17,1009.3,0,94,16,12000,11.112,,,330,,,,,,,,,,,wg-a,,,,AAXX 08034 07650 12462 43306 10170 20160 30055 40093 50000 60006 82732 90300=
07650,1998-09-08 06:00:00,18,1010.5,1.2,83,15,20000,11.112,,,350,16.5,17.8,,,,,146,,,,wg-a,,,,AAXX 08064 07650 02470 33506 10180 20150 30067 40105 53012 60006 81732 90600 333 10178 20165 61464=
07650,1998-09-08 09:00:00,22,1011,0.6,65,15,500,38.892,,,340,,,,,,,,,,,wg-a,,,,AAXX 08094 07650 12500 /3421 10220 20150 30073 40110 52006 60006 81500 90900=
07650,1998-09-08 12:00:00,25,1010.8,-0.2,50,14,500,38.892,,,350,,,,,,,,,,,wg-a,,,,AAXX 08124 07650 12500 /3521 10250 20140 30071 40108 58002 60006 81500 91200=
07650,1998-09-08 15:00:00,26,1011,0.2,48,14,500,38.892,,,340,,,,,,,,,,,wg-a,,,,AAXX 08154 07650 12500 /3421 10260 20140 30073 40110 53002 60006 81500 91500=
07650,1998-09-08 18:00:00,24,1011.7,0.7,50,13,500,31.484,,,350,17.7,26.3,,,,,,,,,wg-a,,,,AAXX 08184 07650 12/00 13517 10240 20130 30080 40117 51007 60006 80001 91800 333 10263 20177=
07650,1998-09-08 21:00:00,22,1013.4,1.7,53,12,500,3.704,,,340,,,,,,,,,,,wg-a,,,,AAXX 08214 07650 12/00 03402 10220 20120 30097 40134 51017 60006 80000 92100=
07650,1998-09-09 00:00:00,20,1013.4,-0.1,68,14,10000,11.112,,,340,,,,,,,,,,,wg-a,,,,AAXX 09004 07650 12/60 /3406 10200 20140 30096 40134 58001 60006 90000=
07650,1998-09-09 03:00:00,17,1013.4,-0,77,13,500,11.112,,,130,,,,,,,,,,,wg-a,,,,AAXX 09034 07650 12700 51306 10170 20130 30096 40134 55000 60006 83531 90300=
07650,1998-09-09 06:00:00,17,1014.2,0.8,77,13,25000,11.112,,,160,15.4,24.3,,,,,,,,,wg-a,,,,AAXX 09064 07650 02775 11606 10170 20130 30104 40142 53008 60006 81542 90600 333 10243 20154 60004=
07650,1998-09-09 09:00:00,24,1015.2,1.1,57,15,40000,7.408,,,300,,,,,,,,,,,wg-a,,,,AAXX 09094 07650 12/82 13004 10240 20150 30115 40152 53011 60006 80002 90900=
07650,1998-09-09 12:00:00,27,1014.7,-0.5,51,16,40000,22.224,,,210,,,,,,,,,,,wg-a,,,,AAXX 09124 07650 12/82 12112 10270 20160 30110 40147 58005 60006 81030 91200=
07650,1998-09-09 15:00:00,28,1014.2,-0.5,40,13,40000,18.52,,,200,,,,,,,,,,,wg-a,,,,AAXX 09154 07650 12/82 12010 10280 20130 30105 40142 56005 60006 81031 91500=
07650,1998-09-09 18:00:00,24,1014,-0.2,61,16,500,18.52,,,190,16.6,27.9,,,,,,,,,wg-a,,,,AAXX 09184 07650 12/00 11910 10240 20160 30103 40140 55002 60006 81030 91800 333 10279 20166=
07650,1998-09-09 21:00:00,22,1014.7,0.7,65,15,500,14.816,,,140,,,,,,,,,,,wg-a,,,,AAXX 09214 07650 12/00 11408 10220 20150 30110 40147 50007 60006 81030 92100=
07650,1998-09-10 00:00:00,22,1014.3,-0.4,57,13,500,11.112,,,150,,,,,,,,,,,wg-a,,,,AAXX 10004 07650 12/00 11506 10220 20130 30106 40143 56004 60006 80001 90000=
07650,1998-09-10 03:00:00,21,1013.9,-0.4,60,13,500,18.52,,,120,,,,,,,,,,,wg-a,,,,AAXX 10034 07650 12/00 11210 10210 20130 30102 40139 58004 60006 80001 90300=
07650,1998-09-10 06:00:00,20,1014.2,0.3,68,14,500,11.112,,,140,19.5,23.6,,,,,,,,,wg-a,,,,AAXX 10064 07650 02500 11406 10200 20140 30105 40142 53003 60006 81500 90600 333 10236 20195 60004=
07650,1998-09-10 09:00:00,26,1014.7,0.5,51,15,500,18.52,,,170,,,,,,,,,,,wg-a,,,,AAXX 10094 07650 12/00 /1710 10260 20150 30110 40147 51005 60006 80002 90900=
07650,1998-09-10 12:00:00,27,1014.1,-0.6,48,15,500,29.632,,,190,,,,,,,,,,,wg-a,,,,AAXX 10124 07650 12500 21916 10270 20150 30104 40141 58006 60006 81102 91200=
07650,1998-09-10 15:00:00,26,1012.5,-1.6,61,18,500,18.52,,,190,,,,,,,,,,,wg-a,,,,AAXX 10154 07650 12500 21910 10260 20180 30088 40125 56016 60006 81102 91500=
07650,1998-09-10 18:00:00,23,1012.3,-0.2,78,19,15000,18.52,,,200,20.1,27.5,,,,,,,,,wg-a,,,,AAXX 10184 07650 12465 52010 10230 20190 30086 40123 55002 60006 81132 91800 333 10275 20201=
07650,1998-09-10 21:00:00,22,1013.1,0.8,83,19,13000,7.408,,,220,,,,,,,,,,,wg-a,,,,AAXX 10214 07650 12463 72204 10220 20190 30094 40131 50008 60006 82532 92100=
07650,1998-09-11 00:00:00,20,1012.1,-1,94,19,10000,3.704,,,140,,,,,,,,,,,wg-a,,,,AAXX 11004 07650 12460 71402 10200 20190 30084 40121 58010 60006 85832 90000=
07650,1998-09-11 03:00:00,20,1010.3,-1.8,88,18,8000,11.112,,,160,,,,,,,,,,,wg-a,,,,AAXX 11034 07650 32558 71606 10200 20180 30066 40103 56018 8253/ 90300=
07650,1998-09-11 06:00:00,20,1009.5,-0.8,88,18,500,11.112,,,120,19.5,22.6,,,,,,,,,wg-a,,,,AAXX 11064 07650 12500 81206 10200 20180 30058 40095 55008 60006 8487/ 90600 333 10226 20195=
07650,1998-09-11 09:00:00,18,1009.4,-0.1,94,17,4500,11.112,,,160,,,,,,,,,,10,wg-a,,,,AAXX 11094 07650 32545 81606 10180 20170 30057 40094 55001 71062 8497/ 90900=
07650,1998-09-11 12:00:00,19,1007.9,-1.5,88,17,9000,7.408,,,140,,,,,,,,,,61,wg-a,,,,AAXX 11124 07650 02559 81404 10190 20170 30042 40079 58015 61000 76162 8587/ 91200 333 6001=
07650,1998-09-11 15:00:00,19,1005.9,-2,88,17,6000,0,,,0,,,,3,,,,,,61,wg-a,,,,AAXX 11154 07650 12456 80000 10190 20170 30022 40059 58020 60037 76166 8687/ 91500=
07650,1998-09-11 18:00:00,19,1004.8,-1.1,88,17,10000,7.408,,,350,18.1,19.9,,,,,,,,3,wg-a,,,,AAXX 11184 07650 02460 83504 10190 20170 30011 40048 57011 60006 70362 8687/ 91800 333 10199 20181 61000=
07650,1998-09-11 21:00:00,18,1003.6,-1.2,94,17,15000,11.112,,,340,,,,,,,,,,,wg-a,,,,AAXX 11214 07650 12565 83406 10180 20170 39999 40036 56012 60006 8457/ 92100=
07650,1998-09-12 00:00:00,18,1002.2,-1.4,73,13,11000,25.928,,,310,,,,,,,,,,,wg-a,,,,AAXX 12004 07650 12/61 /3114 10180 20130 39985 40022 58014 60006 90000=
07650,1998-09-12 03:00:00,16,1001.6,-0.7,82,13,40000,22.224,,,340,,,,,,,,,,,wg-a,,,,AAXX 12034 07650 12682 33412 10160 20130 39978 40016 56007 60006 81530 90300=
07650,1998-09-12 06:00:00,16,1002.3,0.7,68,10,50000,42.596,,,320,15.7,18.5,,,,,,,,,wg-a,,,,AAXX 12064 07650 12484 63223 10160 20100 39985 40023 50007 60006 82842 90600 333 10185 20157=
07650,1998-09-12 09:00:00,18,1002.3,0.1,49,7,11000,50.004,,,330,,,,,,,,,,,wg-a,,,,AAXX 12094 07650 12/61 /3327 10180 20070 39986 40023 52001 60006 90900=
07650,1998-09-12 12:00:00,19,1002.3,0,46,7,50000,46.3,,,330,,,,,,,,,,,wg-a,,,,AAXX 12124 07650 12584 43325 10190 20070 39986 40023 50000 60006 84140 91200=
07650,1998-09-12 15:00:00,20,1002.1,-0.2,43,7,50000,46.3,,,340,,,,,,,,,,,wg-a,,,,AAXX 12154 07650 12684 /3425 10200 20070 39984 40021 56002 60006 85140 91500=
07650,1998-09-12 18:00:00,18,1003.1,1,49,7,50000,35.188,,,330,15.6,20.7,,,,,,,,,wg-a,,,,AAXX 12184 07650 12684 33319 10180 20070 39994 40031 52010 60006 83440 91800 333 10207 20156=
07650,1998-09-12 21:00:00,16,1003.8,0.6,63,9,40000,31.484,,,330,,,,,,,,,,,wg-a,,,,AAXX 12214 07650 12/82 13317 10160 20090 30000 40038 51006 60006 81040 92100=
07650,1998-09-13 00:00:00,16,1002.2,-1.6,68,10,500,25.928,,,310,,,,,,,,,,,wg-a,,,,AAXX 13004 07650 12600 /3114 10160 20100 39984 40022 56016 60006 83530 90000=
07650,1998-09-13 03:00:00,16,1000.4,-1.8,82,13,500,22.224,,,310,,,,,,,,,,60,wg-a,,,,AAXX 13034 07650 02500 73112 10160 20130 39966 40004 56018 61000 76062 8357/ 90300 333 ////=
07650,1998-09-13 06:00:00,14,1001.7,1.3,82,11,20000,35.188,,,320,14.3,18.1,,,,,,,,1,wg-a,,,,AAXX 13064 07650 02470 43219 10140 20110 39979 40017 53013 60006 70161 83830 90600 333 10181 20143 61000=
07650,1998-09-13 09:00:00,16,1002.7,1,51,6,40000,35.188,,,330,,,,,,,,,,,wg-a,,,,AAXX 13094 07650 12482 23319 10160 20060 39989 40027 53010 60006 81142 90900=
07650,1998-09-13 12:00:00,19,1003.2,0.6,37,4,40000,35.188,,,320,,,,,,,,,,,wg-a,,,,AAXX 13124 07650 12482 43219 10190 20040 39995 40032 50006 60006 84802 91200=
07650,1998-09-13 15:00:00,20,1001.6,-1.6,46,8,40000,42.596,,,300,,,,,,,,,,,wg-a,,,,AAXX 13154 07650 12582 63023 10200 20080 39979 40016 56016 60006 82872 91500=
07650,1998-09-13 18:00:00,19,1001.9,0.3,52,9,40000,46.3,,,310,13.7,20.2,,,,,,,,,wg-a,,,,AAXX 13184 07650 12582 53125 10190 20090 39982 40019 51003 60006 84832 91800 333 10202 20137=
07650,1998-09-13 21:00:00,14,1005.6,3.6,58,6,500,31.484,,,350,,,,,,,,,,1,wg-a,,,,AAXX 13214 07650 02/00 23517 10140 20060 30018 40056 51036 61000 70161 80002 92100 333 ////=
07650,1998-09-14 00:00:00,14,1006.5,0.9,58,6,500,25.928,,,340,,,,,,,,,,1,wg-a,,,,AAXX 14004 07650 02/00 03414 10140 20060 30027 40065 51009 61000 70161 80000 90000 333 ////=
07650,1998-09-14 03:00:00,11,1007.4,0.8,71,6,500,25.928,,,330,,,,,,,,,,,wg-a,,,,AAXX 14034 07650 12/00 13314 10110 20060 30035 40074 52008 60006 80002 90300=
07650,1998-09-14 06:00:00,10,1008.2,0.8,76,6,500,22.224,,,320,8.9,18.6,,,,,,,,,wg-a,,,,AAXX 14064 07650 02500 /3212 10100 20060 30043 40082 53008 60006 81502 90600 333 10186 20089 61000=
07650,1998-09-14 09:00:00,17,1008.3,0.2,55,8,500,35.188,,,320,,,,,,,,,,,wg-a,,,,AAXX 14094 07650 12500 33219 10170 20080 30045 40083 50002 60006 82502 90900=
07650,1998-09-14 12:00:00,19,1008.2,-0,46,7,500,38.892,,,330,,,,,,,,,,,wg-a,,,,AAXX 14124 07650 12500 33321 10190 20070 30045 40082 55000 60006 83802 91200=
07650,1998-09-14 15:00:00,20,1008.6,0.4,40,6,500,29.632,,,350,,,,,,,,,,,wg-a,,,,AAXX 14154 07650 12500 /3516 10200 20060 30049 40086 53004 60006 81800 91500=
07650,1998-09-14 18:00:00,18,1010.2,1.5,45,6,500,25.928,,,340,10.3,20.7,,,,,,,,,wg-a,,,,AAXX 14184 07650 12500 /3414 10180 20060 30064 40102 53015 60006 81400 91800 333 10207 20103=
07650,1998-09-14 21:00:00,16,1012.6,2.4,51,6,500,25.928,,,340,,,,,,,,,,,wg-a,,,,AAXX 14214 07650 12/00 03414 10160 20060 30088 40126 51024 60006 80000 92100=
07650,1998-09-15 00:00:00,14,1013.6,1,67,8,500,35.188,,,330,,,,,,,,,,,wg-a,,,,AAXX 15004 07650 12/00 03319 10140 20080 30098 40136 50010 60006 80000 90000=
07650,1998-09-15 03:00:00,14,1013.4,-0.2,72,9,500,29.632,,,320,,,,,,,,,,,wg-a,,,,AAXX 15034 07650 12/00 13216 10140 20090 30096 40134 55002 60006 81040 90300=
07650,1998-09-15 06:00:00,13,1015,1.5,72,8,500,35.188,,,320,13,17.7,,,,,,,,,wg-a,,,,AAXX 15064 07650 02700 33219 10130 20080 30111 40150 53015 60006 81532 90600 333 10177 20130 60004=
07650,1998-09-15 09:00:00,17,1015.9,1,59,9,40000,38.892,,,320,,,,,,,,,,,wg-a,,,,AAXX 15094 07650 12682 33221 10170 20090 30121 40159 51010 60006 82241 90900=
07650,1998-09-15 12:00:00,20,1015.3,-0.6,46,8,50000,38.892,,,350,,,,,,,,,,,wg-a,,,,AAXX 15124 07650 12684 23521 10200 20080 30115 40153 58006 60006 82200 91200=
07650,1998-09-15 15:00:00,20,1014.9,-0.4,43,7,50000,38.892,,,360,,,,,,,,,,,wg-a,,,,AAXX 15154 07650 12784 13621 10200 20070 30111 40149 58004 60006 81542 91500=
07650,1998-09-15 18:00:00,19,1015.1,0.2,46,7,60000,35.188,,,350,13,20.7,,,,,,,,,wg-a,,,,AAXX 15184 07650 12/86 13519 10190 20070 30113 40151 51002 60006 81030 91800 333 10207 20130=
07650,1998-09-16 00:00:00,15,1016.7,0,72,10,500,14.816,,,330,,,,,,,,,,,wg-a,,,,AAXX 16004 07650 12/00 13308 10150 20100 30129 40167 50000 60006 81030 90000=
07650,1998-09-16 06:00:00,13,1014.8,-0.6,82,10,500,3.704,,,230,11.9,18.6,,,,,,,,,wg-a,,,,AAXX 16064 07650 02600 32302 10130 20100 30110 40148 56006 60006 81141 90600 333 10186 20119 60004=
07650,1998-09-16 09:00:00,20,1014.7,-0.1,64,13,11000,22.224,,,300,,,,,,,,,,,wg-a,,,,AAXX 16094 07650 12/61 /3012 10200 20130 30109 40147 58001 60006 90900=
07650,1998-09-16 18:00:00,22,1010.7,-0.6,53,12,500,22.224,,,320,12.9,24.9,,,,,,,,,wg-a,,,,AAXX 16184 07650 12600 33212 10220 20120 30070 40107 55006 60006 82401 91800 333 10249 20129=
07650,1998-09-17 00:00:00,18,1012,0.1,56,9,0,35.188,,,340,,,,,,,,,,,wg-a,,,,AAXX 17004 07650 12/// /3419 10180 20090 30082 40120 52001 60006 90000=
07650,1998-09-17 03:00:00,17,1011,-1,59,9,500,50.004,,,330,,,,,,,,,,,wg-a,,,,AAXX 17034 07650 12/00 03327 10170 20090 30072 40110 58010 60006 80000 90300=
07650,1998-09-17 06:00:00,17,1011.9,0.9,55,8,40000,42.596,,,340,16.5,22.5,,,,,,,,,wg-a,,,,AAXX 17064 07650 02582 63423 10170 20080 30081 40119 53009 60006 81132 90600 333 10225 20165 60004=
07650,1998-09-17 09:00:00,19,1012.1,0.2,49,8,40000,57.412,,,340,,,,,,,,,,,wg-a,,,,AAXX 17094 07650 12682 53431 10190 20080 30083 40121 50002 60006 81132 90900=
07650,1998-09-17 12:00:00,21,1011.4,-0.6,43,8,40000,68.524,,,350,,,,,,,,,,,wg-a,,,,AAXX 17124 07650 12682 23537 10210 20080 30077 40114 56006 60006 81102 91200=
07650,1998-09-17 15:00:00,22,1010.8,-0.6,41,8,40000,46.3,,68.524,340,,,,,,,,,,,wg-a,,,,AAXX 17154 07650 12682 23425 10220 20080 30071 40108 57006 60006 81102 91500 333 91037=
07650,1998-09-17 18:00:00,19,1011,0.1,49,8,40000,50.004,,74.08,340,16.6,22.4,,,,,,,,,wg-a,,,,AAXX 17184 07650 12/82 23427 10190 20080 30072 40110 50001 60006 81032 91800 333 10224 20166 91040=
07650,1998-09-17 21:00:00,18,1012.8,1.8,49,7,40000,38.892,,,10,,,,,,,,,,,wg-a,,,,AAXX 17214 07650 12/82 10121 10180 20070 30090 40128 51018 60006 81032 92100=
07650,1998-09-18 00:00:00,14,1014.5,1.7,63,7,40000,14.816,,,10,,,,,,,,,,,wg-a,,,,AAXX 18004 07650 12/82 10108 10140 20070 30107 40145 51017 60006 81030 90000=
07650,1998-09-18 03:00:00,11,1015.3,0.7,76,7,40000,3.704,,,20,,,,,,,,,,,wg-a,,,,AAXX 18034 07650 12/82 10202 10110 20070 30114 40153 53007 60006 81030 90300=
07650,1998-09-18 06:00:00,11,1016.6,1.3,76,7,40000,18.52,,,30,10.5,19.5,,,,,,,,,wg-a,,,,AAXX 18064 07650 02/82 10310 10110 20070 30127 40166 53013 60006 80002 90600 333 10195 20105 60004=
07650,1998-09-18 09:00:00,19,1018.5,2,49,8,40000,11.112,,,330,,,,,,,,,,,wg-a,,,,AAXX 18094 07650 12/82 13306 10190 20080 30147 40185 53020 60006 80002 90900=
07650,1998-09-18 12:00:00,24,1018.1,-0.3,41,10,40000,18.52,,,290,,,,,,,,,,,wg-a,,,,AAXX 18124 07650 12/82 12910 10240 20100 30144 40181 58003 60006 80002 91200=
07650,1998-09-18 15:00:00,25,1017.6,-0.5,39,10,40000,18.52,,,300,,,,,,,,,,,wg-a,,,,AAXX 18154 07650 12/82 13010 10250 20100 30139 40176 58005 60006 80002 91500=
07650,1998-09-18 18:00:00,20,1018.8,1.1,60,12,25000,11.112,,,320,11.1,25.2,,,,,,,,,wg-a,,,,AAXX 18184 07650 12/75 13206 10200 20120 30150 40188 53011 60006 80002 91800 333 10252 20111=
07650,1998-09-18 21:00:00,17,1020.7,1.9,68,11,18000,11.112,,,160,,,,,,,,,,,wg-a,,,,AAXX 18214 07650 12/68 01606 10170 20110 30169 40207 51019 60006 80000 92100=
07650,1998-09-19 00:00:00,14,1021.3,0.5,82,11,17000,0,,,0,,,,,,,,,,,wg-a,,,,AAXX 19004 07650 12/67 00000 10140 20110 30174 40213 53005 60006 80000 90000=
07650,1998-09-19 03:00:00,12,1021.9,0.6,88,10,17000,3.704,,,160,,,,,,,,,,,wg-a,,,,AAXX 19034 07650 12/67 01602 10120 20100 30180 40219 51006 60006 80000 90300=
07650,1998-09-19 06:00:00,12,1023.2,1.3,94,11,15000,3.704,,,160,11.2,20.6,,,,,,,,,wg-a,,,,AAXX 19064 07650 02/65 11602 10120 20110 30193 40232 53013 60006 81030 90600 333 10206 20112 60004=
07650,1998-09-19 09:00:00,19,1024.6,1.5,64,12,20000,7.408,,,290,,,,,,,,,,,wg-a,,,,AAXX 19094 07650 12/70 12904 10190 20120 30208 40246 53015 60006 81030 90900=
07650,1998-09-19 12:00:00,24,1024.6,0.1,44,11,25000,7.408,,,300,,,,,,,,,,,wg-a,,,,AAXX 19124 07650 12/75 03004 10240 20110 30209 40246 50001 60006 80000 91200=
07650,1998-09-19 15:00:00,26,1023.6,-1,42,12,25000,14.816,,,270,,,,,,,,,,,wg-a,,,,AAXX 19154 07650 12/75 02708 10260 20120 30199 40236 56010 60006 80000 91500=
07650,1998-09-19 18:00:00,21,1024,0.3,38,6,25000,7.408,,,190,11.7,26.1,,,,,,,,,wg-a,,,,AAXX 19184 07650 12/75 01904 10210 20060 30202 40240 53003 60006 80000 91800 333 10261 20117=
07650,1998-09-19 21:00:00,16,1025,0.9,59,8,22000,7.408,,,180,,,,,,,,,,,wg-a,,,,AAXX 19214 07650 12/72 21804 10160 20080 30211 40250 51009 60006 80002 92100=
07650,1998-09-20 00:00:00,14,1025,-0,67,8,20000,3.704,,,140,,,,,,,,,,,wg-a,,,,AAXX 20004 07650 12/70 01402 10140 20080 30211 40250 55000 60006 80000 90000=
07650,1998-09-20 03:00:00,13,1024.4,-0.6,82,10,20000,7.408,,,160,,,,,,,,,,,wg-a,,,,AAXX 20034 07650 12/70 01604 10130 20100 30205 40244 56006 60006 80000 90300=
07650,1998-09-20 06:00:00,12,1025.2,0.8,88,10,25000,3.704,,,200,11.8,21.4,,,,,,,,,wg-a,,,,AAXX 20064 07650 02/75 02002 10120 20100 30213 40252 53008 60006 80000 90600 333 10214 20118 60004=
07650,1998-09-20 09:00:00,21,1025.6,0.5,64,14,25000,7.408,,,280,,,,,,,,,,,wg-a,,,,AAXX 20094 07650 12/75 02804 10210 20140 30218 40256 51005 60006 80000 90900=
07650,1998-09-20 12:00:00,25,1024.2,-1.3,47,13,25000,14.816,,,300,,,,,,,,,,,wg-a,,,,AAXX 20124 07650 12675 23008 10250 20130 30205 40242 58013 60006 81101 91200=
07650,1998-09-20 15:00:00,24,1023.4,-0.8,50,13,500,14.816,,,230,,,,,,,,,,,wg-a,,,,AAXX 20154 07650 12600 32308 10240 20130 30197 40234 56008 60006 82201 91500=
07650,1998-09-20 18:00:00,20,1024,0.5,60,12,500,11.112,,,170,12.4,25.3,,,,,,,,,wg-a,,,,AAXX 20184 07650 12600 31706 10200 20120 30202 40240 53005 60006 81201 91800 333 10253 20124=
07650,1998-09-20 21:00:00,19,1025.1,1.1,64,12,500,3.704,,,330,,,,,,,,,,,wg-a,,,,AAXX 20214 07650 12/00 53302 10190 20120 30213 40251 50011 60006 83031 92100=
07650,1998-09-21 00:00:00,17,1024.9,-0.2,77,13,10000,0,,,0,,,,,,,,,,,wg-a,,,,AAXX 21004 07650 12/60 /0000 10170 20130 30211 40249 58002 60006 90000=
07650,1998-09-21 03:00:00,16,1024.5,-0.5,63,9,25000,3.704,,,180,,,,,,,,,,,wg-a,,,,AAXX 21034 07650 12775 31802 10160 20090 30206 40245 56005 60006 82530 90300=
07650,1998-09-21 06:00:00,14,1024.6,0.1,72,9,20000,7.408,,,160,13.5,19.9,,,,,,,,,wg-a,,,,AAXX 21064 07650 02770 21604 10140 20090 30207 40246 53001 60006 81530 90600 333 10199 20135 60004=
07650,1998-09-21 09:00:00,20,1024.4,-0.1,60,12,20000,3.704,,,320,,,,,,,,,,,wg-a,,,,AAXX 21094 07650 12/70 03202 10200 20120 30206 40244 55001 60006 80000 90900=
07650,1998-09-21 12:00:00,24,1022.9,-1.4,38,9,20000,14.816,,,280,,,,,,,,,,,wg-a,,,,AAXX 21124 07650 12570 22808 10240 20090 30192 40229 58014 60006 82203 91200=
07650,1998-09-21 15:00:00,24,1021.4,-1.5,38,9,20000,14.816,,,270,,,,,,,,,,,wg-a,,,,AAXX 21154 07650 12570 /2708 10240 20090 30177 40214 56015 60006 81100 91500=
07650,1998-09-21 18:00:00,20,1021.1,-0.4,60,12,20000,11.112,,,270,13.9,24.9,,,,,,,,,wg-a,,,,AAXX 21184 07650 12/70 12706 10200 20120 30173 40211 55004 60006 81032 91800 333 10249 20139=
07650,1998-09-21 21:00:00,17,1021.6,0.5,72,12,17000,11.112,,,150,,,,,,,,,,,wg-a,,,,AAXX 21214 07650 12/67 21506 10170 20120 30178 40216 50005 60006 80002 92100=
07650,1998-09-22 00:00:00,17,1021.4,-0.2,63,10,17000,3.704,,,120,,,,,,,,,,,wg-a,,,,AAXX 22004 07650 12/67 21202 10170 20100 30176 40214 57002 60006 80002 90000=
07650,1998-09-22 03:00:00,16,1020.1,-1.3,63,9,15000,0,,,0,,,,,,,,,,,wg-a,,,,AAXX 22034 07650 12/65 10000 10160 20090 30163 40201 56013 60006 81032 90300=
07650,1998-09-22 06:00:00,15,1020.4,0.3,67,9,13000,7.408,,,150,14.4,20.3,,,,,,,,,wg-a,,,,AAXX 22064 07650 02/63 /1504 10150 20090 30166 40204 53003 60006 81032 90600 333 10203 20144 60004=
07650,1998-09-22 09:00:00,20,1020.8,0.4,64,13,13000,7.408,,,290,,,,,,,,,,,wg-a,,,,AAXX 22094 07650 12/63 12904 10200 20130 30170 40208 53004 60006 80001 90900=
07650,1998-09-22 12:00:00,25,1019.5,-1.2,39,10,25000,18.52,,,200,,,,,,,,,,,wg-a,,,,AAXX 22124 07650 12675 22010 10250 20100 30158 40195 58012 60006 82200 91200=
07650,1998-09-22 15:00:00,24,1018.5,-1,44,11,500,29.632,,,200,,,,,,,,,,,wg-a,,,,AAXX 22154 07650 12500 32016 10240 20110 30148 40185 58010 60006 81802 91500=
07650,1998-09-22 18:00:00,20,1019,0.4,64,13,20000,22.224,,,180,14.2,25.3,,,,,,,,,wg-a,,,,AAXX 22184 07650 12670 21812 10200 20130 30152 40190 53004 60006 81502 91800 333 10253 20142=
07650,1998-09-22 21:00:00,18,1020.1,1.1,68,12,10000,7.408,,,130,,,,,,,,,,,wg-a,,,,AAXX 22214 07650 12/60 /1304 10180 20120 30163 40201 51011 60006 92100=
07650,1998-09-23 00:00:00,15,1019.5,-0.6,72,10,20000,7.408,,,170,,,,,,,,,,,wg-a,,,,AAXX 23004 07650 12/70 01704 10150 20100 30157 40195 58006 60006 80000 90000=
07650,1998-09-23 03:00:00,15,1019,-0.5,72,10,20000,7.408,,,140,,,,,,,,,,,wg-a,,,,AAXX 23034 07650 12/70 01404 10150 20100 30152 40190 56005 60006 80000 90300=
07650,1998-09-23 06:00:00,14,1019.3,0.3,82,11,12000,7.408,,,170,13.3,20.2,,,,,,,,,wg-a,,,,AAXX 23064 07650 02/62 11704 10140 20110 30155 40193 53003 60006 81030 90600 333 10202 20133 60004=
07650,1998-09-23 09:00:00,21,1019.8,0.5,56,12,12000,7.408,,,20,,,,,,,,,,,wg-a,,,,AAXX 23094 07650 12/62 10204 10210 20120 30160 40198 51005 60006 81030 90900=
07650,1998-09-23 12:00:00,24,1018.8,-0.9,50,13,15000,29.632,,,200,,,,,,,,,,,wg-a,,,,AAXX 23124 07650 12565 32016 10240 20130 30151 40188 57009 60006 82230 91200=
07650,1998-09-23 15:00:00,23,1018.4,-0.4,57,14,15000,25.928,,46.3,180,,,,,,,,,,,wg-a,,,,AAXX 23154 07650 12565 31814 10230 20140 30147 40184 57004 60006 82830 91500 333 91025=
07650,1998-09-23 18:00:00,20,1018.6,0.1,73,15,12000,14.816,,,180,14,24.7,,,,,,,,,wg-a,,,,AAXX 23184 07650 12662 /1808 10200 20150 30148 40186 53001 60006 81542 91800 333 10247 20140=
07650,1998-09-23 21:00:00,18,1019.1,0.5,68,12,15000,7.408,,,160,,,,,,,,,,,wg-a,,,,AAXX 23214 07650 12665 51604 10180 20120 30153 40191 51005 60006 81542 92100=
07650,1998-09-24 00:00:00,17,1018.6,-0.5,63,10,15000,7.408,,,100,,,,,,,,,,,wg-a,,,,AAXX 24004 07650 12/65 61004 10170 20100 30148 40186 58005 60006 85032 90000=
07650,1998-09-24 03:00:00,16,1017.7,-0.9,68,10,20000,3.704,,,130,,,,,,,,,,,wg-a,,,,AAXX 24034 07650 12/70 21302 10160 20100 30139 40177 56009 60006 80002 90300=
07650,1998-09-24 06:00:00,18,1017.9,0.2,59,10,12000,11.112,,,130,15.8,20.2,,,,,,,,,wg-a,,,,AAXX 24064 07650 02662 61306 10180 20100 30141 40179 52002 60006 81542 90600 333 10202 20158 60004=
07650,1998-09-24 09:00:00,22,1018,0.2,53,12,12000,14.816,,,130,,,,,,,,,,,wg-a,,,,AAXX 24094 07650 12662 81308 10220 20120 30143 40180 53002 60006 82572 90900=
07650,1998-09-24 12:00:00,24,1017.2,-0.8,44,11,17000,22.224,,,140,,,,,,,,,,,wg-a,,,,AAXX 24124 07650 12667 81412 10240 20110 30135 40172 56008 60006 8387/ 91200=
07650,1998-09-24 15:00:00,24,1016.3,-0.9,44,11,17000,18.52,,,140,,,,,,,,,,,wg-a,,,,AAXX 24154 07650 12667 81410 10240 20110 30126 40163 58009 60006 8287/ 91500=
07650,1998-09-24 18:00:00,22,1015.7,-0.6,50,11,20000,11.112,,,170,17.5,25.1,,,,,,,,,wg-a,,,,AAXX 24184 07650 12870 31706 10220 20110 30120 40157 55006 60006 81542 91800 333 10251 20175=
07650,1998-09-24 21:00:00,18,1016,0.2,68,12,20000,3.704,,,10,,,,,,,,,,,wg-a,,,,AAXX 24214 07650 12770 20102 10180 20120 30122 40160 50002 60006 81532 92100=
07650,1998-09-25 00:00:00,18,1016.1,0.1,68,12,18000,7.408,,,110,,,,,,,,,,,wg-a,,,,AAXX 25004 07650 12768 41104 10180 20120 30123 40161 50001 60006 82532 90000=
07650,1998-09-25 03:00:00,16,1015,-1.1,82,13,10000,7.408,,,180,,,,,,,,,,,wg-a,,,,AAXX 25034 07650 12/60 /1804 10160 20130 30112 40150 56011 60006 90300=
07650,1998-09-25 06:00:00,18,1014.8,-0.2,73,13,11000,7.408,,,130,14.8,21.6,,,,,,,,,wg-a,,,,AAXX 25064 07650 02761 61304 10180 20130 30110 40148 58002 60006 81532 90600 333 10216 20148 60004=
07650,1998-09-25 09:00:00,23,1015.1,0.4,57,14,15000,22.224,,,180,,,,,,,,,,,wg-a,,,,AAXX 25094 07650 12565 61812 10230 20140 30114 40151 53004 60006 82832 90900=
07650,1998-09-25 12:00:00,24,1013.9,-1.2,57,15,18000,29.632,,,190,,,,,,,,,,,wg-a,,,,AAXX 25124 07650 12568 41916 10240 20150 30102 40139 56012 60006 82832 91200=
07650,1998-09-25 15:00:00,21,1013.7,-0.2,73,16,18000,35.188,,,180,,,,,,,,,,,wg-a,,,,AAXX 25154 07650 12568 61819 10210 20160 30100 40137 55002 60006 83832 91500=
07650,1998-09-25 18:00:00,20,1013.1,-0.6,73,15,18000,18.52,,,160,17.3,24.3,,,,,,,,,wg-a,,,,AAXX 25184 07650 12768 71610 10200 20150 30094 40131 55006 60006 83542 91800 333 10243 20173=
07650,1998-09-25 21:00:00,19,1013.2,0,73,14,18000,22.224,,,150,,,,,,,,,,,wg-a,,,,AAXX 25214 07650 12668 71512 10190 20140 30094 40132 50000 60006 81572 92100=
07650,1998-09-26 00:00:00,19,1012.7,-0.5,73,14,20000,22.224,,,150,,,,,,,,,,,wg-a,,,,AAXX 26004 07650 12670 71512 10190 20140 30089 40127 58005 60006 82572 90000=
07650,1998-09-26 03:00:00,18,1010.7,-2,73,13,13000,14.816,,,100,,,,,,,,,,,wg-a,,,,AAXX 26034 07650 12663 81008 10180 20130 30069 40107 58020 60006 81572 90300=
07650,1998-09-26 06:00:00,19,1007.6,-3,68,13,13000,29.632,,,120,17.9,20.4,,,,,,,,,wg-a,,,,AAXX 26064 07650 02563 81216 10190 20130 30039 40076 58030 60006 84872 90600 333 10204 20179 60004=
07650,1998-09-26 09:00:00,22,1007.7,0.1,60,14,12000,22.224,,,140,,,,,,,,,,3,wg-a,,,,AAXX 26094 07650 02562 81412 10220 20140 30040 40077 53001 61000 70362 8497/ 90900 333 ////=
07650,1998-09-26 12:00:00,25,1005.7,-2,54,15,17000,42.596,,68.524,150,,,,,,,,,,1,wg-a,,,,AAXX 26124 07650 02667 71523 10250 20150 30020 40057 56020 61000 70162 82572 91200 333 //// 91037=
07650,1998-09-26 15:00:00,24,1005.3,-0.4,61,16,17000,29.632,,,150,,,,,,,,,,,wg-a,,,,AAXX 26154 07650 12567 71516 10240 20160 30016 40053 56004 60006 8187/ 91500=
07650,1998-09-26 18:00:00,23,1005.1,-0.2,65,16,20000,35.188,,,160,19.2,25.4,,,,,,,,,wg-a,,,,AAXX 26184 07650 12570 51619 10230 20160 30014 40051 57002 60006 84802 91800 333 10254 20192=
07650,1998-09-26 21:00:00,21,1006.4,1.3,73,16,20000,25.928,,,180,,,,,,,,,,,wg-a,,,,AAXX 26214 07650 12/70 31814 10210 20160 30027 40064 51013 60006 80002 92100=
07650,1998-09-27 00:00:00,20,1006.9,0.5,83,17,20000,18.52,,,170,,,,,,,,,,,wg-a,,,,AAXX 27004 07650 12/70 31710 10200 20170 30032 40069 53005 60006 81042 90000=
07650,1998-09-27 03:00:00,20,1005.9,-1,88,18,18000,11.112,,,170,,,,,,,,,,,wg-a,,,,AAXX 27034 07650 12568 31706 10200 20180 30022 40059 58010 60006 81132 90300=
07650,1998-09-27 06:00:00,18,1005.4,-0.5,100,18,8000,7.408,,,150,18.2,22.7,,,,,,,,,wg-a,,,,AAXX 27064 07650 02458 41504 10180 20180 30017 40054 55005 60006 84830 90600 333 10227 20182 61000=
07650,1998-09-27 09:00:00,23,1006.4,1,69,17,12000,11.112,,,340,,,,,,,,,,,wg-a,,,,AAXX 27094 07650 12462 33406 10230 20170 30027 40064 52010 60006 83830 90900=
07650,1998-09-27 12:00:00,24,1006.9,0.5,44,11,500,22.224,,,320,,,,,,,,,,,wg-a,,,,AAXX 27124 07650 12500 23212 10240 20110 30032 40069 51005 60006 82902 91200=
07650,1998-09-27 15:00:00,25,1006.9,-0,41,11,500,18.52,,,310,,,,,,,,,,,wg-a,,,,AAXX 27154 07650 12500 33110 10250 20110 30032 40069 55000 60006 82203 91500=
07650,1998-09-27 18:00:00,21,1008.6,1.7,60,13,20000,29.632,,,310,18,24.8,,,,,,,,,wg-a,,,,AAXX 27184 07650 12570 73116 10210 20130 30049 40086 53017 60006 85802 91800 333 10248 20180=
07650,1998-09-27 21:00:00,19,1010.5,1.8,68,13,20000,25.928,,,310,,,,,,,,,,,wg-a,,,,AAXX 27214 07650 12/70 43114 10190 20130 30067 40105 51018 60006 83031 92100=
07650,1998-09-28 00:00:00,17,1010.2,-0.3,82,14,20000,25.928,,,290,,,,,,,,,,,wg-a,,,,AAXX 28004 07650 12/70 12914 10170 20140 30064 40102 58003 60006 81030 90000=
07650,1998-09-28 03:00:00,17,1009.3,-0.9,77,13,20000,25.928,,,300,,,,,,,,,,,wg-a,,,,AAXX 28034 07650 12/70 13014 10170 20130 30055 40093 55009 60006 80002 90300=
07650,1998-09-28 06:00:00,15,1009.5,0.2,88,13,20000,11.112,,,360,14.9,21.4,,,,,,,,,wg-a,,,,AAXX 28064 07650 02/70 23606 10150 20130 30057 40095 53002 60006 81042 90600 333 10214 20149 60004=
07650,1998-09-28 09:00:00,20,1009.9,0.5,68,14,20000,14.816,,,320,,,,,,,,,,,wg-a,,,,AAXX 28094 07650 12570 63208 10200 20140 30062 40099 51005 60006 83542 90900=
07650,1998-09-28 12:00:00,22,1009.1,-0.8,57,13,500,18.52,,,290,,,,,,,,,,,wg-a,,,,AAXX 28124 07650 12500 52910 10220 20130 30054 40091 58008 60006 83842 91200=
07650,1998-09-28 15:00:00,22,1008,-1.1,53,12,500,14.816,,,330,,,,,,,,,,,wg-a,,,,AAXX 28154 07650 12500 53308 10220 20120 30043 40080 56011 60006 85840 91500=
07650,1998-09-28 18:00:00,20,1008.4,0.4,68,14,500,14.816,,,340,14.7,23.4,,,,,,,,,wg-a,,,,AAXX 28184 07650 12600 /3408 10200 20140 30047 40084 53004 60006 81402 91800 333 10234 20147=
07650,1998-09-28 21:00:00,18,1010,1.5,73,13,500,14.816,,,330,,,,,,,,,,,wg-a,,,,AAXX 28214 07650 12/00 13308 10180 20130 30062 40100 52015 60006 81032 92100=
07650,1998-09-29 00:00:00,15,1009.9,-0.1,82,12,500,18.52,,,330,,,,,,,,,,,wg-a,,,,AAXX 29004 07650 12/00 13310 10150 20120 30061 40099 58001 60006 81032 90000=
07650,1998-09-29 03:00:00,15,1009.9,0,88,13,500,18.52,,,350,,,,,,,,,,,wg-a,,,,AAXX 29034 07650 12/00 13510 10150 20130 30061 40099 50000 60006 81032 90300=
07650,1998-09-29 06:00:00,14,1009.6,-0.3,88,12,500,11.112,,,330,12.6,20,,,,,,,,,wg-a,,,,AAXX 29064 07650 02/00 13306 10140 20120 30058 40096 55003 60006 81030 90600 333 10200 20126 60004=
07650,1998-09-29 09:00:00,19,1010.4,0.8,68,13,20000,11.112,,,290,,,,,,,,,,,wg-a,,,,AAXX 29094 07650 12570 12906 10190 20130 30066 40104 52008 60006 81102 90900=
07650,1998-09-29 12:00:00,23,1009.4,-0.9,53,13,25000,7.408,,,290,,,,,,,,,,,wg-a,,,,AAXX 29124 07650 12675 62904 10230 20130 30057 40094 58009 60006 81105 91200=
07650,1998-09-29 15:00:00,23,1008.5,-0.9,50,12,500,14.816,,,230,,,,,,,,,,,wg-a,,,,AAXX 29154 07650 12600 72308 10230 20120 30048 40085 56009 60006 8387/ 91500=
07650,1998-09-29 18:00:00,20,1008.5,0,60,12,20000,14.816,,,150,13.5,23.6,,,,,,,,,wg-a,,,,AAXX 29184 07650 12670 71508 10200 20120 30048 40085 50000 60006 8387/ 91800 333 10236 20135=
07650,1998-09-29 21:00:00,20,1008,-0.5,68,14,20000,22.224,,,130,,,,,,,,,,,wg-a,,,,AAXX 29214 07650 12570 71312 10200 20140 30043 40080 56005 60006 8357/ 92100=
07650,1998-09-30 00:00:00,20,1007,-1,78,16,15000,22.224,,,140,,,,,,,,,,,wg-a,,,,AAXX 30004 07650 12565 81412 10200 20160 30033 40070 58010 60006 8457/ 90000=
07650,1998-09-30 03:00:00,20,1004.5,-2.5,94,19,8000,22.224,,,150,,,,1,,,,,,60,wg-a,,,,AAXX 30034 07650 12458 81512 10200 20190 30008 40045 58025 60017 76062 8687/ 90300=
07650,1998-09-30 06:00:00,19,1003.9,-0.6,100,19,3500,14.816,,,230,18.7,21.3,,,,,,,,10,wg-a,,,,AAXX 30064 07650 02235 82308 10190 20190 30002 40039 55006 61000 71062 888// 90600 333 10213 20187 6016=
07650,1998-09-30 09:00:00,18,1005.5,1.6,94,17,10000,25.928,,,330,,,,,,,,,,21,wg-a,,,,AAXX 30094 07650 02260 83314 10180 20170 30018 40055 53016 61000 72162 887// 90900 333 ////=
07650,1998-09-30 12:00:00,18,1006.5,1,94,17,12000,18.52,,,300,,,,2,,,,,,21,wg-a,,,,AAXX 30124 07650 02362 83010 10180 20170 30028 40065 51010 60026 72162 8587/ 91200 333 60027=
07650,1998-09-30 15:00:00,21,1005.9,-0.6,73,16,20000,14.816,,,310,,,,,,,,,,,wg-a,,,,AAXX 30154 07650 12570 33108 10210 20160 30022 40059 56006 60006 82842 91500=
07650,1998-09-30 18:00:00,19,1006.8,0.9,83,16,20000,18.52,,,300,17.4,21.4,,,,,,,,,wg-a,,,,AAXX 30184 07650 12570 23010 10190 20160 30031 40068 53009 60006 81440 91800 333 10214 20174=
07650,1998-09-30 21:00:00,16,1007.5,0.6,88,14,500,14.816,,,340,,,,,,,,,,,wg-a,,,,AAXX 30214 07650 12/00 23408 10160 20140 30037 40075 51006 60006 81041 92100=
07650,1998-10-01 00:00:00,14,1007.5,0,88,12,500,3.704,,,220,,,,,,,,,,,wg-a,,,,AAXX 01004 07650 12/00 02202 10140 20120 30037 40075 50000 60006 80000 90000=
07650,1998-10-01 03:00:00,12,1006.7,-0.8,100,12,500,3.704,,,140,,,,,,,,,,,wg-a,,,,AAXX 01034 07650 12/00 21402 10120 20120 30029 40067 58008 60006 82032 90300=
07650,1998-10-01 06:00:00,12,1007.2,0.5,94,11,500,7.408,,,140,11.6,19.1,,,,,2,,,,wg-a,,,,AAXX 01064 07650 02600 21404 10120 20110 30034 40072 50005 60006 81530 90600 333 10191 20116 60024=
07650,1998-10-01 09:00:00,17,1007.9,0.7,72,12,20000,3.704,,,310,,,,,,,,,,,wg-a,,,,AAXX 01094 07650 12770 53102 10170 20120 30041 40079 51007 60006 82580 90900=
07650,1998-10-01 12:00:00,19,1008,0.2,64,12,25000,7.408,,,280,,,,0,,,,,,1,wg-a,,,,AAXX 01124 07650 02675 42804 10190 20120 30043 40080 50002 60006 70186 82231 91200 333 60007=
07650,1998-10-01 18:00:00,17,1008,0.8,68,11,40000,11.112,,,240,11.5,20.3,,,,,,,,,wg-a,,,,AAXX 01184 07650 12682 /2406 10170 20110 30042 40080 53008 60006 81930 91800 333 10203 20115=
07650,1998-10-01 21:00:00,14,1008.5,0.5,82,11,40000,3.704,,,140,,,,,,,,,,,wg-a,,,,AAXX 01214 07650 12/82 /1402 10140 20110 30047 40085 52005 60006 81031 92100=
07650,1998-10-02 00:00:00,14,1008.5,-0,88,12,500,7.408,,,160,,,,,,,,,,,wg-a,,,,AAXX 02004 07650 12/00 51604 10140 20120 30047 40085 55000 60006 82031 90000=
07650,1998-10-02 03:00:00,15,1007.6,-0.9,82,12,500,11.112,,,160,,,,,,,,,,,wg-a,,,,AAXX 02034 07650 12600 /1606 10150 20120 30038 40076 58009 60006 82530 90300=
07650,1998-10-02 06:00:00,15,1007.7,0.1,88,13,25000,11.112,,,290,13.2,17.2,,,,,,,,21,wg-a,,,,AAXX 02064 07650 02475 72906 10150 20130 30039 40077 53001 61000 72162 86870 90600 333 10172 20132 6000=
07650,1998-10-02 09:00:00,16,1008.3,0.6,77,12,15000,7.408,,,130,,,,1,,,,,,21,wg-a,,,,AAXX 02094 07650 12565 71304 10160 20120 30045 40083 51006 60017 72162 8587/ 90900=
07650,1998-10-02 12:00:00,19,1007.2,-1,64,12,11000,29.632,,,270,,,,,,,,,,,wg-a,,,,AAXX 02124 07650 12/61 /2716 10190 20120 30035 40072 58010 60016 91200=
07650,1998-10-02 15:00:00,19,1006.3,-0.9,68,13,20000,29.632,,,250,,,,,,,,,,,wg-a,,,,AAXX 02154 07650 12570 72516 10190 20130 30026 40063 56009 60006 8427/ 91500=
07650,1998-10-02 18:00:00,18,1006.8,0.5,73,13,20000,25.928,,,270,14.9,20.1,,,,,,,,,wg-a,,,,AAXX 02184 07650 12570 72714 10180 20130 30031 40068 53005 60006 8487/ 91800 333 10201 20149=
07650,1998-10-02 21:00:00,17,1007.4,0.5,77,13,11000,22.224,,,290,,,,,,,,,,,wg-a,,,,AAXX 02214 07650 12/61 /2912 10170 20130 30036 40074 51005 60006 92100=
07650,1998-10-03 00:00:00,16,1006.9,-0.5,77,12,20000,14.816,,,320,,,,,,,,,,,wg-a,,,,AAXX 03004 07650 12670 /3208 10160 20120 30031 40069 57005 60006 82530 90000=
07650,1998-10-03 03:00:00,15,1006.8,-0.1,82,12,20000,11.112,,,320,,,,,,,,,,,wg-a,,,,AAXX 03034 07650 12670 43206 10150 20120 30030 40068 56001 60006 82530 90300=
07650,1998-10-03 06:00:00,14,1008.3,1.5,94,13,15000,14.816,,,340,14,18.6,,,,,1,,,,wg-a,,,,AAXX 03064 07650 02465 63408 10140 20130 30045 40083 53015 60006 84830 90600 333 10186 20140 60014=
07650,1998-10-03 09:00:00,18,1009.2,0.9,68,12,500,35.188,,,340,,,,,,,,,,,wg-a,,,,AAXX 03094 07650 12500 /3419 10180 20120 30054 40092 51009 60006 81130 90900=
07650,1998-10-03 12:00:00,20,1009.3,0.2,56,11,500,35.188,,,340,,,,,,,,,,,wg-a,,,,AAXX 03124 07650 12600 33419 10200 20110 30056 40093 51002 60006 83200 91200=
07650,1998-10-03 15:00:00,20,1009.1,-0.2,53,10,40000,38.892,,,360,,,,,,,,,,,wg-a,,,,AAXX 03154 07650 12682 /3621 10200 20100 30054 40091 55002 60006 81400 91500=
07650,1998-10-03 18:00:00,16,1010.4,1.2,59,8,500,22.224,,,350,14.2,20.2,,,,,,,,,wg-a,,,,AAXX 03184 07650 12600 23512 10160 20080 30066 40104 53012 60006 81502 91800 333 10202 20142=
07650,1998-10-03 21:00:00,14,1010.6,0.2,67,8,20000,25.928,,,350,,,,,,,,,,,wg-a,,,,AAXX 03214 07650 12/70 23514 10140 20080 30068 40106 53002 60006 80002 92100=
07650,1998-10-04 00:00:00,12,1009.8,-0.8,76,8,20000,7.408,,,30,,,,,,,,,,,wg-a,,,,AAXX 04004 07650 12670 40304 10120 20080 30060 40098 58008 60006 82502 90000=
07650,1998-10-04 03:00:00,13,1008.6,-1.2,77,9,18000,7.408,,,310,,,,,,,,,,,wg-a,,,,AAXX 04034 07650 12668 53104 10130 20090 30048 40086 57012 60006 81532 90300=
07650,1998-10-04 06:00:00,12,1008.1,-0.5,82,9,15000,7.408,,,160,11.8,16.1,,,,,,,,,wg-a,,,,AAXX 04064 07650 02565 71604 10120 20090 30043 40081 55005 60006 81532 90600 333 10161 20118 60004=
07650,1998-10-04 09:00:00,15,1008,-0.1,77,11,15000,7.408,,,200,,,,,,,,,,60,wg-a,,,,AAXX 04094 07650 02365 72004 10150 20110 30042 40080 55001 61000 76062 83572 90900 333 ////=
07650,1998-10-04 12:00:00,16,1007.2,-0.8,63,9,15000,7.408,,,230,,,,,,,,,,3,wg-a,,,,AAXX 04124 07650 02365 82304 10160 20090 30034 40072 57008 61000 70362 8457/ 91200 333 6100=
07650,1998-10-04 15:00:00,17,1005.7,-1.5,72,12,15000,7.408,,,30,,,,,,,,,,,wg-a,,,,AAXX 04154 07650 12565 80304 10170 20120 30019 40057 56015 60006 8457/ 91500=
07650,1998-10-04 18:00:00,16,1004.9,-0.8,72,11,10000,7.408,,,140,12.1,16.9,,,,,,,,1,wg-a,,,,AAXX 04184 07650 02460 81404 10160 20110 30011 40049 55008 60006 70162 8457/ 91800 333 10169 20121 61000=
07650,1998-10-04 21:00:00,15,1005.1,0.2,82,12,15000,3.704,,,20,,,,0,,,,,,2,wg-a,,,,AAXX 04214 07650 12565 80202 10150 20120 30013 40051 53002 60007 70262 8657/ 92100=
07650,1998-10-05 00:00:00,14,1003.9,-1.2,88,12,15000,11.112,,,50,,,,0,,,,,,1,wg-a,,,,AAXX 05004 07650 02565 70506 10140 20120 30001 40039 56012 60016 70162 8457/ 90000 333 60007=
07650,1998-10-05 03:00:00,14,1003,-0.9,88,12,12000,3.704,,,70,,,,,,,,,,,wg-a,,,,AAXX 05034 07650 12562 70702 10140 20120 39992 40030 58009 60006 84576 90300=
07650,1998-10-05 06:00:00,14,1003.2,0.2,88,12,12000,11.112,,,90,12.9,15.9,,,,,,,,,wg-a,,,,AAXX 05064 07650 02562 /0906 10140 20120 39994 40032 53002 60006 83542 90600 333 10159 20129 60004=
07650,1998-10-05 09:00:00,17,1004.2,1,77,13,15000,7.408,,,290,,,,,,,,,,,wg-a,,,,AAXX 05094 07650 12765 62904 10170 20130 30004 40042 51010 60006 81542 90900=
07650,1998-10-05 12:00:00,19,1004,-0.1,68,13,15000,11.112,,,310,,,,,,,,,,,wg-a,,,,AAXX 05124 07650 12665 73106 10190 20130 30003 40040 58001 60006 81542 91200=
07650,1998-10-05 15:00:00,20,1003.5,-0.5,60,12,15000,7.408,,,240,,,,,,,,,,,wg-a,,,,AAXX 05154 07650 12565 72404 10200 20120 39998 40035 55005 60006 82242 91500=
07650,1998-10-05 18:00:00,17,1004.3,0.8,82,14,15000,7.408,,,160,13.9,20.9,,,,,,,,,wg-a,,,,AAXX 05184 07650 12565 71604 10170 20140 30006 40043 53008 60006 82842 91800 333 10209 20139=
07650,1998-10-05 21:00:00,17,1004.7,0.3,88,15,15000,7.408,,,60,,,,0,,,,,,60,wg-a,,,,AAXX 05214 07650 12565 70604 10170 20150 30009 40047 50003 60007 76062 8597/ 92100=
07650,1998-10-06 00:00:00,16,1002.7,-2,94,15,15000,22.224,,,100,,,,9,,,,,,61,wg-a,,,,AAXX 06004 07650 02565 71012 10160 20150 39989 40027 58020 60106 76162 8597/ 90000 333 60097=
07650,1998-10-06 03:00:00,15,1000.4,-2.3,100,15,10000,14.816,,,30,,,,3,,,,,,60,wg-a,,,,AAXX 06034 07650 12460 80308 10150 20150 39966 40004 56023 60037 76066 8587/ 90300=
07650,1998-10-06 06:00:00,14,1001.9,1.5,94,13,500,31.484,,,350,13.3,17.3,,,,,24,,,,wg-a,,,,AAXX 06064 07650 02/00 /3517 10140 20130 39981 40019 50015 60006 90600 333 10173 20133 60244=
07650,1998-10-06 09:00:00,17,1006.2,4.3,82,14,25000,11.112,,,240,,,,,,,,,,1,wg-a,,,,AAXX 06094 07650 02475 /2406 10170 20140 30024 40062 51043 61000 70162 85831 90900 333 ////=
07650,1998-10-06 12:00:00,17,1007.8,1.6,82,14,20000,14.816,,,310,,,,,,,,,,3,wg-a,,,,AAXX 06124 07650 02570 63108 10170 20140 30040 40078 51016 61000 70362 85830 91200 333 ////=
07650,1998-10-06 15:00:00,18,1008.4,0.6,68,12,500,11.112,,,290,,,,,,,,,,,wg-a,,,,AAXX 06154 07650 12600 32906 10180 20120 30046 40084 53006 60006 82230 91500=
07650,1998-10-06 18:00:00,16,1009.7,1.3,82,13,500,18.52,,,330,13.5,18.3,,,,,,,,,wg-a,,,,AAXX 06184 07650 12500 43310 10160 20130 30059 40097 53013 60006 83830 91800 333 10183 20135=
07650,1998-10-06 21:00:00,13,1010.8,1.1,100,13,500,7.408,,,20,,,,,,,,,,,wg-a,,,,AAXX 06214 07650 12500 20204 10130 20130 30070 40108 51011 60006 81540 92100=
07650,1998-10-07 00:00:00,12,1010.8,-0,94,11,20000,0,,,0,,,,,,,,,,,wg-a,,,,AAXX 07004 07650 12570 30000 10120 20110 30070 40108 55000 60006 81502 90000=
07650,1998-10-07 03:00:00,12,1009.9,-0.9,100,12,9000,7.408,,,20,,,,,,,,,,,wg-a,,,,AAXX 07034 07650 12/59 /0204 10120 20120 30061 40099 58009 60006 90300=
07650,1998-10-07 06:00:00,12,1010.3,0.4,94,11,9000,18.52,,,340,11.7,16.1,,,,,,,,,wg-a,,,,AAXX 07064 07650 02459 73410 10120 20110 30065 40103 53004 60006 876// 90600 333 10161 20117 61000=
07650,1998-10-07 09:00:00,15,1010.9,0.6,72,10,15000,29.632,,,350,,,,,,,,,,,wg-a,,,,AAXX 07094 07650 12465 43516 10150 20100 30071 40109 50006 60006 82832 90900=
07650,1998-10-07 12:00:00,18,1010.2,-0.7,59,10,500,35.188,,,340,,,,,,,,,,,wg-a,,,,AAXX 07124 07650 12500 /3419 10180 20100 30064 40102 58007 60006 82832 91200=
07650,1998-10-07 15:00:00,18,1010.4,0.2,56,9,500,31.484,,,350,,,,,,,,,,,wg-a,,,,AAXX 07154 07650 12500 43517 10180 20090 30066 40104 53002 60006 81202 91500=
07650,1998-10-07 18:00:00,14,1011.8,1.4,72,9,500,35.188,,,340,12.2,18.2,,,,,,,,,wg-a,,,,AAXX 07184 07650 12500 43419 10140 20090 30080 40118 53014 60006 81432 91800 333 10182 20122=
07650,1998-10-07 21:00:00,13,1011.8,-0,72,8,500,38.892,,,350,,,,,,,,,,,wg-a,,,,AAXX 07214 07650 12/00 43521 10130 20080 30080 40118 55000 60006 82032 92100=
07650,1998-10-08 00:00:00,12,1012.2,0.3,76,8,500,29.632,,,340,,,,,,,,,,,wg-a,,,,AAXX 08004 07650 12/00 33416 10120 20080 30083 40122 53003 60006 80002 90000=
07650,1998-10-08 03:00:00,11,1012,-0.2,76,7,500,25.928,,,340,,,,,,,,,,,wg-a,,,,AAXX 08034 07650 12500 /3414 10110 20070 30081 40120 58002 60006 81532 90300=
07650,1998-10-08 06:00:00,11,1012.3,0.3,76,7,500,22.224,,,360,10.4,14.4,,,,,,,,,wg-a,,,,AAXX 08064 07650 02500 73612 10110 20070 30084 40123 53003 60006 82832 90600 333 10144 20104 60004=
07650,1998-10-08 09:00:00,13,1014.1,1.9,72,8,25000,14.816,,,10,,,,,,,,,,,wg-a,,,,AAXX 08094 07650 12575 /0108 10130 20080 30103 40141 53019 60006 83830 90900=
07650,1998-10-08 12:00:00,17,1014.9,0.8,63,10,35000,25.928,,,350,,,,,,,,,,,wg-a,,,,AAXX 08124 07650 12681 73514 10170 20100 30111 40149 51008 60006 85830 91200=
07650,1998-10-08 15:00:00,17,1015.2,0.3,59,9,35000,25.928,,,340,,,,,,,,,,,wg-a,,,,AAXX 08154 07650 12681 /3414 10170 20090 30114 40152 53003 60006 84832 91500=
07650,1998-10-08 18:00:00,15,1016.7,1.5,67,9,25000,18.52,,,330,10.5,18,,,,,,,,,wg-a,,,,AAXX 08184 07650 12675 43310 10150 20090 30129 40167 53015 60006 82832 91800 333 10180 20105=
07650,1998-10-08 21:00:00,14,1018.6,1.8,72,9,20000,14.816,,,320,,,,,,,,,,,wg-a,,,,AAXX 08214 07650 12670 53208 10140 20090 30147 40186 53018 60006 84532 92100=
07650,1998-10-09 00:00:00,13,1018.7,0.1,77,9,20000,3.704,,,360,,,,,,,,,,,wg-a,,,,AAXX 09004 07650 12670 73602 10130 20090 30148 40187 50001 60006 85532 90000=
07650,1998-10-09 03:00:00,12,1018.7,-0,88,10,15000,7.408,,,330,,,,,,,,,,,wg-a,,,,AAXX 09034 07650 12665 73304 10120 20100 30148 40187 55000 60006 85532 90300=
07650,1998-10-09 06:00:00,12,1019.5,0.8,88,10,10000,3.704,,,150,11.7,14.9,,,,,,,,,wg-a,,,,AAXX 09064 07650 02660 71502 10120 20100 30156 40195 53008 60006 8553/ 90600 333 10149 20117 60004=
07650,1998-10-09 09:00:00,15,1020.6,1.2,82,12,15000,3.704,,,310,,,,,,,,,,,wg-a,,,,AAXX 09094 07650 12665 63102 10150 20120 30168 40206 51012 60006 85832 90900=
07650,1998-10-09 12:00:00,18,1020.4,-0.2,68,12,17000,3.704,,,360,,,,,,,,,,,wg-a,,,,AAXX 09124 07650 12667 63602 10180 20120 30166 40204 58002 60006 85832 91200=
07650,1998-10-09 15:00:00,19,1020.1,-0.3,64,12,20000,18.52,,,220,,,,,,,,,,,wg-a,,,,AAXX 09154 07650 12570 32210 10190 20120 30163 40201 55003 60006 82903 91500=
07650,1998-10-09 18:00:00,16,1020.7,0.6,72,11,25000,7.408,,,190,11.7,19.8,,,,,,,,,wg-a,,,,AAXX 09184 07650 12575 21904 10160 20110 30169 40207 53006 60006 82802 91800 333 10198 20117=
07650,1998-10-09 21:00:00,13,1021.9,1.1,88,11,20000,7.408,,,130,,,,,,,,,,,wg-a,,,,AAXX 09214 07650 12570 21304 10130 20110 30180 40219 53011 60006 82500 92100=
07650,1998-10-10 00:00:00,11,1022,0.1,100,11,12000,11.112,,,160,,,,,,,,,,,wg-a,,,,AAXX 10004 07650 12/62 /1606 10110 20110 30181 40220 53001 60006 80000 90000=
07650,1998-10-10 03:00:00,11,1020.8,-1.2,100,11,11000,7.408,,,150,,,,,,,,,,,wg-a,,,,AAXX 10034 07650 12/61 /1504 10110 20110 30169 40208 58012 60006 90300=
07650,1998-10-10 06:00:00,10,1021.3,0.5,100,10,10000,11.112,,,170,9.8,15.6,,,,,,,,,wg-a,,,,AAXX 10064 07650 02560 21706 10100 20100 30174 40213 53005 60006 81502 90600 333 10156 20098 60004=
07650,1998-10-10 09:00:00,16,1022.3,1.1,72,11,15000,3.704,,,30,,,,,,,,,,,wg-a,,,,AAXX 10094 07650 12565 10302 10160 20110 30185 40223 51011 60006 81101 90900=
07650,1998-10-10 12:00:00,18,1021.4,-0.9,52,8,20000,7.408,,,300,,,,,,,,,,,wg-a,,,,AAXX 10124 07650 12570 /3004 10180 20080 30176 40214 58009 60006 81202 91200=
07650,1998-10-10 15:00:00,18,1019.8,-1.6,64,11,20000,22.224,,,270,,,,,,,,,,,wg-a,,,,AAXX 10154 07650 12670 /2712 10180 20110 30160 40198 57016 60006 81202 91500=
07650,1998-10-10 18:00:00,15,1020.1,0.3,77,11,20000,7.408,,,190,9.7,19.1,,,,,,,,,wg-a,,,,AAXX 10184 07650 12670 21904 10150 20110 30163 40201 52003 60006 81530 91800 333 10191 20097=
07650,1998-10-10 21:00:00,15,1020.7,0.6,82,12,20000,7.408,,,150,,,,,,,,,,,wg-a,,,,AAXX 10214 07650 12570 71504 10150 20120 30169 40207 52006 60006 83532 92100=
07650,1998-10-11 00:00:00,14,1020.4,-0.4,88,12,20000,3.704,,,170,,,,,,,,,,,wg-a,,,,AAXX 11004 07650 12470 71702 10140 20120 30165 40204 58004 60006 84532 90000=
07650,1998-10-11 03:00:00,14,1018.9,-1.4,94,13,20000,7.408,,,180,,,,,,,,,,,wg-a,,,,AAXX 11034 07650 12470 31804 10140 20130 30151 40189 58014 60006 82502 90300=
07650,1998-10-11 06:00:00,13,1018.8,-0.2,100,13,10000,11.112,,,340,11.8,15.3,,,,,,,,,wg-a,,,,AAXX 11064 07650 02460 33406 10130 20130 30149 40188 58002 60006 83800 90600 333 10153 20118 60004=
07650,1998-10-11 09:00:00,16,1019.4,0.7,82,13,11000,25.928,,,320,,,,,,,,,,,wg-a,,,,AAXX 11094 07650 12561 33214 10160 20130 30156 40194 50007 60006 81531 90900=
07650,1998-10-11 12:00:00,19,1018.1,-1.3,56,10,25000,31.484,,50.004,340,,,,,,,,,,,wg-a,,,,AAXX 11124 07650 12575 33417 10190 20100 30143 40181 58013 60006 81101 91200 333 91027=
07650,1998-10-11 15:00:00,19,1016.5,-1.6,56,10,500,25.928,,,340,,,,,,,,,,,wg-a,,,,AAXX 11154 07650 12500 53414 10190 20100 30127 40165 56016 60006 82131 91500=
07650,1998-10-11 18:00:00,17,1016.4,-0.1,63,10,500,22.224,,,330,12.9,20.1,,,,,,,,,wg-a,,,,AAXX 11184 07650 12500 /3312 10170 20100 30126 40164 55001 60006 81141 91800 333 10201 20129=
07650,1998-10-11 21:00:00,16,1016.2,-0.2,72,11,20000,29.632,,,310,,,,,,,,,,,wg-a,,,,AAXX 11214 07650 12770 63116 10160 20110 30124 40162 58002 60006 83532 92100=
07650,1998-10-12 00:00:00,16,1015,-1.2,72,11,20000,25.928,,,320,,,,,,,,,,,wg-a,,,,AAXX 12004 07650 12670 73214 10160 20110 30112 40150 58012 60006 8553/ 90000=
07650,1998-10-12 03:00:00,15,1013.3,-1.7,77,11,20000,22.224,,,320,,,,,,,,,,,wg-a,,,,AAXX 12034 07650 12670 73212 10150 20110 30095 40133 58017 60006 8353/ 90300=
07650,1998-10-12 06:00:00,14,1012.6,-0.7,88,12,500,29.632,,,330,14.2,16.6,,,,,,,,,wg-a,,,,AAXX 12064 07650 02/00 43316 10140 20120 30088 40126 58007 60006 82031 90600 333 10166 20142 60004=
07650,1998-10-12 09:00:00,19,1013,0.4,64,12,50000,38.892,,,340,,,,,,,,,,,wg-a,,,,AAXX 12094 07650 12584 33421 10190 20120 30092 40130 50004 60006 81542 90900=
07650,1998-10-12 12:00:00,21,1012.2,-0.7,49,10,75000,50.004,,70.376,350,,,,,,,,,,,wg-a,,,,AAXX 12124 07650 12589 /3527 10210 20100 30085 40122 58007 60006 81102 91200 333 91038=
07650,1998-10-12 15:00:00,20,1012.4,0.1,46,8,75000,50.004,,,360,,,,,,,,,,,wg-a,,,,AAXX 12154 07650 12589 /3627 10200 20080 30086 40124 53001 60006 81541 91500=
07650,1998-10-12 18:00:00,16,1013.7,1.3,55,7,11000,61.116,,74.08,340,14.1,21.4,,,,,,,,,wg-a,,,,AAXX 12184 07650 12/61 /3433 10160 20070 30099 40137 51013 60006 91800 333 10214 20141 91040=
07650,1998-10-12 21:00:00,14,1015.1,1.4,67,8,500,50.004,,74.08,350,,,,,,,,,,,wg-a,,,,AAXX 12214 07650 12/00 03527 10140 20080 30113 40151 53014 60006 80000 92100 333 91040=
07650,1998-10-13 00:00:00,14,1015.2,0.1,67,8,500,61.116,,,360,,,,,,,,,,,wg-a,,,,AAXX 13004 07650 12/00 03633 10140 20080 30114 40152 50001 60006 80000 90000=
07650,1998-10-13 03:00:00,13,1017.7,2.4,72,8,500,31.484,,,360,,,,,,,,,,,wg-a,,,,AAXX 13034 07650 12/00 03617 10130 20080 30138 40177 53024 60006 80000 90300=
07650,1998-10-13 06:00:00,12,1018.9,1.2,67,6,500,31.484,,57.412,10,11.8,15.7,,,,,,,,,wg-a,,,,AAXX 13064 07650 02/00 10117 10120 20060 30150 40189 53012 60006 80001 90600 333 10157 20118 60004 91031=
07650,1998-10-13 09:00:00,16,1020.2,1.4,55,7,500,31.484,,,10,,,,,,,,,,,wg-a,,,,AAXX 13094 07650 12/00 10117 10160 20070 30164 40202 51014 60006 80001 90900=
07650,1998-10-13 12:00:00,19,1020.6,0.4,40,5,10000,18.52,,,360,,,,,,,,,,,wg-a,,,,AAXX 13124 07650 12/60 /3610 10190 20050 30168 40206 51004 60006 91200=
07650,1998-10-13 15:00:00,20,1020.6,-0,43,7,500,18.52,,,350,,,,,,,,,,,wg-a,,,,AAXX 13154 07650 12/00 13510 10200 20070 30168 40206 55000 60006 80002 91500=
07650,1998-10-13 18:00:00,16,1021.5,0.9,51,6,500,7.408,,,280,11.7,20.2,,,,,,,,,wg-a,,,,AAXX 13184 07650 12/00 32804 10160 20060 30177 40215 53009 60006 81042 91800 333 10202 20117=
07650,1998-10-13 21:00:00,13,1022,0.4,62,6,20000,18.52,,,320,,,,,,,,,,,wg-a,,,,AAXX 13214 07650 12/70 03210 10130 20060 30181 40220 53004 60006 80000 92100=
07650,1998-10-14 00:00:00,11,1022.3,0.3,76,7,10000,0,,,0,,,,,,,,,,,wg-a,,,,AAXX 14004 07650 12/60 /0000 10110 20070 30184 40223 51003 60006 90000=
07650,1998-10-14 03:00:00,9,1022.3,0,81,6,20000,7.408,,,150,,,,,,,,,,,wg-a,,,,AAXX 14034 07650 12/70 21504 10090 20060 30184 40223 50000 60006 81032 90300=
07650,1998-10-14 06:00:00,8,1023.2,0.9,93,7,60000,3.704,,,180,8.2,15.9,,,,,,,,,wg-a,,,,AAXX 14064 07650 02/86 31802 10080 20070 30193 40232 52009 60006 83031 90600 333 10159 20082 60004=
07650,1998-10-14 09:00:00,15,1024.3,1.1,67,9,500,7.408,,,300,,,,,,,,,,,wg-a,,,,AAXX 14094 07650 12/00 13004 10150 20090 30204 40243 51011 60006 81031 90900=
07650,1998-10-14 12:00:00,20,1023.6,-0.6,49,9,10000,11.112,,,270,,,,,,,,,,,wg-a,,,,AAXX 14124 07650 12/60 /2706 10200 20090 30198 40236 58006 60006 91200=
07650,1998-10-14 15:00:00,22,1022.9,-0.7,35,6,20000,11.112,,,280,,,,,,,,,,,wg-a,,,,AAXX 14154 07650 12/70 12806 10220 20060 30191 40229 56007 60006 81030 91500=
07650,1998-10-14 18:00:00,17,1023.9,1,72,12,20000,3.704,,,210,8.2,22,,,,,,,,,wg-a,,,,AAXX 14184 07650 12/70 02102 10170 20120 30201 40239 53010 60006 80000 91800 333 10220 20082=
07650,1998-10-14 21:00:00,14,1024.6,0.6,88,12,20000,7.408,,,190,,,,,,,,,,,wg-a,,,,AAXX 14214 07650 12/70 01904 10140 20120 30207 40246 52006 60006 80000 92100=
07650,1998-10-15 00:00:00,12,1024.3,-0.3,94,11,20000,3.704,,,150,,,,,,,,,,,wg-a,,,,AAXX 15004 07650 12/70 01502 10120 20110 30204 40243 56003 60006 80000 90000=
07650,1998-10-15 03:00:00,11,1023.1,-1.2,94,10,15000,7.408,,,150,,,,,,,,,,,wg-a,,,,AAXX 15034 07650 12/65 01504 10110 20100 30192 40231 58012 60006 80000 90300=
07650,1998-10-15 06:00:00,10,1023.5,0.4,100,10,8000,3.704,,,140,9.6,17.1,,,,,,,,,wg-a,,,,AAXX 15064 07650 02/58 11402 10100 20100 30196 40235 53004 60006 81030 90600 333 10171 20096 60004=
07650,1998-10-15 09:00:00,15,1024.1,0.7,88,13,7000,3.704,,,320,,,,,,,,,,,wg-a,,,,AAXX 15094 07650 12/57 23202 10150 20130 30203 40241 50007 60006 81032 90900=
07650,1998-10-15 12:00:00,20,1023.2,-0.9,64,13,10000,7.408,,,300,,,,,,,,,,,wg-a,,,,AAXX 15124 07650 12660 33004 10200 20130 30194 40232 58009 60006 81102 91200=
07650,1998-10-15 15:00:00,22,1021.6,-1.6,53,12,20000,7.408,,,220,,,,,,,,,,,wg-a,,,,AAXX 15154 07650 12/70 52204 10220 20120 30178 40216 56016 60006 80002 91500=
07650,1998-10-15 18:00:00,17,1022.3,0.7,77,13,10000,3.704,,,150,9.5,22.3,,,,,,,,,wg-a,,,,AAXX 15184 07650 12/60 /1502 10170 20130 30185 40223 53007 60006 91800 333 10223 20095=
07650,1998-10-15 21:00:00,14,1023,0.6,88,12,15000,7.408,,,160,,,,,,,,,,,wg-a,,,,AAXX 15214 07650 12/65 01604 10140 20120 30191 40230 51006 60006 80000 92100=
07650,1998-10-16 00:00:00,12,1022.8,-0.2,100,12,10000,3.704,,,140,,,,,,,,,,,wg-a,,,,AAXX 16004 07650 12/60 /1402 10120 20120 30189 40228 58002 60006 90000=
07650,1998-10-16 03:00:00,11,1021.8,-1,100,11,8000,7.408,,,150,,,,,,,,,,,wg-a,,,,AAXX 16034 07650 12458 21504 10110 20110 30179 40218 58010 60006 81502 90300=
07650,1998-10-16 06:00:00,12,1022.2,0.4,94,11,8000,7.408,,,90,11.3,16.9,,,,,,,,,wg-a,,,,AAXX 16064 07650 02/58 50904 10120 20110 30183 40222 53004 60006 80002 90600 333 10169 20113 60004=
07650,1998-10-16 09:00:00,18,1023.2,1.1,77,14,12000,11.112,,,100,,,,,,,,,,,wg-a,,,,AAXX 16094 07650 12/62 51006 10180 20140 30194 40232 51011 60006 80002 90900=
07650,1998-10-16 12:00:00,21,1022.3,-0.9,73,16,18000,18.52,,,170,,,,,,,,,,,wg-a,,,,AAXX 16124 07650 12568 /1710 10210 20160 30185 40223 58009 60006 82202 91200=
07650,1998-10-16 15:00:00,20,1020.7,-1.6,73,15,11000,14.816,,,170,,,,,,,,,,,wg-a,,,,AAXX 16154 07650 12/61 /1708 10200 20150 30169 40207 57016 60006 91500=
07650,1998-10-16 18:00:00,18,1020.8,0.1,83,15,15000,22.224,,,170,11.8,21.6,,,,,,,,,wg-a,,,,AAXX 16184 07650 12565 71712 10180 20150 30170 40208 52001 60006 84532 91800 333 10216 20118=
07650,1998-10-16 21:00:00,18,1021.3,0.5,77,14,12000,14.816,,,150,,,,,,,,,,,wg-a,,,,AAXX 16214 07650 12662 /1508 10180 20140 30175 40213 51005 60006 85502 92100=
07650,1998-10-17 00:00:00,18,1020.4,-0.9,77,14,12000,14.816,,,130,,,,,,,,,,3,wg-a,,,,AAXX 17004 07650 02562 71308 10180 20140 30166 40204 58009 61000 70386 875// 90000 333 6100=
07650,1998-10-17 03:00:00,17,1019.4,-1,77,13,12000,14.816,,,120,,,,,,,,,,,wg-a,,,,AAXX 17034 07650 12662 31208 10170 20130 30156 40194 58010 60006 82530 90300=
07650,1998-10-17 06:00:00,15,1019.3,-0.1,88,13,10000,7.408,,,90,15,18.3,,,,,,,,,wg-a,,,,AAXX 17064 07650 02560 50904 10150 20130 30155 40193 56001 60006 81532 90600 333 10183 20150 61000=
07650,1998-10-17 09:00:00,19,1019.6,0.3,73,14,10000,14.816,,,140,,,,,,,,,,,wg-a,,,,AAXX 17094 07650 12/60 51408 10190 20140 30158 40196 51003 60006 82032 90900=
07650,1998-10-17 12:00:00,22,1018.5,-1,60,14,17000,18.52,,,180,,,,,,,,,,,wg-a,,,,AAXX 17124 07650 12567 31810 10220 20140 30148 40185 58010 60006 82232 91200=
07650,1998-10-17 15:00:00,21,1016.8,-1.7,69,15,17000,14.816,,,200,,,,,,,,,,,wg-a,,,,AAXX 17154 07650 12567 62008 10210 20150 30131 40168 56017 60006 82232 91500=
07650,1998-10-17 18:00:00,18,1017.5,0.6,83,15,17000,11.112,,,170,15.1,22.5,,,,,,,,,wg-a,,,,AAXX 17184 07650 12567 41706 10180 20150 30137 40175 53006 60006 83532 91800 333 10225 20151=
07650,1998-10-17 21:00:00,17,1018.2,0.7,88,15,15000,7.408,,,130,,,,,,,,,,,wg-a,,,,AAXX 17214 07650 12/65 31304 10170 20150 30144 40182 51007 60006 82032 92100=
07650,1998-10-18 00:00:00,16,1018.5,0.3,88,14,15000,3.704,,,70,,,,,,,,,,,wg-a,,,,AAXX 18004 07650 12565 50702 10160 20140 30147 40185 50003 60006 83532 90000=
07650,1998-10-18 03:00:00,16,1017.5,-1,88,14,12000,7.408,,,20,,,,2,,,,,,21,wg-a,,,,AAXX 18034 07650 12562 /0204 10160 20140 30137 40175 58010 60027 72162 84532 90300=
07650,1998-10-18 06:00:00,15,1017.6,0.1,94,14,4000,7.408,,,160,14.7,18.3,,,,,2,,,10,wg-a,,,,AAXX 18064 07650 02340 71604 10150 20140 30138 40176 53001 60006 71061 8557/ 90600 333 10183 20147 60024=
07650,1998-10-18 09:00:00,17,1018.6,1,88,15,500,3.704,,,290,,,,,,,,,,,wg-a,,,,AAXX 18094 07650 12400 82902 10170 20150 30148 40186 51010 60006 875// 90900=
07650,1998-10-18 12:00:00,20,1017.3,-1.3,73,15,9000,7.408,,,280,,,,,,,,,,,wg-a,,,,AAXX 18124 07650 12459 /2804 10200 20150 30135 40173 58013 60006 83830 91200=
07650,1998-10-18 15:00:00,21,1015.1,-2.1,69,15,25000,14.816,,,290,,,,,,,,,,,wg-a,,,,AAXX 18154 07650 12575 42908 10210 20150 30114 40151 56021 60006 81141 91500=
07650,1998-10-18 18:00:00,16,1015,-0.2,82,13,40000,7.408,,,330,14.7,21,,,,,,,,,wg-a,,,,AAXX 18184 07650 12/82 33304 10160 20130 30112 40150 56002 60006 81031 91800 333 10210 20147=
07650,1998-10-18 21:00:00,15,1014.7,-0.3,82,12,500,11.112,,,340,,,,,,,,,,,wg-a,,,,AAXX 18214 07650 12/00 53406 10150 20120 30109 40147 57003 60006 83031 92100=
07650,1998-10-19 00:00:00,14,1013.5,-1.2,88,12,20000,7.408,,,330,,,,0,,,,,,61,wg-a,,,,AAXX 19004 07650 02570 73304 10140 20120 30097 40135 58012 60016 76161 8757/ 90000 333 60007=
07650,1998-10-19 03:00:00,13,1013.2,-0.3,94,12,8000,11.112,,,340,,,,6,,,,,,63,wg-a,,,,AAXX 19034 07650 12458 83406 10130 20120 30094 40132 56003 60067 76362 8687/ 90300=
07650,1998-10-19 06:00:00,12,1012.1,-1.2,94,11,12000,22.224,,,360,11.6,16.1,,,,,,,,60,wg-a,,,,AAXX 19064 07650 02462 83612 10120 20110 30082 40121 56012 61000 76062 8587/ 90600 333 10161 20116 6010=
07650,1998-10-19 09:00:00,12,1012.7,0.7,88,10,15000,22.224,,,340,,,,,,,,,,1,wg-a,,,,AAXX 19094 07650 02665 83412 10120 20100 30089 40127 51007 61000 70162 8357/ 90900 333 ////=
07650,1998-10-19 12:00:00,16,1011.8,-0.9,63,9,11000,29.632,,,340,,,,,,,,,,,wg-a,,,,AAXX 19124 07650 02/61 /3416 10160 20090 30080 40118 58009 61000 91200 333 ////=
07650,1998-10-19 15:00:00,17,1011.7,-0.1,48,6,40000,50.004,,,340,,,,,,,,,,,wg-a,,,,AAXX 19154 07650 12682 23427 10170 20060 30079 40117 55001 60006 81542 91500=
07650,1998-10-19 18:00:00,14,1012.5,0.8,55,5,500,38.892,,,340,11.5,17.1,,,,,,,,,wg-a,,,,AAXX 19184 07650 12/00 13421 10140 20050 30087 40125 53008 60006 80002 91800 333 10171 20115=
07650,1998-10-19 21:00:00,13,1014.1,1.6,62,6,25000,46.3,,,350,,,,,,,,,,,wg-a,,,,AAXX 19214 07650 12/75 03525 10130 20060 30103 40141 51016 60006 80000 92100=
07650,1998-10-20 00:00:00,12,1015.6,1.4,58,4,25000,38.892,,,360,,,,,,,,,,,wg-a,,,,AAXX 20004 07650 12/75 03621 10120 20040 30117 40156 51014 60006 80000 90000=
07650,1998-10-20 03:00:00,11,1015.7,0.1,62,4,25000,31.484,,,10,,,,,,,,,,,wg-a,,,,AAXX 20034 07650 12/75 00117 10110 20040 30118 40157 50001 60006 80000 90300=
07650,1998-10-20 06:00:00,11,1016.6,0.9,62,4,500,35.188,,,350,11,14.2,,,,,,,,,wg-a,,,,AAXX 20064 07650 02/00 03519 10110 20040 30127 40166 52009 60006 80000 90600 333 10142 20110 61000=
07650,1998-10-20 09:00:00,14,1018.6,2,58,6,500,42.596,,,350,,,,,,,,,,,wg-a,,,,AAXX 20094 07650 12/00 03523 10140 20060 30147 40186 51020 60006 80000 90900=
07650,1998-10-20 12:00:00,17,1018.7,0.2,48,6,500,46.3,,61.116,350,,,,,,,,,,,wg-a,,,,AAXX 20124 07650 12/00 13525 10170 20060 30149 40187 50002 60006 80001 91200 333 91033=
07650,1998-10-20 15:00:00,17,1018.7,-0,45,5,500,38.892,,62.968,350,,,,,,,,,,,wg-a,,,,AAXX 20154 07650 12/00 13521 10170 20050 30149 40187 55000 60006 80001 91500 333 91034=
07650,1998-10-20 18:00:00,13,1020.2,1.4,58,5,500,11.112,,,20,11.4,17.4,,,,,,,,,wg-a,,,,AAXX 20184 07650 12/00 00206 10130 20050 30163 40202 53014 60006 80000 91800 333 10174 20114=
07650,1998-10-20 21:00:00,9,1022.6,2.4,81,6,500,11.112,,,180,,,,,,,,,,,wg-a,,,,AAXX 20214 07650 12/00 01806 10090 20060 30187 40226 51024 60006 80000 92100=
07650,1998-10-21 00:00:00,10,1023.7,1.1,76,6,500,7.408,,,170,,,,,,,,,,,wg-a,,,,AAXX 21004 07650 12/00 01704 10100 20060 30198 40237 51011 60006 80000 90000=
07650,1998-10-21 03:00:00,10,1024.2,0.5,71,5,10000,3.704,,,90,,,,,,,,,,,wg-a,,,,AAXX 21034 07650 12/60 /0902 10100 20050 30203 40242 51005 60006 90300=
07650,1998-10-21 06:00:00,10,1025.6,1.4,76,6,20000,3.704,,,160,8.2,13.4,,,,,,,,,wg-a,,,,AAXX 21064 07650 02/70 11602 10100 20060 30217 40256 53014 60006 80001 90600 333 10134 20082 60004=
07650,1998-10-21 09:00:00,18,1027.1,1.6,52,8,20000,7.408,,,30,,,,,,,,,,,wg-a,,,,AAXX 21094 07650 12/70 10304 10180 20080 30233 40271 52016 60006 80001 90900=
07650,1998-10-21 12:00:00,21,1027,-0.1,46,9,20000,22.224,,,190,,,,,,,,,,,wg-a,,,,AAXX 21124 07650 12570 51912 10210 20090 30232 40270 58001 60006 81102 91200=
07650,1998-10-21 15:00:00,20,1026.9,-0.1,56,11,20000,25.928,,,190,,,,,,,,,,,wg-a,,,,AAXX 21154 07650 12570 41914 10200 20110 30231 40269 56001 60006 81502 91500=
07650,1998-10-21 18:00:00,17,1028,1.1,68,11,20000,14.816,,,160,9.5,21.6,,,,,,,,,wg-a,,,,AAXX 21184 07650 12570 21608 10170 20110 30242 40280 53011 60006 81502 91800 333 10216 20095=
07650,1998-10-21 21:00:00,15,1028.9,0.8,67,9,20000,11.112,,,130,,,,,,,,,,,wg-a,,,,AAXX 21214 07650 12/70 01306 10150 20090 30250 40289 51008 60006 80000 92100=
07650,1998-10-22 00:00:00,14,1029.2,0.3,77,10,20000,14.816,,,110,,,,,,,,,,,wg-a,,,,AAXX 22004 07650 12/70 01108 10140 20100 30253 40292 50003 60006 80000 90000=
07650,1998-10-22 03:00:00,13,1028.8,-0.4,82,10,500,11.112,,,110,,,,,,,,,,,wg-a,,,,AAXX 22034 07650 12/00 01106 10130 20100 30249 40288 55004 60006 80000 90300=
07650,1998-10-22 06:00:00,13,1029.1,0.3,82,10,15000,7.408,,,130,12.5,17,,,,,,,,,wg-a,,,,AAXX 22064 07650 02465 21304 10130 20100 30252 40291 51003 60006 81532 90600 333 10170 20125 60004=
07650,1998-10-22 09:00:00,18,1030.2,1.2,73,13,18000,7.408,,,130,,,,,,,,,,,wg-a,,,,AAXX 22094 07650 12568 21304 10180 20130 30264 40302 51012 60006 81101 90900=
07650,1998-10-22 12:00:00,21,1029.6,-0.6,60,13,500,14.816,,,170,,,,,,,,,,,wg-a,,,,AAXX 22124 07650 12500 21708 10210 20130 30258 40296 58006 60006 81231 91200=
07650,1998-10-22 15:00:00,20,1029.1,-0.5,64,13,500,14.816,,,220,,,,,,,,,,,wg-a,,,,AAXX 22154 07650 12600 62208 10200 20130 30253 40291 55005 60006 86801 91500=
07650,1998-10-22 18:00:00,17,1029.4,0.2,77,13,500,7.408,,,180,12.6,21,,,,,,,,,wg-a,,,,AAXX 22184 07650 12600 41804 10170 20130 30255 40294 53002 60006 81401 91800 333 10210 20126=
07650,1998-10-22 21:00:00,16,1030,0.6,77,12,500,7.408,,,140,,,,,,,,,,,wg-a,,,,AAXX 22214 07650 12600 31404 10160 20120 30261 40300 51006 60006 82532 92100=
07650,1998-10-23 00:00:00,15,1029.4,-0.6,88,13,20000,3.704,,,170,,,,,,,,,,,wg-a,,,,AAXX 23004 07650 12670 41702 10150 20130 30255 40294 58006 60006 83532 90000=
07650,1998-10-23 03:00:00,14,1028.6,-0.8,94,13,18000,3.704,,,130,,,,,,,,,,,wg-a,,,,AAXX 23034 07650 12668 21302 10140 20130 30247 40286 58008 60006 82502 90300=
07650,1998-10-23 06:00:00,14,1027.6,-1,94,13,18000,7.408,,,130,13.2,16.4,,,,,,,,,wg-a,,,,AAXX 23064 07650 02468 51304 10140 20130 30237 40276 56010 60006 83802 90600 333 10164 20132 60004=
07650,1998-10-23 09:00:00,17,1028.1,0.6,82,14,14000,7.408,,,90,,,,,,,,,,,wg-a,,,,AAXX 23094 07650 12564 70904 10170 20140 30243 40281 51006 60006 878// 90900=
07650,1998-10-23 12:00:00,20,1026.7,-1.4,73,15,20000,7.408,,,220,,,,,,,,,,,wg-a,,,,AAXX 23124 07650 12570 72204 10200 20150 30229 40267 58014 60006 878// 91200=
07650,1998-10-23 15:00:00,19,1024.7,-2,78,15,25000,18.52,,,200,,,,,,,,,,,wg-a,,,,AAXX 23154 07650 12575 52010 10190 20150 30209 40247 56020 60006 83802 91500=
07650,1998-10-23 18:00:00,16,1023.9,-0.8,94,15,17000,7.408,,,180,13.5,20.8,,,,,,,,,wg-a,,,,AAXX 23184 07650 12367 31804 10160 20150 30201 40239 57008 60006 81502 91800 333 10208 20135=
07650,1998-10-23 21:00:00,14,1023.7,-0.3,100,14,8000,11.112,,,170,,,,,,,,,,,wg-a,,,,AAXX 23214 07650 12358 71706 10140 20140 30198 40237 58003 60006 82532 92100=
07650,1998-10-24 00:00:00,15,1022.4,-1.2,94,14,4000,3.704,,,20,,,,,,,,,,10,wg-a,,,,AAXX 24004 07650 12140 80202 10150 20140 30186 40224 58012 60006 71011 876// 90000=
07650,1998-10-24 03:00:00,14,1021.1,-1.3,100,14,900,0,,,0,,,,,,,,,,44,wg-a,,,,AAXX 24034 07650 12109 90000 10140 20140 30173 40211 58013 60006 74442 896// 90300=
07650,1998-10-24 06:00:00,13,1020,-1.2,100,13,7000,11.112,,,310,13.4,16.3,,,,,,,,28,wg-a,,,,AAXX 24064 07650 02357 43106 10130 20130 30161 40200 56012 60006 72841 81642 90600 333 10163 20134 60004=
07650,1998-10-24 09:00:00,16,1020,0.1,82,13,9000,14.816,,,300,,,,,,,,,,3,wg-a,,,,AAXX 24094 07650 12559 /3008 10160 20130 30162 40200 50001 60006 70341 81582 90900=
07650,1998-10-24 12:00:00,19,1018.8,-1.2,60,11,20000,25.928,,,320,,,,,,,,,,1,wg-a,,,,AAXX 24124 07650 12670 73214 10190 20110 30150 40188 58012 60006 70141 81542 91200=
07650,1998-10-24 15:00:00,20,1016.4,-2.4,64,13,40000,14.816,,,270,,,,,,,,,,,wg-a,,,,AAXX 24154 07650 12682 /2708 10200 20130 30126 40164 56024 60006 81542 91500=
07650,1998-10-24 18:00:00,16,1016.5,0.1,72,11,20000,3.704,,,300,13.4,20.5,,,,,,,,,wg-a,,,,AAXX 24184 07650 12670 /3002 10160 20110 30127 40165 53001 60006 81532 91800 333 10205 20134=
07650,1998-10-24 21:00:00,15,1015.1,-1.4,82,12,20000,3.704,,,120,,,,,,,,,,,wg-a,,,,AAXX 24214 07650 12570 /1202 10150 20120 30113 40151 56014 60006 81532 92100=
07650,1998-10-25 00:00:00,16,1013,-2.1,88,14,20000,3.704,,,120,,,,,,,,,,,wg-a,,,,AAXX 25004 07650 12470 71202 10160 20140 30092 40130 56021 60006 8357/ 90000=
07650,1998-10-25 03:00:00,16,1009.3,-3.7,88,14,12000,3.704,,,120,,,,,,,,,,,wg-a,,,,AAXX 25034 07650 12562 81202 10160 20140 30055 40093 56037 60006 8357/ 90300=
07650,1998-10-25 06:00:00,17,1007.6,-1.7,88,15,9000,11.112,,,150,14.8,16.6,,,,,,,,,wg-a,,,,AAXX 25064 07650 02559 71506 10170 20150 30038 40076 58017 60006 8457/ 90600 333 10166 20148 60004=
07650,1998-10-25 09:00:00,17,1007.7,0.1,94,16,500,0,,,0,,,,2,,,,,,21,wg-a,,,,AAXX 25094 07650 12500 70000 10170 20160 30039 40077 52001 60027 72162 8357/ 90900=
07650,1998-10-25 12:00:00,18,1008.4,0.8,73,13,500,31.484,,,310,,,,,,,,,,2,wg-a,,,,AAXX 25124 07650 12400 73117 10180 20130 30047 40084 53008 60026 70262 8387/ 91200=
07650,1998-10-25 15:00:00,17,1009.3,0.8,68,11,11000,25.928,,,340,,,,,,,,,,,wg-a,,,,AAXX 25154 07650 12/61 /3414 10170 20110 30055 40093 53008 60006 91500=
07650,1998-10-25 18:00:00,16,1010.9,1.6,68,10,500,25.928,,,320,15.8,18.7,,,,,,,,,wg-a,,,,AAXX 25184 07650 12500 /3214 10160 20100 30071 40109 53016 60006 81572 91800 333 10187 20158=
07650,1998-10-25 21:00:00,14,1012.5,1.6,72,9,40000,25.928,,,330,,,,,,,,,,,wg-a,,,,AAXX 25214 07650 12/82 23314 10140 20090 30087 40125 53016 60006 80002 92100=
07650,1998-10-26 00:00:00,13,1013.2,0.7,72,8,40000,22.224,,,330,,,,,,,,,,,wg-a,,,,AAXX 26004 07650 12/82 03312 10130 20080 30094 40132 52007 60006 80000 90000=
07650,1998-10-26 03:00:00,12,1013.5,0.2,76,8,40000,22.224,,,330,,,,,,,,,,,wg-a,,,,AAXX 26034 07650 12/82 03312 10120 20080 30096 40135 53002 60006 80000 90300=
07650,1998-10-26 06:00:00,11,1015.2,1.7,82,8,40000,22.224,,,340,10.6,16.3,,,,,2,,,,wg-a,,,,AAXX 26064 07650 02/82 03412 10110 20080 30113 40152 53017 60006 80000 90600 333 10163 20106 60024=
07650,1998-10-26 09:00:00,15,1017.1,2,59,7,50000,29.632,,,340,,,,,,,,,,,wg-a,,,,AAXX 26094 07650 12584 13416 10150 20070 30133 40171 51020 60006 81500 90900=
07650,1998-10-26 12:00:00,17,1017.4,0.3,48,6,50000,35.188,,,340,,,,,,,,,,,wg-a,,,,AAXX 26124 07650 12584 /3419 10170 20060 30136 40174 53003 60006 81500 91200=
07650,1998-10-26 15:00:00,18,1016.9,-0.5,49,7,50000,25.928,,,340,,,,,,,,,,,wg-a,,,,AAXX 26154 07650 12584 /3414 10180 20070 30131 40169 55005 60006 81102 91500=
07650,1998-10-26 18:00:00,16,1018.3,1.4,63,9,500,35.188,,,300,10.7,17.8,,,,,,,,,wg-a,,,,AAXX 26184 07650 12600 53019 10160 20090 30145 40183 51014 60006 82532 91800 333 10178 20107=
07650,1998-10-27 00:00:00,12,1023.2,2,67,6,500,25.928,,,340,,,,,,,,,,,wg-a,,,,AAXX 27004 07650 12/00 13414 10120 20060 30193 40232 51020 60006 80002 90000=
07650,1998-10-27 03:00:00,10,1024,0.8,76,6,500,25.928,,,350,,,,,,,,,,,wg-a,,,,AAXX 27034 07650 12/00 13514 10100 20060 30201 40240 50008 60006 81032 90300=
07650,1998-10-27 06:00:00,12,1025.5,1.5,67,6,500,18.52,,,340,9.9,15.7,,,,,,,,,wg-a,,,,AAXX 27064 07650 02/00 13410 10120 20060 30216 40255 53015 60006 81032 90600 333 10157 20099 60004=
07650,1998-10-27 09:00:00,14,1026.9,1.4,63,7,75000,25.928,,,320,,,,,,,,,,,wg-a,,,,AAXX 27094 07650 12/89 03214 10140 20070 30230 40269 50014 60006 80000 90900=
07650,1998-10-27 12:00:00,17,1024.8,-2,45,5,75000,31.484,,,350,,,,,,,,,,,wg-a,,,,AAXX 27124 07650 12/89 13517 10170 20050 30210 40248 58020 60006 80002 91200=
07650,1998-10-27 15:00:00,17,1025.3,0.5,48,6,75000,25.928,,,320,,,,,,,,,,,wg-a,,,,AAXX 27154 07650 12/89 53214 10170 20060 30215 40253 53005 60006 80002 91500=
07650,1998-10-27 18:00:00,13,1026.2,0.8,67,7,25000,7.408,,,300,11.1,18.1,,,,,,,,,wg-a,,,,AAXX 27184 07650 12/75 33004 10130 20070 30223 40262 53008 60006 81042 91800 333 10181 20111=
07650,1998-10-27 21:00:00,11,1026.8,0.6,82,8,25000,11.112,,,120,,,,,,,,,,,wg-a,,,,AAXX 27214 07650 12/75 31206 10110 20080 30229 40268 50006 60006 80001 92100=
07650,1998-10-28 00:00:00,10,1026.3,-0.5,87,8,500,7.408,,,170,,,,,,,,,,,wg-a,,,,AAXX 28004 07650 12/00 31704 10100 20080 30224 40263 58005 60006 80001 90000=
07650,1998-10-28 03:00:00,10,1025.3,-1,82,7,20000,14.816,,,160,,,,,,,,,,,wg-a,,,,AAXX 28034 07650 12/70 31608 10100 20070 30214 40253 56010 60006 80002 90300=
07650,1998-10-28 06:00:00,10,1024.9,-0.4,87,8,20000,7.408,,,190,8.6,12.6,,,,,,,,,wg-a,,,,AAXX 28064 07650 02/70 51904 10100 20080 30210 40249 56004 60006 83032 90600 333 10126 20086 60004=
07650,1998-10-28 09:00:00,15,1025.9,1,72,10,500,7.408,,,290,,,,,,,,,,,wg-a,,,,AAXX 28094 07650 12/00 22904 10150 20100 30220 40259 51010 60006 81032 90900=
07650,1998-10-28 12:00:00,19,1024.8,-1,52,9,25000,7.408,,,290,,,,,,,,,,,wg-a,,,,AAXX 28124 07650 12/75 22904 10190 20090 30210 40248 58010 60006 80001 91200=
07650,1998-10-28 18:00:00,16,1023.6,0.3,77,12,10000,7.408,,,190,9.1,20.3,,,,,,,,,wg-a,,,,AAXX 28184 07650 12/60 /1904 10160 20120 30198 40236 52003 60006 91800 333 10203 20091=
07650,1998-10-28 21:00:00,14,1023.9,0.2,88,12,40000,7.408,,,320,,,,,,,,,,,wg-a,,,,AAXX 28214 07650 12/82 03204 10140 20120 30200 40239 53002 60006 80000 92100=
07650,1998-10-29 00:00:00,12,1022.3,-1.6,94,11,20000,11.112,,,150,,,,,,,,,,,wg-a,,,,AAXX 29004 07650 12/70 11506 10120 20110 30184 40223 56016 60006 80001 90000=
07650,1998-10-29 06:00:00,10,1020.6,-0.4,100,10,20000,7.408,,,30,9.6,16.3,,,,,,,,,wg-a,,,,AAXX 29064 07650 02/70 20304 10100 20100 30167 40206 56004 60006 80001 90600 333 10163 20096 60004=
07650,1998-10-29 09:00:00,16,1021.6,1.1,77,12,13000,7.408,,,300,,,,,,,,,,,wg-a,,,,AAXX 29094 07650 12/63 23004 10160 20120 30178 40216 53011 60006 80002 90900=
07650,1998-10-29 12:00:00,19,1020.3,-1.3,68,13,17000,3.704,,,330,,,,,,,,,,,wg-a,,,,AAXX 29124 07650 12667 63302 10190 20130 30165 40203 58013 60006 81132 91200=
07650,1998-10-29 18:00:00,14,1023.7,3.8,55,5,20000,46.3,,,360,9.4,19.9,,,,,,,,,wg-a,,,,AAXX 29184 07650 12670 73625 10140 20050 30198 40237 52038 60006 81112 91800 333 10199 20094=
07650,1998-10-29 21:00:00,13,1024.9,1.2,62,6,500,38.892,,,340,,,,,,,,,,,wg-a,,,,AAXX 29214 07650 12/00 23421 10130 20060 30210 40249 50012 60006 80002 92100=
07650,1998-10-30 00:00:00,13,1024.9,-0,62,6,500,38.892,,,340,,,,,,,,,,,wg-a,,,,AAXX 30004 07650 12/00 03421 10130 20060 30210 40249 55000 60006 80000 90000=
07650,1998-10-30 03:00:00,11,1024.6,-0.3,66,5,500,29.632,,,340,,,,,,,,,,,wg-a,,,,AAXX 30034 07650 12/00 13416 10110 20050 30207 40246 58003 60006 80002 90300=
07650,1998-10-30 06:00:00,11,1024.2,-0.4,71,6,40000,35.188,,,320,9.8,14.4,,,,,,,,,wg-a,,,,AAXX 30064 07650 02/82 23219 10110 20060 30203 40242 56004 60006 80002 90600 333 10144 20098 60004=
07650,1998-10-30 12:00:00,15,1023,-1.1,41,2,60000,42.596,,,330,,,,,,,,,,,wg-a,,,,AAXX 30124 07650 12/86 63323 10150 20020 30191 40230 58011 60006 83032 91200=
07650,1998-10-30 15:00:00,15,1022.5,-0.5,48,4,60000,35.188,,57.412,340,,,,,,,,,,,wg-a,,,,AAXX 30154 07650 12/86 53419 10150 20040 30186 40225 56005 60006 82032 91500 333 91031=
07650,1998-10-30 18:00:00,13,1022.6,0.1,58,5,20000,29.632,,,340,10,15.4,,,,,,,,,wg-a,,,,AAXX 30184 07650 12/70 33416 10130 20050 30187 40226 53001 60006 81032 91800 333 10154 20100=
07650,1998-10-30 21:00:00,11,1022.2,-0.4,71,6,20000,29.632,,,320,,,,,,,,,,,wg-a,,,,AAXX 30214 07650 12/70 23216 10110 20060 30183 40222 57004 60006 80002 92100=
07650,1998-10-31 00:00:00,11,1021.4,-0.8,76,7,20000,31.484,,,310,,,,,,,,,,,wg-a,,,,AAXX 31004 07650 12/70 13117 10110 20070 30175 40214 58008 60006 80002 90000=
07650,1998-10-31 03:00:00,11,1019.9,-1.5,76,7,20000,31.484,,,320,,,,,,,,,,,wg-a,,,,AAXX 31034 07650 12/70 33217 10110 20070 30160 40199 56015 60006 80002 90300=
07650,1998-10-31 06:00:00,10,1019.5,-0.4,82,7,20000,25.928,,,330,9,13,,,,,,,,,wg-a,,,,AAXX 31064 07650 02/70 63314 10100 20070 30156 40195 56004 60006 83032 90600 333 10130 20090 60004=
07650,1998-10-31 09:00:00,14,1019.5,0,67,8,40000,31.484,,,320,,,,,,,,,,,wg-a,,,,AAXX 31094 07650 12/82 /3217 10140 20080 30156 40195 50000 60006 82032 90900=
07650,1998-10-31 12:00:00,16,1017.9,-1.5,55,7,50000,29.632,,,300,,,,,,,,,,,wg-a,,,,AAXX 31124 07650 12/84 53016 10160 20070 30141 40179 58015 60006 81042 91200=
07650,1998-10-31 15:00:00,17,1016.2,-1.7,55,8,40000,22.224,,,310,,,,,,,,,,,wg-a,,,,AAXX 31154 07650 12/82 73112 10170 20080 30124 40162 56017 60006 82042 91500=
07650,1998-10-31 18:00:00,14,1015.8,-0.4,67,8,500,18.52,,,290,9.8,17.1,,,,,,,,,wg-a,,,,AAXX 31184 07650 12/00 12910 10140 20080 30120 40158 55004 60006 80002 91800 333 10171 20098=
07650,1998-10-31 21:00:00,10,1014.8,-1.1,87,8,25000,14.816,,,160,,,,,,,,,,,wg-a,,,,AAXX 31214 07650 12/75 21608 10100 20080 30109 40148 58011 60006 82030 92100=
07650,1998-11-01 00:00:00,9,1013.2,-1.6,100,9,20000,3.704,,,100,,,,,,,,,,,wg-a,,,,AAXX 01004 07650 12/70 31002 10090 20090 30093 40132 58016 60006 83030 90000=
07650,1998-11-01 03:00:00,10,1012.3,-0.9,93,9,20000,3.704,,,120,,,,,,,,,,,wg-a,,,,AAXX 01034 07650 12/70 51202 10100 20090 30084 40123 58009 60006 82032 90300=
07650,1998-11-01 06:00:00,10,1011.2,-1.1,87,8,20000,7.408,,,220,8.9,13.4,,,,,,,,,wg-a,,,,AAXX 01064 07650 02/70 72204 10100 20080 30073 40112 56011 60006 84072 90600 333 10134 20089 60004=
07650,1998-11-01 09:00:00,13,1011.6,0.5,88,11,15000,3.704,,,180,,,,,,,,,,60,wg-a,,,,AAXX 01094 07650 02/65 71802 10130 20110 30078 40116 50005 61000 76062 86072 90900 333 ////=
07650,1998-11-01 12:00:00,17,1010,-1.6,72,12,20000,11.112,,,50,,,,,,,,,,3,wg-a,,,,AAXX 01124 07650 02670 40506 10170 20120 30062 40100 58016 61000 70361 81132 91200 333 6100=
07650,1998-11-01 15:00:00,19,1008.7,-1.2,68,13,500,25.928,,,270,,,,,,,,,,,wg-a,,,,AAXX 01154 07650 12600 32714 10190 20130 30050 40087 55012 60006 83440 91500=
07650,1998-11-02 03:00:00,10,1010.9,-0.3,93,9,25000,18.52,,,350,,,,,,,,,,,wg-a,,,,AAXX 02034 07650 12/75 13510 10100 20090 30070 40109 58003 60006 80002 90300=
07650,1998-11-02 06:00:00,11,1011,0.1,71,6,500,14.816,,,340,10.3,16.5,,,,,,,,,wg-a,,,,AAXX 02064 07650 02/00 03408 10110 20060 30071 40110 51001 60006 80000 90600 333 10165 20103 61000=
07650,1998-11-02 09:00:00,14,1011.2,0.3,63,7,500,7.408,,,360,,,,,,,,,,,wg-a,,,,AAXX 02094 07650 12/00 03604 10140 20070 30074 40112 50003 60006 80000 90900=
07650,1998-11-02 12:00:00,17,1010.6,-0.6,55,8,500,22.224,,,300,,,,,,,,,,,wg-a,,,,AAXX 02124 07650 12/00 63012 10170 20080 30068 40106 58006 60006 80002 91200=
07650,1998-11-02 15:00:00,16,1009.1,-1.5,59,8,500,3.704,,,330,,,,,,,,,,,wg-a,,,,AAXX 02154 07650 12600 73302 10160 20080 30053 40091 56015 60006 82532 91500=
07650,1998-11-02 18:00:00,14,1009.3,0.2,72,9,500,7.408,,,150,9.9,17.2,,,,,,,,,wg-a,,,,AAXX 02184 07650 12/00 51504 10140 20090 30055 40093 53002 60006 82032 91800 333 10172 20099=
07650,1998-11-02 21:00:00,13,1009.4,0.1,82,10,11000,3.704,,,110,,,,,,,,,,,wg-a,,,,AAXX 02214 07650 12/61 /1102 10130 20100 30056 40094 51001 60006 92100=
07650,1998-11-03 00:00:00,15,1009,-0.4,88,13,20000,3.704,,,120,,,,,,,,,,,wg-a,,,,AAXX 03004 07650 12/70 61202 10150 20130 30052 40090 58004 60006 84072 90000=
07650,1998-11-03 03:00:00,15,1007,-2,82,12,18000,11.112,,,110,,,,,,,,,,60,wg-a,,,,AAXX 03034 07650 02668 71106 10150 20120 30032 40070 56020 61000 76062 8257/ 90300 333 ////=
07650,1998-11-03 06:00:00,15,1006.2,-0.8,88,13,8000,7.408,,,90,12.9,15.6,,,,,,,,60,wg-a,,,,AAXX 03064 07650 02458 80904 10150 20130 30024 40062 56008 61000 76062 875// 90600 333 10156 20129 6000=
07650,1998-11-03 09:00:00,16,1006.6,0.4,82,13,8000,7.408,,,90,,,,0,,,,,,3,wg-a,,,,AAXX 03094 07650 12458 80904 10160 20130 30028 40066 51004 60007 70362 885// 90900=
07650,1998-11-03 12:00:00,16,1006.2,-0.4,88,14,15000,7.408,,,310,,,,,,,,,,3,wg-a,,,,AAXX 03124 07650 12565 73104 10160 20140 30024 40062 58004 60006 70362 8257/ 91200=
07650,1998-11-03 15:00:00,17,1005.8,-0.4,82,14,12000,0,,,0,,,,,,,,,,,wg-a,,,,AAXX 03154 07650 12462 70000 10170 20140 30020 40058 57004 60006 845// 91500=
07650,1998-11-03 18:00:00,16,1005.9,0.1,94,15,10000,11.112,,,180,14.4,18.4,,,,,,,,,wg-a,,,,AAXX 03184 07650 12560 71806 10160 20150 30021 40059 52001 60006 8257/ 91800 333 10184 20144=
07650,1998-11-03 21:00:00,15,1005.8,-0.1,94,14,8000,3.704,,,80,,,,,,,,,,,wg-a,,,,AAXX 03214 07650 12558 70802 10150 20140 30020 40058 56001 60006 8257/ 92100=
07650,1998-11-04 00:00:00,15,1004.4,-1.4,94,14,7000,11.112,,,20,,,,1,,,,,,60,wg-a,,,,AAXX 04004 07650 02557 80206 10150 20140 30006 40044 57014 60016 76062 8557/ 90000 333 60017=
07650,1998-11-04 03:00:00,15,1002.1,-2.3,100,15,7000,7.408,,,70,,,,4,,,,,,60,wg-a,,,,AAXX 04034 07650 12457 80704 10150 20150 39983 40021 58023 60047 76066 8557/ 90300=
07650,1998-11-04 06:00:00,15,1002,-0.1,94,14,8000,3.704,,,10,14.4,16.1,,,,,,,,21,wg-a,,,,AAXX 04064 07650 02558 70102 10150 20140 39982 40020 58001 61000 72162 8457/ 90600 333 10161 20144 6005=
07650,1998-11-04 12:00:00,16,1005.3,0.2,88,14,500,14.816,,,330,,,,,,,,,,,wg-a,,,,AAXX 04124 07650 12300 83308 10160 20140 30015 40053 53002 60006 8457/ 91200=
07650,1998-11-04 18:00:00,13,1008.6,2.4,82,10,13000,22.224,,,320,13.2,15.6,,,,,,,,,wg-a,,,,AAXX 04184 07650 12463 83212 10130 20100 30048 40086 53024 60006 8387/ 91800 333 10156 20132=
07650,1998-11-04 21:00:00,13,1010.6,2,77,9,20000,25.928,,,330,,,,,,,,,,,wg-a,,,,AAXX 04214 07650 12570 73314 10130 20090 30068 40106 52020 60006 8157/ 92100=
07650,1998-11-05 00:00:00,11,1012.8,2.1,82,8,20000,18.52,,,310,,,,,,,,,,,wg-a,,,,AAXX 05004 07650 12/70 53110 10110 20080 30089 40128 53021 60006 83031 90000=
07650,1998-11-05 03:00:00,10,1013.7,0.9,76,6,20000,25.928,,,330,,,,,,,,,,,wg-a,,,,AAXX 05034 07650 12/70 63314 10100 20060 30098 40137 50009 60006 82032 90300=
07650,1998-11-05 06:00:00,9,1015.8,2.1,81,6,20000,29.632,,,330,9.3,13.2,,,,,,,,,wg-a,,,,AAXX 05064 07650 02/70 53316 10090 20060 30119 40158 53021 60006 81032 90600 333 10132 20093 60004=
07650,1998-11-05 09:00:00,11,1017.7,1.9,71,6,40000,35.188,,,340,,,,,,,,,,,wg-a,,,,AAXX 05094 07650 12/82 23419 10110 20060 30138 40177 51019 60006 81032 90900=
07650,1998-11-05 12:00:00,14,1017.6,-0.1,55,5,50000,38.892,,,340,,,,,,,,,,,wg-a,,,,AAXX 05124 07650 12/84 13421 10140 20050 30137 40176 58001 60006 80002 91200=
07650,1998-11-05 15:00:00,14,1017.9,0.3,51,4,50000,42.596,,,350,,,,,,,,,,,wg-a,,,,AAXX 05154 07650 12/84 13523 10140 20040 30140 40179 53003 60006 80002 91500=
07650,1998-11-05 18:00:00,11,1019.3,1.4,58,3,500,18.52,,,330,8.4,14.2,,,,,,,,,wg-a,,,,AAXX 05184 07650 12/00 23310 10110 20030 30154 40193 53014 60006 80001 91800 333 10142 20084=
07650,1998-11-05 21:00:00,7,1021.1,1.7,76,3,500,3.704,,,60,,,,,,,,,,,wg-a,,,,AAXX 05214 07650 12/00 00602 10070 20030 30171 40211 52017 60006 80000 92100=
07650,1998-11-06 00:00:00,4,1022,0.9,93,3,500,11.112,,,20,,,,,,,,,,,wg-a,,,,AAXX 06004 07650 12/00 00206 10040 20030 30180 40220 51009 60006 80000 90000=
07650,1998-11-06 03:00:00,3,1022.6,0.6,93,2,500,11.112,,,40,,,,,,,,,,,wg-a,,,,AAXX 06034 07650 12/00 00406 10030 20020 30186 40226 51006 60006 80000 90300=
07650,1998-11-06 06:00:00,2,1023.5,0.9,100,2,20000,3.704,,,110,2.3,10.8,,,,,,,,,wg-a,,,,AAXX 06064 07650 02/70 01102 10020 20020 30195 40235 52009 60006 80000 90600 333 10108 20023 60004=
07650,1998-11-06 09:00:00,9,1024.7,1.3,71,4,20000,11.112,,,30,,,,,,,,,,,wg-a,,,,AAXX 06094 07650 12/70 00306 10090 20040 30208 40247 51013 60006 80000 90900=
07650,1998-11-06 12:00:00,13,1023.9,-0.8,58,5,500,18.52,,,340,,,,,,,,,,,wg-a,,,,AAXX 06124 07650 12/00 /3410 10130 20050 30200 40239 58008 60006 80000 91200=
07650,1998-11-06 15:00:00,14,1023,-0.9,44,2,500,29.632,,,340,,,,,,,,,,,wg-a,,,,AAXX 06154 07650 12/00 03416 10140 20020 30191 40230 56009 60006 80000 91500=
07650,1998-11-06 18:00:00,11,1023.5,0.5,58,3,500,25.928,,,350,2.2,14.5,,,,,,,,,wg-a,,,,AAXX 06184 07650 12/00 03514 10110 20030 30196 40235 53005 60006 80000 91800 333 10145 20022=
07650,1998-11-06 21:00:00,6,1024.3,0.7,75,2,25000,7.408,,,40,,,,,,,,,,,wg-a,,,,AAXX 06214 07650 12/75 00404 10060 20020 30203 40243 53007 60006 80000 92100=
07650,1998-11-07 00:00:00,5,1024.8,0.5,81,2,18000,7.408,,,190,,,,,,,,,,,wg-a,,,,AAXX 07004 07650 12/68 01904 10050 20020 30208 40248 51005 60006 80000 90000=
07650,1998-11-07 03:00:00,3,1024.8,-0,87,1,16000,11.112,,,160,,,,,,,,,,,wg-a,,,,AAXX 07034 07650 12/66 01606 10030 20010 30208 40248 55000 60006 80000 90300=
07650,1998-11-07 06:00:00,2,1025.2,0.4,93,1,16000,3.704,,,140,2,10.5,,,,,,,,,wg-a,,,,AAXX 07064 07650 02/66 01402 10020 20010 30212 40252 52004 60006 80000 90600 333 10105 20020 60004=
07650,1998-11-07 09:00:00,10,1026.4,1.3,62,3,20000,0,,,0,,,,,,,,,,,wg-a,,,,AAXX 07094 07650 12/70 00000 10100 20030 30225 40264 51013 60006 80000 90900=
07650,1998-11-07 12:00:00,14,1026.2,-0.2,55,5,20000,7.408,,,290,,,,,,,,,,,wg-a,,,,AAXX 07124 07650 12/70 02904 10140 20050 30223 40262 58002 60006 80000 91200=
07650,1998-11-07 15:00:00,16,1026.6,0.4,51,6,20000,0,,,0,,,,,,,,,,,wg-a,,,,AAXX 07154 07650 12/70 00000 10160 20060 30227 40266 53004 60006 80000 91500=
07650,1998-11-07 18:00:00,10,1027.7,1.1,87,8,20000,3.704,,,150,2.3,15.8,,,,,,,,,wg-a,,,,AAXX 07184 07650 12/70 11502 10100 20080 30238 40277 53011 60006 80002 91800 333 10158 20023=
07650,1998-11-07 21:00:00,9,1029.4,1.6,93,8,12000,3.704,,,120,,,,,,,,,,,wg-a,,,,AAXX 07214 07650 12/62 11202 10090 20080 30254 40294 52016 60006 80002 92100=
07650,1998-11-08 00:00:00,8,1029.6,0.2,93,7,10000,3.704,,,190,,,,,,,,,,,wg-a,,,,AAXX 08004 07650 12/60 01902 10080 20070 30256 40296 51002 60006 80000 90000=
07650,1998-11-08 03:00:00,9,1029.6,0,87,7,10000,3.704,,,190,,,,,,,,,,,wg-a,,,,AAXX 08034 07650 12/60 01902 10090 20070 30256 40296 50000 60006 80000 90300=
07650,1998-11-08 06:00:00,8,1030,0.4,93,7,8000,3.704,,,160,6.6,10,,,,,,,,,wg-a,,,,AAXX 08064 07650 02658 41602 10080 20070 30260 40300 53004 60006 84500 90600 333 10100 20066 60004=
07650,1998-11-08 09:00:00,13,1030.7,0.8,72,8,10000,3.704,,,60,,,,,,,,,,,wg-a,,,,AAXX 08094 07650 12660 20602 10130 20080 30268 40307 50008 60006 82500 90900=
07650,1998-11-08 12:00:00,16,1030.3,-0.4,68,10,12000,3.704,,,300,,,,,,,,,,,wg-a,,,,AAXX 08124 07650 12662 43002 10160 20100 30264 40303 58004 60006 83501 91200=
07650,1998-11-08 15:00:00,16,1028.9,-1.4,63,9,18000,7.408,,,290,,,,,,,,,,,wg-a,,,,AAXX 08154 07650 12668 22904 10160 20090 30250 40289 56014 60006 81501 91500=
07650,1998-11-08 18:00:00,10,1029.2,0.3,93,9,15000,3.704,,,140,7.2,16.9,,,,,,,,,wg-a,,,,AAXX 08184 07650 12/65 21402 10100 20090 30253 40292 53003 60006 80001 91800 333 10169 20072=
07650,1998-11-08 21:00:00,8,1029.3,0,100,8,7000,7.408,,,160,,,,,,,,,,,wg-a,,,,AAXX 08214 07650 12/57 /1604 10080 20080 30253 40293 50000 60006 80001 92100=
07650,1998-11-09 00:00:00,7,1028.5,-0.8,93,6,6000,7.408,,,180,,,,,,,,,,,wg-a,,,,AAXX 09004 07650 12656 41804 10070 20060 30245 40285 56008 60006 84500 90000=
07650,1998-11-09 03:00:00,9,1027.3,-1.2,100,9,6000,3.704,,,60,,,,,,,,,,,wg-a,,,,AAXX 09034 07650 12656 70602 10090 20090 30233 40273 58012 60006 875// 90300=
07650,1998-11-09 06:00:00,10,1026.6,-0.6,93,9,6000,3.704,,,130,6.5,10.4,,,,,,,,,wg-a,,,,AAXX 09064 07650 02556 71302 10100 20090 30227 40266 57006 60006 875// 90600 333 10104 20065 60004=
07650,1998-11-09 09:00:00,12,1026.6,0,88,10,6000,3.704,,,10,,,,,,,,,,,wg-a,,,,AAXX 09094 07650 12556 40102 10120 20100 30227 40266 50000 60006 84500 90900=
07650,1998-11-09 11:00:00,12,1023.7,,88,10,12000,11.112,,,300,,,,,,,,,,,wg-a,,,,AAXX 09114 07650 12762 /3006 10120 20100 30198 40237 60006 81500 91100=
07650,1998-11-09 12:00:00,16,1024.7,-1.8,68,10,8000,11.112,,,280,,,,,,,,,,,wg-a,,,,AAXX 09124 07650 12/58 /2806 10160 20100 30209 40247 58018 60006 91200=
07650,1998-11-09 15:00:00,16,1023,-1.7,68,10,18000,7.408,,,310,,,,,,,,,,,wg-a,,,,AAXX 09154 07650 12/68 03104 10160 20100 30192 40230 56017 60006 80000 91500=
07650,1998-11-09 18:00:00,12,1023.7,0.6,88,10,12000,11.112,,,300,9.8,16.4,,,,,,,,,wg-a,,,,AAXX 09184 07650 12762 13006 10120 20100 30198 40237 53006 60006 81500 91800 333 10164 20098=
07650,1998-11-09 21:00:00,9,1023.6,-0.1,100,9,7000,11.112,,,160,,,,,,,,,,,wg-a,,,,AAXX 09214 07650 12/57 /1606 10090 20090 30197 40236 56001 60006 80001 92100=
07650,1998-11-10 00:00:00,9,1022,-1.6,100,9,500,7.408,,,140,,,,,,,,,,,wg-a,,,,AAXX 10004 07650 12400 41404 10090 20090 30181 40220 58016 60006 81601 90000=
07650,1998-11-10 03:00:00,7,1020.6,-1.4,100,7,4500,3.704,,,160,,,,,,,,,,10,wg-a,,,,AAXX 10034 07650 32/45 21602 10070 20070 30167 40206 56014 71000 80001 90300=
07650,1998-11-10 06:00:00,8,1019.6,-1,93,7,6000,7.408,,,70,7.2,12,,,,,,,,,wg-a,,,,AAXX 10064 07650 02556 50704 10080 20070 30157 40196 57010 60006 81532 90600 333 10120 20072 60004=
07650,1998-11-10 09:00:00,11,1020,0.4,87,9,500,7.408,,,220,,,,,,,,,,,wg-a,,,,AAXX 10094 07650 12600 72204 10110 20090 30161 40200 50004 60006 8257/ 90900=
07650,1998-11-10 12:00:00,12,1018.4,-1.6,94,11,2000,3.704,,,180,,,,,,,,,,10,wg-a,,,,AAXX 10124 07650 02220 81802 10120 20110 30145 40184 58016 61000 71062 8657/ 91200 333 6100=
07650,1998-11-10 15:00:00,14,1017.5,-0.8,88,12,3000,18.52,,,310,,,,,,,,,,10,wg-a,,,,AAXX 10154 07650 02430 /3110 10140 20120 30137 40175 56008 61000 71061 81532 91500 333 ////=
07650,1998-11-10 18:00:00,12,1018,0.4,94,11,8000,22.224,,,310,7.5,14.2,,,,,,,,1,wg-a,,,,AAXX 10184 07650 12458 33112 10120 20110 30141 40180 53004 60006 70161 81530 91800 333 10142 20075=
07650,1998-11-10 21:00:00,13,1018.4,0.4,82,10,20000,35.188,,,340,,,,,,,,,,,wg-a,,,,AAXX 10214 07650 12670 43419 10130 20100 30145 40184 51004 60006 84500 92100=
07650,1998-11-11 00:00:00,12,1019,0.6,67,6,20000,50.004,,68.524,340,,,,,,,,,,,wg-a,,,,AAXX 11004 07650 12/70 03427 10120 20060 30151 40190 53006 60006 80000 90000 333 91037=
07650,1998-11-11 03:00:00,11,1018.1,-0.9,66,5,500,50.004,,,340,,,,,,,,,,,wg-a,,,,AAXX 11034 07650 12/00 03427 10110 20050 30142 40181 58009 60006 80000 90300=
07650,1998-11-11 06:00:00,9,1017.6,-0.5,66,3,500,31.484,,,350,9.1,13.4,,,,,,,,,wg-a,,,,AAXX 11064 07650 02/00 03517 10090 20030 30137 40176 55005 60006 80000 90600 333 10134 20091 61000=
07650,1998-11-11 09:00:00,10,1017.9,0.3,62,3,60000,42.596,,,360,,,,,,,,,,,wg-a,,,,AAXX 11094 07650 12586 /3623 10100 20030 30140 40179 53003 60006 81500 90900=
07650,1998-11-11 12:00:00,13,1017,-0.9,47,2,60000,42.596,,,360,,,,,,,,,,,wg-a,,,,AAXX 11124 07650 12586 13623 10130 20020 30131 40170 56009 60006 81100 91200=
07650,1998-11-11 15:00:00,13,1015.6,-1.4,51,3,60000,50.004,,,360,,,,,,,,,,,wg-a,,,,AAXX 11154 07650 12/86 13627 10130 20030 30117 40156 56014 60006 80001 91500=
07650,1998-11-11 18:00:00,9,1016.1,0.5,61,2,500,14.816,,,20,8.9,13.3,,,,,,,,,wg-a,,,,AAXX 11184 07650 12/00 10208 10090 20020 30122 40161 51005 60006 80001 91800 333 10133 20089=
07650,1998-11-11 21:00:00,5,1016.4,0.2,81,2,25000,3.704,,,30,,,,,,,,,,,wg-a,,,,AAXX 11214 07650 12/75 20302 10050 20020 30124 40164 53002 60006 80002 92100=
07650,1998-11-12 00:00:00,5,1014.9,-1.5,81,2,18000,7.408,,,200,,,,,,,,,,,wg-a,,,,AAXX 12004 07650 12/68 72004 10050 20020 30109 40149 56015 60006 80002 90000=
07650,1998-11-12 03:00:00,5,1013.9,-1,81,2,14000,14.816,,,140,,,,,,,,,,,wg-a,,,,AAXX 12034 07650 12664 /1408 10050 20020 30099 40139 58010 60006 81531 90300=
07650,1998-11-12 06:00:00,5,1012.9,-1,87,3,20000,11.112,,,130,3.6,9,,,,,,,,,wg-a,,,,AAXX 12064 07650 02/70 41306 10050 20030 30089 40129 56010 60006 82031 90600 333 10090 20036 60004=
07650,1998-11-12 12:00:00,8,1014.7,0.4,76,4,10000,14.816,,,340,,,,,,,,,,21,wg-a,,,,AAXX 12124 07650 02560 83408 10080 20040 30108 40147 50004 61000 72161 8587/ 91200 333 6100=
07650,1998-11-12 15:00:00,11,1013.7,-1,66,5,25000,14.816,,,340,,,,0,,,,,,1,wg-a,,,,AAXX 12154 07650 12/75 33408 10110 20050 30098 40137 55010 60007 70161 82031 91500=
07650,1998-11-12 18:00:00,7,1015.1,1.4,81,4,25000,18.52,,,330,4.6,11.3,,,,,,,,2,wg-a,,,,AAXX 12184 07650 12675 33310 10070 20040 30112 40151 53014 60006 70286 81431 91800 333 10113 20046=
07650,1998-11-12 21:00:00,6,1015.8,0.6,87,4,500,22.224,,,340,,,,,,,,,,,wg-a,,,,AAXX 12214 07650 12/00 13412 10060 20040 30118 40158 51006 60006 80001 92100=
07650,1998-11-13 00:00:00,8,1015.1,-0.6,76,4,500,31.484,,,340,,,,,,,,,,,wg-a,,,,AAXX 13004 07650 12/00 03417 10080 20040 30112 40151 58006 60006 80000 90000=
07650,1998-11-13 03:00:00,8,1014.7,-0.4,76,4,500,29.632,,,330,,,,,,,,,,,wg-a,,,,AAXX 13034 07650 12/00 03316 10080 20040 30108 40147 58004 60006 80000 90300=
07650,1998-11-13 06:00:00,7,1014.4,-0.3,81,4,500,22.224,,,310,3.4,8.8,,,,,,,,,wg-a,,,,AAXX 13064 07650 02/00 43112 10070 20040 30105 40144 55003 60006 82032 90600 333 10088 20034 60004=
07650,1998-11-13 09:00:00,8,1014,-0.4,76,4,10000,14.816,,,360,,,,,,,,,,,wg-a,,,,AAXX 13094 07650 12/60 /3608 10080 20040 30101 40140 57004 60006 90900=
07650,1998-11-13 12:00:00,11,1012,-2,66,5,15000,11.112,,,290,,,,,,,,,,,wg-a,,,,AAXX 13124 07650 12/65 72906 10110 20050 30081 40120 56020 60006 83054 91200=
07650,1998-11-13 15:00:00,7,1015,-0.3,81,4,500,22.224,,,310,3.4,8.8,,,,,,,,,wg-a,,,,AAXX 13154 07650 02/00 43112 10070 20040 30105 40150 55003 60006 82032 91500 333 10088 20034 60004=
07650,1998-11-13 18:00:00,9,1010,-0.1,81,6,15000,0,,,0,6.3,11.5,,,,,,,,,wg-a,,,,AAXX 13184 07650 12765 70000 10090 20060 30061 40100 58001 60006 82532 91800 333 10115 20063=
07650,1998-11-13 21:00:00,9,1010,-0,87,7,12000,0,,,0,,,,,,,,,,,wg-a,,,,AAXX 13214 07650 12662 80000 10090 20070 30061 40100 54000 60006 8357/ 92100=
07650,1998-11-14 00:00:00,9,1009.2,-0.8,87,7,8000,7.408,,,80,,,,1,,,,,,61,wg-a,,,,AAXX 14004 07650 02558 80804 10090 20070 30053 40092 57008 60016 76162 875// 90000 333 60017=
07650,1998-11-14 03:00:00,8,1007.9,-1.3,100,8,7000,18.52,,,100,,,,3,,,,,,61,wg-a,,,,AAXX 14034 07650 12457 81010 10080 20080 30040 40079 58013 60037 76166 875// 90300=
07650,1998-11-14 06:00:00,10,1008.1,0.2,93,9,8000,3.704,,,220,8.2,9.6,,,,,3,,,2,wg-a,,,,AAXX 14064 07650 02458 72202 10100 20090 30042 40081 53002 60006 70262 8557/ 90600 333 10096 20082 60034=
07650,1998-11-14 09:00:00,11,1009.7,1.6,87,9,14000,11.112,,,10,,,,,,,,,,,wg-a,,,,AAXX 14094 07650 12464 70106 10110 20090 30058 40097 52016 60006 82532 90900=
07650,1998-11-14 12:00:00,11,1009.7,0,87,9,16000,18.52,,,350,,,,,,,,,,,wg-a,,,,AAXX 14124 07650 12466 73510 10110 20090 30058 40097 50000 60006 81878 91200=
07650,1998-11-14 15:00:00,12,1009.8,0.2,82,9,20000,11.112,,,10,,,,,,,,,,,wg-a,,,,AAXX 14154 07650 12570 80106 10120 20090 30060 40098 53002 60006 82532 91500=
07650,1998-11-14 18:00:00,11,1011,1.1,82,8,20000,18.52,,,350,9.6,11.9,,,,,,,,,wg-a,,,,AAXX 14184 07650 12670 73510 10110 20080 30071 40110 53011 60006 82532 91800 333 10119 20096=
07650,1998-11-14 21:00:00,10,1012.3,1.3,82,7,20000,18.52,,,330,,,,,,,,,,,wg-a,,,,AAXX 14214 07650 12670 /3310 10100 20070 30084 40123 51013 60006 81531 92100=
07650,1998-11-15 00:00:00,7,1013.9,1.6,81,4,500,18.52,,,360,,,,,,,,,,,wg-a,,,,AAXX 15004 07650 12/00 23610 10070 20040 30100 40139 53016 60006 81041 90000=
07650,1998-11-15 03:00:00,5,1014.9,0.9,87,3,500,11.112,,,80,,,,,,,,,,,wg-a,,,,AAXX 15034 07650 12/00 10806 10050 20030 30109 40149 51009 60006 80001 90300=
07650,1998-11-15 06:00:00,3,1015.8,0.9,93,2,500,11.112,,,20,2.6,11,,,,,,,,,wg-a,,,,AAXX 15064 07650 02/00 00206 10030 20020 30118 40158 52009 60006 80000 90600 333 10110 20026 60004=
07650,1998-11-15 09:00:00,9,1017.2,1.5,76,5,35000,18.52,,,330,,,,,,,,,,,wg-a,,,,AAXX 15094 07650 12581 /3310 10090 20050 30133 40172 50015 60006 81500 90900=
07650,1998-11-15 12:00:00,13,1016.4,-0.8,51,3,40000,35.188,,,340,,,,,,,,,,,wg-a,,,,AAXX 15124 07650 12582 /3419 10130 20030 30125 40164 58008 60006 81500 91200=
07650,1998-11-15 15:00:00,13,1017.1,0.7,47,2,40000,29.632,,,350,,,,,,,,,,,wg-a,,,,AAXX 15154 07650 12582 /3516 10130 20020 30132 40171 53007 60006 81400 91500=
07650,1998-11-15 21:00:00,7,1020.9,1.7,76,3,500,22.224,,,330,,,,,,,,,,,wg-a,,,,AAXX 15214 07650 12/00 03312 10070 20030 30169 40209 53017 60006 80000 92100=
07650,1998-11-16 00:00:00,8,1021.2,0.3,76,4,20000,25.928,,,340,,,,,,,,,,,wg-a,,,,AAXX 16004 07650 12/70 03414 10080 20040 30172 40212 52003 60006 80000 90000=
07650,1998-11-16 03:00:00,7,1020.7,-0.5,76,3,20000,35.188,,,340,,,,,,,,,,,wg-a,,,,AAXX 16034 07650 12/70 03419 10070 20030 30167 40207 58005 60006 80000 90300=
07650,1998-11-16 06:00:00,6,1021.2,0.5,81,3,500,35.188,,,320,5.8,8.9,,,,,,,,,wg-a,,,,AAXX 16064 07650 02/00 03219 10060 20030 30172 40212 53005 60006 80000 90600 333 10089 20058 60004=
07650,1998-11-16 09:00:00,8,1021.8,0.7,71,3,40000,31.484,,,320,,,,,,,,,,,wg-a,,,,AAXX 16094 07650 12/82 03217 10080 20030 30179 40218 50007 60006 80000 90900=
07650,1998-11-16 12:00:00,12,1021.3,-0.5,47,1,40000,50.004,,64.82,350,,,,,,,,,,,wg-a,,,,AAXX 16124 07650 12582 /3527 10120 20010 30174 40213 58005 60006 81100 91200 333 91035=
07650,1998-11-16 15:00:00,12,1020.8,-0.5,44,0,40000,38.892,,,350,,,,,,,,,,,wg-a,,,,AAXX 16154 07650 12682 /3521 10120 20000 30169 40208 55005 60006 81100 91500=
07650,1998-11-16 18:00:00,9,1021.6,0.8,57,1,40000,46.3,,,350,5.8,12,,,,,,,,,wg-a,,,,AAXX 16184 07650 12/82 /3525 10090 20010 30177 40216 53008 60006 80000 91800 333 10120 20058=
07650,1998-11-17 00:00:00,5,1022.8,0.5,70,0,25000,31.484,,,360,,,,,,,,,,,wg-a,,,,AAXX 17004 07650 12/75 03617 10050 20000 30188 40228 53005 60006 80000 90000=
07650,1998-11-17 03:00:00,5,1022.5,-0.3,70,0,500,22.224,,,360,,,,,,,,,,,wg-a,,,,AAXX 17034 07650 12/00 03612 10050 20000 30185 40225 58003 60006 80000 90300=
07650,1998-11-17 06:00:00,2,1022.4,-0.1,80,-1,500,18.52,,,30,1.9,8.7,,,,,,,,,wg-a,,,,AAXX 17064 07650 02/00 10310 10020 21010 30184 40224 58001 60006 80001 90600 333 10087 20019 60004=
07650,1998-11-17 09:00:00,6,1023,0.6,61,-1,75000,18.52,,,20,,,,,,,,,,,wg-a,,,,AAXX 17094 07650 12/89 10210 10060 21010 30190 40230 51006 60006 80001 90900=
07650,1998-11-17 12:00:00,11,1021,-1.9,47,0,75000,14.816,,,350,,,,,,,,,,,wg-a,,,,AAXX 17124 07650 12/89 23508 10110 20000 30171 40210 58019 60006 80001 91200=
07650,1998-11-17 15:00:00,10,1019.8,-1.2,57,2,75000,18.52,,,360,,,,,,,,,,,wg-a,,,,AAXX 17154 07650 12689 /3610 10100 20020 30159 40198 56012 60006 81404 91500=
07650,1998-11-17 18:00:00,6,1019.9,-0,70,1,20000,7.408,,,40,1.9,12.8,,,,,,,,,wg-a,,,,AAXX 17184 07650 12/70 70404 10060 20010 30159 40199 55000 60006 80002 91800 333 10128 20019=
07650,1998-11-17 21:00:00,4,1020.3,0.4,75,0,20000,14.816,,,20,,,,,,,,,,,wg-a,,,,AAXX 17214 07650 12/70 60208 10040 20000 30163 40203 51004 60006 80002 92100=
07650,1998-11-18 00:00:00,4,1019.9,-0.4,81,1,20000,7.408,,,150,,,,,,,,,,,wg-a,,,,AAXX 18004 07650 12/70 61504 10040 20010 30159 40199 56004 60006 80002 90000=
07650,1998-11-18 03:00:00,3,1019,-0.9,87,1,20000,7.408,,,160,,,,,,,,,,,wg-a,,,,AAXX 18034 07650 12670 51604 10030 20010 30150 40190 57009 60006 83532 90300=
07650,1998-11-18 06:00:00,3,1018.3,-0.7,81,0,20000,3.704,,,220,2.4,6.4,,,,,,,,,wg-a,,,,AAXX 18064 07650 02670 52202 10030 20000 30143 40183 56007 60006 82532 90600 333 10064 20024 60004=
07650,1998-11-18 09:00:00,7,1019.3,1,76,3,14000,3.704,,,360,,,,,,,,,,,wg-a,,,,AAXX 18094 07650 12564 73602 10070 20030 30153 40193 51010 60006 82832 90900=
07650,1998-11-18 12:00:00,9,1018.6,-0.6,71,4,12000,11.112,,,270,,,,,,,,,,,wg-a,,,,AAXX 18124 07650 12662 /2706 10090 20040 30147 40186 58006 60006 81832 91200=
07650,1998-11-18 15:00:00,10,1018,-0.6,71,5,11000,3.704,,,110,,,,,,,,,,,wg-a,,,,AAXX 18154 07650 12661 71102 10100 20050 30141 40180 55006 60006 83832 91500=
07650,1998-11-18 18:00:00,7,1018.8,0.8,81,4,9000,11.112,,,360,2.7,10.3,,,,,,,,,wg-a,,,,AAXX 18184 07650 12659 83606 10070 20040 30149 40188 53008 60006 8553/ 91800 333 10103 20027=
07650,1998-11-18 21:00:00,6,1019.9,1,75,2,9000,11.112,,,40,,,,,,,,,,,wg-a,,,,AAXX 18214 07650 12659 80406 10060 20020 30159 40199 52010 60006 8553/ 92100=
07650,1998-11-19 00:00:00,2,1020.1,0.2,93,1,9000,3.704,,,170,,,,,,,,,,,wg-a,,,,AAXX 19004 07650 12/59 /1702 10020 20010 30161 40201 50002 60006 83032 90000=
07650,1998-11-19 03:00:00,0,1019.7,-0.5,100,0,9000,11.112,,,30,,,,,,,,,,,wg-a,,,,AAXX 19034 07650 12/59 30306 10000 20000 30156 40197 57005 60006 81032 90300=
07650,1998-11-19 06:00:00,0,1019.9,0.2,93,-1,9000,18.52,,,20,-0.7,7.3,,,,,,,,,wg-a,,,,AAXX 19064 07650 02/59 /0210 10000 21010 30158 40199 53002 60006 80000 90600 333 10073 21007 60004=
07650,1998-11-19 09:00:00,3,1020.5,0.7,75,-1,9000,18.52,,,20,,,,,,,,,,,wg-a,,,,AAXX 19094 07650 12/59 00210 10030 21010 30165 40205 51007 60006 80000 90900=
07650,1998-11-19 12:00:00,7,1019.2,-1.3,61,0,12000,22.224,,,340,,,,,,,,,,,wg-a,,,,AAXX 19124 07650 12/62 13412 10070 20000 30152 40192 58013 60006 80001 91200=
07650,1998-11-19 15:00:00,8,1017.9,-1.2,53,-1,18000,29.632,,,350,,,,,,,,,,,wg-a,,,,AAXX 19154 07650 12/68 03516 10080 21010 30140 40179 56012 60006 80000 91500=
07650,1998-11-19 18:00:00,3,1019.2,1.2,60,-4,15000,14.816,,,330,-0.6,8.1,,,,,,,,,wg-a,,,,AAXX 19184 07650 12/65 03308 10030 21040 30152 40192 53012 60006 80000 91800 333 10081 21006=
07650,1998-11-19 21:00:00,0,1020.5,1.2,74,-4,18000,7.408,,,30,,,,,,,,,,,wg-a,,,,AAXX 19214 07650 12/68 00304 10000 21040 30164 40205 53012 60006 80000 92100=
07650,1998-11-20 00:00:00,-1,1021.1,0.6,86,-3,12000,11.112,,,10,,,,,,,,,,,wg-a,,,,AAXX 20004 07650 12/62 00106 11010 21030 30170 40211 53006 60006 80000 90000=
07650,1998-11-20 03:00:00,0,1020.8,-0.3,86,-2,12000,7.408,,,30,,,,,,,,,,,wg-a,,,,AAXX 20034 07650 12/62 10304 10000 21020 30167 40208 58003 60006 81030 90300=
07650,1998-11-20 04:00:00,-1,1021.1,0.6,86,-3,12000,14.816,,,10,,,,,,,,,,,wg-a,,,,AAXX 20044 07650 12/62 00108 11010 21030 30170 40211 53006 60006 80000 90400=
07650,1998-11-20 06:00:00,0,1021.7,0.9,80,-3,12000,18.52,,,30,-1.9,3,,,,,,,,,wg-a,,,,AAXX 20064 07650 02/62 10310 10000 21030 30176 40217 53009 60006 81030 90600 333 10030 21019 60004=
07650,1998-11-20 09:00:00,4,1022.9,1.3,65,-2,12000,22.224,,,20,,,,,,,,,,,wg-a,,,,AAXX 20094 07650 12/62 10212 10040 21020 30189 40229 51013 60006 81030 90900=
07650,1998-11-20 12:00:00,8,1022.5,-0.4,53,-1,12000,22.224,,,340,,,,,,,,,,,wg-a,,,,AAXX 20124 07650 12662 /3412 10080 21010 30185 40225 58004 60006 81530 91200=
07650,1998-11-20 15:00:00,7,1022.3,-0.2,53,-2,15000,25.928,,,360,,,,,,,,,,,wg-a,,,,AAXX 20154 07650 12665 /3614 10070 21020 30183 40223 55002 60006 82530 91500=
07650,1998-11-20 18:00:00,3,1023.2,0.9,60,-4,15000,11.112,,,20,-0.1,8.4,,,,,,,,,wg-a,,,,AAXX 20184 07650 12665 40206 10030 21040 30192 40232 53009 60006 82530 91800 333 10084 21001=
07650,1998-11-20 21:00:00,3,1024.5,1.3,65,-3,12000,18.52,,,20,,,,,,,,,,,wg-a,,,,AAXX 20214 07650 12662 70210 10030 21030 30205 40245 53013 60006 85530 92100=
07650,1998-11-21 00:00:00,2,1025.7,1.1,64,-4,10000,22.224,,,20,,,,,,,,,,,wg-a,,,,AAXX 21004 07650 12660 70212 10020 21040 30216 40257 51011 60006 875// 90000=
07650,1998-11-21 06:00:00,0,1026.2,0.5,74,-4,13000,11.112,,,20,0,2.8,,,,,,,,1,wg-a,,,,AAXX 21064 07650 02563 40206 10000 21040 30221 40262 52005 60006 70176 82530 90600 333 10028 20000 61000=
07650,1998-11-21 09:00:00,2,1027.1,0.9,69,-3,13000,18.52,,,20,,,,,,,,,,,wg-a,,,,AAXX 21094 07650 12/63 20210 10020 21030 30230 40271 51009 60006 81032 90900=
07650,1998-11-21 12:00:00,6,1025.4,-1.6,49,-4,11000,14.816,,,310,,,,,,,,,,,wg-a,,,,AAXX 21124 07650 12/61 23108 10060 21040 30214 40254 58016 60006 81032 91200=
07650,1998-11-21 15:00:00,5,1024.1,-1.3,52,-4,11000,18.52,,,350,,,,,,,,,,,wg-a,,,,AAXX 21154 07650 12/61 33510 10050 21040 30201 40241 56013 60006 81032 91500=
07650,1998-11-21 18:00:00,1,1024.3,0.1,69,-4,15000,3.704,,,30,-0.1,6.4,,,,,,,,,wg-a,,,,AAXX 21184 07650 12/65 30302 10010 21040 30202 40243 52001 60006 82032 91800 333 10064 21001=
07650,1998-11-21 21:00:00,0,1024.4,0.1,74,-4,15000,3.704,,,160,,,,,,,,,,,wg-a,,,,AAXX 21214 07650 12665 41602 10000 21040 30203 40244 53001 60006 82532 92100=
07650,1998-11-22 00:00:00,3,1024,-0.3,81,0,8000,3.704,,,90,,,,,,,,,,,wg-a,,,,AAXX 22004 07650 12558 70902 10030 20000 30200 40240 58003 60006 8653/ 90000=
07650,1998-11-22 03:00:00,2,1022.8,0.1,64,-4,15000,3.704,,,30,-0.1,6.4,,,,,,,,,wg-a,,,,AAXX 22034 07650 12/65 /0302 10020 21040 30181 40228 52001 60006 82032 90300 333 10064 21001=
07650,1998-11-22 06:00:00,2,1023.1,-0.1,64,-4,10000,7.408,,,150,-0.2,2.9,,,,,,,,,wg-a,,,,AAXX 22064 07650 02660 71504 10020 21040 30190 40231 55001 60006 8453/ 90600 333 10029 21002 60004=
07650,1998-11-22 09:00:00,2,1023.6,0.6,64,-4,10000,3.704,,,180,,,,,,,,,,,wg-a,,,,AAXX 22094 07650 12660 /1802 10020 21040 30196 40236 53006 60006 83532 90900=
07650,1998-11-22 12:00:00,7,1022.7,-0.9,33,-8,10000,11.112,,,300,,,,,,,,,,,wg-a,,,,AAXX 22124 07650 12660 /3006 10070 21080 30187 40227 58009 60006 83332 91200=
07650,1998-11-22 15:00:00,6,1021.5,-1.2,49,-4,12000,14.816,,,340,,,,,,,,,,,wg-a,,,,AAXX 22154 07650 12662 /3408 10060 21040 30175 40215 56012 60006 83502 91500=
07650,1998-11-22 18:00:00,2,1021.7,0.2,64,-4,10000,3.704,,,70,0.7,7.7,,,,,,,,,wg-a,,,,AAXX 22184 07650 12/60 20702 10020 21040 30177 40217 52002 60006 80002 91800 333 10077 20007=
07650,1998-11-23 00:00:00,-3,1020.6,-0.7,86,-5,8000,3.704,,,150,,,,,,,,,,,wg-a,,,,AAXX 23004 07650 12/58 21502 11030 21050 30165 40206 57007 60006 80002 90000=
07650,1998-11-23 03:00:00,-3,1019.1,-1.5,80,-6,8000,7.408,,,150,,,,,,,,,,,wg-a,,,,AAXX 23034 07650 12/58 /1504 11030 21060 30150 40191 58015 60006 80002 90300=
07650,1998-11-23 06:00:00,-4,1018.5,-0.6,93,-5,8000,7.408,,,160,-4.3,1.6,,,,,,,,,wg-a,,,,AAXX 23064 07650 02/58 01604 11040 21050 30144 40185 56006 60006 80000 90600 333 10016 21043 60004=
07650,1998-11-23 09:00:00,1,1019.2,0.7,69,-4,11000,3.704,,,240,,,,,,,,,,,wg-a,,,,AAXX 23094 07650 12/61 12402 10010 21040 30151 40192 51007 60006 80001 90900=
07650,1998-11-23 12:00:00,5,1017.9,-1.2,48,-5,11000,14.816,,,320,,,,,,,,,,,wg-a,,,,AAXX 23124 07650 12/61 13208 10050 21050 30139 40179 58012 60006 80001 91200=
07650,1998-11-23 15:00:00,5,1016.6,-1.3,48,-5,8000,18.52,,,330,,,,,,,,,,,wg-a,,,,AAXX 23154 07650 12/58 33310 10050 21050 30126 40166 56013 60006 80002 91500=
07650,1998-11-23 18:00:00,3,1016.2,-0.6,52,-6,15000,25.928,,,340,-4.4,5.9,,,,,,,,,wg-a,,,,AAXX 23184 07650 12/65 03414 10030 21060 30122 40162 58006 60006 80000 91800 333 10059 21044=
07650,1998-11-23 21:00:00,-1,1016.2,-0.1,69,-6,15000,14.816,,,20,,,,,,,,,,,wg-a,,,,AAXX 23214 07650 12/65 00208 11010 21060 30121 40162 55001 60006 80000 92100=
07650,1998-11-24 00:00:00,-3,1016.3,0.1,74,-7,15000,3.704,,,20,,,,,,,,,,,wg-a,,,,AAXX 24004 07650 12/65 00202 11030 21070 30122 40163 50001 60006 80000 90000=
07650,1998-11-24 03:00:00,-4,1016.2,-0.1,86,-6,15000,0,,,0,,,,,,,,,,,wg-a,,,,AAXX 24034 07650 12/65 00000 11040 21060 30121 40162 56001 60006 80000 90300=
07650,1998-11-24 06:00:00,-4,1016.9,0.7,86,-6,15000,3.704,,,140,-4.3,3.1,,,,,,,,,wg-a,,,,AAXX 24064 07650 12665 21402 11040 21060 30128 40169 53007 60006 81502 90600 333 10031 21043=
07650,1998-11-24 09:00:00,2,1018.4,1.6,60,-5,15000,7.408,,,20,,,,,,,,,,,wg-a,,,,AAXX 24094 07650 12665 30204 10020 21050 30144 40184 53016 60006 81532 90900=
07650,1998-11-24 12:00:00,7,1018,-0.4,45,-4,15000,11.112,,,280,,,,,,,,,,,wg-a,,,,AAXX 24124 07650 12665 62806 10070 21040 30140 40180 58004 60006 81532 91200=
07650,1998-11-24 15:00:00,8,1018.1,0.2,46,-3,15000,11.112,,,320,,,,,,,,,,,wg-a,,,,AAXX 24154 07650 12665 33206 10080 21030 30142 40181 53002 60006 81532 91500=
07650,1998-11-24 18:00:00,2,1018.9,0.7,60,-5,10000,7.408,,,160,-4.3,8,,,,,,,,,wg-a,,,,AAXX 24184 07650 12/60 21604 10020 21050 30149 40189 51007 60006 80002 91800 333 10080 21043=
07650,1998-11-24 21:00:00,1,1019.8,0.9,59,-6,10000,11.112,,,330,,,,,,,,,,,wg-a,,,,AAXX 24214 07650 12/60 33306 10010 21060 30158 40198 51009 60006 80002 92100=
07650,1998-11-25 00:00:00,-1,1019.8,-0.1,69,-6,10000,3.704,,,360,,,,,,,,,,,wg-a,,,,AAXX 25004 07650 12/60 23602 11010 21060 30157 40198 55001 60006 80002 90000=
07650,1998-11-25 03:00:00,-2,1019.1,-0.7,74,-6,10000,7.408,,,150,,,,,,,,,,,wg-a,,,,AAXX 25034 07650 12/60 11504 11020 21060 30150 40191 57007 60006 80002 90300=
07650,1998-11-25 06:00:00,-2,1018.7,-0.4,80,-5,8000,7.408,,,180,-2.6,2.8,,,,,,,,,wg-a,,,,AAXX 25064 07650 02/58 31804 11020 21050 30146 40187 58004 60006 80001 90600 333 10028 21026 60004=
07650,1998-11-25 09:00:00,2,1018,,69,-3,7000,0,,,0,,,,,,,,,,,wg-a,,,,AAXX 25094 07650 32757 70000 10020 21030 30140 40180 81534 90900=
07650,1998-11-25 12:00:00,6,1016.3,,61,-1,0,3.704,,,160,,,,,,,,,,,wg-a,,,,AAXX 25124 07650 126// 81602 10060 21010 30123 40163 60006 8257/ 91200=
07650,1998-11-25 15:00:00,5,1016.2,,87,3,3500,0,,,0,,,,,,,,,,10,wg-a,,,,AAXX 25154 07650 32435 80000 10050 20030 30122 40162 71062 885// 91500=
07650,1998-11-25 18:00:00,5,1016.5,0.3,93,4,4000,3.704,,,180,,,,,,,,,,10,wg-a,,,,AAXX 25184 07650 02440 81802 10050 20040 30125 40165 53003 61000 71062 885// 91800 333 6002=
07650,1998-11-25 21:00:00,3,1016.4,-0.1,100,3,6000,14.816,,,310,,,,1,,,,,,1,wg-a,,,,AAXX 25214 07650 12556 /3108 10030 20030 30124 40164 55001 60017 70161 8253/ 92100=
07650,1998-11-26 00:00:00,3,1015.8,-0.6,93,2,11000,11.112,,,330,,,,1,,,,,,3,wg-a,,,,AAXX 26004 07650 02/61 13306 10030 20020 30118 40158 58006 60026 70361 81030 90000 333 60017=
07650,1998-11-26 03:00:00,2,1014.8,-1,100,2,12000,18.52,,,290,,,,1,,,,,,,wg-a,,,,AAXX 26034 07650 12/62 32910 10020 20020 30108 40148 58010 60017 81032 90300=
07650,1998-11-26 06:00:00,6,1014.7,-0.1,81,3,18000,29.632,,,10,1.1,5.7,,,,,2,,,,wg-a,,,,AAXX 26064 07650 02668 30116 10060 20030 30107 40147 55001 60006 81530 90600 333 10057 20011 60024=
07650,1998-11-26 09:00:00,8,1016.1,,71,3,35000,31.484,,,350,,,,1,,,,,,,wg-a,,,,AAXX 26094 07650 12681 33517 10080 20030 30122 40161 60017 81142 90900=
07650,1998-11-26 12:00:00,10,1016.6,0.5,66,4,35000,31.484,,,350,,,,1,,,,,,,wg-a,,,,AAXX 26124 07650 02681 /3517 10100 20040 30127 40166 50005 60026 81140 91200 333 60017=
07650,1998-11-26 15:00:00,9,1017.4,0.8,61,2,35000,38.892,,,360,,,,1,,,,,,,wg-a,,,,AAXX 26154 07650 12681 /3621 10090 20020 30135 40174 53008 60017 81101 91500=
07650,1998-11-26 18:00:00,6,1019.8,2.3,75,2,20000,29.632,,,350,5.1,10.8,,1,,,,,,,wg-a,,,,AAXX 26184 07650 02/70 13516 10060 20020 30158 40198 53023 60006 81030 91800 333 10108 20051 60017=
07650,1998-11-26 21:00:00,6,1021,1.2,70,1,20000,29.632,,,360,,,,,,,,,,,wg-a,,,,AAXX 26214 07650 32/70 03616 10060 20010 30170 40210 51012 80000 92100=
07650,1998-11-27 00:00:00,6,1020.4,-0.6,70,1,20000,29.632,,,340,,,,,,,,,,,wg-a,,,,AAXX 27004 07650 12/70 03416 10060 20010 30164 40204 56006 60026 80000 90000=
07650,1998-11-27 03:00:00,7,1019.5,-0.9,70,2,20000,42.596,,,340,,,,1,,,,,,,wg-a,,,,AAXX 27034 07650 12/70 33423 10070 20020 30155 40195 56009 60017 81032 90300=
07650,1998-11-27 06:00:00,8,1019,,71,3,25000,31.484,,,360,4.8,9.4,,,,,2,,,,wg-a,,,,AAXX 27064 07650 02/75 43617 10080 20030 30151 40190 60006 82032 90600 333 10094 20048 60024=
07650,1998-11-27 09:00:00,9,1019.1,0.1,71,4,25000,22.224,,,310,,,,1,,,,,,,wg-a,,,,AAXX 27094 07650 12575 /3112 10090 20040 30152 40191 50001 60017 81542 90900=
07650,1998-11-27 12:00:00,12,1016.7,-2.4,62,5,25000,38.892,,,340,,,,1,,,,,,,wg-a,,,,AAXX 27124 07650 02575 73421 10120 20050 30128 40167 58024 60026 82542 91200 333 60017=
07650,1998-11-27 15:00:00,11,1015,-1.7,66,5,500,42.596,,,340,,,,1,,,,,,,wg-a,,,,AAXX 27154 07650 12500 /3423 10110 20050 30111 40150 57017 60017 81842 91500=
07650,1998-11-27 18:00:00,9,1015.3,0.3,76,5,500,38.892,,,350,6.9,12.5,,1,,,,,,,wg-a,,,,AAXX 27184 07650 02/00 /3521 10090 20050 30114 40153 51003 60006 82032 91800 333 10125 20069 60017=
07650,1998-11-27 21:00:00,8,1015.2,-0.1,76,4,500,35.188,,,350,,,,,,,,,,,wg-a,,,,AAXX 27214 07650 32/00 03519 10080 20040 30113 40152 55001 80000 92100=
07650,1998-11-28 00:00:00,5,1016.5,1.2,81,2,500,7.408,,,90,,,,,,,,,,,wg-a,,,,AAXX 28004 07650 12/00 00904 10050 20020 30125 40165 53012 60026 80000 90000=
07650,1998-11-28 03:00:00,2,1016.8,0.3,93,1,20000,11.112,,,160,,,,,,,,,,,wg-a,,,,AAXX 28034 07650 32/70 01606 10020 20010 30128 40168 53003 80000 90300=
07650,1998-11-28 06:00:00,1,1017.8,1,86,-1,20000,3.704,,,360,0.4,9.4,,,,,2,,,,wg-a,,,,AAXX 28064 07650 02/70 03602 10010 21010 30138 40178 53010 60006 80000 90600 333 10094 20004 60024=
07650,1998-11-28 12:00:00,11,1017.6,-1.3,54,2,18000,14.816,,,280,,,,,,,,,,,wg-a,,,,AAXX 28124 07650 12/68 12808 10110 20020 30137 40176 58013 60006 80001 91200=
07650,1998-11-28 15:00:00,11,1017.3,-0.3,54,2,25000,22.224,,,320,,,,,,,,,,,wg-a,,,,AAXX 28154 07650 12/75 23212 10110 20020 30134 40173 55003 60006 81031 91500=
07650,1998-11-28 18:00:00,5,1017.6,0.2,75,1,25000,11.112,,,200,-0.2,11.9,,,,,,,,,wg-a,,,,AAXX 28184 07650 12/75 32006 10050 20010 30136 40176 50002 60006 82031 91800 333 10119 21002=
07650,1998-11-28 21:00:00,2,1016.8,-0.8,87,0,15000,3.704,,,140,,,,,,,,,,,wg-a,,,,AAXX 28214 07650 12/65 51402 10020 20000 30128 40168 58008 60006 82031 92100=
07650,1998-11-29 00:00:00,3,1015.8,-1,87,1,10000,7.408,,,150,,,,,,,,,,,wg-a,,,,AAXX 29004 07650 12660 71504 10030 20010 30118 40158 58010 60006 81571 90000=
07650,1998-11-29 03:00:00,4,1013.9,-1.9,87,2,9000,0,,,0,,,,,,,,,,,wg-a,,,,AAXX 29034 07650 12659 70000 10040 20020 30099 40139 56019 60006 8557/ 90300=
07650,1998-11-29 06:00:00,4,1012.5,-1.4,100,4,8000,7.408,,,320,1,5,,,,,,,,61,wg-a,,,,AAXX 29064 07650 02458 83204 10040 20040 30085 40125 55014 61000 76162 8757/ 90600 333 10050 20010 6001=
07650,1998-11-29 09:00:00,5,1012.2,-0.2,93,4,12000,14.816,,,340,,,,,,,,,,1,wg-a,,,,AAXX 29094 07650 02562 73408 10050 20040 30083 40122 58002 61000 70162 8457/ 90900 333 ////=
07650,1998-11-29 12:00:00,10,1010.8,-1.4,71,5,15000,29.632,,,350,,,,,,,,,,3,wg-a,,,,AAXX 29124 07650 02565 73516 10100 20050 30069 40108 58014 61000 70362 81832 91200 333 ////=
07650,1998-11-29 15:00:00,10,1010.2,-0.6,66,4,15000,31.484,,,360,,,,,,,,,,,wg-a,,,,AAXX 29154 07650 12665 73617 10100 20040 30063 40102 55006 60006 83532 91500=
07650,1998-11-29 18:00:00,7,1011.4,1.2,87,5,15000,11.112,,,10,4.2,10.7,,,,,,,,60,wg-a,,,,AAXX 29184 07650 02565 70106 10070 20050 30075 40114 51012 61000 76062 875// 91800 333 10107 20042 6100=
07650,1998-11-29 21:00:00,5,1012.5,1,93,4,18000,3.704,,,220,,,,0,,,,,,3,wg-a,,,,AAXX 29214 07650 12668 62202 10050 20040 30085 40125 53010 60007 70361 82532 92100=
07650,1998-11-30 00:00:00,3,1012.8,0.3,100,3,15000,11.112,,,20,,,,,,,,,,1,wg-a,,,,AAXX 30004 07650 12665 /0206 10030 20030 30088 40128 50003 60006 70161 81532 90000=
07650,1998-11-30 03:00:00,1,1013,0.2,93,0,11000,0,,,0,,,,,,,,,,,wg-a,,,,AAXX 30034 07650 12/61 /0000 10010 20000 30090 40130 50002 60006 90300=
07650,1998-11-30 06:00:00,0,1013.2,0.2,100,0,15000,7.408,,,160,-0.1,7.5,,,,,,,,,wg-a,,,,AAXX 30064 07650 02/65 31604 10000 20000 30092 40132 53002 60006 81032 90600 333 10075 21001 60004=
07650,1998-11-30 09:00:00,4,1014.4,1.2,100,4,18000,7.408,,,160,,,,,,,,,,,wg-a,,,,AAXX 30094 07650 12668 31604 10040 20040 30104 40144 53012 60006 81531 90900=
07650,1998-11-30 12:00:00,10,1013.5,-0.8,71,5,18000,3.704,,,100,,,,,,,,,,,wg-a,,,,AAXX 30124 07650 12568 /1002 10100 20050 30096 40135 58008 60006 82831 91200=
07650,1998-11-30 15:00:00,9,1013,-0.5,61,2,25000,25.928,,,350,,,,,,,,,,,wg-a,,,,AAXX 30154 07650 32675 43514 10090 20020 30091 40130 55005 82131 91500=
07650,1998-11-30 18:00:00,4,1014.7,1.6,81,1,25000,3.704,,,20,0,10.6,,,,,,,,,wg-a,,,,AAXX 30184 07650 12675 30202 10040 20010 30107 40147 53016 60006 81131 91800 333 10106 20000=
07650,1998-11-30 21:00:00,2,1015.9,1.2,93,1,25000,7.408,,,20,,,,,,,,,,,wg-a,,,,AAXX 30214 07650 12675 /0204 10020 20010 30119 40159 51012 60006 81131 92100=
07650,1998-12-01 00:00:00,3,1016.4,0.5,87,1,20000,7.408,,,50,,,,,,,,,,,wg-a,,,,AAXX 01004 07650 12670 70504 10030 20010 30124 40164 51005 60006 8157/ 90000=
07650,1998-12-01 03:00:00,4,1017.3,0.9,81,1,20000,14.816,,,10,,,,,,,,,,,wg-a,,,,AAXX 01034 07650 12670 70108 10040 20010 30133 40173 53009 60006 8257/ 90300=
07650,1998-12-01 06:00:00,4,1017.6,0.3,81,1,15000,7.408,,,280,2.1,4.2,,,,,,,,,wg-a,,,,AAXX 01064 07650 12665 72804 10040 20010 30136 40176 50003 60006 8257/ 90600 333 10042 20021=
07650,1998-12-01 12:00:00,7,1019.5,-0.2,70,2,10000,11.112,,,10,,,,,,,,,,,wg-a,,,,AAXX 01124 07650 12660 70106 10070 20020 30155 40195 58002 60006 8257/ 91200=
07650,1998-12-01 15:00:00,7,1019.3,-0.2,70,2,10000,7.408,,,360,,,,,,,,,,,wg-a,,,,AAXX 01154 07650 12660 73604 10070 20020 30153 40193 55002 60006 875// 91500=
07650,1998-12-01 18:00:00,6,1019.6,0.3,70,1,11000,14.816,,,350,4,7.3,,,,,,,,,wg-a,,,,AAXX 01184 07650 12/61 /3508 10060 20010 30156 40196 53003 60006 91800 333 10073 20040=
07650,1998-12-01 21:00:00,4,1020.3,0.7,81,1,12000,11.112,,,10,,,,,,,,,,,wg-a,,,,AAXX 01214 07650 12662 70106 10040 20010 30163 40203 51007 60006 8153/ 92100=
07650,1998-12-02 00:00:00,4,1020.6,0.3,81,1,11000,3.704,,,10,,,,,,,,,,,wg-a,,,,AAXX 02004 07650 12/61 70102 10040 20010 30166 40206 50003 60006 8703/ 90000=
07650,1998-12-02 03:00:00,4,1020.5,-0.1,87,2,8000,0,,,0,,,,,,,,,,,wg-a,,,,AAXX 02034 07650 12658 80000 10040 20020 30165 40205 56001 60006 8457/ 90300=
07650,1998-12-02 06:00:00,4,1020.5,-0,87,2,7000,7.408,,,160,3.4,5.8,,,,,,,,,wg-a,,,,AAXX 02064 07650 02657 81604 10040 20020 30165 40205 55000 60006 8357/ 90600 333 10058 20034 60004=
07650,1998-12-02 09:00:00,7,1021.8,1.3,70,2,7000,3.704,,,190,,,,,,,,,,,wg-a,,,,AAXX 02094 07650 12657 51902 10070 20020 30178 40218 53013 60006 81532 90900=
07650,1998-12-02 12:00:00,9,1021,-0.7,66,3,7000,7.408,,,280,,,,,,,,,,,wg-a,,,,AAXX 02124 07650 12657 42804 10090 20030 30171 40210 58007 60006 81531 91200=
07650,1998-12-02 15:00:00,11,1019.4,-1.6,58,3,10000,7.408,,,250,,,,,,,,,,,wg-a,,,,AAXX 02154 07650 12660 52504 10110 20030 30155 40194 56016 60006 81532 91500=
07650,1998-12-02 18:00:00,9,1019.9,0.5,57,1,8000,0,,,0,3.7,12.9,,,,,,,,,wg-a,,,,AAXX 02184 07650 12658 40000 10090 20010 30160 40199 52005 60006 81532 91800 333 10129 20037=
07650,1998-12-02 21:00:00,3,1019.9,-0.1,93,2,7000,3.704,,,280,,,,,,,,,,,wg-a,,,,AAXX 02214 07650 12/57 22802 10030 20020 30159 40199 58001 60006 80002 92100=
07650,1998-12-03 00:00:00,2,1018.5,-1.4,93,1,8000,3.704,,,190,,,,,,,,,,,wg-a,,,,AAXX 03004 07650 12/58 21902 10020 20010 30145 40185 58014 60006 80002 90000=
07650,1998-12-03 03:00:00,5,1016.9,-1.6,93,4,9000,3.704,,,130,,,,,,,,,,,wg-a,,,,AAXX 03034 07650 12/59 21302 10050 20040 30129 40169 58016 60006 80002 90300=
07650,1998-12-03 06:00:00,9,1015,-1.8,61,2,10000,7.408,,,100,1.2,9.2,,,,,,,,,wg-a,,,,AAXX 03064 07650 02/60 /1004 10090 20020 30111 40150 56018 60006 81031 90600 333 10092 20012 60004=
07650,1998-12-03 09:00:00,7,1014.5,-0.5,76,3,12000,14.816,,,60,,,,,,,,,,,wg-a,,,,AAXX 03094 07650 12762 60608 10070 20030 30106 40145 58005 60006 84532 90900=
07650,1998-12-03 12:00:00,8,1011.7,-2.8,76,4,14000,11.112,,,10,,,,,,,,,,21,wg-a,,,,AAXX 03124 07650 02564 70106 10080 20040 30078 40117 58028 61000 72161 8387/ 91200 333 6100=
07650,1998-12-03 15:00:00,14,1008.8,-2.8,55,5,20000,7.408,,,110,,,,,,,,,,,wg-a,,,,AAXX 03154 07650 12670 61104 10140 20050 30050 40088 56028 60006 83832 91500=
07650,1998-12-03 21:00:00,4,1007,-0.8,87,2,15000,11.112,,,160,,,,,,,,,,,wg-a,,,,AAXX 03214 07650 12765 21606 10040 20020 30031 40070 56008 60006 8253/ 92100=
07650,1998-12-04 00:00:00,3,1004.7,-2.4,87,1,10000,22.224,,,360,,,,,,,,,,,wg-a,,,,AAXX 04004 07650 12760 73612 10030 20010 30007 40047 58024 60006 8357/ 90000=
07650,1998-12-04 03:00:00,3,1002.2,-2.5,75,-1,10000,18.52,,,10,,,,,,,,,,,wg-a,,,,AAXX 04034 07650 12660 70110 10030 21010 39982 40022 58025 60006 8357/ 90300=
07650,1998-12-04 06:00:00,3,1001.7,-0.5,75,-1,12000,31.484,,,350,0.6,7.2,,,,,,,,,wg-a,,,,AAXX 04064 07650 02662 73517 10030 21010 39977 40017 55005 60006 83572 90600 333 10072 20006 61000=
07650,1998-12-04 12:00:00,7,1002.5,-0.2,61,0,15000,53.708,,,350,,,,,,,,,,,wg-a,,,,AAXX 04124 07650 12/65 23529 10070 20000 39986 40025 55002 60006 80001 91200=
07650,1998-12-04 15:00:00,8,1003.5,1,57,0,15000,53.708,,83.34,350,,,,,,,,,,,wg-a,,,,AAXX 04154 07650 12/65 23529 10080 20000 39996 40035 53010 60006 80001 91500 333 91045=
07650,1998-12-04 18:00:00,5,1006.2,2.7,70,0,10000,31.484,,64.82,340,2.5,8.5,,,,,,,,,wg-a,,,,AAXX 04184 07650 12/60 /3417 10050 20000 30023 40062 53027 60006 91800 333 10085 20025 91035=
07650,1998-12-04 21:00:00,5,1007.7,1.5,65,-1,15000,50.004,,,340,,,,,,,,,,,wg-a,,,,AAXX 04214 07650 12/65 03427 10050 21010 30038 40077 53015 60006 80000 92100=
07650,1998-12-05 00:00:00,4,1009.1,1.3,65,-2,15000,38.892,,,340,,,,,,,,,,,wg-a,,,,AAXX 05004 07650 12665 33421 10040 21020 30051 40091 53013 60006 82502 90000=
07650,1998-12-05 03:00:00,4,1009.1,-0,70,-1,15000,38.892,,,340,,,,,,,,,,,wg-a,,,,AAXX 05034 07650 12665 23421 10040 21010 30051 40091 55000 60006 82502 90300=
07650,1998-12-05 06:00:00,4,1010.6,1.5,65,-2,15000,57.412,,83.34,340,3.5,5.1,,,,,,,,,wg-a,,,,AAXX 05064 07650 02/65 03431 10040 21020 30066 40106 53015 60006 80000 90600 333 10051 20035 60004 91045=
07650,1998-12-05 09:00:00,5,1013.3,2.7,60,-2,10000,42.596,,,340,,,,,,,,,,,wg-a,,,,AAXX 05094 07650 12/60 /3423 10050 21020 30093 40133 51027 60006 90900=
07650,1998-12-05 12:00:00,8,1013.3,0.1,53,-1,500,61.116,,74.08,340,,,,,,,,,,,wg-a,,,,AAXX 05124 07650 12/00 03433 10080 21010 30094 40133 52001 60006 80000 91200 333 91040=
07650,1998-12-05 15:00:00,7,1014,0.7,53,-2,500,50.004,,,340,,,,,,,,,,,wg-a,,,,AAXX 05154 07650 12600 /3427 10070 21020 30101 40140 53007 60006 81100 91500=
07650,1998-12-05 18:00:00,5,1016,1.9,60,-2,500,53.708,,,340,4,7.8,,,,,,,,,wg-a,,,,AAXX 05184 07650 12600 /3429 10050 21020 30120 40160 53019 60006 81102 91800 333 10078 20040=
07650,1998-12-05 21:00:00,4,1018.6,2.6,60,-3,500,50.004,,,350,,,,,,,,,,,wg-a,,,,AAXX 05214 07650 12/00 03527 10040 21030 30146 40186 53026 60006 80000 92100=
07650,1998-12-06 00:00:00,3,1020.1,1.5,65,-3,500,29.632,,,340,,,,,,,,,,,wg-a,,,,AAXX 06004 07650 12/00 03416 10030 21030 30161 40201 50015 60006 80000 90000=
07650,1998-12-06 03:00:00,2,1020.1,-0,69,-3,500,29.632,,,330,,,,,,,,,,,wg-a,,,,AAXX 06034 07650 12/00 03316 10020 21030 30161 40201 54000 60006 80000 90300=
07650,1998-12-06 06:00:00,0,1020.3,0.1,80,-3,500,18.52,,,320,-0.1,4.9,,,,,,,,,wg-a,,,,AAXX 06064 07650 02/00 33210 10000 21030 30162 40203 53001 60006 80001 90600 333 10049 21001 60004=
07650,1998-12-06 09:00:00,2,1020.8,0.6,75,-2,20000,7.408,,,330,,,,,,,,,,,wg-a,,,,AAXX 06094 07650 12570 73304 10020 21020 30168 40208 53006 60006 878// 90900=
07650,1998-12-06 12:00:00,8,1019.9,-0.8,57,0,25000,29.632,,,330,,,,,,,,,,,wg-a,,,,AAXX 06124 07650 12575 23316 10080 20000 30160 40199 58008 60006 82830 91200=
07650,1998-12-06 15:00:00,8,1020.4,0.4,39,-5,40000,38.892,,66.672,350,,,,,,,,,,,wg-a,,,,AAXX 06154 07650 12/82 /3521 10080 21050 30164 40204 53004 60006 81030 91500 333 91036=
07650,1998-12-06 18:00:00,5,1021.6,1.2,52,-4,20000,53.708,,,340,-1.1,9.1,,,,,,,,,wg-a,,,,AAXX 06184 07650 12/70 13429 10050 21040 30176 40216 51012 60006 81030 91800 333 10091 21011=
07650,1998-12-06 21:00:00,4,1022.8,1.2,60,-3,25000,38.892,,,340,,,,,,,,,,,wg-a,,,,AAXX 06214 07650 12/75 03421 10040 21030 30188 40228 50012 60006 80000 92100=
07650,1998-12-07 00:00:00,3,1023.1,0.3,60,-4,25000,42.596,,,350,,,,,,,,,,,wg-a,,,,AAXX 07004 07650 12/75 03523 10030 21040 30191 40231 53003 60006 80000 90000=
07650,1998-12-07 03:00:00,2,1023.4,0.3,60,-5,25000,42.596,,,360,,,,,,,,,,,wg-a,,,,AAXX 07034 07650 12/75 03623 10020 21050 30194 40234 50003 60006 80000 90300=
07650,1998-12-07 06:00:00,2,1024,0.6,69,-3,25000,50.004,,,350,1.9,5.3,,,,,,,,,wg-a,,,,AAXX 07064 07650 02/75 03527 10020 21030 30200 40240 53006 60006 80000 90600 333 10053 20019 60004=
07650,1998-12-07 09:00:00,4,1025.3,1.3,56,-4,500,50.004,,,350,,,,,,,,,,,wg-a,,,,AAXX 07094 07650 12/00 03527 10040 21040 30213 40253 53013 60006 80000 90900=
07650,1998-12-07 12:00:00,6,1025.3,0,49,-4,500,42.596,,,350,,,,,,,,,,,wg-a,,,,AAXX 07124 07650 12/00 03523 10060 21040 30213 40253 50000 60006 80000 91200=
07650,1998-12-07 15:00:00,6,1025.1,-0.2,49,-4,500,46.3,,,360,,,,,,,,,,,wg-a,,,,AAXX 07154 07650 12/00 03625 10060 21040 30211 40251 55002 60006 80000 91500=
07650,1998-12-07 18:00:00,4,1026.1,1,56,-4,500,42.596,,,350,1.9,6.5,,,,,,,,,wg-a,,,,AAXX 07184 07650 12/00 03523 10040 21040 30221 40261 50010 60006 80000 91800 333 10065 20019=
07650,1998-12-07 21:00:00,3,1026.3,0.2,60,-4,500,57.412,,,350,,,,,,,,,,,wg-a,,,,AAXX 07214 07650 12/00 03531 10030 21040 30223 40263 50002 60006 80000 92100=
07650,1998-12-08 00:00:00,2,1027.6,1.2,64,-4,500,22.224,,,350,,,,,,,,,,,wg-a,,,,AAXX 08004 07650 12/00 03512 10020 21040 30235 40276 50012 60006 80000 90000=
07650,1998-12-08 03:00:00,-3,1028.1,0.5,86,-5,500,3.704,,,70,,,,,,,,,,,wg-a,,,,AAXX 08034 07650 12/00 00702 11030 21050 30240 40281 50005 60006 80000 90300=
07650,1998-12-08 06:00:00,-4,1028.4,0.2,86,-6,500,3.704,,,50,-3.9,3.7,,,,,,,,,wg-a,,,,AAXX 08064 07650 02/00 00502 11040 21060 30242 40284 53002 60006 80000 90600 333 10037 21039 60004=
07650,1998-12-08 09:00:00,1,1029.2,0.9,59,-6,500,14.816,,,10,,,,,,,,,,,wg-a,,,,AAXX 08094 07650 12/00 10108 10010 21060 30251 40292 52009 60006 80001 90900=
07650,1998-12-08 12:00:00,6,1028.1,-1,45,-5,75000,14.816,,,340,,,,,,,,,,,wg-a,,,,AAXX 08124 07650 12/89 13408 10060 21050 30241 40281 58010 60006 80001 91200=
07650,1998-12-08 18:00:00,2,1028.8,1.4,69,-3,20000,7.408,,,300,-4,8.1,,,,,,,,,wg-a,,,,AAXX 08184 07650 12/70 13004 10020 21030 30247 40288 53014 60006 80002 91800 333 10081 21040=
07650,1998-12-08 21:00:00,-1,1028.7,-0.1,80,-4,20000,3.704,,,50,,,,,,,,,,,wg-a,,,,AAXX 08214 07650 12/70 00502 11010 21040 30246 40287 57001 60006 80000 92100=
07650,1998-12-09 00:00:00,-3,1028.4,-0.3,86,-5,20000,11.112,,,160,,,,,,,,,,,wg-a,,,,AAXX 09004 07650 12/70 01606 11030 21050 30243 40284 57003 60006 80000 90000=
07650,1998-12-09 03:00:00,-4,1028.6,0.1,93,-5,12000,3.704,,,140,,,,,,,,,,,wg-a,,,,AAXX 09034 07650 12/62 01402 11040 21050 30244 40286 50001 60006 80000 90300=
07650,1998-12-09 06:00:00,-1,1028.1,-0.4,80,-4,12000,3.704,,,170,-3.7,2.4,,,,,,,,,wg-a,,,,AAXX 09064 07650 02/62 71702 11010 21040 30240 40281 56004 60006 85032 90600 333 10024 21037 60004=
07650,1998-12-09 09:00:00,2,1029.6,1.5,69,-3,11000,7.408,,,280,,,,,,,,,,,wg-a,,,,AAXX 09094 07650 12/61 /2804 10020 21030 30255 40296 53015 60006 83032 90900=
07650,1998-12-09 12:00:00,7,1028.3,-1.2,57,-1,9000,7.408,,,290,,,,,,,,,,,wg-a,,,,AAXX 09124 07650 12659 82904 10070 21010 30243 40283 58012 60006 8151/ 91200=
07650,1998-12-09 15:00:00,8,1027.5,-0.8,61,1,9000,3.704,,,100,,,,,,,,,,,wg-a,,,,AAXX 09154 07650 12659 81002 10080 20010 30235 40275 58008 60006 8151/ 91500=
07650,1998-12-09 18:00:00,6,1028.6,1.1,70,1,10000,11.112,,,240,-1.1,8.3,,,,,,,,,wg-a,,,,AAXX 09184 07650 12560 72406 10060 20010 30246 40286 53011 60006 8353/ 91800 333 10083 21011=
07650,1998-12-09 21:00:00,6,1027.9,-0.7,75,2,7000,3.704,,,160,,,,,,,,,,,wg-a,,,,AAXX 09214 07650 12557 81602 10060 20020 30239 40279 58007 60006 875// 92100=
07650,1998-12-10 00:00:00,5,1027.3,-0.6,81,2,8000,3.704,,,210,,,,,,,,,,,wg-a,,,,AAXX 10004 07650 12658 /2102 10050 20020 30233 40273 58006 60006 84500 90000=
07650,1998-12-10 03:00:00,1,1026.3,-1.1,93,0,6000,0,,,0,,,,,,,,,,,wg-a,,,,AAXX 10034 07650 12/56 00000 10010 20000 30222 40263 56011 60006 80000 90300=
07650,1998-12-10 06:00:00,0,1025.7,-0.6,93,-1,7000,3.704,,,160,0,6.5,,,,,,,,,wg-a,,,,AAXX 10064 07650 02/57 /1602 10000 21010 30216 40257 55006 60006 81030 90600 333 10065 20000 60004=
07650,1998-12-10 09:00:00,3,1026.1,0.5,93,2,500,3.704,,,10,,,,,,,,,,,wg-a,,,,AAXX 10094 07650 12600 /0102 10030 20020 30221 40261 51005 60006 8553/ 90900=
07650,1998-12-10 12:00:00,7,1024.3,-1.8,70,2,8000,0,,,0,,,,,,,,,,,wg-a,,,,AAXX 10124 07650 12458 70000 10070 20020 30203 40243 58018 60006 865// 91200=
07650,1998-12-10 15:00:00,9,1022.3,-1.9,81,6,10000,11.112,,,270,,,,,,,,,,,wg-a,,,,AAXX 10154 07650 12/60 12706 10090 20060 30184 40223 56019 60006 80002 91500=
07650,1998-12-10 18:00:00,5,1022,-0.4,93,4,10000,7.408,,,150,0,10.1,,,,,,,,,wg-a,,,,AAXX 10184 07650 12/60 /1504 10050 20040 30180 40220 58004 60006 91800 333 10101 20000=
07650,1998-12-10 21:00:00,4,1021.6,-0.4,93,3,8000,3.704,,,200,,,,,,,,,,,wg-a,,,,AAXX 10214 07650 12/58 32002 10040 20030 30176 40216 58004 60006 80002 92100=
07650,1998-12-11 00:00:00,4,1020.5,-1.1,93,3,6000,3.704,,,80,,,,,,,,,,,wg-a,,,,AAXX 11004 07650 02/56 /0802 10040 20030 30165 40205 58011 61000 90000 333 ////=
07650,1998-12-11 06:00:00,5,1018.8,-0.2,100,5,2500,3.704,,,200,3.3,5.9,,,,,3,,,1,wg-a,,,,AAXX 11064 07650 02425 82002 10050 20050 30148 40188 55002 60006 70162 8457/ 90600 333 10059 20033 60034=
07650,1998-12-11 09:00:00,5,1020.6,1.8,100,5,500,3.704,,,300,,,,,,,,,,45,wg-a,,,,AAXX 11094 07650 12/00 93002 10050 20050 30166 40206 51018 60006 74542 89/// 90900=
07650,1998-12-11 12:00:00,12,1019.7,-0.8,67,6,500,38.892,,,350,,,,,,,,,,2,wg-a,,,,AAXX 11124 07650 12400 /3521 10120 20060 30158 40197 56008 60006 70241 81140 91200=
07650,1998-12-11 15:00:00,12,1019.3,-0.4,58,4,500,42.596,,64.82,330,,,,,,,,,,,wg-a,,,,AAXX 11154 07650 32600 23323 10120 20040 30154 40193 55004 81101 91500 333 91035=
07650,1998-12-11 18:00:00,10,1020.7,1.4,66,4,500,42.596,,,330,,,,,,,,,,,wg-a,,,,AAXX 11184 07650 12600 23323 10100 20040 30168 40207 53014 60006 81431 91800=
07650,1998-12-11 21:00:00,9,1021.2,0.5,71,4,20000,31.484,,,330,,,,,,,,,,,wg-a,,,,AAXX 11214 07650 12/70 53317 10090 20040 30173 40212 50005 60006 83011 92100=
07650,1998-12-12 00:00:00,9,1022.1,0.9,71,4,20000,29.632,,,360,,,,,,,,,,,wg-a,,,,AAXX 12004 07650 12/70 73616 10090 20040 30182 40221 51009 60006 85032 90000=
07650,1998-12-12 03:00:00,9,1023.5,1.4,71,4,20000,14.816,,,340,,,,,,,,,,,wg-a,,,,AAXX 12034 07650 12/70 53408 10090 20040 30196 40235 51014 60006 81032 90300=
07650,1998-12-12 06:00:00,6,1024.6,1,81,3,20000,0,,,0,5.9,10.3,,,,,,,,,wg-a,,,,AAXX 12064 07650 12/70 30000 10060 20030 30206 40246 53010 60006 81032 90600 333 10103 20059=
07650,1998-12-12 09:00:00,8,1026.2,1.6,71,3,50000,22.224,,,360,,,,,,,,,,,wg-a,,,,AAXX 12094 07650 12684 43612 10080 20030 30222 40262 53016 60006 81842 90900=
07650,1998-12-12 12:00:00,13,1026.2,0.1,51,3,60000,3.704,,,320,,,,,,,,,,,wg-a,,,,AAXX 12124 07650 12886 53202 10130 20030 30223 40262 50001 60006 81542 91200=
07650,1998-12-12 15:00:00,14,1026.4,0.2,55,5,500,7.408,,,270,,,,,,,,,,,wg-a,,,,AAXX 12154 07650 12700 62704 10140 20050 30225 40264 53002 60006 81532 91500=
07650,1998-12-12 18:00:00,9,1027.5,1,76,5,500,14.816,,,10,5.1,14.1,,,,,,,,,wg-a,,,,AAXX 12184 07650 12700 40108 10090 20050 30235 40275 51010 60006 81532 91800 333 10141 20051=
07650,1998-12-12 21:00:00,9,1027.9,0.4,87,7,500,18.52,,,20,,,,,,,,,,,wg-a,,,,AAXX 12214 07650 12/00 20210 10090 20070 30239 40279 50004 60006 82030 92100=
07650,1998-12-13 00:00:00,9,1028.6,0.7,81,6,500,18.52,,,300,,,,,,,,,,,wg-a,,,,AAXX 13004 07650 12/00 13010 10090 20060 30246 40286 50007 60006 81030 90000=
07650,1998-12-13 03:00:00,9,1028.7,0.1,87,7,25000,11.112,,,10,,,,,,,,,,,wg-a,,,,AAXX 13034 07650 12/75 00106 10090 20070 30247 40287 52001 60006 80000 90300=
07650,1998-12-13 06:00:00,6,1029.6,0.9,100,6,20000,3.704,,,170,5.8,10.6,,,,,,,,,wg-a,,,,AAXX 13064 07650 02/70 31702 10060 20060 30256 40296 53009 60006 82032 90600 333 10106 20058 60004=
07650,1998-12-13 09:00:00,11,1030.4,0.9,82,8,500,29.632,,,340,,,,,,,,,,,wg-a,,,,AAXX 13094 07650 12500 53416 10110 20080 30265 40304 50009 60006 81532 90900=
07650,1998-12-13 12:00:00,18,1029.4,-0.9,52,8,40000,38.892,,,350,,,,,,,,,,,wg-a,,,,AAXX 13124 07650 12/82 43521 10180 20080 30256 40294 58009 60006 82032 91200=
07650,1998-12-13 15:00:00,15,1029.4,-0.1,59,7,40000,38.892,,,360,,,,,,,,,,,wg-a,,,,AAXX 13154 07650 12/82 73621 10150 20070 30255 40294 55001 60006 82032 91500=
07650,1998-12-13 18:00:00,13,1030.3,0.9,67,7,40000,31.484,,50.004,360,5.7,17.5,,,,,,,,,wg-a,,,,AAXX 13184 07650 12/82 33617 10130 20070 30264 40303 51009 60006 81032 91800 333 10175 20057 91027=
07650,1998-12-13 21:00:00,11,1031.2,0.9,71,6,500,18.52,,,350,,,,,,,,,,,wg-a,,,,AAXX 13214 07650 12/00 23510 10110 20060 30273 40312 50009 60006 80002 92100=
07650,1998-12-14 00:00:00,8,1030.9,-0.4,81,5,25000,11.112,,,350,,,,,,,,,,,wg-a,,,,AAXX 14004 07650 12/75 23506 10080 20050 30269 40309 58004 60006 80002 90000=
07650,1998-12-14 06:00:00,4,1030.5,-0.3,100,4,500,3.704,,,80,3.6,13.5,,,,,,,,,wg-a,,,,AAXX 14064 07650 02/00 10802 10040 20040 30265 40305 58003 60006 80001 90600 333 10135 20036 60004=
07650,1998-12-14 09:00:00,6,1031.1,0.6,93,5,25000,0,,,0,,,,,,,,,,,wg-a,,,,AAXX 14094 07650 12/75 60000 10060 20050 30271 40311 53006 60006 81041 90900=
07650,1998-12-14 12:00:00,12,1029.4,-1.6,62,5,25000,7.408,,,230,,,,,,,,,,,wg-a,,,,AAXX 14124 07650 12/75 72304 10120 20050 30255 40294 58016 60006 82031 91200=
07650,1998-12-14 15:00:00,14,1027.6,-1.8,47,3,500,14.816,,,330,,,,,,,,,,,wg-a,,,,AAXX 14154 07650 12/00 53308 10140 20030 30237 40276 56018 60006 82032 91500=
07650,1998-12-14 18:00:00,10,1027.6,-0,57,2,500,7.408,,,20,3.7,15,,,,,,,,,wg-a,,,,AAXX 14184 07650 12/00 30204 10100 20020 30237 40276 55000 60006 81032 91800 333 10150 20037=
07650,1998-12-15 00:00:00,5,1027.3,0.3,81,2,500,7.408,,,160,,,,,,,,,,,wg-a,,,,AAXX 15004 07650 12/00 01604 10050 20020 30233 40273 53003 60006 80000 90000=
07650,1998-12-15 06:00:00,2,1027.9,0.2,93,1,15000,3.704,,,170,1.6,9.8,,,,,,,,,wg-a,,,,AAXX 15064 07650 02/65 11702 10020 20010 30238 40279 53002 60006 81030 90600 333 10098 20016 60004=
07650,1998-12-15 09:00:00,5,1029.1,1.3,93,4,8000,3.704,,,310,,,,,,,,,,,wg-a,,,,AAXX 15094 07650 12358 23102 10050 20040 30251 40291 53013 60006 81502 90900=
07650,1998-12-15 12:00:00,11,1028.5,-0.5,71,6,9000,7.408,,,290,,,,,,,,,,,wg-a,,,,AAXX 15124 07650 12459 22904 10110 20060 30246 40285 58005 60006 81502 91200=
07650,1998-12-15 15:00:00,12,1027.7,-0.8,76,8,15000,0,,,0,,,,,,,,,,,wg-a,,,,AAXX 15154 07650 12/65 40000 10120 20080 30238 40277 55008 60006 80002 91500=
07650,1998-12-15 18:00:00,6,1028.8,1,100,6,75000,3.704,,,140,1.2,12.5,,,,,,,,,wg-a,,,,AAXX 15184 07650 12/89 21402 10060 20060 30248 40288 53010 60006 80002 91800 333 10125 20012=
07650,1998-12-15 21:00:00,5,1029.5,0.7,93,4,8000,7.408,,,210,,,,,,,,,,,wg-a,,,,AAXX 15214 07650 12/58 /2104 10050 20040 30255 40295 51007 60006 80000 92100=
07650,1998-12-16 00:00:00,3,1029.4,-0.1,100,3,500,3.704,,,30,,,,,,,,,,,wg-a,,,,AAXX 16004 07650 12300 20302 10030 20030 30254 40294 58001 60006 82600 90000=
07650,1998-12-16 03:00:00,4,1028.8,-1.3,100,4,2500,7.408,,,240,,,,,,,,,,10,wg-a,,,,AAXX 16034 07650 12325 72404 10040 20040 30241 40288 58013 60006 71011 876// 90300=
07650,1998-12-16 06:00:00,6,1027.1,-1,100,6,1200,3.704,,,360,2.6,6.4,,,,,,,,10,wg-a,,,,AAXX 16064 07650 02112 73602 10060 20060 30231 40271 57010 60006 71011 866// 90600 333 10064 20026 60004=
07650,1998-12-16 09:00:00,5,1027.5,0.4,100,5,500,3.704,,,90,,,,,,,,,,10,wg-a,,,,AAXX 16094 07650 12105 70902 10050 20050 30235 40275 51004 60006 71042 876// 90900=
07650,1998-12-16 12:00:00,12,1025.5,-1.9,67,6,3500,3.704,,,190,,,,,,,,,,10,wg-a,,,,AAXX 16124 07650 12/35 /1902 10120 20060 30216 40255 58019 60006 71041 80001 91200=
07650,1998-12-16 15:00:00,12,1025,-0.5,67,6,9000,7.408,,,260,,,,,,,,,,,wg-a,,,,AAXX 16154 07650 12/59 /2604 10120 20060 30211 40250 55005 60006 80001 91500=
07650,1998-12-16 18:00:00,8,1026.9,1.8,87,6,9000,3.704,,,60,5.2,15,,,,,,,,,wg-a,,,,AAXX 16184 07650 12/59 00602 10080 20060 30229 40269 53018 60006 80000 91800 333 10150 20052=
07650,1998-12-16 21:00:00,5,1027.6,0.7,93,4,6000,7.408,,,150,,,,,,,,,,,wg-a,,,,AAXX 16214 07650 12/56 01504 10050 20040 30236 40276 53007 60006 80000 92100=
07650,1998-12-17 00:00:00,3,1028.7,1.1,100,3,3000,3.704,,,170,,,,,,,,,,10,wg-a,,,,AAXX 17004 07650 12/30 01702 10030 20030 30247 40287 52011 60006 71000 80000 90000=
07650,1998-12-17 03:00:00,2,1028.4,-0.4,100,2,2500,3.704,,,170,,,,,,,,,,10,wg-a,,,,AAXX 17034 07650 12/25 01702 10020 20020 30243 40284 58004 60006 71000 80000 90300=
07650,1998-12-17 06:00:00,1,1028.2,-0.2,100,1,2500,3.704,,,180,0.6,7.6,,,,,,,,10,wg-a,,,,AAXX 17064 07650 02325 /1802 10010 20010 30241 40282 56002 60006 71000 81600 90600 333 10076 20006 60004=
07650,1998-12-17 12:00:00,10,1028,-0.8,76,6,3500,3.704,,,290,,,,,,,,,,10,wg-a,,,,AAXX 17124 07650 12235 32902 10100 20060 30241 40280 58008 60006 71000 81602 91200=
07650,1998-12-17 18:00:00,6,1029.6,1.6,93,5,8000,3.704,,,10,0.4,12.6,,,,,,,,,wg-a,,,,AAXX 17184 07650 12358 30102 10060 20050 30256 40296 53016 60006 81602 91800 333 10126 20004=
07650,1998-12-17 21:00:00,3,1030.2,,100,3,500,3.704,,,190,,,,,,,,,,,wg-a,,,,AAXX 17214 07650 32300 /1902 10030 20030 30262 40302 81600 92100=
07650,1998-12-18 00:00:00,2,1030,-0.3,100,2,1800,3.704,,,170,,,,,,,,,,40,wg-a,,,,AAXX 18004 07650 12218 21702 10020 20020 30259 40300 58003 60006 74000 82600 90000=
07650,1998-12-18 03:00:00,1,1029,,100,1,1500,0,,,0,,,,,,,,,,40,wg-a,,,,AAXX 18034 07650 32115 20000 10010 20010 30249 40290 74000 82600 90300=
07650,1998-12-18 06:00:00,1,1028.1,-0.9,100,1,4000,7.408,,,160,,,,,,,,,,12,wg-a,,,,AAXX 18064 07650 12140 21604 10010 20010 30240 40281 56009 60006 71240 82600 90600=
07650,1998-12-18 09:00:00,4,1029.1,1.1,100,4,3500,0,,,0,,,,,,,,,,10,wg-a,,,,AAXX 18094 07650 12035 20000 10040 20040 30251 40291 52011 60006 71041 82600 90900=
07650,1998-12-18 12:00:00,11,1027.5,-1.5,62,4,500,3.704,,,320,,,,,,,,,,1,wg-a,,,,AAXX 18124 07650 12500 /3202 10110 20040 30236 40275 58015 60006 70141 81501 91200=
07650,1998-12-18 15:00:00,12,1025.9,-1.6,62,5,10000,0,,,0,,,,,,,,,,,wg-a,,,,AAXX 18154 07650 12/60 20000 10120 20050 30220 40259 56016 60006 80001 91500=
07650,1998-12-18 18:00:00,6,1026.2,0.2,93,5,15000,0,,,0,0.3,12.5,,,,,,,,,wg-a,,,,AAXX 18184 07650 12/65 20000 10060 20050 30222 40262 53002 60006 80001 91800 333 10125 20003=
07650,1998-12-18 21:00:00,4,1025.9,-0.3,93,3,8000,3.704,,,150,,,,,,,,,,,wg-a,,,,AAXX 18214 07650 12/58 /1502 10040 20030 30219 40259 58003 60006 80001 92100=
07650,1998-12-19 00:00:00,1,1024.9,-1.1,100,1,6000,0,,,0,,,,,,,,,,,wg-a,,,,AAXX 19004 07650 12056 /0000 10010 20010 30208 40249 58011 60006 81601 90000=
07650,1998-12-19 03:00:00,0,1024,-0.9,100,0,500,3.704,,,240,,,,,,,,,,10,wg-a,,,,AAXX 19034 07650 12005 42402 10000 20000 30199 40240 56009 60006 71040 84600 90300=
07650,1998-12-19 06:00:00,0,1022.6,-1.4,100,0,2000,7.408,,,300,-1.2,6.1,,,,,,,,10,wg-a,,,,AAXX 19064 07650 02320 /3004 10000 20000 30185 40226 55014 60006 71040 81600 90600 333 10061 21012 60004=
07650,1998-12-19 09:00:00,1,1022.8,0.2,100,1,500,3.704,,,300,,,,,,,,,,45,wg-a,,,,AAXX 19094 07650 12/00 93002 10010 20010 30187 40228 53002 60006 74541 89/// 90900=
07650,1998-12-19 12:00:00,5,1020.5,-2.2,100,5,1500,0,,,0,,,,,,,,,,28,wg-a,,,,AAXX 19124 07650 12315 90000 10050 20050 30165 40205 58022 60006 72841 89630 91200=
07650,1998-12-19 15:00:00,13,1019,-1.4,51,3,15000,35.188,,,340,,,,,,,,,,,wg-a,,,,AAXX 19154 07650 12/65 33419 10130 20030 30151 40190 55014 60006 82032 91500=
07650,1998-12-19 18:00:00,8,1018.7,-0.3,76,4,18000,25.928,,,320,-0.5,13.2,,,,,,,,,wg-a,,,,AAXX 19184 07650 12/68 43214 10080 20040 30148 40187 58003 60006 82032 91800 333 10132 21005=
07650,1998-12-19 21:00:00,9,1017.6,-1.1,61,2,20000,25.928,,,320,,,,,,,,,,,wg-a,,,,AAXX 19214 07650 12/70 03214 10090 20020 30137 40176 58011 60006 80000 92100=
07650,1998-12-20 00:00:00,8,1015.7,,66,2,20000,18.52,,,310,,,,,,,,,,,wg-a,,,,AAXX 20004 07650 12/70 73110 10080 20020 30118 40157 60006 83032 90000=
07650,1998-12-20 03:00:00,5,1013.6,-2.2,75,1,20000,14.816,,,310,,,,,,,,,,,wg-a,,,,AAXX 20034 07650 12/70 23108 10050 20010 30096 40136 56022 60006 81032 90300=
07650,1998-12-20 06:00:00,2,1010.3,-3.3,93,1,18000,7.408,,,120,2.4,8.9,,,,,,,,,wg-a,,,,AAXX 20064 07650 12768 71204 10020 20010 30063 40103 58033 60006 8357/ 90600 333 10089 20024=
07650,1998-12-20 09:00:00,4,1007.4,-2.8,87,2,20000,0,,,0,,,,,,,,,,,wg-a,,,,AAXX 20094 07650 12670 70000 10040 20020 30035 40074 56028 60006 8257/ 90900=
07650,1998-12-20 12:00:00,5,1004.7,-2.7,87,3,9000,14.816,,,110,,,,4,,,,,,61,wg-a,,,,AAXX 20124 07650 02459 81108 10050 20030 30008 40047 58027 60046 76162 8457/ 91200 333 60047=
07650,1998-12-20 15:00:00,7,1000,-4.7,81,4,9000,25.928,,,120,,,,,,,,,,60,wg-a,,,,AAXX 20154 07650 02559 71214 10070 20040 39961 40000 56047 61000 76062 8357/ 91500 333 ////=
07650,1998-12-20 18:00:00,7,998.7,-1.3,93,6,10000,11.112,,,90,2.3,7.4,,,,,,,,60,wg-a,,,,AAXX 20184 07650 02560 80906 10070 20060 39948 49987 56013 61000 76062 8/87/ 91800 333 10074 20023 6004=
07650,1998-12-20 21:00:00,6,999.5,0.8,93,5,12000,7.408,,,30,,,,,,,,,,3,wg-a,,,,AAXX 20214 07650 02562 50304 10060 20050 39956 49995 53008 61000 70361 8453/ 92100 333 ////=
07650,1998-12-21 00:00:00,5,1001.1,1.6,87,3,13000,25.928,,,350,,,,,,,,,,1,wg-a,,,,AAXX 21004 07650 02663 23514 10050 20030 39972 40011 51016 61000 70161 81531 90000 333 ////=
07650,1998-12-21 06:00:00,5,1002.6,0.8,75,1,20000,50.004,,,360,4.2,6.9,,,,,8,,,,wg-a,,,,AAXX 21064 07650 02/70 13627 10050 20010 39987 40026 53008 60006 81031 90600 333 10069 20042 60084=
07650,1998-12-21 09:00:00,6,1004.3,1.7,61,-1,11000,42.596,,51.856,10,,,,,,,,,,,wg-a,,,,AAXX 21094 07650 12/61 /0123 10060 21010 30004 40043 50017 60006 90900 333 91028=
07650,1998-12-21 12:00:00,6,1006.4,2.1,56,-2,75000,64.82,,88.896,350,,,,,,,,,,,wg-a,,,,AAXX 21124 07650 12/89 03535 10060 21020 30025 40064 52021 60006 80000 91200 333 91048=
07650,1998-12-21 15:00:00,6,1009.8,3.4,52,-3,75000,53.708,,75.932,350,,,,,,,,,,,wg-a,,,,AAXX 21154 07650 12/89 03529 10060 21030 30059 40098 53034 60006 80000 91500 333 91041=
07650,1998-12-21 18:00:00,5,1013,3.1,56,-3,50000,57.412,,70.376,360,4.7,6.7,,,,,,,,,wg-a,,,,AAXX 21184 07650 12/84 13631 10050 21030 30090 40130 51031 60006 81040 91800 333 10067 20047 91038=
07650,1998-12-21 21:00:00,4,1015.5,2.5,60,-3,500,50.004,,,10,,,,,,,,,,,wg-a,,,,AAXX 21214 07650 12/00 00127 10040 21030 30115 40155 51025 60006 80000 92100=
07650,1998-12-22 00:00:00,3,1017.4,1.9,65,-3,500,31.484,,,10,,,,,,,,,,,wg-a,,,,AAXX 22004 07650 12/00 00117 10030 21030 30134 40174 51019 60006 80000 90000=
07650,1998-12-22 03:00:00,2,1019,1.6,64,-4,500,29.632,,,10,,,,,,,,,,,wg-a,,,,AAXX 22034 07650 12/00 00116 10020 21040 30150 40190 51016 60006 80000 90300=
07650,1998-12-22 06:00:00,-2,1020.7,1.6,80,-5,20000,14.816,,,20,-2,4.7,,,,,,,,,wg-a,,,,AAXX 22064 07650 02/70 00208 11020 21050 30166 40207 53016 60006 80000 90600 333 10047 21020 60004=
07650,1998-12-22 09:00:00,2,1023,2.4,64,-4,20000,11.112,,,20,,,,,,,,,,,wg-a,,,,AAXX 22094 07650 12670 20206 10020 21040 30190 40230 53024 60006 82500 90900=
07650,1998-12-22 12:00:00,7,1022.8,-0.2,45,-4,60000,11.112,,,360,,,,,,,,,,,wg-a,,,,AAXX 22124 07650 12686 23606 10070 21040 30188 40228 58002 60006 82500 91200=
07650,1998-12-22 15:00:00,7,1022.9,0.1,57,-1,40000,18.52,,,340,,,,,,,,,,,wg-a,,,,AAXX 22154 07650 12682 33410 10070 21010 30189 40229 53001 60006 83500 91500=
07650,1998-12-22 18:00:00,3,1023.7,0.8,70,-2,25000,11.112,,,160,-2,8.3,,,,,,,,,wg-a,,,,AAXX 22184 07650 12/75 01606 10030 21020 30197 40237 52008 60006 80000 91800 333 10083 21020=
07650,1998-12-22 21:00:00,0,1024.4,0.6,86,-2,18000,0,,,0,,,,,,,,,,,wg-a,,,,AAXX 22214 07650 12/68 00000 10000 21020 30203 40244 53006 60006 80000 92100=
07650,1998-12-23 00:00:00,-1,1024.7,0.3,93,-2,10000,3.704,,,200,,,,,,,,,,,wg-a,,,,AAXX 23004 07650 12/60 02002 11010 21020 30206 40247 51003 60006 80000 90000=
07650,1998-12-23 03:00:00,4,1024.7,0.1,65,-2,12000,3.704,,,140,,,,,,,,,,,wg-a,,,,AAXX 23034 07650 12662 /1402 10040 21020 30207 40247 50001 60006 86500 90300=
07650,1998-12-23 06:00:00,6,1024.9,0.2,61,-1,20000,18.52,,,110,-1.3,6,,,,,,,,,wg-a,,,,AAXX 23064 07650 02670 71110 10060 21010 30209 40249 53002 60006 87500 90600 333 10060 21013 60004=
07650,1998-12-23 09:00:00,7,1026.4,1.5,66,1,15000,22.224,,,110,,,,,,,,,,,wg-a,,,,AAXX 23094 07650 12665 71112 10070 20010 30224 40264 53015 60006 875// 90900=
07650,1998-12-23 12:00:00,9,1025.5,-0.9,61,2,12000,11.112,,,130,,,,,,,,,,,wg-a,,,,AAXX 23124 07650 12662 71306 10090 20020 30215 40255 58009 60006 875// 91200=
07650,1998-12-23 15:00:00,10,1024.7,-0.7,62,3,18000,18.52,,,100,,,,,,,,,,,wg-a,,,,AAXX 23154 07650 12668 71010 10100 20030 30208 40247 56007 60006 878// 91500=
07650,1998-12-23 18:00:00,7,1025.4,0.6,70,2,20000,11.112,,,120,6,11.5,,,,,,,,,wg-a,,,,AAXX 23184 07650 12670 61206 10070 20020 30214 40254 52006 60006 84502 91800 333 10115 20060=
07650,1998-12-23 21:00:00,8,1025.1,-0.3,66,2,20000,35.188,,,120,,,,,,,,,,0,wg-a,,,,AAXX 23214 07650 32670 31219 10080 20020 30211 40251 58003 700// 83530 92100=
07650,1998-12-24 00:00:00,8,1025.2,0.1,71,3,11000,29.632,,,100,,,,,,,,,,,wg-a,,,,AAXX 24004 07650 32/61 /1016 10080 20030 30212 40252 50001 90000=
07650,1998-12-24 03:00:00,8,1024.5,-0.7,71,3,20000,22.224,,,110,,,,,,,,,,0,wg-a,,,,AAXX 24034 07650 32570 71112 10080 20030 30205 40245 56007 700// 87500 90300=
07650,1998-12-24 06:00:00,8,1023.8,,71,3,20000,22.224,,,100,6.9,8.4,,,,,,,,0,wg-a,,,,AAXX 24064 07650 32670 71012 10080 20030 30198 40238 700// 8653/ 90600 333 10084 20069=
07650,1998-12-24 12:00:00,8,1022.6,-1.8,87,6,11000,11.112,,,90,,,,1,,,,,,60,wg-a,,,,AAXX 24124 07650 12561 70906 10080 20060 30186 40226 58018 60017 76062 875// 91200=
07650,1998-12-24 15:00:00,7,1023,,93,6,12000,11.112,,,10,,,,,,,,,,21,wg-a,,,,AAXX 24154 07650 32562 70106 10070 20060 30190 40230 72162 8557/ 91500=
07650,1998-12-24 18:00:00,6,1024.3,,100,6,10000,14.816,,,350,,,,,,,,,,3,wg-a,,,,AAXX 24184 07650 32560 73508 10060 20060 30203 40243 70362 875// 91800=
07650,1998-12-24 21:00:00,5,1023.9,-0.4,87,3,500,31.484,,,350,,,,,,,,,,0,wg-a,,,,AAXX 24214 07650 32/00 03517 10050 20030 30199 40239 56004 700// 80000 92100=
07650,1998-12-25 00:00:00,2,1025.2,,93,1,20000,7.408,,,30,,,,,,,,,,0,wg-a,,,,AAXX 25004 07650 32770 20304 10020 20010 30211 40252 700// 82500 90000=
07650,1998-12-25 03:00:00,3,1026.9,,93,2,11000,11.112,,,40,,,,,,,,,,,wg-a,,,,AAXX 25034 07650 32/61 /0406 10030 20020 30222 40269 90300=
07650,1998-12-25 06:00:00,1,1027.9,1.4,93,0,12000,3.704,,,240,,,,,,,,,,0,wg-a,,,,AAXX 25064 07650 32/62 22402 10010 20000 30238 40279 53014 700// 80002 90600=
07650,1998-12-25 09:00:00,1,1030,2.1,100,1,15000,7.408,,,140,,,,,,,,,,0,wg-a,,,,AAXX 25094 07650 32/65 41404 10010 20010 30259 40300 52021 700// 83032 90900=
07650,1998-12-25 12:00:00,8,1029.6,-0.3,71,3,25000,3.704,,,270,,,,,,,,,,0,wg-a,,,,AAXX 25124 07650 32/75 22702 10080 20030 30256 40296 58003 700// 82031 91200=
07650,1998-12-25 15:00:00,10,1029,-0.5,66,4,25000,7.408,,,270,,,,,,,,,,0,wg-a,,,,AAXX 25154 07650 32/75 22704 10100 20040 30251 40290 56005 700// 81031 91500=
07650,1998-12-25 18:00:00,4,1030.2,1.1,93,3,25000,11.112,,,160,-0.2,10.8,,,,,,,,0,wg-a,,,,AAXX 25184 07650 32/75 21606 10040 20030 30262 40302 51011 700// 80001 91800 333 10108 21002=
07650,1998-12-25 21:00:00,2,1030.8,0.5,93,1,12000,7.408,,,160,,,,,,,,,,0,wg-a,,,,AAXX 25214 07650 32/62 11604 10020 20010 30267 40308 51005 700// 80001 92100=
07650,1998-12-26 00:00:00,1,1029.9,-0.9,100,1,12000,7.408,,,280,,,,,,,,,,,wg-a,,,,AAXX 26004 07650 12/62 02804 10010 20010 30258 40299 55009 60006 80000 90000=
07650,1998-12-26 03:00:00,0,1030.6,0.7,100,0,10000,7.408,,,30,,,,,,,,,,,wg-a,,,,AAXX 26034 07650 12/60 00304 10000 20000 30265 40306 53007 60006 80000 90300=
07650,1998-12-26 06:00:00,0,1030.2,-0.4,100,0,10000,3.704,,,190,-0.2,4.2,,,,,,,,,wg-a,,,,AAXX 26064 07650 02760 31902 10000 20000 30261 40302 55004 60006 81532 90600 333 10042 21002 60004=
07650,1998-12-26 09:00:00,3,1030.7,0.5,100,3,8000,11.112,,,170,,,,,,,,,,,wg-a,,,,AAXX 26094 07650 12/58 31706 10030 20030 30266 40307 53005 60006 81032 90900=
07650,1998-12-26 12:00:00,7,1029.4,-1.2,76,3,8000,3.704,,,310,,,,,,,,,,,wg-a,,,,AAXX 26124 07650 12/58 73102 10070 20030 30254 40294 58012 60006 85032 91200=
07650,1998-12-26 15:00:00,8,1028.1,-1.3,66,2,15000,3.704,,,340,,,,,,,,,,,wg-a,,,,AAXX 26154 07650 12/65 53402 10080 20020 30241 40281 55013 60006 82032 91500=
07650,1998-12-26 18:00:00,5,1028,-0.1,75,1,15000,11.112,,,150,-0.8,8.9,,,,,,,,,wg-a,,,,AAXX 26184 07650 12/65 41506 10050 20010 30240 40280 58001 60006 81032 91800 333 10089 21008=
07650,1998-12-26 21:00:00,6,1027.9,-0.1,61,-1,15000,11.112,,,70,,,,,,,,,,,wg-a,,,,AAXX 26214 07650 12/65 10706 10060 21010 30239 40279 58001 60006 81031 92100=
07650,1998-12-27 00:00:00,5,1026.4,-1.5,75,1,20000,3.704,,,220,,,,,,,,,,,wg-a,,,,AAXX 27004 07650 12/70 12202 10050 20010 30224 40264 58015 60006 81031 90000=
07650,1998-12-27 03:00:00,6,1024.6,-1.8,81,3,20000,11.112,,,120,,,,,,,,,,,wg-a,,,,AAXX 27034 07650 12/70 11206 10060 20030 30206 40246 56018 60006 80001 90300=
07650,1998-12-27 06:00:00,9,1023.3,-1.2,81,6,15000,22.224,,,110,3.2,9.3,,,,,,,,,wg-a,,,,AAXX 27064 07650 12565 71112 10090 20060 30194 40233 56012 60006 875// 90600 333 10093 20032=
07650,1998-12-27 09:00:00,12,1023,-0.3,88,10,18000,18.52,,,140,,,,,,,,,,,wg-a,,,,AAXX 27094 07650 12468 71410 10120 20100 30191 40230 55003 60006 878// 90900=
07650,1998-12-27 12:00:00,14,1021.8,-1.2,82,11,18000,25.928,,,160,,,,,,,,,,,wg-a,,,,AAXX 27124 07650 12568 71614 10140 20110 30179 40218 58012 60006 86801 91200=
07650,1998-12-27 15:00:00,14,1020.7,-1.1,77,10,12000,25.928,,,160,,,,,,,,,,,wg-a,,,,AAXX 27154 07650 12562 71614 10140 20100 30168 40207 56011 60006 85802 91500=
07650,1998-12-27 18:00:00,13,1020.9,0.2,82,10,12000,25.928,,,160,9.3,14.6,,,,,,,,,wg-a,,,,AAXX 27184 07650 12462 61614 10130 20100 30170 40209 53002 60006 84502 91800 333 10146 20093=
07650,1998-12-27 21:00:00,13,1021.1,0.2,82,10,20000,25.928,,,170,,,,,,,,,,,wg-a,,,,AAXX 27214 07650 12470 61714 10130 20100 30172 40211 52002 60006 86500 92100=
07650,1998-12-28 00:00:00,13,1021.1,0,88,11,20000,25.928,,,150,,,,,,,,,,,wg-a,,,,AAXX 28004 07650 12570 51514 10130 20110 30172 40211 50000 60006 85500 90000=
07650,1998-12-28 03:00:00,13,1020.8,-0.3,82,10,20000,14.816,,,150,,,,,,,,,,,wg-a,,,,AAXX 28034 07650 12470 /1508 10130 20100 30169 40208 57003 60006 86500 90300=
07650,1998-12-28 06:00:00,12,1020.7,-0.1,82,9,20000,18.52,,,130,11.9,13.3,,,,,,,,,wg-a,,,,AAXX 28064 07650 02470 /1310 10120 20090 30168 40207 56001 60006 86500 90600 333 10133 20119 60004=
07650,1998-12-28 09:00:00,13,1020.8,0.1,82,10,20000,22.224,,,150,,,,,,,,,,,wg-a,,,,AAXX 28094 07650 12470 61512 10130 20100 30169 40208 53001 60006 85802 90900=
07650,1998-12-28 12:00:00,14,1020.1,-0.7,72,9,20000,25.928,,,160,,,,,,,,,,,wg-a,,,,AAXX 28124 07650 12470 71614 10140 20090 30162 40201 58007 60006 878// 91200=
07650,1998-12-28 18:00:00,13,1020,0.5,82,10,20000,14.816,,,180,11.6,15.2,,,,,,,,,wg-a,,,,AAXX 28184 07650 12570 /1808 10130 20100 30161 40200 53005 60006 83830 91800 333 10152 20116=
07650,1998-12-28 21:00:00,12,1020.5,0.5,82,9,14000,7.408,,,140,,,,,,,,,,,wg-a,,,,AAXX 28214 07650 12564 71404 10120 20090 30166 40205 52005 60006 84830 92100=
07650,1998-12-29 00:00:00,11,1019.7,-0.8,82,8,15000,11.112,,,130,,,,,,,,,,,wg-a,,,,AAXX 29004 07650 12665 61306 10110 20080 30158 40197 58008 60006 82530 90000=
07650,1998-12-29 03:00:00,9,1018.4,-1.3,87,7,18000,18.52,,,110,,,,,,,,,,,wg-a,,,,AAXX 29034 07650 12468 21110 10090 20070 30145 40184 56013 60006 81530 90300=
07650,1998-12-29 06:00:00,9,1018.6,0.2,87,7,13000,14.816,,,130,7.9,12.9,,,,,,,,,wg-a,,,,AAXX 29064 07650 02763 31308 10090 20070 30147 40186 53002 60006 81532 90600 333 10129 20079 60004=
07650,1998-12-29 09:00:00,11,1019.3,0.7,76,7,16000,14.816,,,150,,,,,,,,,,,wg-a,,,,AAXX 29094 07650 12566 /1508 10110 20070 30154 40193 51007 60006 86800 90900=
07650,1998-12-29 12:00:00,14,1018.3,-0.9,63,7,25000,29.632,,,150,,,,,,,,,,,wg-a,,,,AAXX 29124 07650 12575 51516 10140 20070 30145 40183 58009 60006 85800 91200=
07650,1998-12-29 15:00:00,12,1017.6,-0.8,76,8,500,14.816,,,100,,,,,,,,,,,wg-a,,,,AAXX 29154 07650 12500 71008 10120 20080 30137 40176 56008 60006 878// 91500=
07650,1998-12-29 18:00:00,12,1017.8,0.2,67,6,20000,22.224,,,130,9,15.2,,,,,,,,,wg-a,,,,AAXX 29184 07650 12570 /1312 10120 20060 30139 40178 53002 60006 84800 91800 333 10152 20090=
07650,1998-12-29 21:00:00,10,1017.9,0.1,76,6,20000,11.112,,,140,,,,,,,,,,0,wg-a,,,,AAXX 29214 07650 32670 51406 10100 20060 30140 40179 50001 700// 85500 92100=
07650,1998-12-30 00:00:00,10,1018.1,0.2,82,7,15000,18.52,,,100,,,,,,,,,,0,wg-a,,,,AAXX 30004 07650 32665 /1010 10100 20070 30142 40181 50002 700// 86500 90000=
07650,1998-12-30 03:00:00,10,1017.3,-0.8,76,6,15000,14.816,,,120,,,,,,,,,,0,wg-a,,,,AAXX 30034 07650 32665 /1208 10100 20060 30134 40173 58008 700// 81502 90300=
07650,1998-12-30 06:00:00,10,1017.6,0.3,76,6,15000,18.52,,,110,9.6,12,,,,,,,,0,wg-a,,,,AAXX 30064 07650 12665 71110 10100 20060 30137 40176 53003 60004 700// 86502 90600 333 10120 20096=
07650,1998-12-30 09:00:00,11,1018.3,0.7,76,7,18000,18.52,,,100,,,,,,,,,,0,wg-a,,,,AAXX 30094 07650 32568 41010 10110 20070 30144 40183 53007 700// 84800 90900=
07650,1998-12-30 12:00:00,14,1017.2,-1,72,9,15000,25.928,,,140,,,,0,,,,,,25,wg-a,,,,AAXX 30124 07650 12565 41414 10140 20090 30134 40172 58010 60007 72586 83831 91200=
07650,1998-12-30 15:00:00,13,1017,-0.3,67,7,25000,31.484,,,150,,,,0,,,,,,0,wg-a,,,,AAXX 30154 07650 12575 61517 10130 20070 30131 40170 55003 60007 700// 84832 91500=
07650,1998-12-30 18:00:00,11,1017.1,0.1,82,8,15000,11.112,,,110,9.7,14.5,,,,,,,,60,wg-a,,,,AAXX 30184 07650 02265 81106 10110 20080 30132 40171 51001 61000 76061 875// 91800 333 10145 20097 ////=
07650,1998-12-30 21:00:00,12,1016.9,-0.2,67,6,20000,25.928,,,120,,,,,,,,,,3,wg-a,,,,AAXX 30214 07650 02570 71214 10120 20060 30130 40169 58002 61000 70362 875// 92100 333 ////=
07650,1998-12-31 00:00:00,12,1016.6,-0.3,67,6,20000,18.52,,,130,,,,,,,,,,2,wg-a,,,,AAXX 31004 07650 32570 81310 10120 20060 30127 40166 57003 70262 875// 90000=
07650,1998-12-31 03:00:00,12,1015,-1.6,62,5,12000,18.52,,,140,,,,,,,,,,0,wg-a,,,,AAXX 31034 07650 32562 81410 10120 20050 30111 40150 57016 700// 875// 90300=
07650,1998-12-31 06:00:00,13,1013.3,-1.6,62,6,12000,31.484,,,130,11,13,,,,,,,,0,wg-a,,,,AAXX 31064 07650 12562 81317 10130 20060 30095 40133 56016 60004 700// 875// 90600 333 10130 20110=
07650,1998-12-31 12:00:00,13,1012.3,-1.4,67,7,11000,38.892,,68.524,130,,,,,,,,,,,wg-a,,,,AAXX 31124 07650 02/61 /1321 10130 20070 30085 40123 58014 61000 91200 333 //// 91037=
07650,1998-12-31 18:00:00,10,1010.7,-0.2,93,9,8000,22.224,,,110,10,13.6,,7,,,,,,61,wg-a,,,,AAXX 31184 07650 12458 81112 10100 20090 30068 40107 55002 60077 76162 8557/ 91800 333 10136 20100=
07650,1998-12-31 21:00:00,11,1008.9,-1.8,87,9,15000,25.928,,,100,,,,4,,,,,,60,wg-a,,,,AAXX 31214 07650 12565 81014 10110 20090 30050 40089 56018 60047 76062 8587/ 92100=
