station_id,dh_utc,temperature,pression,pression_variation_3h,humidite,point_de_rosee,visibilite,vent_moyen,vent_rafales,vent_rafales_10min,vent_direction,temperature_min,temperature_max,pluie_1h,pluie_3h,pluie_6h,pluie_12h,pluie_24h,ensoleillement,temperature_sol,temps_omm,source,radiations,neige_au_sol,nebulosite,raw_msg
07190,1996-01-01 00:00:00,0,1003.1,1,100,0,700,0,,,0,,,,,,,,,,44,wg-a,,,,AAXX 01004 07190 02107 80000 10000 20000 39842 40031 52010 60006 74464 886// 90000 333 61000=
07190,1996-01-01 03:00:00,0,1003.8,0.7,100,0,400,3.704,,,350,,,,,,,,,,,wg-a,,,,AAXX 01034 07190 12/04 93502 10000 20000 39849 40038 50007 60006 89/// 90300=
07190,1996-01-01 06:00:00,0,1004.1,0.4,100,0,100,3.704,,,10,-0.3,0,,,,,,,,45,wg-a,,,,AAXX 01064 07190 12/01 90102 10000 20000 39852 40041 52004 60004 74542 89/// 90600 333 10000 21003=
07190,1996-01-01 09:00:00,0,1004.6,0.3,100,0,200,7.408,,,320,,,,,,,,,,43,wg-a,,,,AAXX 01094 07190 12/02 93204 10000 20000 39856 40046 51003 60006 74344 89/// 90900=
07190,1996-01-01 12:00:00,0,1003.3,-1.2,100,0,300,7.408,,,350,,,,,,,,,,45,wg-a,,,,AAXX 01124 07190 12/03 93504 10000 20000 39844 40033 58012 60006 74544 89/// 91200=
07190,1996-01-01 15:00:00,0,1003.3,-0,100,0,300,0,,,0,,,,,,,,,,45,wg-a,,,,AAXX 01154 07190 12/03 90000 10000 20000 39844 40033 55000 60006 74544 89/// 91500=
07190,1996-01-01 18:00:00,0,1004,0.7,100,0,2500,7.408,,,30,-0.3,0.3,,,,,,,,10,wg-a,,,,AAXX 01184 07190 12125 80304 10000 20000 39851 40040 53007 60006 71042 887// 91800 333 10003 21003=
07190,1996-01-02 00:00:00,0,1004.9,0.9,100,0,600,7.408,,,350,,,,,,,,,,,wg-a,,,,AAXX 02004 07190 12/06 93504 10000 20000 39859 40049 51009 60006 89/// 90000=
07190,1996-01-02 03:00:00,0,1005.5,0.6,100,0,500,0,,,0,,,,,,,,,,45,wg-a,,,,AAXX 02034 07190 12/05 90000 10000 20000 39865 40055 51006 60006 74544 89/// 90300=
07190,1996-01-02 06:00:00,0,1006.7,1.2,93,-1,500,0,,,0,-0.4,0.3,,,,,,,,47,wg-a,,,,AAXX 02064 07190 02/05 90000 10000 21010 39877 40067 53012 60006 74744 89/// 90600 333 10003 21004 60004=
07190,1996-01-02 09:00:00,-1,1008.8,2,100,-1,600,0,,,0,,,,,,,,,,56,wg-a,,,,AAXX 02094 07190 02106 80000 11010 21010 39897 40088 52020 61000 75654 886// 90900 333 ////=
07190,1996-01-02 12:00:00,0,1010.5,1.7,100,0,1400,7.408,,,20,,,,,,,,,,10,wg-a,,,,AAXX 02124 07190 02114 80204 10000 20000 39914 40105 51017 61000 71054 886// 91200 333 6100=
07190,1996-01-02 15:00:00,0,1013.2,2.7,100,0,1200,7.408,,,10,,,,,,,,,,10,wg-a,,,,AAXX 02154 07190 12112 80104 10000 20000 39941 40132 53027 60006 71022 886// 91500=
07190,1996-01-02 18:00:00,0,1016.4,3,100,0,1500,11.112,,,20,-0.6,-0.2,,,,,,,,10,wg-a,,,,AAXX 02184 07190 12115 80206 10000 20000 39972 40164 51030 60006 71022 886// 91800 333 11002 21006=
07190,1996-01-02 21:00:00,-1,1019,2.5,100,-1,4000,3.704,,,360,,,,,,,,,,10,wg-a,,,,AAXX 02214 07190 12240 83602 11010 21010 39997 40190 51025 60006 71022 886// 92100=
07190,1996-01-03 00:00:00,-1,1020.6,1.6,93,-2,3500,3.704,,,310,,,,,,,,,,10,wg-a,,,,AAXX 03004 07190 12335 83102 11010 21020 30013 40206 51016 60006 71022 886// 90000=
07190,1996-01-03 03:00:00,-1,1022.3,1.7,93,-2,4000,0,,,0,,,,,,,,,,,wg-a,,,,AAXX 03034 07190 12340 80000 11010 21020 30030 40223 51017 60006 886// 90300=
07190,1996-01-03 06:00:00,-1,1023.2,0.8,93,-2,500,7.408,,,160,-1,-0.4,,,,,,,,,wg-a,,,,AAXX 03064 07190 02200 /1604 11010 21020 30038 40232 51008 60006 83530 90600 333 11004 21010 60004=
07190,1996-01-03 09:00:00,0,1024,0.9,93,-1,3200,11.112,,,220,,,,,,,,,,10,wg-a,,,,AAXX 03094 07190 12532 72206 10000 21010 30047 40240 53009 60006 71022 875// 90900=
07190,1996-01-03 12:00:00,1,1024.4,0.4,93,0,2800,0,,,0,,,,,,,,,,10,wg-a,,,,AAXX 03124 07190 12228 70000 10010 20000 30051 40244 51004 60006 71022 875// 91200=
07190,1996-01-03 15:00:00,1,1024.3,-0,93,0,2800,3.704,,,350,,,,,,,,,,10,wg-a,,,,AAXX 03154 07190 12328 83502 10010 20000 30051 40243 55000 60006 71022 876// 91500=
07190,1996-01-03 18:00:00,1,1024.8,0.4,93,0,2000,7.408,,,330,-1.2,1.4,,,,,,,,10,wg-a,,,,AAXX 03184 07190 12220 73304 10010 20000 30055 40248 53004 60006 71022 876// 91800 333 10014 21012=
07190,1996-01-03 21:00:00,1,1025.4,0.6,93,0,2200,7.408,,,350,,,,,,,,,,10,wg-a,,,,AAXX 03214 07190 12122 83504 10010 20000 30061 40254 51006 60006 71022 886// 92100=
07190,1996-01-04 00:00:00,0,1025.1,-0.3,100,0,2000,3.704,,,350,,,,,,,,,,10,wg-a,,,,AAXX 04004 07190 12120 83502 10000 20000 30058 40251 58003 60006 71022 876// 90000=
07190,1996-01-04 03:00:00,0,1023.5,-1.6,100,0,2000,3.704,,,60,,,,,,,,,,10,wg-a,,,,AAXX 04034 07190 12120 80602 10000 20000 30042 40235 56016 60006 71022 886// 90300=
07190,1996-01-04 06:00:00,-1,1022.6,-1,100,-1,2500,7.408,,,10,-0.9,0.5,,,,,,,,10,wg-a,,,,AAXX 04064 07190 02225 80104 11010 21010 30032 40226 58010 60006 71022 886// 90600 333 10005 21009 60004=
07190,1996-01-04 09:00:00,-1,1021.4,-1.1,100,-1,2200,3.704,,,20,,,,,,,,,,10,wg-a,,,,AAXX 04094 07190 12222 80202 11010 21010 30021 40214 58011 60006 71022 886// 90900=
07190,1996-01-04 12:00:00,0,1018.9,-2.4,93,-1,7000,3.704,,,110,,,,,,,,,,,wg-a,,,,AAXX 04124 07190 12357 81102 10000 21010 39997 40189 58024 60006 885// 91200=
07190,1996-01-04 15:00:00,-1,1017.5,-1.5,93,-2,1300,11.112,,,20,,,,,,,,,,10,wg-a,,,,AAXX 04154 07190 12113 80206 11010 21020 39982 40175 56015 60006 71022 886// 91500=
07190,1996-01-04 18:00:00,-1,1016.7,,93,-2,4000,3.704,,,120,-1.5,0.4,,,,,,,,10,wg-a,,,,AAXX 04184 07190 32240 81202 11010 21020 39974 40167 710// 886// 91800 333 10004 21015=
07190,1996-01-04 21:00:00,-1,1015.5,-1.1,100,-1,3200,7.408,,,90,,,,,,,,,,,wg-a,,,,AAXX 04214 07190 12232 80904 11010 21010 39963 40155 58011 60006 886// 92100=
07190,1996-01-05 00:00:00,-1,1013.5,-2,100,-1,2500,7.408,,,50,,,,,,,,,,10,wg-a,,,,AAXX 05004 07190 12225 80504 11010 21010 39943 40135 56020 60006 71022 886// 90000=
07190,1996-01-05 06:00:00,-1,1009.7,-1.8,93,-2,2500,7.408,,,40,-1.3,-0.5,,,,,,,,10,wg-a,,,,AAXX 05064 07190 12225 80404 11010 21020 39906 40097 56018 60006 71022 886// 90600 333 11005 21013=
07190,1996-01-05 09:00:00,-2,1009.5,-0.2,100,-2,2000,11.112,,,20,,,,,,,,,,10,wg-a,,,,AAXX 05094 07190 12120 80206 11020 21020 39903 40095 58002 60006 71022 886// 90900=
07190,1996-01-05 12:00:00,-2,1007.2,-2.2,93,-3,3000,11.112,,,60,,,,,,,,,,10,wg-a,,,,AAXX 05124 07190 12230 80606 11020 21030 39881 40072 56022 60006 71022 886// 91200=
07190,1996-01-05 15:00:00,-3,1005.3,-2,93,-4,3500,11.112,,,30,,,,,,,,,,,wg-a,,,,AAXX 05154 07190 12235 80306 11030 21040 39861 40053 56020 60006 886// 91500=
07190,1996-01-05 18:00:00,-4,1004.6,-0.7,100,-4,500,3.704,,,320,-3.5,-1.3,,,,,,,,,wg-a,,,,AAXX 05184 07190 12400 33202 11040 21040 39854 40046 58007 60006 81601 91800 333 11013 21035=
07190,1996-01-05 21:00:00,-3,1004.1,-0.4,86,-5,6000,11.112,,,20,,,,,,,,,,,wg-a,,,,AAXX 05214 07190 12756 70206 11030 21050 39850 40041 57004 60006 8257/ 92100=
07190,1996-01-06 00:00:00,-4,1003.9,-0.3,86,-6,500,7.408,,,10,,,,,,,,,,,wg-a,,,,AAXX 06004 07190 12400 70104 11040 21060 39847 40039 55003 60006 83601 90000=
07190,1996-01-06 03:00:00,-4,1003.6,-0.3,86,-6,4000,11.112,,,10,,,,,,,,,,,wg-a,,,,AAXX 06034 07190 12340 80106 11040 21060 39844 40036 55003 60006 886// 90300=
07190,1996-01-06 06:00:00,-4,1003.6,-0,80,-7,7000,11.112,,,10,-4.1,-2.7,,,,,,,,,wg-a,,,,AAXX 06064 07190 02357 80106 11040 21070 39844 40036 55000 60006 886// 90600 333 11027 21041 60004=
07190,1996-01-06 09:00:00,-4,1004,0.4,86,-6,4500,7.408,,,10,,,,,,,,,,10,wg-a,,,,AAXX 06094 07190 02345 80104 11040 21060 39848 40040 53004 61000 71062 886// 90900 333 ////=
07190,1996-01-06 12:00:00,-3,1002.5,-1.4,86,-5,3800,3.704,,,340,,,,,,,,,,10,wg-a,,,,AAXX 06124 07190 32338 83402 11030 21050 39834 40025 58014 71062 886// 91200=
07190,1996-01-06 15:00:00,-2,1001.7,-0.8,86,-4,3500,7.408,,,20,,,,,,,,,,,wg-a,,,,AAXX 06154 07190 12335 80204 11020 21040 39826 40017 58008 60006 886// 91500=
07190,1996-01-06 18:00:00,-2,1001,-0.6,86,-4,4000,3.704,,,360,-4.2,-2.2,,,,,,,,1,wg-a,,,,AAXX 06184 07190 02440 83602 11020 21040 39820 40010 58006 61000 70162 886// 91800 333 11022 21042 ////=
07190,1996-01-06 21:00:00,-3,999.7,-1.4,86,-5,4000,3.704,,,330,,,,,,,,,,,wg-a,,,,AAXX 06214 07190 12440 /3302 11030 21050 39806 49997 56014 60006 85601 92100=
07190,1996-01-07 00:00:00,-3,999,-0.6,93,-4,4000,0,,,0,,,,,,,,,,,wg-a,,,,AAXX 07004 07190 12340 70000 11030 21040 39800 49990 56006 60006 86630 90000=
07190,1996-01-07 03:00:00,-2,999,0,100,-2,3000,3.704,,,160,,,,0,,,,,,10,wg-a,,,,AAXX 07034 07190 12230 81602 11020 21020 39800 49990 50000 60007 71062 886// 90300=
07190,1996-01-07 06:00:00,-1,998.9,0,100,-1,2500,3.704,,,140,-3.5,-0.6,,1,,,2,,,10,wg-a,,1,,AAXX 07064 07190 02625 /1402 11010 21010 39800 49989 50000 60024 71062 83530 90600 333 11006 21035 4/001 60017=
07190,1996-01-07 09:00:00,0,1000.9,2,100,0,1700,3.704,,,210,,,,,,,,,,10,wg-a,,,,AAXX 07094 07190 12117 72102 10000 20000 39820 40009 53020 60006 71022 875// 90900=
07190,1996-01-07 10:00:00,2,1,2.5,93,1,3000,3.704,,,330,-0.6,1.9,,0,,,,,,10,wg-a,,,,AAXX 07104 07190 12630 73302 10020 20010 53025 60007 71062 875// 91000 333 10019 21006=
07190,1996-01-07 12:00:00,1,1002.2,1.4,100,1,2200,3.704,,,230,,,,,,,,,,10,wg-a,,,,AAXX 07124 07190 12622 82302 10010 20010 39834 40022 51014 60006 71022 8557/ 91200=
07190,1996-01-07 15:00:00,2,1004,1.8,93,1,1800,3.704,,,10,,,,,,,,,,10,wg-a,,,,AAXX 07154 07190 02518 70102 10020 20010 39852 40040 53018 61000 71062 8787/ 91500 333 ////=
07190,1996-01-07 18:00:00,2,1006.6,2.5,93,1,3000,3.704,,,330,-0.6,1.9,,0,,,,,,10,wg-a,,,,AAXX 07184 07190 12630 73302 10020 20010 39877 40066 53025 60007 71062 875// 91800 333 10019 21006=
07190,1996-01-07 21:00:00,1,1009.1,2.5,100,1,1700,7.408,,,310,,,,,,,,,,10,wg-a,,,,AAXX 07214 07190 12617 73104 10010 20010 39902 40091 51025 60006 71011 87800 92100=
07190,1996-01-08 00:00:00,0,1011.1,1.9,100,0,800,0,,,0,,,,,,,,,,,wg-a,,,,AAXX 08004 07190 12108 /0000 10000 20000 39921 40111 53019 60006 85600 90000=
07190,1996-01-08 06:00:00,0,1014.4,1.6,100,0,1700,0,,,0,-0.4,1.9,,,,,,,,28,wg-a,,,,AAXX 08064 07190 02517 /0000 10000 20000 39953 40144 51016 60004 72864 83130 90600 333 10019 21004 61000=
07190,1996-01-08 09:00:00,2,1015.8,1.5,100,2,1600,3.704,,,20,,,,,,,,,,10,wg-a,,,,AAXX 08094 07190 12216 /0202 10020 20020 39968 40158 51015 60006 71022 86500 90900=
07190,1996-01-08 12:00:00,5,1015,-0.6,93,4,2500,7.408,,,20,,,,,,,,,,10,wg-a,,,,AAXX 08124 07190 12525 20204 10050 20040 39962 40150 58006 60006 71011 82800 91200=
07190,1996-01-08 15:00:00,2,1014.6,-0.6,93,1,500,11.112,,,330,,,,,,,,,,43,wg-a,,,,AAXX 08154 07190 12/00 93306 10020 20010 39956 40146 55006 60006 74341 89/// 91500=
07190,1996-01-08 18:00:00,1,1014.4,-0.2,100,1,100,3.704,,,320,0.2,5,,,,,,,,45,wg-a,,,,AAXX 08184 07190 12/01 93202 10010 20010 39954 40144 55002 60006 74541 89/// 91800 333 10050 20002=
07190,1996-01-08 21:00:00,1,1013.1,-1.4,100,1,200,7.408,,,20,,,,,,,,,,45,wg-a,,,,AAXX 08214 07190 12/02 90204 10010 20010 39940 40131 56014 60006 74544 89/// 92100=
07190,1996-01-09 00:00:00,1,1012.1,-1,100,1,300,3.704,,,160,,,,,,,,,,45,wg-a,,,,AAXX 09004 07190 12/03 91602 10010 20010 39930 40121 58010 60006 74544 89/// 90000=
07190,1996-01-09 03:00:00,1,1010,-2,100,1,400,0,,,0,,,,,,,,,,,wg-a,,,,AAXX 09034 07190 12/04 90000 10010 20010 39910 40100 56020 60006 89/// 90300=
07190,1996-01-09 06:00:00,1,1009.2,-0.8,100,1,700,3.704,,,240,0.5,1.4,,,,,,,,43,wg-a,,,,AAXX 09064 07190 02/07 92402 10010 20010 39902 40092 56008 60006 74342 89/// 90600 333 10014 20005 60004=
07190,1996-01-09 09:00:00,2,1009.8,0.7,100,2,1800,7.408,,,160,,,,,,,,,,28,wg-a,,,,AAXX 09094 07190 12118 91604 10020 20020 39909 40098 50007 60006 72842 896// 90900=
07190,1996-01-09 12:00:00,3,1009.9,0.1,100,3,1800,3.704,,,170,,,,,,,,,,10,wg-a,,,,AAXX 09124 07190 12118 81702 10030 20030 39910 40099 50001 60006 71042 886// 91200=
07190,1996-01-09 15:00:00,3,1010.5,0.7,100,3,1500,7.408,,,350,,,,,,,,,,10,wg-a,,,,AAXX 09154 07190 12115 73504 10030 20030 39917 40105 53007 60006 71022 8667/ 91500=
07190,1996-01-09 18:00:00,2,1011.9,1.3,100,2,1600,3.704,,,10,1.1,3.7,,,,,,,,10,wg-a,,,,AAXX 09184 07190 02216 80102 10020 20020 39930 40119 51013 61000 71062 876// 91800 333 10037 20011 ////=
07190,1996-01-09 21:00:00,2,1012.8,0.8,100,2,2000,3.704,,,310,,,,0,,,,,,10,wg-a,,,,AAXX 09214 07190 12120 83102 10020 20020 39938 40128 52008 60007 71066 8662/ 92100=
07190,1996-01-10 00:00:00,1,1011.7,-1.1,100,1,2000,3.704,,,360,,,,,,,,,,10,wg-a,,,,AAXX 10004 07190 02120 /3602 10010 20010 39927 40117 56011 60016 71062 85600 90000 333 61000=
07190,1996-01-10 03:00:00,1,1010.3,-1.4,100,1,2500,11.112,,,350,,,,,,,,,,10,wg-a,,,,AAXX 10034 07190 12125 73506 10010 20010 39913 40103 56014 60006 71022 875// 90300=
07190,1996-01-10 06:00:00,1,1009.4,-0.9,100,1,7000,7.408,,,320,0.3,2.3,,0,,,1,,,,wg-a,,,,AAXX 10064 07190 02/57 73204 10010 20010 39904 40094 58009 60014 8707/ 90600 333 10023 20003 60007=
07190,1996-01-10 09:00:00,1,1010.2,0.8,100,1,7000,7.408,,,330,,,,,,,,,,,wg-a,,,,AAXX 10094 07190 12757 73304 10010 20010 39912 40102 53008 60006 8451/ 90900=
07190,1996-01-10 12:00:00,3,1009.7,-0.3,93,2,7000,7.408,,,340,,,,,,,,,,,wg-a,,,,AAXX 10124 07190 12357 73404 10030 20020 39909 40097 57003 60006 876// 91200=
07190,1996-01-10 15:00:00,4,1008.9,-0.8,93,3,6000,7.408,,,310,,,,,,,,,,,wg-a,,,,AAXX 10154 07190 12456 73104 10040 20030 39901 40089 55008 60006 876// 91500=
07190,1996-01-10 18:00:00,2,1009.5,0.5,93,1,4000,7.408,,,350,0.9,4,,,,,,,,,wg-a,,,,AAXX 10184 07190 12440 73504 10020 20010 39906 40095 51005 60006 82631 91800 333 10040 20009=
07190,1996-01-10 21:00:00,1,1009.7,0.1,93,0,4000,7.408,,,350,,,,,,,,,,,wg-a,,,,AAXX 10214 07190 12440 73504 10010 20000 39907 40097 53001 60006 8567/ 92100=
07190,1996-01-11 00:00:00,1,1010.8,1.1,100,1,4000,3.704,,,220,,,,,,,,,,,wg-a,,,,AAXX 11004 07190 12240 82202 10010 20010 39918 40108 53011 60006 876// 90000=
07190,1996-01-11 03:00:00,2,1010.3,-0.4,100,2,3000,7.408,,,180,,,,,,,,,,10,wg-a,,,,AAXX 11034 07190 12130 81804 10020 20020 39914 40103 56004 60006 71022 876// 90300=
07190,1996-01-11 06:00:00,2,1010.1,-0.2,100,2,600,7.408,,,160,0.7,2.2,,,,,,,,45,wg-a,,,,AAXX 11064 07190 02/06 91604 10020 20020 39912 40101 56002 60006 74542 89/// 90600 333 10022 20007 60004=
07190,1996-01-11 09:00:00,2,1010,-0.1,100,2,200,3.704,,,140,,,,,,,,,,45,wg-a,,,,AAXX 11094 07190 12/02 91402 10020 20020 39911 40100 55001 60006 74544 89/// 90900=
07190,1996-01-11 12:00:00,3,1008.3,-1.6,100,3,200,3.704,,,30,,,,,,,,,,43,wg-a,,,,AAXX 11124 07190 12/02 90302 10030 20030 39895 40083 58016 60006 74344 89/// 91200=
07190,1996-01-11 15:00:00,3,1006.8,-1.5,100,3,300,7.408,,,20,,,,,,,,,,45,wg-a,,,,AAXX 11154 07190 12/03 90204 10030 20030 39880 40068 56015 60006 74544 89/// 91500=
07190,1996-01-11 18:00:00,2,1006,-0.8,100,2,200,0,,,0,1.6,3.1,,,,,,,,45,wg-a,,,,AAXX 11184 07190 12/02 90000 10020 20020 39872 40060 58008 60006 74544 89/// 91800 333 10031 20016=
07190,1996-01-11 21:00:00,2,1005.3,-0.7,100,2,600,0,,,0,,,,,,,,,,42,wg-a,,,,AAXX 11214 07190 02106 90000 10020 20020 39865 40053 58007 61000 74264 8963/ 92100 333 ////=
07190,1996-01-12 00:00:00,2,1005,-0.3,100,2,300,0,,,0,,,,,,,,,,43,wg-a,,,,AAXX 12004 07190 12/03 90000 10020 20020 39862 40050 57003 60006 74364 89/// 90000=
07190,1996-01-12 06:00:00,2,1005.6,-0.1,100,2,2500,3.704,,,130,1.6,2.4,,,,,1,,,10,wg-a,,,,AAXX 12064 07190 02125 81302 10020 20020 39868 40056 58001 60014 71064 8451/ 90600 333 10024 20016 61000=
07190,1996-01-12 09:00:00,3,1006.7,1.1,100,3,1800,7.408,,,360,,,,,,,,,,10,wg-a,,,,AAXX 12094 07190 12618 /3604 10030 20030 39879 40067 53011 60006 71022 83542 90900=
07190,1996-01-12 12:00:00,6,1006,-0.4,100,6,3500,7.408,,,360,,,,,,,,,,,wg-a,,,,AAXX 12124 07190 12735 53604 10060 20060 39875 40060 58004 60006 81242 91200=
07190,1996-01-12 15:00:00,7,1006.7,0.7,93,6,4500,7.408,,,320,,,,,,,,,,,wg-a,,,,AAXX 12154 07190 12845 /3204 10070 20060 39882 40067 53007 60006 85042 91500=
07190,1996-01-12 18:00:00,5,1009,2.1,93,4,8000,7.408,,,330,2.1,7.7,,,,,,,,,wg-a,,,,AAXX 12184 07190 12/58 63304 10050 20040 39903 40090 51021 60006 84032 91800 333 10077 20021=
07190,1996-01-12 21:00:00,3,1011.5,2.4,93,2,10000,3.704,,,120,,,,,,,,,,,wg-a,,,,AAXX 12214 07190 12/60 71202 10030 20020 39927 40115 51024 60006 86032 92100=
07190,1996-01-13 00:00:00,2,1013.5,1.8,100,2,3000,0,,,0,,,,,,,,,,10,wg-a,,,,AAXX 13004 07190 12630 70000 10020 20020 39945 40135 51018 60006 71022 8553/ 90000=
07190,1996-01-13 03:00:00,2,1014.7,1.2,93,1,200,0,,,0,,,,,,,,,,45,wg-a,,,,AAXX 13034 07190 12/02 90000 10020 20010 39957 40147 53012 60006 74542 89/// 90300=
07190,1996-01-13 06:00:00,1,1016.8,2,100,1,200,7.408,,,70,1.2,5.6,,,,,,,,43,wg-a,,,,AAXX 13064 07190 02/02 90704 10010 20010 39977 40168 52020 60006 74342 89/// 90600 333 10056 20012 60004=
07190,1996-01-13 09:00:00,1,1019.2,2.4,100,1,100,3.704,,,160,,,,,,,,,,45,wg-a,,,,AAXX 13094 07190 12/01 91602 10010 20010 30001 40192 52024 60006 74544 89/// 90900=
07190,1996-01-13 12:00:00,3,1019.2,0.1,100,3,100,3.704,,,240,,,,,,,,,,43,wg-a,,,,AAXX 13124 07190 12/01 92402 10030 20030 30002 40192 50001 60006 74344 89/// 91200=
07190,1996-01-13 15:00:00,4,1019.3,0.2,100,4,200,7.408,,,340,,,,,,,,,,45,wg-a,,,,AAXX 13154 07190 12/02 93404 10040 20040 30004 40193 53002 60006 74544 89/// 91500=
07190,1996-01-13 18:00:00,2,1020.5,1,100,2,100,7.408,,,330,1,4.3,,,,,,,,43,wg-a,,,,AAXX 13184 07190 12/01 93304 10020 20020 30014 40205 51010 60006 74344 89/// 91800 333 10043 20010=
07190,1996-01-13 21:00:00,0,1021.4,0.7,100,0,300,0,,,0,,,,,,,,,,45,wg-a,,,,AAXX 13214 07190 12/03 90000 10000 20000 30021 40214 53007 60006 74544 89/// 92100=
07190,1996-01-14 00:00:00,2,1021.5,0.3,100,2,4500,11.112,,,20,,,,,,,,,,10,wg-a,,,,AAXX 14004 07190 12245 70206 10020 20020 30024 40215 53003 60006 71041 876// 90000=
07190,1996-01-14 03:00:00,1,1022.3,0.7,100,1,300,7.408,,,340,,,,,,,,,,45,wg-a,,,,AAXX 14034 07190 12/03 93404 10010 20010 30031 40223 52007 60006 74542 89/// 90300=
07190,1996-01-14 06:00:00,1,1022.2,-0.1,100,1,500,11.112,,,30,-0.5,2.4,,,,,,,,43,wg-a,,,,AAXX 14064 07190 02/05 90306 10010 20010 30030 40222 57001 60006 74342 89/// 90600 333 10024 21005 60004=
07190,1996-01-14 09:00:00,1,1022.8,0.6,100,1,600,7.408,,,350,,,,,,,,,,45,wg-a,,,,AAXX 14094 07190 12/06 93504 10010 20010 30036 40228 53006 60006 74544 89/// 90900=
07190,1996-01-14 12:00:00,2,1022.9,0.1,100,2,2500,7.408,,,20,,,,,,,,,,10,wg-a,,,,AAXX 14124 07190 12125 80204 10020 20020 30037 40229 50001 60006 71042 886// 91200=
07190,1996-01-14 15:00:00,2,1023,0.1,100,2,4000,3.704,,,210,,,,,,,,,,1,wg-a,,,,AAXX 14154 07190 12240 82102 10020 20020 30038 40230 53001 60006 70142 886// 91500=
07190,1996-01-14 18:00:00,2,1024.1,1.1,100,2,4500,0,,,0,0.6,1.7,,,,,,,,2,wg-a,,,,AAXX 14184 07190 12245 80000 10020 20020 30049 40241 53011 60006 70242 886// 91800 333 10017 20006=
07190,1996-01-14 21:00:00,2,1025.4,1.3,100,2,4000,0,,,0,,,,,,,,,,,wg-a,,,,AAXX 14214 07190 12240 80000 10020 20020 30062 40254 52013 60006 886// 92100=
07190,1996-01-15 00:00:00,2,1026.1,0.7,100,2,3500,3.704,,,190,,,,,,,,,,,wg-a,,,,AAXX 15004 07190 12135 81902 10020 20020 30069 40261 50007 60006 886// 90000=
07190,1996-01-15 03:00:00,2,1027,0.9,100,2,2000,3.704,,,160,,,,,,,,,,10,wg-a,,,,AAXX 15034 07190 12120 81602 10020 20020 30078 40270 51009 60006 71022 886// 90300=
07190,1996-01-15 06:00:00,2,1028.2,1.1,100,2,1400,0,,,0,1.6,1.9,,,,,,,,10,wg-a,,,,AAXX 15064 07190 02114 80000 10020 20020 30089 40282 53011 60006 71022 886// 90600 333 10019 20016 60004=
07190,1996-01-15 09:00:00,2,1029.4,1.2,100,2,1600,3.704,,,200,,,,,,,,,,10,wg-a,,,,AAXX 15094 07190 12116 82002 10020 20020 30101 40294 52012 60006 71042 886// 90900=
07190,1996-01-15 12:00:00,2,1029.7,0.3,100,2,1800,7.408,,,40,,,,,,,,,,10,wg-a,,,,AAXX 15124 07190 12118 80404 10020 20020 30104 40297 51003 60006 71042 886// 91200=
07190,1996-01-15 15:00:00,2,1029.7,-0.1,100,2,600,3.704,,,30,,,,,,,,,,10,wg-a,,,,AAXX 15154 07190 12106 80302 10020 20020 30104 40297 56001 60006 71042 886// 91500=
07190,1996-01-15 18:00:00,1,1030.9,1.1,100,1,900,7.408,,,360,0.8,1.9,,,,,,,,43,wg-a,,,,AAXX 15184 07190 12/09 93604 10010 20010 30115 40309 51011 60006 74342 89/// 91800 333 10019 20008=
07190,1996-01-15 21:00:00,1,1031.4,0.5,100,1,800,3.704,,,350,,,,,,,,,,45,wg-a,,,,AAXX 15214 07190 12/08 93502 10010 20010 30120 40314 52005 60006 74544 89/// 92100=
07190,1996-01-16 00:00:00,1,1031.6,0.2,100,1,900,7.408,,,350,,,,,,,,,,45,wg-a,,,,AAXX 16004 07190 12/09 93504 10010 20010 30122 40316 51002 60006 74544 89/// 90000=
07190,1996-01-16 03:00:00,0,1032.1,0.5,100,0,1100,7.408,,,20,,,,,,,,,,10,wg-a,,,,AAXX 16034 07190 12011 80204 10000 20000 30127 40321 50005 60006 710// 886// 90300=
07190,1996-01-16 06:00:00,0,1032.5,0.3,100,0,1000,3.704,,,230,0.3,1,,,,,,,,10,wg-a,,,,AAXX 16064 07190 02010 82302 10000 20000 30130 40325 53003 60006 71042 886// 90600 333 10010 20003 60004=
07190,1996-01-16 09:00:00,1,1033.2,0.7,100,1,500,3.704,,,220,,,,,,,,,,44,wg-a,,,,AAXX 16094 07190 12105 82202 10010 20010 30137 40332 51007 60006 74442 886// 90900=
07190,1996-01-16 12:00:00,1,1032.5,-0.6,100,1,700,3.704,,,330,,,,,,,,,,44,wg-a,,,,AAXX 16124 07190 12107 83302 10010 20010 30131 40325 58006 60006 74442 886// 91200=
07190,1996-01-16 15:00:00,1,1032.2,-0.3,100,1,1800,7.408,,,10,,,,,,,,,,10,wg-a,,,,AAXX 16154 07190 12118 80104 10010 20010 30128 40322 56003 60006 71042 886// 91500=
07190,1996-01-16 18:00:00,1,1032.6,0.4,93,0,500,7.408,,,20,0.3,1.1,,,,,,,,3,wg-a,,,,AAXX 16184 07190 12300 80204 10010 20000 30132 40326 51004 60006 70342 886// 91800 333 10011 20003=
07190,1996-01-16 21:00:00,0,1033.1,0.3,100,0,3200,7.408,,,50,,,,,,,,,,,wg-a,,,,AAXX 16214 07190 12232 80504 10000 20000 30136 40331 53003 60006 886// 92100=
07190,1996-01-17 00:00:00,0,1032,-1,100,0,1800,3.704,,,330,,,,,,,,,,10,wg-a,,,,AAXX 17004 07190 12118 83302 10000 20000 30125 40320 57010 60006 71022 886// 90000=
07190,1996-01-17 03:00:00,0,1031.9,-0.1,100,0,1600,7.408,,,360,,,,,,,,,,10,wg-a,,,,AAXX 17034 07190 12116 83604 10000 20000 30124 40319 56001 60006 71022 886// 90300=
07190,1996-01-17 06:00:00,0,1031.3,-0.6,100,0,1600,0,,,0,-0.2,1,,,,,,,,10,wg-a,,,,AAXX 17064 07190 02116 80000 10000 20000 30118 40313 56006 60006 71022 886// 90600 333 10010 21002 60004=
07190,1996-01-17 09:00:00,0,1031.5,0.3,100,0,4000,3.704,,,160,,,,,,,,,,,wg-a,,,,AAXX 17094 07190 12240 81602 10000 20000 30121 40315 50003 60006 886// 90900=
07190,1996-01-17 12:00:00,0,1031.1,-0.5,93,-1,500,7.408,,,200,,,,,,,,,,,wg-a,,,,AAXX 17124 07190 12200 82004 10000 21010 30116 40311 58005 60006 886// 91200=
07190,1996-01-17 15:00:00,0,1029.9,-1.1,93,-1,500,3.704,,,220,,,,,,,,,,,wg-a,,,,AAXX 17154 07190 12200 82202 10000 21010 30105 40299 56011 60006 886// 91500=
07190,1996-01-17 18:00:00,0,1029.8,-0.1,93,-1,6000,3.704,,,180,-0.1,0.2,,,,,,,,,wg-a,,,,AAXX 17184 07190 12356 81802 10000 21010 30104 40298 58001 60006 886// 91800 333 10002 21001=
07190,1996-01-17 21:00:00,0,1029,-0.8,93,-1,500,7.408,,,170,,,,,,,,,,,wg-a,,,,AAXX 17214 07190 12200 81704 10000 21010 30096 40290 56008 60006 886// 92100=
07190,1996-01-18 00:00:00,-1,1028.2,-0.8,100,-1,2000,7.408,,,180,,,,,,,,,,10,wg-a,,,,AAXX 18004 07190 12120 81804 11010 21010 30088 40282 58008 60006 71022 886// 90000=
07190,1996-01-18 03:00:00,0,1027.4,-0.8,93,-1,2800,11.112,,,170,,,,,,,,,,10,wg-a,,,,AAXX 18034 07190 12128 81706 10000 21010 30080 40274 58008 60006 71022 886// 90300=
07190,1996-01-18 06:00:00,0,1027,-0.4,93,-1,4500,7.408,,,160,-0.7,0,,,,,,,,,wg-a,,,,AAXX 18064 07190 02145 81604 10000 21010 30076 40270 58004 60006 886// 90600 333 10000 21007 60004=
07190,1996-01-18 09:00:00,-1,1026.9,-0.1,100,-1,2800,11.112,,,180,,,,,,,,,,10,wg-a,,,,AAXX 18094 07190 12128 81806 11010 21010 30075 40269 58001 60006 71022 886// 90900=
07190,1996-01-18 12:00:00,0,1025.8,-1.1,93,-1,3300,3.704,,,120,,,,,,,,,,,wg-a,,,,AAXX 18124 07190 12233 81202 10000 21010 30064 40258 58011 60006 886// 91200=
07190,1996-01-18 15:00:00,0,1024.9,-0.9,93,-1,3200,0,,,0,,,,,,,,,,,wg-a,,,,AAXX 18154 07190 12232 80000 10000 21010 30055 40249 56009 60006 886// 91500=
07190,1996-01-18 18:00:00,0,1024.6,-0.3,93,-1,4000,3.704,,,240,-0.6,-0.1,,,,,,,,,wg-a,,,,AAXX 18184 07190 12240 82402 10000 21010 30052 40246 57003 60006 886// 91800 333 11001 21006=
07190,1996-01-18 21:00:00,-1,1024.1,-0.5,100,-1,2000,7.408,,,210,,,,,,,,,,10,wg-a,,,,AAXX 18214 07190 12120 82104 11010 21010 30047 40241 58005 60006 71022 886// 92100=
07190,1996-01-19 00:00:00,-1,1023.6,-0.5,100,-1,500,3.704,,,220,,,,,,,,,,45,wg-a,,,,AAXX 19004 07190 12/05 92202 11010 21010 30042 40236 58005 60006 74542 89/// 90000=
07190,1996-01-19 03:00:00,-1,1022.6,-1,93,-2,700,0,,,0,,,,,,,,,,49,wg-a,,,,AAXX 19034 07190 12/07 90000 11010 21020 30032 40226 58010 60006 74942 89/// 90300=
07190,1996-01-19 06:00:00,-2,1021.3,-1.3,100,-2,900,3.704,,,160,-1.6,-0.3,,,,,,,,48,wg-a,,,,AAXX 19064 07190 02109 81602 11020 21020 30019 40213 58013 60006 74842 886// 90600 333 11003 21016 60004=
07190,1996-01-19 09:00:00,-2,1021.5,0.2,100,-2,800,0,,,0,,,,,,,,,,44,wg-a,,,,AAXX 19094 07190 12108 80000 11020 21020 30021 40215 50002 60006 74442 886// 90900=
07190,1996-01-19 12:00:00,-2,1019.8,-1.6,100,-2,800,3.704,,,100,,,,,,,,,,10,wg-a,,,,AAXX 19124 07190 12108 81002 11020 21020 30005 40198 58016 60006 71042 886// 91200=
07190,1996-01-19 18:00:00,-2,1018.2,-0.2,93,-3,6000,7.408,,,20,-1.9,-1.2,,,,,,,,3,wg-a,,,,AAXX 19184 07190 12156 80204 11020 21030 39989 40182 57002 60006 70342 886// 91800 333 11012 21019=
07190,1996-01-19 21:00:00,-2,1017.6,-0.6,93,-3,6000,11.112,,,20,,,,,,,,,,,wg-a,,,,AAXX 19214 07190 12356 80206 11020 21030 39983 40176 56006 60006 886// 92100=
07190,1996-01-20 00:00:00,-2,1016.6,-1,93,-3,6000,3.704,,,60,,,,,,,,,,1,wg-a,,,,AAXX 20004 07190 02356 80602 11020 21030 39973 40166 57010 61000 70172 886// 90000 333 6100=
07190,1996-01-20 03:00:00,-2,1016.1,-0.5,93,-3,6000,7.408,,,10,,,,,,,,,,,wg-a,,,,AAXX 20034 07190 12356 80104 11020 21030 39968 40161 56005 60006 886// 90300=
07190,1996-01-20 06:00:00,-2,1015.8,-0.3,86,-4,6000,3.704,,,180,-2,-1.5,,,,,,,,,wg-a,,,,AAXX 20064 07190 02456 81802 11020 21040 39965 40158 56003 61000 886// 90600 333 11015 21020 ////=
07190,1996-01-20 09:00:00,-1,1016.4,0.6,80,-4,7000,3.704,,,200,,,,,,,,,,,wg-a,,,,AAXX 20094 07190 12457 82002 11010 21040 39971 40164 53006 60006 875// 90900=
07190,1996-01-20 12:00:00,0,1015.8,-0.5,74,-4,7000,3.704,,,150,,,,,,,,,,,wg-a,,,,AAXX 20124 07190 12457 81502 10000 21040 39966 40158 58005 60006 875// 91200=
07190,1996-01-20 15:00:00,0,1015.6,-0.2,80,-3,6000,3.704,,,160,,,,,,,,,,,wg-a,,,,AAXX 20154 07190 12456 81602 10000 21030 39964 40156 57002 60006 875// 91500=
07190,1996-01-20 18:00:00,-1,1016.4,0.7,86,-3,6000,3.704,,,240,-1.8,-0.2,,,,,,,,,wg-a,,,,AAXX 20184 07190 12556 42402 11010 21030 39971 40164 52007 60006 84500 91800 333 11002 21018=
07190,1996-01-20 21:00:00,-1,1017.1,0.7,86,-3,6000,3.704,,,270,,,,,,,,,,,wg-a,,,,AAXX 20214 07190 12456 72702 11010 21030 39978 40171 51007 60006 875// 92100=
07190,1996-01-21 00:00:00,-1,1017.7,0.6,93,-2,500,3.704,,,130,,,,,,,,,,,wg-a,,,,AAXX 21004 07190 12600 /1302 11010 21020 39984 40177 51006 60006 86500 90000=
07190,1996-01-21 03:00:00,-1,1017.9,0.2,86,-3,500,0,,,0,,,,,,,,,,,wg-a,,,,AAXX 21034 07190 12600 /0000 11010 21030 39986 40179 51002 60006 86500 90300=
07190,1996-01-21 06:00:00,-1,1018.3,0.4,86,-3,4000,3.704,,,10,-2,-0.7,,,,,,,,,wg-a,,,,AAXX 21064 07190 02440 /0102 11010 21030 39990 40183 53004 60006 86500 90600 333 11007 21020 60004=
07190,1996-01-21 09:00:00,-1,1019,0.7,86,-3,3500,7.408,,,360,,,,,,,,,,,wg-a,,,,AAXX 21094 07190 12735 /3604 11010 21030 39997 40190 51007 60006 86500 90900=
07190,1996-01-21 12:00:00,2,1018.3,-0.4,75,-2,4000,11.112,,,30,,,,,,,,,,,wg-a,,,,AAXX 21124 07190 12740 40306 10020 21020 39992 40183 58004 60006 84500 91200=
07190,1996-01-21 15:00:00,1,1018.5,0.2,80,-2,4000,11.112,,,350,,,,,,,,,,,wg-a,,,,AAXX 21154 07190 12740 53506 10010 21020 39994 40185 53002 60006 82530 91500=
07190,1996-01-21 18:00:00,-1,1019.1,0.3,86,-3,3500,7.408,,,350,-1.4,2,,,,,,,,,wg-a,,,,AAXX 21184 07190 12735 33504 11010 21030 39998 40191 53003 60006 83530 91800 333 10020 21014=
07190,1996-01-21 21:00:00,-1,1019.7,0.7,80,-4,500,11.112,,,350,,,,,,,,,,,wg-a,,,,AAXX 21214 07190 12/00 33506 11010 21040 30004 40197 53007 60006 83030 92100=
07190,1996-01-22 00:00:00,-1,1019.7,0.7,80,-4,500,11.112,,,350,,,,,,,,,,,wg-a,,,,AAXX 22004 07190 12/00 33506 11010 21040 30004 40197 53007 60006 83030 90000=
07190,1996-01-22 03:00:00,-3,1019.4,-0.4,86,-5,500,7.408,,,320,,,,,,,,,,,wg-a,,,,AAXX 22034 07190 12/00 03204 11030 21050 39999 40194 56004 60006 80000 90300=
07190,1996-01-22 06:00:00,-4,1019.3,-0.1,93,-5,500,7.408,,,340,-4,-0.6,,,,,,,,,wg-a,,,,AAXX 22064 07190 02/00 03404 11040 21050 39998 40193 58001 60006 80000 90600 333 11006 21040 60004=
07190,1996-01-22 09:00:00,-3,1019.1,-0.2,93,-4,2300,7.408,,,350,,,,,,,,,,10,wg-a,,,,AAXX 22094 07190 12423 /3504 11030 21040 39996 40191 55002 60006 71011 82601 90900=
07190,1996-01-22 12:00:00,0,1017.2,-1.6,74,-4,3200,3.704,,,340,,,,,,,,,,,wg-a,,,,AAXX 22124 07190 12432 53402 10000 21040 39980 40172 58016 60006 82101 91200=
07190,1996-01-22 15:00:00,0,1016.4,-1,80,-3,4500,14.816,,,10,,,,,,,,,,,wg-a,,,,AAXX 22154 07190 12445 /0108 10000 21030 39972 40164 56010 60006 82572 91500=
07190,1996-01-22 18:00:00,-1,1015.9,-0.5,86,-3,500,7.408,,,330,-4.2,0.4,,,,,,,,,wg-a,,,,AAXX 22184 07190 12/00 /3304 11010 21030 39966 40159 56005 60006 80001 91800 333 10004 21042=
07190,1996-01-22 21:00:00,-3,1016,-0,93,-4,500,3.704,,,340,,,,,,,,,,,wg-a,,,,AAXX 22214 07190 12/00 /3402 11030 21040 39966 40160 54000 60006 80002 92100=
07190,1996-01-23 00:00:00,-3,1014.8,-1.3,93,-4,3200,11.112,,,20,,,,,,,,,,,wg-a,,,,AAXX 23004 07190 12432 60206 11030 21040 39954 40148 58013 60006 82602 90000=
07190,1996-01-23 03:00:00,-3,1014.9,0.1,93,-4,3200,3.704,,,330,,,,,,,,,,,wg-a,,,,AAXX 23034 07190 12232 73302 11030 21040 39955 40149 50001 60006 876// 90300=
07190,1996-01-23 06:00:00,-3,1013.8,-1.1,93,-4,2500,3.704,,,10,-3.2,-1.3,,,,,,,,10,wg-a,,,,AAXX 23064 07190 02225 80102 11030 21040 39945 40138 58011 60006 71022 886// 90600 333 11013 21032 60004=
07190,1996-01-23 09:00:00,-3,1012.9,-0.8,86,-5,2500,11.112,,,340,,,,,,,,,,10,wg-a,,,,AAXX 23094 07190 12425 /3406 11030 21050 39936 40129 58008 60006 71022 876// 90900=
07190,1996-01-23 12:00:00,-1,1011.3,-1.4,86,-3,3800,11.112,,,20,,,,,,,,,,,wg-a,,,,AAXX 23124 07190 12438 70206 11010 21030 39922 40113 58014 60006 875// 91200=
07190,1996-01-23 15:00:00,0,1011.2,-0.1,80,-3,4000,11.112,,,10,,,,,,,,,,,wg-a,,,,AAXX 23154 07190 12440 80106 10000 21030 39921 40112 55001 60006 8557/ 91500=
07190,1996-01-23 18:00:00,-1,1010.7,-0.5,93,-2,500,11.112,,,350,-3.2,0.1,,0,,,,,,66,wg-a,,,,AAXX 23184 07190 12600 83506 11010 21020 39916 40107 56005 60007 76662 8357/ 91800 333 10001 21032=
07190,1996-01-23 21:00:00,0,1011.4,0.7,86,-2,500,7.408,,,290,,,,1,,,,,,24,wg-a,,,,AAXX 23214 07190 12/00 82904 10000 21020 39923 40114 53007 60017 72462 8807/ 92100=
07190,1996-01-24 00:00:00,-1,1010.7,-0.7,93,-2,500,3.704,,,330,,,,,,,,,,3,wg-a,,,,AAXX 24004 07190 12300 73302 11010 21020 39916 40107 56007 60016 70362 8467/ 90000=
07190,1996-01-24 03:00:00,-1,1010.1,-0.6,93,-2,4000,11.112,,,10,,,,,,,,,,,wg-a,,,,AAXX 24034 07190 12/40 /0106 11010 21020 39910 40101 56006 60006 90300=
07190,1996-01-24 06:00:00,-1,1010,-0.1,93,-2,4000,11.112,,,10,-1.2,-0.4,,,,,1,,,56,wg-a,,,,AAXX 24064 07190 02340 80106 11010 21020 39909 40100 55001 60014 75652 886// 90600 333 11004 21012 61000=
07190,1996-01-24 09:00:00,-1,1010.3,0.2,86,-3,3500,11.112,,,350,,,,,,,,,,10,wg-a,,,,AAXX 24094 07190 02335 83506 11010 21030 39911 40103 51002 61000 71065 886// 90900 333 ////=
07190,1996-01-24 12:00:00,0,1009.6,-0.6,80,-3,500,14.816,,,10,,,,,,,,,,1,wg-a,,,,AAXX 24124 07190 02400 80108 10000 21030 39905 40096 56006 61000 70165 875// 91200 333 ////=
07190,1996-01-24 15:00:00,0,1009.4,-0.2,80,-3,500,18.52,,,10,,,,,,,,,,,wg-a,,,,AAXX 24154 07190 12400 80110 10000 21030 39903 40094 56002 60006 885// 91500=
07190,1996-01-24 18:00:00,-1,1009.9,0.5,86,-3,4000,14.816,,,10,-1.4,0,,,,,,,,,wg-a,,,,AAXX 24184 07190 32440 80108 11010 21030 39908 40099 53005 886// 91800 333 10000 21014=
07190,1996-01-24 21:00:00,-1,1009.6,-0.3,86,-3,500,14.816,,,20,,,,,,,,,,,wg-a,,,,AAXX 24214 07190 12400 80208 11010 21030 39905 40096 57003 60006 885// 92100=
07190,1996-01-25 00:00:00,-1,1009,-0.6,80,-4,500,22.224,,,20,,,,,,,,,,,wg-a,,,,AAXX 25004 07190 12400 80212 11010 21040 39899 40090 57006 60006 885// 90000=
07190,1996-01-25 03:00:00,-2,1008.1,-0.9,86,-4,500,14.816,,,20,,,,,,,,,,,wg-a,,,,AAXX 25034 07190 12400 80208 11020 21040 39890 40081 58009 60006 885// 90300=
07190,1996-01-25 06:00:00,-2,1008.4,0.2,80,-5,500,22.224,,,20,-2.2,-0.7,,,,,,,,,wg-a,,,,AAXX 25064 07190 02400 80212 11020 21050 39892 40084 53002 60006 885// 90600 333 11007 21022 61000=
07190,1996-01-25 09:00:00,-3,1009,0.6,80,-6,4000,22.224,,,30,,,,,,,,,,,wg-a,,,,AAXX 25094 07190 12440 80312 11030 21060 39898 40090 52006 60006 885// 90900=
07190,1996-01-25 12:00:00,-2,1009.2,0.2,74,-6,500,18.52,,,30,,,,,,,,,,,wg-a,,,,AAXX 25124 07190 12500 80310 11020 21060 39900 40092 50002 60006 885// 91200=
07190,1996-01-25 15:00:00,-2,1009.5,0.3,74,-6,500,18.52,,,30,,,,,,,,,,,wg-a,,,,AAXX 25154 07190 12500 80310 11020 21060 39903 40095 53003 60006 885// 91500=
07190,1996-01-25 18:00:00,-3,1010.4,0.8,74,-7,7000,18.52,,,20,-2.8,-2.1,,,,,,,,,wg-a,,,,AAXX 25184 07190 12557 80210 11030 21070 39911 40104 51008 60006 885// 91800 333 11021 21028=
07190,1996-01-25 21:00:00,-3,1011.4,1,74,-7,6000,11.112,,,20,,,,,,,,,,,wg-a,,,,AAXX 25214 07190 12556 70206 11030 21070 39921 40114 53010 60006 875// 92100=
07190,1996-01-26 00:00:00,-4,1011.3,-0.2,80,-7,6000,7.408,,,20,,,,,,,,,,,wg-a,,,,AAXX 26004 07190 12556 /0204 11040 21070 39919 40113 56002 60006 82530 90000=
07190,1996-01-26 03:00:00,-4,1010.9,-0.4,80,-7,6000,11.112,,,10,,,,,,,,,,,wg-a,,,,AAXX 26034 07190 12/56 40106 11040 21070 39915 40109 58004 60006 84030 90300=
07190,1996-01-26 06:00:00,-4,1011,0.1,80,-7,500,7.408,,,20,-4.4,-2.7,,,,,,,,,wg-a,,,,AAXX 26064 07190 02500 /0204 11040 21070 39916 40110 50001 60006 82530 90600 333 11027 21044 60004=
07190,1996-01-26 09:00:00,-4,1011.8,0.8,74,-8,500,7.408,,,20,,,,,,,,,,,wg-a,,,,AAXX 26094 07190 12400 70204 11040 21080 39924 40118 51008 60006 875// 90900=
07190,1996-01-26 12:00:00,-3,1011.2,-0.5,86,-5,2500,0,,,0,,,,5,,,,,,79,wg-a,,,,AAXX 26124 07190 02325 80000 11030 21050 39919 40112 58005 60056 77976 8552/ 91200 333 60057=
07190,1996-01-26 15:00:00,-2,1010.9,-0.2,86,-4,2500,0,,,0,,,,,,,,,,10,wg-a,,,,AAXX 26154 07190 02425 70000 11020 21040 39917 40109 55002 61000 71072 876// 91500 333 ////=
07190,1996-01-26 18:00:00,-2,1011.9,1,93,-3,2500,7.408,,,10,-4.2,-1.5,,1,,,,,,10,wg-a,,1,,AAXX 26184 07190 12325 80104 11020 21030 39927 40119 53010 60017 71072 886// 91800 333 11015 21042 4/001=
07190,1996-01-26 21:00:00,-2,1012.9,0.9,86,-4,4000,7.408,,,10,,,,,,,,,,2,wg-a,,,,AAXX 26214 07190 02340 80104 11020 21040 39936 40129 53009 61000 70272 886// 92100 333 ////=
07190,1996-01-27 00:00:00,-2,1013.9,1,86,-4,500,7.408,,,10,,,,,,,,,,1,wg-a,,,,AAXX 27004 07190 02400 80104 11020 21040 39946 40139 52010 61000 70172 875// 90000 333 ////=
07190,1996-01-27 03:00:00,-2,1014.5,0.6,86,-4,500,3.704,,,10,,,,,,,,,,,wg-a,,,,AAXX 27034 07190 12400 80102 11020 21040 39952 40145 51006 60006 885// 90300=
07190,1996-01-27 06:00:00,-2,1015.5,1,86,-4,4000,7.408,,,360,-2.2,-1.7,,,,,3,,,,wg-a,,1,,AAXX 27064 07190 12440 83604 11020 21040 39962 40155 51010 60034 885// 90600 333 11017 21022 4/001=
07190,1996-01-27 09:00:00,-2,1017.9,2.4,86,-4,2800,7.408,,,330,,,,0,,,,,,10,wg-a,,,,AAXX 27094 07190 12428 83304 11020 21040 39986 40179 53024 60007 71062 875// 90900=
07190,1996-01-27 12:00:00,0,1017.7,-0.1,80,-3,2800,11.112,,,360,,,,,,,,,,10,wg-a,,,,AAXX 27124 07190 12428 73606 10000 21030 39985 40177 58001 60016 71062 875// 91200=
07190,1996-01-27 15:00:00,0,1018.2,0.5,80,-3,2800,7.408,,,350,,,,,,,,,,10,wg-a,,,,AAXX 27154 07190 12428 83504 10000 21030 39990 40182 53005 60006 71022 875// 91500=
07190,1996-01-27 18:00:00,0,1019.7,1.4,74,-4,4500,11.112,,,350,-2,0.3,,,,,,,,,wg-a,,,,AAXX 27184 07190 32445 73506 10000 21040 30004 40197 53014 85501 91800 333 10003 21020=
07190,1996-01-27 21:00:00,-1,1020.7,1,80,-4,500,11.112,,,340,,,,,,,,,,,wg-a,,,,AAXX 27214 07190 12600 /3406 11010 21040 30014 40207 51010 60006 86500 92100=
07190,1996-01-28 00:00:00,-2,1020.6,-0.2,80,-5,500,11.112,,,320,,,,,,,,,,,wg-a,,,,AAXX 28004 07190 12700 23206 11020 21050 30012 40206 58002 60006 82500 90000=
07190,1996-01-28 03:00:00,-3,1020.6,-0.1,86,-5,4500,11.112,,,320,,,,,,,,,,,wg-a,,,,AAXX 28034 07190 12445 33206 11030 21050 30011 40206 58001 60006 83500 90300=
07190,1996-01-28 06:00:00,-3,1020.8,0.2,86,-5,4500,11.112,,,330,-3.7,-0.3,,,,,,,,,wg-a,,,,AAXX 28064 07190 02445 43306 11030 21050 30013 40208 50002 60006 84500 90600 333 11003 21037 60004=
07190,1996-01-28 09:00:00,-3,1020.6,-0.1,86,-5,4000,14.816,,,360,,,,,,,,,,,wg-a,,,,AAXX 28094 07190 12440 73608 11030 21050 30012 40206 57001 60006 875// 90900=
07190,1996-01-28 12:00:00,-1,1019.5,-0.9,80,-4,500,14.816,,,10,,,,,,,,,,,wg-a,,,,AAXX 28124 07190 12400 70108 11010 21040 30002 40195 58009 60006 875// 91200=
07190,1996-01-28 15:00:00,0,1018,-1.4,74,-4,4000,18.52,,,30,,,,,,,,,,,wg-a,,,,AAXX 28154 07190 12440 70310 10000 21040 39988 40180 56014 60006 875// 91500=
07190,1996-01-28 18:00:00,-1,1017.8,-0.3,80,-4,4000,14.816,,,20,-3.1,0,,,,,,,,,wg-a,,,,AAXX 28184 07190 12540 70208 11010 21040 39985 40178 56003 60006 875// 91800 333 10000 21031=
07190,1996-01-29 00:00:00,-2,1017.4,-0.3,80,-5,4000,18.52,,,20,,,,,,,,,,,wg-a,,,,AAXX 29004 07190 12540 /0210 11020 21050 39981 40174 58003 60006 86500 90000=
07190,1996-01-29 03:00:00,-2,1017.5,0.1,80,-5,4000,18.52,,,30,,,,,,,,,,,wg-a,,,,AAXX 29034 07190 12540 70310 11020 21050 39982 40175 53001 60006 875// 90300=
07190,1996-01-29 06:00:00,-3,1017.7,0.1,80,-6,500,14.816,,,30,-2.7,-1.1,,,,,,,,,wg-a,,,,AAXX 29064 07190 02500 80308 11030 21060 39983 40177 52001 60006 885// 90600 333 11011 21027 60004=
07190,1996-01-29 09:00:00,-2,1018.2,0.6,80,-5,4000,14.816,,,30,,,,,,,,,,,wg-a,,,,AAXX 29094 07190 12/40 /0308 11020 21050 39989 40182 51006 60006 90900=
07190,1996-01-29 12:00:00,1,1018.1,0,75,-3,4500,14.816,,,20,,,,,,,,,,,wg-a,,,,AAXX 29124 07190 12545 20208 10010 21030 39989 40181 50000 60006 81201 91200=
07190,1996-01-29 15:00:00,1,1018.6,0.5,69,-4,4500,5.556,,,150,,,,,,,,,,,wg-a,,,,AAXX 29154 07190 12/45 /1503 10010 21040 39994 40186 53005 60006 80001 91500=
07190,1996-01-29 18:00:00,-1,1019.5,0.8,80,-4,4500,11.112,,,20,-2.8,1.2,,,,,,,,,wg-a,,,,AAXX 29184 07190 12/45 /0206 11010 21040 30002 40195 53008 60006 80000 91800 333 10012 21028=
07190,1996-01-29 21:00:00,-2,1020.5,0.9,80,-5,4500,7.408,,,20,,,,,,,,,,,wg-a,,,,AAXX 29214 07190 12/45 00204 11020 21050 30011 40205 53009 60006 80000 92100=
07190,1996-01-30 00:00:00,-5,1021.8,1,93,-6,3500,3.704,,,320,,,,,,,,,,,wg-a,,,,AAXX 30004 07190 12/35 03202 11050 21060 30022 40218 51010 60006 80000 90000=
07190,1996-01-30 03:00:00,-6,1022,0.1,93,-7,3500,7.408,,,330,,,,,,,,,,,wg-a,,,,AAXX 30034 07190 12/35 03304 11060 21070 30023 40220 51001 60006 80000 90300=
07190,1996-01-30 06:00:00,-6,1022.3,0.3,93,-7,4000,3.704,,,310,-6.3,-1,,,,,,,,,wg-a,,,,AAXX 30064 07190 02/40 03102 11060 21070 30026 40223 53003 60006 80000 90600 333 11010 21063 60004=
07190,1996-01-30 09:00:00,-3,1023.7,1.5,93,-4,3500,7.408,,,20,,,,,,,,,,,wg-a,,,,AAXX 30094 07190 12535 /0204 11030 21040 30042 40237 53015 60006 86500 90900=
07190,1996-01-30 12:00:00,2,1022.8,-0.5,69,-3,8000,11.112,,,50,,,,,,,,,,,wg-a,,,,AAXX 30124 07190 12558 30506 10020 21030 30037 40228 58005 60006 83800 91200=
07190,1996-01-30 15:00:00,2,1022.8,-0.1,69,-3,7000,18.52,,,20,,,,,,,,,,,wg-a,,,,AAXX 30154 07190 12557 /0210 10020 21030 30036 40228 55001 60006 86500 91500=
07190,1996-01-30 18:00:00,0,1024,1.1,80,-3,7000,11.112,,,30,-6.2,3.3,,,,,,,,,wg-a,,,,AAXX 30184 07190 12/57 00306 10000 21030 30047 40240 53011 60006 80000 91800 333 10033 21062=
07190,1996-01-30 21:00:00,-1,1024.2,0.1,74,-5,7000,11.112,,,10,,,,,,,,,,,wg-a,,,,AAXX 30214 07190 12/57 00106 11010 21050 30048 40242 53001 60006 80000 92100=
07190,1996-01-31 00:00:00,-2,1023.9,-0.4,74,-6,8000,14.816,,,20,,,,,,,,,,,wg-a,,,,AAXX 31004 07190 12/58 00208 11020 21060 30044 40239 56004 60006 80000 90000=
07190,1996-01-31 03:00:00,-3,1023.8,-0.2,68,-8,8000,14.816,,,20,,,,,,,,,,,wg-a,,,,AAXX 31034 07190 12/58 00208 11030 21080 30042 40238 57002 60006 80000 90300=
07190,1996-01-31 06:00:00,-6,1023.9,-0,79,-9,10000,7.408,,,310,-5.5,0.2,,,,,,,,,wg-a,,,,AAXX 31064 07190 02/60 03104 11060 21090 30042 40239 55000 60006 80000 90600 333 10002 21055 60004=
07190,1996-01-31 09:00:00,-3,1024.4,0.6,68,-8,12000,11.112,,,360,,,,,,,,,,,wg-a,,,,AAXX 31094 07190 12/62 03606 11030 21080 30048 40244 50006 60006 80000 90900=
07190,1996-01-31 12:00:00,1,1022.6,-1.5,55,-7,12000,22.224,,,20,,,,,,,,,,,wg-a,,,,AAXX 31124 07190 12/62 00212 10010 21070 30033 40226 58015 60006 80000 91200=
07190,1996-01-31 15:00:00,2,1021.2,-1.2,51,-7,12000,18.52,,,20,,,,,,,,,,,wg-a,,,,AAXX 31154 07190 12/62 00210 10020 21070 30021 40212 56012 60006 80000 91500=
07190,1996-01-31 18:00:00,0,1022,0.6,59,-7,12000,11.112,,,20,-6.1,2.4,,,,,,,,,wg-a,,,,AAXX 31184 07190 12/62 00206 10000 21070 30027 40220 53006 60006 80000 91800 333 10024 21061=
07190,1996-01-31 21:00:00,-2,1022.5,0.3,63,-8,12000,14.816,,,30,,,,,,,,,,,wg-a,,,,AAXX 31214 07190 12/62 00308 11020 21080 30030 40225 51003 60006 80000 92100=
07190,1996-02-01 00:00:00,-5,1022.8,0.1,79,-8,12000,0,,,0,,,,,,,,,,,wg-a,,,,AAXX 01004 07190 12/62 00000 11050 21080 30031 40228 53001 60006 80000 90000=
07190,1996-02-01 03:00:00,-6,1021.8,-1,79,-9,9000,3.704,,,270,,,,,,,,,,,wg-a,,,,AAXX 01034 07190 12/59 02702 11060 21090 30021 40218 56010 60006 80000 90300=
07190,1996-02-01 06:00:00,-7,1021.9,0,86,-9,9000,3.704,,,330,-7.6,-0.4,,,,,,,,,wg-a,,,,AAXX 01064 07190 02/59 03302 11070 21090 30021 40219 50000 60006 80000 90600 333 11004 21076 60004=
07190,1996-02-01 09:00:00,-4,1022.5,0.8,74,-8,500,3.704,,,180,,,,,,,,,,,wg-a,,,,AAXX 01094 07190 12/00 01802 11040 21080 30029 40225 52008 60006 80000 90900=
07190,1996-02-01 12:00:00,0,1021.6,-0.6,69,-5,500,3.704,,,150,,,,,,,,,,,wg-a,,,,AAXX 01124 07190 12/00 01502 10000 21050 30023 40216 55006 60006 80000 91200=
07190,1996-02-01 15:00:00,3,1019.7,-1.7,56,-5,500,0,,,0,,,,,,,,,,,wg-a,,,,AAXX 01154 07190 12/00 /0000 10030 21050 30006 40197 56017 60006 81031 91500=
07190,1996-02-01 18:00:00,-1,1019.3,-0.6,86,-3,7000,7.408,,,320,-7.6,2.7,,,,,,,,,wg-a,,,,AAXX 01184 07190 12/57 /3204 11010 21030 30000 40193 55006 60006 80001 91800 333 10027 21076=
07190,1996-02-01 21:00:00,-2,1018.2,-1.2,86,-4,6000,7.408,,,350,,,,,,,,,,,wg-a,,,,AAXX 01214 07190 12/56 43504 11020 21040 39988 40182 56012 60006 83042 92100=
07190,1996-02-02 00:00:00,-4,1017.4,-0.9,86,-6,6000,7.408,,,310,,,,,,,,,,,wg-a,,,,AAXX 02004 07190 12/56 /3104 11040 21060 39979 40174 55009 60006 80004 90000=
07190,1996-02-02 06:00:00,-4,1013.8,-1.4,80,-7,6000,7.408,,,40,-5.2,-1,,,,,,,,,wg-a,,,,AAXX 02064 07190 02/56 50404 11040 21070 39944 40138 58014 60006 83042 90600 333 11010 21052 60004=
07190,1996-02-02 12:00:00,0,1012.3,-0.7,69,-5,4000,3.704,,,340,,,,,,,,,,10,wg-a,,,,AAXX 02124 07190 12/40 73402 10000 21050 39932 40123 58007 60006 71022 85036 91200=
07190,1996-02-02 15:00:00,0,1010.9,-1.3,86,-2,4000,0,,,0,,,,0,,,,,,10,wg-a,,,,AAXX 02154 07190 12740 80000 10000 21020 39919 40109 58013 60007 71062 8457/ 91500=
07190,1996-02-02 18:00:00,0,1010.7,-0.4,86,-2,2800,0,,,0,-4.2,0.5,,1,,,,,,10,wg-a,,,,AAXX 02184 07190 12628 80000 10000 21020 39916 40107 55004 60017 71062 8657/ 91800 333 10005 21042=
07190,1996-02-02 21:00:00,0,1010.8,0.1,93,-1,1700,3.704,,,360,,,,0,,,,,,10,wg-a,,,,AAXX 02214 07190 12417 83602 10000 21010 39917 40108 50001 60007 71076 876// 92100=
07190,1996-02-03 00:00:00,0,1011.4,0.6,93,-1,1600,3.704,,,130,,,,,,,,,,10,wg-a,,,,AAXX 03004 07190 12416 71302 10000 21010 39923 40114 51006 60006 71076 876// 90000=
07190,1996-02-03 06:00:00,0,1012.5,0.9,93,-1,2000,0,,,0,-0.4,0.3,,,,,1,,,10,wg-a,,,,AAXX 03064 07190 12420 70000 10000 21010 39934 40125 53009 60014 71011 875// 90600 333 10003 21004=
07190,1996-02-03 09:00:00,1,1013.9,1.5,100,1,1800,3.704,,,110,,,,,,,,,,10,wg-a,,,,AAXX 03094 07190 12418 71102 10010 20010 39949 40139 51015 60006 71022 875// 90900=
07190,1996-02-03 12:00:00,2,1014.1,0.2,93,1,2000,3.704,,,140,,,,,,,,,,10,wg-a,,,,AAXX 03124 07190 12420 71402 10020 20010 39951 40141 50002 60006 71022 875// 91200=
07190,1996-02-03 15:00:00,2,1014,-0.1,93,1,1800,3.704,,,360,,,,,,,,,,10,wg-a,,,,AAXX 03154 07190 12418 83602 10020 20010 39950 40140 55001 60006 71022 875// 91500=
07190,1996-02-03 18:00:00,2,1014.6,0.6,87,0,4000,7.408,,,340,0.1,2,,,,,,,,10,wg-a,,,,AAXX 03184 07190 12540 83404 10020 20000 39956 40146 51006 60006 71022 875// 91800 333 10020 20001=
07190,1996-02-03 21:00:00,1,1015.1,0.4,93,0,4000,11.112,,,10,,,,,,,,,,10,wg-a,,,,AAXX 03214 07190 12240 80106 10010 20000 39960 40151 53004 60006 71022 8657/ 92100=
07190,1996-02-04 00:00:00,-1,1015.9,0.6,80,-4,6000,22.224,,,20,,,,0,,,,,,22,wg-a,,,,AAXX 04004 07190 02456 80212 11010 21040 39966 40159 51006 60006 72272 885// 90000 333 60007=
07190,1996-02-04 03:00:00,-2,1015.7,-0.2,86,-4,500,14.816,,,350,,,,,,,,,,,wg-a,,,,AAXX 04034 07190 12500 73508 11020 21040 39964 40157 57002 60006 875// 90300=
07190,1996-02-04 06:00:00,-4,1015.9,0.1,86,-6,6000,11.112,,,330,-3.6,1.5,,,,,,,,,wg-a,,0,,AAXX 04064 07190 12756 23306 11040 21060 39965 40159 53001 60004 82500 90600 333 10015 21036 4/9999=
07190,1996-02-04 09:00:00,-3,1016.7,0.7,86,-5,7000,11.112,,,360,,,,,,,,,,,wg-a,,,,AAXX 04094 07190 12457 23606 11030 21050 39973 40167 51007 60006 82100 90900=
07190,1996-02-04 12:00:00,-1,1016.4,-0.1,80,-4,8000,18.52,,,20,,,,,,,,,,,wg-a,,,,AAXX 04124 07190 12458 70210 11010 21040 39971 40164 58001 60006 875// 91200=
07190,1996-02-04 15:00:00,-1,1016.2,-0.2,74,-5,500,22.224,,,40,,,,,,,,,,,wg-a,,,,AAXX 04154 07190 12400 40412 11010 21050 39969 40162 55002 60006 84800 91500=
07190,1996-02-04 18:00:00,-2,1016.9,0.7,80,-5,7000,22.224,,,20,-4.3,-1,,,,,,,,,wg-a,,,,AAXX 04184 07190 12557 70212 11020 21050 39976 40169 53007 60006 875// 91800 333 11010 21043=
07190,1996-02-04 21:00:00,-2,1017.7,0.7,80,-5,8000,11.112,,,20,,,,,,,,,,,wg-a,,,,AAXX 04214 07190 12658 70206 11020 21050 39983 40177 51007 60006 875// 92100=
07190,1996-02-05 00:00:00,-3,1017.7,0,86,-5,7000,11.112,,,20,,,,,,,,,,,wg-a,,,,AAXX 05004 07190 12657 70206 11030 21050 39983 40177 50000 60006 875// 90000=
07190,1996-02-05 03:00:00,-3,1017,-0.7,86,-5,7000,11.112,,,10,,,,,,,,,,,wg-a,,,,AAXX 05034 07190 12657 70106 11030 21050 39976 40170 58007 60006 875// 90300=
07190,1996-02-05 06:00:00,-3,1017.1,0.1,80,-6,10000,11.112,,,10,-2.9,-2.1,,,,,,,,,wg-a,,,,AAXX 05064 07190 02560 70106 11030 21060 39977 40171 53001 60006 875// 90600 333 11021 21029 60004=
07190,1996-02-05 12:00:00,0,1014.9,-1.7,51,-9,25000,11.112,,,60,,,,,,,,,,,wg-a,,,,AAXX 05124 07190 12675 20606 10000 21090 39958 40149 58017 60006 82200 91200=
07190,1996-02-05 15:00:00,1,1012.9,-2,55,-7,25000,11.112,,,30,,,,,,,,,,,wg-a,,,,AAXX 05154 07190 12675 /0306 10010 21070 39938 40129 56020 60006 81400 91500=
07190,1996-02-05 18:00:00,-2,1011.7,-1.3,74,-6,20000,11.112,,,30,-2.7,1.7,,,,,,,,,wg-a,,,,AAXX 05184 07190 12770 10306 11020 21060 39925 40117 58013 60006 81500 91800 333 10017 21027=
07190,1996-02-05 21:00:00,-4,1009.3,-2.5,80,-7,15000,7.408,,,60,,,,,,,,,,,wg-a,,,,AAXX 05214 07190 12/65 00604 11040 21070 39900 40093 58025 60006 80000 92100=
07190,1996-02-06 00:00:00,-6,1005.3,-4.1,86,-8,15000,7.408,,,60,,,,,,,,,,,wg-a,,,,AAXX 06004 07190 12/65 00604 11060 21080 39859 40053 58041 60006 80000 90000=
07190,1996-02-06 06:00:00,-8,1000.4,-2.1,85,-10,12000,7.408,,,330,-8.6,-1.8,,,,,,,,,wg-a,,,,AAXX 06064 07190 02/62 03304 11080 21100 39809 40004 58021 60006 80000 90600 333 11018 21086 60004=
07190,1996-02-06 09:00:00,-6,998.6,-1.6,86,-8,8000,7.408,,,20,,,,,,,,,,,wg-a,,,,AAXX 06094 07190 12/58 /0204 11060 21080 39794 49986 58016 60006 80001 90900=
07190,1996-02-06 12:00:00,-2,997.7,-0.6,69,-7,8000,11.112,,,340,,,,,,,,,,,wg-a,,,,AAXX 06124 07190 12/58 /3406 11020 21070 39788 49977 58006 60006 80001 91200=
07190,1996-02-06 15:00:00,0,997.2,-0.3,59,-7,9000,11.112,,,10,,,,,,,,,,,wg-a,,,,AAXX 06154 07190 12/59 /0106 10000 21070 39784 49972 55003 60006 80001 91500=
07190,1996-02-06 18:00:00,-2,998.9,1.5,63,-8,8000,7.408,,,350,-8.6,0.2,,,,,,,,,wg-a,,,,AAXX 06184 07190 12/58 23504 11020 21080 39799 49989 52015 60006 80001 91800 333 10002 21086=
07190,1996-02-06 21:00:00,-4,1000.9,1.9,74,-8,8000,7.408,,,10,,,,,,,,,,,wg-a,,,,AAXX 06214 07190 12/58 70104 11040 21080 39818 40009 52019 60006 8703/ 92100=
07190,1996-02-07 00:00:00,-4,1001.9,0.9,80,-7,8000,3.704,,,330,,,,,,,,,,,wg-a,,,,AAXX 07004 07190 12758 73302 11040 21070 39827 40019 52009 60006 8553/ 90000=
07190,1996-02-07 03:00:00,-5,1002.6,0.6,73,-9,7000,11.112,,,20,,,,,,,,,,,wg-a,,,,AAXX 07034 07190 12757 70206 11050 21090 39833 40026 53006 60006 875// 90300=
07190,1996-02-07 06:00:00,-6,1002.4,-0.2,86,-8,6000,7.408,,,10,-5.5,-2.2,,,,,,,,71,wg-a,,1,,AAXX 07064 07190 02556 70104 11060 21080 39831 40024 58002 61000 77172 875// 90600 333 11022 21055 4/001 6100=
07190,1996-02-07 09:00:00,-5,1001.4,-1,86,-7,3000,7.408,,,20,,,,,,,,,,10,wg-a,,,,AAXX 07094 07190 02230 80204 11050 21070 39821 40014 58010 61000 71077 885// 90900 333 ////=
07190,1996-02-07 12:00:00,-4,998.5,-2.7,86,-6,4000,11.112,,,20,,,,,,,,,,10,wg-a,,,,AAXX 07124 07190 02440 80206 11040 21060 39794 49985 58027 61000 71072 875// 91200 333 6100=
07190,1996-02-07 15:00:00,-3,996.2,-2.2,80,-6,3500,11.112,,,20,,,,,,,,,,10,wg-a,,,,AAXX 07154 07190 02435 80206 11030 21060 39772 49962 56022 61000 71072 875// 91500 333 ////=
07190,1996-02-07 18:00:00,-3,995.3,-0.9,80,-6,500,11.112,,,320,-5.6,-3,,,,,,,,10,wg-a,,0,,AAXX 07184 07190 02400 83206 11030 21060 39763 49953 56009 61000 71072 885// 91800 333 11030 21056 4/9999 ////=
07190,1996-02-07 21:00:00,-4,994.9,-0.4,80,-7,6000,7.408,,,340,,,,,,,,,,,wg-a,,,,AAXX 07214 07190 12656 73404 11040 21070 39759 49949 56004 60006 8655/ 92100=
07190,1996-02-08 00:00:00,-4,996.7,1.7,86,-6,4500,11.112,,,350,,,,,,,,,,71,wg-a,,,,AAXX 08004 07190 02645 73506 11040 21060 39776 49967 53017 61000 77172 875// 90000 333 6100=
07190,1996-02-08 03:00:00,-4,998.9,2.2,80,-7,6000,18.52,,,360,,,,,,,,,,0,wg-a,,,,AAXX 08034 07190 02756 73610 11040 21070 39798 49989 53022 61000 70072 875// 90300 333 ////=
07190,1996-02-08 06:00:00,-4,1003.3,4.3,80,-7,6000,14.816,,,10,-4.2,-3.4,,,,,,,,70,wg-a,,0,,AAXX 08064 07190 02756 70108 11040 21070 39841 40033 53043 61000 77072 875// 90600 333 11034 21042 4/9999 6100=
07190,1996-02-08 09:00:00,-4,1007.7,4.3,86,-6,1500,11.112,,,10,,,,,,,,,,71,wg-a,,,,AAXX 08094 07190 02415 70106 11040 21060 39884 40077 53043 61000 77172 875// 90900 333 ////=
07190,1996-02-08 12:00:00,-3,1010.9,3.2,86,-5,1500,7.408,,,180,,,,0,,,,,,10,wg-a,,,,AAXX 08124 07190 02215 81804 11030 21050 39916 40109 51032 60016 71072 885// 91200 333 60007=
07190,1996-02-08 15:00:00,-3,1014,3.1,93,-4,1500,7.408,,,170,,,,0,,,,,,10,wg-a,,,,AAXX 08154 07190 12115 81704 11030 21040 39947 40140 52031 60007 71072 885// 91500=
07190,1996-02-08 18:00:00,-2,1017.8,3.8,93,-3,1200,7.408,,,210,-4.1,-2.2,,0,,,,,,10,wg-a,,5,,AAXX 08184 07190 12112 82104 11020 21030 39984 40178 53038 60007 71072 885// 91800 333 11022 21041 4/005=
07190,1996-02-08 21:00:00,-2,1020.8,2.9,93,-3,1800,0,,,0,,,,0,,,,,,10,wg-a,,,,AAXX 08214 07190 12218 80000 11020 21030 30014 40208 51029 60007 71077 885// 92100=
07190,1996-02-09 00:00:00,-3,1022.4,1.5,86,-5,3500,3.704,,,190,,,,,,,,,,10,wg-a,,,,AAXX 09004 07190 02735 71902 11030 21050 30029 40224 53015 60016 71072 875// 90000 333 61000=
07190,1996-02-09 03:00:00,-2,1022.8,0.4,86,-4,3000,3.704,,,220,,,,,,,,,,10,wg-a,,,,AAXX 09034 07190 12530 72202 11020 21040 30033 40228 53004 60006 71022 875// 90300=
07190,1996-02-09 06:00:00,-2,1022.8,-0,86,-4,4000,14.816,,,180,-3.3,-1.9,,,,,2,,,10,wg-a,,6,,AAXX 09064 07190 12540 /1808 11020 21040 30033 40228 55000 60024 71022 86500 90600 333 11019 21033 4/006=
07190,1996-02-09 09:00:00,-1,1022.8,0.1,80,-4,3000,3.704,,,210,,,,,,,,,,10,wg-a,,,,AAXX 09094 07190 12730 22102 11010 21040 30034 40228 51001 60006 71011 82500 90900=
07190,1996-02-09 12:00:00,2,1020.9,-1.6,69,-3,6000,7.408,,,160,,,,,,,,,,,wg-a,,,,AAXX 09124 07190 12/56 61604 10020 21030 30018 40209 58016 60006 80004 91200=
07190,1996-02-09 15:00:00,3,1018.8,-2,56,-5,10000,7.408,,,110,,,,,,,,,,,wg-a,,,,AAXX 09154 07190 12/60 71104 10030 21050 39998 40188 57020 60006 80001 91500=
07190,1996-02-09 18:00:00,0,1017.5,-1.5,74,-4,7000,0,,,0,-3.3,4.2,,,,,,,,,wg-a,,0,,AAXX 09184 07190 12/57 80000 10000 21040 39983 40175 56015 60006 82032 91800 333 10042 21033 4/9999=
07190,1996-02-09 21:00:00,-3,1016.6,-1.1,93,-4,6000,3.704,,,170,,,,,,,,,,,wg-a,,,,AAXX 09214 07190 12/56 /1702 11030 21040 39972 40166 58011 60006 80001 92100=
07190,1996-02-10 00:00:00,-3,1015.4,-1.1,86,-5,7000,3.704,,,190,,,,,,,,,,,wg-a,,,,AAXX 10004 07190 12757 71902 11030 21050 39961 40154 58011 60006 815/2 90000=
07190,1996-02-10 03:00:00,-2,1014.3,-1.1,86,-4,7000,7.408,,,180,,,,,,,,,,,wg-a,,,,AAXX 10034 07190 12/57 /1804 11020 21040 39950 40143 58011 60006 90300=
07190,1996-02-10 06:00:00,0,1014.4,0.2,74,-4,8000,11.112,,,170,-3,-0.2,,,,,,,,,wg-a,,0,,AAXX 10064 07190 02658 81706 10000 21040 39952 40144 53002 60006 875// 90600 333 11002 21030 4/9999 60004=
07190,1996-02-10 09:00:00,1,1014.8,0.5,80,-2,8000,18.52,,,180,,,,,,,,,,22,wg-a,,,,AAXX 10094 07190 02558 /1810 10010 21020 39957 40148 53005 61000 72272 86800 90900 333 ////=
07190,1996-02-10 12:00:00,6,1014.6,0.1,75,2,12000,14.816,,,190,,,,,,,,,,1,wg-a,,,,AAXX 10124 07190 02562 /1908 10060 20020 39958 40146 50001 61000 70172 85500 91200 333 ////=
07190,1996-02-10 15:00:00,6,1014.3,-0.2,75,2,15000,14.816,,,200,,,,,,,,,,,wg-a,,,,AAXX 10154 07190 12565 /2008 10060 20020 39956 40143 56002 60006 86800 91500=
07190,1996-02-10 18:00:00,4,1015,0.5,81,1,12000,11.112,,,200,-0.4,7.6,,,,,,,,,wg-a,,,,AAXX 10184 07190 32662 /2006 10040 20010 39961 40150 53005 86500 91800 333 10076 21004=
07190,1996-02-10 21:00:00,2,1015.6,0.5,93,1,10000,0,,,0,,,,0,,,,,,26,wg-a,,,,AAXX 10214 07190 12660 70000 10020 20010 39966 40156 53005 60007 72687 878// 92100=
07190,1996-02-11 00:00:00,2,1014.8,-0.8,93,1,8000,7.408,,,220,,,,0,,,,,,0,wg-a,,,,AAXX 11004 07190 02558 72204 10020 20010 39958 40148 57008 60016 70087 878// 90000 333 60007=
07190,1996-02-11 06:00:00,2,1014.6,0.4,93,1,13000,7.408,,,170,1.5,4.1,,0,,,1,,,25,wg-a,,,,AAXX 11064 07190 02463 81704 10020 20010 39956 40146 51004 60014 72586 888// 90600 333 10041 20015 60007=
07190,1996-02-11 09:00:00,4,1015.5,1,87,2,20000,7.408,,,180,,,,,,,,,,,wg-a,,,,AAXX 11094 07190 12570 71804 10040 20020 39966 40155 51010 60006 878// 90900=
07190,1996-02-11 12:00:00,6,1015.1,-0.3,81,3,20000,18.52,,,180,,,,,,,,,,,wg-a,,,,AAXX 11124 07190 12470 71810 10060 20030 39963 40151 58003 60006 878// 91200=
07190,1996-02-11 15:00:00,6,1014.7,-0.3,75,2,15000,14.816,,,190,,,,1,,,,,,1,wg-a,,,,AAXX 11154 07190 12565 71908 10060 20020 39960 40147 58003 60017 70186 8486/ 91500=
07190,1996-02-11 18:00:00,3,1015.5,0.6,93,2,20000,11.112,,,180,2.1,6.1,,,,,,,,1,wg-a,,,,AAXX 11184 07190 02570 /1806 10030 20020 39966 40155 53006 61000 70186 83431 91800 333 10061 20021 ////=
07190,1996-02-11 21:00:00,2,1016.1,0.5,93,1,20000,7.408,,,170,,,,,,,,,,,wg-a,,,,AAXX 11214 07190 12770 51704 10020 20010 39971 40161 53005 60006 85500 92100=
07190,1996-02-12 00:00:00,2,1016,-0.1,87,0,15000,14.816,,,170,,,,,,,,,,,wg-a,,,,AAXX 12004 07190 12765 71708 10020 20000 39970 40160 58001 60006 875// 90000=
07190,1996-02-12 03:00:00,2,1014.4,-1.6,87,0,15000,14.816,,,180,,,,,,,,,,,wg-a,,,,AAXX 12034 07190 12665 71808 10020 20000 39954 40144 58016 60006 875// 90300=
07190,1996-02-12 06:00:00,2,1011.9,-2.5,93,1,15000,11.112,,,190,0.7,3.3,,,,,1,,,,wg-a,,,,AAXX 12064 07190 02665 71906 10020 20010 39929 40119 58025 60006 875// 90600 333 10033 20007 60014=
07190,1996-02-12 09:00:00,4,1007.5,-4.1,81,1,500,18.52,,,180,,,,,,,,,,,wg-a,,,,AAXX 12094 07190 12600 71810 10040 20010 39888 40075 58041 60006 8357/ 90900=
07190,1996-02-12 12:00:00,7,999.8,-7.4,66,1,18000,31.484,,,180,,,,,,,,,,21,wg-a,,,,AAXX 12124 07190 02668 81817 10070 20010 39814 49998 58074 61000 72162 8552/ 91200 333 6100=
07190,1996-02-12 15:00:00,6,994.4,-5.4,87,4,9000,29.632,,,200,,,,3,,,,,,61,wg-a,,,,AAXX 12154 07190 12359 82016 10060 20040 39760 49944 56054 60037 76162 878// 91500=
07190,1996-02-12 18:00:00,5,995.2,0.7,75,1,25000,25.928,,,200,1.7,6.7,,2,,,,,,1,wg-a,,,,AAXX 12184 07190 12575 72014 10050 20010 39767 49952 51007 60027 70186 8487/ 91800 333 10067 20017=
07190,1996-02-12 21:00:00,4,993.6,-1.6,81,1,12000,25.928,,,170,,,,,,,,,,60,wg-a,,,,AAXX 12214 07190 02462 81714 10040 20010 39751 49936 58016 61000 76061 8687/ 92100 333 ////=
07190,1996-02-13 00:00:00,3,991.4,-2.2,93,2,10000,31.484,,,190,,,,4,,,,,,60,wg-a,,,,AAXX 13004 07190 02460 81917 10030 20020 39729 49914 55022 60046 76061 888// 90000 333 60047=
07190,1996-02-13 03:00:00,3,993.7,2.3,81,0,15000,25.928,,,220,,,,1,,,,,,21,wg-a,,,,AAXX 13034 07190 12465 82214 10030 20000 39752 49937 51023 60017 72162 888// 90300=
07190,1996-02-13 06:00:00,2,997,3.1,87,0,9000,14.816,,,220,1.4,4.9,,2,,,12,,,61,wg-a,,,,AAXX 13064 07190 02259 82208 10020 20000 39783 49970 52031 60124 76176 882// 90600 333 10049 20014 60027=
07190,1996-02-13 09:00:00,3,998.9,2,75,-1,15000,18.52,,,240,,,,0,,,,,,21,wg-a,,,,AAXX 13094 07190 12465 /2410 10030 21010 39803 49989 51020 60007 72176 8427/ 90900=
07190,1996-02-13 12:00:00,4,1000.9,2,75,0,18000,18.52,,,250,,,,,,,,,,3,wg-a,,,,AAXX 13124 07190 12568 72510 10040 20000 39823 40009 51020 60006 70376 875// 91200=
07190,1996-02-13 15:00:00,3,1003.3,2.3,81,0,12000,11.112,,,270,,,,,,,,,,60,wg-a,,,,AAXX 13154 07190 02562 82706 10030 20000 39846 40033 53023 61000 76062 888// 91500 333 ////=
07190,1996-02-13 18:00:00,2,1006.3,2.9,93,1,10000,11.112,,,280,1.5,4.2,,0,,,,,,61,wg-a,,,,AAXX 13184 07190 12360 82806 10020 20010 39875 40063 53029 60007 76162 888// 91800 333 10042 20015=
07190,1996-02-13 21:00:00,2,1009.3,2.9,87,0,10000,14.816,,,290,,,,0,,,,,,60,wg-a,,,,AAXX 13214 07190 12360 82908 10020 20000 39904 40093 53029 60007 76062 888// 92100=
07190,1996-02-14 00:00:00,1,1012,2.6,93,0,6000,11.112,,,320,,,,0,,,,,,70,wg-a,,,,AAXX 14004 07190 02256 83206 10010 20000 39930 40120 53026 60016 77076 888// 90000 333 60007=
07190,1996-02-14 03:00:00,1,1014.3,2.2,93,0,6000,14.816,,,310,,,,0,,,,,,3,wg-a,,,,AAXX 14034 07190 12256 83108 10010 20000 39952 40143 51022 60007 70372 888// 90300=
07190,1996-02-14 06:00:00,1,1017.4,3.1,86,-1,6000,11.112,,,330,0.6,2.4,,,,,1,,,3,wg-a,,,,AAXX 14064 07190 02456 83306 10010 21010 39983 40174 53031 60014 70372 885// 90600 333 10024 20006 61000=
07190,1996-02-14 09:00:00,1,1021.3,3.8,86,-1,3000,11.112,,,340,,,,0,,,,,,10,wg-a,,,,AAXX 14094 07190 12430 83406 10010 21010 30021 40213 51038 60007 71072 885// 90900=
07190,1996-02-14 12:00:00,1,1021.3,3.8,86,-1,3000,11.112,,,340,,,,0,,,,,,10,wg-a,,,,AAXX 14124 07190 12430 83406 10010 21010 30021 40213 51038 60007 71072 885// 91200=
07190,1996-02-14 15:00:00,1,1026.7,2.5,86,-1,10000,18.52,,,10,,,,,,,,,,3,wg-a,,,,AAXX 14154 07190 02260 80110 10010 21010 30074 40267 53025 61000 70376 888// 91500 333 ////=
07190,1996-02-14 18:00:00,1,1029,2.2,86,-1,500,7.408,,,350,0.7,1.5,,,,,,,,71,wg-a,,,,AAXX 14184 07190 02200 83504 10010 21010 30096 40290 53022 61000 77187 878// 91800 333 10015 20007 ////=
07190,1996-02-14 21:00:00,1,1031.5,2.5,86,-1,8000,7.408,,,350,,,,,,,,,,2,wg-a,,,,AAXX 14214 07190 02458 /3504 10010 21010 30121 40315 51025 61000 70272 878// 92100 333 ////=
07190,1996-02-15 00:00:00,1,1032.6,1.1,80,-2,8000,14.816,,,30,,,,,,,,,,70,wg-a,,,,AAXX 15004 07190 02458 80308 10010 21020 30132 40326 51011 61000 77072 888// 90000 333 6100=
07190,1996-02-15 03:00:00,0,1033.2,0.5,86,-2,9000,14.816,,,10,,,,,,,,,,0,wg-a,,,,AAXX 15034 07190 02459 /0108 10000 21020 30137 40332 53005 61000 70072 86800 90300 333 ////=
07190,1996-02-15 06:00:00,0,1034.7,1.5,86,-2,7000,18.52,,,10,-0.2,0.9,,,,,,,,1,wg-a,,,,AAXX 15064 07190 12457 70110 10000 21020 30152 40347 52015 60004 70172 878// 90600 333 10009 21002=
07190,1996-02-15 09:00:00,1,1035.4,0.7,80,-2,8000,11.112,,,40,,,,,,,,,,,wg-a,,,,AAXX 15094 07190 12658 /0406 10010 21020 30159 40354 51007 60006 83501 90900=
07190,1996-02-15 12:00:00,3,1034.5,-0.7,65,-3,12000,7.408,,,30,,,,,,,,,,,wg-a,,,,AAXX 15124 07190 12462 70304 10030 21030 30152 40345 58007 60006 86801 91200=
07190,1996-02-15 15:00:00,3,1033.5,-1,60,-4,12000,3.704,,,40,,,,,,,,,,,wg-a,,,,AAXX 15154 07190 12562 70402 10030 21040 30142 40335 57010 60006 878// 91500=
07190,1996-02-15 18:00:00,2,1033.2,-0.4,69,-3,12000,7.408,,,290,-0.3,3.8,,,,,,,,,wg-a,,,,AAXX 15184 07190 12562 72904 10020 21030 30138 40332 56004 60006 875// 91800 333 10038 21003=
07190,1996-02-15 21:00:00,1,1032.4,-0.8,75,-3,12000,7.408,,,230,,,,,,,,,,,wg-a,,,,AAXX 15214 07190 12662 72304 10010 21030 30130 40324 58008 60006 875// 92100=
07190,1996-02-16 00:00:00,-1,1031.8,-0.7,86,-3,12000,7.408,,,230,,,,,,,,,,,wg-a,,,,AAXX 16004 07190 12/62 42304 11010 21030 30123 40318 56007 60006 84030 90000=
07190,1996-02-16 03:00:00,0,1030.2,-1.5,86,-2,7000,0,,,0,,,,,,,,,,70,wg-a,,,,AAXX 16034 07190 02757 70000 10000 21020 30108 40302 56015 61000 77071 875// 90300 333 ////=
07190,1996-02-16 06:00:00,0,1029.5,-0.8,93,-1,500,14.816,,,180,-0.7,1.9,,1,,,1,,,10,wg-a,,0,,AAXX 16064 07190 02200 81808 10000 21010 30100 40295 58008 60014 71076 875// 90600 333 10019 21007 4/9999 60017=
07190,1996-02-16 09:00:00,0,1028.9,-0.5,93,-1,6000,14.816,,,180,,,,,,,,,,1,wg-a,,,,AAXX 16094 07190 02356 81808 10000 21010 30095 40289 58005 61000 70176 885// 90900 333 ////=
07190,1996-02-16 12:00:00,1,1027.2,-1.6,86,-1,500,22.224,,,190,,,,0,,,,,,61,wg-a,,,,AAXX 16124 07190 02500 81912 10010 21010 30079 40272 58016 60006 76176 885// 91200 333 60007=
07190,1996-02-16 15:00:00,1,1025.3,-2,93,0,3000,22.224,,,180,,,,0,,,,,,10,wg-a,,,,AAXX 16154 07190 12330 81812 10010 20000 30060 40253 56020 60007 71062 887// 91500=
07190,1996-02-16 18:00:00,2,1024.1,-1,87,0,500,22.224,,,180,-0.5,1.6,,1,,,,,,21,wg-a,,,,AAXX 16184 07190 12200 81812 10020 20000 30049 40241 56010 60017 72162 885// 91800 333 10016 21005=
07190,1996-02-16 21:00:00,3,1022.8,-1.2,87,1,8000,18.52,,,180,,,,,,,,,,,wg-a,,,,AAXX 16214 07190 12458 81810 10030 20010 30037 40228 57012 60006 885// 92100=
07190,1996-02-17 00:00:00,4,1022.2,-0.5,87,2,7000,25.928,,,220,,,,0,,,,,,1,wg-a,,,,AAXX 17004 07190 02457 62214 10040 20020 30032 40222 58005 60006 70162 86500 90000 333 60007=
07190,1996-02-17 06:00:00,5,1019.3,-0,87,3,6000,11.112,,,250,1.5,5.5,,1,,,2,,,61,wg-a,,,,AAXX 17064 07190 02256 72506 10050 20030 30004 40193 55000 60024 76162 878// 90600 333 10055 20015 60017=
07190,1996-02-17 09:00:00,5,1019.2,-0,81,2,15000,22.224,,,260,,,,,,,,,,25,wg-a,,,,AAXX 17094 07190 02465 /2612 10050 20020 30004 40192 55000 61000 72586 878// 90900 333 ////=
07190,1996-02-17 12:00:00,8,1018.7,-0.4,66,2,18000,31.484,,,280,,,,,,,,,,1,wg-a,,,,AAXX 17124 07190 02568 /2817 10080 20020 30000 40187 56004 61000 70186 85800 91200 333 ////=
07190,1996-02-17 15:00:00,7,1020.1,1.3,66,1,18000,22.224,,,280,,,,2,,,,,,3,wg-a,,,,AAXX 17154 07190 12568 52812 10070 20010 30013 40201 53013 60027 70381 84260 91500=
07190,1996-02-17 18:00:00,3,1022.4,2,81,0,15000,11.112,,,190,3.2,8.1,,,,,,,,1,wg-a,,,,AAXX 17184 07190 02565 21906 10030 20000 30033 40224 51020 61000 70187 82201 91800 333 10081 20032 ////=
07190,1996-02-17 21:00:00,2,1022.2,-0.2,87,0,20000,14.816,,,220,,,,,,,,,,,wg-a,,,,AAXX 17214 07190 12670 42208 10020 20000 30031 40222 58002 60006 82501 92100=
07190,1996-02-18 00:00:00,4,1021,-1.1,81,1,20000,14.816,,,210,,,,,,,,,,,wg-a,,,,AAXX 18004 07190 12570 72108 10040 20010 30020 40210 57011 60006 85502 90000=
07190,1996-02-18 12:00:00,6,1003.7,-5.2,81,3,15000,35.188,,,190,,,,0,,,,,,60,wg-a,,,,AAXX 18124 07190 02565 81919 10060 20030 39852 40037 58052 60016 76062 888// 91200 333 60007=
07190,1996-02-18 15:00:00,6,999.3,-4.3,75,2,15000,31.484,,,180,,,,0,,,,,,61,wg-a,,,,AAXX 18154 07190 12465 81817 10060 20020 39809 49993 56043 60007 76186 8687/ 91500=
07190,1996-02-18 18:00:00,4,999.3,-0.2,81,1,15000,25.928,,44.448,200,3.8,6.6,,1,,,,,,21,wg-a,,,,AAXX 18184 07190 12465 /2014 10040 20010 39807 49993 58002 60017 72186 8287/ 91800 333 10066 20038 91024=
07190,1996-02-18 21:00:00,3,999,-0.3,81,0,15000,14.816,,,190,,,,,,,,,,,wg-a,,,,AAXX 18214 07190 12565 61908 10030 20000 39804 49990 58003 60006 85801 92100=
07190,1996-02-19 00:00:00,3,998.5,-0.5,87,1,15000,14.816,,,180,,,,,,,,,,,wg-a,,,,AAXX 19004 07190 12565 /1808 10030 20010 39799 49985 56005 60006 86800 90000=
07190,1996-02-19 03:00:00,3,996.7,-1.8,87,1,15000,14.816,,,180,,,,,,,,,,,wg-a,,,,AAXX 19034 07190 12565 /1808 10030 20010 39781 49967 56018 60006 86800 90300=
07190,1996-02-19 06:00:00,3,996.2,-0.5,87,1,12000,22.224,,,190,2.4,4.1,,,,,2,,,15,wg-a,,,,AAXX 19064 07190 02662 71912 10030 20010 39776 49962 56005 60006 71522 872// 90600 333 10041 20024 60024=
07190,1996-02-19 09:00:00,3,995.9,-0.3,87,1,25000,22.224,,,190,,,,1,,,,,,27,wg-a,,,,AAXX 19094 07190 12575 71912 10030 20010 39773 49959 58003 60017 72787 878// 90900=
07190,1996-02-19 12:00:00,4,995.6,-0.2,81,1,8000,29.632,,,220,,,,0,,,,,,80,wg-a,,,,AAXX 19124 07190 02558 72216 10040 20010 39771 49956 56002 60016 78087 8683/ 91200 333 60007=
07190,1996-02-19 15:00:00,6,994.2,-1.3,75,2,25000,14.816,,,180,,,,0,,,,,,3,wg-a,,,,AAXX 19154 07190 12575 71808 10060 20020 39758 49942 56013 60007 70386 8481/ 91500=
07190,1996-02-19 18:00:00,4,995.3,1,87,2,15000,11.112,,,240,1.8,6.9,,,,,,,,60,wg-a,,,,AAXX 19184 07190 02365 82406 10040 20020 39768 49953 53010 61000 76086 878// 91800 333 10069 20018 ////=
07190,1996-02-19 21:00:00,1,998.1,2.5,93,0,8000,7.408,,,100,,,,2,,,,,,22,wg-a,,,,AAXX 19214 07190 12158 81004 10010 20000 39793 49981 53025 60027 72276 875// 92100=
07190,1996-02-20 00:00:00,0,1000.7,2.6,100,0,2800,7.408,,,150,,,,1,,,,,,10,wg-a,,,,AAXX 20004 07190 02128 81504 10000 20000 39819 40007 53026 60026 71076 876// 90000 333 60017=
07190,1996-02-20 03:00:00,0,1003.4,2.6,80,-3,8000,11.112,,,260,,,,,,,,,,1,wg-a,,,,AAXX 20034 07190 02258 82606 10000 21030 39845 40034 51026 61000 70172 875// 90300 333 ////=
07190,1996-02-20 06:00:00,0,1006.5,3,69,-5,20000,11.112,,,290,-0.4,4,,,,,3,,,3,wg-a,,0,,AAXX 20064 07190 12570 82906 10000 21050 39875 40065 53030 60034 70372 875// 90600 333 10040 21004 4/9999=
07190,1996-02-20 09:00:00,0,1008.8,2.3,74,-4,20000,7.408,,,160,,,,,,,,,,1,wg-a,,,,AAXX 20094 07190 02570 51604 10000 21040 39898 40088 51023 61000 70172 83831 90900 333 ////=
07190,1996-02-20 12:00:00,2,1010.2,1.4,69,-3,20000,3.704,,,60,,,,,,,,,,3,wg-a,,,,AAXX 20124 07190 02570 70602 10020 21030 39912 40102 51014 61000 70372 878// 91200 333 ////=
07190,1996-02-20 15:00:00,1,1011.3,1.1,75,-3,15000,11.112,,,20,,,,,,,,,,3,wg-a,,,,AAXX 20154 07190 02565 80206 10010 21030 39923 40113 53011 61000 70372 888// 91500 333 ////=
07190,1996-02-20 18:00:00,1,1013,1.6,80,-2,9000,11.112,,,350,-0.4,1.8,,,,,,,,70,wg-a,,,,AAXX 20184 07190 02659 83506 10010 21020 39939 40130 53016 61000 77072 875// 91800 333 10018 21004 ////=
07190,1996-02-20 21:00:00,0,1013.3,0.3,93,-1,6000,14.816,,,20,,,,,,,,,,70,wg-a,,,,AAXX 20214 07190 02256 80208 10000 21010 39942 40133 51003 61000 77077 886// 92100 333 ////=
07190,1996-02-21 00:00:00,0,1013.7,0.4,86,-2,9000,25.928,,,20,,,,,,,,,,1,wg-a,,,,AAXX 21004 07190 02459 80214 10000 21020 39946 40137 50004 61000 70172 885// 90000 333 6100=
07190,1996-02-21 03:00:00,-1,1013.9,0.1,86,-3,11000,29.632,,,30,,,,,,,,,,,wg-a,,,,AAXX 21034 07190 12461 80316 11010 21030 39947 40139 50001 60006 875// 90300=
07190,1996-02-21 06:00:00,-1,1015.2,1.2,80,-4,12000,25.928,,,20,-1.4,0.6,,,,,,,,,wg-a,,,,AAXX 21064 07190 02462 70214 11010 21040 39959 40152 52012 61000 878// 90600 333 10006 21014 ////=
07190,1996-02-21 09:00:00,-2,1015.9,0.7,80,-5,12000,25.928,,,20,,,,,,,,,,,wg-a,,,,AAXX 21094 07190 12462 70214 11020 21050 39966 40159 53007 60006 878// 90900=
07190,1996-02-21 12:00:00,-2,1016.1,0.2,74,-6,15000,25.928,,,20,,,,,,,,,,,wg-a,,,,AAXX 21124 07190 12465 70214 11020 21060 39968 40161 50002 60006 875// 91200=
07190,1996-02-21 15:00:00,-2,1016.2,0.1,63,-8,20000,25.928,,,20,,,,,,,,,,22,wg-a,,,,AAXX 21154 07190 02570 80214 11020 21080 39969 40162 53001 61000 72272 878// 91500 333 ////=
07190,1996-02-21 18:00:00,-3,1017.8,1.5,68,-8,15000,18.52,,,10,-2.9,-1.5,,,,,,,,3,wg-a,,,,AAXX 21184 07190 02565 70110 11030 21080 39984 40178 53015 61000 70372 878// 91800 333 11015 21029 ////=
07190,1996-02-21 21:00:00,-3,1019,1.1,74,-7,10000,14.816,,,340,,,,,,,,,,,wg-a,,,,AAXX 21214 07190 12460 83408 11030 21070 39995 40190 51011 60006 888// 92100=
07190,1996-02-22 00:00:00,-4,1019.4,0.4,74,-8,10000,11.112,,,330,,,,,,,,,,,wg-a,,,,AAXX 22004 07190 12560 83306 11040 21080 39999 40194 51004 60006 885// 90000=
07190,1996-02-22 03:00:00,-4,1019.2,-0.2,74,-8,12000,11.112,,,320,,,,,,,,,,,wg-a,,,,AAXX 22034 07190 12562 83206 11040 21080 39997 40192 58002 60006 885// 90300=
07190,1996-02-22 06:00:00,-4,1020.5,1.2,68,-9,8000,7.408,,,310,-4.3,-2.8,,,,,,,,,wg-a,,,,AAXX 22064 07190 02658 83104 11040 21090 30009 40205 51012 60006 885// 90600 333 11028 21043 61000=
07190,1996-02-22 09:00:00,-3,1021.3,0.9,68,-8,12000,7.408,,,290,,,,,,,,,,3,wg-a,,,,AAXX 22094 07190 02562 62904 11030 21080 30018 40213 51009 61000 70372 82102 90900 333 ////=
07190,1996-02-22 12:00:00,-3,1021.2,-0.1,68,-8,12000,18.52,,,320,,,,,,,,,,26,wg-a,,,,AAXX 22124 07190 02562 63210 11030 21080 30017 40212 58001 61000 72687 85802 91200 333 6100=
07190,1996-02-22 15:00:00,-2,1020.9,-0.2,59,-9,18000,18.52,,,330,,,,,,,,,,,wg-a,,,,AAXX 22154 07190 12668 43310 11020 21090 30015 40209 55002 60006 84400 91500=
07190,1996-02-22 18:00:00,-3,1022.4,1.4,63,-9,12000,7.408,,,290,-4.3,-1.8,,,,,,,,16,wg-a,,,,AAXX 22184 07190 02562 /2904 11030 21090 30029 40224 51014 61000 71687 85800 91800 333 11018 21043 ////=
07190,1996-02-22 21:00:00,-4,1022.4,-0.1,68,-9,15000,7.408,,,240,,,,,,,,,,,wg-a,,,,AAXX 22214 07190 12665 32404 11040 21090 30028 40224 58001 60006 83500 92100=
07190,1996-02-23 00:00:00,-5,1021.7,-0.8,79,-8,15000,7.408,,,150,,,,,,,,,,,wg-a,,,,AAXX 23004 07190 12565 31504 11050 21080 30020 40217 57008 60006 83800 90000=
07190,1996-02-23 03:00:00,-7,1020.5,-1.3,86,-9,15000,7.408,,,190,,,,,,,,,,,wg-a,,,,AAXX 23034 07190 12665 31904 11070 21090 30007 40205 57013 60006 83500 90300=
07190,1996-02-23 06:00:00,-8,1020,-0.6,85,-10,8000,7.408,,,200,-8.3,-3.2,,,,,,,,,wg-a,,,,AAXX 23064 07190 02658 /2004 11080 21100 30001 40200 56006 60006 81501 90600 333 11032 21083 61000=
07190,1996-02-23 09:00:00,-4,1019.9,0.3,74,-8,10000,7.408,,,160,,,,,,,,,,,wg-a,,,,AAXX 23094 07190 12/60 21604 11040 21080 30004 40199 51003 60006 8203/ 90900=
07190,1996-02-23 12:00:00,0,1018.6,-1,51,-9,25000,7.408,,,170,,,,,,,,,,,wg-a,,,,AAXX 23124 07190 12575 21704 10000 21090 39994 40186 58010 60006 81230 91200=
07190,1996-02-23 15:00:00,1,1017.9,-0.6,40,-11,25000,3.704,,,210,,,,,,,,,,,wg-a,,,,AAXX 23154 07190 12675 /2102 10010 21110 39988 40179 58006 60006 81200 91500=
07190,1996-02-23 18:00:00,-2,1019,0.8,54,-10,25000,3.704,,,210,-8.3,1.4,,,,,,,,,wg-a,,,,AAXX 23184 07190 12/75 22102 11020 21100 39996 40190 53008 60006 80001 91800 333 10014 21083=
07190,1996-02-23 21:00:00,-4,1019.5,0.4,68,-9,20000,3.704,,,200,,,,,,,,,,,wg-a,,,,AAXX 23214 07190 12/70 02002 11040 21090 30000 40195 53004 60006 80000 92100=
07190,1996-02-24 00:00:00,-6,1019.9,0.2,79,-9,12000,7.408,,,180,,,,,,,,,,,wg-a,,,,AAXX 24004 07190 12/62 01804 11060 21090 30002 40199 50002 60006 80000 90000=
07190,1996-02-24 03:00:00,-7,1019.3,-0.6,86,-9,10000,7.408,,,160,,,,,,,,,,,wg-a,,,,AAXX 24034 07190 12/60 21604 11070 21090 39996 40193 58006 60006 80001 90300=
07190,1996-02-24 06:00:00,-4,1018.3,-0.8,80,-7,7000,11.112,,,170,-6.9,-1.8,,,,,,,,,wg-a,,,,AAXX 24064 07190 02657 71706 11040 21070 39988 40183 58008 60006 875// 90600 333 11018 21069 60004=
07190,1996-02-24 09:00:00,-2,1017.9,-0.3,80,-5,7000,14.816,,,170,,,,,,,,,,,wg-a,,,,AAXX 24094 07190 12657 /1708 11020 21050 39985 40179 58003 60006 86501 90900=
07190,1996-02-24 12:00:00,4,1015.8,-1.6,65,-2,12000,14.816,,,160,,,,,,,,,,,wg-a,,,,AAXX 24124 07190 12762 /1608 10040 21020 39969 40158 58016 60006 85502 91200=
07190,1996-02-24 15:00:00,5,1014.3,-1.4,56,-3,15000,18.52,,,180,,,,,,,,,,,wg-a,,,,AAXX 24154 07190 12665 71810 10050 21030 39955 40143 56014 60006 84531 91500=
07190,1996-02-24 18:00:00,3,1014.3,-0.1,65,-3,15000,11.112,,,180,-4.1,5.7,,,,,,,,,wg-a,,,,AAXX 24184 07190 12665 /1806 10030 21030 39954 40143 55001 60006 85532 91800 333 10057 21041=
07190,1996-02-24 21:00:00,3,1013.9,-0.5,65,-3,15000,14.816,,,180,,,,,,,,,,,wg-a,,,,AAXX 24214 07190 12765 /1808 10030 21030 39949 40139 56005 60006 85530 92100=
07190,1996-02-25 00:00:00,1,1013.3,-0.6,69,-4,12000,18.52,,,170,,,,,,,,,,,wg-a,,,,AAXX 25004 07190 12762 51710 10010 21040 39943 40133 58006 60006 83530 90000=
07190,1996-02-25 03:00:00,1,1012.7,-0.6,69,-4,12000,22.224,,,170,,,,,,,,,,,wg-a,,,,AAXX 25034 07190 12762 71712 10010 21040 39937 40127 58006 60006 8653/ 90300=
07190,1996-02-25 06:00:00,2,1012.4,-0.3,69,-3,12000,14.816,,,170,0,3.3,,,,,,,,,wg-a,,,,AAXX 25064 07190 02762 71708 10020 21030 39934 40124 58003 60006 83531 90600 333 10033 20000 60004=
07190,1996-02-25 09:00:00,3,1012.9,0.6,65,-3,25000,11.112,,,150,,,,,,,,,,,wg-a,,,,AAXX 25094 07190 12775 61506 10030 21030 39940 40129 51006 60006 81572 90900=
07190,1996-02-25 12:00:00,8,1011.4,-1.1,57,0,10000,18.52,,,170,,,,,,,,,,,wg-a,,,,AAXX 25124 07190 12/60 51710 10080 20000 39929 40114 57011 60006 81032 91200=
07190,1996-02-25 14:00:00,11,1010.2,-1,50,1,500,18.52,,,170,,,,,,,,,,,wg-a,,,,AAXX 25144 07190 12/00 61710 10110 20010 39919 40102 56010 60006 91400=
07190,1996-02-25 15:00:00,11,1010.2,-1,50,1,500,18.52,,,170,,,,,,,,,,,wg-a,,,,AAXX 25154 07190 12/00 61710 10110 20010 39919 40102 56010 60006 81032 91500=
07190,1996-02-25 18:00:00,8,1010.5,0.1,57,0,25000,18.52,,,160,1.4,11.3,,,,,,,,,wg-a,,,,AAXX 25184 07190 12/75 21610 10080 20000 39920 40105 53001 60006 81032 91800 333 10113 20014=
07190,1996-02-25 21:00:00,5,1012,1.2,65,-1,500,14.816,,,190,,,,,,,,,,,wg-a,,,,AAXX 25214 07190 12/00 11908 10050 21010 39932 40120 51012 60006 80001 92100=
07190,1996-02-26 00:00:00,4,1013,1,65,-2,25000,14.816,,,170,,,,,,,,,,,wg-a,,,,AAXX 26004 07190 12/75 01708 10040 21020 39942 40130 53010 60006 80000 90000=
07190,1996-02-26 03:00:00,1,1013.3,0.1,80,-2,25000,11.112,,,130,,,,,,,,,,,wg-a,,,,AAXX 26034 07190 12/75 01306 10010 21020 39943 40133 50001 60006 80000 90300=
07190,1996-02-26 06:00:00,1,1014,0.6,80,-2,500,3.704,,,110,0.6,8.2,,,,,,,,,wg-a,,,,AAXX 26064 07190 02700 21102 10010 21020 39949 40140 53006 60006 81101 90600 333 10082 20006 60004=
07190,1996-02-26 09:00:00,7,1014.6,1,57,-1,500,14.816,,,170,,,,,,,,,,,wg-a,,,,AAXX 26094 07190 12700 21708 10070 21010 39959 40146 51010 60006 81131 90900=
07190,1996-02-26 12:00:00,11,1014.3,0,47,0,35000,14.816,,,180,,,,,,,,,,,wg-a,,,,AAXX 26124 07190 12781 51808 10110 20000 39959 40143 50000 60006 83531 91200=
07190,1996-02-26 15:00:00,15,1013.6,-0.5,31,-2,500,11.112,,,210,,,,,,,,,,,wg-a,,,,AAXX 26154 07190 12700 32106 10150 21020 39954 40136 56005 60006 81531 91500=
07190,1996-02-26 18:00:00,9,1014.7,0.8,53,0,35000,7.408,,,350,0.5,14.8,,,,,,,,,wg-a,,,,AAXX 26184 07190 12781 43504 10090 20000 39962 40147 51008 60006 81531 91800 333 10148 20005=
07190,1996-02-26 21:00:00,4,1015.9,0.8,75,0,500,7.408,,,310,,,,,,,,,,,wg-a,,,,AAXX 26214 07190 12/00 33104 10040 20000 39970 40159 51008 60006 82031 92100=
07190,1996-02-27 00:00:00,0,1017.2,1,86,-2,25000,3.704,,,130,,,,,,,,,,,wg-a,,,,AAXX 27004 07190 12/75 31302 10000 21020 39980 40172 53010 60006 82031 90000=
07190,1996-02-27 03:00:00,-1,1017.4,0.1,93,-2,20000,3.704,,,240,,,,,,,,,,,wg-a,,,,AAXX 27034 07190 12/70 12402 11010 21020 39981 40174 52001 60006 81031 90300=
07190,1996-02-27 06:00:00,-2,1018.1,0.7,93,-3,20000,7.408,,,80,-1.7,9.3,,,,,,,,,wg-a,,,,AAXX 27064 07190 02/70 10804 11020 21030 39988 40181 50007 60006 81031 90600 333 10093 21017 60004=
07190,1996-02-27 09:00:00,3,1018.7,0.9,81,0,10000,7.408,,,350,,,,,,,,,,,wg-a,,,,AAXX 27094 07190 12/60 /3504 10030 20000 39997 40187 51009 60006 81032 90900=
07190,1996-02-27 12:00:00,8,1018,-0.3,57,0,10000,7.408,,,10,,,,,,,,,,,wg-a,,,,AAXX 27124 07190 12/60 20104 10080 20000 39994 40180 58003 60006 80002 91200=
07190,1996-02-27 18:00:00,7,1018.8,1.2,76,3,7000,3.704,,,290,-1.6,11.2,,,,,,,,,wg-a,,,,AAXX 27184 07190 12/57 52902 10070 20030 30001 40188 53012 60006 83042 91800 333 10112 21016=
07190,1996-02-27 21:00:00,3,1019.7,0.6,81,0,6000,3.704,,,270,,,,,,,,,,,wg-a,,,,AAXX 27214 07190 12/56 22702 10030 20000 30007 40197 53006 60006 81042 92100=
07190,1996-02-28 00:00:00,1,1020.8,0.9,86,-1,7000,3.704,,,220,,,,,,,,,,,wg-a,,,,AAXX 28004 07190 12/57 /2202 10010 21010 30016 40208 52009 60006 85042 90000=
07190,1996-02-28 03:00:00,1,1021.2,0.4,93,0,6000,0,,,0,,,,,,,,,,,wg-a,,,,AAXX 28034 07190 12/56 70000 10010 20000 30020 40212 51004 60006 8703/ 90300=
07190,1996-02-28 06:00:00,1,1021.8,0.6,93,0,4000,3.704,,,20,0.6,7,,,,,,,,10,wg-a,,,,AAXX 28064 07190 02740 70202 10010 20000 30026 40218 53006 60006 71022 8353/ 90600 333 10070 20006 60004=
07190,1996-02-28 09:00:00,5,1022.6,1,75,1,3500,3.704,,,20,,,,,,,,,,10,wg-a,,,,AAXX 28094 07190 12735 60202 10050 20010 30036 40226 51010 60006 71022 84530 90900=
07190,1996-02-28 12:00:00,9,1021.9,-0.4,61,2,6000,7.408,,,350,,,,,,,,,,,wg-a,,,,AAXX 28124 07190 12/56 43504 10090 20020 30032 40219 58004 60006 84030 91200=
07190,1996-02-28 15:00:00,11,1021.6,-0.2,54,2,7000,14.816,,,340,,,,,,,,,,,wg-a,,,,AAXX 28154 07190 12/57 /3408 10110 20020 30030 40216 55002 60006 86030 91500=
07190,1996-02-28 18:00:00,7,1022.9,1.2,70,2,6000,11.112,,,350,1.3,10.9,,,,,,,,,wg-a,,,,AAXX 28184 07190 12/56 /3506 10070 20020 30041 40229 53012 60006 85030 91800 333 10109 20013=
07190,1996-02-28 21:00:00,5,1024.2,1,70,0,6000,7.408,,,10,,,,,,,,,,,wg-a,,,,AAXX 28214 07190 12/56 20104 10050 20000 30052 40242 52010 60006 82030 92100=
07190,1996-02-29 03:00:00,0,1025.4,0.4,86,-2,500,7.408,,,330,,,,,,,,,,,wg-a,,,,AAXX 29034 07190 12/00 03304 10000 21020 30060 40254 51004 60006 80000 90300=
07190,1996-02-29 06:00:00,0,1026.9,1.5,86,-2,3200,11.112,,,350,-0.6,7.4,,,,,,,,10,wg-a,,,,AAXX 29064 07190 02/32 03506 10000 21020 30075 40269 53015 60006 71000 80000 90600 333 10074 21006 60004=
07190,1996-02-29 09:00:00,3,1028,1.3,75,-1,4000,11.112,,,20,,,,,,,,,,10,wg-a,,,,AAXX 29094 07190 12/40 00206 10030 21010 30088 40280 53013 60006 71000 80000 90900=
07190,1996-02-29 12:00:00,8,1027.3,-0.3,53,-1,0,11.112,,,30,,,,,,,,,,,wg-a,,,,AAXX 29124 07190 12/// 20306 10080 21010 30085 40273 58003 60006 80001 91200=
07190,1996-02-29 15:00:00,10,1026.8,-0.4,46,-1,7000,14.816,,,10,,,,,,,,,,,wg-a,,,,AAXX 29154 07190 12/57 20108 10100 21010 30081 40268 55004 60006 80001 91500=
07190,1996-02-29 18:00:00,7,1027.2,0.2,66,1,500,7.408,,,300,-0.4,10.4,,,,,,,,,wg-a,,,,AAXX 29184 07190 12/00 73004 10070 20010 30083 40272 53002 60006 83034 91800 333 10104 21004=
07190,1996-02-29 21:00:00,4,1027.1,-0.3,81,1,6000,0,,,0,,,,,,,,,,,wg-a,,,,AAXX 29214 07190 12756 70000 10040 20010 30080 40271 58003 60006 84532 92100=
07190,1996-03-01 00:00:00,4,1027.3,0.3,75,0,6000,11.112,,,360,,,,,,,,,,,wg-a,,,,AAXX 01004 07190 12756 73606 10040 20000 30082 40273 53003 60006 875// 90000=
07190,1996-03-01 03:00:00,4,1026.3,-1,75,0,6000,11.112,,,330,,,,,,,,,,,wg-a,,,,AAXX 01034 07190 12756 73306 10040 20000 30072 40263 58010 60006 875// 90300=
07190,1996-03-01 06:00:00,4,1026,-0.1,75,0,6000,14.816,,,310,2.9,7.1,,,,,,,,,wg-a,,,,AAXX 01064 07190 02656 73108 10040 20000 30069 40260 55001 60006 875// 90600 333 10071 20029 60004=
07190,1996-03-01 09:00:00,3,1027.5,1.3,60,-4,20000,11.112,,,320,,,,,,,,,,,wg-a,,,,AAXX 01094 07190 12670 83206 10030 21040 30083 40275 50013 60006 875// 90900=
07190,1996-03-01 12:00:00,4,1026.7,-0.7,52,-5,18000,18.52,,,330,,,,,,,,,,,wg-a,,,,AAXX 01124 07190 12568 73310 10040 21050 30076 40267 58007 60006 874// 91200=
07190,1996-03-01 15:00:00,4,1025.1,-1.5,60,-3,15000,7.408,,,300,,,,,,,,,,,wg-a,,,,AAXX 01154 07190 12665 73004 10040 21030 30061 40251 58015 60006 875// 91500=
07190,1996-03-01 18:00:00,3,1025,-0.2,81,0,10000,11.112,,,270,2.2,4.5,,,,,,,,21,wg-a,,,,AAXX 01184 07190 02460 82706 10030 20000 30059 40250 55002 61000 72162 888// 91800 333 10045 20022 ////=
07190,1996-03-01 19:00:00,3,1025,-0.2,81,0,10000,11.112,,,270,2.2,4.5,,,,,,,,21,wg-a,,,,AAXX 01194 07190 32460 82706 10030 20000 30059 40250 55002 72162 888// 91900 333 10045 20022=
07190,1996-03-01 21:00:00,2,1024.6,-0.5,87,0,4000,14.816,,,100,,,,,,,,,,61,wg-a,,,,AAXX 01214 07190 02440 81008 10020 20000 30054 40246 56005 61000 76176 888// 92100 333 ////=
07190,1996-03-02 00:00:00,0,1025.2,0.5,100,0,500,3.704,,,330,,,,1,,,,,,1,wg-a,,,,AAXX 02004 07190 02400 73302 10000 20000 30059 40252 51005 60016 70187 878// 90000 333 60017=
07190,1996-03-02 03:00:00,-1,1024.7,-0.6,86,-3,12000,11.112,,,30,,,,,,,,,,,wg-a,,,,AAXX 02034 07190 12462 /0306 11010 21030 30053 40247 58006 60006 81800 90300=
07190,1996-03-02 06:00:00,-2,1025.5,0.7,86,-4,12000,11.112,,,340,-2.2,3,,,,,1,,,,wg-a,,0,,AAXX 02064 07190 12/62 43406 11020 21040 30060 40255 52007 60014 80002 90600 333 10030 21022 4/9999=
07190,1996-03-02 09:00:00,1,1025.6,0.3,75,-3,15000,11.112,,,20,,,,,,,,,,,wg-a,,,,AAXX 02094 07190 12/65 00206 10010 21030 30063 40256 52003 60006 80000 90900=
07190,1996-03-02 12:00:00,4,1024.3,-1.1,52,-5,500,14.816,,,30,,,,,,,,,,,wg-a,,,,AAXX 02124 07190 12600 /0308 10040 21050 30052 40243 58011 60006 81100 91200=
07190,1996-03-02 15:00:00,5,1022.3,-1.8,38,-8,35000,7.408,,,360,,,,,,,,,,,wg-a,,,,AAXX 02154 07190 12681 23604 10050 21080 30034 40223 56018 60006 82200 91500=
07190,1996-03-02 18:00:00,2,1022.1,-0.5,55,-6,500,0,,,0,-2.7,5.7,,,,,,,,,wg-a,,,,AAXX 02184 07190 12600 20000 10020 21060 30029 40221 55005 60006 81401 91800 333 10057 21027=
07190,1996-03-02 21:00:00,-2,1021.5,-0.8,74,-6,500,7.408,,,220,,,,,,,,,,,wg-a,,,,AAXX 02214 07190 12/00 32204 11020 21060 30021 40215 58008 60006 80001 92100=
07190,1996-03-03 00:00:00,-4,1020.8,-0.9,86,-6,20000,0,,,0,,,,,,,,,,,wg-a,,,,AAXX 03004 07190 12/70 40000 11040 21060 30012 40208 58009 60006 81031 90000=
07190,1996-03-03 03:00:00,-3,1019.5,-1.1,86,-5,20000,0,,,0,,,,,,,,,,,wg-a,,,,AAXX 03034 07190 12/70 70000 11030 21050 30001 40195 58011 60006 8707/ 90300=
07190,1996-03-03 06:00:00,-3,1019.3,-0.2,86,-5,15000,3.704,,,20,-4.1,2,,,,,,,,,wg-a,,,,AAXX 03064 07190 02/65 70202 11030 21050 39999 40193 55002 60006 86071 90600 333 10020 21041 60004=
07190,1996-03-03 09:00:00,0,1020.4,1.3,74,-4,10000,11.112,,,30,,,,,,,,,,,wg-a,,,,AAXX 03094 07190 12660 /0306 10000 21040 30012 40204 51013 60006 84501 90900=
07190,1996-03-03 12:00:00,3,1019.5,-0.4,56,-5,12000,11.112,,,30,,,,,,,,,,,wg-a,,,,AAXX 03124 07190 12562 40306 10030 21050 30005 40195 58004 60006 84200 91200=
07190,1996-03-03 15:00:00,4,1019.3,-0.2,44,-7,12000,14.816,,38.892,30,,,,,,,,,,,wg-a,,,,AAXX 03154 07190 12662 30308 10040 21070 30003 40193 55002 60006 83200 91500 333 91021=
07190,1996-03-03 18:00:00,1,1020.3,0.8,55,-7,12000,7.408,,,20,-3,3.8,,,,,,,,,wg-a,,,,AAXX 03184 07190 12762 /0204 10010 21070 30011 40203 53008 60006 81400 91800 333 10038 21030=
07190,1996-03-03 21:00:00,-2,1021.2,0.6,74,-6,15000,7.408,,,350,,,,,,,,,,,wg-a,,,,AAXX 03214 07190 12/65 33504 11020 21060 30018 40212 51006 60006 80001 92100=
07190,1996-03-04 00:00:00,-3,1021.4,0.1,80,-6,15000,7.408,,,340,,,,,,,,,,,wg-a,,,,AAXX 04004 07190 12/65 43404 11030 21060 30019 40214 51001 60006 80001 90000=
07190,1996-03-04 03:00:00,-5,1021,-0.5,86,-7,12000,3.704,,,320,,,,,,,,,,,wg-a,,,,AAXX 04034 07190 12/62 43202 11050 21070 30014 40210 58005 60006 80001 90300=
07190,1996-03-04 06:00:00,-5,1021.9,0.8,86,-7,12000,0,,,0,-5.6,0.7,,,,,,,,,wg-a,,,,AAXX 04064 07190 02/62 40000 11050 21070 30022 40219 51008 60006 80001 90600 333 10007 21056 60004=
07190,1996-03-04 09:00:00,0,1022.4,0.9,69,-5,8000,3.704,,,30,,,,,,,,,,,wg-a,,,,AAXX 04094 07190 12/58 40302 10000 21050 30031 40224 51009 60006 84030 90900=
07190,1996-03-04 12:00:00,4,1021,-1.1,44,-7,15000,3.704,,,30,,,,,,,,,,,wg-a,,,,AAXX 04124 07190 12665 50302 10040 21070 30020 40210 57011 60006 81230 91200=
07190,1996-03-04 15:00:00,4,1020,-1,35,-10,20000,3.704,,,30,,,,,,,,,,,wg-a,,,,AAXX 04154 07190 12670 60302 10040 21100 30010 40200 56010 60006 81431 91500=
07190,1996-03-04 18:00:00,2,1020.8,0.7,51,-7,20000,7.408,,,180,-5.4,4.5,,,,,,,,,wg-a,,,,AAXX 04184 07190 12/70 71804 10020 21070 30017 40208 53007 60006 85031 91800 333 10045 21054=
07190,1996-03-04 21:00:00,1,1021.7,0.8,55,-7,15000,7.408,,,230,,,,,,,,,,,wg-a,,,,AAXX 04214 07190 12/65 72304 10010 21070 30025 40217 51008 60006 86031 92100=
07190,1996-03-05 00:00:00,-2,1022.2,0.3,69,-7,12000,3.704,,,200,,,,,,,,,,,wg-a,,,,AAXX 05004 07190 12/62 52002 11020 21070 30028 40222 53003 60006 82031 90000=
07190,1996-03-05 03:00:00,-3,1022.6,0.3,74,-7,10000,3.704,,,190,,,,,,,,,,,wg-a,,,,AAXX 05034 07190 12/60 51902 11030 21070 30031 40226 51003 60006 80001 90300=
07190,1996-03-05 06:00:00,-2,1023.9,1.3,80,-5,9000,3.704,,,140,-3.7,2.3,,,,,,,,,wg-a,,,,AAXX 05064 07190 02659 71402 11020 21050 30044 40239 53013 60006 875// 90600 333 10023 21037 60004=
07190,1996-03-05 12:00:00,5,1025.1,0.1,52,-4,10000,7.408,,,160,,,,,,,,,,,wg-a,,,,AAXX 05124 07190 12560 71604 10050 21040 30061 40251 50001 60006 865// 91200=
07190,1996-03-05 15:00:00,7,1024.4,-0.6,49,-3,10000,3.704,,,170,,,,,,,,,,,wg-a,,,,AAXX 05154 07190 12660 71702 10070 21030 30055 40244 56006 60006 865// 91500=
07190,1996-03-05 18:00:00,5,1025.5,1,60,-2,10000,3.704,,,240,-1.8,6.9,,,,,,,,,wg-a,,,,AAXX 05184 07190 12660 82402 10050 21020 30065 40255 52010 60006 875// 91800 333 10069 21018=
07190,1996-03-05 21:00:00,5,1025.5,0,65,-1,10000,7.408,,,240,,,,,,,,,,,wg-a,,,,AAXX 05214 07190 12560 82404 10050 21010 30065 40255 50000 60006 885// 92100=
07190,1996-03-06 00:00:00,4,1025.5,-0.1,75,0,8000,7.408,,,360,,,,,,,,,,,wg-a,,,,AAXX 06004 07190 12558 83604 10040 20000 30064 40255 58001 60006 885// 90000=
07190,1996-03-06 03:00:00,3,1025.3,-0.2,87,1,7000,11.112,,,320,,,,,,,,,,,wg-a,,,,AAXX 06034 07190 12457 83206 10030 20010 30062 40253 58002 60006 885// 90300=
07190,1996-03-06 06:00:00,3,1025.8,0.4,81,0,6000,7.408,,,330,2.6,5.2,,,,,,,,,wg-a,,,,AAXX 06064 07190 02556 83304 10030 20000 30066 40258 53004 60006 885// 90600 333 10052 20026 60004=
07190,1996-03-06 09:00:00,2,1025.8,-0,80,-1,6000,11.112,,,20,,,,,,,,,,,wg-a,,,,AAXX 06094 07190 12456 80206 10020 21010 30066 40258 54000 60006 885// 90900=
07190,1996-03-06 12:00:00,3,1025.1,-0.6,75,-1,9000,14.816,,,350,,,,,,,,,,,wg-a,,,,AAXX 06124 07190 12559 83508 10030 21010 30060 40251 58006 60006 885// 91200=
07190,1996-03-06 15:00:00,4,1023.5,-1.5,65,-2,12000,11.112,,,360,,,,,,,,,,,wg-a,,,,AAXX 06154 07190 12562 83606 10040 21020 30044 40235 56015 60006 888// 91500=
07190,1996-03-06 18:00:00,3,1022.8,-0.7,70,-2,10000,7.408,,,340,2.1,4,,,,,,,,,wg-a,,,,AAXX 06184 07190 12660 73404 10030 21020 30037 40228 56007 60006 875// 91800 333 10040 20021=
07190,1996-03-06 21:00:00,2,1021.7,-1.1,75,-2,12000,7.408,,,340,,,,,,,,,,,wg-a,,,,AAXX 06214 07190 12662 73404 10020 21020 30026 40217 58011 60006 875// 92100=
07190,1996-03-07 00:00:00,1,1019.2,-2.5,80,-2,15000,3.704,,,220,,,,,,,,,,,wg-a,,,,AAXX 07004 07190 12665 72202 10010 21020 30001 40192 56025 60006 875// 90000=
07190,1996-03-07 03:00:00,1,1017,-2.2,80,-2,15000,3.704,,,220,,,,,,,,,,,wg-a,,,,AAXX 07034 07190 12665 82202 10010 21020 39979 40170 58022 60006 875// 90300=
07190,1996-03-07 06:00:00,1,1015.7,-1.3,80,-2,8000,0,,,0,0.5,2.8,,,,,,,,,wg-a,,,,AAXX 07064 07190 02558 80000 10010 21020 39966 40157 56013 60006 875// 90600 333 10028 20005 60004=
07190,1996-03-07 09:00:00,3,1015.3,-0.3,81,0,9000,7.408,,,30,,,,,,,,,,22,wg-a,,,,AAXX 07094 07190 02359 70304 10030 20000 39963 40153 58003 61000 72272 85830 90900 333 ////=
07190,1996-03-07 12:00:00,5,1015.8,0.7,56,-3,14000,11.112,,,70,,,,,,,,,,1,wg-a,,,,AAXX 07124 07190 02464 70706 10050 21030 39970 40158 50007 61000 70172 878// 91200 333 ////=
07190,1996-03-07 15:00:00,7,1016.2,0.5,49,-3,12000,14.816,,,30,,,,,,,,,,,wg-a,,,,AAXX 07154 07190 12/62 50308 10070 21030 39975 40162 53005 60006 82071 91500=
07190,1996-03-07 18:00:00,5,1018,1.6,60,-2,9000,7.408,,,40,0.7,6.9,,,,,,,,,wg-a,,,,AAXX 07184 07190 32/59 30404 10050 21020 39991 40180 53016 80001 91800 333 10069 20007=
07190,1996-03-07 21:00:00,2,1020,2,75,-2,9000,7.408,,,30,,,,,,,,,,,wg-a,,,,AAXX 07214 07190 12/59 30304 10020 21020 30009 40200 51020 60006 80001 92100=
07190,1996-03-08 00:00:00,0,1021,0.7,86,-2,7000,7.408,,,340,,,,,,,,,,,wg-a,,,,AAXX 08004 07190 12/57 23404 10000 21020 30017 40210 51007 60006 80001 90000=
07190,1996-03-08 03:00:00,-2,1021.7,0.6,86,-4,6000,7.408,,,320,,,,,,,,,,,wg-a,,,,AAXX 08034 07190 12/56 23204 11020 21040 30023 40217 51006 60006 80001 90300=
07190,1996-03-08 06:00:00,-3,1022.5,0.7,93,-4,4000,7.408,,,330,-3,4.8,,,,,,,,10,wg-a,,,,AAXX 08064 07190 02/40 23304 11030 21040 30030 40225 53007 60006 71000 80001 90600 333 10048 21030 61000=
07190,1996-03-08 09:00:00,2,1022.8,0.6,75,-2,4500,7.408,,,40,,,,,,,,,,10,wg-a,,,,AAXX 08094 07190 12/45 00404 10020 21020 30036 40228 50006 60006 71000 80000 90900=
07190,1996-03-08 12:00:00,7,1022.1,-0.3,53,-2,8000,11.112,,,40,,,,,,,,,,,wg-a,,,,AAXX 08124 07190 12/58 00406 10070 21020 30033 40221 58003 60006 80000 91200=
07190,1996-03-08 15:00:00,9,1020.9,-1.1,49,-1,8000,18.52,,,30,,,,,,,,,,,wg-a,,,,AAXX 08154 07190 12/58 00310 10090 21010 30022 40209 57011 60006 80000 91500=
07190,1996-03-08 18:00:00,6,1021.4,0.3,56,-2,9000,11.112,,,340,-3,9.2,,,,,,,,,wg-a,,,,AAXX 08184 07190 12/59 03406 10060 21020 30025 40214 53003 60006 80000 91800 333 10092 21030=
07190,1996-03-08 21:00:00,2,1022.3,0.7,69,-3,9000,11.112,,,10,,,,,,,,,,,wg-a,,,,AAXX 08214 07190 12/59 00106 10020 21030 30032 40223 53007 60006 80000 92100=
07190,1996-03-09 00:00:00,-2,1023.3,0.6,86,-4,8000,7.408,,,320,,,,,,,,,,,wg-a,,,,AAXX 09004 07190 12/58 03204 11020 21040 30038 40233 50006 60006 80000 90000=
07190,1996-03-09 03:00:00,-3,1023.4,0.1,86,-5,6000,7.408,,,330,,,,,,,,,,,wg-a,,,,AAXX 09034 07190 12/56 03304 11030 21050 30039 40234 52001 60006 80000 90300=
07190,1996-03-09 06:00:00,-4,1024.4,1,86,-6,4000,7.408,,,330,-4.2,5.5,,,,,,,,10,wg-a,,,,AAXX 09064 07190 02/40 03304 11040 21060 30048 40244 53010 60006 71000 80000 90600 333 10055 21042 60004=
07190,1996-03-09 09:00:00,1,1024.7,0.6,75,-3,4500,7.408,,,10,,,,,,,,,,10,wg-a,,,,AAXX 09094 07190 12/45 00104 10010 21030 30054 40247 50006 60006 71000 80000 90900=
07190,1996-03-09 12:00:00,6,1023.2,-1,52,-3,6000,7.408,,,40,,,,,,,,,,,wg-a,,,,AAXX 09124 07190 12/56 00404 10060 21030 30043 40232 58010 60006 80000 91200=
07190,1996-03-09 15:00:00,9,1021.6,-1.3,43,-3,7000,18.52,,,40,,,,,,,,,,,wg-a,,,,AAXX 09154 07190 12/57 00410 10090 21030 30029 40216 56013 60006 80000 91500=
07190,1996-03-09 18:00:00,5,1022.4,0.5,56,-3,7000,11.112,,,350,-4.2,9.3,,,,,,,,,wg-a,,,,AAXX 09184 07190 12/57 03506 10050 21030 30035 40224 53005 60006 80000 91800 333 10093 21042=
07190,1996-03-09 21:00:00,2,1023.5,0.7,64,-4,7000,11.112,,,360,,,,,,,,,,,wg-a,,,,AAXX 09214 07190 12/57 03606 10020 21040 30043 40235 52007 60006 80000 92100=
07190,1996-03-10 00:00:00,-1,1024.1,0.4,80,-4,0,11.112,,,350,,,,,,,,,,,wg-a,,,,AAXX 10004 07190 12/// /3506 11010 21040 30047 40241 52004 60006 90000=
07190,1996-03-10 03:00:00,-2,1024.1,-0.1,80,-5,7000,11.112,,,340,,,,,,,,,,,wg-a,,,,AAXX 10034 07190 12/57 03406 11020 21050 30046 40241 58001 60006 80000 90300=
07190,1996-03-10 06:00:00,-2,1024.6,0.5,80,-5,500,11.112,,,20,-2.4,5.2,,,,,,,,,wg-a,,,,AAXX 10064 07190 02/00 00206 11020 21050 30051 40246 52005 60006 80000 90600 333 10052 21024 60004=
07190,1996-03-10 09:00:00,2,1024.8,0.5,60,-5,6000,22.224,,,30,,,,,,,,,,,wg-a,,,,AAXX 10094 07190 12/56 00312 10020 21050 30056 40248 51005 60006 80000 90900=
07190,1996-03-10 12:00:00,6,1023.5,-1,42,-6,8000,22.224,,,20,,,,,,,,,,,wg-a,,,,AAXX 10124 07190 12/58 00212 10060 21060 30046 40235 58010 60006 80000 91200=
07190,1996-03-10 15:00:00,8,1022.2,-1.2,34,-7,9000,29.632,,,40,,,,,,,,,,,wg-a,,,,AAXX 10154 07190 12/59 00416 10080 21070 30034 40222 56012 60006 80000 91500=
07190,1996-03-10 21:00:00,1,1022.7,-0.3,55,-7,10000,14.816,,,10,,,,,,,,,,,wg-a,,,,AAXX 10214 07190 12/60 00108 10010 21070 30034 40227 58003 60006 80000 92100=
07190,1996-03-11 03:00:00,-2,1020.6,-1.1,69,-7,10000,11.112,,,340,,,,,,,,,,,wg-a,,,,AAXX 11034 07190 12/60 03406 11020 21070 30012 40206 56011 60006 80000 90300=
07190,1996-03-11 06:00:00,-4,1020.1,-0.6,74,-8,6000,11.112,,,310,-4,4.8,,,,,,,,,wg-a,,,,AAXX 11064 07190 02/56 23106 11040 21080 30006 40201 56006 60006 80001 90600 333 10048 21040 60004=
07190,1996-03-11 09:00:00,-1,1019.8,-0.2,69,-6,6000,11.112,,,360,,,,,,,,,,,wg-a,,,,AAXX 11094 07190 12/56 43606 11010 21060 30005 40198 58002 60006 80001 90900=
07190,1996-03-11 12:00:00,3,1017.7,-1.7,48,-7,7000,11.112,,,30,,,,,,,,,,,wg-a,,,,AAXX 11124 07190 12/57 40306 10030 21070 39987 40177 58017 60006 80001 91200=
07190,1996-03-11 21:00:00,-2,1017.6,-0.2,59,-9,8000,18.52,,,360,,,,,,,,,,,wg-a,,,,AAXX 11214 07190 12658 33610 11020 21090 39982 40176 58002 60006 81501 92100=
07190,1996-03-12 00:00:00,-4,1017.6,-0.1,68,-9,8000,22.224,,,20,,,,,,,,,,,wg-a,,,,AAXX 12004 07190 12/58 00212 11040 21090 39981 40176 58001 60006 80000 90000=
07190,1996-03-12 03:00:00,-4,1017,-0.6,74,-8,8000,14.816,,,30,,,,,,,,,,,wg-a,,,,AAXX 12034 07190 12/58 00308 11040 21080 39975 40170 58006 60006 80000 90300=
07190,1996-03-12 06:00:00,-4,1016.9,-0.1,68,-9,9000,14.816,,,30,-4.3,-0.3,,,,,,,,,wg-a,,,,AAXX 12064 07190 02659 50308 11040 21090 39974 40169 55001 60006 83530 90600 333 11003 21043 60004=
07190,1996-03-12 09:00:00,-2,1016.2,-0.5,59,-9,12000,22.224,,,10,,,,,,,,,,,wg-a,,,,AAXX 12094 07190 12562 20112 11020 21090 39969 40162 58005 60006 82200 90900=
07190,1996-03-12 12:00:00,0,1014.6,-1.4,47,-10,12000,22.224,,,20,,,,,,,,,,,wg-a,,,,AAXX 12124 07190 12662 /0212 10000 21100 39955 40146 57014 60006 81200 91200=
07190,1996-03-12 15:00:00,1,1013.2,-1.4,40,-11,12000,25.928,,,40,,,,,,,,,,,wg-a,,,,AAXX 12154 07190 32662 /0414 10010 21110 39941 40132 57014 81200 91500=
07190,1996-03-12 18:00:00,-2,1013.1,-0.2,46,-12,8000,22.224,,,40,-4.3,1.4,,,,,,,,,wg-a,,,,AAXX 12184 07190 32758 /0412 11020 21120 39939 40131 57002 81500 91800 333 10014 21043=
07190,1996-03-12 21:00:00,-4,1013.4,0.1,63,-10,8000,11.112,,,20,,,,,,,,,,,wg-a,,,,AAXX 12214 07190 12/58 00206 11040 21100 39940 40134 50001 60006 80000 92100=
07190,1996-03-13 00:00:00,-5,1013,-0.5,79,-8,6000,11.112,,,20,,,,,,,,,,,wg-a,,,,AAXX 13004 07190 12/56 00206 11050 21080 39935 40130 56005 60006 80000 90000=
07190,1996-03-13 03:00:00,-6,1012.5,-0.6,79,-9,6000,7.408,,,30,,,,,,,,,,,wg-a,,,,AAXX 13034 07190 12/56 00304 11060 21090 39929 40125 55006 60006 80000 90300=
07190,1996-03-13 06:00:00,-6,1012.9,0.4,86,-8,4000,11.112,,,20,-6.8,-1.6,,,,,,,,10,wg-a,,,,AAXX 13064 07190 02/40 /0206 11060 21080 39933 40129 53004 60006 71011 81032 90600 333 11016 21068 60004=
07190,1996-03-13 09:00:00,-2,1011.8,-0.7,54,-10,8000,7.408,,,60,,,,,,,,,,,wg-a,,,,AAXX 13094 07190 12/58 30604 11020 21100 39926 40118 56007 60006 80001 90900=
07190,1996-03-13 12:00:00,2,1010.3,-1.3,44,-9,9000,18.52,,,60,,,,,,,,,,,wg-a,,,,AAXX 13124 07190 12659 30610 10020 21090 39913 40103 58013 60006 81131 91200=
07190,1996-03-13 15:00:00,3,1008.5,-1.6,41,-9,8000,25.928,,,30,,,,,,,,,,,wg-a,,,,AAXX 13154 07190 12/58 20314 10030 21090 39897 40085 58016 60006 80001 91500=
07190,1996-03-13 18:00:00,0,1008.7,0.1,55,-8,8000,22.224,,,30,-6.4,3.7,,,,,,,,,wg-a,,,,AAXX 13184 07190 12/58 /0312 10000 21080 39897 40087 53001 60006 80001 91800 333 10037 21064=
07190,1996-03-13 21:00:00,-2,1009.6,0.7,59,-9,8000,11.112,,,20,,,,,,,,,,,wg-a,,,,AAXX 13214 07190 12/58 20206 11020 21090 39904 40096 51007 60006 80001 92100=
07190,1996-03-14 00:00:00,-3,1009.8,0.1,68,-8,500,11.112,,,360,,,,,,,,,,,wg-a,,,,AAXX 14004 07190 12/00 23606 11030 21080 39905 40098 52001 60006 80001 90000=
07190,1996-03-14 03:00:00,-6,1009.8,-0.2,79,-9,4000,7.408,,,350,,,,,,,,,,10,wg-a,,,,AAXX 14034 07190 12/40 03504 11060 21090 39903 40098 58002 60006 71000 80000 90300=
07190,1996-03-14 06:00:00,-5,1010,0.3,86,-7,3000,7.408,,,330,-6.2,0.3,,,,,,,,10,wg-a,,,,AAXX 14064 07190 02/30 63304 11050 21070 39906 40100 53003 60006 71011 86031 90600 333 10003 21062 60004=
07190,1996-03-14 09:00:00,-1,1009.6,-0.1,69,-6,4000,11.112,,,30,,,,,,,,,,10,wg-a,,,,AAXX 14094 07190 12/40 /0306 11010 21060 39905 40096 56001 60006 71011 86030 90900=
07190,1996-03-14 12:00:00,5,1008.3,-0.8,45,-6,7000,11.112,,,30,,,,,,,,,,,wg-a,,,,AAXX 14124 07190 12/57 30306 10050 21060 39896 40083 56008 60006 82031 91200=
07190,1996-03-14 15:00:00,8,1007.5,-0.6,39,-5,8000,14.816,,,360,,,,,,,,,,,wg-a,,,,AAXX 14154 07190 12/58 /3608 10080 21050 39890 40075 55006 60006 85031 91500=
07190,1996-03-14 18:00:00,6,1008.2,0.5,49,-4,7000,11.112,,,330,-4.7,8.1,,,,,,,,,wg-a,,,,AAXX 14184 07190 12/57 /3306 10060 21040 39896 40082 53005 60006 86030 91800 333 10081 21047=
07190,1996-03-14 21:00:00,2,1009,0.5,64,-4,0,11.112,,,310,,,,,,,,,,,wg-a,,,,AAXX 14214 07190 12/// /3106 10020 21040 39901 40090 52005 60006 83042 92100=
07190,1996-03-15 00:00:00,-2,1009.6,0.3,74,-6,7000,7.408,,,330,,,,,,,,,,,wg-a,,,,AAXX 15004 07190 12/57 33304 11020 21060 39904 40096 53003 60006 80002 90000=
07190,1996-03-15 03:00:00,-1,1009.3,-0.2,74,-5,6000,7.408,,,340,,,,,,,,,,,wg-a,,,,AAXX 15034 07190 12/56 /3404 11010 21050 39902 40093 57002 60006 90300=
07190,1996-03-15 06:00:00,-2,1009.6,0.2,80,-5,500,11.112,,,330,-1.7,6,,,,,,,,,wg-a,,,,AAXX 15064 07190 02/00 53306 11020 21050 39904 40096 51002 60006 83042 90600 333 10060 21017 60004=
07190,1996-03-15 09:00:00,3,1009.3,0,60,-4,6000,14.816,,,360,,,,,,,,,,,wg-a,,,,AAXX 15094 07190 12/56 /3608 10030 21040 39904 40093 50000 60006 80001 90900=
07190,1996-03-15 12:00:00,7,1007.3,-1.6,49,-3,7000,18.52,,,20,,,,,,,,,,,wg-a,,,,AAXX 15124 07190 12/57 70210 10070 21030 39888 40073 58016 60006 80002 91200=
07190,1996-03-15 15:00:00,10,1005.7,-1.4,43,-2,7000,18.52,,,30,,,,,,,,,,,wg-a,,,,AAXX 15154 07190 12/57 70310 10100 21020 39874 40057 56014 60006 80001 91500=
07190,1996-03-15 18:00:00,7,1006.4,0.4,53,-2,6000,7.408,,,330,-1.5,9.6,,,,,,,,,wg-a,,,,AAXX 15184 07190 12/56 73304 10070 21020 39878 40064 53004 60006 82032 91800 333 10096 21015=
07190,1996-03-15 21:00:00,4,1006.5,0,65,-2,7000,3.704,,,360,,,,,,,,,,,wg-a,,,,AAXX 15214 07190 12/57 33602 10040 21020 39878 40065 50000 60006 80001 92100=
07190,1996-03-16 00:00:00,-1,1006.8,-0,86,-3,6000,11.112,,,350,,,,,,,,,,,wg-a,,,,AAXX 16004 07190 12/56 33506 11010 21030 39878 40068 55000 60006 80001 90000=
07190,1996-03-16 03:00:00,-2,1006.8,-0.1,86,-4,6000,7.408,,,310,,,,,,,,,,,wg-a,,,,AAXX 16034 07190 12/56 33104 11020 21040 39877 40068 55001 60006 80001 90300=
07190,1996-03-16 06:00:00,-2,1007.6,0.7,93,-3,2500,7.408,,,310,-2.6,6.5,,,,,,,,10,wg-a,,,,AAXX 16064 07190 02/25 /3104 11020 21030 39884 40076 53007 60006 71011 80002 90600 333 10065 21026 60004=
07190,1996-03-16 09:00:00,3,1008,0.8,81,0,3200,0,,,0,,,,,,,,,,10,wg-a,,,,AAXX 16094 07190 12/32 30000 10030 20000 39892 40080 53008 60006 71011 80002 90900=
07190,1996-03-16 12:00:00,8,1007.5,-0.2,57,0,4300,3.704,,,60,,,,,,,,,,10,wg-a,,,,AAXX 16124 07190 12/43 20602 10080 20000 39890 40075 58002 60006 71011 80002 91200=
07190,1996-03-16 15:00:00,10,1007.1,-0.2,50,0,4800,7.408,,,10,,,,,,,,,,10,wg-a,,,,AAXX 16154 07190 12/48 20104 10100 20000 39888 40071 56002 60006 71000 80002 91500=
07190,1996-03-16 18:00:00,8,1009.1,1.8,61,1,500,7.408,,,20,-2,10.6,,,,,,,,,wg-a,,,,AAXX 16184 07190 12/00 30204 10080 20010 39906 40091 53018 60006 80002 91800 333 10106 21020=
07190,1996-03-16 21:00:00,3,1011.3,1.8,75,-1,4500,3.704,,,270,,,,,,,,,,10,wg-a,,,,AAXX 16214 07190 12/45 /2702 10030 21010 39924 40113 51018 60006 71011 80002 92100=
07190,1996-03-17 00:00:00,0,1012.6,1.1,80,-3,4000,0,,,0,,,,,,,,,,10,wg-a,,,,AAXX 17004 07190 12/40 40000 10000 21030 39935 40126 51011 60006 71011 80001 90000=
07190,1996-03-17 03:00:00,-1,1013.9,1.2,86,-3,4000,3.704,,,310,,,,,,,,,,10,wg-a,,,,AAXX 17034 07190 12/40 33102 11010 21030 39947 40139 52012 60006 71000 80001 90300=
07190,1996-03-17 06:00:00,-2,1015.5,1.5,93,-3,1700,0,,,0,-2.3,7.9,,,,,,,,10,wg-a,,,,AAXX 17064 07190 02717 70000 11020 21030 39962 40155 51015 60006 71011 85502 90600 333 10079 21023 60004=
07190,1996-03-17 09:00:00,5,1015.7,0.7,75,1,2000,0,,,0,,,,,,,,,,10,wg-a,,,,AAXX 17094 07190 12/20 /0000 10050 20010 39969 40157 51007 60006 71022 80001 90900=
07190,1996-03-17 12:00:00,10,1015.5,0.1,57,2,3000,3.704,,,200,,,,,,,,,,10,wg-a,,,,AAXX 17124 07190 12/30 /2002 10100 20020 39970 40155 50001 60006 71022 82031 91200=
07190,1996-03-17 15:00:00,9,1015.1,-0.4,61,2,2800,18.52,,,330,,,,,,,,,,10,wg-a,,,,AAXX 17154 07190 12728 73310 10090 20020 39966 40151 56004 60006 71022 81531 91500=
07190,1996-03-17 18:00:00,5,1016.8,1.4,75,1,2500,14.816,,,330,-1.6,11.1,,,,,,,,10,wg-a,,,,AAXX 17184 07190 12725 73308 10050 20010 39980 40168 53014 60006 71022 81531 91800 333 10111 21016=
07190,1996-03-17 21:00:00,4,1017.8,0.9,75,0,4000,11.112,,,20,,,,,,,,,,10,wg-a,,,,AAXX 17214 07190 12/40 70206 10040 20000 39989 40178 51009 60006 71022 84042 92100=
07190,1996-03-18 00:00:00,1,1018,-0,86,-1,4000,3.704,,,340,,,,,,,,,,10,wg-a,,,,AAXX 18004 07190 12/40 73402 10010 21010 39989 40180 54000 60006 71022 82042 90000=
07190,1996-03-18 03:00:00,-1,1017.7,-0.4,93,-2,3500,3.704,,,270,,,,,,,,,,10,wg-a,,,,AAXX 18034 07190 12/35 82702 11010 21020 39985 40177 56004 60006 71022 86042 90300=
07190,1996-03-18 06:00:00,1,1018.1,0.5,93,0,2000,3.704,,,230,-0.5,5.1,,,,,,,,10,wg-a,,,,AAXX 18064 07190 02/20 82302 10010 20000 39990 40181 53005 60006 71022 86042 90600 333 10051 21005 60004=
07190,1996-03-18 12:00:00,7,1017.8,-0.6,70,2,2500,7.408,,,30,,,,,,,,,,5,wg-a,,,,AAXX 18124 07190 12/25 /0304 10070 20020 39991 40178 58006 60006 70522 8707/ 91200=
07190,1996-03-18 15:00:00,9,1017.1,-0.6,61,2,4000,7.408,,,40,,,,,,,,,,5,wg-a,,,,AAXX 18154 07190 12740 70404 10090 20020 39985 40171 57006 60006 70522 8351/ 91500=
07190,1996-03-18 18:00:00,8,1017.6,0.5,66,2,2000,3.704,,,90,1.1,9.3,,,,,,,,5,wg-a,,,,AAXX 18184 07190 12/20 80902 10080 20020 39990 40176 53005 60006 70522 8807/ 91800 333 10093 20011=
07190,1996-03-18 21:00:00,6,1018.2,0.4,75,2,3500,3.704,,,340,,,,,,,,,,10,wg-a,,,,AAXX 18214 07190 12/35 83402 10060 20020 39994 40182 53004 60006 71022 8807/ 92100=
07190,1996-03-19 00:00:00,5,1018.2,-0.1,81,2,3000,7.408,,,350,,,,,,,,,,10,wg-a,,,,AAXX 19004 07190 12/30 83504 10050 20020 39993 40182 58001 60006 71022 8807/ 90000=
07190,1996-03-19 03:00:00,5,1017.4,-0.7,81,2,3000,3.704,,,340,,,,,,,,,,10,wg-a,,,,AAXX 19034 07190 12/30 83402 10050 20020 39986 40174 57007 60006 71022 88070 90300=
07190,1996-03-19 06:00:00,5,1017.3,-0.2,81,2,2200,3.704,,,340,4.5,8.2,,,,,,,,10,wg-a,,,,AAXX 19064 07190 02/22 83402 10050 20020 39984 40173 55002 60006 71022 88070 90600 333 10082 20045 60004=
07190,1996-03-19 12:00:00,11,1014.9,-1.8,58,3,0,14.816,,,30,,,,,,,,,,,wg-a,,,,AAXX 19124 07190 12/// /0308 10110 20030 39965 40149 57018 60006 91200=
07190,1996-03-19 18:00:00,9,1012.6,-0.8,61,2,0,0,,,0,4.5,12.1,,,,,,,,,wg-a,,,,AAXX 19184 07190 12/// /0000 10090 20020 39941 40126 56008 60006 91800 333 10121 20045=
07190,1996-03-19 21:00:00,3,1012.7,-0.3,81,0,500,7.408,,,230,,,,,,,,,,,wg-a,,,,AAXX 19214 07190 12/00 /2304 10030 20000 39938 40127 58003 60006 80000 92100=
07190,1996-03-20 00:00:00,0,1012.6,-0.3,93,-1,4000,0,,,0,,,,,,,,,,10,wg-a,,,,AAXX 20004 07190 12/40 00000 10000 21010 39935 40126 56003 60006 71011 80000 90000=
07190,1996-03-20 03:00:00,-2,1012,-0.7,93,-3,4000,0,,,0,,,,,,,,,,10,wg-a,,,,AAXX 20034 07190 12/40 00000 11020 21030 39928 40120 56007 60006 71000 80000 90300=
07190,1996-03-20 06:00:00,-2,1012.2,0.2,93,-3,1600,0,,,0,-2.4,9.4,,,,,,,,11,wg-a,,,,AAXX 20064 07190 02/16 20000 11020 21030 39930 40122 52002 60006 71100 80001 90600 333 10094 21024 60004=
07190,1996-03-20 09:00:00,5,1011.8,0.1,81,2,3500,3.704,,,140,,,,,,,,,,10,wg-a,,,,AAXX 20094 07190 12/35 41402 10050 20020 39931 40118 50001 60006 71000 80001 90900=
07190,1996-03-20 12:00:00,12,1010.5,-0.9,50,2,0,3.704,,,130,,,,,,,,,,,wg-a,,,,AAXX 20124 07190 12/// /1302 10120 20020 39922 40105 58009 60006 82031 91200=
07190,1996-03-20 15:00:00,14,1009,-1.3,38,0,11000,7.408,,,20,,,,,,,,,,,wg-a,,,,AAXX 20154 07190 12661 20204 10140 20000 39909 40090 56013 60006 82200 91500=
07190,1996-03-20 18:00:00,12,1009.7,0.5,47,1,9000,7.408,,,300,-2.1,14.3,,,,,,,,,wg-a,,,,AAXX 20184 07190 12759 /3004 10120 20010 39914 40097 53005 60006 8657/ 91800 333 10143 21021=
07190,1996-03-20 21:00:00,9,1011.8,2,76,5,9000,3.704,,,160,,,,,,,,,,3,wg-a,,,,AAXX 20214 07190 02559 81602 10090 20050 39934 40118 51020 61000 70362 8787/ 92100 333 ////=
07190,1996-03-21 00:00:00,8,1012.4,0.5,93,7,7000,3.704,,,220,,,,2,,,,,,21,wg-a,,,,AAXX 21004 07190 02557 82202 10080 20070 39939 40124 52005 60026 72162 888// 90000 333 60027=
07190,1996-03-21 03:00:00,5,1013,0.3,93,4,500,3.704,,,260,,,,,,,,,,11,wg-a,,,,AAXX 21034 07190 12/00 02602 10050 20040 39942 40130 53003 60006 71111 80000 90300=
07190,1996-03-21 06:00:00,4,1013.7,0.7,100,4,600,3.704,,,220,2.9,11.9,,,,,2,,,12,wg-a,,,,AAXX 21064 07190 12506 52202 10040 20040 39949 40137 53007 60024 71241 84842 90600 333 10119 20029=
07190,1996-03-21 09:00:00,10,1013.3,-0,82,7,8000,14.816,,,190,,,,,,,,,,3,wg-a,,,,AAXX 21094 07190 12558 71908 10100 20070 39949 40133 54000 60006 70341 81232 90900=
07190,1996-03-21 12:00:00,13,1012.3,-0.8,62,6,12000,14.816,,,170,,,,,,,,,,3,wg-a,,,,AAXX 21124 07190 12562 81708 10130 20060 39941 40123 57008 60006 70341 81276 91200=
07190,1996-03-21 15:00:00,11,1011.2,-1.2,82,8,9000,14.816,,,220,,,,0,,,,,,61,wg-a,,,,AAXX 21154 07190 12559 82208 10110 20080 39929 40112 55012 60007 76162 8682/ 91500=
07190,1996-03-21 18:00:00,10,1011.9,0.6,82,7,9000,18.52,,,170,3.4,13.5,,1,,,,,,1,wg-a,,,,AAXX 21184 07190 12559 71710 10100 20070 39935 40119 51006 60017 70162 86831 91800 333 10135 20034=
07190,1996-03-21 21:00:00,8,1013.3,1.3,87,6,12000,0,,,0,,,,1,,,,,,25,wg-a,,,,AAXX 21214 07190 12562 /0000 10080 20060 39948 40133 53013 60017 72598 8483/ 92100=
07190,1996-03-22 00:00:00,7,1014.5,1.1,93,6,20000,11.112,,,170,,,,0,,,,,,21,wg-a,,,,AAXX 22004 07190 02570 71706 10070 20060 39959 40145 51011 60016 72198 878// 90000 333 60007=
07190,1996-03-22 03:00:00,6,1015.1,0.5,93,5,20000,7.408,,,250,,,,,,,,,,,wg-a,,,,AAXX 22034 07190 12670 72504 10060 20050 39964 40151 51005 60006 875// 90300=
07190,1996-03-22 06:00:00,5,1016.6,1.4,100,5,20000,11.112,,,230,5.1,10,,,,,2,,,,wg-a,,,,AAXX 22064 07190 12670 72306 10050 20050 39978 40166 53014 60024 86531 90600 333 10100 20051=
07190,1996-03-22 09:00:00,9,1017.4,1,87,7,15000,7.408,,,170,,,,,,,,,,1,wg-a,,,,AAXX 22094 07190 02565 71704 10090 20070 39988 40174 51010 61000 70186 8583/ 90900 333 ////=
07190,1996-03-22 12:00:00,13,1016.9,-0.1,62,6,18000,14.816,,,200,,,,,,,,,,3,wg-a,,,,AAXX 22124 07190 02668 72008 10130 20060 39986 40169 58001 61000 70386 84832 91200 333 ////=
07190,1996-03-22 15:00:00,13,1017.1,0.2,58,5,25000,11.112,,,190,,,,,,,,,,,wg-a,,,,AAXX 22154 07190 12675 71906 10130 20050 39988 40171 53002 60006 8583/ 91500=
07190,1996-03-22 18:00:00,11,1017.7,0.5,71,6,20000,7.408,,,180,5.3,13.9,,,,,,,,61,wg-a,,,,AAXX 22184 07190 02670 81804 10110 20060 39993 40177 53005 61000 76186 8557/ 91800 333 10139 20053 ////=
07190,1996-03-22 21:00:00,9,1018.7,0.8,93,8,7000,3.704,,,180,,,,2,,,,,,61,wg-a,,,,AAXX 22214 07190 12557 81802 10090 20080 30001 40187 51008 60027 76166 875// 92100=
07190,1996-03-23 00:00:00,8,1018.1,-0.6,100,8,2000,3.704,,,150,,,,4,,,,,,61,wg-a,,,,AAXX 23004 07190 02220 81502 10080 20080 39995 40181 57006 60066 76166 875// 90000 333 60047=
07190,1996-03-23 03:00:00,8,1017.6,-0.5,100,8,2500,3.704,,,170,,,,1,,,,,,10,wg-a,,,,AAXX 23034 07190 12125 81702 10080 20080 39990 40176 56005 60017 71062 886// 90300=
07190,1996-03-23 06:00:00,8,1018.5,0.9,100,8,1600,3.704,,,150,8.1,10.9,,0,,,7,,,10,wg-a,,,,AAXX 23064 07190 02216 81502 10080 20080 39999 40185 53009 60074 71065 875// 90600 333 10109 20081 60007=
07190,1996-03-23 09:00:00,10,1019.4,1,93,9,4000,3.704,,,150,,,,,,,,,,10,wg-a,,,,AAXX 23094 07190 12240 71502 10100 20090 30009 40194 51010 60006 71022 875// 90900=
07190,1996-03-23 12:00:00,16,1018.2,-0.8,77,12,10000,7.408,,,160,,,,,,,,,,,wg-a,,,,AAXX 23124 07190 12560 71604 10160 20120 30001 40182 58008 60006 878// 91200=
07190,1996-03-23 15:00:00,17,1017.1,-1,72,12,10000,11.112,,,30,,,,,,,,,,,wg-a,,,,AAXX 23154 07190 12560 50306 10170 20120 39991 40171 57010 60006 82202 91500=
07190,1996-03-23 18:00:00,14,1017.4,0.1,82,11,8000,7.408,,,20,8.3,18.2,,,,,,,,,wg-a,,,,AAXX 23184 07190 12/58 /0204 10140 20110 39992 40174 53001 60006 80002 91800 333 10182 20083=
07190,1996-03-23 21:00:00,10,1018.1,0.4,93,9,12000,7.408,,,330,,,,,,,,,,,wg-a,,,,AAXX 23214 07190 12/62 33304 10100 20090 39996 40181 51004 60006 80002 92100=
07190,1996-03-24 00:00:00,8,1018,-0.2,93,7,6000,3.704,,,330,,,,,,,,,,,wg-a,,,,AAXX 24004 07190 12/56 23302 10080 20070 39994 40180 57002 60006 80001 90000=
07190,1996-03-24 03:00:00,5,1018.4,0.2,100,5,200,3.704,,,160,,,,,,,,,,45,wg-a,,,,AAXX 24034 07190 12/02 91602 10050 20050 39996 40184 53002 60006 74541 89/// 90300=
07190,1996-03-24 06:00:00,7,1019.7,1.4,100,7,1700,0,,,0,5.2,14.2,,,,,,,,10,wg-a,,,,AAXX 24064 07190 02217 70000 10070 20070 30010 40197 53014 60006 71041 876// 90600 333 10142 20052 60004=
07190,1996-03-24 09:00:00,10,1020.6,1,93,9,800,0,,,0,,,,,,,,,,42,wg-a,,,,AAXX 24094 07190 12108 80000 10100 20090 30020 40206 50010 60006 74242 886// 90900=
07190,1996-03-24 12:00:00,15,1019.6,-0.6,77,11,4500,11.112,,,20,,,,,,,,,,10,wg-a,,,,AAXX 24124 07190 12/45 /0206 10150 20110 30014 40196 56006 60006 71042 81031 91200=
07190,1996-03-24 15:00:00,18,1018.8,-0.6,56,9,10000,7.408,,,50,,,,,,,,,,,wg-a,,,,AAXX 24154 07190 12/60 40504 10180 20090 30008 40188 58006 60006 81031 91500=
07190,1996-03-24 21:00:00,11,1021,0.9,82,8,10000,11.112,,,340,,,,,,,,,,,wg-a,,,,AAXX 24214 07190 12/60 23406 10110 20080 30025 40210 50009 60006 80001 92100=
07190,1996-03-25 00:00:00,8,1020.3,-0.9,93,7,8000,7.408,,,340,,,,,,,,,,,wg-a,,,,AAXX 25004 07190 12/58 23404 10080 20070 30016 40203 56009 60006 80001 90000=
07190,1996-03-25 03:00:00,6,1019.1,-1.3,87,4,10000,11.112,,,340,,,,,,,,,,,wg-a,,,,AAXX 25034 07190 12/60 23406 10060 20040 30003 40191 56013 60006 80001 90300=
07190,1996-03-25 06:00:00,5,1018.4,-0.7,93,4,7000,11.112,,,330,4.9,14.6,,,,,,,,,wg-a,,,,AAXX 25064 07190 02/57 53306 10050 20040 39996 40184 56007 60006 80004 90600 333 10146 20049 60004=
07190,1996-03-25 09:00:00,10,1018,-0.1,82,7,6000,7.408,,,10,,,,0,,,,,,,wg-a,,,,AAXX 25094 07190 12/56 /0104 10100 20070 39995 40180 58001 60007 81032 90900=
07190,1996-03-25 12:00:00,16,1016.5,-1.1,59,8,8000,7.408,,,10,,,,,,,,,,,wg-a,,,,AAXX 25124 07190 12558 /0104 10160 20080 39984 40165 58011 60006 81102 91200=
07190,1996-03-25 15:00:00,18,1014.5,-1.8,56,9,9000,3.704,,,30,,,,,,,,,,,wg-a,,,,AAXX 25154 07190 12659 40302 10180 20090 39966 40145 56018 60006 81131 91500=
07190,1996-03-25 18:00:00,15,1014.5,-0.2,72,10,7000,3.704,,,310,5.4,18.1,,,,,,,,,wg-a,,,,AAXX 25184 07190 12757 /3102 10150 20100 39964 40145 56002 60006 82532 91800 333 10181 20054=
07190,1996-03-25 21:00:00,13,1014.2,-0.5,72,8,8000,3.704,,,330,,,,,,,,,,,wg-a,,,,AAXX 25214 07190 12658 73302 10130 20080 39959 40142 58005 60006 8557/ 92100=
07190,1996-03-26 00:00:00,11,1013.2,-1.1,82,8,500,3.704,,,220,,,,1,,,,,,60,wg-a,,,,AAXX 26004 07190 02600 82202 10110 20080 39948 40132 56011 60016 76062 875// 90000 333 60017=
07190,1996-03-26 03:00:00,9,1011.8,-1.5,93,8,4000,3.704,,,240,,,,1,,,,,,10,wg-a,,,,AAXX 26034 07190 12640 52402 10090 20080 39933 40118 56015 60017 71062 83530 90300=
07190,1996-03-26 06:00:00,9,1011.3,-0.5,93,8,2500,3.704,,,210,8.1,15.4,,0,,,,,,28,wg-a,,,,AAXX 26064 07190 02525 52102 10090 20080 39928 40113 56005 60004 72864 83831 90600 333 10154 20081 60007=
07190,1996-03-26 09:00:00,13,1010.1,-0.8,88,11,4500,7.408,,,180,,,,,,,,,,10,wg-a,,,,AAXX 26094 07190 12645 51804 10130 20110 39920 40101 57008 60006 71022 84801 90900=
07190,1996-03-26 12:00:00,17,1008.1,-1.8,72,12,6000,7.408,,,150,,,,,,,,,,1,wg-a,,,,AAXX 26124 07190 02656 51504 10170 20120 39902 40081 58018 61000 70186 85860 91200 333 6100=
07190,1996-03-26 15:00:00,16,1006.8,-1.3,72,11,8000,14.816,,,310,,,,,,,,,,1,wg-a,,,,AAXX 26154 07190 12558 73108 10160 20110 39889 40068 56013 60006 70192 85904 91500=
07190,1996-03-26 18:00:00,13,1007.4,0.4,88,11,3000,11.112,,,270,8.7,19.3,,0,,,,,,80,wg-a,,,,AAXX 26184 07190 12530 72706 10130 20110 39893 40074 53004 60007 78098 878// 91800 333 10193 20087=
07190,1996-03-26 21:00:00,9,1010.1,2.4,81,6,7000,22.224,,,10,,,,1,,,,,,25,wg-a,,,,AAXX 26214 07190 12457 80112 10090 20060 39917 40101 51024 60017 72586 878// 92100=
07190,1996-03-27 00:00:00,6,1011.3,1,87,4,4000,29.632,,,20,,,,,,,,,,3,wg-a,,,,AAXX 27004 07190 12440 80216 10060 20040 39927 40113 53010 60016 70386 876// 90000=
07190,1996-03-27 03:00:00,3,1013.5,1.9,93,2,3500,29.632,,,20,,,,1,,,,,,,wg-a,,,,AAXX 27034 07190 12335 80216 10030 20020 39946 40135 51019 60017 876// 90300=
07190,1996-03-27 06:00:00,2,1016.2,2.4,87,0,1800,25.928,,,20,1.6,13.3,,,,,,,,10,wg-a,,,,AAXX 27064 07190 02318 80214 10020 20000 39971 40162 53024 61000 71076 876// 90600 333 10133 20016 6001=
07190,1996-03-27 09:00:00,2,1018.1,1.9,80,-1,10000,29.632,,,20,,,,,,,,,,22,wg-a,,,,AAXX 27094 07190 02460 70216 10020 21010 39990 40181 51019 61000 72272 878// 90900 333 ////=
07190,1996-03-27 12:00:00,3,1019.3,1.3,81,0,12000,29.632,,,30,,,,,,,,,,1,wg-a,,,,AAXX 27124 07190 02462 70316 10030 20000 30003 40193 51013 61000 70172 878// 91200 333 ////=
07190,1996-03-27 15:00:00,4,1019.7,0.5,65,-2,18000,22.224,,,30,,,,,,,,,,,wg-a,,,,AAXX 27154 07190 12568 70312 10040 21020 30008 40197 51005 60006 874// 91500=
07190,1996-03-27 18:00:00,2,1020.3,0.4,64,-4,25000,7.408,,,100,0.6,4.8,,,,,,,,,wg-a,,,,AAXX 27184 07190 32675 /1004 10020 21040 30012 40203 53004 81501 91800 333 10048 20006=
07190,1996-03-27 21:00:00,-1,1020.6,0.1,80,-4,15000,0,,,0,,,,,,,,,,,wg-a,,,,AAXX 27214 07190 12/65 10000 11010 21040 30013 40206 52001 60006 80001 92100=
07190,1996-03-28 00:00:00,-3,1019.8,-0.9,93,-4,15000,7.408,,,340,,,,,,,,,,11,wg-a,,,,AAXX 28004 07190 12/65 03404 11030 21040 30004 40198 58009 60006 71100 80000 90000=
07190,1996-03-28 03:00:00,-3,1018.5,-1.4,86,-5,10000,7.408,,,330,,,,,,,,,,,wg-a,,,,AAXX 28034 07190 12/60 /3304 11030 21050 39990 40185 58014 60006 90300=
07190,1996-03-28 06:00:00,-3,1018.4,-0,80,-6,25000,7.408,,,340,-3.5,2.1,,,,,,,,,wg-a,,,,AAXX 28064 07190 02/75 23404 11030 21060 39990 40184 55000 60006 80001 90600 333 10021 21035 61000=
07190,1996-03-28 09:00:00,3,1017.6,-0.4,60,-4,25000,7.408,,,350,,,,,,,,,,,wg-a,,,,AAXX 28094 07190 12/75 13504 10030 21040 39986 40176 56004 60006 80001 90900=
07190,1996-03-28 12:00:00,7,1015.5,-1.8,39,-6,500,3.704,,,80,,,,,,,,,,,wg-a,,,,AAXX 28124 07190 12/00 /0802 10070 21060 39968 40155 58018 60006 80002 91200=
07190,1996-03-28 15:00:00,7,1013.8,-1.6,42,-5,500,3.704,,,160,,,,,,,,,,,wg-a,,,,AAXX 28154 07190 12600 /1602 10070 21050 39952 40138 56016 60006 81542 91500=
07190,1996-03-28 18:00:00,6,1013.7,-0.2,49,-4,20000,7.408,,,180,-2.4,7.8,,,,,,,,,wg-a,,,,AAXX 28184 07190 12770 /1804 10060 21040 39950 40137 55002 60006 82542 91800 333 10078 21024=
07190,1996-03-29 03:00:00,1,1014,-0.9,75,-3,20000,11.112,,,180,,,,,,,,,,,wg-a,,,,AAXX 29034 07190 12770 /1806 10010 21030 39949 40140 58009 60006 86531 90300=
07190,1996-03-29 06:00:00,3,1014.3,0.5,65,-3,12000,14.816,,,240,-0.3,5.7,,,,,,,,,wg-a,,,,AAXX 29064 07190 02562 72408 10030 21030 39954 40143 53005 60006 8657/ 90600 333 10057 21003 60004=
07190,1996-03-29 09:00:00,4,1015.5,1.5,70,-1,12000,14.816,,,280,,,,0,,,,,,3,wg-a,,,,AAXX 29094 07190 12562 /2808 10040 21010 39966 40155 51015 60007 70372 86800 90900=
07190,1996-03-29 12:00:00,7,1014.8,-0.7,45,-4,20000,18.52,,,240,,,,,,,,,,1,wg-a,,,,AAXX 29124 07190 12670 /2410 10070 21040 39961 40148 58007 60006 70172 86800 91200=
07190,1996-03-29 15:00:00,7,1013.8,-0.9,45,-4,25000,11.112,,,260,,,,,,,,,,,wg-a,,,,AAXX 29154 07190 12675 /2606 10070 21040 39951 40138 58009 60006 86800 91500=
07190,1996-03-29 18:00:00,5,1013.9,0,70,0,20000,3.704,,,210,2,8.1,,,,,,,,,wg-a,,,,AAXX 29184 07190 32670 /2102 10050 20000 39951 40139 50000 84802 91800 333 10081 20020=
07190,1996-03-29 21:00:00,3,1014.1,0.1,75,-1,12000,7.408,,,200,,,,,,,,,,,wg-a,,,,AAXX 29214 07190 12662 /2004 10030 21010 39952 40141 50001 60006 83502 92100=
07190,1996-03-30 00:00:00,3,1013.7,-0.4,75,-1,10000,3.704,,,310,,,,,,,,,,,wg-a,,,,AAXX 30004 07190 12560 73102 10030 21010 39948 40137 56004 60006 878// 90000=
07190,1996-03-30 03:00:00,3,1012.9,-0.8,75,-1,10000,7.408,,,320,,,,,,,,,,,wg-a,,,,AAXX 30034 07190 12560 73204 10030 21010 39940 40129 58008 60006 878// 90300=
07190,1996-03-30 06:00:00,2,1013.2,0.2,80,-1,7000,7.408,,,310,1.2,4.6,,,,,,,,,wg-a,,,,AAXX 30064 07190 02557 /3104 10020 21010 39942 40132 53002 60006 86801 90600 333 10046 20012 60004=
07190,1996-03-30 09:00:00,4,1013.4,0.4,70,-1,10000,14.816,,,320,,,,,,,,,,,wg-a,,,,AAXX 30094 07190 12460 /3208 10040 21010 39946 40134 51004 60006 86800 90900=
07190,1996-03-30 12:00:00,4,1013.5,-0,70,-1,7000,25.928,,,330,,,,,,,,,,85,wg-a,,,,AAXX 30124 07190 02257 /3314 10040 21010 39946 40135 55000 61000 78587 86900 91200 333 6100=
07190,1996-03-30 15:00:00,5,1013.5,0.1,60,-2,25000,22.224,,,270,,,,0,,,,,,1,wg-a,,,,AAXX 30154 07190 12675 42712 10050 21020 39947 40135 52001 60007 70187 83960 91500=
07190,1996-03-30 18:00:00,3,1015.7,2,81,0,12000,25.928,,,300,1.6,6.9,,,,,,,,80,wg-a,,,,AAXX 30184 07190 02262 73014 10030 20000 39967 40157 53020 61000 78087 85960 91800 333 10069 20016 ////=
07190,1996-03-30 21:00:00,1,1016.7,0.9,86,-1,15000,11.112,,,250,,,,,,,,,,26,wg-a,,,,AAXX 30214 07190 02765 42506 10010 21010 39976 40167 51009 61000 72687 82502 92100 333 ////=
07190,1996-03-31 00:00:00,-1,1017.5,0.7,86,-3,12000,3.704,,,250,,,,,,,,,,1,wg-a,,,,AAXX 31004 07190 02762 42502 11010 21030 39982 40175 51007 61000 70187 845/1 90000 333 ////=
07190,1996-03-31 03:00:00,-1,1017.2,-0.3,86,-3,12000,7.408,,,260,,,,,,,,,,,wg-a,,,,AAXX 31034 07190 12762 22604 11010 21030 39979 40172 58003 60006 81501 90300=
07190,1996-03-31 06:00:00,-1,1017.9,0.8,86,-3,9000,3.704,,,220,-2.3,2.6,,,,,,,,,wg-a,,,,AAXX 31064 07190 12659 52202 11010 21030 39986 40179 51008 60004 82804 90600 333 10026 21023=
07190,1996-03-31 09:00:00,3,1018,0.4,65,-3,9000,7.408,,,350,,,,,,,,,,,wg-a,,,,AAXX 31094 07190 12559 53504 10030 21030 39990 40180 51004 60006 84802 90900=
07190,1996-03-31 12:00:00,7,1016.4,-1.3,39,-6,25000,11.112,,,180,,,,,,,,,,,wg-a,,,,AAXX 31124 07190 12675 61806 10070 21060 39977 40164 58013 60006 83204 91200=
07190,1996-03-31 15:00:00,8,1014.5,-1.9,29,-9,35000,3.704,,,220,,,,,,,,,,,wg-a,,,,AAXX 31154 07190 12781 62202 10080 21090 39958 40145 57019 60006 83402 91500=
07190,1996-03-31 18:00:00,6,1014.2,-0.4,39,-7,500,7.408,,,310,-1.3,7.6,,,,,,,,,wg-a,,,,AAXX 31184 07190 12700 73104 10060 21070 39954 40142 55004 60006 81452 91800 333 10076 21013=
07190,1996-03-31 21:00:00,1,1013.8,-0.7,59,-6,20000,3.704,,,290,,,,,,,,,,,wg-a,,,,AAXX 31214 07190 12/70 12902 10010 21060 39947 40138 58007 60006 81030 92100=
07190,1996-04-01 00:00:00,-2,1012.8,-1.2,74,-6,0,7.408,,,270,,,,,,,,,,,wg-a,,,,AAXX 01004 07190 12/// /2704 11020 21060 39935 40128 57012 60006 90000=
07190,1996-04-01 03:00:00,-4,1011.9,-1,93,-5,20000,3.704,,,100,,,,,,,,,,,wg-a,,,,AAXX 01034 07190 12/70 21002 11040 21050 39925 40119 55010 60006 80001 90300=
07190,1996-04-01 06:00:00,-2,1011.3,-0.4,86,-4,12000,0,,,0,-3.8,5.4,,,,,,,,,wg-a,,,,AAXX 01064 07190 02/62 20000 11020 21040 39921 40113 55004 60006 81031 90600 333 10054 21038 60004=
07190,1996-04-01 09:00:00,3,1011.1,0,75,-1,9000,18.52,,,20,,,,,,,,,,,wg-a,,,,AAXX 01094 07190 12459 /0210 10030 21010 39922 40111 50000 60006 85501 90900=
07190,1996-04-01 12:00:00,7,1009.4,-1.3,49,-3,15000,22.224,,,30,,,,,,,,,,,wg-a,,,,AAXX 01124 07190 12665 /0312 10070 21030 39908 40094 58013 60006 82201 91200=
07190,1996-04-01 15:00:00,7,1007.4,-1.9,49,-3,20000,31.484,,,40,,,,,,,,,,,wg-a,,,,AAXX 01154 07190 12770 /0417 10070 21030 39889 40074 57019 60006 81402 91500=
07190,1996-04-01 21:00:00,4,1009.6,1.4,44,-7,25000,22.224,,,30,,,,,,,,,,,wg-a,,,,AAXX 01214 07190 12775 70312 10040 21070 39908 40096 51014 60006 81542 92100=
07190,1996-04-02 00:00:00,2,1010.4,0.6,51,-7,25000,22.224,,,20,,,,,,,,,,,wg-a,,,,AAXX 02004 07190 12/75 40212 10020 21070 39914 40104 51006 60006 80002 90000=
07190,1996-04-02 03:00:00,-1,1011.3,0.8,64,-7,10000,22.224,,,20,,,,,,,,,,,wg-a,,,,AAXX 02034 07190 12/60 /0212 11010 21070 39922 40113 53008 60006 90300=
07190,1996-04-02 06:00:00,-1,1013.4,2,69,-6,15000,18.52,,,10,-1.5,5.4,,,,,,,,,wg-a,,,,AAXX 02064 07190 02/65 30110 11010 21060 39942 40134 53020 60006 80001 90600 333 10054 21015 60004=
07190,1996-04-02 09:00:00,3,1014.7,1.6,56,-5,13000,25.928,,,20,,,,,,,,,,,wg-a,,,,AAXX 02094 07190 12663 30214 10030 21050 39958 40147 51016 60006 81101 90900=
07190,1996-04-02 12:00:00,7,1014.6,0.1,39,-6,13000,22.224,,,40,,,,,,,,,,,wg-a,,,,AAXX 02124 07190 12663 20412 10070 21060 39959 40146 53001 60006 81101 91200=
07190,1996-04-02 15:00:00,8,1014.9,0.4,34,-7,15000,25.928,,,50,,,,,,,,,,,wg-a,,,,AAXX 02154 07190 12765 /0514 10080 21070 39963 40149 53004 60006 81101 91500=
07190,1996-04-02 18:00:00,5,1017,1.8,41,-7,12000,18.52,,,30,-0.9,8,,,,,,,,,wg-a,,,,AAXX 02184 07190 12762 /0310 10050 21070 39981 40170 53018 60006 81401 91800 333 10080 21009=
07190,1996-04-02 21:00:00,2,1018.9,1.7,51,-7,12000,14.816,,,10,,,,,,,,,,,wg-a,,,,AAXX 02214 07190 12662 40108 10020 21070 39998 40189 51017 60006 82531 92100=
07190,1996-04-03 00:00:00,2,1018.9,0,64,-4,10000,18.52,,,20,,,,,,,,,,,wg-a,,,,AAXX 03004 07190 12660 30210 10020 21040 39998 40189 50000 60006 81531 90000=
07190,1996-04-03 03:00:00,1,1019,-0,75,-3,10000,22.224,,,20,,,,,,,,,,,wg-a,,,,AAXX 03034 07190 12660 /0212 10010 21030 39998 40190 55000 60006 85501 90300=
07190,1996-04-03 06:00:00,1,1020.6,1.6,75,-3,500,22.224,,,30,0.2,5,,,,,,,,,wg-a,,,,AAXX 03064 07190 02600 50312 10010 21030 30014 40206 53016 60006 81531 90600 333 10050 20002 60004=
07190,1996-04-03 09:00:00,4,1021.6,1.2,52,-5,9000,29.632,,,20,,,,,,,,,,,wg-a,,,,AAXX 03094 07190 12559 40216 10040 21050 30026 40216 51012 60006 81131 90900=
07190,1996-04-03 12:00:00,6,1021.4,-0,39,-7,15000,29.632,,,20,,,,,,,,,,,wg-a,,,,AAXX 03124 07190 12665 40216 10060 21070 30026 40214 54000 60006 82231 91200=
07190,1996-04-03 15:00:00,7,1022,0.6,42,-5,13000,29.632,,,20,,,,,,,,,,,wg-a,,,,AAXX 03154 07190 12663 70216 10070 21050 30032 40220 53006 60006 874// 91500=
07190,1996-04-03 18:00:00,5,1024.2,2,52,-4,12000,29.632,,,40,0.5,7.8,,,,,,,,,wg-a,,,,AAXX 03184 07190 12662 80416 10050 21040 30052 40242 53020 60006 885// 91800 333 10078 20005=
07190,1996-04-03 21:00:00,2,1025.9,1.5,80,-1,10000,18.52,,,20,,,,,,,,,,,wg-a,,,,AAXX 03214 07190 12460 70210 10020 21010 30067 40259 51015 60006 875// 92100=
07190,1996-04-04 00:00:00,2,1025.6,-0.3,80,-1,8000,22.224,,,20,,,,,,,,,,70,wg-a,,,,AAXX 04004 07190 02358 70212 10020 21010 30064 40256 58003 61000 77072 875// 90000 333 6100=
07190,1996-04-04 03:00:00,1,1025.3,-0.4,93,0,3500,14.816,,,20,,,,,,,,,,70,wg-a,,,,AAXX 04034 07190 02335 80208 10010 20000 30060 40253 55004 61000 77077 886// 90300 333 ////=
07190,1996-04-04 06:00:00,2,1025.3,0.1,87,0,2200,14.816,,,360,1.2,5,,,,,,,,10,wg-a,,,,AAXX 04064 07190 02322 83608 10020 20000 30061 40253 50001 61000 71077 886// 90600 333 10050 20012 6100=
07190,1996-04-04 09:00:00,3,1025.2,0,87,1,4500,18.52,,,30,,,,,,,,,,10,wg-a,,,,AAXX 04094 07190 32445 80310 10030 20010 30061 40252 50000 71072 888// 90900=
07190,1996-04-04 12:00:00,5,1024.7,-0.4,65,-1,10000,18.52,,,30,,,,,,,,,,2,wg-a,,,,AAXX 04124 07190 12560 70310 10050 21010 30057 40247 58004 60006 70272 878// 91200=
07190,1996-04-04 15:00:00,4,1024.4,-0.4,87,2,500,18.52,,,30,,,,0,,,,,,60,wg-a,,,,AAXX 04154 07190 12400 70310 10040 20020 30053 40244 56004 60007 76062 872// 91500=
07190,1996-04-04 18:00:00,3,1024.6,0.2,87,1,500,18.52,,,20,1.6,5.2,,0,,,,,,3,wg-a,,,,AAXX 04184 07190 12300 80210 10030 20010 30055 40246 52002 60007 70362 888// 91800 333 10052 20016=
07190,1996-04-04 21:00:00,2,1024.5,-0.2,93,1,500,18.52,,,30,,,,,,,,,,,wg-a,,,,AAXX 04214 07190 12200 80310 10020 20010 30053 40245 58002 60006 886// 92100=
07190,1996-04-05 00:00:00,1,1023.4,-1.1,93,0,4000,14.816,,,20,,,,,,,,,,10,wg-a,,,,AAXX 05004 07190 12240 70208 10010 20000 30042 40234 57011 60006 71022 875// 90000=
07190,1996-04-05 03:00:00,1,1021.9,-1.5,93,0,4500,11.112,,,20,,,,,,,,,,10,wg-a,,,,AAXX 05034 07190 12245 80206 10010 20000 30027 40219 56015 60006 71022 875// 90300=
07190,1996-04-05 06:00:00,2,1021.1,-0.7,93,1,3800,11.112,,,20,0.9,2.8,,,,,1,,,10,wg-a,,,,AAXX 05064 07190 02238 80206 10020 20010 30020 40211 56007 60006 71022 885// 90600 333 10028 20009 60014=
07190,1996-04-05 09:00:00,4,1020,-0.9,87,2,6000,11.112,,,40,,,,,,,,,,,wg-a,,,,AAXX 05094 07190 12456 80406 10040 20020 30011 40200 56009 60006 888// 90900=
07190,1996-04-05 12:00:00,6,1018.7,-1.2,70,1,9000,11.112,,,20,,,,,,,,,,,wg-a,,,,AAXX 05124 07190 12459 80206 10060 20010 39999 40187 58012 60006 888// 91200=
07190,1996-04-05 15:00:00,6,1017.9,-0.8,70,1,10000,7.408,,,60,,,,,,,,,,,wg-a,,,,AAXX 05154 07190 12560 80604 10060 20010 39991 40179 56008 60006 888// 91500=
07190,1996-04-05 18:00:00,5,1017.6,-0.3,81,2,8000,11.112,,,20,2,6.5,,,,,,,,,wg-a,,,,AAXX 05184 07190 12658 20206 10050 20020 39988 40176 56003 60006 81501 91800 333 10065 20020=
07190,1996-04-05 21:00:00,1,1018.2,0.2,86,-1,8000,3.704,,,280,,,,,,,,,,,wg-a,,,,AAXX 05214 07190 12/58 02802 10010 21010 39990 40182 52002 60006 80000 92100=
07190,1996-04-06 00:00:00,-2,1018.5,0.2,93,-3,4000,3.704,,,260,,,,,,,,,,10,wg-a,,,,AAXX 06004 07190 12/40 02602 11020 21030 39992 40185 52002 60006 71000 80000 90000=
07190,1996-04-06 03:00:00,-3,1018.7,0.1,93,-4,3000,3.704,,,220,,,,,,,,,,10,wg-a,,,,AAXX 06034 07190 12130 /2202 11030 21040 39993 40187 53001 60006 71011 86600 90300=
07190,1996-04-06 06:00:00,0,1019.3,0.7,93,-1,100,0,,,0,-3.1,5,,,,,,,,49,wg-a,,,,AAXX 06064 07190 02/01 90000 10000 21010 30000 40193 53007 60006 74941 89/// 90600 333 10050 21031 60004=
07190,1996-04-06 09:00:00,3,1019.7,0.7,93,2,2500,3.704,,,60,,,,,,,,,,10,wg-a,,,,AAXX 06094 07190 12725 70602 10030 20020 30007 40197 51007 60006 71042 875// 90900=
07190,1996-04-06 12:00:00,12,1017.7,-1.4,58,4,7000,3.704,,,70,,,,,,,,,,3,wg-a,,,,AAXX 06124 07190 02/57 /0702 10120 20040 39993 40177 58014 61000 70364 83030 91200 333 6100=
07190,1996-04-06 15:00:00,16,1016.2,-1.2,42,3,10000,7.408,,,60,,,,,,,,,,,wg-a,,,,AAXX 06154 07190 12660 60604 10160 20030 39981 40162 56012 60006 81232 91500=
07190,1996-04-06 18:00:00,14,1016.5,0.2,44,2,15000,7.408,,,30,-0.4,16.8,,,,,,,,,wg-a,,,,AAXX 06184 07190 32765 60304 10140 20020 39983 40165 53002 81242 91800 333 10168 21004=
07190,1996-04-06 21:00:00,7,1018,1,66,1,12000,3.704,,,300,,,,,,,,,,,wg-a,,,,AAXX 06214 07190 12/62 33002 10070 20010 39993 40180 51010 60006 80002 92100=
07190,1996-04-07 00:00:00,4,1018.6,0.4,81,1,10000,3.704,,,330,,,,,,,,,,,wg-a,,,,AAXX 07004 07190 12/60 63302 10040 20010 39997 40186 51004 60006 80002 90000=
07190,1996-04-07 03:00:00,3,1018.9,0.2,87,1,7000,0,,,0,,,,,,,,,,,wg-a,,,,AAXX 07034 07190 12857 60000 10030 20010 39999 40189 53002 60006 81532 90300=
07190,1996-04-07 06:00:00,3,1019.9,0.9,87,1,500,0,,,0,2.1,14.4,,,,,,,,,wg-a,,,,AAXX 07064 07190 02800 60000 10030 20010 30008 40199 53009 60006 83502 90600 333 10144 20021 61000=
07190,1996-04-07 09:00:00,10,1020.4,1,66,4,6000,3.704,,,30,,,,,,,,,,,wg-a,,,,AAXX 07094 07190 12756 60302 10100 20040 30018 40204 51010 60006 81532 90900=
07190,1996-04-07 12:00:00,17,1019.4,-0.5,42,4,10000,7.408,,,100,,,,,,,,,,,wg-a,,,,AAXX 07124 07190 12760 21004 10170 20040 30013 40194 58005 60006 82530 91200=
07190,1996-04-07 15:00:00,19,1018.4,-0.9,34,3,12000,3.704,,,40,,,,,,,,,,,wg-a,,,,AAXX 07154 07190 12762 40402 10190 20030 30004 40184 57009 60006 81801 91500=
07190,1996-04-07 18:00:00,15,1019.4,0.8,41,2,18000,7.408,,,330,2.5,19.1,,,,,,,,,wg-a,,,,AAXX 07184 07190 12768 43304 10150 20020 30012 40194 53008 60006 83831 91800 333 10191 20025=
07190,1996-04-07 21:00:00,12,1021.1,1.4,50,2,15000,7.408,,,310,,,,,,,,,,,wg-a,,,,AAXX 07214 07190 12865 23104 10120 20020 30026 40211 51014 60006 82530 92100=
07190,1996-04-08 00:00:00,11,1021.9,0.7,54,2,15000,11.112,,,300,,,,,,,,,,,wg-a,,,,AAXX 08004 07190 12865 53006 10110 20020 30033 40219 51007 60006 82530 90000=
07190,1996-04-08 03:00:00,9,1022.5,0.5,66,3,12000,7.408,,,320,,,,,,,,,,,wg-a,,,,AAXX 08034 07190 12862 73204 10090 20030 30038 40225 53005 60006 8453/ 90300=
07190,1996-04-08 06:00:00,9,1024.2,1.7,71,4,4000,7.408,,,360,7.8,15.3,,,,,,,,10,wg-a,,,,AAXX 08064 07190 02740 /3604 10090 20040 30055 40242 53017 60006 71022 86800 90600 333 10153 20078 60004=
07190,1996-04-08 09:00:00,13,1025.2,1.3,54,4,500,14.816,,,350,,,,,,,,,,,wg-a,,,,AAXX 08094 07190 12/00 03508 10130 20040 30068 40252 51013 60006 80000 90900=
07190,1996-04-08 12:00:00,17,1024.5,-0.5,45,5,7000,14.816,,,10,,,,,,,,,,,wg-a,,,,AAXX 08124 07190 12/57 00108 10170 20050 30063 40245 58005 60006 80000 91200=
07190,1996-04-08 15:00:00,16,1024.2,-0.4,48,5,6000,22.224,,,330,,,,,,,,,,,wg-a,,,,AAXX 08154 07190 12/56 03312 10160 20050 30059 40242 55004 60006 80000 91500=
07190,1996-04-08 18:00:00,10,1025.9,1.4,66,4,500,25.928,,,320,9.1,17.2,,,,,,,,,wg-a,,,,AAXX 08184 07190 12600 /3214 10100 20040 30073 40259 53014 60006 81140 91800 333 10172 20091=
07190,1996-04-08 21:00:00,8,1028.2,2.1,71,3,8000,11.112,,,310,,,,,,,,,,,wg-a,,,,AAXX 08214 07190 12658 23106 10080 20030 30094 40282 51021 60006 82500 92100=
07190,1996-04-09 03:00:00,8,1027.7,-0.6,71,3,6000,7.408,,,350,,,,,,,,,,,wg-a,,,,AAXX 09034 07190 12556 73504 10080 20030 30089 40277 56006 60006 875// 90300=
07190,1996-04-09 06:00:00,8,1028.2,0.4,71,3,6000,11.112,,,330,7.2,10.4,,,,,,,,,wg-a,,,,AAXX 09064 07190 02556 73306 10080 20030 30093 40282 53004 60006 875// 90600 333 10104 20072 60004=
07190,1996-04-09 09:00:00,10,1028.1,0.1,57,2,7000,11.112,,,20,,,,,,,,,,,wg-a,,,,AAXX 09094 07190 12557 70206 10100 20020 30094 40281 51001 60006 875// 90900=
07190,1996-04-09 12:00:00,13,1026.1,-1.8,54,4,8000,7.408,,,310,,,,,,,,,,,wg-a,,,,AAXX 09124 07190 12658 /3104 10130 20040 30076 40261 58018 60006 81100 91200=
07190,1996-04-09 15:00:00,15,1023.9,-2,48,4,8000,7.408,,,10,,,,,,,,,,,wg-a,,,,AAXX 09154 07190 12/58 00104 10150 20040 30056 40239 56020 60006 80000 91500=
07190,1996-04-09 18:00:00,14,1022.9,-1.1,47,3,9000,7.408,,,50,7.7,15.4,,,,,,,,,wg-a,,,,AAXX 09184 07190 12/59 50504 10140 20030 30045 40229 56011 60006 80001 91800 333 10154 20077=
07190,1996-04-09 21:00:00,8,1023.2,-0.1,71,3,8000,3.704,,,260,,,,,,,,,,,wg-a,,,,AAXX 09214 07190 12/58 22602 10080 20030 30044 40232 58001 60006 80001 92100=
07190,1996-04-10 00:00:00,5,1022.7,-0.6,87,3,7000,0,,,0,,,,,,,,,,,wg-a,,,,AAXX 10004 07190 12/57 00000 10050 20030 30038 40227 58006 60006 80000 90000=
07190,1996-04-10 03:00:00,4,1022,-0.8,87,2,6000,7.408,,,340,,,,,,,,,,,wg-a,,,,AAXX 10034 07190 12/56 03404 10040 20020 30030 40220 56008 60006 80000 90300=
07190,1996-04-10 06:00:00,5,1021.4,-0.5,87,3,3500,7.408,,,340,3.5,13.7,,,,,,,,10,wg-a,,,,AAXX 10064 07190 02/35 23404 10050 20030 30025 40214 55005 60006 71000 80001 90600 333 10137 20035 60004=
07190,1996-04-10 09:00:00,10,1020.5,-0.5,71,5,500,7.408,,,40,,,,,,,,,,,wg-a,,,,AAXX 10094 07190 12/00 /0404 10100 20050 30020 40205 58005 60006 81031 90900=
07190,1996-04-10 12:00:00,16,1018,-2.2,45,4,8000,7.408,,,60,,,,,,,,,,,wg-a,,,,AAXX 10124 07190 12/58 30604 10160 20040 39998 40180 58022 60006 80001 91200=
07190,1996-04-10 15:00:00,17,1016,-1.9,39,3,12000,3.704,,,100,,,,,,,,,,,wg-a,,,,AAXX 10154 07190 12762 51002 10170 20030 39980 40160 56019 60006 83431 91500=
07190,1996-04-10 18:00:00,15,1015.9,-0.1,48,4,10000,3.704,,,110,4.7,17.5,,,,,,,,,wg-a,,,,AAXX 10184 07190 12760 81102 10150 20040 39978 40159 55001 60006 84546 91800 333 10175 20047=
07190,1996-04-10 21:00:00,12,1016,-0.2,58,4,10000,7.408,,,330,,,,,,,,,,1,wg-a,,,,AAXX 10214 07190 02760 73304 10120 20040 39976 40160 58002 61000 70162 82542 92100 333 ////=
07190,1996-04-11 00:00:00,11,1015.5,-0.5,62,4,10000,11.112,,,330,,,,,,,,,,3,wg-a,,,,AAXX 11004 07190 02/60 73306 10110 20040 39971 40155 58005 61000 70362 84042 90000 333 ////=
07190,1996-04-11 03:00:00,9,1014.8,-0.8,87,7,7000,3.704,,,290,,,,,,,,,,,wg-a,,,,AAXX 11034 07190 32/57 /2902 10090 20070 39963 40148 56008 90300=
07190,1996-04-11 06:00:00,8,1015.4,0.5,100,8,1800,7.408,,,160,8.3,15.4,,3,,,3,,,10,wg-a,,,,AAXX 11064 07190 02218 81604 10080 20080 39968 40154 52005 60034 71062 885// 90600 333 10154 20083 60037=
07190,1996-04-11 09:00:00,9,1015.4,0.1,93,8,2000,7.408,,,170,,,,2,,,,,,10,wg-a,,,,AAXX 11094 07190 12320 81704 10090 20080 39969 40154 52001 60027 71066 885// 90900=
07190,1996-04-11 10:00:00,12,1013.5,-0.1,76,8,4500,3.704,,,330,8.4,12.9,,,,,,,,10,wg-a,,,,AAXX 11104 07190 32545 /3302 10120 20080 39952 40135 58001 7106/ 91000 333 10129 20084=
07190,1996-04-11 12:00:00,10,1014.8,-0.5,93,9,2000,3.704,,,180,,,,1,,,,,,10,wg-a,,,,AAXX 11124 07190 02220 81802 10100 20090 39964 40148 57005 60036 71066 887// 91200 333 60017=
07190,1996-04-11 15:00:00,13,1013.6,-1.1,77,9,3500,11.112,,,350,,,,1,,,,,,10,wg-a,,,,AAXX 11154 07190 12435 73506 10130 20090 39953 40136 58011 60017 71062 878// 91500=
07190,1996-04-11 18:00:00,12,1013.5,-0.1,76,8,4500,3.704,,,330,8.4,12.9,,,,,,,,10,wg-a,,,,AAXX 11184 07190 32545 63302 10120 20080 39952 40135 58001 71062 86830 91800 333 10129 20084=
07190,1996-04-11 21:00:00,10,1014.4,0.7,82,7,8000,7.408,,,280,,,,1,,,,,,1,wg-a,,,,AAXX 11214 07190 12558 72804 10100 20070 39959 40144 51007 60017 70198 875// 92100=
07190,1996-04-12 00:00:00,9,1014,-0.4,87,7,8000,3.704,,,290,,,,,,,,,,1,wg-a,,,,AAXX 12004 07190 12458 72902 10090 20070 39955 40140 58004 60016 70198 878// 90000=
07190,1996-04-12 03:00:00,8,1013.7,-0.4,93,7,6000,3.704,,,270,,,,,,,,,,,wg-a,,,,AAXX 12034 07190 12556 72702 10080 20070 39951 40137 56004 60006 875// 90300=
07190,1996-04-12 06:00:00,7,1014.9,1.1,87,5,4000,18.52,,,40,6.6,11.9,,,,,5,,,10,wg-a,,,,AAXX 12064 07190 12240 70410 10070 20050 39962 40149 53011 60054 71022 876// 90600 333 10119 20066=
07190,1996-04-12 09:00:00,4,1015.9,0.8,93,3,4500,14.816,,,20,,,,,,,,,,10,wg-a,,,,AAXX 12094 07190 02245 80208 10040 20030 39970 40159 51008 61000 71086 887// 90900 333 ////=
07190,1996-04-12 12:00:00,5,1016,0.2,87,3,10000,18.52,,,20,,,,,,,,,,1,wg-a,,,,AAXX 12124 07190 02360 80210 10050 20030 39972 40160 51002 61000 70186 885// 91200 333 ////=
07190,1996-04-12 15:00:00,5,1015.7,-0.3,87,3,7000,14.816,,,10,,,,,,,,,,,wg-a,,,,AAXX 12154 07190 12457 70108 10050 20030 39969 40157 58003 60006 875// 91500=
07190,1996-04-12 18:00:00,5,1016.3,0.5,75,1,6000,14.816,,,10,4.1,6.6,,,,,,,,,wg-a,,,,AAXX 12184 07190 32556 /0108 10050 20010 39974 40163 52005 875// 91800 333 10066 20041=
07190,1996-04-12 21:00:00,4,1016.6,0.3,81,1,6000,7.408,,,340,,,,,,,,,,,wg-a,,,,AAXX 12214 07190 12756 73404 10040 20010 39977 40166 50003 60006 875// 92100=
07190,1996-04-13 03:00:00,3,1016.1,0.1,93,2,6000,11.112,,,350,,,,1,,,,,,61,wg-a,,,,AAXX 13034 07190 12256 73506 10030 20020 39972 40161 53001 60017 76162 875// 90300=
07190,1996-04-13 06:00:00,2,1017.9,1.7,93,1,4000,14.816,,,360,2,4.5,,2,,,3,,,10,wg-a,,,,AAXX 13064 07190 02340 83608 10020 20010 39988 40179 53017 60034 71062 885// 90600 333 10045 20020 60027=
07190,1996-04-13 07:00:00,2,1017.9,1.7,93,1,4000,14.816,,,360,2,4.5,,2,,,3,,,61,wg-a,,,,AAXX 13074 07190 02340 83608 10020 20010 39988 40179 53017 60034 76162 885// 90700 333 10045 20020 60027=
07190,1996-04-13 09:00:00,4,1019.4,1.7,70,-1,10000,18.52,,,20,,,,0,,,,,,2,wg-a,,,,AAXX 13094 07190 12660 80210 10040 21010 30004 40194 53017 60007 70262 8557/ 90900=
07190,1996-04-13 12:00:00,9,1018.9,-0.2,61,2,12000,3.704,,,100,,,,,,,,,,1,wg-a,,,,AAXX 13124 07190 12562 51002 10090 20020 30003 40189 58002 60006 70162 81131 91200=
07190,1996-04-13 14:00:00,9,1018.9,0.9,49,-1,15000,14.816,,,40,1.8,10.8,,,,,,,,,wg-a,,,,AAXX 13144 07190 32/65 50408 10090 21010 30003 40189 52009 80002 91400 333 10108 20018=
07190,1996-04-13 15:00:00,11,1017.9,-0.8,40,-2,12000,3.704,,,60,,,,,,,,,,,wg-a,,,,AAXX 13154 07190 12/62 /0602 10110 21020 39994 40179 56008 60006 80002 91500=
07190,1996-04-13 18:00:00,9,1018.9,0.9,49,-1,15000,14.816,,,40,1.8,10.8,,,,,,,,,wg-a,,,,AAXX 13184 07190 32/65 50408 10090 21010 30003 40189 52009 80002 91800 333 10108 20018=
07190,1996-04-13 21:00:00,6,1020.7,1.5,61,-1,13000,14.816,,,20,,,,,,,,,,,wg-a,,,,AAXX 13214 07190 12663 60208 10060 21010 30018 40207 53015 60006 83502 92100=
07190,1996-04-14 00:00:00,4,1021,0.2,70,-1,15000,7.408,,,350,,,,,,,,,,,wg-a,,,,AAXX 14004 07190 12/65 63504 10040 21010 30020 40210 51002 60006 80002 90000=
07190,1996-04-14 03:00:00,2,1021.1,-0,75,-2,15000,7.408,,,10,,,,,,,,,,,wg-a,,,,AAXX 14034 07190 12/65 60104 10020 21020 30020 40211 54000 60006 80002 90300=
07190,1996-04-14 06:00:00,2,1022.8,1.6,80,-1,20000,7.408,,,340,0.2,8.7,,,,,,,,,wg-a,,,,AAXX 14064 07190 02/70 33404 10020 21010 30036 40228 53016 60006 80003 90600 333 10087 20002 60004=
07190,1996-04-14 09:00:00,8,1023.4,1,57,0,20000,14.816,,,60,,,,,,,,,,,wg-a,,,,AAXX 14094 07190 12670 20608 10080 20000 30046 40234 51010 60006 81150 90900=
07190,1996-04-14 12:00:00,12,1022.4,-0.7,40,-1,25000,11.112,,,70,,,,,,,,,,,wg-a,,,,AAXX 14124 07190 12675 20706 10120 21010 30039 40224 58007 60006 82100 91200=
07190,1996-04-14 15:00:00,13,1021.4,-0.9,35,-2,25000,14.816,,,30,,,,,,,,,,,wg-a,,,,AAXX 14154 07190 12775 20308 10130 21020 30030 40214 58009 60006 82100 91500=
07190,1996-04-14 18:00:00,11,1022.6,1.1,43,-1,25000,18.52,,,30,1.4,13.6,,,,,,,,,wg-a,,,,AAXX 14184 07190 12775 10310 10110 21010 30040 40226 51011 60006 81401 91800 333 10136 20014=
07190,1996-04-14 21:00:00,7,1025,2,57,-1,20000,11.112,,,30,,,,,,,,,,,wg-a,,,,AAXX 14214 07190 12/70 10306 10070 21010 30061 40250 51020 60006 80001 92100=
07190,1996-04-15 00:00:00,3,1025.5,0.5,75,-1,20000,11.112,,,340,,,,,,,,,,,wg-a,,,,AAXX 15004 07190 12/70 23406 10030 21010 30064 40255 51005 60006 80001 90000=
07190,1996-04-15 03:00:00,1,1026.5,0.6,80,-2,15000,7.408,,,340,,,,,,,,,,,wg-a,,,,AAXX 15034 07190 12/65 23404 10010 21020 30072 40265 53006 60006 80001 90300=
07190,1996-04-15 06:00:00,3,1027.9,1.5,75,-1,15000,7.408,,,340,0.7,10.8,,,,,,,,,wg-a,,,,AAXX 15064 07190 02/65 13404 10030 21010 30087 40279 53015 60006 80001 90600 333 10108 20007 60004=
07190,1996-04-15 09:00:00,10,1028,0.5,50,0,15000,11.112,,,30,,,,,,,,,,,wg-a,,,,AAXX 15094 07190 12665 /0306 10100 20000 30093 40280 51005 60006 81100 90900=
07190,1996-04-15 12:00:00,14,1026.9,-0.9,36,-1,20000,14.816,,,10,,,,,,,,,,,wg-a,,,,AAXX 15124 07190 12770 /0108 10140 21010 30084 40269 58009 60006 81100 91200=
07190,1996-04-15 15:00:00,15,1025.3,-1.5,31,-2,25000,11.112,,,40,,,,,,,,,,,wg-a,,,,AAXX 15154 07190 12/75 10406 10150 21020 30069 40253 58015 60006 80001 91500=
07190,1996-04-15 18:00:00,14,1024.9,-0.4,31,-3,25000,7.408,,,10,3.1,15.5,,,,,,,,,wg-a,,,,AAXX 15184 07190 12/75 10104 10140 21030 30065 40249 56004 60006 80001 91800 333 10155 20031=
07190,1996-04-15 21:00:00,8,1025.7,0.4,46,-3,25000,11.112,,,30,,,,,,,,,,,wg-a,,,,AAXX 15214 07190 12/75 00306 10080 21030 30069 40257 50004 60006 80000 92100=
07190,1996-04-16 00:00:00,3,1025.7,-0.4,75,-1,20000,3.704,,,280,,,,,,,,,,,wg-a,,,,AAXX 16004 07190 12/70 02802 10030 21010 30065 40257 58004 60006 80000 90000=
07190,1996-04-16 03:00:00,1,1024.3,-1.5,86,-1,20000,0,,,0,,,,,,,,,,,wg-a,,,,AAXX 16034 07190 12/70 00000 10010 21010 30050 40243 56015 60006 80000 90300=
07190,1996-04-16 06:00:00,2,1023.6,-0.6,80,-1,10000,3.704,,,20,-1,13.7,,,,,,,,,wg-a,,,,AAXX 16064 07190 02/60 20202 10020 21010 30044 40236 55006 60006 80001 90600 333 10137 21010 60004=
07190,1996-04-16 09:00:00,11,1021.6,-1.3,47,0,10000,7.408,,,350,,,,,,,,,,,wg-a,,,,AAXX 16094 07190 12/60 33504 10110 20000 30031 40216 58013 60006 80001 90900=
07190,1996-04-16 12:00:00,17,1017.9,-3.3,23,-4,18000,11.112,,,140,,,,,,,,,,,wg-a,,,,AAXX 16124 07190 12/68 21406 10170 21040 39998 40179 58033 60006 80001 91200=
07190,1996-04-16 15:00:00,19,1014.6,-3.1,16,-7,500,11.112,,,150,,,,,,,,,,,wg-a,,,,AAXX 16154 07190 12/00 21506 10190 21070 39967 40146 58031 60006 80001 91500=
07190,1996-04-16 18:00:00,16,1013.1,-1.8,21,-6,40000,7.408,,,110,1.6,19.2,,,,,,,,,wg-a,,,,AAXX 16184 07190 12/82 41104 10160 21060 39950 40131 56018 60006 81042 91800 333 10192 20016=
07190,1996-04-16 21:00:00,11,1012.7,-0.6,35,-4,500,7.408,,,120,,,,,,,,,,,wg-a,,,,AAXX 16214 07190 12/00 41204 10110 21040 39943 40127 57006 60006 82032 92100=
07190,1996-04-17 00:00:00,4,1012.1,-0.9,70,-1,25000,3.704,,,290,,,,,,,,,,,wg-a,,,,AAXX 17004 07190 12/75 32902 10040 21010 39933 40121 57009 60006 80001 90000=
07190,1996-04-17 03:00:00,1,1011.1,-1.1,75,-3,25000,3.704,,,250,,,,,,,,,,,wg-a,,,,AAXX 17034 07190 12/75 12502 10010 21030 39921 40111 56011 60006 80001 90300=
07190,1996-04-17 06:00:00,3,1011,0.1,75,-1,500,3.704,,,10,0.1,16,,,,,,,,,wg-a,,,,AAXX 17064 07190 02/00 30102 10030 21010 39921 40110 53001 60006 80001 90600 333 10160 20001 60004=
07190,1996-04-17 09:00:00,12,1010.2,-0.2,44,0,500,3.704,,,210,,,,,,,,,,,wg-a,,,,AAXX 17094 07190 12/00 52102 10120 20000 39920 40102 57002 60006 80001 90900=
07190,1996-04-17 12:00:00,18,1009.4,-0.5,28,-1,500,7.408,,,70,,,,,,,,,,,wg-a,,,,AAXX 17124 07190 12/00 60704 10180 21010 39915 40094 58005 60006 80002 91200=
07190,1996-04-17 15:00:00,20,1009.1,-0.2,26,0,500,3.704,,,90,,,,,,,,,,,wg-a,,,,AAXX 17154 07190 12/00 70902 10200 20000 39913 40091 56002 60006 82036 91500=
07190,1996-04-17 18:00:00,17,1011.2,2,36,2,17000,14.816,,,290,2.7,19.9,,,,,,,,,wg-a,,,,AAXX 17184 07190 12767 72908 10170 20020 39933 40112 53020 60006 83277 91800 333 10199 20027=
07190,1996-04-17 21:00:00,14,1014.3,2.8,51,4,15000,11.112,,,310,,,,,,,,,,,wg-a,,,,AAXX 17214 07190 12/65 63106 10140 20040 39961 40143 51028 60006 84042 92100=
07190,1996-04-18 03:00:00,12,1018.4,1.7,71,7,15000,7.408,,,300,,,,,,,,,,,wg-a,,,,AAXX 18034 07190 12665 83004 10120 20070 30000 40184 53017 60006 875// 90300=
07190,1996-04-18 06:00:00,11,1020.2,1.7,76,7,20000,7.408,,,270,10.8,17.2,,,,,,,,3,wg-a,,,,AAXX 18064 07190 02570 82704 10110 20070 30017 40202 53017 61000 70362 888// 90600 333 10172 20108 6100=
07190,1996-04-18 12:00:00,15,1021.3,-0.5,48,4,18000,7.408,,,190,,,,,,,,,,,wg-a,,,,AAXX 18124 07190 12668 71904 10150 20040 30030 40213 58005 60006 87830 91200=
07190,1996-04-18 18:00:00,17,1019.3,-0.6,42,4,25000,0,,,0,10.8,17.9,,,,,,,,,wg-a,,,,AAXX 18184 07190 12/75 30000 10170 20040 30012 40193 56006 60006 80001 91800 333 10179 20108=
07190,1996-04-18 21:00:00,10,1020.5,0.8,66,4,20000,7.408,,,260,,,,,,,,,,,wg-a,,,,AAXX 18214 07190 12/70 32604 10100 20040 30019 40205 51008 60006 80001 92100=
07190,1996-04-19 00:00:00,8,1021.2,0.4,81,5,15000,3.704,,,290,,,,,,,,,,,wg-a,,,,AAXX 19004 07190 12/65 32902 10080 20050 30025 40212 51004 60006 82031 90000=
07190,1996-04-19 03:00:00,7,1020.9,-0.3,81,4,12000,3.704,,,210,,,,,,,,,,,wg-a,,,,AAXX 19034 07190 12/62 52102 10070 20040 30021 40209 55003 60006 82032 90300=
07190,1996-04-19 06:00:00,8,1021.5,0.7,87,6,15000,3.704,,,150,6.4,16.6,,,,,,,,,wg-a,,,,AAXX 19064 07190 02765 41502 10080 20060 30028 40215 53007 60006 84501 90600 333 10166 20064 60004=
07190,1996-04-19 09:00:00,15,1020.9,-0.1,63,8,13000,7.408,,,180,,,,,,,,,,,wg-a,,,,AAXX 19094 07190 12/63 21804 10150 20080 30027 40209 58001 60006 80001 90900=
07190,1996-04-19 12:00:00,21,1018.8,-1.8,40,7,18000,11.112,,,150,,,,,,,,,,,wg-a,,,,AAXX 19124 07190 12768 41506 10210 20070 30009 40188 58018 60006 81101 91200=
07190,1996-04-19 15:00:00,22,1016.9,-1.7,35,6,25000,14.816,,,150,,,,,,,,,,,wg-a,,,,AAXX 19154 07190 12775 51508 10220 20060 39992 40169 56017 60006 81101 91500=
07190,1996-04-19 18:00:00,20,1016.2,-0.8,40,6,35000,7.408,,,120,8.2,22.6,,,,,,,,,wg-a,,,,AAXX 19184 07190 12/81 61204 10200 20060 39983 40162 55008 60006 80001 91800 333 10226 20082=
07190,1996-04-19 21:00:00,13,1017.4,0.7,62,6,25000,3.704,,,290,,,,,,,,,,,wg-a,,,,AAXX 19214 07190 12/75 42902 10130 20060 39991 40174 51007 60006 80001 92100=
07190,1996-04-20 00:00:00,9,1017.7,0,81,6,20000,7.408,,,250,,,,,,,,,,,wg-a,,,,AAXX 20004 07190 12/70 32504 10090 20060 39991 40177 50000 60006 80001 90000=
07190,1996-04-20 03:00:00,7,1017.6,-0.2,81,4,20000,3.704,,,220,,,,,,,,,,,wg-a,,,,AAXX 20034 07190 12/70 22202 10070 20040 39989 40176 55002 60006 80001 90300=
07190,1996-04-20 06:00:00,8,1018.3,0.8,87,6,500,0,,,0,5.9,19.6,,,,,,,,,wg-a,,,,AAXX 20064 07190 02/00 40000 10080 20060 39997 40183 52008 60006 80001 90600 333 10196 20059 60004=
07190,1996-04-20 09:00:00,18,1017.1,-0.6,45,6,500,7.408,,,190,,,,,,,,,,,wg-a,,,,AAXX 20094 07190 12/00 21904 10180 20060 39991 40171 58006 60006 80001 90900=
07190,1996-04-20 12:00:00,24,1014.6,-2.1,29,5,500,3.704,,,90,,,,,,,,,,,wg-a,,,,AAXX 20124 07190 12600 20902 10240 20050 39970 40146 56021 60006 82200 91200=
07190,1996-04-20 15:00:00,26,1012,-2.4,28,6,500,7.408,,,130,,,,,,,,,,,wg-a,,,,AAXX 20154 07190 12700 31304 10260 20060 39946 40120 58024 60006 82201 91500=
07190,1996-04-20 18:00:00,22,1011.5,-0.7,33,5,500,3.704,,,160,8.4,25.8,,,,,,,,,wg-a,,,,AAXX 20184 07190 12700 31602 10220 20050 39939 40115 56007 60006 82401 91800 333 10258 20084=
07190,1996-04-20 21:00:00,15,1012.9,0.9,51,5,25000,3.704,,,290,,,,,,,,,,,wg-a,,,,AAXX 20214 07190 12875 22902 10150 20050 39948 40129 53009 60006 81501 92100=
07190,1996-04-21 00:00:00,12,1013.9,0.8,58,4,25000,3.704,,,140,,,,,,,,,,,wg-a,,,,AAXX 21004 07190 12/75 31402 10120 20040 39956 40139 53008 60006 80001 90000=
07190,1996-04-21 03:00:00,9,1014,-0.1,81,6,25000,3.704,,,70,,,,,,,,,,,wg-a,,,,AAXX 21034 07190 12/75 20702 10090 20060 39955 40140 57001 60006 80001 90300=
07190,1996-04-21 06:00:00,10,1014.3,0.3,82,7,500,3.704,,,90,6.9,22,,,,,,,,,wg-a,,,,AAXX 21064 07190 02800 40902 10100 20070 39958 40143 53003 60006 815/1 90600 333 10220 20069 60004=
07190,1996-04-21 09:00:00,19,1013.2,-0.5,37,4,25000,3.704,,,240,,,,,,,,,,,wg-a,,,,AAXX 21094 07190 12/75 42402 10190 20040 39953 40132 58005 60006 80001 90900=
07190,1996-04-21 12:00:00,24,1011.3,-1.5,25,3,500,3.704,,,100,,,,,,,,,,,wg-a,,,,AAXX 21124 07190 12700 31002 10240 20030 39938 40113 58015 60006 81101 91200=
07190,1996-04-21 15:00:00,27,1009.3,-1.9,18,1,500,14.816,,,180,,,,,,,,,,,wg-a,,,,AAXX 21154 07190 12700 51808 10270 20010 39919 40093 56019 60006 82401 91500=
07190,1996-04-21 18:00:00,23,1009.8,0.3,23,1,500,7.408,,,290,9.6,26.8,,,,,,,,,wg-a,,,,AAXX 21184 07190 12800 62904 10230 20010 39922 40098 53003 60006 83431 91800 333 10268 20096=
07190,1996-04-21 21:00:00,16,1012.2,2,42,3,25000,3.704,,,130,,,,,,,,,,,wg-a,,,,AAXX 21214 07190 12/75 31302 10160 20030 39942 40122 53020 60006 82031 92100=
07190,1996-04-22 03:00:00,10,1013.4,0.2,71,5,25000,0,,,0,,,,,,,,,,,wg-a,,,,AAXX 22034 07190 12775 40000 10100 20050 39950 40134 50002 60006 82531 90300=
07190,1996-04-22 06:00:00,13,1013.1,-0.2,67,7,500,3.704,,,300,9.4,23.3,,,,,,,,14,wg-a,,,,AAXX 22064 07190 02600 /3002 10130 20070 39948 40131 58002 60006 71411 8587/ 90600 333 10233 20094 60004=
07190,1996-04-22 09:00:00,20,1012.1,-0.5,40,6,500,11.112,,,10,,,,,,,,,,,wg-a,,,,AAXX 22094 07190 12700 30106 10200 20060 39943 40121 58005 60006 82541 90900=
07190,1996-04-22 12:00:00,26,1009,-2.7,24,4,500,7.408,,,80,,,,,,,,,,,wg-a,,,,AAXX 22124 07190 12/00 70804 10260 20040 39916 40090 56027 60006 83012 91200=
07190,1996-04-22 15:00:00,26,1007.5,-1.4,24,4,500,7.408,,,140,,,,,,,,,,,wg-a,,,,AAXX 22154 07190 12800 71404 10260 20040 39902 40075 58014 60006 82512 91500=
07190,1996-04-22 18:00:00,24,1006.3,-1.3,29,5,35000,3.704,,,190,12.5,27.7,,,,,,,,,wg-a,,,,AAXX 22184 07190 12881 71902 10240 20050 39889 40063 56013 60006 82572 91800 333 10277 20125=
07190,1996-04-22 21:00:00,17,1006.9,0.1,52,7,25000,3.704,,,240,,,,,,,,,,,wg-a,,,,AAXX 22214 07190 12875 72402 10170 20070 39890 40069 53001 60006 835/2 92100=
07190,1996-04-23 00:00:00,13,1008.5,1.3,67,7,20000,7.408,,,100,,,,,,,,,,,wg-a,,,,AAXX 23004 07190 12770 31004 10130 20070 39903 40085 51013 60006 83500 90000=
07190,1996-04-23 03:00:00,13,1008.3,-0.1,72,8,20000,3.704,,,350,,,,,,,,,,,wg-a,,,,AAXX 23034 07190 12770 /3502 10130 20080 39902 40083 58001 60006 86500 90300=
07190,1996-04-23 06:00:00,16,1009.3,1.1,59,8,20000,7.408,,,350,12.1,24.2,,,,,,,,,wg-a,,,,AAXX 23064 07190 02770 /3504 10160 20080 39913 40093 53011 60006 85530 90600 333 10242 20121 60004=
07190,1996-04-23 09:00:00,17,1011.1,1.9,63,10,20000,3.704,,,180,,,,,,,,,,21,wg-a,,,,AAXX 23094 07190 02770 71802 10170 20100 39932 40111 52019 61000 72162 8453/ 90900 333 ////=
07190,1996-04-23 12:00:00,18,1011.2,0.2,64,11,18000,22.224,,,210,,,,,,,,,,21,wg-a,,,,AAXX 23124 07190 02668 72112 10180 20110 39934 40112 53002 61000 72162 875// 91200 333 6100=
07190,1996-04-23 15:00:00,18,1011.9,0.6,56,9,500,22.224,,,230,,,,,,,,,,60,wg-a,,,,AAXX 23154 07190 02600 82312 10180 20090 39940 40119 53006 61000 76062 8657/ 91500 333 ////=
07190,1996-04-23 18:00:00,14,1012.9,0.8,82,11,20000,11.112,,,260,14.3,19.2,,0,,,,,,60,wg-a,,,,AAXX 23184 07190 12570 82606 10140 20110 39948 40129 53008 60007 76062 878// 91800 333 10192 20143=
07190,1996-04-23 21:00:00,12,1016.2,3.1,94,11,7000,11.112,,,200,,,,2,,,,,,61,wg-a,,,,AAXX 23214 07190 12257 82006 10120 20110 39979 40162 53031 60027 76166 878// 92100=
07190,1996-04-24 00:00:00,12,1017.8,1.5,94,11,13000,11.112,,,200,,,,4,,,,,,61,wg-a,,,,AAXX 24004 07190 02463 82006 10120 20110 39994 40178 51015 60066 76166 878// 90000 333 60047=
07190,1996-04-24 03:00:00,11,1018.6,0.8,94,10,18000,11.112,,,190,,,,0,,,,,,0,wg-a,,,,AAXX 24034 07190 12268 71906 10110 20100 30002 40186 53008 60007 70062 878// 90300=
07190,1996-04-24 06:00:00,11,1019.7,1,94,10,9000,11.112,,,170,10.2,14.3,,0,,,6,,,1,wg-a,,,,AAXX 24064 07190 02559 71706 10110 20100 30012 40197 53010 60064 70162 8583/ 90600 333 10143 20102 60007=
07190,1996-04-24 09:00:00,13,1020.9,1.4,77,9,20000,14.816,,,190,,,,,,,,,,,wg-a,,,,AAXX 24094 07190 12570 /1908 10130 20090 30026 40209 51014 60006 83230 90900=
07190,1996-04-24 12:00:00,15,1020.5,-0.3,72,10,15000,18.52,,,170,,,,0,,,,,,29,wg-a,,,,AAXX 24124 07190 02565 61710 10150 20100 30023 40205 56003 60016 72998 85301 91200 333 60007=
07190,1996-04-24 15:00:00,15,1020.5,-0.1,63,8,9000,11.112,,,140,,,,4,,,,,,29,wg-a,,,,AAXX 24154 07190 12659 51406 10150 20080 30022 40205 55001 60047 72998 85300 91500=
07190,1996-04-24 18:00:00,14,1020.7,0.2,72,9,25000,7.408,,,100,10.7,16.9,,,,,,,,3,wg-a,,,,AAXX 24184 07190 32675 41004 10140 20090 30024 40207 53002 70398 84400 91800 333 10169 20107=
07190,1996-04-24 21:00:00,11,1023.7,2.7,76,7,20000,3.704,,,340,,,,,,,,,,,wg-a,,,,AAXX 24214 07190 12770 13402 10110 20070 30051 40237 51027 60006 81500 92100=
07190,1996-04-25 00:00:00,7,1024.4,0.5,93,6,20000,3.704,,,290,,,,,,,,,,,wg-a,,,,AAXX 25004 07190 12870 12902 10070 20060 30056 40244 50005 60006 81030 90000=
07190,1996-04-25 03:00:00,4,1024.8,0.2,93,3,20000,3.704,,,130,,,,,,,,,,,wg-a,,,,AAXX 25034 07190 12/70 01302 10040 20030 30058 40248 51002 60006 80000 90300=
07190,1996-04-25 06:00:00,6,1025.9,1.2,100,6,500,0,,,0,4.3,14,,,,,4,,,,wg-a,,,,AAXX 25064 07190 02700 40000 10060 20060 30070 40259 53012 60006 83830 90600 333 10140 20043 60044=
07190,1996-04-25 09:00:00,14,1025.5,0.1,63,7,18000,11.112,,,10,,,,,,,,,,,wg-a,,,,AAXX 25094 07190 12768 30106 10140 20070 30071 40255 51001 60006 81201 90900=
07190,1996-04-25 12:00:00,17,1024.3,-1,39,3,25000,11.112,,,350,,,,,,,,,,,wg-a,,,,AAXX 25124 07190 12675 43506 10170 20030 30061 40243 58010 60006 82801 91200=
07190,1996-04-25 15:00:00,18,1023.1,-1.1,37,3,25000,11.112,,,40,,,,,,,,,,,wg-a,,,,AAXX 25154 07190 12775 30406 10180 20030 30050 40231 56011 60006 82402 91500=
07190,1996-04-25 18:00:00,17,1023,-0.2,42,4,25000,11.112,,,330,6.1,18.7,,,,,,,,,wg-a,,,,AAXX 25184 07190 12775 33306 10170 20040 30048 40230 56002 60006 82462 91800 333 10187 20061=
07190,1996-04-25 21:00:00,12,1024.1,0.8,58,4,25000,11.112,,,350,,,,,,,,,,,wg-a,,,,AAXX 25214 07190 12775 13506 10120 20040 30056 40241 50008 60006 81500 92100=
07190,1996-04-26 00:00:00,8,1024,-0.3,76,4,20000,7.408,,,320,,,,,,,,,,,wg-a,,,,AAXX 26004 07190 12/70 03204 10080 20040 30053 40240 58003 60006 80000 90000=
07190,1996-04-26 03:00:00,6,1023.4,-0.8,81,3,20000,3.704,,,10,,,,,,,,,,,wg-a,,,,AAXX 26034 07190 12/70 00102 10060 20030 30045 40234 56008 60006 80000 90300=
07190,1996-04-26 06:00:00,9,1023.3,0.1,66,3,25000,11.112,,,350,6.3,17,,,,,,,,,wg-a,,,,AAXX 26064 07190 02575 23506 10090 20030 30046 40233 53001 60006 81401 90600 333 10170 20063 60004=
07190,1996-04-26 09:00:00,15,1022,-0.8,51,5,500,11.112,,,20,,,,,,,,,,,wg-a,,,,AAXX 26094 07190 12/00 10206 10150 20050 30038 40220 58008 60006 80001 90900=
07190,1996-04-26 12:00:00,19,1019.7,-2.1,34,3,35000,18.52,,,20,,,,,,,,,,,wg-a,,,,AAXX 26124 07190 12781 30210 10190 20030 30017 40197 58021 60006 82401 91200=
07190,1996-04-26 15:00:00,21,1017.6,-1.9,33,4,35000,18.52,,,40,,,,,,,,,,,wg-a,,,,AAXX 26154 07190 12681 40410 10210 20040 39998 40176 56019 60006 82401 91500=
07190,1996-04-26 18:00:00,19,1016.8,-0.9,32,2,35000,18.52,,,20,8.9,20.8,,,,,,,,,wg-a,,,,AAXX 26184 07190 12781 20210 10190 20020 39988 40168 56009 60006 81401 91800 333 10208 20089=
07190,1996-04-26 21:00:00,14,1017.9,0.7,47,3,25000,14.816,,,30,,,,,,,,,,,wg-a,,,,AAXX 26214 07190 12/75 20308 10140 20030 39996 40179 51007 60006 80001 92100=
07190,1996-04-27 00:00:00,11,1017.2,-0.8,54,2,25000,7.408,,,10,,,,,,,,,,,wg-a,,,,AAXX 27004 07190 12/75 10104 10110 20020 39988 40172 58008 60006 80001 90000=
07190,1996-04-27 03:00:00,9,1016,-1.3,66,3,25000,11.112,,,350,,,,,,,,,,,wg-a,,,,AAXX 27034 07190 12/75 13506 10090 20030 39975 40160 56013 60006 80001 90300=
07190,1996-04-27 06:00:00,11,1015.5,-0.4,62,4,15000,11.112,,,10,8.9,18.5,,,,,,,,,wg-a,,,,AAXX 27064 07190 02/65 50106 10110 20040 39971 40155 56004 60006 81042 90600 333 10185 20089 60004=
07190,1996-04-27 09:00:00,17,1013.9,-1.2,48,6,13000,22.224,,,30,,,,,,,,,,,wg-a,,,,AAXX 27094 07190 12/63 60312 10170 20060 39959 40139 58012 60006 81032 90900=
07190,1996-04-27 12:00:00,21,1011.8,-1.8,35,5,20000,25.928,,,30,,,,,,,,,,,wg-a,,,,AAXX 27124 07190 12/70 60314 10210 20050 39941 40118 58018 60006 84032 91200=
07190,1996-04-27 15:00:00,21,1010.3,-1.5,38,6,25000,22.224,,,40,,,,,,,,,,,wg-a,,,,AAXX 27154 07190 12775 70412 10210 20060 39926 40103 58015 60006 81571 91500=
07190,1996-04-27 18:00:00,20,1009.7,-0.7,40,6,20000,22.224,,,30,11,20.9,,,,,,,,,wg-a,,,,AAXX 27184 07190 12770 70312 10200 20060 39919 40097 56007 60006 8358/ 91800 333 10209 20110=
07190,1996-04-27 21:00:00,18,1010,0.2,45,6,15000,11.112,,,30,,,,,,,,,,,wg-a,,,,AAXX 27214 07190 12765 70306 10180 20060 39921 40100 50002 60006 8457/ 92100=
07190,1996-04-28 00:00:00,15,1010,-0.2,59,7,15000,3.704,,,180,,,,,,,,,,,wg-a,,,,AAXX 28004 07190 12765 71802 10150 20070 39919 40100 57002 60006 8457/ 90000=
07190,1996-04-28 06:00:00,12,1009.4,0.1,94,11,6000,3.704,,,300,12.2,19.6,,1,,,1,,,3,wg-a,,,,AAXX 28064 07190 02656 83002 10120 20110 39912 40094 53001 60014 70362 8657/ 90600 333 10196 20122 60017=
07190,1996-04-28 09:00:00,12,1009.7,0.3,100,12,2200,7.408,,,340,,,,0,,,,,,10,wg-a,,,,AAXX 28094 07190 12222 83404 10120 20120 39915 40097 53003 60007 71065 865// 90900=
07190,1996-04-28 12:00:00,15,1008.5,-1,88,13,4500,3.704,,,340,,,,1,,,,,,10,wg-a,,,,AAXX 28124 07190 02345 73402 10150 20130 39905 40085 58010 60026 71065 8583/ 91200 333 60017=
07190,1996-04-28 15:00:00,17,1006.5,-1.8,68,11,8000,11.112,,,340,,,,,,,,,,,wg-a,,,,AAXX 28154 07190 12558 33406 10170 20110 39887 40065 58018 60006 81231 91500=
07190,1996-04-28 18:00:00,17,1006.3,-0.3,72,12,10000,11.112,,,350,12.2,17.6,,,,,,,,,wg-a,,,,AAXX 28184 07190 32/60 /3506 10170 20120 39884 40063 55003 82032 91800 333 10176 20122=
07190,1996-04-28 21:00:00,12,1007.5,0.9,82,9,10000,7.408,,,330,,,,,,,,,,,wg-a,,,,AAXX 28214 07190 12660 /3304 10120 20090 39893 40075 51009 60006 81201 92100=
07190,1996-04-29 00:00:00,11,1007.5,0,87,9,8000,11.112,,,340,,,,,,,,,,,wg-a,,,,AAXX 29004 07190 12/58 23406 10110 20090 39893 40075 50000 60006 80002 90000=
07190,1996-04-29 03:00:00,9,1007.1,-0.5,93,8,8000,7.408,,,330,,,,0,,,,,,,wg-a,,,,AAXX 29034 07190 12/58 23304 10090 20080 39888 40071 56005 60007 80001 90300=
07190,1996-04-29 06:00:00,11,1007.3,0.3,94,10,4000,7.408,,,330,9,16.6,,,,,3,,,10,wg-a,,,,AAXX 29064 07190 02/40 33304 10110 20100 39891 40073 53003 60006 71011 83031 90600 333 10166 20090 60034=
07190,1996-04-29 09:00:00,15,1007,-0.1,67,9,10000,11.112,,,350,,,,,,,,,,,wg-a,,,,AAXX 29094 07190 12560 23506 10150 20090 39890 40070 58001 60006 81130 90900=
07190,1996-04-29 12:00:00,18,1005.1,-1.6,52,8,12000,14.816,,,50,,,,,,,,,,,wg-a,,,,AAXX 29124 07190 12562 40508 10180 20080 39874 40051 58016 60006 84200 91200=
07190,1996-04-29 15:00:00,19,1003.5,-1.6,43,6,12000,14.816,,,30,,,,,,,,,,,wg-a,,,,AAXX 29154 07190 12662 50308 10190 20060 39858 40035 57016 60006 85400 91500=
07190,1996-04-29 18:00:00,17,1003.2,-0.4,52,7,15000,7.408,,,340,11.3,19.5,,,,,,,,,wg-a,,,,AAXX 29184 07190 12765 73404 10170 20070 39854 40032 56004 60006 8256/ 91800 333 10195 20113=
07190,1996-04-29 21:00:00,14,1003.8,0.4,72,9,10000,3.704,,,230,,,,,,,,,,,wg-a,,,,AAXX 29214 07190 12760 72302 10140 20090 39858 40038 52004 60006 8157/ 92100=
07190,1996-04-30 00:00:00,13,1003.4,-0.3,77,9,10000,7.408,,,330,,,,,,,,,,,wg-a,,,,AAXX 30004 07190 12660 83304 10130 20090 39854 40034 57003 60006 8457/ 90000=
07190,1996-04-30 03:00:00,12,1003,-0.6,76,8,10000,11.112,,,330,,,,,,,,,,60,wg-a,,,,AAXX 30034 07190 02660 83306 10120 20080 39849 40030 56006 61000 76062 875// 90300 333 ////=
07190,1996-04-30 06:00:00,11,1004,0.9,82,8,4500,7.408,,,20,11,17,,,,,3,,,10,wg-a,,,,AAXX 30064 07190 02745 80204 10110 20080 39858 40040 53009 60034 71062 8557/ 90600 333 10170 20110 61000=
07190,1996-04-30 09:00:00,12,1004.8,0.9,82,9,6000,7.408,,,150,,,,,,,,,,,wg-a,,,,AAXX 30094 07190 12756 81504 10120 20090 39867 40048 51009 60006 8357/ 90900=
07190,1996-04-30 12:00:00,14,1004.2,-0.5,72,9,7000,11.112,,,130,,,,,,,,,,,wg-a,,,,AAXX 30124 07190 12557 /1306 10140 20090 39862 40042 58005 60006 85830 91200=
07190,1996-04-30 15:00:00,16,1002.4,-1.6,51,6,8000,7.408,,,120,,,,,,,,,,,wg-a,,,,AAXX 30154 07190 12658 31204 10160 20060 39846 40024 57016 60006 82231 91500=
07190,1996-04-30 18:00:00,15,1002.3,-0.2,59,7,15000,3.704,,,150,11.1,16.9,,,,,,,,,wg-a,,,,AAXX 30184 07190 12665 71502 10150 20070 39844 40023 55002 60006 83404 91800 333 10169 20111=
07190,1996-04-30 21:00:00,10,1002.9,0.3,87,8,12000,3.704,,,210,,,,,,,,,,,wg-a,,,,AAXX 30214 07190 12662 /2102 10100 20080 39847 40029 52003 60006 83202 92100=
07190,1996-05-01 00:00:00,8,1003.1,0,93,7,11000,3.704,,,290,,,,,,,,,,,wg-a,,,,AAXX 01004 07190 12/61 /2902 10080 20070 39847 40031 50000 60006 90000=
07190,1996-05-01 03:00:00,6,1002.5,-0.7,93,5,8000,0,,,0,,,,,,,,,,,wg-a,,,,AAXX 01034 07190 12658 40000 10060 20050 39840 40025 56007 60006 82202 90300=
07190,1996-05-01 06:00:00,8,1002.6,0.2,87,6,8000,0,,,0,5.9,15.3,,,,,,,,,wg-a,,,,AAXX 01064 07190 02658 70000 10080 20060 39842 40026 50002 60006 8684/ 90600 333 10153 20059 60004=
07190,1996-05-01 09:00:00,14,1001.6,-0.5,72,9,9000,3.704,,,270,,,,,,,,,,,wg-a,,,,AAXX 01094 07190 12559 32702 10140 20090 39837 40016 58005 60006 82802 90900=
07190,1996-05-01 12:00:00,20,999.5,-1.7,40,6,18000,7.408,,,130,,,,,,,,,,,wg-a,,,,AAXX 01124 07190 12668 31304 10200 20060 39820 49995 58017 60006 81361 91200=
07190,1996-05-01 15:00:00,16,998.9,-0.9,68,10,10000,14.816,,,280,,,,,,,,,,17,wg-a,,,,AAXX 01154 07190 12660 72808 10160 20100 39811 49989 56009 60006 71791 85903 91500=
07190,1996-05-01 18:00:00,14,999.7,0.7,82,11,18000,7.408,,,310,7.9,20.7,,4,,,,,,1,wg-a,,,,AAXX 01184 07190 12668 /3104 10140 20110 39818 49997 51007 60047 70198 81333 91800 333 10207 20079=
07190,1996-05-01 21:00:00,12,999.9,0.1,94,11,12000,7.408,,,50,,,,0,,,,,,25,wg-a,,,,AAXX 01214 07190 12662 70504 10120 20110 39819 49999 51001 60007 72586 875// 92100=
07190,1996-05-02 00:00:00,12,999.3,-0.6,94,11,8000,11.112,,,170,,,,0,,,,,,3,wg-a,,,,AAXX 02004 07190 02558 71706 10120 20110 39813 49993 58006 60016 70386 875// 90000 333 60007=
07190,1996-05-02 03:00:00,11,998.4,-1.1,94,10,6000,7.408,,,190,,,,,,,,,,,wg-a,,,,AAXX 02034 07190 12/56 /1904 10110 20100 39803 49984 56011 60006 90300=
07190,1996-05-02 06:00:00,11,999.2,0.8,94,10,8000,7.408,,,180,10.5,13.6,,,,,5,,,,wg-a,,,,AAXX 02064 07190 12358 71804 10110 20100 39811 49992 53008 60054 8657/ 90600 333 10136 20105=
07190,1996-05-02 12:00:00,17,997.6,-1,63,10,500,14.816,,,150,,,,,,,,,,,wg-a,,,,AAXX 02124 07190 12600 61508 10170 20100 39799 49976 58010 60006 85331 91200=
07190,1996-05-02 15:00:00,16,996.6,-0.9,59,8,10000,14.816,,,10,,,,0,,,,,,16,wg-a,,,,AAXX 02154 07190 12660 70108 10160 20080 39789 49966 55009 60007 71698 86931 91500=
07190,1996-05-02 18:00:00,11,998.6,1.5,87,9,7000,14.816,,,280,10.6,18,,6,,,,,,63,wg-a,,,,AAXX 02184 07190 12457 72808 10110 20090 39805 49986 53015 60067 76398 8597/ 91800 333 10180 20106=
07190,1996-05-02 21:00:00,9,1000.6,1.8,93,8,10000,11.112,,,170,,,,3,,,,,,61,wg-a,,,,AAXX 02214 07190 12460 71706 10090 20080 39823 40006 50018 60037 76166 8582/ 92100=
07190,1996-05-03 00:00:00,8,1001,0.4,93,7,15000,7.408,,,210,,,,,,,,,,1,wg-a,,,,AAXX 03004 07190 02765 72104 10080 20070 39827 40010 50004 60036 70162 8657/ 90000 333 61000=
07190,1996-05-03 03:00:00,7,1000.6,-0.5,93,6,15000,11.112,,,190,,,,,,,,,,,wg-a,,,,AAXX 03034 07190 12765 41906 10070 20060 39822 40006 56005 60006 81571 90300=
07190,1996-05-03 06:00:00,8,1001.4,0.9,93,7,25000,14.816,,,180,5.9,11.2,,,,,10,,,,wg-a,,,,AAXX 03064 07190 12675 71808 10080 20070 39831 40014 53009 60104 85572 90600 333 10112 20059=
07190,1996-05-03 09:00:00,13,1000.9,-0.2,67,7,35000,14.816,,,180,,,,,,,,,,,wg-a,,,,AAXX 03094 07190 12581 51808 10130 20070 39829 40009 58002 60006 82242 90900=
07190,1996-05-03 12:00:00,16,1001,0.2,51,6,40000,11.112,,,200,,,,,,,,,,,wg-a,,,,AAXX 03124 07190 12682 62006 10160 20060 39831 40010 52002 60006 84902 91200=
07190,1996-05-03 15:00:00,12,1001.9,0.7,76,8,12000,3.704,,,350,,,,2,,,,,,17,wg-a,,,,AAXX 03154 07190 12562 73502 10120 20080 39838 40019 53007 60027 71798 85963 91500=
07190,1996-05-03 18:00:00,11,1003.6,1.6,87,9,10000,11.112,,,270,8,16.4,,0,,,,,,16,wg-a,,,,AAXX 03184 07190 12460 62706 10110 20090 39854 40036 53016 60007 71698 85903 91800 333 10164 20080=
07190,1996-05-03 21:00:00,10,1005.9,2.2,87,8,500,7.408,,,220,,,,0,,,,,,21,wg-a,,,,AAXX 03214 07190 12500 72204 10100 20080 39876 40059 51022 60007 72186 878// 92100=
07190,1996-05-04 00:00:00,9,1007.3,1.3,93,8,500,7.408,,,190,,,,0,,,,,,3,wg-a,,,,AAXX 04004 07190 02500 71904 10090 20080 39889 40073 52013 60016 70386 878// 90000 333 60007=
07190,1996-05-04 03:00:00,9,1008.8,1.5,87,7,25000,11.112,,,270,,,,,,,,,,,wg-a,,,,AAXX 04034 07190 12575 72706 10090 20070 39904 40088 51015 60006 878// 90300=
07190,1996-05-04 06:00:00,9,1011.3,2.4,76,5,20000,11.112,,,240,8.3,11.2,,0,,,3,,,3,wg-a,,,,AAXX 04064 07190 02570 82406 10090 20050 39928 40113 53024 60034 70362 878// 90600 333 10112 20083 60007=
07190,1996-05-04 09:00:00,10,1013.2,2,66,4,20000,25.928,,,240,,,,,,,,,,,wg-a,,,,AAXX 04094 07190 12570 62414 10100 20040 39948 40132 51020 60006 86830 90900=
07190,1996-05-04 12:00:00,11,1014.4,1.2,66,5,20000,14.816,,,290,,,,,,,,,,,wg-a,,,,AAXX 04124 07190 12670 72908 10110 20050 39960 40144 51012 60006 878// 91200=
07190,1996-05-04 15:00:00,10,1015.5,1.1,71,5,500,14.816,,,310,,,,,,,,,,,wg-a,,,,AAXX 04154 07190 12600 73108 10100 20050 39971 40155 51011 60006 878// 91500=
07190,1996-05-04 18:00:00,10,1016.9,1.3,71,5,25000,11.112,,,340,8.6,11.5,,,,,,,,,wg-a,,,,AAXX 04184 07190 12675 73406 10100 20050 39984 40169 53013 60006 878// 91800 333 10115 20086=
07190,1996-05-04 21:00:00,8,1017.9,0.9,76,4,15000,7.408,,,350,,,,,,,,,,,wg-a,,,,AAXX 04214 07190 12665 /3504 10080 20040 39993 40179 51009 60006 85500 92100=
07190,1996-05-05 00:00:00,7,1018.6,0.6,87,5,15000,3.704,,,270,,,,,,,,,,,wg-a,,,,AAXX 05004 07190 12765 72702 10070 20050 39999 40186 51006 60006 875// 90000=
07190,1996-05-05 03:00:00,5,1018.2,-0.5,87,3,11000,7.408,,,10,,,,,,,,,,,wg-a,,,,AAXX 05034 07190 12/61 /0104 10050 20030 39994 40182 58005 60006 90300=
07190,1996-05-05 06:00:00,5,1018.6,0.4,87,3,7000,11.112,,,340,3.3,9.7,,,,,,,,,wg-a,,,,AAXX 05064 07190 02/57 23406 10050 20030 39998 40186 53004 60006 80001 90600 333 10097 20033 60004=
07190,1996-05-05 09:00:00,11,1017.9,-0.4,62,4,11000,11.112,,,30,,,,,,,,,,,wg-a,,,,AAXX 05094 07190 12561 /0306 10110 20040 39994 40179 58004 60006 81131 90900=
07190,1996-05-05 12:00:00,15,1016.2,-1.4,48,4,20000,7.408,,,10,,,,,,,,,,,wg-a,,,,AAXX 05124 07190 12670 /0104 10150 20040 39980 40162 57014 60006 81130 91200=
07190,1996-05-05 15:00:00,16,1014.3,-1.7,48,5,20000,14.816,,,20,,,,,,,,,,,wg-a,,,,AAXX 05154 07190 12670 20208 10160 20050 39962 40143 57017 60006 81230 91500=
07190,1996-05-05 18:00:00,14,1014.2,-0.2,55,5,20000,14.816,,,20,5.5,16.6,,,,,,,,,wg-a,,,,AAXX 05184 07190 12770 20208 10140 20050 39960 40142 56002 60006 82500 91800 333 10166 20055=
07190,1996-05-05 21:00:00,10,1015,0.5,57,2,15000,14.816,,,20,,,,,,,,,,,wg-a,,,,AAXX 05214 07190 12/65 00208 10100 20020 39965 40150 53005 60006 80000 92100=
07190,1996-05-06 00:00:00,6,1015.1,-0.1,81,3,15000,7.408,,,310,,,,,,,,,,,wg-a,,,,AAXX 06004 07190 12/65 03104 10060 20030 39964 40151 58001 60006 80000 90000=
07190,1996-05-06 03:00:00,5,1014.8,-0.4,81,2,15000,3.704,,,310,,,,,,,,,,,wg-a,,,,AAXX 06034 07190 12/65 03102 10050 20020 39960 40148 56004 60006 80000 90300=
07190,1996-05-06 06:00:00,7,1015.1,0.4,70,2,13000,11.112,,,360,4.8,14.2,,,,,,,,,wg-a,,,,AAXX 06064 07190 02/63 13606 10070 20020 39964 40151 53004 60006 80001 90600 333 10142 20048 60004=
07190,1996-05-06 09:00:00,11,1014.1,-0.7,66,5,12000,7.408,,,20,,,,,,,,,,,wg-a,,,,AAXX 06094 07190 12862 50204 10110 20050 39957 40141 58007 60006 84031 90900=
07190,1996-05-06 12:00:00,18,1012.2,-1.4,49,7,12000,7.408,,,20,,,,,,,,,,,wg-a,,,,AAXX 06124 07190 12662 50204 10180 20070 39943 40122 57014 60006 81101 91200=
07190,1996-05-06 15:00:00,21,1009.7,-2.3,40,7,18000,14.816,,,40,,,,,,,,,,,wg-a,,,,AAXX 06154 07190 12768 30408 10210 20070 39920 40097 57023 60006 81201 91500=
07190,1996-05-06 18:00:00,19,1009.4,-0.4,49,8,18000,14.816,,,20,7.1,20.7,,,,,,,,,wg-a,,,,AAXX 06184 07190 12768 40208 10190 20080 39916 40094 55004 60006 82401 91800 333 10207 20071=
07190,1996-05-06 21:00:00,14,1010.3,0.6,55,5,15000,14.816,,,20,,,,,,,,,,,wg-a,,,,AAXX 06214 07190 12765 10208 10140 20050 39922 40103 53006 60006 81500 92100=
07190,1996-05-07 00:00:00,11,1010.7,0.2,66,5,15000,7.408,,,330,,,,,,,,,,,wg-a,,,,AAXX 07004 07190 12765 23304 10110 20050 39924 40107 51002 60006 82500 90000=
07190,1996-05-07 03:00:00,10,1011.3,0.5,76,6,15000,11.112,,,350,,,,,,,,,,,wg-a,,,,AAXX 07034 07190 12765 53506 10100 20060 39929 40113 53005 60006 85500 90300=
07190,1996-05-07 06:00:00,10,1012.3,1,76,6,8000,14.816,,,10,9.3,18.7,,,,,,,,,wg-a,,,,AAXX 07064 07190 02/58 60108 10100 20060 39939 40123 51010 60006 85081 90600 333 10187 20093 60004=
07190,1996-05-07 09:00:00,13,1012.4,0.3,67,7,8000,11.112,,,20,,,,,,,,,,,wg-a,,,,AAXX 07094 07190 12858 70206 10130 20070 39942 40124 52003 60006 8257/ 90900=
07190,1996-05-07 12:00:00,18,1011.1,-1,52,8,10000,18.52,,,360,,,,,,,,,,,wg-a,,,,AAXX 07124 07190 12/60 53610 10180 20080 39932 40111 58010 60006 81031 91200=
07190,1996-05-07 15:00:00,20,1009.5,-1.4,53,10,10000,25.928,,,20,,,,,,,,,,,wg-a,,,,AAXX 07154 07190 12760 /0214 10200 20100 39918 40095 57014 60006 81231 91500=
07190,1996-05-07 18:00:00,18,1009.8,0.2,59,10,6000,22.224,,,10,10.2,20.6,,,,,,,,17,wg-a,,,,AAXX 07184 07190 12756 70112 10180 20100 39920 40098 53002 60006 71792 84981 91800 333 10206 20102=
07190,1996-05-07 21:00:00,13,1012.1,1.9,88,11,8000,18.52,,,20,,,,11,,,,,,80,wg-a,,,,AAXX 07214 07190 12458 80210 10130 20110 39939 40121 50019 60117 78098 879// 92100=
07190,1996-05-08 00:00:00,11,1014.3,2,87,9,8000,11.112,,,70,,,,,,,,,,,wg-a,,,,AAXX 08004 07190 12/58 /0706 10110 20090 39959 40143 51020 60116 90000=
07190,1996-05-08 03:00:00,9,1013.6,-0.8,93,8,6000,7.408,,,360,,,,2,,,,,,,wg-a,,,,AAXX 08034 07190 12256 83604 10090 20080 39951 40136 58008 60027 876// 90300=
07190,1996-05-08 06:00:00,9,1014.7,1.1,93,8,3800,11.112,,,350,8.6,18.1,,,,,12,,,10,wg-a,,,,AAXX 08064 07190 12338 83506 10090 20080 39962 40147 53011 60124 71062 886// 90600 333 10181 20086=
07190,1996-05-08 09:00:00,10,1014.8,0.2,93,9,4500,14.816,,,20,,,,,,,,,,10,wg-a,,,,AAXX 08094 07190 12345 80208 10100 20090 39964 40148 50002 60006 71022 886// 90900=
07190,1996-05-08 12:00:00,13,1014.5,-0.1,82,10,6000,11.112,,,20,,,,,,,,,,,wg-a,,,,AAXX 08124 07190 12456 80206 10130 20100 39963 40145 58001 60006 886// 91200=
07190,1996-05-08 18:00:00,13,1013.1,0.1,77,9,500,25.928,,,30,8.7,15.1,,,,,,,,,wg-a,,,,AAXX 08184 07190 12400 60314 10130 20090 39949 40131 53001 60006 82131 91800 333 10151 20087=
07190,1996-05-08 21:00:00,11,1014.2,0.9,82,8,7000,14.816,,,20,,,,,,,,,,,wg-a,,,,AAXX 08214 07190 12557 70208 10110 20080 39958 40142 50009 60006 875// 92100=
07190,1996-05-09 00:00:00,10,1014.1,-0.1,82,7,6000,22.224,,,30,,,,,,,,,,,wg-a,,,,AAXX 09004 07190 12456 70312 10100 20070 39957 40141 58001 60006 875// 90000=
07190,1996-05-09 03:00:00,9,1013.7,-0.5,87,7,6000,18.52,,,20,,,,,,,,,,,wg-a,,,,AAXX 09034 07190 12456 70210 10090 20070 39952 40137 56005 60006 875// 90300=
07190,1996-05-09 06:00:00,9,1013.2,-0.5,81,6,8000,14.816,,,20,9.2,12.6,,,,,,,,,wg-a,,,,AAXX 09064 07190 02458 80208 10090 20060 39947 40132 56005 60006 878// 90600 333 10126 20092 60004=
07190,1996-05-09 09:00:00,9,1013.6,0.4,81,6,12000,14.816,,,10,,,,,,,,,,,wg-a,,,,AAXX 09094 07190 12462 80108 10090 20060 39951 40136 52004 60006 878// 90900=
07190,1996-05-09 12:00:00,9,1013.4,-0.2,81,6,15000,14.816,,,20,,,,,,,,,,,wg-a,,,,AAXX 09124 07190 12465 80208 10090 20060 39949 40134 55002 60006 878// 91200=
07190,1996-05-09 15:00:00,9,1013.6,0.2,76,5,15000,22.224,,,30,,,,,,,,,,,wg-a,,,,AAXX 09154 07190 12565 80312 10090 20050 39951 40136 52002 60006 875// 91500=
07190,1996-05-09 18:00:00,8,1014.1,0.4,76,4,15000,14.816,,,10,7.6,9.5,,,,,,,,,wg-a,,,,AAXX 09184 07190 12565 80108 10080 20040 39955 40141 53004 60006 885// 91800 333 10095 20076=
07190,1996-05-09 21:00:00,7,1014.2,0.1,81,4,12000,18.52,,,10,,,,,,,,,,,wg-a,,,,AAXX 09214 07190 12562 80110 10070 20040 39955 40142 53001 60006 885// 92100=
07190,1996-05-10 00:00:00,6,1012.8,-1.5,87,4,12000,14.816,,,10,,,,,,,,,,,wg-a,,,,AAXX 10004 07190 12562 70108 10060 20040 39941 40128 56015 60006 875// 90000=
07190,1996-05-10 03:00:00,6,1011.7,-1.2,87,4,11000,14.816,,,10,,,,,,,,,,,wg-a,,,,AAXX 10034 07190 12561 70108 10060 20040 39930 40117 58012 60006 875// 90300=
07190,1996-05-10 06:00:00,6,1011.3,-0.2,87,4,10000,18.52,,,30,6.1,7.6,,,,,,,,,wg-a,,,,AAXX 10064 07190 02460 80310 10060 20040 39927 40113 58002 60006 888// 90600 333 10076 20061 60004=
07190,1996-05-10 09:00:00,8,1011.4,0.1,76,4,12000,18.52,,,20,,,,,,,,,,,wg-a,,,,AAXX 10094 07190 12462 80210 10080 20040 39928 40114 52001 60006 878// 90900=
07190,1996-05-10 12:00:00,9,1011.2,-0.1,71,4,12000,18.52,,,30,,,,,,,,,,,wg-a,,,,AAXX 10124 07190 12562 80310 10090 20040 39927 40112 57001 60006 875// 91200=
07190,1996-05-10 15:00:00,10,1010.9,-0.2,71,5,15000,14.816,,,20,,,,,,,,,,,wg-a,,,,AAXX 10154 07190 12565 70208 10100 20050 39925 40109 57002 60006 875// 91500=
07190,1996-05-10 18:00:00,9,1011.3,0.4,76,5,12000,14.816,,,20,6.4,10.2,,,,,,,,,wg-a,,,,AAXX 10184 07190 12562 70208 10090 20050 39929 40113 53004 60006 875// 91800 333 10102 20064=
07190,1996-05-11 00:00:00,8,1011.9,-0.2,81,5,12000,7.408,,,10,,,,,,,,,,,wg-a,,,,AAXX 11004 07190 12662 80104 10080 20050 39934 40119 55002 60006 875// 90000=
07190,1996-05-11 06:00:00,8,1012.3,0.6,87,6,10000,14.816,,,30,7.8,9.2,,,,,,,,,wg-a,,,,AAXX 11064 07190 02560 80308 10080 20060 39938 40123 53006 60006 885// 90600 333 10092 20078 60004=
07190,1996-05-11 09:00:00,9,1012.3,0.2,87,7,10000,14.816,,,30,,,,,,,,,,,wg-a,,,,AAXX 11094 07190 12660 80308 10090 20070 39939 40123 53002 60006 885// 90900=
07190,1996-05-11 12:00:00,12,1011.5,-0.6,76,8,10000,14.816,,,40,,,,,,,,,,,wg-a,,,,AAXX 11124 07190 12460 70408 10120 20080 39933 40115 58006 60006 878// 91200=
07190,1996-05-11 15:00:00,13,1011.3,-0.1,72,8,10000,14.816,,,30,,,,,,,,,,,wg-a,,,,AAXX 11154 07190 12660 70308 10130 20080 39931 40113 56001 60006 875// 91500=
07190,1996-05-11 18:00:00,13,1011.7,0.4,72,8,10000,14.816,,,20,8.1,13,,,,,,,,,wg-a,,,,AAXX 11184 07190 12660 70208 10130 20080 39935 40117 52004 60006 875// 91800 333 10130 20081=
07190,1996-05-11 21:00:00,12,1012.6,0.8,76,8,8000,7.408,,,20,,,,,,,,,,,wg-a,,,,AAXX 11214 07190 12658 70204 10120 20080 39943 40126 51008 60006 875// 92100=
07190,1996-05-12 00:00:00,11,1012.4,-0.2,82,8,8000,18.52,,,30,,,,,,,,,,,wg-a,,,,AAXX 12004 07190 12658 70310 10110 20080 39941 40124 58002 60006 875// 90000=
07190,1996-05-12 03:00:00,11,1012.3,-0.2,82,8,8000,11.112,,,20,,,,,,,,,,,wg-a,,,,AAXX 12034 07190 12658 70206 10110 20080 39939 40123 55002 60006 875// 90300=
07190,1996-05-12 06:00:00,10,1013.2,0.9,82,7,10000,14.816,,,10,10.2,12.5,,,,,,,,,wg-a,,,,AAXX 12064 07190 02660 80108 10100 20070 39948 40132 51009 60006 885// 90600 333 10125 20102 60004=
07190,1996-05-12 09:00:00,13,1013.6,0.5,67,7,10000,22.224,,,20,,,,,,,,,,,wg-a,,,,AAXX 12094 07190 12560 /0212 10130 20070 39953 40136 51005 60006 878// 90900=
07190,1996-05-12 12:00:00,14,1013.8,0.4,67,8,10000,22.224,,,10,,,,,,,,,,,wg-a,,,,AAXX 12124 07190 12560 80112 10140 20080 39957 40138 51004 60006 885// 91200=
07190,1996-05-12 15:00:00,15,1014.3,0.5,67,9,9000,14.816,,,30,,,,,,,,,,,wg-a,,,,AAXX 12154 07190 12559 80308 10150 20090 39962 40143 51005 60006 884// 91500=
07190,1996-05-12 18:00:00,14,1015.2,0.8,72,9,15000,7.408,,,330,10.2,15.3,,,,,,,,,wg-a,,,,AAXX 12184 07190 12665 83304 10140 20090 39970 40152 53008 60006 885// 91800 333 10153 20102=
07190,1996-05-12 21:00:00,13,1017,1.7,72,8,15000,14.816,,,340,,,,,,,,,,,wg-a,,,,AAXX 12214 07190 12665 83408 10130 20080 39987 40170 51017 60006 885// 92100=
07190,1996-05-13 00:00:00,10,1018.1,0.9,87,8,12000,14.816,,,320,,,,1,,,,,,21,wg-a,,,,AAXX 13004 07190 02562 83208 10100 20080 39996 40181 51009 60016 72162 885// 90000 333 60017=
07190,1996-05-13 03:00:00,10,1018.4,0.3,87,8,9000,11.112,,,310,,,,0,,,,,,,wg-a,,,,AAXX 13034 07190 12459 83106 10100 20080 39999 40184 51003 60007 885// 90300=
07190,1996-05-13 06:00:00,10,1019.5,1,87,8,500,14.816,,,320,9.5,14.4,,,,,1,,,1,wg-a,,,,AAXX 13064 07190 12400 83208 10100 20080 30009 40195 51010 60014 70162 885// 90600 333 10144 20095=
07190,1996-05-13 09:00:00,10,1019.9,0.5,93,9,500,14.816,,,320,,,,,,,,,,51,wg-a,,,,AAXX 13094 07190 02200 83208 10100 20090 30014 40199 52005 61000 75165 885// 90900 333 ////=
07190,1996-05-13 12:00:00,10,1019.9,0,93,9,4000,11.112,,,320,,,,0,,,,,,10,wg-a,,,,AAXX 13124 07190 02240 83206 10100 20090 30014 40199 50000 60006 71065 885// 91200 333 60007=
07190,1996-05-13 15:00:00,11,1020,0.1,94,10,3000,11.112,,,330,,,,0,,,,,,58,wg-a,,,,AAXX 13154 07190 12330 83306 10110 20100 30015 40200 53001 60007 75865 877// 91500=
07190,1996-05-13 18:00:00,10,1020,-0,100,10,4500,11.112,,,340,9.6,10.9,,1,,,,,,10,wg-a,,,,AAXX 13184 07190 12245 83406 10100 20100 30015 40200 55000 60017 71065 885// 91800 333 10109 20096=
07190,1996-05-13 21:00:00,10,1020.4,0.3,93,9,2300,14.816,,,340,,,,0,,,,,,10,wg-a,,,,AAXX 13214 07190 12223 83408 10100 20090 30018 40204 50003 60007 71065 885// 92100=
07190,1996-05-14 00:00:00,9,1019.6,-0.8,100,9,4000,11.112,,,340,,,,0,,,,,,10,wg-a,,,,AAXX 14004 07190 02140 83406 10090 20090 30010 40196 58008 60016 71065 885// 90000 333 60007=
07190,1996-05-14 03:00:00,9,1018.9,-0.7,100,9,2500,11.112,,,340,,,,,,,,,,10,wg-a,,,,AAXX 14034 07190 02125 83406 10090 20090 30003 40189 58007 61000 71052 887// 90300 333 ////=
07190,1996-05-14 06:00:00,10,1018.5,-0.3,93,9,2500,11.112,,,330,9.1,10.4,,0,,,2,,,10,wg-a,,,,AAXX 14064 07190 02125 83306 10100 20090 30000 40185 58003 60024 71052 887// 90600 333 10104 20091 60007=
07190,1996-05-14 09:00:00,10,1017.8,-0.6,100,10,4000,11.112,,,20,,,,,,,,,,10,wg-a,,,,AAXX 14094 07190 02340 80206 10100 20100 39993 40178 58006 61000 71052 887// 90900 333 ////=
07190,1996-05-14 12:00:00,12,1016.3,-1.3,88,10,6000,14.816,,,30,,,,,,,,,,1,wg-a,,,,AAXX 14124 07190 02456 80308 10120 20100 39980 40163 58013 61000 70152 887// 91200 333 ////=
07190,1996-05-14 15:00:00,14,1015.4,-0.9,82,11,500,14.816,,,20,,,,,,,,,,,wg-a,,,,AAXX 14154 07190 12400 80208 10140 20110 39972 40154 58009 60006 885// 91500=
07190,1996-05-14 18:00:00,14,1014.4,-0.9,88,12,500,11.112,,,20,9.5,14.4,,,,,,,,,wg-a,,,,AAXX 14184 07190 32500 80206 10140 20120 39963 40144 58009 875// 91800 333 10144 20095=
07190,1996-05-14 21:00:00,13,1014.4,-0.1,88,11,3500,7.408,,,350,,,,,,,,,,10,wg-a,,,,AAXX 14214 07190 12435 83504 10130 20110 39962 40144 57001 60006 71022 875// 92100=
07190,1996-05-15 00:00:00,12,1013.4,-1,94,11,500,14.816,,,20,,,,,,,,,,,wg-a,,,,AAXX 15004 07190 12400 80208 10120 20110 39952 40134 58010 60006 875// 90000=
07190,1996-05-15 03:00:00,11,1012.5,-1,94,10,4000,18.52,,,20,,,,,,,,,,10,wg-a,,,,AAXX 15034 07190 12440 80210 10110 20100 39942 40125 58010 60006 71022 875// 90300=
07190,1996-05-15 06:00:00,11,1012.4,-0.1,94,10,2000,11.112,,,20,10.7,14.3,,1,,,1,,,10,wg-a,,,,AAXX 15064 07190 02220 80206 10110 20100 39941 40124 57001 60014 71065 886// 90600 333 10143 20107 60017=
07190,1996-05-15 09:00:00,12,1012.5,0.1,94,11,3000,14.816,,,10,,,,1,,,,,,10,wg-a,,,,AAXX 15094 07190 12230 80108 10120 20110 39942 40125 52001 60017 71062 886// 90900=
07190,1996-05-15 12:00:00,12,1012.1,-0.3,100,12,4000,11.112,,,360,,,,0,,,,,,10,wg-a,,,,AAXX 15124 07190 02240 83606 10120 20120 39939 40121 58003 60016 71062 886// 91200 333 60007=
07190,1996-05-15 15:00:00,12,1012.1,-0,94,11,2200,11.112,,,10,,,,,,,,,,10,wg-a,,,,AAXX 15154 07190 02222 80106 10120 20110 39939 40121 54000 61000 71052 886// 91500 333 ////=
07190,1996-05-15 18:00:00,10,1012.7,0.4,93,9,500,18.52,,,20,10.2,12.5,,3,,,,,,10,wg-a,,,,AAXX 15184 07190 12200 80210 10100 20090 39943 40127 53004 60037 71065 885// 91800 333 10125 20102=
07190,1996-05-15 21:00:00,9,1014.1,1.3,93,8,500,11.112,,,40,,,,,,,,,,3,wg-a,,,,AAXX 15214 07190 02200 80406 10090 20080 39956 40141 53013 61000 70362 876// 92100 333 ////=
07190,1996-05-16 00:00:00,8,1014.4,0.2,93,7,6000,11.112,,,20,,,,,,,,,,0,wg-a,,,,AAXX 16004 07190 02456 80206 10080 20070 39958 40144 53002 61000 70062 885// 90000 333 ////=
07190,1996-05-16 03:00:00,8,1013.8,-0.6,93,7,6000,11.112,,,360,,,,,,,,,,,wg-a,,,,AAXX 16034 07190 12/56 /3606 10080 20070 39952 40138 56006 60006 90300=
07190,1996-05-16 06:00:00,8,1013.9,0.2,93,7,3400,11.112,,,20,7.9,10.2,,,,,4,,,10,wg-a,,,,AAXX 16064 07190 12234 80206 10080 20070 39954 40139 50002 60044 71022 886// 90600 333 10102 20079=
07190,1996-05-16 09:00:00,10,1012.8,-1,87,8,4000,7.408,,,30,,,,,,,,,,10,wg-a,,,,AAXX 16094 07190 12240 80304 10100 20080 39944 40128 58010 60006 71022 886// 90900=
07190,1996-05-16 12:00:00,14,1011.1,-1.4,77,10,6000,7.408,,,350,,,,,,,,,,,wg-a,,,,AAXX 16124 07190 12456 83504 10140 20100 39930 40111 58014 60006 875// 91200=
07190,1996-05-16 15:00:00,17,1008.7,-2.2,77,13,10000,11.112,,,20,,,,,,,,,,,wg-a,,,,AAXX 16154 07190 12560 40206 10170 20130 39908 40087 58022 60006 84200 91500=
07190,1996-05-16 18:00:00,16,1006.9,-1.8,82,13,10000,11.112,,,20,8.2,17.6,,,,,,,,,wg-a,,,,AAXX 16184 07190 12560 70206 10160 20130 39890 40069 56018 60006 81532 91800 333 10176 20082=
07190,1996-05-16 21:00:00,13,1008.5,1.4,88,11,8000,11.112,,,360,,,,,,,,,,,wg-a,,,,AAXX 16214 07190 12558 73606 10130 20110 39904 40085 51014 60006 84832 92100=
07190,1996-05-17 00:00:00,12,1008.7,0.1,94,11,500,11.112,,,170,,,,2,,,,,,25,wg-a,,,,AAXX 17004 07190 02400 71706 10120 20110 39905 40087 50001 60026 72522 8587/ 90000 333 60027=
07190,1996-05-17 03:00:00,12,1008.7,0,94,11,500,11.112,,,190,,,,1,,,,,,25,wg-a,,,,AAXX 17034 07190 12500 71906 10120 20110 39905 40087 50000 60017 72522 8587/ 90300=
07190,1996-05-17 06:00:00,13,1008.8,0.2,94,12,9000,11.112,,,160,11.7,15.9,,,,,2,,,1,wg-a,,,,AAXX 17064 07190 12459 71606 10130 20120 39907 40088 53002 60024 70186 8382/ 90600 333 10159 20117=
07190,1996-05-17 09:00:00,19,1007.9,-0.5,68,13,500,18.52,,,180,,,,,,,,,,,wg-a,,,,AAXX 17094 07190 12500 31810 10190 20130 39902 40079 58005 60006 82842 90900=
07190,1996-05-17 12:00:00,21,1006.5,-1.3,56,12,500,11.112,,,140,,,,,,,,,,,wg-a,,,,AAXX 17124 07190 12600 /1406 10210 20120 39889 40065 58013 60006 81231 91200=
07190,1996-05-17 15:00:00,22,1004.2,-2.2,53,12,4000,11.112,,,180,,,,,,,,,,95,wg-a,,,,AAXX 17154 07190 02640 71806 10220 20120 39867 40042 58022 61000 79598 8596/ 91500 333 ////=
07190,1996-05-17 18:00:00,15,1007.6,2.9,88,13,10000,11.112,,,130,12.8,23,,11,,,,,,29,wg-a,,,,AAXX 17184 07190 12360 71306 10150 20130 39896 40076 51029 60117 72998 84960 91800 333 10230 20128=
07190,1996-05-17 21:00:00,14,1008,0.3,94,13,12000,3.704,,,150,,,,,,,,,,,wg-a,,,,AAXX 17214 07190 12162 71502 10140 20130 39899 40080 50003 60006 83672 92100=
07190,1996-05-18 00:00:00,13,1007.6,-0.4,94,12,9000,7.408,,,150,,,,,,,,,,,wg-a,,,,AAXX 18004 07190 12759 41504 10130 20120 39895 40076 58004 60006 82502 90000=
07190,1996-05-18 03:00:00,13,1005.5,-2.1,94,12,9000,11.112,,,170,,,,,,,,,,,wg-a,,,,AAXX 18034 07190 12759 71706 10130 20120 39874 40055 56021 60006 875// 90300=
07190,1996-05-18 06:00:00,14,1005.6,0.2,94,13,4000,3.704,,,220,12.6,14.5,,5,,,18,,,60,wg-a,,,,AAXX 18064 07190 02440 82202 10140 20130 39876 40056 50002 60184 76086 888// 90600 333 10145 20126 60057=
07190,1996-05-18 09:00:00,15,1005.9,0.3,94,14,7000,3.704,,,250,,,,4,,,,,,17,wg-a,,,,AAXX 18094 07190 12357 82502 10150 20140 39879 40059 50003 60047 71798 869// 90900=
07190,1996-05-18 12:00:00,17,1006.2,0.5,88,15,3500,7.408,,,220,,,,0,,,,,,16,wg-a,,,,AAXX 18124 07190 02435 82204 10170 20150 39884 40062 51005 60046 71698 888// 91200 333 60007=
07190,1996-05-18 15:00:00,15,1005.4,-0.9,94,14,10000,3.704,,,150,,,,3,,,,,,17,wg-a,,,,AAXX 18154 07190 12460 71502 10150 20140 39875 40054 58009 60037 71798 8696/ 91500=
07190,1996-05-18 18:00:00,15,1003.3,-2.1,94,14,7000,7.408,,,330,13.5,17.2,,3,,,,,,16,wg-a,,,,AAXX 18184 07190 12557 73304 10150 20140 39854 40033 56021 60037 71698 879// 91800 333 10172 20135=
07190,1996-05-18 21:00:00,14,1006.1,2.7,94,13,8000,7.408,,,120,,,,4,,,,,,17,wg-a,,,,AAXX 18214 07190 12458 71204 10140 20130 39881 40061 51027 60047 71798 83962 92100=
07190,1996-05-19 00:00:00,12,1006.7,0.5,100,12,1200,0,,,0,,,,1,,,,,,40,wg-a,,,,AAXX 19004 07190 02112 70000 10120 20120 39886 40067 52005 60046 74098 8426/ 90000 333 60017=
07190,1996-05-19 03:00:00,12,1005.3,-1.4,94,11,25000,7.408,,,180,,,,,,,,,,0,wg-a,,,,AAXX 19034 07190 02775 /1804 10120 20110 39872 40053 56014 61000 70062 83532 90300 333 ////=
07190,1996-05-19 06:00:00,12,1005.4,0.1,100,12,20000,3.704,,,30,10.7,15.1,,,,,15,,,80,wg-a,,,,AAXX 19064 07190 02670 70302 10120 20120 39873 40054 53001 60154 78086 84830 90600 333 10151 20107 61000=
07190,1996-05-19 09:00:00,16,1005.3,0.1,82,13,25000,14.816,,,300,,,,0,,,,,,1,wg-a,,,,AAXX 19094 07190 12475 /3008 10160 20130 39874 40053 51001 60007 70186 83230 90900=
07190,1996-05-19 12:00:00,15,1008.2,2.8,72,10,40000,14.816,,,280,,,,4,,,,,,3,wg-a,,,,AAXX 19124 07190 02582 72808 10150 20100 39902 40082 51028 60046 70398 84831 91200 333 60047=
07190,1996-05-19 15:00:00,14,1009.3,1,82,11,9000,7.408,,,290,,,,1,,,,,,61,wg-a,,,,AAXX 19154 07190 12659 72904 10140 20110 39912 40093 53010 60017 76186 8587/ 91500=
07190,1996-05-19 17:00:00,12,1010.7,1.2,94,11,12000,11.112,,,180,11.7,16.1,,2,,,,,,60,wg-a,,,,AAXX 19174 07190 12462 81806 10120 20110 39924 40107 51012 60027 76086 8507/ 91700 333 10161 20117=
07190,1996-05-19 18:00:00,12,1010.6,1.2,94,11,12000,11.112,,,180,11.7,16.1,,2,,,,,,60,wg-a,,,,AAXX 19184 07190 12462 81806 10120 20110 39924 40106 51012 60027 76086 8587/ 91800 333 10161 20117=
07190,1996-05-19 21:00:00,11,1011.8,1.1,100,11,7000,11.112,,,180,,,,,,,,,,1,wg-a,,,,AAXX 19214 07190 02257 71806 10110 20110 39935 40118 51011 61000 70162 876// 92100 333 ////=
07190,1996-05-20 00:00:00,10,1012.4,0.5,100,10,7000,3.704,,,170,,,,,,,,,,3,wg-a,,,,AAXX 20004 07190 02257 81702 10100 20100 39940 40124 52005 61000 70362 8657/ 90000 333 ////=
07190,1996-05-20 03:00:00,10,1013.3,0.9,93,9,4000,0,,,0,,,,,,,,,,10,wg-a,,,,AAXX 20034 07190 12740 70000 10100 20090 39949 40133 51009 60006 71022 8553/ 90300=
07190,1996-05-20 06:00:00,10,1014.3,1,100,10,2500,3.704,,,300,8.8,11.6,,,,,7,,,28,wg-a,,,,AAXX 20064 07190 12125 /3002 10100 20100 39959 40143 51010 60074 72841 82830 90600 333 10116 20088=
07190,1996-05-20 09:00:00,15,1014.8,0.8,63,8,12000,7.408,,,330,,,,,,,,,,,wg-a,,,,AAXX 20094 07190 12562 53304 10150 20080 39967 40148 51008 60006 85201 90900=
07190,1996-05-20 12:00:00,13,1016.2,1.3,82,10,25000,18.52,,,200,,,,,,,,,,1,wg-a,,,,AAXX 20124 07190 12675 72010 10130 20100 39980 40162 53013 60006 70191 84242 91200=
07190,1996-05-20 15:00:00,16,1016.5,0.4,59,8,500,18.52,,,200,,,,,,,,,,,wg-a,,,,AAXX 20154 07190 12700 52010 10160 20080 39984 40165 53004 60006 83232 91500=
07190,1996-05-20 18:00:00,15,1017.8,1.2,67,9,20000,11.112,,,190,9.9,17.3,,,,,,,,1,wg-a,,,,AAXX 20184 07190 02670 51906 10150 20090 39996 40178 53012 61000 70186 84301 91800 333 10173 20099 ////=
07190,1996-05-20 21:00:00,11,1019.5,1.4,82,8,20000,3.704,,,220,,,,,,,,,,,wg-a,,,,AAXX 20214 07190 12770 22202 10110 20080 30010 40195 51014 60006 82400 92100=
07190,1996-05-21 00:00:00,8,1020.2,0.5,93,7,12000,3.704,,,180,,,,,,,,,,,wg-a,,,,AAXX 21004 07190 12/62 01802 10080 20070 30015 40202 50005 60006 80000 90000=
07190,1996-05-21 03:00:00,6,1020.6,0.3,93,5,7000,0,,,0,,,,,,,,,,11,wg-a,,,,AAXX 21034 07190 12757 30000 10060 20050 30018 40206 50003 60006 71100 83500 90300=
07190,1996-05-21 06:00:00,9,1021.5,1.1,93,8,20000,7.408,,,180,5.9,14.6,,,,,,,,,wg-a,,,,AAXX 21064 07190 02770 61804 10090 20080 30029 40215 53011 60006 86800 90600 333 10146 20059 61000=
07190,1996-05-21 09:00:00,12,1022,0.7,88,10,10000,7.408,,,170,,,,0,,,,,,80,wg-a,,,,AAXX 21094 07190 12560 71704 10120 20100 30036 40220 51007 60007 78086 8786/ 90900=
07190,1996-05-21 12:00:00,14,1021.3,-0.6,77,10,20000,11.112,,,150,,,,2,,,,,,25,wg-a,,,,AAXX 21124 07190 02570 51506 10140 20100 30030 40213 58006 60026 72586 84960 91200 333 60027=
07190,1996-05-21 15:00:00,16,1020.5,-0.7,63,9,500,11.112,,,170,,,,1,,,,,,1,wg-a,,,,AAXX 21154 07190 12600 51706 10160 20090 30023 40205 58007 60017 70198 85900 91500=
07190,1996-05-21 18:00:00,15,1021.1,0.6,59,7,2000,7.408,,,320,8.9,16.6,,0,,,,,,17,wg-a,,,,AAXX 21184 07190 12520 /3204 10150 20070 30029 40211 53006 60007 71798 85901 91800 333 10166 20089=
07190,1996-05-21 21:00:00,12,1024.4,3,71,7,20000,14.816,,,260,,,,,,,,,,2,wg-a,,,,AAXX 21214 07190 02670 /2608 10120 20070 30059 40244 52030 61000 70286 86800 92100 333 ////=
07190,1996-05-22 00:00:00,11,1025.8,1.3,76,7,20000,14.816,,,260,,,,,,,,,,1,wg-a,,,,AAXX 22004 07190 02670 /2608 10110 20070 30072 40258 53013 61000 70186 85800 90000 333 ////=
07190,1996-05-22 03:00:00,8,1026.7,0.7,81,5,12000,11.112,,,250,,,,,,,,,,,wg-a,,,,AAXX 22034 07190 12662 22506 10080 20050 30079 40267 52007 60006 81801 90300=
07190,1996-05-22 06:00:00,9,1027.6,1,81,6,40000,14.816,,,180,6,14.9,,,,,3,,,,wg-a,,,,AAXX 22064 07190 12582 31808 10090 20060 30089 40276 53010 60034 81804 90600 333 10149 20060=
07190,1996-05-22 09:00:00,13,1027.2,-0.2,72,8,35000,18.52,,,190,,,,,,,,,,,wg-a,,,,AAXX 22094 07190 12681 71910 10130 20080 30087 40272 58002 60006 874// 90900=
07190,1996-05-22 12:00:00,14,1026.4,-0.7,58,6,35000,18.52,,,190,,,,,,,,,,,wg-a,,,,AAXX 22124 07190 12681 71910 10140 20060 30080 40264 58007 60006 874// 91200=
07190,1996-05-22 18:00:00,15,1022.9,-2.1,63,8,50000,3.704,,,180,9.2,16.3,,,,,,,,,wg-a,,,,AAXX 22184 07190 12684 71802 10150 20080 30046 40229 56021 60006 81142 91800 333 10163 20092=
07190,1996-05-22 21:00:00,13,1022.5,-0.5,77,9,20000,7.408,,,230,,,,,,,,,,,wg-a,,,,AAXX 22214 07190 12/70 72304 10130 20090 30041 40225 56005 60006 8707/ 92100=
07190,1996-05-23 00:00:00,12,1021.1,-1.4,82,9,20000,11.112,,,220,,,,,,,,,,,wg-a,,,,AAXX 23004 07190 12770 82206 10120 20090 30027 40211 56014 60006 8657/ 90000=
07190,1996-05-23 03:00:00,11,1020.5,-0.7,87,9,15000,3.704,,,160,,,,,,,,,,21,wg-a,,,,AAXX 23034 07190 02665 81602 10110 20090 30020 40205 58007 61000 72162 875// 90300 333 ////=
07190,1996-05-23 06:00:00,12,1020.6,0.3,82,9,25000,14.816,,,190,11.1,15.3,,,,,,,,3,wg-a,,,,AAXX 23064 07190 02575 81908 10120 20090 30022 40206 53003 61000 70362 875// 90600 333 10153 20111 ////=
07190,1996-05-23 09:00:00,14,1021.6,1,82,11,25000,18.52,,,210,,,,,,,,,,,wg-a,,,,AAXX 23094 07190 12575 72110 10140 20110 30033 40216 51010 60006 878// 90900=
07190,1996-05-23 12:00:00,17,1021.3,-0.2,63,10,45000,18.52,,,230,,,,,,,,,,1,wg-a,,,,AAXX 23124 07190 02583 72310 10170 20100 30032 40213 58002 61000 70186 86802 91200 333 6100=
07190,1996-05-23 15:00:00,18,1020.8,-0.4,64,11,45000,14.816,,,220,,,,,,,,,,,wg-a,,,,AAXX 23154 07190 12583 72208 10180 20110 30028 40208 58004 60006 86802 91500=
07190,1996-05-23 18:00:00,17,1020.5,-0.4,72,12,45000,11.112,,,180,12.3,18.5,,,,,,,,,wg-a,,,,AAXX 23184 07190 32683 71806 10170 20120 30024 40205 56004 86832 91800 333 10185 20123=
07190,1996-05-23 21:00:00,16,1020.7,0.1,77,12,500,14.816,,,170,,,,,,,,,,,wg-a,,,,AAXX 23214 07190 12600 71708 10160 20120 30025 40207 50001 60006 878// 92100=
07190,1996-05-24 00:00:00,14,1020.2,-0.6,88,12,25000,11.112,,,160,,,,,,,,,,,wg-a,,,,AAXX 24004 07190 12675 31606 10140 20120 30019 40202 58006 60006 82532 90000=
07190,1996-05-24 03:00:00,11,1019.2,-1.1,100,11,25000,7.408,,,190,,,,,,,,,,,wg-a,,,,AAXX 24034 07190 12775 51904 10110 20110 30008 40192 56011 60006 85501 90300=
07190,1996-05-24 06:00:00,13,1018.6,-0.5,94,12,25000,3.704,,,180,10.9,17.3,,,,,,,,,wg-a,,,,AAXX 24064 07190 02775 61802 10130 20120 30003 40186 58005 60006 81539 90600 333 10173 20109 61000=
07190,1996-05-24 09:00:00,19,1016.9,-1.3,64,12,25000,14.816,,,180,,,,,,,,,,,wg-a,,,,AAXX 24094 07190 12775 /1808 10190 20120 39990 40169 58013 60006 82102 90900=
07190,1996-05-24 12:00:00,24,1014.5,-2.1,50,13,500,11.112,,,230,,,,,,,,,,,wg-a,,,,AAXX 24124 07190 12600 52306 10240 20130 39969 40145 58021 60006 81232 91200=
07190,1996-05-24 15:00:00,26,1011.8,-2.5,45,13,500,3.704,,,20,,,,,,,,,,,wg-a,,,,AAXX 24154 07190 12600 50202 10260 20130 39944 40118 58025 60006 81432 91500=
07190,1996-05-24 18:00:00,24,1010.3,-1.6,50,13,40000,7.408,,,40,13.4,26,,,,,,,,,wg-a,,,,AAXX 24184 07190 12682 30404 10240 20130 39928 40103 58016 60006 83202 91800 333 10260 20134=
07190,1996-05-24 21:00:00,17,1013.2,2.5,88,15,15000,11.112,,,200,,,,3,,,,,,81,wg-a,,,,AAXX 24214 07190 12665 82006 10170 20150 39953 40132 53025 60037 78198 879// 92100=
07190,1996-05-25 00:00:00,16,1013.7,0.3,94,15,7000,0,,,0,,,,2,,,,,,81,wg-a,,,,AAXX 25004 07190 02657 80000 10160 20150 39957 40137 53003 60056 78198 889// 90000 333 60027=
07190,1996-05-25 03:00:00,15,1011.6,-1.9,94,14,7000,11.112,,,190,,,,2,,,,,,25,wg-a,,,,AAXX 25034 07190 12657 /1906 10150 20140 39936 40116 56019 60027 72598 84832 90300=
07190,1996-05-25 06:00:00,16,1011.7,0,94,15,15000,11.112,,,170,14.8,24,,,,,7,,,1,wg-a,,,,AAXX 25064 07190 02665 71706 10160 20150 39937 40117 50000 60074 70198 82831 90600 333 10240 20148 61000=
07190,1996-05-25 09:00:00,16,1012.5,0.8,82,13,20000,11.112,,,210,,,,0,,,,,,3,wg-a,,,,AAXX 25094 07190 12570 72106 10160 20130 39945 40125 53008 60007 70386 8383/ 90900=
07190,1996-05-25 12:00:00,15,1012.3,-0.2,88,13,20000,14.816,,,150,,,,,,,,,,60,wg-a,,,,AAXX 25124 07190 02570 71508 10150 20130 39943 40123 58002 60016 76086 8383/ 91200 333 61000=
07190,1996-05-25 15:00:00,14,1012.7,0.3,88,12,12000,7.408,,,300,,,,3,,,,,,61,wg-a,,,,AAXX 25154 07190 12462 73004 10140 20120 39946 40127 52003 60037 76186 8387/ 91500=
07190,1996-05-25 18:00:00,14,1013,0.3,82,11,15000,7.408,,,250,13.6,16.4,,1,,,,,,25,wg-a,,,,AAXX 25184 07190 12565 /2504 10140 20110 39949 40130 53003 60017 72586 8687/ 91800 333 10164 20136=
07190,1996-05-25 21:00:00,13,1015.2,2.1,94,12,500,7.408,,,250,,,,0,,,,,,61,wg-a,,,,AAXX 25214 07190 12400 72504 10130 20120 39970 40152 51021 60007 76162 878// 92100=
07190,1996-05-26 00:00:00,12,1015.2,-0.1,94,11,10000,3.704,,,310,,,,2,,,,,,61,wg-a,,,,AAXX 26004 07190 02260 83102 10120 20110 39969 40152 57001 60026 76162 875// 90000 333 60027=
07190,1996-05-26 03:00:00,11,1015.1,-0.1,100,11,3000,3.704,,,40,,,,2,,,,,,,wg-a,,,,AAXX 26034 07190 12230 80402 10110 20110 39968 40151 55001 60027 875// 90300=
07190,1996-05-26 06:00:00,11,1016.7,1.4,100,11,7000,3.704,,,20,10.9,14,,3,,,11,,,50,wg-a,,,,AAXX 26064 07190 02357 80202 10110 20110 39983 40167 53014 60114 75065 885// 90600 333 10140 20109 60037=
07190,1996-05-26 09:00:00,14,1018.3,1.7,72,9,18000,3.704,,,210,,,,,,,,,,1,wg-a,,,,AAXX 26094 07190 02468 72102 10140 20090 30000 40183 51017 61000 70152 874// 90900 333 ////=
07190,1996-05-26 12:00:00,17,1017.9,-0.1,59,9,500,14.816,,,240,,,,,,,,,,3,wg-a,,,,AAXX 26124 07190 02500 72408 10170 20090 39999 40179 58001 61000 70352 85441 91200 333 ////=
07190,1996-05-26 15:00:00,18,1017.5,-0.4,59,10,40000,18.52,,,220,,,,,,,,,,,wg-a,,,,AAXX 26154 07190 12682 72210 10180 20100 39995 40175 58004 60006 874// 91500=
07190,1996-05-26 18:00:00,17,1015.9,,68,11,50000,14.816,,,210,10.9,18.1,,,,,,,,,wg-a,,,,AAXX 26184 07190 32684 72108 10170 20110 39979 40159 85442 91800 333 10181 20109=
07190,1996-05-26 21:00:00,15,1014.6,-1.4,82,12,15000,14.816,,,190,,,,0,,,,,,61,wg-a,,,,AAXX 26214 07190 12565 71908 10150 20120 39965 40146 58014 60007 76162 8582/ 92100=
07190,1996-05-27 03:00:00,14,1011.3,-1.1,94,13,8000,11.112,,,200,,,,2,,,,,,61,wg-a,,,,AAXX 27034 07190 12458 72006 10140 20130 39932 40113 56011 60027 76162 878// 90300=
07190,1996-05-27 06:00:00,15,1011,-0.3,77,11,25000,11.112,,,270,13.9,17.1,,0,,,,,,3,wg-a,,,,AAXX 27064 07190 12475 82706 10150 20110 39929 40110 55003 60007 70362 878// 90600 333 10171 20139=
07190,1996-05-27 09:00:00,16,1010.8,-0.1,68,10,20000,18.52,,,250,,,,1,,,,,,2,wg-a,,,,AAXX 27094 07190 12670 /2510 10160 20100 39928 40108 55001 60017 70286 85831 90900=
07190,1996-05-27 12:00:00,15,1012,1.1,72,10,25000,22.224,,,240,,,,3,,,,,,3,wg-a,,,,AAXX 27124 07190 02675 72412 10150 20100 39939 40120 51011 60046 70386 868// 91200 333 60037=
07190,1996-05-27 15:00:00,15,1012.7,0.7,77,11,500,25.928,,,260,,,,,,,,,,,wg-a,,,,AAXX 27154 07190 12500 72614 10150 20110 39946 40127 53007 60006 85230 91500=
07190,1996-05-27 18:00:00,15,1013.6,0.9,72,10,18000,18.52,,,240,12.7,15.9,,,,,,,,,wg-a,,,,AAXX 27184 07190 32568 72410 10150 20100 39955 40136 53009 8687/ 91800 333 10159 20127=
07190,1996-05-27 21:00:00,14,1015.3,1.6,82,11,18000,11.112,,,240,,,,,,,,,,25,wg-a,,,,AAXX 27214 07190 02568 72406 10140 20110 39971 40153 51016 61000 72586 878// 92100 333 ////=
07190,1996-05-28 00:00:00,13,1017.1,1.7,88,11,15000,18.52,,,310,,,,1,,,,,,25,wg-a,,,,AAXX 28004 07190 02565 83110 10130 20110 39988 40171 53017 60016 72586 888// 90000 333 60017=
07190,1996-05-28 03:00:00,9,1021.4,3.9,71,4,15000,18.52,,,350,,,,,,,,,,,wg-a,,,,AAXX 28034 07190 12465 43510 10090 20040 30027 40214 51039 60006 84800 90300=
07190,1996-05-28 06:00:00,9,1024.5,3.1,76,5,12000,18.52,,,330,7.5,15.1,,,,,5,,,,wg-a,,,,AAXX 28064 07190 12562 23310 10090 20050 30058 40245 51031 60054 82840 90600 333 10151 20075=
07190,1996-05-28 09:00:00,11,1025.7,1.3,58,3,25000,14.816,,,350,,,,,,,,,,,wg-a,,,,AAXX 28094 07190 12675 33508 10110 20030 30071 40257 51013 60006 83801 90900=
07190,1996-05-28 12:00:00,14,1026.3,0.8,55,5,500,18.52,,,340,,,,,,,,,,,wg-a,,,,AAXX 28124 07190 12600 43410 10140 20050 30079 40263 51008 60006 84800 91200=
07190,1996-05-28 15:00:00,16,1025.2,-1,48,5,500,11.112,,,340,,,,,,,,,,,wg-a,,,,AAXX 28154 07190 12700 /3406 10160 20050 30069 40252 57010 60006 81400 91500=
07190,1996-05-28 18:00:00,15,1025,-0.2,48,4,500,11.112,,,350,9.4,16.2,,,,,,,,,wg-a,,,,AAXX 28184 07190 12700 13506 10150 20040 30067 40250 55002 60006 81400 91800 333 10162 20094=
07190,1996-05-28 21:00:00,10,1026.1,0.8,82,7,25000,3.704,,,210,,,,,,,,,,,wg-a,,,,AAXX 28214 07190 12/75 12102 10100 20070 30075 40261 53008 60006 80001 92100=
07190,1996-05-29 00:00:00,7,1025.9,-0.6,87,5,20000,3.704,,,170,,,,,,,,,,,wg-a,,,,AAXX 29004 07190 12/70 11702 10070 20050 30071 40259 58006 60006 80001 90000=
07190,1996-05-29 03:00:00,6,1025.8,-0.2,87,4,12000,3.704,,,240,,,,,,,,,,,wg-a,,,,AAXX 29034 07190 12/62 22402 10060 20040 30069 40258 56002 60006 82031 90300=
07190,1996-05-29 06:00:00,9,1026.3,0.6,81,6,18000,3.704,,,210,5.4,15.4,,,,,,,,,wg-a,,,,AAXX 29064 07190 02/68 32102 10090 20060 30076 40263 50006 60006 82031 90600 333 10154 20054 60004=
07190,1996-05-29 09:00:00,15,1025.5,-0.4,59,7,20000,7.408,,,130,,,,,,,,,,,wg-a,,,,AAXX 29094 07190 12/70 51304 10150 20070 30072 40255 56004 60006 80002 90900=
07190,1996-05-29 12:00:00,19,1024.4,-0.9,32,2,500,3.704,,,70,,,,,,,,,,,wg-a,,,,AAXX 29124 07190 12700 20702 10190 20020 30063 40244 58009 60006 81102 91200=
07190,1996-05-29 15:00:00,22,1022.5,-1.6,31,4,40000,3.704,,,330,,,,,,,,,,,wg-a,,,,AAXX 29154 07190 12/82 13302 10220 20040 30047 40225 58016 60006 80002 91500=
07190,1996-05-29 18:00:00,21,1022.1,-0.5,40,7,35000,11.112,,,30,8.9,22.6,,,,,,,,,wg-a,,,,AAXX 29184 07190 12/81 40306 10210 20070 30042 40221 56005 60006 80002 91800 333 10226 20089=
07190,1996-05-29 21:00:00,15,1022.3,-0.2,72,10,35000,3.704,,,250,,,,,,,,,,,wg-a,,,,AAXX 29214 07190 12/81 42502 10150 20100 30040 40223 56002 60006 80001 92100=
07190,1996-05-30 00:00:00,12,1022.3,-0.2,76,8,35000,3.704,,,280,,,,,,,,,,,wg-a,,,,AAXX 30004 07190 12/81 42802 10120 20080 30038 40223 56002 60006 80001 90000=
07190,1996-05-30 03:00:00,9,1021.7,-0.7,93,8,35000,3.704,,,310,,,,,,,,,,,wg-a,,,,AAXX 30034 07190 12/81 33102 10090 20080 30031 40217 57007 60006 80001 90300=
07190,1996-05-30 06:00:00,13,1021.9,0.4,77,9,25000,0,,,0,8.7,21.3,,,,,,,,,wg-a,,,,AAXX 30064 07190 02/75 30000 10130 20090 30035 40219 53004 60006 80001 90600 333 10213 20087 60004=
07190,1996-05-30 09:00:00,20,1021,-0.4,56,11,25000,3.704,,,100,,,,,,,,,,,wg-a,,,,AAXX 30094 07190 12/75 21002 10200 20110 30031 40210 58004 60006 80001 90900=
07190,1996-05-30 12:00:00,25,1019.3,-1.4,30,6,500,7.408,,,130,,,,,,,,,,,wg-a,,,,AAXX 30124 07190 12/00 41304 10250 20060 30017 40193 58014 60006 80001 91200=
07190,1996-05-30 15:00:00,27,1017.5,-1.6,37,11,40000,7.408,,,30,,,,,,,,,,,wg-a,,,,AAXX 30154 07190 12/82 50304 10270 20110 30001 40175 56016 60006 80001 91500=
07190,1996-05-30 18:00:00,25,1016.7,-0.9,47,13,35000,7.408,,,110,13.2,27.3,,,,,,,,,wg-a,,,,AAXX 30184 07190 12/81 51104 10250 20130 39992 40167 56009 60006 80001 91800 333 10273 20132=
07190,1996-05-30 21:00:00,20,1017.8,0.7,64,13,500,3.704,,,240,,,,,,,,,,,wg-a,,,,AAXX 30214 07190 12/00 52402 10200 20130 39999 40178 52007 60006 80002 92100=
07190,1996-05-31 00:00:00,15,1018.1,0,82,12,25000,7.408,,,190,,,,,,,,,,,wg-a,,,,AAXX 31004 07190 12/75 51904 10150 20120 39999 40181 50000 60006 80002 90000=
07190,1996-05-31 03:00:00,13,1018.6,0.4,94,12,25000,11.112,,,200,,,,,,,,,,,wg-a,,,,AAXX 31034 07190 12/75 52006 10130 20120 30003 40186 53004 60006 80001 90300=
07190,1996-05-31 06:00:00,16,1019.5,1.2,82,13,25000,3.704,,,220,12.8,25.5,,,,,,,,,wg-a,,,,AAXX 31064 07190 02/75 42202 10160 20130 30014 40195 51012 60006 80001 90600 333 10255 20128 60004=
07190,1996-05-31 09:00:00,25,1019.4,0.3,47,13,500,14.816,,,160,,,,,,,,,,,wg-a,,,,AAXX 31094 07190 12/00 21608 10250 20130 30018 40194 50003 60006 80001 90900=
07190,1996-05-31 12:00:00,29,1018.4,-0.8,40,14,35000,11.112,,,170,,,,,,,,,,,wg-a,,,,AAXX 31124 07190 12781 /1706 10290 20140 30011 40184 58008 60006 81101 91200=
07190,1996-05-31 15:00:00,30,1017.7,-0.7,40,15,35000,14.816,,,350,,,,,,,,,,,wg-a,,,,AAXX 31154 07190 12781 13508 10300 20150 30004 40177 56007 60006 81201 91500=
07190,1996-05-31 18:00:00,27,1017.2,-0.6,48,15,500,14.816,,,330,16.3,30.1,,,,,,,,,wg-a,,,,AAXX 31184 07190 12700 13308 10270 20150 39998 40172 56006 60006 81401 91800 333 10301 20163=
07190,1996-05-31 21:00:00,21,1018.7,1.1,69,15,20000,18.52,,,320,,,,,,,,,,,wg-a,,,,AAXX 31214 07190 12770 13210 10210 20150 30009 40187 53011 60006 81441 92100=
07190,1996-06-01 00:00:00,18,1018.9,0,68,12,20000,7.408,,,310,,,,,,,,,,,wg-a,,,,AAXX 01004 07190 12/70 33104 10180 20120 30009 40189 50000 60006 82041 90000=
07190,1996-06-01 03:00:00,17,1019.7,0.8,72,12,15000,7.408,,,290,,,,,,,,,,,wg-a,,,,AAXX 01034 07190 12665 72904 10170 20120 30017 40197 53008 60006 879// 90300=
07190,1996-06-01 06:00:00,17,1021,1.2,88,15,15000,7.408,,,160,16.5,27.4,,0,,,,,,25,wg-a,,,,AAXX 01064 07190 02665 /1604 10170 20150 30029 40210 51012 60004 72586 85830 90600 333 10274 20165 60007=
07190,1996-06-01 09:00:00,20,1020.2,-0.6,64,13,15000,3.704,,,150,,,,,,,,,,,wg-a,,,,AAXX 01094 07190 12565 41502 10200 20130 30023 40202 56006 60006 81230 90900=
07190,1996-06-01 12:00:00,21,1020,-0.1,64,14,15000,18.52,,,10,,,,,,,,,,,wg-a,,,,AAXX 01124 07190 12665 70110 10210 20140 30022 40200 58001 60006 82272 91200=
07190,1996-06-01 15:00:00,18,1020.9,0.7,83,15,9000,11.112,,,330,,,,0,,,,,,61,wg-a,,,,AAXX 01154 07190 12559 83306 10180 20150 30029 40209 53007 60007 76162 8582/ 91500=
07190,1996-06-01 18:00:00,16,1021.4,0.3,88,14,9000,7.408,,,310,15.5,22.1,,3,,,,,,61,wg-a,,,,AAXX 01184 07190 12459 83104 10160 20140 30032 40214 53003 60037 76162 8682/ 91800 333 10221 20155=
07190,1996-06-01 21:00:00,15,1020.9,-0.5,94,14,15000,0,,,0,,,,0,,,,,,1,wg-a,,,,AAXX 01214 07190 12665 70000 10150 20140 30027 40209 56005 60007 70162 8557/ 92100=
07190,1996-06-02 00:00:00,15,1019.3,-1.6,88,13,10000,11.112,,,20,,,,,,,,,,3,wg-a,,,,AAXX 02004 07190 12660 80206 10150 20130 30011 40193 58016 60006 70362 8557/ 90000=
07190,1996-06-02 03:00:00,14,1018.1,-1.1,94,13,3500,14.816,,,310,,,,4,,,,,,,wg-a,,,,AAXX 02034 07190 12335 83108 10140 20130 39998 40181 55011 60047 888// 90300=
07190,1996-06-02 06:00:00,12,1017.8,-0.5,88,10,15000,14.816,,,30,11.8,15.5,,9,,,16,,,21,wg-a,,,,AAXX 02064 07190 02265 70308 10120 20100 39994 40178 58005 60164 72162 8683/ 90600 333 10155 20118 60097=
07190,1996-06-02 09:00:00,14,1018.3,0.6,82,11,12000,18.52,,,20,,,,0,,,,,,1,wg-a,,,,AAXX 02094 07190 12462 60210 10140 20110 30000 40183 53006 60007 70162 84230 90900=
07190,1996-06-02 12:00:00,15,1017,-1.1,77,11,12000,14.816,,,30,,,,,,,,,,1,wg-a,,,,AAXX 02124 07190 12562 70308 10150 20110 39989 40170 56011 60016 70162 8513/ 91200=
07190,1996-06-02 15:00:00,16,1015.5,-1.5,72,11,12000,14.816,,,30,,,,,,,,,,,wg-a,,,,AAXX 02154 07190 12562 70308 10160 20110 39974 40155 56015 60006 878// 91500=
07190,1996-06-02 18:00:00,15,1016,0.5,77,11,12000,7.408,,,340,11.9,16.6,,,,,,,,,wg-a,,,,AAXX 02184 07190 32562 83404 10150 20110 39979 40160 51005 885// 91800 333 10166 20119=
07190,1996-06-02 21:00:00,14,1016.9,0.8,88,12,10000,7.408,,,330,,,,,,,,,,,wg-a,,,,AAXX 02214 07190 12560 /3304 10140 20120 39987 40169 51008 60006 875// 92100=
07190,1996-06-03 00:00:00,13,1016.8,-0.1,88,11,12000,7.408,,,360,,,,,,,,,,,wg-a,,,,AAXX 03004 07190 12562 73604 10130 20110 39986 40168 57001 60006 875// 90000=
07190,1996-06-03 03:00:00,13,1017.6,0.8,88,11,8000,7.408,,,330,,,,,,,,,,,wg-a,,,,AAXX 03034 07190 12458 83304 10130 20110 39993 40176 53008 60006 885// 90300=
07190,1996-06-03 06:00:00,13,1019.7,2,88,11,8000,7.408,,,340,12.8,14.9,,,,,,,,,wg-a,,,,AAXX 03064 07190 02458 83404 10130 20110 30014 40197 51020 60006 875// 90600 333 10149 20128 60004=
07190,1996-06-03 12:00:00,18,1021.1,0.5,68,12,15000,11.112,,,20,,,,,,,,,,1,wg-a,,,,AAXX 03124 07190 02665 70206 10180 20120 30030 40211 52005 61000 70165 8583/ 91200 333 ////=
07190,1996-06-03 15:00:00,19,1021.2,0.2,64,12,20000,3.704,,,60,,,,,,,,,,,wg-a,,,,AAXX 03154 07190 12570 /0602 10190 20120 30032 40212 53002 60006 83800 91500=
07190,1996-06-03 21:00:00,15,1023.6,1.4,82,12,20000,7.408,,,350,,,,,,,,,,,wg-a,,,,AAXX 03214 07190 12/70 /3504 10150 20120 30053 40236 51014 60006 81031 92100=
07190,1996-06-04 00:00:00,11,1025.1,1.3,94,10,15000,7.408,,,330,,,,,,,,,,,wg-a,,,,AAXX 04004 07190 12/65 23304 10110 20100 30066 40251 51013 60006 81031 90000=
07190,1996-06-04 03:00:00,10,1026.1,0.8,93,9,8000,0,,,0,,,,,,,,,,,wg-a,,,,AAXX 04034 07190 12/58 /0000 10100 20090 30074 40261 53008 60006 80001 90300=
07190,1996-06-04 06:00:00,13,1027.5,1.7,94,12,8000,11.112,,,350,9.5,19,,,,,,,,,wg-a,,,,AAXX 04064 07190 02/58 03506 10130 20120 30091 40275 53017 60006 80000 90600 333 10190 20095 61000=
07190,1996-06-04 09:00:00,20,1027.7,0.5,60,12,15000,14.816,,,30,,,,,,,,,,,wg-a,,,,AAXX 04094 07190 12565 /0308 10200 20120 30096 40277 51005 60006 81200 90900=
07190,1996-06-04 12:00:00,23,1026.7,-0.8,44,10,20000,14.816,,,30,,,,,,,,,,,wg-a,,,,AAXX 04124 07190 12670 /0308 10230 20100 30088 40267 58008 60006 81200 91200=
07190,1996-06-04 15:00:00,24,1026.1,-0.5,38,9,20000,22.224,,,30,,,,,,,,,,,wg-a,,,,AAXX 04154 07190 12770 10312 10240 20090 30083 40261 56005 60006 81100 91500=
07190,1996-06-04 18:00:00,22,1026,-0.2,43,9,500,22.224,,,30,13.4,23.9,,,,,,,,,wg-a,,,,AAXX 04184 07190 12800 10312 10220 20090 30081 40260 55002 60006 81400 91800 333 10239 20134=
07190,1996-06-04 21:00:00,18,1027.1,0.8,59,10,500,11.112,,,20,,,,,,,,,,,wg-a,,,,AAXX 04214 07190 12/00 00206 10180 20100 30089 40271 52008 60006 80000 92100=
07190,1996-06-05 00:00:00,14,1027.1,-0.2,77,10,25000,7.408,,,350,,,,,,,,,,,wg-a,,,,AAXX 05004 07190 12/75 03504 10140 20100 30087 40271 58002 60006 80000 90000=
07190,1996-06-05 03:00:00,12,1026.8,-0.4,88,10,20000,7.408,,,320,,,,,,,,,,,wg-a,,,,AAXX 05034 07190 12/70 03204 10120 20100 30083 40268 57004 60006 80000 90300=
07190,1996-06-05 06:00:00,16,1026.5,-0.1,72,11,12000,7.408,,,10,11.7,22.3,,,,,,,,,wg-a,,,,AAXX 05064 07190 02/62 00104 10160 20110 30082 40265 58001 60006 80000 90600 333 10223 20117 60004=
07190,1996-06-05 09:00:00,21,1025,-1,60,13,15000,11.112,,,40,,,,,,,,,,,wg-a,,,,AAXX 05094 07190 12/65 00406 10210 20130 30071 40250 58010 60006 80000 90900=
07190,1996-06-05 12:00:00,26,1023.6,-1.1,51,15,15000,14.816,,,30,,,,,,,,,,,wg-a,,,,AAXX 05124 07190 12/65 00308 10260 20150 30060 40236 57011 60006 80000 91200=
07190,1996-06-05 15:00:00,27,1022.2,-1.4,48,15,15000,14.816,,,20,,,,,,,,,,,wg-a,,,,AAXX 05154 07190 12/65 00208 10270 20150 30047 40222 56014 60006 80000 91500=
07190,1996-06-05 18:00:00,26,1021.6,-0.6,48,14,15000,18.52,,,30,15.8,27.3,,,,,,,,,wg-a,,,,AAXX 05184 07190 12/65 00310 10260 20140 30040 40216 56006 60006 80000 91800 333 10273 20158=
07190,1996-06-05 21:00:00,20,1022.2,0.3,68,14,18000,7.408,,,310,,,,,,,,,,,wg-a,,,,AAXX 05214 07190 12/68 03104 10200 20140 30043 40222 51003 60006 80000 92100=
07190,1996-06-06 00:00:00,17,1022,-0.4,82,14,15000,0,,,0,,,,,,,,,,,wg-a,,,,AAXX 06004 07190 12/65 00000 10170 20140 30039 40220 58004 60006 80000 90000=
07190,1996-06-06 03:00:00,15,1021.8,-0.3,88,13,12000,3.704,,,60,,,,,,,,,,,wg-a,,,,AAXX 06034 07190 12/62 00602 10150 20130 30036 40218 56003 60006 80000 90300=
07190,1996-06-06 06:00:00,17,1022.2,0.5,82,14,8000,0,,,0,14.2,25.6,,,,,,,,,wg-a,,,,AAXX 06064 07190 02/58 00000 10170 20140 30041 40222 51005 60006 80000 90600 333 10256 20142 60004=
07190,1996-06-06 09:00:00,23,1021.8,0,69,17,8000,3.704,,,140,,,,,,,,,,,wg-a,,,,AAXX 06094 07190 12/58 01402 10230 20170 30041 40218 50000 60006 80000 90900=
07190,1996-06-06 12:00:00,29,1020.3,-1.1,48,17,9000,3.704,,,120,,,,,,,,,,,wg-a,,,,AAXX 06124 07190 12659 /1202 10290 20170 30030 40203 56011 60006 81200 91200=
07190,1996-06-06 15:00:00,31,1019.2,-1,40,16,10000,7.408,,,20,,,,,,,,,,,wg-a,,,,AAXX 06154 07190 12760 10204 10310 20160 30020 40192 57010 60006 81200 91500=
07190,1996-06-06 18:00:00,29,1018.9,-0.5,52,18,10000,7.408,,,120,17.5,31.6,,,,,,,,,wg-a,,,,AAXX 06184 07190 12760 11204 10290 20180 30016 40189 56005 60006 81200 91800 333 10316 20175=
07190,1996-06-06 21:00:00,23,1019.9,0.7,73,18,10000,3.704,,,230,,,,,,,,,,,wg-a,,,,AAXX 06214 07190 12/60 12302 10230 20180 30023 40199 53007 60006 80001 92100=
07190,1996-06-07 00:00:00,19,1020.1,-0.2,88,17,10000,3.704,,,320,,,,,,,,,,,wg-a,,,,AAXX 07004 07190 12/60 03202 10190 20170 30022 40201 58002 60006 80000 90000=
07190,1996-06-07 03:00:00,17,1020.3,0.1,94,16,7000,0,,,0,,,,,,,,,,11,wg-a,,,,AAXX 07034 07190 12/57 /0000 10170 20160 30023 40203 50001 60006 71100 81081 90300=
07190,1996-06-07 06:00:00,21,1020.8,0.6,78,17,8000,0,,,0,17.1,28.9,,,,,,,,,wg-a,,,,AAXX 07064 07190 02/58 /0000 10210 20170 30030 40208 53006 60006 81080 90600 333 10289 20171 60004=
07190,1996-06-07 09:00:00,27,1020.5,0,62,19,8000,3.704,,,160,,,,,,,,,,,wg-a,,,,AAXX 07094 07190 12558 /1602 10270 20190 30030 40205 50000 60006 81200 90900=
07190,1996-06-07 12:00:00,31,1018.7,-1.5,43,17,10000,7.408,,,40,,,,,,,,,,,wg-a,,,,AAXX 07124 07190 12760 /0404 10310 20170 30015 40187 58015 60006 81200 91200=
07190,1996-06-07 15:00:00,33,1017.7,-0.9,39,17,12000,11.112,,,20,,,,,,,,,,,wg-a,,,,AAXX 07154 07190 12762 50206 10330 20170 30006 40177 55009 60006 82963 91500=
07190,1996-06-07 18:00:00,25,1018.3,0.1,54,15,15000,14.816,,44.448,120,20.5,32.8,,0,,,,,,29,wg-a,,,,AAXX 07184 07190 12665 /1208 10250 20150 30007 40183 53001 60007 72998 83963 91800 333 10328 20205 91024=
07190,1996-06-07 21:00:00,22,1018.9,0.5,73,17,15000,11.112,,,140,,,,,,,,,,13,wg-a,,,,AAXX 07214 07190 12765 /1406 10220 20170 30012 40189 53005 60006 71322 81963 92100=
07190,1996-06-08 00:00:00,19,1018.7,-0.4,88,17,0,0,,,0,,,,,,,,,,,wg-a,,,,AAXX 08004 07190 12/// /0000 10190 20170 30008 40187 57004 60006 90000=
07190,1996-06-08 03:00:00,18,1018.7,-0.1,94,17,7000,3.704,,,210,,,,,,,,,,,wg-a,,,,AAXX 08034 07190 12/57 /2102 10180 20170 30007 40187 55001 60006 80001 90300=
07190,1996-06-08 06:00:00,20,1019.5,0.9,88,18,8000,7.408,,,190,17,24.8,,,,,,,,,wg-a,,,,AAXX 08064 07190 02758 51904 10200 20180 30016 40195 53009 60006 82299 90600 333 10248 20170 60004=
07190,1996-06-08 09:00:00,23,1020.9,1.6,83,20,8000,7.408,,,210,,,,6,,,,,,17,wg-a,,,,AAXX 08094 07190 12658 72104 10230 20200 30032 40209 51016 60067 71798 873// 90900=
07190,1996-06-08 12:00:00,26,1019.8,-0.9,65,19,15000,14.816,,,140,,,,3,,,,,,1,wg-a,,,,AAXX 08124 07190 02765 41408 10260 20190 30023 40198 58009 60096 70198 81283 91200 333 60037=
07190,1996-06-08 15:00:00,28,1018.3,-1.4,62,20,15000,14.816,,,140,,,,,,,,,,,wg-a,,,,AAXX 08154 07190 12665 31408 10280 20200 30009 40183 58014 60006 81933 91500=
07190,1996-06-08 18:00:00,27,1017.7,-0.5,66,20,18000,3.704,,,130,19.6,28.3,,,,,,,,,wg-a,,,,AAXX 08184 07190 32768 31302 10270 20200 30003 40177 55005 81233 91800 333 10283 20196=
07190,1996-06-08 21:00:00,24,1020,2.1,69,18,15000,14.816,,,300,,,,,,,,,,,wg-a,,,,AAXX 08214 07190 12765 63008 10240 20180 30024 40200 53021 60006 84932 92100=
07190,1996-06-09 00:00:00,18,1023.3,2.9,88,16,0,25.928,,,200,,,,16,,,,,,,wg-a,,,,AAXX 09004 07190 02/// /2014 10180 20160 30053 40233 53029 60166 90000 333 60167=
07190,1996-06-09 03:00:00,18,1021.3,-2.1,94,17,7000,3.704,,,120,,,,9,,,,,,,wg-a,,,,AAXX 09034 07190 12757 71202 10180 20170 30033 40213 56021 60097 875// 90300=
07190,1996-06-09 06:00:00,18,1022.6,1.3,100,18,8000,0,,,0,17,27.3,,,,,35,,,3,wg-a,,,,AAXX 09064 07190 12658 70000 10180 20180 30046 40226 51013 60354 70396 875// 90600 333 10273 20170=
07190,1996-06-09 09:00:00,22,1022.3,-0.1,78,18,10000,7.408,,,170,,,,,,,,,,,wg-a,,,,AAXX 09094 07190 12460 21704 10220 20180 30045 40223 58001 60006 82201 90900=
07190,1996-06-09 12:00:00,26,1021.1,-0.9,61,18,15000,3.704,,,130,,,,,,,,,,17,wg-a,,,,AAXX 09124 07190 12665 41302 10260 20180 30036 40211 57009 60006 71791 84900 91200=
07190,1996-06-09 15:00:00,26,1020.2,-0.9,54,16,20000,3.704,,,80,,,,,,,,,,1,wg-a,,,,AAXX 09154 07190 12670 /0802 10260 20160 30027 40202 58009 60006 70191 81200 91500=
07190,1996-06-09 18:00:00,27,1019.6,-0.5,48,15,25000,3.704,,,350,18.3,27.4,,,,,,,,2,wg-a,,,,AAXX 09184 07190 12675 /3502 10270 20150 30022 40196 56005 60006 70291 81900 91800 333 10274 20183=
07190,1996-06-09 21:00:00,22,1021.4,1.4,83,19,15000,3.704,,,300,,,,,,,,,,,wg-a,,,,AAXX 09214 07190 12765 23002 10220 20190 30036 40214 53014 60006 82800 92100=
07190,1996-06-10 00:00:00,19,1021.3,-0.2,88,17,25000,0,,,0,,,,,,,,,,,wg-a,,,,AAXX 10004 07190 12/75 00000 10190 20170 30034 40213 55002 60006 80000 90000=
07190,1996-06-10 03:00:00,17,1021.7,0.2,94,16,12000,0,,,0,,,,,,,,,,,wg-a,,,,AAXX 10034 07190 12762 10000 10170 20160 30036 40217 53002 60006 81500 90300=
07190,1996-06-10 06:00:00,21,1022,0.7,78,17,15000,0,,,0,16.7,27.2,,,,,,,,,wg-a,,,,AAXX 10064 07190 02/65 00000 10210 20170 30042 40220 52007 60006 80000 90600 333 10272 20167 60004=
07190,1996-06-10 09:00:00,24,1022.1,0.3,69,18,20000,7.408,,,360,,,,,,,,,,,wg-a,,,,AAXX 10094 07190 12570 23604 10240 20180 30045 40221 51003 60006 82200 90900=
07190,1996-06-10 12:00:00,28,1021,-0.9,58,19,20000,7.408,,,30,,,,,,,,,,,wg-a,,,,AAXX 10124 07190 12670 40304 10280 20190 30036 40210 55009 60006 82963 91200=
07190,1996-06-10 15:00:00,28,1020.3,-0.7,55,18,20000,3.704,,,140,,,,,,,,,,17,wg-a,,,,AAXX 10154 07190 12670 /1402 10280 20180 30029 40203 56007 60006 71791 82963 91500=
07190,1996-06-10 18:00:00,28,1019.9,-0.4,62,20,20000,7.408,,,360,20.7,28.7,,,,,,,,1,wg-a,,,,AAXX 10184 07190 12670 33604 10280 20200 30025 40199 56004 60006 70191 81231 91800 333 10287 20207=
07190,1996-06-10 21:00:00,22,1021.5,1.3,88,20,12000,3.704,,,250,,,,,,,,,,,wg-a,,,,AAXX 10214 07190 12/62 22502 10220 20200 30038 40215 53013 60006 81031 92100=
07190,1996-06-11 00:00:00,19,1021.9,0.2,94,18,9000,3.704,,,200,,,,,,,,,,12,wg-a,,,,AAXX 11004 07190 12/59 32002 10190 20180 30040 40219 50002 60006 71200 80003 90000=
07190,1996-06-11 03:00:00,18,1022.4,0.4,94,17,3500,3.704,,,150,,,,,,,,,,10,wg-a,,,,AAXX 11034 07190 12/35 21502 10180 20170 30044 40224 53004 60006 71000 80001 90300=
07190,1996-06-11 06:00:00,20,1023.6,1.3,88,18,4500,14.816,,,140,17,27.8,,,,,,,,10,wg-a,,,,AAXX 11064 07190 02/45 01408 10200 20180 30057 40236 52013 60006 71000 80000 90600 333 10278 20170 60004=
07190,1996-06-11 09:00:00,25,1023.6,0.3,69,19,10000,7.408,,,210,,,,,,,,,,,wg-a,,,,AAXX 11094 07190 12660 /2104 10250 20190 30060 40236 50003 60006 81200 90900=
07190,1996-06-11 12:00:00,30,1022.5,-0.8,43,16,13000,3.704,,,60,,,,,,,,,,,wg-a,,,,AAXX 11124 07190 12763 40602 10300 20160 30052 40225 58008 60006 83903 91200=
07190,1996-06-11 15:00:00,30,1021.6,-0.9,43,16,18000,7.408,,,190,,,,,,,,,,,wg-a,,,,AAXX 11154 07190 12768 41904 10300 20160 30043 40216 58009 60006 82283 91500=
07190,1996-06-11 21:00:00,24,1022.8,1.1,78,20,15000,7.408,,,240,,,,,,,,,,17,wg-a,,,,AAXX 11214 07190 12765 42404 10240 20200 30052 40228 53011 60006 71790 83903 92100=
07190,1996-06-12 00:00:00,21,1023.4,0.3,83,18,15000,7.408,,,170,,,,,,,,,,2,wg-a,,,,AAXX 12004 07190 12/65 01704 10210 20180 30055 40234 52003 60006 70290 80000 90000=
07190,1996-06-12 03:00:00,19,1023.5,-0,88,17,7000,3.704,,,160,,,,,,,,,,,wg-a,,,,AAXX 12034 07190 12/57 01602 10190 20170 30055 40235 55000 60006 80000 90300=
07190,1996-06-12 06:00:00,21,1024.3,1,83,18,8000,7.408,,,170,18.5,30.9,,,,,,,,,wg-a,,,,AAXX 12064 07190 02/58 01704 10210 20180 30065 40243 52010 60006 80000 90600 333 10309 20185 60004=
07190,1996-06-12 09:00:00,28,1024.4,0.4,51,17,10000,3.704,,,50,,,,,,,,,,,wg-a,,,,AAXX 12094 07190 12660 20502 10280 20170 30069 40244 51004 60006 82280 90900=
07190,1996-06-12 12:00:00,28,1023.5,-0.8,58,19,15000,7.408,,,30,,,,0,,,,,,1,wg-a,,,,AAXX 12124 07190 02665 30304 10280 20190 30061 40235 58008 60016 70198 83200 91200 333 60007=
07190,1996-06-12 15:00:00,28,1023.2,-0.3,51,17,20000,22.224,,,320,,,,,,,,,,,wg-a,,,,AAXX 12154 07190 12770 23212 10280 20170 30058 40232 58003 60006 82200 91500=
07190,1996-06-12 18:00:00,23,1025.2,1.6,61,15,18000,25.928,,,300,21.3,29.2,,,,,,,,,wg-a,,,,AAXX 12184 07190 32768 13014 10230 20150 30074 40252 53016 81200 91800 333 10292 20213=
07190,1996-06-12 21:00:00,19,1027.5,2.1,73,14,18000,14.816,,,300,,,,,,,,,,,wg-a,,,,AAXX 12214 07190 12768 23008 10190 20140 30095 40275 51021 60006 82500 92100=
07190,1996-06-13 00:00:00,19,1028.9,1.3,60,11,18000,18.52,,,350,,,,,,,,,,,wg-a,,,,AAXX 13004 07190 12668 /3510 10190 20110 30108 40289 51013 60006 86500 90000=
07190,1996-06-13 06:00:00,15,1031.2,1.1,63,8,15000,14.816,,,340,13.6,23.2,,,,,,,,,wg-a,,,,AAXX 13064 07190 02/65 /3408 10150 20080 30128 40312 51011 60006 80001 90600 333 10232 20136 60004=
07190,1996-06-13 09:00:00,17,1031.2,0.1,55,8,20000,18.52,,,20,,,,,,,,,,,wg-a,,,,AAXX 13094 07190 12670 /0210 10170 20080 30129 40312 50001 60006 81100 90900=
07190,1996-06-13 12:00:00,21,1030.2,-0.7,49,10,20000,18.52,,,350,,,,,,,,,,,wg-a,,,,AAXX 13124 07190 12670 /3510 10210 20100 30122 40302 58007 60006 81100 91200=
07190,1996-06-13 15:00:00,22,1028.8,-1.3,38,7,500,18.52,,,20,,,,,,,,,,,wg-a,,,,AAXX 13154 07190 12700 /0210 10220 20070 30109 40288 57013 60006 81200 91500=
07190,1996-06-13 18:00:00,20,1028.8,-0.2,40,6,40000,18.52,,,30,14.8,22.1,,,,,,,,,wg-a,,,,AAXX 13184 07190 12782 10310 10200 20060 30107 40288 55002 60006 81501 91800 333 10221 20148=
07190,1996-06-13 21:00:00,16,1030.2,1.2,51,6,500,14.816,,,20,,,,,,,,,,,wg-a,,,,AAXX 13214 07190 12/00 00208 10160 20060 30119 40302 53012 60006 80000 92100=
07190,1996-06-14 00:00:00,13,1030.2,-0.2,62,6,20000,11.112,,,360,,,,,,,,,,,wg-a,,,,AAXX 14004 07190 12/70 03606 10130 20060 30117 40302 58002 60006 80000 90000=
07190,1996-06-14 03:00:00,11,1030.1,-0.3,71,6,15000,11.112,,,350,,,,,,,,,,,wg-a,,,,AAXX 14034 07190 12/65 03506 10110 20060 30114 40301 58003 60006 80000 90300=
07190,1996-06-14 06:00:00,14,1029.9,0.1,67,8,500,14.816,,,30,10.5,20.3,,,,,,,,,wg-a,,,,AAXX 14064 07190 02/00 00308 10140 20080 30115 40299 51001 60006 80000 90600 333 10203 20105 60004=
07190,1996-06-14 09:00:00,19,1029,-0.5,43,6,500,18.52,,,40,,,,,,,,,,,wg-a,,,,AAXX 14094 07190 12/00 10410 10190 20060 30109 40290 58005 60006 80001 90900=
07190,1996-06-14 12:00:00,21,1028.1,-0.7,46,9,500,22.224,,,30,,,,,,,,,,,wg-a,,,,AAXX 14124 07190 12/00 10312 10210 20090 30101 40281 57007 60006 80001 91200=
07190,1996-06-14 15:00:00,22,1026.6,-1.3,41,8,500,25.928,,,10,,,,,,,,,,,wg-a,,,,AAXX 14154 07190 12/00 10114 10220 20080 30087 40266 58013 60006 80001 91500=
07190,1996-06-14 18:00:00,20,1026.1,-0.6,43,7,35000,22.224,,,20,14.3,22.1,,,,,,,,,wg-a,,,,AAXX 14184 07190 12/81 40212 10200 20070 30081 40261 56006 60006 80001 91800 333 10221 20143=
07190,1996-06-14 21:00:00,16,1027.7,1.3,55,7,500,11.112,,,360,,,,,,,,,,,wg-a,,,,AAXX 14214 07190 12/00 43606 10160 20070 30094 40277 51013 60006 80001 92100=
07190,1996-06-15 00:00:00,13,1027.8,-0.1,72,8,500,11.112,,,350,,,,,,,,,,,wg-a,,,,AAXX 15004 07190 12/00 03506 10130 20080 30093 40278 58001 60006 80000 90000=
07190,1996-06-15 03:00:00,12,1027.4,-0.5,71,7,15000,11.112,,,360,,,,,,,,,,,wg-a,,,,AAXX 15034 07190 12/65 03606 10120 20070 30088 40274 58005 60006 80000 90300=
07190,1996-06-15 06:00:00,14,1027.2,-0,67,8,500,14.816,,,20,11,20.2,,,,,,,,,wg-a,,,,AAXX 15064 07190 02/00 10208 10140 20080 30088 40272 54000 60006 80001 90600 333 10202 20110 60004=
07190,1996-06-15 09:00:00,18,1026.8,-0.1,56,9,40000,14.816,,,30,,,,,,,,,,,wg-a,,,,AAXX 15094 07190 12/82 10308 10180 20090 30087 40268 58001 60006 80001 90900=
07190,1996-06-15 12:00:00,22,1024.9,-1.6,43,9,40000,18.52,,,20,,,,,,,,,,,wg-a,,,,AAXX 15124 07190 12/82 10210 10220 20090 30071 40249 58016 60006 80001 91200=
07190,1996-06-15 15:00:00,24,1023.6,-1.3,34,7,40000,22.224,,,30,,,,,,,,,,,wg-a,,,,AAXX 15154 07190 12/82 10312 10240 20070 30058 40236 56013 60006 80001 91500=
07190,1996-06-15 18:00:00,22,1022.7,-1,43,9,45000,22.224,,,30,13.5,24,,,,,,,,,wg-a,,,,AAXX 15184 07190 12/83 10312 10220 20090 30049 40227 56010 60006 80001 91800 333 10240 20135=
07190,1996-06-15 21:00:00,17,1023.7,0.7,45,5,45000,11.112,,,350,,,,,,,,,,,wg-a,,,,AAXX 15214 07190 12/83 23506 10170 20050 30055 40237 53007 60006 80001 92100=
07190,1996-06-16 00:00:00,14,1023.7,0,63,7,40000,11.112,,,10,,,,,,,,,,,wg-a,,,,AAXX 16004 07190 12/82 20106 10140 20070 30054 40237 50000 60006 80001 90000=
07190,1996-06-16 03:00:00,12,1023.1,-0.7,76,8,35000,7.408,,,340,,,,,,,,,,,wg-a,,,,AAXX 16034 07190 12/81 23404 10120 20080 30047 40231 58007 60006 80001 90300=
07190,1996-06-16 06:00:00,15,1023.3,0.5,67,9,35000,14.816,,,20,11.2,22,,,,,,,,,wg-a,,,,AAXX 16064 07190 02/81 30208 10150 20090 30051 40233 51005 60006 80001 90600 333 10220 20112 60004=
07190,1996-06-16 09:00:00,20,1022.9,-0.1,49,9,35000,18.52,,,20,,,,,,,,,,,wg-a,,,,AAXX 16094 07190 12681 /0210 10200 20090 30050 40229 58001 60006 81101 90900=
07190,1996-06-16 12:00:00,23,1021.9,-0.9,36,7,40000,18.52,,,20,,,,,,,,,,,wg-a,,,,AAXX 16124 07190 12782 /0210 10230 20070 30041 40219 58009 60006 81200 91200=
07190,1996-06-16 15:00:00,24,1020.6,-1.2,41,10,40000,25.928,,,20,,,,,,,,,,,wg-a,,,,AAXX 16154 07190 12782 /0214 10240 20100 30029 40206 56012 60006 81200 91500=
07190,1996-06-16 18:00:00,22,1019.8,-0.9,46,10,45000,22.224,,,30,15.5,24.1,,,,,,,,,wg-a,,,,AAXX 16184 07190 12783 10312 10220 20100 30020 40198 56009 60006 81200 91800 333 10241 20155=
07190,1996-06-16 21:00:00,18,1021.1,1.1,56,9,45000,11.112,,,10,,,,,,,,,,,wg-a,,,,AAXX 16214 07190 12/83 20106 10180 20090 30031 40211 53011 60006 80001 92100=
07190,1996-06-17 00:00:00,13,1021,-0.4,77,9,40000,7.408,,,330,,,,,,,,,,,wg-a,,,,AAXX 17004 07190 12/82 03304 10130 20090 30027 40210 58004 60006 80000 90000=
07190,1996-06-17 06:00:00,16,1020.3,0.1,63,9,500,7.408,,,350,11.3,22.3,,,,,,,,,wg-a,,,,AAXX 17064 07190 02/00 03504 10160 20090 30021 40203 53001 60006 80000 90600 333 10223 20113 60004=
07190,1996-06-17 09:00:00,21,1019.8,-0.1,56,12,25000,11.112,,,350,,,,,,,,,,,wg-a,,,,AAXX 17094 07190 12/75 23506 10210 20120 30020 40198 57001 60006 80001 90900=
07190,1996-06-17 12:00:00,26,1018.3,-1.2,39,11,25000,7.408,,,340,,,,,,,,,,,wg-a,,,,AAXX 17124 07190 12775 33404 10260 20110 30008 40183 58012 60006 81201 91200=
07190,1996-06-17 15:00:00,28,1016.5,-1.7,25,6,500,0,,,0,,,,,,,,,,,wg-a,,,,AAXX 17154 07190 12700 20000 10280 20060 39991 40165 56017 60006 81201 91500=
07190,1996-06-17 18:00:00,26,1015.7,-0.9,34,9,40000,7.408,,,350,15.5,28.4,,,,,,,,,wg-a,,,,AAXX 17184 07190 12782 53504 10260 20090 39982 40157 56009 60006 81101 91800 333 10284 20155=
07190,1996-06-17 21:00:00,19,1016.4,0.3,64,12,40000,0,,,0,,,,,,,,,,,wg-a,,,,AAXX 17214 07190 12/82 20000 10190 20120 39985 40164 50003 60006 80001 92100=
07190,1996-06-18 00:00:00,15,1016.2,-0.4,77,11,500,3.704,,,200,,,,,,,,,,,wg-a,,,,AAXX 18004 07190 12/00 42002 10150 20110 39981 40162 57004 60006 80001 90000=
07190,1996-06-18 03:00:00,13,1015.3,-1,88,11,500,7.408,,,190,,,,,,,,,,,wg-a,,,,AAXX 18034 07190 12/00 11904 10130 20110 39971 40153 58010 60006 80001 90300=
07190,1996-06-18 06:00:00,16,1015.1,-0,77,12,500,7.408,,,200,12.4,26.4,,,,,,,,,wg-a,,,,AAXX 18064 07190 02/00 42004 10160 20120 39971 40151 55000 60006 80001 90600 333 10264 20124 60004=
07190,1996-06-18 09:00:00,25,1013.5,-1.1,47,13,500,7.408,,,240,,,,,,,,,,,wg-a,,,,AAXX 18094 07190 12/00 52404 10250 20130 39960 40135 58011 60006 80002 90900=
07190,1996-06-18 12:00:00,28,1011.6,-1.7,32,10,500,14.816,,,260,,,,,,,,,,,wg-a,,,,AAXX 18124 07190 12700 /2608 10280 20100 39943 40116 58017 60006 81102 91200=
07190,1996-06-18 15:00:00,29,1010.3,-1.2,31,10,500,25.928,,,250,,,,,,,,,,,wg-a,,,,AAXX 18154 07190 32700 42514 10290 20100 39931 40103 56012 81282 91500=
07190,1996-06-18 18:00:00,27,1010,-0.4,34,10,40000,25.928,,,290,16.3,29.1,,,,,,,,,wg-a,,,,AAXX 18184 07190 32782 62914 10270 20100 39927 40100 55004 81282 91800 333 10291 20163=
07190,1996-06-18 21:00:00,22,1011.7,1.4,46,10,25000,18.52,,,310,,,,,,,,,,,wg-a,,,,AAXX 18214 07190 12/75 63110 10220 20100 39941 40117 52014 60006 82032 92100=
07190,1996-06-19 00:00:00,18,1012,0,64,11,25000,11.112,,,290,,,,,,,,,,,wg-a,,,,AAXX 19004 07190 12/75 42906 10180 20110 39941 40120 50000 60006 82032 90000=
07190,1996-06-19 03:00:00,15,1012.1,-0.1,72,10,10000,3.704,,,320,,,,,,,,,,,wg-a,,,,AAXX 19034 07190 12/60 13202 10150 20100 39940 40121 55001 60006 80001 90300=
07190,1996-06-19 09:00:00,19,1012.6,0.2,56,10,10000,14.816,,,330,,,,,,,,,,,wg-a,,,,AAXX 19094 07190 12/60 43308 10190 20100 39948 40126 50002 60006 82081 90900=
07190,1996-06-19 12:00:00,22,1011.9,-0.6,46,10,10000,22.224,,,20,,,,,,,,,,,wg-a,,,,AAXX 19124 07190 12660 /0212 10220 20100 39942 40119 56006 60006 81102 91200=
07190,1996-06-19 15:00:00,22,1011,-0.8,46,10,15000,22.224,,,320,,,,,,,,,,,wg-a,,,,AAXX 19154 07190 12765 /3212 10220 20100 39934 40110 56008 60006 81432 91500=
07190,1996-06-19 18:00:00,19,1011.4,0.3,49,8,18000,25.928,,,320,16.2,23.1,,,,,,,,,wg-a,,,,AAXX 19184 07190 12768 63214 10190 20080 39936 40114 53003 60006 81432 91800 333 10231 20162=
07190,1996-06-19 21:00:00,16,1013.5,1.8,55,7,18000,7.408,,,360,,,,,,,,,,,wg-a,,,,AAXX 19214 07190 12868 63604 10160 20070 39954 40135 53018 60006 83532 92100=
07190,1996-06-20 00:00:00,12,1012.6,-1,76,8,15000,7.408,,,290,,,,,,,,,,,wg-a,,,,AAXX 20004 07190 12/65 52904 10120 20080 39944 40126 58010 60006 82032 90000=
07190,1996-06-20 03:00:00,9,1010.9,-1.9,87,7,12000,7.408,,,210,,,,,,,,,,,wg-a,,,,AAXX 20034 07190 12/62 52104 10090 20070 39925 40109 58019 60006 82032 90300=
07190,1996-06-20 06:00:00,11,1010.1,-0.7,94,10,8000,0,,,0,8.9,19.5,,1,,,1,,,61,wg-a,,,,AAXX 20064 07190 02658 70000 10110 20100 39918 40101 55007 60014 76162 8352/ 90600 333 10195 20089 60017=
07190,1996-06-20 09:00:00,12,1009.2,-0.8,94,11,500,14.816,,,170,,,,6,,,,,,63,wg-a,,,,AAXX 20094 07190 12300 81708 10120 20110 39910 40092 58008 60067 76366 8552/ 90900=
07190,1996-06-20 12:00:00,15,1008.3,-0.7,82,12,7000,25.928,,,190,,,,2,,,,,,3,wg-a,,,,AAXX 20124 07190 02557 81914 10150 20120 39903 40083 56007 60086 70362 875// 91200 333 60027=
07190,1996-06-20 15:00:00,20,1006.8,-1.1,68,14,15000,22.224,,,200,,,,,,,,,,3,wg-a,,,,AAXX 20154 07190 02665 /2012 10200 20140 39892 40068 58011 61000 70362 86500 91500 333 ////=
07190,1996-06-20 18:00:00,19,1007.1,0.2,68,13,20000,11.112,,,300,11.3,20.2,,,,,,,,3,wg-a,,,,AAXX 20184 07190 32670 73006 10190 20130 39894 40071 53002 70362 87800 91800 333 10202 20113=
07190,1996-06-20 21:00:00,17,1008.5,1.2,77,13,15000,11.112,,,230,,,,0,,,,,,,wg-a,,,,AAXX 20214 07190 12665 /2306 10170 20130 39906 40085 51012 60007 86800 92100=
07190,1996-06-21 00:00:00,15,1008.6,0,88,13,15000,7.408,,,200,,,,,,,,,,,wg-a,,,,AAXX 21004 07190 12765 52004 10150 20130 39906 40086 50000 60006 855/0 90000=
07190,1996-06-21 03:00:00,13,1007.7,-1,94,12,15000,3.704,,,330,,,,,,,,,,,wg-a,,,,AAXX 21034 07190 12665 /3302 10130 20120 39896 40077 55010 60006 83801 90300=
07190,1996-06-21 06:00:00,16,1007.9,0.4,82,13,12000,14.816,,,360,12.4,19.3,,,,,9,,,,wg-a,,,,AAXX 21064 07190 02662 73608 10160 20130 39900 40079 53004 60006 84831 90600 333 10193 20124 60094=
07190,1996-06-21 12:00:00,15,1007.7,0,88,13,4500,18.52,,,40,,,,2,,,,,,60,wg-a,,,,AAXX 21124 07190 02545 70410 10150 20130 39897 40077 50000 60026 76086 8587/ 91200 333 60027=
07190,1996-06-21 18:00:00,12,1007.1,-0.6,94,11,500,11.112,,,20,,,,,,,,,,,wg-a,,,,AAXX 21184 07190 32500 80206 10120 20110 39885 40071 56006 8162/ 91800=
07190,1996-06-21 21:00:00,11,1008,0.8,94,10,4000,11.112,,,360,,,,5,,,,,,61,wg-a,,,,AAXX 21214 07190 12540 83606 10110 20100 39897 40080 51008 60057 76166 885// 92100=
07190,1996-06-22 00:00:00,10,1008.2,0.2,93,9,4000,11.112,,,340,,,,6,,,,,,10,wg-a,,,,AAXX 22004 07190 02340 83406 10100 20090 39899 40082 51002 60116 71066 875// 90000 333 60067=
07190,1996-06-22 03:00:00,10,1008.7,0.5,93,9,4000,7.408,,,360,,,,4,,,,,,10,wg-a,,,,AAXX 22034 07190 12740 83604 10100 20090 39904 40087 50005 60047 71062 875// 90300=
07190,1996-06-22 06:00:00,11,1011,2.3,82,8,9000,11.112,,,330,10,12.1,,,,,22,,,1,wg-a,,,,AAXX 22064 07190 12759 83306 10110 20080 39927 40110 53023 60224 70162 8557/ 90600 333 10121 20100=
07190,1996-06-22 09:00:00,12,1013.8,2.7,76,8,20000,18.52,,,320,,,,,,,,,,,wg-a,,,,AAXX 22094 07190 12470 73210 10120 20080 39955 40138 51027 60006 878// 90900=
07190,1996-06-22 12:00:00,15,1014.6,1,59,7,25000,18.52,,,310,,,,,,,,,,,wg-a,,,,AAXX 22124 07190 12575 73110 10150 20070 39965 40146 51010 60006 878// 91200=
07190,1996-06-22 15:00:00,17,1015.2,0.6,52,7,35000,11.112,,,270,,,,,,,,,,,wg-a,,,,AAXX 22154 07190 12681 52706 10170 20070 39972 40152 53006 60006 85800 91500=
07190,1996-06-22 18:00:00,14,1016.8,1.4,72,9,15000,14.816,,,290,10.5,16.7,,1,,,,,,15,wg-a,,,,AAXX 22184 07190 12565 72908 10140 20090 39986 40168 53014 60017 71586 878// 91800 333 10167 20105=
07190,1996-06-22 21:00:00,11,1018.8,1.8,94,10,15000,7.408,,,270,,,,4,,,,,,25,wg-a,,,,AAXX 22214 07190 12665 82704 10110 20100 30004 40188 53018 60047 72586 878// 92100=
07190,1996-06-23 00:00:00,11,1019.4,0.6,87,9,20000,11.112,,,300,,,,,,,,,,3,wg-a,,,,AAXX 23004 07190 12670 83006 10110 20090 30010 40194 51006 60046 70386 878// 90000=
07190,1996-06-23 03:00:00,10,1019.8,0.3,93,9,500,11.112,,,290,,,,1,,,,,,61,wg-a,,,,AAXX 23034 07190 12500 82906 10100 20090 30013 40198 52003 60017 76162 878// 90300=
07190,1996-06-23 06:00:00,11,1020.5,0.7,87,9,8000,14.816,,,320,10.3,14,,0,,,6,,,1,wg-a,,,,AAXX 23064 07190 02558 /3208 10110 20090 30020 40205 52007 60064 70162 86500 90600 333 10140 20103 60007=
07190,1996-06-23 09:00:00,14,1021.7,1.4,72,9,10000,11.112,,,340,,,,,,,,,,3,wg-a,,,,AAXX 23094 07190 02460 /3406 10140 20090 30034 40217 51014 61000 70362 84230 90900 333 ////=
07190,1996-06-23 12:00:00,15,1021.7,0.1,63,8,15000,7.408,,,60,,,,,,,,,,1,wg-a,,,,AAXX 23124 07190 02565 /0604 10150 20080 30035 40217 50001 61000 70186 83230 91200 333 6100=
07190,1996-06-23 15:00:00,15,1022,0.2,67,9,500,3.704,,,150,,,,3,,,,,,21,wg-a,,,,AAXX 23154 07190 12600 /1502 10150 20090 30037 40220 53002 60037 72186 86800 91500=
07190,1996-06-23 18:00:00,15,1021.9,-0,72,10,35000,7.408,,,280,10.8,16.2,,,,,,,,2,wg-a,,,,AAXX 23184 07190 32681 /2804 10150 20100 30037 40219 55000 70286 86800 91800 333 10162 20108=
07190,1996-06-23 21:00:00,12,1023.1,0.9,88,10,500,3.704,,,350,,,,,,,,,,,wg-a,,,,AAXX 23214 07190 12700 53502 10120 20100 30047 40231 53009 60006 845/2 92100=
07190,1996-06-24 00:00:00,12,1023.2,0,88,10,15000,3.704,,,310,,,,,,,,,,,wg-a,,,,AAXX 24004 07190 12765 43102 10120 20100 30047 40232 50000 60006 84502 90000=
07190,1996-06-24 03:00:00,10,1023.4,0.1,93,9,12000,3.704,,,350,,,,,,,,,,,wg-a,,,,AAXX 24034 07190 12762 53502 10100 20090 30048 40234 51001 60006 84502 90300=
07190,1996-06-24 06:00:00,12,1023.7,0.4,82,9,12000,3.704,,,330,9.1,15.2,,,,,3,,,,wg-a,,,,AAXX 24064 07190 02662 /3302 10120 20090 30052 40237 51004 60006 81802 90600 333 10152 20091 60034=
07190,1996-06-24 09:00:00,15,1023.7,0.2,67,9,10000,7.408,,,350,,,,,,,,,,,wg-a,,,,AAXX 24094 07190 12560 63504 10150 20090 30054 40237 52002 60006 8323/ 90900=
07190,1996-06-24 12:00:00,16,1023.1,-0.5,63,9,12000,11.112,,,350,,,,,,,,,,,wg-a,,,,AAXX 24124 07190 12662 73506 10160 20090 30049 40231 58005 60006 8323/ 91200=
07190,1996-06-24 15:00:00,17,1022.8,-0.3,55,8,15000,18.52,,,330,,,,,,,,,,,wg-a,,,,AAXX 24154 07190 12665 73310 10170 20080 30046 40228 55003 60006 878// 91500=
07190,1996-06-24 18:00:00,15,1023.4,0.5,59,7,15000,11.112,,,320,11.5,17.3,,,,,,,,,wg-a,,,,AAXX 24184 07190 12765 /3206 10150 20070 30051 40234 53005 60006 8357/ 91800 333 10173 20115=
07190,1996-06-24 21:00:00,13,1024.4,0.9,77,9,15000,7.408,,,340,,,,,,,,,,,wg-a,,,,AAXX 24214 07190 12665 73404 10130 20090 30060 40244 52009 60006 8657/ 92100=
07190,1996-06-25 00:00:00,10,1024.7,0,87,8,15000,3.704,,,340,,,,,,,,,,,wg-a,,,,AAXX 25004 07190 12665 43402 10100 20080 30060 40247 50000 60006 84500 90000=
07190,1996-06-25 03:00:00,8,1024.7,-0,93,7,15000,7.408,,,330,,,,,,,,,,,wg-a,,,,AAXX 25034 07190 12865 43304 10080 20070 30060 40247 55000 60006 84030 90300=
07190,1996-06-25 06:00:00,11,1025.1,0.5,87,9,9000,11.112,,,350,8,14.8,,,,,,,,,wg-a,,,,AAXX 25064 07190 02759 73506 10110 20090 30065 40251 53005 60006 875// 90600 333 10148 20080 60004=
07190,1996-06-25 09:00:00,15,1024.5,-0.3,72,10,10000,14.816,,,360,,,,,,,,,,,wg-a,,,,AAXX 25094 07190 12560 73608 10150 20100 30062 40245 58003 60006 878// 90900=
07190,1996-06-25 12:00:00,18,1023.3,-1,56,9,18000,22.224,,,340,,,,,,,,,,,wg-a,,,,AAXX 25124 07190 12668 /3412 10180 20090 30052 40233 57010 60006 86401 91200=
07190,1996-06-25 15:00:00,18,1022.3,-1,49,7,18000,14.816,,,30,,,,,,,,,,,wg-a,,,,AAXX 25154 07190 12668 50308 10180 20070 30042 40223 56010 60006 83101 91500=
07190,1996-06-25 18:00:00,17,1021.7,,55,8,20000,7.408,,,20,11.1,18.9,,,,,,,,,wg-a,,,,AAXX 25184 07190 32670 30204 10170 20080 30036 40217 81801 91800 333 10189 20111=
07190,1996-06-25 21:00:00,13,1022.8,0.8,77,9,20000,7.408,,,350,,,,,,,,,,,wg-a,,,,AAXX 25214 07190 12770 /3504 10130 20090 30044 40228 53008 60006 81401 92100=
07190,1996-06-26 00:00:00,10,1022.8,-0.2,87,8,15000,7.408,,,340,,,,,,,,,,,wg-a,,,,AAXX 26004 07190 12/65 03404 10100 20080 30042 40228 58002 60006 80000 90000=
07190,1996-06-26 06:00:00,11,1022.4,0.3,87,9,9000,7.408,,,330,7.9,17.1,,0,,,,,,,wg-a,,,,AAXX 26064 07190 02859 43304 10110 20090 30039 40224 53003 60004 84030 90600 333 10171 20079 60007=
07190,1996-06-26 09:00:00,15,1022.2,0,77,11,10000,7.408,,,360,,,,,,,,,,,wg-a,,,,AAXX 26094 07190 12560 43604 10150 20110 30039 40222 50000 60006 82230 90900=
07190,1996-06-26 12:00:00,19,1021.3,-0.6,56,10,15000,11.112,,,10,,,,,,,,,,,wg-a,,,,AAXX 26124 07190 12665 50106 10190 20100 30033 40213 57006 60006 83261 91200=
07190,1996-06-26 15:00:00,21,1020.9,-0.3,46,9,15000,7.408,,,320,,,,,,,,,,,wg-a,,,,AAXX 26154 07190 12665 53204 10210 20090 30030 40209 57003 60006 82461 91500=
07190,1996-06-26 18:00:00,20,1021.1,0.2,53,10,25000,7.408,,,310,11,21.3,,,,,,,,,wg-a,,,,AAXX 26184 07190 12675 33104 10200 20100 30032 40211 53002 60006 81231 91800 333 10213 20110=
07190,1996-06-26 21:00:00,15,1022.3,0.8,77,11,20000,7.408,,,230,,,,,,,,,,,wg-a,,,,AAXX 26214 07190 12/70 42304 10150 20110 30040 40223 51008 60006 80001 92100=
07190,1996-06-27 00:00:00,11,1022.8,0.3,87,9,15000,3.704,,,190,,,,,,,,,,,wg-a,,,,AAXX 27004 07190 12765 31902 10110 20090 30043 40228 50003 60006 815/1 90000=
07190,1996-06-27 03:00:00,10,1023,0.1,93,9,7000,3.704,,,210,,,,,,,,,,11,wg-a,,,,AAXX 27034 07190 12/57 32102 10100 20090 30044 40230 53001 60006 71100 80001 90300=
07190,1996-06-27 06:00:00,12,1023.7,0.9,88,10,8000,7.408,,,200,9.1,20.1,,,,,,,,,wg-a,,,,AAXX 27064 07190 02/58 32004 10120 20100 30052 40237 53009 60006 80001 90600 333 10201 20091 60004=
07190,1996-06-27 09:00:00,20,1023.6,0.3,60,12,10000,7.408,,,190,,,,,,,,,,,wg-a,,,,AAXX 27094 07190 12560 31904 10200 20120 30056 40236 51003 60006 81201 90900=
07190,1996-06-27 12:00:00,23,1022.7,-0.5,50,12,15000,3.704,,,200,,,,,,,,,,,wg-a,,,,AAXX 27124 07190 12665 62002 10230 20120 30050 40227 57005 60006 82232 91200=
07190,1996-06-27 15:00:00,25,1021.8,-0.9,44,12,20000,7.408,,,210,,,,,,,,,,,wg-a,,,,AAXX 27154 07190 12670 72104 10250 20120 30042 40218 57009 60006 8323/ 91500=
07190,1996-06-27 18:00:00,21,1022.5,0.5,60,13,12000,18.52,,,350,12.2,24.8,,,,,,,,,wg-a,,,,AAXX 27184 07190 12762 /3510 10210 20130 30047 40225 53005 60006 84431 91800 333 10248 20122=
07190,1996-06-27 21:00:00,18,1023,0.2,77,14,12000,3.704,,,20,,,,,,,,,,3,wg-a,,,,AAXX 27214 07190 02762 70202 10180 20140 30050 40230 53002 61000 70362 875// 92100 333 ////=
07190,1996-06-28 00:00:00,16,1022.7,-0.5,88,14,9000,3.704,,,280,,,,,,,,,,2,wg-a,,,,AAXX 28004 07190 02759 72802 10160 20140 30045 40227 58005 61000 70262 875// 90000 333 ////=
07190,1996-06-28 03:00:00,14,1022,-0.8,94,13,6000,0,,,0,,,,,,,,,,,wg-a,,,,AAXX 28034 07190 12756 /0000 10140 20130 30037 40220 56008 60006 82531 90300=
07190,1996-06-28 06:00:00,16,1021.9,-0,88,14,6000,7.408,,,200,13.4,21.4,,,,,,,,,wg-a,,,,AAXX 28064 07190 02/56 /2004 10160 20140 30037 40219 54000 61000 86030 90600 333 10214 20134 ////=
07190,1996-06-28 09:00:00,21,1020.9,-0.6,69,15,8000,11.112,,,140,,,,,,,,,,,wg-a,,,,AAXX 28094 07190 12558 31406 10210 20150 30031 40209 58006 60006 83800 90900=
07190,1996-06-28 12:00:00,25,1019.1,-1.6,54,15,12000,18.52,,,180,,,,,,,,,,,wg-a,,,,AAXX 28124 07190 12662 31810 10250 20150 30015 40191 58016 60006 82801 91200=
07190,1996-06-28 15:00:00,25,1017.2,-1.8,47,13,15000,14.816,,,210,,,,,,,,,,,wg-a,,,,AAXX 28154 07190 12665 32108 10250 20130 39997 40172 58018 60006 83800 91500=
07190,1996-06-28 18:00:00,24,1015.7,-1.5,54,14,20000,7.408,,,220,15.9,25.9,,,,,,,,,wg-a,,,,AAXX 28184 07190 12770 52204 10240 20140 39982 40157 56015 60006 85800 91800 333 10259 20159=
07190,1996-06-28 21:00:00,20,1015.9,-0,78,16,20000,7.408,,,300,,,,,,,,,,21,wg-a,,,,AAXX 28214 07190 02770 73004 10200 20160 39981 40159 55000 61000 72161 878// 92100 333 ////=
07190,1996-06-29 00:00:00,18,1014.9,-1.1,83,15,20000,7.408,,,180,,,,,,,,,,2,wg-a,,,,AAXX 29004 07190 02770 71804 10180 20150 39970 40149 58011 61000 70261 875// 90000 333 ////=
07190,1996-06-29 03:00:00,17,1013.2,-1.7,82,14,8000,11.112,,,210,,,,,,,,,,,wg-a,,,,AAXX 29034 07190 12758 72106 10170 20140 39953 40132 56017 60006 878// 90300=
07190,1996-06-29 06:00:00,19,1013.2,0.1,73,14,12000,7.408,,,200,16.6,24.6,,,,,,,,,wg-a,,,,AAXX 29064 07190 02762 32004 10190 20140 39954 40132 52001 61000 83800 90600 333 10246 20166 ////=
07190,1996-06-29 09:00:00,21,1012.8,-0.2,56,12,20000,35.188,,,250,,,,,,,,,,,wg-a,,,,AAXX 29094 07190 12670 52519 10210 20120 39951 40128 58002 60006 85800 90900=
07190,1996-06-29 12:00:00,22,1012,-0.7,60,14,25000,35.188,,,220,,,,0,,,,,,1,wg-a,,,,AAXX 29124 07190 02675 /2219 10220 20140 39944 40120 58007 60006 70186 86800 91200 333 60007=
07190,1996-06-29 15:00:00,17,1014.1,1.7,63,10,20000,31.484,,,300,,,,0,,,,,,3,wg-a,,,,AAXX 29154 07190 12670 73017 10170 20100 39961 40141 53017 60007 70386 878// 91500=
07190,1996-06-29 18:00:00,18,1014.6,0.6,59,10,20000,14.816,,,270,17,22.6,,,,,,,,1,wg-a,,,,AAXX 29184 07190 32670 /2708 10180 20100 39967 40146 51006 70186 85800 91800 333 10226 20170=
07190,1996-06-29 21:00:00,15,1017.9,3,59,7,20000,11.112,,,330,,,,,,,,,,,wg-a,,,,AAXX 29214 07190 12770 /3306 10150 20070 39997 40179 52030 60006 86500 92100=
07190,1996-06-30 00:00:00,13,1018.8,0.8,72,8,0,7.408,,,270,,,,,,,,,,,wg-a,,,,AAXX 30004 07190 12/// /2704 10130 20080 30005 40188 51008 60006 90000=
07190,1996-06-30 03:00:00,13,1018.4,-0.4,67,7,20000,14.816,,,240,,,,,,,,,,,wg-a,,,,AAXX 30034 07190 12770 72408 10130 20070 30001 40184 58004 60006 875// 90300=
07190,1996-06-30 06:00:00,13,1019,0.6,67,7,18000,14.816,,,250,12.4,18,,,,,1,,,,wg-a,,,,AAXX 30064 07190 02568 72508 10130 20070 30007 40190 53006 60006 878// 90600 333 10180 20124 60014=
07190,1996-06-30 09:00:00,15,1018.5,-0.4,63,8,18000,22.224,,,250,,,,,,,,,,,wg-a,,,,AAXX 30094 07190 12568 82512 10150 20080 30003 40185 58004 60006 878// 90900=
07190,1996-06-30 12:00:00,17,1017.6,-0.7,59,9,25000,18.52,,,210,,,,,,,,,,,wg-a,,,,AAXX 30124 07190 12675 72110 10170 20090 39996 40176 58007 60006 8683/ 91200=
07190,1996-06-30 15:00:00,19,1015.3,-2.2,52,9,35000,18.52,,,200,,,,,,,,,,,wg-a,,,,AAXX 30154 07190 12681 62010 10190 20090 39974 40153 56022 60006 84842 91500=
07190,1996-06-30 18:00:00,19,1013.9,-1.4,52,9,50000,18.52,,,260,13.4,20.3,,,,,,,,,wg-a,,,,AAXX 30184 07190 12684 72610 10190 20090 39960 40139 56014 60006 8687/ 91800 333 10203 20134=
07190,1996-06-30 21:00:00,14,1015.1,0.9,82,11,12000,14.816,,,240,,,,5,,,,,,60,wg-a,,,,AAXX 30214 07190 12562 82408 10140 20110 39969 40151 51009 60057 76086 8687/ 92100=
07190,1996-07-01 00:00:00,13,1013,-2.1,94,12,15000,18.52,,,190,,,,,,,,,,3,wg-a,,,,AAXX 01004 07190 02265 81910 10130 20120 39948 40130 58021 60056 70386 878// 90000 333 61000=
07190,1996-07-01 03:00:00,14,1010.9,-2,88,12,10000,14.816,,,180,,,,,,,,,,20,wg-a,,,,AAXX 01034 07190 02560 81808 10140 20120 39928 40109 56020 61000 72052 875// 90300 333 ////=
07190,1996-07-01 06:00:00,15,1009.9,-0.8,82,12,12000,14.816,,,190,13.2,18.5,,,,,5,,,3,wg-a,,,,AAXX 01064 07190 12562 71908 10150 20120 39919 40099 56008 60054 70352 878// 90600 333 10185 20132=
07190,1996-07-01 09:00:00,17,1009.8,-0.1,77,13,18000,22.224,,,210,,,,,,,,,,1,wg-a,,,,AAXX 01094 07190 02568 72112 10170 20130 39919 40098 56001 61000 70186 878// 90900 333 ////=
07190,1996-07-01 12:00:00,18,1009.3,-0.4,64,11,35000,18.52,,,230,,,,,,,,,,1,wg-a,,,,AAXX 01124 07190 02681 72310 10180 20110 39915 40093 58004 61000 70186 878// 91200 333 6100=
07190,1996-07-01 15:00:00,19,1008.7,-0.6,60,11,35000,22.224,,,220,,,,,,,,,,,wg-a,,,,AAXX 01154 07190 12681 72212 10190 20110 39909 40087 56006 60006 87802 91500=
07190,1996-07-01 18:00:00,19,1008.9,-0.2,56,10,40000,11.112,,,310,14.6,20,,,,,,,,,wg-a,,,,AAXX 01184 07190 32682 /3106 10190 20100 39907 40089 56002 85800 91800 333 10200 20146=
07190,1996-07-02 00:00:00,15,1009.8,-0.2,77,11,500,14.816,,,180,,,,,,,,,,,wg-a,,,,AAXX 02004 07190 12700 /1808 10150 20110 39918 40098 58002 60006 86500 90000=
07190,1996-07-02 03:00:00,13,1010.3,0.3,82,10,500,18.52,,,220,,,,1,,,,,,21,wg-a,,,,AAXX 02034 07190 12700 /2210 10130 20100 39921 40103 52003 60017 72122 85500 90300=
07190,1996-07-02 06:00:00,15,1011.3,1.1,72,10,35000,7.408,,,200,12.6,18.8,,,,,1,,,,wg-a,,,,AAXX 02064 07190 12581 52004 10150 20100 39932 40113 53011 60014 84801 90600 333 10188 20126=
07190,1996-07-02 09:00:00,17,1012.6,1.4,55,8,35000,18.52,,,240,,,,,,,,,,,wg-a,,,,AAXX 02094 07190 12581 72410 10170 20080 39946 40126 53014 60006 878// 90900=
07190,1996-07-02 12:00:00,18,1011.6,-0.9,49,7,50000,22.224,,,250,,,,,,,,,,,wg-a,,,,AAXX 02124 07190 12684 72512 10180 20070 39937 40116 56009 60006 86402 91200=
07190,1996-07-02 15:00:00,19,1011.3,-0.2,49,8,50000,14.816,,,280,,,,,,,,,,,wg-a,,,,AAXX 02154 07190 12684 72808 10190 20080 39935 40113 55002 60006 85402 91500=
07190,1996-07-02 18:00:00,18,1012.2,0.9,52,8,50000,14.816,,,240,14.5,20,,,,,,,,,wg-a,,,,AAXX 02184 07190 12784 /2408 10180 20080 39943 40122 53009 60006 82842 91800 333 10200 20145=
07190,1996-07-02 21:00:00,14,1014.2,1.6,72,9,45000,7.408,,,230,,,,,,,,,,,wg-a,,,,AAXX 02214 07190 12783 52304 10140 20090 39960 40142 53016 60006 835/2 92100=
07190,1996-07-03 00:00:00,11,1014.9,0.4,87,9,35000,7.408,,,230,,,,,,,,,,,wg-a,,,,AAXX 03004 07190 12781 32304 10110 20090 39965 40149 53004 60006 83500 90000=
07190,1996-07-03 03:00:00,10,1014.8,-0.1,93,9,25000,7.408,,,180,,,,,,,,,,,wg-a,,,,AAXX 03034 07190 12/75 21804 10100 20090 39964 40148 55001 60006 82030 90300=
07190,1996-07-03 06:00:00,12,1015,0.3,94,11,25000,11.112,,,170,9.2,17.9,,,,,,,,,wg-a,,,,AAXX 03064 07190 02/75 11706 10120 20110 39967 40150 51003 60006 80001 90600 333 10179 20092 60004=
07190,1996-07-03 09:00:00,19,1014.5,-0.1,60,11,500,22.224,,,170,,,,,,,,,,,wg-a,,,,AAXX 03094 07190 12500 21712 10190 20110 39966 40145 58001 60006 82201 90900=
07190,1996-07-03 12:00:00,22,1013,-1.3,43,9,45000,18.52,,,180,,,,,,,,,,,wg-a,,,,AAXX 03124 07190 12683 31810 10220 20090 39953 40130 56013 60006 82801 91200=
07190,1996-07-03 15:00:00,23,1011.4,-1.5,47,11,45000,22.224,,,190,,,,,,,,,,,wg-a,,,,AAXX 03154 07190 12783 /1912 10230 20110 39938 40114 58015 60006 81101 91500=
07190,1996-07-03 18:00:00,22,1011,-0.4,50,11,45000,11.112,,,200,12.4,23.6,,,,,,,,,wg-a,,,,AAXX 03184 07190 12783 62006 10220 20110 39934 40110 55004 60006 83444 91800 333 10236 20124=
07190,1996-07-03 21:00:00,18,1011.7,0.5,73,13,25000,7.408,,,180,,,,0,,,,,,60,wg-a,,,,AAXX 03214 07190 12675 71804 10180 20130 39939 40117 52005 60007 76062 8257/ 92100=
07190,1996-07-04 00:00:00,18,1011.4,-0.3,68,12,20000,11.112,,,180,,,,,,,,,,1,wg-a,,,,AAXX 04004 07190 02670 81806 10180 20120 39936 40114 57003 60006 70162 8457/ 90000 333 61000=
07190,1996-07-04 06:00:00,18,1011.6,0.2,83,15,18000,14.816,,,190,17.4,21.7,,,,,,,,60,wg-a,,,,AAXX 04064 07190 02668 71908 10180 20150 39938 40116 53002 60004 76062 8457/ 90600 333 10217 20174 61000=
07190,1996-07-04 09:00:00,22,1011.8,0.4,60,14,500,25.928,,,210,,,,,,,,,,1,wg-a,,,,AAXX 04094 07190 02600 62114 10220 20140 39942 40118 51004 61000 70162 83530 90900 333 ////=
07190,1996-07-04 12:00:00,24,1011.7,0,57,15,500,31.484,,61.116,220,,,,,,,,,,3,wg-a,,,,AAXX 04124 07190 02600 /2217 10240 20150 39942 40117 50000 61000 70386 86800 91200 333 6100 91033=
07190,1996-07-04 15:00:00,23,1012.1,0.3,61,15,500,31.484,,,220,,,,,,,,,,80,wg-a,,,,AAXX 04154 07190 02600 72217 10230 20150 39945 40121 53003 61000 78086 878// 91500 333 ////=
07190,1996-07-04 18:00:00,21,1013.2,1,78,17,20000,14.816,,,190,18.4,25.1,,0,,,,,,3,wg-a,,,,AAXX 04184 07190 12570 61908 10210 20170 39955 40132 51010 60007 70386 84831 91800 333 10251 20184=
07190,1996-07-04 21:00:00,20,1013.6,0.3,78,16,20000,11.112,,,180,,,,,,,,,,,wg-a,,,,AAXX 04214 07190 12570 61806 10200 20160 39958 40136 52003 60006 84831 92100=
07190,1996-07-05 00:00:00,18,1013.6,-0.1,88,16,25000,11.112,,,180,,,,,,,,,,,wg-a,,,,AAXX 05004 07190 12775 71806 10180 20160 39957 40136 58001 60006 8553/ 90000=
07190,1996-07-05 03:00:00,17,1012.3,-1.3,94,16,25000,3.704,,,230,,,,,,,,,,,wg-a,,,,AAXX 05034 07190 12775 72302 10170 20160 39944 40123 56013 60006 8657/ 90300=
07190,1996-07-05 06:00:00,18,1011.2,-1,94,17,500,11.112,,,210,16.4,21,,,,,,,,,wg-a,,,,AAXX 05064 07190 02600 72106 10180 20170 39934 40112 58010 60006 878// 90600 333 10210 20164 60004=
07190,1996-07-05 09:00:00,23,1008.6,-2.3,69,17,500,18.52,,,180,,,,,,,,,,,wg-a,,,,AAXX 05094 07190 12600 /1810 10230 20170 39911 40086 58023 60006 81202 90900=
07190,1996-07-05 12:00:00,22,1005.6,-3,73,17,20000,18.52,,,170,,,,,,,,,,25,wg-a,,,,AAXX 05124 07190 02670 71710 10220 20170 39881 40056 58030 61000 72586 8487/ 91200 333 6100=
07190,1996-07-05 15:00:00,17,1007.9,1.9,88,15,500,11.112,,,150,,,,14,,,,,,29,wg-a,,,,AAXX 05154 07190 12400 81506 10170 20150 39900 40079 53019 60147 72998 8587/ 91500=
07190,1996-07-05 18:00:00,18,1006.5,-1.3,88,16,20000,22.224,,,190,16.2,24,,,,,,,,1,wg-a,,,,AAXX 05184 07190 32570 /1912 10180 20160 39887 40065 58013 70198 83878 91800 333 10240 20162=
07190,1996-07-05 21:00:00,17,1007,0.5,82,14,20000,11.112,,,270,,,,,,,,,,,wg-a,,,,AAXX 05214 07190 12570 /2706 10170 20140 39892 40070 53005 60006 83872 92100=
07190,1996-07-06 00:00:00,15,1008.1,0.9,82,12,20000,14.816,,,260,,,,,,,,,,,wg-a,,,,AAXX 06004 07190 12670 72608 10150 20120 39901 40081 50009 60006 878// 90000=
07190,1996-07-06 03:00:00,14,1007.4,-0.7,82,11,15000,11.112,,,280,,,,,,,,,,,wg-a,,,,AAXX 06034 07190 12565 82806 10140 20110 39894 40074 56007 60006 878// 90300=
07190,1996-07-06 06:00:00,12,1008.8,1.2,94,11,8000,11.112,,,310,12.2,17.6,,3,,,17,,,61,wg-a,,,,AAXX 06064 07190 02558 83106 10120 20110 39906 40088 53012 60174 76162 878// 90600 333 10176 20122 60037=
07190,1996-07-06 09:00:00,14,1010.5,1.8,82,11,15000,7.408,,,230,,,,1,,,,,,1,wg-a,,,,AAXX 06094 07190 12565 72304 10140 20110 39924 40105 53018 60017 70162 878// 90900=
07190,1996-07-06 12:00:00,18,1010.7,0.4,56,9,40000,18.52,,,260,,,,,,,,,,3,wg-a,,,,AAXX 06124 07190 12582 52610 10180 20090 39928 40107 51004 60016 70362 85800 91200=
07190,1996-07-06 15:00:00,20,1010.2,-0.3,43,7,40000,18.52,,44.448,240,,,,,,,,,,,wg-a,,,,AAXX 06154 07190 12682 52410 10200 20070 39925 40102 55003 60006 82802 91500 333 91024=
07190,1996-07-06 18:00:00,19,1010.4,0.1,46,7,50000,14.816,,,260,12.1,20.4,,,,,,,,,wg-a,,,,AAXX 06184 07190 32684 /2608 10190 20070 39926 40104 53001 81802 91800 333 10204 20121=
07190,1996-07-06 21:00:00,14,1011.4,0.7,72,9,25000,7.408,,,250,,,,,,,,,,,wg-a,,,,AAXX 06214 07190 12775 /2504 10140 20090 39933 40114 51007 60006 81402 92100=
07190,1996-07-07 00:00:00,12,1011,-0.5,88,10,20000,3.704,,,130,,,,,,,,,,,wg-a,,,,AAXX 07004 07190 12770 /1302 10120 20100 39928 40110 56005 60006 81102 90000=
07190,1996-07-07 03:00:00,12,1009.8,-1.2,94,11,20000,0,,,0,,,,,,,,,,,wg-a,,,,AAXX 07034 07190 12/70 70000 10120 20110 39916 40098 58012 60006 83032 90300=
07190,1996-07-07 06:00:00,13,1009.3,-0.5,88,11,40000,3.704,,,350,11.8,18.7,,,,,1,,,,wg-a,,,,AAXX 07064 07190 02782 83502 10130 20110 39911 40093 55005 60006 8157/ 90600 333 10187 20118 60014=
07190,1996-07-07 09:00:00,17,1007.3,-1.6,68,11,40000,11.112,,,30,,,,,,,,,,,wg-a,,,,AAXX 07094 07190 12582 70306 10170 20110 39895 40073 57016 60006 81232 90900=
07190,1996-07-07 12:00:00,18,1005.6,-1.6,64,11,40000,14.816,,,30,,,,,,,,,,,wg-a,,,,AAXX 07124 07190 12682 80308 10180 20110 39879 40056 56016 60006 8227/ 91200=
07190,1996-07-07 15:00:00,16,1005,-0.8,82,13,8000,7.408,,,10,,,,2,,,,,,61,wg-a,,,,AAXX 07154 07190 12458 80104 10160 20130 39871 40050 56008 60027 76162 8687/ 91500=
07190,1996-07-07 18:00:00,14,1005,-0.1,94,13,6000,14.816,,,50,12.5,18.7,,10,,,,,,61,wg-a,,,,AAXX 07184 07190 12456 80508 10140 20130 39870 40050 58001 60107 76162 8587/ 91800 333 10187 20125=
07190,1996-07-07 21:00:00,12,1004.7,-0.4,100,12,7000,18.52,,,10,,,,1,,,,,,60,wg-a,,,,AAXX 07214 07190 12457 80110 10120 20120 39866 40047 56004 60017 76066 885// 92100=
07190,1996-07-08 00:00:00,12,1004.8,0.2,94,11,6000,14.816,,,340,,,,5,,,,,,61,wg-a,,,,AAXX 08004 07190 02456 83408 10120 20110 39867 40048 53002 60066 76162 885// 90000 333 60057=
07190,1996-07-08 03:00:00,11,1005,0.1,94,10,6000,18.52,,,330,,,,5,,,,,,61,wg-a,,,,AAXX 08034 07190 12356 83310 10110 20100 39868 40050 53001 60057 76162 885// 90300=
07190,1996-07-08 06:00:00,12,1007.7,2.6,94,11,8000,22.224,,,310,11.2,13.8,,5,,,28,,,61,wg-a,,,,AAXX 08064 07190 02658 83112 10120 20110 39895 40077 53026 60284 76162 8352/ 90600 333 10138 20112 60057=
07190,1996-07-08 09:00:00,13,1011.2,3.4,88,11,500,18.52,,,310,,,,3,,,,,,61,wg-a,,,,AAXX 08094 07190 12400 83110 10130 20110 39930 40112 51034 60037 76166 878// 90900=
07190,1996-07-08 12:00:00,17,1013.6,2.6,59,9,15000,25.928,,,320,,,,,,,,,,1,wg-a,,,,AAXX 08124 07190 02665 83214 10170 20090 39956 40136 53026 60036 70162 8381/ 91200 333 61000=
07190,1996-07-08 15:00:00,18,1016,2.4,56,9,20000,25.928,,,290,,,,,,,,,,,wg-a,,,,AAXX 08154 07190 12670 82914 10180 20090 39980 40160 51024 60006 84807 91500=
07190,1996-07-08 18:00:00,17,1018.4,2.3,55,8,500,18.52,,,300,11.7,18.1,,,,,,,,1,wg-a,,,,AAXX 08184 07190 02600 63010 10170 20080 30003 40184 52023 61000 70186 83832 91800 333 10181 20117 ////=
07190,1996-07-08 21:00:00,11,1020.8,2,87,9,500,11.112,,,210,,,,,,,,,,,wg-a,,,,AAXX 08214 07190 12800 42106 10110 20090 30023 40208 53020 60006 815/1 92100=
07190,1996-07-09 00:00:00,10,1022.9,2,76,6,25000,7.408,,,300,,,,,,,,,,,wg-a,,,,AAXX 09004 07190 12/75 /3004 10100 20060 30043 40229 51020 60006 80001 90000=
07190,1996-07-09 03:00:00,7,1024.3,1.2,87,5,20000,7.408,,,200,,,,,,,,,,,wg-a,,,,AAXX 09034 07190 12770 42004 10070 20050 30055 40243 51012 60006 825/1 90300=
07190,1996-07-09 06:00:00,10,1025.2,1,87,8,20000,3.704,,,180,6.7,17,,,,,3,,,,wg-a,,,,AAXX 09064 07190 02670 /1802 10100 20080 30065 40252 51010 60006 86500 90600 333 10170 20067 60034=
07190,1996-07-09 09:00:00,14,1024.9,0,82,11,25000,11.112,,,160,,,,0,,,,,,1,wg-a,,,,AAXX 09094 07190 12575 /1606 10140 20110 30065 40249 50000 60007 70186 86800 90900=
07190,1996-07-09 12:00:00,17,1023.8,-0.8,68,11,18000,14.816,,,240,,,,0,,,,,,1,wg-a,,,,AAXX 09124 07190 02668 /2408 10170 20110 30057 40238 57008 60016 70186 84802 91200 333 60007=
07190,1996-07-09 15:00:00,19,1023.3,-0.4,52,9,500,14.816,,,280,,,,,,,,,,,wg-a,,,,AAXX 09154 07190 12600 72808 10190 20090 30053 40233 55004 60006 8383/ 91500=
07190,1996-07-09 18:00:00,17,1023.3,-0.1,63,10,500,7.408,,,210,9.7,20,,,,,,,,,wg-a,,,,AAXX 09184 07190 32700 82104 10170 20100 30052 40233 55001 8357/ 91800 333 10200 20097=
07190,1996-07-09 21:00:00,15,1023.6,0.1,77,11,20000,7.408,,,220,,,,,,,,,,,wg-a,,,,AAXX 09214 07190 12670 82204 10150 20110 30053 40236 53001 60006 8487/ 92100=
07190,1996-07-10 00:00:00,14,1023.1,-0.5,88,12,15000,7.408,,,220,,,,,,,,,,3,wg-a,,,,AAXX 10004 07190 02665 82204 10140 20120 30048 40231 56005 61000 70362 8687/ 90000 333 6100=
07190,1996-07-10 03:00:00,13,1021.4,-1.7,94,12,10000,11.112,,,200,,,,,,,,,,,wg-a,,,,AAXX 10034 07190 12460 82006 10130 20120 30031 40214 56017 60006 878// 90300=
07190,1996-07-10 06:00:00,14,1021.2,-0.2,94,13,8000,11.112,,,180,13.1,17.2,,1,,,2,,,61,wg-a,,,,AAXX 10064 07190 02458 81806 10140 20130 30029 40212 56002 60024 76165 888// 90600 333 10172 20131 60017=
07190,1996-07-10 09:00:00,15,1021.5,0.4,94,14,18000,7.408,,,220,,,,1,,,,,,21,wg-a,,,,AAXX 10094 07190 12468 82204 10150 20140 30033 40215 53004 60017 72165 888// 90900=
07190,1996-07-10 12:00:00,17,1021.5,0.1,88,15,15000,7.408,,,260,,,,1,,,,,,21,wg-a,,,,AAXX 10124 07190 02465 82604 10170 20150 30034 40215 50001 60026 72165 8587/ 91200 333 60017=
07190,1996-07-10 15:00:00,17,1021.7,0.3,77,13,11000,11.112,,,290,,,,1,,,,,,25,wg-a,,,,AAXX 10154 07190 12561 72906 10170 20130 30036 40217 53003 60017 72586 8583/ 91500=
07190,1996-07-10 18:00:00,18,1022,0.4,73,13,18000,11.112,,,320,13.6,19.3,,,,,,,,1,wg-a,,,,AAXX 10184 07190 32568 53206 10180 20130 30040 40220 53004 70186 84831 91800 333 10193 20136=
07190,1996-07-10 21:00:00,15,1023.6,1.3,82,12,18000,7.408,,,310,,,,,,,,,,,wg-a,,,,AAXX 10214 07190 12668 43104 10150 20120 30053 40236 51013 60006 84431 92100=
07190,1996-07-11 00:00:00,13,1024,0.3,94,12,18000,7.408,,,280,,,,,,,,,,,wg-a,,,,AAXX 11004 07190 12568 72804 10130 20120 30056 40240 52003 60006 878// 90000=
07190,1996-07-11 03:00:00,14,1024.1,0.1,88,12,18000,0,,,0,,,,,,,,,,,wg-a,,,,AAXX 11034 07190 12568 70000 10140 20120 30057 40241 53001 60006 878// 90300=
07190,1996-07-11 06:00:00,14,1024.5,0.5,88,12,11000,3.704,,,350,12.4,18.2,,,,,3,,,,wg-a,,,,AAXX 11064 07190 02/61 /3502 10140 20120 30062 40245 53005 60006 90600 333 10182 20124 60034=
07190,1996-07-11 09:00:00,18,1023.9,-0.4,77,14,10000,3.704,,,300,,,,,,,,,,,wg-a,,,,AAXX 11094 07190 12560 33002 10180 20140 30058 40239 58004 60006 82801 90900=
07190,1996-07-11 12:00:00,21,1022.8,-0.9,53,11,15000,7.408,,,330,,,,,,,,,,,wg-a,,,,AAXX 11124 07190 12565 53304 10210 20110 30049 40228 58009 60006 82231 91200=
07190,1996-07-11 15:00:00,23,1021.1,-1.5,44,10,25000,0,,,0,,,,,,,,,,,wg-a,,,,AAXX 11154 07190 12575 30000 10230 20100 30034 40211 58015 60006 81231 91500=
07190,1996-07-11 18:00:00,23,1020.6,-0.5,53,13,500,3.704,,,330,14.5,23.3,,,,,,,,,wg-a,,,,AAXX 11184 07190 12/00 33302 10230 20130 30029 40206 56005 60006 81031 91800 333 10233 20145=
07190,1996-07-11 21:00:00,17,1021.4,0.5,82,14,500,3.704,,,260,,,,,,,,,,,wg-a,,,,AAXX 11214 07190 12/00 32602 10170 20140 30033 40214 52005 60006 81031 92100=
07190,1996-07-12 00:00:00,14,1021.1,-0.5,94,13,20000,3.704,,,200,,,,,,,,,,,wg-a,,,,AAXX 12004 07190 12770 42002 10140 20130 30029 40211 58005 60006 83501 90000=
07190,1996-07-12 03:00:00,14,1020,-1.1,94,13,15000,3.704,,,170,,,,,,,,,,,wg-a,,,,AAXX 12034 07190 12/65 41702 10140 20130 30017 40200 56011 60006 84031 90300=
07190,1996-07-12 06:00:00,15,1019.8,-0.2,88,13,15000,7.408,,,200,13.5,22.7,,,,,,,,,wg-a,,,,AAXX 12064 07190 02765 72004 10150 20130 30016 40198 55002 60006 8257/ 90600 333 10227 20135 60004=
07190,1996-07-12 09:00:00,21,1019.7,0.3,64,14,15000,7.408,,,170,,,,,,,,,,,wg-a,,,,AAXX 12094 07190 12665 21704 10210 20140 30019 40197 51003 60006 81230 90900=
07190,1996-07-12 12:00:00,24,1018.3,-1.2,57,15,15000,7.408,,,330,,,,,,,,,,,wg-a,,,,AAXX 12124 07190 12665 63304 10240 20150 30007 40183 58012 60006 84230 91200=
07190,1996-07-12 15:00:00,24,1017.6,-0.7,61,16,18000,11.112,,,320,,,,,,,,,,,wg-a,,,,AAXX 12154 07190 12668 /3206 10240 20160 30000 40176 56007 60006 82233 91500=
07190,1996-07-12 18:00:00,25,1017.4,-0.1,57,16,20000,0,,,0,14.8,25.1,,,,,,,,,wg-a,,,,AAXX 12184 07190 12770 50000 10250 20160 39999 40174 55001 60006 82231 91800 333 10251 20148=
07190,1996-07-12 21:00:00,19,1019,1.2,88,17,15000,7.408,,,250,,,,,,,,,,,wg-a,,,,AAXX 12214 07190 12765 52504 10190 20170 30011 40190 53012 60006 81531 92100=
07190,1996-07-13 00:00:00,17,1019.6,0.4,88,15,20000,7.408,,,190,,,,,,,,,,,wg-a,,,,AAXX 13004 07190 12770 11904 10170 20150 30015 40196 51004 60006 81530 90000=
07190,1996-07-13 03:00:00,15,1020.2,0.5,94,14,8000,3.704,,,160,,,,,,,,,,,wg-a,,,,AAXX 13034 07190 12758 /1602 10150 20140 30020 40202 53005 60006 81500 90300=
07190,1996-07-13 06:00:00,17,1021,0.9,88,15,9000,0,,,0,14.2,24.7,,,,,,,,,wg-a,,,,AAXX 13064 07190 02759 /0000 10170 20150 30029 40210 53009 60006 81500 90600 333 10247 20142 60004=
07190,1996-07-13 09:00:00,22,1021.7,1.1,73,17,12000,3.704,,,10,,,,,,,,,,,wg-a,,,,AAXX 13094 07190 12662 30102 10220 20170 30040 40217 51011 60006 81104 90900=
07190,1996-07-13 12:00:00,25,1021.2,-0.4,57,16,15000,7.408,,,200,,,,,,,,,,,wg-a,,,,AAXX 13124 07190 12665 /2004 10250 20160 30036 40212 56004 60006 82101 91200=
07190,1996-07-13 15:00:00,26,1021,-0.1,58,17,15000,11.112,,,340,,,,,,,,,,,wg-a,,,,AAXX 13154 07190 12665 63406 10260 20170 30035 40210 58001 60006 85801 91500=
07190,1996-07-13 18:00:00,25,1021.7,0.6,57,16,15000,7.408,,,340,16.6,26.8,,,,,,,,,wg-a,,,,AAXX 13184 07190 12765 43404 10250 20160 30041 40217 53006 60006 81831 91800 333 10268 20166=
07190,1996-07-13 21:00:00,20,1024.1,2,73,15,15000,7.408,,,330,,,,,,,,,,,wg-a,,,,AAXX 13214 07190 12665 43304 10200 20150 30061 40241 53020 60006 82131 92100=
07190,1996-07-14 00:00:00,16,1025.1,0.8,94,15,15000,0,,,0,,,,,,,,,,,wg-a,,,,AAXX 14004 07190 12665 30000 10160 20150 30069 40251 51008 60006 83501 90000=
07190,1996-07-14 03:00:00,14,1025.5,0.3,94,13,12000,7.408,,,210,,,,,,,,,,,wg-a,,,,AAXX 14034 07190 12762 12104 10140 20130 30072 40255 51003 60006 81501 90300=
07190,1996-07-14 06:00:00,17,1026.4,1,88,15,15000,0,,,0,13.7,25,,,,,,,,,wg-a,,,,AAXX 14064 07190 02/65 10000 10170 20150 30082 40264 51010 60006 80001 90600 333 10250 20137 60004=
07190,1996-07-14 09:00:00,24,1026.5,0.5,61,16,20000,3.704,,,340,,,,,,,,,,,wg-a,,,,AAXX 14094 07190 12570 /3402 10240 20160 30087 40265 51005 60006 81200 90900=
07190,1996-07-14 12:00:00,26,1025.5,-0.8,51,15,500,7.408,,,330,,,,,,,,,,,wg-a,,,,AAXX 14124 07190 12600 /3304 10260 20150 30079 40255 58008 60006 81200 91200=
07190,1996-07-14 15:00:00,27,1024.1,-1.3,51,16,500,11.112,,,10,,,,,,,,,,,wg-a,,,,AAXX 14154 07190 12700 /0106 10270 20160 30066 40241 56013 60006 81401 91500=
07190,1996-07-14 18:00:00,27,1023.4,-0.7,51,16,40000,3.704,,,20,16.7,27.7,,,,,,,,,wg-a,,,,AAXX 14184 07190 12782 10202 10270 20160 30059 40234 56007 60006 81401 91800 333 10277 20167=
07190,1996-07-14 21:00:00,21,1024.1,0.3,78,17,40000,7.408,,,250,,,,,,,,,,,wg-a,,,,AAXX 14214 07190 12/82 12504 10210 20170 30062 40241 53003 60006 80001 92100=
07190,1996-07-15 00:00:00,17,1024.5,0.2,88,15,500,3.704,,,300,,,,,,,,,,,wg-a,,,,AAXX 15004 07190 12/00 13002 10170 20150 30064 40245 52002 60006 80001 90000=
07190,1996-07-15 03:00:00,16,1024.3,-0.3,94,15,15000,3.704,,,360,,,,,,,,,,,wg-a,,,,AAXX 15034 07190 12/65 03602 10160 20150 30061 40243 55003 60006 80000 90300=
07190,1996-07-15 06:00:00,20,1024.4,0.2,78,16,12000,7.408,,,350,15.9,27,,,,,,,,,wg-a,,,,AAXX 15064 07190 02/62 03504 10200 20160 30064 40244 53002 60006 80000 90600 333 10270 20159 60004=
07190,1996-07-15 09:00:00,23,1023.8,-0.2,73,18,12000,11.112,,,20,,,,,,,,,,,wg-a,,,,AAXX 15094 07190 12/62 00206 10230 20180 30061 40238 58002 60006 80000 90900=
07190,1996-07-15 12:00:00,28,1022.3,-1.2,55,18,15000,14.816,,,20,,,,,,,,,,,wg-a,,,,AAXX 15124 07190 12665 /0208 10280 20180 30049 40223 58012 60006 81200 91200=
07190,1996-07-15 15:00:00,29,1021.6,-0.9,48,17,18000,14.816,,,20,,,,,,,,,,,wg-a,,,,AAXX 15154 07190 12668 /0208 10290 20170 30042 40216 57009 60006 81200 91500=
07190,1996-07-15 18:00:00,26,1021.5,-0.1,58,17,15000,18.52,,,30,19.5,28.8,,,,,,,,,wg-a,,,,AAXX 15184 07190 12665 /0310 10260 20170 30040 40215 55001 60006 81100 91800 333 10288 20195=
07190,1996-07-15 21:00:00,23,1023.5,1.7,61,15,15000,22.224,,,30,,,,,,,,,,,wg-a,,,,AAXX 15214 07190 12765 /0312 10230 20150 30057 40235 53017 60006 85500 92100=
07190,1996-07-16 00:00:00,19,1024.6,0.9,64,12,15000,22.224,,,20,,,,,,,,,,,wg-a,,,,AAXX 16004 07190 12765 40212 10190 20120 30066 40246 51009 60006 83530 90000=
07190,1996-07-16 03:00:00,16,1025.1,0.3,68,10,12000,14.816,,,10,,,,,,,,,,,wg-a,,,,AAXX 16034 07190 12662 /0108 10160 20100 30069 40251 51003 60006 86500 90300=
07190,1996-07-16 06:00:00,15,1026.2,1,72,10,20000,18.52,,,20,14.9,25.9,,,,,,,,,wg-a,,,,AAXX 16064 07190 02670 70210 10150 20100 30079 40262 51010 60006 875// 90600 333 10259 20149 60004=
07190,1996-07-16 09:00:00,19,1026.3,0.3,60,11,25000,25.928,,,20,,,,,,,,,,,wg-a,,,,AAXX 16094 07190 12675 /0214 10190 20110 30082 40263 50003 60006 81100 90900=
07190,1996-07-16 12:00:00,22,1026.2,0.1,46,10,25000,25.928,,,30,,,,,,,,,,,wg-a,,,,AAXX 16124 07190 12675 20314 10220 20100 30083 40262 50001 60006 81101 91200=
07190,1996-07-16 15:00:00,22,1025.3,-0.9,46,10,25000,25.928,,,20,,,,,,,,,,,wg-a,,,,AAXX 16154 07190 12775 20214 10220 20100 30074 40253 58009 60006 81401 91500=
07190,1996-07-16 18:00:00,20,1024.9,-0.6,53,10,500,18.52,,,20,15.1,22.8,,,,,,,,,wg-a,,,,AAXX 16184 07190 12/00 10210 10200 20100 30069 40249 56006 60006 80001 91800 333 10228 20151=
07190,1996-07-16 21:00:00,16,1026,0.9,59,8,500,18.52,,,30,,,,,,,,,,,wg-a,,,,AAXX 16214 07190 12/00 10310 10160 20080 30078 40260 52009 60006 80001 92100=
07190,1996-07-17 00:00:00,13,1026.3,0,77,9,25000,11.112,,,350,,,,,,,,,,,wg-a,,,,AAXX 17004 07190 12/75 13506 10130 20090 30078 40263 50000 60006 80001 90000=
07190,1996-07-17 03:00:00,10,1025.9,-0.5,87,8,25000,11.112,,,350,,,,,,,,,,,wg-a,,,,AAXX 17034 07190 12/75 23506 10100 20080 30073 40259 58005 60006 80001 90300=
07190,1996-07-17 06:00:00,12,1025.6,-0.2,82,9,35000,14.816,,,360,9.7,20.3,,,,,,,,,wg-a,,,,AAXX 17064 07190 02/81 53608 10120 20090 30071 40256 55002 60006 81034 90600 333 10203 20097 60004=
07190,1996-07-17 09:00:00,17,1024.7,-0.5,63,10,35000,18.52,,,20,,,,,,,,,,,wg-a,,,,AAXX 17094 07190 12/81 50210 10170 20100 30066 40247 58005 60006 80002 90900=
07190,1996-07-17 12:00:00,22,1023.4,-1.1,43,9,45000,22.224,,,30,,,,,,,,,,,wg-a,,,,AAXX 17124 07190 12/83 10312 10220 20090 30055 40234 58011 60006 80002 91200=
07190,1996-07-17 18:00:00,22,1021.5,-0.6,46,10,45000,22.224,,,20,12.4,23.7,,,,,,,,,wg-a,,,,AAXX 17184 07190 12/83 20212 10220 20100 30037 40215 57006 60006 80002 91800 333 10237 20124=
07190,1996-07-17 21:00:00,16,1022.8,0.9,63,9,40000,7.408,,,350,,,,,,,,,,,wg-a,,,,AAXX 17214 07190 12/82 13504 10160 20090 30046 40228 53009 60006 80001 92100=
07190,1996-07-18 00:00:00,13,1023.1,0.1,72,8,40000,11.112,,,350,,,,,,,,,,,wg-a,,,,AAXX 18004 07190 12/82 03506 10130 20080 30047 40231 53001 60006 80000 90000=
07190,1996-07-18 03:00:00,11,1023.4,0.1,82,8,40000,7.408,,,330,,,,,,,,,,,wg-a,,,,AAXX 18034 07190 12/82 13304 10110 20080 30048 40234 50001 60006 80001 90300=
07190,1996-07-18 06:00:00,14,1023.6,0.5,77,10,500,11.112,,,340,10.2,22.3,,,,,,,,,wg-a,,,,AAXX 18064 07190 02/00 13406 10140 20100 30053 40236 52005 60006 80001 90600 333 10223 20102 60004=
07190,1996-07-18 09:00:00,19,1023.3,-0.1,52,9,35000,18.52,,,20,,,,,,,,,,,wg-a,,,,AAXX 18094 07190 12681 10210 10190 20090 30053 40233 58001 60006 81100 90900=
07190,1996-07-18 12:00:00,22,1022.3,-0.8,41,8,40000,11.112,,,360,,,,,,,,,,,wg-a,,,,AAXX 18124 07190 12782 /3606 10220 20080 30045 40223 57008 60006 81100 91200=
07190,1996-07-18 15:00:00,24,1021.1,-1.1,36,8,50000,11.112,,,340,,,,,,,,,,,wg-a,,,,AAXX 18154 07190 12784 13406 10240 20080 30034 40211 58011 60006 81200 91500=
07190,1996-07-18 18:00:00,23,1020.9,-0.2,41,9,50000,11.112,,,50,14.2,24.5,,,,,,,,,wg-a,,,,AAXX 18184 07190 12784 10506 10230 20090 30032 40209 56002 60006 81100 91800 333 10245 20142=
07190,1996-07-18 21:00:00,17,1022.8,1.5,59,9,10000,7.408,,,10,,,,,,,,,,,wg-a,,,,AAXX 18214 07190 12/60 /0104 10170 20090 30047 40228 53015 60006 92100=
07190,1996-07-19 00:00:00,14,1024.1,1.1,77,10,500,14.816,,,10,,,,,,,,,,,wg-a,,,,AAXX 19004 07190 12/00 00108 10140 20100 30058 40241 51011 60006 80000 90000=
07190,1996-07-19 03:00:00,11,1024.7,0.3,87,9,500,11.112,,,330,,,,,,,,,,,wg-a,,,,AAXX 19034 07190 12/00 03306 10110 20090 30061 40247 52003 60006 80000 90300=
07190,1996-07-19 06:00:00,14,1024.9,0.4,77,10,500,14.816,,,350,10.8,23.3,,,,,,,,,wg-a,,,,AAXX 19064 07190 02/00 23508 10140 20100 30065 40249 52004 60006 80001 90600 333 10233 20108 60004=
07190,1996-07-19 09:00:00,18,1024.7,0.1,59,10,500,14.816,,,360,,,,,,,,,,,wg-a,,,,AAXX 19094 07190 12/00 23608 10180 20100 30066 40247 53001 60006 80001 90900=
07190,1996-07-19 11:00:00,22,1,-0.7,50,11,35000,14.816,,,40,,,,,,,,,,,wg-a,,,,AAXX 19114 07190 12/81 /0408 10220 20110 30057 58007 60006 91100=
07190,1996-07-19 12:00:00,22,1023.5,-0.7,50,11,35000,14.816,,,40,,,,,,,,,,,wg-a,,,,AAXX 19124 07190 12681 30408 10220 20110 30057 40235 58007 60006 81201 91200=
07190,1996-07-19 15:00:00,23,1022.8,-0.7,41,9,35000,18.52,,,30,,,,,,,,,,,wg-a,,,,AAXX 19154 07190 12781 /0310 10230 20090 30050 40228 58007 60006 81201 91500=
07190,1996-07-19 18:00:00,22,1022.8,-0.1,43,9,40000,18.52,,,20,13.8,23.3,,,,,,,,,wg-a,,,,AAXX 19184 07190 12782 50210 10220 20090 30049 40228 55001 60006 81201 91800 333 10233 20138=
07190,1996-07-19 21:00:00,17,1023.9,0.8,55,8,25000,11.112,,,30,,,,,,,,,,,wg-a,,,,AAXX 19214 07190 12775 40306 10170 20080 30057 40239 52008 60006 81431 92100=
07190,1996-07-20 00:00:00,12,1024.2,0,82,9,25000,7.408,,,330,,,,,,,,,,,wg-a,,,,AAXX 20004 07190 12/75 03304 10120 20090 30057 40242 50000 60006 80000 90000=
07190,1996-07-20 03:00:00,11,1024.2,-0.1,82,8,500,7.408,,,340,,,,,,,,,,,wg-a,,,,AAXX 20034 07190 12/00 13404 10110 20080 30056 40242 56001 60006 80001 90300=
07190,1996-07-20 06:00:00,13,1024.7,0.7,77,9,50000,11.112,,,350,9.9,21.6,,,,,,,,,wg-a,,,,AAXX 20064 07190 02/84 23506 10130 20090 30063 40247 53007 60006 80001 90600 333 10216 20099 60004=
07190,1996-07-20 09:00:00,20,1024.5,0.2,49,9,50000,14.816,,,20,,,,,,,,,,,wg-a,,,,AAXX 20094 07190 12684 /0208 10200 20090 30065 40245 51002 60006 81100 90900=
07190,1996-07-20 12:00:00,22,1024,-0.4,35,6,50000,22.224,,,40,,,,,,,,,,,wg-a,,,,AAXX 20124 07190 12784 /0412 10220 20060 30061 40240 58004 60006 81100 91200=
07190,1996-07-20 15:00:00,23,1023.2,-0.7,33,6,50000,22.224,,,20,,,,,,,,,,,wg-a,,,,AAXX 20154 07190 12784 10212 10230 20060 30054 40232 56007 60006 81100 91500=
07190,1996-07-20 18:00:00,21,1023.5,0.2,38,6,50000,18.52,,,30,13.4,23.4,,,,,,,,,wg-a,,,,AAXX 20184 07190 12/84 10310 10210 20060 30056 40235 53002 60006 80001 91800 333 10234 20134=
07190,1996-07-20 21:00:00,16,1024.5,0.7,55,7,50000,7.408,,,20,,,,,,,,,,,wg-a,,,,AAXX 20214 07190 12/84 10204 10160 20070 30063 40245 51007 60006 80001 92100=
07190,1996-07-21 00:00:00,12,1024.9,0.1,71,7,10000,7.408,,,300,,,,,,,,,,,wg-a,,,,AAXX 21004 07190 12/60 /3004 10120 20070 30064 40249 53001 60006 90000=
07190,1996-07-21 03:00:00,10,1024.6,-0.5,82,7,500,3.704,,,310,,,,,,,,,,,wg-a,,,,AAXX 21034 07190 12/00 23102 10100 20070 30059 40246 56005 60006 80001 90300=
07190,1996-07-21 06:00:00,13,1025,0.7,72,8,35000,7.408,,,350,8.6,21.4,,,,,,,,,wg-a,,,,AAXX 21064 07190 02/81 33504 10130 20080 30066 40250 51007 60006 80002 90600 333 10214 20086 60004=
07190,1996-07-21 09:00:00,20,1024.3,-0.3,49,9,40000,7.408,,,20,,,,,,,,,,,wg-a,,,,AAXX 21094 07190 12782 /0204 10200 20090 30063 40243 58003 60006 81101 90900=
07190,1996-07-21 12:00:00,24,1023.5,-0.6,36,8,50000,11.112,,,40,,,,,,,,,,,wg-a,,,,AAXX 21124 07190 12784 10406 10240 20080 30057 40235 58006 60006 81100 91200=
07190,1996-07-21 15:00:00,24,1022.5,-0.9,34,7,50000,11.112,,,20,,,,,,,,,,,wg-a,,,,AAXX 21154 07190 12784 10206 10240 20070 30048 40225 56009 60006 81100 91500=
07190,1996-07-21 18:00:00,23,1022,-0.6,36,7,50000,14.816,,,40,13,24.6,,,,,,,,,wg-a,,,,AAXX 21184 07190 12/84 10408 10230 20070 30042 40220 56006 60006 80001 91800 333 10246 20130=
07190,1996-07-21 21:00:00,16,1023,0.6,59,8,50000,7.408,,,350,,,,,,,,,,,wg-a,,,,AAXX 21214 07190 12/84 13504 10160 20080 30048 40230 53006 60006 80001 92100=
07190,1996-07-22 00:00:00,12,1023.4,0.1,82,9,50000,3.704,,,280,,,,,,,,,,,wg-a,,,,AAXX 22004 07190 12/84 12802 10120 20090 30049 40234 50001 60006 80001 90000=
07190,1996-07-22 03:00:00,10,1023,-0.5,87,8,10000,0,,,0,,,,,,,,,,,wg-a,,,,AAXX 22034 07190 12/60 /0000 10100 20080 30044 40230 58005 60006 90300=
07190,1996-07-22 06:00:00,14,1023.5,0.8,72,9,35000,7.408,,,30,9.5,22.9,,,,,,,,,wg-a,,,,AAXX 22064 07190 02/81 10304 10140 20090 30052 40235 51008 60006 80001 90600 333 10229 20095 60004=
07190,1996-07-22 09:00:00,21,1022.5,-0.6,49,10,500,3.704,,,40,,,,,,,,,,,wg-a,,,,AAXX 22094 07190 12/00 10402 10210 20100 30046 40225 58006 60006 80001 90900=
07190,1996-07-22 12:00:00,26,1020.7,-1.5,28,6,40000,3.704,,,140,,,,,,,,,,,wg-a,,,,AAXX 22124 07190 12/82 11402 10260 20060 30031 40207 57015 60006 80001 91200=
07190,1996-07-22 15:00:00,27,1018.7,-1.9,30,8,45000,3.704,,,30,,,,,,,,,,,wg-a,,,,AAXX 22154 07190 12783 10302 10270 20080 30012 40187 58019 60006 81100 91500=
07190,1996-07-22 18:00:00,27,1017.7,-1,37,11,40000,7.408,,,340,14.1,28,,,,,,,,,wg-a,,,,AAXX 22184 07190 12/82 03404 10270 20110 30002 40177 56010 60006 80000 91800 333 10280 20141=
07190,1996-07-22 21:00:00,18,1018.3,0.1,68,12,40000,0,,,0,,,,,,,,,,,wg-a,,,,AAXX 22214 07190 12/82 00000 10180 20120 30003 40183 53001 60006 80000 92100=
07190,1996-07-23 00:00:00,13,1018.5,-0.1,88,11,35000,3.704,,,190,,,,,,,,,,,wg-a,,,,AAXX 23004 07190 12/81 01902 10130 20110 30002 40185 55001 60006 80000 90000=
07190,1996-07-23 03:00:00,12,1018,-0.4,88,10,500,0,,,0,,,,,,,,,,,wg-a,,,,AAXX 23034 07190 12/00 00000 10120 20100 39996 40180 58004 60006 80000 90300=
07190,1996-07-23 06:00:00,15,1017.2,-0.6,88,13,25000,3.704,,,220,11.1,26.4,,,,,,,,,wg-a,,,,AAXX 23064 07190 02/75 12202 10150 20130 39991 40172 56006 60006 80001 90600 333 10264 20111 60004=
07190,1996-07-23 09:00:00,24,1015.1,-1.7,54,14,500,14.816,,,180,,,,,,,,,,,wg-a,,,,AAXX 23094 07190 12/00 11808 10240 20140 39975 40151 58017 60006 80002 90900=
07190,1996-07-23 12:00:00,27,1013.3,-1.2,48,15,20000,3.704,,,60,,,,,,,,,,,wg-a,,,,AAXX 23124 07190 12/70 70602 10270 20150 39960 40133 55012 60006 84082 91200=
07190,1996-07-23 15:00:00,29,1011.8,-1.6,48,17,20000,18.52,,,190,,,,,,,,,,3,wg-a,,,,AAXX 23154 07190 02670 71910 10290 20170 39946 40118 56016 61000 70386 81982 91500 333 ////=
07190,1996-07-23 18:00:00,25,1011.8,-0.2,54,15,20000,11.112,,,180,15.4,29.4,,,,,,,,1,wg-a,,,,AAXX 23184 07190 32670 71806 10250 20150 39944 40118 55002 70186 81962 91800 333 10294 20154=
07190,1996-07-23 21:00:00,22,1011.8,-0.2,69,16,20000,18.52,,,190,,,,,,,,,,13,wg-a,,,,AAXX 23214 07190 02670 /1910 10220 20160 39942 40118 56002 61000 71361 84903 92100 333 ////=
07190,1996-07-24 00:00:00,19,1012.7,0.7,88,17,15000,7.408,,,160,,,,0,,,,,,1,wg-a,,,,AAXX 24004 07190 02765 71604 10190 20170 39949 40127 51007 60006 70198 8453/ 90000 333 60007=
07190,1996-07-24 03:00:00,17,1012.3,-0.5,94,16,9000,3.704,,,250,,,,,,,,,,,wg-a,,,,AAXX 24034 07190 12759 22502 10170 20160 39944 40123 58005 60006 82231 90300=
07190,1996-07-24 06:00:00,19,1012.7,0.5,94,18,500,7.408,,,200,16.4,25.3,,,,,,,,,wg-a,,,,AAXX 24064 07190 12700 22004 10190 20180 39949 40127 53005 60004 82200 90600 333 10253 20164=
07190,1996-07-24 09:00:00,24,1012.3,-0.1,57,15,15000,22.224,,,240,,,,,,,,,,25,wg-a,,,,AAXX 24094 07190 02565 42412 10240 20150 39948 40123 55001 61000 72580 84200 90900 333 ////=
07190,1996-07-24 12:00:00,25,1012.2,-0.1,44,12,500,25.928,,,250,,,,,,,,,,1,wg-a,,,,AAXX 24124 07190 02700 52514 10250 20120 39947 40122 58001 61000 70186 84430 91200 333 ////=
07190,1996-07-24 15:00:00,24,1013.2,1,44,11,500,25.928,,,250,,,,,,,,,,,wg-a,,,,AAXX 24154 07190 12600 52514 10240 20110 39957 40132 51010 60006 84842 91500=
07190,1996-07-24 18:00:00,21,1014.4,1,56,12,20000,14.816,,,340,18.8,26.2,,,,,,,,,wg-a,,,,AAXX 24184 07190 32670 /3408 10210 20120 39967 40144 51010 83830 91800 333 10262 20188=
07190,1996-07-24 21:00:00,18,1016.4,1.8,73,13,20000,3.704,,,230,,,,,,,,,,,wg-a,,,,AAXX 24214 07190 12770 32302 10180 20130 39985 40164 51018 60006 83200 92100=
07190,1996-07-25 00:00:00,17,1017.9,1.3,68,11,15000,11.112,,,290,,,,,,,,,,,wg-a,,,,AAXX 25004 07190 12765 22906 10170 20110 39998 40179 52013 60006 82500 90000=
07190,1996-07-25 03:00:00,14,1018.9,0.8,77,10,15000,11.112,,,250,,,,,,,,,,,wg-a,,,,AAXX 25034 07190 12765 /2506 10140 20100 30006 40189 53008 60006 81100 90300=
07190,1996-07-25 06:00:00,16,1019.9,1.1,68,10,18000,11.112,,,250,11.8,21.2,,,,,,,,,wg-a,,,,AAXX 25064 07190 02668 22506 10160 20100 30017 40199 51011 60006 81240 90600 333 10212 20118 61000=
07190,1996-07-25 09:00:00,20,1020,0.5,53,10,25000,14.816,,,260,,,,,,,,,,,wg-a,,,,AAXX 25094 07190 12675 22608 10200 20100 30021 40200 50005 60006 81240 90900=
07190,1996-07-25 12:00:00,21,1020,0.2,49,10,500,18.52,,,330,,,,,,,,,,,wg-a,,,,AAXX 25124 07190 12600 73310 10210 20100 30022 40200 53002 60006 878// 91200=
07190,1996-07-25 15:00:00,21,1021,0.9,56,12,25000,18.52,,,310,,,,,,,,,,,wg-a,,,,AAXX 25154 07190 12675 /3110 10210 20120 30031 40210 51009 60006 86800 91500=
07190,1996-07-25 18:00:00,20,1020.8,-0.2,60,12,15000,11.112,,,340,15.9,22,,,,,,,,,wg-a,,,,AAXX 25184 07190 12765 /3406 10200 20120 30029 40208 58002 60006 81401 91800 333 10220 20159=
07190,1996-07-25 21:00:00,15,1021.9,0.7,82,12,15000,3.704,,,350,,,,,,,,,,,wg-a,,,,AAXX 25214 07190 12/65 03502 10150 20120 30036 40219 52007 60006 80000 92100=
07190,1996-07-26 00:00:00,12,1022.6,0.6,94,11,15000,0,,,0,,,,,,,,,,,wg-a,,,,AAXX 26004 07190 12/65 00000 10120 20110 30042 40226 51006 60006 80000 90000=
07190,1996-07-26 03:00:00,11,1022.3,-0.4,94,10,8000,7.408,,,350,,,,,,,,,,,wg-a,,,,AAXX 26034 07190 12/58 03504 10110 20100 30038 40223 58004 60006 80000 90300=
07190,1996-07-26 06:00:00,13,1022.5,0.3,94,12,500,0,,,0,10.5,19.6,,,,,,,,,wg-a,,,,AAXX 26064 07190 02/00 00000 10130 20120 30041 40225 51003 60006 80000 90600 333 10196 20105 60004=
07190,1996-07-26 09:00:00,20,1021.6,-0.3,68,14,8000,3.704,,,350,,,,,,,,,,,wg-a,,,,AAXX 26094 07190 12558 /3502 10200 20140 30037 40216 56003 60006 81100 90900=
07190,1996-07-26 12:00:00,24,1020.4,-1.1,54,14,9000,11.112,,,30,,,,,,,,,,,wg-a,,,,AAXX 26124 07190 12659 30306 10240 20140 30027 40204 58011 60006 83200 91200=
07190,1996-07-26 15:00:00,25,1019,-1.2,50,14,10000,22.224,,,40,,,,,,,,,,,wg-a,,,,AAXX 26154 07190 12/60 00412 10250 20140 30014 40190 58012 60006 80000 91500=
07190,1996-07-26 18:00:00,24,1018.3,-0.8,50,13,15000,22.224,,,20,13.2,25.4,,,,,,,,,wg-a,,,,AAXX 26184 07190 12/65 50212 10240 20130 30007 40183 56008 60006 80002 91800 333 10254 20132=
07190,1996-07-26 21:00:00,20,1019.3,0.7,64,13,12000,7.408,,,350,,,,,,,,,,,wg-a,,,,AAXX 26214 07190 12/62 63504 10200 20130 30014 40193 52007 60006 80002 92100=
07190,1996-07-27 00:00:00,16,1018.8,-0.7,82,13,12000,7.408,,,340,,,,,,,,,,,wg-a,,,,AAXX 27004 07190 12/62 73404 10160 20130 30007 40188 58007 60006 83032 90000=
07190,1996-07-27 03:00:00,14,1018,-0.9,88,12,8000,7.408,,,330,,,,,,,,,,,wg-a,,,,AAXX 27034 07190 12/58 43304 10140 20120 39998 40180 58009 60006 81031 90300=
07190,1996-07-27 06:00:00,16,1017.8,-0.1,82,13,6000,7.408,,,340,13.1,23.5,,,,,,,,,wg-a,,,,AAXX 27064 07190 02/56 /3404 10160 20130 39997 40178 58001 60006 80002 90600 333 10235 20131 60004=
07190,1996-07-27 09:00:00,22,1017.4,0,60,14,9000,0,,,0,,,,,,,,,,,wg-a,,,,AAXX 27094 07190 12/59 60000 10220 20140 39997 40174 50000 60006 80002 90900=
07190,1996-07-27 12:00:00,26,1016.8,-0.4,45,13,10000,3.704,,,70,,,,,,,,,,,wg-a,,,,AAXX 27124 07190 12/60 50702 10260 20130 39993 40168 58004 60006 81082 91200=
07190,1996-07-27 15:00:00,28,1015.3,-1.4,37,12,15000,7.408,,,60,,,,,,,,,,,wg-a,,,,AAXX 27154 07190 12/65 20604 10280 20120 39979 40153 58014 60006 81082 91500=
07190,1996-07-27 18:00:00,26,1015.7,0.5,51,15,15000,11.112,,,180,15.5,28.5,,,,,,,,,wg-a,,,,AAXX 27184 07190 12/65 71806 10260 20150 39983 40157 53005 60006 85082 91800 333 10285 20155=
07190,1996-07-27 21:00:00,21,1016.5,0.4,83,18,15000,0,,,0,,,,,,,,,,3,wg-a,,,,AAXX 27214 07190 02565 70000 10210 20180 39988 40165 50004 61000 70386 82282 92100 333 ////=
07190,1996-07-28 00:00:00,18,1016.6,-0.2,88,16,15000,3.704,,,60,,,,,,,,,,1,wg-a,,,,AAXX 28004 07190 02/65 60602 10180 20160 39987 40166 58002 61000 70186 85082 90000 333 ////=
07190,1996-07-28 03:00:00,17,1016.5,-0.2,94,16,10000,0,,,0,,,,,,,,,,,wg-a,,,,AAXX 28034 07190 12660 70000 10170 20160 39985 40165 58002 60006 8653/ 90300=
07190,1996-07-28 06:00:00,18,1016.6,0.1,88,16,12000,7.408,,,340,16.8,26.2,,,,,,,,29,wg-a,,,,AAXX 28064 07190 02662 73404 10180 20160 39987 40166 53001 61000 72992 879// 90600 333 10262 20168 ////=
07190,1996-07-28 09:00:00,18,1017.8,1.1,94,17,500,11.112,,,50,,,,4,,,,,,61,wg-a,,,,AAXX 28094 07190 12200 70506 10180 20170 39998 40178 51011 60047 76198 878// 90900=
07190,1996-07-28 12:00:00,22,1016.8,-0.7,73,17,8000,7.408,,,320,,,,1,,,,,,1,wg-a,,,,AAXX 28124 07190 02558 /3204 10220 20170 39991 40168 58007 60056 70198 82830 91200 333 60017=
07190,1996-07-28 15:00:00,24,1015.9,-0.7,65,17,18000,3.704,,,330,,,,,,,,,,1,wg-a,,,,AAXX 28154 07190 12668 /3302 10240 20170 39984 40159 58007 60006 70192 81233 91500=
07190,1996-07-28 18:00:00,23,1016.9,0.9,61,15,7000,14.816,,,220,17.4,25.4,,,,,,,,17,wg-a,,,,AAXX 28184 07190 32557 62208 10230 20150 39993 40169 53009 71791 84962 91800 333 10254 20174=
07190,1996-07-28 21:00:00,17,1017.8,0.5,94,16,15000,7.408,,,180,,,,25,,,,,,1,wg-a,,,,AAXX 28214 07190 12/65 21804 10170 20160 39998 40178 53005 60257 70198 81031 92100=
07190,1996-07-29 00:00:00,16,1018,0.1,100,16,6000,0,,,0,,,,,,,,,,3,wg-a,,,,AAXX 29004 07190 12/56 40000 10160 20160 39999 40180 50001 60256 70398 90000=
07190,1996-07-29 03:00:00,15,1017.3,-0.7,100,15,500,3.704,,,290,,,,0,,,,,,44,wg-a,,,,AAXX 29034 07190 12/05 32902 10150 20150 39992 40173 57007 60007 74440 83030 90300=
07190,1996-07-29 06:00:00,16,1017.3,0.1,100,16,700,0,,,0,15,22.2,,,,,30,,,42,wg-a,,,,AAXX 29064 07190 12/07 90000 10160 20160 39993 40173 53001 60304 74241 8908/ 90600 333 10222 20150=
07190,1996-07-29 09:00:00,23,1016.6,-0.3,78,19,10000,7.408,,,180,,,,,,,,,,3,wg-a,,,,AAXX 29094 07190 12560 21804 10230 20190 39990 40166 58003 60006 70340 81280 90900=
07190,1996-07-29 12:00:00,26,1014.9,-1.5,61,18,12000,11.112,,,200,,,,,,,,,,3,wg-a,,,,AAXX 29124 07190 12562 62006 10260 20180 39975 40149 58015 60006 70341 83982 91200=
07190,1996-07-29 15:00:00,28,1013.2,-1.6,51,17,12000,3.704,,,40,,,,1,,,,,,1,wg-a,,,,AAXX 29154 07190 12662 40402 10280 20170 39959 40132 58016 60017 70198 82382 91500=
07190,1996-07-29 18:00:00,26,1011.5,-1.7,61,18,25000,7.408,,,170,16.5,28.3,,,,,,,,3,wg-a,,,,AAXX 29184 07190 32675 /1704 10260 20180 39942 40115 58017 70398 81902 91800 333 10283 20165=
07190,1996-07-30 00:00:00,16,1013.9,-0.2,88,14,25000,3.704,,,330,,,,,,,,,,2,wg-a,,,,AAXX 30004 07190 02775 33302 10160 20140 39959 40139 55002 61000 70298 81532 90000 333 6100=
07190,1996-07-30 03:00:00,14,1014.6,0.6,94,13,20000,0,,,0,,,,,,,,,,,wg-a,,,,AAXX 30034 07190 12770 30000 10140 20130 39965 40146 52006 60006 83202 90300=
07190,1996-07-30 06:00:00,17,1015.3,0.8,88,15,20000,0,,,0,13.7,26,,,,,1,,,,wg-a,,,,AAXX 30064 07190 12670 40000 10170 20150 39973 40153 53008 60014 82830 90600 333 10260 20137=
07190,1996-07-30 09:00:00,22,1015.8,0.8,60,14,25000,7.408,,,260,,,,,,,,,,,wg-a,,,,AAXX 30094 07190 12575 42604 10220 20140 39981 40158 51008 60006 83230 90900=
07190,1996-07-30 12:00:00,24,1015.8,0.1,54,14,500,18.52,,,290,,,,,,,,,,,wg-a,,,,AAXX 30124 07190 12600 32910 10240 20140 39982 40158 51001 60006 83800 91200=
07190,1996-07-30 15:00:00,25,1015.8,0.1,50,14,50000,11.112,,,330,,,,,,,,,,,wg-a,,,,AAXX 30154 07190 12684 43306 10250 20140 39983 40158 50001 60006 84400 91500=
07190,1996-07-30 18:00:00,23,1016.4,0.5,57,14,40000,7.408,,,330,16.7,25,,,,,,,,,wg-a,,,,AAXX 30184 07190 12682 33304 10230 20140 39988 40164 53005 60006 82401 91800 333 10250 20167=
07190,1996-07-30 21:00:00,18,1018.1,1.4,83,15,500,3.704,,,220,,,,,,,,,,,wg-a,,,,AAXX 30214 07190 12/00 12202 10180 20150 30002 40181 53014 60006 80001 92100=
07190,1996-07-31 00:00:00,15,1018.3,-0.1,94,14,500,3.704,,,200,,,,,,,,,,,wg-a,,,,AAXX 31004 07190 12500 /2002 10150 20140 30002 40183 57001 60006 81100 90000=
07190,1996-07-31 03:00:00,14,1018.2,-0.1,94,13,500,3.704,,,210,,,,,,,,,,,wg-a,,,,AAXX 31034 07190 12/00 12102 10140 20130 30000 40182 55001 60006 80002 90300=
07190,1996-07-31 06:00:00,16,1018.7,0.6,88,14,25000,3.704,,,200,13.5,23.3,,,,,,,,,wg-a,,,,AAXX 31064 07190 02675 72002 10160 20140 30006 40187 51006 60006 8115/ 90600 333 10233 20135 60004=
07190,1996-07-31 09:00:00,22,1018.3,0,69,16,25000,11.112,,,180,,,,,,,,,,,wg-a,,,,AAXX 31094 07190 12675 21806 10220 20160 30006 40183 50000 60006 81230 90900=
07190,1996-07-31 12:00:00,26,1016.9,-1.1,54,16,500,11.112,,,200,,,,,,,,,,,wg-a,,,,AAXX 31124 07190 12600 22006 10260 20160 39995 40169 57011 60006 82240 91200=
07190,1996-07-31 15:00:00,27,1015.8,-1.1,51,16,35000,3.704,,,290,,,,,,,,,,,wg-a,,,,AAXX 31154 07190 12681 42902 10270 20160 39984 40158 56011 60006 84400 91500=
07190,1996-07-31 18:00:00,26,1015.4,-0.4,54,16,35000,3.704,,,130,15.7,27.7,,,,,,,,,wg-a,,,,AAXX 31184 07190 12781 31302 10260 20160 39980 40154 58004 60006 82401 91800 333 10277 20157=
07190,1996-07-31 21:00:00,20,1016.4,0.6,83,17,500,3.704,,,240,,,,,,,,,,,wg-a,,,,AAXX 31214 07190 12/00 /2402 10200 20170 39986 40164 52006 60006 80001 92100=
07190,1996-08-01 00:00:00,17,1016.7,0.1,82,14,20000,3.704,,,200,,,,,,,,,,,wg-a,,,,AAXX 01004 07190 12/70 12002 10170 20140 39987 40167 50001 60006 80001 90000=
07190,1996-08-01 03:00:00,15,1016.6,-0.2,88,13,20000,3.704,,,190,,,,,,,,,,,wg-a,,,,AAXX 01034 07190 12/70 11902 10150 20130 39985 40166 57002 60006 80001 90300=
07190,1996-08-01 04:00:00,17,1016.9,0.4,88,15,15000,7.408,,,180,14.3,25.9,,,,,208,,,,wg-a,,,,AAXX 01044 07190 02/65 21804 10170 20150 39989 40169 53004 60006 80/01 90400 333 10259 20143 62084=
07190,1996-08-01 06:00:00,17,1016.9,0.4,88,15,15000,7.408,,,180,14.3,25.9,,,,,,,,,wg-a,,,,AAXX 01064 07190 02/65 21804 10170 20150 39989 40169 53004 60006 80001 90600 333 10259 20143 60004=
07190,1996-08-01 09:00:00,24,1016.2,-0.3,61,16,20000,14.816,,,180,,,,,,,,,,,wg-a,,,,AAXX 01094 07190 12570 11808 10240 20160 39986 40162 58003 60006 81101 90900=
07190,1996-08-01 12:00:00,29,1014.7,-1.1,48,17,40000,14.816,,,170,,,,,,,,,,,wg-a,,,,AAXX 01124 07190 12682 /1708 10290 20170 39975 40147 58011 60006 81200 91200=
07190,1996-08-01 15:00:00,30,1014.1,-0.6,43,16,40000,3.704,,,330,,,,,,,,,,,wg-a,,,,AAXX 01154 07190 12782 /3302 10300 20160 39969 40141 58006 60006 81200 91500=
07190,1996-08-01 18:00:00,29,1014.2,-0,45,16,40000,11.112,,,280,16.6,30.9,,,,,,,,,wg-a,,,,AAXX 01184 07190 12782 22806 10290 20160 39969 40142 55000 60006 82100 91800 333 10309 20166=
07190,1996-08-01 21:00:00,21,1016.3,1.7,69,15,500,7.408,,,330,,,,,,,,,,,wg-a,,,,AAXX 01214 07190 12/00 03304 10210 20150 39986 40163 53017 60006 80000 92100=
07190,1996-08-02 03:00:00,18,1018.8,1,77,14,500,11.112,,,40,,,,,,,,,,,wg-a,,,,AAXX 02034 07190 12700 40406 10180 20140 30008 40188 51010 60006 82131 90300=
07190,1996-08-02 06:00:00,19,1020.4,1.7,78,15,500,7.408,,,330,16.7,28.5,,,,,,,,,wg-a,,,,AAXX 02064 07190 02700 63304 10190 20150 30024 40204 51017 60006 83231 90600 333 10285 20167 60004=
07190,1996-08-02 09:00:00,23,1020.6,0.4,61,15,500,7.408,,,360,,,,,,,,,,,wg-a,,,,AAXX 02094 07190 12700 53604 10230 20150 30029 40206 51004 60006 82231 90900=
07190,1996-08-02 12:00:00,26,1020.1,-0.3,48,14,500,11.112,,,320,,,,,,,,,,,wg-a,,,,AAXX 02124 07190 12600 43206 10260 20140 30026 40201 57003 60006 81332 91200=
07190,1996-08-02 15:00:00,25,1019.6,-0.5,50,14,500,18.52,,,340,,,,,,,,,,,wg-a,,,,AAXX 02154 07190 12700 83410 10250 20140 30020 40196 56005 60006 81237 91500=
07190,1996-08-02 18:00:00,22,1020.5,0.8,57,13,500,11.112,,,330,18.7,26.6,,,,,,,,,wg-a,,,,AAXX 02184 07190 12700 83306 10220 20130 30028 40205 51008 60006 81437 91800 333 10266 20187=
07190,1996-08-02 21:00:00,20,1021.7,1,78,16,11000,7.408,,,150,,,,,,,,,,,wg-a,,,,AAXX 02214 07190 12/61 /1504 10200 20160 30038 40217 51010 60006 92100=
07190,1996-08-03 00:00:00,16,1022.3,0.4,94,15,500,3.704,,,200,,,,,,,,,,,wg-a,,,,AAXX 03004 07190 12/00 12002 10160 20150 30042 40223 52004 60006 81030 90000=
07190,1996-08-03 03:00:00,14,1023,0.5,94,13,4500,0,,,0,,,,,,,,,,10,wg-a,,,,AAXX 03034 07190 12/45 /0000 10140 20130 30047 40230 51005 60006 71000 81030 90300=
07190,1996-08-03 06:00:00,16,1023.5,0.6,94,15,10000,3.704,,,340,12.9,22.3,,,,,,,,,wg-a,,,,AAXX 03064 07190 02260 23402 10160 20150 30053 40235 53006 60006 82230 90600 333 10223 20129 60004=
07190,1996-08-03 09:00:00,20,1023.4,0.2,68,14,12000,14.816,,,360,,,,,,,,,,,wg-a,,,,AAXX 03094 07190 12562 33608 10200 20140 30055 40234 51002 60006 82232 90900=
07190,1996-08-03 12:00:00,23,1022.9,-0.4,53,13,15000,14.816,,,40,,,,,,,,,,,wg-a,,,,AAXX 03124 07190 12565 70408 10230 20130 30051 40229 58004 60006 82963 91200=
07190,1996-08-03 15:00:00,23,1023.2,0.3,57,14,10000,18.52,,,340,,,,,,,,,,17,wg-a,,,,AAXX 03154 07190 02660 /3410 10230 20140 30054 40232 51003 61000 71798 84963 91500 333 ////=
07190,1996-08-03 18:00:00,19,1024.3,0.9,73,14,25000,7.408,,,120,16.1,23.5,,,,,,,,1,wg-a,,,,AAXX 03184 07190 32675 71204 10190 20140 30063 40243 51009 70198 81232 91800 333 10235 20161=
07190,1996-08-03 21:00:00,16,1024.6,0,88,14,20000,3.704,,,230,,,,,,,,,,,wg-a,,,,AAXX 03214 07190 12/70 52302 10160 20140 30064 40246 50000 60006 83032 92100=
07190,1996-08-04 00:00:00,13,1024.5,-0.3,94,12,10000,7.408,,,340,,,,,,,,,,,wg-a,,,,AAXX 04004 07190 12/60 13404 10130 20120 30061 40245 58003 60006 80001 90000=
07190,1996-08-04 03:00:00,12,1024,-0.6,94,11,8000,7.408,,,330,,,,0,,,,,,,wg-a,,,,AAXX 04034 07190 12/58 /3304 10120 20110 30055 40240 57006 60007 81031 90300=
07190,1996-08-04 06:00:00,14,1023.8,-0.1,82,11,15000,7.408,,,350,11.5,19.2,,,,,,,,,wg-a,,,,AAXX 04064 07190 12865 43504 10140 20110 30054 40238 55001 60004 84030 90600 333 10192 20115=
07190,1996-08-04 09:00:00,19,1022.9,-0.5,68,13,15000,7.408,,,80,,,,,,,,,,,wg-a,,,,AAXX 04094 07190 12565 20804 10190 20130 30049 40229 58005 60006 81130 90900=
07190,1996-08-04 12:00:00,22,1021.2,-1.5,60,14,15000,18.52,,,30,,,,,,,,,,,wg-a,,,,AAXX 04124 07190 12665 40310 10220 20140 30034 40212 58015 60006 84200 91200=
07190,1996-08-04 15:00:00,24,1019,-2,44,11,500,18.52,,,50,,,,,,,,,,,wg-a,,,,AAXX 04154 07190 12700 30510 10240 20110 30014 40190 56020 60006 83200 91500=
07190,1996-08-04 18:00:00,22,1018.5,-0.7,46,10,500,22.224,,,40,13.6,24.1,,,,,,,,,wg-a,,,,AAXX 04184 07190 12700 /0412 10220 20100 30007 40185 56007 60006 81400 91800 333 10241 20136=
07190,1996-08-04 21:00:00,17,1018.7,-0.1,68,11,25000,7.408,,,360,,,,,,,,,,,wg-a,,,,AAXX 04214 07190 12775 13604 10170 20110 30006 40187 58001 60006 81500 92100=
07190,1996-08-05 00:00:00,14,1017.9,-1,77,10,25000,11.112,,,350,,,,,,,,,,,wg-a,,,,AAXX 05004 07190 12/75 03506 10140 20100 39996 40179 58010 60006 80000 90000=
07190,1996-08-05 03:00:00,11,1017.5,-0.5,94,10,25000,7.408,,,340,,,,,,,,,,,wg-a,,,,AAXX 05034 07190 12/75 03404 10110 20100 39991 40175 57005 60006 80000 90300=
07190,1996-08-05 06:00:00,13,1017,-0.3,82,10,35000,11.112,,,350,11,21.6,,,,,,,,,wg-a,,,,AAXX 05064 07190 02/81 13506 10130 20100 39987 40170 56003 60006 80002 90600 333 10216 20110 60004=
07190,1996-08-05 09:00:00,20,1015.7,-0.9,53,10,35000,11.112,,,50,,,,,,,,,,,wg-a,,,,AAXX 05094 07190 12/81 20506 10200 20100 39979 40157 58009 60006 80002 90900=
07190,1996-08-05 12:00:00,25,1013.9,-1.6,41,11,35000,7.408,,,40,,,,,,,,,,,wg-a,,,,AAXX 05124 07190 12781 20404 10250 20110 39964 40139 56016 60006 81102 91200=
07190,1996-08-05 15:00:00,26,1011.8,-1.8,39,11,35000,14.816,,,50,,,,,,,,,,,wg-a,,,,AAXX 05154 07190 12781 30508 10260 20110 39944 40118 56018 60006 81102 91500=
07190,1996-08-05 18:00:00,24,1011.1,-0.8,44,11,35000,14.816,,,10,13.1,26.6,,,,,,,,,wg-a,,,,AAXX 05184 07190 12781 20108 10240 20110 39936 40111 56008 60006 81201 91800 333 10266 20131=
07190,1996-08-05 21:00:00,18,1012.2,0.8,73,13,35000,0,,,0,,,,,,,,,,,wg-a,,,,AAXX 05214 07190 12/81 10000 10180 20130 39944 40122 51008 60006 81030 92100=
07190,1996-08-06 00:00:00,16,1012.9,0.5,88,14,10000,0,,,0,,,,,,,,,,,wg-a,,,,AAXX 06004 07190 12/60 /0000 10160 20140 39949 40129 52005 60006 90000=
07190,1996-08-06 03:00:00,15,1013.4,0.4,88,13,11000,7.408,,,310,,,,,,,,,,,wg-a,,,,AAXX 06034 07190 12/61 /3104 10150 20130 39953 40134 53004 60006 90300=
07190,1996-08-06 06:00:00,15,1014.5,1.1,94,14,6000,3.704,,,320,15.3,24.2,,1,,,1,,,60,wg-a,,,,AAXX 06064 07190 02556 83202 10150 20140 39964 40145 53011 60014 76061 8257/ 90600 333 10242 20153 60017=
07190,1996-08-06 09:00:00,18,1014.6,0.3,88,16,8000,3.704,,,50,,,,5,,,,,,1,wg-a,,,,AAXX 06094 07190 12258 70502 10180 20160 39967 40146 50003 60057 70162 8383/ 90900=
07190,1996-08-06 12:00:00,24,1013.9,-0.3,65,17,15000,11.112,,,180,,,,,,,,,,3,wg-a,,,,AAXX 06124 07190 12565 71806 10240 20170 39964 40139 58003 60056 70362 83806 91200=
07190,1996-08-06 15:00:00,26,1013.3,-0.5,54,16,25000,3.704,,,170,,,,,,,,,,,wg-a,,,,AAXX 06154 07190 12675 /1702 10260 20160 39959 40133 58005 60006 83232 91500=
07190,1996-08-06 18:00:00,24,1013,-0.5,65,17,25000,3.704,,,80,15.1,26.1,,,,,,,,,wg-a,,,,AAXX 06184 07190 32675 70802 10240 20170 39955 40130 56005 81272 91800 333 10261 20151=
07190,1996-08-06 21:00:00,19,1015.4,2.2,88,17,9000,11.112,,,160,,,,1,,,,,,61,wg-a,,,,AAXX 06214 07190 12559 81606 10190 20170 39976 40154 53022 60017 76162 8652/ 92100=
07190,1996-08-07 00:00:00,18,1016.4,1,94,17,500,11.112,,,180,,,,1,,,,,,61,wg-a,,,,AAXX 07004 07190 02600 81806 10180 20170 39985 40164 53010 60026 76162 8252/ 90000 333 60017=
07190,1996-08-07 03:00:00,17,1016.5,-0,100,17,6000,3.704,,,200,,,,0,,,,,,1,wg-a,,,,AAXX 07034 07190 12656 82002 10170 20170 39985 40165 55000 60007 70162 8357/ 90300=
07190,1996-08-07 06:00:00,18,1017.4,0.9,94,17,3200,3.704,,,200,17,24.2,,,,,8,,,10,wg-a,,,,AAXX 07064 07190 12132 72002 10180 20170 39994 40174 53009 60084 71062 875// 90600 333 10242 20170=
07190,1996-08-07 09:00:00,20,1018,0.8,83,17,10000,3.704,,,230,,,,,,,,,,,wg-a,,,,AAXX 07094 07190 12460 72302 10200 20170 30002 40180 51008 60006 878// 90900=
07190,1996-08-07 12:00:00,22,1017.8,-0.1,73,17,15000,3.704,,,100,,,,,,,,,,,wg-a,,,,AAXX 07124 07190 12565 71002 10220 20170 30001 40178 58001 60006 83831 91200=
07190,1996-08-07 18:00:00,22,1016.7,-0.3,73,17,20000,7.408,,,160,17.6,23.5,,,,,,,,,wg-a,,,,AAXX 07184 07190 12570 71604 10220 20170 39990 40167 55003 60006 83232 91800 333 10235 20176=
07190,1996-08-07 21:00:00,17,1017.6,0.6,94,16,20000,0,,,0,,,,,,,,,,,wg-a,,,,AAXX 07214 07190 12/70 30000 10170 20160 39996 40176 51006 60006 81031 92100=
07190,1996-08-08 00:00:00,13,1018.2,0.3,88,11,20000,7.408,,,210,,,,,,,,,,,wg-a,,,,AAXX 08004 07190 12/70 02104 10130 20110 39999 40182 50003 60006 80000 90000=
07190,1996-08-08 03:00:00,11,1018.1,-0.3,94,10,20000,7.408,,,230,,,,0,,,,,,,wg-a,,,,AAXX 08034 07190 12/70 22304 10110 20100 39996 40181 57003 60007 80001 90300=
07190,1996-08-08 06:00:00,13,1017.8,-0.2,88,11,12000,3.704,,,20,9.8,21.5,,,,,,,,,wg-a,,,,AAXX 08064 07190 12162 30202 10130 20110 39995 40178 57002 60004 81601 90600 333 10215 20098=
07190,1996-08-08 09:00:00,19,1017.1,-0.3,60,11,20000,1.852,,,50,,,,,,,,,,,wg-a,,,,AAXX 08094 07190 12570 30501 10190 20110 39992 40171 56003 60006 82201 90900=
07190,1996-08-08 12:00:00,24,1015.7,-1,50,13,20000,7.408,,,340,,,,,,,,,,,wg-a,,,,AAXX 08124 07190 12670 23404 10240 20130 39982 40157 58010 60006 82200 91200=
07190,1996-08-08 15:00:00,26,1014.4,-1.2,42,12,20000,3.704,,,120,,,,,,,,,,,wg-a,,,,AAXX 08154 07190 12670 21202 10260 20120 39970 40144 58012 60006 81201 91500=
07190,1996-08-08 18:00:00,25,1014.5,-0,47,13,35000,3.704,,,210,12.6,26.4,,,,,,,,,wg-a,,,,AAXX 08184 07190 12/81 /2102 10250 20130 39970 40145 55000 60006 80001 91800 333 10264 20126=
07190,1996-08-08 21:00:00,18,1015.7,0.8,83,15,25000,3.704,,,260,,,,,,,,,,,wg-a,,,,AAXX 08214 07190 12/75 12602 10180 20150 39978 40157 51008 60006 81031 92100=
07190,1996-08-09 00:00:00,15,1016.3,0.4,88,13,25000,0,,,0,,,,,,,,,,,wg-a,,,,AAXX 09004 07190 12675 /0000 10150 20130 39982 40163 51004 60006 81500 90000=
07190,1996-08-09 03:00:00,13,1016.6,0.1,88,11,20000,7.408,,,250,,,,,,,,,,,wg-a,,,,AAXX 09034 07190 12/70 12504 10130 20110 39983 40166 52001 60006 80001 90300=
07190,1996-08-09 06:00:00,14,1017,0.5,88,12,15000,3.704,,,150,11.7,24.4,,,,,,,,,wg-a,,,,AAXX 09064 07190 02/65 31502 10140 20120 39988 40170 53005 60006 80001 90600 333 10244 20117 60004=
07190,1996-08-09 12:00:00,27,1014.7,-0.8,45,14,15000,3.704,,,70,,,,,,,,,,,wg-a,,,,AAXX 09124 07190 12765 /0702 10270 20140 39973 40147 57008 60006 81206 91200=
07190,1996-08-09 18:00:00,26,1012.8,-0.6,48,14,20000,3.704,,,210,14,28.5,,,,,,,,,wg-a,,,,AAXX 09184 07190 12770 62102 10260 20140 39954 40128 56006 60006 81232 91800 333 10285 20140=
07190,1996-08-09 21:00:00,20,1013.7,0.5,78,16,20000,3.704,,,240,,,,,,,,,,,wg-a,,,,AAXX 09214 07190 12/70 22402 10200 20160 39959 40137 50005 60006 80001 92100=
07190,1996-08-10 00:00:00,16,1013.4,-0.5,88,14,20000,3.704,,,210,,,,,,,,,,,wg-a,,,,AAXX 10004 07190 12/70 02102 10160 20140 39954 40134 56005 60006 80000 90000=
07190,1996-08-10 03:00:00,15,1012.7,-0.8,88,13,20000,0,,,0,,,,,,,,,,,wg-a,,,,AAXX 10034 07190 12/70 20000 10150 20130 39946 40127 58008 60006 80002 90300=
07190,1996-08-10 06:00:00,16,1012.5,-0.1,94,15,10000,3.704,,,180,13.7,26,,,,,,,,,wg-a,,,,AAXX 10064 07190 02/60 71802 10160 20150 39945 40125 56001 60006 82032 90600 333 10260 20137 60004=
07190,1996-08-10 09:00:00,24,1011.3,-0.7,61,16,20000,11.112,,,170,,,,,,,,,,,wg-a,,,,AAXX 10094 07190 12570 /1706 10240 20160 39938 40113 58007 60006 81202 90900=
07190,1996-08-10 12:00:00,27,1009.8,-1.3,58,18,25000,11.112,,,180,,,,,,,,,,,wg-a,,,,AAXX 10124 07190 12675 61806 10270 20180 39925 40098 57013 60006 83963 91200=
07190,1996-08-10 15:00:00,27,1008.1,-1.6,66,20,25000,7.408,,,220,,,,,,,,,,17,wg-a,,,,AAXX 10154 07190 12675 82204 10270 20200 39909 40081 56016 60006 71792 83972 91500=
07190,1996-08-10 18:00:00,20,1008.6,0.1,83,17,12000,7.408,,,140,16.1,28.4,,7,,,,,,17,wg-a,,,,AAXX 10184 07190 12662 81404 10200 20170 39910 40086 50001 60077 71798 8297/ 91800 333 10284 20161=
07190,1996-08-10 21:00:00,20,1009.3,0.7,78,16,12000,18.52,,,180,,,,0,,,,,,2,wg-a,,,,AAXX 10214 07190 12662 81810 10200 20160 39916 40093 51007 60007 70262 8127/ 92100=
07190,1996-08-11 00:00:00,17,1010.1,0.5,94,16,10000,11.112,,,170,,,,3,,,,,,3,wg-a,,,,AAXX 11004 07190 02460 81706 10170 20160 39922 40101 50005 60036 70362 8557/ 90000 333 60037=
07190,1996-08-11 03:00:00,17,1009.4,-0.6,94,16,10000,7.408,,,190,,,,,,,,,,,wg-a,,,,AAXX 11034 07190 12660 81904 10170 20160 39915 40094 58006 60006 8357/ 90300=
07190,1996-08-11 06:00:00,16,1009.5,0.1,100,16,12000,0,,,0,16.3,20.3,,0,,,11,,,21,wg-a,,,,AAXX 11064 07190 02262 60000 10160 20160 39916 40095 53001 60114 72162 82832 90600 333 10203 20163 60007=
07190,1996-08-11 09:00:00,19,1009.8,0.5,88,17,10000,7.408,,,240,,,,,,,,,,,wg-a,,,,AAXX 11094 07190 12360 82404 10190 20170 39921 40098 53005 60006 8687/ 90900=
07190,1996-08-11 12:00:00,22,1009,-0.8,73,17,18000,22.224,,,160,,,,,,,,,,1,wg-a,,,,AAXX 11124 07190 02568 61612 10220 20170 39914 40090 56008 61000 70162 85232 91200 333 6100=
07190,1996-08-11 15:00:00,23,1007.2,-1.5,57,14,25000,18.52,,,170,,,,,,,,,,,wg-a,,,,AAXX 11154 07190 12575 61710 10230 20140 39897 40072 58015 60006 83302 91500=
07190,1996-08-11 18:00:00,21,1007,-0.3,69,15,25000,7.408,,,140,16.4,23.2,,,,,,,,,wg-a,,,,AAXX 11184 07190 32675 71404 10210 20150 39894 40070 55003 85803 91800 333 10232 20164=
07190,1996-08-11 21:00:00,17,1008.3,1.1,94,16,15000,11.112,,,200,,,,1,,,,,,29,wg-a,,,,AAXX 11214 07190 12465 72006 10170 20160 39905 40083 53011 60017 72998 878// 92100=
07190,1996-08-12 00:00:00,16,1008.7,0.3,94,15,20000,11.112,,,180,,,,,,,,,,1,wg-a,,,,AAXX 12004 07190 12870 61806 10160 20150 39908 40087 50003 60016 70198 835/2 90000=
07190,1996-08-12 03:00:00,15,1008.1,-0.7,94,14,20000,14.816,,,170,,,,,,,,,,,wg-a,,,,AAXX 12034 07190 12670 81708 10150 20140 39901 40081 58007 60006 8687/ 90300=
07190,1996-08-12 06:00:00,15,1009.2,1.1,94,14,18000,7.408,,,200,14.8,21.1,,,,,1,,,,wg-a,,,,AAXX 12064 07190 12668 /2004 10150 20140 39912 40092 51011 60014 82272 90600 333 10211 20148=
07190,1996-08-12 09:00:00,18,1010.2,1.2,77,14,18000,3.704,,,180,,,,,,,,,,,wg-a,,,,AAXX 12094 07190 12468 /1802 10180 20140 39924 40102 51012 60006 83820 90900=
07190,1996-08-12 12:00:00,21,1009.8,-0.3,56,12,500,3.704,,,340,,,,,,,,,,25,wg-a,,,,AAXX 12124 07190 02600 63402 10210 20120 39921 40098 58003 61000 72586 84202 91200 333 6100=
07190,1996-08-12 15:00:00,21,1009.9,0.1,53,11,500,14.816,,,210,,,,,,,,,,1,wg-a,,,,AAXX 12154 07190 02600 52108 10210 20110 39922 40099 52001 61000 70186 82963 91500 333 ////=
07190,1996-08-12 18:00:00,18,1010.7,0.7,68,12,40000,14.816,,,210,14.9,21.2,,,,,,,,3,wg-a,,,,AAXX 12184 07190 02582 72108 10180 20120 39929 40107 53007 61000 70386 8686/ 91800 333 10212 20149 ////=
07190,1996-08-12 21:00:00,15,1012.3,1.4,88,13,500,14.816,,,190,,,,,,,,,,21,wg-a,,,,AAXX 12214 07190 02500 71908 10150 20130 39943 40123 51014 61000 72186 8487/ 92100 333 ////=
07190,1996-08-13 00:00:00,14,1011.9,-0.5,94,13,500,18.52,,,170,,,,,,,,,,1,wg-a,,,,AAXX 13004 07190 02500 /1710 10140 20130 39938 40119 58005 61000 70186 83131 90000 333 ////=
07190,1996-08-13 03:00:00,14,1011.1,-0.8,94,13,20000,3.704,,,160,,,,,,,,,,,wg-a,,,,AAXX 13034 07190 12270 /1602 10140 20130 39930 40111 57008 60006 83831 90300=
07190,1996-08-13 06:00:00,15,1011.2,0.2,88,13,15000,14.816,,,190,13.4,18.7,,0,,,,,,25,wg-a,,,,AAXX 13064 07190 02565 71908 10150 20130 39932 40112 53002 60004 72586 878// 90600 333 10187 20134 60007=
07190,1996-08-13 09:00:00,16,1012,0.8,88,14,18000,18.52,,,190,,,,0,,,,,,1,wg-a,,,,AAXX 13094 07190 12468 81910 10160 20140 39940 40120 51008 60007 70186 878// 90900=
07190,1996-08-13 12:00:00,18,1011.5,-0.4,68,12,18000,25.928,,,220,,,,,,,,,,60,wg-a,,,,AAXX 13124 07190 02568 82214 10180 20120 39936 40115 56004 60016 76082 8587/ 91200 333 61000=
07190,1996-08-13 15:00:00,16,1011.7,0.1,94,15,7000,14.816,,,160,,,,7,,,,,,61,wg-a,,,,AAXX 13154 07190 12557 81608 10160 20150 39937 40117 50001 60077 76166 8587/ 91500=
07190,1996-08-13 18:00:00,15,1010.7,-1,94,14,8000,25.928,,,170,14.4,18.6,,0,,,,,,61,wg-a,,,,AAXX 13184 07190 12558 81714 10150 20140 39927 40107 56010 60007 76162 878// 91800 333 10186 20144=
07190,1996-08-13 21:00:00,15,1010.9,0.2,94,14,8000,22.224,,,180,,,,0,,,,,,60,wg-a,,,,AAXX 13214 07190 12458 81812 10150 20140 39929 40109 51002 60007 76062 885// 92100=
07190,1996-08-14 00:00:00,16,1011.6,0.7,88,14,8000,11.112,,,190,,,,,,,,,,1,wg-a,,,,AAXX 14004 07190 02458 81906 10160 20140 39936 40116 51007 60016 70162 875// 90000 333 61000=
07190,1996-08-14 03:00:00,16,1012.9,1.3,94,15,8000,7.408,,,220,,,,0,,,,,,,wg-a,,,,AAXX 14034 07190 12658 /2204 10160 20150 39949 40129 53013 60007 86500 90300=
07190,1996-08-14 06:00:00,16,1014.1,1.2,94,15,9000,11.112,,,160,14.4,16.3,,,,,8,,,1,wg-a,,,,AAXX 14064 07190 12659 71606 10160 20150 39961 40141 52012 60084 70161 85832 90600 333 10163 20144=
07190,1996-08-14 09:00:00,18,1015.2,1.2,88,16,9000,7.408,,,180,,,,,,,,,,,wg-a,,,,AAXX 14094 07190 12559 71804 10180 20160 39973 40152 52012 60006 8687/ 90900=
07190,1996-08-14 12:00:00,21,1015.1,0.1,69,15,12000,14.816,,,270,,,,,,,,,,,wg-a,,,,AAXX 14124 07190 12562 72708 10210 20150 39974 40151 53001 60006 8583/ 91200=
07190,1996-08-14 15:00:00,21,1015.2,0.2,69,15,12000,18.52,,,250,,,,,,,,,,,wg-a,,,,AAXX 14154 07190 12562 72510 10210 20150 39975 40152 53002 60006 83832 91500=
07190,1996-08-14 18:00:00,19,1015.7,0.4,78,15,12000,7.408,,,260,15.9,21.6,,,,,,,,,wg-a,,,,AAXX 14184 07190 12562 62604 10190 20150 39979 40157 53004 60006 83860 91800 333 10216 20159=
07190,1996-08-14 21:00:00,17,1016.9,1,82,14,8000,7.408,,,270,,,,,,,,,,,wg-a,,,,AAXX 14214 07190 12658 /2704 10170 20140 39989 40169 53010 60006 85861 92100=
07190,1996-08-15 00:00:00,16,1017,0.1,94,15,9000,3.704,,,350,,,,,,,,,,,wg-a,,,,AAXX 15004 07190 12/59 /3502 10160 20150 39990 40170 51001 60006 90000=
07190,1996-08-15 03:00:00,16,1017.2,0.1,94,15,6000,7.408,,,230,,,,,,,,,,11,wg-a,,,,AAXX 15034 07190 12556 72304 10160 20150 39991 40172 53001 60006 71122 875// 90300=
07190,1996-08-15 06:00:00,16,1018.1,0.9,94,15,3800,3.704,,,210,15.2,19.3,,,,,,,,10,wg-a,,,,AAXX 15064 07190 02438 72102 10160 20150 30000 40181 53009 60006 71022 875// 90600 333 10193 20152 60004=
07190,1996-08-15 09:00:00,20,1018.6,0.7,73,15,500,3.704,,,320,,,,,,,,,,,wg-a,,,,AAXX 15094 07190 12400 73202 10200 20150 30007 40186 51007 60006 8583/ 90900=
07190,1996-08-15 10:00:00,20,1018.3,-0.1,78,16,12000,3.704,,,120,,23.6,,,,,,,,1,wg-a,,,,AAXX 15104 07190 32762 71202 10200 20160 30005 40183 55001 70186 82532 91000 333 10236=
07190,1996-08-15 12:00:00,22,1018.2,-0.2,60,14,9000,7.408,,,300,,,,,,,,,,,wg-a,,,,AAXX 15124 07190 12559 /3004 10220 20140 30005 40182 57002 60006 84230 91200=
07190,1996-08-15 15:00:00,20,1018.4,0.1,78,16,8000,3.704,,,310,,,,,,,,,,16,wg-a,,,,AAXX 15154 07190 02658 73102 10200 20160 30006 40184 53001 61000 71686 878// 91500 333 ////=
07190,1996-08-15 18:00:00,20,1018.3,-0.1,78,16,12000,3.704,,,120,15.6,23.6,,0,,,,,,1,wg-a,,,,AAXX 15184 07190 12762 71202 10200 20160 30005 40183 55001 60007 70186 82532 91800 333 10236 20156=
07190,1996-08-15 21:00:00,16,1019.9,1.3,94,15,10000,7.408,,,250,,,,,,,,,,,wg-a,,,,AAXX 15214 07190 12/60 22504 10160 20150 30018 40199 51013 60006 81031 92100=
07190,1996-08-16 00:00:00,14,1020.6,0.4,94,13,10000,0,,,0,,,,,,,,,,,wg-a,,,,AAXX 16004 07190 12/60 10000 10140 20130 30023 40206 51004 60006 81030 90000=
07190,1996-08-16 06:00:00,14,1021.4,1,94,13,500,0,,,0,12.1,20.4,,,,,1,,,,wg-a,,,,AAXX 16064 07190 12400 30000 10140 20130 30031 40214 52010 60014 81530 90600 333 10204 20121=
07190,1996-08-16 09:00:00,20,1021.2,0.2,78,16,7000,7.408,,,40,,,,,,,,,,,wg-a,,,,AAXX 16094 07190 12457 40404 10200 20160 30033 40212 51002 60006 84200 90900=
07190,1996-08-16 12:00:00,22,1020.9,-0.1,65,15,12000,7.408,,,350,,,,,,,,,,,wg-a,,,,AAXX 16124 07190 12562 33504 10220 20150 30032 40209 58001 60006 83200 91200=
07190,1996-08-16 15:00:00,24,1019.8,-1,57,15,15000,14.816,,,20,,,,,,,,,,,wg-a,,,,AAXX 16154 07190 12665 /0208 10240 20150 30022 40198 56010 60006 81200 91500=
07190,1996-08-16 18:00:00,23,1019.9,0.1,61,15,18000,7.408,,,20,13.5,24.4,,,,,,,,,wg-a,,,,AAXX 16184 07190 12668 /0204 10230 20150 30022 40199 53001 60006 81201 91800 333 10244 20135=
07190,1996-08-16 21:00:00,17,1021.5,1,88,15,12000,3.704,,,270,,,,,,,,,,,wg-a,,,,AAXX 16214 07190 12/62 02702 10170 20150 30034 40215 51010 60006 80000 92100=
07190,1996-08-17 00:00:00,14,1021.9,0.3,94,13,8000,3.704,,,60,,,,,,,,,,,wg-a,,,,AAXX 17004 07190 12/58 10602 10140 20130 30036 40219 51003 60006 80001 90000=
07190,1996-08-17 06:00:00,14,1022.1,0.3,100,14,2500,7.408,,,340,12.6,22.5,,0,,,,,,10,wg-a,,,,AAXX 17064 07190 02225 /3404 10140 20140 30038 40221 53003 60004 71011 86600 90600 333 10225 20126 60007=
07190,1996-08-17 09:00:00,20,1022.1,0.4,78,16,4000,7.408,,,40,,,,,,,,,,10,wg-a,,,,AAXX 17094 07190 12/40 30404 10200 20160 30042 40221 50004 60006 71011 80001 90900=
07190,1996-08-17 12:00:00,25,1020.6,-1.2,57,16,10000,7.408,,,350,,,,,,,,,,,wg-a,,,,AAXX 17124 07190 12660 /3504 10250 20160 30030 40206 58012 60006 81100 91200=
07190,1996-08-17 15:00:00,26,1019.8,-0.7,48,14,15000,11.112,,,40,,,,,,,,,,,wg-a,,,,AAXX 17154 07190 12665 20406 10260 20140 30023 40198 56007 60006 82200 91500=
07190,1996-08-17 18:00:00,24,1019.5,-0.4,50,13,20000,14.816,,,20,14.3,26.6,,,,,,,,,wg-a,,,,AAXX 17184 07190 12770 10208 10240 20130 30019 40195 56004 60006 81400 91800 333 10266 20143=
07190,1996-08-17 21:00:00,18,1020.8,0.9,83,15,15000,7.408,,,340,,,,,,,,,,,wg-a,,,,AAXX 17214 07190 12/65 03404 10180 20150 30028 40208 51009 60006 80000 92100=
07190,1996-08-18 00:00:00,15,1021.2,0.2,88,13,13000,7.408,,,330,,,,,,,,,,,wg-a,,,,AAXX 18004 07190 12/63 03304 10150 20130 30030 40212 51002 60006 80000 90000=
07190,1996-08-18 03:00:00,14,1021,-0.3,88,12,10000,7.408,,,340,,,,,,,,,,,wg-a,,,,AAXX 18034 07190 12/60 03404 10140 20120 30027 40210 58003 60006 80000 90300=
07190,1996-08-18 06:00:00,15,1021.3,0.4,88,13,6000,7.408,,,340,13.1,23.9,,,,,,,,,wg-a,,,,AAXX 18064 07190 02/56 03404 10150 20130 30031 40213 53004 60006 80000 90600 333 10239 20131 60004=
07190,1996-08-18 09:00:00,22,1020.9,0,69,16,10000,11.112,,,20,,,,,,,,,,,wg-a,,,,AAXX 18094 07190 12/60 00206 10220 20160 30031 40209 50000 60006 80000 90900=
07190,1996-08-18 12:00:00,25,1019.2,-1.5,50,14,18000,25.928,,,30,,,,,,,,,,,wg-a,,,,AAXX 18124 07190 12668 20314 10250 20140 30016 40192 58015 60006 82100 91200=
07190,1996-08-18 15:00:00,26,1018.1,-1,48,14,20000,22.224,,,20,,,,,,,,,,,wg-a,,,,AAXX 18154 07190 12770 /0212 10260 20140 30006 40181 58010 60006 81100 91500=
07190,1996-08-18 18:00:00,24,1017.4,-0.8,50,13,25000,14.816,,,30,14.6,26.3,,,,,,,,,wg-a,,,,AAXX 18184 07190 12775 /0308 10240 20130 39998 40174 55008 60006 81400 91800 333 10263 20146=
07190,1996-08-18 21:00:00,19,1018.1,0.4,73,14,12000,7.408,,,10,,,,,,,,,,,wg-a,,,,AAXX 18214 07190 12/62 00104 10190 20140 30002 40181 50004 60006 80000 92100=
07190,1996-08-19 00:00:00,16,1017.6,-0.7,88,14,12000,11.112,,,350,,,,,,,,,,,wg-a,,,,AAXX 19004 07190 12/62 03506 10160 20140 39995 40176 58007 60006 80000 90000=
07190,1996-08-19 03:00:00,15,1017.1,-0.5,88,13,10000,7.408,,,10,,,,,,,,,,,wg-a,,,,AAXX 19034 07190 12/60 00104 10150 20130 39990 40171 56005 60006 80000 90300=
07190,1996-08-19 06:00:00,16,1017.5,0.4,82,13,9000,7.408,,,350,13.3,24,,,,,,,,,wg-a,,,,AAXX 19064 07190 02/59 03504 10160 20130 39994 40175 52004 60006 80000 90600 333 10240 20133 60004=
07190,1996-08-19 09:00:00,22,1016.7,-0.4,60,14,10000,3.704,,,300,,,,,,,,,,,wg-a,,,,AAXX 19094 07190 12/60 03002 10220 20140 39990 40167 58004 60006 80000 90900=
07190,1996-08-19 12:00:00,27,1015.4,-1,45,14,15000,3.704,,,50,,,,,,,,,,,wg-a,,,,AAXX 19124 07190 12/65 00502 10270 20140 39980 40154 56010 60006 80000 91200=
07190,1996-08-19 15:00:00,29,1013.9,-1.4,40,14,15000,3.704,,,60,,,,,,,,,,,wg-a,,,,AAXX 19154 07190 12765 10602 10290 20140 39966 40139 58014 60006 81200 91500=
07190,1996-08-19 18:00:00,27,1013.1,-0.8,54,17,500,7.408,,,210,15.7,29,,,,,,,,,wg-a,,,,AAXX 19184 07190 12700 12104 10270 20170 39958 40131 55008 60006 81203 91800 333 10290 20157=
07190,1996-08-19 21:00:00,19,1013.9,0.3,83,16,20000,0,,,0,,,,,,,,,,,wg-a,,,,AAXX 19214 07190 12/70 00000 10190 20160 39961 40139 52003 60006 80000 92100=
07190,1996-08-20 00:00:00,16,1014.5,0.4,88,14,15000,3.704,,,290,,,,,,,,,,,wg-a,,,,AAXX 20004 07190 12/65 02902 10160 20140 39965 40145 50004 60006 80000 90000=
07190,1996-08-20 03:00:00,14,1014.4,-0.2,94,13,15000,3.704,,,350,,,,,,,,,,,wg-a,,,,AAXX 20034 07190 12/65 03502 10140 20130 39963 40144 55002 60006 80000 90300=
07190,1996-08-20 06:00:00,16,1014.9,0.5,88,14,15000,3.704,,,330,14,26.5,,,,,,,,,wg-a,,,,AAXX 20064 07190 02665 23302 10160 20140 39968 40149 53005 60006 82800 90600 333 10265 20140 60004=
07190,1996-08-20 09:00:00,23,1014.5,0.1,65,16,15000,3.704,,,90,,,,,,,,,,,wg-a,,,,AAXX 20094 07190 12/65 10902 10230 20160 39969 40145 50001 60006 81030 90900=
07190,1996-08-20 12:00:00,28,1012.9,-1.3,55,18,15000,11.112,,,130,,,,,,,,,,,wg-a,,,,AAXX 20124 07190 12665 21306 10280 20180 39956 40129 58013 60006 82200 91200=
07190,1996-08-20 15:00:00,27,1011.7,-1.2,58,18,500,3.704,,,200,,,,,,,,,,,wg-a,,,,AAXX 20154 07190 12600 42002 10270 20180 39944 40117 56012 60006 83903 91500=
07190,1996-08-20 18:00:00,24,1012,0.1,65,17,15000,11.112,,,280,15.5,28.5,,,,,,,,,wg-a,,,,AAXX 20184 07190 12665 72806 10240 20170 39945 40120 53001 60006 84963 91800 333 10285 20155=
07190,1996-08-20 21:00:00,19,1013.7,1.4,88,17,15000,7.408,,,170,,,,0,,,,,,17,wg-a,,,,AAXX 20214 07190 12765 81704 10190 20170 39959 40137 50014 60007 71798 8496/ 92100=
07190,1996-08-21 00:00:00,17,1013.4,-0.4,94,16,15000,7.408,,,160,,,,,,,,,,1,wg-a,,,,AAXX 21004 07190 12765 71604 10170 20160 39955 40134 57004 60016 70198 82231 90000=
07190,1996-08-21 03:00:00,17,1013.7,0.4,94,16,15000,7.408,,,130,,,,1,,,,,,,wg-a,,,,AAXX 21034 07190 12765 71304 10170 20160 39958 40137 50004 60017 83232 90300=
07190,1996-08-21 06:00:00,17,1013.9,0.2,100,17,7000,0,,,0,17,24.2,,0,,,1,,,21,wg-a,,,,AAXX 21064 07190 02657 70000 10170 20170 39960 40139 53002 60014 72186 8687/ 90600 333 10242 20170 60007=
07190,1996-08-21 09:00:00,22,1013.4,-0.2,78,18,13000,7.408,,,170,,,,,,,,,,,wg-a,,,,AAXX 21094 07190 12463 /1704 10220 20180 39958 40134 58002 60006 82238 90900=
07190,1996-08-21 12:00:00,24,1012.9,-0.4,69,18,25000,11.112,,,180,,,,,,,,,,,wg-a,,,,AAXX 21124 07190 12575 71806 10240 20180 39954 40129 58004 60006 8333/ 91200=
07190,1996-08-21 15:00:00,24,1011.5,-1.4,65,17,500,11.112,,,180,,,,0,,,,,,1,wg-a,,,,AAXX 21154 07190 12500 71806 10240 20170 39940 40115 58014 60007 70198 8197/ 91500=
07190,1996-08-21 18:00:00,23,1011,-0.5,69,17,20000,7.408,,,190,17.3,25.2,,,,,,,,3,wg-a,,,,AAXX 21184 07190 32670 71904 10230 20170 39935 40110 56005 70398 8339/ 91800 333 10252 20173=
07190,1996-08-21 21:00:00,20,1012.1,0.9,83,17,20000,7.408,,,20,,,,,,,,,,,wg-a,,,,AAXX 21214 07190 12670 /0204 10200 20170 39944 40121 51009 60006 82562 92100=
07190,1996-08-22 00:00:00,17,1011.8,-0.5,94,16,15000,3.704,,,340,,,,,,,,,,,wg-a,,,,AAXX 22004 07190 12565 33402 10170 20160 39939 40118 58005 60006 83502 90000=
07190,1996-08-22 03:00:00,15,1011.4,-0.5,100,15,15000,3.704,,,110,,,,,,,,,,,wg-a,,,,AAXX 22034 07190 12565 21102 10150 20150 39934 40114 58005 60006 82501 90300=
07190,1996-08-22 06:00:00,16,1012.2,0.8,100,16,4000,3.704,,,200,14.8,22.7,,,,,,,,10,wg-a,,,,AAXX 22064 07190 02140 72002 10160 20160 39942 40122 52008 60006 71011 8453/ 90600 333 10227 20148 60004=
07190,1996-08-22 09:00:00,20,1012.6,0.8,83,17,8000,3.704,,,170,,,,,,,,,,,wg-a,,,,AAXX 22094 07190 12558 71702 10200 20170 39949 40126 51008 60006 8583/ 90900=
07190,1996-08-22 12:00:00,21,1012.7,0.1,73,16,9000,18.52,,,330,,,,,,,,,,17,wg-a,,,,AAXX 22124 07190 12559 73310 10210 20160 39950 40127 53001 60006 71792 8693/ 91200=
07190,1996-08-22 15:00:00,20,1013,0.3,88,18,10000,7.408,,,240,,,,0,,,,,,29,wg-a,,,,AAXX 22154 07190 12560 72404 10200 20180 39953 40130 53003 60007 72998 8593/ 91500=
07190,1996-08-22 18:00:00,18,1013.3,0.1,94,17,7000,7.408,,,180,16.2,23.7,,1,,,,,,21,wg-a,,,,AAXX 22184 07190 12257 71804 10180 20170 39955 40133 53001 60017 72198 84872 91800 333 10237 20162=
07190,1996-08-22 21:00:00,17,1015,1.5,94,16,4500,3.704,,,210,,,,,,,,,,11,wg-a,,,,AAXX 22214 07190 12145 72102 10170 20160 39970 40150 51015 60006 71122 81632 92100=
07190,1996-08-23 00:00:00,16,1014.8,-0.2,100,16,3000,0,,,0,,,,,,,,,,10,wg-a,,,,AAXX 23004 07190 12630 /0000 10160 20160 39968 40148 56002 60006 71022 85530 90000=
07190,1996-08-23 03:00:00,16,1014,-0.8,94,15,3000,7.408,,,170,,,,0,,,,,,,wg-a,,,,AAXX 23034 07190 12130 71704 10160 20150 39960 40140 58008 60007 876// 90300=
07190,1996-08-23 06:00:00,16,1014,-0,100,16,1800,3.704,,,160,14.8,18.1,,,,,2,,,28,wg-a,,,,AAXX 23064 07190 12218 81602 10160 20160 39960 40140 55000 60024 72842 876// 90600 333 10181 20148=
07190,1996-08-23 09:00:00,18,1013.4,-0.5,88,16,4000,3.704,,,170,,,,,,,,,,10,wg-a,,,,AAXX 23094 07190 12140 71702 10180 20160 39955 40134 57005 60006 71022 876// 90900=
07190,1996-08-23 12:00:00,24,1011.9,-1.1,61,16,25000,7.408,,,200,,,,,,,,,,,wg-a,,,,AAXX 23124 07190 12575 22004 10240 20160 39944 40119 58011 60006 81201 91200=
07190,1996-08-23 15:00:00,27,1010,-1.7,48,15,500,11.112,,,160,,,,,,,,,,,wg-a,,,,AAXX 23154 07190 12600 21606 10270 20150 39927 40100 56017 60006 81240 91500=
07190,1996-08-23 18:00:00,24,1010.3,0.2,61,16,35000,3.704,,,170,16,26.9,,,,,,,,,wg-a,,,,AAXX 23184 07190 12681 71702 10240 20160 39929 40103 53002 60006 81270 91800 333 10269 20160=
07190,1996-08-23 21:00:00,21,1011.9,1.3,69,15,25000,7.408,,,210,,,,,,,,,,2,wg-a,,,,AAXX 23214 07190 02675 72104 10210 20150 39942 40119 51013 61000 70262 83870 92100 333 ////=
07190,1996-08-24 00:00:00,19,1013.3,1.3,83,16,10000,3.704,,,270,,,,0,,,,,,21,wg-a,,,,AAXX 24004 07190 02560 82702 10190 20160 39955 40133 51013 60006 72162 8487/ 90000 333 60007=
07190,1996-08-24 03:00:00,17,1013.1,-0.2,94,16,10000,7.408,,,190,,,,,,,,,,,wg-a,,,,AAXX 24034 07190 12760 81904 10170 20160 39952 40131 58002 60006 8557/ 90300=
07190,1996-08-24 06:00:00,17,1013.6,0.4,88,15,25000,7.408,,,170,16.6,24.1,,0,,,,,,3,wg-a,,,,AAXX 24064 07190 02675 71704 10170 20150 39956 40136 53004 60004 70362 85482 90600 333 10241 20166 60007=
07190,1996-08-24 09:00:00,21,1013.5,0.2,69,15,25000,14.816,,,160,,,,,,,,,,,wg-a,,,,AAXX 24094 07190 12575 51608 10210 20150 39958 40135 50002 60006 83232 90900=
07190,1996-08-24 12:00:00,22,1012.2,-1.2,65,15,25000,18.52,,,150,,,,,,,,,,,wg-a,,,,AAXX 24124 07190 12675 51510 10220 20150 39946 40122 58012 60006 85800 91200=
07190,1996-08-24 15:00:00,25,1010.5,-1.5,39,10,40000,22.224,,,210,,,,,,,,,,,wg-a,,,,AAXX 24154 07190 12782 52112 10250 20100 39931 40105 56015 60006 83802 91500=
07190,1996-08-24 18:00:00,22,1011.2,0.5,50,11,50000,11.112,,,230,16.7,25.3,,,,,,,,,wg-a,,,,AAXX 24184 07190 12784 32306 10220 20110 39936 40112 53005 60006 82843 91800 333 10253 20167=
07190,1996-08-24 21:00:00,16,1012.7,1.1,77,12,40000,7.408,,,220,,,,,,,,,,,wg-a,,,,AAXX 24214 07190 12882 32204 10160 20120 39947 40127 51011 60006 82430 92100=
07190,1996-08-25 00:00:00,15,1013.7,1,88,13,500,3.704,,,170,,,,,,,,,,,wg-a,,,,AAXX 25004 07190 12800 51702 10150 20130 39956 40137 51010 60006 83530 90000=
07190,1996-08-25 03:00:00,14,1013.6,-0.1,88,12,500,7.408,,,200,,,,,,,,,,,wg-a,,,,AAXX 25034 07190 12800 52004 10140 20120 39955 40136 57001 60006 83530 90300=
07190,1996-08-25 06:00:00,15,1014.6,1,94,14,500,0,,,0,13.1,21.8,,,,,,,,,wg-a,,,,AAXX 25064 07190 02700 20000 10150 20140 39965 40146 53010 60006 82800 90600 333 10218 20131 60004=
07190,1996-08-25 09:00:00,21,1014.9,0.6,56,12,40000,11.112,,,260,,,,,,,,,,,wg-a,,,,AAXX 25094 07190 12582 62606 10210 20120 39971 40149 51006 60006 86840 90900=
07190,1996-08-25 12:00:00,23,1014,-0.7,41,9,15000,18.52,,,230,,,,,,,,,,1,wg-a,,,,AAXX 25124 07190 02665 32310 10230 20090 39964 40140 58007 61000 70182 83800 91200 333 6100=
07190,1996-08-25 15:00:00,23,1013.7,-0.3,41,9,60000,11.112,,,250,,,,,,,,,,,wg-a,,,,AAXX 25154 07190 12786 42506 10230 20090 39961 40137 58003 60006 84801 91500=
07190,1996-08-25 18:00:00,20,1014.1,0.2,56,11,75000,7.408,,,270,14.6,23.7,,,,,,,,,wg-a,,,,AAXX 25184 07190 32789 32704 10200 20110 39963 40141 53002 82432 91800 333 10237 20146=
07190,1996-08-25 21:00:00,15,1015.9,1.4,82,12,20000,3.704,,,120,,,,,,,,,,,wg-a,,,,AAXX 25214 07190 12870 31202 10150 20120 39977 40159 51014 60006 83501 92100=
07190,1996-08-26 00:00:00,13,1015.8,-0.2,88,11,0,0,,,0,,,,,,,,,,,wg-a,,,,AAXX 26004 07190 12/// /0000 10130 20110 39975 40158 58002 60006 90000=
07190,1996-08-26 03:00:00,12,1015.5,-0.3,94,11,15000,3.704,,,120,,,,,,,,,,,wg-a,,,,AAXX 26034 07190 12765 41202 10120 20110 39972 40155 58003 60006 84501 90300=
07190,1996-08-26 06:00:00,14,1015.7,0.3,88,12,40000,3.704,,,170,11.5,19.5,,,,,,,,,wg-a,,,,AAXX 26064 07190 02782 /1702 10140 20120 39975 40157 53003 60006 85802 90600 333 10195 20115 61000=
07190,1996-08-26 09:00:00,19,1015.8,0.4,73,14,50000,3.704,,,170,,,,,,,,,,,wg-a,,,,AAXX 26094 07190 12684 71702 10190 20140 39979 40158 51004 60006 86802 90900=
07190,1996-08-26 12:00:00,21,1015.4,-0.2,56,12,10000,18.52,,,340,,,,,,,,,,15,wg-a,,,,AAXX 26124 07190 12660 63410 10210 20120 39977 40154 57002 60006 71511 8493/ 91200=
07190,1996-08-26 15:00:00,18,1014.7,-0.9,83,15,500,0,,,0,,,,1,,,,,,25,wg-a,,,,AAXX 26154 07190 12600 /0000 10180 20150 39968 40147 58009 60017 72598 8593/ 91500=
07190,1996-08-26 18:00:00,16,1015.5,0.7,94,15,15000,11.112,,,320,13.6,22,,2,,,,,,25,wg-a,,,,AAXX 26184 07190 12665 73206 10160 20150 39975 40155 50007 60027 72598 879// 91800 333 10220 20136=
07190,1996-08-26 21:00:00,15,1017.1,1.4,94,14,15000,7.408,,,290,,,,,,,,,,,wg-a,,,,AAXX 26214 07190 12665 72904 10150 20140 39989 40171 51014 60006 83832 92100=
07190,1996-08-27 00:00:00,14,1016.7,-0.3,100,14,15000,3.704,,,250,,,,0,,,,,,,wg-a,,,,AAXX 27004 07190 02765 72502 10140 20140 39985 40167 57003 60006 81532 90000 333 60007=
07190,1996-08-27 03:00:00,14,1016.8,0.1,94,13,10000,0,,,0,,,,,,,,,,,wg-a,,,,AAXX 27034 07190 12/60 70000 10140 20130 39986 40168 52001 60006 85032 90300=
07190,1996-08-27 06:00:00,14,1017.3,0.5,100,14,700,0,,,0,12.7,16.3,,,,,3,,,41,wg-a,,,,AAXX 27064 07190 12/07 90000 10140 20140 39991 40173 53005 60034 74141 89/// 90600 333 10163 20127=
07190,1996-08-27 09:00:00,18,1017.2,0.1,83,15,8000,3.704,,,190,,,,,,,,,,1,wg-a,,,,AAXX 27094 07190 12358 /1902 10180 20150 39992 40172 50001 60006 70142 85502 90900=
07190,1996-08-27 12:00:00,23,1015,-1.8,57,14,40000,7.408,,,160,,,,,,,,,,3,wg-a,,,,AAXX 27124 07190 12682 41604 10230 20140 39974 40150 58018 60006 70341 82402 91200=
07190,1996-08-27 15:00:00,23,1013.4,-1.6,50,12,40000,3.704,,,340,,,,,,,,,,,wg-a,,,,AAXX 27154 07190 12682 73402 10230 20120 39958 40134 56016 60006 84966 91500=
07190,1996-08-27 21:00:00,16,1014.9,0.9,82,13,25000,3.704,,,300,,,,,,,,,,1,wg-a,,,,AAXX 27214 07190 12675 83002 10160 20130 39969 40149 50009 60006 70192 8382/ 92100=
07190,1996-08-28 00:00:00,15,1014.7,-0.3,94,14,25000,3.704,,,170,,,,,,,,,,3,wg-a,,,,AAXX 28004 07190 12575 81702 10150 20140 39966 40147 58003 60006 70392 878// 90000=
07190,1996-08-28 03:00:00,15,1014,-0.7,94,14,12000,3.704,,,320,,,,,,,,,,,wg-a,,,,AAXX 28034 07190 12262 83202 10150 20140 39959 40140 57007 60006 8687/ 90300=
07190,1996-08-28 06:00:00,15,1014.7,0.7,94,14,9000,7.408,,,210,14.4,19.8,,1,,,1,,,3,wg-a,,,,AAXX 28064 07190 02259 72104 10150 20140 39966 40147 51007 60014 70365 8587/ 90600 333 10198 20144 60017=
07190,1996-08-28 09:00:00,17,1015,0.4,72,12,15000,22.224,,,250,,,,,,,,,,,wg-a,,,,AAXX 28094 07190 12565 62512 10170 20120 39970 40150 53004 60006 8587/ 90900=
07190,1996-08-28 12:00:00,19,1014.6,-0.3,52,9,20000,25.928,,,250,,,,,,,,,,,wg-a,,,,AAXX 28124 07190 12670 62514 10190 20090 39967 40146 56003 60006 84860 91200=
07190,1996-08-28 15:00:00,18,1014.9,0.3,59,10,20000,14.816,,,240,,,,,,,,,,3,wg-a,,,,AAXX 28154 07190 02670 62408 10180 20100 39970 40149 50003 61000 70386 84860 91500 333 ////=
07190,1996-08-28 18:00:00,16,1015.1,0.1,63,9,500,14.816,,,250,14.7,19.9,,,,,,,,1,wg-a,,,,AAXX 28184 07190 32600 52508 10160 20090 39971 40151 53001 70186 83832 91800 333 10199 20147=
07190,1996-08-28 21:00:00,13,1016.2,0.9,82,10,15000,11.112,,,210,,,,,,,,,,,wg-a,,,,AAXX 28214 07190 12665 42106 10130 20100 39979 40162 51009 60006 81832 92100=
07190,1996-08-29 00:00:00,11,1015.9,-0.5,94,10,15000,14.816,,,170,,,,,,,,,,,wg-a,,,,AAXX 29004 07190 12/65 71708 10110 20100 39975 40159 58005 60006 86032 90000=
07190,1996-08-29 03:00:00,11,1015.2,-0.7,94,10,15000,18.52,,,170,,,,,,,,,,,wg-a,,,,AAXX 29034 07190 12/65 71710 10110 20100 39968 40152 56007 60006 8707/ 90300=
07190,1996-08-29 06:00:00,12,1014.3,-0.7,82,9,25000,18.52,,,160,11.1,16.3,,,,,,,,,wg-a,,,,AAXX 29064 07190 02675 /1610 10120 20090 39960 40143 58007 60006 82830 90600 333 10163 20111 61000=
07190,1996-08-29 09:00:00,17,1014.3,0.3,68,11,25000,22.224,,,180,,,,,,,,,,,wg-a,,,,AAXX 29094 07190 12675 51812 10170 20110 39963 40143 51003 60006 83840 90900=
07190,1996-08-29 12:00:00,19,1013.6,-0.6,49,8,500,35.188,,,230,,,,,,,,,,,wg-a,,,,AAXX 29124 07190 12600 52319 10190 20080 39957 40136 55006 60006 85804 91200=
07190,1996-08-29 15:00:00,21,1013.1,-0.3,43,8,35000,29.632,,,220,,,,,,,,,,,wg-a,,,,AAXX 29154 07190 12681 42216 10210 20080 39954 40131 57003 60006 84801 91500=
07190,1996-08-29 18:00:00,18,1014.1,0.9,56,9,35000,25.928,,,220,11.5,21.4,,,,,,,,,wg-a,,,,AAXX 29184 07190 12681 72214 10180 20090 39962 40141 53009 60006 878// 91800 333 10214 20115=
07190,1996-08-29 21:00:00,15,1016.3,1.9,72,10,20000,18.52,,,250,,,,0,,,,,,21,wg-a,,,,AAXX 29214 07190 12770 72510 10150 20100 39982 40163 51019 60007 72162 875// 92100=
07190,1996-08-30 00:00:00,13,1017.3,0.7,77,9,500,14.816,,,180,,,,,,,,,,1,wg-a,,,,AAXX 30004 07190 12700 71808 10130 20090 39990 40173 51007 60016 70162 8557/ 90000=
07190,1996-08-30 03:00:00,13,1017.1,-0.3,82,10,500,11.112,,,170,,,,,,,,,,,wg-a,,,,AAXX 30034 07190 12700 71706 10130 20100 39988 40171 58003 60006 8357/ 90300=
07190,1996-08-30 06:00:00,12,1018,0.9,94,11,15000,14.816,,,180,12.4,18.2,,0,,,1,,,21,wg-a,,,,AAXX 30064 07190 02565 81808 10120 20110 39997 40180 53009 60014 72162 8587/ 90600 333 10182 20124 60007=
07190,1996-08-30 09:00:00,17,1018.9,1.2,72,12,11000,22.224,,,180,,,,,,,,,,,wg-a,,,,AAXX 30094 07190 12/61 /1812 10170 20120 30009 40189 53012 60006 90900=
07190,1996-08-30 12:00:00,19,1018.8,-0,56,10,500,14.816,,,230,,,,,,,,,,,wg-a,,,,AAXX 30124 07190 12600 72308 10190 20100 30009 40188 54000 60006 8483/ 91200=
07190,1996-08-30 15:00:00,19,1019.3,0.5,56,10,500,11.112,,,280,,,,,,,,,,,wg-a,,,,AAXX 30154 07190 12600 72806 10190 20100 30014 40193 53005 60006 8687/ 91500=
07190,1996-08-30 18:00:00,17,1020.9,1.4,68,11,25000,3.704,,,310,,20.4,,,,,,,,,wg-a,,,,AAXX 30184 07190 12575 73102 10170 20110 30028 40209 52014 60006 8587/ 91800 333 10204=
07190,1996-08-30 21:00:00,14,1022.3,1.2,82,11,15000,7.408,,,270,,,,,,,,,,,wg-a,,,,AAXX 30214 07190 12565 72704 10140 20110 30040 40223 51012 60006 8587/ 92100=
07190,1996-08-31 00:00:00,15,1022.7,0.4,82,12,10000,7.408,,,250,,,,,,,,,,,wg-a,,,,AAXX 31004 07190 12460 72504 10150 20120 30044 40227 51004 60006 875// 90000=
07190,1996-08-31 03:00:00,14,1022.8,-0.1,88,12,10000,3.704,,,290,,,,,,,,,,,wg-a,,,,AAXX 31034 07190 12560 72902 10140 20120 30045 40228 58001 60006 875// 90300=
07190,1996-08-31 06:00:00,12,1023.8,1,94,11,9000,3.704,,,300,12.3,16.6,,,,,,,,,wg-a,,,,AAXX 31064 07190 02659 43002 10120 20110 30054 40238 53010 60006 83832 90600 333 10166 20123 60004=
07190,1996-08-31 09:00:00,16,1024.3,0.7,68,10,15000,11.112,,,300,,,,,,,,,,,wg-a,,,,AAXX 31094 07190 12565 /3006 10160 20100 30061 40243 51007 60006 86830 90900=
07190,1996-08-31 12:00:00,19,1023.7,-0.4,52,9,18000,14.816,,,320,,,,,,,,,,,wg-a,,,,AAXX 31124 07190 12668 /3208 10190 20090 30057 40237 58004 60006 86800 91200=
07190,1996-08-31 15:00:00,18,1023.8,0,56,9,18000,11.112,,,310,,,,,,,,,,,wg-a,,,,AAXX 31154 07190 12668 73106 10180 20090 30057 40238 50000 60006 874// 91500=
07190,1996-08-31 18:00:00,16,1024.3,0.4,68,10,500,11.112,,,320,12.3,19.1,,,,,,,,,wg-a,,,,AAXX 31184 07190 12600 73206 10160 20100 30061 40243 53004 60006 878// 91800 333 10191 20123=
07190,1996-08-31 21:00:00,14,1025.3,0.8,77,10,25000,7.408,,,330,,,,,,,,,,,wg-a,,,,AAXX 31214 07190 12675 73304 10140 20100 30069 40253 51008 60006 878// 92100=
07190,1996-09-01 00:00:00,12,1025.5,0.1,94,11,7000,11.112,,,20,,,,1,,,,,,,wg-a,,,,AAXX 01004 07190 02257 80206 10120 20110 30070 40255 53001 60016 888// 90000 333 60017=
07190,1996-09-01 03:00:00,12,1025.8,0.3,94,11,7000,3.704,,,330,,,,3,,,,,,21,wg-a,,,,AAXX 01034 07190 12557 83302 10120 20110 30073 40258 52003 60037 72162 885// 90300=
07190,1996-09-01 06:00:00,12,1026.1,0.3,88,10,15000,11.112,,,340,11.5,15.7,,,,,3,,,1,wg-a,,,,AAXX 01064 07190 12565 73406 10120 20100 30076 40261 53003 60034 70162 8683/ 90600 333 10157 20115=
07190,1996-09-01 09:00:00,14,1026.8,0.8,77,10,15000,11.112,,,30,,,,,,,,,,,wg-a,,,,AAXX 01094 07190 12465 60306 10140 20100 30084 40268 53008 60006 86300 90900=
07190,1996-09-01 12:00:00,16,1026.1,-0.7,68,10,15000,18.52,,,20,,,,,,,,,,,wg-a,,,,AAXX 01124 07190 12565 70210 10160 20100 30078 40261 56007 60006 878// 91200=
07190,1996-09-01 15:00:00,17,1025.6,-0.4,59,9,15000,11.112,,,340,,,,,,,,,,,wg-a,,,,AAXX 01154 07190 12665 73406 10170 20090 30074 40256 58004 60006 83830 91500=
07190,1996-09-01 18:00:00,16,1025.5,-0.2,68,10,25000,7.408,,,40,11.2,17.3,,,,,,,,,wg-a,,,,AAXX 01184 07190 12675 30404 10160 20100 30072 40255 55002 60006 83830 91800 333 10173 20112=
07190,1996-09-01 21:00:00,10,1026.1,0.3,93,9,20000,0,,,0,,,,,,,,,,,wg-a,,,,AAXX 01214 07190 12/70 20000 10100 20090 30075 40261 51003 60006 82030 92100=
07190,1996-09-02 00:00:00,9,1026.3,0.1,93,8,15000,7.408,,,340,,,,,,,,,,,wg-a,,,,AAXX 02004 07190 12/65 23404 10090 20080 30076 40263 53001 60006 82030 90000=
07190,1996-09-02 03:00:00,8,1025.6,-0.8,87,6,15000,7.408,,,350,,,,,,,,,,,wg-a,,,,AAXX 02034 07190 12/65 23504 10080 20060 30068 40256 55008 60006 80001 90300=
07190,1996-09-02 06:00:00,9,1025.1,-0.4,87,7,15000,11.112,,,360,7.8,15.4,,,,,,,,,wg-a,,,,AAXX 02064 07190 02665 /3606 10090 20070 30064 40251 56004 60006 81832 90600 333 10154 20078 60004=
07190,1996-09-02 09:00:00,16,1024.4,-0.2,68,10,15000,22.224,,,30,,,,,,,,,,,wg-a,,,,AAXX 02094 07190 12565 20312 10160 20100 30062 40244 58002 60006 81832 90900=
07190,1996-09-02 10:00:00,18,1021.7,,49,7,40000,14.816,,,10,,,,,,,,,,,wg-a,,,,AAXX 02104 07190 12782 30108 10180 20070 30036 40217 60006 8/004 91000=
07190,1996-09-02 12:00:00,18,1023.3,-1,56,9,25000,29.632,,,30,,,,,,,,,,,wg-a,,,,AAXX 02124 07190 12675 50316 10180 20090 30052 40233 58010 60006 82832 91200=
07190,1996-09-02 15:00:00,20,1021.9,-1.2,46,8,25000,29.632,,,30,,,,,,,,,,,wg-a,,,,AAXX 02154 07190 12675 60316 10200 20080 30040 40219 58012 60006 82442 91500=
07190,1996-09-02 18:00:00,18,1021.7,-0.4,49,7,40000,14.816,,,10,9.4,20.3,,,,,,,,,wg-a,,,,AAXX 02184 07190 12782 30108 10180 20070 30036 40217 55004 60006 82542 91800 333 10203 20094=
07190,1996-09-02 21:00:00,14,1022.2,0.3,72,9,500,11.112,,,20,,,,,,,,,,,wg-a,,,,AAXX 02214 07190 12700 30206 10140 20090 30039 40222 50003 60006 82540 92100=
07190,1996-09-03 00:00:00,12,1021.3,-1,76,8,25000,11.112,,,350,,,,,,,,,,,wg-a,,,,AAXX 03004 07190 12775 13506 10120 20080 30029 40213 58010 60006 81500 90000=
07190,1996-09-03 03:00:00,12,1020.1,-1.2,76,8,2500,7.408,,,350,,,,,,,,,,,wg-a,,,,AAXX 03034 07190 12725 /3504 10120 20080 30017 40201 56012 60006 81500 90300=
07190,1996-09-03 06:00:00,12,1019.5,-0.6,76,8,18000,18.52,,,30,11,18,,,,,,,,,wg-a,,,,AAXX 03064 07190 02668 70310 10120 20080 30011 40195 57006 60006 8257/ 90600 333 10180 20110 60004=
07190,1996-09-03 09:00:00,13,1019.5,0.1,88,11,18000,18.52,,,20,,,,0,,,,,,21,wg-a,,,,AAXX 03094 07190 12568 70210 10130 20110 30012 40195 51001 60007 72162 8587/ 90900=
07190,1996-09-03 12:00:00,19,1018.3,-0.8,60,11,18000,25.928,,,20,,,,,,,,,,1,wg-a,,,,AAXX 03124 07190 12568 50214 10190 20110 30004 40183 58008 60006 70162 85841 91200=
07190,1996-09-03 15:00:00,22,1017,-1.1,57,13,15000,22.224,,,30,,,,,,,,,,,wg-a,,,,AAXX 03154 07190 12665 40312 10220 20130 39993 40170 58011 60006 83801 91500=
07190,1996-09-03 18:00:00,20,1016.7,-0.4,60,12,15000,18.52,,,20,11.8,22.3,,,,,,,,,wg-a,,,,AAXX 03184 07190 32665 30210 10200 20120 39989 40167 55004 81801 91800 333 10223 20118=
07190,1996-09-04 00:00:00,16,1017.2,-0.5,77,12,10000,18.52,,,10,,,,,,,,,,,wg-a,,,,AAXX 04004 07190 12/60 00110 10160 20120 39991 40172 58005 60006 80000 90000=
07190,1996-09-04 03:00:00,14,1017,-0.4,82,11,10000,14.816,,,350,,,,,,,,,,,wg-a,,,,AAXX 04034 07190 12/60 03508 10140 20110 39988 40170 57004 60006 80000 90300=
07190,1996-09-04 06:00:00,14,1017.3,0.3,82,11,12000,14.816,,,20,13.5,20.2,,,,,,,,,wg-a,,,,AAXX 04064 07190 02762 20208 10140 20110 39991 40173 53003 60006 81540 90600 333 10202 20135 60004=
07190,1996-09-04 09:00:00,19,1017,-0,68,13,12000,22.224,,,20,,,,,,,,,,,wg-a,,,,AAXX 04094 07190 12662 /0212 10190 20130 39991 40170 55000 60006 81100 90900=
07190,1996-09-04 12:00:00,23,1015.9,-0.8,53,13,18000,22.224,,,30,,,,,,,,,,,wg-a,,,,AAXX 04124 07190 12668 /0312 10230 20130 39983 40159 58008 60006 81100 91200=
07190,1996-09-04 15:00:00,24,1014.9,-0.9,50,13,15000,18.52,,,30,,,,,,,,,,,wg-a,,,,AAXX 04154 07190 12665 20310 10240 20130 39974 40149 57009 60006 82801 91500=
07190,1996-09-04 18:00:00,22,1015.4,0.3,53,12,18000,11.112,,,20,14.2,24.6,,,,,,,,,wg-a,,,,AAXX 04184 07190 12668 30206 10220 20120 39977 40154 52003 60006 83801 91800 333 10246 20142=
07190,1996-09-04 21:00:00,16,1016.3,0.5,77,12,18000,11.112,,,350,,,,,,,,,,,wg-a,,,,AAXX 04214 07190 12/68 13506 10160 20120 39982 40163 50005 60006 80001 92100=
07190,1996-09-05 00:00:00,15,1016.3,-0,77,11,18000,11.112,,,350,,,,,,,,,,,wg-a,,,,AAXX 05004 07190 12768 13506 10150 20110 39982 40163 54000 60006 81501 90000=
07190,1996-09-05 03:00:00,12,1016.5,-0,94,11,12000,7.408,,,320,,,,,,,,,,,wg-a,,,,AAXX 05034 07190 12/62 03204 10120 20110 39982 40165 54000 60006 80000 90300=
07190,1996-09-05 06:00:00,12,1017.1,0.6,94,11,7000,7.408,,,330,11.6,21.5,,,,,,,,,wg-a,,,,AAXX 05064 07190 02757 23304 10120 20110 39988 40171 52006 60006 81580 90600 333 10215 20116 60004=
07190,1996-09-05 09:00:00,18,1017.3,0.6,73,13,8000,14.816,,,30,,,,,,,,,,,wg-a,,,,AAXX 05094 07190 12458 /0308 10180 20130 39994 40173 51006 60006 81230 90900=
07190,1996-09-05 12:00:00,22,1016.3,-0.8,50,11,12000,22.224,,,30,,,,,,,,,,,wg-a,,,,AAXX 05124 07190 12662 /0312 10220 20110 39986 40163 57008 60006 81200 91200=
07190,1996-09-05 15:00:00,23,1015.6,-0.7,44,10,12000,18.52,,,30,,,,,,,,,,,wg-a,,,,AAXX 05154 07190 12762 /0310 10230 20100 39979 40156 56007 60006 81200 91500=
07190,1996-09-05 18:00:00,19,1015.9,0.1,56,10,25000,7.408,,,10,12.3,23.1,,,,,,,,,wg-a,,,,AAXX 05184 07190 12875 10104 10190 20100 39980 40159 53001 60006 81500 91800 333 10231 20123=
07190,1996-09-05 21:00:00,13,1017.3,1,77,9,20000,7.408,,,350,,,,,,,,,,,wg-a,,,,AAXX 05214 07190 12/70 03504 10130 20090 39990 40173 51010 60006 80000 92100=
07190,1996-09-06 00:00:00,10,1018.2,0.7,82,7,15000,7.408,,,350,,,,,,,,,,,wg-a,,,,AAXX 06004 07190 12/65 03504 10100 20070 39997 40182 51007 60006 80000 90000=
07190,1996-09-06 03:00:00,8,1018.5,0.2,87,6,15000,3.704,,,310,,,,,,,,,,,wg-a,,,,AAXX 06034 07190 12/65 03102 10080 20060 39999 40185 53002 60006 80000 90300=
07190,1996-09-06 06:00:00,9,1019.3,0.8,87,7,25000,7.408,,,320,7.5,19,,,,,,,,,wg-a,,,,AAXX 06064 07190 02575 13204 10090 20070 30007 40193 53008 60006 81101 90600 333 10190 20075 60004=
07190,1996-09-06 09:00:00,16,1019.4,0.7,59,8,25000,11.112,,,350,,,,,,,,,,,wg-a,,,,AAXX 06094 07190 12675 /3506 10160 20080 30013 40194 51007 60006 81231 90900=
07190,1996-09-06 12:00:00,19,1018.2,-1.1,40,5,500,14.816,,,340,,,,,,,,,,,wg-a,,,,AAXX 06124 07190 12600 23408 10190 20050 30003 40182 56011 60006 81231 91200=
07190,1996-09-06 15:00:00,21,1016.7,-1.4,35,5,500,11.112,,,30,,,,,,,,,,,wg-a,,,,AAXX 06154 07190 12700 10306 10210 20050 39989 40167 56014 60006 81231 91500=
07190,1996-09-06 18:00:00,17,1017,0.1,45,5,40000,3.704,,,320,8.8,20.5,,,,,,,,,wg-a,,,,AAXX 06184 07190 12782 23202 10170 20050 39989 40170 53001 60006 82401 91800 333 10205 20088=
07190,1996-09-06 21:00:00,11,1018.9,1.5,71,6,25000,11.112,,,330,,,,,,,,,,,wg-a,,,,AAXX 06214 07190 12775 13306 10110 20060 30004 40189 53015 60006 81500 92100=
07190,1996-09-07 00:00:00,11,1020.1,1.2,76,7,20000,7.408,,,300,,,,,,,,,,,wg-a,,,,AAXX 07004 07190 12770 33004 10110 20070 30016 40201 51012 60006 83500 90000=
07190,1996-09-07 03:00:00,9,1021.2,1,81,6,20000,14.816,,,10,,,,,,,,,,,wg-a,,,,AAXX 07034 07190 12/70 00108 10090 20060 30026 40212 52010 60006 80000 90300=
07190,1996-09-07 06:00:00,8,1023,1.7,81,5,25000,7.408,,,10,6.7,16.7,,,,,,,,,wg-a,,,,AAXX 07064 07190 02575 /0104 10080 20050 30043 40230 53017 60006 81100 90600 333 10167 20067 60004=
07190,1996-09-07 09:00:00,14,1023.9,1.2,55,5,35000,14.816,,,40,,,,,,,,,,,wg-a,,,,AAXX 07094 07190 12681 /0408 10140 20050 30055 40239 52012 60006 81100 90900=
07190,1996-09-07 12:00:00,17,1023.3,-0.4,36,2,60000,14.816,,,360,,,,,,,,,,,wg-a,,,,AAXX 07124 07190 12686 /3608 10170 20020 30051 40233 57004 60006 81100 91200=
07190,1996-09-07 15:00:00,18,1022.4,-0.8,26,-2,60000,11.112,,,10,,,,,,,,,,,wg-a,,,,AAXX 07154 07190 12786 10106 10180 21020 30043 40224 56008 60006 81100 91500=
07190,1996-09-07 18:00:00,15,1022.9,0.3,44,3,60000,11.112,,,50,7.8,18.7,,,,,,,,,wg-a,,,,AAXX 07184 07190 12786 10506 10150 20030 30046 40229 51003 60006 81100 91800 333 10187 20078=
07190,1996-09-07 21:00:00,8,1024,0.6,81,5,40000,3.704,,,300,,,,,,,,,,,wg-a,,,,AAXX 07214 07190 12/82 03002 10080 20050 30052 40240 51006 60006 80000 92100=
07190,1996-09-08 00:00:00,6,1024.1,0,87,4,20000,7.408,,,330,,,,,,,,,,,wg-a,,,,AAXX 08004 07190 12/70 03304 10060 20040 30052 40241 50000 60006 80000 90000=
07190,1996-09-08 03:00:00,5,1023.3,-0.9,87,3,20000,11.112,,,320,,,,,,,,,,,wg-a,,,,AAXX 08034 07190 12/70 03206 10050 20030 30043 40233 56009 60006 80000 90300=
07190,1996-09-08 06:00:00,7,1023.4,0.3,87,5,25000,7.408,,,330,4.4,14.9,,,,,,,,,wg-a,,,,AAXX 08064 07190 02775 63304 10070 20050 30046 40234 53003 60006 86500 90600 333 10149 20044 60004=
07190,1996-09-08 09:00:00,15,1022.9,0,55,6,25000,14.816,,,30,,,,,,,,,,,wg-a,,,,AAXX 08094 07190 12575 50308 10150 20060 30046 40229 50000 60006 83801 90900=
07190,1996-09-08 12:00:00,18,1021.4,-1.3,34,2,40000,18.52,,,40,,,,,,,,,,,wg-a,,,,AAXX 08124 07190 12782 40410 10180 20020 30033 40214 57013 60006 84400 91200=
07190,1996-09-08 15:00:00,17,1020.6,-1.1,42,4,50000,22.224,,,50,,,,,,,,,,,wg-a,,,,AAXX 08154 07190 12784 50512 10170 20040 30025 40206 57011 60006 85400 91500=
07190,1996-09-08 18:00:00,15,1020.8,0,48,4,60000,7.408,,,30,7.1,18,,,,,,,,,wg-a,,,,AAXX 08184 07190 12786 60304 10150 20040 30025 40208 50000 60006 854/1 91800 333 10180 20071=
07190,1996-09-08 21:00:00,11,1021,0,71,6,40000,7.408,,,350,,,,,,,,,,,wg-a,,,,AAXX 08214 07190 12782 73504 10110 20060 30025 40210 50000 60006 825/2 92100=
07190,1996-09-09 00:00:00,9,1020.7,-0.5,81,6,500,7.408,,,10,,,,,,,,,,,wg-a,,,,AAXX 09004 07190 12/00 20104 10090 20060 30020 40207 58005 60006 81031 90000=
07190,1996-09-09 03:00:00,5,1020.8,-0.1,93,4,500,3.704,,,330,,,,,,,,,,,wg-a,,,,AAXX 09034 07190 12/00 03302 10050 20040 30019 40208 55001 60006 80000 90300=
07190,1996-09-09 06:00:00,7,1021.3,0.6,93,6,12000,11.112,,,340,5,14.6,,,,,,,,,wg-a,,,,AAXX 09064 07190 02/62 43406 10070 20060 30025 40213 53006 60006 81032 90600 333 10146 20050 60004=
07190,1996-09-09 09:00:00,14,1021.2,0.4,67,8,15000,14.816,,,10,,,,,,,,,,,wg-a,,,,AAXX 09094 07190 12665 30108 10140 20080 30029 40212 53004 60006 81201 90900=
07190,1996-09-09 12:00:00,19,1020.1,-0.8,40,5,40000,22.224,,35.188,40,,,,,,,,,,,wg-a,,,,AAXX 09124 07190 12782 20412 10190 20050 30021 40201 58008 60006 82200 91200 333 91019=
07190,1996-09-09 15:00:00,18,1019.2,-0.9,37,3,35000,22.224,,,50,,,,,,,,,,,wg-a,,,,AAXX 09154 07190 12781 20512 10180 20030 30012 40192 58009 60006 82800 91500=
07190,1996-09-09 18:00:00,15,1019.7,0.3,51,5,35000,7.408,,,30,7.1,19.3,,,,,,,,,wg-a,,,,AAXX 09184 07190 12881 10304 10150 20050 30015 40197 53003 60006 81500 91800 333 10193 20071=
07190,1996-09-09 21:00:00,9,1021.4,1.2,81,6,20000,3.704,,,240,,,,,,,,,,,wg-a,,,,AAXX 09214 07190 12/70 02402 10090 20060 30027 40214 51012 60006 80000 92100=
07190,1996-09-10 00:00:00,6,1021.5,0.1,93,5,10000,0,,,0,,,,,,,,,,,wg-a,,,,AAXX 10004 07190 12/60 10000 10060 20050 30027 40215 50001 60006 80002 90000=
07190,1996-09-10 03:00:00,4,1021.1,-0.7,93,3,10000,0,,,0,,,,,,,,,,,wg-a,,,,AAXX 10034 07190 12/60 00000 10040 20030 30021 40211 58007 60006 80000 90300=
07190,1996-09-10 06:00:00,5,1021.1,0.1,93,4,15000,3.704,,,220,3.3,14.6,,,,,,,,11,wg-a,,,,AAXX 10064 07190 02/65 22202 10050 20040 30022 40211 53001 60006 71100 80001 90600 333 10146 20033 60004=
07190,1996-09-10 09:00:00,15,1020.6,0.1,59,7,20000,3.704,,,190,,,,,,,,,,,wg-a,,,,AAXX 10094 07190 12570 /1902 10150 20070 30023 40206 52001 60006 8113/ 90900=
07190,1996-09-10 12:00:00,20,1018.4,-1.8,43,7,20000,7.408,,,260,,,,,,,,,,,wg-a,,,,AAXX 10124 07190 12670 22604 10200 20070 30005 40184 57018 60006 82200 91200=
07190,1996-09-10 15:00:00,21,1016.8,-1.5,35,5,20000,7.408,,,230,,,,,,,,,,,wg-a,,,,AAXX 10154 07190 12770 32304 10210 20050 39990 40168 56015 60006 83200 91500=
07190,1996-09-10 18:00:00,17,1017.3,0.2,63,10,12000,7.408,,,320,4.9,21.4,,,,,,,,,wg-a,,,,AAXX 10184 07190 12762 63204 10170 20100 39992 40173 53002 60006 83530 91800 333 10214 20049=
07190,1996-09-10 21:00:00,15,1018,0.6,72,10,13000,3.704,,,260,,,,,,,,,,,wg-a,,,,AAXX 10214 07190 12763 72602 10150 20100 39998 40180 51006 60006 8457/ 92100=
07190,1996-09-11 00:00:00,13,1017.8,-0.3,82,10,12000,3.704,,,340,,,,,,,,,,,wg-a,,,,AAXX 11004 07190 12762 73402 10130 20100 39995 40178 58003 60006 8557/ 90000=
07190,1996-09-11 03:00:00,13,1016.9,-0.9,82,10,12000,3.704,,,310,,,,,,,,,,,wg-a,,,,AAXX 11034 07190 12662 73102 10130 20100 39986 40169 58009 60006 8557/ 90300=
07190,1996-09-11 06:00:00,12,1017,0.1,88,10,10000,0,,,0,12.1,16.7,,,,,,,,,wg-a,,,,AAXX 11064 07190 02660 70000 10120 20100 39987 40170 53001 60006 878// 90600 333 10167 20121 60004=
07190,1996-09-11 09:00:00,14,1017.2,0.3,77,10,10000,3.704,,,150,,,,,,,,,,,wg-a,,,,AAXX 11094 07190 12560 81502 10140 20100 39990 40172 50003 60006 875// 90900=
07190,1996-09-11 12:00:00,16,1015.6,-1.5,63,9,15000,11.112,,,330,,,,,,,,,,,wg-a,,,,AAXX 11124 07190 12565 73306 10160 20090 39975 40156 58015 60006 878// 91200=
07190,1996-09-11 15:00:00,17,1014.1,-1.4,55,8,15000,7.408,,,340,,,,,,,,,,,wg-a,,,,AAXX 11154 07190 12665 73404 10170 20080 39961 40141 58014 60006 878// 91500=
07190,1996-09-11 18:00:00,15,1013.5,-0.7,77,11,9000,3.704,,,330,12.2,17.3,,,,,,,,,wg-a,,,,AAXX 11184 07190 12659 73302 10150 20110 39954 40135 56007 60006 878// 91800 333 10173 20122=
07190,1996-09-11 21:00:00,13,1013.3,-0.3,82,10,12000,0,,,0,,,,,,,,,,,wg-a,,,,AAXX 11214 07190 12762 70000 10130 20100 39951 40133 58003 60006 875// 92100=
07190,1996-09-12 00:00:00,11,1012.3,-1.1,87,9,15000,7.408,,,210,,,,,,,,,,,wg-a,,,,AAXX 12004 07190 12765 72104 10110 20090 39940 40123 58011 60006 8353/ 90000=
07190,1996-09-12 03:00:00,9,1010.5,-1.9,93,8,15000,0,,,0,,,,,,,,,,,wg-a,,,,AAXX 12034 07190 12665 70000 10090 20080 39921 40105 57019 60006 85532 90300=
07190,1996-09-12 06:00:00,8,1010.1,-0.5,93,7,7000,3.704,,,210,7.7,15.1,,,,,,,,11,wg-a,,,,AAXX 12064 07190 02/57 42102 10080 20070 39916 40101 56005 60006 71111 82032 90600 333 10151 20077 60004=
07190,1996-09-12 12:00:00,15,1007,-1.6,59,7,20000,14.816,,,240,,,,,,,,,,,wg-a,,,,AAXX 12124 07190 12670 72408 10150 20070 39890 40070 58016 60006 8557/ 91200=
07190,1996-09-12 15:00:00,15,1005.3,-1.7,67,9,20000,18.52,,,250,,,,,,,,,,21,wg-a,,,,AAXX 12154 07190 02570 72510 10150 20090 39873 40053 56017 61000 72162 875// 91500 333 ////=
07190,1996-09-12 18:00:00,13,1004.8,-0.6,82,10,12000,14.816,,,250,8,15.6,,1,,,,,,21,wg-a,,,,AAXX 12184 07190 12562 72508 10130 20100 39867 40048 58006 60017 72186 85872 91800 333 10156 20080=
07190,1996-09-12 21:00:00,11,1005.6,0.7,82,8,12000,14.816,,,270,,,,0,,,,,,2,wg-a,,,,AAXX 12214 07190 12562 /2708 10110 20080 39874 40056 51007 60007 70286 83870 92100=
07190,1996-09-13 00:00:00,11,1005.9,0.2,71,6,10000,18.52,,,270,,,,0,,,,,,80,wg-a,,,,AAXX 13004 07190 02560 /2710 10110 20060 39876 40059 53002 60016 78086 83870 90000 333 60007=
07190,1996-09-13 03:00:00,8,1007.2,1.2,87,6,10000,11.112,,,250,,,,1,,,,,,,wg-a,,,,AAXX 13034 07190 12460 62506 10080 20060 39887 40072 51012 60017 83872 90300=
07190,1996-09-13 06:00:00,9,1008.7,1.5,81,6,15000,18.52,,,270,5.7,12.5,,,,,3,,,1,wg-a,,,,AAXX 13064 07190 12565 52710 10090 20060 39903 40087 51015 60034 70186 83871 90600 333 10125 20057=
07190,1996-09-13 09:00:00,12,1009.6,1.1,67,6,20000,18.52,,,290,,,,,,,,,,,wg-a,,,,AAXX 13094 07190 12270 52910 10120 20060 39914 40096 53011 60006 84831 90900=
07190,1996-09-13 12:00:00,15,1009.8,0.3,51,5,20000,22.224,,,280,,,,,,,,,,,wg-a,,,,AAXX 13124 07190 12570 52812 10150 20050 39917 40098 53003 60006 83331 91200=
07190,1996-09-13 15:00:00,15,1009.9,0.2,51,5,25000,22.224,,,270,,,,,,,,,,,wg-a,,,,AAXX 13154 07190 12675 62712 10150 20050 39919 40099 52002 60006 82841 91500=
07190,1996-09-13 18:00:00,12,1011.8,1.7,71,7,15000,14.816,,,260,8.8,15.7,,,,,,,,25,wg-a,,,,AAXX 13184 07190 02765 72608 10120 20070 39936 40118 53017 61000 72586 85572 91800 333 10157 20088 ////=
07190,1996-09-13 21:00:00,12,1013.7,1.8,71,7,15000,25.928,,,290,,,,,,,,,,,wg-a,,,,AAXX 13214 07190 12665 72914 10120 20070 39954 40137 51018 60006 8357/ 92100=
07190,1996-09-14 00:00:00,11,1015.1,1.3,82,8,15000,14.816,,,280,,,,,,,,,,,wg-a,,,,AAXX 14004 07190 12565 /2808 10110 20080 39967 40151 52013 60006 86800 90000=
07190,1996-09-14 03:00:00,11,1016.4,1.3,87,9,11000,11.112,,,270,,,,,,,,,,,wg-a,,,,AAXX 14034 07190 12/61 /2706 10110 20090 39980 40164 53013 60006 90300=
07190,1996-09-14 06:00:00,12,1017.8,1.4,82,9,15000,11.112,,,260,11.1,12.4,,,,,,,,,wg-a,,,,AAXX 14064 07190 02465 72606 10120 20090 39994 40178 53014 60006 8557/ 90600 333 10124 20111 61000=
07190,1996-09-14 09:00:00,14,1019.8,2.1,77,10,15000,14.816,,,280,,,,,,,,,,,wg-a,,,,AAXX 14094 07190 12565 72808 10140 20100 30015 40198 52021 60006 878// 90900=
07190,1996-09-14 12:00:00,14,1020.6,0.8,77,10,15000,18.52,,,260,,,,,,,,,,,wg-a,,,,AAXX 14124 07190 12465 72610 10140 20100 30023 40206 51008 60006 8687/ 91200=
07190,1996-09-14 15:00:00,17,1020.2,-0.2,59,9,15000,11.112,,,270,,,,,,,,,,,wg-a,,,,AAXX 14154 07190 12565 62706 10170 20090 30021 40202 58002 60006 84831 91500=
07190,1996-09-14 18:00:00,13,1021.3,0.9,77,9,10000,3.704,,,120,11.6,16.8,,,,,,,,,wg-a,,,,AAXX 14184 07190 12660 71202 10130 20090 30030 40213 53009 60006 8683/ 91800 333 10168 20116=
07190,1996-09-14 21:00:00,12,1022,0.6,94,11,10000,7.408,,,250,,,,1,,,,,,3,wg-a,,,,AAXX 14214 07190 12560 82504 10120 20110 30036 40220 51006 60017 70362 875// 92100=
07190,1996-09-15 00:00:00,11,1022.1,0,94,10,7000,0,,,0,,,,0,,,,,,,wg-a,,,,AAXX 15004 07190 02557 /0000 10110 20100 30036 40221 50000 60016 85530 90000 333 60007=
07190,1996-09-15 06:00:00,10,1022.5,0.5,100,10,6000,0,,,0,9.2,13.2,,,,,1,,,10,wg-a,,,,AAXX 15064 07190 12756 70000 10100 20100 30039 40225 53005 60014 71042 875// 90600 333 10132 20092=
07190,1996-09-15 09:00:00,13,1023,0.7,88,11,7000,7.408,,,10,,,,,,,,,,,wg-a,,,,AAXX 15094 07190 12457 70104 10130 20110 30046 40230 53007 60006 878// 90900=
07190,1996-09-15 12:00:00,15,1023.1,0.2,72,10,12000,11.112,,,10,,,,,,,,,,,wg-a,,,,AAXX 15124 07190 12562 70106 10150 20100 30048 40231 51002 60006 878// 91200=
07190,1996-09-15 15:00:00,16,1022.8,-0.2,63,9,15000,7.408,,,360,,,,,,,,,,,wg-a,,,,AAXX 15154 07190 12665 73604 10160 20090 30046 40228 55002 60006 878// 91500=
07190,1996-09-15 18:00:00,14,1023.1,0.3,82,11,15000,3.704,,,350,9.8,16,,,,,,,,2,wg-a,,,,AAXX 15184 07190 02665 73502 10140 20110 30048 40231 53003 61000 70286 8157/ 91800 333 10160 20098 ////=
07190,1996-09-15 21:00:00,12,1024,0.7,88,10,10000,7.408,,,350,,,,,,,,,,,wg-a,,,,AAXX 15214 07190 12660 73504 10120 20100 30055 40240 51007 60006 8157/ 92100=
07190,1996-09-16 00:00:00,11,1024.1,0.1,87,9,10000,7.408,,,350,,,,,,,,,,,wg-a,,,,AAXX 16004 07190 12/60 63504 10110 20090 30055 40241 50001 60006 86030 90000=
07190,1996-09-16 03:00:00,8,1023.7,-0.6,93,7,8000,11.112,,,350,,,,,,,,,,,wg-a,,,,AAXX 16034 07190 12/58 03506 10080 20070 30050 40237 57006 60006 80000 90300=
07190,1996-09-16 06:00:00,7,1024.1,0.2,93,6,8000,7.408,,,330,6.5,13.8,,,,,,,,,wg-a,,,,AAXX 16064 07190 02258 73304 10070 20060 30053 40241 53002 60006 86601 90600 333 10138 20065 61000=
07190,1996-09-16 09:00:00,13,1023.8,0.1,77,9,8000,11.112,,,10,,,,,,,,,,,wg-a,,,,AAXX 16094 07190 12458 30106 10130 20090 30054 40238 51001 60006 82201 90900=
07190,1996-09-16 12:00:00,18,1021.8,-1.6,49,7,20000,18.52,,,50,,,,,,,,,,,wg-a,,,,AAXX 16124 07190 12670 20510 10180 20070 30037 40218 57016 60006 8220/ 91200=
07190,1996-09-16 15:00:00,18,1020.1,-1.6,45,6,20000,25.928,,,40,,,,,,,,,,,wg-a,,,,AAXX 16154 07190 12770 /0414 10180 20060 30021 40201 56016 60006 81200 91500=
07190,1996-09-16 18:00:00,14,1020.3,-0.1,55,5,500,18.52,,,120,6.9,18.8,,,,,,,,,wg-a,,,,AAXX 16184 07190 12/00 11210 10140 20050 30020 40203 55001 60006 80001 91800 333 10188 20069=
07190,1996-09-16 21:00:00,10,1020.7,0.1,71,5,500,11.112,,,30,,,,,,,,,,,wg-a,,,,AAXX 16214 07190 12/00 00306 10100 20050 30021 40207 50001 60006 80000 92100=
07190,1996-09-17 00:00:00,6,1019.9,-1,87,4,20000,7.408,,,350,,,,,,,,,,,wg-a,,,,AAXX 17004 07190 12/70 03504 10060 20040 30011 40199 57010 60006 80000 90000=
07190,1996-09-17 03:00:00,4,1018.9,-1.1,93,3,20000,7.408,,,320,,,,,,,,,,,wg-a,,,,AAXX 17034 07190 12/70 03204 10040 20030 30000 40189 56011 60006 80000 90300=
07190,1996-09-17 06:00:00,5,1018.3,-0.6,93,4,6000,7.408,,,360,3.9,14.1,,0,,,,,,,wg-a,,,,AAXX 17064 07190 02/56 03604 10050 20040 39994 40183 56006 60004 80000 90600 333 10141 20039 60007=
07190,1996-09-17 09:00:00,13,1017.2,-0.5,62,6,18000,11.112,,,30,,,,,,,,,,,wg-a,,,,AAXX 17094 07190 12668 10306 10130 20060 39989 40172 58005 60006 81100 90900=
07190,1996-09-17 12:00:00,17,1015.8,-1.1,45,5,35000,22.224,,,40,,,,,,,,,,,wg-a,,,,AAXX 17124 07190 12681 30412 10170 20050 39978 40158 57011 60006 83100 91200=
07190,1996-09-17 15:00:00,17,1014.2,-1.6,42,4,40000,25.928,,,40,,,,,,,,,,,wg-a,,,,AAXX 17154 07190 12782 /0414 10170 20040 39962 40142 56016 60006 81800 91500=
07190,1996-09-17 18:00:00,13,1014.6,0.1,58,5,20000,25.928,,,30,4.9,17.6,,,,,,,,,wg-a,,,,AAXX 17184 07190 12/70 20314 10130 20050 39963 40146 50001 60006 80001 91800 333 10176 20049=
07190,1996-09-18 00:00:00,6,1014.7,-0.4,87,4,20000,11.112,,,350,,,,,,,,,,,wg-a,,,,AAXX 18004 07190 12/70 03506 10060 20040 39960 40147 58004 60006 80000 90000=
07190,1996-09-18 03:00:00,5,1014.3,-0.6,93,4,10000,11.112,,,10,,,,,,,,,,,wg-a,,,,AAXX 18034 07190 12/60 00106 10050 20040 39955 40143 58006 60006 80000 90300=
07190,1996-09-18 06:00:00,4,1013.8,-0.4,100,4,500,11.112,,,350,3.9,12.6,,,,,,,,,wg-a,,,,AAXX 18064 07190 02/00 /3506 10040 20040 39950 40138 56004 60006 81031 90600 333 10126 20039 60004=
07190,1996-09-18 09:00:00,12,1012.7,-0.5,62,5,10000,18.52,,,20,,,,,,,,,,,wg-a,,,,AAXX 18094 07190 12/60 20210 10120 20050 39944 40127 58005 60006 82030 90900=
07190,1996-09-18 12:00:00,16,1010.7,-1.7,48,5,15000,22.224,,,40,,,,,,,,,,,wg-a,,,,AAXX 18124 07190 12665 20412 10160 20050 39927 40107 58017 60006 81132 91200=
07190,1996-09-18 15:00:00,16,1009.4,-1.4,48,5,15000,22.224,,,90,,,,,,,,,,,wg-a,,,,AAXX 18154 07190 12665 60912 10160 20050 39914 40094 56014 60006 84832 91500=
07190,1996-09-18 18:00:00,13,1010.1,0.6,58,5,15000,14.816,,,70,4.4,16.7,,,,,,,,,wg-a,,,,AAXX 18184 07190 12665 70708 10130 20050 39919 40101 53006 60006 875// 91800 333 10167 20044=
07190,1996-09-18 21:00:00,10,1010,-0.3,76,6,15000,11.112,,,10,,,,,,,,,,,wg-a,,,,AAXX 18214 07190 12765 /0106 10100 20060 39916 40100 58003 60006 81500 92100=
07190,1996-09-19 00:00:00,9,1009.3,-0.7,81,6,15000,11.112,,,20,,,,,,,,,,,wg-a,,,,AAXX 19004 07190 12665 /0206 10090 20060 39909 40093 58007 60006 81500 90000=
07190,1996-09-19 06:00:00,9,1008.9,0.1,87,7,10000,7.408,,,10,8.1,13.1,,,,,,,,,wg-a,,,,AAXX 19064 07190 02/60 50104 10090 20070 39905 40089 53001 60006 83031 90600 333 10131 20081 60004=
07190,1996-09-19 09:00:00,13,1008.4,-0.2,72,8,12000,14.816,,,30,,,,,,,,,,,wg-a,,,,AAXX 19094 07190 12562 50308 10130 20080 39903 40084 58002 60006 81131 90900=
07190,1996-09-19 12:00:00,16,1007,-1.2,59,8,12000,14.816,,,40,,,,,,,,,,,wg-a,,,,AAXX 19124 07190 12/62 60408 10160 20080 39891 40070 57012 60006 80001 91200=
07190,1996-09-19 15:00:00,20,1004.7,-2.1,49,9,18000,25.928,,,40,,,,,,,,,,,wg-a,,,,AAXX 19154 07190 12/68 50414 10200 20090 39870 40047 56021 60006 81041 91500=
07190,1996-09-19 18:00:00,17,1004.7,-0.1,59,9,20000,14.816,,,30,8.9,19.7,,,,,,,,,wg-a,,,,AAXX 19184 07190 12/70 50308 10170 20090 39869 40047 55001 60006 81032 91800 333 10197 20089=
07190,1996-09-19 21:00:00,13,1005.6,0.5,77,9,15000,11.112,,,20,,,,,,,,,,,wg-a,,,,AAXX 19214 07190 12/65 50206 10130 20090 39875 40056 51005 60006 81032 92100=
07190,1996-09-20 00:00:00,10,1006.2,0.3,87,8,15000,7.408,,,300,,,,,,,,,,,wg-a,,,,AAXX 20004 07190 12/65 63004 10100 20080 39879 40062 53003 60006 85032 90000=
07190,1996-09-20 03:00:00,11,1005.6,-0.5,82,8,10000,11.112,,,360,,,,,,,,,,,wg-a,,,,AAXX 20034 07190 12660 73606 10110 20080 39874 40056 58005 60006 8557/ 90300=
07190,1996-09-20 06:00:00,11,1005.7,0.1,82,8,7000,3.704,,,350,9.5,16.7,,,,,,,,,wg-a,,,,AAXX 20064 07190 02557 83502 10110 20080 39875 40057 53001 60006 875// 90600 333 10167 20095 60004=
07190,1996-09-20 09:00:00,11,1006.8,1.1,87,9,500,7.408,,,360,,,,1,,,,,,61,wg-a,,,,AAXX 20094 07190 12400 83604 10110 20090 39886 40068 52011 60017 76162 875// 90900=
07190,1996-09-20 12:00:00,12,1007.2,0.4,88,10,4000,3.704,,,90,,,,3,,,,,,10,wg-a,,,,AAXX 20124 07190 02240 80902 10120 20100 39890 40072 51004 60046 71062 888// 91200 333 60037=
07190,1996-09-20 15:00:00,12,1006.9,-0.2,94,11,500,7.408,,,30,,,,1,,,,,,1,wg-a,,,,AAXX 20154 07190 12300 /0304 10120 20110 39888 40069 57002 60017 70162 878// 91500=
07190,1996-09-20 18:00:00,12,1007,-0,88,10,6000,7.408,,,20,10.6,12.6,,,,,,,,1,wg-a,,,,AAXX 20184 07190 32456 70204 10120 20100 39888 40070 54000 70161 878// 91800 333 10126 20106=
07190,1996-09-21 00:00:00,10,1006,-1,93,9,1800,3.704,,,300,,,,,,,,,,10,wg-a,,,,AAXX 21004 07190 12118 83002 10100 20090 39877 40060 56010 60006 71042 886// 90000=
07190,1996-09-21 03:00:00,10,1005,-1,100,10,700,3.704,,,350,,,,,,,,,,42,wg-a,,,,AAXX 21034 07190 12107 83502 10100 20100 39867 40050 56010 60006 74242 886// 90300=
07190,1996-09-21 06:00:00,10,1004.6,-0.4,100,10,2000,0,,,0,9.4,11.4,,,,,5,,,28,wg-a,,,,AAXX 21064 07190 02120 80000 10100 20100 39863 40046 56004 60006 72842 876// 90600 333 10114 20094 60054=
07190,1996-09-21 09:00:00,10,1005,0.5,100,10,1500,7.408,,,360,,,,,,,,,,10,wg-a,,,,AAXX 21094 07190 12115 83604 10100 20100 39868 40050 52005 60006 71022 886// 90900=
07190,1996-09-21 12:00:00,12,1004.8,-0.2,82,9,7000,7.408,,,360,,,,,,,,,,,wg-a,,,,AAXX 21124 07190 12357 83604 10120 20090 39866 40048 55002 60006 876// 91200=
07190,1996-09-21 15:00:00,14,1003.8,-0.8,77,10,8000,7.408,,,310,,,,,,,,,,,wg-a,,,,AAXX 21154 07190 12458 /3104 10140 20100 39858 40038 57008 60006 82231 91500=
07190,1996-09-21 18:00:00,12,1004.1,0.2,88,10,6000,7.408,,,130,9.9,14.3,,,,,,,,,wg-a,,,,AAXX 21184 07190 12556 31304 10120 20100 39860 40041 53002 60006 83500 91800 333 10143 20099=
07190,1996-09-21 21:00:00,11,1004.6,0.4,94,10,6000,11.112,,,10,,,,,,,,,,,wg-a,,,,AAXX 21214 07190 12456 60106 10110 20100 39864 40046 51004 60006 86500 92100=
07190,1996-09-22 00:00:00,10,1004.9,0.2,93,9,6000,7.408,,,340,,,,,,,,,,,wg-a,,,,AAXX 22004 07190 12256 83404 10100 20090 39866 40049 50002 60006 886// 90000=
07190,1996-09-22 03:00:00,10,1005.1,0.2,93,9,500,7.408,,,340,,,,,,,,,,,wg-a,,,,AAXX 22034 07190 12200 83404 10100 20090 39868 40051 51002 60006 886// 90300=
07190,1996-09-22 06:00:00,10,1005.5,0.4,93,9,4000,14.816,,,360,9.5,11.8,,,,,,,,10,wg-a,,,,AAXX 22064 07190 02240 83608 10100 20090 39872 40055 53004 60006 71022 886// 90600 333 10118 20095 60004=
07190,1996-09-22 09:00:00,11,1006.3,0.9,87,9,4500,11.112,,,20,,,,,,,,,,10,wg-a,,,,AAXX 22094 07190 12245 80206 10110 20090 39881 40063 53009 60006 71022 886// 90900=
07190,1996-09-22 12:00:00,12,1006.2,0,88,10,6000,14.816,,,360,,,,,,,,,,,wg-a,,,,AAXX 22124 07190 12456 83608 10120 20100 39881 40062 50000 60006 885// 91200=
07190,1996-09-22 15:00:00,14,1006.1,-0.1,77,10,10000,11.112,,,30,,,,,,,,,,,wg-a,,,,AAXX 22154 07190 12460 80306 10140 20100 39880 40061 56001 60006 885// 91500=
07190,1996-09-22 18:00:00,12,1007,0.8,88,10,7000,11.112,,,360,9.6,13.5,,,,,,,,21,wg-a,,,,AAXX 22184 07190 02457 83606 10120 20100 39888 40070 51008 61000 72162 885// 91800 333 10135 20096 ////=
07190,1996-09-22 21:00:00,11,1007.6,0.6,94,10,500,7.408,,,320,,,,0,,,,,,51,wg-a,,,,AAXX 22214 07190 12100 83204 10110 20100 39894 40076 50006 60007 75165 886// 92100=
07190,1996-09-23 00:00:00,11,1006.9,-0.7,94,10,6000,11.112,,,330,,,,2,,,,,,21,wg-a,,,,AAXX 23004 07190 02456 83306 10110 20100 39887 40069 58007 60026 72165 886// 90000 333 60027=
07190,1996-09-23 03:00:00,11,1006.7,-0.2,94,10,500,11.112,,,310,,,,2,,,,,,51,wg-a,,,,AAXX 23034 07190 12400 83106 10110 20100 39885 40067 55002 60027 75165 886// 90300=
07190,1996-09-23 06:00:00,11,1007.1,0.4,94,10,3500,11.112,,,320,10.7,12,,5,,,9,,,51,wg-a,,,,AAXX 23064 07190 02435 83206 10110 20100 39889 40071 53004 60094 75165 885// 90600 333 10120 20107 60057=
07190,1996-09-23 09:00:00,12,1008,0.9,94,11,7000,7.408,,,300,,,,1,,,,,,61,wg-a,,,,AAXX 23094 07190 12457 83004 10120 20110 39898 40080 53009 60017 76165 8687/ 90900=
07190,1996-09-23 12:00:00,13,1008.2,0.3,88,11,9000,11.112,,,280,,,,0,,,,,,1,wg-a,,,,AAXX 23124 07190 02459 82806 10130 20110 39901 40082 53003 60016 70165 8587/ 91200 333 60007=
07190,1996-09-23 15:00:00,13,1008.5,0.3,82,10,9000,11.112,,,270,,,,,,,,,,,wg-a,,,,AAXX 23154 07190 12559 82706 10130 20100 39904 40085 53003 60006 8387/ 91500=
07190,1996-09-23 18:00:00,12,1009.8,1.2,82,9,6000,3.704,,,240,10.8,13.3,,,,,,,,,wg-a,,,,AAXX 23184 07190 32756 72402 10120 20090 39916 40098 53012 8457/ 91800 333 10133 20108=
07190,1996-09-23 21:00:00,11,1010.8,0.9,82,8,7000,7.408,,,280,,,,0,,,,,,,wg-a,,,,AAXX 23214 07190 12657 82804 10110 20080 39925 40108 50009 60007 8557/ 92100=
07190,1996-09-24 00:00:00,10,1011.1,0.2,93,9,7000,3.704,,,180,,,,,,,,,,,wg-a,,,,AAXX 24004 07190 12657 /1802 10100 20090 39927 40111 51002 60006 82530 90000=
07190,1996-09-24 03:00:00,9,1011.1,-0.1,93,8,500,3.704,,,170,,,,,,,,,,,wg-a,,,,AAXX 24034 07190 12500 71702 10090 20080 39926 40111 57001 60006 8557/ 90300=
07190,1996-09-24 06:00:00,8,1011.5,0.4,100,8,3000,3.704,,,180,8.2,12.2,,,,,2,,,10,wg-a,,,,AAXX 24064 07190 02530 81802 10080 20080 39930 40115 53004 60024 71062 875// 90600 333 10122 20082 61000=
07190,1996-09-24 09:00:00,10,1012,0.6,93,9,4500,7.408,,,180,,,,1,,,,,,10,wg-a,,,,AAXX 24094 07190 12245 71804 10100 20090 39936 40120 53006 60017 71062 875// 90900=
07190,1996-09-24 12:00:00,13,1011.5,-0.3,77,9,10000,7.408,,,180,,,,,,,,,,1,wg-a,,,,AAXX 24124 07190 12460 /1804 10130 20090 39933 40115 58003 60016 70162 85200 91200=
07190,1996-09-24 15:00:00,12,1011.6,-0,82,9,15000,3.704,,,290,,,,0,,,,,,16,wg-a,,,,AAXX 24154 07190 12565 62902 10120 20090 39933 40116 55000 60007 71686 86800 91500=
07190,1996-09-24 18:00:00,10,1012.8,1.1,93,9,12000,7.408,,,140,8.4,14.7,,0,,,,,,61,wg-a,,,,AAXX 24184 07190 12662 71404 10100 20090 39944 40128 53011 60007 76186 86802 91800 333 10147 20084=
07190,1996-09-24 21:00:00,8,1013.7,0.7,93,7,500,3.704,,,210,,,,,,,,,,12,wg-a,,,,AAXX 24214 07190 02605 32102 10080 20070 39951 40137 51007 61000 71264 82830 92100 333 ////=
07190,1996-09-25 00:00:00,5,1013.3,-0.4,100,5,500,7.408,,,220,,,,0,,,,,,42,wg-a,,,,AAXX 25004 07190 02/05 22204 10050 20050 39946 40133 56004 60006 74264 81031 90000 333 60007=
07190,1996-09-25 03:00:00,5,1013.2,-0.2,100,5,200,3.704,,,280,,,,,,,,,,44,wg-a,,,,AAXX 25034 07190 12102 82802 10050 20050 39945 40132 58002 60006 74441 886// 90300=
07190,1996-09-25 06:00:00,5,1013,-0.3,100,5,200,7.408,,,170,4.9,10.3,,,,,2,,,44,wg-a,,,,AAXX 25064 07190 12/02 91704 10050 20050 39942 40130 56003 60024 74441 89/// 90600 333 10103 20049=
07190,1996-09-25 09:00:00,9,1012.9,0.2,93,8,6000,7.408,,,180,,,,,,,,,,28,wg-a,,,,AAXX 25094 07190 12256 /1804 10090 20080 39944 40129 50002 60006 72841 82601 90900=
07190,1996-09-25 12:00:00,16,1011.8,-0.6,63,9,13000,7.408,,,200,,,,,,,,,,1,wg-a,,,,AAXX 25124 07190 12563 /2004 10160 20090 39938 40118 57006 60006 70141 81206 91200=
07190,1996-09-25 15:00:00,18,1011.4,-0.3,49,7,18000,7.408,,,280,,,,,,,,,,,wg-a,,,,AAXX 25154 07190 12668 /2804 10180 20070 39935 40114 56003 60006 81201 91500=
07190,1996-09-25 18:00:00,12,1013.6,1.8,82,9,10000,3.704,,,230,4.8,17.9,,,,,,,,,wg-a,,,,AAXX 25184 07190 12/60 32302 10120 20090 39953 40136 53018 60006 80001 91800 333 10179 20048=
07190,1996-09-25 21:00:00,7,1015.9,2,100,7,8000,3.704,,,180,,,,,,,,,,,wg-a,,,,AAXX 25214 07190 12/58 11802 10070 20070 39973 40159 51020 60006 80001 92100=
07190,1996-09-26 00:00:00,5,1017.3,1.2,93,4,500,3.704,,,210,,,,,,,,,,11,wg-a,,,,AAXX 26004 07190 12/00 02102 10050 20040 39985 40173 52012 60006 71100 80000 90000=
07190,1996-09-26 03:00:00,5,1018.4,1,93,4,400,3.704,,,200,,,,,,,,,,,wg-a,,,,AAXX 26034 07190 12/04 /2002 10050 20040 39995 40184 53010 60006 90300=
07190,1996-09-26 06:00:00,4,1020.1,1.6,100,4,700,3.704,,,190,3.2,11.4,,,,,,,,44,wg-a,,,,AAXX 26064 07190 02/07 91902 10040 20040 30011 40201 53016 60006 74441 89/// 90600 333 10114 20032 60004=
07190,1996-09-26 09:00:00,12,1020.5,1,88,10,500,7.408,,,160,,,,,,,,,,2,wg-a,,,,AAXX 26094 07190 12400 /1604 10120 20100 30021 40205 51010 60006 70241 81200 90900=
07190,1996-09-26 12:00:00,19,1018.9,-1.2,52,9,14000,7.408,,,190,,,,,,,,,,1,wg-a,,,,AAXX 26124 07190 12664 /1904 10190 20090 30009 40189 57012 60006 70141 81800 91200=
07190,1996-09-26 15:00:00,19,1017.7,-1.1,52,9,15000,7.408,,,180,,,,,,,,,,,wg-a,,,,AAXX 26154 07190 12665 /1804 10190 20090 39998 40177 57011 60006 81100 91500=
07190,1996-09-26 18:00:00,15,1017.8,-0,67,9,15000,7.408,,,150,3.8,19.4,,,,,,,,,wg-a,,,,AAXX 26184 07190 32/65 61504 10150 20090 39996 40178 54000 80004 91800 333 10194 20038=
07190,1996-09-26 21:00:00,9,1018.7,0.5,93,8,13000,3.704,,,180,,,,,,,,,,,wg-a,,,,AAXX 26214 07190 12/63 11802 10090 20080 30001 40187 51005 60006 80001 92100=
07190,1996-09-27 00:00:00,6,1018.7,-0.2,100,6,7000,3.704,,,210,,,,,,,,,,11,wg-a,,,,AAXX 27004 07190 12/57 32102 10060 20060 39999 40187 58002 60006 71111 82031 90000=
07190,1996-09-27 03:00:00,8,1017.4,-1.1,93,7,7000,7.408,,,180,,,,,,,,,,,wg-a,,,,AAXX 27034 07190 12/57 /1804 10080 20070 39988 40174 58011 60006 85071 90300=
07190,1996-09-27 06:00:00,10,1016.3,-1,93,9,9000,11.112,,,190,6.1,14.4,,,,,,,,,wg-a,,,,AAXX 27064 07190 02/59 /1906 10100 20090 39978 40163 55010 60006 86071 90600 333 10144 20061 60004=
07190,1996-09-27 09:00:00,13,1015.3,-0.8,82,10,12000,18.52,,,170,,,,,,,,,,,wg-a,,,,AAXX 27094 07190 12562 71710 10130 20100 39970 40153 58008 60006 878// 90900=
07190,1996-09-27 12:00:00,16,1014.5,-0.5,72,11,15000,18.52,,,190,,,,,,,,,,,wg-a,,,,AAXX 27124 07190 12565 71910 10160 20110 39965 40145 56005 60006 878// 91200=
07190,1996-09-27 15:00:00,18,1014.6,0.2,59,10,15000,29.632,,,220,,,,,,,,,,,wg-a,,,,AAXX 27154 07190 12565 62216 10180 20100 39967 40146 50002 60006 85802 91500=
07190,1996-09-27 18:00:00,15,1016.3,1.5,72,10,15000,14.816,,,200,9.8,18.9,,,,,,,,15,wg-a,,,,AAXX 27184 07190 12565 /2008 10150 20100 39982 40163 53015 60006 71511 85330 91800 333 10189 20098=
07190,1996-09-27 20:00:00,15,1016.3,1.5,72,10,15000,14.816,,,200,9.8,18.9,,,,,,,,15,wg-a,,,,AAXX 27204 07190 12565 62008 10150 20100 39982 40163 53015 60006 71511 85330 92000 333 10189 20098=
07190,1996-09-27 21:00:00,13,1018.8,2.3,94,12,15000,7.408,,,190,,,,,,,,,,25,wg-a,,,,AAXX 27214 07190 02565 61904 10130 20120 30005 40188 51023 61000 72582 86800 92100 333 ////=
07190,1996-09-28 00:00:00,10,1020.9,1.9,93,9,15000,7.408,,,160,,,,,,,,,,1,wg-a,,,,AAXX 28004 07190 02665 31604 10100 20090 30024 40209 51019 61000 70186 83800 90000 333 ////=
07190,1996-09-28 03:00:00,10,1022.4,1.4,93,9,15000,3.704,,,150,,,,,,,,,,,wg-a,,,,AAXX 28034 07190 12665 21502 10100 20090 30038 40224 53014 60006 82800 90300=
07190,1996-09-28 06:00:00,9,1024.5,2,93,8,12000,3.704,,,220,8.8,15.5,,,,,,,,,wg-a,,,,AAXX 28064 07190 12562 52202 10090 20080 30058 40245 51020 60004 83801 90600 333 10155 20088=
07190,1996-09-28 12:00:00,17,1026.6,0.9,48,6,500,11.112,,,290,,,,,,,,,,,wg-a,,,,AAXX 28124 07190 12600 72906 10170 20060 30084 40266 51009 60006 86202 91200=
07190,1996-09-28 15:00:00,18,1026.2,-0.3,49,7,500,11.112,,,270,,,,,,,,,,,wg-a,,,,AAXX 28154 07190 12700 /2706 10180 20070 30081 40262 56003 60006 82202 91500=
07190,1996-09-28 18:00:00,12,1027.4,0.8,76,8,500,7.408,,,230,8.6,18.3,,,,,,,,,wg-a,,,,AAXX 28184 07190 12700 /2304 10120 20080 30089 40274 51008 60006 82401 91800 333 10183 20086=
07190,1996-09-28 21:00:00,8,1028.3,0.6,87,6,20000,3.704,,,160,,,,,,,,,,,wg-a,,,,AAXX 28214 07190 12/70 41602 10080 20060 30095 40283 52006 60006 80001 92100=
07190,1996-09-29 00:00:00,6,1027.3,-1.2,93,5,15000,3.704,,,150,,,,,,,,,,,wg-a,,,,AAXX 29004 07190 12/65 41502 10060 20050 30083 40273 56012 60006 80001 90000=
07190,1996-09-29 03:00:00,6,1026.6,-0.7,93,5,13000,0,,,0,,,,,,,,,,,wg-a,,,,AAXX 29034 07190 12/63 60000 10060 20050 30076 40266 58007 60006 80004 90300=
07190,1996-09-29 06:00:00,7,1026.1,-0.4,100,7,10000,7.408,,,190,5.4,12.4,,,,,,,,,wg-a,,,,AAXX 29064 07190 02/60 71904 10070 20070 30072 40261 57004 60006 8707/ 90600 333 10124 20054 60004=
07190,1996-09-29 09:00:00,12,1025.7,0,82,9,25000,14.816,,,190,,,,,,,,,,,wg-a,,,,AAXX 29094 07190 12/75 71908 10120 20090 30072 40257 50000 60006 8703/ 90900=
07190,1996-09-29 12:00:00,17,1023.9,-1.5,63,10,25000,14.816,,,160,,,,,,,,,,,wg-a,,,,AAXX 29124 07190 12/75 51608 10170 20100 30057 40239 58015 60006 85030 91200=
07190,1996-09-29 15:00:00,19,1022.1,-1.6,49,8,45000,14.816,,,180,,,,,,,,,,,wg-a,,,,AAXX 29154 07190 12/83 61808 10190 20080 30041 40221 57016 60006 86030 91500=
07190,1996-09-29 18:00:00,16,1021.6,-0.7,68,10,45000,7.408,,,170,6.9,19.4,,,,,,,,,wg-a,,,,AAXX 29184 07190 12/83 61704 10160 20100 30034 40216 55007 60006 85031 91800 333 10194 20069=
07190,1996-09-29 21:00:00,15,1021.5,-0.1,67,9,500,3.704,,,170,,,,,,,,,,,wg-a,,,,AAXX 29214 07190 12700 61702 10150 20090 30033 40215 58001 60006 83530 92100=
07190,1996-09-30 00:00:00,13,1021.2,-0.5,72,8,500,11.112,,,200,,,,,,,,,,,wg-a,,,,AAXX 30004 07190 12/00 02006 10130 20080 30028 40212 56005 60006 80000 90000=
07190,1996-09-30 03:00:00,10,1020.4,-1,87,8,25000,7.408,,,120,,,,,,,,,,,wg-a,,,,AAXX 30034 07190 12/75 01204 10100 20080 30018 40204 58010 60006 80000 90300=
07190,1996-09-30 06:00:00,9,1020.4,-0.1,93,8,40000,3.704,,,280,8.8,15.9,,,,,,,,,wg-a,,,,AAXX 30064 07190 02/82 12802 10090 20080 30018 40204 55001 60006 80001 90600 333 10159 20088 60004=
07190,1996-09-30 09:00:00,18,1018.7,-1.1,64,11,40000,14.816,,,180,,,,,,,,,,,wg-a,,,,AAXX 30094 07190 12782 11808 10180 20110 30007 40187 58011 60006 81502 90900=
07190,1996-09-30 12:00:00,24,1015.4,-2.9,41,10,40000,18.52,,,180,,,,,,,,,,,wg-a,,,,AAXX 30124 07190 12682 21810 10240 20100 39978 40154 58029 60006 81142 91200=
07190,1996-09-30 15:00:00,24,1012.2,-3.1,44,11,40000,11.112,,,160,,,,,,,,,,,wg-a,,,,AAXX 30154 07190 12782 41606 10240 20110 39947 40122 56031 60006 81482 91500=
07190,1996-09-30 18:00:00,19,1010.8,-1.7,56,10,500,14.816,,,160,9,24.6,,,,,,,,,wg-a,,,,AAXX 30184 07190 12/00 31608 10190 20100 39930 40108 56017 60006 82072 91800 333 10246 20090=
07190,1996-09-30 21:00:00,13,1010,-1.1,82,10,20000,11.112,,,190,,,,,,,,,,,wg-a,,,,AAXX 30214 07190 12/70 11906 10130 20100 39919 40100 57011 60006 80001 92100=
07190,1996-10-01 00:00:00,14,1008,-2,77,10,20000,14.816,,,150,,,,,,,,,,,wg-a,,,,AAXX 01004 07190 12/70 31508 10140 20100 39899 40080 57020 60006 80002 90000=
07190,1996-10-01 03:00:00,12,1006.4,-1.7,82,9,20000,7.408,,,130,,,,,,,,,,,wg-a,,,,AAXX 01034 07190 12/70 51304 10120 20090 39882 40064 56017 60006 80008 90300=
07190,1996-10-01 06:00:00,12,1005.9,-0.4,82,9,500,14.816,,,150,11,19,,,,,,,,,wg-a,,,,AAXX 01064 07190 02600 71508 10120 20090 39878 40059 58004 60006 81582 90600 333 10190 20110 60004=
07190,1996-10-01 09:00:00,16,1005.1,-0.6,72,11,15000,18.52,,,190,,,,,,,,,,61,wg-a,,,,AAXX 01094 07190 02665 71910 10160 20110 39872 40051 55006 61000 76162 8657/ 90900 333 ////=
07190,1996-10-01 12:00:00,19,1002.9,-1.9,60,11,25000,11.112,,,170,,,,,,,,,,3,wg-a,,,,AAXX 01124 07190 02675 71706 10190 20110 39853 40029 58019 61000 70362 8623/ 91200 333 6100=
07190,1996-10-01 15:00:00,19,1002.9,-0.1,60,11,4000,22.224,,,200,,,,0,,,,,,3,wg-a,,,,AAXX 01154 07190 12640 82012 10190 20110 39852 40029 55001 60007 70362 888// 91500=
07190,1996-10-01 18:00:00,14,1006.2,3,88,12,14000,22.224,,,180,12,19.4,,0,,,,,,60,wg-a,,,,AAXX 01184 07190 12464 71812 10140 20120 39882 40062 51030 60007 76062 878// 91800 333 10194 20120=
07190,1996-10-01 21:00:00,11,1012.8,6.3,82,8,20000,14.816,,,250,,,,4,,,,,,1,wg-a,,,,AAXX 01214 07190 12470 72508 10110 20080 39945 40128 51063 60047 70186 878// 92100=
07190,1996-10-02 00:00:00,10,1014.3,1.3,87,8,20000,7.408,,,160,,,,,,,,,,1,wg-a,,,,AAXX 02004 07190 12570 71604 10100 20080 39958 40143 53013 60046 70186 875// 90000=
07190,1996-10-02 03:00:00,9,1014.7,0.4,93,8,15000,7.408,,,150,,,,,,,,,,3,wg-a,,,,AAXX 02034 07190 02465 71504 10090 20080 39962 40147 53004 61000 70362 878// 90300 333 ////=
07190,1996-10-02 06:00:00,9,1015.5,0.8,93,8,12000,0,,,0,9,13.7,,0,,,5,,,25,wg-a,,,,AAXX 02064 07190 02562 /0000 10090 20080 39970 40155 52008 60054 72586 86800 90600 333 10137 20090 60007=
07190,1996-10-02 09:00:00,13,1017,1.7,72,8,15000,7.408,,,320,,,,,,,,,,,wg-a,,,,AAXX 02094 07190 12465 73204 10130 20080 39987 40170 51017 60006 86831 90900=
07190,1996-10-02 12:00:00,15,1017,0.1,51,5,15000,7.408,,,360,,,,,,,,,,,wg-a,,,,AAXX 02124 07190 12665 33604 10150 20050 39988 40170 52001 60006 82830 91200=
07190,1996-10-02 18:00:00,11,1020.6,2.7,76,7,20000,3.704,,,20,8.9,16.6,,,,,,,,,wg-a,,,,AAXX 02184 07190 12770 30202 10110 20070 30021 40206 53027 60006 83400 91800 333 10166 20089=
07190,1996-10-02 21:00:00,7,1023.1,2.2,93,6,20000,3.704,,,270,,,,,,,,,,,wg-a,,,,AAXX 02214 07190 12/70 /2702 10070 20060 30043 40231 51022 60006 80000 92100=
07190,1996-10-03 00:00:00,4,1025.2,1.8,93,3,15000,0,,,0,,,,,,,,,,,wg-a,,,,AAXX 03004 07190 12/65 00000 10040 20030 30061 40252 53018 60006 80000 90000=
07190,1996-10-03 03:00:00,3,1026.6,1.3,93,2,8000,0,,,0,,,,,,,,,,,wg-a,,,,AAXX 03034 07190 12/58 00000 10030 20020 30074 40266 53013 60006 80000 90300=
07190,1996-10-03 06:00:00,2,1028.4,1.7,93,1,700,3.704,,,170,1.6,10.9,,,,,,,,40,wg-a,,,,AAXX 03064 07190 02/07 01702 10020 20010 30091 40284 51017 60006 74040 80000 90600 333 10109 20016 60004=
07190,1996-10-03 09:00:00,11,1028.5,0.7,82,8,10000,3.704,,,200,,,,,,,,,,2,wg-a,,,,AAXX 03094 07190 12460 /2002 10110 20080 30098 40285 51007 60006 70240 81100 90900=
07190,1996-10-03 12:00:00,17,1027.1,-0.9,45,5,15000,3.704,,,20,,,,,,,,,,2,wg-a,,,,AAXX 03124 07190 12665 20202 10170 20050 30089 40271 58009 60006 70240 81101 91200=
07190,1996-10-03 15:00:00,18,1025.9,-1.2,37,3,18000,0,,,0,,,,,,,,,,,wg-a,,,,AAXX 03154 07190 12768 10000 10180 20030 30077 40259 56012 60006 81401 91500=
07190,1996-10-03 18:00:00,11,1025.6,-0.7,66,5,18000,3.704,,,170,1.9,18,,,,,,,,,wg-a,,,,AAXX 03184 07190 12/68 11702 10110 20050 30070 40256 56007 60006 80001 91800 333 10180 20019=
07190,1996-10-03 21:00:00,6,1026.1,0.2,87,4,12000,3.704,,,200,,,,,,,,,,,wg-a,,,,AAXX 03214 07190 12/62 12002 10060 20040 30072 40261 53002 60006 80001 92100=
07190,1996-10-04 00:00:00,5,1025.5,-0.6,93,4,10000,7.408,,,200,,,,,,,,,,,wg-a,,,,AAXX 04004 07190 12/60 12004 10050 20040 30065 40255 58006 60006 80001 90000=
07190,1996-10-04 03:00:00,5,1024,-1.6,93,4,8000,7.408,,,210,,,,,,,,,,,wg-a,,,,AAXX 04034 07190 12/58 /2104 10050 20040 30050 40240 56016 60006 80001 90300=
07190,1996-10-04 06:00:00,4,1023.2,-0.7,93,3,8000,7.408,,,230,4.1,10.8,,,,,,,,,wg-a,,,,AAXX 04064 07190 02/58 32304 10040 20030 30042 40232 58007 60006 82039 90600 333 10108 20041 60004=
07190,1996-10-04 09:00:00,13,1021.5,-1.1,67,7,15000,18.52,,,180,,,,,,,,,,,wg-a,,,,AAXX 04094 07190 12665 51810 10130 20070 30031 40215 58011 60006 81532 90900=
07190,1996-10-04 12:00:00,17,1019.1,-2.1,52,7,25000,25.928,,,240,,,,,,,,,,,wg-a,,,,AAXX 04124 07190 12675 42414 10170 20070 30010 40191 58021 60006 83531 91200=
07190,1996-10-04 15:00:00,16,1017.5,-1.6,59,8,25000,18.52,,,230,,,,,,,,,,,wg-a,,,,AAXX 04154 07190 12675 82310 10160 20080 39994 40175 56016 60006 875// 91500=
07190,1996-10-04 18:00:00,14,1017.1,-0.5,72,9,25000,7.408,,,230,4.3,17.4,,,,,,,,21,wg-a,,,,AAXX 04184 07190 02575 /2304 10140 20090 39989 40171 57005 61000 72161 86800 91800 333 10174 20043 ////=
07190,1996-10-04 21:00:00,11,1017,-0.3,87,9,25000,7.408,,,360,,,,,,,,,,21,wg-a,,,,AAXX 04214 07190 02675 73604 10110 20090 39986 40170 58003 61000 72162 875// 92100 333 ////=
07190,1996-10-05 00:00:00,10,1016,-1,100,10,7000,7.408,,,20,,,,4,,,,,,60,wg-a,,,,AAXX 05004 07190 02657 70204 10100 20100 39976 40160 58010 60046 76062 875// 90000 333 60047=
07190,1996-10-05 06:00:00,9,1014.7,-0.3,100,9,1400,7.408,,,210,8.9,13.7,,,,,,,,10,wg-a,,,,AAXX 05064 07190 02514 72104 10090 20090 39962 40147 55003 60004 71062 85572 90600 333 10137 20089 61000=
07190,1996-10-05 09:00:00,12,1015.1,0.5,88,10,10000,11.112,,,180,,,,,,,,,,,wg-a,,,,AAXX 05094 07190 12460 /1806 10120 20100 39968 40151 51005 60006 85802 90900=
07190,1996-10-05 12:00:00,12,1015,,82,9,15000,11.112,,,60,,,,0,,,,,,25,wg-a,,,,AAXX 05124 07190 02565 70606 10120 20090 39967 40150 60016 72586 91200 333 60007=
07190,1996-10-05 15:00:00,13,1015.3,0.3,72,8,15000,11.112,,,150,,,,,,,,,,,wg-a,,,,AAXX 05154 07190 12665 61506 10130 20080 39970 40153 53003 60006 83832 91500=
07190,1996-10-05 18:00:00,10,1016.9,1.5,93,9,15000,3.704,,,60,8.4,15.3,,3,,,,,,25,wg-a,,,,AAXX 05184 07190 12565 70602 10100 20090 39984 40169 53015 60037 72586 868// 91800 333 10153 20084=
07190,1996-10-05 21:00:00,8,1018.3,1.3,100,8,15000,0,,,0,,,,,,,,,,,wg-a,,,,AAXX 05214 07190 12665 /0000 10080 20080 39997 40183 51013 60006 86800 92100=
07190,1996-10-06 03:00:00,5,1019.1,0.5,100,5,500,3.704,,,350,,,,,,,,,,11,wg-a,,,,AAXX 06034 07190 12500 33502 10050 20050 30003 40191 53005 60006 71111 81501 90300=
07190,1996-10-06 06:00:00,5,1020.3,1.1,100,5,500,7.408,,,340,4.6,9.5,,,,,,,,10,wg-a,,,,AAXX 06064 07190 12/00 53404 10050 20050 30014 40203 53011 60004 71041 84031 90600 333 10095 20046=
07190,1996-10-06 09:00:00,8,1021.6,1.5,93,7,3000,14.816,,,360,,,,,,,,,,10,wg-a,,,,AAXX 06094 07190 12130 83608 10080 20070 30029 40216 51015 60006 71022 886// 90900=
07190,1996-10-06 12:00:00,11,1021,-0.4,82,8,10000,18.52,,,10,,,,,,,,,,,wg-a,,,,AAXX 06124 07190 12460 70110 10110 20080 30025 40210 58004 60006 8223/ 91200=
07190,1996-10-06 15:00:00,12,1020.6,-0.3,76,8,20000,22.224,,,20,,,,,,,,,,,wg-a,,,,AAXX 06154 07190 12570 /0212 10120 20080 30022 40206 55003 60006 8123/ 91500=
07190,1996-10-06 18:00:00,11,1021.6,0.9,82,8,10000,11.112,,,350,5.3,12.5,,,,,,,,,wg-a,,,,AAXX 06184 07190 12560 73506 10110 20080 30031 40216 53009 60006 8683/ 91800 333 10125 20053=
07190,1996-10-06 21:00:00,10,1022,0.3,87,8,10000,11.112,,,340,,,,,,,,,,,wg-a,,,,AAXX 06214 07190 12660 /3406 10100 20080 30034 40220 50003 60006 82531 92100=
07190,1996-10-07 00:00:00,11,1024.9,-0.8,94,10,6000,3.704,,,290,,,,0,,,,,,60,wg-a,,,,AAXX 07004 07190 02456 82902 10110 20100 40249 57008 60026 76066 8552/ 90000 333 60007=
07190,1996-10-07 03:00:00,10,1021.2,-0.6,87,8,7000,14.816,,,30,,,,,,,,,,,wg-a,,,,AAXX 07034 07190 12657 70308 10100 20080 30026 40212 58006 60006 875// 90300=
07190,1996-10-07 06:00:00,10,1021,-0.2,82,7,8000,14.816,,,20,9.2,11.2,,,,,,,,,wg-a,,,,AAXX 07064 07190 02658 70208 10100 20070 30024 40210 58002 60006 875// 90600 333 10112 20092 60004=
07190,1996-10-07 09:00:00,10,1021.4,0.4,87,8,8000,11.112,,,20,,,,,,,,,,,wg-a,,,,AAXX 07094 07190 12658 70206 10100 20080 30028 40214 51004 60006 875// 90900=
07190,1996-10-07 12:00:00,11,1019.7,-1.5,82,8,8000,18.52,,,30,,,,,,,,,,,wg-a,,,,AAXX 07124 07190 12658 70310 10110 20080 30013 40197 57015 60006 875// 91200=
07190,1996-10-07 15:00:00,12,1019.1,-0.6,82,9,8000,14.816,,,20,,,,,,,,,,,wg-a,,,,AAXX 07154 07190 12458 70208 10120 20090 30007 40191 56006 60006 875// 91500=
07190,1996-10-07 18:00:00,11,1019.1,-0,87,9,6000,11.112,,,10,9.4,12.1,,,,,,,,,wg-a,,,,AAXX 07184 07190 12556 80106 10110 20090 30007 40191 55000 60006 885// 91800 333 10121 20094=
07190,1996-10-07 21:00:00,11,1018.8,-0.3,87,9,6000,7.408,,,10,,,,,,,,,,,wg-a,,,,AAXX 07214 07190 12656 80104 10110 20090 30004 40188 58003 60006 885// 92100=
07190,1996-10-08 00:00:00,11,1018.3,-0.5,94,10,6000,11.112,,,350,,,,,,,,,,,wg-a,,,,AAXX 08004 07190 12656 83506 10110 20100 39999 40183 58005 60006 885// 90000=
07190,1996-10-08 03:00:00,11,1017.6,-0.7,94,10,6000,7.408,,,350,,,,,,,,,,,wg-a,,,,AAXX 08034 07190 12656 83504 10110 20100 39992 40176 58007 60006 885// 90300=
07190,1996-10-08 06:00:00,11,1018,0.4,94,10,500,11.112,,,350,11,11.5,,,,,,,,,wg-a,,,,AAXX 08064 07190 02400 83506 10110 20100 39996 40180 51004 60006 885// 90600 333 10115 20110 60004=
07190,1996-10-08 09:00:00,12,1018.5,0.5,94,11,6000,7.408,,,10,,,,,,,,,,,wg-a,,,,AAXX 08094 07190 12456 80104 10120 20110 30001 40185 51005 60006 876// 90900=
07190,1996-10-08 12:00:00,14,1018,-0.3,82,11,6000,7.408,,,20,,,,,,,,,,,wg-a,,,,AAXX 08124 07190 12456 80204 10140 20110 39998 40180 58003 60006 8657/ 91200=
07190,1996-10-08 15:00:00,14,1018.1,-0.3,82,11,6000,7.408,,,20,,,,,,,,,,,wg-a,,,,AAXX 08154 07190 12456 80204 10140 20110 39998 40181 58003 60006 8657/ 91500=
07190,1996-10-08 18:00:00,13,1019,0.8,88,11,3000,7.408,,,330,11.4,14.4,,,,,,,,10,wg-a,,,,AAXX 08184 07190 12530 83304 10130 20110 30007 40190 51008 60006 71022 875// 91800 333 10144 20114=
07190,1996-10-08 21:00:00,12,1019,-0,94,11,2800,0,,,0,,,,,,,,,,10,wg-a,,,,AAXX 08214 07190 12628 80000 10120 20110 30007 40190 55000 60006 71022 875// 92100=
07190,1996-10-09 00:00:00,12,1019,0,94,11,3000,7.408,,,330,,,,,,,,,,10,wg-a,,,,AAXX 09004 07190 12430 83304 10120 20110 30007 40190 50000 60006 71022 875// 90000=
07190,1996-10-09 03:00:00,12,1018.6,-0.5,94,11,2500,3.704,,,330,,,,,,,,,,10,wg-a,,,,AAXX 09034 07190 12425 83302 10120 20110 30002 40186 58005 60006 71022 875// 90300=
07190,1996-10-09 06:00:00,12,1019.4,0.8,94,11,3000,3.704,,,350,11.7,12.7,,,,,,,,10,wg-a,,,,AAXX 09064 07190 02430 83502 10120 20110 30010 40194 53008 60006 71022 885// 90600 333 10127 20117 60004=
07190,1996-10-09 09:00:00,13,1020,0.7,88,11,4500,0,,,0,,,,,,,,,,10,wg-a,,,,AAXX 09094 07190 12745 70000 10130 20110 30017 40200 51007 60006 71022 875// 90900=
07190,1996-10-09 12:00:00,15,1019.5,-0.4,82,12,4500,3.704,,,350,,,,,,,,,,10,wg-a,,,,AAXX 09124 07190 12545 83502 10150 20120 30013 40195 58004 60006 71022 885// 91200=
07190,1996-10-09 15:00:00,14,1019.4,-0.1,88,12,4500,7.408,,,210,,,,,,,,,,10,wg-a,,,,AAXX 09154 07190 12545 82104 10140 20120 30012 40194 55001 60006 71022 885// 91500=
07190,1996-10-09 18:00:00,13,1020.2,0.7,94,12,500,0,,,0,11.8,15.5,,,,,,,,,wg-a,,,,AAXX 09184 07190 12500 80000 10130 20120 30019 40202 53007 60006 885// 91800 333 10155 20118=
07190,1996-10-09 21:00:00,12,1021.5,1.1,94,11,2700,3.704,,,310,,,,,,,,,,10,wg-a,,,,AAXX 09214 07190 12727 83102 10120 20110 30030 40215 53011 60006 71022 885// 92100=
07190,1996-10-10 00:00:00,11,1021.3,-0.2,94,10,2500,3.704,,,350,,,,,,,,,,10,wg-a,,,,AAXX 10004 07190 12625 83502 10110 20100 30028 40213 57002 60006 71022 885// 90000=
07190,1996-10-10 03:00:00,9,1021.2,-0.2,100,9,3500,0,,,0,,,,,,,,,,10,wg-a,,,,AAXX 10034 07190 12735 70000 10090 20090 30026 40212 55002 60006 71022 875// 90300=
07190,1996-10-10 06:00:00,9,1021.8,0.6,100,9,500,0,,,0,8.7,12.9,,,,,,,,11,wg-a,,,,AAXX 10064 07190 02700 70000 10090 20090 30032 40218 52006 60006 71122 875// 90600 333 10129 20087 60004=
07190,1996-10-10 09:00:00,13,1022.9,1.3,82,10,4000,11.112,,,360,,,,,,,,,,10,wg-a,,,,AAXX 10094 07190 12740 /3606 10130 20100 30045 40229 51013 60006 71011 82530 90900=
07190,1996-10-10 12:00:00,17,1021.9,-0.7,63,10,8000,7.408,,,350,,,,,,,,,,,wg-a,,,,AAXX 10124 07190 12558 /3504 10170 20100 30038 40219 58007 60006 81200 91200=
07190,1996-10-10 15:00:00,16,1021.8,-0.2,72,11,7000,14.816,,,40,,,,,,,,,,,wg-a,,,,AAXX 10154 07190 12657 70408 10160 20110 30036 40218 55002 60006 8323/ 91500=
07190,1996-10-10 18:00:00,14,1022.9,1,77,10,500,11.112,,,350,9,18.2,,,,,,,,,wg-a,,,,AAXX 10184 07190 12600 73506 10140 20100 30046 40229 53010 60006 8157/ 91800 333 10182 20090=
07190,1996-10-10 21:00:00,12,1023.2,0.2,88,10,500,11.112,,,350,,,,,,,,,,,wg-a,,,,AAXX 10214 07190 12600 73506 10120 20100 30048 40232 51002 60006 8157/ 92100=
07190,1996-10-11 00:00:00,10,1023.1,-0.4,93,9,1500,11.112,,,350,,,,,,,,,,10,wg-a,,,,AAXX 11004 07190 12/15 33506 10100 20090 30045 40231 57004 60006 71011 83030 90000=
07190,1996-10-11 03:00:00,9,1022.4,-0.6,100,9,1000,3.704,,,360,,,,,,,,,,,wg-a,,,,AAXX 11034 07190 12110 83602 10090 20090 30038 40224 58006 60006 886// 90300=
07190,1996-10-11 06:00:00,10,1022.5,0.1,93,9,400,11.112,,,30,7.5,13.6,,,,,,,,45,wg-a,,,,AAXX 11064 07190 02/04 90306 10100 20090 30039 40225 53001 60006 74541 89/// 90600 333 10136 20075 60004=
07190,1996-10-11 09:00:00,11,1022.7,0.3,94,10,1500,11.112,,,350,,,,,,,,,,10,wg-a,,,,AAXX 11094 07190 12215 83506 10110 20100 30042 40227 50003 60006 71042 886// 90900=
07190,1996-10-11 12:00:00,13,1021.2,-1.3,82,10,4500,11.112,,,340,,,,,,,,,,10,wg-a,,,,AAXX 11124 07190 12445 83406 10130 20100 30029 40212 58013 60006 71042 91200=
07190,1996-10-11 15:00:00,15,1020,-1.1,72,10,500,7.408,,,20,,,,,,,,,,,wg-a,,,,AAXX 11154 07190 12600 80204 10150 20100 30018 40200 56011 60006 885// 91500=
07190,1996-10-11 18:00:00,13,1019.9,-0.2,88,11,500,3.704,,,210,9.6,14.7,,,,,,,,,wg-a,,,,AAXX 11184 07190 12500 72102 10130 20110 30016 40199 56002 60006 875// 91800 333 10147 20096=
07190,1996-10-11 21:00:00,12,1019.4,-0.6,88,10,4000,0,,,0,,,,,,,,,,10,wg-a,,,,AAXX 11214 07190 12740 /0000 10120 20100 30010 40194 58006 60006 71022 85501 92100=
07190,1996-10-12 00:00:00,7,1019,-0.7,100,7,2500,3.704,,,200,,,,,,,,,,10,wg-a,,,,AAXX 12004 07190 12/25 02002 10070 20070 30003 40190 57007 60006 71041 80000 90000=
07190,1996-10-12 03:00:00,7,1018.6,-0.4,100,7,200,3.704,,,230,,,,,,,,,,45,wg-a,,,,AAXX 12034 07190 12/02 92302 10070 20070 39999 40186 56004 60006 74541 89/// 90300=
07190,1996-10-12 06:00:00,8,1018.5,-0,100,8,300,7.408,,,210,6.1,13.3,,,,,,,,45,wg-a,,,,AAXX 12064 07190 02/03 92104 10080 20080 39999 40185 55000 60006 74541 89/// 90600 333 10133 20061 60004=
07190,1996-10-12 09:00:00,10,1018.5,0.1,100,10,1300,11.112,,,190,,,,,,,,,,10,wg-a,,,,AAXX 12094 07190 12113 81906 10100 20100 30000 40185 50001 60006 71042 886// 90900=
07190,1996-10-12 12:00:00,17,1016.3,-1.7,68,11,6000,7.408,,,160,,,,,,,,,,2,wg-a,,,,AAXX 12124 07190 12/56 /1604 10170 20110 39983 40163 58017 60006 70242 80001 91200=
07190,1996-10-12 15:00:00,17,1014.8,-1.5,68,11,8000,3.704,,,70,,,,,,,,,,,wg-a,,,,AAXX 12154 07190 12/58 40702 10170 20110 39968 40148 56015 60006 80001 91500=
07190,1996-10-12 18:00:00,12,1015.3,0.2,88,10,500,3.704,,,320,8.1,18.9,,,,,,,,,wg-a,,,,AAXX 12184 07190 12/00 33202 10120 20100 39970 40153 53002 60006 80001 91800 333 10189 20081=
07190,1996-10-12 21:00:00,9,1015.7,0.2,93,8,3500,3.704,,,220,,,,,,,,,,10,wg-a,,,,AAXX 12214 07190 12/35 02202 10090 20080 39972 40157 53002 60006 71000 80000 92100=
07190,1996-10-13 00:00:00,6,1015.7,-0.2,100,6,2500,3.704,,,250,,,,,,,,,,10,wg-a,,,,AAXX 13004 07190 12/25 02502 10060 20060 39970 40157 58002 60006 71000 80000 90000=
07190,1996-10-13 03:00:00,5,1015.4,-0.4,93,4,100,0,,,0,,,,,,,,,,44,wg-a,,,,AAXX 13034 07190 12/01 00000 10050 20040 39966 40154 58004 60006 74440 80000 90300=
07190,1996-10-13 06:00:00,4,1015.5,-0,100,4,300,0,,,0,4,12.3,,,,,,,,44,wg-a,,,,AAXX 13064 07190 02/03 10000 10040 20040 39966 40155 55000 60006 74440 80001 90600 333 10123 20040 60004=
07190,1996-10-13 09:00:00,8,1015.6,0.4,100,8,500,3.704,,,30,,,,,,,,,,42,wg-a,,,,AAXX 13094 07190 12/05 30302 10080 20080 39970 40156 50004 60006 74244 80001 90900=
07190,1996-10-13 12:00:00,17,1013,-2,63,10,8000,7.408,,,10,,,,,,,,,,1,wg-a,,,,AAXX 13124 07190 12558 40104 10170 20100 39950 40130 58020 60006 70141 81101 91200=
07190,1996-10-13 15:00:00,19,1010.9,-1.9,60,11,10000,3.704,,,10,,,,,,,,,,,wg-a,,,,AAXX 13154 07190 12/60 30102 10190 20110 39931 40109 56019 60006 80002 91500=
07190,1996-10-13 18:00:00,12,1011.3,0.1,88,10,8000,3.704,,,260,3.9,19.3,,,,,,,,,wg-a,,,,AAXX 13184 07190 12/58 22602 10120 20100 39931 40113 53001 60006 80002 91800 333 10193 20039=
07190,1996-10-13 21:00:00,9,1011.8,0.2,93,8,6000,0,,,0,,,,,,,,,,,wg-a,,,,AAXX 13214 07190 12/56 00000 10090 20080 39933 40118 51002 60006 80000 92100=
07190,1996-10-14 00:00:00,6,1012,0.1,100,6,500,0,,,0,,,,,,,,,,,wg-a,,,,AAXX 14004 07190 12/00 00000 10060 20060 39934 40120 53001 60006 80000 90000=
07190,1996-10-14 03:00:00,6,1011.5,-0.6,93,5,300,0,,,0,,,,,,,,,,,wg-a,,,,AAXX 14034 07190 32/03 90000 10060 20050 39928 40115 58006 89/// 90300=
07190,1996-10-14 06:00:00,7,1011.7,0.3,100,7,100,3.704,,,360,4.9,12.4,,,,,,,,45,wg-a,,,,AAXX 14064 07190 12/01 93602 10070 20070 39931 40117 53003 60004 74541 89/// 90600 333 10124 20049=
07190,1996-10-14 09:00:00,10,1011.5,0,93,9,4000,3.704,,,360,,,,,,,,,,10,wg-a,,,,AAXX 14094 07190 12240 33602 10100 20090 39931 40115 50000 60006 71041 83601 90900=
07190,1996-10-14 12:00:00,15,1009.6,-1.5,72,10,10000,7.408,,,40,,,,,,,,,,2,wg-a,,,,AAXX 14124 07190 12/60 /0404 10150 20100 39916 40096 57015 60006 70241 80002 91200=
07190,1996-10-14 15:00:00,17,1008.6,-0.9,68,11,12000,7.408,,,50,,,,,,,,,,,wg-a,,,,AAXX 14154 07190 12/62 60504 10170 20110 39907 40086 58009 60006 81032 91500=
07190,1996-10-14 18:00:00,13,1008.8,-0,82,10,10000,7.408,,,280,6.6,17.2,,,,,,,,,wg-a,,,,AAXX 14184 07190 12/60 62804 10130 20100 39907 40088 54000 60006 82072 91800 333 10172 20066=
07190,1996-10-14 21:00:00,8,1009.1,-0.1,93,7,7000,3.704,,,170,,,,,,,,,,,wg-a,,,,AAXX 14214 07190 12/57 31702 10080 20070 39906 40091 55001 60006 80002 92100=
07190,1996-10-15 00:00:00,7,1009,-0.2,93,6,8000,7.408,,,210,,,,,,,,,,,wg-a,,,,AAXX 15004 07190 12/58 22104 10070 20060 39904 40090 55002 60006 80002 90000=
07190,1996-10-15 03:00:00,5,1009.2,0.1,100,5,200,0,,,0,,,,,,,,,,41,wg-a,,,,AAXX 15034 07190 12102 40000 10050 20050 39905 40092 51001 60006 741// 84600 90300=
07190,1996-10-15 06:00:00,7,1009.4,0.5,100,7,3000,0,,,0,4.9,12.7,,,,,,,,10,wg-a,,,,AAXX 15064 07190 02730 70000 10070 20070 39909 40094 51005 60006 71041 82572 90600 333 10127 20049 60004=
07190,1996-10-15 09:00:00,11,1009.3,0,94,10,4500,0,,,0,,,,,,,,,,10,wg-a,,,,AAXX 15094 07190 12545 /0000 10110 20100 39910 40093 50000 60006 71022 81132 90900=
07190,1996-10-15 12:00:00,17,1008.3,-0.6,68,11,9000,3.704,,,50,,,,,,,,,,,wg-a,,,,AAXX 15124 07190 12759 70502 10170 20110 39904 40083 58006 60006 81532 91200=
07190,1996-10-15 15:00:00,17,1008.7,0.5,68,11,10000,11.112,,,360,,,,,,,,,,,wg-a,,,,AAXX 15154 07190 12660 73606 10170 20110 39909 40087 53005 60006 85572 91500=
07190,1996-10-15 18:00:00,14,1009.1,0.1,88,12,10000,7.408,,,10,7.2,17.6,,,,,,,,21,wg-a,,,,AAXX 15184 07190 02660 70104 10140 20120 39911 40091 50001 61000 72162 8557/ 91800 333 10176 20072 ////=
07190,1996-10-15 21:00:00,14,1009.1,-0.1,88,12,9000,3.704,,,350,,,,,,,,,,61,wg-a,,,,AAXX 15214 07190 02559 83502 10140 20120 39910 40091 56001 61000 76162 875// 92100 333 ////=
07190,1996-10-16 00:00:00,13,1008.1,-1,94,12,500,7.408,,,310,,,,3,,,,,,61,wg-a,,,,AAXX 16004 07190 02200 83104 10130 20120 39900 40081 58010 60036 76162 885// 90000 333 60037=
07190,1996-10-16 03:00:00,13,1006.7,-1.4,94,12,500,11.112,,,320,,,,3,,,,,,61,wg-a,,,,AAXX 16034 07190 12500 83206 10130 20120 39886 40067 56014 60037 76162 885// 90300=
07190,1996-10-16 06:00:00,12,1006.9,0.1,94,11,500,18.52,,,310,11.9,14.4,,10,,,16,,,63,wg-a,,,,AAXX 16064 07190 02200 83110 10120 20110 39887 40069 52001 60164 76362 8652/ 90600 333 10144 20119 60107=
07190,1996-10-16 09:00:00,11,1008.1,1.2,100,11,7000,14.816,,,310,,,,7,,,,,,61,wg-a,,,,AAXX 16094 07190 12457 83108 10110 20110 39899 40081 53012 60077 76166 8652/ 90900=
07190,1996-10-16 12:00:00,11,1008.8,0.7,94,10,8000,14.816,,,290,,,,4,,,,,,61,wg-a,,,,AAXX 16124 07190 02458 82908 10110 20100 39906 40088 52007 60106 76166 8682/ 91200 333 60047=
07190,1996-10-16 15:00:00,11,1009.2,0.3,87,9,10000,11.112,,,310,,,,1,,,,,,61,wg-a,,,,AAXX 16154 07190 12560 83106 10110 20090 39909 40092 53003 60017 76162 8682/ 91500=
07190,1996-10-16 18:00:00,10,1010.6,1.3,87,8,8000,11.112,,,270,9.6,11.9,,1,,,,,,60,wg-a,,,,AAXX 16184 07190 12658 82706 10100 20080 39922 40106 51013 60017 76062 8257/ 91800 333 10119 20096=
07190,1996-10-16 21:00:00,9,1011.2,0.6,93,8,8000,11.112,,,260,,,,0,,,,,,60,wg-a,,,,AAXX 16214 07190 12558 82606 10090 20080 39928 40112 53006 60007 76066 8587/ 92100=
07190,1996-10-17 00:00:00,8,1011.1,-0.2,100,8,8000,7.408,,,200,,,,,,,,,,1,wg-a,,,,AAXX 17004 07190 02558 82004 10080 20080 39926 40111 55002 60006 70162 8257/ 90000 333 61000=
07190,1996-10-17 03:00:00,8,1011.3,0.2,100,8,500,11.112,,,180,,,,1,,,,,,61,wg-a,,,,AAXX 17034 07190 12200 81806 10080 20080 39928 40113 52002 60017 76162 876// 90300=
07190,1996-10-17 06:00:00,8,1011.2,-0.1,93,7,0,11.112,,,160,7.9,9.6,,1,,,13,,,,wg-a,,,,AAXX 17064 07190 02/// /1606 10080 20070 39927 40112 55001 60134 90600 333 10096 20079 60017=
07190,1996-10-17 12:00:00,12,1010.8,-0.2,76,8,0,14.816,,,170,,,,,,,,,,,wg-a,,,,AAXX 17124 07190 12/// /1708 10120 20080 39925 40108 58002 60006 91200=
07190,1996-10-17 18:00:00,8,1011.8,1,87,6,500,3.704,,,120,7.9,13.3,,,,,,,,,wg-a,,,,AAXX 17184 07190 12600 31202 10080 20060 39933 40118 53010 60006 82802 91800 333 10133 20079=
07190,1996-10-17 21:00:00,7,1013.3,1.4,93,6,20000,3.704,,,70,,,,,,,,,,,wg-a,,,,AAXX 17214 07190 12570 70702 10070 20060 39947 40133 53014 60006 878// 92100=
07190,1996-10-18 00:00:00,8,1014.1,0.8,93,7,15000,3.704,,,110,,,,,,,,,,,wg-a,,,,AAXX 18004 07190 12665 71102 10080 20070 39955 40141 51008 60006 878// 90000=
07190,1996-10-18 03:00:00,6,1014.8,0.6,100,6,15000,0,,,0,,,,,,,,,,,wg-a,,,,AAXX 18034 07190 12565 /0000 10060 20060 39961 40148 51006 60006 86500 90300=
07190,1996-10-18 06:00:00,7,1016,1.2,93,6,300,7.408,,,220,6.1,8.2,,,,,,,,47,wg-a,,,,AAXX 18064 07190 02/03 92204 10070 20060 39973 40160 51012 60006 74741 89/// 90600 333 10082 20061 60004=
07190,1996-10-18 09:00:00,8,1017,1.1,93,7,4000,11.112,,,200,,,,,,,,,,10,wg-a,,,,AAXX 18094 07190 12140 72006 10080 20070 39984 40170 51011 60006 71042 872// 90900=
07190,1996-10-18 12:00:00,14,1015.6,-1,55,5,25000,11.112,,,150,,,,,,,,,,1,wg-a,,,,AAXX 18124 07190 12575 31506 10140 20050 39974 40156 58010 60006 70141 82401 91200=
07190,1996-10-18 15:00:00,15,1014.5,-1.1,51,5,25000,11.112,,,160,,,,,,,,,,,wg-a,,,,AAXX 18154 07190 12675 21606 10150 20050 39963 40145 58011 60006 82201 91500=
07190,1996-10-18 18:00:00,9,1014.5,-0.3,71,4,500,3.704,,,160,6.4,15.4,,,,,,,,,wg-a,,,,AAXX 18184 07190 12/00 41602 10090 20040 39960 40145 56003 60006 80004 91800 333 10154 20064=
07190,1996-10-18 21:00:00,8,1014.6,-0,81,5,20000,7.408,,,180,,,,,,,,,,,wg-a,,,,AAXX 18214 07190 12770 71804 10080 20050 39960 40146 55000 60006 83552 92100=
07190,1996-10-19 00:00:00,10,1014.9,0.4,82,7,20000,11.112,,,210,,,,0,,,,,,21,wg-a,,,,AAXX 19004 07190 02570 82106 10100 20070 39964 40149 53004 60006 72161 875// 90000 333 60007=
07190,1996-10-19 03:00:00,11,1014.5,-0.3,87,9,15000,14.816,,,170,,,,,,,,,,,wg-a,,,,AAXX 19034 07190 12565 81708 10110 20090 39961 40145 58003 60006 875// 90300=
07190,1996-10-19 06:00:00,10,1014.9,0.4,93,9,7000,18.52,,,190,7.3,10.6,,1,,,1,,,80,wg-a,,,,AAXX 19064 07190 02557 81910 10100 20090 39965 40149 53004 60014 78082 878// 90600 333 10106 20073 60017=
07190,1996-10-19 09:00:00,13,1017.8,3,88,11,20000,7.408,,,180,,,,1,,,,,,3,wg-a,,,,AAXX 19094 07190 12570 71804 10130 20110 39995 40178 51030 60017 70386 86802 90900=
07190,1996-10-19 12:00:00,15,1019.5,1.8,72,10,25000,14.816,,,260,,,,1,,,,,,1,wg-a,,,,AAXX 19124 07190 02575 72608 10150 20100 30013 40195 51018 60026 70186 878// 91200 333 60017=
07190,1996-10-19 15:00:00,15,1021.5,1.9,63,8,500,18.52,,,280,,,,,,,,,,,wg-a,,,,AAXX 19154 07190 12500 22810 10150 20080 30032 40215 52019 60006 82400 91500=
07190,1996-10-19 18:00:00,10,1024.8,3,82,7,20000,11.112,,,230,10.1,15.3,,,,,,,,,wg-a,,,,AAXX 19184 07190 32770 32306 10100 20070 30062 40248 53030 81402 91800 333 10153 20101=
07190,1996-10-19 21:00:00,8,1027.1,2.1,87,6,20000,11.112,,,210,,,,,,,,,,,wg-a,,,,AAXX 19214 07190 12/70 52106 10080 20060 30083 40271 53021 60006 83031 92100=
07190,1996-10-20 00:00:00,7,1027.4,0.2,93,6,20000,7.408,,,170,,,,,,,,,,,wg-a,,,,AAXX 20004 07190 12670 /1704 10070 20060 30085 40274 50002 60006 82501 90000=
07190,1996-10-20 06:00:00,9,1025.7,-0.4,93,8,10000,11.112,,,190,7.2,10.2,,1,,,3,,,61,wg-a,,,,AAXX 20064 07190 02560 71906 10090 20080 30070 40257 58004 60034 76162 8587/ 90600 333 10102 20072 60017=
07190,1996-10-20 12:00:00,13,1024.3,-1.2,82,10,12000,18.52,,,180,,,,,,,,,,1,wg-a,,,,AAXX 20124 07190 02562 81810 10130 20100 30059 40243 58012 60026 70162 8487/ 91200 333 61000=
07190,1996-10-20 15:00:00,15,1023,-1.2,72,10,20000,11.112,,,200,,,,,,,,,,,wg-a,,,,AAXX 20154 07190 12670 72006 10150 20100 30047 40230 56012 60006 82142 91500=
07190,1996-10-20 18:00:00,12,1023.2,0.1,82,9,500,11.112,,,170,9.2,15.1,,,,,,,,,wg-a,,,,AAXX 20184 07190 32600 81706 10120 20090 30048 40232 53001 8381/ 91800 333 10151 20092=
07190,1996-10-20 21:00:00,12,1022.9,-0.3,94,11,8000,11.112,,,200,,,,1,,,,,,61,wg-a,,,,AAXX 20214 07190 12658 82006 10120 20110 30045 40229 55003 60017 76162 8582/ 92100=
07190,1996-10-21 00:00:00,11,1021.5,-1.5,94,10,12000,14.816,,,170,,,,4,,,,,,61,wg-a,,,,AAXX 21004 07190 02562 81708 10110 20100 30030 40215 58015 60056 76162 8582/ 90000 333 60047=
07190,1996-10-21 03:00:00,11,1018.6,-2.8,94,10,25000,14.816,,,180,,,,0,,,,,,0,wg-a,,,,AAXX 21034 07190 12675 81808 10110 20100 30002 40186 56028 60007 70062 875// 90300=
07190,1996-10-21 06:00:00,12,1017.8,-0.8,94,11,15000,7.408,,,160,11.2,13.7,,1,,,8,,,21,wg-a,,,,AAXX 21064 07190 02465 81604 10120 20110 39994 40178 55008 60084 72165 878// 90600 333 10137 20112 60017=
07190,1996-10-21 09:00:00,13,1018.3,0.6,94,12,18000,18.52,,,170,,,,1,,,,,,21,wg-a,,,,AAXX 21094 07190 12468 71710 10130 20120 30000 40183 50006 60017 72165 878// 90900=
07190,1996-10-21 12:00:00,15,1018.7,0.5,94,14,4000,3.704,,,180,,,,0,,,,,,50,wg-a,,,,AAXX 21124 07190 02440 81802 10150 20140 30005 40187 51005 60016 75065 885// 91200 333 60007=
07190,1996-10-21 15:00:00,18,1019.3,0.8,73,13,20000,18.52,,,240,,,,,,,,,,1,wg-a,,,,AAXX 21154 07190 02570 42410 10180 20130 30013 40193 53008 61000 70151 84400 91500 333 ////=
07190,1996-10-21 18:00:00,13,1022.4,2.7,88,11,18000,3.704,,,260,11.7,18.5,,,,,,,,1,wg-a,,,,AAXX 21184 07190 32668 32602 10130 20110 30040 40224 53027 70151 82531 91800 333 10185 20117=
07190,1996-10-21 21:00:00,12,1024.4,1.9,82,9,18000,7.408,,,310,,,,,,,,,,,wg-a,,,,AAXX 21214 07190 12668 53104 10120 20090 30059 40244 51019 60006 83542 92100=
07190,1996-10-22 00:00:00,9,1025.5,0.9,87,7,15000,7.408,,,310,,,,,,,,,,,wg-a,,,,AAXX 22004 07190 12665 /3104 10090 20070 30068 40255 51009 60006 81501 90000=
07190,1996-10-22 03:00:00,6,1026.1,0.3,93,5,15000,0,,,0,,,,,,,,,,,wg-a,,,,AAXX 22034 07190 12/65 20000 10060 20050 30071 40261 52003 60006 80002 90300=
07190,1996-10-22 06:00:00,4,1027,0.8,100,4,1500,0,,,0,3.7,12.8,,0,,,1,,,12,wg-a,,,,AAXX 22064 07190 02/15 60000 10040 20040 30079 40270 53008 60014 71241 80001 90600 333 10128 20037 60007=
07190,1996-10-22 09:00:00,10,1027.6,1,87,8,8000,7.408,,,10,,,,,,,,,,,wg-a,,,,AAXX 22094 07190 12/58 /0104 10100 20080 30089 40276 51010 60006 80001 90900=
07190,1996-10-22 12:00:00,14,1026.4,-0.9,67,8,12000,7.408,,,60,,,,,,,,,,,wg-a,,,,AAXX 22124 07190 12562 40604 10140 20080 30080 40264 58009 60006 83101 91200=
07190,1996-10-22 15:00:00,14,1025.9,-0.5,58,6,15000,14.816,,,20,,,,,,,,,,,wg-a,,,,AAXX 22154 07190 12/65 50208 10140 20060 30075 40259 55005 60006 80001 91500=
07190,1996-10-22 18:00:00,9,1026.3,0.2,81,6,15000,7.408,,,360,4,14.8,,,,,,,,,wg-a,,,,AAXX 22184 07190 12/65 43604 10090 20060 30076 40263 53002 60006 80001 91800 333 10148 20040=
07190,1996-10-22 21:00:00,6,1026.2,-0.3,93,5,12000,3.704,,,350,,,,,,,,,,,wg-a,,,,AAXX 22214 07190 12/62 23502 10060 20050 30073 40262 58003 60006 80001 92100=
07190,1996-10-23 00:00:00,5,1026.3,0.1,93,4,7000,3.704,,,350,,,,,,,,,,,wg-a,,,,AAXX 23004 07190 12/57 23502 10050 20040 30073 40263 50001 60006 80001 90000=
07190,1996-10-23 03:00:00,3,1026.1,-0.3,100,3,7000,7.408,,,330,,,,,,,,,,,wg-a,,,,AAXX 23034 07190 12/57 23304 10030 20030 30070 40261 55003 60006 80001 90300=
07190,1996-10-23 06:00:00,3,1026.4,0.3,100,3,7000,7.408,,,350,2.7,9,,,,,,,,,wg-a,,,,AAXX 23064 07190 02/57 33504 10030 20030 30073 40264 53003 60006 80001 90600 333 10090 20027 60004=
07190,1996-10-23 12:00:00,13,1025.6,,62,6,15000,3.704,,,20,,,,,,,,,,,wg-a,,,,AAXX 23124 07190 12/65 40202 10130 20060 30071 40256 60006 91200=
07190,1996-10-23 15:00:00,15,1023.9,-0.8,55,6,25000,11.112,,,20,,,,,,,,,,,wg-a,,,,AAXX 23154 07190 12/75 50206 10150 20060 30056 40239 56008 60006 80001 91500=
07190,1996-10-23 18:00:00,9,1024.7,0.4,76,5,20000,11.112,,,340,2.9,15,,,,,,,,,wg-a,,,,AAXX 23184 07190 12/70 53406 10090 20050 30060 40247 53004 60006 80001 91800 333 10150 20029=
07190,1996-10-23 21:00:00,5,1025.2,0.2,93,4,20000,3.704,,,300,,,,,,,,,,,wg-a,,,,AAXX 23214 07190 12/70 43002 10050 20040 30062 40252 53002 60006 80001 92100=
07190,1996-10-24 00:00:00,4,1025.1,-0.2,93,3,20000,7.408,,,340,,,,,,,,,,,wg-a,,,,AAXX 24004 07190 12/70 43404 10040 20030 30060 40251 57002 60006 80001 90000=
07190,1996-10-24 06:00:00,1,1025.5,0.5,100,1,1500,0,,,0,,8.6,,,,,,,,10,wg-a,,,,AAXX 24064 07190 02115 80000 10010 20010 30062 40255 51005 60006 71011 886// 90600 333 10086 60004=
07190,1996-10-24 09:00:00,5,1025.9,0.7,100,5,300,3.704,,,60,,,,,,,,,,44,wg-a,,,,AAXX 24094 07190 12103 80602 10050 20050 30069 40259 50007 60006 74442 886// 90900=
07190,1996-10-24 12:00:00,8,1024.4,-1.2,87,6,4000,3.704,,,260,,,,,,,,,,10,wg-a,,,,AAXX 24124 07190 12240 /2602 10080 20060 30057 40244 58012 60006 71042 83601 91200=
07190,1996-10-24 15:00:00,12,1022.3,-1.8,71,7,7000,0,,,0,,,,,,,,,,,wg-a,,,,AAXX 24154 07190 12/57 /0000 10120 20070 30039 40223 56018 60006 80002 91500=
07190,1996-10-24 18:00:00,7,1022.7,-0,93,6,3500,3.704,,,240,1.1,12.4,,,,,,,,10,wg-a,,,,AAXX 24184 07190 12/35 22402 10070 20060 30039 40227 54000 60006 71011 80001 91800 333 10124 20011=
07190,1996-10-24 21:00:00,3,1023.2,0.2,100,3,2000,3.704,,,160,,,,,,,,,,10,wg-a,,,,AAXX 24214 07190 12120 21602 10030 20030 30041 40232 53002 60006 71000 82600 92100=
07190,1996-10-25 00:00:00,2,1023.1,-0.2,93,1,900,0,,,0,,,,,,,,,,41,wg-a,,,,AAXX 25004 07190 12/09 00000 10020 20010 30039 40231 56002 60006 74140 80000 90000=
07190,1996-10-25 03:00:00,3,1022.8,-0.2,100,3,100,3.704,,,160,,,,,,,,,,45,wg-a,,,,AAXX 25034 07190 12/01 91602 10030 20030 30037 40228 58002 60006 74541 89/// 90300=
07190,1996-10-25 06:00:00,3,1023.4,0.6,100,3,100,3.704,,,200,0.9,7,,0,,,,,,45,wg-a,,,,AAXX 25064 07190 02/01 92002 10030 20030 30043 40234 51006 60004 74541 89/// 90600 333 10070 20009 60007=
07190,1996-10-25 09:00:00,4,1024,0.7,100,4,400,7.408,,,120,,,,,,,,,,43,wg-a,,,,AAXX 25094 07190 12/04 91204 10040 20040 30050 40240 50007 60006 74344 89/// 90900=
07190,1996-10-25 12:00:00,10,1022.9,-0.7,87,8,500,3.704,,,190,,,,,,,,,,3,wg-a,,,,AAXX 25124 07190 12/00 41902 10100 20080 30043 40229 58007 60006 70341 81032 91200=
07190,1996-10-25 18:00:00,10,1023.7,1.3,87,8,4500,3.704,,,330,2.9,12.7,,,,,,,,10,wg-a,,,,AAXX 25184 07190 32/45 73302 10100 20080 30051 40237 51013 71011 82032 91800 333 10127 20029=
07190,1996-10-26 00:00:00,10,1025.1,0.4,93,9,3000,3.704,,,220,,,,,,,,,,10,wg-a,,,,AAXX 26004 07190 12530 72202 10100 20090 30065 40251 51004 60006 71022 8457/ 90000=
07190,1996-10-26 06:00:00,6,1026.3,0.6,100,6,700,0,,,0,6.4,9.9,,,,,,,,10,wg-a,,,,AAXX 26064 07190 12507 30000 10060 20060 30074 40263 53006 60006 71011 83800 90600 333 10099 20064=
07190,1996-10-26 12:00:00,17,1026,-0.7,55,8,40000,14.816,,,200,,,,,,,,,,1,wg-a,,,,AAXX 26124 07190 12682 52008 10170 20080 30078 40260 58007 60006 70141 83801 91200=
07190,1996-10-26 15:00:00,16,1025.7,-0.3,55,7,35000,11.112,,,260,,,,,,,,,,,wg-a,,,,AAXX 26154 07190 12681 72606 10160 20070 30075 40257 55003 60006 878// 91500=
07190,1996-10-26 18:00:00,13,1026.5,0.5,77,9,15000,7.408,,,170,6.2,18.6,,,,,,,,25,wg-a,,,,AAXX 26184 07190 02765 61704 10130 20090 30080 40265 53005 61000 72586 86500 91800 333 10186 20062 ////=
07190,1996-10-26 21:00:00,11,1026.8,0.2,87,9,15000,3.704,,,210,,,,,,,,,,60,wg-a,,,,AAXX 26214 07190 02765 72102 10110 20090 30082 40268 52002 61000 76062 875// 92100 333 ////=
07190,1996-10-27 00:00:00,9,1026.4,-0.5,93,8,15000,3.704,,,180,,,,0,,,,,,21,wg-a,,,,AAXX 27004 07190 02765 71802 10090 20080 30077 40264 57005 60006 72162 875// 90000 333 60007=
07190,1996-10-27 03:00:00,8,1025.5,-0.9,93,7,15000,7.408,,,200,,,,,,,,,,,wg-a,,,,AAXX 27034 07190 12765 /2004 10080 20070 30068 40255 58009 60006 86500 90300=
07190,1996-10-27 06:00:00,8,1025.5,-0.2,93,7,15000,7.408,,,180,7.6,18.6,,,,,,,,,wg-a,,,,AAXX 27064 07190 12665 41804 10080 20070 30066 40255 57002 60004 84500 90600 333 10186 20076=
07190,1996-10-27 12:00:00,16,1022.6,-2.1,63,9,500,11.112,,,170,,,,,,,,,,,wg-a,,,,AAXX 27124 07190 12600 /1706 10160 20090 30044 40226 58021 60006 81132 91200=
07190,1996-10-27 15:00:00,16,1020.6,-1.9,68,10,500,7.408,,,300,,,,,,,,,,,wg-a,,,,AAXX 27154 07190 12600 73004 10160 20100 30024 40206 56019 60006 8387/ 91500=
07190,1996-10-27 18:00:00,14,1020.1,-0.6,72,9,20000,11.112,,,190,7.8,16.5,,,,,,,,21,wg-a,,,,AAXX 27184 07190 02770 81906 10140 20090 30018 40201 57006 61000 72162 8757/ 91800 333 10165 20078 ////=
07190,1996-10-27 21:00:00,14,1019.1,-1,67,8,20000,11.112,,,180,,,,,,,,,,3,wg-a,,,,AAXX 27214 07190 02770 /1806 10140 20080 30008 40191 56010 61000 70362 8257/ 92100 333 ////=
07190,1996-10-28 00:00:00,14,1018.1,-1,67,8,20000,7.408,,,200,,,,,,,,,,1,wg-a,,,,AAXX 28004 07190 02770 82004 10140 20080 39998 40181 56010 61000 70162 8557/ 90000 333 ////=
07190,1996-10-28 03:00:00,14,1016.8,-1.2,72,9,15000,14.816,,,180,,,,,,,,,,,wg-a,,,,AAXX 28034 07190 12665 71808 10140 20090 39986 40168 57012 60006 8353/ 90300=
07190,1996-10-28 06:00:00,13,1015.9,-1,77,9,15000,18.52,,,180,13.2,14.6,,,,,,,,,wg-a,,,,AAXX 28064 07190 02665 41810 10130 20090 39976 40159 56010 61000 82830 90600 333 10146 20132 ////=
07190,1996-10-28 09:00:00,16,1014.8,-0.8,68,10,13000,18.52,,,190,,,,,,,,,,,wg-a,,,,AAXX 28094 07190 12663 /1910 10160 20100 39968 40148 58008 60006 81141 90900=
07190,1996-10-28 12:00:00,17,1013.1,-1.7,55,8,500,22.224,,,210,,,,,,,,,,,wg-a,,,,AAXX 28124 07190 12700 72112 10170 20080 39951 40131 58017 60006 8257/ 91200=
07190,1996-10-28 15:00:00,17,1011.1,-1.9,52,7,500,18.52,,,190,,,,,,,,,,,wg-a,,,,AAXX 28154 07190 12600 71910 10170 20070 39932 40111 56019 60006 875// 91500=
07190,1996-10-28 18:00:00,16,1011,-0.2,63,9,25000,29.632,,,220,13,18.4,,,,,,,,,wg-a,,,,AAXX 28184 07190 12675 62216 10160 20090 39930 40110 55002 60006 85501 91800 333 10184 20130=
07190,1996-10-28 21:00:00,15,1009.1,-1.9,67,9,20000,14.816,,,180,,,,,,,,,,,wg-a,,,,AAXX 28214 07190 12570 71808 10150 20090 39911 40091 57019 60006 878// 92100=
07190,1996-10-29 00:00:00,17,1007.1,-1.9,59,9,15000,25.928,,,190,,,,,,,,,,,wg-a,,,,AAXX 29004 07190 12665 71914 10170 20090 39892 40071 57019 60006 86801 90000=
07190,1996-10-29 03:00:00,16,1005.3,-1.8,68,10,15000,31.484,,,210,,,,,,,,,,21,wg-a,,,,AAXX 29034 07190 02665 82117 10160 20100 39874 40053 58018 61000 72162 878// 90300 333 ////=
07190,1996-10-29 06:00:00,14,1006.6,1.1,58,6,20000,29.632,,48.152,200,13.5,17.6,,,,,,,,3,wg-a,,,,AAXX 29064 07190 02670 /2016 10140 20060 39885 40066 51011 61000 70362 85802 90600 333 10176 20135 //// 91026=
07190,1996-10-29 09:00:00,15,1007.7,1.2,55,6,40000,38.892,,59.264,220,,,,,,,,,,,wg-a,,,,AAXX 29094 07190 12682 72221 10150 20060 39897 40077 53012 60006 878// 90900 333 91032=
07190,1996-10-29 12:00:00,12,1009.9,2,71,7,15000,35.188,,,240,,,,,,,,,,60,wg-a,,,,AAXX 29124 07190 02565 72419 10120 20070 39917 40099 51020 61000 76062 8387/ 91200 333 6100=
07190,1996-10-29 15:00:00,12,1011.3,1.3,82,9,20000,11.112,,,220,,,,0,,,,,,3,wg-a,,,,AAXX 29154 07190 12570 82206 10120 20090 39930 40113 53013 60007 70362 8587/ 91500=
07190,1996-10-29 18:00:00,10,1016.2,4.7,82,7,12000,14.816,,,290,10.1,,,,,,,,,21,wg-a,,,,AAXX 29184 07190 02662 72908 10100 20070 39977 40162 53047 61000 72162 8357/ 91800 333 20101 ////=
07190,1996-10-29 21:00:00,9,1020.1,3.8,76,5,25000,14.816,,,290,,,,,,,,,,,wg-a,,,,AAXX 29214 07190 12675 42908 10090 20050 30015 40201 51038 60006 84500 92100=
07190,1996-10-30 00:00:00,8,1023.3,3,76,4,25000,7.408,,,240,,,,,,,,,,,wg-a,,,,AAXX 30004 07190 12575 /2404 10080 20040 30045 40233 52030 60006 86800 90000=
07190,1996-10-30 03:00:00,6,1025.4,2,87,4,25000,11.112,,,220,,,,,,,,,,,wg-a,,,,AAXX 30034 07190 12675 72206 10060 20040 30065 40254 51020 60006 875// 90300=
07190,1996-10-30 06:00:00,6,1027,1.6,87,4,25000,11.112,,,220,5.9,10.1,,,,,1,,,,wg-a,,,,AAXX 30064 07190 12575 72206 10060 20040 30081 40270 53016 60014 875// 90600 333 10101 20059=
07190,1996-10-30 09:00:00,8,1028.9,2,76,4,500,11.112,,,210,,,,,,,,,,,wg-a,,,,AAXX 30094 07190 12500 72106 10080 20040 30101 40289 51020 60006 878// 90900=
07190,1996-10-30 12:00:00,11,1029.2,0.4,50,1,500,25.928,,,250,,,,,,,,,,,wg-a,,,,AAXX 30124 07190 12500 72514 10110 20010 30105 40292 51004 60006 878// 91200=
07190,1996-10-30 15:00:00,10,1030,0.7,53,1,20000,18.52,,,270,,,,,,,,,,,wg-a,,,,AAXX 30154 07190 12670 72710 10100 20010 30112 40300 53007 60006 87800 91500=
07190,1996-10-30 18:00:00,8,1031,0.9,66,2,15000,7.408,,,220,6.4,10.9,,,,,,,,,wg-a,,,,AAXX 30184 07190 12665 82204 10080 20020 30121 40310 53009 60006 875// 91800 333 10109 20064=
07190,1996-10-30 21:00:00,8,1030.9,-0.1,71,3,15000,3.704,,,180,,,,,,,,,,,wg-a,,,,AAXX 30214 07190 12665 81802 10080 20030 30120 40309 57001 60006 885// 92100=
07190,1996-10-31 00:00:00,7,1030.4,-0.6,81,4,15000,7.408,,,210,,,,,,,,,,,wg-a,,,,AAXX 31004 07190 12665 72104 10070 20040 30114 40304 56006 60006 875// 90000=
07190,1996-10-31 03:00:00,5,1029.3,-1.2,81,2,15000,7.408,,,230,,,,,,,,,,,wg-a,,,,AAXX 31034 07190 12665 72304 10050 20020 30102 40293 58012 60006 875// 90300=
07190,1996-10-31 06:00:00,3,1028.7,-0.7,93,2,10000,11.112,,,170,3.2,8,,,,,,,,,wg-a,,,,AAXX 31064 07190 02660 41706 10030 20020 30095 40287 58007 60006 83501 90600 333 10080 20032 60004=
07190,1996-10-31 09:00:00,7,1028.3,-0.1,76,3,10000,7.408,,,170,,,,,,,,,,,wg-a,,,,AAXX 31094 07190 12660 51704 10070 20030 30094 40283 58001 60006 83531 90900=
07190,1996-10-31 12:00:00,12,1025.3,-2.7,50,2,20000,14.816,,,190,,,,,,,,,,,wg-a,,,,AAXX 31124 07190 12/70 31908 10120 20020 30067 40253 58027 60006 80001 91200=
07190,1996-10-31 15:00:00,11,1022.4,-2.8,54,2,20000,14.816,,,180,,,,,,,,,,,wg-a,,,,AAXX 31154 07190 12670 61808 10110 20020 30039 40224 56028 60006 81252 91500=
07190,1996-10-31 18:00:00,9,1021.8,-0.8,66,3,20000,11.112,,,150,2.5,12.4,,,,,,,,,wg-a,,,,AAXX 31184 07190 12770 71506 10090 20030 30031 40218 58008 60006 86502 91800 333 10124 20025=
07190,1996-10-31 21:00:00,11,1021.4,-0.2,62,4,15000,18.52,,,190,,,,,,,,,,1,wg-a,,,,AAXX 31214 07190 02665 /1910 10110 20040 30029 40214 58002 61000 70162 85570 92100 333 ////=
07190,1996-11-01 00:00:00,10,1020.9,-0.6,71,5,15000,22.224,,,180,,,,,,,,,,1,wg-a,,,,AAXX 01004 07190 02565 81812 10100 20050 30023 40209 55006 61000 70162 875// 90000 333 ////=
07190,1996-11-01 03:00:00,10,1020.2,-0.7,87,8,6000,25.928,,,180,,,,,,,,,,50,wg-a,,,,AAXX 01034 07190 02556 81814 10100 20080 30016 40202 55007 61000 75052 875// 90300 333 ////=
07190,1996-11-01 06:00:00,11,1020.9,0.8,87,9,15000,22.224,,,180,9,10.8,,0,,,,,,21,wg-a,,,,AAXX 01064 07190 02565 81812 10110 20090 30024 40209 53008 60004 72165 875// 90600 333 10108 20090 60007=
07190,1996-11-01 09:00:00,13,1023.5,2.7,88,11,25000,11.112,,,210,,,,,,,,,,,wg-a,,,,AAXX 01094 07190 12575 72106 10130 20110 30051 40235 51027 60006 875// 90900=
07190,1996-11-01 12:00:00,14,1025.7,2.3,82,11,10000,18.52,,,250,,,,,,,,,,51,wg-a,,,,AAXX 01124 07190 02560 72510 10140 20110 30074 40257 51023 61000 75152 878// 91200 333 6100=
07190,1996-11-01 15:00:00,14,1026.7,0.9,72,9,35000,14.816,,,230,,,,,,,,,,1,wg-a,,,,AAXX 01154 07190 02581 72308 10140 20090 30083 40267 52009 61000 70165 878// 91500 333 ////=
07190,1996-11-01 18:00:00,12,1029,2.1,82,9,25000,11.112,,,210,10.8,14.6,,,,,,,,2,wg-a,,,,AAXX 01184 07190 32575 /2106 10120 20090 30104 40290 51021 70265 86500 91800 333 10146 20108=
07190,1996-11-01 21:00:00,9,1030.2,1,87,7,25000,7.408,,,210,,,,,,,,,,,wg-a,,,,AAXX 01214 07190 12775 /2104 10090 20070 30114 40302 51010 60006 81500 92100=
07190,1996-11-02 00:00:00,8,1030.9,0.6,93,7,20000,3.704,,,210,,,,,,,,,,,wg-a,,,,AAXX 02004 07190 12670 72102 10080 20070 30120 40309 53006 60006 875// 90000=
07190,1996-11-02 03:00:00,10,1030.3,-0.4,87,8,15000,11.112,,,180,,,,,,,,,,,wg-a,,,,AAXX 02034 07190 12665 71806 10100 20080 30116 40303 57004 60006 875// 90300=
07190,1996-11-02 06:00:00,10,1029.9,-0.5,87,8,15000,14.816,,,180,8,11.9,,,,,,,,,wg-a,,,,AAXX 02064 07190 02565 81808 10100 20080 30111 40299 58005 60006 875// 90600 333 10119 20080 61000=
07190,1996-11-02 09:00:00,12,1030.4,0.7,82,9,15000,14.816,,,200,,,,,,,,,,,wg-a,,,,AAXX 02094 07190 12665 72008 10120 20090 30118 40304 51007 60006 875// 90900=
07190,1996-11-02 12:00:00,15,1029.9,-0.3,67,9,500,14.816,,,260,,,,,,,,,,,wg-a,,,,AAXX 02124 07190 12500 72608 10150 20090 30115 40299 58003 60006 878// 91200=
07190,1996-11-02 15:00:00,15,1028.8,-1,67,9,40000,18.52,,,220,,,,,,,,,,,wg-a,,,,AAXX 02154 07190 12682 /2210 10150 20090 30105 40288 56010 60006 84501 91500=
07190,1996-11-02 18:00:00,11,1029.7,0.6,82,8,25000,3.704,,,190,9.5,16,,,,,,,,,wg-a,,,,AAXX 02184 07190 12575 /1902 10110 20080 30111 40297 51006 60006 85500 91800 333 10160 20095=
07190,1996-11-02 21:00:00,9,1029.9,-0,87,7,25000,3.704,,,150,,,,,,,,,,,wg-a,,,,AAXX 02214 07190 12575 31502 10090 20070 30111 40299 55000 60006 83500 92100=
07190,1996-11-03 00:00:00,7,1029.1,-0.9,100,7,18000,3.704,,,210,,,,,,,,,,11,wg-a,,,,AAXX 03004 07190 12568 22102 10070 20070 30102 40291 58009 60006 71111 82530 90000=
07190,1996-11-03 03:00:00,4,1027.7,-1.6,100,4,900,3.704,,,220,,,,0,,,,,,12,wg-a,,,,AAXX 03034 07190 12509 /2202 10040 20040 30086 40277 58016 60007 71240 81530 90300=
07190,1996-11-03 06:00:00,3,1027.4,-0.4,100,3,200,3.704,,,230,2.8,11.4,,,,,,,,12,wg-a,,,,AAXX 03064 07190 02502 22302 10030 20030 30082 40274 58004 60006 71240 82501 90600 333 10114 20028 60004=
07190,1996-11-03 09:00:00,8,1027.3,0.3,100,8,2700,7.408,,,170,,,,,,,,,,40,wg-a,,,,AAXX 03094 07190 12227 41704 10080 20080 30085 40273 50003 60006 74044 82642 90900=
07190,1996-11-03 12:00:00,14,1024.9,-2,72,9,18000,11.112,,,170,,,,,,,,,,3,wg-a,,,,AAXX 03124 07190 12568 41706 10140 20090 30065 40249 58020 60006 70341 81142 91200=
07190,1996-11-03 15:00:00,16,1023.7,-1,63,9,25000,7.408,,,300,,,,,,,,,,,wg-a,,,,AAXX 03154 07190 12675 33004 10160 20090 30055 40237 55010 60006 81142 91500=
07190,1996-11-03 18:00:00,11,1024.4,0.3,76,7,25000,7.408,,,310,3.1,16.2,,,,,,,,,wg-a,,,,AAXX 03184 07190 12675 23104 10110 20070 30058 40244 53003 60006 81441 91800 333 10162 20031=
07190,1996-11-03 21:00:00,7,1024.5,-0.1,93,6,25000,0,,,0,,,,,,,,,,,wg-a,,,,AAXX 03214 07190 12/75 00000 10070 20060 30057 40245 55001 60006 80000 92100=
07190,1996-11-04 00:00:00,5,1023.7,-0.9,100,5,25000,3.704,,,180,,,,,,,,,,,wg-a,,,,AAXX 04004 07190 12/75 21802 10050 20050 30048 40237 58009 60006 80002 90000=
07190,1996-11-04 03:00:00,5,1021.7,-2,100,5,7000,0,,,0,,,,0,,,,,,,wg-a,,,,AAXX 04034 07190 12/57 20000 10050 20050 30028 40217 58020 60007 80002 90300=
07190,1996-11-04 06:00:00,4,1019.5,-2.2,100,4,500,11.112,,,220,3.9,10.7,,,,,,,,11,wg-a,,,,AAXX 04064 07190 12800 32206 10040 20040 30006 40195 58022 60004 71100 81072 90600 333 10107 20039=
07190,1996-11-04 09:00:00,9,1017.5,-1.7,93,8,7000,3.704,,,180,,,,,,,,,,,wg-a,,,,AAXX 04094 07190 12/57 31802 10090 20080 39989 40175 58017 60006 81032 90900=
07190,1996-11-04 12:00:00,16,1013.4,-3.6,59,8,12000,25.928,,,170,,,,0,,,,,,,wg-a,,,,AAXX 04124 07190 02/62 51714 10160 20080 39954 40134 58036 60006 82032 91200 333 60007=
07190,1996-11-04 15:00:00,17,1010.6,-2.6,52,7,25000,18.52,,,160,,,,,,,,,,,wg-a,,,,AAXX 04154 07190 12/75 31610 10170 20070 39927 40106 56026 60006 80002 91500=
07190,1996-11-04 18:00:00,12,1010.2,-0.8,67,6,25000,14.816,,,160,4.2,18.2,,,,,,,,,wg-a,,,,AAXX 04184 07190 32/75 51608 10120 20060 39919 40102 56008 80002 91800 333 10182 20042=
07190,1996-11-04 21:00:00,12,1008.5,-1.5,71,7,25000,14.816,,,180,,,,,,,,,,,wg-a,,,,AAXX 04214 07190 12775 61808 10120 20070 39903 40085 56015 60006 81542 92100=
07190,1996-11-05 00:00:00,13,1007.9,-0.5,67,7,20000,18.52,,,180,,,,,,,,,,,wg-a,,,,AAXX 05004 07190 12770 71810 10130 20070 39898 40079 55005 60006 81552 90000=
07190,1996-11-05 03:00:00,14,1007.9,0.1,72,9,15000,22.224,,,240,,,,,,,,,,,wg-a,,,,AAXX 05034 07190 12565 82412 10140 20090 39899 40079 53001 60006 8487/ 90300=
07190,1996-11-05 06:00:00,12,1009.3,1.2,71,7,15000,18.52,,,220,11,15.2,,,,,,,,1,wg-a,,,,AAXX 05064 07190 02565 82210 10120 20070 39911 40093 53012 60004 70162 8387/ 90600 333 10152 20110 61000=
07190,1996-11-05 09:00:00,12,1012.4,3,71,7,500,22.224,,,190,,,,,,,,,,,wg-a,,,,AAXX 05094 07190 12500 71912 10120 20070 39941 40124 53030 60006 878// 90900=
07190,1996-11-05 12:00:00,12,1014.5,2.1,71,7,20000,18.52,,,240,,,,,,,,,,25,wg-a,,,,AAXX 05124 07190 02570 72410 10120 20070 39962 40145 51021 61000 72586 872// 91200 333 6100=
07190,1996-11-05 15:00:00,12,1016.4,1.8,67,6,500,22.224,,,220,,,,,,,,,,,wg-a,,,,AAXX 05154 07190 32500 22212 10120 20060 39980 40164 53018 82860 91500=
07190,1996-11-05 18:00:00,9,1020.4,3.8,81,6,25000,11.112,,,230,8,13.5,,,,,,,,80,wg-a,,,,AAXX 05184 07190 02575 /2306 10090 20060 30018 40204 53038 61000 78082 86800 91800 333 10135 20080 ////=
07190,1996-11-05 21:00:00,7,1022.3,1.7,87,5,25000,11.112,,,210,,,,0,,,,,,3,wg-a,,,,AAXX 05214 07190 12675 22106 10070 20050 30035 40223 53017 60007 70386 82500 92100=
07190,1996-11-06 00:00:00,6,1022.8,0.4,93,5,20000,11.112,,,170,,,,,,,,,,1,wg-a,,,,AAXX 06004 07190 12770 11706 10060 20050 30039 40228 50004 60006 70186 815/0 90000=
07190,1996-11-06 03:00:00,5,1021.7,-1.1,93,4,15000,3.704,,,190,,,,,,,,,,,wg-a,,,,AAXX 06034 07190 12/65 21902 10050 20040 30028 40217 58011 60006 80001 90300=
07190,1996-11-06 06:00:00,6,1020.6,-1.1,87,4,15000,25.928,,,170,4,9.5,,,,,,,,,wg-a,,,,AAXX 06064 07190 12565 41714 10060 20040 30018 40206 56011 60004 81231 90600 333 10095 20040=
07190,1996-11-06 09:00:00,9,1019.4,-1,81,6,20000,29.632,,,180,,,,,,,,,,,wg-a,,,,AAXX 06094 07190 12570 41816 10090 20060 30008 40194 58010 60006 83840 90900=
07190,1996-11-06 12:00:00,12,1017.5,-1.7,71,7,20000,22.224,,,180,,,,,,,,,,,wg-a,,,,AAXX 06124 07190 12570 71812 10120 20070 39991 40175 58017 60006 878// 91200=
07190,1996-11-06 15:00:00,13,1015.8,-1.5,72,8,15000,29.632,,,200,,,,,,,,,,,wg-a,,,,AAXX 06154 07190 12565 72016 10130 20080 39975 40158 56015 60006 8687/ 91500=
07190,1996-11-06 18:00:00,11,1015.9,0,94,10,12000,29.632,,,190,5,13,,,,,,,,60,wg-a,,,,AAXX 06184 07190 02562 81916 10110 20100 39975 40159 50000 61000 76062 8587/ 91800 333 10130 20050 ////=
07190,1996-11-06 21:00:00,13,1015.7,-0.1,82,10,25000,29.632,,,190,,,,,,,,,,21,wg-a,,,,AAXX 06214 07190 02575 81916 10130 20100 39974 40157 58001 61000 72162 878// 92100 333 ////=
07190,1996-11-07 00:00:00,12,1014.3,-1.4,88,10,25000,29.632,,,180,,,,1,,,,,,21,wg-a,,,,AAXX 07004 07190 02575 81816 10120 20100 39960 40143 56014 60016 72162 888// 90000 333 60017=
07190,1996-11-07 03:00:00,12,1013.9,-0.4,94,11,8000,25.928,,,180,,,,0,,,,,,60,wg-a,,,,AAXX 07034 07190 12558 81814 10120 20110 39956 40139 57004 60007 76062 888// 90300=
07190,1996-11-07 06:00:00,12,1013.1,-0.8,94,11,25000,7.408,,,200,11.4,13.2,,3,,,4,,,60,wg-a,,,,AAXX 07064 07190 02275 82004 10120 20110 39948 40131 58008 60044 76065 888// 90600 333 10132 20114 60037=
07190,1996-11-07 09:00:00,12,1011.9,-1.1,94,11,3500,11.112,,,200,,,,1,,,,,,58,wg-a,,,,AAXX 07094 07190 12235 82006 10120 20110 39937 40119 55011 60017 75865 888// 90900=
07190,1996-11-07 12:00:00,13,1010.5,-1.4,88,11,15000,11.112,,,210,,,,2,,,,,,21,wg-a,,,,AAXX 07124 07190 02465 72106 10130 20110 39923 40105 56014 60036 72165 86808 91200 333 60027=
07190,1996-11-07 15:00:00,13,1012.8,2.3,77,9,15000,18.52,,,220,,,,1,,,,,,21,wg-a,,,,AAXX 07154 07190 12565 /2210 10130 20090 39946 40128 53023 60017 72162 85830 91500=
07190,1996-11-07 18:00:00,12,1016.2,3.2,71,7,15000,14.816,,,220,11.5,13,,,,,,,,3,wg-a,,,,AAXX 07184 07190 32665 52208 10120 20070 39978 40162 53032 70362 84201 91800 333 10130 20115=
07190,1996-11-07 21:00:00,11,1019,2.7,66,5,15000,25.928,,,250,,,,0,,,,,,1,wg-a,,,,AAXX 07214 07190 12665 32514 10110 20050 30005 40190 53027 60007 70186 82230 92100=
07190,1996-11-08 00:00:00,11,1020.8,1.8,66,5,15000,22.224,,,230,,,,,,,,,,3,wg-a,,,,AAXX 08004 07190 12665 52312 10110 20050 30023 40208 51018 60006 70386 85800 90000=
07190,1996-11-08 03:00:00,9,1022.6,1.6,76,5,15000,11.112,,,210,,,,,,,,,,,wg-a,,,,AAXX 08034 07190 12665 /2106 10090 20050 30039 40226 51016 60006 86800 90300=
07190,1996-11-08 06:00:00,8,1024.4,1.7,76,4,15000,11.112,,,210,6.8,12.5,,,,,5,,,,wg-a,,,,AAXX 08064 07190 12565 72106 10080 20040 30056 40244 53017 60054 87800 90600 333 10125 20068=
07190,1996-11-08 09:00:00,9,1026.7,2.4,81,6,20000,14.816,,,210,,,,,,,,,,,wg-a,,,,AAXX 08094 07190 12570 72108 10090 20060 30080 40267 53024 60006 872// 90900=
07190,1996-11-08 12:00:00,11,1027.1,0.5,62,4,20000,22.224,,,250,,,,,,,,,,,wg-a,,,,AAXX 08124 07190 12570 72512 10110 20040 30085 40271 51005 60006 872// 91200=
07190,1996-11-08 15:00:00,10,1027.7,0.5,71,5,20000,18.52,,,240,,,,,,,,,,25,wg-a,,,,AAXX 08154 07190 02670 /2410 10100 20050 30090 40277 53005 61000 72586 86800 91500 333 ////=
07190,1996-11-08 18:00:00,7,1029.1,1.1,81,4,20000,3.704,,,190,6.4,11.7,,,,,,,,1,wg-a,,,,AAXX 08184 07190 02770 /1902 10070 20040 30101 40291 53011 61000 70186 81500 91800 333 10117 20064 ////=
07190,1996-11-08 21:00:00,7,1029.9,0.9,81,4,20000,14.816,,,200,,,,,,,,,,,wg-a,,,,AAXX 08214 07190 12770 62008 10070 20040 30110 40299 53009 60006 85530 92100=
07190,1996-11-09 00:00:00,5,1030.4,0.3,87,3,20000,14.816,,,190,,,,,,,,,,,wg-a,,,,AAXX 09004 07190 12770 11908 10050 20030 30113 40304 51003 60006 81500 90000=
07190,1996-11-09 03:00:00,5,1030.5,0.1,87,3,20000,7.408,,,170,,,,,,,,,,,wg-a,,,,AAXX 09034 07190 12670 21704 10050 20030 30114 40305 50001 60006 82800 90300=
07190,1996-11-09 06:00:00,3,1031,0.4,93,2,12000,11.112,,,190,3.1,7,,,,,,,,,wg-a,,,,AAXX 09064 07190 02662 41906 10030 20020 30118 40310 51004 60006 84800 90600 333 10070 20031 61000=
07190,1996-11-09 09:00:00,7,1031,0.3,87,5,25000,11.112,,,190,,,,,,,,,,,wg-a,,,,AAXX 09094 07190 12575 21906 10070 20050 30121 40310 50003 60006 81801 90900=
07190,1996-11-09 12:00:00,12,1029.3,-1.4,62,5,40000,3.704,,,310,,,,,,,,,,,wg-a,,,,AAXX 09124 07190 12582 /3102 10120 20050 30107 40293 58014 60006 81808 91200=
07190,1996-11-09 15:00:00,12,1027.9,-1.4,54,3,45000,7.408,,,240,,,,,,,,,,,wg-a,,,,AAXX 09154 07190 12683 62404 10120 20030 30093 40279 56014 60006 81132 91500=
07190,1996-11-09 18:00:00,9,1027.8,-0.3,66,3,500,11.112,,,220,3,13.8,,,,,,,,,wg-a,,,,AAXX 09184 07190 12600 72206 10090 20030 30090 40278 55003 60006 8147/ 91800 333 10138 20030=
07190,1996-11-09 21:00:00,7,1027.5,-0.4,81,4,20000,0,,,0,,,,,,,,,,,wg-a,,,,AAXX 09214 07190 12670 /0000 10070 20040 30086 40275 57004 60006 84530 92100=
07190,1996-11-10 00:00:00,4,1026.2,-1.6,93,3,20000,3.704,,,220,,,,,,,,,,,wg-a,,,,AAXX 10004 07190 12/70 12202 10040 20030 30071 40262 58016 60006 80001 90000=
07190,1996-11-10 03:00:00,3,1023.2,-3,93,2,15000,3.704,,,200,,,,,,,,,,,wg-a,,,,AAXX 10034 07190 12/65 52002 10030 20020 30041 40232 58030 60006 80002 90300=
07190,1996-11-10 06:00:00,2,1020.3,-2.8,93,1,6000,0,,,0,1.5,9,,,,,,,,11,wg-a,,,,AAXX 10064 07190 02/56 70000 10020 20010 30012 40203 58028 60006 71111 82032 90600 333 10090 20015 60004=
07190,1996-11-10 09:00:00,4,1018.3,-1.8,93,3,10000,11.112,,,170,,,,,,,,,,,wg-a,,,,AAXX 10094 07190 12660 81706 10040 20030 39994 40183 56018 60006 875// 90900=
07190,1996-11-10 12:00:00,8,1015.1,-2.9,81,5,18000,7.408,,,190,,,,,,,,,,,wg-a,,,,AAXX 10124 07190 12668 81904 10080 20050 39965 40151 58029 60006 8287/ 91200=
07190,1996-11-10 15:00:00,9,1012.8,-2.2,76,5,15000,7.408,,,160,,,,,,,,,,2,wg-a,,,,AAXX 10154 07190 02565 81604 10090 20050 39943 40128 56022 61000 70262 83877 91500 333 ////=
07190,1996-11-10 18:00:00,8,1011,-1.8,87,6,8000,11.112,,,150,1.4,8.6,,0,,,,,,61,wg-a,,,,AAXX 10184 07190 12558 81506 10080 20060 39925 40110 56018 60007 76162 878// 91800 333 10086 20014=
07190,1996-11-10 21:00:00,8,1010,-1,93,7,3500,7.408,,,180,,,,2,,,,,,63,wg-a,,,,AAXX 10214 07190 12335 81804 10080 20070 39915 40100 56010 60027 76366 885// 92100=
07190,1996-11-11 00:00:00,8,1008,-2,93,7,4500,3.704,,,310,,,,2,,,,,,10,wg-a,,,,AAXX 11004 07190 02245 83102 10080 20070 39895 40080 56020 60046 71062 885// 90000 333 60027=
07190,1996-11-11 03:00:00,8,1005.2,-2.7,93,7,3500,3.704,,,120,,,,1,,,,,,10,wg-a,,,,AAXX 11034 07190 12235 81202 10080 20070 39868 40052 58027 60017 71062 885// 90300=
07190,1996-11-11 06:00:00,7,1002.6,-2.6,100,7,1500,0,,,0,6.9,7.8,,0,,,6,,,10,wg-a,,,,AAXX 11064 07190 02215 70000 10070 20070 39842 40026 56026 60064 71062 8567/ 90600 333 10078 20069 60007=
07190,1996-11-11 09:00:00,8,1000.5,-2,100,8,700,7.408,,,10,,,,,,,,,,42,wg-a,,,,AAXX 11094 07190 12107 80104 10080 20080 39822 40005 56020 60006 74242 886// 90900=
07190,1996-11-11 12:00:00,10,998.4,-1.7,100,10,3000,7.408,,,320,,,,,,,,,,10,wg-a,,,,AAXX 11124 07190 12230 73204 10100 20100 39803 49984 55017 60006 71042 876// 91200=
07190,1996-11-11 15:00:00,10,997.7,-1,93,9,3000,3.704,,,230,,,,,,,,,,10,wg-a,,,,AAXX 11154 07190 12230 82302 10100 20090 39796 49977 58010 60006 71022 876// 91500=
07190,1996-11-11 18:00:00,9,996.2,-1.4,93,8,7000,7.408,,,300,6.9,10.1,,,,,,,,,wg-a,,,,AAXX 11184 07190 12257 73004 10090 20080 39780 49962 56014 60006 8557/ 91800 333 10101 20069=
07190,1996-11-11 21:00:00,8,997.8,1.5,100,8,15000,7.408,,,190,,,,,,,,,,,wg-a,,,,AAXX 11214 07190 12765 81904 10080 20080 39796 49978 53015 60006 8457/ 92100=
07190,1996-11-12 00:00:00,9,1000.5,2.6,93,8,6000,11.112,,,130,,,,4,,,,,,61,wg-a,,,,AAXX 12004 07190 02456 81306 10090 20080 39822 40005 51026 60046 76162 8587/ 90000 333 60047=
07190,1996-11-12 03:00:00,9,998.5,-1.9,93,8,500,7.408,,,20,,,,5,,,,,,61,wg-a,,,,AAXX 12034 07190 12200 80204 10090 20080 39803 49985 58019 60057 76162 8657/ 90300=
07190,1996-11-12 06:00:00,8,1000.4,1.8,100,8,6000,7.408,,,130,8,9.2,,0,,,9,,,60,wg-a,,,,AAXX 12064 07190 02256 81304 10080 20080 39821 40004 53018 60094 76062 8557/ 90600 333 10092 20080 60007=
07190,1996-11-12 09:00:00,9,1000.2,-0.1,100,9,500,0,,,0,,,,1,,,,,,60,wg-a,,,,AAXX 12094 07190 12200 80000 10090 20090 39820 40002 56001 60017 76062 875// 90900=
07190,1996-11-12 12:00:00,10,999.2,-1,100,10,1500,7.408,,,110,,,,2,,,,,,10,wg-a,,,,AAXX 12124 07190 02115 81104 10100 20100 39810 49992 58010 60036 71062 875// 91200 333 60027=
07190,1996-11-12 15:00:00,10,999.9,0.7,93,9,3500,3.704,,,310,,,,3,,,,,,10,wg-a,,,,AAXX 12154 07190 12135 83102 10100 20090 39817 49999 53007 60037 71062 875// 91500=
07190,1996-11-12 18:00:00,10,1002,2.1,100,10,4000,7.408,,,240,8.4,10,,5,,,,,,10,wg-a,,,,AAXX 12184 07190 12140 82404 10100 20100 39838 40020 53021 60057 71062 877// 91800 333 10100 20084=
07190,1996-11-12 21:00:00,10,1003.2,1.2,100,10,2500,11.112,,,160,,,,7,,,,,,10,wg-a,,,,AAXX 12214 07190 12125 81606 10100 20100 39850 40032 53012 60077 71066 875// 92100=
07190,1996-11-13 00:00:00,10,1004.3,1.1,100,10,3500,11.112,,,200,,,,6,,,,,,10,wg-a,,,,AAXX 13004 07190 02235 82006 10100 20100 39861 40043 53011 60136 71066 877// 90000 333 60067=
07190,1996-11-13 03:00:00,10,1004.4,0,100,10,4000,7.408,,,190,,,,7,,,,,,61,wg-a,,,,AAXX 13034 07190 12140 81904 10100 20100 39861 40044 50000 60077 76162 877// 90300=
07190,1996-11-13 06:00:00,9,1005.2,0.8,100,9,4500,7.408,,,180,9.3,10.2,,5,,,37,,,61,wg-a,,,,AAXX 13064 07190 02145 81804 10090 20090 39869 40052 53008 60374 76162 875// 90600 333 10102 20093 60057=
07190,1996-11-13 09:00:00,9,1007.7,2.4,93,8,7000,18.52,,,190,,,,3,,,,,,61,wg-a,,,,AAXX 13094 07190 12257 81910 10090 20080 39893 40077 51024 60037 76166 8752/ 90900=
07190,1996-11-13 12:00:00,10,1009.6,2,93,9,10000,7.408,,,210,,,,1,,,,,,60,wg-a,,,,AAXX 13124 07190 02560 72104 10100 20090 39913 40096 51020 60036 76062 85871 91200 333 60017=
07190,1996-11-13 15:00:00,10,1011.1,1.4,87,8,15000,11.112,,,250,,,,0,,,,,,1,wg-a,,,,AAXX 13154 07190 12465 72506 10100 20080 39927 40111 53014 60007 70162 858// 91500=
07190,1996-11-13 18:00:00,9,1013,1.8,93,8,8000,7.408,,,330,8.7,10.5,,,,,,,,60,wg-a,,,,AAXX 13184 07190 02658 73304 10090 20080 39945 40130 53018 61000 76062 875// 91800 333 10105 20087 ////=
07190,1996-11-13 21:00:00,6,1015.8,2.6,93,5,9000,7.408,,,10,,,,1,,,,,,21,wg-a,,,,AAXX 13214 07190 12459 80104 10060 20050 39971 40158 51026 60017 72162 878// 92100=
07190,1996-11-14 00:00:00,6,1016.4,0.5,87,4,15000,3.704,,,330,,,,,,,,,,1,wg-a,,,,AAXX 14004 07190 12665 73302 10060 20040 39976 40164 53005 60016 70162 875// 90000=
07190,1996-11-14 03:00:00,5,1017.3,0.9,93,4,10000,14.816,,,340,,,,,,,,,,,wg-a,,,,AAXX 14034 07190 12560 83408 10050 20040 39985 40173 53009 60006 875// 90300=
07190,1996-11-14 06:00:00,3,1019.1,1.6,87,1,10000,11.112,,,350,3.1,8.7,,,,,5,,,,wg-a,,,,AAXX 14064 07190 12560 23506 10030 20010 30001 40191 51016 60054 82500 90600 333 10087 20031=
07190,1996-11-14 09:00:00,4,1020.4,1.4,87,2,10000,14.816,,,360,,,,,,,,,,,wg-a,,,,AAXX 14094 07190 12460 43608 10040 20020 30014 40204 51014 60006 84102 90900=
07190,1996-11-14 12:00:00,6,1020.1,-0.1,70,1,12000,22.224,,,30,,,,,,,,,,,wg-a,,,,AAXX 14124 07190 12562 50312 10060 20010 30013 40201 58001 60006 84802 91200=
07190,1996-11-14 15:00:00,6,1020.8,0.6,70,1,12000,22.224,,,20,,,,,,,,,,,wg-a,,,,AAXX 14154 07190 12562 70212 10060 20010 30019 40208 53006 60006 8683/ 91500=
07190,1996-11-14 18:00:00,4,1021.1,0.2,81,1,10000,14.816,,,360,2.2,6.8,,,,,,,,,wg-a,,,,AAXX 14184 07190 12560 73608 10040 20010 30021 40211 51002 60006 8683/ 91800 333 10068 20022=
07190,1996-11-14 21:00:00,4,1020.5,-0.6,81,1,15000,18.52,,,20,,,,,,,,,,,wg-a,,,,AAXX 14214 07190 12/65 60210 10040 20010 30015 40205 58006 60006 86030 92100=
07190,1996-11-15 00:00:00,4,1020.2,-0.3,81,1,12000,22.224,,,20,,,,,,,,,,,wg-a,,,,AAXX 15004 07190 12562 70212 10040 20010 30012 40202 57003 60006 875// 90000=
07190,1996-11-15 03:00:00,4,1019.8,-0.4,81,1,12000,22.224,,,20,,,,,,,,,,,wg-a,,,,AAXX 15034 07190 12562 70212 10040 20010 30008 40198 57004 60006 875// 90300=
07190,1996-11-15 06:00:00,3,1019.7,-0.1,87,1,12000,22.224,,,30,3.3,4.3,,,,,,,,,wg-a,,,,AAXX 15064 07190 02562 80312 10030 20010 30007 40197 55001 60006 885// 90600 333 10043 20033 60004=
07190,1996-11-15 09:00:00,4,1020.7,1,81,1,9000,22.224,,,30,,,,,,,,,,,wg-a,,,,AAXX 15094 07190 12559 80312 10040 20010 30017 40207 51010 60006 885// 90900=
07190,1996-11-15 12:00:00,5,1020.3,-0.3,81,2,8000,18.52,,,30,,,,,,,,,,,wg-a,,,,AAXX 15124 07190 12558 80310 10050 20020 30014 40203 58003 60006 885// 91200=
07190,1996-11-15 15:00:00,5,1021.1,0.8,81,2,7000,11.112,,,20,,,,,,,,,,,wg-a,,,,AAXX 15154 07190 12557 80206 10050 20020 30022 40211 51008 60006 885// 91500=
07190,1996-11-15 18:00:00,5,1021.9,0.8,87,3,8000,11.112,,,20,3.4,5.3,,,,,,,,,wg-a,,,,AAXX 15184 07190 12558 80206 10050 20030 30030 40219 51008 60006 885// 91800 333 10053 20034=
07190,1996-11-15 20:00:00,5,1021.9,0.8,87,3,8000,11.112,,,20,3.4,5.3,,,,,,,,,wg-a,,,,AAXX 15204 07190 12558 80206 10050 20030 30030 40219 51008 60006 885// 92000 333 10053 20034=
07190,1996-11-15 21:00:00,5,1022.7,0.7,87,3,8000,7.408,,,20,,,,,,,,,,,wg-a,,,,AAXX 15214 07190 12558 80204 10050 20030 30037 40227 53007 60006 885// 92100=
07190,1996-11-16 00:00:00,4,1023.2,0.5,93,3,6000,3.704,,,330,,,,,,,,,,,wg-a,,,,AAXX 16004 07190 12456 83302 10040 20030 30042 40232 50005 60006 885// 90000=
07190,1996-11-16 03:00:00,4,1022.9,-0.3,93,3,3000,7.408,,,360,,,,,,,,,,,wg-a,,,,AAXX 16034 07190 12430 83604 10040 20030 30039 40229 58003 60006 885// 90300=
07190,1996-11-16 06:00:00,4,1023.3,0.4,93,3,4000,7.408,,,20,4.3,4.9,,,,,,,,10,wg-a,,,,AAXX 16064 07190 02440 80204 10040 20030 30043 40233 51004 60006 71022 885// 90600 333 10049 20043 60004=
07190,1996-11-16 09:00:00,5,1024.2,0.9,87,3,4500,3.704,,,340,,,,,,,,,,10,wg-a,,,,AAXX 16094 07190 12345 83402 10050 20030 30052 40242 53009 60006 71022 885// 90900=
07190,1996-11-16 12:00:00,5,1022.5,-1.6,87,3,6000,7.408,,,350,,,,,,,,,,,wg-a,,,,AAXX 16124 07190 12356 73504 10050 20030 30036 40225 58016 60006 875// 91200=
07190,1996-11-16 15:00:00,5,1022.2,-0.3,87,3,9000,3.704,,,340,,,,,,,,,,,wg-a,,,,AAXX 16154 07190 12459 83402 10050 20030 30033 40222 57003 60006 885// 91500=
07190,1996-11-16 18:00:00,5,1021.6,-0.6,87,3,8000,7.408,,,350,4.3,5.3,,,,,,,,,wg-a,,,,AAXX 16184 07190 12458 83504 10050 20030 30027 40216 58006 60006 885// 91800 333 10053 20043=
07190,1996-11-16 21:00:00,5,1020.8,-0.8,87,3,8000,3.704,,,20,,,,,,,,,,,wg-a,,,,AAXX 16214 07190 12458 80202 10050 20030 30019 40208 56008 60006 885// 92100=
07190,1996-11-17 00:00:00,5,1019,-1.8,87,3,8000,7.408,,,20,,,,,,,,,,,wg-a,,,,AAXX 17004 07190 12458 80204 10050 20030 30001 40190 58018 60006 885// 90000=
07190,1996-11-17 03:00:00,4,1016.7,-2.3,87,2,8000,3.704,,,10,,,,,,,,,,,wg-a,,,,AAXX 17034 07190 12458 80102 10040 20020 39978 40167 57023 60006 885// 90300=
07190,1996-11-17 06:00:00,4,1014.7,-2,87,2,8000,7.408,,,40,3.9,5.1,,,,,,,,,wg-a,,,,AAXX 17064 07190 02458 80404 10040 20020 39958 40147 56020 60006 885// 90600 333 10051 20039 60004=
07190,1996-11-17 09:00:00,4,1014,-0.6,87,2,10000,3.704,,,340,,,,,,,,,,,wg-a,,,,AAXX 17094 07190 12460 83402 10040 20020 39952 40140 56006 60006 885// 90900=
07190,1996-11-17 12:00:00,4,1012.1,-1.9,87,2,9000,3.704,,,250,,,,,,,,,,,wg-a,,,,AAXX 17124 07190 12459 82502 10040 20020 39933 40121 56019 60006 885// 91200=
07190,1996-11-17 15:00:00,4,1010.8,-1.3,87,2,9000,0,,,0,,,,,,,,,,,wg-a,,,,AAXX 17154 07190 12459 80000 10040 20020 39920 40108 56013 60006 885// 91500=
07190,1996-11-17 18:00:00,4,1009.2,-1.6,87,2,9000,7.408,,,120,3.8,4.4,,,,,,,,,wg-a,,,,AAXX 17184 07190 12459 81204 10040 20020 39904 40092 56016 60006 885// 91800 333 10044 20038=
07190,1996-11-17 21:00:00,4,1007.5,-1.7,87,2,6000,3.704,,,200,,,,,,,,,,,wg-a,,,,AAXX 17214 07190 12356 82002 10040 20020 39887 40075 58017 60006 886// 92100=
07190,1996-11-18 00:00:00,4,1006.2,-1.2,87,2,6000,3.704,,,310,,,,,,,,,,,wg-a,,,,AAXX 18004 07190 12356 83102 10040 20020 39875 40062 58012 60006 886// 90000=
07190,1996-11-18 03:00:00,3,1003.1,-3.1,87,1,10000,11.112,,,360,,,,,,,,,,,wg-a,,,,AAXX 18034 07190 12460 83606 10030 20010 39844 40031 57031 60006 886// 90300=
07190,1996-11-18 06:00:00,3,1001.3,-1.8,93,2,6000,11.112,,,340,3,3.8,,,,,,,,,wg-a,,,,AAXX 18064 07190 02356 83406 10030 20020 39826 40013 58018 60006 886// 90600 333 10038 20030 60004=
07190,1996-11-18 09:00:00,3,999.9,-1.4,87,1,500,14.816,,,350,,,,0,,,,,,60,wg-a,,,,AAXX 18094 07190 12300 83508 10030 20010 39812 49999 58014 60007 76065 886// 90900=
07190,1996-11-18 12:00:00,2,997.8,-2.1,93,1,4000,11.112,,,320,,,,3,,,,,,10,wg-a,,,,AAXX 18124 07190 02240 83206 10020 20010 39791 49978 58021 60036 71076 885// 91200 333 60037=
07190,1996-11-18 15:00:00,0,999.1,1.2,100,0,1500,7.408,,,230,,,,6,,,,,,71,wg-a,,,,AAXX 18154 07190 12115 82304 10000 20000 39803 49991 51012 60067 77177 885// 91500=
07190,1996-11-18 18:00:00,1,999.8,0.7,93,0,3000,11.112,,,190,0.2,3.2,,3,,,,,,10,wg-a,,2,,AAXX 18184 07190 12230 81906 10010 20000 39810 49998 53007 60037 71077 885// 91800 333 10032 20002 4/002=
07190,1996-11-18 21:00:00,1,1001.4,1.6,100,1,7000,11.112,,,190,,,,3,,,,,,10,wg-a,,,,AAXX 18214 07190 12457 81906 10010 20010 39826 40014 53016 60037 71076 885// 92100=
07190,1996-11-19 00:00:00,2,1002,0.6,93,1,10000,11.112,,,170,,,,1,,,,,,61,wg-a,,,,AAXX 19004 07190 02560 81706 10020 20010 39832 40020 53006 60036 76176 875// 90000 333 60017=
07190,1996-11-19 03:00:00,3,1003,1.1,93,2,10000,14.816,,,200,,,,,,,,,,60,wg-a,,,,AAXX 19034 07190 02460 82008 10030 20020 39843 40030 53011 61000 76066 875// 90300 333 ////=
07190,1996-11-19 06:00:00,4,1005,2,81,1,12000,22.224,,,200,0.5,4.3,,,,,16,,,1,wg-a,,,,AAXX 19064 07190 02562 /2012 10040 20010 39863 40050 51020 60164 70162 86500 90600 333 10043 20005 61000=
07190,1996-11-19 09:00:00,4,1005,2,81,1,12000,22.224,,,200,0.5,4.3,,,,,16,,,1,wg-a,,,,AAXX 19094 07190 02562 62012 10040 20010 39863 40050 51020 60164 70162 86500 90900 333 10043 20005 61000=
07190,1996-11-19 12:00:00,6,999.1,-4.5,61,-1,500,25.928,,,170,,,,,,,,,,,wg-a,,,,AAXX 19124 07190 12500 /1714 10060 21010 39806 49991 58045 60006 81104 91200=
07190,1996-11-19 15:00:00,6,993.3,-5.7,70,1,20000,11.112,,,170,,,,,,,,,,,wg-a,,,,AAXX 19154 07190 12570 71706 10060 20010 39749 49933 56057 60006 8117/ 91500=
07190,1996-11-19 18:00:00,4,991.4,-1.9,87,2,9000,31.484,,53.708,180,3.6,6.5,,1,,,,,,61,wg-a,,,,AAXX 19184 07190 12559 81817 10040 20020 39730 49914 56019 60017 76176 875// 91800 333 10065 20036 91029=
07190,1996-11-19 21:00:00,4,989.4,-2,93,3,9000,14.816,,,200,,,,1,,,,,,61,wg-a,,,,AAXX 19214 07190 12459 82008 10040 20030 39710 49894 56020 60017 76162 8652/ 92100=
07190,1996-11-20 00:00:00,6,988.1,-1.2,87,4,10000,14.816,,,190,,,,0,,,,,,21,wg-a,,,,AAXX 20004 07190 02560 71908 10060 20040 39699 49881 57012 60026 72162 8657/ 90000 333 60007=
07190,1996-11-20 03:00:00,7,986.6,-1.5,76,3,10000,18.52,,,180,,,,,,,,,,,wg-a,,,,AAXX 20034 07190 12560 81810 10070 20030 39684 49866 58015 60006 8357/ 90300=
07190,1996-11-20 06:00:00,7,985.9,-0.6,76,3,10000,25.928,,,190,3.5,7.3,,,,,2,,,,wg-a,,,,AAXX 20064 07190 12560 71914 10070 20030 39678 49859 56006 60024 8657/ 90600 333 10073 20035=
07190,1996-11-20 09:00:00,8,986.7,0.8,76,4,45000,31.484,,,190,,,,,,,,,,,wg-a,,,,AAXX 20094 07190 12683 /1917 10080 20040 39686 49867 50008 60006 85802 90900=
07190,1996-11-20 12:00:00,7,988.1,1.3,81,4,15000,31.484,,,190,,,,0,,,,,,60,wg-a,,,,AAXX 20124 07190 02565 81917 10070 20040 39699 49881 53013 60006 76062 878// 91200 333 60007=
07190,1996-11-20 15:00:00,7,989.8,1.7,76,3,40000,35.188,,57.412,200,,,,0,,,,,,3,wg-a,,,,AAXX 20154 07190 12582 72019 10070 20030 39716 49898 53017 60007 70362 8527/ 91500 333 91031=
07190,1996-11-20 18:00:00,6,991.9,2,81,3,20000,35.188,,,210,5.7,7.7,,,,,,,,1,wg-a,,,,AAXX 20184 07190 02570 82119 10060 20030 39736 49919 51020 61000 70162 878// 91800 333 10077 20057 ////=
07190,1996-11-20 21:00:00,5,994.7,2.7,87,3,15000,22.224,,,220,,,,1,,,,,,61,wg-a,,,,AAXX 20214 07190 12365 82212 10050 20030 39763 49947 53027 60017 76162 888// 92100=
07190,1996-11-21 00:00:00,5,998,3.2,87,3,15000,14.816,,,260,,,,1,,,,,,61,wg-a,,,,AAXX 21004 07190 02465 82608 10050 20030 39795 49980 53032 60026 76186 888// 90000 333 60017=
07190,1996-11-21 03:00:00,4,1002.9,4.8,87,2,10000,11.112,,,250,,,,1,,,,,,25,wg-a,,,,AAXX 21034 07190 12560 82506 10040 20020 39843 40029 51048 60017 72562 888// 90300=
07190,1996-11-21 06:00:00,3,1006,2.9,81,0,15000,14.816,,,230,2.6,6.5,,,,,4,,,1,wg-a,,,,AAXX 21064 07190 12665 52308 10030 20000 39872 40060 53029 60044 70186 84802 90600 333 10065 20026=
07190,1996-11-21 09:00:00,3,1007.3,1.3,93,2,15000,7.408,,,160,,,,0,,,,,,3,wg-a,,,,AAXX 21094 07190 12565 71604 10030 20020 39885 40073 51013 60007 70386 878// 90900=
07190,1996-11-21 12:00:00,6,1008.2,1.1,75,2,15000,14.816,,,240,,,,0,,,,,,21,wg-a,,,,AAXX 21124 07190 02465 /2408 10060 20020 39896 40082 51011 60016 72186 85800 91200 333 60007=
07190,1996-11-21 15:00:00,3,1009.7,1.3,93,2,15000,14.816,,,240,,,,1,,,,,,25,wg-a,,,,AAXX 21154 07190 12465 52408 10030 20020 39909 40097 52013 60017 72586 85801 91500=
07190,1996-11-21 18:00:00,1,1010.7,0.8,93,0,15000,3.704,,,220,1,6.4,,,,,,,,1,wg-a,,,,AAXX 21184 07190 32565 32202 10010 20000 39917 40107 50008 70186 82801 91800 333 10064 20010=
07190,1996-11-21 21:00:00,0,1011.3,0.5,93,-1,18000,3.704,,,170,,,,,,,,,,,wg-a,,,,AAXX 21214 07190 12768 51702 10000 21010 39922 40113 50005 60006 83531 92100=
07190,1996-11-22 00:00:00,-1,1010,-1.3,100,-1,12000,0,,,0,,,,,,,,,,,wg-a,,,,AAXX 22004 07190 12/62 70000 11010 21010 39909 40100 58013 60006 80008 90000=
07190,1996-11-22 03:00:00,0,1010.2,0.2,93,-1,12000,3.704,,,300,,,,,,,,,,,wg-a,,,,AAXX 22034 07190 12562 73002 10000 21010 39911 40102 53002 60006 875// 90300=
07190,1996-11-22 06:00:00,0,1012.7,2.5,93,-1,10000,7.408,,,320,-0.9,1.3,,,,,2,,,,wg-a,,,,AAXX 22064 07190 02560 /3204 10000 21010 39936 40127 53025 60006 81502 90600 333 10013 21009 60024=
07190,1996-11-22 09:00:00,2,1015.9,3.3,87,0,9000,3.704,,,210,,,,,,,,,,,wg-a,,,,AAXX 22094 07190 12559 /2102 10020 20000 39968 40159 51033 60006 81102 90900=
07190,1996-11-22 12:00:00,5,1017.3,1.5,81,2,9000,0,,,0,,,,,,,,,,,wg-a,,,,AAXX 22124 07190 12559 /0000 10050 20020 39984 40173 51015 60006 81200 91200=
07190,1996-11-22 15:00:00,5,1017.2,0,70,0,15000,7.408,,,130,,,,,,,,,,,wg-a,,,,AAXX 22154 07190 12565 /1304 10050 20000 39983 40172 50000 60006 81400 91500=
07190,1996-11-22 18:00:00,0,1017.4,-0.2,93,-1,12000,3.704,,,210,-0.7,6.2,,,,,,,,,wg-a,,,,AAXX 22184 07190 12/62 12102 10000 21010 39982 40174 58002 60006 80001 91800 333 10062 21007=
07190,1996-11-22 21:00:00,-2,1017.3,-0.2,100,-2,200,7.408,,,30,,,,,,,,,,46,wg-a,,,,AAXX 22214 07190 12/02 20304 11020 21020 39980 40173 58002 60006 74640 80001 92100=
07190,1996-11-23 00:00:00,-2,1015.4,-1.9,93,-3,300,3.704,,,50,,,,,,,,,,49,wg-a,,,,AAXX 23004 07190 12/03 90502 11020 21030 39961 40154 58019 60006 74941 89/// 90000=
07190,1996-11-23 03:00:00,-3,1014.1,-1.3,100,-3,300,7.408,,,170,,,,,,,,,,49,wg-a,,,,AAXX 23034 07190 12/03 91704 11030 21030 39948 40141 56013 60006 74944 89/// 90300=
07190,1996-11-23 06:00:00,-3,1014,-0.1,100,-3,2500,3.704,,,110,-2.9,0.4,,,,,,,,10,wg-a,,,,AAXX 23064 07190 02/25 61102 11030 21030 39947 40140 56001 60006 71041 84032 90600 333 10004 21029 60004=
07190,1996-11-23 09:00:00,-3,1014,0,100,-3,600,3.704,,,200,,,,,,,,,,49,wg-a,,,,AAXX 23094 07190 12/06 92002 11030 21030 39947 40140 50000 60006 74942 89/// 90900=
07190,1996-11-23 12:00:00,-1,1013.3,-0.7,100,-1,4000,3.704,,,200,,,,,,,,,,10,wg-a,,,,AAXX 23124 07190 12740 82002 11010 21010 39941 40133 58007 60006 71042 875// 91200=
07190,1996-11-23 15:00:00,1,1013.1,-0,93,0,500,3.704,,,220,,,,,,,,,,10,wg-a,,,,AAXX 23154 07190 02600 82202 10010 20000 39940 40131 55000 61000 71072 8582/ 91500 333 ////=
07190,1996-11-23 18:00:00,0,1014.9,1.8,100,0,2000,3.704,,,160,-3.6,0.5,,0,,,,,,10,wg-a,,,,AAXX 23184 07190 12320 81602 10000 20000 39958 40149 53018 60007 71072 875// 91800 333 10005 21036=
07190,1996-11-23 21:00:00,0,1017.7,2.6,100,0,1500,0,,,0,,,,1,,,,,,10,wg-a,,,,AAXX 23214 07190 12215 80000 10000 20000 39985 40177 51026 60017 71072 875// 92100=
07190,1996-11-24 00:00:00,1,1019.9,2.3,86,-1,4000,11.112,,,260,,,,,,,,,,10,wg-a,,,,AAXX 24004 07190 02540 /2606 10010 21010 30007 40199 53023 60016 71072 85502 90000 333 61000=
07190,1996-11-24 03:00:00,-1,1023,2.8,86,-3,7000,7.408,,,210,,,,,,,,,,,wg-a,,,,AAXX 24034 07190 12657 32104 11010 21030 30036 40230 51028 60006 82531 90300=
07190,1996-11-24 06:00:00,0,1024.9,2,86,-2,10000,11.112,,,210,-2,1.2,,,,,1,,,,wg-a,,0,,AAXX 24064 07190 12660 72106 10000 21020 30055 40249 52020 60014 8353/ 90600 333 10012 21020 4/000=
07190,1996-11-24 09:00:00,1,1026.7,1.7,86,-1,15000,11.112,,,210,,,,,,,,,,,wg-a,,,,AAXX 24094 07190 12565 /2106 10010 21010 30074 40267 51017 60006 86800 90900=
07190,1996-11-24 12:00:00,5,1025.9,-0.5,70,0,15000,18.52,,,200,,,,,,,,,,,wg-a,,,,AAXX 24124 07190 12665 32010 10050 20000 30069 40259 58005 60006 83841 91200=
07190,1996-11-24 15:00:00,5,1024.8,-1.1,65,-1,15000,11.112,,,240,,,,,,,,,,,wg-a,,,,AAXX 24154 07190 12565 62406 10050 21010 30058 40248 58011 60006 85801 91500=
07190,1996-11-24 18:00:00,1,1024.5,-0.6,86,-1,20000,11.112,,,170,-0.7,5.5,,,,,,,,,wg-a,,,,AAXX 24184 07190 12/70 51706 10010 21010 30052 40245 58006 60006 80001 91800 333 10055 21007=
07190,1996-11-24 21:00:00,1,1022.7,-1.8,80,-2,20000,3.704,,,180,,,,,,,,,,,wg-a,,,,AAXX 24214 07190 12/70 81802 10010 21020 30034 40227 56018 60006 86027 92100=
07190,1996-11-25 00:00:00,1,1020,-2.6,86,-1,10000,11.112,,,170,,,,,,,,,,22,wg-a,,,,AAXX 25004 07190 02460 81706 10010 21010 30008 40200 58026 61000 7227/ 885// 90000 333 6100=
07190,1996-11-25 03:00:00,1,1015.9,-4,86,-1,10000,14.816,,,170,,,,,,,,,,,wg-a,,,,AAXX 25034 07190 12360 81708 10010 21010 39968 40159 58040 60006 886// 90300=
07190,1996-11-25 06:00:00,1,1011.2,-4.6,86,-1,10000,14.816,,,180,0.1,1,,,,,,,,,wg-a,,0,,AAXX 25064 07190 02360 71808 10010 21010 39922 40112 56046 61000 875// 90600 333 10010 20001 4/9999 ////=
07190,1996-11-25 09:00:00,3,1007.1,-3.9,81,0,12000,18.52,,,190,,,,,,,,,,,wg-a,,,,AAXX 25094 07190 12762 71910 10030 20000 39883 40071 57039 60006 85571 90900=
07190,1996-11-25 12:00:00,4,1002.1,-4.8,87,2,15000,11.112,,,190,,,,,,,,,,3,wg-a,,,,AAXX 25124 07190 02565 71906 10040 20020 39835 40021 58048 61000 70362 875// 91200 333 6100=
07190,1996-11-25 15:00:00,5,999,-3,93,4,15000,22.224,,,190,,,,,,,,,,60,wg-a,,,,AAXX 25154 07190 02565 81912 10050 20040 39805 49990 56030 61000 76062 888// 91500 333 ////=
07190,1996-11-25 18:00:00,6,998.3,-0.6,87,4,15000,11.112,,,180,0.3,5.6,,,,,,,,21,wg-a,,,,AAXX 25184 07190 32565 71806 10060 20040 39799 49983 55006 72165 875// 91800 333 10056 20003=
07190,1996-11-25 21:00:00,6,998.6,0.3,87,4,20000,18.52,,,190,,,,0,,,,,,1,wg-a,,,,AAXX 25214 07190 12570 71910 10060 20040 39802 49986 53003 60007 70186 878// 92100=
07190,1996-11-26 00:00:00,5,998.5,-0.2,93,4,15000,3.704,,,180,,,,1,,,,,,25,wg-a,,,,AAXX 26004 07190 02565 71802 10050 20040 39800 49985 56002 60016 72586 878// 90000 333 60017=
07190,1996-11-26 03:00:00,5,999.7,1.2,93,4,7000,3.704,,,350,,,,1,,,,,,50,wg-a,,,,AAXX 26034 07190 12357 83502 10050 20040 39812 49997 53012 60017 75052 885// 90300=
07190,1996-11-26 06:00:00,5,1002.6,2.9,93,4,15000,7.408,,,280,4.7,6.3,,1,,,3,,,3,wg-a,,,,AAXX 26064 07190 02365 82804 10050 20040 39841 40026 53029 60034 70365 885// 90600 333 10063 20047 60017=
07190,1996-11-26 09:00:00,5,1004.8,2.1,93,4,10000,3.704,,,200,,,,0,,,,,,1,wg-a,,,,AAXX 26094 07190 12460 /2002 10050 20040 39862 40048 51021 60007 70165 878// 90900=
07190,1996-11-26 12:00:00,7,1006,1.3,81,4,12000,11.112,,,250,,,,,,,,,,2,wg-a,,,,AAXX 26124 07190 02562 82506 10070 20040 39875 40060 51013 60016 70265 888// 91200 333 61000=
07190,1996-11-26 15:00:00,6,1007.8,1.7,87,4,9000,11.112,,,230,,,,,,,,,,60,wg-a,,,,AAXX 26154 07190 02459 82306 10060 20040 39892 40078 53017 61000 76062 888// 91500 333 ////=
07190,1996-11-26 18:00:00,5,1009.3,1.4,87,3,15000,11.112,,,230,4.7,7.2,,,,,,,,3,wg-a,,,,AAXX 26184 07190 02565 /2306 10050 20030 39906 40093 53014 61000 70362 85830 91800 333 10072 20047 ////=
07190,1996-11-26 21:00:00,4,1010.4,1,93,3,15000,7.408,,,240,,,,,,,,,,,wg-a,,,,AAXX 26214 07190 12565 72404 10040 20030 39916 40104 52010 60006 875// 92100=
07190,1996-11-27 00:00:00,4,1011.1,0.7,87,2,15000,11.112,,,280,,,,0,,,,,,21,wg-a,,,,AAXX 27004 07190 02565 /2806 10040 20020 39923 40111 50007 60016 72162 86500 90000 333 60007=
07190,1996-11-27 06:00:00,3,1012.3,-0.1,87,1,15000,7.408,,,240,2.8,5,,,,,1,,,60,wg-a,,,,AAXX 27064 07190 02565 72404 10030 20010 39934 40123 58001 60014 76062 875// 90600 333 10050 20028 61000=
07190,1996-11-27 09:00:00,3,1012.1,-0.2,93,2,10000,3.704,,,200,,,,,,,,,,1,wg-a,,,,AAXX 27094 07190 02560 32002 10030 20020 39932 40121 57002 61000 70161 83830 90900 333 ////=
07190,1996-11-27 12:00:00,4,1009.3,-2.6,93,3,12000,7.408,,,150,,,,,,,,,,3,wg-a,,,,AAXX 27124 07190 02462 71504 10040 20030 39906 40093 58026 61000 70361 878// 91200 333 ////=
07190,1996-11-27 15:00:00,4,1005.9,-3.4,87,2,12000,11.112,,,40,,,,,,,,,,,wg-a,,,,AAXX 27154 07190 12462 70406 10040 20020 39872 40059 58034 60006 878// 91500=
07190,1996-11-27 18:00:00,3,1004.6,-1.4,81,0,12000,11.112,,,30,1.4,4.3,,,,,,,,,wg-a,,,,AAXX 27184 07190 32462 80306 10030 20000 39858 40046 56014 8552/ 91800 333 10043 20014=
07190,1996-11-28 00:00:00,1,1005.7,1.4,86,-1,8000,14.816,,,360,,,,,,,,,,,wg-a,,,,AAXX 28004 07190 12458 83608 10010 21010 39868 40057 51014 60006 875// 90000=
07190,1996-11-28 03:00:00,1,1007.8,2.1,86,-1,8000,14.816,,,350,,,,,,,,,,,wg-a,,,,AAXX 28034 07190 12458 83508 10010 21010 39889 40078 53021 60006 875// 90300=
07190,1996-11-28 06:00:00,2,1011.1,3.3,87,0,8000,11.112,,,320,1.3,2.8,,,,,,,,71,wg-a,,,,AAXX 28064 07190 02558 83206 10020 20000 39921 40111 52033 61000 77172 875// 90600 333 10028 20013 6100=
07190,1996-11-28 09:00:00,2,1013.9,2.8,87,0,7000,11.112,,,300,,,,,,,,,,71,wg-a,,,,AAXX 28094 07190 02257 83006 10020 20000 39949 40139 51028 61000 77172 875// 90900 333 ////=
07190,1996-11-28 12:00:00,2,1015.6,1.7,80,-1,12000,11.112,,,320,,,,0,,,,,,1,wg-a,,,,AAXX 28124 07190 02462 73206 10020 21010 39966 40156 51017 60006 70172 878// 91200 333 60007=
07190,1996-11-28 15:00:00,2,1017.5,1.8,80,-1,8000,14.816,,,300,,,,,,,,,,,wg-a,,,,AAXX 28154 07190 12458 83008 10020 21010 39984 40175 53018 60006 888// 91500=
07190,1996-11-28 18:00:00,2,1019.5,2,80,-1,10000,3.704,,,190,1.1,2.6,,,,,,,,,wg-a,,,,AAXX 28184 07190 32560 71902 10020 21010 30004 40195 52020 875// 91800 333 10026 20011=
07190,1996-11-28 21:00:00,2,1020.7,1.2,87,0,8000,7.408,,,260,,,,,,,,,,70,wg-a,,,,AAXX 28214 07190 02558 82604 10020 20000 30016 40207 51012 61000 77072 885// 92100 333 ////=
07190,1996-11-29 00:00:00,2,1021,0.2,87,0,8000,11.112,,,180,,,,,,,,,,1,wg-a,,,,AAXX 29004 07190 02658 81806 10020 20000 30018 40210 51002 61000 70172 885// 90000 333 6100=
07190,1996-11-29 03:00:00,1,1020.3,-0.7,86,-1,9000,3.704,,,170,,,,,,,,,,,wg-a,,,,AAXX 29034 07190 12659 71702 10010 21010 30011 40203 58007 60006 875// 90300=
07190,1996-11-29 06:00:00,1,1018.9,-1.4,86,-1,8000,18.52,,,200,0.7,1.9,,,,,,,,,wg-a,,,,AAXX 29064 07190 12758 72010 10010 21010 39997 40189 56014 60004 875// 90600 333 10019 20007=
07190,1996-11-29 09:00:00,1,1016.5,-2.3,86,-1,8000,25.928,,,180,,,,,,,,,,,wg-a,,,,AAXX 29094 07190 12658 /1814 10010 21010 39974 40165 58023 60006 81102 90900=
07190,1996-11-29 12:00:00,1,1011.2,-5.2,86,-1,7000,29.632,,,170,,,,,,,,,,70,wg-a,,,,AAXX 29124 07190 02557 81716 10010 21010 39922 40112 58052 61000 77072 8127/ 91200 333 6100=
07190,1996-11-29 15:00:00,1,1004.5,-6.6,93,0,3500,35.188,,,180,,,,,,,,,,71,wg-a,,,,AAXX 29154 07190 02235 81819 10010 20000 39856 40045 56066 61000 77172 8672/ 91500 333 ////=
07190,1996-11-29 18:00:00,3,999.7,-4.6,93,2,8000,31.484,,,170,0.6,2.7,,1,,,,,,61,wg-a,,,,AAXX 29184 07190 12258 81717 10030 20020 39810 49997 56046 60017 76176 875// 91800 333 10027 20006=
07190,1996-11-29 21:00:00,5,1000.4,0.9,93,4,10000,14.816,,,250,,,,4,,,,,,61,wg-a,,,,AAXX 29214 07190 12260 82508 10050 20040 39819 40004 53009 60047 76166 885// 92100=
07190,1996-11-30 00:00:00,3,1000.3,-0.2,93,2,25000,11.112,,,190,,,,1,,,,,,21,wg-a,,,,AAXX 30004 07190 02575 71906 10030 20020 39817 40003 55002 60056 72162 8483/ 90000 333 60017=
07190,1996-11-30 03:00:00,3,1001.2,0.8,93,2,25000,7.408,,,220,,,,,,,,,,,wg-a,,,,AAXX 30034 07190 12575 /2204 10030 20020 39825 40012 53008 60006 86800 90300=
07190,1996-11-30 06:00:00,4,1001.5,0.4,87,2,25000,11.112,,,190,2.7,4.7,,,,,6,,,,wg-a,,,,AAXX 30064 07190 12575 /1906 10040 20020 39829 40015 53004 60064 86800 90600 333 10047 20027=
07190,1996-11-30 09:00:00,5,1001.9,0.4,87,3,18000,14.816,,,200,,,,,,,,,,,wg-a,,,,AAXX 30094 07190 12568 72008 10050 20030 39833 40019 50004 60006 87840 90900=
07190,1996-11-30 12:00:00,5,1002.3,0.4,87,3,15000,14.816,,,230,,,,2,,,,,,21,wg-a,,,,AAXX 30124 07190 02465 72308 10050 20030 39837 40023 52004 60026 72165 83872 91200 333 60027=
07190,1996-11-30 15:00:00,5,1003.3,1,93,4,9000,11.112,,,180,,,,0,,,,,,61,wg-a,,,,AAXX 30154 07190 12559 81806 10050 20040 39847 40033 53010 60007 76162 8782/ 91500=
07190,1996-11-30 18:00:00,4,1005.2,1.8,93,3,9000,7.408,,,210,3.5,5.5,,2,,,,,,61,wg-a,,,,AAXX 30184 07190 12459 82104 10040 20030 39865 40052 51018 60027 76162 878// 91800 333 10055 20035=
07190,1996-11-30 21:00:00,4,1008,2.8,100,4,12000,7.408,,,200,,,,1,,,,,,1,wg-a,,,,AAXX 30214 07190 12462 72004 10040 20040 39893 40080 51028 60017 70162 875// 92100=
07190,1996-12-01 00:00:00,4,1012.7,4.6,87,2,12000,14.816,,,320,,,,0,,,,,,1,wg-a,,,,AAXX 01004 07190 02562 23208 10040 20020 39939 40127 52046 60016 70161 82800 90000 333 60007=
07190,1996-12-01 03:00:00,3,1016.2,3.3,87,1,15000,18.52,,,300,,,,,,,,,,,wg-a,,,,AAXX 01034 07190 12765 73010 10030 20010 39972 40162 51033 60006 875// 90300=
07190,1996-12-01 06:00:00,3,1019.5,3.3,81,0,15000,14.816,,,300,2.7,5.4,,,,,5,,,,wg-a,,,,AAXX 01064 07190 12765 73008 10030 20000 30005 40195 53033 60054 875// 90600 333 10054 20027=
07190,1996-12-01 09:00:00,3,1022.5,2.9,81,0,20000,11.112,,,160,,,,,,,,,,,wg-a,,,,AAXX 01094 07190 12670 71606 10030 20000 30034 40225 53029 60006 878// 90900=
07190,1996-12-01 12:00:00,6,1021.9,-0.3,61,-1,25000,14.816,,,250,,,,,,,,,,,wg-a,,,,AAXX 01124 07190 12575 72508 10060 21010 30031 40219 58003 60006 82832 91200=
07190,1996-12-01 15:00:00,5,1021.6,-0.4,65,-1,25000,14.816,,,190,,,,,,,,,,,wg-a,,,,AAXX 01154 07190 12675 71908 10050 21010 30027 40216 58004 60006 82832 91500=
07190,1996-12-01 18:00:00,4,1020,-1.6,75,0,25000,18.52,,,180,2.6,6.7,,,,,,,,,wg-a,,,,AAXX 01184 07190 12/75 71810 10040 20000 30010 40200 58016 60006 85031 91800 333 10067 20026=
07190,1996-12-02 00:00:00,4,1014.3,-2.9,81,1,15000,22.224,,,180,,,,,,,,,,,wg-a,,,,AAXX 02004 07190 12565 81812 10040 20010 39955 40143 56029 60006 875// 90000=
07190,1996-12-02 06:00:00,6,1013.1,0.4,87,4,12000,25.928,,,270,3.8,6.6,,1,,,1,,,61,wg-a,,,,AAXX 02064 07190 02462 82714 10060 20040 39944 40131 53004 60014 76165 888// 90600 333 10066 20038 60017=
07190,1996-12-02 12:00:00,9,1015.9,0.8,66,3,12000,25.928,,,270,,,,0,,,,,,3,wg-a,,,,AAXX 02124 07190 02562 62714 10090 20030 39973 40159 50008 60016 70386 84832 91200 333 60007=
07190,1996-12-02 15:00:00,6,1016.6,0.7,75,2,12000,22.224,,,250,,,,,,,,,,,wg-a,,,,AAXX 02154 07190 12662 62512 10060 20020 39979 40166 53007 60006 86832 91500=
07190,1996-12-02 18:00:00,4,1018.7,1.9,93,3,10000,7.408,,,210,3.8,9.2,,1,,,,,,80,wg-a,,,,AAXX 02184 07190 12360 72104 10040 20030 39998 40187 52019 60017 78086 878// 91800 333 10092 20038=
07190,1996-12-02 21:00:00,4,1019.4,0.6,93,3,15000,14.816,,,170,,,,1,,,,,,25,wg-a,,,,AAXX 02214 07190 12465 71708 10040 20030 30005 40194 53006 60017 72586 878// 92100=
07190,1996-12-03 00:00:00,4,1019.1,-0.4,87,2,15000,11.112,,,180,,,,1,,,,,,25,wg-a,,,,AAXX 03004 07190 02565 /1806 10040 20020 30001 40191 58004 60026 72586 86800 90000 333 60017=
07190,1996-12-03 03:00:00,2,1018.6,-0.6,93,1,15000,11.112,,,180,,,,1,,,,,,,wg-a,,,,AAXX 03034 07190 12665 /1806 10020 20010 39995 40186 58006 60017 81500 90300=
07190,1996-12-03 06:00:00,3,1018,-0.5,93,2,15000,7.408,,,170,1.5,4.7,,,,,4,,,1,wg-a,,,,AAXX 03064 07190 12565 71704 10030 20020 39990 40180 56005 60044 70161 875// 90600 333 10047 20015=
07190,1996-12-03 09:00:00,5,1016.3,-1.5,87,3,15000,18.52,,,170,,,,,,,,,,,wg-a,,,,AAXX 03094 07190 12665 71710 10050 20030 39975 40163 56015 60006 82522 90900=
07190,1996-12-03 12:00:00,7,1013.4,-2.7,81,4,15000,14.816,,,180,,,,,,,,,,,wg-a,,,,AAXX 03124 07190 12565 71808 10070 20040 39948 40134 58027 60006 8382/ 91200=
07190,1996-12-03 15:00:00,7,1010.4,-3,81,4,15000,11.112,,,190,,,,,,,,,,1,wg-a,,,,AAXX 03154 07190 02665 81906 10070 20040 39918 40104 56030 61000 70162 81537 91500 333 ////=
07190,1996-12-03 18:00:00,7,1007.8,-2.6,76,3,15000,11.112,,,190,3.2,6.9,,,,,,,,3,wg-a,,,,AAXX 03184 07190 32/65 71906 10070 20030 39892 40078 56026 70362 8707/ 91800 333 10069 20032=
07190,1996-12-03 21:00:00,5,1006.8,-1.1,81,2,15000,11.112,,,170,,,,,,,,,,,wg-a,,,,AAXX 03214 07190 12665 81706 10050 20020 39881 40068 56011 60006 8157/ 92100=
07190,1996-12-04 00:00:00,4,1006.1,-0.7,81,1,15000,18.52,,,170,,,,,,,,,,,wg-a,,,,AAXX 04004 07190 12/65 21710 10040 20010 39874 40061 56007 60006 80001 90000=
07190,1996-12-04 03:00:00,6,1006.5,0.6,61,-1,15000,18.52,,,160,,,,,,,,,,,wg-a,,,,AAXX 04034 07190 12665 /1610 10060 21010 39879 40065 52006 60006 81500 90300=
07190,1996-12-04 06:00:00,4,1008,1.3,70,-1,15000,7.408,,,210,3.4,6.5,,,,,,,,,wg-a,,,,AAXX 04064 07190 02765 32104 10040 21010 39892 40080 53013 60006 81502 90600 333 10065 20034 61000=
07190,1996-12-04 09:00:00,5,1010.2,2.2,75,1,35000,7.408,,,210,,,,,,,,,,,wg-a,,,,AAXX 04094 07190 12781 62104 10050 20010 39915 40102 51022 60006 82544 90900=
07190,1996-12-04 12:00:00,9,1009.9,0,66,3,35000,7.408,,,180,,,,,,,,,,,wg-a,,,,AAXX 04124 07190 12681 /1804 10090 20030 39915 40099 50000 60006 85842 91200=
07190,1996-12-04 15:00:00,9,1010.2,0.2,71,4,35000,3.704,,,170,,,,,,,,,,,wg-a,,,,AAXX 04154 07190 12681 71702 10090 20040 39917 40102 53002 60006 8684/ 91500=
07190,1996-12-04 18:00:00,8,1011.3,1.1,81,5,15000,7.408,,,230,3,9.7,,0,,,,,,21,wg-a,,,,AAXX 04184 07190 12565 82304 10080 20050 39928 40113 51011 60007 72162 878// 91800 333 10097 20030=
07190,1996-12-04 21:00:00,6,1011.6,0.1,87,4,15000,3.704,,,30,,,,,,,,,,,wg-a,,,,AAXX 04214 07190 12765 /0302 10060 20040 39929 40116 53001 60006 83500 92100=
07190,1996-12-05 00:00:00,3,1013.1,1.3,93,2,15000,3.704,,,150,,,,,,,,,,,wg-a,,,,AAXX 05004 07190 12/65 21502 10030 20020 39942 40131 53013 60006 82030 90000=
07190,1996-12-05 03:00:00,3,1013.7,0.6,87,1,15000,0,,,0,,,,,,,,,,,wg-a,,,,AAXX 05034 07190 12/65 20000 10030 20010 39948 40137 53006 60006 82030 90300=
07190,1996-12-05 06:00:00,2,1014.2,0.4,100,2,10000,0,,,0,1.4,7.7,,,,,,,,,wg-a,,,,AAXX 05064 07190 02860 30000 10020 20020 39952 40142 52004 60006 83030 90600 333 10077 20014 60004=
07190,1996-12-05 09:00:00,5,1015.4,1.4,81,2,12000,3.704,,,140,,,,,,,,,,,wg-a,,,,AAXX 05094 07190 12862 11402 10050 20020 39966 40154 51014 60006 81031 90900=
07190,1996-12-05 12:00:00,9,1014.6,-0.5,71,4,15000,3.704,,,160,,,,,,,,,,,wg-a,,,,AAXX 05124 07190 12865 31602 10090 20040 39961 40146 58005 60006 82032 91200=
07190,1996-12-05 15:00:00,8,1014.2,-0.5,76,4,12000,3.704,,,320,,,,,,,,,,,wg-a,,,,AAXX 05154 07190 12762 73202 10080 20040 39956 40142 55005 60006 84532 91500=
07190,1996-12-05 18:00:00,5,1015.4,1,93,4,9000,0,,,0,1.6,8.9,,,,,,,,,wg-a,,,,AAXX 05184 07190 12859 70000 10050 20040 39966 40154 53010 60006 86502 91800 333 10089 20016=
07190,1996-12-05 21:00:00,4,1016,0.5,93,3,10000,3.704,,,340,,,,,,,,,,,wg-a,,,,AAXX 05214 07190 12860 33402 10040 20030 39971 40160 53005 60006 82532 92100=
07190,1996-12-06 00:00:00,1,1016.2,-0,100,1,8000,7.408,,,340,,,,,,,,,,,wg-a,,,,AAXX 06004 07190 12/58 23404 10010 20010 39971 40162 55000 60006 80002 90000=
07190,1996-12-06 03:00:00,1,1016.7,0.5,93,0,7000,7.408,,,340,,,,,,,,,,,wg-a,,,,AAXX 06034 07190 12/57 03404 10010 20000 39976 40167 50005 60006 80000 90300=
07190,1996-12-06 06:00:00,0,1017.5,0.7,100,0,4500,7.408,,,350,0.1,5,,,,,,,,10,wg-a,,,,AAXX 06064 07190 02245 73504 10000 20000 39983 40175 52007 60006 71000 876// 90600 333 10050 20001 60004=
07190,1996-12-06 09:00:00,0,1019,1.5,93,-1,900,7.408,,,20,,,,,,,,,,45,wg-a,,,,AAXX 06094 07190 12/09 90204 10000 21010 39998 40190 53015 60006 74542 89/// 90900=
07190,1996-12-06 12:00:00,1,1019.2,-0,93,0,1400,7.408,,,20,,,,,,,,,,10,wg-a,,,,AAXX 06124 07190 32114 80204 10010 20000 30000 40192 54000 71042 886// 91200=
07190,1996-12-06 15:00:00,2,1019.3,0.3,93,1,2500,7.408,,,340,,,,,,,,,,10,wg-a,,,,AAXX 06154 07190 12325 83404 10020 20010 30002 40193 53003 60006 71022 876// 91500=
07190,1996-12-06 18:00:00,2,1020.9,1.5,93,1,2500,3.704,,,20,-0.1,2.4,,,,,,,,10,wg-a,,,,AAXX 06184 07190 32325 80202 10020 20010 30018 40209 51015 71022 886// 91800 333 10024 21001=
07190,1996-12-06 21:00:00,2,1021.9,1,93,1,4000,3.704,,,340,,,,,,,,,,10,wg-a,,,,AAXX 06214 07190 12240 83402 10020 20010 30028 40219 53010 60006 71022 886// 92100=
07190,1996-12-07 00:00:00,1,1022.8,0.8,93,0,3000,7.408,,,330,,,,,,,,,,10,wg-a,,,,AAXX 07004 07190 12230 83304 10010 20000 30036 40228 53008 60006 71022 886// 90000=
07190,1996-12-07 03:00:00,1,1023.3,0.4,93,0,1200,7.408,,,360,,,,,,,,,,10,wg-a,,,,AAXX 07034 07190 12112 83604 10010 20000 30040 40233 51004 60006 71022 886// 90300=
07190,1996-12-07 06:00:00,0,1024.1,0.8,100,0,1000,3.704,,,330,0.4,2.4,,,,,,,,10,wg-a,,,,AAXX 07064 07190 02110 83302 10000 20000 30048 40241 52008 60006 71022 886// 90600 333 10024 20004 60004=
07190,1996-12-07 09:00:00,0,1025.7,1.6,100,0,1000,7.408,,,360,,,,,,,,,,10,wg-a,,,,AAXX 07094 07190 12110 83604 10000 20000 30064 40257 53016 60006 71042 886// 90900=
07190,1996-12-07 12:00:00,0,1025.9,0.2,100,0,2000,7.408,,,360,,,,,,,,,,10,wg-a,,,,AAXX 07124 07190 02220 83604 10000 20000 30066 40259 50002 61000 71054 886// 91200 333 6100=
07190,1996-12-07 15:00:00,0,1026.4,0.5,93,-1,2300,7.408,,,50,,,,,,,,,,10,wg-a,,,,AAXX 07154 07190 02223 80504 10000 21010 30071 40264 53005 61000 71052 886// 91500 333 ////=
07190,1996-12-07 18:00:00,1,1027.3,0.9,86,-1,4000,11.112,,,30,0.2,0.8,,,,,,,,10,wg-a,,,,AAXX 07184 07190 32340 80306 10010 21010 30080 40273 51009 71052 886// 91800 333 10008 20002=
07190,1996-12-07 21:00:00,1,1027.7,0.4,86,-1,3500,11.112,,,10,,,,,,,,,,10,wg-a,,,,AAXX 07214 07190 12335 80106 10010 21010 30084 40277 51004 60006 71022 886// 92100=
07190,1996-12-08 00:00:00,0,1027.7,-0.1,93,-1,2000,7.408,,,30,,,,,,,,,,10,wg-a,,,,AAXX 08004 07190 12320 80304 10000 21010 30083 40277 58001 60006 71022 886// 90000=
07190,1996-12-08 03:00:00,0,1027.5,-0.2,93,-1,2000,11.112,,,10,,,,,,,,,,,wg-a,,,,AAXX 08034 07190 12320 80106 10000 21010 30081 40275 56002 60006 886// 90300=
07190,1996-12-08 06:00:00,0,1026.6,-0.9,93,-1,2500,14.816,,,20,0.1,0.8,,,,,,,,10,wg-a,,,,AAXX 08064 07190 02225 80208 10000 21010 30072 40266 56009 60006 71022 886// 90600 333 10008 20001 61000=
07190,1996-12-08 09:00:00,0,1027.9,1.3,93,-1,500,11.112,,,20,,,,,,,,,,,wg-a,,,,AAXX 08094 07190 12300 80206 10000 21010 30085 40279 53013 60006 886// 90900=
07190,1996-12-08 12:00:00,1,1026.6,-1.2,86,-1,7000,11.112,,,20,,,,,,,,,,,wg-a,,,,AAXX 08124 07190 12457 80206 10010 21010 30073 40266 55012 60006 885// 91200=
07190,1996-12-08 15:00:00,1,1025.7,-0.9,80,-2,6000,11.112,,,10,,,,,,,,,,,wg-a,,,,AAXX 08154 07190 12456 80106 10010 21020 30064 40257 56009 60006 886// 91500=
07190,1996-12-08 18:00:00,0,1025.8,0.1,86,-2,6000,11.112,,,360,0.1,0.9,,,,,,,,,wg-a,,,,AAXX 08184 07190 12456 83606 10000 21020 30065 40258 51001 60006 886// 91800 333 10009 20001=
07190,1996-12-08 21:00:00,0,1025.3,-0.5,86,-2,500,7.408,,,360,,,,,,,,,,,wg-a,,,,AAXX 08214 07190 12400 83604 10000 21020 30060 40253 58005 60006 886// 92100=
07190,1996-12-09 00:00:00,0,1024.6,-0.7,93,-1,4500,3.704,,,330,,,,,,,,,,10,wg-a,,,,AAXX 09004 07190 12445 83302 10000 21010 30053 40246 58007 60006 71022 886// 90000=
07190,1996-12-09 03:00:00,0,1023.4,-1.2,86,-2,4500,7.408,,,360,,,,,,,,,,10,wg-a,,,,AAXX 09034 07190 12445 83604 10000 21020 30041 40234 56012 60006 71022 886// 90300=
07190,1996-12-09 06:00:00,0,1022.1,-1.3,86,-2,500,7.408,,,10,-0.1,0.3,,,,,,,,,wg-a,,,,AAXX 09064 07190 02400 80104 10000 21020 30028 40221 56013 60006 886// 90600 333 10003 21001 60004=
07190,1996-12-09 09:00:00,0,1021.9,-0.2,86,-2,9000,11.112,,,20,,,,,,,,,,,wg-a,,,,AAXX 09094 07190 12459 80206 10000 21020 30026 40219 56002 60006 885// 90900=
07190,1996-12-09 12:00:00,1,1020.2,-1.6,80,-2,9000,11.112,,,30,,,,,,,,,,,wg-a,,,,AAXX 09124 07190 12459 80306 10010 21020 30010 40202 58016 60006 885// 91200=
07190,1996-12-09 15:00:00,1,1019.3,-0.9,80,-2,7000,3.704,,,20,,,,,,,,,,,wg-a,,,,AAXX 09154 07190 12457 80202 10010 21020 30001 40193 55009 60006 885// 91500=
07190,1996-12-09 18:00:00,0,1019.1,-0.2,86,-2,7000,7.408,,,10,-0.2,1.1,,,,,,,,,wg-a,,,,AAXX 09184 07190 12457 80104 10000 21020 39999 40191 58002 60006 885// 91800 333 10011 21002=
07190,1996-12-09 21:00:00,-1,1019.8,0.6,93,-2,6000,3.704,,,330,,,,,,,,,,,wg-a,,,,AAXX 09214 07190 12456 73302 11010 21020 30005 40198 51006 60006 85508 92100=
07190,1996-12-10 00:00:00,0,1019.3,-0.5,86,-2,6000,3.704,,,330,,,,,,,,,,,wg-a,,,,AAXX 10004 07190 12456 83302 10000 21020 30000 40193 56005 60006 886// 90000=
07190,1996-12-10 03:00:00,-1,1018.5,-0.8,93,-2,6000,3.704,,,350,,,,,,,,,,,wg-a,,,,AAXX 10034 07190 12356 83502 11010 21020 39992 40185 58008 60006 886// 90300=
07190,1996-12-10 06:00:00,0,1017.7,-0.7,86,-2,500,11.112,,,350,-0.8,0.2,,,,,,,,,wg-a,,,,AAXX 10064 07190 02200 83506 10000 21020 39985 40177 56007 60006 886// 90600 333 10002 21008 60004=
07190,1996-12-10 09:00:00,-1,1017.3,-0.4,93,-2,3000,11.112,,,10,,,,,,,,,,10,wg-a,,,,AAXX 10094 07190 12230 80106 11010 21020 39981 40173 57004 60006 71022 886// 90900=
07190,1996-12-10 12:00:00,0,1015.8,-1.5,86,-2,4000,14.816,,,10,,,,,,,,,,10,wg-a,,,,AAXX 10124 07190 12340 80108 10000 21020 39966 40158 58015 60006 71022 886// 91200=
07190,1996-12-10 15:00:00,0,1015.1,-0.6,93,-1,3000,11.112,,,10,,,,,,,,,,10,wg-a,,,,AAXX 10154 07190 12330 80106 10000 21010 39960 40151 55006 60006 71022 886// 91500=
07190,1996-12-10 18:00:00,0,1015.6,0.5,93,-1,6000,11.112,,,360,-0.7,0.3,,,,,,,,,wg-a,,,,AAXX 10184 07190 12356 83606 10000 21010 39965 40156 51005 60006 886// 91800 333 10003 21007=
07190,1996-12-10 21:00:00,0,1016.1,0.5,93,-1,6000,0,,,0,,,,,,,,,,,wg-a,,,,AAXX 10214 07190 12356 80000 10000 21010 39970 40161 52005 60006 886// 92100=
07190,1996-12-11 00:00:00,0,1016.6,0.4,93,-1,6000,11.112,,,200,,,,,,,,,,,wg-a,,,,AAXX 11004 07190 12356 82006 10000 21010 39974 40166 50004 60006 886// 90000=
07190,1996-12-11 03:00:00,0,1017,0.4,93,-1,6000,7.408,,,180,,,,,,,,,,,wg-a,,,,AAXX 11034 07190 12356 81804 10000 21010 39978 40170 51004 60006 886// 90300=
07190,1996-12-11 06:00:00,0,1017.4,0.4,86,-2,6000,7.408,,,180,-0.3,0.4,,,,,,,,,wg-a,,,,AAXX 11064 07190 02256 81804 10000 21020 39982 40174 53004 60006 886// 90600 333 10004 21003 60004=
07190,1996-12-11 09:00:00,0,1018.1,0.7,86,-2,4000,3.704,,,190,,,,,,,,,,10,wg-a,,,,AAXX 11094 07190 12240 81902 10000 21020 39989 40181 51007 60006 71022 886// 90900=
07190,1996-12-11 12:00:00,0,1017.4,-0.7,93,-1,4000,7.408,,,170,,,,,,,,,,10,wg-a,,,,AAXX 11124 07190 12240 81704 10000 21010 39982 40174 58007 60006 71022 886// 91200=
07190,1996-12-11 15:00:00,0,1016.8,-0.6,93,-1,3500,3.704,,,110,,,,,,,,,,10,wg-a,,,,AAXX 11154 07190 12235 81102 10000 21010 39976 40168 56006 60006 71022 886// 91500=
07190,1996-12-11 18:00:00,0,1017.2,0.4,93,-1,3000,7.408,,,210,-0.5,0.4,,,,,,,,10,wg-a,,,,AAXX 11184 07190 12230 82104 10000 21010 39980 40172 53004 60006 71022 886// 91800 333 10004 21005=
07190,1996-12-11 21:00:00,0,1017.5,0.3,93,-1,2500,7.408,,,220,,,,,,,,,,10,wg-a,,,,AAXX 11214 07190 12225 82204 10000 21010 39983 40175 50003 60006 71022 886// 92100=
07190,1996-12-12 00:00:00,1,1016.4,-1,93,0,1500,11.112,,,170,,,,,,,,,,10,wg-a,,,,AAXX 12004 07190 12115 81706 10010 20000 39973 40164 58010 60006 71022 886// 90000=
07190,1996-12-12 03:00:00,0,1015.5,-0.8,100,0,900,11.112,,,160,,,,,,,,,,45,wg-a,,,,AAXX 12034 07190 12/09 91606 10000 20000 39964 40155 56008 60006 74542 89/// 90300=
07190,1996-12-12 06:00:00,0,1015.8,0.3,100,0,800,0,,,0,0.2,0.5,,,,,,,,45,wg-a,,,,AAXX 12064 07190 02/08 90000 10000 20000 39967 40158 53003 60006 74542 89/// 90600 333 10005 20002 60004=
07190,1996-12-12 09:00:00,0,1016.3,0.4,100,0,700,11.112,,,170,,,,,,,,,,45,wg-a,,,,AAXX 12094 07190 12/07 91706 10000 20000 39972 40163 51004 60006 74544 89/// 90900=
07190,1996-12-12 12:00:00,1,1014.8,-1.4,100,1,1500,11.112,,,180,,,,,,,,,,10,wg-a,,,,AAXX 12124 07190 12115 81806 10010 20010 39957 40148 58014 60006 71042 886// 91200=
07190,1996-12-12 15:00:00,1,1012.8,-1.9,100,1,900,11.112,,,180,,,,,,,,,,10,wg-a,,,,AAXX 12154 07190 12109 81806 10010 20010 39938 40128 56019 60006 71042 886// 91500=
07190,1996-12-12 18:00:00,1,1011.5,-1.3,100,1,600,3.704,,,140,0.1,1.7,,,,,,,,43,wg-a,,,,AAXX 12184 07190 12/06 91402 10010 20010 39925 40115 57013 60006 74342 89/// 91800 333 10017 20001=
07190,1996-12-12 21:00:00,1,1010.4,-1.1,100,1,2200,0,,,0,,,,,,,,,,10,wg-a,,,,AAXX 12214 07190 12122 80000 10010 20010 39914 40104 58011 60006 71042 886// 92100=
07190,1996-12-13 00:00:00,2,1008.4,-1.9,100,2,2500,0,,,0,,,,0,,,,,,10,wg-a,,,,AAXX 13004 07190 02625 80000 10020 20020 39895 40084 58019 60006 71042 875// 90000 333 60007=
07190,1996-12-13 03:00:00,2,1006.7,-1.6,100,2,2500,3.704,,,350,,,,,,,,,,10,wg-a,,,,AAXX 13034 07190 12725 83502 10020 20020 39879 40067 56016 60006 71022 875// 90300=
07190,1996-12-13 06:00:00,2,1004.8,-1.9,100,2,900,3.704,,,350,1,2.3,,0,,,1,,,41,wg-a,,,,AAXX 13064 07190 02609 33502 10020 20020 39860 40048 56019 60014 74164 83500 90600 333 10023 20010 60007=
07190,1996-12-13 09:00:00,3,1003.4,-1.3,93,2,2300,3.704,,,350,,,,0,,,,,,10,wg-a,,,,AAXX 13094 07190 12523 73502 10030 20020 39847 40034 56013 60007 71064 8687/ 90900=
07190,1996-12-13 12:00:00,7,1001.1,-2,100,7,6000,14.816,,,180,,,,0,,,,,,60,wg-a,,,,AAXX 13124 07190 02556 81808 10070 20070 39827 40011 58020 60016 76064 878// 91200 333 60007=
07190,1996-12-13 15:00:00,7,999.1,-1.9,93,6,7000,3.704,,,160,,,,0,,,,,,1,wg-a,,,,AAXX 13154 07190 12557 71602 10070 20060 39808 49991 56019 60007 70162 875// 91500=
07190,1996-12-13 18:00:00,6,999.1,-0.1,93,5,4500,3.704,,,20,1.7,7.5,,,,,,,,21,wg-a,,,,AAXX 13184 07190 02545 80202 10060 20050 39807 49991 58001 61000 72162 875// 91800 333 10075 20017 ////=
07190,1996-12-13 21:00:00,5,999.3,0.1,100,5,3000,3.704,,,350,,,,,,,,,,10,wg-a,,,,AAXX 13214 07190 12430 83502 10050 20050 39808 49993 50001 60006 71022 875// 92100=
07190,1996-12-14 00:00:00,3,1001.7,2.2,93,2,4000,14.816,,,20,,,,1,,,,,,10,wg-a,,,,AAXX 14004 07190 02140 80208 10030 20020 39830 40017 51022 60016 71062 876// 90000 333 60017=
07190,1996-12-14 03:00:00,2,1002.9,1.1,93,1,12000,18.52,,,10,,,,1,,,,,,1,wg-a,,,,AAXX 14034 07190 12362 80110 10020 20010 39841 40029 53011 60017 70162 876// 90300=
07190,1996-12-14 06:00:00,2,1004.5,1.6,93,1,15000,18.52,,,350,1.9,5.7,,,,,2,,,3,wg-a,,,,AAXX 14064 07190 12365 83510 10020 20010 39857 40045 53016 60024 70362 875// 90600 333 10057 20019=
07190,1996-12-14 09:00:00,2,1006.8,2.1,87,0,12000,18.52,,,10,,,,,,,,,,,wg-a,,,,AAXX 14094 07190 12462 80110 10020 20000 39879 40068 53021 60006 875// 90900=
07190,1996-12-14 12:00:00,2,1008.1,1.3,80,-1,15000,22.224,,,20,,,,,,,,,,,wg-a,,,,AAXX 14124 07190 12465 80212 10020 21010 39892 40081 51013 60006 875// 91200=
07190,1996-12-14 15:00:00,2,1010.2,2.1,80,-1,15000,14.816,,,10,,,,,,,,,,,wg-a,,,,AAXX 14154 07190 12465 70108 10020 21010 39913 40102 53021 60006 875// 91500=
07190,1996-12-14 18:00:00,1,1012.3,2,80,-2,12000,11.112,,,350,1.2,2,,,,,,,,,wg-a,,,,AAXX 14184 07190 12562 73506 10010 21020 39933 40123 51020 60006 875// 91800 333 10020 20012=
07190,1996-12-14 21:00:00,1,1013.5,1.1,80,-2,10000,7.408,,,350,,,,,,,,,,,wg-a,,,,AAXX 14214 07190 12560 83504 10010 21020 39944 40135 52011 60006 875// 92100=
07190,1996-12-15 00:00:00,-1,1014.3,0.7,93,-2,13000,0,,,0,,,,,,,,,,,wg-a,,,,AAXX 15004 07190 12563 30000 11010 21020 39951 40143 51007 60006 83500 90000=
07190,1996-12-15 03:00:00,-3,1015.7,1.2,93,-4,10000,3.704,,,220,,,,,,,,,,,wg-a,,,,AAXX 15034 07190 12/60 02202 11030 21040 39963 40157 51012 60006 80000 90300=
07190,1996-12-15 06:00:00,-4,1016.9,1.1,93,-5,1200,3.704,,,200,-4.4,1.2,,,,,,,,40,wg-a,,,,AAXX 15064 07190 02/12 02002 11040 21050 39974 40169 53011 60006 74040 80000 90600 333 10012 21044 60004=
07190,1996-12-15 09:00:00,0,1017.9,1.3,93,-1,10000,3.704,,,200,,,,,,,,,,,wg-a,,,,AAXX 15094 07190 12660 22002 10000 21010 39987 40179 53013 60006 82501 90900=
07190,1996-12-15 12:00:00,2,1018,0.3,87,0,25000,11.112,,,180,,,,,,,,,,,wg-a,,,,AAXX 15124 07190 12575 71806 10020 20000 39990 40180 50003 60006 875// 91200=
07190,1996-12-15 15:00:00,3,1018.5,0.5,81,0,25000,3.704,,,180,,,,,,,,,,,wg-a,,,,AAXX 15154 07190 12575 81802 10030 20000 39995 40185 53005 60006 888// 91500=
07190,1996-12-15 18:00:00,3,1019.6,1.1,81,0,12000,7.408,,,180,-4.4,3.1,,,,,,,,,wg-a,,,,AAXX 15184 07190 12462 81804 10030 20000 30006 40196 51011 60006 875// 91800 333 10031 21044=
07190,1996-12-15 21:00:00,3,1020.7,1,87,1,10000,3.704,,,150,,,,,,,,,,,wg-a,,,,AAXX 15214 07190 12460 81502 10030 20010 30016 40207 51010 60006 875// 92100=
07190,1996-12-16 00:00:00,2,1020.5,-0.2,93,1,10000,0,,,0,,,,,,,,,,,wg-a,,,,AAXX 16004 07190 12560 80000 10020 20010 30014 40205 58002 60006 885// 90000=
07190,1996-12-16 03:00:00,2,1019.9,-0.6,93,1,8000,3.704,,,310,,,,,,,,,,,wg-a,,,,AAXX 16034 07190 12558 83102 10020 20010 30008 40199 56006 60006 875// 90300=
07190,1996-12-16 06:00:00,2,1019.6,-0.3,93,1,6000,3.704,,,350,1.7,3,,,,,,,,,wg-a,,,,AAXX 16064 07190 02656 83502 10020 20010 30005 40196 56003 60006 875// 90600 333 10030 20017 60004=
07190,1996-12-16 09:00:00,3,1019.7,0.2,87,1,500,3.704,,,190,,,,,,,,,,,wg-a,,,,AAXX 16094 07190 12600 /1902 10030 20010 30007 40197 53002 60006 81501 90900=
07190,1996-12-16 12:00:00,7,1017.6,-1.8,70,2,15000,3.704,,,170,,,,,,,,,,,wg-a,,,,AAXX 16124 07190 12/65 51702 10070 20020 39989 40176 58018 60006 80001 91200=
07190,1996-12-16 15:00:00,6,1016.2,-1.5,75,2,15000,7.408,,,120,,,,,,,,,,,wg-a,,,,AAXX 16154 07190 12/65 41204 10060 20020 39974 40162 56015 60006 80001 91500=
07190,1996-12-16 18:00:00,2,1015.6,-0.8,93,1,12000,7.408,,,170,1.3,7.2,,,,,,,,,wg-a,,,,AAXX 16184 07190 12/62 41704 10020 20010 39966 40156 56008 60006 80001 91800 333 10072 20013=
07190,1996-12-16 21:00:00,1,1015.5,-0.2,86,-1,10000,3.704,,,240,,,,,,,,,,,wg-a,,,,AAXX 16214 07190 12/60 12402 10010 21010 39964 40155 57002 60006 80001 92100=
07190,1996-12-17 00:00:00,0,1015.7,0.1,93,-1,8000,7.408,,,240,,,,,,,,,,,wg-a,,,,AAXX 17004 07190 12/58 02404 10000 21010 39965 40157 53001 60006 80000 90000=
07190,1996-12-17 03:00:00,0,1015.6,-0.1,93,-1,8000,3.704,,,220,,,,,,,,,,,wg-a,,,,AAXX 17034 07190 12/58 02202 10000 21010 39964 40156 57001 60006 80000 90300=
07190,1996-12-17 06:00:00,0,1015.6,-0,93,-1,7000,0,,,0,-0.7,2.7,,,,,,,,,wg-a,,,,AAXX 17064 07190 02/57 30000 10000 21010 39964 40156 55000 60006 80001 90600 333 10027 21007 60004=
07190,1996-12-17 09:00:00,1,1016,0.5,100,1,500,3.704,,,210,,,,,,,,,,,wg-a,,,,AAXX 17094 07190 12600 72102 10010 20010 39969 40160 51005 60006 81542 90900=
07190,1996-12-17 12:00:00,5,1014.2,-1.5,81,2,15000,11.112,,,170,,,,,,,,,,,wg-a,,,,AAXX 17124 07190 12665 71706 10050 20020 39954 40142 58015 60006 81178 91200=
07190,1996-12-17 15:00:00,6,1013.5,-0.6,87,4,8000,3.704,,,230,,,,,,,,,,61,wg-a,,,,AAXX 17154 07190 02658 82302 10060 20040 39948 40135 56006 61000 76162 8587/ 91500 333 ////=
07190,1996-12-17 18:00:00,5,1012.9,-0.6,93,4,7000,3.704,,,50,-0.1,6.1,,,,,,,,60,wg-a,,,,AAXX 17184 07190 02557 80502 10050 20040 39942 40129 58006 61000 76062 8557/ 91800 333 10061 21001 6001=
07190,1996-12-17 21:00:00,6,1013,0.1,93,5,500,3.704,,,90,,,,1,,,,,,50,wg-a,,,,AAXX 17214 07190 12200 80902 10060 20050 39943 40130 52001 60017 75065 885// 92100=
07190,1996-12-18 00:00:00,6,1012.8,-0.2,93,5,6000,3.704,,,160,,,,1,,,,,,21,wg-a,,,,AAXX 18004 07190 02556 81602 10060 20050 39941 40128 58002 60026 72165 875// 90000 333 60017=
07190,1996-12-18 03:00:00,7,1012.1,-0.6,93,6,10000,3.704,,,140,,,,0,,,,,,,wg-a,,,,AAXX 18034 07190 12560 81402 10070 20060 39935 40121 58006 60007 875// 90300=
07190,1996-12-18 06:00:00,7,1011.3,-0.8,100,7,8000,7.408,,,150,5.1,7.3,,,,,,,,21,wg-a,,,,AAXX 18064 07190 02358 81504 10070 20070 39927 40113 58008 61000 72162 875// 90600 333 10073 20051 6003=
07190,1996-12-18 09:00:00,8,1011,-0.2,87,6,12000,3.704,,,200,,,,,,,,,,,wg-a,,,,AAXX 18094 07190 12562 72002 10080 20060 39925 40110 56002 60006 875// 90900=
07190,1996-12-18 12:00:00,11,1009.2,-1.6,76,7,14000,0,,,0,,,,,,,,,,,wg-a,,,,AAXX 18124 07190 12664 /0000 10110 20070 39909 40092 58016 60006 85501 91200=
07190,1996-12-18 15:00:00,11,1007.7,-1.4,82,8,15000,7.408,,,160,,,,,,,,,,,wg-a,,,,AAXX 18154 07190 12765 51604 10110 20080 39895 40077 56014 60006 815/1 91500=
07190,1996-12-18 18:00:00,6,1007.6,-0.5,93,5,12000,0,,,0,6.1,12.9,,,,,,,,,wg-a,,,,AAXX 18184 07190 12/62 20000 10060 20050 39890 40076 57005 60006 80001 91800 333 10129 20061=
07190,1996-12-18 21:00:00,3,1007.6,-0.2,93,2,600,3.704,,,240,,,,,,,,,,41,wg-a,,,,AAXX 18214 07190 12/06 32402 10030 20020 39888 40076 58002 60006 74140 80001 92100=
07190,1996-12-19 00:00:00,0,1006.7,-1.1,100,0,500,0,,,0,,,,,,,,,,42,wg-a,,,,AAXX 19004 07190 12/05 50000 10000 20000 39877 40067 56011 60006 74241 80004 90000=
07190,1996-12-19 03:00:00,0,1005.7,-1,100,0,700,0,,,0,,,,,,,,,,41,wg-a,,,,AAXX 19034 07190 12707 70000 10000 20000 39867 40057 56010 60006 74142 82542 90300=
07190,1996-12-19 06:00:00,3,1004.2,-1.2,100,3,10000,3.704,,,210,-0.3,6.2,,,,,,,,3,wg-a,,,,AAXX 19064 07190 02660 72102 10030 20030 39855 40042 56012 60006 70342 83542 90600 333 10062 21003 60004=
07190,1996-12-19 09:00:00,6,1004.5,0.5,93,5,9000,11.112,,,180,,,,0,,,,,,60,wg-a,,,,AAXX 19094 07190 12659 81806 10060 20050 39860 40045 53005 60007 76062 8657/ 90900=
07190,1996-12-19 12:00:00,9,1002.5,,93,8,12000,18.52,,,170,,,,,,,,,,1,wg-a,,,,AAXX 19124 07190 12562 71710 10090 20080 39842 40025 60006 70162 85531 91200=
07190,1996-12-19 15:00:00,10,1001.7,-0.7,87,8,15000,7.408,,,190,,,,,,,,,,,wg-a,,,,AAXX 19154 07190 12565 81904 10100 20080 39835 40017 56007 60006 875// 91500=
07190,1996-12-19 18:00:00,9,1001.7,-0.1,87,7,15000,3.704,,,190,2.8,10.1,,,,,,,,3,wg-a,,,,AAXX 19184 07190 02665 71902 10090 20070 39834 40017 55001 60006 70362 875// 91800 333 10101 20028 61000=
07190,1996-12-19 21:00:00,8,1001.7,-0,93,7,8000,7.408,,,210,,,,,,,,,,3,wg-a,,,,AAXX 19214 07190 02258 82104 10080 20070 39834 40017 55000 61000 70362 885// 92100 333 ////=
07190,1996-12-20 00:00:00,8,1001.4,-0.3,100,8,500,7.408,,,190,,,,2,,,,,,61,wg-a,,,,AAXX 20004 07190 02200 81904 10080 20080 39831 40014 57003 60026 76165 885// 90000 333 60027=
07190,1996-12-20 03:00:00,7,1001.3,-0.2,100,7,500,0,,,0,,,,0,,,,,,0,wg-a,,,,AAXX 20034 07190 12200 80000 10070 20070 39829 40013 58002 60007 70062 885// 90300=
07190,1996-12-20 06:00:00,7,1000.8,-0.5,100,7,4000,0,,,0,6.8,8.7,,,,,3,,,10,wg-a,,,,AAXX 20064 07190 02240 80000 10070 20070 39824 40008 56005 60006 71065 885// 90600 333 10087 20068 60034=
07190,1996-12-20 09:00:00,7,1001.8,1,100,7,1200,0,,,0,,,,,,,,,,40,wg-a,,,,AAXX 20094 07190 12212 80000 10070 20070 39834 40018 53010 60006 74042 885// 90900=
07190,1996-12-20 12:00:00,8,1001.9,0.2,100,8,2000,3.704,,,350,,,,3,,,,,,10,wg-a,,,,AAXX 20124 07190 02120 83502 10080 20080 39836 40019 50002 60036 71065 887// 91200 333 60037=
07190,1996-12-20 15:00:00,5,1003.5,1.4,100,5,6000,18.52,,,30,,,,3,,,,,,10,wg-a,,,,AAXX 20154 07190 12256 80310 10050 20050 39850 40035 53014 60037 71066 887// 91500=
07190,1996-12-20 18:00:00,4,1005.4,1.7,93,3,6000,11.112,,,360,3.8,8.1,,,,,,,,61,wg-a,,,,AAXX 20184 07190 02256 83606 10040 20030 39867 40054 53017 61000 76166 887// 91800 333 10081 20038 6003=
07190,1996-12-20 21:00:00,3,1007.4,1.9,93,2,6000,14.816,,,10,,,,2,,,,,,61,wg-a,,,,AAXX 20214 07190 12256 80108 10030 20020 39886 40074 51019 60027 76166 887// 92100=
07190,1996-12-21 00:00:00,2,1008.5,1,93,1,3000,14.816,,,340,,,,2,,,,,,10,wg-a,,,,AAXX 21004 07190 02230 83408 10020 20010 39896 40085 51010 60046 71066 887// 90000 333 60027=
07190,1996-12-21 03:00:00,1,1009.7,1.2,100,1,3000,11.112,,,330,,,,,,,,,,10,wg-a,,,,AAXX 21034 07190 02230 83306 10010 20010 39908 40097 53012 61000 71065 887// 90300 333 ////=
07190,1996-12-21 06:00:00,1,1010.5,0.7,93,0,2500,11.112,,,350,1,3.8,,,,,13,,,10,wg-a,,,,AAXX 21064 07190 02125 83506 10010 20000 39915 40105 53007 60006 71065 886// 90600 333 10038 20010 60134=
07190,1996-12-21 09:00:00,1,1012.3,1.8,93,0,3500,11.112,,,10,,,,,,,,,,10,wg-a,,,,AAXX 21094 07190 12235 80106 10010 20000 39933 40123 53018 60006 71022 886// 90900=
07190,1996-12-21 12:00:00,2,1012.1,-0.1,93,1,3500,11.112,,,10,,,,,,,,,,10,wg-a,,,,AAXX 21124 07190 12235 80106 10020 20010 39932 40121 58001 60006 71022 886// 91200=
07190,1996-12-21 15:00:00,3,1012.1,-0,87,1,3700,18.52,,,20,,,,,,,,,,10,wg-a,,,,AAXX 21154 07190 12337 80210 10030 20010 39932 40121 54000 60006 71022 886// 91500=
07190,1996-12-21 18:00:00,3,1012.7,0.6,87,1,4000,14.816,,,20,1,2.9,,,,,,,,10,wg-a,,,,AAXX 21184 07190 12440 80208 10030 20010 39938 40127 52006 60006 71022 875// 91800 333 10029 20010=
07190,1996-12-21 21:00:00,2,1012.9,0.2,93,1,6000,18.52,,,30,,,,,,,,,,,wg-a,,,,AAXX 21214 07190 12556 80310 10020 20010 39940 40129 50002 60006 8452/ 92100=
07190,1996-12-22 00:00:00,2,1013.5,0.5,93,1,500,14.816,,,20,,,,0,,,,,,61,wg-a,,,,AAXX 22004 07190 02300 80208 10020 20010 39945 40135 52005 60006 76176 8682/ 90000 333 60007=
07190,1996-12-22 03:00:00,2,1014,0.5,87,0,500,7.408,,,20,,,,4,,,,,,61,wg-a,,,,AAXX 22034 07190 12400 80204 10020 20000 39950 40140 53005 60047 76176 875// 90300=
07190,1996-12-22 06:00:00,1,1013.5,-0.6,86,-1,7000,18.52,,,20,0.5,2.5,,,,,,,,23,wg-a,,,,AAXX 22064 07190 02457 80210 10010 21010 39944 40135 56006 61000 72376 875// 90600 333 10025 20005 6004=
07190,1996-12-22 09:00:00,0,1014.8,1.2,86,-2,3500,11.112,,,10,,,,0,,,,,,10,wg-a,,,,AAXX 22094 07190 12435 80106 10000 21020 39956 40148 51012 60007 71065 875// 90900=
07190,1996-12-22 12:00:00,0,1013.5,-1.2,86,-2,10000,11.112,,,20,,,,1,,,,,,21,wg-a,,,,AAXX 22124 07190 02460 80206 10000 21020 39944 40135 58012 60016 72165 875// 91200 333 60017=
07190,1996-12-22 15:00:00,1,1012.9,-0.6,80,-2,10000,7.408,,,20,,,,,,,,,,,wg-a,,,,AAXX 22154 07190 12460 80204 10010 21020 39938 40129 55006 60006 876// 91500=
07190,1996-12-22 18:00:00,0,1011.6,-1.3,86,-2,6000,7.408,,,330,-0.2,0.9,,,,,,,,60,wg-a,,,,AAXX 22184 07190 02456 83304 10000 21020 39925 40116 58013 61000 76062 876// 91800 333 10009 21002 6001=
07190,1996-12-22 21:00:00,0,1009.7,-1.9,86,-2,8000,3.704,,,330,,,,2,,,,,,21,wg-a,,,,AAXX 22214 07190 12458 83302 10000 21020 39906 40097 57019 60027 72162 876// 92100=
07190,1996-12-23 00:00:00,-1,1007.3,-2.4,93,-2,8000,11.112,,,350,,,,1,,,,,,66,wg-a,,,,AAXX 23004 07190 02458 83506 11010 21020 39882 40073 56024 60026 76662 876// 90000 333 60017=
07190,1996-12-23 06:00:00,-1,1002.8,-2.8,100,-1,500,11.112,,,30,-0.9,0.1,,,,,,,,66,wg-a,,,,AAXX 23064 07190 02200 80306 11010 21010 39838 40028 58028 61000 76662 886// 90600 333 10001 21009 6010=
07190,1996-12-23 09:00:00,-1,1002.2,-0.6,100,-1,4000,7.408,,,10,,,,2,,,,,,10,wg-a,,,,AAXX 23094 07190 12240 80104 11010 21010 39832 40022 56006 60027 71066 887// 90900=
07190,1996-12-23 12:00:00,-1,999.6,-2.5,100,-1,6000,7.408,,,20,,,,3,,,,,,66,wg-a,,,,AAXX 23124 07190 02256 80204 11010 21010 39807 49996 58025 60056 76666 887// 91200 333 60037=
07190,1996-12-23 15:00:00,-1,999.6,-0,93,-2,500,11.112,,,10,,,,1,,,,,,66,wg-a,,,,AAXX 23154 07190 12200 80106 11010 21020 39807 49996 55000 60017 76676 887// 91500=
07190,1996-12-23 18:00:00,-2,1001,1.3,93,-3,3500,11.112,,,10,-2.1,-0.5,,,,,,,,10,wg-a,,2,,AAXX 23184 07190 02235 80106 11020 21030 39820 40010 53013 61000 71076 887// 91800 333 11005 21021 4/002 6001=
07190,1996-12-23 21:00:00,-3,1003,1.9,93,-4,2500,11.112,,,10,,,,1,,,,,,10,wg-a,,,,AAXX 23214 07190 12325 80106 11030 21040 39839 40030 53019 60017 71077 887// 92100=
07190,1996-12-24 00:00:00,-3,1004.1,1,93,-4,1800,11.112,,,30,,,,1,,,,,,10,wg-a,,,,AAXX 24004 07190 02218 80306 11030 21040 39849 40041 51010 60026 71077 887// 90000 333 60017=
07190,1996-12-24 03:00:00,-4,1004.7,0.6,93,-5,3500,14.816,,,20,,,,0,,,,,,10,wg-a,,,,AAXX 24034 07190 12635 80208 11040 21050 39855 40047 50006 60007 71072 875// 90300=
07190,1996-12-24 06:00:00,-4,1005.3,0.5,86,-6,4000,11.112,,,20,-4.2,-2.1,,,,,10,,,10,wg-a,,6,,AAXX 24064 07190 02640 80206 11040 21060 39860 40053 51005 60006 71072 885// 90600 333 11021 21042 4/006 60104=
07190,1996-12-24 09:00:00,-4,1006.4,1.1,86,-6,4000,7.408,,,20,,,,0,,,,,,10,wg-a,,,,AAXX 24094 07190 12740 70204 11040 21060 39871 40064 51011 60007 71022 875// 90900=
07190,1996-12-24 12:00:00,-4,1006.4,0.1,93,-5,4000,11.112,,,10,,,,0,,,,,,10,wg-a,,,,AAXX 24124 07190 02440 80106 11040 21050 39872 40064 51001 60016 71022 885// 91200 333 60007=
07190,1996-12-24 15:00:00,-3,1006.5,0.1,86,-5,3500,11.112,,,20,,,,,,,,,,10,wg-a,,,,AAXX 24154 07190 12535 80206 11030 21050 39873 40065 53001 60006 71022 885// 91500=
07190,1996-12-24 18:00:00,-4,1007.2,0.6,86,-6,3500,11.112,,,20,-4.7,-3.2,,,,,,,,10,wg-a,,6,,AAXX 24184 07190 12535 80206 11040 21060 39879 40072 51006 60006 71022 885// 91800 333 11032 21047 4/006=
07190,1996-12-24 21:00:00,-5,1007.9,0.6,86,-7,6000,7.408,,,10,,,,,,,,,,,wg-a,,,,AAXX 24214 07190 12456 70104 11050 21070 39885 40079 53006 60006 878// 92100=
07190,1996-12-25 00:00:00,-5,1008.6,0.7,86,-7,6000,7.408,,,360,,,,,,,,,,,wg-a,,,,AAXX 25004 07190 12456 73604 11050 21070 39892 40086 51007 60006 875// 90000=
07190,1996-12-25 03:00:00,-8,1010,1.2,85,-10,7000,7.408,,,350,,,,,,,,,,,wg-a,,,,AAXX 25034 07190 12457 /3504 11080 21100 39904 40100 51012 60006 85500 90300=
07190,1996-12-25 06:00:00,-10,1012.2,2,92,-11,8000,7.408,,,360,-9.5,-4.1,,,,,,,,,wg-a,,4,,AAXX 25064 07190 02458 /3604 11100 21110 39924 40122 53020 60006 83500 90600 333 11041 21095 4/004 60004=
07190,1996-12-25 09:00:00,-10,1014.8,2.5,85,-12,7000,7.408,,,350,,,,,,,,,,,wg-a,,,,AAXX 25094 07190 12457 23504 11100 21120 39949 40148 53025 60006 82500 90900=
07190,1996-12-25 12:00:00,-7,1016.2,1.6,79,-10,7000,14.816,,,10,,,,,,,,,,,wg-a,,,,AAXX 25124 07190 12457 20108 11070 21100 39965 40162 51016 60006 82400 91200=
07190,1996-12-25 15:00:00,-6,1018.6,2.4,73,-10,7000,14.816,,,20,,,,,,,,,,,wg-a,,,,AAXX 25154 07190 12/57 00208 11060 21100 39989 40186 53024 60006 80000 91500=
07190,1996-12-25 18:00:00,-6,1022.2,3.5,73,-10,8000,18.52,,,40,-10.7,-5.9,,,,,,,,,wg-a,,4,,AAXX 25184 07190 12/58 00410 11060 21100 30024 40222 51035 60006 80000 91800 333 11059 21107 4/004=
07190,1996-12-25 21:00:00,-8,1025.8,3.4,79,-11,12000,7.408,,,340,,,,,,,,,,,wg-a,,,,AAXX 25214 07190 12462 /3404 11080 21110 30058 40258 51034 60006 81500 92100=
07190,1996-12-26 00:00:00,-6,1028.6,2.9,79,-9,12000,18.52,,,30,,,,,,,,,,,wg-a,,,,AAXX 26004 07190 12662 30310 11060 21090 30087 40286 53029 60006 83500 90000=
07190,1996-12-26 03:00:00,-7,1031.6,2.9,79,-10,10000,22.224,,,20,,,,,,,,,,,wg-a,,,,AAXX 26034 07190 12660 /0212 11070 21100 30116 40316 53029 60006 81500 90300=
07190,1996-12-26 06:00:00,-8,1034.7,3,79,-11,10000,14.816,,,20,-8.5,-5.8,,,,,,,,,wg-a,,3,,AAXX 26064 07190 02/60 00208 11080 21110 30146 40347 53030 60006 80000 90600 333 11058 21085 4/003 60004=
07190,1996-12-26 09:00:00,-8,1037.7,3,85,-10,15000,11.112,,,20,,,,,,,,,,,wg-a,,,,AAXX 26094 07190 12565 /0206 11080 21100 30176 40377 52030 60006 81100 90900=
07190,1996-12-26 12:00:00,-5,1039.1,1.5,73,-9,15000,14.816,,,20,,,,,,,,,,,wg-a,,,,AAXX 26124 07190 12565 /0208 11050 21090 30191 40391 53015 60006 81100 91200=
07190,1996-12-26 15:00:00,-6,1040.3,1.2,73,-10,20000,22.224,,,30,,,,,,,,,,,wg-a,,,,AAXX 26154 07190 12570 /0312 11060 21100 30203 40403 53012 60006 81100 91500=
07190,1996-12-26 18:00:00,-8,1041.8,1.3,79,-11,20000,7.408,,,10,-8.3,-4.9,,,,,,,,,wg-a,,3,,AAXX 26184 07190 12/70 00104 11080 21110 30216 40418 51013 60006 80000 91800 333 11049 21083 4/003=
07190,1996-12-26 21:00:00,-9,1041.4,-0.5,79,-12,15000,7.408,,,20,,,,,,,,,,,wg-a,,,,AAXX 26214 07190 12/65 00204 11090 21120 30211 40414 58005 60006 80000 92100=
07190,1996-12-27 00:00:00,-11,1040.1,-1.4,85,-13,15000,7.408,,,10,,,,,,,,,,,wg-a,,,,AAXX 27004 07190 12/65 00104 11110 21130 30197 40401 58014 60006 80000 90000=
07190,1996-12-27 03:00:00,-11,1037.9,-2.2,85,-13,15000,11.112,,,350,,,,,,,,,,,wg-a,,,,AAXX 27034 07190 12/65 83506 11110 21130 30175 40379 56022 60006 80007 90300=
07190,1996-12-27 06:00:00,-11,1035.8,-2.1,85,-13,15000,3.704,,,330,-12.6,-7.7,,,,,,,,,wg-a,,3,,AAXX 27064 07190 02/65 83302 11110 21130 30154 40358 58021 60006 80007 90600 333 11077 21126 4/003 60004=
07190,1996-12-27 09:00:00,-10,1034.1,-1.6,85,-12,15000,3.704,,,340,,,,,,,,,,,wg-a,,,,AAXX 27094 07190 12/65 83402 11100 21120 30138 40341 58016 60006 8702/ 90900=
07190,1996-12-27 12:00:00,-8,1030.1,-3.7,79,-11,15000,7.408,,,320,,,,,,,,,,,wg-a,,,,AAXX 27124 07190 12/65 63204 11080 21110 30101 40301 58037 60006 84031 91200=
07190,1996-12-27 15:00:00,-8,1027.4,-2.7,79,-11,15000,7.408,,,20,,,,,,,,,,,wg-a,,,,AAXX 27154 07190 12565 70204 11080 21110 30074 40274 56027 60006 8117/ 91500=
07190,1996-12-27 18:00:00,-8,1025.3,-2.1,79,-11,15000,7.408,,,350,-11.4,-7.6,,,,,,,,,wg-a,,3,,AAXX 27184 07190 12/65 73504 11080 21110 30053 40253 56021 60006 8707/ 91800 333 11076 21114 4/003=
07190,1996-12-27 21:00:00,-9,1023.2,-2,85,-11,15000,7.408,,,350,,,,,,,,,,,wg-a,,,,AAXX 27214 07190 12865 83504 11090 21110 30033 40232 58020 60006 8451/ 92100=
07190,1996-12-28 00:00:00,-11,1022.2,-1.2,85,-13,10000,7.408,,,350,,,,,,,,,,,wg-a,,,,AAXX 28004 07190 12/60 63504 11110 21130 30021 40222 56012 60006 82041 90000=
07190,1996-12-28 03:00:00,-13,1021.6,-0.7,85,-15,10000,7.408,,,330,,,,,,,,,,,wg-a,,,,AAXX 28034 07190 12/60 63304 11130 21150 30014 40216 57007 60006 80001 90300=
07190,1996-12-28 06:00:00,-11,1020.8,-0.7,78,-14,10000,14.816,,,20,-13.9,-8.2,,,,,,,,,wg-a,,3,,AAXX 28064 07190 02/60 50208 11110 21140 30007 40208 56007 60006 82041 90600 333 11082 21139 4/003 60004=
07190,1996-12-28 09:00:00,-11,1021.7,0.9,72,-15,10000,14.816,,,20,,,,,,,,,,,wg-a,,,,AAXX 28094 07190 12/60 70208 11110 21150 30016 40217 51009 60006 84031 90900=
07190,1996-12-28 12:00:00,-10,1021,-0.6,67,-15,10000,14.816,,,30,,,,,,,,,,,wg-a,,,,AAXX 28124 07190 12/60 10308 11100 21150 30010 40210 58006 60006 80001 91200=
07190,1996-12-28 15:00:00,-10,1021,-0,67,-15,10000,18.52,,,30,,,,,,,,,,,wg-a,,,,AAXX 28154 07190 12/60 00310 11100 21150 30010 40210 55000 60006 80000 91500=
07190,1996-12-28 18:00:00,-10,1022.1,1.1,72,-14,10000,14.816,,,30,-11.8,-9.5,,,,,,,,,wg-a,,2,,AAXX 28184 07190 12660 60308 11100 21140 30021 40221 52011 60006 84530 91800 333 11095 21118 4/002=
07190,1996-12-28 21:00:00,-11,1022,-0.2,72,-15,10000,11.112,,,10,,,,,,,,,,,wg-a,,,,AAXX 28214 07190 12660 /0106 11110 21150 30019 40220 55002 60006 81500 92100=
07190,1996-12-29 00:00:00,-13,1021.7,-0.4,78,-16,10000,7.408,,,330,,,,,,,,,,,wg-a,,,,AAXX 29004 07190 12/60 03304 11130 21160 30015 40217 58004 60006 80000 90000=
07190,1996-12-29 03:00:00,-14,1021.9,0.1,85,-16,10000,7.408,,,330,,,,,,,,,,,wg-a,,,,AAXX 29034 07190 12/60 03304 11140 21160 30016 40219 53001 60006 80000 90300=
07190,1996-12-29 06:00:00,-15,1021,-1,85,-17,10000,7.408,,,320,-14.9,-9.5,,,,,,,,,wg-a,,2,,AAXX 29064 07190 02/60 03204 11150 21170 30006 40210 56010 60006 80000 90600 333 11095 21149 4/002 60004=
07190,1996-12-29 09:00:00,-13,1021.2,0.4,78,-16,10000,7.408,,,350,,,,,,,,,,,wg-a,,,,AAXX 29094 07190 12/60 03504 11130 21160 30010 40212 51004 60006 80000 90900=
07190,1996-12-29 12:00:00,-10,1019.7,-1.3,72,-14,10000,7.408,,,340,,,,,,,,,,,wg-a,,,,AAXX 29124 07190 12/60 03404 11100 21140 39997 40197 56013 60006 80000 91200=
07190,1996-12-29 15:00:00,-10,1017.3,-2.3,72,-14,10000,3.704,,,320,,,,,,,,,,,wg-a,,,,AAXX 29154 07190 12/60 13202 11100 21140 39974 40173 56023 60006 80001 91500=
07190,1996-12-29 18:00:00,-14,1016.2,-1.5,78,-17,8000,7.408,,,180,-15.1,-9.2,,,,,,,,,wg-a,,2,,AAXX 29184 07190 12/58 01804 11140 21170 39959 40162 58015 60006 80000 91800 333 11092 21151 4/002=
07190,1996-12-29 21:00:00,-12,1013.9,-2,92,-13,6000,7.408,,,160,,,,,,,,,,,wg-a,,,,AAXX 29214 07190 12/56 61604 11120 21130 39939 40139 58020 60006 86050 92100=
07190,1996-12-30 00:00:00,-10,1010.8,-2.9,79,-13,3000,11.112,,,180,,,,,,,,,,10,wg-a,,,,AAXX 30004 07190 02730 81806 11100 21130 39910 40108 58029 61000 71071 875// 90000 333 6100=
07190,1996-12-30 03:00:00,-10,1007.4,-3.3,92,-11,3000,7.408,,,190,,,,,,,,,,10,wg-a,,,,AAXX 30034 07190 02230 81904 11100 21110 39877 40074 56033 61000 71072 875// 90300 333 ////=
07190,1996-12-30 06:00:00,-9,1005.8,-1.5,92,-10,2000,0,,,0,-14.4,-9,,0,,,,,,70,wg-a,,8,,AAXX 30064 07190 02220 80000 11090 21100 39862 40058 56015 60004 77072 876// 90600 333 11090 21144 4/008 60007=
07190,1996-12-30 09:00:00,-9,1005.9,0.1,92,-10,900,7.408,,,350,,,,1,,,,,,71,wg-a,,,,AAXX 30094 07190 12209 83504 11090 21100 39863 40059 53001 60017 77177 885// 90900=
07190,1996-12-30 12:00:00,-7,1005.3,-0.5,86,-9,2300,7.408,,,340,,,,,,,,,,10,wg-a,,,,AAXX 30124 07190 02223 73404 11070 21090 39858 40053 58005 60016 71077 875// 91200 333 61000=
07190,1996-12-30 15:00:00,-8,1006.1,0.7,85,-10,3000,7.408,,,340,,,,,,,,,,10,wg-a,,,,AAXX 30154 07190 02430 33404 11080 21100 39865 40061 53007 61000 71071 83500 91500 333 ////=
07190,1996-12-30 18:00:00,-11,1007.7,1.4,92,-12,2500,3.704,,,330,-11.1,-6.9,,,,,,,,10,wg-a,,9,,AAXX 30184 07190 02225 73302 11110 21120 39879 40077 53014 61000 71071 877// 91800 333 11069 21111 4/009 6100=
07190,1996-12-30 21:00:00,-9,1008.3,0.7,92,-10,3500,3.704,,,340,,,,0,,,,,,10,wg-a,,,,AAXX 30214 07190 12235 73402 11090 21100 39886 40083 53007 60007 71072 877// 92100=
07190,1996-12-31 00:00:00,-9,1009.5,1.2,92,-10,3000,3.704,,,350,,,,,,,,,,10,wg-a,,,,AAXX 31004 07190 02230 73502 11090 21100 39898 40095 51012 60006 71072 875// 90000 333 61000=
07190,1996-12-31 03:00:00,-9,1010.7,1.2,92,-10,3000,7.408,,,10,,,,,,,,,,10,wg-a,,,,AAXX 31034 07190 02330 70104 11090 21100 39910 40107 51012 61000 71072 877// 90300 333 ////=
07190,1996-12-31 06:00:00,-9,1012.1,1.3,85,-11,4000,7.408,,,350,-10.5,-8.8,,,,,1,,,10,wg-a,,9,,AAXX 31064 07190 02340 83504 11090 21110 39923 40121 53013 60006 71072 877// 90600 333 11088 21105 4/009 60014=
07190,1996-12-31 09:00:00,-9,1013.9,1.8,85,-11,3500,7.408,,,10,,,,,,,,,,10,wg-a,,,,AAXX 31094 07190 02335 80104 11090 21110 39941 40139 51018 61000 71072 886// 90900 333 ////=
07190,1996-12-31 12:00:00,-8,1015.2,1.4,85,-10,3900,7.408,,,20,,,,,,,,,,10,wg-a,,,,AAXX 31124 07190 02239 80204 11080 21100 39955 40152 51014 61000 71072 885// 91200 333 6100=
07190,1996-12-31 15:00:00,-9,1016.6,1.3,85,-11,3800,7.408,,,340,,,,,,,,,,10,wg-a,,,,AAXX 31154 07190 12438 /3404 11090 21110 39968 40166 53013 60006 71022 86600 91500=
07190,1996-12-31 18:00:00,-11,1017.9,1.1,85,-13,6000,11.112,,,320,-12,-7.7,,,,,,,,1,wg-a,,9,,AAXX 31184 07190 02256 /3206 11110 21130 39979 40179 52011 60006 70172 86500 91800 333 11077 21120 4/009 61000=
07190,1996-12-31 21:00:00,-14,1018,-0.1,85,-16,500,11.112,,,320,,,,,,,,,,,wg-a,,,,AAXX 31214 07190 12300 23206 11140 21160 39978 40180 55001 60006 82500 92100=
