station_id,dh_utc,temperature,pression,pression_variation_3h,humidite,point_de_rosee,visibilite,vent_moyen,vent_rafales,vent_rafales_10min,vent_direction,temperature_min,temperature_max,pluie_1h,pluie_3h,pluie_6h,pluie_12h,pluie_24h,ensoleillement,temperature_sol,temps_omm,source,radiations,neige_au_sol,nebulosite,raw_msg
07190,1997-01-01 00:00:00,-13,1016.5,-1.4,85,-15,3000,14.816,,,350,,,,,,,,,,10,wg-a,,,,AAXX 01004 07190 12430 23508 11130 21150 39964 40165 57014 60006 71011 82500 90000=
07190,1997-01-01 03:00:00,-12,1016.1,-0.4,78,-15,3000,18.52,,,360,,,,,,,,,,10,wg-a,,,,AAXX 01034 07190 12230 23610 11120 21150 39960 40161 58004 60006 71000 82500 90300=
07190,1997-01-01 06:00:00,-13,1016.3,0.2,85,-15,4000,14.816,,,360,-14.2,-11.5,,,,,,,,10,wg-a,,9,,AAXX 01064 07190 02240 43608 11130 21150 39962 40163 53002 60006 71000 82530 90600 333 11115 21142 4/009 61000=
07190,1997-01-01 09:00:00,-12,1018.4,2.1,85,-14,3000,11.112,,,360,,,,,,,,,,10,wg-a,,,,AAXX 01094 07190 12230 83606 11120 21140 39983 40184 51021 60006 71011 8762/ 90900=
07190,1997-01-01 12:00:00,-10,1019.5,1.2,79,-13,3500,7.408,,,350,,,,,,,,,,10,wg-a,,,,AAXX 01124 07190 12535 83504 11100 21130 39995 40195 51012 60006 71011 8252/ 91200=
07190,1997-01-01 15:00:00,-10,1020.6,1.1,79,-13,3500,3.704,,,350,,,,,,,,,,10,wg-a,,,,AAXX 01154 07190 12/35 /3502 11100 21130 30006 40206 53011 60006 71022 83031 91500=
07190,1997-01-01 18:00:00,-13,1021.8,1,85,-15,3500,7.408,,,330,-12.9,-9.8,,,,,,,,10,wg-a,,9,,AAXX 01184 07190 12435 73304 11130 21150 30016 40218 53010 60006 71022 83531 91800 333 11098 21129 4/009=
07190,1997-01-01 21:00:00,-13,1023.2,1.3,85,-15,6000,3.704,,,330,,,,,,,,,,,wg-a,,,,AAXX 01214 07190 12756 /3302 11130 21150 30029 40232 53013 60006 85500 92100=
07190,1997-01-02 00:00:00,-15,1023.6,0.2,85,-17,3500,0,,,0,,,,,,,,,,10,wg-a,,,,AAXX 02004 07190 12735 20000 11150 21170 30031 40236 53002 60006 71011 82500 90000=
07190,1997-01-02 03:00:00,-16,1023.3,-0.3,84,-18,4000,3.704,,,320,,,,,,,,,,10,wg-a,,,,AAXX 02034 07190 12340 /3202 11160 21180 30028 40233 58003 60006 71011 85600 90300=
07190,1997-01-02 06:00:00,-14,1022.6,-0.6,85,-16,500,7.408,,,320,-16.8,-12.1,,,,,,,,,wg-a,,9,,AAXX 02064 07190 02100 /3204 11140 21160 30022 40226 56006 60006 86600 90600 333 11121 21168 4/009 60004=
07190,1997-01-02 09:00:00,-15,1022.1,-0.5,92,-16,2500,7.408,,,340,,,,,,,,,,10,wg-a,,,,AAXX 02094 07190 12225 /3404 11150 21160 30017 40221 57005 60006 71011 85601 90900=
07190,1997-01-02 12:00:00,-12,1019.5,-2.3,85,-14,2500,11.112,,,350,,,,,,,,,,10,wg-a,,,,AAXX 02124 07190 12/25 33506 11120 21140 39994 40195 58023 60006 71011 80001 91200=
07190,1997-01-02 15:00:00,-10,1017.6,-1.8,85,-12,2500,7.408,,,290,,,,,,,,,,10,wg-a,,,,AAXX 02154 07190 12/25 72904 11100 21120 39976 40176 56018 60006 71011 80002 91500=
07190,1997-01-02 18:00:00,-8,1015.7,-1.7,85,-10,4000,14.816,,,350,-14.9,-8.1,,,,,,,,10,wg-a,,8,,AAXX 02184 07190 12/40 83508 11080 21100 39959 40157 56017 60006 71011 8807/ 91800 333 11081 21149 4/008=
07190,1997-01-02 21:00:00,-8,1013.4,-2.2,85,-10,3000,18.52,,,10,,,,,,,,,,10,wg-a,,,,AAXX 02214 07190 12430 80110 11080 21100 39937 40134 57022 60006 71022 875// 92100=
07190,1997-01-03 00:00:00,-8,1011.9,-1.4,85,-10,3000,11.112,,,350,,,,,,,,,,10,wg-a,,,,AAXX 03004 07190 12430 83506 11080 21100 39923 40119 55014 60006 71022 875// 90000=
07190,1997-01-03 03:00:00,-7,1011.5,-0.4,86,-9,3000,11.112,,,340,,,,,,,,,,22,wg-a,,,,AAXX 03034 07190 02430 83406 11070 21090 39919 40115 56004 61000 72272 875// 90300 333 ////=
07190,1997-01-03 06:00:00,-8,1011.1,-0.4,92,-9,3500,3.704,,,10,-8.1,-7.3,,,,,,,,10,wg-a,,8,,AAXX 03064 07190 02335 /0102 11080 21090 39915 40111 57004 60006 71072 85600 90600 333 11073 21081 4/008 61000=
07190,1997-01-03 09:00:00,-7,1011.3,0.2,93,-8,1500,3.704,,,30,,,,,,,,,,10,wg-a,,,,AAXX 03094 07190 12315 70302 11070 21080 39917 40113 53002 60006 71022 875// 90900=
07190,1997-01-03 12:00:00,-5,1009.4,-1.7,86,-7,1800,7.408,,,340,,,,0,,,,,,10,wg-a,,,,AAXX 03124 07190 02418 73404 11050 21070 39900 40094 58017 60006 71022 875// 91200 333 60007=
07190,1997-01-03 15:00:00,-5,1008.4,-1,86,-7,1800,11.112,,,290,,,,,,,,,,10,wg-a,,,,AAXX 03154 07190 12418 82906 11050 21070 39890 40084 58010 60006 71022 885// 91500=
07190,1997-01-03 18:00:00,-5,1007,-1.4,86,-7,1600,11.112,,,350,-8.1,-4.6,,0,,,,,,10,wg-a,,6,,AAXX 03184 07190 02416 83506 11050 21070 39876 40070 56014 60006 71022 8357/ 91800 333 11046 21081 4/006 60007=
07190,1997-01-03 21:00:00,-5,1004.6,-2.3,86,-7,3000,14.816,,,350,,,,,,,,,,10,wg-a,,,,AAXX 03214 07190 12430 83508 11050 21070 39853 40046 58023 60006 71022 8667/ 92100=
07190,1997-01-04 00:00:00,-5,1002.5,-2,86,-7,3000,14.816,,,350,,,,,,,,,,10,wg-a,,,,AAXX 04004 07190 12430 83508 11050 21070 39833 40025 56020 60006 71022 876// 90000=
07190,1997-01-04 03:00:00,-5,1001.9,-0.6,86,-7,3000,11.112,,,10,,,,,,,,,,10,wg-a,,,,AAXX 04034 07190 12430 80106 11050 21070 39827 40019 56006 60006 71022 876// 90300=
07190,1997-01-04 06:00:00,-5,1002.1,0.1,93,-6,3000,7.408,,,30,-5.7,-4.5,,,,,,,,10,wg-a,,6,,AAXX 04064 07190 02330 80304 11050 21060 39828 40021 53001 60006 71022 876// 90600 333 11045 21057 4/006 60004=
07190,1997-01-04 09:00:00,-5,1002.9,0.9,93,-6,3200,7.408,,,20,,,,,,,,,,10,wg-a,,,,AAXX 04094 07190 02332 80204 11050 21060 39837 40029 51009 61000 71072 885// 90900 333 ////=
07190,1997-01-04 12:00:00,-4,1002.6,-0.3,86,-6,900,0,,,0,,,,1,,,,,,10,wg-a,,,,AAXX 04124 07190 02109 80000 11040 21060 39834 40026 58003 60016 71072 886// 91200 333 60017=
07190,1997-01-04 15:00:00,-4,1003.2,0.6,93,-5,1400,0,,,0,,,,2,,,,,,71,wg-a,,,,AAXX 04154 07190 12114 80000 11040 21050 39840 40032 53006 60027 77177 886// 91500=
07190,1997-01-04 18:00:00,-5,1003.3,-0,93,-6,2800,3.704,,,340,-5,-3.9,,,,,,,,10,wg-a,,17,,AAXX 04184 07190 02128 83402 11050 21060 39840 40033 54000 61000 71074 886// 91800 333 11039 21050 4/017 6000=
07190,1997-01-04 21:00:00,-4,1005.2,1.9,93,-5,3500,3.704,,,340,,,,,,,,,,10,wg-a,,,,AAXX 04214 07190 12335 83402 11040 21050 39859 40052 51019 60006 71022 886// 92100=
07190,1997-01-05 00:00:00,-4,1006.7,1.5,93,-5,4000,0,,,0,,,,,,,,,,10,wg-a,,,,AAXX 05004 07190 12440 80000 11040 21050 39874 40067 51015 60006 71022 885// 90000=
07190,1997-01-05 03:00:00,-4,1008.1,1.4,93,-5,4000,0,,,0,,,,,,,,,,10,wg-a,,,,AAXX 05034 07190 12440 80000 11040 21050 39888 40081 53014 60006 71022 885// 90300=
07190,1997-01-05 06:00:00,-4,1009.4,1.3,100,-4,3500,3.704,,,350,-4.9,-3.5,,,,,4,,,10,wg-a,,15,,AAXX 05064 07190 02235 83502 11040 21040 39901 40094 53013 60006 71022 886// 90600 333 11035 21049 4/015 60044=
07190,1997-01-05 09:00:00,-3,1011.5,2.1,93,-4,2500,7.408,,,350,,,,,,,,,,10,wg-a,,,,AAXX 05094 07190 12225 83504 11030 21040 39922 40115 53021 60006 71022 886// 90900=
07190,1997-01-05 12:00:00,-3,1012.4,0.9,93,-4,2800,7.408,,,20,,,,,,,,,,10,wg-a,,,,AAXX 05124 07190 12328 80204 11030 21040 39931 40124 51009 60006 71022 886// 91200=
07190,1997-01-05 15:00:00,-3,1013.3,0.9,93,-4,2500,3.704,,,350,,,,,,,,,,10,wg-a,,,,AAXX 05154 07190 12225 83502 11030 21040 39940 40133 53009 60006 71022 876// 91500=
07190,1997-01-05 18:00:00,-3,1015.3,1.9,86,-5,2500,7.408,,,10,-3.6,-2.6,,,,,,,,10,wg-a,,15,,AAXX 05184 07190 12325 80104 11030 21050 39959 40153 51019 60006 71022 876// 91800 333 11026 21036 4/015=
07190,1997-01-05 21:00:00,-4,1016.3,1,93,-5,500,7.408,,,20,,,,,,,,,,,wg-a,,,,AAXX 05214 07190 12300 80204 11040 21050 39969 40163 53010 60006 885// 92100=
07190,1997-01-06 00:00:00,-4,1017.1,0.7,93,-5,500,7.408,,,350,,,,,,,,,,,wg-a,,,,AAXX 06004 07190 12200 83504 11040 21050 39976 40171 51007 60006 886// 90000=
07190,1997-01-06 03:00:00,-4,1017.4,0.3,93,-5,500,7.408,,,340,,,,,,,,,,,wg-a,,,,AAXX 06034 07190 12200 83404 11040 21050 39979 40174 53003 60006 886// 90300=
07190,1997-01-06 06:00:00,-4,1017.7,0.3,86,-6,500,7.408,,,340,-4.2,-3.2,,,,,,,,,wg-a,,15,,AAXX 06064 07190 02300 83404 11040 21060 39982 40177 53003 60006 886// 90600 333 11032 21042 4/015 60004=
07190,1997-01-06 09:00:00,-4,1018.3,0.6,93,-5,4500,7.408,,,340,,,,,,,,,,10,wg-a,,,,AAXX 06094 07190 12345 83404 11040 21050 39988 40183 52006 60006 71022 886// 90900=
07190,1997-01-06 12:00:00,-3,1017.7,-0.5,86,-5,4500,11.112,,,350,,,,,,,,,,10,wg-a,,,,AAXX 06124 07190 12445 73506 11030 21050 39983 40177 58005 60006 71022 875// 91200=
07190,1997-01-06 15:00:00,-3,1017.7,-0,86,-5,4000,11.112,,,350,,,,,,,,,,10,wg-a,,,,AAXX 06154 07190 12440 83506 11030 21050 39983 40177 55000 60006 71022 886// 91500=
07190,1997-01-06 18:00:00,-3,1018.2,0.4,86,-5,4500,14.816,,,350,-4.2,-2.6,,,,,,,,10,wg-a,,15,,AAXX 06184 07190 12345 83508 11030 21050 39987 40182 53004 60006 71022 886// 91800 333 11026 21042 4/015=
07190,1997-01-06 21:00:00,-5,1019.1,0.8,93,-6,500,11.112,,,350,,,,,,,,,,,wg-a,,,,AAXX 06214 07190 12300 83506 11050 21060 39995 40191 51008 60006 886// 92100=
07190,1997-01-07 00:00:00,-5,1018.7,-0.4,86,-7,500,11.112,,,360,,,,,,,,,,,wg-a,,,,AAXX 07004 07190 12300 73606 11050 21070 39991 40187 56004 60006 876// 90000=
07190,1997-01-07 03:00:00,-5,1018.7,-0,93,-6,500,11.112,,,350,,,,,,,,,,,wg-a,,,,AAXX 07034 07190 12300 83506 11050 21060 39991 40187 55000 60006 885// 90300=
07190,1997-01-07 06:00:00,-4,1018.7,0.1,86,-6,4500,7.408,,,340,-5,-3.4,,,,,,,,10,wg-a,,13,,AAXX 07064 07190 02345 83404 11040 21060 39992 40187 53001 60006 71022 885// 90600 333 11034 21050 4/013 60004=
07190,1997-01-07 09:00:00,-4,1019.6,0.9,93,-5,4000,11.112,,,350,,,,,,,,,,10,wg-a,,,,AAXX 07094 07190 12340 83506 11040 21050 30001 40196 53009 60006 71022 876// 90900=
07190,1997-01-07 12:00:00,-4,1019.4,-0.2,86,-6,500,11.112,,,340,,,,,,,,,,,wg-a,,,,AAXX 07124 07190 12400 83406 11040 21060 39999 40194 58002 60006 876// 91200=
07190,1997-01-07 15:00:00,-4,1019.3,-0.1,86,-6,6000,7.408,,,360,,,,,,,,,,,wg-a,,,,AAXX 07154 07190 12456 83604 11040 21060 39998 40193 56001 60006 885// 91500=
07190,1997-01-07 18:00:00,-5,1019.5,0.1,93,-6,4500,7.408,,,350,-4.5,-3.7,,,,,,,,10,wg-a,,13,,AAXX 07184 07190 12445 83504 11050 21060 39999 40195 51001 60006 71022 876// 91800 333 11037 21045 4/013=
07190,1997-01-07 21:00:00,-5,1018.8,-0.7,86,-7,4500,7.408,,,10,,,,,,,,,,10,wg-a,,,,AAXX 07214 07190 12445 80104 11050 21070 39992 40188 58007 60006 71022 885// 92100=
07190,1997-01-08 00:00:00,-5,1017.6,-1.2,86,-7,4000,7.408,,,350,,,,,,,,,,10,wg-a,,,,AAXX 08004 07190 12440 83504 11050 21070 39980 40176 58012 60006 71022 875// 90000=
07190,1997-01-08 03:00:00,-5,1016.2,-1.3,86,-7,4000,7.408,,,10,,,,,,,,,,10,wg-a,,,,AAXX 08034 07190 12340 80104 11050 21070 39967 40162 58013 60006 71022 876// 90300=
07190,1997-01-08 06:00:00,-5,1014.7,-1.5,86,-7,4000,3.704,,,360,-5.1,-4.5,,,,,,,,10,wg-a,,13,,AAXX 08064 07190 02340 83602 11050 21070 39952 40147 58015 60006 71022 876// 90600 333 11045 21051 4/013 60004=
07190,1997-01-08 09:00:00,-5,1013.9,-0.8,93,-6,3500,3.704,,,10,,,,,,,,,,10,wg-a,,,,AAXX 08094 07190 12235 80102 11050 21060 39944 40139 58008 60006 71022 876// 90900=
07190,1997-01-08 12:00:00,-4,1012.4,-1.4,86,-6,4000,11.112,,,20,,,,,,,,,,10,wg-a,,,,AAXX 08124 07190 12340 80206 11040 21060 39930 40124 58014 60006 71022 886// 91200=
07190,1997-01-08 15:00:00,-4,1011.4,-1,86,-6,4000,3.704,,,360,,,,,,,,,,10,wg-a,,,,AAXX 08154 07190 12340 83602 11040 21060 39920 40114 55010 60006 71022 886// 91500=
07190,1997-01-08 17:00:00,-4,1010.3,-1.1,86,-6,3800,7.408,,,350,-5.1,-3.8,,,,,,,,10,wg-a,,,,AAXX 08174 07190 12338 83504 11040 21060 39909 40103 56011 60006 71022 886// 91700 333 11038 21051=
07190,1997-01-08 18:00:00,-4,1010.3,-1.1,86,-6,3800,7.408,,,350,-5.1,-3.8,,,,,,,,10,wg-a,,,,AAXX 08184 07190 12338 83504 11040 21060 39909 40103 56011 60006 71022 886// 91800 333 11038 21051=
07190,1997-01-08 21:00:00,-5,1009.2,-1.1,86,-7,3500,11.112,,,20,,,,,,,,,,10,wg-a,,,,AAXX 08214 07190 12335 80206 11050 21070 39898 40092 58011 60006 71022 886// 92100=
07190,1997-01-09 00:00:00,-5,1008.4,-0.8,86,-7,2500,3.704,,,20,,,,,,,,,,10,wg-a,,,,AAXX 09004 07190 12325 80202 11050 21070 39890 40084 56008 60006 71022 886// 90000=
07190,1997-01-09 03:00:00,-5,1007.2,-1.2,86,-7,2500,7.408,,,350,,,,,,,,,,,wg-a,,,,AAXX 09034 07190 12325 83504 11050 21070 39878 40072 58012 60006 886// 90300=
07190,1997-01-09 06:00:00,-5,1006.8,-0.4,86,-7,3000,7.408,,,360,-5.2,-4.3,,,,,,,,10,wg-a,,12,,AAXX 09064 07190 02330 83604 11050 21070 39874 40068 56004 60006 71022 886// 90600 333 11043 21052 4/012 60004=
07190,1997-01-09 09:00:00,-5,1007.7,0.9,93,-6,3500,3.704,,,340,,,,,,,,,,10,wg-a,,,,AAXX 09094 07190 12335 73402 11050 21060 39883 40077 53009 60006 71022 82602 90900=
07190,1997-01-09 12:00:00,-3,1007.4,-0.1,80,-6,3000,7.408,,,330,,,,,,,,,,10,wg-a,,,,AAXX 09124 07190 12430 73304 11030 21060 39882 40074 58001 60006 71022 83608 91200=
07190,1997-01-09 15:00:00,-4,1008.1,0.6,80,-7,4000,7.408,,,320,,,,,,,,,,10,wg-a,,,,AAXX 09154 07190 12440 /3204 11040 21070 39888 40081 53006 60006 71022 82631 91500=
07190,1997-01-09 18:00:00,-6,1009.4,1.2,93,-7,3500,3.704,,,300,-5.7,-3.1,,,,,,,,10,wg-a,,12,,AAXX 09184 07190 12435 /3002 11060 21070 39900 40094 52012 60006 71022 8267/ 91800 333 11031 21057 4/012=
07190,1997-01-09 21:00:00,-5,1010.7,1.3,86,-7,500,7.408,,,330,,,,,,,,,,,wg-a,,,,AAXX 09214 07190 12500 83304 11050 21070 39913 40107 51013 60006 8257/ 92100=
07190,1997-01-10 00:00:00,-5,1011.7,1,93,-6,500,7.408,,,330,,,,,,,,,,,wg-a,,,,AAXX 10004 07190 12200 83304 11050 21060 39923 40117 51010 60006 885// 90000=
07190,1997-01-10 03:00:00,-4,1013.2,1.5,86,-6,6000,7.408,,,320,,,,,,,,,,,wg-a,,,,AAXX 10034 07190 12456 83204 11040 21060 39938 40132 53015 60006 886// 90300=
07190,1997-01-10 06:00:00,-4,1014.3,1.1,93,-5,6000,7.408,,,350,-5.7,-3.8,,,,,,,,,wg-a,,12,,AAXX 10064 07190 02356 83504 11040 21050 39949 40143 53011 60006 886// 90600 333 11038 21057 4/012 60004=
07190,1997-01-10 09:00:00,-3,1017.1,2.8,86,-5,3500,7.408,,,350,,,,,,,,,,10,wg-a,,,,AAXX 10094 07190 12435 83504 11030 21050 39977 40171 53028 60006 71022 886// 90900=
07190,1997-01-10 12:00:00,-2,1018.4,1.3,86,-4,4000,7.408,,,360,,,,,,,,,,10,wg-a,,,,AAXX 10124 07190 12440 83604 11020 21040 39990 40184 51013 60006 71022 886// 91200=
07190,1997-01-10 15:00:00,-2,1020.4,2,86,-4,500,7.408,,,320,,,,,,,,,,,wg-a,,,,AAXX 10154 07190 12400 83204 11020 21040 30010 40204 53020 60006 886// 91500=
07190,1997-01-10 18:00:00,-2,1022.6,2.1,80,-5,500,3.704,,,90,-3.8,-1.7,,,,,,,,,wg-a,,12,,AAXX 10184 07190 12400 80902 11020 21050 30031 40226 51021 60006 886// 91800 333 11017 21038 4/012=
07190,1997-01-10 21:00:00,-3,1024,1.4,86,-5,500,3.704,,,190,,,,,,,,,,,wg-a,,,,AAXX 10214 07190 12400 81902 11030 21050 30045 40240 51014 60006 886// 92100=
07190,1997-01-11 00:00:00,-3,1025.2,1.2,80,-6,6000,0,,,0,,,,,,,,,,,wg-a,,,,AAXX 11004 07190 12456 80000 11030 21060 30057 40252 53012 60006 886// 90000=
07190,1997-01-11 03:00:00,-3,1026,0.7,80,-6,6000,0,,,0,,,,,,,,,,,wg-a,,,,AAXX 11034 07190 12456 80000 11030 21060 30064 40260 51007 60006 886// 90300=
07190,1997-01-11 06:00:00,-3,1026.5,0.5,86,-5,6000,0,,,0,-3.3,-2.3,,,,,,,,,wg-a,,12,,AAXX 11064 07190 02456 80000 11030 21050 30069 40265 53005 60006 885// 90600 333 11023 21033 4/012 60004=
07190,1997-01-11 09:00:00,-3,1028.3,1.8,86,-5,7000,3.704,,,210,,,,,,,,,,,wg-a,,,,AAXX 11094 07190 12457 82102 11030 21050 30087 40283 52018 60006 885// 90900=
07190,1997-01-11 12:00:00,-2,1028.9,0.6,80,-5,8000,0,,,0,,,,,,,,,,,wg-a,,,,AAXX 11124 07190 12458 80000 11020 21050 30093 40289 50006 60006 885// 91200=
07190,1997-01-11 15:00:00,-2,1029.7,0.8,80,-5,7000,0,,,0,,,,,,,,,,,wg-a,,,,AAXX 11154 07190 12457 80000 11020 21050 30101 40297 53008 60006 885// 91500=
07190,1997-01-11 18:00:00,-3,1030.9,1.1,86,-5,4000,7.408,,,130,-2.9,-2,,,,,,,,10,wg-a,,11,,AAXX 11184 07190 12440 81304 11030 21050 30112 40309 51011 60006 71022 885// 91800 333 11020 21029 4/011=
07190,1997-01-11 21:00:00,-3,1031.5,0.6,86,-5,4000,3.704,,,190,,,,,,,,,,10,wg-a,,,,AAXX 11214 07190 12440 81902 11030 21050 30118 40315 52006 60006 71022 885// 92100=
07190,1997-01-12 00:00:00,-3,1031.8,0.3,86,-5,4000,3.704,,,170,,,,,,,,,,10,wg-a,,,,AAXX 12004 07190 12340 81702 11030 21050 30121 40318 50003 60006 71022 886// 90000=
07190,1997-01-12 03:00:00,-4,1032.3,0.4,86,-6,4000,3.704,,,140,,,,,,,,,,10,wg-a,,,,AAXX 12034 07190 12340 81402 11040 21060 30125 40323 53004 60006 71022 886// 90300=
07190,1997-01-12 06:00:00,-4,1032.5,0.2,86,-6,4000,3.704,,,150,-4.3,-2.9,,,,,,,,10,wg-a,,11,,AAXX 12064 07190 02240 81502 11040 21060 30127 40325 53002 60006 71022 886// 90600 333 11029 21043 4/011 60004=
07190,1997-01-12 09:00:00,-4,1033.2,0.7,86,-6,4000,3.704,,,150,,,,,,,,,,10,wg-a,,,,AAXX 12094 07190 12240 81502 11040 21060 30134 40332 51007 60006 71022 886// 90900=
07190,1997-01-12 12:00:00,-4,1032.8,-0.4,93,-5,3000,3.704,,,340,,,,,,,,,,10,wg-a,,,,AAXX 12124 07190 12230 83402 11040 21050 30130 40328 58004 60006 71022 886// 91200=
07190,1997-01-12 15:00:00,-4,1032.1,-0.7,86,-6,3000,3.704,,,60,,,,,,,,,,10,wg-a,,,,AAXX 12154 07190 12230 80602 11040 21060 30123 40321 55007 60006 71022 886// 91500=
07190,1997-01-12 18:00:00,-5,1032.2,0.1,93,-6,2500,7.408,,,350,-4.8,-3.3,,,,,,,,10,wg-a,,10,,AAXX 12184 07190 12225 83504 11050 21060 30124 40322 53001 60006 71022 886// 91800 333 11033 21048 4/010=
07190,1997-01-12 21:00:00,-5,1032.1,-0.2,86,-7,2000,11.112,,,220,,,,,,,,,,10,wg-a,,,,AAXX 12214 07190 12220 82206 11050 21070 30122 40321 57002 60006 71022 886// 92100=
07190,1997-01-13 00:00:00,-6,1032,-0.1,93,-7,1200,0,,,0,,,,,,,,,,10,wg-a,,,,AAXX 13004 07190 12112 80000 11060 21070 30121 40320 56001 60006 71022 886// 90000=
07190,1997-01-13 03:00:00,-6,1031.3,-0.7,93,-7,1000,0,,,0,,,,,,,,,,10,wg-a,,,,AAXX 13034 07190 12110 80000 11060 21070 30114 40313 56007 60006 71022 886// 90300=
07190,1997-01-13 06:00:00,-6,1030.8,-0.5,93,-7,800,3.704,,,200,-6.4,-4.7,,,,,,,,49,wg-a,,10,,AAXX 13064 07190 02/08 92002 11060 21070 30109 40308 56005 60006 74942 89/// 90600 333 11047 21064 4/010 60004=
07190,1997-01-13 09:00:00,-6,1031.7,0.9,93,-7,800,3.704,,,30,,,,,,,,,,10,wg-a,,,,AAXX 13094 07190 12108 80302 11060 21070 30118 40317 51009 60006 71042 886// 90900=
07190,1997-01-13 12:00:00,-5,1031.1,-0.5,93,-6,2200,0,,,0,,,,,,,,,,10,wg-a,,,,AAXX 13124 07190 12222 80000 11050 21060 30113 40311 58005 60006 71042 886// 91200=
07190,1997-01-13 15:00:00,-5,1030.1,-1,86,-7,2000,3.704,,,130,,,,,,,,,,10,wg-a,,,,AAXX 13154 07190 12220 81302 11050 21070 30103 40301 56010 60006 71022 886// 91500=
07190,1997-01-13 18:00:00,-6,1030.5,0.3,93,-7,1500,3.704,,,330,-6.3,-4.9,,,,,,,,10,wg-a,,10,,AAXX 13184 07190 12115 83302 11060 21070 30106 40305 53003 60006 71022 886// 91800 333 11049 21063 4/010=
07190,1997-01-13 21:00:00,-6,1030.4,-0.1,93,-7,700,7.408,,,230,,,,,,,,,,10,wg-a,,,,AAXX 13214 07190 32/07 92304 11060 21070 30105 40304 58001 71074 89/// 92100=
07190,1997-01-14 00:00:00,-7,1030,-0.5,93,-8,700,3.704,,,230,,,,,,,,,,49,wg-a,,,,AAXX 14004 07190 02/07 92302 11070 21080 30100 40300 57005 61000 74974 89/// 90000 333 ////=
07190,1997-01-14 03:00:00,-7,1030.1,0.1,93,-8,900,3.704,,,210,,,,,,,,,,49,wg-a,,,,AAXX 14034 07190 12/09 92102 11070 21080 30101 40301 53001 60006 74942 89/// 90300=
07190,1997-01-14 06:00:00,-7,1029.4,-0.7,93,-8,900,0,,,0,-7.5,-5.8,,,,,,,,49,wg-a,,10,,AAXX 14064 07190 02/09 90000 11070 21080 30094 40294 56007 60006 74942 89/// 90600 333 11058 21075 4/010 61000=
07190,1997-01-14 09:00:00,-7,1029.9,0.5,93,-8,800,3.704,,,180,,,,,,,,,,48,wg-a,,,,AAXX 14094 07190 12108 91802 11070 21080 30099 40299 51005 60006 74842 896// 90900=
07190,1997-01-14 12:00:00,-6,1028.9,-0.9,93,-7,1400,3.704,,,160,,,,,,,,,,10,wg-a,,,,AAXX 14124 07190 12114 81602 11060 21070 30090 40289 58009 60006 71042 886// 91200=
07190,1997-01-14 15:00:00,-6,1028.6,-0.3,93,-7,1500,3.704,,,180,,,,,,,,,,10,wg-a,,,,AAXX 14154 07190 12115 81802 11060 21070 30087 40286 55003 60006 71022 886// 91500=
07190,1997-01-14 18:00:00,-7,1029,0.4,100,-7,1500,3.704,,,200,-7.5,-6.1,,,,,,,,10,wg-a,,10,,AAXX 14184 07190 12115 82002 11070 21070 30091 40290 53004 60006 71022 886// 91800 333 11061 21075 4/010=
07190,1997-01-14 21:00:00,-7,1029.1,-0,93,-8,700,3.704,,,190,,,,,,,,,,49,wg-a,,,,AAXX 14214 07190 32/07 91902 11070 21080 30091 40291 55000 749// 89/// 92100=
07190,1997-01-15 00:00:00,-8,1029,-0.1,92,-9,500,3.704,,,150,,,,,,,,,,49,wg-a,,,,AAXX 15004 07190 12/05 91502 11080 21090 30090 40290 56001 60006 74942 89/// 90000=
07190,1997-01-15 06:00:00,-9,1029.3,0.2,92,-10,800,0,,,0,-9.1,-6.5,,,,,,,,49,wg-a,,10,,AAXX 15064 07190 02/08 90000 11090 21100 30092 40293 53002 60006 74944 89/// 90600 333 11065 21091 4/010 60004=
07190,1997-01-15 09:00:00,-9,1030.1,0.8,85,-11,600,0,,,0,,,,,,,,,,48,wg-a,,,,AAXX 15094 07190 12106 /0000 11090 21110 30100 40301 51008 60006 74844 83600 90900=
07190,1997-01-15 12:00:00,-7,1029.2,-0.7,93,-8,2000,3.704,,,360,,,,,,,,,,10,wg-a,,,,AAXX 15124 07190 12/20 03602 11070 21080 30093 40292 58007 60006 71041 80000 91200=
07190,1997-01-15 15:00:00,-5,1028.1,-0.9,86,-7,2000,3.704,,,350,,,,,,,,,,10,wg-a,,,,AAXX 15154 07190 12/20 03502 11050 21070 30084 40281 56009 60006 71000 80000 91500=
07190,1997-01-15 18:00:00,-8,1028.8,0.4,85,-10,2000,3.704,,,340,-10.1,-4.4,,,,,,,,10,wg-a,,9,,AAXX 15184 07190 12/20 03402 11080 21100 30088 40288 51004 60006 71000 80000 91800 333 11044 21101 4/009=
07190,1997-01-15 21:00:00,-10,1029.1,0.1,85,-12,1800,0,,,0,,,,,,,,,,10,wg-a,,,,AAXX 15214 07190 12/18 00000 11100 21120 30089 40291 51001 60006 71000 80000 92100=
07190,1997-01-16 00:00:00,-12,1029.1,-0.1,85,-14,1700,0,,,0,,,,,,,,,,10,wg-a,,,,AAXX 16004 07190 12/17 00000 11120 21140 30088 40291 58001 60006 71000 80000 90000=
07190,1997-01-16 03:00:00,-11,1028.4,-0.7,85,-13,600,0,,,0,,,,,,,,,,49,wg-a,,,,AAXX 16034 07190 12/06 90000 11110 21130 30081 40284 58007 60006 74941 89/// 90300=
07190,1997-01-16 06:00:00,-9,1027.8,-0.4,92,-10,200,3.704,,,10,-12.4,-8.4,,,,,,,,49,wg-a,,9,,AAXX 16064 07190 02/02 90102 11090 21100 30077 40278 56004 60006 74941 89/// 90600 333 11084 21124 4/009 60004=
07190,1997-01-16 09:00:00,-9,1027.7,0,92,-10,100,0,,,0,,,,,,,,,,49,wg-a,,,,AAXX 16094 07190 12/01 90000 11090 21100 30077 40277 50000 60006 74944 89/// 90900=
07190,1997-01-16 12:00:00,-7,1026.5,-1.1,93,-8,300,3.704,,,350,,,,,,,,,,49,wg-a,,,,AAXX 16124 07190 12/03 93502 11070 21080 30066 40265 58011 60006 74944 89/// 91200=
07190,1997-01-16 15:00:00,-6,1025.5,-0.9,93,-7,1000,3.704,,,170,,,,,,,,,,28,wg-a,,,,AAXX 16154 07190 12/10 01702 11060 21070 30057 40255 55009 60006 72841 80000 91500=
07190,1997-01-16 18:00:00,-9,1025.3,-0.4,92,-10,1200,0,,,0,-9.2,-5.6,,,,,,,,10,wg-a,,9,,AAXX 16184 07190 12/12 00000 11090 21100 30053 40253 57004 60006 71041 80000 91800 333 11056 21092 4/009=
07190,1997-01-16 21:00:00,-12,1025.1,-0.4,92,-13,400,0,,,0,,,,,,,,,,48,wg-a,,,,AAXX 16214 07190 12/04 90000 11120 21130 30049 40251 58004 60006 74841 89/// 92100=
07190,1997-01-17 00:00:00,-12,1024.6,-0.5,92,-13,500,3.704,,,80,,,,,,,,,,49,wg-a,,,,AAXX 17004 07190 12/00 90802 11120 21130 30044 40246 55005 60006 74941 89/// 90000=
07190,1997-01-17 03:00:00,-11,1023.5,-1,85,-13,500,0,,,0,,,,,,,,,,49,wg-a,,,,AAXX 17034 07190 12/00 90000 11110 21130 30034 40235 58010 60006 74944 89/// 90300=
07190,1997-01-17 06:00:00,-10,1022.6,-0.8,92,-11,500,0,,,0,-12.3,-9.1,,,,,,,,49,wg-a,,9,,AAXX 17064 07190 02/00 90000 11100 21110 30026 40226 56008 60006 74944 89/// 90600 333 11091 21123 4/009 60004=
07190,1997-01-17 09:00:00,-9,1023,0.4,92,-10,100,0,,,0,,,,,,,,,,49,wg-a,,,,AAXX 17094 07190 12/01 90000 11090 21100 30030 40230 53004 60006 74944 89/// 90900=
07190,1997-01-17 12:00:00,-6,1021.7,-1,93,-7,100,0,,,0,,,,,,,,,,49,wg-a,,,,AAXX 17124 07190 12/01 90000 11060 21070 30020 40217 58010 60006 74944 89/// 91200=
07190,1997-01-17 15:00:00,-7,1021.7,-0.1,93,-8,300,3.704,,,190,,,,,,,,,,48,wg-a,,,,AAXX 17154 07190 12003 91902 11070 21080 30019 40217 55001 60006 74844 89600 91500=
07190,1997-01-17 18:00:00,-10,1022.3,0.3,85,-12,600,3.704,,,340,-10.3,-6,,,,,,,,10,wg-a,,9,,AAXX 17184 07190 12006 43402 11100 21120 30022 40223 50003 60006 71041 84601 91800 333 11060 21103 4/009=
07190,1997-01-17 21:00:00,-11,1022.4,0.1,85,-13,1500,0,,,0,,,,,,,,,,10,wg-a,,,,AAXX 17214 07190 12/15 20000 11110 21130 30023 40224 52001 60006 71040 80001 92100=
07190,1997-01-18 00:00:00,-8,1022.4,0.2,92,-9,1500,3.704,,,80,,,,,,,,,,10,wg-a,,,,AAXX 18004 07190 12615 /0802 11080 21090 30025 40224 53002 60006 71041 82532 90000=
07190,1997-01-18 03:00:00,-4,1021.4,-0.7,93,-5,1500,0,,,0,,,,,,,,,,10,wg-a,,,,AAXX 18034 07190 12615 70000 11040 21050 30018 40214 57007 60006 71022 8553/ 90300=
07190,1997-01-18 06:00:00,-2,1021.1,-0.1,100,-2,2000,0,,,0,-11.5,-1.7,,,,,,,,10,wg-a,,9,,AAXX 18064 07190 02520 80000 11020 21020 30017 40211 55001 61000 71062 8557/ 90600 333 11017 21115 4/009 6100=
07190,1997-01-18 09:00:00,0,1021.8,0.8,93,-1,2000,0,,,0,,,,,,,,,,10,wg-a,,,,AAXX 18094 07190 02520 80000 10000 21010 30025 40218 51008 61000 71062 875// 90900 333 ////=
07190,1997-01-18 12:00:00,1,1021.1,-0.6,93,0,2500,0,,,0,,,,1,,,,,,10,wg-a,,,,AAXX 18124 07190 02525 80000 10010 20000 30019 40211 58006 60016 71062 875// 91200 333 60017=
07190,1997-01-18 15:00:00,1,1020,-1.1,100,1,1000,3.704,,,350,,,,0,,,,,,10,wg-a,,,,AAXX 18154 07190 12510 83502 10010 20010 30008 40200 56011 60007 71062 875// 91500=
07190,1997-01-18 18:00:00,1,1019.3,-0.7,93,0,900,3.704,,,330,-1.7,1.5,,0,,,,,,42,wg-a,,8,,AAXX 18184 07190 02609 73302 10010 20000 30001 40193 56007 60006 74264 875// 91800 333 10015 21017 4/008 60007=
07190,1997-01-18 21:00:00,0,1018.9,-0.4,100,0,900,3.704,,,330,,,,,,,,,,44,wg-a,,,,AAXX 18214 07190 12309 73302 10000 20000 39997 40189 56004 60006 74444 876// 92100=
07190,1997-01-19 00:00:00,0,1018,-0.9,100,0,1200,0,,,0,,,,,,,,,,10,wg-a,,,,AAXX 19004 07190 12112 80000 10000 20000 39988 40180 58009 60006 71042 876// 90000=
07190,1997-01-19 03:00:00,0,1016.2,-1.7,100,0,100,3.704,,,20,,,,,,,,,,45,wg-a,,,,AAXX 19034 07190 12/01 90202 10000 20000 39971 40162 56017 60006 74542 89/// 90300=
07190,1997-01-19 06:00:00,0,1015.4,-0.8,100,0,100,0,,,0,0.1,0.6,,,,,,,,45,wg-a,,8,,AAXX 19064 07190 02/01 90000 10000 20000 39963 40154 56008 61000 74564 89/// 90600 333 10006 20001 4/008 6002=
07190,1997-01-19 09:00:00,0,1014.9,-0.5,100,0,200,3.704,,,90,,,,,,,,,,45,wg-a,,,,AAXX 19094 07190 32/02 90902 10000 20000 39958 40149 56005 74564 89/// 90900=
07190,1997-01-19 12:00:00,1,1014.3,-0.6,100,1,800,7.408,,,180,,,,1,,,,,,60,wg-a,,,,AAXX 19124 07190 02108 81804 10010 20010 39952 40143 58006 60026 76064 875// 91200 333 60017=
07190,1997-01-19 15:00:00,2,1013.3,-0.9,93,1,2000,11.112,,,160,,,,1,,,,,,10,wg-a,,,,AAXX 19154 07190 12520 81606 10020 20010 39943 40133 56009 60017 71064 8652/ 91500=
07190,1997-01-19 18:00:00,2,1014.2,0.9,93,1,1600,0,,,0,0.2,1.9,,,,,,,,10,wg-a,,8,,AAXX 19184 07190 02516 80000 10020 20010 39952 40142 53009 61000 71064 8352/ 91800 333 10019 20002 4/008 6003=
07190,1997-01-19 21:00:00,1,1015.7,1.4,100,1,1000,0,,,0,,,,1,,,,,,10,wg-a,,,,AAXX 19214 07190 12510 80000 10010 20010 39966 40157 52014 60017 71062 875// 92100=
07190,1997-01-20 00:00:00,1,1016.4,0.7,100,1,1000,3.704,,,20,,,,0,,,,,,10,wg-a,,,,AAXX 20004 07190 02110 80202 10010 20010 39973 40164 51007 60016 71062 875// 90000 333 60007=
07190,1997-01-20 03:00:00,1,1017,0.6,100,1,800,3.704,,,200,,,,,,,,,,44,wg-a,,,,AAXX 20034 07190 12408 82002 10010 20010 39979 40170 50006 60006 74442 875// 90300=
07190,1997-01-20 06:00:00,1,1017.5,0.5,100,1,900,0,,,0,0.9,1.6,,,,,7,,,42,wg-a,,6,,AAXX 20064 07190 02409 80000 10010 20010 39984 40175 53005 60006 74242 875// 90600 333 10016 20009 4/006 60074=
07190,1997-01-20 09:00:00,2,1019.1,1.6,100,2,400,3.704,,,20,,,,,,,,,,44,wg-a,,,,AAXX 20094 07190 12104 70202 10020 20020 30000 40191 51016 60006 74444 875// 90900=
07190,1997-01-20 12:00:00,4,1020.1,1.1,93,3,500,7.408,,,320,,,,,,,,,,1,wg-a,,,,AAXX 20124 07190 12500 73204 10040 20030 30011 40201 50011 60006 70142 875// 91200=
07190,1997-01-20 15:00:00,4,1021.9,1.8,93,3,6000,3.704,,,10,,,,,,,,,,,wg-a,,,,AAXX 20154 07190 12556 70102 10040 20030 30029 40219 53018 60006 875// 91500=
07190,1997-01-20 18:00:00,3,1023.7,1.7,93,2,4000,11.112,,,340,1.2,4.2,,,,,,,,10,wg-a,,2,,AAXX 20184 07190 12540 83406 10030 20020 30046 40237 53017 60006 71022 875// 91800 333 10042 20012 4/002=
07190,1997-01-20 21:00:00,3,1025,1.3,93,2,3000,11.112,,,10,,,,,,,,,,10,wg-a,,,,AAXX 20214 07190 12130 80106 10030 20020 30059 40250 52013 60006 71022 886// 92100=
07190,1997-01-21 00:00:00,3,1026,0.9,93,2,3500,18.52,,,30,,,,,,,,,,10,wg-a,,,,AAXX 21004 07190 12135 80310 10030 20020 30068 40260 51009 60006 71022 886// 90000=
07190,1997-01-21 06:00:00,2,1027.3,1.1,93,1,4000,11.112,,,30,2.2,3.2,,,,,,,,10,wg-a,,0,,AAXX 21064 07190 02240 80306 10020 20010 30081 40273 53011 60006 71022 886// 90600 333 10032 20022 4/9999 60004=
07190,1997-01-21 09:00:00,2,1028.6,1.2,93,1,6000,11.112,,,10,,,,,,,,,,,wg-a,,,,AAXX 21094 07190 12256 50106 10020 20010 30093 40286 51012 60006 81632 90900=
07190,1997-01-21 12:00:00,5,1027.6,-0.7,81,2,11000,18.52,,,20,,,,,,,,,,,wg-a,,,,AAXX 21124 07190 12461 20210 10050 20020 30086 40276 58007 60006 81101 91200=
07190,1997-01-21 15:00:00,5,1027,-0.6,81,2,8000,7.408,,,10,,,,,,,,,,,wg-a,,,,AAXX 21154 07190 12658 20104 10050 20020 30080 40270 56006 60006 81841 91500=
07190,1997-01-21 18:00:00,2,1026.9,-0.4,87,0,9000,7.408,,,330,1.1,5.1,,,,,,,,,wg-a,,0,,AAXX 21184 07190 12759 53304 10020 20000 30076 40269 56004 60006 82540 91800 333 10051 20011 4/9999=
07190,1997-01-21 21:00:00,0,1026.9,0,93,-1,9000,3.704,,,320,,,,,,,,,,,wg-a,,,,AAXX 21214 07190 12/59 23202 10000 21010 30076 40269 50000 60006 80002 92100=
07190,1997-01-22 00:00:00,-1,1025.9,-1.1,93,-2,7000,3.704,,,290,,,,,,,,,,11,wg-a,,,,AAXX 22004 07190 12/57 42902 11010 21020 30065 40259 57011 60006 71111 84030 90000=
07190,1997-01-22 03:00:00,-1,1025.4,-0.5,100,-1,2500,3.704,,,140,,,,,,,,,,10,wg-a,,,,AAXX 22034 07190 12025 61402 11010 21010 30060 40254 57005 60006 710// 84630 90300=
07190,1997-01-22 06:00:00,-1,1024.6,-0.8,100,-1,3500,3.704,,,160,-1.9,1.6,,,,,,,,10,wg-a,,0,,AAXX 22064 07190 02135 71602 11010 21010 30052 40246 56008 60006 71011 8563/ 90600 333 10016 21019 4/9999 60004=
07190,1997-01-22 09:00:00,0,1024.7,0.2,100,0,2300,0,,,0,,,,,,,,,,10,wg-a,,,,AAXX 22094 07190 12123 70000 10000 20000 30054 40247 53002 60006 71022 8467/ 90900=
07190,1997-01-22 12:00:00,1,1024.9,0.3,100,1,3000,3.704,,,50,,,,,,,,,,10,wg-a,,,,AAXX 22124 07190 02230 80502 10010 20010 30057 40249 50003 61000 71062 875// 91200 333 6100=
07190,1997-01-22 15:00:00,1,1024.4,-0.5,100,1,1600,3.704,,,290,,,,1,,,,,,10,wg-a,,,,AAXX 22154 07190 12116 82902 10010 20010 30052 40244 58005 60017 71066 8752/ 91500=
07190,1997-01-22 18:00:00,1,1024.6,0.2,100,1,1800,3.704,,,120,-0.9,1.4,,,,,,,,10,wg-a,,0,,AAXX 22184 07190 02118 81202 10010 20010 30054 40246 51002 61000 71066 8652/ 91800 333 10014 21009 4/9999 6002=
07190,1997-01-22 21:00:00,2,1024.2,-0.4,100,2,3000,7.408,,,120,,,,0,,,,,,10,wg-a,,,,AAXX 22214 07190 12730 81204 10020 20020 30050 40242 58004 60007 71062 8552/ 92100=
07190,1997-01-23 00:00:00,2,1024.4,0.2,100,2,1800,3.704,,,330,,,,,,,,,,10,wg-a,,,,AAXX 23004 07190 12618 83302 10020 20020 30052 40244 52002 60016 71062 8557/ 90000=
07190,1997-01-23 03:00:00,6,1024.3,0.2,100,6,2500,18.52,,,190,,,,0,,,,,,,wg-a,,,,AAXX 23034 07190 12325 81910 10060 20060 30054 40243 53002 60007 8557/ 90300=
07190,1997-01-23 06:00:00,5,1025.1,0.8,100,5,2500,7.408,,,160,1.4,6.2,,,,,,,,10,wg-a,,,,AAXX 23064 07190 02225 81604 10050 20050 30062 40251 53008 61000 71062 8657/ 90600 333 10062 20014 6006=
07190,1997-01-23 09:00:00,5,1025.2,0,100,5,500,3.704,,,130,,,,1,,,,,,42,wg-a,,,,AAXX 23094 07190 12005 81302 10050 20050 30062 40252 50000 60017 74264 845// 90900=
07190,1997-01-23 12:00:00,7,1024.8,-0.2,100,7,6000,7.408,,,150,,,,,,,,,,2,wg-a,,,,AAXX 23124 07190 12756 71504 10070 20070 30060 40248 58002 60016 70264 84572 91200=
07190,1997-01-23 18:00:00,4,1024.8,-0,93,3,400,7.408,,,10,4,8.7,,,,,,,,45,wg-a,,,,AAXX 23184 07190 12/04 90104 10040 20030 30058 40248 55000 60006 74542 89/// 91800 333 10087 20040=
07190,1997-01-23 21:00:00,3,1025.6,0.7,100,3,500,3.704,,,340,,,,,,,,,,43,wg-a,,,,AAXX 23214 07190 12/05 93402 10030 20030 30065 40256 50007 60006 74344 89/// 92100=
07190,1997-01-24 00:00:00,3,1026.2,0.5,93,2,300,0,,,0,,,,,,,,,,45,wg-a,,,,AAXX 24004 07190 12/03 90000 10030 20020 30070 40262 51005 60006 74544 89/// 90000=
07190,1997-01-24 03:00:00,2,1026.4,0.2,100,2,400,3.704,,,320,,,,,,,,,,45,wg-a,,,,AAXX 24034 07190 12/04 93202 10020 20020 30072 40264 50002 60006 74542 89/// 90300=
07190,1997-01-24 06:00:00,2,1027.2,0.8,100,2,100,0,,,0,1.5,3.9,,,,,1,,,45,wg-a,,,,AAXX 24064 07190 02/01 90000 10020 20020 30080 40272 53008 60006 74542 89/// 90600 333 10039 20015 60014=
07190,1997-01-24 09:00:00,2,1028.6,1.3,100,2,200,3.704,,,220,,,,,,,,,,43,wg-a,,,,AAXX 24094 07190 32/02 92202 10020 20020 30093 40286 53013 74344 89/// 90900=
07190,1997-01-24 12:00:00,4,1028.5,0.1,100,4,2500,3.704,,,20,,,,,,,,,,10,wg-a,,,,AAXX 24124 07190 12125 80202 10040 20040 30094 40285 50001 60006 71042 8267/ 91200=
07190,1997-01-24 15:00:00,7,1028.3,-0,93,6,500,3.704,,,300,,,,,,,,,,,wg-a,,,,AAXX 24154 07190 12/00 /3002 10070 20060 30094 40283 55000 60006 86030 91500=
07190,1997-01-24 18:00:00,4,1029.6,1,93,3,2500,7.408,,,340,0.9,7.1,,,,,,,,11,wg-a,,,,AAXX 24184 07190 12/25 23404 10040 20030 30104 40296 51010 60006 71111 82030 91800 333 10071 20009=
07190,1997-01-25 00:00:00,1,1031.9,0.8,100,1,300,7.408,,,350,,,,,,,,,,45,wg-a,,,,AAXX 25004 07190 12/03 93504 10010 20010 30125 40319 51008 60006 74541 89/// 90000=
07190,1997-01-25 03:00:00,1,1032,0.1,100,1,300,3.704,,,350,,,,,,,,,,45,wg-a,,,,AAXX 25034 07190 12/03 93502 10010 20010 30126 40320 50001 60006 74542 89/// 90300=
07190,1997-01-25 06:00:00,2,1032.5,0.6,100,2,400,3.704,,,30,0.8,3.8,,,,,,,,43,wg-a,,,,AAXX 25064 07190 02/04 90302 10020 20020 30132 40325 53006 60006 74342 89/// 90600 333 10038 20008 60004=
07190,1997-01-25 09:00:00,3,1033.1,0.6,100,3,200,7.408,,,320,,,,,,,,,,45,wg-a,,,,AAXX 25094 07190 12/02 93204 10030 20030 30138 40331 51006 60006 74544 89/// 90900=
07190,1997-01-25 12:00:00,4,1031.9,-1.1,100,4,800,7.408,,,310,,,,,,,,,,43,wg-a,,,,AAXX 25124 07190 12/08 93104 10040 20040 30127 40319 58011 60006 74344 89/// 91200=
07190,1997-01-25 15:00:00,5,1031,-0.8,100,5,1800,14.816,,,360,,,,,,,,,,10,wg-a,,,,AAXX 25154 07190 12118 83608 10050 20050 30119 40310 56008 60006 71042 886// 91500=
07190,1997-01-25 18:00:00,3,1031.8,0.7,100,3,2500,11.112,,,360,2,5,,,,,,,,10,wg-a,,,,AAXX 25184 07190 12125 83606 10030 20030 30126 40318 51007 60006 71042 886// 91800 333 10050 20020=
07190,1997-01-25 21:00:00,3,1031.4,-0.4,100,3,3500,7.408,,,320,,,,,,,,,,10,wg-a,,,,AAXX 25214 07190 12235 83204 10030 20030 30122 40314 58004 60006 71022 886// 92100=
07190,1997-01-26 00:00:00,3,1030.4,-1,93,2,3500,7.408,,,340,,,,,,,,,,10,wg-a,,,,AAXX 26004 07190 12335 83404 10030 20020 30112 40304 57010 60006 71022 885// 90000=
07190,1997-01-26 03:00:00,3,1029.2,-1.2,93,2,3000,11.112,,,350,,,,,,,,,,10,wg-a,,,,AAXX 26034 07190 12130 83506 10030 20020 30100 40292 58012 60006 71022 886// 90300=
07190,1997-01-26 06:00:00,3,1028.5,-0.7,93,2,2500,11.112,,,10,2.6,3.1,,,,,,,,10,wg-a,,,,AAXX 26064 07190 02225 80106 10030 20020 30093 40285 57007 61000 71052 886// 90600 333 10031 20026 6100=
07190,1997-01-26 09:00:00,3,1028.4,-0.1,93,2,900,7.408,,,350,,,,,,,,,,10,wg-a,,,,AAXX 26094 07190 32/09 93504 10030 20020 30092 40284 57001 71054 89/// 90900=
07190,1997-01-26 12:00:00,3,1028.1,-0.3,100,3,1400,7.408,,,10,,,,0,,,,,,10,wg-a,,,,AAXX 26124 07190 02114 80104 10030 20030 30089 40281 58003 60006 71054 886// 91200 333 60007=
07190,1997-01-26 15:00:00,3,1027.7,-0.4,93,2,1900,7.408,,,10,,,,0,,,,,,10,wg-a,,,,AAXX 26154 07190 12119 80104 10030 20020 30085 40277 56004 60007 71055 877// 91500=
07190,1997-01-26 18:00:00,2,1028.3,0.6,100,2,500,7.408,,,340,2.1,2.9,,,,,,,,3,wg-a,,,,AAXX 26184 07190 02200 83404 10020 20020 30091 40283 51006 60006 70352 886// 91800 333 10029 20021 61000=
07190,1997-01-26 21:00:00,2,1028.7,0.3,93,1,3000,3.704,,,350,,,,,,,,,,10,wg-a,,,,AAXX 26214 07190 12130 83502 10020 20010 30094 40287 53003 60006 71022 886// 92100=
07190,1997-01-27 00:00:00,2,1028.6,-0.1,93,1,500,3.704,,,350,,,,,,,,,,45,wg-a,,,,AAXX 27004 07190 12/05 93502 10020 20010 30093 40286 55001 60006 74542 89/// 90000=
07190,1997-01-27 03:00:00,1,1028.7,0.1,100,1,300,7.408,,,330,,,,,,,,,,45,wg-a,,,,AAXX 27034 07190 12/03 93304 10010 20010 30094 40287 50001 60006 74544 89/// 90300=
07190,1997-01-27 06:00:00,1,1029.3,0.6,100,1,1200,3.704,,,220,1.4,2.1,,,,,,,,10,wg-a,,,,AAXX 27064 07190 02112 82202 10010 20010 30100 40293 51006 60006 71042 886// 90600 333 10021 20014 60004=
07190,1997-01-27 09:00:00,0,1030.7,1.3,100,0,100,3.704,,,310,,,,,,,,,,45,wg-a,,,,AAXX 27094 07190 12/01 93102 10000 20000 30113 40307 53013 60006 74542 89/// 90900=
07190,1997-01-27 12:00:00,3,1030.6,0.1,100,3,3000,7.408,,,220,,,,,,,,,,10,wg-a,,,,AAXX 27124 07190 12230 82204 10030 20030 30114 40306 50001 60006 71042 876// 91200=
07190,1997-01-27 15:00:00,4,1030.6,-0,93,3,3000,3.704,,,210,,,,,,,,,,10,wg-a,,,,AAXX 27154 07190 12230 82102 10040 20030 30114 40306 55000 60006 71022 885// 91500=
07190,1997-01-27 18:00:00,3,1031.4,0.8,100,3,4000,3.704,,,100,0.4,3.7,,,,,,,,10,wg-a,,,,AAXX 27184 07190 12240 81002 10030 20030 30122 40314 51008 60006 71022 885// 91800 333 10037 20004=
07190,1997-01-27 21:00:00,1,1033.4,1.7,86,-1,7000,14.816,,,350,,,,,,,,,,77,wg-a,,,,AAXX 27214 07190 02257 83508 10010 21010 30139 40334 52017 61000 77775 885// 92100 333 ////=
07190,1997-01-28 00:00:00,0,1034.3,0.9,93,-1,6000,0,,,0,,,,,,,,,,71,wg-a,,,,AAXX 28004 07190 02556 80000 10000 21010 30148 40343 53009 61000 77175 885// 90000 333 6100=
07190,1997-01-28 03:00:00,0,1034.3,0,93,-1,6000,11.112,,,340,,,,,,,,,,0,wg-a,,,,AAXX 28034 07190 02456 83406 10000 21010 30148 40343 50000 61000 70072 885// 90300 333 ////=
07190,1997-01-28 06:00:00,1,1035.4,1.1,93,0,6000,11.112,,,20,-0.1,3.1,,,,,,,,3,wg-a,,,,AAXX 28064 07190 02256 80206 10010 20000 30159 40354 53011 60006 70372 886// 90600 333 10031 21001 61000=
07190,1997-01-28 09:00:00,1,1036.9,1.5,93,0,500,18.52,,,30,,,,,,,,,,,wg-a,,,,AAXX 28094 07190 12300 80310 10010 20000 30174 40369 51015 60006 876// 90900=
07190,1997-01-28 12:00:00,3,1037.1,0.3,87,1,8000,22.224,,,30,,,,,,,,,,,wg-a,,,,AAXX 28124 07190 12458 30312 10030 20010 30177 40371 52003 60006 83100 91200=
07190,1997-01-28 15:00:00,2,1037.6,0.4,80,-1,6000,18.52,,,30,,,,,,,,,,,wg-a,,,,AAXX 28154 07190 12456 /0310 10020 21010 30181 40376 53004 60006 86100 91500=
07190,1997-01-28 18:00:00,0,1039.3,1.6,93,-1,4000,7.408,,,330,0.2,3.3,,,,,,,,10,wg-a,,,,AAXX 28184 07190 12440 73304 10000 21010 30197 40393 53016 60006 71011 875// 91800 333 10033 20002=
07190,1997-01-28 21:00:00,-1,1040.3,0.9,93,-2,6000,11.112,,,350,,,,,,,,,,,wg-a,,,,AAXX 28214 07190 12/56 03506 11010 21020 30206 40403 51009 60006 80000 92100=
07190,1997-01-29 00:00:00,0,1040.9,0.7,93,-1,500,7.408,,,10,,,,,,,,,,,wg-a,,,,AAXX 29004 07190 12400 70104 10000 21010 30213 40409 51007 60006 875// 90000=
07190,1997-01-29 03:00:00,0,1041,0.1,93,-1,500,7.408,,,20,,,,,,,,,,,wg-a,,,,AAXX 29034 07190 12400 70204 10000 21010 30214 40410 53001 60006 875// 90300=
07190,1997-01-29 06:00:00,0,1040.8,-0.2,86,-2,6000,7.408,,,30,-1,0.4,,,,,,,,,wg-a,,,,AAXX 29064 07190 02456 70304 10000 21020 30212 40408 58002 60006 875// 90600 333 10004 21010 60004=
07190,1997-01-29 09:00:00,0,1041,0.2,93,-1,7000,7.408,,,10,,,,,,,,,,,wg-a,,,,AAXX 29094 07190 12457 70104 10000 21010 30214 40410 52002 60006 875// 90900=
07190,1997-01-29 12:00:00,3,1040.3,-0.6,75,-1,10000,11.112,,,10,,,,,,,,,,,wg-a,,,,AAXX 29124 07190 12460 20106 10030 21010 30208 40403 58006 60006 82200 91200=
07190,1997-01-29 15:00:00,3,1039,-1.2,75,-1,11000,11.112,,,20,,,,,,,,,,,wg-a,,,,AAXX 29154 07190 12/61 /0206 10030 21010 30196 40390 56012 60006 91500=
07190,1997-01-29 18:00:00,1,1039.6,0.5,86,-1,12000,7.408,,,20,0,3.5,,,,,,,,,wg-a,,,,AAXX 29184 07190 12562 70204 10010 21010 30201 40396 52005 60006 875// 91800 333 10035 20000=
07190,1997-01-29 21:00:00,-1,1039.2,-0.6,93,-2,10000,7.408,,,350,,,,,,,,,,,wg-a,,,,AAXX 29214 07190 12560 33504 11010 21020 30195 40392 58006 60006 83500 92100=
07190,1997-01-30 00:00:00,-2,1038.6,-0.6,93,-3,8000,3.704,,,340,,,,,,,,,,,wg-a,,,,AAXX 30004 07190 12/58 03402 11020 21030 30189 40386 56006 60006 80000 90000=
07190,1997-01-30 03:00:00,-4,1038.4,-0.4,93,-5,7000,3.704,,,220,,,,,,,,,,,wg-a,,,,AAXX 30034 07190 12/57 02202 11040 21050 30185 40384 58004 60006 80000 90300=
07190,1997-01-30 06:00:00,-3,1038.1,-0.2,93,-4,7000,3.704,,,350,-4.1,1.2,,,,,,,,11,wg-a,,,,AAXX 30064 07190 02/57 03502 11030 21040 30183 40381 55002 60006 71100 80000 90600 333 10012 21041 60004=
07190,1997-01-30 09:00:00,-2,1038.4,0.4,100,-2,3500,3.704,,,320,,,,,,,,,,10,wg-a,,,,AAXX 30094 07190 12/35 03202 11020 21020 30187 40384 52004 60006 71000 80000 90900=
07190,1997-01-30 12:00:00,3,1037.5,-0.6,70,-2,8000,3.704,,,320,,,,0,,,,,,,wg-a,,,,AAXX 30124 07190 02458 23202 10030 21020 30181 40375 58006 60006 82100 91200 333 60007=
07190,1997-01-30 18:00:00,0,1036.7,0.4,86,-2,7000,14.816,,,20,-3.5,3.9,,,,,,,,,wg-a,,,,AAXX 30184 07190 12/57 00208 10000 21020 30172 40367 53004 60006 80000 91800 333 10039 21035=
07190,1997-01-31 00:00:00,-1,1035.8,-0.7,93,-2,3000,7.408,,,330,,,,,,,,,,10,wg-a,,,,AAXX 31004 07190 12330 73304 11010 21020 30162 40358 58007 60006 71011 876// 90000=
07190,1997-01-31 03:00:00,-1,1035.9,0.1,86,-3,3000,7.408,,,350,,,,,,,,,,10,wg-a,,,,AAXX 31034 07190 12430 73504 11010 21030 30163 40359 53001 60006 71022 875// 90300=
07190,1997-01-31 09:00:00,-1,1035.6,0.2,86,-3,3800,7.408,,,20,,,,,,,,,,10,wg-a,,,,AAXX 31094 07190 12338 80204 11010 21030 30160 40356 53002 60006 71022 886// 90900=
07190,1997-01-31 12:00:00,0,1034.7,-0.8,80,-3,6000,11.112,,,30,,,,,,,,,,,wg-a,,,,AAXX 31124 07190 12456 80306 10000 21030 30152 40347 58008 60006 875// 91200=
07190,1997-01-31 15:00:00,0,1033.5,-1.2,86,-2,6000,7.408,,,140,,,,,,,,,,,wg-a,,,,AAXX 31154 07190 12456 81404 10000 21020 30140 40335 56012 60006 875// 91500=
07190,1997-01-31 18:00:00,0,1033.4,-0.1,86,-2,7000,3.704,,,300,-0.9,0.8,,,,,,,,,wg-a,,,,AAXX 31184 07190 12457 /3002 10000 21020 30139 40334 58001 60006 875// 91800 333 10008 21009=
07190,1997-01-31 21:00:00,-1,1033.5,0,93,-2,500,3.704,,,180,,,,,,,,,,,wg-a,,,,AAXX 31214 07190 12400 71802 11010 21020 30139 40335 50000 60006 875// 92100=
07190,1997-02-01 00:00:00,-2,1033.4,-0.1,100,-2,3000,0,,,0,,,,,,,,,,10,wg-a,,,,AAXX 01004 07190 12530 /0000 11020 21020 30138 40334 57001 60006 71011 86500 90000=
07190,1997-02-01 03:00:00,-3,1033,-0.5,100,-3,3000,3.704,,,70,,,,,,,,,,10,wg-a,,,,AAXX 01034 07190 12630 20702 11030 21030 30133 40330 57005 60006 71011 82500 90300=
07190,1997-02-01 06:00:00,-2,1032.8,-0.2,100,-2,3000,3.704,,,180,-3.4,0.4,,,,,,,,10,wg-a,,,,AAXX 01064 07190 02530 71802 11020 21020 30131 40328 56002 60006 71011 875// 90600 333 10004 21034 60004=
07190,1997-02-01 09:00:00,-1,1032.6,-0,100,-1,3000,0,,,0,,,,,,,,,,10,wg-a,,,,AAXX 01094 07190 12530 50000 11010 21010 30131 40326 54000 60006 71022 85530 90900=
07190,1997-02-01 12:00:00,3,1031.8,-0.5,75,-1,4000,3.704,,,170,,,,,,,,,,10,wg-a,,,,AAXX 01124 07190 12440 /1702 10030 21010 30126 40318 58005 60006 71011 81100 91200=
07190,1997-02-01 15:00:00,4,1030.8,-0.9,70,-1,7000,7.408,,,200,,,,,,,,,,,wg-a,,,,AAXX 01154 07190 12457 /2004 10040 21010 30117 40308 56009 60006 81100 91500=
07190,1997-02-01 18:00:00,-1,1030.9,-0.3,93,-2,8000,11.112,,,200,-2.3,4.7,,,,,,,,,wg-a,,,,AAXX 01184 07190 12558 /2006 11010 21020 30114 40309 56003 60006 81500 91800 333 10047 21023=
07190,1997-02-01 21:00:00,-2,1031,-0,93,-3,6000,0,,,0,,,,,,,,,,,wg-a,,,,AAXX 01214 07190 12/56 00000 11020 21030 30114 40310 55000 60006 80000 92100=
07190,1997-02-02 06:00:00,-3,1028.5,-0.3,93,-4,300,0,,,0,-4.8,-0.8,,,,,,,,49,wg-a,,,,AAXX 02064 07190 02/03 90000 11030 21040 30089 40285 56003 60006 74941 89/// 90600 333 11008 21048 60004=
07190,1997-02-02 09:00:00,-3,1029,0.5,100,-3,1000,3.704,,,130,,,,,,,,,,28,wg-a,,,,AAXX 02094 07190 12110 91302 11030 21030 30094 40290 53005 60006 72842 896// 90900=
07190,1997-02-02 12:00:00,-1,1028.6,-0.3,100,-1,3500,3.704,,,160,,,,,,,,,,10,wg-a,,,,AAXX 02124 07190 12235 81602 11010 21010 30091 40286 58003 60006 71042 886// 91200=
07190,1997-02-02 15:00:00,-1,1027.6,-1,93,-2,4000,3.704,,,340,,,,,,,,,,10,wg-a,,,,AAXX 02154 07190 12240 83402 11010 21020 30081 40276 56010 60006 71022 886// 91500=
07190,1997-02-02 18:00:00,-1,1028.7,1.1,93,-2,3000,7.408,,,350,-3.4,-1,,,,,,,,10,wg-a,,,,AAXX 02184 07190 12230 83504 11010 21020 30092 40287 51011 60006 71022 886// 91800 333 11010 21034=
07190,1997-02-02 21:00:00,-1,1029.4,0.7,93,-2,4000,7.408,,,350,,,,,,,,,,10,wg-a,,,,AAXX 02214 07190 12240 83504 11010 21020 30099 40294 53007 60006 71022 886// 92100=
07190,1997-02-03 00:00:00,-1,1029.1,-0.3,93,-2,4000,0,,,0,,,,,,,,,,10,wg-a,,,,AAXX 03004 07190 12240 80000 11010 21020 30096 40291 58003 60006 71022 886// 90000=
07190,1997-02-03 03:00:00,-1,1028.9,-0.2,86,-3,4000,3.704,,,20,,,,,,,,,,10,wg-a,,,,AAXX 03034 07190 12340 80202 11010 21030 30094 40289 57002 60006 71022 886// 90300=
07190,1997-02-03 06:00:00,-1,1029.6,0.7,86,-3,6000,0,,,0,-1.3,-1,,,,,,,,,wg-a,,,,AAXX 03064 07190 02456 80000 11010 21030 30101 40296 53007 60006 886// 90600 333 11010 21013 60004=
07190,1997-02-03 09:00:00,-1,1030.4,0.8,86,-3,6000,3.704,,,140,,,,,,,,,,,wg-a,,,,AAXX 03094 07190 12456 81402 11010 21030 30109 40304 51008 60006 886// 90900=
07190,1997-02-03 12:00:00,1,1030.4,0.1,80,-2,6000,3.704,,,190,,,,,,,,,,,wg-a,,,,AAXX 03124 07190 12456 71902 10010 21020 30110 40304 50001 60006 878// 91200=
07190,1997-02-03 15:00:00,1,1029.9,-0.5,80,-2,6000,3.704,,,150,,,,,,,,,,,wg-a,,,,AAXX 03154 07190 12656 71502 10010 21020 30105 40299 56005 60006 875// 91500=
07190,1997-02-03 18:00:00,0,1030,0.1,93,-1,4500,7.408,,,180,-1.1,1.1,,,,,,,,10,wg-a,,,,AAXX 03184 07190 12745 71804 10000 21010 30106 40300 53001 60006 71022 875// 91800 333 10011 21011=
07190,1997-02-03 21:00:00,0,1030.5,0.4,93,-1,4000,7.408,,,190,,,,,,,,,,10,wg-a,,,,AAXX 03214 07190 12240 81904 10000 21010 30110 40305 51004 60006 71022 875// 92100=
07190,1997-02-04 00:00:00,-1,1028.7,-0.7,100,-1,1800,14.816,,,190,-1.3,0.4,,,,,,,,10,wg-a,,,,AAXX 04004 07190 02118 81908 11010 21010 30092 40287 55007 60006 71022 886// 90000 333 10004 21013 60004=
07190,1997-02-04 03:00:00,-1,1029.4,-0.5,100,-1,1200,18.52,,,200,,,,,,,,,,10,wg-a,,,,AAXX 04034 07190 12012 82010 11010 21010 30099 40294 58005 60006 71022 886// 90300=
07190,1997-02-04 06:00:00,-1,1028.7,-0.7,100,-1,1800,14.816,,,190,-1.3,0.4,,,,,,,,10,wg-a,,,,AAXX 04064 07190 02118 81908 11010 21010 30092 40287 55007 60006 71022 886// 90600 333 10004 21013 60004=
07190,1997-02-04 09:00:00,-1,1028.4,-0.3,93,-2,1500,22.224,,,180,,,,,,,,,,10,wg-a,,,,AAXX 04094 07190 12115 81812 11010 21020 30089 40284 57003 60006 71022 886// 90900=
07190,1997-02-04 12:00:00,2,1026.2,-1.9,87,0,6000,14.816,,,200,,,,,,,,,,,wg-a,,,,AAXX 04124 07190 12356 72008 10020 20000 30081 40262 58019 60006 82642 91200=
07190,1997-02-04 15:00:00,4,1023.6,-2.4,81,1,12000,18.52,,,200,,,,,,,,,,,wg-a,,,,AAXX 04154 07190 12/62 72010 10040 20010 30046 40236 56024 60006 86072 91500=
07190,1997-02-04 18:00:00,2,1023,-0.7,87,0,14000,7.408,,,180,-1.5,4.3,,,,,,,,,wg-a,,,,AAXX 04184 07190 12864 71804 10020 20000 30039 40230 56007 60006 8157/ 91800 333 10043 21015=
07190,1997-02-04 21:00:00,2,1022.5,-0.5,80,-1,12000,11.112,,,180,,,,,,,,,,,wg-a,,,,AAXX 04214 07190 12662 51806 10020 21010 30034 40225 58005 60006 85500 92100=
07190,1997-02-05 06:00:00,5,1016.5,-2.6,75,1,12000,25.928,,,190,1.9,4.8,,,,,,,,,wg-a,,,,AAXX 05064 07190 02762 81914 10050 20010 39977 40165 58026 60006 875// 90600 333 10048 20019 60004=
07190,1997-02-05 09:00:00,6,1016.1,-0.4,81,3,12000,22.224,,,200,,,,,,,,,,60,wg-a,,,,AAXX 05094 07190 02562 82012 10060 20030 39973 40161 55004 61000 76062 8557/ 90900 333 ////=
07190,1997-02-05 12:00:00,7,1015.8,-0.2,81,4,15000,29.632,,,210,,,,1,,,,,,60,wg-a,,,,AAXX 05124 07190 02565 82116 10070 20040 39971 40158 58002 60016 76062 8557/ 91200 333 60017=
07190,1997-02-05 15:00:00,7,1018.3,2.5,87,5,12000,14.816,,,260,,,,0,,,,,,21,wg-a,,,,AAXX 05154 07190 12462 82608 10070 20050 39996 40183 53025 60007 72162 888// 91500=
07190,1997-02-05 18:00:00,5,1024.5,6,81,2,15000,18.52,,,310,4.8,8,,,,,,,,3,wg-a,,,,AAXX 05184 07190 12565 73110 10050 20020 30056 40245 53060 60006 70362 878// 91800 333 10080 20048=
07190,1997-02-05 21:00:00,2,1030.2,5.3,80,-1,20000,7.408,,,330,,,,,,,,,,,wg-a,,,,AAXX 05214 07190 12570 53304 10020 21010 30109 40302 53053 60006 85800 92100=
07190,1997-02-06 00:00:00,-1,1033,2.6,93,-2,20000,7.408,,,270,,,,,,,,,,,wg-a,,,,AAXX 06004 07190 12670 22704 11010 21020 30135 40330 51026 60006 82500 90000=
07190,1997-02-06 03:00:00,-1,1034.3,1.2,100,-1,15000,11.112,,,240,,,,,,,,,,,wg-a,,,,AAXX 06034 07190 12/65 02406 11010 21010 30147 40343 51012 60006 80000 90300=
07190,1997-02-06 06:00:00,-2,1035.7,1.3,93,-3,1200,3.704,,,210,-2.5,5.4,,,,,2,,,12,wg-a,,,,AAXX 06064 07190 02/12 02102 11020 21030 30160 40357 53013 60006 71200 80000 90600 333 10054 21025 60024=
07190,1997-02-06 09:00:00,1,1036.9,1.4,93,0,15000,3.704,,,200,,,,,,,,,,,wg-a,,,,AAXX 06094 07190 12/65 /2002 10010 20000 30174 40369 52014 60006 81032 90900=
07190,1997-02-06 12:00:00,6,1035.5,-1,65,0,500,7.408,,,150,,,,,,,,,,,wg-a,,,,AAXX 06124 07190 12/00 11504 10060 20000 30164 40355 58010 60006 81031 91200=
07190,1997-02-06 15:00:00,8,1034,-1.3,61,1,40000,7.408,,,170,,,,,,,,,,,wg-a,,,,AAXX 06154 07190 12/82 11704 10080 20010 30151 40340 56013 60006 80001 91500=
07190,1997-02-06 21:00:00,0,1033.7,-0.6,93,-1,20000,3.704,,,140,,,,,,,,,,,wg-a,,,,AAXX 06214 07190 12/70 01402 10000 21010 30142 40337 58006 60006 80000 92100=
07190,1997-02-07 00:00:00,-2,1033.2,-0.6,100,-2,15000,3.704,,,280,,,,,,,,,,,wg-a,,,,AAXX 07004 07190 12/65 02802 11020 21020 30136 40332 56006 60006 80000 90000=
07190,1997-02-07 06:00:00,-5,1033.3,0.5,100,-5,15000,3.704,,,230,-5.1,2.9,,,,,,,,,wg-a,,,,AAXX 07064 07190 02/65 12302 11050 21050 30135 40333 51005 60006 80001 90600 333 10029 21051 60004=
07190,1997-02-07 09:00:00,0,1033.4,0.4,93,-1,15000,3.704,,,160,,,,,,,,,,,wg-a,,,,AAXX 07094 07190 12/65 21602 10000 21010 30139 40334 51004 60006 82030 90900=
07190,1997-02-07 12:00:00,8,1031.9,-0.9,57,0,25000,7.408,,,190,,,,,,,,,,,wg-a,,,,AAXX 07124 07190 12/75 21904 10080 20000 30130 40319 58009 60006 82030 91200=
07190,1997-02-07 15:00:00,11,1030.3,-1.4,54,2,25000,7.408,,,190,,,,,,,,,,,wg-a,,,,AAXX 07154 07190 12/75 21904 10110 20020 30116 40303 56014 60006 82041 91500=
07190,1997-02-07 18:00:00,5,1032,1.3,75,1,25000,3.704,,,20,-4.6,11.1,,,,,,,,,wg-a,,,,AAXX 07184 07190 12/75 20202 10050 20010 30129 40320 53013 60006 82070 91800 333 10111 21046=
07190,1997-02-07 21:00:00,1,1033.5,1.2,93,0,8000,3.704,,,290,,,,,,,,,,,wg-a,,,,AAXX 07214 07190 12/58 32902 10010 20000 30141 40335 51012 60006 83030 92100=
07190,1997-02-08 00:00:00,0,1034.1,0.5,93,-1,9000,3.704,,,240,,,,,,,,,,,wg-a,,,,AAXX 08004 07190 12/59 52402 10000 21010 30146 40341 53005 60006 84031 90000=
07190,1997-02-08 06:00:00,0,1034.8,0.6,86,-2,10000,3.704,,,180,-1,5.1,,,,,,,,,wg-a,,,,AAXX 08064 07190 02860 71802 10000 21020 30153 40348 51006 60006 84072 90600 333 10051 21010 60004=
07190,1997-02-08 09:00:00,2,1035.3,0.6,87,0,12000,7.408,,,150,,,,,,,,,,,wg-a,,,,AAXX 08094 07190 12/62 61504 10020 20000 30159 40353 52006 60006 84042 90900=
07190,1997-02-08 12:00:00,9,1033.9,-0.9,61,2,12000,3.704,,,170,,,,,,,,,,,wg-a,,,,AAXX 08124 07190 12/62 41702 10090 20020 30150 40339 58009 60006 81041 91200=
07190,1997-02-08 15:00:00,11,1031.6,-2.1,54,2,25000,7.408,,,170,,,,,,,,,,,wg-a,,,,AAXX 08154 07190 12/75 61704 10110 20020 30129 40316 56021 60006 80004 91500=
07190,1997-02-08 18:00:00,7,1032.3,0.4,81,4,9000,3.704,,,20,-0.4,11.6,,,,,,,,,wg-a,,,,AAXX 08184 07190 12/59 50202 10070 20040 30133 40323 53004 60006 80001 91800 333 10116 21004=
07190,1997-02-08 21:00:00,1,1032.7,-0,93,0,6000,3.704,,,290,,,,,,,,,,,wg-a,,,,AAXX 08214 07190 12/56 02902 10010 20000 30133 40327 55000 60006 80000 92100=
07190,1997-02-09 00:00:00,7,1032.6,-0.1,70,2,15000,14.816,,,240,,,,,,,,,,,wg-a,,,,AAXX 09004 07190 12/65 02408 10070 20020 30131 40326 58001 60006 80000 90000=
07190,1997-02-09 03:00:00,-2,1032,-0.7,100,-2,6000,7.408,,,220,,,,,,,,,,,wg-a,,,,AAXX 09034 07190 12/56 02204 11020 21020 30124 40320 58007 60006 80000 90300=
07190,1997-02-09 06:00:00,-2,1031.7,-0.3,93,-3,6000,7.408,,,180,-2.3,6.9,,,,,,,,,wg-a,,,,AAXX 09064 07190 02/56 11804 11020 21030 30121 40317 56003 60006 80001 90600 333 10069 21023 60004=
07190,1997-02-09 09:00:00,2,1031.9,0.5,87,0,9000,3.704,,,200,,,,,,,,,,,wg-a,,,,AAXX 09094 07190 12/59 /2002 10020 20000 30126 40319 53005 60006 80001 90900=
07190,1997-02-09 12:00:00,10,1030.6,-0.8,57,2,12000,3.704,,,210,,,,,,,,,,,wg-a,,,,AAXX 09124 07190 12/62 12102 10100 20020 30118 40306 58008 60006 80001 91200=
07190,1997-02-09 15:00:00,12,1029.2,-1.2,54,3,18000,3.704,,,190,,,,,,,,,,,wg-a,,,,AAXX 09154 07190 12/68 51902 10120 20030 30106 40292 56012 60006 80004 91500=
07190,1997-02-09 18:00:00,6,1029.7,0.1,81,3,13000,3.704,,,330,-2.3,12.7,,,,,,,,,wg-a,,,,AAXX 09184 07190 12/63 13302 10060 20030 30107 40297 53001 60006 80001 91800 333 10127 21023=
07190,1997-02-09 21:00:00,1,1030.2,0.1,93,0,8000,3.704,,,180,,,,,,,,,,,wg-a,,,,AAXX 09214 07190 12/58 01802 10010 20000 30108 40302 53001 60006 80000 92100=
07190,1997-02-10 00:00:00,0,1029.3,-0.9,93,-1,10000,0,,,0,,,,,,,,,,,wg-a,,,,AAXX 10004 07190 12/60 00000 10000 21010 30099 40293 56009 60006 80000 90000=
07190,1997-02-10 03:00:00,0,1028,-1.3,86,-2,7000,3.704,,,170,,,,,,,,,,,wg-a,,,,AAXX 10034 07190 12/57 01702 10000 21020 30086 40280 58013 60006 80000 90300=
07190,1997-02-10 06:00:00,0,1026.6,-1.4,86,-2,7000,7.408,,,210,-0.9,5.8,,,,,,,,,wg-a,,,,AAXX 10064 07190 02/57 32104 10000 21020 30072 40266 56014 60006 81041 90600 333 10058 21009 60004=
07190,1997-02-10 09:00:00,5,1025.8,-0.4,75,1,12000,7.408,,,190,,,,0,,,,,,,wg-a,,,,AAXX 10094 07190 12/62 41904 10050 20010 30068 40258 58004 60007 81041 90900=
07190,1997-02-10 12:00:00,13,1023.3,-1.9,47,2,20000,18.52,,,180,,,,,,,,,,,wg-a,,,,AAXX 10124 07190 12770 21810 10130 20020 30049 40233 58019 60006 81101 91200=
07190,1997-02-10 15:00:00,15,1020.5,-2.7,48,4,500,22.224,,,190,,,,,,,,,,,wg-a,,,,AAXX 10154 07190 12700 61912 10150 20040 30022 40205 56027 60006 81104 91500=
07190,1997-02-10 18:00:00,11,1019.3,-1.4,58,3,20000,18.52,,,190,-0.5,15.6,,,,,,,,,wg-a,,,,AAXX 10184 07190 12/70 51910 10110 20030 30008 40193 56014 60006 83052 91800 333 10156 21005=
07190,1997-02-10 21:00:00,12,1018.3,-0.9,50,2,25000,22.224,,,210,,,,,,,,,,,wg-a,,,,AAXX 10214 07190 12775 82112 10120 20020 39999 40183 56009 60006 8152/ 92100=
07190,1997-02-11 00:00:00,10,1020.9,2.4,76,6,15000,29.632,,,230,,,,,,,,,,60,wg-a,,,,AAXX 11004 07190 02565 72316 10100 20060 30023 40209 51024 61000 76062 8587/ 90000 333 6100=
07190,1997-02-11 03:00:00,6,1023.7,2.5,81,3,25000,18.52,,,270,,,,4,,,,,,21,wg-a,,,,AAXX 11034 07190 12675 82710 10060 20030 30048 40237 50025 60047 72162 875// 90300=
07190,1997-02-11 06:00:00,6,1025,1.3,75,2,500,7.408,,,310,5.3,13.5,,,,,4,,,1,wg-a,,,,AAXX 11064 07190 02600 73104 10060 20020 30061 40250 51013 60006 70186 8653/ 90600 333 10135 20053 60044=
07190,1997-02-11 09:00:00,7,1026.7,1.7,76,3,25000,3.704,,,210,,,,,,,,,,,wg-a,,,,AAXX 11094 07190 12675 62102 10070 20030 30078 40267 51017 60006 83802 90900=
07190,1997-02-11 12:00:00,9,1025.7,-0.8,57,1,25000,11.112,,,240,,,,,,,,,,,wg-a,,,,AAXX 11124 07190 12575 72406 10090 20010 30070 40257 58008 60006 81232 91200=
07190,1997-02-11 15:00:00,9,1023.5,-2.2,71,4,25000,14.816,,,190,,,,,,,,,,,wg-a,,,,AAXX 11154 07190 12675 /1908 10090 20040 30048 40235 58022 60006 85502 91500=
07190,1997-02-11 18:00:00,8,1022.4,-1.1,76,4,20000,11.112,,,200,5,9.6,,,,,,,,,wg-a,,,,AAXX 11184 07190 12670 /2006 10080 20040 30037 40224 58011 60006 84501 91800 333 10096 20050=
07190,1997-02-11 21:00:00,8,1020.8,-1.6,76,4,20000,14.816,,,190,,,,,,,,,,21,wg-a,,,,AAXX 11214 07190 02770 81908 10080 20040 30021 40208 58016 61000 72162 8557/ 92100 333 ////=
07190,1997-02-12 00:00:00,8,1018.1,-2.7,87,6,15000,18.52,,,180,,,,0,,,,,,21,wg-a,,,,AAXX 12004 07190 02565 81810 10080 20060 39994 40181 58027 60006 72162 885// 90000 333 60007=
07190,1997-02-12 03:00:00,9,1015.3,-2.6,93,8,20000,25.928,,,190,,,,1,,,,,,60,wg-a,,,,AAXX 12034 07190 12570 81914 10090 20080 39968 40153 56026 60017 76062 875// 90300=
07190,1997-02-12 06:00:00,11,1016.4,1.2,82,8,20000,38.892,,,210,7.2,10.9,,,,,2,,,1,wg-a,,,,AAXX 12064 07190 02570 82121 10110 20080 39980 40164 53012 60006 70162 875// 90600 333 10109 20072 60024=
07190,1997-02-12 09:00:00,11,1017.8,1.4,82,8,20000,29.632,,,200,,,,,,,,,,,wg-a,,,,AAXX 12094 07190 12570 82016 10110 20080 39994 40178 50014 60006 878// 90900=
07190,1997-02-12 12:00:00,12,1017.6,-0.2,71,7,500,14.816,,,200,,,,,,,,,,,wg-a,,,,AAXX 12124 07190 12500 72008 10120 20070 39992 40176 58002 60006 878// 91200=
07190,1997-02-12 15:00:00,12,1015.9,-1.7,71,7,15000,29.632,,,210,,,,,,,,,,,wg-a,,,,AAXX 12154 07190 12565 72116 10120 20070 39975 40159 57017 60006 875// 91500=
07190,1997-02-12 18:00:00,11,1014.9,-1,71,6,25000,31.484,,,200,10.7,12.5,,,,,,,,,wg-a,,,,AAXX 12184 07190 12575 72017 10110 20060 39965 40149 58010 60006 875// 91800 333 10125 20107=
07190,1997-02-12 21:00:00,11,1012.5,-2.3,66,5,25000,25.928,,,210,,,,,,,,,,,wg-a,,,,AAXX 12214 07190 12675 /2114 10110 20050 39942 40125 56023 60006 86500 92100=
07190,1997-02-13 00:00:00,10,1009.5,-3,76,6,20000,18.52,,,190,,,,,,,,,,60,wg-a,,,,AAXX 13004 07190 02670 71910 10100 20060 39912 40095 56030 61000 76062 875// 90000 333 6100=
07190,1997-02-13 03:00:00,10,1005.9,-3.6,82,7,20000,29.632,,,170,,,,0,,,,,,21,wg-a,,,,AAXX 13034 07190 12670 71716 10100 20070 39876 40059 58036 60007 72162 875// 90300=
07190,1997-02-13 06:00:00,10,1004.8,-1.1,71,5,20000,29.632,,61.116,240,9.4,11.9,,,,,,,,3,wg-a,,,,AAXX 13064 07190 02570 32416 10100 20050 39865 40048 56011 60006 70361 83500 90600 333 10119 20094 60004 91033=
07190,1997-02-13 09:00:00,9,1001.8,-3,76,5,12000,22.224,,,180,,,,,,,,,,60,wg-a,,,,AAXX 13094 07190 02562 81812 10090 20050 39835 40018 58030 61000 76011 8582/ 90900 333 ////=
07190,1997-02-13 12:00:00,7,1002.5,0.6,66,1,25000,46.3,,61.116,260,,,,5,,,,,,1,wg-a,,,,AAXX 13124 07190 02575 /2625 10070 20010 39841 40025 50006 60056 70198 83862 91200 333 60057 91033=
07190,1997-02-13 18:00:00,5,1009.9,3.9,65,-1,15000,31.484,,66.672,250,4.1,10.3,,,,,,,,25,wg-a,,,,AAXX 13184 07190 02665 42517 10050 21010 39912 40099 51039 61000 72586 81402 91800 333 10103 20041 6100 91036=
07190,1997-02-13 21:00:00,3,1012,1.9,87,1,10000,22.224,,61.116,230,,,,1,,,,,,25,wg-a,,,,AAXX 13214 07190 12660 /2312 10030 20010 39931 40120 51019 60017 72586 86400 92100 333 91033=
07190,1997-02-14 00:00:00,5,1012.5,0.6,65,-1,20000,25.928,,,240,,,,,,,,,,1,wg-a,,,,AAXX 14004 07190 12670 /2414 10050 21010 39937 40125 53006 60016 70186 81500 90000=
07190,1997-02-14 03:00:00,4,1011.2,-1.3,75,0,20000,18.52,,,220,,,,,,,,,,,wg-a,,,,AAXX 14034 07190 12670 22210 10040 20000 39924 40112 58013 60006 82500 90300=
07190,1997-02-14 06:00:00,4,1009,-2.1,81,1,20000,14.816,,,170,3.1,5.8,,,,,6,,,,wg-a,,,,AAXX 14064 07190 02670 71708 10040 20010 39903 40090 57021 60006 84520 90600 333 10058 20031 60064=
07190,1997-02-14 09:00:00,4,1007.6,-1.4,93,3,35000,11.112,,,170,,,,0,,,,,,3,wg-a,,,,AAXX 14094 07190 12481 71706 10040 20030 39889 40076 58014 60007 70362 8387/ 90900=
07190,1997-02-14 12:00:00,7,1004.4,-3,76,3,500,11.112,,,170,,,,,,,,,,1,wg-a,,,,AAXX 14124 07190 12400 71706 10070 20030 39859 40044 56030 60006 70162 878// 91200=
07190,1997-02-14 15:00:00,6,1002,-2.4,93,5,6000,3.704,,,150,,,,1,,,,,,51,wg-a,,,,AAXX 14154 07190 12356 81502 10060 20050 39835 40020 56024 60017 75165 877// 91500=
07190,1997-02-14 18:00:00,6,1001,-1,100,6,3000,3.704,,,80,3.8,6.6,,,,,,,,61,wg-a,,,,AAXX 14184 07190 02130 80802 10060 20060 39825 40010 56010 61000 76165 877// 91800 333 10066 20038 6007=
07190,1997-02-14 21:00:00,6,1000.9,-0.1,100,6,6000,7.408,,,90,,,,2,,,,,,21,wg-a,,,,AAXX 14214 07190 12256 70904 10060 20060 39824 40009 57001 60027 72162 875// 92100=
07190,1997-02-15 00:00:00,4,1001.7,0.7,100,4,6000,14.816,,,30,,,,6,,,,,,10,wg-a,,,,AAXX 15004 07190 02256 70308 10040 20040 39831 40017 51007 60076 71062 877// 90000 333 60067=
07190,1997-02-15 03:00:00,3,1003.5,1.7,100,3,6000,18.52,,,10,,,,1,,,,,,51,wg-a,,,,AAXX 15034 07190 12156 80110 10030 20030 39848 40035 53017 60017 75165 877// 90300=
07190,1997-02-15 06:00:00,2,1007.5,3.9,100,2,7000,14.816,,,350,2.2,6.1,,,,,,,,51,wg-a,,,,AAXX 15064 07190 02257 83508 10020 20020 39887 40075 53039 61000 75165 877// 90600 333 10061 20022 6017=
07190,1997-02-15 09:00:00,4,1012.9,5.4,87,2,10000,18.52,,,340,,,,,,,,,,1,wg-a,,,,AAXX 15094 07190 02660 /3410 10040 20020 39941 40129 53054 61000 70165 83531 90900 333 ////=
07190,1997-02-15 12:00:00,5,1017.2,4.3,70,0,35000,18.52,,,350,,,,,,,,,,3,wg-a,,,,AAXX 15124 07190 02581 73510 10050 20000 39984 40172 51043 61000 70365 868// 91200 333 ////=
07190,1997-02-15 15:00:00,6,1021.2,3.9,65,0,10000,3.704,,,310,,,,,,,,,,16,wg-a,,,,AAXX 15154 07190 02660 73102 10060 20000 30023 40212 51039 61000 71686 878// 91500 333 ////=
07190,1997-02-15 21:00:00,2,1026.5,2.1,93,1,25000,7.408,,,140,,,,,,,,,,,wg-a,,,,AAXX 15214 07190 12675 61404 10020 20010 30073 40265 53021 60006 86500 92100=
07190,1997-02-16 00:00:00,1,1027.4,0.8,93,0,25000,7.408,,,210,,,,,,,,,,,wg-a,,,,AAXX 16004 07190 12675 /2104 10010 20000 30081 40274 51008 60006 85500 90000=
07190,1997-02-16 03:00:00,-1,1027.2,-0.3,100,-1,7000,0,,,0,,,,,,,,,,11,wg-a,,,,AAXX 16034 07190 12657 30000 11010 21010 30078 40272 58003 60006 71111 83500 90300=
07190,1997-02-16 06:00:00,-2,1027.3,0,100,-2,600,0,,,0,-2.1,3.9,,,,,,,,41,wg-a,,,,AAXX 16064 07190 02/06 00000 11020 21020 30078 40273 50000 60006 74141 80000 90600 333 10039 21021 60004=
07190,1997-02-16 09:00:00,0,1027.3,0.1,100,0,200,3.704,,,200,,,,,,,,,,46,wg-a,,,,AAXX 16094 07190 12/02 62002 10000 20000 30079 40273 50001 60006 74644 80001 90900=
07190,1997-02-16 12:00:00,6,1025.6,-1.2,75,2,10000,7.408,,,150,,,,,,,,,,1,wg-a,,,,AAXX 16124 07190 12560 61504 10060 20020 30067 40256 58012 60006 70141 81101 91200=
07190,1997-02-16 15:00:00,8,1023.7,-1.8,53,-1,500,7.408,,,140,,,,,,,,,,,wg-a,,,,AAXX 16154 07190 12500 71404 10080 21010 30049 40237 56018 60006 81102 91500=
07190,1997-02-16 18:00:00,4,1023.7,-0.2,70,-1,20000,3.704,,,110,-2.2,8.2,,,,,,,,,wg-a,,,,AAXX 16184 07190 12/70 61102 10040 21010 30047 40237 55002 60006 80002 91800 333 10082 21022=
07190,1997-02-16 21:00:00,3,1022.8,-1,75,-1,20000,7.408,,,150,,,,,,,,,,,wg-a,,,,AAXX 16214 07190 12/70 81504 10030 21010 30037 40228 56010 60006 80006 92100=
07190,1997-02-17 00:00:00,2,1022,-0.8,87,0,15000,7.408,,,160,,,,,,,,,,,wg-a,,,,AAXX 17004 07190 12/65 71604 10020 20000 30029 40220 57008 60006 82031 90000=
07190,1997-02-17 03:00:00,2,1021.9,-0.2,80,-1,20000,11.112,,,180,,,,,,,,,,,wg-a,,,,AAXX 17034 07190 12/70 51806 10020 21010 30027 40219 55002 60006 81031 90300=
07190,1997-02-17 06:00:00,2,1022.9,1,80,-1,20000,11.112,,,180,0.5,4,,,,,,,,,wg-a,,,,AAXX 17064 07190 02670 71806 10020 21010 30037 40229 52010 60006 8557/ 90600 333 10040 20005 60004=
07190,1997-02-17 09:00:00,4,1024.5,1.7,81,1,14000,3.704,,,170,,,,,,,,,,,wg-a,,,,AAXX 17094 07190 12564 71702 10040 20010 30054 40245 52017 60006 875// 90900=
07190,1997-02-17 12:00:00,8,1024.7,0.5,76,4,18000,18.52,,,170,,,,,,,,,,,wg-a,,,,AAXX 17124 07190 12568 71710 10080 20040 30059 40247 50005 60006 878// 91200=
07190,1997-02-17 15:00:00,9,1024.2,-0.4,71,4,18000,14.816,,,200,,,,,,,,,,1,wg-a,,,,AAXX 17154 07190 02568 72008 10090 20040 30055 40242 55004 61000 70182 85841 91500 333 ////=
07190,1997-02-17 18:00:00,6,1024.9,0.5,87,4,15000,7.408,,,190,1.9,8.9,,,,,,,,25,wg-a,,,,AAXX 17184 07190 02565 61904 10060 20040 30060 40249 51005 61000 72586 83844 91800 333 10089 20019 6000=
07190,1997-02-17 21:00:00,4,1024.8,-0.3,93,3,15000,7.408,,,180,,,,,,,,,,,wg-a,,,,AAXX 17214 07190 12/65 51804 10040 20030 30057 40248 58003 60006 83031 92100=
07190,1997-02-18 00:00:00,6,1023.6,-1,81,3,15000,18.52,,,180,,,,,,,,,,,wg-a,,,,AAXX 18004 07190 12665 71810 10060 20030 30047 40236 58010 60006 84531 90000=
07190,1997-02-18 03:00:00,6,1021.2,-2.4,81,3,15000,18.52,,,170,,,,,,,,,,,wg-a,,,,AAXX 18034 07190 12665 71710 10060 20030 30023 40212 58024 60006 82571 90300=
07190,1997-02-18 06:00:00,7,1019.5,-1.6,76,3,15000,22.224,,,190,3.8,6.8,,,,,,,,,wg-a,,,,AAXX 18064 07190 02565 71912 10070 20030 30007 40195 58016 60006 8687/ 90600 333 10068 20038 60004=
07190,1997-02-18 09:00:00,8,1018.1,-1.2,76,4,15000,25.928,,,180,,,,,,,,,,60,wg-a,,,,AAXX 18094 07190 02565 81814 10080 20040 39995 40181 58012 61000 76062 8657/ 90900 333 ////=
07190,1997-02-18 12:00:00,9,1016,-2.1,81,6,15000,29.632,,,190,,,,1,,,,,,60,wg-a,,,,AAXX 18124 07190 02665 81916 10090 20060 39974 40160 56021 60016 76062 885// 91200 333 60017=
07190,1997-02-18 15:00:00,11,1012.5,-3.3,71,6,15000,31.484,,44.448,190,,,,,,,,,,3,wg-a,,,,AAXX 18154 07190 02565 /1917 10110 20060 39941 40125 57033 61000 70386 85263 91500 333 //// 91024=
07190,1997-02-18 18:00:00,8,1015.9,3.2,61,1,12000,42.596,,,270,6.6,11.7,,,,,,,,21,wg-a,,,,AAXX 18184 07190 02562 /2723 10080 20010 39973 40159 51032 61000 72186 83803 91800 333 10117 20066 6002=
07190,1997-02-19 00:00:00,5,1025.1,3.5,65,-1,15000,29.632,,,250,,,,,,,,,,1,wg-a,,,,AAXX 19004 07190 12665 52516 10050 21010 30061 40251 53035 60016 70198 85800 90000=
07190,1997-02-19 03:00:00,4,1028.6,3.3,81,1,10000,11.112,,,300,,,,,,,,,,,wg-a,,,,AAXX 19034 07190 12560 83006 10040 20010 30094 40286 51033 60006 888// 90300=
07190,1997-02-19 06:00:00,3,1030.9,2.3,75,-1,15000,18.52,,,240,2,8.1,,,,,4,,,,wg-a,,,,AAXX 19064 07190 02565 52410 10030 21010 30117 40309 51023 60006 85801 90600 333 10081 20020 60044=
07190,1997-02-19 09:00:00,6,1033.2,2.4,65,0,25000,18.52,,,240,,,,,,,,,,,wg-a,,,,AAXX 19094 07190 12575 72410 10060 20000 30141 40332 51024 60006 82104 90900=
07190,1997-02-19 12:00:00,8,1032.1,-0.9,57,0,500,22.224,,,200,,,,,,,,,,,wg-a,,,,AAXX 19124 07190 12600 /2012 10080 20000 30132 40321 58009 60006 81131 91200=
07190,1997-02-19 18:00:00,7,1025.2,-3.8,57,-1,25000,18.52,,,180,1.7,8.7,,,,,,,,,wg-a,,,,AAXX 19184 07190 12775 71810 10070 21010 30063 40252 56038 60006 8351/ 91800 333 10087 20017=
07190,1997-02-19 21:00:00,7,1020.2,-4.9,53,-2,20000,22.224,,,190,,,,,,,,,,,wg-a,,,,AAXX 19214 07190 12/70 71912 10070 21020 30014 40202 58049 60006 8707/ 92100=
07190,1997-02-20 00:00:00,10,1018.6,-1.4,40,-3,20000,31.484,,,190,,,,,,,,,,,wg-a,,,,AAXX 20004 07190 12670 61917 10100 21030 30000 40186 57014 60006 84530 90000=
07190,1997-02-20 03:00:00,10,1022.1,3.5,66,4,20000,29.632,,,260,,,,,,,,,,,wg-a,,,,AAXX 20034 07190 12670 32616 10100 20040 30035 40221 53035 60006 83500 90300=
07190,1997-02-20 06:00:00,8,1024.9,2.6,66,2,20000,22.224,,,270,6.6,10.5,,,,,,,,,wg-a,,,,AAXX 20064 07190 02770 22712 10080 20020 30061 40249 53026 60006 82500 90600 333 10105 20066 60004=
07190,1997-02-20 09:00:00,11,1027.6,2.8,54,2,500,22.224,,,240,,,,,,,,,,,wg-a,,,,AAXX 20094 07190 12600 22412 10110 20020 30089 40276 51028 60006 81830 90900=
07190,1997-02-20 12:00:00,13,1027.5,0.1,44,1,500,25.928,,,230,,,,,,,,,,,wg-a,,,,AAXX 20124 07190 12600 32314 10130 20010 30090 40275 50001 60006 83201 91200=
07190,1997-02-20 15:00:00,11,1027.2,-0.4,58,3,500,25.928,,,230,,,,,,,,,,,wg-a,,,,AAXX 20154 07190 12600 /2314 10110 20030 30086 40272 55004 60006 85801 91500=
07190,1997-02-20 18:00:00,10,1027.8,0.5,66,4,500,14.816,,,180,7.8,13.8,,,,,,,,,wg-a,,,,AAXX 20184 07190 12600 61808 10100 20040 30091 40278 53005 60006 86800 91800 333 10138 20078=
07190,1997-02-20 21:00:00,6,1028.2,0.1,75,2,25000,7.408,,,190,,,,,,,,,,,wg-a,,,,AAXX 20214 07190 12675 /1904 10060 20020 30092 40282 53001 60006 81600 92100=
07190,1997-02-21 00:00:00,4,1028.2,-0.1,87,2,25000,14.816,,,210,,,,,,,,,,,wg-a,,,,AAXX 21004 07190 12675 22108 10040 20020 30091 40282 58001 60006 82600 90000=
07190,1997-02-21 03:00:00,7,1027.4,-0.6,70,2,25000,14.816,,,180,,,,,,,,,,,wg-a,,,,AAXX 21034 07190 12775 71808 10070 20020 30085 40274 58006 60006 876// 90300=
07190,1997-02-21 06:00:00,9,1027.5,0.2,61,2,25000,22.224,,,200,4,9.6,,,,,,,,,wg-a,,,,AAXX 21064 07190 02675 /2012 10090 20020 30087 40275 50002 60006 86600 90600 333 10096 20040 60004=
07190,1997-02-21 12:00:00,11,1030.3,0.5,54,2,25000,25.928,,,230,,,,,,,,,,,wg-a,,,,AAXX 21124 07190 12675 72314 10110 20020 30116 40303 51005 60006 87500 91200=
07190,1997-02-21 15:00:00,10,1030.6,0.3,62,3,20000,22.224,,42.596,240,,,,,,,,,,,wg-a,,,,AAXX 21154 07190 12670 72412 10100 20030 30119 40306 50003 60006 87500 91500 333 91023=
07190,1997-02-21 18:00:00,9,1031.2,0.4,66,3,20000,14.816,,,200,8.1,11.8,,,,,,,,,wg-a,,,,AAXX 21184 07190 12670 72008 10090 20030 30123 40312 53004 60006 84531 91800 333 10118 20081=
07190,1997-02-21 21:00:00,10,1032,0.9,66,4,20000,18.52,,,210,,,,,,,,,,,wg-a,,,,AAXX 21214 07190 12670 82110 10100 20040 30132 40320 50009 60006 8657/ 92100=
07190,1997-02-22 00:00:00,9,1032.4,0.3,71,4,20000,14.816,,,170,,,,,,,,,,,wg-a,,,,AAXX 22004 07190 12670 71708 10090 20040 30135 40324 51003 60006 875// 90000=
07190,1997-02-22 03:00:00,8,1032.3,-0.1,81,5,20000,7.408,,,200,,,,0,,,,,,,wg-a,,,,AAXX 22034 07190 12570 72004 10080 20050 30134 40323 58001 60007 875// 90300=
07190,1997-02-22 06:00:00,7,1032.5,0.1,87,5,20000,3.704,,,180,7,9.7,,,,,,,,2,wg-a,,,,AAXX 22064 07190 02570 71802 10070 20050 30135 40325 50001 60006 70262 875// 90600 333 10097 20070 60004=
07190,1997-02-22 09:00:00,10,1032.3,-0,76,6,20000,3.704,,,90,,,,,,,,,,,wg-a,,,,AAXX 22094 07190 12670 40902 10100 20060 30135 40323 54000 60006 84500 90900=
07190,1997-02-22 12:00:00,13,1030.3,-1.8,62,6,25000,7.408,,,50,,,,,,,,,,,wg-a,,,,AAXX 22124 07190 12675 20504 10130 20060 30117 40303 58018 60006 82200 91200=
07190,1997-02-22 15:00:00,14,1027.8,-2.4,58,6,500,11.112,,,30,,,,,,,,,,,wg-a,,,,AAXX 22154 07190 12600 /0306 10140 20060 30093 40278 56024 60006 81200 91500=
07190,1997-02-22 18:00:00,10,1026.5,-1.5,76,6,20000,3.704,,,10,6.9,14.6,,,,,,,,,wg-a,,,,AAXX 22184 07190 12/70 20102 10100 20060 30078 40265 56015 60006 80002 91800 333 10146 20069=
07190,1997-02-22 21:00:00,5,1025.5,-1.3,93,4,15000,3.704,,,260,,,,,,,,,,,wg-a,,,,AAXX 22214 07190 12/65 42602 10050 20040 30065 40255 58013 60006 80001 92100=
07190,1997-02-23 00:00:00,2,1024.1,-1.6,100,2,6000,3.704,,,230,,,,,,,,,,,wg-a,,,,AAXX 23004 07190 12/56 /2302 10020 20020 30049 40241 58016 60006 80001 90000=
07190,1997-02-23 03:00:00,1,1022.3,-1.8,100,1,3000,3.704,,,210,,,,,,,,,,,wg-a,,,,AAXX 23034 07190 12/30 /2102 10010 20010 30031 40223 58018 60006 81031 90300=
07190,1997-02-23 06:00:00,1,1021.4,-0.9,100,1,6000,3.704,,,230,0.7,9.7,,,,,,,,,wg-a,,,,AAXX 23064 07190 02/56 /2302 10010 20010 30022 40214 56009 60006 81032 90600 333 10097 20007 60004=
07190,1997-02-23 09:00:00,7,1021,0,81,4,10000,7.408,,,180,,,,,,,,,,,wg-a,,,,AAXX 23094 07190 12660 /1804 10070 20040 30022 40210 50000 60006 82542 90900=
07190,1997-02-23 12:00:00,14,1018.4,-2.1,55,5,15000,11.112,,,170,,,,,,,,,,,wg-a,,,,AAXX 23124 07190 12/65 61706 10140 20050 30001 40184 58021 60006 80008 91200=
07190,1997-02-23 15:00:00,15,1016,-2.3,51,5,25000,18.52,,,180,,,,,,,,,,,wg-a,,,,AAXX 23154 07190 12/75 71810 10150 20050 39978 40160 56023 60006 82048 91500=
07190,1997-02-23 18:00:00,12,1015.3,-0.8,62,5,20000,11.112,,,170,1.2,14.9,,,,,,,,,wg-a,,,,AAXX 23184 07190 12770 71706 10120 20050 39970 40153 56008 60006 81572 91800 333 10149 20012=
07190,1997-02-23 21:00:00,10,1014.6,-0.8,71,5,20000,11.112,,,170,,,,,,,,,,,wg-a,,,,AAXX 23214 07190 12770 71706 10100 20050 39962 40146 56008 60006 81572 92100=
07190,1997-02-24 00:00:00,10,1013.5,-1.2,71,5,15000,18.52,,,170,,,,,,,,,,,wg-a,,,,AAXX 24004 07190 12765 61710 10100 20050 39950 40135 58012 60006 81532 90000=
07190,1997-02-24 03:00:00,10,1012.8,-0.6,71,5,15000,18.52,,,180,,,,,,,,,,,wg-a,,,,AAXX 24034 07190 12765 81810 10100 20050 39944 40128 58006 60006 8157/ 90300=
07190,1997-02-24 06:00:00,9,1012.3,-0.6,81,6,15000,22.224,,,200,8.3,12.1,,,,,,,,21,wg-a,,,,AAXX 24064 07190 02665 82012 10090 20060 39938 40123 55006 61000 72162 8557/ 90600 333 10121 20083 6000=
07190,1997-02-24 09:00:00,11,1011.4,-0.7,76,7,15000,22.224,,,190,,,,,,,,,,,wg-a,,,,AAXX 24094 07190 12665 81912 10110 20070 39931 40114 56007 60006 8457/ 90900=
07190,1997-02-24 12:00:00,14,1009.5,-1.7,63,7,20000,22.224,,,190,,,,,,,,,,,wg-a,,,,AAXX 24124 07190 12670 71912 10140 20070 39914 40095 58017 60006 8557/ 91200=
07190,1997-02-24 15:00:00,13,1008.6,-0.9,62,6,15000,35.188,,,210,,,,0,,,,,,1,wg-a,,,,AAXX 24154 07190 12665 82119 10130 20060 39905 40086 55009 60007 70162 8657/ 91500=
07190,1997-02-24 18:00:00,13,1007.8,-0.8,67,7,20000,29.632,,,190,9,13.8,,,,,,,,3,wg-a,,,,AAXX 24184 07190 12670 71916 10130 20070 39897 40078 58008 60006 70362 8687/ 91800 333 10138 20090=
07190,1997-02-24 21:00:00,14,1007,-0.8,58,6,20000,29.632,,,190,,,,,,,,,,,wg-a,,,,AAXX 24214 07190 12670 81916 10140 20060 39889 40070 56008 60006 885// 92100=
07190,1997-02-25 00:00:00,14,1005,-1.9,63,7,20000,31.484,,,180,,,,,,,,,,21,wg-a,,,,AAXX 25004 07190 02670 81817 10140 20070 39870 40050 58019 61000 72162 8652/ 90000 333 6100=
07190,1997-02-25 03:00:00,13,1004.2,-0.9,77,9,25000,31.484,,,170,,,,,,,,,,,wg-a,,,,AAXX 25034 07190 12675 81717 10130 20090 39861 40042 58009 60006 885// 90300=
07190,1997-02-25 06:00:00,13,1004.1,-0,77,9,20000,25.928,,,190,12.4,13.9,,,,,,,,21,wg-a,,,,AAXX 25064 07190 02570 81914 10130 20090 39861 40041 55000 61000 72162 8681/ 90600 333 10139 20124 6100=
07190,1997-02-25 09:00:00,14,1004.4,0.3,77,10,12000,38.892,,64.82,210,,,,0,,,,,,60,wg-a,,,,AAXX 25094 07190 12562 72121 10140 20100 39864 40044 50003 60007 76062 85812 90900 333 91035=
07190,1997-02-25 12:00:00,14,1006,1.6,77,10,12000,46.3,,77.784,210,,,,,,,,,,60,wg-a,,,,AAXX 25124 07190 02562 82125 10140 20100 39880 40060 53016 60006 76062 8582/ 91200 333 61000 91042=
07190,1997-02-25 15:00:00,14,1006,-0,77,10,12000,38.892,,,200,,,,0,,,,,,60,wg-a,,,,AAXX 25154 07190 12562 82021 10140 20100 39880 40060 54000 60007 76066 8582/ 91500=
07190,1997-02-25 18:00:00,12,1007.6,1.4,88,10,9000,14.816,,,210,12.2,15.3,,,,,,,,60,wg-a,,,,AAXX 25184 07190 02559 82108 10120 20100 39894 40076 51014 61000 76066 8582/ 91800 333 10153 20122 6001=
07190,1997-02-26 00:00:00,12,1008.9,-1,82,9,15000,35.188,,,210,,,,2,,,,,,60,wg-a,,,,AAXX 26004 07190 02565 82119 10120 20090 39907 40089 58010 60056 76066 878// 90000 333 60027=
07190,1997-02-26 03:00:00,11,1008.4,-0.6,87,9,15000,7.408,,,190,,,,1,,,,,,60,wg-a,,,,AAXX 26034 07190 12565 81904 10110 20090 39901 40084 58006 60017 76062 875// 90300=
07190,1997-02-26 06:00:00,10,1008.1,-0.3,82,7,7000,35.188,,,240,9.5,13.7,,,,,,,,80,wg-a,,,,AAXX 26064 07190 02257 82419 10100 20070 39898 40081 55003 61000 78086 878// 90600 333 10137 20095 6008=
07190,1997-02-26 09:00:00,12,1011.6,3.5,58,4,22000,42.596,,61.116,260,,,,3,,,,,,1,wg-a,,,,AAXX 26094 07190 12672 42623 10120 20040 39933 40116 51035 60037 70186 83803 90900 333 91033=
07190,1997-02-26 12:00:00,13,1013.2,1.7,54,4,500,42.596,,53.708,260,,,,,,,,,,1,wg-a,,,,AAXX 26124 07190 12600 22623 10130 20040 39950 40132 52017 60036 70186 82203 91200 333 91029=
07190,1997-02-26 15:00:00,13,1014.2,0.9,38,-1,40000,31.484,,57.412,260,,,,,,,,,,,wg-a,,,,AAXX 26154 07190 12782 22617 10130 21010 39959 40142 52009 60006 82242 91500 333 91031=
07190,1997-02-26 18:00:00,11,1014.5,0.2,54,2,15000,22.224,,,180,9.2,13.8,,,,,,,,,wg-a,,,,AAXX 26184 07190 12765 71812 10110 20020 39961 40145 53002 60006 8596/ 91800 333 10138 20092=
07190,1997-02-27 00:00:00,8,1021.6,2.8,71,3,10000,29.632,,,260,,,,0,,,,,,80,wg-a,,,,AAXX 27004 07190 02560 82616 10080 20030 30028 40216 51028 60016 78086 888// 90000 333 60007=
07190,1997-02-27 03:00:00,7,1025.5,3.8,61,0,20000,29.632,,51.856,290,,,,,,,,,,0,wg-a,,,,AAXX 27034 07190 02570 42916 10070 20000 30066 40255 53038 61000 7008/ 84801 90300 333 //// 91028=
07190,1997-02-27 06:00:00,7,1030.4,4.8,66,1,20000,18.52,,,260,6.9,10.6,,,,,4,,,3,wg-a,,,,AAXX 27064 07190 02570 72610 10070 20010 30114 40304 51048 60006 70386 878// 90600 333 10106 20069 60044=
07190,1997-02-27 09:00:00,7,1034,3.6,70,2,20000,14.816,,,290,,,,,,,,,,,wg-a,,,,AAXX 27094 07190 12570 72908 10070 20020 30150 40340 51036 60006 878// 90900=
07190,1997-02-27 12:00:00,8,1035.4,1.4,66,2,20000,18.52,,,260,,,,,,,,,,80,wg-a,,,,AAXX 27124 07190 02670 72610 10080 20020 30164 40354 51014 61000 78086 878// 91200 333 6100=
07190,1997-02-27 18:00:00,7,1038.2,1.4,70,2,500,11.112,,,180,6.9,9.4,,,,,,,,1,wg-a,,,,AAXX 27184 07190 32600 61806 10070 20020 30191 40382 51014 70186 82530 91800 333 10094 20069=
07190,1997-02-27 21:00:00,5,1038.3,-0,81,2,25000,3.704,,,150,,,,,,,,,,,wg-a,,,,AAXX 27214 07190 32/75 51502 10050 20020 30191 40383 54000 83031 92100=
07190,1997-02-28 00:00:00,4,1037.4,-1.1,81,1,20000,7.408,,,200,,,,,,,,,,,wg-a,,,,AAXX 28004 07190 12/70 12004 10040 20010 30181 40374 57011 60006 81030 90000=
07190,1997-02-28 03:00:00,2,1036.9,-0.7,87,0,20000,7.408,,,150,,,,,,,,,,,wg-a,,,,AAXX 28034 07190 12/70 31504 10020 20000 30174 40369 58007 60006 83030 90300=
07190,1997-02-28 06:00:00,0,1036.5,-0.5,93,-1,25000,3.704,,,120,0,7.4,,,,,,,,,wg-a,,,,AAXX 28064 07190 02/75 41202 10000 21010 30169 40365 56005 60006 81031 90600 333 10074 20000 61000=
07190,1997-02-28 09:00:00,7,1036.2,0.2,66,1,35000,14.816,,,180,,,,,,,,,,,wg-a,,,,AAXX 28094 07190 12/81 51808 10070 20010 30171 40362 51002 60006 81032 90900=
07190,1997-02-28 12:00:00,12,1033.7,-2.1,54,3,50000,18.52,,,180,,,,,,,,,,,wg-a,,,,AAXX 28124 07190 12/84 61810 10120 20030 30150 40337 58021 60006 80002 91200=
07190,1997-02-28 18:00:00,10,1029.3,-1.4,46,-1,40000,3.704,,,180,-0.1,14.3,,,,,,,,,wg-a,,,,AAXX 28184 07190 12/82 61802 10100 21010 30106 40293 56014 60006 80002 91800 333 10143 21001=
07190,1997-02-28 21:00:00,9,1028.4,-1,53,0,500,14.816,,,170,,,,,,,,,,,wg-a,,,,AAXX 28214 07190 12/00 01708 10090 20000 30096 40284 56010 60006 80000 92100=
07190,1997-03-01 00:00:00,7,1027.5,-1,70,2,500,3.704,,,180,,,,,,,,,,,wg-a,,,,AAXX 01004 07190 12/00 71802 10070 20020 30086 40275 56010 60006 8703/ 90000=
07190,1997-03-01 03:00:00,8,1027.6,0.2,66,2,500,14.816,,,190,,,,,,,,,,,wg-a,,,,AAXX 01034 07190 12/00 61908 10080 20020 30088 40276 51002 60006 86030 90300=
07190,1997-03-01 06:00:00,8,1029.1,1.4,71,3,20000,3.704,,,140,6.7,10.1,,,,,,,,,wg-a,,,,AAXX 01064 07190 02/70 71402 10080 20030 30102 40291 53014 60006 83032 90600 333 10101 20067 60004=
07190,1997-03-01 09:00:00,10,1030,1.1,66,4,20000,7.408,,,150,,,,,,,,,,,wg-a,,,,AAXX 01094 07190 12770 71504 10100 20040 30113 40300 50011 60006 83532 90900=
07190,1997-03-01 12:00:00,16,1029.1,-0.5,45,4,20000,14.816,,,160,,,,,,,,,,,wg-a,,,,AAXX 01124 07190 12770 31608 10160 20040 30108 40291 58005 60006 81531 91200=
07190,1997-03-01 15:00:00,18,1027.2,-1.8,39,4,25000,14.816,,,170,,,,,,,,,,,wg-a,,,,AAXX 01154 07190 12/75 11708 10180 20040 30090 40272 56018 60006 81030 91500=
07190,1997-03-01 18:00:00,12,1027,-0.5,58,4,20000,7.408,,,190,7.4,18,,,,,,,,,wg-a,,,,AAXX 01184 07190 12/70 21904 10120 20040 30085 40270 56005 60006 80001 91800 333 10180 20074=
07190,1997-03-01 21:00:00,8,1027.3,-0,76,4,15000,3.704,,,220,,,,,,,,,,,wg-a,,,,AAXX 01214 07190 12/65 12202 10080 20040 30085 40273 55000 60006 80001 92100=
07190,1997-03-02 00:00:00,5,1026.7,-0.8,87,3,15000,7.408,,,210,,,,,,,,,,,wg-a,,,,AAXX 02004 07190 12/65 12104 10050 20030 30077 40267 58008 60006 80001 90000=
07190,1997-03-02 03:00:00,4,1025.7,-1.1,93,3,15000,7.408,,,230,,,,,,,,,,,wg-a,,,,AAXX 02034 07190 12/65 12304 10040 20030 30066 40257 58011 60006 80001 90300=
07190,1997-03-02 06:00:00,3,1025.6,-0.1,93,2,15000,7.408,,,220,2.6,12.4,,,,,,,,,wg-a,,,,AAXX 02064 07190 02/65 12204 10030 20020 30065 40256 56001 60006 80001 90600 333 10124 20026 60004=
07190,1997-03-02 09:00:00,11,1025.9,0.8,66,5,25000,11.112,,,190,,,,,,,,,,,wg-a,,,,AAXX 02094 07190 12/75 01906 10110 20050 30073 40259 51008 60006 80000 90900=
07190,1997-03-02 12:00:00,19,1024.1,-1.3,37,4,500,18.52,,,180,,,,,,,,,,,wg-a,,,,AAXX 02124 07190 12/00 21810 10190 20040 30060 40241 58013 60006 80001 91200=
07190,1997-03-02 15:00:00,20,1023.9,-0.1,30,2,35000,25.928,,,210,,,,,,,,,,,wg-a,,,,AAXX 02154 07190 12/81 52114 10200 20020 30059 40239 58001 60006 80001 91500=
07190,1997-03-02 18:00:00,14,1026.7,2.4,51,4,25000,14.816,,,220,2.7,21,,,,,,,,,wg-a,,,,AAXX 02184 07190 12/75 62208 10140 20040 30083 40267 53024 60006 82031 91800 333 10210 20027=
07190,1997-03-02 21:00:00,14,1029.3,2.5,63,7,20000,18.52,,,270,,,,,,,,,,,wg-a,,,,AAXX 02214 07190 12670 32710 10140 20070 30108 40293 53025 60006 83500 92100=
07190,1997-03-03 00:00:00,12,1030.2,0.8,71,7,20000,11.112,,,220,,,,,,,,,,,wg-a,,,,AAXX 03004 07190 12670 72206 10120 20070 30116 40302 53008 60006 875// 90000=
07190,1997-03-03 03:00:00,12,1029.7,-0.5,82,9,20000,18.52,,,190,,,,,,,,,,,wg-a,,,,AAXX 03034 07190 12570 71910 10120 20090 30111 40297 58005 60006 875// 90300=
07190,1997-03-03 06:00:00,11,1030.7,0.9,82,8,15000,11.112,,,200,11.1,14.3,,,,,,,,,wg-a,,,,AAXX 03064 07190 02565 72006 10110 20080 30120 40307 53009 60006 8457/ 90600 333 10143 20111 60004=
07190,1997-03-03 09:00:00,10,1033.4,2.6,87,8,7000,22.224,,,320,,,,,,,,,,60,wg-a,,,,AAXX 03094 07190 02457 73212 10100 20080 30146 40334 51026 61000 76062 8657/ 90900 333 ////=
07190,1997-03-03 12:00:00,10,1035,1.6,82,7,15000,14.816,,,340,,,,,,,,,,3,wg-a,,,,AAXX 03124 07190 02465 83408 10100 20070 30162 40350 51016 61000 70362 8787/ 91200 333 6100=
07190,1997-03-03 15:00:00,10,1034.4,-0.6,87,8,7000,3.704,,,70,,,,,,,,,,51,wg-a,,,,AAXX 03154 07190 02257 80702 10100 20080 30156 40344 57006 61000 75165 875// 91500 333 ////=
07190,1997-03-03 18:00:00,9,1034.2,-0.3,93,8,9000,3.704,,,220,8.9,11.5,,,,,,,,1,wg-a,,,,AAXX 03184 07190 02459 82202 10090 20080 30153 40342 57003 60006 70165 878// 91800 333 10115 20089 61000=
07190,1997-03-03 21:00:00,9,1033.7,-0.5,93,8,7000,3.704,,,240,,,,0,,,,,,3,wg-a,,,,AAXX 03214 07190 12457 82402 10090 20080 30148 40337 58005 60007 70365 875// 92100=
07190,1997-03-04 00:00:00,8,1032.5,-1.2,100,8,500,11.112,,,160,,,,,,,,,,1,wg-a,,,,AAXX 04004 07190 12600 81606 10080 20080 30136 40325 56012 60006 70165 875// 90000=
07190,1997-03-04 03:00:00,8,1032.3,-0.2,93,7,500,3.704,,,170,,,,,,,,,,,wg-a,,,,AAXX 04034 07190 12600 81702 10080 20070 30134 40323 56002 60006 8457/ 90300=
07190,1997-03-04 06:00:00,7,1032.4,0.1,100,7,3000,7.408,,,230,7.2,8.9,,,,,,,,10,wg-a,,,,AAXX 04064 07190 02730 72304 10070 20070 30135 40324 53001 60006 71022 81532 90600 333 10089 20072 60004=
07190,1997-03-04 09:00:00,10,1032.3,0.1,93,9,500,3.704,,,10,,,,,,,,,,,wg-a,,,,AAXX 04094 07190 12/00 70102 10100 20090 30136 40323 52001 60006 85072 90900=
07190,1997-03-04 12:00:00,15,1030.5,-1.5,72,10,12000,11.112,,,10,,,,,,,,,,,wg-a,,,,AAXX 04124 07190 12/62 70106 10150 20100 30121 40305 58015 60006 8703/ 91200=
07190,1997-03-04 15:00:00,14,1029.5,-1,77,10,10000,11.112,,,10,,,,,,,,,,,wg-a,,,,AAXX 04154 07190 12/60 70106 10140 20100 30111 40295 56010 60006 86032 91500=
07190,1997-03-04 18:00:00,12,1029.4,-0.2,88,10,8000,7.408,,,350,7.4,15.3,,,,,,,,,wg-a,,,,AAXX 04184 07190 12858 63504 10120 20100 30109 40294 56002 60006 81531 91800 333 10153 20074=
07190,1997-03-04 21:00:00,10,1028.2,-1.4,93,9,7000,7.408,,,340,,,,,,,,,,,wg-a,,,,AAXX 04214 07190 12857 73404 10100 20090 30095 40282 58014 60006 82572 92100=
07190,1997-03-05 00:00:00,9,1027.2,-1,93,8,4500,7.408,,,350,,,,,,,,,,10,wg-a,,,,AAXX 05004 07190 12845 83504 10090 20080 30085 40272 56010 60006 71022 8357/ 90000=
07190,1997-03-05 03:00:00,9,1027.1,-0.1,100,9,500,11.112,,,360,,,,0,,,,,,21,wg-a,,,,AAXX 05034 07190 12200 83606 10090 20090 30084 40271 58001 60007 72162 8457/ 90300=
07190,1997-03-05 06:00:00,9,1027.1,0,100,9,2200,11.112,,,120,8.4,12.3,,,,,,,,10,wg-a,,,,AAXX 05064 07190 02122 81206 10090 20090 30084 40271 50000 61000 71062 8687/ 90600 333 10123 20084 6000=
07190,1997-03-05 09:00:00,10,1027.4,0.3,100,10,2500,7.408,,,180,,,,0,,,,,,10,wg-a,,,,AAXX 05094 07190 12625 71804 10100 20100 30087 40274 51003 60007 71064 8457/ 90900=
07190,1997-03-05 12:00:00,13,1027.1,-0.1,82,10,10000,3.704,,,100,,,,0,,,,,,1,wg-a,,,,AAXX 05124 07190 02560 71002 10130 20100 30086 40271 58001 60016 70164 83832 91200 333 60007=
07190,1997-03-05 15:00:00,14,1026.5,-0.5,58,6,15000,25.928,,,250,,,,,,,,,,,wg-a,,,,AAXX 05154 07190 12665 62514 10140 20060 30081 40265 55005 60006 86800 91500=
07190,1997-03-05 18:00:00,10,1028.4,1.6,71,5,20000,11.112,,,260,8.6,14.5,,,,,,,,,wg-a,,,,AAXX 05184 07190 12670 /2606 10100 20050 30097 40284 53016 60006 85830 91800 333 10145 20086=
07190,1997-03-06 00:00:00,7,1030,0.2,93,6,10000,3.704,,,200,,,,1,,,,,,21,wg-a,,,,AAXX 06004 07190 02560 82002 10070 20060 30111 40300 50002 60016 72162 875// 90000 333 60017=
07190,1997-03-06 03:00:00,6,1030.7,0.6,100,6,10000,3.704,,,160,,,,3,,,,,,61,wg-a,,,,AAXX 06034 07190 12560 81602 10060 20060 30117 40307 53006 60037 76162 875// 90300=
07190,1997-03-06 06:00:00,5,1031.8,1,100,5,3000,3.704,,,180,5.1,9.9,,,,,6,,,12,wg-a,,,,AAXX 06064 07190 02530 71802 10050 20050 30127 40318 53010 60006 71262 86530 90600 333 10099 20051 60064=
07190,1997-03-06 09:00:00,9,1032.7,1.2,87,7,10000,7.408,,,170,,,,,,,,,,,wg-a,,,,AAXX 06094 07190 12460 21704 10090 20070 30139 40327 51012 60006 82100 90900=
07190,1997-03-06 12:00:00,12,1032.7,0.2,62,5,25000,3.704,,,260,,,,,,,,,,,wg-a,,,,AAXX 06124 07190 12675 52602 10120 20050 30141 40327 52002 60006 84831 91200=
07190,1997-03-06 15:00:00,12,1031.9,-0.8,58,4,500,7.408,,,50,,,,,,,,,,,wg-a,,,,AAXX 06154 07190 12600 70504 10120 20040 30133 40319 55008 60006 86801 91500=
07190,1997-03-06 18:00:00,10,1033.3,1.2,71,5,20000,7.408,,,40,5.1,13.3,,,,,,,,,wg-a,,,,AAXX 06184 07190 12670 /0404 10100 20050 30145 40333 53012 60006 85531 91800 333 10133 20051=
07190,1997-03-07 00:00:00,4,1034.3,0,93,3,0,3.704,,,310,,,,,,,,,,,wg-a,,,,AAXX 07004 07190 12/// /3102 10040 20030 30150 40343 50000 60006 90000=
07190,1997-03-07 06:00:00,2,1033.2,-0,100,2,8000,7.408,,,330,1.6,10.2,,,,,,,,,wg-a,,,,AAXX 07064 07190 02/58 03304 10020 20020 30139 40332 55000 60006 80000 90600 333 10102 20016 60004=
07190,1997-03-07 09:00:00,7,1033.1,0.2,87,5,9000,7.408,,,10,,,,,,,,,,,wg-a,,,,AAXX 07094 07190 12/59 00104 10070 20050 30141 40331 50002 60006 80000 90900=
07190,1997-03-07 12:00:00,13,1032.2,-0.5,62,6,12000,7.408,,,80,,,,,,,,,,,wg-a,,,,AAXX 07124 07190 12562 20804 10130 20060 30136 40322 58005 60006 82100 91200=
07190,1997-03-07 15:00:00,14,1031,-1.1,58,6,15000,11.112,,,110,,,,,,,,,,,wg-a,,,,AAXX 07154 07190 12665 31106 10140 20060 30125 40310 56011 60006 83100 91500=
07190,1997-03-07 18:00:00,10,1031.7,0.4,66,4,15000,7.408,,,100,2.2,13.9,,,,,,,,,wg-a,,,,AAXX 07184 07190 12665 /1004 10100 20040 30129 40317 53004 60006 81400 91800 333 10139 20022=
07190,1997-03-07 21:00:00,8,1032,0.2,71,3,15000,7.408,,,60,,,,,,,,,,,wg-a,,,,AAXX 07214 07190 12/65 00604 10080 20030 30131 40320 51002 60006 80000 92100=
07190,1997-03-08 00:00:00,2,1031.9,-0.5,93,1,12000,3.704,,,240,,,,,,,,,,,wg-a,,,,AAXX 08004 07190 12/62 02402 10020 20010 30126 40319 56005 60006 80000 90000=
07190,1997-03-08 03:00:00,1,1032.4,0.4,93,0,10000,0,,,0,,,,,,,,,,,wg-a,,,,AAXX 08034 07190 12/60 00000 10010 20000 30130 40324 51004 60006 80000 90300=
07190,1997-03-08 06:00:00,0,1033.5,1,100,0,4500,0,,,0,0.2,9.6,,,,,,,,10,wg-a,,,,AAXX 08064 07190 02/45 00000 10000 20000 30140 40335 52010 60006 71000 80000 90600 333 10096 20002 60004=
07190,1997-03-08 09:00:00,6,1034.3,1.2,93,5,4800,7.408,,,30,,,,,,,,,,10,wg-a,,,,AAXX 08094 07190 12248 20304 10060 20050 30152 40343 51012 60006 71000 82100 90900=
07190,1997-03-08 12:00:00,11,1033.6,-0.3,71,6,8000,11.112,,,10,,,,,,,,,,,wg-a,,,,AAXX 08124 07190 12458 /0106 10110 20060 30149 40336 58003 60006 81100 91200=
07190,1997-03-08 15:00:00,14,1032.6,-0.8,58,6,12000,11.112,,,20,,,,,,,,,,,wg-a,,,,AAXX 08154 07190 12/62 30206 10140 20060 30141 40326 55008 60006 80001 91500=
07190,1997-03-08 18:00:00,10,1033.6,0.7,76,6,9000,7.408,,,340,0.2,13.8,,,,,,,,,wg-a,,,,AAXX 08184 07190 12/59 33404 10100 20060 30148 40336 53007 60006 80001 91800 333 10138 20002=
07190,1997-03-08 21:00:00,7,1033.7,-0.1,87,5,7000,7.408,,,320,,,,,,,,,,,wg-a,,,,AAXX 08214 07190 12/57 /3204 10070 20050 30147 40337 58001 60006 80001 92100=
07190,1997-03-09 00:00:00,4,1034.4,0.5,93,3,6000,7.408,,,330,,,,,,,,,,,wg-a,,,,AAXX 09004 07190 12/56 03304 10040 20030 30152 40344 53005 60006 80000 90000=
07190,1997-03-09 03:00:00,3,1034.1,-0.4,93,2,6000,3.704,,,320,,,,,,,,,,,wg-a,,,,AAXX 09034 07190 12/56 23202 10030 20020 30148 40341 58004 60006 80001 90300=
07190,1997-03-09 06:00:00,2,1034.5,0.3,93,1,7000,3.704,,,290,1.4,8.5,,,,,,,,11,wg-a,,,,AAXX 09064 07190 02857 42902 10020 20010 30151 40345 53003 60006 71111 84501 90600 333 10085 20014 60004=
07190,1997-03-09 09:00:00,8,1034.7,0.6,66,2,10000,7.408,,,360,,,,,,,,,,,wg-a,,,,AAXX 09094 07190 12860 13604 10080 20020 30157 40347 50006 60006 81500 90900=
07190,1997-03-09 12:00:00,14,1033.1,-1.2,44,2,20000,11.112,,,20,,,,,,,,,,,wg-a,,,,AAXX 09124 07190 12870 10206 10140 20020 30145 40331 58012 60006 81501 91200=
07190,1997-03-09 18:00:00,12,1031.8,-0.1,54,3,35000,3.704,,,300,1.3,16.6,,,,,,,,,wg-a,,,,AAXX 09184 07190 12/81 03002 10120 20030 30132 40318 55001 60006 80000 91800 333 10166 20013=
07190,1997-03-09 21:00:00,7,1032.7,0.5,76,3,15000,0,,,0,,,,,,,,,,,wg-a,,,,AAXX 09214 07190 12/65 00000 10070 20030 30137 40327 51005 60006 80000 92100=
07190,1997-03-10 00:00:00,3,1033.5,0.5,93,2,15000,3.704,,,260,,,,,,,,,,,wg-a,,,,AAXX 10004 07190 12/65 02602 10030 20020 30142 40335 51005 60006 80000 90000=
07190,1997-03-10 03:00:00,1,1033.8,0.2,93,0,12000,0,,,0,,,,,,,,,,,wg-a,,,,AAXX 10034 07190 12/62 00000 10010 20000 30144 40338 51002 60006 80000 90300=
07190,1997-03-10 06:00:00,1,1034.9,1,93,0,3500,7.408,,,280,0.7,12.2,,,,,,,,10,wg-a,,,,AAXX 10064 07190 02/35 02804 10010 20000 30154 40349 51010 60006 71000 80000 90600 333 10122 20007 60004=
07190,1997-03-10 09:00:00,8,1035.1,0.7,76,4,7000,3.704,,,160,,,,,,,,,,,wg-a,,,,AAXX 10094 07190 12/57 01602 10080 20040 30161 40351 50007 60006 80000 90900=
07190,1997-03-10 12:00:00,16,1033.8,-0.7,51,6,10000,3.704,,,70,,,,,,,,,,,wg-a,,,,AAXX 10124 07190 12/60 00702 10160 20060 30154 40338 58007 60006 80000 91200=
07190,1997-03-10 15:00:00,18,1032.1,-1.6,42,5,10000,7.408,,,320,,,,,,,,,,,wg-a,,,,AAXX 10154 07190 12/60 03204 10180 20050 30138 40321 58016 60006 80000 91500=
07190,1997-03-10 18:00:00,13,1032.5,0.1,67,7,10000,0,,,0,0.8,17.9,,,,,,,,,wg-a,,,,AAXX 10184 07190 12/60 00000 10130 20070 30139 40325 53001 60006 80000 91800 333 10179 20008=
07190,1997-03-10 21:00:00,8,1033.1,0.3,81,5,8000,0,,,0,,,,,,,,,,,wg-a,,,,AAXX 10214 07190 12/58 00000 10080 20050 30142 40331 51003 60006 80000 92100=
07190,1997-03-11 00:00:00,5,1033.3,0,87,3,7000,0,,,0,,,,,,,,,,,wg-a,,,,AAXX 11004 07190 12/57 00000 10050 20030 30142 40333 50000 60006 80000 90000=
07190,1997-03-11 03:00:00,4,1033.3,-0.1,93,3,6000,0,,,0,,,,,,,,,,,wg-a,,,,AAXX 11034 07190 12/56 00000 10040 20030 30141 40333 55001 60006 80000 90300=
07190,1997-03-11 06:00:00,5,1033.8,0.5,93,4,4500,11.112,,,10,2.7,13.2,,,,,,,,10,wg-a,,,,AAXX 11064 07190 02/45 00106 10050 20040 30146 40338 53005 60006 71000 80000 90600 333 10132 20027 60004=
07190,1997-03-11 09:00:00,10,1033.8,0.4,71,5,6000,7.408,,,10,,,,,,,,,,,wg-a,,,,AAXX 11094 07190 12/56 00104 10100 20050 30150 40338 50004 60006 80000 90900=
07190,1997-03-11 12:00:00,17,1032.1,-1.3,48,6,10000,18.52,,,20,,,,,,,,,,,wg-a,,,,AAXX 11124 07190 12/60 00210 10170 20060 30137 40321 58013 60006 80000 91200=
07190,1997-03-11 15:00:00,18,1030.5,-1.4,34,2,10000,25.928,,,20,,,,,,,,,,,wg-a,,,,AAXX 11154 07190 12/60 00214 10180 20020 30123 40305 56014 60006 80000 91500=
07190,1997-03-11 18:00:00,14,1030.8,-0,58,6,7000,11.112,,,340,4.5,18.4,,,,,,,,,wg-a,,,,AAXX 11184 07190 12/57 03406 10140 20060 30123 40308 55000 60006 80000 91800 333 10184 20045=
07190,1997-03-12 00:00:00,5,1031.6,-0.2,87,3,8000,11.112,,,320,,,,,,,,,,,wg-a,,,,AAXX 12004 07190 12/58 03206 10050 20030 30125 40316 58002 60006 80000 90000=
07190,1997-03-12 03:00:00,6,1031.2,-0.4,81,3,500,7.408,,,320,,,,,,,,,,,wg-a,,,,AAXX 12034 07190 12/00 /3204 10060 20030 30121 40312 56004 60006 90300=
07190,1997-03-12 06:00:00,2,1032.2,0.8,93,1,2500,0,,,0,2.4,13.7,,,,,,,,10,wg-a,,,,AAXX 12064 07190 02/25 00000 10020 20010 30129 40322 53008 60006 71000 80000 90600 333 10137 20024 60004=
07190,1997-03-12 09:00:00,10,1031.7,0,71,5,4500,7.408,,,210,,,,,,,,,,10,wg-a,,,,AAXX 12094 07190 12/45 02104 10100 20050 30129 40317 50000 60006 71000 80000 90900=
07190,1997-03-12 12:00:00,16,1030.1,-1.2,55,7,0,3.704,,,170,,,,,,,,,,,wg-a,,,,AAXX 12124 07190 12/// 01702 10160 20070 30117 40301 58012 60006 80000 91200=
07190,1997-03-12 15:00:00,19,1027.8,-2,46,7,8000,7.408,,,200,,,,,,,,,,,wg-a,,,,AAXX 12154 07190 12/58 02004 10190 20070 30097 40278 56020 60006 80000 91500=
07190,1997-03-12 18:00:00,14,1028,-0.3,55,5,8000,11.112,,,230,2,19.2,,,,,,,,,wg-a,,,,AAXX 12184 07190 12/58 02306 10140 20050 30096 40280 55003 60006 80000 91800 333 10192 20020=
07190,1997-03-12 21:00:00,13,1028.6,0.5,62,6,10000,11.112,,,240,,,,,,,,,,,wg-a,,,,AAXX 12214 07190 12/60 02406 10130 20060 30101 40286 53005 60006 80000 92100=
07190,1997-03-13 00:00:00,9,1028.7,-0.2,76,5,10000,7.408,,,220,,,,,,,,,,,wg-a,,,,AAXX 13004 07190 12/60 02204 10090 20050 30099 40287 58002 60006 80000 90000=
07190,1997-03-13 03:00:00,6,1028.9,-0,87,4,8000,0,,,0,,,,,,,,,,,wg-a,,,,AAXX 13034 07190 12/58 00000 10060 20040 30099 40289 55000 60006 80000 90300=
07190,1997-03-13 06:00:00,6,1029.4,0.5,87,4,3400,7.408,,,340,4.7,13.9,,,,,,,,10,wg-a,,,,AAXX 13064 07190 02634 43404 10060 20040 30104 40294 53005 60006 71000 82201 90600 333 10139 20047 60004=
07190,1997-03-13 09:00:00,11,1030.6,1.5,76,7,4500,3.704,,,30,,,,,,,,,,10,wg-a,,,,AAXX 13094 07190 12745 /0302 10110 20070 30119 40306 51015 60006 71011 86501 90900=
07190,1997-03-13 12:00:00,14,1029.8,-0.6,58,6,500,14.816,,,360,,,,,,,,,,,wg-a,,,,AAXX 13124 07190 12500 23608 10140 20060 30113 40298 58006 60006 82200 91200=
07190,1997-03-13 18:00:00,11,1028,-0.6,71,6,3500,0,,,0,5.9,15.3,,,,,,,,10,wg-a,,,,AAXX 13184 07190 12/35 20000 10110 20060 30094 40280 56006 60006 71000 80001 91800 333 10153 20059=
07190,1997-03-13 21:00:00,6,1027.6,-0.8,87,4,3500,3.704,,,170,,,,,,,,,,10,wg-a,,,,AAXX 13214 07190 12/35 /1702 10060 20040 30086 40276 56008 60006 71000 80001 92100=
07190,1997-03-14 00:00:00,3,1026.5,-1.2,93,2,2500,3.704,,,200,,,,,,,,,,10,wg-a,,,,AAXX 14004 07190 12/25 12002 10030 20020 30074 40265 58012 60006 71000 80001 90000=
07190,1997-03-14 06:00:00,1,1024.8,-1,100,1,100,3.704,,,230,0.8,10.8,,,,,,,,45,wg-a,,,,AAXX 14064 07190 02/01 92302 10010 20010 30056 40248 56010 60006 74541 89/// 90600 333 10108 20008 60004=
07190,1997-03-14 09:00:00,7,1024.2,-0.2,87,5,3500,3.704,,,150,,,,,,,,,,10,wg-a,,,,AAXX 14094 07190 12/35 /1502 10070 20050 30054 40242 58002 60006 71041 80001 90900=
07190,1997-03-14 12:00:00,12,1023,-0.9,62,5,500,22.224,,,260,,,,,,,,,,3,wg-a,,,,AAXX 14124 07190 12600 82612 10120 20050 30045 40230 56009 60006 70341 8657/ 91200=
07190,1997-03-14 15:00:00,10,1022.8,-0.3,71,5,8000,14.816,,,300,,,,,,,,,,,wg-a,,,,AAXX 14154 07190 12558 83008 10100 20050 30042 40228 55003 60006 875// 91500=
07190,1997-03-14 18:00:00,9,1023.6,0.7,87,7,6000,3.704,,,270,1.2,12.3,,,,,,,,61,wg-a,,,,AAXX 14184 07190 02656 82702 10090 20070 30049 40236 53007 61000 76162 8457/ 91800 333 10123 20012 6001=
07190,1997-03-14 21:00:00,8,1025.1,1.4,93,7,12000,7.408,,,210,,,,0,,,,,,60,wg-a,,,,AAXX 14214 07190 12562 82104 10080 20070 30063 40251 53014 60007 76062 875// 92100=
07190,1997-03-15 00:00:00,7,1025.3,0.2,93,6,10000,7.408,,,170,,,,,,,,,,1,wg-a,,,,AAXX 15004 07190 02560 61704 10070 20060 30065 40253 53002 60016 70162 86500 90000 333 61000=
07190,1997-03-15 06:00:00,7,1025.8,0.5,93,6,500,7.408,,,190,6.6,9.1,,,,,2,,,,wg-a,,,,AAXX 15064 07190 02400 71904 10070 20060 30069 40258 50005 60006 8653/ 90600 333 10091 20066 60024=
07190,1997-03-15 09:00:00,9,1026.9,1.3,87,7,8000,11.112,,,180,,,,,,,,,,,wg-a,,,,AAXX 15094 07190 12558 71806 10090 20070 30082 40269 51013 60006 8457/ 90900=
07190,1997-03-15 12:00:00,12,1026.2,-0.5,76,8,9000,14.816,,,190,,,,,,,,,,,wg-a,,,,AAXX 15124 07190 12559 71908 10120 20080 30077 40262 57005 60006 8457/ 91200=
07190,1997-03-15 15:00:00,13,1025.1,-1.1,58,5,15000,14.816,,,250,,,,,,,,,,,wg-a,,,,AAXX 15154 07190 12565 72508 10130 20050 30066 40251 56011 60006 8587/ 91500=
07190,1997-03-15 18:00:00,11,1025.8,0.6,76,7,7000,3.704,,,210,6.9,13.4,,,,,,,,61,wg-a,,,,AAXX 15184 07190 02457 82102 10110 20070 30072 40258 53006 61000 76162 868// 91800 333 10134 20069 6000=
07190,1997-03-15 21:00:00,10,1026.6,0.7,87,8,12000,11.112,,,210,,,,,,,,,,3,wg-a,,,,AAXX 15214 07190 02562 82106 10100 20080 30079 40266 52007 61000 70362 885// 92100 333 ////=
07190,1997-03-16 00:00:00,10,1026.9,0.3,87,8,15000,7.408,,,190,,,,,,,,,,3,wg-a,,,,AAXX 16004 07190 02465 81904 10100 20080 30082 40269 53003 61000 70362 885// 90000 333 ////=
07190,1997-03-16 03:00:00,9,1026.6,-0.3,93,8,15000,7.408,,,220,,,,,,,,,,,wg-a,,,,AAXX 16034 07190 12465 82204 10090 20080 30079 40266 58003 60006 885// 90300=
07190,1997-03-16 06:00:00,9,1027.9,1.2,93,8,7000,7.408,,,180,8.9,10.9,,,,,,,,,wg-a,,,,AAXX 16064 07190 02557 81804 10090 20080 30091 40279 53012 60006 875// 90600 333 10109 20089 60004=
07190,1997-03-16 12:00:00,15,1027.4,-0.5,67,9,12000,22.224,,,250,,,,,,,,,,,wg-a,,,,AAXX 16124 07190 12562 72512 10150 20090 30091 40274 58005 60006 8683/ 91200=
07190,1997-03-16 18:00:00,12,1026.2,0.1,76,8,500,14.816,,,320,8.9,16.5,,,,,,,,,wg-a,,,,AAXX 16184 07190 12500 73208 10120 20080 30077 40262 53001 60006 8683/ 91800 333 10165 20089=
07190,1997-03-16 21:00:00,11,1026.2,-0.1,76,7,8000,18.52,,,240,,,,,,,,,,,wg-a,,,,AAXX 16214 07190 12558 62410 10110 20070 30076 40262 57001 60006 86800 92100=
07190,1997-03-17 00:00:00,11,1026,-0.2,76,7,10000,11.112,,,190,,,,,,,,,,,wg-a,,,,AAXX 17004 07190 12560 81906 10110 20070 30074 40260 57002 60006 878// 90000=
07190,1997-03-17 03:00:00,11,1025.3,-0.7,76,7,10000,0,,,0,,,,,,,,,,,wg-a,,,,AAXX 17034 07190 12560 70000 10110 20070 30067 40253 58007 60006 878// 90300=
07190,1997-03-17 06:00:00,10,1026.7,1.3,76,6,7000,11.112,,,300,7.7,12,,,,,,,,,wg-a,,,,AAXX 17064 07190 02557 73006 10100 20060 30080 40267 53013 60006 878// 90600 333 10120 20077 60004=
07190,1997-03-17 09:00:00,12,1027.5,0.9,71,7,10000,0,,,0,,,,,,,,,,,wg-a,,,,AAXX 17094 07190 12560 70000 10120 20070 30089 40275 53009 60006 875// 90900=
07190,1997-03-17 12:00:00,13,1027.4,-0,67,7,15000,7.408,,,50,,,,,,,,,,,wg-a,,,,AAXX 17124 07190 12565 70504 10130 20070 30089 40274 55000 60006 875// 91200=
07190,1997-03-17 15:00:00,14,1026.1,-1.2,63,7,15000,18.52,,,320,,,,,,,,,,,wg-a,,,,AAXX 17154 07190 12565 63210 10140 20070 30077 40261 56012 60006 86830 91500=
07190,1997-03-17 18:00:00,11,1026.4,0.1,71,6,10000,7.408,,,270,9.5,,,,,,,,,,wg-a,,,,AAXX 17184 07190 12660 32704 10110 20060 30078 40264 53001 60006 81401 91800 333 20095=
07190,1997-03-17 21:00:00,7,1026.7,0,81,4,10000,3.704,,,260,,,,,,,,,,,wg-a,,,,AAXX 17214 07190 12/60 12602 10070 20040 30078 40267 50000 60006 80001 92100=
07190,1997-03-18 00:00:00,5,1025.7,-1.1,93,4,500,3.704,,,240,,,,,,,,,,,wg-a,,,,AAXX 18004 07190 12/00 /2402 10050 20040 30067 40257 58011 60006 80001 90000=
07190,1997-03-18 03:00:00,2,1023.3,-0,100,2,500,3.704,,,160,,,,,,,,,,,wg-a,,,,AAXX 18034 07190 12/00 /1602 10020 20020 30042 40233 54000 60006 80001 90300=
07190,1997-03-18 06:00:00,2,1021.3,-2,100,2,1000,0,,,0,1.6,11.3,,,,,,,,10,wg-a,,,,AAXX 18064 07190 02/10 40000 10020 20020 30022 40213 56020 60006 71000 80001 90600 333 10113 20016 60004=
07190,1997-03-18 09:00:00,9,1018.9,-1.9,81,6,8000,3.704,,,220,,,,,,,,,,,wg-a,,,,AAXX 18094 07190 12458 42202 10090 20060 30003 40189 58019 60006 81101 90900=
07190,1997-03-18 12:00:00,15,1015.3,-3.2,63,8,10000,3.704,,,260,,,,,,,,,,,wg-a,,,,AAXX 18124 07190 12560 42602 10150 20080 39971 40153 57032 60006 81101 91200=
07190,1997-03-18 15:00:00,18,1010.1,-4.9,49,7,20000,7.408,,,70,,,,,,,,,,,wg-a,,,,AAXX 18154 07190 12570 70704 10180 20070 39922 40101 56049 60006 81142 91500=
07190,1997-03-18 18:00:00,15,1009.4,-0.8,59,7,12000,25.928,,,280,2.4,18.6,,,,,,,,,wg-a,,,,AAXX 18184 07190 12662 82814 10150 20070 39914 40094 55008 60006 878// 91800 333 10186 20024=
07190,1997-03-18 21:00:00,11,1009.4,-0.3,58,3,10000,22.224,,,260,,,,,,,,,,,wg-a,,,,AAXX 18214 07190 12760 82612 10110 20030 39911 40094 58003 60006 875// 92100=
07190,1997-03-19 00:00:00,9,1009.1,-0.5,71,4,15000,18.52,,,220,,,,,,,,,,21,wg-a,,,,AAXX 19004 07190 02565 72210 10090 20040 39906 40091 56005 61000 72162 878// 90000 333 6100=
07190,1997-03-19 06:00:00,8,1007.3,-0.8,71,3,15000,22.224,,,240,7.9,15.2,,,,,,,,80,wg-a,,,,AAXX 19064 07190 02665 72412 10080 20030 39888 40073 56008 61000 78086 878// 90600 333 10152 20079 6100=
07190,1997-03-19 09:00:00,7,1006.8,-0.5,76,3,15000,18.52,,,200,,,,,,,,,,60,wg-a,,,,AAXX 19094 07190 02665 72010 10070 20030 39883 40068 58005 61000 76086 8357/ 90900 333 ////=
07190,1997-03-19 12:00:00,7,1006.4,-0.4,81,4,15000,18.52,,,220,,,,0,,,,,,21,wg-a,,,,AAXX 19124 07190 02565 82210 10070 20040 39879 40064 55004 60016 72186 8652/ 91200 333 60007=
07190,1997-03-19 15:00:00,8,1005.4,-0.9,76,4,20000,22.224,,,240,,,,0,,,,,,60,wg-a,,,,AAXX 19154 07190 12470 82412 10080 20040 39870 40054 56009 60007 76062 878// 91500=
07190,1997-03-19 18:00:00,7,1006.6,1.1,87,5,12000,18.52,,,280,6.9,8.4,,,,,,,,21,wg-a,,,,AAXX 19184 07190 02462 82810 10070 20050 39881 40066 53011 61000 72162 8783/ 91800 333 10084 20069 6001=
07190,1997-03-19 21:00:00,7,1010,3.3,81,4,12000,22.224,,,300,,,,0,,,,,,3,wg-a,,,,AAXX 19214 07190 12562 /3012 10070 20040 39914 40100 53033 60007 70386 84831 92100=
07190,1997-03-20 00:00:00,6,1012.6,2.5,75,2,12000,18.52,,,300,,,,,,,,,,3,wg-a,,,,AAXX 20004 07190 12662 33010 10060 20020 39939 40126 53025 60016 70386 83540 90000=
07190,1997-03-20 03:00:00,6,1014.4,1.7,81,3,10000,14.816,,,270,,,,,,,,,,,wg-a,,,,AAXX 20034 07190 12460 82708 10060 20030 39956 40144 51017 60006 878// 90300=
07190,1997-03-20 06:00:00,5,1016.4,1.9,87,3,6000,11.112,,,320,4.5,7.6,,,,,,,,50,wg-a,,,,AAXX 20064 07190 02356 83206 10050 20030 39975 40164 53019 61000 75051 877// 90600 333 10076 20045 6002=
07190,1997-03-20 09:00:00,3,1019,2.5,93,2,7000,11.112,,,320,,,,1,,,,,,20,wg-a,,,,AAXX 20094 07190 12257 83206 10030 20020 30000 40190 51025 60017 72052 877// 90900=
07190,1997-03-20 12:00:00,5,1019.5,0.6,75,1,9000,14.816,,,300,,,,0,,,,,,1,wg-a,,,,AAXX 20124 07190 02459 73008 10050 20010 30006 40195 50006 60016 70165 875// 91200 333 60007=
07190,1997-03-20 15:00:00,6,1019.9,0.5,70,1,15000,11.112,,,290,,,,0,,,,,,1,wg-a,,,,AAXX 20154 07190 12565 72906 10060 20010 30011 40199 53005 60007 70186 878// 91500=
07190,1997-03-20 18:00:00,6,1021.4,1.4,70,1,10000,7.408,,,260,2.7,6.2,,,,,,,,1,wg-a,,,,AAXX 20184 07190 12560 82604 10060 20010 30025 40214 53014 60006 70186 875// 91800 333 10062 20027=
07190,1997-03-20 21:00:00,5,1021.7,0.3,81,2,10000,11.112,,,170,,,,,,,,,,,wg-a,,,,AAXX 20214 07190 12660 71706 10050 20020 30028 40217 50003 60006 875// 92100=
07190,1997-03-21 00:00:00,3,1021.1,-0.8,87,1,7000,7.408,,,170,,,,,,,,,,,wg-a,,,,AAXX 21004 07190 12757 71704 10030 20010 30020 40211 58008 60006 875// 90000=
07190,1997-03-21 03:00:00,4,1020.4,-0.6,87,2,7000,7.408,,,170,,,,0,,,,,,21,wg-a,,,,AAXX 21034 07190 12557 71704 10040 20020 30014 40204 58006 60007 72122 875// 90300=
07190,1997-03-21 06:00:00,4,1019.9,-0.5,87,2,6000,14.816,,,170,2,5.6,,,,,2,,,1,wg-a,,,,AAXX 21064 07190 02656 71708 10040 20020 30009 40199 56005 60006 70162 875// 90600 333 10056 20020 60024=
07190,1997-03-21 09:00:00,5,1020.6,0.8,93,4,6000,7.408,,,200,,,,0,,,,,,51,wg-a,,,,AAXX 21094 07190 12556 82004 10050 20040 30017 40206 51008 60007 75165 885// 90900=
07190,1997-03-21 12:00:00,8,1021,0.6,76,4,8000,14.816,,,240,,,,0,,,,,,1,wg-a,,,,AAXX 21124 07190 02558 /2408 10080 20040 30023 40210 53006 60016 70186 86800 91200 333 60007=
07190,1997-03-21 15:00:00,10,1021,0.1,57,2,25000,22.224,,,330,,,,,,,,,,,wg-a,,,,AAXX 21154 07190 12675 43312 10100 20020 30024 40210 53001 60006 84800 91500=
07190,1997-03-21 18:00:00,6,1023,1.7,65,0,500,7.408,,,320,3.7,9.8,,,,,,,,,wg-a,,,,AAXX 21184 07190 12700 23204 10060 20000 30041 40230 53017 60006 82501 91800 333 10098 20037=
07190,1997-03-21 21:00:00,4,1024.7,1.6,75,0,15000,7.408,,,310,,,,,,,,,,,wg-a,,,,AAXX 21214 07190 12765 63104 10040 20000 30057 40247 51016 60006 86501 92100=
07190,1997-03-22 00:00:00,5,1025.6,0.9,70,0,15000,7.408,,,340,,,,,,,,,,,wg-a,,,,AAXX 22004 07190 12765 73404 10050 20000 30066 40256 51009 60006 875// 90000=
07190,1997-03-22 06:00:00,0,1027.5,1.4,93,-1,8000,3.704,,,350,-0.6,5.8,,,,,,,,,wg-a,,,,AAXX 22064 07190 02658 33502 10000 21010 30081 40275 53014 60006 81531 90600 333 10058 21006 60004=
07190,1997-03-22 09:00:00,6,1027.8,0.7,70,1,10000,11.112,,,30,,,,,,,,,,,wg-a,,,,AAXX 22094 07190 12560 30306 10060 20010 30088 40278 51007 60006 81101 90900=
07190,1997-03-22 12:00:00,9,1026.8,-0.8,46,-2,15000,11.112,,,20,,,,,,,,,,,wg-a,,,,AAXX 22124 07190 12665 40206 10090 21020 30080 40268 58008 60006 83201 91200=
07190,1997-03-22 15:00:00,10,1025.3,-1.4,32,-6,20000,7.408,,,40,,,,,,,,,,,wg-a,,,,AAXX 22154 07190 12670 /0404 10100 21060 30066 40253 56014 60006 81131 91500=
07190,1997-03-22 18:00:00,7,1025,-0.5,42,-5,500,11.112,,,30,-0.2,10.3,,,,,,,,,wg-a,,,,AAXX 22184 07190 12/00 20306 10070 21050 30061 40250 55005 60006 81041 91800 333 10103 21002=
07190,1997-03-22 21:00:00,3,1025.8,0.5,65,-3,25000,7.408,,,320,,,,,,,,,,,wg-a,,,,AAXX 22214 07190 12/75 03204 10030 21030 30066 40258 53005 60006 80000 92100=
07190,1997-03-23 00:00:00,0,1024.7,-1.3,80,-3,20000,3.704,,,330,,,,,,,,,,,wg-a,,,,AAXX 23004 07190 12/70 33302 10000 21030 30053 40247 55013 60006 80001 90000=
07190,1997-03-23 03:00:00,-2,1021.8,-2.9,93,-3,20000,3.704,,,260,,,,,,,,,,,wg-a,,,,AAXX 23034 07190 12/70 62602 11020 21030 30024 40218 56029 60006 80006 90300=
07190,1997-03-23 06:00:00,-1,1019.7,-2,86,-3,12000,0,,,0,-2.3,7,,,,,,,,,wg-a,,,,AAXX 23064 07190 02/62 70000 11010 21030 30004 40197 56020 60006 83078 90600 333 10070 21023 60004=
07190,1997-03-23 09:00:00,3,1017.3,-2.1,75,-1,12000,7.408,,,200,,,,,,,,,,,wg-a,,,,AAXX 23094 07190 12/62 82004 10030 21010 39983 40173 58021 60006 8702/ 90900=
07190,1997-03-23 12:00:00,8,1013.3,-3.6,57,0,12000,18.52,,,170,,,,,,,,,,,wg-a,,,,AAXX 23124 07190 12/62 81710 10080 20000 39947 40133 58036 60006 8807/ 91200=
07190,1997-03-23 15:00:00,10,1009.6,-3.5,57,2,15000,11.112,,,210,,,,,,,,,,,wg-a,,,,AAXX 23154 07190 12/65 82106 10100 20020 39912 40096 56035 60006 8707/ 91500=
07190,1997-03-23 18:00:00,10,1009.4,-0.2,53,1,15000,18.52,,,250,-1.4,10.4,,,,,,,,1,wg-a,,,,AAXX 23184 07190 02765 72510 10100 20010 39910 40094 55002 60006 70162 82572 91800 333 10104 21014 61000=
07190,1997-03-23 21:00:00,6,1010.5,0.9,93,5,15000,7.408,,,200,,,,1,,,,,,21,wg-a,,,,AAXX 23214 07190 12665 72004 10060 20050 39919 40105 53009 60017 72162 8557/ 92100=
07190,1997-03-24 00:00:00,6,1010,-0.5,87,4,12000,11.112,,,250,,,,,,,,,,1,wg-a,,,,AAXX 24004 07190 12562 /2506 10060 20040 39914 40100 58005 60016 70162 83570 90000=
07190,1997-03-24 03:00:00,6,1009.8,-0.2,93,5,10000,3.704,,,210,,,,,,,,,,,wg-a,,,,AAXX 24034 07190 12560 82102 10060 20050 39912 40098 56002 60006 875// 90300=
07190,1997-03-24 06:00:00,6,1010.6,0.7,93,5,8000,0,,,0,5.5,10.1,,,,,,,,60,wg-a,,,,AAXX 24064 07190 02458 80000 10060 20050 39919 40106 53007 61000 76062 875// 90600 333 10101 20055 6001=
07190,1997-03-24 09:00:00,7,1011.3,0.8,93,6,500,7.408,,,170,,,,1,,,,,,60,wg-a,,,,AAXX 24094 07190 12500 81704 10070 20060 39927 40113 51008 60017 76062 875// 90900=
07190,1997-03-24 12:00:00,9,1011.4,0.2,81,6,10000,7.408,,,160,,,,,,,,,,1,wg-a,,,,AAXX 24124 07190 02460 81604 10090 20060 39929 40114 50002 60016 70162 878// 91200 333 61000=
07190,1997-03-24 15:00:00,11,1010.9,-0.3,71,6,15000,3.704,,,200,,,,,,,,,,,wg-a,,,,AAXX 24154 07190 12565 72002 10110 20060 39926 40109 57003 60006 878// 91500=
07190,1997-03-24 18:00:00,9,1011.1,0.1,81,6,12000,3.704,,,130,5.8,10.7,,,,,,,,,wg-a,,,,AAXX 24184 07190 12662 71302 10090 20060 39927 40111 53001 60006 878// 91800 333 10107 20058=
07190,1997-03-24 21:00:00,8,1012.1,0.9,87,6,13000,0,,,0,,,,,,,,,,60,wg-a,,,,AAXX 24214 07190 02763 80000 10080 20060 39936 40121 51009 61000 76062 8457/ 92100 333 ////=
07190,1997-03-25 00:00:00,5,1012.5,0.2,100,5,10000,3.704,,,180,,,,,,,,,,1,wg-a,,,,AAXX 25004 07190 02860 61802 10050 20050 39938 40125 51002 61000 70162 83530 90000 333 6100=
07190,1997-03-25 03:00:00,5,1012.8,0.2,100,5,10000,3.704,,,200,,,,,,,,,,,wg-a,,,,AAXX 25034 07190 12660 82002 10050 20050 39940 40128 50002 60006 875// 90300=
07190,1997-03-25 06:00:00,5,1014.2,1.4,93,4,7000,3.704,,,120,4.4,9.1,,,,,,,,21,wg-a,,,,AAXX 25064 07190 02657 81202 10050 20040 39954 40142 53014 61000 72162 8357/ 90600 333 10091 20044 6001=
07190,1997-03-25 09:00:00,8,1015.6,1.6,87,6,500,3.704,,,210,,,,0,,,,,,21,wg-a,,,,AAXX 25094 07190 12500 82102 10080 20060 39970 40156 51016 60007 72162 8387/ 90900=
07190,1997-03-25 12:00:00,10,1016.4,0.9,71,5,6000,11.112,,,310,,,,,,,,,,3,wg-a,,,,AAXX 25124 07190 12556 73106 10100 20050 39979 40164 52009 60016 70362 8687/ 91200=
07190,1997-03-25 15:00:00,10,1017.1,0.7,76,6,9000,7.408,,,220,,,,,,,,,,,wg-a,,,,AAXX 25154 07190 12459 72204 10100 20060 39986 40171 53007 60006 8687/ 91500=
07190,1997-03-25 18:00:00,9,1018.9,1.7,81,6,500,3.704,,,280,4.9,10.8,,,,,,,,,wg-a,,,,AAXX 25184 07190 12500 82802 10090 20060 30003 40189 53017 60006 875// 91800 333 10108 20049=
07190,1997-03-25 21:00:00,7,1020.6,1.6,93,6,500,3.704,,,230,,,,,,,,,,,wg-a,,,,AAXX 25214 07190 12700 /2302 10070 20060 30019 40206 51016 60006 85500 92100=
07190,1997-03-26 00:00:00,6,1021.2,0.5,100,6,4000,3.704,,,170,,,,,,,,,,10,wg-a,,,,AAXX 26004 07190 12740 81702 10060 20060 30024 40212 51005 60006 71022 877// 90000=
07190,1997-03-26 03:00:00,5,1022,0.7,100,5,4000,3.704,,,220,,,,,,,,,,10,wg-a,,,,AAXX 26034 07190 12540 82202 10050 20050 30031 40220 53007 60006 71022 875// 90300=
07190,1997-03-26 06:00:00,5,1023.2,1.2,100,5,2500,7.408,,,200,4.8,9.2,,,,,,,,10,wg-a,,,,AAXX 26064 07190 02525 72004 10050 20050 30043 40232 53012 60006 71022 875// 90600 333 10092 20048 60004=
07190,1997-03-26 12:00:00,14,1021.6,-0.9,55,5,15000,14.816,,,170,,,,,,,,,,,wg-a,,,,AAXX 26124 07190 12565 61708 10140 20050 30033 40216 58009 60006 86401 91200=
07190,1997-03-26 18:00:00,13,1020.9,0.5,51,3,20000,11.112,,,240,5,15.1,,,,,,,,,wg-a,,,,AAXX 26184 07190 12/70 72406 10130 20030 30025 40209 52005 60006 83032 91800 333 10151 20050=
07190,1997-03-26 21:00:00,12,1021.6,0.7,54,3,15000,14.816,,,190,,,,,,,,,,,wg-a,,,,AAXX 26214 07190 12/65 71908 10120 20030 30032 40216 51007 60006 83032 92100=
07190,1997-03-27 00:00:00,11,1021.3,-0.4,58,3,15000,14.816,,,170,,,,,,,,,,,wg-a,,,,AAXX 27004 07190 12/65 61708 10110 20030 30028 40213 56004 60006 84032 90000=
07190,1997-03-27 03:00:00,10,1021.5,0.1,76,6,500,14.816,,,170,,,,,,,,,,61,wg-a,,,,AAXX 27034 07190 02400 81708 10100 20060 30029 40215 53001 61000 76162 885// 90300 333 ////=
07190,1997-03-27 06:00:00,9,1022.2,0.7,87,7,9000,7.408,,,240,,,,,,,1,,,3,wg-a,,,,AAXX 27064 07190 02559 82404 10090 20070 30036 40222 53007 60006 70362 878// 90600 333 60014=
07190,1997-03-27 09:00:00,11,1023,0.9,87,9,20000,14.816,,,210,,,,,,,,,,,wg-a,,,,AAXX 27094 07190 12570 82108 10110 20090 30045 40230 51009 60006 878// 90900=
07190,1997-03-27 12:00:00,14,1022.1,-0.7,77,10,20000,11.112,,,190,,,,,,,,,,,wg-a,,,,AAXX 27124 07190 12570 81906 10140 20100 30038 40221 58007 60006 878// 91200=
07190,1997-03-27 15:00:00,14,1021.3,-0.8,67,8,500,14.816,,,240,,,,,,,,,,,wg-a,,,,AAXX 27154 07190 12500 72408 10140 20080 30030 40213 58008 60006 878// 91500=
07190,1997-03-27 18:00:00,13,1020.6,-0.8,77,9,500,11.112,,,190,9.2,14.8,,,,,,,,,wg-a,,,,AAXX 27184 07190 12500 71906 10130 20090 30022 40206 58008 60006 875// 91800 333 10148 20092=
07190,1997-03-27 21:00:00,12,1019.1,-1.5,76,8,25000,14.816,,,190,,,,,,,,,,,wg-a,,,,AAXX 27214 07190 12575 41908 10120 20080 30007 40191 58015 60006 83501 92100=
07190,1997-03-28 00:00:00,14,1016.5,-2.4,67,8,25000,22.224,,,240,,,,,,,,,,,wg-a,,,,AAXX 28004 07190 12575 72412 10140 20080 39983 40165 58024 60006 86502 90000=
07190,1997-03-28 03:00:00,14,1013.2,-3.3,67,8,25000,31.484,,,220,,,,,,,,,,,wg-a,,,,AAXX 28034 07190 12575 82217 10140 20080 39950 40132 56033 60006 8557/ 90300=
07190,1997-03-28 06:00:00,11,1012.4,-0.9,82,8,10000,29.632,,,290,10.6,14.8,,,,,,,,60,wg-a,,,,AAXX 28064 07190 02560 82916 10110 20080 39941 40124 55009 61000 76086 873// 90600 333 10148 20106 6001=
07190,1997-03-28 09:00:00,9,1015.2,2.6,76,5,20000,22.224,,,330,,,,0,,,,,,80,wg-a,,,,AAXX 28094 07190 12570 73312 10090 20050 39967 40152 53026 60007 78086 87800 90900=
07190,1997-03-28 12:00:00,10,1016.7,1.5,62,3,15000,25.928,,,270,,,,,,,,,,25,wg-a,,,,AAXX 28124 07190 02565 52714 10100 20030 39982 40167 53015 60006 72586 85300 91200 333 61000=
07190,1997-03-28 15:00:00,11,1017.9,1.2,40,-2,25000,31.484,,,300,,,,,,,,,,,wg-a,,,,AAXX 28154 07190 12775 23017 10110 21020 39994 40179 51012 60006 82100 91500=
07190,1997-03-28 18:00:00,8,1019.9,1.8,53,-1,20000,14.816,,,280,8,14.8,,,,,,,,,wg-a,,,,AAXX 28184 07190 12670 22808 10080 21010 30012 40199 53018 60006 82300 91800 333 10148 20080=
07190,1997-03-28 21:00:00,6,1021.7,1.6,61,-1,20000,14.816,,,320,,,,,,,,,,,wg-a,,,,AAXX 28214 07190 12770 23208 10060 21010 30028 40217 51016 60006 82500 92100=
07190,1997-03-29 00:00:00,5,1021.6,-0.1,65,-1,20000,18.52,,,290,,,,,,,,,,,wg-a,,,,AAXX 29004 07190 12/70 02910 10050 21010 30027 40216 58001 60006 80000 90000=
07190,1997-03-29 03:00:00,4,1022.4,0.7,65,-2,20000,11.112,,,270,,,,,,,,,,,wg-a,,,,AAXX 29034 07190 12/70 02706 10040 21020 30034 40224 52007 60006 80000 90300=
07190,1997-03-29 06:00:00,1,1023.3,0.7,80,-2,20000,7.408,,,160,1.1,8,,,,,,,,,wg-a,,,,AAXX 29064 07190 02570 21604 10010 21020 30041 40233 53007 60006 82800 90600 333 10080 20011 60004=
07190,1997-03-29 09:00:00,7,1023.5,0.6,61,0,20000,18.52,,,310,,,,,,,,,,,wg-a,,,,AAXX 29094 07190 12670 73110 10070 20000 30047 40235 53006 60006 8683/ 90900=
07190,1997-03-29 12:00:00,8,1022.7,-0.7,71,3,15000,18.52,,44.448,300,,,,0,,,,,,25,wg-a,,,,AAXX 29124 07190 02565 63010 10080 20030 30040 40227 56007 60006 72586 85302 91200 333 60007 91024=
07190,1997-03-29 15:00:00,9,1021.8,-0.9,61,2,15000,18.52,,,260,,,,,,,,,,1,wg-a,,,,AAXX 29154 07190 02665 72610 10090 20020 30031 40218 56009 61000 70186 86802 91500 333 ////=
07190,1997-03-29 18:00:00,7,1022.6,0.7,70,2,20000,14.816,,,290,1.1,10.1,,,,,,,,3,wg-a,,,,AAXX 29184 07190 12570 62908 10070 20020 30038 40226 53007 60006 70386 84832 91800 333 10101 20011=
07190,1997-03-29 21:00:00,7,1023.7,1,66,1,20000,14.816,,,310,,,,,,,,,,,wg-a,,,,AAXX 29214 07190 12670 53108 10070 20010 30048 40237 52010 60006 85800 92100=
07190,1997-03-30 00:00:00,6,1024.1,0.4,75,2,20000,14.816,,,310,,,,,,,,,,,wg-a,,,,AAXX 30004 07190 12770 33108 10060 20020 30052 40241 53004 60006 83500 90000=
07190,1997-03-30 03:00:00,6,1024.7,0.6,75,2,15000,11.112,,,300,,,,,,,,,,,wg-a,,,,AAXX 30034 07190 12765 73006 10060 20020 30058 40247 51006 60006 875// 90300=
07190,1997-03-30 06:00:00,6,1025.6,0.9,75,2,12000,3.704,,,300,4.3,7.1,,,,,,,,,wg-a,,,,AAXX 30064 07190 02562 83002 10060 20020 30067 40256 53009 60006 885// 90600 333 10071 20043 60004=
07190,1997-03-30 09:00:00,7,1026.8,1.2,87,5,8000,7.408,,,230,,,,1,,,,,,21,wg-a,,,,AAXX 30094 07190 12458 82304 10070 20050 30079 40268 51012 60017 72165 885// 90900=
07190,1997-03-30 12:00:00,9,1026.7,0.1,71,4,15000,7.408,,,360,,,,,,,,,,80,wg-a,,,,AAXX 30124 07190 02565 73604 10090 20040 30080 40267 50001 60016 78086 878// 91200 333 61000=
07190,1997-03-30 15:00:00,9,1026.5,-0.2,71,4,15000,3.704,,,360,,,,,,,,,,25,wg-a,,,,AAXX 30154 07190 02565 73602 10090 20040 30078 40265 56002 61000 72586 878// 91500 333 ////=
07190,1997-03-30 18:00:00,9,1027.1,0.5,76,5,20000,0,,,0,5.6,9.5,,,,,,,,1,wg-a,,,,AAXX 30184 07190 02770 70000 10090 20050 30083 40271 53005 60006 70186 875// 91800 333 10095 20056 61000=
07190,1997-03-30 21:00:00,7,1027.8,0.6,87,5,15000,3.704,,,340,,,,,,,,,,,wg-a,,,,AAXX 30214 07190 02765 43402 10070 20050 30089 40278 51006 61000 84500 92100 333 ////=
07190,1997-03-31 00:00:00,3,1028,-0.1,93,2,7000,0,,,0,,,,,,,,,,,wg-a,,,,AAXX 31004 07190 02/57 00000 10030 20020 30088 40280 57001 61000 80000 90000 333 ////=
07190,1997-03-31 06:00:00,0,1028.5,0.7,93,-1,3000,0,,,0,-0.4,8.7,,,,,1,,,11,wg-a,,,,AAXX 31064 07190 02030 20000 10000 21010 30091 40285 53007 60006 71100 81601 90600 333 10087 21004 60014=
07190,1997-03-31 09:00:00,9,1028,0.1,76,5,10000,3.704,,,350,,,,,,,,,,,wg-a,,,,AAXX 31094 07190 12/60 03502 10090 20050 30092 40280 53001 60006 80000 90900=
07190,1997-03-31 12:00:00,14,1026.3,-1.3,47,3,500,11.112,,,10,,,,,,,,,,,wg-a,,,,AAXX 31124 07190 12600 /0106 10140 20030 30079 40263 57013 60006 81200 91200=
07190,1997-03-31 15:00:00,16,1024.5,-1.6,42,3,500,3.704,,,290,,,,,,,,,,,wg-a,,,,AAXX 31154 07190 12700 /2902 10160 20030 30063 40245 56016 60006 81200 91500=
07190,1997-03-31 18:00:00,14,1024,-0.7,55,5,500,14.816,,,10,-0.2,16.4,,,,,,,,,wg-a,,,,AAXX 31184 07190 12/00 00108 10140 20050 30056 40240 56007 60006 80000 91800 333 10164 21002=
07190,1997-03-31 21:00:00,9,1024.3,0,71,4,500,3.704,,,340,,,,,,,,,,,wg-a,,,,AAXX 31214 07190 12/00 03402 10090 20040 30056 40243 50000 60006 80000 92100=
07190,1997-04-01 00:00:00,5,1024.4,-0.2,87,3,500,0,,,0,,,,,,,,,,,wg-a,,,,AAXX 01004 07190 12/00 00000 10050 20030 30054 40244 58002 60006 80000 90000=
07190,1997-04-01 03:00:00,3,1023.6,-0.9,93,2,25000,0,,,0,,,,,,,,,,,wg-a,,,,AAXX 01034 07190 12/75 00000 10030 20020 30045 40236 56009 60006 80000 90300=
07190,1997-04-01 06:00:00,2,1024.1,0.4,93,1,20000,3.704,,,290,1.7,13.5,,,,,,,,,wg-a,,,,AAXX 01064 07190 02/70 12902 10020 20010 30049 40241 53004 60006 80001 90600 333 10135 20017 60004=
07190,1997-04-01 09:00:00,11,1023.2,-0.2,71,6,12000,3.704,,,360,,,,,,,,,,,wg-a,,,,AAXX 01094 07190 12/62 13602 10110 20060 30047 40232 58002 60006 80001 90900=
07190,1997-04-01 12:00:00,17,1021.3,-1.5,42,4,25000,7.408,,,360,,,,,,,,,,,wg-a,,,,AAXX 01124 07190 12675 /3604 10170 20040 30032 40213 58015 60006 81101 91200=
07190,1997-04-01 15:00:00,20,1019.5,-1.7,35,4,35000,11.112,,,20,,,,,,,,,,,wg-a,,,,AAXX 01154 07190 12/81 00206 10200 20040 30015 40195 56017 60006 80000 91500=
07190,1997-04-01 18:00:00,16,1019.1,-0.6,42,3,35000,11.112,,,30,2.1,19.7,,,,,,,,,wg-a,,,,AAXX 01184 07190 12/81 10306 10160 20030 30009 40191 55006 60006 80001 91800 333 10197 20021=
07190,1997-04-01 21:00:00,11,1020.1,0.7,62,4,500,11.112,,,350,,,,,,,,,,,wg-a,,,,AAXX 01214 07190 12/00 03506 10110 20040 30016 40201 51007 60006 80000 92100=
07190,1997-04-02 00:00:00,7,1020.3,-0.1,76,3,20000,3.704,,,300,,,,,,,,,,,wg-a,,,,AAXX 02004 07190 12/70 03002 10070 20030 30015 40203 58001 60006 80000 90000=
07190,1997-04-02 03:00:00,4,1019.5,-0.9,87,2,20000,0,,,0,,,,,,,,,,,wg-a,,,,AAXX 02034 07190 12/70 00000 10040 20020 30006 40195 58009 60006 80000 90300=
07190,1997-04-02 06:00:00,5,1019.9,0.4,87,3,10000,3.704,,,310,3.4,16.1,,,,,,,,,wg-a,,,,AAXX 02064 07190 02/60 03102 10050 20030 30010 40199 53004 60006 80000 90600 333 10161 20034 60004=
07190,1997-04-02 12:00:00,19,1017.3,-1.5,37,4,15000,11.112,,,340,,,,,,,,,,,wg-a,,,,AAXX 02124 07190 12/65 23406 10190 20040 39994 40173 57015 60006 80002 91200=
07190,1997-04-02 18:00:00,17,1016,-0.4,45,5,15000,7.408,,,20,5.1,20.3,,,,,,,,,wg-a,,,,AAXX 02184 07190 12/65 50204 10170 20050 39980 40160 55004 60006 81031 91800 333 10203 20051=
07190,1997-04-02 21:00:00,11,1016.5,0.6,66,5,15000,0,,,0,,,,,,,,,,,wg-a,,,,AAXX 02214 07190 12/65 40000 10110 20050 39981 40165 51006 60006 80001 92100=
07190,1997-04-03 00:00:00,8,1015.8,-0.9,76,4,15000,3.704,,,110,,,,,,,,,,,wg-a,,,,AAXX 03004 07190 12765 51102 10080 20040 39972 40158 57009 60006 83501 90000=
07190,1997-04-03 03:00:00,6,1015.1,-0.8,87,4,15000,3.704,,,210,,,,,,,,,,,wg-a,,,,AAXX 03034 07190 12/65 62102 10060 20040 39964 40151 56008 60006 80002 90300=
07190,1997-04-03 06:00:00,6,1015.2,0.1,87,4,10000,3.704,,,160,5.1,17,,,,,,,,,wg-a,,,,AAXX 03064 07190 02/60 51602 10060 20040 39965 40152 53001 60006 80002 90600 333 10170 20051 60004=
07190,1997-04-03 09:00:00,16,1014.4,-0.2,42,3,10000,11.112,,,220,,,,,,,,,,,wg-a,,,,AAXX 03094 07190 12/60 02206 10160 20030 39963 40144 58002 60006 80000 90900=
07190,1997-04-03 12:00:00,19,1012.3,-1.8,40,5,14000,25.928,,,260,,,,,,,,,,,wg-a,,,,AAXX 03124 07190 12764 52614 10190 20050 39945 40123 58018 60006 84804 91200=
07190,1997-04-03 15:00:00,16,1012.1,-0.4,48,5,18000,22.224,,,290,,,,,,,,,,,wg-a,,,,AAXX 03154 07190 12768 72912 10160 20050 39941 40121 55004 60006 872// 91500=
07190,1997-04-03 18:00:00,13,1014.4,2,51,3,12000,11.112,,,280,5.8,19.5,,,,,,,,,wg-a,,,,AAXX 03184 07190 12662 72806 10130 20030 39961 40144 51020 60006 84832 91800 333 10195 20058=
07190,1997-04-04 00:00:00,8,1016.8,0.7,81,5,10000,22.224,,,300,,,,1,,,,,,21,wg-a,,,,AAXX 04004 07190 02560 83012 10080 20050 39982 40168 53007 60016 72122 875// 90000 333 60017=
07190,1997-04-04 03:00:00,7,1017.8,0.9,81,4,10000,14.816,,,270,,,,,,,,,,,wg-a,,,,AAXX 04034 07190 12560 82708 10070 20040 39991 40178 53009 60006 875// 90300=
07190,1997-04-04 06:00:00,6,1021,3.1,81,3,500,7.408,,,300,5.2,12.7,,,,,1,,,15,wg-a,,,,AAXX 04064 07190 02500 73004 10060 20030 30022 40210 53031 60006 71511 879// 90600 333 10127 20052 60014=
07190,1997-04-04 09:00:00,8,1022.5,1.6,61,1,25000,25.928,,,340,,,,2,,,,,,1,wg-a,,,,AAXX 04094 07190 12575 23414 10080 20010 30038 40225 53016 60027 70187 82930 90900=
07190,1997-04-04 12:00:00,10,1023,0.6,37,-4,40000,25.928,,,300,,,,,,,,,,1,wg-a,,,,AAXX 04124 07190 12682 23014 10100 21040 30044 40230 51006 60026 70187 82202 91200=
07190,1997-04-04 18:00:00,8,1024.6,0.9,36,-6,40000,14.816,,,300,3,11.2,,,,,,,,,wg-a,,,,AAXX 04184 07190 12782 33008 10080 21060 30058 40246 53009 60006 82804 91800 333 10112 20030=
07190,1997-04-04 21:00:00,4,1026.5,1.6,60,-3,500,7.408,,,230,,,,,,,,,,,wg-a,,,,AAXX 04214 07190 12700 42304 10040 21030 30074 40265 51016 60006 825/1 92100=
07190,1997-04-05 00:00:00,4,1026.6,0.1,60,-3,20000,11.112,,,260,,,,,,,,,,,wg-a,,,,AAXX 05004 07190 12/70 72606 10040 21030 30075 40266 52001 60006 83044 90000=
07190,1997-04-05 03:00:00,3,1025,-1.6,70,-2,20000,3.704,,,220,,,,,,,,,,,wg-a,,,,AAXX 05034 07190 12/70 72202 10030 21020 30059 40250 56016 60006 83042 90300=
07190,1997-04-05 06:00:00,4,1023.7,-1.2,65,-2,20000,14.816,,,180,0.7,7.9,,,,,2,,,,wg-a,,,,AAXX 05064 07190 02870 71808 10040 21020 30047 40237 58012 60006 8554/ 90600 333 10079 20007 60024=
07190,1997-04-05 09:00:00,6,1022.4,-1.2,56,-2,20000,18.52,,,170,,,,,,,,,,60,wg-a,,,,AAXX 05094 07190 02670 81710 10060 21020 30035 40224 58012 61000 76062 875// 90900 333 ////=
07190,1997-04-05 12:00:00,10,1019.4,-2.7,40,-3,500,29.632,,,190,,,,,,,,,,1,wg-a,,,,AAXX 05124 07190 02600 81916 10100 21030 30008 40194 58027 61000 70162 8357/ 91200 333 6100=
07190,1997-04-05 15:00:00,13,1015.9,-3.2,47,2,35000,25.928,,,250,,,,,,,,,,,wg-a,,,,AAXX 05154 07190 12781 72514 10130 20020 39976 40159 58032 60006 8587/ 91500=
07190,1997-04-05 18:00:00,13,1015.4,-0.5,54,4,500,18.52,,,250,4.4,13.6,,,,,,,,,wg-a,,,,AAXX 05184 07190 12600 72510 10130 20040 39971 40154 58005 60006 84572 91800 333 10136 20044=
07190,1997-04-05 21:00:00,12,1016,0.6,67,6,15000,18.52,,,260,,,,,,,,,,60,wg-a,,,,AAXX 05214 07190 02665 82610 10120 20060 39977 40160 51006 61000 76062 875// 92100 333 ////=
07190,1997-04-06 00:00:00,11,1016.5,0.4,71,6,13000,22.224,,,260,,,,,,,,,,0,wg-a,,,,AAXX 06004 07190 02563 72612 10110 20060 39981 40165 53004 61000 70062 875// 90000 333 6100=
07190,1997-04-06 03:00:00,11,1016.6,0.1,76,7,13000,14.816,,,260,,,,,,,,,,,wg-a,,,,AAXX 06034 07190 12563 82608 10110 20070 39982 40166 53001 60006 875// 90300=
07190,1997-04-06 06:00:00,11,1018.2,1.6,76,7,12000,22.224,,,280,10.5,13.4,,,,,,,,1,wg-a,,,,AAXX 06064 07190 02562 72812 10110 20070 39998 40182 52016 60006 70162 878// 90600 333 10134 20105 61000=
07190,1997-04-06 09:00:00,11,1021.9,3.6,58,3,20000,25.928,,,360,,,,0,,,,,,1,wg-a,,,,AAXX 06094 07190 12570 43614 10110 20030 30034 40219 53036 60007 70186 83830 90900=
07190,1997-04-06 12:00:00,11,1024.2,2.2,37,-3,25000,18.52,,,10,,,,,,,,,,3,wg-a,,,,AAXX 06124 07190 12675 /0110 10110 21030 30056 40242 51022 60016 70386 85800 91200=
07190,1997-04-06 15:00:00,11,1024.8,0.6,37,-3,500,18.52,,,30,,,,,,,,,,,wg-a,,,,AAXX 06154 07190 12700 10310 10110 21030 30062 40248 51006 60006 81500 91500=
07190,1997-04-06 18:00:00,9,1026.8,1.8,40,-4,40000,18.52,,,60,8.6,11.5,,,,,,,,,wg-a,,,,AAXX 06184 07190 12782 10610 10090 21040 30080 40268 53018 60006 81500 91800 333 10115 20086=
07190,1997-04-06 21:00:00,5,1029.5,2.4,52,-4,500,7.408,,,10,,,,,,,,,,,wg-a,,,,AAXX 06214 07190 12/00 00104 10050 21040 30104 40295 51024 60006 80000 92100=
07190,1997-04-07 00:00:00,1,1030.7,0.9,69,-4,20000,11.112,,,340,,,,,,,,,,,wg-a,,,,AAXX 07004 07190 12/70 03406 10010 21040 30113 40307 51009 60006 80000 90000=
07190,1997-04-07 03:00:00,1,1030.8,0.1,69,-4,20000,11.112,,,10,,,,,,,,,,,wg-a,,,,AAXX 07034 07190 12/70 00106 10010 21040 30114 40308 53001 60006 80000 90300=
07190,1997-04-07 06:00:00,2,1031.9,1.1,69,-3,500,11.112,,,20,0.6,8.6,,,,,1,,,,wg-a,,,,AAXX 07064 07190 02/00 00206 10020 21030 30125 40319 53011 60006 80000 90600 333 10086 20006 60014=
07190,1997-04-07 12:00:00,11,1031,-0.7,35,-4,500,14.816,,,50,,,,,,,,,,,wg-a,,,,AAXX 07124 07190 12/00 00508 10110 21040 30123 40310 57007 60006 80000 91200=
07190,1997-04-07 15:00:00,12,1030.1,-0.9,26,-7,500,29.632,,,30,,,,,,,,,,,wg-a,,,,AAXX 07154 07190 12/00 00316 10120 21070 30114 40301 56009 60006 80000 91500=
07190,1997-04-07 18:00:00,9,1030.6,0.3,25,-10,40000,22.224,,,30,1.7,11.9,,,,,,,,,wg-a,,,,AAXX 07184 07190 12/82 20312 10090 21100 30117 40306 53003 60006 80001 91800 333 10119 20017=
07190,1997-04-07 21:00:00,5,1031.2,0.4,35,-9,500,14.816,,,40,,,,,,,,,,,wg-a,,,,AAXX 07214 07190 12/00 00408 10050 21090 30121 40312 50004 60006 80000 92100=
07190,1997-04-08 00:00:00,2,1030.8,-0.6,47,-8,25000,11.112,,,350,,,,,,,,,,,wg-a,,,,AAXX 08004 07190 12/75 03506 10020 21080 30115 40308 56006 60006 80000 90000=
07190,1997-04-08 03:00:00,0,1030.6,-0.3,59,-7,25000,14.816,,,10,,,,,,,,,,,wg-a,,,,AAXX 08034 07190 12/75 00108 10000 21070 30112 40306 56003 60006 80000 90300=
07190,1997-04-08 06:00:00,0,1031,0.3,59,-7,50000,11.112,,,350,-1.5,8.7,,,,,,,,,wg-a,,,,AAXX 08064 07190 02/84 13506 10000 21070 30115 40310 53003 60006 80001 90600 333 10087 21015 60004=
07190,1997-04-08 09:00:00,8,1030.4,-0,34,-7,40000,7.408,,,50,,,,,,,,,,,wg-a,,,,AAXX 08094 07190 12/82 20504 10080 21070 30115 40304 55000 60006 80001 90900=
07190,1997-04-08 12:00:00,12,1029.4,-0.7,22,-9,40000,7.408,,,100,,,,,,,,,,,wg-a,,,,AAXX 08124 07190 12/82 21004 10120 21090 30108 40294 58007 60006 80002 91200=
07190,1997-04-08 15:00:00,15,1027,-2.2,23,-6,40000,14.816,,,30,,,,,,,,,,,wg-a,,,,AAXX 08154 07190 12/82 30308 10150 21060 30086 40270 56022 60006 80002 91500=
07190,1997-04-08 18:00:00,13,1026.9,-0.2,26,-6,40000,18.52,,,20,0.3,15.5,,,,,,,,,wg-a,,,,AAXX 08184 07190 12882 30210 10130 21060 30084 40269 56002 60006 81502 91800 333 10155 20003=
07190,1997-04-08 21:00:00,6,1028.2,0.8,45,-5,25000,11.112,,,350,,,,,,,,,,,wg-a,,,,AAXX 08214 07190 12/75 03506 10060 21050 30092 40282 51008 60006 80000 92100=
07190,1997-04-09 00:00:00,2,1029.1,0.6,69,-3,25000,3.704,,,300,,,,,,,,,,,wg-a,,,,AAXX 09004 07190 12/75 03002 10020 21030 30098 40291 51006 60006 80000 90000=
07190,1997-04-09 03:00:00,-1,1029.5,0.2,86,-3,20000,0,,,0,,,,,,,,,,,wg-a,,,,AAXX 09034 07190 12/70 00000 11010 21030 30100 40295 52002 60006 80000 90300=
07190,1997-04-09 06:00:00,1,1030.3,0.9,69,-4,20000,0,,,0,-1.6,12.5,,,,,,,,,wg-a,,,,AAXX 09064 07190 02/70 20000 10010 21040 30109 40303 53009 60006 80001 90600 333 10125 21016 60004=
07190,1997-04-09 09:00:00,10,1030.1,0.4,43,-2,12000,3.704,,,110,,,,,,,,,,,wg-a,,,,AAXX 09094 07190 12/62 51102 10100 21020 30113 40301 51004 60006 80001 90900=
07190,1997-04-09 12:00:00,17,1028.6,-1,25,-3,12000,7.408,,,120,,,,,,,,,,,wg-a,,,,AAXX 09124 07190 12/62 71204 10170 21030 30103 40286 58010 60006 80001 91200=
07190,1997-04-09 15:00:00,19,1027.3,-1.1,32,2,15000,7.408,,,90,,,,,,,,,,,wg-a,,,,AAXX 09154 07190 12/65 70904 10190 20020 30092 40273 57011 60006 80001 91500=
07190,1997-04-09 18:00:00,16,1027.8,0.3,39,2,18000,7.408,,,180,0.6,19,,,,,,,,,wg-a,,,,AAXX 09184 07190 12/68 71804 10160 20020 30095 40278 53003 60006 80002 91800 333 10190 20006=
07190,1997-04-09 21:00:00,11,1029.1,0.9,54,2,15000,0,,,0,,,,,,,,,,,wg-a,,,,AAXX 09214 07190 12/65 70000 10110 20020 30104 40291 51009 60006 80002 92100=
07190,1997-04-10 00:00:00,8,1030,0.7,71,3,10000,0,,,0,,,,,,,,,,,wg-a,,,,AAXX 10004 07190 12/60 60000 10080 20030 30111 40300 52007 60006 80002 90000=
07190,1997-04-10 03:00:00,4,1030.5,0.2,81,1,10000,3.704,,,350,,,,,,,,,,,wg-a,,,,AAXX 10034 07190 12/60 33502 10040 20010 30113 40305 53002 60006 80002 90300=
07190,1997-04-10 06:00:00,4,1030.9,0.5,87,2,10000,7.408,,,330,2.9,16.4,,,,,,,,,wg-a,,,,AAXX 10064 07190 02/60 13304 10040 20020 30118 40309 53005 60006 80001 90600 333 10164 20029 60004=
07190,1997-04-10 09:00:00,14,1030.9,0.6,55,5,10000,3.704,,,40,,,,,,,,,,,wg-a,,,,AAXX 10094 07190 12/60 10402 10140 20050 30124 40309 53006 60006 80001 90900=
07190,1997-04-10 12:00:00,19,1029,-1.6,28,0,15000,11.112,,,330,,,,,,,,,,,wg-a,,,,AAXX 10124 07190 12/65 23306 10190 20000 30108 40290 58016 60006 80002 91200=
07190,1997-04-10 15:00:00,21,1027,-1.8,23,-1,20000,11.112,,,10,,,,,,,,,,,wg-a,,,,AAXX 10154 07190 12/70 30106 10210 21010 30090 40270 58018 60006 80002 91500=
07190,1997-04-10 18:00:00,18,1026.9,-0.3,32,1,25000,11.112,,,280,4.3,21.5,,,,,,,,,wg-a,,,,AAXX 10184 07190 12/75 52806 10180 20010 30087 40269 56003 60006 80002 91800 333 10215 20043=
07190,1997-04-10 21:00:00,13,1027.2,0,38,-1,20000,7.408,,,260,,,,,,,,,,,wg-a,,,,AAXX 10214 07190 12/70 22604 10130 21010 30087 40272 50000 60006 80001 92100=
07190,1997-04-11 00:00:00,11,1027.2,-0.2,47,0,20000,11.112,,,340,,,,,,,,,,,wg-a,,,,AAXX 11004 07190 12/70 33406 10110 20000 30085 40272 56002 60006 80001 90000=
07190,1997-04-11 03:00:00,6,1025.9,-1.6,70,1,15000,3.704,,,270,,,,,,,,,,,wg-a,,,,AAXX 11034 07190 12/65 42702 10060 20010 30069 40259 56016 60006 80001 90300=
07190,1997-04-11 06:00:00,5,1025.1,-0.8,81,2,10000,7.408,,,200,3.4,17.8,,,,,,,,,wg-a,,,,AAXX 11064 07190 02/60 52004 10050 20020 30061 40251 56008 60006 80001 90600 333 10178 20034 60004=
07190,1997-04-11 09:00:00,17,1022.2,-2.1,42,4,9000,18.52,,,230,,,,,,,,,,,wg-a,,,,AAXX 11094 07190 12659 22310 10170 20040 30040 40222 58021 60006 81101 90900=
07190,1997-04-11 12:00:00,19,1018.8,-3.2,30,1,10000,25.928,,,260,,,,,,,,,,,wg-a,,,,AAXX 11124 07190 12760 /2614 10190 20010 30008 40188 58032 60006 82580 91200=
07190,1997-04-11 18:00:00,11,1021.3,4.3,58,3,15000,25.928,,,330,5.3,19.8,,,,,,,,21,wg-a,,,,AAXX 11184 07190 02565 73314 10110 20030 30028 40213 53043 61000 72162 85831 91800 333 10198 20053 6100=
07190,1997-04-11 21:00:00,5,1026,4.2,52,-4,25000,11.112,,,350,,,,,,,,,,,wg-a,,,,AAXX 11214 07190 12/75 /3506 10050 21040 30070 40260 51042 60006 80000 92100=
07190,1997-04-12 00:00:00,2,1026.7,0.4,60,-5,25000,3.704,,,320,,,,,,,,,,,wg-a,,,,AAXX 12004 07190 12/75 03202 10020 21050 30074 40267 53004 60006 80000 90000=
07190,1997-04-12 03:00:00,1,1026.5,-0.2,69,-4,25000,7.408,,,330,,,,,,,,,,,wg-a,,,,AAXX 12034 07190 12675 23304 10010 21040 30072 40265 58002 60006 82500 90300=
07190,1997-04-12 06:00:00,2,1026.6,0.1,69,-3,20000,11.112,,,330,0.3,10.9,,,,,,,,,wg-a,,,,AAXX 12064 07190 02670 53306 10020 21030 30073 40266 53001 60006 81531 90600 333 10109 20003 61000=
07190,1997-04-12 09:00:00,7,1026,-0.2,49,-3,25000,14.816,,,340,,,,,,,,,,,wg-a,,,,AAXX 12094 07190 12675 /3408 10070 21030 30071 40260 58002 60006 83101 90900=
07190,1997-04-12 12:00:00,8,1025.2,-0.7,42,-4,40000,14.816,,,340,,,,,,,,,,,wg-a,,,,AAXX 12124 07190 12782 73408 10080 21040 30064 40252 55007 60006 875// 91200=
07190,1997-04-12 15:00:00,8,1025,-0.2,49,-2,35000,11.112,,,330,,,,,,,,,,,wg-a,,,,AAXX 12154 07190 12681 83306 10080 21020 30062 40250 57002 60006 878// 91500=
07190,1997-04-12 18:00:00,7,1025.3,0.2,57,-1,25000,3.704,,,300,1.5,8.6,,,,,,,,,wg-a,,,,AAXX 12184 07190 12675 73002 10070 21010 30064 40253 53002 60006 878// 91800 333 10086 20015=
07190,1997-04-12 21:00:00,5,1025.8,0.4,70,0,20000,3.704,,,170,,,,,,,,,,,wg-a,,,,AAXX 12214 07190 12770 71702 10050 20000 30068 40258 50004 60006 87500 92100=
07190,1997-04-13 00:00:00,4,1025.8,0,75,0,15000,3.704,,,290,,,,,,,,,,,wg-a,,,,AAXX 13004 07190 12665 72902 10040 20000 30068 40258 50000 60006 87500 90000=
07190,1997-04-13 03:00:00,0,1025.6,-0.5,80,-3,15000,7.408,,,330,,,,,,,,,,,wg-a,,,,AAXX 13034 07190 12665 23304 10000 21030 30063 40256 56005 60006 82500 90300=
07190,1997-04-13 06:00:00,1,1026.5,0.9,86,-1,20000,3.704,,,280,-0.1,7.2,,,,,,,,,wg-a,,,,AAXX 13064 07190 02/70 /2802 10010 21010 30072 40265 53009 60006 80000 90600 333 10072 21001 60004=
07190,1997-04-13 09:00:00,9,1026.3,0.3,57,1,20000,11.112,,,10,,,,,,,,,,,wg-a,,,,AAXX 13094 07190 12670 /0106 10090 20010 30075 40263 51003 60006 81200 90900=
07190,1997-04-13 12:00:00,11,1025,-1.1,37,-3,25000,18.52,,,20,,,,,,,,,,,wg-a,,,,AAXX 13124 07190 12775 30210 10110 21030 30064 40250 58011 60006 83400 91200=
07190,1997-04-13 18:00:00,11,1023.3,-0.5,37,-3,35000,11.112,,,360,1.1,12.9,,,,,,,,,wg-a,,,,AAXX 13184 07190 12/81 43606 10110 21030 30047 40233 55005 60006 80001 91800 333 10129 20011=
07190,1997-04-13 21:00:00,5,1024.1,0.4,52,-4,20000,7.408,,,340,,,,,,,,,,,wg-a,,,,AAXX 13214 07190 12/70 23404 10050 21040 30051 40241 50004 60006 80001 92100=
07190,1997-04-14 00:00:00,2,1023.9,-0.4,69,-3,20000,0,,,0,,,,,,,,,,,wg-a,,,,AAXX 14004 07190 12/70 00000 10020 21030 30047 40239 58004 60006 80000 90000=
07190,1997-04-14 03:00:00,0,1023.8,-0.2,80,-3,20000,0,,,0,,,,,,,,,,,wg-a,,,,AAXX 14034 07190 12/70 00000 10000 21030 30045 40238 58002 60006 80000 90300=
07190,1997-04-14 06:00:00,1,1024.2,0.5,80,-2,500,3.704,,,230,-0.7,11.1,,,,,,,,,wg-a,,,,AAXX 14064 07190 02/00 12302 10010 21020 30050 40242 53005 60006 81040 90600 333 10111 21007 60004=
07190,1997-04-14 09:00:00,11,1023.7,0.2,43,-1,20000,3.704,,,50,,,,,,,,,,,wg-a,,,,AAXX 14094 07190 12/70 10502 10110 21010 30052 40237 51002 60006 81030 90900=
07190,1997-04-14 12:00:00,15,1022.5,-1,39,1,20000,14.816,,,20,,,,,,,,,,,wg-a,,,,AAXX 14124 07190 12770 50208 10150 20010 30042 40225 58010 60006 85830 91200=
07190,1997-04-14 15:00:00,16,1020.5,-1.9,42,3,20000,18.52,,,310,,,,,,,,,,,wg-a,,,,AAXX 14154 07190 12770 23110 10160 20030 30023 40205 58019 60006 81832 91500=
07190,1997-04-14 18:00:00,14,1020.5,-0.1,51,4,15000,14.816,,,310,1.4,16.3,,,,,,,,,wg-a,,,,AAXX 14184 07190 12665 73108 10140 20040 30022 40205 55001 60006 8583/ 91800 333 10163 20014=
07190,1997-04-14 21:00:00,11,1021.1,0.4,62,4,12000,11.112,,,300,,,,,,,,,,,wg-a,,,,AAXX 14214 07190 12862 43006 10110 20040 30026 40211 50004 60006 83530 92100=
07190,1997-04-15 00:00:00,11,1021,-0.1,66,5,10000,11.112,,,300,,,,,,,,,,,wg-a,,,,AAXX 15004 07190 12660 73006 10110 20050 30025 40210 56001 60006 8683/ 90000=
07190,1997-04-15 03:00:00,9,1021.5,0.4,71,4,10000,18.52,,,310,,,,,,,,,,,wg-a,,,,AAXX 15034 07190 12560 83110 10090 20040 30029 40215 53004 60006 888// 90300=
07190,1997-04-15 06:00:00,6,1023.3,1.5,65,0,12000,14.816,,,320,5.4,14.4,,,,,,,,,wg-a,,,,AAXX 15064 07190 02662 43208 10060 20000 30044 40233 51015 60006 83501 90600 333 10144 20054 60004=
07190,1997-04-15 09:00:00,8,1024.9,1.7,42,-4,12000,22.224,,,340,,,,,,,,,,,wg-a,,,,AAXX 15094 07190 12662 43412 10080 21040 30061 40249 51017 60006 84500 90900=
07190,1997-04-15 12:00:00,11,1024.3,-0.4,32,-5,15000,18.52,,,350,,,,,,,,,,,wg-a,,,,AAXX 15124 07190 12765 43510 10110 21050 30057 40243 58004 60006 84200 91200=
07190,1997-04-15 15:00:00,12,1023.6,-0.6,32,-4,500,22.224,,,350,,,,,,,,,,,wg-a,,,,AAXX 15154 07190 12700 33512 10120 21040 30051 40236 56006 60006 83400 91500=
07190,1997-04-15 18:00:00,10,1024.4,0.6,34,-5,500,18.52,,,360,6,12.1,,,,,,,,,wg-a,,,,AAXX 15184 07190 12700 33610 10100 21050 30057 40244 53006 60006 83400 91800 333 10121 20060=
07190,1997-04-15 21:00:00,5,1025.8,1.1,48,-5,500,7.408,,,310,,,,,,,,,,,wg-a,,,,AAXX 15214 07190 12700 13104 10050 21050 30068 40258 51011 60006 81500 92100=
07190,1997-04-16 00:00:00,2,1025.7,-0.3,64,-4,500,7.408,,,320,,,,,,,,,,,wg-a,,,,AAXX 16004 07190 12700 23204 10020 21040 30065 40257 58003 60006 82500 90000=
07190,1997-04-16 03:00:00,2,1025.4,-0.3,69,-3,500,7.408,,,320,,,,,,,,,,,wg-a,,,,AAXX 16034 07190 12700 23204 10020 21030 30062 40254 55003 60006 82500 90300=
07190,1997-04-16 06:00:00,3,1026.1,0.7,70,-2,15000,11.112,,,350,0.9,9.8,,,,,,,,,wg-a,,,,AAXX 16064 07190 02665 /3506 10030 21020 30069 40261 53007 60006 85530 90600 333 10098 20009 60004=
07190,1997-04-16 09:00:00,7,1026.2,0.4,53,-2,15000,11.112,,,50,,,,,,,,,,,wg-a,,,,AAXX 16094 07190 12665 20506 10070 21020 30073 40262 51004 60006 82101 90900=
07190,1997-04-16 12:00:00,10,1024.6,,32,-6,500,22.224,,,30,,,,,,,,,,,wg-a,,,,AAXX 16124 07190 12600 20312 10100 21060 30060 40246 60006 82201 91200=
07190,1997-04-16 15:00:00,12,1022.5,-2,22,-9,500,22.224,,,10,,,,,,,,,,,wg-a,,,,AAXX 16154 07190 12700 /0112 10120 21090 30040 40225 58020 60006 81400 91500=
07190,1997-04-16 18:00:00,10,1021.9,-0.8,23,-10,500,14.816,,,30,2.9,12,,,,,,,,,wg-a,,,,AAXX 16184 07190 12700 30308 10100 21100 30032 40219 58008 60006 82461 91800 333 10120 20029=
07190,1997-04-16 21:00:00,4,1022,-0.2,41,-8,25000,3.704,,,350,,,,,,,,,,,wg-a,,,,AAXX 16214 07190 12/75 23502 10040 21080 30030 40220 57002 60006 81031 92100=
07190,1997-04-17 00:00:00,3,1021.1,-1,48,-7,20000,11.112,,,350,,,,,,,,,,,wg-a,,,,AAXX 17004 07190 12/70 13506 10030 21070 30020 40211 58010 60006 81030 90000=
07190,1997-04-17 03:00:00,1,1020.6,-0.6,59,-6,20000,7.408,,,350,,,,,,,,,,,wg-a,,,,AAXX 17034 07190 12/70 13504 10010 21060 30014 40206 56006 60006 80001 90300=
07190,1997-04-17 06:00:00,2,1021.5,0.9,60,-5,500,11.112,,,350,-0.1,9.4,,,,,,,,,wg-a,,,,AAXX 17064 07190 02600 63506 10020 21050 30023 40215 53009 60006 82802 90600 333 10094 21001 60004=
07190,1997-04-17 09:00:00,9,1021.6,0.6,37,-5,35000,22.224,,,40,,,,,,,,,,,wg-a,,,,AAXX 17094 07190 12781 30412 10090 21050 30029 40216 51006 60006 82402 90900=
07190,1997-04-17 12:00:00,11,1021.2,-0.2,30,-6,40000,25.928,,,50,,,,,,,,,,,wg-a,,,,AAXX 17124 07190 12882 20514 10110 21060 30027 40212 58002 60006 82100 91200=
07190,1997-04-17 15:00:00,13,1020,-1.1,28,-5,40000,22.224,,,20,,,,,,,,,,,wg-a,,,,AAXX 17154 07190 12882 10212 10130 21050 30016 40200 56011 60006 81100 91500=
07190,1997-04-17 18:00:00,10,1021.1,0.9,37,-4,35000,22.224,,,30,1.9,12.9,,,,,,,,,wg-a,,,,AAXX 17184 07190 12/81 00312 10100 21040 30025 40211 53009 60006 80000 91800 333 10129 20019=
07190,1997-04-17 21:00:00,6,1022.5,1.1,49,-4,500,11.112,,,30,,,,,,,,,,,wg-a,,,,AAXX 17214 07190 12/00 00306 10060 21040 30036 40225 51011 60006 80000 92100=
07190,1997-04-18 00:00:00,2,1022.6,-0.2,64,-4,20000,11.112,,,340,,,,,,,,,,,wg-a,,,,AAXX 18004 07190 12/70 03406 10020 21040 30034 40226 58002 60006 80000 90000=
07190,1997-04-18 03:00:00,0,1022,-0.7,74,-4,20000,3.704,,,310,,,,,,,,,,,wg-a,,,,AAXX 18034 07190 12/70 03102 10000 21040 30027 40220 56007 60006 80000 90300=
07190,1997-04-18 06:00:00,2,1022.1,0.3,75,-2,20000,7.408,,,340,-0.7,10.3,,,,,,,,,wg-a,,,,AAXX 18064 07190 02/70 13404 10020 21020 30030 40221 53003 60006 80001 90600 333 10103 21007 60004=
07190,1997-04-18 12:00:00,14,1017.8,-2.4,36,-1,500,7.408,,,360,,,,,,,,,,,wg-a,,,,AAXX 18124 07190 12700 /3604 10140 21010 39995 40178 58024 60006 81101 91200=
07190,1997-04-18 15:00:00,17,1014.7,-2.8,32,0,500,7.408,,,70,,,,,,,,,,,wg-a,,,,AAXX 18154 07190 12700 30704 10170 20000 39967 40147 57028 60006 81101 91500=
07190,1997-04-18 18:00:00,15,1013.4,-1.4,36,0,500,7.408,,,360,2.1,17.3,,,,,,,,,wg-a,,,,AAXX 18184 07190 12/00 33604 10150 20000 39953 40134 56014 60006 80001 91800 333 10173 20021=
07190,1997-04-18 21:00:00,8,1013.8,-0.1,61,1,500,0,,,0,,,,,,,,,,,wg-a,,,,AAXX 18214 07190 12/00 30000 10080 20010 39952 40138 57001 60006 80001 92100=
07190,1997-04-19 00:00:00,7,1013.7,-0.2,61,0,20000,11.112,,,340,,,,,,,,,,,wg-a,,,,AAXX 19004 07190 12/70 23406 10070 20000 39950 40137 57002 60006 80001 90000=
07190,1997-04-19 03:00:00,4,1013.1,-0.8,70,-1,15000,7.408,,,330,,,,,,,,,,,wg-a,,,,AAXX 19034 07190 32/65 23304 10040 21010 39942 40131 57008 80001 90300=
07190,1997-04-19 06:00:00,4,1013,-0.2,75,0,8000,7.408,,,320,2.9,17.3,,,,,,,,,wg-a,,,,AAXX 19064 07190 02/58 23204 10040 20000 39940 40130 55002 60006 81031 90600 333 10173 20029 60004=
07190,1997-04-19 12:00:00,14,1009.5,-2,44,2,10000,18.52,,,30,,,,,,,,,,,wg-a,,,,AAXX 19124 07190 12660 50310 10140 20020 39914 40095 56020 60006 82130 91200=
07190,1997-04-19 18:00:00,9,1009.4,0.4,53,0,25000,14.816,,,10,6.4,14.3,,,,,,,,,wg-a,,,,AAXX 19184 07190 12675 80108 10090 20000 39910 40094 52004 60006 875// 91800 333 10143 20064=
07190,1997-04-19 21:00:00,8,1009.9,0.4,57,0,20000,11.112,,,350,,,,,,,,,,14,wg-a,,,,AAXX 19214 07190 12570 83506 10080 20000 39914 40099 50004 60006 71422 875// 92100=
07190,1997-04-20 00:00:00,6,1010.1,0,87,4,12000,11.112,,,360,,,,0,,,,,,61,wg-a,,,,AAXX 20004 07190 02562 83606 10060 20040 39914 40101 50000 60016 76162 875// 90000 333 60007=
07190,1997-04-20 06:00:00,5,1011.7,1.5,87,3,8000,18.52,,,20,4.1,9.4,,,,,1,,,1,wg-a,,,,AAXX 20064 07190 02758 70210 10050 20030 39929 40117 53015 60006 70162 83532 90600 333 10094 20041 60014=
07190,1997-04-20 09:00:00,8,1013.1,1.6,53,-1,15000,22.224,,,50,,,,,,,,,,,wg-a,,,,AAXX 20094 07190 12565 50512 10080 21010 39945 40131 53016 60006 85200 90900=
07190,1997-04-20 12:00:00,10,1013.6,0.6,27,-8,25000,31.484,,,30,,,,,,,,,,,wg-a,,,,AAXX 20124 07190 12675 60317 10100 21080 39951 40136 51006 60006 86200 91200=
07190,1997-04-20 15:00:00,11,1013.7,0.2,32,-5,500,25.928,,,30,,,,,,,,,,14,wg-a,,,,AAXX 20154 07190 12700 50314 10110 21050 39953 40137 50002 60006 71422 84201 91500=
07190,1997-04-20 18:00:00,7,1015.5,1.5,49,-3,500,22.224,,,40,4.5,11.4,,,,,,,,,wg-a,,,,AAXX 20184 07190 12600 30412 10070 21030 39968 40155 53015 60006 83460 91800 333 10114 20045=
07190,1997-04-20 21:00:00,5,1016.8,1.1,60,-2,25000,14.816,,,20,,,,,,,,,,,wg-a,,,,AAXX 20214 07190 12775 20208 10050 21020 39979 40168 51011 60006 82500 92100=
07190,1997-04-21 00:00:00,1,1016.8,-0.2,75,-3,25000,11.112,,,350,,,,,,,,,,,wg-a,,,,AAXX 21004 07190 12/75 03506 10010 21030 39977 40168 58002 60006 80000 90000=
07190,1997-04-21 03:00:00,-1,1015.9,-1,80,-4,25000,11.112,,,340,,,,,,,,,,,wg-a,,,,AAXX 21034 07190 12/75 03406 11010 21040 39967 40159 58010 60006 80000 90300=
07190,1997-04-21 06:00:00,1,1016.2,0.4,69,-4,18000,7.408,,,20,-0.8,7.2,,,,,,,,,wg-a,,,,AAXX 21064 07190 02668 /0204 10010 21040 39971 40162 53004 60006 81100 90600 333 10072 21008 60004=
07190,1997-04-21 09:00:00,7,1014.7,-1.1,49,-3,20000,22.224,,,40,,,,,,,,,,,wg-a,,,,AAXX 21094 07190 12670 20412 10070 21030 39960 40147 57011 60006 82100 90900=
07190,1997-04-21 12:00:00,11,1012.3,-2.1,28,-7,35000,22.224,,,30,,,,,,,,,,,wg-a,,,,AAXX 21124 07190 12781 20312 10110 21070 39939 40123 58021 60006 82100 91200=
07190,1997-04-21 15:00:00,12,1010.1,-2.1,26,-7,35000,25.928,,,20,,,,,,,,,,,wg-a,,,,AAXX 21154 07190 12881 10214 10120 21070 39918 40101 58021 60006 81100 91500=
07190,1997-04-21 18:00:00,10,1009.9,-0.3,27,-8,35000,22.224,,,20,-0.8,11.9,,,,,,,,,wg-a,,,,AAXX 21184 07190 12/81 00212 10100 21080 39915 40099 55003 60006 80000 91800 333 10119 21008=
07190,1997-04-21 21:00:00,5,1010.7,0.5,38,-8,500,7.408,,,40,,,,,,,,,,,wg-a,,,,AAXX 21214 07190 12/00 00404 10050 21080 39920 40107 50005 60006 80000 92100=
07190,1997-04-22 00:00:00,0,1011,-0.1,69,-5,25000,3.704,,,220,,,,,,,,,,,wg-a,,,,AAXX 22004 07190 12/75 02202 10000 21050 39919 40110 58001 60006 80000 90000=
07190,1997-04-22 03:00:00,-3,1011.5,0.3,74,-7,25000,0,,,0,,,,,,,,,,,wg-a,,,,AAXX 22034 07190 12/75 00000 11030 21070 39922 40115 52003 60006 80000 90300=
07190,1997-04-22 06:00:00,0,1012.3,1,64,-6,25000,0,,,0,-3.3,11.9,,,,,,,,,wg-a,,,,AAXX 22064 07190 02/75 20000 10000 21060 39932 40123 53010 60006 81031 90600 333 10119 21033 60004=
07190,1997-04-22 09:00:00,9,1012.2,0.5,34,-6,25000,3.704,,,240,,,,,,,,,,,wg-a,,,,AAXX 22094 07190 12675 22402 10090 21060 39937 40122 51005 60006 81201 90900=
07190,1997-04-22 12:00:00,12,1011.6,-0.4,28,-6,35000,11.112,,,30,,,,,,,,,,,wg-a,,,,AAXX 22124 07190 12781 30306 10120 21060 39933 40116 58004 60006 83200 91200=
07190,1997-04-22 15:00:00,13,1011.7,0.2,26,-6,35000,11.112,,,10,,,,,,,,,,,wg-a,,,,AAXX 22154 07190 12781 50106 10130 21060 39935 40117 53002 60006 85200 91500=
07190,1997-04-22 18:00:00,11,1013.5,1.6,37,-3,18000,14.816,,,10,-0.3,13.6,,,,,,,,,wg-a,,,,AAXX 22184 07190 12768 50108 10110 21030 39951 40135 53016 60006 85800 91800 333 10136 21003=
07190,1997-04-22 21:00:00,8,1016.1,2.3,49,-2,15000,11.112,,,20,,,,,,,,,,,wg-a,,,,AAXX 22214 07190 12865 50206 10080 21020 39974 40161 51023 60006 84530 92100=
07190,1997-04-23 00:00:00,4,1017.4,1.1,60,-3,15000,7.408,,,350,,,,,,,,,,,wg-a,,,,AAXX 23004 07190 12/65 03504 10040 21030 39985 40174 51011 60006 80000 90000=
07190,1997-04-23 03:00:00,1,1018.2,0.6,69,-4,15000,0,,,0,,,,,,,,,,,wg-a,,,,AAXX 23034 07190 12/65 00000 10010 21040 39991 40182 53006 60006 80000 90300=
07190,1997-04-23 06:00:00,3,1019.4,1.3,65,-3,18000,7.408,,,340,-0.6,10.9,,,,,,,,,wg-a,,,,AAXX 23064 07190 02768 23404 10030 21030 30004 40194 53013 60006 82501 90600 333 10109 21006 60004=
07190,1997-04-23 09:00:00,10,1019.6,0.6,43,-2,18000,7.408,,,40,,,,,,,,,,,wg-a,,,,AAXX 23094 07190 12668 /0404 10100 21020 30010 40196 51006 60006 81201 90900=
07190,1997-04-23 12:00:00,14,1018.7,-0.6,26,-5,25000,7.408,,,120,,,,,,,,,,,wg-a,,,,AAXX 23124 07190 12775 21204 10140 21050 30004 40187 58006 60006 81101 91200=
07190,1997-04-23 15:00:00,15,1017.7,-0.9,25,-5,25000,7.408,,,30,,,,,,,,,,,wg-a,,,,AAXX 23154 07190 12775 30304 10150 21050 39995 40177 56009 60006 81201 91500=
07190,1997-04-23 18:00:00,14,1017.9,0.1,28,-4,500,3.704,,,20,3.1,15.2,,,,,,,,,wg-a,,,,AAXX 23184 07190 12700 10202 10140 21040 39996 40179 53001 60006 81101 91800 333 10152 20031=
07190,1997-04-23 21:00:00,7,1019.9,1.5,45,-4,500,3.704,,,260,,,,,,,,,,,wg-a,,,,AAXX 23214 07190 12/00 12602 10070 21040 30011 40199 51015 60006 80001 92100=
07190,1997-04-24 00:00:00,2,1021,0.8,64,-4,500,3.704,,,150,,,,,,,,,,,wg-a,,,,AAXX 24004 07190 12/00 01502 10020 21040 30019 40210 51008 60006 80000 90000=
07190,1997-04-24 03:00:00,0,1021.5,0.3,69,-5,500,3.704,,,190,,,,,,,,,,,wg-a,,,,AAXX 24034 07190 12/00 01902 10000 21050 30022 40215 52003 60006 80000 90300=
07190,1997-04-24 06:00:00,3,1022.4,1.1,75,-1,18000,3.704,,,210,-0.6,13.5,,,,,,,,,wg-a,,,,AAXX 24064 07190 02/68 02102 10030 21010 30033 40224 53011 60006 80000 90600 333 10135 21006 60004=
07190,1997-04-24 12:00:00,18,1020,-1.5,24,-3,15000,7.408,,,100,,,,,,,,,,,wg-a,,,,AAXX 24124 07190 12765 31004 10180 21030 30019 40200 58015 60006 81101 91200=
07190,1997-04-24 18:00:00,18,1017.3,-0.7,22,-4,25000,11.112,,,260,2.6,20.1,,,,,,,,,wg-a,,,,AAXX 24184 07190 12/75 62606 10180 21040 39993 40173 56007 60006 80001 91800 333 10201 20026=
07190,1997-04-24 21:00:00,9,1019.1,1.2,43,-3,20000,7.408,,,210,,,,,,,,,,,wg-a,,,,AAXX 24214 07190 12/70 32104 10090 21030 30005 40191 51012 60006 80001 92100=
07190,1997-04-25 00:00:00,7,1019.5,0.2,53,-2,18000,3.704,,,200,,,,,,,,,,,wg-a,,,,AAXX 25004 07190 12/68 62002 10070 21020 30007 40195 50002 60006 80002 90000=
07190,1997-04-25 03:00:00,3,1019.4,-0.3,65,-3,18000,3.704,,,110,,,,,,,,,,,wg-a,,,,AAXX 25034 07190 12/68 61102 10030 21030 30004 40194 56003 60006 80002 90300=
07190,1997-04-25 06:00:00,6,1019.8,0.6,65,0,9000,3.704,,,200,3.2,17.8,,,,,,,,,wg-a,,,,AAXX 25064 07190 02/59 62002 10060 20000 30010 40198 53006 60006 83041 90600 333 10178 20032 60004=
07190,1997-04-25 09:00:00,17,1018.7,-0.4,39,3,15000,11.112,,,190,,,,,,,,,,,wg-a,,,,AAXX 25094 07190 12765 51906 10170 20030 30006 40187 58004 60006 81184 90900=
07190,1997-04-25 12:00:00,21,1016.6,-1.8,23,-1,25000,18.52,,,240,,,,,,,,,,,wg-a,,,,AAXX 25124 07190 12875 62410 10210 21010 39988 40166 58018 60006 81182 91200=
07190,1997-04-25 15:00:00,22,1014.1,-2.4,25,1,35000,11.112,,,250,,,,,,,,,,,wg-a,,,,AAXX 25154 07190 12881 62506 10220 20010 39964 40141 58024 60006 81844 91500=
07190,1997-04-25 18:00:00,19,1013.2,-1.1,28,0,35000,11.112,,,210,6.4,22.1,,,,,,,,,wg-a,,,,AAXX 25184 07190 12881 72106 10190 20000 39953 40132 56011 60006 8357/ 91800 333 10221 20064=
07190,1997-04-25 21:00:00,14,1015.1,1.6,58,6,15000,25.928,,,300,,,,,,,,,,,wg-a,,,,AAXX 25214 07190 12865 83014 10140 20060 39969 40151 53016 60006 8557/ 92100=
07190,1997-04-26 00:00:00,11,1016,0.7,94,10,10000,7.408,,,180,,,,1,,,,,,21,wg-a,,,,AAXX 26004 07190 02360 81804 10110 20100 39976 40160 50007 60016 72162 8557/ 90000 333 60017=
07190,1997-04-26 06:00:00,12,1016.2,0.7,88,10,7000,11.112,,,210,10.6,18.8,,,,,1,,,1,wg-a,,,,AAXX 26064 07190 02557 72106 10120 20100 39978 40162 53007 60006 70162 878// 90600 333 10188 20106 60014=
07190,1997-04-26 09:00:00,15,1016,0.1,67,9,15000,14.816,,,220,,,,,,,,,,,wg-a,,,,AAXX 26094 07190 12565 72208 10150 20090 39979 40160 53001 60006 878// 90900=
07190,1997-04-26 12:00:00,17,1014.5,-1.4,52,7,11000,18.52,,,260,,,,,,,,,,,wg-a,,,,AAXX 26124 07190 12/61 /2610 10170 20070 39965 40145 58014 60006 91200=
07190,1997-04-26 15:00:00,17,1012.6,-1.9,55,8,25000,22.224,,,210,,,,,,,,,,60,wg-a,,,,AAXX 26154 07190 02675 82112 10170 20080 39946 40126 56019 61000 76062 8482/ 91500 333 ////=
07190,1997-04-26 18:00:00,15,1010.8,-1.9,82,12,15000,3.704,,,300,11.4,18.4,,,,,,,,61,wg-a,,,,AAXX 26184 07190 02565 83002 10150 20120 39927 40108 56019 61000 76162 8382/ 91800 333 10184 20114 6000=
07190,1997-04-26 21:00:00,12,1009.7,-1.2,94,11,8000,7.408,,,100,,,,5,,,,,,61,wg-a,,,,AAXX 26214 07190 12558 81004 10120 20110 39915 40097 58012 60057 76166 8372/ 92100=
07190,1997-04-27 00:00:00,12,1007.8,-0.2,94,11,6000,7.408,,,210,,,,5,,,,,,61,wg-a,,,,AAXX 27004 07190 02256 82104 10120 20110 39896 40078 58002 60056 76166 8672/ 90000 333 60057=
07190,1997-04-27 06:00:00,11,1008.1,1.5,87,9,20000,14.816,,,190,10.4,,,,,,12,,,1,wg-a,,,,AAXX 27064 07190 12470 61908 10110 20090 39899 40081 52015 60124 70162 84572 90600 333 20104=
07190,1997-04-27 09:00:00,15,1008.4,0.5,67,9,20000,14.816,,,260,,,,,,,,,,,wg-a,,,,AAXX 27094 07190 12570 62608 10150 20090 39904 40084 51005 60006 85842 90900=
07190,1997-04-27 12:00:00,13,1009.5,1,88,11,15000,18.52,,,160,,,,1,,,,,,60,wg-a,,,,AAXX 27124 07190 02565 71610 10130 20110 39914 40095 52010 60016 76062 87973 91200 333 60017=
07190,1997-04-27 18:00:00,13,1011.7,1.4,77,9,18000,11.112,,,230,10.9,14.7,,,,,,,,1,wg-a,,,,AAXX 27184 07190 02568 72306 10130 20090 39935 40117 53014 60006 70186 878// 91800 333 10147 20109 61000=
07190,1997-04-27 21:00:00,11,1014.5,2.6,87,9,25000,7.408,,,180,,,,,,,,,,,wg-a,,,,AAXX 27214 07190 12575 71804 10110 20090 39961 40145 51026 60006 878// 92100=
07190,1997-04-28 00:00:00,11,1015.9,1.4,87,9,20000,7.408,,,180,,,,,,,,,,,wg-a,,,,AAXX 28004 07190 12570 71804 10110 20090 39975 40159 51014 60006 878// 90000=
07190,1997-04-28 03:00:00,9,1016.3,0.3,93,8,15000,7.408,,,180,,,,0,,,,,,0,wg-a,,,,AAXX 28034 07190 12565 51804 10090 20080 39978 40163 53003 60007 70082 85830 90300=
07190,1997-04-28 06:00:00,10,1016.7,0.5,93,9,9000,11.112,,,170,7.9,13,,,,,1,,,,wg-a,,,,AAXX 28064 07190 02559 71706 10100 20090 39983 40167 53005 60006 85831 90600 333 10130 20079 60014=
07190,1997-04-28 09:00:00,16,1015.5,-0.9,72,11,20000,18.52,,,190,,,,,,,,,,,wg-a,,,,AAXX 28094 07190 12670 71910 10160 20110 39974 40155 58009 60006 83874 90900=
07190,1997-04-28 12:00:00,15,1013.8,-1.7,67,9,500,18.52,,,210,,,,,,,,,,,wg-a,,,,AAXX 28124 07190 12500 82110 10150 20090 39957 40138 56017 60006 878// 91200=
07190,1997-04-28 15:00:00,15,1012.8,-1,72,10,40000,25.928,,,210,,,,,,,,,,,wg-a,,,,AAXX 28154 07190 12582 72114 10150 20100 39947 40128 56010 60006 8487/ 91500=
07190,1997-04-28 18:00:00,15,1011.1,-1.7,67,9,25000,14.816,,,190,10.5,15.9,,,,,,,,3,wg-a,,,,AAXX 28184 07190 02575 81908 10150 20090 39930 40111 56017 60006 70386 8687/ 91800 333 10159 20105 61000=
07190,1997-04-28 21:00:00,14,1010.2,-0.9,77,10,20000,18.52,,,220,,,,,,,,,,,wg-a,,,,AAXX 28214 07190 12670 72210 10140 20100 39921 40102 55009 60006 875// 92100=
07190,1997-04-29 03:00:00,12,1010.4,0.3,62,5,20000,18.52,,,230,,,,,,,,,,,wg-a,,,,AAXX 29034 07190 12670 /2310 10120 20050 39921 40104 53003 60006 86500 90300=
07190,1997-04-29 06:00:00,11,1011.4,1,76,7,20000,14.816,,,220,11.1,14.9,,,,,,,,60,wg-a,,,,AAXX 29064 07190 02570 72208 10110 20070 39931 40114 53010 61000 76086 8587/ 90600 333 10149 20111 6100=
07190,1997-04-29 12:00:00,13,1012.4,0.5,77,9,25000,18.52,,,210,,,,0,,,,,,21,wg-a,,,,AAXX 29124 07190 02475 82110 10130 20090 39942 40124 53005 60006 72162 888// 91200 333 60007=
07190,1997-04-29 18:00:00,12,1014,,71,7,15000,14.816,,,280,,,,,,,,,,1,wg-a,,,,AAXX 29184 07190 12565 /2808 10120 20070 39957 40140 60006 70186 85800 91800=
07190,1997-04-29 21:00:00,10,1016.6,2.4,76,6,15000,11.112,,,280,,,,,,,,,,,wg-a,,,,AAXX 29214 07190 12765 62806 10100 20060 39981 40166 51024 60006 85530 92100=
07190,1997-04-30 00:00:00,10,1017.7,1.1,87,8,8000,3.704,,,190,,,,1,,,,,,61,wg-a,,,,AAXX 30004 07190 02558 81902 10100 20080 39992 40177 51011 60016 76161 875// 90000 333 60017=
07190,1997-04-30 06:00:00,10,1020.4,2,87,8,500,3.704,,,290,8.7,12.1,,,,,4,,,1,wg-a,,,,AAXX 30064 07190 02400 82902 10100 20080 30018 40204 53020 60006 70162 8687/ 90600 333 10121 20087 60044=
07190,1997-04-30 09:00:00,12,1021.9,1.7,82,9,10000,14.816,,,310,,,,0,,,,,,21,wg-a,,,,AAXX 30094 07190 12460 83108 10120 20090 30035 40219 52017 60007 72162 8687/ 90900=
07190,1997-04-30 12:00:00,12,1023.2,1.2,88,10,6000,11.112,,,80,,,,2,,,,,,80,wg-a,,,,AAXX 30124 07190 02556 70806 10120 20100 30047 40232 52012 60026 78086 8687/ 91200 333 60027=
07190,1997-04-30 15:00:00,15,1023.4,-0,55,6,12000,14.816,,,20,,,,,,,,,,1,wg-a,,,,AAXX 30154 07190 32562 /0208 10150 20060 30051 40234 54000 70186 85330 91500=
07190,1997-04-30 18:00:00,14,1025.3,1.8,63,7,15000,11.112,,,10,9.6,15.7,,,,,,,,1,wg-a,,,,AAXX 30184 07190 12665 70106 10140 20070 30069 40253 52018 60006 70186 874// 91800 333 10157 20096=
07190,1997-04-30 21:00:00,12,1027.4,1.9,76,8,12000,3.704,,,330,,,,,,,,,,,wg-a,,,,AAXX 30214 07190 12762 63302 10120 20080 30088 40274 51019 60006 86500 92100=
07190,1997-05-01 00:00:00,10,1027.9,0.4,82,7,10000,3.704,,,340,,,,,,,,,,,wg-a,,,,AAXX 01004 07190 12760 73402 10100 20070 30092 40279 51004 60006 875// 90000=
07190,1997-05-01 03:00:00,8,1028.3,0.2,81,5,8000,7.408,,,330,,,,,,,,,,,wg-a,,,,AAXX 01034 07190 12758 23304 10080 20050 30094 40283 53002 60006 82500 90300=
07190,1997-05-01 06:00:00,9,1029.4,1.2,87,7,7000,7.408,,,340,6.4,13.8,,,,,2,,,,wg-a,,,,AAXX 01064 07190 02/57 03404 10090 20070 30106 40294 53012 60006 80000 90600 333 10138 20064 60024=
07190,1997-05-01 09:00:00,14,1029.6,0.5,67,8,8000,11.112,,,30,,,,,,,,,,,wg-a,,,,AAXX 01094 07190 12558 20306 10140 20080 30111 40296 51005 60006 82200 90900=
07190,1997-05-01 12:00:00,17,1028.6,-0.7,48,6,15000,14.816,,,360,,,,,,,,,,,wg-a,,,,AAXX 01124 07190 12665 33608 10170 20060 30104 40286 56007 60006 83200 91200=
07190,1997-05-01 15:00:00,18,1027.6,-1,45,6,20000,11.112,,,20,,,,,,,,,,,wg-a,,,,AAXX 01154 07190 12770 20206 10180 20060 30094 40276 58010 60006 82200 91500=
07190,1997-05-01 18:00:00,17,1027.4,-0.3,48,6,20000,14.816,,,30,9.1,18.5,,,,,,,,,wg-a,,,,AAXX 01184 07190 12770 10308 10170 20060 30091 40274 56003 60006 81101 91800 333 10185 20091=
07190,1997-05-01 21:00:00,12,1028.5,0.8,71,7,15000,11.112,,,350,,,,,,,,,,,wg-a,,,,AAXX 01214 07190 12/65 13506 10120 20070 30099 40285 53008 60006 80001 92100=
07190,1997-05-02 00:00:00,9,1028.4,-0.3,81,6,15000,3.704,,,300,,,,,,,,,,,wg-a,,,,AAXX 02004 07190 12/65 13002 10090 20060 30096 40284 58003 60006 80001 90000=
07190,1997-05-02 03:00:00,6,1028.5,-0.1,93,5,10000,3.704,,,340,,,,,,,,,,,wg-a,,,,AAXX 02034 07190 12/60 13402 10060 20050 30095 40285 56001 60006 80001 90300=
07190,1997-05-02 06:00:00,9,1029.6,1.3,87,7,9000,3.704,,,350,5.5,16.6,,,,,,,,,wg-a,,,,AAXX 02064 07190 02/59 /3502 10090 20070 30108 40296 53013 60006 80001 90600 333 10166 20055 60004=
07190,1997-05-02 09:00:00,16,1028.9,-0.2,55,7,12000,3.704,,,10,,,,,,,,,,,wg-a,,,,AAXX 02094 07190 12/62 20102 10160 20070 30106 40289 56002 60006 80001 90900=
07190,1997-05-02 12:00:00,21,1026.6,-2,40,7,20000,3.704,,,100,,,,,,,,,,,wg-a,,,,AAXX 02124 07190 12/70 31002 10210 20070 30086 40266 58020 60006 80001 91200=
07190,1997-05-02 15:00:00,23,1023.8,-2.6,33,6,25000,3.704,,,170,,,,,,,,,,,wg-a,,,,AAXX 02154 07190 12/75 11702 10230 20060 30060 40238 57026 60006 80001 91500=
07190,1997-05-02 18:00:00,22,1022.8,-1.1,41,8,500,7.408,,,120,9.2,23,,,,,,,,,wg-a,,,,AAXX 02184 07190 12/00 11204 10220 20080 30049 40228 56011 60006 80001 91800 333 10230 20092=
07190,1997-05-02 21:00:00,15,1023.2,0,67,9,500,7.408,,,250,,,,,,,,,,,wg-a,,,,AAXX 02214 07190 12/00 02504 10150 20090 30049 40232 50000 60006 80000 92100=
07190,1997-05-03 00:00:00,10,1022.5,-1,82,7,500,7.408,,,200,,,,,,,,,,,wg-a,,,,AAXX 03004 07190 12/00 02004 10100 20070 30039 40225 58010 60006 80000 90000=
07190,1997-05-03 06:00:00,11,1021.4,-0.1,82,8,25000,7.408,,,200,7.3,21.5,,,,,,,,,wg-a,,,,AAXX 03064 07190 02/75 12004 10110 20080 30029 40214 55001 60006 80001 90600 333 10215 20073 60004=
07190,1997-05-03 09:00:00,20,1019.4,-1.4,49,9,500,14.816,,,160,,,,,,,,,,,wg-a,,,,AAXX 03094 07190 12/00 11608 10200 20090 30015 40194 58014 60006 80001 90900=
07190,1997-05-03 12:00:00,25,1016.3,-2.8,30,6,500,14.816,,,160,,,,,,,,,,,wg-a,,,,AAXX 03124 07190 12700 21608 10250 20060 39987 40163 58028 60006 81101 91200=
07190,1997-05-03 15:00:00,28,1013.5,-2.6,20,3,40000,18.52,,,260,,,,,,,,,,,wg-a,,,,AAXX 03154 07190 12882 32610 10280 20030 39961 40135 56026 60006 81101 91500=
07190,1997-05-03 18:00:00,24,1013.1,-0.6,29,5,40000,14.816,,,270,10.6,27.8,,,,,,,,,wg-a,,,,AAXX 03184 07190 12/82 62708 10240 20050 39955 40131 55006 60006 81032 91800 333 10278 20106=
07190,1997-05-03 21:00:00,18,1014.1,0.7,45,6,500,7.408,,,240,,,,,,,,,,,wg-a,,,,AAXX 03214 07190 12/00 52404 10180 20060 39962 40141 52007 60006 80002 92100=
07190,1997-05-04 00:00:00,16,1013.6,-0.7,55,7,500,7.408,,,210,,,,,,,,,,,wg-a,,,,AAXX 04004 07190 12700 72104 10160 20070 39955 40136 58007 60006 83532 90000=
07190,1997-05-04 03:00:00,15,1012.9,-0.7,82,12,20000,14.816,,,160,,,,0,,,,,,1,wg-a,,,,AAXX 04034 07190 12670 81608 10150 20120 39948 40129 58007 60007 70186 878// 90300=
07190,1997-05-04 06:00:00,16,1012.7,-0.1,72,11,12000,11.112,,,190,14.2,23.8,,,,,,,,3,wg-a,,,,AAXX 04064 07190 02562 71906 10160 20110 39947 40127 55001 60006 70386 84871 90600 333 10238 20142 60004=
07190,1997-05-04 09:00:00,20,1011.8,-0.6,64,13,12000,14.816,,,150,,,,,,,,,,,wg-a,,,,AAXX 04094 07190 12562 /1508 10200 20130 39941 40118 58006 60006 84881 90900=
07190,1997-05-04 12:00:00,23,1009.1,-2.5,50,12,15000,14.816,,,180,,,,,,,,,,,wg-a,,,,AAXX 04124 07190 12665 /1808 10230 20120 39916 40091 58025 60006 85281 91200=
07190,1997-05-04 15:00:00,26,1006.4,-2.5,34,9,20000,25.928,,,240,,,,,,,,,,,wg-a,,,,AAXX 04154 07190 12770 /2414 10260 20090 39891 40064 56025 60006 85330 91500=
07190,1997-05-04 18:00:00,23,1005.1,-1.4,44,10,20000,14.816,,,230,15.5,26.1,,,,,,,,,wg-a,,,,AAXX 04184 07190 12770 32308 10230 20100 39877 40051 56014 60006 82431 91800 333 10261 20155=
07190,1997-05-05 00:00:00,17,1002.7,-1.7,68,11,20000,14.816,,,190,,,,,,,,,,,wg-a,,,,AAXX 05004 07190 12770 61908 10170 20110 39849 40027 58017 60006 82530 90000=
07190,1997-05-05 03:00:00,16,999.8,-2.9,82,13,4000,11.112,,,190,,,,0,,,,,,80,wg-a,,,,AAXX 05034 07190 12740 81906 10160 20130 39820 49998 56029 60007 78086 878// 90300=
07190,1997-05-05 06:00:00,16,997.1,-2.6,82,13,18000,11.112,,,190,15,23.3,,,,,,,,3,wg-a,,,,AAXX 05064 07190 02668 71906 10160 20130 39794 49971 56026 60006 70382 85872 90600 333 10233 20150 60004=
07190,1997-05-05 09:00:00,14,999.5,2.2,72,9,18000,25.928,,51.856,230,,,,1,,,,,,25,wg-a,,,,AAXX 05094 07190 12568 72314 10140 20090 39816 49995 52022 60017 72586 8587/ 90900 333 91028=
07190,1997-05-05 12:00:00,15,999.5,0.1,77,11,25000,25.928,,,180,,,,1,,,,,,1,wg-a,,,,AAXX 05124 07190 02675 71814 10150 20110 39817 49995 50001 60026 70186 8587/ 91200 333 60017=
07190,1997-05-05 15:00:00,19,997.1,-2.1,49,8,40000,35.188,,,220,,,,,,,,,,,wg-a,,,,AAXX 05154 07190 12682 52219 10190 20080 39796 49971 58021 60006 84102 91500=
07190,1997-05-05 18:00:00,18,996.7,-0.5,49,7,40000,25.928,,,220,12.8,19.7,,,,,,,,,wg-a,,,,AAXX 05184 07190 12682 72214 10180 20070 39791 49967 56005 60006 86301 91800 333 10197 20128=
07190,1997-05-05 21:00:00,15,996.4,-0.5,67,9,15000,7.408,,,260,,,,,,,,,,60,wg-a,,,,AAXX 05214 07190 02665 82604 10150 20090 39786 49964 56005 61000 76062 8687/ 92100 333 ////=
07190,1997-05-06 00:00:00,12,996.1,-0.4,88,10,15000,14.816,,,160,,,,1,,,,,,1,wg-a,,,,AAXX 06004 07190 02565 41608 10120 20100 39782 49961 58004 60016 70161 83801 90000 333 60017=
07190,1997-05-06 03:00:00,11,993,-3.1,94,10,15000,3.704,,,170,,,,,,,,,,,wg-a,,,,AAXX 06034 07190 12765 61702 10110 20100 39751 49930 58031 60006 82531 90300=
07190,1997-05-06 06:00:00,13,990,-2.9,88,11,35000,7.408,,,160,11,18,,,,,4,,,,wg-a,,,,AAXX 06064 07190 02681 71604 10130 20110 39722 49900 57029 60006 84872 90600 333 10180 20110 60044=
07190,1997-05-06 09:00:00,12,991.5,1.4,94,11,10000,25.928,,,180,,,,4,,,,,,61,wg-a,,,,AAXX 06094 07190 12360 81814 10120 20110 39736 49915 51014 60047 76162 878// 90900=
07190,1997-05-06 12:00:00,11,992,0.5,87,9,500,18.52,,,180,,,,2,,,,,,21,wg-a,,,,AAXX 06124 07190 02400 81810 10110 20090 39741 49920 51005 60066 72162 8587/ 91200 333 60027=
07190,1997-05-06 15:00:00,12,990.7,-1.3,71,7,500,22.224,,,180,,,,,,,,,,15,wg-a,,,,AAXX 06154 07190 12600 81812 10120 20070 39728 49907 58013 60006 71522 8687/ 91500=
07190,1997-05-06 18:00:00,11,991.8,1.1,76,7,15000,18.52,,,200,10.8,12.9,,0,,,,,,15,wg-a,,,,AAXX 06184 07190 02565 72010 10110 20070 39739 49918 51011 60006 71582 879// 91800 333 10129 20108 60007=
07190,1997-05-07 00:00:00,5,1002,6.9,87,3,15000,14.816,,,240,,,,1,,,,,,60,wg-a,,,,AAXX 07004 07190 02465 82408 10050 20030 39835 40020 53069 60016 76062 878// 90000 333 60017=
07190,1997-05-07 03:00:00,5,1003.4,1.3,87,3,15000,7.408,,,290,,,,,,,,,,0,wg-a,,,,AAXX 07034 07190 02565 82904 10050 20030 39848 40034 51013 61000 70062 878// 90300 333 ////=
07190,1997-05-07 06:00:00,5,1004.6,1.2,87,3,15000,7.408,,,130,4.8,11.4,,,,,,,,21,wg-a,,,,AAXX 07064 07190 02465 81304 10050 20030 39860 40046 52012 61000 72162 888// 90600 333 10114 20048 6007=
07190,1997-05-07 09:00:00,8,1004.3,-0.1,71,3,25000,7.408,,,150,,,,,,,,,,,wg-a,,,,AAXX 07094 07190 12475 /1504 10080 20030 39859 40043 58001 60006 85800 90900=
07190,1997-05-07 12:00:00,11,1003.3,-0.8,62,4,25000,11.112,,,150,,,,0,,,,,,1,wg-a,,,,AAXX 07124 07190 02575 51506 10110 20040 39851 40033 58008 60016 70186 83261 91200 333 60007=
07190,1997-05-07 15:00:00,11,1001.9,-1.4,50,1,25000,3.704,,,150,,,,,,,,,,,wg-a,,,,AAXX 07154 07190 12675 81502 10110 20010 39837 40019 56014 60006 82232 91500=
07190,1997-05-07 18:00:00,11,1001.4,-0.4,58,3,25000,11.112,,,20,5,12,,,,,,,,,wg-a,,,,AAXX 07184 07190 12675 70206 10110 20030 39833 40014 56004 60006 85832 91800 333 10120 20050=
07190,1997-05-07 21:00:00,8,1002.2,0.6,81,5,20000,0,,,0,,,,,,,,,,,wg-a,,,,AAXX 07214 07190 12770 40000 10080 20050 39839 40022 50006 60006 82531 92100=
07190,1997-05-08 00:00:00,7,1002.5,0.2,87,5,20000,0,,,0,,,,,,,,,,,wg-a,,,,AAXX 08004 07190 12770 50000 10070 20050 39841 40025 51002 60006 82531 90000=
07190,1997-05-08 03:00:00,5,1004.5,1.8,93,4,8000,14.816,,,310,,,,0,,,,,,61,wg-a,,,,AAXX 08034 07190 12558 83108 10050 20040 39859 40045 51018 60007 76162 878// 90300=
07190,1997-05-08 06:00:00,6,1006.9,2.4,75,2,20000,7.408,,,300,5.2,11.2,,,,,1,,,1,wg-a,,,,AAXX 08064 07190 02570 73004 10060 20020 39883 40069 53024 60006 70162 84872 90600 333 10112 20052 60014=
07190,1997-05-08 09:00:00,8,1008.4,1.6,57,0,20000,22.224,,,260,,,,,,,,,,,wg-a,,,,AAXX 08094 07190 12570 72612 10080 20000 39899 40084 51016 60006 84202 90900=
07190,1997-05-08 12:00:00,11,1008.1,-0.1,40,-2,20000,14.816,,48.152,250,,,,,,,,,,,wg-a,,,,AAXX 08124 07190 12770 72508 10110 21020 39898 40081 58001 60006 86201 91200 333 91026=
07190,1997-05-08 15:00:00,12,1007.3,-0.7,40,-1,25000,18.52,,,200,,,,,,,,,,,wg-a,,,,AAXX 08154 07190 12775 /2010 10120 21010 39891 40073 56007 60006 85401 91500=
07190,1997-05-08 18:00:00,11,1007.2,-0.2,43,-1,45000,18.52,,,210,5.8,12.9,,,,,,,,,wg-a,,,,AAXX 08184 07190 12783 52110 10110 21010 39889 40072 56002 60006 83401 91800 333 10129 20058=
07190,1997-05-08 21:00:00,7,1007.6,0.2,66,1,45000,11.112,,,150,,,,,,,,,,,wg-a,,,,AAXX 08214 07190 12/83 31506 10070 20010 39891 40076 50002 60006 83030 92100=
07190,1997-05-09 00:00:00,7,1006.4,-1.2,66,1,45000,14.816,,,160,,,,,,,,,,,wg-a,,,,AAXX 09004 07190 12/83 31608 10070 20010 39879 40064 58012 60006 83030 90000=
07190,1997-05-09 03:00:00,9,1004.1,-2.2,57,1,45000,18.52,,,180,,,,,,,,,,,wg-a,,,,AAXX 09034 07190 12783 /1810 10090 20010 39857 40041 58022 60006 86500 90300=
07190,1997-05-09 06:00:00,7,1004.1,-0,93,6,10000,11.112,,,190,6.7,10.9,,,,,,,,61,wg-a,,,,AAXX 09064 07190 02560 81906 10070 20060 39857 40041 54000 61000 76161 8587/ 90600 333 10109 20067 6002=
07190,1997-05-09 09:00:00,10,1004,0.1,82,7,25000,18.52,,,190,,,,0,,,,,,21,wg-a,,,,AAXX 09094 07190 12575 /1910 10100 20070 39858 40040 53001 60007 72162 8482/ 90900=
07190,1997-05-09 12:00:00,10,1005.6,1.5,82,7,8000,25.928,,,180,,,,,,,,,,80,wg-a,,,,AAXX 09124 07190 02558 71814 10100 20070 39873 40056 53015 60016 78086 879// 91200 333 61000=
07190,1997-05-09 15:00:00,9,1007.6,1.9,87,7,15000,14.816,,,210,,,,4,,,,,,29,wg-a,,,,AAXX 09154 07190 12565 /2108 10090 20070 39892 40076 50019 60047 72998 86963 91500=
07190,1997-05-09 18:00:00,10,1009.1,1.6,87,8,8000,7.408,,,240,7.4,12.3,,,,,,,,80,wg-a,,,,AAXX 09184 07190 02658 72404 10100 20080 39908 40091 53016 61000 78098 86932 91800 333 10123 20074 6001=
07190,1997-05-09 21:00:00,9,1010.9,1.6,87,7,15000,14.816,,,190,,,,1,,,,,,3,wg-a,,,,AAXX 09214 07190 12665 61908 10090 20070 39924 40109 53016 60017 70386 84932 92100=
07190,1997-05-10 00:00:00,8,1012.6,1.7,93,7,15000,22.224,,,190,,,,0,,,,,,1,wg-a,,,,AAXX 10004 07190 02665 31912 10080 20070 39941 40126 51017 60026 70186 81232 90000 333 60007=
07190,1997-05-10 03:00:00,9,1013.7,1.1,87,7,10000,18.52,,,210,,,,1,,,,,,25,wg-a,,,,AAXX 10034 07190 12560 62110 10090 20070 39952 40137 51011 60017 72522 85332 90300=
07190,1997-05-10 06:00:00,10,1014.6,0.9,87,8,15000,14.816,,,200,7.3,10,,,,,7,,,1,wg-a,,,,AAXX 10064 07190 02565 32008 10100 20080 39961 40146 53009 60006 70186 83801 90600 333 10100 20073 60074=
07190,1997-05-10 09:00:00,13,1014.8,0.5,67,7,20000,14.816,,,180,,,,,,,,,,1,wg-a,,,,AAXX 10094 07190 02570 71808 10130 20070 39966 40148 51005 61000 70186 8/800 90900 333 ////=
07190,1997-05-10 12:00:00,15,1014.4,-0.3,51,5,20000,22.224,,,190,,,,,,,,,,1,wg-a,,,,AAXX 10124 07190 02570 71912 10150 20050 39963 40144 58003 61000 70186 86801 91200 333 6100=
07190,1997-05-10 15:00:00,18,1013.5,-0.8,42,5,500,14.816,,,200,,,,,,,,,,,wg-a,,,,AAXX 10154 07190 12600 72008 10180 20050 39955 40135 58008 60006 84871 91500=
07190,1997-05-10 18:00:00,18,1012.8,-0.6,52,8,500,7.408,,,200,9.5,18.5,,,,,,,,,wg-a,,,,AAXX 10184 07190 12700 42004 10180 20080 39949 40128 56006 60006 81141 91800 333 10185 20095=
07190,1997-05-10 21:00:00,12,1013.6,0.5,76,8,500,3.704,,,250,,,,,,,,,,,wg-a,,,,AAXX 10214 07190 12/00 /2502 10120 20080 39953 40136 52005 60006 92100=
07190,1997-05-11 00:00:00,11,1014.1,0.4,82,8,25000,7.408,,,350,,,,,,,,,,,wg-a,,,,AAXX 11004 07190 12775 73504 10110 20080 39957 40141 50004 60006 8217/ 90000=
07190,1997-05-11 03:00:00,10,1013.9,-0.2,87,8,25000,3.704,,,180,,,,,,,,,,,wg-a,,,,AAXX 11034 07190 12775 61802 10100 20080 39955 40139 56002 60006 82131 90300=
07190,1997-05-11 06:00:00,13,1014.4,0.6,72,8,35000,0,,,0,10,17.9,,,,,,,,,wg-a,,,,AAXX 11064 07190 02/81 60000 10130 20080 39961 40144 53006 60006 85041 90600 333 10179 20100 61000=
07190,1997-05-11 09:00:00,19,1013.4,-0.5,49,8,35000,14.816,,,170,,,,,,,,,,,wg-a,,,,AAXX 11094 07190 12/81 51708 10190 20080 39956 40134 58005 60006 82042 90900=
07190,1997-05-11 12:00:00,23,1012.2,-1,33,6,35000,14.816,,,190,,,,,,,,,,,wg-a,,,,AAXX 11124 07190 12781 41908 10230 20060 39946 40122 58010 60006 82231 91200=
07190,1997-05-11 18:00:00,19,1013.6,1.9,52,9,15000,14.816,,,220,12.8,23.7,,,,,,,,25,wg-a,,,,AAXX 11184 07190 02765 72208 10190 20090 39957 40136 53019 61000 72586 879// 91800 333 10237 20128 6000=
07190,1997-05-11 21:00:00,15,1016.2,2.4,77,11,15000,18.52,,,260,,,,,,,,,,80,wg-a,,,,AAXX 11214 07190 02765 72610 10150 20110 39981 40162 53024 61000 78086 85831 92100 333 ////=
07190,1997-05-12 00:00:00,13,1018.8,2.4,94,12,15000,11.112,,,120,,,,1,,,,,,61,wg-a,,,,AAXX 12004 07190 02665 81206 10130 20120 30005 40188 51024 60016 76186 878// 90000 333 60017=
07190,1997-05-12 03:00:00,12,1020.1,1.2,100,12,12000,14.816,,,200,,,,2,,,,,,61,wg-a,,,,AAXX 12034 07190 12662 82008 10120 20120 30017 40201 53012 60027 76162 878// 90300=
07190,1997-05-12 06:00:00,12,1021.8,1.7,94,11,20000,14.816,,,180,11.5,18.6,,,,,,,,60,wg-a,,,,AAXX 12064 07190 02570 81808 10120 20110 30034 40218 51017 61000 76062 8687/ 90600 333 10186 20115 6005=
07190,1997-05-12 09:00:00,12,1023.4,1.6,94,11,12000,11.112,,,190,,,,0,,,,,,21,wg-a,,,,AAXX 12094 07190 12462 81906 10120 20110 30050 40234 52016 60007 72162 8587/ 90900=
07190,1997-05-12 12:00:00,15,1023.8,0.5,77,11,12000,11.112,,,170,,,,,,,,,,1,wg-a,,,,AAXX 12124 07190 12462 71706 10150 20110 30055 40238 50005 60016 70162 85872 91200=
07190,1997-05-12 15:00:00,15,1023.4,-0,77,11,20000,3.704,,,280,,,,,,,,,,,wg-a,,,,AAXX 12154 07190 32570 82802 10150 20110 30051 40234 54000 8683/ 91500=
07190,1997-05-12 18:00:00,16,1022.6,-0.7,63,9,20000,3.704,,,90,11.8,16.4,,,,,,,,,wg-a,,,,AAXX 12184 07190 12670 70902 10160 20090 30044 40226 57007 60006 86801 91800 333 10164 20118=
07190,1997-05-12 21:00:00,12,1023.2,0.1,88,10,20000,0,,,0,,,,,,,,,,,wg-a,,,,AAXX 12214 07190 12770 20000 10120 20100 30047 40232 53001 60006 81501 92100=
07190,1997-05-13 00:00:00,9,1023.6,0.2,93,8,20000,0,,,0,,,,,,,,,,,wg-a,,,,AAXX 13004 07190 12/70 00000 10090 20080 30049 40236 51002 60006 80000 90000=
07190,1997-05-13 03:00:00,9,1023.4,-0.2,93,8,20000,0,,,0,,,,0,,,,,,,wg-a,,,,AAXX 13034 07190 12770 60000 10090 20080 30047 40234 58002 60007 86500 90300=
07190,1997-05-13 06:00:00,11,1024,0.7,94,10,6000,3.704,,,10,7.7,16.2,,,,,,,,,wg-a,,,,AAXX 13064 07190 02756 /0102 10110 20100 30054 40240 53007 60006 85532 90600 333 10162 20077 60004=
07190,1997-05-13 09:00:00,14,1023.5,-0.2,88,12,8000,3.704,,,130,,,,,,,,,,,wg-a,,,,AAXX 13094 07190 12658 61302 10140 20120 30052 40235 58002 60006 82834 90900=
07190,1997-05-13 12:00:00,19,1022.1,-1.1,64,12,18000,7.408,,,180,,,,,,,,,,,wg-a,,,,AAXX 13124 07190 12668 /1804 10190 20120 30041 40221 58011 60006 81242 91200=
07190,1997-05-13 15:00:00,21,1020.6,-1.3,56,12,20000,14.816,,,160,,,,,,,,,,,wg-a,,,,AAXX 13154 07190 12670 51608 10210 20120 30028 40206 57013 60006 82243 91500=
07190,1997-05-13 18:00:00,15,1,1.8,77,11,20000,7.408,,,340,,26.5,,,,,,,,1,wg-a,,,,AAXX 13184 07190 12570 63404 10150 20110 52018 60006 70192 84930 91800 333 10265=
07190,1997-05-13 21:00:00,16,1019.6,-0,82,13,20000,3.704,,,300,,,,,,,,,,,wg-a,,,,AAXX 13214 07190 12/70 63002 10160 20130 30015 40196 55000 60006 82032 92100=
07190,1997-05-14 00:00:00,13,1019.1,-0.7,88,11,15000,3.704,,,190,,,,,,,,,,,wg-a,,,,AAXX 14004 07190 12/65 51902 10130 20110 30008 40191 56007 60006 82032 90000=
07190,1997-05-14 03:00:00,11,1019.2,-0.1,94,10,10000,0,,,0,,,,,,,,,,,wg-a,,,,AAXX 14034 07190 12/60 40000 10110 20100 30007 40192 58001 60006 80001 90300=
07190,1997-05-14 06:00:00,14,1019.4,0.4,88,12,10000,0,,,0,10.4,20.3,,,,,,,,,wg-a,,,,AAXX 14064 07190 02/60 50000 10140 20120 30011 40194 53004 60006 81032 90600 333 10203 20104 60004=
07190,1997-05-14 09:00:00,20,1019.2,0.3,68,14,10000,3.704,,,190,,,,,,,,,,,wg-a,,,,AAXX 14094 07190 12560 61902 10200 20140 30014 40192 51003 60006 81132 90900=
07190,1997-05-14 12:00:00,24,1018.5,-0.5,47,12,15000,3.704,,,360,,,,,,,,,,,wg-a,,,,AAXX 14124 07190 12665 73602 10240 20120 30009 40185 57005 60006 82332 91200=
07190,1997-05-14 15:00:00,23,1018.6,-0,57,14,15000,22.224,,,320,,,,,,,,,,,wg-a,,,,AAXX 14154 07190 12665 /3212 10230 20140 30009 40186 55000 60006 82382 91500=
07190,1997-05-14 18:00:00,20,1018.9,0.1,64,13,25000,14.816,,,330,13.8,24.9,,,,,,,,29,wg-a,,,,AAXX 14184 07190 02775 /3308 10200 20130 30010 40189 53001 60006 72998 82843 91800 333 10249 20138 61000=
07190,1997-05-14 21:00:00,16,1019.8,0.7,77,12,15000,11.112,,,320,,,,,,,,,,,wg-a,,,,AAXX 14214 07190 12765 63206 10160 20120 30017 40198 50007 60006 81432 92100=
07190,1997-05-15 00:00:00,14,1020.4,0.4,82,11,15000,11.112,,,20,,,,,,,,,,,wg-a,,,,AAXX 15004 07190 12/65 20206 10140 20110 30021 40204 53004 60006 80002 90000=
07190,1997-05-15 03:00:00,13,1020.2,-0.2,88,11,8000,11.112,,,350,,,,,,,,,,,wg-a,,,,AAXX 15034 07190 12758 53506 10130 20110 30019 40202 55002 60006 85502 90300=
07190,1997-05-15 06:00:00,14,1021.2,1,82,11,10000,11.112,,,10,12.2,19.6,,,,,,,,,wg-a,,,,AAXX 15064 07190 02860 80106 10140 20110 30029 40212 50010 60006 875// 90600 333 10196 20122 61000=
07190,1997-05-15 09:00:00,18,1019.4,-1.5,68,12,10000,7.408,,,30,,,,,,,,,,,wg-a,,,,AAXX 15094 07190 12/60 30304 10180 20120 30014 40194 58015 60006 80002 90900=
07190,1997-05-15 12:00:00,23,1017.3,-1.8,57,14,12000,11.112,,,40,,,,,,,,,,,wg-a,,,,AAXX 15124 07190 12/62 20406 10230 20140 39996 40173 58018 60006 80001 91200=
07190,1997-05-15 15:00:00,25,1015,-2.1,50,14,15000,18.52,,,30,,,,,,,,,,,wg-a,,,,AAXX 15154 07190 12665 30310 10250 20140 39975 40150 56021 60006 81201 91500=
07190,1997-05-15 18:00:00,24,1014.6,-0.4,57,15,12000,18.52,,,20,14,25.6,,,,,,,,,wg-a,,,,AAXX 15184 07190 12762 60210 10240 20150 39971 40146 55004 60006 81332 91800 333 10256 20140=
07190,1997-05-15 21:00:00,21,1015,0.2,64,14,10000,11.112,,,350,,,,,,,,,,,wg-a,,,,AAXX 15214 07190 12/60 23506 10210 20140 39973 40150 52002 60006 80002 92100=
07190,1997-05-16 00:00:00,18,1015.5,0.3,88,16,8000,11.112,,,310,,,,1,,,,,,80,wg-a,,,,AAXX 16004 07190 02658 73106 10180 20160 39976 40155 51003 60016 78098 8698/ 90000 333 60017=
07190,1997-05-16 03:00:00,16,1014.6,-1,94,15,500,7.408,,,330,,,,1,,,,,,1,wg-a,,,,AAXX 16034 07190 12/00 /3304 10160 20150 39966 40146 55010 60017 70198 82032 90300=
07190,1997-05-16 06:00:00,17,1015.4,0.8,88,15,3000,7.408,,,340,15.2,24.2,,,,,2,,,10,wg-a,,,,AAXX 16064 07190 02/30 33404 10170 20150 39974 40154 52008 60006 71098 81032 90600 333 10242 20152 60024=
07190,1997-05-16 09:00:00,22,1014.4,-0.7,73,17,500,3.704,,,320,,,,,,,,,,,wg-a,,,,AAXX 16094 07190 12/00 /3202 10220 20170 39967 40144 58007 60006 80002 90900=
07190,1997-05-16 12:00:00,27,1012.8,-1.3,51,16,10000,3.704,,,120,,,,,,,,,,,wg-a,,,,AAXX 16124 07190 12660 71202 10270 20160 39954 40128 58013 60006 82901 91200=
07190,1997-05-16 18:00:00,24,1012,0.4,50,13,15000,11.112,,,340,17.1,28.9,,,,,,,,,wg-a,,,,AAXX 16184 07190 12765 43406 10240 20130 39945 40120 53004 60006 82963 91800 333 10289 20171=
07190,1997-05-16 21:00:00,20,1013.3,1,68,14,15000,3.704,,,310,,,,,,,,,,13,wg-a,,,,AAXX 16214 07190 12765 23102 10200 20140 39955 40133 51010 60006 71300 81902 92100=
07190,1997-05-17 00:00:00,17,1014.8,1.3,82,14,15000,7.408,,,220,,,,,,,,,,13,wg-a,,,,AAXX 17004 07190 12765 22204 10170 20140 39968 40148 51013 60006 71300 82961 90000=
07190,1997-05-17 03:00:00,16,1014.6,-0.2,88,14,10000,11.112,,,260,,,,,,,,,,,wg-a,,,,AAXX 17034 07190 12860 62606 10160 20140 39966 40146 55002 60006 84071 90300=
07190,1997-05-17 06:00:00,18,1015,0.5,83,15,15000,7.408,,,150,16,23.9,,,,,,,,,wg-a,,,,AAXX 17064 07190 02/65 51504 10180 20150 39971 40150 53005 60006 84082 90600 333 10239 20160 60004=
07190,1997-05-17 09:00:00,23,1014.4,-0.3,57,14,20000,3.704,,,60,,,,,,,,,,,wg-a,,,,AAXX 17094 07190 12670 /0602 10230 20140 39968 40144 58003 60006 81132 90900=
07190,1997-05-17 12:00:00,27,1012.5,-1.7,42,13,20000,7.408,,,80,,,,,,,,,,,wg-a,,,,AAXX 17124 07190 12770 30804 10270 20130 39951 40125 58017 60006 81901 91200=
07190,1997-05-17 15:00:00,28,1010.4,-1.9,40,13,25000,11.112,,,40,,,,,,,,,,,wg-a,,,,AAXX 17154 07190 12775 40406 10280 20130 39932 40104 56019 60006 83963 91500=
07190,1997-05-17 18:00:00,25,1010.3,-0.3,50,14,25000,3.704,,,50,17.8,28.6,,,,,,,,3,wg-a,,,,AAXX 17184 07190 12775 /0502 10250 20140 39929 40103 58003 60006 70391 82962 91800 333 10286 20178=
07190,1997-05-17 21:00:00,20,1011.1,0.5,73,15,15000,0,,,0,,,,,,,,,,,wg-a,,,,AAXX 17214 07190 12/65 60000 10200 20150 39934 40111 50005 60006 82032 92100=
07190,1997-05-18 00:00:00,20,1011.4,0.3,73,15,15000,11.112,,,230,,,,,,,,,,13,wg-a,,,,AAXX 18004 07190 12765 62306 10200 20150 39937 40114 53003 60006 71322 82232 90000=
07190,1997-05-18 03:00:00,19,1012.1,0.6,68,13,15000,11.112,,,310,,,,,,,,,,13,wg-a,,,,AAXX 18034 07190 12665 73106 10190 20130 39943 40121 51006 60006 71322 879// 90300=
07190,1997-05-18 06:00:00,17,1013.1,0.9,82,14,18000,7.408,,,260,16.8,25.4,,,,,1,,,1,wg-a,,,,AAXX 18064 07190 02668 72604 10170 20140 39952 40131 51009 60006 70186 8687/ 90600 333 10254 20168 60014=
07190,1997-05-18 09:00:00,17,1014.1,0.9,88,15,12000,11.112,,,190,,,,0,,,,,,21,wg-a,,,,AAXX 18094 07190 12562 71906 10170 20150 39961 40141 51009 60007 72186 878// 90900=
07190,1997-05-18 12:00:00,17,1014.3,0.3,88,15,12000,14.816,,,180,,,,,,,,,,3,wg-a,,,,AAXX 18124 07190 02462 81808 10170 20150 39964 40143 52003 60016 70386 878// 91200 333 61000=
07190,1997-05-18 18:00:00,17,1013.1,-1,72,12,20000,11.112,,,180,16.2,17.8,,0,,,,,,1,wg-a,,,,AAXX 18184 07190 02/70 21806 10170 20120 39951 40131 56010 60006 70161 81031 91800 333 10178 20162 60007=
07190,1997-05-18 21:00:00,13,1013.6,0.3,94,12,20000,0,,,0,,,,,,,,,,,wg-a,,,,AAXX 18214 07190 12/70 10000 10130 20120 39954 40136 53003 60006 81030 92100=
07190,1997-05-19 00:00:00,11,1013.6,-0.1,94,10,10000,3.704,,,200,,,,,,,,,,,wg-a,,,,AAXX 19004 07190 12/60 02002 10110 20100 39953 40136 58001 60006 80000 90000=
07190,1997-05-19 03:00:00,10,1013.1,-0.6,93,9,7000,3.704,,,200,,,,0,,,,,,12,wg-a,,,,AAXX 19034 07190 12357 /2002 10100 20090 39947 40131 56006 60007 71200 81600 90300=
07190,1997-05-19 06:00:00,12,1012.9,-0.1,94,11,7000,7.408,,,140,8.9,16.6,,,,,2,,,3,wg-a,,,,AAXX 19064 07190 02157 31404 10120 20110 39946 40129 58001 60006 70340 82630 90600 333 10166 20089 60024=
07190,1997-05-19 09:00:00,19,1011.4,-1,68,13,15000,11.112,,,170,,,,,,,,,,,wg-a,,,,AAXX 19094 07190 12665 21706 10190 20130 39936 40114 56010 60006 81201 90900=
07190,1997-05-19 12:00:00,24,1009.3,-1.8,47,12,25000,11.112,,,170,,,,,,,,,,,wg-a,,,,AAXX 19124 07190 12675 31706 10240 20120 39918 40093 58018 60006 82201 91200=
07190,1997-05-19 15:00:00,26,1007.5,-1.7,34,9,25000,18.52,,,180,,,,,,,,,,,wg-a,,,,AAXX 19154 07190 12775 /1810 10260 20090 39901 40075 56017 60006 82201 91500=
07190,1997-05-19 18:00:00,24,1007.4,-0.1,44,11,500,7.408,,,210,11.7,26.1,,,,,,,,,wg-a,,,,AAXX 19184 07190 12700 /2104 10240 20110 39900 40074 55001 60006 82842 91800 333 10261 20117=
07190,1997-05-19 21:00:00,19,1008.6,0.9,56,10,500,7.408,,,210,,,,,,,,,,,wg-a,,,,AAXX 19214 07190 12700 42104 10190 20100 39909 40086 52009 60006 82232 92100=
07190,1997-05-20 00:00:00,15,1008.9,0,77,11,25000,0,,,0,,,,,,,,,,,wg-a,,,,AAXX 20004 07190 12/75 30000 10150 20110 39909 40089 50000 60006 81041 90000=
07190,1997-05-20 03:00:00,15,1007.9,-1,77,11,18000,3.704,,,150,,,,,,,,,,80,wg-a,,,,AAXX 20034 07190 02668 81502 10150 20110 39899 40079 57010 61000 78086 8697/ 90300 333 ////=
07190,1997-05-20 06:00:00,16,1008.5,0.7,77,12,15000,7.408,,,200,13.8,24.5,,,,,,,,1,wg-a,,,,AAXX 20064 07190 02665 /2004 10160 20120 39906 40085 50007 60006 70186 83832 90600 333 10245 20138 61000=
07190,1997-05-20 09:00:00,21,1007.8,-0.5,53,11,25000,14.816,,,280,,,,,,,,,,,wg-a,,,,AAXX 20094 07190 12675 42808 10210 20110 39901 40078 57005 60006 84400 90900=
07190,1997-05-20 12:00:00,23,1006.3,-1.3,38,8,50000,14.816,,,240,,,,,,,,,,,wg-a,,,,AAXX 20124 07190 12784 52408 10230 20080 39888 40063 58013 60006 83903 91200=
07190,1997-05-20 15:00:00,20,1005.6,-0.9,56,11,15000,14.816,,,320,,,,,,,,,,15,wg-a,,,,AAXX 20154 07190 12765 /3208 10200 20110 39879 40056 55009 60006 71522 84963 91500=
07190,1997-05-20 18:00:00,16,1008.9,3,72,11,20000,14.816,,,180,15.5,24.4,,,,,,,,15,wg-a,,,,AAXX 20184 07190 02670 71808 10160 20110 39909 40089 52030 60006 71598 8386/ 91800 333 10244 20155 61000=
07190,1997-05-20 21:00:00,13,1010.4,1.4,88,11,20000,11.112,,,170,,,,,,,,,,3,wg-a,,,,AAXX 20214 07190 02670 41706 10130 20110 39923 40104 53014 61000 70386 81961 92100 333 ////=
07190,1997-05-21 00:00:00,13,1010.2,-0.3,82,10,20000,14.816,,,190,,,,1,,,,,,3,wg-a,,,,AAXX 21004 07190 02/70 61908 10130 20100 39920 40102 56003 60016 70386 86030 90000 333 60017=
07190,1997-05-21 03:00:00,12,1009.8,-0.4,88,10,20000,14.816,,,180,,,,,,,,,,,wg-a,,,,AAXX 21034 07190 12670 31808 10120 20100 39916 40098 58004 60006 83500 90300=
07190,1997-05-21 06:00:00,13,1009.8,-0,88,11,15000,14.816,,,190,11.5,15.4,,,,,,,,61,wg-a,,,,AAXX 21064 07190 02665 71908 10130 20110 39916 40098 55000 61000 76161 878// 90600 333 10154 20115 6001=
07190,1997-05-21 12:00:00,18,1009.3,-0.6,52,8,20000,25.928,,,200,,,,,,,,,,25,wg-a,,,,AAXX 21124 07190 02670 72014 10180 20080 39914 40093 56006 60016 72586 86801 91200 333 61000=
07190,1997-05-21 15:00:00,16,1008.7,-0.6,68,10,15000,22.224,,46.3,240,,,,0,,,,,,25,wg-a,,,,AAXX 21154 07190 12665 72412 10160 20100 39908 40087 57006 60007 72586 87900 91500 333 91025=
07190,1997-05-21 18:00:00,15,1009.2,0.4,67,9,18000,22.224,,,230,12.7,18.6,,3,,,,,,3,wg-a,,,,AAXX 21184 07190 02568 72312 10150 20090 39912 40092 51004 60006 70398 84963 91800 333 10186 20127 60037=
07190,1997-05-21 21:00:00,13,1011,1.6,82,10,15000,11.112,,,190,,,,,,,,,,,wg-a,,,,AAXX 21214 07190 12565 61906 10130 20100 39928 40110 51016 60006 85832 92100=
07190,1997-05-22 00:00:00,12,1011.5,0.5,88,10,15000,7.408,,,200,,,,,,,,,,,wg-a,,,,AAXX 22004 07190 12565 72004 10120 20100 39933 40115 51005 60006 878// 90000=
07190,1997-05-22 03:00:00,13,1011.9,0.4,77,9,15000,11.112,,,230,,,,,,,,,,,wg-a,,,,AAXX 22034 07190 12565 72306 10130 20090 39937 40119 53004 60006 878// 90300=
07190,1997-05-22 06:00:00,13,1014.1,2.2,77,9,15000,7.408,,,240,12.2,15.1,,,,,4,,,,wg-a,,,,AAXX 22064 07190 02565 82404 10130 20090 39959 40141 53022 60006 878// 90600 333 10151 20122 60044=
07190,1997-05-22 09:00:00,15,1014.9,0.9,63,8,15000,14.816,,,250,,,,,,,,,,,wg-a,,,,AAXX 22094 07190 12665 82508 10150 20080 39968 40149 51009 60006 878// 90900=
07190,1997-05-22 12:00:00,15,1015.1,0.2,77,11,10000,22.224,,,230,,,,0,,,,,,25,wg-a,,,,AAXX 22124 07190 02560 72312 10150 20110 39970 40151 50002 60006 72586 8533/ 91200 333 60007=
07190,1997-05-22 18:00:00,16,1015.1,0.3,68,10,10000,7.408,,,320,12.8,17.4,,,,,,,,3,wg-a,,,,AAXX 22184 07190 02560 63204 10160 20100 39971 40151 53003 60006 70386 85330 91800 333 10174 20128 61000=
07190,1997-05-22 21:00:00,13,1016.5,1.2,94,12,9000,7.408,,,170,,,,,,,,,,25,wg-a,,,,AAXX 22214 07190 02659 71704 10130 20120 39983 40165 51012 61000 72586 8683/ 92100 333 ////=
07190,1997-05-23 00:00:00,10,1016.8,-0,100,10,4000,7.408,,,210,,,,0,,,,,,10,wg-a,,,,AAXX 23004 07190 02740 22104 10100 20100 39983 40168 54000 60006 71086 81501 90000 333 60007=
07190,1997-05-23 03:00:00,11,1016.4,-0.3,94,10,7000,0,,,0,,,,,,,,,,,wg-a,,,,AAXX 23034 07190 12557 70000 10110 20100 39980 40164 58003 60006 8553/ 90300=
07190,1997-05-23 06:00:00,11,1016.8,0.4,100,11,3000,0,,,0,9.9,16.3,,,,,,,,10,wg-a,,,,AAXX 23064 07190 02130 70000 10110 20110 39984 40168 53004 60006 71011 875// 90600 333 10163 20099 60004=
07190,1997-05-23 09:00:00,16,1017,0.5,77,12,6000,3.704,,,50,,,,,,,,,,,wg-a,,,,AAXX 23094 07190 12456 70502 10160 20120 39989 40170 51005 60006 83231 90900=
07190,1997-05-23 12:00:00,17,1016.9,0,68,11,9000,11.112,,,20,,,,,,,,,,25,wg-a,,,,AAXX 23124 07190 02559 70206 10170 20110 39989 40169 50000 61000 72586 8326/ 91200 333 6100=
07190,1997-05-23 15:00:00,18,1016.5,-0.3,64,11,10000,11.112,,,30,,,,4,,,,,,3,wg-a,,,,AAXX 23154 07190 12660 40306 10180 20110 39986 40165 58003 60047 70386 83231 91500=
07190,1997-05-23 18:00:00,17,1017.4,0.7,63,10,12000,14.816,,,20,11.4,18.4,,,,,,,,3,wg-a,,,,AAXX 23184 07190 12662 70208 10170 20100 39993 40174 53007 60006 70386 81231 91800 333 10184 20114=
07190,1997-05-23 21:00:00,13,1018.8,1.2,72,8,10000,11.112,,,10,,,,,,,,,,,wg-a,,,,AAXX 23214 07190 12/60 30106 10130 20080 30005 40188 51012 60006 83031 92100=
07190,1997-05-24 00:00:00,12,1019.3,0.4,71,7,10000,11.112,,,10,,,,,,,,,,,wg-a,,,,AAXX 24004 07190 12660 70106 10120 20070 30009 40193 50004 60006 8653/ 90000=
07190,1997-05-24 03:00:00,9,1019.8,0.3,81,6,10000,11.112,,,350,,,,,,,,,,,wg-a,,,,AAXX 24034 07190 12/60 53506 10090 20060 30012 40198 53003 60006 82032 90300=
07190,1997-05-24 06:00:00,11,1020.6,0.9,76,7,12000,14.816,,,10,8.6,16.7,,,,,4,,,,wg-a,,,,AAXX 24064 07190 02/62 40108 10110 20070 30021 40206 51009 60006 84031 90600 333 10167 20086 60044=
07190,1997-05-24 09:00:00,16,1020.9,0.6,55,7,15000,22.224,,,20,,,,,,,,,,,wg-a,,,,AAXX 24094 07190 12565 40212 10160 20070 30027 40209 51006 60006 81131 90900=
07190,1997-05-24 12:00:00,18,1020.9,0.2,49,7,20000,22.224,,,40,,,,,,,,,,,wg-a,,,,AAXX 24124 07190 12770 60412 10180 20070 30029 40209 51002 60006 83132 91200=
07190,1997-05-24 15:00:00,19,1021.1,0.2,43,6,25000,22.224,,,20,,,,,,,,,,,wg-a,,,,AAXX 24154 07190 12775 50212 10190 20060 30031 40211 53002 60006 81131 91500=
07190,1997-05-24 18:00:00,17,1022.3,1.1,42,4,35000,25.928,,,20,10.9,19.4,,,,,,,,,wg-a,,,,AAXX 24184 07190 12881 50214 10170 20040 30042 40223 53011 60006 834/1 91800 333 10194 20109=
07190,1997-05-25 00:00:00,11,1025.1,0.7,58,3,20000,14.816,,,10,,,,,,,,,,,wg-a,,,,AAXX 25004 07190 12/70 30108 10110 20030 30065 40251 51007 60006 80002 90000=
07190,1997-05-25 03:00:00,9,1025.6,0.3,66,3,15000,11.112,,,10,,,,,,,,,,,wg-a,,,,AAXX 25034 07190 12/65 20106 10090 20030 30068 40256 52003 60006 80001 90300=
07190,1997-05-25 06:00:00,10,1026.3,0.8,66,4,25000,18.52,,,20,8.1,17.2,,,,,,,,,wg-a,,,,AAXX 25064 07190 02/75 20210 10100 20040 30076 40263 51008 60006 80001 90600 333 10172 20081 60004=
07190,1997-05-25 09:00:00,16,1024.8,-1.1,48,5,25000,14.816,,,30,,,,,,,,,,,wg-a,,,,AAXX 25094 07190 12/75 10308 10160 20050 30065 40248 58011 60006 80001 90900=
07190,1997-05-25 15:00:00,21,1021.2,-1.9,35,5,500,25.928,,,20,,,,,,,,,,,wg-a,,,,AAXX 25154 07190 12700 20214 10210 20050 30033 40212 58019 60006 81201 91500=
07190,1997-05-25 18:00:00,19,1020.9,-0.4,34,3,500,22.224,,,10,10.1,20.9,,,,,,,,,wg-a,,,,AAXX 25184 07190 12/00 10112 10190 20030 30029 40209 56004 60006 81030 91800 333 10209 20101=
07190,1997-05-25 21:00:00,14,1022.3,1.1,47,3,25000,14.816,,,340,,,,,,,,,,,wg-a,,,,AAXX 25214 07190 12/75 03408 10140 20030 30040 40223 51011 60006 80000 92100=
07190,1997-05-26 00:00:00,10,1023,0.4,62,3,20000,11.112,,,340,,,,,,,,,,,wg-a,,,,AAXX 26004 07190 12/70 03406 10100 20030 30044 40230 51004 60006 80000 90000=
07190,1997-05-26 06:00:00,12,1023.4,0.3,62,5,40000,14.816,,,20,7.7,18.9,,,,,,,,,wg-a,,,,AAXX 26064 07190 02/82 10208 10120 20050 30049 40234 52003 60006 80001 90600 333 10189 20077 60004=
07190,1997-05-26 09:00:00,17,1023.5,0.4,45,5,35000,14.816,,,20,,,,,,,,,,,wg-a,,,,AAXX 26094 07190 12/81 40208 10170 20050 30053 40235 50004 60006 80002 90900=
07190,1997-05-26 12:00:00,21,1021.9,-1.3,30,3,35000,11.112,,,350,,,,,,,,,,,wg-a,,,,AAXX 26124 07190 12781 63506 10210 20030 30040 40219 58013 60006 81102 91200=
07190,1997-05-26 15:00:00,22,1020,-1.8,27,2,40000,7.408,,,360,,,,,,,,,,,wg-a,,,,AAXX 26154 07190 12782 33604 10220 20020 30022 40200 58018 60006 81142 91500=
07190,1997-05-26 18:00:00,21,1019.4,-0.7,33,4,40000,14.816,,,330,11.5,22.9,,,,,,,,,wg-a,,,,AAXX 26184 07190 12/82 23308 10210 20040 30015 40194 55007 60006 81041 91800 333 10229 20115=
07190,1997-05-26 21:00:00,17,1020.3,0.7,42,4,40000,11.112,,,300,,,,,,,,,,,wg-a,,,,AAXX 26214 07190 12/82 23006 10170 20040 30022 40203 51007 60006 80002 92100=
07190,1997-05-27 00:00:00,13,1020.2,-0.3,58,5,500,7.408,,,290,,,,,,,,,,,wg-a,,,,AAXX 27004 07190 12/00 12904 10130 20050 30019 40202 55003 60006 80001 90000=
07190,1997-05-27 03:00:00,11,1020.1,-0.3,66,5,12000,3.704,,,280,,,,,,,,,,,wg-a,,,,AAXX 27034 07190 12862 12802 10110 20050 30016 40201 58003 60006 81500 90300=
07190,1997-05-27 06:00:00,13,1020.4,0.4,58,5,9000,0,,,0,9.1,21.1,,,,,,,,,wg-a,,,,AAXX 27064 07190 02/59 30000 10130 20050 30020 40204 53004 60006 82032 90600 333 10211 20091 60004=
07190,1997-05-27 09:00:00,17,1020.5,0.4,52,7,12000,14.816,,,20,,,,,,,,,,,wg-a,,,,AAXX 27094 07190 12662 50208 10170 20070 30024 40205 51004 60006 85800 90900=
07190,1997-05-27 12:00:00,19,1019.7,-0.7,43,6,20000,18.52,,,20,,,,,,,,,,,wg-a,,,,AAXX 27124 07190 12670 20210 10190 20060 30017 40197 58007 60006 82200 91200=
07190,1997-05-27 18:00:00,20,1018.1,-0.4,37,5,500,18.52,,,360,13.2,21.4,,,,,,,,,wg-a,,,,AAXX 27184 07190 12700 13610 10200 20050 30002 40181 55004 60006 81400 91800 333 10214 20132=
07190,1997-05-28 00:00:00,10,1021.8,1.2,71,5,15000,7.408,,,340,,,,,,,,,,,wg-a,,,,AAXX 28004 07190 12/65 13404 10100 20050 30032 40218 51012 60006 81030 90000=
07190,1997-05-28 03:00:00,8,1023.1,1.1,81,5,10000,11.112,,,340,,,,,,,,,,,wg-a,,,,AAXX 28034 07190 12/60 13406 10080 20050 30043 40231 53011 60006 80001 90300=
07190,1997-05-28 06:00:00,10,1024.9,2,62,3,10000,14.816,,,20,7,19.9,,,,,,,,,wg-a,,,,AAXX 28064 07190 02560 20208 10100 20030 30063 40249 51020 60006 81801 90600 333 10199 20070 60004=
07190,1997-05-28 09:00:00,13,1025.9,1.1,41,0,20000,25.928,,,40,,,,,,,,,,,wg-a,,,,AAXX 28094 07190 12670 30414 10130 20000 30074 40259 51011 60006 83800 90900=
07190,1997-05-28 12:00:00,16,1025.5,-0.2,39,2,40000,22.224,,,30,,,,,,,,,,,wg-a,,,,AAXX 28124 07190 12682 /0312 10160 20020 30072 40255 58002 60006 81200 91200=
07190,1997-05-28 18:00:00,16,1025.7,0.6,39,2,40000,29.632,,,40,10.1,17.5,,,,,,,,,wg-a,,,,AAXX 28184 07190 12782 20416 10160 20020 30074 40257 51006 60006 82400 91800 333 10175 20101=
07190,1997-05-28 21:00:00,12,1027.2,1.2,58,4,40000,14.816,,,30,,,,,,,,,,,wg-a,,,,AAXX 28214 07190 12782 10308 10120 20040 30086 40272 53012 60006 81500 92100=
07190,1997-05-29 00:00:00,8,1027.4,0,81,5,500,11.112,,,350,,,,,,,,,,,wg-a,,,,AAXX 29004 07190 12/00 03506 10080 20050 30086 40274 50000 60006 80000 90000=
07190,1997-05-29 03:00:00,6,1027.1,-0.4,87,4,15000,7.408,,,320,,,,,,,,,,,wg-a,,,,AAXX 29034 07190 12/65 13204 10060 20040 30082 40271 58004 60006 80001 90300=
07190,1997-05-29 06:00:00,10,1027,0.1,76,6,20000,11.112,,,10,5.7,16,,,,,,,,,wg-a,,,,AAXX 29064 07190 02/70 40106 10100 20060 30083 40270 53001 60006 80001 90600 333 10160 20057 60004=
07190,1997-05-29 09:00:00,17,1026,-0.5,42,4,25000,14.816,,,50,,,,,,,,,,,wg-a,,,,AAXX 29094 07190 12/75 60508 10170 20040 30078 40260 58005 60006 80004 90900=
07190,1997-05-29 12:00:00,21,1024.7,-1.1,35,5,50000,11.112,,,40,,,,,,,,,,,wg-a,,,,AAXX 29124 07190 12/84 60406 10210 20050 30067 40247 58011 60006 80002 91200=
07190,1997-05-29 15:00:00,22,1023.7,-0.9,33,5,50000,14.816,,,10,,,,,,,,,,,wg-a,,,,AAXX 29154 07190 12/84 60108 10220 20050 30058 40237 58009 60006 80002 91500=
07190,1997-05-29 18:00:00,20,1024,0.2,35,4,50000,14.816,,,20,10.1,22.1,,,,,,,,,wg-a,,,,AAXX 29184 07190 12/84 60208 10200 20040 30060 40240 53002 60006 80002 91800 333 10221 20101=
07190,1997-05-29 21:00:00,14,1024.9,0.5,58,6,50000,7.408,,,320,,,,,,,,,,,wg-a,,,,AAXX 29214 07190 12/84 63204 10140 20060 30065 40249 53005 60006 80002 92100=
07190,1997-05-30 00:00:00,10,1025.4,0.3,76,6,40000,3.704,,,300,,,,,,,,,,,wg-a,,,,AAXX 30004 07190 12/82 03002 10100 20060 30068 40254 53003 60006 80000 90000=
07190,1997-05-30 03:00:00,9,1026.2,0.7,76,5,25000,7.408,,,330,,,,,,,,,,,wg-a,,,,AAXX 30034 07190 12/75 13304 10090 20050 30075 40262 53007 60006 80001 90300=
07190,1997-05-30 06:00:00,14,1026.7,0.8,58,6,20000,14.816,,,360,9,19.6,,,,,,,,,wg-a,,,,AAXX 30064 07190 02/70 23608 10140 20060 30083 40267 51008 60006 80001 90600 333 10196 20090 60004=
07190,1997-05-30 09:00:00,17,1026.1,-0.4,52,7,20000,22.224,,,40,,,,,,,,,,,wg-a,,,,AAXX 30094 07190 12670 20412 10170 20070 30079 40261 56004 60006 81101 90900=
07190,1997-05-30 12:00:00,20,1024.7,-1.2,37,5,25000,18.52,,,40,,,,,,,,,,,wg-a,,,,AAXX 30124 07190 12775 10410 10200 20050 30067 40247 58012 60006 81101 91200=
07190,1997-05-30 15:00:00,22,1023.4,-1.2,29,3,25000,29.632,,,30,,,,,,,,,,,wg-a,,,,AAXX 30154 07190 12775 10316 10220 20030 30055 40234 56012 60006 81102 91500=
07190,1997-05-30 18:00:00,20,1022.9,-0.6,32,3,40000,35.188,,,40,13.6,22,,,,,,,,,wg-a,,,,AAXX 30184 07190 12/82 10419 10200 20030 30049 40229 58006 60006 80002 91800 333 10220 20136=
07190,1997-05-30 21:00:00,15,1024.1,0.9,41,2,40000,18.52,,,40,,,,,,,,,,,wg-a,,,,AAXX 30214 07190 12/82 10410 10150 20020 30058 40241 51009 60006 80001 92100=
07190,1997-05-31 00:00:00,11,1024.1,-0.2,58,3,500,11.112,,,10,,,,,,,,,,,wg-a,,,,AAXX 31004 07190 12/00 00106 10110 20030 30056 40241 56002 60006 80000 90000=
07190,1997-05-31 03:00:00,8,1023.7,-0.6,71,3,500,7.408,,,350,,,,,,,,,,,wg-a,,,,AAXX 31034 07190 12/00 03504 10080 20030 30050 40237 58006 60006 80000 90300=
07190,1997-05-31 09:00:00,16,1021.5,-1.2,45,4,40000,29.632,,,30,,,,,,,,,,,wg-a,,,,AAXX 31094 07190 12682 20316 10160 20040 30033 40215 58012 60006 81101 90900=
07190,1997-05-31 12:00:00,19,1020,-1.3,30,1,40000,35.188,,,30,,,,,,,,,,,wg-a,,,,AAXX 31124 07190 12/82 20319 10190 20010 30020 40200 56013 60006 80002 91200=
07190,1997-05-31 15:00:00,19,1018.2,-1.8,24,-2,40000,35.188,,,30,,,,,,,,,,,wg-a,,,,AAXX 31154 07190 12/82 10319 10190 21020 30002 40182 58018 60006 80001 91500=
07190,1997-05-31 18:00:00,17,1017.6,-0.7,29,-1,40000,35.188,,,30,11.7,19.6,,,,,,,,,wg-a,,,,AAXX 31184 07190 12/82 10319 10170 21010 39995 40176 58007 60006 80001 91800 333 10196 20117=
07190,1997-06-01 00:00:00,11,1018.2,-0.6,43,-1,500,22.224,,,30,,,,,,,,,,,wg-a,,,,AAXX 01004 07190 12/00 00312 10110 21010 39997 40182 58006 60006 80000 90000=
07190,1997-06-01 03:00:00,8,1017,-1.4,53,-1,25000,18.52,,,20,,,,,,,,,,,wg-a,,,,AAXX 01034 07190 12675 /0210 10080 21010 39983 40170 56014 60006 81501 90300=
07190,1997-06-01 06:00:00,10,1016.3,-0.5,53,1,40000,25.928,,,20,7.5,17.4,,,,,,,,,wg-a,,,,AAXX 01064 07190 02682 20214 10100 20010 39978 40163 58005 60006 81102 90600 333 10174 20075 60004=
07190,1997-06-01 09:00:00,14,1014.1,-1.9,41,1,40000,35.188,,,40,,,,,,,,,,,wg-a,,,,AAXX 01094 07190 12782 50419 10140 20010 39959 40141 58019 60006 81102 90900=
07190,1997-06-01 12:00:00,17,1012.4,-1.5,36,2,40000,29.632,,,50,,,,,,,,,,,wg-a,,,,AAXX 01124 07190 12782 70516 10170 20020 39944 40124 57015 60006 84802 91200=
07190,1997-06-01 15:00:00,18,1010.6,-1.7,34,2,35000,22.224,,,80,,,,,,,,,,,wg-a,,,,AAXX 01154 07190 12781 70812 10180 20020 39927 40106 58017 60006 83832 91500=
07190,1997-06-01 18:00:00,17,1010.6,-0.1,42,4,500,14.816,,,70,9.6,18.5,,,,,,,,60,wg-a,,,,AAXX 01184 07190 02700 80708 10170 20040 39926 40106 55001 61000 76062 8357/ 91800 333 10185 20096 6100=
07190,1997-06-01 21:00:00,16,1010.6,-0,51,6,25000,11.112,,,20,,,,,,,,,,,wg-a,,,,AAXX 01214 07190 12775 80206 10160 20060 39926 40106 54000 60006 8657/ 92100=
07190,1997-06-02 00:00:00,15,1010.6,-0.1,55,6,0,22.224,,,30,,,,,,,,,,,wg-a,,,,AAXX 02004 07190 12/// /0312 10150 20060 39925 40106 55001 60006 90000=
07190,1997-06-02 06:00:00,14,1012,1,67,8,12000,18.52,,,30,12.7,16.7,,,,,,,,,wg-a,,,,AAXX 02064 07190 02/62 60310 10140 20080 39938 40120 53010 60006 85079 90600 333 10167 20127 61000=
07190,1997-06-02 09:00:00,17,1012.5,0.7,55,8,13000,14.816,,,20,,,,,,,,,,,wg-a,,,,AAXX 02094 07190 12663 /0208 10170 20080 39945 40125 51007 60006 81231 90900=
07190,1997-06-02 12:00:00,20,1012.4,0.1,46,8,18000,14.816,,,20,,,,,,,,,,,wg-a,,,,AAXX 02124 07190 12668 20208 10200 20080 39946 40124 50001 60006 82231 91200=
07190,1997-06-02 18:00:00,20,1012.6,0.2,53,10,15000,11.112,,,20,13.5,21.5,,,,,,,,,wg-a,,,,AAXX 02184 07190 12765 70206 10200 20100 39948 40126 53002 60006 8387/ 91800 333 10215 20135=
07190,1997-06-02 21:00:00,18,1013.3,0.6,64,11,10000,7.408,,,290,,,,,,,,,,,wg-a,,,,AAXX 02214 07190 12760 82904 10180 20110 39954 40133 53006 60006 8687/ 92100=
07190,1997-06-03 00:00:00,15,1013.7,0.2,88,13,10000,3.704,,,300,,,,0,,,,,,1,wg-a,,,,AAXX 03004 07190 02660 73002 10150 20130 39956 40137 53002 60016 70162 8587/ 90000 333 60007=
07190,1997-06-03 03:00:00,14,1013.9,0.2,100,14,3000,0,,,0,,,,1,,,,,,10,wg-a,,,,AAXX 03034 07190 12430 80000 10140 20140 39958 40139 53002 60017 710// 875// 90300=
07190,1997-06-03 06:00:00,15,1014.4,0.5,94,14,2800,7.408,,,160,14.3,20.3,,,,,2,,,10,wg-a,,,,AAXX 03064 07190 02228 81604 10150 20140 39963 40144 53005 60006 71062 875// 90600 333 10203 20143 60024=
07190,1997-06-03 09:00:00,17,1014.6,0.3,82,14,6000,3.704,,,100,,,,,,,,,,1,wg-a,,,,AAXX 03094 07190 02456 71002 10170 20140 39966 40146 51003 61000 70186 878// 90900 333 ////=
07190,1997-06-03 12:00:00,17,1015.2,0.6,77,13,8000,3.704,,,80,,,,2,,,,,,61,wg-a,,,,AAXX 03124 07190 02458 70802 10170 20130 39972 40152 53006 60026 76198 879// 91200 333 60027=
07190,1997-06-03 15:00:00,18,1015.2,0.1,83,15,7000,11.112,,,70,,,,,,,,,,3,wg-a,,,,AAXX 03154 07190 02557 70706 10180 20150 39973 40152 50001 61000 70362 8583/ 91500 333 ////=
07190,1997-06-03 18:00:00,18,1015.8,0.6,73,13,9000,7.408,,,30,14.7,19.2,,,,,,,,1,wg-a,,,,AAXX 03184 07190 12459 70304 10180 20130 39979 40158 53006 60006 70162 8336/ 91800 333 10192 20147=
07190,1997-06-04 00:00:00,13,1017.4,0.3,94,12,4500,3.704,,,310,,,,,,,,,,10,wg-a,,,,AAXX 04004 07190 12/45 23102 10130 20120 39991 40174 51003 60006 71011 82030 90000=
07190,1997-06-04 03:00:00,11,1017.2,-0.3,100,11,3000,3.704,,,300,,,,,,,,,,10,wg-a,,,,AAXX 04034 07190 12230 33002 10110 20110 39988 40172 55003 60006 71000 83500 90300=
07190,1997-06-04 06:00:00,13,1017.4,0.3,94,12,800,3.704,,,10,11.2,18,,,,,2,,,10,wg-a,,,,AAXX 04064 07190 02108 70102 10130 20120 39991 40174 52003 60006 71041 876// 90600 333 10180 20112 60024=
07190,1997-06-04 09:00:00,16,1017.2,-0,82,13,3500,3.704,,,350,,,,,,,,,,10,wg-a,,,,AAXX 04094 07190 12435 73502 10160 20130 39991 40172 54000 60006 71042 876// 90900=
07190,1997-06-04 12:00:00,21,1015.6,-1.3,60,13,9000,3.704,,,50,,,,,,,,,,1,wg-a,,,,AAXX 04124 07190 12559 /0502 10210 20130 39978 40156 58013 60006 70141 81100 91200=
07190,1997-06-04 15:00:00,24,1013.7,-1.6,41,10,15000,7.408,,,40,,,,,,,,,,,wg-a,,,,AAXX 04154 07190 12665 40404 10240 20100 39962 40137 58016 60006 82201 91500=
07190,1997-06-04 18:00:00,23,1012.6,-1.2,44,10,25000,11.112,,,30,12.7,24.3,,,,,,,,,wg-a,,,,AAXX 04184 07190 12775 10306 10230 20100 39950 40126 56012 60006 81101 91800 333 10243 20127=
07190,1997-06-04 21:00:00,18,1012.6,-0.3,64,11,25000,3.704,,,350,,,,,,,,,,,wg-a,,,,AAXX 04214 07190 12775 43502 10180 20110 39947 40126 56003 60006 844/1 92100=
07190,1997-06-05 00:00:00,14,1011.8,-1,77,10,15000,7.408,,,320,,,,,,,,,,,wg-a,,,,AAXX 05004 07190 12/65 53204 10140 20100 39937 40118 58010 60006 80004 90000=
07190,1997-06-05 03:00:00,12,1010.6,-1.3,82,9,12000,7.408,,,320,,,,,,,,,,,wg-a,,,,AAXX 05034 07190 12/62 53204 10120 20090 39924 40106 56013 60006 80002 90300=
07190,1997-06-05 06:00:00,15,1009.9,-0.6,72,10,12000,11.112,,,10,12,23.3,,,,,,,,,wg-a,,,,AAXX 05064 07190 02/62 70106 10150 20100 39918 40099 56006 60006 83032 90600 333 10233 20120 60004=
07190,1997-06-05 12:00:00,23,1006.6,-1.5,50,12,15000,14.816,,,10,,,,,,,,,,,wg-a,,,,AAXX 05124 07190 12/65 70108 10230 20120 39891 40066 58015 60006 83072 91200=
07190,1997-06-05 18:00:00,25,1004.2,-0.4,44,12,15000,18.52,,,30,14.6,25.8,,,,,,,,,wg-a,,,,AAXX 05184 07190 12765 60310 10250 20120 39869 40042 55004 60006 81432 91800 333 10258 20146=
07190,1997-06-05 21:00:00,19,1005,0.4,64,12,15000,7.408,,,340,,,,,,,,,,,wg-a,,,,AAXX 05214 07190 12/65 43404 10190 20120 39873 40050 53004 60006 82032 92100=
07190,1997-06-06 00:00:00,17,1005.5,0.4,72,12,15000,7.408,,,300,,,,,,,,,,,wg-a,,,,AAXX 06004 07190 12765 33004 10170 20120 39877 40055 53004 60006 83500 90000=
07190,1997-06-06 06:00:00,16,1009.7,2.8,94,15,9000,7.408,,,110,16.1,24.5,,,,,1,,,29,wg-a,,,,AAXX 06064 07190 02559 71104 10160 20150 39918 40097 51028 60006 72998 8493/ 90600 333 10245 20161 60014=
07190,1997-06-06 09:00:00,17,1011.1,1.4,94,16,7000,11.112,,,170,,,,,,,,,,,wg-a,,,,AAXX 06094 07190 12257 71706 10170 20160 39932 40111 51014 60006 8556/ 90900=
07190,1997-06-06 12:00:00,23,1011.3,0.6,65,16,15000,18.52,,,170,,,,,,,,,,,wg-a,,,,AAXX 06124 07190 12565 51710 10230 20160 39938 40113 51006 60006 82231 91200=
07190,1997-06-06 15:00:00,25,1010.5,-0.7,54,15,15000,7.408,,,170,,,,,,,,,,,wg-a,,,,AAXX 06154 07190 12665 /1704 10250 20150 39931 40105 57007 60006 81961 91500=
07190,1997-06-06 18:00:00,24,1010.7,0.1,65,17,25000,7.408,,,290,16.1,25.7,,,,,,,,,wg-a,,,,AAXX 06184 07190 12775 /2904 10240 20170 39932 40107 53001 60006 81232 91800 333 10257 20161=
07190,1997-06-07 00:00:00,16,1012.1,0,94,15,15000,3.704,,,230,,,,,,,,,,,wg-a,,,,AAXX 07004 07190 12/65 12302 10160 20150 39941 40121 50000 60006 80001 90000=
07190,1997-06-07 03:00:00,14,1011.9,-0.3,94,13,6000,3.704,,,10,,,,,,,,,,11,wg-a,,,,AAXX 07034 07190 12/56 20102 10140 20130 39938 40119 58003 60006 71100 81031 90300=
07190,1997-06-07 06:00:00,17,1012.6,0.9,94,16,8000,3.704,,,350,13.3,23.8,,,,,,,,,wg-a,,,,AAXX 07064 07190 02/58 43502 10170 20160 39947 40126 51009 60006 80002 90600 333 10238 20133 60004=
07190,1997-06-07 12:00:00,28,1010.5,-0.8,40,13,25000,7.408,,,220,,,,,,,,,,,wg-a,,,,AAXX 07124 07190 12675 /2204 10280 20130 39933 40105 57008 60006 82272 91200=
07190,1997-06-07 15:00:00,30,1009.4,-1,40,15,25000,11.112,,,120,,,,,,,,,,,wg-a,,,,AAXX 07154 07190 12675 /1206 10300 20150 39923 40094 56010 60006 81272 91500=
07190,1997-06-07 18:00:00,28,1008.8,-0.7,48,16,25000,3.704,,,150,17.2,30.1,,,,,,,,,wg-a,,,,AAXX 07184 07190 12675 61502 10280 20160 39916 40088 56007 60006 82881 91800 333 10301 20172=
07190,1997-06-07 21:00:00,23,1008.9,-0.2,65,16,20000,7.408,,,340,,,,,,,,,,,wg-a,,,,AAXX 07214 07190 12770 83404 10230 20160 39914 40089 57002 60006 83872 92100=
07190,1997-06-08 00:00:00,18,1011.9,2.7,94,17,15000,7.408,,,50,,,,14,,,,,,29,wg-a,,,,AAXX 08004 07190 02665 80504 10180 20170 39941 40119 53027 60146 72998 8597/ 90000 333 60147=
07190,1997-06-08 03:00:00,17,1012.4,0.4,100,17,15000,3.704,,,160,,,,2,,,,,,25,wg-a,,,,AAXX 08034 07190 12565 81602 10170 20170 39945 40124 51004 60027 72586 8687/ 90300=
07190,1997-06-08 06:00:00,18,1013.3,0.9,94,17,15000,11.112,,,180,17.3,28,,,,,17,,,1,wg-a,,,,AAXX 08064 07190 02665 /1806 10180 20170 39954 40133 51009 60006 70186 82870 90600 333 10280 20173 60174=
07190,1997-06-08 09:00:00,21,1015.1,2,83,18,15000,18.52,,,200,,,,,,,,,,,wg-a,,,,AAXX 08094 07190 12665 72010 10210 20180 39974 40151 51020 60006 878// 90900=
07190,1997-06-08 12:00:00,24,1015.3,0.3,65,17,40000,11.112,,,190,,,,,,,,,,1,wg-a,,,,AAXX 08124 07190 02582 31906 10240 20170 39977 40153 50003 61000 70186 83300 91200 333 6100=
07190,1997-06-08 15:00:00,22,1016.3,0.9,65,15,40000,7.408,,,190,,,,2,,,,,,25,wg-a,,,,AAXX 08154 07190 12682 51904 10220 20150 39986 40163 51009 60027 72598 82963 91500=
07190,1997-06-08 18:00:00,17,1019.3,2.6,82,14,60000,3.704,,,120,16.2,24.5,,5,,,,,,1,wg-a,,,,AAXX 08184 07190 02686 51202 10170 20140 30012 40193 51026 60006 70198 82932 91800 333 10245 20162 60057=
07190,1997-06-09 00:00:00,13,1022.2,1.1,100,13,25000,3.704,,,150,,,,0,,,,,,,wg-a,,,,AAXX 09004 07190 02/75 31502 10130 20130 30039 40222 51011 60006 82032 90000 333 60007=
07190,1997-06-09 03:00:00,13,1022.8,0.5,94,12,500,0,,,0,,,,,,,,,,11,wg-a,,,,AAXX 09034 07190 12/00 /0000 10130 20120 30044 40228 51005 60006 71100 81031 90300=
07190,1997-06-09 06:00:00,15,1024.1,1.4,94,14,10000,0,,,0,12.2,16.8,,,,,8,,,3,wg-a,,,,AAXX 09064 07190 02260 20000 10150 20140 30058 40241 51014 60006 70340 81801 90600 333 10168 20122 60084=
07190,1997-06-09 09:00:00,21,1023.9,0.2,69,15,20000,3.704,,,50,,,,,,,,,,,wg-a,,,,AAXX 09094 07190 12570 20502 10210 20150 30060 40239 50002 60006 81201 90900=
07190,1997-06-09 12:00:00,24,1023.1,-0.6,50,13,20000,7.408,,,40,,,,,,,,,,,wg-a,,,,AAXX 09124 07190 12770 40404 10240 20130 30054 40231 56006 60006 84201 91200=
07190,1997-06-09 15:00:00,26,1021.6,-1.4,42,12,20000,11.112,,,340,,,,,,,,,,,wg-a,,,,AAXX 09154 07190 12770 43406 10260 20120 30040 40216 58014 60006 81202 91500=
07190,1997-06-09 18:00:00,24,1021,-0.7,50,13,20000,11.112,,,20,14.9,25.7,,,,,,,,,wg-a,,,,AAXX 09184 07190 12770 /0206 10240 20130 30033 40210 56007 60006 81206 91800 333 10257 20149=
07190,1997-06-09 21:00:00,20,1021.1,-0.1,68,14,20000,7.408,,,340,,,,,,,,,,,wg-a,,,,AAXX 09214 07190 12/70 73404 10200 20140 30032 40211 56001 60006 80002 92100=
07190,1997-06-10 00:00:00,18,1020.3,-0.9,77,14,20000,7.408,,,340,,,,,,,,,,,wg-a,,,,AAXX 10004 07190 12/70 33404 10180 20140 30023 40203 56009 60006 83031 90000=
07190,1997-06-10 06:00:00,18,1019.3,-0,73,13,500,7.408,,,340,16.8,23.8,,,,,,,,,wg-a,,,,AAXX 10064 07190 02700 53404 10180 20130 30013 40193 54000 60006 81830 90600 333 10238 20168 60004=
07190,1997-06-10 09:00:00,23,1018.2,-0.8,53,13,500,3.704,,,60,,,,,,,,,,,wg-a,,,,AAXX 10094 07190 12700 30602 10230 20130 30005 40182 58008 60006 81101 90900=
07190,1997-06-10 12:00:00,27,1016.3,-1.6,45,14,35000,7.408,,,10,,,,,,,,,,,wg-a,,,,AAXX 10124 07190 12781 40104 10270 20140 39989 40163 56016 60006 81101 91200=
07190,1997-06-10 15:00:00,29,1013.8,-2.3,35,12,40000,11.112,,,20,,,,,,,,,,,wg-a,,,,AAXX 10154 07190 12882 50206 10290 20120 39966 40138 56023 60006 81141 91500=
07190,1997-06-10 18:00:00,28,1012.4,-1.5,45,15,40000,11.112,,,350,17.7,29.9,,,,,,,,,wg-a,,,,AAXX 10184 07190 12882 63506 10280 20150 39951 40124 56015 60006 81442 91800 333 10299 20177=
07190,1997-06-11 00:00:00,19,1011.8,-0.7,78,15,20000,3.704,,,330,,,,,,,,,,,wg-a,,,,AAXX 11004 07190 12/70 63302 10190 20150 39940 40118 58007 60006 81042 90000=
07190,1997-06-11 03:00:00,18,1011.1,-0.7,83,15,12000,3.704,,,320,,,,,,,,,,,wg-a,,,,AAXX 11034 07190 12/62 63202 10180 20150 39933 40111 56007 60006 83042 90300=
07190,1997-06-11 06:00:00,20,1011.1,0.1,68,14,25000,3.704,,,30,17.7,28.2,,,,,,,,,wg-a,,,,AAXX 11064 07190 02775 70302 10200 20140 39934 40111 50001 60006 83872 90600 333 10282 20177 60004=
07190,1997-06-11 09:00:00,23,1010.2,-0.7,65,16,15000,3.704,,,360,,,,,,,,,,,wg-a,,,,AAXX 11094 07190 12865 73602 10230 20160 39927 40102 58007 60006 8251/ 90900=
07190,1997-06-11 12:00:00,26,1009.8,-0.2,58,17,15000,0,,,0,,,,,,,,,,,wg-a,,,,AAXX 11124 07190 12765 70000 10260 20170 39925 40098 58002 60006 8481/ 91200=
07190,1997-06-11 15:00:00,25,1009.2,-0.7,65,18,15000,14.816,,,360,,,,0,,,,,,25,wg-a,,,,AAXX 11154 07190 12565 43608 10250 20180 39918 40092 58007 60007 72582 84330 91500=
07190,1997-06-11 18:00:00,26,1007.5,-1.6,61,18,15000,11.112,,,20,20.3,26.4,,,,,,,,3,wg-a,,,,AAXX 11184 07190 12765 50206 10260 20180 39902 40075 57016 60006 70386 82232 91800 333 10264 20203=
07190,1997-06-11 21:00:00,21,1011.2,3.4,69,15,12000,31.484,,62.968,310,,,,,,,,,,17,wg-a,,,,AAXX 11214 07190 12662 83117 10210 20150 39936 40112 53034 60006 71792 879// 92100 333 91034=
07190,1997-06-12 00:00:00,16,1012.1,0.6,100,16,10000,11.112,,,220,,,,9,,,,,,25,wg-a,,,,AAXX 12004 07190 02560 82206 10160 20160 39942 40121 50006 60096 72598 85972 90000 333 60097=
07190,1997-06-12 03:00:00,15,1012.3,0.1,94,14,12000,7.408,,,200,,,,0,,,,,,1,wg-a,,,,AAXX 12034 07190 12262 32004 10150 20140 39943 40123 50001 60007 70186 81632 90300=
07190,1997-06-12 06:00:00,18,1012.6,0.4,88,16,15000,11.112,,,140,14.4,25.7,,,,,9,,,1,wg-a,,,,AAXX 12064 07190 02265 41406 10180 20160 39947 40126 50004 60006 70186 81132 90600 333 10257 20144 60094=
07190,1997-06-12 09:00:00,22,1012.2,-0.1,69,16,25000,7.408,,,150,,,,,,,,,,,wg-a,,,,AAXX 12094 07190 12575 71504 10220 20160 39946 40122 58001 60006 83208 90900=
07190,1997-06-12 12:00:00,24,1011.6,-0.5,61,16,25000,11.112,,,10,,,,,,,,,,,wg-a,,,,AAXX 12124 07190 12675 70106 10240 20160 39941 40116 56005 60006 85876 91200=
07190,1997-06-12 15:00:00,25,1010.2,-1.3,50,14,25000,3.704,,,90,,,,,,,,,,,wg-a,,,,AAXX 12154 07190 12675 70902 10250 20140 39928 40102 58013 60006 8327/ 91500=
07190,1997-06-12 18:00:00,24,1009.5,-0.7,57,15,25000,3.704,,,140,17.8,24.9,,,,,,,,,wg-a,,,,AAXX 12184 07190 12675 71402 10240 20150 39921 40095 56007 60006 83272 91800 333 10249 20178=
07190,1997-06-13 00:00:00,17,1009.7,-0.5,88,15,20000,7.408,,,360,,,,,,,,,,13,wg-a,,,,AAXX 13004 07190 12/70 43604 10170 20150 39918 40097 58005 60006 71311 81031 90000=
07190,1997-06-13 06:00:00,17,1009.4,0.6,88,15,15000,18.52,,,300,16.2,24.2,,,,,,,,17,wg-a,,,,AAXX 13064 07190 02565 73010 10170 20150 39915 40094 53006 60006 71798 8396/ 90600 333 10242 20162 61000=
07190,1997-06-13 09:00:00,18,1009.9,0.6,88,16,15000,7.408,,,90,,,,1,,,,,,3,wg-a,,,,AAXX 13094 07190 12465 70904 10180 20160 39921 40099 51006 60017 70398 8587/ 90900=
07190,1997-06-13 12:00:00,22,1008.3,-1.3,69,16,15000,7.408,,,70,,,,,,,,,,1,wg-a,,,,AAXX 13124 07190 12565 /0704 10220 20160 39908 40083 58013 60016 70198 83230 91200=
07190,1997-06-13 15:00:00,22,1006.8,-1.5,73,17,10000,14.816,,,190,,,,0,,,,,,80,wg-a,,,,AAXX 13154 07190 12560 71908 10220 20170 39893 40068 56015 60007 78086 8496/ 91500=
07190,1997-06-13 18:00:00,19,1006.5,-0.4,94,18,8000,7.408,,,130,16,23.9,,2,,,,,,29,wg-a,,,,AAXX 13184 07190 02458 71304 10190 20180 39889 40065 58004 60006 72998 84903 91800 333 10239 20160 60027=
07190,1997-06-13 21:00:00,18,1006.9,0.3,100,18,6000,3.704,,,140,,,,5,,,,,,25,wg-a,,,,AAXX 13214 07190 12156 81402 10180 20180 39892 40069 51003 60057 72598 879// 92100=
07190,1997-06-14 00:00:00,18,1006.6,-0.4,94,17,9000,7.408,,,170,,,,0,,,,,,1,wg-a,,,,AAXX 14004 07190 02259 71704 10180 20170 39888 40066 57004 60056 70198 875// 90000 333 60007=
07190,1997-06-14 03:00:00,17,1006.7,0.1,94,16,6000,18.52,,,190,,,,0,,,,,,,wg-a,,,,AAXX 14034 07190 12456 71910 10170 20160 39889 40067 53001 60007 878// 90300=
07190,1997-06-14 06:00:00,19,1008.6,2,78,15,20000,11.112,,,220,16.5,19.4,,,,,8,,,3,wg-a,,,,AAXX 14064 07190 02570 72206 10190 20150 39909 40086 51020 60006 70386 84802 90600 333 10194 20165 60084=
07190,1997-06-14 09:00:00,21,1009.6,1.1,64,14,25000,14.816,,,210,,,,,,,,,,,wg-a,,,,AAXX 14094 07190 12575 72108 10210 20140 39920 40096 51011 60006 84872 90900=
07190,1997-06-14 12:00:00,23,1009.4,-0.1,61,15,500,14.816,,,210,,,,,,,,,,,wg-a,,,,AAXX 14124 07190 12500 72108 10230 20150 39919 40094 58001 60006 879// 91200=
07190,1997-06-14 15:00:00,22,1010,0.5,69,16,18000,14.816,,,250,,,,7,,,,,,25,wg-a,,,,AAXX 14154 07190 12568 62508 10220 20160 39924 40100 53005 60077 72586 86900 91500=
07190,1997-06-14 18:00:00,18,1013.3,3,77,14,18000,14.816,,,220,17.7,23.1,,,,,,,,25,wg-a,,,,AAXX 14184 07190 02568 62208 10180 20140 39954 40133 51030 61000 72586 85960 91800 333 10231 20177 6000=
07190,1997-06-14 21:00:00,15,1016.3,2.8,77,11,18000,7.408,,,260,,,,,,,,,,,wg-a,,,,AAXX 14214 07190 12668 32604 10150 20110 39982 40163 53028 60006 83800 92100=
07190,1997-06-15 00:00:00,15,1017.1,0.8,77,11,18000,11.112,,,220,,,,,,,,,,,wg-a,,,,AAXX 15004 07190 12768 32206 10150 20110 39990 40171 51008 60006 83500 90000=
07190,1997-06-15 06:00:00,15,1018.4,1.2,88,13,25000,7.408,,,220,14.1,18.3,,,,,7,,,,wg-a,,,,AAXX 15064 07190 02575 72204 10150 20130 30002 40184 52012 60006 878// 90600 333 10183 20141 60074=
07190,1997-06-15 09:00:00,17,1018.9,0.7,77,13,25000,11.112,,,350,,,,,,,,,,25,wg-a,,,,AAXX 15094 07190 02575 73506 10170 20130 30009 40189 51007 61000 72586 878// 90900 333 ////=
07190,1997-06-15 12:00:00,21,1018.6,-0.1,53,11,25000,3.704,,,180,,,,,,,,,,1,wg-a,,,,AAXX 15124 07190 02675 71802 10210 20110 30008 40186 58001 61000 70186 86801 91200 333 ////=
07190,1997-06-15 18:00:00,21,1018.3,0.1,46,9,25000,14.816,,,340,15,22,,,,,,,,,wg-a,,,,AAXX 15184 07190 12775 63408 10210 20090 30005 40183 53001 60006 83401 91800 333 10220 20150=
07190,1997-06-15 21:00:00,15,1019.6,0.9,72,10,25000,3.704,,,310,,,,,,,,,,,wg-a,,,,AAXX 15214 07190 12775 23102 10150 20100 30014 40196 53009 60006 81501 92100=
07190,1997-06-16 00:00:00,12,1019.6,-0.2,88,10,15000,3.704,,,90,,,,,,,,,,,wg-a,,,,AAXX 16004 07190 12/65 20902 10120 20100 30012 40196 58002 60006 82030 90000=
07190,1997-06-16 03:00:00,11,1019.4,-0.3,94,10,20000,0,,,0,,,,,,,,,,,wg-a,,,,AAXX 16034 07190 12/70 10000 10110 20100 30009 40194 58003 60006 81031 90300=
07190,1997-06-16 06:00:00,14,1019.4,0.3,82,11,25000,7.408,,,360,10.1,21.3,,,,,,,,,wg-a,,,,AAXX 16064 07190 02/75 23604 10140 20110 30012 40194 50003 60006 80001 90600 333 10213 20101 61000=
07190,1997-06-16 09:00:00,20,1018.4,-0.7,60,12,25000,11.112,,,30,,,,,,,,,,,wg-a,,,,AAXX 16094 07190 12/75 50306 10200 20120 30005 40184 58007 60006 80002 90900=
07190,1997-06-16 12:00:00,22,1017,-1.2,46,10,25000,14.816,,,30,,,,,,,,,,,wg-a,,,,AAXX 16124 07190 12675 70308 10220 20100 39993 40170 58012 60006 82832 91200=
07190,1997-06-16 18:00:00,18,1015.7,-0.3,83,15,6000,11.112,,,200,14.3,21.9,,,,,,,,80,wg-a,,,,AAXX 16184 07190 02656 72006 10180 20150 39978 40157 55003 61000 78086 873// 91800 333 10219 20143 6000=
07190,1997-06-16 21:00:00,16,1016.5,0.7,94,15,15000,11.112,,,60,,,,2,,,,,,60,wg-a,,,,AAXX 16214 07190 12565 80606 10160 20150 39985 40165 50007 60027 76086 8687/ 92100=
07190,1997-06-17 00:00:00,15,1015.6,-1,100,15,10000,3.704,,,10,,,,,,,,,,1,wg-a,,,,AAXX 17004 07190 02560 80102 10150 20150 39975 40156 58010 60026 70186 8487/ 90000 333 61000=
07190,1997-06-17 03:00:00,15,1015.2,-0.4,94,14,8000,7.408,,,50,,,,,,,,,,,wg-a,,,,AAXX 17034 07190 12658 70504 10150 20140 39971 40152 58004 60006 879// 90300=
07190,1997-06-17 06:00:00,15,1016,0.8,100,15,9000,7.408,,,350,14.7,17.9,,,,,,,,25,wg-a,,,,AAXX 17064 07190 02459 73504 10150 20150 39979 40160 53008 61000 72598 878// 90600 333 10179 20147 6004=
07190,1997-06-17 12:00:00,15,1016.8,0.3,88,13,9000,11.112,,,20,,,,2,,,,,,25,wg-a,,,,AAXX 17124 07190 02459 70206 10150 20130 39987 40168 53003 60026 72586 873// 91200 333 60027=
07190,1997-06-17 15:00:00,19,1016.2,-0.4,78,15,15000,7.408,,,110,,,,,,,,,,,wg-a,,,,AAXX 17154 07190 12465 71104 10190 20150 39983 40162 58004 60006 878// 91500=
07190,1997-06-17 18:00:00,15,1016.4,-0,94,14,7000,7.408,,,320,14.7,19.3,,,,,,,,80,wg-a,,,,AAXX 17184 07190 02557 73204 10150 20140 39983 40164 55000 61000 78098 879// 91800 333 10193 20147 6005=
07190,1997-06-17 21:00:00,14,1017,0.5,100,14,15000,3.704,,,170,,,,0,,,,,,1,wg-a,,,,AAXX 17214 07190 12565 51702 10140 20140 39988 40170 51005 60007 70196 83960 92100=
07190,1997-06-18 00:00:00,13,1017.3,0.2,94,12,15000,7.408,,,200,,,,,,,,,,1,wg-a,,,,AAXX 18004 07190 12665 42004 10130 20120 39990 40173 50002 60006 70196 82531 90000=
07190,1997-06-18 06:00:00,14,1017.3,0.5,82,11,15000,14.816,,,240,11.5,15.7,,,,,7,,,,wg-a,,,,AAXX 18064 07190 02465 72408 10140 20110 39991 40173 52005 60006 878// 90600 333 10157 20115 60074=
07190,1997-06-18 09:00:00,15,1018.2,0.9,82,12,9000,14.816,,,320,,,,,,,,,,,wg-a,,,,AAXX 18094 07190 12459 73208 10150 20120 30000 40182 51009 60006 878// 90900=
07190,1997-06-18 12:00:00,18,1018.2,0.2,59,10,12000,11.112,,,350,,,,,,,,,,,wg-a,,,,AAXX 18124 07190 12562 53506 10180 20100 30002 40182 50002 60006 85800 91200=
07190,1997-06-18 18:00:00,20,1016.7,-0.7,46,8,15000,7.408,,,30,13.6,20.7,,,,,,,,,wg-a,,,,AAXX 18184 07190 12765 /0304 10200 20080 39988 40167 56007 60006 81200 91800 333 10207 20136=
07190,1997-06-18 21:00:00,15,1017.2,0.2,77,11,15000,3.704,,,30,,,,,,,,,,,wg-a,,,,AAXX 18214 07190 12/65 10302 10150 20110 39990 40172 50002 60006 80001 92100=
07190,1997-06-19 00:00:00,11,1016,-1.4,94,10,15000,3.704,,,300,,,,,,,,,,,wg-a,,,,AAXX 19004 07190 12/65 13002 10110 20100 39976 40160 57014 60006 80001 90000=
07190,1997-06-19 03:00:00,10,1014.1,-1.9,93,9,3500,7.408,,,340,,,,,,,,,,10,wg-a,,,,AAXX 19034 07190 12/35 23404 10100 20090 39957 40141 58019 60006 71000 80002 90300=
07190,1997-06-19 06:00:00,12,1012.7,-1.3,88,10,6000,11.112,,,340,9.7,19.7,,,,,,,,,wg-a,,,,AAXX 19064 07190 02/56 /3406 10120 20100 39944 40127 56013 60006 80002 90600 333 10197 20097 60004=
07190,1997-06-19 12:00:00,21,1008.2,-2,49,10,20000,7.408,,,20,,,,,,,,,,,wg-a,,,,AAXX 19124 07190 12670 /0204 10210 20100 39905 40082 58020 60006 81281 91200=
07190,1997-06-19 15:00:00,21,1006.5,-1.6,49,10,25000,7.408,,,350,,,,,,,,,,,wg-a,,,,AAXX 19154 07190 12675 73504 10210 20100 39889 40065 56016 60006 85806 91500=
07190,1997-06-19 18:00:00,20,1005.8,-0.7,53,10,20000,3.704,,,200,11.5,22,,,,,,,,,wg-a,,,,AAXX 19184 07190 12670 82002 10200 20100 39882 40058 56007 60006 83407 91800 333 10220 20115=
07190,1997-06-19 21:00:00,17,1006.1,0.1,72,12,15000,11.112,,,220,,,,,,,,,,,wg-a,,,,AAXX 19214 07190 12765 82206 10170 20120 39883 40061 53001 60006 85908 92100=
07190,1997-06-20 00:00:00,15,1006,-0.3,82,12,15000,11.112,,,180,,,,,,,,,,,wg-a,,,,AAXX 20004 07190 12765 71806 10150 20120 39880 40060 58003 60006 8453/ 90000=
07190,1997-06-20 03:00:00,13,1007.5,1.4,82,10,15000,11.112,,,230,,,,0,,,,,,21,wg-a,,,,AAXX 20034 07190 12565 72306 10130 20100 39894 40075 53014 60007 72162 878// 90300=
07190,1997-06-20 06:00:00,14,1009.2,1.7,72,9,18000,11.112,,,160,12.8,20.3,,,,,,,,1,wg-a,,,,AAXX 20064 07190 02668 71606 10140 20090 39911 40092 53017 60006 70162 8683/ 90600 333 10203 20128 60004=
07190,1997-06-20 09:00:00,17,1009.2,0.2,59,9,20000,29.632,,,230,,,,,,,,,,,wg-a,,,,AAXX 20094 07190 12670 72316 10170 20090 39913 40092 51002 60006 86801 90900=
07190,1997-06-20 12:00:00,20,1008.3,-0.7,49,9,20000,29.632,,,210,,,,,,,,,,1,wg-a,,,,AAXX 20124 07190 02670 72116 10200 20090 39906 40083 58007 61000 70186 86801 91200 333 6100=
07190,1997-06-20 15:00:00,20,1007.3,-1,53,10,20000,18.52,,,180,,,,,,,,,,,wg-a,,,,AAXX 20154 07190 12670 61810 10200 20100 39896 40073 58010 60006 85831 91500=
07190,1997-06-20 18:00:00,19,1006.4,-0.9,52,9,500,14.816,,,210,13.2,20.9,,,,,,,,,wg-a,,,,AAXX 20184 07190 12600 72108 10190 20090 39887 40064 56009 60006 878// 91800 333 10209 20132=
07190,1997-06-20 21:00:00,17,1006.6,-0,77,13,25000,3.704,,,170,,,,0,,,,,,21,wg-a,,,,AAXX 20214 07190 12775 81702 10170 20130 39887 40066 55000 60007 72162 875// 92100=
07190,1997-06-21 00:00:00,15,1005.3,-1.3,82,12,25000,3.704,,,140,,,,0,,,,,,21,wg-a,,,,AAXX 21004 07190 02675 71402 10150 20120 39874 40053 57013 60016 72162 8557/ 90000 333 60007=
07190,1997-06-21 03:00:00,15,1003.6,-1.7,82,12,20000,7.408,,,180,,,,0,,,,,,61,wg-a,,,,AAXX 21034 07190 12670 81804 10150 20120 39857 40036 56017 60007 76162 8657/ 90300=
07190,1997-06-21 06:00:00,15,1003.8,0.2,88,13,20000,14.816,,,170,14.1,19.2,,,,,2,,,1,wg-a,,,,AAXX 21064 07190 02570 81708 10150 20130 39859 40038 51002 60006 70162 878// 90600 333 10192 20141 60024=
07190,1997-06-21 12:00:00,17,1004,0.3,94,16,8000,14.816,,,190,,,,2,,,,,,61,wg-a,,,,AAXX 21124 07190 02358 81908 10170 20160 39862 40040 51003 60036 76186 878// 91200 333 60027=
07190,1997-06-21 15:00:00,15,1004,-0.1,94,14,8000,11.112,,,160,,,,3,,,,,,61,wg-a,,,,AAXX 21154 07190 12658 81606 10150 20140 39861 40040 56001 60037 76162 8552/ 91500=
07190,1997-06-21 18:00:00,13,1005.4,1.3,100,13,10000,14.816,,,170,13.3,16.8,,,,,,,,61,wg-a,,,,AAXX 21184 07190 02460 81708 10130 20130 39874 40054 51013 61000 76162 8582/ 91800 333 10168 20133 6007=
07190,1997-06-21 21:00:00,12,1005.5,-0,94,11,10000,22.224,,,180,,,,3,,,,,,61,wg-a,,,,AAXX 21214 07190 12460 81812 10120 20110 39874 40055 55000 60037 76166 8652/ 92100=
07190,1997-06-22 00:00:00,13,1004.5,-1,94,12,10000,25.928,,,180,,,,1,,,,,,61,wg-a,,,,AAXX 22004 07190 02260 81814 10130 20120 39864 40045 56010 60056 76162 8552/ 90000 333 60017=
07190,1997-06-22 03:00:00,12,1004.3,-0.2,94,11,10000,22.224,,,160,,,,1,,,,,,21,wg-a,,,,AAXX 22034 07190 12460 71612 10120 20110 39862 40043 58002 60017 72122 8352/ 90300=
07190,1997-06-22 06:00:00,12,1005.6,1.3,94,11,25000,18.52,,,190,12,13.3,,,,,19,,,,wg-a,,,,AAXX 22064 07190 02475 71910 10120 20110 39875 40056 51013 60006 8682/ 90600 333 10133 20120 60194=
07190,1997-06-22 09:00:00,14,1006.4,0.9,88,12,15000,22.224,,,170,,,,,,,,,,3,wg-a,,,,AAXX 22094 07190 02465 71712 10140 20120 39884 40064 52009 61000 70362 85810 90900 333 ////=
07190,1997-06-22 12:00:00,18,1005,-1.2,64,11,500,18.52,,,190,,,,0,,,,,,1,wg-a,,,,AAXX 22124 07190 02500 51910 10180 20110 39872 40050 58012 60006 70186 84830 91200 333 60007=
07190,1997-06-22 15:00:00,17,1004.6,-0.4,77,13,8000,18.52,,,260,,,,1,,,,,,16,wg-a,,,,AAXX 22154 07190 12458 62610 10170 20130 39868 40046 58004 60017 71698 85930 91500=
07190,1997-06-22 18:00:00,16,1005.8,1.1,72,11,25000,14.816,,,210,12.1,19.7,,2,,,,,,1,wg-a,,,,AAXX 22184 07190 02675 52108 10160 20110 39879 40058 53011 60006 70198 84960 91800 333 10197 20121 60027=
07190,1997-06-22 21:00:00,14,1007,1.1,77,10,25000,18.52,,,200,,,,,,,,,,,wg-a,,,,AAXX 22214 07190 12675 42010 10140 20100 39890 40070 53011 60006 84800 92100=
07190,1997-06-23 00:00:00,12,1007.4,0.3,88,10,15000,14.816,,,180,,,,0,,,,,,,wg-a,,,,AAXX 23004 07190 02665 31808 10120 20100 39893 40074 53003 60006 83500 90000 333 60007=
07190,1997-06-23 03:00:00,12,1007.1,-0.4,88,10,15000,14.816,,,200,,,,,,,,,,,wg-a,,,,AAXX 23034 07190 12665 /2008 10120 20100 39889 40071 58004 60006 86800 90300=
07190,1997-06-23 06:00:00,13,1007.7,0.7,88,11,10000,18.52,,,190,12,16.1,,,,,,,,25,wg-a,,,,AAXX 23064 07190 02560 71910 10130 20110 39896 40077 51007 61000 72586 873// 90600 333 10161 20120 6004=
07190,1997-06-23 09:00:00,16,1008.8,1.3,77,12,15000,25.928,,,210,,,,0,,,,,,1,wg-a,,,,AAXX 23094 07190 12665 72114 10160 20120 39909 40088 51013 60007 70186 85832 90900=
07190,1997-06-23 12:00:00,16,1009.8,0.9,77,12,7000,31.484,,,210,,,,,,,,,,80,wg-a,,,,AAXX 23124 07190 02557 72117 10160 20120 39918 40098 51009 60006 78086 878// 91200 333 61000=
07190,1997-06-23 15:00:00,18,1009.9,0.3,68,12,15000,22.224,,,200,,,,1,,,,,,25,wg-a,,,,AAXX 23154 07190 12565 72012 10180 20120 39921 40099 51003 60017 72586 86932 91500=
07190,1997-06-23 18:00:00,14,1011.7,1.5,88,12,7000,14.816,,,270,13,18.7,,,,,,,,16,wg-a,,,,AAXX 23184 07190 02557 72708 10140 20120 39936 40117 53015 61000 71686 8593/ 91800 333 10187 20130 6001=
07190,1997-06-24 00:00:00,13,1013.6,0.7,88,11,20000,11.112,,,190,,,,,,,,,,3,wg-a,,,,AAXX 24004 07190 12770 71906 10130 20110 39954 40136 51007 60006 70386 83432 90000=
07190,1997-06-24 03:00:00,13,1013.7,0.1,94,12,20000,7.408,,,170,,,,0,,,,,,,wg-a,,,,AAXX 24034 07190 12670 71704 10130 20120 39955 40137 53001 60007 8553/ 90300=
07190,1997-06-24 06:00:00,13,1014.6,0.9,94,12,15000,7.408,,,170,12.4,14.4,,,,,2,,,1,wg-a,,,,AAXX 24064 07190 02565 71704 10130 20120 39964 40146 51009 60006 70186 8683/ 90600 333 10144 20124 60024=
07190,1997-06-24 09:00:00,15,1015.2,0.7,88,13,10000,3.704,,,90,,,,2,,,,,,25,wg-a,,,,AAXX 24094 07190 12460 70902 10150 20130 39971 40152 50007 60027 72586 878// 90900=
07190,1997-06-24 12:00:00,15,1015,-0.2,88,13,4000,11.112,,,80,,,,9,,,,,,80,wg-a,,,,AAXX 24124 07190 02540 70806 10150 20130 39969 40150 55002 60106 78098 879// 91200 333 60097=
07190,1997-06-24 15:00:00,16,1015.2,0.3,82,13,18000,3.704,,,360,,,,2,,,,,,1,wg-a,,,,AAXX 24154 07190 12468 /3602 10160 20130 39972 40152 50003 60027 70198 86900 91500=
07190,1997-06-24 18:00:00,15,1015.3,-0,82,12,18000,11.112,,,290,13.3,17.5,,1,,,,,,1,wg-a,,,,AAXX 24184 07190 02568 72906 10150 20120 39972 40153 55000 60006 70198 874// 91800 333 10175 20133 60017=
07190,1997-06-24 21:00:00,14,1016.1,0.7,88,12,18000,11.112,,,190,,,,,,,,,,,wg-a,,,,AAXX 24214 07190 12568 71906 10140 20120 39979 40161 53007 60006 878// 92100=
07190,1997-06-25 00:00:00,13,1015.8,-0.4,94,12,15000,11.112,,,190,,,,,,,,,,,wg-a,,,,AAXX 25004 07190 12565 81906 10130 20120 39975 40158 57004 60006 888// 90000=
07190,1997-06-25 06:00:00,12,1013.8,-0.7,94,11,7000,11.112,,,180,11.6,15.3,,,,,16,,,3,wg-a,,,,AAXX 25064 07190 02257 71806 10120 20110 39955 40138 58007 60006 70386 875// 90600 333 10153 20116 60164=
07190,1997-06-25 09:00:00,16,1012.1,-1.4,77,12,10000,11.112,,,150,,,,,,,,,,,wg-a,,,,AAXX 25094 07190 12460 71506 10160 20120 39941 40121 58014 60006 83831 90900=
07190,1997-06-25 12:00:00,18,1010.2,-1.7,59,10,15000,11.112,,,180,,,,,,,,,,,wg-a,,,,AAXX 25124 07190 12665 71806 10180 20100 39924 40102 57017 60006 84802 91200=
07190,1997-06-25 15:00:00,17,1008.5,-1.8,63,10,20000,7.408,,,190,,,,,,,,,,,wg-a,,,,AAXX 25154 07190 12670 81904 10170 20100 39906 40085 56018 60006 868// 91500=
07190,1997-06-25 18:00:00,17,1006.1,-2.3,68,11,20000,3.704,,,180,12.1,18.6,,,,,,,,,wg-a,,,,AAXX 25184 07190 12670 81802 10170 20110 39883 40061 56023 60006 8587/ 91800 333 10186 20121=
07190,1997-06-25 21:00:00,15,1005.4,-0.8,82,12,12000,3.704,,,210,,,,,,,,,,,wg-a,,,,AAXX 25214 07190 12662 82102 10150 20120 39875 40054 57008 60006 8687/ 92100=
07190,1997-06-26 00:00:00,13,1003.3,-2.2,94,12,10000,11.112,,,170,,,,2,,,,,,61,wg-a,,,,AAXX 26004 07190 02660 81706 10130 20120 39853 40033 58022 60026 76162 888// 90000 333 60027=
07190,1997-06-26 03:00:00,13,1001.1,-2.2,94,12,8000,14.816,,,180,,,,1,,,,,,25,wg-a,,,,AAXX 26034 07190 12558 81808 10130 20120 39831 40011 56022 60017 72586 888// 90300=
07190,1997-06-26 06:00:00,13,999.9,-1.2,94,12,7000,14.816,,,180,12.4,16.9,,,,,,,,61,wg-a,,,,AAXX 26064 07190 02257 81808 10130 20120 39819 49999 56012 61000 76186 888// 90600 333 10169 20124 6004=
07190,1997-06-26 12:00:00,15,999.3,-0.2,88,13,12000,22.224,,,180,,,,1,,,,,,21,wg-a,,,,AAXX 26124 07190 02462 81812 10150 20130 39815 49993 58002 60016 72186 8687/ 91200 333 60017=
07190,1997-06-26 15:00:00,17,997.8,-1.3,82,14,20000,18.52,,,160,,,,,,,,,,1,wg-a,,,,AAXX 26154 07190 02570 71610 10170 20140 39802 49978 57013 61000 70162 8583/ 91500 333 ////=
07190,1997-06-26 18:00:00,17,996.8,-1.1,88,15,20000,7.408,,,170,12.8,18.3,,,,,,,,25,wg-a,,,,AAXX 26184 07190 02570 61704 10170 20150 39791 49968 58011 61000 72586 85860 91800 333 10183 20128 6001=
07190,1997-06-26 21:00:00,15,997.7,0.8,88,13,15000,14.816,,,170,,,,,,,,,,25,wg-a,,,,AAXX 26214 07190 02765 71708 10150 20130 39799 49977 53008 61000 72586 83871 92100 333 ////=
07190,1997-06-27 00:00:00,13,998.4,0.5,94,12,12000,14.816,,,170,,,,0,,,,,,1,wg-a,,,,AAXX 27004 07190 02762 41708 10130 20120 39804 49984 51005 60016 70186 84500 90000 333 60007=
07190,1997-06-27 03:00:00,12,998.7,0.3,100,12,12000,0,,,0,,,,,,,,,,,wg-a,,,,AAXX 27034 07190 12762 /0000 10120 20120 39807 49987 51003 60006 82570 90300=
07190,1997-06-27 06:00:00,13,999.2,0.6,94,12,12000,11.112,,,170,11.7,16.5,,,,,2,,,,wg-a,,,,AAXX 27064 07190 02262 71706 10130 20120 39813 49992 53006 60006 84870 90600 333 10165 20117 60024=
07190,1997-06-27 09:00:00,16,999.7,0.6,82,13,20000,11.112,,,170,,,,,,,,,,,wg-a,,,,AAXX 27094 07190 12470 71706 10160 20130 39819 49997 50006 60006 878// 90900=
07190,1997-06-27 12:00:00,19,1000,0.5,60,11,500,18.52,,,150,,,,,,,,,,1,wg-a,,,,AAXX 27124 07190 02500 41510 10190 20110 39824 40000 51005 61000 70186 84800 91200 333 6100=
07190,1997-06-27 18:00:00,19,1001.3,1.2,56,10,50000,11.112,,,280,12.9,20.7,,,,,,,,29,wg-a,,,,AAXX 27184 07190 12684 32806 10190 20100 39837 40013 53012 60006 72990 83800 91800 333 10207 20129=
07190,1997-06-27 21:00:00,14,1003.6,1.9,82,11,50000,3.704,,,40,,,,,,,,,,,wg-a,,,,AAXX 27214 07190 12784 10402 10140 20110 39856 40036 52019 60006 81500 92100=
07190,1997-06-28 00:00:00,11,1005.6,1.8,94,10,500,3.704,,,180,,,,,,,,,,,wg-a,,,,AAXX 28004 07190 12700 51802 10110 20100 39874 40056 51018 60006 855/0 90000=
07190,1997-06-28 06:00:00,13,1007.9,1,88,11,20000,3.704,,,210,9.1,18.9,,,,,,,,,wg-a,,,,AAXX 28064 07190 02770 32102 10130 20110 39898 40079 52010 60006 83200 90600 333 10189 20091 61000=
07190,1997-06-28 09:00:00,19,1008.6,1,64,12,40000,7.408,,,190,,,,,,,,,,,wg-a,,,,AAXX 28094 07190 12782 31904 10190 20120 39908 40086 51010 60006 83800 90900=
07190,1997-06-28 12:00:00,22,1008.5,0.1,50,11,50000,11.112,,,160,,,,,,,,,,,wg-a,,,,AAXX 28124 07190 12684 /1606 10220 20110 39909 40085 50001 60006 84802 91200=
07190,1997-06-28 15:00:00,22,1008.7,0.2,46,10,60000,3.704,,,200,,,,,,,,,,,wg-a,,,,AAXX 28154 07190 12786 /2002 10220 20100 39911 40087 51002 60006 84802 91500=
07190,1997-06-28 18:00:00,22,1008.5,-0.2,60,14,50000,11.112,,,340,13,22.9,,,,,,,,,wg-a,,,,AAXX 28184 07190 12784 63406 10220 20140 39909 40085 56002 60006 82842 91800 333 10229 20130=
07190,1997-06-28 21:00:00,18,1008.2,-0.5,77,14,500,7.408,,,350,,,,,,,,,,,wg-a,,,,AAXX 28214 07190 12700 73504 10180 20140 39904 40082 58005 60006 82532 92100=
07190,1997-06-29 00:00:00,17,1006.2,-2,77,13,500,7.408,,,350,,,,,,,,,,,wg-a,,,,AAXX 29004 07190 12700 63504 10170 20130 39884 40062 58020 60006 81531 90000=
07190,1997-06-29 03:00:00,15,1002.9,-3.4,88,13,15000,7.408,,,340,,,,,,,,,,,wg-a,,,,AAXX 29034 07190 12665 53404 10150 20130 39850 40029 57034 60006 83531 90300=
07190,1997-06-29 06:00:00,17,1002.5,-0.3,82,14,20000,3.704,,,330,14.4,21.7,,,,,,,,,wg-a,,,,AAXX 29064 07190 02770 73302 10170 20140 39847 40025 55003 60006 81531 90600 333 10217 20144 60004=
07190,1997-06-29 09:00:00,21,1002.5,0.3,69,15,25000,7.408,,,10,,,,,,,,,,1,wg-a,,,,AAXX 29094 07190 02675 70104 10210 20150 39850 40025 50003 61000 70162 81572 90900 333 ////=
07190,1997-06-29 12:00:00,21,1002.8,0.3,78,17,20000,11.112,,,190,,,,,,,,,,3,wg-a,,,,AAXX 29124 07190 02670 71906 10210 20170 39853 40028 53003 61000 70362 8687/ 91200 333 ////=
07190,1997-06-29 15:00:00,17,1004.1,1,94,16,18000,7.408,,,40,,,,8,,,,,,21,wg-a,,,,AAXX 29154 07190 12568 80404 10170 20160 39863 40041 50010 60087 72162 8387/ 91500=
07190,1997-06-29 18:00:00,17,1002,-2,94,16,20000,3.704,,,120,16.4,22.1,,,,,,,,1,wg-a,,,,AAXX 29184 07190 12370 /1202 10170 20160 39843 40020 58020 60006 70162 8287/ 91800 333 10221 20164=
07190,1997-06-29 21:00:00,16,1002.5,0.4,94,15,20000,7.408,,,170,,,,,,,,,,,wg-a,,,,AAXX 29214 07190 12670 /1704 10160 20150 39847 40025 51004 60006 85802 92100=
07190,1997-06-30 00:00:00,14,1003.7,1.1,94,13,20000,25.928,,,170,,,,,,,,,,,wg-a,,,,AAXX 30004 07190 12670 51714 10140 20130 39858 40037 52011 60006 82131 90000=
07190,1997-06-30 03:00:00,13,1003.7,-0.1,100,13,20000,11.112,,,160,,,,1,,,,,,21,wg-a,,,,AAXX 30034 07190 12470 81606 10130 20130 39857 40037 55001 60017 72122 878// 90300=
07190,1997-06-30 06:00:00,13,1004.5,0.8,94,12,20000,14.816,,,170,13,17.2,,,,,9,,,1,wg-a,,,,AAXX 30064 07190 02370 71708 10130 20120 39865 40045 53008 60006 70162 8352/ 90600 333 10172 20130 60094=
07190,1997-06-30 09:00:00,16,1004.5,0.2,82,13,20000,22.224,,,180,,,,,,,,,,61,wg-a,,,,AAXX 30094 07190 02470 81812 10160 20130 39867 40045 53002 61000 76162 878// 90900 333 ////=
07190,1997-06-30 12:00:00,17,1005.5,1,72,12,500,22.224,,,210,,,,,,,,,,60,wg-a,,,,AAXX 30124 07190 02500 82112 10170 20120 39877 40055 51010 61000 76062 878// 91200 333 6100=
07190,1997-06-30 15:00:00,18,1005.4,0,59,10,500,22.224,,,200,,,,,,,,,,1,wg-a,,,,AAXX 30154 07190 02600 62012 10180 20100 39877 40054 50000 61000 70162 85870 91500 333 ////=
07190,1997-06-30 18:00:00,17,1005.7,0.2,68,11,500,18.52,,,180,13.2,19.1,,,,,,,,1,wg-a,,,,AAXX 30184 07190 12600 71810 10170 20110 39879 40057 53002 60006 70162 85832 91800 333 10191 20132=
07190,1997-06-30 21:00:00,14,1007.2,1.2,77,10,25000,18.52,,,170,,,,,,,,,,,wg-a,,,,AAXX 30214 07190 12675 /1710 10140 20100 39891 40072 52012 60006 83832 92100=
07190,1997-07-01 00:00:00,14,1008.2,1,82,11,15000,18.52,,,170,,,,,,,,,,,wg-a,,,,AAXX 01004 07190 12665 71710 10140 20110 39901 40082 53010 60006 878// 90000=
07190,1997-07-01 03:00:00,13,1009.3,1.1,88,11,15000,11.112,,,180,,,,,,,,,,,wg-a,,,,AAXX 01034 07190 12565 81806 10130 20110 39912 40093 52011 60006 8687/ 90300=
07190,1997-07-01 06:00:00,13,1010.1,0.8,94,12,15000,11.112,,,170,13.2,17.3,,,,,,,,21,wg-a,,,,AAXX 01064 07190 02265 71706 10130 20120 39920 40101 53008 61000 72162 8567/ 90600 333 10173 20132 6001=
07190,1997-07-01 12:00:00,18,1011.5,0.5,68,12,15000,25.928,,,210,,,,,,,,,,25,wg-a,,,,AAXX 01124 07190 02465 72114 10180 20120 39936 40115 53005 61000 72586 8686/ 91200 333 6100=
07190,1997-07-01 15:00:00,20,1010.9,-0.4,56,11,35000,18.52,,,160,,,,,,,,,,,wg-a,,,,AAXX 01154 07190 12681 31610 10200 20110 39932 40109 56004 60006 83800 91500=
07190,1997-07-01 18:00:00,21,1010.9,-0,53,11,50000,11.112,,,180,13.4,20.9,,,,,,,,,wg-a,,,,AAXX 01184 07190 12684 41806 10210 20110 39932 40109 55000 60006 83840 91800 333 10209 20134=
07190,1997-07-01 21:00:00,17,1012.5,1.3,68,11,50000,11.112,,,230,,,,,,,,,,,wg-a,,,,AAXX 01214 07190 12684 72306 10170 20110 39945 40125 51013 60006 8584/ 92100=
07190,1997-07-02 00:00:00,15,1012.8,0.2,88,13,500,0,,,0,,,,,,,,,,,wg-a,,,,AAXX 02004 07190 12600 70000 10150 20130 39947 40128 50002 60006 8584/ 90000=
07190,1997-07-02 03:00:00,13,1012.8,-0.1,94,12,15000,3.704,,,210,,,,,,,,,,,wg-a,,,,AAXX 02034 07190 12665 42102 10130 20120 39946 40128 57001 60006 82801 90300=
07190,1997-07-02 06:00:00,14,1012.7,0,88,12,20000,7.408,,,160,11.7,20.5,,,,,,,,,wg-a,,,,AAXX 02064 07190 02770 /1604 10140 20120 39946 40127 50000 60006 81554 90600 333 10205 20117 61000=
07190,1997-07-02 09:00:00,20,1012,-0.4,68,14,25000,7.408,,,170,,,,,,,,,,,wg-a,,,,AAXX 02094 07190 12/75 /1704 10200 20140 39942 40120 58004 60006 83032 90900=
07190,1997-07-02 12:00:00,22,1010.9,-0.9,57,13,20000,7.408,,,190,,,,,,,,,,,wg-a,,,,AAXX 02124 07190 12670 71904 10220 20130 39933 40109 57009 60006 8217/ 91200=
07190,1997-07-02 15:00:00,20,1009.7,-1.3,78,16,17000,18.52,,,50,,,,0,,,,,,21,wg-a,,,,AAXX 02154 07190 12767 /0510 10200 20160 39920 40097 58013 60007 72162 8357/ 91500=
07190,1997-07-02 18:00:00,20,1011,1.3,78,16,20000,11.112,,,280,14.4,22.6,,,,,,,,3,wg-a,,,,AAXX 02184 07190 12770 82806 10200 20160 39933 40110 53013 60006 70362 8587/ 91800 333 10226 20144=
07190,1997-07-02 21:00:00,16,1013.8,2.5,94,15,10000,14.816,,,210,,,,1,,,,,,21,wg-a,,,,AAXX 02214 07190 12560 82108 10160 20150 39958 40138 53025 60017 72162 8687/ 92100=
07190,1997-07-03 00:00:00,15,1014.2,0.3,94,14,18000,3.704,,,160,,,,2,,,,,,1,wg-a,,,,AAXX 03004 07190 02568 81602 10150 20140 39961 40142 51003 60036 70162 8687/ 90000 333 60027=
07190,1997-07-03 03:00:00,15,1014.2,0,100,15,7000,3.704,,,150,,,,,,,,,,,wg-a,,,,AAXX 03034 07190 12657 81502 10150 20150 39961 40142 50000 60006 875// 90300=
07190,1997-07-03 06:00:00,15,1015.4,1.2,94,14,500,7.408,,,210,14.8,19.5,,,,,,,,10,wg-a,,,,AAXX 03064 07190 02300 82104 10150 20140 39973 40154 53012 61000 71062 875// 90600 333 10195 20148 6003=
07190,1997-07-03 09:00:00,16,1015.9,0.5,88,14,10000,7.408,,,30,,,,,,,,,,1,wg-a,,,,AAXX 03094 07190 02360 70304 10160 20140 39978 40159 51005 61000 70162 878// 90900 333 ////=
07190,1997-07-03 12:00:00,17,1016.3,0.5,82,14,12000,7.408,,,300,,,,,,,,,,1,wg-a,,,,AAXX 03124 07190 02462 73004 10170 20140 39983 40163 51005 61000 70162 878// 91200 333 ////=
07190,1997-07-03 15:00:00,16,1016.8,0.4,88,14,12000,7.408,,,340,,,,0,,,,,,21,wg-a,,,,AAXX 03154 07190 12562 73404 10160 20140 39987 40168 50004 60007 72162 8587/ 91500=
07190,1997-07-03 18:00:00,16,1017.3,0.5,88,14,10000,7.408,,,120,14.9,17.2,,,,,,,,25,wg-a,,,,AAXX 03184 07190 02560 71204 10160 20140 39992 40173 53005 61000 72586 8587/ 91800 333 10172 20149 6000=
07190,1997-07-03 21:00:00,14,1018.4,1,94,13,20000,7.408,,,210,,,,0,,,,,,1,wg-a,,,,AAXX 03214 07190 12770 32104 10140 20130 30002 40184 53010 60007 70186 81530 92100=
07190,1997-07-04 00:00:00,13,1019.1,0.6,100,13,20000,0,,,0,,,,0,,,,,,11,wg-a,,,,AAXX 04004 07190 02770 70000 10130 20130 30008 40191 50006 60016 71186 8453/ 90000 333 60007=
07190,1997-07-04 06:00:00,14,1019.2,0.6,100,14,4500,7.408,,,230,12.5,16.2,,,,,1,,,10,wg-a,,,,AAXX 04064 07190 02145 82304 10140 20140 30010 40192 51006 60006 71042 876// 90600 333 10162 20125 60014=
07190,1997-07-04 09:00:00,17,1019.1,0.1,82,14,13000,3.704,,,110,,,,,,,,,,,wg-a,,,,AAXX 04094 07190 12463 71102 10170 20140 30011 40191 50001 60006 85832 90900=
07190,1997-07-04 12:00:00,20,1019.2,0.2,60,12,15000,3.704,,,240,,,,,,,,,,,wg-a,,,,AAXX 04124 07190 12565 72402 10200 20120 30013 40192 53002 60006 8381/ 91200=
07190,1997-07-04 15:00:00,19,1018.8,-0.4,68,13,15000,3.704,,,230,,,,0,,,,,,1,wg-a,,,,AAXX 04154 07190 12565 72302 10190 20130 30009 40188 58004 60007 70162 84332 91500=
07190,1997-07-04 18:00:00,19,1018.4,-0.4,68,13,20000,7.408,,,180,14,20.4,,,,,,,,3,wg-a,,,,AAXX 04184 07190 12570 71804 10190 20130 30005 40184 56004 60006 70362 84832 91800 333 10204 20140=
07190,1997-07-04 21:00:00,16,1019.4,0.8,88,14,15000,0,,,0,,,,,,,,,,,wg-a,,,,AAXX 04214 07190 12665 70000 10160 20140 30013 40194 50008 60006 85832 92100=
07190,1997-07-05 00:00:00,13,1019.4,-0.2,94,12,15000,0,,,0,,,,,,,,,,,wg-a,,,,AAXX 05004 07190 12665 50000 10130 20120 30011 40194 57002 60006 82832 90000=
07190,1997-07-05 06:00:00,13,1018.8,0.1,94,12,15000,7.408,,,350,11.4,19.2,,,,,,,,,wg-a,,,,AAXX 05064 07190 02665 73504 10130 20120 30005 40188 52001 60006 8383/ 90600 333 10192 20114 60004=
07190,1997-07-05 09:00:00,18,1019,0.5,68,12,15000,14.816,,,330,,,,,,,,,,,wg-a,,,,AAXX 05094 07190 12565 73308 10180 20120 30010 40190 51005 60006 81232 90900=
07190,1997-07-05 12:00:00,21,1018.5,-0.3,56,12,20000,14.816,,,310,,,,,,,,,,15,wg-a,,,,AAXX 05124 07190 12670 73108 10210 20120 30007 40185 55003 60006 71522 85901 91200=
07190,1997-07-05 15:00:00,17,1019.5,0.8,82,14,15000,7.408,,,260,,,,6,,,,,,25,wg-a,,,,AAXX 05154 07190 12665 72604 10170 20140 30015 40195 50008 60067 72586 85862 91500=
07190,1997-07-05 18:00:00,17,1021.1,1.5,77,13,15000,3.704,,,290,13.4,21.3,,,,,,,,17,wg-a,,,,AAXX 05184 07190 12465 72902 10170 20130 30030 40211 53015 60006 71798 8696/ 91800 333 10213 20134=
07190,1997-07-05 21:00:00,14,1023.3,2,94,13,15000,3.704,,,160,,,,0,,,,,,3,wg-a,,,,AAXX 05214 07190 12565 61602 10140 20130 30050 40233 53020 60007 70398 84860 92100=
07190,1997-07-06 00:00:00,14,1024.3,0.9,94,13,15000,3.704,,,180,,,,,,,,,,0,wg-a,,,,AAXX 06004 07190 12565 71802 10140 20130 30059 40243 51009 60006 70098 8584/ 90000=
07190,1997-07-06 03:00:00,13,1024.9,0.6,100,13,8000,3.704,,,200,,,,,,,,,,,wg-a,,,,AAXX 06034 07190 12558 82002 10130 20130 30065 40249 53006 60006 885// 90300=
07190,1997-07-06 06:00:00,14,1025.7,0.9,100,14,8000,3.704,,,290,13,17.2,,,,,6,,,,wg-a,,,,AAXX 06064 07190 02558 82902 10140 20140 30074 40257 53009 60006 888// 90600 333 10172 20130 60064=
07190,1997-07-06 09:00:00,16,1026.2,0.6,82,13,10000,11.112,,,330,,,,,,,,,,,wg-a,,,,AAXX 06094 07190 12560 83306 10160 20130 30080 40262 51006 60006 8687/ 90900=
07190,1997-07-06 12:00:00,19,1025.6,-0.5,64,12,10000,14.816,,,270,,,,,,,,,,,wg-a,,,,AAXX 06124 07190 12560 72708 10190 20120 30075 40256 58005 60006 86880 91200=
07190,1997-07-06 18:00:00,18,1025.4,0.3,73,13,15000,7.408,,,190,14.3,20,,,,,,,,,wg-a,,,,AAXX 06184 07190 12665 31904 10180 20130 30073 40254 53003 60006 82830 91800 333 10200 20143=
07190,1997-07-06 21:00:00,14,1026.7,1,82,11,15000,11.112,,,270,,,,,,,,,,,wg-a,,,,AAXX 06214 07190 12765 42706 10140 20110 30083 40267 53010 60006 83830 92100=
07190,1997-07-07 00:00:00,14,1026.6,-0.1,82,11,20000,7.408,,,240,,,,,,,,,,,wg-a,,,,AAXX 07004 07190 12670 /2404 10140 20110 30082 40266 57001 60006 85830 90000=
07190,1997-07-07 03:00:00,13,1026.3,-0.3,88,11,12000,3.704,,,300,,,,,,,,,,,wg-a,,,,AAXX 07034 07190 12562 63002 10130 20110 30079 40263 55003 60006 8/800 90300=
07190,1997-07-07 06:00:00,14,1026.8,0.5,88,12,6000,0,,,0,12,18.1,,,,,,,,,wg-a,,,,AAXX 07064 07190 02756 30000 10140 20120 30084 40268 53005 60006 83530 90600 333 10181 20120 60004=
07190,1997-07-07 09:00:00,17,1026.1,-0.5,72,12,15000,7.408,,,320,,,,,,,,,,,wg-a,,,,AAXX 07094 07190 12465 /3204 10170 20120 30079 40261 58005 60006 84130 90900=
07190,1997-07-07 12:00:00,20,1025.4,-0.5,64,13,20000,11.112,,,320,,,,,,,,,,,wg-a,,,,AAXX 07124 07190 12570 /3206 10200 20130 30074 40254 58005 60006 84831 91200=
07190,1997-07-07 15:00:00,22,1024.3,-1,53,12,20000,7.408,,,280,,,,,,,,,,,wg-a,,,,AAXX 07154 07190 12670 42804 10220 20120 30064 40243 58010 60006 81831 91500=
07190,1997-07-07 18:00:00,22,1023.7,-0.6,57,13,25000,3.704,,,20,13.5,22.5,,,,,,,,,wg-a,,,,AAXX 07184 07190 12675 40202 10220 20130 30058 40237 56006 60006 82831 91800 333 10225 20135=
07190,1997-07-07 21:00:00,17,1024.3,0.4,82,14,25000,3.704,,,340,,,,,,,,,,,wg-a,,,,AAXX 07214 07190 12675 43402 10170 20140 30062 40243 53004 60006 82530 92100=
07190,1997-07-08 00:00:00,14,1024.3,-0.2,94,13,20000,3.704,,,330,,,,,,,,,,,wg-a,,,,AAXX 08004 07190 12/70 23302 10140 20130 30060 40243 58002 60006 82030 90000=
07190,1997-07-08 06:00:00,16,1023.2,0.1,88,14,6000,7.408,,,340,11.7,21.7,,,,,,,,,wg-a,,,,AAXX 08064 07190 02556 63404 10160 20140 30050 40232 53001 60006 86500 90600 333 10217 20117 60004=
07190,1997-07-08 09:00:00,21,1022.5,-0.4,69,15,12000,11.112,,,360,,,,,,,,,,,wg-a,,,,AAXX 08094 07190 12562 53606 10210 20150 30046 40225 58004 60006 84802 90900=
07190,1997-07-08 12:00:00,23,1021.2,-1.1,61,15,25000,18.52,,,30,,,,,,,,,,,wg-a,,,,AAXX 08124 07190 12675 40310 10230 20150 30035 40212 58011 60006 83801 91200=
07190,1997-07-08 15:00:00,24,1019.9,-1.2,54,14,500,14.816,,,30,,,,,,,,,,,wg-a,,,,AAXX 08154 07190 12600 30308 10240 20140 30023 40199 58012 60006 82101 91500=
07190,1997-07-08 18:00:00,22,1019.4,-0.7,57,13,25000,14.816,,,30,16.3,24.5,,,,,,,,,wg-a,,,,AAXX 08184 07190 12675 20308 10220 20130 30016 40194 56007 60006 81101 91800 333 10245 20163=
07190,1997-07-08 21:00:00,17,1020,0.3,72,12,25000,11.112,,,360,,,,,,,,,,,wg-a,,,,AAXX 08214 07190 12/75 33606 10170 20120 30019 40200 53003 60006 80001 92100=
07190,1997-07-09 00:00:00,14,1019.7,-0.4,88,12,25000,7.408,,,350,,,,,,,,,,,wg-a,,,,AAXX 09004 07190 12/75 03504 10140 20120 30015 40197 58004 60006 80000 90000=
07190,1997-07-09 03:00:00,13,1018.7,-1.1,94,12,20000,7.408,,,350,,,,,,,,,,,wg-a,,,,AAXX 09034 07190 12/70 23504 10130 20120 30004 40187 58011 60006 80001 90300=
07190,1997-07-09 06:00:00,16,1018,-0.5,82,13,12000,11.112,,,20,12.3,22,,,,,,,,,wg-a,,,,AAXX 09064 07190 02/62 20206 10160 20130 39999 40180 56005 60006 80001 90600 333 10220 20123 60004=
07190,1997-07-09 12:00:00,24,1015.5,-1.5,54,14,500,22.224,,,30,,,,,,,,,,,wg-a,,,,AAXX 09124 07190 12600 /0312 10240 20140 39980 40155 58015 60006 81102 91200=
07190,1997-07-09 15:00:00,25,1014.3,-1.2,50,14,500,22.224,,,30,,,,,,,,,,,wg-a,,,,AAXX 09154 07190 12600 20312 10250 20140 39968 40143 57012 60006 81202 91500=
07190,1997-07-09 18:00:00,24,1013.5,-0.8,50,13,40000,25.928,,,30,16,25.5,,,,,,,,,wg-a,,,,AAXX 09184 07190 12682 20314 10240 20130 39960 40135 56008 60006 81202 91800 333 10255 20160=
07190,1997-07-10 00:00:00,15,1014.8,-0.2,88,13,20000,11.112,,,340,,,,,,,,,,,wg-a,,,,AAXX 10004 07190 12770 13406 10150 20130 39967 40148 58002 60006 81502 90000=
07190,1997-07-10 03:00:00,14,1014.5,-0.4,94,13,10000,7.408,,,350,,,,,,,,,,,wg-a,,,,AAXX 10034 07190 12760 13504 10140 20130 39963 40145 58004 60006 81200 90300=
07190,1997-07-10 06:00:00,16,1014.1,-0.2,82,13,9000,7.408,,,350,13.2,23.9,,,,,,,,,wg-a,,,,AAXX 10064 07190 02859 /3504 10160 20130 39961 40141 56002 60006 81500 90600 333 10239 20132 60004=
07190,1997-07-10 09:00:00,21,1013.4,-0.4,64,14,15000,11.112,,,360,,,,,,,,,,,wg-a,,,,AAXX 10094 07190 12665 /3606 10210 20140 39957 40134 58004 60006 81230 90900=
07190,1997-07-10 12:00:00,25,1011.9,-1.2,47,13,25000,14.816,,,360,,,,,,,,,,,wg-a,,,,AAXX 10124 07190 12675 23608 10250 20130 39945 40119 58012 60006 82230 91200=
07190,1997-07-10 15:00:00,26,1011.2,-0.7,45,13,500,14.816,,,20,,,,,,,,,,,wg-a,,,,AAXX 10154 07190 12600 20208 10260 20130 39938 40112 56007 60006 82300 91500=
07190,1997-07-10 18:00:00,25,1011.2,-0.1,44,12,25000,14.816,,,30,15.7,26.3,,,,,,,,,wg-a,,,,AAXX 10184 07190 12675 30308 10250 20120 39937 40112 55001 60006 81330 91800 333 10263 20157=
07190,1997-07-11 00:00:00,16,1012.7,0.2,82,13,20000,3.704,,,310,,,,,,,,,,,wg-a,,,,AAXX 11004 07190 12/70 13102 10160 20130 39947 40127 51002 60006 81030 90000=
07190,1997-07-11 03:00:00,14,1013.3,0.5,88,12,15000,7.408,,,330,,,,,,,,,,,wg-a,,,,AAXX 11034 07190 12665 23304 10140 20120 39952 40133 53005 60006 81230 90300=
07190,1997-07-11 06:00:00,17,1013.8,0.7,77,13,15000,3.704,,,360,13.4,24.8,,,,,,,,,wg-a,,,,AAXX 11064 07190 02665 23602 10170 20130 39959 40138 52007 60006 81130 90600 333 10248 20134 60004=
07190,1997-07-11 12:00:00,26,1013.1,-0.3,42,12,15000,7.408,,,360,,,,,,,,,,,wg-a,,,,AAXX 11124 07190 12765 23604 10260 20120 39957 40131 58003 60006 82200 91200=
07190,1997-07-11 15:00:00,27,1012.5,-0.5,45,14,20000,14.816,,,360,,,,,,,,,,,wg-a,,,,AAXX 11154 07190 12770 23608 10270 20140 39952 40125 58005 60006 82800 91500=
07190,1997-07-11 18:00:00,26,1012.8,0.2,45,13,20000,7.408,,,30,17.3,27.6,,,,,,,,,wg-a,,,,AAXX 11184 07190 12770 20304 10260 20130 39954 40128 53002 60006 81230 91800 333 10276 20173=
07190,1997-07-11 21:00:00,19,1014.2,1,73,14,20000,3.704,,,250,,,,,,,,,,,wg-a,,,,AAXX 11214 07190 12/70 12502 10190 20140 39964 40142 53010 60006 81030 92100=
07190,1997-07-12 00:00:00,15,1015,0.5,94,14,20000,7.408,,,220,,,,,,,,,,,wg-a,,,,AAXX 12004 07190 12/70 02204 10150 20140 39969 40150 51005 60006 80000 90000=
07190,1997-07-12 03:00:00,14,1015.6,0.5,94,13,7000,0,,,0,,,,,,,,,,,wg-a,,,,AAXX 12034 07190 12/57 20000 10140 20130 39974 40156 53005 60006 82030 90300=
07190,1997-07-12 06:00:00,15,1015.9,0.4,100,15,6000,3.704,,,180,13.6,26.1,,,,,,,,,wg-a,,,,AAXX 12064 07190 02/56 41802 10150 20150 39978 40159 51004 60006 84030 90600 333 10261 20136 60004=
07190,1997-07-12 09:00:00,23,1015.8,0.4,73,18,15000,3.704,,,200,,,,,,,,,,,wg-a,,,,AAXX 12094 07190 12665 32002 10230 20180 39982 40158 50004 60006 81230 90900=
07190,1997-07-12 12:00:00,26,1014.8,-0.8,54,16,15000,7.408,,,330,,,,,,,,,,,wg-a,,,,AAXX 12124 07190 12665 63304 10260 20160 39974 40148 57008 60006 84932 91200=
07190,1997-07-12 15:00:00,26,1014.4,-0.4,54,16,15000,7.408,,,180,,,,,,,,,,,wg-a,,,,AAXX 12154 07190 12665 71804 10260 20160 39970 40144 57004 60006 81332 91500=
07190,1997-07-12 18:00:00,24,1015.3,0.7,54,14,20000,11.112,,,350,15.2,26.8,,,,,,,,,wg-a,,,,AAXX 12184 07190 12770 /3506 10240 20140 39977 40153 53007 60006 82232 91800 333 10268 20152=
07190,1997-07-12 21:00:00,18,1016,0.4,83,15,15000,3.704,,,260,,,,,,,,,,,wg-a,,,,AAXX 12214 07190 12/65 22602 10180 20150 39981 40160 53004 60006 81031 92100=
07190,1997-07-13 00:00:00,15,1016.4,0.2,94,14,15000,0,,,0,,,,,,,,,,,wg-a,,,,AAXX 13004 07190 12/65 10000 10150 20140 39983 40164 51002 60006 81031 90000=
07190,1997-07-13 03:00:00,14,1016.8,0.3,94,13,4000,0,,,0,,,,,,,,,,10,wg-a,,,,AAXX 13034 07190 12/40 /0000 10140 20130 39986 40168 53003 60006 71000 81031 90300=
07190,1997-07-13 06:00:00,17,1017.4,0.8,94,16,6000,7.408,,,170,13.6,23.9,,,,,,,,1,wg-a,,,,AAXX 13064 07190 02/56 /1704 10170 20160 39994 40174 52008 60006 70140 81030 90600 333 10239 20136 60004=
07190,1997-07-13 09:00:00,23,1017,-0,69,17,75000,11.112,,,200,,,,,,,,,,,wg-a,,,,AAXX 13094 07190 12789 /2006 10230 20170 39994 40170 54000 60006 81201 90900=
07190,1997-07-13 12:00:00,28,1016,-0.7,48,16,10000,3.704,,,230,,,,,,,,,,,wg-a,,,,AAXX 13124 07190 12760 52302 10280 20160 39987 40160 57007 60006 84282 91200=
07190,1997-07-13 15:00:00,27,1015.8,-0.3,51,16,10000,14.816,,,250,,,,,,,,,,,wg-a,,,,AAXX 13154 07190 12660 52508 10270 20160 39984 40158 55003 60006 84282 91500=
07190,1997-07-13 18:00:00,25,1015.6,-0.3,65,18,20000,3.704,,,310,16.7,28.1,,1,,,,,,1,wg-a,,,,AAXX 13184 07190 02770 73102 10250 20180 39981 40156 55003 60006 70198 91800 333 10281 20167 60017=
07190,1997-07-13 21:00:00,21,1017.6,1.7,78,17,18000,7.408,,,360,,,,,,,,,,13,wg-a,,,,AAXX 13214 07190 12768 73604 10210 20170 39998 40176 51017 60006 71322 81982 92100=
07190,1997-07-14 00:00:00,17,1017.7,-0.1,88,15,12000,3.704,,,230,,,,,,,,,,,wg-a,,,,AAXX 14004 07190 12/62 72302 10170 20150 39997 40177 58001 60006 81082 90000=
07190,1997-07-14 03:00:00,16,1018,0.2,94,15,7000,3.704,,,220,,,,,,,,,,,wg-a,,,,AAXX 14034 07190 12/57 72202 10160 20150 39999 40180 53002 60006 84052 90300=
07190,1997-07-14 06:00:00,17,1018.6,0.7,100,17,9000,3.704,,,180,15.6,24.9,,,,,1,,,,wg-a,,,,AAXX 14064 07190 02/59 81802 10170 20170 30006 40186 52007 60006 84032 90600 333 10249 20156 60014=
07190,1997-07-14 09:00:00,21,1018.5,0.1,78,17,10000,0,,,0,,,,,,,,,,,wg-a,,,,AAXX 14094 07190 12/60 80000 10210 20170 30007 40185 50001 60006 84082 90900=
07190,1997-07-14 12:00:00,24,1018.1,-0.2,69,18,15000,3.704,,,20,,,,,,,,,,,wg-a,,,,AAXX 14124 07190 12665 80202 10240 20180 30005 40181 58002 60006 81882 91200=
07190,1997-07-14 15:00:00,23,1017.6,-0.5,73,18,12000,11.112,,,210,,,,,,,,,,17,wg-a,,,,AAXX 14154 07190 12662 72106 10230 20180 30000 40176 56005 60006 71792 82982 91500=
07190,1997-07-14 18:00:00,18,1019,1.1,88,16,7000,7.408,,,280,17.1,24.8,,,,,,,,81,wg-a,,,,AAXX 14184 07190 02457 72804 10180 20160 30011 40190 53011 61000 78198 85980 91800 333 10248 20171 6001=
07190,1997-07-14 21:00:00,17,1020.9,1.7,94,16,10000,3.704,,,100,,,,14,,,,,,29,wg-a,,,,AAXX 14214 07190 12660 81002 10170 20160 30028 40209 51017 60147 72998 8698/ 92100=
07190,1997-07-15 00:00:00,16,1020.9,-0.1,94,15,12000,3.704,,,150,,,,0,,,,,,1,wg-a,,,,AAXX 15004 07190 02462 71502 10160 20150 30027 40209 58001 60146 70198 8587/ 90000 333 60007=
07190,1997-07-15 03:00:00,14,1021.1,0.2,100,14,500,7.408,,,210,,,,,,,,,,,wg-a,,,,AAXX 15034 07190 12700 52104 10140 20140 30029 40211 53002 60006 8353/ 90300=
07190,1997-07-15 06:00:00,16,1022,0.9,94,15,10000,7.408,,,170,13.8,18.3,,,,,15,,,,wg-a,,,,AAXX 15064 07190 02360 71704 10160 20150 30038 40220 52009 60006 878// 90600 333 10183 20138 60154=
07190,1997-07-15 12:00:00,23,1021.9,-0.3,65,16,13000,7.408,,,50,,,,,,,,,,,wg-a,,,,AAXX 15124 07190 12563 40504 10230 20160 30042 40219 58003 60006 83202 91200=
07190,1997-07-15 15:00:00,24,1020.7,-1.1,61,16,15000,3.704,,,320,,,,,,,,,,,wg-a,,,,AAXX 15154 07190 12665 53202 10240 20160 30031 40207 56011 60006 83230 91500=
07190,1997-07-15 18:00:00,24,1020.6,-0.2,47,12,35000,11.112,,,310,15.6,25.2,,,,,,,,,wg-a,,,,AAXX 15184 07190 12781 33106 10240 20120 30029 40206 55002 60006 82131 91800 333 10252 20156=
07190,1997-07-15 21:00:00,17,1021.9,0.9,77,13,500,3.704,,,130,,,,,,,,,,,wg-a,,,,AAXX 15214 07190 12/00 31302 10170 20130 30038 40219 51009 60006 80001 92100=
07190,1997-07-16 00:00:00,13,1021.9,-0.2,94,12,20000,0,,,0,,,,,,,,,,,wg-a,,,,AAXX 16004 07190 12/70 00000 10130 20120 30036 40219 58002 60006 80000 90000=
07190,1997-07-16 03:00:00,12,1020.8,-1.2,94,11,20000,3.704,,,210,,,,,,,,,,,wg-a,,,,AAXX 16034 07190 12/70 12102 10120 20110 30024 40208 57012 60006 80001 90300=
07190,1997-07-16 06:00:00,15,1020.3,-0.3,88,13,35000,0,,,0,11.3,23.8,,,,,,,,,wg-a,,,,AAXX 16064 07190 02/81 30000 10150 20130 30021 40203 57003 60006 80002 90600 333 10238 20113 60004=
07190,1997-07-16 12:00:00,25,1017.3,-2.1,50,14,500,7.408,,,350,,,,,,,,,,,wg-a,,,,AAXX 16124 07190 12600 23504 10250 20140 39998 40173 56021 60006 81101 91200=
07190,1997-07-16 15:00:00,26,1015.2,-2,54,16,500,7.408,,,340,,,,,,,,,,,wg-a,,,,AAXX 16154 07190 12700 /3404 10260 20160 39978 40152 56020 60006 81102 91500=
07190,1997-07-16 18:00:00,26,1014.5,-0.7,51,15,500,7.408,,,350,14.6,26.8,,,,,,,,,wg-a,,,,AAXX 16184 07190 12700 /3504 10260 20150 39971 40145 56007 60006 81102 91800 333 10268 20146=
07190,1997-07-16 21:00:00,20,1015,0.1,78,16,25000,7.408,,,330,,,,,,,,,,,wg-a,,,,AAXX 16214 07190 12/75 43304 10200 20160 39972 40150 53001 60006 80002 92100=
07190,1997-07-17 00:00:00,16,1014.5,-0.7,94,15,20000,3.704,,,230,,,,,,,,,,,wg-a,,,,AAXX 17004 07190 12/70 22302 10160 20150 39965 40145 57007 60006 80002 90000=
07190,1997-07-17 03:00:00,14,1013.1,-1.5,100,14,7000,3.704,,,120,,,,,,,,,,,wg-a,,,,AAXX 17034 07190 12757 21202 10140 20140 39950 40131 56015 60006 81501 90300=
07190,1997-07-17 06:00:00,17,1012.9,0,88,15,9000,3.704,,,320,13.9,25.5,,,,,,,,,wg-a,,,,AAXX 17064 07190 02659 33202 10170 20150 39950 40129 50000 60006 83500 90600 333 10255 20139 60004=
07190,1997-07-17 09:00:00,23,1011,-1.5,65,16,12000,3.704,,,50,,,,,,,,,,,wg-a,,,,AAXX 17094 07190 12562 20502 10230 20160 39935 40110 58015 60006 81101 90900=
07190,1997-07-17 12:00:00,25,1009.3,-1.6,57,16,17000,7.408,,,340,,,,,,,,,,,wg-a,,,,AAXX 17124 07190 12667 73404 10250 20160 39919 40093 56016 60006 83872 91200=
07190,1997-07-17 15:00:00,25,1008.4,-0.9,57,16,20000,7.408,,,300,,,,,,,,,,,wg-a,,,,AAXX 17154 07190 12670 /3004 10250 20160 39910 40084 56009 60006 84872 91500=
07190,1997-07-17 18:00:00,23,1008.6,0.1,61,15,15000,18.52,,,320,16.9,26.2,,0,,,,,,3,wg-a,,,,AAXX 17184 07190 02665 73210 10230 20150 39911 40086 53001 60006 70386 83882 91800 333 10262 20169 60007=
07190,1997-07-18 00:00:00,18,1009.4,-0.5,73,13,10000,11.112,,,270,,,,,,,,,,,wg-a,,,,AAXX 18004 07190 12/60 72706 10180 20130 39916 40094 58005 60006 86072 90000=
07190,1997-07-18 06:00:00,17,1009.2,0.6,88,15,15000,7.408,,,300,15.9,23.2,,,,,1,,,1,wg-a,,,,AAXX 18064 07190 02565 73004 10170 20150 39913 40092 53006 60006 70198 8687/ 90600 333 10232 20159 60014=
07190,1997-07-18 09:00:00,18,1010.1,1,73,13,20000,11.112,,,310,,,,0,,,,,,3,wg-a,,,,AAXX 18094 07190 12570 73106 10180 20130 39923 40101 52010 60007 70386 86202 90900=
07190,1997-07-18 12:00:00,16,1011.9,1.6,82,13,500,22.224,,,290,,,,,,,,,,80,wg-a,,,,AAXX 18124 07190 02500 72912 10160 20130 39939 40119 53016 60016 78086 878// 91200 333 61000=
07190,1997-07-18 15:00:00,17,1012.6,0.8,82,14,10000,7.408,,,220,,,,2,,,,,,60,wg-a,,,,AAXX 18154 07190 12560 72204 10170 20140 39947 40126 53008 60027 76086 8587/ 91500=
07190,1997-07-18 18:00:00,17,1013.8,1.1,77,13,15000,11.112,,,240,15.7,19.8,,,,,,,,25,wg-a,,,,AAXX 18184 07190 02565 82406 10170 20130 39958 40138 53011 61000 72586 8587/ 91800 333 10198 20157 6001=
07190,1997-07-19 00:00:00,15,1015.9,0.5,88,13,20000,11.112,,,270,,,,,,,,,,,wg-a,,,,AAXX 19004 07190 12570 62706 10150 20130 39978 40159 53005 60006 84570 90000=
07190,1997-07-19 03:00:00,15,1016.4,0.5,88,13,10000,7.408,,,210,,,,,,,,,,,wg-a,,,,AAXX 19034 07190 12460 72104 10150 20130 39983 40164 52005 60006 875// 90300=
07190,1997-07-19 06:00:00,15,1017,0.6,88,13,7000,11.112,,,240,15,16.5,,,,,,,,21,wg-a,,,,AAXX 19064 07190 02457 82406 10150 20130 39989 40170 52006 61000 72165 878// 90600 333 10165 20150 6005=
07190,1997-07-19 09:00:00,15,1018.2,1.2,94,14,8000,7.408,,,160,,,,1,,,,,,21,wg-a,,,,AAXX 19094 07190 12458 81604 10150 20140 30001 40182 51012 60017 72186 878// 90900=
07190,1997-07-19 12:00:00,16,1019,0.8,94,15,3500,11.112,,,270,,,,3,,,,,,25,wg-a,,,,AAXX 19124 07190 02235 82706 10160 20150 30009 40190 52008 60036 72586 878// 91200 333 60037=
07190,1997-07-19 15:00:00,19,1019.7,0.9,83,16,18000,7.408,,,320,,,,3,,,,,,3,wg-a,,,,AAXX 19154 07190 12568 73204 10190 20160 30018 40197 51009 60037 70365 84302 91500=
07190,1997-07-19 18:00:00,20,1020.3,1,73,15,500,3.704,,,230,14.8,20.4,,,,,,,,95,wg-a,,,,AAXX 19184 07190 02500 52302 10200 20150 30028 40203 53010 61000 79598 84962 91800 333 10204 20148 6001=
07190,1997-07-19 21:00:00,16,1021.9,0.9,82,13,8000,11.112,,,70,,,,3,,,,,,95,wg-a,,,,AAXX 19214 07190 12458 60706 10160 20130 30037 40219 53009 60037 79598 86900 92100=
07190,1997-07-20 00:00:00,14,1021.8,-0.2,94,13,15000,7.408,,,170,,,,0,,,,,,0,wg-a,,,,AAXX 20004 07190 02665 31704 10140 20130 30035 40218 56002 60036 70098 82260 90000 333 60007=
07190,1997-07-20 03:00:00,13,1021.2,-0.6,100,13,2200,3.704,,,140,,,,,,,,,,10,wg-a,,,,AAXX 20034 07190 12122 81402 10130 20130 30029 40212 57006 60006 710// 886// 90300=
07190,1997-07-20 06:00:00,15,1021.7,0.6,94,14,4000,3.704,,,210,12.8,19.4,,,,,10,,,10,wg-a,,,,AAXX 20064 07190 02140 62102 10150 20140 30035 40217 53006 60006 71041 83631 90600 333 10194 20128 60104=
07190,1997-07-20 09:00:00,19,1021.3,-0.2,78,15,12000,3.704,,,210,,,,,,,,,,,wg-a,,,,AAXX 20094 07190 12462 52102 10190 20150 30033 40213 58002 60006 84130 90900=
07190,1997-07-20 12:00:00,22,1019.6,-1.5,53,12,20000,7.408,,,90,,,,,,,,,,17,wg-a,,,,AAXX 20124 07190 12670 50904 10220 20120 30018 40196 58015 60006 71791 84330 91200=
07190,1997-07-20 15:00:00,21,1019.2,-0.4,53,11,500,18.52,,,10,,,,,,,,,,17,wg-a,,,,AAXX 20154 07190 12600 /0110 10210 20110 30014 40192 55004 60006 71791 84903 91500=
07190,1997-07-20 18:00:00,19,1019.5,0.2,68,13,25000,14.816,,,230,14.6,22.7,,,,,,,,3,wg-a,,,,AAXX 20184 07190 12775 52308 10190 20130 30016 40195 51002 60006 70391 83963 91800 333 10227 20146=
07190,1997-07-20 21:00:00,14,1020.1,0.3,94,13,25000,0,,,0,,,,,,,,,,,wg-a,,,,AAXX 20214 07190 12875 20000 10140 20130 30019 40201 51003 60006 82500 92100=
07190,1997-07-21 00:00:00,12,1020.1,-0.2,100,12,12000,3.704,,,190,,,,,,,,,,,wg-a,,,,AAXX 21004 07190 12/62 01902 10120 20120 30017 40201 57002 60006 80000 90000=
07190,1997-07-21 06:00:00,12,1020.2,0.4,100,12,9000,3.704,,,190,9.9,19,,,,,,,,,wg-a,,,,AAXX 21064 07190 02759 71902 10120 20120 30018 40202 53004 60006 85571 90600 333 10190 20099 60004=
07190,1997-07-21 09:00:00,16,1020.4,0.4,82,13,15000,3.704,,,200,,,,,,,,,,,wg-a,,,,AAXX 21094 07190 12665 72002 10160 20130 30022 40204 53004 60006 8687/ 90900=
07190,1997-07-21 12:00:00,22,1018.8,-1.2,53,12,20000,7.408,,,300,,,,,,,,,,,wg-a,,,,AAXX 21124 07190 12670 63004 10220 20120 30010 40188 58012 60006 83831 91200=
07190,1997-07-21 15:00:00,21,1018.8,,64,14,20000,18.52,,,10,,,,,,,,,,,wg-a,,,,AAXX 21154 07190 32670 70110 10210 20140 30010 40188 8683/ 91500=
07190,1997-07-21 18:00:00,21,1018.4,-0.4,69,15,17000,7.408,,,40,11.8,23.7,,,,,,,,,wg-a,,,,AAXX 21184 07190 12667 60404 10210 20150 30006 40184 55004 60006 85430 91800 333 10237 20118=
07190,1997-07-21 21:00:00,17,1019.6,0.9,88,15,15000,3.704,,,250,,,,,,,,,,,wg-a,,,,AAXX 21214 07190 12765 22502 10170 20150 30015 40196 53009 60006 82400 92100=
07190,1997-07-22 00:00:00,13,1019.5,-0.3,100,13,12000,3.704,,,110,,,,,,,,,,,wg-a,,,,AAXX 22004 07190 12/62 01102 10130 20130 30012 40195 58003 60006 80000 90000=
07190,1997-07-22 03:00:00,12,1019.5,-0.1,94,11,900,0,,,0,,,,,,,,,,41,wg-a,,,,AAXX 22034 07190 12/09 00000 10120 20110 30011 40195 55001 60006 74140 80000 90300=
07190,1997-07-22 06:00:00,14,1019.7,0.4,100,14,7000,3.704,,,350,11.5,20.6,,,,,,,,1,wg-a,,,,AAXX 22064 07190 02/57 /3502 10140 20140 30015 40197 53004 60006 70141 80001 90600 333 10206 20115 60004=
07190,1997-07-22 09:00:00,21,1019.5,0.2,69,15,10000,0,,,0,,,,,,,,,,,wg-a,,,,AAXX 22094 07190 12560 /0000 10210 20150 30017 40195 50002 60006 81200 90900=
07190,1997-07-22 12:00:00,24,1018.6,-0.7,54,14,20000,7.408,,,330,,,,,,,,,,,wg-a,,,,AAXX 22124 07190 12570 33304 10240 20140 30010 40186 58007 60006 83200 91200=
07190,1997-07-22 15:00:00,26,1017.5,-1,54,16,500,7.408,,,20,,,,,,,,,,,wg-a,,,,AAXX 22154 07190 12600 30204 10260 20160 30000 40175 57010 60006 82201 91500=
07190,1997-07-22 18:00:00,25,1017.2,-0.3,54,15,25000,11.112,,,20,14.3,26.4,,,,,,,,,wg-a,,,,AAXX 22184 07190 12775 40206 10250 20150 39997 40172 55003 60006 81202 91800 333 10264 20143=
07190,1997-07-22 21:00:00,19,1018.2,0.6,83,16,15000,7.408,,,340,,,,,,,,,,,wg-a,,,,AAXX 22214 07190 12765 53404 10190 20160 30003 40182 53006 60006 824/2 92100=
07190,1997-07-23 00:00:00,18,1018.5,0.2,83,15,10000,3.704,,,320,,,,,,,,,,,wg-a,,,,AAXX 23004 07190 12760 73202 10180 20150 30005 40185 50002 60006 81532 90000=
07190,1997-07-23 03:00:00,16,1018.2,-0.4,88,14,10000,3.704,,,320,,,,,,,,,,,wg-a,,,,AAXX 23034 07190 12/60 73202 10160 20140 30001 40182 55004 60006 84032 90300=
07190,1997-07-23 06:00:00,18,1018.5,0.4,83,15,9000,3.704,,,360,15.8,24.7,,,,,,,,,wg-a,,,,AAXX 23064 07190 02/59 73602 10180 20150 30005 40185 51004 60006 84042 90600 333 10247 20158 60004=
07190,1997-07-23 09:00:00,20,1018.6,0.3,78,16,7000,3.704,,,160,,,,,,,,,,,wg-a,,,,AAXX 23094 07190 12/57 71602 10200 20160 30008 40186 51003 60006 82082 90900=
07190,1997-07-23 12:00:00,25,1018,-0.3,61,17,15000,11.112,,,190,,,,,,,,,,,wg-a,,,,AAXX 23124 07190 12665 71906 10250 20170 30005 40180 58003 60006 82382 91200=
07190,1997-07-23 18:00:00,22,1016.7,-0.8,78,18,20000,7.408,,,190,18,25.9,,,,,,,,3,wg-a,,,,AAXX 23184 07190 02670 51904 10220 20180 39991 40167 57008 60006 70386 82281 91800 333 10259 20180 61000=
07190,1997-07-24 00:00:00,18,1017.4,-0.5,94,17,12000,3.704,,,330,,,,,,,,,,,wg-a,,,,AAXX 24004 07190 12/62 33302 10180 20170 39994 40174 58005 60006 83030 90000=
07190,1997-07-24 03:00:00,17,1016.6,-0.7,100,17,3500,0,,,0,,,,,,,,,,10,wg-a,,,,AAXX 24034 07190 12335 70000 10170 20170 39987 40166 56007 60006 71011 876// 90300=
07190,1997-07-24 06:00:00,18,1016.3,-0.3,94,17,500,3.704,,,240,16.5,22.4,,,,,,,,45,wg-a,,,,AAXX 24064 07190 02/05 92402 10180 20170 39984 40163 56003 60006 74541 89/// 90600 333 10224 20165 61000=
07190,1997-07-24 09:00:00,21,1015.8,-0.3,83,18,4000,0,,,0,,,,,,,,,,10,wg-a,,,,AAXX 24094 07190 12340 /0000 10210 20180 39981 40158 57003 60006 71041 84600 90900=
07190,1997-07-24 12:00:00,26,1013.8,-1.7,58,17,12000,11.112,,,20,,,,,,,,,,3,wg-a,,,,AAXX 24124 07190 12662 40206 10260 20170 39964 40138 58017 60006 70341 83204 91200=
07190,1997-07-24 15:00:00,28,1012.7,-1,40,13,500,14.816,,,340,,,,,,,,,,,wg-a,,,,AAXX 24154 07190 12600 /3408 10280 20130 39954 40127 58010 60006 81281 91500=
07190,1997-07-24 18:00:00,26,1012,-0.8,51,15,15000,7.408,,,30,17.7,28.1,,,,,,,,,wg-a,,,,AAXX 24184 07190 12765 /0304 10260 20150 39946 40120 56008 60006 81282 91800 333 10281 20177=
07190,1997-07-25 00:00:00,17,1012.9,-1,100,17,500,7.408,,,160,,,,1,,,,,,25,wg-a,,,,AAXX 25004 07190 02500 81604 10170 20170 39950 40129 58010 60026 72586 8687/ 90000 333 60017=
07190,1997-07-25 03:00:00,18,1012.6,-0.3,94,17,500,3.704,,,190,,,,3,,,,,,61,wg-a,,,,AAXX 25034 07190 12500 81902 10180 20170 39947 40126 56003 60037 76162 8687/ 90300=
07190,1997-07-25 06:00:00,18,1012.6,-0,83,15,7000,11.112,,,230,17.3,25.5,,,,,,,,25,wg-a,,,,AAXX 25064 07190 02557 /2306 10180 20150 39947 40126 54000 61000 72586 8587/ 90600 333 10255 20173 6006=
07190,1997-07-25 12:00:00,21,1013.5,1.1,60,13,15000,25.928,,,270,,,,,,,,,,1,wg-a,,,,AAXX 25124 07190 02465 62714 10210 20130 39958 40135 53011 60006 70186 84830 91200 333 61000=
07190,1997-07-25 15:00:00,20,1014.3,0.7,64,13,25000,22.224,,,240,,,,,,,,,,,wg-a,,,,AAXX 25154 07190 12675 72412 10200 20130 39965 40143 50007 60006 85830 91500=
07190,1997-07-25 18:00:00,19,1015,0.6,60,11,25000,11.112,,,250,17.8,21.3,,,,,,,,,wg-a,,,,AAXX 25184 07190 12675 72506 10190 20110 39971 40150 53006 60006 8487/ 91800 333 10213 20178=
07190,1997-07-25 21:00:00,17,1016.3,1.2,68,11,25000,14.816,,,260,,,,,,,,,,,wg-a,,,,AAXX 25214 07190 12775 72608 10170 20110 39983 40163 52012 60006 8557/ 92100=
07190,1997-07-26 00:00:00,15,1016.7,0.3,94,14,12000,7.408,,,160,,,,1,,,,,,21,wg-a,,,,AAXX 26004 07190 02562 71604 10150 20140 39986 40167 51003 60016 72162 875// 90000 333 60017=
07190,1997-07-26 03:00:00,15,1017.3,0.5,94,14,10000,3.704,,,170,,,,,,,,,,50,wg-a,,,,AAXX 26034 07190 02260 71702 10150 20140 39991 40173 53005 61000 75052 875// 90300 333 ////=
07190,1997-07-26 06:00:00,15,1018.3,1.1,100,15,12000,3.704,,,280,14.6,18.9,,,,,1,,,1,wg-a,,,,AAXX 26064 07190 02262 /2802 10150 20150 30002 40183 53011 60006 70151 83530 90600 333 10189 20146 60014=
07190,1997-07-26 09:00:00,20,1019.2,1.1,64,13,20000,11.112,,,270,,,,,,,,,,,wg-a,,,,AAXX 26094 07190 12570 32706 10200 20130 30013 40192 51011 60006 83200 90900=
07190,1997-07-26 12:00:00,23,1019.4,0.4,47,11,25000,11.112,,,320,,,,,,,,,,,wg-a,,,,AAXX 26124 07190 12675 43206 10230 20110 30017 40194 52004 60006 84200 91200=
07190,1997-07-26 18:00:00,23,1018.9,-0.5,53,13,35000,7.408,,,260,15.4,24.4,,,,,,,,,wg-a,,,,AAXX 26184 07190 12781 22604 10230 20130 30012 40189 57005 60006 81130 91800 333 10244 20154=
07190,1997-07-26 21:00:00,17,1020,0.7,82,14,25000,7.408,,,220,,,,,,,,,,,wg-a,,,,AAXX 26214 07190 12875 42204 10170 20140 30019 40200 52007 60006 81550 92100=
07190,1997-07-27 00:00:00,17,1019.8,-0.1,82,14,20000,3.704,,,210,,,,,,,,,,,wg-a,,,,AAXX 27004 07190 12770 72102 10170 20140 30018 40198 58001 60006 8357/ 90000=
07190,1997-07-27 03:00:00,17,1019.4,-0.5,77,13,25000,7.408,,,200,,,,,,,,,,,wg-a,,,,AAXX 27034 07190 12775 72004 10170 20130 30013 40194 57005 60006 8557/ 90300=
07190,1997-07-27 06:00:00,17,1019.3,-0,77,13,500,7.408,,,200,16.6,23,,,,,,,,,wg-a,,,,AAXX 27064 07190 02600 72004 10170 20130 30013 40193 55000 60006 84830 90600 333 10230 20166 60004=
07190,1997-07-27 09:00:00,22,1018.9,-0.1,73,17,500,14.816,,,170,,,,,,,,,,,wg-a,,,,AAXX 27094 07190 12500 51708 10220 20170 30012 40189 58001 60006 83830 90900=
07190,1997-07-27 12:00:00,25,1018.3,-0.4,57,16,40000,18.52,,,210,,,,,,,,,,,wg-a,,,,AAXX 27124 07190 12682 52110 10250 20160 30008 40183 55004 60006 84831 91200=
07190,1997-07-27 15:00:00,26,1018.1,-0.2,51,15,50000,25.928,,,240,,,,,,,,,,,wg-a,,,,AAXX 27154 07190 12684 /2414 10260 20150 30006 40181 55002 60006 85231 91500=
07190,1997-07-27 18:00:00,25,1018.4,0.2,47,13,50000,11.112,,,310,17.1,27,,,,,,,,,wg-a,,,,AAXX 27184 07190 12684 53106 10250 20130 30008 40184 53002 60006 83431 91800 333 10270 20171=
07190,1997-07-27 21:00:00,19,1020.9,2.2,83,16,20000,11.112,,,260,,,,0,,,,,,21,wg-a,,,,AAXX 27214 07190 12670 72606 10190 20160 30030 40209 51022 60007 72162 8357/ 92100=
07190,1997-07-28 00:00:00,17,1022.2,1.1,88,15,20000,3.704,,,220,,,,,,,,,,1,wg-a,,,,AAXX 28004 07190 12/70 02202 10170 20150 30041 40222 53011 60016 70161 80000 90000=
07190,1997-07-28 03:00:00,14,1022.8,0.4,94,13,20000,0,,,0,,,,,,,,,,,wg-a,,,,AAXX 28034 07190 12670 20000 10140 20130 30045 40228 53004 60006 82500 90300=
07190,1997-07-28 06:00:00,16,1023.6,0.9,94,15,900,3.704,,,330,13.2,24.5,,,,,1,,,41,wg-a,,,,AAXX 28064 07190 02209 /3302 10160 20150 30054 40236 51009 60006 74141 86600 90600 333 10245 20132 60014=
07190,1997-07-28 09:00:00,21,1023.2,-0.1,69,15,12000,3.704,,,350,,,,,,,,,,3,wg-a,,,,AAXX 28094 07190 12562 23502 10210 20150 30053 40232 58001 60006 70341 81101 90900=
07190,1997-07-28 12:00:00,24,1021.9,-1.1,50,13,25000,3.704,,,320,,,,,,,,,,3,wg-a,,,,AAXX 28124 07190 12675 43202 10240 20130 30042 40219 58011 60006 70341 82101 91200=
07190,1997-07-28 15:00:00,25,1020.8,-1,44,12,500,3.704,,,40,,,,,,,,,,,wg-a,,,,AAXX 28154 07190 12700 /0402 10250 20120 30032 40208 57010 60006 81101 91500=
07190,1997-07-28 18:00:00,24,1019.8,-1,50,13,25000,7.408,,,350,15.9,25.7,,,,,,,,,wg-a,,,,AAXX 28184 07190 12775 63504 10240 20130 30022 40198 56010 60006 81102 91800 333 10257 20159=
07190,1997-07-28 21:00:00,17,1021.6,1.3,82,14,15000,7.408,,,330,,,,,,,,,,,wg-a,,,,AAXX 28214 07190 12/65 43304 10170 20140 30035 40216 51013 60006 80001 92100=
07190,1997-07-29 00:00:00,16,1021.4,-0.3,88,14,10000,3.704,,,310,,,,,,,,,,,wg-a,,,,AAXX 29004 07190 12/60 43102 10160 20140 30032 40214 58003 60006 83031 90000=
07190,1997-07-29 03:00:00,15,1021.2,-0.2,88,13,10000,3.704,,,300,,,,,,,,,,,wg-a,,,,AAXX 29034 07190 12/60 63002 10150 20130 30030 40212 55002 60006 84072 90300=
07190,1997-07-29 06:00:00,17,1021.4,0.3,77,13,20000,7.408,,,290,14.6,24.4,,,,,,,,,wg-a,,,,AAXX 29064 07190 02/70 52904 10170 20130 30033 40214 53003 60006 84032 90600 333 10244 20146 60004=
07190,1997-07-29 09:00:00,22,1021.4,0.3,60,14,25000,7.408,,,360,,,,,,,,,,,wg-a,,,,AAXX 29094 07190 12675 /3604 10220 20140 30036 40214 50003 60006 81131 90900=
07190,1997-07-29 12:00:00,26,1020.5,-0.7,39,11,500,11.112,,,10,,,,,,,,,,,wg-a,,,,AAXX 29124 07190 12700 50106 10260 20110 30029 40205 58007 60006 81201 91200=
07190,1997-07-29 15:00:00,27,1019.4,-1,34,10,500,11.112,,,350,,,,,,,,,,,wg-a,,,,AAXX 29154 07190 12700 43506 10270 20100 30019 40194 58010 60006 81201 91500=
07190,1997-07-29 18:00:00,26,1019.2,-0.2,42,12,40000,11.112,,,10,17.2,27.4,,,,,,,,,wg-a,,,,AAXX 29184 07190 12782 50106 10260 20120 30017 40192 55002 60006 81101 91800 333 10274 20172=
07190,1997-07-29 21:00:00,18,1020.5,0.8,77,14,10000,7.408,,,240,,,,,,,,,,,wg-a,,,,AAXX 29214 07190 12/60 /2404 10180 20140 30025 40205 53008 60006 92100=
07190,1997-07-30 00:00:00,14,1020.5,-0.3,94,13,20000,3.704,,,120,,,,,,,,,,,wg-a,,,,AAXX 30004 07190 12/70 21202 10140 20130 30022 40205 58003 60006 80001 90000=
07190,1997-07-30 03:00:00,12,1020.1,-0.5,94,11,25000,3.704,,,230,,,,,,,,,,,wg-a,,,,AAXX 30034 07190 12/75 12302 10120 20110 30017 40201 57005 60006 80001 90300=
07190,1997-07-30 06:00:00,15,1020,0.1,88,13,20000,0,,,0,11.9,25.5,,,,,,,,,wg-a,,,,AAXX 30064 07190 02/70 10000 10150 20130 30018 40200 52001 60006 80001 90600 333 10255 20119 60004=
07190,1997-07-30 09:00:00,23,1019.5,0,57,14,25000,3.704,,,150,,,,,,,,,,,wg-a,,,,AAXX 30094 07190 12775 /1502 10230 20140 30018 40195 50000 60006 81101 90900=
07190,1997-07-30 12:00:00,27,1018,-1.2,42,13,500,7.408,,,110,,,,,,,,,,,wg-a,,,,AAXX 30124 07190 12700 21104 10270 20130 30006 40180 57012 60006 81201 91200=
07190,1997-07-30 15:00:00,29,1016.6,-1.3,37,13,500,3.704,,,330,,,,,,,,,,,wg-a,,,,AAXX 30154 07190 12700 53302 10290 20130 39993 40166 57013 60006 81231 91500=
07190,1997-07-30 18:00:00,26,1016.2,-0.5,54,16,500,3.704,,,130,15,28.9,,,,,,,,,wg-a,,,,AAXX 30184 07190 12700 71302 10260 20160 39988 40162 56005 60006 81172 91800 333 10289 20150=
07190,1997-07-30 21:00:00,21,1016.5,-0,78,17,500,11.112,,,210,,,,,,,,,,,wg-a,,,,AAXX 30214 07190 12/00 52106 10210 20170 39988 40165 55000 60006 81032 92100=
07190,1997-07-31 00:00:00,18,1016.3,-0.4,88,16,500,11.112,,,220,,,,,,,,,,,wg-a,,,,AAXX 31004 07190 12/00 52206 10180 20160 39984 40163 58004 60006 84032 90000=
07190,1997-07-31 03:00:00,17,1016.1,-0.3,88,15,20000,3.704,,,150,,,,,,,,,,,wg-a,,,,AAXX 31034 07190 12/70 51502 10170 20150 39981 40161 55003 60006 84032 90300=
07190,1997-07-31 06:00:00,19,1016.7,0.7,83,16,20000,3.704,,,240,16.6,25.7,,,,,,,,,wg-a,,,,AAXX 31064 07190 02670 72402 10190 20160 39988 40167 51007 60006 81572 90600 333 10257 20166 60004=
07190,1997-07-31 09:00:00,19,1017.5,0.8,46,7,40000,18.52,,,260,,,,,,,,,,,wg-a,,,,AAXX 31094 07190 12782 72610 10190 20070 39996 40175 51008 60006 8257/ 90900=
07190,1997-07-31 12:00:00,20,1017.6,0.2,53,10,40000,11.112,,,290,,,,,,,,,,,wg-a,,,,AAXX 31124 07190 12682 /2906 10200 20100 39998 40176 53002 60006 82232 91200=
07190,1997-07-31 15:00:00,19,1018.1,0.3,60,11,40000,11.112,,,330,,,,,,,,,,,wg-a,,,,AAXX 31154 07190 12682 83306 10190 20110 30001 40181 53003 60006 8357/ 91500=
07190,1997-07-31 18:00:00,17,1017.5,-0.7,77,13,500,11.112,,,240,16.4,20.4,,,,,,,,21,wg-a,,,,AAXX 31184 07190 02500 /2406 10170 20130 39994 40175 57007 61000 72162 8687/ 91800 333 10204 20164 6000=
07190,1997-07-31 21:00:00,16,1017.8,0.3,72,11,25000,18.52,,,250,,,,,,,,,,60,wg-a,,,,AAXX 31214 07190 02575 82510 10160 20110 39997 40178 50003 61000 76062 885// 92100 333 ////=
07190,1997-08-01 00:00:00,14,1017,-0.9,88,12,20000,7.408,,,290,,,,1,,,,,,21,wg-a,,,,AAXX 01004 07190 02470 82904 10140 20120 39988 40170 58009 60016 72165 885// 90000 333 60017=
07190,1997-08-01 03:00:00,13,1015.8,-1.2,88,11,25000,11.112,,,240,,,,,,,,,,,wg-a,,,,AAXX 01034 07190 12475 82406 10130 20110 39976 40158 56012 60006 885// 90300=
07190,1997-08-01 06:00:00,13,1015.7,-0.1,88,11,10000,7.408,,,160,13.2,16.6,,,,,,,,61,wg-a,,,,AAXX 01064 07190 02560 81604 10130 20110 39975 40157 55001 61000 76162 875// 90600 333 10166 20132 6002=
07190,1997-08-01 09:00:00,14,1016,0.3,94,13,8000,11.112,,,180,,,,1,,,,,,61,wg-a,,,,AAXX 01094 07190 12458 81806 10140 20130 39978 40160 53003 60017 76162 878// 90900=
07190,1997-08-01 12:00:00,16,1015.8,-0,82,13,15000,14.816,,,190,,,,,,,,,,3,wg-a,,,,AAXX 01124 07190 02565 81908 10160 20130 39978 40158 54000 60016 70362 878// 91200 333 61000=
07190,1997-08-01 15:00:00,18,1015.8,0.1,73,13,15000,7.408,,,240,,,,,,,,,,,wg-a,,,,AAXX 01154 07190 12565 82404 10180 20130 39979 40158 53001 60006 878// 91500=
07190,1997-08-01 18:00:00,16,1016.5,0.5,88,14,4500,3.704,,,100,13.2,17.8,,,,,,,,58,wg-a,,,,AAXX 01184 07190 02445 81002 10160 20140 39984 40165 53005 61000 75886 888// 91800 333 10178 20132 6000=
07190,1997-08-01 21:00:00,15,1017.5,1,94,14,12000,3.704,,,170,,,,0,,,,,,1,wg-a,,,,AAXX 01214 07190 12562 81702 10150 20140 39994 40175 51010 60007 70165 875// 92100=
07190,1997-08-02 00:00:00,15,1017.4,-0.1,100,15,12000,7.408,,,180,,,,,,,,,,3,wg-a,,,,AAXX 02004 07190 12562 81804 10150 20150 39993 40174 58001 60006 70365 875// 90000=
07190,1997-08-02 03:00:00,15,1017.1,-0.3,94,14,12000,3.704,,,190,,,,0,,,,,,,wg-a,,,,AAXX 02034 07190 12562 81902 10150 20140 39990 40171 55003 60007 875// 90300=
07190,1997-08-02 06:00:00,15,1017.5,0.4,100,15,500,7.408,,,150,14.9,16,,,,,2,,,1,wg-a,,,,AAXX 02064 07190 02200 81504 10150 20150 39994 40175 52004 60006 70162 875// 90600 333 10160 20149 60024=
07190,1997-08-02 09:00:00,17,1018.1,0.7,94,16,7000,11.112,,,190,,,,1,,,,,,21,wg-a,,,,AAXX 02094 07190 12257 81906 10170 20160 30001 40181 50007 60017 72165 875// 90900=
07190,1997-08-02 12:00:00,20,1017.5,-0.4,78,16,15000,11.112,,,190,,,,,,,,,,1,wg-a,,,,AAXX 02124 07190 02465 81906 10200 20160 39997 40175 56004 60016 70165 8657/ 91200 333 61000=
07190,1997-08-02 15:00:00,19,1017.9,0.3,83,16,12000,3.704,,,280,,,,,,,,,,,wg-a,,,,AAXX 02154 07190 12462 82802 10190 20160 30000 40179 53003 60006 875// 91500=
07190,1997-08-03 00:00:00,16,1018.6,-0.1,100,16,700,3.704,,,360,,,,,,,,,,43,wg-a,,,,AAXX 03004 07190 12/07 93602 10160 20160 30005 40186 56001 60006 74341 89/// 90000=
07190,1997-08-03 06:00:00,17,1018.2,0.4,94,16,1800,0,,,0,15,18.3,,,,,1,,,10,wg-a,,,,AAXX 03064 07190 02118 80000 10170 20160 30002 40182 52004 60006 71042 886// 90600 333 10183 20150 60014=
07190,1997-08-03 09:00:00,19,1018.6,0.5,83,16,8000,3.704,,,240,,,,,,,,,,,wg-a,,,,AAXX 03094 07190 12458 72402 10190 20160 30007 40186 53005 60006 875// 90900=
07190,1997-08-03 12:00:00,23,1017.7,-0.7,69,17,13000,3.704,,,350,,,,,,,,,,,wg-a,,,,AAXX 03124 07190 12563 73502 10230 20170 30000 40177 58007 60006 82238 91200=
07190,1997-08-03 15:00:00,26,1016.5,-0.9,58,17,500,0,,,0,,,,,,,,,,,wg-a,,,,AAXX 03154 07190 12600 /0000 10260 20170 39991 40165 56009 60006 81261 91500=
07190,1997-08-03 18:00:00,25,1016,-0.6,57,16,500,7.408,,,80,16.5,26.6,,,,,,,,,wg-a,,,,AAXX 03184 07190 12600 40804 10250 20160 39985 40160 56006 60006 81241 91800 333 10266 20165=
07190,1997-08-03 21:00:00,20,1016.7,0.4,83,17,25000,3.704,,,260,,,,,,,,,,,wg-a,,,,AAXX 03214 07190 12/75 42602 10200 20170 39989 40167 51004 60006 83031 92100=
07190,1997-08-04 00:00:00,17,1016.8,-0.1,88,15,20000,0,,,0,,,,,,,,,,,wg-a,,,,AAXX 04004 07190 12/70 10000 10170 20150 39988 40168 58001 60006 81031 90000=
07190,1997-08-04 03:00:00,15,1016.9,0,94,14,20000,3.704,,,210,,,,,,,,,,,wg-a,,,,AAXX 04034 07190 12/70 22102 10150 20140 39988 40169 50000 60006 81031 90300=
07190,1997-08-04 06:00:00,18,1017.3,0.6,94,17,9000,0,,,0,14.3,24.8,,,,,,,,,wg-a,,,,AAXX 04064 07190 02/59 30000 10180 20170 39994 40173 51006 60006 83031 90600 333 10248 20143 60004=
07190,1997-08-04 12:00:00,28,1016.4,-0.4,55,18,15000,7.408,,,60,,,,,,,,,,,wg-a,,,,AAXX 04124 07190 12665 30604 10280 20180 39991 40164 58004 60006 82202 91200=
07190,1997-08-04 15:00:00,29,1015.8,-0.6,52,18,20000,7.408,,,340,,,,,,,,,,,wg-a,,,,AAXX 04154 07190 12670 53404 10290 20180 39985 40158 55006 60006 82232 91500=
07190,1997-08-04 18:00:00,27,1015.3,-0.5,58,18,500,7.408,,,30,17.7,29.9,,,,,,,,,wg-a,,,,AAXX 04184 07190 12700 30304 10270 20180 39980 40153 56005 60006 81242 91800 333 10299 20177=
07190,1997-08-04 21:00:00,21,1016.6,0.9,88,19,500,3.704,,,260,,,,,,,,,,,wg-a,,,,AAXX 04214 07190 12/00 12602 10210 20190 39989 40166 53009 60006 81032 92100=
07190,1997-08-05 00:00:00,19,1016.5,-0.3,88,17,18000,0,,,0,,,,,,,,,,,wg-a,,,,AAXX 05004 07190 12/68 20000 10190 20170 39986 40165 56003 60006 80002 90000=
07190,1997-08-05 03:00:00,17,1016.4,-0.2,94,16,15000,0,,,0,,,,,,,,,,,wg-a,,,,AAXX 05034 07190 12/65 30000 10170 20160 39984 40164 58002 60006 81032 90300=
07190,1997-08-05 06:00:00,20,1016.1,-0.1,83,17,15000,7.408,,,350,16.3,27.1,,,,,,,,,wg-a,,,,AAXX 05064 07190 02/65 33504 10200 20170 39983 40161 56001 60006 82039 90600 333 10271 20163 60004=
07190,1997-08-05 09:00:00,25,1015.8,0,69,19,12000,3.704,,,350,,,,,,,,,,,wg-a,,,,AAXX 05094 07190 12762 23502 10250 20190 39983 40158 50000 60006 81231 90900=
07190,1997-08-05 12:00:00,29,1014.5,-1,58,20,17000,11.112,,,30,,,,,,,,,,,wg-a,,,,AAXX 05124 07190 12767 20306 10290 20200 39973 40145 56010 60006 81963 91200=
07190,1997-08-05 15:00:00,31,1012.9,-1.5,46,18,20000,11.112,,,20,,,,,,,,,,,wg-a,,,,AAXX 05154 07190 12770 50206 10310 20180 39958 40129 56015 60006 83969 91500=
07190,1997-08-05 18:00:00,29,1012,-1,48,17,500,14.816,,,20,19.6,30.9,,,,,,,,,wg-a,,,,AAXX 05184 07190 12/00 40208 10290 20170 39948 40120 55010 60006 82063 91800 333 10309 20196=
07190,1997-08-05 21:00:00,24,1013.1,0.8,69,18,500,11.112,,,20,,,,,,,,,,,wg-a,,,,AAXX 05214 07190 12800 10206 10240 20180 39956 40131 50008 60006 81080 92100=
07190,1997-08-06 00:00:00,21,1013.9,0.6,83,18,20000,11.112,,,300,,,,,,,,,,13,wg-a,,,,AAXX 06004 07190 12870 23006 10210 20180 39962 40139 53006 60006 71300 82080 90000=
07190,1997-08-06 03:00:00,21,1013.9,-0,83,18,20000,11.112,,,320,,,,,,,,,,,wg-a,,,,AAXX 06034 07190 12/70 53206 10210 20180 39962 40139 54000 60006 80001 90300=
07190,1997-08-06 06:00:00,20,1013.7,-0.3,83,17,9000,7.408,,,330,19.4,28.4,,,,,,,,,wg-a,,,,AAXX 06064 07190 02459 /3304 10200 20170 39959 40137 55003 60006 81172 90600 333 10284 20194 60004=
07190,1997-08-06 09:00:00,22,1013.5,0,73,17,12000,7.408,,,360,,,,,,,,,,,wg-a,,,,AAXX 06094 07190 12762 63604 10220 20170 39959 40135 50000 60006 81182 90900=
07190,1997-08-06 12:00:00,24,1013,-0.4,74,19,9000,14.816,,,40,,,,,,,,,,,wg-a,,,,AAXX 06124 07190 12759 70408 10240 20190 39955 40130 58004 60006 8397/ 91200=
07190,1997-08-06 15:00:00,22,1013.4,0.3,83,19,2000,18.52,,,70,,,,,,,,,,16,wg-a,,,,AAXX 06154 07190 02320 70710 10220 20190 39958 40134 53003 61000 71698 879// 91500 333 ////=
07190,1997-08-06 18:00:00,20,1013.1,-0.4,94,19,12000,3.704,,,180,19.4,25.5,,7,,,,,,3,wg-a,,,,AAXX 06184 07190 02462 71802 10200 20190 39954 40131 56004 60006 70398 83883 91800 333 10255 20194 60077=
07190,1997-08-06 21:00:00,19,1013.7,0.5,94,18,20000,3.704,,,50,,,,,,,,,,,wg-a,,,,AAXX 06214 07190 12570 /0502 10190 20180 39959 40137 50005 60006 81532 92100=
07190,1997-08-07 00:00:00,18,1013.9,0.1,94,17,6000,3.704,,,280,,,,,,,,,,,wg-a,,,,AAXX 07004 07190 12/56 42802 10180 20170 39960 40139 50001 60006 83031 90000=
07190,1997-08-07 03:00:00,17,1013.9,-0,100,17,15000,3.704,,,350,,,,,,,,,,,wg-a,,,,AAXX 07034 07190 12/65 63502 10170 20170 39960 40139 55000 60006 84031 90300=
07190,1997-08-07 06:00:00,17,1014.6,0.7,88,15,15000,7.408,,,330,16.3,19.8,,,,,7,,,,wg-a,,,,AAXX 07064 07190 02465 /3304 10170 20150 39967 40146 51007 60006 82631 90600 333 10198 20163 60074=
07190,1997-08-07 09:00:00,21,1014.6,0.2,73,16,15000,11.112,,,10,,,,,,,,,,,wg-a,,,,AAXX 07094 07190 12765 50106 10210 20160 39969 40146 51002 60006 83131 90900=
07190,1997-08-07 12:00:00,26,1013.8,-0.5,61,18,15000,11.112,,,20,,,,,,,,,,,wg-a,,,,AAXX 07124 07190 12/65 50206 10260 20180 39964 40138 57005 60006 84031 91200=
07190,1997-08-07 15:00:00,28,1012.9,-0.8,48,16,20000,14.816,,,20,,,,,,,,,,,wg-a,,,,AAXX 07154 07190 12670 70208 10280 20160 39956 40129 55008 60006 81271 91500=
07190,1997-08-07 18:00:00,26,1013.1,0.1,58,17,25000,7.408,,,350,17.2,28.7,,,,,,,,,wg-a,,,,AAXX 07184 07190 12875 73504 10260 20170 39957 40131 53001 60006 84032 91800 333 10287 20172=
07190,1997-08-07 21:00:00,23,1014.4,1.1,65,16,25000,3.704,,,350,,,,,,,,,,,wg-a,,,,AAXX 07214 07190 12875 73502 10230 20160 39968 40144 52011 60006 8557/ 92100=
07190,1997-08-08 00:00:00,20,1014.8,0.3,78,16,20000,7.408,,,330,,,,,,,,,,,wg-a,,,,AAXX 08004 07190 12870 73304 10200 20160 39971 40148 53003 60006 8557/ 90000=
07190,1997-08-08 03:00:00,19,1015.5,0.5,88,17,8000,7.408,,,90,,,,0,,,,,,25,wg-a,,,,AAXX 08034 07190 12658 80904 10190 20170 39976 40155 53005 60007 72522 878// 90300=
07190,1997-08-08 06:00:00,18,1016.7,1.2,88,16,9000,7.408,,,30,18.1,25.6,,,,,,,,1,wg-a,,,,AAXX 08064 07190 02759 70304 10180 20160 39988 40167 53012 60006 70186 81571 90600 333 10256 20181 60004=
07190,1997-08-08 09:00:00,20,1017.5,0.9,83,17,7000,3.704,,,10,,,,2,,,,,,17,wg-a,,,,AAXX 08094 07190 12557 70102 10200 20170 39997 40175 51009 60027 71798 81231 90900=
07190,1997-08-08 12:00:00,24,1017,-0.3,74,19,7000,3.704,,,340,,,,,,,,,,1,wg-a,,,,AAXX 08124 07190 12557 53402 10240 20190 39994 40170 58003 60026 70198 82960 91200=
07190,1997-08-08 15:00:00,27,1016.3,-0.5,66,20,8000,11.112,,,230,,,,,,,,,,,wg-a,,,,AAXX 08154 07190 12558 32306 10270 20200 39989 40163 56005 60006 82260 91500=
07190,1997-08-08 18:00:00,24,1016.6,0.1,74,19,20000,7.408,,,190,17.4,26.9,,,,,,,,,wg-a,,,,AAXX 08184 07190 12670 21904 10240 20190 39990 40166 53001 60006 82963 91800 333 10269 20174=
07190,1997-08-09 00:00:00,17,1019.2,0.6,94,16,12000,7.408,,,20,,,,,,,,,,,wg-a,,,,AAXX 09004 07190 12/62 00204 10170 20160 30012 40192 51006 60006 80000 90000=
07190,1997-08-09 06:00:00,16,1020.9,1,100,16,300,7.408,,,360,15.2,23.8,,,,,2,,,45,wg-a,,,,AAXX 09064 07190 02/03 93604 10160 20160 30028 40209 52010 60006 74541 89/// 90600 333 10238 20152 60024=
07190,1997-08-09 09:00:00,21,1020.8,0.2,83,18,7000,3.704,,,10,,,,,,,,,,1,wg-a,,,,AAXX 09094 07190 12457 /0102 10210 20180 30030 40208 50002 60006 70141 81100 90900=
07190,1997-08-09 12:00:00,26,1019.6,-0.9,54,16,14000,7.408,,,20,,,,,,,,,,3,wg-a,,,,AAXX 09124 07190 12664 /0204 10260 20160 30021 40196 58009 60006 70341 81200 91200=
07190,1997-08-09 15:00:00,28,1018.4,-1.1,40,13,45000,11.112,,,10,,,,,,,,,,,wg-a,,,,AAXX 09154 07190 12783 10106 10280 20130 30010 40184 56011 60006 81200 91500=
07190,1997-08-09 18:00:00,26,1018,-0.5,48,14,45000,11.112,,,30,16.1,28.5,,,,,,,,,wg-a,,,,AAXX 09184 07190 12783 10306 10260 20140 30005 40180 55005 60006 81200 91800 333 10285 20161=
07190,1997-08-09 21:00:00,20,1018.8,0.4,73,15,45000,11.112,,,350,,,,,,,,,,,wg-a,,,,AAXX 09214 07190 12/83 03506 10200 20150 30009 40188 53004 60006 80000 92100=
07190,1997-08-10 00:00:00,17,1019,0.1,88,15,45000,7.408,,,340,,,,,,,,,,,wg-a,,,,AAXX 10004 07190 12/83 03404 10170 20150 30010 40190 50001 60006 80000 90000=
07190,1997-08-10 03:00:00,15,1018.9,-0.3,88,13,45000,3.704,,,290,,,,,,,,,,,wg-a,,,,AAXX 10034 07190 12/83 02902 10150 20130 30007 40189 55003 60006 80000 90300=
07190,1997-08-10 06:00:00,17,1018.9,0.2,88,15,12000,7.408,,,350,14.5,26.2,,,,,,,,,wg-a,,,,AAXX 10064 07190 02/62 13504 10170 20150 30009 40189 51002 60006 81080 90600 333 10262 20145 60004=
07190,1997-08-10 09:00:00,23,1018.8,0.2,65,16,13000,3.704,,,10,,,,,,,,,,,wg-a,,,,AAXX 10094 07190 12/63 00102 10230 20160 30011 40188 50002 60006 80000 90900=
07190,1997-08-10 12:00:00,29,1017.1,-1.3,40,14,20000,18.52,,,50,,,,,,,,,,,wg-a,,,,AAXX 10124 07190 12/70 00510 10290 20140 39998 40171 58013 60006 80000 91200=
07190,1997-08-10 15:00:00,30,1015.5,-1.5,40,15,500,14.816,,,70,,,,,,,,,,,wg-a,,,,AAXX 10154 07190 12700 10708 10300 20150 39983 40155 57015 60006 81100 91500=
07190,1997-08-10 18:00:00,28,1015,-0.6,51,17,35000,11.112,,,50,17.2,30.3,,,,,,,,,wg-a,,,,AAXX 10184 07190 12/81 00506 10280 20170 39977 40150 56006 60006 80000 91800 333 10303 20172=
07190,1997-08-10 21:00:00,22,1016.1,0.7,65,15,25000,7.408,,,30,,,,,,,,,,,wg-a,,,,AAXX 10214 07190 12/75 00304 10220 20150 39984 40161 53007 60006 80000 92100=
07190,1997-08-11 00:00:00,17,1016.1,-0.3,82,14,25000,7.408,,,340,,,,,,,,,,,wg-a,,,,AAXX 11004 07190 12/75 03404 10170 20140 39981 40161 56003 60006 80000 90000=
07190,1997-08-11 06:00:00,17,1016.1,0.7,82,14,25000,7.408,,,340,14.3,27.7,,,,,,,,,wg-a,,,,AAXX 11064 07190 02/75 13404 10170 20140 39981 40161 51007 60006 80001 90600 333 10277 20143 60004=
07190,1997-08-11 09:00:00,23,1016,0.3,65,16,20000,7.408,,,360,,,,,,,,,,,wg-a,,,,AAXX 11094 07190 12/70 03604 10230 20160 39984 40160 53003 60006 80000 90900=
07190,1997-08-11 12:00:00,28,1015.1,-0.6,48,16,20000,11.112,,,360,,,,,,,,,,,wg-a,,,,AAXX 11124 07190 12670 23606 10280 20160 39978 40151 58006 60006 81230 91200=
07190,1997-08-11 15:00:00,31,1014.5,-0.4,40,16,500,14.816,,,20,,,,,,,,,,,wg-a,,,,AAXX 11154 07190 12700 20208 10310 20160 39974 40145 56004 60006 81202 91500=
07190,1997-08-11 18:00:00,29,1015.3,0.6,43,15,500,14.816,,,20,17.2,31.2,,,,,,,,,wg-a,,,,AAXX 11184 07190 12/00 10208 10290 20150 39980 40153 53006 60006 80003 91800 333 10312 20172=
07190,1997-08-11 21:00:00,21,1017.7,1.9,69,15,500,7.408,,,320,,,,,,,,,,,wg-a,,,,AAXX 11214 07190 12/00 13204 10210 20150 39999 40177 53019 60006 80002 92100=
07190,1997-08-12 00:00:00,17,1019.2,1.3,88,15,25000,3.704,,,280,,,,,,,,,,,wg-a,,,,AAXX 12004 07190 12/75 02802 10170 20150 30012 40192 53013 60006 80000 90000=
07190,1997-08-12 03:00:00,15,1020.1,0.7,94,14,25000,3.704,,,320,,,,,,,,,,,wg-a,,,,AAXX 12034 07190 12/75 03202 10150 20140 30019 40201 51007 60006 80000 90300=
07190,1997-08-12 06:00:00,17,1021.4,1.4,77,13,20000,7.408,,,340,14.8,28.6,,,,,,,,,wg-a,,,,AAXX 12064 07190 02/70 13404 10170 20130 30033 40214 51014 60006 80001 90600 333 10286 20148 60004=
07190,1997-08-12 09:00:00,24,1021.6,0.6,57,15,15000,7.408,,,350,,,,,,,,,,,wg-a,,,,AAXX 12094 07190 12665 23504 10240 20150 30039 40216 50006 60006 81201 90900=
07190,1997-08-12 12:00:00,29,1020.5,-0.8,45,16,15000,7.408,,,30,,,,,,,,,,,wg-a,,,,AAXX 12124 07190 12665 20304 10290 20160 30031 40205 58008 60006 81201 91200=
07190,1997-08-12 15:00:00,30,1019.6,-0.8,40,15,20000,11.112,,,10,,,,,,,,,,,wg-a,,,,AAXX 12154 07190 12770 30106 10300 20150 30023 40196 56008 60006 81261 91500=
07190,1997-08-12 18:00:00,28,1019.4,-0.3,51,17,20000,3.704,,,350,17.4,30.1,,,,,,,,,wg-a,,,,AAXX 12184 07190 12/70 33502 10280 20170 30020 40194 56003 60006 80002 91800 333 10301 20174=
07190,1997-08-12 21:00:00,20,1020,0.2,83,17,20000,7.408,,,280,,,,,,,,,,,wg-a,,,,AAXX 12214 07190 12/70 02804 10200 20170 30022 40200 50002 60006 80000 92100=
07190,1997-08-13 00:00:00,17,1020.7,0.4,88,15,20000,0,,,0,,,,,,,,,,,wg-a,,,,AAXX 13004 07190 12/70 10000 10170 20150 30026 40207 52004 60006 80001 90000=
07190,1997-08-13 03:00:00,15,1020.9,0.1,88,13,20000,0,,,0,,,,,,,,,,,wg-a,,,,AAXX 13034 07190 12/70 00000 10150 20130 30027 40209 52001 60006 80000 90300=
07190,1997-08-13 06:00:00,16,1022,1.2,94,15,12000,0,,,0,14.4,28,,,,,,,,,wg-a,,,,AAXX 13064 07190 02662 /0000 10160 20150 30039 40220 53012 60006 81330 90600 333 10280 20144 60004=
07190,1997-08-13 09:00:00,24,1021.5,0,74,19,12000,7.408,,,160,,,,,,,,,,,wg-a,,,,AAXX 13094 07190 12/62 41604 10240 20190 30039 40215 50000 60006 83083 90900=
07190,1997-08-13 12:00:00,29,1020,-1.2,55,19,14000,7.408,,,160,,,,,,,,,,,wg-a,,,,AAXX 13124 07190 12664 41604 10290 20190 30027 40200 58012 60006 82983 91200=
07190,1997-08-13 18:00:00,22,1,,83,19,20000,11.112,,,170,,,,,,,,,,0,wg-a,,,,AAXX 13184 07190 12/70 71706 10220 20190 30036 60006 700// 81360 91800=
07190,1997-08-13 21:00:00,20,1022.6,1.1,88,18,15000,3.704,,,140,,,,,,,,,,,wg-a,,,,AAXX 13214 07190 12/65 51402 10200 20180 30047 40226 51011 60006 81031 92100=
07190,1997-08-14 00:00:00,18,1022.9,0.2,94,17,6000,3.704,,,210,,,,,,,,,,,wg-a,,,,AAXX 14004 07190 12/56 /2102 10180 20170 30049 40229 50002 60006 80001 90000=
07190,1997-08-14 03:00:00,17,1022.9,-0.1,100,17,400,3.704,,,220,,,,,,,,,,44,wg-a,,,,AAXX 14034 07190 12/04 42202 10170 20170 30048 40229 58001 60006 74441 80001 90300=
07190,1997-08-14 06:00:00,18,1023.2,0.3,94,17,3000,3.704,,,210,16.1,22.4,,,,,,,,10,wg-a,,,,AAXX 14064 07190 02130 42102 10180 20170 30051 40232 53003 60006 71041 84601 90600 333 10224 20161 60004=
07190,1997-08-14 09:00:00,24,1022.3,-0.4,78,20,10000,3.704,,,160,,,,,,,,,,,wg-a,,,,AAXX 14094 07190 12460 21602 10240 20200 30047 40223 57004 60006 81201 90900=
07190,1997-08-14 12:00:00,28,1020.8,-1.3,62,20,10000,7.408,,,300,,,,,,,,,,,wg-a,,,,AAXX 14124 07190 12560 53004 10280 20200 30034 40208 58013 60006 84960 91200=
07190,1997-08-14 15:00:00,25,1020.2,-0.7,79,21,12000,7.408,,,240,,,,2,,,,,,29,wg-a,,,,AAXX 14154 07190 12662 52404 10250 20210 30027 40202 56007 60027 72998 82263 91500=
07190,1997-08-14 18:00:00,23,1019.7,-0.6,89,21,15000,7.408,,,240,17.7,28.7,,,,,,,,25,wg-a,,,,AAXX 14184 07190 02565 52404 10230 20210 30021 40197 56006 61000 72598 83263 91800 333 10287 20177 6003=
07190,1997-08-14 21:00:00,20,1020.4,0.5,94,19,12000,3.704,,,220,,,,,,,,,,,wg-a,,,,AAXX 14214 07190 12/62 22202 10200 20190 30026 40204 53005 60006 80001 92100=
07190,1997-08-15 00:00:00,18,1020.9,0.3,94,17,20000,3.704,,,280,,,,0,,,,,,,wg-a,,,,AAXX 15004 07190 02670 22802 10180 20170 30029 40209 51003 60006 82500 90000 333 60007=
07190,1997-08-15 03:00:00,18,1020.6,-0.3,94,17,20000,3.704,,,300,,,,,,,,,,,wg-a,,,,AAXX 15034 07190 12670 43002 10180 20170 30026 40206 58003 60006 84500 90300=
07190,1997-08-15 06:00:00,19,1020.8,0.2,78,15,15000,3.704,,,40,17.7,23.4,,,,,6,,,,wg-a,,,,AAXX 15064 07190 02765 /0402 10190 20150 30028 40208 53002 60006 81531 90600 333 10234 20177 60064=
07190,1997-08-15 12:00:00,26,1020.1,-0.6,54,16,15000,7.408,,,330,,,,,,,,,,,wg-a,,,,AAXX 15124 07190 12665 43304 10260 20160 30026 40201 58006 60006 81201 91200=
07190,1997-08-15 15:00:00,28,1019.1,-0.9,40,13,20000,11.112,,,350,,,,,,,,,,,wg-a,,,,AAXX 15154 07190 12770 33506 10280 20130 30017 40191 58009 60006 81281 91500=
07190,1997-08-15 18:00:00,25,1018.5,-0.7,57,16,25000,7.408,,,340,18.6,27.8,,,,,,,,,wg-a,,,,AAXX 15184 07190 12775 63404 10250 20160 30010 40185 58007 60006 81201 91800 333 10278 20186=
07190,1997-08-15 21:00:00,19,1020,1.1,83,16,20000,0,,,0,,,,,,,,,,,wg-a,,,,AAXX 15214 07190 12/70 50000 10190 20160 30021 40200 53011 60006 83041 92100=
07190,1997-08-16 00:00:00,17,1020,-0.2,82,14,10000,7.408,,,330,,,,,,,,,,,wg-a,,,,AAXX 16004 07190 12/60 43304 10170 20140 30019 40200 58002 60006 80001 90000=
07190,1997-08-16 03:00:00,16,1019.3,-0.7,88,14,9000,11.112,,,340,,,,,,,,,,,wg-a,,,,AAXX 16034 07190 12/59 33406 10160 20140 30012 40193 58007 60006 80001 90300=
07190,1997-08-16 06:00:00,16,1020.1,0.8,94,15,8000,7.408,,,330,14.5,25.1,,,,,,,,,wg-a,,,,AAXX 16064 07190 02/58 33304 10160 20150 30020 40201 51008 60006 81081 90600 333 10251 20145 60004=
07190,1997-08-16 09:00:00,22,1019.6,-0.1,69,16,9000,7.408,,,360,,,,,,,,,,,wg-a,,,,AAXX 16094 07190 12/59 33604 10220 20160 30019 40196 55001 60006 80002 90900=
07190,1997-08-16 12:00:00,26,1018,-1.4,48,14,12000,14.816,,,30,,,,,,,,,,,wg-a,,,,AAXX 16124 07190 12662 20308 10260 20140 30005 40180 58014 60006 81202 91200=
07190,1997-08-16 15:00:00,27,1016.9,-1,42,13,12000,11.112,,,350,,,,,,,,,,,wg-a,,,,AAXX 16154 07190 12662 23506 10270 20130 39995 40169 58010 60006 82201 91500=
07190,1997-08-16 18:00:00,25,1016.5,-0.5,54,15,18000,7.408,,,360,16.2,27.5,,,,,,,,,wg-a,,,,AAXX 16184 07190 12/68 53604 10250 20150 39990 40165 55005 60006 82081 91800 333 10275 20162=
07190,1997-08-16 21:00:00,21,1017.5,0.7,69,15,15000,7.408,,,330,,,,,,,,,,,wg-a,,,,AAXX 16214 07190 12765 73304 10210 20150 39997 40175 51007 60006 83583 92100=
07190,1997-08-17 00:00:00,19,1017.7,0.1,78,15,13000,3.704,,,320,,,,,,,,,,,wg-a,,,,AAXX 17004 07190 12763 73202 10190 20150 39998 40177 51001 60006 845/2 90000=
07190,1997-08-17 03:00:00,17,1017.4,-0.4,88,15,12000,3.704,,,310,,,,,,,,,,,wg-a,,,,AAXX 17034 07190 12/62 63102 10170 20150 39994 40174 56004 60006 81032 90300=
07190,1997-08-17 06:00:00,17,1018,0.6,94,16,7000,3.704,,,330,16.2,25.4,,,,,,,,,wg-a,,,,AAXX 17064 07190 02757 63302 10170 20160 30000 40180 53006 60006 84202 90600 333 10254 20162 60004=
07190,1997-08-17 09:00:00,23,1018.2,0.5,65,16,9000,3.704,,,150,,,,,,,,,,,wg-a,,,,AAXX 17094 07190 12/59 21502 10230 20160 30005 40182 51005 60006 82080 90900=
07190,1997-08-17 12:00:00,28,1017.2,-0.7,51,17,10000,3.704,,,350,,,,,,,,,,,wg-a,,,,AAXX 17124 07190 12860 53502 10280 20170 39998 40172 57007 60006 81201 91200=
07190,1997-08-17 15:00:00,28,1016,-1.1,45,15,12000,3.704,,,30,,,,,,,,,,,wg-a,,,,AAXX 17154 07190 12862 /0302 10280 20150 39987 40160 56011 60006 82903 91500=
07190,1997-08-17 18:00:00,25,1016.3,0.1,65,18,15000,7.408,,,200,17.3,28.1,,,,,,,,,wg-a,,,,AAXX 17184 07190 12765 /2004 10250 20180 39988 40163 53001 60006 82903 91800 333 10281 20173=
07190,1997-08-17 21:00:00,20,1017.6,1,83,17,15000,0,,,0,,,,,,,,,,,wg-a,,,,AAXX 17214 07190 12/65 00000 10200 20170 39998 40176 51010 60006 80000 92100=
07190,1997-08-18 00:00:00,17,1017.8,0,94,16,7000,3.704,,,210,,,,,,,,,,,wg-a,,,,AAXX 18004 07190 12/57 02102 10170 20160 39998 40178 50000 60006 80000 90000=
07190,1997-08-18 03:00:00,15,1017.8,-0.1,100,15,7000,0,,,0,,,,,,,,,,,wg-a,,,,AAXX 18034 07190 12/57 /0000 10150 20150 39997 40178 58001 60006 80001 90300=
07190,1997-08-18 06:00:00,16,1018.1,0.3,100,16,4500,0,,,0,14.7,25.3,,,,,,,,10,wg-a,,,,AAXX 18064 07190 02/45 00000 10160 20160 30000 40181 52003 60006 71000 80000 90600 333 10253 20147 60004=
07190,1997-08-18 09:00:00,23,1018.2,0.5,69,17,8000,3.704,,,310,,,,,,,,,,,wg-a,,,,AAXX 18094 07190 12758 13102 10230 20170 30005 40182 51005 60006 81200 90900=
07190,1997-08-18 12:00:00,27,1017,-0.9,54,17,10000,7.408,,,30,,,,,,,,,,,wg-a,,,,AAXX 18124 07190 12660 20304 10270 20170 39996 40170 57009 60006 82900 91200=
07190,1997-08-18 15:00:00,28,1016,-0.9,48,16,15000,7.408,,,330,,,,,,,,,,,wg-a,,,,AAXX 18154 07190 12765 23304 10280 20160 39987 40160 56009 60006 81933 91500=
07190,1997-08-18 18:00:00,25,1016.5,0.3,61,17,18000,7.408,,,120,16.2,29.1,,,,,,,,,wg-a,,,,AAXX 18184 07190 12768 51204 10250 20170 39990 40165 53003 60006 84960 91800 333 10291 20162=
07190,1997-08-18 21:00:00,20,1017.5,0.7,83,17,13000,3.704,,,300,,,,,,,,,,1,wg-a,,,,AAXX 18214 07190 12863 13002 10200 20170 39997 40175 53007 60006 70191 81500 92100=
07190,1997-08-19 00:00:00,17,1017.4,-0.3,94,16,10000,3.704,,,30,,,,,,,,,,1,wg-a,,,,AAXX 19004 07190 12/60 00302 10170 20160 39994 40174 58003 60006 70191 80000 90000=
07190,1997-08-19 06:00:00,16,1018,0.5,94,15,4000,3.704,,,350,14.2,24.8,,,,,,,,10,wg-a,,,,AAXX 19064 07190 02/40 03502 10160 20150 39999 40180 53005 60006 71000 80000 90600 333 10248 20142 60004=
07190,1997-08-19 09:00:00,22,1017.5,-0.1,69,16,6000,3.704,,,310,,,,,,,,,,,wg-a,,,,AAXX 19094 07190 12556 13102 10220 20160 39998 40175 58001 60006 81200 90900=
07190,1997-08-19 12:00:00,27,1016.3,-0.9,51,16,10000,7.408,,,30,,,,,,,,,,,wg-a,,,,AAXX 19124 07190 12660 /0304 10270 20160 39989 40163 58009 60006 81200 91200=
07190,1997-08-19 15:00:00,29,1015.3,-0.9,35,12,15000,7.408,,,40,,,,,,,,,,,wg-a,,,,AAXX 19154 07190 12665 30404 10290 20120 39980 40153 56009 60006 82201 91500=
07190,1997-08-19 18:00:00,26,1015.1,-0.3,54,16,17000,3.704,,,40,15.9,29.5,,,,,,,,,wg-a,,,,AAXX 19184 07190 12/67 60402 10260 20160 39977 40151 56003 60006 81032 91800 333 10295 20159=
07190,1997-08-19 21:00:00,20,1016.3,0.8,83,17,15000,3.704,,,240,,,,,,,,,,,wg-a,,,,AAXX 19214 07190 12/65 72402 10200 20170 39985 40163 51008 60006 80002 92100=
07190,1997-08-20 00:00:00,17,1016.6,0.1,88,15,9000,7.408,,,330,,,,,,,,,,,wg-a,,,,AAXX 20004 07190 12/59 43304 10170 20150 39986 40166 51001 60006 80001 90000=
07190,1997-08-20 03:00:00,16,1016.9,0.2,88,14,8000,0,,,0,,,,,,,,,,,wg-a,,,,AAXX 20034 07190 12/58 70000 10160 20140 39988 40169 53002 60006 80001 90300=
07190,1997-08-20 06:00:00,16,1017.7,0.8,94,15,500,0,,,0,14.7,26.2,,,,,,,,,wg-a,,,,AAXX 20064 07190 02/00 /0000 10160 20150 39996 40177 53008 60006 80001 90600 333 10262 20147 60004=
07190,1997-08-20 09:00:00,23,1017.7,0.5,69,17,6000,3.704,,,110,,,,,,,,,,,wg-a,,,,AAXX 20094 07190 12556 /1102 10230 20170 30001 40177 51005 60006 81230 90900=
07190,1997-08-20 12:00:00,29,1016.6,-0.8,45,16,10000,3.704,,,120,,,,,,,,,,,wg-a,,,,AAXX 20124 07190 12660 21202 10290 20160 39993 40166 58008 60006 81262 91200=
07190,1997-08-20 15:00:00,30,1016,-0.5,33,12,18000,3.704,,,230,,,,,,,,,,,wg-a,,,,AAXX 20154 07190 12868 22302 10300 20120 39988 40160 56005 60006 81261 91500=
07190,1997-08-20 18:00:00,26,1016.3,-0,54,16,20000,7.408,,,210,15.6,30,,,,,,,,,wg-a,,,,AAXX 20184 07190 12870 22104 10260 20160 39988 40163 55000 60006 81261 91800 333 10300 20156=
07190,1997-08-20 21:00:00,20,1017.5,0.9,78,16,20000,0,,,0,,,,,,,,,,,wg-a,,,,AAXX 20214 07190 12/70 00000 10200 20160 39997 40175 52009 60006 80000 92100=
07190,1997-08-21 00:00:00,17,1017.9,0.2,88,15,15000,7.408,,,230,,,,,,,,,,,wg-a,,,,AAXX 21004 07190 12/65 02304 10170 20150 39999 40179 52002 60006 80000 90000=
07190,1997-08-21 03:00:00,15,1018.8,0.7,94,14,500,3.704,,,180,,,,,,,,,,,wg-a,,,,AAXX 21034 07190 12/00 01802 10150 20140 30006 40188 51007 60006 80000 90300=
07190,1997-08-21 06:00:00,16,1019.6,0.9,94,15,4500,3.704,,,190,14.1,25.6,,,,,,,,10,wg-a,,,,AAXX 21064 07190 02/45 01902 10160 20150 30015 40196 53009 60006 71000 80000 90600 333 10256 20141 60004=
07190,1997-08-21 09:00:00,24,1019.6,0.5,65,17,10000,0,,,0,,,,,,,,,,,wg-a,,,,AAXX 21094 07190 12760 /0000 10240 20170 30020 40196 51005 60006 81200 90900=
07190,1997-08-21 12:00:00,29,1018.3,-1,45,16,18000,7.408,,,60,,,,,,,,,,,wg-a,,,,AAXX 21124 07190 12768 /0604 10290 20160 30010 40183 58010 60006 81900 91200=
07190,1997-08-21 18:00:00,28,1018.1,0.3,42,14,500,3.704,,,340,15.7,30.6,,,,,,,,,wg-a,,,,AAXX 21184 07190 12700 /3402 10280 20140 30007 40181 53003 60006 81203 91800 333 10306 20157=
07190,1997-08-22 00:00:00,17,1020.3,0.3,82,14,18000,7.408,,,260,,,,,,,,,,,wg-a,,,,AAXX 22004 07190 12/68 22604 10170 20140 30022 40203 50003 60006 80001 90000=
07190,1997-08-22 06:00:00,16,1021.4,0.9,94,15,7000,3.704,,,200,14.5,27.6,,,,,,,,,wg-a,,,,AAXX 22064 07190 02/57 72002 10160 20150 30033 40214 51009 60006 82031 90600 333 10276 20145 60004=
07190,1997-08-22 09:00:00,24,1021.3,0.3,61,16,10000,11.112,,,180,,,,,,,,,,,wg-a,,,,AAXX 22094 07190 12/60 51806 10240 20160 30036 40213 50003 60006 83081 90900=
07190,1997-08-22 12:00:00,30,1020,-0.9,43,16,17000,3.704,,,180,,,,,,,,,,,wg-a,,,,AAXX 22124 07190 12767 41802 10300 20160 30027 40200 58009 60006 81231 91200=
07190,1997-08-22 15:00:00,31,1018.9,-1,38,15,17000,7.408,,,20,,,,,,,,,,,wg-a,,,,AAXX 22154 07190 12867 50204 10310 20150 30017 40189 56010 60006 81231 91500=
07190,1997-08-22 18:00:00,26,1019.2,-0,51,15,15000,11.112,,,310,16.2,31,,,,,,,,,wg-a,,,,AAXX 22184 07190 12865 53106 10260 20150 30017 40192 55000 60006 81182 91800 333 10310 20162=
07190,1997-08-22 21:00:00,22,1019.6,0.2,69,16,15000,7.408,,,310,,,,,,,,,,,wg-a,,,,AAXX 22214 07190 12/65 53104 10220 20160 30019 40196 50002 60006 82042 92100=
07190,1997-08-23 00:00:00,19,1019.4,-0.4,83,16,15000,3.704,,,20,,,,,,,,,,,wg-a,,,,AAXX 23004 07190 12/65 00202 10190 20160 30015 40194 58004 60006 80000 90000=
07190,1997-08-23 03:00:00,18,1018.8,-0.7,88,16,10000,0,,,0,,,,,,,,,,,wg-a,,,,AAXX 23034 07190 12/60 40000 10180 20160 30008 40188 56007 60006 84030 90300=
07190,1997-08-23 06:00:00,18,1019,0.3,94,17,8000,3.704,,,140,17.7,26.2,,,,,,,,,wg-a,,,,AAXX 23064 07190 02/58 71402 10180 20170 30011 40190 52003 60006 8708/ 90600 333 10262 20177 60004=
07190,1997-08-23 09:00:00,24,1018.7,0,65,17,9000,3.704,,,130,,,,,,,,,,,wg-a,,,,AAXX 23094 07190 12/59 /1302 10240 20170 30011 40187 50000 60006 86050 90900=
07190,1997-08-23 12:00:00,29,1017.4,-1,45,16,12000,3.704,,,30,,,,,,,,,,,wg-a,,,,AAXX 23124 07190 12662 40302 10290 20160 30001 40174 58010 60006 81250 91200=
07190,1997-08-23 15:00:00,31,1015.8,-1.5,38,15,15000,14.816,,,340,,,,,,,,,,,wg-a,,,,AAXX 23154 07190 12765 73408 10310 20150 39986 40158 56015 60006 8125/ 91500=
07190,1997-08-23 18:00:00,27,1015.7,-0.3,58,18,15000,11.112,,,40,18.4,31.5,,,,,,,,,wg-a,,,,AAXX 23184 07190 12865 60406 10270 20180 39983 40157 58003 60006 81270 91800 333 10315 20184=
07190,1997-08-23 21:00:00,22,1016,0.1,83,19,9000,3.704,,,330,,,,,,,,,,,wg-a,,,,AAXX 23214 07190 12/59 /3302 10220 20190 39984 40160 50001 60006 81030 92100=
07190,1997-08-24 00:00:00,19,1015.9,-0.3,88,17,8000,0,,,0,,,,,,,,,,,wg-a,,,,AAXX 24004 07190 12/58 40000 10190 20170 39981 40159 57003 60006 84050 90000=
07190,1997-08-24 03:00:00,18,1016,-0,94,17,7000,0,,,0,,,,,,,,,,,wg-a,,,,AAXX 24034 07190 12/57 /0000 10180 20170 39981 40160 55000 60006 86030 90300=
07190,1997-08-24 06:00:00,19,1016.5,0.5,88,17,500,3.704,,,200,18,26.9,,,,,,,,14,wg-a,,,,AAXX 24064 07190 02/00 /2002 10190 20170 39986 40165 52005 60006 71411 86080 90600 333 10269 20180 60004=
07190,1997-08-24 09:00:00,26,1016.2,0.2,65,19,8000,7.408,,,170,,,,,,,,,,,wg-a,,,,AAXX 24094 07190 12/58 /1704 10260 20190 39988 40162 53002 60006 85080 90900=
07190,1997-08-24 12:00:00,31,1014.9,-1.1,40,16,15000,7.408,,,170,,,,,,,,,,,wg-a,,,,AAXX 24124 07190 12765 21704 10310 20160 39977 40149 58011 60006 81980 91200=
07190,1997-08-24 15:00:00,32,1013.2,-1.6,41,17,18000,11.112,,,200,,,,,,,,,,,wg-a,,,,AAXX 24154 07190 12768 22006 10320 20170 39961 40132 57016 60006 82960 91500=
07190,1997-08-24 18:00:00,26,1012.7,-0.7,65,19,25000,3.704,,,320,18.9,32.1,,,,,,,,,wg-a,,,,AAXX 24184 07190 12775 33202 10260 20190 39954 40127 58007 60006 81262 91800 333 10321 20189=
07190,1997-08-24 21:00:00,21,1013.1,-0,83,18,15000,3.704,,,150,,,,,,,,,,,wg-a,,,,AAXX 24214 07190 12/65 01502 10210 20180 39954 40131 55000 60006 80000 92100=
07190,1997-08-25 00:00:00,19,1012.6,-0.6,88,17,15000,0,,,0,,,,,,,,,,,wg-a,,,,AAXX 25004 07190 12/65 00000 10190 20170 39948 40126 58006 60006 80000 90000=
07190,1997-08-25 03:00:00,17,1012,-0.7,94,16,12000,3.704,,,180,,,,,,,,,,,wg-a,,,,AAXX 25034 07190 12/62 01802 10170 20160 39941 40120 56007 60006 80000 90300=
07190,1997-08-25 06:00:00,18,1012.2,0.3,88,16,8000,0,,,0,16.3,26.3,,,,,,,,,wg-a,,,,AAXX 25064 07190 02/58 00000 10180 20160 39944 40122 52003 60006 80000 90600 333 10263 20163 60004=
07190,1997-08-25 09:00:00,25,1011.2,-0.6,65,18,10000,11.112,,,200,,,,,,,,,,,wg-a,,,,AAXX 25094 07190 12/60 02006 10250 20180 39938 40112 58006 60006 80000 90900=
07190,1997-08-25 12:00:00,31,1009,-1.8,46,18,12000,11.112,,,180,,,,,,,,,,,wg-a,,,,AAXX 25124 07190 12662 21806 10310 20180 39920 40090 56018 60006 82900 91200=
07190,1997-08-25 15:00:00,32,1007.3,-1.6,38,16,15000,7.408,,,230,,,,,,,,,,,wg-a,,,,AAXX 25154 07190 12765 32304 10320 20160 39904 40073 58016 60006 82960 91500=
07190,1997-08-25 18:00:00,29,1007.3,-0.2,55,19,15000,7.408,,,270,18,32.4,,,,,,,,,wg-a,,,,AAXX 25184 07190 12865 42704 10290 20190 39902 40073 55002 60006 82281 91800 333 10324 20180=
07190,1997-08-26 00:00:00,23,1009.8,0.9,69,17,15000,14.816,,,170,,,,,,,,,,13,wg-a,,,,AAXX 26004 07190 12865 /1708 10230 20170 39923 40098 53009 60006 71391 82963 90000=
07190,1997-08-26 03:00:00,21,1009.3,-0.6,73,16,15000,14.816,,,190,,,,,,,,,,,wg-a,,,,AAXX 26034 07190 12/65 71908 10210 20160 39917 40093 58006 60006 8707/ 90300=
07190,1997-08-26 06:00:00,20,1009.9,0.5,88,18,20000,7.408,,,190,19.5,28.5,,,,,,,,1,wg-a,,,,AAXX 26064 07190 02870 71904 10200 20180 39922 40099 53005 60006 70162 8707/ 90600 333 10285 20195 61000=
07190,1997-08-26 09:00:00,23,1010.2,0.5,73,18,15000,3.704,,,120,,,,,,,,,,3,wg-a,,,,AAXX 26094 07190 02665 71202 10230 20180 39927 40102 51005 61000 70362 81272 90900 333 ////=
07190,1997-08-26 12:00:00,26,1010.1,0.1,65,19,10000,11.112,,,340,,,,,,,,,,2,wg-a,,,,AAXX 26124 07190 02560 /3406 10260 20190 39928 40101 53001 61000 70262 85230 91200 333 ////=
07190,1997-08-26 15:00:00,26,1008.8,-1.3,61,18,15000,7.408,,,330,,,,,,,,,,,wg-a,,,,AAXX 26154 07190 12565 63304 10260 20180 39915 40088 56013 60006 83861 91500=
07190,1997-08-26 18:00:00,24,1009.4,0.4,65,17,20000,7.408,,,340,20.2,26.4,,,,,,,,,wg-a,,,,AAXX 26184 07190 12670 73404 10240 20170 39919 40094 51004 60006 82262 91800 333 10264 20202=
07190,1997-08-26 21:00:00,21,1010.1,0.6,78,17,20000,3.704,,,360,,,,,,,,,,,wg-a,,,,AAXX 26214 07190 12670 33602 10210 20170 39925 40101 50006 60006 83500 92100=
07190,1997-08-27 00:00:00,20,1009.6,-0.6,83,17,20000,7.408,,,230,,,,,,,,,,,wg-a,,,,AAXX 27004 07190 12/70 72304 10200 20170 39919 40096 57006 60006 87070 90000=
07190,1997-08-27 06:00:00,18,1008.9,0.1,94,17,1400,7.408,,,200,16.3,23.5,,,,,,,,10,wg-a,,,,AAXX 27064 07190 02/14 22004 10180 20170 39911 40089 53001 60006 71011 80001 90600 333 10235 20163 61000=
07190,1997-08-27 09:00:00,24,1008.2,-0.3,65,17,15000,11.112,,,170,,,,,,,,,,,wg-a,,,,AAXX 27094 07190 12/65 31706 10240 20170 39908 40082 58003 60006 80001 90900=
07190,1997-08-27 12:00:00,28,1006.3,-1.7,48,16,18000,14.816,,,180,,,,,,,,,,,wg-a,,,,AAXX 27124 07190 12768 31808 10280 20160 39891 40063 56017 60006 81282 91200=
07190,1997-08-27 15:00:00,28,1004.7,-1.5,42,14,20000,18.52,,,170,,,,,,,,,,,wg-a,,,,AAXX 27154 07190 12770 61710 10280 20140 39876 40047 57015 60006 82952 91500=
07190,1997-08-27 18:00:00,26,1004.3,-0.5,58,17,20000,3.704,,,220,17.7,29.1,,,,,,,,,wg-a,,,,AAXX 27184 07190 12770 72202 10260 20170 39871 40043 56005 60006 81272 91800 333 10291 20177=
07190,1997-08-27 21:00:00,21,1004.1,-0.5,78,17,20000,0,,,0,,,,,,,,,,,wg-a,,,,AAXX 27214 07190 12870 70000 10210 20170 39866 40041 58005 60006 8707/ 92100=
07190,1997-08-28 00:00:00,21,1003.2,-0.9,73,16,15000,7.408,,,310,,,,,,,,,,61,wg-a,,,,AAXX 28004 07190 02765 83104 10210 20160 39857 40032 56009 61000 76162 8/27/ 90000 333 6100=
07190,1997-08-28 06:00:00,18,1002.1,-1.3,100,18,3900,7.408,,,180,17.8,25.9,,,,,8,,,10,wg-a,,,,AAXX 28064 07190 02339 81804 10180 20180 39845 40021 57013 60006 71062 875// 90600 333 10259 20178 60084=
07190,1997-08-28 09:00:00,18,1003.8,1.6,94,17,15000,11.112,,,180,,,,1,,,,,,60,wg-a,,,,AAXX 28094 07190 12465 81806 10180 20170 39861 40038 53016 60017 76062 8487/ 90900=
07190,1997-08-28 12:00:00,17,1006.2,2.3,100,17,9000,14.816,,,190,,,,3,,,,,,61,wg-a,,,,AAXX 28124 07190 02459 81908 10170 20170 39884 40062 51023 60046 76162 8587/ 91200 333 60037=
07190,1997-08-28 18:00:00,14,1008.1,0.4,88,12,18000,18.52,,,180,14.3,18.6,,,,,,,,1,wg-a,,,,AAXX 28184 07190 12468 71810 10140 20120 39901 40081 50004 60006 70162 8183/ 91800 333 10186 20143=
07190,1997-08-28 21:00:00,14,1009.8,1.6,88,12,25000,22.224,,,190,,,,,,,,,,,wg-a,,,,AAXX 28214 07190 12775 21912 10140 20120 39917 40098 51016 60006 81540 92100=
07190,1997-08-29 00:00:00,14,1010.9,1.1,88,12,25000,14.816,,,190,,,,,,,,,,,wg-a,,,,AAXX 29004 07190 12575 41908 10140 20120 39928 40109 52011 60006 83802 90000=
07190,1997-08-29 03:00:00,13,1012.1,1.1,100,13,25000,11.112,,,170,,,,0,,,,,,3,wg-a,,,,AAXX 29034 07190 12475 /1706 10130 20130 39939 40121 51011 60007 70381 86800 90300=
07190,1997-08-29 06:00:00,14,1013.8,1.8,94,13,20000,11.112,,,210,13.1,14.3,,,,,8,,,3,wg-a,,,,AAXX 29064 07190 02570 /2106 10140 20130 39957 40138 53018 60006 70386 85830 90600 333 10143 20131 60084=
07190,1997-08-29 09:00:00,16,1015,1.3,72,11,25000,22.224,,,230,,,,,,,,,,,wg-a,,,,AAXX 29094 07190 12575 72312 10160 20110 39970 40150 53013 60006 878// 90900=
07190,1997-08-29 12:00:00,20,1015.6,0.8,49,9,500,25.928,,,230,,,,,,,,,,,wg-a,,,,AAXX 29124 07190 12600 /2314 10200 20090 39978 40156 53008 60006 84830 91200=
07190,1997-08-29 15:00:00,19,1016.8,1.1,52,9,25000,14.816,,,260,,,,,,,,,,,wg-a,,,,AAXX 29154 07190 12675 72608 10190 20090 39989 40168 53011 60006 8683/ 91500=
07190,1997-08-29 18:00:00,17,1017.6,0.7,72,12,40000,7.408,,,190,13.9,20.8,,0,,,,,,1,wg-a,,,,AAXX 29184 07190 02782 31904 10170 20120 39996 40176 53007 60006 70186 81830 91800 333 10208 20139 60007=
07190,1997-08-30 00:00:00,12,1019.7,0.1,94,11,500,7.408,,,170,,,,,,,,,,,wg-a,,,,AAXX 30004 07190 12700 51704 10120 20110 30013 40197 50001 60006 83501 90000=
07190,1997-08-30 03:00:00,13,1019.1,-0.5,88,11,20000,7.408,,,170,,,,,,,,,,,wg-a,,,,AAXX 30034 07190 12770 /1704 10130 20110 30008 40191 56005 60006 81531 90300=
07190,1997-08-30 06:00:00,14,1018.3,-0.7,82,11,35000,18.52,,,170,12.2,16.7,,,,,,,,,wg-a,,,,AAXX 30064 07190 02681 71710 10140 20110 30001 40183 56007 60006 84852 90600 333 10167 20122 60004=
07190,1997-08-30 09:00:00,18,1018,-0.1,73,13,20000,18.52,,,170,,,,,,,,,,,wg-a,,,,AAXX 30094 07190 12670 71710 10180 20130 30000 40180 57001 60006 8457/ 90900=
07190,1997-08-30 12:00:00,18,1017.5,-0.5,77,14,20000,22.224,,,190,,,,,,,,,,3,wg-a,,,,AAXX 30124 07190 02570 81912 10180 20140 39995 40175 56005 61000 70362 878// 91200 333 6100=
07190,1997-08-30 15:00:00,17,1017.7,0.2,94,16,4000,14.816,,,160,,,,1,,,,,,58,wg-a,,,,AAXX 30154 07190 12440 81608 10170 20160 39997 40177 51002 60017 75865 888// 91500=
07190,1997-08-30 18:00:00,18,1018.2,0.5,88,16,18000,14.816,,,180,14.2,18.1,,0,,,,,,3,wg-a,,,,AAXX 30184 07190 02468 81808 10180 20160 30002 40182 53005 60006 70365 888// 91800 333 10181 20142 60007=
07190,1997-08-30 21:00:00,17,1018.9,0.7,94,16,20000,18.52,,,180,,,,0,,,,,,21,wg-a,,,,AAXX 30214 07190 12670 /1810 10170 20160 30009 40189 53007 60007 72161 82530 92100=
07190,1997-08-31 00:00:00,17,1019.5,0.5,94,16,15000,7.408,,,230,,,,,,,,,,,wg-a,,,,AAXX 31004 07190 12665 52304 10170 20160 30014 40195 51005 60016 83530 90000=
07190,1997-08-31 03:00:00,17,1019.6,0.1,94,16,15000,3.704,,,220,,,,,,,,,,,wg-a,,,,AAXX 31034 07190 12565 /2202 10170 20160 30015 40196 53001 60006 86500 90300=
07190,1997-08-31 06:00:00,17,1019.7,0.2,100,17,15000,0,,,0,15.3,17.8,,,,,2,,,,wg-a,,,,AAXX 31064 07190 02665 50000 10170 20170 30017 40197 53002 60006 82501 90600 333 10178 20153 60024=
07190,1997-08-31 09:00:00,23,1019.1,-0.3,69,17,500,7.408,,,130,,,,,,,,,,,wg-a,,,,AAXX 31094 07190 12500 41304 10230 20170 30014 40191 58003 60006 81201 90900=
07190,1997-08-31 12:00:00,27,1017.5,-1.3,54,17,40000,7.408,,,70,,,,,,,,,,,wg-a,,,,AAXX 31124 07190 12682 20704 10270 20170 30001 40175 57013 60006 81202 91200=
07190,1997-08-31 15:00:00,28,1015.7,-1.7,55,18,40000,11.112,,,140,,,,,,,,,,,wg-a,,,,AAXX 31154 07190 12782 /1406 10280 20180 39984 40157 56017 60006 81232 91500=
07190,1997-08-31 18:00:00,25,1014.9,-0.9,69,19,60000,11.112,,,50,16.8,28.4,,,,,,,,,wg-a,,,,AAXX 31184 07190 12/86 30506 10250 20190 39975 40149 56009 60006 82081 91800 333 10284 20168=
07190,1997-08-31 21:00:00,19,1015.5,0.2,88,17,50000,3.704,,,220,,,,,,,,,,,wg-a,,,,AAXX 31214 07190 12/84 12202 10190 20170 39977 40155 51002 60006 80001 92100=
07190,1997-09-01 00:00:00,16,1016.7,1,100,16,500,0,,,0,,,,,,,,,,,wg-a,,,,AAXX 01004 07190 12/00 20000 10160 20160 39987 40167 51010 60006 80001 90000=
07190,1997-09-01 03:00:00,15,1016.9,0.1,94,14,15000,0,,,0,,,,,,,,,,,wg-a,,,,AAXX 01034 07190 12/65 20000 10150 20140 39988 40169 53001 60006 80001 90300=
07190,1997-09-01 06:00:00,15,1017.8,0.9,100,15,15000,3.704,,,190,14.1,25.1,,,,,,,,28,wg-a,,,,AAXX 01064 07190 02665 51902 10150 20150 39997 40178 53009 60006 72841 81281 90600 333 10251 20141 60004=
07190,1997-09-01 09:00:00,23,1017.6,0.3,73,18,500,7.408,,,170,,,,,,,,,,,wg-a,,,,AAXX 01094 07190 12700 41704 10230 20180 30000 40176 50003 60006 82281 90900=
07190,1997-09-01 12:00:00,28,1015.6,-1.7,55,18,500,3.704,,,100,,,,,,,,,,,wg-a,,,,AAXX 01124 07190 12700 31002 10280 20180 39983 40156 56017 60006 81201 91200=
07190,1997-09-01 15:00:00,29,1013.9,-1.6,52,18,25000,3.704,,,20,,,,,,,,,,,wg-a,,,,AAXX 01154 07190 32775 /0202 10290 20180 39967 40139 56016 81201 91500=
07190,1997-09-01 18:00:00,25,1013.1,-1,74,20,500,0,,,0,15.3,29.6,,,,,,,,,wg-a,,,,AAXX 01184 07190 12600 /0000 10250 20200 39957 40131 58010 60006 82281 91800 333 10296 20153=
07190,1997-09-01 21:00:00,21,1016.4,3,83,18,7000,29.632,,51.856,270,,,,1,,,,,,17,wg-a,,,,AAXX 01214 07190 12657 82716 10210 20180 39987 40164 53030 60017 71798 8698/ 92100 333 91028=
07190,1997-09-02 00:00:00,19,1016.5,-0.1,94,18,20000,7.408,,,350,,,,2,,,,,,3,wg-a,,,,AAXX 02004 07190 02870 73504 10190 20180 39986 40165 56001 60036 70398 87030 90000 333 60027=
07190,1997-09-02 03:00:00,17,1017.5,0.9,94,16,20000,7.408,,,350,,,,,,,,,,,wg-a,,,,AAXX 02034 07190 12470 73504 10170 20160 39995 40175 51009 60006 8153/ 90300=
07190,1997-09-02 06:00:00,18,1018.5,1,88,16,12000,3.704,,,360,17.1,25.3,,,,,3,,,,wg-a,,,,AAXX 02064 07190 02562 73602 10180 20160 30005 40185 53010 60006 8157/ 90600 333 10253 20171 60034=
07190,1997-09-02 09:00:00,19,1019.2,0.8,83,16,13000,11.112,,,340,,,,0,,,,,,21,wg-a,,,,AAXX 02094 07190 12463 73406 10190 20160 30013 40192 51008 60007 72162 8387/ 90900=
07190,1997-09-02 12:00:00,19,1020.1,0.9,83,16,15000,11.112,,,340,,,,,,,,,,21,wg-a,,,,AAXX 02124 07190 02465 83406 10190 20160 30022 40201 52009 60006 72162 8587/ 91200 333 61000=
07190,1997-09-02 18:00:00,19,1019.7,-0.1,88,17,7000,7.408,,,310,17.5,20.1,,,,,,,,,wg-a,,,,AAXX 02184 07190 12657 73104 10190 20170 30018 40197 55001 60006 82571 91800 333 10201 20175=
07190,1997-09-02 21:00:00,18,1020.3,0.5,88,16,8000,7.408,,,330,,,,,,,,,,60,wg-a,,,,AAXX 02214 07190 02558 83304 10180 20160 30023 40203 50005 61000 76062 8357/ 92100 333 ////=
07190,1997-09-03 00:00:00,18,1020.9,0.6,88,16,7000,3.704,,,20,,,,0,,,,,,61,wg-a,,,,AAXX 03004 07190 02457 80202 10180 20160 30029 40209 52006 60006 76162 8587/ 90000 333 60007=
07190,1997-09-03 03:00:00,16,1020.6,-0.4,100,16,6000,11.112,,,360,,,,6,,,,,,,wg-a,,,,AAXX 03034 07190 12556 83606 10160 20160 30025 40206 56004 60067 8587/ 90300=
07190,1997-09-03 06:00:00,16,1020.4,-0.2,100,16,4500,7.408,,,350,15.9,18.8,,,,,3,,,10,wg-a,,,,AAXX 03064 07190 02245 83504 10160 20160 30023 40204 58002 60006 71062 8577/ 90600 333 10188 20159 60034=
07190,1997-09-03 09:00:00,17,1021.4,1,88,15,7000,11.112,,,350,,,,,,,,,,,wg-a,,,,AAXX 03094 07190 12357 83506 10170 20150 30033 40214 51010 60006 8577/ 90900=
07190,1997-09-03 12:00:00,21,1020.4,-0.7,73,16,10000,3.704,,,20,,,,,,,,,,,wg-a,,,,AAXX 03124 07190 12460 /0202 10210 20160 30026 40204 58007 60006 84830 91200=
07190,1997-09-03 18:00:00,21,1019.9,0.1,78,17,14000,3.704,,,310,16.1,22.7,,,,,,,,,wg-a,,,,AAXX 03184 07190 12764 /3102 10210 20170 30021 40199 53001 60006 86500 91800 333 10227 20161=
07190,1997-09-03 21:00:00,19,1020.5,0.5,88,17,11000,3.704,,,230,,,,,,,,,,,wg-a,,,,AAXX 03214 07190 12761 /2302 10190 20170 30026 40205 50005 60006 85500 92100=
07190,1997-09-04 00:00:00,17,1020.4,-0.2,94,16,9000,0,,,0,,,,,,,,,,,wg-a,,,,AAXX 04004 07190 12759 30000 10170 20160 30024 40204 56002 60006 83500 90000=
07190,1997-09-04 03:00:00,15,1020.3,-0.3,94,14,2000,3.704,,,200,,,,,,,,,,12,wg-a,,,,AAXX 04034 07190 12120 22002 10150 20140 30021 40203 56003 60006 71200 82600 90300=
07190,1997-09-04 06:00:00,15,1021.2,0.9,100,15,100,3.704,,,210,14.6,20.9,,,,,,,,45,wg-a,,,,AAXX 04064 07190 02/01 92102 10150 20150 30030 40212 52009 60006 74541 89/// 90600 333 10209 20146 60004=
07190,1997-09-04 09:00:00,20,1021.3,0.4,88,18,8000,7.408,,,190,,,,,,,,,,1,wg-a,,,,AAXX 04094 07190 12358 71904 10200 20180 30034 40213 52004 60006 70142 83842 90900=
07190,1997-09-04 15:00:00,25,1019,-0.8,61,17,20000,7.408,,,130,,,,,,,,,,,wg-a,,,,AAXX 04154 07190 12670 51304 10250 20170 30014 40190 58008 60006 83182 91500=
07190,1997-09-04 18:00:00,23,1018.8,-0.3,69,17,25000,0,,,0,15,25.4,,,,,,,,,wg-a,,,,AAXX 04184 07190 12675 20000 10230 20170 30011 40188 56003 60006 81182 91800 333 10254 20150=
07190,1997-09-04 21:00:00,18,1019.8,0.7,88,16,20000,7.408,,,280,,,,,,,,,,,wg-a,,,,AAXX 04214 07190 12/70 12804 10180 20160 30018 40198 51007 60006 81060 92100=
07190,1997-09-05 00:00:00,16,1019.9,-0,100,16,15000,0,,,0,,,,,,,,,,,wg-a,,,,AAXX 05004 07190 12665 30000 10160 20160 30018 40199 54000 60006 82501 90000=
07190,1997-09-05 03:00:00,15,1019.7,-0.3,100,15,10000,0,,,0,,,,,,,,,,11,wg-a,,,,AAXX 05034 07190 12660 /0000 10150 20150 30015 40197 58003 60006 71100 81500 90300=
07190,1997-09-05 06:00:00,16,1019.7,0.1,94,15,100,3.704,,,170,14.6,22.4,,,,,,,,45,wg-a,,,,AAXX 05064 07190 02/01 91702 10160 20150 30016 40197 52001 60006 74541 89/// 90600 333 10224 20146 60004=
07190,1997-09-05 12:00:00,26,1018.5,-0.7,58,17,10000,7.408,,,40,,,,,,,,,,3,wg-a,,,,AAXX 05124 07190 12560 70404 10260 20170 30010 40185 57007 60006 70341 84271 91200=
07190,1997-09-05 15:00:00,27,1017.3,-1.1,54,17,15000,7.408,,,340,,,,,,,,,,,wg-a,,,,AAXX 05154 07190 12565 63404 10270 20170 39999 40173 58011 60006 82251 91500=
07190,1997-09-05 18:00:00,24,1017.4,-0.1,74,19,15000,3.704,,,350,15.5,26.9,,,,,,,,,wg-a,,,,AAXX 05184 07190 12665 53502 10240 20190 39998 40174 55001 60006 81801 91800 333 10269 20155=
07190,1997-09-05 21:00:00,21,1018.1,0.5,88,19,15000,7.408,,,240,,,,,,,,,,,wg-a,,,,AAXX 05214 07190 12765 52404 10210 20190 30003 40181 51005 60006 835/1 92100=
07190,1997-09-06 00:00:00,20,1018.3,0.2,83,17,15000,11.112,,,320,,,,0,,,,,,3,wg-a,,,,AAXX 06004 07190 02665 /3206 10200 20170 30005 40183 53002 60006 70361 86800 90000 333 60007=
07190,1997-09-06 03:00:00,18,1019.4,1,94,17,15000,3.704,,,340,,,,9,,,,,,25,wg-a,,,,AAXX 06034 07190 12665 73402 10180 20170 30015 40194 51010 60097 72586 878// 90300=
07190,1997-09-06 06:00:00,18,1021.1,1.6,94,17,3000,7.408,,,210,17.4,23.6,,,,,9,,,10,wg-a,,,,AAXX 06064 07190 02630 72104 10180 20170 30031 40211 53016 60006 71086 84832 90600 333 10236 20174 60094=
07190,1997-09-06 09:00:00,21,1022.4,1.5,73,16,15000,3.704,,,230,,,,,,,,,,,wg-a,,,,AAXX 06094 07190 12565 72302 10210 20160 30046 40224 51015 60006 85830 90900=
07190,1997-09-06 12:00:00,20,1023.2,0.7,78,16,7000,7.408,,,360,,,,0,,,,,,61,wg-a,,,,AAXX 06124 07190 02457 83604 10200 20160 30053 40232 53007 60016 76162 8683/ 91200 333 60007=
07190,1997-09-06 15:00:00,20,1022.9,-0.3,78,16,10000,3.704,,,270,,,,2,,,,,,1,wg-a,,,,AAXX 06154 07190 12560 82702 10200 20160 30050 40229 56003 60027 70162 8587/ 91500=
07190,1997-09-06 18:00:00,18,1023.1,0.1,88,16,10000,7.408,,,170,17.6,21.4,,,,,,,,1,wg-a,,,,AAXX 06184 07190 12760 71704 10180 20160 30051 40231 50001 60006 70162 83570 91800 333 10214 20176=
07190,1997-09-06 21:00:00,15,1024.4,1,88,13,15000,7.408,,,210,,,,,,,,,,,wg-a,,,,AAXX 06214 07190 12865 22104 10150 20130 30061 40244 51010 60006 82500 92100=
07190,1997-09-07 00:00:00,11,1024.7,0.1,100,11,15000,3.704,,,210,,,,0,,,,,,,wg-a,,,,AAXX 07004 07190 02765 /2102 10110 20110 30062 40247 51001 60006 81500 90000 333 60007=
07190,1997-09-07 03:00:00,10,1024.7,-0.1,93,9,15000,3.704,,,210,,,,,,,,,,,wg-a,,,,AAXX 07034 07190 12/65 02102 10100 20090 30061 40247 56001 60006 80000 90300=
07190,1997-09-07 06:00:00,10,1025.9,1.2,100,10,9000,3.704,,,150,8.7,18,,,,,2,,,,wg-a,,,,AAXX 07064 07190 02/59 21502 10100 20100 30073 40259 53012 60006 81031 90600 333 10180 20087 60024=
07190,1997-09-07 09:00:00,18,1026.2,0.8,73,13,35000,7.408,,,170,,,,0,,,,,,,wg-a,,,,AAXX 07094 07190 12681 /1704 10180 20130 30081 40262 51008 60007 81131 90900=
07190,1997-09-07 12:00:00,21,1025.6,-0.4,53,11,45000,7.408,,,320,,,,,,,,,,,wg-a,,,,AAXX 07124 07190 12683 73204 10210 20110 30077 40256 58004 60006 85832 91200=
07190,1997-09-07 18:00:00,18,1026.9,1,64,11,40000,7.408,,,340,10.3,21.6,,,,,,,,,wg-a,,,,AAXX 07184 07190 12782 23404 10180 20110 30087 40269 53010 60006 81431 91800 333 10216 20103=
07190,1997-09-07 21:00:00,13,1028,0.8,88,11,500,3.704,,,190,,,,,,,,,,,wg-a,,,,AAXX 07214 07190 12/00 11902 10130 20110 30095 40280 51008 60006 81030 92100=
07190,1997-09-08 00:00:00,11,1028.3,0.2,94,10,20000,3.704,,,300,,,,,,,,,,,wg-a,,,,AAXX 08004 07190 12/70 13002 10110 20100 30097 40283 51002 60006 81030 90000=
07190,1997-09-08 03:00:00,9,1027.8,-0.6,100,9,20000,3.704,,,250,,,,,,,,,,,wg-a,,,,AAXX 08034 07190 12/70 02502 10090 20090 30091 40278 56006 60006 80000 90300=
07190,1997-09-08 06:00:00,10,1028.3,0.5,100,10,20000,3.704,,,230,8.7,17.5,,,,,,,,,wg-a,,,,AAXX 08064 07190 02770 12302 10100 20100 30096 40283 53005 60006 81500 90600 333 10175 20087 60004=
07190,1997-09-08 09:00:00,18,1026.9,-0.8,73,13,20000,3.704,,,190,,,,,,,,,,,wg-a,,,,AAXX 08094 07190 12670 /1902 10180 20130 30088 40269 56008 60006 81100 90900=
07190,1997-09-08 12:00:00,22,1025.5,-1.1,53,12,25000,7.408,,,70,,,,,,,,,,,wg-a,,,,AAXX 08124 07190 12675 20704 10220 20120 30077 40255 58011 60006 82100 91200=
07190,1997-09-08 15:00:00,24,1023.9,-1.5,47,12,500,3.704,,,350,,,,,,,,,,,wg-a,,,,AAXX 08154 07190 12700 /3502 10240 20120 30062 40239 57015 60006 81401 91500=
07190,1997-09-08 18:00:00,21,1023.3,-0.8,64,14,500,3.704,,,20,10,24,,,,,,,,,wg-a,,,,AAXX 08184 07190 12/00 10202 10210 20140 30054 40233 56008 60006 80001 91800 333 10240 20100=
07190,1997-09-08 21:00:00,15,1023.7,0,88,13,20000,7.408,,,200,,,,,,,,,,,wg-a,,,,AAXX 08214 07190 12/70 02004 10150 20130 30054 40237 50000 60006 80000 92100=
07190,1997-09-09 03:00:00,12,1023.3,-0.8,94,11,20000,3.704,,,200,,,,,,,,,,,wg-a,,,,AAXX 09034 07190 12570 42002 10120 20110 30048 40233 56008 60006 84500 90300=
07190,1997-09-09 06:00:00,12,1023.1,-0.2,94,11,7000,3.704,,,200,10.9,20.5,,0,,,,,,,wg-a,,,,AAXX 09064 07190 02657 12002 10120 20110 30046 40231 55002 60004 81500 90600 333 10205 20109 60007=
07190,1997-09-09 09:00:00,19,1022,-0.6,73,14,10000,3.704,,,160,,,,,,,,,,,wg-a,,,,AAXX 09094 07190 12760 /1602 10190 20140 30040 40220 58006 60006 81800 90900=
07190,1997-09-09 12:00:00,22,1020.7,-1.1,53,12,15000,7.408,,,320,,,,,,,,,,,wg-a,,,,AAXX 09124 07190 12665 /3204 10220 20120 30029 40207 56011 60006 86200 91200=
07190,1997-09-09 18:00:00,16,1021.6,1.3,68,10,15000,11.112,,,290,11.5,22.8,,,,,,,,,wg-a,,,,AAXX 09184 07190 12665 22906 10160 20100 30035 40216 53013 60006 81532 91800 333 10228 20115=
07190,1997-09-10 00:00:00,14,1023.6,0.8,77,10,8000,14.816,,,330,,,,,,,,,,,wg-a,,,,AAXX 10004 07190 12658 73308 10140 20100 30053 40236 53008 60006 875// 90000=
07190,1997-09-10 03:00:00,11,1024,0.2,82,8,9000,7.408,,,330,,,,,,,,,,,wg-a,,,,AAXX 10034 07190 12659 23304 10110 20080 30055 40240 50002 60006 82500 90300=
07190,1997-09-10 06:00:00,10,1024.9,0.8,82,7,20000,11.112,,,340,9.2,16.4,,,,,,,,,wg-a,,,,AAXX 10064 07190 02670 /3406 10100 20070 30063 40249 53008 60006 81500 90600 333 10164 20092 60004=
07190,1997-09-10 09:00:00,15,1024.5,-0.1,55,6,500,18.52,,,20,,,,,,,,,,,wg-a,,,,AAXX 10094 07190 12600 /0210 10150 20060 30062 40245 57001 60006 81100 90900=
07190,1997-09-10 12:00:00,18,1023.3,-1,42,5,500,11.112,,,350,,,,,,,,,,,wg-a,,,,AAXX 10124 07190 12/00 13506 10180 20050 30052 40233 57010 60006 80001 91200=
07190,1997-09-10 15:00:00,19,1021.4,-1.8,43,6,500,14.816,,,20,,,,,,,,,,,wg-a,,,,AAXX 10154 07190 12/00 30208 10190 20060 30034 40214 58018 60006 80001 91500=
07190,1997-09-10 18:00:00,16,1021.2,-0.4,55,7,500,14.816,,,30,10,19.3,,,,,,,,,wg-a,,,,AAXX 10184 07190 12/00 20308 10160 20070 30030 40212 56004 60006 80001 91800 333 10193 20100=
07190,1997-09-11 00:00:00,9,1021.2,-0.9,81,6,20000,7.408,,,340,,,,,,,,,,,wg-a,,,,AAXX 11004 07190 12/70 03404 10090 20060 30025 40212 56009 60006 80000 90000=
07190,1997-09-11 03:00:00,7,1019.9,-1.4,87,5,20000,3.704,,,290,,,,,,,,,,,wg-a,,,,AAXX 11034 07190 12/70 02902 10070 20050 30011 40199 58014 60006 80000 90300=
07190,1997-09-11 06:00:00,7,1018.6,-1.2,93,6,25000,7.408,,,330,6.1,15.8,,,,,,,,,wg-a,,,,AAXX 11064 07190 02/75 13304 10070 20060 39999 40186 56012 60006 80001 90600 333 10158 20061 60004=
07190,1997-09-11 09:00:00,16,1017.3,-0.7,63,9,25000,3.704,,,130,,,,,,,,,,,wg-a,,,,AAXX 11094 07190 12/75 31302 10160 20090 39992 40173 58007 60006 80001 90900=
07190,1997-09-11 12:00:00,21,1014.6,-2.3,46,9,500,7.408,,,110,,,,,,,,,,,wg-a,,,,AAXX 11124 07190 12/00 31104 10210 20090 39969 40146 58023 60006 80001 91200=
07190,1997-09-11 15:00:00,23,1012.5,-2,50,12,500,11.112,,,180,,,,,,,,,,,wg-a,,,,AAXX 11154 07190 12/00 21806 10230 20120 39949 40125 56020 60006 80001 91500=
07190,1997-09-11 18:00:00,20,1011.4,-1.2,68,14,20000,3.704,,,190,7.2,23.2,,,,,,,,,wg-a,,,,AAXX 11184 07190 12/70 51902 10200 20140 39937 40114 56012 60006 80001 91800 333 10232 20072=
07190,1997-09-11 21:00:00,14,1012.5,0.7,88,12,20000,3.704,,,170,,,,,,,,,,,wg-a,,,,AAXX 11214 07190 12/70 31702 10140 20120 39944 40125 51007 60006 80001 92100=
07190,1997-09-12 00:00:00,13,1012.2,-0.4,94,12,20000,7.408,,,220,,,,,,,,,,,wg-a,,,,AAXX 12004 07190 12/70 32204 10130 20120 39940 40122 58004 60006 80001 90000=
07190,1997-09-12 03:00:00,11,1011.6,-0.7,94,10,20000,3.704,,,110,,,,,,,,,,,wg-a,,,,AAXX 12034 07190 12/70 31102 10110 20100 39933 40116 58007 60006 80001 90300=
07190,1997-09-12 06:00:00,13,1011.5,-0,94,12,20000,0,,,0,10.5,19.5,,,,,,,,,wg-a,,,,AAXX 12064 07190 02/70 50000 10130 20120 39933 40115 55000 60006 82032 90600 333 10195 20105 60004=
07190,1997-09-12 09:00:00,22,1011.4,0.5,65,15,20000,3.704,,,240,,,,,,,,,,,wg-a,,,,AAXX 12094 07190 12/70 52402 10220 20150 39938 40114 51005 60006 82032 90900=
07190,1997-09-12 12:00:00,27,1009.3,-1.8,51,16,20000,18.52,,,170,,,,,,,,,,,wg-a,,,,AAXX 12124 07190 12670 31710 10270 20160 39920 40093 58018 60006 81131 91200=
07190,1997-09-12 15:00:00,25,1008,-1.3,54,15,20000,14.816,,,280,,,,,,,,,,,wg-a,,,,AAXX 12154 07190 12770 72808 10250 20150 39907 40080 56013 60006 81232 91500=
07190,1997-09-12 18:00:00,21,1007.7,-0.6,78,17,9000,7.408,,,330,12.9,27.3,,,,,,,,3,wg-a,,,,AAXX 12184 07190 02559 83304 10210 20170 39901 40077 58006 60006 70386 8118/ 91800 333 10273 20129 61000=
07190,1997-09-12 21:00:00,18,1009.8,1.9,94,17,6000,7.408,,,160,,,,12,,,,,,21,wg-a,,,,AAXX 12214 07190 12256 81604 10180 20170 39920 40098 51019 60127 72198 888// 92100=
07190,1997-09-13 00:00:00,15,1011.1,1.1,88,13,15000,11.112,,,210,,,,1,,,,,,1,wg-a,,,,AAXX 13004 07190 02465 42106 10150 20130 39931 40111 51011 60136 70198 81142 90000 333 60017=
07190,1997-09-13 03:00:00,15,1010.8,-0.3,82,12,15000,14.816,,,200,,,,,,,,,,,wg-a,,,,AAXX 13034 07190 12565 /2008 10150 20120 39928 40108 58003 60006 81142 90300=
07190,1997-09-13 06:00:00,15,1011.4,0.6,88,13,18000,7.408,,,230,15,20.9,,,,,,,,80,wg-a,,,,AAXX 13064 07190 02568 82304 10150 20130 39934 40114 53006 61000 78086 87802 90600 333 10209 20150 6013=
07190,1997-09-13 09:00:00,14,1014.1,2.6,94,13,25000,7.408,,,270,,,,5,,,,,,60,wg-a,,,,AAXX 13094 07190 12575 72704 10140 20130 39960 40141 52026 60057 76086 8646/ 90900=
07190,1997-09-13 12:00:00,17,1015.8,1.8,63,10,500,14.816,,,280,,,,,,,,,,1,wg-a,,,,AAXX 13124 07190 02700 /2808 10170 20100 39978 40158 53018 60056 70186 8555/ 91200 333 61000=
07190,1997-09-13 15:00:00,18,1017.2,1.4,42,5,500,22.224,,,280,,,,,,,,,,,wg-a,,,,AAXX 13154 07190 12700 32812 10180 20050 39992 40172 53014 60006 82201 91500=
07190,1997-09-13 18:00:00,14,1019.9,2.4,67,8,500,3.704,,,340,13.3,18.7,,,,,,,,,wg-a,,,,AAXX 13184 07190 12700 23402 10140 20080 30016 40199 53024 60006 81802 91800 333 10187 20133=
07190,1997-09-14 00:00:00,7,1023.7,0.8,93,6,15000,3.704,,,130,,,,,,,,,,,wg-a,,,,AAXX 14004 07190 12/65 01302 10070 20060 30049 40237 51008 60006 80000 90000=
07190,1997-09-14 03:00:00,6,1024.3,0.5,93,5,10000,3.704,,,210,,,,,,,,,,,wg-a,,,,AAXX 14034 07190 12760 /2102 10060 20050 30054 40243 53005 60006 81500 90300=
07190,1997-09-14 06:00:00,6,1025.5,1.2,100,6,8000,0,,,0,5,14.3,,,,,5,,,11,wg-a,,,,AAXX 14064 07190 02258 20000 10060 20060 30066 40255 53012 60006 71100 82501 90600 333 10143 20050 60054=
07190,1997-09-14 12:00:00,17,1026.2,-0.1,42,4,40000,11.112,,,350,,,,,,,,,,3,wg-a,,,,AAXX 14124 07190 12682 /3506 10170 20040 30079 40262 58001 60006 70341 83104 91200=
07190,1997-09-14 18:00:00,13,1026.7,1,67,7,35000,3.704,,,340,5.9,16.8,,,,,,,,,wg-a,,,,AAXX 14184 07190 12/81 43402 10130 20070 30082 40267 53010 60006 80001 91800 333 10168 20059=
07190,1997-09-14 21:00:00,8,1028,0.9,87,6,20000,3.704,,,280,,,,,,,,,,,wg-a,,,,AAXX 14214 07190 12/70 12802 10080 20060 30091 40280 51009 60006 80001 92100=
07190,1997-09-15 00:00:00,5,1028.1,0,93,4,20000,3.704,,,70,,,,,,,,,,,wg-a,,,,AAXX 15004 07190 12/70 00702 10050 20040 30091 40281 50000 60006 80000 90000=
07190,1997-09-15 03:00:00,4,1027.9,-0.3,93,3,15000,3.704,,,290,,,,,,,,,,,wg-a,,,,AAXX 15034 07190 12/65 02902 10040 20030 30088 40279 56003 60006 80000 90300=
07190,1997-09-15 06:00:00,5,1027.9,0.1,100,5,20000,3.704,,,360,3.2,12.9,,,,,,,,,wg-a,,,,AAXX 15064 07190 02/70 13602 10050 20050 30089 40279 53001 60006 81030 90600 333 10129 20032 60004=
07190,1997-09-15 09:00:00,13,1027.4,0,67,7,20000,3.704,,,360,,,,,,,,,,,wg-a,,,,AAXX 15094 07190 12/70 13602 10130 20070 30089 40274 50000 60006 80002 90900=
07190,1997-09-15 12:00:00,19,1025.9,-1.1,43,6,500,11.112,,,20,,,,,,,,,,,wg-a,,,,AAXX 15124 07190 12/00 30206 10190 20060 30078 40259 58011 60006 80002 91200=
07190,1997-09-15 18:00:00,17,1024.3,-0.1,55,8,40000,3.704,,,350,5.1,21.4,,,,,,,,,wg-a,,,,AAXX 15184 07190 12/82 53502 10170 20080 30061 40243 56001 60006 80004 91800 333 10214 20051=
07190,1997-09-15 21:00:00,11,1025.4,0.7,82,8,25000,7.408,,,310,,,,,,,,,,,wg-a,,,,AAXX 15214 07190 12/75 73104 10110 20080 30068 40254 51007 60006 80002 92100=
07190,1997-09-16 00:00:00,8,1025.6,-0,93,7,20000,3.704,,,220,,,,,,,,,,,wg-a,,,,AAXX 16004 07190 12/70 52202 10080 20070 30068 40256 55000 60006 81032 90000=
07190,1997-09-16 03:00:00,6,1025.2,-0.5,93,5,500,0,,,0,,,,,,,,,,,wg-a,,,,AAXX 16034 07190 12/00 20000 10060 20050 30063 40252 56005 60006 80001 90300=
07190,1997-09-16 06:00:00,5,1025.9,0.6,100,5,300,0,,,0,4.8,16.7,,,,,,,,44,wg-a,,,,AAXX 16064 07190 02103 40000 10050 20050 30069 40259 53006 60006 74441 81602 90600 333 10167 20048 60004=
07190,1997-09-16 09:00:00,14,1024.9,-0.3,77,10,12000,7.408,,,150,,,,,,,,,,1,wg-a,,,,AAXX 16094 07190 12/62 31504 10140 20100 30066 40249 58003 60006 70140 80002 90900=
07190,1997-09-16 15:00:00,23,1020.6,-1.7,47,11,20000,3.704,,,40,,,,,,,,,,,wg-a,,,,AAXX 16154 07190 12/70 20402 10230 20110 30029 40206 56017 60006 80002 91500=
07190,1997-09-16 18:00:00,18,1021,0.1,68,12,500,3.704,,,40,5.4,23.4,,,,,,,,,wg-a,,,,AAXX 16184 07190 12/00 20402 10180 20120 30030 40210 53001 60006 81082 91800 333 10234 20054=
07190,1997-09-16 21:00:00,12,1022.2,0.8,94,11,500,7.408,,,220,,,,,,,,,,,wg-a,,,,AAXX 16214 07190 12/00 22204 10120 20110 30038 40222 51008 60006 80002 92100=
07190,1997-09-17 00:00:00,11,1022.3,-0,94,10,20000,11.112,,,210,,,,,,,,,,,wg-a,,,,AAXX 17004 07190 12/70 32106 10110 20100 30038 40223 54000 60006 80002 90000=
07190,1997-09-17 06:00:00,9,1023.8,1,100,9,500,3.704,,,200,8.3,18.2,,,,,,,,11,wg-a,,,,AAXX 17064 07190 02/00 32002 10090 20090 30052 40238 53010 60006 71100 81041 90600 333 10182 20083 60004=
07190,1997-09-17 15:00:00,25,1022.6,-0.4,50,14,25000,7.408,,,120,,,,,,,,,,,wg-a,,,,AAXX 17154 07190 12675 71204 10250 20140 30050 40226 56004 60006 82202 91500=
07190,1997-09-17 18:00:00,20,1023.2,0.3,68,14,25000,3.704,,,120,9.3,25.6,,,,,,,,,wg-a,,,,AAXX 17184 07190 12775 61202 10200 20140 30053 40232 53003 60006 81432 91800 333 10256 20093=
07190,1997-09-18 00:00:00,12,1024.6,0.1,94,11,6000,0,,,0,,,,,,,,,,,wg-a,,,,AAXX 18004 07190 12/56 00000 10120 20110 30061 40246 52001 60006 80000 90000=
07190,1997-09-18 03:00:00,10,1024.4,-0.3,100,10,500,0,,,0,,,,,,,,,,,wg-a,,,,AAXX 18034 07190 12/00 /0000 10100 20100 30058 40244 56003 60006 80002 90300=
07190,1997-09-18 06:00:00,10,1025.1,0.7,100,10,200,3.704,,,210,9.2,20.1,,,,,,,,42,wg-a,,,,AAXX 18064 07190 02002 22102 10100 20100 30065 40251 53007 60006 74240 82630 90600 333 10201 20092 60004=
07190,1997-09-18 09:00:00,18,1024.8,0.2,77,14,8000,3.704,,,150,,,,,,,,,,3,wg-a,,,,AAXX 18094 07190 12758 /1502 10180 20140 30067 40248 50002 60006 70340 81100 90900=
07190,1997-09-18 12:00:00,25,1023,-1.3,47,13,15000,3.704,,,80,,,,,,,,,,2,wg-a,,,,AAXX 18124 07190 12765 /0802 10250 20130 30054 40230 58013 60006 70240 81100 91200=
07190,1997-09-18 15:00:00,26,1021.6,-1.4,42,12,15000,3.704,,,40,,,,,,,,,,,wg-a,,,,AAXX 18154 07190 12765 /0402 10260 20120 30040 40216 56014 60006 81100 91500=
07190,1997-09-18 18:00:00,20,1021.8,-0.1,73,15,20000,3.704,,,180,9.9,26,,,,,,,,,wg-a,,,,AAXX 18184 07190 12870 21802 10200 20150 30039 40218 55001 60006 81031 91800 333 10260 20099=
07190,1997-09-19 00:00:00,13,1023,0,94,12,20000,0,,,0,,,,,,,,,,,wg-a,,,,AAXX 19004 07190 12/70 10000 10130 20120 30046 40230 50000 60006 81030 90000=
07190,1997-09-19 03:00:00,11,1023.2,0.1,100,11,4000,3.704,,,150,,,,,,,,,,10,wg-a,,,,AAXX 19034 07190 12/40 /1502 10110 20110 30047 40232 53001 60006 71000 80001 90300=
07190,1997-09-19 06:00:00,12,1023.6,0.5,100,12,4000,7.408,,,200,11.3,19.9,,,,,,,,10,wg-a,,,,AAXX 19064 07190 02540 22004 10120 20120 30052 40236 53005 60006 71000 81201 90600 333 10199 20113 60004=
07190,1997-09-19 09:00:00,19,1023.1,-0.1,78,15,12000,11.112,,,190,,,,,,,,,,,wg-a,,,,AAXX 19094 07190 12662 31906 10190 20150 30051 40231 58001 60006 83200 90900=
07190,1997-09-19 12:00:00,25,1021.7,-1,57,16,15000,7.408,,,150,,,,,,,,,,,wg-a,,,,AAXX 19124 07190 12665 /1504 10250 20160 30041 40217 57010 60006 85830 91200=
07190,1997-09-19 15:00:00,25,1020.8,-0.9,50,14,15000,11.112,,,300,,,,,,,,,,,wg-a,,,,AAXX 19154 07190 12665 63006 10250 20140 30032 40208 56009 60006 86800 91500=
07190,1997-09-19 18:00:00,17,1023.4,2.1,77,13,6000,22.224,,,10,12.1,26,,3,,,,,,1,wg-a,,,,AAXX 19184 07190 02756 70112 10170 20130 30053 40234 53021 60006 70186 875// 91800 333 10260 20121 60037=
07190,1997-09-20 00:00:00,14,1025.1,0.2,82,11,8000,14.816,,,10,,,,,,,,,,,wg-a,,,,AAXX 20004 07190 12558 40108 10140 20110 30067 40251 53002 60006 84500 90000=
07190,1997-09-20 03:00:00,12,1025.1,-0.1,82,9,7000,7.408,,,350,,,,,,,,,,,wg-a,,,,AAXX 20034 07190 12757 /3504 10120 20090 30066 40251 58001 60006 81500 90300=
07190,1997-09-20 06:00:00,9,1025.4,0.1,87,7,12000,11.112,,,330,8.9,17,,,,,3,,,,wg-a,,,,AAXX 20064 07190 02/62 13306 10090 20070 30067 40254 53001 60006 80001 90600 333 10170 20089 60034=
07190,1997-09-20 09:00:00,15,1025.6,0.6,67,9,12000,11.112,,,330,,,,,,,,,,,wg-a,,,,AAXX 20094 07190 12/62 13306 10150 20090 30073 40256 51006 60006 80001 90900=
07190,1997-09-20 12:00:00,19,1024.2,-1.1,52,9,15000,11.112,,,10,,,,,,,,,,,wg-a,,,,AAXX 20124 07190 12/65 10106 10190 20090 30062 40242 57011 60006 80001 91200=
07190,1997-09-20 18:00:00,16,1023.8,0.3,51,6,500,11.112,,,360,9,19.8,,,,,,,,,wg-a,,,,AAXX 20184 07190 12/00 33606 10160 20060 30055 40238 53003 60006 80001 91800 333 10198 20090=
07190,1997-09-20 21:00:00,12,1024.6,0.6,62,5,20000,11.112,,,360,,,,,,,,,,,wg-a,,,,AAXX 20214 07190 12/70 13606 10120 20050 30061 40246 51006 60006 80001 92100=
07190,1997-09-21 00:00:00,8,1024.9,0,76,4,20000,7.408,,,310,,,,,,,,,,,wg-a,,,,AAXX 21004 07190 12/70 03104 10080 20040 30061 40249 50000 60006 80000 90000=
07190,1997-09-21 03:00:00,6,1025,-0,87,4,15000,7.408,,,330,,,,,,,,,,,wg-a,,,,AAXX 21034 07190 12/65 03304 10060 20040 30061 40250 54000 60006 80000 90300=
07190,1997-09-21 06:00:00,5,1025.1,-0,93,4,20000,7.408,,,330,4.7,15.5,,,,,,,,,wg-a,,,,AAXX 21064 07190 02770 /3304 10050 20040 30061 40251 55000 60006 81101 90600 333 10155 20047 60004=
07190,1997-09-21 09:00:00,12,1024.6,0,71,7,20000,7.408,,,10,,,,,,,,,,,wg-a,,,,AAXX 21094 07190 12/70 10104 10120 20070 30061 40246 50000 60006 80001 90900=
07190,1997-09-21 12:00:00,18,1023,-1.2,45,6,20000,7.408,,,30,,,,,,,,,,,wg-a,,,,AAXX 21124 07190 12/70 30304 10180 20060 30049 40230 58012 60006 81081 91200=
07190,1997-09-21 15:00:00,20,1021.9,-1,43,7,25000,11.112,,,30,,,,,,,,,,,wg-a,,,,AAXX 21154 07190 12/75 50306 10200 20070 30039 40219 56010 60006 81081 91500=
07190,1997-09-21 18:00:00,15,1022.3,0.1,63,8,500,7.408,,,310,5.1,19.9,,,,,,,,,wg-a,,,,AAXX 21184 07190 12/00 53104 10150 20080 30040 40223 53001 60006 81081 91800 333 10199 20051=
07190,1997-09-21 21:00:00,10,1023.2,0.6,82,7,20000,7.408,,,320,,,,,,,,,,,wg-a,,,,AAXX 21214 07190 12/70 13204 10100 20070 30046 40232 51006 60006 81030 92100=
07190,1997-09-22 00:00:00,8,1023.5,0.2,87,6,15000,3.704,,,320,,,,,,,,,,,wg-a,,,,AAXX 22004 07190 12/65 23202 10080 20060 30048 40235 50002 60006 80001 90000=
07190,1997-09-22 03:00:00,7,1023.9,0.3,87,5,15000,7.408,,,340,,,,,,,,,,,wg-a,,,,AAXX 22034 07190 12/65 33404 10070 20050 30051 40239 53003 60006 80001 90300=
07190,1997-09-22 09:00:00,13,1024.3,0.5,67,7,18000,7.408,,,360,,,,,,,,,,,wg-a,,,,AAXX 22094 07190 12/68 23604 10130 20070 30058 40243 51005 60006 80001 90900=
07190,1997-09-22 12:00:00,19,1022.9,-0.9,56,10,25000,7.408,,,20,,,,,,,,,,,wg-a,,,,AAXX 22124 07190 12675 20204 10190 20100 30049 40229 58009 60006 81101 91200=
07190,1997-09-22 15:00:00,22,1021.6,-1.1,43,9,500,11.112,,,50,,,,,,,,,,,wg-a,,,,AAXX 22154 07190 12700 30506 10220 20090 30038 40216 56011 60006 81101 91500=
07190,1997-09-22 18:00:00,16,1021.9,-0.1,63,9,20000,7.408,,,330,7,21.5,,,,,,,,,wg-a,,,,AAXX 22184 07190 12870 53304 10160 20090 30037 40219 56001 60006 835/1 91800 333 10215 20070=
07190,1997-09-22 21:00:00,13,1023.1,1,72,8,20000,7.408,,,300,,,,,,,,,,,wg-a,,,,AAXX 22214 07190 12870 43004 10130 20080 30047 40231 51010 60006 825/1 92100=
07190,1997-09-23 00:00:00,10,1023.2,-0.1,82,7,20000,7.408,,,320,,,,,,,,,,,wg-a,,,,AAXX 23004 07190 12870 33204 10100 20070 30046 40232 58001 60006 815/1 90000=
07190,1997-09-23 03:00:00,8,1023,-0.3,87,6,20000,3.704,,,320,,,,,,,,,,,wg-a,,,,AAXX 23034 07190 12/70 33202 10080 20060 30043 40230 58003 60006 80001 90300=
07190,1997-09-23 06:00:00,8,1023.6,0.5,81,5,18000,7.408,,,340,7.1,16.1,,,,,,,,11,wg-a,,,,AAXX 23064 07190 02/68 13404 10080 20050 30048 40236 53005 60006 71100 80001 90600 333 10161 20071 60004=
07190,1997-09-23 09:00:00,13,1023.5,0.3,67,7,15000,7.408,,,360,,,,,,,,,,,wg-a,,,,AAXX 23094 07190 12/65 13604 10130 20070 30051 40235 51003 60006 80001 90900=
07190,1997-09-23 12:00:00,20,1022.2,-0.9,46,8,20000,7.408,,,10,,,,,,,,,,,wg-a,,,,AAXX 23124 07190 12/70 10104 10200 20080 30042 40222 56009 60006 80001 91200=
07190,1997-09-23 15:00:00,22,1020.6,-1.4,38,7,25000,11.112,,,20,,,,,,,,,,,wg-a,,,,AAXX 23154 07190 12775 10206 10220 20070 30028 40206 56014 60006 81101 91500=
07190,1997-09-23 18:00:00,16,1021.3,0.3,59,8,500,7.408,,,320,7.7,22.3,,,,,,,,,wg-a,,,,AAXX 23184 07190 12/00 13204 10160 20080 30031 40213 53003 60006 80001 91800 333 10223 20077=
07190,1997-09-23 21:00:00,12,1022.7,1.1,76,8,20000,3.704,,,310,,,,,,,,,,,wg-a,,,,AAXX 23214 07190 12/70 03102 10120 20080 30042 40227 51011 60006 80000 92100=
07190,1997-09-24 00:00:00,8,1023.3,0.4,87,6,15000,0,,,0,,,,,,,,,,,wg-a,,,,AAXX 24004 07190 12/65 40000 10080 20060 30046 40233 53004 60006 80001 90000=
07190,1997-09-24 03:00:00,8,1023.4,0.1,87,6,10000,7.408,,,310,,,,,,,,,,,wg-a,,,,AAXX 24034 07190 12/60 03104 10080 20060 30047 40234 53001 60006 80000 90300=
07190,1997-09-24 06:00:00,8,1024.1,0.7,93,7,8000,7.408,,,300,7.7,15.8,,,,,,,,,wg-a,,,,AAXX 24064 07190 02/58 33004 10080 20070 30054 40241 53007 60006 80001 90600 333 10158 20077 60004=
07190,1997-09-24 09:00:00,15,1024.3,0.6,67,9,12000,18.52,,,10,,,,,,,,,,,wg-a,,,,AAXX 24094 07190 12/62 30110 10150 20090 30060 40243 50006 60006 80001 90900=
07190,1997-09-24 12:00:00,20,1023.2,-0.8,53,10,12000,18.52,,,30,,,,0,,,,,,,wg-a,,,,AAXX 24124 07190 02/62 20310 10200 20100 30052 40232 58008 60006 80001 91200 333 60007=
07190,1997-09-24 15:00:00,20,1022.3,-0.8,49,9,15000,25.928,,,30,,,,,,,,,,,wg-a,,,,AAXX 24154 07190 12/65 20314 10200 20090 30044 40223 56008 60006 80001 91500=
07190,1997-09-24 18:00:00,17,1022.7,0.1,59,9,20000,11.112,,,350,8.4,21.1,,,,,,,,,wg-a,,,,AAXX 24184 07190 12/70 23506 10170 20090 30045 40227 53001 60006 80001 91800 333 10211 20084=
07190,1997-09-24 21:00:00,14,1024,1.1,72,9,20000,7.408,,,340,,,,,,,,,,,wg-a,,,,AAXX 24214 07190 12/70 23404 10140 20090 30056 40240 51011 60006 80001 92100=
07190,1997-09-25 00:00:00,10,1024.1,-0.1,87,8,15000,7.408,,,330,,,,,,,,,,,wg-a,,,,AAXX 25004 07190 12/65 03304 10100 20080 30055 40241 58001 60006 80000 90000=
07190,1997-09-25 03:00:00,8,1024.4,0.1,93,7,10000,11.112,,,330,,,,,,,,,,,wg-a,,,,AAXX 25034 07190 12/60 03306 10080 20070 30056 40244 53001 60006 80000 90300=
07190,1997-09-25 06:00:00,8,1025.3,0.9,93,7,10000,7.408,,,310,7.3,16.5,,,,,,,,,wg-a,,,,AAXX 25064 07190 02/60 03104 10080 20070 30065 40253 53009 60006 80000 90600 333 10165 20073 60004=
07190,1997-09-25 09:00:00,13,1025.8,0.9,77,9,10000,11.112,,,10,,,,,,,,,,,wg-a,,,,AAXX 25094 07190 12/60 00106 10130 20090 30074 40258 51009 60006 80000 90900=
07190,1997-09-25 12:00:00,20,1024.8,-0.6,53,10,10000,14.816,,,30,,,,,,,,,,,wg-a,,,,AAXX 25124 07190 12/60 00308 10200 20100 30068 40248 58006 60006 80000 91200=
07190,1997-09-25 15:00:00,22,1023.6,-1.1,41,8,15000,18.52,,,30,,,,,,,,,,,wg-a,,,,AAXX 25154 07190 12/65 10310 10220 20080 30057 40236 56011 60006 80001 91500=
07190,1997-09-26 00:00:00,9,1025.6,-0.2,87,7,15000,7.408,,,290,,,,,,,,,,,wg-a,,,,AAXX 26004 07190 12/65 02904 10090 20070 30069 40256 58002 60006 80000 90000=
07190,1997-09-26 03:00:00,7,1025.5,-0.3,93,6,12000,3.704,,,230,,,,,,,,,,,wg-a,,,,AAXX 26034 07190 12/62 02302 10070 20060 30066 40255 57003 60006 80000 90300=
07190,1997-09-26 06:00:00,8,1025.3,-0.1,93,7,15000,7.408,,,350,6.4,16.7,,,,,,,,,wg-a,,,,AAXX 26064 07190 02/65 03504 10080 20070 30065 40253 55001 60006 80000 90600 333 10167 20064 60004=
07190,1997-09-26 09:00:00,16,1024.7,-0.1,63,9,15000,7.408,,,360,,,,,,,,,,,wg-a,,,,AAXX 26094 07190 12/65 03604 10160 20090 30064 40247 58001 60006 80000 90900=
07190,1997-09-26 12:00:00,22,1022.5,-1.7,43,9,20000,14.816,,,20,,,,,,,,,,,wg-a,,,,AAXX 26124 07190 12/70 20208 10220 20090 30047 40225 58017 60006 80001 91200=
07190,1997-09-26 15:00:00,23,1020.6,-1.8,41,9,500,11.112,,,20,,,,,,,,,,,wg-a,,,,AAXX 26154 07190 12/00 20206 10230 20090 30029 40206 56018 60006 80001 91500=
07190,1997-09-26 18:00:00,18,1020.3,-0.6,56,9,40000,7.408,,,350,7.5,23.4,,,,,,,,,wg-a,,,,AAXX 26184 07190 12/82 23504 10180 20090 30023 40203 56006 60006 80001 91800 333 10234 20075=
07190,1997-09-26 21:00:00,11,1020.7,-0.1,87,9,500,7.408,,,290,,,,,,,,,,,wg-a,,,,AAXX 26214 07190 12/00 12904 10110 20090 30022 40207 57001 60006 80001 92100=
07190,1997-09-27 00:00:00,8,1020.4,-0.5,93,7,500,0,,,0,,,,,,,,,,,wg-a,,,,AAXX 27004 07190 12/00 00000 10080 20070 30017 40204 56005 60006 80000 90000=
07190,1997-09-27 03:00:00,6,1019.6,-0.9,93,5,20000,0,,,0,,,,,,,,,,,wg-a,,,,AAXX 27034 07190 12/70 00000 10060 20050 30008 40196 56009 60006 80000 90300=
07190,1997-09-27 06:00:00,5,1019.5,-0.2,100,5,800,0,,,0,5,17.7,,,,,,,,10,wg-a,,,,AAXX 27064 07190 02108 60000 10050 20050 30006 40195 56002 60006 71041 84601 90600 333 10177 20050 60004=
07190,1997-09-27 09:00:00,13,1018.8,-0.1,88,11,12000,3.704,,,350,,,,,,,,,,28,wg-a,,,,AAXX 27094 07190 12/62 /3502 10130 20110 30005 40188 58001 60006 72841 80001 90900=
07190,1997-09-27 12:00:00,21,1016,-2.3,49,10,12000,3.704,,,330,,,,,,,,,,1,wg-a,,,,AAXX 27124 07190 12/62 03302 10210 20100 39982 40160 56023 60006 70141 80000 91200=
07190,1997-09-27 15:00:00,23,1014.3,-1.5,41,9,20000,7.408,,,40,,,,,,,,,,,wg-a,,,,AAXX 27154 07190 12/70 10404 10230 20090 39967 40143 56015 60006 80001 91500=
07190,1997-09-27 18:00:00,17,1014.9,0.2,68,11,25000,3.704,,,270,5.4,23.4,,,,,,,,,wg-a,,,,AAXX 27184 07190 12/75 22702 10170 20110 39969 40149 53002 60006 80002 91800 333 10234 20054=
07190,1997-09-27 21:00:00,12,1015.3,0.1,82,9,20000,0,,,0,,,,,,,,,,,wg-a,,,,AAXX 27214 07190 12/70 00000 10120 20090 39970 40153 50001 60006 80000 92100=
07190,1997-09-28 00:00:00,9,1015.4,-0.1,93,8,15000,7.408,,,240,,,,,,,,,,,wg-a,,,,AAXX 28004 07190 12/65 02404 10090 20080 39969 40154 58001 60006 80000 90000=
07190,1997-09-28 03:00:00,7,1015.8,0.2,93,6,8000,0,,,0,,,,,,,,,,,wg-a,,,,AAXX 28034 07190 12/58 00000 10070 20060 39971 40158 53002 60006 80000 90300=
07190,1997-09-28 06:00:00,6,1016.6,0.8,100,6,700,0,,,0,5.9,16.5,,,,,,,,41,wg-a,,,,AAXX 28064 07190 02/07 40000 10060 20060 39979 40166 53008 60006 74140 80001 90600 333 10165 20059 60004=
07190,1997-09-28 12:00:00,21,1015.2,-1.2,56,12,15000,3.704,,,30,,,,,,,,,,2,wg-a,,,,AAXX 28124 07190 12/65 30302 10210 20120 39975 40152 57012 60006 70240 80002 91200=
07190,1997-09-28 15:00:00,23,1014.4,-0.7,47,11,15000,7.408,,,90,,,,,,,,,,,wg-a,,,,AAXX 28154 07190 12765 30904 10230 20110 39968 40144 56007 60006 81182 91500=
07190,1997-09-28 18:00:00,17,1016,1.2,77,13,15000,3.704,,,340,6.2,23.2,,,,,,,,,wg-a,,,,AAXX 28184 07190 12/65 63402 10170 20130 39980 40160 53012 60006 83082 91800 333 10232 20062=
07190,1997-09-28 21:00:00,13,1017.3,1,88,11,15000,3.704,,,300,,,,,,,,,,,wg-a,,,,AAXX 28214 07190 12/65 23002 10130 20110 39990 40173 51010 60006 80002 92100=
07190,1997-09-29 00:00:00,9,1018.3,0.8,93,8,10000,0,,,0,,,,,,,,,,,wg-a,,,,AAXX 29004 07190 12/60 00000 10090 20080 39998 40183 53008 60006 80000 90000=
07190,1997-09-29 03:00:00,8,1019.1,0.6,93,7,2000,3.704,,,260,,,,,,,,,,10,wg-a,,,,AAXX 29034 07190 12/20 02602 10080 20070 30004 40191 53006 60006 71000 80000 90300=
07190,1997-09-29 06:00:00,8,1020.7,1.6,93,7,200,0,,,0,6.8,17.1,,,,,,,,44,wg-a,,,,AAXX 29064 07190 02102 /0000 10080 20070 30020 40207 52016 60006 74441 85601 90600 333 10171 20068 60004=
07190,1997-09-29 09:00:00,14,1021.7,1.4,94,13,7000,3.704,,,130,,,,,,,,,,28,wg-a,,,,AAXX 29094 07190 12/57 31302 10140 20130 30034 40217 51014 60006 72841 80001 90900=
07190,1997-09-29 12:00:00,23,1020.8,-0.3,53,13,12000,3.704,,,350,,,,,,,,,,3,wg-a,,,,AAXX 29124 07190 12662 53502 10230 20130 30031 40208 58003 60006 70341 81101 91200=
07190,1997-09-29 15:00:00,24,1020.4,-0.4,44,11,13000,3.704,,,30,,,,,,,,,,,wg-a,,,,AAXX 29154 07190 12/63 40302 10240 20110 30027 40204 57004 60006 80001 91500=
07190,1997-09-29 18:00:00,18,1021.7,1,73,13,12000,0,,,0,7.6,24.3,,,,,,,,,wg-a,,,,AAXX 29184 07190 12/62 50000 10180 20130 30037 40217 53010 60006 80001 91800 333 10243 20076=
07190,1997-09-29 21:00:00,14,1022.6,0.6,88,12,10000,0,,,0,,,,,,,,,,,wg-a,,,,AAXX 29214 07190 12/60 40000 10140 20120 30043 40226 53006 60006 80001 92100=
07190,1997-09-30 00:00:00,12,1023.2,0.5,94,11,9000,3.704,,,140,,,,,,,,,,,wg-a,,,,AAXX 30004 07190 12/59 /1402 10120 20110 30048 40232 50005 60006 80001 90000=
07190,1997-09-30 03:00:00,11,1023.9,0.6,94,10,8000,0,,,0,,,,,,,,,,,wg-a,,,,AAXX 30034 07190 12/58 /0000 10110 20100 30054 40239 53006 60006 80001 90300=
07190,1997-09-30 06:00:00,11,1024.5,0.6,100,11,4500,3.704,,,200,10.8,17.8,,,,,,,,10,wg-a,,,,AAXX 30064 07190 02/45 /2002 10110 20110 30060 40245 53006 60006 71022 81041 90600 333 10178 20108 60004=
07190,1997-09-30 09:00:00,17,1025.1,1,77,13,8000,3.704,,,170,,,,,,,,,,,wg-a,,,,AAXX 30094 07190 12/58 31702 10170 20130 30070 40251 53010 60006 81031 90900=
07190,1997-09-30 12:00:00,24,1023.3,-1.4,47,12,10000,3.704,,,280,,,,,,,,,,,wg-a,,,,AAXX 30124 07190 12/60 32802 10240 20120 30056 40233 56014 60006 83031 91200=
07190,1997-09-30 15:00:00,25,1022.2,-1.1,36,9,15000,7.408,,,320,,,,,,,,,,,wg-a,,,,AAXX 30154 07190 12/65 23204 10250 20090 30045 40222 56011 60006 80001 91500=
07190,1997-09-30 18:00:00,20,1022.9,0.5,53,10,20000,0,,,0,11.5,24.9,,,,,,,,,wg-a,,,,AAXX 30184 07190 12/70 50000 10200 20100 30050 40229 53005 60006 85031 91800 333 10249 20115=
07190,1997-10-01 00:00:00,12,1022,-0.9,88,10,20000,7.408,,,190,,,,,,,,,,,wg-a,,,,AAXX 01004 07190 12/70 01904 10120 20100 30036 40220 57009 60006 80000 90000=
07190,1997-10-01 03:00:00,12,1021.7,-0.3,94,11,12000,3.704,,,200,,,,,,,,,,,wg-a,,,,AAXX 01034 07190 12662 42002 10120 20110 30033 40217 58003 60006 83530 90300=
07190,1997-10-01 06:00:00,11,1020.7,-1,100,11,6000,7.408,,,200,11.2,20.2,,,,,,,,,wg-a,,,,AAXX 01064 07190 02/56 52004 10110 20110 30023 40207 56010 60006 83031 90600 333 10202 20112 60004=
07190,1997-10-01 09:00:00,16,1020.9,0.5,77,12,9000,3.704,,,180,,,,,,,,,,,wg-a,,,,AAXX 01094 07190 12559 71802 10160 20120 30028 40209 50005 60006 84572 90900=
07190,1997-10-01 12:00:00,23,1019.1,-1.4,53,13,12000,11.112,,,200,,,,,,,,,,,wg-a,,,,AAXX 01124 07190 12562 /2006 10230 20130 30014 40191 58014 60006 82530 91200=
07190,1997-10-01 15:00:00,25,1017.4,-1.6,50,14,15000,11.112,,,280,,,,,,,,,,,wg-a,,,,AAXX 01154 07190 12665 32806 10250 20140 39998 40174 58016 60006 81831 91500=
07190,1997-10-01 18:00:00,20,1011.6,,68,14,15000,11.112,,,240,11.4,24.6,,,,,,,,,wg-a,,,,AAXX 01184 07190 12765 32406 10200 20140 39988 40116 60006 81531 91800 333 10246 20114=
07190,1997-10-01 21:00:00,16,1016.8,-0.1,82,13,15000,3.704,,,210,,,,,,,,,,,wg-a,,,,AAXX 01214 07190 12/65 22102 10160 20130 39987 40168 57001 60006 82030 92100=
07190,1997-10-02 00:00:00,16,1015.7,-1.1,82,13,15000,7.408,,,200,,,,,,,,,,,wg-a,,,,AAXX 02004 07190 12/65 32004 10160 20130 39976 40157 58011 60006 83030 90000=
07190,1997-10-02 03:00:00,18,1014.1,-1.4,77,14,15000,11.112,,,260,,,,,,,,,,,wg-a,,,,AAXX 02034 07190 12765 /2606 10180 20140 39962 40141 58014 60006 86500 90300=
07190,1997-10-02 06:00:00,15,1014.4,0.1,88,13,15000,3.704,,,210,14.9,20.2,,,,,,,,,wg-a,,,,AAXX 02064 07190 02565 /2102 10150 20130 39963 40144 53001 60006 84800 90600 333 10202 20149 60004=
07190,1997-10-02 12:00:00,22,1013.6,-1,50,11,15000,25.928,,,250,,,,,,,,,,1,wg-a,,,,AAXX 02124 07190 02665 62514 10220 20110 39960 40136 58010 61000 70161 86800 91200 333 ////=
07190,1997-10-02 15:00:00,21,1014.3,0.5,46,9,15000,25.928,,,290,,,,,,,,,,,wg-a,,,,AAXX 02154 07190 12765 62914 10210 20090 39965 40143 53005 60006 84832 91500=
07190,1997-10-02 18:00:00,17,1016.2,1.7,55,8,15000,14.816,,,300,15.3,22.9,,,,,,,,,wg-a,,,,AAXX 02184 07190 12665 /3008 10170 20080 39982 40162 52017 60006 81832 91800 333 10229 20153=
07190,1997-10-02 21:00:00,14,1018.5,2,67,8,15000,7.408,,,320,,,,,,,,,,,wg-a,,,,AAXX 02214 07190 12665 43204 10140 20080 30002 40185 51020 60006 84500 92100=
07190,1997-10-03 00:00:00,13,1019.6,1,67,7,15000,7.408,,,300,,,,,,,,,,,wg-a,,,,AAXX 03004 07190 12665 /3004 10130 20070 30012 40196 51010 60006 86500 90000=
07190,1997-10-03 03:00:00,9,1020.1,0.3,87,7,15000,0,,,0,,,,,,,,,,,wg-a,,,,AAXX 03034 07190 12665 70000 10090 20070 30015 40201 51003 60006 875// 90300=
07190,1997-10-03 06:00:00,11,1020.6,0.6,71,6,500,7.408,,,330,9.2,17.2,,,,,,,,,wg-a,,,,AAXX 03064 07190 02600 73304 10110 20060 30021 40206 51006 60006 875// 90600 333 10172 20092 61000=
07190,1997-10-03 09:00:00,14,1021.5,1.1,51,4,35000,11.112,,,20,,,,,,,,,,,wg-a,,,,AAXX 03094 07190 12681 50206 10140 20040 30032 40215 51011 60006 82841 90900=
07190,1997-10-03 12:00:00,17,1020.5,-0.8,39,3,50000,11.112,,,30,,,,,,,,,,,wg-a,,,,AAXX 03124 07190 12784 20306 10170 20030 30024 40205 58008 60006 81101 91200=
07190,1997-10-03 15:00:00,18,1019.9,-0.6,37,3,50000,14.816,,,30,,,,,,,,,,,wg-a,,,,AAXX 03154 07190 12784 30308 10180 20030 30018 40199 57006 60006 81101 91500=
07190,1997-10-03 18:00:00,13,1020.9,0.7,58,5,40000,0,,,0,10.8,18,,,,,,,,,wg-a,,,,AAXX 03184 07190 12/82 30000 10130 20050 30025 40209 53007 60006 80001 91800 333 10180 20108=
07190,1997-10-03 21:00:00,8,1022.2,1,81,5,500,3.704,,,280,,,,,,,,,,,wg-a,,,,AAXX 03214 07190 12/00 12802 10080 20050 30035 40222 51010 60006 80001 92100=
07190,1997-10-04 00:00:00,5,1022.8,0.3,87,3,500,0,,,0,,,,,,,,,,,wg-a,,,,AAXX 04004 07190 12/00 10000 10050 20030 30038 40228 51003 60006 80001 90000=
07190,1997-10-04 03:00:00,4,1022.8,-0,93,3,15000,0,,,0,,,,,,,,,,,wg-a,,,,AAXX 04034 07190 12/65 10000 10040 20030 30038 40228 55000 60006 80001 90300=
07190,1997-10-04 06:00:00,3,1023.5,0.6,100,3,20000,0,,,0,3,12.6,,,,,,,,,wg-a,,,,AAXX 04064 07190 02/70 10000 10030 20030 30044 40235 51006 60006 80001 90600 333 10126 20030 60004=
07190,1997-10-04 09:00:00,12,1023.5,0.6,67,6,25000,3.704,,,20,,,,,,,,,,,wg-a,,,,AAXX 04094 07190 12/75 10202 10120 20060 30050 40235 53006 60006 80001 90900=
07190,1997-10-04 12:00:00,18,1021.9,-1.2,42,5,25000,3.704,,,290,,,,,,,,,,,wg-a,,,,AAXX 04124 07190 12/75 52902 10180 20050 30038 40219 58012 60006 80004 91200=
07190,1997-10-04 15:00:00,19,1020.8,-1,40,5,25000,3.704,,,60,,,,,,,,,,,wg-a,,,,AAXX 04154 07190 12/75 50602 10190 20050 30028 40208 56010 60006 80002 91500=
07190,1997-10-04 18:00:00,13,1021.3,0.1,67,7,25000,3.704,,,270,3.1,19.3,,,,,,,,,wg-a,,,,AAXX 04184 07190 12/75 32702 10130 20070 30029 40213 53001 60006 80001 91800 333 10193 20031=
07190,1997-10-04 21:00:00,8,1021.7,0.1,87,6,25000,0,,,0,,,,,,,,,,,wg-a,,,,AAXX 04214 07190 12/75 00000 10080 20060 30030 40217 53001 60006 80000 92100=
07190,1997-10-05 00:00:00,6,1021.2,-0.7,93,5,15000,0,,,0,,,,,,,,,,,wg-a,,,,AAXX 05004 07190 12/65 00000 10060 20050 30023 40212 58007 60006 80000 90000=
07190,1997-10-05 03:00:00,4,1020.4,-0.9,93,3,12000,7.408,,,170,,,,,,,,,,,wg-a,,,,AAXX 05034 07190 32/62 01704 10040 20030 30014 40204 58009 80000 90300=
07190,1997-10-05 06:00:00,3,1020,-0.4,100,3,800,0,,,0,2.8,12.6,,,,,,,,41,wg-a,,,,AAXX 05064 07190 02108 /0000 10030 20030 30010 40200 56004 60006 74140 81600 90600 333 10126 20028 60004=
07190,1997-10-05 09:00:00,13,1019.3,-0.1,72,8,12000,3.704,,,200,,,,,,,,,,2,wg-a,,,,AAXX 05094 07190 12/62 02002 10130 20080 30009 40193 58001 60006 70240 80000 90900=
07190,1997-10-05 12:00:00,19,1017.3,-1.5,49,8,18000,7.408,,,60,,,,,,,,,,2,wg-a,,,,AAXX 05124 07190 12/68 00604 10190 20080 39994 40173 58015 60006 70240 80000 91200=
07190,1997-10-05 15:00:00,21,1015.2,-2,46,9,20000,3.704,,,150,,,,,,,,,,,wg-a,,,,AAXX 05154 07190 12/70 01502 10210 20090 39974 40152 56020 60006 80000 91500=
07190,1997-10-05 18:00:00,15,1014.3,-1.2,67,9,25000,0,,,0,2.9,20.9,,,,,,,,,wg-a,,,,AAXX 05184 07190 12/75 00000 10150 20090 39962 40143 56012 60006 80000 91800 333 10209 20029=
07190,1997-10-05 21:00:00,9,1014.8,0.1,87,7,20000,7.408,,,240,,,,,,,,,,,wg-a,,,,AAXX 05214 07190 12/70 02404 10090 20070 39963 40148 53001 60006 80000 92100=
07190,1997-10-06 00:00:00,7,1013.9,-1,93,6,25000,3.704,,,240,,,,,,,,,,,wg-a,,,,AAXX 06004 07190 12/75 02402 10070 20060 39953 40139 56010 60006 80000 90000=
07190,1997-10-06 03:00:00,6,1013,-1,100,6,7000,0,,,0,,,,,,,,,,,wg-a,,,,AAXX 06034 07190 12/57 00000 10060 20060 39943 40130 57010 60006 80000 90300=
07190,1997-10-06 06:00:00,6,1012.4,-0.5,100,6,1500,0,,,0,6,14.5,,,,,,,,10,wg-a,,,,AAXX 06064 07190 02/15 00000 10060 20060 39938 40124 58005 60006 71000 80000 90600 333 10145 20060 60004=
07190,1997-10-06 09:00:00,16,1011.6,-0.2,77,12,8000,3.704,,,140,,,,,,,,,,,wg-a,,,,AAXX 06094 07190 12/58 21402 10160 20120 39936 40116 56002 60006 80001 90900=
07190,1997-10-06 12:00:00,25,1008.9,-2.1,50,14,18000,18.52,,,170,,,,,,,,,,,wg-a,,,,AAXX 06124 07190 12668 51710 10250 20140 39915 40089 58021 60006 81102 91200=
07190,1997-10-06 15:00:00,25,1007,-1.9,47,13,25000,11.112,,,190,,,,,,,,,,,wg-a,,,,AAXX 06154 07190 12775 61906 10250 20130 39896 40070 56019 60006 82202 91500=
07190,1997-10-06 18:00:00,19,1006.8,-0.5,64,12,25000,3.704,,,350,6.4,26.4,,,,,,,,,wg-a,,,,AAXX 06184 07190 12/75 63502 10190 20120 39891 40068 55005 60006 80002 91800 333 10264 20064=
07190,1997-10-06 21:00:00,17,1006.6,-0.3,72,12,20000,3.704,,,170,,,,,,,,,,,wg-a,,,,AAXX 06214 07190 12/70 61702 10170 20120 39888 40066 57003 60006 85042 92100=
07190,1997-10-07 00:00:00,15,1006,-0.7,88,13,12000,3.704,,,200,,,,,,,,,,1,wg-a,,,,AAXX 07004 07190 02762 62002 10150 20130 39881 40060 58007 61000 70161 82531 90000 333 6100=
07190,1997-10-07 06:00:00,16,1005.2,-0.3,82,13,15000,7.408,,,180,13.6,19,,,,,,,,,wg-a,,,,AAXX 07064 07190 02665 71804 10160 20130 39873 40052 55003 60006 8683/ 90600 333 10190 20136 61000=
07190,1997-10-07 12:00:00,24,1005.9,-0,50,13,15000,25.928,,,200,,,,,,,,,,,wg-a,,,,AAXX 07124 07190 12665 72014 10240 20130 39885 40059 54000 60006 8683/ 91200=
07190,1997-10-07 15:00:00,23,1005.5,-0.5,61,15,15000,11.112,,,200,,,,0,,,,,,3,wg-a,,,,AAXX 07154 07190 12665 72006 10230 20150 39880 40055 55005 60007 70386 8638/ 91500=
07190,1997-10-07 18:00:00,20,1008,2.3,68,14,12000,18.52,,,190,15.5,25.5,,0,,,,,,1,wg-a,,,,AAXX 07184 07190 02762 /1910 10200 20140 39903 40080 53023 60006 70186 81572 91800 333 10255 20155 60007=
07190,1997-10-07 21:00:00,16,1011.5,3.2,82,13,12000,14.816,,,190,,,,1,,,,,,1,wg-a,,,,AAXX 07214 07190 12762 /1908 10160 20130 39935 40115 51032 60017 70161 83500 92100=
07190,1997-10-08 00:00:00,14,1013,1.4,88,12,0,7.408,,,160,,,,,,,,,,,wg-a,,,,AAXX 08004 07190 12/// /1604 10140 20120 39949 40130 51014 60016 90000=
07190,1997-10-08 03:00:00,15,1013.9,0.9,88,13,12000,7.408,,,170,,,,,,,,,,,wg-a,,,,AAXX 08034 07190 12662 71704 10150 20130 39958 40139 52009 60006 875// 90300=
07190,1997-10-08 06:00:00,15,1014.1,0.2,88,13,20000,14.816,,,190,13.7,19.8,,,,,,,,60,wg-a,,,,AAXX 08064 07190 02670 71908 10150 20130 39960 40141 51002 61000 76061 84570 90600 333 10198 20137 6002=
07190,1997-10-08 12:00:00,22,1013.4,-0.7,57,13,20000,18.52,,,200,,,,,,,,,,1,wg-a,,,,AAXX 08124 07190 02670 72010 10220 20130 39957 40134 56007 61000 70162 83872 91200 333 ////=
07190,1997-10-08 18:00:00,19,1011.8,-0.6,73,14,20000,7.408,,,180,14.8,21.9,,,,,,,,,wg-a,,,,AAXX 08184 07190 12770 81804 10190 20140 39940 40118 58006 60006 8357/ 91800 333 10219 20148=
07190,1997-10-08 21:00:00,19,1010.9,-0.9,78,15,20000,18.52,,,180,,,,,,,,,,2,wg-a,,,,AAXX 08214 07190 02770 81810 10190 20150 39931 40109 57009 61000 70262 8357/ 92100 333 ////=
07190,1997-10-09 00:00:00,22,1010.5,-0.2,53,12,20000,29.632,,,220,,,,,,,,,,3,wg-a,,,,AAXX 09004 07190 02770 72216 10220 20120 39929 40105 58002 61000 70362 8557/ 90000 333 ////=
07190,1997-10-09 03:00:00,20,1011.1,0.5,64,13,20000,18.52,,,200,,,,,,,,,,,wg-a,,,,AAXX 09034 07190 12770 /2010 10200 20130 39934 40111 51005 60006 82530 90300=
07190,1997-10-09 06:00:00,21,1011.7,0.6,56,12,40000,38.892,,,230,18.4,22.2,,,,,,,,,wg-a,,,,AAXX 09064 07190 02682 72321 10210 20120 39940 40117 53006 60006 81271 90600 333 10222 20184 61000=
07190,1997-10-09 09:00:00,22,1012.4,0.8,60,14,500,29.632,,,200,,,,0,,,,,,3,wg-a,,,,AAXX 09094 07190 12500 42016 10220 20140 39948 40124 51008 60007 70361 82230 90900=
07190,1997-10-09 12:00:00,26,1011.8,-0.4,48,14,25000,31.484,,,240,,,,,,,,,,3,wg-a,,,,AAXX 09124 07190 12675 62417 10260 20140 39944 40118 58004 60006 70361 86800 91200=
07190,1997-10-09 15:00:00,22,1013,1,65,15,25000,25.928,,,240,,,,,,,,,,,wg-a,,,,AAXX 09154 07190 12675 /2414 10220 20150 39954 40130 53010 60006 86200 91500=
07190,1997-10-09 18:00:00,21,1012.9,-0.2,64,14,25000,31.484,,,240,18.2,26.1,,,,,,,,,wg-a,,,,AAXX 09184 07190 12675 /2417 10210 20140 39952 40129 56002 60006 83430 91800 333 10261 20182=
07190,1997-10-09 21:00:00,21,1014,1.1,60,13,20000,31.484,,50.004,230,,,,,,,,,,,wg-a,,,,AAXX 09214 07190 12670 52317 10210 20130 39963 40140 51011 60006 84531 92100 333 91027=
07190,1997-10-10 00:00:00,20,1013.3,-0.8,64,13,20000,18.52,,,180,,,,,,,,,,,wg-a,,,,AAXX 10004 07190 12670 71810 10200 20130 39955 40133 58008 60006 85531 90000=
07190,1997-10-10 03:00:00,18,1011.1,-2.2,73,13,20000,18.52,,,190,,,,,,,,,,,wg-a,,,,AAXX 10034 07190 12670 51910 10180 20130 39933 40111 56022 60006 84501 90300=
07190,1997-10-10 06:00:00,19,1009.6,-1.4,73,14,20000,25.928,,,220,17.5,21.6,,,,,,,,60,wg-a,,,,AAXX 10064 07190 02670 72214 10190 20140 39919 40096 56014 61000 76062 8527/ 90600 333 10216 20175 6000=
07190,1997-10-10 09:00:00,18,1007.5,-2.2,77,14,25000,25.928,,,200,,,,0,,,,,,21,wg-a,,,,AAXX 10094 07190 12575 72014 10180 20140 39897 40075 58022 60007 72162 8687/ 90900=
07190,1997-10-10 12:00:00,17,1003.7,-3.8,94,16,4000,22.224,,,180,,,,4,,,,,,61,wg-a,,,,AAXX 10124 07190 02540 81812 10170 20160 39859 40037 58038 60046 76162 888// 91200 333 60047=
07190,1997-10-10 15:00:00,19,1003.5,-0.1,83,16,9000,18.52,,,280,,,,6,,,,,,29,wg-a,,,,AAXX 10154 07190 12359 72810 10190 20160 39858 40035 55001 60067 72998 879// 91500=
07190,1997-10-10 18:00:00,13,1007.4,3.5,67,7,500,7.408,,,190,13.4,19.5,,,,,,,,1,wg-a,,,,AAXX 10184 07190 12600 21904 10130 20070 39893 40074 53035 60006 70198 82400 91800 333 10195 20134=
07190,1997-10-10 21:00:00,14,1010.6,3.2,72,9,20000,11.112,,,180,,,,,,,,,,,wg-a,,,,AAXX 10214 07190 12670 41806 10140 20090 39925 40106 53032 60006 84500 92100=
07190,1997-10-11 00:00:00,14,1012,1.3,63,7,20000,18.52,,,240,,,,,,,,,,,wg-a,,,,AAXX 11004 07190 12670 /2410 10140 20070 39938 40120 51013 60006 85500 90000=
07190,1997-10-11 03:00:00,12,1011.5,-0.5,71,7,20000,14.816,,,210,,,,,,,,,,,wg-a,,,,AAXX 11034 07190 12670 /2108 10120 20070 39933 40115 58005 60006 85500 90300=
07190,1997-10-11 06:00:00,13,1011.6,0.1,72,8,20000,18.52,,,230,11.6,13.9,,,,,10,,,,wg-a,,,,AAXX 11064 07190 02570 72310 10130 20080 39934 40116 53001 60006 878// 90600 333 10139 20116 60104=
07190,1997-10-11 12:00:00,15,1009.5,-1.7,63,8,20000,25.928,,,210,,,,,,,,,,,wg-a,,,,AAXX 11124 07190 12670 72114 10150 20080 39915 40095 58017 60006 878// 91200=
07190,1997-10-11 15:00:00,15,1006.6,-2.9,55,6,40000,18.52,,,220,,,,,,,,,,,wg-a,,,,AAXX 11154 07190 12682 72210 10150 20060 39886 40066 58029 60006 8443/ 91500=
07190,1997-10-11 18:00:00,13,1004.1,-2.6,72,8,20000,14.816,,,200,11.9,15.8,,,,,,,,60,wg-a,,,,AAXX 11184 07190 02570 82008 10130 20080 39860 40041 56026 61000 76062 8287/ 91800 333 10158 20119 6000=
07190,1997-10-11 21:00:00,12,999.3,-4.7,88,10,15000,22.224,,,170,,,,2,,,,,,21,wg-a,,,,AAXX 11214 07190 12565 81712 10120 20100 39813 49993 58047 60027 72162 878// 92100=
07190,1997-10-12 00:00:00,12,996,-3.3,94,11,15000,18.52,,,180,,,,1,,,,,,21,wg-a,,,,AAXX 12004 07190 02465 81810 10120 20110 39780 49960 56033 60036 72162 888// 90000 333 60017=
07190,1997-10-12 03:00:00,14,995.7,-0.1,88,12,12000,22.224,,,220,,,,1,,,,,,61,wg-a,,,,AAXX 12034 07190 12462 82212 10140 20120 39779 49957 55001 60017 76162 878// 90300=
07190,1997-10-12 06:00:00,13,996.4,0.6,77,9,15000,18.52,,,230,11,14.1,,,,,4,,,1,wg-a,,,,AAXX 12064 07190 02565 72310 10130 20090 39785 49964 53006 60006 70162 8687/ 90600 333 10141 20110 60044=
07190,1997-10-12 09:00:00,11,1000.1,3.5,94,10,15000,11.112,,44.448,340,,,,3,,,,,,61,wg-a,,,,AAXX 12094 07190 12265 73406 10110 20100 39820 40001 53035 60037 76186 878// 90900 333 91024=
07190,1997-10-12 12:00:00,12,1004.2,4,67,6,25000,22.224,,,350,,,,,,,,,,1,wg-a,,,,AAXX 12124 07190 02575 /3512 10120 20060 39860 40042 51040 60036 70186 84840 91200 333 61000=
07190,1997-10-12 18:00:00,10,1010.7,3.5,76,6,20000,11.112,,,270,10.1,13.6,,,,,,,,1,wg-a,,,,AAXX 12184 07190 02770 32706 10100 20060 39923 40107 52035 60006 70161 83500 91800 333 10136 20101 61000=
07190,1997-10-12 21:00:00,10,1012.7,2,87,8,20000,11.112,,,240,,,,0,,,,,,1,wg-a,,,,AAXX 12214 07190 12770 72406 10100 20080 39943 40127 51020 60007 70186 875// 92100=
07190,1997-10-13 00:00:00,8,1013.5,0.7,87,6,20000,14.816,,,310,,,,0,,,,,,25,wg-a,,,,AAXX 13004 07190 02770 /3108 10080 20060 39950 40135 51007 60016 72586 81500 90000 333 60007=
07190,1997-10-13 03:00:00,8,1014.2,0.6,87,6,20000,11.112,,,250,,,,,,,,,,,wg-a,,,,AAXX 13034 07190 12770 72506 10080 20060 39956 40142 51006 60006 875// 90300=
07190,1997-10-13 06:00:00,8,1014.2,0,87,6,20000,7.408,,,260,6.2,10.2,,,,,3,,,,wg-a,,,,AAXX 13064 07190 02470 72604 10080 20060 39956 40142 50000 60006 8687/ 90600 333 10102 20062 60034=
07190,1997-10-13 09:00:00,9,1014.7,0.6,87,7,15000,3.704,,,180,,,,,,,,,,60,wg-a,,,,AAXX 13094 07190 02365 71802 10090 20070 39962 40147 51006 61000 76062 878// 90900 333 ////=
07190,1997-10-13 12:00:00,10,1013.7,-0.9,76,6,20000,14.816,,,250,,,,0,,,,,,1,wg-a,,,,AAXX 13124 07190 02570 72508 10100 20060 39953 40137 58009 60016 70162 8787/ 91200 333 60007=
07190,1997-10-13 15:00:00,10,1013.6,-0.1,66,4,25000,18.52,,,250,,,,,,,,,,1,wg-a,,,,AAXX 13154 07190 02675 72510 10100 20040 39952 40136 56001 61000 70162 8487/ 91500 333 ////=
07190,1997-10-13 18:00:00,8,1015.2,1.4,76,4,20000,11.112,,,240,8,10.8,,,,,,,,3,wg-a,,,,AAXX 13184 07190 12670 82406 10080 20040 39966 40152 53014 60006 70362 8487/ 91800 333 10108 20080=
07190,1997-10-13 21:00:00,8,1016.3,1.1,81,5,12000,7.408,,,250,,,,0,,,,,,1,wg-a,,,,AAXX 13214 07190 12562 82504 10080 20050 39977 40163 53011 60007 70162 875// 92100=
07190,1997-10-14 00:00:00,6,1017.2,0.7,87,4,12000,7.408,,,240,,,,,,,,,,1,wg-a,,,,AAXX 14004 07190 12562 52404 10060 20040 39984 40172 51007 60006 70162 82831 90000=
07190,1997-10-14 03:00:00,7,1017.9,0.8,81,4,10000,11.112,,,300,,,,0,,,,,,25,wg-a,,,,AAXX 14034 07190 12460 73006 10070 20040 39992 40179 53008 60007 72586 878// 90300=
07190,1997-10-14 06:00:00,7,1019.2,1.3,87,5,12000,7.408,,,260,4.8,8.5,,,,,1,,,1,wg-a,,,,AAXX 14064 07190 02562 72604 10070 20050 30005 40192 53013 60006 70186 878// 90600 333 10085 20048 60014=
07190,1997-10-14 09:00:00,9,1020.8,1.7,76,5,12000,7.408,,,280,,,,,,,,,,,wg-a,,,,AAXX 14094 07190 12462 72804 10090 20050 30022 40208 51017 60006 878// 90900=
07190,1997-10-14 12:00:00,11,1020.3,-0.4,66,5,12000,14.816,,,300,,,,,,,,,,3,wg-a,,,,AAXX 14124 07190 02562 73008 10110 20050 30018 40203 58004 61000 70362 85940 91200 333 6100=
07190,1997-10-14 15:00:00,11,1019.7,-0.6,62,4,12000,14.816,,,280,,,,0,,,,,,1,wg-a,,,,AAXX 14154 07190 12562 62808 10110 20040 30012 40197 57006 60007 70186 85801 91500=
07190,1997-10-14 18:00:00,8,1020.8,0.9,76,4,12000,11.112,,,260,6.8,12.5,,,,,,,,1,wg-a,,,,AAXX 14184 07190 02662 52606 10080 20040 30021 40208 53009 60006 70186 83401 91800 333 10125 20068 61000=
07190,1997-10-14 21:00:00,7,1021,0.2,87,5,12000,7.408,,,250,,,,,,,,,,,wg-a,,,,AAXX 14214 07190 12762 72504 10070 20050 30023 40210 50002 60006 875// 92100=
07190,1997-10-15 00:00:00,7,1020.1,-0.9,93,6,8000,3.704,,,180,,,,2,,,,,,61,wg-a,,,,AAXX 15004 07190 02558 71802 10070 20060 30014 40201 58009 60026 76161 875// 90000 333 60027=
07190,1997-10-15 03:00:00,6,1019.1,-1.1,93,5,10000,3.704,,,180,,,,2,,,,,,21,wg-a,,,,AAXX 15034 07190 12560 71802 10060 20050 30003 40191 58011 60027 72162 878// 90300=
07190,1997-10-15 06:00:00,6,1017.8,-1.3,100,6,8000,7.408,,,190,6,7.7,,1,,,5,,,60,wg-a,,,,AAXX 15064 07190 02458 81904 10060 20060 39990 40178 56013 60054 76062 878// 90600 333 10077 20060 60017=
07190,1997-10-15 12:00:00,8,1015.4,-1.8,81,5,10000,14.816,,,200,,,,1,,,,,,60,wg-a,,,,AAXX 15124 07190 02460 82008 10080 20050 39968 40154 58018 60026 76062 8587/ 91200 333 60017=
07190,1997-10-15 15:00:00,8,1014,-1.4,87,6,8000,11.112,,,160,,,,0,,,,,,60,wg-a,,,,AAXX 15154 07190 12258 81606 10080 20060 39954 40140 56014 60007 76062 875// 91500=
07190,1997-10-15 18:00:00,7,1013.4,-0.6,93,6,10000,11.112,,,150,6,8.5,,,,,,,,21,wg-a,,,,AAXX 15184 07190 02560 81506 10070 20060 39948 40134 56006 61000 72162 875// 91800 333 10085 20060 6000=
07190,1997-10-15 21:00:00,8,1013.5,0.1,93,7,10000,7.408,,,160,,,,1,,,,,,21,wg-a,,,,AAXX 15214 07190 12560 81604 10080 20070 39949 40135 53001 60017 72162 875// 92100=
07190,1997-10-16 00:00:00,8,1012.9,-0.6,93,7,8000,3.704,,,130,,,,1,,,,,,60,wg-a,,,,AAXX 16004 07190 02558 81302 10080 20070 39943 40129 57006 60016 76062 875// 90000 333 60017=
07190,1997-10-16 03:00:00,8,1012.2,-0.6,100,8,4000,0,,,0,,,,0,,,,,,50,wg-a,,,,AAXX 16034 07190 12140 80000 10080 20080 39937 40122 56006 60007 75065 877// 90300=
07190,1997-10-16 06:00:00,8,1013.3,1.1,100,8,1200,3.704,,,340,7.4,8.2,,,,,,,,10,wg-a,,,,AAXX 16064 07190 02112 83402 10080 20080 39948 40133 53011 61000 71065 877// 90600 333 10082 20074 6004=
07190,1997-10-16 09:00:00,9,1015.4,2.1,100,9,1500,7.408,,,10,,,,1,,,,,,10,wg-a,,,,AAXX 16094 07190 12115 80104 10090 20090 39969 40154 51021 60017 71055 877// 90900=
07190,1997-10-16 12:00:00,10,1015.7,0.4,93,9,9000,7.408,,,30,,,,0,,,,,,3,wg-a,,,,AAXX 16124 07190 02259 80304 10100 20090 39973 40157 50004 60016 70352 877// 91200 333 60007=
07190,1997-10-16 15:00:00,10,1016.1,0.4,93,9,12000,7.408,,,10,,,,,,,,,,,wg-a,,,,AAXX 16154 07190 12462 80104 10100 20090 39977 40161 53004 60006 875// 91500=
07190,1997-10-16 18:00:00,10,1017.6,1.4,93,9,3500,7.408,,,330,8.1,10.5,,,,,,,,10,wg-a,,,,AAXX 16184 07190 02335 83304 10100 20090 39991 40176 53014 61000 71052 875// 91800 333 10105 20081 6000=
07190,1997-10-17 00:00:00,9,1018.5,-0.4,93,8,800,0,,,0,,,,,,,,,,41,wg-a,,,,AAXX 17004 07190 12108 70000 10090 20080 39999 40185 58004 60006 74142 875// 90000=
07190,1997-10-17 03:00:00,9,1018.3,-0.2,93,8,3500,7.408,,,190,,,,,,,,,,10,wg-a,,,,AAXX 17034 07190 12135 81904 10090 20080 39997 40183 58002 60006 71042 876// 90300=
07190,1997-10-17 06:00:00,9,1019.4,1.1,93,8,3000,3.704,,,240,8.1,9.7,,,,,2,,,10,wg-a,,,,AAXX 17064 07190 02130 82402 10090 20080 30008 40194 53011 60006 71042 886// 90600 333 10097 20081 60024=
07190,1997-10-17 09:00:00,9,1020.9,1.5,93,8,4000,7.408,,,130,,,,,,,,,,10,wg-a,,,,AAXX 17094 07190 12140 81304 10090 20080 30023 40209 51015 60006 71022 886// 90900=
07190,1997-10-17 12:00:00,13,1020.3,-0.3,82,10,7000,3.704,,,270,,,,,,,,,,,wg-a,,,,AAXX 17124 07190 12457 42702 10130 20100 30020 40203 58003 60006 82201 91200=
07190,1997-10-17 15:00:00,15,1019.1,-1.1,67,9,10000,0,,,0,,,,,,,,,,,wg-a,,,,AAXX 17154 07190 12/60 40000 10150 20090 30009 40191 56011 60006 80001 91500=
07190,1997-10-17 18:00:00,11,1020.2,0.8,87,9,10000,3.704,,,350,8.3,16,,,,,,,,,wg-a,,,,AAXX 17184 07190 12/60 63502 10110 20090 30017 40202 53008 60006 80001 91800 333 10160 20083=
07190,1997-10-17 21:00:00,8,1021.7,1.3,93,7,6000,3.704,,,310,,,,,,,,,,,wg-a,,,,AAXX 17214 07190 12/56 /3102 10080 20070 30030 40217 51013 60006 80001 92100=
07190,1997-10-18 00:00:00,6,1022.5,0.6,100,6,900,0,,,0,,,,,,,,,,41,wg-a,,,,AAXX 18004 07190 12/09 /0000 10060 20060 30036 40225 53006 60006 74142 80001 90000=
07190,1997-10-18 06:00:00,8,1024.2,1.1,100,8,100,3.704,,,120,5,10.8,,,,,,,,45,wg-a,,,,AAXX 18064 07190 02/01 91202 10080 20080 30054 40242 53011 60006 74542 89/// 90600 333 10108 20050 60004=
07190,1997-10-18 09:00:00,8,1025.8,1.6,100,8,400,3.704,,,160,,,,,,,,,,43,wg-a,,,,AAXX 18094 07190 12/04 91602 10080 20080 30070 40258 51016 60006 74344 89/// 90900=
07190,1997-10-18 12:00:00,12,1024.9,-0.6,88,10,500,3.704,,,240,,,,,,,,,,1,wg-a,,,,AAXX 18124 07190 12300 /2402 10120 20100 30064 40249 58006 60006 70142 82601 91200=
07190,1997-10-18 15:00:00,16,1023.3,-1.3,72,11,8000,3.704,,,30,,,,,,,,,,,wg-a,,,,AAXX 18154 07190 12/58 /0302 10160 20110 30051 40233 56013 60006 80001 91500=
07190,1997-10-18 18:00:00,11,1023.8,0.2,94,10,3500,3.704,,,360,7.7,16.5,,,,,,,,10,wg-a,,,,AAXX 18184 07190 12/35 /3602 10110 20100 30053 40238 53002 60006 71011 80000 91800 333 10165 20077=
07190,1997-10-18 21:00:00,7,1024.1,0,100,7,300,3.704,,,210,,,,,,,,,,44,wg-a,,,,AAXX 18214 07190 12/03 02102 10070 20070 30053 40241 50000 60006 74440 80000 92100=
07190,1997-10-19 00:00:00,6,1023.9,-0.3,100,6,200,3.704,,,200,,,,,,,,,,45,wg-a,,,,AAXX 19004 07190 12/02 92002 10060 20060 30050 40239 58003 60006 74541 89/// 90000=
07190,1997-10-19 03:00:00,8,1023.1,-0.6,100,8,200,3.704,,,180,,,,,,,,,,45,wg-a,,,,AAXX 19034 07190 32/02 91802 10080 20080 30044 40231 58006 74544 89/// 90300=
07190,1997-10-19 06:00:00,7,1022.8,-0.4,100,7,100,3.704,,,180,5.7,10.8,,,,,,,,45,wg-a,,,,AAXX 19064 07190 02/01 91802 10070 20070 30040 40228 56004 60006 74544 89/// 90600 333 10108 20057 60004=
07190,1997-10-19 09:00:00,8,1022.5,-0.2,100,8,400,7.408,,,210,,,,,,,,,,43,wg-a,,,,AAXX 19094 07190 12/04 92104 10080 20080 30038 40225 58002 60006 74344 89/// 90900=
07190,1997-10-19 12:00:00,10,1020.6,-1.8,100,10,900,3.704,,,40,,,,,,,,,,44,wg-a,,,,AAXX 19124 07190 12109 80402 10100 20100 30020 40206 58018 60006 74444 886// 91200=
07190,1997-10-19 18:00:00,10,1018.7,-0.1,93,9,600,3.704,,,30,7,10.7,,,,,,,,43,wg-a,,,,AAXX 19184 07190 12/06 90302 10100 20090 30002 40187 55001 60006 74342 89/// 91800 333 10107 20070=
07190,1997-10-20 00:00:00,9,1017.5,-1,100,9,300,7.408,,,200,,,,,,,,,,45,wg-a,,,,AAXX 20004 07190 12/03 92004 10090 20090 39990 40175 56010 60006 74542 89/// 90000=
07190,1997-10-20 03:00:00,9,1016.6,-1,100,9,300,7.408,,,210,,,,,,,,,,45,wg-a,,,,AAXX 20034 07190 12/03 92104 10090 20090 39980 40166 56010 60006 74542 89/// 90300=
07190,1997-10-20 06:00:00,8,1015.8,-0.8,100,8,500,3.704,,,190,8.4,9.8,,,,,,,,,wg-a,,,,AAXX 20064 07190 02/05 /1902 10080 20080 39972 40158 57008 60006 90600 333 10098 20084 60004=
07190,1997-10-20 09:00:00,9,1015.6,-0.1,100,9,1500,1.852,,,0,,,,,,,,,,10,wg-a,,,,AAXX 20094 07190 12/15 ///01 10090 20090 39971 40156 58001 60006 71042 80000 90900=
07190,1997-10-20 12:00:00,11,1014.1,-1.4,100,11,2500,0,,,0,,,,,,,,,,10,wg-a,,,,AAXX 20124 07190 12125 80000 10110 20110 39957 40141 58014 60006 71042 886// 91200=
07190,1997-10-20 15:00:00,11,1013.4,-0.6,94,10,4500,11.112,,,360,,,,,,,,,,10,wg-a,,,,AAXX 20154 07190 12245 83606 10110 20100 39951 40134 56006 60006 71022 886// 91500=
07190,1997-10-20 18:00:00,10,1014.4,0.9,93,9,6000,11.112,,,350,8.4,11.7,,,,,,,,,wg-a,,,,AAXX 20184 07190 12156 83506 10100 20090 39960 40144 53009 60006 886// 91800 333 10117 20084=
07190,1997-10-20 21:00:00,9,1015.1,0.6,93,8,4000,14.816,,,10,,,,,,,,,,10,wg-a,,,,AAXX 20214 07190 12240 80108 10090 20080 39966 40151 52006 60006 71022 886// 92100=
07190,1997-10-21 00:00:00,10,1014.5,-0.6,87,8,6000,18.52,,,20,,,,,,,,,,,wg-a,,,,AAXX 21004 07190 12356 80210 10100 20080 39960 40145 57006 60006 886// 90000=
07190,1997-10-21 03:00:00,9,1014.4,-0.1,93,8,7000,11.112,,,10,,,,,,,,,,,wg-a,,,,AAXX 21034 07190 12257 80106 10090 20080 39959 40144 56001 60006 886// 90300=
07190,1997-10-21 06:00:00,8,1014.7,0.2,87,6,10000,29.632,,,30,8.3,9.8,,,,,,,,,wg-a,,,,AAXX 21064 07190 02460 80316 10080 20060 39961 40147 53002 60006 875// 90600 333 10098 20083 60004=
07190,1997-10-21 09:00:00,9,1016.2,1.6,76,5,12000,25.928,,,20,,,,,,,,,,,wg-a,,,,AAXX 21094 07190 12562 70214 10090 20050 39977 40162 51016 60006 8683/ 90900=
07190,1997-10-21 12:00:00,10,1016.1,-0.1,71,5,15000,25.928,,,30,,,,,,,,,,,wg-a,,,,AAXX 21124 07190 12565 70314 10100 20050 39976 40161 57001 60006 878// 91200=
07190,1997-10-21 15:00:00,10,1016.2,0.1,71,5,20000,22.224,,,20,,,,,,,,,,,wg-a,,,,AAXX 21154 07190 12670 70212 10100 20050 39977 40162 53001 60006 86532 91500=
07190,1997-10-21 18:00:00,7,1017.3,0.9,66,1,20000,18.52,,,20,7.2,10.9,,,,,,,,,wg-a,,,,AAXX 21184 07190 12670 40210 10070 20010 39986 40173 53009 60006 83502 91800 333 10109 20072=
07190,1997-10-21 21:00:00,5,1017.2,-0.3,75,1,20000,7.408,,,10,,,,,,,,,,,wg-a,,,,AAXX 21214 07190 12570 /0104 10050 20010 39983 40172 55003 60006 81500 92100=
07190,1997-10-22 00:00:00,1,1016.8,-0.6,93,0,15000,7.408,,,330,,,,,,,,,,,wg-a,,,,AAXX 22004 07190 12/65 03304 10010 20000 39977 40168 58006 60006 80000 90000=
07190,1997-10-22 03:00:00,1,1015.9,-0.9,93,0,15000,3.704,,,330,,,,,,,,,,,wg-a,,,,AAXX 22034 07190 12/65 03302 10010 20000 39968 40159 58009 60006 80000 90300=
07190,1997-10-22 06:00:00,1,1015.3,-0.6,93,0,10000,7.408,,,10,0.1,7.2,,,,,,,,,wg-a,,,,AAXX 22064 07190 02460 70104 10010 20000 39962 40153 56006 60006 875// 90600 333 10072 20001 60004=
07190,1997-10-22 09:00:00,3,1015.7,0.6,93,2,7000,3.704,,,320,,,,,,,,,,,wg-a,,,,AAXX 22094 07190 12457 83202 10030 20020 39968 40157 50006 60006 885// 90900=
07190,1997-10-22 12:00:00,8,1014.2,-1.2,81,5,10000,0,,,0,,,,,,,,,,,wg-a,,,,AAXX 22124 07190 12460 80000 10080 20050 39956 40142 57012 60006 885// 91200=
07190,1997-10-22 15:00:00,10,1013.6,-0.5,71,5,10000,3.704,,,260,,,,,,,,,,,wg-a,,,,AAXX 22154 07190 12460 72602 10100 20050 39951 40136 56005 60006 875// 91500=
07190,1997-10-22 18:00:00,5,1014.5,0.6,93,4,8000,7.408,,,10,1.3,9.6,,,,,,,,,wg-a,,,,AAXX 22184 07190 12458 /0104 10050 20040 39957 40145 53006 60006 81500 91800 333 10096 20013=
07190,1997-10-22 21:00:00,5,1014.9,0.4,93,4,4000,7.408,,,30,,,,,,,,,,10,wg-a,,,,AAXX 22214 07190 12440 70304 10050 20040 39961 40149 53004 60006 71011 875// 92100=
07190,1997-10-23 00:00:00,5,1014.9,0,93,4,2000,7.408,,,20,,,,,,,,,,10,wg-a,,,,AAXX 23004 07190 12220 80204 10050 20040 39961 40149 50000 60006 71011 875// 90000=
07190,1997-10-23 03:00:00,4,1014.5,-0.4,100,4,2000,7.408,,,10,,,,,,,,,,10,wg-a,,,,AAXX 23034 07190 12220 80104 10040 20040 39957 40145 58004 60006 71022 886// 90300=
07190,1997-10-23 06:00:00,4,1015,0.4,93,3,1100,7.408,,,30,3.8,5.4,,,,,,,,10,wg-a,,,,AAXX 23064 07190 02111 80304 10040 20030 39961 40150 52004 60006 71022 886// 90600 333 10054 20038 60004=
07190,1997-10-23 09:00:00,4,1015.5,0.5,93,3,3500,11.112,,,10,,,,,,,,,,10,wg-a,,,,AAXX 23094 07190 12135 80106 10040 20030 39966 40155 51005 60006 71022 886// 90900=
07190,1997-10-23 12:00:00,4,1015.4,-0.1,93,3,7000,7.408,,,350,,,,,,,,,,,wg-a,,,,AAXX 23124 07190 12257 83504 10040 20030 39965 40154 58001 60006 885// 91200=
07190,1997-10-23 18:00:00,4,1015.9,0.8,87,2,6000,11.112,,,350,3.6,4.8,,,,,,,,,wg-a,,,,AAXX 23184 07190 12356 83506 10040 20020 39970 40159 53008 60006 886// 91800 333 10048 20036=
07190,1997-10-24 00:00:00,3,1018.4,1.1,87,1,6000,3.704,,,340,,,,,,,,,,,wg-a,,,,AAXX 24004 07190 12356 83402 10030 20010 39994 40184 51011 60006 886// 90000=
07190,1997-10-24 06:00:00,3,1020.9,1.7,93,2,3500,3.704,,,250,2.6,4.3,,,,,,,,10,wg-a,,,,AAXX 24064 07190 02235 82502 10030 20020 30018 40209 53017 60006 71022 875// 90600 333 10043 20026 60004=
07190,1997-10-24 09:00:00,6,1022.3,1.6,75,2,500,3.704,,,190,,,,,,,,,,,wg-a,,,,AAXX 24094 07190 12700 71902 10060 20020 30034 40223 51016 60006 875// 90900=
07190,1997-10-24 12:00:00,10,1022.6,0.6,62,3,10000,18.52,,,40,,,,,,,,,,,wg-a,,,,AAXX 24124 07190 12560 50410 10100 20030 30040 40226 51006 60006 85800 91200=
07190,1997-10-24 15:00:00,9,1023.9,1.2,57,1,15000,14.816,,,10,,,,,,,,,,,wg-a,,,,AAXX 24154 07190 12665 /0108 10090 20010 30052 40239 53012 60006 84800 91500=
07190,1997-10-24 18:00:00,5,1025.4,1.2,75,1,15000,7.408,,,350,2.8,11.2,,,,,,,,,wg-a,,,,AAXX 24184 07190 12765 63504 10050 20010 30064 40254 52012 60006 82541 91800 333 10112 20028=
07190,1997-10-24 21:00:00,2,1026.6,1,87,0,15000,3.704,,,320,,,,,,,,,,,wg-a,,,,AAXX 24214 07190 12/65 03202 10020 20000 30074 40266 51010 60006 80000 92100=
07190,1997-10-25 00:00:00,-1,1027.2,0.4,100,-1,15000,0,,,0,,,,,,,,,,,wg-a,,,,AAXX 25004 07190 12/65 00000 11010 21010 30078 40272 53004 60006 80000 90000=
07190,1997-10-25 03:00:00,-1,1027.4,0.2,93,-2,15000,0,,,0,,,,,,,,,,,wg-a,,,,AAXX 25034 07190 12/65 00000 11010 21020 30080 40274 53002 60006 80000 90300=
07190,1997-10-25 06:00:00,-2,1028.7,1.1,93,-3,1000,0,,,0,-2.3,4.6,,,,,,,,40,wg-a,,,,AAXX 25064 07190 02/10 00000 11020 21030 30091 40287 52011 60006 74000 80000 90600 333 10046 21023 60004=
07190,1997-10-25 09:00:00,5,1029,0.9,81,2,10000,3.704,,,130,,,,,,,,,,3,wg-a,,,,AAXX 25094 07190 12460 21302 10050 20020 30100 40290 51009 60006 70340 81102 90900=
07190,1997-10-25 12:00:00,10,1027.9,-0.8,50,0,15000,7.408,,,20,,,,,,,,,,3,wg-a,,,,AAXX 25124 07190 12665 /0204 10100 20000 30092 40279 58008 60006 70341 83102 91200=
07190,1997-10-25 15:00:00,11,1026.9,-1,47,0,25000,3.704,,,320,,,,,,,,,,,wg-a,,,,AAXX 25154 07190 12775 /3202 10110 20000 30082 40269 56010 60006 81402 91500=
07190,1997-10-25 18:00:00,6,1027.6,0.4,70,1,25000,7.408,,,330,-2.7,11.1,,,,,,,,,wg-a,,,,AAXX 25184 07190 12/75 03304 10060 20010 30086 40276 53004 60006 80000 91800 333 10111 21027=
07190,1997-10-25 21:00:00,1,1028.2,0.3,93,0,25000,3.704,,,180,,,,,,,,,,,wg-a,,,,AAXX 25214 07190 12/75 11802 10010 20000 30089 40282 50003 60006 81030 92100=
07190,1997-10-26 00:00:00,0,1027.9,-0.4,93,-1,15000,3.704,,,170,,,,,,,,,,,wg-a,,,,AAXX 26004 07190 12/65 01702 10000 21010 30085 40279 58004 60006 80000 90000=
07190,1997-10-26 03:00:00,0,1027.1,-0.8,93,-1,10000,3.704,,,200,,,,,,,,,,,wg-a,,,,AAXX 26034 07190 12660 /2002 10000 21010 30077 40271 58008 60006 81500 90300=
07190,1997-10-26 06:00:00,-2,1027.1,-0.1,93,-3,3000,3.704,,,210,-2.1,5.7,,,,,,,,,wg-a,,,,AAXX 26064 07190 02030 22102 11020 21030 30076 40271 57001 60006 82500 90600 333 10057 21021 60004=
07190,1997-10-26 09:00:00,4,1027.2,0.5,87,2,10000,0,,,0,,,,,,,,,,,wg-a,,,,AAXX 26094 07190 12/60 /0000 10040 20020 30081 40272 50005 60006 80000 90900=
07190,1997-10-26 12:00:00,11,1025.6,-1.1,62,4,12000,11.112,,,20,,,,,,,,,,,wg-a,,,,AAXX 26124 07190 12662 30206 10110 20040 30070 40256 58011 60006 81101 91200=
07190,1997-10-26 15:00:00,11,1024.4,-1.2,62,4,15000,11.112,,,20,,,,,,,,,,,wg-a,,,,AAXX 26154 07190 12565 30206 10110 20040 30058 40244 56012 60006 82401 91500=
07190,1997-10-26 18:00:00,8,1025,0.4,76,4,15000,7.408,,,350,-2.1,11.7,,,,,,,,,wg-a,,,,AAXX 26184 07190 12/65 63504 10080 20040 30062 40250 53004 60006 85031 91800 333 10117 21021=
07190,1997-10-26 21:00:00,7,1024.9,-0.2,76,3,15000,7.408,,,350,,,,,,,,,,,wg-a,,,,AAXX 26214 07190 12565 73504 10070 20030 30060 40249 58002 60006 875// 92100=
07190,1997-10-27 00:00:00,4,1024.6,-0.5,87,2,15000,7.408,,,350,,,,,,,,,,,wg-a,,,,AAXX 27004 07190 12565 33504 10040 20020 30055 40246 58005 60006 81501 90000=
07190,1997-10-27 03:00:00,2,1024.4,-0.3,93,1,15000,3.704,,,330,,,,,,,,,,,wg-a,,,,AAXX 27034 07190 12/65 63302 10020 20010 30052 40244 55003 60006 86030 90300=
07190,1997-10-27 06:00:00,3,1024.7,0.4,87,1,15000,3.704,,,350,1.8,7.6,,,,,,,,,wg-a,,,,AAXX 27064 07190 02/65 63502 10030 20010 30056 40247 53004 60006 86031 90600 333 10076 20018 60004=
07190,1997-10-27 09:00:00,7,1025.5,1,87,5,9000,18.52,,,20,,,,,,,,,,,wg-a,,,,AAXX 27094 07190 12359 70210 10070 20050 30066 40255 51010 60006 8683/ 90900=
07190,1997-10-27 12:00:00,8,1025.5,0.1,71,3,20000,25.928,,,20,,,,,,,,,,,wg-a,,,,AAXX 27124 07190 12570 60214 10080 20030 30067 40255 50001 60006 84830 91200=
07190,1997-10-27 18:00:00,4,1026.9,1,60,-3,11000,22.224,,,30,2.6,8.1,,,,,,,,,wg-a,,,,AAXX 27184 07190 12161 /0312 10040 21030 30078 40269 53010 60006 83500 91800 333 10081 20026=
07190,1997-10-27 21:00:00,1,1028,0.9,64,-5,15000,18.52,,,30,,,,,,,,,,,wg-a,,,,AAXX 27214 07190 12/65 00310 10010 21050 30087 40280 52009 60006 80000 92100=
07190,1997-10-28 00:00:00,-1,1028.6,0.4,74,-5,15000,18.52,,,30,,,,,,,,,,,wg-a,,,,AAXX 28004 07190 12/65 00310 11010 21050 30091 40286 51004 60006 80000 90000=
07190,1997-10-28 03:00:00,-1,1028.6,0,74,-5,15000,18.52,,,20,,,,,,,,,,,wg-a,,,,AAXX 28034 07190 12/65 00210 11010 21050 30091 40286 50000 60006 80000 90300=
07190,1997-10-28 06:00:00,-1,1029.2,0.6,74,-5,500,22.224,,,30,-1.4,4.3,,,,,,,,,wg-a,,,,AAXX 28064 07190 02600 /0312 11010 21050 30097 40292 52006 60006 81100 90600 333 10043 21014 60004=
07190,1997-10-28 09:00:00,2,1030.4,1.4,60,-5,500,25.928,,,30,,,,,,,,,,,wg-a,,,,AAXX 28094 07190 12600 /0314 10020 21050 30111 40304 51014 60006 81100 90900=
07190,1997-10-28 12:00:00,6,1029.7,-0.4,39,-7,500,31.484,,,30,,,,,,,,,,,wg-a,,,,AAXX 28124 07190 12/00 00317 10060 21070 30107 40297 58004 60006 80000 91200=
07190,1997-10-28 15:00:00,7,1030.6,0.9,33,-8,40000,31.484,,,30,,,,,,,,,,,wg-a,,,,AAXX 28154 07190 12/82 00317 10070 21080 30116 40306 53009 60006 80000 91500=
07190,1997-10-28 18:00:00,4,1032.7,1.9,44,-7,40000,22.224,,,30,-1.2,7.6,,,,,,,,,wg-a,,,,AAXX 28184 07190 12/82 00312 10040 21070 30135 40327 53019 60006 80000 91800 333 10076 21012=
07190,1997-10-28 21:00:00,0,1034.1,1.1,59,-7,35000,7.408,,,320,,,,,,,,,,,wg-a,,,,AAXX 28214 07190 12/81 03204 10000 21070 30146 40341 53011 60006 80000 92100=
07190,1997-10-29 00:00:00,0,1034.4,0.2,64,-6,500,22.224,,,10,,,,,,,,,,,wg-a,,,,AAXX 29004 07190 12/00 00112 10000 21060 30148 40344 51002 60006 80000 90000=
07190,1997-10-29 03:00:00,-1,1034.8,0.4,69,-6,500,14.816,,,20,,,,,,,,,,,wg-a,,,,AAXX 29034 07190 12/00 00208 11010 21060 30152 40348 52004 60006 80000 90300=
07190,1997-10-29 06:00:00,-2,1035.3,0.4,69,-7,40000,11.112,,,350,-2.1,3.7,,,,,,,,,wg-a,,,,AAXX 29064 07190 02/82 03506 11020 21070 30156 40353 52004 60006 80000 90600 333 10037 21021 60004=
07190,1997-10-29 09:00:00,2,1035.3,0.3,55,-6,40000,14.816,,,20,,,,,,,,,,,wg-a,,,,AAXX 29094 07190 12/82 10208 10020 21060 30159 40353 50003 60006 81030 90900=
07190,1997-10-29 12:00:00,7,1033.4,-1.5,39,-6,40000,29.632,,,20,,,,,,,,,,,wg-a,,,,AAXX 29124 07190 12/82 20216 10070 21060 30144 40334 58015 60006 81031 91200=
07190,1997-10-29 15:00:00,7,1032.5,-0.9,39,-6,25000,25.928,,,20,,,,,,,,,,,wg-a,,,,AAXX 29154 07190 12/75 30214 10070 21060 30135 40325 56009 60006 80001 91500=
07190,1997-10-29 18:00:00,4,1033.2,0.5,48,-6,500,22.224,,,20,-2.1,7.8,,,,,,,,,wg-a,,,,AAXX 29184 07190 12/00 20212 10040 21060 30140 40332 53005 60006 80001 91800 333 10078 21021=
07190,1997-10-29 21:00:00,2,1033.4,0,51,-7,500,14.816,,,20,,,,,,,,,,,wg-a,,,,AAXX 29214 07190 12/00 00208 10020 21070 30140 40334 50000 60006 80000 92100=
07190,1997-10-30 00:00:00,0,1032.3,-1.2,59,-7,20000,3.704,,,330,,,,,,,,,,,wg-a,,,,AAXX 30004 07190 12/70 03302 10000 21070 30128 40323 58012 60006 80000 90000=
07190,1997-10-30 06:00:00,-1,1030.6,-0.7,64,-7,15000,7.408,,,10,-1,4.3,,,,,,,,,wg-a,,,,AAXX 30064 07190 02/65 10104 11010 21070 30111 40306 56007 60006 80001 90600 333 10043 21010 60004=
07190,1997-10-30 09:00:00,4,1029.6,-0.7,56,-4,25000,18.52,,,30,,,,,,,,,,,wg-a,,,,AAXX 30094 07190 12/75 00310 10040 21040 30104 40296 58007 60006 80000 90900=
07190,1997-10-30 12:00:00,8,1027.3,-1.9,46,-3,25000,29.632,,,30,,,,,,,,,,,wg-a,,,,AAXX 30124 07190 12/75 10316 10080 21030 30085 40273 58019 60006 80001 91200=
07190,1997-10-30 18:00:00,6,1026.8,0.6,65,0,25000,14.816,,,350,-0.9,9.5,,,,,,,,,wg-a,,,,AAXX 30184 07190 12/75 13508 10060 20000 30078 40268 51006 60006 81030 91800 333 10095 21009=
07190,1997-10-30 21:00:00,4,1026.5,-0.4,75,0,25000,14.816,,,20,,,,,,,,,,,wg-a,,,,AAXX 30214 07190 12/75 00208 10040 20000 30074 40265 56004 60006 80000 92100=
07190,1997-10-31 00:00:00,2,1026.6,-0,80,-1,12000,7.408,,,350,,,,,,,,,,,wg-a,,,,AAXX 31004 07190 12/62 03504 10020 21010 30074 40266 55000 60006 80000 90000=
07190,1997-10-31 03:00:00,-2,1026.7,-0.2,93,-3,15000,7.408,,,320,,,,,,,,,,,wg-a,,,,AAXX 31034 07190 12/65 03204 11020 21030 30072 40267 57002 60006 80000 90300=
07190,1997-10-31 06:00:00,-3,1027,0.2,93,-4,6000,3.704,,,310,-3.2,5.7,,,,,,,,,wg-a,,,,AAXX 31064 07190 02/56 23102 11030 21040 30074 40270 51002 60006 82030 90600 333 10057 21032 60004=
07190,1997-10-31 09:00:00,1,1027.7,1,86,-1,6000,3.704,,,350,,,,,,,,,,,wg-a,,,,AAXX 31094 07190 12456 /3502 10010 21010 30084 40277 51010 60006 81230 90900=
07190,1997-10-31 12:00:00,6,1026.8,,52,-3,12000,7.408,,,350,,,,,,,,,,,wg-a,,,,AAXX 31124 07190 12/62 /3504 10060 21030 30078 40268 60006 81030 91200=
07190,1997-10-31 15:00:00,8,1026,-0.6,39,-5,12000,11.112,,,30,,,,,,,,,,,wg-a,,,,AAXX 31154 07190 12/62 20306 10080 21050 30072 40260 55006 60006 82030 91500=
07190,1997-10-31 18:00:00,2,1026.7,0.2,64,-4,10000,3.704,,,290,-3.6,7.8,,,,,,,,,wg-a,,,,AAXX 31184 07190 12/60 02902 10020 21040 30074 40267 50002 60006 80000 91800 333 10078 21036=
07190,1997-10-31 21:00:00,-2,1026.8,-0.1,80,-5,9000,3.704,,,240,,,,,,,,,,,wg-a,,,,AAXX 31214 07190 12/59 02402 11020 21050 30073 40268 55001 60006 80000 92100=
07190,1997-11-01 00:00:00,-4,1026.8,-0.2,86,-6,7000,3.704,,,210,,,,,,,,,,,wg-a,,,,AAXX 01004 07190 12/57 02102 11040 21060 30071 40268 57002 60006 80000 90000=
07190,1997-11-01 03:00:00,-5,1026.2,-0.6,93,-6,6000,0,,,0,,,,,,,,,,,wg-a,,,,AAXX 01034 07190 12/56 00000 11050 21060 30065 40262 58006 60006 80000 90300=
07190,1997-11-01 06:00:00,-4,1026,-0.1,100,-4,1200,0,,,0,-5.3,1.7,,,,,,,,10,wg-a,,,,AAXX 01064 07190 02112 /0000 11040 21040 30064 40260 57001 60006 71000 81600 90600 333 10017 21053 60004=
07190,1997-11-01 09:00:00,0,1026.3,0.6,93,-1,3600,3.704,,,360,,,,,,,,,,10,wg-a,,,,AAXX 01094 07190 12/36 /3602 10000 21010 30070 40263 51006 60006 71040 80000 90900=
07190,1997-11-01 12:00:00,5,1024.5,-1.5,65,-1,6000,3.704,,,10,,,,,,,,,,1,wg-a,,,,AAXX 01124 07190 12/56 /0102 10050 21010 30055 40245 58015 60006 70140 80001 91200=
07190,1997-11-01 15:00:00,7,1023.5,-1.6,66,1,7000,3.704,,,40,,,,,,,,,,,wg-a,,,,AAXX 01154 07190 32/57 00402 10070 20010 30047 40235 56016 80000 91500=
07190,1997-11-01 18:00:00,2,1023.8,-0.2,80,-1,6000,3.704,,,260,-4.2,7,,,,,,,,11,wg-a,,,,AAXX 01184 07190 12/56 /2602 10020 21010 30046 40238 56002 60006 71100 80001 91800 333 10070 21042=
07190,1997-11-01 21:00:00,-2,1023.6,-0.4,93,-3,6000,0,,,0,,,,,,,,,,11,wg-a,,,,AAXX 01214 07190 12/56 00000 11020 21030 30042 40236 55004 60006 71100 80000 92100=
07190,1997-11-02 00:00:00,-3,1023.3,-0.4,93,-4,3000,3.704,,,190,,,,,,,,,,,wg-a,,,,AAXX 02004 07190 12/30 01902 11030 21040 30038 40233 56004 60006 80000 90000=
07190,1997-11-02 03:00:00,-4,1022.7,-0.7,100,-4,2000,3.704,,,250,,,,,,,,,,40,wg-a,,,,AAXX 02034 07190 12/20 02502 11040 21040 30031 40227 56007 60006 74000 80000 90300=
07190,1997-11-02 06:00:00,-5,1022.5,-0.3,93,-6,100,0,,,0,-5,1.5,,,,,,,,41,wg-a,,,,AAXX 02064 07190 12/01 90000 11050 21060 30028 40225 56003 60006 74141 89/// 90600 333 10015 21050=
07190,1997-11-02 12:00:00,7,1020.4,-1.6,70,2,3700,7.408,,,40,,,,,,,,,,10,wg-a,,,,AAXX 02124 07190 12/37 00404 10070 20020 30016 40204 58016 60006 71041 80000 91200=
07190,1997-11-02 15:00:00,9,1018.9,-1.3,57,1,0,3.704,,,20,,,,,,,,,,,wg-a,,,,AAXX 02154 07190 12/// 00202 10090 20010 30003 40189 56013 60006 80000 91500=
07190,1997-11-02 18:00:00,3,1019.5,0.2,81,0,3500,3.704,,,320,-5,9,,,,,,,,10,wg-a,,,,AAXX 02184 07190 12/35 03202 10030 20000 30005 40195 53002 60006 71000 80000 91800 333 10090 21050=
07190,1997-11-02 21:00:00,-1,1019.8,-0,93,-2,3000,7.408,,,320,,,,,,,,,,10,wg-a,,,,AAXX 02214 07190 12/30 03204 11010 21020 30005 40198 55000 60006 71000 80000 92100=
07190,1997-11-03 00:00:00,-2,1019.5,-0.3,100,-2,3000,7.408,,,310,,,,,,,,,,10,wg-a,,,,AAXX 03004 07190 12/30 03104 11020 21020 30002 40195 56003 60006 71000 80000 90000=
07190,1997-11-03 06:00:00,0,1018.4,-0.3,93,-1,300,3.704,,,330,-2.3,2.6,,,,,,,,45,wg-a,,,,AAXX 03064 07190 02/03 93302 10000 21010 39992 40184 56003 60006 74541 89/// 90600 333 10026 21023 60004=
07190,1997-11-03 09:00:00,0,1018.8,0.4,93,-1,200,7.408,,,330,,,,,,,,,,45,wg-a,,,,AAXX 03094 07190 12/02 93304 10000 21010 39996 40188 51004 60006 74544 89/// 90900=
07190,1997-11-03 12:00:00,1,1018.2,-0.5,100,1,400,11.112,,,350,,,,,,,,,,43,wg-a,,,,AAXX 03124 07190 12/04 93506 10010 20010 39991 40182 58005 60006 74344 89/// 91200=
07190,1997-11-03 15:00:00,2,1016.7,-1.5,93,1,2000,3.704,,,280,,,,,,,,,,10,wg-a,,,,AAXX 03154 07190 12220 /2802 10020 20010 39976 40167 56015 60006 71042 876// 91500=
07190,1997-11-03 18:00:00,-1,1017,0.1,100,-1,600,7.408,,,230,-1,1.5,,,,,,,,10,wg-a,,,,AAXX 03184 07190 12106 52304 11010 21010 39977 40170 53001 60006 71041 85600 91800 333 10015 21010=
07190,1997-11-03 21:00:00,-3,1016.6,-0.5,100,-3,200,0,,,0,,,,,,,,,,49,wg-a,,,,AAXX 03214 07190 12/02 90000 11030 21030 39972 40166 57005 60006 74944 89/// 92100=
07190,1997-11-04 00:00:00,-5,1015.6,-1.1,100,-5,900,3.704,,,180,,,,,,,,,,48,wg-a,,,,AAXX 04004 07190 12109 /1802 11050 21050 39961 40156 56011 60006 74844 85600 90000=
07190,1997-11-04 03:00:00,-3,1014.7,-0.8,100,-3,200,3.704,,,180,,,,,,,,,,49,wg-a,,,,AAXX 04034 07190 12/02 91802 11030 21030 39953 40147 58008 60006 74942 89/// 90300=
07190,1997-11-04 06:00:00,-2,1014.2,-0.4,93,-3,200,3.704,,,190,-4.8,-1.1,,,,,,,,49,wg-a,,,,AAXX 04064 07190 02/02 91902 11020 21030 39949 40142 56004 60006 74942 89/// 90600 333 11011 21048 60004=
07190,1997-11-04 12:00:00,1,1013.8,-0.9,100,1,600,7.408,,,210,,,,,,,,,,42,wg-a,,,,AAXX 04124 07190 12106 82104 10010 20010 39947 40138 58009 60006 74244 886// 91200=
07190,1997-11-04 18:00:00,2,1013.2,-0.1,100,2,2500,3.704,,,300,-2.5,2.4,,,,,,,,10,wg-a,,,,AAXX 04184 07190 02325 83002 10020 20020 39942 40132 58001 61000 71064 8457/ 91800 333 10024 21025 6000=
07190,1997-11-04 21:00:00,3,1012.7,-0.4,93,2,2500,3.704,,,170,,,,0,,,,,,10,wg-a,,,,AAXX 04214 07190 12625 81702 10030 20020 39938 40127 55004 60007 71062 8257/ 92100=
07190,1997-11-05 00:00:00,3,1011.9,-0.8,100,3,2500,3.704,,,70,,,,,,,,,,10,wg-a,,,,AAXX 05004 07190 02425 80702 10030 20030 39930 40119 58008 60006 71062 8557/ 90000 333 61000=
07190,1997-11-05 03:00:00,4,1011.4,-0.4,100,4,1600,11.112,,,180,,,,1,,,,,,10,wg-a,,,,AAXX 05034 07190 12516 81806 10040 20040 39926 40114 58004 60017 71062 875// 90300=
07190,1997-11-05 06:00:00,5,1009.9,-1.4,100,5,1400,3.704,,,200,2.2,5.3,,,,,,,,10,wg-a,,,,AAXX 05064 07190 02114 82002 10050 20050 39912 40099 56014 61000 71062 8677/ 90600 333 10053 20022 6006=
07190,1997-11-05 12:00:00,9,1007.4,-1.9,100,9,1700,7.408,,,170,,,,,,,,,,10,wg-a,,,,AAXX 05124 07190 02217 81704 10090 20090 39890 40074 58019 61000 71062 8667/ 91200 333 ////=
07190,1997-11-05 15:00:00,10,1004.9,-2.3,93,9,1700,0,,,0,,,,,,,,,,10,wg-a,,,,AAXX 05154 07190 32217 80000 10100 20090 39866 40049 56023 71062 875// 91500=
07190,1997-11-05 18:00:00,10,1002.6,-2.2,93,9,2500,0,,,0,5.2,10.1,,,,,,,,10,wg-a,,,,AAXX 05184 07190 02325 80000 10100 20090 39844 40026 58022 61000 71062 885// 91800 333 10101 20052 6005=
07190,1997-11-05 21:00:00,9,1000.3,-2.4,100,9,700,7.408,,,70,,,,3,,,,,,61,wg-a,,,,AAXX 05214 07190 12107 80704 10090 20090 39820 40003 57024 60037 76166 885// 92100=
07190,1997-11-06 00:00:00,9,998.3,-1.9,93,8,1200,11.112,,,170,,,,2,,,,,,61,wg-a,,,,AAXX 06004 07190 02112 81706 10090 20080 39801 49983 56019 60056 76166 886// 90000 333 60027=
07190,1997-11-06 03:00:00,8,995.4,-2.9,100,8,2800,3.704,,,110,,,,1,,,,,,10,wg-a,,,,AAXX 06034 07190 12128 81102 10080 20080 39772 49954 58029 60017 71062 885// 90300=
07190,1997-11-06 06:00:00,8,993.8,-1.6,100,8,2200,3.704,,,230,8.2,9.5,,,,,,,,10,wg-a,,,,AAXX 06064 07190 02322 82302 10080 20080 39756 49938 58016 61000 71062 885// 90600 333 10095 20082 6021=
07190,1997-11-06 12:00:00,13,992.1,-0.2,88,11,7000,7.408,,,350,,,,,,,,,,1,wg-a,,,,AAXX 06124 07190 02257 73504 10130 20110 39742 49921 58002 60026 70164 83571 91200 333 61000=
07190,1997-11-06 15:00:00,13,991,-1,88,11,6000,7.408,,,320,,,,0,,,,,,21,wg-a,,,,AAXX 06154 07190 12656 73204 10130 20110 39732 49910 56010 60007 72162 85570 91500=
07190,1997-11-06 18:00:00,11,989.7,-1.4,94,10,4000,7.408,,,320,8.3,13.1,,,,,,,,10,wg-a,,,,AAXX 06184 07190 02240 83204 10110 20100 39718 49897 56014 61000 71062 8457/ 91800 333 10131 20083 6100=
07190,1997-11-06 21:00:00,10,990.1,0.3,100,10,4000,7.408,,,110,,,,,,,,,,10,wg-a,,,,AAXX 06214 07190 12340 71104 10100 20100 39721 49901 53003 60006 71022 875// 92100=
07190,1997-11-07 00:00:00,10,991.3,1.2,100,10,1600,7.408,,,170,,,,0,,,,,,10,wg-a,,,,AAXX 07004 07190 02116 81704 10100 20100 39733 49913 51012 60006 71062 875// 90000 333 60007=
07190,1997-11-07 06:00:00,10,994,2.4,100,10,10000,7.408,,,180,9.3,10.5,,,,,3,,,29,wg-a,,,,AAXX 07064 07190 02560 71804 10100 20100 39760 49940 53024 60006 72996 879// 90600 333 10105 20093 60034=
07190,1997-11-07 09:00:00,12,999,4.9,71,7,500,29.632,,,190,,,,,,,,,,,wg-a,,,,AAXX 07094 07190 12600 71916 10120 20070 39809 49990 51049 60006 878// 90900=
07190,1997-11-07 12:00:00,14,1000,1.2,63,7,500,29.632,,,210,,,,,,,,,,,wg-a,,,,AAXX 07124 07190 12600 72116 10140 20070 39821 40000 51012 60016 83802 91200=
07190,1997-11-07 18:00:00,8,1000.8,0.9,87,6,20000,3.704,,,120,8.3,14.9,,,,,,,,,wg-a,,,,AAXX 07184 07190 12/70 51202 10080 20060 39825 40008 51009 60006 81032 91800 333 10149 20083=
07190,1997-11-07 21:00:00,5,1001.3,0.3,93,4,20000,3.704,,,270,,,,,,,,,,,wg-a,,,,AAXX 07214 07190 12770 52702 10050 20040 39828 40013 53003 60006 83531 92100=
07190,1997-11-08 00:00:00,5,1000.4,-1,93,4,20000,0,,,0,,,,,,,,,,,wg-a,,,,AAXX 08004 07190 12/70 40000 10050 20040 39818 40004 56010 60016 83031 90000=
07190,1997-11-08 06:00:00,5,999.7,-0.1,100,5,15000,7.408,,,170,3.2,8.3,,,,,3,,,,wg-a,,,,AAXX 08064 07190 02665 61704 10050 20050 39812 49997 55001 60006 83531 90600 333 10083 20032 60034=
07190,1997-11-08 09:00:00,10,1001.3,1.9,87,8,15000,11.112,,,180,,,,,,,,,,21,wg-a,,,,AAXX 08094 07190 02665 71806 10100 20080 39831 40013 51019 61000 72162 85502 90900 333 ////=
07190,1997-11-08 12:00:00,14,1001.6,0.5,63,7,25000,18.52,,,210,,,,,,,,,,3,wg-a,,,,AAXX 08124 07190 12675 62110 10140 20070 39836 40016 51005 60016 70362 83232 91200=
07190,1997-11-08 15:00:00,12,1003,1.3,76,8,500,18.52,,,180,,,,1,,,,,,1,wg-a,,,,AAXX 08154 07190 12500 61810 10120 20080 39849 40030 53013 60017 70186 83872 91500=
07190,1997-11-08 18:00:00,8,1004,0.7,87,6,500,18.52,,,180,5.3,14.6,,,,,,,,1,wg-a,,,,AAXX 08184 07190 12/00 /1810 10080 20060 39856 40040 50007 60006 70186 80000 91800 333 10146 20053=
07190,1997-11-08 21:00:00,6,1003.1,-1,93,5,20000,11.112,,,150,,,,,,,,,,,wg-a,,,,AAXX 08214 07190 12/70 21506 10060 20050 39846 40031 58010 60006 81032 92100=
07190,1997-11-09 00:00:00,7,1001.3,-1.7,87,5,20000,11.112,,,180,,,,,,,,,,,wg-a,,,,AAXX 09004 07190 12/70 71806 10070 20050 39829 40013 58017 60006 8707/ 90000=
07190,1997-11-09 03:00:00,8,999.6,-1.6,81,5,20000,14.816,,,170,,,,,,,,,,,wg-a,,,,AAXX 09034 07190 12/70 81708 10080 20050 39813 49996 58016 60006 8707/ 90300=
07190,1997-11-09 06:00:00,8,1000.2,0.6,87,6,15000,11.112,,,140,5.3,9.3,,,,,1,,,3,wg-a,,,,AAXX 09064 07190 02665 81406 10080 20060 39819 40002 50006 60006 70362 8657/ 90600 333 10093 20053 60014=
07190,1997-11-09 09:00:00,9,1001.2,1,93,8,9000,18.52,,,180,,,,2,,,,,,61,wg-a,,,,AAXX 09094 07190 12659 81810 10090 20080 39829 40012 52010 60027 76162 875// 90900=
07190,1997-11-09 12:00:00,9,1001.5,0.4,93,8,12000,25.928,,,190,,,,1,,,,,,60,wg-a,,,,AAXX 09124 07190 02162 81914 10090 20080 39833 40015 50004 60036 76062 878// 91200 333 60017=
07190,1997-11-09 15:00:00,10,1001.6,0.1,82,7,25000,11.112,,,160,,,,0,,,,,,1,wg-a,,,,AAXX 09154 07190 12675 /1606 10100 20070 39834 40016 53001 60007 70186 86200 91500=
07190,1997-11-09 18:00:00,7,1001.8,-0,93,6,20000,11.112,,,150,7.1,11.3,,,,,,,,1,wg-a,,,,AAXX 09184 07190 02670 21506 10070 20060 39834 40018 55000 61000 70186 81530 91800 333 10113 20071 6000=
07190,1997-11-09 21:00:00,9,1001.6,-0.1,76,5,20000,25.928,,,190,,,,0,,,,,,25,wg-a,,,,AAXX 09214 07190 12670 21914 10090 20050 39833 40016 56001 60007 72586 82500 92100=
07190,1997-11-10 00:00:00,9,1002.9,1.3,76,5,20000,22.224,,,180,,,,,,,,,,3,wg-a,,,,AAXX 10004 07190 12670 31812 10090 20050 39846 40029 53013 60006 70386 83500 90000=
07190,1997-11-10 03:00:00,8,1003.7,0.7,87,6,20000,18.52,,,160,,,,,,,,,,,wg-a,,,,AAXX 10034 07190 12670 71610 10080 20060 39853 40037 50007 60006 875// 90300=
07190,1997-11-10 06:00:00,8,1004.1,0.4,81,5,20000,14.816,,,200,5.8,9.4,,,,,4,,,,wg-a,,,,AAXX 10064 07190 02670 /2008 10080 20050 39857 40041 53004 60006 85500 90600 333 10094 20058 60044=
07190,1997-11-10 09:00:00,11,1004.6,0.7,71,6,40000,14.816,,,190,,,,,,,,,,,wg-a,,,,AAXX 10094 07190 12682 61908 10110 20060 39864 40046 51007 60006 85830 90900=
07190,1997-11-10 12:00:00,13,1003.2,-1.2,58,5,40000,22.224,,,190,,,,,,,,,,,wg-a,,,,AAXX 10124 07190 12682 61912 10130 20050 39852 40032 56012 60006 83831 91200=
07190,1997-11-10 15:00:00,13,1001.3,-1.9,58,5,40000,22.224,,,180,,,,,,,,,,,wg-a,,,,AAXX 10154 07190 12682 /1812 10130 20050 39833 40013 58019 60006 85831 91500=
07190,1997-11-10 18:00:00,10,1002.2,0.7,76,6,20000,22.224,,,190,7.6,14.3,,,,,,,,21,wg-a,,,,AAXX 10184 07190 02670 81912 10100 20060 39840 40022 53007 61000 72162 8587/ 91800 333 10143 20076 6000=
07190,1997-11-11 00:00:00,8,1004.3,0.2,81,5,20000,11.112,,,180,,,,,,,,,,1,wg-a,,,,AAXX 11004 07190 12670 71806 10080 20050 39859 40043 50002 60016 70186 8257/ 90000=
07190,1997-11-11 03:00:00,6,1003.9,-0.5,87,4,20000,14.816,,,180,,,,,,,,,,,wg-a,,,,AAXX 11034 07190 12670 /1808 10060 20040 39854 40039 56005 60006 81500 90300=
07190,1997-11-11 06:00:00,3,1002.9,-1.2,93,2,500,7.408,,,200,2.3,10.4,,,,,1,,,,wg-a,,,,AAXX 11064 07190 02700 22004 10030 20020 39842 40029 58012 60006 81502 90600 333 10104 20023 60014=
07190,1997-11-11 12:00:00,10,1002.5,-1.2,76,6,500,3.704,,,160,,,,,,,,,,,wg-a,,,,AAXX 11124 07190 12600 /1602 10100 20060 39842 40025 58012 60006 84842 91200=
07190,1997-11-11 15:00:00,11,1001.9,-0.5,66,5,500,3.704,,,250,,,,,,,,,,15,wg-a,,,,AAXX 11154 07190 12600 72502 10110 20050 39837 40019 56005 60006 71522 8687/ 91500=
07190,1997-11-11 18:00:00,8,1000.8,-1.2,93,7,9000,7.408,,,350,2.4,11.5,,,,,,,,61,wg-a,,,,AAXX 11184 07190 02559 83504 10080 20070 39825 40008 56012 61000 76162 8482/ 91800 333 10115 20024 6001=
07190,1997-11-11 21:00:00,7,1000.8,-0.1,100,7,15000,7.408,,,350,,,,1,,,,,,21,wg-a,,,,AAXX 11214 07190 12565 83504 10070 20070 39824 40008 58001 60017 72162 8582/ 92100=
07190,1997-11-12 00:00:00,7,999.4,-1.4,93,6,6000,7.408,,,260,,,,0,,,,,,60,wg-a,,,,AAXX 12004 07190 02656 82604 10070 20060 39810 49994 56014 60026 76062 8652/ 90000 333 60007=
07190,1997-11-12 03:00:00,6,998.8,-0.6,100,6,6000,0,,,0,,,,0,,,,,,,wg-a,,,,AAXX 12034 07190 12456 80000 10060 20060 39804 49988 55006 60007 8482/ 90300=
07190,1997-11-12 06:00:00,6,998.6,-0.2,100,6,2800,0,,,0,6,8,,,,,,,,10,wg-a,,,,AAXX 12064 07190 02428 80000 10060 20060 39802 49986 56002 61000 71062 8582/ 90600 333 10080 20060 6004=
07190,1997-11-12 09:00:00,7,999.9,1.3,100,7,1500,3.704,,,170,,,,1,,,,,,10,wg-a,,,,AAXX 12094 07190 12115 81702 10070 20070 39815 49999 52013 60017 71062 877// 90900=
07190,1997-11-12 12:00:00,8,999.6,-0.2,93,7,3000,11.112,,,190,,,,1,,,,,,10,wg-a,,,,AAXX 12124 07190 02230 81906 10080 20070 39813 49996 58002 60026 71065 877// 91200 333 60017=
07190,1997-11-12 18:00:00,7,1002.6,1.7,93,6,7000,18.52,,,180,6,7.8,,,,,,,,61,wg-a,,,,AAXX 12184 07190 02357 81810 10070 20060 39842 40026 53017 61000 76166 888// 91800 333 10078 20060 6002=
07190,1997-11-12 21:00:00,7,1004.1,1.4,93,6,10000,18.52,,,180,,,,1,,,,,,61,wg-a,,,,AAXX 12214 07190 12260 81810 10070 20060 39856 40041 52014 60017 76166 888// 92100=
07190,1997-11-13 00:00:00,7,1006.1,2,81,4,15000,18.52,,,230,,,,0,,,,,,1,wg-a,,,,AAXX 13004 07190 02565 72310 10070 20040 39876 40061 53020 60026 70162 875// 90000 333 60007=
07190,1997-11-13 03:00:00,6,1007.2,1,93,5,15000,7.408,,,210,,,,,,,,,,,wg-a,,,,AAXX 13034 07190 12665 72104 10060 20050 39886 40072 51010 60006 875// 90300=
07190,1997-11-13 06:00:00,6,1007.9,0.7,93,5,15000,11.112,,,190,6,7.1,,,,,,,,21,wg-a,,,,AAXX 13064 07190 02565 71906 10060 20050 39893 40079 53007 61000 72162 875// 90600 333 10071 20060 6010=
07190,1997-11-13 09:00:00,7,1008.9,1,93,6,15000,7.408,,,150,,,,,,,,,,,wg-a,,,,AAXX 13094 07190 12565 71504 10070 20060 39903 40089 53010 60006 8687/ 90900=
07190,1997-11-13 12:00:00,9,1008.6,-0.1,81,6,15000,0,,,0,,,,,,,,,,,wg-a,,,,AAXX 13124 07190 12465 70000 10090 20060 39902 40086 58001 60006 878// 91200=
07190,1997-11-13 15:00:00,8,1008.4,-0.2,87,6,15000,7.408,,,30,,,,,,,,,,,wg-a,,,,AAXX 13154 07190 12565 70304 10080 20060 39900 40084 55002 60006 878// 91500=
07190,1997-11-13 18:00:00,6,1009.4,0.8,93,5,10000,3.704,,,290,5.7,9.5,,,,,,,,,wg-a,,,,AAXX 13184 07190 12560 72902 10060 20050 39908 40094 53008 60006 875// 91800 333 10095 20057=
07190,1997-11-13 21:00:00,4,1010.5,0.9,100,4,500,3.704,,,110,,,,,,,,,,,wg-a,,,,AAXX 13214 07190 12700 41102 10040 20040 39917 40105 53009 60006 84500 92100=
07190,1997-11-14 00:00:00,4,1011.4,0.9,100,4,2500,3.704,,,310,,,,,,,,,,10,wg-a,,,,AAXX 14004 07190 12625 73102 10040 20040 39926 40114 52009 60006 71011 8453/ 90000=
07190,1997-11-14 03:00:00,4,1011.6,0.2,100,4,2500,3.704,,,220,,,,,,,,,,,wg-a,,,,AAXX 14034 07190 12725 72202 10040 20040 39928 40116 50002 60006 875// 90300=
07190,1997-11-14 06:00:00,3,1013.2,1.5,100,3,600,3.704,,,170,3.1,6,,,,,,,,44,wg-a,,,,AAXX 14064 07190 02/06 91702 10030 20030 39943 40132 53015 60006 74441 89/// 90600 333 10060 20031 60004=
07190,1997-11-14 09:00:00,4,1015.7,2.5,100,4,1500,7.408,,,190,,,,,,,,,,10,wg-a,,,,AAXX 14094 07190 12115 71904 10040 20040 39968 40157 51025 60006 71042 8563/ 90900=
07190,1997-11-14 12:00:00,6,1015.9,0.3,93,5,3000,7.408,,,190,,,,,,,,,,10,wg-a,,,,AAXX 14124 07190 12130 71904 10060 20050 39971 40159 50003 60006 71042 8463/ 91200=
07190,1997-11-14 15:00:00,6,1016.7,0.9,93,5,4000,3.704,,,200,,,,,,,,,,10,wg-a,,,,AAXX 14154 07190 12240 72002 10060 20050 39980 40167 53009 60006 71022 825// 91500=
07190,1997-11-14 18:00:00,6,1018.3,1.5,93,5,3000,3.704,,,190,2.8,6.4,,,,,,,,10,wg-a,,,,AAXX 14184 07190 12730 71902 10060 20050 39995 40183 53015 60006 71022 875// 91800 333 10064 20028=
07190,1997-11-14 21:00:00,5,1019.7,1.3,93,4,3500,7.408,,,230,,,,,,,,,,10,wg-a,,,,AAXX 14214 07190 12735 /2304 10050 20040 30008 40197 53013 60006 71022 85500 92100=
07190,1997-11-15 00:00:00,2,1021.2,1.3,100,2,600,3.704,,,130,,,,,,,,,,44,wg-a,,,,AAXX 15004 07190 12106 51302 10020 20020 30021 40212 51013 60006 74441 85600 90000=
07190,1997-11-15 03:00:00,2,1021.2,-0,100,2,400,7.408,,,190,,,,,,,,,,45,wg-a,,,,AAXX 15034 07190 12/04 91904 10020 20020 30021 40212 54000 60006 74542 89/// 90300=
07190,1997-11-15 06:00:00,0,1022.2,0.8,100,0,3000,3.704,,,230,-0.1,5.8,,,,,,,,10,wg-a,,,,AAXX 15064 07190 02230 /2302 10000 20000 30029 40222 53008 60006 71041 81602 90600 333 10058 21001 60004=
07190,1997-11-15 09:00:00,3,1023.2,1.2,93,2,7000,7.408,,,200,,,,,,,,,,,wg-a,,,,AAXX 15094 07190 12257 /2004 10030 20020 30041 40232 51012 60006 81632 90900=
07190,1997-11-15 12:00:00,7,1021.7,-1.2,76,3,500,14.816,,,200,,,,,,,,,,,wg-a,,,,AAXX 15124 07190 12700 72008 10070 20030 30029 40217 58012 60006 875// 91200=
07190,1997-11-15 15:00:00,8,1020.9,-0.7,81,5,18000,7.408,,,170,,,,,,,,,,,wg-a,,,,AAXX 15154 07190 12/68 71704 10080 20050 30022 40209 56007 60006 8703/ 91500=
07190,1997-11-15 18:00:00,6,1020.6,-0.4,87,4,10000,3.704,,,200,-0.2,7.9,,,,,,,,,wg-a,,,,AAXX 15184 07190 12/60 72002 10060 20040 30018 40206 56004 60006 8703/ 91800 333 10079 21002=
07190,1997-11-15 21:00:00,6,1019.3,-1.3,87,4,10000,7.408,,,170,,,,,,,,,,,wg-a,,,,AAXX 15214 07190 12660 71704 10060 20040 30005 40193 58013 60006 84532 92100=
07190,1997-11-16 00:00:00,7,1018.8,-0.4,81,4,10000,11.112,,,180,,,,,,,,,,,wg-a,,,,AAXX 16004 07190 12560 81806 10070 20040 30001 40188 55004 60006 875// 90000=
07190,1997-11-16 03:00:00,6,1018.6,-0.3,93,5,8000,3.704,,,250,,,,,,,,,,,wg-a,,,,AAXX 16034 07190 32558 82502 10060 20050 39998 40186 58003 875// 90300=
07190,1997-11-16 06:00:00,6,1019.3,0.7,93,5,3000,3.704,,,170,5.3,7,,,,,,,,50,wg-a,,,,AAXX 16064 07190 02230 81702 10060 20050 30005 40193 52007 61000 75065 875// 90600 333 10070 20053 6001=
07190,1997-11-16 09:00:00,7,1019.7,0.5,93,6,8000,3.704,,,150,,,,,,,,,,1,wg-a,,,,AAXX 16094 07190 02458 81502 10070 20060 30010 40197 53005 61000 70152 875// 90900 333 ////=
07190,1997-11-16 12:00:00,9,1018.9,-0.7,87,7,12000,0,,,0,,,,,,,,,,1,wg-a,,,,AAXX 16124 07190 02462 70000 10090 20070 30003 40189 58007 61000 70152 878// 91200 333 ////=
07190,1997-11-16 15:00:00,10,1018.5,-0.3,82,7,10000,7.408,,,10,,,,,,,,,,,wg-a,,,,AAXX 16154 07190 12460 70104 10100 20070 30000 40185 55003 60006 878// 91500=
07190,1997-11-16 18:00:00,9,1019.8,1.2,87,7,10000,7.408,,,330,6.1,10.2,,,,,,,,,wg-a,,,,AAXX 16184 07190 12460 83304 10090 20070 30012 40198 53012 60006 878// 91800 333 10102 20061=
07190,1997-11-16 21:00:00,8,1020,0.1,93,7,7000,7.408,,,340,,,,,,,,,,3,wg-a,,,,AAXX 16214 07190 02557 73404 10080 20070 30013 40200 50001 61000 70352 875// 92100 333 ////=
07190,1997-11-17 00:00:00,8,1019.7,-0.3,87,6,9000,11.112,,,20,,,,,,,,,,1,wg-a,,,,AAXX 17004 07190 02559 70206 10080 20060 30010 40197 58003 61000 70152 878// 90000 333 ////=
07190,1997-11-17 03:00:00,5,1020,0.1,93,4,6000,3.704,,,330,,,,,,,,,,,wg-a,,,,AAXX 17034 07190 12556 33302 10050 20040 30011 40200 50001 60006 83500 90300=
07190,1997-11-17 06:00:00,4,1020.8,0.7,100,4,600,11.112,,,350,3.4,8.8,,,,,,,,12,wg-a,,,,AAXX 17064 07190 02/06 93506 10040 20040 30018 40208 53007 60006 71211 89/// 90600 333 10088 20034 61000=
07190,1997-11-17 09:00:00,4,1021.6,0.8,100,4,1500,11.112,,,350,,,,,,,,,,10,wg-a,,,,AAXX 17094 07190 12115 83506 10040 20040 30026 40216 51008 60006 71042 886// 90900=
07190,1997-11-17 12:00:00,6,1020.4,-1,93,5,4000,7.408,,,330,,,,,,,,,,10,wg-a,,,,AAXX 17124 07190 12340 /3304 10060 20050 30016 40204 58010 60006 71042 86500 91200=
07190,1997-11-17 15:00:00,9,1018.7,-1.5,76,5,8000,3.704,,,160,,,,,,,,,,,wg-a,,,,AAXX 17154 07190 12558 61602 10090 20050 30001 40187 56015 60006 86500 91500=
07190,1997-11-17 18:00:00,5,1018.9,-0.1,81,2,10000,7.408,,,350,3.9,9.4,,,,,,,,,wg-a,,,,AAXX 17184 07190 12360 23504 10050 20020 30000 40189 56001 60006 82100 91800 333 10094 20039=
07190,1997-11-17 21:00:00,2,1018.7,-0.4,93,1,10000,7.408,,,360,,,,,,,,,,,wg-a,,,,AAXX 17214 07190 12/60 03604 10020 20010 39996 40187 58004 60006 80000 92100=
07190,1997-11-18 00:00:00,0,1017.6,-1.2,100,0,9000,3.704,,,320,,,,,,,,,,,wg-a,,,,AAXX 18004 07190 12/59 03202 10000 20000 39984 40176 57012 60006 80000 90000=
07190,1997-11-18 06:00:00,-2,1016.4,-0,100,-2,1100,0,,,0,-2.4,4.6,,,,,,,,28,wg-a,,,,AAXX 18064 07190 02011 60000 11020 21020 39971 40164 54000 60006 72841 86600 90600 333 10046 21024 60004=
07190,1997-11-18 09:00:00,-1,1016.1,-0.2,100,-1,200,3.704,,,320,,,,,,,,,,49,wg-a,,,,AAXX 18094 07190 12/02 93202 11010 21010 39969 40161 58002 60006 74942 89/// 90900=
07190,1997-11-18 12:00:00,1,1014.9,-1.1,100,1,1100,7.408,,,340,,,,,,,,,,28,wg-a,,,,AAXX 18124 07190 12111 93404 10010 20010 39958 40149 58011 60006 72842 896// 91200=
07190,1997-11-18 15:00:00,6,1013.2,-1.3,87,4,500,3.704,,,300,,,,,,,,,,,wg-a,,,,AAXX 18154 07190 12/00 03002 10060 20040 39945 40132 56013 60006 80000 91500=
07190,1997-11-18 18:00:00,2,1012.5,,93,1,6000,7.408,,,310,-1.7,6.1,,,,,,,,,wg-a,,,,AAXX 18184 07190 12/56 03104 10020 20010 39935 40125 60006 80000 91800 333 10061 21017=
07190,1997-11-19 00:00:00,-1,1011.1,-1,100,-1,2000,3.704,,,340,,,,,,,,,,10,wg-a,,,,AAXX 19004 07190 12/20 03402 11010 21010 39920 40111 56010 60006 71000 80000 90000=
07190,1997-11-19 06:00:00,-2,1008.6,-1,100,-2,2000,7.408,,,300,-2.1,1.8,,,,,,,,11,wg-a,,,,AAXX 19064 07190 02620 13004 11020 21020 39894 40086 56010 60006 71100 81500 90600 333 10018 21021 60004=
07190,1997-11-19 09:00:00,0,1007.8,-0.6,100,0,2500,3.704,,,10,,,,,,,,,,10,wg-a,,,,AAXX 19094 07190 12/25 00102 10000 20000 39888 40078 56006 60006 71000 80000 90900=
07190,1997-11-19 12:00:00,5,1006.2,-1.2,75,1,6000,7.408,,,100,,,,,,,,,,,wg-a,,,,AAXX 19124 07190 12556 /1004 10050 20010 39876 40062 58012 60006 81101 91200=
07190,1997-11-19 15:00:00,5,1005.6,-0.7,65,-1,8000,0,,,0,,,,,,,,,,,wg-a,,,,AAXX 19154 07190 12/58 /0000 10050 21010 39869 40056 56007 60006 81031 91500=
07190,1997-11-19 18:00:00,1,1005.9,0.1,86,-1,6000,3.704,,,150,-2.1,6.2,,,,,,,,,wg-a,,,,AAXX 19184 07190 12/56 /1502 10010 21010 39870 40059 52001 60006 80001 91800 333 10062 21021=
07190,1997-11-19 21:00:00,1,1005.6,-0.3,86,-1,8000,11.112,,,110,,,,,,,,,,,wg-a,,,,AAXX 19214 07190 12558 81106 10010 21010 39867 40056 58003 60006 875// 92100=
07190,1997-11-20 03:00:00,1,1004.5,-0.6,93,0,2000,7.408,,,340,,,,1,,,,,,10,wg-a,,,,AAXX 20034 07190 12220 83404 10010 20000 39856 40045 58006 60017 71062 887// 90300=
07190,1997-11-20 06:00:00,1,1003.9,-0.6,93,0,3000,7.408,,,340,-0.1,1.7,,,,,,,,10,wg-a,,,,AAXX 20064 07190 02130 83404 10010 20000 39850 40039 56006 61000 71062 886// 90600 333 10017 21001 6004=
07190,1997-11-20 09:00:00,1,1004.3,0.4,93,0,2400,7.408,,,10,,,,,,,,,,10,wg-a,,,,AAXX 20094 07190 02124 80104 10010 20000 39854 40043 53004 61000 71062 886// 90900 333 ////=
07190,1997-11-20 12:00:00,3,1003.6,-0.5,93,2,2500,7.408,,,360,,,,,,,,,,10,wg-a,,,,AAXX 20124 07190 02225 83604 10030 20020 39849 40036 58005 61000 71062 886// 91200 333 6100=
07190,1997-11-20 15:00:00,3,1004,0.3,93,2,1400,7.408,,,10,,,,0,,,,,,10,wg-a,,,,AAXX 20154 07190 12114 80104 10030 20020 39852 40040 53003 60007 71062 886// 91500=
07190,1997-11-20 18:00:00,3,1005.3,1.3,93,2,2700,3.704,,,100,0.5,3.2,,,,,,,,10,wg-a,,,,AAXX 20184 07190 02227 81002 10030 20020 39865 40053 53013 61000 71062 885// 91800 333 10032 20005 6001=
07190,1997-11-20 21:00:00,3,1006.6,1.3,93,2,2000,0,,,0,,,,0,,,,,,10,wg-a,,,,AAXX 20214 07190 12220 80000 10030 20020 39878 40066 51013 60007 71062 876// 92100=
07190,1997-11-21 00:00:00,3,1007.7,1.1,100,3,3000,7.408,,,50,,,,0,,,,,,10,wg-a,,,,AAXX 21004 07190 02130 70504 10030 20030 39889 40077 53011 60016 71062 875// 90000 333 60007=
07190,1997-11-21 03:00:00,2,1008.7,0.9,100,2,2000,3.704,,,290,,,,,,,,,,11,wg-a,,,,AAXX 21034 07190 12620 72902 10020 20020 39898 40087 53009 60006 71122 875// 90300=
07190,1997-11-21 06:00:00,4,1009.9,1.4,100,4,7000,11.112,,,190,1.5,4.6,,,,,2,,,1,wg-a,,,,AAXX 21064 07190 02657 71906 10040 20040 39912 40099 52014 60006 70142 875// 90600 333 10046 20015 60024=
07190,1997-11-21 09:00:00,8,1011.1,1.4,93,7,9000,7.408,,,170,,,,,,,,,,,wg-a,,,,AAXX 21094 07190 12459 61704 10080 20070 39926 40111 52014 60006 86800 90900=
07190,1997-11-21 12:00:00,11,1011.1,0.2,76,7,15000,7.408,,,230,,,,,,,,,,,wg-a,,,,AAXX 21124 07190 12665 72304 10110 20070 39928 40111 50002 60006 875// 91200=
07190,1997-11-21 15:00:00,10,1011.5,0.3,82,7,20000,3.704,,,250,,,,,,,,,,1,wg-a,,,,AAXX 21154 07190 02770 32502 10100 20070 39931 40115 53003 61000 70161 83200 91500 333 ////=
07190,1997-11-21 18:00:00,6,1012.3,0.5,93,5,8000,7.408,,,320,3.9,11.4,,,,,,,,1,wg-a,,,,AAXX 21184 07190 12758 23204 10060 20050 39936 40123 53005 60006 70161 82500 91800 333 10114 20039=
07190,1997-11-21 21:00:00,3,1013.4,0.9,100,3,2000,0,,,0,,,,,,,,,,12,wg-a,,,,AAXX 21214 07190 12/20 00000 10030 20030 39945 40134 52009 60006 71200 80000 92100=
07190,1997-11-22 00:00:00,1,1013.3,-0.3,93,0,900,3.704,,,70,,,,,,,,,,41,wg-a,,,,AAXX 22004 07190 12109 30702 10010 20000 39942 40133 58003 60006 74140 83601 90000=
07190,1997-11-22 03:00:00,2,1013.6,0.4,100,2,400,7.408,,,350,,,,,,,,,,47,wg-a,,,,AAXX 22034 07190 12/04 93504 10020 20020 39946 40136 51004 60006 74741 89/// 90300=
07190,1997-11-22 06:00:00,1,1014.3,0.7,100,1,400,11.112,,,10,-0.1,6,,,,,,,,45,wg-a,,,,AAXX 22064 07190 02/04 90106 10010 20010 39953 40143 53007 60006 74541 89/// 90600 333 10060 21001 61000=
07190,1997-11-22 09:00:00,2,1015.6,1.3,100,2,400,11.112,,,350,,,,,,,,,,45,wg-a,,,,AAXX 22094 07190 12/04 93506 10020 20020 39966 40156 52013 60006 74544 89/// 90900=
07190,1997-11-22 12:00:00,3,1015.1,-0.4,100,3,600,11.112,,,360,,,,,,,,,,45,wg-a,,,,AAXX 22124 07190 12/06 93606 10030 20030 39962 40151 58004 60006 74544 89/// 91200=
07190,1997-11-22 15:00:00,3,1015.4,0.3,100,3,400,7.408,,,10,,,,,,,,,,45,wg-a,,,,AAXX 22154 07190 12/04 90104 10030 20030 39965 40154 53003 60006 74544 89/// 91500=
07190,1997-11-22 18:00:00,3,1017,1.5,100,3,1100,7.408,,,30,1.3,3.5,,,,,,,,28,wg-a,,,,AAXX 22184 07190 12011 90304 10030 20030 39980 40170 53015 60006 72842 896// 91800 333 10035 20013=
07190,1997-11-22 21:00:00,3,1017.8,0.8,100,3,1500,7.408,,,350,,,,0,,,,,,10,wg-a,,,,AAXX 22214 07190 12115 83504 10030 20030 39988 40178 53008 60007 71022 886// 92100=
07190,1997-11-23 00:00:00,3,1018.3,0.5,100,3,3000,7.408,,,360,,,,0,,,,,,10,wg-a,,,,AAXX 23004 07190 02230 83604 10030 20030 39993 40183 51005 60006 71022 886// 90000 333 60007=
07190,1997-11-23 03:00:00,3,1019.2,0.9,100,3,2500,3.704,,,10,,,,,,,,,,10,wg-a,,,,AAXX 23034 07190 12225 80102 10030 20030 30002 40192 51009 60006 71022 886// 90300=
07190,1997-11-23 06:00:00,3,1019.9,0.7,100,3,3000,3.704,,,30,2.8,3.5,,,,,,,,10,wg-a,,,,AAXX 23064 07190 02130 80302 10030 20030 30009 40199 53007 60006 71022 886// 90600 333 10035 20028 60004=
07190,1997-11-23 12:00:00,5,1021.2,-0.1,87,3,8000,7.408,,,10,,,,,,,,,,,wg-a,,,,AAXX 23124 07190 12458 80104 10050 20030 30023 40212 58001 60006 875// 91200=
07190,1997-11-23 15:00:00,5,1021.8,0.5,81,2,9000,11.112,,,10,,,,,,,,,,,wg-a,,,,AAXX 23154 07190 12359 80106 10050 20020 30028 40218 53005 60006 875// 91500=
07190,1997-11-23 18:00:00,4,1022.6,0.8,93,3,6000,3.704,,,20,3.1,4.9,,,,,,,,,wg-a,,,,AAXX 23184 07190 12456 80202 10040 20030 30036 40226 51008 60006 875// 91800 333 10049 20031=
07190,1997-11-23 21:00:00,4,1022.3,-0.3,87,2,6000,3.704,,,350,,,,,,,,,,,wg-a,,,,AAXX 23214 07190 12456 83502 10040 20020 30033 40223 55003 60006 875// 92100=
07190,1997-11-24 00:00:00,4,1021.4,-0.9,93,3,6000,11.112,,,50,,,,,,,,,,,wg-a,,,,AAXX 24004 07190 12556 80506 10040 20030 30024 40214 58009 60006 875// 90000=
07190,1997-11-24 03:00:00,3,1020.6,-0.8,100,3,4000,3.704,,,20,,,,,,,,,,10,wg-a,,,,AAXX 24034 07190 12540 80202 10030 20030 30016 40206 58008 60006 71022 875// 90300=
07190,1997-11-24 06:00:00,2,1019.5,-1.2,93,1,9000,7.408,,,350,2,3.9,,,,,,,,,wg-a,,,,AAXX 24064 07190 02559 /3504 10020 20010 30004 40195 56012 60006 82530 90600 333 10039 20020 60004=
07190,1997-11-24 12:00:00,5,1016.1,-2.1,75,1,12000,7.408,,,20,,,,,,,,,,,wg-a,,,,AAXX 24124 07190 12/62 /0204 10050 20010 39973 40161 58021 60006 80006 91200=
07190,1997-11-24 15:00:00,5,1014.3,-1.8,81,2,15000,3.704,,,220,,,,,,,,,,,wg-a,,,,AAXX 24154 07190 12/65 72202 10050 20020 39955 40143 56018 60006 83032 91500=
07190,1997-11-24 18:00:00,3,1013.7,-0.7,87,1,9000,3.704,,,210,0.8,5.7,,,,,,,,,wg-a,,,,AAXX 24184 07190 12/59 72102 10030 20010 39948 40137 55007 60006 81032 91800 333 10057 20008=
07190,1997-11-24 21:00:00,1,1012.6,-1.2,93,0,7000,7.408,,,340,,,,,,,,,,,wg-a,,,,AAXX 24214 07190 12/57 73404 10010 20000 39936 40126 56012 60006 84032 92100=
07190,1997-11-25 00:00:00,0,1012.2,-0.5,100,0,7000,7.408,,,330,,,,,,,,,,,wg-a,,,,AAXX 25004 07190 12/57 73304 10000 20000 39931 40122 56005 60006 83032 90000=
07190,1997-11-25 03:00:00,0,1012.1,-0.1,93,-1,500,0,,,0,,,,,,,,,,,wg-a,,,,AAXX 25034 07190 12/00 /0000 10000 21010 39930 40121 58001 60006 80001 90300=
07190,1997-11-25 06:00:00,0,1011.5,-0.6,93,-1,4000,3.704,,,90,-1,2.8,,,,,,,,10,wg-a,,,,AAXX 25064 07190 02/40 50902 10000 21010 39924 40115 58006 60006 71022 83031 90600 333 10028 21010 60004=
07190,1997-11-25 09:00:00,1,1011.9,0.5,100,1,1800,3.704,,,330,,,,,,,,,,40,wg-a,,,,AAXX 25094 07190 12218 /3302 10010 20010 39929 40119 53005 60006 74022 81642 90900=
07190,1997-11-25 12:00:00,3,1011.2,-0.5,93,2,3700,3.704,,,340,,,,,,,,,,10,wg-a,,,,AAXX 25124 07190 12837 83402 10030 20020 39924 40112 58005 60006 71022 8557/ 91200=
07190,1997-11-25 18:00:00,2,1010.3,-0,93,1,4800,0,,,0,-0.4,4.3,,,,,,,,11,wg-a,,,,AAXX 25184 07190 12848 /0000 10020 20010 39913 40103 55000 60006 71111 81502 91800 333 10043 21004=
07190,1997-11-25 21:00:00,-1,1010.6,0.2,100,-1,3000,0,,,0,,,,,,,,,,10,wg-a,,,,AAXX 25214 07190 12/30 10000 11010 21010 39915 40106 52002 60006 71000 81030 92100=
07190,1997-11-26 00:00:00,1,1010.4,-0.1,93,0,2000,3.704,,,280,,,,,,,,,,10,wg-a,,,,AAXX 26004 07190 12/20 72802 10010 20000 39914 40104 55001 60006 71011 8703/ 90000=
07190,1997-11-26 03:00:00,1,1010.4,-0,100,1,2000,7.408,,,350,,,,,,,,,,10,wg-a,,,,AAXX 26034 07190 12220 73504 10010 20010 39914 40104 54000 60006 71022 876// 90300=
07190,1997-11-26 06:00:00,1,1010.8,0.4,100,1,4000,3.704,,,340,-0.6,1.5,,,,,,,,10,wg-a,,,,AAXX 26064 07190 02240 83402 10010 20010 39918 40108 53004 60006 71022 876// 90600 333 10015 21006 60004=
07190,1997-11-26 09:00:00,2,1011.6,0.9,100,2,2500,7.408,,,360,,,,,,,,,,10,wg-a,,,,AAXX 26094 07190 12225 83604 10020 20020 39927 40116 52009 60006 71022 876// 90900=
07190,1997-11-26 12:00:00,3,1011.8,0.2,93,2,3500,3.704,,,10,,,,,,,,,,10,wg-a,,,,AAXX 26124 07190 12335 80102 10030 20020 39929 40118 50002 60006 71022 876// 91200=
07190,1997-11-26 15:00:00,2,1012.4,0.6,93,1,2000,7.408,,,210,,,,,,,,,,10,wg-a,,,,AAXX 26154 07190 12/20 72104 10020 20010 39935 40124 53006 60006 71011 83032 91500=
07190,1997-11-26 18:00:00,0,1013.8,1.2,100,0,1300,7.408,,,220,0.1,4.4,,,,,,,,10,wg-a,,,,AAXX 26184 07190 12/13 02204 10000 20000 39947 40138 51012 60006 71011 80000 91800 333 10044 20001=
07190,1997-11-26 21:00:00,1,1015.1,1.3,100,1,3500,7.408,,,20,,,,,,,,,,40,wg-a,,,,AAXX 26214 07190 12235 80204 10010 20010 39960 40151 53013 60006 74041 886// 92100=
07190,1997-11-27 00:00:00,2,1015.6,0.6,100,2,4800,11.112,,,20,,,,,,,,,,10,wg-a,,,,AAXX 27004 07190 12248 80206 10020 20020 39966 40156 51006 60006 71041 886// 90000=
07190,1997-11-27 03:00:00,2,1016.1,0.5,93,1,500,7.408,,,20,,,,,,,,,,,wg-a,,,,AAXX 27034 07190 12300 80204 10020 20010 39971 40161 51005 60006 886// 90300=
07190,1997-11-27 06:00:00,2,1016.4,0.3,93,1,7000,3.704,,,50,-0.6,2.4,,,,,,,,,wg-a,,,,AAXX 27064 07190 02357 80502 10020 20010 39974 40164 53003 60006 886// 90600 333 10024 21006 60004=
07190,1997-11-27 09:00:00,2,1016.4,0.3,93,1,7000,3.704,,,50,-0.6,2.4,,,,,,,,,wg-a,,,,AAXX 27094 07190 02357 80502 10020 20010 39974 40164 53003 60006 886// 90900 333 10024 21006 60004=
07190,1997-11-27 12:00:00,3,1017,-0.3,87,1,500,11.112,,,150,,,,,,,,,,,wg-a,,,,AAXX 27124 07190 12300 81506 10030 20010 39980 40170 58003 60006 886// 91200=
07190,1997-11-27 15:00:00,3,1017.1,0.1,93,2,2000,7.408,,,150,,,,,,,,,,10,wg-a,,,,AAXX 27154 07190 12220 81504 10030 20020 39981 40171 53001 60006 71022 886// 91500=
07190,1997-11-27 18:00:00,3,1017.3,0.2,93,2,4000,3.704,,,190,2.1,2.9,,,,,,,,10,wg-a,,,,AAXX 27184 07190 02240 81902 10030 20020 39983 40173 53002 61000 71062 886// 91800 333 10029 20021 6100=
07190,1997-11-27 21:00:00,3,1017.6,0.3,93,2,4000,3.704,,,210,,,,,,,,,,10,wg-a,,,,AAXX 27214 07190 02240 82102 10030 20020 39986 40176 52003 61000 71062 875// 92100 333 ////=
07190,1997-11-28 00:00:00,3,1016.7,-0.9,93,2,3000,0,,,0,,,,,,,,,,10,wg-a,,,,AAXX 28004 07190 02230 80000 10030 20020 39977 40167 56009 61000 71062 8653/ 90000 333 ////=
07190,1997-11-28 03:00:00,2,1015.8,-0.9,100,2,2000,3.704,,,340,,,,,,,,,,10,wg-a,,,,AAXX 28034 07190 12620 83402 10020 20020 39968 40158 57009 60006 71022 885// 90300=
07190,1997-11-28 06:00:00,2,1015.6,-0.2,100,2,4000,0,,,0,2.4,2.9,,,,,,,,10,wg-a,,,,AAXX 28064 07190 02740 70000 10020 20020 39966 40156 57002 60006 71022 875// 90600 333 10029 20024 61000=
07190,1997-11-28 09:00:00,3,1014.9,-0.6,100,3,2000,3.704,,,30,,,,,,,,,,10,wg-a,,,,AAXX 28094 07190 12620 70302 10030 20030 39960 40149 57006 60006 71022 8553/ 90900=
07190,1997-11-28 12:00:00,5,1012.7,-2,93,4,3200,3.704,,,360,,,,,,,,,,10,wg-a,,,,AAXX 28124 07190 12632 73602 10050 20040 39940 40127 58020 60006 71022 8557/ 91200=
07190,1997-11-28 15:00:00,6,1012.1,-0.6,87,4,2000,0,,,0,,,,1,,,,,,10,wg-a,,,,AAXX 28154 07190 12420 70000 10060 20040 39934 40121 55006 60017 71062 8587/ 91500=
07190,1997-11-28 18:00:00,5,1011.6,-0.5,100,5,1700,0,,,0,2.2,5.8,,,,,,,,10,wg-a,,,,AAXX 28184 07190 02517 70000 10050 20050 39929 40116 58005 61000 71062 8557/ 91800 333 10058 20022 6002=
07190,1997-11-28 21:00:00,6,1011.2,-0.3,100,6,2500,3.704,,,240,,,,,,,,,,10,wg-a,,,,AAXX 28214 07190 12525 82402 10060 20060 39926 40112 57003 60006 71022 885// 92100=
07190,1997-11-29 00:00:00,8,1010.5,-0.6,100,8,4800,7.408,,,200,,,,0,,,,,,10,wg-a,,,,AAXX 29004 07190 02748 72004 10080 20080 39920 40105 57006 60006 71022 875// 90000 333 60007=
07190,1997-11-29 03:00:00,9,1009.9,-0.5,93,8,6000,14.816,,,180,,,,,,,,,,,wg-a,,,,AAXX 29034 07190 12656 /1808 10090 20080 39915 40099 56005 60006 85500 90300=
07190,1997-11-29 06:00:00,9,1008.8,-1.1,93,8,7000,14.816,,,170,5.2,9.5,,,,,2,,,,wg-a,,,,AAXX 29064 07190 02757 41708 10090 20080 39904 40088 56011 60006 84500 90600 333 10095 20052 60024=
07190,1997-11-29 09:00:00,10,1008.9,0.2,87,8,12000,22.224,,,190,,,,,,,,,,21,wg-a,,,,AAXX 29094 07190 02562 71912 10100 20080 39906 40089 53002 61000 72161 878// 90900 333 ////=
07190,1997-11-29 15:00:00,11,1007.8,-0.5,76,7,20000,14.816,,,190,,,,,,,,,,,wg-a,,,,AAXX 29154 07190 12570 71908 10110 20070 39896 40078 56005 60006 878// 91500=
07190,1997-11-29 18:00:00,9,1008,0,81,6,15000,7.408,,,230,8.8,12,,,,,,,,1,wg-a,,,,AAXX 29184 07190 02565 72304 10090 20060 39896 40080 50000 60006 70162 878// 91800 333 10120 20088 61000=
07190,1997-11-29 21:00:00,7,1007.9,-0.2,93,6,15000,3.704,,,120,,,,,,,,,,,wg-a,,,,AAXX 29214 07190 12665 /1202 10070 20060 39894 40079 56002 60006 86500 92100=
07190,1997-11-30 00:00:00,7,1008.3,0.4,93,6,15000,7.408,,,170,,,,1,,,,,,21,wg-a,,,,AAXX 30004 07190 02665 61704 10070 20060 39898 40083 53004 60016 72162 83540 90000 333 60017=
07190,1997-11-30 03:00:00,5,1008.4,0,100,5,10000,7.408,,,190,,,,,,,,,,,wg-a,,,,AAXX 30034 07190 12560 /1904 10050 20050 39898 40084 50000 60006 86800 90300=
07190,1997-11-30 06:00:00,5,1008.6,0.1,100,5,7000,11.112,,,170,3.6,9.2,,,,,1,,,11,wg-a,,,,AAXX 30064 07190 02157 /1706 10050 20050 39899 40086 52001 60006 71111 86500 90600 333 10092 20036 60014=
07190,1997-11-30 09:00:00,7,1009,0.5,93,6,10000,14.816,,,170,,,,,,,,,,,wg-a,,,,AAXX 30094 07190 12460 71708 10070 20060 39904 40090 50005 60006 878// 90900=
07190,1997-11-30 12:00:00,9,1008.6,-0.2,87,7,20000,14.816,,,180,,,,,,,,,,,wg-a,,,,AAXX 30124 07190 12470 71808 10090 20070 39902 40086 58002 60006 878// 91200=
07190,1997-11-30 15:00:00,9,1008.6,-0,81,6,20000,11.112,,,180,,,,,,,,,,21,wg-a,,,,AAXX 30154 07190 02570 71806 10090 20060 39902 40086 55000 61000 72162 872// 91500 333 ////=
07190,1997-11-30 18:00:00,8,1008.9,0.3,87,6,20000,14.816,,,190,4.9,9.7,,,,,,,,21,wg-a,,,,AAXX 30184 07190 02570 71908 10080 20060 39905 40089 51003 61000 72162 875// 91800 333 10097 20049 6100=
07190,1997-11-30 21:00:00,8,1009.4,0.4,87,6,15000,14.816,,,180,,,,1,,,,,,61,wg-a,,,,AAXX 30214 07190 12565 71808 10080 20060 39909 40094 53004 60017 76162 875// 92100=
07190,1997-12-01 00:00:00,7,1010,0.5,93,6,12000,7.408,,,200,,,,1,,,,,,21,wg-a,,,,AAXX 01004 07190 02562 82004 10070 20060 39914 40100 53005 60026 72162 875// 90000 333 60017=
07190,1997-12-01 03:00:00,7,1010.8,0.9,93,6,12000,11.112,,,270,,,,0,,,,,,,wg-a,,,,AAXX 01034 07190 12562 82706 10070 20060 39923 40108 51009 60007 875// 90300=
07190,1997-12-01 06:00:00,7,1012.3,1.4,87,5,15000,22.224,,,300,6.7,8.4,,,,,,,,21,wg-a,,,,AAXX 01064 07190 02465 83012 10070 20050 39937 40123 53014 61000 72162 875// 90600 333 10084 20067 6002=
07190,1997-12-01 09:00:00,6,1014.9,2.5,81,3,12000,22.224,,,300,,,,0,,,,,,1,wg-a,,,,AAXX 01094 07190 12462 73012 10060 20030 39962 40149 51025 60007 70152 878// 90900=
07190,1997-12-01 12:00:00,6,1015.3,0.3,81,3,15000,14.816,,,300,,,,,,,,,,3,wg-a,,,,AAXX 01124 07190 12465 83008 10060 20030 39965 40153 50003 60006 70352 878// 91200=
07190,1997-12-01 15:00:00,5,1015.4,0.1,75,1,15000,7.408,,,310,,,,,,,,,,,wg-a,,,,AAXX 01154 07190 12665 /3104 10050 20010 39966 40154 53001 60006 84800 91500=
07190,1997-12-01 18:00:00,2,1015.5,-0.2,87,0,15000,0,,,0,1.5,7.3,,,,,,,,,wg-a,,,,AAXX 01184 07190 12765 /0000 10020 20000 39964 40155 58002 60006 81500 91800 333 10073 20015=
07190,1997-12-01 21:00:00,-1,1013.5,-2.1,93,-2,15000,0,,,0,,,,,,,,,,,wg-a,,,,AAXX 01214 07190 12765 20000 11010 21020 39943 40135 58021 60006 82500 92100=
07190,1997-12-02 00:00:00,-2,1011,-2.5,100,-2,10000,7.408,,,320,,,,,,,,,,,wg-a,,,,AAXX 02004 07190 12/60 03204 11020 21020 39918 40110 58025 60006 80000 90000=
07190,1997-12-02 03:00:00,-1,1007.2,-3.7,100,-1,200,3.704,,,310,,,,,,,,,,45,wg-a,,,,AAXX 02034 07190 12/02 93102 11010 21010 39881 40072 57037 60006 74541 89/// 90300=
07190,1997-12-02 06:00:00,0,1002.9,-4.1,100,0,3000,3.704,,,340,-1.5,1.4,,,,,,,,10,wg-a,,,,AAXX 02064 07190 02730 /3402 10000 20000 39840 40029 56041 60006 71041 81500 90600 333 10014 21015 60004=
07190,1997-12-02 09:00:00,1,999.7,-3.1,93,0,8000,18.52,,,20,,,,,,,,,,,wg-a,,,,AAXX 02094 07190 12558 70210 10010 20000 39809 49997 56031 60006 8487/ 90900=
07190,1997-12-02 12:00:00,0,998.1,-1.6,100,0,600,14.816,,,30,,,,1,,,,,,73,wg-a,,,,AAXX 02124 07190 02106 80308 10000 20000 39793 49981 58016 60016 77374 875// 91200 333 60017=
07190,1997-12-02 15:00:00,1,998.1,-0,93,0,3000,7.408,,,10,,,,2,,,,,,10,wg-a,,,,AAXX 02154 07190 12130 80104 10010 20000 39793 49981 55000 60027 71074 877// 91500=
07190,1997-12-02 18:00:00,1,999.3,1.2,93,0,4000,3.704,,,300,0.1,1.1,,,,,,,,10,wg-a,,2,,AAXX 02184 07190 12140 83002 10010 20000 39805 49993 52012 60006 71074 877// 91800 333 10011 20001 4/002=
07190,1997-12-02 21:00:00,1,1000.6,1.3,93,0,1500,3.704,,,200,,,,,,,,,,10,wg-a,,,,AAXX 02214 07190 12115 82002 10010 20000 39818 40006 53013 60006 71022 877// 92100=
07190,1997-12-03 00:00:00,1,1002,1.3,93,0,900,0,,,0,,,,,,,,,,43,wg-a,,,,AAXX 03004 07190 12/09 90000 10010 20000 39831 40020 53013 60006 74342 89/// 90000=
07190,1997-12-03 03:00:00,1,1002.9,0.9,93,0,3000,7.408,,,310,,,,,,,,,,10,wg-a,,,,AAXX 03034 07190 12130 83104 10010 20000 39840 40029 53009 60006 71042 876// 90300=
07190,1997-12-03 06:00:00,0,1004.5,1.6,100,0,1500,22.224,,,20,0,0.6,,,,,,,,10,wg-a,,0,,AAXX 03064 07190 02115 80212 10000 20000 39856 40045 53016 61000 71074 885// 90600 333 10006 20000 4/9999 6004=
07190,1997-12-03 12:00:00,0,1008.9,1.6,93,-1,1500,11.112,,,340,,,,0,,,,,,10,wg-a,,,,AAXX 03124 07190 02215 83406 10000 21010 39899 40089 51016 60016 71077 885// 91200 333 60007=
07190,1997-12-03 15:00:00,0,1010.7,1.7,93,-1,8000,11.112,,,320,,,,1,,,,,,70,wg-a,,,,AAXX 03154 07190 12258 83206 10000 21010 39916 40107 53017 60017 77072 885// 91500=
07190,1997-12-03 18:00:00,0,1012.4,1.7,93,-1,7000,14.816,,,320,-0.6,0.3,,,,,,,,22,wg-a,,3,,AAXX 03184 07190 02557 83208 10000 21010 39933 40124 51017 61000 72272 885// 91800 333 10003 21006 4/003 6000=
07190,1997-12-03 21:00:00,0,1013.7,1.3,93,-1,8000,11.112,,,320,,,,,,,,,,22,wg-a,,,,AAXX 03214 07190 02558 83206 10000 21010 39946 40137 51013 61000 72272 885// 92100 333 ////=
07190,1997-12-04 00:00:00,0,1014.1,0.4,93,-1,9000,7.408,,,320,,,,,,,,,,2,wg-a,,,,AAXX 04004 07190 02559 83204 10000 21010 39950 40141 50004 61000 70272 885// 90000 333 ////=
07190,1997-12-04 03:00:00,0,1014.7,0.6,93,-1,8000,7.408,,,330,,,,,,,,,,,wg-a,,,,AAXX 04034 07190 12558 83304 10000 21010 39956 40147 51006 60006 885// 90300=
07190,1997-12-04 06:00:00,0,1015.3,0.6,93,-1,8000,7.408,,,350,0.1,0.4,,,,,2,,,,wg-a,,3,,AAXX 04064 07190 02458 83504 10000 21010 39962 40153 53006 60006 885// 90600 333 10004 20001 4/003 60024=
07190,1997-12-04 09:00:00,0,1016.5,1.1,93,-1,7000,11.112,,,10,,,,,,,,,,20,wg-a,,,,AAXX 04094 07190 02357 80106 10000 21010 39973 40165 51011 61000 72072 885// 90900 333 ////=
07190,1997-12-04 12:00:00,1,1016.4,0,93,0,9000,11.112,,,20,,,,,,,,,,1,wg-a,,,,AAXX 04124 07190 02359 80206 10010 20000 39973 40164 50000 61000 70172 875// 91200 333 ////=
07190,1997-12-04 15:00:00,2,1017.2,0.8,87,0,9000,11.112,,,340,,,,,,,,,,,wg-a,,,,AAXX 04154 07190 12459 83406 10020 20000 39981 40172 53008 60006 885// 91500=
07190,1997-12-04 18:00:00,1,1018.6,1.4,93,0,8000,7.408,,,360,0.1,1.9,,,,,,,,,wg-a,,0,,AAXX 04184 07190 12458 83604 10010 20000 39995 40186 51014 60006 885// 91800 333 10019 20001 4/9999=
07190,1997-12-04 21:00:00,1,1020,1.4,100,1,7000,3.704,,,350,,,,,,,,,,,wg-a,,,,AAXX 04214 07190 12257 83502 10010 20010 30009 40200 53014 60006 886// 92100=
07190,1997-12-05 00:00:00,1,1020.8,0.7,93,0,6000,7.408,,,330,,,,,,,,,,,wg-a,,,,AAXX 05004 07190 12356 83304 10010 20000 30016 40208 51007 60006 886// 90000=
07190,1997-12-05 03:00:00,1,1021.5,0.7,100,1,6000,7.408,,,340,,,,,,,,,,,wg-a,,,,AAXX 05034 07190 12256 83404 10010 20010 30023 40215 51007 60006 886// 90300=
07190,1997-12-05 06:00:00,1,1022.3,0.8,100,1,6000,7.408,,,350,0.9,1.6,,,,,,,,,wg-a,,,,AAXX 05064 07190 02256 83504 10010 20010 30031 40223 53008 60006 886// 90600 333 10016 20009 61000=
07190,1997-12-05 09:00:00,2,1023.8,1.5,93,1,6000,7.408,,,360,,,,,,,,,,,wg-a,,,,AAXX 05094 07190 12256 83604 10020 20010 30046 40238 52015 60006 886// 90900=
07190,1997-12-05 12:00:00,3,1023.8,0.1,87,1,500,7.408,,,350,,,,,,,,,,,wg-a,,,,AAXX 05124 07190 12200 83504 10030 20010 30047 40238 51001 60006 886// 91200=
07190,1997-12-05 15:00:00,3,1024.5,0.7,87,1,8000,3.704,,,360,,,,,,,,,,,wg-a,,,,AAXX 05154 07190 12458 83602 10030 20010 30054 40245 53007 60006 885// 91500=
07190,1997-12-05 18:00:00,2,1025.6,1,87,0,8000,7.408,,,360,1.4,2.8,,,,,,,,,wg-a,,,,AAXX 05184 07190 12658 /3604 10020 20000 30064 40256 51010 60006 86500 91800 333 10028 20014=
07190,1997-12-05 21:00:00,-1,1026.6,0.8,93,-2,7000,3.704,,,350,,,,,,,,,,,wg-a,,,,AAXX 05214 07190 12/57 03502 11010 21020 30072 40266 51008 60006 80000 92100=
07190,1997-12-06 00:00:00,-2,1026.9,0.2,100,-2,7000,7.408,,,320,,,,,,,,,,,wg-a,,,,AAXX 06004 07190 12/57 03204 11020 21020 30074 40269 51002 60006 80000 90000=
07190,1997-12-06 03:00:00,-3,1027.2,0.2,93,-4,7000,0,,,0,,,,,,,,,,,wg-a,,,,AAXX 06034 07190 12/57 00000 11030 21040 30076 40272 53002 60006 80000 90300=
07190,1997-12-06 06:00:00,-5,1027.2,-0.1,100,-5,1500,0,,,0,-4.6,1.7,,,,,,,,10,wg-a,,,,AAXX 06064 07190 02115 20000 11050 21050 30075 40272 55001 60006 71000 82600 90600 333 10017 21046 60004=
07190,1997-12-06 09:00:00,-4,1027.8,0.6,93,-5,200,3.704,,,170,,,,,,,,,,48,wg-a,,,,AAXX 06094 07190 12/02 21702 11040 21050 30081 40278 50006 60006 74840 80001 90900=
07190,1997-12-06 12:00:00,-2,1026.6,-1,93,-3,200,3.704,,,190,,,,,,,,,,48,wg-a,,,,AAXX 06124 07190 12/02 91902 11020 21030 30071 40266 58010 60006 74841 89/// 91200=
07190,1997-12-06 15:00:00,-2,1026.4,-0.2,100,-2,100,3.704,,,170,,,,,,,,,,49,wg-a,,,,AAXX 06154 07190 12/01 91702 11020 21020 30069 40264 55002 60006 74944 89/// 91500=
07190,1997-12-06 18:00:00,-2,1026.7,0.3,100,-2,900,3.704,,,210,-4.8,-1.8,,,,,,,,49,wg-a,,,,AAXX 06184 07190 12/09 92102 11020 21020 30072 40267 51003 60006 74942 89/// 91800 333 11018 21048=
07190,1997-12-06 21:00:00,-2,1026.6,-0.1,100,-2,2000,7.408,,,210,,,,,,,,,,10,wg-a,,,,AAXX 06214 07190 12120 82104 11020 21020 30071 40266 58001 60006 71042 886// 92100=
07190,1997-12-07 00:00:00,-2,1025.8,-0.8,100,-2,4000,0,,,0,,,,,,,,,,10,wg-a,,,,AAXX 07004 07190 12140 70000 11020 21020 30063 40258 58008 60006 71042 875// 90000=
07190,1997-12-07 06:00:00,-1,1023.8,-1,100,-1,4000,3.704,,,230,-2.1,-0.8,,,,,,,,10,wg-a,,,,AAXX 07064 07190 02740 72302 11010 21010 30044 40238 58010 60006 71022 85572 90600 333 11008 21021 60004=
07190,1997-12-07 09:00:00,0,1023.1,-0.6,100,0,3000,3.704,,,180,,,,,,,,,,10,wg-a,,,,AAXX 07094 07190 12730 /1802 10000 20000 30038 40231 58006 60006 71022 81531 90900=
07190,1997-12-07 12:00:00,3,1020.7,-2.2,81,0,500,3.704,,,40,,,,,,,,,,,wg-a,,,,AAXX 07124 07190 12/00 /0402 10030 20000 30016 40207 58022 60006 82032 91200=
07190,1997-12-07 15:00:00,4,1018.7,-1.9,75,0,8000,0,,,0,,,,,,,,,,,wg-a,,,,AAXX 07154 07190 12/58 /0000 10040 20000 39997 40187 57019 60006 81032 91500=
07190,1997-12-07 18:00:00,0,1017.7,-1.2,93,-1,7000,0,,,0,-1.1,4.4,,,,,,,,,wg-a,,,,AAXX 07184 07190 12/57 /0000 10000 21010 39985 40177 56012 60006 81031 91800 333 10044 21011=
07190,1997-12-07 21:00:00,-1,1016.5,-1.2,100,-1,4000,3.704,,,150,,,,,,,,,,10,wg-a,,,,AAXX 07214 07190 12/40 21502 11010 21010 39973 40165 58012 60006 71011 81031 92100=
07190,1997-12-08 00:00:00,-2,1015.8,-0.8,100,-2,2500,0,,,0,,,,,,,,,,10,wg-a,,,,AAXX 08004 07190 12/25 00000 11020 21020 39965 40158 56008 60006 71011 80000 90000=
07190,1997-12-08 03:00:00,-2,1015.2,-0.6,100,-2,2000,3.704,,,180,,,,,,,,,,10,wg-a,,,,AAXX 08034 07190 12/20 /1802 11020 21020 39959 40152 58006 60006 71011 80002 90300=
07190,1997-12-08 06:00:00,-2,1014.3,-0.8,100,-2,4000,3.704,,,200,-2.3,0.1,,,,,,,,10,wg-a,,,,AAXX 08064 07190 02/40 /2002 11020 21020 39951 40143 56008 60006 71011 82032 90600 333 10001 21023 60004=
07190,1997-12-08 09:00:00,0,1014.7,0.5,93,-1,500,3.704,,,230,,,,,,,,,,10,wg-a,,,,AAXX 08094 07190 12600 72302 10000 21010 39956 40147 51005 60006 710// 85542 90900=
07190,1997-12-08 12:00:00,3,1013.9,-0.6,81,0,9000,7.408,,,230,,,,,,,,,,21,wg-a,,,,AAXX 08124 07190 02559 72304 10030 20000 39950 40139 57006 61000 72162 8587/ 91200 333 6100=
07190,1997-12-08 15:00:00,4,1012.8,-1,81,1,9000,7.408,,,200,,,,,,,,,,,wg-a,,,,AAXX 08154 07190 12559 32004 10040 20010 39940 40128 56010 60006 82242 91500=
07190,1997-12-08 18:00:00,1,1012.5,-0.5,86,-1,10000,3.704,,,230,-1.9,4.4,,,,,,,,,wg-a,,,,AAXX 08184 07190 12660 22302 10010 21010 39935 40125 57005 60006 82500 91800 333 10044 21019=
07190,1997-12-08 21:00:00,0,1012.7,0.1,93,-1,8000,7.408,,,240,,,,,,,,,,,wg-a,,,,AAXX 08214 07190 12758 /2404 10000 21010 39936 40127 52001 60006 81500 92100=
07190,1997-12-09 00:00:00,0,1012.6,-0.1,93,-1,6000,11.112,,,190,,,,,,,,,,,wg-a,,,,AAXX 09004 07190 12/56 /1906 10000 21010 39935 40126 58001 60006 80001 90000=
07190,1997-12-09 03:00:00,1,1012.8,0.2,93,0,6000,3.704,,,230,,,,,,,,,,,wg-a,,,,AAXX 09034 07190 12/56 /2302 10010 20000 39937 40128 52002 60006 90300=
07190,1997-12-09 06:00:00,3,1013.1,0.5,87,1,6000,7.408,,,220,-0.5,2.5,,,,,,,,,wg-a,,,,AAXX 09064 07190 02556 52204 10030 20010 39942 40131 53005 60006 85500 90600 333 10025 21005 61000=
07190,1997-12-09 09:00:00,3,1015.1,2,93,2,7000,3.704,,,250,,,,0,,,,,,61,wg-a,,,,AAXX 09094 07190 12557 72502 10030 20020 39962 40151 53020 60007 76162 8657/ 90900=
07190,1997-12-09 12:00:00,7,1015,0.2,100,7,500,11.112,,,160,,,,0,,,,,,1,wg-a,,,,AAXX 09124 07190 02500 51606 10070 20070 39964 40150 50002 60016 70162 83841 91200 333 60007=
07190,1997-12-09 18:00:00,7,1017.7,1.5,93,6,7000,14.816,,,170,2.1,8.7,,,,,,,,,wg-a,,,,AAXX 09184 07190 12757 71708 10070 20060 39990 40177 51015 60006 8653/ 91800 333 10087 20021=
07190,1997-12-09 21:00:00,6,1018.4,0.6,93,5,15000,22.224,,,190,,,,,,,,,,,wg-a,,,,AAXX 09214 07190 12765 71912 10060 20050 39996 40184 53006 60006 8353/ 92100=
07190,1997-12-10 00:00:00,6,1017.3,-1,93,5,15000,22.224,,,180,,,,,,,,,,,wg-a,,,,AAXX 10004 07190 12565 81812 10060 20050 39986 40173 56010 60006 8352/ 90000=
07190,1997-12-10 03:00:00,7,1016.8,-0.5,81,4,15000,22.224,,,180,,,,,,,,,,,wg-a,,,,AAXX 10034 07190 12665 61812 10070 20040 39981 40168 56005 60006 83542 90300=
07190,1997-12-10 06:00:00,7,1015.7,-1.1,81,4,15000,25.928,,,170,5.9,7.2,,,,,1,,,,wg-a,,,,AAXX 10064 07190 02665 71714 10070 20040 39970 40157 56011 60006 8453/ 90600 333 10072 20059 60014=
07190,1997-12-10 09:00:00,7,1015,-0.6,81,4,15000,18.52,,,190,,,,,,,,,,,wg-a,,,,AAXX 10094 07190 12665 71910 10070 20040 39964 40150 58006 60006 83542 90900=
07190,1997-12-10 12:00:00,9,1012.7,-2.2,71,4,500,22.224,,,190,,,,,,,,,,,wg-a,,,,AAXX 10124 07190 12600 71912 10090 20040 39942 40127 58022 60006 86502 91200=
07190,1997-12-10 18:00:00,9,1011,-0,93,8,12000,25.928,,,180,6.7,9.3,,,,,,,,60,wg-a,,,,AAXX 10184 07190 02562 81814 10090 20080 39926 40110 55000 61000 76062 878// 91800 333 10093 20067 6001=
07190,1997-12-10 21:00:00,10,1013.5,2.5,87,8,15000,18.52,,,180,,,,,,,,,,3,wg-a,,,,AAXX 10214 07190 02565 81810 10100 20080 39951 40135 51025 61000 70362 875// 92100 333 ////=
07190,1997-12-11 00:00:00,10,1013.8,0.3,87,8,15000,14.816,,,170,,,,,,,,,,3,wg-a,,,,AAXX 11004 07190 02565 81708 10100 20080 39954 40138 50003 61000 70365 875// 90000 333 6100=
07190,1997-12-11 03:00:00,10,1013.2,-0.6,87,8,15000,18.52,,,170,,,,,,,,,,,wg-a,,,,AAXX 11034 07190 12565 81710 10100 20080 39948 40132 56006 60006 875// 90300=
07190,1997-12-11 06:00:00,10,1011.3,-1.9,93,9,15000,18.52,,,190,9,10.5,,,,,,,,60,wg-a,,,,AAXX 11064 07190 02565 81910 10100 20090 39929 40113 56019 61000 76062 875// 90600 333 10105 20090 6001=
07190,1997-12-11 09:00:00,11,1009.6,-1.6,94,10,15000,22.224,,,180,,,,1,,,,,,21,wg-a,,,,AAXX 11094 07190 12465 81812 10110 20100 39913 40096 56016 60017 72162 888// 90900=
07190,1997-12-11 12:00:00,12,1008,-1.4,100,12,15000,18.52,,,190,,,,0,,,,,,21,wg-a,,,,AAXX 11124 07190 02465 81910 10120 20120 39899 40080 58014 60016 72162 888// 91200 333 60007=
07190,1997-12-11 15:00:00,12,1007.3,-0.7,100,12,12000,7.408,,,180,,,,1,,,,,,61,wg-a,,,,AAXX 11154 07190 12562 81804 10120 20120 39892 40073 56007 60017 76162 885// 91500=
07190,1997-12-11 18:00:00,13,1005.9,-1.3,88,11,10000,25.928,,,180,9.8,13.4,,1,,,,,,1,wg-a,,,,AAXX 11184 07190 02560 /1814 10130 20110 39879 40059 56013 60006 70162 86800 91800 333 10134 20098 60017=
07190,1997-12-11 21:00:00,12,1005.6,-0.4,94,11,8000,11.112,,,170,,,,0,,,,,,60,wg-a,,,,AAXX 11214 07190 12458 /1706 10120 20110 39875 40056 55004 60007 76062 86800 92100=
07190,1997-12-12 00:00:00,12,1005.3,-0.4,71,7,15000,18.52,,38.892,230,,,,,,,,,,1,wg-a,,,,AAXX 12004 07190 02665 32310 10120 20070 39871 40053 57004 60016 70161 82530 90000 333 61000 91021=
07190,1997-12-12 06:00:00,10,1009.6,1.7,66,4,15000,14.816,,,220,9.2,13.8,,,,,4,,,,wg-a,,,,AAXX 12064 07190 02665 /2208 10100 20040 39912 40096 51017 60006 86500 90600 333 10138 20092 60044=
07190,1997-12-12 12:00:00,9,1011.6,0.2,81,6,12000,22.224,,,250,,,,,,,,,,21,wg-a,,,,AAXX 12124 07190 02562 72512 10090 20060 39931 40116 51002 60036 72186 878// 91200 333 61000=
07190,1997-12-12 18:00:00,8,1017.7,3.1,81,5,15000,18.52,,,280,7.4,9.9,,,,,,,,1,wg-a,,,,AAXX 12184 07190 02565 72810 10080 20050 39991 40177 53031 60006 70186 8657/ 91800 333 10099 20074 61000=
07190,1997-12-12 21:00:00,8,1019.7,1.9,81,5,20000,22.224,,,300,,,,,,,,,,,wg-a,,,,AAXX 12214 07190 12570 83012 10080 20050 30010 40197 51019 60006 878// 92100=
07190,1997-12-13 00:00:00,7,1021.7,1.9,81,4,500,18.52,,,290,,,,,,,,,,,wg-a,,,,AAXX 13004 07190 12500 72910 10070 20040 30029 40217 52019 60006 878// 90000=
07190,1997-12-13 06:00:00,5,1026.5,2.2,81,2,25000,18.52,,,280,5.1,8.2,,,,,3,,,,wg-a,,,,AAXX 13064 07190 02775 42810 10050 20020 30075 40265 53022 60006 82531 90600 333 10082 20051 60034=
07190,1997-12-13 09:00:00,5,1029.2,2.6,81,2,25000,11.112,,,300,,,,,,,,,,,wg-a,,,,AAXX 13094 07190 12575 53006 10050 20020 30101 40292 53026 60006 85802 90900=
07190,1997-12-13 12:00:00,7,1029.7,0.7,70,2,25000,14.816,,,300,,,,,,,,,,,wg-a,,,,AAXX 13124 07190 12575 43008 10070 20020 30108 40297 50007 60006 84802 91200=
07190,1997-12-13 15:00:00,7,1030.6,0.8,70,2,25000,11.112,,,270,,,,,,,,,,,wg-a,,,,AAXX 13154 07190 12675 72706 10070 20020 30116 40306 53008 60006 878// 91500=
07190,1997-12-13 18:00:00,6,1031.8,1.1,75,2,20000,14.816,,,280,4.3,7.3,,,,,,,,,wg-a,,,,AAXX 13184 07190 12670 72808 10060 20020 30127 40318 51011 60006 878// 91800 333 10073 20043=
07190,1997-12-14 00:00:00,3,1032.5,0,87,1,15000,7.408,,,190,,,,,,,,,,,wg-a,,,,AAXX 14004 07190 12765 71904 10030 20010 30132 40325 50000 60006 875// 90000=
07190,1997-12-14 03:00:00,2,1031.5,-1,93,1,15000,3.704,,,180,,,,,,,,,,,wg-a,,,,AAXX 14034 07190 12565 71802 10020 20010 30122 40315 58010 60006 875// 90300=
07190,1997-12-14 06:00:00,3,1030.3,-1.2,87,1,12000,11.112,,,170,1.9,5.7,,,,,,,,,wg-a,,,,AAXX 14064 07190 02562 71706 10030 20010 30110 40303 58012 60006 875// 90600 333 10057 20019 60004=
07190,1997-12-14 09:00:00,2,1029.4,-0.9,93,1,15000,11.112,,,170,,,,1,,,,,,21,wg-a,,,,AAXX 14094 07190 12565 81706 10020 20010 30101 40294 56009 60017 72162 885// 90900=
07190,1997-12-14 12:00:00,3,1026.4,-2.8,93,2,15000,11.112,,,180,,,,1,,,,,,60,wg-a,,,,AAXX 14124 07190 02565 81806 10030 20020 30073 40264 58028 60026 76062 885// 91200 333 60017=
07190,1997-12-14 15:00:00,3,1024.5,-1.9,100,3,15000,11.112,,,170,,,,2,,,,,,60,wg-a,,,,AAXX 14154 07190 12565 /1706 10030 20030 30054 40245 56019 60027 76066 875// 91500=
07190,1997-12-14 18:00:00,1,1023.7,-0.9,100,1,10000,3.704,,,310,1.3,3.5,,1,,,,,,3,wg-a,,,,AAXX 14184 07190 02660 23102 10010 20010 30045 40237 56009 60006 70361 82800 91800 333 10035 20013 60017=
07190,1997-12-14 21:00:00,3,1022.8,-0.8,87,1,15000,14.816,,,330,,,,0,,,,,,,wg-a,,,,AAXX 14214 07190 12565 /3308 10030 20010 30037 40228 57008 60007 85800 92100=
07190,1997-12-15 00:00:00,2,1022.7,-0.2,93,1,10000,11.112,,,340,,,,0,,,,,,21,wg-a,,,,AAXX 15004 07190 02560 73406 10020 20010 30035 40227 58002 60016 72161 878// 90000 333 60007=
07190,1997-12-15 03:00:00,2,1022.7,0,87,0,10000,25.928,,,20,,,,,,,,,,,wg-a,,,,AAXX 15034 07190 12260 70214 10020 20000 30035 40227 50000 60006 875// 90300=
07190,1997-12-15 06:00:00,2,1023.1,0.4,87,0,8000,25.928,,,30,1.2,3.3,,,,,5,,,,wg-a,,,,AAXX 15064 07190 02458 70314 10020 20000 30039 40231 53004 60006 875// 90600 333 10033 20012 60054=
07190,1997-12-15 09:00:00,2,1024.6,1.5,80,-1,12000,31.484,,,30,,,,,,,,,,,wg-a,,,,AAXX 15094 07190 12462 /0317 10020 21010 30054 40246 53015 60006 86800 90900=
07190,1997-12-15 12:00:00,3,1024.6,0.1,75,-1,12000,29.632,,,20,,,,,,,,,,,wg-a,,,,AAXX 15124 07190 12562 /0216 10030 21010 30055 40246 50001 60006 86800 91200=
07190,1997-12-15 15:00:00,3,1024.8,0.2,70,-2,15000,31.484,,,40,,,,,,,,,,,wg-a,,,,AAXX 15154 07190 12665 50417 10030 21020 30057 40248 53002 60006 83801 91500=
07190,1997-12-15 18:00:00,1,1025.4,0.4,80,-2,12000,29.632,,48.152,30,0.6,3.5,,,,,,,,,wg-a,,,,AAXX 15184 07190 12662 /0316 10010 21020 30061 40254 51004 60006 84500 91800 333 10035 20006 91026=
07190,1997-12-16 00:00:00,-1,1024.9,-0.9,74,-5,12000,31.484,,,40,,,,,,,,,,,wg-a,,,,AAXX 16004 07190 12562 70417 11010 21050 30055 40249 58009 60006 875// 90000=
07190,1997-12-16 03:00:00,-1,1023.9,-1,69,-6,12000,18.52,,,40,,,,,,,,,,,wg-a,,,,AAXX 16034 07190 12562 70410 11010 21060 30045 40239 58010 60006 875// 90300=
07190,1997-12-16 06:00:00,-2,1022.5,-1.4,80,-5,12000,18.52,,,30,-1.8,0.7,,,,,,,,,wg-a,,,,AAXX 16064 07190 02562 80310 11020 21050 30031 40225 56014 60006 885// 90600 333 10007 21018 60004=
07190,1997-12-16 15:00:00,-1,1020.3,-1.1,69,-6,9000,22.224,,,30,,,,,,,,,,,wg-a,,,,AAXX 16154 07190 12/59 00312 11010 21060 30009 40203 58011 60006 80000 91500=
07190,1997-12-16 18:00:00,-3,1019.4,-0.9,80,-6,9000,18.52,,,30,-2.5,-0.8,,,,,,,,,wg-a,,,,AAXX 16184 07190 12/59 00310 11030 21060 30000 40194 58009 60006 80000 91800 333 11008 21025=
07190,1997-12-16 21:00:00,-3,1017.7,-1.8,80,-6,9000,14.816,,,30,,,,,,,,,,,wg-a,,,,AAXX 16214 07190 12/59 00308 11030 21060 39982 40177 58018 60006 80000 92100=
07190,1997-12-17 00:00:00,-3,1016,-1.6,80,-6,9000,11.112,,,20,,,,,,,,,,,wg-a,,,,AAXX 17004 07190 12/59 40206 11030 21060 39966 40160 56016 60006 80001 90000=
07190,1997-12-17 03:00:00,-4,1014.4,-1.6,86,-6,9000,7.408,,,350,,,,,,,,,,,wg-a,,,,AAXX 17034 07190 12/59 /3504 11040 21060 39950 40144 56016 60006 80001 90300=
07190,1997-12-17 06:00:00,-3,1012.8,-1.5,86,-5,8000,11.112,,,10,-3.8,-2.5,,,,,,,,66,wg-a,,,,AAXX 17064 07190 02/58 70106 11030 21050 39935 40128 56015 61000 76661 8702/ 90600 333 11025 21038 6100=
07190,1997-12-17 09:00:00,-2,1012.5,-0.3,80,-5,9000,11.112,,,360,,,,,,,,,,3,wg-a,,,,AAXX 17094 07190 02859 73606 11020 21050 39932 40125 56003 61000 70362 8752/ 90900 333 ////=
07190,1997-12-17 12:00:00,-1,1011.7,-0.7,80,-4,8000,14.816,,,10,,,,,,,,,,66,wg-a,,,,AAXX 17124 07190 02758 80108 11010 21040 39925 40117 58007 61000 76662 8252/ 91200 333 6100=
07190,1997-12-17 15:00:00,-1,1012,0.4,93,-2,8000,11.112,,,340,,,,0,,,,,,66,wg-a,,,,AAXX 17154 07190 12758 83406 11010 21020 39929 40120 53004 60007 76662 885// 91500=
07190,1997-12-17 18:00:00,0,1012.2,0.2,93,-1,500,7.408,,,330,-2.6,-0.1,,,,,,,,66,wg-a,,,,AAXX 17184 07190 02300 73304 10000 21010 39931 40122 53002 61000 76662 875// 91800 333 11001 21026 6002=
07190,1997-12-17 21:00:00,0,1011.9,-0.3,100,0,500,3.704,,,330,,,,1,,,,,,66,wg-a,,,,AAXX 17214 07190 12200 73302 10000 20000 39928 40119 58003 60017 76666 876// 92100=
07190,1997-12-18 00:00:00,0,1011.7,-0.2,100,0,500,3.704,,,10,,,,0,,,,,,21,wg-a,,,,AAXX 18004 07190 02300 70102 10000 20000 39926 40117 58002 60026 72165 876// 90000 333 60007=
07190,1997-12-18 03:00:00,0,1011.1,-0.6,100,0,500,3.704,,,350,,,,,,,,,,,wg-a,,,,AAXX 18034 07190 12200 /3502 10000 20000 39920 40111 57006 60006 85600 90300=
07190,1997-12-18 06:00:00,0,1010.3,-0.7,100,0,6000,7.408,,,340,-0.1,0.4,,,,,4,,,,wg-a,,,,AAXX 18064 07190 02256 73404 10000 20000 39913 40103 58007 60006 8567/ 90600 333 10004 21001 60044=
07190,1997-12-18 09:00:00,1,1010.2,-0.1,93,0,4000,3.704,,,290,,,,,,,,,,10,wg-a,,,,AAXX 18094 07190 12240 72902 10010 20000 39912 40102 55001 60006 71022 8457/ 90900=
07190,1997-12-18 12:00:00,1,1008.6,-1.6,93,0,3500,7.408,,,350,,,,,,,,,,10,wg-a,,,,AAXX 18124 07190 12235 83504 10010 20000 39896 40086 56016 60006 71022 8667/ 91200=
07190,1997-12-18 15:00:00,1,1008.3,-0.3,93,0,2200,7.408,,,330,,,,1,,,,,,10,wg-a,,,,AAXX 18154 07190 12222 83304 10010 20000 39893 40083 57003 60017 71052 876// 91500=
07190,1997-12-18 18:00:00,1,1007.8,-0.5,93,0,2000,3.704,,,310,0.3,0.9,,,,,,,,10,wg-a,,,,AAXX 18184 07190 02220 83102 10010 20000 39888 40078 58005 61000 71065 8667/ 91800 333 10009 20003 6001=
07190,1997-12-18 21:00:00,1,1006.8,-0.9,93,0,3000,3.704,,,300,,,,,,,,,,10,wg-a,,,,AAXX 18214 07190 02230 83002 10010 20000 39879 40068 56009 61000 71065 8667/ 92100 333 ////=
07190,1997-12-19 00:00:00,1,1005.1,-1.7,93,0,3000,11.112,,,340,,,,2,,,,,,10,wg-a,,,,AAXX 19004 07190 02130 83406 10010 20000 39862 40051 56017 60026 71065 876// 90000 333 60027=
07190,1997-12-19 03:00:00,1,1004.4,-0.7,93,0,2000,7.408,,,270,,,,,,,,,,10,wg-a,,,,AAXX 19034 07190 12220 82704 10010 20000 39855 40044 55007 60006 71022 886// 90300=
07190,1997-12-19 06:00:00,1,1004.1,-0.3,100,1,2500,3.704,,,130,0.5,0.9,,,,,3,,,10,wg-a,,,,AAXX 19064 07190 02125 81302 10010 20010 39852 40041 58003 60006 71022 886// 90600 333 10009 20005 60034=
07190,1997-12-19 09:00:00,1,1004.9,0.8,100,1,100,3.704,,,120,,,,,,,,,,45,wg-a,,,,AAXX 19094 07190 12/01 91202 10010 20010 39860 40049 51008 60006 74542 89/// 90900=
07190,1997-12-19 12:00:00,2,1005,0.2,100,2,300,3.704,,,150,,,,,,,,,,45,wg-a,,,,AAXX 19124 07190 12/03 91502 10020 20020 39862 40050 50002 60006 74542 89/// 91200=
07190,1997-12-19 15:00:00,2,1004.8,-0.2,100,2,100,3.704,,,350,,,,,,,,,,45,wg-a,,,,AAXX 19154 07190 12/01 93502 10020 20020 39860 40048 56002 60006 74544 89/// 91500=
07190,1997-12-19 18:00:00,2,1004.9,0.1,93,1,400,3.704,,,110,0.8,2.2,,,,,,,,43,wg-a,,,,AAXX 19184 07190 12/04 91102 10020 20010 39861 40049 53001 60006 74344 89/// 91800 333 10022 20008=
07190,1997-12-19 21:00:00,2,1005.9,0.9,100,2,900,3.704,,,300,,,,,,,,,,45,wg-a,,,,AAXX 19214 07190 32/09 93002 10020 20020 39870 40059 50009 74564 89/// 92100=
07190,1997-12-20 00:00:00,1,1004.1,-1.7,100,1,1500,7.408,,,20,,,,,,,,,,28,wg-a,,,,AAXX 20004 07190 02115 90204 10010 20010 39853 40041 57017 60016 72864 8967/ 90000 333 61000=
07190,1997-12-20 03:00:00,1,1003,-1.1,100,1,1800,3.704,,,340,,,,,,,,,,10,wg-a,,,,AAXX 20034 07190 02318 83402 10010 20010 39842 40030 57011 61000 71062 8767/ 90300 333 ////=
07190,1997-12-20 06:00:00,2,1001.7,-1.3,100,2,2500,11.112,,,10,0.9,1.8,,,,,,,,10,wg-a,,,,AAXX 20064 07190 02225 80106 10020 20020 39829 40017 55013 61000 71062 876// 90600 333 10018 20009 6004=
07190,1997-12-20 09:00:00,2,1002.9,1.2,93,1,3000,7.408,,,340,,,,2,,,,,,10,wg-a,,,,AAXX 20094 07190 12230 83404 10020 20010 39841 40029 53012 60027 71062 877// 90900=
07190,1997-12-20 15:00:00,3,1002.7,0.9,93,2,3500,7.408,,,190,,,,,,,,,,10,wg-a,,,,AAXX 20154 07190 12435 81904 10030 20020 39840 40027 53009 60006 71022 886// 91500=
07190,1997-12-20 18:00:00,3,1003.3,0.6,93,2,4000,3.704,,,160,1.5,3.4,,,,,,,,10,wg-a,,,,AAXX 20184 07190 02440 81602 10030 20020 39846 40033 51006 61000 71062 875// 91800 333 10034 20015 6000=
07190,1997-12-20 21:00:00,3,1003.7,0.4,100,3,3500,7.408,,,180,,,,2,,,,,,10,wg-a,,,,AAXX 20214 07190 12135 81804 10030 20030 39850 40037 52004 60027 71066 885// 92100=
07190,1997-12-21 00:00:00,4,1003.8,0.2,100,4,4000,7.408,,,200,,,,3,,,,,,10,wg-a,,,,AAXX 21004 07190 02440 82004 10040 20040 39852 40038 51002 60056 71062 885// 90000 333 60037=
07190,1997-12-21 03:00:00,5,1003.7,-0.1,100,5,6000,7.408,,,230,,,,3,,,,,,61,wg-a,,,,AAXX 21034 07190 12556 82304 10050 20050 39851 40037 56001 60037 76162 875// 90300=
07190,1997-12-21 06:00:00,5,1003.6,0,100,5,8000,11.112,,,170,2.9,5.4,,,,,,,,63,wg-a,,,,AAXX 21064 07190 02558 81706 10050 20050 39851 40036 50000 61000 76362 875// 90600 333 10054 20029 6019=
07190,1997-12-21 09:00:00,6,1004.7,1.1,100,6,7000,7.408,,,200,,,,9,,,,,,63,wg-a,,,,AAXX 21094 07190 12557 82004 10060 20060 39862 40047 53011 60097 76366 875// 90900=
07190,1997-12-21 12:00:00,5,1005.4,0.6,100,5,4000,7.408,,,30,,,,7,,,,,,61,wg-a,,,,AAXX 21124 07190 02140 80304 10050 20050 39868 40054 50006 60176 76166 875// 91200 333 60077=
07190,1997-12-21 15:00:00,3,1007,1.4,93,2,8000,11.112,,,350,,,,5,,,,,,61,wg-a,,,,AAXX 21154 07190 12358 83506 10030 20020 39882 40070 53014 60057 76166 878// 91500=
07190,1997-12-21 18:00:00,1,1009.1,1.9,100,1,7000,0,,,0,1.1,6.2,,,,,,,,61,wg-a,,,,AAXX 21184 07190 02257 80000 10010 20010 39901 40091 51019 61000 76166 875// 91800 333 10062 20011 6003=
07190,1997-12-21 21:00:00,1,1010.9,1.8,100,1,8000,7.408,,,310,,,,2,,,,,,21,wg-a,,,,AAXX 21214 07190 12458 83104 10010 20010 39919 40109 51018 60027 72162 875// 92100=
07190,1997-12-22 00:00:00,1,1012.4,1.5,100,1,8000,7.408,,,190,,,,,,,,,,1,wg-a,,,,AAXX 22004 07190 12158 71904 10010 20010 39934 40124 51015 60026 70162 87500 90000=
07190,1997-12-22 03:00:00,1,1013.4,1,100,1,7000,3.704,,,220,,,,,,,,,,50,wg-a,,,,AAXX 22034 07190 02157 82202 10010 20010 39944 40134 52010 61000 75052 885// 90300 333 ////=
07190,1997-12-22 06:00:00,1,1014,0.6,100,1,8000,0,,,0,0.9,1.7,,,,,,,,21,wg-a,,,,AAXX 22064 07190 02158 80000 10010 20010 39950 40140 52006 61000 72165 875// 90600 333 10017 20009 6027=
07190,1997-12-22 09:00:00,2,1015.3,1.3,100,2,8000,3.704,,,210,,,,,,,,,,,wg-a,,,,AAXX 22094 07190 12258 82102 10020 20020 39963 40153 53013 60006 875// 90900=
07190,1997-12-22 12:00:00,3,1015,-0.2,93,2,10000,3.704,,,230,,,,,,,,,,,wg-a,,,,AAXX 22124 07190 12260 82302 10030 20020 39961 40150 58002 60006 878// 91200=
07190,1997-12-22 15:00:00,4,1015.7,0.7,87,2,10000,3.704,,,190,,,,,,,,,,,wg-a,,,,AAXX 22154 07190 12360 81902 10040 20020 39968 40157 53007 60006 878// 91500=
07190,1997-12-22 18:00:00,3,1016.2,0.5,93,2,10000,0,,,0,1.3,3.6,,,,,,,,,wg-a,,,,AAXX 22184 07190 12460 80000 10030 20020 39973 40162 51005 60006 878// 91800 333 10036 20013=
07190,1997-12-22 21:00:00,3,1016.5,0.2,93,2,8000,3.704,,,330,,,,,,,,,,,wg-a,,,,AAXX 22214 07190 12558 83302 10030 20020 39975 40165 52002 60006 875// 92100=
07190,1997-12-23 00:00:00,3,1016.6,0.1,93,2,7000,3.704,,,350,,,,,,,,,,,wg-a,,,,AAXX 23004 07190 12557 83502 10030 20020 39976 40166 53001 60006 875// 90000=
07190,1997-12-23 03:00:00,3,1017.4,0.8,93,2,6000,3.704,,,330,,,,,,,,,,,wg-a,,,,AAXX 23034 07190 12/56 /3302 10030 20020 39984 40174 51008 60006 90300=
07190,1997-12-23 06:00:00,2,1018.3,0.9,100,2,500,7.408,,,320,2.4,3.2,,,,,,,,,wg-a,,,,AAXX 23064 07190 02100 83204 10020 20020 39993 40183 53009 60006 876// 90600 333 10032 20024 60004=
07190,1997-12-23 12:00:00,4,1021.8,0.9,93,3,3000,11.112,,,150,,,,,,,,,,10,wg-a,,,,AAXX 23124 07190 12230 81506 10040 20030 30028 40218 50009 60006 71022 885// 91200=
07190,1997-12-23 15:00:00,4,1023.8,2,93,3,500,7.408,,,170,,,,,,,,,,,wg-a,,,,AAXX 23154 07190 12300 81704 10040 20030 30048 40238 53020 60006 885// 91500=
07190,1997-12-23 18:00:00,4,1025.5,1.6,93,3,7000,7.408,,,200,2.4,4.4,,,,,,,,,wg-a,,,,AAXX 23184 07190 12657 82004 10040 20030 30064 40255 51016 60006 875// 91800 333 10044 20024=
07190,1997-12-23 21:00:00,5,1026.7,1.3,93,4,7000,11.112,,,170,,,,,,,,,,,wg-a,,,,AAXX 23214 07190 12557 71706 10050 20040 30077 40267 51013 60006 875// 92100=
07190,1997-12-24 00:00:00,5,1026.9,0.2,93,4,7000,14.816,,,170,,,,,,,,,,,wg-a,,,,AAXX 24004 07190 12757 71708 10050 20040 30079 40269 51002 60006 8553/ 90000=
07190,1997-12-24 03:00:00,6,1026.5,-0.3,93,5,7000,18.52,,,160,,,,0,,,,,,,wg-a,,,,AAXX 24034 07190 12657 71610 10060 20050 30076 40265 56003 60007 8553/ 90300=
07190,1997-12-24 06:00:00,7,1026.3,-0.2,87,5,15000,18.52,,,180,3.8,7,,,,,,,,1,wg-a,,,,AAXX 24064 07190 02565 71810 10070 20050 30074 40263 55002 60006 70186 875// 90600 333 10070 20038 60004=
07190,1997-12-24 09:00:00,8,1027.2,1,87,6,20000,14.816,,,180,,,,,,,,,,,wg-a,,,,AAXX 24094 07190 12470 71808 10080 20060 30084 40272 53010 60006 878// 90900=
07190,1997-12-24 12:00:00,10,1025.5,-1.6,87,8,20000,18.52,,,170,,,,,,,,,,,wg-a,,,,AAXX 24124 07190 12470 71710 10100 20080 30068 40255 58016 60006 878// 91200=
07190,1997-12-24 15:00:00,10,1024.4,,93,9,10000,14.816,,,160,,,,,,,,,,80,wg-a,,,,AAXX 24154 07190 32560 71608 10100 20090 30058 40244 78086 878// 91500=
07190,1997-12-24 18:00:00,9,1023.4,,93,8,12000,11.112,,,180,6.9,10.8,,0,,,,,,1,wg-a,,,,AAXX 24184 07190 02562 51806 10090 20080 30047 40234 60006 70186 85800 91800 333 10108 20069 60007=
07190,1997-12-24 21:00:00,10,1022.1,-1.2,87,8,12000,22.224,,,180,,,,,,,,,,60,wg-a,,,,AAXX 24214 07190 02662 71812 10100 20080 30035 40221 56012 61000 76061 8757/ 92100 333 ////=
07190,1997-12-25 00:00:00,10,1021.6,-0.5,87,8,12000,22.224,,,180,,,,,,,,,,21,wg-a,,,,AAXX 25004 07190 02562 71812 10100 20080 30030 40216 55005 61000 72161 875// 90000 333 6100=
07190,1997-12-25 06:00:00,11,1021.4,-0.6,76,7,12000,18.52,,,190,8.6,11,,,,,,,,1,wg-a,,,,AAXX 25064 07190 02662 71910 10110 20070 30029 40214 56006 60006 70162 875// 90600 333 10110 20086 60004=
07190,1997-12-25 09:00:00,10,1021.2,-0.3,87,8,20000,18.52,,,160,,,,,,,,,,,wg-a,,,,AAXX 25094 07190 12670 51610 10100 20080 30026 40212 58003 60006 83101 90900=
07190,1997-12-25 12:00:00,14,1017.3,-3.5,77,10,20000,22.224,,,180,,,,,,,,,,,wg-a,,,,AAXX 25124 07190 12670 51812 10140 20100 39991 40173 58035 60006 82841 91200=
07190,1997-12-25 15:00:00,14,1014,-3.2,77,10,18000,22.224,,,180,,,,,,,,,,,wg-a,,,,AAXX 25154 07190 12668 71812 10140 20100 39959 40140 58032 60006 8687/ 91500=
07190,1997-12-25 18:00:00,15,1011.5,-2.5,72,10,18000,29.632,,,180,9.8,14.9,,,,,,,,,wg-a,,,,AAXX 25184 07190 12668 81816 10150 20100 39934 40115 56025 60006 878// 91800 333 10149 20098=
07190,1997-12-25 21:00:00,15,1010.7,-0.7,67,9,18000,29.632,,,210,,,,,,,,,,21,wg-a,,,,AAXX 25214 07190 02668 82116 10150 20090 39927 40107 55007 61000 72162 8587/ 92100 333 ////=
07190,1997-12-26 00:00:00,13,1011.4,0.5,58,5,20000,22.224,,,230,,,,,,,,,,0,wg-a,,,,AAXX 26004 07190 02670 82312 10130 20050 39932 40114 53005 61000 70062 8687/ 90000 333 ////=
07190,1997-12-26 03:00:00,12,1011.2,-0.3,62,5,20000,29.632,,44.448,210,,,,,,,,,,,wg-a,,,,AAXX 26034 07190 12670 82116 10120 20050 39929 40112 56003 60006 8587/ 90300 333 91024=
07190,1997-12-26 06:00:00,9,1011.4,-0,81,6,20000,22.224,,,190,9,15.5,,,,,,,,80,wg-a,,,,AAXX 26064 07190 02570 81912 10090 20060 39929 40114 55000 61000 78086 8687/ 90600 333 10155 20090 6000=
07190,1997-12-26 09:00:00,9,1011,-0.3,81,6,25000,14.816,,,190,,,,,,,,,,3,wg-a,,,,AAXX 26094 07190 02575 71908 10090 20060 39926 40110 58003 61000 70386 85902 90900 333 ////=
07190,1997-12-26 12:00:00,11,1009.8,-1.1,54,2,35000,25.928,,,220,,,,,,,,,,1,wg-a,,,,AAXX 26124 07190 02681 42214 10110 20020 39915 40098 58011 61000 70186 83130 91200 333 ////=
07190,1997-12-26 18:00:00,9,1006.7,-1.2,71,4,20000,25.928,,,190,8.1,11.5,,,,,,,,,wg-a,,,,AAXX 26184 07190 12670 /1914 10090 20040 39883 40067 56012 60006 85400 91800 333 10115 20081=
07190,1997-12-26 21:00:00,8,1007.9,1.1,76,4,15000,22.224,,,220,,,,0,,,,,,3,wg-a,,,,AAXX 26214 07190 12565 72212 10080 20040 39894 40079 53011 60007 70386 878// 92100=
07190,1997-12-27 00:00:00,8,1008.4,0.5,71,3,15000,22.224,,,240,,,,,,,,,,1,wg-a,,,,AAXX 27004 07190 12565 72412 10080 20030 39899 40084 53005 60006 70186 878// 90000=
07190,1997-12-27 03:00:00,7,1009.8,1.3,76,3,9000,22.224,,,240,,,,0,,,,,,3,wg-a,,,,AAXX 27034 07190 12459 82412 10070 20030 39912 40098 51013 60007 70386 878// 90300=
07190,1997-12-27 06:00:00,6,1010.2,0.3,81,3,10000,14.816,,,220,5.1,8.8,,,,,1,,,1,wg-a,,,,AAXX 27064 07190 02560 /2208 10060 20030 39915 40102 53003 60006 70186 86800 90600 333 10088 20051 60014=
07190,1997-12-27 09:00:00,5,1012.1,1.9,93,4,20000,14.816,,,200,,,,0,,,,,,60,wg-a,,,,AAXX 27094 07190 12570 72008 10050 20040 39934 40121 52019 60007 76062 87500 90900=
07190,1997-12-27 12:00:00,8,1011.1,-0.8,76,4,11000,14.816,,,180,,,,,,,,,,,wg-a,,,,AAXX 27124 07190 12/61 /1808 10080 20040 39926 40111 58008 60006 91200=
07190,1997-12-27 15:00:00,7,1011.2,-0,76,3,15000,11.112,,,240,,,,,,,,,,,wg-a,,,,AAXX 27154 07190 12865 62406 10070 20030 39926 40112 55000 60006 84530 91500=
07190,1997-12-27 18:00:00,6,1012.1,0.8,87,4,25000,11.112,,,230,4.9,8.3,,0,,,,,,,wg-a,,,,AAXX 27184 07190 02575 72306 10060 20040 39934 40121 53008 60006 878// 91800 333 10083 20049 60007=
07190,1997-12-27 21:00:00,5,1012.5,0.4,93,4,20000,7.408,,,190,,,,,,,,,,,wg-a,,,,AAXX 27214 07190 12570 51904 10050 20040 39938 40125 51004 60006 84530 92100=
07190,1997-12-28 00:00:00,5,1012.9,0.3,93,4,20000,7.408,,,270,,,,1,,,,,,0,wg-a,,,,AAXX 28004 07190 02570 72704 10050 20040 39941 40129 53003 60016 70062 875// 90000 333 60017=
07190,1997-12-28 03:00:00,4,1013.2,0.3,93,3,20000,3.704,,,180,,,,0,,,,,,0,wg-a,,,,AAXX 28034 07190 12570 71802 10040 20030 39944 40132 51003 60007 70062 875// 90300=
07190,1997-12-28 06:00:00,5,1013.9,0.7,87,3,20000,7.408,,,230,3.6,6.3,,,,,2,,,3,wg-a,,,,AAXX 28064 07190 02570 72304 10050 20030 39951 40139 53007 60006 70362 878// 90600 333 10063 20036 60024=
07190,1997-12-28 09:00:00,5,1015.3,1.4,87,3,500,7.408,,,220,,,,,,,,,,,wg-a,,,,AAXX 28094 07190 12400 82204 10050 20030 39965 40153 52014 60006 878// 90900=
07190,1997-12-28 12:00:00,6,1014.9,-0.3,87,4,20000,11.112,,,190,,,,,,,,,,,wg-a,,,,AAXX 28124 07190 12470 81906 10060 20040 39962 40149 58003 60006 878// 91200=
07190,1997-12-28 15:00:00,6,1014.6,-0.3,81,3,25000,3.704,,,180,,,,,,,,,,,wg-a,,,,AAXX 28154 07190 12475 71802 10060 20030 39959 40146 55003 60006 87800 91500=
07190,1997-12-28 18:00:00,4,1014.8,0.1,93,3,20000,22.224,,,200,4.2,6.4,,,,,,,,1,wg-a,,,,AAXX 28184 07190 02570 72012 10040 20030 39960 40148 50001 60006 70162 87800 91800 333 10064 20042 61000=
07190,1997-12-28 21:00:00,3,1014.6,-0.3,93,2,20000,3.704,,,170,,,,,,,,,,,wg-a,,,,AAXX 28214 07190 12770 /1702 10030 20020 39957 40146 58003 60006 83500 92100=
07190,1997-12-29 00:00:00,1,1014.2,-0.6,93,0,10000,7.408,,,170,,,,,,,,,,,wg-a,,,,AAXX 29004 07190 12/60 01704 10010 20000 39951 40142 57006 60006 80000 90000=
07190,1997-12-29 03:00:00,1,1013.4,-0.7,93,0,15000,7.408,,,210,,,,,,,,,,,wg-a,,,,AAXX 29034 07190 12665 /2104 10010 20000 39944 40134 58007 60006 85500 90300=
07190,1997-12-29 06:00:00,1,1013.4,-0,93,0,15000,7.408,,,200,0.4,4.2,,,,,,,,60,wg-a,,,,AAXX 29064 07190 02465 72004 10010 20000 39944 40134 55000 61000 76061 875// 90600 333 10042 20004 6100=
07190,1997-12-29 09:00:00,2,1014.2,0.8,93,1,20000,7.408,,,160,,,,,,,,,,1,wg-a,,,,AAXX 29094 07190 02570 61604 10020 20010 39952 40142 53008 61000 70162 83870 90900 333 ////=
07190,1997-12-29 12:00:00,4,1013.5,-0.5,87,2,20000,14.816,,,170,,,,,,,,,,3,wg-a,,,,AAXX 29124 07190 02670 71708 10040 20020 39947 40135 58005 61000 70362 8657/ 91200 333 ////=
07190,1997-12-29 15:00:00,6,1013.6,0.2,75,2,25000,7.408,,,150,,,,,,,,,,,wg-a,,,,AAXX 29154 07190 12775 61504 10060 20020 39949 40136 53002 60006 84531 91500=
07190,1997-12-29 18:00:00,3,1014.7,0.9,87,1,20000,0,,,0,1.3,5.6,,,,,,,,,wg-a,,,,AAXX 29184 07190 12/70 00000 10030 20010 39958 40147 53009 60006 80000 91800 333 10056 20013=
07190,1997-12-30 00:00:00,-2,1014.6,-0.5,100,-2,500,3.704,,,230,,,,,,,,,,40,wg-a,,,,AAXX 30004 07190 12/00 42302 11020 21020 39954 40146 58005 60006 74040 84030 90000=
07190,1997-12-30 03:00:00,-2,1015.1,0.4,100,-2,7000,7.408,,,190,,,,,,,,,,40,wg-a,,,,AAXX 30034 07190 12/57 41904 11020 21020 39958 40151 51004 60006 74000 81031 90300=
07190,1997-12-30 06:00:00,-1,1014.9,-0.1,100,-1,8000,3.704,,,200,-2,2.8,,,,,,,,,wg-a,,,,AAXX 30064 07190 02858 72002 11010 21010 39957 40149 58001 60006 875// 90600 333 10028 21020 61000=
07190,1997-12-30 09:00:00,1,1015.3,0.5,86,-1,25000,7.408,,,160,,,,,,,,,,,wg-a,,,,AAXX 30094 07190 12775 71604 10010 21010 39962 40153 53005 60006 875// 90900=
07190,1997-12-30 12:00:00,4,1014.1,-1,75,0,500,7.408,,,210,,,,,,,,,,,wg-a,,,,AAXX 30124 07190 12800 72104 10040 20000 39952 40141 58010 60006 8653/ 91200=
07190,1997-12-30 15:00:00,4,1013.4,-0.6,81,1,500,11.112,,,170,,,,,,,,,,,wg-a,,,,AAXX 30154 07190 12700 71706 10040 20010 39946 40134 57006 60006 875// 91500=
07190,1997-12-30 18:00:00,5,1013.3,-0.1,75,1,20000,11.112,,,190,-0.6,5.5,,,,,,,,,wg-a,,,,AAXX 30184 07190 12770 71906 10050 20010 39945 40133 58001 60006 875// 91800 333 10055 21006=
07190,1997-12-30 21:00:00,4,1012.7,-0.6,81,1,20000,11.112,,,160,,,,,,,,,,,wg-a,,,,AAXX 30214 07190 12770 41606 10040 20010 39939 40127 58006 60006 83530 92100=
07190,1997-12-31 00:00:00,4,1011.8,-0.9,87,2,15000,7.408,,,180,,,,,,,,,,,wg-a,,,,AAXX 31004 07190 12765 71804 10040 20020 39930 40118 58009 60006 8157/ 90000=
07190,1997-12-31 06:00:00,6,1011,-0.7,75,2,20000,18.52,,,180,3.4,7.3,,,,,,,,,wg-a,,,,AAXX 31064 07190 02670 71810 10060 20020 39923 40110 56007 60006 8253/ 90600 333 10073 20034 60004=
07190,1997-12-31 09:00:00,7,1011.4,0.5,76,3,20000,7.408,,,180,,,,,,,,,,,wg-a,,,,AAXX 31094 07190 12670 71804 10070 20030 39928 40114 53005 60006 82530 90900=
07190,1997-12-31 12:00:00,9,1011.3,0,66,3,25000,18.52,,,180,,,,,,,,,,,wg-a,,,,AAXX 31124 07190 12675 71810 10090 20030 39928 40113 50000 60006 85830 91200=
07190,1997-12-31 15:00:00,9,1011.7,0.4,71,4,25000,18.52,,,180,,,,,,,,,,,wg-a,,,,AAXX 31154 07190 12675 71810 10090 20040 39932 40117 53004 60006 86830 91500=
07190,1997-12-31 18:00:00,8,1012.7,1,87,6,20000,18.52,,,170,5.8,9.4,,,,,,,,,wg-a,,,,AAXX 31184 07190 12670 71710 10080 20060 39942 40127 51010 60006 85530 91800 333 10094 20058=
07190,1997-12-31 21:00:00,8,1013.7,0.9,76,4,15000,14.816,,,170,,,,,,,,,,,wg-a,,,,AAXX 31214 07190 12665 71708 10080 20040 39951 40137 52009 60006 875// 92100=
