station_id,dh_utc,temperature,pression,pression_variation_3h,humidite,point_de_rosee,visibilite,vent_moyen,vent_rafales,vent_rafales_10min,vent_direction,temperature_min,temperature_max,pluie_1h,pluie_3h,pluie_6h,pluie_12h,pluie_24h,ensoleillement,temperature_sol,temps_omm,source,radiations,neige_au_sol,nebulosite,raw_msg
07190,1998-01-01 00:00:00,7,1014.8,1,76,3,20000,11.112,,,190,,,,,,,,,,,wg-a,,,,AAXX 01004 07190 12670 41906 10070 20030 39961 40148 51010 60006 83530 90000=
07190,1998-01-01 03:00:00,6,1015.5,0.7,81,3,20000,3.704,,,210,,,,,,,,,,,wg-a,,,,AAXX 01034 07190 12670 /2102 10060 20030 39968 40155 51007 60006 86500 90300=
07190,1998-01-01 06:00:00,5,1016.2,0.6,87,3,20000,3.704,,,160,5.3,8.2,,,,,,,,,wg-a,,,,AAXX 01064 07190 02670 71602 10050 20030 39974 40162 51006 60006 875// 90600 333 10082 20053 60004=
07190,1998-01-01 09:00:00,6,1017.2,1,81,3,8000,11.112,,,230,,,,,,,,,,25,wg-a,,,,AAXX 01094 07190 02658 72306 10060 20030 39984 40172 51010 61000 72586 83431 90900 333 ////=
07190,1998-01-01 12:00:00,8,1016,-1,76,4,12000,3.704,,,190,,,,,,,,,,3,wg-a,,,,AAXX 01124 07190 02562 61902 10080 20040 39974 40160 58010 61000 70386 84830 91200 333 ////=
07190,1998-01-01 18:00:00,7,1014,-0.5,93,6,8000,7.408,,,60,3.8,9.6,,,,,,,,60,wg-a,,,,AAXX 01184 07190 02658 70604 10070 20060 39953 40140 58005 61000 76062 875// 91800 333 10096 20038 6000=
07190,1998-01-01 21:00:00,6,1012.1,-1.8,100,6,8000,11.112,,,160,,,,1,,,,,,21,wg-a,,,,AAXX 01214 07190 12758 71606 10060 20060 39935 40121 58018 60017 72162 875// 92100=
07190,1998-01-02 00:00:00,7,1008,-4,93,6,10000,18.52,,,190,,,,0,,,,,,3,wg-a,,,,AAXX 02004 07190 02660 71910 10070 20060 39895 40080 58040 60016 70362 875// 90000 333 60007=
07190,1998-01-02 06:00:00,8,1003.7,-1.4,87,6,10000,29.632,,,190,6.3,8.4,,,,,,,,21,wg-a,,,,AAXX 02064 07190 02360 71916 10080 20060 39853 40037 57014 61000 72162 875// 90600 333 10084 20063 6003=
07190,1998-01-02 09:00:00,8,1002.3,-1.3,93,7,18000,11.112,,,170,,,,,,,,,,21,wg-a,,,,AAXX 02094 07190 02568 81706 10080 20070 39840 40023 56013 61000 72162 8787/ 90900 333 ////=
07190,1998-01-02 12:00:00,10,997.2,-4.9,82,7,25000,25.928,,,170,,,,1,,,,,,1,wg-a,,,,AAXX 02124 07190 02575 71714 10100 20070 39791 49972 58049 60016 70162 8487/ 91200 333 60017=
07190,1998-01-02 15:00:00,10,996,-1.2,82,7,15000,35.188,,,180,,,,1,,,,,,21,wg-a,,,,AAXX 02154 07190 12665 71819 10100 20070 39779 49960 56012 60017 72162 8587/ 91500=
07190,1998-01-02 18:00:00,9,1000.8,4.6,71,4,20000,29.632,,,190,8,10.4,,0,,,,,,1,wg-a,,,,AAXX 02184 07190 02570 /1916 10090 20040 39825 40008 51046 60006 70162 84870 91800 333 10104 20080 60007=
07190,1998-01-02 21:00:00,9,1004.7,3.8,71,4,15000,35.188,,,220,,,,,,,,,,60,wg-a,,,,AAXX 02214 07190 02565 72219 10090 20040 39863 40047 53038 61000 76062 8557/ 92100 333 ////=
07190,1998-01-03 00:00:00,7,1008.3,3.5,81,4,15000,22.224,,,210,,,,0,,,,,,1,wg-a,,,,AAXX 03004 07190 02665 62112 10070 20040 39898 40083 51035 60006 70162 83570 90000 333 60007=
07190,1998-01-03 03:00:00,7,1009.9,1.5,81,4,20000,18.52,,,170,,,,0,,,,,,25,wg-a,,,,AAXX 03034 07190 12470 71710 10070 20040 39913 40099 53015 60007 72586 878// 90300=
07190,1998-01-03 06:00:00,6,1010,0.1,87,4,20000,22.224,,,190,6.3,9.1,,,,,2,,,1,wg-a,,,,AAXX 03064 07190 02670 31912 10060 20040 39914 40100 53001 60006 70186 83500 90600 333 10091 20063 60024=
07190,1998-01-03 09:00:00,8,1008.7,-1.2,76,4,20000,22.224,,,180,,,,,,,,,,,wg-a,,,,AAXX 03094 07190 12670 71812 10080 20040 39902 40087 58012 60006 85572 90900=
07190,1998-01-03 12:00:00,9,1004.8,-3.8,66,3,20000,25.928,,,190,,,,,,,,,,3,wg-a,,,,AAXX 03124 07190 02670 81914 10090 20030 39864 40048 58038 61000 70361 8557/ 91200 333 6100=
07190,1998-01-03 15:00:00,11,1001.5,-3.1,76,7,15000,35.188,,,180,,,,,,,,,,,wg-a,,,,AAXX 03154 07190 12565 81819 10110 20070 39833 40015 56031 60006 878// 91500=
07190,1998-01-03 21:00:00,10,1007.2,5.7,57,2,25000,35.188,,55.56,270,,,,1,,,,,,21,wg-a,,,,AAXX 03214 07190 12675 32719 10100 20020 39889 40072 53057 60017 72161 83530 92100 333 91030=
07190,1998-01-04 00:00:00,7,1013.1,5.6,76,3,15000,25.928,,,270,,,,,,,,,,1,wg-a,,,,AAXX 04004 07190 12565 42714 10070 20030 39945 40131 51056 60016 70161 83830 90000=
07190,1998-01-04 09:00:00,9,1013.6,-0.2,61,2,25000,35.188,,70.376,200,,,,,,,,,,,wg-a,,,,AAXX 04094 07190 12675 52019 10090 20020 39951 40136 55002 60006 85501 90900 333 91038=
07190,1998-01-04 12:00:00,10,1010.4,-3.1,62,3,25000,25.928,,,190,,,,,,,,,,,wg-a,,,,AAXX 04124 07190 12775 71914 10100 20030 39920 40104 58031 60006 82231 91200=
07190,1998-01-04 15:00:00,10,1003.8,-6.5,53,1,20000,25.928,,,180,,,,,,,,,,,wg-a,,,,AAXX 04154 07190 12770 /1814 10100 20010 39855 40038 56065 60006 8483/ 91500=
07190,1998-01-05 00:00:00,9,1007.9,1.9,53,0,20000,35.188,,55.56,240,,,,,,,,,,,wg-a,,,,AAXX 05004 07190 12770 42419 10090 20000 39895 40079 51019 60006 81530 90000 333 91030=
07190,1998-01-05 03:00:00,8,1009.8,1.8,53,-1,20000,29.632,,,240,,,,,,,,,,,wg-a,,,,AAXX 05034 07190 12670 32416 10080 21010 39913 40098 53018 60006 83500 90300=
07190,1998-01-05 06:00:00,7,1012.7,2.8,61,0,20000,31.484,,,230,6.3,9.8,,,,,1,,,,wg-a,,,,AAXX 05064 07190 02670 /2317 10070 20000 39941 40127 52028 60006 86500 90600 333 10098 20063 60014=
07190,1998-01-05 09:00:00,6,1014.4,1.6,65,0,18000,11.112,,,210,,,,,,,,,,14,wg-a,,,,AAXX 05094 07190 12668 52106 10060 20000 39957 40144 52016 60006 71411 85800 90900=
07190,1998-01-05 12:00:00,9,1012.2,-2,61,2,18000,25.928,,,200,,,,,,,,,,,wg-a,,,,AAXX 05124 07190 12668 42014 10090 20020 39937 40122 58020 60006 84800 91200=
07190,1998-01-05 15:00:00,10,1007.5,-4.5,46,-1,500,29.632,,,180,,,,,,,,,,,wg-a,,,,AAXX 05154 07190 12600 61816 10100 21010 39892 40075 58045 60006 82844 91500=
07190,1998-01-05 21:00:00,7,1004,0.2,87,5,15000,38.892,,,220,,,,1,,,,,,61,wg-a,,,,AAXX 05214 07190 12565 72221 10070 20050 39856 40040 53002 60017 76162 875// 92100=
07190,1998-01-06 00:00:00,7,1004.3,0.3,76,3,15000,42.596,,62.968,240,,,,2,,,,,,61,wg-a,,,,AAXX 06004 07190 02765 72423 10070 20030 39859 40043 53003 60036 76186 878// 90000 333 60027 91034=
07190,1998-01-06 06:00:00,6,1013.9,4.3,70,1,20000,22.224,,44.448,270,5.7,9.8,,,,,3,,,1,wg-a,,,,AAXX 06064 07190 02670 /2712 10060 20010 39952 40139 51043 60006 70161 81800 90600 333 10098 20057 60034 91024=
07190,1998-01-06 09:00:00,4,1017.4,3.3,87,2,15000,7.408,,,200,,,,,,,,,,2,wg-a,,,,AAXX 06094 07190 02565 72004 10040 20020 39985 40174 51033 61000 70261 86832 90900 333 ////=
07190,1998-01-06 12:00:00,7,1018.5,1.3,70,2,20000,14.816,,,190,,,,,,,,,,1,wg-a,,,,AAXX 06124 07190 02670 71908 10070 20020 39998 40185 50013 61000 70161 8687/ 91200 333 ////=
07190,1998-01-06 21:00:00,6,1017.7,-0.4,100,6,10000,7.408,,,190,,,,0,,,,,,21,wg-a,,,,AAXX 06214 07190 12560 71904 10060 20060 39989 40177 58004 60007 72165 875// 92100=
07190,1998-01-07 00:00:00,7,1017.6,0,100,7,15000,3.704,,,130,,,,,,,,,,1,wg-a,,,,AAXX 07004 07190 12565 81302 10070 20070 39989 40176 50000 60006 70165 875// 90000=
07190,1998-01-07 03:00:00,10,1017.5,0.1,87,8,15000,22.224,,,180,,,,,,,,,,,wg-a,,,,AAXX 07034 07190 12565 71812 10100 20080 39990 40175 50001 60006 875// 90300=
07190,1998-01-07 06:00:00,10,1017.4,-0.1,87,8,15000,18.52,,,170,5.5,9.8,,,,,1,,,,wg-a,,,,AAXX 07064 07190 02565 71710 10100 20080 39989 40174 57001 60006 878// 90600 333 10098 20055 60014=
07190,1998-01-07 09:00:00,10,1017.5,0.1,82,7,20000,25.928,,,180,,,,,,,,,,1,wg-a,,,,AAXX 07094 07190 02570 71814 10100 20070 39990 40175 52001 61000 70162 8388/ 90900 333 ////=
07190,1998-01-07 12:00:00,13,1017.2,-0.1,62,6,25000,35.188,,,220,,,,,,,,,,3,wg-a,,,,AAXX 07124 07190 02575 /2219 10130 20060 39989 40172 58001 61000 70361 85830 91200 333 ////=
07190,1998-01-07 15:00:00,12,1018.2,0.9,67,6,20000,31.484,,,210,,,,,,,,,,21,wg-a,,,,AAXX 07154 07190 02670 72117 10120 20060 39998 40182 53009 61000 72162 878// 91500 333 ////=
07190,1998-01-07 18:00:00,12,1019.8,1.6,62,5,20000,31.484,,,190,9.4,13.7,,,,,,,,3,wg-a,,,,AAXX 07184 07190 12670 51917 10120 20050 30014 40198 51016 60006 70361 83831 91800 333 10137 20094=
07190,1998-01-07 21:00:00,11,1022.2,2.2,66,5,15000,25.928,,,220,,,,1,,,,,,1,wg-a,,,,AAXX 07214 07190 12565 /2214 10110 20050 30036 40222 51022 60017 70186 85830 92100=
07190,1998-01-08 00:00:00,9,1024,1.7,71,4,15000,22.224,,,210,,,,,,,,,,1,wg-a,,,,AAXX 08004 07190 12665 /2112 10090 20040 30053 40240 51017 60016 70186 81832 90000=
07190,1998-01-08 03:00:00,6,1025.1,0.9,81,3,15000,14.816,,,190,,,,,,,,,,,wg-a,,,,AAXX 08034 07190 12665 41908 10060 20030 30062 40251 51009 60006 82802 90300=
07190,1998-01-08 06:00:00,8,1025.8,0.8,76,4,15000,25.928,,,200,6.1,12.1,,,,,1,,,,wg-a,,,,AAXX 08064 07190 02665 32014 10080 20040 30070 40258 53008 60006 82102 90600 333 10121 20061 60014=
07190,1998-01-08 09:00:00,10,1027.7,2,71,5,25000,22.224,,,200,,,,,,,,,,,wg-a,,,,AAXX 08094 07190 12675 52012 10100 20050 30090 40277 52020 60006 83142 90900=
07190,1998-01-08 15:00:00,12,1027.5,-0.3,54,3,25000,25.928,,,230,,,,,,,,,,,wg-a,,,,AAXX 08154 07190 12675 32314 10120 20030 30089 40275 55003 60006 81141 91500=
07190,1998-01-08 18:00:00,8,1028.7,1,66,2,20000,11.112,,,170,7.5,13.3,,,,,,,,,wg-a,,,,AAXX 08184 07190 12870 21706 10080 20020 30099 40287 51010 60006 82400 91800 333 10133 20075=
07190,1998-01-09 00:00:00,8,1030.4,0.6,71,3,20000,14.816,,,190,,,,,,,,,,,wg-a,,,,AAXX 09004 07190 12/70 41908 10080 20030 30115 40304 50006 60006 84030 90000=
07190,1998-01-09 06:00:00,6,1031.2,0.3,81,3,15000,14.816,,,190,6.1,9.4,,,,,,,,,wg-a,,,,AAXX 09064 07190 02765 /1908 10060 20030 30122 40312 53003 60006 85500 90600 333 10094 20061 60004=
07190,1998-01-09 09:00:00,7,1032.5,1.3,81,4,500,14.816,,,180,,,,,,,,,,,wg-a,,,,AAXX 09094 07190 12700 71808 10070 20040 30135 40325 52013 60006 82530 90900=
07190,1998-01-09 12:00:00,13,1032,-0.1,62,6,500,14.816,,,180,,,,,,,,,,,wg-a,,,,AAXX 09124 07190 12800 21808 10130 20060 30134 40320 58001 60006 82240 91200=
07190,1998-01-09 18:00:00,8,1032,-0.1,81,5,500,14.816,,,160,4.9,13.7,,,,,,,,,wg-a,,,,AAXX 09184 07190 12/00 /1608 10080 20050 30131 40320 58001 60006 80000 91800 333 10137 20049=
07190,1998-01-09 21:00:00,5,1032.5,0.2,87,3,15000,7.408,,,230,,,,,,,,,,,wg-a,,,,AAXX 09214 07190 12/65 02304 10050 20030 30133 40325 51002 60006 80000 92100=
07190,1998-01-10 00:00:00,2,1031.9,-0.7,93,1,9000,3.704,,,240,,,,,,,,,,11,wg-a,,,,AAXX 10004 07190 12/59 02402 10020 20010 30126 40319 56007 60006 71100 80000 90000=
07190,1998-01-10 03:00:00,1,1031.5,-0.5,93,0,15000,7.408,,,230,,,,,,,,,,,wg-a,,,,AAXX 10034 07190 12/65 02304 10010 20000 30121 40315 58005 60006 80000 90300=
07190,1998-01-10 06:00:00,0,1031.2,-0.4,100,0,6000,3.704,,,360,-0.2,8,,,,,,,,12,wg-a,,,,AAXX 10064 07190 02/56 03602 10000 20000 30117 40312 55004 60006 71200 80000 90600 333 10080 21002 60004=
07190,1998-01-10 09:00:00,1,1031.4,0.3,100,1,6000,0,,,0,,,,,,,,,,,wg-a,,,,AAXX 10094 07190 12/56 /0000 10010 20010 30120 40314 53003 60006 90900=
07190,1998-01-10 12:00:00,9,1029.6,-1.2,66,3,15000,3.704,,,250,,,,,,,,,,,wg-a,,,,AAXX 10124 07190 12/65 12502 10090 20030 30108 40296 58012 60006 81030 91200=
07190,1998-01-10 15:00:00,9,1028.3,-1.2,71,4,10000,0,,,0,,,,,,,,,,,wg-a,,,,AAXX 10154 07190 12/60 20000 10090 20040 30096 40283 56012 60006 80001 91500=
07190,1998-01-10 18:00:00,3,1027.9,-0.9,93,2,500,0,,,0,-1,10.1,,,,,,,,,wg-a,,,,AAXX 10184 07190 12/00 30000 10030 20020 30087 40279 56009 60006 80001 91800 333 10101 21010=
07190,1998-01-10 21:00:00,0,1027.8,-0.3,93,-1,4000,0,,,0,,,,,,,,,,10,wg-a,,,,AAXX 10214 07190 12/40 00000 10000 21010 30084 40278 56003 60006 71000 80000 92100=
07190,1998-01-11 00:00:00,-2,1027.1,-0.8,100,-2,100,0,,,0,,,,,,,,,,48,wg-a,,,,AAXX 11004 07190 12001 40000 11020 21020 30076 40271 56008 60006 74840 84600 90000=
07190,1998-01-11 06:00:00,-2,1025.3,-0.9,100,-2,100,0,,,0,-2.8,3,,,,,,,,49,wg-a,,,,AAXX 11064 07190 02/01 90000 11020 21020 30058 40253 56009 60006 74941 89/// 90600 333 10030 21028 60004=
07190,1998-01-11 09:00:00,-1,1025.8,0.5,93,-2,300,3.704,,,10,,,,,,,,,,49,wg-a,,,,AAXX 11094 07190 12/03 90102 11010 21020 30063 40258 53005 60006 74944 89/// 90900=
07190,1998-01-11 12:00:00,4,1024.9,-0.5,100,4,2500,3.704,,,160,,,,,,,,,,10,wg-a,,,,AAXX 11124 07190 12125 31602 10040 20040 30058 40249 58005 60006 71041 81631 91200=
07190,1998-01-11 15:00:00,7,1023.6,-1.1,70,2,4500,0,,,0,,,,,,,,,,10,wg-a,,,,AAXX 11154 07190 12/45 /0000 10070 20020 30047 40236 56011 60006 71000 81031 91500=
07190,1998-01-11 18:00:00,1,1024,0.1,100,1,500,3.704,,,240,-2.2,6.6,,,,,,,,,wg-a,,,,AAXX 11184 07190 12/00 /2402 10010 20010 30048 40240 52001 60006 81031 91800 333 10066 21022=
07190,1998-01-12 00:00:00,-1,1024.5,0.3,93,-2,2000,3.704,,,190,,,,,,,,,,10,wg-a,,,,AAXX 12004 07190 12/20 31902 11010 21020 30051 40245 52003 60006 71000 81032 90000=
07190,1998-01-12 03:00:00,-1,1024.1,-0.4,100,-1,2000,3.704,,,200,,,,,,,,,,10,wg-a,,,,AAXX 12034 07190 12/20 22002 11010 21010 30047 40241 58004 60006 71000 80001 90300=
07190,1998-01-12 06:00:00,-1,1023.8,-0.3,93,-2,3500,3.704,,,60,-1.6,1.4,,,,,,,,10,wg-a,,,,AAXX 12064 07190 02/35 50602 11010 21020 30044 40238 56003 60006 71011 81032 90600 333 10014 21016 60004=
07190,1998-01-12 09:00:00,2,1023.5,-0.1,93,1,4000,0,,,0,,,,,,,,,,10,wg-a,,,,AAXX 12094 07190 12/40 /0000 10020 20010 30043 40235 58001 60006 71011 81032 90900=
07190,1998-01-12 12:00:00,8,1021.6,-1.5,66,2,500,3.704,,,150,,,,,,,,,,,wg-a,,,,AAXX 12124 07190 12/00 /1502 10080 20020 30028 40216 58015 60006 81032 91200=
07190,1998-01-12 15:00:00,6,1020.3,-1.3,81,3,500,7.408,,,320,,,,,,,,,,,wg-a,,,,AAXX 12154 07190 12/00 /3204 10060 20030 30015 40203 56013 60006 82032 91500=
07190,1998-01-12 18:00:00,3,1019.9,-0.6,93,2,3500,0,,,0,-1.6,7.6,,,,,,,,10,wg-a,,,,AAXX 12184 07190 12/35 /0000 10030 20020 30009 40199 58006 60006 71022 82032 91800 333 10076 21016=
07190,1998-01-12 21:00:00,1,1018.6,-1.4,100,1,2000,11.112,,,330,,,,,,,,,,10,wg-a,,,,AAXX 12214 07190 12/20 83306 10010 20010 39995 40186 58014 60006 71022 87072 92100=
07190,1998-01-13 00:00:00,0,1017.9,-0.8,100,0,2000,3.704,,,40,,,,,,,,,,11,wg-a,,,,AAXX 13004 07190 12820 /0402 10000 20000 39987 40179 58008 60006 71122 86070 90000=
07190,1998-01-13 12:00:00,4,1013.5,-1.2,87,2,4000,3.704,,,210,,,,,,,,,,10,wg-a,,,,AAXX 13124 07190 12/40 72102 10040 20020 39946 40135 58012 60006 71041 8707/ 91200=
07190,1998-01-13 15:00:00,6,1012.2,-1.1,87,4,8000,14.816,,,160,,,,,,,,,,21,wg-a,,,,AAXX 13154 07190 02758 81608 10060 20040 39935 40122 56011 61000 72162 8657/ 91500 333 ////=
07190,1998-01-13 21:00:00,4,1011.2,-0.2,93,3,9000,7.408,,,210,,,,,,,,,,,wg-a,,,,AAXX 13214 07190 12859 72104 10040 20030 39924 40112 55002 60006 875// 92100=
07190,1998-01-14 00:00:00,4,1011.4,0.2,87,2,8000,11.112,,,180,,,,,,,,,,,wg-a,,,,AAXX 14004 07190 12858 /1806 10040 20020 39926 40114 50002 60006 85500 90000=
07190,1998-01-14 06:00:00,6,1011.5,0.8,81,3,10000,11.112,,,200,2.7,5.7,,,,,,,,,wg-a,,,,AAXX 14064 07190 02760 72006 10060 20030 39928 40115 53008 60006 875// 90600 333 10057 20027 61000=
07190,1998-01-14 09:00:00,6,1013.2,1.7,87,4,11000,7.408,,,160,,,,,,,,,,,wg-a,,,,AAXX 14094 07190 12/61 /1604 10060 20040 39945 40132 53017 60006 90900=
07190,1998-01-14 12:00:00,10,1014,1.1,71,5,15000,22.224,,,200,,,,,,,,,,,wg-a,,,,AAXX 14124 07190 12665 72012 10100 20050 39956 40140 53011 60006 878// 91200=
07190,1998-01-14 15:00:00,10,1016.2,2.1,66,4,20000,18.52,,,210,,,,,,,,,,,wg-a,,,,AAXX 14154 07190 12670 72110 10100 20040 39977 40162 53021 60006 878// 91500=
07190,1998-01-14 18:00:00,8,1019,2.7,76,4,20000,14.816,,,220,5.5,11,,,,,,,,,wg-a,,,,AAXX 14184 07190 12570 72208 10080 20040 30004 40190 53027 60006 878// 91800 333 10110 20055=
07190,1998-01-14 21:00:00,5,1021.9,2.6,87,3,15000,11.112,,,240,,,,2,,,,,,1,wg-a,,,,AAXX 14214 07190 12665 /2406 10050 20030 30030 40219 51026 60027 70161 83500 92100=
07190,1998-01-15 00:00:00,4,1023.7,1.6,87,2,20000,7.408,,,190,,,,,,,,,,3,wg-a,,,,AAXX 15004 07190 12570 /1904 10040 20020 30046 40237 51016 60026 70361 81500 90000=
07190,1998-01-15 06:00:00,2,1024.6,-0.1,93,1,10000,3.704,,,200,0.7,8.4,,,,,2,,,,wg-a,,,,AAXX 15064 07190 02660 /2002 10020 20010 30054 40246 55001 60006 81500 90600 333 10084 20007 60024=
07190,1998-01-15 09:00:00,4,1024,-0.5,93,3,10000,14.816,,,180,,,,,,,,,,,wg-a,,,,AAXX 15094 07190 12/60 71808 10040 20030 30049 40240 56005 60006 84071 90900=
07190,1998-01-15 12:00:00,6,1022.7,-1,87,4,20000,18.52,,,170,,,,,,,,,,,wg-a,,,,AAXX 15124 07190 12/70 71710 10060 20040 30039 40227 58010 60006 84072 91200=
07190,1998-01-15 15:00:00,7,1021.7,-1,76,3,20000,18.52,,,170,,,,,,,,,,60,wg-a,,,,AAXX 15154 07190 02770 81710 10070 20030 30029 40217 56010 61000 76062 8157/ 91500 333 ////=
07190,1998-01-15 18:00:00,6,1020.5,-1.2,81,3,15000,18.52,,,180,1.7,7.2,,,,,,,,21,wg-a,,,,AAXX 15184 07190 02665 81810 10060 20030 30017 40205 58012 61000 72162 875// 91800 333 10072 20017 6100=
07190,1998-01-16 00:00:00,7,1016.7,-2.1,87,5,12000,25.928,,,180,,,,,,,,,,3,wg-a,,,,AAXX 16004 07190 02562 71814 10070 20050 39980 40167 56021 61000 70362 8657/ 90000 333 ////=
07190,1998-01-16 03:00:00,7,1014.7,-1.9,93,6,12000,22.224,,,180,,,,,,,,,,,wg-a,,,,AAXX 16034 07190 12662 81812 10070 20060 39961 40147 58019 60006 875// 90300=
07190,1998-01-16 06:00:00,8,1012.7,-2,87,6,12000,22.224,,,180,5.8,7.7,,,,,,,,,wg-a,,,,AAXX 16064 07190 02662 81812 10080 20060 39941 40127 56020 60006 875// 90600 333 10077 20058 61000=
07190,1998-01-16 09:00:00,8,1012.3,-0.3,93,7,15000,18.52,,,180,,,,,,,,,,,wg-a,,,,AAXX 16094 07190 12565 81810 10080 20070 39938 40123 57003 60006 875// 90900=
07190,1998-01-16 12:00:00,9,1010.7,-1.6,87,7,15000,18.52,,,180,,,,,,,,,,,wg-a,,,,AAXX 16124 07190 12665 81810 10090 20070 39922 40107 56016 60006 885// 91200=
07190,1998-01-16 15:00:00,8,1010.2,-0.5,87,6,15000,22.224,,,180,,,,0,,,,,,3,wg-a,,,,AAXX 16154 07190 12465 81812 10080 20060 39917 40102 55005 60007 70362 875// 91500=
07190,1998-01-16 21:00:00,7,1014.5,2.9,87,5,20000,11.112,,,270,,,,0,,,,,,3,wg-a,,,,AAXX 16214 07190 12470 82706 10070 20050 39959 40145 53029 60007 70362 878// 92100=
07190,1998-01-17 00:00:00,7,1018.2,3.6,81,4,20000,22.224,,,280,,,,,,,,,,1,wg-a,,,,AAXX 17004 07190 12570 52812 10070 20040 39995 40182 51036 60006 70162 84870 90000=
07190,1998-01-17 03:00:00,6,1022.3,3.9,81,3,15000,18.52,,,280,,,,0,,,,,,0,wg-a,,,,AAXX 17034 07190 12565 62810 10060 20030 30034 40223 51039 60007 70086 84870 90300=
07190,1998-01-17 06:00:00,5,1025.7,3.3,81,2,20000,11.112,,,290,4.8,7.7,,,,,1,,,3,wg-a,,,,AAXX 17064 07190 02570 62906 10050 20020 30067 40257 53033 60006 70386 86800 90600 333 10077 20048 60014=
07190,1998-01-17 09:00:00,6,1028.4,2.7,75,2,20000,7.408,,,280,,,,,,,,,,,wg-a,,,,AAXX 17094 07190 12670 22804 10060 20020 30094 40284 51027 60006 82800 90900=
07190,1998-01-17 12:00:00,9,1028.5,0.3,57,1,25000,11.112,,,230,,,,,,,,,,,wg-a,,,,AAXX 17124 07190 12575 22306 10090 20010 30097 40285 50003 60006 82200 91200=
07190,1998-01-17 21:00:00,-1,1026.3,-1.5,93,-2,15000,3.704,,,210,,,,,,,,,,,wg-a,,,,AAXX 17214 07190 12/65 02102 11010 21020 30069 40263 58015 60006 80000 92100=
07190,1998-01-18 00:00:00,-2,1024.5,-1.8,100,-2,15000,0,,,0,,,,,,,,,,,wg-a,,,,AAXX 18004 07190 12/65 00000 11020 21020 30051 40245 57018 60006 80000 90000=
07190,1998-01-18 03:00:00,-3,1022.4,-2.2,100,-3,500,0,,,0,,,,,,,,,,,wg-a,,,,AAXX 18034 07190 12/00 20000 11030 21030 30029 40224 58022 60006 80001 90300=
07190,1998-01-18 06:00:00,-2,1019.2,-3.1,100,-2,6000,7.408,,,190,-3.3,3.4,,,,,,,,,wg-a,,,,AAXX 18064 07190 02/56 71904 11020 21020 39998 40192 58031 60006 85072 90600 333 10034 21033 60004=
07190,1998-01-18 09:00:00,2,1015.6,-3.3,75,-2,20000,18.52,,,160,,,,,,,,,,,wg-a,,,,AAXX 18094 07190 12/70 71610 10020 21020 39965 40156 56033 60006 86072 90900=
07190,1998-01-18 12:00:00,3,1009.9,-5.5,75,-1,20000,14.816,,,150,,,,,,,,,,,wg-a,,,,AAXX 18124 07190 12870 81508 10030 21010 39910 40099 58055 60006 8357/ 91200=
07190,1998-01-18 15:00:00,5,1005.7,-3.9,70,0,15000,14.816,,,230,,,,,,,,,,,wg-a,,,,AAXX 18154 07190 12765 82308 10050 20000 39871 40057 56039 60006 8657/ 91500=
07190,1998-01-18 18:00:00,6,1006.7,1,81,3,12000,25.928,,,190,-2,6.4,,,,,,,,21,wg-a,,,,AAXX 18184 07190 02562 81914 10060 20030 39881 40067 53010 61000 72162 888// 91800 333 10064 21020 6001=
07190,1998-01-18 21:00:00,7,1005.3,-1.3,70,2,15000,22.224,,,170,,,,,,,,,,21,wg-a,,,,AAXX 18214 07190 02665 /1712 10070 20020 39868 40053 58013 61000 72162 86500 92100 333 ////=
07190,1998-01-19 00:00:00,6,1000.1,-5.2,75,2,20000,22.224,,,170,,,,,,,,,,3,wg-a,,,,AAXX 19004 07190 02770 71712 10060 20020 39816 40001 58052 61000 70362 8357/ 90000 333 ////=
07190,1998-01-19 03:00:00,5,990.6,-9.3,93,4,9000,22.224,,,170,,,,3,,,,,,61,wg-a,,,,AAXX 19034 07190 12559 81712 10050 20040 39723 49906 56093 60037 76162 888// 90300=
07190,1998-01-19 06:00:00,5,996.5,5.7,81,2,12000,35.188,,66.672,260,4.6,6.8,,,,,,,,21,wg-a,,,,AAXX 19064 07190 02562 72619 10050 20020 39780 49965 53057 61000 72162 8483/ 90600 333 10068 20046 6005 91036=
07190,1998-01-19 09:00:00,6,997.3,0.9,81,3,10000,31.484,,,190,,,,0,,,,,,60,wg-a,,,,AAXX 19094 07190 12560 71917 10060 20030 39789 49973 51009 60007 76062 875// 90900=
07190,1998-01-19 15:00:00,6,1001.2,2.4,87,4,15000,18.52,,,230,,,,1,,,,,,61,wg-a,,,,AAXX 19154 07190 12565 82310 10060 20040 39827 40012 53024 60017 76166 878// 91500=
07190,1998-01-19 18:00:00,6,1004.5,3.3,81,3,15000,18.52,,,270,4.7,6.6,,,,,,,,25,wg-a,,,,AAXX 19184 07190 02465 /2710 10060 20030 39860 40045 53033 61000 72586 85870 91800 333 10066 20047 6001=
07190,1998-01-20 00:00:00,2,1008.4,1.1,93,1,10000,18.52,,,300,,,,2,,,,,,21,wg-a,,,,AAXX 20004 07190 02360 83010 10020 20010 39895 40084 52011 60026 72162 875// 90000 333 60027=
07190,1998-01-20 06:00:00,1,1011.4,2.6,86,-1,10000,18.52,,,240,1.3,6.3,,,,,,,,71,wg-a,,,,AAXX 20064 07190 02260 82410 10010 21010 39924 40114 53026 61000 77171 888// 90600 333 10063 20013 6004=
07190,1998-01-20 09:00:00,3,1015.2,3.8,75,-1,15000,11.112,,,230,,,,,,,,,,2,wg-a,,,,AAXX 20094 07190 02565 72306 10030 21010 39962 40152 51038 61000 70272 875// 90900 333 ////=
07190,1998-01-20 12:00:00,2,1016.4,1.2,87,0,12000,18.52,,,240,,,,0,,,,,,61,wg-a,,,,AAXX 20124 07190 02462 82410 10020 20000 39974 40164 51012 60016 76176 8657/ 91200 333 60007=
07190,1998-01-20 21:00:00,4,1024.8,3.1,87,2,12000,18.52,,,320,,,,,,,,,,,wg-a,,,,AAXX 20214 07190 12562 73210 10040 20020 30058 40248 52031 60006 875// 92100=
07190,1998-01-21 00:00:00,4,1027.7,2.8,87,2,12000,14.816,,,340,,,,,,,,,,,wg-a,,,,AAXX 21004 07190 12562 73408 10040 20020 30086 40277 51028 60006 875// 90000=
07190,1998-01-21 03:00:00,3,1029.5,1.7,87,1,15000,14.816,,,350,,,,,,,,,,,wg-a,,,,AAXX 21034 07190 12565 73508 10030 20010 30103 40295 51017 60006 875// 90300=
07190,1998-01-21 06:00:00,3,1031.4,1.8,81,0,15000,11.112,,,350,2.7,4.3,,,,,,,,,wg-a,,,,AAXX 21064 07190 02565 83506 10030 20000 30121 40314 53018 60006 875// 90600 333 10043 20027 60004=
07190,1998-01-21 09:00:00,3,1033,1.6,81,0,15000,14.816,,,10,,,,,,,,,,,wg-a,,,,AAXX 21094 07190 12465 80108 10030 20000 30137 40330 51016 60006 875// 90900=
07190,1998-01-21 12:00:00,3,1033.2,0.2,81,0,15000,22.224,,,20,,,,,,,,,,,wg-a,,,,AAXX 21124 07190 12465 70212 10030 20000 30139 40332 51002 60006 878// 91200=
07190,1998-01-21 15:00:00,3,1033.6,0.4,75,-1,15000,18.52,,,40,,,,,,,,,,,wg-a,,,,AAXX 21154 07190 12465 70410 10030 21010 30143 40336 53004 60006 878// 91500=
07190,1998-01-21 21:00:00,1,1034.3,-0.1,75,-3,15000,14.816,,,20,,,,,,,,,,,wg-a,,,,AAXX 21214 07190 12665 70208 10010 21030 30148 40343 58001 60006 87500 92100=
07190,1998-01-22 00:00:00,0,1033.5,-0.8,80,-3,15000,18.52,,,30,,,,,,,,,,,wg-a,,,,AAXX 22004 07190 12665 70310 10000 21030 30140 40335 56008 60006 875// 90000=
07190,1998-01-22 03:00:00,0,1032.6,-0.9,86,-2,15000,18.52,,,30,,,,,,,,,,,wg-a,,,,AAXX 22034 07190 12665 70310 10000 21020 30131 40326 58009 60006 875// 90300=
07190,1998-01-22 06:00:00,0,1031.8,-0.8,80,-3,15000,22.224,,,30,0.2,1.5,,,,,,,,,wg-a,,,,AAXX 22064 07190 02665 70312 10000 21030 30123 40318 56008 60006 875// 90600 333 10015 20002 60004=
07190,1998-01-22 09:00:00,-1,1031.8,0,80,-4,15000,22.224,,,30,,,,,,,,,,,wg-a,,,,AAXX 22094 07190 12565 /0312 11010 21040 30123 40318 50000 60006 81800 90900=
07190,1998-01-22 12:00:00,1,1030.3,-1.4,75,-3,15000,25.928,,,20,,,,,,,,,,,wg-a,,,,AAXX 22124 07190 12565 70214 10010 21030 30109 40303 58014 60006 878// 91200=
07190,1998-01-22 15:00:00,1,1029,-1.3,75,-3,15000,18.52,,,20,,,,,,,,,,,wg-a,,,,AAXX 22154 07190 12465 70210 10010 21030 30096 40290 56013 60006 8583/ 91500=
07190,1998-01-22 18:00:00,0,1028.1,-0.9,80,-3,15000,25.928,,,20,-0.9,1.2,,,,,,,,,wg-a,,,,AAXX 22184 07190 12465 70214 10000 21030 30087 40281 56009 60006 878// 91800 333 10012 21009=
07190,1998-01-23 03:00:00,1,1026.1,-0.4,86,-1,10000,14.816,,,20,,,,,,,,,,,wg-a,,,,AAXX 23034 07190 12460 80208 10010 21010 30068 40261 56004 60006 878// 90300=
07190,1998-01-23 06:00:00,1,1026.4,0.3,86,-1,8000,11.112,,,10,0.4,1.4,,,,,,,,,wg-a,,,,AAXX 23064 07190 02558 80106 10010 21010 30071 40264 53003 60006 875// 90600 333 10014 20004 60004=
07190,1998-01-23 09:00:00,2,1026.6,0.3,87,0,9000,14.816,,,30,,,,,,,,,,,wg-a,,,,AAXX 23094 07190 12559 80308 10020 20000 30074 40266 51003 60006 875// 90900=
07190,1998-01-23 12:00:00,3,1026.1,-0.4,81,0,12000,18.52,,,30,,,,,,,,,,,wg-a,,,,AAXX 23124 07190 12462 80310 10030 20000 30070 40261 58004 60006 878// 91200=
07190,1998-01-23 15:00:00,3,1025.5,-0.6,81,0,12000,18.52,,,30,,,,,,,,,,,wg-a,,,,AAXX 23154 07190 12562 80310 10030 20000 30064 40255 56006 60006 875// 91500=
07190,1998-01-23 18:00:00,3,1026.2,0.6,81,0,8000,14.816,,,30,1.2,3.4,,,,,,,,,wg-a,,,,AAXX 23184 07190 12558 80308 10030 20000 30070 40262 53006 60006 875// 91800 333 10034 20012=
07190,1998-01-23 21:00:00,2,1025.8,-0.4,87,0,9000,14.816,,,30,,,,,,,,,,,wg-a,,,,AAXX 23214 07190 12559 80308 10020 20000 30066 40258 58004 60006 875// 92100=
07190,1998-01-24 00:00:00,2,1025.3,-0.5,80,-1,9000,14.816,,,20,,,,,,,,,,,wg-a,,,,AAXX 24004 07190 12459 80208 10020 21010 30061 40253 58005 60006 875// 90000=
07190,1998-01-24 03:00:00,1,1024.8,-0.6,86,-1,7000,14.816,,,20,,,,,,,,,,,wg-a,,,,AAXX 24034 07190 12457 80208 10010 21010 30055 40248 56006 60006 875// 90300=
07190,1998-01-24 06:00:00,0,1024.8,-0,93,-1,500,11.112,,,20,0.4,2.5,,,,,,,,50,wg-a,,,,AAXX 24064 07190 02300 80206 10000 21010 30055 40248 55000 61000 75052 885// 90600 333 10025 20004 6100=
07190,1998-01-24 09:00:00,0,1025.1,0.2,93,-1,2500,11.112,,,20,,,,,,,,,,50,wg-a,,,,AAXX 24094 07190 02225 80206 10000 21010 30057 40251 53002 61000 75052 886// 90900 333 ////=
07190,1998-01-24 12:00:00,0,1023.6,-1.4,86,-2,8000,14.816,,,20,,,,,,,,,,1,wg-a,,,,AAXX 24124 07190 02358 80208 10000 21020 30043 40236 57014 61000 70152 875// 91200 333 6100=
07190,1998-01-24 15:00:00,1,1022.6,-1,86,-1,7000,7.408,,,20,,,,,,,,,,,wg-a,,,,AAXX 24154 07190 12457 80204 10010 21010 30033 40226 56010 60006 875// 91500=
07190,1998-01-24 18:00:00,0,1022.1,-0.5,93,-1,4000,0,,,0,-0.4,0.6,,,,,,,,71,wg-a,,1,,AAXX 24184 07190 02440 80000 10000 21010 30028 40221 57005 61000 77172 875// 91800 333 10006 21004 4/001 6000=
07190,1998-01-24 21:00:00,0,1021.6,-0.5,100,0,2000,0,,,0,,,,1,,,,,,10,wg-a,,,,AAXX 24214 07190 12120 80000 10000 20000 30023 40216 57005 60017 71072 877// 92100=
07190,1998-01-25 00:00:00,0,1021,-0.5,100,0,7000,11.112,,,30,,,,,,,,,,0,wg-a,,,,AAXX 25004 07190 12257 80306 10000 20000 30018 40210 57005 60016 70072 877// 90000=
07190,1998-01-25 03:00:00,0,1021.3,0.2,86,-2,8000,22.224,,,20,,,,,,,,,,,wg-a,,,,AAXX 25034 07190 12458 80212 10000 21020 30020 40213 52002 60006 878// 90300=
07190,1998-01-25 06:00:00,0,1022.2,0.9,86,-2,8000,22.224,,,30,-0.1,0.3,,,,,1,,,,wg-a,,1,,AAXX 25064 07190 02658 70312 10000 21020 30029 40222 53009 60006 875// 90600 333 10003 21001 4/001 60014=
07190,1998-01-25 09:00:00,0,1024.2,2,80,-3,9000,22.224,,,30,,,,,,,,,,,wg-a,,,,AAXX 25094 07190 12459 80312 10000 21030 30049 40242 51020 60006 878// 90900=
07190,1998-01-25 12:00:00,1,1025.3,1.1,80,-2,10000,22.224,,,30,,,,,,,,,,,wg-a,,,,AAXX 25124 07190 12560 80312 10010 21020 30060 40253 51011 60006 878// 91200=
07190,1998-01-25 15:00:00,1,1025.9,0.6,75,-3,9000,25.928,,,30,,,,,,,,,,,wg-a,,,,AAXX 25154 07190 12559 80314 10010 21030 30066 40259 53006 60006 875// 91500=
07190,1998-01-25 18:00:00,1,1027.5,1.5,75,-3,8000,18.52,,,40,0,0.8,,,,,,,,,wg-a,,,,AAXX 25184 07190 12558 80410 10010 21030 30081 40275 53015 60006 875// 91800 333 10008 20000=
07190,1998-01-25 21:00:00,0,1028.4,0.9,80,-3,8000,18.52,,,30,,,,,,,,,,,wg-a,,,,AAXX 25214 07190 12658 80310 10000 21030 30090 40284 51009 60006 875// 92100=
07190,1998-01-26 00:00:00,-1,1029,0.5,80,-4,9000,18.52,,,30,,,,,,,,,,,wg-a,,,,AAXX 26004 07190 12659 40310 11010 21040 30095 40290 52005 60006 84500 90000=
07190,1998-01-26 03:00:00,-3,1029.2,0.1,86,-5,9000,14.816,,,20,,,,,,,,,,,wg-a,,,,AAXX 26034 07190 12/59 00208 11030 21050 30096 40292 52001 60006 80000 90300=
07190,1998-01-26 06:00:00,-3,1030,0.7,80,-6,8000,18.52,,,30,-3.3,0.5,,,,,,,,,wg-a,,,,AAXX 26064 07190 02/58 00310 11030 21060 30103 40300 53007 60006 80000 90600 333 10005 21033 60004=
07190,1998-01-26 09:00:00,-3,1030.7,0.8,86,-5,7000,22.224,,,30,,,,,,,,,,,wg-a,,,,AAXX 26094 07190 12/57 40312 11030 21050 30111 40307 51008 60006 80001 90900=
07190,1998-01-26 12:00:00,-1,1029.9,-0.7,74,-5,9000,14.816,,,20,,,,,,,,,,,wg-a,,,,AAXX 26124 07190 12459 /0208 11010 21050 30104 40299 58007 60006 85800 91200=
07190,1998-01-26 15:00:00,-1,1028.9,-1,69,-6,9000,14.816,,,20,,,,,,,,,,,wg-a,,,,AAXX 26154 07190 12559 /0208 11010 21060 30094 40289 56010 60006 85500 91500=
07190,1998-01-26 18:00:00,-2,1028.8,-0.2,74,-6,7000,11.112,,,20,-3.5,-0.5,,,,,,,,,wg-a,,,,AAXX 26184 07190 12557 70206 11020 21060 30092 40288 57002 60006 875// 91800 333 11005 21035=
07190,1998-01-26 21:00:00,-4,1028.4,-0.5,86,-6,6000,3.704,,,30,,,,,,,,,,,wg-a,,,,AAXX 26214 07190 12/56 /0302 11040 21060 30087 40284 58005 60006 80000 92100=
07190,1998-01-27 00:00:00,-6,1027.6,-0.9,93,-7,500,3.704,,,340,,,,,,,,,,,wg-a,,,,AAXX 27004 07190 12/00 03402 11060 21070 30078 40276 58009 60006 80000 90000=
07190,1998-01-27 03:00:00,-6,1026.2,-1.4,86,-8,4000,3.704,,,350,,,,,,,,,,10,wg-a,,,,AAXX 27034 07190 12/40 03502 11060 21080 30064 40262 58014 60006 71000 80000 90300=
07190,1998-01-27 06:00:00,-7,1025.4,-0.9,93,-8,4000,3.704,,,350,-7,-2.4,,,,,,,,10,wg-a,,,,AAXX 27064 07190 02/40 03502 11070 21080 30055 40254 56009 60006 71000 80000 90600 333 11024 21070 60004=
07190,1998-01-27 09:00:00,-5,1025.2,0,93,-6,2500,3.704,,,30,,,,,,,,,,10,wg-a,,,,AAXX 27094 07190 12/25 00302 11050 21060 30055 40252 50000 60006 71000 80000 90900=
07190,1998-01-27 12:00:00,-2,1024,-1,69,-7,9000,3.704,,,150,,,,,,,,,,,wg-a,,,,AAXX 27124 07190 12559 61502 11020 21070 30045 40240 58010 60006 86100 91200=
07190,1998-01-27 18:00:00,-4,1022.5,-0.3,80,-7,500,7.408,,,260,-7,-1.2,,,,,,,,,wg-a,,,,AAXX 27184 07190 12500 22604 11040 21070 30029 40225 55003 60006 82500 91800 333 11012 21070=
07190,1998-01-27 21:00:00,-7,1022.9,0.2,93,-8,500,3.704,,,240,,,,,,,,,,,wg-a,,,,AAXX 27214 07190 12/00 02402 11070 21080 30031 40229 53002 60006 80000 92100=
07190,1998-01-28 00:00:00,-8,1022.6,-0.4,92,-9,4000,0,,,0,,,,,,,,,,10,wg-a,,,,AAXX 28004 07190 12440 /0000 11080 21090 30027 40226 58004 60006 71011 85700 90000=
07190,1998-01-28 03:00:00,-6,1021.3,-1.1,93,-7,4000,3.704,,,360,,,,,,,,,,10,wg-a,,,,AAXX 28034 07190 12440 83602 11060 21070 30016 40213 58011 60006 71022 887// 90300=
07190,1998-01-28 06:00:00,-4,1021.8,0.6,86,-6,4500,11.112,,,350,-8.4,-4.3,,,,,,,,10,wg-a,,,,AAXX 28064 07190 02345 83506 11040 21060 30022 40218 53006 60006 71022 887// 90600 333 11043 21084 60004=
07190,1998-01-28 12:00:00,-2,1022,-0.3,86,-4,3000,0,,,0,,,,,,,,,,10,wg-a,,,,AAXX 28124 07190 12330 80000 11020 21040 30025 40220 58003 60006 71022 887// 91200=
07190,1998-01-28 15:00:00,-2,1021.1,-0.8,86,-4,2500,3.704,,,350,,,,,,,,,,10,wg-a,,,,AAXX 28154 07190 12325 83502 11020 21040 30017 40211 56008 60006 71022 887// 91500=
07190,1998-01-28 18:00:00,-3,1021.6,0.4,93,-4,3000,7.408,,,330,-4.3,-2.1,,,,,,,,10,wg-a,,,,AAXX 28184 07190 12230 83304 11030 21040 30021 40216 53004 60006 71022 886// 91800 333 11021 21043=
07190,1998-01-28 21:00:00,-3,1022.1,0.5,93,-4,3000,7.408,,,240,,,,,,,,,,10,wg-a,,,,AAXX 28214 07190 12230 82404 11030 21040 30026 40221 51005 60006 71022 886// 92100=
07190,1998-01-29 00:00:00,-3,1022,-0.1,93,-4,2500,3.704,,,210,,,,,,,,,,10,wg-a,,,,AAXX 29004 07190 12225 82102 11030 21040 30025 40220 56001 60006 71022 886// 90000=
07190,1998-01-29 06:00:00,-2,1022.3,0.5,93,-3,2500,3.704,,,190,-2.9,-2.3,,,,,,,,10,wg-a,,,,AAXX 29064 07190 02225 81902 11020 21030 30028 40223 53005 60006 71022 886// 90600 333 11023 21029 60004=
07190,1998-01-29 12:00:00,-1,1023.4,-0.1,93,-2,2200,7.408,,,340,,,,,,,,,,10,wg-a,,,,AAXX 29124 07190 12222 83404 11010 21020 30040 40234 58001 60006 71022 886// 91200=
07190,1998-01-29 15:00:00,1,1022.7,-0.6,80,-2,4000,3.704,,,20,,,,,,,,,,10,wg-a,,,,AAXX 29154 07190 12540 70202 10010 21020 30034 40227 56006 60006 71022 875// 91500=
07190,1998-01-29 18:00:00,-2,1023,0.2,93,-3,3000,7.408,,,350,-2.4,0.6,,,,,,,,10,wg-a,,,,AAXX 29184 07190 12/30 03504 11020 21030 30036 40230 53002 60006 71011 80000 91800 333 10006 21024=
07190,1998-01-29 21:00:00,-4,1022.9,-0.3,93,-5,2500,7.408,,,340,,,,,,,,,,10,wg-a,,,,AAXX 29214 07190 12/25 03404 11040 21050 30033 40229 56003 60006 71000 80000 92100=
07190,1998-01-30 00:00:00,-3,1022.4,-0.4,93,-4,600,7.408,,,360,,,,,,,,,,49,wg-a,,,,AAXX 30004 07190 12/06 93604 11030 21040 30029 40224 57004 60006 74941 89/// 90000=
07190,1998-01-30 03:00:00,-4,1022.2,-0.3,93,-5,300,3.704,,,10,,,,,,,,,,49,wg-a,,,,AAXX 30034 07190 12/03 90102 11040 21050 30026 40222 56003 60006 74942 89/// 90300=
07190,1998-01-30 06:00:00,-4,1022.4,0.2,93,-5,700,3.704,,,320,-4.5,-1.6,,,,,,,,49,wg-a,,,,AAXX 30064 07190 02/07 93202 11040 21050 30028 40224 53002 60006 74942 89/// 90600 333 11016 21045 60004=
07190,1998-01-30 09:00:00,-4,1022.9,0.5,100,-4,600,0,,,0,,,,,,,,,,49,wg-a,,,,AAXX 30094 07190 12/06 90000 11040 21040 30033 40229 50005 60006 74944 89/// 90900=
07190,1998-01-30 21:00:00,-3,1019.7,-0.1,93,-4,2000,3.704,,,90,,,,,,,,,,10,wg-a,,,,AAXX 30214 07190 12120 80902 11030 21040 30002 40197 56001 60006 71022 886// 92100=
07190,1998-01-31 06:00:00,-4,1018.5,-0.2,93,-5,1000,0,,,0,-4.3,-2.6,,,,,,,,28,wg-a,,,,AAXX 31064 07190 02010 90000 11040 21050 39990 40185 55002 60006 72842 896// 90600 333 11026 21043 60004=
07190,1998-01-31 12:00:00,-2,1019.2,0.1,93,-3,3500,7.408,,,330,,,,,,,,,,10,wg-a,,,,AAXX 31124 07190 02235 83304 11020 21030 39998 40192 50001 61000 71074 886// 91200 333 ////=
07190,1998-01-31 15:00:00,0,1019,-0,86,-2,4000,18.52,,,20,,,,,,,,,,10,wg-a,,,,AAXX 31154 07190 12340 80210 10000 21020 39998 40190 55000 60006 71022 886// 91500=
07190,1998-01-31 18:00:00,-1,1019.5,0.4,86,-3,500,18.52,,,30,-4.4,0.2,,,,,,,,,wg-a,,,,AAXX 31184 07190 12/00 00310 11010 21030 30002 40195 53004 60006 80000 91800 333 10002 21044=
07190,1998-02-01 00:00:00,-6,1020.1,-0.2,73,-10,15000,25.928,,,20,,,,,,,,,,,wg-a,,,,AAXX 01004 07190 12565 /0214 11060 21100 30004 40201 57002 60006 81500 90000=
07190,1998-02-01 03:00:00,-7,1019.7,-0.5,67,-12,15000,14.816,,,10,,,,,,,,,,,wg-a,,,,AAXX 01034 07190 12/65 00108 11070 21120 39999 40197 58005 60006 80000 90300=
07190,1998-02-01 06:00:00,-9,1019.3,-0.5,73,-13,20000,11.112,,,340,-9.1,-0.6,,,,,,,,,wg-a,,,,AAXX 01064 07190 02570 13406 11090 21130 39994 40193 56005 60006 81500 90600 333 11006 21091 61000=
07190,1998-02-01 09:00:00,-7,1019.4,0.2,67,-12,15000,18.52,,,30,,,,,,,,,,,wg-a,,,,AAXX 01094 07190 12/65 20310 11070 21120 39996 40194 51002 60006 80002 90900=
07190,1998-02-01 12:00:00,-4,1017.6,-1.5,63,-10,15000,14.816,,,40,,,,,,,,,,,wg-a,,,,AAXX 01124 07190 12/65 10408 11040 21100 39981 40176 58015 60006 80002 91200=
07190,1998-02-01 15:00:00,-3,1016.5,-1,63,-9,15000,11.112,,,30,,,,,,,,,,,wg-a,,,,AAXX 01154 07190 12565 70306 11030 21090 39971 40165 56010 60006 875// 91500=
07190,1998-02-01 18:00:00,-3,1016.5,0,68,-8,12000,11.112,,,30,-9.4,-2.5,,,,,,,,,wg-a,,,,AAXX 01184 07190 12562 80306 11030 21080 39971 40165 50000 60006 885// 91800 333 11025 21094=
07190,1998-02-01 21:00:00,-4,1016,-0.5,68,-9,15000,11.112,,,360,,,,,,,,,,,wg-a,,,,AAXX 01214 07190 12565 83606 11040 21090 39966 40160 56005 60006 885// 92100=
07190,1998-02-02 00:00:00,-5,1015.6,-0.5,73,-9,12000,7.408,,,340,,,,,,,,,,,wg-a,,,,AAXX 02004 07190 12562 83404 11050 21090 39961 40156 58005 60006 885// 90000=
07190,1998-02-02 03:00:00,-7,1015.1,-0.7,79,-10,15000,3.704,,,340,,,,,,,,,,,wg-a,,,,AAXX 02034 07190 12565 33402 11070 21100 39954 40151 56007 60006 83500 90300=
07190,1998-02-02 06:00:00,-6,1014.7,-0.3,73,-10,15000,7.408,,,10,-7.4,-2.9,,,,,,,,,wg-a,,,,AAXX 02064 07190 02565 80104 11060 21100 39951 40147 58003 60006 885// 90600 333 11029 21074 60004=
07190,1998-02-02 09:00:00,-5,1014.5,-0.1,68,-10,12000,3.704,,,350,,,,,,,,,,,wg-a,,,,AAXX 02094 07190 12562 83502 11050 21100 39950 40145 55001 60006 875// 90900=
07190,1998-02-02 12:00:00,-2,1012.7,-1.5,63,-8,10000,0,,,0,,,,,,,,,,,wg-a,,,,AAXX 02124 07190 12460 80000 11020 21080 39935 40127 57015 60006 875// 91200=
07190,1998-02-02 15:00:00,0,1011.4,-1.2,59,-7,12000,3.704,,,330,,,,,,,,,,,wg-a,,,,AAXX 02154 07190 12/62 53302 10000 21070 39923 40114 56012 60006 80001 91500=
07190,1998-02-02 18:00:00,-4,1012,0.3,80,-7,8000,0,,,0,-5.6,0.6,,,,,,,,,wg-a,,,,AAXX 02184 07190 12/58 00000 11040 21070 39926 40120 52003 60006 80000 91800 333 10006 21056=
07190,1998-02-02 21:00:00,-7,1013,0.8,86,-9,6000,3.704,,,200,,,,,,,,,,,wg-a,,,,AAXX 02214 07190 12/56 02002 11070 21090 39934 40130 51008 60006 80000 92100=
07190,1998-02-03 00:00:00,-9,1013.4,0.2,92,-10,3000,3.704,,,190,,,,,,,,,,10,wg-a,,,,AAXX 03004 07190 12/30 01902 11090 21100 39936 40134 53002 60006 71000 80000 90000=
07190,1998-02-03 03:00:00,-10,1013.5,0.1,92,-11,3000,0,,,0,,,,,,,,,,10,wg-a,,,,AAXX 03034 07190 12/30 00000 11100 21110 39937 40135 53001 60006 71000 80000 90300=
07190,1998-02-03 06:00:00,-10,1014.1,0.6,92,-11,500,3.704,,,240,-9.9,-3.8,,,,,,,,,wg-a,,,,AAXX 03064 07190 02200 /2402 11100 21110 39943 40141 53006 60006 81600 90600 333 11038 21099 60004=
07190,1998-02-03 09:00:00,-5,1014.8,1,100,-5,600,11.112,,,190,,,,,,,,,,48,wg-a,,,,AAXX 03094 07190 12/06 91906 11050 21050 39953 40148 51010 60006 74841 89/// 90900=
07190,1998-02-03 12:00:00,0,1014.6,0.1,80,-3,6000,3.704,,,350,,,,,,,,,,2,wg-a,,,,AAXX 03124 07190 12456 33502 10000 21030 39954 40146 50001 60006 70241 83100 91200=
07190,1998-02-03 15:00:00,1,1014.2,-0.3,69,-4,6000,11.112,,,350,,,,,,,,,,,wg-a,,,,AAXX 03154 07190 12456 33506 10010 21040 39951 40142 56003 60006 83100 91500=
07190,1998-02-03 18:00:00,-2,1015.1,0.7,86,-4,6000,7.408,,,20,-9.7,2.1,,,,,,,,11,wg-a,,,,AAXX 03184 07190 12/56 00204 11020 21040 39958 40151 52007 60006 71100 80000 91800 333 10021 21097=
07190,1998-02-03 21:00:00,-3,1015.9,0.7,86,-5,4000,3.704,,,10,,,,,,,,,,,wg-a,,,,AAXX 03214 07190 12/40 /0102 11030 21050 39965 40159 51007 60006 92100=
07190,1998-02-04 00:00:00,-5,1015.1,-0.9,86,-7,4000,7.408,,,340,,,,,,,,,,10,wg-a,,,,AAXX 04004 07190 12/40 03404 11050 21070 39956 40151 58009 60006 71000 80000 90000=
07190,1998-02-04 03:00:00,-6,1014.4,-0.8,93,-7,6000,7.408,,,350,,,,,,,,,,,wg-a,,,,AAXX 04034 07190 12/56 03504 11060 21070 39951 40144 56008 60006 80000 90300=
07190,1998-02-04 06:00:00,-7,1014.2,-0.3,93,-8,500,7.408,,,330,-7.2,-1.9,,,,,,,,,wg-a,,,,AAXX 04064 07190 02/00 03304 11070 21080 39945 40142 55003 60006 80000 90600 333 11019 21072 60004=
07190,1998-02-04 09:00:00,-4,1014.5,0.6,86,-6,7000,11.112,,,350,,,,,,,,,,,wg-a,,,,AAXX 04094 07190 12/57 03506 11040 21060 39951 40145 51006 60006 80000 90900=
07190,1998-02-04 12:00:00,1,1013.5,-0.7,64,-5,10000,14.816,,,10,,,,,,,,,,,wg-a,,,,AAXX 04124 07190 12/60 00108 10010 21050 39944 40135 58007 60006 80000 91200=
07190,1998-02-04 15:00:00,3,1013.3,-0,56,-5,10000,14.816,,,20,,,,,,,,,,,wg-a,,,,AAXX 04154 07190 12/60 00208 10030 21050 39944 40133 55000 60006 80000 91500=
07190,1998-02-04 18:00:00,-1,1015.8,2.1,69,-6,12000,7.408,,,330,-7.2,3.4,,,,,,,,,wg-a,,,,AAXX 04184 07190 12/62 03304 11010 21060 39965 40158 51021 60006 80000 91800 333 10034 21072=
07190,1998-02-05 00:00:00,-6,1019,0.8,86,-8,8000,0,,,0,,,,,,,,,,,wg-a,,,,AAXX 05004 07190 12/58 00000 11060 21080 39993 40190 51008 60006 80000 90000=
07190,1998-02-05 03:00:00,-8,1020.4,1.3,92,-9,6000,3.704,,,220,,,,,,,,,,,wg-a,,,,AAXX 05034 07190 12/56 02202 11080 21090 30006 40204 53013 60006 80000 90300=
07190,1998-02-05 06:00:00,-9,1021.4,0.9,92,-10,6000,3.704,,,200,-9.2,-1.4,,,,,,,,,wg-a,,,,AAXX 05064 07190 02/56 02002 11090 21100 30015 40214 53009 60006 80000 90600 333 11014 21092 60004=
07190,1998-02-05 09:00:00,-4,1022.9,1.8,86,-6,3500,0,,,0,,,,,,,,,,10,wg-a,,,,AAXX 05094 07190 12/35 00000 11040 21060 30033 40229 51018 60006 71000 80000 90900=
07190,1998-02-05 12:00:00,2,1022.5,0,60,-5,6000,3.704,,,360,,,,,,,,,,,wg-a,,,,AAXX 05124 07190 12/56 03602 10020 21050 30033 40225 50000 60006 80000 91200=
07190,1998-02-05 15:00:00,4,1021.9,-0.4,52,-5,6000,7.408,,,10,,,,,,,,,,,wg-a,,,,AAXX 05154 07190 12/56 00104 10040 21050 30029 40219 55004 60006 80000 91500=
07190,1998-02-05 18:00:00,0,1022.8,0.6,69,-5,8000,3.704,,,340,-9.1,4,,,,,,,,,wg-a,,,,AAXX 05184 07190 12/58 03402 10000 21050 30035 40228 53006 60006 80000 91800 333 10040 21091=
07190,1998-02-06 00:00:00,-5,1024.7,0.5,93,-6,6000,3.704,,,230,,,,,,,,,,11,wg-a,,,,AAXX 06004 07190 12/56 02302 11050 21060 30050 40247 52005 60006 71100 80000 90000=
07190,1998-02-06 03:00:00,-7,1025.3,0.4,93,-8,500,0,,,0,,,,,,,,,,,wg-a,,,,AAXX 06034 07190 12/00 00000 11070 21080 30054 40253 51004 60006 80000 90300=
07190,1998-02-06 06:00:00,-8,1025.7,0.4,92,-9,4500,3.704,,,140,-7.9,-0.3,,,,,,,,10,wg-a,,,,AAXX 06064 07190 02/45 01402 11080 21090 30058 40257 53004 60006 71000 80000 90600 333 11003 21079 60004=
07190,1998-02-06 12:00:00,4,1025.8,-0.4,60,-3,500,3.704,,,90,,,,,,,,,,,wg-a,,,,AAXX 06124 07190 12/00 30902 10040 21030 30067 40258 58004 60006 80002 91200=
07190,1998-02-06 15:00:00,5,1024.4,-1.3,56,-3,7000,3.704,,,30,,,,,,,,,,,wg-a,,,,AAXX 06154 07190 12/57 /0302 10050 21030 30054 40244 56013 60006 91500=
07190,1998-02-06 18:00:00,0,1024.9,0.2,74,-4,4000,3.704,,,190,-7.7,6.1,,,,,,,,10,wg-a,,,,AAXX 06184 07190 12/40 /1902 10000 21040 30056 40249 53002 60006 71000 80001 91800 333 10061 21077=
07190,1998-02-06 21:00:00,-4,1025.2,-0,93,-5,4000,3.704,,,200,,,,,,,,,,10,wg-a,,,,AAXX 06214 07190 12/40 02002 11040 21050 30056 40252 54000 60006 71000 80000 92100=
07190,1998-02-07 00:00:00,-5,1024.9,-0.4,93,-6,3000,0,,,0,,,,,,,,,,10,wg-a,,,,AAXX 07004 07190 12/30 00000 11050 21060 30052 40249 55004 60006 71000 80000 90000=
07190,1998-02-07 03:00:00,-7,1024.6,-0.4,93,-8,3000,3.704,,,160,,,,,,,,,,10,wg-a,,,,AAXX 07034 07190 12/30 01602 11070 21080 30048 40246 58004 60006 71000 80000 90300=
07190,1998-02-07 06:00:00,-8,1024.3,-0.4,92,-9,3000,3.704,,,170,-7.7,0.2,,,,,,,,10,wg-a,,,,AAXX 07064 07190 02/30 31702 11080 21090 30044 40243 56004 60006 71000 80001 90600 333 10002 21077 60004=
07190,1998-02-07 09:00:00,-3,1023.5,-0.4,93,-4,2500,3.704,,,230,,,,,,,,,,10,wg-a,,,,AAXX 07094 07190 12/25 /2302 11030 21040 30040 40235 58004 60006 71011 81032 90900=
07190,1998-02-07 12:00:00,3,1022.5,-0.6,65,-3,6000,7.408,,,230,,,,,,,,,,,wg-a,,,,AAXX 07124 07190 12/56 82304 10030 21030 30034 40225 56006 60006 84056 91200=
07190,1998-02-07 15:00:00,6,1022,-0.3,45,-5,8000,14.816,,,180,,,,,,,,,,,wg-a,,,,AAXX 07154 07190 12758 71808 10060 21050 30031 40220 56003 60006 83532 91500=
07190,1998-02-07 18:00:00,4,1026.2,4,81,1,8000,14.816,,,260,-7.6,6.2,,0,,,,,,3,wg-a,,,,AAXX 07184 07190 02458 82608 10040 20010 30071 40262 53040 60006 70362 875// 91800 333 10062 21076 60007=
07190,1998-02-07 21:00:00,2,1028.8,2.4,80,-1,10000,14.816,,,250,,,,,,,,,,,wg-a,,,,AAXX 07214 07190 12660 /2508 10020 21010 30095 40288 51024 60006 83530 92100=
07190,1998-02-08 00:00:00,1,1030.5,1.6,86,-1,10000,11.112,,,190,,,,,,,,,,,wg-a,,,,AAXX 08004 07190 12660 /1906 10010 21010 30111 40305 51016 60006 83530 90000=
07190,1998-02-08 03:00:00,1,1031.5,1,86,-1,2500,7.408,,,210,,,,,,,,,,10,wg-a,,,,AAXX 08034 07190 12625 82104 10010 21010 30121 40315 52010 60006 71022 885// 90300=
07190,1998-02-08 06:00:00,-2,1032.6,0.9,93,-3,3000,3.704,,,200,-2.3,4,,,,,,,,10,wg-a,,,,AAXX 08064 07190 02630 /2002 11020 21030 30130 40326 52009 60006 71011 81500 90600 333 10040 21023 60004=
07190,1998-02-08 12:00:00,6,1032.5,-0.9,65,0,7000,7.408,,,150,,,,,,,,,,1,wg-a,,,,AAXX 08124 07190 12657 31504 10060 20000 30134 40325 58009 60006 70141 81101 91200=
07190,1998-02-08 15:00:00,8,1031.4,-0.9,53,-1,15000,7.408,,,150,,,,,,,,,,,wg-a,,,,AAXX 08154 07190 12665 31504 10080 21010 30125 40314 56009 60006 81101 91500=
07190,1998-02-08 18:00:00,2,1031.8,-0,69,-3,20000,0,,,0,-3.6,8,,,,,,,,,wg-a,,,,AAXX 08184 07190 12/70 00000 10020 21030 30125 40318 55000 60006 80000 91800 333 10080 21036=
07190,1998-02-08 21:00:00,-1,1032.5,0.5,86,-3,8000,0,,,0,,,,,,,,,,,wg-a,,,,AAXX 08214 07190 12/58 10000 11010 21030 30130 40325 53005 60006 80001 92100=
07190,1998-02-09 00:00:00,-4,1032.2,-0.6,93,-5,8000,3.704,,,190,,,,,,,,,,,wg-a,,,,AAXX 09004 07190 12/58 01902 11040 21050 30124 40322 58006 60006 80000 90000=
07190,1998-02-09 03:00:00,-4,1031.6,-0.6,93,-5,6000,3.704,,,200,,,,,,,,,,,wg-a,,,,AAXX 09034 07190 12/56 22002 11040 21050 30118 40316 58006 60006 80001 90300=
07190,1998-02-09 06:00:00,-5,1031.4,-0.2,93,-6,4000,0,,,0,-5.1,2,,,,,,,,10,wg-a,,,,AAXX 09064 07190 02/40 40000 11050 21060 30116 40314 57002 60006 71000 80001 90600 333 10020 21051 60004=
07190,1998-02-09 09:00:00,1,1031.8,0.8,80,-2,12000,7.408,,,170,,,,,,,,,,,wg-a,,,,AAXX 09094 07190 12/62 11704 10010 21020 30124 40318 50008 60006 80001 90900=
07190,1998-02-09 12:00:00,9,1030.6,-0.7,46,-2,10000,7.408,,,190,,,,,,,,,,,wg-a,,,,AAXX 09124 07190 12/60 21904 10090 21020 30117 40306 58007 60006 80001 91200=
07190,1998-02-09 15:00:00,11,1029.5,-0.9,37,-3,12000,3.704,,,190,,,,,,,,,,,wg-a,,,,AAXX 09154 07190 12/62 61902 10110 21030 30108 40295 56009 60006 80001 91500=
07190,1998-02-09 17:00:00,4,1030.1,0.2,65,-2,15000,3.704,,,200,-5,10.6,,,,,,,,,wg-a,,,,AAXX 09174 07190 12/65 72002 10040 21020 30110 40301 52002 60006 80001 91700 333 10106 21050=
07190,1998-02-09 18:00:00,4,1030.1,0.2,65,-2,15000,3.704,,,200,-5,10.6,,,,,,,,,wg-a,,,,AAXX 09184 07190 12/65 72002 10040 21020 30110 40301 52002 60006 80001 91800 333 10106 21050=
07190,1998-02-09 21:00:00,0,1030.7,0.2,80,-3,10000,7.408,,,220,,,,,,,,,,,wg-a,,,,AAXX 09214 07190 12/60 42204 10000 21030 30112 40307 51002 60006 80001 92100=
07190,1998-02-10 00:00:00,-2,1031.3,0.5,93,-3,7000,3.704,,,220,,,,,,,,,,,wg-a,,,,AAXX 10004 07190 12/57 /2202 11020 21030 30117 40313 51005 60006 80001 90000=
07190,1998-02-10 03:00:00,-3,1031.3,-0.1,93,-4,7000,3.704,,,240,,,,,,,,,,,wg-a,,,,AAXX 10034 07190 12/57 /2402 11030 21040 30116 40313 55001 60006 90300=
07190,1998-02-10 06:00:00,-4,1031.8,0.5,93,-5,15000,0,,,0,-3.7,4.4,,,,,,,,,wg-a,,,,AAXX 10064 07190 02/65 50000 11040 21050 30121 40318 53005 60006 80001 90600 333 10044 21037 60004=
07190,1998-02-10 12:00:00,12,1031.8,-0.4,40,-1,15000,11.112,,,180,,,,,,,,,,,wg-a,,,,AAXX 10124 07190 12/65 21806 10120 21010 30131 40318 58004 60006 80002 91200=
07190,1998-02-10 15:00:00,14,1030.5,-1.1,38,0,12000,7.408,,,220,,,,,,,,,,,wg-a,,,,AAXX 10154 07190 12/62 32204 10140 20000 30120 40305 56011 60006 80002 91500=
07190,1998-02-10 18:00:00,6,1031.5,0.4,61,-1,10000,0,,,0,-3.5,14.2,,,,,,,,,wg-a,,,,AAXX 10184 07190 12/60 20000 10060 21010 30124 40315 53004 60006 80002 91800 333 10142 21035=
07190,1998-02-10 21:00:00,0,1033.1,1.2,80,-3,10000,0,,,0,,,,,,,,,,,wg-a,,,,AAXX 10214 07190 12/60 50000 10000 21030 30136 40331 51012 60006 80001 92100=
07190,1998-02-11 00:00:00,-2,1033.5,0.3,86,-4,7000,0,,,0,,,,,,,,,,,wg-a,,,,AAXX 11004 07190 12/57 00000 11020 21040 30139 40335 53003 60006 80000 90000=
07190,1998-02-11 06:00:00,-4,1033.6,0.1,93,-5,6000,7.408,,,200,-4,5.7,,,,,,,,,wg-a,,,,AAXX 11064 07190 02/56 /2004 11040 21050 30138 40336 52001 60006 80001 90600 333 10057 21040 60004=
07190,1998-02-11 12:00:00,12,1032.2,-1,35,-3,12000,11.112,,,170,,,,,,,,,,,wg-a,,,,AAXX 11124 07190 12662 21706 10120 21030 30135 40322 58010 60006 81101 91200=
07190,1998-02-11 15:00:00,14,1030.9,-1.1,36,-1,15000,3.704,,,340,,,,,,,,,,,wg-a,,,,AAXX 11154 07190 12/65 53402 10140 21010 30124 40309 56011 60006 80002 91500=
07190,1998-02-11 18:00:00,7,1031.8,0.4,57,-1,10000,3.704,,,250,-3.8,15.3,,,,,,,,,wg-a,,,,AAXX 11184 07190 12/60 52502 10070 21010 30128 40318 53004 60006 82032 91800 333 10153 21038=
07190,1998-02-11 21:00:00,1,1032.7,0.5,75,-3,9000,3.704,,,290,,,,,,,,,,,wg-a,,,,AAXX 11214 07190 12/59 22902 10010 21030 30133 40327 53005 60006 81032 92100=
07190,1998-02-12 00:00:00,-1,1032.6,-0.2,80,-4,7000,3.704,,,190,,,,,,,,,,,wg-a,,,,AAXX 12004 07190 12/57 21902 11010 21040 30131 40326 58002 60006 81032 90000=
07190,1998-02-12 03:00:00,-1,1033,0.3,80,-4,500,3.704,,,210,,,,,,,,,,,wg-a,,,,AAXX 12034 07190 12/00 /2102 11010 21040 30134 40330 51003 60006 80002 90300=
07190,1998-02-12 06:00:00,0,1033.6,0.7,80,-3,7000,7.408,,,210,-1.7,7,,,,,,,,,wg-a,,,,AAXX 12064 07190 02/57 /2104 10000 21030 30141 40336 51007 60006 80002 90600 333 10070 21017 60004=
07190,1998-02-12 09:00:00,6,1034.2,1,61,-1,25000,3.704,,,210,,,,,,,,,,,wg-a,,,,AAXX 12094 07190 12/75 32102 10060 21010 30151 40342 51010 60006 81041 90900=
07190,1998-02-12 12:00:00,12,1033.6,-0.2,40,-1,18000,7.408,,,180,,,,,,,,,,,wg-a,,,,AAXX 12124 07190 12/68 71804 10120 21010 30149 40336 58002 60006 83032 91200=
07190,1998-02-12 15:00:00,14,1032.6,-0.8,36,-1,18000,11.112,,,180,,,,,,,,,,,wg-a,,,,AAXX 12154 07190 12/68 51806 10140 21010 30141 40326 56008 60006 83032 91500=
07190,1998-02-12 18:00:00,8,1033.9,0.8,57,0,20000,0,,,0,-0.3,15,,,,,,,,,wg-a,,,,AAXX 12184 07190 12/70 40000 10080 20000 30149 40339 53008 60006 81031 91800 333 10150 21003=
07190,1998-02-12 21:00:00,3,1034.3,0.1,75,-1,10000,3.704,,,180,,,,,,,,,,,wg-a,,,,AAXX 12214 07190 12/60 01802 10030 21010 30150 40343 53001 60006 80000 92100=
07190,1998-02-13 00:00:00,0,1035.5,1,86,-2,8000,3.704,,,220,,,,,,,,,,,wg-a,,,,AAXX 13004 07190 12/58 /2202 10000 21020 30160 40355 51010 60006 80001 90000=
07190,1998-02-13 03:00:00,-1,1035.5,-0.1,93,-2,8000,3.704,,,220,,,,,,,,,,,wg-a,,,,AAXX 13034 07190 12/58 /2202 11010 21020 30159 40355 58001 60006 80001 90300=
07190,1998-02-13 09:00:00,5,1036.5,0.9,75,1,15000,3.704,,,180,,,,,,,,,,,wg-a,,,,AAXX 13094 07190 12/65 21802 10050 20010 30173 40365 51009 60006 80001 90900=
07190,1998-02-13 12:00:00,14,1035.6,-0.3,47,3,12000,3.704,,,150,,,,,,,,,,,wg-a,,,,AAXX 13124 07190 12/62 41502 10140 20030 30170 40356 58003 60006 80001 91200=
07190,1998-02-13 15:00:00,17,1034,-1.4,42,4,12000,3.704,,,100,,,,,,,,,,,wg-a,,,,AAXX 13154 07190 12/62 71002 10170 20040 30156 40340 57014 60006 80001 91500=
07190,1998-02-13 18:00:00,9,1034.9,0.4,71,4,20000,7.408,,,340,-1.5,17.6,,,,,,,,,wg-a,,,,AAXX 13184 07190 12/70 33404 10090 20040 30160 40349 53004 60006 80001 91800 333 10176 21015=
07190,1998-02-13 21:00:00,5,1035.6,0.4,81,2,10000,0,,,0,,,,,,,,,,,wg-a,,,,AAXX 13214 07190 12/60 00000 10050 20020 30164 40356 52004 60006 80000 92100=
07190,1998-02-14 00:00:00,2,1036.1,0.3,93,1,7000,0,,,0,,,,,,,,,,,wg-a,,,,AAXX 14004 07190 12/57 /0000 10020 20010 30167 40361 53003 60006 80001 90000=
07190,1998-02-14 03:00:00,1,1035.8,-0.4,93,0,8000,0,,,0,,,,,,,,,,,wg-a,,,,AAXX 14034 07190 12/58 /0000 10010 20000 30163 40358 55004 60006 80001 90300=
07190,1998-02-14 06:00:00,0,1036,0.1,93,-1,600,7.408,,,220,-0.4,9.5,,,,,,,,10,wg-a,,,,AAXX 14064 07190 02/06 /2204 10000 21010 30164 40360 51001 60006 71042 80001 90600 333 10095 21004 60004=
07190,1998-02-14 09:00:00,3,1036.4,0.7,100,3,800,3.704,,,140,,,,,,,,,,44,wg-a,,,,AAXX 14094 07190 12108 31402 10030 20030 30171 40364 51007 60006 74444 83601 90900=
07190,1998-02-14 12:00:00,13,1034.6,-1.1,67,7,6000,3.704,,,10,,,,,,,,,,1,wg-a,,,,AAXX 14124 07190 12/56 00102 10130 20070 30160 40346 58011 60006 70141 80000 91200=
07190,1998-02-14 15:00:00,16,1033,-1.4,59,8,10000,7.408,,,10,,,,,,,,,,,wg-a,,,,AAXX 14154 07190 12/60 00104 10160 20080 30146 40330 56014 60006 80000 91500=
07190,1998-02-14 18:00:00,10,1033.6,0.2,82,7,9000,3.704,,,60,-0.4,16.2,,,,,,,,,wg-a,,,,AAXX 14184 07190 12/59 00602 10100 20070 30148 40336 53002 60006 80000 91800 333 10162 21004=
07190,1998-02-14 21:00:00,3,1034.9,0.8,93,2,7000,11.112,,,210,,,,,,,,,,,wg-a,,,,AAXX 14214 07190 12/57 02106 10030 20020 30156 40349 50008 60006 80000 92100=
07190,1998-02-15 00:00:00,2,1034.8,-0.2,93,1,4000,3.704,,,230,,,,,,,,,,10,wg-a,,,,AAXX 15004 07190 12/40 /2302 10020 20010 30154 40348 58002 60006 71000 80001 90000=
07190,1998-02-15 03:00:00,0,1034.6,-0.3,100,0,300,3.704,,,240,,,,,,,,,,45,wg-a,,,,AAXX 15034 07190 12/03 92402 10000 20000 30151 40346 58003 60006 74541 89/// 90300=
07190,1998-02-15 06:00:00,0,1035.3,0.6,100,0,300,3.704,,,220,-0.8,10.2,,,,,,,,45,wg-a,,,,AAXX 15064 07190 02/03 92202 10000 20000 30157 40353 51006 60006 74541 89/// 90600 333 10102 21008 60004=
07190,1998-02-15 09:00:00,2,1035.4,0.3,100,2,300,0,,,0,,,,,,,,,,42,wg-a,,,,AAXX 15094 07190 12/03 00000 10020 20020 30160 40354 50003 60006 74244 80000 90900=
07190,1998-02-15 12:00:00,13,1033.7,-0.9,72,8,500,7.408,,,170,,,,,,,,,,3,wg-a,,,,AAXX 15124 07190 12/00 31704 10130 20080 30151 40337 58009 60006 70341 80004 91200=
07190,1998-02-15 15:00:00,16,1031.8,-1.7,59,8,8000,3.704,,,140,,,,,,,,,,,wg-a,,,,AAXX 15154 07190 12/58 /1402 10160 20080 30134 40318 56017 60006 80001 91500=
07190,1998-02-15 18:00:00,9,1031.6,-0.6,81,6,10000,3.704,,,270,-0.7,16.2,,,,,,,,,wg-a,,,,AAXX 15184 07190 12/60 22702 10090 20060 30128 40316 56006 60006 80001 91800 333 10162 21007=
07190,1998-02-15 21:00:00,4,1030.5,-1.5,93,3,7000,0,,,0,,,,,,,,,,,wg-a,,,,AAXX 15214 07190 12/57 20000 10040 20030 30113 40305 56015 60006 80001 92100=
07190,1998-02-16 00:00:00,1,1029.2,-1.4,100,1,1800,7.408,,,210,,,,,,,,,,10,wg-a,,,,AAXX 16004 07190 12/18 /2104 10010 20010 30099 40292 56014 60006 71000 80001 90000=
07190,1998-02-16 03:00:00,2,1027.5,-1.7,93,1,2000,7.408,,,190,,,,,,,,,,10,wg-a,,,,AAXX 16034 07190 12/20 /1904 10020 20010 30082 40275 58017 60006 71011 80002 90300=
07190,1998-02-16 06:00:00,3,1026.7,-0.7,93,2,500,14.816,,,250,-0.5,8.8,,,,,,,,,wg-a,,,,AAXX 16064 07190 02/00 /2508 10030 20020 30075 40267 56007 60006 80002 90600 333 10088 21005 60004=
07190,1998-02-16 09:00:00,7,1024.5,-1.8,87,5,7000,11.112,,,190,,,,,,,,,,,wg-a,,,,AAXX 16094 07190 12857 81906 10070 20050 30057 40245 58018 60006 85072 90900=
07190,1998-02-16 12:00:00,11,1023,-1.3,76,7,8000,11.112,,,190,,,,,,,,,,,wg-a,,,,AAXX 16124 07190 12858 81906 10110 20070 30044 40230 58013 60006 8707/ 91200=
07190,1998-02-16 15:00:00,14,1022.5,-0.3,67,8,9000,25.928,,,250,,,,,,,,,,,wg-a,,,,AAXX 16154 07190 12559 72514 10140 20080 30041 40225 55003 60006 8787/ 91500=
07190,1998-02-16 18:00:00,12,1024.2,1.6,62,5,8000,22.224,,,240,2.2,14.8,,,,,,,,,wg-a,,,,AAXX 16184 07190 12558 72412 10120 20050 30057 40242 53016 60006 878// 91800 333 10148 20022=
07190,1998-02-16 21:00:00,10,1026.2,1.8,57,2,9000,22.224,,,250,,,,,,,,,,,wg-a,,,,AAXX 16214 07190 12659 72512 10100 20020 30075 40262 52018 60006 875// 92100=
07190,1998-02-17 00:00:00,9,1027.6,1.3,66,3,15000,14.816,,,240,,,,,,,,,,,wg-a,,,,AAXX 17004 07190 12665 /2408 10090 20030 30088 40276 52013 60006 86500 90000=
07190,1998-02-17 03:00:00,9,1028.4,0.8,71,4,15000,18.52,,,250,,,,,,,,,,,wg-a,,,,AAXX 17034 07190 12565 82510 10090 20040 30096 40284 53008 60006 875// 90300=
07190,1998-02-17 06:00:00,8,1030,1.5,87,6,12000,11.112,,,230,7.1,11.9,,,,,,,,21,wg-a,,,,AAXX 17064 07190 02562 82306 10080 20060 30111 40300 53015 61000 72162 875// 90600 333 10119 20071 6100=
07190,1998-02-17 09:00:00,8,1033.1,3.1,81,5,12000,14.816,,,320,,,,,,,,,,20,wg-a,,,,AAXX 17094 07190 02462 83208 10080 20050 30142 40331 51031 61000 72052 888// 90900 333 ////=
07190,1998-02-17 12:00:00,9,1034.8,1.7,71,4,15000,11.112,,,310,,,,,,,,,,1,wg-a,,,,AAXX 17124 07190 02565 83106 10090 20040 30159 40348 51017 61000 70152 888// 91200 333 ////=
07190,1998-02-17 15:00:00,9,1035.9,1.1,71,4,18000,7.408,,,290,,,,,,,,,,,wg-a,,,,AAXX 17154 07190 12568 72904 10090 20040 30170 40359 51011 60006 875// 91500=
07190,1998-02-17 18:00:00,7,1037.5,1.4,76,3,15000,7.408,,,300,7.3,9,,,,,,,,,wg-a,,,,AAXX 17184 07190 12565 73004 10070 20030 30184 40375 53014 60006 875// 91800 333 10090 20073=
07190,1998-02-17 21:00:00,7,1037.9,0.4,76,3,14000,7.408,,,290,,,,,,,,,,,wg-a,,,,AAXX 17214 07190 12664 /2904 10070 20030 30188 40379 51004 60006 875// 92100=
07190,1998-02-18 00:00:00,3,1038.3,0.1,87,1,9000,3.704,,,120,,,,,,,,,,,wg-a,,,,AAXX 18004 07190 12/59 01202 10030 20010 30189 40383 53001 60006 80000 90000=
07190,1998-02-18 03:00:00,-1,1038.5,-0.1,93,-2,7000,3.704,,,220,,,,,,,,,,,wg-a,,,,AAXX 18034 07190 12/57 02202 11010 21020 30188 40385 58001 60006 80000 90300=
07190,1998-02-18 06:00:00,-1,1038.3,-0.2,93,-2,3000,3.704,,,340,-1.6,7.3,,,,,,,,10,wg-a,,,,AAXX 18064 07190 02130 33402 11010 21020 30186 40383 58002 60006 71000 83600 90600 333 10073 21016 61000=
07190,1998-02-18 09:00:00,1,1037.8,-0.3,100,1,100,3.704,,,340,,,,,,,,,,45,wg-a,,,,AAXX 18094 07190 12/01 93402 10010 20010 30183 40378 58003 60006 74541 89/// 90900=
07190,1998-02-18 12:00:00,8,1036.2,-1.1,81,5,10000,7.408,,,130,,,,,,,,,,1,wg-a,,,,AAXX 18124 07190 12/60 01304 10080 20050 30172 40362 58011 60006 70141 80000 91200=
07190,1998-02-18 15:00:00,13,1033.2,-2.6,54,4,15000,11.112,,,90,,,,,,,,,,,wg-a,,,,AAXX 18154 07190 12/65 00906 10130 20040 30146 40332 56026 60006 80000 91500=
07190,1998-02-18 18:00:00,7,1032.9,-0.7,76,3,12000,3.704,,,170,-1.4,12.8,,,,,,,,,wg-a,,,,AAXX 18184 07190 12/62 01702 10070 20030 30139 40329 56007 60006 80000 91800 333 10128 21014=
07190,1998-02-18 21:00:00,3,1032,-1.2,93,2,8000,0,,,0,,,,,,,,,,,wg-a,,,,AAXX 18214 07190 12/58 00000 10030 20020 30127 40320 56012 60006 80000 92100=
07190,1998-02-19 00:00:00,0,1031,-1.2,93,-1,6000,7.408,,,200,,,,,,,,,,,wg-a,,,,AAXX 19004 07190 12/56 02004 10000 21010 30115 40310 56012 60006 80000 90000=
07190,1998-02-19 06:00:00,0,1030.5,0.5,93,-1,9000,7.408,,,220,-0.4,7,,,,,,,,,wg-a,,,,AAXX 19064 07190 02859 12204 10000 21010 30111 40305 53005 60006 81500 90600 333 10070 21004 60004=
07190,1998-02-19 09:00:00,10,1031,1.2,71,5,10000,14.816,,,200,,,,,,,,,,,wg-a,,,,AAXX 19094 07190 12/60 22008 10100 20050 30123 40310 53012 60006 82040 90900=
07190,1998-02-19 12:00:00,11,1032.2,1.2,62,4,15000,22.224,,,280,,,,,,,,,,,wg-a,,,,AAXX 19124 07190 12665 72812 10110 20040 30135 40322 51012 60006 8553/ 91200=
07190,1998-02-19 15:00:00,13,1031.3,-0.8,62,6,20000,7.408,,,340,,,,,,,,,,,wg-a,,,,AAXX 19154 07190 12/70 33404 10130 20060 30127 40313 56008 60006 83040 91500=
07190,1998-02-19 18:00:00,10,1031.5,0.1,76,6,25000,7.408,,,110,0.2,13.5,,,,,,,,,wg-a,,,,AAXX 19184 07190 12/75 61104 10100 20060 30128 40315 53001 60006 86070 91800 333 10135 20002=
07190,1998-02-19 21:00:00,7,1032.2,0.4,87,5,15000,7.408,,,300,,,,,,,,,,,wg-a,,,,AAXX 19214 07190 12/65 23004 10070 20050 30132 40322 53004 60006 82030 92100=
07190,1998-02-20 00:00:00,2,1031.4,-1.1,93,1,7000,3.704,,,230,,,,,,,,,,,wg-a,,,,AAXX 20004 07190 12/57 02302 10020 20010 30121 40314 56011 60006 80000 90000=
07190,1998-02-20 03:00:00,0,1029.8,-1.8,93,-1,1000,3.704,,,190,,,,,,,,,,10,wg-a,,,,AAXX 20034 07190 12/10 01902 10000 21010 30103 40298 58018 60006 71000 80000 90300=
07190,1998-02-20 06:00:00,-1,1028.6,-1.2,93,-2,600,3.704,,,200,-2.2,10.3,,,,,,,,44,wg-a,,,,AAXX 20064 07190 02106 62002 11010 21020 30091 40286 57012 60006 74441 86600 90600 333 10103 21022 60004=
07190,1998-02-20 09:00:00,2,1027.6,-0.8,100,2,500,0,,,0,,,,,,,,,,45,wg-a,,,,AAXX 20094 07190 12/00 90000 10020 20020 30083 40276 58008 60006 74544 89/// 90900=
07190,1998-02-20 12:00:00,6,1025.1,-2.1,100,6,4000,7.408,,,50,,,,,,,,,,10,wg-a,,,,AAXX 20124 07190 12140 /0504 10060 20060 30062 40251 58021 60006 71041 81601 91200=
07190,1998-02-20 15:00:00,10,1022.5,-2.3,76,6,3200,7.408,,,350,,,,,,,,,,10,wg-a,,,,AAXX 20154 07190 12/32 73504 10100 20060 30039 40225 56023 60006 71022 80002 91500=
07190,1998-02-20 18:00:00,7,1022.1,-0.6,81,4,3000,3.704,,,260,-1.3,10.5,,,,,,,,11,wg-a,,,,AAXX 20184 07190 12/30 /2602 10070 20040 30033 40221 55006 60006 71111 80001 91800 333 10105 21013=
07190,1998-02-20 21:00:00,4,1021.4,-0.9,93,3,2500,3.704,,,210,,,,,,,,,,10,wg-a,,,,AAXX 20214 07190 12/25 /2102 10040 20030 30024 40214 56009 60006 71011 80001 92100=
07190,1998-02-21 00:00:00,2,1020.8,-0.7,93,1,1200,3.704,,,230,,,,,,,,,,28,wg-a,,,,AAXX 21004 07190 12/12 /2302 10020 20010 30017 40208 56007 60006 72841 80001 90000=
07190,1998-02-21 03:00:00,2,1020.1,-0.7,100,2,500,3.704,,,70,,,,,,,,,,,wg-a,,,,AAXX 21034 07190 12/00 00702 10020 20020 30010 40201 58007 60006 80000 90300=
07190,1998-02-21 06:00:00,3,1020.3,0.3,87,1,6000,14.816,,,190,0.5,6.6,,,,,,,,,wg-a,,,,AAXX 21064 07190 02856 41908 10030 20010 30013 40203 50003 60006 82501 90600 333 10066 20005 60004=
07190,1998-02-21 09:00:00,11,1020.4,0.6,62,4,11000,11.112,,,190,,,,,,,,,,,wg-a,,,,AAXX 21094 07190 12/61 31906 10110 20040 30019 40204 50006 60006 80004 90900=
07190,1998-02-21 12:00:00,18,1017.3,,34,2,15000,18.52,,,160,,,,,,,,,,,wg-a,,,,AAXX 21124 07190 12/65 41610 10180 20020 39993 40173 60006 80004 91200=
07190,1998-02-21 15:00:00,19,1015.8,-1.4,30,1,18000,18.52,,,180,,,,,,,,,,,wg-a,,,,AAXX 21154 07190 12/68 61810 10190 20010 39979 40158 56014 60006 81046 91500=
07190,1998-02-21 18:00:00,16,1017.4,1.3,42,3,15000,18.52,,,230,3.3,20.4,,,,,,,,,wg-a,,,,AAXX 21184 07190 12/65 82310 10160 20030 39992 40174 53013 60006 8707/ 91800 333 10204 20033=
07190,1998-02-21 21:00:00,13,1017.9,0.4,51,3,15000,11.112,,,180,,,,,,,,,,,wg-a,,,,AAXX 21214 07190 12865 81806 10130 20030 39996 40179 53004 60006 8257/ 92100=
07190,1998-02-22 00:00:00,11,1019.3,1.3,76,7,15000,18.52,,,310,,,,,,,,,,,wg-a,,,,AAXX 22004 07190 12665 83110 10110 20070 30009 40193 52013 60006 8557/ 90000=
07190,1998-02-22 03:00:00,9,1019.4,-0.1,93,8,15000,11.112,,,100,,,,2,,,,,,60,wg-a,,,,AAXX 22034 07190 12565 81006 10090 20080 30008 40194 58001 60027 76062 878// 90300=
07190,1998-02-22 06:00:00,8,1019,-0.4,100,8,4000,0,,,0,8.1,15.7,,,,,,,,61,wg-a,,,,AAXX 22064 07190 02240 80000 10080 20080 30004 40190 55004 61000 76162 878// 90600 333 10157 20081 6004=
07190,1998-02-22 09:00:00,8,1019.2,0.2,100,8,4500,7.408,,,190,,,,5,,,,,,61,wg-a,,,,AAXX 22094 07190 12445 81904 10080 20080 30006 40192 53002 60057 76166 8757/ 90900=
07190,1998-02-22 12:00:00,9,1020.5,1.3,93,8,7000,11.112,,,190,,,,5,,,,,,61,wg-a,,,,AAXX 22124 07190 02357 81906 10090 20080 30019 40205 51013 60106 76166 8787/ 91200 333 60057=
07190,1998-02-22 15:00:00,8,1021.3,0.7,93,7,10000,3.704,,,190,,,,3,,,,,,60,wg-a,,,,AAXX 22154 07190 12360 81902 10080 20070 30026 40213 53007 60037 76066 8647/ 91500=
07190,1998-02-22 18:00:00,7,1023.6,2.2,93,6,10000,3.704,,,200,7.3,9.1,,,,,,,,60,wg-a,,,,AAXX 22184 07190 02460 72002 10070 20060 30048 40236 53022 61000 76062 8587/ 91800 333 10091 20073 6002=
07190,1998-02-22 21:00:00,7,1025.5,1.8,93,6,10000,11.112,,,300,,,,2,,,,,,21,wg-a,,,,AAXX 22214 07190 12460 73006 10070 20060 30066 40255 51018 60027 72162 8567/ 92100=
07190,1998-02-23 00:00:00,7,1026.9,1.4,87,5,10000,11.112,,,310,,,,,,,,,,60,wg-a,,,,AAXX 23004 07190 02460 83106 10070 20050 30080 40269 52014 60026 76062 876// 90000 333 61000=
07190,1998-02-23 03:00:00,7,1027.8,0.9,93,6,10000,14.816,,,330,,,,0,,,,,,3,wg-a,,,,AAXX 23034 07190 12560 83308 10070 20060 30089 40278 51009 60007 70362 876// 90300=
07190,1998-02-23 06:00:00,7,1029.6,1.7,87,5,10000,14.816,,,330,6.4,7.2,,,,,17,,,3,wg-a,,,,AAXX 23064 07190 02560 83308 10070 20050 30106 40296 53017 60006 70362 876// 90600 333 10072 20064 60174=
07190,1998-02-23 09:00:00,7,1031.4,1.9,87,5,7000,18.52,,,340,,,,,,,,,,,wg-a,,,,AAXX 23094 07190 12457 83410 10070 20050 30125 40314 51019 60006 876// 90900=
07190,1998-02-23 12:00:00,10,1032,0.7,71,5,10000,22.224,,,30,,,,,,,,,,,wg-a,,,,AAXX 23124 07190 12460 /0312 10100 20050 30132 40320 50007 60006 85800 91200=
07190,1998-02-23 15:00:00,11,1031.9,-0,71,6,15000,11.112,,,50,,,,,,,,,,,wg-a,,,,AAXX 23154 07190 12565 60506 10110 20060 30132 40319 55000 60006 85830 91500=
07190,1998-02-23 18:00:00,8,1033.8,1.7,81,5,12000,3.704,,,90,6.5,11.1,,,,,,,,,wg-a,,,,AAXX 23184 07190 12562 /0902 10080 20050 30149 40338 53017 60006 82530 91800 333 10111 20065=
07190,1998-02-23 21:00:00,7,1035.5,1.5,76,3,10000,11.112,,,330,,,,,,,,,,,wg-a,,,,AAXX 23214 07190 12560 23306 10070 20030 30164 40355 52015 60006 81501 92100=
07190,1998-02-24 00:00:00,3,1035.8,0.1,81,0,15000,7.408,,,290,,,,,,,,,,,wg-a,,,,AAXX 24004 07190 12/65 02904 10030 20000 30165 40358 53001 60006 80000 90000=
07190,1998-02-24 03:00:00,1,1035.6,-0.4,86,-1,15000,3.704,,,140,,,,,,,,,,,wg-a,,,,AAXX 24034 07190 12/65 01402 10010 21010 30161 40356 58004 60006 80000 90300=
07190,1998-02-24 06:00:00,-1,1036,0.3,100,-1,500,3.704,,,240,-0.8,8.1,,,,,,,,40,wg-a,,,,AAXX 24064 07190 02600 22402 11010 21010 30164 40360 53003 60006 74000 81501 90600 333 10081 21008 60004=
07190,1998-02-24 09:00:00,5,1036.6,1,81,2,15000,0,,,0,,,,,,,,,,,wg-a,,,,AAXX 24094 07190 12/65 10000 10050 20020 30174 40366 51010 60006 81030 90900=
07190,1998-02-24 12:00:00,9,1036.1,-0.2,71,4,10000,7.408,,,360,,,,,,,,,,,wg-a,,,,AAXX 24124 07190 12/60 73604 10090 20040 30172 40361 58002 60006 87070 91200=
07190,1998-02-24 15:00:00,8,1035.8,-0.3,87,6,500,7.408,,,350,,,,,,,,,,,wg-a,,,,AAXX 24154 07190 12500 83504 10080 20060 30169 40358 56003 60006 875// 91500=
07190,1998-02-24 18:00:00,8,1036.4,0.5,87,6,4500,3.704,,,330,-0.5,9.6,,,,,,,,10,wg-a,,,,AAXX 24184 07190 12545 83302 10080 20060 30174 40364 53005 60006 71022 875// 91800 333 10096 21005=
07190,1998-02-24 21:00:00,7,1037,0.6,93,6,500,3.704,,,330,,,,0,,,,,,,wg-a,,,,AAXX 24214 07190 12500 83302 10070 20060 30180 40370 51006 60007 8553/ 92100=
07190,1998-02-25 00:00:00,7,1037,-0.1,93,6,4500,0,,,0,,,,,,,,,,10,wg-a,,,,AAXX 25004 07190 12545 80000 10070 20060 30179 40370 56001 60006 71022 875// 90000=
07190,1998-02-25 03:00:00,7,1036.4,-0.6,93,6,1300,0,,,0,,,,0,,,,,,10,wg-a,,,,AAXX 25034 07190 12213 80000 10070 20060 30173 40364 58006 60007 71022 876// 90300=
07190,1998-02-25 06:00:00,7,1036.6,0.2,100,7,1500,0,,,0,6.7,7.9,,,,,,,,10,wg-a,,,,AAXX 25064 07190 02315 80000 10070 20070 30175 40366 53002 61000 71052 876// 90600 333 10079 20067 6000=
07190,1998-02-25 09:00:00,8,1037.3,0.8,100,8,1500,7.408,,,350,,,,,,,,,,10,wg-a,,,,AAXX 25094 07190 02215 83504 10080 20080 30183 40373 52008 61000 71054 886// 90900 333 ////=
07190,1998-02-25 12:00:00,10,1036.8,-0.3,93,9,1800,11.112,,,20,,,,,,,,,,10,wg-a,,,,AAXX 25124 07190 02218 70206 10100 20090 30180 40368 58003 61000 71054 876// 91200 333 ////=
07190,1998-02-25 18:00:00,10,1035.6,-0,87,8,500,3.704,,,350,6.7,12.1,,,,,,,,,wg-a,,,,AAXX 25184 07190 12400 43502 10100 20080 30168 40356 55000 60006 84500 91800 333 10121 20067=
07190,1998-02-25 21:00:00,9,1035.6,-0.1,93,8,500,3.704,,,350,,,,,,,,,,,wg-a,,,,AAXX 25214 07190 12500 73502 10090 20080 30167 40356 58001 60006 875// 92100=
07190,1998-02-26 00:00:00,6,1034.9,-0.9,100,6,500,3.704,,,350,,,,,,,,,,,wg-a,,,,AAXX 26004 07190 12/00 03502 10060 20060 30158 40349 56009 60006 80000 90000=
07190,1998-02-26 03:00:00,5,1034.6,-0.4,100,5,3000,7.408,,,290,,,,,,,,,,10,wg-a,,,,AAXX 26034 07190 12130 82904 10050 20050 30154 40346 56004 60006 71011 886// 90300=
07190,1998-02-26 06:00:00,6,1034.7,0.2,100,6,500,7.408,,,350,4,9.9,,,,,,,,45,wg-a,,,,AAXX 26064 07190 02/05 93504 10060 20060 30156 40347 53002 60006 74541 89/// 90600 333 10099 20040 60004=
07190,1998-02-26 09:00:00,6,1034.7,0,100,6,300,0,,,0,,,,,,,,,,45,wg-a,,,,AAXX 26094 07190 12/03 90000 10060 20060 30156 40347 50000 60006 74544 89/// 90900=
07190,1998-02-26 12:00:00,9,1033.3,-1.1,100,9,6000,3.704,,,360,,,,,,,,,,1,wg-a,,,,AAXX 26124 07190 12256 /3602 10090 20090 30145 40333 58011 60006 70141 84100 91200=
07190,1998-02-26 15:00:00,14,1030.9,-2.1,67,8,10000,3.704,,,220,,,,,,,,,,,wg-a,,,,AAXX 26154 07190 12/60 /2202 10140 20080 30124 40309 56021 60006 80000 91500=
07190,1998-02-27 00:00:00,3,1030.2,-0.9,100,3,200,3.704,,,210,,,,,,,,,,41,wg-a,,,,AAXX 27004 07190 12002 32102 10030 20030 30110 40302 58009 60006 74140 83600 90000=
07190,1998-02-27 03:00:00,2,1029.1,-1.2,100,2,500,7.408,,,210,,,,,,,,,,11,wg-a,,,,AAXX 27034 07190 12/00 02104 10020 20020 30098 40291 56012 60006 7114/ 80000 90300=
07190,1998-02-27 06:00:00,3,1028.2,-0.8,100,3,3200,3.704,,,200,1.8,9.5,,,,,,,,11,wg-a,,,,AAXX 27064 07190 02532 62002 10030 20030 30090 40282 58008 60006 71141 86500 90600 333 10095 20018 60004=
07190,1998-02-27 09:00:00,6,1027.3,-0.7,93,5,2500,3.704,,,200,,,,,,,,,,10,wg-a,,,,AAXX 27094 07190 12625 /2002 10060 20050 30083 40273 58007 60006 71022 85500 90900=
07190,1998-02-27 12:00:00,12,1025.3,-1.5,67,6,8000,18.52,,,220,,,,,,,,,,,wg-a,,,,AAXX 27124 07190 12558 72210 10120 20060 30068 40253 58015 60006 875// 91200=
07190,1998-02-27 15:00:00,11,1023.1,-2.2,71,6,8000,25.928,,,220,,,,,,,,,,,wg-a,,,,AAXX 27154 07190 12558 /2214 10110 20060 30046 40231 56022 60006 86500 91500=
07190,1998-02-27 18:00:00,9,1023,-0.3,76,5,10000,18.52,,,200,2.5,13.2,,,,,,,,,wg-a,,,,AAXX 27184 07190 12560 82010 10090 20050 30043 40230 57003 60006 875// 91800 333 10132 20025=
07190,1998-02-27 21:00:00,10,1021.3,-1.6,71,5,10000,14.816,,,180,,,,,,,,,,,wg-a,,,,AAXX 27214 07190 12660 81808 10100 20050 30027 40213 57016 60006 875// 92100=
07190,1998-02-28 00:00:00,9,1019.6,-1.7,76,5,8000,18.52,,,260,,,,,,,,,,,wg-a,,,,AAXX 28004 07190 12258 82610 10090 20050 30010 40196 56017 60006 875// 90000=
07190,1998-02-28 03:00:00,9,1016.9,-2.7,76,5,15000,25.928,,,220,,,,,,,,,,,wg-a,,,,AAXX 28034 07190 12565 82214 10090 20050 39983 40169 58027 60006 878// 90300=
07190,1998-02-28 06:00:00,8,1015.2,-1.7,76,4,15000,31.484,,,210,8.2,10.3,,,,,,,,60,wg-a,,,,AAXX 28064 07190 02565 72117 10080 20040 39966 40152 56017 61000 76062 878// 90600 333 10103 20082 6100=
07190,1998-02-28 09:00:00,8,1014.9,-0.3,81,5,15000,31.484,,,210,,,,0,,,,,,60,wg-a,,,,AAXX 28094 07190 12565 82117 10080 20050 39963 40149 58003 60007 76062 875// 90900=
07190,1998-02-28 12:00:00,9,1014.2,-0.6,71,4,25000,29.632,,,220,,,,1,,,,,,3,wg-a,,,,AAXX 28124 07190 02675 82216 10090 20040 39957 40142 58006 60016 70362 875// 91200 333 60017=
07190,1998-02-28 15:00:00,5,1015.5,1,87,3,10000,22.224,,46.3,300,,,,4,,,,,,60,wg-a,,,,AAXX 28154 07190 12560 83012 10050 20030 39967 40155 53010 60047 76086 878// 91500 333 91025=
07190,1998-02-28 18:00:00,5,1016.5,1,81,2,15000,18.52,,,260,4.9,10.2,,,,,,,,21,wg-a,,,,AAXX 28184 07190 02665 82610 10050 20020 39977 40165 53010 61000 72186 878// 91800 333 10102 20049 6000=
07190,1998-02-28 21:00:00,4,1017.2,0.6,87,2,20000,11.112,,,210,,,,,,,,,,,wg-a,,,,AAXX 28214 07190 12770 82106 10040 20020 39983 40172 52006 60006 875// 92100=
07190,1998-03-01 00:00:00,4,1017.2,-0,87,2,12000,7.408,,,220,,,,1,,,,,,21,wg-a,,,,AAXX 01004 07190 02462 82204 10040 20020 39983 40172 55000 60016 72122 878// 90000 333 60017=
07190,1998-03-01 03:00:00,3,1016.8,-0.5,93,2,15000,3.704,,,220,,,,0,,,,,,,wg-a,,,,AAXX 01034 07190 12565 82202 10030 20020 39978 40168 55005 60007 878// 90300=
07190,1998-03-01 06:00:00,4,1018,1.3,75,0,15000,11.112,,,240,2.4,5.3,,,,,7,,,3,wg-a,,,,AAXX 01064 07190 02665 82406 10040 20000 39991 40180 53013 60006 70362 8457/ 90600 333 10053 20024 60074=
07190,1998-03-01 09:00:00,6,1020,2.1,65,0,20000,25.928,,,250,,,,,,,,,,,wg-a,,,,AAXX 01094 07190 12670 /2514 10060 20000 30012 40200 51021 60006 84201 90900=
07190,1998-03-01 12:00:00,8,1020.2,0.3,42,-4,500,25.928,,,230,,,,,,,,,,,wg-a,,,,AAXX 01124 07190 12600 /2314 10080 21040 30015 40202 50003 60006 85201 91200=
07190,1998-03-01 15:00:00,8,1019.6,-0.6,42,-4,500,22.224,,,230,,,,,,,,,,,wg-a,,,,AAXX 01154 07190 12600 52312 10080 21040 30009 40196 56006 60006 84401 91500=
07190,1998-03-01 18:00:00,4,1020.8,0.9,65,-2,25000,18.52,,,220,2.6,9.4,,,,,,,,,wg-a,,,,AAXX 01184 07190 12675 32210 10040 21020 30018 40208 53009 60006 81431 91800 333 10094 20026=
07190,1998-03-01 21:00:00,5,1021.3,0.5,60,-2,20000,11.112,,,170,,,,,,,,,,,wg-a,,,,AAXX 01214 07190 12770 71706 10050 21020 30023 40213 51005 60006 875// 92100=
07190,1998-03-02 00:00:00,3,1022.1,0.7,70,-2,20000,11.112,,,200,,,,,,,,,,,wg-a,,,,AAXX 02004 07190 12/70 22006 10030 21020 30030 40221 53007 60006 82030 90000=
07190,1998-03-02 03:00:00,6,1021.5,-0.4,65,0,15000,18.52,,,190,,,,,,,,,,,wg-a,,,,AAXX 02034 07190 12665 51910 10060 20000 30026 40215 58004 60006 84530 90300=
07190,1998-03-02 06:00:00,6,1021.3,-0.2,70,1,20000,18.52,,,180,1.8,6.2,,,,,,,,,wg-a,,,,AAXX 02064 07190 02770 71810 10060 20010 30024 40213 55002 60006 8553/ 90600 333 10062 20018 60004=
07190,1998-03-02 09:00:00,6,1022.7,1.4,81,3,15000,18.52,,,190,,,,,,,,,,21,wg-a,,,,AAXX 02094 07190 02565 71910 10060 20030 30038 40227 51014 61000 72162 878// 90900 333 ////=
07190,1998-03-02 15:00:00,12,1021.6,-0.8,47,1,25000,22.224,,,240,,,,,,,,,,,wg-a,,,,AAXX 02154 07190 12675 /2412 10120 20010 30031 40216 56008 60006 86800 91500=
07190,1998-03-02 18:00:00,9,1022.8,1,61,2,25000,14.816,,,220,5.7,12.1,,,,,,,,,wg-a,,,,AAXX 02184 07190 12675 72208 10090 20020 30041 40228 53010 60006 87800 91800 333 10121 20057=
07190,1998-03-02 21:00:00,8,1023.2,0.3,66,2,20000,14.816,,,180,,,,,,,,,,,wg-a,,,,AAXX 02214 07190 12870 41808 10080 20020 30044 40232 51003 60006 825/1 92100=
07190,1998-03-03 00:00:00,6,1022.9,-0.4,75,2,20000,18.52,,,180,,,,,,,,,,,wg-a,,,,AAXX 03004 07190 12/70 31810 10060 20020 30040 40229 58004 60006 80001 90000=
07190,1998-03-03 03:00:00,4,1020.9,-2.1,81,1,20000,14.816,,,180,,,,,,,,,,,wg-a,,,,AAXX 03034 07190 12/70 71808 10040 20010 30019 40209 58021 60006 80002 90300=
07190,1998-03-03 06:00:00,5,1019.3,-1.5,70,0,20000,7.408,,,220,4.1,8.7,,,,,,,,,wg-a,,,,AAXX 03064 07190 02/70 52204 10050 20000 30004 40193 56015 60006 84032 90600 333 10087 20041 60004=
07190,1998-03-03 09:00:00,7,1018.3,-0.8,70,2,20000,18.52,,,170,,,,,,,,,,,wg-a,,,,AAXX 03094 07190 12/70 71710 10070 20020 39996 40183 57008 60006 86032 90900=
07190,1998-03-03 12:00:00,14,1016.4,-1.5,41,1,50000,22.224,,,170,,,,,,,,,,,wg-a,,,,AAXX 03124 07190 12/84 71712 10140 20010 39981 40164 58015 60006 85032 91200=
07190,1998-03-03 15:00:00,17,1014.9,-1.3,34,1,500,42.596,,,210,,,,,,,,,,,wg-a,,,,AAXX 03154 07190 12/00 72123 10170 20010 39968 40149 58013 60006 8707/ 91500=
07190,1998-03-03 18:00:00,16,1014.4,-0.5,36,1,500,31.484,,,210,4.7,17,,,,,,,,,wg-a,,,,AAXX 03184 07190 12700 72117 10160 20010 39963 40144 55005 60006 8653/ 91800 333 10170 20047=
07190,1998-03-03 21:00:00,17,1015,0.6,36,2,20000,42.596,,64.82,220,,,,,,,,,,,wg-a,,,,AAXX 03214 07190 12770 82223 10170 20020 39969 40150 53006 60006 8457/ 92100 333 91035=
07190,1998-03-04 00:00:00,14,1015.7,0.6,55,5,20000,31.484,,,190,,,,,,,,,,1,wg-a,,,,AAXX 04004 07190 02770 71917 10140 20050 39975 40157 51006 61000 70162 8257/ 90000 333 6100=
07190,1998-03-04 03:00:00,10,1013.9,-2,62,3,20000,3.704,,,210,,,,,,,,,,,wg-a,,,,AAXX 04034 07190 12/70 32102 10100 20030 39955 40139 58020 60006 80001 90300=
07190,1998-03-04 06:00:00,13,1010.7,-3,51,3,20000,22.224,,,200,9.5,16.8,,,,,,,,,wg-a,,,,AAXX 04064 07190 02/70 72012 10130 20030 39925 40107 56030 60006 84076 90600 333 10168 20095 61000=
07190,1998-03-04 09:00:00,16,1009.8,-0.7,42,3,25000,22.224,,,190,,,,,,,,,,,wg-a,,,,AAXX 04094 07190 12/75 71912 10160 20030 39918 40098 55007 60006 85076 90900=
07190,1998-03-04 12:00:00,20,1008.6,-0.9,32,3,20000,42.596,,,210,,,,,,,,,,,wg-a,,,,AAXX 04124 07190 12/70 82123 10200 20030 39909 40086 58009 60006 82077 91200=
07190,1998-03-04 15:00:00,21,1005.5,-3,30,3,15000,50.004,,70.376,230,,,,,,,,,,,wg-a,,,,AAXX 04154 07190 12/65 72327 10210 20030 39879 40055 57030 60006 82078 91500 333 91038=
07190,1998-03-04 18:00:00,19,1005,-0.6,37,4,15000,46.3,,64.82,210,12.3,21.8,,,,,,,,,wg-a,,,,AAXX 04184 07190 12765 72125 10190 20040 39873 40050 55006 60006 83172 91800 333 10218 20123 91035=
07190,1998-03-04 21:00:00,17,1006,0.8,45,5,20000,31.484,,,200,,,,,,,,,,,wg-a,,,,AAXX 04214 07190 12770 72017 10170 20050 39881 40060 51008 60006 82532 92100=
07190,1998-03-05 00:00:00,9,1008.4,1.9,87,7,15000,29.632,,57.412,330,,,,0,,,,,,61,wg-a,,,,AAXX 05004 07190 02565 73316 10090 20070 39900 40084 53019 60006 76162 8483/ 90000 333 60007 91031=
07190,1998-03-05 03:00:00,7,1011.4,2.8,81,4,15000,14.816,,,180,,,,2,,,,,,60,wg-a,,,,AAXX 05034 07190 12565 81808 10070 20040 39928 40114 51028 60027 76062 8/87/ 90300=
07190,1998-03-05 06:00:00,8,1014.7,3.3,61,1,20000,38.892,,53.708,250,6.6,19.1,,,,,2,,,1,wg-a,,,,AAXX 05064 07190 02670 /2521 10080 20010 39961 40147 53033 60006 70161 84201 90600 333 10191 20066 60024 91029=
07190,1998-03-05 09:00:00,8,1018.2,3.4,57,0,20000,35.188,,,250,,,,,,,,,,15,wg-a,,,,AAXX 05094 07190 12670 42519 10080 20000 39995 40182 53034 60006 71511 84800 90900=
07190,1998-03-05 12:00:00,11,1021.7,3.6,43,-1,35000,31.484,,,250,,,,,,,,,,3,wg-a,,,,AAXX 05124 07190 02681 42517 10110 21010 30031 40217 51036 61000 70386 84803 91200 333 6100=
07190,1998-03-05 15:00:00,11,1022,0.4,35,-4,35000,31.484,,66.672,250,,,,,,,,,,1,wg-a,,,,AAXX 05154 07190 02781 42517 10110 21040 30035 40220 53004 61000 70186 84100 91500 333 //// 91036=
07190,1998-03-05 18:00:00,8,1025,2.7,46,-3,20000,14.816,,,250,7.4,11.9,,,,,,,,1,wg-a,,,,AAXX 05184 07190 12770 22508 10080 21030 30062 40250 53027 60006 70186 82100 91800 333 10119 20074=
07190,1998-03-05 21:00:00,5,1027,1.7,60,-2,20000,11.112,,,180,,,,,,,,,,,wg-a,,,,AAXX 05214 07190 12/70 /1806 10050 21020 30079 40270 51017 60006 80001 92100=
07190,1998-03-06 00:00:00,6,1026.5,-0.4,56,-2,20000,18.52,,,200,,,,,,,,,,,wg-a,,,,AAXX 06004 07190 12/70 62010 10060 21020 30075 40265 58004 60006 85052 90000=
07190,1998-03-06 03:00:00,4,1025.5,-1,65,-2,15000,18.52,,,190,,,,,,,,,,,wg-a,,,,AAXX 06034 07190 12/65 31910 10040 21020 30065 40255 58010 60006 80001 90300=
07190,1998-03-06 06:00:00,5,1024.8,-0.7,65,-1,20000,22.224,,,180,3,8.4,,,,,,,,,wg-a,,,,AAXX 06064 07190 02/70 71812 10050 21010 30058 40248 55007 60006 86052 90600 333 10084 20030 61000=
07190,1998-03-06 09:00:00,8,1024.4,-0.2,53,-1,500,22.224,,,190,,,,,,,,,,,wg-a,,,,AAXX 06094 07190 12700 71912 10080 21010 30056 40244 58002 60006 8755/ 90900=
07190,1998-03-06 12:00:00,9,1022.7,-1.6,66,3,20000,29.632,,46.3,220,,,,,,,,,,60,wg-a,,,,AAXX 06124 07190 02670 82216 10090 20030 30040 40227 56016 61000 76062 878// 91200 333 6100 91025=
07190,1998-03-06 15:00:00,9,1019.6,-3,71,4,18000,18.52,,,170,,,,,,,,,,60,wg-a,,,,AAXX 06154 07190 02668 81710 10090 20040 30010 40196 57030 61000 76066 878// 91500 333 ////=
07190,1998-03-06 18:00:00,10,1019.9,0.3,76,6,15000,22.224,,,220,4.7,10.9,,,,,,,,60,wg-a,,,,AAXX 06184 07190 02565 82212 10100 20060 30013 40199 53003 61000 76062 878// 91800 333 10109 20047 6000=
07190,1998-03-06 21:00:00,10,1019.7,-0.1,76,6,15000,14.816,,,180,,,,,,,,,,3,wg-a,,,,AAXX 06214 07190 02665 71808 10100 20060 30012 40197 58001 61000 70362 875// 92100 333 ////=
07190,1998-03-07 00:00:00,10,1017.8,-1.9,76,6,15000,18.52,,,170,,,,,,,,,,1,wg-a,,,,AAXX 07004 07190 02765 71710 10100 20060 39993 40178 58019 61000 70162 8757/ 90000 333 6100=
07190,1998-03-07 03:00:00,13,1015.2,-2.4,41,0,15000,35.188,,,250,,,,,,,,,,,wg-a,,,,AAXX 07034 07190 12765 72519 10130 20000 39969 40152 56024 60006 875// 90300=
07190,1998-03-07 06:00:00,13,1013.9,-1.3,51,3,20000,35.188,,,230,9.2,13.4,,,,,,,,,wg-a,,,,AAXX 07064 07190 02770 72319 10130 20030 39956 40139 58013 60006 81571 90600 333 10134 20092 60004=
07190,1998-03-07 12:00:00,12,1014.8,-0.5,67,6,500,38.892,,,210,,,,,,,,,,,wg-a,,,,AAXX 07124 07190 12600 82121 10120 20060 39964 40148 58005 60006 8287/ 91200=
07190,1998-03-07 15:00:00,12,1011.9,-2.8,71,7,20000,25.928,,,170,,,,,,,,,,,wg-a,,,,AAXX 07154 07190 12570 71714 10120 20070 39936 40119 58028 60006 878// 91500=
07190,1998-03-07 18:00:00,12,1010,-1.8,71,7,15000,29.632,,,210,10.8,12.8,,,,,,,,25,wg-a,,,,AAXX 07184 07190 02565 72116 10120 20070 39918 40100 56018 61000 72586 878// 91800 333 10128 20108 6100=
07190,1998-03-07 21:00:00,9,1011.4,1.1,81,6,15000,14.816,,,180,,,,1,,,,,,1,wg-a,,,,AAXX 07214 07190 12765 /1808 10090 20060 39929 40114 51011 60017 70186 86800 92100=
07190,1998-03-08 00:00:00,9,1011.1,-0.3,76,5,15000,18.52,,,180,,,,0,,,,,,2,wg-a,,,,AAXX 08004 07190 02565 71810 10090 20050 39926 40111 58003 60016 70286 875// 90000 333 60007=
07190,1998-03-08 03:00:00,8,1009.5,-1.6,81,5,15000,25.928,,,180,,,,,,,,,,60,wg-a,,,,AAXX 08034 07190 02565 71814 10080 20050 39910 40095 58016 61000 76062 878// 90300 333 ////=
07190,1998-03-08 06:00:00,7,1008.9,-0.6,81,4,20000,7.408,,,210,7.3,12.2,,,,,1,,,3,wg-a,,,,AAXX 08064 07190 02670 /2104 10070 20040 39904 40089 55006 60006 70362 86800 90600 333 10122 20073 60014=
07190,1998-03-08 09:00:00,9,1009.7,0.8,71,4,20000,22.224,,,210,,,,,,,,,,21,wg-a,,,,AAXX 08094 07190 02570 /2112 10090 20040 39912 40097 53008 61000 72162 86400 90900 333 ////=
07190,1998-03-08 12:00:00,11,1008.6,-0.9,62,4,18000,22.224,,,210,,,,,,,,,,3,wg-a,,,,AAXX 08124 07190 02668 72112 10110 20040 39903 40086 58009 61000 70362 878// 91200 333 ////=
07190,1998-03-08 15:00:00,12,1006.2,-2.3,54,3,20000,18.52,,,240,,,,,,,,,,,wg-a,,,,AAXX 08154 07190 12670 /2410 10120 20030 39880 40062 56023 60006 84904 91500=
07190,1998-03-08 18:00:00,8,1006.9,0.5,76,4,18000,7.408,,,210,6.9,12.6,,,,,,,,,wg-a,,,,AAXX 08184 07190 12668 52104 10080 20040 39885 40069 53005 60006 85840 91800 333 10126 20069=
07190,1998-03-08 21:00:00,7,1008.7,1.7,87,5,20000,7.408,,,300,,,,0,,,,,,,wg-a,,,,AAXX 08214 07190 12570 73004 10070 20050 39902 40087 53017 60007 878// 92100=
07190,1998-03-09 00:00:00,3,1012.5,3.4,93,2,8000,29.632,,,40,,,,1,,,,,,,wg-a,,,,AAXX 09004 07190 02458 80416 10030 20020 39936 40125 53034 60016 878// 90000 333 60017=
07190,1998-03-09 03:00:00,2,1016.3,3.7,80,-1,10000,25.928,,,20,,,,0,,,,,,1,wg-a,,,,AAXX 09034 07190 12460 80214 10020 21010 39973 40163 51037 60007 70186 878// 90300=
07190,1998-03-09 06:00:00,-1,1020.7,4.1,64,-7,15000,25.928,,,20,-0.8,8.3,,,,,1,,,1,wg-a,,,,AAXX 09064 07190 02465 /0214 11010 21070 30014 40207 51041 60006 70186 85801 90600 333 10083 21008 60014=
07190,1998-03-09 09:00:00,1,1024.5,3.8,59,-6,20000,25.928,,,20,,,,,,,,,,,wg-a,,,,AAXX 09094 07190 12470 /0214 10010 21060 30052 40245 51038 60006 81802 90900=
07190,1998-03-09 12:00:00,4,1026.4,2.1,41,-8,50000,22.224,,,20,,,,,,,,,,,wg-a,,,,AAXX 09124 07190 12584 /0212 10040 21080 30073 40264 51021 60006 81102 91200=
07190,1998-03-09 18:00:00,3,1029,2,52,-6,500,3.704,,,350,-1,5.9,,,,,,,,,wg-a,,,,AAXX 09184 07190 12500 /3502 10030 21060 30098 40290 53020 60006 81100 91800 333 10059 21010=
07190,1998-03-09 21:00:00,-1,1031.1,1.8,74,-5,20000,3.704,,,210,,,,,,,,,,,wg-a,,,,AAXX 09214 07190 12670 22102 11010 21050 30116 40311 52018 60006 82400 92100=
07190,1998-03-10 00:00:00,-3,1032.9,1.6,86,-5,15000,0,,,0,,,,,,,,,,,wg-a,,,,AAXX 10004 07190 12/65 00000 11030 21050 30132 40329 51016 60006 80000 90000=
07190,1998-03-10 03:00:00,-3,1033,0.1,86,-5,15000,3.704,,,250,,,,,,,,,,,wg-a,,,,AAXX 10034 07190 12/65 02502 11030 21050 30133 40330 51001 60006 80000 90300=
07190,1998-03-10 06:00:00,-4,1034.4,1.3,86,-6,25000,0,,,0,-4.6,3.1,,,,,,,,,wg-a,,,,AAXX 10064 07190 02/75 00000 11040 21060 30146 40344 51013 60006 80000 90600 333 10031 21046 60004=
07190,1998-03-10 09:00:00,3,1034.6,0.7,65,-3,500,7.408,,,200,,,,,,,,,,,wg-a,,,,AAXX 10094 07190 12/00 02004 10030 21030 30153 40346 51007 60006 80000 90900=
07190,1998-03-10 12:00:00,7,1032.4,-1.9,39,-6,500,11.112,,,150,,,,,,,,,,,wg-a,,,,AAXX 10124 07190 12600 41506 10070 21060 30134 40324 58019 60006 81201 91200=
07190,1998-03-10 15:00:00,8,1029.9,-2.4,23,-12,40000,7.408,,,190,,,,,,,,,,,wg-a,,,,AAXX 10154 07190 12682 21904 10080 21120 30110 40299 56024 60006 81201 91500=
07190,1998-03-10 18:00:00,4,1028.5,-1.6,38,-9,40000,7.408,,,170,-4.5,8.3,,,,,,,,,wg-a,,,,AAXX 10184 07190 12782 21704 10040 21090 30094 40285 56016 60006 81201 91800 333 10083 21045=
07190,1998-03-10 21:00:00,2,1026.3,-2.4,55,-6,20000,7.408,,,160,,,,,,,,,,,wg-a,,,,AAXX 10214 07190 12/70 31604 10020 21060 30070 40263 56024 60006 80002 92100=
07190,1998-03-11 00:00:00,0,1022.9,-3.4,74,-4,15000,3.704,,,130,,,,,,,,,,,wg-a,,,,AAXX 11004 07190 12/65 71302 10000 21040 30036 40229 58034 60006 80002 90000=
07190,1998-03-11 03:00:00,1,1018.3,-4.5,64,-5,12000,11.112,,,150,,,,,,,,,,,wg-a,,,,AAXX 11034 07190 12/62 81506 10010 21050 39991 40183 56045 60006 8801/ 90300=
07190,1998-03-11 06:00:00,0,1015.3,-3,64,-6,25000,7.408,,,150,-0.4,4.4,,,,,,,,,wg-a,,,,AAXX 11064 07190 02/75 71504 10000 21060 39961 40153 56030 60006 85032 90600 333 10044 21004 60004=
07190,1998-03-11 09:00:00,4,1013.7,-1.3,48,-6,500,7.408,,,160,,,,,,,,,,,wg-a,,,,AAXX 11094 07190 12/00 61604 10040 21060 39948 40137 56013 60006 84032 90900=
07190,1998-03-11 12:00:00,5,1012.6,-1,38,-8,500,3.704,,,160,,,,,,,,,,,wg-a,,,,AAXX 11124 07190 12600 71602 10050 21080 39938 40126 58010 60006 8353/ 91200=
07190,1998-03-11 15:00:00,7,1011.2,-1.3,39,-6,500,0,,,0,,,,,,,,,,,wg-a,,,,AAXX 11154 07190 12600 70000 10070 21060 39925 40112 56013 60006 8553/ 91500=
07190,1998-03-11 18:00:00,6,1011.6,0.4,49,-4,25000,3.704,,,340,-0.4,6.7,,,,,,,,,wg-a,,,,AAXX 11184 07190 12675 73402 10060 21040 39929 40116 53004 60006 875// 91800 333 10067 21004=
07190,1998-03-11 21:00:00,5,1012.9,1.2,60,-2,20000,7.408,,,300,,,,,,,,,,,wg-a,,,,AAXX 11214 07190 12570 73004 10050 21020 39941 40129 53012 60006 875// 92100=
07190,1998-03-12 00:00:00,4,1013.2,0.3,81,1,10000,3.704,,,50,,,,,,,,,,,wg-a,,,,AAXX 12004 07190 12560 70502 10040 20010 39944 40132 52003 60006 875// 90000=
07190,1998-03-12 03:00:00,3,1013.7,0.4,93,2,10000,7.408,,,300,,,,,,,,,,,wg-a,,,,AAXX 12034 07190 12560 73004 10030 20020 39948 40137 50004 60006 875// 90300=
07190,1998-03-12 06:00:00,3,1015.6,1.9,93,2,7000,3.704,,,330,3,5.9,,,,,,,,61,wg-a,,,,AAXX 12064 07190 02457 73302 10030 20020 39967 40156 53019 61000 76176 875// 90600 333 10059 20030 6001=
07190,1998-03-12 09:00:00,4,1018.2,2.6,93,3,8000,11.112,,,320,,,,0,,,,,,3,wg-a,,,,AAXX 12094 07190 12458 83206 10040 20030 39993 40182 51026 60007 70362 885// 90900=
07190,1998-03-12 12:00:00,5,1019.9,1.7,81,2,10000,18.52,,,330,,,,,,,,,,1,wg-a,,,,AAXX 12124 07190 12460 83310 10050 20020 30010 40199 53017 60006 70162 888// 91200=
07190,1998-03-12 15:00:00,5,1021.1,1.2,81,2,10000,18.52,,,330,,,,,,,,,,60,wg-a,,,,AAXX 12154 07190 02460 83310 10050 20020 30022 40211 51012 61000 76062 888// 91500 333 ////=
07190,1998-03-12 18:00:00,4,1023.2,2,87,2,10000,7.408,,,310,3,5.1,,,,,,,,60,wg-a,,,,AAXX 12184 07190 02660 83104 10040 20020 30042 40232 53020 61000 76062 8657/ 91800 333 10051 20030 6100=
07190,1998-03-12 21:00:00,3,1025,1.6,87,1,15000,3.704,,,290,,,,,,,,,,1,wg-a,,,,AAXX 12214 07190 02665 52902 10030 20010 30058 40250 53016 61000 70162 84830 92100 333 ////=
07190,1998-03-13 00:00:00,1,1027,1.9,80,-2,15000,11.112,,,330,,,,,,,,,,1,wg-a,,,,AAXX 13004 07190 02665 43306 10010 21020 30077 40270 52019 61000 70161 83830 90000 333 ////=
07190,1998-03-13 03:00:00,-1,1026.9,-0.2,93,-2,15000,3.704,,,330,,,,,,,,,,,wg-a,,,,AAXX 13034 07190 12665 33302 11010 21020 30075 40269 58002 60006 83500 90300=
07190,1998-03-13 06:00:00,-2,1028.7,1.6,93,-3,15000,3.704,,,50,-2,4.1,,,,,,,,,wg-a,,,,AAXX 13064 07190 02565 30502 11020 21030 30091 40287 53016 60006 83500 90600 333 10041 21020 60004=
07190,1998-03-13 09:00:00,4,1029.2,1,75,0,15000,3.704,,,110,,,,0,,,,,,,wg-a,,,,AAXX 13094 07190 12565 /1102 10040 20000 30101 40292 51010 60007 81800 90900=
07190,1998-03-13 12:00:00,7,1028.1,-0.9,49,-3,12000,3.704,,,170,,,,,,,,,,,wg-a,,,,AAXX 13124 07190 12562 51702 10070 21030 30092 40281 58009 60006 85800 91200=
07190,1998-03-13 15:00:00,8,1027,-1.1,46,-3,15000,7.408,,,310,,,,,,,,,,,wg-a,,,,AAXX 13154 07190 12665 /3104 10080 21030 30081 40270 57011 60006 85501 91500=
07190,1998-03-13 18:00:00,6,1027.2,0.1,56,-2,15000,7.408,,,230,-2.2,8.2,,,,,,,,,wg-a,,,,AAXX 13184 07190 12665 72304 10060 21020 30082 40272 53001 60006 875// 91800 333 10082 21022=
07190,1998-03-13 21:00:00,6,1027.7,0.5,61,-1,15000,11.112,,,160,,,,,,,,,,,wg-a,,,,AAXX 13214 07190 12665 81606 10060 21010 30087 40277 51005 60006 875// 92100=
07190,1998-03-14 00:00:00,5,1028.1,0.4,70,0,15000,3.704,,,150,,,,,,,,,,,wg-a,,,,AAXX 14004 07190 12465 81502 10050 20000 30091 40281 50004 60006 875// 90000=
07190,1998-03-14 03:00:00,5,1027.3,-0.8,75,1,15000,11.112,,,240,,,,,,,,,,,wg-a,,,,AAXX 14034 07190 12565 82406 10050 20010 30083 40273 58008 60006 875// 90300=
07190,1998-03-14 06:00:00,5,1028.1,0.8,75,1,8000,11.112,,,220,4.8,5.9,,,,,,,,,wg-a,,,,AAXX 14064 07190 02558 82206 10050 20010 30091 40281 53008 60006 875// 90600 333 10059 20048 60004=
07190,1998-03-14 09:00:00,7,1028.6,0.6,70,2,10000,7.408,,,200,,,,,,,,,,,wg-a,,,,AAXX 14094 07190 12560 82004 10070 20020 30097 40286 51006 60006 875// 90900=
07190,1998-03-14 12:00:00,9,1028.9,0.4,66,3,12000,14.816,,,270,,,,,,,,,,,wg-a,,,,AAXX 14124 07190 12562 82708 10090 20030 30101 40289 52004 60006 878// 91200=
07190,1998-03-14 15:00:00,9,1028.4,-0.5,71,4,12000,14.816,,,260,,,,,,,,,,3,wg-a,,,,AAXX 14154 07190 02562 82608 10090 20040 30096 40284 55005 61000 70362 878// 91500 333 ////=
07190,1998-03-14 18:00:00,8,1029.2,0.7,76,4,12000,3.704,,,260,4.9,8.9,,,,,,,,1,wg-a,,,,AAXX 14184 07190 12562 82602 10080 20040 30103 40292 53007 60006 70162 878// 91800 333 10089 20049=
07190,1998-03-14 21:00:00,7,1029.9,0.7,87,5,10000,14.816,,,290,,,,,,,,,,,wg-a,,,,AAXX 14214 07190 12560 72908 10070 20050 30110 40299 50007 60006 878// 92100=
07190,1998-03-15 00:00:00,6,1029.9,-0.1,93,5,10000,3.704,,,280,,,,,,,,,,,wg-a,,,,AAXX 15004 07190 12660 82802 10060 20050 30109 40299 55001 60006 875// 90000=
07190,1998-03-15 03:00:00,7,1028.8,-1,87,5,500,22.224,,,300,,,,,,,,,,,wg-a,,,,AAXX 15034 07190 12600 73012 10070 20050 30099 40288 56010 60006 875// 90300=
07190,1998-03-15 06:00:00,7,1029.8,0.9,81,4,10000,14.816,,,310,5.1,8.1,,,,,,,,60,wg-a,,,,AAXX 15064 07190 02660 73108 10070 20040 30108 40298 53009 61000 76062 875// 90600 333 10081 20051 6100=
07190,1998-03-15 09:00:00,8,1030.2,0.5,76,4,15000,11.112,,,270,,,,,,,,,,3,wg-a,,,,AAXX 15094 07190 02565 72706 10080 20040 30113 40302 51005 61000 70362 875// 90900 333 ////=
07190,1998-03-15 12:00:00,10,1030,-0.1,66,4,15000,7.408,,,260,,,,,,,,,,1,wg-a,,,,AAXX 15124 07190 02565 82604 10100 20040 30112 40300 58001 61000 70162 878// 91200 333 ////=
07190,1998-03-15 15:00:00,9,1029.3,-0.7,87,7,8000,7.408,,,250,,,,2,,,,,,60,wg-a,,,,AAXX 15154 07190 12558 82504 10090 20070 30105 40293 56007 60027 76062 875// 91500=
07190,1998-03-15 18:00:00,8,1029.1,-0.2,87,6,7000,11.112,,,290,6.4,9.6,,,,,,,,21,wg-a,,,,AAXX 15184 07190 02457 82906 10080 20060 30103 40291 55002 61000 72162 865// 91800 333 10096 20064 6001=
07190,1998-03-15 21:00:00,7,1029.5,0.3,93,6,500,11.112,,,250,,,,1,,,,,,61,wg-a,,,,AAXX 15214 07190 12500 82506 10070 20060 30106 40295 51003 60017 76162 875// 92100=
07190,1998-03-16 00:00:00,8,1028.9,-0.6,87,6,500,3.704,,,160,,,,0,,,,,,2,wg-a,,,,AAXX 16004 07190 02500 81602 10080 20060 30100 40289 56006 60016 70262 875// 90000 333 60007=
07190,1998-03-16 06:00:00,8,1028.4,0.6,87,6,4500,14.816,,,300,7.1,8.4,,,,,,,,10,wg-a,,,,AAXX 16064 07190 02545 83008 10080 20060 30096 40284 53006 61000 71062 875// 90600 333 10084 20071 6004=
07190,1998-03-16 09:00:00,9,1030.2,1.8,87,7,7000,7.408,,,330,,,,,,,,,,,wg-a,,,,AAXX 16094 07190 12557 83304 10090 20070 30114 40302 51018 60006 875// 90900=
07190,1998-03-16 12:00:00,11,1029.8,-0.3,76,7,15000,7.408,,,310,,,,,,,,,,,wg-a,,,,AAXX 16124 07190 12565 83104 10110 20070 30111 40298 55003 60006 878// 91200=
07190,1998-03-16 15:00:00,10,1029.2,-0.6,82,7,12000,7.408,,,270,,,,,,,,,,,wg-a,,,,AAXX 16154 07190 12562 82704 10100 20070 30105 40292 56006 60006 878// 91500=
07190,1998-03-16 18:00:00,10,1029.6,0.4,76,6,12000,7.408,,,250,8.2,10.9,,,,,,,,,wg-a,,,,AAXX 16184 07190 12562 82504 10100 20060 30109 40296 52004 60006 875// 91800 333 10109 20082=
07190,1998-03-17 00:00:00,8,1029.9,0,87,6,10000,3.704,,,280,,,,,,,,,,,wg-a,,,,AAXX 17004 07190 12560 82802 10080 20060 30110 40299 50000 60006 875// 90000=
07190,1998-03-17 03:00:00,7,1029.5,-0.4,93,6,10000,0,,,0,,,,,,,,,,,wg-a,,,,AAXX 17034 07190 12560 80000 10070 20060 30106 40295 56004 60006 875// 90300=
07190,1998-03-17 06:00:00,7,1029.6,0.1,93,6,6000,3.704,,,200,6.9,9.9,,,,,,,,,wg-a,,,,AAXX 17064 07190 02656 82002 10070 20060 30107 40296 53001 60006 875// 90600 333 10099 20069 60004=
07190,1998-03-17 09:00:00,9,1030.3,0.8,81,6,8000,7.408,,,290,,,,,,,,,,,wg-a,,,,AAXX 17094 07190 12658 82904 10090 20060 30115 40303 51008 60006 885// 90900=
07190,1998-03-17 12:00:00,9,1030.7,0.4,76,5,6000,11.112,,,330,,,,,,,,,,,wg-a,,,,AAXX 17124 07190 12556 83306 10090 20050 30119 40307 53004 60006 885// 91200=
07190,1998-03-17 15:00:00,10,1030.7,-0,71,5,6000,7.408,,,350,,,,,,,,,,,wg-a,,,,AAXX 17154 07190 12556 83504 10100 20050 30119 40307 54000 60006 885// 91500=
07190,1998-03-17 18:00:00,8,1032.1,1.3,81,5,7000,7.408,,,310,6.9,9.8,,,,,,,,,wg-a,,,,AAXX 17184 07190 12657 83104 10080 20050 30132 40321 52013 60006 885// 91800 333 10098 20069=
07190,1998-03-17 21:00:00,8,1032.8,0.7,81,5,7000,7.408,,,300,,,,,,,,,,,wg-a,,,,AAXX 17214 07190 12657 83004 10080 20050 30139 40328 51007 60006 885// 92100=
07190,1998-03-18 00:00:00,7,1033.3,0.4,87,5,7000,0,,,0,,,,,,,,,,,wg-a,,,,AAXX 18004 07190 12657 80000 10070 20050 30143 40333 52004 60006 875// 90000=
07190,1998-03-18 03:00:00,6,1033.4,0.1,93,5,6000,3.704,,,230,,,,,,,,,,,wg-a,,,,AAXX 18034 07190 12656 82302 10060 20050 30144 40334 50001 60006 875// 90300=
07190,1998-03-18 06:00:00,6,1034.6,1.1,93,5,4500,0,,,0,6,8.3,,,,,,,,10,wg-a,,,,AAXX 18064 07190 02645 80000 10060 20050 30155 40346 51011 60006 71022 875// 90600 333 10083 20060 60004=
07190,1998-03-18 09:00:00,9,1035,0.6,76,5,4500,0,,,0,,,,,,,,,,10,wg-a,,,,AAXX 18094 07190 12745 80000 10090 20050 30161 40350 53006 60006 71022 875// 90900=
07190,1998-03-18 12:00:00,13,1034.8,0.1,72,8,500,3.704,,,40,,,,,,,,,,,wg-a,,,,AAXX 18124 07190 12/00 /0402 10130 20080 30162 40348 50001 60006 91200=
07190,1998-03-18 15:00:00,13,1034.3,-0.5,62,6,7000,3.704,,,320,,,,,,,,,,,wg-a,,,,AAXX 18154 07190 12557 83202 10130 20060 30157 40343 56005 60006 878// 91500=
07190,1998-03-18 18:00:00,11,1034.8,0.3,71,6,10000,7.408,,,330,6,13.2,,,,,,,,,wg-a,,,,AAXX 18184 07190 12660 73304 10110 20060 30160 40348 53003 60006 878// 91800 333 10132 20060=
07190,1998-03-18 21:00:00,9,1035.2,0.3,71,4,10000,11.112,,,260,,,,,,,,,,,wg-a,,,,AAXX 18214 07190 12660 72606 10090 20040 30163 40352 50003 60006 878// 92100=
07190,1998-03-19 00:00:00,8,1034.9,-0.3,76,4,8000,11.112,,,300,,,,,,,,,,,wg-a,,,,AAXX 19004 07190 12658 73006 10080 20040 30160 40349 58003 60006 8653/ 90000=
07190,1998-03-19 03:00:00,8,1035.5,0.5,71,3,6000,11.112,,,310,,,,,,,,,,,wg-a,,,,AAXX 19034 07190 12656 73106 10080 20030 30165 40355 52005 60006 8653/ 90300=
07190,1998-03-19 06:00:00,5,1037.2,1.5,75,1,12000,14.816,,,320,4.7,10.8,,,,,,,,,wg-a,,,,AAXX 19064 07190 02662 /3208 10050 20010 30180 40372 51015 60006 85501 90600 333 10108 20047 60004=
07190,1998-03-19 09:00:00,8,1039,2,61,1,12000,18.52,,,360,,,,,,,,,,,wg-a,,,,AAXX 19094 07190 12562 33610 10080 20010 30200 40390 51020 60006 83800 90900=
07190,1998-03-19 12:00:00,10,1039.1,0.2,40,-3,20000,14.816,,,40,,,,,,,,,,,wg-a,,,,AAXX 19124 07190 12670 50408 10100 21030 30202 40391 51002 60006 85200 91200=
07190,1998-03-19 15:00:00,10,1038.4,-0.7,40,-3,25000,7.408,,,40,,,,,,,,,,,wg-a,,,,AAXX 19154 07190 12675 /0404 10100 21030 30195 40384 56007 60006 86800 91500=
07190,1998-03-19 18:00:00,8,1038.6,0.1,53,-1,20000,7.408,,,20,4.5,10.4,,,,,,,,,wg-a,,,,AAXX 19184 07190 12770 60204 10080 21010 30196 40386 53001 60006 86400 91800 333 10104 20045=
07190,1998-03-19 21:00:00,4,1038.4,-0.5,70,-1,20000,3.704,,,300,,,,,,,,,,,wg-a,,,,AAXX 19214 07190 12770 33002 10040 21010 30191 40384 57005 60006 83500 92100=
07190,1998-03-20 00:00:00,2,1037.8,-0.8,75,-2,20000,0,,,0,,,,,,,,,,,wg-a,,,,AAXX 20004 07190 12770 10000 10020 21020 30183 40378 58008 60006 81500 90000=
07190,1998-03-20 03:00:00,0,1036.9,-1,86,-2,15000,0,,,0,,,,,,,,,,,wg-a,,,,AAXX 20034 07190 12765 20000 10000 21020 30173 40369 58010 60006 82500 90300=
07190,1998-03-20 06:00:00,1,1037.3,0.5,86,-1,15000,7.408,,,330,-1.5,8.3,,,,,,,,,wg-a,,,,AAXX 20064 07190 02665 73304 10010 21010 30178 40373 53005 60006 878// 90600 333 10083 21015 60004=
07190,1998-03-20 09:00:00,7,1036.9,-0,57,-1,18000,11.112,,,350,,,,,,,,,,,wg-a,,,,AAXX 20094 07190 12668 53506 10070 21010 30178 40369 55000 60006 85800 90900=
07190,1998-03-20 12:00:00,9,1035.1,-1.6,43,-3,35000,14.816,,,310,,,,,,,,,,,wg-a,,,,AAXX 20124 07190 12781 73108 10090 21030 30162 40351 58016 60006 878// 91200=
07190,1998-03-20 15:00:00,8,1033.1,-2,49,-2,40000,14.816,,,290,,,,,,,,,,,wg-a,,,,AAXX 20154 07190 12682 82908 10080 21020 30142 40331 56020 60006 884// 91500=
07190,1998-03-20 18:00:00,8,1032.4,-0.7,61,1,20000,7.408,,,270,0.8,9.4,,,,,,,,,wg-a,,,,AAXX 20184 07190 12670 72704 10080 20010 30135 40324 56007 60006 875// 91800 333 10094 20008=
07190,1998-03-20 21:00:00,7,1031.2,-1.2,81,4,8000,11.112,,,280,,,,0,,,,,,21,wg-a,,,,AAXX 20214 07190 12558 82806 10070 20040 30123 40312 58012 60007 72162 875// 92100=
07190,1998-03-21 00:00:00,7,1029.8,-1.4,81,4,500,14.816,,,300,,,,,,,,,,3,wg-a,,,,AAXX 21004 07190 12500 83008 10070 20040 30109 40298 57014 60006 70362 875// 90000=
07190,1998-03-21 03:00:00,7,1028.8,-1,87,5,500,18.52,,,320,,,,,,,,,,,wg-a,,,,AAXX 21034 07190 12400 83210 10070 20050 30099 40288 56010 60006 875// 90300=
07190,1998-03-21 06:00:00,6,1029.6,0.7,87,4,12000,11.112,,,320,5.6,7.7,,,,,,,,1,wg-a,,,,AAXX 21064 07190 02562 73206 10060 20040 30106 40296 51007 60006 70165 8583/ 90600 333 10077 20056 60004=
07190,1998-03-21 09:00:00,6,1031.5,1.8,61,-1,20000,22.224,,,30,,,,,,,,,,,wg-a,,,,AAXX 21094 07190 12570 70312 10060 21010 30124 40315 50018 60006 878// 90900=
07190,1998-03-21 12:00:00,7,1031.7,0.3,45,-4,20000,18.52,,,60,,,,,,,,,,,wg-a,,,,AAXX 21124 07190 12670 /0610 10070 21040 30127 40317 50003 60006 85500 91200=
07190,1998-03-21 15:00:00,9,1030.7,-0.9,37,-5,20000,14.816,,,40,,,,,,,,,,,wg-a,,,,AAXX 21154 07190 12770 20408 10090 21050 30118 40307 56009 60006 82800 91500=
07190,1998-03-21 18:00:00,6,1031.5,0.6,42,-6,25000,11.112,,,20,4.5,8.7,,,,,,,,,wg-a,,,,AAXX 21184 07190 12775 10206 10060 21060 30124 40315 52006 60006 81500 91800 333 10087 20045=
07190,1998-03-21 21:00:00,2,1032.4,0.7,55,-6,15000,7.408,,,10,,,,,,,,,,,wg-a,,,,AAXX 21214 07190 12/65 00104 10020 21060 30131 40324 51007 60006 80000 92100=
07190,1998-03-22 00:00:00,-2,1032.4,-0.3,74,-6,10000,3.704,,,220,,,,,,,,,,,wg-a,,,,AAXX 22004 07190 12/60 02202 11020 21060 30128 40324 56003 60006 80000 90000=
07190,1998-03-22 03:00:00,-3,1032.2,-0.3,80,-6,8000,0,,,0,,,,,,,,,,,wg-a,,,,AAXX 22034 07190 12/58 00000 11030 21060 30125 40322 58003 60006 80000 90300=
07190,1998-03-22 06:00:00,-4,1033.1,0.8,93,-5,25000,0,,,0,-3.7,5.8,,,,,,,,,wg-a,,,,AAXX 22064 07190 02/75 10000 11040 21050 30133 40331 53008 60006 80002 90600 333 10058 21037 60004=
07190,1998-03-22 12:00:00,9,1031.9,-1,29,-8,25000,11.112,,,40,,,,,,,,,,,wg-a,,,,AAXX 22124 07190 12/75 20406 10090 21080 30130 40319 58010 60006 80001 91200=
07190,1998-03-22 15:00:00,11,1029.8,-1.9,28,-7,500,11.112,,,30,,,,,,,,,,,wg-a,,,,AAXX 22154 07190 12/00 20306 10110 21070 30111 40298 57019 60006 82040 91500=
07190,1998-03-22 18:00:00,7,1029.9,-0.2,39,-6,500,7.408,,,80,-3.6,10.6,,,,,,,,,wg-a,,,,AAXX 22184 07190 12/00 30804 10070 21060 30109 40299 55002 60006 83070 91800 333 10106 21036=
07190,1998-03-22 21:00:00,6,1029.2,-0.7,52,-3,500,3.704,,,240,,,,,,,,,,,wg-a,,,,AAXX 22214 07190 12600 72402 10060 21030 30102 40292 57007 60006 875// 92100=
07190,1998-03-23 00:00:00,6,1027.7,-1.5,65,0,20000,11.112,,,300,,,,,,,,,,,wg-a,,,,AAXX 23004 07190 12670 83006 10060 20000 30087 40277 58015 60006 885// 90000=
07190,1998-03-23 03:00:00,5,1026.1,-1.6,93,4,10000,3.704,,,260,,,,1,,,,,,21,wg-a,,,,AAXX 23034 07190 12460 82602 10050 20040 30071 40261 58016 60017 72162 875// 90300=
07190,1998-03-23 06:00:00,6,1025.2,-0.9,81,3,10000,11.112,,,290,4.8,7,,,,,,,,21,wg-a,,,,AAXX 23064 07190 02660 /2906 10060 20030 30062 40252 56009 61000 72162 875// 90600 333 10070 20048 6001=
07190,1998-03-23 09:00:00,7,1024.3,-0.8,76,3,10000,18.52,,,300,,,,,,,,,,60,wg-a,,,,AAXX 23094 07190 02560 73010 10070 20030 30054 40243 58008 61000 76062 878// 90900 333 ////=
07190,1998-03-23 12:00:00,10,1022,-2,57,2,18000,18.52,,,270,,,,,,,,,,3,wg-a,,,,AAXX 23124 07190 02568 62710 10100 20020 30034 40220 58020 61000 70361 83932 91200 333 6100=
07190,1998-03-23 15:00:00,2,1023.3,0.7,93,1,500,11.112,,,320,,,,3,,,,,,26,wg-a,,,,AAXX 23154 07190 12300 83206 10020 20010 30041 40233 51007 60037 72687 877// 91500=
07190,1998-03-23 18:00:00,1,1024.8,1.4,86,-1,3000,35.188,,,30,0.5,10.5,,,,,,,,77,wg-a,,,,AAXX 23184 07190 02130 80319 10010 21010 30055 40248 53014 61000 77787 875// 91800 333 10105 20005 6100=
07190,1998-03-23 21:00:00,1,1025.8,1,86,-1,10000,14.816,,,10,,,,0,,,,,,1,wg-a,,,,AAXX 23214 07190 12460 80108 10010 21010 30065 40258 50010 60007 70172 8127/ 92100=
07190,1998-03-24 00:00:00,1,1026.1,0.3,75,-3,15000,14.816,,,360,,,,,,,,,,1,wg-a,,,,AAXX 24004 07190 12/65 23608 10010 21030 30068 40261 53003 60006 70171 82070 90000=
07190,1998-03-24 03:00:00,0,1027.1,0.9,80,-3,10000,29.632,,,20,,,,,,,,,,70,wg-a,,,,AAXX 24034 07190 02660 70216 10000 21030 30077 40271 53009 61000 77071 875// 90300 333 ////=
07190,1998-03-24 06:00:00,0,1028.4,1.3,69,-5,15000,22.224,,,30,-0.4,1.4,,,,,4,,,3,wg-a,,,,AAXX 24064 07190 02665 /0312 10000 21050 30090 40284 53013 60006 70371 86800 90600 333 10014 21004 60044=
07190,1998-03-24 09:00:00,3,1030.2,2,65,-3,15000,18.52,,,20,,,,,,,,,,,wg-a,,,,AAXX 24094 07190 12565 /0210 10030 21030 30110 40302 51020 60006 81100 90900=
07190,1998-03-24 12:00:00,6,1030.7,0.7,56,-2,18000,14.816,,,30,,,,,,,,,,,wg-a,,,,AAXX 24124 07190 12668 /0308 10060 21020 30117 40307 51007 60006 81100 91200=
07190,1998-03-24 15:00:00,8,1031,0.4,39,-5,20000,14.816,,,40,,,,,,,,,,,wg-a,,,,AAXX 24154 07190 12770 20408 10080 21050 30121 40310 53004 60006 81101 91500=
07190,1998-03-24 18:00:00,6,1032.4,1.2,49,-4,20000,7.408,,,50,0.2,8.2,,,,,,,,,wg-a,,,,AAXX 24184 07190 12770 20504 10060 21040 30133 40324 53012 60006 81401 91800 333 10082 20002=
07190,1998-03-24 21:00:00,1,1033.2,0.5,69,-4,15000,0,,,0,,,,,,,,,,,wg-a,,,,AAXX 24214 07190 12/65 00000 10010 21040 30138 40332 50005 60006 80000 92100=
07190,1998-03-25 00:00:00,-2,1033.5,0.1,86,-4,15000,3.704,,,10,,,,,,,,,,,wg-a,,,,AAXX 25004 07190 12/65 00102 11020 21040 30139 40335 51001 60006 80000 90000=
07190,1998-03-25 03:00:00,-2,1033.3,-0.3,74,-6,20000,3.704,,,350,,,,,,,,,,,wg-a,,,,AAXX 25034 07190 12/70 03502 11020 21060 30136 40333 58003 60006 80000 90300=
07190,1998-03-25 06:00:00,-3,1033.9,0.6,80,-6,25000,0,,,0,-4,5.5,,,,,,,,,wg-a,,,,AAXX 25064 07190 02/75 40000 11030 21060 30142 40339 53006 60006 80001 90600 333 10055 21040 60004=
07190,1998-03-25 09:00:00,3,1033.3,-0.2,60,-4,25000,7.408,,,360,,,,,,,,,,,wg-a,,,,AAXX 25094 07190 12/75 73604 10030 21040 30140 40333 58002 60006 80001 90900=
07190,1998-03-25 12:00:00,8,1031.2,-1.7,34,-7,25000,11.112,,,40,,,,,,,,,,,wg-a,,,,AAXX 25124 07190 12/75 60406 10080 21070 30123 40312 58017 60006 80001 91200=
07190,1998-03-25 15:00:00,10,1029.1,-2,23,-10,25000,14.816,,,100,,,,,,,,,,,wg-a,,,,AAXX 25154 07190 12/75 21008 10100 21100 30103 40291 58020 60006 80001 91500=
07190,1998-03-25 18:00:00,6,1028.3,-1,39,-7,25000,11.112,,,120,-3,10.2,,,,,,,,,wg-a,,,,AAXX 25184 07190 12/75 21206 10060 21070 30093 40283 56010 60006 80001 91800 333 10102 21030=
07190,1998-03-25 21:00:00,3,1028,-0.5,48,-7,20000,7.408,,,150,,,,,,,,,,,wg-a,,,,AAXX 25214 07190 12/70 41504 10030 21070 30088 40280 58005 60006 80001 92100=
07190,1998-03-26 00:00:00,-1,1026.9,-1.4,69,-6,20000,3.704,,,210,,,,,,,,,,,wg-a,,,,AAXX 26004 07190 12/70 42102 11010 21060 30074 40269 58014 60006 80001 90000=
07190,1998-03-26 03:00:00,-4,1025.9,-1.1,86,-6,20000,0,,,0,,,,,,,,,,,wg-a,,,,AAXX 26034 07190 12/70 30000 11040 21060 30063 40259 58011 60006 80001 90300=
07190,1998-03-26 06:00:00,-4,1025.8,-0.1,86,-6,15000,0,,,0,-3.9,6,,,,,,,,,wg-a,,,,AAXX 26064 07190 02/65 20000 11040 21060 30062 40258 55001 60006 80001 90600 333 10060 21039 60004=
07190,1998-03-26 09:00:00,4,1025.1,-0.2,56,-4,20000,7.408,,,160,,,,,,,,,,,wg-a,,,,AAXX 26094 07190 12/70 31604 10040 21040 30060 40251 58002 60006 80002 90900=
07190,1998-03-26 12:00:00,9,1023.1,-1.6,40,-4,18000,7.408,,,160,,,,,,,,,,,wg-a,,,,AAXX 26124 07190 12/68 31604 10090 21040 30044 40231 58016 60006 80001 91200=
07190,1998-03-26 15:00:00,12,1020.5,-2.4,32,-4,18000,7.408,,,120,,,,,,,,,,,wg-a,,,,AAXX 26154 07190 12/68 61204 10120 21040 30020 40205 58024 60006 80002 91500=
07190,1998-03-26 18:00:00,9,1020.2,-0.4,40,-4,20000,3.704,,,100,-3.8,11.9,,,,,,,,,wg-a,,,,AAXX 26184 07190 12/70 81002 10090 21040 30016 40202 56004 60006 80002 91800 333 10119 21038=
07190,1998-03-26 21:00:00,7,1020.8,0.4,57,-1,10000,3.704,,,230,,,,,,,,,,,wg-a,,,,AAXX 26214 07190 12/60 82302 10070 21010 30020 40208 53004 60006 8707/ 92100=
07190,1998-03-27 00:00:00,6,1020.5,-0.3,70,1,10000,3.704,,,140,,,,,,,,,,,wg-a,,,,AAXX 27004 07190 12660 81402 10060 20010 30017 40205 58003 60006 8657/ 90000=
07190,1998-03-27 03:00:00,6,1020.7,0.1,75,2,10000,3.704,,,150,,,,0,,,,,,21,wg-a,,,,AAXX 27034 07190 12660 81502 10060 20020 30018 40207 50001 60007 72122 875// 90300=
07190,1998-03-27 06:00:00,6,1020.8,0.2,70,1,10000,7.408,,,160,5.7,9.2,,,,,1,,,1,wg-a,,,,AAXX 27064 07190 02660 81604 10060 20010 30020 40208 53002 60006 70162 8657/ 90600 333 10092 20057 60014=
07190,1998-03-27 09:00:00,9,1021.4,0.7,71,4,12000,14.816,,,170,,,,,,,,,,,wg-a,,,,AAXX 27094 07190 12662 81708 10090 20040 30027 40214 52007 60006 8657/ 90900=
07190,1998-03-27 12:00:00,11,1021.8,0.6,62,4,12000,11.112,,,200,,,,,,,,,,,wg-a,,,,AAXX 27124 07190 12662 82006 10110 20040 30033 40218 50006 60006 8657/ 91200=
07190,1998-03-27 15:00:00,14,1020.7,-0.9,55,5,12000,3.704,,,190,,,,,,,,,,,wg-a,,,,AAXX 27154 07190 12662 71902 10140 20050 30024 40207 56009 60006 8657/ 91500=
07190,1998-03-27 18:00:00,12,1021,0.2,67,6,15000,11.112,,,10,6.3,14,,,,,,,,,wg-a,,,,AAXX 27184 07190 12665 70106 10120 20060 30026 40210 53002 60006 8657/ 91800 333 10140 20063=
07190,1998-03-27 21:00:00,7,1021.9,0.5,87,5,15000,7.408,,,240,,,,,,,,,,,wg-a,,,,AAXX 27214 07190 12/65 22404 10070 20050 30031 40219 51005 60006 82070 92100=
07190,1998-03-28 00:00:00,4,1022.2,0.1,93,3,15000,0,,,0,,,,,,,,,,,wg-a,,,,AAXX 28004 07190 12/65 00000 10040 20030 30032 40222 53001 60006 80000 90000=
07190,1998-03-28 03:00:00,2,1020.7,-1.6,93,1,7000,0,,,0,,,,,,,,,,,wg-a,,,,AAXX 28034 07190 12/57 00000 10020 20010 30016 40207 58016 60006 80000 90300=
07190,1998-03-28 06:00:00,2,1021.4,0.6,93,1,500,3.704,,,110,0.8,12,,,,,,,,,wg-a,,,,AAXX 28064 07190 02/00 71102 10020 20010 30022 40214 53006 60006 80001 90600 333 10120 20008 60004=
07190,1998-03-28 09:00:00,9,1020.7,-0.1,81,6,6000,3.704,,,160,,,,,,,,,,,wg-a,,,,AAXX 28094 07190 12/56 31602 10090 20060 30021 40207 58001 60006 80001 90900=
07190,1998-03-28 12:00:00,16,1018.3,-1.9,51,6,12000,3.704,,,80,,,,,,,,,,,wg-a,,,,AAXX 28124 07190 12/62 60802 10160 20060 30002 40183 58019 60006 80002 91200=
07190,1998-03-28 15:00:00,19,1015.9,-2.2,40,5,20000,7.408,,,100,,,,,,,,,,,wg-a,,,,AAXX 28154 07190 12/70 61004 10190 20050 39980 40159 56022 60006 80002 91500=
07190,1998-03-28 18:00:00,16,1015.7,-0.4,55,7,20000,7.408,,,10,1.5,19,,,,,,,,,wg-a,,,,AAXX 28184 07190 12/70 60104 10160 20070 39976 40157 55004 60006 81042 91800 333 10190 20015=
07190,1998-03-28 21:00:00,9,1015.8,-0.3,76,5,12000,3.704,,,260,,,,,,,,,,,wg-a,,,,AAXX 28214 07190 12/62 32602 10090 20050 39973 40158 55003 60006 81042 92100=
07190,1998-03-29 00:00:00,7,1015.7,-0.3,87,5,12000,3.704,,,200,,,,,,,,,,,wg-a,,,,AAXX 29004 07190 12/62 72002 10070 20050 39970 40157 58003 60006 81042 90000=
07190,1998-03-29 03:00:00,7,1014.3,-1.3,87,5,10000,3.704,,,20,,,,,,,,,,,wg-a,,,,AAXX 29034 07190 12/60 70202 10070 20050 39957 40143 56013 60006 83042 90300=
07190,1998-03-29 06:00:00,5,1014.5,-0,93,4,500,3.704,,,50,4.9,15.5,,,,,,,,,wg-a,,,,AAXX 29064 07190 02/00 50502 10050 20040 39957 40145 55000 60006 84032 90600 333 10155 20049 60004=
07190,1998-03-29 09:00:00,14,1013.9,0,67,8,9000,3.704,,,40,,,,,,,,,,,wg-a,,,,AAXX 29094 07190 12/59 50402 10140 20080 39957 40139 50000 60006 85031 90900=
07190,1998-03-29 12:00:00,19,1011.7,-1.8,49,8,15000,7.408,,,10,,,,,,,,,,,wg-a,,,,AAXX 29124 07190 12665 20104 10190 20080 39939 40117 58018 60006 81101 91200=
07190,1998-03-29 15:00:00,23,1009.3,-2.2,36,7,25000,7.408,,,70,,,,,,,,,,,wg-a,,,,AAXX 29154 07190 12775 20704 10230 20070 39917 40093 56022 60006 81102 91500=
07190,1998-03-29 18:00:00,20,1009.2,-0.2,43,7,25000,3.704,,,10,4.9,23,,,,,,,,,wg-a,,,,AAXX 29184 07190 12/75 40102 10200 20070 39915 40092 55002 60006 80001 91800 333 10230 20049=
07190,1998-03-29 21:00:00,14,1010.6,0.9,58,6,25000,3.704,,,70,,,,,,,,,,,wg-a,,,,AAXX 29214 07190 12/75 20702 10140 20060 39924 40106 53009 60006 80001 92100=
07190,1998-03-30 00:00:00,9,1011.9,1,76,5,20000,0,,,0,,,,,,,,,,,wg-a,,,,AAXX 30004 07190 12/70 00000 10090 20050 39934 40119 51010 60006 80000 90000=
07190,1998-03-30 12:00:00,22,1014,-0.4,25,1,20000,7.408,,,140,,,,,,,,,,,wg-a,,,,AAXX 30124 07190 12/70 41404 10220 20010 39963 40140 58004 60006 80001 91200=
07190,1998-03-30 15:00:00,24,1013.7,-1.1,27,4,20000,7.408,,,140,,,,,,,,,,,wg-a,,,,AAXX 30154 07190 12/70 61404 10240 20040 39961 40137 56011 60006 82031 91500=
07190,1998-03-30 18:00:00,19,1015.1,1.1,46,7,25000,7.408,,,20,5.8,24.1,,,,,,,,,wg-a,,,,AAXX 30184 07190 12/75 60204 10190 20070 39972 40151 53011 60006 80002 91800 333 10241 20058=
07190,1998-03-30 21:00:00,14,1016.7,1.3,55,5,20000,3.704,,,320,,,,,,,,,,,wg-a,,,,AAXX 30214 07190 12/70 53202 10140 20050 39985 40167 51013 60006 80002 92100=
07190,1998-03-31 00:00:00,11,1017.8,0.8,62,4,15000,3.704,,,70,,,,,,,,,,,wg-a,,,,AAXX 31004 07190 12/65 50702 10110 20040 39993 40178 52008 60006 80002 90000=
07190,1998-03-31 03:00:00,7,1017.9,-0.1,81,4,15000,3.704,,,220,,,,,,,,,,,wg-a,,,,AAXX 31034 07190 12/65 52202 10070 20040 39992 40179 58001 60006 80002 90300=
07190,1998-03-31 06:00:00,7,1018.1,0.2,81,4,18000,3.704,,,210,5.8,18.8,,,,,,,,,wg-a,,,,AAXX 31064 07190 02/68 02102 10070 20040 39994 40181 52002 60006 80000 90600 333 10188 20058 60004=
07190,1998-03-31 09:00:00,16,1017.5,0,51,6,15000,0,,,0,,,,,,,,,,,wg-a,,,,AAXX 31094 07190 12/65 00000 10160 20060 39994 40175 50000 60006 80000 90900=
07190,1998-03-31 12:00:00,22,1015.3,-1.8,38,7,12000,3.704,,,330,,,,,,,,,,,wg-a,,,,AAXX 31124 07190 12762 13302 10220 20070 39976 40153 58018 60006 81100 91200=
07190,1998-03-31 15:00:00,24,1013.1,-2.1,29,5,12000,7.408,,,20,,,,,,,,,,,wg-a,,,,AAXX 31154 07190 12762 10204 10240 20050 39955 40131 58021 60006 81100 91500=
07190,1998-03-31 18:00:00,20,1012.9,-0.4,43,7,15000,7.408,,,310,6.6,23.9,,,,,,,,,wg-a,,,,AAXX 31184 07190 12/65 03104 10200 20070 39951 40129 55004 60006 80000 91800 333 10239 20066=
07190,1998-03-31 21:00:00,13,1014.1,0.8,67,7,15000,3.704,,,200,,,,,,,,,,,wg-a,,,,AAXX 31214 07190 12/65 02002 10130 20070 39959 40141 51008 60006 80000 92100=
07190,1998-04-01 00:00:00,11,1014.7,0.4,76,7,15000,3.704,,,200,,,,,,,,,,,wg-a,,,,AAXX 01004 07190 12/65 12002 10110 20070 39963 40147 53004 60006 81030 90000=
07190,1998-04-01 03:00:00,11,1014.3,-0.3,76,7,15000,3.704,,,120,,,,,,,,,,,wg-a,,,,AAXX 01034 07190 12/65 61202 10110 20070 39960 40143 58003 60006 86030 90300=
07190,1998-04-01 06:00:00,12,1014.5,0.1,62,5,15000,0,,,0,9.8,19.7,,,,,,,,,wg-a,,,,AAXX 01064 07190 02765 60000 10120 20050 39961 40145 53001 60006 82531 90600 333 10197 20098 60004=
07190,1998-04-01 09:00:00,18,1014.3,0.3,42,5,15000,29.632,,,210,,,,,,,,,,,wg-a,,,,AAXX 01094 07190 12665 42116 10180 20050 39964 40143 50003 60006 81131 90900=
07190,1998-04-01 12:00:00,18,1013.4,-0.9,45,6,25000,25.928,,,240,,,,,,,,,,,wg-a,,,,AAXX 01124 07190 12675 72414 10180 20060 39955 40134 58009 60006 85431 91200=
07190,1998-04-01 15:00:00,17,1012.5,-1,52,7,25000,18.52,,,210,,,,,,,,,,,wg-a,,,,AAXX 01154 07190 12775 72110 10170 20070 39945 40125 58010 60006 8657/ 91500=
07190,1998-04-01 18:00:00,15,1012,-0.6,63,8,25000,7.408,,,140,11.5,20,,,,,,,,,wg-a,,,,AAXX 01184 07190 12675 71404 10150 20080 39939 40120 56006 60006 8427/ 91800 333 10200 20115=
07190,1998-04-01 21:00:00,14,1013,0.9,72,9,15000,14.816,,,190,,,,,,,,,,,wg-a,,,,AAXX 01214 07190 12565 71908 10140 20090 39948 40130 51009 60006 878// 92100=
07190,1998-04-02 00:00:00,12,1012.8,-0.3,88,10,15000,7.408,,,210,,,,0,,,,,,21,wg-a,,,,AAXX 02004 07190 02665 82104 10120 20100 39945 40128 58003 60006 72162 8453/ 90000 333 60007=
07190,1998-04-02 03:00:00,11,1011.3,-1.5,87,9,15000,11.112,,,150,,,,0,,,,,,0,wg-a,,,,AAXX 02034 07190 12665 /1506 10110 20090 39930 40113 58015 60007 70062 86800 90300=
07190,1998-04-02 06:00:00,11,1010.7,-0.6,87,9,15000,14.816,,,160,10.7,15.6,,,,,,,,2,wg-a,,,,AAXX 02064 07190 02665 71608 10110 20090 39924 40107 56006 60006 70262 878// 90600 333 10156 20107 60004=
07190,1998-04-02 09:00:00,14,1009.8,-0.7,72,9,15000,14.816,,,180,,,,,,,,,,,wg-a,,,,AAXX 02094 07190 12565 71808 10140 20090 39917 40098 58007 60006 8683/ 90900=
07190,1998-04-02 12:00:00,17,1006.6,-2.9,52,7,15000,11.112,,,180,,,,,,,,,,25,wg-a,,,,AAXX 02124 07190 02565 71806 10170 20070 39888 40066 58029 61000 72586 8683/ 91200 333 6100=
07190,1998-04-02 15:00:00,15,1004.9,-1.9,72,10,10000,14.816,,,200,,,,1,,,,,,25,wg-a,,,,AAXX 02154 07190 12560 82008 10150 20100 39869 40049 56019 60017 72586 873// 91500=
07190,1998-04-02 18:00:00,12,1005.6,0.5,76,8,25000,7.408,,,170,11.1,18.2,,0,,,,,,1,wg-a,,,,AAXX 02184 07190 02575 61704 10120 20080 39874 40056 53005 60006 70186 85801 91800 333 10182 20111 60007=
07190,1998-04-02 21:00:00,11,1005.4,-0.2,82,8,20000,18.52,,,180,,,,,,,,,,,wg-a,,,,AAXX 02214 07190 12670 51810 10110 20080 39872 40054 58002 60006 85500 92100=
07190,1998-04-03 00:00:00,10,1004.8,-0.7,93,9,15000,11.112,,,180,,,,0,,,,,,21,wg-a,,,,AAXX 03004 07190 02665 51806 10100 20090 39865 40048 58007 60006 72161 85500 90000 333 60007=
07190,1998-04-03 03:00:00,10,1003,-1.7,93,9,15000,14.816,,,190,,,,0,,,,,,61,wg-a,,,,AAXX 03034 07190 12665 81908 10100 20090 39848 40030 56017 60007 76162 875// 90300=
07190,1998-04-03 06:00:00,12,1002.1,-0.8,88,10,8000,22.224,,,180,9.8,12,,,,,,,,21,wg-a,,,,AAXX 03064 07190 02658 81812 10120 20100 39840 40021 56008 61000 72162 8557/ 90600 333 10120 20098 6002=
07190,1998-04-03 09:00:00,13,1001.9,-0.1,94,12,8000,22.224,,,190,,,,1,,,,,,21,wg-a,,,,AAXX 03094 07190 12558 81912 10130 20120 39839 40019 58001 60017 72162 8687/ 90900=
07190,1998-04-03 12:00:00,18,1000,-1.5,68,12,20000,25.928,,,190,,,,,,,,,,1,wg-a,,,,AAXX 03124 07190 12670 81914 10180 20120 39824 40000 56015 60016 70162 878// 91200=
07190,1998-04-03 15:00:00,21,997.4,-2.5,49,10,500,25.928,,,200,,,,,,,,,,,wg-a,,,,AAXX 03154 07190 12600 82014 10210 20100 39799 49974 56025 60006 8487/ 91500=
07190,1998-04-03 18:00:00,16,996.4,-1.2,82,13,25000,7.408,,,30,11.4,20.7,,,,,,,,,wg-a,,,,AAXX 03184 07190 12775 80304 10160 20130 39787 49964 56012 60006 8387/ 91800 333 10207 20114=
07190,1998-04-03 21:00:00,13,995.5,-1.1,94,12,20000,11.112,,,30,,,,,,,,,,,wg-a,,,,AAXX 03214 07190 12770 70306 10130 20120 39776 49955 57011 60006 8387/ 92100=
07190,1998-04-04 00:00:00,10,998.4,2.7,82,7,10000,29.632,,,310,,,,,,,,,,,wg-a,,,,AAXX 04004 07190 12560 83116 10100 20070 39803 49984 51027 60006 8487/ 90000=
07190,1998-04-04 03:00:00,9,1001.8,3.2,81,6,10000,7.408,,,160,,,,0,,,,,,25,wg-a,,,,AAXX 04034 07190 12560 81604 10090 20060 39835 40018 51032 60007 72586 878// 90300=
07190,1998-04-04 06:00:00,8,1004.3,2.4,87,6,10000,14.816,,,190,7.6,15.4,,,,,,,,61,wg-a,,,,AAXX 04064 07190 02560 81908 10080 20060 39859 40043 53024 61000 76186 8687/ 90600 333 10154 20076 6002=
07190,1998-04-04 09:00:00,7,1005.5,1.1,81,4,20000,29.632,,,180,,,,1,,,,,,1,wg-a,,,,AAXX 04094 07190 12470 81816 10070 20040 39870 40055 53011 60017 70162 8687/ 90900=
07190,1998-04-04 12:00:00,10,1005.8,0.5,71,5,500,29.632,,,190,,,,,,,,,,3,wg-a,,,,AAXX 04124 07190 12500 81916 10100 20050 39875 40058 50005 60016 70362 8687/ 91200=
07190,1998-04-04 15:00:00,11,1005,-0.7,62,4,500,31.484,,,180,,,,,,,,,,,wg-a,,,,AAXX 04154 07190 12500 71817 10110 20040 39868 40050 58007 60006 84871 91500=
07190,1998-04-04 18:00:00,11,1004.9,-0.1,58,3,40000,22.224,,,180,7,11.8,,,,,,,,,wg-a,,,,AAXX 04184 07190 12782 51812 10110 20030 39867 40049 55001 60006 81271 91800 333 10118 20070=
07190,1998-04-04 21:00:00,8,1006.8,1.7,76,4,500,11.112,,,210,,,,,,,,,,,wg-a,,,,AAXX 04214 07190 12600 62106 10080 20040 39884 40068 53017 60006 84570 92100=
07190,1998-04-05 03:00:00,6,1006.6,-0.4,87,4,20000,0,,,0,,,,,,,,,,,wg-a,,,,AAXX 05034 07190 12/70 10000 10060 20040 39880 40066 55004 60006 80001 90300=
07190,1998-04-05 06:00:00,6,1006.1,-0.5,87,4,500,11.112,,,180,5,10.6,,,,,1,,,,wg-a,,,,AAXX 05064 07190 02600 61806 10060 20040 39875 40061 58005 60006 81121 90600 333 10106 20050 60014=
07190,1998-04-05 09:00:00,12,1005.2,-0.4,62,5,500,25.928,,,170,,,,,,,,,,,wg-a,,,,AAXX 05094 07190 12600 61714 10120 20050 39871 40052 58004 60006 81572 90900=
07190,1998-04-05 12:00:00,13,1006.5,1.3,51,3,20000,46.3,,,240,,,,,,,,,,80,wg-a,,,,AAXX 05124 07190 02570 82425 10130 20030 39884 40065 53013 61000 78086 878// 91200 333 6100=
07190,1998-04-05 15:00:00,14,1006.1,-0.3,51,4,500,25.928,,,210,,,,,,,,,,3,wg-a,,,,AAXX 05154 07190 02600 82114 10140 20040 39881 40061 55003 61000 70386 878// 91500 333 ////=
07190,1998-04-06 06:00:00,7,1011.2,0.9,87,5,20000,7.408,,,180,4.4,12.5,,,,,,,,,wg-a,,,,AAXX 06064 07190 02570 71804 10070 20050 39926 40112 53009 60006 878// 90600 333 10125 20044 61000=
07190,1998-04-06 09:00:00,10,1011.4,0.4,87,8,15000,14.816,,,190,,,,0,,,,,,25,wg-a,,,,AAXX 06094 07190 12465 /1908 10100 20080 39930 40114 50004 60007 72586 86800 90900=
07190,1998-04-06 12:00:00,12,1010,-1.2,67,6,25000,29.632,,,200,,,,0,,,,,,80,wg-a,,,,AAXX 06124 07190 02575 72016 10120 20060 39918 40100 58012 60016 78086 878// 91200 333 60007=
07190,1998-04-06 15:00:00,12,1007.6,-2.4,67,6,15000,7.408,,,270,,,,0,,,,,,25,wg-a,,,,AAXX 06154 07190 12665 72704 10120 20060 39894 40076 56024 60007 72586 85332 91500=
07190,1998-04-06 18:00:00,13,1007.1,-0.4,54,4,25000,25.928,,,250,6.8,15.5,,,,,,,,3,wg-a,,,,AAXX 06184 07190 02675 72514 10130 20040 39890 40071 55004 60006 70386 8587/ 91800 333 10155 20068 61000=
07190,1998-04-06 21:00:00,9,1007.7,0.3,87,7,20000,7.408,,,160,,,,1,,,,,,60,wg-a,,,,AAXX 06214 07190 12670 71604 10090 20070 39893 40077 50003 60017 76062 8657/ 92100=
07190,1998-04-07 00:00:00,8,1006.5,-1.2,93,7,20000,0,,,0,,,,1,,,,,,60,wg-a,,,,AAXX 07004 07190 02670 80000 10080 20070 39881 40065 56012 60026 76062 8557/ 90000 333 60017=
07190,1998-04-07 03:00:00,8,1004.8,-1.7,100,8,15000,7.408,,,340,,,,0,,,,,,,wg-a,,,,AAXX 07034 07190 12665 83404 10080 20080 39864 40048 56017 60007 8557/ 90300=
07190,1998-04-07 06:00:00,8,1002.6,-2.2,100,8,2800,0,,,0,7.7,12.8,,,,,,,,10,wg-a,,,,AAXX 07064 07190 02228 80000 10080 20080 39842 40026 56022 61000 71062 875// 90600 333 10128 20077 6006=
07190,1998-04-07 12:00:00,10,999.5,-1.3,93,9,7000,22.224,,,190,,,,1,,,,,,61,wg-a,,,,AAXX 07124 07190 02457 81912 10100 20090 39813 49995 55013 60046 76162 8687/ 91200 333 60017=
07190,1998-04-07 15:00:00,11,1000.6,1.2,82,8,15000,25.928,,,200,,,,1,,,,,,25,wg-a,,,,AAXX 07154 07190 12465 72014 10110 20080 39825 40006 53012 60017 72586 8687/ 91500=
07190,1998-04-07 18:00:00,9,1001.6,0.8,71,4,15000,29.632,,,210,7.9,12.1,,,,,,,,3,wg-a,,,,AAXX 07184 07190 12665 /2116 10090 20040 39833 40016 53008 60006 70386 85302 91800 333 10121 20079=
07190,1998-04-07 21:00:00,9,1004.7,3,66,3,15000,22.224,,,230,,,,,,,,,,3,wg-a,,,,AAXX 07214 07190 02665 72312 10090 20030 39863 40047 51030 61000 70386 86202 92100 333 ////=
07190,1998-04-08 00:00:00,8,1005.9,1.1,76,4,15000,18.52,,,210,,,,,,,,,,3,wg-a,,,,AAXX 08004 07190 02565 /2110 10080 20040 39874 40059 51011 61000 70386 85202 90000 333 ////=
07190,1998-04-08 03:00:00,7,1005.7,-0.2,87,5,15000,18.52,,,180,,,,,,,,,,,wg-a,,,,AAXX 08034 07190 12665 71810 10070 20050 39872 40057 58002 60006 878// 90300=
07190,1998-04-08 06:00:00,7,1006.1,0.4,87,5,15000,14.816,,,190,6.9,9.7,,,,,5,,,15,wg-a,,,,AAXX 08064 07190 02565 71908 10070 20050 39876 40061 53004 60006 71522 8583/ 90600 333 10097 20069 60054=
07190,1998-04-08 09:00:00,7,1007.1,1,93,6,10000,14.816,,,210,,,,3,,,,,,61,wg-a,,,,AAXX 08094 07190 12560 72108 10070 20060 39886 40071 51010 60037 76162 878// 90900=
07190,1998-04-08 12:00:00,11,1006.2,-0.7,76,7,40000,18.52,,,200,,,,1,,,,,,1,wg-a,,,,AAXX 08124 07190 02582 62010 10110 20070 39879 40062 58007 60036 70162 84930 91200 333 60017=
07190,1998-04-08 15:00:00,12,1004.5,-1.5,62,5,500,18.52,,,190,,,,,,,,,,15,wg-a,,,,AAXX 08154 07190 12600 51910 10120 20050 39864 40045 57015 60006 71522 83933 91500=
07190,1998-04-08 18:00:00,9,1003.8,-0.9,81,6,25000,3.704,,,200,6.8,13.2,,,,,,,,25,wg-a,,,,AAXX 08184 07190 02575 72002 10090 20060 39855 40038 58009 61000 72586 85903 91800 333 10132 20068 6000=
07190,1998-04-08 21:00:00,6,1003.7,-0.3,93,5,25000,0,,,0,,,,,,,,,,,wg-a,,,,AAXX 08214 07190 12775 40000 10060 20050 39852 40037 58003 60006 81501 92100=
07190,1998-04-09 00:00:00,6,1003.4,-0.3,93,5,7000,11.112,,,240,,,,0,,,,,,80,wg-a,,,,AAXX 09004 07190 02657 82406 10060 20050 39849 40034 55003 60016 78086 878// 90000 333 60007=
07190,1998-04-09 03:00:00,6,1001.7,-1.7,100,6,6000,7.408,,,170,,,,5,,,,,,3,wg-a,,,,AAXX 09034 07190 12456 81704 10060 20060 39832 40017 56017 60057 70386 878// 90300=
07190,1998-04-09 06:00:00,6,1001.3,-0.4,93,5,10000,3.704,,,200,4.6,8.6,,,,,9,,,3,wg-a,,,,AAXX 09064 07190 02160 72002 10060 20050 39828 40013 55004 60006 70386 878// 90600 333 10086 20046 60094=
07190,1998-04-09 09:00:00,11,1000.2,-0.7,76,7,15000,14.816,,,180,,,,,,,,,,,wg-a,,,,AAXX 09094 07190 12465 61808 10110 20070 39821 40002 58007 60006 86800 90900=
07190,1998-04-09 12:00:00,14,998.6,-1.4,51,4,25000,18.52,,,170,,,,,,,,,,,wg-a,,,,AAXX 09124 07190 12675 /1710 10140 20040 39807 49986 58014 60006 85301 91200=
07190,1998-04-09 15:00:00,15,996.5,-2,44,3,25000,14.816,,,190,,,,,,,,,,1,wg-a,,,,AAXX 09154 07190 02675 61908 10150 20030 39787 49965 57020 61000 70186 84932 91500 333 ////=
07190,1998-04-09 18:00:00,10,998.3,1.5,71,5,20000,22.224,,,240,6,15.4,,1,,,,,,15,wg-a,,,,AAXX 09184 07190 02570 72412 10100 20050 39802 49983 53015 60006 71598 86933 91800 333 10154 20060 60017=
07190,1998-04-09 21:00:00,7,999.1,0.5,87,5,500,3.704,,,90,,,,,,,,,,,wg-a,,,,AAXX 09214 07190 12700 70902 10070 20050 39807 49991 51005 60006 85503 92100=
07190,1998-04-10 00:00:00,6,998.1,-1,93,5,500,0,,,0,,,,,,,,,,,wg-a,,,,AAXX 10004 07190 12700 70000 10060 20050 39797 49981 58010 60006 8557/ 90000=
07190,1998-04-10 03:00:00,6,997,-1.1,100,6,9000,3.704,,,80,,,,3,,,,,,61,wg-a,,,,AAXX 10034 07190 12559 70802 10060 20060 39786 49970 56011 60037 76162 878// 90300=
07190,1998-04-10 06:00:00,6,996.5,-0.5,100,6,6000,7.408,,,250,5.6,10.2,,,,,,,,10,wg-a,,,,AAXX 10064 07190 02256 82504 10060 20060 39781 49965 55005 61000 71062 878// 90600 333 10102 20056 6005=
07190,1998-04-10 09:00:00,8,994.7,-1.6,93,7,12000,7.408,,,10,,,,0,,,,,,1,wg-a,,,,AAXX 10094 07190 12362 80104 10080 20070 39765 49947 56016 60007 70162 8687/ 90900=
07190,1998-04-10 12:00:00,10,993.8,-0.8,76,6,12000,7.408,,,280,,,,,,,,,,1,wg-a,,,,AAXX 10124 07190 12462 82804 10100 20060 39757 49938 57008 60016 70162 878// 91200=
07190,1998-04-10 15:00:00,7,995.1,1.1,93,6,8000,7.408,,,170,,,,3,,,,,,61,wg-a,,,,AAXX 10154 07190 12558 81704 10070 20060 39768 49951 51011 60037 76162 878// 91500=
07190,1998-04-10 18:00:00,7,995,-0.1,93,6,20000,7.408,,,180,6.2,10.4,,1,,,,,,3,wg-a,,,,AAXX 10184 07190 02470 81804 10070 20060 39767 49950 55001 60006 70362 8587/ 91800 333 10104 20062 60017=
07190,1998-04-10 21:00:00,6,996.4,1.3,93,5,15000,14.816,,,190,,,,,,,,,,,wg-a,,,,AAXX 10214 07190 12565 81908 10060 20050 39780 49964 51013 60006 8387/ 92100=
07190,1998-04-11 00:00:00,5,997.3,0.8,100,5,15000,7.408,,,130,,,,,,,,,,,wg-a,,,,AAXX 11004 07190 12465 41304 10050 20050 39788 49973 51008 60006 84800 90000=
07190,1998-04-11 03:00:00,4,998.3,1,93,3,20000,14.816,,,160,,,,,,,,,,,wg-a,,,,AAXX 11034 07190 12670 21608 10040 20030 39798 49983 53010 60006 82101 90300=
07190,1998-04-11 06:00:00,4,999.7,1.3,93,3,500,3.704,,,190,3.2,7.3,,,,,4,,,,wg-a,,,,AAXX 11064 07190 02600 21902 10040 20030 39811 49997 51013 60006 81131 90600 333 10073 20032 60044=
07190,1998-04-11 09:00:00,11,1000,0.7,58,3,40000,22.224,,,210,,,,,,,,,,,wg-a,,,,AAXX 11094 07190 12682 /2112 10110 20030 39818 40000 51007 60006 84201 90900=
07190,1998-04-11 12:00:00,13,999.5,-0.3,41,0,40000,11.112,,,220,,,,,,,,,,,wg-a,,,,AAXX 11124 07190 12682 72206 10130 20000 39815 49995 58003 60006 86201 91200=
07190,1998-04-11 18:00:00,10,998.1,-0.5,66,4,25000,11.112,,,340,4.1,13.1,,,,,,,,,wg-a,,,,AAXX 11184 07190 12775 83406 10100 20040 39800 49981 56005 60006 84802 91800 333 10131 20041=
07190,1998-04-12 00:00:00,7,999.2,0.7,81,4,20000,11.112,,,290,,,,1,,,,,,61,wg-a,,,,AAXX 12004 07190 02470 82906 10070 20040 39809 49992 51007 60016 76162 878// 90000 333 60017=
07190,1998-04-12 03:00:00,6,1000.1,0.7,87,4,20000,14.816,,,180,,,,1,,,,,,21,wg-a,,,,AAXX 12034 07190 12470 81808 10060 20040 39816 40001 53007 60017 72162 8687/ 90300=
07190,1998-04-12 06:00:00,4,1001.2,1,100,4,12000,22.224,,,210,3.9,10.1,,,,,,,,60,wg-a,,,,AAXX 12064 07190 02462 82112 10040 20040 39826 40012 52010 61000 76062 8587/ 90600 333 10101 20039 6002=
07190,1998-04-12 09:00:00,6,1002.9,1.8,93,5,15000,14.816,,,180,,,,3,,,,,,21,wg-a,,,,AAXX 12094 07190 12365 81808 10060 20050 39844 40029 51018 60037 72162 86802 90900=
07190,1998-04-12 12:00:00,9,1002.8,0.1,66,3,20000,11.112,,,210,,,,0,,,,,,25,wg-a,,,,AAXX 12124 07190 02570 72106 10090 20030 39845 40028 50001 60036 72586 86801 91200 333 60007=
07190,1998-04-12 15:00:00,9,1002.8,0,71,4,500,3.704,,,350,,,,0,,,,,,16,wg-a,,,,AAXX 12154 07190 12600 73502 10090 20040 39845 40028 50000 60007 71686 86931 91500=
07190,1998-04-12 18:00:00,7,1004.3,1.3,81,4,25000,7.408,,,320,4,10.2,,,,,,,,1,wg-a,,,,AAXX 12184 07190 02675 63204 10070 20040 39858 40043 53013 60006 70186 85231 91800 333 10102 20040 61000=
07190,1998-04-12 21:00:00,5,1005.7,1.3,93,4,10000,7.408,,,200,,,,0,,,,,,3,wg-a,,,,AAXX 12214 07190 12560 72004 10050 20040 39871 40057 51013 60007 70362 8623/ 92100=
07190,1998-04-13 00:00:00,4,1005.8,-0,100,4,10000,7.408,,,170,,,,,,,,,,3,wg-a,,,,AAXX 13004 07190 12560 71704 10040 20040 39871 40058 55000 60006 70362 872// 90000=
07190,1998-04-13 03:00:00,4,1005.2,-0.6,93,3,15000,0,,,0,,,,0,,,,,,,wg-a,,,,AAXX 13034 07190 12465 80000 10040 20030 39865 40052 57006 60007 878// 90300=
07190,1998-04-13 06:00:00,1,1006.3,0.9,93,0,1900,18.52,,,350,1.3,6.6,,,,,,,,51,wg-a,,,,AAXX 13064 07190 02219 83510 10010 20000 39874 40063 53009 61000 75176 877// 90600 333 10066 20013 6005=
07190,1998-04-13 09:00:00,2,1008.2,1.9,93,1,6000,11.112,,,320,,,,5,,,,,,22,wg-a,,,,AAXX 13094 07190 12256 83206 10020 20010 39893 40082 53019 60057 72276 8652/ 90900=
07190,1998-04-13 12:00:00,6,1008.1,0.2,70,1,25000,14.816,,,300,,,,0,,,,,,1,wg-a,,,,AAXX 13124 07190 02575 /3008 10060 20010 39895 40081 50002 60086 70176 82208 91200 333 60007=
07190,1998-04-13 15:00:00,8,1006.9,-1.1,49,-2,500,11.112,,,280,,,,,,,,,,,wg-a,,,,AAXX 13154 07190 12600 /2806 10080 21020 39884 40069 58011 60006 83102 91500=
07190,1998-04-13 18:00:00,7,1006.5,-0.4,49,-3,40000,7.408,,,250,0.3,8.7,,,,,,,,,wg-a,,,,AAXX 13184 07190 12782 /2504 10070 21030 39880 40065 56004 60006 83102 91800 333 10087 20003=
07190,1998-04-13 21:00:00,2,1008.3,1.4,87,0,20000,11.112,,,230,,,,,,,,,,,wg-a,,,,AAXX 13214 07190 12770 42306 10020 20000 39894 40083 51014 60006 81502 92100=
07190,1998-04-14 00:00:00,0,1009.2,0.8,93,-1,20000,3.704,,,210,,,,,,,,,,,wg-a,,,,AAXX 14004 07190 12770 32102 10000 21010 39902 40092 51008 60006 815/1 90000=
07190,1998-04-14 03:00:00,0,1009.3,0.1,93,-1,20000,11.112,,,190,,,,,,,,,,,wg-a,,,,AAXX 14034 07190 12770 /1906 10000 21010 39903 40093 52001 60006 81531 90300=
07190,1998-04-14 06:00:00,1,1009.9,0.6,93,0,8000,7.408,,,170,-0.6,7.2,,,,,8,,,,wg-a,,,,AAXX 14064 07190 02758 61704 10010 20000 39909 40099 53006 60006 81531 90600 333 10072 21006 60084=
07190,1998-04-14 09:00:00,6,1010.1,0.6,61,-1,25000,11.112,,,190,,,,,,,,,,,wg-a,,,,AAXX 14094 07190 12575 51906 10060 21010 39915 40101 50006 60006 83131 90900=
07190,1998-04-14 12:00:00,8,1009.1,-0.9,49,-2,500,14.816,,,190,,,,0,,,,,,14,wg-a,,,,AAXX 14124 07190 02600 71908 10080 21020 39906 40091 58009 60006 71422 84902 91200 333 60007=
07190,1998-04-14 15:00:00,9,1007.7,-1.3,46,-2,40000,14.816,,,180,,,,,,,,,,,wg-a,,,,AAXX 14154 07190 12682 /1808 10090 21020 39893 40077 58013 60006 83201 91500=
07190,1998-04-14 18:00:00,8,1007.1,-0.7,57,0,40000,3.704,,,170,0.5,9.5,,,,,,,,,wg-a,,,,AAXX 14184 07190 12682 /1702 10080 20000 39886 40071 56007 60006 82404 91800 333 10095 20005=
07190,1998-04-14 21:00:00,3,1007.1,-0.3,75,-1,500,3.704,,,160,,,,,,,,,,,wg-a,,,,AAXX 14214 07190 12/00 41602 10030 21010 39883 40071 57003 60006 80002 92100=
07190,1998-04-15 00:00:00,1,1006.3,-0.9,93,0,20000,0,,,0,,,,,,,,,,,wg-a,,,,AAXX 15004 07190 12/70 70000 10010 20000 39874 40063 57009 60006 81044 90000=
07190,1998-04-15 03:00:00,2,1004.7,-1.5,87,0,15000,7.408,,,220,,,,,,,,,,,wg-a,,,,AAXX 15034 07190 12/65 72204 10020 20000 39859 40047 58015 60006 85052 90300=
07190,1998-04-15 06:00:00,4,1003.5,-1.1,75,0,15000,11.112,,,150,0.7,,,,,,,,,,wg-a,,,,AAXX 15064 07190 02665 81506 10040 20000 39848 40035 56011 60006 8552/ 90600 333 20007 60004=
07190,1998-04-15 09:00:00,7,1001.2,-2,76,3,11000,14.816,,,180,,,,,,,,,,,wg-a,,,,AAXX 15094 07190 32/61 /1808 10070 20030 39828 40012 56020 90900=
07190,1998-04-15 12:00:00,9,999.3,-1.7,66,3,25000,14.816,,,170,,,,,,,,,,1,wg-a,,,,AAXX 15124 07190 12775 81708 10090 20030 39811 49993 58017 60006 70162 8257/ 91200=
07190,1998-04-15 15:00:00,11,996.7,-2.5,62,4,25000,11.112,,,180,,,,,,,,,,,wg-a,,,,AAXX 15154 07190 12775 81806 10110 20040 39786 49967 56025 60006 8127/ 91500=
07190,1998-04-15 18:00:00,10,995.3,-1.4,71,5,500,14.816,,,160,3.5,11,,,,,,,,,wg-a,,,,AAXX 15184 07190 12700 81608 10100 20050 39772 49953 58014 60006 8387/ 91800 333 10110 20035=
07190,1998-04-15 21:00:00,8,996.4,0.9,87,6,15000,18.52,,,180,,,,1,,,,,,61,wg-a,,,,AAXX 15214 07190 12665 81810 10080 20060 39781 49964 51009 60017 76162 875// 92100=
07190,1998-04-16 00:00:00,5,1000.1,3.5,75,1,20000,18.52,,,220,,,,0,,,,,,1,wg-a,,,,AAXX 16004 07190 02470 72210 10050 20010 39816 40001 52035 60016 70162 8487/ 90000 333 60007=
07190,1998-04-16 06:00:00,5,1001.7,0.6,75,1,500,25.928,,,210,4.5,10.4,,,,,1,,,,wg-a,,,,AAXX 16064 07190 02600 62114 10050 20010 39832 40017 51006 60006 83830 90600 333 10104 20045 60014=
07190,1998-04-16 09:00:00,8,1002,0.4,61,1,500,25.928,,,200,,,,,,,,,,,wg-a,,,,AAXX 16094 07190 12600 72014 10080 20010 39836 40020 51004 60006 85831 90900=
07190,1998-04-16 12:00:00,10,999.6,-2.2,43,-2,500,22.224,,,200,,,,,,,,,,,wg-a,,,,AAXX 16124 07190 12600 62012 10100 21020 39814 49996 58022 60006 85831 91200=
07190,1998-04-16 15:00:00,11,996.6,-2.9,37,-3,40000,11.112,,,160,,,,,,,,,,,wg-a,,,,AAXX 16154 07190 12782 /1606 10110 21030 39785 49966 56029 60006 85401 91500=
07190,1998-04-16 18:00:00,9,995.2,-1.5,57,1,40000,3.704,,,150,5.2,11.4,,,,,,,,,wg-a,,,,AAXX 16184 07190 12682 71502 10090 20010 39770 49952 56015 60006 81136 91800 333 10114 20052=
07190,1998-04-16 21:00:00,6,994.2,-1.2,70,1,500,7.408,,,110,,,,,,,,,,,wg-a,,,,AAXX 16214 07190 12/00 11104 10060 20010 39758 49942 58012 60006 81031 92100=
07190,1998-04-17 00:00:00,4,992.4,-1.8,87,2,500,3.704,,,220,,,,,,,,,,,wg-a,,,,AAXX 17004 07190 12/00 52202 10040 20020 39740 49924 56018 60006 82031 90000=
07190,1998-04-17 03:00:00,5,990.2,-2.2,87,3,500,3.704,,,140,,,,,,,,,,,wg-a,,,,AAXX 17034 07190 12600 41402 10050 20030 39718 49902 58022 60006 84501 90300=
07190,1998-04-17 06:00:00,4,989.2,-1,93,3,20000,3.704,,,320,3.5,9.1,,,,,,,,21,wg-a,,,,AAXX 17064 07190 02670 73202 10040 20030 39708 49892 56010 61000 72161 8587/ 90600 333 10091 20035 6100=
07190,1998-04-17 09:00:00,9,989.5,0.6,76,5,15000,18.52,,,180,,,,0,,,,,,21,wg-a,,,,AAXX 17094 07190 12565 71810 10090 20050 39714 49895 53006 60007 72162 85832 90900=
07190,1998-04-17 12:00:00,12,989.9,0.6,67,6,25000,25.928,,,210,,,,,,,,,,25,wg-a,,,,AAXX 17124 07190 02675 72114 10120 20060 39720 49899 53006 60006 72586 86202 91200 333 61000=
07190,1998-04-17 15:00:00,13,991.8,1.9,47,2,40000,29.632,,,210,,,,1,,,,,,1,wg-a,,,,AAXX 17154 07190 12682 /2116 10130 20020 39739 49918 51019 60017 70186 84262 91500=
07190,1998-04-17 18:00:00,9,993.6,1.5,66,3,50000,7.408,,,290,4.3,13.2,,,,,,,,15,wg-a,,,,AAXX 17184 07190 12684 /2904 10090 20030 39754 49936 51015 60006 71586 84432 91800 333 10132 20043=
07190,1998-04-18 00:00:00,3,995.7,0.2,87,1,500,7.408,,,170,,,,,,,,,,1,wg-a,,,,AAXX 18004 07190 02700 21704 10030 20010 39771 49957 50002 61000 70186 81501 90000 333 ////=
07190,1998-04-18 09:00:00,4,999.5,2.2,93,3,8000,11.112,,,170,,,,2,,,,,,61,wg-a,,,,AAXX 18094 07190 12258 81706 10040 20030 39809 49995 53022 60027 76176 875// 90900=
07190,1998-04-18 12:00:00,6,1001.6,2.2,81,3,9000,3.704,,,170,,,,0,,,,,,60,wg-a,,,,AAXX 18124 07190 02459 81702 10060 20030 39831 40016 51022 60036 76076 8687/ 91200 333 60007=
07190,1998-04-18 15:00:00,8,1003,1.5,76,4,17000,14.816,,,230,,,,0,,,,,,1,wg-a,,,,AAXX 18154 07190 12567 72308 10080 20040 39846 40030 52015 60007 70162 8687/ 91500=
07190,1998-04-18 18:00:00,6,1005.2,2.1,87,4,15000,7.408,,,210,3.3,8.1,,,,,,,,61,wg-a,,,,AAXX 18184 07190 02465 82104 10060 20040 39867 40052 51021 61000 76186 888// 91800 333 10081 20033 6002=
07190,1998-04-18 21:00:00,5,1007.4,2.1,93,4,15000,14.816,,,200,,,,1,,,,,,61,wg-a,,,,AAXX 18214 07190 12565 82008 10050 20040 39888 40074 51021 60017 76162 885// 92100=
07190,1998-04-19 00:00:00,5,1008.7,1.2,87,3,15000,18.52,,,200,,,,0,,,,,,21,wg-a,,,,AAXX 19004 07190 02565 72010 10050 20030 39900 40087 51012 60016 72162 875// 90000 333 60007=
07190,1998-04-19 03:00:00,4,1009,0.2,93,3,15000,11.112,,,180,,,,,,,,,,,wg-a,,,,AAXX 19034 07190 12665 /1806 10040 20030 39902 40090 53002 60006 83532 90300=
07190,1998-04-19 06:00:00,5,1010.1,1.2,93,4,15000,7.408,,,190,3.8,5.9,,,,,6,,,,wg-a,,,,AAXX 19064 07190 02665 71904 10050 20040 39914 40101 53012 60006 878// 90600 333 10059 20038 60064=
07190,1998-04-19 09:00:00,8,1011.4,1.5,76,4,20000,7.408,,,180,,,,,,,,,,,wg-a,,,,AAXX 19094 07190 12570 71804 10080 20040 39929 40114 51015 60006 8387/ 90900=
07190,1998-04-19 12:00:00,10,1011.8,0.5,62,3,25000,11.112,,,200,,,,,,,,,,,wg-a,,,,AAXX 19124 07190 12675 72006 10100 20030 39934 40118 51005 60006 8557/ 91200=
07190,1998-04-19 15:00:00,11,1012.6,0.8,54,2,500,3.704,,,60,,,,,,,,,,,wg-a,,,,AAXX 19154 07190 12600 80602 10110 20020 39942 40126 52008 60006 8687/ 91500=
07190,1998-04-19 18:00:00,9,1013.4,0.7,76,5,500,3.704,,,120,4.6,10.9,,,,,,,,,wg-a,,,,AAXX 19184 07190 12800 41202 10090 20050 39949 40134 52007 60006 82071 91800 333 10109 20046=
07190,1998-04-19 21:00:00,5,1015.3,1.6,81,2,20000,3.704,,,170,,,,,,,,,,,wg-a,,,,AAXX 19214 07190 12/70 01702 10050 20020 39965 40153 51016 60006 80000 92100=
07190,1998-04-20 00:00:00,2,1016.1,0.6,93,1,20000,7.408,,,180,,,,,,,,,,,wg-a,,,,AAXX 20004 07190 12/70 01804 10020 20010 39971 40161 51006 60006 80000 90000=
07190,1998-04-20 03:00:00,0,1016,-0.2,100,0,20000,3.704,,,190,,,,,,,,,,,wg-a,,,,AAXX 20034 07190 12/70 41902 10000 20000 39969 40160 56002 60006 83031 90300=
07190,1998-04-20 06:00:00,3,1016,0.2,100,3,12000,11.112,,,170,-0.2,8.9,,,,,,,,,wg-a,,,,AAXX 20064 07190 02762 51706 10030 20030 39971 40160 53002 60006 82571 90600 333 10089 21002 60004=
07190,1998-04-20 09:00:00,10,1015.5,-0.1,66,4,500,22.224,,,180,,,,,,,,,,,wg-a,,,,AAXX 20094 07190 12600 /1812 10100 20040 39970 40155 58001 60006 82531 90900=
07190,1998-04-20 12:00:00,16,1014.1,-1,45,4,40000,18.52,,,170,,,,,,,,,,,wg-a,,,,AAXX 20124 07190 12782 71710 10160 20040 39960 40141 58010 60006 82531 91200=
07190,1998-04-20 15:00:00,17,1013.1,-0.9,45,5,40000,18.52,,,180,,,,,,,,,,,wg-a,,,,AAXX 20154 07190 12782 71810 10170 20050 39951 40131 56009 60006 85531 91500=
07190,1998-04-20 18:00:00,13,1015.6,2.2,77,9,25000,7.408,,,240,3.5,18.4,,,,,,,,21,wg-a,,,,AAXX 20184 07190 02675 72404 10130 20090 39973 40156 53022 61000 72162 8387/ 91800 333 10184 20035 6000=
07190,1998-04-20 21:00:00,11,1016.6,0.9,82,8,20000,14.816,,,170,,,,,,,,,,,wg-a,,,,AAXX 20214 07190 12670 71708 10110 20080 39982 40166 51009 60006 8387/ 92100=
07190,1998-04-21 00:00:00,10,1017.2,0.5,87,8,20000,3.704,,,180,,,,,,,,,,,wg-a,,,,AAXX 21004 07190 12670 /1802 10100 20080 39987 40172 51005 60006 83570 90000=
07190,1998-04-21 03:00:00,9,1017.8,0.6,93,8,20000,7.408,,,210,,,,,,,,,,,wg-a,,,,AAXX 21034 07190 12770 /2104 10090 20080 39993 40178 53006 60006 83570 90300=
07190,1998-04-21 06:00:00,9,1019.3,1.4,100,9,20000,7.408,,,200,8.7,13.1,,,,,,,,,wg-a,,,,AAXX 21064 07190 02670 82004 10090 20090 30007 40193 53014 60006 8487/ 90600 333 10131 20087 60004=
07190,1998-04-21 09:00:00,13,1019.7,0.7,77,9,20000,7.408,,,190,,,,,,,,,,,wg-a,,,,AAXX 21094 07190 12570 /1904 10130 20090 30014 40197 51007 60006 82832 90900=
07190,1998-04-21 12:00:00,15,1018.9,-0.7,63,8,500,11.112,,,150,,,,,,,,,,,wg-a,,,,AAXX 21124 07190 12500 /1506 10150 20080 30007 40189 58007 60006 85402 91200=
07190,1998-04-21 15:00:00,17,1017.7,-1.1,52,7,35000,3.704,,,130,,,,,,,,,,,wg-a,,,,AAXX 21154 07190 12681 61302 10170 20070 39996 40177 56011 60006 85842 91500=
07190,1998-04-21 18:00:00,16,1017.6,-0.1,55,7,35000,7.408,,,80,9.3,17.2,,,,,,,,,wg-a,,,,AAXX 21184 07190 12681 50804 10160 20070 39995 40176 55001 60006 83842 91800 333 10172 20093=
07190,1998-04-21 21:00:00,12,1018.2,0.3,71,7,25000,7.408,,,350,,,,,,,,,,,wg-a,,,,AAXX 21214 07190 12/75 63504 10120 20070 39998 40182 51003 60006 83042 92100=
07190,1998-04-22 00:00:00,8,1018.1,-0.3,87,6,25000,7.408,,,330,,,,,,,,,,,wg-a,,,,AAXX 22004 07190 12/75 53304 10080 20060 39995 40181 57003 60006 81032 90000=
07190,1998-04-22 03:00:00,6,1018,-0.3,93,5,20000,7.408,,,340,,,,,,,,,,,wg-a,,,,AAXX 22034 07190 12/70 33404 10060 20050 39992 40180 57003 60006 80001 90300=
07190,1998-04-22 06:00:00,7,1018.1,0.2,93,6,8000,3.704,,,330,5,15.8,,,,,,,,,wg-a,,,,AAXX 22064 07190 02/58 53302 10070 20060 39994 40181 53002 60006 81031 90600 333 10158 20050 60004=
07190,1998-04-22 09:00:00,14,1016.8,-0.8,67,8,12000,7.408,,,30,,,,,,,,,,,wg-a,,,,AAXX 22094 07190 12562 20304 10140 20080 39986 40168 58008 60006 81101 90900=
07190,1998-04-22 12:00:00,20,1014.6,-1.8,49,9,15000,7.408,,,60,,,,,,,,,,,wg-a,,,,AAXX 22124 07190 12665 30604 10200 20090 39968 40146 58018 60006 81101 91200=
07190,1998-04-22 15:00:00,22,1012.5,-2,35,6,500,14.816,,,40,,,,,,,,,,,wg-a,,,,AAXX 22154 07190 12700 /0408 10220 20060 39948 40125 56020 60006 81100 91500=
07190,1998-04-22 18:00:00,19,1011.9,-0.7,49,8,500,18.52,,,30,6.5,21.9,,,,,,,,,wg-a,,,,AAXX 22184 07190 12/00 00310 10190 20080 39941 40119 55007 60006 80000 91800 333 10219 20065=
07190,1998-04-22 21:00:00,14,1013.4,1.1,63,7,500,7.408,,,20,,,,,,,,,,,wg-a,,,,AAXX 22214 07190 12/00 00204 10140 20070 39952 40134 51011 60006 80000 92100=
07190,1998-04-23 00:00:00,10,1014.1,0.5,76,6,500,11.112,,,350,,,,,,,,,,,wg-a,,,,AAXX 23004 07190 12/00 03506 10100 20060 39957 40141 51005 60006 80000 90000=
07190,1998-04-23 03:00:00,7,1013.9,-0.4,87,5,20000,0,,,0,,,,,,,,,,,wg-a,,,,AAXX 23034 07190 12/70 00000 10070 20050 39953 40139 56004 60006 80000 90300=
07190,1998-04-23 06:00:00,8,1014.8,0.9,87,6,20000,3.704,,,340,6.4,19.1,,,,,,,,,wg-a,,,,AAXX 23064 07190 12/70 43402 10080 20060 39962 40148 53009 60006 80001 90600 333 10191 20064=
07190,1998-04-23 09:00:00,15,1014.5,0.2,63,8,20000,3.704,,,140,,,,,,,,,,,wg-a,,,,AAXX 23094 07190 12/70 51402 10150 20080 39964 40145 52002 60006 80001 90900=
07190,1998-04-23 12:00:00,21,1012.9,-1.2,43,8,20000,3.704,,,80,,,,,,,,,,,wg-a,,,,AAXX 23124 07190 12770 40802 10210 20080 39952 40129 58012 60006 81101 91200=
07190,1998-04-23 15:00:00,22,1012,-0.8,46,10,20000,7.408,,,310,,,,,,,,,,,wg-a,,,,AAXX 23154 07190 12770 73104 10220 20100 39944 40120 58008 60006 86201 91500=
07190,1998-04-23 18:00:00,17,1013.1,0.8,82,14,25000,3.704,,,220,8.5,22.9,,2,,,,,,1,wg-a,,,,AAXX 23184 07190 02775 72202 10170 20140 39952 40131 51008 60006 70186 86801 91800 333 10229 20085 60027=
07190,1998-04-23 21:00:00,15,1014.7,1.4,82,12,15000,7.408,,,220,,,,,,,,,,,wg-a,,,,AAXX 23214 07190 12665 82204 10150 20120 39966 40147 51014 60006 86501 92100=
07190,1998-04-24 00:00:00,14,1016.2,1.4,67,8,15000,7.408,,,180,,,,,,,,,,,wg-a,,,,AAXX 24004 07190 12765 /1804 10140 20080 39980 40162 53014 60006 86500 90000=
07190,1998-04-24 03:00:00,13,1017.4,1.1,72,8,15000,11.112,,,210,,,,,,,,,,,wg-a,,,,AAXX 24034 07190 12665 72106 10130 20080 39991 40174 51011 60006 8253/ 90300=
07190,1998-04-24 06:00:00,13,1018.8,1.4,77,9,20000,14.816,,,220,12.1,17,,,,,2,,,,wg-a,,,,AAXX 24064 07190 02670 72208 10130 20090 30005 40188 53014 60006 878// 90600 333 10170 20121 60024=
07190,1998-04-24 09:00:00,15,1020,1.2,59,7,20000,18.52,,,230,,,,,,,,,,,wg-a,,,,AAXX 24094 07190 12670 72310 10150 20070 30017 40200 53012 60006 878// 90900=
07190,1998-04-24 12:00:00,16,1020.2,0.3,51,6,500,14.816,,,260,,,,,,,,,,,wg-a,,,,AAXX 24124 07190 12600 72608 10160 20060 30020 40202 52003 60006 874// 91200=
07190,1998-04-24 18:00:00,17,1020.4,0.5,45,5,40000,14.816,,,260,12.8,19.1,,,,,,,,,wg-a,,,,AAXX 24184 07190 12782 52608 10170 20050 30023 40204 53005 60006 82231 91800 333 10191 20128=
07190,1998-04-25 00:00:00,11,1021.4,-0.2,71,6,500,7.408,,,140,,,,,,,,,,,wg-a,,,,AAXX 25004 07190 12700 51404 10110 20060 30029 40214 58002 60006 83530 90000=
07190,1998-04-25 06:00:00,11,1020.7,-0.6,76,7,20000,22.224,,,170,9.4,16.8,,,,,,,,,wg-a,,,,AAXX 25064 07190 02770 71712 10110 20070 30022 40207 56006 60006 86531 90600 333 10168 20094 60004=
07190,1998-04-25 12:00:00,20,1017.3,-2.2,49,9,20000,14.816,,,220,,,,,,,,,,,wg-a,,,,AAXX 25124 07190 12670 72208 10200 20090 39994 40173 56022 60006 85831 91200=
07190,1998-04-25 18:00:00,16,1016.2,0.4,82,13,20000,7.408,,,310,10.9,20.7,,,,,,,,60,wg-a,,,,AAXX 25184 07190 02670 73104 10160 20130 39981 40162 53004 61000 76062 8487/ 91800 333 10207 20109 6000=
07190,1998-04-26 00:00:00,13,1013.2,-2,88,11,15000,0,,,0,,,,,,,,,,3,wg-a,,,,AAXX 26004 07190 12765 /0000 10130 20110 39950 40132 58020 60016 70361 83570 90000=
07190,1998-04-26 06:00:00,12,1011.1,0.3,100,12,3000,7.408,,,130,11.4,15.8,,,,,,,,10,wg-a,,,,AAXX 26064 07190 02730 81304 10120 20120 39929 40111 50003 61000 71062 8557/ 90600 333 10158 20114 6007=
07190,1998-04-26 12:00:00,16,1007.3,-1.7,94,15,12000,14.816,,,180,,,,0,,,,,,21,wg-a,,,,AAXX 26124 07190 02662 81808 10160 20150 39894 40073 56017 60026 72162 8587/ 91200 333 60007=
07190,1998-04-26 18:00:00,16,1004.6,-1,77,12,20000,11.112,,,20,12.2,19.8,,,,,,,,,wg-a,,,,AAXX 26184 07190 12670 80206 10160 20120 39867 40046 57010 60006 8687/ 91800 333 10198 20122=
07190,1998-04-27 00:00:00,13,1003.3,-1.1,94,12,6000,11.112,,,40,,,,6,,,,,,29,wg-a,,,,AAXX 27004 07190 02256 80406 10130 20120 39853 40033 58011 60086 72998 879// 90000 333 60067=
07190,1998-04-27 06:00:00,12,999.8,-2,100,12,7000,11.112,,,360,11.9,15.7,,,,,13,,,1,wg-a,,,,AAXX 27064 07190 02257 83606 10120 20120 39818 49998 56020 60006 70162 875// 90600 333 10157 20119 60134=
07190,1998-04-27 09:00:00,16,997.9,-1.6,82,13,15000,14.816,,,340,,,,,,,,,,,wg-a,,,,AAXX 27094 07190 12465 /3408 10160 20130 39802 49979 56016 60006 85202 90900=
07190,1998-04-27 12:00:00,18,998.3,0.5,77,14,18000,11.112,,,310,,,,,,,,,,,wg-a,,,,AAXX 27124 07190 12568 73106 10180 20140 39807 49983 53005 60006 878// 91200=
07190,1998-04-27 15:00:00,11,1002.8,3.9,82,8,7000,18.52,,,250,,,,4,,,,,,63,wg-a,,,,AAXX 27154 07190 12457 82510 10110 20080 39846 40028 51039 60047 76398 8682/ 91500=
07190,1998-04-27 18:00:00,10,1004.5,1.7,76,6,20000,11.112,,,260,10.2,17.8,,0,,,,,,3,wg-a,,,,AAXX 27184 07190 02470 82606 10100 20060 39863 40045 51017 60006 70398 878// 91800 333 10178 20102 60007=
07190,1998-04-27 21:00:00,9,1006.2,1.6,87,7,20000,14.816,,,200,,,,,,,,,,21,wg-a,,,,AAXX 27214 07190 02470 82008 10090 20070 39879 40062 51016 61000 72162 878// 92100 333 ////=
07190,1998-04-28 00:00:00,8,1006.6,0.3,93,7,20000,14.816,,,170,,,,,,,,,,3,wg-a,,,,AAXX 28004 07190 02570 71708 10080 20070 39882 40066 53003 61000 70362 875// 90000 333 ////=
07190,1998-04-28 03:00:00,8,1006.7,0.1,93,7,15000,11.112,,,180,,,,,,,,,,,wg-a,,,,AAXX 28034 07190 12565 81806 10080 20070 39883 40067 52001 60006 875// 90300=
07190,1998-04-28 06:00:00,9,1007.5,0.8,87,7,20000,11.112,,,170,8,10.3,,,,,4,,,,wg-a,,,,AAXX 28064 07190 02570 81706 10090 20070 39891 40075 53008 60006 8587/ 90600 333 10103 20080 60044=
07190,1998-04-28 09:00:00,11,1008,0.7,76,7,20000,3.704,,,210,,,,,,,,,,,wg-a,,,,AAXX 28094 07190 12470 82102 10110 20070 39898 40080 52007 60006 878// 90900=
07190,1998-04-28 12:00:00,13,1007.9,0,67,7,15000,3.704,,,20,,,,,,,,,,,wg-a,,,,AAXX 28124 07190 12565 80202 10130 20070 39898 40079 50000 60006 8587/ 91200=
07190,1998-04-28 15:00:00,12,1007.9,-0.1,76,8,15000,11.112,,,130,,,,,,,,,,,wg-a,,,,AAXX 28154 07190 12565 81306 10120 20080 39897 40079 57001 60006 8487/ 91500=
07190,1998-04-28 18:00:00,12,1007.9,0,76,8,20000,7.408,,,220,8.7,13.3,,,,,,,,,wg-a,,,,AAXX 28184 07190 12670 72204 10120 20080 39897 40079 50000 60006 83872 91800 333 10133 20087=
07190,1998-04-28 21:00:00,9,1008.7,0.6,87,7,15000,0,,,0,,,,,,,,,,,wg-a,,,,AAXX 28214 07190 12865 40000 10090 20070 39903 40087 51006 60006 83031 92100=
07190,1998-04-29 00:00:00,6,1008.6,-0.3,100,6,9000,3.704,,,230,,,,,,,,,,11,wg-a,,,,AAXX 29004 07190 12/59 02302 10060 20060 39900 40086 56003 60006 71111 80000 90000=
07190,1998-04-29 03:00:00,4,1007.3,-1.4,100,4,400,3.704,,,210,,,,,,,,,,45,wg-a,,,,AAXX 29034 07190 12/04 92102 10040 20040 39886 40073 56014 60006 74541 89/// 90300=
07190,1998-04-29 06:00:00,6,1006.8,-0.4,100,6,1500,0,,,0,3.6,11.5,,,,,,,,40,wg-a,,,,AAXX 29064 07190 02115 /0000 10060 20060 39882 40068 56004 60006 74041 82601 90600 333 10115 20036 60004=
07190,1998-04-29 09:00:00,13,1005.5,-0.8,72,8,7000,3.704,,,360,,,,,,,,,,,wg-a,,,,AAXX 29094 07190 12457 23602 10130 20080 39874 40055 58008 60006 81231 90900=
07190,1998-04-29 12:00:00,16,1004.1,-1.2,51,6,10000,3.704,,,30,,,,,,,,,,,wg-a,,,,AAXX 29124 07190 12660 40302 10160 20060 39862 40041 58012 60006 83202 91200=
07190,1998-04-29 18:00:00,15,1003.7,-0.1,63,8,15000,11.112,,,30,5.6,16.7,,,,,,,,,wg-a,,,,AAXX 29184 07190 12665 60306 10150 20080 39858 40037 58001 60006 81231 91800 333 10167 20056=
07190,1998-04-29 21:00:00,11,1004.5,0.5,82,8,10000,7.408,,,10,,,,,,,,,,,wg-a,,,,AAXX 29214 07190 12/60 40104 10110 20080 39863 40045 50005 60006 81031 92100=
07190,1998-04-30 00:00:00,7,1004.6,-0.1,93,6,10000,7.408,,,330,,,,,,,,,,,wg-a,,,,AAXX 30004 07190 12/60 23304 10070 20060 39862 40046 58001 60006 80001 90000=
07190,1998-04-30 03:00:00,6,1004.4,-0.3,100,6,3000,7.408,,,330,,,,,,,,,,10,wg-a,,,,AAXX 30034 07190 12/30 23304 10060 20060 39859 40044 57003 60006 71000 80001 90300=
07190,1998-04-30 06:00:00,8,1004.5,0.2,100,8,2300,7.408,,,350,6,14.6,,,,,,,,10,wg-a,,,,AAXX 30064 07190 02223 /3504 10080 20080 39861 40045 53002 60006 71011 85601 90600 333 10146 20060 60004=
07190,1998-04-30 09:00:00,15,1004.3,0.2,72,10,9000,14.816,,,350,,,,,,,,,,,wg-a,,,,AAXX 30094 07190 12/59 43508 10150 20100 39863 40043 50002 60006 80002 90900=
07190,1998-04-30 12:00:00,19,1003.5,-0.5,56,10,16000,14.816,,,40,,,,,,,,,,,wg-a,,,,AAXX 30124 07190 12666 /0408 10190 20100 39858 40035 58005 60006 81102 91200=
07190,1998-04-30 15:00:00,22,1002.7,-0.6,41,8,500,14.816,,,20,,,,,,,,,,,wg-a,,,,AAXX 30154 07190 12700 50208 10220 20080 39852 40027 56006 60006 81102 91500=
07190,1998-04-30 18:00:00,19,1003.5,0.6,49,8,500,14.816,,,360,8.4,22.6,,,,,,,,,wg-a,,,,AAXX 30184 07190 12700 43608 10190 20080 39858 40035 53006 60006 814/1 91800 333 10226 20084=
07190,1998-04-30 21:00:00,15,1005.2,1.4,63,8,20000,11.112,,,350,,,,,,,,,,,wg-a,,,,AAXX 30214 07190 12870 43506 10150 20080 39872 40052 52014 60006 82031 92100=
07190,1998-05-01 00:00:00,14,1005.8,0.6,72,9,20000,7.408,,,350,,,,,,,,,,,wg-a,,,,AAXX 01004 07190 12770 43504 10140 20090 39878 40058 52006 60006 84500 90000=
07190,1998-05-01 03:00:00,12,1006.6,0.7,82,9,20000,3.704,,,340,,,,,,,,,,,wg-a,,,,AAXX 01034 07190 12770 33402 10120 20090 39885 40066 51007 60006 83530 90300=
07190,1998-05-01 06:00:00,12,1008.2,1.5,94,11,9000,7.408,,,200,10.9,19.4,,,,,,,,,wg-a,,,,AAXX 01064 07190 02759 72004 10120 20110 39900 40082 52015 60006 83283 90600 333 10194 20109 60004=
07190,1998-05-01 09:00:00,14,1009.1,1,82,11,12000,0,,,0,,,,,,,,,,,wg-a,,,,AAXX 01094 07190 12662 70000 10140 20110 39910 40091 51010 60006 84283 90900=
07190,1998-05-01 12:00:00,17,1008.2,-0.7,72,12,18000,14.816,,,140,,,,,,,,,,,wg-a,,,,AAXX 01124 07190 12468 71408 10170 20120 39903 40082 58007 60006 84883 91200=
07190,1998-05-01 15:00:00,15,1008.3,-0,82,12,8000,7.408,,,240,,,,,,,,,,80,wg-a,,,,AAXX 01154 07190 02558 82404 10150 20120 39903 40083 55000 61000 78098 879// 91500 333 ////=
07190,1998-05-01 18:00:00,13,1007.7,-0.7,94,12,8000,11.112,,,200,11.8,18.1,,,,,,,,21,wg-a,,,,AAXX 01184 07190 02558 82006 10130 20120 39896 40077 56007 61000 72196 8657/ 91800 333 10181 20118 6000=
07190,1998-05-01 21:00:00,12,1008.6,0.8,94,11,8000,7.408,,,210,,,,,,,,,,21,wg-a,,,,AAXX 01214 07190 02558 82104 10120 20110 39904 40086 50008 61000 72162 8657/ 92100 333 ////=
07190,1998-05-02 00:00:00,12,1008.3,-0.3,100,12,6000,3.704,,,190,,,,0,,,,,,60,wg-a,,,,AAXX 02004 07190 02556 81902 10120 20120 39901 40083 58003 60006 76062 875// 90000 333 60007=
07190,1998-05-02 03:00:00,12,1008,-0.3,94,11,3000,3.704,,,50,,,,2,,,,,,61,wg-a,,,,AAXX 02034 07190 12130 80502 10120 20110 39898 40080 55003 60027 76162 876// 90300=
07190,1998-05-02 06:00:00,12,1008.8,0.8,94,11,7000,3.704,,,220,11.1,13.4,,,,,,,,21,wg-a,,,,AAXX 02064 07190 02257 82202 10120 20110 39906 40088 53008 61000 72162 878// 90600 333 10134 20111 6008=
07190,1998-05-02 09:00:00,12,1010.1,1.3,94,11,6000,7.408,,,290,,,,,,,,,,21,wg-a,,,,AAXX 02094 07190 02456 82904 10120 20110 39919 40101 52013 61000 72162 878// 90900 333 ////=
07190,1998-05-02 12:00:00,14,1010.6,0.6,77,10,10000,14.816,,,270,,,,,,,,,,1,wg-a,,,,AAXX 02124 07190 02460 82708 10140 20100 39925 40106 51006 61000 70162 878// 91200 333 ////=
07190,1998-05-02 15:00:00,13,1010.9,0.2,77,9,12000,18.52,,,250,,,,,,,,,,,wg-a,,,,AAXX 02154 07190 12562 82510 10130 20090 39927 40109 50002 60006 878// 91500=
07190,1998-05-02 18:00:00,12,1011,-0,82,9,18000,14.816,,,270,11.6,14.1,,,,,,,,,wg-a,,,,AAXX 02184 07190 12568 82708 10120 20090 39927 40110 55000 60006 8783/ 91800 333 10141 20116=
07190,1998-05-02 21:00:00,11,1011.8,0.8,87,9,12000,7.408,,,260,,,,2,,,,,,60,wg-a,,,,AAXX 02214 07190 12562 82604 10110 20090 39935 40118 51008 60027 76062 878// 92100=
07190,1998-05-03 03:00:00,10,1010.4,-0.7,100,10,12000,3.704,,,170,,,,,,,,,,,wg-a,,,,AAXX 03034 07190 12162 81702 10100 20100 39921 40104 56007 60006 875// 90300=
07190,1998-05-03 06:00:00,10,1010.3,-0.1,100,10,7000,0,,,0,10.1,11.8,,,,,2,,,,wg-a,,,,AAXX 03064 07190 02157 80000 10100 20100 39920 40103 55001 60006 875// 90600 333 10118 20101 60024=
07190,1998-05-03 09:00:00,13,1010.7,0.5,88,11,6000,7.408,,,10,,,,,,,,,,,wg-a,,,,AAXX 03094 07190 12456 70104 10130 20110 39925 40107 51005 60006 878// 90900=
07190,1998-05-03 12:00:00,15,1010.4,-0.1,77,11,9000,22.224,,,40,,,,,,,,,,,wg-a,,,,AAXX 03124 07190 12459 60412 10150 20110 39924 40104 57001 60006 86800 91200=
07190,1998-05-03 15:00:00,16,1009.1,-1.2,72,11,9000,18.52,,,50,,,,,,,,,,,wg-a,,,,AAXX 03154 07190 12559 30510 10160 20110 39912 40091 58012 60006 83800 91500=
07190,1998-05-03 17:00:00,16,1009.4,,68,10,10000,27.78,,,30,8,,,,,,,,,,wg-a,,,,AAXX 03174 07190 12/60 60315 10160 20100 39914 40094 60006 91700 333 20080=
07190,1998-05-03 18:00:00,14,1009.7,0.4,67,8,10000,22.224,,,30,10.3,16.4,,,,,,,,,wg-a,,,,AAXX 03184 07190 12660 /0312 10140 20080 39916 40097 53004 60006 86100 91800 333 10164 20103=
07190,1998-05-03 21:00:00,12,1011,1.2,82,9,9000,14.816,,,350,,,,,,,,,,,wg-a,,,,AAXX 03214 07190 12559 83508 10120 20090 39928 40110 51012 60006 875// 92100=
07190,1998-05-04 00:00:00,11,1010.5,-0.6,82,8,9000,11.112,,,340,,,,,,,,,,,wg-a,,,,AAXX 04004 07190 12459 83406 10110 20080 39922 40105 57006 60006 875// 90000=
07190,1998-05-04 03:00:00,11,1009.5,-1,87,9,7000,11.112,,,350,,,,,,,,,,,wg-a,,,,AAXX 04034 07190 12457 83506 10110 20090 39912 40095 56010 60006 875// 90300=
07190,1998-05-04 06:00:00,11,1009.8,0.3,82,8,7000,14.816,,,350,10.8,14.2,,,,,,,,,wg-a,,,,AAXX 04064 07190 02557 83508 10110 20080 39915 40098 53003 60006 875// 90600 333 10142 20108 60004=
07190,1998-05-04 09:00:00,9,1011.3,1.4,71,4,15000,22.224,,,30,,,,,,,,,,,wg-a,,,,AAXX 04094 07190 12565 80312 10090 20040 39929 40113 52014 60006 875// 90900=
07190,1998-05-04 12:00:00,13,1010.6,-0.5,47,2,20000,22.224,,,20,,,,,,,,,,,wg-a,,,,AAXX 04124 07190 12670 30212 10130 20020 39924 40106 58005 60006 83400 91200=
07190,1998-05-04 15:00:00,14,1010.9,0.4,47,3,35000,25.928,,,50,,,,,,,,,,,wg-a,,,,AAXX 04154 07190 12681 20514 10140 20030 39928 40109 53004 60006 82100 91500=
07190,1998-05-04 18:00:00,12,1012.1,1,54,3,35000,22.224,,,50,9.1,14.3,,,,,,,,,wg-a,,,,AAXX 04184 07190 12681 40512 10120 20030 39938 40121 53010 60006 83430 91800 333 10143 20091=
07190,1998-05-04 21:00:00,9,1013.4,1.1,66,3,20000,7.408,,,70,,,,,,,,,,,wg-a,,,,AAXX 04214 07190 12770 20704 10090 20030 39949 40134 51011 60006 82530 92100=
07190,1998-05-05 00:00:00,6,1013.7,0.1,87,4,20000,0,,,0,,,,,,,,,,,wg-a,,,,AAXX 05004 07190 12670 20000 10060 20040 39950 40137 52001 60006 82500 90000=
07190,1998-05-05 03:00:00,4,1013.3,-0.5,93,3,20000,3.704,,,230,,,,,,,,,,,wg-a,,,,AAXX 05034 07190 12/70 02302 10040 20030 39945 40133 58005 60006 80000 90300=
07190,1998-05-05 06:00:00,6,1013.6,0.4,87,4,15000,3.704,,,150,3.1,11.5,,,,,,,,,wg-a,,,,AAXX 05064 07190 02/65 11502 10060 20040 39949 40136 53004 60006 80001 90600 333 10115 20031 60004=
07190,1998-05-05 09:00:00,13,1012.9,-0.3,51,3,12000,3.704,,,310,,,,,,,,,,,wg-a,,,,AAXX 05094 07190 12662 23102 10130 20030 39946 40129 57003 60006 82401 90900=
07190,1998-05-05 12:00:00,14,1012,-0.7,44,2,12000,11.112,,,290,,,,,,,,,,,wg-a,,,,AAXX 05124 07190 12662 72906 10140 20020 39939 40120 57007 60006 878// 91200=
07190,1998-05-05 15:00:00,15,1011.1,-0.9,44,3,15000,3.704,,,220,,,,,,,,,,,wg-a,,,,AAXX 05154 07190 12765 72202 10150 20030 39930 40111 57009 60006 875// 91500=
07190,1998-05-05 18:00:00,14,1011.1,-0,51,4,15000,7.408,,,230,5.7,15,,,,,,,,,wg-a,,,,AAXX 05184 07190 12665 72304 10140 20040 39930 40111 55000 60006 878// 91800 333 10150 20057=
07190,1998-05-05 21:00:00,10,1011.9,0.5,76,6,15000,11.112,,,210,,,,,,,,,,,wg-a,,,,AAXX 05214 07190 12765 72106 10100 20060 39935 40119 51005 60006 86532 92100=
07190,1998-05-06 00:00:00,12,1011.5,-0.3,67,6,15000,11.112,,,180,,,,,,,,,,,wg-a,,,,AAXX 06004 07190 12765 71806 10120 20060 39932 40115 58003 60006 875// 90000=
07190,1998-05-06 03:00:00,11,1010.9,-0.6,76,7,15000,11.112,,,210,,,,,,,,,,,wg-a,,,,AAXX 06034 07190 12665 82106 10110 20070 39926 40109 56006 60006 878// 90300=
07190,1998-05-06 06:00:00,11,1011.9,1,82,8,15000,14.816,,,190,10.2,14.3,,,,,,,,,wg-a,,,,AAXX 06064 07190 02565 81908 10110 20080 39936 40119 53010 60006 8687/ 90600 333 10143 20102 60004=
07190,1998-05-06 09:00:00,11,1013.2,1.3,87,9,8000,14.816,,,220,,,,0,,,,,,61,wg-a,,,,AAXX 06094 07190 12558 82208 10110 20090 39949 40132 53013 60007 76186 878// 90900=
07190,1998-05-06 12:00:00,16,1012.9,-0.1,55,7,20000,22.224,,,210,,,,,,,,,,1,wg-a,,,,AAXX 06124 07190 02570 62112 10160 20070 39948 40129 58001 60016 70186 85831 91200 333 61000=
07190,1998-05-06 15:00:00,15,1013.2,0.3,67,9,15000,14.816,,,210,,,,0,,,,,,1,wg-a,,,,AAXX 06154 07190 12665 72108 10150 20090 39951 40132 50003 60007 70186 85831 91500=
07190,1998-05-06 18:00:00,14,1014.8,1.5,55,5,20000,25.928,,,250,10.8,16.4,,,,,,,,1,wg-a,,,,AAXX 06184 07190 12670 72514 10140 20050 39966 40148 53015 60006 70186 8683/ 91800 333 10164 20108=
07190,1998-05-07 00:00:00,11,1017.9,0.8,71,6,15000,11.112,,,160,,,,,,,,,,,wg-a,,,,AAXX 07004 07190 12665 71606 10110 20060 39995 40179 51008 60006 8583/ 90000=
07190,1998-05-07 03:00:00,9,1018.7,0.6,81,6,12000,11.112,,,160,,,,,,,,,,,wg-a,,,,AAXX 07034 07190 12662 51606 10090 20060 30001 40187 51006 60006 83831 90300=
07190,1998-05-07 06:00:00,10,1019.9,1.3,82,7,20000,11.112,,,170,8.5,14.2,,,,,1,,,,wg-a,,,,AAXX 07064 07190 02670 71706 10100 20070 30014 40199 53013 60006 878// 90600 333 10142 20085 60014=
07190,1998-05-07 09:00:00,16,1020.6,1,55,7,20000,14.816,,,170,,,,,,,,,,,wg-a,,,,AAXX 07094 07190 12670 31708 10160 20070 30024 40206 51010 60006 82830 90900=
07190,1998-05-07 12:00:00,19,1019.5,-0.9,43,6,40000,7.408,,,140,,,,,,,,,,,wg-a,,,,AAXX 07124 07190 12682 31404 10190 20060 30015 40195 56009 60006 82801 91200=
07190,1998-05-07 15:00:00,21,1018.7,-0.6,40,7,500,7.408,,,230,,,,,,,,,,,wg-a,,,,AAXX 07154 07190 12700 22304 10210 20070 30009 40187 57006 60006 82200 91500=
07190,1998-05-07 18:00:00,20,1019,0.2,49,9,500,11.112,,,340,10.1,21.6,,,,,,,,,wg-a,,,,AAXX 07184 07190 12700 13406 10200 20090 30011 40190 53002 60006 81200 91800 333 10216 20101=
07190,1998-05-07 21:00:00,14,1021.4,2,72,9,20000,3.704,,,320,,,,,,,,,,,wg-a,,,,AAXX 07214 07190 12/70 03202 10140 20090 30031 40214 51020 60006 80000 92100=
07190,1998-05-08 00:00:00,10,1023.3,1.6,87,8,20000,3.704,,,200,,,,,,,,,,,wg-a,,,,AAXX 08004 07190 12/70 02002 10100 20080 30047 40233 51016 60006 80000 90000=
07190,1998-05-08 03:00:00,7,1024,0.5,93,6,20000,3.704,,,200,,,,,,,,,,,wg-a,,,,AAXX 08034 07190 12/70 02002 10070 20060 30052 40240 53005 60006 80000 90300=
07190,1998-05-08 06:00:00,10,1025.3,1.4,87,8,500,3.704,,,150,6.4,19.9,,,,,,,,,wg-a,,,,AAXX 08064 07190 02/00 01502 10100 20080 30066 40253 51014 60006 80000 90600 333 10199 20064 60004=
07190,1998-05-08 09:00:00,18,1025,0.3,59,10,500,3.704,,,110,,,,,,,,,,,wg-a,,,,AAXX 08094 07190 12/00 01102 10180 20100 30069 40250 51003 60006 80000 90900=
07190,1998-05-08 12:00:00,23,1023.4,-1.3,38,8,500,3.704,,,90,,,,,,,,,,,wg-a,,,,AAXX 08124 07190 12700 30902 10230 20080 30056 40234 58013 60006 81101 91200=
07190,1998-05-08 15:00:00,26,1021.5,-1.7,28,6,500,7.408,,,110,,,,,,,,,,,wg-a,,,,AAXX 08154 07190 12700 71104 10260 20060 30039 40215 58017 60006 81101 91500=
07190,1998-05-08 18:00:00,25,1021.1,-0.4,41,11,500,7.408,,,60,9.7,26,,,,,,,,,wg-a,,,,AAXX 08184 07190 12700 40604 10250 20110 30035 40211 55004 60006 81101 91800 333 10260 20097=
07190,1998-05-08 21:00:00,17,1022.7,1.1,63,10,20000,3.704,,,330,,,,,,,,,,,wg-a,,,,AAXX 08214 07190 12/70 43302 10170 20100 30046 40227 51011 60006 80001 92100=
07190,1998-05-09 00:00:00,14,1023.6,0.7,77,10,20000,3.704,,,120,,,,,,,,,,,wg-a,,,,AAXX 09004 07190 12/70 41202 10140 20100 30053 40236 51007 60006 80001 90000=
07190,1998-05-09 03:00:00,12,1024,0.2,88,10,15000,0,,,0,,,,,,,,,,,wg-a,,,,AAXX 09034 07190 12/65 30000 10120 20100 30055 40240 51002 60006 80001 90300=
07190,1998-05-09 06:00:00,15,1024.4,0.6,82,12,15000,3.704,,,190,11.4,24.4,,,,,,,,,wg-a,,,,AAXX 09064 07190 02/65 71902 10150 20120 30061 40244 52006 60006 81032 90600 333 10244 20114 60004=
07190,1998-05-09 09:00:00,21,1024.2,0.2,56,12,15000,7.408,,,160,,,,,,,,,,,wg-a,,,,AAXX 09094 07190 12/65 71604 10210 20120 30063 40242 52002 60006 81082 90900=
07190,1998-05-09 12:00:00,25,1022.7,-1.2,39,10,20000,11.112,,,110,,,,,,,,,,,wg-a,,,,AAXX 09124 07190 12670 /1106 10250 20100 30051 40227 58012 60006 81102 91200=
07190,1998-05-09 15:00:00,27,1021.2,-1.4,30,8,11000,11.112,,,140,,,,,,,,,,,wg-a,,,,AAXX 09154 07190 12/61 /1406 10270 20080 30037 40212 57014 60006 91500=
07190,1998-05-09 18:00:00,25,1020.9,-0.4,41,11,25000,11.112,,,350,14.9,27.3,,,,,,,,,wg-a,,,,AAXX 09184 07190 12/75 43506 10250 20110 30033 40209 56004 60006 81032 91800 333 10273 20149=
07190,1998-05-10 00:00:00,14,1022,-0.5,77,10,20000,0,,,0,,,,,,,,,,,wg-a,,,,AAXX 10004 07190 12/70 00000 10140 20100 30037 40220 56005 60006 80000 90000=
07190,1998-05-10 03:00:00,11,1021.8,-0.4,94,10,20000,3.704,,,80,,,,,,,,,,,wg-a,,,,AAXX 10034 07190 12/70 00802 10110 20100 30033 40218 56004 60006 80000 90300=
07190,1998-05-10 06:00:00,14,1021.8,0.2,82,11,25000,0,,,0,11.1,24.8,,,,,,,,,wg-a,,,,AAXX 10064 07190 02/75 00000 10140 20110 30035 40218 51002 60006 80000 90600 333 10248 20111 60004=
07190,1998-05-10 09:00:00,21,1020.6,-0.7,60,13,18000,7.408,,,350,,,,,,,,,,,wg-a,,,,AAXX 10094 07190 12/68 03504 10210 20130 30028 40206 58007 60006 80000 90900=
07190,1998-05-10 12:00:00,27,1018,-2.2,48,15,20000,11.112,,,350,,,,,,,,,,,wg-a,,,,AAXX 10124 07190 12670 /3506 10270 20150 30006 40180 58022 60006 81100 91200=
07190,1998-05-10 15:00:00,29,1015.7,-2.2,35,12,20000,11.112,,,40,,,,,,,,,,,wg-a,,,,AAXX 10154 07190 12770 10406 10290 20120 39984 40157 56022 60006 81200 91500=
07190,1998-05-10 18:00:00,27,1014.8,-1,37,11,25000,18.52,,,30,14,29.5,,,,,,,,,wg-a,,,,AAXX 10184 07190 12/75 00310 10270 20110 39974 40148 56010 60006 80000 91800 333 10295 20140=
07190,1998-05-10 21:00:00,20,1015.6,0.4,60,12,20000,11.112,,,350,,,,,,,,,,,wg-a,,,,AAXX 10214 07190 12/70 03506 10200 20120 39978 40156 50004 60006 80000 92100=
07190,1998-05-11 00:00:00,16,1015.8,-0.1,77,12,20000,7.408,,,270,,,,,,,,,,,wg-a,,,,AAXX 11004 07190 12/70 02704 10160 20120 39977 40158 58001 60006 80000 90000=
07190,1998-05-11 03:00:00,13,1015.8,-0.1,82,10,20000,0,,,0,,,,,,,,,,,wg-a,,,,AAXX 11034 07190 12/70 00000 10130 20100 39976 40158 57001 60006 80000 90300=
07190,1998-05-11 06:00:00,17,1016,0.4,72,12,15000,3.704,,,310,12.7,26.7,,,,,,,,,wg-a,,,,AAXX 11064 07190 02/65 03102 10170 20120 39980 40160 53004 60006 80000 90600 333 10267 20127 60004=
07190,1998-05-11 09:00:00,23,1015.9,0.3,53,13,15000,7.408,,,360,,,,,,,,,,,wg-a,,,,AAXX 11094 07190 12/65 03604 10230 20130 39983 40159 50003 60006 80000 90900=
07190,1998-05-11 12:00:00,28,1014.8,-0.8,37,12,20000,7.408,,,30,,,,,,,,,,,wg-a,,,,AAXX 11124 07190 12770 10304 10280 20120 39975 40148 57008 60006 81200 91200=
07190,1998-05-11 15:00:00,30,1013.5,-1.2,29,10,20000,11.112,,,30,,,,,,,,,,,wg-a,,,,AAXX 11154 07190 12770 /0306 10300 20100 39963 40135 58012 60006 81303 91500=
07190,1998-05-11 18:00:00,28,1013.3,-0.3,37,12,20000,11.112,,,60,17,30.1,,,,,,,,,wg-a,,,,AAXX 11184 07190 12/70 30606 10280 20120 39960 40133 56003 60006 81/63 91800 333 10301 20170=
07190,1998-05-11 21:00:00,21,1014.7,1,53,11,18000,7.408,,,340,,,,,,,,,,,wg-a,,,,AAXX 11214 07190 12/68 43404 10210 20110 39970 40147 52010 60006 80003 92100=
07190,1998-05-12 00:00:00,17,1015.7,0.7,72,12,15000,3.704,,,290,,,,,,,,,,,wg-a,,,,AAXX 12004 07190 12/65 62902 10170 20120 39977 40157 51007 60006 80001 90000=
07190,1998-05-12 03:00:00,15,1016.2,0.4,82,12,12000,0,,,0,,,,,,,,,,,wg-a,,,,AAXX 12034 07190 12/62 30000 10150 20120 39981 40162 52004 60006 80001 90300=
07190,1998-05-12 06:00:00,17,1017.3,1.2,77,13,13000,3.704,,,190,13.6,28,,,,,,,,,wg-a,,,,AAXX 12064 07190 02/63 41902 10170 20130 39993 40173 53012 60006 80001 90600 333 10280 20136 60004=
07190,1998-05-12 09:00:00,24,1017.3,0.4,54,14,12000,3.704,,,340,,,,,,,,,,,wg-a,,,,AAXX 12094 07190 12/62 23402 10240 20140 39997 40173 51004 60006 80001 90900=
07190,1998-05-12 12:00:00,29,1016.5,-0.5,37,13,18000,11.112,,,20,,,,,,,,,,,wg-a,,,,AAXX 12124 07190 12768 20206 10290 20130 39992 40165 58005 60006 81901 91200=
07190,1998-05-12 15:00:00,30,1015.6,-0.8,33,12,20000,7.408,,,10,,,,,,,,,,,wg-a,,,,AAXX 12154 07190 12870 40104 10300 20120 39984 40156 56008 60006 82903 91500=
07190,1998-05-12 18:00:00,27,1015.8,-0,34,10,20000,11.112,,,30,16.9,30,,,,,,,,,wg-a,,,,AAXX 12184 07190 12/70 50306 10270 20100 39984 40158 55000 60006 81063 91800 333 10300 20169=
07190,1998-05-12 21:00:00,21,1017.6,1.4,53,11,18000,11.112,,,330,,,,,,,,,,,wg-a,,,,AAXX 12214 07190 12/68 33306 10210 20110 39998 40176 51014 60006 81063 92100=
07190,1998-05-13 00:00:00,17,1018.3,0.5,72,12,15000,3.704,,,300,,,,,,,,,,,wg-a,,,,AAXX 13004 07190 12/65 23002 10170 20120 30003 40183 50005 60006 8/0/3 90000=
07190,1998-05-13 03:00:00,15,1018.7,0.2,82,12,15000,3.704,,,270,,,,,,,,,,,wg-a,,,,AAXX 13034 07190 12/65 42702 10150 20120 30005 40187 51002 60006 80002 90300=
07190,1998-05-13 06:00:00,17,1019.6,1,72,12,15000,7.408,,,330,14.4,27.1,,,,,,,,,wg-a,,,,AAXX 13064 07190 02/65 63304 10170 20120 30015 40196 51010 60006 80002 90600 333 10271 20144 60004=
07190,1998-05-13 09:00:00,23,1019.3,0.1,57,14,15000,7.408,,,350,,,,,,,,,,,wg-a,,,,AAXX 13094 07190 12/65 23504 10230 20140 30016 40193 50001 60006 80001 90900=
07190,1998-05-13 12:00:00,29,1017.8,-1.1,40,14,15000,14.816,,,40,,,,,,,,,,,wg-a,,,,AAXX 13124 07190 12765 /0408 10290 20140 30005 40178 58011 60006 81201 91200=
07190,1998-05-13 15:00:00,30,1016.4,-1.4,33,12,15000,25.928,,,20,,,,,,,,,,,wg-a,,,,AAXX 13154 07190 12765 /0214 10300 20120 39991 40164 56014 60006 81200 91500=
07190,1998-05-13 18:00:00,27,1016.2,-0.3,37,11,15000,18.52,,,30,17.1,30.1,,,,,,,,,wg-a,,,,AAXX 13184 07190 12765 20310 10270 20110 39988 40162 55003 60006 81280 91800 333 10301 20171=
07190,1998-05-13 21:00:00,24,1017,0.6,54,14,15000,14.816,,,20,,,,,,,,,,13,wg-a,,,,AAXX 13214 07190 12765 20208 10240 20140 39994 40170 52006 60006 71300 82300 92100=
07190,1998-05-14 00:00:00,20,1017.9,0.7,68,14,15000,11.112,,,10,,,,,,,,,,1,wg-a,,,,AAXX 14004 07190 12765 30106 10200 20140 30001 40179 51007 60006 70190 825/1 90000=
07190,1998-05-14 03:00:00,17,1018.3,0.2,77,13,8000,11.112,,,350,,,,,,,,,,,wg-a,,,,AAXX 14034 07190 12758 33506 10170 20130 30003 40183 51002 60006 83500 90300=
07190,1998-05-14 06:00:00,17,1019.1,0.7,72,12,10000,14.816,,,360,16.2,27.3,,,,,,,,,wg-a,,,,AAXX 14064 07190 02760 /3608 10170 20120 30010 40191 51007 60006 81200 90600 333 10273 20162 60004=
07190,1998-05-14 09:00:00,21,1019.1,0.3,64,14,10000,14.816,,,360,,,,,,,,,,,wg-a,,,,AAXX 14094 07190 12660 43608 10210 20140 30013 40191 51003 60006 81282 90900=
07190,1998-05-14 12:00:00,26,1017.5,-1.3,51,15,12000,18.52,,,30,,,,,,,,,,,wg-a,,,,AAXX 14124 07190 12/62 10310 10260 20150 30000 40175 58013 60006 81080 91200=
07190,1998-05-14 15:00:00,27,1015.8,-1.6,42,13,12000,29.632,,,20,,,,,,,,,,,wg-a,,,,AAXX 14154 07190 12662 20216 10270 20130 39984 40158 58016 60006 81202 91500=
07190,1998-05-14 18:00:00,24,1015.9,-0.1,44,11,12000,29.632,,,30,16.8,27.1,,,,,,,,,wg-a,,,,AAXX 14184 07190 12/62 50316 10240 20110 39983 40159 55001 60006 80002 91800 333 10271 20168=
07190,1998-05-14 21:00:00,19,1017.8,1.6,49,8,12000,14.816,,,40,,,,,,,,,,,wg-a,,,,AAXX 14214 07190 12/62 40408 10190 20080 39999 40178 53016 60006 81032 92100=
07190,1998-05-15 00:00:00,13,1018,-0.2,67,7,15000,11.112,,,350,,,,,,,,,,,wg-a,,,,AAXX 15004 07190 12/65 03506 10130 20070 39997 40180 58002 60006 80000 90000=
07190,1998-05-15 03:00:00,11,1018.6,0.4,66,5,15000,11.112,,,330,,,,,,,,,,,wg-a,,,,AAXX 15034 07190 12/65 13306 10110 20050 30001 40186 52004 60006 80001 90300=
07190,1998-05-15 06:00:00,14,1019.1,0.7,55,5,40000,11.112,,,350,10.4,24.1,,,,,,,,,wg-a,,,,AAXX 15064 07190 02/82 33506 10140 20050 30008 40191 53007 60006 80001 90600 333 10241 20104 60004=
07190,1998-05-15 09:00:00,20,1018.4,-0.3,40,6,45000,18.52,,,10,,,,,,,,,,,wg-a,,,,AAXX 15094 07190 12/83 20110 10200 20060 30005 40184 58003 60006 80001 90900=
07190,1998-05-15 12:00:00,24,1016.5,-1.6,29,5,40000,25.928,,,10,,,,,,,,,,,wg-a,,,,AAXX 15124 07190 12/82 10114 10240 20050 39989 40165 56016 60006 80001 91200=
07190,1998-05-15 15:00:00,24,1015.4,-1.1,34,7,500,29.632,,,30,,,,,,,,,,,wg-a,,,,AAXX 15154 07190 12/00 00316 10240 20070 39978 40154 56011 60006 80000 91500=
07190,1998-05-15 18:00:00,22,1015.1,-0.4,33,5,35000,31.484,,,30,13.8,24.3,,,,,,,,,wg-a,,,,AAXX 15184 07190 12/81 00317 10220 20050 39974 40151 55004 60006 80000 91800 333 10243 20138=
07190,1998-05-15 21:00:00,19,1016.6,1.3,40,5,500,25.928,,,30,,,,,,,,,,,wg-a,,,,AAXX 15214 07190 12/00 00314 10190 20050 39987 40166 53013 60006 80000 92100=
07190,1998-05-16 03:00:00,11,1017.6,0.1,66,5,20000,7.408,,,350,,,,,,,,,,,wg-a,,,,AAXX 16034 07190 12/70 03504 10110 20050 39992 40176 52001 60006 80000 90300=
07190,1998-05-16 06:00:00,13,1018.1,0.6,58,5,40000,22.224,,,30,10.4,22,,,,,,,,,wg-a,,,,AAXX 16064 07190 02/82 00312 10130 20050 39998 40181 51006 60006 80000 90600 333 10220 20104 60004=
07190,1998-05-16 09:00:00,17,1018,0.2,45,5,40000,22.224,,,30,,,,,,,,,,,wg-a,,,,AAXX 16094 07190 12682 /0312 10170 20050 30000 40180 51002 60006 81100 90900=
07190,1998-05-16 12:00:00,20,1017.3,-0.6,35,4,40000,29.632,,,30,,,,,,,,,,,wg-a,,,,AAXX 16124 07190 12/82 00316 10200 20040 39994 40173 58006 60006 80000 91200=
07190,1998-05-16 15:00:00,21,1016.5,-0.7,33,4,40000,29.632,,,30,,,,,,,,,,,wg-a,,,,AAXX 16154 07190 12/82 00316 10210 20040 39987 40165 56007 60006 80000 91500=
07190,1998-05-16 18:00:00,19,1016.8,0.2,37,4,40000,31.484,,,30,13.1,21,,,,,,,,,wg-a,,,,AAXX 16184 07190 12/82 00317 10190 20040 39989 40168 53002 60006 80000 91800 333 10210 20131=
07190,1998-05-16 21:00:00,16,1018.6,1.5,48,5,40000,14.816,,,30,,,,,,,,,,,wg-a,,,,AAXX 16214 07190 12/82 00308 10160 20050 30004 40186 51015 60006 80000 92100=
07190,1998-05-17 00:00:00,14,1018.8,0.1,55,5,500,18.52,,,20,,,,,,,,,,,wg-a,,,,AAXX 17004 07190 12/00 00210 10140 20050 30005 40188 52001 60006 80000 90000=
07190,1998-05-17 06:00:00,13,1020.7,1.4,62,6,500,14.816,,,20,10.8,19.4,,,,,,,,,wg-a,,,,AAXX 17064 07190 02/00 00208 10130 20060 30023 40207 51014 60006 80000 90600 333 10194 20108 60004=
07190,1998-05-17 09:00:00,18,1021,0.6,45,6,35000,18.52,,,30,,,,,,,,,,,wg-a,,,,AAXX 17094 07190 12781 10310 10180 20060 30029 40210 50006 60006 81201 90900=
07190,1998-05-17 12:00:00,20,1020.9,-0,40,6,35000,31.484,,,40,,,,,,,,,,,wg-a,,,,AAXX 17124 07190 12781 50417 10200 20060 30029 40209 55000 60006 85200 91200=
07190,1998-05-17 15:00:00,20,1020.8,-0,46,8,35000,22.224,,,30,,,,,,,,,,,wg-a,,,,AAXX 17154 07190 12781 40312 10200 20080 30029 40208 55000 60006 84200 91500=
07190,1998-05-17 18:00:00,18,1021.3,0.4,52,8,500,14.816,,,30,13.3,20.9,,,,,,,,,wg-a,,,,AAXX 17184 07190 12700 20308 10180 20080 30033 40213 53004 60006 82400 91800 333 10209 20133=
07190,1998-05-17 21:00:00,14,1023,1.4,67,8,20000,7.408,,,10,,,,,,,,,,,wg-a,,,,AAXX 17214 07190 12/70 00104 10140 20080 30047 40230 53014 60006 80000 92100=
07190,1998-05-18 00:00:00,11,1023.8,0.5,76,7,20000,3.704,,,340,,,,,,,,,,,wg-a,,,,AAXX 18004 07190 12/70 03402 10110 20070 30052 40238 51005 60006 80000 90000=
07190,1998-05-18 03:00:00,8,1024.2,0.3,87,6,20000,3.704,,,330,,,,,,,,,,,wg-a,,,,AAXX 18034 07190 12/70 03302 10080 20060 30055 40242 53003 60006 80000 90300=
07190,1998-05-18 06:00:00,12,1025.2,1.2,71,7,25000,7.408,,,350,7.6,18.3,,,,,,,,,wg-a,,,,AAXX 18064 07190 02/75 03504 10120 20070 30067 40252 53012 60006 80000 90600 333 10183 20076 60004=
07190,1998-05-18 09:00:00,19,1025.2,0.4,46,7,25000,11.112,,,20,,,,,,,,,,,wg-a,,,,AAXX 18094 07190 12675 /0206 10190 20070 30071 40252 50004 60006 81200 90900=
07190,1998-05-18 12:00:00,22,1024,-1,35,6,25000,14.816,,,20,,,,,,,,,,,wg-a,,,,AAXX 18124 07190 12775 40208 10220 20060 30061 40240 58010 60006 84201 91200=
07190,1998-05-18 15:00:00,22,1023.1,-0.8,31,4,25000,22.224,,,30,,,,,,,,,,,wg-a,,,,AAXX 18154 07190 12775 20312 10220 20040 30053 40231 57008 60006 81201 91500=
07190,1998-05-18 18:00:00,21,1023.3,0.1,35,5,25000,18.52,,,20,12.1,22.7,,,,,,,,,wg-a,,,,AAXX 18184 07190 12775 20210 10210 20050 30054 40233 53001 60006 82201 91800 333 10227 20121=
07190,1998-05-18 21:00:00,15,1024.7,1,55,6,20000,3.704,,,100,,,,,,,,,,,wg-a,,,,AAXX 18214 07190 12/70 01002 10150 20060 30064 40247 52010 60006 80000 92100=
07190,1998-05-19 00:00:00,11,1025.3,0.3,76,7,20000,0,,,0,,,,,,,,,,,wg-a,,,,AAXX 19004 07190 12/70 00000 10110 20070 30067 40253 51003 60006 80000 90000=
07190,1998-05-19 03:00:00,8,1025.5,-0,87,6,20000,0,,,0,,,,,,,,,,,wg-a,,,,AAXX 19034 07190 12/70 10000 10080 20060 30067 40255 55000 60006 80001 90300=
07190,1998-05-19 06:00:00,13,1025.8,0.6,72,8,20000,11.112,,,360,8,20.8,,,,,,,,,wg-a,,,,AAXX 19064 07190 02/70 33606 10130 20080 30073 40258 52006 60006 80001 90600 333 10208 20080 60004=
07190,1998-05-19 09:00:00,20,1024.9,-0.4,46,8,20000,11.112,,,20,,,,,,,,,,,wg-a,,,,AAXX 19094 07190 12670 40206 10200 20080 30069 40249 58004 60006 81102 90900=
07190,1998-05-19 12:00:00,23,1023.1,-1.6,31,5,500,14.816,,,50,,,,,,,,,,,wg-a,,,,AAXX 19124 07190 12700 10508 10230 20050 30053 40231 58016 60006 81100 91200=
07190,1998-05-19 15:00:00,24,1021.3,-1.7,27,4,500,18.52,,,40,,,,,,,,,,,wg-a,,,,AAXX 19154 07190 12700 10410 10240 20040 30036 40213 56017 60006 81100 91500=
07190,1998-05-19 18:00:00,23,1020.7,-0.7,31,5,500,14.816,,,30,12.7,24.5,,,,,,,,,wg-a,,,,AAXX 19184 07190 12700 10308 10230 20050 30029 40207 56007 60006 81400 91800 333 10245 20127=
07190,1998-05-19 21:00:00,17,1021.2,0.2,52,7,20000,7.408,,,350,,,,,,,,,,,wg-a,,,,AAXX 19214 07190 12870 13504 10170 20070 30031 40212 50002 60006 81500 92100=
07190,1998-05-20 00:00:00,12,1021,-0.6,71,7,20000,7.408,,,320,,,,,,,,,,,wg-a,,,,AAXX 20004 07190 12/70 03204 10120 20070 30025 40210 58006 60006 80000 90000=
07190,1998-05-20 03:00:00,11,1020.9,-0.1,71,6,15000,3.704,,,320,,,,,,,,,,,wg-a,,,,AAXX 20034 07190 12/65 13202 10110 20060 30024 40209 56001 60006 80001 90300=
07190,1998-05-20 06:00:00,15,1020.5,-0.1,67,9,15000,7.408,,,340,10.3,22.5,,,,,,,,,wg-a,,,,AAXX 20064 07190 02/65 23404 10150 20090 30023 40205 56001 60006 81031 90600 333 10225 20103 60004=
07190,1998-05-20 09:00:00,20,1019.7,-0.5,53,10,15000,14.816,,,350,,,,,,,,,,,wg-a,,,,AAXX 20094 07190 12665 23508 10200 20100 30018 40197 58005 60006 81201 90900=
07190,1998-05-20 12:00:00,24,1018.2,-1.3,38,9,20000,11.112,,,20,,,,,,,,,,,wg-a,,,,AAXX 20124 07190 12670 30206 10240 20090 30005 40182 58013 60006 82231 91200=
07190,1998-05-20 15:00:00,24,1017.4,-0.7,36,8,20000,18.52,,,20,,,,,,,,,,,wg-a,,,,AAXX 20154 07190 12770 60210 10240 20080 39998 40174 56007 60006 82281 91500=
07190,1998-05-20 18:00:00,22,1016.7,-0.8,43,9,20000,14.816,,,30,14.8,25.6,,,,,,,,,wg-a,,,,AAXX 20184 07190 12770 40308 10220 20090 39990 40167 56008 60006 81181 91800 333 10256 20148=
07190,1998-05-20 21:00:00,17,1017.7,0.6,55,8,17000,11.112,,,350,,,,,,,,,,,wg-a,,,,AAXX 20214 07190 12/67 03506 10170 20080 39996 40177 52006 60006 80000 92100=
07190,1998-05-21 00:00:00,13,1017.8,-0.1,77,9,17000,7.408,,,300,,,,,,,,,,,wg-a,,,,AAXX 21004 07190 12/67 03004 10130 20090 39995 40178 57001 60006 80000 90000=
07190,1998-05-21 03:00:00,12,1017.5,-0.4,82,9,8000,0,,,0,,,,,,,,,,,wg-a,,,,AAXX 21034 07190 12/58 00000 10120 20090 39991 40175 56004 60006 80000 90300=
07190,1998-05-21 06:00:00,15,1017.7,0.4,72,10,9000,7.408,,,340,11.3,22.2,,,,,,,,,wg-a,,,,AAXX 21064 07190 02859 /3404 10150 20100 39995 40177 51004 60006 81080 90600 333 10222 20113 60004=
07190,1998-05-21 09:00:00,20,1017.2,-0.2,53,10,9000,11.112,,,330,,,,,,,,,,,wg-a,,,,AAXX 21094 07190 12659 53306 10200 20100 39993 40172 58002 60006 81201 90900=
07190,1998-05-21 12:00:00,23,1016,-1,38,8,15000,18.52,,,310,,,,,,,,,,,wg-a,,,,AAXX 21124 07190 12665 53110 10230 20080 39983 40160 58010 60006 82381 91200=
07190,1998-05-21 15:00:00,22,1015.7,-0.3,43,9,15000,29.632,,,330,,,,,,,,,,,wg-a,,,,AAXX 21154 07190 12665 73316 10220 20090 39980 40157 55003 60006 84382 91500=
07190,1998-05-21 18:00:00,19,1016.2,0.3,52,9,15000,22.224,,,340,15.1,24.2,,,,,,,,,wg-a,,,,AAXX 21184 07190 12/65 73412 10190 20090 39983 40162 53003 60006 83082 91800 333 10242 20151=
07190,1998-05-21 21:00:00,16,1018.2,1.8,63,9,15000,11.112,,,340,,,,,,,,,,,wg-a,,,,AAXX 21214 07190 12665 73406 10160 20090 30001 40182 53018 60006 82532 92100=
07190,1998-05-22 00:00:00,14,1019.2,0.8,67,8,15000,11.112,,,330,,,,,,,,,,,wg-a,,,,AAXX 22004 07190 12565 73306 10140 20080 30009 40192 53008 60006 8457/ 90000=
07190,1998-05-22 03:00:00,12,1020,0.7,67,6,15000,14.816,,,330,,,,,,,,,,,wg-a,,,,AAXX 22034 07190 12565 83308 10120 20060 30016 40200 53007 60006 8657/ 90300=
07190,1998-05-22 06:00:00,12,1021.3,1.2,54,3,500,18.52,,,10,10.9,19.2,,,,,,,,,wg-a,,,,AAXX 22064 07190 02600 70110 10120 20030 30028 40213 51012 60006 85801 90600 333 10192 20109 60004=
07190,1998-05-22 09:00:00,13,1022.1,0.9,47,2,500,18.52,,,20,,,,,,,,,,,wg-a,,,,AAXX 22094 07190 12600 60210 10130 20020 30037 40221 51009 60006 85801 90900=
07190,1998-05-22 12:00:00,14,1021.9,-0.1,38,0,500,14.816,,,340,,,,,,,,,,,wg-a,,,,AAXX 22124 07190 12600 /3408 10140 20000 30036 40219 58001 60006 86800 91200=
07190,1998-05-22 15:00:00,15,1021.2,-0.7,39,1,500,14.816,,,10,,,,,,,,,,,wg-a,,,,AAXX 22154 07190 12700 30108 10150 20010 30029 40212 56007 60006 82109 91500=
07190,1998-05-22 18:00:00,14,1021.4,0.2,38,0,35000,14.816,,,350,11.8,16.2,,,,,,,,,wg-a,,,,AAXX 22184 07190 12781 33508 10140 20000 30031 40214 53002 60006 83100 91800 333 10162 20118=
07190,1998-05-22 21:00:00,11,1022.7,1,50,1,20000,7.408,,,350,,,,,,,,,,,wg-a,,,,AAXX 22214 07190 12870 33504 10110 20010 30041 40227 53010 60006 83500 92100=
07190,1998-05-23 00:00:00,7,1022.7,-0.2,70,2,20000,3.704,,,30,,,,,,,,,,,wg-a,,,,AAXX 23004 07190 12870 20302 10070 20020 30039 40227 57002 60006 82500 90000=
07190,1998-05-23 06:00:00,9,1021.6,-0.1,71,4,15000,11.112,,,340,4.7,14.1,,,,,,,,,wg-a,,,,AAXX 23064 07190 02/65 03406 10090 20040 30030 40216 57001 60006 80000 90600 333 10141 20047 60004=
07190,1998-05-23 09:00:00,13,1021,-0.4,51,3,15000,14.816,,,10,,,,,,,,,,,wg-a,,,,AAXX 23094 07190 12665 50108 10130 20030 30026 40210 58004 60006 85200 90900=
07190,1998-05-23 12:00:00,15,1019.6,-1.2,41,2,15000,11.112,,,40,,,,,,,,,,,wg-a,,,,AAXX 23124 07190 12665 /0406 10150 20020 30014 40196 58012 60006 85200 91200=
07190,1998-05-23 15:00:00,17,1017.9,-1.6,39,3,15000,7.408,,,360,,,,,,,,,,,wg-a,,,,AAXX 23154 07190 12765 23604 10170 20030 39998 40179 56016 60006 82200 91500=
07190,1998-05-23 18:00:00,16,1016.7,-1.2,45,4,15000,11.112,,,20,9.4,17.3,,,,,,,,,wg-a,,,,AAXX 23184 07190 12765 20206 10160 20040 39986 40167 56012 60006 81230 91800 333 10173 20094=
07190,1998-05-23 21:00:00,11,1017.4,0.4,58,3,20000,7.408,,,350,,,,,,,,,,,wg-a,,,,AAXX 23214 07190 12770 23504 10110 20030 39990 40174 53004 60006 81230 92100=
07190,1998-05-24 00:00:00,8,1016.7,-0.9,71,3,20000,3.704,,,300,,,,,,,,,,,wg-a,,,,AAXX 24004 07190 12/70 03002 10080 20030 39981 40167 58009 60006 80000 90000=
07190,1998-05-24 03:00:00,6,1015.8,-1.1,81,3,20000,0,,,0,,,,,,,,,,,wg-a,,,,AAXX 24034 07190 12/70 00000 10060 20030 39970 40158 56011 60006 80000 90300=
07190,1998-05-24 06:00:00,11,1015,-0.4,66,5,20000,3.704,,,350,5.4,16.1,,,,,,,,,wg-a,,,,AAXX 24064 07190 02770 73502 10110 20050 39966 40150 56004 60006 81532 90600 333 10161 20054 60004=
07190,1998-05-24 09:00:00,15,1014.3,-0.4,44,3,20000,7.408,,,310,,,,,,,,,,,wg-a,,,,AAXX 24094 07190 12670 73104 10150 20030 39962 40143 58004 60006 8113/ 90900=
07190,1998-05-24 12:00:00,18,1013.4,-0.7,39,4,20000,7.408,,,330,,,,,,,,,,,wg-a,,,,AAXX 24124 07190 12670 /3304 10180 20040 39955 40134 57007 60006 82831 91200=
07190,1998-05-24 15:00:00,18,1012.2,-1.2,45,6,20000,11.112,,,320,,,,,,,,,,,wg-a,,,,AAXX 24154 07190 12670 73206 10180 20060 39943 40122 58012 60006 8683/ 91500=
07190,1998-05-24 18:00:00,17,1011.8,-0.5,48,6,20000,11.112,,,310,10.6,18.8,,,,,,,,,wg-a,,,,AAXX 24184 07190 12770 73106 10170 20060 39938 40118 55005 60006 878// 91800 333 10188 20106=
07190,1998-05-24 21:00:00,15,1012.6,0.7,63,8,20000,7.408,,,300,,,,,,,,,,,wg-a,,,,AAXX 24214 07190 12870 73004 10150 20080 39945 40126 53007 60006 875// 92100=
07190,1998-05-25 00:00:00,13,1011.9,-0.8,72,8,15000,7.408,,,270,,,,,,,,,,,wg-a,,,,AAXX 25004 07190 12865 72704 10130 20080 39937 40119 58008 60006 875// 90000=
07190,1998-05-25 03:00:00,13,1011.1,-0.8,77,9,15000,3.704,,,300,,,,,,,,,,,wg-a,,,,AAXX 25034 07190 12765 73002 10130 20090 39929 40111 56008 60006 875// 90300=
07190,1998-05-25 06:00:00,13,1011.5,0.4,82,10,12000,7.408,,,340,12.3,16.9,,,,,,,,,wg-a,,,,AAXX 25064 07190 02662 73404 10130 20100 39933 40115 52004 60006 878// 90600 333 10169 20123 60004=
07190,1998-05-25 09:00:00,17,1010.9,-0.3,55,8,15000,7.408,,,160,,,,,,,,,,,wg-a,,,,AAXX 25094 07190 12665 51604 10170 20080 39930 40109 58003 60006 83831 90900=
07190,1998-05-25 12:00:00,18,1010.5,-0.4,59,10,20000,18.52,,,330,,,,,,,,,,,wg-a,,,,AAXX 25124 07190 12670 73310 10180 20100 39926 40105 58004 60006 874// 91200=
07190,1998-05-25 15:00:00,18,1009.3,-1.1,52,8,25000,3.704,,,20,,,,0,,,,,,3,wg-a,,,,AAXX 25154 07190 12675 70202 10180 20080 39915 40093 58011 60007 70362 8586/ 91500=
07190,1998-05-25 18:00:00,15,1008.8,-0.7,82,12,20000,7.408,,,250,13.2,18.5,,,,,,,,21,wg-a,,,,AAXX 25184 07190 02670 72504 10150 20120 39908 40088 56007 61000 72186 8486/ 91800 333 10185 20132 6001=
07190,1998-05-25 21:00:00,14,1009,0.1,82,11,20000,7.408,,,180,,,,,,,,,,,wg-a,,,,AAXX 25214 07190 12670 71804 10140 20110 39909 40090 53001 60006 8483/ 92100=
07190,1998-05-26 00:00:00,13,1008.3,-0.8,82,10,15000,7.408,,,200,,,,,,,,,,,wg-a,,,,AAXX 26004 07190 12765 32004 10130 20100 39901 40083 58008 60006 83530 90000=
07190,1998-05-26 03:00:00,12,1007.8,-0.5,94,11,10000,7.408,,,150,,,,3,,,,,,29,wg-a,,,,AAXX 26034 07190 12660 81504 10120 20110 39896 40078 56005 60037 72998 878// 90300=
07190,1998-05-26 06:00:00,13,1007.8,0.1,94,12,10000,11.112,,,170,11.7,14.9,,,,,4,,,1,wg-a,,,,AAXX 26064 07190 02460 /1706 10130 20120 39897 40078 53001 60006 70198 84871 90600 333 10149 20117 60044=
07190,1998-05-26 09:00:00,16,1008.1,0.5,82,13,15000,14.816,,,190,,,,,,,,,,,wg-a,,,,AAXX 26094 07190 12565 71908 10160 20130 39902 40081 51005 60006 8487/ 90900=
07190,1998-05-26 12:00:00,19,1007.2,-0.7,64,12,15000,18.52,,,180,,,,,,,,,,,wg-a,,,,AAXX 26124 07190 12565 71810 10190 20120 39895 40072 58007 60006 86301 91200=
07190,1998-05-26 15:00:00,19,1006.6,-0.6,52,9,15000,7.408,,,310,,,,,,,,,,,wg-a,,,,AAXX 26154 07190 12665 73104 10190 20090 39889 40066 56006 60006 86302 91500=
07190,1998-05-26 18:00:00,16,1007.6,0.7,63,9,20000,14.816,,,290,13.3,21.2,,0,,,,,,15,wg-a,,,,AAXX 26184 07190 02670 /2908 10160 20090 39896 40076 52007 60006 71586 85330 91800 333 10212 20133 60007=
07190,1998-05-26 21:00:00,14,1008.6,1,82,11,10000,11.112,,,160,,,,0,,,,,,80,wg-a,,,,AAXX 26214 07190 12660 71606 10140 20110 39906 40086 53010 60007 78086 878// 92100=
07190,1998-05-27 00:00:00,13,1008.7,0,94,12,15000,3.704,,,130,,,,0,,,,,,3,wg-a,,,,AAXX 27004 07190 02665 71302 10130 20120 39906 40087 50000 60016 70386 878// 90000 333 60007=
07190,1998-05-27 03:00:00,12,1008.4,-0.4,100,12,9000,3.704,,,200,,,,,,,,,,,wg-a,,,,AAXX 27034 07190 12659 72002 10120 20120 39902 40084 58004 60006 8153/ 90300=
07190,1998-05-27 06:00:00,14,1009.1,0.8,82,11,15000,7.408,,,180,12.2,15.6,,,,,1,,,,wg-a,,,,AAXX 27064 07190 02665 71804 10140 20110 39910 40091 52008 60006 8483/ 90600 333 10156 20122 60014=
07190,1998-05-27 09:00:00,19,1008.9,0.1,60,11,20000,14.816,,,180,,,,,,,,,,,wg-a,,,,AAXX 27094 07190 12670 51808 10190 20110 39911 40089 50001 60006 83231 90900=
07190,1998-05-27 12:00:00,22,1007.8,-0.9,43,9,20000,18.52,,,190,,,,,,,,,,,wg-a,,,,AAXX 27124 07190 12670 61910 10220 20090 39902 40078 58009 60006 84831 91200=
07190,1998-05-27 15:00:00,23,1006.9,-0.8,36,7,20000,11.112,,,190,,,,,,,,,,,wg-a,,,,AAXX 27154 07190 12670 51906 10230 20070 39894 40069 56008 60006 83861 91500=
07190,1998-05-27 18:00:00,21,1006.8,-0.2,43,8,20000,7.408,,,170,13.6,22.8,,,,,,,,,wg-a,,,,AAXX 27184 07190 12770 81704 10210 20080 39892 40068 55002 60006 83882 91800 333 10228 20136=
07190,1998-05-27 21:00:00,17,1008.8,1.7,77,13,12000,7.408,,,240,,,,0,,,,,,21,wg-a,,,,AAXX 27214 07190 12462 82404 10170 20130 39909 40088 53017 60007 72162 8687/ 92100=
07190,1998-05-28 00:00:00,15,1009.5,0.6,94,14,7000,3.704,,,110,,,,2,,,,,,61,wg-a,,,,AAXX 28004 07190 02357 81102 10150 20140 39915 40095 50006 60026 76162 8687/ 90000 333 60027=
07190,1998-05-28 03:00:00,14,1009.3,-0.2,100,14,2000,3.704,,,150,,,,1,,,,,,10,wg-a,,,,AAXX 28034 07190 12120 81502 10140 20140 39913 40093 58002 60017 71062 888// 90300=
07190,1998-05-28 06:00:00,15,1008.9,-0.4,88,13,7000,3.704,,,180,,,,,,,4,,,1,wg-a,,,,AAXX 28064 07190 02357 /1802 10150 20130 39909 40089 56004 60006 70162 84870 90600 333 60044=
07190,1998-05-28 09:00:00,19,1008,-0.6,73,14,12000,3.704,,,30,,,,,,,,,,,wg-a,,,,AAXX 28094 07190 12762 /0302 10190 20140 39903 40080 58006 60006 83271 90900=
07190,1998-05-28 12:00:00,22,1006.8,-1,53,12,12000,14.816,,,30,,,,0,,,,,,,wg-a,,,,AAXX 28124 07190 02662 70308 10220 20120 39893 40068 58010 60006 84231 91200 333 60007=
07190,1998-05-28 15:00:00,22,1004.9,-1.9,53,12,500,18.52,,,30,,,,,,,,,,,wg-a,,,,AAXX 28154 07190 12700 70310 10220 20120 39874 40049 56019 60006 81111 91500=
07190,1998-05-28 18:00:00,21,1004,-0.9,60,13,20000,11.112,,,350,15.8,22.7,,,,,,,,,wg-a,,,,AAXX 28184 07190 12770 83506 10210 20130 39865 40040 56009 60006 8257/ 91800 333 10227 20158=
07190,1998-05-28 21:00:00,14,1006.8,2.3,94,13,8000,22.224,,,290,,,,19,,,,,,81,wg-a,,,,AAXX 28214 07190 12458 82912 10140 20130 39888 40068 53023 60197 78198 879// 92100=
07190,1998-05-29 00:00:00,15,1008.7,1.9,88,13,15000,7.408,,,160,,,,1,,,,,,1,wg-a,,,,AAXX 29004 07190 02465 71604 10150 20130 39907 40087 51019 60216 70198 878// 90000 333 60017=
07190,1998-05-29 03:00:00,13,1009.9,1.1,100,13,15000,7.408,,,190,,,,,,,,,,,wg-a,,,,AAXX 29034 07190 12665 61904 10130 20130 39918 40099 51011 60006 82571 90300=
07190,1998-05-29 06:00:00,14,1011.7,1.8,94,13,10000,3.704,,,150,12.8,21.3,,,,,21,,,,wg-a,,,,AAXX 29064 07190 02260 71502 10140 20130 39936 40117 52018 60006 8657/ 90600 333 10213 20128 60214=
07190,1998-05-29 09:00:00,16,1013.1,1.5,82,13,12000,3.704,,,170,,,,,,,,,,,wg-a,,,,AAXX 29094 07190 12462 81702 10160 20130 39951 40131 51015 60006 8687/ 90900=
07190,1998-05-29 12:00:00,17,1013.6,0.5,77,13,12000,3.704,,,170,,,,,,,,,,25,wg-a,,,,AAXX 29124 07190 02562 81702 10170 20130 39956 40136 52005 61000 72586 878// 91200 333 6100=
07190,1998-05-29 15:00:00,17,1013.8,0.2,77,13,12000,7.408,,,130,,,,,,,,,,,wg-a,,,,AAXX 29154 07190 12662 81304 10170 20130 39958 40138 52002 60006 878// 91500=
07190,1998-05-29 18:00:00,17,1013.6,-0.1,77,13,15000,0,,,0,13.6,17.4,,,,,,,,,wg-a,,,,AAXX 29184 07190 12665 80000 10170 20130 39957 40136 57001 60006 8587/ 91800 333 10174 20136=
07190,1998-05-29 21:00:00,14,1014.5,0.7,94,13,15000,0,,,0,,,,,,,,,,,wg-a,,,,AAXX 29214 07190 12/65 40000 10140 20130 39964 40145 50007 60006 82031 92100=
07190,1998-05-30 00:00:00,12,1014.7,0,94,11,15000,3.704,,,190,,,,,,,,,,,wg-a,,,,AAXX 30004 07190 12/65 01902 10120 20110 39964 40147 50000 60006 80000 90000=
07190,1998-05-30 03:00:00,10,1014.4,-0.5,93,9,6000,3.704,,,240,,,,,,,,,,11,wg-a,,,,AAXX 30034 07190 12/56 32402 10100 20090 39959 40144 57005 60006 71100 80001 90300=
07190,1998-05-30 06:00:00,12,1014,-0.2,100,12,200,3.704,,,10,9.4,17.1,,,,,,,,45,wg-a,,,,AAXX 30064 07190 02/02 90102 10120 20120 39957 40140 56002 60006 74541 89/// 90600 333 10171 20094 61000=
07190,1998-05-30 09:00:00,16,1013.2,-0.5,88,14,500,3.704,,,290,,,,,,,,,,2,wg-a,,,,AAXX 30094 07190 12300 52902 10160 20140 39952 40132 58005 60006 70242 81101 90900=
07190,1998-05-30 12:00:00,22,1011.6,-1.2,60,14,15000,7.408,,,40,,,,,,,,,,3,wg-a,,,,AAXX 30124 07190 12665 40404 10220 20140 39940 40116 58012 60006 70341 81201 91200=
07190,1998-05-30 15:00:00,24,1009.8,-1.7,41,10,18000,11.112,,,30,,,,,,,,,,,wg-a,,,,AAXX 30154 07190 12768 40306 10240 20100 39923 40098 56017 60006 81931 91500=
07190,1998-05-30 18:00:00,22,1009.7,-0.2,57,13,20000,11.112,,,30,11.9,24,,,,,,,,,wg-a,,,,AAXX 30184 07190 12770 50306 10220 20130 39921 40097 55002 60006 82933 91800 333 10240 20119=
07190,1998-05-30 21:00:00,19,1011.1,1.2,73,14,15000,11.112,,,40,,,,,,,,,,21,wg-a,,,,AAXX 30214 07190 02665 70406 10190 20140 39933 40111 51012 61000 72162 8338/ 92100 333 ////=
07190,1998-05-31 00:00:00,16,1012.9,1.6,82,13,8000,18.52,,,270,,,,1,,,,,,61,wg-a,,,,AAXX 31004 07190 02558 82710 10160 20130 39949 40129 53016 60016 76198 8698/ 90000 333 60017=
07190,1998-05-31 03:00:00,15,1013,-0,88,13,12000,11.112,,,160,,,,1,,,,,,1,wg-a,,,,AAXX 31034 07190 12662 /1606 10150 20130 39949 40130 55000 60017 70186 81170 90300=
07190,1998-05-31 06:00:00,15,1012.8,-0.1,94,14,12000,7.408,,,180,14.4,21.9,,,,,2,,,40,wg-a,,,,AAXX 31064 07190 02162 71804 10150 20140 39948 40128 56001 60006 74086 8167/ 90600 333 10219 20144 60024=
07190,1998-05-31 09:00:00,18,1012.1,-0.5,83,15,15000,3.704,,,70,,,,,,,,,,,wg-a,,,,AAXX 31094 07190 12465 70702 10180 20150 39943 40121 58005 60006 8223/ 90900=
07190,1998-05-31 12:00:00,21,1010.7,-1.2,73,16,15000,11.112,,,10,,,,,,,,,,,wg-a,,,,AAXX 31124 07190 12565 70106 10210 20160 39931 40107 58012 60006 82231 91200=
07190,1998-05-31 15:00:00,21,1009.5,-1.2,64,14,15000,11.112,,,310,,,,,,,,,,17,wg-a,,,,AAXX 31154 07190 12565 73106 10210 20140 39919 40095 56012 60006 71792 8597/ 91500=
07190,1998-05-31 18:00:00,14,1013.1,3,94,13,8000,11.112,,,190,13.6,21.9,,,,,,,,81,wg-a,,,,AAXX 31184 07190 02358 81906 10140 20130 39949 40131 53030 61000 78198 889// 91800 333 10219 20136 6013=
07190,1998-05-31 21:00:00,14,1014.8,1.7,88,12,15000,7.408,,,240,,,,1,,,,,,21,wg-a,,,,AAXX 31214 07190 12465 72404 10140 20120 39966 40148 53017 60017 72162 878// 92100=
07190,1998-06-01 00:00:00,12,1015.4,0.5,94,11,15000,11.112,,,220,,,,,,,,,,1,wg-a,,,,AAXX 01004 07190 12/65 62206 10120 20110 39971 40154 52005 60016 70162 84031 90000=
07190,1998-06-01 03:00:00,11,1015.7,0.2,100,11,9000,7.408,,,160,,,,,,,,,,,wg-a,,,,AAXX 01034 07190 12759 21604 10110 20110 39973 40157 53002 60006 81531 90300=
07190,1998-06-01 06:00:00,13,1016.6,1,88,11,20000,14.816,,,190,10.5,13.8,,,,,14,,,,wg-a,,,,AAXX 01064 07190 02670 41908 10130 20110 39983 40166 51010 60006 83801 90600 333 10138 20105 60144=
07190,1998-06-01 09:00:00,17,1016.2,-0.1,68,11,500,11.112,,,150,,,,,,,,,,,wg-a,,,,AAXX 01094 07190 12500 41506 10170 20110 39982 40162 58001 60006 84201 90900=
07190,1998-06-01 12:00:00,21,1014.8,-1.2,46,9,500,7.408,,,150,,,,,,,,,,,wg-a,,,,AAXX 01124 07190 12600 41504 10210 20090 39970 40148 58012 60006 83231 91200=
07190,1998-06-01 15:00:00,22,1013.5,-1.2,46,10,500,11.112,,,150,,,,,,,,,,,wg-a,,,,AAXX 01154 07190 12600 51506 10220 20100 39958 40135 57012 60006 82271 91500=
07190,1998-06-01 18:00:00,21,1012.6,-0.9,53,11,500,7.408,,,80,12.5,21.9,,,,,,,,,wg-a,,,,AAXX 01184 07190 12700 /0804 10210 20110 39949 40126 56009 60006 81472 91800 333 10219 20125=
07190,1998-06-01 21:00:00,18,1012.7,-0.1,59,10,20000,3.704,,,40,,,,,,,,,,,wg-a,,,,AAXX 01214 07190 12/70 70402 10180 20100 39948 40127 55001 60006 84032 92100=
07190,1998-06-02 00:00:00,16,1012.4,-0.4,82,13,20000,0,,,0,,,,,,,,,,,wg-a,,,,AAXX 02004 07190 12/70 70000 10160 20130 39944 40124 58004 60006 8703/ 90000=
07190,1998-06-02 03:00:00,15,1011.8,-0.6,94,14,8000,7.408,,,340,,,,0,,,,,,21,wg-a,,,,AAXX 02034 07190 12758 83404 10150 20140 39938 40118 58006 60007 72122 8557/ 90300=
07190,1998-06-02 06:00:00,17,1011.9,0.2,77,13,15000,3.704,,,150,15.1,21,,,,,,,,1,wg-a,,,,AAXX 02064 07190 02665 51502 10170 20130 39940 40119 52002 60006 70162 82882 90600 333 10210 20151 60004=
07190,1998-06-02 09:00:00,21,1011.5,-0.2,60,13,25000,18.52,,,170,,,,,,,,,,,wg-a,,,,AAXX 02094 07190 12675 /1710 10210 20130 39938 40115 57002 60006 82882 90900=
07190,1998-06-02 12:00:00,26,1010.9,-0.3,45,13,25000,18.52,,,230,,,,,,,,,,,wg-a,,,,AAXX 02124 07190 12675 62310 10260 20130 39935 40109 58003 60006 85882 91200=
07190,1998-06-02 15:00:00,26,1010.2,-0.7,42,12,25000,14.816,,,220,,,,,,,,,,,wg-a,,,,AAXX 02154 07190 12775 72208 10260 20120 39928 40102 58007 60006 86831 91500=
07190,1998-06-02 18:00:00,25,1010.1,-0.1,47,13,40000,14.816,,,280,16.7,27.4,,,,,,,,,wg-a,,,,AAXX 02184 07190 12782 72808 10250 20130 39927 40101 55001 60006 86802 91800 333 10274 20167=
07190,1998-06-02 21:00:00,20,1011.4,1,78,16,35000,3.704,,,290,,,,0,,,,,,60,wg-a,,,,AAXX 02214 07190 12781 72902 10200 20160 39937 40114 53010 60007 76062 86802 92100=
07190,1998-06-03 00:00:00,16,1015.6,3.9,88,14,15000,3.704,,,160,,,,8,,,,,,21,wg-a,,,,AAXX 03004 07190 02765 71602 10160 20140 39976 40156 51039 60086 72196 878// 90000 333 60087=
07190,1998-06-03 03:00:00,15,1016.6,0.9,94,14,20000,7.408,,,350,,,,,,,,,,,wg-a,,,,AAXX 03034 07190 12370 33504 10150 20140 39985 40166 53009 60006 83230 90300=
07190,1998-06-03 06:00:00,16,1017.7,1.1,88,14,40000,7.408,,,170,14.1,24.4,,,,,8,,,,wg-a,,,,AAXX 03064 07190 02782 31704 10160 20140 39996 40177 53011 60006 81231 90600 333 10244 20141 60084=
07190,1998-06-03 09:00:00,20,1017.9,0.5,73,15,25000,14.816,,,150,,,,,,,,,,,wg-a,,,,AAXX 03094 07190 12575 51508 10200 20150 30001 40179 51005 60006 84201 90900=
07190,1998-06-03 12:00:00,23,1016.8,-1,57,14,500,14.816,,,180,,,,,,,,,,,wg-a,,,,AAXX 03124 07190 12600 51808 10230 20140 39991 40168 57010 60006 84201 91200=
07190,1998-06-03 15:00:00,23,1015.9,-0.8,53,13,500,11.112,,,180,,,,,,,,,,,wg-a,,,,AAXX 03154 07190 12600 41806 10230 20130 39983 40159 58008 60006 83201 91500=
07190,1998-06-03 18:00:00,22,1016,-0,65,15,500,7.408,,,350,16.3,23.7,,,,,,,,,wg-a,,,,AAXX 03184 07190 12700 63504 10220 20150 39983 40160 55000 60006 84201 91800 333 10237 20163=
07190,1998-06-03 21:00:00,18,1017.4,1.1,73,13,500,3.704,,,300,,,,,,,,,,,wg-a,,,,AAXX 03214 07190 12700 63002 10180 20130 39994 40174 51011 60006 81201 92100=
07190,1998-06-04 00:00:00,15,1018.6,1,88,13,15000,3.704,,,300,,,,,,,,,,,wg-a,,,,AAXX 04004 07190 12765 73002 10150 20130 30004 40186 51010 60006 82572 90000=
07190,1998-06-04 03:00:00,13,1018.9,0.2,88,11,15000,7.408,,,220,,,,,,,,,,,wg-a,,,,AAXX 04034 07190 12765 32204 10130 20110 30006 40189 53002 60006 81101 90300=
07190,1998-06-04 06:00:00,16,1020,1.3,82,13,20000,3.704,,,310,12.4,22,,,,,,,,,wg-a,,,,AAXX 04064 07190 02770 53102 10160 20130 30019 40200 50013 60006 82501 90600 333 10220 20124 60004=
07190,1998-06-04 09:00:00,22,1019.6,0,60,14,25000,3.704,,,50,,,,,,,,,,,wg-a,,,,AAXX 04094 07190 12775 60502 10220 20140 30019 40196 50000 60006 81882 90900=
07190,1998-06-04 12:00:00,26,1018,-1.4,45,13,25000,7.408,,,60,,,,,,,,,,,wg-a,,,,AAXX 04124 07190 12775 50604 10260 20130 30005 40180 58014 60006 81282 91200=
07190,1998-06-04 15:00:00,26,1016.7,-1.3,48,14,35000,14.816,,,350,,,,,,,,,,,wg-a,,,,AAXX 04154 07190 12781 53508 10260 20140 39992 40167 57013 60006 81902 91500=
07190,1998-06-04 18:00:00,24,1016.5,-0.3,57,15,35000,7.408,,,350,15.7,26.6,,,,,,,,,wg-a,,,,AAXX 04184 07190 12781 53504 10240 20150 39989 40165 56003 60006 82882 91800 333 10266 20157=
07190,1998-06-04 21:00:00,19,1017.2,0.4,83,16,35000,11.112,,,340,,,,,,,,,,,wg-a,,,,AAXX 04214 07190 12781 53406 10190 20160 39993 40172 50004 60006 824/2 92100=
07190,1998-06-05 00:00:00,17,1016.5,-0.8,77,13,20000,7.408,,,290,,,,,,,,,,,wg-a,,,,AAXX 05004 07190 12/70 52904 10170 20130 39985 40165 58008 60006 80002 90000=
07190,1998-06-05 03:00:00,15,1015.8,-0.8,88,13,12000,7.408,,,310,,,,,,,,,,,wg-a,,,,AAXX 05034 07190 12/62 53104 10150 20130 39977 40158 56008 60006 80002 90300=
07190,1998-06-05 06:00:00,18,1015.7,0.1,77,14,12000,7.408,,,320,14.9,24.1,,,,,,,,,wg-a,,,,AAXX 05064 07190 02/62 63204 10180 20140 39978 40157 53001 60006 80002 90600 333 10241 20149 60004=
07190,1998-06-05 09:00:00,23,1015.1,-0.3,65,16,15000,3.704,,,110,,,,,,,,,,,wg-a,,,,AAXX 05094 07190 12765 61102 10230 20160 39975 40151 58003 60006 81282 90900=
07190,1998-06-05 12:00:00,28,1013.6,-1.2,55,18,15000,7.408,,,170,,,,,,,,,,,wg-a,,,,AAXX 05124 07190 12765 61704 10280 20180 39963 40136 57012 60006 81282 91200=
07190,1998-06-05 15:00:00,31,1011.7,-1.7,43,17,15000,7.408,,,140,,,,,,,,,,,wg-a,,,,AAXX 05154 07190 12665 /1404 10310 20170 39946 40117 56017 60006 82983 91500=
07190,1998-06-05 18:00:00,29,1011.6,-0.2,58,20,15000,3.704,,,320,18,31.4,,,,,,,,,wg-a,,,,AAXX 05184 07190 12765 73202 10290 20200 39944 40116 57002 60006 81283 91800 333 10314 20180=
07190,1998-06-05 21:00:00,22,1012.4,0.4,83,19,15000,3.704,,,40,,,,,,,,,,,wg-a,,,,AAXX 05214 07190 12/65 40402 10220 20190 39948 40124 50004 60006 80001 92100=
07190,1998-06-06 00:00:00,20,1011.8,-0.7,88,18,15000,3.704,,,250,,,,,,,,,,,wg-a,,,,AAXX 06004 07190 12/65 52502 10200 20180 39941 40118 58007 60006 80002 90000=
07190,1998-06-06 03:00:00,18,1011.8,-0.1,94,17,10000,7.408,,,270,,,,,,,,,,,wg-a,,,,AAXX 06034 07190 12/60 62704 10180 20170 39940 40118 56001 60006 81032 90300=
07190,1998-06-06 06:00:00,20,1012,0.3,83,17,15000,7.408,,,140,18.1,28.9,,,,,,,,,wg-a,,,,AAXX 06064 07190 02/65 61404 10200 20170 39943 40120 53003 60006 80002 90600 333 10289 20181 60004=
07190,1998-06-06 09:00:00,26,1012.3,0.6,58,17,18000,3.704,,,360,,,,,,,,,,,wg-a,,,,AAXX 06094 07190 12/68 73602 10260 20170 39949 40123 52006 60006 83076 90900=
07190,1998-06-06 12:00:00,29,1011.4,-0.7,48,17,18000,3.704,,,110,,,,,,,,,,,wg-a,,,,AAXX 06124 07190 12668 71102 10290 20170 39942 40114 58007 60006 82276 91200=
07190,1998-06-06 15:00:00,30,1010.2,-1.1,55,20,15000,7.408,,,330,,,,,,,,,,,wg-a,,,,AAXX 06154 07190 12665 73304 10300 20200 39931 40102 55011 60006 83983 91500=
07190,1998-06-06 18:00:00,27,1010.1,-0.3,58,18,20000,3.704,,,110,19.7,31,,,,,,,,1,wg-a,,,,AAXX 06184 07190 12770 71102 10270 20180 39928 40101 57003 60006 70192 82983 91800 333 10310 20197=
07190,1998-06-06 21:00:00,21,1011.7,1.3,94,20,8000,3.704,,,210,,,,7,,,,,,95,wg-a,,,,AAXX 06214 07190 12458 82102 10210 20200 39941 40117 53013 60077 79598 8698/ 92100=
07190,1998-06-07 00:00:00,19,1012.6,0.7,94,18,8000,7.408,,,170,,,,5,,,,,,29,wg-a,,,,AAXX 07004 07190 02458 81704 10190 20180 39948 40126 51007 60126 72998 8598/ 90000 333 60057=
07190,1998-06-07 03:00:00,19,1011.7,-0.9,94,18,6000,3.704,,,130,,,,0,,,,,,1,wg-a,,,,AAXX 07034 07190 12556 81302 10190 20180 39939 40117 57009 60007 70162 8487/ 90300=
07190,1998-06-07 06:00:00,18,1012,0.3,94,17,7000,11.112,,,170,18,27.1,,,,,,,,61,wg-a,,,,AAXX 07064 07190 02357 81706 10180 20170 39942 40120 50003 61000 76186 8687/ 90600 333 10271 20180 6016=
07190,1998-06-07 09:00:00,19,1011.7,-0.3,94,18,10000,14.816,,,160,,,,1,,,,,,21,wg-a,,,,AAXX 07094 07190 12360 71608 10190 20180 39939 40117 58003 60017 72162 8687/ 90900=
07190,1998-06-07 12:00:00,22,1010.9,-0.5,83,19,2200,22.224,,,190,,,,,,,,,,95,wg-a,,,,AAXX 07124 07190 02522 61912 10220 20190 39934 40109 57005 60016 79598 85930 91200 333 61000=
07190,1998-06-07 15:00:00,19,1013.3,2.1,83,16,18000,11.112,,,210,,,,7,,,,,,60,wg-a,,,,AAXX 07154 07190 12568 82106 10190 20160 39955 40133 51021 60077 76098 878// 91500=
07190,1998-06-07 18:00:00,18,1014.7,1.3,88,16,6000,11.112,,,210,17.6,23.4,,,,,,,,16,wg-a,,,,AAXX 07184 07190 02456 82106 10180 20160 39968 40147 53013 61000 71698 879// 91800 333 10234 20176 6001=
07190,1998-06-07 21:00:00,15,1017.7,2.8,94,14,15000,3.704,,,120,,,,3,,,,,,21,wg-a,,,,AAXX 07214 07190 12465 81202 10150 20140 39996 40177 51028 60037 72186 8687/ 92100=
07190,1998-06-08 00:00:00,14,1018.5,0.7,94,13,15000,7.408,,,190,,,,0,,,,,,1,wg-a,,,,AAXX 08004 07190 02765 71904 10140 20130 30003 40185 51007 60036 70186 8357/ 90000 333 60007=
07190,1998-06-08 03:00:00,13,1019.3,0.7,94,12,20000,7.408,,,160,,,,,,,,,,,wg-a,,,,AAXX 08034 07190 12670 71604 10130 20120 30010 40193 53007 60006 8587/ 90300=
07190,1998-06-08 06:00:00,15,1020.4,1.2,88,13,20000,11.112,,,200,13,17.5,,,,,13,,,,wg-a,,,,AAXX 08064 07190 02570 72006 10150 20130 30022 40204 53012 60006 8687/ 90600 333 10175 20130 60134=
07190,1998-06-08 09:00:00,17,1021,0.7,72,12,15000,11.112,,,200,,,,,,,,,,80,wg-a,,,,AAXX 08094 07190 02565 72006 10170 20120 30029 40210 51007 61000 78086 86870 90900 333 ////=
07190,1998-06-08 12:00:00,20,1021,0.2,60,12,20000,7.408,,,60,,,,1,,,,,,25,wg-a,,,,AAXX 08124 07190 02670 60604 10200 20120 30031 40210 50002 60016 72586 85860 91200 333 60017=
07190,1998-06-08 15:00:00,21,1019.7,-1.2,56,12,500,3.704,,,130,,,,,,,,,,,wg-a,,,,AAXX 08154 07190 12600 51302 10210 20120 30019 40197 58012 60006 82861 91500=
07190,1998-06-08 18:00:00,21,1018.6,-1.1,56,12,40000,7.408,,,200,14.5,21.3,,,,,,,,,wg-a,,,,AAXX 08184 07190 12682 22004 10210 20120 30008 40186 56011 60006 81201 91800 333 10213 20145=
07190,1998-06-08 21:00:00,16,1020.1,1.2,82,13,500,3.704,,,280,,,,,,,,,,,wg-a,,,,AAXX 08214 07190 12700 /2802 10160 20130 30020 40201 53012 60006 81201 92100=
07190,1998-06-09 03:00:00,12,1019.2,-0.8,100,12,500,3.704,,,190,,,,,,,,,,,wg-a,,,,AAXX 09034 07190 12700 61902 10120 20120 30009 40192 56008 60006 82570 90300=
07190,1998-06-09 06:00:00,15,1018.8,-0.3,88,13,500,11.112,,,160,12,20.8,,,,,1,,,,wg-a,,,,AAXX 09064 07190 02700 71606 10150 20130 30006 40188 56003 60006 81532 90600 333 10208 20120 60014=
07190,1998-06-09 09:00:00,18,1018,-0.6,73,13,500,14.816,,,180,,,,,,,,,,,wg-a,,,,AAXX 09094 07190 12600 71808 10180 20130 30000 40180 58006 60006 8487/ 90900=
07190,1998-06-09 12:00:00,21,1016.4,-1.4,60,13,500,14.816,,,180,,,,,,,,,,,wg-a,,,,AAXX 09124 07190 12700 71808 10210 20130 39986 40164 58014 60006 8557/ 91200=
07190,1998-06-09 15:00:00,23,1013.7,-2.5,61,15,500,14.816,,,180,,,,,,,,,,,wg-a,,,,AAXX 09154 07190 12700 61808 10230 20150 39961 40137 56025 60006 84870 91500=
07190,1998-06-09 18:00:00,21,1012,-1.7,73,16,500,7.408,,,150,14.8,22.8,,,,,,,,,wg-a,,,,AAXX 09184 07190 12700 61504 10210 20160 39944 40120 56017 60006 81432 91800 333 10228 20148=
07190,1998-06-09 21:00:00,19,1011.3,-0.9,83,16,500,7.408,,,190,,,,,,,,,,,wg-a,,,,AAXX 09214 07190 12/00 61904 10190 20160 39935 40113 56009 60006 85032 92100=
07190,1998-06-10 00:00:00,18,1009.6,-1.7,88,16,20000,11.112,,,180,,,,,,,,,,,wg-a,,,,AAXX 10004 07190 12770 71806 10180 20160 39918 40096 57017 60006 8253/ 90000=
07190,1998-06-10 03:00:00,18,1006.7,-2.9,88,16,20000,3.704,,,130,,,,,,,,,,,wg-a,,,,AAXX 10034 07190 12770 71302 10180 20160 39889 40067 56029 60006 8357/ 90300=
07190,1998-06-10 06:00:00,19,1007.1,0.5,83,16,40000,11.112,,,280,17.4,21.4,,,,,,,,,wg-a,,,,AAXX 10064 07190 02682 72806 10190 20160 39894 40071 53005 60006 8387/ 90600 333 10214 20174 60004=
07190,1998-06-10 09:00:00,17,1008.8,1.5,94,16,15000,11.112,,,180,,,,9,,,,,,61,wg-a,,,,AAXX 10094 07190 12565 81806 10170 20160 39909 40088 51015 60097 76186 8597/ 90900=
07190,1998-06-10 12:00:00,18,1008.6,-0.1,88,16,15000,22.224,,,180,,,,2,,,,,,1,wg-a,,,,AAXX 10124 07190 02465 81812 10180 20160 39908 40086 58001 60106 70186 8482/ 91200 333 60027=
07190,1998-06-10 15:00:00,20,1007.5,-0.9,73,15,15000,11.112,,,190,,,,3,,,,,,3,wg-a,,,,AAXX 10154 07190 12565 61906 10200 20150 39899 40075 56009 60037 70386 84832 91500=
07190,1998-06-10 18:00:00,21,1007,-0.5,60,13,500,7.408,,,300,16.3,21.7,,,,,,,,1,wg-a,,,,AAXX 10184 07190 12600 /3004 10210 20130 39894 40070 58005 60006 70186 82832 91800 333 10217 20163=
07190,1998-06-10 21:00:00,16,1007.5,0.2,77,12,500,11.112,,,270,,,,,,,,,,,wg-a,,,,AAXX 10214 07190 12600 62706 10160 20120 39896 40075 52002 60006 84832 92100=
07190,1998-06-11 00:00:00,14,1006.5,-1.1,88,12,25000,7.408,,,240,,,,,,,,,,,wg-a,,,,AAXX 11004 07190 12675 72404 10140 20120 39885 40065 58011 60006 878// 90000=
07190,1998-06-11 03:00:00,14,1005.9,-0.6,94,13,20000,7.408,,,160,,,,0,,,,,,3,wg-a,,,,AAXX 11034 07190 12570 71604 10140 20130 39879 40059 57006 60007 70386 878// 90300=
07190,1998-06-11 06:00:00,14,1006.2,0.3,94,13,20000,7.408,,,180,13.6,20.2,,,,,,,,21,wg-a,,,,AAXX 11064 07190 02570 71804 10140 20130 39882 40062 53003 61000 72186 8683/ 90600 333 10202 20136 6014=
07190,1998-06-11 09:00:00,13,1006.3,0,88,11,10000,11.112,,,150,,,,2,,,,,,25,wg-a,,,,AAXX 11094 07190 12460 /1506 10130 20110 39882 40063 50000 60027 72586 85900 90900=
07190,1998-06-11 12:00:00,18,1005.9,-0.1,59,10,18000,14.816,,,240,,,,0,,,,,,17,wg-a,,,,AAXX 11124 07190 02568 62408 10180 20100 39881 40059 55001 60026 71798 86900 91200 333 60007=
07190,1998-06-11 15:00:00,19,1005.3,-0.5,49,8,50000,14.816,,,240,,,,,,,,,,,wg-a,,,,AAXX 11154 07190 12684 52408 10190 20080 39876 40053 56005 60006 85800 91500=
07190,1998-06-11 18:00:00,17,1006.5,1,55,8,500,22.224,,,260,12.6,19.4,,,,,,,,3,wg-a,,,,AAXX 11184 07190 02600 72612 10170 20080 39886 40065 53010 60006 70386 85802 91800 333 10194 20126 61000=
07190,1998-06-11 21:00:00,13,1008.7,1.9,77,9,25000,7.408,,,280,,,,,,,,,,,wg-a,,,,AAXX 11214 07190 12575 72804 10130 20090 39905 40087 51019 60006 83832 92100=
07190,1998-06-12 00:00:00,12,1009.3,0.6,82,9,20000,7.408,,,270,,,,,,,,,,,wg-a,,,,AAXX 12004 07190 12570 72704 10120 20090 39911 40093 51006 60006 878// 90000=
07190,1998-06-12 03:00:00,12,1009.7,0.4,76,8,15000,11.112,,,230,,,,,,,,,,,wg-a,,,,AAXX 12034 07190 12565 82306 10120 20080 39915 40097 51004 60006 878// 90300=
07190,1998-06-12 06:00:00,12,1011.3,1.5,82,9,10000,14.816,,,260,11.6,16.5,,,,,,,,21,wg-a,,,,AAXX 12064 07190 02460 82608 10120 20090 39930 40113 53015 61000 72165 888// 90600 333 10165 20116 6003=
07190,1998-06-12 09:00:00,13,1013.3,2.1,72,8,20000,14.816,,,310,,,,,,,,,,,wg-a,,,,AAXX 12094 07190 12470 83108 10130 20080 39951 40133 53021 60006 878// 90900=
07190,1998-06-12 12:00:00,14,1015.5,2.2,63,7,20000,22.224,,,290,,,,,,,,,,,wg-a,,,,AAXX 12124 07190 12570 82912 10140 20070 39973 40155 51022 60006 878// 91200=
07190,1998-06-12 15:00:00,13,1017.7,2.1,72,8,20000,14.816,,,280,,,,,,,,,,,wg-a,,,,AAXX 12154 07190 12570 72808 10130 20080 39994 40177 53021 60006 8687/ 91500=
07190,1998-06-12 18:00:00,13,1018.5,0.8,67,7,15000,18.52,,,260,11.4,14.7,,1,,,,,,3,wg-a,,,,AAXX 12184 07190 02665 62610 10130 20070 30002 40185 52008 60006 70386 86800 91800 333 10147 20114 60017=
07190,1998-06-12 21:00:00,9,1021,2.2,81,6,20000,7.408,,,260,,,,0,,,,,,1,wg-a,,,,AAXX 12214 07190 12670 32604 10090 20060 30024 40210 51022 60007 70186 82830 92100=
07190,1998-06-13 00:00:00,7,1021.9,0.7,93,6,20000,7.408,,,240,,,,,,,,,,1,wg-a,,,,AAXX 13004 07190 12770 32404 10070 20060 30031 40219 51007 60006 70186 82530 90000=
07190,1998-06-13 03:00:00,7,1021.4,-0.5,93,6,20000,0,,,0,,,,,,,,,,,wg-a,,,,AAXX 13034 07190 12670 30000 10070 20060 30026 40214 58005 60006 83500 90300=
07190,1998-06-13 06:00:00,9,1021.1,-0.1,87,7,12000,7.408,,,210,6.5,13,,,,,1,,,,wg-a,,,,AAXX 13064 07190 02562 /2104 10090 20070 30025 40211 58001 60006 81800 90600 333 10130 20065 60014=
07190,1998-06-13 12:00:00,17,1018.4,-1.3,42,4,20000,7.408,,,130,,,,,,,,,,,wg-a,,,,AAXX 13124 07190 12770 61304 10170 20040 30003 40184 58013 60006 86400 91200=
07190,1998-06-13 15:00:00,18,1016.4,-1.9,42,5,20000,7.408,,,220,,,,,,,,,,,wg-a,,,,AAXX 13154 07190 12770 52204 10180 20050 39984 40164 58019 60006 85400 91500=
07190,1998-06-13 18:00:00,17,1015.1,-1.3,48,6,500,3.704,,,180,9.1,18.4,,,,,,,,,wg-a,,,,AAXX 13184 07190 12700 41802 10170 20060 39971 40151 56013 60006 84400 91800 333 10184 20091=
07190,1998-06-13 21:00:00,12,1014.5,-0.9,76,8,20000,7.408,,,120,,,,,,,,,,,wg-a,,,,AAXX 13214 07190 12/70 31204 10120 20080 39962 40145 57009 60006 82031 92100=
07190,1998-06-14 00:00:00,11,1014,-0.6,82,8,20000,3.704,,,200,,,,,,,,,,,wg-a,,,,AAXX 14004 07190 12/70 72002 10110 20080 39956 40140 57006 60006 8707/ 90000=
07190,1998-06-14 03:00:00,10,1013.3,-0.7,93,9,12000,3.704,,,150,,,,0,,,,,,21,wg-a,,,,AAXX 14034 07190 12762 81502 10100 20090 39949 40133 56007 60007 72162 8257/ 90300=
07190,1998-06-14 06:00:00,11,1013,-0.2,94,10,10000,11.112,,,160,9.6,17,,,,,,,,21,wg-a,,,,AAXX 14064 07190 02660 81606 10110 20100 39947 40130 57002 61000 72162 8657/ 90600 333 10170 20096 6001=
07190,1998-06-14 09:00:00,15,1012.9,0.1,82,12,12000,14.816,,,190,,,,,,,,,,21,wg-a,,,,AAXX 14094 07190 02562 71908 10150 20120 39948 40129 53001 61000 72162 8587/ 90900 333 ////=
07190,1998-06-14 12:00:00,15,1012.9,-0,88,13,20000,14.816,,,310,,,,8,,,,,,81,wg-a,,,,AAXX 14124 07190 02570 73108 10150 20130 39948 40129 55000 60086 78186 878// 91200 333 60087=
07190,1998-06-14 15:00:00,17,1012.3,-0.4,77,13,500,7.408,,,120,,,,2,,,,,,1,wg-a,,,,AAXX 14154 07190 12600 71204 10170 20130 39944 40123 56004 60027 70186 87800 91500=
07190,1998-06-14 18:00:00,16,1012,-0.4,82,13,25000,7.408,,,90,10.9,17.9,,,,,,,,25,wg-a,,,,AAXX 14184 07190 02675 60904 10160 20130 39940 40120 58004 61000 72586 84930 91800 333 10179 20109 6001=
07190,1998-06-15 00:00:00,12,1013.7,0.4,94,11,15000,7.408,,,180,,,,,,,,,,3,wg-a,,,,AAXX 15004 07190 12665 71804 10120 20110 39954 40137 51004 60016 70386 878// 90000=
07190,1998-06-15 03:00:00,12,1013.3,-0.4,94,11,15000,3.704,,,170,,,,0,,,,,,25,wg-a,,,,AAXX 15034 07190 12565 81702 10120 20110 39950 40133 58004 60007 72586 878// 90300=
07190,1998-06-15 06:00:00,13,1013.8,0.6,94,12,10000,11.112,,,210,11.6,16.4,,,,,,,,25,wg-a,,,,AAXX 15064 07190 02560 /2106 10130 20120 39956 40138 50006 61000 72586 86800 90600 333 10164 20116 6013=
07190,1998-06-15 09:00:00,17,1013.5,-0.1,63,10,15000,11.112,,,240,,,,,,,,,,,wg-a,,,,AAXX 15094 07190 12565 52406 10170 20100 39955 40135 58001 60006 85900 90900=
07190,1998-06-15 12:00:00,19,1012.6,-0.7,64,12,500,18.52,,,180,,,,0,,,,,,1,wg-a,,,,AAXX 15124 07190 02600 51810 10190 20120 39948 40126 58007 60006 70186 85900 91200 333 60007=
07190,1998-06-15 15:00:00,19,1013.1,0.4,52,9,15000,22.224,,,260,,,,1,,,,,,17,wg-a,,,,AAXX 15154 07190 12665 52612 10190 20090 39952 40131 50004 60017 71798 85903 91500=
07190,1998-06-15 18:00:00,17,1013.4,0.3,63,10,40000,11.112,,,200,13.1,19.6,,,,,,,,1,wg-a,,,,AAXX 15184 07190 12682 52006 10170 20100 39955 40134 53003 60006 70198 85903 91800 333 10196 20131=
07190,1998-06-15 21:00:00,14,1015.4,1.7,77,10,500,14.816,,,210,,,,,,,,,,,wg-a,,,,AAXX 15214 07190 12600 42108 10140 20100 39972 40154 52017 60006 83203 92100=
07190,1998-06-16 00:00:00,13,1016.5,1,88,11,20000,7.408,,,130,,,,,,,,,,21,wg-a,,,,AAXX 16004 07190 02670 71304 10130 20110 39982 40165 52010 61000 72161 878// 90000 333 6100=
07190,1998-06-16 03:00:00,12,1016.7,0.2,94,11,12000,11.112,,,190,,,,2,,,,,,80,wg-a,,,,AAXX 16034 07190 12562 81906 10120 20110 39984 40167 53002 60027 78086 888// 90300=
07190,1998-06-16 06:00:00,13,1017.9,1.2,94,12,10000,7.408,,,180,12.2,17.3,,,,,4,,,1,wg-a,,,,AAXX 16064 07190 02460 61804 10130 20120 39996 40179 52012 60006 70186 85830 90600 333 10173 20122 60044=
07190,1998-06-16 09:00:00,17,1018.8,1.1,68,11,18000,25.928,,,250,,,,,,,,,,3,wg-a,,,,AAXX 16094 07190 02468 72514 10170 20110 30007 40188 51011 61000 70386 86830 90900 333 ////=
07190,1998-06-16 12:00:00,18,1019.1,0.4,59,10,25000,22.224,,,250,,,,,,,,,,1,wg-a,,,,AAXX 16124 07190 02575 72512 10180 20100 30011 40191 51004 61000 70186 86890 91200 333 6100=
07190,1998-06-16 15:00:00,16,1020.8,1.5,68,10,15000,18.52,,,250,,,,0,,,,,,80,wg-a,,,,AAXX 16154 07190 12565 72510 10160 20100 30026 40208 53015 60007 78086 86990 91500=
07190,1998-06-16 18:00:00,15,1021.9,1.1,82,12,20000,14.816,,,190,13.2,19.2,,0,,,,,,1,wg-a,,,,AAXX 16184 07190 02670 71908 10150 20120 30037 40219 53011 60006 70186 86830 91800 333 10192 20132 60007=
07190,1998-06-16 21:00:00,13,1024.3,2.2,88,11,12000,11.112,,,230,,,,2,,,,,,3,wg-a,,,,AAXX 16214 07190 12562 72306 10130 20110 30059 40243 51022 60027 70386 878// 92100=
07190,1998-06-17 00:00:00,12,1024.8,0.4,94,11,10000,7.408,,,190,,,,1,,,,,,1,wg-a,,,,AAXX 17004 07190 02660 71904 10120 20110 30063 40248 52004 60026 70186 878// 90000 333 60017=
07190,1998-06-17 03:00:00,11,1025.3,0.5,94,10,15000,7.408,,,190,,,,,,,,,,,wg-a,,,,AAXX 17034 07190 12665 /1904 10110 20100 30068 40253 53005 60006 86800 90300=
07190,1998-06-17 06:00:00,12,1026.3,1,88,10,20000,11.112,,,200,10.8,15.2,,,,,3,,,,wg-a,,,,AAXX 17064 07190 02670 /2006 10120 20100 30078 40263 53010 60006 86800 90600 333 10152 20108 60034=
07190,1998-06-17 09:00:00,17,1026.5,0.5,55,8,20000,18.52,,,250,,,,,,,,,,,wg-a,,,,AAXX 17094 07190 12570 /2510 10170 20080 30083 40265 50005 60006 84231 90900=
07190,1998-06-17 12:00:00,19,1026.1,-0.3,52,9,500,11.112,,,330,,,,0,,,,,,,wg-a,,,,AAXX 17124 07190 02600 73306 10190 20090 30080 40261 56003 60006 85801 91200 333 60007=
07190,1998-06-17 15:00:00,20,1025.5,-0.5,46,8,500,14.816,,,270,,,,,,,,,,,wg-a,,,,AAXX 17154 07190 12600 72708 10200 20080 30075 40255 56005 60006 83802 91500=
07190,1998-06-17 18:00:00,19,1025.3,-0.3,52,9,500,14.816,,,260,12.2,19.9,,,,,,,,,wg-a,,,,AAXX 17184 07190 12600 72608 10190 20090 30072 40253 55003 60006 83802 91800 333 10199 20122=
07190,1998-06-17 21:00:00,15,1026.4,0.9,82,12,20000,3.704,,,310,,,,,,,,,,,wg-a,,,,AAXX 17214 07190 12770 73102 10150 20120 30081 40264 51009 60006 85572 92100=
07190,1998-06-18 00:00:00,13,1026.6,0.1,94,12,10000,7.408,,,210,,,,,,,,,,,wg-a,,,,AAXX 18004 07190 12/60 /2104 10130 20120 30082 40266 52001 60006 90000=
07190,1998-06-18 03:00:00,13,1026.3,-0.4,94,12,15000,3.704,,,170,,,,,,,,,,,wg-a,,,,AAXX 18034 07190 12765 71702 10130 20120 30078 40263 56004 60006 82572 90300=
07190,1998-06-18 06:00:00,13,1026.4,0.2,88,11,25000,7.408,,,170,12.4,18.6,,,,,,,,,wg-a,,,,AAXX 18064 07190 02775 71704 10130 20110 30080 40264 53002 60006 81532 90600 333 10186 20124 60004=
07190,1998-06-18 09:00:00,19,1026.1,0,60,11,20000,11.112,,,170,,,,,,,,,,,wg-a,,,,AAXX 18094 07190 12670 71706 10190 20110 30080 40261 50000 60006 81132 90900=
07190,1998-06-18 12:00:00,21,1025.6,-0.4,46,9,20000,11.112,,,280,,,,,,,,,,,wg-a,,,,AAXX 18124 07190 12770 72806 10210 20090 30076 40256 56004 60006 874// 91200=
07190,1998-06-18 15:00:00,22,1024.9,-0.6,50,11,11000,3.704,,,320,,,,,,,,,,,wg-a,,,,AAXX 18154 07190 12/61 /3202 10220 20110 30070 40249 56006 60006 91500=
07190,1998-06-18 18:00:00,21,1024.8,-0.1,53,11,40000,0,,,0,13.2,22.7,,,,,,,,,wg-a,,,,AAXX 18184 07190 12782 70000 10210 20110 30069 40248 55001 60006 85831 91800 333 10227 20132=
07190,1998-06-18 21:00:00,16,1026,0.9,77,12,500,3.704,,,300,,,,,,,,,,,wg-a,,,,AAXX 18214 07190 12700 23002 10160 20120 30078 40260 53009 60006 82801 92100=
07190,1998-06-19 00:00:00,12,1025.7,-0.6,94,11,20000,7.408,,,210,,,,,,,,,,,wg-a,,,,AAXX 19004 07190 12870 22104 10120 20110 30072 40257 58006 60006 81501 90000=
07190,1998-06-19 03:00:00,11,1025.5,-0.3,94,10,12000,0,,,0,,,,,,,,,,11,wg-a,,,,AAXX 19034 07190 12862 20000 10110 20100 30069 40255 56003 60006 71100 82501 90300=
07190,1998-06-19 06:00:00,14,1025.6,0.3,88,12,25000,3.704,,,210,10.6,21.4,,,,,,,,,wg-a,,,,AAXX 19064 07190 02/75 52102 10140 20120 30072 40256 51003 60006 80001 90600 333 10214 20106 60004=
07190,1998-06-19 09:00:00,21,1024.8,-0.3,64,14,25000,7.408,,,180,,,,,,,,,,,wg-a,,,,AAXX 19094 07190 12675 41804 10210 20140 30069 40248 58003 60006 81132 90900=
07190,1998-06-19 12:00:00,25,1024.1,-0.5,47,13,25000,7.408,,,30,,,,,,,,,,,wg-a,,,,AAXX 19124 07190 12775 /0304 10250 20130 30064 40241 58005 60006 81232 91200=
07190,1998-06-19 15:00:00,26,1023.1,-0.9,45,13,25000,7.408,,,320,,,,,,,,,,,wg-a,,,,AAXX 19154 07190 12775 33204 10260 20130 30055 40231 58009 60006 81232 91500=
07190,1998-06-19 18:00:00,25,1022.6,-0.5,50,14,25000,7.408,,,360,13.6,26.2,,,,,,,,,wg-a,,,,AAXX 19184 07190 12775 33604 10250 20140 30050 40226 56005 60006 81202 91800 333 10262 20136=
07190,1998-06-19 21:00:00,19,1023.4,0.4,78,15,25000,3.704,,,260,,,,,,,,,,,wg-a,,,,AAXX 19214 07190 12/75 12602 10190 20150 30054 40234 53004 60006 80002 92100=
07190,1998-06-20 00:00:00,16,1023.3,-0.3,94,15,25000,3.704,,,70,,,,,,,,,,,wg-a,,,,AAXX 20004 07190 12/75 10702 10160 20150 30051 40233 58003 60006 80001 90000=
07190,1998-06-20 03:00:00,14,1023.5,0.1,94,13,15000,3.704,,,300,,,,,,,,,,,wg-a,,,,AAXX 20034 07190 12/65 13002 10140 20130 30052 40235 53001 60006 80001 90300=
07190,1998-06-20 06:00:00,18,1024.1,0.8,83,15,15000,7.408,,,340,13.9,25.3,,,,,,,,,wg-a,,,,AAXX 20064 07190 02/65 53404 10180 20150 30060 40241 53008 60006 80001 90600 333 10253 20139 60004=
07190,1998-06-20 09:00:00,23,1023.4,-0.3,65,16,18000,3.704,,,90,,,,,,,,,,,wg-a,,,,AAXX 20094 07190 12/68 50902 10230 20160 30057 40234 58003 60006 80001 90900=
07190,1998-06-20 12:00:00,28,1022,-1.2,42,14,20000,3.704,,,110,,,,,,,,,,,wg-a,,,,AAXX 20124 07190 12670 /1102 10280 20140 30045 40220 58012 60006 81101 91200=
07190,1998-06-20 15:00:00,30,1020.7,-1.1,33,12,500,7.408,,,190,,,,,,,,,,,wg-a,,,,AAXX 20154 07190 12700 41904 10300 20120 30034 40207 56011 60006 81101 91500=
07190,1998-06-20 18:00:00,28,1020.7,-0.1,55,18,500,7.408,,,10,17.5,30.4,,,,,,,,,wg-a,,,,AAXX 20184 07190 12700 /0104 10280 20180 30033 40207 55001 60006 81101 91800 333 10304 20175=
07190,1998-06-20 21:00:00,21,1021.4,0.3,78,17,20000,3.704,,,310,,,,,,,,,,,wg-a,,,,AAXX 20214 07190 12/70 63102 10210 20170 30036 40214 53003 60006 80001 92100=
07190,1998-06-21 00:00:00,19,1021.4,-0.2,83,16,20000,3.704,,,230,,,,,,,,,,,wg-a,,,,AAXX 21004 07190 12/70 32302 10190 20160 30034 40214 58002 60006 80001 90000=
07190,1998-06-21 03:00:00,16,1021.2,-0.3,94,15,12000,7.408,,,220,,,,,,,,,,,wg-a,,,,AAXX 21034 07190 12/62 32204 10160 20150 30031 40212 56003 60006 81031 90300=
07190,1998-06-21 06:00:00,20,1021.2,0.2,83,17,20000,7.408,,,210,16,28.1,,,,,,,,,wg-a,,,,AAXX 21064 07190 02/70 22104 10200 20170 30033 40212 51002 60006 80001 90600 333 10281 20160 60004=
07190,1998-06-21 09:00:00,26,1020.4,-0.4,61,18,20000,11.112,,,170,,,,,,,,,,,wg-a,,,,AAXX 21094 07190 12/70 31706 10260 20180 30029 40204 57004 60006 80001 90900=
07190,1998-06-21 12:00:00,31,1019.1,-1,46,18,20000,14.816,,,200,,,,,,,,,,,wg-a,,,,AAXX 21124 07190 12/70 32008 10310 20180 30019 40191 58010 60006 80001 91200=
07190,1998-06-21 15:00:00,32,1017.2,-1.8,41,17,20000,11.112,,,150,,,,,,,,,,,wg-a,,,,AAXX 21154 07190 12/70 51506 10320 20170 30001 40172 56018 60006 80001 91500=
07190,1998-06-21 18:00:00,30,1017.1,-0.2,49,18,20000,11.112,,,310,19.6,32.2,,,,,,,,,wg-a,,,,AAXX 21184 07190 12/70 53106 10300 20180 39999 40171 55002 60006 80002 91800 333 10322 20196=
07190,1998-06-21 21:00:00,24,1017.8,0.3,57,15,20000,3.704,,,240,,,,,,,,,,,wg-a,,,,AAXX 21214 07190 12/70 62402 10240 20150 30002 40178 53003 60006 83032 92100=
07190,1998-06-22 00:00:00,22,1019.2,1.3,69,16,10000,3.704,,,140,,,,,,,,,,80,wg-a,,,,AAXX 22004 07190 02760 81402 10220 20160 30015 40192 51013 61000 78086 8587/ 90000 333 6100=
07190,1998-06-22 03:00:00,23,1019.6,0.4,73,18,10000,25.928,,,250,,,,1,,,,,,1,wg-a,,,,AAXX 22034 07190 12660 52514 10230 20180 30019 40196 53004 60017 70186 81281 90300=
07190,1998-06-22 06:00:00,21,1022.4,2.6,56,12,15000,14.816,,,290,20.7,30.1,,,,,1,,,1,wg-a,,,,AAXX 22064 07190 02565 42908 10210 20120 30045 40224 53026 60006 70186 83830 90600 333 10301 20207 60014=
07190,1998-06-22 09:00:00,22,1023.6,1.3,41,8,40000,14.816,,,300,,,,,,,,,,,wg-a,,,,AAXX 22094 07190 12882 13008 10220 20080 30058 40236 51013 60006 81431 90900=
07190,1998-06-22 12:00:00,24,1022.9,-0.6,44,11,60000,18.52,,,330,,,,,,,,,,,wg-a,,,,AAXX 22124 07190 12886 33310 10240 20110 30052 40229 58006 60006 82101 91200=
07190,1998-06-22 15:00:00,24,1022.1,-0.8,44,11,60000,14.816,,,310,,,,,,,,,,,wg-a,,,,AAXX 22154 07190 12786 33108 10240 20110 30044 40221 56008 60006 82101 91500=
07190,1998-06-22 18:00:00,22,1021.9,-0.3,46,10,40000,11.112,,,340,20.3,24.7,,,,,,,,,wg-a,,,,AAXX 22184 07190 12782 23406 10220 20100 30041 40219 55003 60006 82130 91800 333 10247 20203=
07190,1998-06-22 21:00:00,18,1023.5,1.3,68,12,500,7.408,,,300,,,,,,,,,,,wg-a,,,,AAXX 22214 07190 12700 33004 10180 20120 30054 40235 51013 60006 82530 92100=
07190,1998-06-23 00:00:00,14,1023.8,0.1,82,11,500,3.704,,,290,,,,,,,,,,,wg-a,,,,AAXX 23004 07190 12700 22902 10140 20110 30055 40238 50001 60006 82530 90000=
07190,1998-06-23 03:00:00,12,1023.2,-0.7,88,10,20000,0,,,0,,,,,,,,,,,wg-a,,,,AAXX 23034 07190 12770 10000 10120 20100 30048 40232 56007 60006 81100 90300=
07190,1998-06-23 06:00:00,16,1023.3,0.3,72,11,500,0,,,0,11.6,22.2,,,,,,,,,wg-a,,,,AAXX 23064 07190 02700 20000 10160 20110 30051 40233 51003 60006 81531 90600 333 10222 20116 60004=
07190,1998-06-23 09:00:00,21,1022.4,-0.6,53,11,500,3.704,,,310,,,,,,,,,,,wg-a,,,,AAXX 23094 07190 12600 53102 10210 20110 30045 40224 58006 60006 83831 90900=
07190,1998-06-23 12:00:00,23,1020.8,-1.5,44,10,500,7.408,,,20,,,,,,,,,,,wg-a,,,,AAXX 23124 07190 12700 70204 10230 20100 30030 40208 57015 60006 86831 91200=
07190,1998-06-23 15:00:00,23,1019.1,-1.6,47,11,500,7.408,,,340,,,,,,,,,,,wg-a,,,,AAXX 23154 07190 12700 73404 10230 20110 30014 40191 58016 60006 85831 91500=
07190,1998-06-23 18:00:00,24,1018.5,-0.6,47,12,500,3.704,,,350,15.7,24.3,,,,,,,,,wg-a,,,,AAXX 23184 07190 12700 73502 10240 20120 30008 40185 56006 60006 82431 91800 333 10243 20157=
07190,1998-06-23 21:00:00,18,1018.9,0.1,68,12,20000,3.704,,,280,,,,,,,,,,,wg-a,,,,AAXX 23214 07190 12/70 72802 10180 20120 30009 40189 53001 60006 82031 92100=
07190,1998-06-24 00:00:00,17,1018.6,-0.4,77,13,20000,7.408,,,310,,,,,,,,,,61,wg-a,,,,AAXX 24004 07190 02770 83104 10170 20130 30005 40186 58004 61000 76162 83532 90000 333 6100=
07190,1998-06-24 03:00:00,17,1017.7,-0.8,82,14,15000,3.704,,,220,,,,,,,,,,1,wg-a,,,,AAXX 24034 07190 02765 72202 10170 20140 39997 40177 58008 61000 70162 8553/ 90300 333 ////=
07190,1998-06-24 06:00:00,18,1017.4,-0.2,73,13,20000,0,,,0,16.1,23.5,,,,,,,,1,wg-a,,,,AAXX 24064 07190 02/70 30000 10180 20130 39995 40174 55002 60006 70161 80001 90600 333 10235 20161 61000=
07190,1998-06-24 09:00:00,22,1016.7,-0.5,57,13,25000,7.408,,,90,,,,,,,,,,,wg-a,,,,AAXX 24094 07190 12675 /0904 10220 20130 39990 40167 58005 60006 82102 90900=
07190,1998-06-24 12:00:00,24,1015.4,-1.2,50,13,500,7.408,,,30,,,,,,,,,,,wg-a,,,,AAXX 24124 07190 12600 40304 10240 20130 39978 40154 58012 60006 82131 91200=
07190,1998-06-24 15:00:00,26,1013.7,-1.3,48,14,35000,7.408,,,350,,,,,,,,,,,wg-a,,,,AAXX 24154 07190 32781 43504 10260 20140 39963 40137 58013 81132 91500=
07190,1998-06-24 18:00:00,25,1013,-1.4,54,15,35000,11.112,,,20,18.2,26.1,,,,,,,,,wg-a,,,,AAXX 24184 07190 12781 60206 10250 20150 39955 40130 56014 60006 81182 91800 333 10261 20182=
07190,1998-06-24 21:00:00,20,1013.5,0.2,73,15,500,7.408,,,350,,,,,,,,,,,wg-a,,,,AAXX 24214 07190 12/00 33504 10200 20150 39957 40135 50002 60006 81032 92100=
07190,1998-06-25 00:00:00,16,1013.2,-0.5,88,14,20000,3.704,,,340,,,,,,,,,,,wg-a,,,,AAXX 25004 07190 12/70 03402 10160 20140 39952 40132 57005 60006 80000 90000=
07190,1998-06-25 03:00:00,14,1012.3,-1,94,13,20000,0,,,0,,,,,,,,,,,wg-a,,,,AAXX 25034 07190 12/70 10000 10140 20130 39942 40123 56010 60006 81030 90300=
07190,1998-06-25 06:00:00,18,1012.3,0.3,83,15,11000,3.704,,,120,14,24.5,,,,,,,,,wg-a,,,,AAXX 25064 07190 02/61 11202 10180 20150 39945 40123 51003 60006 80001 90600 333 10245 20140 60004=
07190,1998-06-25 09:00:00,24,1011.9,-0.1,65,17,20000,11.112,,,180,,,,,,,,,,,wg-a,,,,AAXX 25094 07190 12770 51806 10240 20170 39944 40119 58001 60006 82831 90900=
07190,1998-06-25 12:00:00,29,1011.1,-0.5,48,17,20000,3.704,,,120,,,,,,,,,,,wg-a,,,,AAXX 25124 07190 12770 51202 10290 20170 39939 40111 57005 60006 83201 91200=
07190,1998-06-25 15:00:00,24,1012.6,1.2,50,13,20000,22.224,,,320,,,,,,,,,,17,wg-a,,,,AAXX 25154 07190 12670 73212 10240 20130 39951 40126 53012 60006 71792 83982 91500=
07190,1998-06-25 18:00:00,20,1013.8,1,64,13,500,14.816,,,350,18.1,29.1,,,,,,,,3,wg-a,,,,AAXX 25184 07190 02600 73508 10200 20130 39961 40138 53010 60006 70396 8486/ 91800 333 10291 20181 61000=
07190,1998-06-25 21:00:00,20,1015.7,1.8,73,15,25000,3.704,,,60,,,,,,,,,,,wg-a,,,,AAXX 25214 07190 12675 70602 10200 20150 39979 40157 51018 60006 875// 92100=
07190,1998-06-26 00:00:00,19,1016,0.2,83,16,20000,7.408,,,270,,,,,,,,,,,wg-a,,,,AAXX 26004 07190 12670 82704 10190 20160 39981 40160 51002 60006 878// 90000=
07190,1998-06-26 03:00:00,17,1015.9,-0.1,94,16,10000,0,,,0,,,,2,,,,,,61,wg-a,,,,AAXX 26034 07190 12560 80000 10170 20160 39980 40159 58001 60027 76162 888// 90300=
07190,1998-06-26 06:00:00,17,1016,0.1,94,16,12000,0,,,0,17,20.4,,,,,3,,,3,wg-a,,,,AAXX 26064 07190 02462 70000 10170 20160 39981 40160 50001 60006 70362 8587/ 90600 333 10204 20170 60034=
07190,1998-06-26 09:00:00,19,1015.9,0,83,16,8000,0,,,0,,,,,,,,,,61,wg-a,,,,AAXX 26094 07190 02458 80000 10190 20160 39981 40159 50000 61000 76162 8587/ 90900 333 ////=
07190,1998-06-26 12:00:00,22,1015.3,-0.5,69,16,10000,3.704,,,170,,,,2,,,,,,1,wg-a,,,,AAXX 26124 07190 02460 71702 10220 20160 39976 40153 58005 60026 70162 83872 91200 333 60027=
07190,1998-06-26 15:00:00,22,1014.4,-0.8,73,17,12000,7.408,,,180,,,,,,,,,,,wg-a,,,,AAXX 26154 07190 12562 81804 10220 20170 39968 40144 56008 60006 8587/ 91500=
07190,1998-06-26 18:00:00,21,1014.5,-0,73,16,12000,14.816,,,280,17.3,22.3,,,,,,,,,wg-a,,,,AAXX 26184 07190 12562 72808 10210 20160 39968 40145 55000 60006 86802 91800 333 10223 20173=
07190,1998-06-26 21:00:00,19,1014.9,0.2,83,16,12000,0,,,0,,,,,,,,,,,wg-a,,,,AAXX 26214 07190 12762 70000 10190 20160 39970 40149 52002 60006 86502 92100=
07190,1998-06-27 00:00:00,18,1015,0.1,94,17,15000,3.704,,,340,,,,,,,,,,,wg-a,,,,AAXX 27004 07190 12765 73402 10180 20170 39971 40150 51001 60006 875// 90000=
07190,1998-06-27 03:00:00,17,1014.2,-0.8,94,16,8000,3.704,,,310,,,,,,,,,,,wg-a,,,,AAXX 27034 07190 12658 83102 10170 20160 39963 40142 56008 60006 8657/ 90300=
07190,1998-06-27 06:00:00,18,1014.6,0.4,94,17,9000,7.408,,,300,16.5,21.4,,,,,2,,,,wg-a,,,,AAXX 27064 07190 02659 /3004 10180 20170 39967 40146 52004 60006 83830 90600 333 10214 20165 60024=
07190,1998-06-27 09:00:00,22,1014.3,0,69,16,18000,11.112,,,180,,,,,,,,,,,wg-a,,,,AAXX 27094 07190 12568 /1806 10220 20160 39967 40143 50000 60006 83831 90900=
07190,1998-06-27 12:00:00,24,1013.4,-0.8,57,15,25000,7.408,,,200,,,,,,,,,,,wg-a,,,,AAXX 27124 07190 12675 72004 10240 20150 39959 40134 57008 60006 84836 91200=
07190,1998-06-27 15:00:00,26,1011.5,-1.7,58,17,25000,7.408,,,180,,,,,,,,,,,wg-a,,,,AAXX 27154 07190 12675 51804 10260 20170 39942 40115 58017 60006 82802 91500=
07190,1998-06-27 18:00:00,20,1011.1,-0.8,78,16,12000,7.408,,,320,18.1,27,,0,,,,,,29,wg-a,,,,AAXX 27184 07190 02662 43204 10200 20160 39934 40111 55008 60006 72998 83380 91800 333 10270 20181 60007=
07190,1998-06-27 21:00:00,19,1012.6,1.4,94,18,12000,11.112,,,150,,,,2,,,,,,1,wg-a,,,,AAXX 27214 07190 12562 71506 10190 20180 39948 40126 53014 60027 70186 864// 92100=
07190,1998-06-28 00:00:00,18,1013.4,0.7,94,17,10000,11.112,,,180,,,,4,,,,,,,wg-a,,,,AAXX 28004 07190 02760 51806 10180 20170 39955 40134 53007 60066 84460 90000 333 60047=
07190,1998-06-28 03:00:00,16,1015.5,2,94,15,12000,7.408,,,250,,,,4,,,,,,,wg-a,,,,AAXX 28034 07190 12562 72504 10160 20150 39975 40155 53020 60047 8646/ 90300=
07190,1998-06-28 06:00:00,16,1017.9,2.3,82,13,15000,7.408,,,210,15.1,20.2,,,,,,,,21,wg-a,,,,AAXX 28064 07190 02565 72104 10160 20130 39998 40179 51023 61000 72186 8587/ 90600 333 10202 20151 6010=
07190,1998-06-28 09:00:00,19,1018.7,1,68,13,15000,11.112,,,220,,,,,,,,,,,wg-a,,,,AAXX 28094 07190 12565 62206 10190 20130 30008 40187 51010 60006 85872 90900=
07190,1998-06-28 12:00:00,22,1018.2,-0.3,46,10,20000,18.52,,,250,,,,,,,,,,,wg-a,,,,AAXX 28124 07190 12770 /2510 10220 20100 30005 40182 56003 60006 85230 91200=
07190,1998-06-28 18:00:00,22,1018.7,0.6,46,10,50000,14.816,,,320,15.4,23.8,,,,,,,,,wg-a,,,,AAXX 28184 07190 12784 53208 10220 20100 30009 40187 53006 60006 84802 91800 333 10238 20154=
07190,1998-06-28 21:00:00,17,1020.5,1.5,68,11,500,3.704,,,350,,,,,,,,,,,wg-a,,,,AAXX 28214 07190 12700 43502 10170 20110 30024 40205 53015 60006 81432 92100=
07190,1998-06-29 00:00:00,16,1020.9,0.3,77,12,25000,3.704,,,260,,,,,,,,,,,wg-a,,,,AAXX 29004 07190 12875 62602 10160 20120 30027 40209 52003 60006 86500 90000=
07190,1998-06-29 06:00:00,16,1021.2,0.4,77,12,500,3.704,,,190,14.4,21.7,,,,,,,,,wg-a,,,,AAXX 29064 07190 02800 51902 10160 20120 30030 40212 51004 60006 85500 90600 333 10217 20144 60004=
07190,1998-06-29 09:00:00,21,1020.6,-0.2,53,11,40000,7.408,,,230,,,,,,,,,,,wg-a,,,,AAXX 29094 07190 12782 62304 10210 20110 30028 40206 58002 60006 84831 90900=
07190,1998-06-29 12:00:00,23,1019.4,-1.1,44,10,50000,11.112,,,290,,,,,,,,,,,wg-a,,,,AAXX 29124 07190 12784 52906 10230 20100 30017 40194 58011 60006 84131 91200=
07190,1998-06-29 15:00:00,23,1018.1,-1.3,47,11,40000,11.112,,,40,,,,,,,,,,,wg-a,,,,AAXX 29154 07190 12782 40406 10230 20110 30004 40181 58013 60006 84801 91500=
07190,1998-06-29 18:00:00,22,1017.4,-0.7,53,12,40000,3.704,,,100,16,24.1,,,,,,,,,wg-a,,,,AAXX 29184 07190 12782 61002 10220 20120 39997 40174 55007 60006 82801 91800 333 10241 20160=
07190,1998-06-29 21:00:00,17,1017.7,-0,77,13,500,0,,,0,,,,,,,,,,,wg-a,,,,AAXX 29214 07190 12/00 60000 10170 20130 39997 40177 55000 60006 82031 92100=
07190,1998-06-30 00:00:00,14,1017.2,-0.7,88,12,20000,3.704,,,210,,,,,,,,,,,wg-a,,,,AAXX 30004 07190 12/70 32102 10140 20120 39990 40172 58007 60006 80001 90000=
07190,1998-06-30 03:00:00,12,1016.6,-0.7,94,11,20000,3.704,,,200,,,,,,,,,,,wg-a,,,,AAXX 30034 07190 12/70 12002 10120 20110 39983 40166 56007 60006 81030 90300=
07190,1998-06-30 06:00:00,16,1015.3,-1.1,82,13,500,3.704,,,190,12.3,22.1,,,,,,,,,wg-a,,,,AAXX 30064 07190 02700 71902 10160 20130 39972 40153 58011 60006 81532 90600 333 10221 20123 60004=
07190,1998-06-30 09:00:00,20,1013.7,-1.2,73,15,25000,3.704,,,220,,,,,,,,,,,wg-a,,,,AAXX 30094 07190 12675 72202 10200 20150 39960 40137 58012 60006 81232 90900=
07190,1998-06-30 12:00:00,25,1012.7,-0.8,54,15,25000,14.816,,,330,,,,,,,,,,,wg-a,,,,AAXX 30124 07190 12675 73308 10250 20150 39952 40127 58008 60006 84232 91200=
07190,1998-06-30 15:00:00,22,1013.1,0.2,57,13,25000,14.816,,,290,,,,,,,,,,,wg-a,,,,AAXX 30154 07190 12675 72908 10220 20130 39954 40131 53002 60006 8487/ 91500=
07190,1998-06-30 18:00:00,21,1013.5,0.4,56,12,25000,11.112,,,260,15.8,25.1,,,,,,,,,wg-a,,,,AAXX 30184 07190 12775 72606 10210 20120 39958 40135 53004 60006 83572 91800 333 10251 20158=
07190,1998-06-30 21:00:00,17,1014.3,0.5,82,14,15000,3.704,,,70,,,,,,,,,,,wg-a,,,,AAXX 30214 07190 12565 60702 10170 20140 39963 40143 53005 60006 84831 92100=
07190,1998-07-01 00:00:00,15,1014.1,-0.3,94,14,20000,7.408,,,150,,,,,,,,,,,wg-a,,,,AAXX 01004 07190 12670 51504 10150 20140 39960 40141 57003 60006 82531 90000=
07190,1998-07-01 03:00:00,15,1013.4,-0.7,94,14,8000,7.408,,,190,,,,,,,,,,,wg-a,,,,AAXX 01034 07190 12658 71904 10150 20140 39953 40134 55007 60006 875// 90300=
07190,1998-07-01 06:00:00,16,1012.8,-0.5,82,13,25000,7.408,,,190,14.3,21.4,,,,,,,,,wg-a,,,,AAXX 01064 07190 02675 81904 10160 20130 39948 40128 58005 60006 875// 90600 333 10214 20143 60004=
07190,1998-07-01 09:00:00,20,1012,-0.5,68,14,25000,7.408,,,170,,,,,,,,,,,wg-a,,,,AAXX 01094 07190 12675 71704 10200 20140 39943 40120 58005 60006 83872 90900=
07190,1998-07-01 12:00:00,22,1011.7,-0.2,65,15,25000,11.112,,,20,,,,,,,,,,,wg-a,,,,AAXX 01124 07190 12675 70206 10220 20150 39941 40117 55002 60006 878// 91200=
07190,1998-07-01 15:00:00,19,1010.8,-1.1,78,15,15000,22.224,,,30,,,,,,,,,,21,wg-a,,,,AAXX 01154 07190 02565 80312 10190 20150 39930 40108 58011 61000 72162 878// 91500 333 ////=
07190,1998-07-01 18:00:00,19,1010.7,-0.1,68,13,20000,11.112,,,20,15.9,22.3,,,,,,,,1,wg-a,,,,AAXX 01184 07190 12570 70206 10190 20130 39929 40107 55001 60006 70162 82831 91800 333 10223 20159=
07190,1998-07-01 21:00:00,16,1010,-0.9,82,13,15000,18.52,,,350,,,,,,,,,,,wg-a,,,,AAXX 01214 07190 12765 73510 10160 20130 39920 40100 56009 60006 81531 92100=
07190,1998-07-02 00:00:00,15,1010.8,0.8,82,12,15000,11.112,,,360,,,,,,,,,,,wg-a,,,,AAXX 02004 07190 12/65 73606 10150 20120 39928 40108 53008 60006 82031 90000=
07190,1998-07-02 03:00:00,15,1011.3,0.5,82,12,10000,14.816,,,10,,,,,,,,,,,wg-a,,,,AAXX 02034 07190 12/60 70108 10150 20120 39933 40113 53005 60006 86032 90300=
07190,1998-07-02 06:00:00,15,1012.4,1,82,12,15000,11.112,,,10,14.7,19.2,,,,,,,,,wg-a,,,,AAXX 02064 07190 02765 70106 10150 20120 39943 40124 53010 60006 81572 90600 333 10192 20147 61000=
07190,1998-07-02 09:00:00,19,1013,0.9,68,13,18000,11.112,,,30,,,,,,,,,,,wg-a,,,,AAXX 02094 07190 12668 50306 10190 20130 39952 40130 50009 60006 81132 90900=
07190,1998-07-02 12:00:00,21,1013,0.1,64,14,18000,11.112,,,20,,,,,,,,,,,wg-a,,,,AAXX 02124 07190 12668 50206 10210 20140 39953 40130 50001 60006 83182 91200=
07190,1998-07-02 18:00:00,17,1013.9,0.2,94,16,6000,7.408,,,200,14.9,21.7,,,,,,,,21,wg-a,,,,AAXX 02184 07190 02556 82004 10170 20160 39960 40139 50002 61000 72162 8587/ 91800 333 10217 20149 6004=
07190,1998-07-03 00:00:00,16,1014,0.7,100,16,7000,3.704,,,270,,,,,,,,,,11,wg-a,,,,AAXX 03004 07190 12657 82702 10160 20160 39960 40140 52007 60006 71111 875// 90000=
07190,1998-07-03 03:00:00,15,1013.3,-0.8,88,13,7000,7.408,,,340,,,,,,,,,,,wg-a,,,,AAXX 03034 07190 12657 83404 10150 20130 39952 40133 57008 60006 875// 90300=
07190,1998-07-03 06:00:00,16,1014.2,1,82,13,15000,7.408,,,360,13.8,17.4,,,,,4,,,,wg-a,,,,AAXX 03064 07190 02765 73604 10160 20130 39962 40142 52010 60006 85502 90600 333 10174 20138 60044=
07190,1998-07-03 09:00:00,19,1014.6,0.6,68,13,15000,7.408,,,350,,,,,,,,,,,wg-a,,,,AAXX 03094 07190 12765 73504 10190 20130 39968 40146 52006 60006 82532 90900=
07190,1998-07-03 12:00:00,23,1014.5,0.1,57,14,15000,7.408,,,350,,,,,,,,,,,wg-a,,,,AAXX 03124 07190 12665 /3504 10230 20140 39969 40145 52001 60006 81201 91200=
07190,1998-07-03 15:00:00,24,1014.5,-0,50,13,500,7.408,,,330,,,,,,,,,,,wg-a,,,,AAXX 03154 07190 12700 53304 10240 20130 39969 40145 55000 60006 85801 91500=
07190,1998-07-03 18:00:00,24,1015.3,0.8,44,11,25000,11.112,,,290,15.5,24.5,,,,,,,,,wg-a,,,,AAXX 03184 07190 12775 /2906 10240 20110 39977 40153 53008 60006 81200 91800 333 10245 20155=
07190,1998-07-03 21:00:00,17,1018.6,2.9,63,10,20000,11.112,,,300,,,,,,,,,,,wg-a,,,,AAXX 03214 07190 12/70 13006 10170 20100 30006 40186 53029 60006 81500 92100=
07190,1998-07-04 00:00:00,15,1021,2.2,77,11,10000,7.408,,,340,,,,,,,,,,,wg-a,,,,AAXX 04004 07190 12/60 /3404 10150 20110 30028 40210 51022 60006 86500 90000=
07190,1998-07-04 03:00:00,12,1021.6,0.4,88,10,10000,3.704,,,330,,,,,,,,,,,wg-a,,,,AAXX 04034 07190 12760 /3302 10120 20100 30032 40216 51004 60006 85500 90300=
07190,1998-07-04 06:00:00,14,1022.9,1.4,72,9,10000,11.112,,,290,12.3,23.5,,,,,,,,,wg-a,,,,AAXX 04064 07190 02660 72906 10140 20090 30046 40229 52014 60006 875// 90600 333 10235 20123 60004=
07190,1998-07-04 09:00:00,17,1023.5,0.8,59,9,15000,11.112,,,300,,,,,,,,,,,wg-a,,,,AAXX 04094 07190 12665 43006 10170 20090 30054 40235 51008 60006 84200 90900=
07190,1998-07-04 12:00:00,21,1022.9,-0.4,49,10,15000,3.704,,,360,,,,,,,,,,,wg-a,,,,AAXX 04124 07190 12665 53602 10210 20100 30050 40229 56004 60006 84230 91200=
07190,1998-07-04 15:00:00,22,1021.8,-1,46,10,15000,18.52,,,330,,,,,,,,,,,wg-a,,,,AAXX 04154 07190 12665 /3310 10220 20100 30040 40218 57010 60006 83231 91500=
07190,1998-07-04 18:00:00,21,1021.2,-0.7,53,11,20000,11.112,,,340,14.3,22.3,,,,,,,,,wg-a,,,,AAXX 04184 07190 12/70 /3406 10210 20110 30033 40212 56007 60006 83031 91800 333 10223 20143=
07190,1998-07-04 21:00:00,18,1021.6,0.2,68,12,20000,0,,,0,,,,,,,,,,,wg-a,,,,AAXX 04214 07190 12/70 50000 10180 20120 30035 40216 52002 60006 84031 92100=
07190,1998-07-05 00:00:00,15,1021,-0.7,77,11,20000,11.112,,,220,,,,,,,,,,,wg-a,,,,AAXX 05004 07190 12770 /2206 10150 20110 30028 40210 58007 60006 85500 90000=
07190,1998-07-05 03:00:00,14,1020.2,-0.9,82,11,10000,7.408,,,200,,,,,,,,,,,wg-a,,,,AAXX 05034 07190 12660 72004 10140 20110 30019 40202 57009 60006 8353/ 90300=
07190,1998-07-05 06:00:00,15,1019.3,-0.8,82,12,15000,11.112,,,170,13.6,21.1,,,,,,,,,wg-a,,,,AAXX 05064 07190 02665 81706 10150 20120 30011 40193 58008 60006 8157/ 90600 333 10211 20136 60004=
07190,1998-07-05 09:00:00,19,1019.6,0.5,60,11,15000,11.112,,,310,,,,,,,,,,,wg-a,,,,AAXX 05094 07190 12665 83106 10190 20110 30016 40196 51005 60006 8387/ 90900=
07190,1998-07-05 12:00:00,23,1018.5,-0.8,47,11,15000,14.816,,,270,,,,,,,,,,,wg-a,,,,AAXX 05124 07190 12665 /2708 10230 20110 30008 40185 58008 60006 83832 91200=
07190,1998-07-05 15:00:00,23,1017.5,-1,50,12,15000,22.224,,,280,,,,,,,,,,,wg-a,,,,AAXX 05154 07190 12765 72812 10230 20120 39998 40175 56010 60006 8583/ 91500=
07190,1998-07-05 18:00:00,21,1016.6,-1,56,12,15000,14.816,,,340,14.8,23.9,,,,,,,,,wg-a,,,,AAXX 05184 07190 12765 /3408 10210 20120 39988 40166 56010 60006 82430 91800 333 10239 20148=
07190,1998-07-05 21:00:00,18,1017.2,0.4,68,12,15000,11.112,,,320,,,,,,,,,,,wg-a,,,,AAXX 05214 07190 12765 73206 10180 20120 39992 40172 53004 60006 8153/ 92100=
07190,1998-07-06 00:00:00,17,1016.9,-0.3,72,12,15000,11.112,,,260,,,,,,,,,,,wg-a,,,,AAXX 06004 07190 12/65 72606 10170 20120 39989 40169 58003 60006 8703/ 90000=
07190,1998-07-06 03:00:00,16,1015.9,-1.1,77,12,15000,7.408,,,210,,,,,,,,,,,wg-a,,,,AAXX 06034 07190 12665 82104 10160 20120 39978 40159 57011 60006 8657/ 90300=
07190,1998-07-06 06:00:00,17,1015,-0.8,72,12,10000,11.112,,,280,15.3,21.3,,,,,,,,,wg-a,,,,AAXX 06064 07190 02660 72806 10170 20120 39970 40150 56008 60006 8353/ 90600 333 10213 20153 60004=
07190,1998-07-06 09:00:00,19,1014.4,-0.4,60,11,12000,14.816,,,280,,,,,,,,,,,wg-a,,,,AAXX 06094 07190 12562 72808 10190 20110 39966 40144 58004 60006 8583/ 90900=
07190,1998-07-06 12:00:00,22,1013,-1.3,53,12,15000,11.112,,,310,,,,,,,,,,,wg-a,,,,AAXX 06124 07190 12665 73106 10220 20120 39953 40130 57013 60006 81832 91200=
07190,1998-07-06 15:00:00,22,1011.8,-1.1,57,13,15000,14.816,,,350,,,,,,,,,,,wg-a,,,,AAXX 06154 07190 12665 73508 10220 20130 39942 40118 56011 60006 81831 91500=
07190,1998-07-06 18:00:00,21,1010.8,-1,56,12,20000,14.816,,,350,16.7,22.2,,,,,,,,,wg-a,,,,AAXX 06184 07190 12770 43508 10210 20120 39932 40108 56010 60006 81582 91800 333 10222 20167=
07190,1998-07-06 21:00:00,17,1011,-0.1,77,13,20000,0,,,0,,,,,,,,,,,wg-a,,,,AAXX 06214 07190 12770 /0000 10170 20130 39931 40110 56001 60006 81580 92100=
07190,1998-07-07 00:00:00,13,1010.1,-1.1,94,12,10000,0,,,0,,,,,,,,,,,wg-a,,,,AAXX 07004 07190 12/60 10000 10130 20120 39920 40101 58011 60006 80001 90000=
07190,1998-07-07 03:00:00,12,1009.2,-1,94,11,6000,0,,,0,,,,,,,,,,,wg-a,,,,AAXX 07034 07190 12756 30000 10120 20110 39910 40092 58010 60006 83500 90300=
07190,1998-07-07 06:00:00,15,1008.4,-0.6,94,14,6000,3.704,,,330,12,21.3,,,,,,,,,wg-a,,,,AAXX 07064 07190 02756 /3302 10150 20140 39904 40084 57006 60006 81552 90600 333 10213 20120 60004=
07190,1998-07-07 09:00:00,20,1007.5,-0.6,64,13,10000,3.704,,,120,,,,,,,,,,,wg-a,,,,AAXX 07094 07190 12460 71202 10200 20130 39898 40075 56006 60006 848// 90900=
07190,1998-07-07 12:00:00,20,1007.4,-0.1,64,13,10000,31.484,,,340,,,,,,,,,,,wg-a,,,,AAXX 07124 07190 12660 73417 10200 20130 39897 40074 55001 60006 84801 91200=
07190,1998-07-07 15:00:00,14,1010.3,2.5,72,9,15000,22.224,,,320,,,,,,,,,,,wg-a,,,,AAXX 07154 07190 12565 83212 10140 20090 39922 40103 52025 60006 878// 91500=
07190,1998-07-07 18:00:00,15,1011.1,0.8,67,9,15000,7.408,,,320,13.9,23,,,,,,,,,wg-a,,,,AAXX 07184 07190 12565 73204 10150 20090 39930 40111 52008 60006 878// 91800 333 10230 20139=
07190,1998-07-07 21:00:00,13,1013.2,2,82,10,15000,11.112,,,210,,,,,,,,,,,wg-a,,,,AAXX 07214 07190 12665 72106 10130 20100 39950 40132 53020 60006 875// 92100=
07190,1998-07-08 00:00:00,13,1013.6,0.4,88,11,15000,7.408,,,250,,,,,,,,,,,wg-a,,,,AAXX 08004 07190 12565 82504 10130 20110 39954 40136 51004 60006 878// 90000=
07190,1998-07-08 03:00:00,12,1013.7,-0,71,7,15000,7.408,,,280,,,,,,,,,,,wg-a,,,,AAXX 08034 07190 12665 72804 10120 20070 39954 40137 55000 60006 875// 90300=
07190,1998-07-08 06:00:00,13,1014.4,0.8,72,8,20000,11.112,,,250,12.4,14.5,,,,,,,,60,wg-a,,,,AAXX 08064 07190 02670 72506 10130 20080 39962 40144 51008 61000 76062 878// 90600 333 10145 20124 6100=
07190,1998-07-08 09:00:00,15,1014.7,0.4,63,8,20000,18.52,,,280,,,,,,,,,,1,wg-a,,,,AAXX 08094 07190 02570 52810 10150 20080 39966 40147 51004 61000 70162 84131 90900 333 ////=
07190,1998-07-08 12:00:00,17,1014.7,0.1,48,6,35000,18.52,,,290,,,,,,,,,,1,wg-a,,,,AAXX 08124 07190 02681 72910 10170 20060 39967 40147 53001 61000 70162 878// 91200 333 ////=
07190,1998-07-08 15:00:00,17,1015.5,0.8,52,7,35000,14.816,,,320,,,,,,,,,,,wg-a,,,,AAXX 08154 07190 12781 73208 10170 20070 39975 40155 53008 60006 878// 91500=
07190,1998-07-08 18:00:00,16,1016,0.4,63,9,500,0,,,0,12.8,18.2,,,,,,,,,wg-a,,,,AAXX 08184 07190 12700 70000 10160 20090 39979 40160 51004 60006 8557/ 91800 333 10182 20128=
07190,1998-07-08 21:00:00,14,1016.7,0.6,72,9,20000,7.408,,,200,,,,,,,,,,,wg-a,,,,AAXX 08214 07190 12770 82004 10140 20090 39985 40167 51006 60006 875// 92100=
07190,1998-07-09 00:00:00,14,1016.5,-0.2,72,9,20000,7.408,,,180,,,,,,,,,,,wg-a,,,,AAXX 09004 07190 12770 71804 10140 20090 39983 40165 58002 60006 875// 90000=
07190,1998-07-09 03:00:00,10,1015.9,-0.9,82,7,10000,11.112,,,210,,,,,,,,,,,wg-a,,,,AAXX 09034 07190 12760 62106 10100 20070 39974 40159 56009 60006 84531 90300=
07190,1998-07-09 06:00:00,13,1015.3,-0.4,77,9,25000,7.408,,,210,8.9,15.6,,,,,,,,,wg-a,,,,AAXX 09064 07190 02875 72104 10130 20090 39970 40153 56004 60006 8453/ 90600 333 10156 20089 61000=
07190,1998-07-09 09:00:00,16,1015.7,0.6,72,11,18000,3.704,,,210,,,,,,,,,,1,wg-a,,,,AAXX 09094 07190 02668 82102 10160 20110 39976 40157 52006 61000 70162 8327/ 90900 333 ////=
07190,1998-07-09 12:00:00,19,1015.3,-0.2,60,11,18000,18.52,,,250,,,,,,,,,,1,wg-a,,,,AAXX 09124 07190 02668 72510 10190 20110 39974 40153 58002 61000 70162 8683/ 91200 333 ////=
07190,1998-07-09 15:00:00,22,1014.3,-0.8,46,10,500,22.224,,,260,,,,,,,,,,,wg-a,,,,AAXX 09154 07190 12600 72612 10220 20100 39966 40143 55008 60006 8583/ 91500=
07190,1998-07-09 18:00:00,20,1014.3,-0.1,56,11,500,11.112,,,240,12.5,22,,,,,,,,,wg-a,,,,AAXX 09184 07190 12600 72406 10200 20110 39965 40143 58001 60006 8587/ 91800 333 10220 20125=
07190,1998-07-09 21:00:00,18,1016.1,1.6,64,11,15000,11.112,,,240,,,,,,,,,,,wg-a,,,,AAXX 09214 07190 12565 82406 10180 20110 39981 40161 51016 60006 8647/ 92100=
07190,1998-07-10 00:00:00,16,1016.4,0.2,72,11,20000,3.704,,,210,,,,,,,,,,,wg-a,,,,AAXX 10004 07190 12570 72102 10160 20110 39983 40164 51002 60006 8787/ 90000=
07190,1998-07-10 03:00:00,16,1015.9,-0.5,77,12,15000,14.816,,,190,,,,,,,,,,,wg-a,,,,AAXX 10034 07190 12565 71908 10160 20120 39978 40159 57005 60006 878// 90300=
07190,1998-07-10 06:00:00,16,1015.8,-0,82,13,15000,14.816,,,210,15.5,20.2,,,,,,,,60,wg-a,,,,AAXX 10064 07190 02565 82108 10160 20130 39978 40158 55000 61000 76062 875// 90600 333 10202 20155 6100=
07190,1998-07-10 09:00:00,17,1016.1,0.3,88,15,15000,11.112,,,180,,,,0,,,,,,3,wg-a,,,,AAXX 10094 07190 12465 81806 10170 20150 39981 40161 50003 60007 70362 878// 90900=
07190,1998-07-10 12:00:00,19,1015.5,-0.4,78,15,15000,3.704,,,150,,,,,,,,,,25,wg-a,,,,AAXX 10124 07190 02565 71502 10190 20150 39977 40155 58004 60006 72586 878// 91200 333 61000=
07190,1998-07-10 15:00:00,21,1014.6,-0.8,64,14,15000,11.112,,,230,,,,,,,,,,25,wg-a,,,,AAXX 10154 07190 02565 72306 10210 20140 39969 40146 58008 61000 72586 8683/ 91500 333 ////=
07190,1998-07-10 18:00:00,20,1013.9,-0.8,68,14,500,14.816,,,190,15.6,21.8,,,,,,,,3,wg-a,,,,AAXX 10184 07190 12600 71908 10200 20140 39961 40139 56008 60006 70386 8583/ 91800 333 10218 20156=
07190,1998-07-10 21:00:00,18,1014.6,0.6,83,15,15000,3.704,,,110,,,,,,,,,,3,wg-a,,,,AAXX 10214 07190 02565 81102 10180 20150 39967 40146 53006 61000 70386 888// 92100 333 ////=
07190,1998-07-11 00:00:00,17,1013.9,-0.8,88,15,15000,3.704,,,160,,,,0,,,,,,1,wg-a,,,,AAXX 11004 07190 02665 81602 10170 20150 39959 40139 58008 60016 70186 878// 90000 333 60007=
07190,1998-07-11 03:00:00,17,1013.9,-0,82,14,15000,18.52,,,240,,,,,,,,,,,wg-a,,,,AAXX 11034 07190 12565 82410 10170 20140 39959 40139 55000 60006 884// 90300=
07190,1998-07-11 06:00:00,17,1014.2,0.3,82,14,20000,11.112,,,220,16.1,19.7,,,,,1,,,,wg-a,,,,AAXX 11064 07190 02570 72206 10170 20140 39962 40142 53003 60006 868// 90600 333 10197 20161 60014=
07190,1998-07-11 09:00:00,20,1014.4,0.4,64,13,20000,25.928,,,240,,,,,,,,,,,wg-a,,,,AAXX 11094 07190 12570 82414 10200 20130 39966 40144 51004 60006 878// 90900=
07190,1998-07-11 12:00:00,22,1014.2,-0.1,53,12,25000,29.632,,,250,,,,,,,,,,,wg-a,,,,AAXX 11124 07190 12675 72516 10220 20120 39965 40142 58001 60006 8587/ 91200=
07190,1998-07-11 15:00:00,23,1014.2,0.1,44,10,500,25.928,,,250,,,,,,,,,,,wg-a,,,,AAXX 11154 07190 12600 72514 10230 20100 39966 40142 53001 60006 8322/ 91500=
07190,1998-07-11 18:00:00,22,1014.2,-0.1,46,10,35000,18.52,,,250,17,22.8,,,,,,,,,wg-a,,,,AAXX 11184 07190 12781 72510 10220 20100 39965 40142 55001 60006 83232 91800 333 10228 20170=
07190,1998-07-11 21:00:00,19,1014.8,0.4,64,12,500,7.408,,,250,,,,,,,,,,,wg-a,,,,AAXX 11214 07190 12700 72504 10190 20120 39969 40148 53004 60006 8117/ 92100=
07190,1998-07-12 00:00:00,17,1014.2,-0.7,72,12,20000,7.408,,,190,,,,,,,,,,,wg-a,,,,AAXX 12004 07190 12770 81904 10170 20120 39962 40142 58007 60006 8357/ 90000=
07190,1998-07-12 03:00:00,17,1012.3,-1.8,77,13,20000,18.52,,,170,,,,,,,,,,,wg-a,,,,AAXX 12034 07190 12/70 71710 10170 20130 39944 40123 56018 60006 8707/ 90300=
07190,1998-07-12 06:00:00,18,1012.4,0.1,68,12,500,18.52,,,190,16.7,22,,,,,,,,21,wg-a,,,,AAXX 12064 07190 02600 71910 10180 20120 39945 40124 53001 61000 72162 8457/ 90600 333 10220 20167 6100=
07190,1998-07-12 09:00:00,20,1013.1,0.8,60,12,40000,25.928,,,230,,,,,,,,,,,wg-a,,,,AAXX 12094 07190 12682 72314 10200 20120 39953 40131 51008 60006 8587/ 90900=
07190,1998-07-12 12:00:00,22,1012.5,-0.4,57,13,35000,14.816,,,210,,,,,,,,,,,wg-a,,,,AAXX 12124 07190 12681 52108 10220 20130 39949 40125 58004 60006 84840 91200=
07190,1998-07-12 15:00:00,25,1011.9,-0.4,54,15,35000,18.52,,,230,,,,,,,,,,,wg-a,,,,AAXX 12154 07190 12681 42310 10250 20150 39945 40119 58004 60006 82130 91500=
07190,1998-07-12 18:00:00,26,1010,-1.9,48,14,40000,25.928,,,210,18.5,26.7,,,,,,,,,wg-a,,,,AAXX 12184 07190 12782 /2114 10260 20140 39926 40100 56019 60006 81140 91800 333 10267 20185=
07190,1998-07-12 21:00:00,21,1009.9,-0.4,60,13,40000,14.816,,,180,,,,,,,,,,,wg-a,,,,AAXX 12214 07190 12782 11808 10210 20130 39922 40099 56004 60006 81530 92100=
07190,1998-07-13 00:00:00,18,1010.1,-0,68,12,25000,7.408,,,210,,,,,,,,,,,wg-a,,,,AAXX 13004 07190 12/75 22104 10180 20120 39922 40101 54000 60006 81032 90000=
07190,1998-07-13 06:00:00,20,1009.7,0.1,68,14,75000,11.112,,,200,15.5,25.7,,,,,,,,,wg-a,,,,AAXX 13064 07190 02789 62006 10200 20140 39920 40097 53001 60006 82842 90600 333 10257 20155 60004=
07190,1998-07-13 09:00:00,24,1008.6,-0.8,50,13,60000,14.816,,,200,,,,,,,,,,,wg-a,,,,AAXX 13094 07190 12786 72008 10240 20130 39912 40086 58008 60006 81142 90900=
07190,1998-07-13 12:00:00,26,1006.6,-1.9,39,11,50000,22.224,,,220,,,,,,,,,,,wg-a,,,,AAXX 13124 07190 12784 72212 10260 20110 39893 40066 58019 60006 81182 91200=
07190,1998-07-13 15:00:00,23,1006.9,0.1,53,13,500,25.928,,,210,,,,,,,,,,,wg-a,,,,AAXX 13154 07190 12700 82114 10230 20130 39894 40069 51001 60006 8587/ 91500=
07190,1998-07-13 18:00:00,14,1011.1,3.6,82,11,18000,22.224,,42.596,290,13.7,26.9,,,,,,,,25,wg-a,,,,AAXX 13184 07190 02368 72912 10140 20110 39930 40111 53036 61000 72586 8386/ 91800 333 10269 20137 6001 91023=
07190,1998-07-13 21:00:00,14,1013.6,2.4,77,10,25000,18.52,,,250,,,,,,,,,,,wg-a,,,,AAXX 13214 07190 12575 22510 10140 20100 39954 40136 51024 60006 81861 92100=
07190,1998-07-14 00:00:00,11,1014.2,0.5,94,10,15000,7.408,,,200,,,,,,,,,,,wg-a,,,,AAXX 14004 07190 12765 /2004 10110 20100 39959 40142 50005 60006 81500 90000=
07190,1998-07-14 03:00:00,10,1015.1,0.7,93,9,15000,7.408,,,180,,,,,,,,,,,wg-a,,,,AAXX 14034 07190 12665 /1804 10100 20090 39966 40151 53007 60006 81101 90300=
07190,1998-07-14 06:00:00,13,1015.3,0.5,88,11,20000,7.408,,,210,9.2,15.1,,,,,1,,,,wg-a,,,,AAXX 14064 07190 02670 22104 10130 20110 39971 40153 51005 60006 81801 90600 333 10151 20092 60014=
07190,1998-07-14 09:00:00,18,1015.4,0.4,56,9,20000,14.816,,,230,,,,,,,,,,,wg-a,,,,AAXX 14094 07190 12670 /2308 10180 20090 39975 40154 51004 60006 85200 90900=
07190,1998-07-14 12:00:00,20,1014.9,-0.4,46,8,40000,18.52,,,280,,,,,,,,,,,wg-a,,,,AAXX 14124 07190 12682 /2810 10200 20080 39971 40149 58004 60006 85200 91200=
07190,1998-07-14 15:00:00,21,1014.1,-0.7,38,6,40000,14.816,,,260,,,,,,,,,,,wg-a,,,,AAXX 14154 07190 12682 42608 10210 20060 39964 40141 56007 60006 84200 91500=
07190,1998-07-14 18:00:00,21,1014.2,-0,38,6,50000,14.816,,,300,13,21.9,,,,,,,,,wg-a,,,,AAXX 14184 07190 12784 43008 10210 20060 39964 40142 55000 60006 84400 91800 333 10219 20130=
07190,1998-07-14 21:00:00,14,1015.8,1.2,77,10,500,3.704,,,240,,,,,,,,,,,wg-a,,,,AAXX 14214 07190 12700 22402 10140 20100 39976 40158 51012 60006 81530 92100=
07190,1998-07-15 00:00:00,11,1016.2,0.2,82,8,20000,7.408,,,170,,,,,,,,,,,wg-a,,,,AAXX 15004 07190 12770 41704 10110 20080 39978 40162 52002 60006 84500 90000=
07190,1998-07-15 03:00:00,11,1016.2,-0,82,8,20000,7.408,,,210,,,,,,,,,,,wg-a,,,,AAXX 15034 07190 12770 72104 10110 20080 39978 40162 55000 60006 87500 90300=
07190,1998-07-15 06:00:00,12,1016.8,0.7,82,9,500,3.704,,,160,10.1,20.5,,,,,,,,,wg-a,,,,AAXX 15064 07190 02600 71602 10120 20090 39985 40168 53007 60006 878// 90600 333 10205 20101 60004=
07190,1998-07-15 09:00:00,17,1016.9,0.4,63,10,500,7.408,,,150,,,,,,,,,,,wg-a,,,,AAXX 15094 07190 12600 71504 10170 20100 39989 40169 50004 60006 878// 90900=
07190,1998-07-15 12:00:00,20,1016.2,-0.5,49,9,500,18.52,,,270,,,,,,,,,,,wg-a,,,,AAXX 15124 07190 12700 72710 10200 20090 39984 40162 57005 60006 85832 91200=
07190,1998-07-15 15:00:00,21,1016.1,-0.1,43,8,500,22.224,,,260,,,,,,,,,,,wg-a,,,,AAXX 15154 07190 12700 72612 10210 20080 39983 40161 55001 60006 83832 91500=
07190,1998-07-15 18:00:00,19,1016.9,0.7,52,9,500,11.112,,,270,12.4,21.9,,,,,,,,,wg-a,,,,AAXX 15184 07190 12700 72706 10190 20090 39990 40169 52007 60006 86832 91800 333 10219 20124=
07190,1998-07-15 21:00:00,15,1018.2,1,63,8,500,7.408,,,250,,,,,,,,,,,wg-a,,,,AAXX 15214 07190 12800 42504 10150 20080 30000 40182 53010 60006 82532 92100=
07190,1998-07-16 00:00:00,12,1018,-0.4,82,9,20000,3.704,,,220,,,,,,,,,,,wg-a,,,,AAXX 16004 07190 12/70 22202 10120 20090 39996 40180 58004 60006 82030 90000=
07190,1998-07-16 03:00:00,10,1016.9,-1.2,87,8,20000,3.704,,,200,,,,,,,,,,,wg-a,,,,AAXX 16034 07190 12/70 32002 10100 20080 39984 40169 58012 60006 82032 90300=
07190,1998-07-16 06:00:00,12,1015.9,-0.8,82,9,500,7.408,,,190,9.7,19.4,,,,,,,,,wg-a,,,,AAXX 16064 07190 02700 71904 10120 20090 39976 40159 56008 60006 8257/ 90600 333 10194 20097 60004=
07190,1998-07-16 09:00:00,14,1014.9,-0.9,88,12,20000,3.704,,,170,,,,0,,,,,,61,wg-a,,,,AAXX 16094 07190 12670 81702 10140 20120 39967 40149 58009 60007 76162 8587/ 90900=
07190,1998-07-16 12:00:00,15,1015.1,0.3,88,13,9000,3.704,,,360,,,,2,,,,,,21,wg-a,,,,AAXX 16124 07190 02559 83602 10150 20130 39970 40151 53003 60026 72162 8687/ 91200 333 60027=
07190,1998-07-16 15:00:00,17,1014.9,-0.1,77,13,20000,22.224,,,210,,,,0,,,,,,21,wg-a,,,,AAXX 16154 07190 12570 72112 10170 20130 39969 40149 55001 60007 72162 878// 91500=
07190,1998-07-16 18:00:00,17,1015.1,0.2,77,13,15000,18.52,,,200,11.9,17.2,,,,,,,,2,wg-a,,,,AAXX 16184 07190 12565 82010 10170 20130 39971 40151 53002 60006 70262 878// 91800 333 10172 20119=
07190,1998-07-16 21:00:00,17,1015.3,0.2,82,14,15000,14.816,,,180,,,,,,,,,,,wg-a,,,,AAXX 16214 07190 12465 81808 10170 20140 39973 40153 53002 60006 878// 92100=
07190,1998-07-17 00:00:00,16,1014.8,-0.5,88,14,15000,14.816,,,170,,,,,,,,,,,wg-a,,,,AAXX 17004 07190 12465 81708 10160 20140 39968 40148 58005 60006 8687/ 90000=
07190,1998-07-17 03:00:00,16,1014.1,-0.7,88,14,15000,18.52,,,170,,,,,,,,,,,wg-a,,,,AAXX 17034 07190 12565 71710 10160 20140 39961 40141 58007 60006 85832 90300=
07190,1998-07-17 06:00:00,17,1014.8,0.7,88,15,15000,11.112,,,210,15,16.8,,,,,3,,,,wg-a,,,,AAXX 17064 07190 02565 72106 10170 20150 39968 40148 51007 60006 878// 90600 333 10168 20150 60034=
07190,1998-07-17 09:00:00,19,1015.4,0.8,83,16,15000,11.112,,,180,,,,,,,,,,,wg-a,,,,AAXX 17094 07190 12565 71806 10190 20160 39976 40154 52008 60006 86402 90900=
07190,1998-07-17 12:00:00,23,1014.8,-0.4,57,14,40000,22.224,,,230,,,,,,,,,,,wg-a,,,,AAXX 17124 07190 12682 /2312 10230 20140 39972 40148 58004 60006 86800 91200=
07190,1998-07-17 15:00:00,24,1014.4,-0.4,47,12,40000,22.224,,,210,,,,,,,,,,,wg-a,,,,AAXX 17154 07190 12782 72112 10240 20120 39968 40144 58004 60006 874// 91500=
07190,1998-07-17 18:00:00,24,1014.1,-0.2,50,13,500,22.224,,,240,16.8,24.9,,,,,,,,,wg-a,,,,AAXX 17184 07190 12700 62412 10240 20130 39966 40141 55002 60006 84480 91800 333 10249 20168=
07190,1998-07-17 21:00:00,19,1015.4,0.9,73,14,20000,11.112,,,190,,,,,,,,,,,wg-a,,,,AAXX 17214 07190 12670 31906 10190 20140 39975 40154 51009 60006 81430 92100=
07190,1998-07-18 00:00:00,17,1015.1,-0.3,82,14,20000,7.408,,,160,,,,,,,,,,,wg-a,,,,AAXX 18004 07190 12770 31604 10170 20140 39972 40151 56003 60006 81501 90000=
07190,1998-07-18 03:00:00,17,1015.2,0,77,13,20000,7.408,,,220,,,,,,,,,,,wg-a,,,,AAXX 18034 07190 12570 72204 10170 20130 39972 40152 50000 60006 83831 90300=
07190,1998-07-18 06:00:00,17,1015.3,0.1,94,16,12000,3.704,,,90,16.2,23.9,,,,,,,,3,wg-a,,,,AAXX 18064 07190 02262 70902 10170 20160 39973 40153 50001 60006 70365 878// 90600 333 10239 20162 60004=
07190,1998-07-18 09:00:00,19,1015.8,0.6,83,16,20000,11.112,,,360,,,,0,,,,,,3,wg-a,,,,AAXX 18094 07190 12470 53606 10190 20160 39979 40158 53006 60007 70352 83881 90900=
07190,1998-07-18 12:00:00,23,1014.5,-1,69,17,18000,22.224,,,290,,,,,,,,,,3,wg-a,,,,AAXX 18124 07190 12568 72912 10230 20170 39969 40145 56010 60006 70352 8583/ 91200=
07190,1998-07-18 15:00:00,22,1014.6,0,65,15,25000,18.52,,,250,,,,,,,,,,,wg-a,,,,AAXX 18154 07190 12575 72510 10220 20150 39969 40146 50000 60006 8584/ 91500=
07190,1998-07-18 18:00:00,23,1014.4,-0.1,57,14,40000,14.816,,,290,16.8,23.7,,,,,,,,,wg-a,,,,AAXX 18184 07190 12682 72908 10230 20140 39968 40144 55001 60006 82872 91800 333 10237 20168=
07190,1998-07-18 21:00:00,19,1016.4,1.7,78,15,40000,7.408,,,10,,,,,,,,,,,wg-a,,,,AAXX 18214 07190 12682 70104 10190 20150 39985 40164 51017 60006 81542 92100=
07190,1998-07-19 00:00:00,15,1016.8,0.2,94,14,25000,3.704,,,290,,,,,,,,,,,wg-a,,,,AAXX 19004 07190 12675 62902 10150 20140 39987 40168 51002 60006 84502 90000=
07190,1998-07-19 03:00:00,13,1016.6,-0.4,88,11,15000,3.704,,,70,,,,,,,,,,,wg-a,,,,AAXX 19034 07190 12665 20702 10130 20110 39983 40166 56004 60006 82501 90300=
07190,1998-07-19 06:00:00,15,1016.9,0.5,88,13,25000,3.704,,,70,11.7,22.6,,,,,,,,,wg-a,,,,AAXX 19064 07190 02/75 10702 10150 20130 39988 40169 53005 60006 80001 90600 333 10226 20117 60004=
07190,1998-07-19 09:00:00,22,1016.6,0.1,60,14,20000,3.704,,,50,,,,,,,,,,,wg-a,,,,AAXX 19094 07190 12670 /0502 10220 20140 39989 40166 50001 60006 81101 90900=
07190,1998-07-19 12:00:00,27,1015.3,-1,45,14,500,7.408,,,170,,,,,,,,,,,wg-a,,,,AAXX 19124 07190 12600 41704 10270 20140 39979 40153 58010 60006 81101 91200=
07190,1998-07-19 15:00:00,27,1014,-1.3,48,15,500,7.408,,,360,,,,,,,,,,,wg-a,,,,AAXX 19154 07190 12600 53604 10270 20150 39966 40140 58013 60006 83231 91500=
07190,1998-07-19 18:00:00,27,1013.3,-0.6,48,15,500,11.112,,,350,15.3,28.5,,,,,,,,,wg-a,,,,AAXX 19184 07190 12/00 43506 10270 20150 39960 40133 55006 60006 8//01 91800 333 10285 20153=
07190,1998-07-19 21:00:00,20,1014.5,0.8,78,16,25000,3.704,,,260,,,,,,,,,,,wg-a,,,,AAXX 19214 07190 12875 62602 10200 20160 39968 40145 53008 60006 84082 92100=
07190,1998-07-20 00:00:00,19,1014.8,0.2,94,18,9000,7.408,,,150,,,,3,,,,,,29,wg-a,,,,AAXX 20004 07190 02559 71504 10190 20180 39970 40148 50002 60036 72998 8598/ 90000 333 60037=
07190,1998-07-20 03:00:00,18,1013.4,-1.4,94,17,10000,11.112,,,130,,,,0,,,,,,80,wg-a,,,,AAXX 20034 07190 12660 71306 10180 20170 39956 40134 58014 60007 78086 86282 90300=
07190,1998-07-20 06:00:00,19,1014.6,1.2,94,18,10000,11.112,,,160,18.2,27.3,,,,,,,,80,wg-a,,,,AAXX 20064 07190 02560 71606 10190 20180 39968 40146 53012 61000 78098 869// 90600 333 10273 20182 6006=
07190,1998-07-20 09:00:00,27,1013.6,-0.5,66,20,500,14.816,,,200,,,,,,,,,,1,wg-a,,,,AAXX 20094 07190 32/00 02008 10270 20200 39963 40136 58005 70198 80000 90900=
07190,1998-07-20 12:00:00,32,1012.5,-0.8,43,18,500,11.112,,,180,,,,,,,,,,3,wg-a,,,,AAXX 20124 07190 12/00 31806 10320 20180 39955 40125 56008 60016 70398 81082 91200=
07190,1998-07-20 15:00:00,34,1010.2,-2.2,34,16,500,7.408,,,100,,,,,,,,,,,wg-a,,,,AAXX 20154 07190 12700 21004 10340 20160 39933 40102 58022 60006 81282 91500=
07190,1998-07-20 18:00:00,31,1008.8,-1.5,46,18,500,7.408,,,90,18.7,33.9,,,,,,,,,wg-a,,,,AAXX 20184 07190 12700 20904 10310 20180 39918 40088 56015 60006 81282 91800 333 10339 20187=
07190,1998-07-20 21:00:00,24,1009.1,-0.1,74,19,20000,3.704,,,270,,,,,,,,,,,wg-a,,,,AAXX 20214 07190 12/70 22702 10240 20190 39917 40091 57001 60006 81082 92100=
07190,1998-07-21 00:00:00,20,1009.4,0.1,94,19,20000,7.408,,,260,,,,,,,,,,,wg-a,,,,AAXX 21004 07190 12/70 32604 10200 20190 39918 40094 53001 60006 83030 90000=
07190,1998-07-21 03:00:00,20,1009.3,-0.2,88,18,15000,7.408,,,130,,,,0,,,,,,17,wg-a,,,,AAXX 21034 07190 12665 61304 10200 20180 39916 40093 55002 60007 71798 86900 90300=
07190,1998-07-21 06:00:00,22,1011.2,2,78,18,500,3.704,,,130,19.3,31.3,,,,,2,,,1,wg-a,,,,AAXX 21064 07190 02700 /1302 10220 20180 39936 40112 51020 60006 70198 81180 90600 333 10313 20193 60024=
07190,1998-07-21 09:00:00,29,1011.7,0.9,45,16,25000,11.112,,,250,,,,,,,,,,,wg-a,,,,AAXX 21094 07190 12875 12506 10290 20160 39945 40117 51009 60006 81181 90900=
07190,1998-07-21 12:00:00,30,1012,0.4,43,16,25000,11.112,,,340,,,,,,,,,,,wg-a,,,,AAXX 21124 07190 12775 23406 10300 20160 39949 40120 52004 60006 81403 91200=
07190,1998-07-21 15:00:00,19,1015.3,2.6,94,18,8000,3.704,,,50,,,,5,,,,,,29,wg-a,,,,AAXX 21154 07190 12658 /0502 10190 20180 39975 40153 53026 60057 72998 84963 91500=
07190,1998-07-21 18:00:00,21,1015.2,-0,83,18,35000,7.408,,,140,19.1,30.3,,,,,,,,1,wg-a,,,,AAXX 21184 07190 12681 51404 10210 20180 39975 40152 55000 60006 70198 82980 91800 333 10303 20191=
07190,1998-07-21 21:00:00,19,1017.5,2.2,94,18,20000,3.704,,,220,,,,,,,,,,,wg-a,,,,AAXX 21214 07190 12870 52202 10190 20180 39997 40175 53022 60006 82482 92100=
07190,1998-07-22 00:00:00,18,1018.3,0.7,94,17,20000,0,,,0,,,,,,,,,,,wg-a,,,,AAXX 22004 07190 12/70 40000 10180 20170 30004 40183 53007 60006 84080 90000=
07190,1998-07-22 03:00:00,16,1019.1,0.6,94,15,20000,3.704,,,210,,,,,,,,,,,wg-a,,,,AAXX 22034 07190 12/70 52102 10160 20150 30010 40191 51006 60006 82032 90300=
07190,1998-07-22 06:00:00,17,1019.5,0.5,88,15,20000,3.704,,,70,15.3,21.1,,,,,5,,,,wg-a,,,,AAXX 22064 07190 02670 50702 10170 20150 30015 40195 53005 60006 82532 90600 333 10211 20153 60054=
07190,1998-07-22 12:00:00,25,1018,-0.9,57,16,20000,7.408,,,60,,,,,,,,,,,wg-a,,,,AAXX 22124 07190 12670 70604 10250 20160 30005 40180 58009 60006 84282 91200=
07190,1998-07-22 15:00:00,27,1016.9,-1,51,16,20000,3.704,,,170,,,,,,,,,,,wg-a,,,,AAXX 22154 07190 12670 /1702 10270 20160 39995 40169 58010 60006 84882 91500=
07190,1998-07-22 18:00:00,26,1016.6,-0.3,58,17,20000,3.704,,,330,17.4,27.4,,,,,,,,,wg-a,,,,AAXX 22184 07190 12770 53302 10260 20170 39992 40166 55003 60006 81401 91800 333 10274 20174=
07190,1998-07-22 21:00:00,20,1017.3,0.3,88,18,15000,0,,,0,,,,,,,,,,,wg-a,,,,AAXX 22214 07190 12765 50000 10200 20180 39995 40173 53003 60006 815/1 92100=
07190,1998-07-23 00:00:00,18,1016.9,-0.5,94,17,15000,0,,,0,,,,,,,,,,,wg-a,,,,AAXX 23004 07190 12/65 60000 10180 20170 39990 40169 56005 60006 80001 90000=
07190,1998-07-23 03:00:00,16,1016.7,-0.4,94,15,15000,7.408,,,230,,,,,,,,,,,wg-a,,,,AAXX 23034 07190 12/65 22304 10160 20150 39986 40167 58004 60006 80001 90300=
07190,1998-07-23 06:00:00,18,1016.6,0.1,94,17,9000,11.112,,,190,15.5,26.1,,,,,,,,,wg-a,,,,AAXX 23064 07190 02/59 21906 10180 20170 39987 40166 53001 60006 81081 90600 333 10261 20155 60004=
07190,1998-07-23 09:00:00,26,1015.4,-0.7,70,20,15000,11.112,,,180,,,,,,,,,,,wg-a,,,,AAXX 23094 07190 12665 41806 10260 20200 39980 40154 57007 60006 82881 90900=
07190,1998-07-23 12:00:00,28,1014.5,-0.8,51,17,25000,11.112,,,180,,,,,,,,,,,wg-a,,,,AAXX 23124 07190 12675 71806 10280 20170 39972 40145 56008 60006 8488/ 91200=
07190,1998-07-23 15:00:00,19,1016.8,1.8,88,17,15000,18.52,,,360,,,,1,,,,,,61,wg-a,,,,AAXX 23154 07190 12665 73610 10190 20170 39990 40168 53018 60017 76186 8688/ 91500=
07190,1998-07-23 18:00:00,21,1017.5,0.7,64,14,500,18.52,,,50,18.4,28.7,,,,,,,,1,wg-a,,,,AAXX 23184 07190 02800 60510 10210 20140 39997 40175 53007 60006 70186 83289 91800 333 10287 20184 61000=
07190,1998-07-23 21:00:00,18,1019.1,1.4,77,14,20000,7.408,,,10,,,,,,,,,,,wg-a,,,,AAXX 23214 07190 12/70 40104 10180 20140 30011 40191 51014 60006 83082 92100=
07190,1998-07-24 00:00:00,16,1015,0.3,88,14,20000,11.112,,,220,,,,,,,,,,,wg-a,,,,AAXX 24004 07190 12/70 /2206 10160 20140 30014 40150 50003 60006 81/3/ 90000=
07190,1998-07-24 03:00:00,16,1019.6,0.1,94,15,20000,0,,,0,,,,,,,,,,,wg-a,,,,AAXX 24034 07190 12770 70000 10160 20150 30015 40196 53001 60006 875// 90300=
07190,1998-07-24 06:00:00,17,1020.1,0.6,88,15,500,3.704,,,10,14.8,20.9,,,,,1,,,,wg-a,,,,AAXX 24064 07190 02700 70102 10170 20150 30021 40201 51006 60006 875// 90600 333 10209 20148 60014=
07190,1998-07-24 09:00:00,22,1019.9,0.1,69,16,500,3.704,,,350,,,,,,,,,,,wg-a,,,,AAXX 24094 07190 12600 63502 10220 20160 30022 40199 53001 60006 84831 90900=
07190,1998-07-24 12:00:00,24,1019,-0.8,61,16,25000,11.112,,,340,,,,,,,,,,,wg-a,,,,AAXX 24124 07190 12675 73406 10240 20160 30014 40190 56008 60006 84831 91200=
07190,1998-07-24 15:00:00,26,1018.1,-0.8,48,14,500,11.112,,,30,,,,,,,,,,,wg-a,,,,AAXX 24154 07190 12600 60306 10260 20140 30006 40181 56008 60006 84231 91500=
07190,1998-07-24 18:00:00,25,1017.9,-0.3,54,15,500,11.112,,,350,17.4,26.2,,,,,,,,,wg-a,,,,AAXX 24184 07190 12700 73506 10250 20150 30003 40179 56003 60006 8588/ 91800 333 10262 20174=
07190,1998-07-24 21:00:00,20,1018.8,0.6,78,16,25000,7.408,,,320,,,,,,,,,,,wg-a,,,,AAXX 24214 07190 12875 63204 10200 20160 30009 40188 51006 60006 84531 92100=
07190,1998-07-25 00:00:00,19,1018.5,-0.3,83,16,15000,11.112,,,20,,,,,,,,,,60,wg-a,,,,AAXX 25004 07190 02565 70206 10190 20160 30006 40185 58003 61000 76062 8683/ 90000 333 6100=
07190,1998-07-25 03:00:00,18,1019,0.4,83,15,15000,7.408,,,320,,,,0,,,,,,1,wg-a,,,,AAXX 25034 07190 12665 73204 10180 20150 30010 40190 51004 60007 70186 8683/ 90300=
07190,1998-07-25 06:00:00,18,1019.6,0.6,77,14,15000,3.704,,,350,17.2,24.7,,,,,,,,1,wg-a,,,,AAXX 25064 07190 02765 73502 10180 20140 30016 40196 53006 60006 70186 8257/ 90600 333 10247 20172 60004=
07190,1998-07-25 09:00:00,21,1020,0.6,56,12,14000,11.112,,,40,,,,,,,,,,,wg-a,,,,AAXX 25094 07190 12664 20406 10210 20120 30022 40200 50006 60006 81101 90900=
07190,1998-07-25 12:00:00,25,1019.5,-0.3,47,13,15000,11.112,,,30,,,,,,,,,,,wg-a,,,,AAXX 25124 07190 12765 40306 10250 20130 30019 40195 58003 60006 84100 91200=
07190,1998-07-25 15:00:00,26,1018.7,-0.7,39,11,20000,11.112,,,340,,,,,,,,,,,wg-a,,,,AAXX 25154 07190 12770 23406 10260 20110 30012 40187 58007 60006 82100 91500=
07190,1998-07-25 18:00:00,24,1018,-0.8,47,12,20000,11.112,,,40,17.8,26,,,,,,,,,wg-a,,,,AAXX 25184 07190 12770 10406 10240 20120 30004 40180 56008 60006 81100 91800 333 10260 20178=
07190,1998-07-25 21:00:00,18,1018.9,0.5,77,14,20000,11.112,,,340,,,,,,,,,,,wg-a,,,,AAXX 25214 07190 12/70 23406 10180 20140 30009 40189 53005 60006 81031 92100=
07190,1998-07-26 00:00:00,18,1018.2,-0.7,52,8,15000,18.52,,,20,,,,,,,,,,,wg-a,,,,AAXX 26004 07190 12765 40210 10180 20080 30002 40182 58007 60006 84500 90000=
07190,1998-07-26 03:00:00,14,1017.8,-0.6,77,10,15000,3.704,,,330,,,,,,,,,,,wg-a,,,,AAXX 26034 07190 12765 /3302 10140 20100 39996 40178 56006 60006 86500 90300=
07190,1998-07-26 06:00:00,16,1017.2,-0.5,68,10,20000,3.704,,,10,13.1,24.3,,,,,,,,,wg-a,,,,AAXX 26064 07190 02770 30102 10160 20100 39991 40172 58005 60006 83800 90600 333 10243 20131 60004=
07190,1998-07-26 09:00:00,21,1016.2,-0.7,60,13,20000,3.704,,,360,,,,,,,,,,,wg-a,,,,AAXX 26094 07190 12770 23602 10210 20130 39984 40162 58007 60006 81501 90900=
07190,1998-07-26 12:00:00,27,1014,-1.8,42,13,20000,7.408,,,90,,,,,,,,,,,wg-a,,,,AAXX 26124 07190 12770 20904 10270 20130 39966 40140 58018 60006 81201 91200=
07190,1998-07-26 15:00:00,28,1012.6,-1.3,42,14,20000,7.408,,,40,,,,,,,,,,,wg-a,,,,AAXX 26154 07190 12770 50404 10280 20140 39953 40126 56013 60006 82281 91500=
07190,1998-07-26 18:00:00,26,1011.8,-0.9,51,15,20000,11.112,,,30,16.4,28.1,,,,,,,,,wg-a,,,,AAXX 26184 07190 12/70 70306 10260 20150 39944 40118 56009 60006 84082 91800 333 10281 20164=
07190,1998-07-26 21:00:00,20,1011.9,-0.2,78,16,15000,3.704,,,260,,,,,,,,,,,wg-a,,,,AAXX 26214 07190 12/65 42602 10200 20160 39942 40119 58002 60006 81082 92100=
07190,1998-07-27 00:00:00,19,1011.7,-0.3,83,16,15000,3.704,,,190,,,,,,,,,,,wg-a,,,,AAXX 27004 07190 12/65 71902 10190 20160 39939 40117 55003 60006 8707/ 90000=
07190,1998-07-27 03:00:00,18,1011.2,-0.5,88,16,15000,7.408,,,240,,,,,,,,,,,wg-a,,,,AAXX 27034 07190 12765 52404 10180 20160 39934 40112 55005 60006 83182 90300=
07190,1998-07-27 06:00:00,19,1011.1,-0.1,83,16,20000,3.704,,,220,17.7,26.4,,,,,,,,,wg-a,,,,AAXX 27064 07190 02770 72202 10190 20160 39933 40111 58001 60006 83882 90600 333 10264 20177 60004=
07190,1998-07-27 09:00:00,21,1011.9,0.9,83,18,15000,11.112,,,180,,,,,,,,,,21,wg-a,,,,AAXX 27094 07190 02765 81806 10210 20180 39942 40119 51009 61000 72162 8387/ 90900 333 ////=
07190,1998-07-27 12:00:00,21,1011.6,-0.3,83,18,10000,11.112,,,160,,,,,,,,,,21,wg-a,,,,AAXX 27124 07190 02460 81606 10210 20180 39939 40116 58003 61000 72162 8687/ 91200 333 6100=
07190,1998-07-27 15:00:00,20,1012,0.4,88,18,10000,11.112,,,180,,,,0,,,,,,21,wg-a,,,,AAXX 27154 07190 12560 81806 10200 20180 39943 40120 53004 60007 72162 8287/ 91500=
07190,1998-07-27 18:00:00,21,1012.3,0.3,78,17,20000,14.816,,,170,19,21.3,,,,,,,,1,wg-a,,,,AAXX 27184 07190 12770 61708 10210 20170 39946 40123 53003 60006 70162 85282 91800 333 10213 20190=
07190,1998-07-27 21:00:00,15,1013.2,0.5,88,13,15000,3.704,,,190,,,,,,,,,,,wg-a,,,,AAXX 27214 07190 12/65 31902 10150 20130 39951 40132 50005 60006 81033 92100=
07190,1998-07-28 00:00:00,15,1013.7,0.6,94,14,15000,3.704,,,170,,,,,,,,,,,wg-a,,,,AAXX 28004 07190 12865 71702 10150 20140 39957 40137 51006 60006 875// 90000=
07190,1998-07-28 03:00:00,16,1013.3,-0.4,94,15,500,3.704,,,160,,,,,,,,,,,wg-a,,,,AAXX 28034 07190 12100 71602 10160 20150 39953 40133 57004 60006 875// 90300=
07190,1998-07-28 06:00:00,17,1013.5,0.3,94,16,10000,11.112,,,170,14.4,20.6,,,,,,,,21,wg-a,,,,AAXX 28064 07190 02360 71706 10170 20160 39956 40135 52003 61000 72162 87800 90600 333 10206 20144 6000=
07190,1998-07-28 09:00:00,21,1013.3,-0,60,13,18000,22.224,,,250,,,,,,,,,,,wg-a,,,,AAXX 28094 07190 12568 72512 10210 20130 39956 40133 55000 60006 85801 90900=
07190,1998-07-28 12:00:00,20,1013.6,0.2,60,12,25000,14.816,,,270,,,,,,,,,,1,wg-a,,,,AAXX 28124 07190 02675 72708 10200 20120 39958 40136 51002 61000 70162 83231 91200 333 6100=
07190,1998-07-28 15:00:00,21,1012.9,-0.6,53,11,25000,14.816,,,210,,,,,,,,,,,wg-a,,,,AAXX 28154 07190 12675 72108 10210 20110 39952 40129 56006 60006 8483/ 91500=
07190,1998-07-28 18:00:00,20,1012.9,-0.1,56,11,25000,11.112,,,270,16.7,21.4,,,,,,,,,wg-a,,,,AAXX 28184 07190 12675 72706 10200 20110 39951 40129 55001 60006 8587/ 91800 333 10214 20167=
07190,1998-07-28 21:00:00,18,1013.5,0.5,77,14,8000,7.408,,,230,,,,0,,,,,,61,wg-a,,,,AAXX 28214 07190 12658 82304 10180 20140 39956 40135 51005 60007 76162 878// 92100=
07190,1998-07-29 00:00:00,16,1013.3,-0.3,94,15,10000,7.408,,,150,,,,0,,,,,,21,wg-a,,,,AAXX 29004 07190 02560 81504 10160 20150 39953 40133 58003 60016 72162 878// 90000 333 60007=
07190,1998-07-29 03:00:00,15,1012.4,-0.9,94,14,10000,11.112,,,170,,,,,,,,,,60,wg-a,,,,AAXX 29034 07190 02460 81706 10150 20140 39944 40124 56009 61000 76062 878// 90300 333 ////=
07190,1998-07-29 06:00:00,16,1012.3,-0.1,94,15,15000,14.816,,,180,15.3,20.2,,,,,,,,3,wg-a,,,,AAXX 29064 07190 02465 71808 10160 20150 39943 40123 55001 60006 70362 878// 90600 333 10202 20153 60004=
07190,1998-07-29 09:00:00,21,1011.9,-0.1,69,15,25000,18.52,,,190,,,,,,,,,,,wg-a,,,,AAXX 29094 07190 12675 71910 10210 20150 39942 40119 58001 60006 8683/ 90900=
07190,1998-07-29 12:00:00,22,1011.4,-0.4,65,15,25000,29.632,,,200,,,,,,,,,,21,wg-a,,,,AAXX 29124 07190 02675 72016 10220 20150 39938 40114 56004 61000 72162 8687/ 91200 333 6100=
07190,1998-07-29 15:00:00,24,1009.9,-1.4,61,16,45000,18.52,,,200,,,,,,,,,,1,wg-a,,,,AAXX 29154 07190 02683 52010 10240 20160 39924 40099 58014 61000 70162 83131 91500 333 ////=
07190,1998-07-29 18:00:00,24,1008.7,-1.1,54,14,40000,22.224,,,210,15.8,24.5,,,,,,,,3,wg-a,,,,AAXX 29184 07190 12682 72112 10240 20140 39913 40087 56011 60006 70362 85830 91800 333 10245 20158=
07190,1998-07-29 21:00:00,21,1010.3,1.4,69,15,15000,25.928,,,270,,,,,,,,,,60,wg-a,,,,AAXX 29214 07190 02665 72714 10210 20150 39927 40103 53014 61000 76062 85830 92100 333 ////=
07190,1998-07-30 00:00:00,17,1010.8,0.2,94,16,10000,7.408,,,250,,,,4,,,,,,21,wg-a,,,,AAXX 30004 07190 02660 72504 10170 20160 39929 40108 50002 60046 72162 878// 90000 333 60047=
07190,1998-07-30 03:00:00,17,1010.7,-0.1,94,16,15000,3.704,,,160,,,,,,,,,,,wg-a,,,,AAXX 30034 07190 12665 71602 10170 20160 39928 40107 58001 60006 878// 90300=
07190,1998-07-30 06:00:00,18,1010.5,-0.1,88,16,14000,7.408,,,170,16.1,23.9,,,,,4,,,,wg-a,,,,AAXX 30064 07190 02564 71704 10180 20160 39927 40105 56001 60006 878// 90600 333 10239 20161 60044=
07190,1998-07-30 09:00:00,20,1010.4,0,83,17,15000,14.816,,,170,,,,,,,,,,3,wg-a,,,,AAXX 30094 07190 02465 71708 10200 20170 39927 40104 50000 61000 70362 878// 90900 333 ////=
07190,1998-07-30 12:00:00,18,1010.8,0.3,88,16,4500,14.816,,,300,,,,0,,,,,,25,wg-a,,,,AAXX 30124 07190 02545 83008 10180 20160 39930 40108 53003 60006 72586 878// 91200 333 60007=
07190,1998-07-30 15:00:00,19,1011.3,0.5,78,15,20000,22.224,,,240,,,,1,,,,,,25,wg-a,,,,AAXX 30154 07190 12570 72412 10190 20150 39935 40113 51005 60017 72586 8687/ 91500=
07190,1998-07-30 18:00:00,20,1011.9,0.7,64,13,35000,18.52,,,230,17.6,22,,,,,,,,15,wg-a,,,,AAXX 30184 07190 12581 32310 10200 20130 39942 40119 52007 60006 71586 83800 91800 333 10220 20176=
07190,1998-07-30 21:00:00,16,1013.3,1.1,94,15,20000,14.816,,,190,,,,,,,,,,,wg-a,,,,AAXX 30214 07190 12670 21908 10160 20150 39953 40133 53011 60006 82800 92100=
07190,1998-07-31 00:00:00,14,1014,0.6,100,14,20000,7.408,,,190,,,,,,,,,,,wg-a,,,,AAXX 31004 07190 12770 /1904 10140 20140 39959 40140 51006 60006 81400 90000=
07190,1998-07-31 03:00:00,13,1014.8,0.7,100,13,20000,7.408,,,210,,,,0,,,,,,,wg-a,,,,AAXX 31034 07190 12170 32104 10130 20130 39966 40148 51007 60007 83600 90300=
07190,1998-07-31 06:00:00,14,1015.8,1,94,13,25000,3.704,,,190,11.8,20,,,,,1,,,,wg-a,,,,AAXX 31064 07190 02775 31902 10140 20130 39976 40158 51010 60006 82801 90600 333 10200 20118 60014=
07190,1998-07-31 09:00:00,20,1016,0.6,68,14,25000,11.112,,,180,,,,,,,,,,,wg-a,,,,AAXX 31094 07190 12775 41806 10200 20140 39982 40160 51006 60006 83801 90900=
07190,1998-07-31 12:00:00,23,1015.8,0,41,9,25000,7.408,,,260,,,,,,,,,,,wg-a,,,,AAXX 31124 07190 12775 72604 10230 20090 39982 40158 50000 60006 84801 91200=
07190,1998-07-31 15:00:00,24,1015.7,-0.1,41,10,25000,7.408,,,30,,,,,,,,,,,wg-a,,,,AAXX 31154 07190 12775 60304 10240 20100 39981 40157 56001 60006 84801 91500=
07190,1998-07-31 18:00:00,23,1015.9,0.1,44,10,40000,11.112,,,20,13.8,24.1,,,,,,,,,wg-a,,,,AAXX 31184 07190 12782 50206 10230 20100 39982 40159 53001 60006 83801 91800 333 10241 20138=
07190,1998-07-31 21:00:00,17,1017.2,1,77,13,40000,7.408,,,330,,,,,,,,,,,wg-a,,,,AAXX 31214 07190 12782 43304 10170 20130 39992 40172 51010 60006 81101 92100=
07190,1998-08-01 00:00:00,13,1017.6,0.1,94,12,500,0,,,0,,,,,,,,,,,wg-a,,,,AAXX 01004 07190 12800 30000 10130 20120 39993 40176 50001 60006 815/1 90000=
07190,1998-08-01 03:00:00,11,1017,-0.7,94,10,15000,3.704,,,80,,,,,,,,,,,wg-a,,,,AAXX 01034 07190 12865 40802 10110 20100 39986 40170 57007 60006 825/1 90300=
07190,1998-08-01 06:00:00,13,1016.7,-0.1,88,11,40000,7.408,,,340,10.8,22.9,,,,,,,,,wg-a,,,,AAXX 01064 07190 02882 23404 10130 20110 39985 40167 56001 60006 81031 90600 333 10229 20108 60004=
07190,1998-08-01 09:00:00,22,1014.1,-2.1,53,12,35000,14.816,,,10,,,,,,,,,,,wg-a,,,,AAXX 01094 07190 12781 30108 10220 20120 39964 40141 58021 60006 81132 90900=
07190,1998-08-01 12:00:00,19,1014.1,-0.1,88,17,8000,7.408,,,320,,,,1,,,,,,61,wg-a,,,,AAXX 01124 07190 02558 83204 10190 20170 39963 40141 55001 60016 76161 8487/ 91200 333 60017=
07190,1998-08-01 15:00:00,21,1013.6,-0.4,64,14,20000,14.816,,,330,,,,1,,,,,,3,wg-a,,,,AAXX 01154 07190 12670 73308 10210 20140 39959 40136 55004 60017 70362 81232 91500=
07190,1998-08-01 18:00:00,16,1015.6,1.6,88,14,20000,14.816,,,310,13.4,23.4,,,,,,,,25,wg-a,,,,AAXX 01184 07190 02570 73108 10160 20140 39975 40156 50016 61000 72586 878// 91800 333 10234 20134 6001=
07190,1998-08-01 21:00:00,16,1017,1.4,88,14,10000,7.408,,,320,,,,,,,,,,,wg-a,,,,AAXX 01214 07190 12560 83204 10160 20140 39989 40170 51014 60006 878// 92100=
07190,1998-08-02 00:00:00,15,1017.1,0.1,88,13,10000,3.704,,,10,,,,,,,,,,,wg-a,,,,AAXX 02004 07190 12560 70102 10150 20130 39990 40171 50001 60006 875// 90000=
07190,1998-08-02 03:00:00,14,1017.8,0.6,94,13,10000,3.704,,,290,,,,,,,,,,,wg-a,,,,AAXX 02034 07190 12560 /2902 10140 20130 39996 40178 51006 60006 85500 90300=
07190,1998-08-02 06:00:00,15,1018.7,0.9,94,14,7000,3.704,,,240,12.8,15.8,,,,,3,,,,wg-a,,,,AAXX 02064 07190 02557 52402 10150 20140 30005 40187 53009 60006 83870 90600 333 10158 20128 60034=
07190,1998-08-02 09:00:00,18,1018.5,0,73,13,20000,7.408,,,50,,,,,,,,,,,wg-a,,,,AAXX 02094 07190 12570 70504 10180 20130 30005 40185 50000 60006 8687/ 90900=
07190,1998-08-02 12:00:00,19,1018.8,0.4,73,14,18000,7.408,,,10,,,,,,,,,,60,wg-a,,,,AAXX 02124 07190 02568 70104 10190 20140 30009 40188 51004 61000 76061 8587/ 91200 333 6100=
07190,1998-08-02 15:00:00,18,1019.5,0.6,83,15,12000,11.112,,,300,,,,0,,,,,,60,wg-a,,,,AAXX 02154 07190 12662 73006 10180 20150 30015 40195 51006 60007 76062 8487/ 91500=
07190,1998-08-02 18:00:00,16,1020.5,0.9,94,15,7000,7.408,,,330,14.5,19.5,,,,,,,,61,wg-a,,,,AAXX 02184 07190 02557 73304 10160 20150 30024 40205 53009 61000 76162 878// 91800 333 10195 20145 6002=
07190,1998-08-02 21:00:00,16,1021.7,1.1,94,15,500,3.704,,,220,,,,2,,,,,,10,wg-a,,,,AAXX 02214 07190 12300 72202 10160 20150 30035 40217 51011 60027 71062 8587/ 92100=
07190,1998-08-03 00:00:00,15,1021.6,-0.1,100,15,6000,3.704,,,30,,,,1,,,,,,60,wg-a,,,,AAXX 03004 07190 02456 70302 10150 20150 30034 40216 56001 60036 76062 8557/ 90000 333 60017=
07190,1998-08-03 03:00:00,15,1022.2,0.6,94,14,8000,3.704,,,300,,,,1,,,,,,60,wg-a,,,,AAXX 03034 07190 12458 73002 10150 20140 30040 40222 53006 60017 76066 8557/ 90300=
07190,1998-08-03 06:00:00,15,1023.6,1.4,100,15,1500,3.704,,,290,14.7,16,,,,,,,,10,wg-a,,,,AAXX 03064 07190 02415 82902 10150 20150 30054 40236 51014 61000 71066 875// 90600 333 10160 20147 6014=
07190,1998-08-03 09:00:00,17,1024.2,0.7,94,16,8000,3.704,,,290,,,,1,,,,,,1,wg-a,,,,AAXX 03094 07190 12358 82902 10170 20160 30061 40242 51007 60017 70165 875// 90900=
07190,1998-08-03 12:00:00,21,1023.2,-0.7,73,16,15000,11.112,,,270,,,,,,,,,,1,wg-a,,,,AAXX 03124 07190 12565 72706 10210 20160 30054 40232 56007 60016 70165 85230 91200=
07190,1998-08-03 15:00:00,24,1022.2,-0.9,50,13,20000,3.704,,,310,,,,,,,,,,,wg-a,,,,AAXX 03154 07190 12670 33102 10240 20130 30045 40222 56009 60006 83230 91500=
07190,1998-08-03 18:00:00,23,1022,-0.3,61,15,500,0,,,0,15.1,24.2,,,,,,,,,wg-a,,,,AAXX 03184 07190 12600 30000 10230 20150 30042 40220 58003 60006 83801 91800 333 10242 20151=
07190,1998-08-03 21:00:00,17,1023.9,1.5,88,15,500,11.112,,,210,,,,,,,,,,,wg-a,,,,AAXX 03214 07190 12/00 32106 10170 20150 30057 40239 53015 60006 81031 92100=
07190,1998-08-04 00:00:00,14,1022.6,-1.4,94,13,20000,0,,,0,,,,,,,,,,,wg-a,,,,AAXX 04004 07190 12/70 00000 10140 20130 30043 40226 58014 60006 80000 90000=
07190,1998-08-04 03:00:00,13,1023.5,0.8,94,12,20000,3.704,,,200,,,,,,,,,,,wg-a,,,,AAXX 04034 07190 12/70 02002 10130 20120 30051 40235 52008 60006 80000 90300=
07190,1998-08-04 06:00:00,14,1023.6,0.2,100,14,6000,11.112,,,200,11.9,22.5,,,,,1,,,,wg-a,,,,AAXX 04064 07190 02156 32006 10140 20140 30053 40236 53002 60006 81601 90600 333 10225 20119 60014=
07190,1998-08-04 09:00:00,22,1023.8,0.7,73,17,15000,14.816,,,200,,,,,,,,,,,wg-a,,,,AAXX 04094 07190 12565 32008 10220 20170 30060 40238 51007 60006 81132 90900=
07190,1998-08-04 12:00:00,26,1022.4,-1.2,45,13,20000,3.704,,,320,,,,,,,,,,,wg-a,,,,AAXX 04124 07190 12670 33202 10260 20130 30048 40224 58012 60006 81132 91200=
07190,1998-08-04 15:00:00,25,1022.5,0.1,54,15,20000,18.52,,,330,,,,,,,,,,,wg-a,,,,AAXX 04154 07190 12670 73310 10250 20150 30049 40225 53001 60006 81132 91500=
07190,1998-08-04 18:00:00,21,1024,1.3,73,16,20000,18.52,,,320,14.1,26.9,,,,,,,,,wg-a,,,,AAXX 04184 07190 12770 73210 10210 20160 30062 40240 53013 60006 8217/ 91800 333 10269 20141=
07190,1998-08-04 21:00:00,19,1026.4,2.2,83,16,20000,3.704,,,330,,,,,,,,,,,wg-a,,,,AAXX 04214 07190 12770 /3302 10190 20160 30084 40264 51022 60006 82530 92100=
07190,1998-08-05 00:00:00,18,1026.8,0.3,83,15,20000,11.112,,,320,,,,,,,,,,,wg-a,,,,AAXX 05004 07190 12770 /3206 10180 20150 30087 40268 51003 60006 81530 90000=
07190,1998-08-05 03:00:00,17,1027.5,0.6,82,14,20000,11.112,,,340,,,,,,,,,,,wg-a,,,,AAXX 05034 07190 12570 73406 10170 20140 30093 40275 53006 60006 875// 90300=
07190,1998-08-05 06:00:00,16,1028.8,1.2,77,12,20000,11.112,,,340,15.5,21.4,,,,,1,,,,wg-a,,,,AAXX 05064 07190 02670 23406 10160 20120 30105 40288 53012 60006 82500 90600 333 10214 20155 60014=
07190,1998-08-05 09:00:00,20,1029.3,0.7,56,11,20000,14.816,,,10,,,,,,,,,,,wg-a,,,,AAXX 05094 07190 12670 /0108 10200 20110 30112 40293 51007 60006 81130 90900=
07190,1998-08-05 12:00:00,22,1028.6,-0.5,46,10,25000,14.816,,,340,,,,,,,,,,,wg-a,,,,AAXX 05124 07190 12775 /3408 10220 20100 30107 40286 58005 60006 81101 91200=
07190,1998-08-05 15:00:00,24,1027.9,-0.6,44,11,500,11.112,,,360,,,,,,,,,,,wg-a,,,,AAXX 05154 07190 12700 13606 10240 20110 30101 40279 58006 60006 81100 91500=
07190,1998-08-05 18:00:00,23,1027.5,-0.4,50,12,25000,7.408,,,330,16.3,24.5,,,,,,,,,wg-a,,,,AAXX 05184 07190 12775 13304 10230 20120 30097 40275 56004 60006 81400 91800 333 10245 20163=
07190,1998-08-05 21:00:00,17,1028.3,0.4,82,14,20000,3.704,,,230,,,,,,,,,,,wg-a,,,,AAXX 05214 07190 12/70 12302 10170 20140 30101 40283 53004 60006 80001 92100=
07190,1998-08-06 00:00:00,14,1028,-0.5,88,12,15000,3.704,,,220,,,,,,,,,,,wg-a,,,,AAXX 06004 07190 12/65 12202 10140 20120 30096 40280 57005 60006 80001 90000=
07190,1998-08-06 03:00:00,12,1027.6,-0.5,94,11,10000,0,,,0,,,,,,,,,,,wg-a,,,,AAXX 06034 07190 12/60 10000 10120 20110 30091 40276 56005 60006 80001 90300=
07190,1998-08-06 06:00:00,15,1027.6,0.2,88,13,8000,7.408,,,10,11.4,23,,,,,,,,,wg-a,,,,AAXX 06064 07190 02/58 10104 10150 20130 30093 40276 53002 60006 80001 90600 333 10230 20114 60004=
07190,1998-08-06 09:00:00,22,1026.7,-0.5,60,14,15000,7.408,,,360,,,,,,,,,,,wg-a,,,,AAXX 06094 07190 12/65 03604 10220 20140 30088 40267 58005 60006 80000 90900=
07190,1998-08-06 12:00:00,26,1025,-1.4,39,11,20000,7.408,,,330,,,,,,,,,,,wg-a,,,,AAXX 06124 07190 12770 13304 10260 20110 30074 40250 57014 60006 81100 91200=
07190,1998-08-06 15:00:00,27,1023.5,-1.4,37,11,20000,7.408,,,360,,,,,,,,,,,wg-a,,,,AAXX 06154 07190 12/70 03604 10270 20110 30060 40235 56014 60006 80000 91500=
07190,1998-08-06 18:00:00,25,1022.9,-0.7,44,12,25000,7.408,,,340,14.8,27.7,,,,,,,,,wg-a,,,,AAXX 06184 07190 12/75 03404 10250 20120 30053 40229 56007 60006 80000 91800 333 10277 20148=
07190,1998-08-06 21:00:00,17,1024.1,0.7,82,14,25000,3.704,,,250,,,,,,,,,,,wg-a,,,,AAXX 06214 07190 12/75 02502 10170 20140 30060 40241 53007 60006 80000 92100=
07190,1998-08-07 00:00:00,14,1023.7,-0.6,88,12,25000,3.704,,,80,,,,,,,,,,,wg-a,,,,AAXX 07004 07190 12/75 00802 10140 20120 30054 40237 58006 60006 80000 90000=
07190,1998-08-07 03:00:00,13,1023.4,-0.4,94,12,25000,0,,,0,,,,,,,,,,,wg-a,,,,AAXX 07034 07190 12/75 00000 10130 20120 30050 40234 56004 60006 80000 90300=
07190,1998-08-07 06:00:00,15,1023.6,0.3,88,13,20000,0,,,0,12,25.3,,,,,,,,,wg-a,,,,AAXX 07064 07190 02/70 00000 10150 20130 30053 40236 50003 60006 80000 90600 333 10253 20120 60004=
07190,1998-08-07 09:00:00,23,1023.4,0.4,61,15,20000,3.704,,,360,,,,,,,,,,,wg-a,,,,AAXX 07094 07190 12/70 03602 10230 20150 30057 40234 50004 60006 80000 90900=
07190,1998-08-07 12:00:00,29,1021.6,-1.5,40,14,20000,7.408,,,350,,,,,,,,,,,wg-a,,,,AAXX 07124 07190 12/70 23504 10290 20140 30042 40216 56015 60006 80001 91200=
07190,1998-08-07 15:00:00,31,1020.4,-1.1,36,14,20000,11.112,,,330,,,,,,,,,,,wg-a,,,,AAXX 07154 07190 12/70 53306 10310 20140 30031 40204 56011 60006 80001 91500=
07190,1998-08-07 18:00:00,29,1020,-0.5,37,13,25000,7.408,,,340,14.6,30.5,,,,,,,,,wg-a,,,,AAXX 07184 07190 12/75 23404 10290 20130 30026 40200 55005 60006 80001 91800 333 10305 20146=
07190,1998-08-07 21:00:00,20,1020.9,0.4,78,16,20000,3.704,,,270,,,,,,,,,,,wg-a,,,,AAXX 07214 07190 12/70 32702 10200 20160 30030 40209 52004 60006 80001 92100=
07190,1998-08-08 00:00:00,16,1021,-0.1,88,14,20000,0,,,0,,,,,,,,,,,wg-a,,,,AAXX 08004 07190 12/70 30000 10160 20140 30029 40210 58001 60006 80001 90000=
07190,1998-08-08 03:00:00,14,1020.6,-0.6,94,13,20000,0,,,0,,,,,,,,,,,wg-a,,,,AAXX 08034 07190 12/70 30000 10140 20130 30023 40206 56006 60006 80001 90300=
07190,1998-08-08 06:00:00,16,1020.3,-0.1,88,14,20000,3.704,,,300,13.7,28.6,,,,,,,,,wg-a,,,,AAXX 08064 07190 02/70 13002 10160 20140 30022 40203 56001 60006 80001 90600 333 10286 20137 60004=
07190,1998-08-08 09:00:00,25,1019.4,-0.4,57,16,18000,3.704,,,30,,,,,,,,,,,wg-a,,,,AAXX 08094 07190 12/68 00302 10250 20160 30018 40194 58004 60006 80000 90900=
07190,1998-08-08 12:00:00,31,1017.7,-1.3,40,16,18000,7.408,,,10,,,,,,,,,,,wg-a,,,,AAXX 08124 07190 12/68 00104 10310 20160 30005 40177 58013 60006 80000 91200=
07190,1998-08-08 15:00:00,33,1015.4,-2.1,32,14,20000,7.408,,,360,,,,,,,,,,,wg-a,,,,AAXX 08154 07190 12/70 03604 10330 20140 39984 40154 57021 60006 80000 91500=
07190,1998-08-08 18:00:00,31,1014.5,-1,43,17,20000,3.704,,,340,16.2,33.3,,,,,,,,,wg-a,,,,AAXX 08184 07190 12/70 03402 10310 20170 39974 40145 56010 60006 80000 91800 333 10333 20162=
07190,1998-08-08 21:00:00,22,1015.5,0.5,78,18,20000,7.408,,,250,,,,,,,,,,,wg-a,,,,AAXX 08214 07190 12/70 02504 10220 20180 39979 40155 52005 60006 80000 92100=
07190,1998-08-09 00:00:00,19,1016.1,0.3,83,16,20000,0,,,0,,,,,,,,,,,wg-a,,,,AAXX 09004 07190 12/70 00000 10190 20160 39982 40161 51003 60006 80000 90000=
07190,1998-08-09 03:00:00,17,1016.4,0.2,88,15,20000,3.704,,,10,,,,,,,,,,,wg-a,,,,AAXX 09034 07190 12/70 00102 10170 20150 39984 40164 53002 60006 80000 90300=
07190,1998-08-09 06:00:00,18,1017.1,0.8,88,16,20000,3.704,,,200,15.3,31.3,,,,,,,,,wg-a,,,,AAXX 09064 07190 02/70 12002 10180 20160 39992 40171 53008 60006 80001 90600 333 10313 20153 60004=
07190,1998-08-09 09:00:00,26,1017,0.3,58,17,17000,3.704,,,40,,,,,,,,,,,wg-a,,,,AAXX 09094 07190 12/67 30402 10260 20170 39995 40170 51003 60006 80001 90900=
07190,1998-08-09 12:00:00,30,1016.1,-0.6,46,17,20000,7.408,,,40,,,,,,,,,,,wg-a,,,,AAXX 09124 07190 12770 20404 10300 20170 39989 40161 58006 60006 81101 91200=
07190,1998-08-09 15:00:00,33,1014.7,-1.2,32,14,20000,11.112,,,50,,,,,,,,,,,wg-a,,,,AAXX 09154 07190 12870 10506 10330 20140 39977 40147 58012 60006 81100 91500=
07190,1998-08-09 18:00:00,31,1014.4,-0.5,40,16,20000,14.816,,,30,17.8,32.9,,,,,,,,,wg-a,,,,AAXX 09184 07190 12/70 00308 10310 20160 39972 40144 56005 60006 80000 91800 333 10329 20178=
07190,1998-08-09 21:00:00,24,1016.1,1.3,54,14,20000,11.112,,,360,,,,,,,,,,,wg-a,,,,AAXX 09214 07190 12/70 03606 10240 20140 39985 40161 51013 60006 80000 92100=
07190,1998-08-10 00:00:00,20,1016.8,0.5,73,15,20000,7.408,,,300,,,,,,,,,,,wg-a,,,,AAXX 10004 07190 12/70 03004 10200 20150 39990 40168 51005 60006 80000 90000=
07190,1998-08-10 03:00:00,17,1017.2,0.2,88,15,20000,7.408,,,330,,,,,,,,,,,wg-a,,,,AAXX 10034 07190 12/70 03304 10170 20150 39992 40172 51002 60006 80000 90300=
07190,1998-08-10 06:00:00,20,1017.7,0.7,78,16,20000,7.408,,,340,16.9,30.4,,,,,,,,,wg-a,,,,AAXX 10064 07190 02/70 03404 10200 20160 39999 40177 51007 60006 80000 90600 333 10304 20169 60004=
07190,1998-08-10 09:00:00,26,1017.6,0.2,54,16,20000,3.704,,,90,,,,,,,,,,,wg-a,,,,AAXX 10094 07190 12/70 10902 10260 20160 30001 40176 51002 60006 80001 90900=
07190,1998-08-10 12:00:00,31,1016.6,-0.6,46,18,20000,3.704,,,90,,,,,,,,,,,wg-a,,,,AAXX 10124 07190 12/70 10902 10310 20180 39995 40166 58006 60006 80001 91200=
07190,1998-08-10 15:00:00,34,1015.4,-1.1,36,17,20000,3.704,,,90,,,,,,,,,,,wg-a,,,,AAXX 10154 07190 12770 10902 10340 20170 39984 40154 56011 60006 81101 91500=
07190,1998-08-10 18:00:00,32,1015.1,-0.3,46,19,10000,3.704,,,360,19.6,34.4,,,,,,,,,wg-a,,,,AAXX 10184 07190 12/60 /3602 10320 20190 39981 40151 56003 60006 91800 333 10344 20196=
07190,1998-08-10 21:00:00,24,1016.4,0.8,74,19,15000,7.408,,,230,,,,,,,,,,,wg-a,,,,AAXX 10214 07190 12/65 02304 10240 20190 39989 40164 51008 60006 80000 92100=
07190,1998-08-11 00:00:00,21,1017.3,0.6,83,18,15000,7.408,,,230,,,,,,,,,,,wg-a,,,,AAXX 11004 07190 12865 12304 10210 20180 39995 40173 51006 60006 81060 90000=
07190,1998-08-11 03:00:00,19,1017.3,-0.1,88,17,15000,3.704,,,200,,,,,,,,,,,wg-a,,,,AAXX 11034 07190 12/65 02002 10190 20170 39994 40173 58001 60006 80000 90300=
07190,1998-08-11 06:00:00,21,1018,0.8,83,18,12000,0,,,0,18.7,32.4,,,,,,,,,wg-a,,,,AAXX 11064 07190 02/62 10000 10210 20180 30002 40180 52008 60006 80001 90600 333 10324 20187 60004=
07190,1998-08-11 09:00:00,28,1018.1,0.6,55,18,15000,3.704,,,190,,,,,,,,,,,wg-a,,,,AAXX 11094 07190 12/65 01902 10280 20180 30008 40181 51006 60006 80000 90900=
07190,1998-08-11 12:00:00,35,1016.8,-1,34,17,15000,7.408,,,130,,,,,,,,,,,wg-a,,,,AAXX 11124 07190 12765 /1304 10350 20170 39998 40168 58010 60006 81100 91200=
07190,1998-08-11 15:00:00,36,1015.6,-1.1,31,16,15000,3.704,,,130,,,,,,,,,,,wg-a,,,,AAXX 11154 07190 12765 11302 10360 20160 39987 40156 56011 60006 81200 91500=
07190,1998-08-11 18:00:00,33,1015.2,-0.5,39,17,15000,3.704,,,130,20.7,36.3,,,,,,,,,wg-a,,,,AAXX 11184 07190 12/65 11302 10330 20170 39982 40152 56005 60006 81030 91800 333 10363 20207=
07190,1998-08-11 21:00:00,24,1015.9,0.2,74,19,15000,11.112,,,220,,,,,,,,,,,wg-a,,,,AAXX 11214 07190 12/65 02206 10240 20190 39984 40159 52002 60006 80000 92100=
07190,1998-08-12 00:00:00,21,1015.9,-0.2,83,18,15000,7.408,,,210,,,,,,,,,,,wg-a,,,,AAXX 12004 07190 12/65 12104 10210 20180 39982 40159 58002 60006 80002 90000=
07190,1998-08-12 03:00:00,19,1015.3,-0.7,88,17,15000,3.704,,,210,,,,,,,,,,,wg-a,,,,AAXX 12034 07190 12/65 12102 10190 20170 39975 40153 56007 60006 80002 90300=
07190,1998-08-12 06:00:00,20,1015.2,-0.1,83,17,15000,7.408,,,240,18.5,32.7,,,,,,,,,wg-a,,,,AAXX 12064 07190 02/65 22404 10200 20170 39974 40152 55001 60006 80002 90600 333 10327 20185 60004=
07190,1998-08-12 09:00:00,29,1014.4,-0.2,52,18,15000,7.408,,,180,,,,,,,,,,,wg-a,,,,AAXX 12094 07190 12765 51804 10290 20180 39972 40144 57002 60006 81232 90900=
07190,1998-08-12 12:00:00,34,1013.2,-0.9,39,18,15000,7.408,,,30,,,,,,,,,,,wg-a,,,,AAXX 12124 07190 12765 70304 10340 20180 39963 40132 58009 60006 84232 91200=
07190,1998-08-12 18:00:00,29,1012.3,0.6,45,16,12000,11.112,,,340,20.2,35.9,,,,,,,,,wg-a,,,,AAXX 12184 07190 12862 73406 10290 20160 39951 40123 53006 60006 82572 91800 333 10359 20202=
07190,1998-08-12 21:00:00,26,1013,0.5,54,16,12000,11.112,,,330,,,,,,,,,,,wg-a,,,,AAXX 12214 07190 12862 73306 10260 20160 39956 40130 53005 60006 81532 92100=
07190,1998-08-13 00:00:00,23,1014,0.8,61,15,15000,18.52,,,320,,,,,,,,,,17,wg-a,,,,AAXX 13004 07190 02765 83210 10230 20150 39964 40140 50008 61000 71798 8497/ 90000 333 6100=
07190,1998-08-13 03:00:00,20,1015.2,1,78,16,10000,14.816,,,290,,,,0,,,,,,61,wg-a,,,,AAXX 13034 07190 12760 82908 10200 20160 39974 40152 50010 60007 76196 8757/ 90300=
07190,1998-08-13 06:00:00,19,1015.9,0.7,94,18,3000,3.704,,,190,18.6,29,,,,,,,,61,wg-a,,,,AAXX 13064 07190 02230 81902 10190 20180 39981 40159 53007 61000 76196 888// 90600 333 10290 20186 6002=
07190,1998-08-13 09:00:00,21,1016,0.2,83,18,8000,3.704,,,90,,,,1,,,,,,1,wg-a,,,,AAXX 13094 07190 12558 70902 10210 20180 39983 40160 53002 60017 70162 8587/ 90900=
07190,1998-08-13 12:00:00,25,1014.9,-0.9,41,11,20000,11.112,,,320,,,,,,,,,,1,wg-a,,,,AAXX 13124 07190 12670 53206 10250 20110 39974 40149 58009 60016 70162 84131 91200=
07190,1998-08-13 15:00:00,25,1014.8,-0.1,39,10,25000,18.52,,,330,,,,,,,,,,,wg-a,,,,AAXX 13154 07190 12775 43310 10250 20100 39973 40148 55001 60006 83101 91500=
07190,1998-08-13 18:00:00,23,1015,-0,41,9,500,18.52,,,320,18.8,25.6,,,,,,,,,wg-a,,,,AAXX 13184 07190 12/00 73210 10230 20090 39973 40150 55000 60006 80002 91800 333 10256 20188=
07190,1998-08-13 21:00:00,18,1016.7,1.4,56,9,10000,18.52,,,300,,,,,,,,,,,wg-a,,,,AAXX 13214 07190 12/60 /3010 10180 20090 39987 40167 51014 60006 92100=
07190,1998-08-14 00:00:00,14,1018,1.1,77,10,25000,7.408,,,300,,,,,,,,,,,wg-a,,,,AAXX 14004 07190 12/75 43004 10140 20100 39998 40180 51011 60006 80002 90000=
07190,1998-08-14 03:00:00,12,1017.5,-0.7,88,10,25000,7.408,,,340,,,,,,,,,,,wg-a,,,,AAXX 14034 07190 12/75 53404 10120 20100 39991 40175 58007 60006 83031 90300=
07190,1998-08-14 06:00:00,14,1017.2,-0.1,82,11,500,3.704,,,320,10.9,22.4,,,,,1,,,,wg-a,,,,AAXX 14064 07190 02/00 63202 10140 20110 39990 40172 57001 60006 80001 90600 333 10224 20109 60014=
07190,1998-08-14 09:00:00,20,1016.7,-0.1,49,9,20000,7.408,,,40,,,,,,,,,,,wg-a,,,,AAXX 14094 07190 12670 60404 10200 20090 39989 40167 58001 60006 81101 90900=
07190,1998-08-14 12:00:00,24,1015.4,-1.1,34,7,500,3.704,,,120,,,,,,,,,,,wg-a,,,,AAXX 14124 07190 12600 71202 10240 20070 39978 40154 57011 60006 81101 91200=
07190,1998-08-14 15:00:00,26,1013.9,-1.4,24,4,500,11.112,,,350,,,,,,,,,,,wg-a,,,,AAXX 14154 07190 12700 43506 10260 20040 39964 40139 58014 60006 81101 91500=
07190,1998-08-15 03:00:00,12,1014.7,-0.1,88,10,20000,0,,,0,,,,,,,,,,,wg-a,,,,AAXX 15034 07190 12/70 00000 10120 20100 39964 40147 57001 60006 80000 90300=
07190,1998-08-15 06:00:00,14,1015.2,0.6,82,11,20000,0,,,0,11.6,24.2,,,,,,,,,wg-a,,,,AAXX 15064 07190 02/70 10000 10140 20110 39970 40152 53006 60006 80001 90600 333 10242 20116 60004=
07190,1998-08-15 09:00:00,22,1015.3,0.6,57,13,20000,3.704,,,170,,,,,,,,,,,wg-a,,,,AAXX 15094 07190 12/70 11702 10220 20130 39976 40153 51006 60006 80001 90900=
07190,1998-08-15 12:00:00,28,1014.7,-0.2,42,14,10000,7.408,,,150,,,,,,,,,,,wg-a,,,,AAXX 15124 07190 12/60 /1504 10280 20140 39974 40147 57002 60006 91200=
07190,1998-08-15 15:00:00,29,1014.3,-0.3,37,13,25000,7.408,,,100,,,,,,,,,,,wg-a,,,,AAXX 15154 07190 12775 31004 10290 20130 39971 40143 56003 60006 81202 91500=
07190,1998-08-15 18:00:00,27,1014.8,0.3,48,15,25000,7.408,,,170,14,29.5,,,,,,,,,wg-a,,,,AAXX 15184 07190 12/75 31704 10270 20150 39974 40148 53003 60006 80002 91800 333 10295 20140=
07190,1998-08-16 15:00:00,31,1017.6,-1.3,36,14,25000,7.408,,,330,,,,,,,,,,,wg-a,,,,AAXX 16154 07190 12875 13304 10310 20140 30004 40176 58013 60006 81200 91500=
07190,1998-08-16 21:00:00,21,1018.5,0.7,73,16,20000,0,,,0,,,,,,,,,,,wg-a,,,,AAXX 16214 07190 12/70 40000 10210 20160 30007 40185 51007 60006 80002 92100=
07190,1998-08-17 00:00:00,17,1018.6,-0.1,88,15,20000,0,,,0,,,,,,,,,,,wg-a,,,,AAXX 17004 07190 12/70 30000 10170 20150 30006 40186 57001 60006 80002 90000=
07190,1998-08-17 03:00:00,16,1018.5,-0.2,88,14,20000,7.408,,,320,,,,,,,,,,,wg-a,,,,AAXX 17034 07190 12/70 33204 10160 20140 30004 40185 56002 60006 81032 90300=
07190,1998-08-17 06:00:00,18,1018.8,0.4,77,14,15000,3.704,,,350,15.6,28,,,,,,,,,wg-a,,,,AAXX 17064 07190 02/65 23502 10180 20140 30008 40188 53004 60006 80001 90600 333 10280 20156 60004=
07190,1998-08-17 09:00:00,25,1018.4,0.1,54,15,12000,3.704,,,40,,,,,,,,,,,wg-a,,,,AAXX 17094 07190 12/62 10402 10250 20150 30009 40184 50001 60006 80001 90900=
07190,1998-08-17 12:00:00,29,1016.9,-1.3,37,13,18000,3.704,,,350,,,,,,,,,,,wg-a,,,,AAXX 17124 07190 12868 23502 10290 20130 39996 40169 58013 60006 81101 91200=
07190,1998-08-17 15:00:00,31,1015.1,-1.7,33,13,18000,3.704,,,340,,,,,,,,,,,wg-a,,,,AAXX 17154 07190 12868 23402 10310 20130 39979 40151 56017 60006 81101 91500=
07190,1998-08-17 18:00:00,29,1014,-1.2,40,14,20000,7.408,,,30,17.6,31,,,,,,,,,wg-a,,,,AAXX 17184 07190 12/70 20304 10290 20140 39967 40140 56012 60006 80001 91800 333 10310 20176=
07190,1998-08-17 21:00:00,21,1015.2,0.8,73,16,15000,0,,,0,,,,,,,,,,,wg-a,,,,AAXX 17214 07190 12/65 20000 10210 20160 39975 40152 51008 60006 80002 92100=
07190,1998-08-18 00:00:00,21,1015.3,0.1,69,15,15000,11.112,,,280,,,,,,,,,,,wg-a,,,,AAXX 18004 07190 12765 62806 10210 20150 39976 40153 50001 60006 844/2 90000=
07190,1998-08-18 03:00:00,20,1015.4,-0,68,14,15000,3.704,,,10,,,,,,,,,,,wg-a,,,,AAXX 18034 07190 12765 20102 10200 20140 39976 40154 54000 60006 81501 90300=
07190,1998-08-18 06:00:00,19,1016.2,0.7,83,16,18000,3.704,,,50,17.6,28.6,,,,,,,,,wg-a,,,,AAXX 18064 07190 02768 70502 10190 20160 39983 40162 53007 60006 82831 90600 333 10286 20176 60004=
07190,1998-08-18 09:00:00,23,1016.8,0.9,57,14,18000,3.704,,,60,,,,,,,,,,,wg-a,,,,AAXX 18094 07190 12768 70602 10230 20140 39992 40168 51009 60006 8453/ 90900=
07190,1998-08-18 12:00:00,27,1015.8,-0.8,48,15,16000,11.112,,,170,,,,,,,,,,,wg-a,,,,AAXX 18124 07190 12766 /1706 10270 20150 39984 40158 58008 60006 83831 91200=
07190,1998-08-18 15:00:00,25,1015.2,-0.7,57,16,11000,18.52,,,180,,,,,,,,,,,wg-a,,,,AAXX 18154 07190 12/61 /1810 10250 20160 39977 40152 56007 60006 91500=
07190,1998-08-18 18:00:00,23,1015.6,0.3,69,17,18000,7.408,,,210,19,28,,,,,,,,,wg-a,,,,AAXX 18184 07190 12/68 62104 10230 20170 39980 40156 53003 60006 81031 91800 333 10280 20190=
07190,1998-08-18 21:00:00,19,1016.7,0.8,88,17,18000,7.408,,,180,,,,,,,,,,,wg-a,,,,AAXX 18214 07190 12/68 61804 10190 20170 39988 40167 53008 60006 81031 92100=
07190,1998-08-19 00:00:00,16,1017.6,0.7,94,15,10000,3.704,,,240,,,,,,,,,,,wg-a,,,,AAXX 19004 07190 12/60 22402 10160 20150 39995 40176 51007 60006 80001 90000=
07190,1998-08-19 03:00:00,14,1018.1,0.4,94,13,8000,7.408,,,320,,,,,,,,,,,wg-a,,,,AAXX 19034 07190 12/58 23204 10140 20130 39999 40181 53004 60006 80001 90300=
07190,1998-08-19 06:00:00,16,1019,1,88,14,9000,3.704,,,340,13.5,23,,,,,,,,,wg-a,,,,AAXX 19064 07190 02859 /3402 10160 20140 30009 40190 53010 60006 81501 90600 333 10230 20135 60004=
07190,1998-08-19 09:00:00,22,1019,0.4,65,15,7000,7.408,,,340,,,,,,,,,,,wg-a,,,,AAXX 19094 07190 12/57 03404 10220 20150 30013 40190 51004 60006 80000 90900=
07190,1998-08-19 12:00:00,26,1018.1,-0.7,48,14,9000,11.112,,,40,,,,,,,,,,,wg-a,,,,AAXX 19124 07190 12659 /0406 10260 20140 30006 40181 58007 60006 81200 91200=
07190,1998-08-19 15:00:00,28,1016.9,-1.1,40,13,11000,3.704,,,320,,,,,,,,,,,wg-a,,,,AAXX 19154 07190 12/61 /3202 10280 20130 39995 40169 56011 60006 91500=
07190,1998-08-19 18:00:00,25,1016.6,-0.4,50,14,12000,7.408,,,20,16,27.8,,,,,,,,,wg-a,,,,AAXX 19184 07190 12762 10204 10250 20140 39991 40166 55004 60006 81200 91800 333 10278 20160=
07190,1998-08-19 21:00:00,19,1018.1,1.1,73,14,10000,7.408,,,320,,,,,,,,,,,wg-a,,,,AAXX 19214 07190 12/60 03204 10190 20140 30002 40181 52011 60006 80000 92100=
07190,1998-08-20 00:00:00,17,1017.8,-0.4,77,13,10000,7.408,,,320,,,,,,,,,,,wg-a,,,,AAXX 20004 07190 12860 13204 10170 20130 39998 40178 58004 60006 81030 90000=
07190,1998-08-20 03:00:00,15,1017.2,-0.7,88,13,8000,0,,,0,,,,,,,,,,,wg-a,,,,AAXX 20034 07190 12858 20000 10150 20130 39991 40172 56007 60006 81031 90300=
07190,1998-08-20 06:00:00,15,1017.7,0.5,88,13,8000,7.408,,,210,14.4,25.1,,,,,,,,,wg-a,,,,AAXX 20064 07190 02758 22104 10150 20130 39996 40177 53005 60006 82501 90600 333 10251 20144 60004=
07190,1998-08-20 09:00:00,23,1017.5,0.2,53,13,8000,3.704,,,110,,,,,,,,,,,wg-a,,,,AAXX 20094 07190 12758 21102 10230 20130 39998 40175 51002 60006 82231 90900=
07190,1998-08-20 12:00:00,26,1015.9,-1.3,42,12,12000,7.408,,,70,,,,,,,,,,,wg-a,,,,AAXX 20124 07190 12762 50704 10260 20120 39985 40159 58013 60006 85200 91200=
07190,1998-08-20 15:00:00,27,1014.4,-1.5,42,13,15000,11.112,,,190,,,,,,,,,,,wg-a,,,,AAXX 20154 07190 12765 51906 10270 20130 39970 40144 56015 60006 85201 91500=
07190,1998-08-20 18:00:00,25,1013.3,-1.2,50,14,15000,7.408,,,170,15.4,28.6,,,,,,,,,wg-a,,,,AAXX 20184 07190 12765 11704 10250 20140 39958 40133 56012 60006 81400 91800 333 10286 20154=
07190,1998-08-20 21:00:00,19,1013.7,0.1,68,13,15000,3.704,,,200,,,,,,,,,,,wg-a,,,,AAXX 20214 07190 12865 32002 10190 20130 39959 40137 50001 60006 83500 92100=
07190,1998-08-21 00:00:00,16,1013.5,-0.4,77,12,10000,11.112,,,210,,,,,,,,,,,wg-a,,,,AAXX 21004 07190 12/60 02106 10160 20120 39955 40135 58004 60006 80000 90000=
07190,1998-08-21 03:00:00,16,1012.5,-1,72,11,10000,11.112,,,220,,,,,,,,,,,wg-a,,,,AAXX 21034 07190 12/60 42206 10160 20110 39945 40125 57010 60006 80001 90300=
07190,1998-08-21 06:00:00,18,1011.5,-0.8,64,11,15000,18.52,,,200,15.4,24.7,,,,,,,,,wg-a,,,,AAXX 21064 07190 02665 72010 10180 20110 39937 40115 58008 60006 8387/ 90600 333 10247 20154 60004=
07190,1998-08-21 09:00:00,18,1012.1,0.5,64,11,18000,25.928,,,230,,,,0,,,,,,21,wg-a,,,,AAXX 21094 07190 12668 82314 10180 20110 39942 40121 51005 60007 72162 8487/ 90900=
07190,1998-08-21 12:00:00,17,1011,-1.1,68,11,25000,29.632,,,200,,,,2,,,,,,1,wg-a,,,,AAXX 21124 07190 02575 82016 10170 20110 39931 40110 58011 60026 70162 8587/ 91200 333 60027=
07190,1998-08-21 15:00:00,18,1009.9,-1,68,12,25000,38.892,,,210,,,,,,,,,,,wg-a,,,,AAXX 21154 07190 12575 72121 10180 20120 39921 40099 58010 60006 878// 91500=
07190,1998-08-21 18:00:00,16,1009.2,-0.8,82,13,15000,22.224,,,180,14.9,19.6,,,,,,,,50,wg-a,,,,AAXX 21184 07190 02465 71812 10160 20130 39913 40092 56008 61000 75052 878// 91800 333 10196 20149 6100=
07190,1998-08-21 21:00:00,16,1009.3,0.1,94,15,10000,14.816,,,190,,,,1,,,,,,50,wg-a,,,,AAXX 21214 07190 12460 81908 10160 20150 39914 40093 53001 60017 75052 885// 92100=
07190,1998-08-22 00:00:00,17,1010.6,1.3,82,14,15000,11.112,,,220,,,,0,,,,,,3,wg-a,,,,AAXX 22004 07190 02565 72206 10170 20140 39927 40106 53013 60016 70365 878// 90000 333 60007=
07190,1998-08-22 03:00:00,17,1011.4,0.8,68,11,15000,14.816,,,230,,,,,,,,,,,wg-a,,,,AAXX 22034 07190 12565 72308 10170 20110 39935 40114 53008 60006 86802 90300=
07190,1998-08-22 06:00:00,16,1013,1.5,72,11,20000,18.52,,,250,15.2,17.7,,,,,3,,,,wg-a,,,,AAXX 22064 07190 02670 72510 10160 20110 39950 40130 52015 60006 86830 90600 333 10177 20152 60034=
07190,1998-08-22 09:00:00,18,1013.7,0.8,64,11,20000,14.816,,,260,,,,,,,,,,,wg-a,,,,AAXX 22094 07190 12670 72608 10180 20110 39958 40137 51008 60006 8583/ 90900=
07190,1998-08-22 12:00:00,20,1012.5,-1.1,53,10,20000,18.52,,,240,,,,,,,,,,,wg-a,,,,AAXX 22124 07190 12670 72410 10200 20100 39947 40125 57011 60006 8583/ 91200=
07190,1998-08-22 15:00:00,19,1010.9,-1.6,56,10,500,18.52,,,240,,,,,,,,,,,wg-a,,,,AAXX 22154 07190 12600 82410 10190 20100 39931 40109 56016 60006 8483/ 91500=
07190,1998-08-22 18:00:00,15,1010.5,-0.6,94,14,6000,3.704,,,320,14.8,20.5,,,,,,,,61,wg-a,,,,AAXX 22184 07190 02456 83202 10150 20140 39925 40105 55006 61000 76162 878// 91800 333 10205 20148 6003=
07190,1998-08-22 21:00:00,14,1011.9,1.3,94,13,10000,3.704,,,120,,,,1,,,,,,21,wg-a,,,,AAXX 22214 07190 12460 81202 10140 20130 39938 40119 52013 60017 72162 878// 92100=
07190,1998-08-23 00:00:00,13,1015,3,94,12,15000,7.408,,,290,,,,,,,,,,1,wg-a,,,,AAXX 23004 07190 12565 /2904 10130 20120 39968 40150 53030 60016 70161 81500 90000=
07190,1998-08-23 03:00:00,11,1016.6,1.4,94,10,15000,11.112,,,300,,,,,,,,,,,wg-a,,,,AAXX 23034 07190 12/65 03006 10110 20100 39982 40166 51014 60006 80000 90300=
07190,1998-08-23 06:00:00,11,1018.7,2,94,10,10000,3.704,,,210,9.1,14.8,,,,,5,,,,wg-a,,,,AAXX 23064 07190 02560 32102 10110 20100 30002 40187 51020 60006 81801 90600 333 10148 20091 60054=
07190,1998-08-23 09:00:00,17,1018.6,0.4,63,10,20000,11.112,,,310,,,,,,,,,,,wg-a,,,,AAXX 23094 07190 12670 /3106 10170 20100 30006 40186 53004 60006 83201 90900=
07190,1998-08-23 12:00:00,20,1017.5,-1,53,10,25000,11.112,,,160,,,,,,,,,,,wg-a,,,,AAXX 23124 07190 12675 61606 10200 20100 39996 40175 58010 60006 84202 91200=
07190,1998-08-23 15:00:00,21,1016,-1.4,46,9,25000,7.408,,,170,,,,,,,,,,,wg-a,,,,AAXX 23154 07190 12675 71704 10210 20090 39982 40160 58014 60006 83832 91500=
07190,1998-08-23 18:00:00,20,1014.2,-1.8,53,10,500,14.816,,,250,10.6,21.6,,,,,,,,,wg-a,,,,AAXX 23184 07190 12700 72508 10200 20100 39964 40142 58018 60006 81532 91800 333 10216 20106=
07190,1998-08-23 21:00:00,19,1014.1,-0.2,56,10,500,11.112,,,220,,,,,,,,,,,wg-a,,,,AAXX 23214 07190 12/00 62206 10190 20100 39962 40141 58002 60006 84032 92100=
07190,1998-08-24 00:00:00,18,1011.2,-2.9,68,12,20000,22.224,,,170,,,,,,,,,,,wg-a,,,,AAXX 24004 07190 12/70 51712 10180 20120 39933 40112 58029 60006 83032 90000=
07190,1998-08-24 03:00:00,18,1008.8,-2.3,73,13,20000,18.52,,,200,,,,,,,,,,60,wg-a,,,,AAXX 24034 07190 02670 72010 10180 20130 39910 40088 57023 61000 76062 8587/ 90300 333 ////=
07190,1998-08-24 06:00:00,16,1008.4,-0.5,94,15,10000,22.224,,,180,15.9,20.1,,,,,,,,61,wg-a,,,,AAXX 24064 07190 02560 81812 10160 20150 39905 40084 55005 61000 76162 888// 90600 333 10201 20159 6001=
07190,1998-08-24 09:00:00,17,1010.8,2.4,77,13,15000,22.224,,,250,,,,3,,,,,,1,wg-a,,,,AAXX 24094 07190 12565 72512 10170 20130 39929 40108 53024 60037 70186 8587/ 90900=
07190,1998-08-24 12:00:00,19,1011.7,1,64,12,20000,22.224,,,230,,,,,,,,,,3,wg-a,,,,AAXX 24124 07190 12570 72312 10190 20120 39939 40117 51010 60036 70386 8583/ 91200=
07190,1998-08-24 15:00:00,20,1013.1,1.4,53,10,20000,29.632,,,250,,,,,,,,,,,wg-a,,,,AAXX 24154 07190 12670 42516 10200 20100 39953 40131 52014 60006 84800 91500=
07190,1998-08-24 18:00:00,18,1015.5,2.2,68,12,20000,22.224,,,240,15.9,20.7,,,,,,,,16,wg-a,,,,AAXX 24184 07190 02670 72412 10180 20120 39975 40155 51022 61000 71686 878// 91800 333 10207 20159 6100=
07190,1998-08-24 21:00:00,15,1018.4,2.7,82,12,15000,7.408,,,270,,,,,,,,,,1,wg-a,,,,AAXX 24214 07190 02665 72704 10150 20120 30002 40184 51027 61000 70186 878// 92100 333 ////=
07190,1998-08-25 00:00:00,14,1019.8,1.3,88,12,15000,3.704,,,220,,,,,,,,,,1,wg-a,,,,AAXX 25004 07190 02765 32202 10140 20120 30015 40198 51013 61000 70186 83500 90000 333 ////=
07190,1998-08-25 03:00:00,11,1020.9,0.9,94,10,20000,7.408,,,300,,,,,,,,,,,wg-a,,,,AAXX 25034 07190 12670 23004 10110 20100 30024 40209 53009 60006 82501 90300=
07190,1998-08-25 06:00:00,12,1021.7,0.9,94,11,20000,3.704,,,340,11.3,17.6,,,,,3,,,,wg-a,,,,AAXX 25064 07190 02770 53402 10120 20110 30033 40217 52009 60006 84801 90600 333 10176 20113 60034=
07190,1998-08-25 09:00:00,17,1022.1,0.7,63,10,23000,3.704,,,30,,,,,,,,,,,wg-a,,,,AAXX 25094 07190 12673 40302 10170 20100 30040 40221 52007 60006 83230 90900=
07190,1998-08-25 12:00:00,19,1021.4,-0.6,52,9,25000,3.704,,,100,,,,,,,,,,,wg-a,,,,AAXX 25124 07190 12675 61002 10190 20090 30034 40214 56006 60006 85201 91200=
07190,1998-08-25 15:00:00,21,1020.3,-1,43,8,11000,11.112,,,30,,,,,,,,,,,wg-a,,,,AAXX 25154 07190 12/61 /0306 10210 20080 30024 40203 58010 60006 91500=
07190,1998-08-25 18:00:00,18,1019.7,-0.7,56,9,500,11.112,,,50,12.3,20.7,,,,,,,,,wg-a,,,,AAXX 25184 07190 12600 20506 10180 20090 30017 40197 56007 60006 82400 91800 333 10207 20123=
07190,1998-08-25 21:00:00,13,1020.4,0.4,82,10,20000,7.408,,,230,,,,,,,,,,,wg-a,,,,AAXX 25214 07190 12870 32304 10130 20100 30021 40204 50004 60006 83500 92100=
07190,1998-08-26 00:00:00,10,1020.1,-0.5,93,9,20000,3.704,,,200,,,,,,,,,,,wg-a,,,,AAXX 26004 07190 12/70 02002 10100 20090 30016 40201 58005 60006 80000 90000=
07190,1998-08-26 03:00:00,10,1019,-1.1,93,9,15000,7.408,,,220,,,,,,,,,,,wg-a,,,,AAXX 26034 07190 12/65 62204 10100 20090 30005 40190 56011 60006 86032 90300=
07190,1998-08-26 06:00:00,10,1018.1,-0.9,93,9,8000,7.408,,,200,8.8,18,,,,,,,,,wg-a,,,,AAXX 26064 07190 02658 42004 10100 20090 39996 40181 56009 60006 83530 90600 333 10180 20088 60004=
07190,1998-08-26 09:00:00,19,1016.4,-1.1,68,13,10000,14.816,,,180,,,,,,,,,,,wg-a,,,,AAXX 26094 07190 12/60 61808 10190 20130 39985 40164 58011 60006 85032 90900=
07190,1998-08-26 12:00:00,23,1014.2,-1.9,47,11,20000,18.52,,,210,,,,,,,,,,,wg-a,,,,AAXX 26124 07190 12670 /2110 10230 20110 39966 40142 58019 60006 86200 91200=
07190,1998-08-26 15:00:00,24,1012.4,-1.7,41,10,25000,18.52,,,250,,,,,,,,,,,wg-a,,,,AAXX 26154 07190 12775 /2510 10240 20100 39949 40124 56017 60006 86200 91500=
07190,1998-08-26 18:00:00,22,1012.3,-0.2,46,10,500,25.928,,,270,9.8,25.7,,,,,,,,,wg-a,,,,AAXX 26184 07190 12700 62714 10220 20100 39947 40123 55002 60006 86800 91800 333 10257 20098=
07190,1998-08-26 21:00:00,17,1014,1.4,72,12,20000,7.408,,,270,,,,,,,,,,,wg-a,,,,AAXX 26214 07190 12/70 02704 10170 20120 39961 40140 51014 60006 80000 92100=
07190,1998-08-27 00:00:00,17,1015,0.9,77,13,20000,14.816,,,310,,,,,,,,,,,wg-a,,,,AAXX 27004 07190 12770 53108 10170 20130 39970 40150 53009 60006 825/2 90000=
07190,1998-08-27 03:00:00,14,1016.4,1.2,72,9,15000,7.408,,,340,,,,,,,,,,,wg-a,,,,AAXX 27034 07190 12/65 63404 10140 20090 39982 40164 51012 60006 83032 90300=
07190,1998-08-27 06:00:00,12,1017.7,1.2,76,8,20000,18.52,,,340,12.3,22.4,,,,,,,,,wg-a,,,,AAXX 27064 07190 02570 73410 10120 20080 39994 40177 53012 60006 87800 90600 333 10224 20123 60004=
07190,1998-08-27 09:00:00,16,1017.9,0.3,51,6,20000,11.112,,,340,,,,,,,,,,,wg-a,,,,AAXX 27094 07190 12670 43406 10160 20060 39997 40179 51003 60006 83230 90900=
07190,1998-08-27 12:00:00,17,1017.8,0,42,4,500,14.816,,,340,,,,,,,,,,,wg-a,,,,AAXX 27124 07190 12600 63408 10170 20040 39997 40178 50000 60006 86800 91200=
07190,1998-08-27 15:00:00,17,1018.2,0.4,45,5,500,18.52,,,320,,,,,,,,,,,wg-a,,,,AAXX 27154 07190 12600 73210 10170 20050 30001 40182 51004 60006 85830 91500=
07190,1998-08-27 18:00:00,15,1018.8,0.5,55,6,500,7.408,,,320,12.4,17.8,,,,,,,,,wg-a,,,,AAXX 27184 07190 12700 73204 10150 20060 30006 40188 53005 60006 83530 91800 333 10178 20124=
07190,1998-08-27 21:00:00,11,1020,0.9,76,7,25000,7.408,,,300,,,,,,,,,,,wg-a,,,,AAXX 27214 07190 12/75 23004 10110 20070 30015 40200 51009 60006 82030 92100=
07190,1998-08-28 00:00:00,10,1020.5,0.4,76,6,25000,11.112,,,300,,,,,,,,,,,wg-a,,,,AAXX 28004 07190 12/75 13006 10100 20060 30019 40205 52004 60006 81030 90000=
07190,1998-08-28 03:00:00,7,1020.6,-0,93,6,15000,3.704,,,50,,,,,,,,,,,wg-a,,,,AAXX 28034 07190 12/65 60502 10070 20060 30019 40206 54000 60006 85032 90300=
07190,1998-08-28 06:00:00,8,1021.1,0.5,93,7,20000,0,,,0,6.2,14.9,,,,,,,,,wg-a,,,,AAXX 28064 07190 02770 60000 10080 20070 30024 40211 53005 60006 86800 90600 333 10149 20062 60004=
07190,1998-08-28 09:00:00,14,1020.9,0.2,63,7,20000,7.408,,,310,,,,,,,,,,,wg-a,,,,AAXX 28094 07190 12570 63104 10140 20070 30026 40209 52002 60006 86800 90900=
07190,1998-08-28 12:00:00,17,1020,-0.7,45,5,25000,7.408,,,300,,,,,,,,,,,wg-a,,,,AAXX 28124 07190 12675 63004 10170 20050 30019 40200 58007 60006 86800 91200=
07190,1998-08-28 15:00:00,16,1020.3,0.2,48,5,25000,11.112,,,340,,,,,,,,,,,wg-a,,,,AAXX 28154 07190 12675 73406 10160 20050 30021 40203 51002 60006 874// 91500=
07190,1998-08-28 18:00:00,14,1020.7,0.3,58,6,25000,7.408,,,360,8.3,17.2,,,,,,,,,wg-a,,,,AAXX 28184 07190 12675 73604 10140 20060 30024 40207 53003 60006 878// 91800 333 10172 20083=
07190,1998-08-28 21:00:00,13,1021.5,0.7,72,8,25000,0,,,0,,,,,,,,,,,wg-a,,,,AAXX 28214 07190 12675 70000 10130 20080 30031 40215 51007 60006 878// 92100=
07190,1998-08-29 00:00:00,11,1021,-0.6,82,8,20000,7.408,,,290,,,,,,,,,,,wg-a,,,,AAXX 29004 07190 12670 72904 10110 20080 30025 40210 58006 60006 878// 90000=
07190,1998-08-29 06:00:00,11,1021.4,0.6,82,8,20000,7.408,,,330,11,14.2,,,,,,,,,wg-a,,,,AAXX 29064 07190 02670 73304 10110 20080 30029 40214 53006 60006 8483/ 90600 333 10142 20110 60004=
07190,1998-08-29 09:00:00,15,1021.8,0.6,55,6,25000,11.112,,,340,,,,,,,,,,,wg-a,,,,AAXX 29094 07190 12775 43406 10150 20060 30035 40218 53006 60006 81131 90900=
07190,1998-08-29 12:00:00,16,1021.4,-0.3,48,5,25000,11.112,,,340,,,,,,,,,,,wg-a,,,,AAXX 29124 07190 12675 73406 10160 20050 30032 40214 56003 60006 878// 91200=
07190,1998-08-29 15:00:00,17,1020.6,-0.7,45,5,500,14.816,,,330,,,,,,,,,,,wg-a,,,,AAXX 29154 07190 12600 73308 10170 20050 30025 40206 58007 60006 878// 91500=
07190,1998-08-29 18:00:00,14,1020.8,-0,58,6,500,7.408,,,330,11,16.8,,,,,,,,,wg-a,,,,AAXX 29184 07190 12700 33304 10140 20060 30025 40208 55000 60006 83500 91800 333 10168 20110=
07190,1998-08-29 21:00:00,9,1021.7,0.6,81,6,20000,3.704,,,290,,,,,,,,,,,wg-a,,,,AAXX 29214 07190 12770 12902 10090 20060 30031 40217 50006 60006 81500 92100=
07190,1998-08-30 00:00:00,6,1021.4,-0.5,93,5,15000,0,,,0,,,,,,,,,,,wg-a,,,,AAXX 30004 07190 12/65 00000 10060 20050 30026 40214 58005 60006 80000 90000=
07190,1998-08-30 03:00:00,5,1020.9,-0.6,93,4,15000,0,,,0,,,,,,,,,,,wg-a,,,,AAXX 30034 07190 12/65 50000 10050 20040 30020 40209 57006 60006 85030 90300=
07190,1998-08-30 06:00:00,8,1021.1,0.4,93,7,25000,3.704,,,350,4.8,13.8,,,,,,,,,wg-a,,,,AAXX 30064 07190 02775 73502 10080 20070 30024 40211 53004 60006 875// 90600 333 10138 20048 60004=
07190,1998-08-30 09:00:00,16,1020.9,0.3,55,7,20000,3.704,,,80,,,,,,,,,,,wg-a,,,,AAXX 30094 07190 12670 20802 10160 20070 30027 40209 51003 60006 81230 90900=
07190,1998-08-30 12:00:00,19,1019.6,-1.1,40,5,500,11.112,,,50,,,,,,,,,,,wg-a,,,,AAXX 30124 07190 12600 20506 10190 20050 30016 40196 58011 60006 81101 91200=
07190,1998-08-30 15:00:00,20,1018.4,-1.1,40,6,500,3.704,,,330,,,,,,,,,,,wg-a,,,,AAXX 30154 07190 12700 23302 10200 20060 30005 40184 56011 60006 81801 91500=
07190,1998-08-30 18:00:00,18,1018.4,-0.1,52,8,40000,3.704,,,40,8.1,20.8,,,,,,,,,wg-a,,,,AAXX 30184 07190 12882 30402 10180 20080 30004 40184 58001 60006 82431 91800 333 10208 20081=
07190,1998-08-30 21:00:00,12,1019.1,0.3,76,8,10000,7.408,,,230,,,,,,,,,,,wg-a,,,,AAXX 30214 07190 12/60 /2304 10120 20080 30007 40191 51003 60006 92100=
07190,1998-08-31 00:00:00,9,1018.8,-0.5,87,7,20000,0,,,0,,,,,,,,,,,wg-a,,,,AAXX 31004 07190 12/70 10000 10090 20070 30002 40188 58005 60006 80001 90000=
07190,1998-08-31 03:00:00,7,1018.5,-0.4,93,6,20000,3.704,,,110,,,,,,,,,,,wg-a,,,,AAXX 31034 07190 12/70 01102 10070 20060 39998 40185 55004 60006 80000 90300=
07190,1998-08-31 06:00:00,8,1018.3,-0.1,93,7,20000,0,,,0,6.5,17.7,,,,,,,,,wg-a,,,,AAXX 31064 07190 02/70 10000 10080 20070 39997 40183 55001 60006 81030 90600 333 10177 20065 60004=
07190,1998-08-31 09:00:00,18,1017.3,-0.4,52,8,20000,3.704,,,70,,,,,,,,,,,wg-a,,,,AAXX 31094 07190 12770 10702 10180 20080 39993 40173 57004 60006 81200 90900=
07190,1998-08-31 12:00:00,22,1016.2,-0.8,43,9,20000,3.704,,,360,,,,,,,,,,,wg-a,,,,AAXX 31124 07190 12770 13602 10220 20090 39985 40162 58008 60006 81201 91200=
07190,1998-08-31 15:00:00,23,1014.8,-1.3,41,9,20000,11.112,,,30,,,,,,,,,,,wg-a,,,,AAXX 31154 07190 12770 20306 10230 20090 39972 40148 56013 60006 81202 91500=
07190,1998-08-31 18:00:00,20,1015,-0,49,9,500,14.816,,,50,7.9,23.3,,,,,,,,,wg-a,,,,AAXX 31184 07190 12700 20508 10200 20090 39972 40150 55000 60006 81402 91800 333 10233 20079=
07190,1998-08-31 21:00:00,14,1015.9,0.5,72,9,20000,11.112,,,340,,,,,,,,,,,wg-a,,,,AAXX 31214 07190 12/70 13406 10140 20090 39977 40159 51005 60006 80001 92100=
07190,1998-09-01 00:00:00,11,1016.2,0.1,82,8,20000,7.408,,,330,,,,,,,,,,,wg-a,,,,AAXX 01004 07190 12/70 23304 10110 20080 39978 40162 53001 60006 80001 90000=
07190,1998-09-01 03:00:00,10,1016,-0.3,87,8,15000,3.704,,,310,,,,,,,,,,,wg-a,,,,AAXX 01034 07190 12/65 73102 10100 20080 39975 40160 58003 60006 81032 90300=
07190,1998-09-01 06:00:00,12,1016.7,0.8,82,9,17000,3.704,,,340,9.8,20.2,,,,,,,,,wg-a,,,,AAXX 01064 07190 02/67 73402 10120 20090 39983 40167 53008 60006 85032 90600 333 10202 20098 60004=
07190,1998-09-01 09:00:00,16,1016.7,0.3,68,10,17000,3.704,,,310,,,,,,,,,,,wg-a,,,,AAXX 01094 07190 12667 73102 10160 20100 39986 40167 51003 60006 8583/ 90900=
07190,1998-09-01 12:00:00,21,1015.9,-0.5,53,11,17000,7.408,,,90,,,,,,,,,,,wg-a,,,,AAXX 01124 07190 12/67 70904 10210 20110 39981 40159 58005 60006 84032 91200=
07190,1998-09-01 15:00:00,21,1016,0.1,64,14,17000,7.408,,,40,,,,,,,,,,60,wg-a,,,,AAXX 01154 07190 02767 70404 10210 20140 39982 40160 53001 61000 76062 8453/ 91500 333 ////=
07190,1998-09-01 18:00:00,18,1016,-0.1,77,14,15000,3.704,,,160,11.6,21.6,,,,,,,,1,wg-a,,,,AAXX 01184 07190 02765 71602 10180 20140 39981 40160 56001 60006 70162 82532 91800 333 10216 20116 61000=
07190,1998-09-01 21:00:00,15,1016.6,0.4,88,13,15000,0,,,0,,,,,,,,,,,wg-a,,,,AAXX 01214 07190 12/65 10000 10150 20130 39985 40166 50004 60006 81030 92100=
07190,1998-09-02 00:00:00,12,1016.9,0.1,94,11,10000,0,,,0,,,,,,,,,,,wg-a,,,,AAXX 02004 07190 12/60 00000 10120 20110 39986 40169 50001 60006 80000 90000=
07190,1998-09-02 03:00:00,13,1016.5,-0.4,94,12,10000,0,,,0,,,,,,,,,,,wg-a,,,,AAXX 02034 07190 12160 70000 10130 20120 39982 40165 56004 60006 876// 90300=
07190,1998-09-02 06:00:00,14,1016.3,-0.1,94,13,3500,7.408,,,30,12.2,18.4,,,,,,,,10,wg-a,,,,AAXX 02064 07190 02135 80304 10140 20130 39981 40163 55001 60006 71011 886// 90600 333 10184 20122 61000=
07190,1998-09-02 09:00:00,18,1016.2,0.2,83,15,4500,3.704,,,330,,,,,,,,,,10,wg-a,,,,AAXX 02094 07190 12/45 73302 10180 20150 39983 40162 51002 60006 71022 8703/ 90900=
07190,1998-09-02 12:00:00,24,1014.7,-1.1,65,17,7000,7.408,,,120,,,,,,,,,,,wg-a,,,,AAXX 02124 07190 12757 71204 10240 20170 39972 40147 56011 60006 8153/ 91200=
07190,1998-09-02 15:00:00,23,1014,-0.8,69,17,9000,11.112,,,60,,,,,,,,,,,wg-a,,,,AAXX 02154 07190 12759 80606 10230 20170 39964 40140 57008 60006 8357/ 91500=
07190,1998-09-02 18:00:00,20,1014.1,-0,83,17,8000,7.408,,,30,13.7,24.3,,,,,,,,,wg-a,,,,AAXX 02184 07190 12758 80304 10200 20170 39964 40141 55000 60006 8557/ 91800 333 10243 20137=
07190,1998-09-02 21:00:00,18,1014.1,-0.2,94,17,7000,7.408,,,330,,,,,,,,,,,wg-a,,,,AAXX 02214 07190 12357 /3304 10180 20170 39962 40141 58002 60006 8357/ 92100=
07190,1998-09-03 00:00:00,17,1013.3,-0.8,100,17,2000,3.704,,,20,,,,,,,,,,10,wg-a,,,,AAXX 03004 07190 12120 80202 10170 20170 39954 40133 56008 60006 71022 886// 90000=
07190,1998-09-03 03:00:00,17,1013,-0.3,100,17,900,7.408,,,220,,,,0,,,,,,44,wg-a,,,,AAXX 03034 07190 12109 82204 10170 20170 39951 40130 55003 60007 74442 886// 90300=
07190,1998-09-03 06:00:00,18,1012.9,-0,100,18,2000,7.408,,,190,17,20.4,,,,,,,,10,wg-a,,,,AAXX 03064 07190 02120 81904 10180 20180 39951 40129 55000 61000 71098 885// 90600 333 10204 20170 6005=
07190,1998-09-03 09:00:00,19,1013.6,0.7,94,18,3800,11.112,,,160,,,,4,,,,,,10,wg-a,,,,AAXX 03094 07190 12238 81606 10190 20180 39958 40136 51007 60047 71066 888// 90900=
07190,1998-09-03 12:00:00,22,1012.7,-0.7,83,19,15000,18.52,,,170,,,,,,,,,,3,wg-a,,,,AAXX 03124 07190 02465 71710 10220 20190 39951 40127 58007 60046 70362 82808 91200 333 61000=
07190,1998-09-03 15:00:00,22,1013.5,0.7,60,14,40000,29.632,,,240,,,,1,,,,,,1,wg-a,,,,AAXX 03154 07190 12582 /2416 10220 20140 39958 40135 53007 60017 70186 84832 91500=
07190,1998-09-03 18:00:00,19,1014.5,0.9,68,13,500,22.224,,,260,17.9,23.1,,,,,,,,1,wg-a,,,,AAXX 03184 07190 12600 /2612 10190 20130 39967 40145 51009 60006 70186 83832 91800 333 10231 20179=
07190,1998-09-04 00:00:00,17,1015.6,-0.3,82,14,20000,7.408,,,270,,,,,,,,,,,wg-a,,,,AAXX 04004 07190 12570 72704 10170 20140 39976 40156 58003 60006 878// 90000=
07190,1998-09-04 03:00:00,14,1015.2,-0.6,94,13,20000,3.704,,,220,,,,,,,,,,,wg-a,,,,AAXX 04034 07190 12670 32202 10140 20130 39970 40152 57006 60006 81530 90300=
07190,1998-09-04 06:00:00,13,1014.8,-0.4,94,12,500,3.704,,,190,12,19.2,,,,,5,,,,wg-a,,,,AAXX 04064 07190 02/00 /1902 10130 20120 39966 40148 56004 60006 80001 90600 333 10192 20120 60054=
07190,1998-09-04 09:00:00,20,1013.6,-0.8,68,14,15000,7.408,,,160,,,,,,,,,,,wg-a,,,,AAXX 04094 07190 12465 31604 10200 20140 39958 40136 58008 60006 81201 90900=
07190,1998-09-04 12:00:00,23,1011.2,-2.1,50,12,20000,7.408,,,100,,,,,,,,,,,wg-a,,,,AAXX 04124 07190 12670 /1004 10230 20120 39937 40112 56021 60006 82202 91200=
07190,1998-09-04 15:00:00,22,1009.6,-1.7,57,13,500,11.112,,,170,,,,,,,,,,,wg-a,,,,AAXX 04154 07190 12500 71706 10220 20130 39920 40096 56017 60006 8287/ 91500=
07190,1998-09-04 18:00:00,19,1007.7,-2,78,15,500,7.408,,,130,12.7,24.1,,,,,,,,21,wg-a,,,,AAXX 04184 07190 02700 71304 10190 20150 39900 40077 57020 61000 72162 8288/ 91800 333 10241 20127 6000=
07190,1998-09-04 21:00:00,18,1006.8,-1,88,16,500,7.408,,,140,,,,,,,,,,1,wg-a,,,,AAXX 04214 07190 02700 81404 10180 20160 39890 40068 58010 61000 70162 8387/ 92100 333 ////=
07190,1998-09-05 00:00:00,17,1005.9,-0.9,100,17,12000,7.408,,,190,,,,1,,,,,,61,wg-a,,,,AAXX 05004 07190 02562 81904 10170 20170 39881 40059 58009 60016 76162 8687/ 90000 333 60017=
07190,1998-09-05 03:00:00,16,1005.5,-0.4,100,16,500,18.52,,,190,,,,3,,,,,,63,wg-a,,,,AAXX 05034 07190 12200 81910 10160 20160 39877 40055 55004 60037 76362 885// 90300=
07190,1998-09-05 06:00:00,15,1007.6,2,100,15,11000,7.408,,,190,15.2,19.1,,,,,,,,61,wg-a,,,,AAXX 05064 07190 02461 81904 10150 20150 39897 40076 51020 61000 76162 888// 90600 333 10191 20152 6009=
07190,1998-09-05 09:00:00,18,1009.4,1.9,83,15,25000,14.816,,,220,,,,,,,,,,1,wg-a,,,,AAXX 05094 07190 02475 /2208 10180 20150 39916 40094 51019 61000 70162 85802 90900 333 ////=
07190,1998-09-05 12:00:00,21,1008.8,-0.4,56,12,500,14.816,,,240,,,,0,,,,,,3,wg-a,,,,AAXX 05124 07190 02600 62408 10210 20120 39912 40088 56004 60006 70362 85202 91200 333 60007=
07190,1998-09-05 15:00:00,21,1008.5,-0.3,56,12,500,29.632,,,200,,,,,,,,,,,wg-a,,,,AAXX 05154 07190 12600 /2016 10210 20120 39909 40085 55003 60006 85301 91500=
07190,1998-09-05 18:00:00,16,1010.3,1.5,88,14,500,11.112,,,170,15.2,23.2,,,,,,,,25,wg-a,,,,AAXX 05184 07190 02500 /1706 10160 20140 39924 40103 51015 61000 72586 85302 91800 333 10232 20152 6000=
07190,1998-09-05 21:00:00,14,1011.7,1.2,88,12,500,14.816,,,210,,,,,,,,,,,wg-a,,,,AAXX 05214 07190 12700 42108 10140 20120 39936 40117 51012 60006 81532 92100=
07190,1998-09-06 00:00:00,14,1012.1,0.4,94,13,20000,7.408,,,170,,,,0,,,,,,,wg-a,,,,AAXX 06004 07190 02570 71704 10140 20130 39940 40121 51004 60016 86830 90000 333 60007=
07190,1998-09-06 03:00:00,14,1012,-0.1,94,13,20000,11.112,,,180,,,,,,,,,,,wg-a,,,,AAXX 06034 07190 12570 51806 10140 20130 39939 40120 57001 60006 84530 90300=
07190,1998-09-06 06:00:00,14,1012.8,0.8,94,13,500,7.408,,,190,13.1,16.4,,,,,1,,,,wg-a,,,,AAXX 06064 07190 02500 71904 10140 20130 39947 40128 53008 60006 84830 90600 333 10164 20131 60014=
07190,1998-09-06 09:00:00,17,1013,0.4,77,13,500,18.52,,,190,,,,,,,,,,,wg-a,,,,AAXX 06094 07190 12500 71910 10170 20130 39951 40130 53004 60006 8683/ 90900=
07190,1998-09-06 12:00:00,20,1012.3,-0.6,64,13,500,14.816,,,180,,,,,,,,,,,wg-a,,,,AAXX 06124 07190 12500 71808 10200 20130 39945 40123 58006 60006 8583/ 91200=
07190,1998-09-06 15:00:00,21,1011.1,-1.1,56,12,500,7.408,,,320,,,,,,,,,,,wg-a,,,,AAXX 06154 07190 12600 73204 10210 20120 39934 40111 58011 60006 8583/ 91500=
07190,1998-09-06 18:00:00,18,1010.9,-0.3,73,13,500,7.408,,,40,13.8,21.3,,,,,,,,,wg-a,,,,AAXX 06184 07190 12700 /0404 10180 20130 39931 40109 58003 60006 85530 91800 333 10213 20138=
07190,1998-09-06 21:00:00,14,1011.2,0,94,13,14000,3.704,,,280,,,,,,,,,,,wg-a,,,,AAXX 06214 07190 12/64 42802 10140 20130 39931 40112 50000 60006 84030 92100=
07190,1998-09-07 00:00:00,12,1010.1,-1.2,94,11,14000,3.704,,,360,,,,,,,,,,,wg-a,,,,AAXX 07004 07190 12/64 33602 10120 20110 39919 40101 58012 60006 83030 90000=
07190,1998-09-07 03:00:00,12,1009.4,-0.7,94,11,12000,0,,,0,,,,,,,,,,,wg-a,,,,AAXX 07034 07190 12762 50000 10120 20110 39912 40094 56007 60006 82530 90300=
07190,1998-09-07 06:00:00,12,1008.3,-1.1,100,12,12000,0,,,0,11.5,18,,,,,,,,,wg-a,,,,AAXX 07064 07190 02762 70000 10120 20120 39901 40083 56011 60006 8458/ 90600 333 10180 20115 60004=
07190,1998-09-07 09:00:00,15,1008.6,0.5,94,14,11000,3.704,,,40,,,,0,,,,,,21,wg-a,,,,AAXX 07094 07190 12361 70402 10150 20140 39906 40086 52005 60007 72162 83882 90900=
07190,1998-09-07 12:00:00,16,1009.2,0.6,88,14,9000,3.704,,,190,,,,1,,,,,,61,wg-a,,,,AAXX 07124 07190 02459 81902 10160 20140 39912 40092 51006 60016 76162 888// 91200 333 60017=
07190,1998-09-07 15:00:00,17,1008.3,-0.7,82,14,15000,3.704,,,80,,,,2,,,,,,3,wg-a,,,,AAXX 07154 07190 12465 70802 10170 20140 39905 40083 55007 60027 70362 8487/ 91500=
07190,1998-09-07 18:00:00,16,1008.3,-0.1,94,15,8000,3.704,,,120,12.2,17.2,,,,,,,,50,wg-a,,,,AAXX 07184 07190 02458 81202 10160 20150 39904 40083 55001 61000 75065 875// 91800 333 10172 20122 6100=
07190,1998-09-07 21:00:00,15,1009.1,0.7,94,14,8000,3.704,,,140,,,,,,,,,,1,wg-a,,,,AAXX 07214 07190 02258 71402 10150 20140 39911 40091 51007 61000 70152 875// 92100 333 ////=
07190,1998-09-08 00:00:00,12,1010,0.7,94,11,1500,3.704,,,220,,,,0,,,,,,40,wg-a,,,,AAXX 08004 07190 02115 52202 10120 20110 39918 40100 52007 60006 74054 82631 90000 333 60007=
07190,1998-09-08 03:00:00,12,1010.1,0.1,100,12,600,3.704,,,220,,,,,,,,,,45,wg-a,,,,AAXX 08034 07190 12/06 92202 10120 20120 39919 40101 50001 60006 74542 89/// 90300=
07190,1998-09-08 06:00:00,13,1011.4,1.3,100,13,4000,7.408,,,190,11.2,15.9,,,,,3,,,10,wg-a,,,,AAXX 08064 07190 02140 71904 10130 20130 39932 40114 53013 60006 71042 84832 90600 333 10159 20112 60034=
07190,1998-09-08 09:00:00,19,1011.9,0.9,78,15,12000,11.112,,,220,,,,,,,,,,,wg-a,,,,AAXX 08094 07190 12462 62206 10190 20150 39941 40119 52009 60006 84832 90900=
07190,1998-09-08 12:00:00,24,1011.1,-0.5,50,13,20000,25.928,,,220,,,,,,,,,,,wg-a,,,,AAXX 08124 07190 12670 52214 10240 20130 39936 40111 58005 60006 84831 91200=
07190,1998-09-08 15:00:00,22,1011.5,0.3,53,12,25000,14.816,,,230,,,,,,,,,,,wg-a,,,,AAXX 08154 07190 12775 72308 10220 20120 39939 40115 53003 60006 83831 91500=
07190,1998-09-08 18:00:00,19,1011.9,0.2,68,13,500,11.112,,,190,13,23.8,,,,,,,,,wg-a,,,,AAXX 08184 07190 12800 51906 10190 20130 39941 40119 53002 60006 82480 91800 333 10238 20130=
07190,1998-09-08 21:00:00,17,1013,1,82,14,500,11.112,,,160,,,,,,,,,,,wg-a,,,,AAXX 08214 07190 12600 /1606 10170 20140 39951 40130 51010 60006 85530 92100=
07190,1998-09-09 00:00:00,17,1013,0,77,13,20000,14.816,,,170,,,,,,,,,,,wg-a,,,,AAXX 09004 07190 12570 61708 10170 20130 39951 40130 50000 60006 86500 90000=
07190,1998-09-09 03:00:00,17,1012.6,-0.5,82,14,20000,14.816,,,170,,,,,,,,,,,wg-a,,,,AAXX 09034 07190 12570 71708 10170 20140 39946 40126 56005 60006 875// 90300=
07190,1998-09-09 06:00:00,16,1012.1,-0.5,88,14,500,14.816,,,190,15.8,18.9,,,,,,,,,wg-a,,,,AAXX 09064 07190 02600 /1908 10160 20140 39941 40121 56005 60006 86500 90600 333 10189 20158 60004=
07190,1998-09-09 09:00:00,22,1011,-0.7,65,15,500,22.224,,,170,,,,,,,,,,,wg-a,,,,AAXX 09094 07190 12700 41712 10220 20150 39934 40110 58007 60006 83231 90900=
07190,1998-09-09 12:00:00,26,1008.9,-1.8,54,16,500,22.224,,,180,,,,,,,,,,,wg-a,,,,AAXX 09124 07190 12700 61812 10260 20160 39916 40089 58018 60006 82231 91200=
07190,1998-09-09 15:00:00,27,1007.6,-1.3,51,16,500,11.112,,,170,,,,,,,,,,,wg-a,,,,AAXX 09154 07190 12700 71706 10270 20160 39903 40076 58013 60006 8423/ 91500=
07190,1998-09-09 18:00:00,24,1007,-0.7,65,17,500,11.112,,,170,16.1,27,,,,,,,,,wg-a,,,,AAXX 09184 07190 12700 61706 10240 20170 39896 40070 56007 60006 85880 91800 333 10270 20161=
07190,1998-09-09 21:00:00,20,1008.4,1.1,83,17,25000,3.704,,,250,,,,,,,,,,,wg-a,,,,AAXX 09214 07190 12775 22502 10200 20170 39907 40084 52011 60006 81530 92100=
07190,1998-09-10 00:00:00,18,1008.8,0.3,88,16,20000,7.408,,,220,,,,,,,,,,,wg-a,,,,AAXX 10004 07190 12770 12204 10180 20160 39910 40088 53003 60006 81530 90000=
07190,1998-09-10 03:00:00,18,1008.9,0.1,88,16,20000,11.112,,,160,,,,,,,,,,,wg-a,,,,AAXX 10034 07190 12/70 51606 10180 20160 39911 40089 51001 60006 82032 90300=
07190,1998-09-10 06:00:00,17,1009.7,0.8,94,16,500,3.704,,,220,16.8,23.8,,,,,,,,,wg-a,,,,AAXX 10064 07190 02600 62202 10170 20160 39919 40097 53008 60006 84830 90600 333 10238 20168 60004=
07190,1998-09-10 09:00:00,19,1010,0.4,83,16,25000,11.112,,,150,,,,,,,,,,80,wg-a,,,,AAXX 10094 07190 02675 71506 10190 20160 39923 40100 50004 61000 78086 8587/ 90900 333 ////=
07190,1998-09-10 12:00:00,19,1011.2,1.1,88,17,18000,7.408,,,200,,,,1,,,,,,21,wg-a,,,,AAXX 10124 07190 02568 72004 10190 20170 39934 40112 51011 60016 72186 8587/ 91200 333 60017=
07190,1998-09-10 15:00:00,18,1010.2,-1,94,17,7000,7.408,,,150,,,,9,,,,,,61,wg-a,,,,AAXX 10154 07190 12357 81504 10180 20170 39924 40102 58010 60097 76162 8477/ 91500=
07190,1998-09-10 18:00:00,16,1010.3,0,100,16,6000,18.52,,,170,16.3,20.2,,,,,,,,61,wg-a,,,,AAXX 10184 07190 02256 81710 10160 20160 39924 40103 50000 61000 76162 8677/ 91800 333 10202 20163 6003=
07190,1998-09-10 21:00:00,16,1010.8,0.4,94,15,7000,22.224,,,190,,,,1,,,,,,2,wg-a,,,,AAXX 10214 07190 12257 81912 10160 20150 39928 40108 53004 60017 70262 877// 92100=
07190,1998-09-11 00:00:00,15,1010.5,-0.3,100,15,9000,18.52,,,170,,,,,,,,,,1,wg-a,,,,AAXX 11004 07190 12259 71710 10150 20150 39925 40105 58003 60016 70162 875// 90000=
07190,1998-09-11 03:00:00,15,1009.8,-0.7,94,14,10000,14.816,,,170,,,,,,,,,,,wg-a,,,,AAXX 11034 07190 12760 51708 10150 20140 39918 40098 58007 60006 83501 90300=
07190,1998-09-11 06:00:00,14,1008.8,-1,94,13,18000,7.408,,,180,14.1,16.3,,,,,15,,,,wg-a,,,,AAXX 11064 07190 02668 71804 10140 20130 39908 40088 56010 60006 8387/ 90600 333 10163 20141 60154=
07190,1998-09-11 09:00:00,16,1008.4,-0.3,88,14,18000,11.112,,,180,,,,,,,,,,,wg-a,,,,AAXX 11094 07190 12468 71806 10160 20140 39905 40084 56003 60006 878// 90900=
07190,1998-09-11 12:00:00,19,1006,-2.2,78,15,25000,14.816,,,160,,,,,,,,,,,wg-a,,,,AAXX 11124 07190 12675 71608 10190 20150 39883 40060 58022 60006 85832 91200=
07190,1998-09-11 15:00:00,19,1003.7,-2.3,73,14,4800,14.816,,,250,,,,,,,,,,80,wg-a,,,,AAXX 11154 07190 02548 72508 10190 20140 39860 40037 56023 61000 78086 878// 91500 333 ////=
07190,1998-09-11 18:00:00,14,1002.7,-1.2,94,13,18000,11.112,,,150,14.2,20.1,,,,,,,,25,wg-a,,,,AAXX 11184 07190 02468 81506 10140 20130 39848 40027 57012 61000 72598 8587/ 91800 333 10201 20142 6009=
07190,1998-09-11 21:00:00,13,1002.1,-0.7,100,13,500,14.816,,,190,,,,1,,,,,,60,wg-a,,,,AAXX 11214 07190 12500 81908 10130 20130 39841 40021 58007 60017 76062 8587/ 92100=
07190,1998-09-12 00:00:00,13,1000,-2.1,100,13,3500,7.408,,,170,,,,,,,,,,,wg-a,,,,AAXX 12004 07190 12/35 /1704 10130 20130 39820 40000 56021 60026 90000=
07190,1998-09-12 03:00:00,12,998,-2,100,12,3500,7.408,,,160,,,,,,,,,,10,wg-a,,,,AAXX 12034 07190 12535 81604 10120 20120 39800 49980 56020 60006 71022 8387/ 90300=
07190,1998-09-12 06:00:00,13,997.5,-0.4,94,12,500,18.52,,,200,12,14.2,,,,,,,,61,wg-a,,,,AAXX 12064 07190 02200 82010 10130 20120 39796 49975 55004 61000 76162 877// 90600 333 10142 20120 6012=
07190,1998-09-12 09:00:00,15,997.4,-0,82,12,15000,14.816,,,200,,,,0,,,,,,1,wg-a,,,,AAXX 12094 07190 12565 72008 10150 20120 39796 49974 55000 60007 70186 8683/ 90900=
07190,1998-09-12 12:00:00,14,999.1,1.6,72,9,15000,22.224,,,270,,,,0,,,,,,21,wg-a,,,,AAXX 12124 07190 02565 72712 10140 20090 39812 49991 51016 60016 72186 8487/ 91200 333 60007=
07190,1998-09-12 15:00:00,14,999,-0.1,77,10,15000,22.224,,,240,,,,0,,,,,,25,wg-a,,,,AAXX 12154 07190 12665 72412 10140 20100 39811 49990 58001 60007 72586 8487/ 91500=
07190,1998-09-12 18:00:00,12,999.5,0.4,82,9,20000,11.112,,,200,12.2,14.8,,0,,,,,,1,wg-a,,,,AAXX 12184 07190 02670 42006 10120 20090 39815 49995 51004 60006 70186 84870 91800 333 10148 20122 60007=
07190,1998-09-12 21:00:00,10,997.9,-1.7,87,8,20000,18.52,,,210,,,,,,,,,,,wg-a,,,,AAXX 12214 07190 12670 62110 10100 20080 39798 49979 58017 60006 8/800 92100=
07190,1998-09-13 00:00:00,10,996.7,-1.2,93,9,15000,11.112,,,190,,,,1,,,,,,,wg-a,,,,AAXX 13004 07190 02465 71906 10100 20090 39786 49967 58012 60016 878// 90000 333 60017=
07190,1998-09-13 03:00:00,10,996.8,0.1,87,8,15000,7.408,,,280,,,,0,,,,,,,wg-a,,,,AAXX 13034 07190 12565 72804 10100 20080 39787 49968 53001 60007 878// 90300=
07190,1998-09-13 06:00:00,7,998.3,1.3,93,6,20000,7.408,,,170,6.3,12.2,,,,,2,,,,wg-a,,,,AAXX 13064 07190 02570 /1704 10070 20060 39800 49983 53013 60006 81800 90600 333 10122 20063 60024=
07190,1998-09-13 09:00:00,13,997.8,-0.2,62,6,500,22.224,,,180,,,,,,,,,,,wg-a,,,,AAXX 13094 07190 12500 51812 10130 20060 39798 49978 58002 60006 82842 90900=
07190,1998-09-13 12:00:00,12,997.7,-0.1,67,6,9000,31.484,,,240,,,,,,,,,,80,wg-a,,,,AAXX 13124 07190 02659 72417 10120 20060 39797 49977 55001 61000 78086 878// 91200 333 6100=
07190,1998-09-13 15:00:00,10,997.9,0.1,87,8,12000,11.112,,,170,,,,0,,,,,,61,wg-a,,,,AAXX 13154 07190 12562 71706 10100 20080 39798 49979 53001 60007 76186 878// 91500=
07190,1998-09-13 18:00:00,10,998.8,0.8,76,6,18000,18.52,,,210,7.2,15.4,,0,,,,,,1,wg-a,,,,AAXX 13184 07190 02568 /2110 10100 20060 39806 49988 53008 60006 70186 85802 91800 333 10154 20072 60007=
07190,1998-09-13 21:00:00,9,999.4,0.6,93,8,10000,18.52,,,190,,,,,,,,,,21,wg-a,,,,AAXX 13214 07190 02560 71910 10090 20080 39812 49994 51006 61000 72162 878// 92100 333 ////=
07190,1998-09-14 00:00:00,10,999.6,0.2,76,6,12000,18.52,,,220,,,,1,,,,,,1,wg-a,,,,AAXX 14004 07190 02562 82210 10100 20060 39814 49996 51002 60016 70162 8487/ 90000 333 60017=
07190,1998-09-14 03:00:00,11,998.9,-0.6,71,6,15000,25.928,,,230,,,,,,,,,,,wg-a,,,,AAXX 14034 07190 12465 82314 10110 20060 39808 49989 57006 60006 8587/ 90300=
07190,1998-09-14 06:00:00,10,1000.1,1.1,66,4,15000,25.928,,,230,8.7,11,,,,,1,,,3,wg-a,,,,AAXX 14064 07190 02665 72314 10100 20040 39819 40001 53011 60006 70386 84872 90600 333 10110 20087 60014=
07190,1998-09-14 09:00:00,12,1000.7,0.7,58,4,20000,31.484,,,230,,,,,,,,,,,wg-a,,,,AAXX 14094 07190 12670 72317 10120 20040 39826 40007 53007 60006 8227/ 90900=
07190,1998-09-14 15:00:00,13,1003,0.7,67,7,15000,18.52,,,220,,,,0,,,,,,21,wg-a,,,,AAXX 14154 07190 12565 82210 10130 20070 39849 40030 51007 60007 72162 8527/ 91500=
07190,1998-09-14 18:00:00,13,1004.1,1.1,67,7,20000,25.928,,,210,10.3,13.2,,,,,,,,2,wg-a,,,,AAXX 14184 07190 12670 82114 10130 20070 39860 40041 52011 60006 70262 86872 91800 333 10132 20103=
07190,1998-09-14 21:00:00,12,1005,0.9,82,9,20000,22.224,,,220,,,,0,,,,,,21,wg-a,,,,AAXX 14214 07190 12670 72212 10120 20090 39869 40050 51009 60007 72162 84172 92100=
07190,1998-09-15 00:00:00,12,1005.4,0.4,82,9,15000,22.224,,,220,,,,,,,,,,60,wg-a,,,,AAXX 15004 07190 02565 82212 10120 20090 39873 40054 52004 60006 76062 8587/ 90000 333 61000=
07190,1998-09-15 03:00:00,12,1006,0.6,82,9,15000,18.52,,,230,,,,0,,,,,,60,wg-a,,,,AAXX 15034 07190 12565 82310 10120 20090 39879 40060 53006 60007 76062 875// 90300=
07190,1998-09-15 06:00:00,13,1008.1,2.1,77,9,15000,18.52,,,230,10.9,12.9,,,,,1,,,3,wg-a,,,,AAXX 15064 07190 02565 82310 10130 20090 39900 40081 53021 60006 70362 8682/ 90600 333 10129 20109 60014=
07190,1998-09-15 09:00:00,14,1010.5,2.4,67,8,18000,25.928,,,240,,,,,,,,,,,wg-a,,,,AAXX 15094 07190 12668 72414 10140 20080 39924 40105 53024 60006 8582/ 90900=
07190,1998-09-15 12:00:00,15,1011.8,1.3,63,8,20000,18.52,,,230,,,,,,,,,,25,wg-a,,,,AAXX 15124 07190 02670 72310 10150 20080 39937 40118 51013 61000 72586 8687/ 91200 333 6100=
07190,1998-09-15 15:00:00,16,1011.4,-0.3,59,8,500,25.928,,,200,,,,,,,,,,,wg-a,,,,AAXX 15154 07190 12600 72014 10160 20080 39934 40114 56003 60006 8587/ 91500=
07190,1998-09-15 18:00:00,13,1011.4,-0.2,77,9,15000,31.484,,,200,12.4,16.4,,1,,,,,,80,wg-a,,,,AAXX 15184 07190 12665 72017 10130 20090 39932 40114 57002 60017 78086 8687/ 91800 333 10164 20124=
07190,1998-09-16 00:00:00,13,1010.2,-0.4,82,10,15000,14.816,,,190,,,,,,,,,,2,wg-a,,,,AAXX 16004 07190 02565 81908 10130 20100 39920 40102 58004 61000 70286 8587/ 90000 333 ////=
07190,1998-09-16 12:00:00,18,1009.9,-0.8,52,8,20000,25.928,,,240,,,,,,,,,,,wg-a,,,,AAXX 16124 07190 12670 82414 10180 20080 39920 40099 56008 60006 875// 91200=
07190,1998-09-16 18:00:00,15,1010.6,0.7,72,10,25000,3.704,,,290,13.9,18.1,,1,,,,,,3,wg-a,,,,AAXX 16184 07190 02575 82902 10150 20100 39925 40106 53007 60006 70386 8787/ 91800 333 10181 20139 60017=
07190,1998-09-17 00:00:00,14,1010.2,-0.7,67,8,25000,14.816,,,220,,,,,,,,,,,wg-a,,,,AAXX 17004 07190 12675 /2208 10140 20080 39921 40102 56007 60006 83530 90000=
07190,1998-09-17 03:00:00,13,1009.9,-0.4,72,8,20000,14.816,,,220,,,,,,,,,,,wg-a,,,,AAXX 17034 07190 12670 /2208 10130 20080 39917 40099 56004 60006 86530 90300=
07190,1998-09-17 06:00:00,11,1011.4,1.4,87,9,20000,11.112,,,220,11.1,15,,,,,2,,,1,wg-a,,,,AAXX 17064 07190 02570 /2206 10110 20090 39931 40114 53014 60006 70162 85801 90600 333 10150 20111 60024=
07190,1998-09-17 09:00:00,14,1013.1,1.8,67,8,20000,22.224,,,250,,,,,,,,,,,wg-a,,,,AAXX 17094 07190 12670 72512 10140 20080 39949 40131 51018 60006 878// 90900=
07190,1998-09-17 12:00:00,14,1014.4,1.3,63,7,20000,22.224,,,250,,,,,,,,,,,wg-a,,,,AAXX 17124 07190 12670 72512 10140 20070 39962 40144 53013 60006 8387/ 91200=
07190,1998-09-17 15:00:00,16,1014.9,0.6,59,8,35000,29.632,,,260,,,,,,,,,,,wg-a,,,,AAXX 17154 07190 12681 72616 10160 20080 39968 40149 53006 60006 8583/ 91500=
07190,1998-09-17 18:00:00,14,1017,2,67,8,20000,18.52,,,250,11.3,16,,,,,,,,,wg-a,,,,AAXX 17184 07190 12670 82510 10140 20080 39988 40170 53020 60006 878// 91800 333 10160 20113=
07190,1998-09-17 21:00:00,14,1019.1,2,67,8,11000,18.52,,,270,,,,,,,,,,,wg-a,,,,AAXX 17214 07190 12/61 /2710 10140 20080 30008 40191 51020 60006 92100=
07190,1998-09-18 00:00:00,13,1020.3,1.2,77,9,15000,7.408,,,240,,,,,,,,,,,wg-a,,,,AAXX 18004 07190 12665 82404 10130 20090 30020 40203 52012 60006 875// 90000=
07190,1998-09-18 03:00:00,12,1021,0.6,88,10,15000,3.704,,,270,,,,,,,,,,,wg-a,,,,AAXX 18034 07190 12665 82702 10120 20100 30026 40210 53006 60006 875// 90300=
07190,1998-09-18 06:00:00,12,1022.8,1.8,82,9,18000,3.704,,,310,12.2,14.4,,,,,,,,,wg-a,,,,AAXX 18064 07190 02668 /3102 10120 20090 30044 40228 53018 60006 86500 90600 333 10144 20122 60004=
07190,1998-09-18 09:00:00,15,1024.6,1.9,51,5,500,11.112,,,320,,,,,,,,,,,wg-a,,,,AAXX 18094 07190 12500 63206 10150 20050 30063 40246 52019 60006 86800 90900=
07190,1998-09-18 12:00:00,17,1025,0.5,45,5,500,11.112,,,350,,,,,,,,,,,wg-a,,,,AAXX 18124 07190 12600 53506 10170 20050 30068 40250 51005 60006 85800 91200=
07190,1998-09-18 15:00:00,17,1025.3,0.3,48,6,500,11.112,,,60,,,,,,,,,,,wg-a,,,,AAXX 18154 07190 12600 40606 10170 20060 30071 40253 51003 60006 84800 91500=
07190,1998-09-18 18:00:00,13,1027,1.5,72,8,500,7.408,,,10,12.2,17.6,,,,,,,,,wg-a,,,,AAXX 18184 07190 12700 20104 10130 20080 30086 40270 53015 60006 81501 91800 333 10176 20122=
07190,1998-09-18 21:00:00,8,1028.9,1.5,93,7,20000,3.704,,,280,,,,,,,,,,,wg-a,,,,AAXX 18214 07190 12/70 12802 10080 20070 30101 40289 51015 60006 80001 92100=
07190,1998-09-19 00:00:00,6,1029.6,0.5,93,5,10000,3.704,,,330,,,,,,,,,,,wg-a,,,,AAXX 19004 07190 12/60 03302 10060 20050 30106 40296 53005 60006 80000 90000=
07190,1998-09-19 03:00:00,5,1030.3,0.6,93,4,8000,3.704,,,330,,,,,,,,,,,wg-a,,,,AAXX 19034 07190 12/58 /3302 10050 20040 30112 40303 51006 60006 80001 90300=
07190,1998-09-19 06:00:00,5,1031.3,1,93,4,12000,3.704,,,330,4.2,13.4,,,,,,,,,wg-a,,,,AAXX 19064 07190 02262 23302 10050 20040 30122 40313 52010 60006 81601 90600 333 10134 20042 60004=
07190,1998-09-19 09:00:00,13,1031.3,0.6,77,9,12000,3.704,,,80,,,,0,,,,,,,wg-a,,,,AAXX 19094 07190 12/62 10802 10130 20090 30128 40313 51006 60007 80001 90900=
07190,1998-09-19 12:00:00,18,1030.5,-0.5,49,7,35000,14.816,,,50,,,,,,,,,,,wg-a,,,,AAXX 19124 07190 12/81 20508 10180 20070 30123 40305 58005 60006 80001 91200=
07190,1998-09-19 15:00:00,19,1029.7,-0.8,49,8,35000,18.52,,,30,,,,,,,,,,,wg-a,,,,AAXX 19154 07190 12/81 30310 10190 20080 30115 40297 56008 60006 80001 91500=
07190,1998-09-19 18:00:00,15,1030.5,0.6,67,9,500,7.408,,,350,4.9,18.9,,,,,,,,,wg-a,,,,AAXX 19184 07190 12/00 13504 10150 20090 30121 40305 53006 60006 80001 91800 333 10189 20049=
07190,1998-09-19 21:00:00,10,1031.7,0.8,87,8,20000,7.408,,,340,,,,,,,,,,,wg-a,,,,AAXX 19214 07190 12/70 13404 10100 20080 30129 40317 51008 60006 80001 92100=
07190,1998-09-20 00:00:00,8,1031.5,-0.3,93,7,9000,7.408,,,330,,,,,,,,,,,wg-a,,,,AAXX 20004 07190 12/59 /3304 10080 20070 30126 40315 55003 60006 80001 90000=
07190,1998-09-20 03:00:00,7,1031.5,-0,100,7,6000,7.408,,,10,,,,,,,,,,,wg-a,,,,AAXX 20034 07190 12/56 00104 10070 20070 30126 40315 55000 60006 80000 90300=
07190,1998-09-20 06:00:00,7,1032.4,0.8,100,7,3500,7.408,,,350,6.5,14.9,,,,,,,,,wg-a,,,,AAXX 20064 07190 02/35 /3504 10070 20070 30134 40324 53008 60006 90600 333 10149 20065 60004=
07190,1998-09-20 09:00:00,15,1031.9,0.1,67,9,15000,11.112,,,10,,,,,,,,,,,wg-a,,,,AAXX 20094 07190 12/65 /0106 10150 20090 30135 40319 50001 60006 80001 90900=
07190,1998-09-20 12:00:00,20,1030.5,-1.1,49,9,15000,22.224,,,30,,,,,,,,,,,wg-a,,,,AAXX 20124 07190 12/65 10312 10200 20090 30124 40305 58011 60006 80001 91200=
07190,1998-09-20 15:00:00,20,1029.7,-0.8,49,9,15000,29.632,,,30,,,,,,,,,,,wg-a,,,,AAXX 20154 07190 12765 30316 10200 20090 30116 40297 55008 60006 82501 91500=
07190,1998-09-20 18:00:00,17,1030.4,0.5,63,10,25000,18.52,,,20,7.1,20.2,,,,,,,,,wg-a,,,,AAXX 20184 07190 12775 20210 10170 20100 30121 40304 53005 60006 82400 91800 333 10202 20071=
07190,1998-09-20 21:00:00,13,1030.7,0.1,82,10,15000,7.408,,,360,,,,,,,,,,,wg-a,,,,AAXX 20214 07190 12/65 03604 10130 20100 30122 40307 50001 60006 80000 92100=
07190,1998-09-21 00:00:00,12,1030.6,-0.2,82,9,15000,18.52,,,20,,,,,,,,,,,wg-a,,,,AAXX 21004 07190 12/65 00210 10120 20090 30120 40306 56002 60006 80000 90000=
07190,1998-09-21 03:00:00,10,1030.4,-0.3,87,8,12000,7.408,,,360,,,,,,,,,,,wg-a,,,,AAXX 21034 07190 12/62 03604 10100 20080 30117 40304 57003 60006 80000 90300=
07190,1998-09-21 06:00:00,10,1031,0.5,87,8,9000,14.816,,,20,8.8,16.6,,,,,,,,,wg-a,,,,AAXX 21064 07190 02459 /0208 10100 20080 30122 40310 53005 60006 81100 90600 333 10166 20088 60004=
07190,1998-09-21 09:00:00,15,1030.5,-0.1,72,10,15000,18.52,,,20,,,,,,,,,,,wg-a,,,,AAXX 21094 07190 12/65 /0210 10150 20100 30121 40305 58001 60006 80000 90900=
07190,1998-09-21 12:00:00,19,1028.3,-1.9,52,9,20000,22.224,,,20,,,,,,,,,,,wg-a,,,,AAXX 21124 07190 12670 /0212 10190 20090 30102 40283 56019 60006 81101 91200=
07190,1998-09-21 15:00:00,20,1026.4,-1.8,46,8,20000,25.928,,,30,,,,,,,,,,,wg-a,,,,AAXX 21154 07190 12770 /0314 10200 20080 30084 40264 56018 60006 81402 91500=
07190,1998-09-21 18:00:00,16,1027.2,0.5,59,8,25000,11.112,,,20,9.7,20.3,,,,,,,,,wg-a,,,,AAXX 21184 07190 12775 10206 10160 20080 30089 40272 53005 60006 81402 91800 333 10203 20097=
07190,1998-09-21 21:00:00,13,1026.7,-0.6,77,9,10000,11.112,,,20,,,,,,,,,,,wg-a,,,,AAXX 21214 07190 12/60 /0206 10130 20090 30083 40267 58006 60006 92100=
07190,1998-09-22 00:00:00,11,1026.3,-0.6,87,9,20000,11.112,,,340,,,,,,,,,,,wg-a,,,,AAXX 22004 07190 12/70 03406 10110 20090 30077 40263 55006 60006 80000 90000=
07190,1998-09-22 03:00:00,9,1025,-1.4,93,8,20000,11.112,,,20,,,,,,,,,,,wg-a,,,,AAXX 22034 07190 12/70 00206 10090 20080 30063 40250 58014 60006 80000 90300=
07190,1998-09-22 06:00:00,10,1024.8,-0.1,93,9,7000,7.408,,,360,9.1,16.3,,,,,,,,,wg-a,,,,AAXX 22064 07190 02/57 /3604 10100 20090 30062 40248 55001 60006 80001 90600 333 10163 20091 60004=
07190,1998-09-22 09:00:00,14,1024,-0.5,77,10,10000,14.816,,,30,,,,,,,,,,,wg-a,,,,AAXX 22094 07190 12560 /0308 10140 20100 30057 40240 58005 60006 81130 90900=
07190,1998-09-22 12:00:00,17,1022.7,-1.1,63,10,20000,22.224,,,50,,,,,,,,,,,wg-a,,,,AAXX 22124 07190 12670 70512 10170 20100 30046 40227 57011 60006 87800 91200=
07190,1998-09-22 15:00:00,17,1022.1,-0.6,55,8,20000,18.52,,,80,,,,,,,,,,,wg-a,,,,AAXX 22154 07190 12670 /0810 10170 20080 30040 40221 56006 60006 86800 91500=
07190,1998-09-22 18:00:00,13,1022.3,-0.1,77,9,15000,7.408,,,350,9.7,17.6,,,,,,,,,wg-a,,,,AAXX 22184 07190 12/65 03504 10130 20090 30039 40223 55001 60006 80000 91800 333 10176 20097=
07190,1998-09-22 21:00:00,9,1022.9,0.3,93,8,15000,3.704,,,220,,,,,,,,,,,wg-a,,,,AAXX 22214 07190 12/65 02202 10090 20080 30042 40229 51003 60006 80000 92100=
07190,1998-09-23 00:00:00,8,1022.6,-0.3,93,7,9000,0,,,0,,,,,,,,,,,wg-a,,,,AAXX 23004 07190 12/59 20000 10080 20070 30039 40226 58003 60006 80002 90000=
07190,1998-09-23 03:00:00,7,1022.5,-0.2,93,6,500,3.704,,,300,,,,,,,,,,,wg-a,,,,AAXX 23034 07190 12/00 03002 10070 20060 30037 40225 57002 60006 80000 90300=
07190,1998-09-23 06:00:00,7,1023.3,0.8,93,6,4000,7.408,,,340,5.9,12.9,,,,,,,,10,wg-a,,,,AAXX 23064 07190 02240 23404 10070 20060 30045 40233 53008 60006 71000 82600 90600 333 10129 20059 60004=
07190,1998-09-23 09:00:00,13,1022.9,0,82,10,7000,3.704,,,360,,,,,,,,,,,wg-a,,,,AAXX 23094 07190 12/57 /3602 10130 20100 30045 40229 50000 60006 80000 90900=
07190,1998-09-23 12:00:00,19,1021.1,-1.4,60,11,12000,7.408,,,70,,,,,,,,,,,wg-a,,,,AAXX 23124 07190 12/62 20704 10190 20110 30031 40211 58014 60006 80001 91200=
07190,1998-09-23 15:00:00,21,1019.2,-1.7,53,11,15000,7.408,,,40,,,,,,,,,,,wg-a,,,,AAXX 23154 07190 12/65 00404 10210 20110 30014 40192 56017 60006 80000 91500=
07190,1998-09-23 18:00:00,17,1019.3,-0.2,63,10,15000,11.112,,,10,6.7,21.1,,,,,,,,,wg-a,,,,AAXX 23184 07190 12/65 10106 10170 20100 30012 40193 55002 60006 80001 91800 333 10211 20067=
07190,1998-09-23 21:00:00,12,1020.2,0.6,88,10,15000,7.408,,,280,,,,,,,,,,,wg-a,,,,AAXX 23214 07190 12/65 02804 10120 20100 30018 40202 52006 60006 80000 92100=
07190,1998-09-24 00:00:00,9,1020.5,0.1,87,7,8000,0,,,0,,,,,,,,,,,wg-a,,,,AAXX 24004 07190 12/58 00000 10090 20070 30019 40205 53001 60006 80000 90000=
07190,1998-09-24 03:00:00,7,1020.7,-0,93,6,500,0,,,0,,,,,,,,,,,wg-a,,,,AAXX 24034 07190 12/00 00000 10070 20060 30019 40207 55000 60006 80000 90300=
07190,1998-09-24 06:00:00,6,1020.8,0.1,100,6,1100,0,,,0,5.6,16.7,,,,,,,,40,wg-a,,,,AAXX 24064 07190 02111 20000 10060 20060 30020 40208 53001 60006 74040 82600 90600 333 10167 20056 60004=
07190,1998-09-24 09:00:00,12,1020.6,0.2,94,11,2800,3.704,,,180,,,,0,,,,,,10,wg-a,,,,AAXX 24094 07190 12228 21802 10120 20110 30022 40206 52002 60007 71041 82100 90900=
07190,1998-09-24 12:00:00,19,1018.6,-1.5,64,12,7000,3.704,,,70,,,,,,,,,,1,wg-a,,,,AAXX 24124 07190 12/57 /0702 10190 20120 30007 40186 56015 60006 70141 80001 91200=
07190,1998-09-24 15:00:00,21,1016.8,-1.7,53,11,12000,11.112,,,40,,,,,,,,,,,wg-a,,,,AAXX 24154 07190 12/62 40406 10210 20110 39990 40168 56017 60006 80001 91500=
07190,1998-09-24 18:00:00,16,1016.9,-0.2,77,12,12000,3.704,,,320,6,21.1,,,,,,,,,wg-a,,,,AAXX 24184 07190 12/62 63202 10160 20120 39988 40169 55002 60006 83042 91800 333 10211 20060=
07190,1998-09-24 21:00:00,12,1017.1,0,88,10,9000,0,,,0,,,,,,,,,,,wg-a,,,,AAXX 24214 07190 12/59 20000 10120 20100 39988 40171 50000 60006 80001 92100=
07190,1998-09-25 00:00:00,12,1017.1,-0.1,94,11,7000,0,,,0,,,,,,,,,,,wg-a,,,,AAXX 25004 07190 12/57 /0000 10120 20110 39987 40171 56001 60006 85030 90000=
07190,1998-09-25 03:00:00,11,1016.3,-0.8,100,11,4000,3.704,,,220,,,,,,,,,,10,wg-a,,,,AAXX 25034 07190 12/40 42202 10110 20110 39979 40163 56008 60006 71011 84030 90300=
07190,1998-09-25 06:00:00,9,1015.7,-0.7,93,8,900,3.704,,,230,8.6,15.4,,,,,,,,44,wg-a,,,,AAXX 25064 07190 02109 /2302 10090 20080 39972 40157 55007 60006 74441 82631 90600 333 10154 20086 60004=
07190,1998-09-25 09:00:00,15,1014.8,-0.5,88,13,500,3.704,,,160,,,,,,,,,,3,wg-a,,,,AAXX 25094 07190 12/00 /1602 10150 20130 39967 40148 58005 60006 70342 81031 90900=
07190,1998-09-25 12:00:00,21,1012.7,-1.7,64,14,8000,3.704,,,50,,,,,,,,,,2,wg-a,,,,AAXX 25124 07190 12/58 /0502 10210 20140 39950 40127 56017 60006 70242 80001 91200=
07190,1998-09-25 15:00:00,23,1010.9,-1.7,57,14,9000,7.408,,,90,,,,,,,,,,,wg-a,,,,AAXX 25154 07190 12659 50904 10230 20140 39933 40109 56017 60006 81281 91500=
07190,1998-09-25 18:00:00,19,1010.7,-0.4,73,14,10000,11.112,,,30,8.7,22.7,,,,,,,,,wg-a,,,,AAXX 25184 07190 12860 70306 10190 20140 39929 40107 57004 60006 875// 91800 333 10227 20087=
07190,1998-09-25 21:00:00,16,1010.9,0.1,88,14,7000,0,,,0,,,,,,,,,,,wg-a,,,,AAXX 25214 07190 12857 70000 10160 20140 39930 40109 50001 60006 875// 92100=
07190,1998-09-26 00:00:00,15,1010.4,-0.6,88,13,7000,3.704,,,190,,,,,,,,,,,wg-a,,,,AAXX 26004 07190 12857 71902 10150 20130 39924 40104 55006 60006 8557/ 90000=
07190,1998-09-26 03:00:00,14,1009.1,-1.3,100,14,4000,3.704,,,340,,,,0,,,,,,10,wg-a,,,,AAXX 26034 07190 12740 73402 10140 20140 39911 40091 58013 60007 71062 8557/ 90300=
07190,1998-09-26 06:00:00,14,1008.2,-0.9,94,13,1600,3.704,,,300,13.7,18.6,,,,,,,,40,wg-a,,,,AAXX 26064 07190 02716 73002 10140 20130 39902 40082 56009 60006 74062 875// 90600 333 10186 20137 60004=
07190,1998-09-26 09:00:00,15,1007.9,-0.2,100,15,2500,3.704,,,100,,,,0,,,,,,10,wg-a,,,,AAXX 26094 07190 12725 81002 10150 20150 39900 40079 58002 60007 71022 875// 90900=
07190,1998-09-26 12:00:00,18,1005.1,-2.6,88,16,3500,3.704,,,20,,,,0,,,,,,10,wg-a,,,,AAXX 26124 07190 02735 80202 10180 20160 39874 40051 58026 60016 71062 8457/ 91200 333 60007=
07190,1998-09-26 15:00:00,19,1004.9,-0.2,83,16,500,14.816,,,240,,,,0,,,,,,60,wg-a,,,,AAXX 26154 07190 12700 82408 10190 20160 39872 40049 55002 60007 76062 8557/ 91500=
07190,1998-09-26 18:00:00,17,1003.4,-1.6,94,16,2000,7.408,,,30,13.9,19.8,,,,,,,,10,wg-a,,,,AAXX 26184 07190 02720 70304 10170 20160 39856 40034 56016 61000 71062 85572 91800 333 10198 20139 6001=
07190,1998-09-27 00:00:00,14,1004.6,1.6,100,14,500,3.704,,,210,,,,6,,,,,,61,wg-a,,,,AAXX 27004 07190 02500 82102 10140 20140 39867 40046 51016 60066 76186 878// 90000 333 60067=
07190,1998-09-27 03:00:00,14,1004.3,-0.4,94,13,2500,7.408,,,290,,,,0,,,,,,10,wg-a,,,,AAXX 27034 07190 12225 82904 10140 20130 39863 40043 55004 60007 71062 876// 90300=
07190,1998-09-27 06:00:00,13,1004.2,-0.1,94,12,18000,14.816,,,160,12.9,16.6,,,,,8,,,11,wg-a,,,,AAXX 27064 07190 02668 /1608 10130 20120 39862 40042 55001 60006 71161 82831 90600 333 10166 20129 60084=
07190,1998-09-27 09:00:00,15,1004.6,0.5,88,13,25000,3.704,,,170,,,,,,,,,,,wg-a,,,,AAXX 27094 07190 12775 61702 10150 20130 39867 40046 53005 60006 84530 90900=
07190,1998-09-27 12:00:00,20,1003.5,-0.8,68,14,500,14.816,,,170,,,,,,,,,,,wg-a,,,,AAXX 27124 07190 12600 71708 10200 20140 39859 40035 56008 60006 8583/ 91200=
07190,1998-09-27 15:00:00,21,1002.5,-0.9,56,12,500,22.224,,,170,,,,,,,,,,,wg-a,,,,AAXX 27154 07190 12600 /1712 10210 20120 39850 40025 56009 60006 84830 91500=
07190,1998-09-27 18:00:00,17,1003.2,0.4,72,12,500,14.816,,,180,13.1,21.1,,,,,,,,,wg-a,,,,AAXX 27184 07190 12700 41808 10170 20120 39854 40032 53004 60006 82531 91800 333 10211 20131=
07190,1998-09-27 21:00:00,15,1004,0.7,82,12,500,18.52,,,170,,,,,,,,,,,wg-a,,,,AAXX 27214 07190 12700 /1710 10150 20120 39861 40040 51007 60006 83530 92100=
07190,1998-09-28 00:00:00,15,1004.4,0.3,77,11,20000,22.224,,,180,,,,,,,,,,,wg-a,,,,AAXX 28004 07190 12670 71812 10150 20110 39864 40044 51003 60006 8383/ 90000=
07190,1998-09-28 03:00:00,14,1004.8,0.4,88,12,15000,22.224,,,170,,,,1,,,,,,60,wg-a,,,,AAXX 28034 07190 12565 81712 10140 20120 39868 40048 51004 60017 76062 878// 90300=
07190,1998-09-28 06:00:00,13,1005.5,0.6,94,12,15000,14.816,,,170,12.7,16.6,,,,,1,,,1,wg-a,,,,AAXX 28064 07190 02665 61708 10130 20120 39874 40055 53006 60006 70162 83830 90600 333 10166 20127 60014=
07190,1998-09-28 09:00:00,15,1006.5,1.2,82,12,15000,14.816,,,170,,,,,,,,,,,wg-a,,,,AAXX 28094 07190 12565 71708 10150 20120 39886 40065 51012 60006 878// 90900=
07190,1998-09-28 12:00:00,19,1005.1,-1.2,60,11,20000,18.52,,,210,,,,,,,,,,,wg-a,,,,AAXX 28124 07190 12670 72110 10190 20110 39874 40051 58012 60006 878// 91200=
07190,1998-09-28 15:00:00,18,1005.2,0.1,68,12,500,7.408,,,260,,,,,,,,,,,wg-a,,,,AAXX 28154 07190 12600 72604 10180 20120 39875 40052 50001 60006 878// 91500=
07190,1998-09-28 18:00:00,15,1006.7,1.2,94,14,10000,3.704,,,220,12.8,19.4,,,,,,,,80,wg-a,,,,AAXX 28184 07190 02660 72202 10150 20140 39888 40067 53012 61000 78086 878// 91800 333 10194 20128 6001=
07190,1998-09-28 21:00:00,14,1008,1.2,94,13,10000,7.408,,,200,,,,0,,,,,,60,wg-a,,,,AAXX 28214 07190 12560 72004 10140 20130 39900 40080 51012 60007 76086 878// 92100=
07190,1998-09-29 00:00:00,13,1008.8,0.7,94,12,6000,7.408,,,210,,,,0,,,,,,3,wg-a,,,,AAXX 29004 07190 02156 72104 10130 20120 39907 40088 51007 60016 70386 876// 90000 333 60007=
07190,1998-09-29 03:00:00,12,1009.1,0.2,100,12,500,3.704,,,190,,,,,,,,,,,wg-a,,,,AAXX 29034 07190 12100 /1902 10120 20120 39909 40091 51002 60006 86500 90300=
07190,1998-09-29 06:00:00,13,1009.6,0.6,100,13,500,3.704,,,170,12,15.3,,,,,,,,45,wg-a,,,,AAXX 29064 07190 12/05 91702 10130 20130 39915 40096 53006 60006 74542 89/// 90600 333 10153 20120=
07190,1998-09-29 09:00:00,14,1009.9,0.3,100,14,3500,7.408,,,160,,,,1,,,,,,10,wg-a,,,,AAXX 29094 07190 12135 81604 10140 20140 39918 40099 51003 60017 71086 878// 90900=
07190,1998-09-29 12:00:00,19,1008.5,-1,73,14,12000,7.408,,,150,,,,,,,,,,1,wg-a,,,,AAXX 29124 07190 12562 /1504 10190 20140 39908 40085 58010 60016 70186 85830 91200=
07190,1998-09-29 15:00:00,19,1007.2,-1.3,73,14,12000,11.112,,,10,,,,,,,,,,,wg-a,,,,AAXX 29154 07190 12662 70106 10190 20140 39895 40072 56013 60006 85231 91500=
07190,1998-09-29 18:00:00,15,1007.1,-0.3,94,14,8000,7.408,,,10,12.7,20.5,,,,,,,,,wg-a,,,,AAXX 29184 07190 12/58 /0104 10150 20140 39892 40071 56003 60006 81032 91800 333 10205 20127=
07190,1998-09-29 21:00:00,13,1007.2,-0.1,94,12,7000,3.704,,,260,,,,,,,,,,,wg-a,,,,AAXX 29214 07190 12/57 72602 10130 20120 39891 40072 58001 60006 86032 92100=
07190,1998-09-30 00:00:00,12,1006,-1.3,94,11,6000,0,,,0,,,,,,,,,,,wg-a,,,,AAXX 30004 07190 12/56 70000 10120 20110 39878 40060 58013 60006 8703/ 90000=
07190,1998-09-30 03:00:00,12,1005,-0.9,94,11,6000,0,,,0,,,,0,,,,,,,wg-a,,,,AAXX 30034 07190 12756 70000 10120 20110 39869 40050 58009 60007 8257/ 90300=
07190,1998-09-30 06:00:00,12,1005.5,0.5,100,12,2500,7.408,,,160,11.2,15.4,,,,,,,,10,wg-a,,,,AAXX 30064 07190 02225 81604 10120 20120 39874 40055 51005 61000 71062 8657/ 90600 333 10154 20112 6002=
07190,1998-09-30 09:00:00,14,1005.8,0.4,94,13,3000,11.112,,,170,,,,5,,,,,,10,wg-a,,,,AAXX 30094 07190 12230 81706 10140 20130 39878 40058 53004 60057 71066 8667/ 90900=
07190,1998-09-30 12:00:00,15,1006,0.3,94,14,4000,7.408,,,170,,,,4,,,,,,10,wg-a,,,,AAXX 30124 07190 02240 81704 10150 20140 39881 40060 50003 60086 71066 8577/ 91200 333 60047=
07190,1998-09-30 15:00:00,14,1006.4,0.3,94,13,3500,14.816,,,280,,,,2,,,,,,10,wg-a,,,,AAXX 30154 07190 12335 82808 10140 20130 39884 40064 53003 60027 71062 8577/ 91500=
07190,1998-09-30 18:00:00,13,1007,0.5,94,12,10000,3.704,,,140,12,15.5,,,,,,,,61,wg-a,,,,AAXX 30184 07190 02260 81402 10130 20120 39889 40070 53005 61000 76162 878// 91800 333 10155 20120 6004=
07190,1998-09-30 21:00:00,13,1007.1,0.1,94,12,7000,3.704,,,210,,,,0,,,,,,3,wg-a,,,,AAXX 30214 07190 12357 82102 10130 20120 39890 40071 51001 60007 70362 875// 92100=
07190,1998-10-01 00:00:00,12,1006.6,-0.5,100,12,2500,7.408,,,260,,,,,,,,,,10,wg-a,,,,AAXX 01004 07190 12225 82604 10120 20120 39885 40066 58005 60006 71062 876// 90000=
07190,1998-10-01 03:00:00,12,1007.1,0.5,100,12,2500,7.408,,,190,,,,0,,,,,,10,wg-a,,,,AAXX 01034 07190 12225 81904 10120 20120 39890 40071 50005 60007 71022 876// 90300=
07190,1998-10-01 06:00:00,12,1007.5,0.3,94,11,600,7.408,,,250,11.4,13.3,,,,,14,,,45,wg-a,,,,AAXX 01064 07190 02/06 92504 10120 20110 39893 40075 53003 60006 74564 89/// 90600 333 10133 20114 60144=
07190,1998-10-01 09:00:00,13,1007.6,0.2,94,12,500,3.704,,,120,,,,,,,,,,1,wg-a,,,,AAXX 01094 07190 12200 81202 10130 20120 39895 40076 50002 60006 70142 886// 90900=
07190,1998-10-01 12:00:00,15,1007.1,-0.4,82,12,10000,0,,,0,,,,,,,,,,1,wg-a,,,,AAXX 01124 07190 12360 80000 10150 20120 39891 40071 58004 60006 70142 888// 91200=
07190,1998-10-01 18:00:00,13,1007.4,0.2,94,12,18000,7.408,,,120,11.4,15.4,,0,,,,,,1,wg-a,,,,AAXX 01184 07190 02768 51204 10130 20120 39893 40074 53002 60006 70186 84530 91800 333 10154 20114 60007=
07190,1998-10-01 21:00:00,10,1007.4,-0.2,100,10,900,0,,,0,,,,,,,,,,41,wg-a,,,,AAXX 01214 07190 12709 /0000 10100 20100 39891 40074 56002 60006 74141 82530 92100=
07190,1998-10-02 00:00:00,10,1007.3,-0.1,93,9,700,3.704,,,220,,,,,,,,,,42,wg-a,,,,AAXX 02004 07190 12107 72202 10100 20090 39890 40073 57001 60006 74241 876// 90000=
07190,1998-10-02 03:00:00,10,1007.2,-0.1,100,10,700,0,,,0,,,,0,,,,,,44,wg-a,,,,AAXX 02034 07190 12107 70000 10100 20100 39889 40072 58001 60007 74442 876// 90300=
07190,1998-10-02 06:00:00,10,1007.3,0.1,100,10,700,7.408,,,280,9.2,12.7,,,,,,,,44,wg-a,,,,AAXX 02064 07190 02107 82804 10100 20100 39890 40073 53001 60006 74442 886// 90600 333 10127 20092 60004=
07190,1998-10-02 09:00:00,11,1007.8,0.5,94,10,3900,0,,,0,,,,,,,,,,10,wg-a,,,,AAXX 02094 07190 12239 80000 10110 20100 39895 40078 52005 60006 71042 886// 90900=
07190,1998-10-02 12:00:00,13,1007.4,-0.2,88,11,10000,3.704,,,320,,,,,,,,,,2,wg-a,,,,AAXX 02124 07190 12460 73202 10130 20110 39893 40074 58002 60006 70242 878// 91200=
07190,1998-10-02 15:00:00,14,1007,-0.4,82,11,12000,7.408,,,180,,,,,,,,,,,wg-a,,,,AAXX 02154 07190 12462 71804 10140 20110 39889 40070 56004 60006 878// 91500=
07190,1998-10-02 18:00:00,12,1007.8,0.7,94,11,9000,3.704,,,220,9.8,14.3,,,,,,,,,wg-a,,,,AAXX 02184 07190 12559 /2202 10120 20110 39896 40078 53007 60006 86500 91800 333 10143 20098=
07190,1998-10-02 21:00:00,10,1009,1.1,87,8,12000,14.816,,,20,,,,,,,,,,,wg-a,,,,AAXX 02214 07190 12462 /0208 10100 20080 39907 40090 51011 60006 86500 92100=
07190,1998-10-03 00:00:00,8,1009.5,0.3,93,7,10000,7.408,,,10,,,,,,,,,,,wg-a,,,,AAXX 03004 07190 12360 80104 10080 20070 39910 40095 51003 60006 876// 90000=
07190,1998-10-03 03:00:00,8,1009.8,0.3,93,7,10000,7.408,,,360,,,,,,,,,,,wg-a,,,,AAXX 03034 07190 12260 83604 10080 20070 39913 40098 53003 60006 876// 90300=
07190,1998-10-03 06:00:00,8,1010.5,0.7,93,7,500,3.704,,,70,7.4,12.3,,,,,,,,,wg-a,,,,AAXX 03064 07190 02200 80702 10080 20070 39920 40105 53007 60006 876// 90600 333 10123 20074 60004=
07190,1998-10-03 09:00:00,10,1010.5,0.1,87,8,6000,3.704,,,60,,,,,,,,,,,wg-a,,,,AAXX 03094 07190 12356 80602 10100 20080 39921 40105 51001 60006 876// 90900=
07190,1998-10-03 12:00:00,11,1010.4,-0,87,9,8000,3.704,,,350,,,,,,,,,,,wg-a,,,,AAXX 03124 07190 12458 83502 10110 20090 39921 40104 55000 60006 878// 91200=
07190,1998-10-03 15:00:00,11,1010.3,-0.1,82,8,15000,11.112,,,330,,,,,,,,,,,wg-a,,,,AAXX 03154 07190 12565 83306 10110 20080 39920 40103 56001 60006 878// 91500=
07190,1998-10-03 18:00:00,9,1011,0.6,87,7,12000,7.408,,,340,7.6,11.4,,,,,,,,50,wg-a,,,,AAXX 03184 07190 02462 83404 10090 20070 39926 40110 53006 61000 75052 885// 91800 333 10114 20076 6100=
07190,1998-10-03 21:00:00,8,1011.4,0.3,93,7,6000,11.112,,,40,,,,1,,,,,,1,wg-a,,,,AAXX 03214 07190 12356 80406 10080 20070 39929 40114 50003 60017 70152 885// 92100=
07190,1998-10-04 00:00:00,7,1010.3,-1.2,93,6,6000,3.704,,,360,,,,0,,,,,,51,wg-a,,,,AAXX 04004 07190 02256 83602 10070 20060 39917 40103 56012 60016 75165 885// 90000 333 60007=
07190,1998-10-04 03:00:00,6,1009.4,-0.9,93,5,6000,7.408,,,30,,,,1,,,,,,21,wg-a,,,,AAXX 04034 07190 12456 80304 10060 20050 39908 40094 58009 60017 72165 875// 90300=
07190,1998-10-04 06:00:00,6,1008.9,-0.5,93,5,3500,3.704,,,120,5.6,9,,,,,2,,,10,wg-a,,,,AAXX 04064 07190 02235 /1202 10060 20050 39903 40089 56005 60006 71065 86500 90600 333 10090 20056 60024=
07190,1998-10-04 09:00:00,8,1008.4,-0.4,81,5,6000,0,,,0,,,,,,,,,,,wg-a,,,,AAXX 04094 07190 12756 70000 10080 20050 39899 40084 57004 60006 8553/ 90900=
07190,1998-10-04 12:00:00,9,1007.2,-1.1,76,5,8000,3.704,,,130,,,,,,,,,,60,wg-a,,,,AAXX 04124 07190 02758 71302 10090 20050 39888 40072 57011 61000 76062 8653/ 91200 333 6100=
07190,1998-10-04 15:00:00,10,1006.2,-0.9,82,7,8000,3.704,,,120,,,,0,,,,,,3,wg-a,,,,AAXX 04154 07190 12558 81202 10100 20070 39879 40062 56009 60007 70362 875// 91500=
07190,1998-10-04 18:00:00,9,1006.2,-0.1,93,8,4000,0,,,0,5.2,9.7,,,,,,,,10,wg-a,,,,AAXX 04184 07190 02440 80000 10090 20080 39878 40062 56001 61000 71062 878// 91800 333 10097 20052 6001=
07190,1998-10-04 21:00:00,8,1006.4,0.2,100,8,4000,0,,,0,,,,0,,,,,,10,wg-a,,,,AAXX 04214 07190 12240 80000 10080 20080 39880 40064 51002 60007 71062 886// 92100=
07190,1998-10-05 00:00:00,8,1005.8,-0.6,100,8,0,0,,,0,,,,,,,,,,,wg-a,,,,AAXX 05004 07190 12/// /0000 10080 20080 39874 40058 56006 60016 90000=
07190,1998-10-05 03:00:00,8,1005.7,-0.1,100,8,2500,3.704,,,160,,,,,,,,,,10,wg-a,,,,AAXX 05034 07190 12125 81602 10080 20080 39873 40057 58001 60006 71022 886// 90300=
07190,1998-10-05 06:00:00,8,1006.8,1.1,100,8,2000,0,,,0,8.1,8.7,,,,,2,,,10,wg-a,,,,AAXX 05064 07190 02120 80000 10080 20080 39884 40068 53011 60006 71022 876// 90600 333 10087 20081 60024=
07190,1998-10-05 09:00:00,10,1008,1.3,93,9,4500,3.704,,,50,,,,,,,,,,10,wg-a,,,,AAXX 05094 07190 12145 70502 10100 20090 39897 40080 53013 60006 71022 876// 90900=
07190,1998-10-05 12:00:00,14,1008.1,0.3,77,10,9000,3.704,,,360,,,,,,,,,,,wg-a,,,,AAXX 05124 07190 12459 /3602 10140 20100 39900 40081 50003 60006 83200 91200=
07190,1998-10-05 15:00:00,15,1008,-0,72,10,15000,11.112,,,50,,,,,,,,,,,wg-a,,,,AAXX 05154 07190 12565 60506 10150 20100 39900 40080 55000 60006 86800 91500=
07190,1998-10-05 18:00:00,13,1009.1,0.9,88,11,15000,11.112,,,20,8.4,15.7,,,,,,,,21,wg-a,,,,AAXX 05184 07190 02665 70206 10130 20110 39909 40091 53009 61000 72161 8/800 91800 333 10157 20084 6100=
07190,1998-10-05 21:00:00,10,1009.7,0.5,93,9,15000,7.408,,,350,,,,,,,,,,,wg-a,,,,AAXX 05214 07190 12/65 /3504 10100 20090 39914 40097 52005 60006 83030 92100=
07190,1998-10-06 00:00:00,10,1010.4,0.6,93,9,15000,11.112,,,20,,,,0,,,,,,,wg-a,,,,AAXX 06004 07190 02665 /0206 10100 20090 39920 40104 53006 60006 86500 90000 333 60007=
07190,1998-10-06 03:00:00,10,1009.8,-0.5,93,9,15000,22.224,,,20,,,,,,,,,,,wg-a,,,,AAXX 06034 07190 12565 80212 10100 20090 39915 40098 57005 60006 875// 90300=
07190,1998-10-06 06:00:00,10,1009.6,-0.3,87,8,9000,29.632,,,30,9.7,12.6,,,,,,,,,wg-a,,,,AAXX 06064 07190 02459 80316 10100 20080 39912 40096 55003 60006 878// 90600 333 10126 20097 60004=
07190,1998-10-06 09:00:00,11,1008.4,-1.1,82,8,9000,31.484,,,20,,,,,,,,,,,wg-a,,,,AAXX 06094 07190 12459 80217 10110 20080 39901 40084 58011 60006 878// 90900=
07190,1998-10-06 12:00:00,10,1008.2,-0.2,93,9,7000,18.52,,,20,,,,0,,,,,,60,wg-a,,,,AAXX 06124 07190 02457 80210 10100 20090 39899 40082 55002 60016 76062 888// 91200 333 60007=
07190,1998-10-06 15:00:00,10,1009.2,0.9,93,9,6000,14.816,,,20,,,,1,,,,,,3,wg-a,,,,AAXX 06154 07190 12256 80208 10100 20090 39908 40092 51009 60017 70362 886// 91500=
07190,1998-10-06 18:00:00,10,1011.5,2.3,93,9,4000,3.704,,,310,9.4,10.9,,,,,,,,10,wg-a,,,,AAXX 06184 07190 12240 83102 10100 20090 39931 40115 53023 60006 71062 886// 91800 333 10109 20094=
07190,1998-10-06 21:00:00,9,1012.5,1,100,9,2500,0,,,0,,,,,,,,,,10,wg-a,,,,AAXX 06214 07190 12125 80000 10090 20090 39941 40125 53010 60006 71022 886// 92100=
07190,1998-10-07 00:00:00,9,1013.2,0.6,100,9,900,0,,,0,,,,,,,,,,42,wg-a,,,,AAXX 07004 07190 12109 80000 10090 20090 39947 40132 53006 60006 74242 886// 90000=
07190,1998-10-07 03:00:00,10,1013.2,0.1,93,9,2500,3.704,,,330,,,,,,,,,,10,wg-a,,,,AAXX 07034 07190 12125 83302 10100 20090 39948 40132 53001 60006 71042 886// 90300=
07190,1998-10-07 06:00:00,10,1014.2,0.9,93,9,1400,3.704,,,40,9.1,9.7,,,,,2,,,10,wg-a,,,,AAXX 07064 07190 02114 80402 10100 20090 39957 40142 53009 60006 71042 885// 90600 333 10097 20091 60024=
07190,1998-10-07 09:00:00,11,1014.8,0.7,94,10,2500,11.112,,,280,,,,,,,,,,10,wg-a,,,,AAXX 07094 07190 02225 72806 10110 20100 39964 40148 50007 61000 71062 877// 90900 333 ////=
07190,1998-10-07 12:00:00,13,1014.5,-0.2,82,10,8000,3.704,,,10,,,,0,,,,,,21,wg-a,,,,AAXX 07124 07190 02558 80102 10130 20100 39962 40145 58002 60006 72162 878// 91200 333 60007=
07190,1998-10-07 15:00:00,12,1014.3,-0.2,82,9,9000,7.408,,,330,,,,,,,,,,,wg-a,,,,AAXX 07154 07190 12559 83304 10120 20090 39960 40143 56002 60006 868// 91500=
07190,1998-10-07 18:00:00,11,1015.4,1,82,8,8000,11.112,,,290,9.5,12.9,,,,,,,,,wg-a,,,,AAXX 07184 07190 12658 82906 10110 20080 39970 40154 51010 60006 885// 91800 333 10129 20095=
07190,1998-10-07 21:00:00,10,1016,0.5,87,8,7000,7.408,,,290,,,,0,,,,,,60,wg-a,,,,AAXX 07214 07190 12657 82904 10100 20080 39975 40160 53005 60007 76062 885// 92100=
07190,1998-10-08 00:00:00,9,1016.2,0.2,93,8,9000,3.704,,,310,,,,,,,,,,3,wg-a,,,,AAXX 08004 07190 02459 83102 10090 20080 39977 40162 50002 60016 70362 875// 90000 333 61000=
07190,1998-10-08 03:00:00,9,1016.1,-0.2,87,7,8000,0,,,0,,,,,,,,,,,wg-a,,,,AAXX 08034 07190 12558 80000 10090 20070 39975 40161 58002 60006 875// 90300=
07190,1998-10-08 06:00:00,8,1016.9,0.8,100,8,6000,3.704,,,140,8.4,10.9,,,,,1,,,,wg-a,,,,AAXX 08064 07190 02556 81402 10080 20080 39983 40169 53008 60006 875// 90600 333 10109 20084 60014=
07190,1998-10-08 09:00:00,10,1017.7,0.9,93,9,7000,11.112,,,170,,,,,,,,,,,wg-a,,,,AAXX 08094 07190 12357 71706 10100 20090 39992 40177 52009 60006 878// 90900=
07190,1998-10-08 12:00:00,12,1017.4,-0.1,76,8,12000,3.704,,,160,,,,,,,,,,,wg-a,,,,AAXX 08124 07190 12462 /1602 10120 20080 39991 40174 58001 60006 86201 91200=
07190,1998-10-08 15:00:00,13,1018,0.6,67,7,12000,0,,,0,,,,,,,,,,,wg-a,,,,AAXX 08154 07190 12562 80000 10130 20070 39997 40180 53006 60006 8787/ 91500=
07190,1998-10-08 18:00:00,12,1019.3,1.2,82,9,12000,7.408,,,50,8.4,13.3,,,,,,,,,wg-a,,,,AAXX 08184 07190 12662 80504 10120 20090 30009 40193 53012 60006 874// 91800 333 10133 20084=
07190,1998-10-08 21:00:00,11,1021,1.6,94,10,7000,7.408,,,350,,,,0,,,,,,61,wg-a,,,,AAXX 08214 07190 12557 83504 10110 20100 30025 40210 51016 60007 76162 875// 92100=
07190,1998-10-09 00:00:00,10,1021.4,0.4,93,9,10000,7.408,,,10,,,,,,,,,,1,wg-a,,,,AAXX 09004 07190 02660 70104 10100 20090 30029 40214 52004 60006 70162 875// 90000 333 61000=
07190,1998-10-09 03:00:00,10,1021.9,0.4,87,8,10000,3.704,,,310,,,,,,,,,,,wg-a,,,,AAXX 09034 07190 12660 73102 10100 20080 30033 40219 51004 60006 875// 90300=
07190,1998-10-09 06:00:00,9,1022.5,0.6,93,8,4000,7.408,,,340,8.9,11.8,,,,,,,,10,wg-a,,,,AAXX 09064 07190 02240 73404 10090 20080 30039 40225 53006 60006 71022 876// 90600 333 10118 20089 60004=
07190,1998-10-09 09:00:00,10,1023,0.5,93,9,4500,3.704,,,250,,,,,,,,,,10,wg-a,,,,AAXX 09094 07190 12245 82502 10100 20090 30044 40230 51005 60006 71022 886// 90900=
07190,1998-10-09 12:00:00,14,1020.9,-1.8,77,10,8000,3.704,,,170,,,,,,,,,,,wg-a,,,,AAXX 09124 07190 12458 41702 10140 20100 30026 40209 56018 60006 83102 91200=
07190,1998-10-09 15:00:00,16,1018.8,-1.9,63,9,12000,7.408,,,210,,,,,,,,,,,wg-a,,,,AAXX 09154 07190 12562 32104 10160 20090 30007 40188 56019 60006 82801 91500=
07190,1998-10-09 18:00:00,12,1018.1,-1,88,10,12000,0,,,0,9.2,16.5,,,,,,,,,wg-a,,,,AAXX 09184 07190 12662 /0000 10120 20100 39997 40181 55010 60006 81800 91800 333 10165 20092=
07190,1998-10-09 21:00:00,9,1018.6,0.3,93,8,12000,7.408,,,220,,,,,,,,,,,wg-a,,,,AAXX 09214 07190 12/62 /2204 10090 20080 30000 40186 50003 60006 80001 92100=
07190,1998-10-10 00:00:00,10,1017.2,-1.3,93,9,12000,11.112,,,200,,,,,,,,,,,wg-a,,,,AAXX 10004 07190 12662 72006 10100 20090 39987 40172 57013 60006 86502 90000=
07190,1998-10-10 03:00:00,9,1016,-1.2,93,8,10000,14.816,,,190,,,,,,,,,,,wg-a,,,,AAXX 10034 07190 12660 71908 10090 20080 39975 40160 56012 60006 875// 90300=
07190,1998-10-10 06:00:00,11,1015.3,-0.6,82,8,15000,18.52,,,180,7,11.7,,,,,,,,,wg-a,,,,AAXX 10064 07190 02665 81810 10110 20080 39969 40153 58006 60006 875// 90600 333 10117 20070 60004=
07190,1998-10-10 09:00:00,12,1014.9,-0.3,76,8,15000,18.52,,,180,,,,,,,,,,,wg-a,,,,AAXX 10094 07190 12665 81810 10120 20080 39966 40149 58003 60006 8553/ 90900=
07190,1998-10-10 12:00:00,15,1013.4,-1.3,63,8,20000,22.224,,,180,,,,,,,,,,,wg-a,,,,AAXX 10124 07190 12670 71812 10150 20080 39953 40134 58013 60006 8553/ 91200=
07190,1998-10-10 15:00:00,13,1013.3,-0.2,72,8,10000,31.484,,,220,,,,,,,,,,,wg-a,,,,AAXX 10154 07190 12660 72217 10130 20080 39951 40133 55002 60006 8457/ 91500=
07190,1998-10-10 18:00:00,12,1014.9,1.5,82,9,15000,29.632,,,210,10.3,15.4,,,,,,,,,wg-a,,,,AAXX 10184 07190 12665 72116 10120 20090 39966 40149 53015 60006 8657/ 91800 333 10154 20103=
07190,1998-10-10 21:00:00,12,1016,1.1,88,10,15000,14.816,,,190,,,,,,,,,,20,wg-a,,,,AAXX 10214 07190 02565 81908 10120 20100 39977 40160 51011 61000 72052 875// 92100 333 ////=
07190,1998-10-11 00:00:00,11,1015.6,-0.5,94,10,12000,14.816,,,190,,,,,,,,,,1,wg-a,,,,AAXX 11004 07190 02562 81908 10110 20100 39972 40156 56005 61000 70152 875// 90000 333 ////=
07190,1998-10-11 03:00:00,11,1015.7,0.1,94,10,10000,3.704,,,240,,,,0,,,,,,50,wg-a,,,,AAXX 11034 07190 12460 82402 10110 20100 39973 40157 53001 60007 75052 876// 90300=
07190,1998-10-11 06:00:00,11,1016.2,0.5,94,10,20000,11.112,,,200,10.5,12.2,,,,,,,,1,wg-a,,,,AAXX 11064 07190 02670 72006 10110 20100 39978 40162 53005 60006 70152 878// 90600 333 10122 20105 60004=
07190,1998-10-11 09:00:00,13,1016.4,0.3,82,10,25000,18.52,,,190,,,,,,,,,,,wg-a,,,,AAXX 11094 07190 12675 71910 10130 20100 39981 40164 50003 60006 8647/ 90900=
07190,1998-10-11 12:00:00,13,1015.2,-1.1,77,9,25000,18.52,,,220,,,,,,,,,,21,wg-a,,,,AAXX 11124 07190 02675 82210 10130 20090 39970 40152 58011 61000 72162 878// 91200 333 6100=
07190,1998-10-11 15:00:00,12,1013.9,-1.4,88,10,15000,22.224,,,190,,,,2,,,,,,61,wg-a,,,,AAXX 11154 07190 12565 81912 10120 20100 39956 40139 56014 60027 76162 8687/ 91500=
07190,1998-10-11 18:00:00,12,1013.3,-0.6,88,10,15000,25.928,,,190,10.7,13.6,,,,,,,,3,wg-a,,,,AAXX 11184 07190 02565 71914 10120 20100 39950 40133 55006 60006 70362 8587/ 91800 333 10136 20107 61000=
07190,1998-10-11 21:00:00,12,1013.1,-0.2,88,10,15000,18.52,,,190,,,,,,,,,,21,wg-a,,,,AAXX 11214 07190 02565 81910 10120 20100 39948 40131 56002 61000 72162 878// 92100 333 ////=
07190,1998-10-12 00:00:00,11,1011.8,-1.3,94,10,15000,25.928,,,190,,,,,,,,,,1,wg-a,,,,AAXX 12004 07190 02665 71914 10110 20100 39935 40118 58013 61000 70162 8587/ 90000 333 ////=
07190,1998-10-12 03:00:00,11,1010.7,-1.1,94,10,15000,14.816,,,190,,,,,,,,,,,wg-a,,,,AAXX 12034 07190 12765 71908 10110 20100 39924 40107 58011 60006 8557/ 90300=
07190,1998-10-12 06:00:00,12,1010.4,-0.3,76,8,15000,22.224,,,210,10.5,12.2,,,,,3,,,1,wg-a,,,,AAXX 12064 07190 02365 72112 10120 20080 39921 40104 56003 60006 70165 878// 90600 333 10122 20105 60034=
07190,1998-10-12 09:00:00,11,1012.7,2.3,87,9,12000,14.816,,,220,,,,,,,,,,21,wg-a,,,,AAXX 12094 07190 02462 72208 10110 20090 39944 40127 53023 61000 72162 878// 90900 333 ////=
07190,1998-10-12 12:00:00,13,1013.7,1,67,7,20000,18.52,,,260,,,,,,,,,,1,wg-a,,,,AAXX 12124 07190 02570 72610 10130 20070 39954 40137 52010 61000 70186 878// 91200 333 6100=
07190,1998-10-12 15:00:00,14,1015,1.4,58,6,20000,22.224,,,240,,,,,,,,,,,wg-a,,,,AAXX 12154 07190 12670 52412 10140 20060 39968 40150 53014 60006 85800 91500=
07190,1998-10-12 18:00:00,12,1017.5,2.3,67,6,15000,14.816,,,240,11.2,14.7,,,,,,,,,wg-a,,,,AAXX 12184 07190 12665 52408 10120 20060 39991 40175 53023 60006 85800 91800 333 10147 20112=
07190,1998-10-12 21:00:00,11,1020,2.4,76,7,10000,18.52,,,290,,,,0,,,,,,80,wg-a,,,,AAXX 12214 07190 12660 72910 10110 20070 30015 40200 51024 60007 78086 878// 92100=
07190,1998-10-13 06:00:00,5,1023.5,1.3,100,5,15000,11.112,,,230,5.1,11.6,,0,,,1,,,,wg-a,,,,AAXX 13064 07190 02765 52306 10050 20050 30046 40235 51013 60014 835/1 90600 333 10116 20051 60007=
07190,1998-10-13 09:00:00,11,1024.5,1.3,87,9,15000,14.816,,,170,,,,,,,,,,,wg-a,,,,AAXX 13094 07190 32665 51708 10110 20090 30059 40245 51013 84801 90900=
07190,1998-10-13 12:00:00,14,1023.7,-0.5,55,5,20000,14.816,,,250,,,,,,,,,,,wg-a,,,,AAXX 13124 07190 12570 42508 10140 20050 30054 40237 58005 60006 83801 91200=
07190,1998-10-13 15:00:00,14,1023.2,-0.6,55,5,20000,14.816,,,250,,,,,,,,,,,wg-a,,,,AAXX 13154 07190 12670 72508 10140 20050 30048 40232 56006 60006 8253/ 91500=
07190,1998-10-13 18:00:00,11,1023.5,0.1,66,5,20000,11.112,,,220,4.7,15.5,,,,,,,,,wg-a,,,,AAXX 13184 07190 12/70 72206 10110 20050 30049 40235 53001 60006 86032 91800 333 10155 20047=
07190,1998-10-13 21:00:00,10,1023.6,0.1,82,7,15000,11.112,,,160,,,,,,,,,,,wg-a,,,,AAXX 13214 07190 12665 71606 10100 20070 30050 40236 51001 60006 8357/ 92100=
07190,1998-10-14 00:00:00,10,1023.1,-0.5,87,8,10000,18.52,,,180,,,,,,,,,,21,wg-a,,,,AAXX 14004 07190 02560 81810 10100 20080 30045 40231 57005 61000 72162 875// 90000 333 6100=
07190,1998-10-14 03:00:00,10,1021.7,-1.3,87,8,10000,18.52,,,170,,,,,,,,,,,wg-a,,,,AAXX 14034 07190 12560 81710 10100 20080 30032 40217 56013 60006 875// 90300=
07190,1998-10-14 06:00:00,11,1021.7,-0,87,9,15000,18.52,,,170,9.9,11.2,,,,,,,,21,wg-a,,,,AAXX 14064 07190 02465 81710 10110 20090 30032 40217 54000 61000 72162 8587/ 90600 333 10112 20099 6100=
07190,1998-10-14 09:00:00,13,1022.6,1,88,11,20000,22.224,,,170,,,,0,,,,,,2,wg-a,,,,AAXX 14094 07190 12470 81712 10130 20110 30042 40226 51010 60007 70262 878// 90900=
07190,1998-10-14 12:00:00,15,1022,-0.4,82,12,25000,25.928,,,200,,,,,,,,,,1,wg-a,,,,AAXX 14124 07190 02475 82014 10150 20120 30038 40220 58004 60006 70162 878// 91200 333 61000=
07190,1998-10-14 15:00:00,16,1022.4,0.4,77,12,25000,18.52,,,190,,,,,,,,,,,wg-a,,,,AAXX 14154 07190 12475 81910 10160 20120 30042 40224 53004 60006 878// 91500=
07190,1998-10-14 18:00:00,15,1023.5,1,77,11,25000,11.112,,,200,10.5,15.9,,,,,,,,,wg-a,,,,AAXX 14184 07190 12575 72006 10150 20110 30052 40235 53010 60006 875// 91800 333 10159 20105=
07190,1998-10-14 21:00:00,14,1024,0.5,82,11,25000,14.816,,,190,,,,,,,,,,,wg-a,,,,AAXX 14214 07190 12675 71908 10140 20110 30057 40240 53005 60006 875// 92100=
07190,1998-10-15 00:00:00,14,1023.6,-0.4,82,11,25000,14.816,,,180,,,,,,,,,,,wg-a,,,,AAXX 15004 07190 12675 71808 10140 20110 30053 40236 58004 60006 875// 90000=
07190,1998-10-15 03:00:00,14,1022.7,-0.9,88,12,20000,18.52,,,170,,,,,,,,,,,wg-a,,,,AAXX 15034 07190 12570 81710 10140 20120 30044 40227 58009 60006 875// 90300=
07190,1998-10-15 06:00:00,13,1022.5,-0.2,94,12,11000,14.816,,,180,13.2,14.8,,,,,,,,,wg-a,,,,AAXX 15064 07190 02/61 /1808 10130 20120 30042 40225 58002 60006 90600 333 10148 20132 60004=
07190,1998-10-15 12:00:00,16,1022.5,-0.6,88,14,0,7.408,,,170,,,,,,,,,,,wg-a,,,,AAXX 15124 07190 12/// /1704 10160 20140 30043 40225 58006 60006 91200=
07190,1998-10-15 18:00:00,15,1022.1,0.6,94,14,20000,11.112,,,220,13.3,15.9,,0,,,,,,0,wg-a,,,,AAXX 15184 07190 02570 /2206 10150 20140 30039 40221 53006 60006 70086 85500 91800 333 10159 20133 60007=
07190,1998-10-15 21:00:00,14,1022.7,0.5,94,13,18000,7.408,,,350,,,,,,,,,,,wg-a,,,,AAXX 15214 07190 12568 63504 10140 20130 30044 40227 53005 60006 86500 92100=
07190,1998-10-16 00:00:00,12,1023.4,0.5,94,11,3500,3.704,,,20,,,,6,,,,,,51,wg-a,,,,AAXX 16004 07190 02335 80202 10120 20110 30049 40234 51005 60066 75165 875// 90000 333 60067=
07190,1998-10-16 03:00:00,12,1022.8,-0.6,94,11,1800,3.704,,,320,,,,1,,,,,,10,wg-a,,,,AAXX 16034 07190 12118 83202 10120 20110 30043 40228 58006 60017 71065 886// 90300=
07190,1998-10-16 06:00:00,10,1022.7,-0.2,100,10,1500,7.408,,,360,10,15.2,,,,,7,,,10,wg-a,,,,AAXX 16064 07190 02215 83604 10100 20100 30041 40227 57002 60006 71065 885// 90600 333 10152 20100 60074=
07190,1998-10-16 09:00:00,12,1021.9,-0.6,94,11,2500,3.704,,,330,,,,,,,,,,10,wg-a,,,,AAXX 16094 07190 12225 83302 10120 20110 30035 40219 58006 60006 71022 876// 90900=
07190,1998-10-16 12:00:00,16,1019.9,-1.7,88,14,9000,3.704,,,150,,,,,,,,,,,wg-a,,,,AAXX 16124 07190 12459 /1502 10160 20140 30018 40199 58017 60006 86500 91200=
07190,1998-10-16 15:00:00,18,1016.8,-2.9,77,14,20000,7.408,,,130,,,,,,,,,,,wg-a,,,,AAXX 16154 07190 12570 51304 10180 20140 39989 40168 56029 60006 84802 91500=
07190,1998-10-16 18:00:00,13,1016,-1.1,94,12,20000,7.408,,,140,10,18.5,,,,,,,,,wg-a,,,,AAXX 16184 07190 12/70 21404 10130 20120 39978 40160 56011 60006 80002 91800 333 10185 20100=
07190,1998-10-16 21:00:00,11,1015.1,-1.1,94,10,1000,3.704,,,190,,,,,,,,,,10,wg-a,,,,AAXX 16214 07190 12/10 01902 10110 20100 39967 40151 58011 60006 71000 80000 92100=
07190,1998-10-17 00:00:00,10,1014,-1.1,93,9,800,11.112,,,180,,,,,,,,,,45,wg-a,,,,AAXX 17004 07190 12/08 91806 10100 20090 39956 40140 56011 60006 74541 89/// 90000=
07190,1998-10-17 03:00:00,11,1012.6,-1.3,100,11,500,18.52,,,170,,,,,,,,,,2,wg-a,,,,AAXX 17034 07190 12/00 01710 10110 20110 39943 40126 58013 60006 70241 80000 90300=
07190,1998-10-17 06:00:00,11,1012.2,-0.4,94,10,15000,7.408,,,140,9,13.4,,,,,,,,3,wg-a,,,,AAXX 17064 07190 02/65 21404 10110 20100 39939 40122 57004 60006 70341 82030 90600 333 10134 20090 60004=
07190,1998-10-17 09:00:00,16,1011,-0.9,77,12,15000,18.52,,,180,,,,,,,,,,,wg-a,,,,AAXX 17094 07190 12665 41810 10160 20120 39930 40110 57009 60006 81232 90900=
07190,1998-10-17 12:00:00,21,1008.7,-1.9,56,12,25000,25.928,,,200,,,,,,,,,,,wg-a,,,,AAXX 17124 07190 12675 72014 10210 20120 39911 40087 58019 60006 81136 91200=
07190,1998-10-17 15:00:00,21,1007.7,-1,53,11,25000,31.484,,57.412,220,,,,,,,,,,,wg-a,,,,AAXX 17154 07190 12775 72217 10210 20110 39901 40077 56010 60006 81136 91500 333 91031=
07190,1998-10-17 18:00:00,15,1009.2,1.1,88,13,15000,22.224,,,210,10.6,22,,5,,,,,,29,wg-a,,,,AAXX 17184 07190 02665 82112 10150 20130 39912 40092 53011 60006 72998 8387/ 91800 333 10220 20106 60057=
07190,1998-10-17 21:00:00,13,1012.5,3.1,88,11,15000,11.112,,,270,,,,5,,,,,,25,wg-a,,,,AAXX 17214 07190 12565 72706 10130 20110 39943 40125 53031 60057 72586 8487/ 92100=
07190,1998-10-18 00:00:00,11,1015.7,3,76,7,20000,14.816,,,250,,,,,,,,,,1,wg-a,,,,AAXX 18004 07190 12670 /2508 10110 20070 39973 40157 51030 60056 70186 81500 90000=
07190,1998-10-18 03:00:00,9,1017.3,1.4,81,6,20000,11.112,,,210,,,,,,,,,,,wg-a,,,,AAXX 18034 07190 12670 /2106 10090 20060 39987 40173 51014 60006 81500 90300=
07190,1998-10-18 06:00:00,9,1018.9,1.6,87,7,20000,11.112,,,190,8,16.3,,,,,10,,,,wg-a,,,,AAXX 18064 07190 02570 41906 10090 20070 30003 40189 51016 60006 83801 90600 333 10163 20080 60104=
07190,1998-10-18 09:00:00,12,1020.1,1.4,76,8,20000,11.112,,,310,,,,,,,,,,,wg-a,,,,AAXX 18094 07190 12570 73106 10120 20080 30017 40201 51014 60006 86801 90900=
07190,1998-10-18 12:00:00,14,1019.9,-0.1,58,6,25000,14.816,,,270,,,,,,,,,,,wg-a,,,,AAXX 18124 07190 12675 72708 10140 20060 30016 40199 58001 60006 86801 91200=
07190,1998-10-18 15:00:00,13,1019.4,-0.6,67,7,25000,11.112,,,320,,,,,,,,,,,wg-a,,,,AAXX 18154 07190 12675 73206 10130 20070 30010 40194 56006 60006 85872 91500=
07190,1998-10-18 18:00:00,10,1019.7,0.2,76,6,25000,3.704,,,350,8.7,14.3,,,,,,,,,wg-a,,,,AAXX 18184 07190 12675 73502 10100 20060 30012 40197 53002 60006 84802 91800 333 10143 20087=
07190,1998-10-18 21:00:00,7,1019.8,-0.1,93,6,15000,3.704,,,310,,,,,,,,,,,wg-a,,,,AAXX 18214 07190 12/65 33102 10070 20060 30011 40198 58001 60006 80001 92100=
07190,1998-10-19 00:00:00,4,1019.3,-0.7,100,4,15000,3.704,,,290,,,,,,,,,,,wg-a,,,,AAXX 19004 07190 12/65 02902 10040 20040 30004 40193 58007 60006 80000 90000=
07190,1998-10-19 03:00:00,3,1018.7,-0.7,100,3,500,3.704,,,330,,,,0,,,,,,,wg-a,,,,AAXX 19034 07190 12200 33302 10030 20030 39997 40187 57007 60007 83600 90300=
07190,1998-10-19 06:00:00,5,1018.1,-0.4,100,5,2500,3.704,,,360,2.3,10,,,,,,,,40,wg-a,,,,AAXX 19064 07190 02125 73602 10050 20050 39993 40181 56004 60006 74011 876// 90600 333 10100 20023 60004=
07190,1998-10-19 09:00:00,5,1019.4,1.3,100,5,2500,11.112,,,10,,,,,,,,,,10,wg-a,,,,AAXX 19094 07190 12125 80106 10050 20050 30006 40194 51013 60006 71042 886// 90900=
07190,1998-10-19 12:00:00,9,1019.5,0.3,81,6,12000,7.408,,,70,,,,,,,,,,1,wg-a,,,,AAXX 19124 07190 12462 40704 10090 20060 30009 40195 50003 60006 70141 83802 91200=
07190,1998-10-19 15:00:00,12,1018.5,-0.8,58,4,15000,3.704,,,90,,,,,,,,,,,wg-a,,,,AAXX 19154 07190 12565 20902 10120 20040 30001 40185 55008 60006 81801 91500=
07190,1998-10-19 18:00:00,7,1019.8,0.9,87,5,15000,7.408,,,160,4.6,12.3,,,,,,,,,wg-a,,,,AAXX 19184 07190 12/65 01604 10070 20050 30010 40198 53009 60006 80000 91800 333 10123 20046=
07190,1998-10-19 21:00:00,7,1021,1.2,87,5,3500,7.408,,,180,,,,,,,,,,10,wg-a,,,,AAXX 19214 07190 12635 71804 10070 20050 30022 40210 51012 60006 71011 875// 92100=
07190,1998-10-20 00:00:00,4,1021.5,0.3,93,3,3000,7.408,,,200,,,,,,,,,,10,wg-a,,,,AAXX 20004 07190 12730 42004 10040 20030 30025 40215 51003 60006 71011 84500 90000=
07190,1998-10-20 03:00:00,4,1021.6,0.1,93,3,4000,3.704,,,200,,,,,,,,,,10,wg-a,,,,AAXX 20034 07190 12/40 /2002 10040 20030 30026 40216 50001 60006 71011 85030 90300=
07190,1998-10-20 06:00:00,3,1023,1.3,100,3,500,7.408,,,190,3.2,6.8,,,,,,,,,wg-a,,,,AAXX 20064 07190 02500 31904 10030 20030 30039 40230 53013 60006 82831 90600 333 10068 20032 60004=
07190,1998-10-20 09:00:00,10,1023.8,1.3,76,6,20000,11.112,,,170,,,,,,,,,,,wg-a,,,,AAXX 20094 07190 12570 51706 10100 20060 30052 40238 52013 60006 84831 90900=
07190,1998-10-20 12:00:00,12,1024.2,0.5,58,4,20000,18.52,,,280,,,,,,,,,,,wg-a,,,,AAXX 20124 07190 12670 /2810 10120 20040 30057 40242 50005 60006 85800 91200=
07190,1998-10-20 15:00:00,12,1024.9,0.7,58,4,20000,11.112,,,290,,,,,,,,,,,wg-a,,,,AAXX 20154 07190 12770 62906 10120 20040 30064 40249 53007 60006 85430 91500=
07190,1998-10-20 18:00:00,8,1026.1,0.9,76,4,15000,11.112,,,210,3.3,13.2,,,,,,,,,wg-a,,,,AAXX 20184 07190 12765 42106 10080 20040 30073 40261 53009 60006 84500 91800 333 10132 20033=
07190,1998-10-20 21:00:00,5,1026.7,0.4,87,3,15000,3.704,,,200,,,,,,,,,,,wg-a,,,,AAXX 20214 07190 12/65 32002 10050 20030 30077 40267 51004 60006 80001 92100=
07190,1998-10-21 00:00:00,3,1026.3,-0.5,93,2,12000,3.704,,,250,,,,,,,,,,,wg-a,,,,AAXX 21004 07190 12/62 02502 10030 20020 30072 40263 58005 60006 80000 90000=
07190,1998-10-21 03:00:00,2,1024.9,-1.5,100,2,12000,7.408,,,220,,,,,,,,,,,wg-a,,,,AAXX 21034 07190 12/62 42204 10020 20020 30057 40249 58015 60006 80002 90300=
07190,1998-10-21 06:00:00,5,1023.6,-1,87,3,17000,11.112,,,180,2,7.9,,,,,,,,,wg-a,,,,AAXX 21064 07190 02/67 71806 10050 20030 30047 40236 58010 60006 82042 90600 333 10079 20020 60004=
07190,1998-10-21 09:00:00,10,1023.7,0.3,71,5,25000,11.112,,,190,,,,,,,,,,,wg-a,,,,AAXX 21094 07190 12/75 71906 10100 20050 30050 40237 51003 60006 84042 90900=
07190,1998-10-21 12:00:00,14,1022.4,-1,55,5,25000,18.52,,,170,,,,,,,,,,,wg-a,,,,AAXX 21124 07190 12/75 61710 10140 20050 30040 40224 58010 60006 85041 91200=
07190,1998-10-21 15:00:00,14,1021.4,-0.9,55,5,500,29.632,,,180,,,,,,,,,,,wg-a,,,,AAXX 21154 07190 12/00 51816 10140 20050 30031 40214 56009 60006 84072 91500=
07190,1998-10-21 18:00:00,12,1023.1,1.5,67,6,25000,14.816,,,170,5.3,14.9,,,,,,,,,wg-a,,,,AAXX 21184 07190 12/75 71708 10120 20060 30046 40231 52015 60006 86071 91800 333 10149 20053=
07190,1998-10-21 21:00:00,11,1024,0.9,71,6,20000,22.224,,,170,,,,,,,,,,,wg-a,,,,AAXX 21214 07190 12/70 71712 10110 20060 30055 40240 51009 60006 84071 92100=
07190,1998-10-22 00:00:00,9,1025.1,0.9,76,5,15000,3.704,,,70,,,,,,,,,,,wg-a,,,,AAXX 22004 07190 12/65 40702 10090 20050 30064 40251 51009 60006 81031 90000=
07190,1998-10-22 03:00:00,10,1025.4,0.3,71,5,15000,7.408,,,210,,,,,,,,,,,wg-a,,,,AAXX 22034 07190 12/65 62104 10100 20050 30067 40254 51003 60006 85031 90300=
07190,1998-10-22 06:00:00,11,1025.8,0.5,76,7,15000,3.704,,,280,8.6,11.9,,,,,,,,,wg-a,,,,AAXX 22064 07190 02765 72802 10110 20070 30072 40258 53005 60006 8353/ 90600 333 10119 20086 60004=
07190,1998-10-22 09:00:00,13,1026.6,0.9,72,8,15000,14.816,,,160,,,,,,,,,,,wg-a,,,,AAXX 22094 07190 12765 71608 10130 20080 30081 40266 51009 60006 83532 90900=
07190,1998-10-22 12:00:00,17,1026,-0.3,63,10,15000,14.816,,,200,,,,,,,,,,,wg-a,,,,AAXX 22124 07190 12665 72008 10170 20100 30078 40260 58003 60006 82532 91200=
07190,1998-10-22 15:00:00,17,1025.8,-0.2,63,10,20000,11.112,,,200,,,,,,,,,,2,wg-a,,,,AAXX 22154 07190 02770 72006 10170 20100 30076 40258 55002 61000 70262 82532 91500 333 ////=
07190,1998-10-22 18:00:00,13,1026.3,,77,9,500,7.408,,,170,10.5,17.8,,,,,,,,1,wg-a,,,,AAXX 22184 07190 12700 41704 10130 20090 30079 40263 60006 70161 82530 91800 333 10178 20105=
07190,1998-10-22 21:00:00,10,1026.6,0.1,93,9,15000,3.704,,,140,,,,,,,,,,,wg-a,,,,AAXX 22214 07190 12765 11402 10100 20090 30080 40266 53001 60006 81500 92100=
07190,1998-10-23 00:00:00,9,1025.6,-1.1,93,8,8000,3.704,,,150,,,,,,,,,,,wg-a,,,,AAXX 23004 07190 12758 31502 10090 20080 30069 40256 58011 60006 83500 90000=
07190,1998-10-23 03:00:00,10,1023.8,-1.7,87,8,7000,7.408,,,180,,,,,,,,,,,wg-a,,,,AAXX 23034 07190 12/57 01804 10100 20080 30052 40238 57017 60006 80000 90300=
07190,1998-10-23 06:00:00,9,1023.7,-0.2,87,7,10000,3.704,,,130,8,13.5,,,,,,,,,wg-a,,,,AAXX 23064 07190 02/60 41302 10090 20070 30050 40237 58002 60006 83031 90600 333 10135 20080 60004=
07190,1998-10-23 09:00:00,12,1022.3,-1.1,82,9,15000,18.52,,,200,,,,0,,,,,,,wg-a,,,,AAXX 23094 07190 12/65 72010 10120 20090 30039 40223 58011 60007 85072 90900=
07190,1998-10-23 10:00:00,9,1024.7,,93,8,8000,3.704,,,150,,,,,,,,,,,wg-a,,,,AAXX 23104 07190 12758 /1502 10090 20080 30060 40247 60006 83500 91000=
07190,1998-10-23 12:00:00,18,1020.2,-1.8,59,10,20000,18.52,,,190,,,,,,,,,,,wg-a,,,,AAXX 23124 07190 12/70 71910 10180 20100 30021 40202 58018 60006 85072 91200=
07190,1998-10-23 15:00:00,18,1017.5,-2.6,56,9,20000,22.224,,,190,,,,,,,,,,,wg-a,,,,AAXX 23154 07190 12770 71912 10180 20090 39995 40175 56026 60006 81532 91500=
07190,1998-10-23 18:00:00,17,1017.6,0.1,68,11,15000,18.52,,,200,8.5,18.4,,,,,,,,,wg-a,,,,AAXX 23184 07190 12565 72010 10170 20110 39996 40176 53001 60006 878// 91800 333 10184 20085=
07190,1998-10-23 21:00:00,15,1016.6,-1.2,82,12,8000,14.816,,,170,,,,0,,,,,,61,wg-a,,,,AAXX 23214 07190 12758 81708 10150 20120 39984 40166 58012 60007 76162 8657/ 92100=
07190,1998-10-24 00:00:00,13,1015.1,-1.6,82,10,10000,11.112,,,190,,,,2,,,,,,21,wg-a,,,,AAXX 24004 07190 02560 81906 10130 20100 39968 40151 58016 60036 72162 868// 90000 333 60027=
07190,1998-10-24 03:00:00,13,1017.8,2.7,77,9,15000,22.224,,,240,,,,,,,,,,,wg-a,,,,AAXX 24034 07190 12665 72412 10130 20090 39995 40178 51027 60006 875// 90300=
07190,1998-10-24 06:00:00,10,1019,1,76,6,20000,11.112,,,210,10.1,17.1,,,,,3,,,,wg-a,,,,AAXX 24064 07190 02670 42106 10100 20060 30005 40190 51010 60006 83840 90600 333 10171 20101 60034=
07190,1998-10-24 09:00:00,12,1019.3,0.4,71,7,20000,14.816,,,230,,,,,,,,,,,wg-a,,,,AAXX 24094 07190 12570 82308 10120 20070 30009 40193 50004 60006 878// 90900=
07190,1998-10-24 12:00:00,14,1016.5,-2.6,58,6,500,25.928,,,220,,,,,,,,,,,wg-a,,,,AAXX 24124 07190 12600 82214 10140 20060 39983 40165 58026 60006 83872 91200=
07190,1998-10-24 15:00:00,14,1011.7,-4.8,58,6,500,11.112,,,180,,,,,,,,,,,wg-a,,,,AAXX 24154 07190 12600 81806 10140 20060 39935 40117 56048 60006 8117/ 91500=
07190,1998-10-24 18:00:00,12,1006.4,-5.2,88,10,15000,22.224,,,190,9.2,14.5,,,,,,,,60,wg-a,,,,AAXX 24184 07190 02765 81912 10120 20100 39883 40064 56052 61000 76062 8557/ 91800 333 10145 20092 6000=
07190,1998-10-24 21:00:00,12,999.2,-7.1,88,10,12000,31.484,,,180,,,,0,,,,,,60,wg-a,,,,AAXX 24214 07190 12662 81817 10120 20100 39812 49992 57071 60007 76066 8457/ 92100=
07190,1998-10-25 00:00:00,14,993.6,-5.4,94,13,6000,25.928,,,180,,,,5,,,,,,63,wg-a,,,,AAXX 25004 07190 02456 81814 10140 20130 39758 49936 56054 60056 76366 888// 90000 333 60057=
07190,1998-10-25 03:00:00,15,994.1,0.5,67,9,20000,35.188,,,260,,,,7,,,,,,21,wg-a,,,,AAXX 25034 07190 12370 82619 10150 20090 39763 49941 53005 60077 72162 8587/ 90300=
07190,1998-10-25 06:00:00,12,998.2,3.9,82,9,10000,18.52,,,230,11.6,15,,,,,,,,80,wg-a,,,,AAXX 25064 07190 02560 72310 10120 20090 39802 49982 51039 61000 78086 878// 90600 333 10150 20116 6013=
07190,1998-10-25 09:00:00,13,1001,2.8,72,8,18000,25.928,,,250,,,,0,,,,,,25,wg-a,,,,AAXX 25094 07190 12568 /2514 10130 20080 39830 40010 51028 60007 72586 84800 90900=
07190,1998-10-25 12:00:00,14,1003.2,2.2,58,6,25000,25.928,,51.856,220,,,,,,,,,,1,wg-a,,,,AAXX 25124 07190 12675 52214 10140 20060 39852 40032 51022 60006 70186 85800 91200 333 91028=
07190,1998-10-25 15:00:00,15,1003.3,0.1,51,5,25000,18.52,,,220,,,,,,,,,,,wg-a,,,,AAXX 25154 07190 12675 52210 10150 20050 39853 40033 50001 60006 85300 91500=
07190,1998-10-25 18:00:00,10,1005.2,1.6,82,7,20000,22.224,,62.968,230,9.9,15.3,,,,,,,,25,wg-a,,,,AAXX 25184 07190 02670 /2312 10100 20070 39869 40052 53016 61000 72586 86900 91800 333 10153 20099 6002 91034=
07190,1998-10-25 21:00:00,10,1008.1,2.9,71,5,20000,25.928,,,240,,,,,,,,,,,wg-a,,,,AAXX 25214 07190 12570 52414 10100 20050 39898 40081 53029 60006 85500 92100=
07190,1998-10-26 00:00:00,9,1010,1.8,76,5,15000,14.816,,,210,,,,,,,,,,,wg-a,,,,AAXX 26004 07190 12665 /2108 10090 20050 39916 40100 51018 60006 85500 90000=
07190,1998-10-26 03:00:00,8,1010.9,0.8,87,6,20000,11.112,,,190,,,,1,,,,,,,wg-a,,,,AAXX 26034 07190 12570 31906 10080 20060 39924 40109 51008 60017 83800 90300=
07190,1998-10-26 06:00:00,8,1012.6,1.6,81,5,20000,14.816,,,230,6.2,10.3,,,,,3,,,3,wg-a,,,,AAXX 26064 07190 02570 52308 10080 20050 39940 40126 51016 60006 70386 85800 90600 333 10103 20062 60034=
07190,1998-10-26 09:00:00,11,1014,1.6,66,5,25000,18.52,,,200,,,,,,,,,,,wg-a,,,,AAXX 26094 07190 12675 32010 10110 20050 39956 40140 51016 60006 82230 90900=
07190,1998-10-26 12:00:00,12,1013.2,-0.7,62,5,12000,22.224,,,220,,,,,,,,,,,wg-a,,,,AAXX 26124 07190 12562 82212 10120 20050 39949 40132 56007 60006 878// 91200=
07190,1998-10-26 15:00:00,11,1011.2,-2,66,5,12000,25.928,,,210,,,,0,,,,,,3,wg-a,,,,AAXX 26154 07190 12662 82114 10110 20050 39929 40112 56020 60007 70386 8587/ 91500=
07190,1998-10-26 18:00:00,9,1013.7,2.3,81,6,15000,11.112,,,220,6.3,12.7,,,,,,,,21,wg-a,,,,AAXX 26184 07190 02565 /2206 10090 20060 39952 40137 53023 61000 72186 84570 91800 333 10127 20063 6000=
07190,1998-10-27 00:00:00,9,1018.5,1.9,76,5,15000,18.52,,,240,,,,,,,,,,,wg-a,,,,AAXX 27004 07190 12665 /2410 10090 20050 39999 40185 53019 60006 85800 90000=
07190,1998-10-27 03:00:00,8,1020.3,1.7,76,4,15000,14.816,,,220,,,,,,,,,,,wg-a,,,,AAXX 27034 07190 12665 52208 10080 20040 30016 40203 51017 60006 85800 90300=
07190,1998-10-27 06:00:00,8,1021.3,1,81,5,20000,18.52,,,190,6.2,9.3,,,,,1,,,,wg-a,,,,AAXX 27064 07190 02670 /1910 10080 20050 30026 40213 51010 60006 83130 90600 333 10093 20062 60014=
07190,1998-10-27 09:00:00,9,1020.8,-0.4,87,7,15000,29.632,,,180,,,,0,,,,,,21,wg-a,,,,AAXX 27094 07190 12665 81816 10090 20070 30022 40208 58004 60007 72162 875// 90900=
07190,1998-10-27 12:00:00,12,1019.9,-0.7,76,8,20000,35.188,,53.708,210,,,,,,,,,,1,wg-a,,,,AAXX 27124 07190 02570 72119 10120 20080 30015 40199 58007 60006 70186 8587/ 91200 333 61000 91029=
07190,1998-10-27 15:00:00,13,1019.6,-0.3,62,6,20000,38.892,,,210,,,,,,,,,,,wg-a,,,,AAXX 27154 07190 12670 72121 10130 20060 30012 40196 55003 60006 85531 91500=
07190,1998-10-27 18:00:00,12,1018.1,-1.5,67,6,25000,25.928,,,180,7.9,13.1,,,,,,,,,wg-a,,,,AAXX 27184 07190 12675 71814 10120 20060 39997 40181 58015 60006 84531 91800 333 10131 20079=
07190,1998-10-27 21:00:00,13,1016.9,-1.1,62,6,20000,42.596,,64.82,210,,,,,,,,,,,wg-a,,,,AAXX 27214 07190 12670 62123 10130 20060 39986 40169 56011 60006 85530 92100 333 91035=
07190,1998-10-28 00:00:00,14,1013.9,-2.9,58,6,20000,38.892,,57.412,200,,,,,,,,,,,wg-a,,,,AAXX 28004 07190 12670 72021 10140 20060 39957 40139 58029 60006 875// 90000 333 91031=
07190,1998-10-28 03:00:00,13,1011.8,-2.1,72,8,15000,50.004,,68.524,210,,,,,,,,,,60,wg-a,,,,AAXX 28034 07190 02665 72127 10130 20080 39936 40118 58021 61000 76062 872// 90300 333 //// 91037=
07190,1998-10-28 06:00:00,13,1010.7,-1.1,72,8,15000,42.596,,79.636,200,11.6,13.8,,,,,,,,21,wg-a,,,,AAXX 28064 07190 02565 82023 10130 20080 39925 40107 55011 61000 72162 8657/ 90600 333 10138 20116 6000 91043=
07190,1998-10-28 09:00:00,14,1010.4,-0.2,77,10,25000,35.188,,57.412,190,,,,,,,,,,21,wg-a,,,,AAXX 28094 07190 02575 81919 10140 20100 39923 40104 58002 61000 72162 875// 90900 333 //// 91031=
07190,1998-10-28 12:00:00,18,1008.8,-1.3,68,12,12000,46.3,,,210,,,,,,,,,,1,wg-a,,,,AAXX 28124 07190 02562 72125 10180 20120 39910 40088 56013 61000 70162 8553/ 91200 333 ////=
07190,1998-10-28 18:00:00,18,1007.9,0.8,73,13,15000,46.3,,57.412,220,12.6,17.6,,,,,,,,,wg-a,,,,AAXX 28184 07190 12565 72225 10180 20130 39901 40079 52008 60006 875// 91800 333 10176 20126 91031=
07190,1998-10-28 21:00:00,16,1007.6,-0.4,88,14,15000,22.224,,,220,,,,0,,,,,,60,wg-a,,,,AAXX 28214 07190 12565 72212 10160 20140 39897 40076 58004 60007 76062 8557/ 92100=
07190,1998-10-29 00:00:00,12,1008.8,0.9,94,11,500,18.52,,,320,,,,7,,,,,,63,wg-a,,,,AAXX 29004 07190 02300 73210 10120 20110 39906 40088 53009 60076 76362 875// 90000 333 60077=
07190,1998-10-29 06:00:00,12,1007.6,-0.7,94,11,10000,7.408,,,140,10.8,18.2,,,,,,,,61,wg-a,,,,AAXX 29064 07190 02460 71404 10120 20110 39894 40076 56007 61000 76166 878// 90600 333 10182 20108 6015=
07190,1998-10-29 09:00:00,9,1010.6,2.8,87,7,500,22.224,,,210,,,,4,,,,,,21,wg-a,,,,AAXX 29094 07190 12400 82112 10090 20070 39922 40106 51028 60047 72162 878// 90900=
07190,1998-10-29 12:00:00,10,1012.9,2.3,76,6,20000,18.52,,,240,,,,,,,,,,3,wg-a,,,,AAXX 29124 07190 02470 82410 10100 20060 39945 40129 51023 60046 70362 878// 91200 333 61000=
07190,1998-10-29 18:00:00,9,1020.3,2.9,71,4,20000,29.632,,,250,8.2,12.1,,,,,,,,1,wg-a,,,,AAXX 29184 07190 12670 22516 10090 20040 30017 40203 53029 60006 70198 81560 91800 333 10121 20082=
07190,1998-10-29 21:00:00,9,1022.3,2,71,4,20000,22.224,,,240,,,,,,,,,,,wg-a,,,,AAXX 29214 07190 12670 32412 10090 20040 30037 40223 51020 60006 83500 92100=
07190,1998-10-30 00:00:00,8,1021.9,-0.5,71,3,20000,22.224,,,220,,,,,,,,,,,wg-a,,,,AAXX 30004 07190 12770 22212 10080 20030 30032 40219 57005 60006 81501 90000=
07190,1998-10-30 03:00:00,9,1020.4,-1.5,71,4,20000,25.928,,,230,,,,,,,,,,60,wg-a,,,,AAXX 30034 07190 02670 82314 10090 20040 30017 40204 58015 61000 76061 8557/ 90300 333 ////=
07190,1998-10-30 06:00:00,8,1019,-1.4,81,5,20000,29.632,,,190,6.9,9.5,,,,,7,,,3,wg-a,,,,AAXX 30064 07190 02570 71916 10080 20050 30003 40190 58014 60006 70361 875// 90600 333 10095 20069 60074=
07190,1998-10-30 12:00:00,10,1015.9,-0.8,71,5,12000,22.224,,,240,,,,1,,,,,,61,wg-a,,,,AAXX 30124 07190 02562 82412 10100 20050 39974 40159 56008 60016 76162 888// 91200 333 60017=
07190,1998-10-30 15:00:00,10,1014.4,-1.4,71,5,18000,25.928,,,230,,,,0,,,,,,1,wg-a,,,,AAXX 30154 07190 12668 /2314 10100 20050 39960 40144 56014 60007 70162 85870 91500=
07190,1998-10-30 18:00:00,6,1017.5,2.7,87,4,20000,11.112,,,280,6.2,10.6,,2,,,,,,1,wg-a,,,,AAXX 30184 07190 02570 /2806 10060 20040 39987 40175 53027 60006 70161 83830 91800 333 10106 20062 60027=
07190,1998-10-30 21:00:00,4,1020.4,2.7,87,2,15000,7.408,,,210,,,,2,,,,,,3,wg-a,,,,AAXX 30214 07190 12565 32104 10040 20020 30014 40204 51027 60027 70361 83800 92100=
07190,1998-10-31 00:00:00,4,1020.7,0.3,93,3,15000,3.704,,,200,,,,,,,,,,1,wg-a,,,,AAXX 31004 07190 12565 32002 10040 20030 30017 40207 50003 60026 70161 82501 90000=
07190,1998-10-31 03:00:00,3,1020,-0.7,93,2,15000,7.408,,,190,,,,,,,,,,,wg-a,,,,AAXX 31034 07190 12565 21904 10030 20020 30010 40200 57007 60006 82500 90300=
07190,1998-10-31 06:00:00,4,1018.4,-1.5,93,3,15000,11.112,,,170,3.1,6.5,,,,,5,,,,wg-a,,,,AAXX 31064 07190 02565 71706 10040 20030 39995 40184 58015 60006 86172 90600 333 10065 20031 60054=
07190,1998-10-31 09:00:00,8,1017.2,-1,87,6,15000,18.52,,,180,,,,0,,,,,,,wg-a,,,,AAXX 31094 07190 12565 71810 10080 20060 39985 40172 58010 60007 85572 90900=
07190,1998-10-31 12:00:00,10,1015,-2,82,7,15000,18.52,,,210,,,,,,,,,,,wg-a,,,,AAXX 31124 07190 12665 82110 10100 20070 39965 40150 58020 60006 8357/ 91200=
07190,1998-10-31 15:00:00,10,1012.2,-2.7,87,8,10000,14.816,,,180,,,,,,,,,,60,wg-a,,,,AAXX 31154 07190 02560 81808 10100 20080 39938 40122 57027 61000 76062 8657/ 91500 333 ////=
07190,1998-10-31 18:00:00,9,1009.2,-3,93,8,10000,22.224,,,180,4.4,10.4,,,,,,,,61,wg-a,,,,AAXX 31184 07190 02560 81812 10090 20080 39908 40092 58030 61000 76162 8582/ 91800 333 10104 20044 6001=
07190,1998-10-31 21:00:00,9,1005.3,-3.8,93,8,12000,25.928,,,170,,,,1,,,,,,61,wg-a,,,,AAXX 31214 07190 12562 81714 10090 20080 39870 40053 56038 60017 76162 8587/ 92100=
07190,1998-11-01 00:00:00,10,1000,-5.2,87,8,12000,25.928,,,180,,,,1,,,,,,61,wg-a,,,,AAXX 01004 07190 02562 81814 10100 20080 39818 40000 58052 60026 76162 8587/ 90000 333 60017=
07190,1998-11-01 03:00:00,10,996.2,-3.7,87,8,9000,29.632,,46.3,190,,,,0,,,,,,,wg-a,,,,AAXX 01034 07190 12559 81916 10100 20080 39781 49962 58037 60007 8587/ 90300 333 91025=
07190,1998-11-01 06:00:00,13,993.1,-2.9,82,10,15000,29.632,,,220,8.9,12.8,,,,,,,,60,wg-a,,,,AAXX 01064 07190 02465 72216 10130 20100 39752 49931 55029 61000 76062 878// 90600 333 10128 20089 6004=
07190,1998-11-01 09:00:00,11,1000.7,7.4,71,6,500,31.484,,51.856,290,,,,1,,,,,,3,wg-a,,,,AAXX 01094 07190 12500 72917 10110 20060 39826 40007 53074 60017 70362 875// 90900 333 91028=
07190,1998-11-01 12:00:00,11,1004.7,3.9,62,4,500,14.816,,37.04,290,,,,,,,,,,1,wg-a,,,,AAXX 01124 07190 12500 72908 10110 20040 39865 40047 51039 60016 70162 8553/ 91200 333 91020=
07190,1998-11-01 15:00:00,10,1007.5,2.7,66,4,500,11.112,,,310,,,,,,,,,,,wg-a,,,,AAXX 01154 07190 12500 63106 10100 20040 39892 40075 53027 60006 85830 91500=
07190,1998-11-02 00:00:00,2,1013.4,0.6,87,0,20000,11.112,,,240,,,,,,,,,,,wg-a,,,,AAXX 02004 07190 12770 12406 10020 20000 39944 40134 51006 60006 81201 90000=
07190,1998-11-02 03:00:00,2,1012.9,-0.4,93,1,20000,3.704,,,250,,,,,,,,,,,wg-a,,,,AAXX 02034 07190 12/70 22502 10020 20010 39940 40129 58004 60006 80001 90300=
07190,1998-11-02 06:00:00,1,1012.8,-0.2,100,1,15000,7.408,,,200,0.7,7.3,,,,,1,,,,wg-a,,,,AAXX 02064 07190 02865 52004 10010 20010 39938 40128 58002 60006 84131 90600 333 10073 20007 60014=
07190,1998-11-02 09:00:00,7,1012.4,0,81,4,10000,3.704,,,130,,,,,,,,,,,wg-a,,,,AAXX 02094 07190 12660 /1302 10070 20040 39938 40124 50000 60006 81131 90900=
07190,1998-11-02 12:00:00,12,1009,-3,58,4,20000,7.408,,,180,,,,,,,,,,,wg-a,,,,AAXX 02124 07190 12670 71804 10120 20040 39908 40090 58030 60006 83101 91200=
07190,1998-11-02 15:00:00,11,1005.5,-3.5,66,5,25000,11.112,,,150,,,,,,,,,,,wg-a,,,,AAXX 02154 07190 12675 71506 10110 20050 39873 40055 56035 60006 83432 91500=
07190,1998-11-02 18:00:00,7,1004.1,-1.7,81,4,20000,3.704,,,180,1.2,12.5,,,,,,,,,wg-a,,,,AAXX 02184 07190 12670 41802 10070 20040 39856 40041 56017 60006 81532 91800 333 10125 20012=
07190,1998-11-02 21:00:00,7,1002,-2,87,5,15000,3.704,,,180,,,,0,,,,,,21,wg-a,,,,AAXX 02214 07190 12665 71802 10070 20050 39836 40020 58020 60007 72161 8557/ 92100=
07190,1998-11-03 00:00:00,9,998.9,-2.9,87,7,10000,25.928,,,170,,,,0,,,,,,1,wg-a,,,,AAXX 03004 07190 02660 71714 10090 20070 39807 49989 56029 60016 70161 875// 90000 333 60007=
07190,1998-11-03 03:00:00,13,996.9,-1.7,77,9,10000,29.632,,,190,,,,,,,,,,,wg-a,,,,AAXX 03034 07190 12660 71916 10130 20090 39790 49969 56017 60006 875// 90300=
07190,1998-11-03 06:00:00,10,999.4,2.2,76,6,15000,14.816,,,180,5.7,12.8,,,,,,,,21,wg-a,,,,AAXX 03064 07190 02565 71808 10100 20060 39812 49994 51022 61000 72162 878// 90600 333 10128 20057 6001=
07190,1998-11-03 09:00:00,10,1001.1,1.7,76,6,12000,35.188,,,230,,,,,,,,,,61,wg-a,,,,AAXX 03094 07190 02562 82319 10100 20060 39829 40011 51017 61000 76162 8487/ 90900 333 ////=
07190,1998-11-03 12:00:00,11,1001.6,0.6,82,8,25000,25.928,,,210,,,,0,,,,,,1,wg-a,,,,AAXX 03124 07190 02675 72114 10110 20080 39835 40016 51006 60006 70162 8377/ 91200 333 60007=
07190,1998-11-03 15:00:00,9,1000.3,-1.4,87,7,25000,14.816,,,280,,,,1,,,,,,25,wg-a,,,,AAXX 03154 07190 12575 82808 10090 20070 39821 40003 56014 60017 72586 8487/ 91500=
07190,1998-11-03 18:00:00,9,1000.9,0.6,81,6,15000,18.52,,,180,8.9,11.8,,2,,,,,,1,wg-a,,,,AAXX 03184 07190 02665 71810 10090 20060 39827 40009 53006 60006 70186 8217/ 91800 333 10118 20089 60027=
07190,1998-11-03 21:00:00,9,1002.1,1.1,87,7,15000,18.52,,,170,,,,,,,,,,,wg-a,,,,AAXX 03214 07190 12665 71710 10090 20070 39838 40021 53011 60006 8587/ 92100=
07190,1998-11-04 00:00:00,9,1001.7,-0.4,87,7,15000,22.224,,,180,,,,,,,,,,,wg-a,,,,AAXX 04004 07190 12565 81812 10090 20070 39834 40017 55004 60006 878// 90000=
07190,1998-11-04 03:00:00,8,1000.6,-1.1,93,7,15000,11.112,,,180,,,,0,,,,,,21,wg-a,,,,AAXX 04034 07190 12565 81806 10080 20070 39823 40006 56011 60007 72162 878// 90300=
07190,1998-11-04 06:00:00,8,1000.9,0.3,93,7,15000,18.52,,,180,8.1,9.7,,,,,4,,,3,wg-a,,,,AAXX 04064 07190 02565 81810 10080 20070 39826 40009 50003 60006 70362 8587/ 90600 333 10097 20081 60044=
07190,1998-11-04 12:00:00,10,1003.2,0.2,76,6,20000,3.704,,,140,,,,1,,,,,,25,wg-a,,,,AAXX 04124 07190 02470 71402 10100 20060 39849 40032 50002 60016 72586 85860 91200 333 60017=
07190,1998-11-04 15:00:00,10,1003.7,0.6,71,5,500,25.928,,,210,,,,,,,,,,,wg-a,,,,AAXX 04154 07190 12600 72114 10100 20050 39855 40037 53006 60006 86860 91500=
07190,1998-11-04 18:00:00,8,1007.4,3.4,87,6,15000,11.112,,,250,7.5,10.8,,,,,,,,25,wg-a,,,,AAXX 04184 07190 02565 82506 10080 20060 39889 40074 53034 61000 72586 878// 91800 333 10108 20075 6001=
07190,1998-11-04 21:00:00,6,1010,2.5,87,4,15000,11.112,,,220,,,,1,,,,,,25,wg-a,,,,AAXX 04214 07190 12665 /2206 10060 20040 39914 40100 53025 60017 72586 86500 92100=
07190,1998-11-05 00:00:00,4,1012.3,2.1,93,3,15000,11.112,,,230,,,,,,,,,,1,wg-a,,,,AAXX 05004 07190 12765 42306 10040 20030 39935 40123 53021 60016 70186 84500 90000=
07190,1998-11-05 03:00:00,3,1014.3,1.9,93,2,15000,3.704,,,140,,,,,,,,,,,wg-a,,,,AAXX 05034 07190 12765 41402 10030 20020 39954 40143 53019 60006 84500 90300=
07190,1998-11-05 06:00:00,1,1016.8,2.3,93,0,15000,3.704,,,190,1.3,7.6,,,,,3,,,,wg-a,,,,AAXX 05064 07190 02565 31902 10010 20000 39977 40168 51023 60006 83800 90600 333 10076 20013 60034=
07190,1998-11-05 12:00:00,9,1021.3,1.8,53,0,25000,18.52,,,250,,,,,,,,,,,wg-a,,,,AAXX 05124 07190 12675 52510 10090 20000 30026 40213 51018 60006 85800 91200=
07190,1998-11-05 15:00:00,8,1022.4,1,53,-1,25000,11.112,,,250,,,,,,,,,,,wg-a,,,,AAXX 05154 07190 12675 32506 10080 21010 30036 40224 53010 60006 82201 91500=
07190,1998-11-05 18:00:00,3,1024,1.3,81,0,25000,7.408,,,190,1.3,9.1,,,,,,,,,wg-a,,,,AAXX 05184 07190 12/75 21904 10030 20000 30049 40240 53013 60006 80001 91800 333 10091 20013=
07190,1998-11-05 21:00:00,3,1024.6,0.6,75,-1,25000,14.816,,,180,,,,,,,,,,,wg-a,,,,AAXX 05214 07190 12/75 11808 10030 21010 30055 40246 52006 60006 80001 92100=
07190,1998-11-06 00:00:00,2,1024.9,0.2,80,-1,20000,14.816,,,170,,,,,,,,,,,wg-a,,,,AAXX 06004 07190 12/70 01708 10020 21010 30057 40249 51002 60006 80000 90000=
07190,1998-11-06 03:00:00,3,1025,0.1,81,0,20000,18.52,,,190,,,,,,,,,,,wg-a,,,,AAXX 06034 07190 12770 61910 10030 20000 30058 40250 51001 60006 84531 90300=
07190,1998-11-06 06:00:00,3,1025,0.1,81,0,20000,22.224,,,180,0.9,3.5,,,,,,,,,wg-a,,,,AAXX 06064 07190 02770 71812 10030 20000 30059 40250 53001 60006 85531 90600 333 10035 20009 60004=
07190,1998-11-06 09:00:00,5,1026.7,1.8,81,2,10000,14.816,,,190,,,,,,,,,,60,wg-a,,,,AAXX 06094 07190 02560 71908 10050 20020 30077 40267 52018 61000 76062 878// 90900 333 ////=
07190,1998-11-06 12:00:00,9,1026.9,0.4,76,5,18000,18.52,,,200,,,,,,,,,,3,wg-a,,,,AAXX 06124 07190 02568 72010 10090 20050 30081 40269 53004 61000 70362 878// 91200 333 6100=
07190,1998-11-06 15:00:00,9,1027.7,0.8,81,6,20000,14.816,,,200,,,,,,,,,,,wg-a,,,,AAXX 06154 07190 12570 72008 10090 20060 30089 40277 53008 60006 878// 91500=
07190,1998-11-06 18:00:00,8,1029.1,1.3,81,5,20000,7.408,,,180,3.1,8.9,,,,,,,,,wg-a,,,,AAXX 06184 07190 12570 71804 10080 20050 30102 40291 51013 60006 875// 91800 333 10089 20031=
07190,1998-11-06 21:00:00,7,1030.2,1.1,87,5,15000,14.816,,,170,,,,,,,,,,,wg-a,,,,AAXX 06214 07190 12565 71708 10070 20050 30113 40302 51011 60006 875// 92100=
07190,1998-11-07 00:00:00,6,1030.5,0.2,93,5,10000,7.408,,,140,,,,,,,,,,,wg-a,,,,AAXX 07004 07190 12460 71404 10060 20050 30115 40305 50002 60006 878// 90000=
07190,1998-11-07 03:00:00,6,1030.4,-0.1,93,5,8000,3.704,,,190,,,,1,,,,,,,wg-a,,,,AAXX 07034 07190 12558 71902 10060 20050 30114 40304 58001 60017 875// 90300=
07190,1998-11-07 06:00:00,6,1031.4,1,93,5,500,7.408,,,350,5.5,7.7,,,,,1,,,3,wg-a,,,,AAXX 07064 07190 02400 73504 10060 20050 30124 40314 53010 60006 70362 875// 90600 333 10077 20055 60014=
07190,1998-11-07 09:00:00,6,1031.9,0.5,100,6,3000,7.408,,,340,,,,,,,,,,10,wg-a,,,,AAXX 07094 07190 12430 73404 10060 20060 30129 40319 52005 60006 71011 875// 90900=
07190,1998-11-07 12:00:00,8,1031,-0.8,87,6,7000,7.408,,,360,,,,,,,,,,,wg-a,,,,AAXX 07124 07190 12357 73604 10080 20060 30121 40310 58008 60006 875// 91200=
07190,1998-11-07 15:00:00,8,1029.6,-1.4,87,6,12000,11.112,,,330,,,,,,,,,,,wg-a,,,,AAXX 07154 07190 12462 73306 10080 20060 30107 40296 56014 60006 87500 91500=
07190,1998-11-07 18:00:00,7,1029.5,-0.1,87,5,7000,7.408,,,280,4.7,8.4,,,,,,,,,wg-a,,,,AAXX 07184 07190 12457 82804 10070 20050 30106 40295 57001 60006 875// 91800 333 10084 20047=
07190,1998-11-07 21:00:00,7,1029.4,-0.1,87,5,7000,0,,,0,,,,,,,,,,,wg-a,,,,AAXX 07214 07190 12357 80000 10070 20050 30105 40294 57001 60006 885// 92100=
07190,1998-11-08 00:00:00,6,1028.3,-1.2,93,5,6000,3.704,,,140,,,,,,,,,,,wg-a,,,,AAXX 08004 07190 12356 81402 10060 20050 30093 40283 58012 60006 875// 90000=
07190,1998-11-08 03:00:00,6,1027.9,-0.4,93,5,6000,7.408,,,170,,,,,,,,,,,wg-a,,,,AAXX 08034 07190 12356 81704 10060 20050 30089 40279 58004 60006 886// 90300=
07190,1998-11-08 06:00:00,5,1027.9,-0.1,87,3,6000,7.408,,,170,4.6,6.9,,,,,,,,,wg-a,,,,AAXX 08064 07190 02256 81704 10050 20030 30088 40279 55001 60006 886// 90600 333 10069 20046 60004=
07190,1998-11-08 09:00:00,5,1028.5,0.6,87,3,500,14.816,,,210,,,,,,,,,,,wg-a,,,,AAXX 08094 07190 12/00 72108 10050 20030 30094 40285 52006 60006 80002 90900=
07190,1998-11-08 12:00:00,9,1027,-1.1,71,4,20000,7.408,,,250,,,,,,,,,,,wg-a,,,,AAXX 08124 07190 12/70 62504 10090 20040 30083 40270 56011 60006 82032 91200=
07190,1998-11-08 15:00:00,10,1025.2,-1.7,71,5,25000,11.112,,,180,,,,,,,,,,,wg-a,,,,AAXX 08154 07190 12/75 71806 10100 20050 30066 40252 56017 60006 85052 91500=
07190,1998-11-08 18:00:00,9,1024.8,-0.5,76,5,20000,3.704,,,150,4.3,11,,,,,,,,,wg-a,,,,AAXX 08184 07190 12/70 61502 10090 20050 30061 40248 55005 60006 86050 91800 333 10110 20043=
07190,1998-11-08 21:00:00,11,1023.1,-1.5,62,4,20000,29.632,,,170,,,,,,,,,,,wg-a,,,,AAXX 08214 07190 12670 71716 10110 20040 30046 40231 58015 60006 8457/ 92100=
07190,1998-11-09 00:00:00,11,1023.1,-0.1,71,6,15000,14.816,,,170,,,,,,,,,,61,wg-a,,,,AAXX 09004 07190 02565 71708 10110 20060 30045 40231 55001 61000 76162 875// 90000 333 6100=
07190,1998-11-09 03:00:00,10,1022.8,-0.3,82,7,20000,14.816,,,150,,,,,,,,,,1,wg-a,,,,AAXX 09034 07190 02570 81508 10100 20070 30042 40228 58003 61000 70162 885// 90300 333 ////=
07190,1998-11-09 06:00:00,11,1022.2,-0.5,71,6,20000,14.816,,,190,9.1,11.6,,,,,,,,3,wg-a,,,,AAXX 09064 07190 02570 81908 10110 20060 30037 40222 56005 60006 70362 875// 90600 333 10116 20091 61000=
07190,1998-11-09 09:00:00,12,1023.2,1,67,6,20000,14.816,,,170,,,,1,,,,,,1,wg-a,,,,AAXX 09094 07190 12570 81708 10120 20060 30047 40232 51010 60017 70162 875// 90900=
07190,1998-11-09 12:00:00,13,1022.2,-0.9,72,8,20000,14.816,,,170,,,,,,,,,,1,wg-a,,,,AAXX 09124 07190 12670 71708 10130 20080 30038 40222 58009 60016 70162 8657/ 91200=
07190,1998-11-09 15:00:00,12,1020.9,-1.3,71,7,20000,18.52,,,160,,,,,,,,,,1,wg-a,,,,AAXX 09154 07190 02670 71610 10120 20070 30025 40209 58013 61000 70162 8557/ 91500 333 ////=
07190,1998-11-09 18:00:00,13,1020.4,-0.5,67,7,20000,22.224,,,180,10.5,13.2,,,,,,,,2,wg-a,,,,AAXX 09184 07190 12670 71812 10130 20070 30020 40204 56005 60006 70262 8557/ 91800 333 10132 20105=
07190,1998-11-09 21:00:00,11,1020.4,-0.1,87,9,15000,7.408,,,40,,,,1,,,,,,21,wg-a,,,,AAXX 09214 07190 12665 70404 10110 20090 30019 40204 55001 60017 72162 878// 92100=
07190,1998-11-10 00:00:00,12,1018.5,-1.7,94,11,15000,7.408,,,160,,,,,,,,,,3,wg-a,,,,AAXX 10004 07190 12565 71604 10120 20110 30002 40185 57017 60016 70362 875// 90000=
07190,1998-11-10 03:00:00,12,1017.2,-1.4,88,10,15000,7.408,,,160,,,,,,,,,,,wg-a,,,,AAXX 10034 07190 12465 71604 10120 20100 39988 40172 58014 60006 875// 90300=
07190,1998-11-10 06:00:00,12,1015.7,-1.4,94,11,15000,11.112,,,180,11.2,13.2,,,,,,,,21,wg-a,,,,AAXX 10064 07190 02665 71806 10120 20110 39974 40157 56014 61000 72162 875// 90600 333 10132 20112 6002=
07190,1998-11-10 09:00:00,12,1015.3,-0.4,94,11,15000,3.704,,,170,,,,,,,,,,,wg-a,,,,AAXX 10094 07190 12565 81702 10120 20110 39970 40153 58004 60006 878// 90900=
07190,1998-11-10 15:00:00,13,1015.6,-0.1,88,11,6000,14.816,,,210,,,,0,,,,,,80,wg-a,,,,AAXX 10154 07190 12556 72108 10130 20110 39973 40156 55001 60007 78086 8387/ 91500=
07190,1998-11-10 18:00:00,10,1017.1,1.3,76,6,20000,29.632,,,290,10.3,14.2,,2,,,,,,1,wg-a,,,,AAXX 10184 07190 02670 42916 10100 20060 39986 40171 53013 60006 70186 81530 91800 333 10142 20103 60027=
07190,1998-11-10 21:00:00,9,1020.7,3.4,76,5,15000,14.816,,,290,,,,,,,,,,,wg-a,,,,AAXX 10214 07190 12565 52908 10090 20050 30020 40207 51034 60006 84830 92100=
07190,1998-11-11 00:00:00,7,1023.1,2.3,76,3,12000,11.112,,,300,,,,,,,,,,,wg-a,,,,AAXX 11004 07190 12662 /3006 10070 20030 30043 40231 53023 60006 81500 90000=
07190,1998-11-11 03:00:00,5,1025.2,1.9,81,2,12000,7.408,,,280,,,,,,,,,,,wg-a,,,,AAXX 11034 07190 12662 /2804 10050 20020 30062 40252 51019 60006 81500 90300=
07190,1998-11-11 06:00:00,3,1026.3,1,93,2,10000,0,,,0,3,10.3,,,,,3,,,,wg-a,,,,AAXX 11064 07190 02760 40000 10030 20020 30072 40263 51010 60006 84530 90600 333 10103 20030 60034=
07190,1998-11-11 09:00:00,5,1027.5,1.3,87,3,15000,0,,,0,,,,,,,,,,,wg-a,,,,AAXX 11094 07190 12565 70000 10050 20030 30085 40275 51013 60006 875// 90900=
07190,1998-11-11 12:00:00,9,1026.4,-0.9,66,3,15000,3.704,,,290,,,,,,,,,,,wg-a,,,,AAXX 11124 07190 12665 62902 10090 20030 30076 40264 58009 60006 86800 91200=
07190,1998-11-11 15:00:00,8,1025.2,-1.2,76,4,15000,7.408,,,330,,,,1,,,,,,1,wg-a,,,,AAXX 11154 07190 12765 13304 10080 20040 30064 40252 56012 60017 70187 81230 91500=
07190,1998-11-11 18:00:00,3,1024.7,-0.8,93,2,15000,3.704,,,230,2.8,9.7,,,,,,,,1,wg-a,,,,AAXX 11184 07190 12/65 02302 10030 20020 30056 40247 55008 60006 70187 80000 91800 333 10097 20028=
07190,1998-11-11 21:00:00,1,1022.7,-2.1,93,0,6000,0,,,0,,,,,,,,,,,wg-a,,,,AAXX 11214 07190 12/56 00000 10010 20000 30035 40227 57021 60006 80000 92100=
07190,1998-11-12 00:00:00,-1,1019.8,-3,100,-1,3000,3.704,,,120,,,,,,,,,,10,wg-a,,,,AAXX 12004 07190 12130 31202 11010 21010 30005 40198 57030 60006 71000 83600 90000=
07190,1998-11-12 03:00:00,-1,1017.3,-2.4,100,-1,3000,3.704,,,360,,,,,,,,,,10,wg-a,,,,AAXX 12034 07190 12130 43602 11010 21010 39981 40173 58024 60006 71000 84600 90300=
07190,1998-11-12 12:00:00,1,1013.6,-1.2,100,1,900,3.704,,,140,,,,,,,,,,43,wg-a,,,,AAXX 12124 07190 12/09 91402 10010 20010 39945 40136 56012 60006 74344 89/// 91200=
07190,1998-11-12 15:00:00,2,1013.1,-0.3,100,2,2000,3.704,,,120,,,,,,,,,,10,wg-a,,,,AAXX 12154 07190 12220 81202 10020 20020 39942 40131 55003 60006 71042 886// 91500=
07190,1998-11-12 18:00:00,2,1014.2,1,100,2,2500,3.704,,,180,-0.4,2.6,,,,,,,,10,wg-a,,,,AAXX 12184 07190 12225 81802 10020 20020 39952 40142 53010 60006 71042 886// 91800 333 10026 21004=
07190,1998-11-12 21:00:00,3,1015.3,1.1,93,2,2000,3.704,,,220,,,,1,,,,,,10,wg-a,,,,AAXX 12214 07190 12220 82202 10030 20020 39963 40153 53011 60017 71062 886// 92100=
07190,1998-11-13 00:00:00,4,1014.3,-0.8,100,4,3000,14.816,,,180,,,,1,,,,,,10,wg-a,,,,AAXX 13004 07190 02330 81808 10040 20040 39955 40143 56008 60026 71062 885// 90000 333 60017=
07190,1998-11-13 03:00:00,4,1014,-0.3,93,3,500,22.224,,,170,,,,,,,,,,1,wg-a,,,,AAXX 13034 07190 02500 81712 10040 20030 39952 40140 58003 61000 70162 885// 90300 333 ////=
07190,1998-11-13 06:00:00,5,1013.3,-0.6,93,4,6000,14.816,,,180,2,5.3,,,,,2,,,3,wg-a,,,,AAXX 13064 07190 02556 81808 10050 20040 39946 40133 56006 60006 70362 885// 90600 333 10053 20020 60024=
07190,1998-11-13 09:00:00,7,1013.1,-0.1,87,5,17000,18.52,,,170,,,,,,,,,,,wg-a,,,,AAXX 13094 07190 12667 /1710 10070 20050 39945 40131 58001 60006 82104 90900=
07190,1998-11-13 12:00:00,9,1011.1,-1.9,81,6,17000,14.816,,,200,,,,,,,,,,,wg-a,,,,AAXX 13124 07190 12667 72008 10090 20060 39926 40111 58019 60006 84832 91200=
07190,1998-11-13 15:00:00,5,1013.3,-0.6,93,4,6000,14.816,,,180,2,5.3,,,,,2,,,3,wg-a,,,,AAXX 13154 07190 12556 81808 10050 20040 39946 40133 56006 60024 70362 885// 91500 333 10053 20020=
07190,1998-11-13 18:00:00,6,1008.9,-1,87,4,20000,3.704,,,150,5.2,8.7,,,,,,,,,wg-a,,,,AAXX 13184 07190 12770 51502 10060 20040 39903 40089 58010 60006 82511 91800 333 10087 20052=
07190,1998-11-13 21:00:00,4,1008.5,-0.6,93,3,15000,3.704,,,90,,,,,,,,,,,wg-a,,,,AAXX 13214 07190 12/65 60902 10040 20030 39897 40085 58006 60006 86070 92100=
07190,1998-11-14 00:00:00,1,1006.8,-1.9,93,0,4000,3.704,,,160,,,,,,,,,,10,wg-a,,,,AAXX 14004 07190 12/40 01602 10010 20000 39878 40068 58019 60006 71011 80000 90000=
07190,1998-11-14 03:00:00,0,1004.7,-2,100,0,2500,3.704,,,240,,,,,,,,,,10,wg-a,,,,AAXX 14034 07190 12/25 02402 10000 20000 39858 40047 58020 60006 71000 80000 90300=
07190,1998-11-14 06:00:00,2,1001.6,-3,93,1,500,0,,,0,-0.2,6,,,,,,,,,wg-a,,,,AAXX 14064 07190 02600 70000 10020 20010 39828 40016 58030 60006 8357/ 90600 333 10060 21002 60004=
07190,1998-11-14 09:00:00,3,1000.1,-1.4,100,3,2000,3.704,,,290,,,,5,,,,,,61,wg-a,,,,AAXX 14094 07190 12220 82902 10030 20030 39814 40001 57014 60057 76162 875// 90900=
07190,1998-11-14 12:00:00,7,1000.4,0.6,87,5,10000,25.928,,,230,,,,1,,,,,,21,wg-a,,,,AAXX 14124 07190 02260 72314 10070 20050 39820 40004 53006 60076 72162 86530 91200 333 60017=
07190,1998-11-14 15:00:00,7,1001.7,1.3,81,4,10000,29.632,,,200,,,,,,,,,,,wg-a,,,,AAXX 14154 07190 12660 72016 10070 20040 39833 40017 50013 60006 85530 91500=
07190,1998-11-14 18:00:00,6,1002.2,0.4,87,4,12000,18.52,,,200,1.6,9.4,,,,,,,,60,wg-a,,,,AAXX 14184 07190 02662 82010 10060 20040 39837 40022 53004 61000 76061 8552/ 91800 333 10094 20016 6001=
07190,1998-11-14 21:00:00,6,1003.9,1.7,81,3,20000,14.816,,,260,,,,2,,,,,,21,wg-a,,,,AAXX 14214 07190 12570 82608 10060 20030 39854 40039 53017 60027 72186 878// 92100=
07190,1998-11-15 00:00:00,5,1007.4,3.4,81,2,20000,22.224,,,270,,,,,,,,,,0,wg-a,,,,AAXX 15004 07190 12570 82712 10050 20020 39888 40074 51034 60026 70086 875// 90000=
07190,1998-11-15 03:00:00,5,1009.4,1.9,87,3,20000,7.408,,,190,,,,,,,,,,,wg-a,,,,AAXX 15034 07190 12570 81904 10050 20030 39907 40094 51019 60006 875// 90300=
07190,1998-11-15 06:00:00,5,1010.4,1,93,4,20000,14.816,,,210,4.5,6.1,,,,,,,,21,wg-a,,,,AAXX 15064 07190 02470 82108 10050 20040 39917 40104 51010 61000 72186 8587/ 90600 333 10061 20045 6010=
07190,1998-11-15 09:00:00,6,1011.6,-0,81,3,20000,14.816,,,180,,,,,,,,,,,wg-a,,,,AAXX 15094 07190 32570 71808 10060 20030 39930 40116 54000 878// 90900=
07190,1998-11-15 12:00:00,7,1011.9,0.3,81,4,20000,18.52,,,190,,,,,,,,,,2,wg-a,,,,AAXX 15124 07190 02570 81910 10070 20040 39933 40119 51003 60006 70286 872// 91200 333 61000=
07190,1998-11-15 15:00:00,6,1012.5,0.5,87,4,10000,14.816,,,200,,,,1,,,,,,80,wg-a,,,,AAXX 15154 07190 12560 82008 10060 20040 39938 40125 53005 60017 78086 872// 91500=
07190,1998-11-15 21:00:00,6,1018,2.6,81,3,10000,11.112,,,260,,,,,,,,,,,wg-a,,,,AAXX 15214 07190 12460 82606 10060 20030 39992 40180 51026 60006 878// 92100=
07190,1998-11-16 00:00:00,5,1018.6,0.5,93,4,6000,3.704,,,130,,,,4,,,,,,61,wg-a,,,,AAXX 16004 07190 02456 81302 10050 20040 39997 40186 51005 60046 76162 875// 90000 333 60047=
07190,1998-11-16 03:00:00,5,1018,-0.6,93,4,500,0,,,0,,,,2,,,,,,61,wg-a,,,,AAXX 16034 07190 12500 80000 10050 20040 39991 40180 56006 60027 76162 875// 90300=
07190,1998-11-16 06:00:00,5,1018.2,0.2,93,4,10000,14.816,,,260,4.5,6.1,,,,,,,,61,wg-a,,,,AAXX 16064 07190 02460 82608 10050 20040 39993 40182 53002 61000 76162 8587/ 90600 333 10061 20045 6010=
07190,1998-11-16 09:00:00,5,1019.3,1.1,87,3,16000,14.816,,,270,,,,0,,,,,,21,wg-a,,,,AAXX 16094 07190 12566 82708 10050 20030 30004 40193 53011 60007 72162 8587/ 90900=
07190,1998-11-16 12:00:00,6,1020.4,1.2,81,3,15000,14.816,,,240,,,,,,,,,,61,wg-a,,,,AAXX 16124 07190 02465 82408 10060 20030 30016 40204 51012 60006 76162 8587/ 91200 333 61000=
07190,1998-11-16 15:00:00,5,1021.9,1.4,87,3,20000,18.52,,,300,,,,1,,,,,,21,wg-a,,,,AAXX 16154 07190 12570 73010 10050 20030 30030 40219 53014 60017 72162 8587/ 91500=
07190,1998-11-16 18:00:00,5,1024,2,87,3,18000,14.816,,,290,4.2,5.9,,,,,,,,3,wg-a,,,,AAXX 16184 07190 12568 82908 10050 20030 30050 40240 53020 60006 70362 878// 91800 333 10059 20042=
07190,1998-11-17 00:00:00,2,1028.3,1.3,80,-1,8000,7.408,,,270,,,,,,,,,,3,wg-a,,,,AAXX 17004 07190 12558 72704 10020 21010 30090 40283 51013 60006 70361 878// 90000=
07190,1998-11-17 03:00:00,2,1029,0.7,87,0,6000,7.408,,,280,,,,,,,,,,,wg-a,,,,AAXX 17034 07190 12756 72804 10020 20000 30097 40290 51007 60006 875// 90300=
07190,1998-11-17 06:00:00,2,1029.6,0.6,80,-1,6000,7.408,,,280,1.3,4.8,,,,,1,,,,wg-a,,,,AAXX 17064 07190 02656 72804 10020 21010 30103 40296 51006 60006 875// 90600 333 10048 20013 60014=
07190,1998-11-17 09:00:00,3,1030.6,1,75,-1,10000,0,,,0,,,,,,,,,,,wg-a,,,,AAXX 17094 07190 12660 70000 10030 21010 30113 40306 52010 60006 878// 90900=
07190,1998-11-17 12:00:00,4,1029.7,-0.8,65,-2,20000,14.816,,,340,,,,,,,,,,,wg-a,,,,AAXX 17124 07190 12570 33408 10040 21020 30105 40297 58008 60006 83800 91200=
07190,1998-11-17 15:00:00,4,1029.4,-0.3,65,-2,25000,18.52,,,340,,,,,,,,,,,wg-a,,,,AAXX 17154 07190 12575 53410 10040 21020 30102 40294 55003 60006 85800 91500=
07190,1998-11-17 18:00:00,0,1029.9,0.3,80,-3,20000,7.408,,,330,0.4,4.5,,,,,,,,,wg-a,,,,AAXX 17184 07190 12670 /3304 10000 21030 30105 40299 51003 60006 81500 91800 333 10045 20004=
07190,1998-11-17 21:00:00,-1,1029.9,-0.1,86,-3,7000,7.408,,,330,,,,,,,,,,,wg-a,,,,AAXX 17214 07190 12/57 03304 11010 21030 30104 40299 58001 60006 80000 92100=
07190,1998-11-18 00:00:00,-2,1029.7,-0.3,86,-4,7000,7.408,,,340,,,,,,,,,,,wg-a,,,,AAXX 18004 07190 12/57 03404 11020 21040 30101 40297 57003 60006 80000 90000=
07190,1998-11-18 03:00:00,-3,1029.1,-0.6,93,-4,500,3.704,,,20,,,,,,,,,,,wg-a,,,,AAXX 18034 07190 12/00 00202 11030 21040 30095 40291 56006 60006 80000 90300=
07190,1998-11-18 06:00:00,-4,1029,-0.2,93,-5,15000,3.704,,,330,-4,0.4,,,,,,,,,wg-a,,,,AAXX 18064 07190 02/65 03302 11040 21050 30093 40290 55002 60006 80000 90600 333 10004 21040 60004=
07190,1998-11-18 09:00:00,-1,1029.1,0.3,86,-3,25000,3.704,,,340,,,,,,,,,,,wg-a,,,,AAXX 18094 07190 12/75 13402 11010 21030 30096 40291 51003 60006 80001 90900=
07190,1998-11-18 12:00:00,3,1027.5,-1.3,56,-5,25000,3.704,,,360,,,,0,,,,,,,wg-a,,,,AAXX 18124 07190 02/75 13602 10030 21050 30083 40275 58013 60006 80001 91200 333 60007=
07190,1998-11-18 15:00:00,2,1026.9,-0.6,64,-4,20000,7.408,,,350,,,,,,,,,,,wg-a,,,,AAXX 18154 07190 12/70 13504 10020 21040 30077 40269 56006 60006 81041 91500=
07190,1998-11-18 18:00:00,-1,1027.7,0.6,80,-4,20000,3.704,,,260,-4.1,3.4,,,,,,,,,wg-a,,,,AAXX 18184 07190 12670 52602 11010 21040 30083 40277 53006 60006 85500 91800 333 10034 21041=
07190,1998-11-18 21:00:00,-2,1027.8,0,86,-4,20000,3.704,,,200,,,,,,,,,,,wg-a,,,,AAXX 18214 07190 12670 /2002 11020 21040 30083 40278 50000 60006 81500 92100=
07190,1998-11-19 00:00:00,-4,1027.2,-0.7,93,-5,15000,0,,,0,,,,,,,,,,,wg-a,,,,AAXX 19004 07190 12/65 00000 11040 21050 30076 40272 58007 60006 80000 90000=
07190,1998-11-19 03:00:00,-5,1026.5,-0.8,93,-6,10000,3.704,,,220,,,,,,,,,,,wg-a,,,,AAXX 19034 07190 12/60 02202 11050 21060 30068 40265 58008 60006 80000 90300=
07190,1998-11-19 06:00:00,-3,1026.4,-0,93,-4,8000,3.704,,,210,-5,-0.1,,,,,,,,,wg-a,,,,AAXX 19064 07190 02758 /2102 11030 21040 30068 40264 55000 60006 86500 90600 333 11001 21050 60004=
07190,1998-11-19 09:00:00,-2,1026.3,0,93,-3,3000,7.408,,,170,,,,1,,,,,,70,wg-a,,,,AAXX 19094 07190 12330 81704 11020 21030 30068 40263 50000 60017 77072 885// 90900=
07190,1998-11-19 12:00:00,-1,1026.2,0,93,-2,4200,3.704,,,190,,,,,,,,,,10,wg-a,,,,AAXX 19124 07190 02242 81902 11010 21020 30068 40262 50000 60016 71072 885// 91200 333 61000=
07190,1998-11-19 15:00:00,0,1026.8,0.6,93,-1,3800,0,,,0,,,,,,,,,,10,wg-a,,,,AAXX 19154 07190 02438 80000 10000 21010 30074 40268 53006 61000 71072 885// 91500 333 ////=
07190,1998-11-19 18:00:00,-1,1027.9,1.1,93,-2,6000,3.704,,,180,-3.3,0,,,,,,,,1,wg-a,,1,,AAXX 19184 07190 02356 71802 11010 21020 30085 40279 53011 60006 70172 875// 91800 333 10000 21033 4/001 61000=
07190,1998-11-19 21:00:00,-1,1029,1,93,-2,3500,3.704,,,210,,,,0,,,,,,10,wg-a,,,,AAXX 19214 07190 12435 82102 11010 21020 30095 40290 53010 60007 71072 875// 92100=
07190,1998-11-20 00:00:00,0,1029.8,0.9,93,-1,6000,11.112,,,350,,,,,,,,,,3,wg-a,,,,AAXX 20004 07190 12256 83506 10000 21010 30104 40298 51009 60006 70372 886// 90000=
07190,1998-11-20 03:00:00,-2,1030.9,0.9,93,-3,7000,7.408,,,350,,,,,,,,,,,wg-a,,,,AAXX 20034 07190 12457 83504 11020 21030 30113 40309 53009 60006 875// 90300=
07190,1998-11-20 06:00:00,-4,1032.5,1.5,93,-5,7000,11.112,,,360,-3.5,0.1,,,,,1,,,,wg-a,,1,,AAXX 20064 07190 02457 /3606 11040 21050 30128 40325 53015 60006 84800 90600 333 10001 21035 4/001 60014=
07190,1998-11-20 09:00:00,-3,1034.6,2.1,86,-5,7000,14.816,,,10,,,,,,,,,,,wg-a,,,,AAXX 20094 07190 12557 40108 11030 21050 30149 40346 53021 60006 84800 90900=
07190,1998-11-20 12:00:00,0,1034.9,0.5,74,-4,10000,14.816,,,20,,,,,,,,,,,wg-a,,,,AAXX 20124 07190 12560 50208 10000 21040 30154 40349 50005 60006 85801 91200=
07190,1998-11-20 15:00:00,0,1035.7,0.7,69,-5,15000,14.816,,,10,,,,,,,,,,,wg-a,,,,AAXX 20154 07190 12665 30108 10000 21050 30161 40357 53007 60006 83800 91500=
07190,1998-11-20 18:00:00,-2,1037.1,1.3,80,-5,15000,11.112,,,360,-4.2,0.4,,,,,,,,,wg-a,,1,,AAXX 20184 07190 12665 23606 11020 21050 30174 40371 52013 60006 82500 91800 333 10004 21042 4/001=
07190,1998-11-20 21:00:00,-3,1038.3,1.1,86,-5,12000,7.408,,,350,,,,,,,,,,,wg-a,,,,AAXX 20214 07190 12662 /3504 11030 21050 30185 40383 52011 60006 81500 92100=
07190,1998-11-21 00:00:00,-4,1038.6,0.2,93,-5,12000,11.112,,,350,,,,,,,,,,,wg-a,,,,AAXX 21004 07190 12/62 03506 11040 21050 30187 40386 51002 60006 80000 90000=
07190,1998-11-21 06:00:00,-5,1038.8,-0,93,-6,8000,7.408,,,10,-5.1,-2.1,,,,,,,,,wg-a,,1,,AAXX 21064 07190 02658 30104 11050 21060 30188 40388 55000 60006 83500 90600 333 11021 21051 4/001 60004=
07190,1998-11-21 09:00:00,-3,1039.1,0.5,86,-5,8000,14.816,,,20,,,,,,,,,,,wg-a,,,,AAXX 21094 07190 12/58 00208 11030 21050 30193 40391 51005 60006 80000 90900=
07190,1998-11-21 12:00:00,0,1037.7,-1.2,74,-4,9000,14.816,,,30,,,,,,,,,,,wg-a,,,,AAXX 21124 07190 12759 20308 10000 21040 30181 40377 58012 60006 82200 91200=
07190,1998-11-21 15:00:00,-1,1036.6,-1.2,74,-5,10000,18.52,,,30,,,,,,,,,,,wg-a,,,,AAXX 21154 07190 12660 20310 11010 21050 30169 40366 55012 60006 82200 91500=
07190,1998-11-21 18:00:00,-3,1036,-0.7,74,-7,10000,18.52,,,50,-5.3,0,,,,,,,,,wg-a,,0,,AAXX 21184 07190 12660 10510 11030 21070 30162 40360 58007 60006 81501 91800 333 10000 21053 4/9999=
07190,1998-11-21 21:00:00,-4,1034.9,-1.1,74,-8,10000,11.112,,,10,,,,,,,,,,,wg-a,,,,AAXX 21214 07190 12/60 /0106 11040 21080 30151 40349 58011 60006 80000 92100=
07190,1998-11-22 00:00:00,-5,1033.5,-1.4,73,-9,8000,18.52,,,30,,,,,,,,,,,wg-a,,,,AAXX 22004 07190 12/58 00310 11050 21090 30137 40335 57014 60006 80000 90000=
07190,1998-11-22 03:00:00,-6,1031.6,-2,79,-9,8000,14.816,,,30,,,,,,,,,,,wg-a,,,,AAXX 22034 07190 12/58 00308 11060 21090 30117 40316 56020 60006 80000 90300=
07190,1998-11-22 06:00:00,-7,1031.2,-0.5,79,-10,7000,14.816,,,20,-6.8,-2.5,,,,,,,,,wg-a,,0,,AAXX 22064 07190 02/57 00208 11070 21100 30112 40312 57005 60006 80000 90600 333 11025 21068 4/9999 60004=
07190,1998-11-22 09:00:00,-6,1031,-0.1,79,-9,8000,7.408,,,40,,,,,,,,,,,wg-a,,,,AAXX 22094 07190 12/58 00404 11060 21090 30111 40310 56001 60006 80000 90900=
07190,1998-11-22 12:00:00,-3,1029.2,-1.5,58,-10,8000,3.704,,,120,,,,,,,,,,,wg-a,,,,AAXX 22124 07190 12558 21202 11030 21100 30096 40292 58015 60006 82100 91200=
07190,1998-11-22 15:00:00,-3,1028.1,-1.1,58,-10,8000,3.704,,,10,,,,,,,,,,,wg-a,,,,AAXX 22154 07190 12/58 /0102 11030 21100 30085 40281 56011 60006 80000 91500=
07190,1998-11-22 18:00:00,-6,1028.2,-0.2,79,-9,6000,3.704,,,330,-7.1,-2.2,,,,,,,,,wg-a,,0,,AAXX 22184 07190 12/56 03302 11060 21090 30083 40282 57002 60006 80000 91800 333 11022 21071 4/000=
07190,1998-11-23 00:00:00,-9,1027,-0.3,85,-11,4000,0,,,0,,,,,,,,,,10,wg-a,,,,AAXX 23004 07190 12/40 00000 11090 21110 30069 40270 56003 60006 71000 80000 90000=
07190,1998-11-23 03:00:00,-9,1025.8,-1.2,85,-11,4000,3.704,,,360,,,,,,,,,,10,wg-a,,,,AAXX 23034 07190 12/40 03602 11090 21110 30057 40258 56012 60006 71000 80000 90300=
07190,1998-11-23 06:00:00,-10,1024.8,-1,92,-11,3000,3.704,,,330,-9.9,-6.1,,,,,,,,10,wg-a,,0,,AAXX 23064 07190 02/30 03302 11100 21110 30047 40248 58010 60006 71000 80000 90600 333 11061 21099 4/9999 60004=
07190,1998-11-23 09:00:00,-7,1025,0.4,86,-9,3400,7.408,,,320,,,,,,,,,,10,wg-a,,,,AAXX 23094 07190 12/34 33204 11070 21090 30051 40250 50004 60006 71000 80002 90900=
07190,1998-11-23 12:00:00,-4,1023.8,-0.9,80,-7,3800,3.704,,,350,,,,,,,,,,10,wg-a,,,,AAXX 23124 07190 12438 43502 11040 21070 30042 40238 56009 60006 71011 82102 91200=
07190,1998-11-23 15:00:00,-3,1023.8,-0,80,-6,3500,7.408,,,330,,,,,,,,,,10,wg-a,,,,AAXX 23154 07190 12/35 33304 11030 21060 30042 40238 55000 60006 71000 80002 91500=
07190,1998-11-23 18:00:00,-5,1024.5,0.6,86,-7,4800,3.704,,,300,-9.7,-3.2,,,,,,,,10,wg-a,,0,,AAXX 23184 07190 12748 23002 11050 21070 30048 40245 53006 60006 71000 81502 91800 333 11032 21097 4/9999=
07190,1998-11-23 21:00:00,-6,1024.7,0.1,93,-7,3500,0,,,0,,,,,,,,,,10,wg-a,,,,AAXX 23214 07190 12535 60000 11060 21070 30049 40247 53001 60006 71011 86500 92100=
07190,1998-11-24 00:00:00,-4,1024.2,-0.3,93,-5,3000,0,,,0,,,,,,,,,,10,wg-a,,,,AAXX 24004 07190 12530 80000 11040 21050 30046 40242 56003 60006 71011 885// 90000=
07190,1998-11-24 03:00:00,-4,1024.4,0.2,93,-5,3000,7.408,,,170,,,,,,,,,,10,wg-a,,,,AAXX 24034 07190 12530 81704 11040 21050 30048 40244 53002 60006 71022 885// 90300=
07190,1998-11-24 06:00:00,-4,1024.6,0.2,93,-5,3500,3.704,,,170,-6.6,-3.6,,,,,,,,10,wg-a,,0,,AAXX 24064 07190 02435 81702 11040 21050 30050 40246 53002 60006 71022 885// 90600 333 11036 21066 4/9999 60004=
07190,1998-11-24 09:00:00,-3,1024.8,0.2,86,-5,3000,3.704,,,210,,,,,,,,,,10,wg-a,,,,AAXX 24094 07190 12430 82102 11030 21050 30052 40248 50002 60006 71022 885// 90900=
07190,1998-11-24 12:00:00,-2,1023.7,-0.9,86,-4,3200,11.112,,,230,,,,,,,,,,10,wg-a,,,,AAXX 24124 07190 12532 72306 11020 21040 30043 40237 58009 60006 71022 875// 91200=
07190,1998-11-24 15:00:00,-1,1024,0.3,80,-4,3000,3.704,,,230,,,,,,,,,,10,wg-a,,,,AAXX 24154 07190 12430 82302 11010 21040 30046 40240 53003 60006 71022 885// 91500=
07190,1998-11-24 18:00:00,-1,1024.8,0.8,80,-4,4500,7.408,,,230,-3.7,-0.7,,,,,,,,10,wg-a,,0,,AAXX 24184 07190 12445 82304 11010 21040 30054 40248 53008 60006 71022 885// 91800 333 11007 21037 4/9999=
07190,1998-11-24 21:00:00,-2,1024.4,-0.5,86,-4,6000,3.704,,,180,,,,,,,,,,,wg-a,,,,AAXX 24214 07190 12556 81802 11020 21040 30049 40244 58005 60006 885// 92100=
07190,1998-11-25 00:00:00,-2,1023.7,-0.7,86,-4,6000,3.704,,,210,,,,,,,,,,,wg-a,,,,AAXX 25004 07190 12556 82102 11020 21040 30042 40237 56007 60006 875// 90000=
07190,1998-11-25 03:00:00,-3,1022.5,-1.2,86,-5,6000,3.704,,,190,,,,,,,,,,,wg-a,,,,AAXX 25034 07190 12556 81902 11030 21050 30030 40225 58012 60006 875// 90300=
07190,1998-11-25 06:00:00,-5,1021.8,-0.8,93,-6,4000,3.704,,,230,-5.1,-1.4,,,,,,,,10,wg-a,,0,,AAXX 25064 07190 02740 72302 11050 21060 30022 40218 58008 60006 71022 82502 90600 333 11014 21051 4/9999 60004=
07190,1998-11-25 09:00:00,-4,1019.9,-1.8,93,-5,2500,0,,,0,,,,,,,,,,10,wg-a,,,,AAXX 25094 07190 12725 80000 11040 21050 30004 40199 58018 60006 71022 83502 90900=
07190,1998-11-25 12:00:00,-1,1017.8,-1.9,80,-4,2500,7.408,,,330,,,,,,,,,,10,wg-a,,,,AAXX 25124 07190 12/25 83304 11010 21040 39985 40178 58019 60006 71022 86072 91200=
07190,1998-11-25 15:00:00,-1,1017.3,-0.4,86,-3,2500,3.704,,,320,,,,,,,,,,10,wg-a,,,,AAXX 25154 07190 12/25 83202 11010 21030 39981 40173 55004 60006 71022 85022 91500=
07190,1998-11-25 18:00:00,-1,1018.4,1,86,-3,2500,3.704,,,300,-5,-0.4,,,,,,,,10,wg-a,,0,,AAXX 25184 07190 12725 83002 11010 21030 39991 40184 53010 60006 71022 86522 91800 333 11004 21050 4/9999=
07190,1998-11-25 21:00:00,-1,1019.3,0.9,86,-3,3000,3.704,,,300,,,,,,,,,,10,wg-a,,,,AAXX 25214 07190 12730 73002 11010 21030 30000 40193 53009 60006 71022 8/500 92100=
07190,1998-11-26 00:00:00,-2,1020.4,1,93,-3,3000,3.704,,,230,,,,,,,,,,10,wg-a,,,,AAXX 26004 07190 12730 82302 11020 21030 30010 40204 52010 60006 71022 8353/ 90000=
07190,1998-11-26 03:00:00,-2,1021,0.6,93,-3,4000,0,,,0,,,,,,,,,,,wg-a,,,,AAXX 26034 07190 12740 80000 11020 21030 30016 40210 53006 60006 8357/ 90300=
07190,1998-11-26 06:00:00,-1,1022,1,86,-3,4000,0,,,0,-1.8,-0.9,,,,,,,,10,wg-a,,0,,AAXX 26064 07190 02740 80000 11010 21030 30026 40220 51010 60006 71022 8253/ 90600 333 11009 21018 4/9999 60004=
07190,1998-11-26 09:00:00,0,1023.8,1.9,80,-3,2500,0,,,0,,,,,,,,,,10,wg-a,,,,AAXX 26094 07190 12625 80000 10000 21030 30045 40238 51019 60006 71022 8557/ 90900=
07190,1998-11-26 12:00:00,3,1023.3,-0.3,70,-2,3500,7.408,,,190,,,,,,,,,,10,wg-a,,,,AAXX 26124 07190 12635 21904 10030 21020 30042 40233 58003 60006 71011 81530 91200=
07190,1998-11-26 15:00:00,2,1023.2,-0.2,75,-2,4000,3.704,,,190,,,,,,,,,,10,wg-a,,,,AAXX 26154 07190 12640 61902 10020 21020 30040 40232 55002 60006 71011 81530 91500=
07190,1998-11-26 18:00:00,0,1023.4,0.1,86,-2,3500,7.408,,,220,-1.4,3.4,,,,,,,,10,wg-a,,,,AAXX 26184 07190 12635 72204 10000 21020 30041 40234 50001 60006 71011 82532 91800 333 10034 21014=
07190,1998-11-26 21:00:00,1,1022.3,-1,93,0,3000,11.112,,,210,,,,,,,,,,10,wg-a,,,,AAXX 26214 07190 02630 72106 10010 20000 30031 40223 55010 61000 71076 8457/ 92100 333 ////=
07190,1998-11-27 00:00:00,2,1019.2,-3,93,1,3000,29.632,,,180,,,,1,,,,,,10,wg-a,,,,AAXX 27004 07190 02530 81816 10020 20010 30001 40192 58030 60016 71076 8657/ 90000 333 60017=
07190,1998-11-27 03:00:00,2,1017.9,-1.3,93,1,3000,22.224,,,170,,,,2,,,,,,60,wg-a,,,,AAXX 27034 07190 12530 81712 10020 20010 39988 40179 56013 60027 76062 875// 90300=
07190,1998-11-27 06:00:00,2,1017.8,-0,100,2,4000,11.112,,,190,0.4,2.3,,,,,,,,21,wg-a,,,,AAXX 27064 07190 02440 81906 10020 20020 39988 40178 55000 61000 72162 875// 90600 333 10023 20004 6002=
07190,1998-11-27 09:00:00,3,1018.5,0.7,93,2,9000,3.704,,,210,,,,,,,,,,,wg-a,,,,AAXX 27094 07190 12559 82102 10030 20020 39995 40185 53007 60006 875// 90900=
07190,1998-11-27 12:00:00,5,1019,0.6,93,4,10000,7.408,,,190,,,,,,,,,,,wg-a,,,,AAXX 27124 07190 12460 71904 10050 20040 30001 40190 51006 60006 875// 91200=
07190,1998-11-27 15:00:00,5,1019.8,0.8,93,4,8000,0,,,0,,,,1,,,,,,60,wg-a,,,,AAXX 27154 07190 12458 80000 10050 20040 30009 40198 53008 60017 76062 875// 91500=
07190,1998-11-27 18:00:00,3,1021.5,1.6,100,3,6000,3.704,,,190,1.9,5.5,,,,,,,,1,wg-a,,,,AAXX 27184 07190 02556 71902 10030 20030 30025 40215 51016 60006 70162 875// 91800 333 10055 20019 61000=
07190,1998-11-27 21:00:00,3,1022.7,1.1,93,2,800,3.704,,,160,,,,,,,,,,10,wg-a,,,,AAXX 27214 07190 12/08 91602 10030 20020 30036 40227 53011 60006 71042 89/// 92100=
07190,1998-11-28 00:00:00,1,1023.1,0.3,100,1,400,3.704,,,170,,,,,,,,,,45,wg-a,,,,AAXX 28004 07190 12/04 91702 10010 20010 30039 40231 50003 60006 74542 89/// 90000=
07190,1998-11-28 03:00:00,1,1023.2,0.1,100,1,200,3.704,,,250,,,,,,,,,,45,wg-a,,,,AAXX 28034 07190 12/02 92502 10010 20010 30040 40232 50001 60006 74542 89/// 90300=
07190,1998-11-28 06:00:00,1,1023.7,0.4,100,1,600,7.408,,,230,0.3,3.3,,,,,1,,,43,wg-a,,,,AAXX 28064 07190 02/06 92304 10010 20010 30044 40237 53004 60006 74342 89/// 90600 333 10033 20003 60014=
07190,1998-11-28 12:00:00,1,1022,-1.5,100,1,1000,7.408,,,130,,,,,,,,,,28,wg-a,,,,AAXX 28124 07190 12110 91304 10010 20010 30028 40220 58015 60006 72842 896// 91200=
07190,1998-11-28 15:00:00,2,1020.6,-1.3,100,2,2500,11.112,,,160,,,,,,,,,,10,wg-a,,,,AAXX 28154 07190 12125 /1606 10020 20020 30015 40206 56013 60006 71042 876// 91500=
07190,1998-11-28 18:00:00,1,1020,-0.6,100,1,3200,7.408,,,150,-0.4,1.7,,,,,,,,10,wg-a,,,,AAXX 28184 07190 12132 81504 10010 20010 30009 40200 56006 60006 71042 886// 91800 333 10017 21004=
07190,1998-11-28 21:00:00,0,1018.1,-2,93,-1,800,7.408,,,150,,,,,,,,,,45,wg-a,,,,AAXX 28214 07190 12/08 91504 10000 21010 39989 40181 57020 60006 74542 89/// 92100=
07190,1998-11-29 00:00:00,-1,1016.5,-1.7,100,-1,800,0,,,0,,,,,,,,,,45,wg-a,,,,AAXX 29004 07190 12/08 90000 11010 21010 39972 40165 58017 60006 74542 89/// 90000=
07190,1998-11-29 03:00:00,-1,1014.9,-1.5,100,-1,900,0,,,0,,,,,,,,,,43,wg-a,,,,AAXX 29034 07190 12/09 90000 11010 21010 39957 40149 57015 60006 74342 89/// 90300=
07190,1998-11-29 06:00:00,-1,1014.3,-1.6,100,-1,400,0,,,0,-1.4,1.3,,,,,,,,45,wg-a,,,,AAXX 29064 07190 02/04 90000 11010 21010 39951 40143 56016 61000 74574 89/// 90600 333 10013 21014 6100=
07190,1998-11-29 09:00:00,0,1014.5,0.2,100,0,900,0,,,0,,,,1,,,,,,71,wg-a,,,,AAXX 29094 07190 12209 80000 10000 20000 39953 40145 53002 60017 77177 887// 90900=
07190,1998-11-29 12:00:00,1,1013.9,-0.5,100,1,1000,0,,,0,,,,1,,,,,,10,wg-a,,,,AAXX 29124 07190 02210 80000 10010 20010 39948 40139 58005 60026 71077 887// 91200 333 60017=
07190,1998-11-29 15:00:00,1,1014.5,0.6,100,1,1300,7.408,,,350,,,,0,,,,,,10,wg-a,,,,AAXX 29154 07190 12213 83504 10010 20010 39954 40145 53006 60007 71077 887// 91500=
07190,1998-11-29 18:00:00,0,1015.9,1.4,100,0,1800,7.408,,,340,-0.6,1,,,,,,,,10,wg-a,,,,AAXX 29184 07190 02218 83404 10000 20000 39968 40159 53014 61000 71077 887// 91800 333 10010 21006 6000=
07190,1998-11-29 21:00:00,0,1017.2,1.2,100,0,4500,7.408,,,310,,,,1,,,,,,10,wg-a,,,,AAXX 29214 07190 12245 83104 10000 20000 39980 40172 51012 60017 71072 885// 92100=
07190,1998-11-30 00:00:00,1,1018.2,1,93,0,7000,11.112,,,340,,,,,,,,,,1,wg-a,,,,AAXX 30004 07190 12557 83406 10010 20000 39990 40182 51010 60016 70172 885// 90000=
07190,1998-11-30 03:00:00,1,1019.1,0.9,86,-1,7000,14.816,,,350,,,,,,,,,,,wg-a,,,,AAXX 30034 07190 12557 83508 10010 21010 39999 40191 51009 60006 885// 90300=
07190,1998-11-30 06:00:00,1,1020.6,1.5,86,-1,7000,14.816,,,360,0.2,0.7,,,,,3,,,,wg-a,,1,,AAXX 30064 07190 02557 83608 10010 21010 30014 40206 53015 60006 885// 90600 333 10007 20002 4/001 60034=
07190,1998-11-30 09:00:00,1,1022.6,1.9,80,-2,9000,18.52,,,20,,,,,,,,,,,wg-a,,,,AAXX 30094 07190 12659 80210 10010 21020 30033 40226 51019 60006 885// 90900=
07190,1998-11-30 12:00:00,1,1023.2,0.7,86,-1,9000,18.52,,,10,,,,,,,,,,,wg-a,,,,AAXX 30124 07190 12659 80110 10010 21010 30040 40232 51007 60006 885// 91200=
07190,1998-11-30 15:00:00,1,1023.6,0.4,86,-1,9000,18.52,,,20,,,,,,,,,,,wg-a,,,,AAXX 30154 07190 12659 80210 10010 21010 30044 40236 53004 60006 885// 91500=
07190,1998-11-30 18:00:00,1,1025.5,1.8,86,-1,7000,18.52,,,20,0.4,1.4,,,,,,,,,wg-a,,0,,AAXX 30184 07190 12457 /0210 10010 21010 30062 40255 52018 60006 85500 91800 333 10014 20004 4/9999=
07190,1998-11-30 21:00:00,1,1026.9,1.4,86,-1,6000,18.52,,,10,,,,,,,,,,,wg-a,,,,AAXX 30214 07190 12556 70110 10010 21010 30076 40269 51014 60006 875// 92100=
07190,1998-12-01 00:00:00,1,1027.9,1,93,0,6000,22.224,,,30,,,,,,,,,,,wg-a,,,,AAXX 01004 07190 12456 70312 10010 20000 30086 40279 51010 60006 875// 90000=
07190,1998-12-01 03:00:00,2,1028.2,0.3,87,0,7000,22.224,,,20,,,,,,,,,,,wg-a,,,,AAXX 01034 07190 12457 70212 10020 20000 30089 40282 53003 60006 875// 90300=
07190,1998-12-01 06:00:00,2,1028.7,0.5,87,0,8000,25.928,,,20,0.5,2.2,,,,,,,,,wg-a,,,,AAXX 01064 07190 02458 70214 10020 20000 30094 40287 53005 60006 875// 90600 333 10022 20005 60004=
07190,1998-12-01 12:00:00,2,1029.7,-0.4,80,-1,7000,25.928,,,20,,,,,,,,,,,wg-a,,,,AAXX 01124 07190 12557 70214 10020 21010 30104 40297 58004 60006 875// 91200=
07190,1998-12-01 15:00:00,0,1029.5,-0.3,86,-2,6000,29.632,,,30,,,,,,,,,,,wg-a,,,,AAXX 01154 07190 12456 70316 10000 21020 30101 40295 56003 60006 878// 91500=
07190,1998-12-01 18:00:00,0,1029.3,-0.2,80,-3,6000,25.928,,,20,-0.2,2,,,,,,,,,wg-a,,,,AAXX 01184 07190 12456 80214 10000 21030 30099 40293 57002 60006 888// 91800 333 10020 21002=
07190,1998-12-01 21:00:00,-1,1029.5,0.1,86,-3,7000,25.928,,,30,,,,,,,,,,,wg-a,,,,AAXX 01214 07190 12557 80314 11010 21030 30100 40295 51001 60006 885// 92100=
07190,1998-12-02 00:00:00,-1,1028.9,-0.6,80,-4,500,22.224,,,20,,,,,,,,,,,wg-a,,,,AAXX 02004 07190 12500 80212 11010 21040 30094 40289 58006 60006 885// 90000=
07190,1998-12-02 03:00:00,-1,1027.8,-1.1,80,-4,500,22.224,,,30,,,,,,,,,,,wg-a,,,,AAXX 02034 07190 12500 80312 11010 21040 30083 40278 58011 60006 885// 90300=
07190,1998-12-02 06:00:00,-2,1027.5,-0.3,86,-4,6000,22.224,,,30,-1.5,-0.1,,,,,,,,,wg-a,,,,AAXX 02064 07190 02556 80312 11020 21040 30080 40275 57003 60006 885// 90600 333 11001 21015 60004=
07190,1998-12-02 09:00:00,-1,1027.9,0.4,80,-4,6000,14.816,,,30,,,,,,,,,,,wg-a,,,,AAXX 02094 07190 12556 80308 11010 21040 30084 40279 51004 60006 885// 90900=
07190,1998-12-02 12:00:00,-1,1027,-0.8,86,-3,500,14.816,,,40,,,,,,,,,,26,wg-a,,,,AAXX 02124 07190 02500 80408 11010 21030 30076 40270 58008 61000 72687 885// 91200 333 6100=
07190,1998-12-02 15:00:00,0,1026.6,-0.4,80,-3,4500,7.408,,,20,,,,,,,,,,10,wg-a,,,,AAXX 02154 07190 12545 80204 10000 21030 30072 40266 55004 60006 71022 885// 91500=
07190,1998-12-02 18:00:00,-1,1026.5,-0.1,86,-3,4000,7.408,,,20,-1.5,-0.1,,,,,,,,10,wg-a,,,,AAXX 02184 07190 12540 80204 11010 21030 30071 40265 58001 60006 71022 885// 91800 333 11001 21015=
07190,1998-12-02 21:00:00,-1,1026.6,0.1,86,-3,6000,3.704,,,120,,,,,,,,,,,wg-a,,,,AAXX 02214 07190 12556 71202 11010 21030 30072 40266 53001 60006 875// 92100=
07190,1998-12-03 00:00:00,-3,1026.2,-0.6,86,-5,6000,3.704,,,70,,,,,,,,,,11,wg-a,,,,AAXX 03004 07190 12/56 20702 11030 21050 30066 40262 56006 60006 71111 81031 90000=
07190,1998-12-03 03:00:00,-4,1025.2,-1.1,93,-5,500,0,,,0,,,,,,,,,,11,wg-a,,,,AAXX 03034 07190 12/00 20000 11040 21050 30055 40252 58011 60006 711// 80001 90300=
07190,1998-12-03 06:00:00,-6,1024.3,-0.9,100,-6,4000,3.704,,,180,-5.5,-0.6,,,,,,,,10,wg-a,,,,AAXX 03064 07190 02340 /1802 11060 21060 30046 40243 56009 60006 71000 81600 90600 333 11006 21055 61000=
07190,1998-12-03 09:00:00,-4,1024.2,-0,100,-4,700,0,,,0,,,,,,,,,,49,wg-a,,,,AAXX 03094 07190 12/07 90000 11040 21040 30046 40242 55000 60006 74941 89/// 90900=
07190,1998-12-03 12:00:00,-2,1021.6,-2.4,93,-3,3500,3.704,,,20,,,,,,,,,,10,wg-a,,,,AAXX 03124 07190 12335 80202 11020 21030 30022 40216 58024 60006 71041 886// 91200=
07190,1998-12-03 15:00:00,-2,1019.7,-1.9,93,-3,3000,0,,,0,,,,,,,,,,10,wg-a,,,,AAXX 03154 07190 12330 80000 11020 21030 30003 40197 56019 60006 71022 886// 91500=
07190,1998-12-03 21:00:00,-2,1017.7,-0.9,93,-3,2000,11.112,,,10,,,,,,,,,,,wg-a,,,,AAXX 03214 07190 12/20 /0106 11020 21030 39983 40177 58009 60006 92100=
07190,1998-12-04 00:00:00,-3,1015.6,-2.1,100,-3,900,0,,,0,,,,,,,,,,48,wg-a,,,,AAXX 04004 07190 12109 80000 11030 21030 39962 40156 58021 60006 74842 886// 90000=
07190,1998-12-04 03:00:00,-3,1013.4,-2.1,100,-3,900,3.704,,,180,,,,,,,,,,48,wg-a,,,,AAXX 04034 07190 12109 81802 11030 21030 39941 40134 56021 60006 74844 886// 90300=
07190,1998-12-04 06:00:00,-2,1011,-2.3,93,-3,1100,7.408,,,160,-2.8,-2.1,,,,,,,,10,wg-a,,,,AAXX 04064 07190 02211 81604 11020 21030 39918 40110 56023 60006 71042 886// 90600 333 11021 21028 60004=
07190,1998-12-04 12:00:00,-2,1009.2,-0.8,93,-3,3000,7.408,,,190,,,,,,,,,,10,wg-a,,,,AAXX 04124 07190 02230 81904 11020 21030 39901 40092 58008 61000 71072 886// 91200 333 6100=
07190,1998-12-04 15:00:00,-1,1008.9,-0.3,93,-2,2500,7.408,,,250,,,,,,,,,,10,wg-a,,,,AAXX 04154 07190 02125 82504 11010 21020 39898 40089 58003 61000 71072 885// 91500 333 ////=
07190,1998-12-04 18:00:00,-1,1009.6,0.7,93,-2,2000,7.408,,,190,-2.4,-0.9,,,,,,,,10,wg-a,,1,,AAXX 04184 07190 02220 81904 11010 21020 39905 40096 53007 61000 71072 885// 91800 333 11009 21024 4/001 6000=
07190,1998-12-04 21:00:00,-1,1011,1.3,86,-3,7000,3.704,,,160,,,,0,,,,,,1,wg-a,,,,AAXX 04214 07190 12557 71602 11010 21030 39918 40110 51013 60007 70172 875// 92100=
07190,1998-12-05 00:00:00,0,1011.5,0.6,86,-2,9000,14.816,,,220,,,,,,,,,,3,wg-a,,,,AAXX 05004 07190 02459 82208 10000 21020 39924 40115 51006 60006 70372 875// 90000 333 61000=
07190,1998-12-05 03:00:00,0,1010.5,-1,93,-1,3000,18.52,,,180,,,,,,,,,,71,wg-a,,,,AAXX 05034 07190 02230 81810 10000 21010 39914 40105 58010 61000 77172 876// 90300 333 ////=
07190,1998-12-05 06:00:00,0,1010.2,-0.3,100,0,1800,3.704,,,220,-1.7,0.7,,,,,,,,71,wg-a,,4,,AAXX 05064 07190 02218 82202 10000 20000 39911 40102 57003 61000 77187 877// 90600 333 10007 21017 4/004 6002=
07190,1998-12-05 09:00:00,1,1011.3,1.2,93,0,8000,11.112,,,230,,,,0,,,,,,22,wg-a,,,,AAXX 05094 07190 12358 82306 10010 20000 39923 40113 53012 60007 72272 878// 90900=
07190,1998-12-05 12:00:00,2,1012.1,0.9,80,-1,10000,22.224,,,260,,,,,,,,,,26,wg-a,,,,AAXX 05124 07190 02460 /2612 10020 21010 39932 40121 51009 60016 72687 86800 91200 333 61000=
07190,1998-12-05 15:00:00,1,1012.9,0.7,80,-2,500,22.224,,,260,,,,,,,,,,71,wg-a,,,,AAXX 05154 07190 02400 72612 10010 21020 39939 40129 53007 61000 77172 878// 91500 333 ////=
07190,1998-12-05 18:00:00,0,1013.6,0.6,93,-1,4000,22.224,,,250,0,2.6,,,,,,,,71,wg-a,,1,,AAXX 05184 07190 02440 82512 10000 21010 39945 40136 51006 61000 77172 878// 91800 333 10026 20000 4/001 6100=
07190,1998-12-05 21:00:00,0,1013.4,-0.2,100,0,1500,18.52,,,200,,,,0,,,,,,75,wg-a,,,,AAXX 05214 07190 12415 82010 10000 20000 39943 40134 58002 60007 77577 885// 92100=
07190,1998-12-06 00:00:00,0,1013.4,-0,100,0,8000,11.112,,,260,,,,1,,,,,,0,wg-a,,,,AAXX 06004 07190 02358 82606 10000 20000 39943 40134 55000 60016 70072 878// 90000 333 60017=
07190,1998-12-06 03:00:00,0,1014.8,1.4,86,-2,15000,11.112,,,260,,,,,,,,,,,wg-a,,,,AAXX 06034 07190 12565 72606 10000 21020 39957 40148 53014 60006 875// 90300=
07190,1998-12-06 06:00:00,0,1016.9,2,86,-2,20000,14.816,,,280,-0.5,1,,,,,2,,,,wg-a,,5,,AAXX 06064 07190 02570 72808 10000 21020 39977 40169 53020 60006 878// 90600 333 10010 21005 4/005 60024=
07190,1998-12-06 09:00:00,0,1019.6,2.7,86,-2,9000,7.408,,,230,,,,,,,,,,70,wg-a,,,,AAXX 06094 07190 02459 72304 10000 21020 30004 40196 51027 61000 77072 878// 90900 333 ////=
07190,1998-12-06 12:00:00,2,1020,0.5,69,-3,20000,22.224,,,260,,,,,,,,,,3,wg-a,,,,AAXX 06124 07190 02570 52612 10020 21030 30009 40200 51005 61000 70372 85800 91200 333 6100=
07190,1998-12-06 15:00:00,1,1022.1,2,80,-2,20000,11.112,,,270,,,,,,,,,,,wg-a,,,,AAXX 06154 07190 12570 52706 10010 21020 30029 40221 53020 60006 85800 91500=
07190,1998-12-06 18:00:00,1,1023.7,1.6,80,-2,15000,18.52,,,280,-0.3,2.4,,,,,,,,,wg-a,,3,,AAXX 06184 07190 12565 /2810 10010 21020 30045 40237 51016 60006 86500 91800 333 10024 21003 4/003=
07190,1998-12-06 21:00:00,0,1025.6,1.7,80,-3,13000,14.816,,,280,,,,,,,,,,,wg-a,,,,AAXX 06214 07190 12563 32808 10000 21030 30062 40256 51017 60006 83800 92100=
07190,1998-12-07 00:00:00,0,1026.7,1.1,80,-3,8000,11.112,,,260,,,,,,,,,,85,wg-a,,,,AAXX 07004 07190 02558 /2606 10000 21030 30073 40267 53011 61000 78587 85800 90000 333 6100=
07190,1998-12-07 03:00:00,-1,1026.8,0.1,93,-2,9000,14.816,,,160,,,,,,,,,,3,wg-a,,,,AAXX 07034 07190 02559 71608 11010 21020 30074 40268 53001 61000 70387 875// 90300 333 ////=
07190,1998-12-07 06:00:00,0,1026.8,-0,86,-2,7000,14.816,,,190,-1.6,1.4,,,,,,,,3,wg-a,,3,,AAXX 07064 07190 02557 71908 10000 21020 30074 40268 54000 60006 70387 875// 90600 333 10014 21016 4/003 61000=
07190,1998-12-07 09:00:00,1,1028,1.3,86,-1,7000,14.816,,,210,,,,,,,,,,2,wg-a,,,,AAXX 07094 07190 02557 82108 10010 21010 30087 40280 51013 61000 70272 875// 90900 333 ////=
07190,1998-12-07 12:00:00,2,1028.1,0.1,80,-1,8000,7.408,,,270,,,,,,,,,,1,wg-a,,,,AAXX 07124 07190 02558 82704 10020 21010 30088 40281 50001 61000 70172 875// 91200 333 ////=
07190,1998-12-07 15:00:00,2,1029.2,1.1,80,-1,10000,7.408,,,260,,,,,,,,,,26,wg-a,,,,AAXX 07154 07190 02560 82604 10020 21010 30099 40292 53011 61000 72687 875// 91500 333 ////=
07190,1998-12-07 18:00:00,-1,1030.7,1.3,86,-3,12000,3.704,,,190,-0.9,2.2,,,,,,,,1,wg-a,,2,,AAXX 07184 07190 12562 /1902 11010 21030 30112 40307 52013 60006 70187 8457/ 91800 333 10022 21009 4/002=
07190,1998-12-07 21:00:00,0,1032.1,1.4,86,-2,15000,3.704,,,140,,,,,,,,,,,wg-a,,,,AAXX 07214 07190 12565 71402 10000 21020 30126 40321 51014 60006 875// 92100=
07190,1998-12-08 00:00:00,-2,1032.6,0.4,93,-3,15000,3.704,,,190,,,,,,,,,,,wg-a,,,,AAXX 08004 07190 12565 /1902 11020 21030 30130 40326 51004 60006 86500 90000=
07190,1998-12-08 03:00:00,-2,1033.2,0.6,93,-3,7000,3.704,,,170,,,,,,,,,,,wg-a,,,,AAXX 08034 07190 12757 71702 11020 21030 30136 40332 51006 60006 875// 90300=
07190,1998-12-08 06:00:00,-3,1033.7,0.4,100,-3,6000,7.408,,,140,-2.9,0.3,,,,,,,,,wg-a,,1,,AAXX 08064 07190 02756 71404 11030 21030 30140 40337 53004 60006 875// 90600 333 10003 21029 4/001 61000=
07190,1998-12-08 09:00:00,-1,1034.2,0.6,93,-2,6000,7.408,,,180,,,,,,,,,,,wg-a,,,,AAXX 08094 07190 12656 /1804 11010 21020 30146 40342 51006 60006 85500 90900=
07190,1998-12-08 12:00:00,1,1032.9,-1.1,80,-2,8000,7.408,,,160,,,,,,,,,,,wg-a,,,,AAXX 08124 07190 12658 /1604 10010 21020 30135 40329 58011 60006 84501 91200=
07190,1998-12-08 18:00:00,-4,1033.3,0.9,93,-5,7000,0,,,0,-3.5,1.5,,,,,,,,11,wg-a,,1,,AAXX 08184 07190 12/57 30000 11040 21050 30135 40333 51009 60006 71111 80001 91800 333 10015 21035 4/001=
07190,1998-12-08 21:00:00,-6,1033.2,-0.3,93,-7,1500,3.704,,,150,,,,,,,,,,10,wg-a,,,,AAXX 08214 07190 12/15 31502 11060 21070 30132 40332 58003 60006 71000 80001 92100=
07190,1998-12-09 00:00:00,-6,1032,-1.1,93,-7,3000,3.704,,,280,,,,,,,,,,10,wg-a,,,,AAXX 09004 07190 12/30 72802 11060 21070 30121 40320 58011 60006 71011 85032 90000=
07190,1998-12-09 03:00:00,-4,1031,-0.9,93,-5,4000,0,,,0,,,,,,,,,,,wg-a,,,,AAXX 09034 07190 12/40 80000 11040 21050 30112 40310 56009 60006 8707/ 90300=
07190,1998-12-09 06:00:00,-4,1030,-0.9,93,-5,500,3.704,,,40,-6.8,-3.4,,,,,,,,,wg-a,,,,AAXX 09064 07190 02/00 /0402 11040 21050 30103 40300 56009 60006 90600 333 11034 21068 60004=
07190,1998-12-09 09:00:00,-2,1029.8,-0.1,86,-4,7000,7.408,,,170,,,,,,,,,,,wg-a,,,,AAXX 09094 07190 12757 71704 11020 21040 30102 40298 58001 60006 8557/ 90900=
07190,1998-12-09 12:00:00,-1,1028.8,-0.9,86,-3,7000,7.408,,,160,,,,0,,,,,,79,wg-a,,,,AAXX 09124 07190 02557 71604 11010 21030 30093 40288 58009 60006 77972 8557/ 91200 333 60007=
07190,1998-12-09 15:00:00,-1,1028.8,-0,93,-2,3500,7.408,,,150,,,,1,,,,,,71,wg-a,,,,AAXX 09154 07190 12535 81504 11010 21020 30093 40288 55000 60017 77177 8357/ 91500=
07190,1998-12-09 18:00:00,-1,1028.2,-0.6,93,-2,2000,11.112,,,160,-3.8,-0.7,,,,,,,,71,wg-a,,4,,AAXX 09184 07190 02420 81606 11010 21020 30087 40282 58006 61000 77177 8577/ 91800 333 11007 21038 4/004 6001=
07190,1998-12-09 21:00:00,-1,1027.6,-0.5,100,-1,2000,3.704,,,160,,,,0,,,,,,77,wg-a,,,,AAXX 09214 07190 12220 81602 11010 21010 30082 40276 56005 60007 77777 877// 92100=
07190,1998-12-10 00:00:00,0,1026.9,-0.7,93,-1,1800,3.704,,,120,,,,0,,,,,,56,wg-a,,,,AAXX 10004 07190 02218 81202 10000 21010 30075 40269 56007 60016 75675 877// 90000 333 60007=
07190,1998-12-10 03:00:00,0,1025.4,-1.4,100,0,2000,7.408,,,170,,,,0,,,,,,10,wg-a,,,,AAXX 10034 07190 12220 81704 10000 20000 30061 40254 58014 60007 71052 877// 90300=
07190,1998-12-10 06:00:00,0,1024.5,-0.9,100,0,2000,0,,,0,-0.8,0.3,,,,,,,,10,wg-a,,3,,AAXX 10064 07190 02120 80000 10000 20000 30052 40245 56009 61000 71065 875// 90600 333 10003 21008 4/003 6004=
07190,1998-12-10 09:00:00,0,1024.2,-0.3,100,0,1800,3.704,,,150,,,,0,,,,,,10,wg-a,,,,AAXX 10094 07190 12118 81502 10000 20000 30049 40242 55003 60007 71065 885// 90900=
07190,1998-12-10 12:00:00,1,1022.8,-1.3,100,1,1300,0,,,0,,,,2,,,,,,10,wg-a,,,,AAXX 10124 07190 02213 80000 10010 20010 30036 40228 58013 60036 71065 885// 91200 333 60027=
07190,1998-12-10 15:00:00,1,1021.8,-1,100,1,600,0,,,0,,,,1,,,,,,61,wg-a,,,,AAXX 10154 07190 12106 80000 10010 20010 30026 40218 56010 60017 76166 885// 91500=
07190,1998-12-10 18:00:00,1,1021.2,-0.6,100,1,900,0,,,0,0.2,1.5,,0,,,,,,44,wg-a,,2,,AAXX 10184 07190 02109 80000 10010 20010 30020 40212 58006 60006 74464 886// 91800 333 10015 20002 4/002 60007=
07190,1998-12-10 21:00:00,1,1020.5,-0.6,100,1,1000,3.704,,,330,,,,,,,,,,,wg-a,,,,AAXX 10214 07190 12/10 /3302 10010 20010 30014 40205 57006 60006 92100=
07190,1998-12-11 00:00:00,1,1018.2,-2.3,100,1,700,7.408,,,230,,,,,,,,,,10,wg-a,,,,AAXX 11004 07190 12/07 92304 10010 20010 39991 40182 58023 60006 71042 89/// 90000=
07190,1998-12-11 03:00:00,1,1016.4,-1.8,100,1,500,3.704,,,320,,,,,,,,,,45,wg-a,,,,AAXX 11034 07190 12/05 93202 10010 20010 39973 40164 56018 60006 74544 89/// 90300=
07190,1998-12-11 06:00:00,1,1016,-0.4,100,1,900,3.704,,,350,0.7,1.5,,,,,,,,45,wg-a,,1,,AAXX 11064 07190 02/09 93502 10010 20010 39969 40160 55004 61000 74564 89/// 90600 333 10015 20007 4/001 6006=
07190,1998-12-11 09:00:00,1,1017.6,1.6,100,1,900,3.704,,,360,,,,2,,,,,,60,wg-a,,,,AAXX 11094 07190 12109 83602 10010 20010 39985 40176 53016 60027 76066 886// 90900=
07190,1998-12-11 12:00:00,1,1018.9,1.3,100,1,1400,3.704,,,10,,,,0,,,,,,10,wg-a,,,,AAXX 11124 07190 02114 80102 10010 20010 39998 40189 51013 60036 71065 885// 91200 333 60007=
07190,1998-12-11 18:00:00,2,1023.3,2.5,100,2,2500,3.704,,,200,0.8,1.9,,0,,,,,,10,wg-a,,0,,AAXX 11184 07190 02125 82002 10020 20020 30041 40233 53025 60006 71062 875// 91800 333 10019 20008 4/9999 60007=
07190,1998-12-11 21:00:00,2,1024.6,1.3,93,1,2500,0,,,0,,,,,,,,,,10,wg-a,,,,AAXX 11214 07190 12525 70000 10020 20010 30054 40246 51013 60006 71022 875// 92100=
07190,1998-12-12 00:00:00,2,1025.1,0.5,93,1,2000,3.704,,,250,,,,,,,,,,10,wg-a,,,,AAXX 12004 07190 12520 72502 10020 20010 30059 40251 51005 60006 71022 875// 90000=
07190,1998-12-12 03:00:00,2,1025.9,0.8,100,2,2000,3.704,,,170,,,,,,,,,,10,wg-a,,,,AAXX 12034 07190 12520 /1702 10020 20020 30067 40259 51008 60006 71022 85500 90300=
07190,1998-12-12 06:00:00,3,1025.9,0.1,100,3,6000,14.816,,,180,1.3,3,,,,,3,,,,wg-a,,,,AAXX 12064 07190 02656 71808 10030 20030 30068 40259 51001 60006 8457/ 90600 333 10030 20013 60034=
07190,1998-12-12 09:00:00,4,1025.7,-0.1,93,3,9000,22.224,,,180,,,,,,,,,,60,wg-a,,,,AAXX 12094 07190 02659 71812 10040 20030 30067 40257 56001 61000 76062 8557/ 90900 333 ////=
07190,1998-12-12 12:00:00,5,1023.9,-1.7,87,3,15000,18.52,,,180,,,,,,,,,,51,wg-a,,,,AAXX 12124 07190 02465 81810 10050 20030 30050 40239 58017 61000 75165 8557/ 91200 333 6100=
07190,1998-12-12 15:00:00,6,1023.3,-0.6,93,5,15000,25.928,,,170,,,,0,,,,,,3,wg-a,,,,AAXX 12154 07190 12565 81714 10060 20050 30044 40233 55006 60007 70365 8557/ 91500=
07190,1998-12-12 18:00:00,6,1023.8,0.5,100,6,7000,18.52,,,170,2.8,6.7,,,,,,,,58,wg-a,,,,AAXX 12184 07190 02457 81710 10060 20060 30049 40238 53005 61000 75865 885// 91800 333 10067 20028 6002=
07190,1998-12-12 21:00:00,8,1023.6,-0,93,7,10000,25.928,,,170,,,,,,,,,,1,wg-a,,,,AAXX 12214 07190 02460 81714 10080 20070 30049 40236 55000 61000 70165 875// 92100 333 ////=
07190,1998-12-13 00:00:00,10,1022.6,-0.9,87,8,15000,25.928,,,180,,,,,,,,,,60,wg-a,,,,AAXX 13004 07190 02365 81814 10100 20080 30040 40226 58009 61000 76065 878// 90000 333 6100=
07190,1998-12-13 06:00:00,13,1025.3,2.3,72,8,18000,25.928,,,250,6.4,13.4,,,,,4,,,1,wg-a,,,,AAXX 13064 07190 02568 32514 10130 20080 30069 40253 53023 60006 70186 83100 90600 333 10134 20064 60044=
07190,1998-12-13 09:00:00,12,1029.5,4,67,6,25000,29.632,,46.3,250,,,,,,,,,,,wg-a,,,,AAXX 13094 07190 12675 82516 10120 20060 30109 40295 51040 60006 85130 90900 333 91025=
07190,1998-12-13 12:00:00,12,1031.5,1.9,58,4,500,22.224,,,240,,,,,,,,,,,wg-a,,,,AAXX 13124 07190 12600 72412 10120 20040 30128 40315 51019 60006 84172 91200=
07190,1998-12-13 15:00:00,11,1033.7,2.2,62,4,500,18.52,,38.892,250,,,,,,,,,,,wg-a,,,,AAXX 13154 07190 12600 /2510 10110 20040 30150 40337 53022 60006 81132 91500 333 91021=
07190,1998-12-13 18:00:00,8,1035.5,1.5,76,4,500,11.112,,,210,7.5,13.4,,,,,,,,,wg-a,,,,AAXX 13184 07190 12600 32106 10080 20040 30165 40355 51015 60006 81532 91800 333 10134 20075=
07190,1998-12-13 21:00:00,7,1035.4,-0.1,81,4,25000,3.704,,,180,,,,,,,,,,,wg-a,,,,AAXX 13214 07190 12/75 41802 10070 20040 30164 40354 58001 60006 83032 92100=
07190,1998-12-14 00:00:00,5,1034.7,-0.9,87,3,20000,3.704,,,150,,,,,,,,,,,wg-a,,,,AAXX 14004 07190 12/70 71502 10050 20030 30155 40347 58009 60006 85032 90000=
07190,1998-12-14 06:00:00,6,1033.6,-0.6,87,4,15000,3.704,,,210,4.8,7.6,,,,,,,,,wg-a,,,,AAXX 14064 07190 02765 72102 10060 20040 30145 40336 56006 60006 82532 90600 333 10076 20048 60004=
07190,1998-12-14 09:00:00,7,1034,0.5,93,6,500,3.704,,,220,,,,,,,,,,,wg-a,,,,AAXX 14094 07190 12600 62202 10070 20060 30150 40340 52005 60006 84532 90900=
07190,1998-12-14 12:00:00,10,1032.7,-1.1,76,6,500,11.112,,,170,,,,,,,,,,,wg-a,,,,AAXX 14124 07190 12600 71706 10100 20060 30139 40327 58011 60006 85572 91200=
07190,1998-12-14 15:00:00,11,1032,,76,7,20000,11.112,,,160,,,,,,,,,,,wg-a,,,,AAXX 14154 07190 32770 /1606 10110 20070 30133 40320 84572 91500=
07190,1998-12-14 18:00:00,10,1032.7,0.6,76,6,15000,7.408,,,170,5.8,10.8,,,,,,,,,wg-a,,,,AAXX 14184 07190 12665 71704 10100 20060 30139 40327 51006 60006 8557/ 91800 333 10108 20058=
07190,1998-12-15 00:00:00,5,1033.1,-0.3,87,3,15000,3.704,,,240,,,,,,,,,,,wg-a,,,,AAXX 15004 07190 12765 12402 10050 20030 30139 40331 57003 60006 81500 90000=
07190,1998-12-15 06:00:00,1,1032,-0.8,100,1,15000,7.408,,,190,1.4,9.6,,,,,,,,,wg-a,,,,AAXX 15064 07190 02665 /1904 10010 20010 30126 40320 56008 60006 81501 90600 333 10096 20014 60004=
07190,1998-12-15 09:00:00,4,1032,0.2,87,2,25000,7.408,,,220,,,,,,,,,,,wg-a,,,,AAXX 15094 07190 12/75 12204 10040 20020 30128 40320 52002 60006 80001 90900=
07190,1998-12-15 12:00:00,10,1029.6,-1.9,76,6,25000,7.408,,,210,,,,,,,,,,,wg-a,,,,AAXX 15124 07190 12/75 12104 10100 20060 30109 40296 58019 60006 80002 91200=
07190,1998-12-15 15:00:00,11,1028.7,-0.9,71,6,25000,3.704,,,160,,,,,,,,,,,wg-a,,,,AAXX 15154 07190 12/75 31602 10110 20060 30100 40287 56009 60006 80002 91500=
07190,1998-12-15 18:00:00,5,1028.7,-0.3,87,3,500,7.408,,,220,1.3,11.9,,,,,,,,,wg-a,,,,AAXX 15184 07190 12/00 12204 10050 20030 30097 40287 58003 60006 80002 91800 333 10119 20013=
07190,1998-12-15 21:00:00,2,1028.7,-0.2,100,2,15000,7.408,,,220,,,,,,,,,,,wg-a,,,,AAXX 15214 07190 12/65 02204 10020 20020 30095 40287 55002 60006 80000 92100=
07190,1998-12-16 00:00:00,3,1029.4,0.7,93,2,8000,11.112,,,180,,,,,,,,,,,wg-a,,,,AAXX 16004 07190 12/58 01806 10030 20020 30102 40294 53007 60006 80000 90000=
07190,1998-12-16 03:00:00,4,1031.6,2.2,93,3,8000,7.408,,,120,,,,,,,,,,,wg-a,,,,AAXX 16034 07190 12458 71204 10040 20030 30124 40316 51022 60006 875// 90300=
07190,1998-12-16 06:00:00,7,1034.6,3.2,87,5,15000,3.704,,,150,1.9,7.6,,,,,,,,,wg-a,,,,AAXX 16064 07190 02565 /1502 10070 20050 30156 40346 51032 60006 86500 90600 333 10076 20019 60004=
07190,1998-12-16 09:00:00,6,1036.6,1.9,93,5,25000,7.408,,,180,,,,,,,,,,,wg-a,,,,AAXX 16094 07190 12575 71804 10060 20050 30175 40366 52019 60006 85801 90900=
07190,1998-12-16 12:00:00,10,1034.3,-2,82,7,20000,3.704,,,120,,,,,,,,,,,wg-a,,,,AAXX 16124 07190 12/70 51202 10100 20070 30155 40343 58020 60006 81031 91200=
07190,1998-12-16 15:00:00,9,1034.4,-0,87,7,20000,3.704,,,350,,,,,,,,,,,wg-a,,,,AAXX 16154 07190 12/70 33502 10090 20070 30155 40344 55000 60006 80001 91500=
07190,1998-12-16 18:00:00,5,1035.5,0.8,93,4,15000,7.408,,,10,4,10.9,,,,,,,,,wg-a,,,,AAXX 16184 07190 12/65 30104 10050 20040 30163 40355 52008 60006 80001 91800 333 10109 20040=
07190,1998-12-16 21:00:00,4,1035.6,0,93,3,300,11.112,,,320,,,,,,,,,,45,wg-a,,,,AAXX 16214 07190 12/03 93206 10040 20030 30163 40356 50000 60006 74541 89/// 92100=
07190,1998-12-17 00:00:00,2,1035.1,-0.6,100,2,300,7.408,,,320,,,,,,,,,,45,wg-a,,,,AAXX 17004 07190 12/03 93204 10020 20020 30157 40351 58006 60006 74541 89/// 90000=
07190,1998-12-17 03:00:00,1,1033.8,-1.4,100,1,300,3.704,,,220,,,,,,,,,,45,wg-a,,,,AAXX 17034 07190 12/03 92202 10010 20010 30143 40338 56014 60006 74542 89/// 90300=
07190,1998-12-17 06:00:00,1,1033,-0.7,100,1,500,7.408,,,240,0.2,5.1,,,,,,,,43,wg-a,,,,AAXX 17064 07190 02/05 92404 10010 20010 30136 40330 55007 60006 74342 89/// 90600 333 10051 20002 60004=
07190,1998-12-17 12:00:00,2,1031,,100,2,700,3.704,,,70,,,,,,,,,,43,wg-a,,,,AAXX 17124 07190 12/07 90702 10020 20020 30117 40310 60006 74344 89/// 91200=
07190,1998-12-17 18:00:00,1,1028.4,-1,100,1,600,7.408,,,200,0.2,2.6,,,,,,,,43,wg-a,,,,AAXX 17184 07190 12/06 92004 10010 20010 30091 40284 58010 60006 74342 89/// 91800 333 10026 20002=
07190,1998-12-17 21:00:00,1,1027.6,-0.8,93,0,600,7.408,,,170,,,,,,,,,,45,wg-a,,,,AAXX 17214 07190 12/06 91704 10010 20000 30083 40276 56008 60006 74544 89/// 92100=
07190,1998-12-18 00:00:00,0,1026.7,-1,100,0,400,7.408,,,190,,,,,,,,,,45,wg-a,,,,AAXX 18004 07190 12/04 91904 10000 20000 30073 40267 58010 60006 74544 89/// 90000=
07190,1998-12-18 03:00:00,-1,1026.7,-0.1,100,-1,800,0,,,0,,,,,,,,,,49,wg-a,,,,AAXX 18034 07190 12/08 90000 11010 21010 30072 40267 56001 60006 74942 89/// 90300=
07190,1998-12-18 06:00:00,-2,1025.8,-0.9,100,-2,15000,0,,,0,-2.1,1.1,,,,,,,,1,wg-a,,,,AAXX 18064 07190 02/65 00000 11020 21020 30063 40258 56009 60006 70141 80000 90600 333 10011 21021 60004=
07190,1998-12-18 09:00:00,1,1026.4,0.8,100,1,16000,7.408,,,10,,,,,,,,,,,wg-a,,,,AAXX 18094 07190 12/66 00104 10010 20010 30071 40264 53008 60006 80000 90900=
07190,1998-12-18 12:00:00,7,1025,-0.9,76,3,13000,7.408,,,100,,,,,,,,,,,wg-a,,,,AAXX 18124 07190 12/63 31004 10070 20030 30062 40250 58009 60006 82031 91200=
07190,1998-12-18 15:00:00,6,1023.7,,81,3,15000,7.408,,,100,,,,,,,,,,,wg-a,,,,AAXX 18154 07190 32/65 61004 10060 20030 30048 40237 83032 91500=
07190,1998-12-18 18:00:00,2,1022.1,-1.8,93,1,15000,3.704,,,230,-1.8,8.5,,,,,,,,,wg-a,,,,AAXX 18184 07190 32/65 32302 10020 20010 30030 40221 57018 80002 91800 333 10085 21018=
07190,1998-12-18 21:00:00,4,1019.7,-2.2,87,2,15000,14.816,,,190,,,,,,,,,,,wg-a,,,,AAXX 18214 07190 12665 71908 10040 20020 30008 40197 58022 60006 84532 92100=
07190,1998-12-19 00:00:00,7,1017.2,-2.3,76,3,15000,18.52,,,170,,,,,,,,,,,wg-a,,,,AAXX 19004 07190 12665 71710 10070 20030 39985 40172 58023 60006 84832 90000=
07190,1998-12-19 03:00:00,8,1015.6,-1.5,87,6,15000,25.928,,,210,,,,0,,,,,,,wg-a,,,,AAXX 19034 07190 12565 72114 10080 20060 39971 40156 56015 60007 878// 90300=
07190,1998-12-19 06:00:00,8,1014.1,-1.5,87,6,12000,25.928,,,190,1,8.4,,,,,,,,60,wg-a,,,,AAXX 19064 07190 02562 71914 10080 20060 39955 40141 56015 61000 76086 878// 90600 333 10084 20010 6000=
07190,1998-12-19 09:00:00,9,1015,1,76,5,18000,29.632,,,220,,,,,,,,,,3,wg-a,,,,AAXX 19094 07190 02668 /2216 10090 20050 39965 40150 53010 61000 70362 86800 90900 333 ////=
07190,1998-12-19 12:00:00,8,1016.6,1.5,76,4,18000,11.112,,,230,,,,0,,,,,,3,wg-a,,,,AAXX 19124 07190 02568 72306 10080 20040 39980 40166 50015 60016 70386 878// 91200 333 60007=
07190,1998-12-19 15:00:00,7,1017.5,0.8,76,3,20000,22.224,,,230,,,,0,,,,,,25,wg-a,,,,AAXX 19154 07190 12570 42312 10070 20030 39988 40175 53008 60007 72586 84860 91500=
07190,1998-12-19 18:00:00,6,1018.2,0.6,75,2,20000,18.52,,,190,5.4,9.7,,,,,,,,3,wg-a,,,,AAXX 19184 07190 12670 41910 10060 20020 39994 40182 51006 60006 70386 84800 91800 333 10097 20054=
07190,1998-12-19 21:00:00,4,1016.9,-1.4,87,2,15000,11.112,,,170,,,,,,,,,,,wg-a,,,,AAXX 19214 07190 12765 21706 10040 20020 39980 40169 57014 60006 82500 92100=
07190,1998-12-20 00:00:00,5,1014.5,-2.3,81,2,13000,14.816,,,190,,,,,,,,,,,wg-a,,,,AAXX 20004 07190 12663 41908 10050 20020 39957 40145 58023 60006 84800 90000=
07190,1998-12-20 03:00:00,4,1012.3,-2.2,81,1,13000,14.816,,,170,,,,,,,,,,,wg-a,,,,AAXX 20034 07190 12663 71708 10040 20010 39935 40123 58022 60006 875// 90300=
07190,1998-12-20 06:00:00,3,1009.8,-2.5,93,2,15000,7.408,,,200,2.7,5.8,,,,,,,,60,wg-a,,,,AAXX 20064 07190 02665 72004 10030 20020 39910 40098 56025 61000 76061 875// 90600 333 10058 20027 6001=
07190,1998-12-20 09:00:00,3,1008.7,-1.1,100,3,20000,3.704,,,30,,,,1,,,,,,3,wg-a,,,,AAXX 20094 07190 12570 70302 10030 20030 39899 40087 56011 60017 70362 875// 90900=
07190,1998-12-20 12:00:00,4,1007.6,-1,100,4,7000,3.704,,,40,,,,0,,,,,,60,wg-a,,,,AAXX 20124 07190 02457 80402 10040 20040 39889 40076 58010 60016 76062 878// 91200 333 60007=
07190,1998-12-20 15:00:00,4,1008.1,0.5,93,3,9000,11.112,,,20,,,,1,,,,,,25,wg-a,,,,AAXX 20154 07190 12459 70206 10040 20030 39894 40081 53005 60017 72586 8687/ 91500=
07190,1998-12-20 18:00:00,4,1009.5,1.3,93,3,8000,14.816,,,10,2.9,4.5,,,,,,,,1,wg-a,,,,AAXX 20184 07190 12558 70108 10040 20030 39907 40095 52013 60006 70186 878// 91800 333 10045 20029=
07190,1998-12-20 21:00:00,3,1012.4,2.8,87,1,15000,7.408,,,350,,,,,,,,,,,wg-a,,,,AAXX 20214 07190 12665 /3504 10030 20010 39935 40124 52028 60006 83530 92100=
07190,1998-12-21 00:00:00,0,1014.6,2,93,-1,15000,11.112,,,330,,,,,,,,,,,wg-a,,,,AAXX 21004 07190 12/65 03306 10000 21010 39955 40146 51020 60006 80000 90000=
07190,1998-12-21 06:00:00,0,1018.2,1.5,86,-2,15000,7.408,,,320,-0.8,3.8,,,,,2,,,,wg-a,,,,AAXX 21064 07190 02665 63204 10000 21020 39990 40182 53015 60006 86500 90600 333 10038 21008 60024=
07190,1998-12-21 09:00:00,1,1020.6,2.4,80,-2,20000,0,,,0,,,,,,,,,,,wg-a,,,,AAXX 21094 07190 12670 /0000 10010 21020 30014 40206 53024 60006 86800 90900=
07190,1998-12-21 12:00:00,2,1021.9,1.4,80,-1,18000,3.704,,,180,,,,,,,,,,22,wg-a,,,,AAXX 21124 07190 02468 71802 10020 21010 30028 40219 51014 61000 72272 87800 91200 333 6100=
07190,1998-12-21 15:00:00,2,1023.9,1.9,80,-1,18000,11.112,,,290,,,,,,,,,,,wg-a,,,,AAXX 21154 07190 12568 72906 10020 21010 30047 40239 53019 60006 87800 91500=
07190,1998-12-21 18:00:00,-1,1025.9,1.8,93,-2,18000,7.408,,,190,-0.5,3.3,,,,,,,,,wg-a,,,,AAXX 21184 07190 12668 21904 11010 21020 30065 40259 51018 60006 82500 91800 333 10033 21005=
07190,1998-12-21 21:00:00,-2,1027.4,1.4,93,-3,8000,7.408,,,150,,,,,,,,,,,wg-a,,,,AAXX 21214 07190 12658 21504 11020 21030 30079 40274 53014 60006 82500 92100=
07190,1998-12-22 00:00:00,-2,1027.8,0.4,100,-2,9000,3.704,,,180,,,,,,,,,,,wg-a,,,,AAXX 22004 07190 12659 /1802 11020 21020 30083 40278 50004 60006 86500 90000=
07190,1998-12-22 03:00:00,-2,1028.3,0.5,100,-2,10000,7.408,,,200,,,,,,,,,,,wg-a,,,,AAXX 22034 07190 12660 72004 11020 21020 30088 40283 51005 60006 87500 90300=
07190,1998-12-22 06:00:00,-1,1028.5,0.2,93,-2,12000,7.408,,,170,-1.8,-0.4,,,,,,,,,wg-a,,,,AAXX 22064 07190 02662 /1704 11010 21020 30090 40285 50002 60006 85500 90600 333 11004 21018 61000=
07190,1998-12-22 09:00:00,-1,1029.5,1,93,-2,10000,11.112,,,190,,,,,,,,,,,wg-a,,,,AAXX 22094 07190 12760 71906 11010 21020 30100 40295 51010 60006 86530 90900=
07190,1998-12-22 12:00:00,2,1028.8,-0.5,75,-2,12000,11.112,,,220,,,,,,,,,,,wg-a,,,,AAXX 22124 07190 12762 72206 10020 21020 30095 40288 58005 60006 8557/ 91200=
07190,1998-12-22 15:00:00,2,1028.9,0.1,80,-1,10000,7.408,,,160,,,,,,,,,,,wg-a,,,,AAXX 22154 07190 12760 71604 10020 21010 30096 40289 53001 60006 8557/ 91500=
07190,1998-12-22 18:00:00,2,1029.6,0.7,75,-2,8000,7.408,,,170,-1.5,2,,,,,,,,,wg-a,,,,AAXX 22184 07190 12558 71704 10020 21020 30103 40296 52007 60006 8657/ 91800 333 10020 21015=
07190,1998-12-22 21:00:00,2,1029.7,0.1,80,-1,15000,7.408,,,180,,,,,,,,,,,wg-a,,,,AAXX 22214 07190 12565 71804 10020 21010 30104 40297 52001 60006 875// 92100=
07190,1998-12-23 00:00:00,1,1029.3,-0.5,86,-1,15000,3.704,,,40,,,,,,,,,,,wg-a,,,,AAXX 23004 07190 12565 80402 10010 21010 30099 40293 56005 60006 875// 90000=
07190,1998-12-23 03:00:00,0,1028.7,-0.6,86,-2,15000,3.704,,,170,,,,,,,,,,,wg-a,,,,AAXX 23034 07190 12665 31702 10000 21020 30093 40287 58006 60006 83500 90300=
07190,1998-12-23 06:00:00,-2,1028,-0.9,93,-3,15000,3.704,,,220,-2.5,1.6,,,,,,,,,wg-a,,,,AAXX 23064 07190 02/65 02202 11020 21030 30084 40280 56009 60006 80000 90600 333 10016 21025 60004=
07190,1998-12-23 09:00:00,0,1027.5,-0.3,93,-1,18000,3.704,,,80,,,,,,,,,,,wg-a,,,,AAXX 23094 07190 12/68 30802 10000 21010 30081 40275 56003 60006 80001 90900=
07190,1998-12-23 12:00:00,3,1024.9,-2.3,75,-1,20000,7.408,,,210,,,,,,,,,,,wg-a,,,,AAXX 23124 07190 12/70 62104 10030 21010 30058 40249 58023 60006 80001 91200=
07190,1998-12-23 15:00:00,2,1023.8,-1.2,87,0,20000,11.112,,,160,,,,,,,,,,,wg-a,,,,AAXX 23154 07190 12/70 71606 10020 20000 30046 40238 56012 60006 80002 91500=
07190,1998-12-23 18:00:00,0,1023.6,-0.3,93,-1,15000,7.408,,,150,-2.7,4.7,,,,,,,,,wg-a,,,,AAXX 23184 07190 12/65 61504 10000 21010 30043 40236 57003 60006 83032 91800 333 10047 21027=
07190,1998-12-23 21:00:00,0,1022.7,-0.9,80,-3,15000,14.816,,,180,,,,,,,,,,0,wg-a,,,,AAXX 23214 07190 32/65 71808 10000 21030 30034 40227 56009 700// 84032 92100=
07190,1998-12-24 00:00:00,0,1022,-0.7,80,-3,10000,11.112,,,170,,,,,,,,,,0,wg-a,,,,AAXX 24004 07190 32760 71706 10000 21030 30027 40220 58007 700// 82572 90000=
07190,1998-12-24 03:00:00,1,1021.3,-0.6,80,-2,12000,3.704,,,280,,,,,,,,,,0,wg-a,,,,AAXX 24034 07190 32762 72802 10010 21020 30021 40213 56006 700// 81572 90300=
07190,1998-12-24 06:00:00,2,1021.1,-0.1,80,-1,12000,7.408,,,230,-0.9,1.7,,,,,,,,0,wg-a,,,,AAXX 24064 07190 12662 72304 10020 21010 30020 40211 55001 60004 700// 83572 90600 333 10017 21009=
07190,1998-12-24 12:00:00,3,1022.3,0.3,87,1,10000,7.408,,,220,,,,,,,,,,60,wg-a,,,,AAXX 24124 07190 02560 82204 10030 20010 30032 40223 51003 61000 76062 888// 91200 333 ////=
07190,1998-12-24 15:00:00,3,1024.6,2.3,87,1,12000,7.408,,,360,,,,,,,,,,21,wg-a,,,,AAXX 24154 07190 02562 73604 10030 20010 30055 40246 53023 61000 72162 875// 91500 333 ////=
07190,1998-12-24 18:00:00,2,1027.3,2.5,87,0,15000,3.704,,,300,1.3,2.7,,,,,,,,1,wg-a,,,,AAXX 24184 07190 32565 73002 10020 20000 30080 40273 51025 70162 875// 91800 333 10027 20013=
07190,1998-12-24 21:00:00,1,1029.3,2,93,0,13000,0,,,0,,,,,,,,,,0,wg-a,,,,AAXX 24214 07190 32663 70000 10010 20000 30100 40293 51020 700// 875// 92100=
07190,1998-12-25 00:00:00,-1,1030.2,0.7,93,-2,2000,3.704,,,160,,,,,,,,,,10,wg-a,,,,AAXX 25004 07190 32620 21602 11010 21020 30107 40302 51007 71011 82500 90000=
07190,1998-12-25 03:00:00,-1,1030.2,0,100,-1,3500,14.816,,,170,,,,,,,,,,10,wg-a,,,,AAXX 25034 07190 32/35 01708 11010 21010 30107 40302 50000 71000 80000 90300=
07190,1998-12-25 06:00:00,-1,1030.3,0.1,93,-2,4500,11.112,,,190,-2.3,1.8,,,,,,,,10,wg-a,,,,AAXX 25064 07190 12/45 31906 11010 21020 30108 40303 51001 60004 71000 80001 90600 333 10018 21023=
07190,1998-12-25 09:00:00,0,1030.7,0.5,93,-1,6000,18.52,,,180,,,,,,,,,,10,wg-a,,,,AAXX 25094 07190 32/56 71810 10000 21010 30113 40307 53005 710// 85032 90900=
07190,1998-12-25 12:00:00,2,1029.8,-0.8,87,0,9000,11.112,,,190,,,,,,,,,,0,wg-a,,,,AAXX 25124 07190 32659 81906 10020 20000 30105 40298 58008 700// 8657/ 91200=
07190,1998-12-25 15:00:00,3,1028.4,-1.3,75,-1,12000,11.112,,,190,,,,,,,,,,0,wg-a,,,,AAXX 25154 07190 32562 81906 10030 21010 30092 40284 56013 700// 875// 91500=
07190,1998-12-25 18:00:00,3,1027.8,-0.6,81,0,12000,11.112,,,200,-0.8,3.1,,,,,,,,0,wg-a,,,,AAXX 25184 07190 32562 72006 10030 20000 30086 40278 56006 700// 8557/ 91800 333 10031 21008=
07190,1998-12-25 21:00:00,3,1026.7,-1,87,1,15000,11.112,,,200,,,,,,,,,,0,wg-a,,,,AAXX 25214 07190 32565 72006 10030 20010 30076 40267 56010 700// 875// 92100=
07190,1998-12-26 00:00:00,3,1025.1,-1.6,93,2,15000,25.928,,,180,,,,,,,,,,,wg-a,,,,AAXX 26004 07190 12665 61814 10030 20020 30060 40251 58016 60006 85502 90000=
07190,1998-12-26 03:00:00,5,1024.6,-0.3,87,3,12000,25.928,,,180,,,,,,,,,,60,wg-a,,,,AAXX 26034 07190 02562 81814 10050 20030 30057 40246 58003 61000 76062 8557/ 90300 333 ////=
07190,1998-12-26 06:00:00,6,1025,0.4,81,3,15000,25.928,,,180,3,5.9,,,,,,,,3,wg-a,,,,AAXX 26064 07190 02565 81814 10060 20030 30061 40250 53004 60006 70362 875// 90600 333 10059 20030 61000=
07190,1998-12-26 09:00:00,6,1025.9,0.9,87,4,17000,22.224,,,170,,,,,,,,,,,wg-a,,,,AAXX 26094 07190 12567 81712 10060 20040 30070 40259 53009 60006 875// 90900=
07190,1998-12-26 12:00:00,8,1023.4,-2.3,81,5,25000,25.928,,,190,,,,,,,,,,,wg-a,,,,AAXX 26124 07190 12575 /1914 10080 20050 30047 40234 57023 60006 85870 91200=
07190,1998-12-26 15:00:00,8,1021,-2.4,81,5,500,22.224,,,170,,,,,,,,,,,wg-a,,,,AAXX 26154 07190 12500 71712 10080 20050 30023 40210 56024 60006 878// 91500=
07190,1998-12-26 18:00:00,8,1018.6,-2.4,76,4,20000,22.224,,,190,5.4,8.3,,,,,,,,,wg-a,,,,AAXX 26184 07190 12770 71912 10080 20040 39999 40186 58024 60006 875// 91800 333 10083 20054=
07190,1998-12-26 21:00:00,7,1017.1,-1.5,76,3,20000,11.112,,,170,,,,,,,,,,,wg-a,,,,AAXX 26214 07190 12770 71706 10070 20030 39984 40171 56015 60006 8557/ 92100=
07190,1998-12-27 00:00:00,9,1014.3,-2.6,66,3,15000,29.632,,,180,,,,,,,,,,60,wg-a,,,,AAXX 27004 07190 02665 71816 10090 20030 39958 40143 58026 61000 76062 8387/ 90000 333 6100=
07190,1998-12-27 03:00:00,9,1014.4,0.1,76,5,15000,25.928,,,170,,,,,,,,,,60,wg-a,,,,AAXX 27034 07190 02665 71714 10090 20050 39959 40144 53001 61000 76062 8587/ 90300 333 ////=
07190,1998-12-27 06:00:00,11,1014.2,-0.1,66,5,15000,22.224,,,210,6.9,10.6,,,,,,,,21,wg-a,,,,AAXX 27064 07190 02565 72112 10110 20050 39958 40142 58001 61000 72162 8687/ 90600 333 10106 20069 6100=
07190,1998-12-27 09:00:00,12,1013.6,-0.5,62,5,40000,22.224,,,210,,,,,,,,,,,wg-a,,,,AAXX 27094 07190 12682 72112 10120 20050 39953 40136 56005 60006 82571 90900=
07190,1998-12-27 12:00:00,12,1012.1,-1.5,67,6,60000,7.408,,,150,,,,,,,,,,,wg-a,,,,AAXX 27124 07190 12786 71504 10120 20060 39938 40121 58015 60006 82571 91200=
07190,1998-12-27 15:00:00,14,1010.4,-1.5,47,3,50000,25.928,,,210,,,,,,,,,,,wg-a,,,,AAXX 27154 07190 12784 62114 10140 20030 39923 40104 56015 60006 82571 91500=
07190,1998-12-27 18:00:00,13,1011.3,0.8,47,2,500,22.224,,,170,10.6,15.1,,,,,,,,,wg-a,,,,AAXX 27184 07190 12700 61712 10130 20020 39931 40113 53008 60006 83531 91800 333 10151 20106=
07190,1998-12-27 21:00:00,9,1011.7,0.1,61,2,500,14.816,,,160,,,,,,,,,,,wg-a,,,,AAXX 27214 07190 12700 51608 10090 20020 39932 40117 51001 60006 81531 92100=
07190,1998-12-28 00:00:00,10,1012.3,0.7,53,1,25000,25.928,,,170,,,,,,,,,,,wg-a,,,,AAXX 28004 07190 12/75 01714 10100 20010 39939 40123 51007 60006 80000 90000=
07190,1998-12-28 03:00:00,8,1013.2,0.7,66,2,25000,22.224,,,170,,,,,,,,,,,wg-a,,,,AAXX 28034 07190 12/75 11712 10080 20020 39946 40132 51007 60006 80001 90300=
07190,1998-12-28 06:00:00,6,1014.1,0.8,75,2,25000,14.816,,,150,6,13,,,,,,,,,wg-a,,,,AAXX 28064 07190 02/75 11508 10060 20020 39954 40141 51008 60006 80001 90600 333 10130 20060 60004=
07190,1998-12-28 09:00:00,6,1014.9,0.8,81,3,40000,3.704,,,140,,,,,,,,,,,wg-a,,,,AAXX 28094 07190 12/82 61402 10060 20030 39962 40149 51008 60006 82031 90900=
07190,1998-12-28 12:00:00,12,1013.3,-1.2,58,4,40000,18.52,,,170,,,,,,,,,,,wg-a,,,,AAXX 28124 07190 12/82 51710 10120 20040 39950 40133 58012 60006 80001 91200=
07190,1998-12-28 18:00:00,10,1015.5,1.9,66,4,25000,11.112,,,170,4.5,13.3,,,,,,,,,wg-a,,,,AAXX 28184 07190 12775 41706 10100 20040 39970 40155 53019 60006 84531 91800 333 10133 20045=
07190,1998-12-28 21:00:00,8,1018.4,2.6,81,5,20000,18.52,,,300,,,,,,,,,,,wg-a,,,,AAXX 28214 07190 12670 73010 10080 20050 39997 40184 53026 60006 875// 92100=
07190,1998-12-29 00:00:00,6,1019.8,1.3,87,4,15000,11.112,,,70,,,,0,,,,,,60,wg-a,,,,AAXX 29004 07190 02565 80706 10060 20040 30010 40198 51013 60006 76061 878// 90000 333 60007=
07190,1998-12-29 03:00:00,5,1020,0.1,93,4,20000,0,,,0,,,,,,,,,,0,wg-a,,,,AAXX 29034 07190 02570 70000 10050 20040 30011 40200 50001 61000 70062 875// 90300 333 ////=
07190,1998-12-29 06:00:00,4,1019.5,-0.5,93,3,20000,7.408,,,340,4.4,10.1,,,,,,,,1,wg-a,,,,AAXX 29064 07190 02670 /3404 10040 20030 30006 40195 56005 60006 70162 8553/ 90600 333 10101 20044 60004=
07190,1998-12-29 09:00:00,5,1019.3,-0.2,93,4,9000,7.408,,,330,,,,,,,,,,,wg-a,,,,AAXX 29094 07190 12259 63304 10050 20040 30004 40193 58002 60006 85532 90900=
07190,1998-12-29 12:00:00,6,1017.4,-1.8,93,5,1000,7.408,,,320,,,,,,,,,,10,wg-a,,,,AAXX 29124 07190 12110 83204 10060 20050 39986 40174 58018 60006 71022 886// 91200=
07190,1998-12-29 15:00:00,6,1015.8,-1.5,93,5,2500,3.704,,,310,,,,,,,,,,10,wg-a,,,,AAXX 29154 07190 12225 /3102 10060 20050 39971 40158 56015 60006 71041 83600 91500=
07190,1998-12-29 18:00:00,3,1015.7,-0.3,93,2,3000,7.408,,,290,3,6.1,,,,,,,,10,wg-a,,,,AAXX 29184 07190 12/30 02904 10030 20020 39968 40157 55003 60006 71041 80000 91800 333 10061 20030=
07190,1998-12-29 21:00:00,0,1016.2,0.2,93,-1,400,3.704,,,180,,,,,,,,,,44,wg-a,,,,AAXX 29214 07190 32/04 01802 10000 21010 39970 40162 53002 74440 80000 92100=
07190,1998-12-30 00:00:00,1,1016.7,0.6,100,1,800,3.704,,,240,,,,,,,,,,42,wg-a,,,,AAXX 30004 07190 32008 /2402 10010 20010 39976 40167 51006 74241 85500 90000=
07190,1998-12-30 03:00:00,2,1016.5,-0.1,100,2,300,0,,,0,,,,,,,,,,45,wg-a,,,,AAXX 30034 07190 32/03 90000 10020 20020 39975 40165 57001 74544 89/// 90300=
07190,1998-12-30 06:00:00,2,1017,0.5,100,2,600,3.704,,,190,-0.4,3,,0,,,,,,44,wg-a,,,,AAXX 30064 07190 02006 81902 10020 20020 39980 40170 53005 60004 74444 885// 90600 333 10030 21004 60007=
07190,1998-12-30 09:00:00,2,1018.5,1.4,93,1,300,7.408,,,200,,,,,,,,,,44,wg-a,,,,AAXX 30094 07190 32003 82004 10020 20010 39994 40185 52014 74444 886// 90900=
07190,1998-12-30 12:00:00,2,1017.7,-0.7,100,2,900,3.704,,,150,,,,,,,,,,42,wg-a,,,,AAXX 30124 07190 32009 81502 10020 20020 39987 40177 58007 74244 886// 91200=
07190,1998-12-30 15:00:00,2,1017.2,-0.5,100,2,400,7.408,,,180,,,,,,,,,,44,wg-a,,,,AAXX 30154 07190 32004 81804 10020 20020 39982 40172 56005 74442 886// 91500=
07190,1998-12-30 18:00:00,2,1017.2,-0,100,2,300,3.704,,,250,1.1,2.5,,,,,,,,43,wg-a,,,,AAXX 30184 07190 32/03 92502 10020 20020 39982 40172 55000 74342 89/// 91800 333 10025 20011=
07190,1998-12-30 21:00:00,1,1017.4,0.1,100,1,500,7.408,,,220,,,,,,,,,,43,wg-a,,,,AAXX 30214 07190 32/05 92204 10010 20010 39983 40174 50001 74344 89/// 92100=
07190,1998-12-31 00:00:00,1,1017.1,-0.3,100,1,400,7.408,,,120,,,,,,,,,,45,wg-a,,,,AAXX 31004 07190 32/04 91204 10010 20010 39980 40171 57003 74544 89/// 90000=
07190,1998-12-31 03:00:00,0,1016.3,-0.9,100,0,400,0,,,0,,,,,,,,,,45,wg-a,,,,AAXX 31034 07190 32/04 90000 10000 20000 39971 40163 56009 74542 89/// 90300=
07190,1998-12-31 06:00:00,-1,1015.4,-0.9,100,-1,400,0,,,0,-0.6,2.1,,,,,,,,45,wg-a,,,,AAXX 31064 07190 32/04 90000 11010 21010 39962 40154 56009 74542 89/// 90600 333 10021 21006=
07190,1998-12-31 12:00:00,0,1014.6,-0.9,100,0,900,0,,,0,,,,,,,,,,43,wg-a,,,,AAXX 31124 07190 32/09 90000 10000 20000 39955 40146 58009 74344 89/// 91200=
07190,1998-12-31 18:00:00,1,1012.6,-0.4,100,1,2500,14.816,,,20,-0.5,1.2,,,,,,,,10,wg-a,,,,AAXX 31184 07190 32225 80208 10010 20010 39936 40126 58004 71042 886// 91800 333 10012 21005=
07190,1998-12-31 21:00:00,1,1013,0.3,93,0,3000,3.704,,,350,,,,,,,,,,10,wg-a,,,,AAXX 31214 07190 32230 83502 10010 20000 39939 40130 53003 71022 886// 92100=
