station_id,dh_utc,temperature,pression,pression_variation_3h,humidite,point_de_rosee,visibilite,vent_moyen,vent_rafales,vent_rafales_10min,vent_direction,temperature_min,temperature_max,pluie_1h,pluie_3h,pluie_6h,pluie_12h,pluie_24h,ensoleillement,temperature_sol,temps_omm,source,radiations,neige_au_sol,nebulosite,raw_msg
07535,1999-01-01 00:00:00,9,1003,1.7,71,4,0,14.816,,,150,,,,,,,,,,,wg-a,,,,AAXX 01004 07535 32/// /1508 10090 20040 39720 40030 53017 90000=
07535,1999-01-01 06:00:00,5,1006.5,2.2,87,3,25000,7.408,,,120,5.2,10.5,,,,,,,,,wg-a,,,,AAXX 01064 07535 12/75 11204 10050 20030 39750 40065 53022 60004 80001 90600 333 10105 20052=
07535,1999-01-02 06:00:00,8,1013.8,-0.4,87,6,20000,11.112,,,190,6.5,10.2,,,,,,,,,wg-a,,,,AAXX 02064 07535 12770 61906 10080 20060 39823 40138 55004 60004 82530 90600 333 10102 20065=
07535,1999-01-02 12:00:00,8,1014.7,0.4,93,7,0,7.408,,,220,,,,,,,,,,,wg-a,,,,AAXX 02124 07535 32/// /2204 10080 20070 39832 40147 50004 91200=
07535,1999-01-02 18:00:00,7,1016.1,1.7,93,6,0,14.816,,,210,6.8,9.2,,,,,,,,,wg-a,,,,AAXX 02184 07535 32/// /2108 10070 20060 39845 40161 53017 91800 333 10092 20068=
07535,1999-01-03 00:00:00,6,1019.7,1.5,100,6,0,7.408,,,230,,,,,,,,,,,wg-a,,,,AAXX 03004 07535 32/// /2304 10060 20060 39879 40197 52015 90000=
07535,1999-01-03 06:00:00,8,1019.6,-0.1,100,8,6000,11.112,,,230,6.1,8,,1,,,6,,,80,wg-a,,,,AAXX 03064 07535 02456 82306 10080 20080 39880 40196 58001 60064 78086 8487/ 90600 333 10080 20061 60017=
07535,1999-01-03 12:00:00,9,1020.2,0.4,93,8,0,14.816,,,250,,,,,,,,,,,wg-a,,,,AAXX 03124 07535 32/// /2508 10090 20080 39887 40202 50004 91200=
07535,1999-01-03 18:00:00,10,1021.9,1.5,93,9,0,14.816,,,250,7.6,10.2,,,,,,,,,wg-a,,,,AAXX 03184 07535 32/// /2508 10100 20090 39904 40219 53015 91800 333 10102 20076=
07535,1999-01-04 00:00:00,9,1022.8,-0.2,100,9,0,3.704,,,150,,,,,,,,,,,wg-a,,,,AAXX 04004 07535 32/// /1502 10090 20090 39913 40228 57002 90000=
07535,1999-01-04 06:00:00,10,1021.6,-0.5,82,7,15000,7.408,,,150,8.8,9.7,,,,,2,,,,wg-a,,,,AAXX 04064 07535 12765 71504 10100 20070 39901 40216 57005 60024 875// 90600 333 10097 20088=
07535,1999-01-04 12:00:00,14,1022.3,-0.3,67,8,25000,11.112,,,170,,,,,,,,,,,wg-a,,,,AAXX 04124 07535 32775 41706 10140 20080 39913 40223 58003 81501 91200=
07535,1999-01-04 18:00:00,13,1021.3,-0.1,77,9,0,18.52,,,140,9.5,16.3,,,,,,,,,wg-a,,,,AAXX 04184 07535 32/// /1410 10130 20090 39902 40213 58001 91800 333 10163 20095=
07535,1999-01-05 00:00:00,10,1020.5,-0.6,87,8,0,3.704,,,150,,,,,,,,,,,wg-a,,,,AAXX 05004 07535 32/// /1502 10100 20080 39891 40205 56006 90000=
07535,1999-01-05 06:00:00,11,1018.3,-1,82,8,25000,18.52,,,130,9.4,12.9,,,,,,,,,wg-a,,,,AAXX 05064 07535 12/75 11310 10110 20080 39871 40183 58010 60004 80001 90600 333 10129 20094=
07535,1999-01-05 12:00:00,19,1019.1,0.5,49,8,25000,11.112,,,170,,,,,,,,,,,wg-a,,,,AAXX 05124 07535 32/75 51706 10190 20080 39887 40191 51005 81032 91200=
07535,1999-01-05 18:00:00,12,1020.4,0.6,76,8,0,11.112,,,170,10.1,19.9,,,,,,,,,wg-a,,,,AAXX 05184 07535 32/// /1706 10120 20080 39892 40204 53006 91800 333 10199 20101=
07535,1999-01-06 00:00:00,6,1021.4,-0.1,93,5,0,11.112,,,130,,,,,,,,,,,wg-a,,,,AAXX 06004 07535 32/// /1306 10060 20050 39895 40214 57001 90000=
07535,1999-01-06 06:00:00,6,1020.3,-0.6,87,4,12000,11.112,,,130,5.5,12,,,,,,,,,wg-a,,,,AAXX 06064 07535 32/62 01306 10060 20040 39884 40203 56006 80000 90600 333 10120 20055=
07535,1999-01-06 12:00:00,15,1019.7,0,55,6,18000,14.816,,,170,,,,,,,,,,,wg-a,,,,AAXX 06124 07535 32/68 01708 10150 20060 39888 40197 50000 80000 91200=
07535,1999-01-06 18:00:00,13,1020.7,0.6,62,6,0,7.408,,,160,5.6,16.9,,,,,,,,,wg-a,,,,AAXX 06184 07535 32/// /1604 10130 20060 39896 40207 53006 91800 333 10169 20056=
07535,1999-01-07 00:00:00,8,1021.2,-0.9,76,4,0,11.112,,,150,,,,,,,,,,,wg-a,,,,AAXX 07004 07535 32/// /1506 10080 20040 39895 40212 58009 90000=
07535,1999-01-07 06:00:00,6,1020.9,0.4,93,5,7000,11.112,,,200,4.8,12.6,,,,,,,,,wg-a,,,,AAXX 07064 07535 32/57 02006 10060 20050 39891 40209 52004 80000 90600 333 10126 20048=
07535,1999-01-07 12:00:00,12,1020.9,-0.1,71,7,9000,14.816,,,200,,,,,,,,,,,wg-a,,,,AAXX 07124 07535 32/59 12008 10120 20070 39897 40209 58001 80002 91200=
07535,1999-01-07 18:00:00,11,1019.2,-0.6,87,9,0,7.408,,,240,6.2,13,,,,,,,,,wg-a,,,,AAXX 07184 07535 32/// /2404 10110 20090 39880 40192 55006 91800 333 10130 20062=
07535,1999-01-08 00:00:00,10,1017.8,-0.8,93,9,0,7.408,,,260,,,,,,,,,,,wg-a,,,,AAXX 08004 07535 32/// /2604 10100 20090 39865 40178 58008 90000=
07535,1999-01-08 06:00:00,9,1016,-0.9,93,8,6000,11.112,,,270,9,11.7,,2,,,2,,,60,wg-a,,,,AAXX 08064 07535 02556 82706 10090 20080 39846 40160 56009 60024 76062 875// 90600 333 10117 20090 60027=
07535,1999-01-08 12:00:00,9,1013.1,-2,100,9,3000,11.112,,,240,,,,1,,,,,,51,wg-a,,,,AAXX 08124 07535 12230 82406 10090 20090 39819 40131 58020 60017 75165 887// 91200=
07535,1999-01-08 18:00:00,7,1014.7,2,93,6,0,7.408,,,290,7,10,,,,,,,,,wg-a,,,,AAXX 08184 07535 32/// /2904 10070 20060 39831 40147 51020 91800 333 10100 20070=
07535,1999-01-09 00:00:00,6,1014.2,-0.7,100,6,0,7.408,,,260,,,,,,,,,,,wg-a,,,,AAXX 09004 07535 32/// /2604 10060 20060 39825 40142 58007 90000=
07535,1999-01-09 06:00:00,4,1013.1,-0.2,100,4,15000,3.704,,,240,4.4,7,,,,,3,,,,wg-a,,,,AAXX 09064 07535 12565 42402 10040 20040 39813 40131 55002 60034 84500 90600 333 10070 20044=
07535,1999-01-09 12:00:00,8,1011.1,-1.1,87,6,0,3.704,,,270,,,,,,,,,,,wg-a,,,,AAXX 09124 07535 32/// /2702 10080 20060 39797 40111 58011 91200=
07535,1999-01-09 18:00:00,5,1007.9,-1.4,93,4,0,11.112,,,50,3.3,8.7,,,,,,,,,wg-a,,,,AAXX 09184 07535 32/// /0506 10050 20040 39763 40079 58014 91800 333 10087 20033=
07535,1999-01-11 00:00:00,-1,1007.4,1.3,93,-2,0,7.408,,,310,,,,,,,,,,,wg-a,,,,AAXX 11004 07535 32/// /3104 11010 21020 39751 40074 51013 90000=
07535,1999-01-11 06:00:00,-2,1009.1,0.9,100,-2,1500,3.704,,,280,-1.6,-0.3,,,,,10,,,70,wg-a,,12,,AAXX 11064 07535 02215 82802 11020 21020 39767 40091 51009 60104 77072 877// 90600 333 11003 21016 4/012 61000=
07535,1999-01-11 12:00:00,-1,1012.9,1.6,100,-1,2000,7.408,,,270,,,,,,,,,,70,wg-a,,,,AAXX 11124 07535 02220 82704 11010 21010 39805 40129 51016 61000 77072 877// 91200 333 ////=
07535,1999-01-11 18:00:00,-1,1016.6,2.1,93,-2,0,3.704,,,270,-1.6,-0.1,,,,,,,,,wg-a,,,,AAXX 11184 07535 32/// /2702 11010 21020 39840 40166 51021 91800 333 11001 21016=
07535,1999-01-12 00:00:00,-1,1020.8,1.3,93,-2,0,3.704,,,330,,,,,,,,,,,wg-a,,,,AAXX 12004 07535 32/// /3302 11010 21020 39881 40208 51013 90000=
07535,1999-01-12 06:00:00,-2,1023.5,1.2,93,-3,1500,0,,,0,-2.2,-1,,,,,,,,10,wg-a,,10,,AAXX 12064 07535 12315 70000 11020 21030 39906 40235 53012 60004 71022 876// 90600 333 11010 21022 4/010=
07535,1999-01-12 12:00:00,-2,1023,,93,-3,1500,0,,,0,,-1,,,,,,,,10,wg-a,,10,,AAXX 12124 07535 12315 70000 11020 21030 39906 40230 60004 71022 876// 91200 333 11010 4/010=
07535,1999-01-12 18:00:00,-1,1019.1,-1.3,93,-2,0,14.816,,,170,-3.5,2.9,,,,,,,,,wg-a,,,,AAXX 12184 07535 32/// /1708 11010 21020 39865 40191 58013 91800 333 10029 21035=
07535,1999-01-13 00:00:00,0,1017.7,-1.1,86,-2,0,14.816,,,200,,,,,,,,,,,wg-a,,,,AAXX 13004 07535 32/// /2008 10000 21020 39852 40177 56011 90000=
07535,1999-01-13 06:00:00,1,1017.4,1.4,93,0,1200,3.704,,,200,-0.7,0.7,,0,,,1,,,21,wg-a,,5,,AAXX 13064 07535 02212 82002 10010 20000 39850 40174 51014 60014 72162 887// 90600 333 10007 21007 4/005 60007=
07535,1999-01-13 12:00:00,3,1021.1,0.8,93,2,2500,7.408,,,210,,,,,,,,,,28,wg-a,,,,AAXX 13124 07535 32225 82104 10030 20020 39888 40211 50008 72842 887// 91200=
07535,1999-01-13 18:00:00,3,1021.5,0,93,2,0,7.408,,,150,0,4,,,,,,,,,wg-a,,,,AAXX 13184 07535 32/// /1504 10030 20020 39892 40215 50000 91800 333 10040 20000=
07535,1999-01-14 00:00:00,4,1019.7,-1,93,3,0,7.408,,,190,,,,,,,,,,,wg-a,,,,AAXX 14004 07535 32/// /1904 10040 20030 39876 40197 56010 90000=
07535,1999-01-14 06:00:00,6,1017.3,-0.7,100,6,1200,11.112,,,220,2.6,5.6,,1,,,1,,,61,wg-a,,,,AAXX 14064 07535 02112 82206 10060 20060 39855 40173 56007 60014 76162 875// 90600 333 10056 20026 60017=
07535,1999-01-14 12:00:00,9,1019.1,1.6,93,8,18000,7.408,,,330,,,,,,,,,,1,wg-a,,,,AAXX 14124 07535 02268 73304 10090 20080 39877 40191 51016 61000 70165 878// 91200 333 ////=
07535,1999-01-14 18:00:00,7,1020.7,1.7,81,4,0,0,,,0,5.6,11.3,,,,,,,,,wg-a,,,,AAXX 14184 07535 32/// /0000 10070 20040 39890 40207 51017 91800 333 10113 20056=
07535,1999-01-15 00:00:00,2,1024,0.6,100,2,0,7.408,,,160,,,,,,,,,,,wg-a,,,,AAXX 15004 07535 32/// /1604 10020 20020 39916 40240 53006 90000=
07535,1999-01-15 06:00:00,0,1023.3,-0.8,100,0,4000,11.112,,,130,-0.2,7.4,,,,,1,,,10,wg-a,,,,AAXX 15064 07535 12640 11306 10000 20000 39907 40233 57008 60014 71000 81500 90600 333 10074 21002=
07535,1999-01-15 18:00:00,5,1018.9,-0.7,87,3,0,11.112,,,190,-1.2,9.7,,,,,,,,,wg-a,,,,AAXX 15184 07535 32/// /1906 10050 20030 39870 40189 55007 91800 333 10097 21012=
07535,1999-01-16 00:00:00,5,1019.1,0.1,75,1,0,11.112,,,170,,,,,,,,,,,wg-a,,,,AAXX 16004 07535 32/// /1706 10050 20010 39871 40191 51001 90000=
07535,1999-01-16 06:00:00,5,1016.7,-0.6,70,0,15000,18.52,,,170,3,6.5,,,,,,,,,wg-a,,,,AAXX 16064 07535 12/65 51710 10050 20000 39848 40167 55006 60004 83032 90600 333 10065 20030=
07535,1999-01-16 12:00:00,11,1014.3,-2.2,62,4,0,25.928,,,160,,,,,,,,,,,wg-a,,,,AAXX 16124 07535 32/// /1614 10110 20040 39832 40143 58022 91200=
07535,1999-01-16 18:00:00,10,1013.3,0.3,71,5,0,18.52,,,170,4.3,12.4,,,,,,,,,wg-a,,,,AAXX 16184 07535 32/// /1710 10100 20050 39821 40133 53003 91800 333 10124 20043=
07535,1999-01-17 00:00:00,10,1011.3,-1.4,71,5,0,29.632,,,140,,,,,,,,,,,wg-a,,,,AAXX 17004 07535 32/// /1416 10100 20050 39801 40113 58014 90000=
07535,1999-01-17 06:00:00,6,1011.1,1,87,4,12000,3.704,,,150,5.7,9.8,,,,,,,,,wg-a,,,,AAXX 17064 07535 12/62 51502 10060 20040 39795 40111 51010 60004 83031 90600 333 10098 20057=
07535,1999-01-17 12:00:00,8,1013.2,0.9,93,7,0,7.408,,,180,,,,,,,,,,,wg-a,,,,AAXX 17124 07535 32/// /1804 10080 20070 39818 40132 51009 91200=
07535,1999-01-17 18:00:00,7,1015.3,1.8,93,6,0,3.704,,,300,4.8,7.9,,,,,,,,,wg-a,,,,AAXX 17184 07535 32/// /3002 10070 20060 39837 40153 53018 91800 333 10079 20048=
07535,1999-01-18 00:00:00,5,1020.1,1.9,100,5,0,7.408,,,310,,,,,,,,,,,wg-a,,,,AAXX 18004 07535 32/// /3104 10050 20050 39882 40201 53019 90000=
07535,1999-01-18 06:00:00,4,1023.8,1.7,100,4,1200,7.408,,,310,4.2,6.5,,,,,8,,,10,wg-a,,,,AAXX 18064 07535 12212 83104 10040 20040 39916 40238 53017 60084 71022 887// 90600 333 10065 20042=
07535,1999-01-18 12:00:00,8,1026.2,0.5,87,6,2500,7.408,,,270,,,,,,,,,,1,wg-a,,,,AAXX 18124 07535 32425 32704 10080 20060 39944 40262 51005 70141 83100 91200=
07535,1999-01-18 18:00:00,4,1027.6,1,93,3,0,3.704,,,230,3.7,9.4,,,,,,,,,wg-a,,,,AAXX 18184 07535 32/// /2302 10040 20030 39953 40276 53010 91800 333 10094 20037=
07535,1999-01-19 00:00:00,0,1028.1,-0.3,100,0,0,7.408,,,150,,,,,,,,,,,wg-a,,,,AAXX 19004 07535 32/// /1504 10000 20000 39953 40281 56003 90000=
07535,1999-01-19 06:00:00,-3,1027,-0.4,93,-4,10000,3.704,,,10,-3.7,4.1,,,,,,,,,wg-a,,,,AAXX 19064 07535 32/60 00102 11030 21040 39938 40270 57004 80000 90600 333 10041 21037=
07535,1999-01-19 12:00:00,3,1025.7,-0.3,93,2,1000,7.408,,,320,,,,,,,,,,10,wg-a,,,,AAXX 19124 07535 32/10 33204 10030 20020 39933 40257 58003 71000 80001 91200=
07535,1999-01-19 18:00:00,4,1023.8,-0.3,93,3,0,7.408,,,130,-3.6,8.3,,,,,,,,,wg-a,,,,AAXX 19184 07535 32/// /1304 10040 20030 39916 40238 58003 91800 333 10083 21036=
07535,1999-01-20 00:00:00,1,1023.3,-0.7,93,0,0,7.408,,,130,,,,,,,,,,,wg-a,,,,AAXX 20004 07535 32/// /1304 10010 20000 39907 40233 58007 90000=
07535,1999-01-20 06:00:00,3,1021.5,-0.3,93,2,15000,11.112,,,130,0,4.3,,,,,,,,,wg-a,,,,AAXX 20064 07535 32/65 01306 10030 20020 39893 40215 55003 80000 90600 333 10043 20000=
07535,1999-01-20 12:00:00,12,1020.4,-0.3,62,5,20000,14.816,,,150,,,,,,,,,,,wg-a,,,,AAXX 20124 07535 32/70 31508 10120 20050 39892 40204 58003 80002 91200=
07535,1999-01-20 18:00:00,10,1019.8,0.3,66,4,0,11.112,,,140,2.7,14.4,,,,,,,,,wg-a,,,,AAXX 20184 07535 32/// /1406 10100 20040 39884 40198 51003 91800 333 10144 20027=
07535,1999-01-21 00:00:00,7,1020.4,-0.3,76,3,0,7.408,,,140,,,,,,,,,,,wg-a,,,,AAXX 21004 07535 32/// /1404 10070 20030 39886 40204 58003 90000=
07535,1999-01-21 06:00:00,5,1020.3,-0.3,87,3,15000,14.816,,,120,3.4,9.9,,,,,,,,,wg-a,,,,AAXX 21064 07535 12/65 31208 10050 20030 39883 40203 58003 60004 80001 90600 333 10099 20034=
07535,1999-01-21 12:00:00,13,1019.7,-0.4,62,6,18000,14.816,,,140,,,,,,,,,,,wg-a,,,,AAXX 21124 07535 32/68 71408 10130 20060 39886 40197 58004 81032 91200=
07535,1999-01-21 18:00:00,10,1020.4,0.9,66,4,0,14.816,,,130,4.7,13.7,,,,,,,,,wg-a,,,,AAXX 21184 07535 32/// /1308 10100 20040 39890 40204 53009 91800 333 10137 20047=
07535,1999-01-22 00:00:00,8,1022,0.4,76,4,0,14.816,,,130,,,,,,,,,,,wg-a,,,,AAXX 22004 07535 32/// /1308 10080 20040 39903 40220 52004 90000=
07535,1999-01-22 06:00:00,7,1022.2,0.1,81,4,12000,7.408,,,120,6.9,10,,,,,,,,,wg-a,,,,AAXX 22064 07535 12/62 51204 10070 20040 39904 40222 53001 60004 80002 90600 333 10100 20069=
07535,1999-01-22 12:00:00,10,1022.9,0,76,6,12000,7.408,,,350,,,,,,,,,,,wg-a,,,,AAXX 22124 07535 32/62 73504 10100 20060 39914 40229 50000 81032 91200=
07535,1999-01-22 18:00:00,8,1022.6,0.3,81,5,0,7.408,,,140,5.4,12.8,,,,,,,,,wg-a,,,,AAXX 22184 07535 32/// /1404 10080 20050 39909 40226 53003 91800 333 10128 20054=
07535,1999-01-23 00:00:00,4,1023.5,0.2,93,3,0,7.408,,,150,,,,,,,,,,,wg-a,,,,AAXX 23004 07535 32/// /1504 10040 20030 39914 40235 52002 90000=
07535,1999-01-23 06:00:00,4,1023.5,0.1,93,3,6000,11.112,,,130,3.9,8.3,,,,,,,,,wg-a,,,,AAXX 23064 07535 12/56 31306 10040 20030 39913 40235 53001 60004 80002 90600 333 10083 20039=
07535,1999-01-23 12:00:00,11,1023.6,-0.3,66,5,0,14.816,,,140,,,,,,,,,,,wg-a,,,,AAXX 23124 07535 32/// /1408 10110 20050 39922 40236 58003 91200=
07535,1999-01-23 18:00:00,7,1023.6,0.2,81,4,0,7.408,,,130,3.8,13,,,,,,,,,wg-a,,,,AAXX 23184 07535 32/// /1304 10070 20040 39918 40236 53002 91800 333 10130 20038=
07535,1999-01-24 00:00:00,4,1025.5,0.1,93,3,0,11.112,,,140,,,,,,,,,,,wg-a,,,,AAXX 24004 07535 32/// /1406 10040 20030 39932 40255 53001 90000=
07535,1999-01-24 06:00:00,3,1026.3,0.3,93,2,500,7.408,,,140,2.3,7.2,,,,,,,,,wg-a,,,,AAXX 24064 07535 12/00 21404 10030 20020 39939 40263 53003 60004 80002 90600 333 10072 20023=
07535,1999-01-24 12:00:00,12,1027.2,0.1,62,5,0,3.704,,,250,,,,,,,,,,,wg-a,,,,AAXX 24124 07535 32/// /2502 10120 20050 39957 40272 50001 91200=
07535,1999-01-24 18:00:00,7,1028.8,1.2,87,5,0,3.704,,,110,1.2,11.8,,,,,,,,,wg-a,,,,AAXX 24184 07535 32/// /1102 10070 20050 39968 40288 53012 91800 333 10118 20012=
07535,1999-01-25 00:00:00,4,1030.5,0.7,93,3,0,11.112,,,10,,,,,,,,,,,wg-a,,,,AAXX 25004 07535 32/// /0106 10040 20030 39981 40305 53007 90000=
07535,1999-01-25 06:00:00,3,1031.1,0.3,93,2,1500,3.704,,,90,1.6,6.9,,,,,,,,10,wg-a,,,,AAXX 25064 07535 32/15 00902 10030 20020 39985 40311 53003 71000 80000 90600 333 10069 20016=
07535,1999-01-25 12:00:00,7,1030.6,0.1,87,5,9000,3.704,,,20,,,,,,,,,,,wg-a,,,,AAXX 25124 07535 32659 70202 10070 20050 39986 40306 50001 875// 91200=
07535,1999-01-25 18:00:00,9,1028.8,-0.1,76,5,0,0,,,0,0.8,11.8,,,,,,,,,wg-a,,,,AAXX 25184 07535 32/// /0000 10090 20050 39971 40288 55001 91800 333 10118 20008=
07535,1999-01-26 00:00:00,6,1027.1,-1.1,93,5,0,7.408,,,10,,,,,,,,,,,wg-a,,,,AAXX 26004 07535 32/// /0104 10060 20050 39951 40271 56011 90000=
07535,1999-01-26 06:00:00,9,1022.1,-2.3,66,3,4000,14.816,,,200,4.9,9.5,,,,,,,,10,wg-a,,,,AAXX 26064 07535 12640 72008 10090 20030 39905 40221 56023 60004 71022 875// 90600 333 10095 20049=
07535,1999-01-26 12:00:00,9,1020.4,-1.5,93,8,3000,14.816,,,260,,,,6,,,,,,61,wg-a,,,,AAXX 26124 07535 12330 82608 10090 20080 39888 40204 56015 60067 76162 885// 91200=
07535,1999-01-26 18:00:00,6,1021.9,1.2,93,5,0,7.408,,,280,6,8.9,,,,,,,,,wg-a,,,,AAXX 26184 07535 32/// /2804 10060 20050 39900 40219 51012 91800 333 10089 20060=
07535,1999-01-27 00:00:00,6,1021.2,-0.9,93,5,0,7.408,,,240,,,,,,,,,,,wg-a,,,,AAXX 27004 07535 32/// /2404 10060 20050 39893 40212 55009 90000=
07535,1999-01-27 06:00:00,7,1015.9,-2.9,100,7,10000,25.928,,,270,4.4,7.4,,0,,,9,,,21,wg-a,,,,AAXX 27064 07535 02360 82714 10070 20070 39844 40159 56029 60094 72162 885// 90600 333 10074 20044 60007=
07535,1999-01-27 12:00:00,8,1020.5,2.1,71,3,25000,22.224,,,340,,,,,,,,,,3,wg-a,,,,AAXX 27124 07535 02475 63412 10080 20030 39888 40205 51021 61000 70362 85202 91200 333 ////=
07535,1999-01-27 18:00:00,5,1024,1.8,81,2,0,7.408,,,270,5.1,9.2,,,,,,,,,wg-a,,,,AAXX 27184 07535 32/// /2704 10050 20020 39919 40240 51018 91800 333 10092 20051=
07535,1999-01-28 00:00:00,5,1024.2,-0.2,93,4,0,3.704,,,220,,,,,,,,,,,wg-a,,,,AAXX 28004 07535 32/// /2202 10050 20040 39921 40242 56002 90000=
07535,1999-01-28 06:00:00,8,1022.9,-0.8,93,7,3000,14.816,,,270,4.7,7.5,,0,,,6,,,50,wg-a,,,,AAXX 28064 07535 02230 72708 10080 20070 39912 40229 56008 60064 75052 877// 90600 333 10075 20047 60007=
07535,1999-01-28 12:00:00,9,1022.4,-0.8,100,9,4000,14.816,,,300,,,,0,,,,,,60,wg-a,,,,AAXX 28124 07535 12240 73008 10090 20090 39909 40224 58008 60007 76065 877// 91200=
07535,1999-01-28 18:00:00,10,1021.6,0.6,87,8,0,18.52,,,300,7.4,10.3,,,,,,,,,wg-a,,,,AAXX 28184 07535 32/// /3010 10100 20080 39901 40216 53006 91800 333 10103 20074=
07535,1999-01-29 00:00:00,9,1021.3,-0.2,93,8,0,18.52,,,300,,,,,,,,,,,wg-a,,,,AAXX 29004 07535 32/// /3010 10090 20080 39897 40213 56002 90000=
07535,1999-01-29 06:00:00,6,1023.6,1.4,100,6,8000,7.408,,,340,6.3,9.5,,1,,,4,,,21,wg-a,,,,AAXX 29064 07535 02258 83404 10060 20060 39917 40236 52014 60044 72162 875// 90600 333 10095 20063 60017=
07535,1999-01-29 12:00:00,8,1026,0.3,71,3,20000,18.52,,,360,,,,,,,,,,1,wg-a,,,,AAXX 29124 07535 02470 53610 10080 20030 39942 40260 50003 61000 70162 85200 91200 333 ////=
07535,1999-01-29 18:00:00,5,1028.7,1.6,70,0,0,7.408,,,330,5,9.4,,,,,,,,,wg-a,,,,AAXX 29184 07535 32/// /3304 10050 20000 39964 40287 51016 91800 333 10094 20050=
07535,1999-01-30 00:00:00,2,1031.2,0.6,87,0,0,7.408,,,10,,,,,,,,,,,wg-a,,,,AAXX 30004 07535 32/// /0104 10020 20000 39985 40312 51006 90000=
07535,1999-01-30 06:00:00,-2,1032.5,0.9,86,-4,15000,7.408,,,360,-1.8,5,,,,,,,,,wg-a,,,,AAXX 30064 07535 12/65 13604 11020 21040 39993 40325 53009 60004 81030 90600 333 10050 21018=
07535,1999-01-30 12:00:00,4,1033.5,-0.1,41,-8,0,14.816,,,50,,,,,,,,,,,wg-a,,,,AAXX 30124 07535 32/// /0508 10040 21080 30009 40335 58001 91200=
07535,1999-01-30 18:00:00,2,1033,0.6,37,-11,0,7.408,,,350,-2.6,5.8,,,,,,,,,wg-a,,,,AAXX 30184 07535 32/// /3504 10020 21110 30002 40330 53006 91800 333 10058 21026=
07535,1999-01-31 00:00:00,-3,1034.8,0,63,-9,0,14.816,,,360,,,,,,,,,,,wg-a,,,,AAXX 31004 07535 32/// /3608 11030 21090 30014 40348 50000 90000=
07535,1999-01-31 06:00:00,-5,1034,-0.2,73,-9,20000,7.408,,,320,-5.4,1.8,,,,,,,,,wg-a,,,,AAXX 31064 07535 32/70 03204 11050 21090 30003 40340 55002 80000 90600 333 10018 21054=
07535,1999-01-31 12:00:00,2,1033.4,-0.7,37,-11,0,18.52,,,20,,,,,,,,,,,wg-a,,,,AAXX 31124 07535 32/// /0210 10020 21110 30006 40334 55007 91200=
07535,1999-01-31 18:00:00,0,1033.6,0.8,51,-9,0,11.112,,,360,-5.3,3.1,,,,,,,,,wg-a,,,,AAXX 31184 07535 32/// /3606 10000 21090 30005 40336 53008 91800 333 10031 21053=
07535,1999-02-01 00:00:00,-4,1033.6,-0.4,74,-8,0,11.112,,,330,,,,,,,,,,,wg-a,,,,AAXX 01004 07535 32/// /3306 11040 21080 30001 40336 56004 90000=
07535,1999-02-01 06:00:00,-5,1033.3,-0.2,73,-9,15000,7.408,,,10,-5.4,-0.4,,,,,,,,,wg-a,,,,AAXX 01064 07535 12/65 10104 11050 21090 39997 40333 56002 60004 80001 90600 333 11004 21054=
07535,1999-02-01 12:00:00,2,1033,-0.5,37,-11,25000,18.52,,,350,,,,,,,,,,,wg-a,,,,AAXX 01124 07535 32/75 13510 10020 21110 30002 40330 58005 80001 91200=
07535,1999-02-01 18:00:00,2,1032.5,0.6,60,-5,0,11.112,,,320,-5.5,5.3,,,,,,,,,wg-a,,,,AAXX 01184 07535 32/// /3206 10020 21050 39998 40325 53006 91800 333 10053 21055=
07535,1999-02-02 00:00:00,2,1033.7,0.4,80,-1,0,11.112,,,340,,,,,,,,,,,wg-a,,,,AAXX 02004 07535 32/// /3406 10020 21010 30009 40337 52004 90000=
07535,1999-02-02 06:00:00,-1,1034.8,0.7,93,-2,8000,3.704,,,210,-2,2.3,,,,,,,,,wg-a,,,,AAXX 02064 07535 12/58 22102 11010 21020 30016 40348 51007 60004 8/009 90600 333 10023 21020=
07535,1999-02-02 12:00:00,6,1034.8,-0.5,70,1,12000,7.408,,,320,,,,,,,,,,,wg-a,,,,AAXX 02124 07535 32662 73204 10060 20010 30024 40348 58005 875// 91200=
07535,1999-02-03 00:00:00,-1,1038.3,0.1,93,-2,0,3.704,,,200,,,,,,,,,,,wg-a,,,,AAXX 03004 07535 32/// /2002 11010 21020 30050 40383 50001 90000=
07535,1999-02-03 06:00:00,-3,1039.7,0.8,93,-4,8000,3.704,,,180,-3.2,4.9,,,,,,,,,wg-a,,,,AAXX 03064 07535 32/58 01802 11030 21040 30061 40397 53008 80000 90600 333 10049 21032=
07535,1999-02-03 12:00:00,5,1039.9,0.3,81,2,10000,3.704,,,350,,,,,,,,,,,wg-a,,,,AAXX 03124 07535 32/60 73502 10050 20020 30073 40399 50003 85031 91200=
07535,1999-02-03 18:00:00,6,1038,-0.4,75,2,0,7.408,,,260,-3.3,8,,,,,,,,,wg-a,,,,AAXX 03184 07535 32/// /2604 10060 20020 30056 40380 56004 91800 333 10080 21033=
07535,1999-02-04 00:00:00,4,1038.3,-0.6,87,2,0,11.112,,,320,,,,,,,,,,,wg-a,,,,AAXX 04004 07535 32/// /3206 10040 20020 30056 40383 56006 90000=
07535,1999-02-04 06:00:00,0,1037.9,-0,100,0,2000,3.704,,,250,-0.5,5.9,,,,,,,,10,wg-a,,,,AAXX 04064 07535 12/20 82502 10000 20000 30048 40379 55000 60004 71022 8/007 90600 333 10059 21005=
07535,1999-02-04 12:00:00,4,1038.6,0,93,3,1800,7.408,,,300,,,,,,,,,,10,wg-a,,,,AAXX 04124 07535 32218 83004 10040 20030 30060 40386 50000 71042 886// 91200=
07535,1999-02-04 18:00:00,6,1036.4,-0,93,5,0,11.112,,,300,-0.2,6.6,,,,,,,,,wg-a,,,,AAXX 04184 07535 32/// /3006 10060 20050 30040 40364 55000 91800 333 10066 21002=
07535,1999-02-05 00:00:00,5,1035.9,-0.6,93,4,0,7.408,,,280,,,,,,,,,,,wg-a,,,,AAXX 05004 07535 32/// /2804 10050 20040 30035 40359 56006 90000=
07535,1999-02-05 06:00:00,5,1031.5,-2.3,100,5,1200,7.408,,,270,5.3,5.8,,,,,,,,50,wg-a,,,,AAXX 05064 07535 02312 82704 10050 20050 39992 40315 58023 61000 75052 877// 90600 333 10058 20053 6100=
07535,1999-02-05 12:00:00,8,1028.6,-1.4,93,7,2000,11.112,,,300,,,,1,,,,,,50,wg-a,,,,AAXX 05124 07535 12320 83006 10080 20070 39967 40286 58014 60017 75055 877// 91200=
07535,1999-02-05 18:00:00,8,1026.4,-0,71,3,0,14.816,,,330,5.4,9.8,,,,,,,,,wg-a,,,,AAXX 05184 07535 32/// /3308 10080 20030 39945 40264 55000 91800 333 10098 20054=
07535,1999-02-06 00:00:00,6,1027,-0.2,87,4,0,14.816,,,300,,,,,,,,,,,wg-a,,,,AAXX 06004 07535 32/// /3008 10060 20040 39949 40270 55002 90000=
07535,1999-02-06 06:00:00,5,1025.3,-0.7,87,3,15000,7.408,,,290,5.2,7.5,,,,,1,,,,wg-a,,,,AAXX 06064 07535 12465 82904 10050 20030 39932 40253 57007 60014 875// 90600 333 10075 20052=
07535,1999-02-06 12:00:00,8,1024.4,-0.8,71,3,0,14.816,,,300,,,,,,,,,,,wg-a,,,,AAXX 06124 07535 32/// /3008 10080 20030 39926 40244 57008 91200=
07535,1999-02-06 18:00:00,6,1021.6,-1.1,75,2,0,7.408,,,280,5,8.2,,,,,,,,,wg-a,,,,AAXX 06184 07535 32/// /2804 10060 20020 39897 40216 56011 91800 333 10082 20050=
07535,1999-02-07 00:00:00,6,1019.3,-1.4,87,4,0,7.408,,,270,,,,,,,,,,,wg-a,,,,AAXX 07004 07535 32/// /2704 10060 20040 39874 40193 56014 90000=
07535,1999-02-07 06:00:00,6,1013.6,-2.7,100,6,2000,11.112,,,270,5.1,6.4,,1,,,1,,,60,wg-a,,,,AAXX 07064 07535 02320 82706 10060 20060 39820 40136 56027 60014 76066 877// 90600 333 10064 20051 60017=
07535,1999-02-07 12:00:00,8,1010.9,-1.9,87,6,0,18.52,,,280,,,,,,,,,,,wg-a,,,,AAXX 07124 07535 32/// /2810 10080 20060 39796 40109 58019 91200=
07535,1999-02-07 18:00:00,3,1013.1,1.7,100,3,0,7.408,,,300,3.2,8.4,,,,,,,,,wg-a,,,,AAXX 07184 07535 32/// /3004 10030 20030 39811 40131 51017 91800 333 10084 20032=
07535,1999-02-08 00:00:00,2,1017.3,1.7,80,-1,0,11.112,,,320,,,,,,,,,,,wg-a,,,,AAXX 08004 07535 32/// /3206 10020 21010 39851 40173 51017 90000=
07535,1999-02-08 06:00:00,-1,1018.1,-0.4,93,-2,15000,3.704,,,250,-2.5,4.1,,,,,4,,,,wg-a,,,,AAXX 08064 07535 12765 72502 11010 21020 39855 40181 56004 60044 81571 90600 333 10041 21025=
07535,1999-02-08 12:00:00,6,1015.5,-1.8,65,0,25000,18.52,,,250,,,,,,,,,,3,wg-a,,,,AAXX 08124 07535 32475 82510 10060 20000 39838 40155 58018 70372 81507 91200=
07535,1999-02-08 18:00:00,7,1009.2,-2.2,93,6,0,18.52,,,260,-1.6,6.8,,,,,,,,,wg-a,,,,AAXX 08184 07535 32/// /2610 10070 20060 39778 40092 56022 91800 333 10068 21016=
07535,1999-02-09 00:00:00,7,1006.3,-1.7,93,6,0,7.408,,,270,,,,,,,,,,,wg-a,,,,AAXX 09004 07535 32/// /2704 10070 20060 39750 40063 58017 90000=
07535,1999-02-09 06:00:00,7,998.3,-4,93,6,6000,29.632,,,250,6.8,8.1,,1,,,9,,,61,wg-a,,,,AAXX 09064 07535 02256 82516 10070 20060 39673 49983 56040 60094 76162 887// 90600 333 10081 20068 60017=
07535,1999-02-09 12:00:00,6,998.4,0.5,93,5,9000,14.816,,,350,,,,6,,,,,,61,wg-a,,,,AAXX 09124 07535 12359 83508 10060 20050 39672 49984 53005 60067 76166 875// 91200=
07535,1999-02-09 18:00:00,1,1006.8,3.8,86,-1,0,14.816,,,330,1.3,7.3,,,,,,,,,wg-a,,,,AAXX 09184 07535 32/// /3308 10010 21010 39748 40068 53038 91800 333 10073 20013=
07535,1999-02-10 00:00:00,-1,1011.4,1.3,93,-2,0,11.112,,,330,,,,,,,,,,,wg-a,,,,AAXX 10004 07535 32/// /3306 11010 21020 39790 40114 51013 90000=
07535,1999-02-10 06:00:00,-2,1013.3,0.8,93,-3,4000,7.408,,,310,-2.6,1.3,,,,,12,,,10,wg-a,,,,AAXX 10064 07535 12340 73104 11020 21030 39807 40133 50008 60124 71011 875// 90600 333 10013 21026=
07535,1999-02-10 12:00:00,1,1012.7,-0.6,80,-2,15000,11.112,,,300,,,,,,,,,,,wg-a,,,,AAXX 10124 07535 32465 73006 10010 21020 39804 40127 58006 878// 91200=
07535,1999-02-10 18:00:00,-1,1014.5,2.3,80,-4,0,11.112,,,330,-2.2,2.3,,,,,,,,,wg-a,,,,AAXX 10184 07535 32/// /3306 11010 21040 39820 40145 53023 91800 333 10023 21022=
07535,1999-02-11 00:00:00,-2,1017.5,1.3,93,-3,0,7.408,,,300,,,,,,,,,,,wg-a,,,,AAXX 11004 07535 32/// /3004 11020 21030 39848 40175 51013 90000=
07535,1999-02-11 06:00:00,-2,1019.8,1.6,93,-3,4000,11.112,,,310,-2.7,-0.7,,,,,,,,10,wg-a,,,,AAXX 11064 07535 12440 73106 11020 21030 39870 40198 53016 60004 71011 875// 90600 333 11007 21027=
07535,1999-02-11 12:00:00,3,1020.9,0.1,65,-3,18000,25.928,,,340,,,,,,,,,,,wg-a,,,,AAXX 11124 07535 32468 73414 10030 21030 39887 40209 50001 878// 91200=
07535,1999-02-11 18:00:00,2,1022.2,1.1,64,-4,0,11.112,,,350,-2.7,4.2,,,,,,,,,wg-a,,,,AAXX 11184 07535 32/// /3506 10020 21040 39897 40222 53011 91800 333 10042 21027=
07535,1999-02-12 00:00:00,-2,1024.4,0.8,86,-4,0,3.704,,,340,,,,,,,,,,,wg-a,,,,AAXX 12004 07535 32/// /3402 11020 21040 39915 40244 52008 90000=
07535,1999-02-12 06:00:00,-6,1025.1,0.4,93,-7,3000,3.704,,,130,-5.6,1.5,,,,,,,,10,wg-a,,,,AAXX 12064 07535 32/30 01302 11060 21070 39917 40251 53004 71000 80000 90600 333 10015 21056=
07535,1999-02-12 12:00:00,2,1025.4,-0.2,60,-5,12000,14.816,,,350,,,,,,,,,,,wg-a,,,,AAXX 12124 07535 32562 13508 10020 21050 39928 40254 58002 81100 91200=
07535,1999-02-12 18:00:00,0,1026.3,1.6,59,-7,0,14.816,,,10,-5.6,3.5,,,,,,,,,wg-a,,,,AAXX 12184 07535 32/// /0108 10000 21070 39935 40263 53016 91800 333 10035 21056=
07535,1999-02-13 00:00:00,-4,1028.5,0.2,74,-8,0,7.408,,,30,,,,,,,,,,,wg-a,,,,AAXX 13004 07535 32/// /0304 11040 21080 39952 40285 53002 90000=
07535,1999-02-13 06:00:00,-8,1029.2,0.5,92,-9,6000,3.704,,,350,-8.3,0.1,,,,,,,,,wg-a,,,,AAXX 13064 07535 32/56 03502 11080 21090 39954 40292 50005 80000 90600 333 10001 21083=
07535,1999-02-13 12:00:00,1,1028.8,-0.3,34,-13,0,18.52,,,10,,,,,,,,,,,wg-a,,,,AAXX 13124 07535 32/// /0110 10010 21130 39960 40288 58003 91200=
07535,1999-02-13 18:00:00,-1,1029.3,1.4,40,-13,0,18.52,,,20,-8,3.1,,,,,,,,,wg-a,,,,AAXX 13184 07535 32/// /0210 11010 21130 39963 40293 53014 91800 333 10031 21080=
07535,1999-02-14 06:00:00,-8,1030.8,0.1,85,-10,6000,0,,,0,-8.3,-0.6,,,,,,,,,wg-a,,,,AAXX 14064 07535 32/56 00000 11080 21100 39968 40308 51001 80000 90600 333 11006 21083=
07535,1999-02-14 12:00:00,1,1031.3,0.4,51,-8,0,11.112,,,10,,,,,,,,,,,wg-a,,,,AAXX 14124 07535 32/// /0106 10010 21080 39984 40313 51004 91200=
07535,1999-02-14 18:00:00,1,1031.5,0.9,59,-6,0,7.408,,,290,-8.9,4.4,,,,,,,,,wg-a,,,,AAXX 14184 07535 32/// /2904 10010 21060 39987 40315 53009 91800 333 10044 21089=
07535,1999-02-15 00:00:00,0,1032.5,0.1,74,-4,0,3.704,,,280,,,,,,,,,,,wg-a,,,,AAXX 15004 07535 32/// /2802 10000 21040 39995 40325 51001 90000=
07535,1999-02-15 06:00:00,-3,1030.7,-1.4,93,-4,6000,3.704,,,180,-2.6,1,,,,,,,,,wg-a,,,,AAXX 15064 07535 12756 61802 11030 21040 39975 40307 56014 60004 865/0 90600 333 10010 21026=
07535,1999-02-15 12:00:00,1,1029.3,-1.2,86,-1,8000,7.408,,,210,,,,,,,,,,70,wg-a,,,,AAXX 15124 07535 02758 82104 10010 21010 39965 40293 58012 61000 77072 8257/ 91200 333 ////=
07535,1999-02-15 18:00:00,1,1026.8,-0.6,100,1,0,11.112,,,170,-2.7,1.5,,,,,,,,,wg-a,,,,AAXX 15184 07535 32/// /1706 10010 20010 39942 40268 56006 91800 333 10015 21027=
07535,1999-02-16 00:00:00,3,1025.5,-0.8,93,2,0,11.112,,,180,,,,,,,,,,,wg-a,,,,AAXX 16004 07535 32/// /1806 10030 20020 39931 40255 56008 90000=
07535,1999-02-16 06:00:00,3,1023.2,-0.9,93,2,4000,7.408,,,160,1.4,2.6,,0,,,2,,,58,wg-a,,,,AAXX 16064 07535 02440 81604 10030 20020 39909 40232 56009 60024 75865 875// 90600 333 10026 20014 60007=
07535,1999-02-16 12:00:00,5,1023.3,-0.4,100,5,500,7.408,,,330,,,,,,,,,,43,wg-a,,,,AAXX 16124 07535 32/05 93304 10050 20050 39913 40233 58004 74365 89/// 91200=
07535,1999-02-16 18:00:00,6,1022.6,0.2,93,5,0,3.704,,,260,2.6,6.2,,,,,,,,,wg-a,,,,AAXX 16184 07535 32/// /2602 10060 20050 39906 40226 53002 91800 333 10062 20026=
07535,1999-02-17 00:00:00,7,1021.4,-0.6,93,6,0,7.408,,,290,,,,,,,,,,,wg-a,,,,AAXX 17004 07535 32/// /2904 10070 20060 39896 40214 58006 90000=
07535,1999-02-17 06:00:00,4,1022.6,0.6,87,2,12000,3.704,,,310,3.6,6.5,,,,,1,,,,wg-a,,,,AAXX 17064 07535 12662 73102 10040 20020 39904 40226 50006 60014 875// 90600 333 10065 20036=
07535,1999-02-17 12:00:00,7,1024.5,0.3,81,4,15000,14.816,,,300,,,,,,,,,,,wg-a,,,,AAXX 17124 07535 32565 83008 10070 20040 39926 40245 50003 888// 91200=
07535,1999-02-17 18:00:00,6,1024.6,0.9,81,3,0,11.112,,,300,3.3,8.3,,,,,,,,,wg-a,,,,AAXX 17184 07535 32/// /3006 10060 20030 39926 40246 53009 91800 333 10083 20033=
07535,1999-02-18 00:00:00,5,1026.4,0.1,93,4,0,3.704,,,290,,,,,,,,,,,wg-a,,,,AAXX 18004 07535 32/// /2902 10050 20040 39942 40264 51001 90000=
07535,1999-02-18 06:00:00,6,1023,-1.7,93,5,3000,7.408,,,260,3.9,6.4,,0,,,,,,50,wg-a,,,,AAXX 18064 07535 02230 82604 10060 20050 39910 40230 56017 60004 75052 885// 90600 333 10064 20039 60007=
07535,1999-02-18 12:00:00,9,1024.9,1.2,93,8,15000,14.816,,,310,,,,0,,,,,,3,wg-a,,,,AAXX 18124 07535 12465 73108 10090 20080 39933 40249 53012 60007 70365 878// 91200=
07535,1999-02-18 18:00:00,8,1027.8,1.6,87,6,0,11.112,,,300,5.7,9.3,,,,,,,,,wg-a,,,,AAXX 18184 07535 32/// /3006 10080 20060 39959 40278 53016 91800 333 10093 20057=
07535,1999-02-19 00:00:00,7,1029.6,0.4,100,7,0,7.408,,,290,,,,,,,,,,,wg-a,,,,AAXX 19004 07535 32/// /2904 10070 20070 39976 40296 53004 90000=
07535,1999-02-19 06:00:00,7,1029.6,0.3,93,6,10000,7.408,,,260,6.7,7.9,,,,,,,,,wg-a,,,,AAXX 19064 07535 12560 72604 10070 20060 39975 40296 53003 60004 875// 90600 333 10079 20067=
07535,1999-02-19 12:00:00,10,1029.8,0,87,8,7000,11.112,,,290,,,,,,,,,,20,wg-a,,,,AAXX 19124 07535 02357 82906 10100 20080 39981 40298 50000 61000 72052 875// 91200 333 ////=
07535,1999-02-19 18:00:00,9,1029.8,0.5,93,8,0,7.408,,,260,6.6,10.2,,,,,,,,,wg-a,,,,AAXX 19184 07535 32/// /2604 10090 20080 39980 40298 53005 91800 333 10102 20066=
07535,1999-02-20 00:00:00,8,1029.6,-0.3,100,8,0,7.408,,,260,,,,,,,,,,,wg-a,,,,AAXX 20004 07535 32/// /2604 10080 20080 39977 40296 57003 90000=
07535,1999-02-20 06:00:00,8,1027.7,-0.7,100,8,1200,7.408,,,260,8.3,8.7,,1,,,1,,,58,wg-a,,,,AAXX 20064 07535 02212 82604 10080 20080 39959 40277 57007 60014 75865 887// 90600 333 10087 20083 60017=
07535,1999-02-20 12:00:00,10,1026.9,-0.8,93,9,0,14.816,,,270,,,,,,,,,,,wg-a,,,,AAXX 20124 07535 32/// /2708 10100 20090 39953 40269 58008 91200=
07535,1999-02-20 18:00:00,10,1025.2,-0.3,100,10,0,14.816,,,260,8.3,9.8,,,,,,,,,wg-a,,,,AAXX 20184 07535 32/// /2608 10100 20100 39937 40252 55003 91800 333 10098 20083=
07535,1999-02-21 00:00:00,10,1024.5,-0.6,100,10,0,14.816,,,270,,,,,,,,,,,wg-a,,,,AAXX 21004 07535 32/// /2708 10100 20100 39930 40245 58006 90000=
07535,1999-02-21 06:00:00,9,1023.3,0.2,100,9,3000,18.52,,,310,9.4,10.3,,,,,3,,,51,wg-a,,,,AAXX 21064 07535 02230 83110 10090 20090 39918 40233 53002 60034 75165 887// 90600 333 10103 20094 61000=
07535,1999-02-21 12:00:00,9,1023.3,0.2,100,9,3000,18.52,,,310,9.4,10.3,,,,,3,,,51,wg-a,,,,AAXX 21124 07535 02230 83110 10090 20090 39918 40233 53002 60034 75165 887// 91200 333 10103 20094 61000=
07535,1999-02-21 18:00:00,11,1020,-0.9,94,10,0,18.52,,,280,8.7,11.9,,,,,,,,,wg-a,,,,AAXX 21184 07535 32/// /2810 10110 20100 39887 40200 56009 91800 333 10119 20087=
07535,1999-02-22 00:00:00,10,1017.1,-2.6,93,9,0,11.112,,,260,,,,,,,,,,,wg-a,,,,AAXX 22004 07535 32/// /2606 10100 20090 39858 40171 58026 90000=
07535,1999-02-22 06:00:00,8,1016.1,-0.1,93,7,4000,14.816,,,290,7.9,10.8,,,,,4,,,58,wg-a,,,,AAXX 22064 07535 02240 82908 10080 20070 39846 40161 57001 60044 75866 887// 90600 333 10108 20079 61000=
07535,1999-02-22 12:00:00,8,1016.6,-0.4,81,5,15000,22.224,,,310,,,,1,,,,,,25,wg-a,,,,AAXX 22124 07535 12565 63112 10080 20050 39851 40166 56004 60017 72586 84232 91200=
07535,1999-02-22 18:00:00,6,1018.5,2.2,75,2,0,22.224,,,300,6.1,9.5,,,,,,,,,wg-a,,,,AAXX 22184 07535 02/// /3012 10060 20020 39867 40185 53022 61000 91800 333 10095 20061 ////=
07535,1999-02-23 00:00:00,3,1022.6,1.1,93,2,0,7.408,,,280,,,,,,,,,,,wg-a,,,,AAXX 23004 07535 32/// /2804 10030 20020 39903 40226 51011 90000=
07535,1999-02-23 06:00:00,2,1022.3,-0,93,1,8000,7.408,,,270,1.4,6.3,,,,,2,,,,wg-a,,,,AAXX 23064 07535 12658 62704 10020 20010 39899 40223 55000 60024 82532 90600 333 10063 20014=
07535,1999-02-23 12:00:00,7,1022.2,-0.1,70,2,10000,14.816,,,320,,,,0,,,,,,25,wg-a,,,,AAXX 23124 07535 12660 63208 10070 20020 39904 40222 58001 60007 72586 8/200 91200=
07535,1999-02-23 18:00:00,7,1021.6,0.3,61,0,0,7.408,,,310,1.8,9.5,,,,,,,,,wg-a,,,,AAXX 23184 07535 32/// /3104 10070 20000 39897 40216 53003 91800 333 10095 20018=
07535,1999-02-24 00:00:00,4,1020.3,-1.5,93,3,0,3.704,,,170,,,,,,,,,,,wg-a,,,,AAXX 24004 07535 32/// /1702 10040 20030 39882 40203 58015 90000=
07535,1999-02-24 06:00:00,6,1014.1,-1.8,93,5,3000,11.112,,,220,4,6.5,,0,,,,,,60,wg-a,,,,AAXX 24064 07535 02430 82206 10060 20050 39824 40141 56018 60004 76062 875// 90600 333 10065 20040 60007=
07535,1999-02-24 12:00:00,10,1010,-1.9,87,8,8000,14.816,,,210,,,,,,,,,,1,wg-a,,,,AAXX 24124 07535 02558 72108 10100 20080 39789 40100 56019 61000 70186 8783/ 91200 333 ////=
07535,1999-02-24 18:00:00,8,1010.5,0.6,93,7,0,7.408,,,200,5.6,10.3,,,,,,,,,wg-a,,,,AAXX 24184 07535 32/// /2004 10080 20070 39792 40105 53006 91800 333 10103 20056=
07535,1999-02-25 00:00:00,8,1013.8,1.4,93,7,0,7.408,,,50,,,,,,,,,,,wg-a,,,,AAXX 25004 07535 32/// /0504 10080 20070 39824 40138 51014 90000=
07535,1999-02-25 06:00:00,4,1016.4,1.1,100,4,100,0,,,0,3.9,8.4,,,,,,,,45,wg-a,,,,AAXX 25064 07535 32/01 90000 10040 20040 39844 40164 51011 74542 89/// 90600 333 10084 20039=
07535,1999-02-25 12:00:00,9,1018.6,0.4,100,9,15000,3.704,,,360,,,,,,,,,,28,wg-a,,,,AAXX 25124 07535 32465 23602 10090 20090 39872 40186 51004 72841 82800 91200=
07535,1999-02-25 18:00:00,8,1020.4,1.4,87,6,0,11.112,,,320,3.7,13.3,,,,,,,,,wg-a,,,,AAXX 25184 07535 32/// /3206 10080 20060 39888 40204 53014 91800 333 10133 20037=
07535,1999-02-26 00:00:00,2,1022.7,0.5,100,2,0,0,,,0,,,,,,,,,,,wg-a,,,,AAXX 26004 07535 32/// /0000 10020 20020 39903 40227 51005 90000=
07535,1999-02-26 06:00:00,3,1022.1,0,100,3,800,0,,,0,0.7,8.1,,,,,,,,44,wg-a,,,,AAXX 26064 07535 12108 80000 10030 20030 39898 40221 50000 60004 74442 886// 90600 333 10081 20007=
07535,1999-02-26 12:00:00,5,1021.3,-0.8,100,5,7000,3.704,,,150,,,,,,,,,,1,wg-a,,,,AAXX 26124 07535 32457 81502 10050 20050 39893 40213 58008 70142 885// 91200=
07535,1999-02-26 18:00:00,6,1017.2,-1.6,87,4,0,3.704,,,130,2.9,7.3,,,,,,,,,wg-a,,,,AAXX 26184 07535 32/// /1302 10060 20040 39854 40172 56016 91800 333 10073 20029=
07535,1999-02-27 00:00:00,7,1014.2,-1.4,70,2,0,11.112,,,140,,,,,,,,,,,wg-a,,,,AAXX 27004 07535 32/// /1406 10070 20020 39827 40142 57014 90000=
07535,1999-02-27 06:00:00,5,1014.7,1,81,2,10000,3.704,,,100,4.1,8,,,,,,,,,wg-a,,,,AAXX 27064 07535 12/60 61002 10050 20020 39829 40147 53010 60004 82032 90600 333 10080 20041=
07535,1999-02-27 12:00:00,14,1014.9,0.2,67,8,0,18.52,,,160,,,,,,,,,,,wg-a,,,,AAXX 27124 07535 32/// /1610 10140 20080 39841 40149 50002 91200=
07535,1999-02-27 18:00:00,13,1017.1,1.9,72,8,0,7.408,,,230,3.6,16.1,,,,,,,,,wg-a,,,,AAXX 27184 07535 32/// /2304 10130 20080 39861 40171 53019 91800 333 10161 20036=
07535,1999-02-28 00:00:00,8,1022.3,1.6,100,8,0,7.408,,,330,,,,,,,,,,,wg-a,,,,AAXX 28004 07535 32/// /3304 10080 20080 39906 40223 51016 90000=
07535,1999-02-28 06:00:00,7,1024.7,1.5,93,6,12000,7.408,,,320,6.5,12.9,,0,,,5,,,1,wg-a,,,,AAXX 28064 07535 02362 83204 10070 20060 39928 40247 53015 60054 70162 885// 90600 333 10129 20065 60007=
07535,1999-02-28 12:00:00,11,1026.2,0.4,54,2,0,14.816,,,340,,,,,,,,,,,wg-a,,,,AAXX 28124 07535 32/// /3408 10110 20020 39947 40262 51004 91200=
07535,1999-02-28 18:00:00,8,1026.9,0.8,61,1,0,7.408,,,310,5,12.7,,,,,,,,,wg-a,,,,AAXX 28184 07535 32/// /3104 10080 20010 39951 40269 53008 91800 333 10127 20050=
07535,1999-03-01 00:00:00,1,1030.1,0.8,93,0,0,3.704,,,150,,,,,,,,,,,wg-a,,,,AAXX 01004 07535 32/// /1502 10010 20000 39974 40301 51008 90000=
07535,1999-03-01 06:00:00,-1,1029.8,-0.1,100,-1,20000,7.408,,,140,-0.8,8.2,,,,,,,,,wg-a,,,,AAXX 01064 07535 32/70 01404 11010 21010 39968 40298 55001 80000 90600 333 10082 21008=
07535,1999-03-01 12:00:00,11,1029.2,-0.2,62,4,500,7.408,,,330,,,,,,,,,,,wg-a,,,,AAXX 01124 07535 32500 53304 10110 20040 39977 40292 58002 83101 91200=
07535,1999-03-01 18:00:00,9,1028.7,0.5,71,4,0,3.704,,,250,-0.9,14,,,,,,,,,wg-a,,,,AAXX 01184 07535 32/// /2502 10090 20040 39969 40287 52005 91800 333 10140 21009=
07535,1999-03-02 00:00:00,8,1029,-0.8,76,4,0,3.704,,,260,,,,,,,,,,,wg-a,,,,AAXX 02004 07535 32/// /2602 10080 20040 39971 40290 58008 90000=
07535,1999-03-02 12:00:00,12,1024.3,-1.6,88,10,6000,11.112,,,230,,,,,,,,,,1,wg-a,,,,AAXX 02124 07535 32356 72306 10120 20100 39930 40243 58016 70152 875// 91200=
07535,1999-03-02 18:00:00,11,1019.8,-1.6,87,9,0,7.408,,,250,6.4,12.9,,,,,,,,,wg-a,,,,AAXX 02184 07535 32/// /2504 10110 20090 39886 40198 56016 91800 333 10129 20064=
07535,1999-03-03 00:00:00,10,1015.8,-2.7,87,8,0,11.112,,,220,,,,,,,,,,,wg-a,,,,AAXX 03004 07535 32/// /2206 10100 20080 39845 40158 58027 90000=
07535,1999-03-03 06:00:00,9,1010.4,-2,87,7,8000,11.112,,,220,8.6,11.2,,,,,,,,,wg-a,,,,AAXX 03064 07535 12658 82206 10090 20070 39792 40104 56020 60004 8257/ 90600 333 10112 20086=
07535,1999-03-03 12:00:00,8,1007.1,-2.2,93,7,500,11.112,,,210,,,,3,,,,,,61,wg-a,,,,AAXX 03124 07535 12300 82106 10080 20070 39759 40071 58022 60037 76162 885// 91200=
07535,1999-03-04 06:00:00,4,996.8,-0.3,100,4,8000,11.112,,,250,4.2,,,1,,,13,,,60,wg-a,,,,AAXX 04064 07535 02358 82506 10040 20040 39655 49968 56003 60134 76062 885// 90600 333 10061 20042 60017=
07535,1999-03-04 12:00:00,9,996.8,-0.5,76,5,25000,18.52,,,250,,,,,,,,,,2,wg-a,,,,AAXX 04124 07535 32475 72510 10090 20050 39660 49968 58005 70262 878// 91200=
07535,1999-03-04 18:00:00,6,997.8,1.6,87,4,0,14.816,,,250,4.2,9.6,,,,,,,,,wg-a,,,,AAXX 04184 07535 32/// /2508 10060 20040 39666 49978 53016 91800 333 10096 20042=
07535,1999-03-05 00:00:00,4,1000.2,0.9,93,3,0,11.112,,,250,,,,,,,,,,,wg-a,,,,AAXX 05004 07535 32/// /2506 10040 20030 39688 40002 51009 90000=
07535,1999-03-05 06:00:00,4,1000.4,0.6,93,3,15000,11.112,,,250,3.5,5.8,,,,,4,,,,wg-a,,,,AAXX 05064 07535 12465 72506 10040 20030 39689 40004 53006 60044 878// 90600 333 10058 20035=
07535,1999-03-05 12:00:00,8,1001.2,0,71,3,500,14.816,,,250,,,,,,,,,,3,wg-a,,,,AAXX 05124 07535 02400 72508 10080 20030 39702 40012 50000 61000 70386 878// 91200 333 ////=
07535,1999-03-05 18:00:00,3,1004.2,1.6,93,2,0,7.408,,,250,2.8,8.2,,,,,,,,,wg-a,,,,AAXX 05184 07535 32/// /2504 10030 20020 39725 40042 53016 91800 333 10082 20028=
07535,1999-03-06 00:00:00,3,1005.4,-0.2,93,2,0,7.408,,,240,,,,,,,,,,,wg-a,,,,AAXX 06004 07535 32/// /2404 10030 20020 39736 40054 58002 90000=
07535,1999-03-06 06:00:00,1,1006.5,1,100,1,8000,7.408,,,260,1.1,2.9,,0,,,5,,,3,wg-a,,,,AAXX 06064 07535 02258 82604 10010 20010 39745 40065 53010 60054 70386 878// 90600 333 10029 20011 60007=
07535,1999-03-06 12:00:00,7,1008.1,0.6,61,0,0,18.52,,,290,,,,,,,,,,,wg-a,,,,AAXX 06124 07535 32/// /2910 10070 20000 39767 40081 51006 91200=
07535,1999-03-06 18:00:00,1,1010.1,1,93,0,0,3.704,,,260,0.9,7.7,,,,,,,,,wg-a,,,,AAXX 06184 07535 32/// /2602 10010 20000 39780 40101 53010 91800 333 10077 20009=
07535,1999-03-07 00:00:00,1,1011.2,0,100,1,0,3.704,,,220,,,,,,,,,,,wg-a,,,,AAXX 07004 07535 32/// /2202 10010 20010 39791 40112 50000 90000=
07535,1999-03-07 06:00:00,1,1011.4,0.8,100,1,10000,7.408,,,260,0.1,1.5,,,,,2,,,,wg-a,,,,AAXX 07064 07535 12460 72604 10010 20010 39792 40114 53008 60024 878// 90600 333 10015 20001=
07535,1999-03-07 12:00:00,8,1012.2,0.1,66,2,0,7.408,,,220,,,,,,,,,,,wg-a,,,,AAXX 07124 07535 32/// /2204 10080 20020 39807 40122 50001 91200=
07535,1999-03-07 18:00:00,6,1011.3,0.1,75,2,0,11.112,,,200,0.8,8.7,,,,,,,,,wg-a,,,,AAXX 07184 07535 32/// /2006 10060 20020 39797 40113 50001 91800 333 10087 20008=
07535,1999-03-08 00:00:00,4,1010.3,-1.2,87,2,0,18.52,,,150,,,,,,,,,,,wg-a,,,,AAXX 08004 07535 32/// /1510 10040 20020 39785 40103 58012 90000=
07535,1999-03-08 06:00:00,5,1007.5,-1,75,1,18000,18.52,,,170,3.6,5.8,,,,,,,,,wg-a,,,,AAXX 08064 07535 12668 81710 10050 20010 39759 40075 58010 60004 8557/ 90600 333 10058 20036=
07535,1999-03-08 12:00:00,14,1005.5,0,51,4,500,25.928,,,200,,,,,,,,,,,wg-a,,,,AAXX 08124 07535 32/00 72014 10140 20040 39750 40055 50000 82032 91200=
07535,1999-03-08 18:00:00,14,1004.5,-0,51,4,0,14.816,,,200,4.8,16.5,,,,,,,,,wg-a,,,,AAXX 08184 07535 32/// /2008 10140 20040 39740 40045 55000 91800 333 10165 20048=
07535,1999-03-09 00:00:00,10,1005.7,0.3,71,5,0,29.632,,,160,,,,,,,,,,,wg-a,,,,AAXX 09004 07535 32/// /1616 10100 20050 39748 40057 51003 90000=
07535,1999-03-09 06:00:00,8,1005.4,0.1,81,5,12000,7.408,,,150,7.7,13.8,,,,,,,,,wg-a,,,,AAXX 09064 07535 12/62 31504 10080 20050 39742 40054 53001 60004 81031 90600 333 10138 20077=
07535,1999-03-09 12:00:00,17,1005.9,0.3,52,7,25000,25.928,,,170,,,,,,,,,,,wg-a,,,,AAXX 09124 07535 32/75 41714 10170 20070 39757 40059 52003 80002 91200=
07535,1999-03-09 18:00:00,13,1006.9,1.1,62,6,0,18.52,,,150,7.8,18.7,,,,,,,,,wg-a,,,,AAXX 09184 07535 32/// /1510 10130 20060 39763 40069 53011 91800 333 10187 20078=
07535,1999-03-10 00:00:00,10,1008.5,0.4,71,5,0,11.112,,,150,,,,,,,,,,,wg-a,,,,AAXX 10004 07535 32/// /1506 10100 20050 39774 40085 53004 90000=
07535,1999-03-10 12:00:00,19,1008.9,0.2,52,9,25000,14.816,,,190,,,,,,,,,,,wg-a,,,,AAXX 10124 07535 32/75 41908 10190 20090 39788 40089 50002 81032 91200=
07535,1999-03-10 18:00:00,16,1009,0.6,59,8,0,14.816,,,160,10,19.8,,,,,,,,,wg-a,,,,AAXX 10184 07535 32/// /1608 10160 20080 39786 40090 53006 91800 333 10198 20100=
07535,1999-03-11 00:00:00,10,1010.3,0.4,82,7,0,7.408,,,120,,,,,,,,,,,wg-a,,,,AAXX 11004 07535 32/// /1204 10100 20070 39792 40103 51004 90000=
07535,1999-03-11 06:00:00,10,1010.1,0.7,76,6,15000,7.408,,,140,9.2,16,,,,,,,,,wg-a,,,,AAXX 11064 07535 12/65 41404 10100 20060 39790 40101 53007 60004 81031 90600 333 10160 20092=
07535,1999-03-11 12:00:00,18,1010,-0.1,56,9,25000,14.816,,,160,,,,,,,,,,,wg-a,,,,AAXX 11124 07535 32/75 71608 10180 20090 39797 40100 58001 81032 91200=
07535,1999-03-11 18:00:00,17,1007.8,-0.4,59,9,0,14.816,,,150,9.4,20.8,,,,,,,,,wg-a,,,,AAXX 11184 07535 32/// /1508 10170 20090 39776 40078 56004 91800 333 10208 20094=
07535,1999-03-12 00:00:00,13,1008.6,0.4,54,4,0,14.816,,,180,,,,,,,,,,,wg-a,,,,AAXX 12004 07535 32/// /1808 10130 20040 39779 40086 53004 90000=
07535,1999-03-12 06:00:00,13,1008.7,-0,62,6,20000,25.928,,,150,12,17.3,,,,,,,,,wg-a,,,,AAXX 12064 07535 12/70 71514 10130 20060 39779 40087 55000 60004 85032 90600 333 10173 20120=
07535,1999-03-12 12:00:00,17,1011,1.3,48,6,25000,25.928,,,170,,,,,,,,,,,wg-a,,,,AAXX 12124 07535 32/75 71714 10170 20060 39806 40110 53013 83072 91200=
07535,1999-03-12 18:00:00,13,1011.9,0.5,62,6,0,14.816,,,150,12.5,16.6,,,,,,,,,wg-a,,,,AAXX 12184 07535 32/// /1508 10130 20060 39811 40119 53005 91800 333 10166 20125=
07535,1999-03-13 00:00:00,11,1013.9,0.4,66,5,0,11.112,,,140,,,,,,,,,,,wg-a,,,,AAXX 13004 07535 32/// /1406 10110 20050 39828 40139 51004 90000=
07535,1999-03-13 06:00:00,8,1014.5,0.6,71,3,20000,11.112,,,130,7.8,13,,,,,,,,,wg-a,,,,AAXX 13064 07535 12/70 21306 10080 20030 39831 40145 53006 60004 82031 90600 333 10130 20078=
07535,1999-03-13 12:00:00,14,1015,-0.3,47,3,0,11.112,,,150,,,,,,,,,,,wg-a,,,,AAXX 13124 07535 32/// /1506 10140 20030 39842 40150 58003 91200=
07535,1999-03-13 18:00:00,13,1015.3,0.5,62,6,0,0,,,0,7.8,16,,,,,,,,,wg-a,,,,AAXX 13184 07535 32/// /0000 10130 20060 39844 40153 53005 91800 333 10160 20078=
07535,1999-03-14 00:00:00,12,1017.8,1,62,5,0,11.112,,,180,,,,,,,,,,,wg-a,,,,AAXX 14004 07535 32/// /1806 10120 20050 39866 40178 51010 90000=
07535,1999-03-14 06:00:00,7,1019.5,0.8,93,6,8000,7.408,,,140,6.3,13,,,,,,,,,wg-a,,,,AAXX 14064 07535 12/58 31404 10070 20060 39877 40195 53008 60004 80001 90600 333 10130 20063=
07535,1999-03-14 12:00:00,15,1020.6,0.3,59,7,0,3.704,,,310,,,,,,,,,,,wg-a,,,,AAXX 14124 07535 32/// /3102 10150 20070 39898 40206 51003 91200=
07535,1999-03-14 18:00:00,14,1020.6,0.6,63,7,0,3.704,,,230,6.6,16.4,,,,,,,,,wg-a,,,,AAXX 14184 07535 32/// /2302 10140 20070 39896 40206 53006 91800 333 10164 20066=
07535,1999-03-15 00:00:00,9,1022.5,0.4,87,7,0,3.704,,,160,,,,,,,,,,,wg-a,,,,AAXX 15004 07535 32/// /1602 10090 20070 39910 40225 53004 90000=
07535,1999-03-15 06:00:00,8,1022.7,0.5,93,7,10000,0,,,0,7.8,14,,,,,,,,,wg-a,,,,AAXX 15064 07535 12/60 70000 10080 20070 39910 40227 53005 60004 85032 90600 333 10140 20078=
07535,1999-03-15 12:00:00,20,1021.8,-0.1,46,8,20000,7.408,,,360,,,,,,,,,,,wg-a,,,,AAXX 15124 07535 32/70 33604 10200 20080 39914 40218 58001 80002 91200=
07535,1999-03-15 18:00:00,19,1020.7,-0,37,4,0,7.408,,,310,7.4,22.5,,,,,,,,,wg-a,,,,AAXX 15184 07535 32/// /3104 10190 20040 39902 40207 55000 91800 333 10225 20074=
07535,1999-03-16 00:00:00,12,1023.1,0.7,62,5,0,11.112,,,80,,,,,,,,,,,wg-a,,,,AAXX 16004 07535 32/// /0806 10120 20050 39918 40231 51007 90000=
07535,1999-03-16 06:00:00,8,1023.4,0.5,81,5,8000,7.408,,,120,7.6,18.5,,,,,,,,,wg-a,,,,AAXX 16064 07535 32/58 01204 10080 20050 39917 40234 52005 80000 90600 333 10185 20076=
07535,1999-03-16 12:00:00,19,1021.8,-1.1,37,4,18000,11.112,,,30,,,,,,,,,,,wg-a,,,,AAXX 16124 07535 32/68 00306 10190 20040 39913 40218 58011 80000 91200=
07535,1999-03-16 18:00:00,16,1021,0.5,27,-3,0,14.816,,,360,7.6,20.9,,,,,,,,,wg-a,,,,AAXX 16184 07535 32/// /3608 10160 21030 39902 40210 53005 91800 333 10209 20076=
07535,1999-03-17 00:00:00,10,1022.6,-0.1,53,1,0,3.704,,,10,,,,,,,,,,,wg-a,,,,AAXX 17004 07535 32/// /0102 10100 20010 39911 40226 58001 90000=
07535,1999-03-17 06:00:00,2,1022.1,-0.5,87,0,8000,3.704,,,130,1.9,16.1,,,,,,,,,wg-a,,,,AAXX 17064 07535 12/58 11302 10020 20000 39897 40221 56005 60004 80001 90600 333 10161 20019=
07535,1999-03-17 12:00:00,18,1020.1,-0.9,34,2,18000,14.816,,,30,,,,,,,,,,,wg-a,,,,AAXX 17124 07535 32/68 40308 10180 20020 39895 40201 58009 80001 91200=
07535,1999-03-17 18:00:00,14,1019.9,0.6,26,-5,0,14.816,,,20,1.2,18.6,,,,,,,,,wg-a,,,,AAXX 17184 07535 32/// /0208 10140 21050 39889 40199 53006 91800 333 10186 20012=
07535,1999-03-18 00:00:00,8,1022,0.1,49,-2,0,7.408,,,360,,,,,,,,,,,wg-a,,,,AAXX 18004 07535 32/// /3604 10080 21020 39903 40220 50001 90000=
07535,1999-03-18 06:00:00,0,1022.4,0.3,80,-3,12000,3.704,,,140,-0.4,14.3,,,,,,,,,wg-a,,,,AAXX 18064 07535 32/62 01402 10000 21030 39897 40224 53003 80000 90600 333 10143 21004=
07535,1999-03-18 09:00:00,7.1,1022.4,0.9,56,-1.1,15000,3.704,,,320,,,,,,,,,,,og-post,,,,AAXX 18094 07535 32965 03202 10071 21011 39906 40224 53009=
07535,1999-03-18 12:00:00,15,1020.8,-0.7,31,-2,25000,14.816,,,360,,,,,,,,,,,wg-a,,,,AAXX 18124 07535 32/75 33608 10150 21020 39899 40208 58007 80001 91200=
07535,1999-03-18 18:00:00,13,1019.9,0.4,28,-5,0,14.816,,,340,-0.2,17.4,,,,,,,,,wg-a,,,,AAXX 18184 07535 32/// /3408 10130 21050 39888 40199 53004 91800 333 10174 21002=
07535,1999-03-19 00:00:00,10,1021.2,0.1,50,0,0,3.704,,,280,,,,,,,,,,,wg-a,,,,AAXX 19004 07535 32/// /2802 10100 20000 39898 40212 50001 90000=
07535,1999-03-19 06:00:00,9,1020.8,0.4,93,8,900,11.112,,,330,8,13.3,,,,,1,,,46,wg-a,,,,AAXX 19064 07535 12209 83306 10090 20080 39892 40208 53004 60014 74664 876// 90600 333 10133 20080=
07535,1999-03-19 12:00:00,11,1023.4,1,40,-2,500,22.224,,,10,,,,,,,,,,3,wg-a,,,,AAXX 19124 07535 32500 40112 10110 21020 39919 40234 51010 70341 81101 91200=
07535,1999-03-19 18:00:00,9,1024.4,0.7,46,-2,0,11.112,,,360,7.5,11.9,,,,,,,,,wg-a,,,,AAXX 19184 07535 32/// /3606 10090 21020 39927 40244 53007 91800 333 10119 20075=
07535,1999-03-20 00:00:00,5,1026.6,0.1,60,-2,0,7.408,,,360,,,,,,,,,,,wg-a,,,,AAXX 20004 07535 32/// /3604 10050 21020 39943 40266 50001 90000=
07535,1999-03-20 06:00:00,2,1026.2,0.1,75,-2,15000,7.408,,,20,2,9.2,,,,,,,,,wg-a,,,,AAXX 20064 07535 12/65 20204 10020 21020 39937 40262 53001 60004 80002 90600 333 10092 20020=
07535,1999-03-20 12:00:00,12,1025.1,-0.7,44,0,0,18.52,,,10,,,,,,,,,,,wg-a,,,,AAXX 20124 07535 32/// /0110 10120 20000 39937 40251 58007 91200=
07535,1999-03-20 18:00:00,10,1023.2,-0.3,50,0,0,11.112,,,330,2,13.6,,,,,,,,,wg-a,,,,AAXX 20184 07535 32/// /3306 10100 20000 39917 40232 55003 91800 333 10136 20020=
07535,1999-03-21 00:00:00,5,1024.1,-0.3,65,-1,0,7.408,,,350,,,,,,,,,,,wg-a,,,,AAXX 21004 07535 32/// /3504 10050 21010 39919 40241 55003 90000=
07535,1999-03-21 06:00:00,-2,1023,-0.4,93,-3,10000,7.408,,,140,-1.9,10.1,,,,,,,,,wg-a,,,,AAXX 21064 07535 32/60 01404 11020 21030 39901 40230 58004 80000 90600 333 10101 21019=
07535,1999-03-21 12:00:00,13,1020.3,-1.5,38,-1,0,7.408,,,280,,,,,,,,,,,wg-a,,,,AAXX 21124 07535 32/// /2804 10130 21010 39891 40203 58015 91200=
07535,1999-03-21 18:00:00,10,1017.3,-0.6,57,2,0,18.52,,,290,-1.7,15,,,,,,,,,wg-a,,,,AAXX 21184 07535 32/// /2910 10100 20020 39859 40173 55006 91800 333 10150 21017=
07535,1999-03-22 00:00:00,7,1015.2,-1.7,93,6,0,18.52,,,260,,,,,,,,,,,wg-a,,,,AAXX 22004 07535 32/// /2610 10070 20060 39836 40152 57017 90000=
07535,1999-03-22 06:00:00,5,1016.1,1.4,100,5,12000,11.112,,,300,5.4,9.6,,,,,2,,,3,wg-a,,,,AAXX 22064 07535 12262 73006 10050 20050 39843 40161 53014 60024 70362 875// 90600 333 10096 20054=
07535,1999-03-22 12:00:00,11,1018,0.5,58,3,25000,18.52,,,300,,,,,,,,,,,wg-a,,,,AAXX 22124 07535 32475 63010 10110 20030 39867 40180 51005 86800 91200=
07535,1999-03-22 18:00:00,8,1019.3,1.3,71,3,0,11.112,,,310,5.3,11,,,,,,,,,wg-a,,,,AAXX 22184 07535 32/// /3106 10080 20030 39877 40193 53013 91800 333 10110 20053=
07535,1999-03-23 00:00:00,5,1021.9,0.6,93,4,0,3.704,,,270,,,,,,,,,,,wg-a,,,,AAXX 23004 07535 32/// /2702 10050 20040 39898 40219 51006 90000=
07535,1999-03-23 06:00:00,5,1021.3,0.1,93,4,4000,3.704,,,280,3.9,8.4,,,,,,,,10,wg-a,,,,AAXX 23064 07535 12340 82802 10050 20040 39892 40213 53001 60004 71022 885// 90600 333 10084 20039=
07535,1999-03-23 12:00:00,10,1021.5,-0.5,62,3,25000,11.112,,,360,,,,,,,,,,1,wg-a,,,,AAXX 23124 07535 32575 53606 10100 20030 39901 40215 58005 70142 85200 91200=
07535,1999-03-23 18:00:00,10,1018.6,-0.7,66,4,0,14.816,,,60,4.5,13.5,,,,,,,,,wg-a,,,,AAXX 23184 07535 32/// /0608 10100 20040 39872 40186 55007 91800 333 10135 20045=
07535,1999-03-24 00:00:00,5,1016.8,-1.5,87,3,0,11.112,,,90,,,,,,,,,,,wg-a,,,,AAXX 24004 07535 32/// /0906 10050 20030 39850 40168 58015 90000=
07535,1999-03-24 06:00:00,5,1012.9,-1.3,81,2,15000,7.408,,,150,4.5,9.9,,,,,,,,,wg-a,,,,AAXX 24064 07535 32/65 01504 10050 20020 39811 40129 56013 80000 90600 333 10099 20045=
07535,1999-03-24 12:00:00,19,1008.3,-2.2,37,4,40000,11.112,,,150,,,,,,,,,,,wg-a,,,,AAXX 24124 07535 32/82 11506 10190 20040 39782 40083 58022 80001 91200=
07535,1999-03-24 18:00:00,14,1005.9,-0.3,47,3,0,18.52,,,150,4.9,20.5,,,,,,,,,wg-a,,,,AAXX 24184 07535 32/// /1510 10140 20030 39754 40059 56003 91800 333 10205 20049=
07535,1999-03-25 00:00:00,12,1003.9,-1.2,62,5,0,35.188,,,160,,,,,,,,,,,wg-a,,,,AAXX 25004 07535 32/// /1619 10120 20050 39732 40039 58012 90000=
07535,1999-03-25 06:00:00,11,1002.6,-0.4,76,7,15000,18.52,,,170,10.8,14.3,,,,,,,,60,wg-a,,,,AAXX 25064 07535 02665 81710 10110 20070 39718 40026 56004 61000 76062 8557/ 90600 333 10143 20108 6100=
07535,1999-03-25 12:00:00,11,1002.4,0.2,94,10,15000,7.408,,,210,,,,1,,,,,,21,wg-a,,,,AAXX 25124 07535 12465 82104 10110 20100 39717 40024 53002 60017 72162 8687/ 91200=
07535,1999-03-25 18:00:00,12,1002.2,0.1,82,9,0,7.408,,,180,9,12.7,,,,,,,,,wg-a,,,,AAXX 25184 07535 32/// /1804 10120 20090 39716 40022 53001 91800 333 10127 20090=
07535,1999-03-26 00:00:00,9,1002.8,-0.2,93,8,0,7.408,,,220,,,,,,,,,,,wg-a,,,,AAXX 26004 07535 32/// /2204 10090 20080 39718 40028 55002 90000=
07535,1999-03-26 06:00:00,7,1003.8,0.6,93,6,10000,3.704,,,250,6.6,11.7,,4,,,25,,,61,wg-a,,,,AAXX 26064 07535 02460 82502 10070 20060 39725 40038 53006 60254 76166 878// 90600 333 10117 20066 60047=
07535,1999-03-26 12:00:00,9,1005.6,0.6,87,7,15000,11.112,,,250,,,,0,,,,,,1,wg-a,,,,AAXX 26124 07535 12465 82506 10090 20070 39745 40056 51006 60007 70162 872// 91200=
07535,1999-03-26 18:00:00,9,1007.1,1.2,61,2,0,14.816,,,300,6.6,10.2,,,,,,,,,wg-a,,,,AAXX 26184 07535 32/// /3008 10090 20020 39760 40071 51012 91800 333 10102 20066=
07535,1999-03-27 00:00:00,2,1007.9,-1,93,1,0,3.704,,,170,,,,,,,,,,,wg-a,,,,AAXX 27004 07535 32/// /1702 10020 20010 39759 40079 58010 90000=
07535,1999-03-27 06:00:00,2,1006.4,-0.4,93,1,12000,7.408,,,170,0.4,8.9,,,,,4,,,,wg-a,,,,AAXX 27064 07535 12462 71704 10020 20010 39745 40064 55004 60044 878// 90600 333 10089 20004=
07535,1999-03-27 12:00:00,11,1005.3,-0.6,66,5,0,11.112,,,310,,,,,,,,,,,wg-a,,,,AAXX 27124 07535 32/// /3106 10110 20050 39745 40053 58006 91200=
07535,1999-03-27 18:00:00,8,1007,1.3,81,5,0,11.112,,,260,1.4,12.4,,,,,,,,,wg-a,,,,AAXX 27184 07535 32/// /2606 10080 20050 39758 40070 53013 91800 333 10124 20014=
07535,1999-03-28 00:00:00,6,1009.8,1,93,5,0,3.704,,,250,,,,,,,,,,,wg-a,,,,AAXX 28004 07535 32/// /2502 10060 20050 39782 40098 52010 90000=
07535,1999-03-28 06:00:00,4,1013.4,2.3,100,4,15000,3.704,,,290,4.1,7.7,,,,,3,,,3,wg-a,,,,AAXX 28064 07535 12365 72902 10040 20040 39815 40134 53023 60034 70386 865// 90600 333 10077 20041=
07535,1999-03-28 12:00:00,12,1016,0.8,44,0,0,22.224,,,350,,,,,,,,,,,wg-a,,,,AAXX 28124 07535 32/// /3512 10120 20000 39849 40160 50008 91200=
07535,1999-03-28 18:00:00,12,1017.8,1.8,40,-1,0,11.112,,,360,4,14.4,,,,,,,,,wg-a,,,,AAXX 28184 07535 32/// /3606 10120 21010 39866 40178 53018 91800 333 10144 20040=
07535,1999-03-29 00:00:00,6,1020.9,0.7,81,3,0,7.408,,,300,,,,,,,,,,,wg-a,,,,AAXX 29004 07535 32/// /3004 10060 20030 39890 40209 50007 90000=
07535,1999-03-29 06:00:00,1,1022.1,1,93,0,2500,3.704,,,160,0.7,11.8,,,,,,,,10,wg-a,,,,AAXX 29064 07535 32/25 01602 10010 20000 39896 40221 53010 71000 80000 90600 333 10118 20007=
07535,1999-03-29 12:00:00,12,1021.3,-0.6,67,6,20000,7.408,,,310,,,,,,,,,,3,wg-a,,,,AAXX 29124 07535 32570 13104 10120 20060 39901 40213 58006 70341 81200 91200=
07535,1999-03-29 18:00:00,13,1019.4,-0.1,51,3,0,7.408,,,300,0.5,15.8,,,,,,,,,wg-a,,,,AAXX 29184 07535 32/// /3004 10130 20030 39884 40194 55001 91800 333 10158 20005=
07535,1999-03-30 00:00:00,5,1021.1,-0.2,87,3,0,7.408,,,140,,,,,,,,,,,wg-a,,,,AAXX 30004 07535 32/// /1404 10050 20030 39891 40211 58002 90000=
07535,1999-03-30 06:00:00,4,1020.3,-0.2,93,3,10000,3.704,,,100,3.9,13.3,,,,,,,,,wg-a,,,,AAXX 30064 07535 12/60 21002 10040 20030 39882 40203 55002 60004 81032 90600 333 10133 20039=
07535,1999-03-30 12:00:00,17,1017.4,-1.4,39,3,40000,11.112,,,360,,,,,,,,,,,wg-a,,,,AAXX 30124 07535 32682 13606 10170 20030 39868 40174 58014 81101 91200=
07535,1999-03-30 18:00:00,17,1015.5,-0.5,36,2,0,7.408,,,330,4.1,20,,,,,,,,,wg-a,,,,AAXX 30184 07535 32/// /3304 10170 20020 39849 40155 55005 91800 333 10200 20041=
07535,1999-03-31 00:00:00,7,1017.7,0.2,76,3,0,11.112,,,130,,,,,,,,,,,wg-a,,,,AAXX 31004 07535 32/// /1306 10070 20030 39860 40177 51002 90000=
07535,1999-03-31 06:00:00,7,1016.8,-0.2,70,2,25000,7.408,,,140,6,16.6,,,,,,,,,wg-a,,,,AAXX 31064 07535 32/75 01404 10070 20020 39851 40168 55002 80000 90600 333 10166 20060=
07535,1999-03-31 12:00:00,21,1014.3,-1.3,30,3,25000,7.408,,,140,,,,,,,,,,,wg-a,,,,AAXX 31124 07535 32/75 01404 10210 20030 39842 40143 58013 80000 91200=
07535,1999-03-31 18:00:00,19,1011.3,-0.9,32,2,0,11.112,,,140,6.6,23.1,,,,,,,,,wg-a,,,,AAXX 31184 07535 32/// /1406 10190 20020 39811 40113 56009 91800 333 10231 20066=
07535,1999-04-01 00:00:00,12,1011.7,-0.6,50,2,0,14.816,,,130,,,,,,,,,,,wg-a,,,,AAXX 01004 07535 32/// /1308 10120 20020 39807 40117 58006 90000=
07535,1999-04-01 06:00:00,11,1010.4,-0.1,62,4,20000,14.816,,,150,10.7,19.1,,,,,,,,,wg-a,,,,AAXX 01064 07535 32/70 01508 10110 20040 39794 40104 55001 80000 90600 333 10191 20107=
07535,1999-04-01 12:00:00,20,1010,0.5,37,5,25000,18.52,,,150,,,,,,,,,,,wg-a,,,,AAXX 01124 07535 32/75 61510 10200 20050 39799 40100 51005 80002 91200=
07535,1999-04-01 18:00:00,18,1010.5,1.1,49,7,0,14.816,,,170,11,22.2,,,,,,,,,wg-a,,,,AAXX 01184 07535 32/// /1708 10180 20070 39803 40105 53011 91800 333 10222 20110=
07535,1999-04-02 06:00:00,7,1017.2,1.2,93,6,700,7.408,,,140,5.9,18.3,,,,,10,,,42,wg-a,,,,AAXX 02064 07535 12/07 11404 10070 20060 39855 40172 53012 60104 74264 80001 90600 333 10183 20059=
07535,1999-04-02 12:00:00,18,1017.8,0.1,59,10,500,7.408,,,170,,,,,,,,,,3,wg-a,,,,AAXX 02124 07535 32500 61704 10180 20100 39874 40178 50001 70341 84201 91200=
07535,1999-04-02 18:00:00,16,1019.6,1.7,51,6,0,7.408,,,290,6.7,20.2,,,,,,,,,wg-a,,,,AAXX 02184 07535 32/// /2904 10160 20060 39889 40196 53017 91800 333 10202 20067=
07535,1999-04-03 00:00:00,12,1023.2,0.5,76,8,0,0,,,0,,,,,,,,,,,wg-a,,,,AAXX 03004 07535 32/// /0000 10120 20080 39919 40232 50005 90000=
07535,1999-04-03 06:00:00,9,1024.3,1.3,93,8,8000,7.408,,,320,7.9,16.2,,,,,,,,,wg-a,,,,AAXX 03064 07535 12558 73204 10090 20080 39927 40243 53013 60004 8657/ 90600 333 10162 20079=
07535,1999-04-03 12:00:00,15,1024.9,-0.1,88,13,0,3.704,,,240,,,,,,,,,,,wg-a,,,,AAXX 03124 07535 32/// /2402 10150 20130 39940 40249 58001 91200=
07535,1999-04-03 18:00:00,14,1025.6,0.6,94,13,0,7.408,,,280,9.5,15.4,,,,,,,,,wg-a,,,,AAXX 03184 07535 32/// /2804 10140 20130 39945 40256 51006 91800 333 10154 20095=
07535,1999-04-04 00:00:00,12,1027.9,1,100,12,0,3.704,,,300,,,,,,,,,,,wg-a,,,,AAXX 04004 07535 32/// /3002 10120 20120 39966 40279 52010 90000=
07535,1999-04-04 06:00:00,10,1029.1,0.6,100,10,10000,3.704,,,280,10.4,13.7,,,,,3,,,3,wg-a,,,,AAXX 04064 07535 12260 72802 10100 20100 39975 40291 53006 60034 70362 875// 90600 333 10137 20104=
07535,1999-04-04 12:00:00,17,1028,-1.2,68,11,0,7.408,,,10,,,,,,,,,,,wg-a,,,,AAXX 04124 07535 32/// /0104 10170 20110 39972 40280 58012 91200=
07535,1999-04-04 18:00:00,17,1026.6,-0.2,59,9,0,7.408,,,360,10.4,20.5,,,,,,,,,wg-a,,,,AAXX 04184 07535 32/// /3604 10170 20090 39958 40266 55002 91800 333 10205 20104=
07535,1999-04-05 00:00:00,10,1028.3,0,93,9,0,11.112,,,140,,,,,,,,,,,wg-a,,,,AAXX 05004 07535 32/// /1406 10100 20090 39967 40283 50000 90000=
07535,1999-04-05 06:00:00,8,1029,1.4,100,8,15000,3.704,,,70,6.8,17.3,,,,,,,,,wg-a,,,,AAXX 05064 07535 12/65 20702 10080 20080 39971 40290 51014 60004 80002 90600 333 10173 20068=
07535,1999-04-05 12:00:00,21,1027.9,-0.6,40,7,0,3.704,,,300,,,,,,,,,,,wg-a,,,,AAXX 05124 07535 32/// /3002 10210 20070 39975 40279 58006 91200=
07535,1999-04-05 18:00:00,21,1026.4,-0.2,35,5,0,7.408,,,330,7.9,24.5,,,,,,,,,wg-a,,,,AAXX 05184 07535 32/// /3304 10210 20050 39960 40264 56002 91800 333 10245 20079=
07535,1999-04-06 00:00:00,13,1027.5,-0.4,67,7,0,11.112,,,140,,,,,,,,,,,wg-a,,,,AAXX 06004 07535 32/// /1406 10130 20070 39962 40275 58004 90000=
07535,1999-04-06 06:00:00,10,1027.4,0.2,82,7,500,14.816,,,140,8.5,21.4,,,,,,,,,wg-a,,,,AAXX 06064 07535 12/00 31408 10100 20070 39957 40274 53002 60004 80002 90600 333 10214 20085=
07535,1999-04-06 12:00:00,26,1025.2,-0.8,32,8,40000,7.408,,,260,,,,,,,,,,,wg-a,,,,AAXX 06124 07535 32782 62604 10260 20080 39953 40252 58008 81282 91200=
07535,1999-04-06 18:00:00,18,1024.6,0.4,73,13,0,14.816,,,280,9.5,26.5,,,,,,,,,wg-a,,,,AAXX 06184 07535 32/// /2808 10180 20130 39940 40246 53004 91800 333 10265 20095=
07535,1999-04-07 00:00:00,12,1026.9,0.1,82,9,0,7.408,,,260,,,,,,,,,,,wg-a,,,,AAXX 07004 07535 32/// /2604 10120 20090 39955 40269 50001 90000=
07535,1999-04-07 06:00:00,9,1024.9,-0.3,100,9,15000,7.408,,,280,9.4,17.7,,0,,,1,,,3,wg-a,,,,AAXX 07064 07535 02465 82804 10090 20090 39933 40249 55003 60014 70362 8657/ 90600 333 10177 20094 60007=
07535,1999-04-07 12:00:00,11,1024.2,0,82,8,20000,14.816,,,320,,,,0,,,,,,25,wg-a,,,,AAXX 07124 07535 12470 73208 10110 20080 39928 40242 50000 60007 72586 878// 91200=
07535,1999-04-07 18:00:00,12,1023.3,-0.6,58,4,0,18.52,,,310,9.3,12.4,,,,,,,,,wg-a,,,,AAXX 07184 07535 32/// /3110 10120 20040 39920 40233 56006 91800 333 10124 20093=
07535,1999-04-08 00:00:00,8,1023.5,-0.6,93,7,0,3.704,,,310,,,,,,,,,,,wg-a,,,,AAXX 08004 07535 32/// /3102 10080 20070 39917 40235 58006 90000=
07535,1999-04-08 06:00:00,6,1023.4,0.6,93,5,15000,14.816,,,330,6.2,11.7,,,,,3,,,1,wg-a,,,,AAXX 08064 07535 12465 53308 10060 20050 39915 40234 53006 60034 70162 85500 90600 333 10117 20062=
07535,1999-04-09 00:00:00,7,1025.9,0.1,76,3,0,7.408,,,350,,,,,,,,,,,wg-a,,,,AAXX 09004 07535 32/// /3504 10070 20030 39940 40259 51001 90000=
07535,1999-04-09 06:00:00,3,1026.2,0.5,93,2,10000,3.704,,,210,1.9,12.2,,,,,,,,,wg-a,,,,AAXX 09064 07535 12/60 12102 10030 20020 39938 40262 53005 60004 80001 90600 333 10122 20019=
07535,1999-04-09 12:00:00,15,1024.5,-1,44,3,15000,18.52,,,350,,,,,,,,,,,wg-a,,,,AAXX 09124 07535 32565 63510 10150 20030 39935 40245 58010 83101 91200=
07535,1999-04-09 18:00:00,14,1023.4,-0,47,3,0,7.408,,,330,2.8,16.9,,,,,,,,,wg-a,,,,AAXX 09184 07535 32/// /3304 10140 20030 39924 40234 55000 91800 333 10169 20028=
07535,1999-04-10 00:00:00,5,1025.2,-0.2,87,3,0,3.704,,,160,,,,,,,,,,,wg-a,,,,AAXX 10004 07535 32/// /1602 10050 20030 39931 40252 58002 90000=
07535,1999-04-10 06:00:00,3,1024.9,0.1,100,3,6000,7.408,,,140,2.1,14.4,,,,,,,,,wg-a,,,,AAXX 10064 07535 12/56 21404 10030 20030 39926 40249 53001 60004 80001 90600 333 10144 20021=
07535,1999-04-10 12:00:00,12,1024.2,-0.6,82,9,0,7.408,,,300,,,,,,,,,,,wg-a,,,,AAXX 10124 07535 32/// /3004 10120 20090 39929 40242 58006 91200=
07535,1999-04-10 18:00:00,12,1023.4,0.5,82,9,0,11.112,,,290,3.1,16.5,,,,,,,,,wg-a,,,,AAXX 10184 07535 32/// /2906 10120 20090 39921 40234 53005 91800 333 10165 20031=
07535,1999-04-11 00:00:00,10,1024.7,-0.1,93,9,0,7.408,,,280,,,,,,,,,,,wg-a,,,,AAXX 11004 07535 32/// /2804 10100 20090 39931 40247 58001 90000=
07535,1999-04-11 06:00:00,7,1026.5,2,87,5,15000,11.112,,,320,6.2,11.6,,,,,1,,,,wg-a,,,,AAXX 11064 07535 12465 53206 10070 20050 39945 40265 53020 60014 85800 90600 333 10116 20062=
07535,1999-04-11 12:00:00,12,1026.5,-0.9,58,4,0,14.816,,,300,,,,,,,,,,,wg-a,,,,AAXX 11124 07535 32/// /3008 10120 20040 39951 40265 58009 91200=
07535,1999-04-11 18:00:00,10,1024.4,-0.7,82,7,0,7.408,,,280,6.5,14.7,,,,,,,,,wg-a,,,,AAXX 11184 07535 32/// /2804 10100 20070 39929 40244 58007 91800 333 10147 20065=
07535,1999-04-12 00:00:00,8,1022.8,-1.5,93,7,0,11.112,,,280,,,,,,,,,,,wg-a,,,,AAXX 12004 07535 32/// /2806 10080 20070 39911 40228 57015 90000=
07535,1999-04-12 06:00:00,7,1018.6,-2.1,93,6,15000,7.408,,,210,6.5,10.4,,,,,,,,,wg-a,,,,AAXX 12064 07535 12365 82104 10070 20060 39869 40186 56021 60004 875// 90600 333 10104 20065=
07535,1999-04-12 12:00:00,10,1011.8,-3.7,93,9,6000,11.112,,,240,,,,2,,,,,,61,wg-a,,,,AAXX 12124 07535 12256 82406 10100 20090 39807 40118 58037 60027 76165 875// 91200=
07535,1999-04-12 18:00:00,10,1008.4,0.1,76,6,0,18.52,,,290,6.7,11.7,,,,,,,,,wg-a,,,,AAXX 12184 07535 32/// /2910 10100 20060 39774 40084 53001 91800 333 10117 20067=
07535,1999-04-13 00:00:00,7,1011.9,1.1,87,5,0,14.816,,,280,,,,,,,,,,,wg-a,,,,AAXX 13004 07535 32/// /2808 10070 20050 39804 40119 51011 90000=
07535,1999-04-13 06:00:00,7,1012.9,1.4,93,6,9000,11.112,,,290,6,10.1,,,,,9,,,2,wg-a,,,,AAXX 13064 07535 12259 72906 10070 20060 39814 40129 53014 60094 70286 878// 90600 333 10101 20060=
07535,1999-04-13 11:00:00,10.5,1015,1,66,4.4,,18.52,,,320,,,,,,,,,,,og-post,,,,AAXX 13114 07535 36/// /3210 10105 20044 39838 40150 51010=
07535,1999-04-13 12:00:00,13,1014.4,0.3,58,5,10000,18.52,,,300,,,,,,,,,,15,wg-a,,,,AAXX 13124 07535 32460 53010 10130 20050 39834 40144 50003 71586 85800 91200=
07535,1999-04-14 06:00:00,6,1009.9,-2.6,93,5,10000,11.112,,,200,4.6,10.1,,,,,,,,,wg-a,,,,AAXX 14064 07535 12460 72006 10060 20050 39784 40099 56026 60004 878// 90600 333 10101 20046=
07535,1999-04-14 12:00:00,10,1003.6,-3.2,82,7,12000,11.112,,,240,,,,,,,,,,,wg-a,,,,AAXX 14124 07535 32462 82406 10100 20070 39727 40036 57032 885// 91200=
07535,1999-04-14 18:00:00,9,1000.6,0.1,87,7,0,14.816,,,240,6,12.5,,,,,,,,,wg-a,,,,AAXX 14184 07535 32/// /2408 10090 20070 39697 40006 53001 91800 333 10125 20060=
07535,1999-04-15 00:00:00,4,1006.9,1.9,100,4,0,3.704,,,240,,,,,,,,,,,wg-a,,,,AAXX 15004 07535 32/// /2402 10040 20040 39753 40069 51019 90000=
07535,1999-04-15 06:00:00,4,1006.8,0.3,93,3,12000,11.112,,,210,3.5,8.7,,,,,3,,,,wg-a,,,,AAXX 15064 07535 12462 62106 10040 20030 39751 40068 53003 60034 83802 90600 333 10087 20035=
07535,1999-04-15 12:00:00,10,1007.2,0.2,53,1,25000,7.408,,,280,,,,,,,,,,,wg-a,,,,AAXX 15124 07535 32475 62804 10100 20010 39761 40072 50002 84302 91200=
07535,1999-04-15 18:00:00,7,1009,1.4,70,2,0,11.112,,,330,3.7,13.2,,,,,,,,,wg-a,,,,AAXX 15184 07535 32/// /3306 10070 20020 39776 40090 51014 91800 333 10132 20037=
07535,1999-04-16 00:00:00,3,1010.7,-0.5,93,2,0,0,,,0,,,,,,,,,,,wg-a,,,,AAXX 16004 07535 32/// /0000 10030 20020 39787 40107 57005 90000=
07535,1999-04-16 06:00:00,1,1010.1,-0.1,100,1,20000,7.408,,,150,0.2,6.6,,,,,,,,,wg-a,,,,AAXX 16064 07535 12470 31504 10010 20010 39780 40101 55001 60004 83800 90600 333 10066 20002=
07535,1999-04-16 12:00:00,13,1006.2,-2.1,41,0,25000,7.408,,,200,,,,,,,,,,,wg-a,,,,AAXX 16124 07535 32575 72004 10130 20000 39755 40062 58021 872// 91200=
07535,1999-04-16 18:00:00,8,1002.9,-1.2,57,0,0,7.408,,,40,1.5,14.7,,,,,,,,,wg-a,,,,AAXX 16184 07535 32/// /0404 10080 20000 39718 40029 58012 91800 333 10147 20015=
07535,1999-04-17 00:00:00,8,1001.3,-0.7,49,-2,0,3.704,,,80,,,,,,,,,,,wg-a,,,,AAXX 17004 07535 32/// /0802 10080 21020 39702 40013 58007 90000=
07535,1999-04-17 06:00:00,5,1002.2,1,100,5,15000,11.112,,,210,5,8.3,,1,,,1,,,1,wg-a,,,,AAXX 17064 07535 02465 72106 10050 20050 39708 40022 53010 60014 70162 875// 90600 333 10083 20050 60017=
07535,1999-04-17 12:00:00,7,1005.7,1.9,93,6,0,7.408,,,280,,,,,,,,,,,wg-a,,,,AAXX 17124 07535 32/// /2804 10070 20060 39744 40057 53019 91200=
07535,1999-04-17 18:00:00,6,1011.1,3.6,93,5,0,3.704,,,260,5.3,10.6,,,,,,,,,wg-a,,,,AAXX 17184 07535 32/// /2602 10060 20050 39796 40111 51036 91800 333 10106 20053=
07535,1999-04-18 00:00:00,5,1017.4,2.1,100,5,0,3.704,,,290,,,,,,,,,,,wg-a,,,,AAXX 18004 07535 32/// /2902 10050 20050 39856 40174 52021 90000=
07535,1999-04-18 06:00:00,5,1020,2,100,5,12000,7.408,,,290,4.7,6.2,,0,,,7,,,3,wg-a,,,,AAXX 18064 07535 02462 82904 10050 20050 39881 40200 53020 60074 70362 875// 90600 333 10062 20047 60007=
07535,1999-04-18 12:00:00,13,1021.6,0.2,54,4,0,14.816,,,280,,,,,,,,,,,wg-a,,,,AAXX 18124 07535 32/// /2808 10130 20040 39904 40216 50002 91200=
07535,1999-04-18 18:00:00,8,1022,0.5,93,7,0,11.112,,,270,5.2,14.3,,,,,,,,,wg-a,,,,AAXX 18184 07535 32/// /2706 10080 20070 39903 40220 53005 91800 333 10143 20052=
07535,1999-04-19 00:00:00,7,1022.7,-0.4,100,7,0,3.704,,,260,,,,,,,,,,,wg-a,,,,AAXX 19004 07535 32/// /2602 10070 20070 39909 40227 57004 90000=
07535,1999-04-19 06:00:00,7,1021.5,-0.2,100,7,12000,3.704,,,240,6.9,8,,,,,1,,,,wg-a,,,,AAXX 19064 07535 12262 82402 10070 20070 39898 40215 56002 60014 877// 90600 333 10080 20069=
07535,1999-04-19 12:00:00,13,1019.6,-1.1,67,7,35000,7.408,,,300,,,,0,,,,,,3,wg-a,,,,AAXX 19124 07535 12481 73004 10130 20070 39886 40196 56011 60007 70365 878// 91200=
07535,1999-04-19 18:00:00,12,1017.5,-0.5,71,7,0,3.704,,,80,7.2,14.1,,,,,,,,,wg-a,,,,AAXX 19184 07535 32/// /0802 10120 20070 39864 40175 56005 91800 333 10141 20072=
07535,1999-04-20 00:00:00,10,1016.3,-0.8,87,8,0,7.408,,,210,,,,,,,,,,,wg-a,,,,AAXX 20004 07535 32/// /2104 10100 20080 39850 40163 58008 90000=
07535,1999-04-20 06:00:00,10,1014.1,-0.5,87,8,8000,7.408,,,160,9.6,12.2,,1,,,1,,,60,wg-a,,,,AAXX 20064 07535 02658 81604 10100 20080 39829 40141 57005 60014 76062 8657/ 90600 333 10122 20096 60017=
07535,1999-04-20 12:00:00,18,1009.8,-1.9,52,8,20000,18.52,,,200,,,,,,,,,,2,wg-a,,,,AAXX 20124 07535 32770 72010 10180 20080 39795 40098 58019 70262 8453/ 91200=
07535,1999-04-20 18:00:00,15,1007.6,-1.1,77,11,0,25.928,,,170,9.6,18.3,,,,,,,,,wg-a,,,,AAXX 20184 07535 32/// /1714 10150 20110 39771 40076 57011 91800 333 10183 20096=
07535,1999-04-21 00:00:00,11,1010.5,0.7,94,10,0,11.112,,,200,,,,7,,,,,,,wg-a,,,,AAXX 21004 07535 12/// /2006 10110 20100 39795 40105 51007 60077 90000=
07535,1999-04-21 06:00:00,10,1010.8,-0,100,10,15000,7.408,,,210,9.8,14.9,,,,,10,,,3,wg-a,,,,AAXX 21064 07535 12365 72104 10100 20100 39797 40108 55000 60104 70362 877// 90600 333 10149 20098=
07535,1999-04-21 12:00:00,15,1010.9,0.1,72,10,20000,11.112,,,220,,,,,,,,,,1,wg-a,,,,AAXX 21124 07535 02470 72206 10150 20100 39803 40109 50001 61000 70186 878// 91200 333 ////=
07535,1999-04-21 18:00:00,12,1012.4,0.7,82,9,0,3.704,,,120,9.7,18.6,,,,,,,,,wg-a,,,,AAXX 21184 07535 32/// /1202 10120 20090 39815 40124 53007 91800 333 10186 20097=
07535,1999-04-22 00:00:00,8,1015.5,0.9,93,7,0,11.112,,,200,,,,,,,,,,,wg-a,,,,AAXX 22004 07535 32/// /2006 10080 20070 39840 40155 51009 90000=
07535,1999-04-22 06:00:00,9,1016.6,1.2,93,8,15000,11.112,,,200,6.9,12.1,,0,,,2,,,25,wg-a,,,,AAXX 22064 07535 02665 72006 10090 20080 39852 40166 53012 60024 72586 8683/ 90600 333 10121 20069 60007=
07535,1999-04-22 12:00:00,13,1017.7,0.4,82,10,15000,7.408,,,220,,,,2,,,,,,80,wg-a,,,,AAXX 22124 07535 12465 72204 10130 20100 39867 40177 50004 60027 78086 878// 91200=
07535,1999-04-22 18:00:00,11,1018.2,0.2,87,9,0,7.408,,,290,8.9,15.7,,,,,,,,,wg-a,,,,AAXX 22184 07535 32/// /2904 10110 20090 39870 40182 53002 91800 333 10157 20089=
07535,1999-04-23 00:00:00,8,1015.8,-2.2,93,7,0,14.816,,,150,,,,,,,,,,,wg-a,,,,AAXX 23004 07535 32/// /1508 10080 20070 39843 40158 57022 90000=
07535,1999-04-23 06:00:00,9,1013.3,0.6,87,7,15000,18.52,,,190,7.5,10.7,,2,,,6,,,60,wg-a,,,,AAXX 23064 07535 02565 81910 10090 20070 39820 40133 53006 60064 76062 8557/ 90600 333 10107 20075 60027=
07535,1999-04-23 12:00:00,12,1015.6,0.9,76,8,10000,11.112,,,250,,,,0,,,,,,25,wg-a,,,,AAXX 23124 07535 12460 72506 10120 20080 39846 40156 53009 60007 72586 85903 91200=
07535,1999-04-23 18:00:00,9,1018.5,2.1,93,8,0,7.408,,,290,8.5,14.5,,,,,,,,,wg-a,,,,AAXX 23184 07535 32/// /2904 10090 20080 39871 40185 53021 91800 333 10145 20085=
07535,1999-04-24 00:00:00,7,1021.3,0.7,93,6,0,7.408,,,330,,,,,,,,,,,wg-a,,,,AAXX 24004 07535 32/// /3304 10070 20060 39895 40213 53007 90000=
07535,1999-04-24 06:00:00,7,1020.7,0.1,93,6,6000,3.704,,,240,5.5,9,,1,,,13,,,25,wg-a,,,,AAXX 24064 07535 02156 72402 10070 20060 39889 40207 53001 60134 72586 872// 90600 333 10090 20055 60017=
07535,1999-04-24 12:00:00,13.3,1020,-0.6,60,5.7,,14.816,,,290,,,,,0.4,,,,,,og-post,,,,AAXX 24124 07535 /6/// /2908 10133 20057 39890 40200 58006 69941 333 69907=
07535,1999-04-24 18:00:00,12,1018.7,-0.4,67,6,0,7.408,,,350,6.6,16.3,,,,,,,,,wg-a,,,,AAXX 24184 07535 32/// /3504 10120 20060 39876 40187 56004 91800 333 10163 20066=
07535,1999-04-25 06:00:00,8,1015.1,-1.3,71,3,20000,18.52,,,130,4.7,12.3,,,,,,,,,wg-a,,,,AAXX 25064 07535 12/70 61310 10080 20030 39836 40151 56013 60004 81031 90600 333 10123 20047=
07535,1999-04-25 12:00:00,17,1011.1,-1.7,45,5,0,14.816,,,150,,,,,,,,,,,wg-a,,,,AAXX 25124 07535 32/// /1508 10170 20050 39807 40111 56017 91200=
07535,1999-04-25 18:00:00,18,1009.3,-0.1,42,5,0,3.704,,,260,7.8,19.4,,,,,,,,,wg-a,,,,AAXX 25184 07535 32/// /2602 10180 20050 39790 40093 55001 91800 333 10194 20078=
07535,1999-04-26 00:00:00,10,1012.1,-0.4,100,10,0,3.704,,,290,,,,,,,,,,,wg-a,,,,AAXX 26004 07535 32/// /2902 10100 20100 39810 40121 58004 90000=
07535,1999-04-26 06:00:00,9,1010.9,-0.3,100,9,1200,7.408,,,310,9.2,17.6,,1,,,6,,,61,wg-a,,,,AAXX 26064 07535 02212 83104 10090 20090 39797 40109 55003 60064 76166 877// 90600 333 10176 20092 60017=
07535,1999-04-26 12:00:00,14,1009.1,-0.7,77,10,25000,7.408,,,280,,,,,,,,,,1,wg-a,,,,AAXX 26124 07535 32575 72804 10140 20100 39785 40091 57007 70162 872// 91200=
07535,1999-04-26 18:00:00,13,1009.1,0.2,77,9,0,3.704,,,100,9.2,13.9,,,,,,,,,wg-a,,,,AAXX 26184 07535 32/// /1002 10130 20090 39784 40091 53002 91800 333 10139 20092=
07535,1999-04-27 00:00:00,9,1011,-0,87,7,0,14.816,,,140,,,,,,,,,,,wg-a,,,,AAXX 27004 07535 32/// /1408 10090 20070 39798 40110 54000 90000=
07535,1999-04-27 12:00:00,17,1011.9,-0.3,59,9,25000,11.112,,,90,,,,,,,,,,,wg-a,,,,AAXX 27124 07535 32575 70906 10170 20090 39815 40119 58003 878// 91200=
07535,1999-04-27 18:00:00,17,1011.5,-0.2,52,7,0,7.408,,,110,9.7,18.6,,,,,,,,,wg-a,,,,AAXX 27184 07535 32/// /1104 10170 20070 39811 40115 55002 91800 333 10186 20097=
07535,1999-04-28 00:00:00,12,1014.2,0.3,76,8,0,7.408,,,130,,,,,,,,,,,wg-a,,,,AAXX 28004 07535 32/// /1304 10120 20080 39832 40142 53003 90000=
07535,1999-04-28 06:00:00,11,1012.7,-0.5,76,7,20000,7.408,,,120,10.3,16.5,,,,,,,,,wg-a,,,,AAXX 28064 07535 12/70 71204 10110 20070 39816 40127 55005 60004 8707/ 90600 333 10165 20103=
07535,1999-04-28 12:00:00,16,1010.9,-0.9,59,8,15000,18.52,,,150,,,,,,,,,,60,wg-a,,,,AAXX 28124 07535 02665 81510 10160 20080 39804 40109 58009 61000 76062 8257/ 91200 333 ////=
07535,1999-04-28 18:00:00,18,1003.9,-2.5,52,8,,3.704,,,90,10.4,18.3,,,,0.2,,,,,og-post,,,,AAXX 28184 07535 16/// /0902 10180 20080 39739 40039 56025 69922 333 10183 20104=
07535,1999-04-29 00:00:00,18,1004.1,-0.1,45,6,0,25.928,,,140,,,,,,,,,,,wg-a,,,,AAXX 29004 07535 32/// /1414 10180 20060 39740 40041 56001 90000=
07535,1999-04-29 06:00:00,12,1005.6,1.9,94,11,8000,11.112,,,170,12,18.3,,8,,,8,,,61,wg-a,,,,AAXX 29064 07535 02658 81706 10120 20110 39749 40056 53019 60084 76186 879// 90600 333 10183 20120 60087=
07535,1999-04-29 12:00:00,18,1008.7,1.6,68,12,25000,3.704,,,160,,,,,,,,,,1,wg-a,,,,AAXX 29124 07535 02475 61602 10180 20120 39786 40087 51016 61000 70162 86800 91200 333 ////=
07535,1999-04-29 18:00:00,18,1009.1,0.6,56,9,0,7.408,,,130,10.5,21.3,,,,,,,,,wg-a,,,,AAXX 29184 07535 32/// /1304 10180 20090 39789 40091 51006 91800 333 10213 20105=
07535,1999-04-30 00:00:00,11,1013.8,0.5,87,9,0,11.112,,,220,,,,,,,,,,,wg-a,,,,AAXX 30004 07535 32/// /2206 10110 20090 39827 40138 50005 90000=
07535,1999-04-30 06:00:00,9,1015.7,1.7,93,8,25000,3.704,,,140,8.2,17.7,,,,,14,,,,wg-a,,,,AAXX 30064 07535 12/75 21402 10090 20080 39844 40157 53017 60144 82030 90600 333 10177 20082=
07535,1999-04-30 12:00:00,20,1015.2,-0.2,49,9,500,7.408,,,280,,,,,,,,,,,wg-a,,,,AAXX 30124 07535 32500 42804 10200 20090 39851 40152 58002 84202 91200=
07535,1999-04-30 18:00:00,20,1014.3,-0.2,43,7,0,3.704,,,360,9.3,22.9,,,,,,,,,wg-a,,,,AAXX 30184 07535 32/// /3602 10200 20070 39841 40143 58002 91800 333 10229 20093=
07535,1999-05-01 00:00:00,10,1016.6,0.2,87,8,0,3.704,,,150,,,,,,,,,,,wg-a,,,,AAXX 01004 07535 32/// /1502 10100 20080 39854 40166 51002 90000=
07535,1999-05-01 06:00:00,10,1016.7,0.6,87,8,25000,3.704,,,280,8.2,19.5,,,,,,,,,wg-a,,,,AAXX 01064 07535 12/75 42802 10100 20080 39855 40167 53006 60004 83082 90600 333 10195 20082=
07535,1999-05-01 12:00:00,23,1014.6,-1.1,33,6,0,7.408,,,140,,,,,,,,,,,wg-a,,,,AAXX 01124 07535 32/// /1404 10230 20060 39847 40146 58011 91200=
07535,1999-05-01 18:00:00,22,1012.9,-0.7,46,10,0,3.704,,,70,10.4,25,,,,,,,,,wg-a,,,,AAXX 01184 07535 32/// /0702 10220 20100 39830 40129 57007 91800 333 10250 20104=
07535,1999-05-02 00:00:00,14,1014.8,-0.1,77,10,0,11.112,,,140,,,,,,,,,,,wg-a,,,,AAXX 02004 07535 32/// /1406 10140 20100 39841 40148 58001 90000=
07535,1999-05-02 06:00:00,15,1013.9,0.4,72,10,18000,3.704,,,140,12.2,21.9,,,,,,,,,wg-a,,,,AAXX 02064 07535 12/68 71402 10150 20100 39833 40139 53004 60004 83032 90600 333 10219 20122=
07535,1999-05-02 12:00:00,22,1013.7,-0.6,43,9,0,14.816,,,180,,,,,,,,,,,wg-a,,,,AAXX 02124 07535 32/// /1808 10220 20090 39837 40137 56006 91200=
07535,1999-05-02 18:00:00,17,1012.5,-0.3,77,13,0,3.704,,,60,13.4,23.1,,,,,,,,,wg-a,,,,AAXX 02184 07535 32/// /0602 10170 20130 39821 40125 58003 91800 333 10231 20134=
07535,1999-05-03 00:00:00,16,1014.3,0.1,63,9,0,7.408,,,120,,,,,,,,,,,wg-a,,,,AAXX 03004 07535 32/// /1204 10160 20090 39837 40143 51001 90000=
07535,1999-05-03 06:00:00,14,1014,0.5,72,9,15000,7.408,,,120,13.6,17.2,,,,,4,,,1,wg-a,,,,AAXX 03064 07535 02665 71204 10140 20090 39832 40140 53005 60044 70186 81598 90600 333 10172 20136 61000=
07535,1999-05-03 12:00:00,13,1013.3,-1.7,100,13,6000,14.816,,,50,,,,6,,,,,,61,wg-a,,,,AAXX 03124 07535 12556 80508 10130 20130 39825 40133 58017 60067 76162 8452/ 91200=
07535,1999-05-03 18:00:00,14,1010.9,-0.7,94,13,0,7.408,,,20,13.2,14.3,,,,,,,,,wg-a,,,,AAXX 03184 07535 32/// /0204 10140 20130 39803 40109 58007 91800 333 10143 20132=
07535,1999-05-04 00:00:00,13,1008.6,-1.7,100,13,0,3.704,,,320,,,,,,,,,,,wg-a,,,,AAXX 04004 07535 32/// /3202 10130 20130 39779 40086 58017 90000=
07535,1999-05-04 06:00:00,13,1006.2,-0.4,100,13,300,3.704,,,310,12.9,13.9,,4,,,,,,61,wg-a,,,,AAXX 04064 07535 12/03 93102 10130 20130 39756 40062 56004 60047 76164 89/// 90600 333 10139 20129=
07535,1999-05-04 12:00:00,16,1007.1,0.4,94,15,500,7.408,,,310,,,,1,,,,,,21,wg-a,,,,AAXX 04124 07535 12200 83104 10160 20150 39768 40071 52004 60017 72164 877// 91200=
07535,1999-05-04 18:00:00,15,1008.3,0.7,94,14,0,3.704,,,270,13.1,16.1,,,,,,,,,wg-a,,,,AAXX 04184 07535 32/// /2702 10150 20140 39779 40083 53007 91800 333 10161 20131=
07535,1999-05-05 00:00:00,13,1010.7,0.4,94,12,0,7.408,,,270,,,,,,,,,,,wg-a,,,,AAXX 05004 07535 32/// /2704 10130 20120 39799 40107 50004 90000=
07535,1999-05-05 06:00:00,12,1011.5,0.5,94,11,2000,0,,,0,11.8,14.8,,,,,5,,,10,wg-a,,,,AAXX 05064 07535 12220 80000 10120 20110 39806 40115 53005 60054 71042 876// 90600 333 10148 20118=
07535,1999-05-05 12:00:00,18,1012.5,0.7,73,13,9000,3.704,,,210,,,,,,,,,,,wg-a,,,,AAXX 05124 07535 32459 72102 10180 20130 39823 40125 51007 84832 91200=
07535,1999-05-05 18:00:00,17,1013.6,1,77,13,0,14.816,,,350,11.7,22.6,,,,,,,,,wg-a,,,,AAXX 05184 07535 32/// /3508 10170 20130 39832 40136 53010 91800 333 10226 20117=
07535,1999-05-06 00:00:00,12,1017,1.1,94,11,0,3.704,,,130,,,,,,,,,,,wg-a,,,,AAXX 06004 07535 32/// /1302 10120 20110 39859 40170 51011 90000=
07535,1999-05-06 06:00:00,11,1016.8,0.1,100,11,200,0,,,0,10.5,17.2,,,,,,,,46,wg-a,,,,AAXX 06064 07535 12/02 20000 10110 20110 39857 40168 53001 60004 74640 81031 90600 333 10172 20105=
07535,1999-05-06 12:00:00,25,1014.1,-1.1,44,12,25000,14.816,,,170,,,,,,,,,,1,wg-a,,,,AAXX 06124 07535 32675 31708 10250 20120 39844 40141 58011 70140 81131 91200=
07535,1999-05-06 18:00:00,24,1011.6,-1.2,34,7,0,3.704,,,160,11.3,26.7,,,,,,,,,wg-a,,,,AAXX 06184 07535 32/// /1602 10240 20070 39819 40116 56012 91800 333 10267 20113=
07535,1999-05-07 00:00:00,17,1012,-0.7,59,9,0,11.112,,,130,,,,,,,,,,,wg-a,,,,AAXX 07004 07535 32/// /1306 10170 20090 39816 40120 57007 90000=
07535,1999-05-07 06:00:00,15,1012.1,1.3,82,12,12000,14.816,,,240,15.1,23.9,,1,,,1,,,95,wg-a,,,,AAXX 07064 07535 02662 72408 10150 20120 39816 40121 53013 60014 79596 879// 90600 333 10239 20151 60017=
07535,1999-05-07 12:00:00,21,1010.3,-0.9,69,15,20000,11.112,,,170,,,,,,,,,,3,wg-a,,,,AAXX 07124 07535 32570 71706 10210 20150 39805 40103 58009 70396 8583/ 91200=
07535,1999-05-07 18:00:00,14,1011.3,1.7,94,13,0,3.704,,,130,14.2,22.8,,,,,,,,,wg-a,,,,AAXX 07184 07535 32/// /1302 10140 20130 39807 40113 51017 91800 333 10228 20142=
07535,1999-05-08 00:00:00,14,1014.2,0.7,94,13,0,7.408,,,300,,,,,,,,,,,wg-a,,,,AAXX 08004 07535 32/// /3004 10140 20130 39834 40142 53007 90000=
07535,1999-05-08 06:00:00,11,1016.2,1.3,100,11,500,7.408,,,330,10.4,14.5,,0,,,11,,,46,wg-a,,,,AAXX 08064 07535 02705 63304 10110 20110 39850 40162 53013 60114 74686 865/0 90600 333 10145 20104 60007=
07535,1999-05-08 12:00:00,19,1016.8,-0.1,52,9,0,7.408,,,340,,,,,,,,,,,wg-a,,,,AAXX 08124 07535 32/// /3404 10190 20090 39864 40168 58001 91200=
07535,1999-05-08 18:00:00,19,1016.5,0.4,43,6,0,7.408,,,360,10.7,21.2,,,,,,,,,wg-a,,,,AAXX 08184 07535 32/// /3604 10190 20060 39861 40165 53004 91800 333 10212 20107=
07535,1999-05-09 00:00:00,9,1018.6,-0.3,87,7,0,11.112,,,140,,,,,,,,,,,wg-a,,,,AAXX 09004 07535 32/// /1406 10090 20070 39872 40186 58003 90000=
07535,1999-05-09 06:00:00,13,1017,0,72,8,25000,18.52,,,130,8.8,18.5,,,,,,,,,wg-a,,,,AAXX 09064 07535 12/75 31310 10130 20080 39861 40170 50000 60004 80001 90600 333 10185 20088=
07535,1999-05-09 12:00:00,24,1014.6,-1.2,41,10,0,11.112,,,180,,,,,,,,,,,wg-a,,,,AAXX 09124 07535 32/// /1806 10240 20100 39848 40146 58012 91200=
07535,1999-05-09 18:00:00,23,1012.5,-0.6,44,10,0,14.816,,,160,13.4,25,,,,,,,,,wg-a,,,,AAXX 09184 07535 32/// /1608 10230 20100 39827 40125 56006 91800 333 10250 20134=
07535,1999-05-10 00:00:00,16,1014.3,-0.7,59,8,0,11.112,,,150,,,,,,,,,,,wg-a,,,,AAXX 10004 07535 32/// /1506 10160 20080 39837 40143 57007 90000=
07535,1999-05-10 06:00:00,15,1016.3,1.8,72,10,20000,14.816,,,180,14.3,22.5,,,,,,,,,wg-a,,,,AAXX 10064 07535 12770 71808 10150 20100 39856 40163 53018 60004 81532 90600 333 10225 20143=
07535,1999-05-10 12:00:00,22,1017,0.4,60,14,25000,11.112,,,220,,,,,,,,,,,wg-a,,,,AAXX 10124 07535 32775 72206 10220 20140 39870 40170 50004 82532 91200=
07535,1999-05-10 18:00:00,22,1017.4,0.6,65,15,0,3.704,,,280,15.1,24,,,,,,,,,wg-a,,,,AAXX 10184 07535 32/// /2802 10220 20150 39874 40174 53006 91800 333 10240 20151=
07535,1999-05-11 00:00:00,16,1018.2,-0.7,94,15,0,0,,,0,,,,,,,,,,,wg-a,,,,AAXX 11004 07535 32/// /0000 10160 20150 39876 40182 56007 90000=
07535,1999-05-11 06:00:00,15,1015.9,-0.9,94,14,10000,3.704,,,240,14.1,21.6,,,,,2,,,,wg-a,,,,AAXX 11064 07535 12660 72402 10150 20140 39852 40159 55009 60024 8657/ 90600 333 10216 20141=
07535,1999-05-11 12:00:00,25,1015.3,0.1,61,17,25000,11.112,,,280,,,,,,,,,,,wg-a,,,,AAXX 11124 07535 32575 62806 10250 20170 39857 40153 50001 81131 91200=
07535,1999-05-11 18:00:00,21,1015.8,-0,64,14,0,7.408,,,320,14.5,25.8,,,,,,,,,wg-a,,,,AAXX 11184 07535 32/// /3204 10210 20140 39858 40158 55000 91800 333 10258 20145=
07535,1999-05-12 00:00:00,16,1018.1,1.2,82,13,0,3.704,,,40,,,,,,,,,,,wg-a,,,,AAXX 12004 07535 32/// /0402 10160 20130 39874 40181 51012 90000=
07535,1999-05-12 06:00:00,16,1016.2,-0.4,88,14,20000,7.408,,,130,14.2,21.2,,,,,,,,,wg-a,,,,AAXX 12064 07535 12570 71304 10160 20140 39857 40162 56004 60004 8483/ 90600 333 10212 20142=
07535,1999-05-12 12:00:00,26,1013.4,-1.5,51,15,25000,3.704,,,90,,,,,,,,,,,wg-a,,,,AAXX 12124 07535 32575 60902 10260 20150 39839 40134 58015 82132 91200=
07535,1999-05-12 18:00:00,23,1014.2,0.4,61,15,0,11.112,,,310,16.3,27,,,,,,,,,wg-a,,,,AAXX 12184 07535 32/// /3106 10230 20150 39844 40142 52004 91800 333 10270 20163=
07535,1999-05-13 00:00:00,16,1016.6,0.1,82,13,0,7.408,,,270,,,,,,,,,,,wg-a,,,,AAXX 13004 07535 32/// /2704 10160 20130 39860 40166 50001 90000=
07535,1999-05-13 06:00:00,15,1016.3,-0.1,94,14,20000,3.704,,,140,14.3,22.6,,,,,,,,,wg-a,,,,AAXX 13064 07535 12670 71402 10150 20140 39857 40163 57001 60004 875// 90600 333 10226 20143=
07535,1999-05-13 12:00:00,23,1013.4,-2.1,57,14,0,3.704,,,150,,,,,,,,,,,wg-a,,,,AAXX 13124 07535 32/// /1502 10230 20140 39836 40134 58021 91200=
07535,1999-05-13 18:00:00,23,1011.1,-0.2,61,15,0,7.408,,,310,15.3,26.9,,,,,,,,,wg-a,,,,AAXX 13184 07535 32/// /3104 10230 20150 39814 40111 55002 91800 333 10269 20153=
07535,1999-05-14 06:00:00,15,1013.1,0.3,100,15,2000,3.704,,,260,14.9,22.9,,1,,,25,,,60,wg-a,,,,AAXX 14064 07535 02320 82602 10150 20150 39825 40131 53003 60254 76062 875// 90600 333 10229 20149 60017=
07535,1999-05-14 12:00:00,16,1014.2,0.6,88,14,10000,7.408,,,300,,,,1,,,,,,60,wg-a,,,,AAXX 14124 07535 12460 83004 10160 20140 39837 40142 51006 60017 76062 878// 91200=
07535,1999-05-14 18:00:00,16,1012.7,-1.1,77,12,0,3.704,,,340,14.5,17.2,,,,,,,,,wg-a,,,,AAXX 14184 07535 32/// /3402 10160 20120 39822 40127 58011 91800 333 10172 20145=
07535,1999-05-15 00:00:00,13,1013.2,-0.5,94,12,0,0,,,0,,,,,,,,,,,wg-a,,,,AAXX 15004 07535 32/// /0000 10130 20120 39824 40132 57005 90000=
07535,1999-05-15 06:00:00,13,1012.6,0.5,94,12,2000,0,,,0,11.9,15.5,,0,,,5,,,10,wg-a,,,,AAXX 15064 07535 02320 70000 10130 20120 39818 40126 53005 60054 71022 8557/ 90600 333 10155 20119 60007=
07535,1999-05-15 12:00:00,20,1012.2,0,46,8,0,7.408,,,330,,,,,,,,,,,wg-a,,,,AAXX 15124 07535 32/// /3304 10200 20080 39821 40122 50000 91200=
07535,1999-05-15 18:00:00,17,1012.7,0.6,72,12,0,3.704,,,270,12.5,22.5,,,,,,,,,wg-a,,,,AAXX 15184 07535 32/// /2702 10170 20120 39823 40127 53006 91800 333 10225 20125=
07535,1999-05-16 00:00:00,10,1014.9,-0.2,93,9,0,3.704,,,150,,,,,,,,,,,wg-a,,,,AAXX 16004 07535 32/// /1502 10100 20090 39837 40149 58002 90000=
07535,1999-05-16 06:00:00,11,1014,-0.1,94,10,2000,3.704,,,60,7.3,16.5,,,,,,,,40,wg-a,,,,AAXX 16064 07535 12220 10602 10110 20100 39829 40140 56001 60004 74011 81600 90600 333 10165 20073=
07535,1999-05-16 12:00:00,21,1011.1,-1.4,46,9,0,11.112,,,80,,,,,,,,,,,wg-a,,,,AAXX 16124 07535 32/// /0806 10210 20090 39811 40111 57014 91200=
07535,1999-05-16 18:00:00,20,1006.6,-1.3,53,10,0,7.408,,,40,10.7,22.4,,,,,,,,,wg-a,,,,AAXX 16184 07535 32/// /0404 10200 20100 39767 40066 56013 91800 333 10224 20107=
07535,1999-05-17 00:00:00,14,1006.6,0.1,72,9,0,3.704,,,30,,,,,,,,,,,wg-a,,,,AAXX 17004 07535 32/// /0302 10140 20090 39761 40066 53001 90000=
07535,1999-05-17 06:00:00,13,1005,-0.6,77,9,20000,7.408,,,200,10.6,20,,,,,,,,,wg-a,,,,AAXX 17064 07535 12670 72004 10130 20090 39744 40050 55006 60004 84572 90600 333 10200 20106=
07535,1999-05-17 12:00:00,13,1006.1,2.1,94,12,500,3.704,,,270,,,,7,,,,,,61,wg-a,,,,AAXX 17124 07535 12300 82702 10130 20120 39755 40061 51021 60077 76162 888// 91200=
07535,1999-05-17 18:00:00,12,1004.9,0.5,82,9,0,3.704,,,130,10.7,13.7,,,,,,,,,wg-a,,,,AAXX 17184 07535 32/// /1302 10120 20090 39742 40049 50005 91800 333 10137 20107=
07535,1999-05-18 00:00:00,9,1006.8,-0.2,87,7,0,11.112,,,140,,,,,,,,,,,wg-a,,,,AAXX 18004 07535 32/// /1406 10090 20070 39757 40068 56002 90000=
07535,1999-05-18 06:00:00,9,1007.6,0.3,93,8,15000,3.704,,,280,6,11.7,,,,,15,,,,wg-a,,,,AAXX 18064 07535 12665 62802 10090 20080 39765 40076 53003 60154 82532 90600 333 10117 20060=
07535,1999-05-18 12:00:00,21,1006.3,-1.2,64,14,18000,7.408,,,300,,,,,,,,,,,wg-a,,,,AAXX 18124 07535 32568 63004 10210 20140 39765 40063 58012 83332 91200=
07535,1999-05-18 18:00:00,13,1007.1,1.4,94,12,0,11.112,,,360,9,24.3,,,,,,,,,wg-a,,,,AAXX 18184 07535 32/// /3606 10130 20120 39764 40071 50014 91800 333 10243 20090=
07535,1999-05-19 00:00:00,10,1009.4,0,100,10,0,0,,,0,,,,,,,,,,,wg-a,,,,AAXX 19004 07535 32/// /0000 10100 20100 39784 40094 50000 90000=
07535,1999-05-19 06:00:00,11,1011.4,1.4,94,10,7000,7.408,,,210,9.6,12.7,,,,,17,,,,wg-a,,,,AAXX 19064 07535 12357 82104 10110 20100 39804 40114 53014 60174 8457/ 90600 333 10127 20096=
07535,1999-05-19 12:00:00,13,1013.4,0.9,94,12,10000,11.112,,,210,,,,2,,,,,,80,wg-a,,,,AAXX 19124 07535 12560 72106 10130 20120 39826 40134 53009 60027 78086 85870 91200=
07535,1999-05-19 18:00:00,14,1014,0.7,82,11,0,7.408,,,260,10.5,18.2,,,,,,,,,wg-a,,,,AAXX 19184 07535 32/// /2604 10140 20110 39833 40140 53007 91800 333 10182 20105=
07535,1999-05-20 00:00:00,11,1016.5,0.1,100,11,0,3.704,,,240,,,,,,,,,,,wg-a,,,,AAXX 20004 07535 32/// /2402 10110 20110 39853 40165 50001 90000=
07535,1999-05-20 06:00:00,11,1016.5,0.8,100,11,500,7.408,,,270,10.5,14.2,,1,,,11,,,80,wg-a,,,,AAXX 20064 07535 02300 82704 10110 20110 39854 40165 53008 60114 78086 878// 90600 333 10142 20105 60017=
07535,1999-05-20 12:00:00,15,1017.4,-0.3,88,13,8000,7.408,,,300,,,,1,,,,,,25,wg-a,,,,AAXX 20124 07535 12458 83004 10150 20130 39866 40174 58003 60017 72586 878// 91200=
07535,1999-05-20 18:00:00,12,1018.5,1.1,94,11,0,7.408,,,280,10.4,17,,,,,,,,,wg-a,,,,AAXX 20184 07535 32/// /2804 10120 20110 39874 40185 53011 91800 333 10170 20104=
07535,1999-05-21 00:00:00,11,1019.8,0,100,11,0,7.408,,,280,,,,,,,,,,,wg-a,,,,AAXX 21004 07535 32/// /2804 10110 20110 39886 40198 50000 90000=
07535,1999-05-21 06:00:00,11,1021.4,1.4,100,11,4000,7.408,,,290,10.5,11.6,,,,,17,,,10,wg-a,,,,AAXX 21064 07535 12340 82904 10110 20110 39902 40214 53014 60174 71022 877// 90600 333 10116 20105=
07535,1999-05-21 12:00:00,15,1022.9,0.8,77,11,6000,14.816,,,300,,,,,,,,,,,wg-a,,,,AAXX 21124 07535 32456 83008 10150 20110 39920 40229 51008 878// 91200=
07535,1999-05-21 18:00:00,15,1023.4,0.4,77,11,0,7.408,,,280,11.4,16.4,,,,,,,,,wg-a,,,,AAXX 21184 07535 32/// /2804 10150 20110 39925 40234 53004 91800 333 10164 20114=
07535,1999-05-22 00:00:00,12,1025.2,-0.1,88,10,0,7.408,,,290,,,,,,,,,,,wg-a,,,,AAXX 22004 07535 32/// /2904 10120 20100 39939 40252 58001 90000=
07535,1999-05-22 06:00:00,12,1025.4,0.4,94,11,10000,3.704,,,270,11.1,14.8,,,,,,,,50,wg-a,,,,AAXX 22064 07535 02260 82702 10120 20110 39941 40254 53004 61000 75052 875// 90600 333 10148 20111 6100=
07535,1999-05-22 12:00:00,17,1024.7,-0.2,72,12,0,7.408,,,280,,,,,,,,,,,wg-a,,,,AAXX 22124 07535 32/// /2804 10170 20120 39940 40247 58002 91200=
07535,1999-05-22 18:00:00,15,1024.6,0.3,94,14,0,3.704,,,280,11.7,18.2,,,,,,,,,wg-a,,,,AAXX 22184 07535 32/// /2802 10150 20140 39936 40246 53003 91800 333 10182 20117=
07535,1999-05-23 06:00:00,13,1025.1,0.2,94,12,3500,3.704,,,300,12.2,14.6,,,,,3,,,10,wg-a,,,,AAXX 23064 07535 12235 83002 10130 20120 39939 40251 53002 60034 71022 875// 90600 333 10146 20122=
07535,1999-05-23 12:00:00,18,1024,-0.5,64,11,0,7.408,,,360,,,,,,,,,,,wg-a,,,,AAXX 23124 07535 32/// /3604 10180 20110 39933 40240 58005 91200=
07535,1999-05-23 18:00:00,19,1021.7,-0.8,64,12,0,3.704,,,340,12.5,20.4,,,,,,,,,wg-a,,,,AAXX 23184 07535 32/// /3402 10190 20120 39912 40217 56008 91800 333 10204 20125=
07535,1999-05-24 00:00:00,10,1022.4,-0.7,100,10,0,7.408,,,140,,,,,,,,,,,wg-a,,,,AAXX 24004 07535 32/// /1404 10100 20100 39910 40224 58007 90000=
07535,1999-05-24 06:00:00,11,1021.7,0.3,94,10,900,0,,,0,7.3,18.7,,,,,,,,42,wg-a,,,,AAXX 24064 07535 32/09 00000 10110 20100 39903 40217 53003 74240 80000 90600 333 10187 20073=
07535,1999-05-24 12:00:00,21,1019.5,-0.7,56,12,0,3.704,,,30,,,,,,,,,,,wg-a,,,,AAXX 24124 07535 32/// /0302 10210 20120 39894 40195 58007 91200=
07535,1999-05-24 18:00:00,21,1018.4,-0.2,56,12,0,7.408,,,340,10.6,25,,,,,,,,,wg-a,,,,AAXX 24184 07535 32/// /3404 10210 20120 39883 40184 55002 91800 333 10250 20106=
07535,1999-05-25 00:00:00,12,1020.2,-0.2,94,11,0,7.408,,,140,,,,,,,,,,,wg-a,,,,AAXX 25004 07535 32/// /1404 10120 20110 39891 40202 58002 90000=
07535,1999-05-25 06:00:00,14,1020.4,0.6,88,12,25000,0,,,0,10.5,21.4,,,,,,,,,wg-a,,,,AAXX 25064 07535 12575 10000 10140 20120 39894 40204 53006 60004 81130 90600 333 10214 20105=
07535,1999-05-25 12:00:00,24,1019,-0.8,47,12,25000,7.408,,,310,,,,,,,,,,,wg-a,,,,AAXX 25124 07535 32575 53104 10240 20120 39891 40190 57008 85800 91200=
07535,1999-05-25 18:00:00,22,1017.5,-0.7,53,12,0,7.408,,,350,13.7,26.4,,,,,,,,,wg-a,,,,AAXX 25184 07535 32/// /3504 10220 20120 39875 40175 56007 91800 333 10264 20137=
07535,1999-05-26 00:00:00,12,1018.9,-0.6,94,11,0,7.408,,,140,,,,,,,,,,,wg-a,,,,AAXX 26004 07535 32/// /1404 10120 20110 39878 40189 58006 90000=
07535,1999-05-26 06:00:00,15,1017.7,0.4,82,12,18000,0,,,0,11.4,22.3,,,,,,,,,wg-a,,,,AAXX 26064 07535 12/68 20000 10150 20120 39870 40177 53004 60004 80001 90600 333 10223 20114=
07535,1999-05-26 12:00:00,25,1015.3,-1.3,47,13,500,14.816,,,150,,,,,,,,,,,wg-a,,,,AAXX 26124 07535 32600 11508 10250 20130 39857 40153 58013 81101 91200=
07535,1999-05-26 18:00:00,25,1012.7,-0.9,47,13,0,7.408,,,150,15.1,27.4,,,,,,,,,wg-a,,,,AAXX 26184 07535 32/// /1504 10250 20130 39831 40127 56009 91800 333 10274 20151=
07535,1999-05-27 00:00:00,19,1013.1,-0.8,64,12,0,14.816,,,130,,,,,,,,,,,wg-a,,,,AAXX 27004 07535 32/// /1308 10190 20120 39829 40131 58008 90000=
07535,1999-05-27 06:00:00,19,1011.9,0.1,49,8,25000,7.408,,,140,18,25.1,,,,,,,,,wg-a,,,,AAXX 27064 07535 12/75 71404 10190 20080 39817 40119 53001 60004 82032 90600 333 10251 20180=
07535,1999-05-27 12:00:00,25,1012.8,0.2,47,13,25000,22.224,,,170,,,,,,,,,,,wg-a,,,,AAXX 27124 07535 32/75 61712 10250 20130 39832 40128 50002 82082 91200=
07535,1999-05-27 18:00:00,21,1015.7,0.8,56,12,0,11.112,,,150,19.1,26.2,,,,,,,,,wg-a,,,,AAXX 27184 07535 32/// /1506 10210 20120 39857 40157 52008 91800 333 10262 20191=
07535,1999-05-28 00:00:00,17,1019.4,0.7,68,11,0,7.408,,,140,,,,,,,,,,,wg-a,,,,AAXX 28004 07535 32/// /1404 10170 20110 39888 40194 51007 90000=
07535,1999-05-28 06:00:00,18,1020.2,0.2,68,12,25000,0,,,0,13.2,21.3,,,,,,,,,wg-a,,,,AAXX 28064 07535 32/75 00000 10180 20120 39897 40202 51002 80000 90600 333 10213 20132=
07535,1999-05-28 12:00:00,27,1017.6,-1.4,37,11,500,18.52,,,150,,,,,,,,,,,wg-a,,,,AAXX 28124 07535 32/00 41510 10270 20110 39880 40176 58014 80001 91200=
07535,1999-05-28 18:00:00,24,1015.5,-0.9,38,9,0,18.52,,,140,18.2,28.2,,,,,,,,,wg-a,,,,AAXX 28184 07535 32/// /1410 10240 20090 39857 40155 56009 91800 333 10282 20182=
07535,1999-05-29 00:00:00,20,1015.2,-0.9,49,9,0,25.928,,,160,,,,,,,,,,,wg-a,,,,AAXX 29004 07535 32/// /1614 10200 20090 39850 40152 58009 90000=
07535,1999-05-29 06:00:00,19,1014.6,0,52,9,20000,29.632,,,150,18.1,23.8,,,,,,,,,wg-a,,,,AAXX 29064 07535 12/70 51516 10190 20090 39843 40146 50000 60004 80002 90600 333 10238 20181=
07535,1999-05-29 12:00:00,26,1015.8,0.1,48,14,0,14.816,,,160,,,,,,,,,,,wg-a,,,,AAXX 29124 07535 32/// /1608 10260 20140 39863 40158 50001 91200=
07535,1999-05-29 18:00:00,24,1014.2,-0.6,50,13,0,14.816,,,150,18.4,28,,,,,,,,,wg-a,,,,AAXX 29184 07535 32/// /1508 10240 20130 39845 40142 56006 91800 333 10280 20184=
07535,1999-05-30 00:00:00,19,1013.9,-1.3,52,9,0,14.816,,,130,,,,,,,,,,,wg-a,,,,AAXX 30004 07535 32/// /1308 10190 20090 39837 40139 58013 90000=
07535,1999-05-30 06:00:00,18,1015,1.6,64,11,25000,7.408,,,120,17,24.4,,,,,,,,,wg-a,,,,AAXX 30064 07535 12775 61204 10180 20110 39847 40150 53016 60004 82582 90600 333 10244 20170=
07535,1999-05-30 12:00:00,28,1015.1,0.4,42,14,0,7.408,,,210,,,,,,,,,,,wg-a,,,,AAXX 30124 07535 32/// /2104 10280 20140 39858 40151 50004 91200=
07535,1999-05-30 18:00:00,26,1014.9,-0.1,42,12,0,7.408,,,320,18.2,30.1,,,,,,,,,wg-a,,,,AAXX 30184 07535 32/// /3204 10260 20120 39854 40149 55001 91800 333 10301 20182=
07535,1999-05-31 00:00:00,18,1017.5,0.4,83,15,0,3.704,,,120,,,,,,,,,,,wg-a,,,,AAXX 31004 07535 32/// /1202 10180 20150 39871 40175 50004 90000=
07535,1999-05-31 06:00:00,17,1018.4,0.5,82,14,12000,3.704,,,240,15.3,26.2,,,,,,,,,wg-a,,,,AAXX 31064 07535 12562 72402 10170 20140 39878 40184 53005 60004 84883 90600 333 10262 20153=
07535,1999-05-31 12:00:00,24,1018.3,-0.2,61,16,15000,11.112,,,150,,,,,,,,,,1,wg-a,,,,AAXX 31124 07535 32/65 71506 10240 20160 39885 40183 58002 70162 82082 91200=
07535,1999-05-31 18:00:00,25,1015.9,-1.4,61,17,0,7.408,,,150,16.3,26.7,,,,,,,,,wg-a,,,,AAXX 31184 07535 32/// /1504 10250 20170 39862 40159 56014 91800 333 10267 20163=
07535,1999-06-01 00:00:00,18,1018,0.6,88,16,0,7.408,,,140,,,,,,,,,,,wg-a,,,,AAXX 01004 07535 32/// /1404 10180 20160 39876 40180 53006 90000=
07535,1999-06-01 06:00:00,19,1017.8,0.5,78,15,15000,11.112,,,140,17.5,24.5,,,,,1,,,,wg-a,,,,AAXX 01064 07535 12/65 21406 10190 20150 39875 40178 53005 60014 81031 90600 333 10245 20175=
07535,1999-06-01 12:00:00,29,1016.5,-0.3,43,15,20000,3.704,,,300,,,,,,,,,,,wg-a,,,,AAXX 01124 07535 32/70 63002 10290 20150 39872 40165 55003 86082 91200=
07535,1999-06-01 18:00:00,25,1012,-3.6,57,16,0,3.704,,,130,19.1,29.9,,,,,,,,,wg-a,,,,AAXX 01184 07535 32/// /1302 10250 20160 39825 40120 56036 91800 333 10299 20191=
07535,1999-06-02 00:00:00,19,1014.4,0.1,88,17,0,3.704,,,270,,,,,,,,,,,wg-a,,,,AAXX 02004 07535 32/// /2702 10190 20170 39842 40144 53001 90000=
07535,1999-06-02 06:00:00,17,1015.5,1.7,94,16,500,7.408,,,270,16.2,25.2,,2,,,2,,,61,wg-a,,,,AAXX 02064 07535 02500 82704 10170 20160 39850 40155 53017 60024 76162 888// 90600 333 10252 20162 60027=
07535,1999-06-02 12:00:00,24,1016.4,0.9,57,15,25000,11.112,,,260,,,,3,,,,,,1,wg-a,,,,AAXX 02124 07535 12575 52606 10240 20150 39866 40164 51009 60037 70186 84802 91200=
07535,1999-06-02 18:00:00,20,1018.6,0.8,64,13,0,11.112,,,300,16.6,24.2,,,,,,,,,wg-a,,,,AAXX 02184 07535 32/// /3006 10200 20130 39884 40186 53008 91800 333 10242 20166=
07535,1999-06-03 00:00:00,12,1019,-0.8,94,11,0,11.112,,,130,,,,,,,,,,,wg-a,,,,AAXX 03004 07535 32/// /1306 10120 20110 39879 40190 58008 90000=
07535,1999-06-03 06:00:00,17,1015.6,-0.8,68,11,14000,11.112,,,180,11.6,20.1,,,,,3,,,,wg-a,,,,AAXX 03064 07535 12764 11806 10170 20110 39851 40156 56008 60034 815/1 90600 333 10201 20116=
07535,1999-06-03 12:00:00,25,1014.3,-0.4,44,12,25000,7.408,,,260,,,,,,,,,,,wg-a,,,,AAXX 03124 07535 32675 62604 10250 20120 39847 40143 57004 85202 91200=
07535,1999-06-03 18:00:00,17,1018.2,2.1,59,9,0,11.112,,,290,16.9,26.4,,,,,,,,,wg-a,,,,AAXX 03184 07535 32/// /2906 10170 20090 39876 40182 51021 91800 333 10264 20169=
07535,1999-06-04 00:00:00,12,1021,0.6,88,10,0,7.408,,,230,,,,,,,,,,,wg-a,,,,AAXX 04004 07535 32/// /2304 10120 20100 39898 40210 50006 90000=
07535,1999-06-04 06:00:00,13,1020.7,0.4,88,11,10000,7.408,,,230,10.5,17.1,,0,,,,,,25,wg-a,,,,AAXX 04064 07535 02460 72304 10130 20110 39896 40207 51004 60004 72586 878// 90600 333 10171 20105 60007=
07535,1999-06-04 12:00:00,18,1019.4,-0.9,59,10,25000,11.112,,,280,,,,0,,,,,,1,wg-a,,,,AAXX 04124 07535 12575 72806 10180 20100 39889 40194 56009 60007 70186 878// 91200=
07535,1999-06-04 18:00:00,17,1017.2,-1,72,12,0,3.704,,,280,12.5,20.8,,,,,,,,,wg-a,,,,AAXX 04184 07535 32/// /2802 10170 20120 39867 40172 56010 91800 333 10208 20125=
07535,1999-06-05 00:00:00,12,1015,-1.8,94,11,0,7.408,,,150,,,,,,,,,,,wg-a,,,,AAXX 05004 07535 32/// /1504 10120 20110 39840 40150 57018 90000=
07535,1999-06-05 06:00:00,13,1013.1,-0.2,94,12,7000,7.408,,,180,11,16.6,,,,,1,,,21,wg-a,,,,AAXX 05064 07535 02357 81804 10130 20120 39823 40131 58002 60014 72162 875// 90600 333 10166 20110 61000=
07535,1999-06-05 12:00:00,12,1013.6,0.7,94,11,0,3.704,,,160,,,,,,,,,,,wg-a,,,,AAXX 05124 07535 32/// /1602 10120 20110 39827 40136 50007 91200=
07535,1999-06-05 18:00:00,11,1012.9,0,94,10,0,3.704,,,210,10.7,14.6,,,,,,,,,wg-a,,,,AAXX 05184 07535 32/// /2102 10110 20100 39818 40129 50000 91800 333 10146 20107=
07535,1999-06-06 00:00:00,10,1013.7,-0.4,93,9,0,11.112,,,210,,,,,,,,,,,wg-a,,,,AAXX 06004 07535 32/// /2106 10100 20090 39825 40137 57004 90000=
07535,1999-06-06 06:00:00,11,1013.8,0.7,94,10,7000,7.408,,,220,9.5,10.8,,,,,11,,,,wg-a,,,,AAXX 06064 07535 12557 72204 10110 20100 39827 40138 53007 60114 878// 90600 333 10108 20095=
07535,1999-06-06 12:00:00,11,1,,,,7000,7.408,,,220,9.5,10.8,,,,,11,,,,wg-a,,,,AAXX 06124 07535 12557 72204 10110 2//// 39827 60114 878// 91200 333 10108 20095=
07535,1999-06-06 18:00:00,16,1014.1,0.1,72,11,0,3.704,,,170,10.6,19.8,,,,,,,,,wg-a,,,,AAXX 06184 07535 32/// /1702 10160 20110 39835 40141 50001 91800 333 10198 20106=
07535,1999-06-07 00:00:00,9,1016.1,0.1,100,9,0,7.408,,,140,,,,,,,,,,,wg-a,,,,AAXX 07004 07535 32/// /1404 10090 20090 39848 40161 51001 90000=
07535,1999-06-07 06:00:00,10,1016.7,0.6,100,10,8000,0,,,0,7.5,15.8,,,,,,,,,wg-a,,,,AAXX 07064 07535 12658 70000 10100 20100 39855 40167 51006 60004 81532 90600 333 10158 20075=
07535,1999-06-07 12:00:00,13,1017.6,0.4,82,10,10000,3.704,,,90,,,,1,,,,,,60,wg-a,,,,AAXX 07124 07535 12460 70902 10130 20100 39866 40176 50004 60017 76062 8387/ 91200=
07535,1999-06-07 18:00:00,13,1019.1,0.9,100,13,0,3.704,,,300,10.2,14.4,,,,,,,,,wg-a,,,,AAXX 07184 07535 32/// /3002 10130 20130 39881 40191 53009 91800 333 10144 20102=
07535,1999-06-08 00:00:00,12,1023.2,1.4,94,11,0,3.704,,,270,,,,,,,,,,,wg-a,,,,AAXX 08004 07535 32/// /2702 10120 20110 39919 40232 53014 90000=
07535,1999-06-08 06:00:00,10,1025.6,1.6,100,10,8000,3.704,,,170,7.3,13.2,,,,,6,,,,wg-a,,,,AAXX 08064 07535 12658 41702 10100 20100 39940 40256 52016 60064 84500 90600 333 10132 20073=
07535,1999-06-08 12:00:00,18,1026,-0.1,49,7,35000,3.704,,,320,,,,,,,,,,,wg-a,,,,AAXX 08124 07535 32581 53202 10180 20070 39952 40260 57001 85800 91200=
07535,1999-06-08 18:00:00,16,1025.7,0.2,59,8,0,7.408,,,20,9.9,18.8,,,,,,,,,wg-a,,,,AAXX 08184 07535 32/// /0204 10160 20080 39948 40257 53002 91800 333 10188 20099=
07535,1999-06-09 00:00:00,8,1027.1,-0.7,100,8,0,3.704,,,150,,,,,,,,,,,wg-a,,,,AAXX 09004 07535 32/// /1502 10080 20080 39953 40271 58007 90000=
07535,1999-06-09 12:00:00,19,1024.5,-1,52,9,25000,11.112,,,340,,,,,,,,,,,wg-a,,,,AAXX 09124 07535 32575 33406 10190 20090 39940 40245 58010 81102 91200=
07535,1999-06-09 18:00:00,20,1022.1,-0.8,53,10,0,11.112,,,320,9.6,21.6,,,,,,,,,wg-a,,,,AAXX 09184 07535 32/// /3206 10200 20100 39917 40221 55008 91800 333 10216 20096=
07535,1999-06-10 00:00:00,11,1023.7,-0.6,94,10,0,3.704,,,160,,,,,,,,,,,wg-a,,,,AAXX 10004 07535 32/// /1602 10110 20100 39923 40237 58006 90000=
07535,1999-06-10 06:00:00,13,1023.4,0.4,88,11,20000,0,,,0,8.6,19.9,,,,,,,,,wg-a,,,,AAXX 10064 07535 12670 60000 10130 20110 39922 40234 53004 60004 83534 90600 333 10199 20086=
07535,1999-06-10 12:00:00,22,1022,-0.6,57,13,40000,7.408,,,300,,,,,,,,,,,wg-a,,,,AAXX 10124 07535 32682 43004 10220 20130 39919 40220 58006 84200 91200=
07535,1999-06-10 18:00:00,22,1021.2,-0,46,10,0,14.816,,,330,12.6,24.8,,,,,,,,,wg-a,,,,AAXX 10184 07535 32/// /3308 10220 20100 39910 40212 55000 91800 333 10248 20126=
07535,1999-06-11 00:00:00,13,1023.2,-0.1,82,10,0,3.704,,,340,,,,,,,,,,,wg-a,,,,AAXX 11004 07535 32/// /3402 10130 20100 39921 40232 58001 90000=
07535,1999-06-11 06:00:00,13,1023,0.2,82,10,20000,3.704,,,280,9.2,21.8,,,,,,,,,wg-a,,,,AAXX 11064 07535 12770 22802 10130 20100 39919 40230 52002 60004 825/0 90600 333 10218 20092=
07535,1999-06-11 12:00:00,23,1021.7,-0.8,44,10,40000,7.408,,,310,,,,,,,,,,,wg-a,,,,AAXX 11124 07535 32682 43104 10230 20100 39916 40217 58008 84400 91200=
07535,1999-06-11 18:00:00,21,1020.3,-0.7,53,11,0,3.704,,,310,12.9,25.2,,,,,,,,,wg-a,,,,AAXX 11184 07535 32/// /3102 10210 20110 39901 40203 56007 91800 333 10252 20129=
07535,1999-06-12 00:00:00,11,1021.9,-0.3,94,10,0,7.408,,,150,,,,,,,,,,,wg-a,,,,AAXX 12004 07535 32/// /1504 10110 20100 39906 40219 58003 90000=
07535,1999-06-12 06:00:00,13,1021.3,0.2,88,11,12000,3.704,,,120,9.1,20.9,,,,,,,,,wg-a,,,,AAXX 12064 07535 12762 51202 10130 20110 39902 40213 51002 60004 85530 90600 333 10209 20091=
07535,1999-06-12 12:00:00,24,1020.1,-0.5,50,13,0,7.408,,,300,,,,,,,,,,,wg-a,,,,AAXX 12124 07535 32/// /3004 10240 20130 39902 40201 58005 91200=
07535,1999-06-12 18:00:00,23,1018.4,-0.8,53,13,0,7.408,,,280,12.6,26.1,,,,,,,,,wg-a,,,,AAXX 12184 07535 32/// /2804 10230 20130 39884 40184 56008 91800 333 10261 20126=
07535,1999-06-13 00:00:00,15,1021.2,0.6,82,12,0,7.408,,,310,,,,,,,,,,,wg-a,,,,AAXX 13004 07535 32/// /3104 10150 20120 39903 40212 51006 90000=
07535,1999-06-13 06:00:00,14,1020.9,0.4,82,11,8000,3.704,,,240,10.6,22.6,,,,,,,,,wg-a,,,,AAXX 13064 07535 12658 32402 10140 20110 39899 40209 53004 60004 83500 90600 333 10226 20106=
07535,1999-06-13 12:00:00,22,1020.5,-0,46,10,0,11.112,,,310,,,,,,,,,,,wg-a,,,,AAXX 13124 07535 32/// /3106 10220 20100 39904 40205 55000 91200=
07535,1999-06-13 18:00:00,20,1020.4,0.4,53,10,0,14.816,,,340,13.5,25.4,,,,,,,,,wg-a,,,,AAXX 13184 07535 32/// /3408 10200 20100 39901 40204 53004 91800 333 10254 20135=
07535,1999-06-14 00:00:00,13,1022.5,-0.1,77,9,0,3.704,,,340,,,,,,,,,,,wg-a,,,,AAXX 14004 07535 32/// /3402 10130 20090 39914 40225 58001 90000=
07535,1999-06-14 06:00:00,13,1022.6,0.6,77,9,20000,0,,,0,8.1,19.7,,,,,,,,,wg-a,,,,AAXX 14064 07535 12/70 20000 10130 20090 39915 40226 51006 60004 82030 90600 333 10197 20081=
07535,1999-06-14 12:00:00,20,1021.9,-0.4,49,9,25000,14.816,,,350,,,,,,,,,,,wg-a,,,,AAXX 14124 07535 32575 53508 10200 20090 39915 40219 58004 85100 91200=
07535,1999-06-14 18:00:00,20,1021.2,-0.2,53,10,0,11.112,,,330,13.4,22.1,,,,,,,,,wg-a,,,,AAXX 14184 07535 32/// /3306 10200 20100 39908 40212 55002 91800 333 10221 20134=
07535,1999-06-15 00:00:00,14,1023.5,0,82,11,0,3.704,,,330,,,,,,,,,,,wg-a,,,,AAXX 15004 07535 32/// /3302 10140 20110 39925 40235 50000 90000=
07535,1999-06-15 06:00:00,13,1024.1,0.7,88,11,500,0,,,0,9.8,19.4,,,,,,,,,wg-a,,,,AAXX 15064 07535 32/00 00000 10130 20110 39929 40241 53007 80000 90600 333 10194 20098=
07535,1999-06-15 12:00:00,23,1022.3,-0.7,57,14,15000,11.112,,,30,,,,,,,,,,,wg-a,,,,AAXX 15124 07535 32565 50306 10230 20140 39923 40223 56007 85100 91200=
07535,1999-06-15 18:00:00,25,1020.6,-0.3,41,11,0,7.408,,,330,12.7,26.4,,,,,,,,,wg-a,,,,AAXX 15184 07535 32/// /3304 10250 20110 39907 40206 55003 91800 333 10264 20127=
07535,1999-06-16 00:00:00,13,1022.4,-0.3,88,11,0,7.408,,,120,,,,,,,,,,,wg-a,,,,AAXX 16004 07535 32/// /1204 10130 20110 39913 40224 58003 90000=
07535,1999-06-16 06:00:00,17,1021.5,-0,72,12,18000,3.704,,,30,12.6,24.5,,,,,,,,,wg-a,,,,AAXX 16064 07535 12/68 10302 10170 20120 39909 40215 55000 60004 80001 90600 333 10245 20126=
07535,1999-06-16 12:00:00,27,1019.8,-0.8,32,9,40000,11.112,,,40,,,,,,,,,,,wg-a,,,,AAXX 16124 07535 32782 10406 10270 20090 39901 40198 58008 81101 91200=
07535,1999-06-16 18:00:00,26,1017.9,-0.5,37,10,0,7.408,,,340,16.5,28.2,,,,,,,,,wg-a,,,,AAXX 16184 07535 32/// /3404 10260 20100 39883 40179 55005 91800 333 10282 20165=
07535,1999-06-17 06:00:00,15,1019.8,0.4,82,12,18000,3.704,,,20,12.3,26,,,,,,,,,wg-a,,,,AAXX 17064 07535 12/68 70202 10150 20120 39890 40198 51004 60004 83072 90600 333 10260 20123=
07535,1999-06-17 12:00:00,25,1019.2,-0.4,39,10,25000,14.816,,,30,,,,,,,,,,,wg-a,,,,AAXX 17124 07535 32675 60308 10250 20100 39894 40192 58004 81102 91200=
07535,1999-06-17 18:00:00,25,1018.5,-0.6,44,12,0,7.408,,,330,14.9,27.8,,,,,,,,,wg-a,,,,AAXX 17184 07535 32/// /3304 10250 20120 39887 40185 55006 91800 333 10278 20149=
07535,1999-06-18 00:00:00,16,1021.2,0.5,77,12,0,3.704,,,30,,,,,,,,,,,wg-a,,,,AAXX 18004 07535 32/// /0302 10160 20120 39905 40212 51005 90000=
07535,1999-06-18 06:00:00,16,1022,0.9,82,13,14000,0,,,0,12.8,24.5,,,,,,,,,wg-a,,,,AAXX 18064 07535 12/64 10000 10160 20130 39912 40220 53009 60004 80001 90600 333 10245 20128=
07535,1999-06-18 12:00:00,25,1020.5,-0.9,44,12,15000,14.816,,,340,,,,,,,,,,,wg-a,,,,AAXX 18124 07535 32665 53408 10250 20120 39906 40205 56009 85100 91200=
07535,1999-06-18 18:00:00,24,1019,-0.6,41,10,0,14.816,,,330,15.9,26.8,,,,,,,,,wg-a,,,,AAXX 18184 07535 32/// /3308 10240 20100 39891 40190 56006 91800 333 10268 20159=
07535,1999-06-19 00:00:00,15,1021.8,0.7,77,11,0,3.704,,,280,,,,,,,,,,,wg-a,,,,AAXX 19004 07535 32/// /2802 10150 20110 39910 40218 52007 90000=
07535,1999-06-19 06:00:00,14,1023,1.1,77,10,15000,3.704,,,330,9.9,23.4,,,,,,,,,wg-a,,,,AAXX 19064 07535 32/65 03302 10140 20100 39920 40230 52011 80000 90600 333 10234 20099=
07535,1999-06-19 12:00:00,24,1021.2,-0.7,31,6,0,14.816,,,360,,,,,,,,,,,wg-a,,,,AAXX 19124 07535 32/// /3608 10240 20060 39912 40212 57007 91200=
07535,1999-06-19 18:00:00,23,1019.9,-0.5,36,7,0,11.112,,,340,14.3,25.1,,,,,,,,,wg-a,,,,AAXX 19184 07535 32/// /3406 10230 20070 39898 40199 55005 91800 333 10251 20143=
07535,1999-06-20 00:00:00,13,1022.3,0.4,77,9,0,3.704,,,270,,,,,,,,,,,wg-a,,,,AAXX 20004 07535 32/// /2702 10130 20090 39912 40223 52004 90000=
07535,1999-06-20 06:00:00,14,1021.7,0.6,82,11,12000,3.704,,,260,10.4,22.8,,,,,,,,,wg-a,,,,AAXX 20064 07535 12/62 52602 10140 20110 39907 40217 53006 60004 80001 90600 333 10228 20104=
07535,1999-06-20 12:00:00,23,1020.7,-0.4,53,13,0,11.112,,,300,,,,,,,,,,,wg-a,,,,AAXX 20124 07535 32/// /3006 10230 20130 39907 40207 58004 91200=
07535,1999-06-20 18:00:00,20,1019.6,-0.1,64,13,0,11.112,,,290,14.1,25.6,,,,,,,,,wg-a,,,,AAXX 20184 07535 32/// /2906 10200 20130 39893 40196 55001 91800 333 10256 20141=
07535,1999-06-21 00:00:00,16,1020,-0.8,77,12,0,7.408,,,280,,,,,,,,,,,wg-a,,,,AAXX 21004 07535 32/// /2804 10160 20120 39893 40200 56008 90000=
07535,1999-06-21 06:00:00,14,1018.3,-0.1,100,14,12000,7.408,,,300,13.7,20,,1,,,2,,,21,wg-a,,,,AAXX 21064 07535 02362 83004 10140 20140 39875 40183 55001 60024 72165 878// 90600 333 10200 20137 60017=
07535,1999-06-21 12:00:00,17,1020,1.1,48,6,25000,18.52,,,340,,,,,,,,,,,wg-a,,,,AAXX 21124 07535 32575 63410 10170 20060 39893 40200 52011 86200 91200=
07535,1999-06-21 18:00:00,16,1021.1,0.8,48,5,0,11.112,,,340,13.9,19.9,,,,,,,,,wg-a,,,,AAXX 21184 07535 32/// /3406 10160 20050 39903 40211 51008 91800 333 10199 20139=
07535,1999-06-22 00:00:00,8,1024,0.6,87,6,0,3.704,,,230,,,,,,,,,,,wg-a,,,,AAXX 22004 07535 32/// /2302 10080 20060 39922 40240 52006 90000=
07535,1999-06-22 06:00:00,10,1023.5,0.4,87,8,20000,0,,,0,5.5,16.4,,,,,,,,,wg-a,,,,AAXX 22064 07535 32/70 00000 10100 20080 39920 40235 51004 80000 90600 333 10164 20055=
07535,1999-06-22 12:00:00,21,1021,-1.1,38,6,25000,11.112,,,350,,,,,,,,,,,wg-a,,,,AAXX 22124 07535 32675 13506 10210 20060 39907 40210 58011 81100 91200=
07535,1999-06-22 18:00:00,21,1018,-1.1,35,5,0,11.112,,,360,10.4,22.6,,,,,,,,,wg-a,,,,AAXX 22184 07535 32/// /3606 10210 20050 39878 40180 56011 91800 333 10226 20104=
07535,1999-06-23 00:00:00,13,1019.4,-0.3,58,5,0,7.408,,,80,,,,,,,,,,,wg-a,,,,AAXX 23004 07535 32/// /0804 10130 20050 39883 40194 58003 90000=
07535,1999-06-23 06:00:00,11,1018.9,0.1,71,6,500,0,,,0,8.4,20.5,,,,,,,,,wg-a,,,,AAXX 23064 07535 12/00 30000 10110 20060 39877 40189 52001 60004 82032 90600 333 10205 20084=
07535,1999-06-23 12:00:00,23,1017.5,-0.6,33,6,500,7.408,,,340,,,,,,,,,,,wg-a,,,,AAXX 23124 07535 32600 53404 10230 20060 39875 40175 57006 81582 91200=
07535,1999-06-23 18:00:00,24,1016.7,-0.3,31,6,0,3.704,,,360,11.3,25,,,,,,,,,wg-a,,,,AAXX 23184 07535 32/// /3602 10240 20060 39868 40167 55003 91800 333 10250 20113=
07535,1999-06-24 00:00:00,13,1019,-0.2,67,7,0,0,,,0,,,,,,,,,,,wg-a,,,,AAXX 24004 07535 32/// /0000 10130 20070 39880 40190 58002 90000=
07535,1999-06-24 06:00:00,17,1019.1,0.5,59,9,35000,0,,,0,10,23.6,,,,,,,,,wg-a,,,,AAXX 24064 07535 32/81 00000 10170 20090 39885 40191 52005 80000 90600 333 10236 20100=
07535,1999-06-24 12:00:00,28,1017.4,-0.8,28,8,35000,7.408,,,60,,,,,,,,,,,wg-a,,,,AAXX 24124 07535 32/81 00604 10280 20080 39879 40174 58008 80000 91200=
07535,1999-06-24 18:00:00,28,1,,28,8,0,11.112,,,40,16.8,31.8,,,,,,,,,wg-a,,,,AAXX 24184 07535 32/// /0406 10280 20080 91800 333 10318 20168=
07535,1999-06-25 00:00:00,20,1,,53,10,0,11.112,,,160,,,,,,,,,,,wg-a,,,,AAXX 25004 07535 32/// /1606 10200 20100 90000=
07535,1999-06-25 06:00:00,20,1015.4,,40,6,25000,14.816,,,130,17.5,28.3,,,,,,,,,wg-a,,,,AAXX 25064 07535 12/75 51308 10200 20060 39852 40154 60004 80002 90600 333 10283 20175=
07535,1999-06-25 12:00:00,30,1013.6,-1.2,27,9,25000,14.816,,,160,,,,,,,,,,,wg-a,,,,AAXX 25124 07535 32575 41608 10300 20090 39845 40136 58012 81281 91200=
07535,1999-06-25 18:00:00,27,1012.6,-0.2,34,10,0,25.928,,,170,20.1,33.5,,,,,,,,,wg-a,,,,AAXX 25184 07535 32/// /1714 10270 20100 39832 40126 58002 91800 333 10335 20201=
07535,1999-06-26 00:00:00,20,1014.9,0.6,68,14,0,14.816,,,180,,,,,,,,,,,wg-a,,,,AAXX 26004 07535 32/// /1808 10200 20140 39847 40149 50006 90000=
07535,1999-06-26 06:00:00,17,1013.3,0.8,100,17,6000,3.704,,,220,15.6,26.6,,,,,1,,,1,wg-a,,,,AAXX 26064 07535 12456 72202 10170 20170 39830 40133 53008 60014 70162 878// 90600 333 10266 20156=
07535,1999-06-26 18:00:00,23,1010.5,-0.7,65,16,0,3.704,,,290,16.6,25.1,,,,,,,,,wg-a,,,,AAXX 26184 07535 32/// /2902 10230 20160 39809 40105 56007 91800 333 10251 20166=
07535,1999-06-27 00:00:00,17,1011.7,-0.3,88,15,0,3.704,,,350,,,,,,,,,,,wg-a,,,,AAXX 27004 07535 32/// /3502 10170 20150 39814 40117 58003 90000=
07535,1999-06-27 06:00:00,16,1010.4,-0.4,88,14,15000,0,,,0,15.6,23.3,,,,,3,,,,wg-a,,,,AAXX 27064 07535 12665 80000 10160 20140 39800 40104 58004 60034 81532 90600 333 10233 20156=
07535,1999-06-27 12:00:00,16,1011.6,1.3,94,15,0,7.408,,,290,,,,,,,,,,,wg-a,,,,AAXX 27124 07535 32/// /2904 10160 20150 39812 40116 53013 91200=
07535,1999-06-27 18:00:00,19,1012.9,0.4,64,12,0,7.408,,,280,15.4,23.1,,,,,,,,,wg-a,,,,AAXX 27184 07535 32/// /2804 10190 20120 39827 40129 53004 91800 333 10231 20154=
07535,1999-06-28 00:00:00,11,1017.5,1.1,94,10,0,3.704,,,200,,,,,,,,,,,wg-a,,,,AAXX 28004 07535 32/// /2002 10110 20100 39863 40175 51011 90000=
07535,1999-06-28 06:00:00,13,1019,1.2,94,12,25000,7.408,,,200,10.3,18.4,,,,,7,,,,wg-a,,,,AAXX 28064 07535 12475 42004 10130 20120 39880 40190 53012 60074 84800 90600 333 10184 20103=
07535,1999-06-28 12:00:00,21,1019.8,0.2,53,11,500,7.408,,,260,,,,,,,,,,,wg-a,,,,AAXX 28124 07535 32500 72604 10210 20110 39896 40198 51002 878// 91200=
07535,1999-06-28 18:00:00,21,1018.8,-0.6,49,10,0,3.704,,,350,13,22.5,,,,,,,,,wg-a,,,,AAXX 28184 07535 32/// /3502 10210 20100 39886 40188 56006 91800 333 10225 20130=
07535,1999-06-29 00:00:00,14,1019.1,-1.3,82,11,0,7.408,,,110,,,,,,,,,,,wg-a,,,,AAXX 29004 07535 32/// /1104 10140 20110 39882 40191 56013 90000=
07535,1999-06-29 06:00:00,14,1020,1.5,88,12,20000,7.408,,,150,13,20.7,,,,,,,,80,wg-a,,,,AAXX 29064 07535 02670 71504 10140 20120 39891 40200 51015 61000 78086 8227/ 90600 333 10207 20130 6100=
07535,1999-06-29 12:00:00,24,1020.4,0.5,44,11,25000,7.408,,,330,,,,,,,,,,3,wg-a,,,,AAXX 29124 07535 32675 73304 10240 20110 39905 40204 53005 70386 81132 91200=
07535,1999-06-29 18:00:00,23,1020.7,0.6,57,14,0,11.112,,,310,14.3,26.6,,,,,,,,,wg-a,,,,AAXX 29184 07535 32/// /3106 10230 20140 39907 40207 53006 91800 333 10266 20143=
07535,1999-06-30 00:00:00,16,1024.2,1.1,88,14,0,0,,,0,,,,,,,,,,,wg-a,,,,AAXX 30004 07535 32/// /0000 10160 20140 39934 40242 50011 90000=
07535,1999-06-30 06:00:00,16,1024.8,0.6,94,15,12000,7.408,,,210,14.7,23,,,,,,,,,wg-a,,,,AAXX 30064 07535 12462 82104 10160 20150 39939 40248 53006 60004 888// 90600 333 10230 20147=
07535,1999-06-30 12:00:00,21,1024.8,0.2,69,15,15000,7.408,,,290,,,,,,,,,,,wg-a,,,,AAXX 30124 07535 32465 72904 10210 20150 39945 40248 50002 87800 91200=
07535,1999-06-30 18:00:00,22,1022.7,-0.8,53,12,0,11.112,,,320,15.6,24.3,,,,,,,,,wg-a,,,,AAXX 30184 07535 32/// /3206 10220 20120 39926 40227 57008 91800 333 10243 20156=
07535,1999-07-01 00:00:00,13,1023.5,-1,94,12,0,7.408,,,140,,,,,,,,,,,wg-a,,,,AAXX 01004 07535 32/// /1404 10130 20120 39923 40235 58010 90000=
07535,1999-07-01 06:00:00,15,1021.7,-0.4,88,13,500,0,,,0,11,22.4,,,,,,,,,wg-a,,,,AAXX 01064 07535 32/00 00000 10150 20130 39909 40217 57004 80000 90600 333 10224 20110=
07535,1999-07-01 12:00:00,27,1019.3,-1.1,39,12,35000,7.408,,,350,,,,,,,,,,,wg-a,,,,AAXX 01124 07535 32/81 03504 10270 20120 39897 40193 56011 80000 91200=
07535,1999-07-01 18:00:00,28,1016.1,-1.5,37,12,0,14.816,,,60,15.3,30.5,,,,,,,,,wg-a,,,,AAXX 01184 07535 32/// /0608 10280 20120 39867 40161 56015 91800 333 10305 20153=
07535,1999-07-02 00:00:00,20,1015.6,-0.7,68,14,0,3.704,,,10,,,,,,,,,,,wg-a,,,,AAXX 02004 07535 32/// /0102 10200 20140 39855 40156 56007 90000=
07535,1999-07-02 06:00:00,22,1013.3,-0.8,60,14,25000,3.704,,,120,16.3,27.7,,,,,,,,,wg-a,,,,AAXX 02064 07535 12/75 61202 10220 20140 39834 40133 56008 60004 80002 90600 333 10277 20163=
07535,1999-07-02 12:00:00,36,1010,-1,27,14,25000,7.408,,,190,,,,,,,,,,,wg-a,,,,AAXX 02124 07535 32/75 61904 10360 20140 39815 40100 58010 84082 91200=
07535,1999-07-02 18:00:00,32,1009.4,-0.4,41,17,0,7.408,,,340,21.6,36,,,,,,,,,wg-a,,,,AAXX 02184 07535 32/// /3404 10320 20170 39807 40094 55004 91800 333 10360 20216=
07535,1999-07-03 00:00:00,20,1015.4,1.9,83,17,0,3.704,,,280,,,,,,,,,,,wg-a,,,,AAXX 03004 07535 32/// /2802 10200 20170 39853 40154 51019 90000=
07535,1999-07-03 06:00:00,18,1014.9,-0.1,88,16,6000,3.704,,,320,17.6,32.3,,,,,,,,,wg-a,,,,AAXX 03064 07535 12456 83202 10180 20160 39846 40149 55001 60004 875// 90600 333 10323 20176=
07535,1999-07-03 12:00:00,18,1014.9,-0.1,88,16,6000,3.704,,,320,17.6,32.3,,,,,,,,,wg-a,,,,AAXX 03124 07535 12456 83202 10180 20160 39846 40149 55001 60004 875// 91200 333 10323 20176=
07535,1999-07-03 18:00:00,25,1012,-0.4,65,18,0,7.408,,,330,17.7,27.6,,,,,,,,,wg-a,,,,AAXX 03184 07535 32/// /3304 10250 20180 39825 40120 55004 91800 333 10276 20177=
07535,1999-07-04 00:00:00,19,1011.5,-1,88,17,0,0,,,0,,,,,,,,,,,wg-a,,,,AAXX 04004 07535 32/// /0000 10190 20170 39814 40115 58010 90000=
07535,1999-07-04 06:00:00,18,1009.8,-0.6,94,17,6000,0,,,0,16,24.5,,,,,,,,,wg-a,,,,AAXX 04064 07535 12/56 30000 10180 20170 39797 40098 57006 60004 83030 90600 333 10245 20160=
07535,1999-07-04 12:00:00,32,1007.1,-1.2,29,12,0,11.112,,,240,,,,,,,,,,,wg-a,,,,AAXX 04124 07535 32/// /2406 10320 20120 39783 40071 58012 91200=
07535,1999-07-04 18:00:00,25,1007,-0,65,18,0,7.408,,,280,17.8,33.1,,,,,,,,,wg-a,,,,AAXX 04184 07535 32/// /2804 10250 20180 39777 40070 55000 91800 333 10331 20178=
07535,1999-07-05 00:00:00,17,1011.2,-0.1,100,17,0,0,,,0,,,,,,,,,,,wg-a,,,,AAXX 05004 07535 32/// /0000 10170 20170 39809 40112 56001 90000=
07535,1999-07-05 06:00:00,16,1012,0.3,100,16,8000,3.704,,,140,15.9,25.2,,,,,18,,,,wg-a,,,,AAXX 05064 07535 12458 71402 10160 20160 39816 40120 53003 60184 878// 90600 333 10252 20159=
07535,1999-07-05 12:00:00,24,1011.1,-0.3,57,15,18000,3.704,,,190,,,,,,,,,,,wg-a,,,,AAXX 05124 07535 32568 51902 10240 20150 39815 40111 58003 85200 91200=
07535,1999-07-06 00:00:00,14,1016.6,-0.1,100,14,0,7.408,,,190,,,,,,,,,,,wg-a,,,,AAXX 06004 07535 32/// /1904 10140 20140 39858 40166 56001 90000=
07535,1999-07-06 06:00:00,16,1017.4,1,94,15,10000,3.704,,,230,13.8,17.1,,,,,17,,,,wg-a,,,,AAXX 06064 07535 12460 72302 10160 20150 39868 40174 52010 60174 878// 90600 333 10171 20138=
07535,1999-07-06 12:00:00,21,1018.9,1,69,15,18000,11.112,,,300,,,,0,,,,,,1,wg-a,,,,AAXX 06124 07535 12568 63006 10210 20150 39888 40189 51010 60007 70186 86800 91200=
07535,1999-07-06 18:00:00,20,1020.9,1.1,73,15,0,7.408,,,10,15.2,23.7,,,,,,,,,wg-a,,,,AAXX 06184 07535 32/// /0104 10200 20150 39906 40209 53011 91800 333 10237 20152=
07535,1999-07-07 00:00:00,15,1024.7,1.1,88,13,0,3.704,,,290,,,,,,,,,,,wg-a,,,,AAXX 07004 07535 32/// /2902 10150 20130 39937 40247 51011 90000=
07535,1999-07-07 06:00:00,14,1026.3,1.3,100,14,600,3.704,,,280,12.9,19.9,,,,,2,,,44,wg-a,,,,AAXX 07064 07535 12306 82802 10140 20140 39953 40263 51013 60024 74442 876// 90600 333 10199 20129=
07535,1999-07-07 12:00:00,22,1025.8,-0.2,65,15,18000,7.408,,,290,,,,,,,,,,1,wg-a,,,,AAXX 07124 07535 32468 72904 10220 20150 39955 40258 58002 70142 878// 91200=
07535,1999-07-07 18:00:00,22,1024.7,-0.3,60,14,0,11.112,,,320,14.4,24,,,,,,,,,wg-a,,,,AAXX 07184 07535 32/// /3206 10220 20140 39945 40247 56003 91800 333 10240 20144=
07535,1999-07-08 00:00:00,14,1026.3,0,94,13,0,3.704,,,180,,,,,,,,,,,wg-a,,,,AAXX 08004 07535 32/// /1802 10140 20130 39952 40263 50000 90000=
07535,1999-07-08 06:00:00,14,1026.1,-0.1,100,14,20000,3.704,,,320,12.2,22.2,,,,,,,,,wg-a,,,,AAXX 08064 07535 12/70 63202 10140 20140 39950 40261 56001 60004 80002 90600 333 10222 20122=
07535,1999-07-08 12:00:00,24,1023.4,-1.4,57,15,25000,18.52,,,360,,,,,,,,,,,wg-a,,,,AAXX 08124 07535 32675 73610 10240 20150 39935 40234 58014 81102 91200=
07535,1999-07-08 18:00:00,24,1021.6,-0.5,44,11,0,14.816,,,40,14.2,26.3,,,,,,,,,wg-a,,,,AAXX 08184 07535 32/// /0408 10240 20110 39917 40216 57005 91800 333 10263 20142=
07535,1999-07-09 00:00:00,17,1022.1,-0.7,77,13,0,3.704,,,120,,,,,,,,,,,wg-a,,,,AAXX 09004 07535 32/// /1202 10170 20130 39915 40221 58007 90000=
07535,1999-07-09 06:00:00,17,1020.2,-0.3,77,13,10000,7.408,,,20,13.3,24.4,,,,,,,,,wg-a,,,,AAXX 09064 07535 32/60 00204 10170 20130 39896 40202 56003 80000 90600 333 10244 20133=
07535,1999-07-09 12:00:00,26,1017,-1.3,42,12,500,14.816,,,10,,,,,,,,,,,wg-a,,,,AAXX 09124 07535 32600 10108 10260 20120 39874 40170 58013 81100 91200=
07535,1999-07-09 18:00:00,25,1015.8,-0.2,41,11,0,14.816,,,60,16.5,27.7,,,,,,,,,wg-a,,,,AAXX 09184 07535 32/// /0608 10250 20110 39861 40158 55002 91800 333 10277 20165=
07535,1999-07-10 00:00:00,18,1016.2,-0.9,68,12,0,7.408,,,40,,,,,,,,,,,wg-a,,,,AAXX 10004 07535 32/// /0404 10180 20120 39859 40162 58009 90000=
07535,1999-07-10 06:00:00,17,1015.9,0.3,72,12,25000,0,,,0,13.5,25.1,,,,,,,,,wg-a,,,,AAXX 10064 07535 32/75 00000 10170 20120 39854 40159 53003 80000 90600 333 10251 20135=
07535,1999-07-10 12:00:00,23,1013.8,-0.6,53,13,0,11.112,,,30,,,,,,,,,,,wg-a,,,,AAXX 10124 07535 32/// /0306 10230 20130 39840 40138 56006 91200=
07535,1999-07-10 18:00:00,23,1013.6,0.2,57,14,0,11.112,,,10,17,25.2,,,,,,,,,wg-a,,,,AAXX 10184 07535 32/// /0106 10230 20140 39838 40136 53002 91800 333 10252 20170=
07535,1999-07-11 00:00:00,16,1014.4,-0.4,94,15,0,0,,,0,,,,,,,,,,,wg-a,,,,AAXX 11004 07535 32/// /0000 10160 20150 39839 40144 58004 90000=
07535,1999-07-11 06:00:00,15,1014,0.2,100,15,12000,3.704,,,140,14.1,22.6,,,,,,,,,wg-a,,,,AAXX 11064 07535 12662 71402 10150 20150 39834 40140 51002 60004 875// 90600 333 10226 20141=
07535,1999-07-11 12:00:00,25,1012.4,-0.6,61,17,0,7.408,,,10,,,,,,,,,,,wg-a,,,,AAXX 11124 07535 32/// /0104 10250 20170 39829 40124 58006 91200=
07535,1999-07-11 18:00:00,25,1011.2,-0.3,61,17,0,3.704,,,270,15.3,27.7,,,,,,,,,wg-a,,,,AAXX 11184 07535 32/// /2702 10250 20170 39818 40112 55003 91800 333 10277 20153=
07535,1999-07-12 00:00:00,17,1012.8,-0.1,100,17,0,7.408,,,140,,,,,,,,,,,wg-a,,,,AAXX 12004 07535 32/// /1404 10170 20170 39825 40128 58001 90000=
07535,1999-07-12 06:00:00,19,1012,0.3,88,17,18000,3.704,,,140,16,25.3,,,,,,,,,wg-a,,,,AAXX 12064 07535 12/68 41402 10190 20170 39819 40120 53003 60004 84031 90600 333 10253 20160=
07535,1999-07-12 12:00:00,29,1010.4,-0.8,48,17,500,7.408,,,190,,,,,,,,,,,wg-a,,,,AAXX 12124 07535 32500 31904 10290 20170 39814 40104 58008 82201 91200=
07535,1999-07-12 18:00:00,21,1010.9,1.3,83,18,0,7.408,,,320,18.9,31.8,,,,,,,,,wg-a,,,,AAXX 12184 07535 32/// /3204 10210 20180 39810 40109 53013 91800 333 10318 20189=
07535,1999-07-13 00:00:00,18,1012.3,0.5,100,18,0,7.408,,,160,,,,,,,,,,,wg-a,,,,AAXX 13004 07535 32/// /1604 10180 20180 39821 40123 51005 90000=
07535,1999-07-13 06:00:00,19,1011.5,0.1,88,17,8000,7.408,,,190,17.7,20.4,,,,,7,,,,wg-a,,,,AAXX 13064 07535 12658 71904 10190 20170 39814 40115 53001 60074 86532 90600 333 10204 20177=
07535,1999-07-13 12:00:00,26,1010.4,-0.6,58,17,18000,11.112,,,220,,,,,,,,,,,wg-a,,,,AAXX 13124 07535 32468 52206 10260 20170 39811 40104 58006 85800 91200=
07535,1999-07-13 18:00:00,21,1011.3,0.3,88,19,0,7.408,,,270,18.8,28.2,,,,,,,,,wg-a,,,,AAXX 13184 07535 32/// /2704 10210 20190 39815 40113 53003 91800 333 10282 20188=
07535,1999-07-14 00:00:00,18,1015.8,1.8,88,16,0,11.112,,,280,,,,,,,,,,,wg-a,,,,AAXX 14004 07535 32/// /2806 10180 20160 39855 40158 53018 90000=
07535,1999-07-14 06:00:00,16,1018,1.2,88,14,10000,3.704,,,270,14.8,21.2,,,,,2,,,,wg-a,,,,AAXX 14064 07535 12460 52702 10160 20140 39874 40180 51012 60024 85530 90600 333 10212 20148=
07535,1999-07-14 12:00:00,22,1018.4,0.2,65,15,0,7.408,,,270,,,,,,,,,,,wg-a,,,,AAXX 14124 07535 32/// /2704 10220 20150 39884 40184 50002 91200=
07535,1999-07-14 18:00:00,22,1017.4,-0.6,65,15,0,3.704,,,260,16.5,25.2,,,,,,,,,wg-a,,,,AAXX 14184 07535 32/// /2602 10220 20150 39874 40174 56006 91800 333 10252 20165=
07535,1999-07-15 00:00:00,14,1019.7,0.2,94,13,0,3.704,,,200,,,,,,,,,,,wg-a,,,,AAXX 15004 07535 32/// /2002 10140 20130 39888 40197 50002 90000=
07535,1999-07-15 06:00:00,16,1019.4,0.4,94,15,14000,3.704,,,180,13.9,21.9,,,,,,,,,wg-a,,,,AAXX 15064 07535 12464 81802 10160 20150 39887 40194 53004 60004 888// 90600 333 10219 20139=
07535,1999-07-15 12:00:00,20,1019.1,-0.1,73,15,20000,3.704,,,240,,,,,,,,,,2,wg-a,,,,AAXX 15124 07535 02470 82402 10200 20150 39889 40191 58001 61000 70252 888// 91200 333 ////=
07535,1999-07-15 18:00:00,20,1018.9,-0.2,78,16,0,3.704,,,290,15.8,20.6,,,,,,,,,wg-a,,,,AAXX 15184 07535 32/// /2902 10200 20160 39887 40189 56002 91800 333 10206 20158=
07535,1999-07-16 00:00:00,14,1021.1,0.6,94,13,0,3.704,,,170,,,,,,,,,,,wg-a,,,,AAXX 16004 07535 32/// /1702 10140 20130 39901 40211 51006 90000=
07535,1999-07-16 06:00:00,15,1020.9,0.4,94,14,20000,0,,,0,12.3,20.4,,,,,,,,28,wg-a,,,,AAXX 16064 07535 32/70 00000 10150 20140 39901 40209 53004 72840 80000 90600 333 10204 20123=
07535,1999-07-16 12:00:00,25,1019.7,-0.5,47,13,35000,3.704,,,80,,,,,,,,,,,wg-a,,,,AAXX 16124 07535 32681 40802 10250 20130 39899 40197 58005 84400 91200=
07535,1999-07-16 18:00:00,25,1017,-1.1,50,14,0,7.408,,,30,14.9,27.1,,,,,,,,,wg-a,,,,AAXX 16184 07535 32/// /0304 10250 20140 39873 40170 56011 91800 333 10271 20149=
07535,1999-07-17 00:00:00,16,1017.3,-0.5,88,14,0,0,,,0,,,,,,,,,,,wg-a,,,,AAXX 17004 07535 32/// /0000 10160 20140 39867 40173 57005 90000=
07535,1999-07-17 06:00:00,19,1016,-0,73,14,500,3.704,,,160,15.4,25.2,,,,,,,,,wg-a,,,,AAXX 17064 07535 32/00 01602 10190 20140 39857 40160 55000 80000 90600 333 10252 20154=
07535,1999-07-17 12:00:00,30,1014.5,-0.5,35,13,0,3.704,,,120,,,,,,,,,,,wg-a,,,,AAXX 17124 07535 32/// /1202 10300 20130 39853 40145 58005 91200=
07535,1999-07-17 18:00:00,30,1013.6,-0.1,40,15,0,7.408,,,320,18.9,33.1,,,,,,,,,wg-a,,,,AAXX 17184 07535 32/// /3204 10300 20150 39845 40136 55001 91800 333 10331 20189=
07535,1999-07-18 00:00:00,18,1015.8,0,83,15,0,7.408,,,150,,,,,,,,,,,wg-a,,,,AAXX 18004 07535 32/// /1504 10180 20150 39855 40158 50000 90000=
07535,1999-07-18 06:00:00,18,1017.1,1,88,16,15000,7.408,,,180,16.6,29.6,,,,,,,,,wg-a,,,,AAXX 18064 07535 12765 51804 10180 20160 39867 40171 53010 60004 81582 90600 333 10296 20166=
07535,1999-07-18 12:00:00,24,1016,0.3,74,19,0,7.408,,,200,,,,,,,,,,,wg-a,,,,AAXX 18124 07535 32/// /2004 10240 20190 39863 40160 53003 91200=
07535,1999-07-18 18:00:00,25,1013.2,-0.2,74,20,0,7.408,,,340,17.7,27.7,,,,,,,,,wg-a,,,,AAXX 18184 07535 32/// /3404 10250 20200 39837 40132 55002 91800 333 10277 20177=
07535,1999-07-19 06:00:00,18,1016.8,0.8,94,17,1500,3.704,,,260,17.5,25.1,,0,,,19,,,60,wg-a,,,,AAXX 19064 07535 02215 82602 10180 20170 39864 40168 53008 60194 76096 875// 90600 333 10251 20175 60007=
07535,1999-07-19 12:00:00,21,1017.2,0.1,83,18,12000,0,,,0,,,,,,,,,,1,wg-a,,,,AAXX 19124 07535 32562 70000 10210 20180 39871 40172 53001 70162 878// 91200=
07535,1999-07-19 18:00:00,23,1016,-0.5,69,17,0,3.704,,,330,17.6,24.4,,,,,,,,,wg-a,,,,AAXX 19184 07535 32/// /3302 10230 20170 39862 40160 56005 91800 333 10244 20176=
07535,1999-07-20 00:00:00,17,1017.8,0.1,94,16,0,7.408,,,140,,,,,,,,,,,wg-a,,,,AAXX 20004 07535 32/// /1404 10170 20160 39873 40178 52001 90000=
07535,1999-07-20 06:00:00,17,1018.3,0.9,100,17,7000,7.408,,,140,15.1,22.7,,,,,,,,,wg-a,,,,AAXX 20064 07535 12657 11404 10170 20170 39878 40183 51009 60004 81500 90600 333 10227 20151=
07535,1999-07-20 12:00:00,27,1017.4,-0.6,51,16,15000,3.704,,,270,,,,,,,,,,,wg-a,,,,AAXX 20124 07535 32565 52702 10270 20160 39879 40174 58006 85100 91200=
07535,1999-07-20 18:00:00,26,1017.1,0.2,58,17,0,7.408,,,330,17.1,29.6,,,,,,,,,wg-a,,,,AAXX 20184 07535 32/// /3304 10260 20170 39875 40171 53002 91800 333 10296 20171=
07535,1999-07-21 00:00:00,19,1019.4,0.6,88,17,0,3.704,,,320,,,,,,,,,,,wg-a,,,,AAXX 21004 07535 32/// /3202 10190 20170 39891 40194 50006 90000=
07535,1999-07-21 06:00:00,18,1020.7,1,94,17,14000,3.704,,,280,17.5,25.8,,,,,,,,,wg-a,,,,AAXX 21064 07535 12564 82802 10180 20170 39903 40207 53010 60004 8257/ 90600 333 10258 20175=
07535,1999-07-21 12:00:00,25,1020.4,-0.5,54,15,18000,7.408,,,320,,,,,,,,,,,wg-a,,,,AAXX 21124 07535 32568 63204 10250 20150 39906 40204 58005 86800 91200=
07535,1999-07-21 18:00:00,25,1019.1,-0.8,54,15,0,7.408,,,310,18.3,27.8,,,,,,,,,wg-a,,,,AAXX 21184 07535 32/// /3104 10250 20150 39893 40191 56008 91800 333 10278 20183=
07535,1999-07-22 00:00:00,18,1020.9,0.3,73,13,0,7.408,,,310,,,,,,,,,,,wg-a,,,,AAXX 22004 07535 32/// /3104 10180 20130 39904 40209 51003 90000=
07535,1999-07-22 06:00:00,15,1021.9,0.6,72,10,20000,3.704,,,280,12.5,24.5,,,,,,,,,wg-a,,,,AAXX 22064 07535 12770 22802 10150 20100 39910 40219 53006 60004 825/0 90600 333 10245 20125=
07535,1999-07-22 12:00:00,20,1022.2,0.4,53,10,500,14.816,,,350,,,,,,,,,,,wg-a,,,,AAXX 22124 07535 32600 63508 10200 20100 39918 40222 51004 85802 91200=
07535,1999-07-22 18:00:00,19,1021.2,-0.5,46,7,0,14.816,,,330,14.6,22.4,,,,,,,,,wg-a,,,,AAXX 22184 07535 32/// /3308 10190 20070 39907 40212 56005 91800 333 10224 20146=
07535,1999-07-23 00:00:00,14,1023.5,0.4,72,9,0,3.704,,,350,,,,,,,,,,,wg-a,,,,AAXX 23004 07535 32/// /3502 10140 20090 39924 40235 51004 90000=
07535,1999-07-23 06:00:00,12,1023.5,0.3,88,10,500,3.704,,,340,8.4,19.1,,,,,,,,,wg-a,,,,AAXX 23064 07535 12/00 13402 10120 20100 39923 40235 52003 60004 80001 90600 333 10191 20084=
07535,1999-07-23 12:00:00,22,1022.3,-0.6,50,11,500,11.112,,,340,,,,,,,,,,,wg-a,,,,AAXX 23124 07535 32600 23406 10220 20110 39921 40223 58006 82101 91200=
07535,1999-07-23 18:00:00,20,1021,-0.3,53,10,0,18.52,,,360,12.1,23.2,,,,,,,,,wg-a,,,,AAXX 23184 07535 32/// /3610 10200 20100 39907 40210 55003 91800 333 10232 20121=
07535,1999-07-24 00:00:00,13,1021.5,-1.1,72,8,0,3.704,,,60,,,,,,,,,,,wg-a,,,,AAXX 24004 07535 32/// /0602 10130 20080 39903 40215 58011 90000=
07535,1999-07-24 06:00:00,13,1020,-0.6,72,8,15000,0,,,0,7.9,20.4,,,,,,,,,wg-a,,,,AAXX 24064 07535 32/65 00000 10130 20080 39889 40200 56006 80000 90600 333 10204 20079=
07535,1999-07-24 12:00:00,24,1016.8,-1.6,31,6,0,7.408,,,60,,,,,,,,,,,wg-a,,,,AAXX 24124 07535 32/// /0604 10240 20060 39869 40168 58016 91200=
07535,1999-07-24 18:00:00,26,1014,-1.1,37,10,0,7.408,,,360,12.5,28.4,,,,,,,,,wg-a,,,,AAXX 24184 07535 32/// /3604 10260 20100 39845 40140 56011 91800 333 10284 20125=
07535,1999-07-25 00:00:00,17,1015.3,-0.2,63,10,0,3.704,,,110,,,,,,,,,,,wg-a,,,,AAXX 25004 07535 32/// /1102 10170 20100 39848 40153 58002 90000=
07535,1999-07-25 06:00:00,18,1015.1,0.7,59,10,25000,3.704,,,140,15.5,26.3,,,,,,,,,wg-a,,,,AAXX 25064 07535 32/75 01402 10180 20100 39847 40151 53007 80000 90600 333 10263 20155=
07535,1999-07-25 12:00:00,29,1013.1,-0.8,29,9,0,7.408,,,30,,,,,,,,,,,wg-a,,,,AAXX 25124 07535 32/// /0304 10290 20090 39839 40131 58008 91200=
07535,1999-07-25 18:00:00,29,1011.2,-0.6,31,10,0,7.408,,,10,17.9,31.9,,,,,,,,,wg-a,,,,AAXX 25184 07535 32/// /0104 10290 20100 39820 40112 56006 91800 333 10319 20179=
07535,1999-07-26 00:00:00,18,1012.8,-0.1,68,12,0,11.112,,,120,,,,,,,,,,,wg-a,,,,AAXX 26004 07535 32/// /1206 10180 20120 39825 40128 58001 90000=
07535,1999-07-26 06:00:00,20,1013.1,0.4,60,12,500,3.704,,,110,16.2,28.6,,,,,,,,,wg-a,,,,AAXX 26064 07535 12/00 21102 10200 20120 39830 40131 53004 60004 80001 90600 333 10286 20162=
07535,1999-07-26 12:00:00,32,1011.7,-0.8,29,12,35000,3.704,,,290,,,,,,,,,,,wg-a,,,,AAXX 26124 07535 32/81 02902 10320 20120 39828 40117 58008 80000 91200=
07535,1999-07-26 18:00:00,30,1009.6,-0.7,35,13,0,7.408,,,30,19.9,34.3,,,,,,,,,wg-a,,,,AAXX 26184 07535 32/// /0304 10300 20130 39806 40096 56007 91800 333 10343 20199=
07535,1999-07-27 00:00:00,21,1011.6,0.9,60,13,0,7.408,,,150,,,,,,,,,,,wg-a,,,,AAXX 27004 07535 32/// /1504 10210 20130 39817 40116 51009 90000=
07535,1999-07-27 06:00:00,24,1010.4,-0.3,50,13,20000,7.408,,,140,19.9,29.7,,,,,,,,,wg-a,,,,AAXX 27064 07535 12/70 61404 10240 20130 39808 40104 55003 60004 82082 90600 333 10297 20199=
07535,1999-07-27 12:00:00,25,1011.9,0.4,65,18,14000,11.112,,,190,,,,,,,,,,3,wg-a,,,,AAXX 27124 07535 32564 81906 10250 20180 39824 40119 53004 70398 8558/ 91200=
07535,1999-07-27 18:00:00,25,1011.5,0.2,65,18,0,11.112,,,350,20.1,28.4,,,,,,,,,wg-a,,,,AAXX 27184 07535 32/// /3506 10250 20180 39820 40115 53002 91800 333 10284 20201=
07535,1999-07-28 00:00:00,18,1014,0.3,88,16,0,3.704,,,210,,,,,,,,,,,wg-a,,,,AAXX 28004 07535 32/// /2102 10180 20160 39837 40140 53003 90000=
07535,1999-07-28 06:00:00,17,1015,0.9,100,17,7000,3.704,,,240,15.6,25,,,,,,,,,wg-a,,,,AAXX 28064 07535 12357 82402 10170 20170 39846 40150 53009 60004 8377/ 90600 333 10250 20156=
07535,1999-07-28 12:00:00,24,1014.7,-0.2,65,17,20000,3.704,,,340,,,,,,,,,,,wg-a,,,,AAXX 28124 07535 32570 73402 10240 20170 39850 40147 56002 8327/ 91200=
07535,1999-07-28 17:00:00,23.8,1014.4,0.1,67,17.3,,11.112,,,320,,,,,,,,,,,og-post,,,,AAXX 28174 07535 36/// /3206 10238 20173 39847 40144 53001=
07535,1999-07-28 18:00:00,23,1015.1,1,69,17,0,14.816,,,310,16.9,27.8,,,,,,,,,wg-a,,,,AAXX 28184 07535 32/// /3108 10230 20170 39853 40151 53010 91800 333 10278 20169=
07535,1999-07-29 00:00:00,16,1017.2,0.4,100,16,0,3.704,,,190,,,,,,,,,,,wg-a,,,,AAXX 29004 07535 32/// /1902 10160 20160 39866 40172 50004 90000=
07535,1999-07-29 06:00:00,18,1016.5,-0,100,18,1500,0,,,0,15.9,22.7,,,,,,,,28,wg-a,,,,AAXX 29064 07535 12215 80000 10180 20180 39862 40165 54000 60004 72842 876// 90600 333 10227 20159=
07535,1999-07-29 12:00:00,22,1016.7,-0.1,78,18,13000,7.408,,,10,,,,,,,,,,,wg-a,,,,AAXX 29124 07535 32463 70104 10220 20180 39868 40167 58001 878// 91200=
07535,1999-07-30 00:00:00,18,1016.1,-0.2,100,18,0,0,,,0,,,,,,,,,,,wg-a,,,,AAXX 30004 07535 32/// /0000 10180 20180 39858 40161 58002 90000=
07535,1999-07-30 06:00:00,19,1015.2,0.3,94,18,1000,0,,,0,16.3,21.2,,,,,,,,10,wg-a,,,,AAXX 30064 07535 12210 80000 10190 20180 39850 40152 53003 60004 71086 876// 90600 333 10212 20163=
07535,1999-07-30 12:00:00,26,1014.5,-0.6,65,19,8000,3.704,,,300,,,,,,,,,,,wg-a,,,,AAXX 30124 07535 32458 53002 10260 20190 39850 40145 58006 85800 91200=
07535,1999-07-30 18:00:00,24,1013,-0.1,69,18,0,3.704,,,310,18.5,30.1,,,,,,,,,wg-a,,,,AAXX 30184 07535 32/// /3102 10240 20180 39834 40130 55001 91800 333 10301 20185=
07535,1999-07-31 00:00:00,17,1013.8,-0.7,94,16,0,3.704,,,140,,,,,,,,,,,wg-a,,,,AAXX 31004 07535 32/// /1402 10170 20160 39834 40138 58007 90000=
07535,1999-07-31 06:00:00,16,1013.6,0.3,100,16,500,3.704,,,320,15.1,24,,,,,,,,,wg-a,,,,AAXX 31064 07535 12/00 53202 10160 20160 39832 40136 53003 60004 85030 90600 333 10240 20151=
07535,1999-07-31 12:00:00,28,1011.6,-0.9,42,14,0,3.704,,,300,,,,,,,,,,,wg-a,,,,AAXX 31124 07535 32/// /3002 10280 20140 39823 40116 58009 91200=
07535,1999-07-31 18:00:00,21,1011.8,0.6,73,16,0,3.704,,,260,16.2,32,,,,,,,,,wg-a,,,,AAXX 31184 07535 32/// /2602 10210 20160 39819 40118 53006 91800 333 10320 20162=
07535,1999-08-01 00:00:00,16,1015.1,0.5,94,15,0,3.704,,,300,,,,,,,,,,,wg-a,,,,AAXX 01004 07535 32/// /3002 10160 20150 39845 40151 50005 90000=
07535,1999-08-01 06:00:00,15,1016.1,0.9,100,15,15000,7.408,,,150,12.9,20.8,,,,,1,,,2,wg-a,,,,AAXX 01064 07535 12/65 21504 10150 20150 39854 40161 53009 60014 70286 82030 90600 333 10208 20129=
07535,1999-08-01 12:00:00,27,1013.8,-1,48,15,0,3.704,,,20,,,,,,,,,,,wg-a,,,,AAXX 01124 07535 32/// /0202 10270 20150 39844 40138 58010 91200=
07535,1999-08-01 18:00:00,27,1012.2,-0.6,48,15,0,7.408,,,320,14.9,30.7,,,,,,,,,wg-a,,,,AAXX 01184 07535 32/// /3204 10270 20150 39829 40122 55006 91800 333 10307 20149=
07535,1999-08-02 00:00:00,17,1014.1,-0.2,88,15,0,7.408,,,140,,,,,,,,,,,wg-a,,,,AAXX 02004 07535 32/// /1404 10170 20150 39837 40141 58002 90000=
07535,1999-08-02 06:00:00,18,1014.1,0.4,83,15,15000,7.408,,,140,15.6,27.4,,,,,,,,,wg-a,,,,AAXX 02064 07535 12/65 11404 10180 20150 39838 40141 52004 60004 81032 90600 333 10274 20156=
07535,1999-08-02 12:00:00,33,1010.2,-1.6,34,15,18000,7.408,,,200,,,,,,,,,,,wg-a,,,,AAXX 02124 07535 32568 62004 10330 20150 39815 40102 58016 81182 91200=
07535,1999-08-02 18:00:00,18,1012.9,0.8,94,17,0,7.408,,,340,17.7,33.3,,,,,,,,,wg-a,,,,AAXX 02184 07535 32/// /3404 10180 20170 39827 40129 50008 91800 333 10333 20177=
07535,1999-08-03 00:00:00,17,1015.1,0.1,100,17,0,3.704,,,200,,,,,,,,,,,wg-a,,,,AAXX 03004 07535 32/// /2002 10170 20170 39847 40151 51001 90000=
07535,1999-08-03 06:00:00,17,1014.9,0.3,100,17,1200,0,,,0,16.9,17.9,,,,,9,,,10,wg-a,,,,AAXX 03064 07535 12212 70000 10170 20170 39846 40149 53003 60094 71022 81532 90600 333 10179 20169=
07535,1999-08-03 12:00:00,26,1012.4,-1.5,51,15,20000,7.408,,,60,,,,,,,,,,3,wg-a,,,,AAXX 03124 07535 32570 60604 10260 20150 39829 40124 58015 70342 83102 91200=
07535,1999-08-03 18:00:00,25,1010.2,-0.9,65,18,0,7.408,,,330,17.4,27.1,,,,,,,,,wg-a,,,,AAXX 03184 07535 32/// /3304 10250 20180 39808 40102 55009 91800 333 10271 20174=
07535,1999-08-04 00:00:00,21,1010.3,-0.7,73,16,0,11.112,,,160,,,,,,,,,,,wg-a,,,,AAXX 04004 07535 32/// /1606 10210 20160 39804 40103 55007 90000=
07535,1999-08-04 06:00:00,21,1008,-0.5,83,18,18000,7.408,,,130,19.1,25.1,,,,,,,,,wg-a,,,,AAXX 04064 07535 12768 21304 10210 20180 39782 40080 56005 60004 825/0 90600 333 10251 20191=
07535,1999-08-04 18:00:00,25,1008.3,0.9,74,20,0,3.704,,,340,21,32.2,,,,,,,,,wg-a,,,,AAXX 04184 07535 32/// /3402 10250 20200 39789 40083 53009 91800 333 10322 20210=
07535,1999-08-05 00:00:00,21,1011.9,0.6,100,21,0,3.704,,,160,,,,,,,,,,,wg-a,,,,AAXX 05004 07535 32/// /1602 10210 20210 39820 40119 51006 90000=
07535,1999-08-05 06:00:00,19,1013.6,1,100,19,2000,3.704,,,340,18.8,24.9,,2,,,7,,,25,wg-a,,,,AAXX 05064 07535 02320 73402 10190 20190 39835 40136 53010 60074 72586 878// 90600 333 10249 20188 60027=
07535,1999-08-05 12:00:00,23,1013.1,-0.3,83,20,10000,3.704,,,330,,,,1,,,,,,3,wg-a,,,,AAXX 05124 07535 12460 73302 10230 20200 39835 40131 58003 60017 70386 878// 91200=
07535,1999-08-05 18:00:00,26,1010.8,-0.9,65,19,0,3.704,,,340,18.9,27.8,,,,,,,,,wg-a,,,,AAXX 05184 07535 32/// /3402 10260 20190 39815 40108 56009 91800 333 10278 20189=
07535,1999-08-06 00:00:00,20,1011,-0.8,94,19,0,7.408,,,110,,,,,,,,,,,wg-a,,,,AAXX 06004 07535 32/// /1104 10200 20190 39811 40110 58008 90000=
07535,1999-08-06 06:00:00,18,1009.1,-1.1,88,16,25000,14.816,,,130,17.2,26,,17,,,20,,,1,wg-a,,,,AAXX 06064 07535 02475 61308 10180 20160 39790 40091 58011 60204 70198 84103 90600 333 10260 20172 60177=
07535,1999-08-06 12:00:00,30,1004.4,-2.7,59,21,20000,25.928,,,170,,,,,,,,,,,wg-a,,,,AAXX 06124 07535 32470 41714 10300 20210 39756 40044 58027 81903 91200=
07535,1999-08-06 18:00:00,18,1009.9,1.7,94,17,0,18.52,,,170,17.6,30.4,,,,,,,,,wg-a,,,,AAXX 06184 07535 32/// /1710 10180 20170 39797 40099 51017 91800 333 10304 20176=
07535,1999-08-07 00:00:00,17,1011.4,-0.2,100,17,0,11.112,,,190,,,,,,,,,,,wg-a,,,,AAXX 07004 07535 32/// /1906 10170 20170 39811 40114 58002 90000=
07535,1999-08-07 06:00:00,17,1009.5,-0.9,94,16,10000,7.408,,,120,16.1,17.7,,0,,,37,,,80,wg-a,,,,AAXX 07064 07535 02560 71204 10170 20160 39793 40095 56009 60374 78086 878// 90600 333 10177 20161 60007=
07535,1999-08-07 12:00:00,28,1004.5,-2.3,48,16,0,3.704,,,140,,,,,,,,,,,wg-a,,,,AAXX 07124 07535 32/// /1402 10280 20160 39755 40045 58023 91200=
07535,1999-08-07 18:00:00,26,999.8,-2.5,79,22,0,3.704,,,160,16.9,29.6,,,,,,,,,wg-a,,,,AAXX 07184 07535 32/// /1602 10260 20220 39708 49998 58025 91800 333 10296 20169=
07535,1999-08-08 00:00:00,17,1002.3,-0.5,100,17,0,7.408,,,160,,,,,,,,,,,wg-a,,,,AAXX 08004 07535 32/// /1604 10170 20170 39723 40023 55005 90000=
07535,1999-08-08 06:00:00,18,1003.5,1.2,94,17,500,7.408,,,170,16.8,25.7,,,,,15,,,,wg-a,,,,AAXX 08064 07535 12600 61704 10180 20170 39735 40035 53012 60154 86500 90600 333 10257 20168=
07535,1999-08-08 12:00:00,27,1003.7,0,45,14,0,7.408,,,260,,,,,,,,,,,wg-a,,,,AAXX 08124 07535 32/// /2604 10270 20140 39746 40037 50000 91200=
07535,1999-08-08 18:00:00,23,1003.5,-0.2,73,18,0,3.704,,,140,17.8,27.8,,,,,,,,,wg-a,,,,AAXX 08184 07535 32/// /1402 10230 20180 39741 40035 57002 91800 333 10278 20178=
07535,1999-08-09 00:00:00,19,1004.4,-0.1,68,13,0,11.112,,,130,,,,,,,,,,,wg-a,,,,AAXX 09004 07535 32/// /1306 10190 20130 39745 40044 58001 90000=
07535,1999-08-09 06:00:00,18,1006,0.5,83,15,25000,7.408,,,130,16.4,23.2,,,,,,,,,wg-a,,,,AAXX 09064 07535 12775 41304 10180 20150 39760 40060 53005 60004 81501 90600 333 10232 20164=
07535,1999-08-09 12:00:00,28,1006.1,0.6,42,14,500,7.408,,,300,,,,,,,,,,,wg-a,,,,AAXX 09124 07535 32500 53004 10280 20140 39771 40061 51006 84202 91200=
07535,1999-08-09 18:00:00,24,1008.7,1.6,54,14,0,7.408,,,290,18.1,29.5,,,,,,,,,wg-a,,,,AAXX 09184 07535 32/// /2904 10240 20140 39792 40087 51016 91800 333 10295 20181=
07535,1999-08-10 00:00:00,16,1013.6,1.3,88,14,0,3.704,,,250,,,,,,,,,,,wg-a,,,,AAXX 10004 07535 32/// /2502 10160 20140 39831 40136 51013 90000=
07535,1999-08-10 06:00:00,16,1015.6,1.1,94,15,10000,7.408,,,200,15.7,24,,,,,,,,,wg-a,,,,AAXX 10064 07535 12560 62004 10160 20150 39851 40156 53011 60004 84802 90600 333 10240 20157=
07535,1999-08-10 12:00:00,22,1016,0.1,83,19,18000,7.408,,,260,,,,2,,,,,,25,wg-a,,,,AAXX 10124 07535 12568 72604 10220 20190 39861 40160 52001 60027 72586 878// 91200=
07535,1999-08-10 18:00:00,21,1018.2,0.9,69,15,0,11.112,,,290,16.4,26.7,,,,,,,,,wg-a,,,,AAXX 10184 07535 32/// /2906 10210 20150 39881 40182 53009 91800 333 10267 20164=
07535,1999-08-11 00:00:00,14,1021.9,0.7,94,13,0,0,,,0,,,,,,,,,,,wg-a,,,,AAXX 11004 07535 32/// /0000 10140 20130 39910 40219 51007 90000=
07535,1999-08-11 06:00:00,13,1022.8,0.6,94,12,7000,3.704,,,170,11,21.1,,,,,4,,,,wg-a,,,,AAXX 11064 07535 12757 11702 10130 20120 39916 40228 53006 60044 815/1 90600 333 10211 20110=
07535,1999-08-11 12:00:00,21,1021.7,-0.6,64,14,25000,7.408,,,330,,,,,,,,,,,wg-a,,,,AAXX 11124 07535 32475 73304 10210 20140 39914 40217 58006 83101 91200=
07535,1999-08-11 18:00:00,20,1019.3,-1,64,13,0,3.704,,,30,12.5,22,,,,,,,,,wg-a,,,,AAXX 11184 07535 32/// /0302 10200 20130 39890 40193 56010 91800 333 10220 20125=
07535,1999-08-12 00:00:00,14,1019.3,-0.6,94,13,0,7.408,,,150,,,,,,,,,,,wg-a,,,,AAXX 12004 07535 32/// /1504 10140 20130 39884 40193 58006 90000=
07535,1999-08-12 06:00:00,15,1018.4,0.3,94,14,15000,3.704,,,90,13.5,19.7,,,,,,,,,wg-a,,,,AAXX 12064 07535 12465 70902 10150 20140 39876 40184 50003 60004 8387/ 90600 333 10197 20135=
07535,1999-08-12 12:00:00,21,1017.3,-0.8,60,13,35000,7.408,,,310,,,,,,,,,,,wg-a,,,,AAXX 12124 07535 32581 53104 10210 20130 39872 40173 58008 85230 91200=
07535,1999-08-12 18:00:00,20,1017.2,0.3,73,15,0,7.408,,,320,14.6,25.3,,,,,,,,,wg-a,,,,AAXX 12184 07535 32/// /3204 10200 20150 39870 40172 53003 91800 333 10253 20146=
07535,1999-08-13 00:00:00,14,1018.7,-0.6,94,13,0,0,,,0,,,,,,,,,,,wg-a,,,,AAXX 13004 07535 32/// /0000 10140 20130 39878 40187 56006 90000=
07535,1999-08-13 06:00:00,12,1018.6,0.4,100,12,10000,3.704,,,140,10.9,19.8,,,,,,,,,wg-a,,,,AAXX 13064 07535 12/60 51402 10120 20120 39876 40186 53004 60004 80001 90600 333 10198 20109=
07535,1999-08-13 12:00:00,23,1016.7,-0.8,57,14,25000,7.408,,,330,,,,,,,,,,,wg-a,,,,AAXX 13124 07535 32675 53304 10230 20140 39868 40167 58008 85200 91200=
07535,1999-08-13 18:00:00,22,1014.9,-0.8,60,14,0,3.704,,,300,12.4,25.6,,,,,,,,,wg-a,,,,AAXX 13184 07535 32/// /3002 10220 20140 39850 40149 57008 91800 333 10256 20124=
07535,1999-08-14 00:00:00,13,1015.6,-0.8,100,13,0,11.112,,,140,,,,,,,,,,,wg-a,,,,AAXX 14004 07535 32/// /1406 10130 20130 39848 40156 58008 90000=
07535,1999-08-14 06:00:00,13,1015.2,0.2,94,12,12000,7.408,,,160,12.2,22.1,,,,,,,,,wg-a,,,,AAXX 14064 07535 12/62 41604 10130 20120 39843 40152 53002 60004 80002 90600 333 10221 20122=
07535,1999-08-14 12:00:00,24,1013.7,-1.1,61,16,0,11.112,,,260,,,,,,,,,,,wg-a,,,,AAXX 14124 07535 32/// /2606 10240 20160 39840 40137 57011 91200=
07535,1999-08-14 18:00:00,22,1012.7,-0.2,65,15,0,7.408,,,280,13,25.9,,,,,,,,,wg-a,,,,AAXX 14184 07535 32/// /2804 10220 20150 39829 40127 55002 91800 333 10259 20130=
07535,1999-08-15 00:00:00,18,1013.5,-0.3,100,18,0,7.408,,,240,,,,,,,,,,,wg-a,,,,AAXX 15004 07535 32/// /2404 10180 20180 39833 40135 58003 90000=
07535,1999-08-15 06:00:00,16,1015.4,0.7,94,15,10000,0,,,0,14.5,22,,,,,1,,,2,wg-a,,,,AAXX 15064 07535 12260 30000 10160 20150 39848 40154 53007 60014 70261 83100 90600 333 10220 20145=
07535,1999-08-15 12:00:00,21,1014.5,-0.6,60,13,0,7.408,,,30,,,,,,,,,,,wg-a,,,,AAXX 15124 07535 32/// /0304 10210 20130 39845 40145 58006 91200=
07535,1999-08-15 18:00:00,22,1012.4,-1.2,60,14,0,3.704,,,10,15.6,24.5,,,,,,,,,wg-a,,,,AAXX 15184 07535 32/// /0102 10220 20140 39825 40124 56012 91800 333 10245 20156=
07535,1999-08-16 00:00:00,16,1011.9,-1.1,88,14,0,0,,,0,,,,,,,,,,,wg-a,,,,AAXX 16004 07535 32/// /0000 10160 20140 39814 40119 57011 90000=
07535,1999-08-16 06:00:00,16,1010.2,-0,94,15,6000,7.408,,,120,14.7,21.7,,,,,,,,95,wg-a,,,,AAXX 16064 07535 02156 71204 10160 20150 39798 40102 54000 61000 79598 879// 90600 333 10217 20147 6005=
07535,1999-08-16 12:00:00,23,1010,-0.1,78,19,15000,3.704,,,260,,,,1,,,,,,3,wg-a,,,,AAXX 16124 07535 12565 62602 10230 20190 39804 40100 55001 60017 70398 85830 91200=
07535,1999-08-16 18:00:00,22,1010.5,0.4,69,16,0,7.408,,,290,15.3,26.4,,,,,,,,,wg-a,,,,AAXX 16184 07535 32/// /2904 10220 20160 39807 40105 53004 91800 333 10264 20153=
07535,1999-08-17 00:00:00,17,1012.8,0.3,88,15,0,3.704,,,290,,,,,,,,,,,wg-a,,,,AAXX 17004 07535 32/// /2902 10170 20150 39825 40128 50003 90000=
07535,1999-08-17 06:00:00,15,1012.8,0.4,94,14,15000,3.704,,,160,14.3,21.7,,,,,,,,,wg-a,,,,AAXX 17064 07535 12565 71602 10150 20140 39822 40128 51004 60004 8657/ 90600 333 10217 20143=
07535,1999-08-17 12:00:00,21,1012.1,-0.4,69,15,35000,7.408,,,310,,,,,,,,,,,wg-a,,,,AAXX 17124 07535 32581 73104 10210 20150 39822 40121 56004 878// 91200=
07535,1999-08-17 18:00:00,20,1010.4,-0.7,73,15,0,0,,,0,14.6,23.4,,,,,,,,,wg-a,,,,AAXX 17184 07535 32/// /0000 10200 20150 39805 40104 56007 91800 333 10234 20146=
07535,1999-08-18 00:00:00,16,1009.9,-0.5,88,14,0,7.408,,,200,,,,,,,,,,,wg-a,,,,AAXX 18004 07535 32/// /2004 10160 20140 39795 40099 58005 90000=
07535,1999-08-18 06:00:00,16,1009.8,0.8,94,15,15000,3.704,,,160,14.5,20.4,,,,,,,,,wg-a,,,,AAXX 18064 07535 12665 71602 10160 20150 39794 40098 53008 60004 875// 90600 333 10204 20145=
07535,1999-08-18 12:00:00,24,1009.9,0.4,57,15,20000,11.112,,,260,,,,,,,,,,,wg-a,,,,AAXX 18124 07535 32670 72606 10240 20150 39803 40099 53004 878// 91200=
07535,1999-08-18 18:00:00,20,1012.7,1.2,64,13,0,11.112,,,270,15.7,25.6,,,,,,,,,wg-a,,,,AAXX 18184 07535 32/// /2706 10200 20130 39827 40127 53012 91800 333 10256 20157=
07535,1999-08-19 00:00:00,15,1016.1,0.6,94,14,0,3.704,,,170,,,,,,,,,,,wg-a,,,,AAXX 19004 07535 32/// /1702 10150 20140 39854 40161 53006 90000=
07535,1999-08-19 06:00:00,14,1017,-0,94,13,15000,7.408,,,140,13,20.3,,,,,2,,,,wg-a,,,,AAXX 19064 07535 12/65 61404 10140 20130 39862 40170 55000 60024 83032 90600 333 10203 20130=
07535,1999-08-19 12:00:00,20,1017.4,0.1,64,13,20000,3.704,,,90,,,,,,,,,,,wg-a,,,,AAXX 19124 07535 32670 70902 10200 20130 39872 40174 53001 83832 91200=
07535,1999-08-19 18:00:00,19,1016.3,-0.7,73,14,0,7.408,,,10,13.7,21,,,,,,,,,wg-a,,,,AAXX 19184 07535 32/// /0104 10190 20140 39860 40163 58007 91800 333 10210 20137=
07535,1999-08-20 00:00:00,17,1018.4,0.2,82,14,0,7.408,,,340,,,,,,,,,,,wg-a,,,,AAXX 20004 07535 32/// /3404 10170 20140 39879 40184 51002 90000=
07535,1999-08-20 06:00:00,15,1018.8,0.5,88,13,15000,3.704,,,340,14.3,18.9,,,,,,,,,wg-a,,,,AAXX 20064 07535 12765 73402 10150 20130 39880 40188 53005 60004 84530 90600 333 10189 20143=
07535,1999-08-20 12:00:00,22,1018.8,-0.4,57,13,25000,11.112,,,360,,,,,,,,,,,wg-a,,,,AAXX 20124 07535 32675 23606 10220 20130 39887 40188 58004 82100 91200=
07535,1999-08-20 18:00:00,22,1017.8,-0.4,50,11,0,3.704,,,310,14.8,25.1,,,,,,,,,wg-a,,,,AAXX 20184 07535 32/// /3102 10220 20110 39878 40178 56004 91800 333 10251 20148=
07535,1999-08-21 00:00:00,12,1019.5,-0.2,94,11,0,7.408,,,150,,,,,,,,,,,wg-a,,,,AAXX 21004 07535 32/// /1504 10120 20110 39884 40195 56002 90000=
07535,1999-08-21 06:00:00,12,1018.9,0.1,100,12,20000,0,,,0,10.8,21.9,,,,,,,,,wg-a,,,,AAXX 21064 07535 32/70 00000 10120 20120 39878 40189 53001 80000 90600 333 10219 20108=
07535,1999-08-21 12:00:00,25,1017,-0.9,50,14,0,7.408,,,340,,,,,,,,,,,wg-a,,,,AAXX 21124 07535 32/// /3404 10250 20140 39873 40170 57009 91200=
07535,1999-08-21 18:00:00,24,1015.6,-0.4,47,12,0,3.704,,,330,12.1,26.6,,,,,,,,,wg-a,,,,AAXX 21184 07535 32/// /3302 10240 20120 39858 40156 55004 91800 333 10266 20121=
07535,1999-08-22 00:00:00,13,1017,-0.4,88,11,0,3.704,,,150,,,,,,,,,,,wg-a,,,,AAXX 22004 07535 32/// /1502 10130 20110 39861 40170 58004 90000=
07535,1999-08-22 06:00:00,13,1016.8,0.3,82,10,20000,7.408,,,130,10.7,23.5,,,,,,,,,wg-a,,,,AAXX 22064 07535 32/70 01304 10130 20100 39858 40168 52003 80000 90600 333 10235 20107=
07535,1999-08-22 12:00:00,26,1014.9,-0.6,51,15,0,7.408,,,340,,,,,,,,,,,wg-a,,,,AAXX 22124 07535 32/// /3404 10260 20150 39854 40149 57006 91200=
07535,1999-08-22 18:00:00,25,1014.1,-0.2,41,11,0,3.704,,,290,12.8,29.4,,,,,,,,,wg-a,,,,AAXX 22184 07535 32/// /2902 10250 20110 39845 40141 56002 91800 333 10294 20128=
07535,1999-08-23 00:00:00,15,1016.5,0.3,88,13,0,7.408,,,140,,,,,,,,,,,wg-a,,,,AAXX 23004 07535 32/// /1404 10150 20130 39858 40165 51003 90000=
07535,1999-08-23 06:00:00,15,1017.1,0.6,94,14,15000,3.704,,,150,14,25.2,,,,,,,,,wg-a,,,,AAXX 23064 07535 12/65 71502 10150 20140 39864 40171 53006 60004 84032 90600 333 10252 20140=
07535,1999-08-23 12:00:00,26,1016.1,-0.4,45,13,20000,3.704,,,300,,,,,,,,,,,wg-a,,,,AAXX 23124 07535 32770 63002 10260 20130 39865 40161 56004 82532 91200=
07535,1999-08-23 18:00:00,25,1014.3,-0.5,61,17,0,7.408,,,360,14.7,27.7,,,,,,,,,wg-a,,,,AAXX 23184 07535 32/// /3604 10250 20170 39847 40143 56005 91800 333 10277 20147=
07535,1999-08-24 00:00:00,18,1015.3,-0.5,88,16,0,3.704,,,20,,,,,,,,,,,wg-a,,,,AAXX 24004 07535 32/// /0202 10180 20160 39850 40153 56005 90000=
07535,1999-08-24 06:00:00,17,1014.2,-0.3,94,16,8000,7.408,,,140,15.3,24.9,,,,,,,,,wg-a,,,,AAXX 24064 07535 32/58 01404 10170 20160 39839 40142 55003 80000 90600 333 10249 20153=
07535,1999-08-24 12:00:00,32,1012.2,-0.7,43,18,25000,3.704,,,170,,,,,,,,,,,wg-a,,,,AAXX 24124 07535 32/75 01702 10320 20180 39834 40122 56007 80000 91200=
07535,1999-08-24 18:00:00,30,1011.2,0.3,59,21,0,3.704,,,260,17.4,35.3,,,,,,,,,wg-a,,,,AAXX 24184 07535 32/// /2602 10300 20210 39823 40112 51003 91800 333 10353 20174=
07535,1999-08-25 00:00:00,23,1012.6,-0.4,78,19,0,11.112,,,130,,,,,,,,,,,wg-a,,,,AAXX 25004 07535 32/// /1306 10230 20190 39829 40126 58004 90000=
07535,1999-08-25 06:00:00,24,1012.2,-0.5,61,16,15000,18.52,,,140,20.4,29.9,,,,,,,,3,wg-a,,,,AAXX 25064 07535 02565 61410 10240 20160 39825 40122 55005 61000 70362 84582 90600 333 10299 20204 6100=
07535,1999-08-25 12:00:00,34,1010.7,-0,44,20,25000,11.112,,,190,,,,,,,,,,,wg-a,,,,AAXX 25124 07535 32575 31906 10340 20200 39821 40107 55000 81182 91200=
07535,1999-08-25 18:00:00,26,1013.2,0.1,70,20,0,11.112,,,290,23.6,34.5,,,,,,,,,wg-a,,,,AAXX 25184 07535 32/// /2906 10260 20200 39839 40132 53001 91800 333 10345 20236=
07535,1999-08-26 00:00:00,23,1013.3,-0.8,83,20,0,3.704,,,150,,,,,,,,,,,wg-a,,,,AAXX 26004 07535 32/// /1502 10230 20200 39836 40133 56008 90000=
07535,1999-08-26 06:00:00,20,1015.4,1.7,88,18,15000,7.408,,,180,19.5,26.4,,,,,1,,,1,wg-a,,,,AAXX 26064 07535 12565 81804 10200 20180 39853 40154 53017 60014 70162 83532 90600 333 10264 20195=
07535,1999-08-26 12:00:00,25,1016.1,-0.1,74,20,13000,7.408,,,350,,,,,,,,,,,wg-a,,,,AAXX 26124 07535 32463 73504 10250 20200 39866 40161 58001 87800 91200=
07535,1999-08-27 00:00:00,18,1018.8,0.3,100,18,0,3.704,,,150,,,,,,,,,,,wg-a,,,,AAXX 27004 07535 32/// /1502 10180 20180 39884 40188 52003 90000=
07535,1999-08-27 06:00:00,18,1018.5,0.1,100,18,100,3.704,,,100,17.2,22.7,,,,,,,,45,wg-a,,,,AAXX 27064 07535 32/01 91002 10180 20180 39881 40185 53001 74586 89/// 90600 333 10227 20172=
07535,1999-08-27 12:00:00,26,1017.8,-0.5,65,19,10000,7.408,,,330,,,,,,,,,,1,wg-a,,,,AAXX 27124 07535 32660 33304 10260 20190 39883 40178 58005 70141 81131 91200=
07535,1999-08-27 18:00:00,25,1017.2,0.3,65,18,0,7.408,,,340,17.8,28.1,,,,,,,,,wg-a,,,,AAXX 27184 07535 32/// /3404 10250 20180 39876 40172 53003 91800 333 10281 20178=
07535,1999-08-28 00:00:00,17,1019.7,0.3,94,16,0,0,,,0,,,,,,,,,,,wg-a,,,,AAXX 28004 07535 32/// /0000 10170 20160 39892 40197 52003 90000=
07535,1999-08-28 06:00:00,16,1020.3,0.6,100,16,3800,3.704,,,200,16,25,,,,,,,,10,wg-a,,,,AAXX 28064 07535 12738 32002 10160 20160 39896 40203 53006 60004 71011 82530 90600 333 10250 20160=
07535,1999-08-28 12:00:00,25,1018.8,-0.3,69,19,0,3.704,,,310,,,,,,,,,,,wg-a,,,,AAXX 28124 07535 32/// /3102 10250 20190 39892 40188 58003 91200=
07535,1999-08-28 18:00:00,24,1017.5,-0.2,69,18,0,7.408,,,210,16.1,26.4,,,,,,,,,wg-a,,,,AAXX 28184 07535 32/// /2104 10240 20180 39877 40175 56002 91800 333 10264 20161=
07535,1999-08-29 00:00:00,17,1018.4,-0.5,94,16,0,3.704,,,180,,,,,,,,,,,wg-a,,,,AAXX 29004 07535 32/// /1802 10170 20160 39879 40184 58005 90000=
07535,1999-08-29 06:00:00,16,1018.2,-0.2,100,16,3000,3.704,,,140,14.9,23.7,,,,,,,,10,wg-a,,,,AAXX 29064 07535 12130 31402 10160 20160 39876 40182 55002 60004 71000 81601 90600 333 10237 20149=
07535,1999-08-29 12:00:00,23,1017.6,-0.2,73,18,0,7.408,,,20,,,,,,,,,,,wg-a,,,,AAXX 29124 07535 32/// /0204 10230 20180 39878 40176 58002 91200=
07535,1999-08-29 18:00:00,24,1016.5,0.1,54,14,0,7.408,,,320,15.9,26.8,,,,,,,,,wg-a,,,,AAXX 29184 07535 32/// /3204 10240 20140 39867 40165 53001 91800 333 10268 20159=
07535,1999-08-30 00:00:00,14,1018.5,-0.2,94,13,0,3.704,,,150,,,,,,,,,,,wg-a,,,,AAXX 30004 07535 32/// /1502 10140 20130 39877 40185 58002 90000=
07535,1999-08-30 06:00:00,13,1018.2,0.1,94,12,7000,0,,,0,12.4,23.8,,,,,,,,,wg-a,,,,AAXX 30064 07535 12/57 60000 10130 20120 39872 40182 53001 60004 80001 90600 333 10238 20124=
07535,1999-08-30 12:00:00,24,1016.8,-1,50,13,15000,7.408,,,340,,,,,,,,,,,wg-a,,,,AAXX 30124 07535 32/65 63404 10240 20130 39870 40168 58010 80002 91200=
07535,1999-08-30 18:00:00,22,1015.6,-0,57,13,0,7.408,,,330,12.9,26.5,,,,,,,,,wg-a,,,,AAXX 30184 07535 32/// /3304 10220 20130 39857 40156 55000 91800 333 10265 20129=
07535,1999-08-31 00:00:00,13,1017.4,-0.2,100,13,0,3.704,,,140,,,,,,,,,,,wg-a,,,,AAXX 31004 07535 32/// /1402 10130 20130 39865 40174 58002 90000=
07535,1999-08-31 06:00:00,12,1017.5,0.4,100,12,10000,7.408,,,140,10.8,22.4,,,,,,,,,wg-a,,,,AAXX 31064 07535 32/60 01404 10120 20120 39864 40175 53004 80000 90600 333 10224 20108=
07535,1999-08-31 12:00:00,26,1016.6,-0.3,54,16,25000,3.704,,,10,,,,,,,,,,,wg-a,,,,AAXX 31124 07535 32675 10102 10260 20160 39870 40166 58003 81100 91200=
07535,1999-08-31 18:00:00,24,1015.6,-0.1,54,14,0,3.704,,,350,11.8,27.7,,,,,,,,,wg-a,,,,AAXX 31184 07535 32/// /3502 10240 20140 39859 40156 55001 91800 333 10277 20118=
07535,1999-09-01 00:00:00,12.8,1017.2,1.3,95,12,,4,,,270,,,,,,,,,,,,,,,
07535,1999-09-01 01:00:00,12.2,1017.5,1,96,11.6,,4,,,270,,,,,,,,,,,,,,,
07535,1999-09-01 02:00:00,12.3,1017.8,1,97,11.8,,2,,,270,,,,,,,,,,,,,,,
07535,1999-09-01 03:00:00,12.2,1017.7,0.5,95,11.4,,2,,,240,,,,,,,,,,,,,,,
07535,1999-09-01 04:00:00,11.8,1017.9,0.3,98,11.5,,4,,,220,,,,,,,,,,,,,,6,
07535,1999-09-01 05:00:00,12.3,1017.8,-0,98,12,,4,,,240,,,,,,,,,,,,,,7,
07535,1999-09-01 06:00:00,12.4,1018.2,0.5,98,12.1,7408,2,,,260,11.7,14.5,,,,,13.4,,9,,,,,7,
07535,1999-09-01 07:00:00,12.6,1018.9,1.1,99,12.4,7408,2,,,220,,,,,,,,,,,,,,7,
07535,1999-09-01 08:00:00,13.5,1019.1,1.4,98,13.2,,2,,,240,,,0.2,,,,,,,25,,,,7,
07535,1999-09-01 09:00:00,14.3,1019.8,1.7,92,13,7408,6,,,280,,,,0.4,,,,,,80,,,,7,
07535,1999-09-01 10:00:00,15.7,1019.5,0.9,88,13.7,9260,2,,,260,,,,,,,,,,25,,,,7,
07535,1999-09-01 11:00:00,16.8,1019,0.2,74,12.1,14816,6,,,270,,,,,,,,,,,,,,7,
07535,1999-09-01 12:00:00,18.3,1018,-1.3,72,13.2,,4,,,280,,,,,,,,,,1,,,,7,
07535,1999-09-01 13:00:00,18.1,1017.1,-2.1,68,12.1,24076,6,,,270,,,,,,,,,,,,,,7,
07535,1999-09-01 14:00:00,18.5,1016.7,-2,68,12.5,24076,2,,,250,,,,,,,,,,,,,,7,
07535,1999-09-01 15:00:00,18.1,1016.5,-1.5,71,12.8,24076,2,,,250,,,,,,,,,,,,,,7,
07535,1999-09-01 16:00:00,16.3,1016.2,-1,80,12.8,,2,,,270,,,,,,,,,,,,,,,
07535,1999-09-01 17:00:00,15.9,1016.4,-0.6,81,12.6,,2,,,210,,,,,,,,,,,,,,,
07535,1999-09-01 18:00:00,15.2,1016.4,-0.4,85,12.7,,2,,,280,12.4,18.7,,,,,,,,,,,,,
07535,1999-09-01 20:00:00,14,1016.6,-0,95,13.2,,2,,,170,,,,,,,,,,,,,,,
07535,1999-09-02 00:00:00,16,1017.8,-0.3,88,14,0,7.408,,,130,,,,,,,,,,,wg-a,,,,AAXX 02004 07535 32/// /1304 10160 20140 39872 40178 57003 90000=
07535,1999-09-02 06:00:00,15,1017,-0.1,88,13,7000,3.704,,,40,14.4,24.8,,,,,,,,,wg-a,,,,AAXX 02064 07535 32/57 00402 10150 20130 39863 40170 55001 80000 90600 333 10248 20144=
07535,1999-09-02 12:00:00,28,1015,-0.9,40,13,25000,7.408,,,20,,,,,,,,,,,wg-a,,,,AAXX 02124 07535 32/75 00204 10280 20130 39856 40150 58009 80000 91200=
07535,1999-09-02 18:00:00,27,1011.9,-1.1,37,11,0,0,,,0,15.2,30.6,,,,,,,,,wg-a,,,,AAXX 02184 07535 32/// /0000 10270 20110 39825 40119 56011 91800 333 10306 20152=
07535,1999-09-03 00:00:00,17,1011.8,-0.7,77,13,0,0,,,0,,,,,,,,,,,wg-a,,,,AAXX 03004 07535 32/// /0000 10170 20130 39815 40118 56007 90000=
07535,1999-09-03 06:00:00,13,1010.4,-0.4,94,12,2000,7.408,,,120,12.5,26.8,,,,,,,,,wg-a,,,,AAXX 03064 07535 12/20 41204 10130 20120 39797 40104 55004 60004 83031 90600 333 10268 20125=
07535,1999-09-03 12:00:00,24,1010.3,0.2,54,14,25000,3.704,,,350,,,,,,,,,,,wg-a,,,,AAXX 03124 07535 32/75 63502 10240 20140 39807 40103 53002 80002 91200=
07535,1999-09-03 18:00:00,21,1011.9,1.3,60,13,0,3.704,,,200,12.8,25.5,,,,,,,,,wg-a,,,,AAXX 03184 07535 32/// /2002 10210 20130 39819 40119 52013 91800 333 10255 20128=
07535,1999-09-04 00:00:00,15,1015.3,0.2,77,11,0,11.112,,,140,,,,,,,,,,,wg-a,,,,AAXX 04004 07535 32/// /1406 10150 20110 39847 40153 50002 90000=
07535,1999-09-04 06:00:00,15,1016.1,0.7,82,12,15000,7.408,,,140,13.5,20.5,,,,,,,,,wg-a,,,,AAXX 04064 07535 12665 71404 10150 20120 39854 40161 53007 60004 875// 90600 333 10205 20135=
07535,1999-09-04 12:00:00,25,1014.8,-1,54,15,0,3.704,,,210,,,,,,,,,,,wg-a,,,,AAXX 04124 07535 32/// /2102 10250 20150 39851 40148 58010 91200=
07535,1999-09-04 18:00:00,23,1013.8,-0.1,53,13,0,3.704,,,310,14.8,28.4,,,,,,,,,wg-a,,,,AAXX 04184 07535 32/// /3102 10230 20130 39840 40138 55001 91800 333 10284 20148=
07535,1999-09-05 00:00:00,16,1015.2,-0.1,82,13,0,11.112,,,160,,,,,,,,,,,wg-a,,,,AAXX 05004 07535 32/// /1606 10160 20130 39846 40152 56001 90000=
07535,1999-09-05 06:00:00,16,1014.4,0.4,82,13,18000,14.816,,,140,14.6,23.1,,,,,,,,,wg-a,,,,AAXX 05064 07535 12/68 21408 10160 20130 39838 40144 53004 60004 81081 90600 333 10231 20146=
07535,1999-09-05 12:00:00,29,1012.6,-1,45,16,0,11.112,,,220,,,,,,,,,,,wg-a,,,,AAXX 05124 07535 32/// /2206 10290 20160 39834 40126 58010 91200=
07535,1999-09-05 18:00:00,22,1011.5,-0,69,16,0,29.632,,,140,15.5,31.3,,,,,,,,,wg-a,,,,AAXX 05184 07535 32/// /1416 10220 20160 39817 40115 55000 91800 333 10313 20155=
07535,1999-09-06 00:00:00,17,1014.1,0.3,100,17,0,11.112,,,130,,,,26,,,,,,,wg-a,,,,AAXX 06004 07535 12/// /1306 10170 20170 39838 40141 50003 60267 90000=
07535,1999-09-06 06:00:00,16,1013.7,0.2,100,16,3000,3.704,,,140,15.8,22.3,,,,,28,,,10,wg-a,,,,AAXX 06064 07535 12130 71402 10160 20160 39832 40137 53002 60284 71011 8657/ 90600 333 10223 20158=
07535,1999-09-06 12:00:00,23,1014.5,0,78,19,9000,7.408,,,250,,,,1,,,,,,95,wg-a,,,,AAXX 06124 07535 12559 72504 10230 20190 39847 40145 50000 60017 79598 879// 91200=
07535,1999-09-06 18:00:00,20,1014.1,-0.2,83,17,0,7.408,,,140,16,24.9,,,,,,,,,wg-a,,,,AAXX 06184 07535 32/// /1404 10200 20170 39841 40141 56002 91800 333 10249 20160=
07535,1999-09-07 00:00:00,16,1016.1,-0.2,94,15,0,3.704,,,200,,,,,,,,,,,wg-a,,,,AAXX 07004 07535 32/// /2002 10160 20150 39855 40161 58002 90000=
07535,1999-09-07 06:00:00,15,1017,0.6,100,15,100,3.704,,,320,14.4,20.1,,,,,1,,,46,wg-a,,,,AAXX 07064 07535 12601 73202 10150 20150 39863 40170 53006 60014 74641 875// 90600 333 10201 20144=
07535,1999-09-07 12:00:00,25,1017.7,0.5,54,15,15000,3.704,,,340,,,,,,,,,,3,wg-a,,,,AAXX 07124 07535 32565 23402 10250 20150 39880 40177 51005 70341 82100 91200=
07535,1999-09-07 18:00:00,21,1018.5,0.6,69,15,0,7.408,,,330,14.8,27.5,,,,,,,,,wg-a,,,,AAXX 07184 07535 32/// /3304 10210 20150 39884 40185 53006 91800 333 10275 20148=
07535,1999-09-08 00:00:00,13,1020.6,-0.3,100,13,0,0,,,0,,,,,,,,,,,wg-a,,,,AAXX 08004 07535 32/// /0000 10130 20130 39896 40206 58003 90000=
07535,1999-09-08 06:00:00,11,1020.3,-0.2,100,11,2000,3.704,,,150,11.1,21.2,,,,,,,,10,wg-a,,,,AAXX 08064 07535 12/20 21502 10110 20110 39891 40203 55002 60004 71000 80001 90600 333 10212 20111=
07535,1999-09-08 12:00:00,24,1018,-1,61,16,15000,3.704,,,330,,,,,,,,,,3,wg-a,,,,AAXX 08124 07535 32565 13302 10240 20160 39882 40180 58010 70340 81101 91200=
07535,1999-09-08 18:00:00,23,1017.5,-0.1,53,13,0,3.704,,,310,11.2,26.2,,,,,,,,,wg-a,,,,AAXX 08184 07535 32/// /3102 10230 20130 39875 40175 55001 91800 333 10262 20112=
07535,1999-09-09 00:00:00,14,1020.5,0.5,88,12,0,7.408,,,140,,,,,,,,,,,wg-a,,,,AAXX 09004 07535 32/// /1404 10140 20120 39895 40205 51005 90000=
07535,1999-09-09 12:00:00,25,1022.6,0,47,13,18000,7.408,,,360,,,,,,,,,,,wg-a,,,,AAXX 09124 07535 32/68 13604 10250 20130 39928 40226 50000 80001 91200=
07535,1999-09-09 18:00:00,24,1021.8,-0.2,57,15,0,3.704,,,310,11.5,27.4,,,,,,,,,wg-a,,,,AAXX 09184 07535 32/// /3102 10240 20150 39918 40218 56002 91800 333 10274 20115=
07535,1999-09-10 00:00:00,15,1023.9,0.1,88,13,0,3.704,,,150,,,,,,,,,,,wg-a,,,,AAXX 10004 07535 32/// /1502 10150 20130 39930 40239 51001 90000=
07535,1999-09-10 06:00:00,14,1023.3,-0.2,88,12,15000,7.408,,,130,13.5,23.5,,,,,,,,,wg-a,,,,AAXX 10064 07535 12/65 21304 10140 20120 39923 40233 55002 60004 81032 90600 333 10235 20135=
07535,1999-09-10 12:00:00,28,1021.1,-1.4,40,13,25000,7.408,,,150,,,,,,,,,,,wg-a,,,,AAXX 10124 07535 32/75 21504 10280 20130 39916 40211 57014 80002 91200=
07535,1999-09-10 18:00:00,25,1018.9,-0.7,57,16,0,7.408,,,20,14,30.1,,,,,,,,,wg-a,,,,AAXX 10184 07535 32/// /0204 10250 20160 39892 40189 56007 91800 333 10301 20140=
07535,1999-09-11 00:00:00,20,1019.7,0.1,73,15,0,14.816,,,140,,,,,,,,,,,wg-a,,,,AAXX 11004 07535 32/// /1408 10200 20150 39895 40197 50001 90000=
07535,1999-09-11 06:00:00,18,1018.6,-0.3,77,14,14000,14.816,,,140,17.5,25.2,,,,,,,,,wg-a,,,,AAXX 11064 07535 12/64 31408 10180 20140 39882 40186 55003 60004 80002 90600 333 10252 20175=
07535,1999-09-11 12:00:00,30,1017,-0.6,40,15,0,14.816,,,200,,,,,,,,,,,wg-a,,,,AAXX 11124 07535 32/// /2008 10300 20150 39878 40170 58006 91200=
07535,1999-09-11 18:00:00,26,1016.1,-0.1,65,19,0,0,,,0,18.2,32,,,,,,,,,wg-a,,,,AAXX 11184 07535 32/// /0000 10260 20190 39866 40161 57001 91800 333 10320 20182=
07535,1999-09-12 00:00:00,20,1018.3,0.5,73,15,0,11.112,,,220,,,,,,,,,,,wg-a,,,,AAXX 12004 07535 32/// /2206 10200 20150 39881 40183 51005 90000=
07535,1999-09-12 06:00:00,18,1018.5,0.3,94,17,3000,3.704,,,150,18.1,25.8,,,,,,,,10,wg-a,,,,AAXX 12064 07535 12630 71502 10180 20170 39881 40185 52003 60004 71011 83532 90600 333 10258 20181=
07535,1999-09-12 12:00:00,24,1016,-1.6,69,18,0,7.408,,,360,,,,,,,,,,,wg-a,,,,AAXX 12124 07535 32/// /3604 10240 20180 39863 40160 58016 91200=
07535,1999-09-12 18:00:00,24,1012.2,-1.3,74,19,0,7.408,,,30,18.3,27.4,,,,,,,,,wg-a,,,,AAXX 12184 07535 32/// /0304 10240 20190 39826 40122 56013 91800 333 10274 20183=
07535,1999-09-13 00:00:00,19,1010.7,-1.5,78,15,0,11.112,,,140,,,,,,,,,,,wg-a,,,,AAXX 13004 07535 32/// /1406 10190 20150 39806 40107 58015 90000=
07535,1999-09-13 06:00:00,15,1011.6,0.7,94,14,10000,7.408,,,160,15.2,23.9,,,,,,,,,wg-a,,,,AAXX 13064 07535 12/60 21604 10150 20140 39811 40116 51007 60004 81031 90600 333 10239 20152=
07535,1999-09-13 18:00:00,21,1007.7,-1.1,78,17,0,7.408,,,100,15.2,25.5,,,,,,,,,wg-a,,,,AAXX 13184 07535 32/// /1004 10210 20170 39779 40077 56011 91800 333 10255 20152=
07535,1999-09-14 00:00:00,15,1011.7,0.7,100,15,0,7.408,,,150,,,,,,,,,,,wg-a,,,,AAXX 14004 07535 32/// /1504 10150 20150 39812 40117 53007 90000=
07535,1999-09-14 06:00:00,16,1012.5,0.7,94,15,500,3.704,,,250,15.1,21,,1,,,13,,,61,wg-a,,,,AAXX 14064 07535 02100 82502 10160 20150 39820 40125 53007 60134 76162 887// 90600 333 10210 20151 60017=
07535,1999-09-14 12:00:00,17,1013.8,-0.2,94,16,25000,3.704,,,320,,,,1,,,,,,60,wg-a,,,,AAXX 14124 07535 12275 83202 10170 20160 39835 40138 58002 60017 76066 8587/ 91200=
07535,1999-09-14 15:00:00,17.1,1014.1,0.2,82,14,30000,7.408,,,360,,,,,,,,,,3,og-post,,,,AAXX 14154 07535 21480 83604 10171 20140 39837 40141 50002 70362 878// 333 69907 82813 87633=
07535,1999-09-14 16:00:00,17.2,1014.1,0.2,82,14.1,,3.704,,,350,,,,,,,,,,,og-post,,,,AAXX 14164 07535 36/// /3502 10172 20141 39837 40141 51002=
07535,1999-09-14 17:00:00,16.7,1014.2,-0.1,89,14.9,,3.704,,,320,,,,,,,,,,,og-post,,,,AAXX 14174 07535 36/// /3202 10167 20149 39838 40142 55001=
07535,1999-09-14 18:00:00,16.1,1014.1,-0.1,93,15,,3.704,,,310,15.4,18.5,,,,2,,,,,og-post,,,,AAXX 14184 07535 16/// /3102 10161 20150 39836 40141 58001 60022 333 10185 20154=
07535,1999-09-14 19:00:00,15.7,1014.1,-0.1,94,14.7,,7.408,,,10,,,,,,,,,,,og-post,,,,AAXX 14194 07535 36/// /0104 10157 20147 39836 40141 58001=
07535,1999-09-14 20:00:00,15.2,1014.7,0.3,95,14.4,,7.408,,,350,,,,,,,,,,,og-post,,,,AAXX 14204 07535 36/// /3504 10152 20144 39841 40147 53003=
07535,1999-09-14 21:00:00,14.9,1014.7,0.5,95,14.1,,7.408,,,310,,,,,,,,,,,og-post,,,,AAXX 14214 07535 36/// /3104 10149 20141 39841 40147 52005=
07535,1999-09-14 22:00:00,14.3,1014.7,0.4,94,13.3,,7.408,,,340,,,,,,,,,,,og-post,,,,AAXX 14224 07535 36/// /3404 10143 20133 39840 40147 50004=
07535,1999-09-14 23:00:00,14.3,1014.4,-0.4,95,13.5,,3.704,,,310,,,,,,,,,,,og-post,,,,AAXX 14234 07535 36/// /3102 10143 20135 39837 40144 58004=
07535,1999-09-15 00:00:00,14.3,1014,-0.8,97,13.8,,3.704,,,330,,,,,,,,,,,og-post,,,,AAXX 15004 07535 36/// /3302 10143 20138 39833 40140 58008=
07535,1999-09-15 01:00:00,14.1,1013.4,-1.3,98,13.8,,7.408,,,320,,,,,,,,,,,og-post,,,,AAXX 15014 07535 36/// /3204 10141 20138 39827 40134 58013=
07535,1999-09-15 02:00:00,13.9,1013.1,-1.3,98,13.6,,7.408,,,340,,,,,,,,,,,og-post,,,,AAXX 15024 07535 36/// /3404 10139 20136 39824 40131 56013=
07535,1999-09-15 03:00:00,13.8,1013.1,-0.9,98,13.5,,3.704,,,320,,,,,,,,,,,og-post,,,,AAXX 15034 07535 36/// /3202 10138 20135 39824 40131 56009=
07535,1999-09-15 06:00:00,13,1013.5,0.3,100,13,6000,7.408,,,320,13,16.1,,,,,2,,,,wg-a,,,,AAXX 15064 07535 12256 73204 10130 20130 39827 40135 53003 60024 875// 90600 333 10161 20130=
07535,1999-09-15 12:00:00,17,1015,0.8,77,13,25000,11.112,,,320,,,,,,,,,,,wg-a,,,,AAXX 15124 07535 32475 73206 10170 20130 39846 40150 51008 878// 91200=
07535,1999-09-15 18:00:00,17,1015.4,1,68,11,0,7.408,,,320,13,22.4,,,,,,,,,wg-a,,,,AAXX 15184 07535 32/// /3204 10170 20110 39849 40154 53010 91800 333 10224 20130=
07535,1999-09-16 00:00:00,10,1017,-0.1,93,9,0,7.408,,,140,,,,,,,,,,,wg-a,,,,AAXX 16004 07535 32/// /1404 10100 20090 39857 40170 56001 90000=
07535,1999-09-16 06:00:00,8,1016.4,-0,100,8,900,0,,,0,7.4,17.1,,,,,,,,44,wg-a,,,,AAXX 16064 07535 32/09 00000 10080 20080 39849 40164 55000 74440 80000 90600 333 10171 20074=
07535,1999-09-16 12:00:00,21,1014.4,-0.6,53,11,25000,7.408,,,360,,,,,,,,,,1,wg-a,,,,AAXX 16124 07535 32475 13604 10210 20110 39844 40144 58006 70140 81100 91200=
07535,1999-09-16 18:00:00,19.2,1013.1,-0.1,56,10.2,,7.408,,,330,7.6,24,,,,,,,,,og-post,,,,AAXX 16184 07535 36/// /3304 10192 20102 39829 40131 55001 333 10240 20076=
07535,1999-09-16 19:00:00,15.7,1013.4,0.2,82,12.6,,7.408,,,140,,,,,,,,,,,og-post,,,,AAXX 16194 07535 36/// /1404 10157 20126 39829 40134 51002=
07535,1999-09-16 20:00:00,13.9,1013.8,0.3,89,12.1,,7.408,,,130,,,,,,,,,,,og-post,,,,AAXX 16204 07535 36/// /1304 10139 20121 39831 40138 53003=
07535,1999-09-16 21:00:00,13,1013.4,-0.3,89,11.2,,7.408,,,130,,,,,,,,,,,og-post,,,,AAXX 16214 07535 36/// /1304 10130 20112 39826 40134 58003=
07535,1999-09-16 22:00:00,13,1013.1,-0.6,87,10.9,,11.112,,,140,,,,,,,,,,,og-post,,,,AAXX 16224 07535 36/// /1406 10130 20109 39823 40131 58006=
07535,1999-09-16 23:00:00,12.2,1012.6,-1.4,92,10.9,,7.408,,,120,,,,,,,,,,,og-post,,,,AAXX 16234 07535 36/// /1204 10122 20109 39817 40126 58014=
07535,1999-09-17 00:00:00,12.1,1012.3,-1.2,92,10.8,,11.112,,,130,,,,,,,,,,,og-post,,,,AAXX 17004 07535 36/// /1306 10121 20108 39814 40123 57012=
07535,1999-09-17 01:00:00,13.1,1012,-1.1,87,11,,3.704,,,310,,,,,,,,,,,og-post,,,,AAXX 17014 07535 36/// /3102 10131 20110 39812 40120 56011=
07535,1999-09-17 02:00:00,12.1,1012.1,-0.5,91,10.7,,3.704,,,130,,,,,,,,,,,og-post,,,,AAXX 17024 07535 36/// /1302 10121 20107 39812 40121 56005=
07535,1999-09-17 03:00:00,11.5,1012.1,-0.2,96,10.9,,3.704,,,130,,,,,,,,,,,og-post,,,,AAXX 17034 07535 36/// /1302 10115 20109 39812 40121 56002=
07535,1999-09-17 04:00:00,11.6,1011.5,-0.6,97,11.1,,7.408,,,150,,,,,,,,,,,og-post,,,,AAXX 17044 07535 36/// /1504 10116 20111 39806 40115 58006=
07535,1999-09-17 05:00:00,12.3,1013,0.9,95,11.5,10000,7.408,,,280,,,,,,,,,,,og-post,,,,AAXX 17054 07535 32560 82804 10123 20115 39821 40130 53009 875// 333 87623=
07535,1999-09-17 06:00:00,13,1013.3,1.3,98,12.7,10000,3.704,,,200,11.1,19.2,,2,,2,2,11.6,9,95,og-post,,,,AAXX 17064 07535 /1260 82002 10130 20127 39825 40133 53013 60022 79596 888// 333 10192 20111 31009 55116 60027 70020 81703 87623=
07535,1999-09-17 07:00:00,13.1,1013.2,1.8,99,12.9,8000,7.408,,,140,,,0.2,,,,,,,91,og-post,,,,AAXX 17074 07535 21258 81404 10131 20129 39824 40132 50018 79196 8277/ 333 69925 81703 87358=
07535,1999-09-17 08:00:00,13.4,1013.5,0.6,98,13.1,7000,7.408,,,140,,,3,,,,,,,61,og-post,,,,AAXX 17084 07535 21257 81404 10134 20131 39827 40135 51006 76166 8377/ 333 60035 83703 87358=
07535,1999-09-17 09:00:00,13.9,1013.5,0.3,98,13.6,,7.408,,,150,,,,4,,,,,,,og-post,,,,AAXX 17094 07535 26/// /1504 10139 20136 39828 40135 53003 333 60047=
07535,1999-09-17 11:00:00,16.7,1012.8,-0.3,88,14.7,,3.704,,,220,,,,,,,,,,,og-post,,,,AAXX 17114 07535 36/// /2202 10167 20147 39824 40128 58003=
07535,1999-09-17 12:00:00,19.6,1012.6,-0.3,78,15.7,25000,7.408,,,230,,,,0.2,4,,,,,21,og-post,,,,AAXX 17124 07535 /1475 62304 10196 20157 39825 40126 57003 60041 72196 86800 333 69927 85813 83640=
07535,1999-09-17 13:00:00,19.3,1011.7,-1.3,74,14.6,35000,3.704,,,260,,,,,,,,,,,og-post,,,,AAXX 17134 07535 32481 52602 10193 20146 39816 40117 58013 84201 333 84813=
07535,1999-09-17 14:00:00,19.4,1011.8,-0.7,70,13.8,35000,3.704,,,300,,,,,,,,,,,og-post,,,,AAXX 17144 07535 32481 63002 10194 20138 39817 40118 57007 86800 333 86813 83640=
07535,1999-09-17 15:00:00,21,1011.3,-1.1,62,13.4,20000,3.704,,,280,,,,,,,,,,,og-post,,,,AAXX 17154 07535 32470 72802 10210 20134 39814 40113 56011 86801 333 84813 83640=
07535,1999-09-17 16:00:00,18.6,1011.5,-0.3,74,13.9,,3.704,,,310,,,,,,,,,,,og-post,,,,AAXX 17164 07535 36/// /3102 10186 20139 39813 40115 58003=
07535,1999-09-17 17:00:00,17.7,1011.8,-0.2,78,13.8,,3.704,,,270,,,,,,,,,,,og-post,,,,AAXX 17174 07535 36/// /2702 10177 20138 39815 40118 55002=
07535,1999-09-17 18:00:00,15.9,1012.2,0.3,84,13.2,,3.704,,,260,13,21,,,,4,,,,,og-post,,,,AAXX 17184 07535 16/// /2602 10159 20132 39817 40122 53003 60042 333 10210 20130=
07535,1999-09-17 19:00:00,14.9,1012.7,0.8,88,12.9,,3.704,,,270,,,,,,,,,,,og-post,,,,AAXX 17194 07535 36/// /2702 10149 20129 39821 40127 53008=
07535,1999-09-18 00:00:00,12,1012.3,-0.9,100,12,0,3.704,,,150,,,,,,,,,,,wg-a,,,,AAXX 18004 07535 32/// /1502 10120 20120 39814 40123 58009 90000=
07535,1999-09-18 06:00:00,10,1011.6,-0.1,100,10,500,3.704,,,150,9,15.9,,,,,4,,,46,wg-a,,,,AAXX 18064 07535 12605 11502 10100 20100 39805 40116 55001 60044 74640 81500 90600 333 10159 20090=
07535,1999-09-18 12:00:00,20,1007.1,-2.4,56,11,0,11.112,,,190,,,,,,,,,,,wg-a,,,,AAXX 18124 07535 32/// /1906 10200 20110 39772 40071 56024 91200=
07535,1999-09-18 18:00:00,18,1003.2,-1.9,64,11,0,7.408,,,150,9.5,21.8,,,,,,,,,wg-a,,,,AAXX 18184 07535 32/// /1504 10180 20110 39732 40032 56019 91800 333 10218 20095=
07535,1999-09-19 00:00:00,17,999.9,-1.6,77,13,0,11.112,,,160,,,,,,,,,,,wg-a,,,,AAXX 19004 07535 32/// /1606 10170 20130 39699 49999 56016 90000=
07535,1999-09-19 06:00:00,17,995.9,-2.2,72,12,15000,7.408,,,130,16.3,18.4,,,,,,,,,wg-a,,,,AAXX 19064 07535 12/65 71304 10170 20120 39660 49959 57022 60004 85032 90600 333 10184 20163=
07535,1999-09-19 12:00:00,18,991.9,-2.2,83,15,0,7.408,,,20,,,,,,,,,,,wg-a,,,,AAXX 19124 07535 32/// /0204 10180 20150 39623 49919 58022 91200=
07535,1999-09-19 18:00:00,17,990.3,0.6,94,16,0,7.408,,,220,16.5,20.8,,,,,,,,,wg-a,,,,AAXX 19184 07535 32/// /2204 10170 20160 39606 49903 53006 91800 333 10208 20165=
07535,1999-09-20 00:00:00,12,995.9,2.2,100,12,0,11.112,,,210,,,,,,,,,,,wg-a,,,,AAXX 20004 07535 32/// /2106 10120 20120 39655 49959 52022 90000=
07535,1999-09-20 06:00:00,12,998.7,1.4,94,11,15000,14.816,,,200,11.6,17,,0,,,9,,,3,wg-a,,,,AAXX 20064 07535 02465 72008 10120 20110 39682 49987 53014 60094 70386 87800 90600 333 10170 20116 60007=
07535,1999-09-20 18:00:00,16,1002.1,1,72,11,0,7.408,,,10,12,21.6,,,,,,,,,wg-a,,,,AAXX 20184 07535 32/// /0104 10160 20110 39719 40021 53010 91800 333 10216 20120=
07535,1999-09-21 00:00:00,14,1005.1,1.5,82,11,0,14.816,,,190,,,,,,,,,,,wg-a,,,,AAXX 21004 07535 32/// /1908 10140 20110 39746 40051 51015 90000=
07535,1999-09-21 06:00:00,13,1005.4,-0,82,10,25000,14.816,,,180,12.9,16.2,,,,,,,,,wg-a,,,,AAXX 21064 07535 12775 31808 10130 20100 39748 40054 55000 60004 82501 90600 333 10162 20129=
07535,1999-09-21 12:00:00,19,1005.1,-0.5,60,11,20000,7.408,,,170,,,,0,,,,,,3,wg-a,,,,AAXX 21124 07535 12770 71704 10190 20110 39751 40051 55005 60007 70361 8657/ 91200=
07535,1999-09-21 18:00:00,19,1006.1,1.2,64,12,0,11.112,,,200,13.3,21.1,,,,,,,,,wg-a,,,,AAXX 21184 07535 32/// /2006 10190 20120 39762 40061 53012 91800 333 10211 20133=
07535,1999-09-22 00:00:00,18,1007.4,-0.4,64,11,0,14.816,,,180,,,,,,,,,,,wg-a,,,,AAXX 22004 07535 32/// /1808 10180 20110 39773 40074 55004 90000=
07535,1999-09-22 06:00:00,18,1007.7,-0.4,64,11,20000,18.52,,,170,17.4,20,,,,,,,,,wg-a,,,,AAXX 22064 07535 12570 71710 10180 20110 39775 40077 55004 60004 86502 90600 333 10200 20174=
07535,1999-09-22 12:00:00,24,1006.5,-1,57,15,500,18.52,,,160,,,,,,,,,,,wg-a,,,,AAXX 22124 07535 32/00 71610 10240 20150 39770 40065 56010 82032 91200=
07535,1999-09-22 18:00:00,21,1007.5,0.6,73,16,0,14.816,,,140,17.7,25.5,,,,,,,,,wg-a,,,,AAXX 22184 07535 32/// /1408 10210 20160 39778 40075 51006 91800 333 10255 20177=
07535,1999-09-23 00:00:00,21,1009.5,0.9,69,15,0,25.928,,,160,,,,,,,,,,,wg-a,,,,AAXX 23004 07535 32/// /1614 10210 20150 39796 40095 53009 90000=
07535,1999-09-23 06:00:00,17,1012.3,0.2,94,16,15000,11.112,,,160,16.6,22.1,,0,,,2,,,3,wg-a,,,,AAXX 23064 07535 02565 71606 10170 20160 39820 40123 53002 60024 70386 87800 90600 333 10221 20166 60007=
07535,1999-09-23 12:00:00,25,1013.6,0.4,50,14,500,3.704,,,60,,,,,,,,,,1,wg-a,,,,AAXX 23124 07535 32500 50602 10250 20140 39840 40136 51004 70192 83801 91200=
07535,1999-09-23 18:00:00,18,1015.9,1.7,94,17,0,3.704,,,140,17.2,26.4,,,,,,,,,wg-a,,,,AAXX 23184 07535 32/// /1402 10180 20170 39856 40159 53017 91800 333 10264 20172=
07535,1999-09-24 00:00:00,15,1017.7,0.1,94,14,0,7.408,,,120,,,,,,,,,,,wg-a,,,,AAXX 24004 07535 32/// /1204 10150 20140 39870 40177 50001 90000=
07535,1999-09-24 06:00:00,15,1017.4,0.6,100,15,7000,3.704,,,210,13.7,17.6,,,,,7,,,60,wg-a,,,,AAXX 24064 07535 02557 72102 10150 20150 39867 40174 52006 60074 76064 8553/ 90600 333 10176 20137 61000=
07535,1999-09-24 12:00:00,27,1016.7,-0.9,62,19,25000,3.704,,,280,,,,,,,,,,3,wg-a,,,,AAXX 24124 07535 32675 32802 10270 20190 39873 40167 56009 70361 82280 91200=
07535,1999-09-24 18:00:00,22,1015.8,-0,73,17,0,3.704,,,310,14.4,27.8,,,,,,,,,wg-a,,,,AAXX 24184 07535 32/// /3102 10220 20170 39859 40158 55000 91800 333 10278 20144=
07535,1999-09-25 00:00:00,17,1017.3,-0,100,17,0,3.704,,,150,,,,,,,,,,,wg-a,,,,AAXX 25004 07535 32/// /1502 10170 20170 39869 40173 54000 90000=
07535,1999-09-25 06:00:00,15,1015.6,-0.2,100,15,6000,3.704,,,240,15.2,21.5,,1,,,12,,,21,wg-a,,,,AAXX 25064 07535 02156 72402 10150 20150 39850 40156 55002 60124 72162 8657/ 90600 333 10215 20152 60017=
07535,1999-09-25 12:00:00,20,1013.3,-1.3,78,16,0,3.704,,,60,,,,,,,,,,,wg-a,,,,AAXX 25124 07535 32/// /0602 10200 20160 39833 40133 56013 91200=
07535,1999-09-25 18:00:00,17,1011.6,-0,100,17,0,3.704,,,230,15.3,20.5,,,,,,,,,wg-a,,,,AAXX 25184 07535 32/// /2302 10170 20170 39813 40116 55000 91800 333 10205 20153=
07535,1999-09-26 00:00:00,15,1013.6,0.9,100,15,0,3.704,,,270,,,,,,,,,,,wg-a,,,,AAXX 26004 07535 32/// /2702 10150 20150 39830 40136 51009 90000=
07535,1999-09-26 06:00:00,14,1013.6,0.6,100,14,7000,3.704,,,260,13.6,17.2,,,,,2,,,1,wg-a,,,,AAXX 26064 07535 12257 82602 10140 20140 39829 40136 53006 60024 70186 887// 90600 333 10172 20136=
07535,1999-09-26 12:00:00,21,1013.3,-0.8,64,14,0,11.112,,,210,,,,,,,,,,,wg-a,,,,AAXX 26124 07535 32/// /2106 10210 20140 39834 40133 58008 91200=
07535,1999-09-26 18:00:00,17,1012.9,0.2,77,13,0,3.704,,,150,14.1,23.4,,,,,,,,,wg-a,,,,AAXX 26184 07535 32/// /1502 10170 20130 39825 40129 53002 91800 333 10234 20141=
07535,1999-09-27 00:00:00,12,1013.2,-1,94,11,0,7.408,,,140,,,,,,,,,,,wg-a,,,,AAXX 27004 07535 32/// /1404 10120 20110 39823 40132 58010 90000=
07535,1999-09-27 06:00:00,15,1010.7,-0.8,72,10,20000,14.816,,,180,11.2,16.5,,,,,,,,,wg-a,,,,AAXX 27064 07535 12770 61808 10150 20100 39801 40107 56008 60004 865/0 90600 333 10165 20112=
07535,1999-09-27 12:00:00,22,1010.4,-0.5,53,12,500,14.816,,,190,,,,,,,,,,,wg-a,,,,AAXX 27124 07535 32700 71908 10220 20120 39805 40104 58005 81532 91200=
07535,1999-09-27 18:00:00,16,1011.8,1.3,88,14,0,3.704,,,260,14.7,22.3,,,,,,,,,wg-a,,,,AAXX 27184 07535 32/// /2602 10160 20140 39814 40118 53013 91800 333 10223 20147=
07535,1999-09-27 20:00:00,15,1012.7,1.2,97,14.5,,7.408,,,220,,,3,,,,,,,,og-post,,,,AAXX 27204 07535 26/// /2204 10150 20145 39821 40127 51012 333 60035=
07535,1999-09-27 21:00:00,14.7,1012.9,0.9,98,14.4,,3.704,,,240,,,,4,,,,,,,og-post,,,,AAXX 27214 07535 26/// /2402 10147 20144 39823 40129 51009 333 60047=
07535,1999-09-27 22:00:00,14.3,1013.1,0.8,98,14,,7.408,,,210,,,,,,,,,,,og-post,,,,AAXX 27224 07535 36/// /2104 10143 20140 39825 40131 51008=
07535,1999-09-27 23:00:00,14.3,1013.4,0.6,98,14,,7.408,,,210,,,,,,,,,,,og-post,,,,AAXX 27234 07535 36/// /2104 10143 20140 39827 40134 52006=
07535,1999-09-28 00:00:00,14,1013.2,0.2,99,13.8,,7.408,,,210,,,,,4,,,,,,og-post,,,,AAXX 28004 07535 16/// /2104 10140 20138 39825 40132 50002 60041=
07535,1999-09-28 01:00:00,14.1,1013.2,0,99,13.9,,7.408,,,220,,,,,,,,,,,og-post,,,,AAXX 28014 07535 36/// /2204 10141 20139 39825 40132 50000=
07535,1999-09-28 02:00:00,14,1012.7,-0.7,99,13.8,,11.112,,,210,,,,,,,,,,,og-post,,,,AAXX 28024 07535 36/// /2106 10140 20138 39820 40127 58007=
07535,1999-09-28 03:00:00,13.8,1012.5,-0.7,99,13.6,,7.408,,,230,,,,,,,,,,,og-post,,,,AAXX 28034 07535 36/// /2304 10138 20136 39818 40125 58007=
07535,1999-09-28 04:00:00,13.9,1012.7,-0.5,99,13.7,,7.408,,,210,,,,,,,,,,,og-post,,,,AAXX 28044 07535 36/// /2104 10139 20137 39820 40127 55005=
07535,1999-09-28 05:00:00,14,1013.2,0.5,99,13.8,,7.408,,,220,,,,,,,,,,,og-post,,,,AAXX 28054 07535 36/// /2204 10140 20138 39825 40132 53005=
07535,1999-09-28 06:00:00,14.1,1013.5,1,99,13.9,10000,11.112,,,210,13.7,16.1,,,,4,4.8,4.1,11,,og-post,,,,AAXX 28064 07535 12460 72106 10141 20139 39828 40135 53010 60042 8483/ 333 10161 20137 31011 55041 70048 81813 83633 87361=
07535,1999-09-28 09:00:00,17.2,1015.2,2,89,15.4,,7.408,,,260,,,,0.2,,,,,,,og-post,,,,AAXX 28094 07535 26/// /2604 10172 20154 39848 40152 51020 333 69927=
07535,1999-09-28 12:00:00,18.8,1015.5,0.5,78,14.9,15000,7.408,,,260,,,,0.4,0.6,,,,,25,og-post,,,,AAXX 28124 07535 /1465 82604 10188 20149 39853 40155 51005 69961 72586 8487/ 333 69947 81811 84633 87361=
07535,1999-09-28 14:00:00,18.6,1015.6,0.1,79,14.9,12000,11.112,,,270,,,,,,,,,,,og-post,,,,AAXX 28144 07535 32462 82706 10186 20149 39853 40156 52001 878// 333 82813 87633=
07535,1999-09-28 15:00:00,18.3,1015.7,0.1,82,15.2,13000,3.704,,,210,,,,,,,,,,,og-post,,,,AAXX 28154 07535 32463 82102 10183 20152 39854 40157 53001 8487/ 333 81813 84633 87361=
07535,1999-09-28 16:00:00,17.7,1015.8,0.2,86,15.3,,3.704,,,200,,,,,,,,,,,og-post,,,,AAXX 28164 07535 36/// /2002 10177 20153 39854 40158 51002=
07535,1999-09-28 18:00:00,16.5,1016.3,0.4,91,15,,7.408,,,200,14.1,18.9,,,,0.6,,,,,og-post,,,,AAXX 28184 07535 16/// /2004 10165 20150 39858 40163 53004 69962 333 10189 20141=
07535,1999-09-28 20:00:00,13.8,1017.2,0.7,98,13.5,,7.408,,,170,,,,,,,,,,,og-post,,,,AAXX 28204 07535 36/// /1704 10138 20135 39864 40172 53007=
07535,1999-09-28 21:00:00,13.3,1017.3,0.6,98,13,,7.408,,,150,,,,,,,,,,,og-post,,,,AAXX 28214 07535 36/// /1504 10133 20130 39864 40173 51006=
07535,1999-09-28 22:00:00,12.3,1017.4,0.3,98,12,,7.408,,,140,,,,,,,,,,,og-post,,,,AAXX 28224 07535 36/// /1404 10123 20120 39864 40174 51003=
07535,1999-09-28 23:00:00,12.8,1017.6,0.2,99,12.6,,7.408,,,150,,,,,,,,,,,og-post,,,,AAXX 28234 07535 36/// /1504 10128 20126 39866 40176 53002=
07535,1999-09-29 00:00:00,12.3,1017.7,0.3,99,12.1,,7.408,,,140,,,,,,,,,,,og-post,,,,AAXX 29004 07535 36/// /1404 10123 20121 39867 40177 53003=
07535,1999-09-29 01:00:00,11.8,1017.5,0,99,11.6,,7.408,,,140,,,,,,,,,,,og-post,,,,AAXX 29014 07535 36/// /1404 10118 20116 39864 40175 50000=
07535,1999-09-29 02:00:00,12.2,1016.5,-1.1,99,12,,7.408,,,130,,,,,,,,,,,og-post,,,,AAXX 29024 07535 36/// /1304 10122 20120 39855 40165 58011=
07535,1999-09-29 03:00:00,12.4,1015.9,-1.8,98,12.1,,11.112,,,140,,,,,,,,,,,og-post,,,,AAXX 29034 07535 36/// /1406 10124 20121 39849 40159 58018=
07535,1999-09-29 04:00:00,12,1016,-1.4,96,11.4,900,,,,,,,,,,,,,,40,og-post,,,,AAXX 29044 07535 31909 00000 10120 20114 39850 40160 55014 74000=
07535,1999-09-29 05:00:00,11.9,1015.6,-0.9,99,11.7,900,3.704,,,130,,,,,,,,,,44,og-post,,,,AAXX 29054 07535 31909 01302 10119 20117 39846 40156 56009 74444=
07535,1999-09-29 07:00:00,13.7,1015.6,-0.2,95,12.9,6000,3.704,,,170,,,,,,,,,,,og-post,,,,AAXX 29074 07535 32956 11702 10137 20129 39848 40156 55002 80001 333 81075=
07535,1999-09-29 08:00:00,16.1,1015,-0.1,83,13.2,10000,14.816,,,180,,,,,,,,,,,og-post,,,,AAXX 29084 07535 32960 11808 10161 20132 39845 40150 58001 81030 333 81363=
07535,1999-09-29 09:00:00,19,1014.5,-0.2,71,13.6,18000,22.224,,,190,,,,,,,,,,,og-post,,,,AAXX 29094 07535 32968 11912 10190 20136 39843 40145 58002 81030 333 81363=
07535,1999-09-29 10:00:00,21.2,1014,-0.8,61,13.4,25000,14.816,,,200,,,,,,,,,,,og-post,,,,AAXX 29104 07535 32975 12008 10212 20134 39840 40140 57008 81030 333 81363=
07535,1999-09-29 11:00:00,23.9,1013.5,-0.7,52,13.4,,11.112,,,210,,,,,,,,,,,og-post,,,,AAXX 29114 07535 36/// /2106 10239 20134 39838 40135 57007=
07535,1999-09-29 12:00:00,25.6,1012.8,-1,44,12.4,30000,7.408,,,230,,,,,,,,,,,og-post,,,,AAXX 29124 07535 32780 12304 10256 20124 39833 40128 58010 81530 333 81656=
07535,1999-09-29 13:00:00,26.4,1011.9,-1.5,42,12.5,,7.408,,,250,,,,,,,,,,,og-post,,,,AAXX 29134 07535 36/// /2504 10264 20125 39825 40119 58015=
07535,1999-09-29 14:00:00,26.8,1011.1,-2.1,39,11.7,30000,7.408,,,260,,,,,,,,,,,og-post,,,,AAXX 29144 07535 32980 12604 10268 20117 39817 40111 58021 81030 333 81363=
07535,1999-09-29 15:00:00,26.8,1010.4,-2.2,40,12.1,30000,7.408,,,260,,,,,,,,,,,og-post,,,,AAXX 29154 07535 32980 02604 10268 20121 39811 40104 56022=
07535,1999-09-29 16:00:00,25.2,1009.8,-2.2,42,11.4,,3.704,,,230,,,,,,,,,,,og-post,,,,AAXX 29164 07535 36/// /2302 10252 20114 39803 40098 57022=
07535,1999-09-29 17:00:00,22.2,1009.5,-2,52,11.9,,3.704,,,210,,,,,,,,,,,og-post,,,,AAXX 29174 07535 36/// /2102 10222 20119 39797 40095 57020=
07535,1999-09-29 18:00:00,19.5,1009.5,-1.6,66,13,,3.704,,,180,11.5,27,,,,,,,,,og-post,,,,AAXX 29184 07535 36/// /1802 10195 20130 39795 40095 56016 333 10270 20115=
07535,1999-09-29 19:00:00,16.4,1009.3,-1.3,82,13.3,,7.408,,,150,,,,,,,,,,,og-post,,,,AAXX 29194 07535 36/// /1504 10164 20133 39790 40093 56013=
07535,1999-09-29 20:00:00,16.2,1008.8,-1.2,78,12.4,,11.112,,,150,,,,,,,,,,,og-post,,,,AAXX 29204 07535 36/// /1506 10162 20124 39785 40088 58012=
07535,1999-09-29 21:00:00,16.4,1008.3,-1.5,72,11.3,,11.112,,,160,,,,,,,,,,,og-post,,,,AAXX 29214 07535 36/// /1606 10164 20113 39780 40083 57015=
07535,1999-09-29 22:00:00,15.2,1007.2,-2.2,78,11.4,,11.112,,,150,,,,,,,,,,,og-post,,,,AAXX 29224 07535 36/// /1506 10152 20114 39768 40072 58022=
07535,1999-09-29 23:00:00,16.5,1005.8,-2.9,68,10.6,,14.816,,,180,,,,,,,,,,,og-post,,,,AAXX 29234 07535 36/// /1808 10165 20106 39756 40058 58029=
07535,1999-09-30 00:00:00,17,1004.5,-3.6,64,10.1,,14.816,,,170,,,,,,,,,,,og-post,,,,AAXX 30004 07535 36/// /1708 10170 20101 39744 40045 57036=
07535,1999-09-30 01:00:00,17.2,1003,-3.9,64,10.3,,14.816,,,170,,,,,,,,,,,og-post,,,,AAXX 30014 07535 36/// /1708 10172 20103 39729 40030 58039=
07535,1999-09-30 02:00:00,18.1,1002.1,-3.5,56,9.2,,18.52,,,200,,,,,,,,,,,og-post,,,,AAXX 30024 07535 36/// /2010 10181 20092 39721 40021 56035=
07535,1999-09-30 03:00:00,17.5,1002.3,-2.1,60,9.7,,18.52,,,210,,,,,,,,,,,og-post,,,,AAXX 30034 07535 36/// /2110 10175 20097 39723 40023 55021=
07535,1999-09-30 04:00:00,16.4,1004.8,1.7,82,13.3,10000,14.816,,,260,,,0.2,,,,,,,61,og-post,,,,AAXX 30044 07535 21660 82608 10164 20133 39746 40048 53017 76162 8552/ 333 69925 85633 88459=
07535,1999-09-30 05:00:00,14,1005.5,2.9,95,13.2,7000,7.408,,,260,,,4,,,,,,,63,og-post,,,,AAXX 30054 07535 21257 82604 10140 20132 39750 40055 53029 76366 875// 333 60045 82704 87623=
07535,1999-09-30 06:00:00,13.5,1006.3,3.5,98,13.2,7000,7.408,,,230,13.5,19.5,,6,,6,6.2,11.1,12,61,og-post,,,,AAXX 30064 07535 /1257 82304 10135 20132 39758 40063 51035 60062 76162 875// 333 10195 20135 32012 55111 60067 70062 86706 87623=
07535,1999-09-30 07:00:00,13.7,1007,1.9,98,13.4,7000,11.112,,,250,,,3,,,,,,,61,og-post,,,,AAXX 30074 07535 21257 82506 10137 20134 39765 40070 53019 76166 878// 333 60035 86806 87633=
07535,1999-09-30 08:00:00,13.9,1008,2.5,98,13.6,25000,7.408,,,250,,,,,,,,,,21,og-post,,,,AAXX 30084 07535 21375 62504 10139 20136 39775 40080 53025 72162 84831 333 69905 83808 84359=
07535,1999-09-30 09:00:00,16.3,1008.3,2.2,87,14.1,30000,11.112,,,250,,,,3,,,,,,3,og-post,,,,AAXX 30094 07535 21480 62506 10163 20141 39780 40083 51022 70362 85830 333 60037 83811 84640 85359=
07535,1999-09-30 10:00:00,18.1,1007.9,1.3,74,13.4,20000,11.112,,,240,,,,,,,,,,,og-post,,,,AAXX 30104 07535 32470 72406 10181 20134 39778 40079 50013 8683/ 333 85813 85359=
07535,1999-09-30 11:00:00,18.1,1007.8,0.2,79,14.4,,11.112,,,260,,,0.2,,,,,,,,og-post,,,,AAXX 30114 07535 26/// /2606 10181 20144 39777 40078 50002 333 69925=
07535,1999-09-30 12:00:00,17.3,1008,-0.2,84,14.6,7000,11.112,,,260,,,,0.8,4,,,,,25,og-post,,,,AAXX 30124 07535 /1457 72606 10173 20146 39778 40080 55002 60041 72586 879// 333 69987 86813 81916=
07535,1999-09-30 13:00:00,18.2,1007.9,-0,77,14.1,15000,14.816,,,270,,,6,,,,,,,25,og-post,,,,AAXX 30134 07535 21465 62708 10182 20141 39778 40079 55000 72586 86900 333 60065 85813 82916=
07535,1999-09-30 14:00:00,17.7,1008.3,0.5,82,14.6,20000,14.816,,,280,,,0.4,,,,,,,25,og-post,,,,AAXX 30144 07535 21470 62808 10177 20146 39782 40083 53005 72586 85930 333 69945 84813 81919=
07535,1999-09-30 15:00:00,16.6,1009.5,1.4,84,13.9,15000,11.112,,,280,,,,9,,,,,,25,og-post,,,,AAXX 30154 07535 21465 62806 10166 20139 39792 40095 53014 72586 86930 333 60097 81916 85816=
07535,1999-09-30 16:00:00,16.6,1010.1,2,82,13.5,,11.112,,,280,,,,,,,,,,,og-post,,,,AAXX 30164 07535 36/// /2806 10166 20135 39798 40101 53020=
07535,1999-09-30 17:00:00,15.9,1011,2.4,85,13.4,,11.112,,,270,,,,,,,,,,,og-post,,,,AAXX 30174 07535 36/// /2706 10159 20134 39806 40110 51024=
07535,1999-09-30 18:00:00,14.5,1012.5,2.7,94,13.5,,14.816,,,300,13.4,18.8,,0.4,,13,,,,,og-post,,,,AAXX 30184 07535 /6/// /3008 10145 20135 39819 40125 53027 60132 333 10188 20134 69947=
07535,1999-09-30 19:00:00,14,1013.8,3.3,96,13.4,,11.112,,,280,,,,,,,,,,,og-post,,,,AAXX 30194 07535 36/// /2806 10140 20134 39831 40138 53033=
07535,1999-09-30 20:00:00,14.1,1014.8,3.5,97,13.6,,7.408,,,290,,,0.4,,,,,,,,og-post,,,,AAXX 30204 07535 26/// /2904 10141 20136 39841 40148 51035 333 69945=
07535,1999-09-30 21:00:00,13.6,1015.7,3,96,13,,7.408,,,290,,,,0.6,,,,,,,og-post,,,,AAXX 30214 07535 26/// /2904 10136 20130 39849 40157 51030 333 69967=
07535,1999-09-30 22:00:00,13.2,1016.4,2.4,96,12.6,,7.408,,,260,,,,,,,,,,,og-post,,,,AAXX 30224 07535 36/// /2604 10132 20126 39855 40164 51024=
07535,1999-09-30 23:00:00,13,1016.7,1.7,96,12.4,,7.408,,,260,,,,,,,,,,,og-post,,,,AAXX 30234 07535 36/// /2604 10130 20124 39858 40167 51017=
07535,1999-10-01 00:00:00,12.8,1017.2,1.3,95,12,,7.408,,,270,,,,,0.6,,,,,,og-post,,,,AAXX 01004 07535 16/// /2704 10128 20120 39862 40172 51013 69961=
07535,1999-10-01 01:00:00,12.2,1017.5,1,96,11.6,,7.408,,,270,,,,,,,,,,,og-post,,,,AAXX 01014 07535 36/// /2704 10122 20116 39865 40175 52010=
07535,1999-10-01 02:00:00,12.3,1017.8,1,97,11.8,,3.704,,,270,,,,,,,,,,,og-post,,,,AAXX 01024 07535 36/// /2702 10123 20118 39868 40178 51010=
07535,1999-10-01 03:00:00,12.2,1017.7,0.5,95,11.4,,3.704,,,240,,,,,,,,,,,og-post,,,,AAXX 01034 07535 36/// /2402 10122 20114 39867 40177 50005=
07535,1999-10-01 04:00:00,11.8,1017.9,0.3,98,11.5,15000,7.408,,,220,,,,,,,,,,,og-post,,,,AAXX 01044 07535 32565 62204 10118 20115 39868 40179 51003 86800 333 81820 86650=
07535,1999-10-01 05:00:00,12.3,1017.8,-0,98,12,10000,7.408,,,240,,,,,,,,,,,og-post,,,,AAXX 01054 07535 32560 72404 10123 20120 39868 40178 55000 878// 333 82820 87650=
07535,1999-10-01 06:00:00,12.4,1018.2,0.5,98,12.1,6000,3.704,,,260,11.7,14.5,,,,0.6,13.4,2.7,9,,og-post,,,,AAXX 01064 07535 12456 72602 10124 20121 39872 40182 53005 69962 878// 333 10145 20117 32009 55027 70134 84710 87650=
07535,1999-10-01 07:00:00,12.6,1018.9,1.1,99,12.4,6000,3.704,,,220,,,,,,,,,,,og-post,,,,AAXX 01074 07535 32456 72202 10126 20124 39879 40189 53011 878// 333 85710 87650=
07535,1999-10-01 08:00:00,13.5,1019.1,1.4,98,13.2,10000,3.704,,,240,,,0.2,,,,,,,25,og-post,,,,AAXX 01084 07535 21460 72402 10135 20132 39882 40191 51014 72586 878// 333 69925 85813 87650=
07535,1999-10-01 09:00:00,14.3,1019.8,1.7,92,13,6000,11.112,,,280,,,,0.4,,,,,,80,og-post,,,,AAXX 01094 07535 21456 72806 10143 20130 39889 40198 52017 78086 878// 333 69947 85813 87650=
07535,1999-10-01 10:00:00,15.7,1019.5,0.9,88,13.7,8000,3.704,,,260,,,,,,,,,,25,og-post,,,,AAXX 01104 07535 21458 72602 10157 20137 39888 40195 50009 72586 878// 333 69905 85813 87650=
07535,1999-10-01 11:00:00,16.8,1019,0.2,74,12.1,12000,11.112,,,270,,,,,,,,,,,og-post,,,,AAXX 01114 07535 32462 72706 10168 20121 39884 40190 50002 878// 333 85815 87650=
07535,1999-10-01 12:00:00,18.3,1018,-1.3,72,13.2,15000,7.408,,,280,,,,,0.4,,,,,1,og-post,,,,AAXX 01124 07535 /1465 72804 10183 20132 39876 40180 58013 69941 70186 878// 333 69907 85816 86650=
07535,1999-10-01 13:00:00,18.1,1017.1,-2.1,68,12.1,20000,11.112,,,270,,,,,,,,,,,og-post,,,,AAXX 01134 07535 32470 72706 10181 20121 39867 40171 58021 878// 333 85818 86650=
07535,1999-10-01 14:00:00,18.5,1016.7,-2,68,12.5,20000,3.704,,,250,,,,,,,,,,,og-post,,,,AAXX 01144 07535 32570 72502 10185 20125 39864 40167 56020 878// 333 85820 86650=
07535,1999-10-01 15:00:00,18.1,1016.5,-1.5,71,12.8,20000,3.704,,,250,,,,,,,,,,,og-post,,,,AAXX 01154 07535 32570 72502 10181 20128 39861 40165 56015 878// 333 85823 86650=
07535,1999-10-01 16:00:00,16.3,1016.2,-1,80,12.8,,3.704,,,270,,,,,,,,,,,og-post,,,,AAXX 01164 07535 36/// /2702 10163 20128 39857 40162 58010=
07535,1999-10-01 17:00:00,15.9,1016.4,-0.6,81,12.6,,3.704,,,210,,,,,,,,,,,og-post,,,,AAXX 01174 07535 36/// /2102 10159 20126 39858 40164 55006=
07535,1999-10-01 18:00:00,15.2,1016.4,-0.4,85,12.7,,3.704,,,280,12.4,18.7,,,,0.4,,,,,og-post,,,,AAXX 01184 07535 16/// /2802 10152 20127 39857 40164 56004 69942 333 10187 20124=
07535,1999-10-01 20:00:00,14,1016.6,-0,95,13.2,,3.704,,,170,,,,,,,,,,,og-post,,,,AAXX 01204 07535 36/// /1702 10140 20132 39858 40166 55000=
07535,1999-10-02 00:00:00,11.5,1015.4,-1.2,98,11.2,,7.408,,,160,,,,,,,,,,,og-post,,,,AAXX 02004 07535 36/// /1604 10115 20112 39844 40154 57012=
07535,1999-10-02 01:00:00,10.6,1014.9,-1.4,98,10.3,,7.408,,,150,,,,,,,,,,,og-post,,,,AAXX 02014 07535 36/// /1504 10106 20103 39838 40149 58014=
07535,1999-10-02 02:00:00,10.4,1014.2,-1.7,98,10.1,,7.408,,,140,,,,,,,,,,,og-post,,,,AAXX 02024 07535 36/// /1404 10104 20101 39831 40142 58017=
07535,1999-10-02 03:00:00,10.6,1013.9,-1.6,98,10.3,,7.408,,,150,,,,,,,,,,,og-post,,,,AAXX 02034 07535 36/// /1504 10106 20103 39828 40139 56016=
07535,1999-10-02 04:00:00,10.9,1013.2,-1.6,99,10.7,15000,7.408,,,150,,,,,,,,,,,og-post,,,,AAXX 02044 07535 32565 71504 10109 20107 39822 40132 56016 8653/ 333 83623 84650 85360=
07535,1999-10-02 05:00:00,11.4,1012.9,-1.2,98,11.1,12000,7.408,,,150,,,,,,,,,,60,og-post,,,,AAXX 02054 07535 21562 71504 10114 20111 39819 40129 57012 76062 875// 333 69905 84623 86650=
07535,1999-10-02 06:00:00,12.2,1012.6,-1.1,96,11.6,12000,7.408,,,150,10.3,15.1,,1,,1,1.4,0.6,9,60,og-post,,,,AAXX 02064 07535 /1562 81504 10122 20116 39817 40126 56011 60012 76062 8557/ 333 10151 20103 32009 55006 60017 70014 82623 84650 87460=
07535,1999-10-02 07:00:00,12.6,1012.5,-0.5,95,11.8,15000,11.112,,,170,,,,,,,,,,21,og-post,,,,AAXX 02074 07535 21565 81706 10126 20118 39817 40125 56005 72162 8557/ 333 69905 81623 85650 87360=
07535,1999-10-02 08:00:00,14,1012.6,-0,92,12.7,15000,7.408,,,160,,,,,,,,,,,og-post,,,,AAXX 02084 07535 32765 71604 10140 20127 39819 40126 55000 8557/ 333 85650 87360=
07535,1999-10-02 09:00:00,15.4,1012.6,0.4,87,13.2,15000,14.816,,,190,,,,,,,,,,3,og-post,,,,AAXX 02094 07535 21465 71908 10154 20132 39821 40126 53004 70362 8687/ 333 69907 81710 86650 87460=
07535,1999-10-02 10:00:00,17,1012.1,0.1,77,12.9,15000,14.816,,,200,,,,,,,,,,,og-post,,,,AAXX 02104 07535 32465 72008 10170 20129 39818 40121 50001 8687/ 333 81810 86650 87460=
07535,1999-10-02 11:00:00,18.1,1011.5,-0.6,75,13.6,,14.816,,,200,,,,,,,,,,,og-post,,,,AAXX 02114 07535 36/// /2008 10181 20136 39813 40115 58006=
07535,1999-10-02 12:00:00,18.1,1010.9,-1.4,71,12.8,,18.52,,,180,,,,,,,,,,,og-post,,,,AAXX 02124 07535 16/// /1810 10181 20128 39807 40109 58014 69901=
07535,1999-10-02 13:00:00,18.9,1010.1,-1.8,66,12.4,,11.112,,,200,,,,,,,,,,,og-post,,,,AAXX 02134 07535 36/// /2006 10189 20124 39800 40101 58018=
07535,1999-10-02 14:00:00,18.8,1009.6,-1.8,67,12.5,,11.112,,,200,,,,,,,,,,,og-post,,,,AAXX 02144 07535 36/// /2006 10188 20125 39795 40096 56018=
07535,1999-10-02 15:00:00,18.8,1009.2,-1.6,73,13.9,,7.408,,,200,,,,,,,,,,,og-post,,,,AAXX 02154 07535 36/// /2004 10188 20139 39791 40092 56016=
07535,1999-10-02 16:00:00,18.2,1009.2,-0.9,74,13.5,,7.408,,,220,,,,,,,,,,,og-post,,,,AAXX 02164 07535 36/// /2204 10182 20135 39791 40092 56009=
07535,1999-10-02 17:00:00,17.1,1009,-0.7,79,13.4,,11.112,,,200,,,,,,,,,,,og-post,,,,AAXX 02174 07535 36/// /2006 10171 20134 39788 40090 56007=
07535,1999-10-02 18:00:00,17.1,1009,-0.3,75,12.6,,11.112,,,210,12.1,19.5,,,,,,,,,og-post,,,,AAXX 02184 07535 16/// /2106 10171 20126 39788 40090 57003 69902 333 10195 20121=
07535,1999-10-02 19:00:00,16.8,1009.4,-0,78,12.9,,11.112,,,210,,,,,,,,,,,og-post,,,,AAXX 02194 07535 36/// /2106 10168 20129 39791 40094 55000=
07535,1999-10-02 20:00:00,15.3,1010.5,1.2,94,14.3,,11.112,,,220,,,2,,,,,,,,og-post,,,,AAXX 02204 07535 26/// /2206 10153 20143 39800 40105 53012 333 60025=
07535,1999-10-02 21:00:00,14.9,1010.9,1.6,98,14.6,,11.112,,,220,,,,4,,,,,,,og-post,,,,AAXX 02214 07535 26/// /2206 10149 20146 39804 40109 53016 333 60047=
07535,1999-10-02 22:00:00,14.9,1010.6,1,98,14.6,,11.112,,,200,,,0.6,,,,,,,,og-post,,,,AAXX 02224 07535 26/// /2006 10149 20146 39801 40106 50010 333 69965=
07535,1999-10-02 23:00:00,14.8,1010.4,-0.1,98,14.5,,11.112,,,210,,,0.2,,,,,,,,og-post,,,,AAXX 02234 07535 26/// /2106 10148 20145 39799 40104 58001 333 69925=
07535,1999-10-03 00:00:00,14.8,1010,-0.9,99,14.6,,11.112,,,210,,,,1,5,,,,,,og-post,,,,AAXX 03004 07535 /6/// /2106 10148 20146 39795 40100 58009 60051 333 60017=
07535,1999-10-03 01:00:00,12.8,1010.6,-0.2,97,12.3,,18.52,,,320,,,2,,,,,,,,og-post,,,,AAXX 03014 07535 26/// /3210 10128 20123 39799 40106 55002 333 60025=
07535,1999-10-03 02:00:00,12.4,1011,0.3,98,12.1,,11.112,,,300,,,1,,,,,,,,og-post,,,,AAXX 03024 07535 26/// /3006 10124 20121 39802 40110 53003 333 60015=
07535,1999-10-03 03:00:00,11.9,1011.2,0.8,98,11.6,,3.704,,,290,,,,4,,,,,,,og-post,,,,AAXX 03034 07535 26/// /2902 10119 20116 39803 40112 51008 333 60047=
07535,1999-10-03 04:00:00,11.7,1011.5,0.7,98,11.4,5000,3.704,,,270,,,1,,,,,,,61,og-post,,,,AAXX 03044 07535 21350 82702 10117 20114 39806 40115 52007 76162 875// 333 60015 82706 87620=
07535,1999-10-03 05:00:00,11.5,1011.7,0.6,98,11.2,5000,3.704,,,190,,,0.4,,,,,,,61,og-post,,,,AAXX 03054 07535 21350 81902 10115 20112 39808 40117 53006 76166 875// 333 69945 82706 87620=
07535,1999-10-03 06:00:00,11.3,1012,0.7,98,11,6000,,,,,11.2,17.1,,2,,11,11.2,0.4,12,61,og-post,,,,AAXX 03064 07535 /1356 80000 10113 20110 39810 40120 51007 60112 76166 875// 333 10171 20112 32012 55004 60027 70112 81706 85623 86650=
07535,1999-10-03 07:00:00,11.3,1012.8,1.2,98,11,6000,3.704,,,180,,,0.2,,,,,,,61,og-post,,,,AAXX 03074 07535 21356 81802 10113 20110 39818 40128 53012 76166 875// 333 69925 83706 86623=
07535,1999-10-03 08:00:00,11.5,1013.5,1.7,98,11.2,8000,7.408,,,200,,,,,,,,,,61,og-post,,,,AAXX 03084 07535 21358 82004 10115 20112 39825 40135 53017 76166 875// 333 69905 81706 83623 87650=
07535,1999-10-03 09:00:00,12,1014.4,2.4,98,11.7,10000,3.704,,,240,,,,0.2,,,,,,61,og-post,,,,AAXX 03094 07535 21360 82402 10120 20117 39834 40144 53024 76166 875// 333 69927 83706 83623 87650=
07535,1999-10-03 10:00:00,12.2,1015,2.2,95,11.4,10000,7.408,,,270,,,0.2,,,,,,,60,og-post,,,,AAXX 03104 07535 21360 82704 10122 20114 39840 40150 51022 76066 875// 333 69925 83706 86623=
07535,1999-10-03 11:00:00,12.8,1015,1.6,93,11.7,,7.408,,,230,,,,,,,,,,,og-post,,,,AAXX 03114 07535 26/// /2304 10128 20117 39841 40150 51016 333 69905=
07535,1999-10-03 12:00:00,14.4,1014.7,0.6,88,12.4,,7.408,,,230,,,,0.2,0.4,,,,,,og-post,,,,AAXX 03124 07535 /6/// /2304 10144 20124 39840 40147 50006 69941 333 69927=
07535,1999-10-03 13:00:00,13.9,1014.7,-0.1,92,12.6,,7.408,,,250,,,1,,,,,,,,og-post,,,,AAXX 03134 07535 26/// /2504 10139 20126 39839 40147 58001 333 60015=
07535,1999-10-03 14:00:00,16.7,1014.5,-0.1,67,10.5,,14.816,,,270,,,,,,,,,,,og-post,,,,AAXX 03144 07535 36/// /2708 10167 20105 39840 40145 55001=
07535,1999-10-03 15:00:00,10.9,1016,0.9,91,9.5,,3.704,,,270,,,,4,,,,,,,og-post,,,,AAXX 03154 07535 26/// /2702 10109 20095 39849 40160 53009 333 60047=
07535,1999-10-03 16:00:00,12.7,1016.2,1.4,87,10.6,,3.704,,,280,,,,,,,,,,,og-post,,,,AAXX 03164 07535 36/// /2802 10127 20106 39853 40162 53014=
07535,1999-10-03 17:00:00,11.4,1016.6,1.5,93,10.3,,3.704,,,280,,,,,,,,,,,og-post,,,,AAXX 03174 07535 36/// /2802 10114 20103 39855 40166 51015=
07535,1999-10-03 18:00:00,10.4,1017.7,1.5,93,9.3,,3.704,,,300,10.4,17.2,,,,4,,,,,og-post,,,,AAXX 03184 07535 16/// /3002 10104 20093 39864 40177 53015 60042 333 10172 20104=
07535,1999-10-03 19:00:00,9.1,1018.2,1.5,97,8.6,,3.704,,,210,,,,,,,,,,,og-post,,,,AAXX 03194 07535 36/// /2102 10091 20086 39868 40182 53015=
07535,1999-10-03 20:00:00,7.8,1019.3,2.2,98,7.5,,7.408,,,160,,,,,,,,,,,og-post,,,,AAXX 03204 07535 36/// /1604 10078 20075 39877 40193 52022=
07535,1999-10-03 21:00:00,7.3,1019.7,1.6,99,7.2,,3.704,,,200,,,,,,,,,,,og-post,,,,AAXX 03214 07535 36/// /2002 10073 20072 39880 40197 51016=
07535,1999-10-03 22:00:00,8.1,1019.9,1.5,99,8,,7.408,,,210,,,,,,,,,,,og-post,,,,AAXX 03224 07535 36/// /2104 10081 20080 39883 40199 51015=
07535,1999-10-03 23:00:00,8.7,1020.1,0.9,98,8.4,,3.704,,,220,,,,,,,,,,,og-post,,,,AAXX 03234 07535 36/// /2202 10087 20084 39886 40201 52009=
07535,1999-10-04 00:00:00,8.3,1020,0.4,98,8,,7.408,,,200,,,,,,,,,,,og-post,,,,AAXX 04004 07535 36/// /2004 10083 20080 39884 40200 50004=
07535,1999-10-04 01:00:00,8.6,1019.8,0,98,8.3,,7.408,,,210,,,,,,,,,,,og-post,,,,AAXX 04014 07535 36/// /2104 10086 20083 39883 40198 50000=
07535,1999-10-04 02:00:00,8.9,1019.5,-0.6,98,8.6,,7.408,,,240,,,0.4,,,,,,,,og-post,,,,AAXX 04024 07535 26/// /2404 10089 20086 39880 40195 58006 333 69945=
07535,1999-10-04 03:00:00,9.2,1018.9,-0.9,99,9.1,,11.112,,,220,,,,0.4,,,,,,,og-post,,,,AAXX 04034 07535 26/// /2206 10092 20091 39875 40189 58009 333 69947=
07535,1999-10-04 04:00:00,9.2,1019.2,-0.5,99,9.1,10000,3.704,,,250,,,,,,,,,,,og-post,,,,AAXX 04044 07535 32460 62502 10092 20091 39878 40192 55005 86800 333 84813 84626=
07535,1999-10-04 05:00:00,9,1019.3,-0.2,99,8.9,10000,3.704,,,220,,,,,,,,,,,og-post,,,,AAXX 04054 07535 32460 62202 10090 20089 39878 40193 56002 86830 333 82813 84626 85359=
07535,1999-10-04 06:00:00,9.3,1019.4,0.5,99,9.2,8000,3.704,,,220,7.2,10.4,,,,0.4,4.8,2.3,6,,og-post,,,,AAXX 04064 07535 12258 72202 10093 20092 39880 40194 51005 69942 8553/ 333 10104 20072 32006 55023 70048 83705 84626 86359=
07535,1999-10-04 07:00:00,9.8,1019.8,0.6,99,9.6,6000,3.704,,,210,,,,,,,,,,,og-post,,,,AAXX 04074 07535 32356 72102 10098 20096 39884 40198 53006 877// 333 87706=
07535,1999-10-04 08:00:00,10.4,1020.3,1.2,99,10.2,6000,3.704,,,270,,,,,,,,,,60,og-post,,,,AAXX 04084 07535 21356 82702 10104 20102 39890 40203 53012 76062 887// 333 69905 88706=
07535,1999-10-04 09:00:00,11.7,1020.5,1.3,98,11.4,7000,3.704,,,290,,,,,,,,,,21,og-post,,,,AAXX 04094 07535 21357 82902 10117 20114 39893 40205 51013 72162 877// 333 69907 87808=
07535,1999-10-04 10:00:00,13.9,1020.1,0.8,80,10.5,18000,7.408,,,280,,,,,,,,,,,og-post,,,,AAXX 04104 07535 32468 72804 10139 20105 39892 40201 50008 878// 333 85810 86650=
07535,1999-10-04 12:00:00,13.1,1019.5,-0.8,75,8.8,7000,11.112,,,330,,,,,,,,,,80,og-post,,,,AAXX 04124 07535 /1457 73306 10131 20088 39885 40195 58008 69901 78086 878// 333 69907 85815 83650=
07535,1999-10-04 13:00:00,13.1,1019.4,-0.8,87,11,8000,7.408,,,300,,,1,,,,,,,25,og-post,,,,AAXX 04134 07535 21458 73004 10131 20110 39884 40194 56008 72586 873// 333 60015 84815 81916 86640=
07535,1999-10-04 15:00:00,12.3,1019.9,0.3,77,8.4,30000,7.408,,,330,,,,1,,,,,,25,og-post,,,,AAXX 04154 07535 21480 73304 10123 20084 39888 40199 53003 72586 878// 333 60017 82816 86640=
07535,1999-10-04 17:00:00,11.2,1020.6,0.9,86,8.9,,7.408,,,270,,,,,,,,,,,og-post,,,,AAXX 04174 07535 36/// /2704 10112 20089 39893 40206 52009=
07535,1999-10-04 18:00:00,9.7,1021.7,1.4,94,8.8,,3.704,,,280,9,15.6,,,,1,,,,,og-post,,,,AAXX 04184 07535 16/// /2802 10097 20088 39902 40217 53014 60012 333 10156 20090=
07535,1999-10-04 19:00:00,8.6,1022.4,1.9,97,8.2,,3.704,,,160,,,,,,,,,,,og-post,,,,AAXX 04194 07535 36/// /1602 10086 20082 39908 40224 53019=
07535,1999-10-04 21:00:00,6.7,1023.7,1.6,99,6.6,,,,,,,,,,,,,,,,og-post,,,,AAXX 04214 07535 36/// /0000 10067 20066 39918 40237 51016=
07535,1999-10-04 22:00:00,5.9,1024.1,1.3,99,5.8,,3.704,,,170,,,,,,,,,,,og-post,,,,AAXX 04224 07535 36/// /1702 10059 20058 39921 40241 51013=
07535,1999-10-04 23:00:00,4.6,1024.3,0.8,99,4.5,,7.408,,,150,,,,,,,,,,,og-post,,,,AAXX 04234 07535 36/// /1504 10046 20045 39922 40243 51008=
07535,1999-10-05 00:00:00,4.3,1024,0,99,4.2,,3.704,,,150,,,,,,,,,,,og-post,,,,AAXX 05004 07535 36/// /1502 10043 20042 39918 40240 50000=
07535,1999-10-05 01:00:00,3.7,1024,-0.3,99,3.6,,7.408,,,150,,,,,,,,,,,og-post,,,,AAXX 05014 07535 36/// /1504 10037 20036 39918 40240 58003=
07535,1999-10-05 02:00:00,3.5,1023.9,-0.6,99,3.4,,7.408,,,140,,,,,,,,,,,og-post,,,,AAXX 05024 07535 36/// /1404 10035 20034 39916 40239 56006=
07535,1999-10-05 03:00:00,3.1,1023.8,-0.3,100,3.1,,7.408,,,140,,,,,,,,,,,og-post,,,,AAXX 05034 07535 36/// /1404 10031 20031 39915 40238 58003=
07535,1999-10-05 04:00:00,2.6,1024.1,-0.1,99,2.5,20000,7.408,,,140,,,,,,,,,,,og-post,,,,AAXX 05044 07535 32970 01404 10026 20025 39917 40241 55001=
07535,1999-10-05 05:00:00,2.5,1024.4,0.4,100,2.5,12000,,,,,,,,,,,,,,,og-post,,,,AAXX 05054 07535 32962 00000 10025 20025 39920 40244 53004=
07535,1999-10-05 06:00:00,1.1,1024.7,0.6,99,1,300,3.704,,,20,1.1,9.6,,,,,1,1.9,-0,46,og-post,,,,AAXX 05064 07535 31903 10202 10011 20010 39921 40247 51006 74640 80001 333 10096 20011 31100 55019 70010 81075=
07535,1999-10-05 07:00:00,1.8,1025.2,1,100,1.8,200,3.704,,,30,,,,,,,,,,46,og-post,,,,AAXX 05074 07535 31902 00302 10018 20018 39927 40252 53010 74644=
07535,1999-10-05 08:00:00,3.8,1025.4,1.1,100,3.8,200,3.704,,,300,,,,,,,,,,44,og-post,,,,AAXX 05084 07535 31902 03002 10038 20038 39931 40254 53011 74444=
07535,1999-10-05 09:00:00,5.9,1025.5,1.4,99,5.8,1000,7.408,,,350,,,,,,,,,,28,og-post,,,,AAXX 05094 07535 31010 63504 10059 20058 39935 40255 51014 72841 86600 333 86701=
07535,1999-10-05 10:00:00,9.4,1025,0.7,89,7.7,12000,7.408,,,20,,,,,,,,,,,og-post,,,,AAXX 05104 07535 32062 10204 10094 20077 39934 40250 50007 81600 333 81701=
07535,1999-10-05 11:00:00,11.7,1024.2,-0.2,72,6.8,,11.112,,,30,,,,,,,,,,,og-post,,,,AAXX 05114 07535 36/// /0306 10117 20068 39929 40242 58002=
07535,1999-10-05 12:00:00,12.5,1023.5,-1.2,65,6.1,35000,14.816,,,40,,,,,,,,,,1,og-post,,,,AAXX 05124 07535 31581 10408 10125 20061 39923 40235 58012 70141 81100 333 81820=
07535,1999-10-05 13:00:00,13.7,1023,-1.5,55,4.8,35000,14.816,,,30,,,,,,,,,,,og-post,,,,AAXX 05134 07535 32581 20308 10137 20048 39919 40230 56015 82100 333 82826=
07535,1999-10-05 14:00:00,13.1,1022.8,-1.3,55,4.3,35000,7.408,,,60,,,,,,,,,,,og-post,,,,AAXX 05144 07535 32581 40604 10131 20043 39916 40228 56013 84100 333 84826=
07535,1999-10-05 15:00:00,14.4,1022.4,-0.9,53,5,35000,11.112,,,360,,,,,,,,,,,og-post,,,,AAXX 05154 07535 32681 33606 10144 20050 39914 40224 56009 83100 333 83833=
07535,1999-10-05 16:00:00,13.6,1022.5,-0.5,46,2.2,,11.112,,,30,,,,,,,,,,,og-post,,,,AAXX 05164 07535 36/// /0306 10136 20022 39914 40225 56005=
07535,1999-10-05 17:00:00,12.1,1022.8,-0.1,53,2.8,,3.704,,,10,,,,,,,,,,,og-post,,,,AAXX 05174 07535 36/// /0102 10121 20028 39915 40228 55001=
07535,1999-10-05 18:00:00,9.9,1023.3,0.4,70,4.7,,3.704,,,70,1,14.5,,,,,,,,,og-post,,,,AAXX 05184 07535 36/// /0702 10099 20047 39918 40233 53004 333 10145 20010=
07535,1999-10-05 19:00:00,6.4,1024.2,0.9,89,4.7,,3.704,,,80,,,,,,,,,,,og-post,,,,AAXX 05194 07535 36/// /0802 10064 20047 39923 40242 53009=
07535,1999-10-05 20:00:00,8.3,1024.3,1.1,68,2.8,,14.816,,,70,,,,,,,,,,,og-post,,,,AAXX 05204 07535 36/// /0708 10083 20028 39926 40243 52011=
07535,1999-10-05 21:00:00,7,1024.9,1.2,75,2.9,,3.704,,,90,,,,,,,,,,,og-post,,,,AAXX 05214 07535 36/// /0902 10070 20029 39930 40249 51012=
07535,1999-10-05 22:00:00,6.6,1024.8,0.6,77,2.9,,7.408,,,10,,,,,,,,,,,og-post,,,,AAXX 05224 07535 36/// /0104 10066 20029 39929 40248 50006=
07535,1999-10-05 23:00:00,6.1,1025,0.4,79,2.7,,7.408,,,40,,,,,,,,,,,og-post,,,,AAXX 05234 07535 36/// /0404 10061 20027 39930 40250 51004=
07535,1999-10-06 01:00:00,3.1,1024.9,-0.3,92,1.9,,3.704,,,90,,,,,,,,,,,og-post,,,,AAXX 06014 07535 36/// /0902 10031 20019 39926 40249 58003=
07535,1999-10-06 02:00:00,2.6,1024.8,-0.6,95,1.9,,3.704,,,50,,,,,,,,,,,og-post,,,,AAXX 06024 07535 36/// /0502 10026 20019 39924 40248 58006=
07535,1999-10-06 03:00:00,1.4,1024.5,-1,98,1.1,,,,,,,,,,,,,,,,og-post,,,,AAXX 06034 07535 36/// /0000 10014 20011 39920 40245 57010=
07535,1999-10-06 04:00:00,0.8,1024.8,-0.4,99,0.7,10000,7.408,,,140,,,,,,,,,,,og-post,,,,AAXX 06044 07535 32960 01404 10008 20007 39922 40248 55004=
07535,1999-10-06 05:00:00,0.2,1024.9,-0.2,99,0.1,6000,7.408,,,130,,,,,,,,,,,og-post,,,,AAXX 06054 07535 32956 01304 10002 20001 39922 40249 56002=
07535,1999-10-06 06:00:00,0.5,1025.1,0.4,100,0.5,2500,,,,,-0.1,9.9,,,,,,7.4,-2,10,og-post,,,,AAXX 06064 07535 31925 00000 10005 20005 39924 40251 52004 71000 333 10099 21001 30102 55074 70000=
07535,1999-10-06 07:00:00,1.9,1025.2,0.5,100,1.9,2500,3.704,,,140,,,,,,,,,,10,og-post,,,,AAXX 06074 07535 31925 01402 10019 20019 39927 40252 53005 71000=
07535,1999-10-06 08:00:00,4.7,1025.3,0.9,88,2.9,2500,3.704,,,20,,,,,,,,,,10,og-post,,,,AAXX 06084 07535 31925 00202 10047 20029 39931 40253 53009 71000=
07535,1999-10-06 09:00:00,7,1025.2,0.9,87,5,15000,7.408,,,360,,,,,,,,,,,og-post,,,,AAXX 06094 07535 32965 03604 10070 20050 39933 40252 51009=
07535,1999-10-06 10:00:00,10.8,1024.7,0.5,68,5.1,20000,7.408,,,10,,,,,,,,,,,og-post,,,,AAXX 06104 07535 32970 00104 10108 20051 39932 40247 50005=
07535,1999-10-06 11:00:00,12.9,1024.4,0.1,53,3.6,20000,11.112,,,30,,,,,,,,,,,og-post,,,,AAXX 06114 07535 32970 00306 10129 20036 39932 40244 51001=
07535,1999-10-06 12:00:00,14.4,1023.9,-0.5,50,4.1,20000,11.112,,,30,,,,,,,,,,,og-post,,,,AAXX 06124 07535 32970 00306 10144 20041 39928 40239 58005=
07535,1999-10-06 13:00:00,15.3,1023.1,-1,46,3.8,20000,7.408,,,30,,,,,,,,,,,og-post,,,,AAXX 06134 07535 32970 00304 10153 20038 39922 40231 58010=
07535,1999-10-06 14:00:00,15.9,1022.7,-1.4,44,3.7,,7.408,,,30,,,,,,,,,,,og-post,,,,AAXX 06144 07535 36/// /0304 10159 20037 39918 40227 57014=
07535,1999-10-06 15:00:00,16.2,1022.5,-1.1,45,4.3,20000,11.112,,,40,,,,,,,,,,,og-post,,,,AAXX 06154 07535 32970 00406 10162 20043 39917 40225 56011=
07535,1999-10-06 16:00:00,15.2,1022.3,-0.8,46,3.7,,7.408,,,40,,,,,,,,,,,og-post,,,,AAXX 06164 07535 36/// /0404 10152 20037 39914 40223 56008=
07535,1999-10-06 17:00:00,14,1022.5,-0.4,50,3.8,,3.704,,,30,,,,,,,,,,,og-post,,,,AAXX 06174 07535 36/// /0302 10140 20038 39914 40225 56004=
07535,1999-10-06 18:00:00,11,1023.3,0.2,74,6.6,,3.704,,,150,0.4,16.4,,,,,,,,,og-post,,,,AAXX 06184 07535 36/// /1502 10110 20066 39919 40233 53002 333 10164 20004=
07535,1999-10-06 19:00:00,8.1,1023.9,0.8,87,6.1,,7.408,,,150,,,,,,,,,,,og-post,,,,AAXX 06194 07535 36/// /1504 10081 20061 39922 40239 53008=
07535,1999-10-06 20:00:00,7.2,1024.2,1,87,5.2,,7.408,,,140,,,,,,,,,,,og-post,,,,AAXX 06204 07535 36/// /1404 10072 20052 39924 40242 51010=
07535,1999-10-06 21:00:00,6.7,1024.6,0.8,88,4.9,,7.408,,,130,,,,,,,,,,,og-post,,,,AAXX 06214 07535 36/// /1304 10067 20049 39927 40246 52008=
07535,1999-10-06 22:00:00,6.2,1025.2,1,88,4.4,,3.704,,,120,,,,,,,,,,,og-post,,,,AAXX 06224 07535 36/// /1202 10062 20044 39932 40252 53010=
07535,1999-10-06 23:00:00,6.7,1025.5,1.2,91,5.3,,3.704,,,300,,,,,,,,,,,og-post,,,,AAXX 06234 07535 36/// /3002 10067 20053 39936 40255 53012=
07535,1999-10-07 00:00:00,7.2,1025.3,0.7,84,4.7,,11.112,,,80,,,,,,,,,,,og-post,,,,AAXX 07004 07535 36/// /0806 10072 20047 39934 40253 50007=
07535,1999-10-07 01:00:00,6.1,1025.5,0.3,87,4.1,,3.704,,,130,,,,,,,,,,,og-post,,,,AAXX 07014 07535 36/// /1302 10061 20041 39935 40255 51003=
07535,1999-10-07 02:00:00,6.3,1025.4,-0.2,87,4.3,,3.704,,,130,,,,,,,,,,,og-post,,,,AAXX 07024 07535 36/// /1302 10063 20043 39934 40254 56002=
07535,1999-10-07 03:00:00,5.2,1025.5,0,91,3.9,,7.408,,,150,,,,,,,,,,,og-post,,,,AAXX 07034 07535 36/// /1504 10052 20039 39934 40255 50000=
07535,1999-10-07 04:00:00,4.8,1026.1,0.4,96,4.2,10000,3.704,,,310,,,,,,,,,,,og-post,,,,AAXX 07044 07535 33960 03102 10048 20042 39939 40261 53004=
07535,1999-10-07 06:00:00,3.5,1026.9,1.1,98,3.2,10000,,,,,3.3,11,,,,,,11.1,-0,,og-post,,,,AAXX 07064 07535 33960 00000 10035 20032 39945 40269 51011 333 10110 20033 30100 55111 70000=
07535,1999-10-07 09:00:00,9.7,1028.1,1.9,82,6.8,20000,7.408,,,350,,,,,,,,,,,og-post,,,,AAXX 07094 07535 33970 13504 10097 20068 39964 40281 51019 80001 333 81075=
07535,1999-10-07 12:00:00,18.2,1026.9,-0.2,42,5.1,20000,3.704,,,260,,,,,,,,,,,og-post,,,,AAXX 07124 07535 32970 12602 10182 20051 39962 40269 58002 80001 333 81075=
07535,1999-10-07 13:00:00,18.9,1026.4,-0.6,46,7,20000,7.408,,,190,,,,,,,,,,,og-post,,,,AAXX 07134 07535 32970 11904 10189 20070 39958 40264 58006 80001 333 81075=
07535,1999-10-07 14:00:00,19.4,1026.1,-0.9,39,5.1,25000,3.704,,,230,,,,,,,,,,,og-post,,,,AAXX 07144 07535 32975 12302 10194 20051 39955 40261 58009 80001 333 81075=
07535,1999-10-07 15:00:00,20.2,1025.9,-0.8,39,5.8,25000,3.704,,,290,,,,,,,,,,,og-post,,,,AAXX 07154 07535 32975 12902 10202 20058 39954 40259 56008 80001 333 81075=
07535,1999-10-07 16:00:00,18,1026.7,0.1,42,4.9,,3.704,,,290,,,,,,,,,,,og-post,,,,AAXX 07164 07535 36/// /2902 10180 20049 39959 40267 53001=
07535,1999-10-07 17:00:00,15.3,1027.3,0.8,56,6.6,,7.408,,,320,,,,,,,,,,,og-post,,,,AAXX 07174 07535 36/// /3204 10153 20066 39963 40273 53008=
07535,1999-10-07 18:00:00,13.6,1028.1,1.4,61,6.2,,3.704,,,340,3.2,20.7,,,,,,,,,og-post,,,,AAXX 07184 07535 36/// /3402 10136 20062 39968 40281 52014 333 10207 20032=
07535,1999-10-07 19:00:00,9.2,1029.2,1.5,89,7.5,,3.704,,,160,,,,,,,,,,,og-post,,,,AAXX 07194 07535 36/// /1602 10092 20075 39974 40292 53015=
07535,1999-10-07 20:00:00,7.8,1029.7,1.5,92,6.6,,7.408,,,150,,,,,,,,,,,og-post,,,,AAXX 07204 07535 36/// /1504 10078 20066 39978 40297 51015=
07535,1999-10-07 21:00:00,6.4,1030.2,1.3,95,5.7,,11.112,,,150,,,,,,,,,,,og-post,,,,AAXX 07214 07535 36/// /1506 10064 20057 39981 40302 51013=
07535,1999-10-07 22:00:00,5.8,1030.4,0.8,96,5.2,,7.408,,,150,,,,,,,,,,,og-post,,,,AAXX 07224 07535 36/// /1504 10058 20052 39982 40304 51008=
07535,1999-10-07 23:00:00,5.5,1030.6,0.6,95,4.8,,3.704,,,160,,,,,,,,,,,og-post,,,,AAXX 07234 07535 36/// /1602 10055 20048 39984 40306 51006=
07535,1999-10-08 00:00:00,5.5,1030.5,0.2,95,4.8,,7.408,,,140,,,,,,,,,,,og-post,,,,AAXX 08004 07535 36/// /1404 10055 20048 39983 40305 50002=
07535,1999-10-08 01:00:00,5,1030.8,0.3,97,4.6,,7.408,,,140,,,,,,,,,,,og-post,,,,AAXX 08014 07535 36/// /1404 10050 20046 39985 40308 52003=
07535,1999-10-08 02:00:00,4.4,1031,0.2,98,4.1,,,,,,,,,,,,,,,,og-post,,,,AAXX 08024 07535 36/// /0000 10044 20041 39986 40310 53002=
07535,1999-10-08 03:00:00,4.1,1030.5,-0.2,99,4,,7.408,,,140,,,,,,,,,,,og-post,,,,AAXX 08034 07535 36/// /1404 10041 20040 39981 40305 58002=
07535,1999-10-08 04:00:00,4.2,1030.6,-0.3,99,4.1,6000,7.408,,,130,,,,,,,,,,,og-post,,,,AAXX 08044 07535 32956 01304 10042 20041 39982 40306 57003=
07535,1999-10-08 05:00:00,4.2,1030.9,-0.1,99,4.1,5000,3.704,,,360,,,,,,,,,,,og-post,,,,AAXX 08054 07535 32950 03602 10042 20041 39985 40309 55001=
07535,1999-10-08 06:00:00,3.8,1031.3,0.7,99,3.7,5000,3.704,,,320,3.1,13.6,,,,,,11.1,1,,og-post,,,,AAXX 08064 07535 32950 03202 10038 20037 39988 40313 53007 333 10136 20031 30001 55111 70000=
07535,1999-10-08 07:00:00,3.2,1031.6,0.9,100,3.2,100,7.408,,,140,,,,,,,,,,46,og-post,,,,AAXX 08074 07535 31901 01404 10032 20032 39991 40316 52009 74640=
07535,1999-10-08 08:00:00,6.4,1031.9,1.2,99,6.3,2000,3.704,,,10,,,,,,,,,,28,og-post,,,,AAXX 08084 07535 31920 00102 10064 20063 39997 40319 53012 72840=
07535,1999-10-08 09:00:00,8.8,1031.7,1,93,7.7,,3.704,,,310,,,,,,,,,,,og-post,,,,AAXX 08094 07535 36/// /3102 10088 20077 39998 40317 51010=
07535,1999-10-08 10:00:00,11.7,1031.4,0.8,76,7.6,15000,3.704,,,300,,,,,,,,,,,og-post,,,,AAXX 08104 07535 32965 13002 10117 20076 39999 40314 51008 80001 333 81075=
07535,1999-10-08 11:00:00,14.2,1030.8,-0.2,68,8.4,12000,3.704,,,320,,,,,,,,,,,og-post,,,,AAXX 08114 07535 32562 13202 10142 20084 39995 40308 58002 81101 333 81826=
07535,1999-10-08 12:00:00,15.1,1030.4,-0.6,58,6.9,15000,7.408,,,340,,,,,,,,,,2,og-post,,,,AAXX 08124 07535 31565 13404 10151 20069 39992 40304 58006 70240 81101 333 81826=
07535,1999-10-08 13:00:00,15.9,1029.6,-1.3,58,7.7,15000,11.112,,,350,,,,,,,,,,,og-post,,,,AAXX 08134 07535 32565 13506 10159 20077 39986 40296 58013 81101 333 81826=
07535,1999-10-08 14:00:00,16.5,1028.9,-1.6,54,7.2,15000,7.408,,,350,,,,,,,,,,,og-post,,,,AAXX 08144 07535 32965 13504 10165 20072 39979 40289 58016 80001 333 81075=
07535,1999-10-08 15:00:00,16.9,1028.7,-1.4,46,5.2,15000,7.408,,,360,,,,,,,,,,,og-post,,,,AAXX 08154 07535 32965 13604 10169 20052 39978 40287 56014 80001 333 81075=
07535,1999-10-08 16:00:00,16.2,1028.5,-1.1,56,7.4,,7.408,,,320,,,,,,,,,,,og-post,,,,AAXX 08164 07535 36/// /3204 10162 20074 39975 40285 56011=
07535,1999-10-08 17:00:00,14.5,1028.6,-0.5,65,8,,3.704,,,300,,,,,,,,,,,og-post,,,,AAXX 08174 07535 36/// /3002 10145 20080 39974 40286 57005=
07535,1999-10-08 18:00:00,12.8,1029.2,-0,74,8.3,,7.408,,,310,2.2,17.6,,,,,,,,,og-post,,,,AAXX 08184 07535 36/// /3104 10128 20083 39978 40292 55000 333 10176 20022=
07535,1999-10-08 19:00:00,10.6,1029.7,0.6,89,8.9,,,,,,,,,,,,,,,,og-post,,,,AAXX 08194 07535 36/// /0000 10106 20089 39981 40297 53006=
07535,1999-10-08 20:00:00,9.3,1029.9,0.7,93,8.2,,7.408,,,150,,,,,,,,,,,og-post,,,,AAXX 08204 07535 36/// /1504 10093 20082 39981 40299 51007=
07535,1999-10-08 21:00:00,8.5,1030.5,0.8,96,7.9,,,,,,,,,,,,,,,,og-post,,,,AAXX 08214 07535 36/// /0000 10085 20079 39986 40305 53008=
07535,1999-10-08 22:00:00,7.7,1030.7,0.6,97,7.3,,3.704,,,160,,,,,,,,,,,og-post,,,,AAXX 08224 07535 36/// /1602 10077 20073 39987 40307 53006=
07535,1999-10-08 23:00:00,7.6,1030.9,0.8,98,7.3,,,,,,,,,,,,,,,,og-post,,,,AAXX 08234 07535 36/// /0000 10076 20073 39989 40309 51008=
07535,1999-10-09 00:00:00,7.2,1030.7,0.1,98,6.9,,,,,,,,,,,,,,,,og-post,,,,AAXX 09004 07535 36/// /0000 10072 20069 39987 40307 50001=
07535,1999-10-09 01:00:00,6.9,1030.7,-0.1,98,6.6,,,,,,,,,,,,,,,,og-post,,,,AAXX 09014 07535 36/// /0000 10069 20066 39986 40307 58001=
07535,1999-10-09 02:00:00,6.6,1030.6,-0.4,99,6.5,,,,,,,,,,,,,,,,og-post,,,,AAXX 09024 07535 36/// /0000 10066 20065 39985 40306 56004=
07535,1999-10-09 03:00:00,6.7,1030.2,-0.6,99,6.6,,3.704,,,150,,,,,,,,,,,og-post,,,,AAXX 09034 07535 36/// /1502 10067 20066 39981 40302 58006=
07535,1999-10-09 04:00:00,6.3,1029.8,-0.9,99,6.2,6000,7.408,,,140,,,,,,,,,,,og-post,,,,AAXX 09044 07535 32656 41404 10063 20062 39977 40298 58009 83502 333 83640 83075=
07535,1999-10-09 05:00:00,8,1029.7,-0.7,99,7.9,6000,,,,,,,,,,,,,,,og-post,,,,AAXX 09054 07535 32656 60000 10080 20079 39978 40297 55007 85502 333 85640 83075=
07535,1999-10-09 06:00:00,7.6,1029.7,-0.3,99,7.5,4000,3.704,,,150,5.9,12.8,,,,,0,9.4,3,10,og-post,,,,AAXX 09064 07535 31540 71502 10076 20075 39978 40297 56003 71011 875// 333 10128 20059 30003 55094 70000 87626=
07535,1999-10-09 07:00:00,8.6,1029.8,0.3,99,8.5,7000,7.408,,,150,,,,,,,,,,,og-post,,,,AAXX 09074 07535 32657 71504 10086 20085 39980 40298 53003 875// 333 87640=
07535,1999-10-09 08:00:00,7.9,1030.6,0.9,99,7.8,3000,7.408,,,10,,,,,,,,,,10,og-post,,,,AAXX 09084 07535 31330 80104 10079 20078 39987 40306 53009 71022 885// 333 84706 86640=
07535,1999-10-09 09:00:00,9.4,1030.7,1.1,99,9.2,5000,3.704,,,140,,,,,,,,,,,og-post,,,,AAXX 09094 07535 32350 81402 10094 20092 39989 40307 52011 885// 333 82706 86640=
07535,1999-10-09 10:00:00,11.2,1030.5,1,96,10.6,7000,3.704,,,190,,,,,,,,,,,og-post,,,,AAXX 09104 07535 32357 81902 10112 20106 39990 40305 51010 885// 333 82706 87640=
07535,1999-10-09 11:00:00,12.1,1030.5,0.3,89,10.3,,,,,,,,,,,,,,,,og-post,,,,AAXX 09114 07535 36/// /0000 10121 20103 39990 40305 51003=
07535,1999-10-09 12:00:00,12.7,1030,-0.3,89,10.9,,3.704,,,10,,,,,,,,,,,og-post,,,,AAXX 09124 07535 36/// /0102 10127 20109 39986 40300 58003=
07535,1999-10-09 13:00:00,13.4,1029.4,-0.9,88,11.5,,3.704,,,360,,,,,,,,,,,og-post,,,,AAXX 09134 07535 36/// /3602 10134 20115 39981 40294 58009=
07535,1999-10-09 14:00:00,14.4,1028.9,-1.2,81,11.2,,3.704,,,360,,,,,,,,,,,og-post,,,,AAXX 09144 07535 36/// /3602 10144 20112 39978 40289 56012=
07535,1999-10-09 15:00:00,14.8,1028.6,-1.1,79,11.2,,3.704,,,320,,,,,,,,,,,og-post,,,,AAXX 09154 07535 36/// /3202 10148 20112 39975 40286 56011=
07535,1999-10-09 16:00:00,14.2,1028.5,-0.8,82,11.2,,3.704,,,320,,,,,,,,,,,og-post,,,,AAXX 09164 07535 36/// /3202 10142 20112 39973 40285 56008=
07535,1999-10-09 17:00:00,13.7,1028.4,-0.6,85,11.2,,3.704,,,310,,,,,,,,,,,og-post,,,,AAXX 09174 07535 36/// /3102 10137 20112 39972 40284 56006=
07535,1999-10-09 18:00:00,12.9,1028.8,-0,90,11.3,,3.704,,,360,7.6,14.9,,,,,,,,,og-post,,,,AAXX 09184 07535 36/// /3602 10129 20113 39975 40288 55000 333 10149 20076=
07535,1999-10-09 19:00:00,12.2,1028.9,0.2,93,11.1,,,,,,,,,,,,,,,,og-post,,,,AAXX 09194 07535 36/// /0000 10122 20111 39975 40289 53002=
07535,1999-10-09 20:00:00,12,1029,0.4,94,11.1,,,,,,,,,,,,,,,,og-post,,,,AAXX 09204 07535 36/// /0000 10120 20111 39976 40290 51004=
07535,1999-10-09 21:00:00,11.9,1029.1,0.2,95,11.1,,3.704,,,360,,,,,,,,,,,og-post,,,,AAXX 09214 07535 36/// /3602 10119 20111 39977 40291 53002=
07535,1999-10-09 22:00:00,10.6,1029.1,0,97,10.1,,,,,,,,,,,,,,,,og-post,,,,AAXX 09224 07535 36/// /0000 10106 20101 39975 40291 50000=
07535,1999-10-09 23:00:00,8.6,1029.2,-0.2,98,8.3,,7.408,,,140,,,,,,,,,,,og-post,,,,AAXX 09234 07535 36/// /1404 10086 20083 39974 40292 58002=
07535,1999-10-10 00:00:00,7.6,1029.3,-0.3,98,7.3,,7.408,,,150,,,,,,,,,,,og-post,,,,AAXX 10004 07535 36/// /1504 10076 20073 39974 40293 56003=
07535,1999-10-10 01:00:00,6.9,1029.3,-0.2,97,6.5,,,,,,,,,,,,,,,,og-post,,,,AAXX 10014 07535 36/// /0000 10069 20065 39973 40293 57002=
07535,1999-10-10 02:00:00,6.3,1028.8,-0.7,98,6,,3.704,,,10,,,,,,,,,,,og-post,,,,AAXX 10024 07535 36/// /0102 10063 20060 39967 40288 58007=
07535,1999-10-10 03:00:00,5.8,1028.3,-1.2,99,5.7,,3.704,,,100,,,,,,,,,,,og-post,,,,AAXX 10034 07535 36/// /1002 10058 20057 39962 40283 58012=
07535,1999-10-10 04:00:00,4.9,1028.5,-1,99,4.8,200,3.704,,,130,,,,,,,,,,46,og-post,,,,AAXX 10044 07535 31902 01302 10049 20048 39963 40285 55010 74640=
07535,1999-10-10 05:00:00,4.5,1028.6,-0.4,99,4.4,100,3.704,,,190,,,,,,,,,,46,og-post,,,,AAXX 10054 07535 31901 01902 10045 20044 39963 40286 56004 74644=
07535,1999-10-10 06:00:00,3.7,1028.8,0.2,100,3.7,1500,3.704,,,140,3.7,13,,,,,0,0.1,2,28,og-post,,,,AAXX 10064 07535 31615 21402 10037 20037 39964 40288 52002 72840 82500 333 10130 20037 30002 55001 70000 82640=
07535,1999-10-10 07:00:00,5.1,1028.9,0.4,100,5.1,1500,,,,,,,,,,,,,,10,og-post,,,,AAXX 10074 07535 31915 30000 10051 20051 39967 40289 53004 71000 80002 333 83075=
07535,1999-10-10 08:00:00,7.3,1028.9,0.6,99,7.2,100,,,,,,,,,,,,,,46,og-post,,,,AAXX 10084 07535 31901 30000 10073 20072 39969 40289 53006 74640 80002 333 83075=
07535,1999-10-10 09:00:00,8.9,1029.1,0.9,98,8.6,300,3.704,,,330,,,,,,,,,,42,og-post,,,,AAXX 10094 07535 31903 33302 10089 20086 39973 40291 53009 74240 80002 333 83075=
07535,1999-10-10 10:00:00,12.4,1028.4,0.3,83,9.6,10000,3.704,,,330,,,,,,,,,,28,og-post,,,,AAXX 10104 07535 31960 33302 10124 20096 39970 40284 50003 72840 80002 333 83075=
07535,1999-10-10 11:00:00,13.9,1027.9,-0.2,74,9.3,,3.704,,,30,,,,,,,,,,,og-post,,,,AAXX 10114 07535 36/// /0302 10139 20093 39967 40279 58002=
07535,1999-10-10 12:00:00,15.7,1027.3,-1,65,9.1,,3.704,,,300,,,,,,,,,,,og-post,,,,AAXX 10124 07535 36/// /3002 10157 20091 39963 40273 58010=
07535,1999-10-10 13:00:00,17.1,1026.6,-1.2,59,9,,7.408,,,300,,,,,,,,,,,og-post,,,,AAXX 10134 07535 36/// /3004 10171 20090 39958 40266 58012=
07535,1999-10-10 14:00:00,17.2,1026.2,-1.3,58,8.9,,7.408,,,350,,,,,,,,,,,og-post,,,,AAXX 10144 07535 36/// /3504 10172 20089 39954 40262 57013=
07535,1999-10-10 15:00:00,17.4,1025.5,-1.5,59,9.3,,7.408,,,30,,,,,,,,,,,og-post,,,,AAXX 10154 07535 36/// /0304 10174 20093 39948 40255 58015=
07535,1999-10-10 16:00:00,16.5,1025.5,-1.1,64,9.7,,7.408,,,360,,,,,,,,,,,og-post,,,,AAXX 10164 07535 36/// /3604 10165 20097 39947 40255 56011=
07535,1999-10-10 17:00:00,15.2,1025.6,-0.8,72,10.2,,3.704,,,290,,,,,,,,,,,og-post,,,,AAXX 10174 07535 36/// /2902 10152 20102 39946 40256 56008=
07535,1999-10-10 18:00:00,12.4,1026,-0.1,88,10.5,,3.704,,,150,3.8,17.7,,,,,,,,,og-post,,,,AAXX 10184 07535 36/// /1502 10124 20105 39947 40260 55001 333 10177 20038=
07535,1999-10-10 19:00:00,10.2,1026.8,0.5,95,9.4,,7.408,,,160,,,,,,,,,,,og-post,,,,AAXX 10194 07535 36/// /1604 10102 20094 39952 40268 53005=
07535,1999-10-10 20:00:00,8.8,1026.7,0.4,97,8.3,,7.408,,,140,,,,,,,,,,,og-post,,,,AAXX 10204 07535 36/// /1404 10088 20083 39950 40267 50004=
07535,1999-10-10 21:00:00,8.2,1027.1,0.6,98,7.9,,7.408,,,140,,,,,,,,,,,og-post,,,,AAXX 10214 07535 36/// /1404 10082 20079 39953 40271 51006=
07535,1999-10-10 22:00:00,7.7,1027.7,0.6,98,7.4,,3.704,,,170,,,,,,,,,,,og-post,,,,AAXX 10224 07535 36/// /1702 10077 20074 39958 40277 53006=
07535,1999-10-10 23:00:00,7.7,1027.4,0.5,99,7.6,,3.704,,,140,,,,,,,,,,,og-post,,,,AAXX 10234 07535 36/// /1402 10077 20076 39955 40274 50005=
07535,1999-10-11 00:00:00,7.4,1027.1,-0.1,99,7.3,,7.408,,,140,,,,,,,,,,,og-post,,,,AAXX 11004 07535 36/// /1404 10074 20073 39952 40271 58001=
07535,1999-10-11 01:00:00,6.9,1026.7,-1,99,6.8,,7.408,,,120,,,,,,,,,,,og-post,,,,AAXX 11014 07535 36/// /1204 10069 20068 39948 40267 58010=
07535,1999-10-11 02:00:00,6.9,1026.5,-0.9,99,6.8,,3.704,,,70,,,,,,,,,,,og-post,,,,AAXX 11024 07535 36/// /0702 10069 20068 39946 40265 56009=
07535,1999-10-11 03:00:00,7.1,1026.2,-0.9,99,7,,3.704,,,30,,,,,,,,,,,og-post,,,,AAXX 11034 07535 36/// /0302 10071 20070 39943 40262 56009=
07535,1999-10-11 04:00:00,5.9,1026.2,-0.6,99,5.8,,3.704,,,140,,,,,,,,,,,og-post,,,,AAXX 11044 07535 36/// /1402 10059 20058 39942 40262 56006=
07535,1999-10-11 05:00:00,5.8,1026.5,-0.2,99,5.7,,,,,,,,,,,,,,,,og-post,,,,AAXX 11054 07535 36/// /0000 10058 20057 39944 40265 55002=
07535,1999-10-11 06:00:00,5.2,1026.8,0.4,99,5.1,500,3.704,,,50,5,12.3,,,,,0,9.6,3,46,og-post,,,,AAXX 11064 07535 31905 10502 10052 20051 39947 40268 53004 74644 80001 333 10123 20050 30003 55096 70000 81075=
07535,1999-10-11 07:00:00,6,1027.2,0.9,99,5.9,900,3.704,,,320,,,,,,,,,,44,og-post,,,,AAXX 11074 07535 31909 13202 10060 20059 39951 40272 53009 74444 80001 333 81075=
07535,1999-10-11 08:00:00,6.4,1027.5,1.1,99,6.3,100,3.704,,,360,,,,,,,,,,46,og-post,,,,AAXX 11084 07535 31901 13602 10064 20063 39955 40275 53011 74644 80001 333 81075=
07535,1999-10-11 09:00:00,8.9,1027.5,1.1,99,8.8,300,3.704,,,10,,,,,,,,,,44,og-post,,,,AAXX 11094 07535 31903 00102 10089 20088 39958 40275 51011 74444=
07535,1999-10-11 10:00:00,11.9,1027.2,0.7,90,10.3,5000,3.704,,,300,,,,,,,,,,28,og-post,,,,AAXX 11104 07535 31950 23002 10119 20103 39958 40272 51007 72840 80001 333 82075=
07535,1999-10-11 11:00:00,15.4,1026.5,0,76,11.2,,3.704,,,340,,,,,,,,,,,og-post,,,,AAXX 11114 07535 36/// /3402 10154 20112 39955 40265 50000=
07535,1999-10-11 12:00:00,17.6,1025.4,-1.1,66,11.2,15000,3.704,,,30,,,,,,,,,,3,og-post,,,,AAXX 11124 07535 31965 40302 10176 20112 39947 40254 58011 70340 80001 333 84075=
07535,1999-10-11 13:00:00,18.9,1024.4,-1.9,63,11.7,,7.408,,,10,,,,,,,,,,,og-post,,,,AAXX 11134 07535 36/// /0104 10189 20117 39939 40244 58019=
07535,1999-10-11 14:00:00,19.1,1024.3,-1.7,64,12.1,15000,7.408,,,330,,,,,,,,,,,og-post,,,,AAXX 11144 07535 32965 43304 10191 20121 39938 40243 56017 80001 333 84075=
07535,1999-10-11 15:00:00,19.4,1023.9,-1.3,59,11.2,15000,7.408,,,20,,,,,,,,,,,og-post,,,,AAXX 11154 07535 32965 40204 10194 20112 39934 40239 56013 80001 333 84075=
07535,1999-10-11 16:00:00,17.9,1024.1,-0.4,62,10.5,,7.408,,,350,,,,,,,,,,,og-post,,,,AAXX 11164 07535 36/// /3504 10179 20105 39935 40241 55004=
07535,1999-10-11 17:00:00,16.4,1024.4,-0.2,71,11.1,,3.704,,,30,,,,,,,,,,,og-post,,,,AAXX 11174 07535 36/// /0302 10164 20111 39936 40244 55002=
07535,1999-10-11 18:00:00,13.6,1025.1,0.6,87,11.5,,3.704,,,150,4.8,19.7,,,,,,,,,og-post,,,,AAXX 11184 07535 36/// /1502 10136 20115 39940 40251 53006 333 10197 20048=
07535,1999-10-11 19:00:00,11.6,1025.3,0.5,94,10.7,,7.408,,,140,,,,,,,,,,,og-post,,,,AAXX 11194 07535 36/// /1404 10116 20107 39940 40253 51005=
07535,1999-10-11 20:00:00,11.4,1025.6,0.6,90,9.8,,11.112,,,150,,,,,,,,,,,og-post,,,,AAXX 11204 07535 36/// /1506 10114 20098 39942 40256 51006=
07535,1999-10-11 21:00:00,10.9,1025.3,-0.1,91,9.5,,3.704,,,100,,,,,,,,,,,og-post,,,,AAXX 11214 07535 36/// /1002 10109 20095 39939 40253 58001=
07535,1999-10-11 22:00:00,10.6,1025.4,-0.1,91,9.2,,3.704,,,130,,,,,,,,,,,og-post,,,,AAXX 11224 07535 36/// /1302 10106 20092 39939 40254 58001=
07535,1999-10-11 23:00:00,9.5,1025.1,-0.7,97,9,,7.408,,,130,,,,,,,,,,,og-post,,,,AAXX 11234 07535 36/// /1304 10095 20090 39935 40251 58007=
07535,1999-10-12 00:00:00,9.6,1025.2,-0.3,97,9.1,,3.704,,,40,,,,,,,,,,,og-post,,,,AAXX 12004 07535 36/// /0402 10096 20091 39936 40252 55003=
07535,1999-10-12 01:00:00,8.8,1025.2,-0.4,98,8.5,,,,,,,,,,,,,,,,og-post,,,,AAXX 12014 07535 36/// /0000 10088 20085 39935 40252 56004=
07535,1999-10-12 02:00:00,9,1024.4,-0.7,99,8.9,,3.704,,,30,,,,,,,,,,,og-post,,,,AAXX 12024 07535 36/// /0302 10090 20089 39928 40244 58007=
07535,1999-10-12 03:00:00,6.9,1024.7,-0.8,98,6.6,,3.704,,,140,,,,,,,,,,,og-post,,,,AAXX 12034 07535 36/// /1402 10069 20066 39928 40247 56008=
07535,1999-10-12 04:00:00,7.9,1024.6,-0.7,99,7.8,,,,,,,,,,,,,,,,og-post,,,,AAXX 12044 07535 36/// /0000 10079 20078 39928 40246 56007=
07535,1999-10-12 05:00:00,8.1,1024.6,0.1,99,8,900,3.704,,,330,,,,,,,,,,44,og-post,,,,AAXX 12054 07535 31909 23302 10081 20080 39929 40246 53001 74444 80001 333 82075=
07535,1999-10-12 06:00:00,6.7,1025,0.3,99,6.6,4500,7.408,,,130,6.3,13.5,,,,,0,8.3,2,28,og-post,,,,AAXX 12064 07535 31945 31304 10067 20066 39931 40250 53003 72840 80001 333 10135 20063 30002 55083 70000 83075=
07535,1999-10-12 07:00:00,8.1,1024.8,0.3,99,8,4500,7.408,,,130,,,,,,,,,,10,og-post,,,,AAXX 12074 07535 31945 41304 10081 20080 39931 40248 51003 71000 80001 333 84075=
07535,1999-10-12 08:00:00,11.8,1024.3,0.1,91,10.4,5000,7.408,,,120,,,,,,,,,,,og-post,,,,AAXX 12084 07535 32950 41204 10118 20104 39930 40243 50001 80002 333 84075=
07535,1999-10-12 09:00:00,11.6,1024.5,0.1,88,9.7,,,,,,,,,,,,,,,,og-post,,,,AAXX 12094 07535 36/// /0000 10116 20097 39932 40245 53001=
07535,1999-10-12 10:00:00,13.7,1024.1,-0.1,85,11.2,13000,3.704,,,330,,,,,,,,,,,og-post,,,,AAXX 12104 07535 32963 63302 10137 20112 39930 40241 58001 80002 333 86075=
07535,1999-10-12 11:00:00,16.1,1023.8,0,78,12.3,,7.408,,,340,,,,,,,,,,,og-post,,,,AAXX 12114 07535 36/// /3404 10161 20123 39930 40238 50000=
07535,1999-10-12 12:00:00,18.1,1022.6,-1.2,71,12.8,15000,7.408,,,350,,,,,,,,,,,og-post,,,,AAXX 12124 07535 32965 63504 10181 20128 39920 40226 58012 80002 333 86075=
07535,1999-10-12 13:00:00,18.5,1022,-1.5,68,12.5,15000,7.408,,,330,,,,,,,,,,,og-post,,,,AAXX 12134 07535 32965 73304 10185 20125 39915 40220 58015 80002 333 87075=
07535,1999-10-12 14:00:00,18.3,1021.4,-2.1,70,12.7,15000,7.408,,,330,,,,,,,,,,,og-post,,,,AAXX 12144 07535 32965 83304 10183 20127 39909 40214 56021 80002 333 87075=
07535,1999-10-12 15:00:00,18.1,1021.3,-1.2,73,13.2,15000,3.704,,,350,,,,,,,,,,,og-post,,,,AAXX 12154 07535 32965 83502 10181 20132 39908 40213 56012 80002 333 88075=
07535,1999-10-12 16:00:00,17.6,1021.4,-0.7,77,13.5,,,,,,,,,,,,,,,,og-post,,,,AAXX 12164 07535 36/// /0000 10176 20135 39908 40214 56007=
07535,1999-10-12 17:00:00,16.4,1021.5,-0.1,87,14.2,,3.704,,,190,,,,,,,,,,,og-post,,,,AAXX 12174 07535 36/// /1902 10164 20142 39908 40215 56001=
07535,1999-10-12 18:00:00,15.2,1021.9,0.3,93,14.1,,7.408,,,130,6.5,18.6,,,,,,,,,og-post,,,,AAXX 12184 07535 36/// /1304 10152 20141 39911 40219 53003 333 10186 20065=
07535,1999-10-12 19:00:00,15,1022.2,0.5,90,13.4,,7.408,,,130,,,,,,,,,,,og-post,,,,AAXX 12194 07535 36/// /1304 10150 20134 39913 40222 53005=
07535,1999-10-12 20:00:00,15.5,1022.1,0.5,80,12.1,,7.408,,,120,,,,,,,,,,,og-post,,,,AAXX 12204 07535 36/// /1204 10155 20121 39913 40221 51005=
07535,1999-10-12 21:00:00,15.4,1021.9,0,81,12.2,,7.408,,,120,,,,,,,,,,,og-post,,,,AAXX 12214 07535 36/// /1204 10154 20122 39911 40219 50000=
07535,1999-10-12 22:00:00,15.1,1021.8,-0.3,83,12.2,,7.408,,,120,,,,,,,,,,,og-post,,,,AAXX 12224 07535 36/// /1204 10151 20122 39910 40218 58003=
07535,1999-10-12 23:00:00,15.9,1021.5,-0.6,78,12.1,,14.816,,,130,,,,,,,,,,,og-post,,,,AAXX 12234 07535 36/// /1308 10159 20121 39907 40215 58006=
07535,1999-10-13 00:00:00,16.1,1021.3,-0.5,75,11.7,,14.816,,,130,,,,,,,,,,,og-post,,,,AAXX 13004 07535 36/// /1308 10161 20117 39906 40213 57005=
07535,1999-10-13 01:00:00,16.2,1020.9,-0.8,76,12,,14.816,,,130,,,,,,,,,,,og-post,,,,AAXX 13014 07535 36/// /1308 10162 20120 39902 40209 58008=
07535,1999-10-13 02:00:00,16.1,1020.8,-0.6,76,11.9,,11.112,,,130,,,,,,,,,,,og-post,,,,AAXX 13024 07535 36/// /1306 10161 20119 39901 40208 57006=
07535,1999-10-13 03:00:00,15.9,1020.6,-0.7,78,12.1,,7.408,,,120,,,,,,,,,,,og-post,,,,AAXX 13034 07535 36/// /1204 10159 20121 39899 40206 56007=
07535,1999-10-13 04:00:00,15.1,1020.5,-0.5,87,13,8000,18.52,,,130,,,,,,,,,,,og-post,,,,AAXX 13044 07535 32658 81310 10151 20130 39897 40205 58005 8457/ 333 84646 86361=
07535,1999-10-13 05:00:00,15.1,1020.5,-0.4,86,12.8,8000,14.816,,,130,,,,,,,,,,,og-post,,,,AAXX 13054 07535 32658 81308 10151 20128 39897 40205 56004 8457/ 333 84646 86361=
07535,1999-10-13 06:00:00,15.2,1020.6,-0.1,84,12.5,10000,11.112,,,130,14.7,16.2,,,,,0,5.5,13,,og-post,,,,AAXX 13064 07535 32660 81306 10152 20125 39898 40206 55001 8457/ 333 10162 20147 30013 55055 70000 84646 86361=
07535,1999-10-13 07:00:00,15.1,1020.9,0.4,86,12.8,10000,11.112,,,120,,,,,,,,,,,og-post,,,,AAXX 13074 07535 32660 81206 10151 20128 39901 40209 53004 8457/ 333 84646 86361=
07535,1999-10-13 08:00:00,15.7,1021.5,1,82,12.6,,7.408,,,130,,,,,,,,,,,og-post,,,,AAXX 13084 07535 36/// /1304 10157 20126 39907 40215 53010=
07535,1999-10-13 09:00:00,15.7,1021.8,1.2,80,12.3,10000,7.408,,,120,,,,,,,,,,,og-post,,,,AAXX 13094 07535 32660 81204 10157 20123 39910 40218 52012 8457/ 333 84646 86361=
07535,1999-10-13 10:00:00,16.1,1021.9,1.1,81,12.8,,11.112,,,140,,,,,,,,,,,og-post,,,,AAXX 13104 07535 36/// /1406 10161 20128 39912 40219 51011=
07535,1999-10-13 11:00:00,16.7,1022,0.6,80,13.2,12000,7.408,,,140,,,,,,,,,,,og-post,,,,AAXX 13114 07535 32662 81404 10167 20132 39913 40220 51006 8457/ 333 84646 86361=
07535,1999-10-13 12:00:00,17.5,1021.4,-0.2,76,13.2,15000,11.112,,,160,,,,,,,,,,,og-post,,,,AAXX 13124 07535 32665 71606 10175 20132 39908 40214 58002 8457/ 333 84646 86361=
07535,1999-10-13 13:00:00,17,1021.1,-0.7,84,14.3,12000,7.408,,,180,,,0.2,,,,,,,60,og-post,,,,AAXX 13134 07535 21662 71804 10170 20143 39905 40211 58007 76062 8457/ 333 69925 84646 86361=
07535,1999-10-13 14:00:00,17.7,1020.9,-0.9,82,14.6,12000,7.408,,,170,,,,,,,,,,21,og-post,,,,AAXX 13144 07535 21562 71704 10177 20146 39904 40209 56009 72162 8487/ 333 69905 81823 83643 85361=
07535,1999-10-13 15:00:00,17.5,1020.8,-0.5,85,14.9,15000,3.704,,,140,,,,0.2,,,,,,3,og-post,,,,AAXX 13154 07535 21565 81402 10175 20149 39903 40208 56005 70362 8487/ 333 69927 82823 83646 85361=
07535,1999-10-13 16:00:00,17.6,1020.8,-0.2,83,14.7,,3.704,,,130,,,,,,,,,,,og-post,,,,AAXX 13164 07535 36/// /1302 10176 20147 39903 40208 56002=
07535,1999-10-13 17:00:00,16.8,1021.1,0.1,88,14.8,,3.704,,,90,,,,,,,,,,,og-post,,,,AAXX 13174 07535 36/// /0902 10168 20148 39905 40211 53001=
07535,1999-10-13 18:00:00,16.3,1021.5,0.5,93,15.2,,3.704,,,120,15.1,17.8,,0.4,,0.6,,,,,og-post,,,,AAXX 13184 07535 /6/// /1202 10163 20152 39908 40215 53005 69962 333 10178 20151 69947=
07535,1999-10-13 19:00:00,15.7,1021.7,0.7,96,15.1,,3.704,,,120,,,,,,,,,,,og-post,,,,AAXX 13194 07535 36/// /1202 10157 20151 39910 40217 52007=
07535,1999-10-13 20:00:00,15.1,1021.8,0.5,96,14.5,,11.112,,,130,,,,,,,,,,,og-post,,,,AAXX 13204 07535 36/// /1306 10151 20145 39910 40218 51005=
07535,1999-10-13 21:00:00,15.1,1022.2,0.6,94,14.1,,7.408,,,140,,,,,,,,,,,og-post,,,,AAXX 13214 07535 36/// /1404 10151 20141 39914 40222 53006=
07535,1999-10-13 22:00:00,14.5,1022.4,0.5,96,13.9,,7.408,,,130,,,,,,,,,,,og-post,,,,AAXX 13224 07535 36/// /1304 10145 20139 39915 40224 53005=
07535,1999-10-13 23:00:00,14.5,1022.2,0.3,95,13.7,,11.112,,,140,,,,,,,,,,,og-post,,,,AAXX 13234 07535 36/// /1406 10145 20137 39913 40222 50003=
07535,1999-10-14 00:00:00,14.5,1022.3,-0,95,13.7,,11.112,,,140,,,,,,,,,,,og-post,,,,AAXX 14004 07535 36/// /1406 10145 20137 39914 40223 54000=
07535,1999-10-14 01:00:00,14.5,1022.5,0.1,95,13.7,,,,,,,,,,,,,,,,og-post,,,,AAXX 14014 07535 36/// /0000 10145 20137 39916 40225 53001=
07535,1999-10-14 02:00:00,14.9,1022.1,-0.1,93,13.8,,7.408,,,140,,,,,,,,,,,og-post,,,,AAXX 14024 07535 36/// /1404 10149 20138 39912 40221 58001=
07535,1999-10-14 03:00:00,14.7,1021.8,-0.5,94,13.7,,7.408,,,130,,,,,,,,,,,og-post,,,,AAXX 14034 07535 36/// /1304 10147 20137 39909 40218 58005=
07535,1999-10-14 04:00:00,14.1,1021.8,-0.7,95,13.3,8000,3.704,,,130,,,,,,,,,,,og-post,,,,AAXX 14044 07535 32958 31302 10141 20133 39909 40218 56007 80002 333 83073=
07535,1999-10-14 05:00:00,13.6,1021.7,-0.5,97,13.1,8000,3.704,,,130,,,,,,,,,,,og-post,,,,AAXX 14054 07535 32958 31302 10136 20131 39907 40217 56005 81032 333 81360 83073=
07535,1999-10-14 06:00:00,12.8,1021.9,-0.1,98,12.5,5000,3.704,,,100,12.6,16.3,,,,,0.6,0.1,9,,og-post,,,,AAXX 14064 07535 32950 51002 10128 20125 39908 40219 55001 83032 333 10163 20126 31009 55001 70006 83360 83073=
07535,1999-10-14 07:00:00,13.4,1022.5,0.6,98,13.1,6000,,,,,,,,,,,,,,,og-post,,,,AAXX 14074 07535 32956 50000 10134 20131 39915 40225 53006 83032 333 83360 83073=
07535,1999-10-14 08:00:00,14.1,1023.1,1.4,97,13.6,7000,,,,,,,,,,,,,,,og-post,,,,AAXX 14084 07535 32657 60000 10141 20136 39921 40231 53014 84532 333 84643 83073=
07535,1999-10-14 09:00:00,16.2,1022.7,1.2,89,14.4,,3.704,,,320,,,,,,,,,,,og-post,,,,AAXX 14094 07535 36/// /3202 10162 20144 39920 40227 50012=
07535,1999-10-14 10:00:00,17.5,1022.4,0.3,84,14.8,15000,3.704,,,320,,,,,,,,,,,og-post,,,,AAXX 14104 07535 32465 63202 10175 20148 39918 40224 50003 84830 333 81816 84650=
07535,1999-10-14 11:00:00,20,1022.1,-0.3,73,15,12000,3.704,,,250,,,,,,,,,,,og-post,,,,AAXX 14114 07535 32562 62502 10200 20150 39918 40221 56003 82802 333 82826 84073=
07535,1999-10-14 12:00:00,20.3,1021.5,-0.8,72,15.1,15000,3.704,,,70,,,,,,,,,,,og-post,,,,AAXX 14124 07535 32565 70702 10203 20151 39912 40215 58008 84802 333 83826 84073=
07535,1999-10-14 13:00:00,20.2,1021.1,-1,72,15,15000,3.704,,,20,,,,,,,,,,,og-post,,,,AAXX 14134 07535 32565 70202 10202 20150 39908 40211 58010 85802 333 83826 84073=
07535,1999-10-14 14:00:00,20.9,1020.8,-1.2,68,14.8,15000,3.704,,,360,,,0.2,,,,,,,,og-post,,,,AAXX 14144 07535 22565 53602 10209 20148 39906 40208 56012 85800 333 69925 82826 83646=
07535,1999-10-14 15:00:00,21.9,1020.6,-0.7,66,15.3,1500,3.704,,,300,,,,,,,,,,,og-post,,,,AAXX 14154 07535 32515 53002 10219 20153 39905 40206 56007 84830 333 82826 83646=
07535,1999-10-14 16:00:00,20,1020.5,-0.6,72,14.8,,7.408,,,320,,,,,,,,,,,og-post,,,,AAXX 14164 07535 36/// /3204 10200 20148 39902 40205 58006=
07535,1999-10-14 17:00:00,18.1,1020.9,-0.2,82,15,,3.704,,,300,,,,,,,,,,,og-post,,,,AAXX 14174 07535 36/// /3002 10181 20150 39904 40209 55002=
07535,1999-10-14 18:00:00,16.2,1021.4,0.2,93,15.1,,,,,,12.5,22.4,,,,,,,,,og-post,,,,AAXX 14184 07535 36/// /0000 10162 20151 39907 40214 53002 333 10224 20125=
07535,1999-10-14 19:00:00,15.3,1021.5,0.5,95,14.5,,,,,,,,,,,,,,,,og-post,,,,AAXX 14194 07535 36/// /0000 10153 20145 39907 40215 51005=
07535,1999-10-14 20:00:00,14.3,1021.7,0.4,97,13.8,,3.704,,,160,,,,,,,,,,,og-post,,,,AAXX 14204 07535 36/// /1602 10143 20138 39908 40217 51004=
07535,1999-10-14 21:00:00,13.6,1021.8,0.1,98,13.3,,7.408,,,140,,,,,,,,,,,og-post,,,,AAXX 14214 07535 36/// /1404 10136 20133 39908 40218 52001=
07535,1999-10-14 22:00:00,13.4,1021.7,0,98,13.1,,7.408,,,150,,,,,,,,,,,og-post,,,,AAXX 14224 07535 36/// /1504 10134 20131 39907 40217 50000=
07535,1999-10-14 23:00:00,13,1021.7,-0.2,99,12.8,,3.704,,,160,,,,,,,,,,,og-post,,,,AAXX 14234 07535 36/// /1602 10130 20128 39906 40217 58002=
07535,1999-10-15 00:00:00,11.9,1021.7,-0.3,99,11.7,,7.408,,,160,,,,,,,,,,,og-post,,,,AAXX 15004 07535 36/// /1604 10119 20117 39905 40217 57003=
07535,1999-10-15 01:00:00,11.8,1021.8,-0.1,99,11.6,,3.704,,,160,,,,,,,,,,,og-post,,,,AAXX 15014 07535 36/// /1602 10118 20116 39906 40218 55001=
07535,1999-10-15 02:00:00,12,1021.3,-0.5,99,11.8,,7.408,,,150,,,,,,,,,,,og-post,,,,AAXX 15024 07535 36/// /1504 10120 20118 39901 40213 58005=
07535,1999-10-15 03:00:00,11.3,1020.9,-0.8,99,11.1,,7.408,,,150,,,,,,,,,,,og-post,,,,AAXX 15034 07535 36/// /1504 10113 20111 39897 40209 58008=
07535,1999-10-15 04:00:00,11.6,1020.8,-1,99,11.4,300,3.704,,,130,,,,,,,,,,45,og-post,,,,AAXX 15044 07535 31/03 91302 10116 20114 39896 40208 56010 74542=
07535,1999-10-15 05:00:00,12.4,1020.8,-0.4,99,12.2,300,,,,,,,,,,,,,,45,og-post,,,,AAXX 15054 07535 31/03 90000 10124 20122 39897 40208 55004 74544=
07535,1999-10-15 06:00:00,12.3,1020.8,-0,99,12.1,200,3.704,,,330,11.2,16.2,,,,,,4.4,9,47,og-post,,,,AAXX 15064 07535 31/02 93302 10123 20121 39897 40208 55000 74742 333 10162 20112 30009 55044 70000=
07535,1999-10-15 07:00:00,12.2,1020.9,0.2,99,12,200,3.704,,,20,,,,,,,,,,45,og-post,,,,AAXX 15074 07535 31/02 90202 10122 20120 39898 40209 52002 74544=
07535,1999-10-15 08:00:00,12.9,1021.2,0.4,99,12.7,200,3.704,,,80,,,0.2,,,,,,,45,og-post,,,,AAXX 15084 07535 21/02 90802 10129 20127 39901 40212 53004 74544 333 69925=
07535,1999-10-15 09:00:00,13.6,1021.1,0.4,99,13.4,600,3.704,,,350,,,,0.2,,,,,,43,og-post,,,,AAXX 15094 07535 21/06 93502 10136 20134 39901 40211 51004 74344 333 69927=
07535,1999-10-15 11:00:00,15.2,1020.8,-0.1,94,14.2,5000,7.408,,,10,,,,,,,,,,28,og-post,,,,AAXX 15114 07535 31450 60104 10152 20142 39900 40208 57001 72842 86200 333 86810=
07535,1999-10-15 12:00:00,18.1,1020,-0.6,78,14.2,6000,7.408,,,290,,,,,,,,,,1,og-post,,,,AAXX 15124 07535 31456 62904 10181 20142 39895 40200 58006 70142 84201 333 84810 83075=
07535,1999-10-15 13:00:00,19,1019.3,-1.1,71,13.6,12000,7.408,,,300,,,,,,,,,,,og-post,,,,AAXX 15134 07535 32462 53004 10190 20136 39889 40193 58011 82201 333 82813 85075=
07535,1999-10-15 14:00:00,19.6,1019.1,-1.2,68,13.5,14000,7.408,,,290,,,,,,,,,,,og-post,,,,AAXX 15144 07535 32564 52904 10196 20135 39888 40191 56012 81101 333 81820 85075=
07535,1999-10-15 15:00:00,18.6,1018.9,-1,73,13.7,14000,7.408,,,320,,,,,,,,,,,og-post,,,,AAXX 15154 07535 32964 43204 10186 20137 39885 40189 56010 80001 333 84075=
07535,1999-10-15 16:00:00,17.6,1018.8,-0.6,77,13.5,,3.704,,,310,,,,,,,,,,,og-post,,,,AAXX 15164 07535 36/// /3102 10176 20135 39883 40188 58006=
07535,1999-10-15 17:00:00,15.8,1018.9,-0.6,86,13.5,,3.704,,,300,,,,,,,,,,,og-post,,,,AAXX 15174 07535 36/// /3002 10158 20135 39882 40189 56006=
07535,1999-10-15 18:00:00,14.1,1019.2,-0.2,94,13.1,,,,,,12.1,20.1,,,,,,,,,og-post,,,,AAXX 15184 07535 36/// /0000 10141 20131 39883 40192 55002 333 10201 20121=
07535,1999-10-15 19:00:00,12.8,1019.4,0.1,97,12.3,,3.704,,,140,,,,,,,,,,,og-post,,,,AAXX 15194 07535 36/// /1402 10128 20123 39884 40194 53001=
07535,1999-10-15 20:00:00,11.5,1019.7,0.3,98,11.2,,3.704,,,160,,,,,,,,,,,og-post,,,,AAXX 15204 07535 36/// /1602 10115 20112 39885 40197 52003=
07535,1999-10-15 21:00:00,11.1,1019.7,0.2,99,10.9,,3.704,,,180,,,,,,,,,,,og-post,,,,AAXX 15214 07535 36/// /1802 10111 20109 39885 40197 51002=
07535,1999-10-15 22:00:00,10.4,1019.6,-0.1,99,10.2,,3.704,,,150,,,,,,,,,,,og-post,,,,AAXX 15224 07535 36/// /1502 10104 20102 39883 40196 58001=
07535,1999-10-15 23:00:00,9.7,1019.5,-0.4,99,9.5,,7.408,,,130,,,,,,,,,,,og-post,,,,AAXX 15234 07535 36/// /1304 10097 20095 39881 40195 58004=
07535,1999-10-16 00:00:00,10.9,1019.1,-0.6,99,10.7,,3.704,,,40,,,,,,,,,,,og-post,,,,AAXX 16004 07535 36/// /0402 10109 20107 39879 40191 57006=
07535,1999-10-16 01:00:00,8.8,1019.3,-0.5,99,8.7,,,,,,,,,,,,,,,,og-post,,,,AAXX 16014 07535 36/// /0000 10088 20087 39878 40193 56005=
07535,1999-10-16 02:00:00,8.3,1019,-0.6,99,8.2,,,,,,,,,,,,,,,,og-post,,,,AAXX 16024 07535 36/// /0000 10083 20082 39875 40190 58006=
07535,1999-10-16 03:00:00,7.4,1018.6,-0.9,99,7.3,,,,,,,,,,,,,,,,og-post,,,,AAXX 16034 07535 36/// /0000 10074 20073 39870 40186 58009=
07535,1999-10-16 04:00:00,7.9,1018.6,-0.8,99,7.8,700,,,,,,,,,,,,,,44,og-post,,,,AAXX 16044 07535 31907 00000 10079 20078 39870 40186 56008 74440=
07535,1999-10-16 05:00:00,6.6,1018.6,-0.6,99,6.5,300,,,,,,,,,,,,,,46,og-post,,,,AAXX 16054 07535 31903 00000 10066 20065 39869 40186 56006 74644=
07535,1999-10-16 06:00:00,6.3,1018.6,-0.2,100,6.3,200,,,,,6.2,14.1,,,,,,5.4,3,46,og-post,,,,AAXX 16064 07535 31902 00000 10063 20063 39868 40186 58002 74640 333 10141 20062 30003 55054 70000=
07535,1999-10-16 07:00:00,6.4,1018.6,-0.1,100,6.4,400,,,,,,,,,,,,,,42,og-post,,,,AAXX 16074 07535 31904 00000 10064 20064 39869 40186 55001 74244=
07535,1999-10-16 08:00:00,8.5,1018.5,0.1,99,8.4,200,3.704,,,290,,,,,,,,,,46,og-post,,,,AAXX 16084 07535 31902 02902 10085 20084 39870 40185 53001 74644=
07535,1999-10-16 09:00:00,10,1018.1,0,99,9.8,200,3.704,,,330,,,,,,,,,,44,og-post,,,,AAXX 16094 07535 31902 03302 10100 20098 39868 40181 50000 74444=
07535,1999-10-16 10:00:00,12,1017.8,-0.2,96,11.4,300,3.704,,,340,,,,,,,,,,42,og-post,,,,AAXX 16104 07535 31903 03402 10120 20114 39867 40178 58002 74244=
07535,1999-10-16 11:00:00,15.7,1016.7,-0.9,86,13.4,,7.408,,,360,,,,,,,,,,,og-post,,,,AAXX 16114 07535 36/// /3604 10157 20134 39861 40167 58009=
07535,1999-10-16 12:00:00,18.7,1015.6,-1.5,73,13.8,,7.408,,,340,,,,,,,,,,,og-post,,,,AAXX 16124 07535 36/// /3404 10187 20138 39853 40156 58015=
07535,1999-10-16 13:00:00,20.7,1014.6,-2.1,62,13.2,,3.704,,,30,,,,,,,,,,,og-post,,,,AAXX 16134 07535 36/// /0302 10207 20132 39846 40146 58021=
07535,1999-10-16 14:00:00,21.2,1014,-2.1,48,9.8,,3.704,,,80,,,,,,,,,,,og-post,,,,AAXX 16144 07535 36/// /0802 10212 20098 39840 40140 56021=
07535,1999-10-16 15:00:00,20.9,1013.4,-1.9,53,11,,3.704,,,60,,,,,,,,,,,og-post,,,,AAXX 16154 07535 36/// /0602 10209 20110 39834 40134 56019=
07535,1999-10-16 16:00:00,19,1013.4,-1.4,62,11.6,,7.408,,,40,,,,,,,,,,,og-post,,,,AAXX 16164 07535 36/// /0404 10190 20116 39832 40134 56014=
07535,1999-10-16 18:00:00,14.1,1014.1,-0,88,12.1,,7.408,,,120,5.6,21.8,,,,,,,,,og-post,,,,AAXX 16184 07535 36/// /1204 10141 20121 39834 40141 55000 333 10218 20056=
07535,1999-10-16 19:00:00,12.2,1014.4,0.3,90,10.6,,7.408,,,130,,,,,,,,,,,og-post,,,,AAXX 16194 07535 36/// /1304 10122 20106 39835 40144 53003=
07535,1999-10-16 20:00:00,13,1014.5,0.4,79,9.4,,7.408,,,120,,,,,,,,,,,og-post,,,,AAXX 16204 07535 36/// /1204 10130 20094 39836 40145 51004=
07535,1999-10-16 21:00:00,12.1,1014.3,-0.1,86,9.8,,11.112,,,120,,,,,,,,,,,og-post,,,,AAXX 16214 07535 36/// /1206 10121 20098 39833 40143 58001=
07535,1999-10-16 22:00:00,11.2,1014.1,-0.5,87,9.1,,3.704,,,100,,,,,,,,,,,og-post,,,,AAXX 16224 07535 36/// /1002 10112 20091 39830 40141 58005=
07535,1999-10-16 23:00:00,12,1013.4,-1.1,85,9.6,,11.112,,,130,,,,,,,,,,,og-post,,,,AAXX 16234 07535 36/// /1306 10120 20096 39825 40134 58011=
07535,1999-10-17 00:00:00,12.6,1013,-1.2,84,10,,14.816,,,140,,,,,,,,,,,og-post,,,,AAXX 17004 07535 36/// /1408 10126 20100 39821 40130 58012=
07535,1999-10-17 01:00:00,11.4,1013.3,-0.7,88,9.5,,,,,,,,,,,,,,,,og-post,,,,AAXX 17014 07535 36/// /0000 10114 20095 39823 40133 55007=
07535,1999-10-17 02:00:00,11,1013,-0.5,94,10.1,,,,,,,,,,,,,,,,og-post,,,,AAXX 17024 07535 36/// /0000 10110 20101 39820 40130 56005=
07535,1999-10-17 03:00:00,11.2,1013.3,0.2,94,10.3,,7.408,,,150,,,,,,,,,,,og-post,,,,AAXX 17034 07535 36/// /1504 10112 20103 39823 40133 53002=
07535,1999-10-17 04:00:00,10.6,1013.4,-0,96,10,5000,7.408,,,130,,,,,,,,,,,og-post,,,,AAXX 17044 07535 32950 31304 10106 20100 39823 40134 55000 80001 333 83075=
07535,1999-10-17 05:00:00,10.4,1013.4,0.3,94,9.5,6000,3.704,,,130,,,,,,,,,,,og-post,,,,AAXX 17054 07535 32956 21302 10104 20095 39823 40134 51003 80001 333 82075=
07535,1999-10-17 06:00:00,10.5,1013.3,-0.1,95,9.7,6000,7.408,,,130,10.2,14.3,,,,,0,9.1,5,,og-post,,,,AAXX 17064 07535 32956 31304 10105 20097 39822 40133 58001 80001 333 10143 20102 30005 55091 70000 83075=
07535,1999-10-17 07:00:00,11.8,1013.4,0.1,88,9.9,6000,7.408,,,130,,,,,,,,,,,og-post,,,,AAXX 17074 07535 32956 71304 10118 20099 39824 40134 53001 80001 333 87075=
07535,1999-10-17 08:00:00,13.9,1013.5,0.5,83,11.1,6000,3.704,,,130,,,,,,,,,,,og-post,,,,AAXX 17084 07535 32956 71302 10139 20111 39828 40135 53005 80001 333 87075=
07535,1999-10-17 09:00:00,13.4,1013.7,0.7,84,10.8,6000,3.704,,,290,,,,,,,,,,,og-post,,,,AAXX 17094 07535 32956 72902 10134 20108 39829 40137 51007 82032 333 82360 87075=
07535,1999-10-17 10:00:00,14.2,1013.4,0.3,83,11.4,7000,3.704,,,360,,,,,,,,,,,og-post,,,,AAXX 17104 07535 32957 73602 10142 20114 39827 40134 50003 83032 333 83360 87075=
07535,1999-10-17 11:00:00,16,1012.9,-0.4,80,12.6,,3.704,,,30,,,,,,,,,,,og-post,,,,AAXX 17114 07535 36/// /0302 10160 20126 39824 40129 58004=
07535,1999-10-17 12:00:00,17.6,1012.2,-1,74,12.9,,3.704,,,130,,,,,,,,,,,og-post,,,,AAXX 17124 07535 36/// /1302 10176 20129 39819 40122 58010=
07535,1999-10-17 13:00:00,17.8,1011.6,-1.4,73,12.9,,3.704,,,150,,,,,,,,,,,og-post,,,,AAXX 17134 07535 36/// /1502 10178 20129 39813 40116 58014=
07535,1999-10-17 14:00:00,17.1,1011.3,-1.4,80,13.6,,7.408,,,330,,,,,,,,,,,og-post,,,,AAXX 17144 07535 36/// /3304 10171 20136 39810 40113 56014=
07535,1999-10-17 15:00:00,16.7,1010.9,-1.3,82,13.6,,7.408,,,360,,,,,,,,,,,og-post,,,,AAXX 17154 07535 36/// /3604 10167 20136 39806 40109 56013=
07535,1999-10-17 16:00:00,15.9,1010.7,-1,85,13.4,,3.704,,,350,,,,,,,,,,,og-post,,,,AAXX 17164 07535 36/// /3502 10159 20134 39803 40107 57010=
07535,1999-10-17 17:00:00,15.3,1010.9,-0.6,86,13,,3.704,,,320,,,,,,,,,,,og-post,,,,AAXX 17174 07535 36/// /3202 10153 20130 39804 40109 55006=
07535,1999-10-17 18:00:00,14.3,1011,-0.2,94,13.3,,,,,,10.5,18.1,,,,,,,,,og-post,,,,AAXX 17184 07535 36/// /0000 10143 20133 39804 40110 56002 333 10181 20105=
07535,1999-10-17 19:00:00,13.7,1010.6,-0.3,97,13.2,,3.704,,,350,,,,,,,,,,,og-post,,,,AAXX 17194 07535 36/// /3502 10137 20132 39800 40106 58003=
07535,1999-10-17 20:00:00,13,1010.1,-1,97,12.5,,3.704,,,140,,,,,,,,,,,og-post,,,,AAXX 17204 07535 36/// /1402 10130 20125 39794 40101 58010=
07535,1999-10-17 21:00:00,12.5,1009.8,-1.4,99,12.3,,7.408,,,120,,,,,,,,,,,og-post,,,,AAXX 17214 07535 36/// /1204 10125 20123 39790 40098 57014=
07535,1999-10-17 22:00:00,13.1,1008.5,-2.1,97,12.6,,3.704,,,80,,,,,,,,,,,og-post,,,,AAXX 17224 07535 36/// /0802 10131 20126 39779 40085 58021=
07535,1999-10-17 23:00:00,14.7,1007.7,-2.2,87,12.6,,11.112,,,110,,,,,,,,,,,og-post,,,,AAXX 17234 07535 36/// /1106 10147 20126 39772 40077 58022=
07535,1999-10-18 00:00:00,15.1,1006.8,-2.6,83,12.2,,11.112,,,100,,,,,,,,,,,og-post,,,,AAXX 18004 07535 36/// /1006 10151 20122 39764 40068 56026=
07535,1999-10-18 01:00:00,15.3,1006.5,-1.8,80,11.9,,11.112,,,130,,,,,,,,,,,og-post,,,,AAXX 18014 07535 36/// /1306 10153 20119 39761 40065 56018=
07535,1999-10-18 02:00:00,14.6,1006.8,-0.9,80,11.2,,7.408,,,170,,,,,,,,,,,og-post,,,,AAXX 18024 07535 36/// /1704 10146 20112 39763 40068 55009=
07535,1999-10-18 03:00:00,12.6,1005.8,-1.2,94,11.7,,7.408,,,110,,,,3,,,,,,,og-post,,,,AAXX 18034 07535 26/// /1104 10126 20117 39752 40058 58012 333 60037=
07535,1999-10-18 04:00:00,12.2,1005.7,-1.1,97,11.7,2000,7.408,,,140,,,4,,,,,,,61,og-post,,,,AAXX 18044 07535 21220 81404 10122 20117 39750 40057 58011 76166 875// 333 60045 84705 86615=
07535,1999-10-18 05:00:00,12,1005.5,-1.5,98,11.7,2000,3.704,,,110,,,7,,,,,,,61,og-post,,,,AAXX 18054 07535 21220 81102 10120 20117 39748 40055 56015 76166 875// 333 60075 86705 86615=
07535,1999-10-18 06:00:00,12,1005.2,-0.7,98,11.7,3500,3.704,,,130,11.9,15.3,,14,,18,17.6,2.3,8,61,og-post,,,,AAXX 18064 07535 /1235 81302 10120 20117 39745 40052 58007 60182 76166 875// 333 10153 20119 32008 55023 60147 70176 82705 85615 85650=
07535,1999-10-18 07:00:00,12,1005.6,-0.1,98,11.7,6000,7.408,,,180,,,1,,,,,,,61,og-post,,,,AAXX 18074 07535 21256 81804 10120 20117 39749 40056 55001 76166 875// 333 60015 82705 85615 85650=
07535,1999-10-18 08:00:00,11.9,1005.9,0.4,98,11.6,5000,7.408,,,150,,,3,,,,,,,61,og-post,,,,AAXX 18084 07535 21250 81504 10119 20116 39752 40059 53004 76166 875// 333 60035 82705 85615 85650=
07535,1999-10-18 09:00:00,11.9,1006.3,1.1,99,11.7,2000,7.408,,,160,,,,9,,,,,,61,og-post,,,,AAXX 18094 07535 21220 81604 10119 20117 39756 40063 52011 76166 875// 333 60097 84705 86615=
07535,1999-10-18 10:00:00,12.2,1006.3,0.7,98,11.9,6000,11.112,,,160,,,3,,,,,,,61,og-post,,,,AAXX 18104 07535 21256 81606 10122 20119 39756 40063 51007 76166 875// 333 60035 84705 86615=
07535,1999-10-18 11:00:00,13.1,1006.1,0.3,98,12.8,6000,11.112,,,210,,,0.2,,,,,,,61,og-post,,,,AAXX 18114 07535 21256 82106 10131 20128 39755 40061 50003 76166 875// 333 69925 85705 86615=
07535,1999-10-18 14:00:00,13.1,1006.1,0,97,12.6,7000,11.112,,,210,,,0.2,,,,,,,61,og-post,,,,AAXX 18144 07535 21257 82106 10131 20126 39755 40061 50000 76166 875// 333 69925 85705 86615=
07535,1999-10-18 15:00:00,13.1,1006.1,0.1,97,12.6,7000,11.112,,,180,,,,2,,,,,,61,og-post,,,,AAXX 18154 07535 21257 81806 10131 20126 39755 40061 51001 76166 875// 333 60027 85705 86615=
07535,1999-10-18 16:00:00,12.3,1006.5,0.1,97,11.8,,11.112,,,210,,,4,,,,,,,,og-post,,,,AAXX 18164 07535 26/// /2106 10123 20118 39758 40065 53001 333 60045=
07535,1999-10-18 17:00:00,12.1,1006.8,0.6,98,11.8,,11.112,,,210,,,2,,,,,,,,og-post,,,,AAXX 18174 07535 26/// /2106 10121 20118 39761 40068 53006 333 60025=
07535,1999-10-18 18:00:00,11.9,1006.8,0.6,98,11.6,,14.816,,,210,11.8,13.2,,5,,20,,,,,og-post,,,,AAXX 18184 07535 /6/// /2108 10119 20116 39761 40068 51006 60202 333 10132 20118 60057=
07535,1999-10-18 19:00:00,11.5,1006.9,0.3,97,11,,18.52,,,210,,,,,,,,,,,og-post,,,,AAXX 18194 07535 26/// /2110 10115 20110 39761 40069 51003 333 69905=
07535,1999-10-18 20:00:00,11,1006.5,-0.4,97,10.5,,18.52,,,190,,,0.4,,,,,,,,og-post,,,,AAXX 18204 07535 26/// /1910 10110 20105 39757 40065 58004 333 69945=
07535,1999-10-18 21:00:00,11,1006.4,-0.5,98,10.7,,11.112,,,190,,,,0.4,,,,,,,og-post,,,,AAXX 18214 07535 26/// /1906 10110 20107 39756 40064 58005 333 69947=
07535,1999-10-18 22:00:00,11.1,1006.2,-0.7,99,10.9,,11.112,,,180,,,0.8,,,,,,,,og-post,,,,AAXX 18224 07535 26/// /1806 10111 20109 39754 40062 56007 333 69985=
07535,1999-10-18 23:00:00,11.3,1006,-0.5,99,11.1,,11.112,,,210,,,1,,,,,,,,og-post,,,,AAXX 18234 07535 26/// /2106 10113 20111 39752 40060 58005 333 60015=
07535,1999-10-19 00:00:00,11.5,1006.2,-0.2,99,11.3,,7.408,,,270,,,,2,3,,,,,,og-post,,,,AAXX 19004 07535 /6/// /2704 10115 20113 39754 40062 55002 60031 333 60027=
07535,1999-10-19 02:00:00,11.4,1006.5,0.5,99,11.2,,3.704,,,260,,,0.2,,,,,,,,og-post,,,,AAXX 19024 07535 26/// /2602 10114 20112 39757 40065 51005 333 69925=
07535,1999-10-19 04:00:00,11.6,1006.4,-0.1,99,11.4,1200,7.408,,,280,,,,,,,,,,60,og-post,,,,AAXX 19044 07535 21212 82804 10116 20114 39756 40064 57001 76062 875// 333 69905 85703 86615=
07535,1999-10-19 05:00:00,11.2,1006.6,0.1,99,11,1200,7.408,,,270,,,,,,,,,,21,og-post,,,,AAXX 19054 07535 21212 82704 10112 20110 39758 40066 53001 72162 875// 333 69905 86703 86615=
07535,1999-10-19 06:00:00,11.3,1006.6,0.2,99,11.1,1100,3.704,,,260,10.9,11.9,,,,3,23.2,,11,10,og-post,,,,AAXX 19064 07535 /1211 82602 10113 20111 39758 40066 52002 60032 71062 875// 333 10119 20109 32011 55000 69907 70232 86703 86615=
07535,1999-10-19 07:00:00,11.1,1006.9,0.5,99,10.9,1100,3.704,,,260,,,2,,,,,,,60,og-post,,,,AAXX 19074 07535 21211 82602 10111 20109 39761 40069 53005 76062 877// 333 60025 87703=
07535,1999-10-19 08:00:00,11.2,1007,0.4,99,11,2000,3.704,,,260,,,,,,,,,,60,og-post,,,,AAXX 19084 07535 21220 82602 10112 20110 39762 40070 53004 76066 877// 333 69905 87703=
07535,1999-10-19 09:00:00,11.4,1007.2,0.6,99,11.2,1100,3.704,,,260,,,,2,,,,,,60,og-post,,,,AAXX 19094 07535 21211 82602 10114 20112 39764 40072 51006 76062 877// 333 60027 87703=
07535,1999-10-19 10:00:00,11.8,1007.2,0.3,99,11.6,800,3.704,,,240,,,0.2,,,,,,,51,og-post,,,,AAXX 19104 07535 21108 82402 10118 20116 39764 40072 51003 75165 887// 333 69925 88702=
07535,1999-10-19 11:00:00,11.9,1007.1,0.2,99,11.7,3000,7.408,,,230,,,0.4,,,,,,,51,og-post,,,,AAXX 19114 07535 21230 82304 10119 20117 39764 40071 51002 75155 877// 333 69945 87703=
07535,1999-10-19 12:00:00,12.6,1006.7,-0.3,99,12.4,7000,7.408,,,220,,,,1,3,,,,,60,og-post,,,,AAXX 19124 07535 /1257 82204 10126 20124 39761 40067 58003 60031 76065 875// 333 60017 85703 83615 86650=
07535,1999-10-19 13:00:00,13.9,1006.4,-0.5,96,13.3,12000,3.704,,,240,,,,,,,,,,21,og-post,,,,AAXX 19134 07535 21262 72402 10139 20133 39759 40064 58005 72162 878// 333 69905 81703 84810 86650=
07535,1999-10-19 14:00:00,14.2,1006.4,-0.5,91,12.8,15000,3.704,,,210,,,,,,,,,,,og-post,,,,AAXX 19144 07535 32265 72102 10142 20128 39759 40064 56005 878// 333 81703 83811 86650=
07535,1999-10-19 15:00:00,14.1,1006.3,-0.3,91,12.7,15000,3.704,,,190,,,,,,,,,,3,og-post,,,,AAXX 19154 07535 21265 71902 10141 20127 39758 40063 56003 70362 878// 333 69907 81703 84813 86650=
07535,1999-10-19 16:00:00,12.5,1006.4,-0.2,94,11.6,,3.704,,,300,,,6,,,,,,,,og-post,,,,AAXX 19164 07535 26/// /3002 10125 20116 39757 40064 58002 333 60065=
07535,1999-10-19 18:00:00,11.6,1006.8,0.2,97,11.1,,7.408,,,200,11.1,14.3,,6,,9,,,,,og-post,,,,AAXX 19184 07535 /6/// /2004 10116 20111 39760 40068 53002 60092 333 10143 20111 60067=
07535,1999-10-19 19:00:00,11.9,1007,0.5,91,10.5,,11.112,,,190,,,,,,,,,,,og-post,,,,AAXX 19194 07535 36/// /1906 10119 20105 39762 40070 53005=
07535,1999-10-19 20:00:00,12,1006.8,0.4,89,10.2,,7.408,,,180,,,,,,,,,,,og-post,,,,AAXX 19204 07535 36/// /1804 10120 20102 39761 40068 50004=
07535,1999-10-19 21:00:00,12,1006.7,0,90,10.4,,11.112,,,160,,,,,,,,,,,og-post,,,,AAXX 19214 07535 36/// /1606 10120 20104 39760 40067 50000=
07535,1999-10-19 22:00:00,12.5,1006.6,-0.3,85,10,,11.112,,,180,,,,,,,,,,,og-post,,,,AAXX 19224 07535 36/// /1806 10125 20100 39759 40066 57003=
07535,1999-10-19 23:00:00,11.9,1006.2,-0.6,89,10.1,,14.816,,,170,,,,,,,,,,,og-post,,,,AAXX 19234 07535 36/// /1708 10119 20101 39755 40062 58006=
07535,1999-10-20 00:00:00,12.3,1006,-0.7,87,10.2,,14.816,,,180,,,,,,,,,,,og-post,,,,AAXX 20004 07535 36/// /1808 10123 20102 39753 40060 58007=
07535,1999-10-20 01:00:00,12,1004.9,-1.7,88,10.1,,11.112,,,170,,,,,,,,,,,og-post,,,,AAXX 20014 07535 36/// /1706 10120 20101 39742 40049 58017=
07535,1999-10-20 02:00:00,11.4,1004.3,-1.9,93,10.3,,7.408,,,160,,,,,,,,,,,og-post,,,,AAXX 20024 07535 36/// /1604 10114 20103 39736 40043 58019=
07535,1999-10-20 03:00:00,11.7,1003.1,-2.9,85,9.3,,7.408,,,100,,,,,,,,,,,og-post,,,,AAXX 20034 07535 36/// /1004 10117 20093 39724 40031 58029=
07535,1999-10-20 04:00:00,11.2,1002.1,-2.8,89,9.5,10000,11.112,,,120,,,,,,,,,,,og-post,,,,AAXX 20044 07535 32960 01206 10112 20095 39714 40021 58028=
07535,1999-10-20 05:00:00,11.1,1000.9,-3.4,89,9.4,10000,14.816,,,140,,,,,,,,,,,og-post,,,,AAXX 20054 07535 32960 21408 10111 20094 39702 40009 57034 80001 333 82075=
07535,1999-10-20 06:00:00,11.1,999.6,-3.4,87,9,15000,25.928,,,140,10.9,12.6,,,,,9.2,,9,,og-post,,,,AAXX 20064 07535 32965 71414 10111 20090 39690 49996 58034 82031 333 10126 20109 32009 55000 70092 82360 87075=
07535,1999-10-20 07:00:00,11.8,998.2,-3.7,85,9.4,18000,22.224,,,140,,,,,,,,,,,og-post,,,,AAXX 20074 07535 32768 71412 10118 20094 39677 49982 58037 83532 333 83650 85360 87075=
07535,1999-10-20 08:00:00,12.8,996.9,-3.7,81,9.6,18000,22.224,,,140,,,,,,,,,,,og-post,,,,AAXX 20084 07535 32768 71412 10128 20096 39665 49969 57037 83532 333 83650 85360 87075=
07535,1999-10-20 09:00:00,13.8,995.6,-3.6,79,10.2,20000,25.928,,,150,,,,,,,,,,,og-post,,,,AAXX 20094 07535 32770 81514 10138 20102 39654 49956 56036 8351/ 333 83650 88458=
07535,1999-10-20 10:00:00,15.5,994.6,-3.1,71,10.3,20000,29.632,,,150,,,,,,,,,,,og-post,,,,AAXX 20104 07535 32770 81516 10155 20103 39646 49946 56031 8451/ 333 84650 88458=
07535,1999-10-20 11:00:00,16.2,994.1,-2.3,66,9.8,20000,29.632,57.412,50.004,160,,,,,,,,,,,og-post,,,,AAXX 20114 07535 32770 81616 10162 20098 39642 49941 56023 8451/ 333 84650 88458 91027 91131=
07535,1999-10-20 12:00:00,16.6,993.2,-2.1,62,9.3,20000,25.928,57.412,,150,,,,,,,,,,,og-post,,,,AAXX 20124 07535 32770 81514 10166 20093 39633 49932 58021 8451/ 333 84650 88458 91131=
07535,1999-10-20 13:00:00,16.9,992.3,-2.1,59,8.8,20000,31.484,,53.708,150,,,,,,,,,,,og-post,,,,AAXX 20134 07535 32670 81517 10169 20088 39625 49923 58021 8551/ 333 85640 88458 91029=
07535,1999-10-20 14:00:00,16.8,992,-2,63,9.7,20000,29.632,57.412,53.708,160,,,,,,,,,,,og-post,,,,AAXX 20144 07535 32670 81616 10168 20097 39622 49920 56020 8652/ 333 86640 88458 91029 91131=
07535,1999-10-20 15:00:00,16.9,991.7,-1.4,65,10.3,18000,31.484,57.412,,160,,,,,,,,,,60,og-post,,,,AAXX 20154 07535 21668 81617 10169 20103 39619 49917 56014 76062 8652/ 333 69907 86633 88458 91131=
07535,1999-10-20 16:00:00,16.9,991.2,-1.1,66,10.5,,29.632,57.412,,160,,,,,,,,,,,og-post,,,,AAXX 20164 07535 26/// /1616 10169 20105 39614 49912 58011 333 69905 91131=
07535,1999-10-20 17:00:00,16.7,991.8,-0.2,68,10.8,,22.224,,,170,,,,,,,,,,,og-post,,,,AAXX 20174 07535 36/// /1712 10167 20108 39620 49918 55002=
07535,1999-10-20 18:00:00,15.6,992.9,1.1,77,11.6,,3.704,57.412,,280,11,17.2,,,,,,,,,og-post,,,,AAXX 20184 07535 /6/// /2802 10156 20116 39630 49929 53011 69902 333 10172 20110 69907 91131=
07535,1999-10-20 19:00:00,14.6,993.6,2.2,84,11.9,,,,,,,,,,,,,,,,og-post,,,,AAXX 20194 07535 36/// /0000 10146 20119 39636 49936 52022=
07535,1999-10-20 20:00:00,13.3,994,1.8,93,12.2,,7.408,,,140,,,,,,,,,,,og-post,,,,AAXX 20204 07535 36/// /1404 10133 20122 39638 49940 51018=
07535,1999-10-20 21:00:00,12.6,994.4,1.1,95,11.8,,3.704,,,150,,,,,,,,,,,og-post,,,,AAXX 20214 07535 36/// /1502 10126 20118 39641 49944 51011=
07535,1999-10-20 22:00:00,11.9,995,1,97,11.4,,7.408,,,150,,,,,,,,,,,og-post,,,,AAXX 20224 07535 36/// /1504 10119 20114 39646 49950 53010=
07535,1999-10-20 23:00:00,11.6,995.2,1,97,11.1,,7.408,,,150,,,,,,,,,,,og-post,,,,AAXX 20234 07535 36/// /1504 10116 20111 39648 49952 51010=
07535,1999-10-21 00:00:00,11,995.3,0.7,98,10.7,,3.704,,,170,,,,,,,,,,,og-post,,,,AAXX 21004 07535 36/// /1702 10110 20107 39648 49953 51007=
07535,1999-10-21 01:00:00,10.6,995.8,0.7,97,10.1,,3.704,,,220,,,,,,,,,,,og-post,,,,AAXX 21014 07535 36/// /2202 10106 20101 39653 49958 53007=
07535,1999-10-21 02:00:00,10.1,996.6,1.2,97,9.6,,3.704,,,210,,,,,,,,,,,og-post,,,,AAXX 21024 07535 36/// /2102 10101 20096 39660 49966 53012=
07535,1999-10-21 03:00:00,9.9,997.4,1.9,97,9.4,,7.408,,,200,,,,,,,,,,,og-post,,,,AAXX 21034 07535 36/// /2004 10099 20094 39667 49974 53019=
07535,1999-10-21 04:00:00,10.1,998,2,97,9.6,10000,3.704,,,230,,,,,,,,,,,og-post,,,,AAXX 21044 07535 32760 52302 10101 20096 3967 49980 51020 85500 333 85650=
07535,1999-10-21 05:00:00,9.6,998.7,1.9,98,9.3,10000,11.112,,,210,,,,,,,,,,,og-post,,,,AAXX 21054 07535 32960 02106 10096 20093 39679 49987 51019=
07535,1999-10-21 06:00:00,9.6,999.4,1.9,98,9.3,,11.112,,,200,9.4,15.6,,,,,,,5,,og-post,,,,AAXX 21064 07535 36/// /2006 10096 20093 39686 49994 53019 333 10156 20094 3/005 55000 79999=
07535,1999-10-21 07:00:00,10.4,999.9,1.9,99,10.2,6000,14.816,,,210,,,,,,,,,,,og-post,,,,AAXX 21074 07535 32256 72108 10104 20102 39692 49999 52019 878// 333 81704 83815 86640=
07535,1999-10-21 08:00:00,11.6,1000.5,2,93,10.5,18000,14.816,,,210,,,,,,,,,,,og-post,,,,AAXX 21084 07535 32268 72108 10116 20105 39699 40005 52020 875// 333 81704 87633=
07535,1999-10-21 09:00:00,11.7,1000.6,1.4,96,11.1,5000,11.112,,,190,,,,,,,,,,51,og-post,,,,AAXX 21094 07535 21250 81906 10117 20111 39700 40006 51014 75151 875// 333 69907 85703 87630=
07535,1999-10-21 10:00:00,12.2,1001,1.3,95,11.4,4000,14.816,,,210,,,,,,,,,,51,og-post,,,,AAXX 21104 07535 21240 82108 10122 20114 39705 40010 51013 75155 875// 333 69905 86703 87630=
07535,1999-10-21 11:00:00,12.9,1001.6,1.2,98,12.6,,7.408,,,230,,,0.4,,,,,,,,og-post,,,,AAXX 21114 07535 26/// /2304 10129 20126 39711 40016 53012 333 69945=
07535,1999-10-21 12:00:00,15.7,1001.1,1,86,13.4,18000,3.704,,,250,,,,0.4,0.4,,,,,1,og-post,,,,AAXX 21124 07535 /1368 72502 10157 20134 39710 40011 50010 69941 70151 872// 333 69947 87808=
07535,1999-10-21 14:00:00,17.6,1001.4,0.3,70,12.1,30000,7.408,,,270,,,,,,,,,,,og-post,,,,AAXX 21144 07535 32480 52704 10176 20121 39714 40014 53003 85200 333 85816=
07535,1999-10-21 15:00:00,19,1001.3,0.5,60,11.1,30000,3.704,,,220,,,,0.2,,,,,,1,og-post,,,,AAXX 21154 07535 21580 22202 10190 20111 39715 40013 51005 70186 82100 333 69927 82823=
07535,1999-10-21 16:00:00,16.3,1001.9,0.6,71,11,,7.408,,,180,,,,,,,,,,,og-post,,,,AAXX 21164 07535 36/// /1804 10163 20110 39718 40019 53006=
07535,1999-10-21 17:00:00,14,1002.3,0.5,83,11.2,,11.112,,,140,,,,,,,,,,,og-post,,,,AAXX 21174 07535 36/// /1406 10140 20112 39719 40023 52005=
07535,1999-10-21 18:00:00,13,1003.3,1.3,89,11.2,,14.816,,,140,9.6,19.1,,,,0.6,,,,,og-post,,,,AAXX 21184 07535 16/// /1408 10130 20112 39728 40033 53013 69962 333 10191 20096=
07535,1999-10-21 19:00:00,12.7,1003.7,1.3,93,11.6,,14.816,,,150,,,,,,,,,,,og-post,,,,AAXX 21194 07535 36/// /1508 10127 20116 39731 40037 53013=
07535,1999-10-21 20:00:00,13.5,1004,1.6,87,11.4,,18.52,,,160,,,,,,,,,,,og-post,,,,AAXX 21204 07535 36/// /1610 10135 20114 39735 40040 51016=
07535,1999-10-21 21:00:00,13.9,1003.6,0.4,81,10.7,,25.928,,,160,,,,,,,,,,,og-post,,,,AAXX 21214 07535 36/// /1614 10139 20107 39732 40036 50004=
07535,1999-10-21 22:00:00,13.6,1003.8,0.2,80,10.2,,18.52,,,160,,,,,,,,,,,og-post,,,,AAXX 21224 07535 36/// /1610 10136 20102 39733 40038 51002=
07535,1999-10-21 23:00:00,13.8,1003.5,-0.5,76,9.6,,22.224,,,160,,,,,,,,,,,og-post,,,,AAXX 21234 07535 36/// /1612 10138 20096 39730 40035 57005=
07535,1999-10-22 00:00:00,14.3,1002.9,-0.7,71,9.1,,25.928,,,160,,,,,,,,,,,og-post,,,,AAXX 22004 07535 36/// /1614 10143 20091 39725 40029 58007=
07535,1999-10-22 01:00:00,14.2,1001.7,-2,69,8.6,,22.224,,,140,,,,,,,,,,,og-post,,,,AAXX 22014 07535 36/// /1412 10142 20086 39713 40017 58020=
07535,1999-10-22 02:00:00,14,1001.5,-1.9,68,8.2,,18.52,,,150,,,,,,,,,,,og-post,,,,AAXX 22024 07535 36/// /1510 10140 20082 39711 40015 56019=
07535,1999-10-22 03:00:00,13.1,1001.1,-1.9,74,8.6,,11.112,,,150,,,,,,,,,,,og-post,,,,AAXX 22034 07535 36/// /1506 10131 20086 39706 40011 56019=
07535,1999-10-22 04:00:00,13.9,1000.4,-1.3,69,8.3,,18.52,,,150,,,,,,,,,,,og-post,,,,AAXX 22044 07535 36/// /1510 10139 20083 39700 40004 58013=
07535,1999-10-22 05:00:00,14.9,999.4,-1.9,64,8.2,15000,25.928,,,150,,,,,,,,,,,og-post,,,,AAXX 22054 07535 32765 81514 10149 20082 39692 49994 58019 8457/ 333 84650 87361=
07535,1999-10-22 06:00:00,14.3,998.9,-2,69,8.7,,31.484,53.708,53.708,170,12.7,14.9,,,,,0.6,2.5,12,,og-post,,,,AAXX 22064 07535 36/// /1717 10143 20087 39686 49989 57020 333 10149 20127 3/012 55025 70006 91029 91129=
07535,1999-10-22 07:00:00,13.7,999.8,-0.6,74,9.2,20000,18.52,61.116,,120,,,,,,,,,,,og-post,,,,AAXX 22074 07535 32670 71210 10137 20092 39694 49998 55006 85530 333 81633 86650 91133=
07535,1999-10-22 08:00:00,13.6,997.8,-1.7,81,10.4,15000,46.3,72.228,72.228,150,,,0.8,,,,,,,61,og-post,,,,AAXX 22084 07535 21465 71525 10136 20104 39675 49978 58017 76162 85802 333 69985 81813 85650 91039 91139=
07535,1999-10-22 09:00:00,13.4,1001.7,2.7,88,11.5,10000,14.816,72.228,,190,,,,2,,,,,,61,og-post,,,,AAXX 22094 07535 21260 71908 10134 20115 39713 40017 53027 76162 877// 333 60027 85703 83650 91139=
07535,1999-10-22 10:00:00,13.3,1000.1,0.3,91,11.9,15000,29.632,,,140,,,0.6,,,,,,,61,og-post,,,,AAXX 22104 07535 21765 71416 10133 20119 39697 40001 53003 76162 86570 333 69965 86650 83361=
07535,1999-10-22 11:00:00,15.4,999.4,1.8,86,13.1,,25.928,57.412,,140,,,0.6,,,,,,,,og-post,,,,AAXX 22114 07535 26/// /1414 10154 20131 39693 49994 50018 333 69965 91131=
07535,1999-10-22 12:00:00,18,999.3,-1.9,74,13.3,15000,25.928,72.228,,160,,,,1,3,,,,,3,og-post,,,,AAXX 22124 07535 /1565 71614 10180 20133 39694 49993 55019 60031 70362 86802 333 60017 81820 86640 91139=
07535,1999-10-22 13:00:00,17.6,1000,0.4,85,15,10000,,,,,,,0.4,,,,,,,60,og-post,,,,AAXX 22134 07535 21460 80000 10176 20150 39701 40000 53004 76062 888// 333 69945 83813 87640=
07535,1999-10-22 14:00:00,15.3,1000.6,1.1,96,14.7,4000,7.408,,,230,,,6,,,,,,,95,og-post,,,,AAXX 22144 07535 21240 82304 10153 20147 39704 40006 53011 79596 877// 333 60065 87703=
07535,1999-10-22 15:00:00,14,1000.1,0.4,94,13,20000,7.408,,,200,,,,9,,,,,,95,og-post,,,,AAXX 22154 07535 21270 82004 10140 20130 39698 40001 50004 79596 86903 333 60097 82903 84630=
07535,1999-10-22 16:00:00,14,999.9,-0.5,93,12.9,,14.816,,,190,,,,,,,,,,,og-post,,,,AAXX 22164 07535 26/// /1908 10140 20129 39696 49999 58005 333 69905=
07535,1999-10-22 17:00:00,13.5,1000.8,-0,90,11.9,,18.52,,,210,,,,,,,,,,,og-post,,,,AAXX 22174 07535 36/// /2110 10135 20119 39704 40008 55000=
07535,1999-10-22 18:00:00,13.5,1001,0.8,89,11.7,,11.112,,,200,13.1,18.2,,,,11,,,,,og-post,,,,AAXX 22184 07535 /6/// /2006 10135 20117 39706 40010 53008 60112 333 10182 20131 69907=
07535,1999-10-22 19:00:00,13.5,1001.3,1.3,87,11.4,,11.112,,,190,,,,,,,,,,,og-post,,,,AAXX 22194 07535 36/// /1906 10135 20114 39709 40013 51013=
07535,1999-10-22 20:00:00,13.2,1001.3,0.5,89,11.4,,11.112,,,180,,,,,,,,,,,og-post,,,,AAXX 22204 07535 36/// /1806 10132 20114 39709 40013 51005=
07535,1999-10-22 21:00:00,12.9,1001.8,0.7,90,11.3,,7.408,,,170,,,,,,,,,,,og-post,,,,AAXX 22214 07535 36/// /1704 10129 20113 39713 40018 53007=
07535,1999-10-22 22:00:00,12.8,1002.2,0.8,91,11.4,,11.112,,,170,,,,,,,,,,,og-post,,,,AAXX 22224 07535 36/// /1706 10128 20114 39717 40022 53008=
07535,1999-10-22 23:00:00,12.9,1002,0.6,90,11.3,,11.112,,,170,,,,,,,,,,,og-post,,,,AAXX 22234 07535 36/// /1706 10129 20113 39715 40020 50006=
07535,1999-10-23 00:00:00,12.6,1002.5,0.7,90,11,,11.112,,,170,,,,,,,,,,,og-post,,,,AAXX 23004 07535 36/// /1706 10126 20110 39720 40025 53007=
07535,1999-10-23 01:00:00,12.2,1002.7,0.4,88,10.3,,11.112,,,180,,,,,,,,,,,og-post,,,,AAXX 23014 07535 36/// /1806 10122 20103 39721 40027 53004=
07535,1999-10-23 02:00:00,12.8,1002.8,0.8,82,9.8,,11.112,,,190,,,,,,,,,,,og-post,,,,AAXX 23024 07535 36/// /1906 10128 20098 39723 40028 51008=
07535,1999-10-23 03:00:00,12.4,1002.9,0.3,81,9.2,,11.112,,,210,,,,,,,,,,,og-post,,,,AAXX 23034 07535 36/// /2106 10124 20092 39723 40029 51003=
07535,1999-10-23 04:00:00,12.1,1002.8,0.1,81,8.9,,11.112,,,200,,,,,,,,,,,og-post,,,,AAXX 23044 07535 36/// /2006 10121 20089 39722 40028 50001=
07535,1999-10-23 05:00:00,10.1,1003.5,0.3,91,8.7,,11.112,,,180,,,,,,,,,,,og-post,,,,AAXX 23054 07535 36/// /1806 10101 20087 39726 40035 53003=
07535,1999-10-23 06:00:00,11,1003.5,0.4,84,8.4,35000,14.816,,,200,10.1,13.8,,,,,11.4,0.8,8,,og-post,,,,AAXX 23064 07535 32681 22008 10110 20084 39727 40035 53004 82500 333 10138 20101 31008 55008 70114 82640=
07535,1999-10-23 09:00:00,16.4,1004.4,1.5,69,10.7,,14.816,,,220,,,,,,,,,,,og-post,,,,AAXX 23094 07535 36/// /2208 10164 20107 39742 40044 51015=
07535,1999-10-23 10:00:00,18.6,1004.6,1.6,61,10.9,,11.112,,,250,,,,,,,,,,,og-post,,,,AAXX 23104 07535 36/// /2506 10186 20109 39746 40046 51016=
07535,1999-10-23 11:00:00,20.1,1004.6,0.8,56,11.1,,11.112,,,230,,,,,,,,,,,og-post,,,,AAXX 23114 07535 36/// /2306 10201 20111 39748 40046 52008=
07535,1999-10-23 12:00:00,20.9,1004,0.1,51,10.4,,7.408,,,250,,,,,,,,,,,og-post,,,,AAXX 23124 07535 36/// /2504 10209 20104 39743 40040 50001=
07535,1999-10-23 14:00:00,20.4,1003.2,-1.4,52,10.2,,14.816,,,220,,,,,,,,,,,og-post,,,,AAXX 23144 07535 36/// /2208 10204 20102 39734 40032 56014=
07535,1999-10-23 16:00:00,17.6,1002.9,-0.7,60,9.7,,11.112,,,200,,,,,,,,,,,og-post,,,,AAXX 23164 07535 36/// /2006 10176 20097 39729 40029 57007=
07535,1999-10-23 17:00:00,15.3,1002.7,-1,74,10.7,,7.408,,,170,,,,,,,,,,,og-post,,,,AAXX 23174 07535 36/// /1704 10153 20107 39724 40027 58010=
07535,1999-10-23 18:00:00,14.4,1002.3,-1.2,71,9.2,,14.816,,,160,11,21.6,,,,,,,,,og-post,,,,AAXX 23184 07535 36/// /1608 10144 20092 39719 40023 58012 333 10216 20110=
07535,1999-10-23 19:00:00,14.5,1001.2,-2,72,9.5,,14.816,,,160,,,,,,,,,,,og-post,,,,AAXX 23194 07535 36/// /1608 10145 20095 39709 40012 58020=
07535,1999-10-23 20:00:00,14.3,999.5,-3.2,72,9.3,,18.52,,,150,,,,,,,,,,,og-post,,,,AAXX 23204 07535 36/// /1510 10143 20093 39692 49995 58032=
07535,1999-10-23 21:00:00,14.7,998.2,-3.9,67,8.6,,29.632,50.004,50.004,160,,,,,,,,,,,og-post,,,,AAXX 23214 07535 36/// /1616 10147 20086 39680 49982 58039 333 91027 91127=
07535,1999-10-23 22:00:00,14.8,997.6,-3.5,66,8.5,,31.484,,,160,,,,,,,,,,,og-post,,,,AAXX 23224 07535 36/// /1617 10148 20085 39674 49976 56035=
07535,1999-10-23 23:00:00,15.5,997.1,-2.2,62,8.3,,31.484,61.116,53.708,170,,,,,,,,,,,og-post,,,,AAXX 23234 07535 36/// /1717 10155 20083 39670 49971 56022 333 91029 91133=
07535,1999-10-24 00:00:00,14.7,996.2,-1.9,66,8.4,,31.484,61.116,,160,,,,,,,,,,,og-post,,,,AAXX 24004 07535 36/// /1617 10147 20084 39661 49962 58019 333 91133=
07535,1999-10-24 01:00:00,15.3,994.1,-3.3,62,8.1,,35.188,57.412,57.412,150,,,,,,,,,,,og-post,,,,AAXX 24014 07535 36/// /1519 10153 20081 39641 49941 58033 333 91031 91131=
07535,1999-10-24 02:00:00,15.4,993.4,-3.6,62,8.2,,35.188,61.116,61.116,160,,,,,,,,,,,og-post,,,,AAXX 24024 07535 36/// /1619 10154 20082 39634 49934 56036 333 91033 91133=
07535,1999-10-24 03:00:00,15.3,992.7,-3.4,64,8.5,,29.632,61.116,,160,,,,,,,,,,,og-post,,,,AAXX 24034 07535 36/// /1616 10153 20085 39627 49927 56034 333 91133=
07535,1999-10-24 04:00:00,15.3,993,-1.1,65,8.8,,18.52,,,190,,,,,,,,,,,og-post,,,,AAXX 24044 07535 36/// /1910 10153 20088 39630 49930 55011=
07535,1999-10-24 05:00:00,15.7,993.6,0.2,66,9.4,,22.224,,,200,,,,,,,,,,,og-post,,,,AAXX 24054 07535 36/// /2012 10157 20094 39636 49936 53002=
07535,1999-10-24 06:00:00,14.7,994,1.2,77,10.7,20000,18.52,61.116,,200,13.9,15.7,,0.2,,0.2,0.2,7.6,12,21,og-post,,,,AAXX 24064 07535 /1670 82010 10147 20107 39639 49940 52012 69922 72162 8657/ 333 10157 20139 31012 55076 69927 70002 86633 87361 91133=
07535,1999-10-24 07:00:00,14.1,994.5,1.4,81,10.9,10000,25.928,,,210,,,0.6,,,,,,,61,og-post,,,,AAXX 24074 07535 21260 82114 10141 20109 39644 49945 51014 76162 877// 333 69965 87703=
07535,1999-10-24 08:00:00,13,995.8,1.9,94,12.1,13000,14.816,,,210,,,2,,,,,,,61,og-post,,,,AAXX 24084 07535 21263 72108 10130 20121 39655 49958 53019 76166 875// 333 60025 83703 87633=
07535,1999-10-24 09:00:00,13.6,996.7,2.6,96,13,30000,3.704,,,230,,,,3,,,,,,60,og-post,,,,AAXX 24094 07535 21580 72302 10136 20130 39665 49967 53026 76062 875// 333 60037 81626 87633=
07535,1999-10-24 10:00:00,13.4,996.8,2.1,83,10.6,,7.408,,,320,,,,,,,,,,,og-post,,,,AAXX 24104 07535 26/// /3204 10134 20106 39665 49968 51021 333 69905=
07535,1999-10-24 11:00:00,15.3,996,0.4,72,10.3,,7.408,,,80,,,,,,,,,,,og-post,,,,AAXX 24114 07535 36/// /0804 10153 20103 39659 49960 50004=
07535,1999-10-24 12:00:00,17.5,995.2,-1.1,57,8.9,,3.704,,,160,,,,,3,,,,,,og-post,,,,AAXX 24124 07535 /6/// /1602 10175 20089 39654 49952 58011 60031 333 69907=
07535,1999-10-24 13:00:00,16.5,995.3,-1.1,74,11.9,,7.408,,,180,,,,,,,,,,,og-post,,,,AAXX 24134 07535 36/// /1804 10165 20119 39654 49953 56011=
07535,1999-10-24 14:00:00,16.8,995.1,-0.7,74,12.1,,7.408,,,210,,,,,,,,,,,og-post,,,,AAXX 24144 07535 36/// /2104 10168 20121 39652 49951 56007=
07535,1999-10-24 15:00:00,17,994.4,-0.8,69,11.3,,7.408,,,190,,,,,,,,,,,og-post,,,,AAXX 24154 07535 36/// /1904 10170 20113 39646 49944 58008=
07535,1999-10-24 16:00:00,15.9,994.3,-1,76,11.7,,11.112,,,190,,,,,,,,,,,og-post,,,,AAXX 24164 07535 36/// /1906 10159 20117 39644 49943 57010=
07535,1999-10-24 17:00:00,14.4,994.5,-0.8,82,11.4,,14.816,,,160,,,,,,,,,,,og-post,,,,AAXX 24174 07535 36/// /1608 10144 20114 39644 49945 56008=
07535,1999-10-24 18:00:00,13.7,995.3,0.5,88,11.7,,11.112,,,170,13,18,,,,3,,,,,og-post,,,,AAXX 24184 07535 16/// /1706 10137 20117 39651 49953 53005 60032 333 10180 20130=
07535,1999-10-24 19:00:00,13.4,995.5,0.9,82,10.4,,14.816,,,170,,,,,,,,,,,og-post,,,,AAXX 24194 07535 36/// /1708 10134 20104 39653 49955 53009=
07535,1999-10-24 20:00:00,13.6,995.4,0.8,77,9.6,,18.52,,,160,,,,,,,,,,,og-post,,,,AAXX 24204 07535 36/// /1610 10136 20096 39652 49954 50008=
07535,1999-10-24 21:00:00,14.3,995.6,0.3,71,9.1,,14.816,,,170,,,,,,,,,,,og-post,,,,AAXX 24214 07535 36/// /1708 10143 20091 39654 49956 52003=
07535,1999-10-24 22:00:00,13.7,995.6,0.1,74,9.2,,14.816,,,170,,,,,,,,,,,og-post,,,,AAXX 24224 07535 36/// /1708 10137 20092 39654 49956 53001=
07535,1999-10-24 23:00:00,14,996.5,1.1,74,9.4,,14.816,,,200,,,,,,,,,,,og-post,,,,AAXX 24234 07535 36/// /2008 10140 20094 39663 49965 53011=
07535,1999-10-25 00:00:00,13.1,996.5,0.8,78,9.4,,7.408,,,150,,,,,,,,,,,og-post,,,,AAXX 25004 07535 36/// /1504 10131 20094 39662 49965 50008=
07535,1999-10-25 01:00:00,12.8,997,1.2,79,9.3,,7.408,,,170,,,,,,,,,,,og-post,,,,AAXX 25014 07535 36/// /1704 10128 20093 39666 49970 51012=
07535,1999-10-25 02:00:00,11.9,998,1.2,88,10,,3.704,,,330,,,,,,,,,,,og-post,,,,AAXX 25024 07535 36/// /3302 10119 20100 39675 49980 53012=
07535,1999-10-25 03:00:00,10.8,998.1,1.3,94,9.9,,7.408,,,150,,,,,,,,,,,og-post,,,,AAXX 25034 07535 36/// /1504 10108 20099 39675 49981 51013=
07535,1999-10-25 04:00:00,9.5,998.7,1.3,97,9,25000,7.408,,,160,,,,,,,,,,13,og-post,,,,AAXX 25044 07535 31675 21604 10095 20090 39679 49987 51013 71300 82900 333 81933=
07535,1999-10-25 05:00:00,8,999.6,1.1,98,7.7,25000,7.408,,,170,,,,,,,,,,,og-post,,,,AAXX 25054 07535 32675 11704 10080 20077 39686 49996 53011 81500 333 81646=
07535,1999-10-25 06:00:00,8.4,999.9,1.5,91,7,25000,7.408,,,180,7.8,14.3,,,,,3.2,4.1,5,,og-post,,,,AAXX 25064 07535 32675 11804 10084 20070 39690 49999 52015 81500 333 10143 20078 31005 55041 70032 81646=
07535,1999-10-25 07:00:00,7.7,1000.8,1.9,92,6.5,30000,11.112,,,180,,,,,,,,,,,og-post,,,,AAXX 25074 07535 32680 11806 10077 20065 39698 40008 53019 81500 333 81646=
07535,1999-10-25 08:00:00,12.6,1001.6,2.5,68,6.9,35000,11.112,,,220,,,,,,,,,,,og-post,,,,AAXX 25084 07535 32681 12206 10126 20069 39711 40016 53025 81500 333 81646=
07535,1999-10-25 09:00:00,15.8,1002.4,3.2,56,7,35000,7.408,,,230,,,,,,,,,,,og-post,,,,AAXX 25094 07535 32681 12304 10158 20070 39722 40024 53032 81500 333 81646=
07535,1999-10-25 10:00:00,18.1,1003.1,3.3,50,7.5,35000,7.408,,,260,,,,,,,,,,,og-post,,,,AAXX 25104 07535 32681 12604 10181 20075 39731 40031 51033 81500 333 81646=
07535,1999-10-25 11:00:00,19.3,1003.4,2.4,44,6.8,35000,11.112,,,270,,,,,,,,,,,og-post,,,,AAXX 25114 07535 32681 12706 10193 20068 39735 40034 51024 81500 333 81646=
07535,1999-10-25 12:00:00,19.7,1003.4,1.3,45,7.4,35000,11.112,,,270,,,,,,,,,,,og-post,,,,AAXX 25124 07535 32681 12706 10197 20074 39735 40034 51013 81900 333 81936=
07535,1999-10-25 13:00:00,20.9,1003.2,0.4,41,7.2,35000,3.704,,,240,,,,,,,,,,,og-post,,,,AAXX 25134 07535 32681 12402 10209 20072 39735 40032 51004 81900 333 81936=
07535,1999-10-25 14:00:00,20.8,1003.7,0.4,42,7.4,35000,7.408,,,230,,,,,,,,,,,og-post,,,,AAXX 25144 07535 32681 12304 10208 20074 39739 40037 53004 81500 333 81646=
07535,1999-10-25 17:00:00,15.3,1006.5,2.2,63,8.3,,7.408,,,170,,,,,,,,,,,og-post,,,,AAXX 25174 07535 36/// /1704 10153 20083 39761 40065 53022=
07535,1999-10-25 18:00:00,12.8,1007.7,2.4,73,8.1,,7.408,,,130,7.5,20.9,,,,,,,,,og-post,,,,AAXX 25184 07535 36/// /1304 10128 20081 39770 40077 53024 333 10209 20075=
07535,1999-10-25 21:00:00,8.3,1011.1,2.8,91,6.9,,7.408,,,150,,,,,,,,,,,og-post,,,,AAXX 25214 07535 36/// /1504 10083 20069 39798 40111 53028=
07535,1999-10-25 23:00:00,7.9,1012.2,2.2,89,6.2,,7.408,,,140,,,,,,,,,,,og-post,,,,AAXX 25234 07535 36/// /1404 10079 20062 39808 40122 51022=
07535,1999-10-26 00:00:00,8.8,1012.4,1.3,85,6.4,,7.408,,,120,,,,,,,,,,,og-post,,,,AAXX 26004 07535 36/// /1204 10088 20064 39811 40124 51013=
07535,1999-10-26 02:00:00,6.5,1013.7,1.3,94,5.6,,11.112,,,140,,,,,,,,,,,og-post,,,,AAXX 26024 07535 36/// /1406 10065 20056 39821 40137 53013=
07535,1999-10-26 03:00:00,8.7,1013.8,1.4,85,6.3,,11.112,,,130,,,,,,,,,,,og-post,,,,AAXX 26034 07535 36/// /1306 10087 20063 39825 40138 51014=
07535,1999-10-26 06:00:00,6.4,1015.8,1.6,99,6.3,15000,14.816,,,150,5.6,12.8,,,,,0,9,2,,og-post,,,,AAXX 26064 07535 32965 11508 10064 20063 39841 40158 51016 80002 333 10128 20056 30002 55090 70000 81075=
07535,1999-10-26 07:00:00,7.1,1016.8,2.2,91,5.7,15000,3.704,,,350,,,,,,,,,,,og-post,,,,AAXX 26074 07535 32965 13502 10071 20057 39852 40168 53022 80002 333 81075=
07535,1999-10-26 08:00:00,9.3,1017.3,2.1,82,6.4,15000,,,,,,,,,,,,,,,og-post,,,,AAXX 26084 07535 32965 10000 10093 20064 39859 40173 53021 80002 333 81075=
07535,1999-10-26 09:00:00,10.6,1018.3,2.9,85,8.2,20000,3.704,,,300,,,,,,,,,,,og-post,,,,AAXX 26094 07535 32970 13002 10106 20082 39870 40183 52029 80002 333 81075=
07535,1999-10-26 10:00:00,14.4,1018.4,2.4,72,9.4,,,,,,,,,,,,,,,,og-post,,,,AAXX 26104 07535 36/// /0000 10144 20094 39876 40184 51024=
07535,1999-10-26 11:00:00,16.4,1018.3,1.8,74,11.8,20000,7.408,,,360,,,,,,,,,,,og-post,,,,AAXX 26114 07535 32970 23604 10164 20118 39877 40183 51018 81032 333 81361=
07535,1999-10-26 12:00:00,18.7,1018.4,1,59,10.5,25000,3.704,,,350,,,,,,,,,,,og-post,,,,AAXX 26124 07535 32975 23502 10187 20105 39880 40184 51010 81032 333 81363=
07535,1999-10-26 13:00:00,19.1,1018.3,0.3,46,7.2,25000,7.408,,,50,,,,,,,,,,,og-post,,,,AAXX 26134 07535 32575 50504 10191 20072 39879 40183 50003 81132 333 81830 84363=
07535,1999-10-26 14:00:00,19.5,1017.9,-0.1,40,5.6,25000,11.112,,,70,,,,,,,,,,,og-post,,,,AAXX 26144 07535 32575 20706 10195 20056 39876 40179 58001 81132 333 81830=
07535,1999-10-26 15:00:00,19.4,1018.1,-0.2,43,6.5,25000,7.408,,,40,,,,,,,,,,,og-post,,,,AAXX 26154 07535 32575 20404 10194 20065 39878 40181 55002 81102 333 81830=
07535,1999-10-26 16:00:00,18,1018.8,0.4,48,6.8,,7.408,,,20,,,,,,,,,,,og-post,,,,AAXX 26164 07535 36/// /0204 10180 20068 39883 40188 53004=
07535,1999-10-26 17:00:00,16.4,1019.7,1.4,55,7.3,,3.704,,,30,,,,,,,,,,,og-post,,,,AAXX 26174 07535 36/// /0302 10164 20073 39890 40197 53014=
07535,1999-10-26 18:00:00,12.9,1020.9,2,76,8.8,,3.704,,,70,6.5,19.8,,,,,,,,,og-post,,,,AAXX 26184 07535 36/// /0702 10129 20088 39898 40209 53020 333 10198 20065=
07535,1999-10-26 19:00:00,11.1,1021.7,2.1,81,8,,7.408,,,140,,,,,,,,,,,og-post,,,,AAXX 26194 07535 36/// /1404 10111 20080 39904 40217 51021=
07535,1999-10-26 20:00:00,9.9,1022.5,2,87,7.8,,3.704,,,60,,,,,,,,,,,og-post,,,,AAXX 26204 07535 36/// /0602 10099 20078 39910 40225 51020=
07535,1999-10-26 21:00:00,9.4,1022.9,1.6,90,7.8,,,,,,,,,,,,,,,,og-post,,,,AAXX 26214 07535 36/// /0000 10094 20078 39914 40229 51016=
07535,1999-10-26 22:00:00,9.5,1023.3,1.4,90,7.9,,3.704,,,70,,,,,,,,,,,og-post,,,,AAXX 26224 07535 36/// /0702 10095 20079 39918 40233 51014=
07535,1999-10-26 23:00:00,9.1,1023.5,0.9,95,8.3,,3.704,,,30,,,,,,,,,,,og-post,,,,AAXX 26234 07535 36/// /0302 10091 20083 39919 40235 51009=
07535,1999-10-27 00:00:00,8.8,1024,1,95,8,,3.704,,,330,,,,,,,,,,,og-post,,,,AAXX 27004 07535 36/// /3302 10088 20080 39924 40240 53010=
07535,1999-10-27 01:00:00,7.7,1024.3,0.7,95,7,,7.408,,,140,,,,,,,,,,,og-post,,,,AAXX 27014 07535 36/// /1404 10077 20070 39925 40243 52007=
07535,1999-10-27 02:00:00,9.3,1024.3,0.8,94,8.4,,3.704,,,160,,,,,,,,,,,og-post,,,,AAXX 27024 07535 36/// /1602 10093 20084 39927 40243 51008=
07535,1999-10-27 03:00:00,8.2,1024.9,0.8,95,7.4,,7.408,,,310,,,,,,,,,,,og-post,,,,AAXX 27034 07535 36/// /3104 10082 20074 39932 40249 53008=
07535,1999-10-27 04:00:00,7.1,1025.3,0.9,98,6.8,,3.704,,,130,,,,,,,,,,,og-post,,,,AAXX 27044 07535 36/// /1302 10071 20068 39934 40253 52009=
07535,1999-10-27 05:00:00,7.5,1025.2,0.7,98,7.2,,11.112,,,140,,,,,,,,,,,og-post,,,,AAXX 27054 07535 36/// /1406 10075 20072 39934 40252 51007=
07535,1999-10-27 06:00:00,7.4,1025.8,0.7,94,6.5,13000,3.704,,,30,6.9,12.8,,,,,0,9.5,3,,og-post,,,,AAXX 27064 07535 32963 10302 10074 20065 39939 40258 53007 80001 333 10128 20069 30003 55095 70000 81075=
07535,1999-10-27 07:00:00,9.4,1025.3,0.3,86,7.2,,7.408,,,140,,,,,,,,,,,og-post,,,,AAXX 27074 07535 36/// /1404 10094 20072 39937 40253 50003=
07535,1999-10-27 08:00:00,11,1026.6,1.7,81,7.9,20000,,,,,,,,,,,,,,,og-post,,,,AAXX 27084 07535 32970 10000 10110 20079 39951 40266 53017 80001 333 81075=
07535,1999-10-27 09:00:00,13.1,1026.3,1.2,76,9,,3.704,,,280,,,,,,,,,,,og-post,,,,AAXX 27094 07535 36/// /2802 10131 20090 39951 40263 53012=
07535,1999-10-27 10:00:00,15.4,1026,1.3,75,11,25000,3.704,,,300,,,,,,,,,,,og-post,,,,AAXX 27104 07535 32975 13002 10154 20110 39950 40260 50013 81031 333 81363=
07535,1999-10-27 11:00:00,18.2,1025.5,-0.2,69,12.4,,3.704,,,320,,,,,,,,,,,og-post,,,,AAXX 27114 07535 36/// /3202 10182 20124 39949 40255 58002=
07535,1999-10-27 12:00:00,21.4,1024.8,-0.6,47,9.6,25000,11.112,,,160,,,,,,,,,,,og-post,,,,AAXX 27124 07535 32975 11606 10214 20096 39945 40248 58006 81031 333 81363=
07535,1999-10-27 13:00:00,21.7,1024,-1.3,47,9.9,25000,11.112,,,160,,,,,,,,,,,og-post,,,,AAXX 27134 07535 32975 21606 10217 20099 39937 40240 58013 81032 333 81361=
07535,1999-10-27 14:00:00,21.5,1023.7,-1.5,49,10.3,25000,3.704,,,60,,,,,,,,,,,og-post,,,,AAXX 27144 07535 32975 50602 10215 20103 39934 40237 56015 81032 333 81361 85075=
07535,1999-10-27 15:00:00,21.9,1023.3,-1.4,52,11.6,25000,,,,,,,,,,,,,,,og-post,,,,AAXX 27154 07535 32975 40000 10219 20116 39931 40233 56014 84030 333 84360=
07535,1999-10-27 16:00:00,20.5,1023.1,-0.9,54,10.9,,3.704,,,170,,,,,,,,,,,og-post,,,,AAXX 27164 07535 36/// /1702 10205 20109 39928 40231 57009=
07535,1999-10-27 17:00:00,18.7,1023.2,-0.7,64,11.8,,3.704,,,110,,,,,,,,,,,og-post,,,,AAXX 27174 07535 36/// /1102 10187 20118 39927 40232 56007=
07535,1999-10-27 18:00:00,16.1,1023.8,-0.1,76,11.9,,7.408,,,140,7.1,22.9,,,,,,,,,og-post,,,,AAXX 27184 07535 36/// /1404 10161 20119 39930 40238 55001 333 10229 20071=
07535,1999-10-27 19:00:00,14.3,1024,0.2,83,11.5,,11.112,,,150,,,,,,,,,,,og-post,,,,AAXX 27194 07535 36/// /1506 10143 20115 39930 40240 53002=
07535,1999-10-27 20:00:00,14.7,1023.8,0.1,82,11.7,,7.408,,,150,,,,,,,,,,,og-post,,,,AAXX 27204 07535 36/// /1504 10147 20117 39928 40238 50001=
07535,1999-10-27 21:00:00,15,1023.9,-0,80,11.6,,3.704,,,140,,,,,,,,,,,og-post,,,,AAXX 27214 07535 36/// /1402 10150 20116 39930 40239 55000=
07535,1999-10-27 22:00:00,14.4,1024.4,0.4,84,11.7,,7.408,,,350,,,,,,,,,,,og-post,,,,AAXX 27224 07535 36/// /3504 10144 20117 39934 40244 53004=
07535,1999-10-27 23:00:00,12.9,1024.5,0.5,92,11.6,,3.704,,,150,,,,,,,,,,,og-post,,,,AAXX 27234 07535 36/// /1502 10129 20116 39933 40245 50005=
07535,1999-10-28 00:00:00,12.1,1024.8,0.5,93,11,,3.704,,,130,,,,,,,,,,,og-post,,,,AAXX 28004 07535 36/// /1302 10121 20110 39935 40248 51005=
07535,1999-10-28 01:00:00,13.1,1024.6,-0,87,11,,7.408,,,120,,,,,,,,,,,og-post,,,,AAXX 28014 07535 36/// /1204 10131 20110 39934 40246 54000=
07535,1999-10-28 02:00:00,14.1,1024,-0.3,80,10.7,,3.704,,,130,,,,,,,,,,,og-post,,,,AAXX 28024 07535 36/// /1302 10141 20107 39930 40240 58003=
07535,1999-10-28 03:00:00,11.4,1025.4,0.5,94,10.5,,3.704,,,270,,,,,,,,,,,og-post,,,,AAXX 28034 07535 36/// /2702 10114 20105 39940 40254 53005=
07535,1999-10-28 04:00:00,11,1025.1,0.3,97,10.5,,7.408,,,130,,,,,,,,,,,og-post,,,,AAXX 28044 07535 36/// /1304 10110 20105 39937 40251 53003=
07535,1999-10-28 05:00:00,10.5,1025.3,0.8,96,9.9,20000,3.704,,,130,,,,,,,,,,,og-post,,,,AAXX 28054 07535 32970 31302 10105 20099 39938 40253 51008 80001 333 83075=
07535,1999-10-28 06:00:00,10.4,1026,0.5,98,10.1,15000,7.408,,,250,10.1,16,,,,,0,9,7,,og-post,,,,AAXX 28064 07535 32965 32504 10104 20101 39945 40260 53005 80001 333 10160 20101 30007 55090 70000 83075=
07535,1999-10-28 07:00:00,10.1,1027.1,1.8,98,9.8,15000,3.704,,,170,,,,,,,,,,,og-post,,,,AAXX 28074 07535 32965 71702 10101 20098 39955 40271 53018 81031 333 81363 87075=
07535,1999-10-28 08:00:00,11.7,1026.9,1.7,94,10.8,15000,7.408,,,140,,,,,,,,,,,og-post,,,,AAXX 28084 07535 32965 71404 10117 20108 39955 40269 51017 81031 333 81363 87075=
07535,1999-10-28 09:00:00,13.8,1026.4,0.8,86,11.5,15000,3.704,,,310,,,,,,,,,,,og-post,,,,AAXX 28094 07535 32965 73102 10138 20115 39953 40264 50008 8701/ 333 87461=
07535,1999-10-28 10:00:00,15.8,1026.6,0.2,81,12.5,20000,3.704,,,220,,,,,,,,,,,og-post,,,,AAXX 28104 07535 32970 72202 10158 20125 39957 40266 53002 80002 333 87075=
07535,1999-10-28 11:00:00,19.4,1025.6,-0.4,60,11.4,,18.52,,,150,,,,,,,,,,,og-post,,,,AAXX 28114 07535 36/// /1510 10194 20114 39951 40256 58004=
07535,1999-10-28 12:00:00,19.9,1024.9,-0.8,61,12.2,20000,14.816,,,170,,,,,,,,,,,og-post,,,,AAXX 28124 07535 32970 71708 10199 20122 39945 40249 58008 80002 333 87075=
07535,1999-10-28 13:00:00,21.2,1024.4,-1.6,57,12.3,,7.408,,,190,,,,,,,,,,,og-post,,,,AAXX 28134 07535 36/// /1904 10212 20123 39941 40244 56016=
07535,1999-10-28 14:00:00,21.5,1023.9,-1.5,53,11.5,,7.408,,,170,,,,,,,,,,,og-post,,,,AAXX 28144 07535 36/// /1704 10215 20115 39936 40239 56015=
07535,1999-10-28 15:00:00,21.4,1024,-0.8,55,12,15000,3.704,,,160,,,,,,,,,,,og-post,,,,AAXX 28154 07535 32965 41602 10214 20120 39937 40240 55008 80001 333 84075=
07535,1999-10-28 16:00:00,19.9,1024.1,-0.4,62,12.4,,3.704,,,120,,,,,,,,,,,og-post,,,,AAXX 28164 07535 36/// /1202 10199 20124 39937 40241 56004=
07535,1999-10-28 17:00:00,17.5,1024.4,0.1,75,13,,3.704,,,130,,,,,,,,,,,og-post,,,,AAXX 28174 07535 36/// /1302 10175 20130 39937 40244 51001=
07535,1999-10-28 19:00:00,15.2,1024.8,0.2,86,12.9,,7.408,,,150,,,,,,,,,,,og-post,,,,AAXX 28194 07535 36/// /1504 10152 20129 39939 40248 52002=
07535,1999-10-28 20:00:00,15.7,1025,0.4,79,12.1,,3.704,,,90,,,,,,,,,,,og-post,,,,AAXX 28204 07535 36/// /0902 10157 20121 39941 40250 52004=
07535,1999-10-28 21:00:00,15,1024.5,-0.3,84,12.3,,11.112,,,120,,,,,,,,,,,og-post,,,,AAXX 28214 07535 36/// /1206 10150 20123 39936 40245 58003=
07535,1999-10-28 22:00:00,14.9,1025.3,0.4,84,12.2,,3.704,,,20,,,,,,,,,,,og-post,,,,AAXX 28224 07535 36/// /0202 10149 20122 39943 40253 53004=
07535,1999-10-28 23:00:00,13.3,1025,-0.2,92,12,,7.408,,,130,,,,,,,,,,,og-post,,,,AAXX 28234 07535 36/// /1304 10133 20120 39939 40250 56002=
07535,1999-10-29 00:00:00,14.1,1024.7,0.1,89,12.3,,3.704,,,100,,,,,,,,,,,og-post,,,,AAXX 29004 07535 36/// /1002 10141 20123 39937 40247 50001=
07535,1999-10-29 01:00:00,13.9,1024.4,-1,89,12.1,,3.704,,,130,,,,,,,,,,,og-post,,,,AAXX 29014 07535 36/// /1302 10139 20121 39933 40244 57010=
07535,1999-10-29 02:00:00,12.6,1024.1,-1,94,11.7,,3.704,,,20,,,,,,,,,,,og-post,,,,AAXX 29024 07535 36/// /0202 10126 20117 39929 40241 58010=
07535,1999-10-29 03:00:00,11.4,1023.7,-1.3,97,10.9,,3.704,,,140,,,,,,,,,,,og-post,,,,AAXX 29034 07535 36/// /1402 10114 20109 39924 40237 58013=
07535,1999-10-29 04:00:00,11.5,1023.5,-1.1,94,10.6,,,,,,,,,,,,,,,,og-post,,,,AAXX 29044 07535 36/// /0000 10115 20106 39922 40235 56011=
07535,1999-10-29 05:00:00,12.1,1023,-1.1,92,10.8,,7.408,,,50,,,,,,,,,,,og-post,,,,AAXX 29054 07535 36/// /0504 10121 20108 39918 40230 56011=
07535,1999-10-29 06:00:00,12.1,1022.8,-0.8,87,10,15000,3.704,,,90,11.3,17,,,,,0,4.6,7,,og-post,,,,AAXX 29064 07535 32965 30902 10121 20100 39916 40228 57008 80001 333 10170 20113 30007 55046 70000 83075=
07535,1999-10-29 07:00:00,13.3,1022.8,-0.5,81,10.1,15000,7.408,,,100,,,,,,,,,,,og-post,,,,AAXX 29074 07535 32965 51004 10133 20101 39917 40228 55005 80002 333 85075=
07535,1999-10-29 08:00:00,15.4,1022.3,-0.4,70,10,15000,11.112,,,110,,,,,,,,,,,og-post,,,,AAXX 29084 07535 32965 61106 10154 20100 39914 40223 58004 83032 333 83362 85075=
07535,1999-10-29 09:00:00,15.4,1022.1,-0.3,74,10.8,,7.408,,,140,,,,,,,,,,,og-post,,,,AAXX 29094 07535 36/// /1404 10154 20108 39913 40221 58003=
07535,1999-10-29 10:00:00,16.6,1021.8,-0.6,76,12.4,15000,3.704,,,180,,,,,,,,,,,og-post,,,,AAXX 29104 07535 32965 81802 10166 20124 39911 40218 56006 85072 333 85362 85075=
07535,1999-10-29 11:00:00,16,1021.1,-1,86,13.7,15000,3.704,,,100,,,,,,,,,,,og-post,,,,AAXX 29114 07535 32965 81002 10160 20137 39904 40211 58010 85072 333 85362 85075=
07535,1999-10-29 12:00:00,15.6,1020.3,-1.7,87,13.4,15000,3.704,,,40,,,,,,,,,,,og-post,,,,AAXX 29124 07535 32965 80402 10156 20134 39896 40203 58017 85072 333 85362 85075=
07535,1999-10-29 13:00:00,17.8,1019,-2.6,71,12.5,15000,3.704,,,120,,,,,,,,,,,og-post,,,,AAXX 29134 07535 32965 81202 10178 20125 39885 40190 58026 86072 333 85362 85075=
07535,1999-10-29 14:00:00,19.7,1017.8,-2.9,62,12.2,15000,3.704,,,160,,,,,,,,,,,og-post,,,,AAXX 29144 07535 32965 81602 10197 20122 39875 40178 58029 86072 333 85362 85075=
07535,1999-10-29 15:00:00,18.2,1018.1,-1.9,79,14.5,15000,7.408,,,280,,,,,,,,,,,og-post,,,,AAXX 29154 07535 32665 82804 10182 20145 39877 40181 55019 83572 333 83646 86362 85075=
07535,1999-10-29 16:00:00,17.5,1017.4,-1.5,79,13.8,,3.704,,,120,,,,,,,,,,,og-post,,,,AAXX 29164 07535 36/// /1202 10175 20138 39870 40174 56015=
07535,1999-10-29 17:00:00,18.1,1017.2,-0.7,68,12.1,,7.408,,,150,,,,,,,,,,,og-post,,,,AAXX 29174 07535 36/// /1504 10181 20121 39868 40172 58007=
07535,1999-10-29 18:00:00,16.7,1017.4,-0.8,79,13,,7.408,,,290,11.8,20,,,,,,,,,og-post,,,,AAXX 29184 07535 36/// /2904 10167 20130 39869 40174 55008 333 10200 20118=
07535,1999-10-29 19:00:00,16.7,1017.2,-0.3,77,12.6,,3.704,,,150,,,,,,,,,,,og-post,,,,AAXX 29194 07535 36/// /1502 10167 20126 39867 40172 57003=
07535,1999-10-29 20:00:00,17,1017.5,0.2,76,12.7,,11.112,,,170,,,,,,,,,,,og-post,,,,AAXX 29204 07535 36/// /1706 10170 20127 39870 40175 53002=
07535,1999-10-29 21:00:00,15.9,1017.7,0.2,83,13,,11.112,,,350,,,,,,,,,,,og-post,,,,AAXX 29214 07535 36/// /3506 10159 20130 39871 40177 53002=
07535,1999-10-29 22:00:00,15.3,1017.5,0.1,85,12.8,,7.408,,,140,,,,,,,,,,,og-post,,,,AAXX 29224 07535 36/// /1404 10153 20128 39868 40175 50001=
07535,1999-10-29 23:00:00,15.4,1017,-0.7,83,12.5,,7.408,,,120,,,,,,,,,,,og-post,,,,AAXX 29234 07535 36/// /1204 10154 20125 39863 40170 58007=
07535,1999-10-30 00:00:00,14.8,1017.3,-0.5,84,12.1,,7.408,,,290,,,,,,,,,,,og-post,,,,AAXX 30004 07535 36/// /2904 10148 20121 39866 40173 55005=
07535,1999-10-30 01:00:00,14.3,1017.8,0.2,89,12.5,,7.408,,,260,,,,,,,,,,,og-post,,,,AAXX 30014 07535 36/// /2604 10143 20125 39870 40178 53002=
07535,1999-10-30 02:00:00,13.5,1016.8,-0.4,92,12.2,,11.112,,,90,,,,,,,,,,,og-post,,,,AAXX 30024 07535 36/// /0906 10135 20122 39859 40168 58004=
07535,1999-10-30 03:00:00,13.3,1016.3,-1.2,89,11.5,,7.408,,,150,,,,,,,,,,,og-post,,,,AAXX 30034 07535 36/// /1504 10133 20115 39854 40163 58012=
07535,1999-10-30 04:00:00,14.5,1015.5,-2.2,78,10.7,12000,11.112,,,140,,,,,,,,,,,og-post,,,,AAXX 30044 07535 32962 21406 10145 20107 39848 40155 56022 81031 333 81361=
07535,1999-10-30 05:00:00,15.6,1015.2,-1.3,70,10.2,8000,14.816,,,140,,,,,,,,,,,og-post,,,,AAXX 30054 07535 32958 31408 10156 20102 39846 40152 56013 82031 333 82361=
07535,1999-10-30 06:00:00,15,1015.2,-0.9,76,10.8,8000,14.816,,,130,12.8,17.3,,,,,0,,9,,og-post,,,,AAXX 30064 07535 32958 41308 10150 20108 39845 40152 56009 84031 333 10173 20128 30009 55000 70000 84361=
07535,1999-10-30 07:00:00,15.1,1015.5,-0,79,11.5,12000,14.816,,,140,,,,,,,,,,,og-post,,,,AAXX 30074 07535 32962 21408 10151 20115 39848 40155 55000 82030 333 82361=
07535,1999-10-30 08:00:00,16.9,1015.5,0.4,75,12.4,12000,11.112,,,160,,,,,,,,,,,og-post,,,,AAXX 30084 07535 32962 21606 10169 20124 39850 40155 53004 82030 333 82361=
07535,1999-10-30 09:00:00,19.3,1015.4,0.7,69,13.5,12000,3.704,,,210,,,,,,,,,,,og-post,,,,AAXX 30094 07535 32962 22102 10193 20135 39852 40154 51007 82030 333 82361=
07535,1999-10-30 10:00:00,21.3,1015.2,0.4,65,14.5,12000,11.112,,,200,,,,,,,,,,,og-post,,,,AAXX 30104 07535 32762 22006 10213 20145 39852 40152 51004 81530 333 81650=
07535,1999-10-30 11:00:00,22,1014.8,-0.1,62,14.4,,14.816,,,200,,,,,,,,,,,og-post,,,,AAXX 30114 07535 36/// /2008 10220 20144 39849 40148 58001=
07535,1999-10-30 12:00:00,22.3,1014.8,-0.3,60,14.2,,14.816,,,210,,,,,,,,,,,og-post,,,,AAXX 30124 07535 36/// /2108 10223 20142 39849 40148 57003=
07535,1999-10-30 13:00:00,23.7,1014,-0.9,53,13.6,,11.112,,,220,,,,,,,,,,,og-post,,,,AAXX 30134 07535 36/// /2206 10237 20136 39843 40140 58009=
07535,1999-10-30 14:00:00,23.8,1013.9,-0.7,52,13.4,,7.408,,,240,,,,,,,,,,,og-post,,,,AAXX 30144 07535 36/// /2404 10238 20134 39842 40139 58007=
07535,1999-10-30 15:00:00,22.2,1014.4,-0.4,59,13.8,,3.704,,,250,,,,,,,,,,,og-post,,,,AAXX 30154 07535 36/// /2502 10222 20138 39845 40144 55004=
07535,1999-10-30 16:00:00,20.2,1014.7,0.3,60,12.2,,7.408,,,230,,,,,,,,,,,og-post,,,,AAXX 30164 07535 36/// /2304 10202 20122 39846 40147 53003=
07535,1999-10-30 17:00:00,18.4,1016.3,1.8,67,12.2,,7.408,,,260,,,,,,,,,,,og-post,,,,AAXX 30174 07535 36/// /2604 10184 20122 39860 40163 53018=
07535,1999-10-30 18:00:00,17.5,1017.5,2.5,73,12.6,,3.704,,,260,14.9,23.9,,,,,,,,,og-post,,,,AAXX 30184 07535 36/// /2602 10175 20126 39870 40175 53025 333 10239 20149=
07535,1999-10-30 19:00:00,16.9,1018.4,3.2,76,12.6,,7.408,,,190,,,,,,,,,,,og-post,,,,AAXX 30194 07535 36/// /1904 10169 20126 39878 40184 51032=
07535,1999-10-30 20:00:00,17.1,1019,2.4,71,11.8,,7.408,,,220,,,,,,,,,,,og-post,,,,AAXX 30204 07535 36/// /2204 10171 20118 39884 40190 51024=
07535,1999-10-30 21:00:00,16.9,1020.1,2.5,70,11.4,,7.408,,,270,,,,,,,,,,,og-post,,,,AAXX 30214 07535 36/// /2704 10169 20114 39895 40201 53025=
07535,1999-10-30 22:00:00,16.2,1021.3,2.8,75,11.8,,7.408,,,290,,,,,,,,,,,og-post,,,,AAXX 30224 07535 36/// /2904 10162 20118 39906 40213 53028=
07535,1999-10-30 23:00:00,15.8,1022.2,3,79,12.2,,7.408,,,300,,,,,,,,,,,og-post,,,,AAXX 30234 07535 36/// /3004 10158 20122 39914 40222 51030=
07535,1999-10-31 00:00:00,15,1023.1,2.7,73,10.2,,7.408,,,300,,,,,,,,,,,og-post,,,,AAXX 31004 07535 36/// /3004 10150 20102 39922 40231 51027=
07535,1999-10-31 01:00:00,14.1,1023.8,2.2,72,9.1,,7.408,,,320,,,,,,,,,,,og-post,,,,AAXX 31014 07535 36/// /3204 10141 20091 39928 40238 51022=
07535,1999-10-31 02:00:00,12.4,1024.3,1.7,81,9.2,,3.704,,,310,,,,,,,,,,,og-post,,,,AAXX 31024 07535 36/// /3102 10124 20092 39931 40243 51017=
07535,1999-10-31 03:00:00,12,1024.7,1.2,83,9.2,,,,,,,,,,,,,,,,og-post,,,,AAXX 31034 07535 36/// /0000 10120 20092 39934 40247 51012=
07535,1999-10-31 04:00:00,11,1025.2,1,88,9.1,,,,,,,,,,,,,,,,og-post,,,,AAXX 31044 07535 36/// /0000 10110 20091 39938 40252 53010=
07535,1999-10-31 05:00:00,9.5,1025.9,1.2,93,8.4,15000,3.704,,,150,,,,,,,,,,,og-post,,,,AAXX 31054 07535 32965 01502 10095 20084 39943 40259 53012=
07535,1999-10-31 06:00:00,8.4,1026.6,1.4,97,8,15000,7.408,,,150,8.4,17.5,,,,,0,7.1,5,,og-post,,,,AAXX 31064 07535 32965 11504 10084 20080 39948 40266 53014 80001 333 10175 20084 30005 55071 70000 81075=
07535,1999-10-31 07:00:00,8.2,1027.2,1.6,98,7.9,20000,7.408,,,140,,,,,,,,,,,og-post,,,,AAXX 31074 07535 32970 21404 10082 20079 39954 40272 53016 82030 333 82361=
07535,1999-10-31 08:00:00,10.9,1027.6,1.8,91,9.5,20000,3.704,,,150,,,,,,,,,,,og-post,,,,AAXX 31084 07535 32970 11502 10109 20095 39961 40276 53018 81030 333 81361=
07535,1999-10-31 09:00:00,14.9,1027.2,1.4,76,10.7,20000,7.408,,,140,,,,,,,,,,,og-post,,,,AAXX 31094 07535 32470 11404 10149 20107 39962 40272 51014 81100 333 81816=
07535,1999-10-31 10:00:00,16.3,1027.1,0.8,59,8.3,20000,7.408,,,40,,,,,,,,,,,og-post,,,,AAXX 31104 07535 32470 10404 10163 20083 39962 40271 51008 81100 333 81818=
07535,1999-10-31 11:00:00,16.5,1026.7,-0.3,58,8.2,20000,7.408,,,70,,,,,,,,,,,og-post,,,,AAXX 31114 07535 32570 10704 10165 20082 39958 40267 58003 81100 333 81820=
07535,1999-10-31 12:00:00,17.5,1025.7,-1.3,53,7.8,,3.704,,,100,,,,,,,,,,,og-post,,,,AAXX 31124 07535 36/// /1002 10175 20078 39949 40257 58013=
07535,1999-10-31 13:00:00,17.9,1025.1,-1.8,55,8.7,,7.408,,,140,,,,,,,,,,,og-post,,,,AAXX 31134 07535 36/// /1404 10179 20087 39944 40251 58018=
07535,1999-10-31 14:00:00,18.1,1024.5,-2,51,7.8,,7.408,,,40,,,,,,,,,,,og-post,,,,AAXX 31144 07535 36/// /0404 10181 20078 39938 40245 56020=
07535,1999-10-31 15:00:00,17.3,1024.1,-1.5,53,7.6,,7.408,,,90,,,,,,,,,,,og-post,,,,AAXX 31154 07535 36/// /0904 10173 20076 39934 40241 56015=
07535,1999-10-31 16:00:00,15.8,1023.9,-1.4,61,8.3,,7.408,,,80,,,,,,,,,,,og-post,,,,AAXX 31164 07535 36/// /0804 10158 20083 39930 40239 56014=
07535,1999-10-31 17:00:00,13.8,1023.5,-1.4,70,8.4,,7.408,,,90,,,,,,,,,,,og-post,,,,AAXX 31174 07535 36/// /0904 10138 20084 39924 40235 58014=
07535,1999-10-31 18:00:00,11.7,1023.9,-0.8,81,8.6,,7.408,,,130,7.8,18.6,,,,,,,,,og-post,,,,AAXX 31184 07535 36/// /1304 10117 20086 39926 40239 55008 333 10186 20078=
07535,1999-10-31 19:00:00,10.3,1024,-0.5,86,8.1,,11.112,,,130,,,,,,,,,,,og-post,,,,AAXX 31194 07535 36/// /1306 10103 20081 39925 40240 56005=
07535,1999-10-31 20:00:00,10.6,1023.7,-0.1,82,7.7,,11.112,,,130,,,,,,,,,,,og-post,,,,AAXX 31204 07535 36/// /1306 10106 20077 39923 40237 58001=
07535,1999-10-31 21:00:00,12.5,1023.5,-0.3,72,7.6,,11.112,,,140,,,,,,,,,,,og-post,,,,AAXX 31214 07535 36/// /1406 10125 20076 39923 40235 56003=
07535,1999-10-31 22:00:00,12.3,1023.6,-0.1,73,7.6,,7.408,,,180,,,,,,,,,,,og-post,,,,AAXX 31224 07535 36/// /1804 10123 20076 39924 40236 55001=
07535,1999-10-31 23:00:00,12.8,1022.9,-0.6,71,7.7,,14.816,,,160,,,,,,,,,,,og-post,,,,AAXX 31234 07535 36/// /1608 10128 20077 39917 40229 58006=
07535,1999-11-01 00:00:00,14.5,1022.4,-0.9,64,7.8,,14.816,,,180,,,,,,,,,,,og-post,,,,AAXX 01004 07535 36/// /1808 10145 20078 39914 40224 58009=
07535,1999-11-01 01:00:00,14.1,1022,-1.4,68,8.3,,18.52,,,190,,,,,,,,,,,og-post,,,,AAXX 01014 07535 36/// /1910 10141 20083 39910 40220 56014=
07535,1999-11-01 02:00:00,13.6,1021.7,-1,73,8.9,,14.816,,,190,,,,,,,,,,,og-post,,,,AAXX 01024 07535 36/// /1908 10136 20089 39907 40217 57010=
07535,1999-11-01 03:00:00,13.9,1021.2,-1.2,71,8.7,,14.816,,,190,,,,,,,,,,,og-post,,,,AAXX 01034 07535 36/// /1908 10139 20087 39902 40212 58012=
07535,1999-11-01 04:00:00,13.8,1021.1,-0.9,71,8.6,,11.112,,,190,,,,,,,,,,,og-post,,,,AAXX 01044 07535 36/// /1906 10138 20086 39901 40211 56009=
07535,1999-11-01 05:00:00,13.8,1020.8,-0.9,71,8.6,20000,14.816,,,170,,,,,,,,,,,og-post,,,,AAXX 01054 07535 32970 01708 10138 20086 39898 40208 56009=
07535,1999-11-01 06:00:00,14.3,1020.7,-0.4,70,8.9,20000,18.52,,,170,10,14.5,,,,,0,9.3,5,,og-post,,,,AAXX 01064 07535 32970 21710 10143 20089 39898 40207 56004 80001 333 10145 20100 30005 55093 70000 82075=
07535,1999-11-01 07:00:00,14.7,1021.2,0.2,70,9.3,25000,11.112,,,170,,,,,,,,,,,og-post,,,,AAXX 01074 07535 32975 51706 10147 20093 39903 40212 53002 80001 333 85075=
07535,1999-11-01 08:00:00,15.9,1021.2,0.6,68,10,30000,25.928,,,160,,,,,,,,,,,og-post,,,,AAXX 01084 07535 32980 61614 10159 20100 39904 40212 53006 81031 333 81360 86075=
07535,1999-11-01 09:00:00,16.9,1021.2,0.7,65,10.3,30000,29.632,53.708,,170,,,,,,,,,,,og-post,,,,AAXX 01094 07535 32980 71716 10169 20103 39905 40212 51007 86031 333 86359 86075 91129=
07535,1999-11-01 10:00:00,17.5,1020.9,0,63,10.4,30000,29.632,,,160,,,,,,,,,,,og-post,,,,AAXX 01104 07535 32980 61616 10175 20104 39903 40209 50000 84031 333 84359 85075=
07535,1999-11-01 11:00:00,19.1,1021.1,0.3,59,10.9,30000,18.52,,,190,,,,,,,,,,,og-post,,,,AAXX 01114 07535 32980 61910 10191 20109 39907 40211 53003 85031 333 85359 85075=
07535,1999-11-01 12:00:00,20.5,1020.2,-0.5,57,11.7,,18.52,53.708,,170,,,,,,,,,,,og-post,,,,AAXX 01124 07535 36/// /1710 10205 20117 39900 40202 58005 333 91129=
07535,1999-11-01 13:00:00,20.7,1019.7,-0.8,58,12.1,,11.112,,,170,,,,,,,,,,,og-post,,,,AAXX 01134 07535 36/// /1706 10207 20121 39895 40197 58008=
07535,1999-11-01 14:00:00,20.9,1019.3,-1.6,57,12.1,,14.816,,,160,,,,,,,,,,,og-post,,,,AAXX 01144 07535 36/// /1608 10209 20121 39891 40193 56016=
07535,1999-11-01 15:00:00,20.5,1019.3,-0.9,58,12,,18.52,,,170,,,,,,,,,,,og-post,,,,AAXX 01154 07535 36/// /1710 10205 20120 39891 40193 56009=
07535,1999-11-01 16:00:00,19.8,1019.3,-0.5,61,12.1,,18.52,,,160,,,,,,,,,,,og-post,,,,AAXX 01164 07535 36/// /1610 10198 20121 39890 40193 56005=
07535,1999-11-01 17:00:00,19.2,1020,0.5,63,12,,14.816,,,170,,,,,,,,,,,og-post,,,,AAXX 01174 07535 36/// /1708 10192 20120 39896 40200 53005=
07535,1999-11-01 18:00:00,18.6,1020.5,1,67,12.4,,14.816,,,160,14.2,21,,,,,,,,,og-post,,,,AAXX 01184 07535 36/// /1608 10186 20124 39901 40205 53010 333 10210 20142=
07535,1999-11-01 19:00:00,18,1020.6,1.1,67,11.8,,18.52,,,160,,,,,,,,,,,og-post,,,,AAXX 01194 07535 36/// /1610 10180 20118 39901 40206 51011=
07535,1999-11-01 20:00:00,17.5,1021.2,1,69,11.8,,11.112,,,180,,,,,,,,,,,og-post,,,,AAXX 01204 07535 36/// /1806 10175 20118 39906 40212 52010=
07535,1999-11-01 21:00:00,17.1,1021.1,0.4,72,12,,18.52,,,160,,,,,,,,,,,og-post,,,,AAXX 01214 07535 36/// /1610 10171 20120 39905 40211 50004=
07535,1999-11-01 22:00:00,17.1,1020.3,-0.4,71,11.8,,18.52,,,170,,,,,,,,,,,og-post,,,,AAXX 01224 07535 36/// /1710 10171 20118 39897 40203 58004=
07535,1999-11-01 23:00:00,17.1,1019.3,-1.9,74,12.4,,29.632,,,160,,,,,,,,,,,og-post,,,,AAXX 01234 07535 36/// /1616 10171 20124 39887 40193 58019=
07535,1999-11-02 00:00:00,17.1,1018.4,-2.6,76,12.8,,25.928,,,160,,,,,,,,,,,og-post,,,,AAXX 02004 07535 36/// /1614 10171 20128 39879 40184 57026=
07535,1999-11-02 01:00:00,17.2,1017.6,-2.6,76,12.9,,31.484,57.412,,160,,,,,,,,,,,og-post,,,,AAXX 02014 07535 36/// /1617 10172 20129 39871 40176 56026 333 91131=
07535,1999-11-02 02:00:00,16.9,1017.2,-2,78,13,,31.484,,,160,,,,,,,,,,,og-post,,,,AAXX 02024 07535 36/// /1617 10169 20130 39867 40172 56020=
07535,1999-11-02 03:00:00,16.7,1016.8,-1.6,79,13,,25.928,57.412,,160,,,,,,,,,,,og-post,,,,AAXX 02034 07535 36/// /1614 10167 20130 39863 40168 56016 333 91131=
07535,1999-11-02 04:00:00,16.7,1016.9,-0.7,78,12.8,,22.224,,,160,,,,,,,,,,,og-post,,,,AAXX 02044 07535 36/// /1612 10167 20128 39864 40169 55007=
07535,1999-11-02 05:00:00,16.7,1017.3,0.1,78,12.8,,7.408,,,150,,,,,,,,,,,og-post,,,,AAXX 02054 07535 36/// /1504 10167 20128 39868 40173 53001=
07535,1999-11-02 06:00:00,16.6,1017.8,0.9,77,12.6,15000,11.112,57.412,,180,16.5,18.5,,,,,0,2,15,,og-post,,,,AAXX 02064 07535 32565 81806 10166 20126 39872 40178 53009 8557/ 333 10185 20165 30015 55020 70000 85630 87361 91131=
07535,1999-11-02 07:00:00,16.8,1018.2,1.2,76,12.5,20000,18.52,,,170,,,,,,,,,,,og-post,,,,AAXX 02074 07535 32570 81710 10168 20125 39876 40182 52012 84572 333 85630 87361=
07535,1999-11-02 08:00:00,17.3,1018.9,1.6,76,13,25000,14.816,,,190,,,,,,,,,,,og-post,,,,AAXX 02084 07535 32575 81908 10173 20130 39884 40189 53016 84572 333 85630 87361=
07535,1999-11-02 09:00:00,17.4,1019.4,1.7,77,13.3,25000,11.112,,,200,,,,,,,,,,,og-post,,,,AAXX 02094 07535 32575 82006 10174 20133 39889 40194 53017 82572 333 82630 86361=
07535,1999-11-02 10:00:00,17.9,1020.1,2,77,13.8,20000,3.704,,,240,,,,,,,,,,,og-post,,,,AAXX 02104 07535 32570 82402 10179 20138 39896 40201 51020 8557/ 333 85630 87361=
07535,1999-11-02 11:00:00,15.4,1021.8,2.6,78,11.6,20000,22.224,,,330,,,,,,,,,,,og-post,,,,AAXX 02114 07535 32570 83312 10154 20116 39910 40218 53026 875// 333 87630=
07535,1999-11-02 12:00:00,15.4,1020.9,1.2,78,11.6,,11.112,,,70,,,,,,,,,,,og-post,,,,AAXX 02124 07535 36/// /0706 10154 20116 39901 40209 50012=
07535,1999-11-02 13:00:00,15.7,1021.4,1,72,10.7,35000,3.704,,,40,,,,,,,,,,,og-post,,,,AAXX 02134 07535 32481 80402 10157 20107 39906 40214 51010 8487/ 333 81816 84630 87361=
07535,1999-11-02 14:00:00,16.1,1021.9,0.1,72,11.1,35000,11.112,,,310,,,,,,,,,,,og-post,,,,AAXX 02144 07535 32581 73106 10161 20111 39911 40219 53001 85802 333 81820 85630=
07535,1999-11-02 15:00:00,15,1022.9,1.9,76,10.8,35000,14.816,,,340,,,,,,,,,,,og-post,,,,AAXX 02154 07535 32581 73408 10150 20108 39920 40229 53019 85802 333 81820 85630=
07535,1999-11-02 16:00:00,13.9,1023.8,2.2,83,11.1,15000,14.816,,,340,,,,,,,,,,,og-post,,,,AAXX 02164 07535 32565 73408 10139 20111 39928 40238 53022 87800 333 81820 86630=
07535,1999-11-02 17:00:00,12.9,1025.2,2.9,93,11.8,,11.112,,,320,,,,,,,,,,,og-post,,,,AAXX 02174 07535 36/// /3206 10129 20118 39940 40252 53029=
07535,1999-11-02 18:00:00,11.1,1027.3,3.8,96,10.5,,14.816,,,330,11.1,17.9,,0.6,,0.6,,,,,og-post,,,,AAXX 02184 07535 /6/// /3308 10111 20105 39958 40273 53038 69962 333 10179 20111 69967=
07535,1999-11-02 19:00:00,10.2,1028.2,3.8,97,9.7,,11.112,,,330,,,0.6,,,,,,,,og-post,,,,AAXX 02194 07535 26/// /3306 10102 20097 39966 40282 51038 333 69965=
07535,1999-11-02 20:00:00,10.3,1029,3.4,98,10,,7.408,,,320,,,,,,,,,,,og-post,,,,AAXX 02204 07535 36/// /3204 10103 20100 39974 40290 51034=
07535,1999-11-02 21:00:00,10.4,1030.3,2.9,98,10.1,,7.408,,,320,,,,0.6,,,,,,,og-post,,,,AAXX 02214 07535 26/// /3204 10104 20101 39987 40303 53029 333 69967=
07535,1999-11-02 22:00:00,10.5,1030.8,2.6,98,10.2,,7.408,,,340,,,,,,,,,,,og-post,,,,AAXX 02224 07535 36/// /3404 10105 20102 39992 40308 51026=
07535,1999-11-02 23:00:00,10.3,1031.1,2,98,10,,11.112,,,330,,,,,,,,,,,og-post,,,,AAXX 02234 07535 36/// /3306 10103 20100 39994 40311 51020=
07535,1999-11-03 00:00:00,9.9,1031.2,0.8,98,9.6,,11.112,,,320,,,,,0.6,,,,,,og-post,,,,AAXX 03004 07535 16/// /3206 10099 20096 39995 40312 51008 69961=
07535,1999-11-03 01:00:00,8.8,1031.4,0.3,97,8.3,,3.704,,,310,,,,,,,,,,,og-post,,,,AAXX 03014 07535 36/// /3102 10088 20083 39995 40314 51003=
07535,1999-11-03 02:00:00,8,1031.7,0.3,98,7.7,,7.408,,,330,,,,,,,,,,,og-post,,,,AAXX 03024 07535 36/// /3304 10080 20077 39997 40317 53003=
07535,1999-11-03 03:00:00,7.1,1031.7,0.1,98,6.8,,,,,,,,,,,,,,,,og-post,,,,AAXX 03034 07535 36/// /0000 10071 20068 39996 40317 50001=
07535,1999-11-03 04:00:00,7,1031.7,0.1,99,6.9,,7.408,,,310,,,,,,,,,,,og-post,,,,AAXX 03044 07535 36/// /3104 10070 20069 39996 40317 51001=
07535,1999-11-03 05:00:00,6.5,1031.7,-0.1,99,6.4,4000,3.704,,,310,,,,,,,,,,10,og-post,,,,AAXX 03054 07535 31940 03102 10065 20064 39996 40317 56001 71000=
07535,1999-11-03 06:00:00,5.9,1032.1,0.3,99,5.8,4000,3.704,,,300,5.5,11.1,,,,0.6,1.2,0.1,0,10,og-post,,,,AAXX 03064 07535 11140 23002 10059 20058 39999 40321 53003 69962 71000 82600 333 10111 20055 31000 55001 70012 82702=
07535,1999-11-03 07:00:00,5.1,1032.6,0.7,99,5,900,3.704,,,140,,,,,,,,,,46,og-post,,,,AAXX 03074 07535 31109 21402 10051 20050 30003 40326 53007 74640 82600 333 82702=
07535,1999-11-03 08:00:00,6.5,1033,1.2,99,6.4,300,,,,,,,,,,,,,,46,og-post,,,,AAXX 03084 07535 31903 00000 10065 20064 30008 40330 53012 74644=
07535,1999-11-03 09:00:00,8.5,1032.8,1,99,8.4,400,3.704,,,40,,,,,,,,,,42,og-post,,,,AAXX 03094 07535 31104 40402 10085 20084 30009 40328 51010 74240 84600 333 84701=
07535,1999-11-03 10:00:00,8.1,1032.7,0.4,97,7.7,12000,7.408,,,330,,,,,,,,,,28,og-post,,,,AAXX 03104 07535 31462 43304 10081 20077 30007 40327 50004 72840 84100 333 84813=
07535,1999-11-03 12:00:00,13,1030.5,-1.8,60,5.4,20000,11.112,,,10,,,,,,,,,,3,og-post,,,,AAXX 03124 07535 31470 30106 10130 20054 39991 40305 58018 70340 83100 333 83818=
07535,1999-11-03 14:00:00,13.1,1028.9,-2.5,57,4.8,20000,11.112,,,20,,,,,,,,,,,og-post,,,,AAXX 03144 07535 32570 30206 10131 20048 39976 40289 56025 83100 333 83821=
07535,1999-11-03 15:00:00,12.6,1028.3,-2.2,59,4.8,25000,7.408,,,360,,,,,,,,,,,og-post,,,,AAXX 03154 07535 32575 23604 10126 20048 39969 40283 56022 82100 333 82826=
07535,1999-11-03 16:00:00,11.6,1028,-1.8,65,5.3,25000,7.408,,,320,,,,,,,,,,,og-post,,,,AAXX 03164 07535 32575 13204 10116 20053 39965 40280 56018 81100 333 81826=
07535,1999-11-03 17:00:00,10.1,1027.9,-1.3,68,4.5,,7.408,,,340,,,,,,,,,,,og-post,,,,AAXX 03174 07535 36/// /3404 10101 20045 39963 40279 56013=
07535,1999-11-03 18:00:00,9.3,1027.9,-0.7,70,4.1,,7.408,,,360,4.2,13.5,,,,,,,,,og-post,,,,AAXX 03184 07535 36/// /3604 10093 20041 39962 40279 56007 333 10135 20042=
07535,1999-11-03 19:00:00,7.9,1027.7,-0.7,75,3.8,,11.112,,,30,,,,,,,,,,,og-post,,,,AAXX 03194 07535 36/// /0306 10079 20038 39958 40277 58007=
07535,1999-11-03 20:00:00,7.1,1027.7,-0.6,77,3.3,,7.408,,,20,,,,,,,,,,,og-post,,,,AAXX 03204 07535 36/// /0204 10071 20033 39957 40277 57006=
07535,1999-11-03 21:00:00,6,1027.7,-0.6,81,3,,7.408,,,40,,,,,,,,,,,og-post,,,,AAXX 03214 07535 36/// /0404 10060 20030 39956 40277 56006=
07535,1999-11-03 22:00:00,5.2,1027.2,-0.8,82,2.4,,11.112,,,50,,,,,,,,,,,og-post,,,,AAXX 03224 07535 36/// /0506 10052 20024 39950 40272 58008=
07535,1999-11-03 23:00:00,3.6,1026.8,-1.2,94,2.7,,3.704,,,50,,,,,,,,,,,og-post,,,,AAXX 03234 07535 36/// /0502 10036 20027 39945 40268 58012=
07535,1999-11-04 00:00:00,3.7,1026.2,-1.7,91,2.4,,3.704,,,30,,,,,,,,,,,og-post,,,,AAXX 04004 07535 36/// /0302 10037 20024 39939 40262 57017=
07535,1999-11-04 01:00:00,1.9,1025.8,-1.7,97,1.5,,3.704,,,130,,,,,,,,,,,og-post,,,,AAXX 04014 07535 36/// /1302 10019 20015 39933 40258 58017=
07535,1999-11-04 02:00:00,1.8,1025.4,-1.6,99,1.7,,3.704,,,240,,,,,,,,,,,og-post,,,,AAXX 04024 07535 36/// /2402 10018 20017 39929 40254 56016=
07535,1999-11-04 03:00:00,0.5,1024.8,-1.8,99,0.4,,7.408,,,150,,,,,,,,,,,og-post,,,,AAXX 04034 07535 36/// /1504 10005 20004 39921 40248 58018=
07535,1999-11-04 04:00:00,0.2,1024.4,-1.6,99,0.1,,7.408,,,130,,,,,,,,,,,og-post,,,,AAXX 04044 07535 36/// /1304 10002 20001 39917 40244 57016=
07535,1999-11-04 05:00:00,0.1,1024.1,-1.5,99,0,4000,3.704,,,130,,,,,,,,,,10,og-post,,,,AAXX 04054 07535 31940 01302 10001 20000 39914 40241 56015 71000=
07535,1999-11-04 06:00:00,-0.4,1024,-0.8,99,-0.5,4000,7.408,,,130,-0.6,9.2,,,,,,6,-3,10,og-post,,,,AAXX 04064 07535 31940 01304 11004 21005 39913 40240 56008 71000 333 10092 21006 30103 55060 70000=
07535,1999-11-04 07:00:00,-0.1,1024,-0.4,99,-0.2,200,3.704,,,20,,,,,,,,,,46,og-post,,,,AAXX 04074 07535 31902 00202 11001 21002 39913 40240 56004 74640=
07535,1999-11-04 08:00:00,1.6,1023.5,-0.4,100,1.6,600,,,,,,,,,,,,,,42,og-post,,,,AAXX 04084 07535 31906 00000 10016 20016 39910 40235 58004 74244=
07535,1999-11-04 09:00:00,2.9,1023.4,-0.2,99,2.8,500,,,,,,,,,,,,,,46,og-post,,,,AAXX 04094 07535 31905 00000 10029 20028 39911 40234 55002 74640=
07535,1999-11-04 10:00:00,5.7,1022.8,-0.5,95,5,6000,3.704,,,330,,,,,,,,,,28,og-post,,,,AAXX 04104 07535 31956 03302 10057 20050 39908 40228 57005 72840=
07535,1999-11-04 11:00:00,8.8,1022.1,-0.5,82,5.9,15000,7.408,,,360,,,,,,,,,,,og-post,,,,AAXX 04114 07535 32965 03604 10088 20059 39905 40221 58005=
07535,1999-11-04 12:00:00,12,1020.7,-1.6,62,5,20000,3.704,,,280,,,,,,,,,,2,og-post,,,,AAXX 04124 07535 31970 02802 10120 20050 39895 40207 58016 70240=
07535,1999-11-04 13:00:00,12.3,1020.1,-1.9,57,4,20000,3.704,,,320,,,,,,,,,,,og-post,,,,AAXX 04134 07535 32970 03202 10123 20040 39889 40201 58019=
07535,1999-11-04 14:00:00,13,1020,-1.6,55,4.2,20000,7.408,,,340,,,,,,,,,,,og-post,,,,AAXX 04144 07535 32970 13404 10130 20042 39889 40200 56016 80001 333 81075=
07535,1999-11-04 15:00:00,12.1,1019.5,-1.2,60,4.6,20000,3.704,,,360,,,,,,,,,,,og-post,,,,AAXX 04154 07535 32970 13602 10121 20046 39883 40195 57012 80001 333 81075=
07535,1999-11-04 16:00:00,11.3,1019.4,-0.7,63,4.5,20000,3.704,,,350,,,,,,,,,,,og-post,,,,AAXX 04164 07535 32970 23502 10113 20045 39882 40194 58007 80001 333 82075=
07535,1999-11-04 17:00:00,10.5,1020,-0.3,65,4.2,,3.704,,,340,,,,,,,,,,,og-post,,,,AAXX 04174 07535 36/// /3402 10105 20042 39886 40200 55003=
07535,1999-11-04 18:00:00,6.6,1020.6,,86,4.4,,7.408,,,150,-0.5,13.5,,,,,,,,,og-post,,,,AAXX 04184 07535 36/// /1504 10066 20044 39888 40206 3005 333 10135 21005=
07535,1999-11-04 19:00:00,5.2,1020.4,0.2,87,3.2,,7.408,,,130,,,,,,,,,,,og-post,,,,AAXX 04194 07535 36/// /1304 10052 20032 39884 40204 50002=
07535,1999-11-04 20:00:00,4.4,1020.1,-0.5,89,2.7,,11.112,,,130,,,,,,,,,,,og-post,,,,AAXX 04204 07535 36/// /1306 10044 20027 39881 40201 58005=
07535,1999-11-04 21:00:00,3.6,1020.4,-0.5,93,2.6,,11.112,,,150,,,,,,,,,,,og-post,,,,AAXX 04214 07535 36/// /1506 10036 20026 39883 40204 55005=
07535,1999-11-04 22:00:00,3.8,1019.8,-0.7,91,2.5,,11.112,,,140,,,,,,,,,,,og-post,,,,AAXX 04224 07535 36/// /1406 10038 20025 39877 40198 58007=
07535,1999-11-04 23:00:00,4.2,1019.8,-0.4,86,2.1,,3.704,,,140,,,,,,,,,,,og-post,,,,AAXX 04234 07535 36/// /1402 10042 20021 39877 40198 58004=
07535,1999-11-05 00:00:00,4,1019.2,-1.2,88,2.2,,11.112,,,130,,,,,,,,,,,og-post,,,,AAXX 05004 07535 36/// /1306 10040 20022 39871 40192 57012=
07535,1999-11-05 01:00:00,2.6,1019.1,-0.8,88,0.8,,3.704,,,130,,,,,,,,,,,og-post,,,,AAXX 05014 07535 36/// /1302 10026 20008 39869 40191 58008=
07535,1999-11-05 02:00:00,2.2,1018.9,-1.1,97,1.8,,3.704,,,80,,,,,,,,,,,og-post,,,,AAXX 05024 07535 36/// /0802 10022 20018 39866 40189 56011=
07535,1999-11-05 03:00:00,2.4,1018.2,-1.1,97,2,,7.408,,,120,,,,0.2,,,,,,,og-post,,,,AAXX 05034 07535 26/// /1204 10024 20020 39860 40182 58011 333 69927=
07535,1999-11-05 04:00:00,2.8,1017.7,-1.4,96,2.2,,11.112,,,130,,,,,,,,,,,og-post,,,,AAXX 05044 07535 36/// /1306 10028 20022 39855 40177 58014=
07535,1999-11-05 05:00:00,1.1,1017.9,-1.1,97,0.7,8000,3.704,,,150,,,,,,,,,,,og-post,,,,AAXX 05054 07535 32958 01502 10011 20007 39855 40179 56011=
07535,1999-11-05 06:00:00,1.1,1017.9,-0.5,98,0.8,8000,,,,,1,6.6,,,,,0,8.8,-3,,og-post,,,,AAXX 05064 07535 32958 60000 10011 20008 39855 40179 56005 80002 333 10066 20010 30103 55088 70000 86073=
07535,1999-11-05 07:00:00,3.2,1017.2,-0.4,99,3.1,12000,11.112,,,130,,,,,,,,,,,og-post,,,,AAXX 05074 07535 32962 71306 10032 20031 39851 40172 58004 80002 333 87073=
07535,1999-11-05 08:00:00,5.6,1016.8,-0.5,92,4.4,12000,7.408,,,130,,,,,,,,,,,og-post,,,,AAXX 05084 07535 32962 71304 10056 20044 39850 40168 58005 80002 333 87073=
07535,1999-11-05 09:00:00,7.3,1016.4,-0.7,90,5.8,12000,,,,,,,,,,,,,,,og-post,,,,AAXX 05094 07535 32962 70000 10073 20058 39848 40164 56007 80002 333 87073=
07535,1999-11-05 10:00:00,10.6,1015.7,-0.6,73,6,15000,11.112,,,150,,,,,,,,,,,og-post,,,,AAXX 05104 07535 32965 71506 10106 20060 39845 40157 58006 80002 333 87073=
07535,1999-11-05 11:00:00,9.6,1015.9,-0.4,85,7.2,15000,3.704,,,160,,,,,,,,,,,og-post,,,,AAXX 05114 07535 32965 71602 10096 20072 39846 40159 55004 83032 333 83361 87073=
07535,1999-11-05 12:00:00,12.7,1014.5,-1.2,59,4.9,15000,14.816,,,170,,,,,,,,,,,og-post,,,,AAXX 05124 07535 32965 61708 10127 20049 39836 40145 58012 80002 333 86073=
07535,1999-11-05 13:00:00,16,1014.3,-0.8,46,4.4,20000,11.112,,,220,,,,,,,,,,,og-post,,,,AAXX 05134 07535 32970 62206 10160 20044 39837 40143 57008 80002 333 86073=
07535,1999-11-05 14:00:00,14.9,1014.2,-1.1,48,4,20000,11.112,,,200,,,,,,,,,,,og-post,,,,AAXX 05144 07535 32970 72006 10149 20040 39835 40142 56011 81032 333 81361 86073=
07535,1999-11-05 15:00:00,14,1014.6,0.2,52,4.3,20000,7.408,,,190,,,,,,,,,,,og-post,,,,AAXX 05154 07535 32970 71904 10140 20043 39838 40146 53002 83072 333 83361 86073=
07535,1999-11-05 16:00:00,12.9,1014.9,0.3,57,4.6,20000,11.112,,,200,,,,,,,,,,,og-post,,,,AAXX 05164 07535 32970 72006 10129 20046 39840 40149 53003 85072 333 85361 86073=
07535,1999-11-05 17:00:00,12.1,1015.3,0.8,62,5,,11.112,,,190,,,,,,,,,,,og-post,,,,AAXX 05174 07535 36/// /1906 10121 20050 39843 40153 52008=
07535,1999-11-05 18:00:00,12.1,1015.5,7,63,5.3,,14.816,,,190,0.9,16.1,,,,,,,,,og-post,,,,AAXX 05184 07535 36/// /1908 10121 20053 39845 40155 5207 333 10161 20009=
07535,1999-11-05 19:00:00,12,1015.8,0.7,65,5.6,,18.52,,,210,,,,,,,,,,,og-post,,,,AAXX 05194 07535 36/// /2110 10120 20056 39847 40158 51007=
07535,1999-11-05 20:00:00,12.5,1015.7,0.4,61,5.2,,18.52,,,210,,,,,,,,,,,og-post,,,,AAXX 05204 07535 36/// /2110 10125 20052 39847 40157 51004=
07535,1999-11-05 21:00:00,12.5,1015.8,0.3,63,5.7,,18.52,,,210,,,,,,,,,,,og-post,,,,AAXX 05214 07535 36/// /2110 10125 20057 39848 40158 51003=
07535,1999-11-05 22:00:00,12.4,1015,-0.7,66,6.2,,22.224,,,210,,,,,,,,,,,og-post,,,,AAXX 05224 07535 36/// /2112 10124 20062 39840 40150 58007=
07535,1999-11-05 23:00:00,12.7,1014.8,-0.8,70,7.4,,18.52,,,210,,,,,,,,,,,og-post,,,,AAXX 05234 07535 36/// /2110 10127 20074 39839 40148 58008=
07535,1999-11-06 00:00:00,10.8,1015.4,-0.5,90,9.2,,7.408,,,230,,,,0.6,0.6,,,,,,og-post,,,,AAXX 06004 07535 /6/// /2304 10108 20092 39843 40154 55005 69961 333 69967=
07535,1999-11-06 01:00:00,10,1014.6,-0.6,96,9.4,,18.52,,,210,,,4,,,,,,,,og-post,,,,AAXX 06014 07535 26/// /2110 10100 20094 39834 40146 58006 333 60045=
07535,1999-11-06 02:00:00,10,1014.1,-1,97,9.5,,18.52,,,220,,,,,,,,,,,og-post,,,,AAXX 06024 07535 36/// /2210 10100 20095 39829 40141 58010=
07535,1999-11-06 03:00:00,10.3,1013.5,-1.9,98,10,,11.112,,,240,,,,4,,,,,,,og-post,,,,AAXX 06034 07535 26/// /2406 10103 20100 39824 40135 56019 333 60047=
07535,1999-11-06 04:00:00,10.4,1014.2,-0.3,98,10.1,,11.112,,,280,,,1,,,,,,,,og-post,,,,AAXX 06044 07535 26/// /2806 10104 20101 39831 40142 55003 333 60015=
07535,1999-11-06 05:00:00,9.6,1014.4,0.3,97,9.1,12000,11.112,,,270,,,0.2,,,,,,,60,og-post,,,,AAXX 06054 07535 21362 82706 10096 20091 39832 40144 53003 76066 885// 333 69925 84706 86626=
07535,1999-11-06 06:00:00,9.4,1015,1.3,98,9.1,10000,14.816,,,290,9,12.7,,2,,7,6.6,1.6,7,61,og-post,,,,AAXX 06064 07535 /1360 82908 10094 20091 39837 40150 51013 60072 76162 885// 333 10127 20090 32007 55016 60027 70066 84708 86630=
07535,1999-11-06 07:00:00,8.3,1015.9,1.4,96,7.7,10000,7.408,,,290,,,1,,,,,,,60,og-post,,,,AAXX 06074 07535 21460 72904 10083 20077 39845 40159 53014 76066 878// 333 60015 85813 84633=
07535,1999-11-06 08:00:00,8.2,1017.3,2.6,96,7.6,12000,11.112,,,290,,,0.4,,,,,,,60,og-post,,,,AAXX 06084 07535 21462 72906 10082 20076 39858 40173 53026 76062 878// 333 69945 84813 84633=
07535,1999-11-06 09:00:00,9.1,1018,2.9,97,8.6,25000,7.408,,,280,,,,2,,,,,,21,og-post,,,,AAXX 06094 07535 21475 52804 10091 20086 39866 40180 52029 72162 83832 333 60027 81813 83640=
07535,1999-11-06 10:00:00,9.9,1018.9,3,86,7.7,25000,11.112,,,310,,,0.2,,,,,,,,og-post,,,,AAXX 06104 07535 22475 43106 10099 20077 39875 40189 51030 83830 333 69925 82815=
07535,1999-11-06 11:00:00,10.7,1019.5,2.4,80,7.4,25000,18.52,,,320,,,,,,,,,,,og-post,,,,AAXX 06114 07535 32475 53210 10107 20074 39882 40195 51024 85200 333 85818=
07535,1999-11-06 12:00:00,11.4,1019.2,1.4,67,5.5,,18.52,,,330,,,,0.2,2,,,,,,og-post,,,,AAXX 06124 07535 /6/// /3310 10114 20055 39880 40192 50014 60021 333 69927=
07535,1999-11-06 13:00:00,11.2,1019.4,0.6,63,4.4,,18.52,,,330,,,,,,,,,,,og-post,,,,AAXX 06134 07535 36/// /3310 10112 20044 39881 40194 51006=
07535,1999-11-06 14:00:00,12,1019.6,0.2,58,4,,14.816,,,320,,,,,,,,,,,og-post,,,,AAXX 06144 07535 36/// /3208 10120 20040 39884 40196 53002=
07535,1999-11-06 15:00:00,10.8,1019.8,0.5,65,4.5,,11.112,,,310,,,,,,,,,,,og-post,,,,AAXX 06154 07535 36/// /3106 10108 20045 39885 40198 52005=
07535,1999-11-06 16:00:00,10.1,1020.4,0.9,64,3.6,,14.816,,,320,,,,,,,,,,,og-post,,,,AAXX 06164 07535 36/// /3208 10101 20036 39890 40204 53009=
07535,1999-11-06 17:00:00,8.5,1021.5,1.5,72,3.8,,11.112,,,310,,,,,,,,,,,og-post,,,,AAXX 06174 07535 36/// /3106 10085 20038 39899 40215 53015=
07535,1999-11-06 18:00:00,6.8,1022.6,2.3,81,3.8,,7.408,,,300,6.8,12.9,,,,2,,,,,og-post,,,,AAXX 06184 07535 16/// /3004 10068 20038 39908 40226 53023 60022 333 10129 20068=
07535,1999-11-06 19:00:00,5.7,1023.3,2.3,87,3.7,,3.704,,,290,,,,,,,,,,,og-post,,,,AAXX 06194 07535 36/// /2902 10057 20037 39913 40233 51023=
07535,1999-11-06 20:00:00,6.7,1024.1,2.3,82,3.9,,11.112,,,340,,,,,,,,,,,og-post,,,,AAXX 06204 07535 36/// /3406 10067 20039 39922 40241 52023=
07535,1999-11-06 21:00:00,5.5,1024.9,2,87,3.5,,3.704,,,350,,,,,,,,,,,og-post,,,,AAXX 06214 07535 36/// /3502 10055 20035 39928 40249 53020=
07535,1999-11-06 22:00:00,4.9,1025.3,1.9,90,3.4,,3.704,,,310,,,,,,,,,,,og-post,,,,AAXX 06224 07535 36/// /3102 10049 20034 39932 40253 51019=
07535,1999-11-06 23:00:00,3.9,1025.8,1.3,95,3.2,,3.704,,,290,,,,,,,,,,,og-post,,,,AAXX 06234 07535 36/// /2902 10039 20032 39935 40258 51013=
07535,1999-11-07 00:00:00,2.8,1026,0.8,98,2.5,,,,,,,,,,,,,,,,og-post,,,,AAXX 07004 07535 36/// /0000 10028 20025 39936 40260 51008=
07535,1999-11-07 01:00:00,4.1,1026.1,0.6,95,3.4,,7.408,,,340,,,,,,,,,,,og-post,,,,AAXX 07014 07535 36/// /3404 10041 20034 39938 40261 51006=
07535,1999-11-07 02:00:00,2.1,1026.6,0.6,88,0.3,,3.704,,,360,,,,,,,,,,,og-post,,,,AAXX 07024 07535 36/// /3602 10021 20003 39941 40266 53006=
07535,1999-11-07 03:00:00,3.3,1026.6,0.6,98,3,,3.704,,,360,,,,,,,,,,,og-post,,,,AAXX 07034 07535 36/// /3602 10033 20030 39942 40266 51006=
07535,1999-11-07 04:00:00,3.4,1026.9,0.7,95,2.7,,7.408,,,340,,,,,,,,,,,og-post,,,,AAXX 07044 07535 36/// /3404 10034 20027 39945 40269 52007=
07535,1999-11-07 05:00:00,0.3,1027.7,0.8,98,0,12000,3.704,,,280,,,,,,,,,,,og-post,,,,AAXX 07054 07535 32962 02802 10003 20000 39949 40277 53008=
07535,1999-11-07 06:00:00,-0.1,1028.1,1.1,99,-0.2,12000,3.704,,,220,-0.7,6.8,,,,,,4.2,-3,,og-post,,,,AAXX 07064 07535 32962 02202 11001 21002 39953 40281 53011 333 10068 21007 31103 55042 70018=
07535,1999-11-07 07:00:00,0,1028.8,1.5,99,-0.1,14000,3.704,,,230,,,,,,,,,,,og-post,,,,AAXX 07074 07535 32964 02302 10000 21001 39960 40288 53015=
07535,1999-11-07 08:00:00,2.5,1029.6,2.1,99,2.4,15000,3.704,,,260,,,,,,,,,,,og-post,,,,AAXX 07084 07535 32965 12602 10025 20024 39970 40296 53021 81030 333 81358=
07535,1999-11-07 09:00:00,4.9,1029.8,2.2,91,3.6,15000,3.704,,,280,,,,,,,,,,,og-post,,,,AAXX 07094 07535 32265 12802 10049 20036 39975 40298 51022 81630 333 81705=
07535,1999-11-07 10:00:00,6.4,1029.8,1.7,85,4.1,18000,7.408,,,310,,,,,,,,,,,og-post,,,,AAXX 07104 07535 32268 23104 10064 20041 39977 40298 51017 81630 333 81705=
07535,1999-11-07 11:00:00,8.6,1029.5,0.6,71,3.6,18000,11.112,,,340,,,,,,,,,,,og-post,,,,AAXX 07114 07535 32468 13406 10086 20036 39976 40295 50006 81100 333 81818=
07535,1999-11-07 12:00:00,10.5,1028.7,-0.4,56,2.1,,14.816,,,340,,,,,,,,,,,og-post,,,,AAXX 07124 07535 36/// /3408 10105 20021 39971 40287 58004=
07535,1999-11-07 13:00:00,10.2,1028.7,-0.7,57,2.1,,14.816,,,340,,,,,,,,,,,og-post,,,,AAXX 07134 07535 36/// /3408 10102 20021 39970 40287 57007=
07535,1999-11-07 14:00:00,10.4,1028.6,-0.6,58,2.5,,14.816,,,340,,,,,,,,,,,og-post,,,,AAXX 07144 07535 36/// /3408 10104 20025 39970 40286 56006=
07535,1999-11-07 15:00:00,9.6,1029.2,0.3,57,1.5,,18.52,,,10,,,,,,,,,,,og-post,,,,AAXX 07154 07535 36/// /0110 10096 20015 39974 40292 53003=
07535,1999-11-07 16:00:00,9.2,1029.4,0.6,61,2.1,,11.112,,,330,,,,,,,,,,,og-post,,,,AAXX 07164 07535 36/// /3306 10092 20021 39976 40294 53006=
07535,1999-11-07 17:00:00,7.8,1030.2,1.2,66,1.9,,11.112,,,340,,,,,,,,,,,og-post,,,,AAXX 07174 07535 36/// /3406 10078 20019 39982 40302 53012=
07535,1999-11-07 18:00:00,6.8,1031,1.5,71,1.9,,7.408,,,330,-0.8,11.2,,,,,,,,,og-post,,,,AAXX 07184 07535 36/// /3304 10068 20019 39989 40310 53015 333 10112 21008=
07535,1999-11-07 19:00:00,6,1031.3,1.5,75,1.9,,7.408,,,360,,,,,,,,,,,og-post,,,,AAXX 07194 07535 36/// /3604 10060 20019 39991 40313 51015=
07535,1999-11-07 20:00:00,4.9,1032.1,1.5,81,1.9,,7.408,,,330,,,,,,,,,,,og-post,,,,AAXX 07204 07535 36/// /3304 10049 20019 39997 40321 51015=
07535,1999-11-07 21:00:00,4.5,1032.3,1,84,2,,3.704,,,360,,,,,,,,,,,og-post,,,,AAXX 07214 07535 36/// /3602 10045 20020 39999 40323 52010=
07535,1999-11-07 22:00:00,3.5,1032.4,0.8,90,2,,3.704,,,200,,,,,,,,,,,og-post,,,,AAXX 07224 07535 36/// /2002 10035 20020 39999 40324 51008=
07535,1999-11-07 23:00:00,2.3,1032.7,0.3,92,1.1,,,,,,,,,,,,,,,,og-post,,,,AAXX 07234 07535 36/// /0000 10023 20011 30000 40327 51003=
07535,1999-11-08 01:00:00,3.1,1032.5,0,98,2.8,,7.408,,,360,,,,,,,,,,,og-post,,,,AAXX 08014 07535 36/// /3604 10031 20028 39999 40325 50000=
07535,1999-11-08 02:00:00,2.5,1032.3,-0.4,94,1.6,,3.704,,,30,,,,,,,,,,,og-post,,,,AAXX 08024 07535 36/// /0302 10025 20016 39996 40323 58004=
07535,1999-11-08 03:00:00,1.2,1032.5,-0.3,99,1.1,,3.704,,,240,,,,,,,,,,,og-post,,,,AAXX 08034 07535 36/// /2402 10012 20011 39997 40325 55003=
07535,1999-11-08 04:00:00,1.7,1032.6,-0.1,99,1.6,,3.704,,,350,,,,,,,,,,,og-post,,,,AAXX 08044 07535 36/// /3502 10017 20016 39998 40326 55001=
07535,1999-11-08 05:00:00,2,1032.7,0.4,98,1.7,,3.704,,,350,,,,,,,,,,,og-post,,,,AAXX 08054 07535 36/// /3502 10020 20017 30000 40327 53004=
07535,1999-11-08 06:00:00,-0.4,1033.1,0.4,97,-0.8,15000,,,,,-0.4,6.8,,,,,0,7.3,-4,,og-post,,,,AAXX 08064 07535 32965 10000 11004 21008 30001 40331 52004 80001 333 10068 21004 30104 55073 70000 81075=
07535,1999-11-08 07:00:00,0,1033.3,0.5,99,-0.1,20000,,,,,,,,,,,,,,,og-post,,,,AAXX 08074 07535 32770 10000 10000 21001 30003 40333 52005 81500 333 81650=
07535,1999-11-08 08:00:00,3,1032.9,0.3,92,1.8,25000,,,,,,,,,,,,,,,og-post,,,,AAXX 08084 07535 32975 00000 10030 20018 30003 40329 51003=
07535,1999-11-08 09:00:00,5,1032.9,0.4,85,2.7,25000,7.408,,,330,,,,,,,,,,,og-post,,,,AAXX 08094 07535 32975 03304 10050 20027 30005 40329 52004=
07535,1999-11-08 10:00:00,7,1032.4,0,82,4.1,,7.408,,,350,,,,,,,,,,,og-post,,,,AAXX 08104 07535 36/// /3504 10070 20041 30003 40324 50000=
07535,1999-11-08 11:00:00,9.6,1031.7,-0.4,73,5,25000,11.112,,,330,,,,,,,,,,,og-post,,,,AAXX 08114 07535 32775 13306 10096 20050 39999 40317 58004 81500 333 81650=
07535,1999-11-08 12:00:00,11.4,1030.8,-1.3,62,4.4,,14.816,,,340,,,,,,,,,,,og-post,,,,AAXX 08124 07535 36/// /3408 10114 20044 39992 40308 58013=
07535,1999-11-08 13:00:00,12.3,1030.1,-1.7,64,5.7,,14.816,,,330,,,,,,,,,,,og-post,,,,AAXX 08134 07535 36/// /3308 10123 20057 39986 40301 58017=
07535,1999-11-08 14:00:00,12.8,1029.6,-1.7,62,5.7,30000,18.52,,,350,,,,,,,,,,,og-post,,,,AAXX 08144 07535 32580 53510 10128 20057 39982 40296 56017 85100 333 85830=
07535,1999-11-08 15:00:00,11.9,1029.9,-0.8,69,6.4,30000,14.816,,,350,,,,,,,,,,,og-post,,,,AAXX 08154 07535 32580 33508 10119 20064 39984 40299 55008 83100 333 83830=
07535,1999-11-08 16:00:00,10.3,1030.4,0.1,76,6.3,25000,14.816,,,350,,,,,,,,,,,og-post,,,,AAXX 08164 07535 32575 23508 10103 20063 39987 40304 53001 82100 333 82830=
07535,1999-11-08 17:00:00,9.2,1030.9,0.9,83,6.5,,14.816,,,340,,,,,,,,,,,og-post,,,,AAXX 08174 07535 36/// /3408 10092 20065 39991 40309 53009=
07535,1999-11-08 18:00:00,9.3,1031.3,1.1,85,6.9,,14.816,,,350,-0.7,12.8,,,,,,,,,og-post,,,,AAXX 08184 07535 36/// /3508 10093 20069 39995 40313 53011 333 10128 21007=
07535,1999-11-08 19:00:00,8.9,1031.6,1,88,7,,7.408,,,340,,,,,,,,,,,og-post,,,,AAXX 08194 07535 36/// /3404 10089 20070 39997 40316 51010=
07535,1999-11-08 20:00:00,8.9,1031.5,0.5,89,7.2,,11.112,,,330,,,,,,,,,,,og-post,,,,AAXX 08204 07535 36/// /3306 10089 20072 39996 40315 50005=
07535,1999-11-08 21:00:00,8.7,1031.6,0.2,90,7.2,,7.408,,,320,,,,,,,,,,,og-post,,,,AAXX 08214 07535 36/// /3204 10087 20072 39997 40316 51002=
07535,1999-11-08 22:00:00,8.8,1031.7,0.1,89,7.1,,11.112,,,330,,,,,,,,,,,og-post,,,,AAXX 08224 07535 36/// /3306 10088 20071 39998 40317 53001=
07535,1999-11-08 23:00:00,8.8,1031.5,0,90,7.3,,7.408,,,320,,,,,,,,,,,og-post,,,,AAXX 08234 07535 36/// /3204 10088 20073 39996 40315 50000=
07535,1999-11-09 00:00:00,8.7,1031.4,-0.2,90,7.2,,11.112,,,340,,,,,,,,,,,og-post,,,,AAXX 09004 07535 36/// /3406 10087 20072 39995 40314 58002=
07535,1999-11-09 01:00:00,8.8,1031.1,-0.6,89,7.1,,7.408,,,340,,,,,,,,,,,og-post,,,,AAXX 09014 07535 36/// /3404 10088 20071 39992 40311 58006=
07535,1999-11-09 02:00:00,8.4,1031.1,-0.4,92,7.2,,3.704,,,300,,,,,,,,,,,og-post,,,,AAXX 09024 07535 36/// /3002 10084 20072 39992 40311 56004=
07535,1999-11-09 03:00:00,8.5,1030.7,-0.7,90,7,,7.408,,,340,,,,,,,,,,,og-post,,,,AAXX 09034 07535 36/// /3404 10085 20070 39988 40307 58007=
07535,1999-11-09 04:00:00,8.6,1030.7,-0.4,90,7.1,,7.408,,,340,,,,,,,,,,,og-post,,,,AAXX 09044 07535 36/// /3404 10086 20071 39988 40307 57004=
07535,1999-11-09 05:00:00,8.5,1030.9,-0.2,90,7,8000,7.408,,,330,,,,,,,,,,,og-post,,,,AAXX 09054 07535 32458 83304 10085 20070 39990 40309 55002 875// 333 87616=
07535,1999-11-09 06:00:00,8.6,1030.9,0.2,88,6.7,8000,7.408,,,340,8.2,9.3,,,,,0,8.2,7,,og-post,,,,AAXX 09064 07535 32458 83404 10086 20067 39990 40309 52002 875// 333 10093 20082 30007 55082 70000 87616=
07535,1999-11-09 07:00:00,8.4,1030.8,0.1,90,6.9,12000,7.408,,,340,,,,,,,,,,,og-post,,,,AAXX 09074 07535 32562 63404 10084 20069 39989 40308 50001 86500 333 86630=
07535,1999-11-09 08:00:00,8.7,1031.2,0.3,90,7.2,12000,3.704,,,340,,,,,,,,,,,og-post,,,,AAXX 09084 07535 32562 73402 10087 20072 39993 40312 53003 875// 333 87630=
07535,1999-11-09 09:00:00,10,1031.3,0.6,86,7.8,15000,7.408,,,340,,,,,,,,,,,og-post,,,,AAXX 09094 07535 32565 63404 10100 20078 39996 40313 53006 86500 333 86630=
07535,1999-11-09 10:00:00,11.5,1031.1,0.6,75,7.2,25000,11.112,,,360,,,,,,,,,,,og-post,,,,AAXX 09104 07535 32475 23606 10115 20072 39995 40311 50006 82800 333 81816=
07535,1999-11-09 11:00:00,12.4,1030.8,0,66,6.2,35000,14.816,,,20,,,,,,,,,,,og-post,,,,AAXX 09114 07535 32581 30208 10124 20062 39993 40308 50000 83100 333 83820=
07535,1999-11-09 12:00:00,11.9,1030.4,-0.7,68,6.2,,14.816,,,30,,,,,,,,,,,og-post,,,,AAXX 09124 07535 36/// /0308 10119 20062 39989 40304 58007=
07535,1999-11-09 13:00:00,12.2,1029.8,-1.2,67,6.3,35000,14.816,,,10,,,,,,,,,,,og-post,,,,AAXX 09134 07535 32581 60108 10122 20063 39983 40298 58012 86800 333 82820 85630=
07535,1999-11-09 14:00:00,12.4,1029.4,-1.3,68,6.7,35000,18.52,,,10,,,,,,,,,,,og-post,,,,AAXX 09144 07535 32581 70110 10124 20067 39980 40294 56013 878// 333 82823 87636=
07535,1999-11-09 15:00:00,11.8,1029.6,-0.8,71,6.7,35000,18.52,,,10,,,,,,,,,,,og-post,,,,AAXX 09154 07535 32581 60110 10118 20067 39981 40296 55008 86800 333 81823 86640=
07535,1999-11-09 16:00:00,11.2,1029.7,-0.2,76,7.1,35000,14.816,,,360,,,,,,,,,,,og-post,,,,AAXX 09164 07535 32481 73608 10112 20071 39981 40297 56002 878// 333 81816 87633=
07535,1999-11-09 17:00:00,10.2,1029.8,0.1,81,7.1,,11.112,,,10,,,,,,,,,,,og-post,,,,AAXX 09174 07535 36/// /0106 10102 20071 39981 40298 51001=
07535,1999-11-09 18:00:00,9.6,1029.9,0.1,82,6.7,,7.408,,,340,8.3,12.9,,,,,,,,,og-post,,,,AAXX 09184 07535 36/// /3404 10096 20067 39982 40299 53001 333 10129 20083=
07535,1999-11-09 19:00:00,9.5,1030,0.1,77,5.7,,7.408,,,360,,,,,,,,,,,og-post,,,,AAXX 09194 07535 36/// /3604 10095 20057 39982 40300 52001=
07535,1999-11-09 20:00:00,9,1030.2,0.3,76,5,,11.112,,,360,,,,,,,,,,,og-post,,,,AAXX 09204 07535 36/// /3606 10090 20050 39984 40302 53003=
07535,1999-11-09 21:00:00,8,1030.1,0,80,4.8,,11.112,,,360,,,,,,,,,,,og-post,,,,AAXX 09214 07535 36/// /3606 10080 20048 39982 40301 50000=
07535,1999-11-09 22:00:00,7.3,1030.1,-0.1,84,4.8,,7.408,,,350,,,,,,,,,,,og-post,,,,AAXX 09224 07535 36/// /3504 10073 20048 39981 40301 58001=
07535,1999-11-09 23:00:00,7.1,1030,-0.4,85,4.8,,7.408,,,350,,,,,,,,,,,og-post,,,,AAXX 09234 07535 36/// /3504 10071 20048 39980 40300 56004=
07535,1999-11-10 00:00:00,6.4,1029.7,-0.6,90,4.9,,3.704,,,300,,,,,,,,,,,og-post,,,,AAXX 10004 07535 36/// /3002 10064 20049 39976 40297 58006=
07535,1999-11-10 03:00:00,6,1029.3,-0.4,94,5.1,,7.408,,,340,,,,,,,,,,,og-post,,,,AAXX 10034 07535 36/// /3404 10060 20051 39972 40293 58004=
07535,1999-11-10 04:00:00,6.4,1029.4,-0.2,93,5.4,,7.408,,,340,,,,,,,,,,,og-post,,,,AAXX 10044 07535 36/// /3404 10064 20054 39973 40294 57002=
07535,1999-11-10 05:00:00,6.8,1029.3,-0.3,92,5.6,,7.408,,,10,,,,,,,,,,,og-post,,,,AAXX 10054 07535 36/// /0104 10068 20056 39973 40293 56003=
07535,1999-11-10 06:00:00,7.6,1029,-0.1,88,5.7,25000,3.704,,,340,5.9,9.6,,,,,0,1.7,2,,og-post,,,,AAXX 10064 07535 33675 73402 10076 20057 39971 40290 58001 86501 333 10096 20059 30002 55017 70000 86640=
07535,1999-11-10 07:00:00,6.3,1029.3,-0.1,94,5.4,13000,3.704,,,300,,,,,,,,,,,og-post,,,,AAXX 10074 07535 33763 33002 10063 20054 39972 40293 55001 83500 333 83650=
07535,1999-11-10 08:00:00,7.5,1029.2,-0.1,90,6,14000,7.408,,,330,,,,,,,,,,,og-post,,,,AAXX 10084 07535 33664 43304 10075 20060 39972 40292 56001 84500 333 84640=
07535,1999-11-10 09:00:00,8.4,1028.7,-0.2,89,6.7,14000,7.408,,,330,,,,,,,,,,,og-post,,,,AAXX 10094 07535 33564 73304 10084 20067 39969 40287 58002 875// 333 83630 85640=
07535,1999-11-10 10:00:00,9,1028.4,-0.6,85,6.6,,7.408,,,350,,,,,,,,,,,og-post,,,,AAXX 10104 07535 36/// /3504 10090 20066 39966 40284 58006=
07535,1999-11-10 11:00:00,9.3,1027.8,-1.1,66,3.3,20000,18.52,,,10,,,,,,,,,,,og-post,,,,AAXX 10114 07535 32570 70110 10093 20033 39961 40278 58011 87800 333 82820 87630=
07535,1999-11-10 12:00:00,9.2,1026.9,-1.7,57,1.1,,18.52,,,10,,,,,,,,,,,og-post,,,,AAXX 10124 07535 36/// /0110 10092 20011 39952 40269 58017=
07535,1999-11-10 13:00:00,9.5,1026.2,-2.1,61,2.4,30000,18.52,,,20,,,,,,,,,,,og-post,,,,AAXX 10134 07535 32580 70210 10095 20024 39945 40262 58021 86802 333 81820 86630=
07535,1999-11-10 15:00:00,8.9,1025.3,-1.6,66,2.9,,22.224,,,360,,,,,,,,,,,og-post,,,,AAXX 10154 07535 36/// /3612 10089 20029 39936 40253 56016=
07535,1999-11-10 16:00:00,8.4,1025,-1.2,69,3.1,25000,18.52,,,360,,,,,,,,,,,og-post,,,,AAXX 10164 07535 32575 63610 10084 20031 39933 40250 56012 83802 333 81820 83630=
07535,1999-11-10 17:00:00,7.5,1025.6,-0.4,75,3.4,,11.112,,,10,,,,,,,,,,,og-post,,,,AAXX 10174 07535 36/// /0106 10075 20034 39937 40256 55004=
07535,1999-11-10 18:00:00,7.1,1025.8,0.3,78,3.5,,7.408,,,340,6,9.5,,,,,,,,,og-post,,,,AAXX 10184 07535 36/// /3404 10071 20035 39939 40258 53003 333 10095 20060=
07535,1999-11-10 19:00:00,6.2,1025.6,0.3,82,3.4,,11.112,,,350,,,,,,,,,,,og-post,,,,AAXX 10194 07535 36/// /3506 10062 20034 39936 40256 50003=
07535,1999-11-10 20:00:00,5.5,1025.7,-0.1,84,3,,7.408,,,360,,,,,,,,,,,og-post,,,,AAXX 10204 07535 36/// /3604 10055 20030 39936 40257 58001=
07535,1999-11-10 21:00:00,4.7,1025.9,-0.2,90,3.2,,7.408,,,320,,,,,,,,,,,og-post,,,,AAXX 10214 07535 36/// /3204 10047 20032 39937 40259 55002=
07535,1999-11-10 22:00:00,4.1,1025.9,0,91,2.8,,7.408,,,320,,,,,,,,,,,og-post,,,,AAXX 10224 07535 36/// /3204 10041 20028 39936 40259 50000=
07535,1999-11-10 23:00:00,3.6,1025.8,-0.1,92,2.4,,3.704,,,10,,,,,,,,,,,og-post,,,,AAXX 10234 07535 36/// /0102 10036 20024 39935 40258 58001=
07535,1999-11-11 00:00:00,3.1,1025.6,-0.5,97,2.7,,7.408,,,360,,,,,,,,,,,og-post,,,,AAXX 11004 07535 36/// /3604 10031 20027 39932 40256 58005=
07535,1999-11-11 01:00:00,2.6,1025,-1,95,1.9,,3.704,,,340,,,,,,,,,,,og-post,,,,AAXX 11014 07535 36/// /3402 10026 20019 39926 40250 58010=
07535,1999-11-11 02:00:00,1.4,1025,-1.1,96,0.8,,,,,,,,,,,,,,,,og-post,,,,AAXX 11024 07535 36/// /0000 10014 20008 39924 40250 56011=
07535,1999-11-11 03:00:00,0.8,1024.8,-1,98,0.5,,,,,,,,,,,,,,,,og-post,,,,AAXX 11034 07535 36/// /0000 10008 20005 39922 40248 56010=
07535,1999-11-11 04:00:00,0.9,1024.7,-0.5,99,0.8,,3.704,,,160,,,,,,,,,,,og-post,,,,AAXX 11044 07535 36/// /1602 10009 20008 39921 40247 56005=
07535,1999-11-11 05:00:00,1.3,1024.5,-0.4,99,1.2,8000,3.704,,,160,,,,,,,,,,,og-post,,,,AAXX 11054 07535 32258 71602 10013 20012 39920 40245 56004 875// 333 82705 86626=
07535,1999-11-11 06:00:00,3.7,1024.1,-0.3,99,3.6,8000,3.704,,,340,0.3,7.3,,,,,0,2.2,-3,,og-post,,,,AAXX 11064 07535 32258 73402 10037 20036 39919 40241 57003 875// 333 10073 20003 30103 55022 70000 82705 86626=
07535,1999-11-11 07:00:00,3.9,1024,-0.3,95,3.2,10000,3.704,,,320,,,,,,,,,,,og-post,,,,AAXX 11074 07535 32460 83202 10039 20032 39918 40240 57003 888// 333 81813 87643=
07535,1999-11-11 08:00:00,5,1024,-0.1,90,3.5,12000,7.408,,,350,,,,,,,,,,,og-post,,,,AAXX 11084 07535 32662 73504 10050 20035 39919 40240 55001 875// 333 87640=
07535,1999-11-11 09:00:00,6,1024,0.1,85,3.7,12000,3.704,,,350,,,,,,,,,,,og-post,,,,AAXX 11094 07535 32662 73502 10060 20037 39920 40240 53001 875// 333 87640=
07535,1999-11-11 10:00:00,7.3,1023.8,0.2,78,3.7,12000,7.408,,,20,,,,,,,,,,,og-post,,,,AAXX 11104 07535 32662 70204 10073 20037 39920 40238 51002 875// 333 87640=
07535,1999-11-11 11:00:00,8.7,1023.5,-0.1,73,4.1,14000,11.112,,,30,,,,,,,,,,,og-post,,,,AAXX 11114 07535 32564 70306 10087 20041 39918 40235 58001 878// 333 82830 86640=
07535,1999-11-11 12:00:00,8.9,1022.7,-0.9,70,3.7,,3.704,,,310,,,,,,,,,,,og-post,,,,AAXX 11124 07535 36/// /3102 10089 20037 39911 40227 58009=
07535,1999-11-11 13:00:00,8.8,1022.1,-1.5,65,2.6,,7.408,,,350,,,,,,,,,,,og-post,,,,AAXX 11134 07535 36/// /3504 10088 20026 39905 40221 58015=
07535,1999-11-11 14:00:00,8.3,1021.7,-1.8,70,3.2,,7.408,,,340,,,,,,,,,,,og-post,,,,AAXX 11144 07535 36/// /3404 10083 20032 39900 40217 56018=
07535,1999-11-11 16:00:00,7.3,1021.2,-1,80,4.1,,7.408,,,340,,,,,,,,,,,og-post,,,,AAXX 11164 07535 36/// /3404 10073 20041 39895 40212 56010=
07535,1999-11-11 17:00:00,6.7,1021.4,-0.4,83,4,,3.704,,,350,,,,,,,,,,,og-post,,,,AAXX 11174 07535 36/// /3502 10067 20040 39896 40214 55004=
07535,1999-11-11 18:00:00,6.1,1021.6,-0,90,4.6,,3.704,,,350,3.4,9.3,,0.4,,0.4,,,,,og-post,,,,AAXX 11184 07535 /6/// /3502 10061 20046 39897 40216 55000 69942 333 10093 20034 69947=
07535,1999-11-11 19:00:00,5.2,1021.5,0,94,4.3,,3.704,,,60,,,,,,,,,,,og-post,,,,AAXX 11194 07535 36/// /0602 10052 20043 39895 40215 50000=
07535,1999-11-11 20:00:00,5.1,1021.2,-0.4,97,4.7,,3.704,,,130,,,,,,,,,,,og-post,,,,AAXX 11204 07535 36/// /1302 10051 20047 39892 40212 58004=
07535,1999-11-11 21:00:00,5.1,1021.1,-0.6,99,5,,7.408,,,120,,,,,,,,,,,og-post,,,,AAXX 11214 07535 36/// /1204 10051 20050 39891 40211 56006=
07535,1999-11-11 22:00:00,5,1021.3,-0.2,98,4.7,,3.704,,,290,,,,,,,,,,,og-post,,,,AAXX 11224 07535 36/// /2902 10050 20047 39893 40213 55002=
07535,1999-11-11 23:00:00,4.9,1021.4,0.2,99,4.8,,3.704,,,180,,,,,,,,,,,og-post,,,,AAXX 11234 07535 36/// /1802 10049 20048 39894 40214 53002=
07535,1999-11-12 00:00:00,5.2,1021.1,0,98,4.9,,7.408,,,150,,,,,,,,,,,og-post,,,,AAXX 12004 07535 36/// /1504 10052 20049 39891 40211 50000=
07535,1999-11-12 01:00:00,5.2,1020.8,-0.5,97,4.8,,7.408,,,150,,,,,,,,,,,og-post,,,,AAXX 12014 07535 36/// /1504 10052 20048 39888 40208 58005=
07535,1999-11-12 02:00:00,5,1020.9,-0.5,98,4.7,,7.408,,,140,,,,,,,,,,,og-post,,,,AAXX 12024 07535 36/// /1404 10050 20047 39889 40209 55005=
07535,1999-11-12 03:00:00,4.6,1020.7,-0.4,96,4,,3.704,,,120,,,,,,,,,,,og-post,,,,AAXX 12034 07535 36/// /1202 10046 20040 39887 40207 56004=
07535,1999-11-12 04:00:00,4.9,1020.5,-0.3,95,4.2,,11.112,,,130,,,,,,,,,,,og-post,,,,AAXX 12044 07535 36/// /1306 10049 20042 39885 40205 58003=
07535,1999-11-12 05:00:00,5.1,1020.5,-0.4,93,4.1,3000,11.112,,,130,,,,,,,,,,10,og-post,,,,AAXX 12054 07535 31930 71306 10051 20041 39885 40205 56004 71022 80006 333 87273=
07535,1999-11-12 06:00:00,5.6,1020,-0.6,91,4.2,3000,7.408,,,110,4.4,6.1,,,,,0.4,0.4,2,10,og-post,,,,AAXX 12064 07535 31630 71104 10056 20042 39881 40200 58006 71022 875// 333 10061 20044 31002 55004 70004 87633=
07535,1999-11-12 07:00:00,5.7,1020.2,-0.2,93,4.7,700,7.408,,,110,,,,,,,,,,61,og-post,,,,AAXX 12074 07535 21507 71104 10057 20047 39883 40202 55002 76164 875// 333 69905 87630=
07535,1999-11-12 08:00:00,5.8,1020.3,-0.1,96,5.2,1200,7.408,,,80,,,,,,,,,,61,og-post,,,,AAXX 12084 07535 21512 70804 10058 20052 39884 40203 55001 76166 875// 333 69905 87626=
07535,1999-11-12 09:00:00,5.5,1020.3,0.3,98,5.2,2000,11.112,,,50,,,,0.6,,,,,,61,og-post,,,,AAXX 12094 07535 21520 80506 10055 20052 39884 40203 51003 76164 8652/ 333 69967 86626 88458=
07535,1999-11-12 10:00:00,6,1019.8,-0.3,98,5.7,2000,7.408,,,40,,,5,,,,,,,63,og-post,,,,AAXX 12104 07535 21520 80404 10060 20057 39880 40198 58003 76366 8652/ 333 60055 86623 88458=
07535,1999-11-12 11:00:00,6.1,1018.9,-1.3,99,6,1600,11.112,,,40,,,4,,,,,,,63,og-post,,,,AAXX 12114 07535 21216 80406 10061 20060 39871 40189 58013 76366 887// 333 60045 88703=
07535,1999-11-12 12:00:00,6.6,1017.5,-2.6,99,6.5,,14.816,,,40,,,,6,9,,,,,,og-post,,,,AAXX 12124 07535 /6/// /0408 10066 20065 39858 40175 58026 60091 333 60067=
07535,1999-11-12 13:00:00,7.1,1016.3,-3.3,97,6.7,,14.816,,,40,,,0.4,,,,,,,,og-post,,,,AAXX 12134 07535 26/// /0408 10071 20067 39847 40163 58033 333 69945=
07535,1999-11-12 14:00:00,7.8,1015.3,-3.3,94,6.9,25000,14.816,,,60,,,,,,,,,,,og-post,,,,AAXX 12144 07535 32675 80608 10078 20069 39838 40153 56033 875// 333 87640=
07535,1999-11-12 15:00:00,8.1,1014.7,-2.5,93,7,18000,11.112,,,60,,,,0.4,,,,,,60,og-post,,,,AAXX 12154 07535 21668 80606 10081 20070 39833 40147 56025 76062 8652/ 333 69947 86640 88458=
07535,1999-11-12 16:00:00,9.6,1013.4,-2.5,83,6.9,12000,22.224,,,100,,,0.6,,,,,,,61,og-post,,,,AAXX 12164 07535 21662 81012 10096 20069 39822 40134 58025 76166 8652/ 333 69965 86640 88458=
07535,1999-11-12 17:00:00,10.2,1012.5,-2.4,78,6.5,,22.224,,,100,,,,,,,,,,,og-post,,,,AAXX 12174 07535 26/// /1012 10102 20065 39814 40125 58024 333 69905=
07535,1999-11-12 18:00:00,10.8,1012.3,-2.1,76,6.7,,18.52,,,110,5.3,10.8,,0.6,,10,,,,,og-post,,,,AAXX 12184 07535 /6/// /1110 10108 20067 39812 40123 56021 60102 333 10108 20053 69967=
07535,1999-11-12 19:00:00,11.5,1012.3,-0.9,73,6.8,,25.928,,,120,,,,,,,,,,,og-post,,,,AAXX 12194 07535 26/// /1214 10115 20068 39813 40123 55009 333 69905=
07535,1999-11-12 20:00:00,10.1,1011.8,-0.7,88,8.2,,29.632,57.412,50.004,130,,,0.8,,,,,,,,og-post,,,,AAXX 12204 07535 26/// /1316 10101 20082 39807 40118 58007 333 69985 91027 91131=
07535,1999-11-12 21:00:00,9.8,1012.4,-0,92,8.6,,35.188,72.228,64.82,130,,,,3,,,,,,,og-post,,,,AAXX 12214 07535 26/// /1319 10098 20086 39812 40124 55000 333 60037 91035 91139=
07535,1999-11-12 22:00:00,10.1,1012.1,-0.3,92,8.9,,29.632,64.82,53.708,130,,,2,,,,,,,,og-post,,,,AAXX 12224 07535 26/// /1316 10101 20089 39810 40121 56003 333 60025 91029 91135=
07535,1999-11-12 23:00:00,10.4,1011.8,0,93,9.3,,29.632,64.82,53.708,130,,,2,,,,,,,,og-post,,,,AAXX 12234 07535 26/// /1316 10104 20093 39807 40118 50000 333 60025 91029 91135=
07535,1999-11-13 00:00:00,11.3,1010.7,-1.4,88,9.4,,31.484,87.044,53.708,130,,,,6,9,,,,,,og-post,,,,AAXX 13004 07535 /6/// /1317 10113 20094 39798 40107 58014 60091 333 60067 91029 91147=
07535,1999-11-13 01:00:00,11.8,1010.2,-1.7,85,9.4,,35.188,61.116,53.708,130,,,,,,,,,,,og-post,,,,AAXX 13014 07535 26/// /1319 10118 20094 39793 40102 58017 333 69905 91029 91133=
07535,1999-11-13 02:00:00,12,1010.9,-0.7,83,9.2,,29.632,61.116,53.708,140,,,,,,,,,,,og-post,,,,AAXX 13024 07535 26/// /1416 10120 20092 39800 40109 55007 333 69905 91029 91133=
07535,1999-11-13 03:00:00,11.3,1011.6,0.8,89,9.6,,18.52,61.116,,170,,,,0.2,,,,,,,og-post,,,,AAXX 13034 07535 26/// /1710 10113 20096 39806 40116 53008 333 69927 91133=
07535,1999-11-13 04:00:00,10.8,1012.6,2.3,93,9.7,,29.632,61.116,,150,,,3,,,,,,,,og-post,,,,AAXX 13044 07535 26/// /1516 10108 20097 39816 40126 53023 333 60035 91133=
07535,1999-11-13 05:00:00,10.5,1012,0.9,95,9.7,3000,14.816,,,110,,,4,,,,,,,61,og-post,,,,AAXX 13054 07535 21230 81108 10105 20097 39809 40120 50009 76162 877// 333 60045 87703=
07535,1999-11-13 06:00:00,10.5,1011.8,0.1,93,9.4,4000,22.224,61.116,,130,9.8,12.1,,11,,19,29.2,,9,21,og-post,,,,AAXX 13064 07535 /1240 81312 10105 20094 39807 40118 50001 60192 72162 877// 333 10121 20098 32009 55000 60117 70292 87703 91133=
07535,1999-11-13 07:00:00,10.7,1011.9,-0.7,92,9.5,4000,18.52,,,130,,,0.2,,,,,,,61,og-post,,,,AAXX 13074 07535 21240 81310 10107 20095 39809 40119 55007 76162 875// 333 69925 82703 87630=
07535,1999-11-13 08:00:00,11.3,1011.2,-0.7,87,9.2,12000,25.928,,,120,,,0.6,,,,,,,60,og-post,,,,AAXX 13084 07535 21662 81214 10113 20092 39802 40112 58007 76066 875// 333 69965 87633=
07535,1999-11-13 09:00:00,12,1011.2,-0.4,83,9.2,25000,18.52,,,120,,,,0.8,,,,,,21,og-post,,,,AAXX 13094 07535 21675 81210 10120 20092 39803 40112 58004 72162 8552/ 333 69987 85633 88459=
07535,1999-11-13 10:00:00,13,1011.1,-0.6,77,9.1,25000,22.224,,,140,,,,,,,,,,,og-post,,,,AAXX 13104 07535 32475 81412 10130 20091 39803 40111 56006 8552/ 333 81613 84633 88459=
07535,1999-11-13 11:00:00,12.4,1010.8,-0.2,84,9.8,10000,25.928,,,130,,,0.2,,,,,,,61,og-post,,,,AAXX 13114 07535 21460 81314 10124 20098 39800 40108 58002 76162 8652/ 333 69925 81613 85633 88459=
07535,1999-11-13 12:00:00,12.2,1010.1,-1,86,9.9,,22.224,,,120,,,,1,2,,,,,,og-post,,,,AAXX 13124 07535 /6/// /1212 10122 20099 39793 40101 58010 60021 333 60017=
07535,1999-11-13 13:00:00,12.5,1009.5,-6,84,9.9,12000,18.52,,,120,,,0.8,,,,,,,,og-post,,,,AAXX 13134 07535 23462 81210 10125 20099 39787 40095 5806 8552/ 333 69985 81613 84633 88459=
07535,1999-11-13 14:00:00,12.6,1009.4,-1.4,83,9.8,5000,25.928,,,130,,,1,,,,,,,,og-post,,,,AAXX 13144 07535 23650 81314 10126 20098 39786 40094 56014 875// 333 60015 87633=
07535,1999-11-13 15:00:00,12,1009.6,-0.5,89,10.2,7000,7.408,,,160,,,,2,,,,,,,og-post,,,,AAXX 13154 07535 23557 81604 10120 20102 39788 40096 55005 8552/ 333 60027 85630 88459=
07535,1999-11-13 16:00:00,11.9,1009.2,-0.3,89,10.1,,7.408,,,100,,,0.8,,,,,,,,og-post,,,,AAXX 13164 07535 26/// /1004 10119 20101 39784 40092 58003 333 69985=
07535,1999-11-13 17:00:00,11.9,1009.3,-0.1,88,10,,11.112,,,90,,,0.8,,,,,,,,og-post,,,,AAXX 13174 07535 26/// /0906 10119 20100 39785 40093 58001 333 69985=
07535,1999-11-13 18:00:00,11.6,1009.4,-0.3,90,10,,7.408,,,100,10.6,13,,3,,7,,,,,og-post,,,,AAXX 13184 07535 /6/// /1004 10116 20100 39785 40094 56003 60072 333 10130 20106 60037=
07535,1999-11-13 19:00:00,11.4,1009.4,0.1,92,10.1,,7.408,,,60,,,0.4,,,,,,,,og-post,,,,AAXX 13194 07535 26/// /0604 10114 20101 39785 40094 51001 333 69945=
07535,1999-11-13 20:00:00,11,1009.1,-0.3,94,10.1,,7.408,,,30,,,0.6,,,,,,,,og-post,,,,AAXX 13204 07535 26/// /0304 10110 20101 39782 40091 58003 333 69965=
07535,1999-11-13 21:00:00,10.5,1009.6,0.1,97,10,,3.704,,,90,,,,1,,,,,,,og-post,,,,AAXX 13214 07535 26/// /0902 10105 20100 39786 40096 53001 333 60017=
07535,1999-11-14 00:00:00,10.1,1009.5,-0.1,97,9.6,,7.408,,,130,,,,0.4,2,,,,,,og-post,,,,AAXX 14004 07535 /6/// /1304 10101 20096 39785 40095 58001 60021 333 69947=
07535,1999-11-14 03:00:00,9.6,1008.7,-0.9,98,9.3,,7.408,,,90,,,,5,,,,,,,og-post,,,,AAXX 14034 07535 26/// /0904 10096 20093 39776 40087 58009 333 60057=
07535,1999-11-14 04:00:00,9.5,1008.4,-1.2,98,9.2,,7.408,,,130,,,0.2,,,,,,,,og-post,,,,AAXX 14044 07535 26/// /1304 10095 20092 39773 40084 56012 333 69925=
07535,1999-11-14 05:00:00,9.2,1008.5,-0.7,98,8.9,2000,3.704,,,110,,,,,,,,,,10,og-post,,,,AAXX 14054 07535 31520 81102 10092 20089 39774 40085 55007 71022 875// 333 87626=
07535,1999-11-14 06:00:00,8.6,1008.7,-0.1,98,8.3,700,3.704,,,360,8.6,11.7,,0.2,,6,13.4,,8,41,og-post,,,,AAXX 14064 07535 /1507 83602 10086 20083 39775 40087 55001 60062 74164 875// 333 10117 20086 32008 55000 69927 70134 87626=
07535,1999-11-14 07:00:00,8.2,1009,0.5,99,8.1,800,3.704,,,10,,,,,,,,,,60,og-post,,,,AAXX 14074 07535 21008 80102 10082 20081 39778 40090 53005 76064 8452/ 333 69905 81701 84626 88459=
07535,1999-11-14 08:00:00,7.7,1009.5,0.8,98,7.4,2500,7.408,,,40,,,,,,,,,,60,og-post,,,,AAXX 14084 07535 21025 80404 10077 20074 39782 40095 53008 76066 8652/ 333 69905 82701 85620 88459=
07535,1999-11-14 09:00:00,8.2,1009.8,1,97,7.8,6000,7.408,,,30,,,,0.2,,,,,,21,og-post,,,,AAXX 14094 07535 21056 80304 10082 20078 39785 40098 52010 72164 8652/ 333 69927 82701 86620 88459=
07535,1999-11-14 10:00:00,9.2,1009.4,0.5,96,8.6,7000,3.704,,,20,,,,,,,,,,,og-post,,,,AAXX 14104 07535 32157 80202 10092 20086 39783 40094 50005 875// 333 82702 85620 87640=
07535,1999-11-14 11:00:00,9.6,1009,-0.3,93,8.5,7000,7.408,,,30,,,,,,,,,,,og-post,,,,AAXX 14114 07535 32157 80304 10096 20085 39779 40090 58003 878// 333 82803 87630=
07535,1999-11-14 12:00:00,10.1,1008.7,-0.8,91,8.7,,7.408,,,50,,,,,0.2,,,,,,og-post,,,,AAXX 14124 07535 16/// /0504 10101 20087 39777 40087 57008 69921=
07535,1999-11-14 13:00:00,10.2,1008.3,-1,92,9,,7.408,,,70,,,,,,,,,,,og-post,,,,AAXX 14134 07535 36/// /0704 10102 20090 39773 40083 57010=
07535,1999-11-14 14:00:00,10.9,1007.7,-1.1,89,9.2,,7.408,,,30,,,,,,,,,,,og-post,,,,AAXX 14144 07535 36/// /0304 10109 20092 39768 40077 58011=
07535,1999-11-14 15:00:00,10.5,1007.6,-1,89,8.8,,7.408,,,30,,,,,,,,,,,og-post,,,,AAXX 14154 07535 36/// /0304 10105 20088 39767 40076 56010=
07535,1999-11-14 16:00:00,10,1008.1,-0.2,89,8.3,,7.408,,,40,,,,,,,,,,,og-post,,,,AAXX 14164 07535 36/// /0404 10100 20083 39771 40081 55002=
07535,1999-11-14 17:00:00,9.6,1008.4,0.5,93,8.5,,7.408,,,10,,,,,,,,,,,og-post,,,,AAXX 14174 07535 36/// /0104 10096 20085 39773 40084 53005=
07535,1999-11-14 18:00:00,8.8,1008.6,0.7,95,8,,7.408,,,20,7.6,11.2,,0.4,,0.6,,,,,og-post,,,,AAXX 14184 07535 /6/// /0204 10088 20080 39774 40086 51007 69962 333 10112 20076 69947=
07535,1999-11-14 19:00:00,8,1009,0.6,97,7.6,,3.704,,,340,,,,,,,,,,,og-post,,,,AAXX 14194 07535 36/// /3402 10080 20076 39777 40090 53006=
07535,1999-11-14 20:00:00,7.7,1009.4,0.8,97,7.3,,7.408,,,350,,,,,,,,,,,og-post,,,,AAXX 14204 07535 36/// /3504 10077 20073 39781 40094 53008=
07535,1999-11-14 21:00:00,6.8,1009.6,0.8,97,6.4,,11.112,,,80,,,,,,,,,,,og-post,,,,AAXX 14214 07535 36/// /0806 10068 20064 39782 40096 51008=
07535,1999-11-14 22:00:00,6.7,1009.9,0.8,93,5.6,,11.112,,,100,,,,,,,,,,,og-post,,,,AAXX 14224 07535 36/// /1006 10067 20056 39785 40099 51008=
07535,1999-11-14 23:00:00,5.6,1010.1,0.4,96,5,,7.408,,,360,,,,,,,,,,,og-post,,,,AAXX 14234 07535 36/// /3604 10056 20050 39785 40101 51004=
07535,1999-11-15 00:00:00,5.5,1010.3,0.5,93,4.5,,7.408,,,40,,,,,,,,,,,og-post,,,,AAXX 15004 07535 36/// /0404 10055 20045 39787 40103 51005=
07535,1999-11-15 01:00:00,4.7,1010.5,0.3,92,3.5,,3.704,,,90,,,,,,,,,,,og-post,,,,AAXX 15014 07535 36/// /0902 10047 20035 39788 40105 53003=
07535,1999-11-15 02:00:00,4.1,1010.9,0.6,92,2.9,,7.408,,,350,,,,,,,,,,,og-post,,,,AAXX 15024 07535 36/// /3504 10041 20029 39791 40109 53006=
07535,1999-11-15 03:00:00,3.5,1010.9,0.3,95,2.8,,7.408,,,360,,,,,,,,,,,og-post,,,,AAXX 15034 07535 36/// /3604 10035 20028 39790 40109 50003=
07535,1999-11-15 04:00:00,2.6,1011.3,0.5,97,2.2,,3.704,,,10,,,,,,,,,,,og-post,,,,AAXX 15044 07535 36/// /0102 10026 20022 39793 40113 52005=
07535,1999-11-15 05:00:00,2.4,1011.8,0.7,97,2,12000,7.408,,,10,,,,,,,,,,,og-post,,,,AAXX 15054 07535 32762 10104 10024 20020 39798 40118 53007 81500 333 81650=
07535,1999-11-15 06:00:00,2.3,1012,1,98,2,15000,7.408,,,30,2.2,8.8,,,,,0.6,0.2,-1,,og-post,,,,AAXX 15064 07535 32765 40304 10023 20020 39800 40120 51010 84500 333 10088 20022 32101 55002 70006 84650=
07535,1999-11-15 07:00:00,2.2,1012.3,0.9,96,1.6,15000,7.408,,,360,,,,,,,,,,,og-post,,,,AAXX 15074 07535 32765 23604 10022 20016 39802 40123 51009 82500 333 82650=
07535,1999-11-15 08:00:00,3.1,1012.9,1.1,97,2.7,20000,3.704,,,40,,,,,,,,,,,og-post,,,,AAXX 15084 07535 32770 10402 10031 20027 39809 40129 53011 81500 333 81650=
07535,1999-11-15 09:00:00,5,1013.1,1.3,87,3,20000,3.704,,,20,,,,,,,,,,,og-post,,,,AAXX 15094 07535 32970 00202 10050 20030 39813 40131 53013=
07535,1999-11-15 10:00:00,6.5,1013.1,1.3,82,3.7,20000,7.408,,,340,,,,,,,,,,,og-post,,,,AAXX 15104 07535 32970 03404 10065 20037 39815 40131 51013=
07535,1999-11-15 11:00:00,8.2,1012.9,0.6,79,4.8,20000,7.408,,,340,,,,,,,,,,,og-post,,,,AAXX 15114 07535 32970 03404 10082 20048 39815 40129 51006=
07535,1999-11-15 12:00:00,10.4,1012.1,-0.3,66,4.3,20000,11.112,,,10,,,,,,,,,,,og-post,,,,AAXX 15124 07535 42570 30106 10104 20043 39810 40121 58003 83100 333 83823=
07535,1999-11-15 13:00:00,10,1012,-0.7,65,3.7,25000,11.112,,,10,,,,,,,,,,,og-post,,,,AAXX 15134 07535 32575 50106 10100 20037 39808 40120 58007 85100 333 85826=
07535,1999-11-15 14:00:00,9.4,1011.9,-0.8,63,2.7,25000,18.52,,,20,,,,,,,,,,,og-post,,,,AAXX 15144 07535 32575 60210 10094 20027 39807 40119 56008 86100 333 86830=
07535,1999-11-15 15:00:00,8.8,1012.5,0.2,60,1.5,25000,14.816,,,10,,,,,,,,,,,og-post,,,,AAXX 15154 07535 32675 50108 10088 20015 39812 40125 53002 85400 333 85633=
07535,1999-11-15 16:00:00,8.3,1013.1,0.9,59,0.8,25000,18.52,,,30,,,,,,,,,,,og-post,,,,AAXX 15164 07535 32675 50310 10083 20008 39817 40131 53009 85400 333 85640=
07535,1999-11-15 17:00:00,7.2,1014.2,1.9,60,0,,14.816,,,40,,,,,,,,,,,og-post,,,,AAXX 15174 07535 36/// /0408 10072 20000 39826 40142 53019=
07535,1999-11-15 18:00:00,6.3,1014.9,2,63,-0.2,,11.112,,,30,1.7,10.6,,,,,,,,,og-post,,,,AAXX 15184 07535 36/// /0306 10063 21002 39832 40149 53020 333 10106 20017=
07535,1999-11-15 19:00:00,5.6,1015.3,1.8,66,-0.2,,7.408,,,360,,,,,,,,,,,og-post,,,,AAXX 15194 07535 36/// /3604 10056 21002 39835 40153 51018=
07535,1999-11-15 20:00:00,4.6,1015.7,1.2,66,-1.2,,7.408,,,350,,,,,,,,,,,og-post,,,,AAXX 15204 07535 36/// /3504 10046 21012 39838 40157 51012=
07535,1999-11-15 21:00:00,3.1,1016.2,0.9,77,-0.5,,7.408,,,330,,,,,,,,,,,og-post,,,,AAXX 15214 07535 36/// /3304 10031 21005 39841 40162 52009=
07535,1999-11-15 22:00:00,2.1,1017,1.3,83,-0.5,,7.408,,,340,,,,,,,,,,,og-post,,,,AAXX 15224 07535 36/// /3404 10021 21005 39848 40170 53013=
07535,1999-11-15 23:00:00,0.2,1017.4,1.1,91,-1.1,,,,,,,,,,,,,,,,og-post,,,,AAXX 15234 07535 36/// /0000 10002 21011 39849 40174 51011=
07535,1999-11-16 00:00:00,-0.6,1017.4,0.7,96,-1.2,,,,,,,,,,,,,,,,og-post,,,,AAXX 16004 07535 36/// /0000 11006 21012 39848 40174 50007=
07535,1999-11-16 01:00:00,-1,1017.2,-0.2,98,-1.3,,3.704,,,280,,,,,,,,,,,og-post,,,,AAXX 16014 07535 36/// /2802 11010 21013 39846 40172 58002=
07535,1999-11-16 02:00:00,-1.6,1017.4,-0.2,98,-1.9,,7.408,,,150,,,,,,,,,,,og-post,,,,AAXX 16024 07535 36/// /1504 11016 21019 39847 40174 55002=
07535,1999-11-16 03:00:00,-2,1017.3,-0.2,99,-2.1,,3.704,,,160,,,,,,,,,,,og-post,,,,AAXX 16034 07535 36/// /1602 11020 21021 39846 40173 56002=
07535,1999-11-16 04:00:00,-2.2,1017.3,0,98,-2.5,,3.704,,,150,,,,,,,,,,,og-post,,,,AAXX 16044 07535 36/// /1502 11022 21025 39846 40173 50000=
07535,1999-11-16 05:00:00,-2.3,1017.6,0.1,99,-2.4,2000,3.704,,,230,,,,,,,,,,10,og-post,,,,AAXX 16054 07535 31920 02302 11023 21024 39848 40176 53001 71000=
07535,1999-11-16 06:00:00,-2,1017.7,0.4,99,-2.1,2000,3.704,,,220,-2.5,6.3,,,,,0,4.5,-6,10,og-post,,,,AAXX 16064 07535 31620 52202 11020 21021 39850 40177 53004 71011 85500 333 10063 21025 31106 55045 70000 85633=
07535,1999-11-16 07:00:00,-1.5,1018.2,0.9,99,-1.6,7000,,,,,,,,,,,,,,,og-post,,,,AAXX 16074 07535 32657 70000 11015 21016 39855 40182 53009 875// 333 87640=
07535,1999-11-16 08:00:00,-1,1019,1.5,99,-1.1,9000,,,,,,,,,,,,,,,og-post,,,,AAXX 16084 07535 32659 70000 11010 21011 39863 40190 53015 875// 333 87643=
07535,1999-11-16 09:00:00,-0.3,1019.3,1.7,98,-0.6,9000,3.704,,,290,,,,,,,,,,,og-post,,,,AAXX 16094 07535 32659 62902 11003 21006 39867 40193 51017 86500 333 86646=
07535,1999-11-16 10:00:00,1.3,1019.5,1.6,94,0.4,10000,3.704,,,290,,,,,,,,,,,og-post,,,,AAXX 16104 07535 32460 62902 10013 20004 39871 40195 51016 86800 333 84815 83650=
07535,1999-11-16 11:00:00,2,1019.3,0.7,82,-0.7,12000,3.704,,,300,,,,,,,,,,,og-post,,,,AAXX 16114 07535 32462 43002 10020 21007 39870 40193 50007 83130 333 83815=
07535,1999-11-16 12:00:00,3.9,1019,0.2,71,-0.9,15000,7.408,,,300,,,,,,,,,,,og-post,,,,AAXX 16124 07535 32465 43004 10039 21009 39869 40190 50002 83130 333 83816=
07535,1999-11-16 13:00:00,6.1,1018.7,-0.2,60,-1.1,,11.112,,,290,,,,,,,,,,,og-post,,,,AAXX 16134 07535 36/// /2906 10061 21011 39869 40187 56002=
07535,1999-11-16 14:00:00,4.8,1019,-0,65,-1.2,18000,11.112,,,300,,,,,,,,,,,og-post,,,,AAXX 16144 07535 32568 53006 10048 21012 39870 40190 55000 84830 333 82820 83630=
07535,1999-11-16 15:00:00,4.4,1019.7,0.7,63,-2,20000,7.408,,,290,,,,,,,,,,,og-post,,,,AAXX 16154 07535 32570 52904 10044 21020 39876 40197 53007 83830 333 81823 84633=
07535,1999-11-16 16:00:00,3.2,1020.1,1,67,-2.3,20000,7.408,,,290,,,,,,,,,,,og-post,,,,AAXX 16164 07535 32670 32904 10032 21023 39879 40201 53010 83400 333 83640=
07535,1999-11-16 17:00:00,0.9,1020.9,1.4,79,-2.3,,3.704,,,280,,,,,,,,,,,og-post,,,,AAXX 16174 07535 36/// /2802 10009 21023 39884 40209 51014=
07535,1999-11-16 18:00:00,-0.1,1021.7,1.5,83,-2.6,,3.704,,,280,-2.1,6.5,,,,,,,,,og-post,,,,AAXX 16184 07535 36/// /2802 11001 21026 39891 40217 53015 333 10065 21021=
07535,1999-11-16 19:00:00,0.4,1022,1.5,86,-1.7,,3.704,,,270,,,,,,,,,,,og-post,,,,AAXX 16194 07535 36/// /2702 10004 21017 39894 40220 51015=
07535,1999-11-16 20:00:00,1.3,1022,1.1,85,-0.9,,3.704,,,260,,,,,,,,,,,og-post,,,,AAXX 16204 07535 36/// /2602 10013 21009 39895 40220 51011=
07535,1999-11-16 21:00:00,1.3,1021.7,0.1,87,-0.6,,3.704,,,170,,,,,,,,,,,og-post,,,,AAXX 16214 07535 36/// /1702 10013 21006 39892 40217 50001=
07535,1999-11-16 22:00:00,1.6,1021.4,-0.4,82,-1.1,,7.408,,,210,,,,,,,,,,,og-post,,,,AAXX 16224 07535 36/// /2104 10016 21011 39890 40214 58004=
07535,1999-11-16 23:00:00,1.8,1021.4,-0.5,82,-0.9,,3.704,,,160,,,,,,,,,,,og-post,,,,AAXX 16234 07535 36/// /1602 10018 21009 39890 40214 56005=
07535,1999-11-17 00:00:00,2,1021.1,-0.5,81,-0.9,,7.408,,,200,,,,,,,,,,,og-post,,,,AAXX 17004 07535 36/// /2004 10020 21009 39887 40211 58005=
07535,1999-11-17 01:00:00,2.1,1020.6,-0.7,79,-1.2,,7.408,,,200,,,,,,,,,,,og-post,,,,AAXX 17014 07535 36/// /2004 10021 21012 39883 40206 58007=
07535,1999-11-17 02:00:00,2.1,1020.5,-0.8,82,-0.6,,7.408,,,210,,,,,,,,,,,og-post,,,,AAXX 17024 07535 36/// /2104 10021 21006 39882 40205 56008=
07535,1999-11-17 03:00:00,2.1,1020,-1,90,0.6,,3.704,,,220,,,,,,,,,,,og-post,,,,AAXX 17034 07535 36/// /2202 10021 20006 39877 40200 58010=
07535,1999-11-17 04:00:00,2.4,1020.1,-0.5,94,1.5,,3.704,,,270,,,,,,,,,,,og-post,,,,AAXX 17044 07535 36/// /2702 10024 20015 39878 40201 55005=
07535,1999-11-17 05:00:00,2.7,1019.9,-0.5,95,2,3000,,,,,,,,,,,,,,10,og-post,,,,AAXX 17054 07535 31230 80000 10027 20020 39877 40199 56005 71022 877// 333 87704=
07535,1999-11-17 06:00:00,2.9,1020.4,0.5,97,2.5,3000,7.408,,,300,-0.2,2.9,,,,,0,3.8,-5,10,og-post,,,,AAXX 17064 07535 31230 83004 10029 20025 39882 40204 53005 71022 877// 333 10029 21002 31105 55038 70000 87704=
07535,1999-11-17 07:00:00,2.8,1020.8,0.8,98,2.5,3000,7.408,,,300,,,,,,,,,,10,og-post,,,,AAXX 17074 07535 31230 83004 10028 20025 39886 40208 53008 71022 877// 333 87704=
07535,1999-11-17 08:00:00,2.7,1021.6,1.6,98,2.4,3000,7.408,,,310,,,,,,,,,,10,og-post,,,,AAXX 17084 07535 31230 83104 10027 20024 39893 40216 53016 71022 877// 333 87704=
07535,1999-11-17 09:00:00,2.7,1022.5,2,97,2.3,3000,7.408,,,310,,,,,,,,,,10,og-post,,,,AAXX 17094 07535 31230 83104 10027 20023 39902 40225 53020 71022 877// 333 87704=
07535,1999-11-17 10:00:00,3.4,1022.8,2,93,2.4,4000,7.408,,,350,,,,,,,,,,10,og-post,,,,AAXX 17104 07535 31240 83504 10034 20024 39906 40228 51020 71022 877// 333 87704=
07535,1999-11-17 11:00:00,4.4,1022.7,1.3,85,2.1,5000,3.704,,,290,,,,,,,,,,,og-post,,,,AAXX 17114 07535 32250 72902 10044 20021 39906 40227 51013 876// 333 87704=
07535,1999-11-17 12:00:00,6.2,1021.9,-0.2,76,2.3,,7.408,,,290,,,,,,,,,,,og-post,,,,AAXX 17124 07535 36/// /2904 10062 20023 39900 40219 58002=
07535,1999-11-17 13:00:00,7.4,1021.1,-1.2,74,3.1,15000,7.408,,,270,,,,,,,,,,,og-post,,,,AAXX 17134 07535 32465 72704 10074 20031 39894 40211 58012 878// 333 83815 87646=
07535,1999-11-17 14:00:00,6.5,1020.7,-1.7,78,2.9,15000,7.408,,,280,,,,,,,,,,,og-post,,,,AAXX 17144 07535 32465 72804 10065 20029 39889 40207 56017 878// 333 84815 87640=
07535,1999-11-17 15:00:00,6.5,1020.4,-1.4,80,3.3,15000,7.408,,,280,,,,,,,,,,80,og-post,,,,AAXX 17154 07535 21465 72804 10065 20033 39886 40204 56014 78086 878/ 333 69907 85815 87640=
07535,1999-11-17 16:00:00,7,1019.9,-1.2,76,3.1,15000,11.112,,,270,,,,,,,,,,25,og-post,,,,AAXX 17164 07535 21465 72706 10070 20031 39882 40199 56012 72586 878// 333 69905 84816 87640=
07535,1999-11-17 17:00:00,5.9,1020.5,-0.3,88,4.1,,7.408,,,310,,,,,,,,,,,og-post,,,,AAXX 17174 07535 36/// /3104 10059 20041 39886 40205 55003=
07535,1999-11-17 18:00:00,3.6,1021.5,0.7,96,3,,3.704,,,280,2.6,7.5,,2,,2,,,,,og-post,,,,AAXX 17184 07535 /6/// /2802 10036 20030 39893 40215 53007 60022 333 10075 20026 60027=
07535,1999-11-17 19:00:00,3.5,1022.2,1.8,98,3.2,,3.704,,,280,,,,,,,,,,,og-post,,,,AAXX 17194 07535 36/// /2802 10035 20032 39900 40222 53018=
07535,1999-11-17 20:00:00,4.5,1022.5,1.8,92,3.3,,14.816,,,310,,,,,,,,,,,og-post,,,,AAXX 17204 07535 36/// /3108 10045 20033 39904 40225 51018=
07535,1999-11-17 21:00:00,4,1023.4,1.9,83,1.4,,11.112,,,330,,,,,,,,,,,og-post,,,,AAXX 17214 07535 36/// /3306 10040 20014 39912 40234 53019=
07535,1999-11-17 22:00:00,2.8,1024,1.6,89,1.2,,11.112,,,310,,,,,,,,,,,og-post,,,,AAXX 17224 07535 36/// /3106 10028 20012 39916 40240 52016=
07535,1999-11-17 23:00:00,1.9,1024.3,1.4,92,0.7,,3.704,,,300,,,,,,,,,,,og-post,,,,AAXX 17234 07535 36/// /3002 10019 20007 39918 40243 51014=
07535,1999-11-18 00:00:00,0.9,1024.5,0.7,97,0.5,,,,,,,,,,,,,,,,og-post,,,,AAXX 18004 07535 36/// /0000 10009 20005 39919 40245 51007=
07535,1999-11-18 01:00:00,-0.3,1025,0.6,98,-0.6,,3.704,,,220,,,,,,,,,,,og-post,,,,AAXX 18014 07535 36/// /2202 11003 21006 39922 40250 53006=
07535,1999-11-18 02:00:00,-0.8,1024.7,0.1,99,-0.9,,3.704,,,170,,,,,,,,,,,og-post,,,,AAXX 18024 07535 36/// /1702 11008 21009 39919 40247 50001=
07535,1999-11-18 03:00:00,-0.2,1023.9,-0.7,99,-0.3,,7.408,,,200,,,,,,,,,,,og-post,,,,AAXX 18034 07535 36/// /2004 11002 21003 39912 40239 58007=
07535,1999-11-18 04:00:00,1.1,1023.3,-1.4,99,1,,7.408,,,200,,,,,,,,,,,og-post,,,,AAXX 18044 07535 36/// /2004 10011 20010 39908 40233 58014=
07535,1999-11-18 05:00:00,1.3,1022.5,-1.9,100,1.3,5000,7.408,,,200,,,,,,,,,,,og-post,,,,AAXX 18054 07535 32650 62004 10013 20013 39900 40225 58019 86500 333 86640=
07535,1999-11-18 06:00:00,1.6,1021.8,-1.8,100,1.6,5000,7.408,,,200,-1.1,4.6,,,,,1.6,0.7,-4,,og-post,,,,AAXX 18064 07535 32650 72004 10016 20016 39894 40218 58018 875// 333 10046 21011 31104 55007 70016 87640=
07535,1999-11-18 07:00:00,2.3,1021.2,-1.9,99,2.2,5000,7.408,,,200,,,,,,,,,,60,og-post,,,,AAXX 18074 07535 21550 82004 10023 20022 39889 40212 56019 76062 875// 333 69905 87626=
07535,1999-11-18 08:00:00,3.1,1019.9,-2.3,100,3.1,5000,11.112,,,200,,,,,,,,,,60,og-post,,,,AAXX 18084 07535 21250 82006 10031 20031 39877 40199 58023 76066 8552/ 333 69905 81703 85626 88459=
07535,1999-11-18 09:00:00,4.2,1018.1,-3.3,99,4.1,5000,14.816,,,210,,,,0.2,,,,,,61,og-post,,,,AAXX 18094 07535 21150 82108 10042 20041 39861 40181 58033 76162 875// 333 69927 86703 87626=
07535,1999-11-18 10:00:00,5.3,1017.2,-3.5,99,5.2,5000,11.112,,,240,,,0.4,,,,,,,61,og-post,,,,AAXX 18104 07535 21150 82406 10053 20052 39854 40172 56035 76166 877// 333 69945 87703=
07535,1999-11-18 11:00:00,6.2,1015.8,-3.6,99,6.1,6000,7.408,,,240,,,0.4,,,,,,,61,og-post,,,,AAXX 18114 07535 21156 82404 10062 20061 39841 40158 56036 76166 877// 333 69945 87703=
07535,1999-11-18 12:00:00,7.5,1013.8,-3.8,99,7.4,8000,11.112,,,260,,,,1,2,,,,,61,og-post,,,,AAXX 18124 07535 /1258 82606 10075 20074 39823 40138 58038 60021 76162 877// 333 60017 87704=
07535,1999-11-18 13:00:00,8.5,1012.4,-4.3,99,8.4,7000,14.816,,,270,,,0.8,,,,,,,61,og-post,,,,AAXX 18134 07535 21257 82708 10085 20084 39811 40124 56043 76166 887// 333 69985 88704=
07535,1999-11-18 14:00:00,9.2,1011.1,-4.2,99,9.1,12000,11.112,,,270,,,0.6,,,,,,,61,og-post,,,,AAXX 18144 07535 21262 82706 10092 20091 39799 40111 56042 76166 887// 333 69965 88704=
07535,1999-11-18 15:00:00,9.3,1009.6,-3.8,99,9.2,13000,14.816,,,270,,,,2,,,,,,60,og-post,,,,AAXX 18154 07535 21263 82708 10093 20092 39785 40096 58038 76066 887// 333 60027 88705=
07535,1999-11-18 16:00:00,9.4,1008.6,-3.6,98,9.1,9000,11.112,,,270,,,0.6,,,,,,,61,og-post,,,,AAXX 18164 07535 21259 82706 10094 20091 39775 40086 56036 76166 887// 333 69965 88705=
07535,1999-11-18 19:00:00,10.1,1003.3,-5,99,9.9,,18.52,,,270,,,2,,,,,,,,og-post,,,,AAXX 18194 07535 26/// /2710 10101 20099 39725 40033 57050 333 60025=
07535,1999-11-18 20:00:00,7.9,1006.4,-0.8,96,7.3,,18.52,,,350,,,4,,,,,,,,og-post,,,,AAXX 18204 07535 26/// /3510 10079 20073 39752 40064 55008 333 60045=
07535,1999-11-18 21:00:00,6.7,1008.2,2.8,89,5,,25.928,,,350,,,,6,,,,,,,og-post,,,,AAXX 18214 07535 26/// /3514 10067 20050 39768 40082 53028 333 60067=
07535,1999-11-18 22:00:00,4.8,1010.3,6.1,85,2.5,,22.224,,,360,,,,,,,,,,,og-post,,,,AAXX 18224 07535 26/// /3612 10048 20025 39786 40103 51061 333 69905=
07535,1999-11-18 23:00:00,3.5,1011.7,4.6,84,1.1,,14.816,,,350,,,,,,,,,,,og-post,,,,AAXX 18234 07535 26/// /3508 10035 20011 39798 40117 51046 333 69905=
07535,1999-11-19 00:00:00,1.6,1013,4,88,-0.2,,14.816,,,340,,,,,6,,,,,,og-post,,,,AAXX 19004 07535 /6/// /3408 10016 21002 39808 40130 51040 60061 333 69907=
07535,1999-11-19 01:00:00,0.8,1013.8,2.9,90,-0.6,,7.408,,,320,,,,,,,,,,,og-post,,,,AAXX 19014 07535 26/// /3204 10008 21006 39815 40138 51029 333 69905=
07535,1999-11-19 02:00:00,0.1,1014.9,2.7,94,-0.7,,7.408,,,320,,,,,,,,,,,og-post,,,,AAXX 19024 07535 26/// /3204 10001 21007 39825 40149 52027 333 69905=
07535,1999-11-19 03:00:00,-0.6,1015.6,2.3,97,-1,,,,,,,,,,,,,,,,og-post,,,,AAXX 19034 07535 26/// /0000 11006 21010 39831 40156 51023 333 69907=
07535,1999-11-19 04:00:00,-0.3,1015.8,1.8,98,-0.6,,7.408,,,310,,,,,,,,,,,og-post,,,,AAXX 19044 07535 26/// /3104 11003 21006 39833 40158 51018 333 69905=
07535,1999-11-19 05:00:00,-0.8,1015.9,0.9,98,-1.1,3000,3.704,,,290,,,,,,,,,,,og-post,,,,AAXX 19054 07535 23630 42902 11008 21011 39834 40159 51009 84500 333 69905 84640=
07535,1999-11-19 06:00:00,-0.3,1016,0.4,99,-0.4,2000,3.704,,,280,-0.9,10.4,,,,6,12.4,,-5,10,og-post,,,,AAXX 19064 07535 11320 62802 11003 21004 39835 40160 51004 60062 71011 86500 333 10104 21009 31105 55000 70124 83706 86640=
07535,1999-11-19 07:00:00,0.1,1016.2,0.5,99,0,13000,11.112,,,310,,,,,,,,,,,og-post,,,,AAXX 19074 07535 32563 83106 10001 20000 39838 40162 53005 888// 333 81823 87633=
07535,1999-11-19 08:00:00,0.4,1016.6,0.8,98,0.1,15000,11.112,,,310,,,,,,,,,,,og-post,,,,AAXX 19084 07535 32365 73106 10004 20001 39842 40166 53008 87500 333 81706 87633=
07535,1999-11-19 09:00:00,1.6,1016.3,0.5,94,0.7,15000,7.408,,,310,,,,,,,,,,,og-post,,,,AAXX 19094 07535 32465 73104 10016 20007 39840 40163 50005 87800 333 81810 87633=
07535,1999-11-19 10:00:00,1.8,1016.2,0.2,92,0.6,,11.112,,,320,,,,,,,,,,,og-post,,,,AAXX 19104 07535 36/// /3206 10018 20006 39840 40162 51002=
07535,1999-11-19 11:00:00,3.8,1015.1,-1.1,87,1.8,15000,7.408,,,280,,,,,,,,,,,og-post,,,,AAXX 19114 07535 32465 32804 10038 20018 39831 40151 58011 83800 333 81813=
07535,1999-11-19 12:00:00,3.7,1014.7,-1.3,86,1.6,,11.112,,,300,,,,,,,,,,,og-post,,,,AAXX 19124 07535 36/// /3006 10037 20016 39827 40147 58013=
07535,1999-11-19 13:00:00,3.8,1014.1,-1.8,87,1.8,15000,14.816,,,310,,,,,,,,,,,og-post,,,,AAXX 19134 07535 32565 83108 10038 20018 39822 40141 56018 875// 333 87630=
07535,1999-11-19 14:00:00,4,1013.3,-1.7,86,1.9,15000,11.112,,,300,,,,,,,,,,,og-post,,,,AAXX 19144 07535 32465 73006 10040 20019 39814 40133 58017 872// 333 87816=
07535,1999-11-19 15:00:00,4.1,1012.6,-1.9,86,2,15000,7.408,,,300,,,,,,,,,,,og-post,,,,AAXX 19154 07535 32465 83004 10041 20020 39808 40126 58019 872// 333 87816=
07535,1999-11-19 16:00:00,4.1,1012.5,-1.5,82,1.3,25000,7.408,,,290,,,,,,,,,,,og-post,,,,AAXX 19164 07535 32475 72904 10041 20013 39807 40125 56015 86903 333 82910=
07535,1999-11-19 17:00:00,3,1012.8,-0.6,91,1.7,,14.816,,,300,,,,,,,,,,,og-post,,,,AAXX 19174 07535 36/// /3008 10030 20017 39808 40128 55006=
07535,1999-11-19 18:00:00,2.8,1012.5,-0.3,93,1.8,,7.408,,,300,-0.3,5.1,,,,,,,,,og-post,,,,AAXX 19184 07535 36/// /3004 10028 20018 39805 40125 58003 333 10051 21003=
07535,1999-11-19 19:00:00,2.7,1012.3,-0.4,93,1.7,,7.408,,,280,,,,,,,,,,,og-post,,,,AAXX 19194 07535 36/// /2804 10027 20017 39803 40123 58004=
07535,1999-11-19 20:00:00,2.2,1012.1,-0.7,96,1.6,,14.816,,,320,,,1,,,,,,,,og-post,,,,AAXX 19204 07535 26/// /3208 10022 20016 39801 40121 56007 333 60015=
07535,1999-11-19 21:00:00,2.1,1012.4,-0.2,98,1.8,,7.408,,,330,,,,1,,,,,,,og-post,,,,AAXX 19214 07535 26/// /3304 10021 20018 39803 40124 55002 333 60017=
07535,1999-11-19 22:00:00,0.9,1012.7,0.2,98,0.6,,7.408,,,330,,,,,,,,,,,og-post,,,,AAXX 19224 07535 36/// /3304 10009 20006 39805 40127 53002=
07535,1999-11-19 23:00:00,0.3,1013.1,0.7,97,-0.1,,11.112,,,340,,,,,,,,,,,og-post,,,,AAXX 19234 07535 36/// /3406 10003 21001 39808 40131 53007=
07535,1999-11-20 00:00:00,-0.4,1013.4,0.7,97,-0.8,,7.408,,,330,,,,,1,,,,,,og-post,,,,AAXX 20004 07535 16/// /3304 11004 21008 39810 40134 52007 60011=
07535,1999-11-20 01:00:00,-0.7,1013.3,0.4,98,-1,,11.112,,,340,,,,,,,,,,,og-post,,,,AAXX 20014 07535 36/// /3406 11007 21010 39809 40133 50004=
07535,1999-11-20 02:00:00,-1.1,1013.8,0.5,96,-1.7,,7.408,,,330,,,,,,,,,,,og-post,,,,AAXX 20024 07535 36/// /3304 11011 21017 39813 40138 53005=
07535,1999-11-20 03:00:00,-1.3,1013.9,0.4,96,-1.9,,7.408,,,330,,,,,,,,,,,og-post,,,,AAXX 20034 07535 36/// /3304 11013 21019 39814 40139 53004=
07535,1999-11-20 04:00:00,-1.6,1014,0.5,97,-2,,7.408,,,360,,,,,,,,,,,og-post,,,,AAXX 20044 07535 36/// /3604 11016 21020 39814 40140 51005=
07535,1999-11-20 05:00:00,-1.6,1014,0.1,98,-1.9,,7.408,,,350,,,,,,,,,,,og-post,,,,AAXX 20054 07535 36/// /3504 11016 21019 39814 40140 51001=
07535,1999-11-20 06:00:00,-1.6,1014.2,0.2,97,-2,,7.408,,,340,-1.8,2.8,,,,1,,1.1,-6,,og-post,,,,AAXX 20064 07535 16/// /3404 11016 21020 39816 40142 53002 60012 333 10028 21018 3/106 55011 70012=
07535,1999-11-20 07:00:00,-1.9,1014.2,0.2,95,-2.6,7000,7.408,,,340,,,,,,,,,,,og-post,,,,AAXX 20074 07535 32657 43404 11019 21026 39816 40142 52002 82501 333 82640=
07535,1999-11-20 08:00:00,-1.5,1014.8,0.8,94,-2.3,10000,3.704,,,340,,,,,,,,,,,og-post,,,,AAXX 20084 07535 32660 53402 11015 21023 39822 40148 53008 84502 333 84633=
07535,1999-11-20 09:00:00,-0.3,1014.5,0.5,89,-1.9,11000,7.408,,,350,,,,,,,,,,,og-post,,,,AAXX 20094 07535 32661 53504 11003 21019 39821 40145 50005 83501 333 83633 83075=
07535,1999-11-20 10:00:00,1,1014.6,0.7,83,-1.6,,11.112,,,350,,,,,,,,,,,og-post,,,,AAXX 20104 07535 36/// /3506 10010 21016 39823 40146 51007=
07535,1999-11-20 11:00:00,1.3,1014.1,-0.3,78,-2.1,20000,14.816,,,350,,,,,,,,,,,og-post,,,,AAXX 20114 07535 32470 63508 10013 21021 39819 40141 58003 83202 333 83816 84075=
07535,1999-11-20 12:00:00,1.6,1013.7,-0.6,77,-2,,11.112,,,340,,,,,,,,,,,og-post,,,,AAXX 20124 07535 36/// /3406 10016 21020 39815 40137 58006=
07535,1999-11-20 13:00:00,1.6,1013.4,-1.1,72,-2.9,,11.112,,,340,,,,,,,,,,,og-post,,,,AAXX 20134 07535 36/// /3406 10016 21029 39812 40134 56011=
07535,1999-11-20 14:00:00,1,1012.9,-1.2,78,-2.4,,11.112,,,340,,,,,,,,,,,og-post,,,,AAXX 20144 07535 36/// /3406 10010 21024 39807 40129 58012=
07535,1999-11-20 15:00:00,1.4,1012.7,-1,77,-2.2,,11.112,,,330,,,,,,,,,,,og-post,,,,AAXX 20154 07535 36/// /3306 10014 21022 39805 40127 56010=
07535,1999-11-20 16:00:00,0.1,1012.8,-0.7,92,-1,,7.408,,,330,,,,,,,,,,,og-post,,,,AAXX 20164 07535 36/// /3304 10001 21010 39805 40128 56007=
07535,1999-11-20 17:00:00,0,1012.9,-0.1,88,-1.7,,7.408,,,340,,,,,,,,,,,og-post,,,,AAXX 20174 07535 36/// /3404 10000 21017 39806 40129 55001=
07535,1999-11-20 18:00:00,-0.4,1013.2,0.3,93,-1.4,,3.704,,,320,-2,2.4,,,,,,,,,og-post,,,,AAXX 20184 07535 36/// /3202 11004 21014 39808 40132 53003 333 10024 21020=
07535,1999-11-20 19:00:00,-1,1013.1,0.1,94,-1.8,,3.704,,,340,,,,,,,,,,,og-post,,,,AAXX 20194 07535 36/// /3402 11010 21018 39806 40131 50001=
07535,1999-11-20 20:00:00,-1.5,1013.1,0,95,-2.2,,3.704,,,330,,,,,,,,,,,og-post,,,,AAXX 20204 07535 36/// /3302 11015 21022 39806 40131 50000=
07535,1999-11-20 21:00:00,-2.3,1013.2,-0.2,96,-2.8,,3.704,,,330,,,,,,,,,,,og-post,,,,AAXX 20214 07535 36/// /3302 11023 21028 39806 40132 56002=
07535,1999-11-20 22:00:00,-2.6,1013,-0.3,97,-3,,3.704,,,320,,,,,,,,,,,og-post,,,,AAXX 20224 07535 36/// /3202 11026 21030 39803 40130 58003=
07535,1999-11-20 23:00:00,-3.1,1012.8,-0.5,98,-3.4,,3.704,,,330,,,,,,,,,,,og-post,,,,AAXX 20234 07535 36/// /3302 11031 21034 39801 40128 58005=
07535,1999-11-21 00:00:00,-3.6,1012.7,-0.7,98,-3.9,,,,,,,,,,,,,,,,og-post,,,,AAXX 21004 07535 36/// /0000 11036 21039 39799 40127 56007=
07535,1999-11-21 01:00:00,-2.9,1012.2,-0.8,96,-3.4,,3.704,,,330,,,,,,,,,,,og-post,,,,AAXX 21014 07535 36/// /3302 11029 21034 39795 40122 58008=
07535,1999-11-21 02:00:00,-2.4,1012.2,-0.5,95,-3.1,,7.408,,,20,,,,,,,,,,,og-post,,,,AAXX 21024 07535 36/// /0204 11024 21031 39796 40122 55005=
07535,1999-11-21 03:00:00,-2.7,1011.7,-0.8,98,-3,,3.704,,,350,,,,,,,,,,,og-post,,,,AAXX 21034 07535 36/// /3502 11027 21030 39791 40117 58008=
07535,1999-11-21 04:00:00,-2.5,1011.5,-0.6,98,-2.8,,3.704,,,330,,,,,,,,,,,og-post,,,,AAXX 21044 07535 36/// /3302 11025 21028 39789 40115 58006=
07535,1999-11-21 05:00:00,-2.4,1011.6,-0.6,98,-2.7,,3.704,,,350,,,,,,,,,,,og-post,,,,AAXX 21054 07535 36/// /3502 11024 21027 39790 40116 55006=
07535,1999-11-21 06:00:00,-2.2,1011.7,-0,98,-2.5,2000,3.704,,,360,-3.7,-0.4,,,,,0,2.7,-8,70,og-post,,0,,AAXX 21064 07535 /1220 83602 11022 21025 39791 40117 55000 69902 77077 877// 333 11004 21037 3/108 43997 55027 69907 79999 87705=
07535,1999-11-21 07:00:00,-2.2,1011.9,0.4,99,-2.3,900,3.704,,,350,,,,,,,,,,70,og-post,,,,AAXX 21074 07535 21209 83502 11022 21023 39793 40119 53004 77077 877// 333 69905 85705 87630=
07535,1999-11-21 08:00:00,-1.8,1012.2,0.7,99,-1.9,900,3.704,,,350,,,,,,,,,,70,og-post,,,,AAXX 21084 07535 21209 83502 11018 21019 39797 40122 53007 77077 877// 333 69905 85705 87630=
07535,1999-11-21 09:00:00,-1.4,1012.2,0.6,98,-1.7,6000,3.704,,,330,,,,,,,,,,28,og-post,,,,AAXX 21094 07535 21556 73302 11014 21017 39797 40122 51006 72874 83532 333 69907 83630 86075=
07535,1999-11-21 10:00:00,-0.5,1012.5,0.8,87,-2.4,11000,7.408,,,30,,,,,,,,,,,og-post,,,,AAXX 21104 07535 32461 30304 11005 21024 39801 40125 52008 82230 333 82813=
07535,1999-11-21 11:00:00,0.3,1012.3,0.3,88,-1.4,,3.704,,,310,,,,,,,,,,,og-post,,,,AAXX 21114 07535 36/// /3102 10003 21014 39800 40123 50003=
07535,1999-11-21 12:00:00,0.2,1012.3,0.3,77,-3.3,,7.408,,,350,,,,,,,,,,,og-post,,,,AAXX 21124 07535 16/// /3504 10002 21033 39800 40123 51003 69901=
07535,1999-11-21 13:00:00,0.3,1012.4,-0,75,-3.6,,11.112,,,350,,,,,,,,,,,og-post,,,,AAXX 21134 07535 36/// /3506 10003 21036 39801 40124 55000=
07535,1999-11-21 14:00:00,0.2,1012.4,0.1,74,-3.9,,11.112,,,350,,,,,,,,,,,og-post,,,,AAXX 21144 07535 36/// /3506 10002 21039 39801 40124 52001=
07535,1999-11-21 15:00:00,0.2,1012.7,0.4,68,-5,,11.112,,,360,,,,,,,,,,,og-post,,,,AAXX 21154 07535 36/// /3606 10002 21050 39804 40127 53004=
07535,1999-11-21 16:00:00,-0.1,1013.2,0.7,72,-4.5,,7.408,,,340,,,,,,,,,,,og-post,,,,AAXX 21164 07535 36/// /3404 11001 21045 39808 40132 53007=
07535,1999-11-21 17:00:00,-0.5,1013.8,1.3,74,-4.5,,11.112,,,340,,,,,,,,,,,og-post,,,,AAXX 21174 07535 36/// /3406 11005 21045 39814 40138 53013=
07535,1999-11-21 18:00:00,-1.4,1014.5,1.5,78,-4.7,,7.408,,,340,-2.2,0.4,,,,,,,,,og-post,,,,AAXX 21184 07535 16/// /3404 11014 21047 39819 40145 53015 69902 333 10004 21022=
07535,1999-11-21 19:00:00,-0.8,1015,1.7,76,-4.5,,7.408,,,340,,,,,,,,,,,og-post,,,,AAXX 21194 07535 36/// /3404 11008 21045 39825 40150 52017=
07535,1999-11-21 20:00:00,-0.9,1015.5,1.6,75,-4.8,,7.408,,,350,,,,,,,,,,,og-post,,,,AAXX 21204 07535 36/// /3504 11009 21048 39830 40155 52016=
07535,1999-11-21 21:00:00,-0.8,1016.2,1.7,68,-5.9,,11.112,,,10,,,,,,,,,,,og-post,,,,AAXX 21214 07535 36/// /0106 11008 21059 39836 40162 52017=
07535,1999-11-21 22:00:00,-1,1016.7,1.6,73,-5.2,,3.704,,,340,,,,,,,,,,,og-post,,,,AAXX 21224 07535 36/// /3402 11010 21052 39841 40167 52016=
07535,1999-11-21 23:00:00,-1.2,1016.8,1.2,77,-4.7,,3.704,,,10,,,,,,,,,,,og-post,,,,AAXX 21234 07535 36/// /0102 11012 21047 39842 40168 51012=
07535,1999-11-22 00:00:00,-1.3,1017.1,0.9,78,-4.6,,3.704,,,330,,,,,,,,,,,og-post,,,,AAXX 22004 07535 36/// /3302 11013 21046 39845 40171 51009=
07535,1999-11-22 01:00:00,-1.1,1017.4,0.7,68,-6.2,,7.408,,,350,,,,,,,,,,,og-post,,,,AAXX 22014 07535 36/// /3504 11011 21062 39848 40174 53007=
07535,1999-11-22 02:00:00,-1.1,1017.5,0.7,70,-5.9,,3.704,,,350,,,,,,,,,,,og-post,,,,AAXX 22024 07535 36/// /3502 11011 21059 39849 40175 51007=
07535,1999-11-22 03:00:00,-1.4,1017.8,0.6,81,-4.2,,,,,,,,,,,,,,,,og-post,,,,AAXX 22034 07535 36/// /0000 11014 21042 39851 40178 51006=
07535,1999-11-22 04:00:00,-1.4,1018.2,0.7,84,-3.7,,3.704,,,310,,,,,,,,,,,og-post,,,,AAXX 22044 07535 36/// /3102 11014 21037 39855 40182 53007=
07535,1999-11-22 05:00:00,-1.4,1018.5,0.9,84,-3.7,6000,3.704,,,310,,,,,,,,,,,og-post,,,,AAXX 22054 07535 32656 73102 11014 21037 39858 40185 53009 875// 333 87640=
07535,1999-11-22 06:00:00,-1.3,1019.1,1.3,77,-4.8,6000,7.408,,,340,-1.5,-0.6,,,,,0,0.5,-3,,og-post,,,,AAXX 22064 07535 32656 73404 11013 21048 39864 40191 53013 875// 333 11006 21015 34103 55005 79999 87640=
07535,1999-11-22 07:00:00,-1.3,1019.8,1.6,74,-5.3,10000,3.704,,,10,,,,,,,,,,,og-post,,,,AAXX 22074 07535 32660 80102 11013 21053 39871 40198 53016 885// 333 87640=
07535,1999-11-22 08:00:00,-1.3,1020.6,2,78,-4.6,10000,3.704,,,330,,,,,,,,,,,og-post,,,,AAXX 22084 07535 32660 83302 11013 21046 39878 40206 53020 885// 333 87640=
07535,1999-11-22 09:00:00,-1,1021.2,2.1,77,-4.5,10000,3.704,,,330,,,,,,,,,,,og-post,,,,AAXX 22094 07535 32660 83302 11010 21045 39885 40212 52021 885// 333 88640=
07535,1999-11-22 10:00:00,-0.6,1022,2.2,76,-4.3,10000,3.704,,,310,,,,,,,,,,,og-post,,,,AAXX 22104 07535 32560 83102 11006 21043 39893 40220 53022 888// 333 83826 87640=
07535,1999-11-22 11:00:00,-0.2,1022.1,1.6,77,-3.7,14000,7.408,,,310,,,,,,,,,,,og-post,,,,AAXX 22114 07535 32564 83104 11002 21037 39894 40221 51016 888// 333 81826 87640=
07535,1999-11-22 12:00:00,0.2,1022.2,1.1,72,-4.2,12000,11.112,,,310,,,,,,,,,,,og-post,,,,AAXX 22124 07535 32562 83106 10002 21042 39896 40222 51011 888// 333 84826 87640=
07535,1999-11-22 13:00:00,0.4,1022.7,0.8,62,-6,14000,14.816,,,330,,,,,,,,,,,og-post,,,,AAXX 22134 07535 32564 83308 10004 21060 39901 40227 53008 888// 333 84826 87640=
07535,1999-11-22 14:00:00,0.3,1023,1,70,-4.5,15000,11.112,,,320,,,,,,,,,,,og-post,,,,AAXX 22144 07535 32565 83206 10003 21045 39904 40230 53010 888// 333 82826 87640=
07535,1999-11-22 15:00:00,0.8,1023.6,1.4,65,-5,15000,7.408,,,310,,,,,,,,,,,og-post,,,,AAXX 22154 07535 32665 63104 10008 21050 39910 40236 53014 86500 333 86633=
07535,1999-11-22 16:00:00,0,1024.4,1.6,68,-5.2,15000,3.704,,,310,,,,,,,,,,,og-post,,,,AAXX 22164 07535 32665 23102 10000 21052 39917 40244 53016 82500 333 82633=
07535,1999-11-22 17:00:00,-1.5,1025.4,2.1,73,-5.7,,,,,,,,,,,,,,,,og-post,,,,AAXX 22174 07535 36/// /0000 11015 21057 39925 40254 53021=
07535,1999-11-22 18:00:00,-2.7,1026.2,2.1,86,-4.7,,3.704,,,160,-2.7,0.9,,,,,,,,,og-post,,,,AAXX 22184 07535 36/// /1602 11027 21047 39931 40262 51021 333 10009 21027=
07535,1999-11-22 19:00:00,-2.7,1026.8,2,89,-4.3,,7.408,,,160,,,,,,,,,,,og-post,,,,AAXX 22194 07535 36/// /1604 11027 21043 39937 40268 51020=
07535,1999-11-22 20:00:00,-1.9,1027.1,1.6,86,-3.9,,3.704,,,190,,,,,,,,,,,og-post,,,,AAXX 22204 07535 36/// /1902 11019 21039 39941 40271 51016=
07535,1999-11-22 21:00:00,-1.3,1027.5,1.4,87,-3.2,,3.704,,,190,,,,,,,,,,,og-post,,,,AAXX 22214 07535 36/// /1902 11013 21032 39945 40275 51014=
07535,1999-11-22 22:00:00,-0.6,1027.9,1.3,85,-2.8,,3.704,,,190,,,,,,,,,,,og-post,,,,AAXX 22224 07535 36/// /1902 11006 21028 39950 40279 53013=
07535,1999-11-22 23:00:00,-0.2,1028.2,1.2,85,-2.4,,3.704,,,170,,,,,,,,,,,og-post,,,,AAXX 22234 07535 36/// /1702 11002 21024 39953 40282 51012=
07535,1999-11-23 00:00:00,-0.1,1028.2,0.9,91,-1.4,,3.704,,,220,,,,,,,,,,,og-post,,,,AAXX 23004 07535 36/// /2202 11001 21014 39954 40282 51009=
07535,1999-11-23 01:00:00,-0.2,1028.1,0.3,96,-0.8,,3.704,,,160,,,,,,,,,,,og-post,,,,AAXX 23014 07535 36/// /1602 11002 21008 39953 40281 50003=
07535,1999-11-23 02:00:00,0.2,1028.1,0,97,-0.2,,7.408,,,160,,,,,,,,,,,og-post,,,,AAXX 23024 07535 36/// /1604 10002 21002 39953 40281 50000=
07535,1999-11-23 03:00:00,0.3,1028,-0.2,99,0.2,,7.408,,,140,,,,,,,,,,,og-post,,,,AAXX 23034 07535 36/// /1404 10003 20002 39952 40280 57002=
07535,1999-11-23 04:00:00,0.5,1027.6,-0.4,99,0.4,,7.408,,,140,,,,,,,,,,,og-post,,,,AAXX 23044 07535 36/// /1404 10005 20004 39949 40276 58004=
07535,1999-11-23 05:00:00,0.8,1027.6,-0.4,99,0.7,700,7.408,,,150,,,,,,,,,,50,og-post,,,,AAXX 23054 07535 21207 81504 10008 20007 39949 40276 56004 75054 887// 333 69905 88703=
07535,1999-11-23 06:00:00,1.1,1028,0.1,100,1.1,700,3.704,,,150,-3,1.1,,,,,0,1,-6,50,og-post,,,,AAXX 23064 07535 /1207 81502 10011 20011 39953 40280 53001 69902 75054 887// 333 10011 21030 32106 55010 69907 79999 88703=
07535,1999-11-23 07:00:00,1.4,1027.9,0.4,100,1.4,300,7.408,,,180,,,,,,,,,,50,og-post,,,,AAXX 23074 07535 21103 81804 10014 20014 39953 40279 52004 75055 887// 333 69905 88703=
07535,1999-11-23 08:00:00,1.7,1028.2,0.7,100,1.7,1500,3.704,,,170,,,,,,,,,,28,og-post,,,,AAXX 23084 07535 21115 81702 10017 20017 39956 40282 51007 72854 887// 333 69905 88703=
07535,1999-11-23 09:00:00,2.1,1028.3,0.4,100,2.1,200,,,,,,,,,,,,,,50,og-post,,,,AAXX 23094 07535 21102 80000 10021 20021 39957 40283 53004 75054 887// 333 69907 88703=
07535,1999-11-23 10:00:00,2.7,1028.4,0.6,100,2.7,1200,3.704,,,170,,,,,,,,,,28,og-post,,,,AAXX 23104 07535 21112 81702 10027 20027 39959 40284 51006 72854 887// 333 69905 88703=
07535,1999-11-23 11:00:00,3.1,1028.5,0.4,100,3.1,2500,3.704,,,200,,,,,,,,,,10,og-post,,,,AAXX 23114 07535 31125 82002 10031 20031 39960 40285 52004 71022 887// 333 88703=
07535,1999-11-23 12:00:00,3.4,1028.1,0,99,3.3,600,,,,,,,,,,,,,,46,og-post,,,,AAXX 23124 07535 /1106 80000 10034 20033 39957 40281 50000 69901 74654 886// 333 69907 88702=
07535,1999-11-23 13:00:00,4,1027.1,-1.1,99,3.9,200,3.704,,,160,,,,,,,,,,42,og-post,,,,AAXX 23134 07535 31102 81602 10040 20039 39948 40271 58011 74244 886// 333 88702=
07535,1999-11-23 14:00:00,3.9,1027.6,-0.7,99,3.8,200,3.704,,,280,,,,,,,,,,44,og-post,,,,AAXX 23144 07535 31102 82802 10039 20038 39953 40276 55007 74444 886// 333 88702=
07535,1999-11-23 15:00:00,3.7,1027.6,-0.5,99,3.6,100,,,,,,,,,,,,,,46,og-post,,,,AAXX 23154 07535 31101 80000 10037 20036 39952 40276 56005 74644 886// 333 88702=
07535,1999-11-23 16:00:00,3.6,1027.8,0.6,99,3.5,100,3.704,,,20,,,,,,,,,,44,og-post,,,,AAXX 23164 07535 31101 80202 10036 20035 39954 40278 51006 74444 886// 333 88702=
07535,1999-11-23 17:00:00,3.3,1028,0.3,99,3.2,,7.408,,,360,,,,,,,,,,,og-post,,,,AAXX 23174 07535 36/// /3604 10033 20032 39956 40280 53003=
07535,1999-11-23 18:00:00,3,1028.6,0.9,99,2.9,,11.112,,,10,1.1,4.2,,,,,,,,,og-post,,,,AAXX 23184 07535 16/// /0106 10030 20029 39961 40286 53009 69902 333 10042 20011=
07535,1999-11-23 19:00:00,2.9,1028.9,1,100,2.9,,7.408,,,10,,,,,,,,,,,og-post,,,,AAXX 23194 07535 36/// /0104 10029 20029 39964 40289 53010=
07535,1999-11-23 20:00:00,2.8,1028.9,0.8,100,2.8,,7.408,,,40,,,,,,,,,,,og-post,,,,AAXX 23204 07535 36/// /0404 10028 20028 39964 40289 51008=
07535,1999-11-23 21:00:00,2.9,1029.1,0.5,100,2.9,,3.704,,,60,,,,,,,,,,,og-post,,,,AAXX 23214 07535 36/// /0602 10029 20029 39966 40291 51005=
07535,1999-11-23 22:00:00,2.8,1029.1,0.2,99,2.7,,3.704,,,50,,,,,,,,,,,og-post,,,,AAXX 23224 07535 36/// /0502 10028 20027 39966 40291 52002=
07535,1999-11-23 23:00:00,2.7,1029.3,0.4,99,2.6,,7.408,,,50,,,,,,,,,,,og-post,,,,AAXX 23234 07535 36/// /0504 10027 20026 39968 40293 52004=
07535,1999-11-24 00:00:00,2.7,1029.5,0.4,99,2.6,,3.704,,,40,,,,,,,,,,,og-post,,,,AAXX 24004 07535 36/// /0402 10027 20026 39970 40295 53004=
07535,1999-11-24 01:00:00,2.7,1029.4,0.3,99,2.6,,3.704,,,10,,,,,,,,,,,og-post,,,,AAXX 24014 07535 36/// /0102 10027 20026 39969 40294 50003=
07535,1999-11-24 02:00:00,2.7,1029.3,0,99,2.6,,,,,,,,,,,,,,,,og-post,,,,AAXX 24024 07535 36/// /0000 10027 20026 39968 40293 50000=
07535,1999-11-24 03:00:00,2.6,1029.2,-0.3,99,2.5,,3.704,,,360,,,,,,,,,,,og-post,,,,AAXX 24034 07535 36/// /3602 10026 20025 39967 40292 57003=
07535,1999-11-24 04:00:00,2.6,1029.3,-0.1,99,2.5,,3.704,,,310,,,,,,,,,,,og-post,,,,AAXX 24044 07535 36/// /3102 10026 20025 39968 40293 55001=
07535,1999-11-24 05:00:00,2.7,1029.3,-0,100,2.7,,3.704,,,340,,,,,,,,,,,og-post,,,,AAXX 24054 07535 36/// /3402 10027 20027 39968 40293 55000=
07535,1999-11-24 06:00:00,2.8,1029.4,0.2,99,2.7,2000,,,,,2.6,3,,,,,0,,3,10,og-post,,,,AAXX 24064 07535 31220 80000 10028 20027 39969 40294 52002 71022 877// 333 10030 20026 31003 55000 79999 87705=
07535,1999-11-24 07:00:00,2.9,1029.9,0.6,99,2.8,900,3.704,,,340,,,,,,,,,,46,og-post,,,,AAXX 24074 07535 31209 83402 10029 20028 39974 40299 53006 74642 877// 333 87703=
07535,1999-11-24 08:00:00,3.2,1030.5,1.2,100,3.2,900,,,,,,,,,,,,,,44,og-post,,,,AAXX 24084 07535 31209 80000 10032 20032 39980 40305 53012 74444 877// 333 87703=
07535,1999-11-24 09:00:00,3.6,1031,1.6,99,3.5,900,3.704,,,340,,,,,,,,,,44,og-post,,,,AAXX 24094 07535 31209 83402 10036 20035 39985 40310 52016 74442 877// 333 87703=
07535,1999-11-24 10:00:00,4.4,1031.3,1.5,98,4.1,2000,3.704,,,360,,,,,,,,,,28,og-post,,,,AAXX 24104 07535 31220 83602 10044 20041 39989 40313 51015 72842 877// 333 87703=
07535,1999-11-24 11:00:00,4.6,1031.3,0.9,98,4.3,2000,7.408,,,360,,,,,,,,,,10,og-post,,,,AAXX 24114 07535 31220 83604 10046 20043 39989 40313 51009 71022 876// 333 87703=
07535,1999-11-24 12:00:00,4.9,1031.1,0.3,96,4.3,,7.408,,,30,,,,,,,,,,,og-post,,,,AAXX 24124 07535 36/// /0304 10049 20043 39988 40311 50003=
07535,1999-11-24 13:00:00,5.7,1030.6,-0.5,92,4.5,4000,7.408,,,360,,,,,,,,,,10,og-post,,,,AAXX 24134 07535 31440 83604 10057 20045 39984 40306 58005 71022 875// 333 87613=
07535,1999-11-24 14:00:00,6.2,1030.2,-0.8,92,5,4000,7.408,,,320,,,,,,,,,,10,og-post,,,,AAXX 24144 07535 31440 73204 10062 20050 39981 40302 58008 71022 87600 333 87813=
07535,1999-11-24 15:00:00,6.5,1030,-0.9,91,5.1,,3.704,,,300,,,,,,,,,,,og-post,,,,AAXX 24154 07535 36/// /3002 10065 20051 39979 40300 56009=
07535,1999-11-24 16:00:00,6,1030.3,-0.3,91,4.6,7000,3.704,,,320,,,,,,,,,,,og-post,,,,AAXX 24164 07535 32657 23202 10060 20046 39981 40303 55003 82500 333 82640=
07535,1999-11-24 17:00:00,5.1,1030.6,0.2,96,4.5,,7.408,,,310,,,,,,,,,,,og-post,,,,AAXX 24174 07535 36/// /3104 10051 20045 39983 40306 53002=
07535,1999-11-24 18:00:00,4.7,1031,0.8,97,4.3,,7.408,,,350,2.8,6.5,,,,,,,,,og-post,,,,AAXX 24184 07535 36/// /3504 10047 20043 39987 40310 53008 333 10065 20028=
07535,1999-11-24 19:00:00,4.3,1031.4,0.9,98,4,,7.408,,,330,,,,,,,,,,,og-post,,,,AAXX 24194 07535 36/// /3304 10043 20040 39990 40314 53009=
07535,1999-11-24 20:00:00,2.3,1031.9,0.9,97,1.9,,,,,,,,,,,,,,,,og-post,,,,AAXX 24204 07535 36/// /0000 10023 20019 39992 40319 51009=
07535,1999-11-24 21:00:00,3.8,1032,0.8,99,3.7,,3.704,,,340,,,,,,,,,,,og-post,,,,AAXX 24214 07535 36/// /3402 10038 20037 39995 40320 52008=
07535,1999-11-24 22:00:00,1.2,1032.4,0.6,99,1.1,,,,,,,,,,,,,,,,og-post,,,,AAXX 24224 07535 36/// /0000 10012 20011 39996 40324 51006=
07535,1999-11-24 23:00:00,-0.4,1032.8,0.6,99,-0.5,,3.704,,,180,,,,,,,,,,,og-post,,,,AAXX 24234 07535 36/// /1802 11004 21005 39998 40328 51006=
07535,1999-11-25 00:00:00,-0.3,1032.9,0.4,100,-0.3,,3.704,,,140,,,,,,,,,,,og-post,,,,AAXX 25004 07535 36/// /1402 11003 21003 39999 40329 52004=
07535,1999-11-25 01:00:00,-0.3,1032.7,0.1,100,-0.3,,3.704,,,150,,,,,,,,,,,og-post,,,,AAXX 25014 07535 36/// /1502 11003 21003 39997 40327 50001=
07535,1999-11-25 02:00:00,-0.8,1032.8,-0.1,100,-0.8,,7.408,,,150,,,,,,,,,,,og-post,,,,AAXX 25024 07535 36/// /1504 11008 21008 39997 40328 58001=
07535,1999-11-25 03:00:00,-1.4,1032.8,-0.2,100,-1.4,,3.704,,,150,,,,,,,,,,,og-post,,,,AAXX 25034 07535 36/// /1502 11014 21014 39997 40328 56002=
07535,1999-11-25 04:00:00,-1.9,1033.1,0.2,100,-1.9,,,,,,,,,,,,,,,,og-post,,,,AAXX 25044 07535 36/// /0000 11019 21019 39999 40331 53002=
07535,1999-11-25 05:00:00,-2.1,1033.1,0.2,100,-2.1,,,,,,,,,,,,,,,,og-post,,,,AAXX 25054 07535 36/// /0000 11021 21021 39999 40331 52002=
07535,1999-11-25 06:00:00,-2.1,1033.5,0.5,100,-2.1,400,,,,,-2.2,4.8,,,,,,1.6,-5,44,og-post,,,,AAXX 25064 07535 31904 00000 11021 21021 30002 40335 53005 74440 333 10048 21022 31105 55016 70000=
07535,1999-11-25 08:00:00,-2.3,1034.4,1.2,100,-2.3,300,,,,,,,,,,,,,,48,og-post,,,,AAXX 25084 07535 31903 00000 11023 21023 30011 40344 53012 74844=
07535,1999-11-25 09:00:00,-1.3,1034.8,1.4,100,-1.3,400,,,,,,,,,,,,,,42,og-post,,,,AAXX 25094 07535 31904 00000 11013 21013 30016 40348 53014 74244=
07535,1999-11-25 10:00:00,0,1034.6,1,100,0,,,,,,,,,,,,,,,,og-post,,,,AAXX 25104 07535 36/// /0000 10000 20000 30016 40346 51010=
07535,1999-11-25 11:00:00,1.2,1034.4,0.4,100,1.2,,3.704,,,340,,,,,,,,,,,og-post,,,,AAXX 25114 07535 36/// /3402 10012 20012 30015 40344 50004=
07535,1999-11-25 12:00:00,2.3,1033.4,-0.9,100,2.3,,3.704,,,300,,,,,,,,,,,og-post,,,,AAXX 25124 07535 36/// /3002 10023 20023 30007 40334 58009=
07535,1999-11-25 13:00:00,2.6,1033,-1.3,100,2.6,300,3.704,,,350,,,,,,,,,,42,og-post,,,,AAXX 25134 07535 31903 03502 10026 20026 30003 40330 58013 74244=
07535,1999-11-25 14:00:00,4.1,1032.7,-1.3,99,4,6000,3.704,,,340,,,,,,,,,,28,og-post,,,,AAXX 25144 07535 31956 03402 10041 20040 30002 40327 56013 72840=
07535,1999-11-25 15:00:00,5,1032.4,-0.7,93,4,,3.704,,,190,,,,,,,,,,,og-post,,,,AAXX 25154 07535 36/// /1902 10050 20040 30000 40324 56007=
07535,1999-11-25 16:00:00,4.8,1032.5,-0.2,94,3.9,15000,,,,,,,,,,,,,,,og-post,,,,AAXX 25164 07535 32965 00000 10048 20039 30001 40325 55002=
07535,1999-11-25 17:00:00,4.1,1032.9,0.2,94,3.2,,,,,,,,,,,,,,,,og-post,,,,AAXX 25174 07535 36/// /0000 10041 20032 30004 40329 53002=
07535,1999-11-25 18:00:00,1.8,1033.1,0.3,98,1.5,,7.408,,,150,-2.5,5,,,,,,,,,og-post,,,,AAXX 25184 07535 36/// /1504 10018 20015 30003 40331 50003 333 10050 21025=
07535,1999-11-25 19:00:00,1.6,1032.8,-0.1,99,1.5,,3.704,,,140,,,,,,,,,,,og-post,,,,AAXX 25194 07535 36/// /1402 10016 20015 30000 40328 58001=
07535,1999-11-25 20:00:00,1.2,1033,-0.2,99,1.1,,3.704,,,140,,,,,,,,,,,og-post,,,,AAXX 25204 07535 36/// /1402 10012 20011 30002 40330 55002=
07535,1999-11-25 21:00:00,0.5,1032.8,-0.4,99,0.4,,7.408,,,140,,,,,,,,,,,og-post,,,,AAXX 25214 07535 36/// /1404 10005 20004 39999 40328 57004=
07535,1999-11-25 22:00:00,0.8,1032.7,-0.2,100,0.8,,3.704,,,100,,,,,,,,,,,og-post,,,,AAXX 25224 07535 36/// /1002 10008 20008 39998 40327 58002=
07535,1999-11-25 23:00:00,-0.1,1032.1,-1.1,99,-0.2,,7.408,,,130,,,,,,,,,,,og-post,,,,AAXX 25234 07535 36/// /1304 11001 21002 39991 40321 58011=
07535,1999-11-26 00:00:00,-1.5,1032,-1,99,-1.6,,3.704,,,110,,,,,,,,,,,og-post,,,,AAXX 26004 07535 36/// /1102 11015 21016 39989 40320 58010=
07535,1999-11-26 01:00:00,-1.5,1031.7,-1.2,100,-1.5,,7.408,,,130,,,,,,,,,,,og-post,,,,AAXX 26014 07535 36/// /1304 11015 21015 39986 40317 56012=
07535,1999-11-26 02:00:00,0,1031.3,-0.7,89,-1.6,,7.408,,,140,,,,,,,,,,,og-post,,,,AAXX 26024 07535 36/// /1404 10000 21016 39984 40313 57007=
07535,1999-11-26 03:00:00,0,1031,-0.8,91,-1.3,,11.112,,,140,,,,,,,,,,,og-post,,,,AAXX 26034 07535 36/// /1406 10000 21013 39981 40310 57008=
07535,1999-11-26 04:00:00,0.6,1030.6,-0.8,87,-1.3,,7.408,,,130,,,,,,,,,,,og-post,,,,AAXX 26044 07535 36/// /1304 10006 21013 39978 40306 58008=
07535,1999-11-26 05:00:00,0,1030.5,-0.8,87,-1.9,6000,11.112,,,110,,,,,,,,,,,og-post,,,,AAXX 26054 07535 32956 01106 10000 21019 39976 40305 56008=
07535,1999-11-26 06:00:00,-0.6,1030.5,-0.6,92,-1.7,6000,14.816,,,140,-2.3,2.1,,,,,,2.3,-6,,og-post,,,,AAXX 26064 07535 32956 01408 11006 21017 39975 40305 56006 333 10021 21023 31106 55023 70000=
07535,1999-11-26 07:00:00,0.5,1029.9,-0.7,83,-2,15000,14.816,,,140,,,,,,,,,,,og-post,,,,AAXX 26074 07535 32965 01408 10005 21020 39971 40299 58007=
07535,1999-11-26 08:00:00,3.3,1029.5,-0.6,74,-0.9,20000,11.112,,,140,,,,,,,,,,,og-post,,,,AAXX 26084 07535 32970 01406 10033 21009 39970 40295 57006=
07535,1999-11-26 09:00:00,4.2,1029.7,-0.2,76,0.4,20000,,,,,,,,,,,,,,,og-post,,,,AAXX 26094 07535 32970 00000 10042 20004 39973 40297 55002=
07535,1999-11-26 10:00:00,8.2,1029.2,0.2,68,2.7,25000,11.112,,,170,,,,,,,,,,,og-post,,,,AAXX 26104 07535 32975 01706 10082 20027 39973 40292 53002=
07535,1999-11-26 11:00:00,8.7,1029.1,0.3,68,3.1,25000,7.408,,,230,,,,,,,,,,,og-post,,,,AAXX 26114 07535 32975 02304 10087 20031 39973 40291 51003=
07535,1999-11-26 12:00:00,11.4,1028.1,-0.7,58,3.4,25000,11.112,,,160,,,,,,,,,,,og-post,,,,AAXX 26124 07535 32975 01606 10114 20034 39966 40281 58007=
07535,1999-11-26 13:00:00,11.9,1027.5,-1.2,59,4.2,25000,18.52,,,180,,,,,,,,,,,og-post,,,,AAXX 26134 07535 32975 01810 10119 20042 39961 40275 58012=
07535,1999-11-26 14:00:00,11.9,1027.2,-1.5,59,4.2,25000,11.112,,,190,,,,,,,,,,,og-post,,,,AAXX 26144 07535 32975 01906 10119 20042 39958 40272 56015=
07535,1999-11-26 15:00:00,11.2,1027.3,-0.8,62,4.2,25000,7.408,,,230,,,,,,,,,,,og-post,,,,AAXX 26154 07535 32975 02304 10112 20042 39958 40273 56008=
07535,1999-11-26 16:00:00,9.8,1027.8,-0,69,4.4,25000,11.112,,,200,,,,,,,,,,,og-post,,,,AAXX 26164 07535 32975 02006 10098 20044 39961 40278 55000=
07535,1999-11-26 17:00:00,7.6,1028.2,0.5,78,4,,11.112,,,160,,,,,,,,,,,og-post,,,,AAXX 26174 07535 36/// /1606 10076 20040 39963 40282 53005=
07535,1999-11-26 18:00:00,7,1028.7,0.9,93,6,,11.112,,,180,-0.6,12.8,,,,,,,,,og-post,,,,AAXX 26184 07535 36/// /1806 10070 2006 39967 40287 53009 333 10128 21006=
07535,1999-11-26 19:00:00,6.8,1028.9,0.8,79,3.4,,14.816,,,160,,,,,,,,,,,og-post,,,,AAXX 26194 07535 36/// /1608 10068 20034 39969 40289 52008=
07535,1999-11-26 20:00:00,7.5,1029.2,0.9,74,3.2,,11.112,,,180,,,,,,,,,,,og-post,,,,AAXX 26204 07535 36/// /1806 10075 20032 39972 40292 51009=
07535,1999-11-26 21:00:00,7.2,1029.5,0.8,72,2.5,,11.112,,,180,,,,,,,,,,,og-post,,,,AAXX 26214 07535 36/// /1806 10072 20025 39975 40295 53008=
07535,1999-11-26 22:00:00,6.4,1029.6,0.6,77,2.7,,11.112,,,160,,,,,,,,,,,og-post,,,,AAXX 26224 07535 36/// /1606 10064 20027 39975 40296 51006=
07535,1999-11-26 23:00:00,5.8,1029.9,0.5,82,3,,3.704,,,140,,,,,,,,,,,og-post,,,,AAXX 26234 07535 36/// /1402 10058 20030 39977 40299 51005=
07535,1999-11-27 00:00:00,4.4,1030.1,0.2,90,2.9,,,,,,,,,,,,,,,,og-post,,,,AAXX 27004 07535 36/// /0000 10044 20029 39977 40301 52002=
07535,1999-11-27 01:00:00,2.8,1030,0,94,1.9,,7.408,,,140,,,,,,,,,,,og-post,,,,AAXX 27014 07535 36/// /1404 10028 20019 39975 40300 50000=
07535,1999-11-27 02:00:00,3.7,1030.1,-0,94,2.8,,3.704,,,210,,,,,,,,,,,og-post,,,,AAXX 27024 07535 36/// /2102 10037 20028 39977 40301 55000=
07535,1999-11-27 03:00:00,2.5,1030.3,-0,95,1.8,,7.408,,,140,,,,,,,,,,,og-post,,,,AAXX 27034 07535 36/// /1404 10025 20018 39977 40303 55000=
07535,1999-11-27 04:00:00,3.9,1029.9,0,93,2.9,,7.408,,,140,,,,,,,,,,,og-post,,,,AAXX 27044 07535 36/// /1404 10039 20029 39975 40299 50000=
07535,1999-11-27 05:00:00,3.7,1029.8,-0.3,95,3,10000,7.408,,,140,,,,,,,,,,,og-post,,,,AAXX 27054 07535 32960 01404 10037 20030 39974 40298 58003=
07535,1999-11-27 06:00:00,2,1030.7,0.3,97,1.6,5000,3.704,,,130,1.6,7.7,,,,,0,8.2,-4,,og-post,,,,AAXX 27064 07535 32950 11302 10020 20016 39980 40307 53003 81030 333 10077 20016 31104 55082 70000 81361=
07535,1999-11-27 07:00:00,1.1,1031.3,1,98,0.8,5000,3.704,,,60,,,,,,,,,,,og-post,,,,AAXX 27074 07535 32950 10602 10011 20008 39985 40313 53010 81030 333 81361=
07535,1999-11-27 08:00:00,1.6,1031.6,1.5,99,1.5,7000,3.704,,,110,,,,,,,,,,,og-post,,,,AAXX 27084 07535 32957 11102 10016 20015 39989 40316 51015 81030 333 81361=
07535,1999-11-27 09:00:00,5.5,1031.6,1.3,88,3.7,10000,3.704,,,90,,,,,,,,,,,og-post,,,,AAXX 27094 07535 32960 10902 10055 20037 39993 40316 51013 81030 333 81361=
07535,1999-11-27 10:00:00,9.6,1031.2,0.9,76,5.6,10000,7.408,,,150,,,,,,,,,,,og-post,,,,AAXX 27104 07535 32960 11504 10096 20056 39994 40312 51009 81030 333 81361=
07535,1999-11-27 11:00:00,11.5,1031,0.5,67,5.6,18000,7.408,,,210,,,,,,,,,,,og-post,,,,AAXX 27114 07535 32968 12104 10115 20056 39994 40310 51005 81030 333 81361=
07535,1999-11-27 12:00:00,13.4,1030.4,-0.3,57,5.1,,7.408,,,220,,,,,,,,,,,og-post,,,,AAXX 27124 07535 36/// /2204 10134 20051 39990 40304 58003=
07535,1999-11-27 13:00:00,12.7,1029.8,-1,55,3.9,,11.112,,,180,,,,,,,,,,,og-post,,,,AAXX 27134 07535 36/// /1806 10127 20039 39984 40298 58010=
07535,1999-11-27 15:00:00,11.7,1029.7,-0.8,60,4.2,,3.704,,,220,,,,,,,,,,,og-post,,,,AAXX 27154 07535 36/// /2202 10117 20042 39982 40297 55008=
07535,1999-11-27 18:00:00,5.6,1030.6,0.2,84,3.1,,7.408,,,140,0.5,14,,,,,,,,,og-post,,,,AAXX 27184 07535 36/// /1404 10056 20031 39984 40306 53002 333 10140 20005=
07535,1999-11-27 21:00:00,5.6,1030.4,-0.2,88,3.8,,14.816,,,130,,,,,,,,,,,og-post,,,,AAXX 27214 07535 36/// /1308 10056 20038 39982 40304 58002=
07535,1999-11-28 00:00:00,6.2,1029.4,-0.9,84,3.7,,22.224,,,140,,,,,,,,,,,og-post,,,,AAXX 28004 07535 36/// /1412 10062 20037 39973 40294 58009=
07535,1999-11-28 03:00:00,5.1,1028.2,-1.3,87,3.1,,14.816,,,140,,,,,,,,,,,og-post,,,,AAXX 28034 07535 36/// /1408 10051 20031 39960 40282 56013=
07535,1999-11-28 06:00:00,5.3,1027.4,-0.8,85,3,6000,14.816,,,140,3.7,7,,,,,,7.8,0,,og-post,,,,AAXX 28064 07535 32956 01408 10053 20030 39952 40274 56008 333 10070 20037 30000 55078 70000=
07535,1999-11-28 09:00:00,9.3,1026.2,-0.7,73,4.7,18000,11.112,,,140,,,,,,,,,,,og-post,,,,AAXX 28094 07535 32968 61406 10093 20047 39945 40262 58007 80002 333 86075=
07535,1999-11-28 12:00:00,13.2,1024.6,-1.1,58,5.1,,31.484,,,150,,,,,,,,,,,og-post,,,,AAXX 28124 07535 36/// /1517 10132 20051 39934 40246 58011=
07535,1999-11-28 15:00:00,12.6,1023.5,-1.1,59,4.8,,31.484,61.116,53.708,150,,,,,,,,,,,og-post,,,,AAXX 28154 07535 36/// /1517 10126 20048 39923 40235 56011 333 91029 91133=
07535,1999-11-28 18:00:00,10.2,1024,0.2,69,4.8,,22.224,61.116,,150,5.1,13.7,,,,,,,,,og-post,,,,AAXX 28184 07535 36/// /1512 10102 20048 39925 40240 50002 333 10137 20051 91133=
07535,1999-11-28 21:00:00,9.8,1023.8,-0.2,68,4.2,,14.816,,,160,,,,,,,,,,,og-post,,,,AAXX 28214 07535 36/// /1608 10098 20042 39923 40238 55002=
07535,1999-11-29 00:00:00,9.6,1023.5,-0.4,71,4.6,,14.816,,,150,,,,,,,,,,,og-post,,,,AAXX 29004 07535 36/// /1508 10096 20046 39919 40235 58004=
07535,1999-11-29 03:00:00,8.9,1023.2,-0.3,73,4.3,,11.112,,,140,,,,,,,,,,,og-post,,,,AAXX 29034 07535 36/// /1406 10089 20043 39916 40232 58003=
07535,1999-11-29 06:00:00,7.6,1023.7,0.3,74,3.3,15000,11.112,,,130,7.4,10.3,,,,,0,7.5,4,,og-post,,,,AAXX 29064 07535 32965 41306 10076 20033 39919 40237 51003 80001 333 10103 20074 30004 55075 70000 84075=
07535,1999-11-29 09:00:00,8.2,1025.2,1.5,71,3.3,20000,11.112,,,140,,,,,,,,,,,og-post,,,,AAXX 29094 07535 32970 51406 10082 20033 39934 40252 51015 80002 333 85075=
07535,1999-11-29 12:00:00,13.1,1024.8,0.2,54,4,20000,18.52,,,160,,,,,,,,,,,og-post,,,,AAXX 29124 07535 32970 61610 10131 20040 39936 40248 50002 80002 333 86075=
07535,1999-11-29 14:00:00,13.4,1024.8,-0.1,49,2.9,20000,22.224,,,160,,,,,,,,,,,og-post,,,,AAXX 29144 07535 32970 61612 10134 20029 39936 40248 58001 80002 333 86075=
07535,1999-11-29 15:00:00,12.7,1025.2,0.3,52,3.1,20000,18.52,,,150,,,,,,,,,,,og-post,,,,AAXX 29154 07535 32970 61510 10127 20031 39939 40252 53003 80002 333 86075=
07535,1999-11-29 16:00:00,11.4,1025.9,0.7,60,3.9,20000,18.52,,,160,,,,,,,,,,,og-post,,,,AAXX 29164 07535 32970 61610 10114 20039 39945 40259 53007 80002 333 86075=
07535,1999-11-29 17:00:00,9.5,1027,1.7,67,3.7,,7.408,,,130,,,,,,,,,,,og-post,,,,AAXX 29174 07535 36/// /1304 10095 20037 39953 40270 53017=
07535,1999-11-29 18:00:00,8.2,1027.8,2,72,3.5,,11.112,,,120,6.6,13.7,,,,,,,,,og-post,,,,AAXX 29184 07535 36/// /1206 10082 20035 39959 40278 52020 333 10137 20066=
07535,1999-11-29 19:00:00,8.5,1028.1,1.8,73,3.9,,14.816,,,130,,,,,,,,,,,og-post,,,,AAXX 29194 07535 36/// /1308 10085 20039 39963 40281 51018=
07535,1999-11-29 20:00:00,8,1028.5,1.3,75,3.8,,14.816,,,140,,,,,,,,,,,og-post,,,,AAXX 29204 07535 36/// /1408 10080 20038 39966 40285 51013=
07535,1999-11-29 21:00:00,7.7,1029,1.2,75,3.6,,14.816,,,130,,,,,,,,,,,og-post,,,,AAXX 29214 07535 36/// /1308 10077 20036 39971 40290 53012=
07535,1999-11-29 22:00:00,7.1,1029.4,1.1,78,3.5,,14.816,,,130,,,,,,,,,,,og-post,,,,AAXX 29224 07535 36/// /1308 10071 20035 39974 40294 52011=
07535,1999-11-29 23:00:00,7.1,1029.9,1.3,79,3.7,,11.112,,,120,,,,,,,,,,,og-post,,,,AAXX 29234 07535 36/// /1206 10071 20037 39979 40299 52013=
07535,1999-11-30 00:00:00,6.9,1029.7,0.5,80,3.7,,11.112,,,120,,,,,,,,,,,og-post,,,,AAXX 30004 07535 36/// /1206 10069 20037 39976 40297 50005=
07535,1999-11-30 01:00:00,6.4,1029.7,0.2,82,3.6,,7.408,,,120,,,,,,,,,,,og-post,,,,AAXX 30014 07535 36/// /1204 10064 20036 39976 40297 51002=
07535,1999-11-30 02:00:00,6,1029.7,-0.4,83,3.3,,11.112,,,120,,,,,,,,,,,og-post,,,,AAXX 30024 07535 36/// /1206 10060 20033 39975 40297 56004=
07535,1999-11-30 03:00:00,6,1029.4,-0.4,81,3,,14.816,,,130,,,,,,,,,,,og-post,,,,AAXX 30034 07535 36/// /1308 10060 20030 39972 40294 58004=
07535,1999-11-30 04:00:00,5.2,1029.9,-0,84,2.7,,3.704,,,100,,,,,,,,,,,og-post,,,,AAXX 30044 07535 36/// /1002 10052 20027 39976 40299 55000=
07535,1999-11-30 06:00:00,3.1,1030.7,1,93,2.1,,3.704,,,80,3,8.5,,,,,,7,-3,,og-post,,,,AAXX 30064 07535 36/// /0802 10031 20021 39982 40307 52010 333 10085 20030 3/103 55070 70000=
07535,1999-11-30 07:00:00,1.3,1031.5,1.1,88,-0.5,15000,7.408,,,90,,,,,,,,,,,og-post,,,,AAXX 30074 07535 32965 20904 10013 21005 39987 40315 53011 80001 333 82075=
07535,1999-11-30 08:00:00,1.4,1031.7,1.1,95,0.7,,3.704,,,330,,,,,,,,,,,og-post,,,,AAXX 30084 07535 36/// /3302 10014 20007 39989 40317 51011=
07535,1999-11-30 09:00:00,5.5,1031.2,0.7,78,2,25000,3.704,,,170,,,,,,,,,,,og-post,,,,AAXX 30094 07535 32975 11702 10055 20020 39989 40312 51007 80001 333 81075=
07535,1999-11-30 10:00:00,6.8,1031.4,0.6,74,2.5,25000,3.704,,,320,,,,,,,,,,,og-post,,,,AAXX 30104 07535 32975 13202 10068 20025 39993 40314 53006 80001 333 81075=
07535,1999-11-30 11:00:00,8.2,1031.3,0.4,66,2.2,25000,3.704,,,20,,,,,,,,,,,og-post,,,,AAXX 30114 07535 32975 10202 10082 20022 39993 40313 52004 80001 333 81075=
07535,1999-11-30 12:00:00,10.2,1030.7,0.1,62,3.3,,7.408,,,340,,,,,,,,,,,og-post,,,,AAXX 30124 07535 36/// /3404 10102 20033 39990 40307 50001=
07535,1999-11-30 15:00:00,11.8,1029.3,-1.2,46,0.6,25000,3.704,,,330,,,,,,,,,,,og-post,,,,AAXX 30154 07535 32975 13302 10118 20006 39978 40293 56012 80001 333 81075=
07535,1999-11-30 16:00:00,11,1029.4,-0.8,47,0.1,25000,3.704,,,360,,,,,,,,,,,og-post,,,,AAXX 30164 07535 32975 13602 10110 20001 39978 40294 56008 80001 333 81075=
07535,1999-11-30 17:00:00,8.4,1030.1,0.2,58,0.6,,3.704,,,10,,,,,,,,,,,og-post,,,,AAXX 30174 07535 36/// /0102 10084 20006 39982 40301 53002=
07535,1999-11-30 18:00:00,6.1,1030.7,0.7,68,0.6,,7.408,,,140,0,12.6,,,,,,,,,og-post,,,,AAXX 30184 07535 36/// /1404 10061 20006 39985 40307 53007 333 10126 20000=
07535,1999-11-30 20:00:00,3.3,1031.6,0.9,78,-0.2,,7.408,,,140,,,,,,,,,,,og-post,,,,AAXX 30204 07535 36/// /1404 10033 21002 39991 40316 52009=
07535,1999-11-30 21:00:00,2.4,1031.9,0.7,85,0.1,,11.112,,,140,,,,,,,,,,,og-post,,,,AAXX 30214 07535 36/// /1406 10024 20001 39992 40319 51007=
07535,1999-11-30 22:00:00,2.1,1031.7,0.2,87,0.2,,,,,,,,,,,,,,,,og-post,,,,AAXX 30224 07535 36/// /0000 10021 20002 39990 40317 50002=
07535,1999-11-30 23:00:00,1.3,1031.8,-0.1,89,-0.3,,3.704,,,150,,,,,,,,,,,og-post,,,,AAXX 30234 07535 36/// /1502 10013 21003 39990 40318 58001=
07535,1999-12-01 00:00:00,0.9,1031.8,-0.2,91,-0.4,,7.408,,,140,,,,,,,,,,,og-post,,,,AAXX 01004 07535 36/// /1404 10009 21004 39990 40318 56002=
07535,1999-12-01 01:00:00,2,1031.8,0.1,90,0.5,,3.704,,,60,,,,,,,,,,,og-post,,,,AAXX 01014 07535 36/// /0602 10020 20005 39991 40318 53001=
07535,1999-12-01 02:00:00,0.4,1032.2,0.3,92,-0.7,,3.704,,,60,,,,,,,,,,,og-post,,,,AAXX 01024 07535 36/// /0602 10004 21007 39993 40322 53003=
07535,1999-12-01 03:00:00,0.2,1031.7,-0.2,98,-0.1,,3.704,,,150,,,,,,,,,,,og-post,,,,AAXX 01034 07535 36/// /1502 10002 21001 39988 40317 58002=
07535,1999-12-01 04:00:00,-0.6,1031.5,-0.6,94,-1.4,,3.704,,,110,,,,,,,,,,,og-post,,,,AAXX 01044 07535 36/// /1102 11006 21014 39985 40315 58006=
07535,1999-12-01 05:00:00,0.5,1031.4,-0.8,96,-0.1,6000,,,,,,,,,,,,,,,og-post,,,,AAXX 01054 07535 32956 60000 10005 21001 39985 40314 56008 86030 333 86361=
07535,1999-12-01 06:00:00,0.4,1031.8,0.1,95,-0.3,4000,3.704,,,70,-1,6.1,,,,,0,7.9,-5,10,og-post,,,,AAXX 01064 07535 31740 60702 10004 21003 39989 40318 53001 71022 86530 333 10061 21010 30105 55079 70000 83650 86361=
07535,1999-12-01 07:00:00,0.1,1032.1,0.7,95,-0.6,6000,3.704,,,130,,,,,,,,,,,og-post,,,,AAXX 01074 07535 32756 41302 10001 21006 39992 40321 53007 81530 333 81650 84361=
07535,1999-12-01 08:00:00,-0.4,1032.8,1.3,98,-0.7,10000,3.704,,,150,,,,,,,,,,,og-post,,,,AAXX 01084 07535 32760 41502 11004 21007 39998 40328 53013 81502 333 81650 83075=
07535,1999-12-01 09:00:00,3.2,1032.8,1.3,83,0.6,10000,3.704,,,170,,,,,,,,,,,og-post,,,,AAXX 01094 07535 32960 41702 10032 20006 30002 40328 53013 80002 333 84075=
07535,1999-12-01 10:00:00,5.3,1032.7,1.2,77,1.6,12000,,,,,,,,,,,,,,,og-post,,,,AAXX 01104 07535 32962 50000 10053 20016 30004 40327 51012 80002 333 85075=
07535,1999-12-01 11:00:00,6,1032.4,0.3,75,1.9,13000,3.704,,,330,,,,,,,,,,,og-post,,,,AAXX 01114 07535 32963 63302 10060 20019 30001 40324 50003 80002 333 86075=
07535,1999-12-01 12:00:00,7,1031.6,-0.7,66,1.1,16000,3.704,,,10,,,,,,,,,,,og-post,,,,AAXX 01124 07535 32966 50102 10070 20011 39995 40316 58007 80002 333 85075=
07535,1999-12-01 13:00:00,8.7,1030.9,-1.4,65,2.5,16000,3.704,,,350,,,,,,,,,,,og-post,,,,AAXX 01134 07535 32966 33502 10087 20025 39990 40309 58014 80002 333 83075=
07535,1999-12-01 15:00:00,9.2,1030.1,-1.2,70,4,16000,7.408,,,330,,,,,,,,,,,og-post,,,,AAXX 01154 07535 32966 33304 10092 20040 39983 40301 56012 81032 333 81361=
07535,1999-12-01 16:00:00,7.7,1030.6,-0.4,75,3.6,16000,7.408,,,320,,,,,,,,,,,og-post,,,,AAXX 01164 07535 32966 13204 10077 20036 39986 40306 55004 81030 333 81361=
07535,1999-12-01 17:00:00,6.1,1030.7,-0.1,83,3.4,,3.704,,,310,,,,,,,,,,,og-post,,,,AAXX 01174 07535 36/// /3102 10061 20034 39985 40307 56001=
07535,1999-12-01 18:00:00,3.6,1031.4,0.6,91,2.3,,3.704,,,170,-0.4,9.5,,,,,,,,,og-post,,,,AAXX 01184 07535 36/// /1702 10036 20023 39989 40314 53006 333 10095 21004=
07535,1999-12-01 19:00:00,3.1,1031.9,0.7,97,2.7,,,,,,,,,,,,,,,,og-post,,,,AAXX 01194 07535 36/// /0000 10031 20027 39993 40319 53007=
07535,1999-12-01 20:00:00,1.6,1032,0.7,95,0.9,,,,,,,,,,,,,,,,og-post,,,,AAXX 01204 07535 36/// /0000 10016 20009 39992 40320 50007=
07535,1999-12-01 21:00:00,1.7,1032,0.4,98,1.4,,,,,,,,,,,,,,,,og-post,,,,AAXX 01214 07535 36/// /0000 10017 20014 39993 40320 51004=
07535,1999-12-01 22:00:00,0.4,1032.1,-0.1,98,0.1,,7.408,,,150,,,,,,,,,,,og-post,,,,AAXX 01224 07535 36/// /1504 10004 20001 39992 40321 57001=
07535,1999-12-01 23:00:00,1.5,1032,0,99,1.4,,3.704,,,190,,,,,,,,,,,og-post,,,,AAXX 01234 07535 36/// /1902 10015 20014 39992 40320 50000=
07535,1999-12-02 00:00:00,2.5,1031.6,-0.3,99,2.4,,3.704,,,170,,,,,,,,,,,og-post,,,,AAXX 02004 07535 36/// /1702 10025 20024 39990 40316 58003=
07535,1999-12-02 01:00:00,4.2,1031.5,-0.1,99,4.1,,3.704,,,290,,,,,,,,,,,og-post,,,,AAXX 02014 07535 36/// /2902 10042 20041 39991 40315 55001=
07535,1999-12-02 02:00:00,3.8,1031.7,-0,96,3.2,,3.704,,,150,,,,,,,,,,,og-post,,,,AAXX 02024 07535 36/// /1502 10038 20032 39992 40317 55000=
07535,1999-12-02 03:00:00,4.3,1031.6,0.2,96,3.7,,3.704,,,160,,,,,,,,,,,og-post,,,,AAXX 02034 07535 36/// /1602 10043 20037 39992 40316 51002=
07535,1999-12-02 06:00:00,4.8,1031.9,0.3,96,4.2,5000,3.704,,,190,0.4,4.9,,,,,0,6.6,-3,,og-post,,,,AAXX 02064 07535 32450 81902 10048 20042 39995 40319 53003 875// 333 10049 20004 30103 55066 70000 87616=
07535,1999-12-02 09:00:00,5.6,1033.8,2,94,4.7,,3.704,,,330,,,,,,,,,,,og-post,,,,AAXX 02094 07535 36/// /3302 10056 20047 30015 40338 53020=
07535,1999-12-02 12:00:00,9.9,1032.5,-0.8,78,6.2,,3.704,,,340,,,,,,,,,,,og-post,,,,AAXX 02124 07535 36/// /3402 10099 20062 30007 40325 57008=
07535,1999-12-02 13:00:00,9.6,1032,-1.2,81,6.5,10000,7.408,,,360,,,,,,,,,,,og-post,,,,AAXX 02134 07535 32460 73604 10096 20065 30002 40320 56012 878// 333 85816 87640=
07535,1999-12-02 14:00:00,9.5,1031.5,-1.1,82,6.6,10000,3.704,,,340,,,,,,,,,,,og-post,,,,AAXX 02144 07535 32460 83402 10095 20066 39997 40315 58011 878// 333 85816 87630=
07535,1999-12-02 15:00:00,8.9,1031.6,-1,87,6.9,8000,7.408,,,360,,,,,,,,,,,og-post,,,,AAXX 02154 07535 32458 83604 10089 20069 39997 40316 56010 878// 333 85816 87623=
07535,1999-12-02 16:00:00,8.5,1031.9,-0.2,90,7,7000,,,,,,,,,,,,,,,og-post,,,,AAXX 02164 07535 32457 80000 10085 20070 30000 40319 55002 878// 333 81816 87623=
07535,1999-12-02 17:00:00,8.3,1032,0.4,90,6.8,,3.704,,,10,,,,,,,,,,,og-post,,,,AAXX 02174 07535 36/// /0102 10083 20068 30001 40320 53004=
07535,1999-12-02 18:00:00,8,1032.2,0.5,92,6.8,,3.704,,,150,4.5,10.4,,,,,,,,,og-post,,,,AAXX 02184 07535 36/// /1502 10080 20068 30002 40322 51005 333 10104 20045=
07535,1999-12-02 19:00:00,7.6,1032,0,94,6.7,,3.704,,,150,,,,,,,,,,,og-post,,,,AAXX 02194 07535 36/// /1502 10076 20067 30000 40320 50000=
07535,1999-12-02 20:00:00,7.1,1031.8,-0.4,96,6.5,,,,,,,,,,,,,,,,og-post,,,,AAXX 02204 07535 36/// /0000 10071 20065 39997 40318 58004=
07535,1999-12-02 21:00:00,6.2,1031.7,-0.7,97,5.8,,3.704,,,160,,,,,,,,,,,og-post,,,,AAXX 02214 07535 36/// /1602 10062 20058 39995 40317 57007=
07535,1999-12-02 22:00:00,5.4,1031.4,-0.9,98,5.1,,3.704,,,160,,,,,,,,,,,og-post,,,,AAXX 02224 07535 36/// /1602 10054 20051 39991 40314 58009=
07535,1999-12-02 23:00:00,4.1,1031,-1.1,98,3.8,,3.704,,,140,,,,,,,,,,,og-post,,,,AAXX 02234 07535 36/// /1402 10041 20038 39986 40310 58011=
07535,1999-12-03 00:00:00,4.4,1030.3,-1.6,99,4.3,,3.704,,,130,,,,,,,,,,,og-post,,,,AAXX 03004 07535 36/// /1302 10044 20043 39979 40303 58016=
07535,1999-12-03 01:00:00,3.8,1029.6,-1.9,99,3.7,,3.704,,,110,,,,,,,,,,,og-post,,,,AAXX 03014 07535 36/// /1102 10038 20037 39972 40296 58019=
07535,1999-12-03 02:00:00,2.6,1029,-2.1,99,2.5,,7.408,,,130,,,,,,,,,,,og-post,,,,AAXX 03024 07535 36/// /1304 10026 20025 39965 40290 57021=
07535,1999-12-03 03:00:00,4,1028.5,-1.7,100,4,,7.408,,,40,,,,,,,,,,,og-post,,,,AAXX 03034 07535 36/// /0404 10040 20040 39962 40285 56017=
07535,1999-12-03 04:00:00,5,1027.8,-1.6,100,5,,14.816,,,70,,,,,,,,,,,og-post,,,,AAXX 03044 07535 36/// /0708 10050 20050 39956 40278 56016=
07535,1999-12-03 05:00:00,3.8,1027.2,-1.6,100,3.8,2000,7.408,,,50,,,,,,,,,,10,og-post,,,,AAXX 03054 07535 31220 40504 10038 20038 39949 40272 58016 71000 83602 333 83703 83073=
07535,1999-12-03 06:00:00,2.8,1026.5,-2.1,100,2.8,3000,7.408,,,60,2.5,8,,,,,0,0.7,-2,10,og-post,,,,AAXX 03064 07535 31230 30604 10028 20028 39941 40265 58021 71000 82602 333 10080 20025 30102 55007 70000 82703=
07535,1999-12-03 07:00:00,1.4,1026.5,-1.7,99,1.3,3000,3.704,,,130,,,,,,,,,,10,og-post,,,,AAXX 03074 07535 31230 31302 10014 20013 39939 40265 56017 71000 82602 333 82703=
07535,1999-12-03 08:00:00,0.7,1026.5,-1.1,99,0.6,4000,7.408,,,150,,,,,,,,,,10,og-post,,,,AAXX 03084 07535 31240 41504 10007 20006 39938 40265 56011 71000 82602 333 82703 84073=
07535,1999-12-03 09:00:00,2.9,1026.5,-0,99,2.8,4000,,,,,,,,,,,,,,10,og-post,,,,AAXX 03094 07535 31240 60000 10029 20028 39941 40265 55000 71011 82602 333 82703 86073=
07535,1999-12-03 10:00:00,3.1,1026.6,0.3,98,2.8,100,7.408,,,210,,,,,,,,,,47,og-post,,,,AAXX 03104 07535 31/01 92104 10031 20028 39942 40266 53003 74742=
07535,1999-12-03 11:00:00,3.4,1026.4,0.2,98,3.1,3000,3.704,,,230,,,,,,,,,,28,og-post,,,,AAXX 03114 07535 31230 82302 10034 20031 39940 40264 50002 72842 88600 333 88704=
07535,1999-12-03 12:00:00,3.5,1026,-0.4,95,2.8,3000,7.408,,,200,,,,,,,,,,10,og-post,,,,AAXX 03124 07535 31230 82004 10035 20028 39937 40260 58004 71041 886// 333 88705=
07535,1999-12-03 13:00:00,3.9,1025.5,-1,95,3.2,4000,3.704,,,230,,,,,,,,,,10,og-post,,,,AAXX 03134 07535 31240 82302 10039 20032 39932 40255 58010 71022 886// 333 88705=
07535,1999-12-03 14:00:00,3.8,1025,-1.3,96,3.2,,11.112,,,190,,,,,,,,,,,og-post,,,,AAXX 03144 07535 36/// /1906 10038 20032 39927 40250 58013=
07535,1999-12-03 15:00:00,4,1025.1,-0.8,94,3.1,4000,7.408,,,170,,,,,,,,,,10,og-post,,,,AAXX 03154 07535 31340 81704 10040 20031 39929 40251 55008 71022 886// 333 88708=
07535,1999-12-03 16:00:00,3.9,1025.1,-0.4,96,3.3,5000,7.408,,,180,,,,,,,,,,,og-post,,,,AAXX 03164 07535 32350 81804 10039 20033 39928 40251 56004 886// 333 88708=
07535,1999-12-03 17:00:00,3.7,1025.1,0.1,97,3.3,,3.704,,,200,,,,,,,,,,,og-post,,,,AAXX 03174 07535 36/// /2002 10037 20033 39928 40251 51001=
07535,1999-12-03 18:00:00,3.5,1025.5,0.3,98,3.2,,7.408,,,210,0.5,4.2,,,,,,,,,og-post,,,,AAXX 03184 07535 36/// /2104 10035 20032 39932 40255 53003 333 10042 20005=
07535,1999-12-03 20:00:00,3.3,1025.8,0.7,99,3.2,,,,,,,,,,,,,,,,og-post,,,,AAXX 03204 07535 36/// /0000 10033 20032 39935 40258 51007=
07535,1999-12-03 21:00:00,3.3,1026.1,0.5,99,3.2,,,,,,,,,,,,,,,,og-post,,,,AAXX 03214 07535 36/// /0000 10033 20032 39937 40261 52005=
07535,1999-12-03 22:00:00,3.4,1026.4,0.6,99,3.3,,3.704,,,30,,,,,,,,,,,og-post,,,,AAXX 03224 07535 36/// /0302 10034 20033 39940 40264 53006=
07535,1999-12-03 23:00:00,3.3,1025.9,0.1,99,3.2,,3.704,,,150,,,,,,,,,,,og-post,,,,AAXX 03234 07535 36/// /1502 10033 20032 39936 40259 50001=
07535,1999-12-04 00:00:00,3.3,1025.2,-0.8,100,3.3,,3.704,,,120,,,,,,,,,,,og-post,,,,AAXX 04004 07535 36/// /1202 10033 20033 39929 40252 58008=
07535,1999-12-04 01:00:00,3.2,1024.6,-1.7,100,3.2,,3.704,,,130,,,,,,,,,,,og-post,,,,AAXX 04014 07535 36/// /1302 10032 20032 39923 40246 58017=
07535,1999-12-04 02:00:00,3.2,1024.7,-1.2,100,3.2,,,,,,,,,,,,,,,,og-post,,,,AAXX 04024 07535 36/// /0000 10032 20032 39924 40247 55012=
07535,1999-12-04 03:00:00,3.5,1024.1,-1.1,100,3.5,,7.408,,,160,,,,,,,,,,,og-post,,,,AAXX 04034 07535 36/// /1604 10035 20035 39918 40241 57011=
07535,1999-12-04 04:00:00,4,1023,-1.5,100,4,,7.408,,,150,,,,,,,,,,,og-post,,,,AAXX 04044 07535 36/// /1504 10040 20040 39908 40230 58015=
07535,1999-12-04 05:00:00,4.5,1022.2,-2.3,100,4.5,3000,11.112,,,160,,,,,,,,,,10,og-post,,,,AAXX 04054 07535 31230 81606 10045 20045 39901 40222 58023 71022 885// 333 84703 86626=
07535,1999-12-04 06:00:00,4.8,1021.8,-2,97,4.4,4000,7.408,,,150,3.1,4.9,,,,,0,1.5,3,10,og-post,,,,AAXX 04064 07535 31240 81504 10048 20044 39898 40218 56020 71022 885// 333 10049 20031 31003 55015 70000 84703 86620=
07535,1999-12-04 07:00:00,4.9,1021.6,-1.2,96,4.3,4000,11.112,,,170,,,,,,,,,,10,og-post,,,,AAXX 04074 07535 31240 81706 10049 20043 39896 40216 56012 71022 885// 333 82705 86620=
07535,1999-12-04 08:00:00,5.6,1022.1,-0,92,4.4,7000,7.408,,,190,,,,,,,,,,,og-post,,,,AAXX 04084 07535 32557 81904 10056 20044 39901 40221 55000 875// 333 87620=
07535,1999-12-04 09:00:00,6.2,1022.2,0.5,90,4.7,7000,7.408,,,200,,,,,,,,,,,og-post,,,,AAXX 04094 07535 32557 82004 10062 20047 39903 40222 53005 875// 333 87620=
07535,1999-12-04 10:00:00,6.6,1022.4,0.9,89,4.9,8000,18.52,,,200,,,,,,,,,,,og-post,,,,AAXX 04104 07535 32458 82010 10066 20049 39905 40224 51009 888// 333 82813 87620=
07535,1999-12-04 11:00:00,7.6,1021.4,-0.4,86,5.4,9000,18.52,,,200,,,,,,,,,,,og-post,,,,AAXX 04114 07535 32459 82010 10076 20054 39897 40214 58004 878// 333 82813 86620=
07535,1999-12-04 13:00:00,8.3,1020.1,-2,89,6.6,,18.52,,,210,,,,,,,,,,,og-post,,,,AAXX 04134 07535 36/// /2110 10083 20066 39885 40201 56020=
07535,1999-12-04 14:00:00,8.3,1019.2,-2,93,7.2,,11.112,,,220,,,,,,,,,,,og-post,,,,AAXX 04144 07535 36/// /2206 10083 20072 39877 40192 58020=
07535,1999-12-04 15:00:00,8.2,1018.8,-1.9,97,7.8,,11.112,,,220,,,,,,,,,,,og-post,,,,AAXX 04154 07535 36/// /2206 10082 20078 39873 40188 56019=
07535,1999-12-04 16:00:00,8.3,1018.7,-1.3,98,8,,11.112,,,230,,,,,,,,,,,og-post,,,,AAXX 04164 07535 36/// /2306 10083 20080 39872 40187 56013=
07535,1999-12-04 17:00:00,8.5,1018.7,-0.5,99,8.4,,7.408,,,230,,,0.2,,,,,,,,og-post,,,,AAXX 04174 07535 26/// /2304 10085 20084 39872 40187 56005 333 69925=
07535,1999-12-04 18:00:00,8.9,1019.4,0.6,99,8.8,,7.408,,,290,4.8,8.9,,0.2,,0.2,,,,,og-post,,,,AAXX 04184 07535 /6/// /2904 10089 20088 39879 40194 53006 69922 333 10089 20048 69927=
07535,1999-12-04 19:00:00,8.2,1020.4,1.6,98,7.9,,11.112,,,310,,,,,,,,,,,og-post,,,,AAXX 04194 07535 36/// /3106 10082 20079 39888 40204 53016=
07535,1999-12-04 20:00:00,7,1021.4,2.4,95,6.3,,7.408,,,330,,,,,,,,,,,og-post,,,,AAXX 04204 07535 36/// /3304 10070 20063 39896 40214 53024=
07535,1999-12-04 21:00:00,6.7,1021.6,1.9,96,6.1,,3.704,,,310,,,,,,,,,,,og-post,,,,AAXX 04214 07535 36/// /3102 10067 20061 39898 40216 51019=
07535,1999-12-04 22:00:00,6.5,1022.1,1.5,96,5.9,,7.408,,,330,,,,,,,,,,,og-post,,,,AAXX 04224 07535 36/// /3304 10065 20059 39903 40221 51015=
07535,1999-12-04 23:00:00,6.6,1022.7,1.2,96,6,,7.408,,,300,,,,,,,,,,,og-post,,,,AAXX 04234 07535 36/// /3004 10066 20060 39908 40227 53012=
07535,1999-12-05 00:00:00,6.4,1023.6,1.9,96,5.8,,11.112,,,310,,,,,,,,,,,og-post,,,,AAXX 05004 07535 36/// /3106 10064 20058 39917 40236 53019=
07535,1999-12-05 01:00:00,5.6,1023.9,1.6,97,5.2,,7.408,,,330,,,,,,,,,,,og-post,,,,AAXX 05014 07535 36/// /3304 10056 20052 39919 40239 51016=
07535,1999-12-05 02:00:00,5,1024.8,1.9,98,4.7,,7.408,,,310,,,,,,,,,,,og-post,,,,AAXX 05024 07535 36/// /3104 10050 20047 39927 40248 51019=
07535,1999-12-05 03:00:00,3.8,1025.3,1.3,98,3.5,,3.704,,,280,,,,,,,,,,,og-post,,,,AAXX 05034 07535 36/// /2802 10038 20035 39930 40253 53013=
07535,1999-12-05 04:00:00,4.4,1025.5,1.4,99,4.3,,11.112,,,320,,,,,,,,,,,og-post,,,,AAXX 05044 07535 36/// /3206 10044 20043 39933 40255 51014=
07535,1999-12-05 05:00:00,4,1026.4,1.4,99,3.9,3000,7.408,,,320,,,,,,,,,,10,og-post,,,,AAXX 05054 07535 31230 83204 10040 20039 39941 40264 53014 71022 885// 333 84703 86620=
07535,1999-12-05 06:00:00,3.2,1026.9,1.5,99,3.1,3000,7.408,,,310,3.2,9,,,,,0.2,,-1,10,og-post,,,,AAXX 05064 07535 31230 73104 10032 20031 39945 40269 53015 71022 875// 333 10090 20032 32101 55000 70002 84703 85620=
07535,1999-12-05 07:00:00,2.9,1027.9,2.1,99,2.8,10000,3.704,,,340,,,,,,,,,,,og-post,,,,AAXX 05074 07535 32560 43402 10029 20028 39954 40279 53021 84500 333 84620=
07535,1999-12-05 08:00:00,2.7,1028.9,2.3,99,2.6,10000,,,,,,,,,,,,,,,og-post,,,,AAXX 05084 07535 32560 20000 10027 20026 39964 40289 53023 81501 333 81620=
07535,1999-12-05 09:00:00,3.8,1029.7,2.8,97,3.4,10000,3.704,,,290,,,,,,,,,,,og-post,,,,AAXX 05094 07535 32260 22902 10038 20034 39973 40297 52028 82600 333 82704=
07535,1999-12-05 10:00:00,4.8,1029.9,2.2,97,4.4,12000,,,,,,,,,,,,,,,og-post,,,,AAXX 05104 07535 32362 40000 10048 20044 39976 40299 51022 84100 333 84809=
07535,1999-12-05 11:00:00,5.7,1030,1.4,88,3.9,14000,3.704,,,320,,,,,,,,,,,og-post,,,,AAXX 05114 07535 32464 33202 10057 20039 39978 40300 51014 83100 333 83813=
07535,1999-12-05 12:00:00,7,1029.8,0.4,71,2.1,,11.112,,,340,,,,,,,,,,,og-post,,,,AAXX 05124 07535 36/// /3406 10070 20021 39977 40298 50004=
07535,1999-12-05 13:00:00,7.1,1029.5,-0.1,62,0.3,,14.816,,,360,,,,,,,,,,,og-post,,,,AAXX 05134 07535 36/// /3608 10071 20003 39975 40295 58001=
07535,1999-12-05 14:00:00,7,1029.7,-0.2,57,-0.9,,11.112,,,10,,,,,,,,,,,og-post,,,,AAXX 05144 07535 36/// /0106 10070 21009 39976 40297 55002=
07535,1999-12-05 15:00:00,5.9,1030.1,0.2,62,-0.8,,11.112,,,360,,,,,,,,,,,og-post,,,,AAXX 05154 07535 36/// /3606 10059 21008 39979 40301 53002=
07535,1999-12-05 16:00:00,5.1,1030.5,0.7,67,-0.5,,3.704,,,20,,,,,,,,,,,og-post,,,,AAXX 05164 07535 36/// /0202 10051 21005 39982 40305 53007=
07535,1999-12-05 17:00:00,4.3,1031.4,1.4,71,-0.5,,3.704,,,360,,,,,,,,,,,og-post,,,,AAXX 05174 07535 36/// /3602 10043 21005 39990 40314 53014=
07535,1999-12-05 18:00:00,2.4,1032,1.4,80,-0.7,,,,,,2.3,7.7,,,,,,,,,og-post,,,,AAXX 05184 07535 36/// /0000 10024 21007 39993 40320 52014 333 10077 20023=
07535,1999-12-05 19:00:00,0.6,1032.9,1.8,86,-1.5,,,,,,,,,,,,,,,,og-post,,,,AAXX 05194 07535 36/// /0000 10006 21015 30000 40329 51018=
07535,1999-12-05 20:00:00,-0.9,1033.3,1.2,93,-1.9,,7.408,,,150,,,,,,,,,,,og-post,,,,AAXX 05204 07535 36/// /1504 11009 21019 30002 40333 51012=
07535,1999-12-05 21:00:00,-1.2,1034,1.5,94,-2,,,,,,,,,,,,,,,,og-post,,,,AAXX 05214 07535 36/// /0000 11012 21020 30008 40340 51015=
07535,1999-12-05 22:00:00,-1.6,1034,0.8,95,-2.3,,,,,,,,,,,,,,,,og-post,,,,AAXX 05224 07535 36/// /0000 11016 21023 30008 40340 51008=
07535,1999-12-05 23:00:00,-2.5,1034.5,1,96,-3,,7.408,,,160,,,,,,,,,,,og-post,,,,AAXX 05234 07535 36/// /1604 11025 21030 30012 40345 51010=
07535,1999-12-06 00:00:00,-2.7,1034.4,0.2,98,-3,,3.704,,,160,,,,,,,,,,,og-post,,,,AAXX 06004 07535 36/// /1602 11027 21030 30010 40344 50002=
07535,1999-12-06 01:00:00,-2.3,1034.6,0.5,97,-2.7,,7.408,,,140,,,,,,,,,,,og-post,,,,AAXX 06014 07535 36/// /1404 11023 21027 30013 40346 51005=
07535,1999-12-06 02:00:00,-2.6,1034.6,-0,96,-3.1,,7.408,,,140,,,,,,,,,,,og-post,,,,AAXX 06024 07535 36/// /1404 11026 21031 30012 40346 55000=
07535,1999-12-06 03:00:00,-2.6,1034,-0.3,97,-3,,3.704,,,270,,,,,,,,,,,og-post,,,,AAXX 06034 07535 36/// /2702 11026 21030 30007 40340 58003=
07535,1999-12-06 04:00:00,-3.7,1033.6,-1.2,97,-4.1,,7.408,,,140,,,,,,,,,,,og-post,,,,AAXX 06044 07535 36/// /1404 11037 21041 30001 40336 58012=
07535,1999-12-06 05:00:00,-2.6,1033.8,-0.7,98,-2.9,,3.704,,,50,,,,,,,,,,,og-post,,,,AAXX 06054 07535 36/// /0502 11026 21029 30005 40338 55007=
07535,1999-12-06 06:00:00,-3.7,1034.1,-0.1,97,-4.1,8000,7.408,,,130,-3.9,2.4,,,,,0,4.2,-8,,og-post,,,,AAXX 06064 07535 32958 21304 11037 21041 30006 40341 55001 80001 333 10024 21039 34108 55042 70000 82075=
07535,1999-12-06 07:00:00,-2,1033.9,0.5,98,-2.3,15000,7.408,,,110,,,,,,,,,,,og-post,,,,AAXX 06074 07535 32965 31104 11020 21023 30006 40339 51005 80003 333 83075=
07535,1999-12-06 08:00:00,-2.1,1034.2,0.4,95,-2.8,15000,,,,,,,,,,,,,,,og-post,,,,AAXX 06084 07535 32965 40000 11021 21028 30009 40342 53004 80002 333 84075=
07535,1999-12-06 09:00:00,-1,1034.1,0.4,92,-2.1,15000,,,,,,,,,,,,,,,og-post,,,,AAXX 06094 07535 32965 40000 11010 21021 30010 40341 53004 80002 333 84075=
07535,1999-12-06 11:00:00,2.9,1032.6,-0.9,85,0.6,20000,3.704,,,350,,,,,,,,,,,og-post,,,,AAXX 06114 07535 32970 53502 10029 20006 30000 40326 58009 80002 333 85075=
07535,1999-12-06 12:00:00,4.4,1031.7,-1.7,79,1.1,,3.704,,,350,,,,,,,,,,,og-post,,,,AAXX 06124 07535 36/// /3502 10044 20011 39993 40317 58017=
07535,1999-12-06 13:00:00,5.7,1031.2,-1.6,71,0.9,25000,3.704,,,350,,,,,,,,,,,og-post,,,,AAXX 06134 07535 32975 53502 10057 20009 39989 40312 56016 80002 333 85075=
07535,1999-12-06 14:00:00,6.3,1030.3,-1.9,67,0.6,25000,3.704,,,360,,,,,,,,,,,og-post,,,,AAXX 06144 07535 32975 43602 10063 20006 39981 40303 58019 80001 333 84075=
07535,1999-12-06 15:00:00,6.3,1029.8,-1.7,58,-1.3,25000,3.704,,,340,,,,,,,,,,,og-post,,,,AAXX 06154 07535 32975 13402 10063 21013 39976 40298 58017 80001 333 81075=
07535,1999-12-06 16:00:00,5.9,1029.6,-1.5,55,-2.4,25000,3.704,,,30,,,,,,,,,,,og-post,,,,AAXX 06164 07535 32975 10302 10059 21024 39974 40296 56015 80001 333 81075=
07535,1999-12-06 17:00:00,4.5,1029.9,-0.6,64,-1.7,,3.704,,,110,,,,,,,,,,,og-post,,,,AAXX 06174 07535 36/// /1102 10045 21017 39975 40299 55006=
07535,1999-12-06 18:00:00,1.4,1030,-0.3,80,-1.7,,7.408,,,130,-3.7,6.5,,,,,,,,,og-post,,,,AAXX 06184 07535 36/// /1304 10014 21017 39973 40300 57003 333 10065 21037=
07535,1999-12-06 19:00:00,2.4,1029.5,-0.5,73,-1.9,,7.408,,,120,,,,,,,,,,,og-post,,,,AAXX 06194 07535 36/// /1204 10024 21019 39969 40295 58005=
07535,1999-12-06 20:00:00,0.6,1029.6,-0,84,-1.8,,7.408,,,130,,,,,,,,,,,og-post,,,,AAXX 06204 07535 36/// /1304 10006 21018 39968 40296 5600=
07535,1999-12-06 21:00:00,0,1029.4,-0.8,85,-2.2,,3.704,,,130,,,,,,,,,,,og-post,,,,AAXX 06214 07535 36/// /1302 10000 21022 39965 40294 56008=
07535,1999-12-06 22:00:00,0.5,1028.8,-0.9,84,-1.9,,3.704,,,130,,,,,,,,,,,og-post,,,,AAXX 06224 07535 36/// /1302 10005 21019 39960 40288 58009=
07535,1999-12-06 23:00:00,0.3,1028.4,-1.2,86,-1.8,,7.408,,,130,,,,,,,,,,,og-post,,,,AAXX 06234 07535 36/// /1304 10003 21018 39956 40284 58012=
07535,1999-12-07 00:00:00,-0.5,1027.8,-1.6,89,-2.1,,,,,,,,,,,,,,,,og-post,,,,AAXX 07004 07535 36/// /0000 11005 21021 39949 40278 58016=
07535,1999-12-07 01:00:00,-0.6,1027.4,-1.5,89,-2.2,,3.704,,,280,,,,,,,,,,,og-post,,,,AAXX 07014 07535 36/// /2802 11006 21022 39945 40274 57015=
07535,1999-12-07 02:00:00,-1.6,1027.5,-1.1,94,-2.4,,,,,,,,,,,,,,,,og-post,,,,AAXX 07024 07535 36/// /0000 11016 21024 39945 40275 56011=
07535,1999-12-07 03:00:00,-2.5,1027.3,-0.7,97,-2.9,,11.112,,,150,,,,,,,,,,,og-post,,,,AAXX 07034 07535 36/// /1506 11025 21029 39942 40273 56007=
07535,1999-12-07 04:00:00,-2.3,1027,-0.6,93,-3.3,,11.112,,,140,,,,,,,,,,,og-post,,,,AAXX 07044 07535 36/// /1406 11023 21033 39939 40270 58006=
07535,1999-12-07 05:00:00,0.4,1026.2,-1,82,-2.3,,7.408,,,110,,,,,,,,,,,og-post,,,,AAXX 07054 07535 36/// /1104 10004 21023 39935 40262 58010=
07535,1999-12-07 06:00:00,-1.7,1026.5,-0.7,90,-3.1,15000,7.408,,,150,-2.6,3,,,,,,7.4,-6,,og-post,,,,AAXX 07064 07535 32965 01504 11017 21031 39935 40265 56007 333 10030 21026 30106 55074 70000=
07535,1999-12-07 07:00:00,-2.6,1026.7,-0.3,93,-3.6,20000,7.408,,,150,,,,,,,,,,,og-post,,,,AAXX 07074 07535 32970 01504 11026 21036 39936 40267 55003=
07535,1999-12-07 08:00:00,-1.3,1027.3,0.8,87,-3.2,25000,3.704,,,150,,,,,,,,,,,og-post,,,,AAXX 07084 07535 32975 01502 11013 21032 39943 40273 53008=
07535,1999-12-07 09:00:00,2.8,1026.6,0.6,74,-1.4,25000,3.704,,,190,,,,,,,,,,,og-post,,,,AAXX 07094 07535 32975 01902 10028 21014 39941 40266 50006=
07535,1999-12-07 10:00:00,4.7,1026.8,1,72,0.1,20000,,,,,,,,,,,,,,,og-post,,,,AAXX 07104 07535 32970 00000 10047 20001 39946 40268 51010=
07535,1999-12-07 11:00:00,8.9,1026.4,0.4,58,1.1,15000,11.112,,,210,,,,,,,,,,,og-post,,,,AAXX 07114 07535 32565 12106 10089 20011 39947 40264 53004 81500 333 81630=
07535,1999-12-07 12:00:00,8.6,1026.4,0.5,69,3.2,,3.704,,,250,,,,,,,,,,,og-post,,,,AAXX 07124 07535 36/// /2502 10086 20032 39946 40264 50005=
07535,1999-12-07 13:00:00,8.2,1025.7,-0.7,73,3.7,,7.408,,,170,,,,,,,,,,,og-post,,,,AAXX 07134 07535 36/// /1704 10082 20037 39939 40257 58007=
07535,1999-12-07 14:00:00,8.6,1025,-1.4,77,4.8,15000,7.408,,,170,,,,,,,,,,,og-post,,,,AAXX 07144 07535 32565 81704 10086 20048 39933 40250 58014 888// 333 81820 88630=
07535,1999-12-07 15:00:00,8.6,1025.1,-1.2,77,4.8,15000,7.408,,,170,,,,,,,,,,,og-post,,,,AAXX 07154 07535 32565 81704 10086 20048 39934 40251 55012 888// 333 81820 88630=
07535,1999-12-07 16:00:00,8.2,1025.4,-0.3,78,4.6,,7.408,,,170,,,,,,,,,,,og-post,,,,AAXX 07164 07535 36/// /1704 10082 20046 39936 40254 55003=
07535,1999-12-07 17:00:00,7.4,1025.4,0.2,81,4.4,,7.408,,,190,,,,,,,,,,,og-post,,,,AAXX 07174 07535 36/// /1904 10074 20044 39935 40254 50002=
07535,1999-12-07 18:00:00,7.1,1025.7,0.4,83,4.4,,11.112,,,180,-2.7,10,,,,,,,,,og-post,,,,AAXX 07184 07535 36/// /1806 10071 20044 39938 40257 53004 333 10100 21027=
07535,1999-12-07 19:00:00,7,1026,0.5,84,4.5,,7.408,,,170,,,,,,,,,,,og-post,,,,AAXX 07194 07535 36/// /1704 10070 20045 39941 40260 53005=
07535,1999-12-07 20:00:00,7.1,1026,0.6,87,5.1,,11.112,,,160,,,,,,,,,,,og-post,,,,AAXX 07204 07535 36/// /1606 10071 20051 39941 40260 51006=
07535,1999-12-07 21:00:00,7.1,1025.8,0.1,90,5.6,,11.112,,,190,,,,,,,,,,,og-post,,,,AAXX 07214 07535 36/// /1906 10071 20056 39939 40258 50001=
07535,1999-12-07 22:00:00,7.3,1025.7,-0.3,89,5.6,,11.112,,,200,,,,,,,,,,,og-post,,,,AAXX 07224 07535 36/// /2006 10073 20056 39938 40257 58003=
07535,1999-12-07 23:00:00,6.9,1025.6,-0.4,94,6,,11.112,,,210,,,,,,,,,,,og-post,,,,AAXX 07234 07535 36/// /2106 10069 20060 39937 40256 56004=
07535,1999-12-08 00:00:00,7.3,1025.5,-0.3,92,6.1,,11.112,,,190,,,,,,,,,,,og-post,,,,AAXX 08004 07535 36/// /1906 10073 20061 39936 40255 57003=
07535,1999-12-08 01:00:00,7.4,1025,-0.6,92,6.2,,11.112,,,200,,,,,,,,,,,og-post,,,,AAXX 08014 07535 36/// /2006 10074 20062 39932 40250 58006=
07535,1999-12-08 02:00:00,7.5,1024.6,-0.9,93,6.4,,11.112,,,190,,,,,,,,,,,og-post,,,,AAXX 08024 07535 36/// /1906 10075 20064 39928 40246 58009=
07535,1999-12-08 03:00:00,7.6,1024.4,-1,93,6.5,,11.112,,,190,,,,,,,,,,,og-post,,,,AAXX 08034 07535 36/// /1906 10076 20065 39926 40244 56010=
07535,1999-12-08 04:00:00,7.4,1023.9,-1.1,94,6.5,,11.112,,,190,,,,,,,,,,,og-post,,,,AAXX 08044 07535 36/// /1906 10074 20065 39921 40239 58011=
07535,1999-12-08 05:00:00,7.4,1023.5,-1.1,94,6.5,4000,14.816,,,200,,,,,,,,,,10,og-post,,,,AAXX 08054 07535 31340 82008 10074 20065 39917 40235 58011 71022 885// 333 84706 86626=
07535,1999-12-08 07:00:00,7.2,1023,-0.9,95,6.5,4000,11.112,,,170,,,,,,,,,,10,og-post,,,,AAXX 08074 07535 31340 81706 10072 20065 39912 40230 56009 71022 885// 333 82706 86626=
07535,1999-12-08 08:00:00,7.1,1023.1,-0.4,96,6.5,4000,3.704,,,170,,,,,,,,,,10,og-post,,,,AAXX 08084 07535 31340 81702 10071 20065 39913 40231 55004 71022 885// 333 82706 86626=
07535,1999-12-08 09:00:00,7.3,1022.8,-0.4,93,6.2,4500,3.704,,,190,,,,,,,,,,10,og-post,,,,AAXX 08094 07535 31345 81902 10073 20062 39910 40228 58004 71022 885// 333 82708 86626=
07535,1999-12-08 10:00:00,7.7,1022.7,-0.2,91,6.3,5000,3.704,,,200,,,,,,,,,,,og-post,,,,AAXX 08104 07535 32350 82002 10077 20063 39910 40227 58002 885// 333 82708 86626=
07535,1999-12-08 11:00:00,8.4,1021.9,-1,86,6.2,,7.408,,,150,,,,,,,,,,,og-post,,,,AAXX 08114 07535 36/// /1504 10084 20062 39903 40219 58010=
07535,1999-12-08 12:00:00,10.3,1020.5,-1.9,79,6.8,8000,3.704,,,20,,,,,,,,,,,og-post,,,,AAXX 08124 07535 32558 70202 10103 20068 39891 40205 58019 81502 333 81626 87075=
07535,1999-12-08 13:00:00,10.1,1019.5,-2.9,80,6.8,8000,,,,,,,,,,,,,,,og-post,,,,AAXX 08134 07535 32958 70000 10101 20068 39881 40195 58029 80002 333 87075=
07535,1999-12-08 14:00:00,10.7,1018.8,-2.8,76,6.6,8000,3.704,,,230,,,,,,,,,,,og-post,,,,AAXX 08144 07535 32558 72302 10107 20066 39875 40188 56028 82532 333 82626 87075=
07535,1999-12-08 15:00:00,9.2,1018.6,-1.9,84,6.6,8000,3.704,,,270,,,,,,,,,,,og-post,,,,AAXX 08154 07535 32558 72702 10092 20066 39872 40186 56019 82502 333 82626 87075=
07535,1999-12-08 16:00:00,7.5,1018.3,-1.4,90,6,8000,3.704,,,260,,,,,,,,,,,og-post,,,,AAXX 08164 07535 32958 72602 10075 20060 39867 40183 56014 83032 333 83360 87075=
07535,1999-12-08 17:00:00,6.2,1018.2,-1.1,95,5.5,,3.704,,,170,,,,,,,,,,,og-post,,,,AAXX 08174 07535 36/// /1702 10062 20055 39864 40182 57011=
07535,1999-12-08 18:00:00,4.5,1018.1,-1.1,98,4.2,,7.408,,,150,4.5,10.9,,,,,,,,,og-post,,,,AAXX 08184 07535 36/// /1504 10045 20042 39861 40181 56011 333 10109 20045=
07535,1999-12-08 19:00:00,3.3,1018.4,-0.4,98,3,,7.408,,,150,,,,,,,,,,,og-post,,,,AAXX 08194 07535 36/// /1504 10033 20030 39863 40184 55004=
07535,1999-12-08 21:00:00,2.9,1017.4,-0.8,99,2.8,,7.408,,,150,,,,,,,,,,,og-post,,,,AAXX 08214 07535 36/// /1504 10029 20028 39853 40174 58008=
07535,1999-12-08 22:00:00,3,1017.2,-1.2,99,2.9,,7.408,,,140,,,,,,,,,,,og-post,,,,AAXX 08224 07535 36/// /1404 10030 20029 39851 40172 56012=
07535,1999-12-08 23:00:00,1.7,1017,-1.1,99,1.6,,11.112,,,150,,,,,,,,,,,og-post,,,,AAXX 08234 07535 36/// /1506 10017 20016 39847 40170 56011=
07535,1999-12-09 00:00:00,3.8,1016.1,-1.2,100,3.8,,11.112,,,150,,,,,,,,,,,og-post,,,,AAXX 09004 07535 36/// /1506 10038 20038 39841 40161 58012=
07535,1999-12-09 01:00:00,3.9,1015.1,-1.9,100,3.9,,14.816,,,160,,,,,,,,,,,og-post,,,,AAXX 09014 07535 36/// /1608 10039 20039 39832 40151 58019=
07535,1999-12-09 02:00:00,5,1014.5,-2,99,4.9,,14.816,,,180,,,,,,,,,,,og-post,,,,AAXX 09024 07535 36/// /1808 10050 20049 39827 40145 56020=
07535,1999-12-09 03:00:00,6.2,1013.8,-1.9,97,5.8,,22.224,,,200,,,,,,,,,,,og-post,,,,AAXX 09034 07535 36/// /2012 10062 20058 39822 40138 56019=
07535,1999-12-09 04:00:00,6.3,1012.9,-1.9,92,5.1,,22.224,,,180,,,,,,,,,,,og-post,,,,AAXX 09044 07535 36/// /1812 10063 20051 39813 40129 58019=
07535,1999-12-09 05:00:00,6.5,1012.2,-2,88,4.7,,18.52,,,190,,,,,,,,,,,og-post,,,,AAXX 09054 07535 36/// /1910 10065 20047 39807 40122 58020=
07535,1999-12-09 06:00:00,6.2,1012,-1.8,88,4.4,4500,7.408,,,230,1.7,6.5,,,,,0,0.6,-2,10,og-post,,,,AAXX 09064 07535 31345 82304 10062 20044 39804 40120 56018 71022 885// 333 10065 20017 31102 55006 70000 84706 86626=
07535,1999-12-09 07:00:00,5.7,1011.9,-1,90,4.2,4500,3.704,,,240,,,,,,,,,,10,og-post,,,,AAXX 09074 07535 31545 82402 10057 20042 39803 40119 56010 71022 8557/ 333 85626 87359=
07535,1999-12-09 08:00:00,5.7,1011.7,-0.6,91,4.3,6000,14.816,,,190,,,,,,,,,,,og-post,,,,AAXX 09084 07535 32556 81908 10057 20043 39801 40117 56006 8457/ 333 84626 87359=
07535,1999-12-09 09:00:00,6.7,1011.5,-0.4,86,4.5,7000,11.112,,,200,,,,,,,,,,,og-post,,,,AAXX 09094 07535 32657 82006 10067 20045 39800 40115 57004 8457/ 333 84636 87359=
07535,1999-12-09 10:00:00,7,1011.3,-0.5,85,4.7,7000,11.112,,,200,,,,,,,,,,21,og-post,,,,AAXX 09104 07535 21657 82006 10070 20047 39798 40113 57005 72162 8457/ 333 69905 84636 87359=
07535,1999-12-09 11:00:00,7.4,1010.6,-0.9,76,3.5,12000,18.52,,,210,,,,,,,,,,,og-post,,,,AAXX 09114 07535 32662 82110 10074 20035 39792 40106 58009 8557/ 333 85636 87359=
07535,1999-12-09 12:00:00,7.1,1009.7,-1.7,87,5.1,7000,18.52,,,200,,,,,,,,,,60,og-post,,,,AAXX 09124 07535 /1457 82010 10071 20051 39783 40097 58017 69901 76062 8857/ 333 69907 81713 85636 87359=
07535,1999-12-09 13:00:00,6.5,1009.1,-2.1,94,5.6,,18.52,,,210,,,1,,,,,,,,og-post,,,,AAXX 09134 07535 26/// /2110 10065 20056 39777 40091 57021 333 60015=
07535,1999-12-09 14:00:00,6.3,1008.6,-2,97,5.9,5000,11.112,,,210,,,2,,,,,,,60,og-post,,,,AAXX 09144 07535 21450 82106 10063 20059 39772 40086 56020 76066 888// 333 60025 84811 86626=
07535,1999-12-09 15:00:00,6,1008.2,-1.6,98,5.7,6000,14.816,,,200,,,,4,,,,,,21,og-post,,,,AAXX 09154 07535 21456 82008 10060 20057 39767 40082 56016 72162 888// 333 60047 84811 86626=
07535,1999-12-09 16:00:00,6.3,1007.9,-1.2,97,5.9,6000,14.816,,,210,,,,,,,,,,,og-post,,,,AAXX 09164 07535 32456 82108 10063 20059 39765 40079 56012 888// 333 84811 86626=
07535,1999-12-09 17:00:00,6.3,1007.7,-0.9,98,6,,14.816,,,210,,,,,,,,,,,og-post,,,,AAXX 09174 07535 36/// /2108 10063 20060 39763 40077 56009=
07535,1999-12-09 18:00:00,6.3,1008,-0.1,98,6,,11.112,,,230,5.5,7.5,,0.2,,4,,,,,og-post,,,,AAXX 09184 07535 /6/// /2306 10063 20060 39766 40080 55001 60042 333 10075 20055 69927=
07535,1999-12-09 19:00:00,6.2,1007.9,-0,98,5.9,,11.112,,,210,,,1,,,,,,,,og-post,,,,AAXX 09194 07535 26/// /2106 10062 20059 39765 40079 55000 333 60015=
07535,1999-12-09 20:00:00,5.9,1008,0.2,98,5.6,,11.112,,,220,,,,,,,,,,,og-post,,,,AAXX 09204 07535 36/// /2206 10059 20056 39765 40080 51002=
07535,1999-12-09 21:00:00,5.8,1008.4,0.3,98,5.5,,14.816,,,260,,,,2,,,,,,,og-post,,,,AAXX 09214 07535 26/// /2608 10058 20055 39769 40084 53003 333 60027=
07535,1999-12-09 22:00:00,5.3,1008.6,0.5,98,5,,7.408,,,230,,,0.2,,,,,,,,og-post,,,,AAXX 09224 07535 26/// /2304 10053 20050 39770 40086 53005 333 69925=
07535,1999-12-09 23:00:00,4.7,1008.9,0.8,98,4.4,,11.112,,,240,,,0.6,,,,,,,,og-post,,,,AAXX 09234 07535 26/// /2406 10047 20044 39773 40089 51008 333 69965=
07535,1999-12-10 00:00:00,4.7,1008.9,0.4,98,4.4,,11.112,,,240,,,,0.8,2,,,,,,og-post,,,,AAXX 10004 07535 /6/// /2406 10047 20044 39773 40089 51004 60021 333 69987=
07535,1999-12-10 01:00:00,4.8,1009.1,0.5,98,4.5,,7.408,,,270,,,,,,,,,,,og-post,,,,AAXX 10014 07535 36/// /2704 10048 20045 39775 40091 51005=
07535,1999-12-10 02:00:00,4.4,1009.4,0.4,98,4.1,,11.112,,,270,,,1,,,,,,,,og-post,,,,AAXX 10024 07535 26/// /2706 10044 20041 39777 40094 53004 333 60015=
07535,1999-12-10 03:00:00,4.1,1009.9,0.9,99,4,,7.408,,,280,,,,1,,,,,,,og-post,,,,AAXX 10034 07535 26/// /2804 10041 20040 39782 40099 53009 333 60017=
07535,1999-12-10 04:00:00,4.1,1010.4,1.1,99,4,,3.704,,,260,,,,,,,,,,,og-post,,,,AAXX 10044 07535 36/// /2602 10041 20040 39786 40104 53011=
07535,1999-12-10 05:00:00,4.1,1010.9,1.4,99,4,12000,3.704,,,260,,,,,,,,,,,og-post,,,,AAXX 10054 07535 32162 72602 10041 20040 39791 40109 52014 872// 333 84703 85813=
07535,1999-12-10 06:00:00,4.2,1011.6,1.6,99,4.1,10000,11.112,,,270,4,6.4,,,,3,7.8,,1,3,og-post,,,,AAXX 10064 07535 11260 82706 10042 20041 39798 40116 53016 60032 70386 887// 333 10064 20040 32001 55000 70078 88703=
07535,1999-12-10 07:00:00,4.1,1012.2,1.8,99,4,10000,3.704,,,260,,,,,,,,,,,og-post,,,,AAXX 10074 07535 32260 72602 10041 20040 39804 40122 53018 875// 333 82703 87616=
07535,1999-12-10 08:00:00,4.2,1013.1,2.2,99,4.1,8000,11.112,,,270,,,,,,,,,,80,og-post,,,,AAXX 10084 07535 21258 72706 10042 20041 39813 40131 53022 78086 877// 333 69905 87804=
07535,1999-12-10 09:00:00,5.2,1014,2.5,99,5.1,25000,7.408,,,280,,,,,,,,,,25,og-post,,,,AAXX 10094 07535 21275 62804 10052 20051 39823 40140 53025 72586 85801 333 69907 83805 83073=
07535,1999-12-10 10:00:00,5.2,1014.9,2.7,94,4.3,30000,3.704,,,260,,,,,,,,,,,og-post,,,,AAXX 10104 07535 32580 72602 10052 20043 39831 40149 51027 878// 333 82823 85643=
07535,1999-12-10 11:00:00,6.1,1015.1,2.1,90,4.6,25000,7.408,,,270,,,,,,,,,,,og-post,,,,AAXX 10114 07535 32575 72704 10061 20046 39834 40151 51021 878// 333 85823 83643=
07535,1999-12-10 12:00:00,7.5,1014.9,1.1,85,5.1,35000,7.408,,,270,,,,,,,,,,1,og-post,,,,AAXX 10124 07535 11581 62704 10075 20051 39834 40149 51011 69901 70186 86800 333 85823=
07535,1999-12-10 13:00:00,7.2,1015,0.3,80,4,35000,11.112,,,290,,,,,,,,,,,og-post,,,,AAXX 10134 07535 32581 62906 10072 20040 39834 40150 51003 86200 333 86823=
07535,1999-12-10 14:00:00,8,1015,0.1,74,3.7,35000,11.112,,,280,,,,,,,,,,,og-post,,,,AAXX 10144 07535 32581 32806 10080 20037 39835 40150 53001 83200 333 83823=
07535,1999-12-10 15:00:00,7,1015.8,0.8,78,3.4,35000,7.408,,,280,,,,,,,,,,,og-post,,,,AAXX 10154 07535 32581 62804 10070 20034 39842 40158 53008 83201 333 83823 84073=
07535,1999-12-10 16:00:00,5.9,1016.4,1.2,84,3.4,35000,7.408,,,270,,,,,,,,,,,og-post,,,,AAXX 10164 07535 32581 62704 10059 20034 39846 40164 53012 81109 333 81823 86173=
07535,1999-12-10 17:00:00,4.5,1016.8,1.4,91,3.2,,3.704,,,260,,,,,,,,,,,og-post,,,,AAXX 10174 07535 36/// /2602 10045 20032 39849 40168 51014=
07535,1999-12-10 18:00:00,4.3,1017.1,0.9,95,3.6,,3.704,,,230,4.1,8.5,,,,,,,,,og-post,,,,AAXX 10184 07535 16/// /2302 10043 20036 39851 40171 51009 69902 333 10085 20041=
07535,1999-12-10 19:00:00,4.6,1017,0.5,92,3.4,,11.112,,,210,,,,,,,,,,,og-post,,,,AAXX 10194 07535 36/// /2106 10046 20034 39851 40170 51005=
07535,1999-12-10 20:00:00,5.1,1016.5,-0.2,93,4.1,,11.112,,,220,,,0.2,,,,,,,,og-post,,,,AAXX 10204 07535 26/// /2206 10051 20041 39847 40165 58002 333 69925=
07535,1999-12-10 21:00:00,4.9,1016.6,-0.4,97,4.5,,11.112,,,220,,,,1,,,,,,,og-post,,,,AAXX 10214 07535 26/// /2206 10049 20045 39847 40166 57004 333 60017=
07535,1999-12-10 22:00:00,5,1016.8,-0.2,98,4.7,,11.112,,,210,,,2,,,,,,,,og-post,,,,AAXX 10224 07535 26/// /2106 10050 20047 39849 40168 55002 333 60025=
07535,1999-12-10 23:00:00,5.3,1016,-0.5,99,5.2,,14.816,,,190,,,0.6,,,,,,,,og-post,,,,AAXX 10234 07535 26/// /1908 10053 20052 39842 40160 58005 333 69965=
07535,1999-12-11 00:00:00,5.6,1015.3,-1.1,99,5.5,,14.816,,,200,,,,3,4,,,,,,og-post,,,,AAXX 11004 07535 /6/// /2008 10056 20055 39836 40153 58011 60041 333 60037=
07535,1999-12-11 01:00:00,5.9,1014.5,-2.1,99,5.8,,14.816,,,200,,,0.2,,,,,,,,og-post,,,,AAXX 11014 07535 26/// /2008 10059 20058 39828 40145 58021 333 69925=
07535,1999-12-11 02:00:00,6.5,1013.9,-1.9,99,6.4,,14.816,,,210,,,0.4,,,,,,,,og-post,,,,AAXX 11024 07535 26/// /2108 10065 20064 39823 40139 56019 333 69945=
07535,1999-12-11 03:00:00,6.9,1013.3,-1.8,99,6.8,,14.816,,,220,,,,1,,,,,,,og-post,,,,AAXX 11034 07535 26/// /2208 10069 20068 39818 40133 56018 333 60017=
07535,1999-12-11 04:00:00,7.6,1012.8,-1.4,99,7.5,,11.112,,,230,,,0.6,,,,,,,,og-post,,,,AAXX 11044 07535 26/// /2306 10076 20075 39814 40128 56014 333 69965=
07535,1999-12-11 05:00:00,8.9,1012.5,-1.1,99,8.8,5000,11.112,,,260,,,0.4,,,,,,,58,og-post,,,,AAXX 11054 07535 21250 82606 10089 20088 39812 40125 56011 75865 887// 333 69945 88703=
07535,1999-12-11 06:00:00,10,1012.4,-0.5,99,9.8,5000,14.816,,,270,4.2,10,,2,,8,7.6,1.3,2,61,og-post,,,,AAXX 11064 07535 /1250 82708 10100 20098 39813 40124 55005 60082 76165 887// 333 10100 20042 32002 55013 60027 70076 88703=
07535,1999-12-11 07:00:00,10.2,1012.8,0.3,99,10,5000,14.816,,,270,,,0.4,,,,,,,60,og-post,,,,AAXX 11074 07535 21250 82708 10102 20100 39817 40128 53003 76066 875// 333 69945 84703 87616=
07535,1999-12-11 08:00:00,10.5,1013.5,1.2,99,10.3,2800,14.816,,,270,,,1,,,,,,,58,og-post,,,,AAXX 11084 07535 21228 82708 10105 20103 39824 40135 53012 75866 887// 333 60015 88703=
07535,1999-12-11 09:00:00,10.7,1014.1,1.7,99,10.5,2500,18.52,,,280,,,,3,,,,,,61,og-post,,,,AAXX 11094 07535 21225 82810 10107 20105 39830 40141 53017 76166 887// 333 60037 88703=
07535,1999-12-11 10:00:00,11.1,1014.8,2,98,10.8,6000,14.816,,,280,,,,,,,,,,21,og-post,,,,AAXX 11104 07535 21256 82808 10111 20108 39837 40148 52020 72162 875// 333 69905 86703 87616=
07535,1999-12-11 11:00:00,11.1,1014.7,1.2,98,10.8,1800,18.52,,,270,,,0.2,,,,,,,51,og-post,,,,AAXX 11114 07535 21118 82710 10111 20108 39836 40147 50012 75152 887// 333 69925 88703=
07535,1999-12-11 12:00:00,11.3,1014.8,0.7,95,10.5,,14.816,,,280,,,,0.2,3,,,,,,og-post,,,,AAXX 11124 07535 /6/// /2808 10113 20105 39837 40148 51007 60031 333 69927=
07535,1999-12-11 13:00:00,11.5,1014.3,-0.4,95,10.7,,14.816,,,270,,,0.2,,,,,,,,og-post,,,,AAXX 11134 07535 26/// /2708 10115 20107 39833 40143 58004 333 69925=
07535,1999-12-11 14:00:00,11.2,1014.5,-0.2,94,10.3,,18.52,,,270,,,,,,,,,,,og-post,,,,AAXX 11144 07535 36/// /2710 10112 20103 39834 40145 57002=
07535,1999-12-11 15:00:00,11.5,1014.8,0.1,90,9.9,,18.52,,,270,,,,0.2,,,,,,,og-post,,,,AAXX 11154 07535 26/// /2710 10115 20099 39838 40148 53001 333 69927=
07535,1999-12-11 16:00:00,11.3,1015,0.6,90,9.7,,11.112,,,250,,,,,,,,,,,og-post,,,,AAXX 11164 07535 36/// /2506 10113 20097 39839 40150 52006=
07535,1999-12-11 17:00:00,10.6,1015,0.5,97,10.1,,14.816,,,240,,,0.2,,,,,,,,og-post,,,,AAXX 11174 07535 26/// /2408 10106 20101 39839 40150 51005 333 69925=
07535,1999-12-11 18:00:00,10.4,1015.4,0.4,97,9.9,,7.408,,,290,10,11.6,,0.6,,4,,,,,og-post,,,,AAXX 11184 07535 /6/// /2904 10104 20099 39842 40154 53004 60042 333 10116 20100 69967=
07535,1999-12-11 19:00:00,10.5,1015.2,0.1,96,9.9,,11.112,,,250,,,,,,,,,,,og-post,,,,AAXX 11194 07535 36/// /2506 10105 20099 39840 40152 50001=
07535,1999-12-11 20:00:00,10.4,1014.4,-0.6,97,9.9,,11.112,,,230,,,,,,,,,,,og-post,,,,AAXX 11204 07535 36/// /2306 10104 20099 39833 40144 58006=
07535,1999-12-11 21:00:00,10.3,1014.1,-1.2,97,9.8,,14.816,,,230,,,,,,,,,,,og-post,,,,AAXX 11214 07535 36/// /2308 10103 20098 39830 40141 58012=
07535,1999-12-11 22:00:00,10.4,1013.6,-1.5,92,9.2,,11.112,,,230,,,,,,,,,,,og-post,,,,AAXX 11224 07535 36/// /2306 10104 20092 39825 40136 56015=
07535,1999-12-12 00:00:00,11.2,1011.9,-2.1,77,7.3,,18.52,,,200,,,,,,,,,,,og-post,,,,AAXX 12004 07535 36/// /2010 10112 20073 39809 40119 58021=
07535,1999-12-12 01:00:00,11.2,1010.4,-3.1,73,6.5,,18.52,,,210,,,,,,,,,,,og-post,,,,AAXX 12014 07535 36/// /2110 10112 20065 39794 40104 58031=
07535,1999-12-12 02:00:00,10.8,1009.4,-3.2,73,6.2,,14.816,,,200,,,,,,,,,,,og-post,,,,AAXX 12024 07535 36/// /2008 10108 20062 39784 40094 58032=
07535,1999-12-12 03:00:00,10.5,1007.9,-4,73,5.9,,14.816,,,190,,,,,,,,,,,og-post,,,,AAXX 12034 07535 36/// /1908 10105 20059 39769 40079 57040=
07535,1999-12-12 04:00:00,10.8,1007.3,-3,70,5.6,,11.112,,,210,,,,,,,,,,,og-post,,,,AAXX 12044 07535 36/// /2106 10108 20056 39764 40073 56030=
07535,1999-12-12 05:00:00,10,1007.4,-2,77,6.2,12000,22.224,,,210,,,,,,,,,,60,og-post,,,,AAXX 12054 07535 21662 82112 10100 20062 39764 40074 56020 76062 875// 333 69905 87633=
07535,1999-12-12 06:00:00,9.6,1007.1,-0.8,85,7.2,10000,25.928,,,210,9.6,11.3,,0.6,,0.6,4.4,,8,60,og-post,,,,AAXX 12064 07535 /1660 82114 10096 20072 39761 40071 56008 69962 76062 875// 333 10113 20096 32008 55000 69967 70044 87633=
07535,1999-12-12 07:00:00,10.4,1006.5,-0.8,77,6.5,15000,22.224,,,220,,,,,,,,,,21,og-post,,,,AAXX 12074 07535 21565 82212 10104 20065 39756 40065 58008 72162 875// 333 69905 87626=
07535,1999-12-12 08:00:00,10.2,1008.4,1,82,7.3,6000,18.52,,,250,,,0.2,,,,,,,61,og-post,,,,AAXX 12084 07535 21556 82510 10102 20073 39774 40084 53010 76162 875// 333 69925 87620=
07535,1999-12-12 09:00:00,9.7,1009,1.8,92,8.5,30000,18.52,,,250,,,,1,,,,,,21,og-post,,,,AAXX 12094 07535 21480 82510 10097 20085 39779 40090 53018 72162 878// 333 60017 85815 87620=
07535,1999-12-12 10:00:00,10.6,1009.4,2.8,82,7.7,15000,22.224,,,270,,,,,,,,,,,og-post,,,,AAXX 12104 07535 32465 82712 10106 20077 39784 40094 51028 872// 333 81810 87815=
07535,1999-12-12 11:00:00,11.5,1010.2,1.9,71,6.4,25000,22.224,,,280,,,,,,,,,,,og-post,,,,AAXX 12114 07535 32475 52812 10115 20064 39793 40102 53019 85200 333 85815=
07535,1999-12-12 12:00:00,9.8,1011,2,82,6.9,,14.816,,,280,,,,0.2,1,,,,,,og-post,,,,AAXX 12124 07535 /6/// /2808 10098 20069 39799 40110 53020 60011 333 69927=
07535,1999-12-12 13:00:00,10.2,1011.5,2,70,5,,22.224,,,280,,,,,,,,,,,og-post,,,,AAXX 12134 07535 36/// /2812 10102 20050 39804 40115 51020=
07535,1999-12-12 14:00:00,11.6,1011.9,1.6,65,5.3,,18.52,,,280,,,,,,,,,,,og-post,,,,AAXX 12144 07535 36/// /2810 10116 20053 39809 40119 51016=
07535,1999-12-12 15:00:00,10.9,1013,2,64,4.4,,22.224,,,290,,,,,,,,,,,og-post,,,,AAXX 12154 07535 36/// /2912 10109 20044 39819 40130 53020=
07535,1999-12-12 16:00:00,8.3,1014.3,2.5,74,3.9,,14.816,,,270,,,,,,,,,,,og-post,,,,AAXX 12164 07535 36/// /2708 10083 20039 39829 40143 53025=
07535,1999-12-12 17:00:00,7.4,1015,2.6,76,3.5,,11.112,,,280,,,,,,,,,,,og-post,,,,AAXX 12174 07535 36/// /2806 10074 20035 39835 40150 51026=
07535,1999-12-12 18:00:00,7.4,1015.8,2.3,77,3.6,,11.112,,,270,7.1,11.9,,,,1,,,,,og-post,,,,AAXX 12184 07535 16/// /2706 10074 20036 39842 40158 51023 60012 333 10119 20071=
07535,1999-12-12 19:00:00,6.2,1016.9,2.3,88,4.4,,11.112,,,280,,,,,,,,,,,og-post,,,,AAXX 12194 07535 36/// /2806 10062 20044 39852 40169 53023=
07535,1999-12-12 20:00:00,5.7,1017.5,2.2,93,4.7,,7.408,,,240,,,,,,,,,,,og-post,,,,AAXX 12204 07535 36/// /2404 10057 20047 39857 40175 51022=
07535,1999-12-12 21:00:00,5.6,1018.3,2.3,93,4.6,,11.112,,,260,,,,,,,,,,,og-post,,,,AAXX 12214 07535 36/// /2606 10056 20046 39865 40183 51023=
07535,1999-12-12 22:00:00,5.9,1018.9,1.9,86,3.7,,14.816,,,270,,,,,,,,,,,og-post,,,,AAXX 12224 07535 36/// /2708 10059 20037 39871 40189 53019=
07535,1999-12-12 23:00:00,4.6,1019.9,2.2,92,3.4,,7.408,,,260,,,,,,,,,,,og-post,,,,AAXX 12234 07535 36/// /2604 10046 20034 39879 40199 52022=
07535,1999-12-13 00:00:00,4.9,1020.4,1.9,87,2.9,,7.408,,,270,,,,,,,,,,,og-post,,,,AAXX 13004 07535 36/// /2704 10049 20029 39884 40204 51019=
07535,1999-12-13 01:00:00,4.9,1020.7,1.6,87,2.9,,7.408,,,270,,,,,,,,,,,og-post,,,,AAXX 13014 07535 36/// /2704 10049 20029 39887 40207 51016=
07535,1999-12-13 02:00:00,3.6,1021.3,1.2,94,2.7,,7.408,,,240,,,,,,,,,,,og-post,,,,AAXX 13024 07535 36/// /2404 10036 20027 39891 40213 51012=
07535,1999-12-13 03:00:00,3.6,1021.4,0.8,98,3.3,,7.408,,,220,,,,,,,,,,,og-post,,,,AAXX 13034 07535 36/// /2204 10036 20033 39892 40214 51008=
07535,1999-12-13 04:00:00,4,1021.3,0.5,98,3.7,,3.704,,,220,,,,,,,,,,,og-post,,,,AAXX 13044 07535 36/// /2202 10040 20037 39892 40213 51005=
07535,1999-12-13 05:00:00,4.2,1021.3,0.1,99,4.1,12000,7.408,,,220,,,,,,,,,,,og-post,,,,AAXX 13054 07535 32562 82204 10042 20041 39892 40213 51001 878// 333 83820 86640=
07535,1999-12-13 06:00:00,4.1,1021.6,0.3,99,4,12000,3.704,,,210,3.5,7.5,,,,,1.4,2.9,-1,,og-post,,,,AAXX 13064 07535 32562 82102 10041 20040 39895 40216 53003 878// 333 10075 20035 31101 55029 70014 83820 86640=
07535,1999-12-13 07:00:00,4.3,1021.8,0.5,98,4,12000,7.408,,,210,,,,,,,,,,,og-post,,,,AAXX 13074 07535 32462 72104 10043 20040 39897 40218 53005 878// 333 81710 83820 86646=
07535,1999-12-13 08:00:00,4.6,1021.6,0.3,98,4.3,15000,11.112,,,210,,,,,,,,,,,og-post,,,,AAXX 13084 07535 32565 72106 10046 20043 39895 40216 50003 8783/ 333 81820 84650 86360=
07535,1999-12-13 09:00:00,5.6,1021.3,-0.1,93,4.6,15000,14.816,,,220,,,,,,,,,,,og-post,,,,AAXX 13094 07535 32465 72208 10056 20046 39894 40213 58001 878// 333 83813 86650=
07535,1999-12-13 10:00:00,7.3,1021,-0.4,87,5.3,15000,11.112,,,230,,,,,,,,,,,og-post,,,,AAXX 13104 07535 32465 72306 10073 20053 39893 40210 56004 8783/ 333 83813 84650 85360=
07535,1999-12-13 11:00:00,9.4,1020.6,-0.4,79,5.9,15000,11.112,,,240,,,,,,,,,,,og-post,,,,AAXX 13114 07535 32565 62406 10094 20059 39891 40206 58004 81139 333 81820 84175=
07535,1999-12-13 12:00:00,10.8,1019.2,-1.5,76,6.7,15000,11.112,,,240,,,,,,,,,,,og-post,,,,AAXX 13124 07535 32565 62406 10108 20067 39879 40192 58015 83139 333 83820 85175=
07535,1999-12-13 13:00:00,9.5,1018.7,-2,79,6,15000,11.112,,,240,,,,,,,,,,,og-post,,,,AAXX 13134 07535 32565 72406 10095 20060 39873 40187 58020 878// 333 84820 85650=
07535,1999-12-13 14:00:00,8.7,1018.3,-2.3,85,6.3,15000,11.112,,,240,,,,,,,,,,25,og-post,,,,AAXX 13144 07535 21565 72406 10087 20063 39868 40183 56023 72586 878// 333 69905 84820 86650=
07535,1999-12-13 15:00:00,8.8,1017.7,-1.7,83,6.1,15000,11.112,,,230,,,,,,,,,,2,og-post,,,,AAXX 13154 07535 21565 72306 10088 20061 39862 40177 57017 70286 878// 333 69907 84820 86650=
07535,1999-12-13 16:00:00,8,1017.7,-1.1,91,6.6,13000,14.816,,,230,,,,,,,,,,80,og-post,,,,AAXX 13164 07535 21563 82308 10080 20066 39862 40177 56011 78086 878// 333 69905 84820 87640=
07535,1999-12-13 17:00:00,7.5,1017.3,-1.1,92,6.3,,11.112,,,230,,,,,,,,,,,og-post,,,,AAXX 13174 07535 26/// /2306 10075 20063 39857 40173 56011 333 69905=
07535,1999-12-13 19:00:00,7.6,1016.8,-1,89,5.9,,11.112,,,220,,,,,,,,,,,og-post,,,,AAXX 13194 07535 36/// /2206 10076 20059 39852 40168 56010=
07535,1999-12-13 20:00:00,7.5,1015.9,-1.3,86,5.3,,11.112,,,220,,,,,,,,,,,og-post,,,,AAXX 13204 07535 36/// /2206 10075 20053 39844 40159 58013=
07535,1999-12-13 21:00:00,7.6,1014.9,-2.2,83,4.9,,14.816,,,220,,,,,,,,,,,og-post,,,,AAXX 13214 07535 36/// /2208 10076 20049 39834 40149 58022=
07535,1999-12-13 22:00:00,6.7,1014.4,-2.4,91,5.3,,11.112,,,210,,,0.6,,,,,,,,og-post,,,,AAXX 13224 07535 26/// /2106 10067 20053 39828 40144 56024 333 69965=
07535,1999-12-13 23:00:00,6.5,1013.6,-2.4,92,5.3,,14.816,,,200,,,0.8,,,,,,,,og-post,,,,AAXX 13234 07535 26/// /2008 10065 20053 39820 40136 56024 333 69985=
07535,1999-12-14 00:00:00,6.4,1012.6,-2.4,91,5,,18.52,,,210,,,,2,2,,,,,,og-post,,,,AAXX 14004 07535 /6/// /2110 10064 20050 39810 40126 58024 60021 333 60027=
07535,1999-12-14 01:00:00,6.1,1011.2,-3.2,90,4.6,,18.52,,,210,,,0.4,,,,,,,,og-post,,,,AAXX 14014 07535 26/// /2110 10061 20046 39796 40112 58032 333 69945=
07535,1999-12-14 02:00:00,5.9,1010.6,-3,93,4.9,,14.816,,,210,,,0.4,,,,,,,,og-post,,,,AAXX 14024 07535 26/// /2108 10059 20049 39790 40106 56030 333 69945=
07535,1999-12-14 03:00:00,5.8,1010.2,-2.4,95,5.1,,14.816,,,210,,,,2,,,,,,,og-post,,,,AAXX 14034 07535 26/// /2108 10058 20051 39786 40102 56024 333 60027=
07535,1999-12-14 04:00:00,5.6,1009.3,-1.9,96,5,,11.112,,,210,,,0.6,,,,,,,,og-post,,,,AAXX 14044 07535 26/// /2106 10056 20050 39777 40093 58019 333 69965=
07535,1999-12-14 05:00:00,5.7,1008.5,-2,94,4.8,5000,14.816,,,210,,,,,,,,,,61,og-post,,,,AAXX 14054 07535 21450 82108 10057 20048 39770 40085 58020 76166 875// 333 69905 83710 83620 87640=
07535,1999-12-14 06:00:00,5.7,1007.9,-2.2,93,4.7,5000,18.52,,,210,5.6,7.7,,0.6,,4,4.4,1.4,5,61,og-post,,,,AAXX 14064 07535 /1450 82110 10057 20047 39764 40079 56022 60042 76166 875// 333 10077 20056 32005 55014 69967 70044 83710 83620 87640=
07535,1999-12-14 07:00:00,5.6,1007.7,-1.5,95,4.9,7000,18.52,,,210,,,0.2,,,,,,,61,og-post,,,,AAXX 14074 07535 21457 82110 10056 20049 39762 40077 56015 76166 875// 333 69925 81710 83620 87640=
07535,1999-12-14 08:00:00,5.6,1007.4,-1.1,97,5.2,7000,18.52,,,210,,,,,,,,,,61,og-post,,,,AAXX 14084 07535 21457 82110 10056 20052 39759 40074 56011 76166 875// 333 69905 81710 83620 87640=
07535,1999-12-14 09:00:00,5.9,1006.6,-1.2,96,5.3,10000,14.816,,,200,,,,0.2,,,,,,21,og-post,,,,AAXX 14094 07535 21460 82008 10059 20053 39752 40066 58012 72162 875// 333 69927 81710 85620 87640=
07535,1999-12-14 10:00:00,6.4,1006.5,-1.1,94,5.5,10000,18.52,,,210,,,,,,,,,,,og-post,,,,AAXX 14104 07535 32560 82110 10064 20055 39751 40065 56011 875// 333 85620 87640=
07535,1999-12-14 11:00:00,6.3,1006.5,-0.8,96,5.7,10000,14.816,,,210,,,,,,,,,,60,og-post,,,,AAXX 14114 07535 21560 82108 10063 20057 39751 40065 56008 76062 875// 333 69905 85620 87640=
07535,1999-12-14 12:00:00,6.6,1005.4,-1.1,98,6.3,10000,14.816,,,210,,,,0.2,0.4,,,,,60,og-post,,,,AAXX 14124 07535 /1460 82108 10066 20063 39741 40054 58011 69941 76062 875// 333 69927 86616 87640=
07535,1999-12-14 13:00:00,6.9,1004.5,-1.8,97,6.5,10000,11.112,,,200,,,,,,,,,,60,og-post,,,,AAXX 14134 07535 21460 82006 10069 20065 39733 40045 58018 76066 875// 333 69905 86616 87640=
07535,1999-12-14 14:00:00,7,1004.3,-2,98,6.7,6000,3.704,,,260,,,2,,,,,,,61,og-post,,,,AAXX 14144 07535 21456 82602 10070 20067 39731 40043 56020 76166 875// 333 60025 87616=
07535,1999-12-14 15:00:00,6.9,1005,-0.4,98,6.6,5000,3.704,,,310,,,,3,,,,,,61,og-post,,,,AAXX 14154 07535 21450 83102 10069 20066 39737 40050 55004 76166 875// 333 60037 87616=
07535,1999-12-14 16:00:00,6.7,1005.3,0.7,99,6.6,400,,,,,,,2,,,,,,,61,og-post,,,,AAXX 14164 07535 21204 80000 10067 20066 39740 40053 53007 76166 875// 333 60025 85705 87616=
07535,1999-12-14 17:00:00,6.5,1005.1,0.7,99,6.4,,3.704,,,160,,,1,,,,,,,,og-post,,,,AAXX 14174 07535 26/// /1602 10065 20064 39738 40051 50007 333 60015=
07535,1999-12-14 19:00:00,6.1,1004.9,-0.5,99,6,,3.704,,,300,,,0.6,,,,,,,,og-post,,,,AAXX 14194 07535 26/// /3002 10061 20060 39735 40049 58005 333 69965=
07535,1999-12-14 20:00:00,4.9,1005.5,0.2,96,4.3,,14.816,,,360,,,0.8,,,,,,,,og-post,,,,AAXX 14204 07535 26/// /3608 10049 20043 39740 40055 53002 333 69985=
07535,1999-12-14 21:00:00,4.2,1005.2,-0.3,96,3.6,,3.704,,,100,,,,2,,,,,,,og-post,,,,AAXX 14214 07535 26/// /1002 10042 20036 39736 40052 57003 333 60027=
07535,1999-12-14 22:00:00,4,1004.8,-0.3,96,3.4,,7.408,,,130,,,,,,,,,,,og-post,,,,AAXX 14224 07535 26/// /1304 10040 20034 39732 40048 58003 333 69905=
07535,1999-12-14 23:00:00,3.8,1004.8,-0.8,98,3.5,,3.704,,,40,,,,,,,,,,,og-post,,,,AAXX 14234 07535 26/// /0402 10038 20035 39732 40048 56008 333 69905=
07535,1999-12-15 00:00:00,3.8,1004.8,-0.4,99,3.7,,3.704,,,10,,,,,2,,,,,,og-post,,,,AAXX 15004 07535 /6/// /0102 10038 20037 39732 40048 56004 60021 333 69907=
07535,1999-12-15 01:00:00,3.9,1004.7,-0.1,99,3.8,,3.704,,,320,,,,,,,,,,,og-post,,,,AAXX 15014 07535 26/// /3202 10039 20038 39731 40047 58001 333 69905=
07535,1999-12-15 02:00:00,3.9,1005.2,0.4,99,3.8,,7.408,,,310,,,,,,,,,,,og-post,,,,AAXX 15024 07535 26/// /3104 10039 20038 39736 40052 53004 333 69905=
07535,1999-12-15 03:00:00,3.8,1005.1,0.3,99,3.7,,7.408,,,330,,,,,,,,,,,og-post,,,,AAXX 15034 07535 26/// /3304 10038 20037 39735 40051 52003 333 69907=
07535,1999-12-15 04:00:00,3.2,1005.3,0.5,100,3.2,,7.408,,,310,,,,,,,,,,,og-post,,,,AAXX 15044 07535 26/// /3104 10032 20032 39736 40053 51005 333 69905=
07535,1999-12-15 05:00:00,2.8,1006,0.6,100,2.8,600,7.408,,,320,,,,,,,,,,47,og-post,,,,AAXX 15054 07535 31/06 93204 10028 20028 39742 40060 53006 74742=
07535,1999-12-15 06:00:00,2.5,1006.6,1.3,100,2.5,2000,7.408,,,330,2.4,6.2,,,,2,8.8,,1,28,og-post,,,,AAXX 15064 07535 11120 83304 10025 20025 39748 40066 53013 60022 72842 886// 333 10062 20024 32001 55000 70088 88703=
07535,1999-12-15 07:00:00,2.3,1007.2,1.7,100,2.3,8000,3.704,,,320,,,,,,,,,,,og-post,,,,AAXX 15074 07535 32458 83202 10023 20023 39753 40072 51017 885// 333 88613=
07535,1999-12-15 08:00:00,2.1,1007.7,1.6,100,2.1,1500,3.704,,,320,,,,,,,,,,10,og-post,,,,AAXX 15084 07535 31115 83202 10021 20021 39758 40077 51016 71022 885// 333 83703 87616=
07535,1999-12-15 09:00:00,2.4,1008.4,1.7,100,2.4,2200,7.408,,,330,,,,,,,,,,10,og-post,,,,AAXX 15094 07535 31122 73304 10024 20024 39765 40084 53017 71022 8363/ 333 83703 86360=
07535,1999-12-15 12:00:00,4.8,1009.1,0.9,78,1.3,30000,14.816,,,360,,,,,,,,,,,og-post,,,,AAXX 15124 07535 32480 63608 10048 20013 39774 40091 52009 86200 333 86811=
07535,1999-12-15 13:00:00,5,1009.3,0.8,75,0.9,30000,14.816,,,10,,,,,,,,,,,og-post,,,,AAXX 15134 07535 32480 60108 10050 20009 39777 40093 53008 86200 333 86811=
07535,1999-12-15 14:00:00,4.2,1009.4,0.7,72,-0.4,30000,14.816,,,350,,,,,,,,,,,og-post,,,,AAXX 15144 07535 32480 23508 10042 21004 39777 40094 51007 82200 333 82816=
07535,1999-12-15 15:00:00,4,1010,0.8,73,-0.4,30000,14.816,,,350,,,,,,,,,,,og-post,,,,AAXX 15154 07535 32580 53508 10040 21004 39782 40100 53008 85200 333 82823=
07535,1999-12-15 16:00:00,2.8,1010.7,1.1,81,-0.1,15000,11.112,,,340,,,,,,,,,,27,og-post,,,,AAXX 15164 07535 21565 73406 10028 21001 39788 40107 53011 72787 879// 333 69905 85823 81926 83630=
07535,1999-12-15 18:00:00,1,1012.8,2.4,83,-1.6,,18.52,,,340,1,5.4,,,,,,,,,og-post,,,,AAXX 15184 07535 /6/// /3410 10010 21016 39806 40128 53024 69902 333 10054 20010 69907=
07535,1999-12-15 19:00:00,0.3,1013.5,2.4,88,-1.4,,14.816,,,330,,,,,,,,,,,og-post,,,,AAXX 15194 07535 36/// /3308 10003 21014 39812 40135 51024=
07535,1999-12-15 20:00:00,0,1014.5,2.3,98,-0.3,,14.816,,,330,,,0.2,,,,,,,,og-post,,,,AAXX 15204 07535 26/// /3308 10000 21003 39821 40145 53023 333 69925=
07535,1999-12-15 21:00:00,0,1015.5,2.5,93,-1,,11.112,,,350,,,,0.2,,,,,,,og-post,,,,AAXX 15214 07535 26/// /3506 10000 21010 39831 40155 53025 333 69927=
07535,1999-12-15 22:00:00,0,1016.6,2.9,88,-1.7,,18.52,,,350,,,,,,,,,,,og-post,,,,AAXX 15224 07535 36/// /3510 10000 21017 39841 40166 53029=
07535,1999-12-15 23:00:00,-0.2,1017.4,2.8,84,-2.6,,18.52,,,340,,,,,,,,,,,og-post,,,,AAXX 15234 07535 36/// /3410 11002 21026 39849 40174 51028=
07535,1999-12-16 00:00:00,-0.3,1018.3,2.6,81,-3.2,,14.816,,,350,,,,,0.2,,,,,,og-post,,,,AAXX 16004 07535 16/// /3508 11003 21032 39857 40183 51026 69921=
07535,1999-12-16 01:00:00,-0.6,1018.7,2,81,-3.4,,14.816,,,340,,,,,,,,,,,og-post,,,,AAXX 16014 07535 36/// /3408 11006 21034 39861 40187 51020=
07535,1999-12-16 02:00:00,-1.1,1019.2,1.6,83,-3.6,,14.816,,,330,,,,,,,,,,,og-post,,,,AAXX 16024 07535 36/// /3308 11011 21036 39865 40192 51016=
07535,1999-12-16 03:00:00,-1.3,1019.5,1.1,84,-3.6,,11.112,,,340,,,,,,,,,,,og-post,,,,AAXX 16034 07535 36/// /3406 11013 21036 39868 40195 51011=
07535,1999-12-16 04:00:00,-1.8,1019.9,1,90,-3.2,,11.112,,,330,,,,,,,,,,,og-post,,,,AAXX 16044 07535 36/// /3306 11018 21032 39871 40199 51010=
07535,1999-12-16 05:00:00,-1.4,1020.3,1.1,96,-2,15000,7.408,,,340,,,,,,,,,,,og-post,,,,AAXX 16054 07535 32565 23404 11014 21020 39876 40203 53011 82200 333 82820=
07535,1999-12-16 06:00:00,-0.9,1021.2,1.7,87,-2.8,15000,18.52,,,350,-1.9,1,,,,0.2,0.2,3.6,-4,,og-post,,,,AAXX 16064 07535 12565 33510 11009 21028 39885 40212 53017 69922 83800 333 10010 21019 34104 55036 70002 81820=
07535,1999-12-16 07:00:00,-1.9,1022.3,2.3,89,-3.5,18000,14.816,,,340,,,,,,,,,,,og-post,,,,AAXX 16074 07535 32468 23408 11019 21035 39894 40223 53023 82800 333 81816=
07535,1999-12-16 08:00:00,-1.3,1023.3,2.9,77,-4.8,30000,18.52,,,350,,,,,,,,,,,og-post,,,,AAXX 16084 07535 32480 13510 11013 21048 39905 40233 53029 81100 333 81816=
07535,1999-12-16 09:00:00,-0.5,1024.2,2.9,72,-4.9,35000,22.224,,,360,,,,,,,,,,,og-post,,,,AAXX 16094 07535 32481 13612 11005 21049 39914 40242 52029 81100 333 81816=
07535,1999-12-16 10:00:00,0.1,1024.9,2.8,72,-4.3,35000,18.52,,,350,,,,,,,,,,,og-post,,,,AAXX 16104 07535 32481 13510 10001 21043 39922 40249 51028 81100 333 81816=
07535,1999-12-16 11:00:00,0.7,1024.9,1.7,66,-4.9,35000,22.224,,,360,,,,,,,,,,,og-post,,,,AAXX 16114 07535 32481 13612 10007 21049 39922 40249 51017 81100 333 81816=
07535,1999-12-16 12:00:00,1.5,1024.8,0.8,64,-4.6,,22.224,,,350,,,,,,,,,,,og-post,,,,AAXX 16124 07535 36/// /3512 10015 21046 39922 40248 51008=
07535,1999-12-16 13:00:00,2,1024.7,-0,60,-4.9,35000,25.928,,,350,,,,,,,,,,,og-post,,,,AAXX 16134 07535 32481 23514 10020 21049 39922 40247 54000 82100 333 82816=
07535,1999-12-16 14:00:00,2.3,1024.7,-0,58,-5.1,35000,22.224,,,360,,,,,,,,,,,og-post,,,,AAXX 16144 07535 32481 23612 10023 21051 39922 40247 54000 82100 333 82816=
07535,1999-12-16 15:00:00,2.2,1025.2,0.5,56,-5.6,35000,25.928,,,360,,,,,,,,,,,og-post,,,,AAXX 16154 07535 32481 13614 10022 21056 39927 40252 53005 81100 333 81816=
07535,1999-12-16 16:00:00,1.4,1025.8,1,63,-4.9,35000,22.224,,,360,,,,,,,,,,,og-post,,,,AAXX 16164 07535 32481 13612 10014 21049 39932 40258 53010 81100 333 81816=
07535,1999-12-16 17:00:00,0.6,1026.9,2,69,-4.4,,14.816,,,350,,,,,,,,,,,og-post,,,,AAXX 16174 07535 36/// /3508 10006 21044 39942 40269 53020=
07535,1999-12-16 18:00:00,0.1,1027.7,2.2,73,-4.2,,14.816,,,360,-2,2.5,,,,,,,,,og-post,,,,AAXX 16184 07535 36/// /3608 10001 21042 39949 40277 53022 333 10025 21020=
07535,1999-12-16 19:00:00,-0.6,1028.4,2.3,77,-4.1,,11.112,,,360,,,,,,,,,,,og-post,,,,AAXX 16194 07535 36/// /3606 11006 21041 39955 40284 51023=
07535,1999-12-16 20:00:00,-1.1,1029.1,1.9,80,-4.1,,11.112,,,340,,,,,,,,,,,og-post,,,,AAXX 16204 07535 36/// /3406 11011 21041 39961 40291 51019=
07535,1999-12-16 21:00:00,-1.4,1029.6,1.6,81,-4.2,,11.112,,,360,,,,,,,,,,,og-post,,,,AAXX 16214 07535 36/// /3606 11014 21042 39965 40296 51016=
07535,1999-12-16 22:00:00,-1.9,1029.8,1.2,84,-4.2,,11.112,,,340,,,,,,,,,,,og-post,,,,AAXX 16224 07535 36/// /3406 11019 21042 39967 40298 51012=
07535,1999-12-16 23:00:00,-2.2,1030.3,1,86,-4.2,,11.112,,,350,,,,,,,,,,,og-post,,,,AAXX 16234 07535 36/// /3506 11022 21042 39971 40303 52010=
07535,1999-12-17 00:00:00,-2.7,1030.6,0.9,90,-4.1,,7.408,,,350,,,,,,,,,,,og-post,,,,AAXX 17004 07535 36/// /3504 11027 21041 39974 40306 53009=
07535,1999-12-17 01:00:00,-2.8,1030.6,0.6,91,-4.1,,7.408,,,340,,,,,,,,,,,og-post,,,,AAXX 17014 07535 36/// /3404 11028 21041 39973 40306 50006=
07535,1999-12-17 02:00:00,-3.2,1031.1,0.7,94,-4,,3.704,,,10,,,,,,,,,,,og-post,,,,AAXX 17024 07535 36/// /0102 11032 21040 39978 40311 53007=
07535,1999-12-17 03:00:00,-3.4,1031.2,0.5,97,-3.8,,3.704,,,360,,,,,,,,,,,og-post,,,,AAXX 17034 07535 36/// /3602 11034 21038 39979 40312 53005=
07535,1999-12-17 04:00:00,-3.2,1031.5,0.9,95,-3.9,,3.704,,,10,,,,,,,,,,,og-post,,,,AAXX 17044 07535 36/// /0102 11032 21039 39982 40315 51009=
07535,1999-12-17 05:00:00,-5,1031.8,0.4,95,-5.7,,,,,,,,,,,,,,,,og-post,,,,AAXX 17054 07535 36/// /0000 11050 21057 39982 40318 51004=
07535,1999-12-17 06:00:00,-4.7,1032.1,0.7,98,-5,4000,,,,,-5.9,0,,,,,0,7.5,-9,,og-post,,,,AAXX 17064 07535 33940 30000 11047 21050 39986 40321 53007 80001 333 10000 21059 34109 55075 70000 83075=
07535,1999-12-17 07:00:00,-5,1032.2,0.4,96,-5.5,4000,3.704,,,170,,,,,,,,,,10,og-post,,,,AAXX 17074 07535 31940 61702 11050 21055 39986 40322 52004 71011 81032 333 81363 86075=
07535,1999-12-17 08:00:00,-4.9,1032.4,0.6,96,-5.4,5000,7.408,,,160,,,,,,,,,,,og-post,,,,AAXX 17084 07535 32950 51604 11049 21054 39988 40324 51006 82032 333 82361 84075=
07535,1999-12-17 09:00:00,-1.7,1032.7,0.9,98,-2,7000,3.704,,,270,,,,,,,,,,,og-post,,,,AAXX 17094 07535 32957 72702 11017 21020 39995 40327 53009 80002 333 87075=
07535,1999-12-17 10:00:00,-0.3,1033.3,1.7,98,-0.6,,3.704,,,240,,,,,,,,,,,og-post,,,,AAXX 17104 07535 36/// /2402 11003 21006 30003 40333 53017=
07535,1999-12-17 11:00:00,-0.5,1033.2,,92,-1.6,,3.704,,,230,,,,,,,,,,,og-post,,,,AAXX 17114 07535 36/// /2302 11005 21016 30001 4033250013=
07535,1999-12-17 12:00:00,0.2,1032.5,0.1,92,-0.9,,3.704,,,230,,,,,,,,,,,og-post,,,,AAXX 17124 07535 36/// /2302 10002 21009 39996 40325 50001=
07535,1999-12-17 13:00:00,1.2,1032,-1.1,89,-0.4,9000,3.704,,,250,,,,,,,,,,,og-post,,,,AAXX 17134 07535 32659 82502 10012 21004 39992 40320 58011 84532 333 84640 87075=
07535,1999-12-17 14:00:00,1.5,1031.6,-1.3,87,-0.4,10000,7.408,,,200,,,,,,,,,,,og-post,,,,AAXX 17144 07535 32660 82004 10015 21004 39988 40316 56013 82502 333 82640 87075=
07535,1999-12-17 15:00:00,1.8,1031.1,-1.2,87,-0.1,12000,7.408,,,210,,,,,,,,,,,og-post,,,,AAXX 17154 07535 32662 82104 10018 21001 39984 40311 57012 84532 333 84640 87075=
07535,1999-12-17 16:00:00,1.4,1030.9,-1,88,-0.4,12000,11.112,,,190,,,,,,,,,,,og-post,,,,AAXX 17164 07535 32662 81906 10014 21004 39982 40309 56010 875// 333 87640=
07535,1999-12-17 17:00:00,1.4,1030.8,-0.7,86,-0.7,,11.112,,,180,,,,,,,,,,,og-post,,,,AAXX 17174 07535 36/// /1806 10014 21007 39981 40308 56007=
07535,1999-12-17 18:00:00,1.6,1030.7,-0.4,84,-0.8,,14.816,,,190,-5.1,1.9,,,,,,,,,og-post,,,,AAXX 17184 07535 36/// /1908 10016 21008 39980 40307 56004 333 10019 21051=
07535,1999-12-17 19:00:00,1.3,1030.8,-0.2,90,-0.2,,14.816,,,200,,,,,,,,,,,og-post,,,,AAXX 17194 07535 36/// /2008 10013 21002 39980 40308 56002=
07535,1999-12-17 20:00:00,1.6,1030.4,-0.4,88,-0.2,,18.52,,,200,,,,,,,,,,,og-post,,,,AAXX 17204 07535 36/// /2010 10016 21002 39977 40304 58004=
07535,1999-12-17 21:00:00,1.6,1030.4,-0.3,88,-0.2,,11.112,,,200,,,,,,,,,,,og-post,,,,AAXX 17214 07535 36/// /2006 10016 21002 39977 40304 57003=
07535,1999-12-17 22:00:00,1.9,1029.9,-0.8,90,0.4,,18.52,,,200,,,,,,,,,,,og-post,,,,AAXX 17224 07535 36/// /2010 10019 20004 39972 40299 58008=
07535,1999-12-17 23:00:00,1.9,1030,-0.4,93,0.9,,18.52,,,210,,,0.8,,,,,,,,og-post,,,,AAXX 17234 07535 26/// /2110 10019 20009 39973 40300 55004 333 69985=
07535,1999-12-18 00:00:00,2.4,1029,,96,1.8,,18.52,,,210,,,,2,2,,,,,,og-post,,,,AAXX 18004 07535 /6/// /2110 10024 20018 39964 4029058013 60021 333 60027=
07535,1999-12-18 01:00:00,2.7,1028.5,-1.2,97,2.3,,22.224,,,200,,,0.6,,,,,,,,og-post,,,,AAXX 18014 07535 26/// /2012 10027 20023 39960 40285 58012 333 69965=
07535,1999-12-18 02:00:00,3.1,1027.6,-2.1,98,2.8,,25.928,,,210,,,0.4,,,,,,,,og-post,,,,AAXX 18024 07535 26/// /2114 10031 20028 39952 40276 56021 333 69945=
07535,1999-12-18 03:00:00,3.4,1026.8,-2,98,3.1,,25.928,,,200,,,,2,,,,,,,og-post,,,,AAXX 18034 07535 26/// /2014 10034 20031 39944 40268 58020 333 60027=
07535,1999-12-18 04:00:00,3.5,1026.1,-2.2,98,3.2,,25.928,,,210,,,0.4,,,,,,,,og-post,,,,AAXX 18044 07535 26/// /2114 10035 20032 39938 40261 56022 333 69945=
07535,1999-12-18 05:00:00,3.9,1025.6,-1.9,99,3.8,,18.52,,,210,,,0.2,,,,,,,,og-post,,,,AAXX 18054 07535 26/// /2110 10039 20038 39933 40256 56019 333 69925=
07535,1999-12-18 06:00:00,4.2,1025.3,-1.3,99,4.1,900,18.52,,,210,1.3,4.2,,0.8,,4,4,0.8,1,,og-post,,,,AAXX 18064 07535 /3109 82110 10042 20041 39931 40253 56013 60042 877// 333 10042 20013 31001 55008 69987 70040 87701=
07535,1999-12-18 07:00:00,4.7,1025.6,-0.4,99,4.6,900,14.816,,,210,,,,,,,,,,51,og-post,,,,AAXX 18074 07535 21109 82108 10047 20046 39934 40256 55004 75155 877// 333 69905 87701=
07535,1999-12-18 08:00:00,5.4,1025.5,0.1,99,5.3,900,14.816,,,210,,,0.2,,,,,,,61,og-post,,,,AAXX 18084 07535 21109 82108 10054 20053 39934 40255 53001 76165 877// 333 69925 87701=
07535,1999-12-18 09:00:00,6.2,1025.5,0.4,99,6.1,,14.816,,,220,,,,0.2,,,,,,,og-post,,,,AAXX 18094 07535 26/// /2208 10062 20061 39935 40255 51004 333 69927=
07535,1999-12-18 10:00:00,6.9,1025.6,0.3,99,6.8,900,14.816,,,220,,,0.6,,,,,,,61,og-post,,,,AAXX 18104 07535 21109 82208 10069 20068 39937 40256 53003 76166 877// 333 69965 87701=
07535,1999-12-18 11:00:00,7.9,1025,-0.2,99,7.8,900,14.816,,,220,,,0.6,,,,,,,61,og-post,,,,AAXX 18114 07535 21109 82208 10079 20078 39932 40250 58002 76166 877// 333 69965 87701=
07535,1999-12-18 12:00:00,9,1024.2,-0.9,99,8.9,,11.112,,,230,,,,2,2,,,,,,og-post,,,,AAXX 18124 07535 /6/// /2306 10090 20089 39926 40242 58009 60021 333 60027=
07535,1999-12-18 13:00:00,9.6,1023.6,-1.6,99,9.4,,11.112,,,240,,,1,,,,,,,,og-post,,,,AAXX 18134 07535 26/// /2406 10096 20094 39921 40236 57016 333 60015=
07535,1999-12-18 14:00:00,10,1023.4,-1.3,99,9.8,,11.112,,,250,,,0.8,,,,,,,,og-post,,,,AAXX 18144 07535 26/// /2506 10100 20098 39919 40234 56013 333 69985=
07535,1999-12-18 15:00:00,10.3,1023.1,-0.9,99,10.1,,11.112,,,260,,,,4,,,,,,,og-post,,,,AAXX 18154 07535 26/// /2606 10103 20101 39917 40231 56009 333 60047=
07535,1999-12-18 16:00:00,10.3,1023.1,-0.4,99,10.1,,11.112,,,260,,,0.8,,,,,,,,og-post,,,,AAXX 18164 07535 26/// /2606 10103 20101 39917 40231 56004 333 69985=
07535,1999-12-18 17:00:00,10.3,1023.4,0.1,99,10.1,,11.112,,,260,,,0.6,,,,,,,,og-post,,,,AAXX 18174 07535 26/// /2606 10103 20101 39920 40234 53001 333 69965=
07535,1999-12-18 18:00:00,10.3,1023.5,0.4,99,10.1,,11.112,,,260,4.2,10.4,,2,,8,,,,,og-post,,,,AAXX 18184 07535 /6/// /2606 10103 20101 39921 40235 53004 60082 333 10104 20042 60027=
07535,1999-12-18 19:00:00,10.4,1023.3,0.2,99,10.2,,7.408,,,260,,,,,,,,,,,og-post,,,,AAXX 18194 07535 26/// /2604 10104 20102 39919 40233 50002 333 69905=
07535,1999-12-18 20:00:00,10.5,1023.4,-0,99,10.3,,11.112,,,270,,,0.2,,,,,,,,og-post,,,,AAXX 18204 07535 26/// /2706 10105 20103 39920 40234 54000 333 69925=
07535,1999-12-18 21:00:00,10.5,1023.1,-0.4,100,10.5,,11.112,,,270,,,,0.6,,,,,,,og-post,,,,AAXX 18214 07535 26/// /2706 10105 20105 39917 40231 58004 33 69967=
07535,1999-12-18 22:00:00,10.5,1022.9,-0.4,99,10.3,,11.112,,,270,,,0.2,,,,,,,,og-post,,,,AAXX 18224 07535 26/// /2706 10105 20103 39915 40229 58004 333 69925=
07535,1999-12-18 23:00:00,10.4,1022.8,-0.6,99,10.2,,11.112,,,280,,,0.2,,,,,,,,og-post,,,,AAXX 18234 07535 26/// /2806 10104 20102 39914 40228 56006 333 69925=
07535,1999-12-19 00:00:00,10.2,1022.4,-0.7,99,10,,14.816,,,280,,,,0.6,1,,,,,,og-post,,,,AAXX 19004 07535 /6/// /2808 10102 20100 39910 40224 58007 60011 333 69967=
07535,1999-12-19 01:00:00,9.9,1021.7,-1.2,99,9.7,,11.112,,,270,,,,,,,,,,,og-post,,,,AAXX 19014 07535 36/// /2706 10099 20097 39903 40217 58012=
07535,1999-12-19 02:00:00,9.7,1021.3,-1.5,97,9.2,,11.112,,,270,,,,,,,,,,,og-post,,,,AAXX 19024 07535 36/// /2706 10097 20092 39899 40213 57015=
07535,1999-12-19 03:00:00,9.6,1020.7,-1.7,95,8.8,,11.112,,,260,,,,,,,,,,,og-post,,,,AAXX 19034 07535 36/// /2606 10096 20088 39893 40207 56017=
07535,1999-12-19 04:00:00,9.6,1019.7,-2,94,8.7,,11.112,,,260,,,,,,,,,,,og-post,,,,AAXX 19044 07535 36/// /2606 10096 20087 39883 40197 58020=
07535,1999-12-19 05:00:00,9.5,1018.6,-2.7,95,8.7,,11.112,,,250,,,,,,,,,,,og-post,,,,AAXX 19054 07535 36/// /2506 10095 20087 39872 40186 58027=
07535,1999-12-19 06:00:00,9.4,1017.7,-3,97,8.9,,11.112,,,240,9.4,10.5,,0.2,,1,,,9,,og-post,,,,AAXX 19064 07535 /6/// /2406 10094 20089 39863 40177 56030 60012 333 10105 20094 3/009 55000 69927 70094=
07535,1999-12-19 07:00:00,8.9,1017.1,-2.6,98,8.6,2000,14.816,,,240,,,0.4,,,,,,,61,og-post,,,,AAXX 19074 07535 21120 82408 10089 20086 39857 40171 56026 76166 887// 333 69945 84701 87630=
07535,1999-12-19 08:00:00,8.8,1016.4,-2.2,98,8.5,7000,14.816,,,240,,,0.4,,,,,,,61,og-post,,,,AAXX 19084 07535 21457 82408 10088 20085 39850 40164 56022 76166 877// 333 69945 87810=
07535,1999-12-19 09:00:00,8.9,1016.2,-1.5,99,8.8,,11.112,,,240,,,,2,,,,,,,og-post,,,,AAXX 19094 07535 26/// /2406 10089 20088 39848 40162 56015 333 60027=
07535,1999-12-19 10:00:00,9,1015.9,-1.2,99,8.9,10000,11.112,,,250,,,,,,,,,,51,og-post,,,,AAXX 19104 07535 21360 82506 10090 20089 39845 40159 56012 75165 877// 333 69905 87706=
07535,1999-12-19 11:00:00,9.4,1015.2,-1.1,99,9.2,3000,11.112,,,250,,,,,,,,,,51,og-post,,,,AAXX 19114 07535 21230 82506 10094 20092 39839 40152 58011 75155 877// 333 69905 87705=
07535,1999-12-19 12:00:00,9.8,1014.3,-1.7,99,9.6,,7.408,,,260,,,,0.2,2,,,,,,og-post,,,,AAXX 19124 07535 /6/// /2604 10098 20096 39831 40143 58017 60021 333 69927=
07535,1999-12-19 13:00:00,10.5,1013.7,-1.9,99,10.3,,7.408,,,260,,,,,,,,,,,og-post,,,,AAXX 19134 07535 26/// /2604 10105 20103 39826 40137 56019 333 69905=
07535,1999-12-19 14:00:00,10.6,1013.2,-1.8,98,10.3,,7.408,,,270,,,,,,,,,,,og-post,,,,AAXX 19144 07535 26/// /2704 10106 20103 39821 40132 56018 333 69905=
07535,1999-12-19 15:00:00,10.8,1013.1,-1.1,99,10.6,,3.704,,,290,,,,1,,,,,,,og-post,,,,AAXX 19154 07535 26/// /2902 10108 20106 39820 40131 56011 333 60017=
07535,1999-12-19 16:00:00,10.5,1013.2,-0.5,99,10.3,,7.408,,,310,,,,,,,,,,,og-post,,,,AAXX 19164 07535 26/// /3104 10105 20103 39821 40132 55005 333 69905=
07535,1999-12-19 17:00:00,10.3,1013.7,0.5,99,10.1,,11.112,,,320,,,,,,,,,,,og-post,,,,AAXX 19174 07535 26/// /3206 10103 20101 39826 40137 53005 333 69905=
07535,1999-12-19 18:00:00,10,1014.3,1.1,99,9.8,,7.408,,,310,8.8,10.8,,,,3,,,,,og-post,,,,AAXX 19184 07535 /6/// /3104 10100 20098 39831 40143 53011 60032 333 10108 20088 69907=
07535,1999-12-19 19:00:00,9.6,1015.1,1.7,98,9.3,,11.112,,,350,,,,,,,,,,,og-post,,,,AAXX 19194 07535 26/// /3506 10096 20093 39838 40151 53017 333 69905=
07535,1999-12-19 20:00:00,7.3,1016.4,2.2,92,6.1,,18.52,,,350,,,,,,,,,,,og-post,,,,AAXX 19204 07535 26/// /3510 10073 20061 39848 40164 53022 333 69905=
07535,1999-12-19 21:00:00,5.8,1017.4,2.5,88,4,,18.52,,,360,,,,,,,,,,,og-post,,,,AAXX 19214 07535 26/// /3610 10058 20040 39856 40174 53025 333 69907=
07535,1999-12-19 22:00:00,3.5,1018.5,2.6,83,0.9,,22.224,,,20,,,,,,,,,,,og-post,,,,AAXX 19224 07535 26/// /0212 10035 20009 39864 40185 51026 333 69905=
07535,1999-12-19 23:00:00,1.9,1019.7,2.6,81,-1,,18.52,,,20,,,,,,,,,,,og-post,,,,AAXX 19234 07535 26/// /0210 10019 21010 39874 40197 53026 333 69905=
07535,1999-12-20 00:00:00,0.8,1020.4,2.3,85,-1.4,,14.816,,,20,,,,,,,,,,,og-post,,,,AAXX 20004 07535 /6/// /0208 10008 21014 39879 40204 51023 69901 333 69907=
07535,1999-12-20 01:00:00,-0.1,1021,2,85,-2.3,,11.112,,,360,,,,,,,,,,,og-post,,,,AAXX 20014 07535 36/// /3606 11001 21023 39884 40210 51020=
07535,1999-12-20 02:00:00,-0.6,1021.7,1.6,85,-2.8,,14.816,,,10,,,,,,,,,,,og-post,,,,AAXX 20024 07535 36/// /0108 11006 21028 39890 40217 53016=
07535,1999-12-20 03:00:00,-1.1,1021.9,1.2,86,-3.1,,11.112,,,340,,,,,,,,,,,og-post,,,,AAXX 20034 07535 36/// /3406 11011 21031 39891 40219 51012=
07535,1999-12-20 04:00:00,-1.6,1022.3,1.1,87,-3.5,,11.112,,,340,,,,,,,,,,,og-post,,,,AAXX 20044 07535 36/// /3406 11016 21035 39895 40223 51011=
07535,1999-12-20 05:00:00,-1.8,1022.8,0.9,89,-3.4,15000,11.112,,,350,,,,,,,,,,,og-post,,,,AAXX 20054 07535 32965 03506 11018 21034 39899 40228 53009=
07535,1999-12-20 06:00:00,-2.1,1023.3,1.3,86,-4.1,15000,11.112,,,350,-2.2,10,,,,,,,-5,,og-post,,,,AAXX 20064 07535 32965 03506 11021 21041 39904 40233 53013 333 10100 21022 34105 55000 70034=
07535,1999-12-20 07:00:00,-2.5,1024.3,1.8,81,-5.3,20000,7.408,,,360,,,,,,,,,,,og-post,,,,AAXX 20074 07535 32970 03604 11025 21053 39913 40243 53018=
07535,1999-12-20 08:00:00,-2.3,1025.1,2.2,76,-5.9,20000,7.408,,,360,,,,,,,,,,,og-post,,,,AAXX 20084 07535 32970 03604 11023 21059 39921 40251 53022=
07535,1999-12-20 09:00:00,-1.3,1025.8,2.5,74,-5.3,25000,7.408,,,330,,,,,,,,,,,og-post,,,,AAXX 20094 07535 32975 03304 11013 21053 39929 40258 51025=
07535,1999-12-20 10:00:00,0.1,1026.4,2.3,71,-4.5,25000,11.112,,,360,,,,,,,,,,,og-post,,,,AAXX 20104 07535 32975 03606 10001 21045 39936 40264 51023=
07535,1999-12-20 11:00:00,1.3,1026.3,1.6,63,-5,,14.816,,,20,,,,,,,,,,,og-post,,,,AAXX 20114 07535 36/// /0208 10013 21050 39937 40263 51016=
07535,1999-12-20 12:00:00,2.1,1025.8,0.4,63,-4.2,25000,14.816,,,20,,,,,,,,,,,og-post,,,,AAXX 20124 07535 32975 00208 10021 21042 39933 40258 50004=
07535,1999-12-20 13:00:00,2.6,1025.8,-0.3,53,-6,30000,14.816,,,10,,,,,,,,,,,og-post,,,,AAXX 20134 07535 32980 00108 10026 21060 39933 40258 58003=
07535,1999-12-20 14:00:00,2.4,1025.6,-0.6,54,-5.9,30000,14.816,,,10,,,,,,,,,,,og-post,,,,AAXX 20144 07535 32980 00108 10024 21059 39931 40256 56006=
07535,1999-12-20 15:00:00,2.2,1025.9,0.1,55,-5.9,30000,11.112,,,10,,,,,,,,,,,og-post,,,,AAXX 20154 07535 32980 00106 10022 21059 39934 40259 53001=
07535,1999-12-20 16:00:00,1.5,1026.4,0.5,59,-5.6,30000,11.112,,,350,,,,,,,,,,,og-post,,,,AAXX 20164 07535 32980 03506 10015 21056 39938 40264 53005=
07535,1999-12-20 17:00:00,0.6,1026.7,0.9,62,-5.8,,7.408,,,350,,,,,,,,,,,og-post,,,,AAXX 20174 07535 36/// /3504 10006 21058 39940 40267 51009=
07535,1999-12-20 18:00:00,-1,1027.1,0.8,72,-5.4,,,,,,-2.6,2.9,,,,,,,,,og-post,,,,AAXX 20184 07535 36/// /0000 11010 21054 39942 40271 51008 333 10029 21026=
07535,1999-12-20 19:00:00,-1.5,1027.5,0.7,75,-5.3,,3.704,,,330,,,,,,,,,,,og-post,,,,AAXX 20194 07535 36/// /3302 11015 21053 39945 40275 53007=
07535,1999-12-20 20:00:00,-3.4,1027.9,0.7,92,-4.5,,,,,,,,,,,,,,,,og-post,,,,AAXX 20204 07535 36/// /0000 11034 21045 39947 40279 52007=
07535,1999-12-20 21:00:00,-2.6,1027.8,0.5,78,-5.9,,11.112,,,50,,,,,,,,,,,og-post,,,,AAXX 20214 07535 36/// /0506 11026 21059 39947 40278 51005=
07535,1999-12-20 22:00:00,-2.8,1028.1,0.4,77,-6.3,,7.408,,,60,,,,,,,,,,,og-post,,,,AAXX 20224 07535 36/// /0604 11028 21063 39949 40281 52004=
07535,1999-12-20 23:00:00,-4.5,1028.3,0.2,88,-6.2,,7.408,,,120,,,,,,,,,,,og-post,,,,AAXX 20234 07535 36/// /1204 11045 21062 39949 40283 52002=
07535,1999-12-21 00:00:00,-4.2,1028.5,0.4,84,-6.5,,3.704,,,80,,,,,,,,,,,og-post,,,,AAXX 21004 07535 36/// /0802 11042 21065 39951 40285 52004=
07535,1999-12-21 01:00:00,-5.7,1028.3,-0.1,92,-6.8,,7.408,,,130,,,,,,,,,,,og-post,,,,AAXX 21014 07535 36/// /1304 11057 21068 39948 40283 58001=
07535,1999-12-21 02:00:00,-5.4,1028,-0.4,90,-6.8,,11.112,,,110,,,,,,,,,,,og-post,,,,AAXX 21024 07535 36/// /1106 11054 21068 39945 40280 58004=
07535,1999-12-21 03:00:00,-4.9,1027.6,-0.9,84,-7.2,,7.408,,,130,,,,,,,,,,,og-post,,,,AAXX 21034 07535 36/// /1304 11049 21072 39942 40276 57009=
07535,1999-12-21 04:00:00,-5.6,1027.8,-0.5,90,-7,,3.704,,,100,,,,,,,,,,,og-post,,,,AAXX 21044 07535 36/// /1002 11056 21070 39943 40278 55005=
07535,1999-12-21 05:00:00,-4.9,1027.8,-0.1,88,-6.6,15000,,,,,,,,,,,,,,,og-post,,,,AAXX 21054 07535 32965 70000 11049 21066 39944 40278 55001 85032 333 85359 83075=
07535,1999-12-21 06:00:00,-2.8,1028,0.6,76,-6.4,15000,3.704,,,100,-5.9,-1.1,,,,,0,8.4,-11,,og-post,,,,AAXX 21064 07535 32965 71002 11028 21064 39948 40280 53006 85032 333 11011 21059 34111 55084 70000 85359 83075=
07535,1999-12-21 08:00:00,-2.9,1028,0.4,80,-5.9,15000,7.408,,,130,,,,,,,,,,,og-post,,,,AAXX 21084 07535 32965 71304 11029 21059 39948 40280 51004 86032 333 86360 83075=
07535,1999-12-21 09:00:00,-2.8,1028.3,0.3,87,-4.7,15000,,,,,,,,,,,,,,,og-post,,,,AAXX 21094 07535 32965 70000 11028 21047 39951 40283 53003 86032 333 86360 83075=
07535,1999-12-21 11:00:00,-0.3,1027.6,-0.1,81,-3.2,25000,3.704,,,330,,,,,,,,,,,og-post,,,,AAXX 21114 07535 32975 23302 11003 21032 39947 40276 58001 81032 333 81360=
07535,1999-12-21 12:00:00,1.6,1026.7,-1,74,-2.5,25000,3.704,,,340,,,,,,,,,,,og-post,,,,AAXX 21124 07535 32975 43402 10016 21025 39941 40267 58010 81032 333 81360 83075=
07535,1999-12-21 13:00:00,3.5,1026,-1.2,67,-2,25000,7.408,,,340,,,,,,,,,,,og-post,,,,AAXX 21134 07535 32975 33404 10035 21020 39936 40260 58012 81032 333 81360 83075=
07535,1999-12-21 14:00:00,4.4,1025.8,-1.1,66,-1.4,25000,3.704,,,340,,,,,,,,,,,og-post,,,,AAXX 21144 07535 32975 33402 10044 21014 39936 40258 56011 81032 333 81360 83075=
07535,1999-12-21 15:00:00,4,1026.3,-0.1,64,-2.2,25000,7.408,,,20,,,,,,,,,,,og-post,,,,AAXX 21154 07535 32975 60204 10040 21022 39940 40263 55001 80009 333 86175=
07535,1999-12-21 17:00:00,1.7,1027.1,0.9,81,-1.2,,7.408,,,140,,,,,,,,,,,og-post,,,,AAXX 21174 07535 36/// /1404 10017 21012 39945 40271 51009=
07535,1999-12-21 18:00:00,1.7,1027.5,0.9,78,-1.7,,7.408,,,120,-3.3,4.4,,,,,,,,,og-post,,,,AAXX 21184 07535 36/// /1204 10017 21017 39949 40275 53009 333 10044 21033=
07535,1999-12-21 20:00:00,2.2,1027.7,0.6,68,-3.1,,3.704,,,110,,,,,,,,,,,og-post,,,,AAXX 21204 07535 36/// /1102 10022 21031 39951 40277 51006=
07535,1999-12-21 21:00:00,2.2,1,0.2,66,-3.5,,7.408,,,140,,,,,,,,,,,og-post,,,,AAXX 21214 07535 36/// /1404 10022 21035 3995140277 51002=
07535,1999-12-22 01:00:00,1,1028.3,0.4,70,-3.8,,3.704,,,110,,,,,,,,,,,og-post,,,,AAXX 22014 07535 36/// /1102 10010 21038 39956 40283 51004=
07535,1999-12-22 02:00:00,-0.1,1028.2,-0.3,75,-4,,11.112,,,130,,,,,,,,,,,og-post,,,,AAXX 22024 07535 36/// /1306 11001 21040 39953 40282 58003=
07535,1999-12-22 03:00:00,0.9,1028.3,-0,64,-5.1,,3.704,,,100,,,,,,,,,,,og-post,,,,AAXX 22034 07535 36/// /1002 10009 21051 39956 40283 55000=
07535,1999-12-22 04:00:00,-0.4,1028.1,-0.4,74,-4.5,,,,,,,,,,,,,,,,og-post,,,,AAXX 22044 07535 36/// /0000 11004 21045 39952 40281 58004=
07535,1999-12-22 05:00:00,-0.8,1028.1,-0.1,76,-4.5,,7.408,,,140,,,,,,,,,,,og-post,,,,AAXX 22054 07535 36/// /1404 11008 21045 39952 40281 58001=
07535,1999-12-22 06:00:00,-0.9,1028.2,-0.4,76,-4.6,,11.112,,,130,-1.3,2.5,,,,,,4.9,-6,,og-post,,,,AAXX 22064 07535 36/// /1306 11009 21046 39952 40282 56004 333 10025 21013 3/106 55049 70000=
07535,1999-12-22 07:00:00,0.1,1028.2,0.2,61,-6.5,20000,3.704,,,140,,,,,,,,,,,og-post,,,,AAXX 22074 07535 32970 41402 10001 21065 39954 40282 53002 80001 333 84075=
07535,1999-12-22 08:00:00,0.3,1028.1,0.1,69,-4.7,25000,7.408,,,140,,,,,,,,,,,og-post,,,,AAXX 22084 07535 32975 41404 10003 21047 39953 40281 50001 80001 333 84075=
07535,1999-12-22 09:00:00,1.5,1028.6,0.7,67,-3.9,30000,,,,,,,,,,,,,,,og-post,,,,AAXX 22094 07535 32980 40000 10015 21039 39959 40286 53007 80001 333 84075=
07535,1999-12-22 10:00:00,5.3,1028.1,0.5,55,-3,30000,3.704,,,170,,,,,,,,,,,og-post,,,,AAXX 22104 07535 32980 41702 10053 21030 39959 40281 53005 80001 333 84075=
07535,1999-12-22 11:00:00,7.3,1027.6,0.3,51,-2.2,30000,7.408,,,170,,,,,,,,,,,og-post,,,,AAXX 22114 07535 32980 51704 10073 21022 39956 40276 50003 80001 333 85075=
07535,1999-12-22 12:00:00,7.6,1026.8,-1,55,-0.8,,3.704,,,300,,,,,,,,,,,og-post,,,,AAXX 22124 07535 36/// /3002 10076 21008 39949 40268 58010=
07535,1999-12-22 13:00:00,10.6,1025.4,-2.1,31,-5.8,,14.816,,,140,,,,,,,,,,,og-post,,,,AAXX 22134 07535 36/// /1408 10106 21058 39938 40254 58021=
07535,1999-12-22 14:00:00,10.6,1024.8,-2.3,30,-6.2,30000,14.816,,,180,,,,,,,,,,,og-post,,,,AAXX 22144 07535 32980 41808 10106 21062 39933 40248 56023 80001 333 84075=
07535,1999-12-22 15:00:00,10.5,1025.2,-1.3,34,-4.7,,,,,,,,,,,,,,,,og-post,,,,AAXX 22154 07535 36/// /0000 10105 21047 39936 40252 55013=
07535,1999-12-22 16:00:00,8.5,1025,-0.6,39,-4.6,,11.112,,,150,,,,,,,,,,,og-post,,,,AAXX 22164 07535 36/// /1506 10085 21046 39932 40250 56006=
07535,1999-12-22 17:00:00,7.4,1025,-0.2,45,-3.7,,11.112,,,140,,,,,,,,,,,og-post,,,,AAXX 22174 07535 36/// /1406 10074 21037 39931 40250 58002=
07535,1999-12-22 18:00:00,6.3,1025.2,-0.4,51,-3.1,,7.408,,,150,-1,11,,,,,,,,,og-post,,,,AAXX 22184 07535 36/// /1504 10063 21031 39932 40252 55004 333 10110 21010=
07535,1999-12-22 19:00:00,6.6,1025,-0.2,50,-3.1,,14.816,,,180,,,,,,,,,,,og-post,,,,AAXX 22194 07535 36/// /1808 10066 21031 39930 40250 58002=
07535,1999-12-22 20:00:00,6.3,1024.7,-0.4,46,-4.4,,14.816,,,160,,,,,,,,,,,og-post,,,,AAXX 22204 07535 36/// /1608 10063 21044 39927 40247 58004=
07535,1999-12-22 21:00:00,6,1024.6,-0.6,45,-5,,18.52,,,170,,,,,,,,,,,og-post,,,,AAXX 22214 07535 36/// /1710 10060 21050 39926 40246 56006=
07535,1999-12-22 22:00:00,5.7,1024.5,-0.6,50,-3.9,,18.52,,,170,,,,,,,,,,,og-post,,,,AAXX 22224 07535 36/// /1710 10057 21039 39924 40245 56006=
07535,1999-12-22 23:00:00,5.2,1024.7,-0.1,63,-1.3,,11.112,,,150,,,,,,,,,,,og-post,,,,AAXX 22234 07535 36/// /1506 10052 21013 39926 40247 55001=
07535,1999-12-23 00:00:00,4.9,1025.3,0.5,63,-1.5,,3.704,,,180,,,,,,,,,,,og-post,,,,AAXX 23004 07535 36/// /1802 10049 21015 39931 40253 53005=
07535,1999-12-23 01:00:00,3.5,1025.9,1.1,65,-2.4,,3.704,,,140,,,,,,,,,,,og-post,,,,AAXX 23014 07535 36/// /1402 10035 21024 39935 40259 53011=
07535,1999-12-23 02:00:00,2.7,1026.3,1.2,75,-1.3,,11.112,,,150,,,,,,,,,,,og-post,,,,AAXX 23024 07535 36/// /1506 10027 21013 39938 40263 51012=
07535,1999-12-23 03:00:00,4.3,1026.8,1.4,76,0.5,,11.112,,,160,,,,,,,,,,,og-post,,,,AAXX 23034 07535 36/// /1606 10043 20005 39945 40268 53014=
07535,1999-12-23 04:00:00,3.9,1026.8,1,80,0.8,,14.816,,,160,,,,,,,,,,,og-post,,,,AAXX 23044 07535 36/// /1608 10039 20008 39945 40268 51010=
07535,1999-12-23 06:00:00,7,1027.1,0.6,76,3.1,,14.816,,,180,2,7,,,,,,7.1,-3,,og-post,,,,AAXX 23064 07535 36/// /1808 10070 20031 39951 40271 53006 333 10070 20020 3/103 55071 70000=
07535,1999-12-23 07:00:00,7,1027.5,1,78,3.4,15000,14.816,,,180,,,,,,,,,,,og-post,,,,AAXX 23074 07535 32665 81808 10070 20034 39955 40275 53010 8457/ 333 84633 87361=
07535,1999-12-23 08:00:00,7.1,1027.3,0.5,80,3.9,13000,14.816,,,180,,,,,,,,,,,og-post,,,,AAXX 23084 07535 32663 81808 10071 20039 39953 40273 50005 875// 333 87633=
07535,1999-12-23 09:00:00,6.9,1028,0.9,86,4.7,14000,11.112,,,190,,,,,,,,,,61,og-post,,,,AAXX 23094 07535 21664 81906 10069 20047 39960 40280 53009 76162 875// 333 69907 87633=
07535,1999-12-23 10:00:00,7.6,1028.4,1,85,5.2,14000,11.112,,,180,,,,,,,,,,21,og-post,,,,AAXX 23104 07535 21664 71806 10076 20052 39965 40284 53010 72162 8653/ 333 69905 86633 84361=
07535,1999-12-23 11:00:00,8.3,1028,0.9,83,5.6,15000,14.816,,,180,,,,,,,,,,,og-post,,,,AAXX 23114 07535 32665 71808 10083 20056 39962 40280 50009 8357/ 333 83636 85361=
07535,1999-12-23 12:00:00,9,1027.5,-0.2,79,5.6,,7.408,,,190,,,,,,,,,,,og-post,,,,AAXX 23124 07535 /6/// /1904 10090 20056 39958 40275 58002 69901 333 69907=
07535,1999-12-23 13:00:00,8.7,1027.2,-1.1,80,5.4,14000,7.408,,,210,,,,,,,,,,,og-post,,,,AAXX 23134 07535 32664 82104 10087 20054 39954 40272 58011 8557/ 333 85640 87361=
07535,1999-12-23 14:00:00,7.9,1026.6,-1.4,92,6.7,14000,3.704,,,160,,,,,,,,,,21,og-post,,,,AAXX 23144 07535 21664 81602 10079 20067 39948 40266 58014 72162 8457/ 333 69905 84640 87361=
07535,1999-12-23 15:00:00,8.5,1026.6,-1,84,6,14000,,,,,,,,,,,,,,1,og-post,,,,AAXX 23154 07535 21664 80000 10085 20060 39948 40266 56010 70162 81572 333 69907 81640 87361=
07535,1999-12-23 16:00:00,8.2,1026.5,-0.7,84,5.7,14000,7.408,,,170,,,,,,,,,,,og-post,,,,AAXX 23164 07535 32664 81704 10082 20057 39947 40265 56007 8157/ 333 81640 87360=
07535,1999-12-23 17:00:00,7.9,1026.3,-0.3,86,5.7,,7.408,,,190,,,,,,,,,,,og-post,,,,AAXX 23174 07535 36/// /1904 10079 20057 39945 40263 58003=
07535,1999-12-23 20:00:00,7.7,1026,-0.3,94,6.8,,11.112,,,190,,,,,,,,,,,og-post,,,,AAXX 23204 07535 36/// /1906 10077 20068 39942 40260 58003=
07535,1999-12-23 21:00:00,8,1026,-0.5,94,7.1,,11.112,,,190,,,,,,,,,,,og-post,,,,AAXX 23214 07535 36/// /1906 10080 20071 39942 40260 56005=
07535,1999-12-23 22:00:00,8,1025.4,-1,95,7.2,,14.816,,,200,,,0.2,,,,,,,,og-post,,,,AAXX 23224 07535 26/// /2008 10080 20072 39936 40254 58010 333 69925=
07535,1999-12-23 23:00:00,7.9,1024.9,-1.1,95,7.1,,14.816,,,180,,,,,,,,,,,og-post,,,,AAXX 23234 07535 36/// /1808 10079 20071 39931 40249 58011=
07535,1999-12-24 00:00:00,7.8,1024.6,-1.4,93,6.7,,14.816,,,190,,,,0.2,0.2,,,,,,og-post,,,,AAXX 24004 07535 /6/// /1908 10078 20067 39928 40246 56014 69921 333 69927=
07535,1999-12-24 05:00:00,6.7,1023.7,-0.6,93,5.6,6000,14.816,,,190,,,,,,,,,,,og-post,,,,AAXX 24054 07535 32456 51908 10067 20056 39918 40237 58006 85800 333 81813 85650=
07535,1999-12-24 06:00:00,5.9,1023.8,-0.8,95,5.2,4000,18.52,,,190,5.9,8.1,,,,0.2,0.2,,3,10,og-post,,,,AAXX 24064 07535 11740 31910 10059 20052 39918 40238 56008 69922 71011 83500 333 10081 20059 31003 55000 70002 83650=
07535,1999-12-24 07:00:00,5.8,1023.9,-0.5,96,5.2,2500,18.52,,,190,,,,,,,,,,10,og-post,,,,AAXX 24074 07535 31725 31910 10058 20052 39919 40239 55005 71000 83500 333 83650=
07535,1999-12-24 08:00:00,5.5,1024,0.2,97,5.1,3500,22.224,,,200,,,,,,,,,,10,og-post,,,,AAXX 24084 07535 31335 72012 10055 20051 39920 40240 53002 71011 876// 333 86708 83650=
07535,1999-12-24 09:00:00,5.7,1024.1,0.3,95,5,5000,14.816,,,190,,,,,,,,,,,og-post,,,,AAXX 24094 07535 32350 41908 10057 20050 39921 40241 52003 83601 333 83708=
07535,1999-12-24 10:00:00,6.7,1023.7,-0.1,91,5.3,5000,14.816,,,170,,,,,,,,,,,og-post,,,,AAXX 24104 07535 32350 41708 10067 20053 39918 40237 58001 83601 333 83708=
07535,1999-12-24 11:00:00,8.3,1023.6,-0.1,83,5.6,10000,14.816,,,200,,,,,,,,,,,og-post,,,,AAXX 24114 07535 32360 62008 10083 20056 39919 40236 57001 82604 333 82708 86073=
07535,1999-12-24 12:00:00,8.4,1022.9,-0.9,84,5.9,10000,14.816,,,180,,,,,,,,,,,og-post,,,,AAXX 24124 07535 32960 61808 10084 20059 39912 40229 58009 80002 333 86073=
07535,1999-12-24 13:00:00,8.8,1021.4,-2,81,5.7,12000,14.816,,,190,,,,,,,,,,,og-post,,,,AAXX 24134 07535 32962 71908 10088 20057 39898 40214 58020 80002 333 87073=
07535,1999-12-24 14:00:00,8.9,1021,-2.4,81,5.8,15000,14.816,,,200,,,,,,,,,,,og-post,,,,AAXX 24144 07535 32965 72008 10089 20058 39895 40210 56024 83032 333 83361 87073=
07535,1999-12-24 15:00:00,9,1020.3,-2.4,80,5.7,15000,14.816,,,180,,,,,,,,,,,og-post,,,,AAXX 24154 07535 32965 71808 10090 20057 39888 40203 56024 85032 333 85361 87073=
07535,1999-12-24 16:00:00,9.3,1020.9,-0.4,79,5.9,15000,11.112,,,180,,,,,,,,,,,og-post,,,,AAXX 24164 07535 32965 71806 10093 20059 39894 40209 55004 85032 333 85361 87073=
07535,1999-12-24 17:00:00,9.3,1019.6,-1.4,81,6.2,,18.52,,,180,,,,,,,,,,,og-post,,,,AAXX 24174 07535 36/// /1810 10093 20062 39881 40196 58014=
07535,1999-12-24 18:00:00,8.3,1019.5,-0.9,85,5.9,,18.52,,,200,5.5,9.4,,,,,,,,,og-post,,,,AAXX 24184 07535 36/// /2010 10083 20059 39879 40195 58009 333 10094 20055=
07535,1999-12-24 19:00:00,8.3,1,-1.6,88,6.4,,14.816,,,200,,,,,,,,,,,og-post,,,,AAXX 24194 07535 36/// /2008 10083 20064 3987840194 56016=
07535,1999-12-24 20:00:00,7.9,1017.8,-1.9,90,6.4,,22.224,,,190,,,,,,,,,,,og-post,,,,AAXX 24204 07535 36/// /1912 10079 20064 39862 40178 58019=
07535,1999-12-24 21:00:00,8.1,1016.3,-3.1,84,5.6,,25.928,,,180,,,,,,,,,,,og-post,,,,AAXX 24214 07535 36/// /1814 10081 20056 39848 40163 58031=
07535,1999-12-24 22:00:00,7.9,1015,-4.3,82,5,,22.224,,,180,,,,,,,,,,,og-post,,,,AAXX 24224 07535 36/// /1812 10079 20050 39835 40150 56043=
07535,1999-12-24 23:00:00,8,1016.9,-0.8,81,4.9,,7.408,,,200,,,,,,,,,,,og-post,,,,AAXX 24234 07535 36/// /2004 10080 20049 39854 40169 55008=
07535,1999-12-25 00:00:00,7.8,1015.1,-1.2,79,4.4,,22.224,,,180,,,,,,,,,,,og-post,,,,AAXX 25004 07535 36/// /1812 10078 20044 39836 40151 58012=
07535,1999-12-25 05:00:00,7.9,1013.3,-1.4,81,4.8,7000,18.52,,,200,,,,,,,,,,,og-post,,,,AAXX 25054 07535 32757 82010 10079 20048 39819 40133 56014 8557/ 333 85650 87360=
07535,1999-12-25 06:00:00,8,1013.3,-0.2,82,5.1,7000,22.224,,,200,7.3,8.5,,,,,0,2.8,6,60,og-post,,,,AAXX 25064 07535 /1757 82012 10080 20051 39819 40133 57002 69902 76062 8657/ 333 10085 20073 31006 55028 69907 79999 86650 87459=
07535,1999-12-25 09:00:00,9.3,1012.8,-0.4,75,5.1,15000,18.52,,,210,,,,,,,,,,2,og-post,,,,AAXX 25094 07535 21765 82110 10093 20051 39815 40128 55004 70262 8657/ 333 69907 86650 87459=
07535,1999-12-25 10:00:00,9.6,1013.2,0.4,79,6.1,15000,22.224,,,240,,,,,,,,,,60,og-post,,,,AAXX 25104 07535 21765 82412 10096 20061 39820 40132 53004 76062 875// 333 69905 87650=
07535,1999-12-25 11:00:00,9.2,1014.3,1.7,90,7.6,15000,14.816,,,230,,,,,,,,,,60,og-post,,,,AAXX 25114 07535 21765 82308 10092 20076 39830 40143 53017 76066 875// 333 69905 87650=
07535,1999-12-25 12:00:00,11.1,1013.6,1,79,7.6,,18.52,,,250,,,,,,,,,,,og-post,,,,AAXX 25124 07535 /6/// /2510 10111 20076 39825 40136 50010 69901 333 69907=
07535,1999-12-25 13:00:00,12.6,1014.1,1.2,73,7.9,,29.632,,57.412,270,,,,,,,,,,,og-post,,,,AAXX 25134 07535 26/// /2716 10126 20079 39832 40141 51012 333 69905 91031=
07535,1999-12-25 14:00:00,12.4,1014.2,0.3,76,8.3,,18.52,,,270,,,,,,,,,,,og-post,,,,AAXX 25144 07535 26/// /2710 10124 20083 39833 40142 53003 333 69905=
07535,1999-12-25 15:00:00,11.7,1014.8,1.3,72,6.8,,14.816,,,260,,,,,,,,,,,og-post,,,,AAXX 25154 07535 26/// /2608 10117 20068 39838 40148 51013 333 69907=
07535,1999-12-25 16:00:00,10.7,1014.6,0.3,85,8.3,,14.816,,,250,,,0.2,,,,,,,,og-post,,,,AAXX 25164 07535 26/// /2508 10107 20083 39835 40146 50003 333 69925=
07535,1999-12-25 17:00:00,10.2,1014.6,0.1,93,9.1,,18.52,,,250,,,0.6,,,,,,,,og-post,,,,AAXX 25174 07535 26/// /2510 10102 20091 39834 40146 50001 333 69965=
07535,1999-12-25 18:00:00,10.4,1015.1,0.1,89,8.7,,18.52,,,260,8,12.8,,0.8,,0.8,,,,,og-post,,,,AAXX 25184 07535 /6/// /2610 10104 20087 39839 40151 53001 69982 333 10128 20080 69987=
07535,1999-12-25 22:00:00,9.7,1015.7,-0.2,92,8.5,,11.112,,,230,,,,,,,,,,,og-post,,,,AAXX 25224 07535 26/// /2306 10097 20085 39844 40157 56002 333 69905=
07535,1999-12-25 23:00:00,9.6,1015,-0.4,91,8.2,,11.112,,,230,,,,,,,,,,,og-post,,,,AAXX 25234 07535 26/// /2306 10096 20082 39837 40150 58004 333 69905=
07535,1999-12-26 01:00:00,9.6,1011.7,-3.9,92,8.4,,18.52,,,220,,,,,,,,,,,og-post,,,,AAXX 26014 07535 36/// /2210 10096 20084 39805 40117 58039=
07535,1999-12-26 02:00:00,9.5,1009.8,-5,92,8.3,,18.52,,,210,,,,,,,,,,,og-post,,,,AAXX 26024 07535 36/// /2110 10095 20083 39787 40098 56050=
07535,1999-12-26 03:00:00,9,1008.6,-4.2,95,8.2,,22.224,,,200,,,,0.2,,,,,,,og-post,,,,AAXX 26034 07535 26/// /2012 10090 20082 39775 40086 57042 333 69927=
07535,1999-12-26 04:00:00,8.9,1006.7,-4.9,95,8.1,,22.224,,,190,,,0.2,,,,,,,,og-post,,,,AAXX 26044 07535 26/// /1912 10089 20081 39756 40067 58049 333 69925=
07535,1999-12-26 05:00:00,9.4,1005.6,-4.1,90,7.8,2000,29.632,,50.004,200,,,,,,,,,,60,og-post,,,,AAXX 26054 07535 21320 82016 10094 20078 39746 40056 56041 76066 875// 333 69905 85708 87640 91027=
07535,1999-12-26 06:00:00,9.7,1005.4,-3.1,93,8.6,2000,29.632,61.116,53.708,210,8.8,10.8,,0.4,,0.6,1.4,,8,60,og-post,,,,AAXX 26064 07535 /1320 82116 10097 20086 39744 40054 56031 69962 76062 875// 333 10108 20088 32008 55000 69947 70014 85708 87640 91029 91133=
07535,1999-12-26 07:00:00,10.5,1005.9,-0.6,97,10,2000,22.224,,,240,,,0.6,,,,,,,60,og-post,,,,AAXX 26074 07535 21320 82412 10105 20100 39750 40059 55006 76066 875// 333 69965 85708 87640=
07535,1999-12-26 08:00:00,13.4,1006.3,1.1,88,11.5,12000,31.484,90.748,64.82,270,,,0.2,,,,,,,60,og-post,,,,AAXX 26084 07535 21462 82717 10134 20115 39757 40063 53011 76066 875// 333 69925 87611 91035 91149=
07535,1999-12-26 09:00:00,13.5,1008,3,81,10.3,14000,25.928,90.748,,280,,,,0.8,,,,,,21,og-post,,,,AAXX 26094 07535 21464 72814 10135 20103 39774 40080 53030 72162 86802 333 69987 85811 84640 86075 91149=
07535,1999-12-26 11:00:00,14,1010,3.7,72,9,7000,31.484,83.34,68.524,280,,,,,,,,,,60,og-post,,,,AAXX 26114 07535 21457 72817 10140 20090 39794 40100 51037 76062 878// 333 69905 85813 87640 91037 91145=
07535,1999-12-26 12:00:00,10.6,1011.2,2.8,92,9.4,,18.52,90.748,,300,,,,0.8,2,,,,,,og-post,,,,AAXX 26124 07535 /6/// /3010 10106 20094 39802 40112 52028 60021 333 69987 91149=
07535,1999-12-26 13:00:00,11.1,1010.2,1.1,92,9.8,,14.816,,,280,,,,,,,,,,,og-post,,,,AAXX 26134 07535 26/// /2808 10111 20098 39793 40102 50011 333 69905=
07535,1999-12-26 14:00:00,12,1009.6,-0.6,82,9,,14.816,,,270,,,,,,,,,,,og-post,,,,AAXX 26144 07535 26/// /2708 10120 20090 39788 40096 58006 333 69905=
07535,1999-12-26 15:00:00,12.4,1009.8,-1.2,78,8.7,,18.52,,,260,,,,,,,,,,,og-post,,,,AAXX 26154 07535 26/// /2610 10124 20087 39790 40098 55012 333 69907=
07535,1999-12-26 16:00:00,12.1,1009.4,-0.7,81,8.9,,22.224,,,260,,,,,,,,,,,og-post,,,,AAXX 26164 07535 26/// /2612 10121 20089 39786 40094 56007 333 69905=
07535,1999-12-26 17:00:00,11.6,1009.5,-0.2,90,10,,22.224,,,270,,,0.6,,,,,,,,og-post,,,,AAXX 26174 07535 26/// /2712 10116 20100 39786 40095 58002 333 69965=
07535,1999-12-26 18:00:00,10.9,1010,-0,94,10,,18.52,,,270,9.7,14.1,,2,,4,,,,,og-post,,,,AAXX 26184 07535 /6/// /2710 10109 20100 39790 40100 55000 60042 333 10141 20097 60027=
07535,1999-12-26 19:00:00,10.6,1010,0.4,83,7.8,,29.632,,64.82,260,,,0.2,,,,,,,,og-post,,,,AAXX 26194 07535 26/// /2616 10106 20078 39790 40100 52004 333 69925 91035=
07535,1999-12-26 20:00:00,9.6,1010,0.3,86,7.4,,18.52,68.524,,260,,,,,,,,,,,og-post,,,,AAXX 26204 07535 26/// /2610 10096 20074 39789 40100 50003 333 69905 91137=
07535,1999-12-26 22:00:00,9.7,1008.9,-1.2,91,8.3,,18.52,,,250,,,,,,,,,,,og-post,,,,AAXX 26224 07535 26/// /2510 10097 20083 39778 40089 58012 333 69905=
07535,1999-12-26 23:00:00,9.8,1008.3,-1.6,91,8.4,,22.224,,,250,,,,,,,,,,,og-post,,,,AAXX 26234 07535 26/// /2512 10098 20084 39773 40083 56016 333 69905=
07535,1999-12-27 00:00:00,9.6,1007.7,-1.6,94,8.7,,18.52,68.524,,260,,,,0.6,0.8,,,,,,og-post,,,,AAXX 27004 07535 /6/// /2610 10096 20087 39767 40077 58016 69981 333 69967 91137=
07535,1999-12-27 01:00:00,10,1007.5,-1.3,91,8.6,,22.224,,,270,,,,,,,,,,,og-post,,,,AAXX 27014 07535 36/// /2712 10100 20086 39765 40075 56013=
07535,1999-12-27 03:00:00,9.2,1008.8,1,94,8.3,,14.816,,,300,,,,0.8,,,,,,,og-post,,,,AAXX 27034 07535 26/// /3008 10092 20083 39777 40088 53010 333 69987=
07535,1999-12-27 04:00:00,8.8,1009,1.3,94,7.9,,7.408,,,290,,,,,,,,,,,og-post,,,,AAXX 27044 07535 36/// /2904 10088 20079 39778 40090 51013=
07535,1999-12-27 05:00:00,8.5,1009,0.7,94,7.6,10000,11.112,,,290,,,,,,,,,,,og-post,,,,AAXX 27054 07535 32560 72906 10085 20076 39778 40090 51007 875// 333 87630=
07535,1999-12-27 06:00:00,8.4,1009.4,0.5,94,7.5,10000,7.408,,,260,8.4,10.9,,,,2,5.6,,7,3,og-post,,,,AAXX 27064 07535 11560 72604 10084 20075 39782 40094 53005 60022 70386 875// 333 10109 20084 32007 55000 70056 87623=
07535,1999-12-27 07:00:00,8.4,1009.1,0.1,94,7.5,10000,3.704,,,330,,,,,,,,,,,og-post,,,,AAXX 27074 07535 32560 73302 10084 20075 39779 40091 50001 875// 333 87623=
07535,1999-12-27 08:00:00,8.2,1008.6,-0.4,94,7.3,10000,7.408,,,250,,,,,,,,,,,og-post,,,,AAXX 27084 07535 32460 82504 10082 20073 39774 40086 58004 8582/ 333 82813 84623 88459=
07535,1999-12-27 09:00:00,8.2,1007.5,-1.9,96,7.6,6000,7.408,,,210,,,,,,,,,,,og-post,,,,AAXX 27094 07535 32356 82104 10082 20076 39763 40075 58019 875// 333 83708 87623=
07535,1999-12-27 10:00:00,7.9,1006.4,-2.7,92,6.7,6000,11.112,,,240,,,,,,,,,,60,og-post,,,,AAXX 27104 07535 21356 82406 10079 20067 39752 40064 58027 76062 875// 333 69905 83708 87623=
07535,1999-12-27 11:00:00,7.1,1004.9,-3.7,97,6.7,5000,14.816,,,220,,,1,,,,,,,61,og-post,,,,AAXX 27114 07535 21350 82208 10071 20067 39737 40049 58037 76166 875// 333 60015 85708 87623=
07535,1999-12-27 12:00:00,6.4,1002.8,-4.8,96,5.8,,14.816,,,200,,,,3,3,,,,,,og-post,,,,AAXX 27124 07535 /6/// /2008 10064 20058 39715 40028 58048 60031 333 60037=
07535,1999-12-27 13:00:00,6.3,1000.3,-6.1,95,5.6,6000,18.52,,,180,,,0.4,,,,,,,60,og-post,,,,AAXX 27134 07535 21356 81810 10063 20056 39691 40003 58061 76066 875// 333 69945 84708 87623=
07535,1999-12-27 14:00:00,6.2,997.1,-7.7,96,5.6,6000,25.928,50.004,,170,,,2,,,,,,,61,og-post,,,,AAXX 27144 07535 21356 81714 10062 20056 39660 49971 58077 76166 877// 333 60025 87708 91127=
07535,1999-12-27 15:00:00,7.2,994.2,-8.2,97,6.8,5000,29.632,50.004,,190,,,,6,,,,,,61,og-post,,,,AAXX 27154 07535 21350 81916 10072 20068 39633 49942 58082 76166 877// 333 60067 87708 91127=
07535,1999-12-27 16:00:00,8.6,992.4,-7.4,96,8,5000,25.928,50.004,,200,,,4,,,,,,,61,og-post,,,,AAXX 27164 07535 21350 82014 10086 20080 39617 49924 56074 76166 877// 333 60045 87708 91127=
07535,1999-12-27 17:00:00,8.6,990.5,-6.1,97,8.2,,29.632,,50.004,210,,,4,,,,,,,,og-post,,,,AAXX 27174 07535 26/// /2116 10086 20082 39599 49905 56061 333 60045 91027=
07535,1999-12-27 18:00:00,9.4,990.6,-3.2,98,9.1,,25.928,,,240,6.1,9.4,,12,,21,,,,,og-post,,,,AAXX 27184 07535 /6/// /2414 10094 20091 39601 49906 55032 60212 333 10094 20061 60127=
07535,1999-12-27 19:00:00,9.3,989.3,-2.9,83,6.6,,38.892,,103.712,260,,,3,,,,,,,,og-post,,,,AAXX 27194 07535 26/// /2621 10093 20066 39588 49893 56029 333 60035 91056=
07535,1999-12-29 09:00:00,0.5,1019.6,1.6,99,0.4,200,3.704,,,290,,,,,,,,,,44,og-post,,,,AAXX 29094 07535 31902 02902 10005 20004 39871 40196 53016 74441=
07535,1999-12-29 10:00:00,1,1020.2,1.9,99,0.9,200,3.704,,,300,,,,,,,,,,44,og-post,,,,AAXX 29104 07535 31902 03002 10010 20009 39878 40202 52019 74444=
07535,1999-12-29 11:00:00,1.5,1021,2,99,1.4,5000,3.704,,,320,,,,,,,,,,28,og-post,,,,AAXX 29114 07535 31250 63202 10015 20014 39886 40210 53020 72841 86100 333 86804=
07535,1999-12-29 12:00:00,3.8,1021,1.8,84,1.4,12000,7.408,,,310,,,,,,,,,,1,og-post,,,,AAXX 29124 07535 31462 53104 10038 20014 39889 40210 51018 70141 85200 333 85815=
07535,1999-12-29 13:00:00,5.1,1020.9,1.1,73,0.7,17000,7.408,,,290,,,,,,,,,,,og-post,,,,AAXX 29134 07535 32467 42904 10051 20007 39889 40209 51011 84200 333 84816=
07535,1999-12-29 14:00:00,4.6,1021.5,0.8,76,0.7,20000,7.408,,,290,,,,,,,,,,,og-post,,,,AAXX 29144 07535 32470 42904 10046 20007 39894 40215 53008 84200 333 84818=
07535,1999-12-29 15:00:00,5.1,1021.7,0.8,73,0.7,20000,7.408,,,280,,,,,,,,,,,og-post,,,,AAXX 29154 07535 32570 42804 10051 20007 39897 40217 53008 84200 333 84820=
07535,1999-12-29 16:00:00,3.8,1022.5,1.4,82,1,,7.408,,,280,,,,,,,,,,,og-post,,,,AAXX 29164 07535 36/// /2804 10038 20010 39903 40225 53014=
07535,1999-12-29 17:00:00,2.9,1023.4,1.7,86,0.8,,7.408,,,280,,,,,,,,,,,og-post,,,,AAXX 29174 07535 36/// /2804 10029 20008 39911 40234 53017=
07535,1999-12-29 18:00:00,1.8,1024.3,2.1,94,0.9,,3.704,,,300,0.2,5.9,,,,,,,,,og-post,,,,AAXX 29184 07535 36/// /3002 10018 20009 39918 40243 53021 333 10059 20002=
07535,1999-12-29 19:00:00,0.9,1025.1,2.2,96,0.3,,7.408,,,300,,,,,,,,,,,og-post,,,,AAXX 29194 07535 36/// /3004 10009 20003 39925 40251 51022=
07535,1999-12-29 20:00:00,0.2,1025.9,2.1,98,-0.1,,3.704,,,300,,,,,,,,,,,og-post,,,,AAXX 29204 07535 36/// /3002 10002 21001 39932 40259 52021=
07535,1999-12-29 21:00:00,-0.4,1026.4,1.8,99,-0.5,,,,,,,,,,,,,,,,og-post,,,,AAXX 29214 07535 36/// /0000 11004 21005 39936 40264 51018=
07535,1999-12-29 22:00:00,-0.6,1026.9,1.5,99,-0.7,,3.704,,,280,,,,,,,,,,,og-post,,,,AAXX 29224 07535 36/// /2802 11006 21007 39940 40269 51015=
07535,1999-12-29 23:00:00,-1,1027.5,1.4,99,-1.1,,3.704,,,200,,,,,,,,,,,og-post,,,,AAXX 29234 07535 36/// /2002 11010 21011 39946 40275 53014=
07535,1999-12-30 00:00:00,-1.2,1027.9,1.3,99,-1.3,,3.704,,,200,,,,,,,,,,,og-post,,,,AAXX 30004 07535 36/// /2002 11012 21013 39949 40279 51013=
07535,1999-12-30 01:00:00,-0.8,1028.7,1.8,100,-0.8,,3.704,,,210,,,,,,,,,,,og-post,,,,AAXX 30014 07535 36/// /2102 11008 21008 39958 40287 53018=
07535,1999-12-30 02:00:00,-0.8,1029.3,1.7,100,-0.8,,3.704,,,110,,,,,,,,,,,og-post,,,,AAXX 30024 07535 36/// /1102 11008 21008 39963 40293 53017=
07535,1999-12-30 03:00:00,-0.7,1029.5,1.6,100,-0.7,,3.704,,,170,,,,,,,,,,,og-post,,,,AAXX 30034 07535 36/// /1702 11007 21007 39965 40295 51016=
07535,1999-12-30 04:00:00,-0.8,1028.7,0,100,-0.8,,7.408,,,180,,,,,,,,,,,og-post,,,,AAXX 30044 07535 36/// /1804 11008 21008 39958 40287 50000=
07535,1999-12-30 05:00:00,-0.9,1029.4,0.1,100,-0.9,600,3.704,,,140,,,,,,,,,,46,og-post,,,,AAXX 30054 07535 31906 01402 11009 21009 39964 40294 53001 74640=
07535,1999-12-30 06:00:00,-0.9,1030.1,0.6,100,-0.9,600,3.704,,,220,-1.2,1.7,,,,,,3.1,-6,44,og-post,,,,AAXX 30064 07535 31906 02202 11009 21009 39971 40301 53006 74440 333 10017 21012 32106 55031 70000=
07535,1999-12-30 07:00:00,-1.1,1030.8,2,100,-1.1,200,3.704,,,190,,,,,,,,,,46,og-post,,,,AAXX 30074 07535 31902 01902 11011 21011 39978 40308 53020 74644=
07535,1999-12-30 08:00:00,-1.2,1031.1,1.6,100,-1.2,200,7.408,,,130,,,,,,,,,,44,og-post,,,,AAXX 30084 07535 31902 01304 11012 21012 39980 40311 51016 74444=
07535,1999-12-30 09:00:00,-0.8,1031.5,1.4,100,-0.8,200,,,,,,,,,,,,,,44,og-post,,,,AAXX 30094 07535 31902 00000 11008 21008 39985 40315 51014 74444=
07535,1999-12-30 10:00:00,-0.3,1032,1.2,100,-0.3,200,3.704,,,290,,,,,,,,,,44,og-post,,,,AAXX 30104 07535 31902 02902 11003 21003 39990 40320 53012 74444=
07535,1999-12-30 11:00:00,0,1031.8,0.9,100,0,200,3.704,,,120,,,,,,,,,,45,og-post,,,,AAXX 30114 07535 31/02 91202 10000 20000 39989 40318 50009 74544=
07535,1999-12-30 12:00:00,1,1031.3,0,100,1,,3.704,,,160,,,,,,,,,,,og-post,,,,AAXX 30124 07535 36/// /1602 10010 20010 39985 40313 50000=
07535,1999-12-30 13:00:00,1.6,1030.8,-0.9,100,1.6,,3.704,,,140,,,,,,,,,,,og-post,,,,AAXX 30134 07535 36/// /1402 10016 20016 39981 40308 58009=
07535,1999-12-30 14:00:00,2.6,1030.4,-1.1,100,2.6,2500,,,,,,,,,,,,,,28,og-post,,,,AAXX 30144 07535 31325 70000 10026 20026 39978 40304 56011 72842 875// 333 84708 86650=
07535,1999-12-30 15:00:00,2.6,1030.4,-0.7,99,2.5,3500,,,,,,,,,,,,,,10,og-post,,,,AAXX 30154 07535 31335 70000 10026 20025 39978 40304 56007 71042 875// 333 84709 86650=
07535,1999-12-30 16:00:00,2.4,1030.2,-0.5,99,2.3,3500,,,,,,,,,,,,,,10,og-post,,,,AAXX 30164 07535 31435 70000 10024 20023 39976 40302 56005 71022 875// 333 84710 86650=
07535,1999-12-30 17:00:00,2.1,1030,-0.4,99,2,,,,,,,,,,,,,,,,og-post,,,,AAXX 30174 07535 36/// /0000 10021 20020 39974 40300 58004=
07535,1999-12-30 18:00:00,2.1,1029.8,-0.6,99,2,,3.704,,,190,-1.3,2.7,,,,,,,,,og-post,,,,AAXX 30184 07535 36/// /1902 10021 20020 39972 40298 57006 333 10027 21013=
07535,1999-12-30 19:00:00,1.9,1029.7,-0.5,99,1.8,,,,,,,,,,,,,,,,og-post,,,,AAXX 30194 07535 36/// /0000 10019 20018 39971 40297 56005=
07535,1999-12-30 20:00:00,1.7,1029.7,-0.4,99,1.6,,7.408,,,150,,,,,,,,,,,og-post,,,,AAXX 30204 07535 36/// /1504 10017 20016 39970 40297 56004=
07535,1999-12-30 21:00:00,1.9,1029,-0.8,98,1.6,,7.408,,,140,,,,,,,,,,,og-post,,,,AAXX 30214 07535 36/// /1404 10019 20016 39964 40290 58008=
07535,1999-12-30 22:00:00,2,1028.8,-0.9,97,1.6,,11.112,,,150,,,,,,,,,,,og-post,,,,AAXX 30224 07535 36/// /1506 10020 20016 39962 40288 58009=
07535,1999-12-30 23:00:00,2.1,1028.2,-1.4,96,1.5,,11.112,,,180,,,,,,,,,,,og-post,,,,AAXX 30234 07535 36/// /1806 10021 20015 39956 40282 57014=
07535,1999-12-31 00:00:00,2.4,1027.8,-1.1,94,1.5,,11.112,,,190,,,,,,,,,,,og-post,,,,AAXX 31004 07535 36/// /1906 10024 20015 39953 40278 58011=
07535,1999-12-31 01:00:00,2.6,1027.4,-1.3,93,1.6,,11.112,,,170,,,,,,,,,,,og-post,,,,AAXX 31014 07535 36/// /1706 10026 20016 39949 40274 56013=
07535,1999-12-31 02:00:00,2.6,1027.2,-0.9,91,1.3,,11.112,,,180,,,,,,,,,,,og-post,,,,AAXX 31024 07535 36/// /1806 10026 20013 39947 40272 56009=
07535,1999-12-31 03:00:00,2.6,1026.6,-1.2,92,1.4,,14.816,,,200,,,,,,,,,,,og-post,,,,AAXX 31034 07535 36/// /2008 10026 20014 39941 40266 58012=
07535,1999-12-31 04:00:00,2.7,1025.7,-1.6,93,1.7,,14.816,,,190,,,,,,,,,,,og-post,,,,AAXX 31044 07535 36/// /1908 10027 20017 39933 40257 58016=
07535,1999-12-31 05:00:00,2.8,1025.2,-1.9,96,2.2,3000,14.816,,,210,,,,,,,,,,60,og-post,,,,AAXX 31054 07535 21230 82108 10028 20022 39928 40252 56019 76062 877// 333 69905 87703=
07535,1999-12-31 06:00:00,2.8,1025,-1.5,98,2.5,3000,14.816,,,200,1.7,2.8,,,,,0,,1,60,og-post,,,,AAXX 31064 07535 /1230 82008 10028 20025 39926 40250 56015 69902 76062 877// 333 10028 20017 32001 55000 69907 79999 87703=
07535,1999-12-31 07:00:00,3.1,1025,-0.6,98,2.8,3000,18.52,,,200,,,0.2,,,,,,,60,og-post,,,,AAXX 31074 07535 21230 82010 10031 20028 39927 40250 55006 76066 877// 333 69925 87703=
07535,1999-12-31 08:00:00,3.2,1024.8,-0.3,99,3.1,1200,14.816,,,200,,,,,,,,,,50,og-post,,,,AAXX 31084 07535 21112 82008 10032 20031 39925 40248 57003 75065 877// 333 69905 87702=
07535,1999-12-31 09:00:00,3.7,1025.2,0.3,99,3.6,1500,14.816,,,220,,,,0.2,,,,,,50,og-post,,,,AAXX 31094 07535 21115 82208 10037 20036 39929 40252 53003 75065 877// 333 69927 87702=
07535,1999-12-31 10:00:00,4.5,1025.3,0.4,99,4.4,1500,11.112,,,230,,,,,,,,,,50,og-post,,,,AAXX 31104 07535 21115 82306 10045 20044 39931 40253 53004 75055 877// 333 69905 87702=
07535,1999-12-31 11:00:00,5.2,1024.8,0.2,99,5.1,,11.112,,,220,,,0.2,,,,,,,,og-post,,,,AAXX 31114 07535 26/// /2206 10052 20051 39927 40248 50002 333 69925=
07535,1999-12-31 13:00:00,6.6,1024,-1,99,6.5,1200,7.408,,,250,,,0.6,,,,,,,50,og-post,,,,AAXX 31134 07535 21112 82504 10066 20065 39921 40240 56010 75055 877// 333 69965 87702=
07535,1999-12-31 14:00:00,7.1,1023.8,-0.7,99,7,3000,7.408,,,240,,,,,,,,,,50,og-post,,,,AAXX 31144 07535 21230 82404 10071 20070 39920 40238 56007 75055 877// 333 69905 87703=
07535,1999-12-31 15:00:00,7.6,1023.7,-0.5,99,7.5,7000,3.704,,,240,,,,0.6,,,,,,50,og-post,,,,AAXX 31154 07535 21257 82402 10076 20075 39919 40237 56005 75052 877// 333 69967 87705=
07535,1999-12-31 16:00:00,7.7,1023.9,-0,99,7.6,12000,3.704,,,240,,,,,,,,,,20,og-post,,,,AAXX 31164 07535 21362 72402 10077 20076 39921 40239 55000 72052 875// 333 69905 86708 87626=
07535,1999-12-31 17:00:00,7.5,1024.2,0.4,99,7.4,,3.704,,,260,,,0.2,,,,,,,,og-post,,,,AAXX 31174 07535 26/// /2602 10075 20074 39924 40242 53004 333 69925=
07535,1999-12-31 18:00:00,7.5,1024.5,0.8,99,7.4,,3.704,,,230,2.8,7.7,,0.2,,2,,,,,og-post,,,,AAXX 31184 07535 /6/// /2302 10075 20074 39927 40245 53008 60022 333 10077 20028 69927=
07535,1999-12-31 19:00:00,7.4,1024.8,0.9,99,7.3,,3.704,,,270,,,,,,,,,,,og-post,,,,AAXX 31194 07535 36/// /2702 10074 20073 39930 40248 52009=
07535,1999-12-31 20:00:00,7.3,1025.3,1.1,99,7.2,,3.704,,,280,,,,,,,,,,,og-post,,,,AAXX 31204 07535 36/// /2802 10073 20072 39935 40253 53011=
07535,1999-12-31 21:00:00,6.9,1026,1.4,99,6.8,,7.408,,,350,,,,,,,,,,,og-post,,,,AAXX 31214 07535 36/// /3504 10069 20068 39941 40260 53014=
07535,1999-12-31 22:00:00,6.7,1026.2,1.3,99,6.6,,,,,,,,,,,,,,,,og-post,,,,AAXX 31224 07535 36/// /0000 10067 20066 39943 40262 51013=
07535,1999-12-31 23:00:00,7,1026.8,1.4,100,7,,,,,,,,,,,,,,,,og-post,,,,AAXX 31234 07535 36/// /0000 10070 20070 39949 40268 52014=
