station_id,dh_utc,temperature,pression,pression_variation_3h,humidite,point_de_rosee,visibilite,vent_moyen,vent_rafales,vent_rafales_10min,vent_direction,temperature_min,temperature_max,pluie_1h,pluie_3h,pluie_6h,pluie_12h,pluie_24h,ensoleillement,temperature_sol,temps_omm,source,radiations,neige_au_sol,nebulosite,raw_msg
07149,1998-01-01 00:00:00,5,1014.3,1.3,100,5,7000,7.408,,,190,,,,,,,,,,,wg-a,,,,AAXX 01004 07149 12/57 /1904 10050 20050 30032 40143 52013 60006 80001 90000=
07149,1998-01-01 03:00:00,5,1014.7,0.4,100,5,6000,11.112,,,200,,,,,,,,,,,wg-a,,,,AAXX 01034 07149 12/56 42006 10050 20050 30036 40147 52004 60006 80001 90300=
07149,1998-01-01 06:00:00,5,1014.8,0.1,100,5,400,7.408,,,190,4.4,8,,,,,6,,,45,wg-a,,,,AAXX 01064 07149 02/04 91904 10050 20050 30037 40148 53001 60006 74541 89/// 90600 333 10080 20044 60064=
07149,1998-01-01 09:00:00,5,1016,1.2,100,5,6000,18.52,,,210,,,,,,,,,,1,wg-a,,,,AAXX 01094 07149 12156 72110 10050 20050 30049 40160 51012 60006 70142 876// 90900=
07149,1998-01-01 12:00:00,6,1014.8,-1.1,93,5,20000,18.52,,,230,,,,,,,,,,3,wg-a,,,,AAXX 01124 07149 12370 /2310 10060 20050 30038 40148 58011 60006 70342 84101 91200=
07149,1998-01-01 18:00:00,7,1009.1,-2.8,81,4,25000,29.632,,,200,4.6,8.3,,,,,,,,,wg-a,,,,AAXX 01184 07149 12/75 62016 10070 20040 39981 40091 57028 60006 80002 91800 333 10083 20046=
07149,1998-01-01 21:00:00,6,1004.3,-4.7,93,5,18000,42.596,,,200,,,,2,,,,,,61,wg-a,,,,AAXX 01214 07149 12468 82023 10060 20050 39934 40043 58047 60027 76162 8653/ 92100=
07149,1998-01-02 00:00:00,7,999.9,-4.4,87,5,20000,50.004,,62.968,200,,,,1,,,,,,61,wg-a,,,,AAXX 02004 07149 02470 82027 10070 20050 39890 49999 58044 60036 76162 8653/ 90000 333 60017 91034=
07149,1998-01-02 03:00:00,9,998.6,-0.4,87,7,20000,42.596,,,220,,,,0,,,,,,3,wg-a,,,,AAXX 02034 07149 12470 72223 10090 20070 39878 49986 56004 60007 70362 87500 90300=
07149,1998-01-02 06:00:00,9,995.9,-2.6,93,8,20000,35.188,,,200,6.3,9.2,,,,,,,,61,wg-a,,,,AAXX 02064 07149 02370 82019 10090 20080 39852 49959 58026 61000 76162 875// 90600 333 10092 20063 6004=
07149,1998-01-02 09:00:00,9,990.4,-5.5,87,7,7000,38.892,,61.116,200,,,,0,,,,,,80,wg-a,,,,AAXX 02094 07149 12257 82021 10090 20070 39797 49904 58055 60007 78086 875// 90900 333 91033=
07149,1998-01-02 12:00:00,9,990.8,0.4,76,5,500,38.892,,57.412,240,,,,4,,,,,,1,wg-a,,,,AAXX 02124 07149 02400 72421 10090 20050 39801 49908 53004 60056 70186 875// 91200 333 60047 91031=
07149,1998-01-02 15:00:00,8,994.7,3.8,87,6,20000,42.596,,,250,,,,0,,,,,,60,wg-a,,,,AAXX 02154 07149 12470 72523 10080 20060 39839 49947 53038 60007 76086 878// 91500=
07149,1998-01-02 18:00:00,8,1000.2,5.5,81,5,25000,31.484,,,250,7.7,9.8,,0,,,,,,3,wg-a,,,,AAXX 02184 07149 02675 42517 10080 20050 39894 40002 52055 60006 70386 83501 91800 333 10098 20077 60007=
07149,1998-01-02 21:00:00,7,1004.5,4.2,87,5,25000,22.224,,,250,,,,,,,,,,,wg-a,,,,AAXX 02214 07149 12575 22512 10070 20050 39936 40045 51042 60006 81501 92100=
07149,1998-01-03 00:00:00,7,1006.8,2.3,81,4,22000,25.928,,,240,,,,,,,,,,,wg-a,,,,AAXX 03004 07149 12/72 22414 10070 20040 39959 40068 51023 60006 80001 90000=
07149,1998-01-03 03:00:00,7,1006.1,-0.7,87,5,22000,29.632,,,220,,,,,,,,,,,wg-a,,,,AAXX 03034 07149 12/72 72216 10070 20050 39952 40061 58007 60006 85074 90300=
07149,1998-01-03 06:00:00,8,1003.5,-2.6,93,7,500,31.484,,,200,6.4,8.1,,,,,,,,61,wg-a,,,,AAXX 03064 07149 02200 82017 10080 20070 39926 40035 58026 61000 76161 877// 90600 333 10081 20064 6009=
07149,1998-01-03 09:00:00,10,1000,-3.3,93,9,8000,31.484,,,200,,,,1,,,,,,60,wg-a,,,,AAXX 03094 07149 12258 82017 10100 20090 39893 40000 56033 60017 76066 877// 90900=
07149,1998-01-03 12:00:00,13,997.4,-2.5,94,12,4000,42.596,,,230,,,,1,,,,,,61,wg-a,,,,AAXX 03124 07149 02340 82323 10130 20120 39868 49974 57025 60016 76165 875// 91200 333 60017=
07149,1998-01-03 15:00:00,12,999.4,1.9,62,5,25000,50.004,,62.968,280,,,,1,,,,,,3,wg-a,,,,AAXX 03154 07149 12575 52827 10120 20050 39887 49994 53019 60017 70386 85902 91500 333 91034=
07149,1998-01-03 21:00:00,8,1010,4.3,66,2,20000,18.52,,,240,,,,0,,,,,,3,wg-a,,,,AAXX 03214 07149 12770 62410 10080 20020 39990 40100 51043 60007 70386 865/0 92100=
07149,1998-01-04 00:00:00,7,1011.6,1.6,76,3,20000,31.484,,,230,,,,,,,,,,3,wg-a,,,,AAXX 04004 07149 12770 62317 10070 20030 30006 40116 50016 60006 70386 865/0 90000=
07149,1998-01-04 09:00:00,7,1007.9,-2.6,87,5,16000,31.484,,,200,,,,,,,,,,,wg-a,,,,AAXX 04094 07149 12666 72017 10070 20050 39970 40079 58026 60006 85532 90900=
07149,1998-01-04 12:00:00,9,1000.7,-7.1,76,5,15000,38.892,,,200,,,,,,,,,,60,wg-a,,,,AAXX 04124 07149 02465 72021 10090 20050 39899 40007 56071 61000 76062 878// 91200 333 6100=
07149,1998-01-04 15:00:00,8,1000.1,-0.6,81,5,20000,42.596,,,230,,,,2,,,,,,80,wg-a,,,,AAXX 04154 07149 12470 72323 10080 20050 39893 40001 56006 60027 78086 878// 91500=
07149,1998-01-05 00:00:00,6,1007.6,3,75,2,25000,35.188,,,240,,,,,,,,,,,wg-a,,,,AAXX 05004 07149 12675 42419 10060 20020 39966 40076 51030 60006 84500 90000=
07149,1998-01-05 03:00:00,5,1009.6,2,75,1,25000,38.892,,,250,,,,,,,,,,,wg-a,,,,AAXX 05034 07149 12575 22521 10050 20010 39986 40096 53020 60006 82500 90300=
07149,1998-01-05 06:00:00,4,1009.9,0.2,87,2,25000,22.224,,,200,4.3,7.6,,,,,2,,,,wg-a,,,,AAXX 05064 07149 02575 /2012 10040 20020 39988 40099 50002 60006 81500 90600 333 10076 20043 60024=
07149,1998-01-05 09:00:00,6,1008.2,-1.6,87,4,18000,31.484,,,200,,,,,,,,,,,wg-a,,,,AAXX 05094 07149 12468 /2017 10060 20040 39972 40082 58016 60006 85501 90900=
07149,1998-01-05 12:00:00,10,1002.9,-5.1,76,6,17000,53.708,,79.636,220,,,,,,,,,,,wg-a,,,,AAXX 05124 07149 12567 72229 10100 20060 39921 40029 58051 60006 875// 91200 333 91043=
07149,1998-01-05 15:00:00,7,1000.8,-2.2,87,5,3000,53.708,,74.08,260,,,,4,,,,,,10,wg-a,,,,AAXX 05154 07149 12430 82629 10070 20050 39899 40008 55022 60047 71087 879// 91500 333 91040=
07149,1998-01-05 21:00:00,8,1001.7,1,66,2,25000,50.004,,79.636,250,,,,,,,,,,3,wg-a,,,,AAXX 05214 07149 02675 /2527 10080 20020 39909 40017 53010 61000 70386 85500 92100 333 //// 91043=
07149,1998-01-06 00:00:00,7,1009,7.2,81,4,20000,38.892,,,300,,,,0,,,,,,1,wg-a,,,,AAXX 06004 07149 02570 53021 10070 20040 39981 40090 53072 60006 70186 85800 90000 333 60007=
07149,1998-01-06 06:00:00,5,1014.9,1,87,3,20000,18.52,,,240,4.6,8.5,,,,,5,,,,wg-a,,,,AAXX 06064 07149 02770 62410 10050 20030 30038 40149 51010 60006 865/0 90600 333 10085 20046 60054=
07149,1998-01-06 09:00:00,6,1015.9,1,87,4,13000,18.52,,,220,,,,,,,,,,60,wg-a,,,,AAXX 06094 07149 02563 82210 10060 20040 30048 40159 51010 61000 76062 878// 90900 333 ////=
07149,1998-01-06 12:00:00,5,1015.1,-0.8,100,5,8000,14.816,,,160,,,,1,,,,,,51,wg-a,,,,AAXX 06124 07149 02258 81608 10050 20050 30040 40151 58008 60016 75165 877// 91200 333 60017=
07149,1998-01-07 00:00:00,11,1014.2,-0.1,94,10,10000,31.484,,,220,,,,,,,,,,51,wg-a,,,,AAXX 07004 07149 02260 72217 10110 20100 30034 40142 57001 61000 75165 875// 90000 333 6100=
07149,1998-01-07 06:00:00,10,1013.5,0.1,82,7,14000,29.632,,,230,9.6,11.5,,,,,,,,61,wg-a,,,,AAXX 07064 07149 02464 82316 10100 20070 30026 40135 53001 61000 76165 875// 90600 333 10115 20096 6001=
07149,1998-01-07 12:00:00,12,1014.7,1.1,82,9,25000,31.484,,61.116,230,,,,0,,,,,,25,wg-a,,,,AAXX 07124 07149 02475 52317 10120 20090 30039 40147 51011 60016 72586 85800 91200 333 60007 91033=
07149,1998-01-07 15:00:00,12,1016,1.2,58,4,500,38.892,,,250,,,,,,,,,,,wg-a,,,,AAXX 07154 07149 12600 32521 10120 20040 30051 40160 53012 60006 83800 91500=
07149,1998-01-07 18:00:00,10,1018.3,2.3,71,5,25000,25.928,,,240,9.1,12.7,,,,,,,,,wg-a,,,,AAXX 07184 07149 12575 32414 10100 20050 30074 40183 51023 60006 81101 91800 333 10127 20091=
07149,1998-01-07 21:00:00,9,1019.4,1,76,5,25000,29.632,,,210,,,,,,,,,,,wg-a,,,,AAXX 07214 07149 12/75 42116 10090 20050 30084 40194 53010 60006 80001 92100=
07149,1998-01-08 00:00:00,8,1021,1.6,87,6,20000,29.632,,,220,,,,,,,,,,,wg-a,,,,AAXX 08004 07149 12470 /2216 10080 20060 30100 40210 53016 60006 81100 90000=
07149,1998-01-08 03:00:00,8,1022.4,1.4,87,6,20000,29.632,,,220,,,,,,,,,,,wg-a,,,,AAXX 08034 07149 12570 32216 10080 20060 30114 40224 53014 60006 83500 90300=
07149,1998-01-08 06:00:00,8,1023.1,0.6,93,7,20000,29.632,,,220,7.7,10,,,,,1,,,,wg-a,,,,AAXX 08064 07149 02470 72216 10080 20070 30120 40231 53006 60006 878// 90600 333 10100 20077 60014=
07149,1998-01-08 09:00:00,9,1025,1.9,87,7,16000,31.484,,,230,,,,,,,,,,,wg-a,,,,AAXX 08094 07149 12366 72317 10090 20070 30139 40250 53019 60006 875// 90900=
07149,1998-01-08 15:00:00,11,1024.9,0.1,76,7,22000,25.928,,,220,,,,,,,,,,,wg-a,,,,AAXX 08154 07149 12572 42214 10110 20070 30139 40249 53001 60006 83801 91500=
07149,1998-01-08 18:00:00,11,1025.7,0.8,76,7,25000,18.52,,,210,8.3,12.2,,,,,,,,,wg-a,,,,AAXX 08184 07149 12775 62110 10110 20070 30147 40257 53008 60006 865/0 91800 333 10122 20083=
07149,1998-01-09 00:00:00,10,1028.3,1.6,82,7,25000,18.52,,,230,,,,,,,,,,,wg-a,,,,AAXX 09004 07149 12475 62310 10100 20070 30172 40283 53016 60006 86500 90000=
07149,1998-01-09 03:00:00,8,1028.8,0.5,93,7,23000,11.112,,,220,,,,,,,,,,,wg-a,,,,AAXX 09034 07149 12673 /2206 10080 20070 30177 40288 53005 60006 85500 90300=
07149,1998-01-09 06:00:00,8,1029,0.2,87,6,20000,18.52,,,220,7.8,11.1,,,,,,,,,wg-a,,,,AAXX 09064 07149 02770 32210 10080 20060 30179 40290 53002 60006 83500 90600 333 10111 20078 60004=
07149,1998-01-09 09:00:00,8,1029.9,0.9,87,6,18000,11.112,,,200,,,,,,,,,,,wg-a,,,,AAXX 09094 07149 12768 22006 10080 20060 30188 40299 53009 60006 82501 90900=
07149,1998-01-09 12:00:00,12,1030,0.2,67,6,22000,11.112,,,180,,,,,,,,,,,wg-a,,,,AAXX 09124 07149 12772 11806 10120 20060 30190 40300 50002 60006 81501 91200=
07149,1998-01-09 18:00:00,10,1028.2,-0.5,76,6,22000,11.112,,,120,7.1,14.5,,,,,,,,,wg-a,,,,AAXX 09184 07149 12/72 11206 10100 20060 30172 40282 56005 60006 80001 91800 333 10145 20071=
07149,1998-01-09 21:00:00,8,1027.5,-0.8,87,6,22000,11.112,,,160,,,,,,,,,,,wg-a,,,,AAXX 09214 07149 12/72 01606 10080 20060 30164 40275 56008 60006 80000 92100=
07149,1998-01-10 00:00:00,6,1027.1,-0.5,87,4,22000,7.408,,,160,,,,,,,,,,,wg-a,,,,AAXX 10004 07149 12/72 01604 10060 20040 30159 40271 58005 60006 80000 90000=
07149,1998-01-10 03:00:00,4,1026.8,-0.4,93,3,22000,11.112,,,150,,,,,,,,,,,wg-a,,,,AAXX 10034 07149 12/72 21506 10040 20030 30155 40268 58004 60006 80001 90300=
07149,1998-01-10 06:00:00,2,1026.6,-0.3,93,1,12000,7.408,,,150,1.8,10.1,,,,,,,,,wg-a,,,,AAXX 10064 07149 02/62 11504 10020 20010 30152 40266 56003 60006 80001 90600 333 10101 20018 60004=
07149,1998-01-10 09:00:00,4,1027.1,0.6,93,3,12000,3.704,,,160,,,,,,,,,,,wg-a,,,,AAXX 10094 07149 12/62 41602 10040 20030 30158 40271 52006 60006 80001 90900=
07149,1998-01-10 12:00:00,10,1025.7,-1.1,71,5,12000,7.408,,,170,,,,,,,,,,,wg-a,,,,AAXX 10124 07149 12/62 31704 10100 20050 30147 40257 58011 60006 81031 91200=
07149,1998-01-10 15:00:00,12,1024.1,-1.5,62,5,16000,7.408,,,120,,,,,,,,,,,wg-a,,,,AAXX 10154 07149 12/66 51204 10120 20050 30132 40241 56015 60006 83032 91500=
07149,1998-01-10 18:00:00,8,1023.4,-0.9,81,5,12000,7.408,,,130,1.2,12.4,,,,,,,,,wg-a,,,,AAXX 10184 07149 12/62 31304 10080 20050 30123 40234 56009 60006 81032 91800 333 10124 20012=
07149,1998-01-10 21:00:00,6,1022.4,-1.1,87,4,12000,11.112,,,130,,,,,,,,,,,wg-a,,,,AAXX 10214 07149 12/62 11306 10060 20040 30112 40224 58011 60006 81031 92100=
07149,1998-01-11 00:00:00,4,1021.2,-1.2,93,3,12000,7.408,,,170,,,,,,,,,,,wg-a,,,,AAXX 11004 07149 12/62 01704 10040 20030 30100 40212 58012 60006 80000 90000=
07149,1998-01-11 06:00:00,1,1020.1,-0.5,100,1,8000,11.112,,,140,1.2,8.4,,,,,,,,11,wg-a,,,,AAXX 11064 07149 02/58 /1406 10010 20010 30088 40201 56005 60006 71100 81030 90600 333 10084 20012 60004=
07149,1998-01-11 09:00:00,3,1020.5,0.5,93,2,12000,11.112,,,180,,,,,,,,,,,wg-a,,,,AAXX 11094 07149 12/62 21806 10030 20020 30093 40205 51005 60006 81031 90900=
07149,1998-01-11 12:00:00,10,1019.9,-0.4,66,4,16000,18.52,,,190,,,,,,,,,,,wg-a,,,,AAXX 11124 07149 12/66 61910 10100 20040 30089 40199 58004 60006 82032 91200=
07149,1998-01-11 15:00:00,11,1019,-0.8,66,5,20000,14.816,,,200,,,,,,,,,,,wg-a,,,,AAXX 11154 07149 12/70 72008 10110 20050 30081 40190 57008 60006 85032 91500=
07149,1998-01-11 18:00:00,9,1018.9,-0.2,76,5,20000,11.112,,,180,1.2,11.6,,,,,,,,,wg-a,,,,AAXX 11184 07149 12/70 61806 10090 20050 30079 40189 57002 60006 81032 91800 333 10116 20012=
07149,1998-01-12 00:00:00,8,1019.4,0.2,81,5,18000,11.112,,,180,,,,,,,,,,,wg-a,,,,AAXX 12004 07149 12/68 71806 10080 20050 30084 40194 51002 60006 81032 90000=
07149,1998-01-12 03:00:00,7,1019.2,-0.3,87,5,18000,11.112,,,170,,,,,,,,,,,wg-a,,,,AAXX 12034 07149 12/68 71706 10070 20050 30081 40192 57003 60006 81032 90300=
07149,1998-01-12 06:00:00,8,1018.9,-0.2,81,5,18000,14.816,,,170,6.9,8.6,,,,,,,,,wg-a,,,,AAXX 12064 07149 02/68 71708 10080 20050 30079 40189 57002 60006 81032 90600 333 10086 20069 60004=
07149,1998-01-12 09:00:00,8,1018.8,-0.1,81,5,16000,7.408,,,160,,,,,,,,,,,wg-a,,,,AAXX 12094 07149 12/66 71604 10080 20050 30078 40188 55001 60006 84032 90900=
07149,1998-01-12 12:00:00,11,1017.5,-1.2,71,6,16000,11.112,,,190,,,,,,,,,,,wg-a,,,,AAXX 12124 07149 12/66 61906 10110 20060 30066 40175 58012 60006 82032 91200=
07149,1998-01-12 15:00:00,11,1015.8,-1.7,71,6,18000,7.408,,,170,,,,,,,,,,,wg-a,,,,AAXX 12154 07149 12/68 71704 10110 20060 30049 40158 56017 60006 83032 91500=
07149,1998-01-12 18:00:00,10,1014.8,-1,76,6,17000,11.112,,,150,7.4,11.9,,,,,,,,,wg-a,,,,AAXX 12184 07149 12/67 81506 10100 20060 30039 40148 58010 60006 85032 91800 333 10119 20074=
07149,1998-01-12 21:00:00,8,1013,-1.9,81,5,17000,11.112,,,140,,,,,,,,,,,wg-a,,,,AAXX 12214 07149 12/67 61406 10080 20050 30020 40130 58019 60006 85032 92100=
07149,1998-01-13 00:00:00,7,1011.1,-1.9,87,5,17000,11.112,,,130,,,,,,,,,,,wg-a,,,,AAXX 13004 07149 12/67 31306 10070 20050 30001 40111 56019 60006 80002 90000=
07149,1998-01-13 12:00:00,13,1004.7,-1.4,67,7,22000,25.928,,,170,,,,,,,,,,1,wg-a,,,,AAXX 13124 07149 02772 31714 10130 20070 39940 40047 58014 61000 70161 82531 91200 333 6100=
07149,1998-01-13 15:00:00,14,1003.1,-1.5,67,8,25000,22.224,,,170,,,,,,,,,,,wg-a,,,,AAXX 13154 07149 12675 41712 10140 20080 39925 40031 56015 60006 84830 91500=
07149,1998-01-13 21:00:00,11,1002.1,-0.6,66,5,25000,35.188,,53.708,190,,,,,,,,,,,wg-a,,,,AAXX 13214 07149 12675 71919 10110 20050 39914 40021 58006 60006 875// 92100 333 91029=
07149,1998-01-14 00:00:00,11,1002,-0.1,66,5,25000,38.892,,59.264,200,,,,,,,,,,,wg-a,,,,AAXX 14004 07149 12475 72021 10110 20050 39913 40020 55001 60006 875// 90000 333 91032=
07149,1998-01-14 06:00:00,8,1005.7,2.4,87,6,20000,38.892,,,230,8,11.4,,,,,,,,21,wg-a,,,,AAXX 14064 07149 02470 72321 10080 20060 39948 40057 53024 61000 72162 875// 90600 333 10114 20080 6100=
07149,1998-01-14 09:00:00,8,1009.8,4.1,87,6,14000,25.928,,,260,,,,1,,,,,,61,wg-a,,,,AAXX 14094 07149 12364 82614 10080 20060 39989 40098 53041 60017 76162 875// 90900=
07149,1998-01-14 12:00:00,9,1013.6,3.8,81,6,28000,25.928,,,260,,,,,,,,,,1,wg-a,,,,AAXX 14124 07149 02578 72614 10090 20060 30027 40136 51038 60016 70162 8213/ 91200 333 61000=
07149,1998-01-14 15:00:00,8,1016.7,3,76,4,25000,18.52,,59.264,280,,,,0,,,,,,25,wg-a,,,,AAXX 14154 07149 12575 42810 10080 20040 30057 40167 53030 60007 72586 84900 91500 333 91032=
07149,1998-01-14 18:00:00,5,1019.3,2.4,87,3,25000,11.112,,,230,5,10.4,,,,,,,,1,wg-a,,,,AAXX 14184 07149 02775 /2306 10050 20030 30081 40193 51024 60006 70186 81500 91800 333 10104 20050 61000=
07149,1998-01-14 21:00:00,5,1020.9,1.6,81,2,25000,14.816,,,240,,,,,,,,,,,wg-a,,,,AAXX 14214 07149 12/75 12408 10050 20020 30097 40209 51016 60006 81031 92100=
07149,1998-01-15 00:00:00,4,1021.6,0.7,87,2,25000,18.52,,,220,,,,,,,,,,,wg-a,,,,AAXX 15004 07149 12/75 12210 10040 20020 30104 40216 51007 60006 81030 90000=
07149,1998-01-15 06:00:00,5,1018.4,-2.3,93,4,10000,29.632,,,200,3.7,5.3,,,,,,,,61,wg-a,,,,AAXX 15064 07149 02460 72016 10050 20040 30073 40184 58023 61000 76161 8557/ 90600 333 10053 20037 6002=
07149,1998-01-15 09:00:00,7,1017.4,-1,93,6,6000,31.484,,,200,,,,2,,,,,,61,wg-a,,,,AAXX 15094 07149 12256 82017 10070 20060 30063 40174 56010 60027 76166 877// 90900=
07149,1998-01-15 12:00:00,8,1016.7,-0.6,100,8,500,35.188,,,210,,,,1,,,,,,60,wg-a,,,,AAXX 15124 07149 02200 82119 10080 20080 30057 40167 58006 60026 76066 877// 91200 333 60017=
07149,1998-01-15 15:00:00,10,1015,-1.6,93,9,7000,31.484,,,220,,,,,,,,,,50,wg-a,,,,AAXX 15154 07149 02257 82217 10100 20090 30041 40150 56016 61000 75065 877// 91500 333 ////=
07149,1998-01-15 18:00:00,10,1013.7,-1.3,100,10,4000,35.188,,,220,5.3,10.3,,,,,,,,50,wg-a,,,,AAXX 15184 07149 02240 82219 10100 20100 30028 40137 56013 61000 75065 877// 91800 333 10103 20053 6000=
07149,1998-01-15 21:00:00,10,1013.1,-0.6,100,10,8000,29.632,,,220,,,,1,,,,,,61,wg-a,,,,AAXX 15214 07149 12258 82216 10100 20100 30022 40131 58006 60017 76165 877// 92100=
07149,1998-01-16 00:00:00,9,1012.3,-0.8,100,9,20000,18.52,,,240,,,,2,,,,,,21,wg-a,,,,AAXX 16004 07149 02470 /2410 10090 20090 30014 40123 56008 60036 72165 81531 90000 333 60027=
07149,1998-01-16 03:00:00,9,1011.4,-0.9,93,8,20000,18.52,,,230,,,,,,,,,,,wg-a,,,,AAXX 16034 07149 12370 /2310 10090 20080 30005 40114 58009 60006 85800 90300=
07149,1998-01-16 06:00:00,9,1009.1,-2.3,93,8,20000,14.816,,,220,8.4,10.3,,,,,5,,,3,wg-a,,,,AAXX 16064 07149 02370 72208 10090 20080 39982 40091 58023 60006 70386 878// 90600 333 10103 20084 60054=
07149,1998-01-16 09:00:00,9,1008,,93,8,18000,18.52,,,240,,,,4,,,,,,21,wg-a,,,,AAXX 16094 07149 12368 72410 10090 20080 39971 40080 60047 72162 879// 90900=
07149,1998-01-16 12:00:00,9,1009.4,1.4,87,7,22000,25.928,,,300,,,,,,,,,,25,wg-a,,,,AAXX 16124 07149 02472 73014 10090 20070 39985 40094 53014 60046 72586 8583/ 91200 333 61000=
07149,1998-01-16 15:00:00,9,1012.4,3,81,6,25000,22.224,,,310,,,,,,,,,,25,wg-a,,,,AAXX 16154 07149 02575 /3112 10090 20060 30015 40124 53030 61000 72586 85831 91500 333 ////=
07149,1998-01-16 21:00:00,6,1021.1,3.7,87,4,25000,18.52,,,290,,,,,,,,,,,wg-a,,,,AAXX 16214 07149 12/75 22910 10060 20040 30100 40211 51037 60006 82030 92100=
07149,1998-01-17 00:00:00,5,1024.2,3,87,3,25000,18.52,,,290,,,,,,,,,,,wg-a,,,,AAXX 17004 07149 12675 32910 10050 20030 30130 40242 51030 60006 82530 90000=
07149,1998-01-17 03:00:00,4,1027,2.7,87,2,20000,14.816,,,290,,,,,,,,,,,wg-a,,,,AAXX 17034 07149 12/70 /2908 10040 20020 30157 40270 51027 60006 81030 90300=
07149,1998-01-17 06:00:00,2,1028.3,1.2,93,1,20000,11.112,,,270,1.3,,,,,,4,,,,wg-a,,,,AAXX 17064 07149 02/70 22706 10020 20010 30169 40283 51012 60006 80001 90600 333 10083 20013 60044=
07149,1998-01-17 09:00:00,2,1029.5,1.2,100,2,25000,11.112,,,220,,,,,,,,,,,wg-a,,,,AAXX 17094 07149 12/75 22206 10020 20020 30181 40295 53012 60006 82031 90900=
07149,1998-01-17 12:00:00,7,1028.8,-0.5,76,3,20000,14.816,,,210,,,,,,,,,,,wg-a,,,,AAXX 17124 07149 12570 32108 10070 20030 30176 40288 58005 60006 82801 91200=
07149,1998-01-17 21:00:00,4,1023.9,-1.6,93,3,12000,22.224,,,210,,,,,,,,,,,wg-a,,,,AAXX 17214 07149 12262 72112 10040 20030 30126 40239 56016 60006 876// 92100=
07149,1998-01-18 00:00:00,4,1021.1,-2.7,93,3,15000,18.52,,,190,,,,,,,,,,,wg-a,,,,AAXX 18004 07149 12365 71910 10040 20030 30099 40211 58027 60006 876// 90000=
07149,1998-01-18 03:00:00,3,1016.3,-4.8,93,2,13000,14.816,,,170,,,,,,,,,,,wg-a,,,,AAXX 18034 07149 12/63 71708 10030 20020 30051 40163 58048 60006 8701/ 90300=
07149,1998-01-18 06:00:00,4,1010.8,-5.4,75,0,14000,22.224,,,180,3,4.8,,,,,,,,60,wg-a,,,,AAXX 18064 07149 02464 81812 10040 20000 39997 40108 58054 61000 76062 8552/ 90600 333 10048 20030 6100=
07149,1998-01-18 09:00:00,4,1005.6,-5.1,75,0,7000,29.632,,,190,,,,,,,,,,61,wg-a,,,,AAXX 18094 07149 02257 81916 10040 20000 39946 40056 56051 61000 76162 875// 90900 333 ////=
07149,1998-01-18 12:00:00,8,1002,-3.5,93,7,12000,38.892,,,230,,,,6,,,,,,61,wg-a,,,,AAXX 18124 07149 02262 82321 10080 20070 39911 40020 56035 60066 76162 877// 91200 333 60067=
07149,1998-01-18 15:00:00,9,1001.6,-0.3,66,3,28000,38.892,,57.412,250,,,,2,,,,,,3,wg-a,,,,AAXX 18154 07149 12478 72521 10090 20030 39908 40016 56003 60027 70361 86901 91500 333 91031=
07149,1998-01-18 18:00:00,7,1002.4,0.7,70,2,500,31.484,,,220,3.5,9.4,,0,,,,,,1,wg-a,,,,AAXX 18184 07149 02700 32217 10070 20020 39915 40024 50007 60006 70186 815/1 91800 333 10094 20035 60007=
07149,1998-01-18 21:00:00,7,998.3,-4,81,4,500,38.892,,,210,,,,,,,,,,,wg-a,,,,AAXX 18214 07149 12400 72121 10070 20040 39875 49983 58040 60006 8555/ 92100=
07149,1998-01-19 00:00:00,4,993.4,-5,100,4,15000,11.112,,,250,,,,8,,,,,,60,wg-a,,,,AAXX 19004 07149 02465 72506 10040 20040 39825 49934 56050 60086 76061 8452/ 90000 333 60087=
07149,1998-01-19 03:00:00,6,995.6,2.2,87,4,20000,29.632,,,260,,,,0,,,,,,1,wg-a,,,,AAXX 19034 07149 12470 /2616 10060 20040 39847 49956 51022 60007 70162 85530 90300=
07149,1998-01-19 06:00:00,7,997.3,1.7,81,4,20000,29.632,,,250,4.3,7.3,,,,,16,,,1,wg-a,,,,AAXX 19064 07149 02570 /2516 10070 20040 39864 49973 51017 60006 70162 85830 90600 333 10073 20043 60164=
07149,1998-01-19 09:00:00,6,1000,2.7,93,5,8000,29.632,,,260,,,,0,,,,,,61,wg-a,,,,AAXX 19094 07149 12258 72616 10060 20050 39891 40000 51027 60007 76162 8657/ 90900=
07149,1998-01-19 15:00:00,8,1006.8,3.4,71,3,22000,22.224,,,340,,,,0,,,,,,25,wg-a,,,,AAXX 19154 07149 12572 73412 10080 20030 39959 40068 53034 60007 72586 878// 91500=
07149,1998-01-19 18:00:00,7,1008.8,1.9,76,3,20000,14.816,,,340,6.1,8.7,,,,,,,,3,wg-a,,,,AAXX 19184 07149 02570 73408 10070 20030 39978 40088 51019 60006 70386 878// 91800 333 10087 20061 61000=
07149,1998-01-20 00:00:00,3,1014.9,2.8,70,-2,20000,25.928,,,350,,,,0,,,,,,1,wg-a,,,,AAXX 20004 07149 02570 23514 10030 21020 30037 40149 52028 60016 70161 82500 90000 333 60007=
07149,1998-01-20 03:00:00,2,1017.3,2.3,75,-2,20000,22.224,,,330,,,,,,,,,,,wg-a,,,,AAXX 20034 07149 12570 /3312 10020 21020 30060 40173 53023 60006 81500 90300=
07149,1998-01-20 06:00:00,3,1019.7,2.4,75,-1,20000,29.632,,,330,1.9,6.9,,,,,2,,,,wg-a,,,,AAXX 20064 07149 02570 73316 10030 21010 30084 40197 53024 60006 875// 90600 333 10069 20019 60024=
07149,1998-01-20 09:00:00,4,1023.2,3.5,70,-1,20000,31.484,,,330,,,,,,,,,,,wg-a,,,,AAXX 20094 07149 12570 /3317 10040 21010 30119 40232 51035 60006 84871 90900=
07149,1998-01-20 12:00:00,5,1025.5,2.4,70,0,17000,31.484,,,340,,,,,,,,,,,wg-a,,,,AAXX 20124 07149 12567 73417 10050 20000 30143 40255 51024 60006 878// 91200=
07149,1998-01-20 15:00:00,6,1027,1.5,65,0,20000,29.632,,,340,,,,,,,,,,,wg-a,,,,AAXX 20154 07149 12570 /3416 10060 20000 30158 40270 53015 60006 85830 91500=
07149,1998-01-20 21:00:00,5,1031.3,1.7,75,1,20000,25.928,,,350,,,,,,,,,,1,wg-a,,,,AAXX 20214 07149 02570 73514 10050 20010 30200 40313 53017 61000 70186 878// 92100 333 ////=
07149,1998-01-21 00:00:00,3,1032.7,1.3,81,0,20000,18.52,,,360,,,,,,,,,,1,wg-a,,,,AAXX 21004 07149 02470 /3610 10030 20000 30213 40327 51013 61000 70186 86800 90000 333 ////=
07149,1998-01-21 03:00:00,2,1033.9,1.2,87,0,20000,18.52,,,20,,,,,,,,,,,wg-a,,,,AAXX 21034 07149 12470 30210 10020 20000 30225 40339 53012 60006 83800 90300=
07149,1998-01-21 06:00:00,1,1034.6,0.6,80,-2,15000,18.52,,,30,0.3,4.9,,,,,,,,,wg-a,,,,AAXX 21064 07149 02565 20310 10010 21020 30231 40346 51006 60006 82500 90600 333 10049 20003 61000=
07149,1998-01-21 09:00:00,1,1036,1.4,86,-1,12000,11.112,,,30,,,,,,,,,,,wg-a,,,,AAXX 21094 07149 12562 30306 10010 21010 30245 40360 51014 60006 81501 90900=
07149,1998-01-21 12:00:00,4,1035.9,0,60,-3,25000,18.52,,,60,,,,,,,,,,,wg-a,,,,AAXX 21124 07149 12575 50610 10040 21030 30245 40359 50000 60006 82102 91200=
07149,1998-01-21 15:00:00,2,1035.4,-0.5,64,-4,25000,18.52,,,40,,,,,,,,,,,wg-a,,,,AAXX 21154 07149 12575 /0410 10020 21040 30240 40354 55005 60006 82502 91500=
07149,1998-01-21 21:00:00,-1,1035.3,-0.5,74,-5,15000,11.112,,,80,,,,,,,,,,,wg-a,,,,AAXX 21214 07149 12565 20806 11010 21050 30237 40353 58005 60006 82500 92100=
07149,1998-01-22 00:00:00,-3,1035,-0.4,86,-5,15000,7.408,,,30,,,,,,,,,,,wg-a,,,,AAXX 22004 07149 12/65 10304 11030 21050 30233 40350 58004 60006 80002 90000=
07149,1998-01-22 03:00:00,-2,1033.8,-1.1,80,-5,15000,11.112,,,30,,,,,,,,,,,wg-a,,,,AAXX 22034 07149 12/65 00306 11020 21050 30222 40338 56011 60006 80000 90300=
07149,1998-01-22 06:00:00,-3,1033.3,-0.6,86,-5,12000,14.816,,,40,-3.6,0.7,,,,,,,,,wg-a,,,,AAXX 22064 07149 02/62 00408 11030 21050 30216 40333 56006 60006 80000 90600 333 10007 21036 60004=
07149,1998-01-22 09:00:00,-1,1032.6,-0.6,80,-4,13000,11.112,,,50,,,,,,,,,,,wg-a,,,,AAXX 22094 07149 12/63 20506 11010 21040 30210 40326 57006 60006 80001 90900=
07149,1998-01-22 12:00:00,2,1031.2,-1.2,60,-5,20000,18.52,,,70,,,,,,,,,,,wg-a,,,,AAXX 22124 07149 12/70 00710 10020 21050 30198 40312 58012 60006 80000 91200=
07149,1998-01-22 15:00:00,2,1029.1,-2.1,64,-4,25000,18.52,,,70,,,,,,,,,,,wg-a,,,,AAXX 22154 07149 12775 10710 10020 21040 30177 40291 56021 60006 81500 91500=
07149,1998-01-23 03:00:00,-2,1027.1,-0.6,86,-4,18000,18.52,,,50,,,,,,,,,,,wg-a,,,,AAXX 23034 07149 12/68 00510 11020 21040 30156 40271 56006 60006 80000 90300=
07149,1998-01-23 06:00:00,-2,1026.5,-0.6,93,-3,15000,14.816,,,40,-2.2,0.5,,,,,,,,,wg-a,,,,AAXX 23064 07149 02465 60408 11020 21030 30150 40265 57006 60006 86500 90600 333 10005 21022 60004=
07149,1998-01-23 09:00:00,0,1027,0.5,86,-2,8000,18.52,,,50,,,,,,,,,,,wg-a,,,,AAXX 23094 07149 12558 70510 10000 21020 30155 40270 53005 60006 875// 90900=
07149,1998-01-23 12:00:00,1,1026.6,-0.3,86,-1,12000,11.112,,,60,,,,,,,,,,,wg-a,,,,AAXX 23124 07149 12562 80606 10010 21010 30152 40266 58003 60006 885// 91200=
07149,1998-01-23 15:00:00,1,1026.2,-0.4,86,-1,10000,14.816,,,50,,,,,,,,,,,wg-a,,,,AAXX 23154 07149 12460 80508 10010 21010 30148 40262 56004 60006 885// 91500=
07149,1998-01-23 18:00:00,2,1026.8,0.6,80,-1,8000,18.52,,,50,-1.8,1.6,,,,,,,,,wg-a,,,,AAXX 23184 07149 12458 80510 10020 21010 30154 40268 53006 60006 885// 91800 333 10016 21018=
07149,1998-01-23 21:00:00,2,1027.3,0.5,80,-1,7000,18.52,,,50,,,,,,,,,,,wg-a,,,,AAXX 23214 07149 12457 80510 10020 21010 30159 40273 53005 60006 885// 92100=
07149,1998-01-24 00:00:00,1,1027.4,0.1,86,-1,6000,14.816,,,50,,,,,,,,,,,wg-a,,,,AAXX 24004 07149 12456 80508 10010 21010 30160 40274 50001 60006 885// 90000=
07149,1998-01-24 03:00:00,1,1027.3,-0.1,86,-1,6000,18.52,,,40,,,,,,,,,,,wg-a,,,,AAXX 24034 07149 12/56 /0410 10010 21010 30159 40273 55001 60006 90300=
07149,1998-01-24 06:00:00,0,1027.3,-0,80,-3,7000,22.224,,,40,0.3,1.6,,,,,,,,,wg-a,,,,AAXX 24064 07149 02457 80412 10000 21030 30159 40273 55000 60006 875// 90600 333 10016 20003 60004=
07149,1998-01-24 09:00:00,1,1027.7,0.4,80,-2,6000,22.224,,,40,,,,,,,,,,,wg-a,,,,AAXX 24094 07149 12456 70412 10010 21020 30163 40277 53004 60006 875// 90900=
07149,1998-01-24 12:00:00,3,1027,-0.6,81,0,12000,18.52,,,40,,,,,,,,,,,wg-a,,,,AAXX 24124 07149 12462 /0410 10030 20000 30157 40270 58006 60006 86800 91200=
07149,1998-01-24 15:00:00,3,1026.3,-0.7,70,-2,16000,25.928,,,30,,,,,,,,,,,wg-a,,,,AAXX 24154 07149 12566 70314 10030 21020 30150 40263 55007 60006 878// 91500=
07149,1998-01-24 18:00:00,3,1026.3,-0,65,-3,18000,22.224,,,40,-0.2,4.7,,,,,,,,,wg-a,,,,AAXX 24184 07149 12568 80412 10030 21030 30150 40263 55000 60006 878// 91800 333 10047 21002=
07149,1998-01-24 21:00:00,2,1025.8,-0.5,69,-3,18000,22.224,,,30,,,,,,,,,,,wg-a,,,,AAXX 24214 07149 12568 80312 10020 21030 30145 40258 58005 60006 875// 92100=
07149,1998-01-25 00:00:00,2,1024.9,-1,69,-3,18000,25.928,,,30,,,,,,,,,,,wg-a,,,,AAXX 25004 07149 12568 80314 10020 21030 30135 40249 56010 60006 875// 90000=
07149,1998-01-25 03:00:00,1,1023.7,-1.2,80,-2,18000,22.224,,,30,,,,,,,,,,,wg-a,,,,AAXX 25034 07149 12468 80312 10010 21020 30123 40237 58012 60006 875// 90300=
07149,1998-01-25 06:00:00,1,1023.7,-0,80,-2,14000,29.632,,,50,0.7,3,,,,,,,,77,wg-a,,,,AAXX 25064 07149 02464 80516 10010 21020 30123 40237 55000 61000 77772 875// 90600 333 10030 20007 6100=
07149,1998-01-25 09:00:00,1,1024.7,1,69,-4,14000,29.632,,,50,,,,,,,,,,1,wg-a,,,,AAXX 25094 07149 02464 70516 10010 21040 30133 40247 51010 61000 70172 878// 90900 333 ////=
07149,1998-01-25 12:00:00,1,1025,0.3,69,-4,15000,31.484,,,60,,,,,,,,,,3,wg-a,,,,AAXX 25124 07149 02665 80617 10010 21040 30136 40250 52003 61000 70372 885// 91200 333 ////=
07149,1998-01-25 15:00:00,1,1025.8,0.8,69,-4,16000,29.632,,,60,,,,,,,,,,,wg-a,,,,AAXX 25154 07149 12566 80616 10010 21040 30144 40258 53008 60006 885// 91500=
07149,1998-01-25 18:00:00,1,1027,1.2,69,-4,20000,22.224,,,60,0.6,1.3,,,,,,,,,wg-a,,,,AAXX 25184 07149 12570 80612 10010 21040 30156 40270 53012 60006 885// 91800 333 10013 20006=
07149,1998-01-25 21:00:00,1,1028.3,1.3,69,-4,16000,22.224,,,80,,,,,,,,,,,wg-a,,,,AAXX 25214 07149 12566 80812 10010 21040 30169 40283 51013 60006 885// 92100=
07149,1998-01-26 00:00:00,1,1028.9,0.6,64,-5,16000,22.224,,,90,,,,,,,,,,,wg-a,,,,AAXX 26004 07149 12566 80912 10010 21050 30175 40289 53006 60006 885// 90000=
07149,1998-01-26 03:00:00,0,1029,0,69,-5,14000,18.52,,,70,,,,,,,,,,,wg-a,,,,AAXX 26034 07149 12564 80710 10000 21050 30175 40290 50000 60006 885// 90300=
07149,1998-01-26 06:00:00,0,1029,-0,69,-5,14000,18.52,,,60,0.1,1.1,,,,,,,,,wg-a,,,,AAXX 26064 07149 02564 80610 10000 21050 30175 40290 55000 60006 885// 90600 333 10011 20001 61000=
07149,1998-01-26 09:00:00,0,1029.7,0.7,74,-4,11000,18.52,,,60,,,,,,,,,,,wg-a,,,,AAXX 26094 07149 12461 80610 10000 21040 30182 40297 52007 60006 885// 90900=
07149,1998-01-26 12:00:00,1,1029.3,-0.4,69,-4,11000,14.816,,,50,,,,,,,,,,,wg-a,,,,AAXX 26124 07149 12461 70508 10010 21040 30178 40293 58004 60006 875// 91200=
07149,1998-01-26 15:00:00,0,1028.1,-1.2,74,-4,10000,18.52,,,40,,,,,,,,,,,wg-a,,,,AAXX 26154 07149 12560 /0410 10000 21040 30166 40281 56012 60006 83500 91500=
07149,1998-01-26 18:00:00,-2,1028,-0.2,80,-5,7000,11.112,,,70,-2.1,0.6,,,,,,,,,wg-a,,,,AAXX 26184 07149 12557 /0706 11020 21050 30164 40280 55002 60006 81500 91800 333 10006 21021=
07149,1998-01-27 03:00:00,-3,1025.3,-1.3,80,-6,7000,11.112,,,120,,,,,,,,,,,wg-a,,,,AAXX 27034 07149 12457 71206 11030 21060 30137 40253 58013 60006 875// 90300=
07149,1998-01-27 06:00:00,-4,1024.1,-1.2,86,-6,7000,14.816,,,60,-4.6,-2,,,,,,,,,wg-a,,,,AAXX 27064 07149 02457 70608 11040 21060 30125 40241 56012 60006 875// 90600 333 11020 21046 60004=
07149,1998-01-27 09:00:00,-3,1023.9,-0.2,74,-7,6000,18.52,,,70,,,,,,,,,,,wg-a,,,,AAXX 27094 07149 12456 70710 11030 21070 30123 40239 58002 60006 875// 90900=
07149,1998-01-27 12:00:00,-3,1022.7,-1.1,74,-7,8000,11.112,,,120,,,,,,,,,,,wg-a,,,,AAXX 27124 07149 12458 /1206 11030 21070 30112 40227 58011 60006 85500 91200=
07149,1998-01-27 18:00:00,-2,1020.9,-0.3,74,-6,7000,7.408,,,100,-4.1,-0.6,,,,,,,,,wg-a,,,,AAXX 27184 07149 12557 21004 11020 21060 30094 40209 56003 60006 82500 91800 333 11006 21041=
07149,1998-01-27 21:00:00,-2,1021.1,0.2,74,-6,7000,7.408,,,100,,,,,,,,,,,wg-a,,,,AAXX 27214 07149 12457 /1004 11020 21060 30096 40211 51002 60006 86500 92100=
07149,1998-01-28 00:00:00,-6,1021,-0.2,93,-7,6000,7.408,,,80,,,,,,,,,,,wg-a,,,,AAXX 28004 07149 12/56 00804 11060 21070 30094 40210 58002 60006 80000 90000=
07149,1998-01-28 03:00:00,-6,1020.4,-0.7,86,-8,4500,7.408,,,70,,,,,,,,,,10,wg-a,,,,AAXX 28034 07149 12/45 00704 11060 21080 30087 40204 58007 60006 71000 80000 90300=
07149,1998-01-28 06:00:00,-7,1020.9,0.5,93,-8,4500,11.112,,,60,-7.1,-1.7,,,,,,,,10,wg-a,,,,AAXX 28064 07149 02/45 00606 11070 21080 30092 40209 53005 60006 71000 80000 90600 333 11017 21071 60004=
07149,1998-01-28 12:00:00,-2,1021,0.3,80,-5,500,14.816,,,50,,,,,,,,,,,wg-a,,,,AAXX 28124 07149 12400 70508 11020 21050 30095 40210 50003 60006 875// 91200=
07149,1998-01-28 14:00:00,-4,1021.3,0.4,93,-5,500,11.112,,,70,,,,,,,,,,0,wg-a,,,,AAXX 28144 07149 32300 /0706 11040 21050 30097 40213 51004 700// 82500 91400=
07149,1998-01-28 15:00:00,-2,1020.3,-0.7,80,-5,7000,11.112,,,50,,,,,,,,,,,wg-a,,,,AAXX 28154 07149 12457 70506 11020 21050 30088 40203 56007 60006 875// 91500=
07149,1998-01-28 18:00:00,-2,1020.8,0.5,80,-5,7000,14.816,,,60,-7.1,-1.6,,,,,,,,,wg-a,,,,AAXX 28184 07149 12457 70608 11020 21050 30093 40208 53005 60006 875// 91800 333 11016 21071=
07149,1998-01-28 21:00:00,-4,1021.3,0.4,93,-5,500,11.112,,,70,,,,,,,,,,,wg-a,,,,AAXX 28214 07149 12400 20706 11040 21050 30097 40213 51004 60006 82500 92100=
07149,1998-01-29 00:00:00,-5,1021,-0.3,93,-6,4000,11.112,,,60,,,,,,,,,,10,wg-a,,,,AAXX 29004 07149 12/40 00606 11050 21060 30094 40210 56003 60006 71011 80000 90000=
07149,1998-01-29 06:00:00,-6,1022.2,0.5,93,-7,3500,3.704,,,80,-6.7,-2.3,,,,,,,,10,wg-a,,,,AAXX 29064 07149 02/35 00802 11060 21070 30105 40222 53005 60006 71011 80000 90600 333 11023 21067 60004=
07149,1998-01-29 12:00:00,3,1023,-0.2,75,-1,6000,11.112,,,70,,,,,,,,,,,wg-a,,,,AAXX 29124 07149 12556 60706 10030 21010 30117 40230 56002 60006 84502 91200=
07149,1998-01-29 15:00:00,5,1021.7,-1.2,75,1,10000,14.816,,,60,,,,,,,,,,,wg-a,,,,AAXX 29154 07149 12560 20608 10050 20010 30105 40217 56012 60006 81501 91500=
07149,1998-01-29 18:00:00,2,1022.1,0.3,87,0,7000,11.112,,,70,-6.6,5,,,,,,,,,wg-a,,,,AAXX 29184 07149 12/57 40706 10020 20000 30108 40221 53003 60006 80001 91800 333 10050 21066=
07149,1998-01-29 21:00:00,0,1022.2,-0,100,0,4000,11.112,,,50,,,,,,,,,,10,wg-a,,,,AAXX 29214 07149 12240 70506 10000 20000 30108 40222 54000 60006 71011 87600 92100=
07149,1998-01-30 00:00:00,0,1021.9,-0.3,93,-1,4000,7.408,,,60,,,,,,,,,,10,wg-a,,,,AAXX 30004 07149 12240 70604 10000 21010 30105 40219 57003 60006 71011 876// 90000=
07149,1998-01-30 03:00:00,-1,1021.7,-0.2,100,-1,700,7.408,,,120,,,,,,,,,,40,wg-a,,,,AAXX 30034 07149 12107 81204 11010 21010 30103 40217 58002 60006 74041 876// 90300=
07149,1998-01-30 06:00:00,-2,1021.1,-0.7,100,-2,700,7.408,,,70,-2.2,1.9,,,,,,,,49,wg-a,,,,AAXX 30064 07149 02/07 90704 11020 21020 30096 40211 58007 60006 74941 89/// 90600 333 10019 21022 60004=
07149,1998-01-30 09:00:00,-2,1021.7,0.6,100,-2,1800,11.112,,,80,,,,,,,,,,10,wg-a,,,,AAXX 30094 07149 12118 80806 11020 21020 30102 40217 53006 60006 71042 876// 90900=
07149,1998-01-30 21:00:00,-3,1018.7,-0,93,-4,4000,7.408,,,30,,,,,,,,,,10,wg-a,,,,AAXX 30214 07149 12/40 00304 11030 21040 30072 40187 55000 60006 71000 80000 92100=
07149,1998-01-31 03:00:00,-3,1017.7,-0.4,100,-3,2000,14.816,,,20,,,,,,,,,,10,wg-a,,,,AAXX 31034 07149 12120 50208 11030 21030 30062 40177 56004 60006 71011 85600 90300=
07149,1998-01-31 06:00:00,-2,1017,-0.6,93,-3,2000,14.816,,,50,-3.9,-0.7,,,,,,,,10,wg-a,,,,AAXX 31064 07149 02120 /0508 11020 21030 30056 40170 56006 60006 71011 876// 90600 333 11007 21039 60004=
07149,1998-01-31 12:00:00,2,1017.5,-0.4,93,1,6000,14.816,,,60,,,,,,,,,,,wg-a,,,,AAXX 31124 07149 12356 /0608 10020 20010 30063 40175 58004 60006 81600 91200=
07149,1998-01-31 15:00:00,6,1016.1,-1.3,65,0,11000,22.224,,,70,,,,,,,,,,,wg-a,,,,AAXX 31154 07149 12461 /0712 10060 20000 30050 40161 56013 60006 81100 91500=
07149,1998-01-31 18:00:00,2,1017,0.7,80,-1,7000,14.816,,,50,-2.9,5.9,,,,,,,,,wg-a,,,,AAXX 31184 07149 12557 /0508 10020 21010 30057 40170 51007 60006 83501 91800 333 10059 21029=
07149,1998-02-01 00:00:00,-1,1017.7,-0.1,86,-3,7000,18.52,,,60,,,,,,,,,,,wg-a,,,,AAXX 01004 07149 12/57 00610 11010 21030 30063 40177 58001 60006 80000 90000=
07149,1998-02-01 03:00:00,-3,1017.3,-0.5,86,-5,7000,14.816,,,60,,,,,,,,,,,wg-a,,,,AAXX 01034 07149 12/57 00608 11030 21050 30058 40173 56005 60006 80000 90300=
07149,1998-02-01 06:00:00,-4,1016.6,-0.7,80,-7,10000,14.816,,,70,-4.6,1.9,,,,,,,,,wg-a,,,,AAXX 01064 07149 02/60 00708 11040 21070 30051 40166 57007 60006 80000 90600 333 10019 21046 60004=
07149,1998-02-01 09:00:00,-4,1017.3,0.7,74,-8,18000,14.816,,,70,,,,,,,,,,,wg-a,,,,AAXX 01094 07149 12/68 50708 11040 21080 30058 40173 51007 60006 80001 90900=
07149,1998-02-01 12:00:00,-1,1016.4,-0.8,64,-7,17000,7.408,,,40,,,,,,,,,,,wg-a,,,,AAXX 01124 07149 12/67 60404 11010 21070 30050 40164 58008 60006 80001 91200=
07149,1998-02-01 15:00:00,-1,1015.3,-1,64,-7,18000,14.816,,,60,,,,,,,,,,,wg-a,,,,AAXX 01154 07149 12/68 50608 11010 21070 30040 40153 56010 60006 80001 91500=
07149,1998-02-01 18:00:00,-4,1015.8,0.3,80,-7,13000,11.112,,,60,-4.7,0.4,,,,,,,,,wg-a,,,,AAXX 01184 07149 12/63 10606 11040 21070 30043 40158 53003 60006 80001 91800 333 10004 21047=
07149,1998-02-01 21:00:00,-5,1015.9,0.1,79,-8,14000,11.112,,,60,,,,,,,,,,,wg-a,,,,AAXX 01214 07149 12/64 20606 11050 21080 30044 40159 50001 60006 80001 92100=
07149,1998-02-02 03:00:00,-7,1015,-0.7,86,-9,13000,7.408,,,40,,,,,,,,,,,wg-a,,,,AAXX 02034 07149 12/63 10404 11070 21090 30034 40150 58007 60006 80001 90300=
07149,1998-02-02 06:00:00,-7,1014.2,-0.8,86,-9,15000,3.704,,,40,-7.9,-3.5,,,,,,,,,wg-a,,,,AAXX 02064 07149 02/65 20402 11070 21090 30026 40142 58008 60006 80001 90600 333 11035 21079 60004=
07149,1998-02-02 09:00:00,-4,1014.2,0.1,80,-7,10000,7.408,,,40,,,,,,,,,,,wg-a,,,,AAXX 02094 07149 12/60 20404 11040 21070 30027 40142 50001 60006 80001 90900=
07149,1998-02-02 12:00:00,0,1013.5,-0.5,51,-9,14000,7.408,,,80,,,,,,,,,,,wg-a,,,,AAXX 02124 07149 12/64 10804 10000 21090 30022 40135 58005 60006 80001 91200=
07149,1998-02-02 15:00:00,1,1012.3,-1.1,47,-9,14000,3.704,,,80,,,,,,,,,,,wg-a,,,,AAXX 02154 07149 12/64 00802 10010 21090 30011 40123 56011 60006 80000 91500=
07149,1998-02-02 18:00:00,-2,1012.9,0.4,63,-8,7000,7.408,,,50,-7.6,1.5,,,,,,,,,wg-a,,,,AAXX 02184 07149 12/57 00504 11020 21080 30015 40129 53004 60006 80000 91800 333 10015 21076=
07149,1998-02-02 21:00:00,-3,1013.6,0.6,74,-7,7000,7.408,,,190,,,,,,,,,,,wg-a,,,,AAXX 02214 07149 12/57 01904 11030 21070 30021 40136 51006 60006 80000 92100=
07149,1998-02-03 00:00:00,-2,1013.3,-0.2,80,-5,6000,7.408,,,240,,,,,,,,,,,wg-a,,,,AAXX 03004 07149 12556 72404 11020 21050 30019 40133 58002 60006 875// 90000=
07149,1998-02-03 03:00:00,-5,1013.6,0.2,86,-7,6000,7.408,,,230,,,,,,,,,,,wg-a,,,,AAXX 03034 07149 12/56 02304 11050 21070 30021 40136 52002 60006 80000 90300=
07149,1998-02-03 06:00:00,-6,1013.6,-0,93,-7,6000,7.408,,,210,-5.5,-1.9,,,,,,,,,wg-a,,,,AAXX 03064 07149 02256 /2104 11060 21070 30021 40136 55000 60006 81500 90600 333 11019 21055 60004=
07149,1998-02-03 09:00:00,-3,1014.2,0.7,86,-5,3000,3.704,,,140,,,,,,,,,,10,wg-a,,,,AAXX 03094 07149 12430 /1402 11030 21050 30028 40142 51007 60006 71011 83501 90900=
07149,1998-02-03 12:00:00,1,1014.4,0.3,69,-4,4500,3.704,,,100,,,,,,,,,,10,wg-a,,,,AAXX 03124 07149 12545 61002 10010 21040 30031 40144 50003 60006 71011 86500 91200=
07149,1998-02-03 15:00:00,4,1013.6,-0.6,65,-2,7000,18.52,,,70,,,,,,,,,,,wg-a,,,,AAXX 03154 07149 12557 /0710 10040 21020 30025 40136 55006 60006 81500 91500=
07149,1998-02-03 18:00:00,0,1014.3,0.5,86,-2,500,11.112,,,40,-5.6,4.2,,,,,,,,,wg-a,,,,AAXX 03184 07149 12/00 /0406 10000 21020 30030 40143 51005 60006 80001 91800 333 10042 21056=
07149,1998-02-03 21:00:00,-2,1015.1,0.7,93,-3,7000,11.112,,,50,,,,,,,,,,,wg-a,,,,AAXX 03214 07149 12/57 /0506 11020 21030 30037 40151 51007 60006 80001 92100=
07149,1998-02-04 00:00:00,-3,1014.7,-0.5,93,-4,6000,7.408,,,40,,,,,,,,,,,wg-a,,,,AAXX 04004 07149 12/56 00404 11030 21040 30032 40147 58005 60006 80000 90000=
07149,1998-02-04 03:00:00,-4,1014.6,-0.1,100,-4,6000,11.112,,,40,,,,,,,,,,,wg-a,,,,AAXX 04034 07149 12/56 00406 11040 21040 30031 40146 56001 60006 80000 90300=
07149,1998-02-04 06:00:00,-5,1014.8,0.2,93,-6,3500,11.112,,,20,-5.4,-0.1,,,,,,,,10,wg-a,,,,AAXX 04064 07149 02/35 00206 11050 21060 30033 40148 52002 60006 71000 80000 90600 333 11001 21054 60004=
07149,1998-02-04 09:00:00,-1,1015.3,0.7,93,-2,3500,7.408,,,20,,,,,,,,,,10,wg-a,,,,AAXX 04094 07149 12/35 00204 11010 21020 30040 40153 51007 60006 71000 80000 90900=
07149,1998-02-04 12:00:00,4,1015.5,0.3,56,-4,14000,18.52,,,40,,,,,,,,,,,wg-a,,,,AAXX 04124 07149 12/64 00410 10040 21040 30043 40155 50003 60006 80000 91200=
07149,1998-02-04 15:00:00,5,1015.3,-0.1,48,-5,20000,22.224,,,20,,,,,,,,,,,wg-a,,,,AAXX 04154 07149 12/70 00212 10050 21050 30042 40153 55001 60006 80000 91500=
07149,1998-02-04 18:00:00,0,1017.2,1.7,80,-3,13000,7.408,,,30,-5.4,4.7,,,,,,,,,wg-a,,,,AAXX 04184 07149 12/63 00304 10000 21030 30059 40172 53017 60006 80000 91800 333 10047 21054=
07149,1998-02-05 00:00:00,-3,1019.9,0.8,93,-4,500,3.704,,,280,,,,,,,,,,,wg-a,,,,AAXX 05004 07149 12/00 02802 11030 21040 30084 40199 51008 60006 80000 90000=
07149,1998-02-05 03:00:00,-2,1020.7,0.8,93,-3,500,7.408,,,270,,,,,,,,,,,wg-a,,,,AAXX 05034 07149 12400 72704 11020 21030 30092 40207 52008 60006 875// 90300=
07149,1998-02-05 06:00:00,-2,1021.2,0.5,93,-3,4000,7.408,,,270,-3.3,0.3,,,,,,,,,wg-a,,,,AAXX 05064 07149 02/40 /2704 11020 21030 30097 40212 53005 60006 90600 333 10003 21033 60004=
07149,1998-02-05 09:00:00,1,1022.8,1.7,100,1,300,3.704,,,170,,,,,,,,,,42,wg-a,,,,AAXX 05094 07149 12103 81702 10010 20010 30114 40228 51017 60006 74241 886// 90900=
07149,1998-02-05 12:00:00,4,1023.1,0.4,100,4,1600,3.704,,,190,,,,,,,,,,28,wg-a,,,,AAXX 05124 07149 12116 /1902 10040 20040 30118 40231 50004 60006 72841 876// 91200=
07149,1998-02-05 15:00:00,4,1022.7,-0.3,93,3,2500,7.408,,,190,,,,,,,,,,10,wg-a,,,,AAXX 05154 07149 12625 81904 10040 20030 30115 40227 55003 60006 71022 885// 91500=
07149,1998-02-05 18:00:00,3,1023.3,0.5,93,2,2500,7.408,,,200,-2.1,4.4,,,,,,,,10,wg-a,,,,AAXX 05184 07149 12625 82004 10030 20020 30120 40233 51005 60006 71022 885// 91800 333 10044 21021=
07149,1998-02-06 00:00:00,3,1024.4,0.3,93,2,2000,7.408,,,160,,,,,,,,,,10,wg-a,,,,AAXX 06004 07149 12620 /1604 10030 20020 30131 40244 51003 60006 71022 875// 90000=
07149,1998-02-06 03:00:00,2,1024.4,0,100,2,2000,3.704,,,160,,,,,,,,,,10,wg-a,,,,AAXX 06034 07149 12620 71602 10020 20020 30131 40244 50000 60006 71022 875// 90300=
07149,1998-02-06 06:00:00,2,1024.4,-0,93,1,2000,3.704,,,130,1.7,3.2,,,,,,,,10,wg-a,,,,AAXX 06064 07149 02620 81302 10020 20010 30131 40244 55000 60006 71022 885// 90600 333 10032 20017 60004=
07149,1998-02-06 09:00:00,2,1025.9,1.5,93,1,3000,3.704,,,160,,,,,,,,,,10,wg-a,,,,AAXX 06094 07149 12630 /1602 10020 20010 30146 40259 51015 60006 71022 875// 90900=
07149,1998-02-06 12:00:00,6,1025.4,-0.4,65,0,7000,7.408,,,180,,,,,,,,,,,wg-a,,,,AAXX 06124 07149 12657 71804 10060 20000 30142 40254 58004 60006 875// 91200=
07149,1998-02-06 15:00:00,7,1023.7,-1.6,57,-1,18000,14.816,,,140,,,,,,,,,,,wg-a,,,,AAXX 06154 07149 12568 21408 10070 21010 30126 40237 56016 60006 82500 91500=
07149,1998-02-06 18:00:00,3,1023.3,-0.6,75,-1,11000,7.408,,,130,1.6,7.7,,,,,,,,,wg-a,,,,AAXX 06184 07149 12/61 01304 10030 21010 30120 40233 56006 60006 80000 91800 333 10077 20016=
07149,1998-02-06 21:00:00,0,1023,-0.4,80,-3,6000,11.112,,,180,,,,,,,,,,,wg-a,,,,AAXX 06214 07149 12/56 /1806 10000 21030 30116 40230 56004 60006 80000 92100=
07149,1998-02-07 00:00:00,0,1022.3,-0.7,86,-2,500,11.112,,,190,,,,,,,,,,,wg-a,,,,AAXX 07004 07149 12/00 21906 10000 21020 30109 40223 56007 60006 80001 90000=
07149,1998-02-07 03:00:00,-1,1021.5,-0.8,93,-2,500,14.816,,,190,,,,,,,,,,,wg-a,,,,AAXX 07034 07149 12/00 /1908 11010 21020 30101 40215 58008 60006 80001 90300=
07149,1998-02-07 06:00:00,-1,1020.6,-0.9,93,-2,6000,14.816,,,190,-1,3.4,,,,,,,,,wg-a,,,,AAXX 07064 07149 02/56 71908 11010 21020 30092 40206 56009 60006 86034 90600 333 10034 21010 60004=
07149,1998-02-07 09:00:00,1,1021.2,0.7,86,-1,500,22.224,,,210,,,,,,,,,,,wg-a,,,,AAXX 07094 07149 12200 72112 10010 21010 30099 40212 53007 60006 8572/ 90900=
07149,1998-02-07 12:00:00,4,1022.4,1.3,93,3,2800,18.52,,,260,,,,1,,,,,,10,wg-a,,,,AAXX 07124 07149 02328 82610 10040 20030 30112 40224 51013 60016 71062 8572/ 91200 333 60017=
07149,1998-02-07 15:00:00,8,1023.7,1.4,71,3,12000,14.816,,,290,,,,,,,,,,,wg-a,,,,AAXX 07154 07149 12562 /2908 10080 20030 30126 40237 51014 60006 81100 91500=
07149,1998-02-07 18:00:00,3,1026.8,2.9,93,2,20000,11.112,,,250,-0.8,8.4,,,,,,,,,wg-a,,,,AAXX 07184 07149 12/70 12506 10030 20020 30155 40268 51029 60006 80001 91800 333 10084 21008=
07149,1998-02-07 21:00:00,2,1029.2,2.3,93,1,12000,11.112,,,210,,,,,,,,,,,wg-a,,,,AAXX 07214 07149 12762 72106 10020 20010 30178 40292 51023 60006 875// 92100=
07149,1998-02-08 00:00:00,0,1029.9,0.6,100,0,3000,11.112,,,220,,,,,,,,,,10,wg-a,,,,AAXX 08004 07149 12130 22206 10000 20000 30184 40299 51006 60006 71011 82600 90000=
07149,1998-02-08 03:00:00,0,1030.4,0.5,100,0,400,14.816,,,190,,,,,,,,,,49,wg-a,,,,AAXX 08034 07149 12/04 91908 10000 20000 30189 40304 51005 60006 74941 89/// 90300=
07149,1998-02-08 06:00:00,1,1030.4,0,100,1,500,14.816,,,210,-0.5,3,,,,,1,,,45,wg-a,,,,AAXX 08064 07149 02/05 92108 10010 20010 30189 40304 50000 60006 74541 89/// 90600 333 10030 21005 60014=
07149,1998-02-08 12:00:00,1,1031.4,-0.1,100,1,1200,14.816,,,180,,,,,,,,,,10,wg-a,,,,AAXX 08124 07149 12112 81808 10010 20010 30200 40314 58001 60006 71042 886// 91200=
07149,1998-02-08 15:00:00,2,1030.2,-1.2,100,2,1700,11.112,,,190,,,,,,,,,,10,wg-a,,,,AAXX 08154 07149 12117 81906 10020 20020 30188 40302 56012 60006 71022 886// 91500=
07149,1998-02-08 18:00:00,2,1030.2,-0,100,2,500,7.408,,,180,0.2,2,,,,,,,,44,wg-a,,,,AAXX 08184 07149 12/05 91804 10020 20020 30188 40302 55000 60006 74442 89/// 91800 333 10020 20002=
07149,1998-02-08 21:00:00,2,1029.9,-0.3,100,2,200,7.408,,,160,,,,,,,,,,45,wg-a,,,,AAXX 08214 07149 12/02 91604 10020 20020 30185 40299 58003 60006 74544 89/// 92100=
07149,1998-02-09 00:00:00,-1,1029.2,-0.8,100,-1,200,3.704,,,180,,,,,,,,,,45,wg-a,,,,AAXX 09004 07149 12/02 91802 11010 21010 30177 40292 56008 60006 74544 89/// 90000=
07149,1998-02-09 03:00:00,-2,1028.3,-0.9,100,-2,1200,0,,,0,,,,,,,,,,40,wg-a,,,,AAXX 09034 07149 12/12 00000 11020 21020 30168 40283 58009 60006 74041 80000 90300=
07149,1998-02-09 06:00:00,-2,1027.5,-0.8,100,-2,1800,0,,,0,-2.7,1.8,,,,,,,,40,wg-a,,,,AAXX 09064 07149 02/18 30000 11020 21020 30160 40275 56008 60006 74041 81031 90600 333 10018 21027 60004=
07149,1998-02-09 09:00:00,1,1028.2,0.8,100,1,10000,7.408,,,150,,,,,,,,,,,wg-a,,,,AAXX 09094 07149 12/60 /1504 10010 20010 30168 40282 51008 60006 80001 90900=
07149,1998-02-09 12:00:00,7,1027.4,-0.6,66,1,14000,14.816,,,220,,,,,,,,,,,wg-a,,,,AAXX 09124 07149 12/64 62208 10070 20010 30162 40274 58006 60006 80001 91200=
07149,1998-02-09 15:00:00,10,1026.6,-0.6,53,1,14000,7.408,,,180,,,,,,,,,,,wg-a,,,,AAXX 09154 07149 12/64 61804 10100 20010 30156 40266 57006 60006 80001 91500=
07149,1998-02-09 17:00:00,7,1027.1,0.3,70,2,14000,11.112,,,170,-1.9,10.3,,,,,,,,,wg-a,,,,AAXX 09174 07149 12/64 11706 10070 20020 30159 40271 53003 60006 80001 91700 333 10103 21019=
07149,1998-02-09 18:00:00,7,1027.1,0.3,70,2,14000,11.112,,,170,-1.9,10.3,,,,,,,,,wg-a,,,,AAXX 09184 07149 12/64 61706 10070 20020 30159 40271 53003 60006 80001 91800 333 10103 21019=
07149,1998-02-09 21:00:00,3,1027.4,0.2,81,0,14000,7.408,,,170,,,,,,,,,,,wg-a,,,,AAXX 09214 07149 12/64 31704 10030 20000 30161 40274 53002 60006 80001 92100=
07149,1998-02-10 00:00:00,3,1028.4,1,81,0,13000,7.408,,,180,,,,,,,,,,,wg-a,,,,AAXX 10004 07149 12/63 41804 10030 20000 30171 40284 51010 60006 80001 90000=
07149,1998-02-10 03:00:00,2,1028.4,-0.1,87,0,13000,11.112,,,180,,,,,,,,,,,wg-a,,,,AAXX 10034 07149 12/63 51806 10020 20000 30170 40284 56001 60006 80001 90300=
07149,1998-02-10 06:00:00,1,1029.2,0.8,86,-1,14000,7.408,,,190,0.6,6.6,,,,,,,,,wg-a,,,,AAXX 10064 07149 02/64 21904 10010 21010 30178 40292 53008 60006 80001 90600 333 10066 20006 60004=
07149,1998-02-10 12:00:00,10,1030.4,0,57,2,15000,14.816,,,220,,,,,,,,,,,wg-a,,,,AAXX 10124 07149 12/65 12208 10100 20020 30193 40304 50000 60006 80001 91200=
07149,1998-02-10 15:00:00,11,1029,-1.3,66,5,15000,11.112,,,210,,,,,,,,,,,wg-a,,,,AAXX 10154 07149 12/65 22106 10110 20050 30180 40290 56013 60006 80001 91500=
07149,1998-02-10 18:00:00,7,1030.3,1.1,81,4,12000,7.408,,,240,1.1,11.7,,,,,,,,,wg-a,,,,AAXX 10184 07149 12/62 12404 10070 20040 30191 40303 53011 60006 80001 91800 333 10117 20011=
07149,1998-02-10 21:00:00,4,1030.6,0.2,93,3,10000,7.408,,,200,,,,,,,,,,,wg-a,,,,AAXX 10214 07149 12/60 02004 10040 20030 30193 40306 53002 60006 80000 92100=
07149,1998-02-11 00:00:00,3,1031.2,0.5,100,3,500,3.704,,,250,,,,,,,,,,40,wg-a,,,,AAXX 11004 07149 12/00 32502 10030 20030 30198 40312 53005 60006 74000 80001 90000=
07149,1998-02-11 06:00:00,1,1030.9,-0.5,100,1,7000,11.112,,,190,0.9,6.7,,,,,,,,,wg-a,,,,AAXX 11064 07149 02/57 41906 10010 20010 30195 40309 56005 60006 80001 90600 333 10067 20009 60004=
07149,1998-02-11 12:00:00,12,1031.5,0.1,58,4,12000,11.112,,,200,,,,,,,,,,,wg-a,,,,AAXX 11124 07149 12/62 62006 10120 20040 30205 40315 50001 60006 80001 91200=
07149,1998-02-11 15:00:00,14,1030.2,-1.2,55,5,18000,14.816,,,210,,,,,,,,,,,wg-a,,,,AAXX 11154 07149 12/68 42108 10140 20050 30193 40302 56012 60006 80001 91500=
07149,1998-02-11 18:00:00,10,1030.5,0.1,76,6,12000,11.112,,,200,0.6,14.6,,,,,,,,,wg-a,,,,AAXX 11184 07149 12/62 62006 10100 20060 30194 40305 53001 60006 80001 91800 333 10146 20006=
07149,1998-02-11 21:00:00,7,1031.3,0.7,87,5,12000,11.112,,,200,,,,,,,,,,,wg-a,,,,AAXX 11214 07149 12/62 52006 10070 20050 30201 40313 53007 60006 80001 92100=
07149,1998-02-12 00:00:00,5,1031.5,0.1,93,4,10000,14.816,,,210,,,,,,,,,,,wg-a,,,,AAXX 12004 07149 12/60 12108 10050 20040 30202 40315 53001 60006 80001 90000=
07149,1998-02-12 03:00:00,4,1031.7,0.2,93,3,10000,14.816,,,190,,,,,,,,,,,wg-a,,,,AAXX 12034 07149 12/60 41908 10040 20030 30204 40317 53002 60006 81031 90300=
07149,1998-02-12 06:00:00,3,1032.2,0.4,93,2,10000,11.112,,,170,3,9.6,,,,,,,,,wg-a,,,,AAXX 12064 07149 02/60 51706 10030 20020 30208 40322 53004 60006 82031 90600 333 10096 20030 60004=
07149,1998-02-12 09:00:00,6,1033.2,1.1,81,3,8000,7.408,,,190,,,,,,,,,,,wg-a,,,,AAXX 12094 07149 12/58 /1904 10060 20030 30219 40332 51011 60006 81031 90900=
07149,1998-02-12 12:00:00,13,1033.1,0.2,62,6,10000,14.816,,,210,,,,,,,,,,,wg-a,,,,AAXX 12124 07149 12/60 52108 10130 20060 30221 40331 50002 60006 80002 91200=
07149,1998-02-12 15:00:00,15,1032.4,-0.6,59,7,13000,14.816,,,210,,,,,,,,,,,wg-a,,,,AAXX 12154 07149 12/63 42108 10150 20070 30215 40324 57006 60006 80002 91500=
07149,1998-02-12 18:00:00,10,1033.1,0.5,82,7,9000,11.112,,,200,3.1,15.5,,,,,,,,,wg-a,,,,AAXX 12184 07149 12/59 32006 10100 20070 30220 40331 53005 60006 80001 91800 333 10155 20031=
07149,1998-02-12 21:00:00,8,1033.7,0.5,93,7,8000,11.112,,,200,,,,,,,,,,,wg-a,,,,AAXX 12214 07149 12/58 /2006 10080 20070 30225 40337 53005 60006 80001 92100=
07149,1998-02-13 00:00:00,4,1034.6,0.7,100,4,4000,7.408,,,230,,,,,,,,,,40,wg-a,,,,AAXX 13004 07149 12/40 /2304 10040 20040 30232 40346 52007 60006 74011 80001 90000=
07149,1998-02-13 03:00:00,2,1034.6,-0,100,2,200,3.704,,,200,,,,,,,,,,44,wg-a,,,,AAXX 13034 07149 12002 22002 10020 20020 30232 40346 55000 60006 74440 82600 90300=
07149,1998-02-13 09:00:00,3,1035.8,1.2,100,3,400,7.408,,,220,,,,,,,,,,42,wg-a,,,,AAXX 13094 07149 12/04 02204 10030 20030 30244 40358 51012 60006 74244 80000 90900=
07149,1998-02-13 12:00:00,12,1035.3,-0.1,76,8,500,0,,,0,,,,,,,,,,2,wg-a,,,,AAXX 13124 07149 12/00 /0000 10120 20080 30243 40353 58001 60006 70241 80001 91200=
07149,1998-02-13 15:00:00,17,1033.7,-1.5,45,5,9000,3.704,,,70,,,,,,,,,,,wg-a,,,,AAXX 13154 07149 12/59 30702 10170 20050 30228 40337 56015 60006 80001 91500=
07149,1998-02-13 18:00:00,13,1033.7,-0.1,51,3,11000,7.408,,,90,0.4,17.4,,,,,,,,,wg-a,,,,AAXX 13184 07149 12/61 20904 10130 20030 30227 40337 55001 60006 80001 91800 333 10174 20004=
07149,1998-02-13 21:00:00,7,1034.9,1,87,5,7000,7.408,,,50,,,,,,,,,,,wg-a,,,,AAXX 13214 07149 12/57 30504 10070 20050 30237 40349 52010 60006 80001 92100=
07149,1998-02-14 03:00:00,2,1034.2,-0.6,100,2,3500,7.408,,,150,,,,,,,,,,40,wg-a,,,,AAXX 14034 07149 12/35 01504 10020 20020 30228 40342 58006 60006 74000 80000 90300=
07149,1998-02-14 06:00:00,1,1034.5,0.2,100,1,2200,7.408,,,200,0.5,13.2,,,,,,,,40,wg-a,,,,AAXX 14064 07149 02/22 02004 10010 20010 30230 40345 53002 60006 74000 80000 90600 333 10132 20005 60004=
07149,1998-02-14 09:00:00,5,1034.9,0.6,100,5,2500,0,,,0,,,,,,,,,,10,wg-a,,,,AAXX 14094 07149 12/25 00000 10050 20050 30236 40349 52006 60006 71000 80000 90900=
07149,1998-02-14 12:00:00,14,1034.5,-0.1,58,6,500,3.704,,,130,,,,,,,,,,,wg-a,,,,AAXX 14124 07149 12/00 01302 10140 20060 30235 40345 58001 60006 80000 91200=
07149,1998-02-14 15:00:00,18,1033.3,-1,42,5,9000,3.704,,,220,,,,,,,,,,,wg-a,,,,AAXX 14154 07149 12/59 02202 10180 20050 30225 40333 56010 60006 80000 91500=
07149,1998-02-14 18:00:00,11,1033.7,0.1,71,6,7000,3.704,,,170,0.7,18.4,,,,,,,,,wg-a,,,,AAXX 14184 07149 12/57 01702 10110 20060 30226 40337 53001 60006 80000 91800 333 10184 20007=
07149,1998-02-14 21:00:00,6,1034.6,0.7,93,5,7000,3.704,,,190,,,,,,,,,,,wg-a,,,,AAXX 14214 07149 12/57 01902 10060 20050 30233 40346 51007 60006 80000 92100=
07149,1998-02-15 00:00:00,4,1034.6,-0.1,93,3,500,11.112,,,240,,,,,,,,,,,wg-a,,,,AAXX 15004 07149 12/00 02406 10040 20030 30232 40346 55001 60006 80000 90000=
07149,1998-02-15 03:00:00,2,1033.9,-0.7,100,2,3000,7.408,,,230,,,,,,,,,,11,wg-a,,,,AAXX 15034 07149 12/30 02304 10020 20020 30225 40339 58007 60006 71100 80000 90300=
07149,1998-02-15 06:00:00,1,1034,-0,100,1,2800,7.408,,,190,1,10.6,,,,,,,,11,wg-a,,,,AAXX 15064 07149 02/28 01904 10010 20010 30225 40340 55000 60006 71100 80000 90600 333 10106 20010 60004=
07149,1998-02-15 09:00:00,2,1034.4,0.5,100,2,100,3.704,,,120,,,,,,,,,,45,wg-a,,,,AAXX 15094 07149 12/01 91202 10020 20020 30230 40344 52005 60006 74541 89/// 90900=
07149,1998-02-15 12:00:00,8,1033.3,-0.9,100,8,4500,11.112,,,170,,,,,,,,,,10,wg-a,,,,AAXX 15124 07149 12/45 31706 10080 20080 30221 40333 58009 60006 71041 80001 91200=
07149,1998-02-15 15:00:00,16,1030.9,-2,63,9,9000,7.408,,,190,,,,,,,,,,,wg-a,,,,AAXX 15154 07149 12/59 /1904 10160 20090 30201 40309 58020 60006 80001 91500=
07149,1998-02-15 18:00:00,12,1030.1,-1,76,8,7000,7.408,,,170,0.7,16.3,,,,,,,,,wg-a,,,,AAXX 15184 07149 12/57 71704 10120 20080 30191 40301 56010 60006 80002 91800 333 10163 20007=
07149,1998-02-15 21:00:00,10,1028.3,-1.8,87,8,7000,11.112,,,180,,,,,,,,,,,wg-a,,,,AAXX 15214 07149 12/57 /1806 10100 20080 30173 40283 56018 60006 80002 92100=
07149,1998-02-16 00:00:00,9,1027.2,-1.2,87,7,7000,11.112,,,210,,,,,,,,,,,wg-a,,,,AAXX 16004 07149 12/57 /2106 10090 20070 30161 40272 56012 60006 80002 90000=
07149,1998-02-16 03:00:00,10,1025.3,-1.8,76,6,10000,18.52,,,210,,,,,,,,,,,wg-a,,,,AAXX 16034 07149 12/60 82110 10100 20060 30143 40253 56018 60006 8707/ 90300=
07149,1998-02-16 06:00:00,8,1024.7,-0.7,87,6,10000,14.816,,,220,8,12.1,,,,,,,,,wg-a,,,,AAXX 16064 07149 02560 72208 10080 20060 30136 40247 56007 60006 84572 90600 333 10121 20080 60004=
07149,1998-02-16 09:00:00,11,1025.5,0.9,87,9,10000,14.816,,,250,,,,,,,,,,,wg-a,,,,AAXX 16094 07149 12560 82508 10110 20090 30145 40255 51009 60006 8657/ 90900=
07149,1998-02-16 12:00:00,12,1026.5,1,67,6,18000,29.632,,,290,,,,,,,,,,,wg-a,,,,AAXX 16124 07149 12568 /2916 10120 20060 30155 40265 51010 60006 85271 91200=
07149,1998-02-16 15:00:00,12,1026.7,0.2,62,5,20000,29.632,,,300,,,,,,,,,,,wg-a,,,,AAXX 16154 07149 12570 73016 10120 20050 30157 40267 50002 60006 85501 91500=
07149,1998-02-16 18:00:00,10,1028,1.3,66,4,25000,18.52,,,310,8.4,12.8,,,,,,,,,wg-a,,,,AAXX 16184 07149 12575 /3110 10100 20040 30170 40280 53013 60006 83501 91800 333 10128 20084=
07149,1998-02-16 21:00:00,9,1029.7,1.6,71,4,25000,14.816,,,290,,,,,,,,,,,wg-a,,,,AAXX 16214 07149 12675 42908 10090 20040 30186 40297 51016 60006 84500 92100=
07149,1998-02-17 00:00:00,9,1031,1.3,76,5,25000,18.52,,,310,,,,,,,,,,,wg-a,,,,AAXX 17004 07149 12475 73110 10090 20050 30199 40310 53013 60006 875// 90000=
07149,1998-02-17 03:00:00,9,1032,1,87,7,22000,14.816,,,350,,,,,,,,,,,wg-a,,,,AAXX 17034 07149 12472 83508 10090 20070 30209 40320 53010 60006 875// 90300=
07149,1998-02-17 06:00:00,7,1033.9,1.8,76,3,20000,18.52,,,30,7,10.2,,,,,,,,,wg-a,,,,AAXX 17064 07149 02470 /0310 10070 20030 30227 40339 53018 60006 86500 90600 333 10102 20070 60004=
07149,1998-02-17 09:00:00,7,1036.7,2.7,70,2,16000,18.52,,,40,,,,,,,,,,,wg-a,,,,AAXX 17094 07149 12566 70410 10070 20020 30254 40367 51027 60006 875// 90900=
07149,1998-02-17 12:00:00,9,1037.3,0.7,57,1,16000,11.112,,,50,,,,,,,,,,,wg-a,,,,AAXX 17124 07149 12/66 10506 10090 20010 30261 40373 51007 60006 80001 91200=
07149,1998-02-17 15:00:00,10,1036.8,-0.5,50,0,18000,7.408,,,40,,,,,,,,,,,wg-a,,,,AAXX 17154 07149 12/68 00404 10100 20000 30256 40368 57005 60006 80000 91500=
07149,1998-02-17 18:00:00,7,1037.3,0.4,61,0,14000,7.408,,,100,6.5,10.3,,,,,,,,,wg-a,,,,AAXX 17184 07149 12/64 11004 10070 20000 30260 40373 53004 60006 80001 91800 333 10103 20065=
07149,1998-02-17 21:00:00,3,1037.9,0.5,81,0,12000,7.408,,,60,,,,,,,,,,,wg-a,,,,AAXX 17214 07149 12/62 00604 10030 20000 30265 40379 50005 60006 80000 92100=
07149,1998-02-18 00:00:00,2,1037.8,-0.2,93,1,11000,3.704,,,140,,,,,,,,,,,wg-a,,,,AAXX 18004 07149 12/61 01402 10020 20010 30263 40378 58002 60006 80000 90000=
07149,1998-02-18 03:00:00,1,1036.5,-1.3,93,0,8000,7.408,,,50,,,,,,,,,,,wg-a,,,,AAXX 18034 07149 12/58 00504 10010 20000 30250 40365 58013 60006 80000 90300=
07149,1998-02-18 06:00:00,1,1035.8,-0.7,93,0,7000,7.408,,,120,0.5,7.3,,,,,,,,,wg-a,,,,AAXX 18064 07149 02/57 01204 10010 20000 30243 40358 55007 60006 80000 90600 333 10073 20005 60004=
07149,1998-02-18 09:00:00,4,1035.3,-0.4,81,1,9000,11.112,,,130,,,,,,,,,,,wg-a,,,,AAXX 18094 07149 12/59 01306 10040 20010 30239 40353 56004 60006 80000 90900=
07149,1998-02-18 12:00:00,10,1032.7,-2.3,66,4,13000,14.816,,,120,,,,,,,,,,,wg-a,,,,AAXX 18124 07149 12/63 11208 10100 20040 30216 40327 58023 60006 80001 91200=
07149,1998-02-18 15:00:00,14,1029.2,-3.3,47,3,17000,14.816,,,120,,,,,,,,,,,wg-a,,,,AAXX 18154 07149 12/67 31208 10140 20030 30183 40292 58033 60006 80002 91500=
07149,1998-02-18 18:00:00,9,1029.4,-0,71,4,10000,7.408,,,180,0.3,13.9,,,,,,,,,wg-a,,,,AAXX 18184 07149 12/60 31804 10090 20040 30183 40294 55000 60006 80001 91800 333 10139 20003=
07149,1998-02-18 21:00:00,6,1029.1,-0.4,81,3,10000,18.52,,,220,,,,,,,,,,,wg-a,,,,AAXX 18214 07149 12760 12210 10060 20030 30179 40291 55004 60006 81500 92100=
07149,1998-02-19 00:00:00,5,1029.5,0.3,81,2,10000,11.112,,,260,,,,,,,,,,,wg-a,,,,AAXX 19004 07149 12/60 02606 10050 20020 30182 40295 53003 60006 80000 90000=
07149,1998-02-19 03:00:00,4,1030.5,1,93,3,10000,11.112,,,220,,,,,,,,,,,wg-a,,,,AAXX 19034 07149 12/60 02206 10040 20030 30192 40305 51010 60006 80000 90300=
07149,1998-02-19 06:00:00,5,1031,0.5,93,4,6000,11.112,,,200,3.5,9,,,,,,,,,wg-a,,,,AAXX 19064 07149 02556 72006 10050 20040 30197 40310 53005 60006 875// 90600 333 10090 20035 60004=
07149,1998-02-19 09:00:00,7,1032.4,1.5,93,6,4000,14.816,,,230,,,,,,,,,,10,wg-a,,,,AAXX 19094 07149 12240 72308 10070 20060 30212 40324 51015 60006 71022 876// 90900=
07149,1998-02-19 12:00:00,10,1032.1,-0.2,93,9,7000,14.816,,,230,,,,,,,,,,,wg-a,,,,AAXX 19124 07149 12257 72308 10100 20090 30210 40321 58002 60006 876// 91200=
07149,1998-02-19 15:00:00,12,1030.8,-1.2,82,9,8000,14.816,,,210,,,,,,,,,,,wg-a,,,,AAXX 19154 07149 12/58 /2108 10120 20090 30198 40308 56012 60006 91500=
07149,1998-02-19 18:00:00,8,1030.5,-0.4,93,7,10000,7.408,,,230,4.8,11.9,,,,,,,,,wg-a,,,,AAXX 19184 07149 12/60 /2304 10080 20070 30194 40305 56004 60006 80001 91800 333 10119 20048=
07149,1998-02-19 21:00:00,5,1029.8,-0.9,100,5,10000,3.704,,,140,,,,,,,,,,11,wg-a,,,,AAXX 19214 07149 12/60 01402 10050 20050 30185 40298 56009 60006 71100 80000 92100=
07149,1998-02-20 00:00:00,5,1028.1,-1.7,100,5,600,7.408,,,120,,,,,,,,,,41,wg-a,,,,AAXX 20004 07149 12006 51204 10050 20050 30168 40281 56017 60006 74141 85601 90000=
07149,1998-02-20 03:00:00,3,1026,-2.1,100,3,200,3.704,,,140,,,,,,,,,,45,wg-a,,,,AAXX 20034 07149 12/02 91402 10030 20030 30147 40260 58021 60006 74544 89/// 90300=
07149,1998-02-20 06:00:00,3,1023.7,-2.3,100,3,200,3.704,,,180,2.4,8,,,,,,,,45,wg-a,,,,AAXX 20064 07149 02/02 91802 10030 20030 30124 40237 57023 60006 74544 89/// 90600 333 10080 20024 60004=
07149,1998-02-20 09:00:00,5,1022.6,-1,100,5,3500,7.408,,,150,,,,,,,,,,10,wg-a,,,,AAXX 20094 07149 12/35 /1504 10050 20050 30114 40226 57010 60006 71042 80001 90900=
07149,1998-02-20 12:00:00,11,1020.4,-1.9,71,6,9000,7.408,,,180,,,,,,,,,,2,wg-a,,,,AAXX 20124 07149 12/59 /1804 10110 20060 30095 40204 58019 60006 70242 80001 91200=
07149,1998-02-20 15:00:00,16,1016.9,-3.3,55,7,10000,11.112,,,170,,,,,,,,,,,wg-a,,,,AAXX 20154 07149 12/60 61706 10160 20070 30062 40169 56033 60006 80001 91500=
07149,1998-02-20 18:00:00,13,1015.9,-1.1,72,8,7000,7.408,,,130,2.4,16.3,,,,,,,,,wg-a,,,,AAXX 20184 07149 12/57 /1304 10130 20080 30051 40159 56011 60006 82031 91800 333 10163 20024=
07149,1998-02-20 21:00:00,11,1016.6,0.6,76,7,11000,11.112,,,190,,,,,,,,,,,wg-a,,,,AAXX 20214 07149 12/61 71906 10110 20070 30057 40166 52006 60006 80002 92100=
07149,1998-02-21 00:00:00,9,1016.9,0.2,76,5,13000,14.816,,,210,,,,,,,,,,,wg-a,,,,AAXX 21004 07149 12/63 22108 10090 20050 30059 40169 53002 60006 80001 90000=
07149,1998-02-21 03:00:00,7,1016.7,-0.2,87,5,10000,14.816,,,200,,,,,,,,,,,wg-a,,,,AAXX 21034 07149 12/60 22008 10070 20050 30057 40167 58002 60006 80001 90300=
07149,1998-02-21 06:00:00,7,1016.8,0,87,5,8000,14.816,,,190,6.1,13.2,,,,,,,,,wg-a,,,,AAXX 21064 07149 02/58 /1908 10070 20050 30057 40168 50000 60006 80001 90600 333 10132 20061 60004=
07149,1998-02-21 09:00:00,8,1016,-0.7,81,5,7000,11.112,,,180,,,,,,,,,,,wg-a,,,,AAXX 21094 07149 12/57 81806 10080 20050 30050 40160 58007 60006 85072 90900=
07149,1998-02-21 12:00:00,12,1014.4,-1.4,62,5,12000,25.928,,,210,,,,,,,,,,60,wg-a,,,,AAXX 21124 07149 02/62 82114 10120 20050 30036 40144 58014 61000 76062 85072 91200 333 6100=
07149,1998-02-21 15:00:00,10,1015,0.5,87,8,10000,25.928,,,230,,,,1,,,,,,61,wg-a,,,,AAXX 21154 07149 12460 82314 10100 20080 30041 40150 53005 60017 76166 8654/ 91500=
07149,1998-02-21 18:00:00,10,1017.2,2.2,87,8,12000,22.224,,,220,6.3,12.3,,,,,,,,3,wg-a,,,,AAXX 21184 07149 02562 82212 10100 20080 30063 40172 51022 60006 70362 8557/ 91800 333 10123 20063 61000=
07149,1998-02-21 21:00:00,9,1017.5,0.2,93,8,18000,25.928,,,220,,,,,,,,,,,wg-a,,,,AAXX 21214 07149 12468 82214 10090 20080 30065 40175 51002 60006 875// 92100=
07149,1998-02-22 00:00:00,8,1018.1,0.6,93,7,20000,18.52,,,220,,,,,,,,,,,wg-a,,,,AAXX 22004 07149 12470 42210 10080 20070 30071 40181 53006 60006 84500 90000=
07149,1998-02-22 03:00:00,7,1017.3,-0.9,93,6,20000,11.112,,,180,,,,,,,,,,,wg-a,,,,AAXX 22034 07149 12370 /1806 10070 20060 30062 40173 58009 60006 83602 90300=
07149,1998-02-22 06:00:00,7,1017.2,-0,93,6,15000,18.52,,,210,6.8,9.6,,,,,,,,60,wg-a,,,,AAXX 22064 07149 02265 72110 10070 20060 30062 40172 55000 61000 76061 875// 90600 333 10096 20068 6003=
07149,1998-02-22 09:00:00,7,1020.5,3.2,87,5,28000,14.816,,,280,,,,1,,,,,,3,wg-a,,,,AAXX 22094 07149 12478 72808 10070 20050 30094 40205 53032 60017 70362 875// 90900=
07149,1998-02-22 12:00:00,9,1022.6,2.1,66,3,28000,18.52,,,300,,,,,,,,,,1,wg-a,,,,AAXX 22124 07149 12478 /3010 10090 20030 30115 40226 51021 60016 70162 83202 91200=
07149,1998-02-22 15:00:00,7,1024,1.4,76,3,25000,14.816,,,310,,,,2,,,,,,27,wg-a,,,,AAXX 22154 07149 12575 /3108 10070 20030 30129 40240 53014 60027 72787 84902 91500=
07149,1998-02-22 18:00:00,6,1027.2,3.1,81,3,25000,14.816,,,320,5.3,10.5,,,,,,,,1,wg-a,,,,AAXX 22184 07149 02575 /3208 10060 20030 30160 40272 53031 60006 70187 81500 91800 333 10105 20053 61000=
07149,1998-02-22 21:00:00,5,1030.7,3.4,81,2,25000,18.52,,,340,,,,,,,,,,,wg-a,,,,AAXX 22214 07149 12675 23410 10050 20020 30194 40307 51034 60006 82500 92100=
07149,1998-02-23 00:00:00,2,1032.7,1.9,93,1,20000,11.112,,,310,,,,,,,,,,,wg-a,,,,AAXX 23004 07149 12670 23106 10020 20010 30213 40327 51019 60006 82500 90000=
07149,1998-02-23 03:00:00,2,1033.5,0.8,93,1,14000,14.816,,,310,,,,,,,,,,,wg-a,,,,AAXX 23034 07149 12/64 03108 10020 20010 30221 40335 53008 60006 80000 90300=
07149,1998-02-23 06:00:00,1,1035,1.4,93,0,8000,11.112,,,310,0.5,7,,,,,2,,,,wg-a,,,,AAXX 23064 07149 02/58 03106 10010 20000 30235 40350 52014 60006 80000 90600 333 10070 20005 60024=
07149,1998-02-23 09:00:00,4,1036.3,1.4,93,3,500,7.408,,,290,,,,,,,,,,,wg-a,,,,AAXX 23094 07149 12000 22904 10040 20030 30249 40363 51014 60006 81601 90900=
07149,1998-02-23 12:00:00,9,1036.7,0.6,61,2,17000,18.52,,,340,,,,,,,,,,1,wg-a,,,,AAXX 23124 07149 12567 /3410 10090 20020 30255 40367 50006 60006 70140 81101 91200=
07149,1998-02-23 15:00:00,10,1035.7,-0.9,62,3,25000,22.224,,,340,,,,,,,,,,,wg-a,,,,AAXX 23154 07149 12575 53412 10100 20030 30246 40357 56009 60006 83131 91500=
07149,1998-02-23 18:00:00,7,1036.2,0.4,76,3,18000,3.704,,,310,0,10.6,,,,,,,,,wg-a,,,,AAXX 23184 07149 12668 /3102 10070 20030 30250 40362 53004 60006 83501 91800 333 10106 20000=
07149,1998-02-23 21:00:00,7,1037.1,0.8,81,4,11000,11.112,,,290,,,,,,,,,,,wg-a,,,,AAXX 23214 07149 12/61 /2906 10070 20040 30258 40371 51008 60006 92100=
07149,1998-02-24 00:00:00,7,1037,0,93,6,8000,7.408,,,260,,,,,,,,,,61,wg-a,,,,AAXX 24004 07149 02458 72604 10070 20060 30258 40370 50000 61000 76162 875// 90000 333 6100=
07149,1998-02-24 03:00:00,8,1036,-1,93,7,500,7.408,,,310,,,,0,,,,,,61,wg-a,,,,AAXX 24034 07149 12200 83104 10080 20070 30248 40360 57010 60007 76165 877// 90300=
07149,1998-02-24 06:00:00,9,1036.2,0.2,93,8,4000,7.408,,,340,6.8,8.5,,,,,1,,,10,wg-a,,,,AAXX 24064 07149 02240 83404 10090 20080 30250 40362 53002 60006 71065 877// 90600 333 10085 20068 60014=
07149,1998-02-24 09:00:00,9,1037.7,1.5,100,9,3000,7.408,,,340,,,,,,,,,,10,wg-a,,,,AAXX 24094 07149 12330 83404 10090 20090 30265 40377 51015 60006 71022 877// 90900=
07149,1998-02-24 12:00:00,11,1037.7,0.1,76,7,6000,11.112,,,320,,,,,,,,,,,wg-a,,,,AAXX 24124 07149 12456 73206 10110 20070 30266 40377 50001 60006 875// 91200=
07149,1998-02-24 15:00:00,12,1037,-0.7,67,6,14000,7.408,,,30,,,,,,,,,,,wg-a,,,,AAXX 24154 07149 12664 70304 10120 20060 30259 40370 58007 60006 875// 91500=
07149,1998-02-24 18:00:00,11,1037.8,0.8,76,7,10000,7.408,,,10,8.5,11.5,,,,,,,,,wg-a,,,,AAXX 24184 07149 12560 70104 10110 20070 30267 40378 53008 60006 875// 91800 333 10115 20085=
07149,1998-02-24 21:00:00,10,1038.3,0.4,82,7,10000,7.408,,,20,,,,,,,,,,,wg-a,,,,AAXX 24214 07149 12660 70204 10100 20070 30271 40383 51004 60006 875// 92100=
07149,1998-02-25 00:00:00,9,1038.6,0.3,81,6,10000,14.816,,,20,,,,,,,,,,,wg-a,,,,AAXX 25004 07149 12560 70208 10090 20060 30274 40386 52003 60006 875// 90000=
07149,1998-02-25 03:00:00,9,1038.1,-0.5,87,7,8000,14.816,,,30,,,,,,,,,,,wg-a,,,,AAXX 25034 07149 12558 70308 10090 20070 30269 40381 58005 60006 875// 90300=
07149,1998-02-25 06:00:00,7,1038.4,0.2,93,6,7000,14.816,,,40,7,10.5,,,,,,,,,wg-a,,,,AAXX 25064 07149 02557 /0408 10070 20060 30271 40384 53002 60006 81500 90600 333 10105 20070 60004=
07149,1998-02-25 09:00:00,8,1039.1,0.7,93,7,3500,14.816,,,50,,,,,,,,,,10,wg-a,,,,AAXX 25094 07149 12235 40508 10080 20070 30278 40391 53007 60006 71000 84600 90900=
07149,1998-02-25 12:00:00,10,1038.4,-0.6,87,8,4500,11.112,,,40,,,,,,,,,,10,wg-a,,,,AAXX 25124 07149 12445 80406 10100 20080 30272 40384 58006 60006 71011 91200=
07149,1998-02-25 15:00:00,11,1036.6,-1.7,82,8,13000,11.112,,,50,,,,,,,,,,,wg-a,,,,AAXX 25154 07149 12463 80506 10110 20080 30255 40366 58017 60006 875// 91500=
07149,1998-02-25 18:00:00,10,1036.3,-0.3,82,7,10000,14.816,,,40,6.2,10.8,,,,,,,,,wg-a,,,,AAXX 25184 07149 12460 80408 10100 20070 30252 40363 55003 60006 885// 91800 333 10108 20062=
07149,1998-02-25 21:00:00,10,1036.3,-0,82,7,6000,11.112,,,80,,,,,,,,,,,wg-a,,,,AAXX 25214 07149 12456 80806 10100 20070 30252 40363 54000 60006 885// 92100=
07149,1998-02-26 00:00:00,10,1035.4,-0.9,82,7,6000,3.704,,,70,,,,,,,,,,,wg-a,,,,AAXX 26004 07149 12456 80702 10100 20070 30243 40354 57009 60006 885// 90000=
07149,1998-02-26 03:00:00,9,1034.7,-0.7,87,7,9000,3.704,,,150,,,,,,,,,,,wg-a,,,,AAXX 26034 07149 12459 81502 10090 20070 30236 40347 58007 60006 885// 90300=
07149,1998-02-26 06:00:00,9,1034.8,-0,87,7,6000,0,,,0,8.7,10.2,,,,,,,,,wg-a,,,,AAXX 26064 07149 02456 80000 10090 20070 30236 40348 55000 60006 885// 90600 333 10102 20087 60004=
07149,1998-02-26 09:00:00,9,1034.6,-0.1,87,7,4500,0,,,0,,,,,,,,,,10,wg-a,,,,AAXX 26094 07149 12445 80000 10090 20070 30235 40346 58001 60006 71022 885// 90900=
07149,1998-02-26 12:00:00,10,1034,-0.6,82,7,4500,7.408,,,320,,,,,,,,,,10,wg-a,,,,AAXX 26124 07149 12445 83204 10100 20070 30229 40340 58006 60006 71022 885// 91200=
07149,1998-02-26 15:00:00,10,1032.5,-1.5,82,7,4500,11.112,,,290,,,,,,,,,,10,wg-a,,,,AAXX 26154 07149 12445 82906 10100 20070 30214 40325 56015 60006 71022 885// 91500=
07149,1998-02-27 00:00:00,8,1031.3,-0.8,87,6,4500,11.112,,,290,,,,,,,,,,10,wg-a,,,,AAXX 27004 07149 12345 82906 10080 20060 30201 40313 58008 60006 71022 886// 90000=
07149,1998-02-27 03:00:00,7,1030.2,-1.1,93,6,500,11.112,,,270,,,,,,,,,,3,wg-a,,,,AAXX 27034 07149 02300 82706 10070 20060 30190 40302 56011 61000 70352 885// 90300 333 ////=
07149,1998-02-27 06:00:00,7,1028.3,-1.9,93,6,6000,18.52,,,230,6.6,,,,,,,,,50,wg-a,,,,AAXX 27064 07149 02256 82310 10070 20060 30171 40283 56019 61000 75052 875// 90600 333 10085 20066 6100=
07149,1998-02-27 09:00:00,7,1028.2,-0.1,93,6,6000,14.816,,,250,,,,,,,,,,50,wg-a,,,,AAXX 27094 07149 02356 82508 10070 20060 30170 40282 55001 61000 75052 875// 90900 333 ////=
07149,1998-02-27 12:00:00,8,1026.8,-1.3,81,5,8000,29.632,,,260,,,,,,,,,,1,wg-a,,,,AAXX 27124 07149 02458 82616 10080 20050 30157 40268 58013 61000 70152 875// 91200 333 6100=
07149,1998-02-27 15:00:00,10,1023.7,-3,71,5,11000,29.632,,,240,,,,,,,,,,,wg-a,,,,AAXX 27154 07149 12/61 /2416 10100 20050 30127 40237 56030 60006 91500=
07149,1998-02-27 18:00:00,9,1022.3,-1.4,76,5,10000,29.632,,,230,6.6,9.9,,,,,,,,,wg-a,,,,AAXX 27184 07149 12660 72316 10090 20050 30113 40223 56014 60006 875// 91800 333 10099 20066=
07149,1998-02-27 21:00:00,9,1021.1,-1.2,81,6,10000,31.484,,,230,,,,,,,,,,,wg-a,,,,AAXX 27214 07149 12660 72317 10090 20060 30101 40211 58012 60006 875// 92100=
07149,1998-02-28 00:00:00,8,1019.3,-1.8,87,6,9000,29.632,,,240,,,,,,,,,,60,wg-a,,,,AAXX 28004 07149 02459 72416 10080 20060 30083 40193 56018 61000 76062 875// 90000 333 6100=
07149,1998-02-28 03:00:00,8,1017.3,-2,87,6,10000,22.224,,,240,,,,,,,,,,60,wg-a,,,,AAXX 28034 07149 02460 82412 10080 20060 30063 40173 58020 61000 76062 875// 90300 333 ////=
07149,1998-02-28 06:00:00,8,1015.6,-1.7,87,6,10000,25.928,,,240,7.6,9.1,,,,,,,,60,wg-a,,,,AAXX 28064 07149 02460 72414 10080 20060 30046 40156 56017 61000 76062 878// 90600 333 10091 20076 6100=
07149,1998-02-28 09:00:00,8,1015.9,0.3,76,4,20000,35.188,,,250,,,,,,,,,,21,wg-a,,,,AAXX 28094 07149 02470 82519 10080 20040 30049 40159 53003 61000 72162 875// 90900 333 ////=
07149,1998-02-28 12:00:00,8,1017.1,1.2,76,4,25000,25.928,,,280,,,,1,,,,,,3,wg-a,,,,AAXX 28124 07149 02475 72814 10080 20040 30061 40171 51012 60016 70362 878// 91200 333 60017=
07149,1998-02-28 15:00:00,9,1016.5,-0.6,53,0,25000,25.928,,,290,,,,,,,,,,1,wg-a,,,,AAXX 28154 07149 02575 72914 10090 20000 30055 40165 55006 61000 70186 85802 91500 333 ////=
07149,1998-02-28 18:00:00,7,1017.5,0.9,53,-2,25000,14.816,,,300,6.3,9.2,,,,,,,,1,wg-a,,,,AAXX 28184 07149 12775 73008 10070 21020 30064 40175 53009 60006 70186 82502 91800 333 10092 20063=
07149,1998-02-28 21:00:00,5,1018.1,0.5,70,0,25000,14.816,,,280,,,,,,,,,,,wg-a,,,,AAXX 28214 07149 12775 72808 10050 20000 30069 40181 52005 60006 825/2 92100=
07149,1998-03-01 00:00:00,3,1018.3,0.2,75,-1,25000,18.52,,,270,,,,,,,,,,,wg-a,,,,AAXX 01004 07149 12/75 52710 10030 21010 30071 40183 53002 60006 82031 90000=
07149,1998-03-01 03:00:00,2,1018.8,0.4,80,-1,25000,14.816,,,270,,,,,,,,,,,wg-a,,,,AAXX 01034 07149 12/75 42708 10020 21010 30075 40188 51004 60006 83031 90300=
07149,1998-03-01 06:00:00,0,1019.4,0.5,86,-2,25000,1.852,,,80,-0.6,7,,,,,1,,,,wg-a,,,,AAXX 01064 07149 02/75 30801 10000 21020 30080 40194 52005 60006 81031 90600 333 10070 21006 60014=
07149,1998-03-01 09:00:00,4,1020.7,1.5,75,0,25000,18.52,,,240,,,,,,,,,,,wg-a,,,,AAXX 01094 07149 12/75 22410 10040 20000 30095 40207 51015 60006 80001 90900=
07149,1998-03-01 12:00:00,10,1019.7,-0.8,50,0,500,29.632,,,250,,,,,,,,,,,wg-a,,,,AAXX 01124 07149 12600 52516 10100 20000 30087 40197 58008 60006 83201 91200=
07149,1998-03-01 15:00:00,9,1019.1,-0.6,57,1,25000,29.632,,,250,,,,,,,,,,,wg-a,,,,AAXX 01154 07149 12675 /2516 10090 20010 30081 40191 56006 60006 85831 91500=
07149,1998-03-01 18:00:00,8,1019.1,-0,66,2,17000,25.928,,,230,-0.6,10.1,,,,,,,,,wg-a,,,,AAXX 01184 07149 12667 52314 10080 20020 30081 40191 55000 60006 84801 91800 333 10101 21006=
07149,1998-03-01 21:00:00,7,1020.3,1.1,76,3,17000,18.52,,,230,,,,,,,,,,,wg-a,,,,AAXX 01214 07149 12767 62310 10070 20030 30092 40203 51011 60006 86500 92100=
07149,1998-03-02 03:00:00,5,1020.8,-0.3,93,4,15000,18.52,,,240,,,,,,,,,,,wg-a,,,,AAXX 02034 07149 12/65 22410 10050 20040 30096 40208 58003 60006 81032 90300=
07149,1998-03-02 06:00:00,4,1021.3,0.5,100,4,10000,18.52,,,240,4.3,8.4,,,,,,,,,wg-a,,,,AAXX 02064 07149 02360 42410 10040 20040 30101 40213 52005 60006 82801 90600 333 10084 20043 60004=
07149,1998-03-02 09:00:00,7,1022.2,1,87,5,17000,22.224,,,230,,,,,,,,,,,wg-a,,,,AAXX 02094 07149 12467 /2312 10070 20050 30111 40222 51010 60006 84801 90900=
07149,1998-03-02 15:00:00,12,1020.9,-1.1,58,4,25000,25.928,,,240,,,,,,,,,,,wg-a,,,,AAXX 02154 07149 12675 /2414 10120 20040 30100 40209 56011 60006 86801 91500=
07149,1998-03-02 18:00:00,11,1020.4,-0.5,62,4,20000,22.224,,,210,4.2,12.4,,,,,,,,,wg-a,,,,AAXX 02184 07149 12670 72112 10110 20040 30095 40204 56005 60006 875// 91800 333 10124 20042=
07149,1998-03-02 21:00:00,9,1020.3,-0.2,71,4,25000,22.224,,,200,,,,,,,,,,,wg-a,,,,AAXX 02214 07149 12675 /2012 10090 20040 30093 40203 58002 60006 83500 92100=
07149,1998-03-03 00:00:00,9,1018.9,-1.4,76,5,25000,29.632,,,220,,,,,,,,,,,wg-a,,,,AAXX 03004 07149 12775 72216 10090 20050 30079 40189 56014 60006 8457/ 90000=
07149,1998-03-03 03:00:00,9,1016.1,-2.8,71,4,20000,31.484,,,210,,,,,,,,,,,wg-a,,,,AAXX 03034 07149 12770 82117 10090 20040 30051 40161 58028 60006 8557/ 90300=
07149,1998-03-03 06:00:00,9,1014.4,-1.6,66,3,20000,35.188,,53.708,220,8.5,10.9,,,,,,,,3,wg-a,,,,AAXX 03064 07149 02570 82219 10090 20030 30035 40144 56016 60006 70362 8657/ 90600 333 10109 20085 61000 91029=
07149,1998-03-03 09:00:00,11,1013.7,-0.7,62,4,20000,46.3,,,220,,,,,,,,,,21,wg-a,,,,AAXX 03094 07149 02570 72225 10110 20040 30028 40137 58007 61000 72162 83532 90900 333 ////=
07149,1998-03-03 12:00:00,14,1013.3,-0.2,58,6,20000,38.892,,,230,,,,,,,,,,1,wg-a,,,,AAXX 03124 07149 02570 72321 10140 20060 30026 40133 58002 61000 70162 875// 91200 333 ////=
07149,1998-03-03 15:00:00,16,1011.5,-1.7,55,7,20000,42.596,,70.376,230,,,,,,,,,,,wg-a,,,,AAXX 03154 07149 12670 72323 10160 20070 30009 40115 56017 60006 84532 91500 333 91038=
07149,1998-03-03 18:00:00,15,1012.3,0.7,59,7,18000,31.484,,,230,9.3,15.9,,,,,,,,1,wg-a,,,,AAXX 03184 07149 02668 72317 10150 20070 30016 40123 53007 60006 70162 875// 91800 333 10159 20093 61000=
07149,1998-03-03 21:00:00,15,1011.4,-0.9,48,4,18000,42.596,,,220,,,,,,,,,,,wg-a,,,,AAXX 03214 07149 12668 72223 10150 20040 30007 40114 58009 60006 8153/ 92100=
07149,1998-03-04 00:00:00,15,1010.1,-1.3,48,4,20000,35.188,,61.116,210,,,,,,,,,,,wg-a,,,,AAXX 04004 07149 12/70 72119 10150 20040 39994 40101 58013 60006 8703/ 90000 333 91033=
07149,1998-03-04 03:00:00,15,1007.6,-2.4,39,1,20000,46.3,,,210,,,,,,,,,,,wg-a,,,,AAXX 04034 07149 12770 72125 10150 20010 39970 40076 58024 60006 8353/ 90300=
07149,1998-03-04 06:00:00,15,1006.1,-1.5,41,2,20000,38.892,,,220,14.3,15.9,,,,,,,,,wg-a,,,,AAXX 04064 07149 02770 72221 10150 20020 39955 40061 57015 60006 8553/ 90600 333 10159 20143 61000=
07149,1998-03-04 09:00:00,14,1005.6,-0.5,55,5,15000,38.892,,,220,,,,,,,,,,21,wg-a,,,,AAXX 04094 07149 02765 72221 10140 20050 39950 40056 57005 61000 72162 8553/ 90900 333 ////=
07149,1998-03-04 12:00:00,18,1004,-1.5,52,8,15000,42.596,,81.488,250,,,,,,,,,,3,wg-a,,,,AAXX 04124 07149 02665 72523 10180 20080 39935 40040 56015 61000 70362 8653/ 91200 333 //// 91044=
07149,1998-03-04 15:00:00,15,1003.3,-0.8,88,13,9000,46.3,,64.82,240,,,,3,,,,,,21,wg-a,,,,AAXX 04154 07149 12459 72425 10150 20130 39927 40033 56008 60037 72162 877// 91500 333 91035=
07149,1998-03-04 18:00:00,9,1006.9,3.3,87,7,6000,18.52,,,300,8.6,19,,,,,,,,61,wg-a,,,,AAXX 04184 07149 02456 83010 10090 20070 39960 40069 53033 61000 76162 888// 91800 333 10190 20086 6005=
07149,1998-03-04 21:00:00,8,1009.2,2.3,93,7,20000,14.816,,,260,,,,,,,,,,1,wg-a,,,,AAXX 04214 07149 02670 72608 10080 20070 39983 40092 51023 61000 70165 875// 92100 333 ////=
07149,1998-03-05 00:00:00,7,1011.1,1.8,81,4,25000,31.484,,,250,,,,,,,,,,1,wg-a,,,,AAXX 05004 07149 02475 /2517 10070 20040 30001 40111 51018 61000 70165 81100 90000 333 ////=
07149,1998-03-05 03:00:00,6,1013.4,2.3,81,3,25000,38.892,,,260,,,,,,,,,,,wg-a,,,,AAXX 05034 07149 12675 52621 10060 20030 30024 40134 53023 60006 84501 90300=
07149,1998-03-05 06:00:00,6,1017.8,4.3,75,2,20000,29.632,,,270,5.4,8.6,,,,,8,,,3,wg-a,,,,AAXX 05064 07149 02570 42716 10060 20020 30067 40178 53043 60006 70386 84800 90600 333 10086 20054 60084=
07149,1998-03-05 09:00:00,8,1022.6,4.8,66,2,25000,35.188,,,290,,,,,,,,,,2,wg-a,,,,AAXX 05094 07149 02575 /2919 10080 20020 30115 40226 51048 61000 70286 81100 90900 333 ////=
07149,1998-03-05 12:00:00,11,1024.6,2.1,40,-2,500,35.188,,,310,,,,,,,,,,1,wg-a,,,,AAXX 05124 07149 02600 /3119 10110 21020 30136 40246 51021 61000 70186 81100 91200 333 ////=
07149,1998-03-05 15:00:00,12,1024.9,0.3,38,-2,500,29.632,,,280,,,,,,,,,,,wg-a,,,,AAXX 05154 07149 12700 12816 10120 21020 30139 40249 50003 60006 81100 91500=
07149,1998-03-05 18:00:00,9,1025.3,0.3,53,0,500,18.52,,,240,5.3,12.2,,,,,,,,,wg-a,,,,AAXX 05184 07149 12/00 72410 10090 20000 30142 40253 53003 60006 84052 91800 333 10122 20053=
07149,1998-03-05 21:00:00,8,1025.9,0.6,61,1,10000,18.52,,,220,,,,,,,,,,,wg-a,,,,AAXX 05214 07149 12/60 /2210 10080 20010 30148 40259 51006 60006 92100=
07149,1998-03-06 00:00:00,8,1025.3,-0.6,61,1,25000,18.52,,,230,,,,,,,,,,,wg-a,,,,AAXX 06004 07149 12/75 72310 10080 20010 30142 40253 58006 60006 83032 90000=
07149,1998-03-06 03:00:00,8,1024.2,-1.1,71,3,25000,18.52,,,240,,,,,,,,,,3,wg-a,,,,AAXX 06034 07149 02675 72410 10080 20030 30131 40242 58011 61000 70362 8553/ 90300 333 ////=
07149,1998-03-06 06:00:00,7,1022.8,-1.4,76,3,25000,18.52,,,230,6,9.2,,,,,,,,3,wg-a,,,,AAXX 06064 07149 02775 72310 10070 20030 30117 40228 56014 60006 70361 83530 90600 333 10092 20060 61000=
07149,1998-03-06 09:00:00,8,1022.2,-0.6,81,5,14000,29.632,,,230,,,,,,,,,,60,wg-a,,,,AAXX 06094 07149 02464 72316 10080 20050 30111 40222 55006 61000 76062 8587/ 90900 333 ////=
07149,1998-03-06 12:00:00,10,1020.7,-1.4,82,7,16000,35.188,,,240,,,,0,,,,,,21,wg-a,,,,AAXX 06124 07149 02466 72419 10100 20070 30097 40207 56014 60006 72162 875// 91200 333 60007=
07149,1998-03-06 18:00:00,11,1019.3,-0.1,87,9,20000,14.816,,,240,6.5,11.7,,,,,,,,1,wg-a,,,,AAXX 06184 07149 02770 72408 10110 20090 30084 40193 55001 60006 70162 8453/ 91800 333 10117 20065 61000=
07149,1998-03-06 21:00:00,11,1018.1,-1.2,76,7,20000,29.632,,,240,,,,,,,,,,,wg-a,,,,AAXX 06214 07149 12770 72416 10110 20070 30072 40181 58012 60006 8557/ 92100=
07149,1998-03-07 00:00:00,9,1017.2,-0.9,87,7,20000,29.632,,,240,,,,,,,,,,,wg-a,,,,AAXX 07004 07149 12570 72416 10090 20070 30063 40172 56009 60006 8657/ 90000=
07149,1998-03-07 03:00:00,10,1015.5,-1.7,76,6,20000,31.484,,,240,,,,,,,,,,,wg-a,,,,AAXX 07034 07149 12570 72417 10100 20060 30046 40155 58017 60006 8657/ 90300=
07149,1998-03-07 06:00:00,10,1014,-1.5,82,7,15000,31.484,,,240,9.3,11.6,,,,,,,,21,wg-a,,,,AAXX 07064 07149 02465 82417 10100 20070 30031 40140 56015 61000 72162 8657/ 90600 333 10116 20093 6002=
07149,1998-03-07 12:00:00,15,1012,-1.8,67,9,25000,38.892,,,240,,,,0,,,,,,1,wg-a,,,,AAXX 07124 07149 02575 52421 10150 20090 30013 40120 58018 60006 70162 84801 91200 333 60007=
07149,1998-03-07 15:00:00,12,1011.2,-0.9,71,7,11000,42.596,,59.264,280,,,,2,,,,,,,wg-a,,,,AAXX 07154 07149 12/61 /2823 10120 20070 30004 40112 55009 60027 91500 333 91032=
07149,1998-03-07 18:00:00,10,1011.7,0.4,76,6,25000,35.188,,,270,9.2,15.2,,,,,,,,25,wg-a,,,,AAXX 07184 07149 02675 52719 10100 20060 30008 40117 53004 61000 72586 84802 91800 333 10152 20092 6000=
07149,1998-03-07 21:00:00,9,1012.5,0.8,81,6,25000,29.632,,,250,,,,,,,,,,,wg-a,,,,AAXX 07214 07149 12575 42516 10090 20060 30016 40125 52008 60006 84800 92100=
07149,1998-03-08 00:00:00,9,1011.2,-1.3,87,7,11000,35.188,,,250,,,,,,,,,,80,wg-a,,,,AAXX 08004 07149 02561 72519 10090 20070 30003 40112 56013 61000 78086 878// 90000 333 6100=
07149,1998-03-08 03:00:00,8,1010.9,-0.3,81,5,20000,29.632,,,270,,,,0,,,,,,80,wg-a,,,,AAXX 08034 07149 12570 42716 10080 20050 30000 40109 56003 60007 78086 84800 90300=
07149,1998-03-08 06:00:00,8,1011.1,0.1,87,6,20000,18.52,,,270,7.2,10.4,,,,,3,,,3,wg-a,,,,AAXX 08064 07149 02470 62710 10080 20060 30001 40111 50001 60006 70386 85501 90600 333 10104 20072 60034=
07149,1998-03-08 09:00:00,9,1010.3,-0.7,81,6,20000,25.928,,,250,,,,,,,,,,,wg-a,,,,AAXX 08094 07149 12570 72514 10090 20060 39994 40103 58007 60006 84834 90900=
07149,1998-03-08 12:00:00,10,1008.8,-1.4,82,7,9000,25.928,,,250,,,,,,,,,,80,wg-a,,,,AAXX 08124 07149 02559 72514 10100 20070 39980 40088 57014 61000 78086 86834 91200 333 6100=
07149,1998-03-08 15:00:00,11,1008.1,-0.7,82,8,25000,18.52,,,280,,,,1,,,,,,3,wg-a,,,,AAXX 08154 07149 12575 52810 10110 20080 39973 40081 56007 60017 70386 83804 91500=
07149,1998-03-08 18:00:00,10,1010.1,1.9,71,5,20000,14.816,,,330,7.3,12.1,,0,,,,,,3,wg-a,,,,AAXX 08184 07149 02570 73308 10100 20050 39992 40101 53019 60006 70386 878// 91800 333 10121 20073 60007=
07149,1998-03-08 21:00:00,8,1013.2,3,71,3,20000,22.224,,,10,,,,,,,,,,,wg-a,,,,AAXX 08214 07149 12670 70112 10080 20030 30022 40132 53030 60006 878// 92100=
07149,1998-03-09 03:00:00,1,1019.7,3.4,69,-4,20000,29.632,,,50,,,,,,,,,,,wg-a,,,,AAXX 09034 07149 12670 70516 10010 21040 30084 40197 51034 60006 85501 90300=
07149,1998-03-09 06:00:00,-1,1022.6,2.8,74,-5,25000,22.224,,,50,-0.6,9.8,,,,,2,,,,wg-a,,,,AAXX 09064 07149 02775 60512 11010 21050 30112 40226 51028 60006 825/2 90600 333 10098 21006 60024=
07149,1998-03-09 09:00:00,2,1026.4,3.8,51,-7,25000,22.224,,,50,,,,,,,,,,,wg-a,,,,AAXX 09094 07149 12/75 50512 10020 21070 30150 40264 51038 60006 81032 90900=
07149,1998-03-09 12:00:00,6,1028.2,2,31,-10,28000,25.928,,,80,,,,,,,,,,,wg-a,,,,AAXX 09124 07149 12/78 00814 10060 21100 30170 40282 51020 60006 80000 91200=
07149,1998-03-09 18:00:00,4,1030.8,1.9,56,-4,25000,14.816,,,70,-0.8,7.8,,,,,,,,,wg-a,,,,AAXX 09184 07149 12675 /0708 10040 21040 30195 40308 51019 60006 81500 91800 333 10078 21008=
07149,1998-03-09 21:00:00,2,1032.8,1.9,64,-4,25000,7.408,,,40,,,,,,,,,,,wg-a,,,,AAXX 09214 07149 12/75 00404 10020 21040 30214 40328 51019 60006 80000 92100=
07149,1998-03-10 00:00:00,1,1033.5,0.6,69,-4,25000,3.704,,,60,,,,,,,,,,,wg-a,,,,AAXX 10004 07149 12/75 20602 10010 21040 30220 40335 53006 60006 80001 90000=
07149,1998-03-10 03:00:00,-1,1033.6,0,86,-3,20000,3.704,,,270,,,,,,,,,,,wg-a,,,,AAXX 10034 07149 12/70 12702 11010 21030 30220 40336 50000 60006 80001 90300=
07149,1998-03-10 06:00:00,-2,1033.4,-0.2,93,-3,15000,3.704,,,210,-2.4,4.2,,,,,,,,,wg-a,,,,AAXX 10064 07149 02/65 12102 11020 21030 30218 40334 56002 60006 80001 90600 333 10042 21024 60004=
07149,1998-03-10 09:00:00,4,1032.6,-0.5,70,-1,15000,11.112,,,190,,,,,,,,,,,wg-a,,,,AAXX 10094 07149 12/65 41906 10040 21010 30213 40326 58005 60006 80001 90900=
07149,1998-03-10 12:00:00,8,1030.9,-1.6,42,-4,20000,18.52,,,190,,,,,,,,,,,wg-a,,,,AAXX 10124 07149 12/70 71910 10080 21040 30197 40309 58016 60006 81032 91200=
07149,1998-03-10 15:00:00,9,1027.2,-3.6,37,-5,20000,22.224,,,190,,,,,,,,,,,wg-a,,,,AAXX 10154 07149 12/70 71912 10090 21050 30161 40272 57036 60006 82032 91500=
07149,1998-03-10 18:00:00,8,1024,-3.2,36,-6,17000,18.52,,,180,-2.5,9.2,,,,,,,,,wg-a,,,,AAXX 10184 07149 12/67 71810 10080 21060 30129 40240 56032 60006 8707/ 91800 333 10092 21025=
07149,1998-03-10 21:00:00,7,1020.8,-3.2,36,-7,15000,22.224,,,200,,,,,,,,,,,wg-a,,,,AAXX 10214 07149 12865 72012 10070 21070 30097 40208 56032 60006 8702/ 92100=
07149,1998-03-11 00:00:00,4,1017,-3.9,81,1,14000,29.632,,,200,,,,0,,,,,,61,wg-a,,,,AAXX 11004 07149 02464 82016 10040 20010 30058 40170 56039 60006 76162 875// 90000 333 60007=
07149,1998-03-11 03:00:00,3,1012.6,-4.4,93,2,8000,18.52,,,190,,,,1,,,,,,61,wg-a,,,,AAXX 11034 07149 12258 81910 10030 20020 30014 40126 56044 60017 76166 887// 90300=
07149,1998-03-11 06:00:00,3,1009.9,-2.6,100,3,8000,18.52,,,190,2.9,7.5,,,,,2,,,,wg-a,,,,AAXX 11064 07149 02/58 /1910 10030 20030 39988 40099 56026 60006 90600 333 10075 20029 60024=
07149,1998-03-11 09:00:00,5,1009.7,-0.2,100,5,2000,14.816,,,220,,,,,,,,,,10,wg-a,,,,AAXX 11094 07149 02120 82208 10050 20050 39986 40097 56002 61000 71052 887// 90900 333 ////=
07149,1998-03-11 12:00:00,8,1010.5,1,93,7,3000,29.632,,,330,,,,0,,,,,,60,wg-a,,,,AAXX 11124 07149 02330 83316 10080 20070 39996 40105 53010 60006 76065 887// 91200 333 60007=
07149,1998-03-11 15:00:00,8,1011.8,1.2,87,6,14000,31.484,,,350,,,,1,,,,,,60,wg-a,,,,AAXX 11154 07149 12364 83517 10080 20060 30008 40118 53012 60017 76062 878// 91500=
07149,1998-03-11 18:00:00,7,1015.1,3.3,81,4,12000,35.188,,,350,3.1,8.5,,,,,,,,61,wg-a,,,,AAXX 11184 07149 02362 83519 10070 20040 30041 40151 53033 61000 76162 878// 91800 333 10085 20031 6000=
07149,1998-03-11 21:00:00,6,1017.9,2.7,70,1,15000,35.188,,55.56,350,,,,,,,,,,60,wg-a,,,,AAXX 11214 07149 02565 83519 10060 20010 30068 40179 51027 61000 76062 878// 92100 333 //// 91030=
07149,1998-03-12 00:00:00,5,1019.4,1.4,70,0,18000,31.484,,,350,,,,,,,,,,1,wg-a,,,,AAXX 12004 07149 02568 /3517 10050 20000 30082 40194 53014 61000 70162 84501 90000 333 6100=
07149,1998-03-12 03:00:00,3,1020.6,1.2,81,0,18000,25.928,,,340,,,,,,,,,,,wg-a,,,,AAXX 12034 07149 12568 43414 10030 20000 30094 40206 51012 60006 83130 90300=
07149,1998-03-12 06:00:00,3,1022.6,1.9,81,0,18000,22.224,,,350,3,6.7,,,,,2,,,,wg-a,,,,AAXX 12064 07149 02468 33512 10030 20000 30113 40226 53019 60006 83800 90600 333 10067 20030 60024=
07149,1998-03-12 09:00:00,6,1024.7,2.2,65,0,20000,25.928,,,10,,,,,,,,,,,wg-a,,,,AAXX 12094 07149 12570 30114 10060 20000 30135 40247 51022 60006 83800 90900=
07149,1998-03-12 12:00:00,7,1025.8,1.1,57,-1,25000,25.928,,,360,,,,,,,,,,,wg-a,,,,AAXX 12124 07149 12675 63614 10070 21010 30146 40258 51011 60006 86800 91200=
07149,1998-03-12 15:00:00,6,1025.6,-0.2,61,-1,20000,22.224,,,360,,,,,,,,,,25,wg-a,,,,AAXX 12154 07149 02570 73612 10060 21010 30144 40256 56002 61000 72586 85801 91500 333 ////=
07149,1998-03-12 18:00:00,5,1027.1,1.5,56,-3,20000,25.928,,,340,3.1,8.6,,,,,,,,1,wg-a,,,,AAXX 12184 07149 12670 73414 10050 21030 30159 40271 53015 60006 70186 83831 91800 333 10086 20031=
07149,1998-03-12 21:00:00,3,1028.6,1.4,65,-3,20000,14.816,,,10,,,,,,,,,,,wg-a,,,,AAXX 12214 07149 12670 /0108 10030 21030 30173 40286 53014 60006 81430 92100=
07149,1998-03-13 00:00:00,1,1029.3,0.6,80,-2,20000,3.704,,,300,,,,,,,,,,,wg-a,,,,AAXX 13004 07149 12/70 03002 10010 21020 30179 40293 52006 60006 80000 90000=
07149,1998-03-13 06:00:00,-1,1029.3,0.4,93,-2,14000,11.112,,,270,-1.6,5.7,,,,,,,,,wg-a,,,,AAXX 13064 07149 02/64 32706 11010 21020 30178 40293 53004 60006 80001 90600 333 10057 21016 61000=
07149,1998-03-13 09:00:00,5,1029.6,0.5,70,0,15000,11.112,,,230,,,,,,,,,,,wg-a,,,,AAXX 13094 07149 12765 72306 10050 20000 30183 40296 53005 60006 875// 90900=
07149,1998-03-13 12:00:00,7,1029.2,-0.3,61,0,20000,18.52,,,250,,,,,,,,,,,wg-a,,,,AAXX 13124 07149 12570 72510 10070 20000 30180 40292 58003 60006 875// 91200=
07149,1998-03-13 15:00:00,7,1027.9,-1.3,70,2,16000,18.52,,,250,,,,,,,,,,,wg-a,,,,AAXX 13154 07149 12566 72510 10070 20020 30167 40279 58013 60006 875// 91500=
07149,1998-03-13 18:00:00,7,1028.3,0.4,76,3,7000,11.112,,,280,-1.5,7.5,,,,,,,,,wg-a,,,,AAXX 13184 07149 12457 72806 10070 20030 30171 40283 53004 60006 875// 91800 333 10075 21015=
07149,1998-03-14 00:00:00,6,1029.6,0.6,93,5,6000,7.408,,,250,,,,,,,,,,,wg-a,,,,AAXX 14004 07149 12456 82504 10060 20050 30184 40296 51006 60006 885// 90000=
07149,1998-03-14 06:00:00,7,1030.2,1,93,6,2500,7.408,,,290,6.3,7.2,,,,,,,,10,wg-a,,,,AAXX 14064 07149 02325 82904 10070 20060 30190 40302 53010 60006 71022 885// 90600 333 10072 20063 60004=
07149,1998-03-14 09:00:00,8,1031.2,1.1,93,7,4700,7.408,,,330,,,,,,,,,,10,wg-a,,,,AAXX 14094 07149 12347 73304 10080 20070 30201 40312 51011 60006 71022 875// 90900=
07149,1998-03-14 12:00:00,11,1032.1,0.9,66,5,12000,11.112,,,20,,,,,,,,,,,wg-a,,,,AAXX 14124 07149 12562 70206 10110 20050 30210 40321 51009 60006 8783/ 91200=
07149,1998-03-14 15:00:00,11,1031.6,-0.4,58,3,18000,14.816,,,50,,,,,,,,,,,wg-a,,,,AAXX 14154 07149 12668 70508 10110 20030 30206 40316 55004 60006 878// 91500=
07149,1998-03-14 18:00:00,10,1031.9,0.2,66,4,16000,7.408,,,80,6.6,12,,,,,,,,,wg-a,,,,AAXX 14184 07149 12666 70804 10100 20040 30208 40319 53002 60006 875// 91800 333 10120 20066=
07149,1998-03-14 21:00:00,9,1033,1.1,76,5,15000,7.408,,,40,,,,,,,,,,,wg-a,,,,AAXX 14214 07149 12665 70404 10090 20050 30219 40330 51011 60006 875// 92100=
07149,1998-03-15 00:00:00,8,1033,-0.1,76,4,15000,0,,,0,,,,,,,,,,,wg-a,,,,AAXX 15004 07149 12665 70000 10080 20040 30218 40330 58001 60006 875// 90000=
07149,1998-03-15 03:00:00,6,1032.5,-0.6,87,4,13000,11.112,,,290,,,,,,,,,,,wg-a,,,,AAXX 15034 07149 12/63 /2906 10060 20040 30212 40325 58006 60006 80000 90300=
07149,1998-03-15 06:00:00,3,1033.4,0.8,100,3,3000,7.408,,,320,3.1,10.2,,,,,,,,10,wg-a,,,,AAXX 15064 07149 02130 23204 10030 20030 30220 40334 53008 60006 71011 82600 90600 333 10102 20031 60004=
07149,1998-03-15 09:00:00,6,1034.1,0.8,93,5,4000,11.112,,,330,,,,,,,,,,10,wg-a,,,,AAXX 15094 07149 12140 43306 10060 20050 30228 40341 53008 60006 71041 84600 90900=
07149,1998-03-15 12:00:00,9,1033.7,-0.2,71,4,9000,14.816,,,340,,,,,,,,,,3,wg-a,,,,AAXX 15124 07149 12559 73408 10090 20040 30226 40337 58002 60006 70341 875// 91200=
07149,1998-03-15 15:00:00,9,1032.8,-0.9,71,4,9000,18.52,,,330,,,,,,,,,,,wg-a,,,,AAXX 15154 07149 12559 73310 10090 20040 30217 40328 58009 60006 875// 91500=
07149,1998-03-15 18:00:00,9,1032.5,-0.3,71,4,8000,14.816,,,340,3.3,10,,,,,,,,,wg-a,,,,AAXX 15184 07149 12558 73408 10090 20040 30214 40325 55003 60006 875// 91800 333 10100 20033=
07149,1998-03-15 21:00:00,8,1033,0.4,87,6,6000,7.408,,,360,,,,,,,,,,,wg-a,,,,AAXX 15214 07149 12456 83604 10080 20060 30218 40330 51004 60006 875// 92100=
07149,1998-03-16 00:00:00,8,1032.8,-0.2,87,6,6000,7.408,,,360,,,,,,,,,,,wg-a,,,,AAXX 16004 07149 12556 83604 10080 20060 30216 40328 58002 60006 875// 90000=
07149,1998-03-16 06:00:00,8,1032.6,0.6,81,5,500,11.112,,,330,7.6,8.7,,,,,,,,,wg-a,,,,AAXX 16064 07149 02500 83306 10080 20050 30214 40326 53006 60006 885// 90600 333 10087 20076 60004=
07149,1998-03-16 09:00:00,9,1033,0.4,81,6,7000,11.112,,,330,,,,,,,,,,,wg-a,,,,AAXX 16094 07149 12457 83306 10090 20060 30218 40330 50004 60006 875// 90900=
07149,1998-03-16 12:00:00,9,1032.7,-0.2,81,6,6000,14.816,,,320,,,,,,,,,,,wg-a,,,,AAXX 16124 07149 12456 83208 10090 20060 30216 40327 57002 60006 885// 91200=
07149,1998-03-16 15:00:00,9,1031.8,-0.9,76,5,9000,11.112,,,320,,,,,,,,,,,wg-a,,,,AAXX 16154 07149 12459 83206 10090 20050 30207 40318 58009 60006 885// 91500=
07149,1998-03-16 18:00:00,9,1031.5,-0.3,71,4,7000,11.112,,,300,8,9.4,,,,,,,,,wg-a,,,,AAXX 16184 07149 12557 83006 10090 20040 30204 40315 57003 60006 885// 91800 333 10094 20080=
07149,1998-03-17 00:00:00,8,1031.8,-0.4,81,5,8000,11.112,,,320,,,,,,,,,,,wg-a,,,,AAXX 17004 07149 12558 83206 10080 20050 30206 40318 58004 60006 885// 90000=
07149,1998-03-17 03:00:00,8,1031.6,-0.2,71,3,7000,11.112,,,330,,,,,,,,,,,wg-a,,,,AAXX 17034 07149 12557 83306 10080 20030 30204 40316 57002 60006 885// 90300=
07149,1998-03-17 06:00:00,8,1032.2,0.6,71,3,6000,11.112,,,320,7.4,9.3,,,,,,,,,wg-a,,,,AAXX 17064 07149 02556 83206 10080 20030 30210 40322 53006 60006 885// 90600 333 10093 20074 60004=
07149,1998-03-17 09:00:00,8,1033,0.8,71,3,7000,11.112,,,320,,,,,,,,,,,wg-a,,,,AAXX 17094 07149 12557 83206 10080 20030 30218 40330 51008 60006 885// 90900=
07149,1998-03-17 12:00:00,10,1032.8,-0.1,62,3,8000,7.408,,,360,,,,,,,,,,,wg-a,,,,AAXX 17124 07149 12558 /3604 10100 20030 30217 40328 55001 60006 875// 91200=
07149,1998-03-17 15:00:00,10,1032.6,-0.2,66,4,7000,18.52,,,330,,,,,,,,,,,wg-a,,,,AAXX 17154 07149 12557 83310 10100 20040 30215 40326 56002 60006 885// 91500=
07149,1998-03-17 18:00:00,9,1033.2,0.6,71,4,7000,11.112,,,10,7.4,10.3,,,,,,,,,wg-a,,,,AAXX 17184 07149 12557 80106 10090 20040 30221 40332 53006 60006 885// 91800 333 10103 20074=
07149,1998-03-17 21:00:00,9,1033.8,0.5,66,3,8000,11.112,,,10,,,,,,,,,,,wg-a,,,,AAXX 17214 07149 12558 80106 10090 20030 30226 40338 51005 60006 885// 92100=
07149,1998-03-18 00:00:00,8,1034.6,0.8,76,4,8000,3.704,,,130,,,,,,,,,,,wg-a,,,,AAXX 18004 07149 12558 81302 10080 20040 30234 40346 51008 60006 885// 90000=
07149,1998-03-18 03:00:00,8,1034.6,-0,76,4,8000,0,,,0,,,,,,,,,,,wg-a,,,,AAXX 18034 07149 12558 80000 10080 20040 30234 40346 54000 60006 885// 90300=
07149,1998-03-18 06:00:00,8,1035.4,0.8,81,5,8000,3.704,,,70,7.7,9.3,,,,,,,,,wg-a,,,,AAXX 18064 07149 02558 80702 10080 20050 30242 40354 53008 60006 885// 90600 333 10093 20077 60004=
07149,1998-03-18 09:00:00,10,1036.7,1.3,71,5,10000,3.704,,,70,,,,,,,,,,,wg-a,,,,AAXX 18094 07149 12560 80702 10100 20050 30255 40367 51013 60006 885// 90900=
07149,1998-03-18 12:00:00,11,1037.3,0.7,62,4,17000,11.112,,,50,,,,,,,,,,,wg-a,,,,AAXX 18124 07149 12667 80506 10110 20040 30262 40373 51007 60006 885// 91200=
07149,1998-03-18 15:00:00,12,1036.7,-0.6,54,3,17000,11.112,,,90,,,,,,,,,,,wg-a,,,,AAXX 18154 07149 12667 /0906 10120 20030 30256 40367 56006 60006 84501 91500=
07149,1998-03-18 18:00:00,11,1036.8,0.1,58,3,15000,7.408,,,120,7.8,12.8,,,,,,,,,wg-a,,,,AAXX 18184 07149 12765 51204 10110 20030 30257 40368 53001 60006 815/4 91800 333 10128 20078=
07149,1998-03-18 21:00:00,8,1038.2,1.2,76,4,12000,3.704,,,310,,,,,,,,,,,wg-a,,,,AAXX 18214 07149 12662 73102 10080 20040 30269 40382 52012 60006 875// 92100=
07149,1998-03-19 00:00:00,7,1038.5,0.3,81,4,12000,3.704,,,20,,,,,,,,,,,wg-a,,,,AAXX 19004 07149 12662 70202 10070 20040 30272 40385 50003 60006 875// 90000=
07149,1998-03-19 03:00:00,7,1038.6,0.1,81,4,12000,7.408,,,20,,,,,,,,,,,wg-a,,,,AAXX 19034 07149 12662 70204 10070 20040 30273 40386 50001 60006 875// 90300=
07149,1998-03-19 06:00:00,5,1039.7,1,87,3,7000,3.704,,,40,5.1,11,,,,,,,,,wg-a,,,,AAXX 19064 07149 02757 /0402 10050 20030 30283 40397 53010 60006 82530 90600 333 10110 20051 60004=
07149,1998-03-19 09:00:00,9,1040.7,1.2,81,6,6000,11.112,,,70,,,,,,,,,,,wg-a,,,,AAXX 19094 07149 12656 /0706 10090 20060 30295 40407 51012 60006 85501 90900=
07149,1998-03-19 12:00:00,12,1040.7,0.1,50,2,15000,14.816,,,60,,,,,,,,,,,wg-a,,,,AAXX 19124 07149 12665 40608 10120 20020 30296 40407 52001 60006 83801 91200=
07149,1998-03-19 15:00:00,13,1039.3,-1.4,41,0,17000,14.816,,,60,,,,,,,,,,,wg-a,,,,AAXX 19154 07149 12767 20608 10130 20000 30282 40393 57014 60006 82501 91500=
07149,1998-03-19 18:00:00,10,1039.5,0.1,43,-2,17000,14.816,,,70,5.2,13.3,,,,,,,,,wg-a,,,,AAXX 19184 07149 12/67 50708 10100 21020 30283 40395 53001 60006 80001 91800 333 10133 20052=
07149,1998-03-19 21:00:00,6,1039.9,0.2,61,-1,17000,7.408,,,60,,,,,,,,,,,wg-a,,,,AAXX 19214 07149 12/67 00604 10060 21010 30285 40399 51002 60006 80000 92100=
07149,1998-03-20 00:00:00,3,1039.8,-0.2,70,-2,15000,7.408,,,30,,,,,,,,,,,wg-a,,,,AAXX 20004 07149 12/65 30304 10030 21020 30283 40398 58002 60006 80001 90000=
07149,1998-03-20 03:00:00,2,1039.4,-0.4,80,-1,12000,7.408,,,30,,,,,,,,,,,wg-a,,,,AAXX 20034 07149 12/62 30304 10020 21010 30279 40394 57004 60006 81031 90300=
07149,1998-03-20 06:00:00,2,1039.5,0.1,80,-1,10000,7.408,,,30,1.2,10.5,,,,,,,,,wg-a,,,,AAXX 20064 07149 02/60 30304 10020 21010 30280 40395 53001 60006 80001 90600 333 10105 20012 60004=
07149,1998-03-20 09:00:00,9,1039.2,0,57,1,11000,11.112,,,50,,,,,,,,,,,wg-a,,,,AAXX 20094 07149 12/61 20506 10090 20010 30280 40392 50000 60006 80001 90900=
07149,1998-03-20 12:00:00,11,1038.5,-0.6,47,0,18000,11.112,,,30,,,,,,,,,,,wg-a,,,,AAXX 20124 07149 12668 70306 10110 20000 30274 40385 58006 60006 8113/ 91200=
07149,1998-03-20 15:00:00,13,1035.6,-2.8,44,1,20000,11.112,,,330,,,,,,,,,,,wg-a,,,,AAXX 20154 07149 12670 /3306 10130 20010 30246 40356 58028 60006 82130 91500=
07149,1998-03-20 18:00:00,11,1035.4,-0.3,54,2,16000,18.52,,,10,1.7,13.1,,,,,,,,,wg-a,,,,AAXX 20184 07149 12666 70110 10110 20020 30243 40354 55003 60006 875// 91800 333 10131 20017=
07149,1998-03-20 21:00:00,10,1035.6,0.2,62,3,18000,22.224,,,10,,,,,,,,,,,wg-a,,,,AAXX 20214 07149 12768 70112 10100 20030 30245 40356 53002 60006 875// 92100=
07149,1998-03-21 00:00:00,9,1035.2,-0.5,76,5,1500,18.52,,,20,,,,,,,,,,,wg-a,,,,AAXX 21004 07149 12515 70210 10090 20050 30240 40352 58005 60006 875// 90000=
07149,1998-03-21 03:00:00,9,1033.4,-1.7,76,5,12000,18.52,,,10,,,,,,,,,,,wg-a,,,,AAXX 21034 07149 12662 70110 10090 20050 30223 40334 58017 60006 875// 90300=
07149,1998-03-21 06:00:00,9,1033.1,-0.4,76,5,10000,22.224,,,20,8.4,11.3,,,,,,,,,wg-a,,,,AAXX 21064 07149 02460 80212 10090 20050 30219 40331 57004 60006 885// 90600 333 10113 20084 60004=
07149,1998-03-21 09:00:00,8,1033.6,0.5,93,7,17000,22.224,,,30,,,,,,,,,,21,wg-a,,,,AAXX 21094 07149 02467 /0312 10080 20070 30224 40336 50005 61000 72165 878// 90900 333 ////=
07149,1998-03-21 12:00:00,9,1033.4,-0.2,76,5,17000,22.224,,,40,,,,,,,,,,1,wg-a,,,,AAXX 21124 07149 02467 70412 10090 20050 30222 40334 56002 61000 70165 875// 91200 333 6100=
07149,1998-03-21 15:00:00,11,1032.1,-1.2,62,4,18000,22.224,,,20,,,,,,,,,,,wg-a,,,,AAXX 21154 07149 12568 70212 10110 20040 30210 40321 56012 60006 878// 91500=
07149,1998-03-21 18:00:00,9,1032.1,-0,66,3,15000,22.224,,,30,7.6,11,,,,,,,,,wg-a,,,,AAXX 21184 07149 12565 70312 10090 20030 30210 40321 55000 60006 875// 91800 333 10110 20076=
07149,1998-03-21 21:00:00,7,1032.8,0.6,76,3,13000,22.224,,,30,,,,,,,,,,,wg-a,,,,AAXX 21214 07149 12/63 00312 10070 20030 30216 40328 52006 60006 80000 92100=
07149,1998-03-22 00:00:00,5,1033.3,0.4,87,3,11000,18.52,,,50,,,,,,,,,,,wg-a,,,,AAXX 22004 07149 12/61 00510 10050 20030 30220 40333 52004 60006 80000 90000=
07149,1998-03-22 03:00:00,1,1033.1,-0.4,100,1,6000,11.112,,,30,,,,,,,,,,,wg-a,,,,AAXX 22034 07149 12/56 00306 10010 20010 30216 40331 56004 60006 80000 90300=
07149,1998-03-22 06:00:00,2,1033.4,0.3,93,1,3000,11.112,,,30,1,9.4,,,,,,,,10,wg-a,,,,AAXX 22064 07149 02/30 20306 10020 20010 30219 40334 53003 60006 71000 80001 90600 333 10094 20010 61000=
07149,1998-03-22 09:00:00,7,1034,0.9,70,2,8000,11.112,,,50,,,,,,,,,,,wg-a,,,,AAXX 22094 07149 12758 30506 10070 20020 30228 40340 51009 60006 82501 90900=
07149,1998-03-22 12:00:00,10,1033.3,-0.6,57,2,12000,18.52,,,40,,,,,,,,,,,wg-a,,,,AAXX 22124 07149 12662 20410 10100 20020 30222 40333 58006 60006 82100 91200=
07149,1998-03-22 15:00:00,12,1031.7,-1.5,44,0,12000,22.224,,,60,,,,,,,,,,,wg-a,,,,AAXX 22154 07149 12662 /0612 10120 20000 30207 40317 56015 60006 81100 91500=
07149,1998-03-22 18:00:00,9,1031.9,0.1,61,2,17000,18.52,,,40,1.5,12.1,,,,,,,,,wg-a,,,,AAXX 22184 07149 12667 /0410 10090 20020 30208 40319 53001 60006 81500 91800 333 10121 20015=
07149,1998-03-22 21:00:00,7,1032.2,0.2,76,3,17000,14.816,,,40,,,,,,,,,,,wg-a,,,,AAXX 22214 07149 12/67 40408 10070 20030 30210 40322 51002 60006 80001 92100=
07149,1998-03-23 00:00:00,7,1031.7,-0.5,76,3,17000,11.112,,,40,,,,,,,,,,,wg-a,,,,AAXX 23004 07149 12667 70406 10070 20030 30205 40317 58005 60006 875// 90000=
07149,1998-03-23 03:00:00,7,1030.6,-1.1,76,3,16000,18.52,,,20,,,,,,,,,,,wg-a,,,,AAXX 23034 07149 12466 70210 10070 20030 30194 40306 57011 60006 875// 90300=
07149,1998-03-23 06:00:00,7,1029.8,-0.8,76,3,12000,18.52,,,10,4.9,9,,,,,,,,,wg-a,,,,AAXX 23064 07149 02562 70110 10070 20030 30186 40298 57008 60006 875// 90600 333 10090 20049 60004=
07149,1998-03-23 09:00:00,8,1029.3,-0.5,71,3,12000,18.52,,,360,,,,,,,,,,,wg-a,,,,AAXX 23094 07149 12562 83610 10080 20030 30181 40293 57005 60006 875// 90900=
07149,1998-03-23 12:00:00,9,1027.9,-1.3,57,1,13000,22.224,,,360,,,,,,,,,,1,wg-a,,,,AAXX 23124 07149 02563 73612 10090 20010 30168 40279 58013 61000 70162 878// 91200 333 6100=
07149,1998-03-23 15:00:00,9,1026.6,-1.3,57,1,15000,25.928,,,10,,,,,,,,,,,wg-a,,,,AAXX 23154 07149 12665 70114 10090 20010 30155 40266 56013 60006 878// 91500=
07149,1998-03-23 18:00:00,8,1026.6,-0,66,2,15000,29.632,,,360,7,9.5,,,,,,,,21,wg-a,,,,AAXX 23184 07149 02565 73616 10080 20020 30155 40266 55000 61000 72162 878// 91800 333 10095 20070 6100=
07149,1998-03-23 21:00:00,4,1028.5,1.7,81,1,13000,25.928,,,50,,,,,,,,,,1,wg-a,,,,AAXX 23214 07149 02563 70514 10040 20010 30172 40285 52017 61000 70162 878// 92100 333 ////=
07149,1998-03-24 00:00:00,1,1029.5,0.9,80,-2,20000,18.52,,,60,,,,,,,,,,1,wg-a,,,,AAXX 24004 07149 02/70 /0610 10010 21020 30181 40295 53009 61000 70161 80000 90000 333 ////=
07149,1998-03-24 03:00:00,0,1030,0.4,80,-3,20000,14.816,,,40,,,,,,,,,,,wg-a,,,,AAXX 24034 07149 12/70 00408 10000 21030 30185 40300 51004 60006 80000 90300=
07149,1998-03-24 06:00:00,-1,1031.2,1.1,80,-4,13000,14.816,,,40,-1.4,7.9,,,,,,,,,wg-a,,,,AAXX 24064 07149 02/63 10408 11010 21040 30196 40312 53011 60006 80001 90600 333 10079 21014 61000=
07149,1998-03-24 09:00:00,4,1032.3,1.3,56,-4,13000,11.112,,,50,,,,,,,,,,,wg-a,,,,AAXX 24094 07149 12/63 60506 10040 21040 30209 40323 51013 60006 80001 90900=
07149,1998-03-24 12:00:00,7,1032,-0.1,42,-5,18000,14.816,,,70,,,,,,,,,,,wg-a,,,,AAXX 24124 07149 12/68 60708 10070 21050 30208 40320 58001 60006 80002 91200=
07149,1998-03-24 15:00:00,9,1031.5,-0.4,37,-5,20000,11.112,,,20,,,,,,,,,,,wg-a,,,,AAXX 24154 07149 12/70 40206 10090 21050 30204 40315 56004 60006 80002 91500=
07149,1998-03-24 18:00:00,6,1032.3,0.6,49,-4,17000,11.112,,,70,-1.5,9.2,,,,,,,,,wg-a,,,,AAXX 24184 07149 12/67 40706 10060 21040 30210 40323 53006 60006 80001 91800 333 10092 21015=
07149,1998-03-24 21:00:00,4,1033.1,0.7,60,-3,12000,3.704,,,100,,,,,,,,,,,wg-a,,,,AAXX 24214 07149 12/62 01002 10040 21030 30217 40331 52007 60006 80000 92100=
07149,1998-03-25 00:00:00,1,1032.7,-0.5,75,-3,12000,0,,,0,,,,,,,,,,,wg-a,,,,AAXX 25004 07149 12/62 00000 10010 21030 30212 40327 56005 60006 80000 90000=
07149,1998-03-25 03:00:00,2,1032.2,-0.4,64,-4,12000,7.408,,,130,,,,,,,,,,,wg-a,,,,AAXX 25034 07149 12/62 51304 10020 21040 30208 40322 56004 60006 80001 90300=
07149,1998-03-25 06:00:00,0,1032,-0.3,74,-4,10000,7.408,,,120,-0.5,6.1,,,,,,,,,wg-a,,,,AAXX 25064 07149 02/60 31204 10000 21040 30205 40320 57003 60006 82031 90600 333 10061 21005 60004=
07149,1998-03-25 09:00:00,6,1031.9,0.1,49,-4,10000,7.408,,,160,,,,,,,,,,,wg-a,,,,AAXX 25094 07149 12/60 61604 10060 21040 30206 40319 50001 60006 80001 90900=
07149,1998-03-25 12:00:00,9,1030.5,-1.2,40,-4,16000,11.112,,,180,,,,,,,,,,,wg-a,,,,AAXX 25124 07149 12/66 71806 10090 21040 30194 40305 58012 60006 80008 91200=
07149,1998-03-25 15:00:00,11,1027.9,-2.5,35,-4,10000,7.408,,,200,,,,,,,,,,,wg-a,,,,AAXX 25154 07149 12/60 /2004 10110 21040 30169 40279 56025 60006 91500=
07149,1998-03-25 18:00:00,10,1026.9,-1.1,32,-6,18000,7.408,,,120,0,11.5,,,,,,,,,wg-a,,,,AAXX 25184 07149 12/68 71204 10100 21060 30158 40269 56011 60006 86072 91800 333 10115 20000=
07149,1998-03-25 21:00:00,6,1026,-1,45,-5,20000,7.408,,,160,,,,,,,,,,,wg-a,,,,AAXX 25214 07149 12/70 71604 10060 21050 30148 40260 58010 60006 81032 92100=
07149,1998-03-26 00:00:00,5,1024.6,-1.4,56,-3,20000,3.704,,,170,,,,,,,,,,,wg-a,,,,AAXX 26004 07149 12/70 51702 10050 21030 30134 40246 58014 60006 82032 90000=
07149,1998-03-26 03:00:00,4,1023.3,-1.3,65,-2,14000,3.704,,,210,,,,,,,,,,,wg-a,,,,AAXX 26034 07149 12764 72102 10040 21020 30121 40233 57013 60006 8357/ 90300=
07149,1998-03-26 06:00:00,4,1022.9,-0.4,65,-2,12000,7.408,,,190,3.5,9.6,,,,,,,,,wg-a,,,,AAXX 26064 07149 02762 71904 10040 21020 30117 40229 56004 60006 85532 90600 333 10096 20035 60004=
07149,1998-03-26 09:00:00,10,1022,-0.7,37,-4,15000,18.52,,,220,,,,,,,,,,,wg-a,,,,AAXX 26094 07149 12765 72210 10100 21040 30110 40220 58007 60006 865/2 90900=
07149,1998-03-26 12:00:00,12,1021.3,-0.6,47,1,15000,18.52,,,240,,,,,,,,,,,wg-a,,,,AAXX 26124 07149 12665 72410 10120 20010 30104 40213 58006 60006 8357/ 91200=
07149,1998-03-26 15:00:00,9,1020.1,-1.3,76,5,8000,14.816,,,240,,,,0,,,,,,60,wg-a,,,,AAXX 26154 07149 12558 72408 10090 20050 30091 40201 56013 60007 76062 8557/ 91500=
07149,1998-03-26 18:00:00,8,1020,-0.1,87,6,500,14.816,,,230,3.9,11.9,,,,,,,,61,wg-a,,,,AAXX 26184 07149 02500 82308 10080 20060 30090 40200 58001 61000 76162 8657/ 91800 333 10119 20039 6001=
07149,1998-03-26 21:00:00,7,1019.9,-0.2,87,5,6000,22.224,,,230,,,,0,,,,,,3,wg-a,,,,AAXX 26214 07149 12556 82312 10070 20050 30088 40199 56002 60007 70362 8557/ 92100=
07149,1998-03-27 00:00:00,8,1019.4,-0.4,87,6,7000,18.52,,,220,,,,,,,,,,3,wg-a,,,,AAXX 27004 07149 12457 82210 10080 20060 30084 40194 55004 60016 70362 8657/ 90000=
07149,1998-03-27 03:00:00,8,1018.7,-0.7,93,7,4000,18.52,,,230,,,,,,,,,,58,wg-a,,,,AAXX 27034 07149 02340 82310 10080 20070 30077 40187 56007 61000 75865 877// 90300 333 ////=
07149,1998-03-27 06:00:00,7,1019,0.3,100,7,1400,14.816,,,210,7.1,8,,,,,,,,10,wg-a,,,,AAXX 27064 07149 02114 82108 10070 20070 30080 40190 53003 61000 71065 887// 90600 333 10080 20071 6002=
07149,1998-03-27 09:00:00,9,1020.4,1.4,100,9,1700,14.816,,,230,,,,0,,,,,,10,wg-a,,,,AAXX 27094 07149 12217 82308 10090 20090 30094 40204 53014 60007 71065 887// 90900=
07149,1998-03-27 12:00:00,12,1020.3,0,94,11,7000,11.112,,,240,,,,,,,,,,1,wg-a,,,,AAXX 27124 07149 02357 82406 10120 20110 30094 40203 50000 60006 70165 876// 91200 333 61000=
07149,1998-03-27 15:00:00,12,1019.9,-0.4,88,10,7000,11.112,,,220,,,,0,,,,,,,wg-a,,,,AAXX 27154 07149 12457 82206 10120 20100 30090 40199 58004 60007 875// 91500=
07149,1998-03-27 18:00:00,12,1019.6,-0.3,88,10,10000,7.408,,,220,7.4,12.8,,,,,,,,,wg-a,,,,AAXX 27184 07149 12460 82204 10120 20100 30087 40196 56003 60006 875// 91800 333 10128 20074=
07149,1998-03-27 21:00:00,11,1019.2,-0.4,87,9,9000,11.112,,,130,,,,,,,,,,,wg-a,,,,AAXX 27214 07149 12559 /1306 10110 20090 30083 40192 58004 60006 82500 92100=
07149,1998-03-28 00:00:00,8,1018.5,-0.8,93,7,8000,7.408,,,140,,,,,,,,,,,wg-a,,,,AAXX 28004 07149 12/58 41404 10080 20070 30075 40185 58008 60006 80001 90000=
07149,1998-03-28 03:00:00,7,1017.7,-0.9,93,6,6000,3.704,,,150,,,,,,,,,,,wg-a,,,,AAXX 28034 07149 12/56 /1502 10070 20060 30066 40177 58009 60006 80001 90300=
07149,1998-03-28 06:00:00,5,1017,-0.7,100,5,3000,7.408,,,140,5.1,12.2,,,,,,,,11,wg-a,,,,AAXX 28064 07149 02/30 /1404 10050 20050 30059 40170 55007 60006 71111 80001 90600 333 10122 20051 60004=
07149,1998-03-28 09:00:00,10,1016.6,-0.2,82,7,6000,11.112,,,120,,,,,,,,,,,wg-a,,,,AAXX 28094 07149 12/56 71206 10100 20070 30057 40166 58002 60006 82038 90900=
07149,1998-03-28 12:00:00,15,1015.1,-1.3,63,8,11000,7.408,,,160,,,,,,,,,,,wg-a,,,,AAXX 28124 07149 12/61 71604 10150 20080 30044 40151 58013 60006 81032 91200=
07149,1998-03-28 15:00:00,18,1013.2,-1.8,56,9,13000,7.408,,,190,,,,,,,,,,,wg-a,,,,AAXX 28154 07149 12/63 71904 10180 20090 30026 40132 57018 60006 86032 91500=
07149,1998-03-28 18:00:00,17,1012.3,-0.9,63,10,13000,7.408,,,80,5.1,18.3,,,,,,,,,wg-a,,,,AAXX 28184 07149 12763 70804 10170 20100 30017 40123 56009 60006 82532 91800 333 10183 20051=
07149,1998-03-28 21:00:00,15,1011.8,-0.6,67,9,13000,11.112,,,130,,,,,,,,,,,wg-a,,,,AAXX 28214 07149 12/63 51306 10150 20090 30011 40118 58006 60006 82031 92100=
07149,1998-03-29 00:00:00,13,1011.4,-0.5,77,9,15000,7.408,,,150,,,,,,,,,,,wg-a,,,,AAXX 29004 07149 12/65 71504 10130 20090 30006 40114 57005 60006 84031 90000=
07149,1998-03-29 03:00:00,12,1010,-1.4,82,9,14000,7.408,,,120,,,,,,,,,,,wg-a,,,,AAXX 29034 07149 12/64 71204 10120 20090 39992 40100 57014 60006 8703/ 90300=
07149,1998-03-29 06:00:00,10,1009.7,-0.3,87,8,8000,7.408,,,170,10,16.6,,,,,,,,,wg-a,,,,AAXX 29064 07149 02/58 71704 10100 20080 39989 40097 56003 60006 85031 90600 333 10166 20100 60004=
07149,1998-03-29 09:00:00,16,1009.4,-0.1,59,8,10000,7.408,,,180,,,,,,,,,,,wg-a,,,,AAXX 29094 07149 12/60 61804 10160 20080 39988 40094 57001 60006 85081 90900=
07149,1998-03-29 12:00:00,20,1008.3,-1,49,9,14000,14.816,,,110,,,,,,,,,,,wg-a,,,,AAXX 29124 07149 12/64 71108 10200 20090 39978 40083 57010 60006 85081 91200=
07149,1998-03-29 15:00:00,20,1007.1,-1.2,46,8,18000,11.112,,,110,,,,,,,,,,,wg-a,,,,AAXX 29154 07149 12/68 71106 10200 20080 39966 40071 57012 60006 85082 91500=
07149,1998-03-29 18:00:00,19,1007,-0.1,49,8,16000,7.408,,,100,10.1,20.2,,,,,,,,,wg-a,,,,AAXX 29184 07149 12/66 71004 10190 20080 39965 40070 55001 60006 82032 91800 333 10202 20101=
07149,1998-03-29 21:00:00,15,1007.5,0.4,67,9,15000,11.112,,,130,,,,,,,,,,,wg-a,,,,AAXX 29214 07149 12/65 71306 10150 20090 39969 40075 51004 60006 82032 92100=
07149,1998-03-30 00:00:00,13,1008.6,1,72,8,18000,14.816,,,210,,,,,,,,,,,wg-a,,,,AAXX 30004 07149 12/68 72108 10130 20080 39979 40086 53010 60006 80001 90000=
07149,1998-03-30 12:00:00,16,1015.3,,77,12,17000,22.224,,,230,,,,,,,,,,,wg-a,,,,AAXX 30124 07149 12467 72312 10160 20120 30046 40153 60006 91200=
07149,1998-03-30 15:00:00,15,1015.9,0.6,82,12,17000,18.52,,,220,,,,,,,,,,,wg-a,,,,AAXX 30154 07149 12467 72210 10150 20120 30052 40159 52006 60006 875// 91500=
07149,1998-03-30 18:00:00,14,1016.9,1,82,11,18000,18.52,,,200,10.3,16.4,,,,,,,,,wg-a,,,,AAXX 30184 07149 12568 72010 10140 20110 30062 40169 53010 60006 875// 91800 333 10164 20103=
07149,1998-03-30 21:00:00,13,1017.9,0.9,82,10,11000,14.816,,,230,,,,,,,,,,,wg-a,,,,AAXX 30214 07149 12/61 /2308 10130 20100 30071 40179 51009 60006 92100=
07149,1998-03-31 00:00:00,12,1018.3,0.4,88,10,18000,11.112,,,250,,,,,,,,,,,wg-a,,,,AAXX 31004 07149 12668 72506 10120 20100 30075 40183 53004 60006 875// 90000=
07149,1998-03-31 03:00:00,12,1017.8,-0.5,88,10,15000,11.112,,,310,,,,,,,,,,,wg-a,,,,AAXX 31034 07149 12465 73106 10120 20100 30070 40178 58005 60006 875// 90300=
07149,1998-03-31 06:00:00,12,1017.4,-0.5,88,10,6000,7.408,,,40,11.5,14.3,,,,,,,,,wg-a,,,,AAXX 31064 07149 02456 70404 10120 20100 30065 40174 56005 60006 8453/ 90600 333 10143 20115 60004=
07149,1998-03-31 09:00:00,15,1017,-0.2,72,10,12000,11.112,,,160,,,,,,,,,,,wg-a,,,,AAXX 31094 07149 12562 /1606 10150 20100 30063 40170 58002 60006 82101 90900=
07149,1998-03-31 12:00:00,19,1015,-1.9,56,10,17000,7.408,,,130,,,,,,,,,,,wg-a,,,,AAXX 31124 07149 12567 21304 10190 20100 30044 40150 58019 60006 81130 91200=
07149,1998-03-31 18:00:00,18,1012.2,-0.7,42,5,22000,11.112,,,200,11.5,21.6,,,,,,,,,wg-a,,,,AAXX 31184 07149 12/72 32006 10180 20050 30016 40122 55007 60006 82031 91800 333 10216 20115=
07149,1998-03-31 21:00:00,15,1013,0.7,51,5,25000,14.816,,,290,,,,,,,,,,,wg-a,,,,AAXX 31214 07149 12/75 52908 10150 20050 30023 40130 51007 60006 83032 92100=
07149,1998-04-01 00:00:00,14,1012.8,-0.2,63,7,25000,7.408,,,240,,,,,,,,,,60,wg-a,,,,AAXX 01004 07149 02775 72404 10140 20070 30021 40128 58002 61000 76061 8557/ 90000 333 6100=
07149,1998-04-01 03:00:00,13,1011.6,-1.3,72,8,25000,11.112,,,160,,,,,,,,,,21,wg-a,,,,AAXX 01034 07149 02675 71606 10130 20080 30008 40116 57013 61000 72162 8457/ 90300 333 ////=
07149,1998-04-01 06:00:00,12,1011.8,0.2,82,9,15000,22.224,,,210,11.5,18.1,,,,,,,,1,wg-a,,,,AAXX 01064 07149 02765 72112 10120 20090 30010 40118 53002 60006 70162 81531 90600 333 10181 20115 61000=
07149,1998-04-01 09:00:00,12,1013,1.2,88,10,7000,25.928,,,230,,,,,,,,,,,wg-a,,,,AAXX 01094 07149 12457 72314 10120 20100 30022 40130 53012 60006 875// 90900=
07149,1998-04-01 12:00:00,14,1013.3,0.4,72,9,14000,22.224,,,250,,,,,,,,,,,wg-a,,,,AAXX 01124 07149 12564 72512 10140 20090 30026 40133 50004 60006 875// 91200=
07149,1998-04-01 15:00:00,17,1011.7,-1.5,59,9,25000,22.224,,,230,,,,,,,,,,,wg-a,,,,AAXX 01154 07149 12675 /2312 10170 20090 30011 40117 58015 60006 86801 91500=
07149,1998-04-01 18:00:00,16,1011.4,-0.4,63,9,10000,18.52,,,210,11.5,17.8,,,,,,,,16,wg-a,,,,AAXX 01184 07149 12560 72110 10160 20090 30007 40114 56004 60006 71611 85831 91800 333 10178 20115=
07149,1998-04-01 21:00:00,12,1011.8,0.3,88,10,12000,14.816,,,220,,,,0,,,,,,80,wg-a,,,,AAXX 01214 07149 12462 72208 10120 20100 30010 40118 50003 60007 78086 86801 92100=
07149,1998-04-02 00:00:00,11,1010.9,-0.9,87,9,20000,18.52,,,230,,,,,,,,,,3,wg-a,,,,AAXX 02004 07149 02470 52310 10110 20090 30001 40109 58009 60016 70386 85500 90000 333 61000=
07149,1998-04-02 03:00:00,10,1009,-1.9,100,10,20000,18.52,,,210,,,,,,,,,,,wg-a,,,,AAXX 02034 07149 12370 62110 10100 20100 39982 40090 56019 60006 86500 90300=
07149,1998-04-02 06:00:00,10,1007.8,-1.2,93,9,7000,7.408,,,170,9,15.5,,,,,1,,,,wg-a,,,,AAXX 02064 07149 02257 71704 10100 20090 39970 40078 58012 60006 875// 90600 333 10155 20090 60014=
07149,1998-04-02 09:00:00,10,1005.8,-2,100,10,4500,11.112,,,160,,,,2,,,,,,61,wg-a,,,,AAXX 02094 07149 12245 71606 10100 20100 39950 40058 58020 60027 76162 875// 90900=
07149,1998-04-02 12:00:00,12,1003.7,-2,94,11,12000,18.52,,,210,,,,5,,,,,,21,wg-a,,,,AAXX 02124 07149 02362 82110 10120 20110 39930 40037 56020 60076 72165 875// 91200 333 60057=
07149,1998-04-02 15:00:00,14,1001.4,-2.2,72,9,14000,31.484,,,250,,,,1,,,,,,16,wg-a,,,,AAXX 02154 07149 12564 /2517 10140 20090 39908 40014 56022 60017 71686 85831 91500=
07149,1998-04-02 18:00:00,13,1000.9,-0.5,72,8,17000,29.632,,,230,9.6,15.9,,,,,,,,3,wg-a,,,,AAXX 02184 07149 12667 72316 10130 20080 39903 40009 58005 60006 70386 83824 91800 333 10159 20096=
07149,1998-04-02 21:00:00,11,1000.2,-0.8,87,9,17000,29.632,,,210,,,,0,,,,,,60,wg-a,,,,AAXX 02214 07149 12667 82116 10110 20090 39895 40002 58008 60007 76062 8382/ 92100=
07149,1998-04-03 00:00:00,11,998.1,-2.1,100,11,8000,29.632,,,200,,,,2,,,,,,51,wg-a,,,,AAXX 03004 07149 02258 82016 10110 20110 39874 49981 56021 60026 75165 877// 90000 333 60027=
07149,1998-04-03 03:00:00,13,995.6,-2.4,88,11,15000,31.484,,,210,,,,1,,,,,,21,wg-a,,,,AAXX 03034 07149 12465 82117 10130 20110 39850 49956 56024 60017 72165 875// 90300=
07149,1998-04-03 06:00:00,12,995.4,-0.2,94,11,18000,31.484,,,210,10.5,13.4,,,,,,,,60,wg-a,,,,AAXX 03064 07149 02468 82117 10120 20110 39848 49954 56002 61000 76065 8657/ 90600 333 10134 20105 6012=
07149,1998-04-03 09:00:00,11,996.3,0.9,94,10,16000,31.484,,,210,,,,3,,,,,,61,wg-a,,,,AAXX 03094 07149 12366 82117 10110 20100 39857 49963 50009 60037 76166 875// 90900=
07149,1998-04-03 12:00:00,11,997.1,0.7,87,9,15000,31.484,,,210,,,,2,,,,,,61,wg-a,,,,AAXX 03124 07149 02465 82117 10110 20090 39864 49971 51007 60056 76166 875// 91200 333 60027=
07149,1998-04-03 15:00:00,10,995.5,-1.6,93,9,13000,22.224,,,200,,,,2,,,,,,61,wg-a,,,,AAXX 03154 07149 12363 82012 10100 20090 39848 49955 58016 60027 76166 878// 91500=
07149,1998-04-03 18:00:00,9,995.4,-0.1,87,7,16000,31.484,,,220,8.7,12.1,,,,,,,,61,wg-a,,,,AAXX 03184 07149 02566 82217 10090 20070 39847 49954 55001 61000 76162 8682/ 91800 333 10121 20087 6000=
07149,1998-04-03 21:00:00,8,995,-0.5,87,6,500,35.188,,,200,,,,0,,,,,,21,wg-a,,,,AAXX 03214 07149 12400 72019 10080 20060 39842 49950 58005 60007 72162 8211/ 92100=
07149,1998-04-04 00:00:00,8,995.2,0.2,81,5,500,35.188,,,210,,,,,,,,,,3,wg-a,,,,AAXX 04004 07149 12400 72119 10080 20050 39844 49952 52002 60006 70362 8521/ 90000=
07149,1998-04-04 03:00:00,8,995.1,-0.1,87,6,500,35.188,,,200,,,,,,,,,,,wg-a,,,,AAXX 04034 07149 12400 /2019 10080 20060 39843 49951 58001 60006 85230 90300=
07149,1998-04-04 09:00:00,11,996.1,1.3,76,7,25000,50.004,,68.524,210,,,,,,,,,,,wg-a,,,,AAXX 04094 07149 12575 72127 10110 20070 39854 49961 53013 60006 872// 90900 333 91037=
07149,1998-04-04 12:00:00,13,996.9,0.9,72,8,18000,42.596,,,220,,,,,,,,,,3,wg-a,,,,AAXX 04124 07149 02568 72223 10130 20080 39863 49969 51009 61000 70386 872// 91200 333 6100=
07149,1998-04-04 15:00:00,9,999,1.9,87,7,8000,35.188,,,260,,,,3,,,,,,80,wg-a,,,,AAXX 04154 07149 12558 72619 10090 20070 39882 49990 52019 60037 78086 85331 91500=
07149,1998-04-04 18:00:00,11,999.5,0.6,76,7,11000,31.484,,,220,8.9,14,,1,,,,,,,wg-a,,,,AAXX 04184 07149 02/61 /2217 10110 20070 39888 49995 53006 60006 91800 333 10140 20089 60017=
07149,1998-04-04 21:00:00,9,1001.1,1.5,87,7,18000,29.632,,,220,,,,1,,,,,,25,wg-a,,,,AAXX 04214 07149 12468 72216 10090 20070 39903 40011 51015 60017 72586 878// 92100=
07149,1998-04-05 00:00:00,8,1001.7,0.5,87,6,25000,31.484,,,220,,,,,,,,,,1,wg-a,,,,AAXX 05004 07149 02475 /2217 10080 20060 39908 40017 53005 60016 70186 86800 90000 333 61000=
07149,1998-04-05 03:00:00,7,1001.2,-0.5,93,6,15000,25.928,,,190,,,,0,,,,,,80,wg-a,,,,AAXX 05034 07149 12465 81914 10070 20060 39903 40012 55005 60007 78086 8687/ 90300=
07149,1998-04-05 06:00:00,7,1000.7,-0.5,100,7,15000,18.52,,,190,6.9,11.2,,,,,,,,60,wg-a,,,,AAXX 05064 07149 02365 81910 10070 20070 39898 40007 56005 61000 76086 878// 90600 333 10112 20069 6006=
07149,1998-04-05 09:00:00,8,1001.6,1,93,7,7000,25.928,,,220,,,,0,,,,,,80,wg-a,,,,AAXX 05094 07149 12357 82214 10080 20070 39908 40016 53010 60007 78086 878// 90900=
07149,1998-04-05 12:00:00,12,1002.5,1,71,7,500,29.632,,,240,,,,,,,,,,1,wg-a,,,,AAXX 05124 07149 02500 /2416 10120 20070 39918 40025 52010 60006 70186 84202 91200 333 61000=
07149,1998-04-05 15:00:00,12,1003.1,0.6,71,7,500,31.484,,,230,,,,,,,,,,25,wg-a,,,,AAXX 05154 07149 02500 /2317 10120 20070 39924 40031 50006 61000 72586 83902 91500 333 ////=
07149,1998-04-05 18:00:00,11,1004.3,1.2,76,7,500,29.632,,,210,7.2,13.5,,,,,,,,1,wg-a,,,,AAXX 05184 07149 12500 72116 10110 20070 39936 40043 53012 60006 70186 86802 91800 333 10135 20072=
07149,1998-04-05 21:00:00,9,1005.9,1.5,81,6,25000,29.632,,,220,,,,,,,,,,,wg-a,,,,AAXX 05214 07149 12575 42216 10090 20060 39951 40059 51015 60006 83801 92100=
07149,1998-04-06 00:00:00,9,1006,0,87,7,25000,29.632,,,220,,,,,,,,,,,wg-a,,,,AAXX 06004 07149 12475 22216 10090 20070 39951 40060 50000 60006 82100 90000=
07149,1998-04-06 03:00:00,7,1006.3,0.3,93,6,25000,25.928,,,230,,,,,,,,,,,wg-a,,,,AAXX 06034 07149 12/75 52314 10070 20060 39954 40063 53003 60006 81031 90300=
07149,1998-04-06 09:00:00,10,1007,0.1,82,7,14000,25.928,,,230,,,,,,,,,,25,wg-a,,,,AAXX 06094 07149 02464 72314 10100 20070 39962 40070 50001 61000 72586 872// 90900 333 ////=
07149,1998-04-06 12:00:00,10,1005.7,-1.3,87,8,15000,29.632,,,240,,,,1,,,,,,25,wg-a,,,,AAXX 06124 07149 02465 72416 10100 20080 39949 40057 56013 60016 72586 879// 91200 333 60017=
07149,1998-04-06 15:00:00,10,1004.4,-1.3,76,6,500,25.928,,,210,,,,,,,,,,,wg-a,,,,AAXX 06154 07149 12500 72114 10100 20060 39936 40044 57013 60006 86802 91500=
07149,1998-04-06 18:00:00,9,1004.6,0.2,71,4,500,11.112,,,320,7.4,11.5,,,,,,,,15,wg-a,,,,AAXX 06184 07149 12400 73206 10090 20040 39938 40046 53002 60006 71522 86902 91800 333 10115 20074=
07149,1998-04-06 21:00:00,6,1004.5,-0.2,93,5,25000,11.112,,,190,,,,1,,,,,,3,wg-a,,,,AAXX 06214 07149 12575 31906 10060 20050 39936 40045 58002 60017 70386 81502 92100=
07149,1998-04-07 00:00:00,7,1002.4,-2.1,100,7,25000,11.112,,,170,,,,,,,,,,3,wg-a,,,,AAXX 07004 07149 12375 71706 10070 20070 39915 40024 58021 60016 70386 82632 90000=
07149,1998-04-07 03:00:00,7,999.5,-2.9,100,7,7000,11.112,,,130,,,,1,,,,,,61,wg-a,,,,AAXX 07034 07149 12157 81306 10070 20070 39886 49995 58029 60017 76162 8657/ 90300=
07149,1998-04-07 06:00:00,6,995.9,-3.5,100,6,7000,22.224,,,40,6.1,8.9,,,,,,,,61,wg-a,,,,AAXX 07064 07149 02357 80412 10060 20060 39851 49959 57035 61000 76162 875// 90600 333 10089 20061 6007=
07149,1998-04-07 12:00:00,8,998.9,3.9,87,6,12000,29.632,,,290,,,,4,,,,,,60,wg-a,,,,AAXX 07124 07149 02462 82916 10080 20060 39881 49989 51039 60126 76066 878// 91200 333 60047=
07149,1998-04-07 15:00:00,9,1002.1,3.2,87,7,13000,25.928,,,310,,,,1,,,,,,29,wg-a,,,,AAXX 07154 07149 12363 /3114 10090 20070 39913 40021 51032 60017 72998 84303 91500=
07149,1998-04-07 18:00:00,10,1003.3,1.2,71,5,25000,14.816,,,260,5.3,11.1,,,,,,,,2,wg-a,,,,AAXX 07184 07149 12575 52608 10100 20050 39925 40033 53012 60006 70298 83801 91800 333 10111 20053=
07149,1998-04-07 21:00:00,7,1005,1.6,87,5,20000,14.816,,,260,,,,,,,,,,,wg-a,,,,AAXX 07214 07149 12770 62608 10070 20050 39941 40050 52016 60006 845/1 92100=
07149,1998-04-08 03:00:00,6,1005.6,-0.2,93,5,18000,11.112,,,250,,,,,,,,,,,wg-a,,,,AAXX 08034 07149 12668 /2506 10060 20050 39946 40056 58002 60006 90300=
07149,1998-04-08 06:00:00,6,1005.9,0.3,100,6,500,18.52,,,240,4.6,9.5,,,,,13,,,,wg-a,,,,AAXX 08064 07149 02200 72410 10060 20060 39949 40059 53003 60006 876// 90600 333 10095 20046 60134=
07149,1998-04-08 09:00:00,9,1005.8,0.1,81,6,12000,14.816,,,210,,,,,,,,,,,wg-a,,,,AAXX 08094 07149 12462 22108 10090 20060 39950 40058 50001 60006 82800 90900=
07149,1998-04-08 12:00:00,9,1004.7,-1.1,81,6,18000,22.224,,,270,,,,,,,,,,80,wg-a,,,,AAXX 08124 07149 02468 /2712 10090 20060 39939 40047 58011 61000 78086 86800 91200 333 6100=
07149,1998-04-08 15:00:00,11,1002.2,-2.4,66,5,15000,11.112,,,300,,,,1,,,,,,25,wg-a,,,,AAXX 08154 07149 12465 /3006 10110 20050 39915 40022 56024 60017 72586 84900 91500=
07149,1998-04-08 18:00:00,11,1000.5,-1.7,66,5,20000,18.52,,,200,5.8,13.1,,,,,,,,2,wg-a,,,,AAXX 08184 07149 12570 52010 10110 20050 39898 40005 56017 60006 70286 85900 91800 333 10131 20058=
07149,1998-04-08 21:00:00,8,1000.4,-0.2,87,6,25000,18.52,,,210,,,,,,,,,,,wg-a,,,,AAXX 08214 07149 12575 42110 10080 20060 39896 40004 58002 60006 84800 92100=
07149,1998-04-09 00:00:00,7,999,-1.4,93,6,25000,11.112,,,180,,,,1,,,,,,3,wg-a,,,,AAXX 09004 07149 02675 71806 10070 20060 39882 49990 58014 60016 70361 875// 90000 333 60017=
07149,1998-04-09 03:00:00,6,997.2,-1.9,93,5,25000,18.52,,,190,,,,,,,,,,1,wg-a,,,,AAXX 09034 07149 02375 61910 10060 20050 39863 49972 56019 61000 70186 86880 90300 333 ////=
07149,1998-04-09 06:00:00,6,996,-1.1,93,5,12000,18.52,,,190,5.9,10.7,,,,,2,,,1,wg-a,,,,AAXX 09064 07149 02362 81910 10060 20050 39852 49960 55011 60006 70186 886// 90600 333 10107 20059 60024=
07149,1998-04-09 09:00:00,6,995.8,-0.3,93,5,8000,22.224,,38.892,240,,,,1,,,,,,61,wg-a,,,,AAXX 09094 07149 12358 82412 10060 20050 39849 49958 55003 60017 76162 878// 90900 333 91021=
07149,1998-04-09 12:00:00,10,995.5,-0.1,71,5,25000,22.224,,,200,,,,0,,,,,,3,wg-a,,,,AAXX 09124 07149 02575 72012 10100 20050 39848 49955 56001 60016 70362 86802 91200 333 60007=
07149,1998-04-09 15:00:00,9,994.7,-0.8,76,5,7000,18.52,,,240,,,,,,,,,,80,wg-a,,,,AAXX 09154 07149 02457 72410 10090 20050 39840 49947 55008 61000 78086 85962 91500 333 ////=
07149,1998-04-09 21:00:00,6,994.8,0.4,93,5,10000,14.816,,,150,,,,3,,,,,,80,wg-a,,,,AAXX 09214 07149 12460 61508 10060 20050 39840 49948 50004 60037 78098 85932 92100=
07149,1998-04-10 00:00:00,6,994.4,-0.4,93,5,18000,11.112,,,180,,,,0,,,,,,25,wg-a,,,,AAXX 10004 07149 02568 61806 10060 20050 39836 49944 57004 60046 72598 85802 90000 333 60007=
07149,1998-04-10 03:00:00,5,993.5,-1,93,4,25000,14.816,,,210,,,,,,,,,,,wg-a,,,,AAXX 10034 07149 12475 /2108 10050 20040 39826 49935 56010 60006 83502 90300=
07149,1998-04-10 06:00:00,5,993.3,-0.2,93,4,16000,11.112,,,190,4.6,8,,,,,5,,,,wg-a,,,,AAXX 10064 07149 02366 /1906 10050 20040 39824 49933 57002 60006 86500 90600 333 10080 20046 60054=
07149,1998-04-10 09:00:00,7,993.7,0.5,81,4,25000,7.408,,,160,,,,,,,,,,,wg-a,,,,AAXX 10094 07149 12475 71604 10070 20040 39829 49937 52005 60006 872// 90900=
07149,1998-04-10 12:00:00,10,992.9,-0.7,66,4,25000,14.816,,,160,,,,,,,,,,,wg-a,,,,AAXX 10124 07149 12575 71608 10100 20040 39822 49929 56007 60006 86802 91200=
07149,1998-04-10 15:00:00,10,991.9,-1,62,3,25000,14.816,,,100,,,,,,,,,,80,wg-a,,,,AAXX 10154 07149 02575 71008 10100 20030 39812 49919 56010 61000 78086 86902 91500 333 ////=
07149,1998-04-10 18:00:00,8,992.3,0.3,81,5,20000,7.408,,,90,4.9,11.8,,1,,,,,,1,wg-a,,,,AAXX 10184 07149 02570 40904 10080 20050 39815 49923 51003 60006 70186 82902 91800 333 10118 20049 60017=
07149,1998-04-10 21:00:00,6,993.8,1.5,93,5,15000,3.704,,,210,,,,6,,,,,,61,wg-a,,,,AAXX 10214 07149 12365 72102 10060 20050 39830 49938 51015 60067 76186 879// 92100=
07149,1998-04-11 00:00:00,6,994.8,1,100,6,12000,11.112,,,210,,,,0,,,,,,60,wg-a,,,,AAXX 11004 07149 02262 72106 10060 20060 39840 49948 53010 60066 76086 878// 90000 333 60007=
07149,1998-04-11 03:00:00,5,995.8,0.9,93,4,18000,14.816,,,220,,,,0,,,,,,3,wg-a,,,,AAXX 11034 07149 12368 72208 10050 20040 39849 49958 53009 60007 70362 875// 90300=
07149,1998-04-11 06:00:00,5,997.4,1.6,87,3,14000,18.52,,,230,4.7,7.6,,,,,8,,,1,wg-a,,,,AAXX 11064 07149 02564 72310 10050 20030 39865 49974 53016 60006 70162 875// 90600 333 10076 20047 60084=
07149,1998-04-11 09:00:00,7,998.5,1.2,81,4,15000,18.52,,,250,,,,,,,,,,,wg-a,,,,AAXX 11094 07149 12465 72510 10070 20040 39877 49985 53012 60006 878// 90900=
07149,1998-04-11 12:00:00,9,999,0.5,57,1,25000,14.816,,,250,,,,,,,,,,1,wg-a,,,,AAXX 11124 07149 02575 /2508 10090 20010 39882 49990 50005 61000 70186 86800 91200 333 6100=
07149,1998-04-11 18:00:00,8,999.3,0.5,66,2,25000,18.52,,,220,4.8,11,,,,,,,,,wg-a,,,,AAXX 11184 07149 12675 62210 10080 20020 39885 49993 53005 60006 86900 91800 333 10110 20048=
07149,1998-04-12 00:00:00,5,1001.6,0.5,93,4,25000,11.112,,,320,,,,,,,,,,25,wg-a,,,,AAXX 12004 07149 02375 73206 10050 20040 39906 40016 52005 61000 72586 878// 90000 333 6100=
07149,1998-04-12 03:00:00,5,1002.1,0.5,93,4,15000,14.816,,,360,,,,,,,,,,,wg-a,,,,AAXX 12034 07149 12365 73608 10050 20040 39911 40021 53005 60006 878// 90300=
07149,1998-04-12 06:00:00,2,1003.8,1.6,100,2,9000,22.224,,,350,2.4,7.8,,,,,,,,61,wg-a,,,,AAXX 12064 07149 02359 83512 10020 20020 39927 40038 53016 61000 76176 877// 90600 333 10078 20024 6001=
07149,1998-04-12 09:00:00,6,1005.5,1.8,75,2,20000,22.224,,,350,,,,1,,,,,,3,wg-a,,,,AAXX 12094 07149 12470 83512 10060 20020 39945 40055 53018 60017 70376 8682/ 90900=
07149,1998-04-12 12:00:00,6,1006.6,1.1,61,-1,20000,25.928,,,350,,,,,,,,,,1,wg-a,,,,AAXX 12124 07149 12670 73514 10060 21010 39956 40066 51011 60016 70176 85822 91200=
07149,1998-04-12 15:00:00,8,1006.4,-0.1,42,-4,22000,18.52,,,310,,,,,,,,,,,wg-a,,,,AAXX 12154 07149 12672 73110 10080 21040 39955 40064 56001 60006 85802 91500=
07149,1998-04-12 18:00:00,6,1007.4,0.9,56,-2,500,14.816,,,340,2.5,9.1,,,,,,,,1,wg-a,,,,AAXX 12184 07149 02600 73408 10060 21020 39964 40074 51009 60006 70186 82202 91800 333 10091 20025 61000=
07149,1998-04-12 21:00:00,4,1009,1.5,75,0,500,3.704,,,80,,,,,,,,,,,wg-a,,,,AAXX 12214 07149 12600 /0802 10040 20000 39979 40090 51015 60006 82201 92100=
07149,1998-04-13 00:00:00,1,1009.3,0.2,80,-2,500,7.408,,,270,,,,,,,,,,,wg-a,,,,AAXX 13004 07149 12/00 12704 10010 21020 39981 40093 52002 60006 80001 90000=
07149,1998-04-13 03:00:00,-1,1009.1,-0.3,93,-2,25000,7.408,,,290,,,,,,,,,,,wg-a,,,,AAXX 13034 07149 12/75 12904 11010 21020 39978 40091 58003 60006 80001 90300=
07149,1998-04-13 06:00:00,-1,1009.3,0.2,93,-2,25000,7.408,,,260,-1.2,6.3,,,,,1,,,,wg-a,,,,AAXX 13064 07149 02/75 12604 11010 21020 39980 40093 53002 60006 81031 90600 333 10063 21012 60014=
07149,1998-04-13 09:00:00,6,1010,1,56,-2,25000,14.816,,,330,,,,,,,,,,,wg-a,,,,AAXX 13094 07149 12475 23308 10060 21020 39990 40100 51010 60006 81201 90900=
07149,1998-04-13 15:00:00,8,1008.8,-0.7,46,-3,20000,14.816,,,320,,,,,,,,,,1,wg-a,,,,AAXX 13154 07149 02470 /3208 10080 21030 39979 40088 58007 61000 70187 82302 91500 333 ////=
07149,1998-04-13 18:00:00,4,1008.6,-0.4,81,1,13000,3.704,,,70,-0.6,8.9,,,,,,,,1,wg-a,,,,AAXX 13184 07149 02463 /0702 10040 20010 39975 40086 58004 60006 70187 83902 91800 333 10089 21006 61000=
07149,1998-04-13 21:00:00,3,1008.9,0.3,81,0,20000,7.408,,,210,,,,,,,,,,1,wg-a,,,,AAXX 13214 07149 02770 32104 10030 20000 39978 40089 51003 61000 70186 82401 92100 333 ////=
07149,1998-04-14 00:00:00,1,1008.4,-0.6,93,0,25000,14.816,,,230,,,,,,,,,,1,wg-a,,,,AAXX 14004 07149 02/75 22308 10010 20000 39972 40084 57006 61000 70186 80001 90000 333 ////=
07149,1998-04-14 03:00:00,1,1007,-1.4,86,-1,15000,7.408,,,200,,,,,,,,,,,wg-a,,,,AAXX 14034 07149 12/65 32004 10010 21010 39958 40070 56014 60006 81031 90300=
07149,1998-04-14 06:00:00,1,1007,-0,93,0,12000,14.816,,,210,0.2,3.9,,,,,,,,,wg-a,,,,AAXX 14064 07149 02662 72108 10010 20000 39958 40070 55000 60006 81501 90600 333 10039 20002 61000=
07149,1998-04-14 09:00:00,5,1007.1,0.3,81,2,15000,22.224,,,220,,,,,,,,,,,wg-a,,,,AAXX 14094 07149 12465 72212 10050 20020 39961 40071 51003 60006 878// 90900=
07149,1998-04-14 12:00:00,7,1005.7,-1.3,76,3,25000,22.224,,,200,,,,,,,,,,,wg-a,,,,AAXX 14124 07149 12575 72012 10070 20030 39948 40057 58013 60006 878// 91200=
07149,1998-04-14 15:00:00,9,1003.9,-1.8,49,-1,25000,18.52,,,190,,,,,,,,,,25,wg-a,,,,AAXX 14154 07149 02575 71910 10090 21010 39930 40039 58018 61000 72586 878// 91500 333 ////=
07149,1998-04-14 18:00:00,8,1002,-1.8,53,-1,25000,11.112,,,190,0.7,9.4,,,,,,,,1,wg-a,,,,AAXX 14184 07149 12675 71906 10080 21010 39912 40020 58018 60006 70186 875// 91800 333 10094 20007=
07149,1998-04-14 21:00:00,7,1001.1,-1,57,-1,20000,11.112,,,150,,,,,,,,,,,wg-a,,,,AAXX 14214 07149 12770 71506 10070 21010 39902 40011 58010 60006 875// 92100=
07149,1998-04-15 00:00:00,6,998.6,-2.5,75,2,15000,11.112,,,140,,,,0,,,,,,60,wg-a,,,,AAXX 15004 07149 02565 81406 10060 20020 39877 49986 58025 60006 76062 875// 90000 333 60007=
07149,1998-04-15 06:00:00,6,993.5,-1.5,93,5,15000,25.928,,,190,5.3,8.2,,,,,,,,61,wg-a,,,,AAXX 15064 07149 02365 81914 10060 20050 39827 49935 56015 61000 76166 8752/ 90600 333 10082 20053 6002=
07149,1998-04-15 09:00:00,8,992.7,-0.8,93,7,16000,29.632,,,210,,,,1,,,,,,21,wg-a,,,,AAXX 15094 07149 12366 82116 10080 20070 39819 49927 58008 60017 72162 8752/ 90900=
07149,1998-04-15 12:00:00,7,993.4,0.7,87,5,15000,22.224,,,290,,,,1,,,,,,60,wg-a,,,,AAXX 15124 07149 02465 82912 10070 20050 39826 49934 53007 60026 76086 8722/ 91200 333 60017=
07149,1998-04-15 15:00:00,7,993.6,0.2,61,0,500,25.928,,,240,,,,0,,,,,,1,wg-a,,,,AAXX 15154 07149 12500 72414 10070 20000 39828 49936 51002 60007 70162 81232 91500=
07149,1998-04-15 18:00:00,6,994.7,1,65,0,25000,29.632,,,260,5.3,8.6,,0,,,,,,1,wg-a,,,,AAXX 15184 07149 02575 /2616 10060 20000 39838 49947 53010 60006 70186 81900 91800 333 10086 20053 60007=
07149,1998-04-15 21:00:00,5,996.5,1.8,75,1,25000,31.484,,,250,,,,,,,,,,,wg-a,,,,AAXX 15214 07149 12575 52517 10050 20010 39856 49965 51018 60006 85500 92100=
07149,1998-04-16 00:00:00,4,998.8,2.2,87,2,25000,25.928,,,230,,,,,,,,,,,wg-a,,,,AAXX 16004 07149 12675 /2314 10040 20020 39878 49988 53022 60006 83500 90000=
07149,1998-04-16 03:00:00,2,999.7,0.9,93,1,20000,18.52,,,230,,,,,,,,,,,wg-a,,,,AAXX 16034 07149 12470 /2310 10020 20010 39887 49997 51009 60006 81100 90300=
07149,1998-04-16 06:00:00,3,999.5,-0.2,87,1,20000,18.52,,,220,1.9,5.7,,,,,3,,,,wg-a,,,,AAXX 16064 07149 02370 /2210 10030 20010 39885 49995 58002 60006 84802 90600 333 10057 20019 60034=
07149,1998-04-16 09:00:00,7,997.9,-1.4,66,1,25000,25.928,,,210,,,,,,,,,,,wg-a,,,,AAXX 16094 07149 12575 72114 10070 20010 39871 49979 58014 60006 81136 90900=
07149,1998-04-16 12:00:00,9,994.6,-3.2,53,0,25000,29.632,,,190,,,,,,,,,,,wg-a,,,,AAXX 16124 07149 12675 71916 10090 20000 39839 49946 58032 60006 83127 91200=
07149,1998-04-16 15:00:00,8,991,-3.6,71,3,14000,31.484,,50.004,180,,,,0,,,,,,61,wg-a,,,,AAXX 16154 07149 12464 81817 10080 20030 39803 49910 56036 60007 76162 8652/ 91500 333 91027=
07149,1998-04-16 18:00:00,6,988.6,-2.5,93,5,9000,25.928,,,160,2.6,9.6,,,,,,,,61,wg-a,,,,AAXX 16184 07149 02459 81614 10060 20050 39778 49886 56025 61000 76162 875// 91800 333 10096 20026 6003=
07149,1998-04-16 21:00:00,7,986.2,-2.3,93,6,18000,14.816,,,170,,,,1,,,,,,21,wg-a,,,,AAXX 16214 07149 12368 81708 10070 20060 39755 49862 56023 60017 72162 875// 92100=
07149,1998-04-17 00:00:00,7,984.7,-1.5,93,6,7000,7.408,,,140,,,,2,,,,,,61,wg-a,,,,AAXX 17004 07149 02457 81404 10070 20060 39740 49847 56015 60036 76162 8552/ 90000 333 60027=
07149,1998-04-17 03:00:00,6,983.1,-1.6,100,6,6000,11.112,,,80,,,,7,,,,,,61,wg-a,,,,AAXX 17034 07149 12256 80806 10060 20060 39724 49831 56016 60077 76166 875// 90300=
07149,1998-04-17 06:00:00,6,983.7,0.6,100,6,6000,7.408,,,80,6.1,7,,,,,,,,61,wg-a,,,,AAXX 17064 07149 02356 80804 10060 20060 39730 49837 53006 61000 76166 868// 90600 333 10070 20061 6017=
07149,1998-04-17 09:00:00,7,985.7,2,93,6,9000,11.112,,,310,,,,2,,,,,,61,wg-a,,,,AAXX 17094 07149 12359 83106 10070 20060 39750 49857 53020 60027 76166 8682/ 90900=
07149,1998-04-17 12:00:00,7,987.7,2,100,7,8000,18.52,,,340,,,,3,,,,,,61,wg-a,,,,AAXX 17124 07149 02258 83410 10070 20070 39770 49877 51020 60056 76166 878// 91200 333 60037=
07149,1998-04-17 15:00:00,8,990.3,2.6,93,7,7000,18.52,,,350,,,,3,,,,,,61,wg-a,,,,AAXX 17154 07149 12357 83510 10080 20070 39796 49903 51026 60037 76166 878// 91500=
07149,1998-04-17 18:00:00,7,993.7,3.3,93,6,4000,35.188,,,340,6.3,8.2,,,,,,,,60,wg-a,,,,AAXX 17184 07149 02340 83419 10070 20060 39829 49937 53033 61000 76066 878// 91800 333 10082 20063 6003=
07149,1998-04-18 09:00:00,8,1003.6,1.6,66,2,18000,22.224,,,330,,,,,,,,,,25,wg-a,,,,AAXX 18094 07149 02568 /3312 10080 20020 39927 40036 53016 61000 72586 85830 90900 333 ////=
07149,1998-04-18 12:00:00,9,1004.7,1.1,66,3,18000,18.52,,,310,,,,,,,,,,25,wg-a,,,,AAXX 18124 07149 02568 53110 10090 20030 39938 40047 51011 61000 72586 85800 91200 333 6100=
07149,1998-04-18 15:00:00,10,1005.2,0.6,50,0,20000,29.632,,,320,,,,0,,,,,,25,wg-a,,,,AAXX 18154 07149 12670 43216 10100 20000 39944 40052 53006 60007 72586 84800 91500=
07149,1998-04-18 18:00:00,10,1006.4,1.2,50,0,25000,18.52,,,320,6.2,11.5,,,,,,,,1,wg-a,,,,AAXX 18184 07149 12675 33210 10100 20000 39956 40064 53012 60006 70186 83800 91800 333 10115 20062=
07149,1998-04-18 21:00:00,6,1008,1.4,75,2,25000,11.112,,,280,,,,,,,,,,,wg-a,,,,AAXX 18214 07149 12775 32806 10060 20020 39970 40080 51014 60006 83500 92100=
07149,1998-04-19 00:00:00,5,1008.9,0.9,87,3,25000,11.112,,,260,,,,,,,,,,,wg-a,,,,AAXX 19004 07149 12675 /2606 10050 20030 39979 40089 51009 60006 86800 90000=
07149,1998-04-19 03:00:00,3,1009,-0,93,2,20000,11.112,,,240,,,,,,,,,,,wg-a,,,,AAXX 19034 07149 12570 32406 10030 20020 39979 40090 55000 60006 83800 90300=
07149,1998-04-19 06:00:00,3,1010,1,93,2,13000,7.408,,,210,2.3,9.6,,,,,,,,,wg-a,,,,AAXX 19064 07149 02763 22104 10030 20020 39989 40100 53010 60006 82501 90600 333 10096 20023 60004=
07149,1998-04-19 09:00:00,9,1010.8,1,76,5,28000,18.52,,,220,,,,,,,,,,,wg-a,,,,AAXX 19094 07149 12478 /2210 10090 20050 39999 40108 51010 60006 81101 90900=
07149,1998-04-19 12:00:00,11,1010.7,0,66,5,28000,22.224,,,230,,,,,,,,,,,wg-a,,,,AAXX 19124 07149 12578 72312 10110 20050 39999 40107 50000 60006 82202 91200=
07149,1998-04-19 15:00:00,13,1010,-0.7,54,4,25000,18.52,,,190,,,,,,,,,,,wg-a,,,,AAXX 19154 07149 12675 81910 10130 20040 39992 40100 58007 60006 8413/ 91500=
07149,1998-04-19 18:00:00,10,1010.6,0.5,87,8,11000,18.52,,,220,2.8,13.1,,,,,,,,61,wg-a,,,,AAXX 19184 07149 02461 82210 10100 20080 39997 40106 52005 61000 76162 8457/ 91800 333 10131 20028 6001=
07149,1998-04-19 21:00:00,9,1010.6,0,93,8,12000,18.52,,,180,,,,2,,,,,,58,wg-a,,,,AAXX 19214 07149 12362 81810 10090 20080 39997 40106 50000 60027 75866 877// 92100=
07149,1998-04-20 00:00:00,9,1010.2,-0.4,100,9,15000,18.52,,,200,,,,,,,,,,20,wg-a,,,,AAXX 20004 07149 02465 82010 10090 20090 39993 40102 57004 60026 72065 875// 90000 333 61000=
07149,1998-04-20 03:00:00,10,1009.2,-0.9,87,8,15000,18.52,,,190,,,,,,,,,,,wg-a,,,,AAXX 20034 07149 12565 81910 10100 20080 39984 40092 57009 60006 875// 90300=
07149,1998-04-20 06:00:00,9,1010.1,0.8,100,9,10000,22.224,,,210,8.7,9.8,,,,,,,,61,wg-a,,,,AAXX 20064 07149 02260 82112 10090 20090 39992 40101 53008 61000 76162 877// 90600 333 10098 20087 6006=
07149,1998-04-20 09:00:00,11,1011.2,1.2,94,10,15000,18.52,,,220,,,,,,,,,,1,wg-a,,,,AAXX 20094 07149 02365 82210 10110 20100 30004 40112 51012 61000 70162 877// 90900 333 ////=
07149,1998-04-20 12:00:00,12,1011.9,0.7,82,9,15000,22.224,,,220,,,,,,,,,,25,wg-a,,,,AAXX 20124 07149 02465 72212 10120 20090 30011 40119 51007 61000 72586 878// 91200 333 6100=
07149,1998-04-20 15:00:00,14,1012.4,0.6,63,7,25000,29.632,,,270,,,,1,,,,,,1,wg-a,,,,AAXX 20154 07149 12675 72716 10140 20070 30017 40124 51006 60017 70186 84802 91500=
07149,1998-04-20 18:00:00,12,1014.1,1.6,62,5,25000,14.816,,,300,9.2,14.1,,,,,,,,1,wg-a,,,,AAXX 20184 07149 12675 73008 10120 20050 30033 40141 51016 60006 70186 83802 91800 333 10141 20092=
07149,1998-04-20 21:00:00,9,1016.3,2,93,8,18000,11.112,,,200,,,,1,,,,,,1,wg-a,,,,AAXX 20214 07149 12768 62006 10090 20080 30053 40163 51020 60017 70186 835/2 92100=
07149,1998-04-21 00:00:00,9,1016.6,0.3,93,8,18000,11.112,,,210,,,,,,,,,,3,wg-a,,,,AAXX 21004 07149 12668 52106 10090 20080 30056 40166 51003 60016 70386 84502 90000=
07149,1998-04-21 03:00:00,8,1016.6,-0,93,7,18000,7.408,,,200,,,,,,,,,,,wg-a,,,,AAXX 21034 07149 12768 62004 10080 20070 30056 40166 55000 60006 81532 90300=
07149,1998-04-21 06:00:00,8,1017.2,0.6,93,7,14000,11.112,,,190,7.4,12.1,,,,,2,,,,wg-a,,,,AAXX 21064 07149 02764 71906 10080 20070 30062 40172 50006 60006 81532 90600 333 10121 20074 60024=
07149,1998-04-21 09:00:00,12,1017.6,0.6,82,9,18000,14.816,,,210,,,,,,,,,,,wg-a,,,,AAXX 21094 07149 12468 42108 10120 20090 30068 40176 51006 60006 82132 90900=
07149,1998-04-21 12:00:00,14,1017.2,-0.4,63,7,25000,11.112,,,210,,,,,,,,,,,wg-a,,,,AAXX 21124 07149 12675 62106 10140 20070 30064 40172 58004 60006 84231 91200=
07149,1998-04-21 18:00:00,15,1015.5,-0.6,59,7,500,7.408,,,190,7.7,16.7,,,,,,,,,wg-a,,,,AAXX 21184 07149 12/00 71904 10150 20070 30048 40155 56006 60006 83031 91800 333 10167 20077=
07149,1998-04-21 21:00:00,13,1015.2,-0.4,62,6,500,11.112,,,90,,,,,,,,,,,wg-a,,,,AAXX 21214 07149 12/00 50906 10130 20060 30044 40152 58004 60006 84031 92100=
07149,1998-04-22 00:00:00,12,1014.3,-0.9,67,6,500,7.408,,,120,,,,,,,,,,,wg-a,,,,AAXX 22004 07149 12/00 21204 10120 20060 30035 40143 56009 60006 81031 90000=
07149,1998-04-22 03:00:00,11,1013.1,-1.3,76,7,28000,11.112,,,130,,,,,,,,,,,wg-a,,,,AAXX 22034 07149 12878 41306 10110 20070 30022 40131 58013 60006 82531 90300=
07149,1998-04-22 06:00:00,11,1013.2,0.1,76,7,18000,0,,,0,9.9,14.9,,,,,,,,,wg-a,,,,AAXX 22064 07149 02868 60000 10110 20070 30023 40132 53001 60006 82201 90600 333 10149 20099 60004=
07149,1998-04-22 09:00:00,16,1012.4,-0.5,59,8,25000,11.112,,,100,,,,,,,,,,,wg-a,,,,AAXX 22094 07149 12/75 11006 10160 20080 30018 40124 58005 60006 81081 90900=
07149,1998-04-22 12:00:00,23,1010.7,-1.5,44,10,25000,22.224,,,120,,,,,,,,,,,wg-a,,,,AAXX 22124 07149 12775 11212 10230 20100 30003 40107 58015 60006 81100 91200=
07149,1998-04-22 15:00:00,23,1009.1,-1.6,41,9,25000,22.224,,,120,,,,,,,,,,,wg-a,,,,AAXX 22154 07149 12775 21212 10230 20090 39987 40091 56016 60006 82100 91500=
07149,1998-04-22 18:00:00,21,1009.1,-0,38,6,25000,11.112,,,150,10.6,23.4,,,,,,,,,wg-a,,,,AAXX 22184 07149 12775 21506 10210 20060 39987 40091 55000 60006 82400 91800 333 10234 20106=
07149,1998-04-22 21:00:00,17,1010,0.7,59,9,25000,11.112,,31.484,120,,,,,,,,,,,wg-a,,,,AAXX 22214 07149 12775 21206 10170 20090 39994 40100 51007 60006 81501 92100 333 91017=
07149,1998-04-23 03:00:00,11,1011.4,0.6,87,9,25000,14.816,,,260,,,,,,,,,,,wg-a,,,,AAXX 23034 07149 12/75 22608 10110 20090 30006 40114 53006 60006 82030 90300=
07149,1998-04-23 06:00:00,12,1013.2,1.8,94,11,7000,11.112,,,260,10.7,21.4,,,,,,,,,wg-a,,,,AAXX 23064 07149 02/57 /2606 10120 20110 30024 40132 52018 60006 90600 333 10214 20107 60004=
07149,1998-04-23 09:00:00,14,1014.3,1.2,72,9,18000,25.928,,,260,,,,,,,,,,,wg-a,,,,AAXX 23094 07149 12468 /2614 10140 20090 30036 40143 51012 60006 86800 90900=
07149,1998-04-23 12:00:00,16,1013.5,-0.7,59,8,25000,31.484,,,240,,,,,,,,,,,wg-a,,,,AAXX 23124 07149 12675 52417 10160 20080 30029 40135 58007 60006 84201 91200=
07149,1998-04-23 15:00:00,16,1013.1,-0.5,55,7,500,42.596,,,230,,,,,,,,,,21,wg-a,,,,AAXX 23154 07149 02600 72323 10160 20070 30024 40131 58005 61000 72162 82454 91500 333 ////=
07149,1998-04-23 18:00:00,14,1013.6,0.5,72,9,20000,35.188,,,230,11.9,17.6,,,,,,,,21,wg-a,,,,AAXX 23184 07149 02570 72319 10140 20090 30029 40136 53005 61000 72162 878// 91800 333 10176 20119 6000=
07149,1998-04-23 21:00:00,12,1015.1,1.4,88,10,25000,29.632,,,230,,,,,,,,,,,wg-a,,,,AAXX 23214 07149 12475 52316 10120 20100 30043 40151 52014 60006 85800 92100=
07149,1998-04-24 00:00:00,12,1016.8,1.6,71,7,25000,31.484,,,280,,,,,,,,,,,wg-a,,,,AAXX 24004 07149 12475 /2817 10120 20070 30059 40168 53016 60006 85800 90000=
07149,1998-04-24 03:00:00,9,1018.1,1.2,87,7,25000,11.112,,,230,,,,,,,,,,,wg-a,,,,AAXX 24034 07149 12775 62306 10090 20070 30071 40181 52012 60006 815/1 90300=
07149,1998-04-24 06:00:00,9,1019.7,1.6,93,8,18000,18.52,,,230,8,13.5,,,,,,,,,wg-a,,,,AAXX 24064 07149 02368 72310 10090 20080 30087 40197 53016 60006 878// 90600 333 10135 20080 60004=
07149,1998-04-24 09:00:00,12,1020.7,1.1,71,7,22000,18.52,,,240,,,,,,,,,,,wg-a,,,,AAXX 24094 07149 12472 /2410 10120 20070 30098 40207 50011 60006 83231 90900=
07149,1998-04-24 12:00:00,15,1020.4,-0.2,59,7,25000,25.928,,,240,,,,,,,,,,,wg-a,,,,AAXX 24124 07149 12575 /2414 10150 20070 30096 40204 58002 60006 83230 91200=
07149,1998-04-24 18:00:00,14,1019.8,-0.3,88,12,7000,22.224,,,220,8.7,16.6,,,,,,,,60,wg-a,,,,AAXX 24184 07149 02457 72212 10140 20120 30090 40198 55003 61000 76062 875// 91800 333 10166 20087 6100=
07149,1998-04-25 00:00:00,13,1019.1,-1,94,12,18000,18.52,,,220,,,,,,,,,,3,wg-a,,,,AAXX 25004 07149 02468 82210 10130 20120 30083 40191 58010 61000 70365 875// 90000 333 6100=
07149,1998-04-25 06:00:00,13,1016.8,-1.1,88,11,13000,25.928,,,210,12.5,14.3,,,,,,,,58,wg-a,,,,AAXX 25064 07149 02363 82114 10130 20110 30060 40168 56011 61000 75865 877// 90600 333 10143 20125 6100=
07149,1998-04-25 12:00:00,15,1014.8,-1.4,82,12,20000,31.484,,,220,,,,,,,,,,1,wg-a,,,,AAXX 25124 07149 02470 82217 10150 20120 30041 40148 56014 60006 70165 875// 91200 333 61000=
07149,1998-04-25 18:00:00,16,1011.9,-1.6,77,12,20000,25.928,,,200,12.5,16.1,,,,,,,,,wg-a,,,,AAXX 25184 07149 12570 72014 10160 20120 30013 40119 57016 60006 8283/ 91800 333 10161 20125=
07149,1998-04-26 00:00:00,11,1010.8,-1,82,8,17000,7.408,,,240,,,,0,,,,,,2,wg-a,,,,AAXX 26004 07149 02567 72404 10110 20080 30000 40108 58010 60016 70262 875// 90000 333 60007=
07149,1998-04-26 06:00:00,10,1008.3,-1,100,10,15000,3.704,,,230,9.5,15.5,,,,,,,,21,wg-a,,,,AAXX 26064 07149 02465 72302 10100 20100 39975 40083 56010 61000 72162 8587/ 90600 333 10155 20095 6004=
07149,1998-04-26 12:00:00,14,1007.3,-0.9,63,7,25000,14.816,,,250,,,,,,,,,,,wg-a,,,,AAXX 26124 07149 12575 82508 10140 20070 39966 40073 58009 60006 8483/ 91200=
07149,1998-04-26 18:00:00,12,1005.8,-0.5,67,6,28000,14.816,,,230,9.8,14.2,,,,,,,,,wg-a,,,,AAXX 26184 07149 12678 82308 10120 20060 39951 40058 56005 60006 8187/ 91800 333 10142 20098=
07149,1998-04-27 00:00:00,10,1004.5,-1.2,87,8,18000,7.408,,,200,,,,,,,,,,,wg-a,,,,AAXX 27004 07149 12768 82004 10100 20080 39937 40045 57012 60006 8453/ 90000=
07149,1998-04-27 06:00:00,9,1003.1,-0.5,100,9,7000,3.704,,,270,8.6,12.2,,,,,,,,61,wg-a,,,,AAXX 27064 07149 02257 82702 10090 20090 39923 40031 56005 61000 76162 8657/ 90600 333 10122 20086 6002=
07149,1998-04-27 09:00:00,11,1003,-0,82,8,14000,11.112,,,280,,,,0,,,,,,21,wg-a,,,,AAXX 27094 07149 12464 82806 10110 20080 39923 40030 55000 60007 72162 8683/ 90900=
07149,1998-04-27 12:00:00,10,1003.9,0.8,87,8,13000,3.704,,,90,,,,1,,,,,,21,wg-a,,,,AAXX 27124 07149 02263 70902 10100 20080 39931 40039 52008 60016 72162 8683/ 91200 333 60017=
07149,1998-04-27 15:00:00,11,1004.8,1,71,6,12000,7.408,,,20,,,,,,,,,,16,wg-a,,,,AAXX 27154 07149 12462 70204 10110 20060 39941 40048 53010 60006 71622 8696/ 91500=
07149,1998-04-27 18:00:00,11,1005.2,0.3,76,7,20000,0,,,0,8.3,11.9,,0,,,,,,2,wg-a,,,,AAXX 27184 07149 02570 70000 10110 20070 39944 40052 53003 60006 70296 85832 91800 333 10119 20083 60007=
07149,1998-04-27 21:00:00,9,1006.2,1,93,8,17000,11.112,,,200,,,,,,,,,,,wg-a,,,,AAXX 27214 07149 12767 /2006 10090 20080 39954 40062 51010 60006 86500 92100=
07149,1998-04-28 00:00:00,8,1006.4,0.1,93,7,10000,3.704,,,210,,,,,,,,,,,wg-a,,,,AAXX 28004 07149 12560 72102 10080 20070 39955 40064 50001 60006 878// 90000=
07149,1998-04-28 03:00:00,7,1006.3,-0.1,100,7,9000,7.408,,,220,,,,0,,,,,,1,wg-a,,,,AAXX 28034 07149 12759 /2204 10070 20070 39954 40063 55001 60007 70162 85500 90300=
07149,1998-04-28 06:00:00,7,1007.2,0.9,100,7,7000,11.112,,,210,6.9,10.9,,,,,1,,,1,wg-a,,,,AAXX 28064 07149 02657 72106 10070 20070 39963 40072 53009 60006 70162 8253/ 90600 333 10109 20069 60014=
07149,1998-04-28 09:00:00,11,1007.4,0.3,76,7,14000,11.112,,,230,,,,,,,,,,,wg-a,,,,AAXX 28094 07149 12464 72306 10110 20070 39966 40074 52003 60006 8483/ 90900=
07149,1998-04-28 12:00:00,12,1006.7,-0.6,71,7,10000,18.52,,,240,,,,,,,,,,80,wg-a,,,,AAXX 28124 07149 02660 62410 10120 20070 39960 40067 58006 61000 78086 86900 91200 333 6100=
07149,1998-04-28 18:00:00,13,1005.8,-0.2,62,6,25000,14.816,,,170,7.1,15.2,,,,,,,,3,wg-a,,,,AAXX 28184 07149 12675 31708 10130 20060 39951 40058 58002 60006 70398 83900 91800 333 10152 20071=
07149,1998-04-28 21:00:00,9,1006.2,0.3,81,6,25000,11.112,,,170,,,,,,,,,,,wg-a,,,,AAXX 28214 07149 12775 11706 10090 20060 39954 40062 50003 60006 81500 92100=
07149,1998-04-29 00:00:00,7,1005.2,-1.1,87,5,25000,11.112,,,140,,,,,,,,,,,wg-a,,,,AAXX 29004 07149 12/75 01406 10070 20050 39943 40052 56011 60006 80000 90000=
07149,1998-04-29 03:00:00,6,1003.3,-1.9,93,5,25000,14.816,,,130,,,,,,,,,,,wg-a,,,,AAXX 29034 07149 12/75 21308 10060 20050 39924 40033 57019 60006 80001 90300=
07149,1998-04-29 06:00:00,7,1002.4,-0.9,87,5,25000,14.816,,,120,5.6,13.2,,,,,1,,,,wg-a,,,,AAXX 29064 07149 02775 61208 10070 20050 39915 40024 56009 60006 81532 90600 333 10132 20056 60014=
07149,1998-04-29 09:00:00,13,1001.8,-0.4,58,5,25000,22.224,,,130,,,,,,,,,,,wg-a,,,,AAXX 29094 07149 12/75 61312 10130 20050 39911 40018 58004 60006 84032 90900=
07149,1998-04-29 12:00:00,16,1001.2,-0.5,48,5,11000,14.816,,,170,,,,,,,,,,,wg-a,,,,AAXX 29124 07149 12/61 /1708 10160 20050 39906 40012 58005 60006 91200=
07149,1998-04-29 18:00:00,13,1001.9,0,72,8,25000,3.704,,,70,6.8,16.1,,0,,,,,,1,wg-a,,,,AAXX 29184 07149 02675 70702 10130 20080 39913 40019 50000 60006 70162 8587/ 91800 333 10161 20068 60007=
07149,1998-04-29 21:00:00,11,1002.5,0.5,76,7,25000,11.112,,,50,,,,,,,,,,,wg-a,,,,AAXX 29214 07149 12775 40506 10110 20070 39918 40025 50005 60006 82530 92100=
07149,1998-04-30 00:00:00,9,1003.1,0.5,81,6,25000,11.112,,,40,,,,,,,,,,,wg-a,,,,AAXX 30004 07149 12/75 10406 10090 20060 39923 40031 53005 60006 81030 90000=
07149,1998-04-30 03:00:00,8,1003.4,0.3,93,7,25000,11.112,,,30,,,,,,,,,,,wg-a,,,,AAXX 30034 07149 12/75 50306 10080 20070 39926 40034 52003 60006 83032 90300=
07149,1998-04-30 06:00:00,9,1004.2,0.8,87,7,12000,7.408,,,80,7.7,13.4,,,,,,,,,wg-a,,,,AAXX 30064 07149 02/62 60804 10090 20070 39934 40042 53008 60006 84032 90600 333 10134 20077 60004=
07149,1998-04-30 09:00:00,15,1005.2,1.2,67,9,10000,11.112,,,50,,,,,,,,,,,wg-a,,,,AAXX 30094 07149 12/60 /0506 10150 20090 39946 40052 51012 60006 90900=
07149,1998-04-30 12:00:00,18,1005.7,0.6,56,9,17000,22.224,,,60,,,,,,,,,,,wg-a,,,,AAXX 30124 07149 12667 70612 10180 20090 39952 40057 50006 60006 81231 91200=
07149,1998-04-30 15:00:00,17,1006.1,0.4,63,10,9000,25.928,,,40,,,,,,,,,,,wg-a,,,,AAXX 30154 07149 12559 70414 10170 20100 39956 40061 53004 60006 8623/ 91500=
07149,1998-04-30 18:00:00,16,1007.9,1.7,59,8,12000,25.928,,,30,9.4,19.4,,,,,,,,,wg-a,,,,AAXX 30184 07149 12/62 70314 10160 20080 39973 40079 53017 60006 83031 91800 333 10194 20094=
07149,1998-04-30 21:00:00,11,1010.6,2.5,82,8,12000,31.484,,,20,,,,,,,,,,,wg-a,,,,AAXX 30214 07149 12462 30217 10110 20080 39998 40106 53025 60006 83500 92100=
07149,1998-05-01 03:00:00,10,1012.1,0.1,82,7,10000,22.224,,,10,,,,,,,,,,,wg-a,,,,AAXX 01034 07149 12460 80112 10100 20070 30012 40121 52001 60006 875// 90300=
07149,1998-05-01 06:00:00,10,1012.6,0.5,82,7,10000,18.52,,,10,9.9,15.5,,,,,,,,,wg-a,,,,AAXX 01064 07149 02460 80110 10100 20070 30017 40126 53005 60006 875// 90600 333 10155 20099 60004=
07149,1998-05-01 09:00:00,11,1012.8,0.3,87,9,7000,18.52,,,10,,,,,,,,,,,wg-a,,,,AAXX 01094 07149 12457 80110 10110 20090 30020 40128 51003 60006 875// 90900=
07149,1998-05-01 12:00:00,12,1012.9,0.1,82,9,8000,22.224,,,360,,,,,,,,,,,wg-a,,,,AAXX 01124 07149 12458 83612 10120 20090 30021 40129 53001 60006 875// 91200=
07149,1998-05-01 15:00:00,12,1012.4,-0.5,76,8,10000,18.52,,,10,,,,,,,,,,,wg-a,,,,AAXX 01154 07149 12460 80110 10120 20080 30016 40124 58005 60006 875// 91500=
07149,1998-05-01 18:00:00,11,1012.1,-0.3,82,8,12000,18.52,,,340,10.2,12.2,,,,,,,,,wg-a,,,,AAXX 01184 07149 12462 73410 10110 20080 30013 40121 56003 60006 875// 91800 333 10122 20102=
07149,1998-05-01 21:00:00,11,1012.8,0.6,82,8,10000,14.816,,,350,,,,,,,,,,,wg-a,,,,AAXX 01214 07149 12460 73508 10110 20080 30019 40128 53006 60006 875// 92100=
07149,1998-05-02 00:00:00,10,1012.4,-0.4,87,8,9000,11.112,,,340,,,,,,,,,,1,wg-a,,,,AAXX 02004 07149 02459 73406 10100 20080 30015 40124 56004 61000 70152 875// 90000 333 6100=
07149,1998-05-02 03:00:00,9,1012.2,-0.2,93,8,9000,7.408,,,350,,,,0,,,,,,60,wg-a,,,,AAXX 02034 07149 12459 73504 10090 20080 30013 40122 57002 60007 76062 875// 90300=
07149,1998-05-02 06:00:00,9,1012.6,0.4,93,8,9000,11.112,,,340,9.1,11.4,,,,,,,,60,wg-a,,,,AAXX 02064 07149 02359 73406 10090 20080 30017 40126 53004 61000 76062 877// 90600 333 10114 20091 6002=
07149,1998-05-02 09:00:00,11,1013.6,1,82,8,11000,14.816,,,330,,,,,,,,,,,wg-a,,,,AAXX 02094 07149 32/61 /3308 10110 20080 30027 40136 51010 90900=
07149,1998-05-02 12:00:00,11,1013.8,0.2,94,10,4000,14.816,,,330,,,,,,,,,,10,wg-a,,,,AAXX 02124 07149 02240 83308 10110 20100 30029 40138 51002 61000 71065 877// 91200 333 6100=
07149,1998-05-02 15:00:00,11,1013.5,-0.2,94,10,8000,14.816,,,340,,,,1,,,,,,60,wg-a,,,,AAXX 02154 07149 12458 83408 10110 20100 30027 40135 58002 60017 76065 875// 91500=
07149,1998-05-02 18:00:00,10,1013.6,-0,93,9,4000,14.816,,,10,9.3,11.7,,,,,,,,10,wg-a,,,,AAXX 02184 07149 02240 80108 10100 20090 30027 40136 55000 61000 71065 877// 91800 333 10117 20093 6001=
07149,1998-05-02 21:00:00,9,1014.5,0.9,93,8,9000,18.52,,,10,,,,,,,,,,61,wg-a,,,,AAXX 02214 07149 02259 80110 10090 20080 30036 40145 52009 61000 76162 875// 92100 333 ////=
07149,1998-05-03 03:00:00,7,1013.7,-0.7,87,5,10000,25.928,,,20,,,,,,,,,,,wg-a,,,,AAXX 03034 07149 12460 80214 10070 20050 30027 40137 57007 60006 875// 90300=
07149,1998-05-03 06:00:00,7,1013.8,0.1,87,5,10000,25.928,,,20,7.1,10.3,,,,,3,,,,wg-a,,,,AAXX 03064 07149 02460 70214 10070 20050 30028 40138 53001 60006 8553/ 90600 333 10103 20071 60034=
07149,1998-05-03 09:00:00,10,1014.3,0.6,71,5,18000,29.632,,,40,,,,,,,,,,,wg-a,,,,AAXX 03094 07149 12568 70416 10100 20050 30034 40143 53006 60006 875// 90900=
07149,1998-05-03 12:00:00,12,1013.9,-0.3,62,5,25000,25.928,,,30,,,,,,,,,,,wg-a,,,,AAXX 03124 07149 12575 70314 10120 20050 30031 40139 58003 60006 875// 91200=
07149,1998-05-03 15:00:00,12,1014,0.1,62,5,25000,22.224,,,40,,,,,,,,,,,wg-a,,,,AAXX 03154 07149 12675 70412 10120 20050 30032 40140 51001 60006 875// 91500=
07149,1998-05-03 17:00:00,11,1016.5,0.4,62,4,25000,29.632,,,20,7.2,,,,,,,,,,wg-a,,,,AAXX 03174 07149 12575 70216 10110 20040 30036 40165 53004 60006 91700 333 20072=
07149,1998-05-03 18:00:00,11,1014.5,0.4,66,5,25000,29.632,,,20,7.2,12.7,,,,,,,,,wg-a,,,,AAXX 03184 07149 12575 70216 10110 20050 30036 40145 53004 60006 8657/ 91800 333 10127 20072=
07149,1998-05-04 00:00:00,9,1015.5,-0.1,76,5,18000,25.928,,,20,,,,,,,,,,,wg-a,,,,AAXX 04004 07149 12468 70214 10090 20050 30045 40155 57001 60006 875// 90000=
07149,1998-05-04 03:00:00,7,1015.4,-0.1,81,4,15000,25.928,,,20,,,,,,,,,,,wg-a,,,,AAXX 04034 07149 12465 70214 10070 20040 30044 40154 58001 60006 875// 90300=
07149,1998-05-04 06:00:00,7,1016,0.5,66,1,16000,25.928,,,10,6.4,11.1,,,,,,,,,wg-a,,,,AAXX 04064 07149 02566 70114 10070 20010 30049 40160 53005 60006 875// 90600 333 10111 20064 60004=
07149,1998-05-04 09:00:00,8,1016.3,0.4,66,2,20000,25.928,,,20,,,,,,,,,,,wg-a,,,,AAXX 04094 07149 12570 70214 10080 20020 30053 40163 50004 60006 875// 90900=
07149,1998-05-04 12:00:00,12,1015.7,-0.4,54,3,20000,25.928,,,10,,,,,,,,,,,wg-a,,,,AAXX 04124 07149 12670 20114 10120 20030 30049 40157 58004 60006 82100 91200=
07149,1998-05-04 15:00:00,14,1015,-0.7,44,2,25000,25.928,,,360,,,,,,,,,,,wg-a,,,,AAXX 04154 07149 12675 33614 10140 20020 30042 40150 58007 60006 81101 91500=
07149,1998-05-04 18:00:00,12,1015,-0,54,3,25000,22.224,,,10,6.5,13.9,,,,,,,,,wg-a,,,,AAXX 04184 07149 12675 50112 10120 20030 30042 40150 55000 60006 81502 91800 333 10139 20065=
07149,1998-05-04 21:00:00,9,1016.4,1.2,76,5,20000,14.816,,,10,,,,,,,,,,,wg-a,,,,AAXX 04214 07149 12570 /0108 10090 20050 30054 40164 53012 60006 81501 92100=
07149,1998-05-05 00:00:00,8,1016.5,0.1,76,4,20000,11.112,,,350,,,,,,,,,,,wg-a,,,,AAXX 05004 07149 12/70 03506 10080 20040 30055 40165 51001 60006 80000 90000=
07149,1998-05-05 03:00:00,7,1015.6,-0.9,81,4,15000,7.408,,,340,,,,,,,,,,,wg-a,,,,AAXX 05034 07149 12665 73404 10070 20040 30046 40156 57009 60006 875// 90300=
07149,1998-05-05 06:00:00,8,1015.3,-0.3,81,5,17000,7.408,,,210,5.9,12.1,,,,,,,,,wg-a,,,,AAXX 05064 07149 02667 72104 10080 20050 30043 40153 55003 60006 8553/ 90600 333 10121 20059 60004=
07149,1998-05-05 09:00:00,12,1014.6,-0.5,76,8,15000,11.112,,,270,,,,,,,,,,,wg-a,,,,AAXX 05094 07149 12765 72706 10120 20080 30038 40146 58005 60006 875// 90900=
07149,1998-05-05 12:00:00,16,1013.4,-1.1,55,7,19000,14.816,,,310,,,,,,,,,,,wg-a,,,,AAXX 05124 07149 12669 73108 10160 20070 30027 40134 58011 60006 878// 91200=
07149,1998-05-05 15:00:00,15,1012.6,-0.8,51,5,20000,18.52,,,300,,,,,,,,,,,wg-a,,,,AAXX 05154 07149 12670 73010 10150 20050 30019 40126 58008 60006 878// 91500=
07149,1998-05-05 18:00:00,15,1012.1,-0.5,55,6,20000,14.816,,,290,8.1,16.8,,,,,,,,,wg-a,,,,AAXX 05184 07149 12670 72908 10150 20060 30014 40121 57005 60006 84831 91800 333 10168 20081=
07149,1998-05-05 21:00:00,12,1012.5,0.3,71,7,20000,11.112,,,250,,,,,,,,,,,wg-a,,,,AAXX 05214 07149 12770 72506 10120 20070 30017 40125 52003 60006 875// 92100=
07149,1998-05-06 03:00:00,9,1011.4,-0.5,81,6,18000,14.816,,,230,,,,,,,,,,,wg-a,,,,AAXX 06034 07149 12568 82308 10090 20060 30005 40114 56005 60006 8653/ 90300=
07149,1998-05-06 06:00:00,10,1011.9,0.5,82,7,11000,18.52,,,230,9.1,14.8,,,,,,,,,wg-a,,,,AAXX 06064 07149 02/61 /2310 10100 20070 30010 40119 53005 60006 90600 333 10148 20091 60004=
07149,1998-05-06 09:00:00,14,1011.9,0.2,63,7,20000,29.632,,,240,,,,,,,,,,,wg-a,,,,AAXX 06094 07149 12570 /2416 10140 20070 30012 40119 50002 60006 81130 90900=
07149,1998-05-06 12:00:00,14,1012.6,0.7,63,7,25000,31.484,,,250,,,,,,,,,,,wg-a,,,,AAXX 06124 07149 12575 72517 10140 20070 30019 40126 51007 60006 878// 91200=
07149,1998-05-06 15:00:00,14,1013,0.4,67,8,20000,31.484,,,230,,,,,,,,,,,wg-a,,,,AAXX 06154 07149 12570 82317 10140 20080 30023 40130 51004 60006 878// 91500=
07149,1998-05-06 18:00:00,14,1013.9,0.8,67,8,20000,25.928,,,240,9.6,15,,,,,,,,3,wg-a,,,,AAXX 06184 07149 02570 82414 10140 20080 30031 40139 51008 60006 70362 875// 91800 333 10150 20096 61000=
07149,1998-05-07 00:00:00,12,1016.3,0.9,76,8,18000,22.224,,,240,,,,,,,,,,,wg-a,,,,AAXX 07004 07149 12668 82412 10120 20080 30055 40163 52009 60006 875// 90000=
07149,1998-05-07 03:00:00,11,1016.7,0.3,82,8,17000,18.52,,,240,,,,,,,,,,,wg-a,,,,AAXX 07034 07149 12667 72410 10110 20080 30058 40167 53003 60006 875// 90300=
07149,1998-05-07 06:00:00,11,1018,1.3,82,8,22000,14.816,,,210,10.5,13.5,,,,,,,,,wg-a,,,,AAXX 07064 07149 02572 72108 10110 20080 30071 40180 53013 60006 878// 90600 333 10135 20105 61000=
07149,1998-05-07 09:00:00,13,1018.8,0.9,72,8,22000,22.224,,,220,,,,,,,,,,,wg-a,,,,AAXX 07094 07149 12572 72212 10130 20080 30080 40188 51009 60006 878// 90900=
07149,1998-05-07 12:00:00,15,1018.9,0.2,59,7,25000,25.928,,,230,,,,,,,,,,,wg-a,,,,AAXX 07124 07149 12675 72314 10150 20070 30082 40189 50002 60006 878// 91200=
07149,1998-05-07 15:00:00,18,1018.5,-0.3,49,7,500,18.52,,,220,,,,,,,,,,,wg-a,,,,AAXX 07154 07149 12600 /2210 10180 20070 30079 40185 58003 60006 84500 91500=
07149,1998-05-07 18:00:00,18,1018.6,-0,49,7,500,14.816,,,200,10.8,18.6,,,,,,,,,wg-a,,,,AAXX 07184 07149 12600 /2008 10180 20070 30079 40186 55000 60006 81500 91800 333 10186 20108=
07149,1998-05-07 21:00:00,13,1019.9,1.2,77,9,25000,7.408,,,160,,,,,,,,,,,wg-a,,,,AAXX 07214 07149 12/75 01604 10130 20090 30091 40199 53012 60006 80000 92100=
07149,1998-05-08 03:00:00,9,1020.5,-0.2,87,7,20000,7.408,,,110,,,,,,,,,,,wg-a,,,,AAXX 08034 07149 12/70 11104 10090 20070 30095 40205 56002 60006 81030 90300=
07149,1998-05-08 06:00:00,11,1020.8,0.4,82,8,18000,3.704,,,130,7.8,17.7,,,,,,,,,wg-a,,,,AAXX 08064 07149 02/68 61302 10110 20080 30099 40208 53004 60006 80001 90600 333 10177 20078 60004=
07149,1998-05-08 09:00:00,17,1020.9,0.3,63,10,18000,11.112,,,170,,,,,,,,,,,wg-a,,,,AAXX 08094 07149 12/68 71706 10170 20100 30102 40209 51003 60006 80002 90900=
07149,1998-05-08 12:00:00,23,1019.8,-0.9,38,8,26000,14.816,,,190,,,,,,,,,,,wg-a,,,,AAXX 08124 07149 12/76 31908 10230 20080 30093 40198 58009 60006 80002 91200=
07149,1998-05-08 15:00:00,26,1018.5,-1.2,30,7,500,14.816,,,160,,,,,,,,,,,wg-a,,,,AAXX 08154 07149 12/00 71608 10260 20070 30081 40185 56012 60006 80002 91500=
07149,1998-05-08 18:00:00,24,1018.4,-0.1,38,9,500,7.408,,,130,10.5,26.4,,,,,,,,,wg-a,,,,AAXX 08184 07149 12/00 51304 10240 20090 30080 40184 55001 60006 80002 91800 333 10264 20105=
07149,1998-05-08 21:00:00,20,1019.1,0.5,53,10,25000,11.112,,,120,,,,,,,,,,,wg-a,,,,AAXX 08214 07149 12/75 51206 10200 20100 30085 40191 52005 60006 80002 92100=
07149,1998-05-09 00:00:00,16,1019.3,0.1,68,10,25000,11.112,,,170,,,,,,,,,,,wg-a,,,,AAXX 09004 07149 12/75 51706 10160 20100 30086 40193 53001 60006 80002 90000=
07149,1998-05-09 03:00:00,14,1019.9,0.5,77,10,25000,14.816,,,180,,,,,,,,,,,wg-a,,,,AAXX 09034 07149 12/75 51808 10140 20100 30091 40199 52005 60006 80002 90300=
07149,1998-05-09 06:00:00,14,1021,1.1,77,10,20000,11.112,,,180,12.7,23.7,,,,,,,,,wg-a,,,,AAXX 09064 07149 02/70 51806 10140 20100 30102 40210 53011 60006 81032 90600 333 10237 20127 60004=
07149,1998-05-09 09:00:00,20,1021.5,0.7,49,9,25000,14.816,,,200,,,,,,,,,,,wg-a,,,,AAXX 09094 07149 12/75 22008 10200 20090 30109 40215 51007 60006 81032 90900=
07149,1998-05-09 12:00:00,23,1021.5,0.1,47,11,500,11.112,,,190,,,,,,,,,,,wg-a,,,,AAXX 09124 07149 12/00 41906 10230 20110 30110 40215 50001 60006 84082 91200=
07149,1998-05-09 15:00:00,24,1020.8,-0.7,38,9,25000,11.112,,,190,,,,,,,,,,,wg-a,,,,AAXX 09154 07149 12775 51906 10240 20090 30103 40208 58007 60006 82582 91500=
07149,1998-05-09 18:00:00,22,1019.9,-0.9,57,13,25000,3.704,,,70,13.7,24.1,,,,,,,,,wg-a,,,,AAXX 09184 07149 12775 50702 10220 20130 30094 40199 56009 60006 83582 91800 333 10241 20137=
07149,1998-05-10 00:00:00,16,1019.9,-0.2,77,12,25000,3.704,,,150,,,,,,,,,,,wg-a,,,,AAXX 10004 07149 12/75 21502 10160 20120 30092 40199 56002 60006 80001 90000=
07149,1998-05-10 06:00:00,15,1018.7,-0.2,72,10,15000,7.408,,,120,12.4,22.4,,,,,,,,,wg-a,,,,AAXX 10064 07149 02/65 01204 10150 20100 30080 40187 56002 60006 80000 90600 333 10224 20124 60004=
07149,1998-05-10 09:00:00,22,1017.8,-0.7,53,12,25000,18.52,,,110,,,,,,,,,,,wg-a,,,,AAXX 10094 07149 12/75 11110 10220 20120 30073 40178 58007 60006 80001 90900=
07149,1998-05-10 12:00:00,27,1016.3,-1.3,34,10,28000,18.52,,,120,,,,,,,,,,,wg-a,,,,AAXX 10124 07149 12/78 31210 10270 20100 30060 40163 58013 60006 80002 91200=
07149,1998-05-10 15:00:00,29,1014.4,-1.8,29,9,500,18.52,,,110,,,,,,,,,,,wg-a,,,,AAXX 10154 07149 12700 21110 10290 20090 30042 40144 57018 60006 81102 91500=
07149,1998-05-10 18:00:00,27,1013.3,-1.2,39,12,500,11.112,,,100,15,28.8,,,,,,,,,wg-a,,,,AAXX 10184 07149 12/00 61006 10270 20120 30030 40133 56012 60006 80002 91800 333 10288 20150=
07149,1998-05-10 21:00:00,22,1013.5,0.1,57,13,25000,7.408,,,100,,,,,,,,,,,wg-a,,,,AAXX 10214 07149 12/75 51004 10220 20130 30031 40135 52001 60006 80002 92100=
07149,1998-05-11 00:00:00,18,1013.3,-0.4,73,13,25000,11.112,,,120,,,,,,,,,,,wg-a,,,,AAXX 11004 07149 12/75 61206 10180 20130 30027 40133 58004 60006 80002 90000=
07149,1998-05-11 03:00:00,14,1012.9,-0.5,82,11,20000,3.704,,,220,,,,,,,,,,,wg-a,,,,AAXX 11034 07149 12/70 32202 10140 20110 30022 40129 56005 60006 80001 90300=
07149,1998-05-11 06:00:00,16,1013.1,0.3,77,12,20000,7.408,,,140,12.9,26.6,,,,,,,,,wg-a,,,,AAXX 11064 07149 02/70 31404 10160 20120 30025 40131 53003 60006 80001 90600 333 10266 20129 60004=
07149,1998-05-11 09:00:00,23,1013,0.1,47,11,20000,3.704,,,20,,,,,,,,,,,wg-a,,,,AAXX 11094 07149 12/70 50202 10230 20110 30026 40130 50001 60006 80001 90900=
07149,1998-05-11 12:00:00,27,1013,0.1,26,6,20000,18.52,,,180,,,,,,,,,,,wg-a,,,,AAXX 11124 07149 12/70 41810 10270 20060 30027 40130 50001 60006 80001 91200=
07149,1998-05-11 15:00:00,28,1012.6,-0.3,28,8,25000,18.52,,,190,,,,,,,,,,,wg-a,,,,AAXX 11154 07149 12/75 21910 10280 20080 30024 40126 58003 60006 80001 91500=
07149,1998-05-11 18:00:00,27,1012.6,-0.1,32,9,25000,11.112,,,190,16,28.5,,,,,,,,,wg-a,,,,AAXX 11184 07149 12/75 21906 10270 20090 30023 40126 55001 60006 80001 91800 333 10285 20160=
07149,1998-05-11 21:00:00,21,1013.8,1,56,12,20000,7.408,,,130,,,,,,,,,,,wg-a,,,,AAXX 11214 07149 12/70 51304 10210 20120 30033 40138 53010 60006 80002 92100=
07149,1998-05-12 00:00:00,17,1014.3,0.4,72,12,20000,3.704,,,120,,,,,,,,,,,wg-a,,,,AAXX 12004 07149 12/70 51202 10170 20120 30037 40143 50004 60006 80002 90000=
07149,1998-05-12 03:00:00,15,1014.5,0.1,82,12,20000,3.704,,,20,,,,,,,,,,,wg-a,,,,AAXX 12034 07149 12/70 40202 10150 20120 30038 40145 50001 60006 80001 90300=
07149,1998-05-12 06:00:00,17,1015.4,1,72,12,15000,7.408,,,150,14.6,27,,,,,,,,,wg-a,,,,AAXX 12064 07149 02/65 11504 10170 20120 30048 40154 53010 60006 80001 90600 333 10270 20146 60004=
07149,1998-05-12 09:00:00,22,1015.9,0.7,60,14,16000,7.408,,,170,,,,,,,,,,,wg-a,,,,AAXX 12094 07149 12/66 61704 10220 20140 30055 40159 51007 60006 80001 90900=
07149,1998-05-12 12:00:00,27,1016.1,0.3,48,15,20000,11.112,,,190,,,,,,,,,,,wg-a,,,,AAXX 12124 07149 12/70 31906 10270 20150 30058 40161 53003 60006 80001 91200=
07149,1998-05-12 15:00:00,29,1015.9,-0.1,31,10,25000,14.816,,,200,,,,,,,,,,,wg-a,,,,AAXX 12154 07149 12/75 42008 10290 20100 30057 40159 57001 60006 80001 91500=
07149,1998-05-12 18:00:00,27,1016.1,0.1,34,10,25000,7.408,,,180,16.7,29.3,,,,,,,,,wg-a,,,,AAXX 12184 07149 12/75 61804 10270 20100 30058 40161 53001 60006 80001 91800 333 10293 20167=
07149,1998-05-12 21:00:00,21,1017.7,1.4,56,12,25000,7.408,,,110,,,,,,,,,,,wg-a,,,,AAXX 12214 07149 12/75 21104 10210 20120 30072 40177 51014 60006 80001 92100=
07149,1998-05-13 00:00:00,17,1017.9,0.1,77,13,25000,3.704,,,250,,,,,,,,,,,wg-a,,,,AAXX 13004 07149 12/75 52502 10170 20130 30073 40179 50001 60006 80001 90000=
07149,1998-05-13 03:00:00,16,1018,0,82,13,20000,3.704,,,170,,,,,,,,,,,wg-a,,,,AAXX 13034 07149 12/70 41702 10160 20130 30073 40180 50000 60006 81031 90300=
07149,1998-05-13 06:00:00,19,1018.1,0.2,73,14,12000,7.408,,,50,15.9,27,,,,,,,,,wg-a,,,,AAXX 13064 07149 02/62 30504 10190 20140 30075 40181 53002 60006 81031 90600 333 10270 20159 60004=
07149,1998-05-13 09:00:00,25,1018.1,0.2,50,14,13000,3.704,,,140,,,,,,,,,,,wg-a,,,,AAXX 13094 07149 12/63 31402 10250 20140 30077 40181 51002 60006 80001 90900=
07149,1998-05-13 12:00:00,29,1017.5,-0.4,40,14,20000,14.816,,,120,,,,,,,,,,,wg-a,,,,AAXX 13124 07149 12770 41208 10290 20140 30073 40175 58004 60006 81201 91200=
07149,1998-05-13 15:00:00,30,1016.6,-0.9,31,11,20000,18.52,,,120,,,,,,,,,,,wg-a,,,,AAXX 13154 07149 12770 51210 10300 20110 30064 40166 58009 60006 81201 91500=
07149,1998-05-13 18:00:00,27,1016.6,-0.1,39,12,20000,7.408,,,230,19,30.6,,,,,,,,,wg-a,,,,AAXX 13184 07149 12770 72304 10270 20120 30063 40166 55001 60006 81201 91800 333 10306 20190=
07149,1998-05-13 21:00:00,23,1017.5,0.8,53,13,20000,7.408,,,270,,,,,,,,,,,wg-a,,,,AAXX 13214 07149 12/70 42704 10230 20130 30071 40175 51008 60006 84080 92100=
07149,1998-05-14 00:00:00,20,1017.3,-0.3,73,15,20000,7.408,,,300,,,,,,,,,,13,wg-a,,,,AAXX 14004 07149 12770 /3004 10200 20150 30068 40173 56003 60006 71311 81982 90000=
07149,1998-05-14 03:00:00,20,1017,-0.3,60,12,20000,14.816,,,320,,,,,,,,,,17,wg-a,,,,AAXX 14034 07149 12770 /3208 10200 20120 30065 40170 58003 60006 71792 82980 90300=
07149,1998-05-14 06:00:00,20,1017.2,0.2,73,15,18000,14.816,,,50,19.4,26.8,,,,,,,,3,wg-a,,,,AAXX 14064 07149 02768 /0508 10200 20150 30067 40172 53002 60006 70392 83980 90600 333 10268 20194 60004=
07149,1998-05-14 09:00:00,23,1018.7,1.6,57,14,14000,14.816,,,320,,,,,,,,,,,wg-a,,,,AAXX 14094 07149 12764 63208 10230 20140 30083 40187 51016 60006 82383 90900=
07149,1998-05-14 12:00:00,27,1017.6,-1,39,12,18000,22.224,,,360,,,,,,,,,,,wg-a,,,,AAXX 14124 07149 12768 53612 10270 20120 30073 40176 56010 60006 81383 91200=
07149,1998-05-14 15:00:00,27,1016.4,-1.2,39,12,18000,25.928,,,10,,,,,,,,,,,wg-a,,,,AAXX 14154 07149 12/68 60114 10270 20120 30061 40164 56012 60006 81082 91500=
07149,1998-05-14 18:00:00,26,1015.9,-0.5,54,16,9000,14.816,,,30,19.7,28.3,,,,,,,,,wg-a,,,,AAXX 14184 07149 12/59 /0308 10260 20160 30056 40159 55005 60006 82082 91800 333 10283 20197=
07149,1998-05-14 21:00:00,23,1017,1,73,18,6000,11.112,,,40,,,,,,,,,,,wg-a,,,,AAXX 14214 07149 12/56 70406 10230 20180 30066 40170 53010 60006 85082 92100=
07149,1998-05-15 00:00:00,20,1017.1,0,78,16,13000,11.112,,,50,,,,,,,,,,,wg-a,,,,AAXX 15004 07149 12/63 60506 10200 20160 30066 40171 50000 60006 82032 90000=
07149,1998-05-15 03:00:00,18,1017.5,0.3,73,13,13000,7.408,,,60,,,,,,,,,,,wg-a,,,,AAXX 15034 07149 12/63 50604 10180 20130 30069 40175 53003 60006 80001 90300=
07149,1998-05-15 06:00:00,19,1017.8,0.3,60,11,15000,11.112,,,70,16.5,25.8,,,,,,,,,wg-a,,,,AAXX 15064 07149 02/65 10706 10190 20110 30072 40178 53003 60006 80001 90600 333 10258 20165 60004=
07149,1998-05-15 09:00:00,23,1018.1,0.4,36,7,20000,22.224,,,70,,,,,,,,,,,wg-a,,,,AAXX 15094 07149 12/70 10712 10230 20070 30076 40181 50004 60006 80001 90900=
07149,1998-05-15 12:00:00,25,1017.3,-0.7,26,4,20000,22.224,,,90,,,,,,,,,,,wg-a,,,,AAXX 15124 07149 12/70 10912 10250 20040 30069 40173 58007 60006 80001 91200=
07149,1998-05-15 15:00:00,26,1016.2,-1,23,3,20000,29.632,,,30,,,,,,,,,,,wg-a,,,,AAXX 15154 07149 12/70 10316 10260 20030 30059 40162 58010 60006 80001 91500=
07149,1998-05-15 18:00:00,25,1015.9,-0.4,26,4,22000,22.224,,,60,18.9,26.3,,,,,,,,,wg-a,,,,AAXX 15184 07149 12/72 10612 10250 20040 30055 40159 56004 60006 80001 91800 333 10263 20189=
07149,1998-05-15 21:00:00,20,1016.9,0.8,46,8,25000,14.816,,,40,,,,,,,,,,,wg-a,,,,AAXX 15214 07149 12/75 00408 10200 20080 30063 40169 53008 60006 80000 92100=
07149,1998-05-16 03:00:00,14,1017.6,-0.1,67,8,18000,14.816,,,50,,,,,,,,,,,wg-a,,,,AAXX 16034 07149 12/68 00508 10140 20080 30068 40176 56001 60006 80000 90300=
07149,1998-05-16 06:00:00,17,1018.4,0.9,55,8,22000,11.112,,,50,13.8,24.4,,,,,,,,,wg-a,,,,AAXX 16064 07149 02/72 00506 10170 20080 30077 40184 53009 60006 80000 90600 333 10244 20138 60004=
07149,1998-05-16 09:00:00,21,1018.8,0.6,43,8,28000,11.112,,,70,,,,,,,,,,,wg-a,,,,AAXX 16094 07149 12/78 10706 10210 20080 30083 40188 51006 60006 80001 90900=
07149,1998-05-16 12:00:00,23,1018.4,-0.4,33,6,28000,25.928,,,80,,,,,,,,,,,wg-a,,,,AAXX 16124 07149 12878 10814 10230 20060 30079 40184 57004 60006 81501 91200=
07149,1998-05-16 15:00:00,24,1017.7,-0.6,34,7,500,22.224,,,60,,,,,,,,,,,wg-a,,,,AAXX 16154 07149 12/00 10612 10240 20070 30073 40177 57006 60006 80001 91500=
07149,1998-05-16 18:00:00,22,1017.6,-0.2,33,5,500,22.224,,,50,17.2,24.1,,,,,,,,,wg-a,,,,AAXX 16184 07149 12800 30512 10220 20050 30071 40176 55002 60006 815/1 91800 333 10241 20172=
07149,1998-05-17 03:00:00,14,1019.9,0.6,63,7,20000,11.112,,,70,,,,,,,,,,,wg-a,,,,AAXX 17034 07149 12/70 00706 10140 20070 30091 40199 52006 60006 80000 90300=
07149,1998-05-17 06:00:00,15,1021,1.1,59,7,20000,14.816,,,60,12.4,22.3,,,,,,,,,wg-a,,,,AAXX 17064 07149 02/70 00608 10150 20070 30102 40210 53011 60006 80000 90600 333 10223 20124 60004=
07149,1998-05-17 09:00:00,20,1021.4,0.6,40,6,20000,14.816,,,50,,,,,,,,,,,wg-a,,,,AAXX 17094 07149 12/70 10508 10200 20060 30108 40214 50006 60006 80001 90900=
07149,1998-05-17 12:00:00,22,1021.4,0.1,33,5,25000,22.224,,,100,,,,,,,,,,,wg-a,,,,AAXX 17124 07149 12/75 11012 10220 20050 30109 40214 50001 60006 80001 91200=
07149,1998-05-17 15:00:00,24,1020.9,-0.5,31,6,25000,22.224,,,60,,,,,,,,,,,wg-a,,,,AAXX 17154 07149 12775 10612 10240 20060 30104 40209 57005 60006 81100 91500=
07149,1998-05-17 18:00:00,22,1021.2,0.3,38,7,25000,22.224,,,70,15,23.7,,,,,,,,,wg-a,,,,AAXX 17184 07149 12775 10712 10220 20070 30107 40212 53003 60006 81500 91800 333 10237 20150=
07149,1998-05-17 21:00:00,17,1022.8,1.4,55,8,500,7.408,,,60,,,,,,,,,,,wg-a,,,,AAXX 17214 07149 12/00 00604 10170 20080 30121 40228 52014 60006 80000 92100=
07149,1998-05-18 00:00:00,14,1023.2,0.3,67,8,25000,7.408,,,40,,,,,,,,,,,wg-a,,,,AAXX 18004 07149 12/75 00404 10140 20080 30124 40232 51003 60006 80000 90000=
07149,1998-05-18 03:00:00,14,1023.6,0.4,63,7,20000,3.704,,,110,,,,,,,,,,,wg-a,,,,AAXX 18034 07149 12/70 01102 10140 20070 30128 40236 53004 60006 80000 90300=
07149,1998-05-18 06:00:00,16,1025.1,1.5,63,9,20000,7.408,,,70,12.9,22.4,,,,,,,,,wg-a,,,,AAXX 18064 07149 02/70 00704 10160 20090 30143 40251 53015 60006 80000 90600 333 10224 20129 60004=
07149,1998-05-18 12:00:00,23,1024.8,-0.5,31,5,25000,18.52,,,100,,,,,,,,,,,wg-a,,,,AAXX 18124 07149 12775 31010 10230 20050 30143 40248 57005 60006 82101 91200=
07149,1998-05-18 15:00:00,24,1024,-0.8,29,5,25000,18.52,,,80,,,,,,,,,,,wg-a,,,,AAXX 18154 07149 12775 20810 10240 20050 30135 40240 57008 60006 82101 91500=
07149,1998-05-18 18:00:00,22,1024,-0,33,5,25000,14.816,,,110,16,24.2,,,,,,,,,wg-a,,,,AAXX 18184 07149 12775 11108 10220 20050 30135 40240 55000 60006 81100 91800 333 10242 20160=
07149,1998-05-18 21:00:00,18,1025.1,0.9,52,8,25000,3.704,,,110,,,,,,,,,,,wg-a,,,,AAXX 18214 07149 12/75 11102 10180 20080 30144 40251 53009 60006 80001 92100=
07149,1998-05-19 00:00:00,14,1025.3,-0,67,8,25000,3.704,,,60,,,,,,,,,,,wg-a,,,,AAXX 19004 07149 12/75 00602 10140 20080 30144 40253 55000 60006 80000 90000=
07149,1998-05-19 06:00:00,16,1025.8,0.6,68,10,12000,7.408,,,40,12.3,22.4,,,,,,,,,wg-a,,,,AAXX 19064 07149 02/62 00404 10160 20100 30150 40258 53006 60006 80000 90600 333 10224 20123 60004=
07149,1998-05-19 09:00:00,22,1025.5,-0.1,38,7,14000,11.112,,,80,,,,,,,,,,,wg-a,,,,AAXX 19094 07149 12/64 00806 10220 20070 30149 40255 58001 60006 80000 90900=
07149,1998-05-19 12:00:00,25,1023.9,-1.5,32,7,25000,22.224,,,70,,,,,,,,,,,wg-a,,,,AAXX 19124 07149 12775 20712 10250 20070 30134 40239 58015 60006 82200 91200=
07149,1998-05-19 15:00:00,25,1022.6,-1.2,22,2,25000,25.928,,,60,,,,,,,,,,,wg-a,,,,AAXX 19154 07149 12875 20614 10250 20020 30122 40226 58012 60006 82200 91500=
07149,1998-05-19 18:00:00,24,1021.9,-0.8,31,6,25000,14.816,,,70,16.1,25.6,,,,,,,,,wg-a,,,,AAXX 19184 07149 12875 20708 10240 20060 30114 40219 56008 60006 82280 91800 333 10256 20161=
07149,1998-05-19 21:00:00,20,1022.4,0.4,53,10,15000,18.52,,,40,,,,,,,,,,,wg-a,,,,AAXX 19214 07149 12/65 00410 10200 20100 30118 40224 53004 60006 80000 92100=
07149,1998-05-20 00:00:00,17,1022.7,0.2,59,9,13000,18.52,,,30,,,,,,,,,,,wg-a,,,,AAXX 20004 07149 12/63 00310 10170 20090 30120 40227 53002 60006 80000 90000=
07149,1998-05-20 03:00:00,14,1022.2,-0.6,72,9,12000,14.816,,,30,,,,,,,,,,,wg-a,,,,AAXX 20034 07149 12/62 00308 10140 20090 30114 40222 57006 60006 80000 90300=
07149,1998-05-20 06:00:00,15,1022.2,-0,67,9,7000,18.52,,,40,13.5,23.7,,,,,,,,,wg-a,,,,AAXX 20064 07149 02/57 /0410 10150 20090 30114 40222 54000 60006 80001 90600 333 10237 20135 60004=
07149,1998-05-20 09:00:00,20,1021.8,-0.2,46,8,9000,14.816,,,30,,,,,,,,,,,wg-a,,,,AAXX 20094 07149 12/59 30308 10200 20080 30112 40218 58002 60006 80001 90900=
07149,1998-05-20 12:00:00,23,1020.9,-0.8,31,5,17000,22.224,,,60,,,,,,,,,,,wg-a,,,,AAXX 20124 07149 12767 10612 10230 20050 30104 40209 56008 60006 81101 91200=
07149,1998-05-20 15:00:00,23,1020,-0.9,36,7,17000,18.52,,,40,,,,,,,,,,,wg-a,,,,AAXX 20154 07149 12767 30410 10230 20070 30095 40200 58009 60006 82101 91500=
07149,1998-05-20 18:00:00,22,1019.5,-0.5,41,8,18000,22.224,,,30,14.6,24.2,,,,,,,,,wg-a,,,,AAXX 20184 07149 12768 20312 10220 20080 30090 40195 55005 60006 81101 91800 333 10242 20146=
07149,1998-05-20 21:00:00,19,1020.2,0.6,52,9,18000,18.52,,,30,,,,,,,,,,,wg-a,,,,AAXX 20214 07149 12/68 10310 10190 20090 30096 40202 53006 60006 80001 92100=
07149,1998-05-21 00:00:00,15,1020.6,0.2,72,10,16000,14.816,,,20,,,,,,,,,,,wg-a,,,,AAXX 21004 07149 12/66 00208 10150 20100 30098 40206 50002 60006 80000 90000=
07149,1998-05-21 03:00:00,13,1020.2,-0.4,77,9,12000,11.112,,,10,,,,,,,,,,,wg-a,,,,AAXX 21034 07149 12/62 00106 10130 20090 30094 40202 56004 60006 80000 90300=
07149,1998-05-21 06:00:00,15,1020.6,0.4,72,10,8000,7.408,,,350,12.4,21.6,,,,,,,,,wg-a,,,,AAXX 21064 07149 02/58 23504 10150 20100 30098 40206 52004 60006 81081 90600 333 10216 20124 60004=
07149,1998-05-21 09:00:00,20,1020.1,-0.3,49,9,8000,7.408,,,10,,,,,,,,,,,wg-a,,,,AAXX 21094 07149 12/58 /0104 10200 20090 30095 40201 58003 60006 83031 90900=
07149,1998-05-21 12:00:00,22,1019.5,-0.5,46,10,15000,11.112,,,330,,,,,,,,,,,wg-a,,,,AAXX 21124 07149 12665 53306 10220 20100 30090 40195 58005 60006 83280 91200=
07149,1998-05-21 15:00:00,22,1018.7,-0.8,50,11,18000,11.112,,,10,,,,,,,,,,1,wg-a,,,,AAXX 21154 07149 02668 /0106 10220 20110 30082 40187 58008 61000 70186 85380 91500 333 ////=
07149,1998-05-21 18:00:00,18,1019.9,1.1,59,10,11000,25.928,,,30,14.9,23.1,,,,,,,,3,wg-a,,,,AAXX 21184 07149 12661 70314 10180 20100 30093 40199 53011 60006 70386 83882 91800 333 10231 20149=
07149,1998-05-21 21:00:00,15,1022.3,2.2,63,8,15000,25.928,,,30,,,,,,,,,,,wg-a,,,,AAXX 21214 07149 12665 70314 10150 20080 30115 40223 53022 60006 86502 92100=
07149,1998-05-22 00:00:00,11,1023.7,1.2,71,6,20000,18.52,,,30,,,,,,,,,,,wg-a,,,,AAXX 22004 07149 12/70 00310 10110 20060 30127 40237 51012 60006 80000 90000=
07149,1998-05-22 03:00:00,9,1024,0.2,76,5,20000,18.52,,,30,,,,,,,,,,,wg-a,,,,AAXX 22034 07149 12/70 50310 10090 20050 30129 40240 50002 60006 80001 90300=
07149,1998-05-22 06:00:00,10,1024.8,0.9,76,6,20000,18.52,,,40,7.8,18.2,,,,,,,,,wg-a,,,,AAXX 22064 07149 02470 70410 10100 20060 30138 40248 53009 60006 81101 90600 333 10182 20078 61000=
07149,1998-05-22 09:00:00,14,1025,0.3,58,6,25000,18.52,,,60,,,,,,,,,,,wg-a,,,,AAXX 22094 07149 12575 70610 10140 20060 30141 40250 50003 60006 85201 90900=
07149,1998-05-22 12:00:00,15,1024.5,-0.4,48,4,25000,18.52,,,30,,,,,,,,,,,wg-a,,,,AAXX 22124 07149 12675 /0310 10150 20040 30137 40245 58004 60006 85401 91200=
07149,1998-05-22 15:00:00,16,1023.9,-0.6,42,3,25000,18.52,,,30,,,,,,,,,,,wg-a,,,,AAXX 22154 07149 12675 50310 10160 20030 30131 40239 58006 60006 84501 91500=
07149,1998-05-22 18:00:00,15,1023.7,-0.2,41,2,25000,22.224,,,30,9.5,16.8,,,,,,,,,wg-a,,,,AAXX 22184 07149 12675 30312 10150 20020 30129 40237 56002 60006 83500 91800 333 10168 20095=
07149,1998-05-22 21:00:00,12,1024.7,0.9,50,2,25000,18.52,,,30,,,,,,,,,,,wg-a,,,,AAXX 22214 07149 12775 30310 10120 20020 30138 40247 53009 60006 83500 92100=
07149,1998-05-23 00:00:00,9,1024.6,-0.3,57,1,25000,14.816,,,30,,,,,,,,,,,wg-a,,,,AAXX 23004 07149 12/75 00308 10090 20010 30135 40246 58003 60006 80000 90000=
07149,1998-05-23 06:00:00,9,1024.1,-0,66,3,20000,14.816,,,40,5.3,15.4,,,,,,,,,wg-a,,,,AAXX 23064 07149 02/70 00408 10090 20030 30130 40241 55000 60006 80000 90600 333 10154 20053 60004=
07149,1998-05-23 09:00:00,13,1023.4,-0.5,54,4,25000,14.816,,,30,,,,,,,,,,,wg-a,,,,AAXX 23094 07149 12575 20308 10130 20040 30125 40234 58005 60006 82100 90900=
07149,1998-05-23 12:00:00,16,1022,-1.2,39,2,25000,11.112,,,60,,,,,,,,,,,wg-a,,,,AAXX 23124 07149 12775 20606 10160 20020 30113 40220 58012 60006 82500 91200=
07149,1998-05-23 15:00:00,19,1019.8,-2.1,37,4,25000,18.52,,,10,,,,,,,,,,,wg-a,,,,AAXX 23154 07149 12775 40110 10190 20040 30092 40198 56021 60006 82140 91500=
07149,1998-05-23 18:00:00,17,1018.9,-1,42,4,25000,14.816,,,50,8.8,19.3,,,,,,,,,wg-a,,,,AAXX 23184 07149 12775 70508 10170 20040 30082 40189 56010 60006 868/2 91800 333 10193 20088=
07149,1998-05-23 21:00:00,15,1018.9,-0.1,55,6,25000,11.112,,,40,,,,,,,,,,,wg-a,,,,AAXX 23214 07149 12675 70406 10150 20060 30081 40189 55001 60006 878// 92100=
07149,1998-05-24 00:00:00,14,1018,-0.9,67,8,25000,11.112,,,350,,,,,,,,,,,wg-a,,,,AAXX 24004 07149 12675 /3506 10140 20080 30072 40180 57009 60006 84530 90000=
07149,1998-05-24 03:00:00,12,1016.9,-1.2,76,8,25000,11.112,,,10,,,,,,,,,,,wg-a,,,,AAXX 24034 07149 12675 70106 10120 20080 30060 40169 58012 60006 875// 90300=
07149,1998-05-24 06:00:00,13,1016.2,-0.6,72,8,11000,7.408,,,340,11.7,17.2,,,,,,,,,wg-a,,,,AAXX 24064 07149 02661 73404 10130 20080 30054 40162 56006 60006 875// 90600 333 10172 20117 60004=
07149,1998-05-24 09:00:00,16,1016.2,0.1,59,8,13000,7.408,,,320,,,,,,,,,,,wg-a,,,,AAXX 24094 07149 12563 43204 10160 20080 30055 40162 52001 60006 84800 90900=
07149,1998-05-24 12:00:00,19,1015.3,-0.8,46,7,11000,11.112,,,350,,,,,,,,,,,wg-a,,,,AAXX 24124 07149 12/61 /3506 10190 20070 30047 40153 56008 60006 91200=
07149,1998-05-24 15:00:00,17,1014.2,-1.1,63,10,16000,18.52,,,20,,,,,,,,,,80,wg-a,,,,AAXX 24154 07149 02566 70210 10170 20100 30036 40142 56011 61000 78086 8583/ 91500 333 ////=
07149,1998-05-24 18:00:00,18,1013.4,-0.8,52,8,25000,14.816,,,30,13,20.1,,,,,,,,1,wg-a,,,,AAXX 24184 07149 02675 40308 10180 20080 30028 40134 57008 60006 70186 84301 91800 333 10201 20130 61000=
07149,1998-05-24 21:00:00,16,1014.6,1.1,63,9,20000,11.112,,,20,,,,,,,,,,,wg-a,,,,AAXX 24214 07149 12770 70206 10160 20090 30039 40146 53011 60006 83850 92100=
07149,1998-05-25 00:00:00,12,1014.3,-0.4,82,9,18000,3.704,,,10,,,,,,,,,,,wg-a,,,,AAXX 25004 07149 12668 40102 10120 20090 30035 40143 58004 60006 81530 90000=
07149,1998-05-25 03:00:00,13,1013.4,-0.9,77,9,12000,11.112,,,320,,,,,,,,,,,wg-a,,,,AAXX 25034 07149 12662 /3206 10130 20090 30026 40134 56009 60006 83530 90300=
07149,1998-05-25 06:00:00,13,1013.1,-0.2,82,10,8000,11.112,,,300,11.6,18.4,,,,,,,,,wg-a,,,,AAXX 25064 07149 02758 /3006 10130 20100 30024 40131 55002 60006 84501 90600 333 10184 20116 61000=
07149,1998-05-25 09:00:00,17,1012.5,-0.5,59,9,14000,11.112,,,300,,,,,,,,,,,wg-a,,,,AAXX 25094 07149 12564 /3006 10170 20090 30019 40125 56005 60006 81182 90900=
07149,1998-05-25 12:00:00,19,1011.4,-1,49,8,22000,25.928,,,280,,,,,,,,,,,wg-a,,,,AAXX 25124 07149 12672 72814 10190 20080 30009 40114 57010 60006 8688/ 91200=
07149,1998-05-25 15:00:00,17,1010.7,-0.8,59,9,25000,22.224,,,290,,,,,,,,,,,wg-a,,,,AAXX 25154 07149 12675 72912 10170 20090 30001 40107 57008 60006 878// 91500=
07149,1998-05-25 18:00:00,17,1009.2,-1.5,59,9,25000,18.52,,,280,13.4,19.5,,,,,,,,,wg-a,,,,AAXX 25184 07149 12675 62810 10170 20090 39986 40092 56015 60006 83881 91800 333 10195 20134=
07149,1998-05-25 21:00:00,14,1009.6,0.3,67,8,25000,11.112,,,300,,,,,,,,,,,wg-a,,,,AAXX 25214 07149 12775 63006 10140 20080 39989 40096 53003 60006 86500 92100=
07149,1998-05-26 00:00:00,14,1008.8,-0.8,72,9,20000,11.112,,,270,,,,,,,,,,,wg-a,,,,AAXX 26004 07149 12670 72706 10140 20090 39981 40088 58008 60006 875// 90000=
07149,1998-05-26 03:00:00,13,1007.9,-0.9,77,9,18000,7.408,,,290,,,,,,,,,,,wg-a,,,,AAXX 26034 07149 12568 72904 10130 20090 39972 40079 58009 60006 875// 90300=
07149,1998-05-26 06:00:00,13,1007.7,-0.2,82,10,13000,11.112,,,230,11.9,17.4,,,,,,,,3,wg-a,,,,AAXX 26064 07149 02563 /2306 10130 20100 39970 40077 56002 60006 70386 8583/ 90600 333 10174 20119 60004=
07149,1998-05-26 09:00:00,16,1007.3,-0.3,68,10,18000,18.52,,,250,,,,,,,,,,,wg-a,,,,AAXX 26094 07149 12568 62510 10160 20100 39967 40073 58003 60006 85830 90900=
07149,1998-05-26 12:00:00,19,1006.9,-0.3,52,9,25000,25.928,,,240,,,,,,,,,,,wg-a,,,,AAXX 26124 07149 12575 72414 10190 20090 39964 40069 58003 60006 8683/ 91200=
07149,1998-05-26 15:00:00,13,1006.9,-0.2,82,10,18000,18.52,,,280,,,,2,,,,,,25,wg-a,,,,AAXX 26154 07149 12568 72810 10130 20100 39962 40069 55002 60027 72586 879// 91500=
07149,1998-05-26 18:00:00,17,1006,-0.7,68,11,22000,14.816,,,220,12.7,19.4,,,,,,,,3,wg-a,,,,AAXX 26184 07149 12572 72208 10170 20110 39955 40060 56007 60006 70386 83831 91800 333 10194 20127=
07149,1998-05-26 21:00:00,14,1007.1,0.9,72,9,22000,14.816,,,340,,,,,,,,,,,wg-a,,,,AAXX 26214 07149 12672 /3408 10140 20090 39964 40071 53009 60006 83831 92100=
07149,1998-05-27 00:00:00,12,1007.2,0.1,94,11,15000,7.408,,,280,,,,1,,,,,,80,wg-a,,,,AAXX 27004 07149 02465 72804 10120 20110 39965 40072 53001 60016 78086 8583/ 90000 333 60017=
07149,1998-05-27 03:00:00,11,1006.3,-1,100,11,15000,7.408,,,180,,,,1,,,,,,1,wg-a,,,,AAXX 27034 07149 12665 51804 10110 20110 39955 40063 56010 60017 70186 84530 90300=
07149,1998-05-27 06:00:00,12,1006.7,0.5,94,11,10000,11.112,,,200,10.7,16.6,,,,,4,,,3,wg-a,,,,AAXX 27064 07149 02360 72006 10120 20110 39960 40067 53005 60006 70386 878// 90600 333 10166 20107 60044=
07149,1998-05-27 09:00:00,15,1006.6,0,72,10,20000,25.928,,,220,,,,,,,,,,,wg-a,,,,AAXX 27094 07149 12570 /2214 10150 20100 39960 40066 50000 60006 86200 90900=
07149,1998-05-27 12:00:00,17,1006.1,-0.4,68,11,20000,22.224,,,220,,,,2,,,,,,1,wg-a,,,,AAXX 27124 07149 02570 72212 10170 20110 39956 40061 58004 60026 70186 86901 91200 333 60027=
07149,1998-05-27 15:00:00,17,1005.3,-0.8,63,10,25000,14.816,,,240,,,,0,,,,,,,wg-a,,,,AAXX 27154 07149 12675 72408 10170 20100 39948 40053 57008 60007 879// 91500=
07149,1998-05-27 18:00:00,14,1005.3,-0.1,88,12,25000,11.112,,,190,11.7,17.6,,,,,,,,21,wg-a,,,,AAXX 27184 07149 02575 71906 10140 20120 39947 40053 58001 61000 72198 85802 91800 333 10176 20117 6002=
07149,1998-05-27 21:00:00,13,1006,0.6,94,12,25000,7.408,,,150,,,,,,,,,,,wg-a,,,,AAXX 27214 07149 12775 51504 10130 20120 39953 40060 52006 60006 82532 92100=
07149,1998-05-28 00:00:00,12,1006.2,0.2,100,12,25000,7.408,,,170,,,,,,,,,,,wg-a,,,,AAXX 28004 07149 12775 51704 10120 20120 39955 40062 50002 60006 84501 90000=
07149,1998-05-28 03:00:00,11,1005.8,-0.5,94,10,25000,7.408,,,210,,,,,,,,,,,wg-a,,,,AAXX 28034 07149 12275 62104 10110 20100 39950 40058 56005 60006 85601 90300=
07149,1998-05-28 06:00:00,11,1006,0.3,100,11,8000,3.704,,,170,9.8,14.4,,,,,3,,,,wg-a,,,,AAXX 28064 07149 02258 71702 10110 20110 39953 40060 52003 60006 8557/ 90600 333 10144 20098 60034=
07149,1998-05-28 09:00:00,12,1006.9,0.9,100,12,6000,11.112,,,100,,,,3,,,,,,60,wg-a,,,,AAXX 28094 07149 12156 81006 10120 20120 39962 40069 50009 60037 76062 8552/ 90900=
07149,1998-05-28 12:00:00,15,1006.4,-0.4,88,13,16000,7.408,,,120,,,,1,,,,,,60,wg-a,,,,AAXX 28124 07149 02466 /1204 10150 20130 39958 40064 58004 60046 76062 8683/ 91200 333 60017=
07149,1998-05-28 15:00:00,17,1005.9,-0.4,72,12,25000,11.112,,,170,,,,,,,,,,1,wg-a,,,,AAXX 28154 07149 02575 71706 10170 20120 39954 40059 55004 61000 70162 8481/ 91500 333 ////=
07149,1998-05-28 18:00:00,14,1006.5,0.4,88,12,18000,11.112,,,160,11.3,17.3,,,,,,,,25,wg-a,,,,AAXX 28184 07149 02568 71606 10140 20120 39958 40065 50004 61000 72586 82932 91800 333 10173 20113 6004=
07149,1998-05-28 21:00:00,12,1008.1,1.6,94,11,20000,7.408,,,140,,,,1,,,,,,25,wg-a,,,,AAXX 28214 07149 12770 71404 10120 20110 39974 40081 51016 60017 72586 82532 92100=
07149,1998-05-29 00:00:00,11,1008.9,0.7,100,11,20000,7.408,,,190,,,,,,,,,,60,wg-a,,,,AAXX 29004 07149 02570 71904 10110 20110 39981 40089 53007 60016 76086 878// 90000 333 61000=
07149,1998-05-29 03:00:00,10,1010.3,1.3,93,9,18000,11.112,,,240,,,,0,,,,,,1,wg-a,,,,AAXX 29034 07149 12/68 32406 10100 20090 39994 40103 53013 60007 70161 81031 90300=
07149,1998-05-29 06:00:00,10,1012.1,1.8,93,9,14000,11.112,,,240,8.5,13.8,,,,,9,,,1,wg-a,,,,AAXX 29064 07149 02/64 12406 10100 20090 30012 40121 53018 60006 70161 80001 90600 333 10138 20085 60094=
07149,1998-05-29 09:00:00,15,1012.9,1,72,10,22000,18.52,,,230,,,,,,,,,,,wg-a,,,,AAXX 29094 07149 12572 /2310 10150 20100 30022 40129 51010 60006 81101 90900=
07149,1998-05-29 12:00:00,17,1013.2,0.4,55,8,500,18.52,,,200,,,,,,,,,,,wg-a,,,,AAXX 29124 07149 12600 42010 10170 20080 30026 40132 53004 60006 84200 91200=
07149,1998-05-29 15:00:00,19,1012.9,-0.2,46,7,500,11.112,,,200,,,,,,,,,,,wg-a,,,,AAXX 29154 07149 12600 42006 10190 20070 30024 40129 56002 60006 84200 91500=
07149,1998-05-29 18:00:00,20,1012.6,-0.3,40,6,500,3.704,,,110,10.1,20,,,,,,,,,wg-a,,,,AAXX 29184 07149 12700 41102 10200 20060 30021 40126 56003 60006 81101 91800 333 10200 20101=
07149,1998-05-29 21:00:00,15,1013.7,0.9,59,7,500,7.408,,,70,,,,,,,,,,,wg-a,,,,AAXX 29214 07149 12/00 50704 10150 20070 30030 40137 53009 60006 80001 92100=
07149,1998-05-30 00:00:00,14,1013.7,-0.1,63,7,25000,7.408,,,90,,,,,,,,,,,wg-a,,,,AAXX 30004 07149 12/75 40904 10140 20070 30029 40137 58001 60006 80001 90000=
07149,1998-05-30 03:00:00,12,1012.6,-1.1,76,8,25000,14.816,,,70,,,,,,,,,,,wg-a,,,,AAXX 30034 07149 12/75 10708 10120 20080 30018 40126 58011 60006 80001 90300=
07149,1998-05-30 06:00:00,14,1012.1,-0.4,77,10,20000,7.408,,,80,11.9,19.4,,,,,,,,,wg-a,,,,AAXX 30064 07149 02/70 10804 10140 20100 30014 40121 56004 60006 80001 90600 333 10194 20119 60004=
07149,1998-05-30 09:00:00,20,1010.7,-1.2,56,11,20000,22.224,,,130,,,,,,,,,,,wg-a,,,,AAXX 30094 07149 12670 /1312 10200 20110 30002 40107 58012 60006 81101 90900=
07149,1998-05-30 12:00:00,23,1009.1,-1.5,44,10,25000,25.928,,,130,,,,,,,,,,,wg-a,,,,AAXX 30124 07149 12675 31314 10230 20100 39987 40091 58015 60006 83201 91200=
07149,1998-05-30 15:00:00,24,1007.3,-1.7,41,10,25000,18.52,,,120,,,,,,,,,,,wg-a,,,,AAXX 30154 07149 12775 71210 10240 20100 39970 40073 56017 60006 83282 91500=
07149,1998-05-30 18:00:00,23,1006.7,-0.6,44,10,10000,18.52,,,150,14.3,24.2,,,,,,,,,wg-a,,,,AAXX 30184 07149 12/60 /1510 10230 20100 39964 40067 55006 60006 91800 333 10242 20143=
07149,1998-05-30 21:00:00,14,1009.9,2.8,94,13,20000,7.408,,,230,,,,3,,,,,,1,wg-a,,,,AAXX 30214 07149 12470 /2304 10140 20130 39992 40099 51028 60037 70162 83580 92100=
07149,1998-05-31 00:00:00,13,1010.7,0.8,100,13,20000,14.816,,,210,,,,,,,,,,1,wg-a,,,,AAXX 31004 07149 12470 22108 10130 20130 30000 40107 51008 60036 70161 82800 90000=
07149,1998-05-31 03:00:00,12,1011.9,1.1,94,11,20000,14.816,,,240,,,,,,,,,,,wg-a,,,,AAXX 31034 07149 12370 72408 10120 20110 30011 40119 51011 60006 86801 90300=
07149,1998-05-31 06:00:00,12,1012.8,0.9,88,10,20000,11.112,,,230,11.3,22.5,,,,,3,,,,wg-a,,,,AAXX 31064 07149 02370 72306 10120 20100 30020 40128 53009 60006 81182 90600 333 10225 20113 60034=
07149,1998-05-31 09:00:00,14,1012.4,-0.3,77,10,20000,14.816,,,240,,,,,,,,,,,wg-a,,,,AAXX 31094 07149 12470 72408 10140 20100 30017 40124 58003 60006 83182 90900=
07149,1998-05-31 12:00:00,17,1012.5,0.2,59,9,25000,11.112,,,220,,,,,,,,,,,wg-a,,,,AAXX 31124 07149 12675 72206 10170 20090 30019 40125 50002 60006 83102 91200=
07149,1998-05-31 15:00:00,19,1011.9,-0.5,52,9,25000,14.816,,,200,,,,,,,,,,,wg-a,,,,AAXX 31154 07149 12675 /2008 10190 20090 30014 40119 58005 60006 83102 91500=
07149,1998-05-31 18:00:00,16,1012.4,0.4,68,10,25000,18.52,,,260,12.1,19.5,,,,,,,,1,wg-a,,,,AAXX 31184 07149 02675 72610 10160 20100 30018 40124 53004 60006 70186 82382 91800 333 10195 20121 61000=
07149,1998-05-31 21:00:00,13,1013.9,1.3,82,10,20000,7.408,,,220,,,,,,,,,,,wg-a,,,,AAXX 31214 07149 12570 42204 10130 20100 30031 40139 53013 60006 82531 92100=
07149,1998-06-01 00:00:00,11,1014,0.1,94,10,10000,7.408,,,210,,,,,,,,,,,wg-a,,,,AAXX 01004 07149 12/60 /2104 10110 20100 30032 40140 50001 60006 90000=
07149,1998-06-01 03:00:00,9,1013.9,-0.2,100,9,15000,7.408,,,170,,,,,,,,,,,wg-a,,,,AAXX 01034 07149 32/65 01704 10090 20090 30030 40139 58002 80000 90300=
07149,1998-06-01 06:00:00,11,1014,0.2,94,10,12000,7.408,,,130,8.7,15.8,,,,,,,,,wg-a,,,,AAXX 01064 07149 02/62 31304 10110 20100 30032 40140 52002 60006 80001 90600 333 10158 20087 60004=
07149,1998-06-01 09:00:00,19,1013.1,-0.7,56,10,20000,11.112,,,140,,,,,,,,,,,wg-a,,,,AAXX 01094 07149 12570 51406 10190 20100 30025 40131 58007 60006 81131 90900=
07149,1998-06-01 12:00:00,22,1011.9,-1,41,8,25000,14.816,,,140,,,,,,,,,,,wg-a,,,,AAXX 01124 07149 12675 61408 10220 20080 30015 40119 56010 60006 81131 91200=
07149,1998-06-01 15:00:00,22,1010.1,-1.8,43,9,25000,18.52,,,130,,,,,,,,,,,wg-a,,,,AAXX 01154 07149 12/75 71310 10220 20090 39997 40101 58018 60006 84082 91500=
07149,1998-06-01 18:00:00,21,1008.7,-1.4,43,8,25000,18.52,,,120,11.2,21.9,,,,,,,,,wg-a,,,,AAXX 01184 07149 12775 61210 10210 20080 39983 40087 56014 60006 82582 91800 333 10219 20112=
07149,1998-06-01 21:00:00,19,1008.5,-0.3,60,11,25000,7.408,,,120,,,,,,,,,,,wg-a,,,,AAXX 01214 07149 12775 71204 10190 20110 39980 40085 56003 60006 8458/ 92100=
07149,1998-06-02 03:00:00,16,1007.3,-0.8,94,15,12000,14.816,,,170,,,,0,,,,,,2,wg-a,,,,AAXX 02034 07149 12762 71708 10160 20150 39967 40073 58008 60007 70262 84582 90300=
07149,1998-06-02 06:00:00,16,1007.6,0.3,100,16,13000,18.52,,,200,15.4,21,,,,,,,,21,wg-a,,,,AAXX 02064 07149 02263 72010 10160 20160 39970 40076 53003 61000 72162 81781 90600 333 10210 20154 6004=
07149,1998-06-02 09:00:00,19,1008.5,1,83,16,22000,29.632,,,220,,,,,,,,,,,wg-a,,,,AAXX 02094 07149 12472 /2216 10190 20160 39980 40085 52010 60006 85202 90900=
07149,1998-06-02 12:00:00,21,1009.3,0.9,78,17,20000,25.928,,,240,,,,1,,,,,,25,wg-a,,,,AAXX 02124 07149 02570 52414 10210 20170 39989 40093 51009 60016 72586 84201 91200 333 60017=
07149,1998-06-02 15:00:00,21,1009.6,0.3,60,13,25000,25.928,,,250,,,,,,,,,,,wg-a,,,,AAXX 02154 07149 12675 72514 10210 20130 39992 40096 51003 60006 83802 91500=
07149,1998-06-02 18:00:00,20,1009.7,-0,60,12,25000,22.224,,,250,16.4,21.8,,,,,,,,,wg-a,,,,AAXX 02184 07149 12675 72512 10200 20120 39992 40097 54000 60006 83802 91800 333 10218 20164=
07149,1998-06-02 21:00:00,17,1012.1,2.3,59,9,25000,22.224,,,240,,,,,,,,,,,wg-a,,,,AAXX 02214 07149 12775 42412 10170 20090 30015 40121 53023 60006 82501 92100=
07149,1998-06-03 00:00:00,13,1014.2,1.9,82,10,25000,11.112,,,200,,,,,,,,,,,wg-a,,,,AAXX 03004 07149 12/75 02006 10130 20100 30034 40142 51019 60006 80000 90000=
07149,1998-06-03 03:00:00,11,1014.9,0.6,87,9,20000,18.52,,,210,,,,,,,,,,,wg-a,,,,AAXX 03034 07149 12770 12110 10110 20090 30040 40149 53006 60006 81500 90300=
07149,1998-06-03 06:00:00,13,1015.7,0.9,88,11,17000,18.52,,,230,10.7,20.4,,,,,1,,,,wg-a,,,,AAXX 03064 07149 02367 /2310 10130 20110 30049 40157 52009 60006 81100 90600 333 10204 20107 60014=
07149,1998-06-03 09:00:00,17,1016.3,0.8,68,11,28000,25.928,,,240,,,,,,,,,,,wg-a,,,,AAXX 03094 07149 12578 /2414 10170 20110 30057 40163 51008 60006 86200 90900=
07149,1998-06-03 12:00:00,20,1015.7,-0.5,60,12,500,31.484,,,220,,,,,,,,,,,wg-a,,,,AAXX 03124 07149 12500 72217 10200 20120 30052 40157 58005 60006 878// 91200=
07149,1998-06-03 15:00:00,22,1015.7,0,46,10,500,31.484,,,230,,,,,,,,,,,wg-a,,,,AAXX 03154 07149 12600 42317 10220 20100 30052 40157 50000 60006 84800 91500=
07149,1998-06-03 18:00:00,21,1015.5,-0.2,46,9,500,25.928,,,230,12.7,22.3,,,,,,,,,wg-a,,,,AAXX 03184 07149 12600 32314 10210 20090 30050 40155 55002 60006 83801 91800 333 10223 20127=
07149,1998-06-03 21:00:00,17,1017.3,1.6,68,11,500,11.112,,,240,,,,,,,,,,,wg-a,,,,AAXX 03214 07149 12700 22406 10170 20110 30066 40173 53016 60006 81501 92100=
07149,1998-06-04 00:00:00,14,1018.4,1,72,9,25000,11.112,,,280,,,,,,,,,,,wg-a,,,,AAXX 04004 07149 12/75 22806 10140 20090 30076 40184 51010 60006 80001 90000=
07149,1998-06-04 03:00:00,11,1019.1,0.6,87,9,25000,7.408,,,270,,,,,,,,,,,wg-a,,,,AAXX 04034 07149 12/75 62704 10110 20090 30082 40191 53006 60006 80002 90300=
07149,1998-06-04 06:00:00,14,1019.8,0.8,82,11,20000,0,,,0,10.6,20.9,,,,,,,,,wg-a,,,,AAXX 04064 07149 02/70 70000 10140 20110 30090 40198 51008 60006 80001 90600 333 10209 20106 60004=
07149,1998-06-04 09:00:00,19,1020.1,0.5,60,11,20000,7.408,,,40,,,,,,,,,,,wg-a,,,,AAXX 04094 07149 12570 70404 10190 20110 30095 40201 51005 60006 81101 90900=
07149,1998-06-04 12:00:00,22,1019.1,-0.9,43,9,20000,3.704,,,180,,,,,,,,,,,wg-a,,,,AAXX 04124 07149 12670 71802 10220 20090 30086 40191 58009 60006 82202 91200=
07149,1998-06-04 15:00:00,24,1017.6,-1.4,34,7,20000,7.408,,,70,,,,,,,,,,,wg-a,,,,AAXX 04154 07149 12770 /0704 10240 20070 30072 40176 58014 60006 81102 91500=
07149,1998-06-04 18:00:00,22,1016.7,-1,46,10,500,22.224,,,70,13.6,24.3,,,,,,,,,wg-a,,,,AAXX 04184 07149 12/00 70712 10220 20100 30062 40167 56010 60006 81081 91800 333 10243 20136=
07149,1998-06-04 21:00:00,18,1017.2,0.4,64,11,25000,18.52,,,60,,,,,,,,,,,wg-a,,,,AAXX 04214 07149 12/75 40610 10180 20110 30066 40172 52004 60006 81081 92100=
07149,1998-06-05 00:00:00,17,1015.8,-1.5,68,11,25000,14.816,,,50,,,,,,,,,,,wg-a,,,,AAXX 05004 07149 12/75 70508 10170 20110 30051 40158 56015 60006 85082 90000=
07149,1998-06-05 03:00:00,16,1013.5,-2.3,72,11,25000,18.52,,,50,,,,,,,,,,13,wg-a,,,,AAXX 05034 07149 12775 70510 10160 20110 30028 40135 58023 60006 71322 81182 90300=
07149,1998-06-05 06:00:00,14,1013.4,-0.1,94,13,500,18.52,,,60,14.4,21.8,,,,,,,,21,wg-a,,,,AAXX 05064 07149 02500 80610 10140 20130 30027 40134 56001 61000 72198 8487/ 90600 333 10218 20144 6003=
07149,1998-06-05 09:00:00,17,1012.4,-0.9,88,15,9000,11.112,,,100,,,,1,,,,,,2,wg-a,,,,AAXX 05094 07149 12559 71006 10170 20150 30018 40124 55009 60017 70262 8488/ 90900=
07149,1998-06-05 12:00:00,24,1011.2,-0.9,69,18,13000,11.112,,,210,,,,,,,,,,1,wg-a,,,,AAXX 05124 07149 12/63 72106 10240 20180 30009 40112 56009 60016 70162 83081 91200=
07149,1998-06-05 15:00:00,27,1011.1,-0,54,17,18000,22.224,,,250,,,,,,,,,,,wg-a,,,,AAXX 05154 07149 12668 /2512 10270 20170 30009 40111 55000 60006 82101 91500=
07149,1998-06-05 18:00:00,26,1010.8,-0.4,58,17,20000,11.112,,,280,14.1,27.6,,,,,,,,,wg-a,,,,AAXX 05184 07149 12/70 72806 10260 20170 30005 40108 56004 60006 81082 91800 333 10276 20141=
07149,1998-06-05 21:00:00,22,1011.6,0.7,78,18,10000,14.816,,,40,,,,,,,,,,,wg-a,,,,AAXX 05214 07149 12/60 60408 10220 20180 30012 40116 50007 60006 81082 92100=
07149,1998-06-06 00:00:00,20,1011,-0.7,88,18,10000,7.408,,,60,,,,,,,,,,13,wg-a,,,,AAXX 06004 07149 12760 70604 10200 20180 30005 40110 58007 60006 71322 83902 90000=
07149,1998-06-06 03:00:00,18,1009.2,-1.8,100,18,6000,7.408,,,140,,,,,,,,,,,wg-a,,,,AAXX 06034 07149 12756 /1404 10180 20180 39987 40092 56018 60006 81502 90300=
07149,1998-06-06 06:00:00,20,1009.7,0.6,94,19,9000,3.704,,,170,18,25.7,,,,,1,,,,wg-a,,,,AAXX 06064 07149 02759 71702 10200 20190 39993 40097 53006 60006 81582 90600 333 10257 20180 60014=
07149,1998-06-06 09:00:00,25,1009.8,0.2,65,18,12000,3.704,,,130,,,,,,,,,,,wg-a,,,,AAXX 06094 07149 12/62 51302 10250 20180 39995 40098 51002 60006 81082 90900=
07149,1998-06-06 12:00:00,28,1009.7,0,48,16,20000,22.224,,,210,,,,,,,,,,,wg-a,,,,AAXX 06124 07149 12670 72112 10280 20160 39995 40097 50000 60006 83982 91200=
07149,1998-06-06 15:00:00,23,1009.6,-0.2,83,20,18000,14.816,,,200,,,,2,,,,,,1,wg-a,,,,AAXX 06154 07149 12568 72008 10230 20200 39993 40096 58002 60027 70198 8118/ 91500=
07149,1998-06-06 18:00:00,21,1010.2,0.5,88,19,18000,18.52,,,200,20,28.2,,,,,,,,91,wg-a,,,,AAXX 06184 07149 02568 72010 10210 20190 39998 40102 51005 61000 79198 8488/ 91800 333 10282 20200 6001=
07149,1998-06-06 21:00:00,19,1011.2,0.9,94,18,10000,14.816,,,210,,,,,,,,,,,wg-a,,,,AAXX 06214 07149 32/60 /2108 10190 20180 30007 40112 50009 92100=
07149,1998-06-07 00:00:00,18,1010.6,-0.6,94,17,15000,11.112,,,220,,,,,,,,,,3,wg-a,,,,AAXX 07004 07149 02765 72206 10180 20170 30001 40106 56006 61000 70362 875// 90000 333 ////=
07149,1998-06-07 03:00:00,17,1010.6,-0.1,88,15,15000,14.816,,,250,,,,,,,,,,,wg-a,,,,AAXX 07034 07149 12665 72508 10170 20150 30000 40106 55001 60006 875// 90300=
07149,1998-06-07 06:00:00,16,1011.1,0.5,88,14,14000,11.112,,,250,15.6,21.4,,,,,,,,60,wg-a,,,,AAXX 07064 07149 02464 72506 10160 20140 30005 40111 52005 61000 76062 8653/ 90600 333 10214 20156 6003=
07149,1998-06-07 09:00:00,16,1012.8,1.7,77,12,25000,22.224,,,300,,,,,,,,,,1,wg-a,,,,AAXX 07094 07149 02475 /3012 10160 20120 30022 40128 53017 61000 70162 84801 90900 333 ////=
07149,1998-06-07 12:00:00,20,1013.5,0.8,46,8,25000,25.928,,,270,,,,,,,,,,2,wg-a,,,,AAXX 07124 07149 02675 42714 10200 20080 30030 40135 51008 61000 70261 84201 91200 333 ////=
07149,1998-06-07 15:00:00,19,1014.2,0.7,52,9,25000,25.928,,,260,,,,,,,,,,,wg-a,,,,AAXX 07154 07149 12675 /2614 10190 20090 30037 40142 51007 60006 86800 91500=
07149,1998-06-07 18:00:00,18,1015.2,0.9,64,11,25000,25.928,,,250,15.2,20.3,,,,,,,,,wg-a,,,,AAXX 07184 07149 12675 /2514 10180 20110 30046 40152 53009 60006 85830 91800 333 10203 20152=
07149,1998-06-07 21:00:00,14,1017.3,1.9,88,12,15000,7.408,,,220,,,,1,,,,,,21,wg-a,,,,AAXX 07214 07149 12665 52204 10140 20120 30065 40173 51019 60017 72186 82831 92100=
07149,1998-06-08 00:00:00,14,1018.2,0.9,88,12,25000,11.112,,,280,,,,,,,,,,2,wg-a,,,,AAXX 08004 07149 12775 62806 10140 20120 30074 40182 51009 60016 70286 82531 90000=
07149,1998-06-08 03:00:00,13,1019.1,0.9,82,10,25000,11.112,,,260,,,,,,,,,,,wg-a,,,,AAXX 08034 07149 12775 52606 10130 20100 30083 40191 51009 60006 85500 90300=
07149,1998-06-08 06:00:00,14,1019.9,0.8,82,11,25000,14.816,,,250,11.7,18.3,,,,,1,,,,wg-a,,,,AAXX 08064 07149 02475 /2508 10140 20110 30091 40199 53008 60006 84800 90600 333 10183 20117 60014=
07149,1998-06-08 09:00:00,16,1021.2,1.4,72,11,25000,14.816,,,230,,,,,,,,,,,wg-a,,,,AAXX 08094 07149 12575 72308 10160 20110 30105 40212 53014 60006 878// 90900=
07149,1998-06-08 12:00:00,19,1020,-1.1,60,11,25000,18.52,,,210,,,,,,,,,,,wg-a,,,,AAXX 08124 07149 12675 /2110 10190 20110 30094 40200 58011 60006 85831 91200=
07149,1998-06-08 15:00:00,20,1018.8,-1.2,49,9,11000,25.928,,,210,,,,,,,,,,,wg-a,,,,AAXX 08154 07149 12/61 /2114 10200 20090 30082 40188 58012 60006 91500=
07149,1998-06-08 18:00:00,19,1018.3,-0.5,56,10,25000,29.632,,,220,13.6,20.8,,,,,,,,,wg-a,,,,AAXX 08184 07149 12675 72216 10190 20100 30077 40183 56005 60006 8587/ 91800 333 10208 20136=
07149,1998-06-08 21:00:00,18,1017.6,-0.7,64,11,25000,22.224,,,210,,,,,,,,,,,wg-a,,,,AAXX 08214 07149 12675 72112 10180 20110 30070 40176 56007 60006 8353/ 92100=
07149,1998-06-09 03:00:00,15,1015.9,-1.2,82,12,12000,25.928,,,220,,,,1,,,,,,61,wg-a,,,,AAXX 09034 07149 12262 82214 10150 20120 30052 40159 56012 60017 76162 875// 90300=
07149,1998-06-09 06:00:00,15,1015,-0.9,88,13,17000,22.224,,,220,14.4,19.3,,,,,2,,,3,wg-a,,,,AAXX 09064 07149 02467 82212 10150 20130 30043 40150 56009 60006 70362 8657/ 90600 333 10193 20144 60024=
07149,1998-06-09 09:00:00,17,1014.5,-0.4,82,14,17000,29.632,,,230,,,,,,,,,,,wg-a,,,,AAXX 09094 07149 12467 72316 10170 20140 30039 40145 58004 60006 875// 90900=
07149,1998-06-09 12:00:00,22,1012.9,-1.4,65,15,20000,29.632,,,220,,,,,,,,,,,wg-a,,,,AAXX 09124 07149 12570 /2216 10220 20150 30025 40129 58014 60006 83832 91200=
07149,1998-06-09 15:00:00,24,1010.3,-2.5,57,15,25000,31.484,,,240,,,,,,,,,,,wg-a,,,,AAXX 09154 07149 12575 62417 10240 20150 30000 40103 57025 60006 8423/ 91500=
07149,1998-06-09 18:00:00,24,1008.1,-2.2,57,15,25000,25.928,,,220,14.8,24.8,,,,,,,,,wg-a,,,,AAXX 09184 07149 12675 72214 10240 20150 39978 40081 56022 60006 84831 91800 333 10248 20148=
07149,1998-06-09 21:00:00,21,1007.6,-0.6,69,15,18000,18.52,,,250,,,,,,,,,,,wg-a,,,,AAXX 09214 07149 12768 72510 10210 20150 39972 40076 55006 60006 875// 92100=
07149,1998-06-10 00:00:00,17,1007.6,-0.2,82,14,20000,22.224,,,260,,,,0,,,,,,3,wg-a,,,,AAXX 10004 07149 02470 72612 10170 20140 39970 40076 58002 60006 70362 875// 90000 333 60007=
07149,1998-06-10 03:00:00,16,1006.7,-0.9,82,13,20000,22.224,,,230,,,,,,,,,,,wg-a,,,,AAXX 10034 07149 12070 72312 10160 20130 39961 40067 56009 60006 875// 90300=
07149,1998-06-10 06:00:00,15,1007.5,0.8,82,12,500,29.632,,,250,14.5,23.9,,,,,3,,,1,wg-a,,,,AAXX 10064 07149 02400 52516 10150 20120 39969 40075 53008 60006 70162 84831 90600 333 10239 20145 60034=
07149,1998-06-10 09:00:00,17,1007.8,0.4,63,10,500,31.484,,,260,,,,,,,,,,,wg-a,,,,AAXX 10094 07149 12500 42617 10170 20100 39973 40078 51004 60006 84200 90900=
07149,1998-06-10 12:00:00,19,1007.2,-0.6,56,10,25000,29.632,,,240,,,,,,,,,,25,wg-a,,,,AAXX 10124 07149 02575 52416 10190 20100 39967 40072 58006 61000 72586 85800 91200 333 6100=
07149,1998-06-10 15:00:00,21,1006.3,-0.8,43,8,25000,29.632,,48.152,250,,,,,,,,,,,wg-a,,,,AAXX 10154 07149 12675 /2516 10210 20080 39959 40063 57008 60006 83800 91500 333 91026=
07149,1998-06-10 18:00:00,13,1006.3,-0.3,88,11,7000,31.484,,,280,13.4,21.5,,,,,,,,16,wg-a,,,,AAXX 10184 07149 02357 72817 10130 20110 39956 40063 55003 61000 71686 879// 91800 333 10215 20134 6004=
07149,1998-06-10 21:00:00,15,1006.2,-0,77,11,20000,22.224,,,240,,,,,,,,,,3,wg-a,,,,AAXX 10214 07149 02570 72412 10150 20110 39956 40062 55000 61000 70386 878// 92100 333 ////=
07149,1998-06-11 00:00:00,13,1005.1,-1.2,88,11,25000,22.224,,,230,,,,0,,,,,,1,wg-a,,,,AAXX 11004 07149 02475 /2312 10130 20110 39944 40051 56012 60006 70186 82800 90000 333 60007=
07149,1998-06-11 03:00:00,12,1003.9,-1.2,94,11,12000,22.224,,,240,,,,0,,,,,,80,wg-a,,,,AAXX 11034 07149 12462 72412 10120 20110 39932 40039 56012 60007 78086 878// 90300=
07149,1998-06-11 06:00:00,12,1004.7,0.8,88,10,16000,25.928,,,250,11.9,15,,,,,,,,25,wg-a,,,,AAXX 11064 07149 02466 72514 10120 20100 39940 40047 53008 61000 72586 878// 90600 333 10150 20119 6004=
07149,1998-06-11 09:00:00,12,1006,1.3,88,10,18000,29.632,,,280,,,,1,,,,,,25,wg-a,,,,AAXX 11094 07149 12468 72816 10120 20100 39953 40060 53013 60017 72586 878// 90900=
07149,1998-06-11 12:00:00,14,1007.9,1.9,63,7,20000,31.484,,,310,,,,,,,,,,2,wg-a,,,,AAXX 11124 07149 02570 73117 10140 20070 39972 40079 51019 60016 70286 878// 91200 333 61000=
07149,1998-06-11 15:00:00,15,1008.9,1,51,5,25000,25.928,,,290,,,,,,,,,,,wg-a,,,,AAXX 11154 07149 12675 /2914 10150 20050 39982 40089 53010 60006 86800 91500=
07149,1998-06-11 18:00:00,15,1009.9,1,55,6,25000,29.632,,,290,11.6,16.3,,,,,,,,,wg-a,,,,AAXX 11184 07149 12675 62916 10150 20060 39992 40099 53010 60006 85801 91800 333 10163 20116=
07149,1998-06-11 21:00:00,11,1012,2,87,9,10000,18.52,,,280,,,,,,,,,,51,wg-a,,,,AAXX 11214 07149 02360 82810 10110 20090 30012 40120 51020 61000 75165 875// 92100 333 ////=
07149,1998-06-12 00:00:00,10,1014,,87,8,7000,35.188,,,340,,,,,,,,,,61,wg-a,,,,AAXX 12004 07149 02357 83419 10100 20080 30031 40140 61000 76165 875// 90000 333 ////=
07149,1998-06-12 03:00:00,9,1016.7,2.6,81,6,15000,29.632,,,340,,,,0,,,,,,61,wg-a,,,,AAXX 12034 07149 12465 83416 10090 20060 30057 40167 51026 60007 76166 875// 90300=
07149,1998-06-12 06:00:00,10,1019,2.3,71,5,20000,25.928,,,340,8.5,14.9,,,,,,,,1,wg-a,,,,AAXX 12064 07149 02/70 13414 10100 20050 30080 40190 52023 60006 70161 81031 90600 333 10149 20085 61000=
07149,1998-06-12 09:00:00,14,1020.3,1.5,58,6,20000,25.928,,,340,,,,,,,,,,,wg-a,,,,AAXX 12094 07149 12570 53414 10140 20060 30095 40203 52015 60006 85800 90900=
07149,1998-06-12 12:00:00,16,1020.8,0.5,51,6,20000,31.484,,,290,,,,0,,,,,,3,wg-a,,,,AAXX 12124 07149 02670 52917 10160 20060 30100 40208 50005 60006 70386 85800 91200 333 60007=
07149,1998-06-12 15:00:00,17,1020.6,-0.1,45,5,25000,25.928,,,340,,,,0,,,,,,1,wg-a,,,,AAXX 12154 07149 12675 23414 10170 20050 30099 40206 58001 60007 70186 82800 91500=
07149,1998-06-12 18:00:00,16,1020.8,0.1,39,2,500,22.224,,,300,9.8,17.6,,,,,,,,2,wg-a,,,,AAXX 12184 07149 12700 63012 10160 20020 30100 40208 52001 60006 70286 86800 91800 333 10176 20098=
07149,1998-06-12 21:00:00,10,1021.8,0.8,82,7,500,11.112,,,300,,,,,,,,,,,wg-a,,,,AAXX 12214 07149 12/00 13006 10100 20070 30108 40218 51008 60006 80001 92100=
07149,1998-06-13 00:00:00,8,1021.6,-0.2,93,7,500,11.112,,,270,,,,,,,,,,,wg-a,,,,AAXX 13004 07149 12/00 32706 10080 20070 30106 40216 58002 60006 81031 90000=
07149,1998-06-13 03:00:00,10,1019.9,-1.7,87,8,500,3.704,,,160,,,,,,,,,,,wg-a,,,,AAXX 13034 07149 12600 71602 10100 20080 30089 40199 58017 60006 8557/ 90300=
07149,1998-06-13 06:00:00,11,1018.6,-1.2,82,8,18000,11.112,,,190,8,15.6,,,,,,,,,wg-a,,,,AAXX 13064 07149 02468 71906 10110 20080 30077 40186 56012 60006 84572 90600 333 10156 20080 60004=
07149,1998-06-13 12:00:00,16,1015.6,-1.8,55,7,20000,29.632,,,210,,,,,,,,,,60,wg-a,,,,AAXX 13124 07149 02670 72116 10160 20070 30049 40156 58018 61000 76062 8687/ 91200 333 6100=
07149,1998-06-13 15:00:00,14,1013.6,-2,77,10,20000,25.928,,,200,,,,,,,,,,21,wg-a,,,,AAXX 13154 07149 02370 72014 10140 20100 30029 40136 56020 61000 72162 878// 91500 333 ////=
07149,1998-06-13 18:00:00,12,1011.8,-1.9,94,11,6000,25.928,,,190,10.7,16,,,,,,,,58,wg-a,,,,AAXX 13184 07149 02356 71914 10120 20110 30010 40118 56019 61000 75865 875// 91800 333 10160 20107 6000=
07149,1998-06-13 21:00:00,12,1010.6,-1.2,100,12,500,18.52,,,200,,,,2,,,,,,61,wg-a,,,,AAXX 13214 07149 12200 72010 10120 20120 39998 40106 56012 60027 76165 877// 92100=
07149,1998-06-14 00:00:00,11,1010.7,0.1,100,11,20000,11.112,,,230,,,,0,,,,,,1,wg-a,,,,AAXX 14004 07149 02270 /2306 10110 20110 39999 40107 53001 60036 70165 82530 90000 333 60007=
07149,1998-06-14 03:00:00,12,1010.6,-0.1,100,12,16000,18.52,,,230,,,,,,,,,,,wg-a,,,,AAXX 14034 07149 12266 72310 10120 20120 39998 40106 57001 60006 85830 90300=
07149,1998-06-14 06:00:00,13,1010.9,0.4,94,12,18000,18.52,,,230,11.3,12.6,,,,,3,,,,wg-a,,,,AAXX 14064 07149 02368 72310 10130 20120 30002 40109 53004 60006 875// 90600 333 10126 20113 60034=
07149,1998-06-14 09:00:00,14,1011.2,0.3,77,10,20000,25.928,,,240,,,,,,,,,,,wg-a,,,,AAXX 14094 07149 12470 72414 10140 20100 30005 40112 51003 60006 878// 90900=
07149,1998-06-14 12:00:00,17,1010.6,-0.5,63,10,25000,31.484,,,240,,,,0,,,,,,1,wg-a,,,,AAXX 14124 07149 02575 /2417 10170 20100 30000 40106 58005 60006 70186 86800 91200 333 60007=
07149,1998-06-14 15:00:00,18,1010,-0.5,64,11,25000,25.928,,,230,,,,0,,,,,,25,wg-a,,,,AAXX 14154 07149 12575 /2314 10180 20110 39995 40100 58005 60007 72586 86800 91500=
07149,1998-06-14 18:00:00,14,1010.2,-0.7,88,12,14000,11.112,,,230,12.6,18.5,,,,,,,,25,wg-a,,,,AAXX 14184 07149 02564 /2306 10140 20120 39995 40102 55007 61000 72586 84902 91800 333 10185 20126 ////=
07149,1998-06-15 00:00:00,13,1011.4,0.4,94,12,16000,14.816,,,230,,,,0,,,,,,25,wg-a,,,,AAXX 15004 07149 02466 72308 10130 20120 30007 40114 51004 60016 72586 8688/ 90000 333 60007=
07149,1998-06-15 03:00:00,13,1011.3,-0.2,94,12,25000,18.52,,,230,,,,,,,,,,,wg-a,,,,AAXX 15034 07149 12475 /2310 10130 20120 30005 40113 56002 60006 86800 90300=
07149,1998-06-15 06:00:00,12,1012.2,0.9,100,12,9000,18.52,,,230,11.7,14.5,,,,,,,,21,wg-a,,,,AAXX 15064 07149 02259 /2310 10120 20120 30014 40122 51009 61000 72162 875// 90600 333 10145 20117 6004=
07149,1998-06-15 09:00:00,15,1012.2,0.1,72,10,15000,14.816,,,250,,,,,,,,,,,wg-a,,,,AAXX 15094 07149 12465 72508 10150 20100 30015 40122 52001 60006 878// 90900=
07149,1998-06-15 12:00:00,16,1012.6,0.5,82,13,15000,18.52,,,270,,,,2,,,,,,25,wg-a,,,,AAXX 15124 07149 02465 52710 10160 20130 30020 40126 53005 60026 72586 85900 91200 333 60027=
07149,1998-06-15 15:00:00,15,1013.8,1.1,77,11,14000,25.928,,,330,,,,1,,,,,,29,wg-a,,,,AAXX 15154 07149 12464 73314 10150 20110 30031 40138 53011 60017 72998 879// 91500=
07149,1998-06-15 21:00:00,13,1017,1.8,82,10,20000,14.816,,,280,,,,,,,,,,,wg-a,,,,AAXX 15214 07149 12770 42808 10130 20100 30062 40170 53018 60006 84500 92100=
07149,1998-06-16 00:00:00,11,1018,0.9,87,9,20000,14.816,,,260,,,,,,,,,,,wg-a,,,,AAXX 16004 07149 12770 12608 10110 20090 30071 40180 51009 60006 81530 90000=
07149,1998-06-16 03:00:00,11,1018.2,0.2,82,8,25000,18.52,,,250,,,,0,,,,,,,wg-a,,,,AAXX 16034 07149 12675 72510 10110 20080 30073 40182 52002 60007 8255/ 90300=
07149,1998-06-16 06:00:00,11,1019.9,1.7,87,9,18000,18.52,,,290,9.9,15.1,,,,,3,,,,wg-a,,,,AAXX 16064 07149 02468 /2910 10110 20090 30090 40199 53017 60006 84530 90600 333 10151 20099 60034=
07149,1998-06-16 09:00:00,14,1020.8,1,72,9,22000,29.632,,,270,,,,,,,,,,,wg-a,,,,AAXX 16094 07149 12572 72716 10140 20090 30100 40208 52010 60006 86830 90900=
07149,1998-06-16 12:00:00,16,1021.8,1,59,8,25000,25.928,,,300,,,,,,,,,,,wg-a,,,,AAXX 16124 07149 12575 73014 10160 20080 30110 40218 51010 60006 878// 91200=
07149,1998-06-16 15:00:00,19,1021.8,0.2,43,6,25000,31.484,,,290,,,,,,,,,,,wg-a,,,,AAXX 16154 07149 12675 32917 10190 20060 30112 40218 53002 60006 83800 91500=
07149,1998-06-16 18:00:00,18,1023.1,1.2,45,6,25000,25.928,,,320,11.1,19.8,,,,,,,,,wg-a,,,,AAXX 16184 07149 12775 13214 10180 20060 30124 40231 53012 60006 81801 91800 333 10198 20111=
07149,1998-06-16 21:00:00,14,1025.4,2.1,63,7,25000,14.816,,,310,,,,,,,,,,,wg-a,,,,AAXX 16214 07149 12/75 13108 10140 20070 30145 40254 53021 60006 80001 92100=
07149,1998-06-17 00:00:00,9,1026.3,0.7,81,6,25000,11.112,,,250,,,,,,,,,,,wg-a,,,,AAXX 17004 07149 12/75 02506 10090 20060 30152 40263 51007 60006 80000 90000=
07149,1998-06-17 03:00:00,8,1026.5,0.2,93,7,25000,11.112,,,260,,,,,,,,,,,wg-a,,,,AAXX 17034 07149 12/75 22606 10080 20070 30154 40265 51002 60006 81031 90300=
07149,1998-06-17 09:00:00,17,1027.3,0.3,59,9,22000,11.112,,,280,,,,,,,,,,,wg-a,,,,AAXX 17094 07149 12572 /2806 10170 20090 30165 40273 50003 60006 81102 90900=
07149,1998-06-17 12:00:00,19,1027,-0.2,43,6,500,11.112,,,300,,,,,,,,,,,wg-a,,,,AAXX 17124 07149 12600 /3006 10190 20060 30163 40270 58002 60006 83402 91200=
07149,1998-06-17 15:00:00,20,1026.3,-0.6,40,6,500,18.52,,,270,,,,,,,,,,,wg-a,,,,AAXX 17154 07149 12700 72710 10200 20060 30157 40263 56006 60006 83432 91500=
07149,1998-06-17 18:00:00,20,1025.7,-0.7,40,6,500,14.816,,,300,10.8,21.2,,,,,,,,,wg-a,,,,AAXX 17184 07149 12700 73008 10200 20060 30150 40257 56007 60006 82532 91800 333 10212 20108=
07149,1998-06-17 21:00:00,16,1026.4,0.6,63,9,500,3.704,,,320,,,,,,,,,,,wg-a,,,,AAXX 17214 07149 12/00 43202 10160 20090 30156 40264 53006 60006 83031 92100=
07149,1998-06-18 00:00:00,12,1026.2,-0.3,82,9,500,0,,,0,,,,,,,,,,,wg-a,,,,AAXX 18004 07149 12/00 20000 10120 20090 30153 40262 58003 60006 80001 90000=
07149,1998-06-18 03:00:00,12,1026,-0.3,88,10,25000,3.704,,,220,,,,,,,,,,,wg-a,,,,AAXX 18034 07149 12/75 72202 10120 20100 30150 40260 55003 60006 83031 90300=
07149,1998-06-18 06:00:00,13,1026,0.1,82,10,18000,7.408,,,190,10.8,19.7,,,,,,,,,wg-a,,,,AAXX 18064 07149 02868 71904 10130 20100 30151 40260 52001 60006 82532 90600 333 10197 20108 60004=
07149,1998-06-18 09:00:00,19,1025.9,0.1,56,10,18000,11.112,,,200,,,,,,,,,,,wg-a,,,,AAXX 18094 07149 12/68 62006 10190 20100 30152 40259 51001 60006 85032 90900=
07149,1998-06-18 12:00:00,23,1024.9,-0.8,47,11,25000,22.224,,35.188,230,,,,,,,,,,,wg-a,,,,AAXX 18124 07149 12675 /2312 10230 20110 30144 40249 57008 60006 81132 91200 333 91019=
07149,1998-06-18 15:00:00,24,1024.1,-0.8,41,10,500,14.816,,,270,,,,,,,,,,,wg-a,,,,AAXX 18154 07149 12700 32708 10240 20100 30136 40241 58008 60006 81132 91500=
07149,1998-06-18 18:00:00,23,1023.7,-0.4,41,9,500,18.52,,,270,13.3,24.7,,,,,,,,,wg-a,,,,AAXX 18184 07149 12700 32710 10230 20090 30132 40237 56004 60006 81431 91800 333 10247 20133=
07149,1998-06-18 21:00:00,17,1024.7,0.8,59,9,500,7.408,,,300,,,,,,,,,,,wg-a,,,,AAXX 18214 07149 12/00 33004 10170 20090 30140 40247 53008 60006 81031 92100=
07149,1998-06-19 00:00:00,15,1024.6,-0.2,82,12,25000,11.112,,,40,,,,,,,,,,,wg-a,,,,AAXX 19004 07149 12/75 30406 10150 20120 30138 40246 56002 60006 81031 90000=
07149,1998-06-19 03:00:00,14,1024.3,-0.3,82,11,25000,7.408,,,50,,,,,,,,,,,wg-a,,,,AAXX 19034 07149 12/75 40504 10140 20110 30135 40243 56003 60006 83031 90300=
07149,1998-06-19 06:00:00,16,1024.6,0.3,77,12,17000,7.408,,,60,13.3,23.5,,,,,,,,,wg-a,,,,AAXX 19064 07149 02/67 40604 10160 20120 30138 40246 51003 60006 82031 90600 333 10235 20133 60004=
07149,1998-06-19 09:00:00,23,1024.4,0.1,47,11,15000,7.408,,,70,,,,,,,,,,,wg-a,,,,AAXX 19094 07149 12/65 50704 10230 20110 30139 40244 50001 60006 80001 90900=
07149,1998-06-19 12:00:00,26,1023.5,-0.8,39,11,25000,7.408,,,160,,,,,,,,,,,wg-a,,,,AAXX 19124 07149 12/75 51604 10260 20110 30131 40235 57008 60006 80001 91200=
07149,1998-06-19 15:00:00,28,1022.5,-0.9,35,11,500,11.112,,,100,,,,,,,,,,,wg-a,,,,AAXX 19154 07149 12/00 61006 10280 20110 30122 40225 57009 60006 80001 91500=
07149,1998-06-19 18:00:00,26,1021.6,-1,42,12,25000,11.112,,,130,15.7,28.3,,,,,,,,,wg-a,,,,AAXX 19184 07149 12/75 71306 10260 20120 30112 40216 56010 60006 80002 91800 333 10283 20157=
07149,1998-06-19 21:00:00,22,1022.1,0.4,60,14,25000,11.112,,,120,,,,,,,,,,,wg-a,,,,AAXX 19214 07149 12/75 71206 10220 20140 30116 40221 53004 60006 80002 92100=
07149,1998-06-20 00:00:00,19,1022.1,-0.1,68,13,25000,7.408,,,120,,,,,,,,,,,wg-a,,,,AAXX 20004 07149 12/75 71204 10190 20130 30115 40221 56001 60006 80002 90000=
07149,1998-06-20 03:00:00,18,1021.5,-0.7,77,14,20000,7.408,,,120,,,,,,,,,,,wg-a,,,,AAXX 20034 07149 12/70 61204 10180 20140 30108 40215 56007 60006 80002 90300=
07149,1998-06-20 06:00:00,18,1021.4,-0,77,14,20000,11.112,,,140,16.9,26.3,,,,,,,,,wg-a,,,,AAXX 20064 07149 02/70 71406 10180 20140 30108 40214 54000 60006 80001 90600 333 10263 20169 60004=
07149,1998-06-20 09:00:00,26,1021,-0.2,48,14,10000,14.816,,,140,,,,,,,,,,,wg-a,,,,AAXX 20094 07149 12/60 /1408 10260 20140 30106 40210 58002 60006 90900=
07149,1998-06-20 12:00:00,30,1019.5,-1.3,38,14,20000,14.816,,,140,,,,,,,,,,,wg-a,,,,AAXX 20124 07149 12/70 61408 10300 20140 30093 40195 58013 60006 80001 91200=
07149,1998-06-20 15:00:00,32,1018.1,-1.3,34,14,20000,14.816,,,140,,,,,,,,,,,wg-a,,,,AAXX 20154 07149 12/70 61408 10320 20140 30080 40181 57013 60006 80001 91500=
07149,1998-06-20 18:00:00,31,1017.5,-0.7,36,14,20000,11.112,,,130,18.4,32.1,,,,,,,,,wg-a,,,,AAXX 20184 07149 12/70 61306 10310 20140 30073 40175 56007 60006 80002 91800 333 10321 20184=
07149,1998-06-20 21:00:00,26,1017.6,-0,54,16,20000,11.112,,,130,,,,,,,,,,,wg-a,,,,AAXX 20214 07149 12/70 61306 10260 20160 30073 40176 55000 60006 80002 92100=
07149,1998-06-21 00:00:00,21,1017.7,-0.1,69,15,25000,7.408,,,160,,,,,,,,,,,wg-a,,,,AAXX 21004 07149 12/75 41604 10210 20150 30072 40177 58001 60006 80001 90000=
07149,1998-06-21 03:00:00,20,1017.2,-0.5,78,16,25000,11.112,,,180,,,,,,,,,,,wg-a,,,,AAXX 21034 07149 12/75 41806 10200 20160 30067 40172 56005 60006 80001 90300=
07149,1998-06-21 06:00:00,22,1017.8,0.6,65,15,20000,18.52,,,210,19.1,30.8,,,,,,,,,wg-a,,,,AAXX 21064 07149 02/70 62110 10220 20150 30073 40178 53006 60006 80002 90600 333 10308 20191 60004=
07149,1998-06-21 09:00:00,26,1018.3,0.7,54,16,25000,18.52,,,210,,,,,,,,,,,wg-a,,,,AAXX 21094 07149 12/75 72110 10260 20160 30080 40183 51007 60006 82082 90900=
07149,1998-06-21 12:00:00,28,1018.2,-0,48,16,25000,22.224,,,220,,,,,,,,,,,wg-a,,,,AAXX 21124 07149 12/75 72212 10280 20160 30080 40182 54000 60006 83082 91200=
07149,1998-06-21 15:00:00,28,1017.6,-0.7,48,16,22000,22.224,,,240,,,,,,,,,,,wg-a,,,,AAXX 21154 07149 12/72 72412 10280 20160 30073 40176 58007 60006 85082 91500=
07149,1998-06-21 18:00:00,24,1019.1,1.4,65,17,12000,31.484,,,310,21.6,29,,,,,,,,,wg-a,,,,AAXX 21184 07149 12562 73117 10240 20170 30087 40191 53014 60006 8329/ 91800 333 10290 20216=
07149,1998-06-21 21:00:00,19,1022.3,3,68,13,16000,25.928,,,320,,,,,,,,,,,wg-a,,,,AAXX 21214 07149 12566 43214 10190 20130 30117 40223 52030 60006 82532 92100=
07149,1998-06-22 00:00:00,15,1024.1,1.6,82,12,25000,14.816,,,290,,,,,,,,,,,wg-a,,,,AAXX 22004 07149 12575 /2908 10150 20120 30133 40241 51016 60006 81500 90000=
07149,1998-06-22 03:00:00,13,1024.6,0.4,88,11,25000,7.408,,,280,,,,,,,,,,,wg-a,,,,AAXX 22034 07149 12675 22804 10130 20110 30137 40246 51004 60006 81530 90300=
07149,1998-06-22 06:00:00,15,1025.9,1.4,77,11,500,7.408,,,290,12.2,24,,,,,,,,,wg-a,,,,AAXX 22064 07149 02/00 32904 10150 20110 30151 40259 51014 60006 81081 90600 333 10240 20122 60004=
07149,1998-06-22 09:00:00,19,1025.9,0.1,52,9,500,14.816,,,310,,,,,,,,,,,wg-a,,,,AAXX 22094 07149 12600 53108 10190 20090 30152 40259 50001 60006 81132 90900=
07149,1998-06-22 12:00:00,21,1025.3,-0.5,43,8,500,18.52,,,280,,,,,,,,,,,wg-a,,,,AAXX 22124 07149 12600 62810 10210 20080 30147 40253 58005 60006 84801 91200=
07149,1998-06-22 15:00:00,22,1024.3,-0.9,41,8,500,14.816,,,290,,,,,,,,,,,wg-a,,,,AAXX 22154 07149 12700 52908 10220 20080 30138 40243 57009 60006 83801 91500=
07149,1998-06-22 18:00:00,22,1023.5,-0.9,41,8,500,14.816,,,330,14.9,23.4,,,,,,,,,wg-a,,,,AAXX 22184 07149 12700 43308 10220 20080 30129 40235 55009 60006 83801 91800 333 10234 20149=
07149,1998-06-22 21:00:00,18,1024.5,0.9,56,9,500,11.112,,,360,,,,,,,,,,,wg-a,,,,AAXX 22214 07149 12700 43606 10180 20090 30138 40245 53009 60006 815/1 92100=
07149,1998-06-23 00:00:00,15,1024.8,0.2,72,10,25000,7.408,,,60,,,,,,,,,,,wg-a,,,,AAXX 23004 07149 12775 10604 10150 20100 30140 40248 50002 60006 81500 90000=
07149,1998-06-23 03:00:00,11,1024,-0.9,94,10,25000,3.704,,,270,,,,,,,,,,,wg-a,,,,AAXX 23034 07149 12/75 12702 10110 20100 30131 40240 56009 60006 80001 90300=
07149,1998-06-23 06:00:00,16,1024.1,0.2,72,11,20000,3.704,,,200,11.3,22,,,,,,,,,wg-a,,,,AAXX 23064 07149 02/70 32002 10160 20110 30133 40241 53002 60006 80001 90600 333 10220 20113 60004=
07149,1998-06-23 09:00:00,20,1023.4,-0.5,53,10,22000,11.112,,,250,,,,,,,,,,,wg-a,,,,AAXX 23094 07149 12672 /2506 10200 20100 30128 40234 58005 60006 81101 90900=
07149,1998-06-23 12:00:00,22,1022,-1.3,46,10,25000,14.816,,,260,,,,,,,,,,,wg-a,,,,AAXX 23124 07149 12675 52608 10220 20100 30115 40220 58013 60006 82401 91200=
07149,1998-06-23 15:00:00,25,1020.4,-1.5,39,10,25000,14.816,,,310,,,,,,,,,,,wg-a,,,,AAXX 23154 07149 12775 63108 10250 20100 30100 40204 56015 60006 81531 91500=
07149,1998-06-23 18:00:00,24,1019.3,-1.1,44,11,25000,14.816,,,310,15.6,24.9,,,,,,,,,wg-a,,,,AAXX 23184 07149 12775 73108 10240 20110 30089 40193 56011 60006 81536 91800 333 10249 20156=
07149,1998-06-23 21:00:00,19,1019.9,0.4,64,12,25000,11.112,,,40,,,,,,,,,,,wg-a,,,,AAXX 23214 07149 12/75 60406 10190 20120 30093 40199 53004 60006 82031 92100=
07149,1998-06-24 00:00:00,17,1018.8,-1.2,72,12,25000,7.408,,,80,,,,,,,,,,,wg-a,,,,AAXX 24004 07149 12/75 60804 10170 20120 30081 40188 58012 60006 83031 90000=
07149,1998-06-24 03:00:00,16,1017.8,-1,77,12,20000,7.408,,,110,,,,,,,,,,,wg-a,,,,AAXX 24034 07149 12/70 31104 10160 20120 30071 40178 58010 60006 80001 90300=
07149,1998-06-24 06:00:00,17,1017.2,-0.5,77,13,20000,7.408,,,120,15.2,23.5,,,,,,,,,wg-a,,,,AAXX 24064 07149 02/70 71204 10170 20130 30066 40172 56005 60006 80001 90600 333 10235 20152 60004=
07149,1998-06-24 09:00:00,23,1016.1,-0.9,50,12,20000,14.816,,,180,,,,,,,,,,,wg-a,,,,AAXX 24094 07149 12/70 71808 10230 20120 30057 40161 58009 60006 80001 90900=
07149,1998-06-24 12:00:00,27,1014,-2,39,12,25000,14.816,,,180,,,,,,,,,,,wg-a,,,,AAXX 24124 07149 12/75 21808 10270 20120 30037 40140 58020 60006 80001 91200=
07149,1998-06-24 15:00:00,28,1012.2,-1.7,37,12,500,14.816,,,170,,,,,,,,,,,wg-a,,,,AAXX 24154 07149 12700 31708 10280 20120 30020 40122 57017 60006 83400 91500=
07149,1998-06-24 18:00:00,28,1010.7,-1.5,40,13,500,14.816,,,190,17.3,29.3,,,,,,,,,wg-a,,,,AAXX 24184 07149 12700 51908 10280 20130 30005 40107 56015 60006 83431 91800 333 10293 20173=
07149,1998-06-24 21:00:00,25,1010.8,-0,50,14,25000,11.112,,,120,,,,,,,,,,,wg-a,,,,AAXX 24214 07149 12775 71206 10250 20140 30005 40108 55000 60006 85531 92100=
07149,1998-06-25 00:00:00,20,1010.7,-0.3,68,14,25000,14.816,,,270,,,,,,,,,,,wg-a,,,,AAXX 25004 07149 12775 62708 10200 20140 30002 40107 55003 60006 83531 90000=
07149,1998-06-25 03:00:00,19,1010.5,-0.2,64,12,25000,18.52,,,250,,,,,,,,,,,wg-a,,,,AAXX 25034 07149 12775 72510 10190 20120 30000 40105 55002 60006 83582 90300=
07149,1998-06-25 06:00:00,17,1012.1,1.5,77,13,25000,18.52,,,270,16.2,27.5,,,,,,,,21,wg-a,,,,AAXX 25064 07149 02675 72710 10170 20130 30015 40121 52015 61000 72162 8287/ 90600 333 10275 20162 6100=
07149,1998-06-25 09:00:00,17,1013.9,1.8,72,12,25000,22.224,,,290,,,,,,,,,,,wg-a,,,,AAXX 25094 07149 12475 /2912 10170 20120 30033 40139 53018 60006 85870 90900=
07149,1998-06-25 12:00:00,21,1014.5,0.7,46,9,500,22.224,,,270,,,,,,,,,,,wg-a,,,,AAXX 25124 07149 12600 62712 10210 20090 30040 40145 51007 60006 84231 91200=
07149,1998-06-25 15:00:00,23,1014.1,-0.3,38,8,500,18.52,,,270,,,,,,,,,,,wg-a,,,,AAXX 25154 07149 12700 52710 10230 20080 30037 40141 58003 60006 83801 91500=
07149,1998-06-25 18:00:00,21,1014.1,-0.1,43,8,500,22.224,,,240,16.8,23,,,,,,,,,wg-a,,,,AAXX 25184 07149 12700 52412 10210 20080 30036 40141 55001 60006 82182 91800 333 10230 20168=
07149,1998-06-25 21:00:00,18,1014.8,0.6,56,9,500,11.112,,,240,,,,,,,,,,,wg-a,,,,AAXX 25214 07149 12700 52406 10180 20090 30042 40148 52006 60006 845/2 92100=
07149,1998-06-26 00:00:00,18,1015.1,0.3,59,10,500,11.112,,,250,,,,,,,,,,,wg-a,,,,AAXX 26004 07149 12700 72506 10180 20100 30045 40151 53003 60006 865/2 90000=
07149,1998-06-26 03:00:00,15,1014.5,-0.7,72,10,25000,11.112,,,260,,,,,,,,,,,wg-a,,,,AAXX 26034 07149 12775 72606 10150 20100 30038 40145 57007 60006 855/2 90300=
07149,1998-06-26 06:00:00,15,1015.4,0.9,72,10,25000,14.816,,,260,14.4,21.8,,,,,,,,,wg-a,,,,AAXX 26064 07149 02775 62608 10150 20100 30047 40154 52009 60006 81532 90600 333 10218 20144 60004=
07149,1998-06-26 09:00:00,20,1015.2,0,46,8,25000,18.52,,,240,,,,,,,,,,,wg-a,,,,AAXX 26094 07149 12575 32410 10200 20080 30047 40152 50000 60006 81132 90900=
07149,1998-06-26 12:00:00,21,1015,-0.2,40,7,25000,25.928,,,240,,,,,,,,,,,wg-a,,,,AAXX 26124 07149 12775 62414 10210 20070 30045 40150 58002 60006 85101 91200=
07149,1998-06-26 15:00:00,23,1014.3,-0.6,36,7,25000,22.224,,,270,,,,,,,,,,,wg-a,,,,AAXX 26154 07149 12775 62712 10230 20070 30039 40143 58006 60006 834/1 91500=
07149,1998-06-26 18:00:00,22,1014.2,-0.2,41,8,25000,22.224,,,260,15.1,22.9,,,,,,,,,wg-a,,,,AAXX 26184 07149 12775 72612 10220 20080 30037 40142 55002 60006 83534 91800 333 10229 20151=
07149,1998-06-26 21:00:00,17,1014.5,0.2,59,9,25000,7.408,,,230,,,,,,,,,,,wg-a,,,,AAXX 26214 07149 12/75 62304 10170 20090 30039 40145 53002 60006 82034 92100=
07149,1998-06-27 00:00:00,17,1013.9,-0.6,63,10,10000,11.112,,,200,,,,,,,,,,,wg-a,,,,AAXX 27004 07149 12/60 /2006 10170 20100 30033 40139 56006 60006 90000=
07149,1998-06-27 03:00:00,14,1013.4,-0.6,77,10,25000,7.408,,,220,,,,,,,,,,,wg-a,,,,AAXX 27034 07149 12/75 72204 10140 20100 30027 40134 57006 60006 81034 90300=
07149,1998-06-27 06:00:00,15,1013.5,0.1,72,10,25000,14.816,,,230,13.2,21.6,,,,,,,,,wg-a,,,,AAXX 27064 07149 02/75 62308 10150 20100 30028 40135 52001 60006 83032 90600 333 10216 20132 60004=
07149,1998-06-27 09:00:00,18,1012.9,-0.5,59,10,25000,29.632,,,230,,,,,,,,,,,wg-a,,,,AAXX 27094 07149 12575 72316 10180 20100 30023 40129 57005 60006 81132 90900=
07149,1998-06-27 12:00:00,20,1012.1,-0.7,53,10,25000,31.484,,,220,,,,,,,,,,,wg-a,,,,AAXX 27124 07149 12675 82217 10200 20100 30016 40121 56007 60006 8321/ 91200=
07149,1998-06-27 15:00:00,21,1011.7,-0.4,53,11,25000,25.928,,,250,,,,,,,,,,60,wg-a,,,,AAXX 27154 07149 02675 82514 10210 20110 30012 40117 57004 61000 76062 8312/ 91500 333 ////=
07149,1998-06-27 18:00:00,16,1012.1,0.3,88,14,12000,29.632,,,240,14.6,21.4,,,,,,,,61,wg-a,,,,AAXX 27184 07149 02462 /2416 10160 20140 30015 40121 53003 61000 76162 8352/ 91800 333 10214 20146 6001=
07149,1998-06-27 21:00:00,16,1014.2,2,88,14,20000,18.52,,,260,,,,0,,,,,,25,wg-a,,,,AAXX 27214 07149 12470 72610 10160 20140 30035 40142 53020 60007 72586 878// 92100=
07149,1998-06-28 00:00:00,15,1015.7,1.5,88,13,25000,14.816,,,270,,,,,,,,,,1,wg-a,,,,AAXX 28004 07149 12775 72708 10150 20130 30050 40157 53015 60006 70186 875// 90000=
07149,1998-06-28 03:00:00,12,1017,1.2,88,10,25000,18.52,,,260,,,,,,,,,,,wg-a,,,,AAXX 28034 07149 12775 12610 10120 20100 30062 40170 52012 60006 81500 90300=
07149,1998-06-28 06:00:00,13,1018.6,1.6,82,10,25000,7.408,,,240,11.5,16.2,,,,,1,,,,wg-a,,,,AAXX 28064 07149 02475 /2404 10130 20100 30078 40186 53016 60006 81131 90600 333 10162 20115 60014=
07149,1998-06-28 09:00:00,18,1019.3,0.9,59,10,25000,22.224,,,270,,,,,,,,,,,wg-a,,,,AAXX 28094 07149 12575 42712 10180 20100 30087 40193 51009 60006 84200 90900=
07149,1998-06-28 12:00:00,19,1019.6,0.3,52,9,500,18.52,,,260,,,,,,,,,,,wg-a,,,,AAXX 28124 07149 12600 /2610 10190 20090 30090 40196 50003 60006 85400 91200=
07149,1998-06-28 18:00:00,20,1019.8,0.3,46,8,500,18.52,,,290,13.3,22.2,,,,,,,,,wg-a,,,,AAXX 28184 07149 12700 62910 10200 20080 30092 40198 53003 60006 86800 91800 333 10222 20133=
07149,1998-06-28 21:00:00,18,1020.9,1,59,10,500,7.408,,,340,,,,,,,,,,,wg-a,,,,AAXX 28214 07149 12600 /3404 10180 20100 30102 40209 53010 60006 86800 92100=
07149,1998-06-29 00:00:00,16,1020.8,-0.1,72,11,25000,0,,,0,,,,,,,,,,,wg-a,,,,AAXX 29004 07149 12775 70000 10160 20110 30101 40208 56001 60006 875// 90000=
07149,1998-06-29 06:00:00,15,1021.4,0.6,72,10,25000,14.816,,,290,14.1,19.9,,,,,,,,,wg-a,,,,AAXX 29064 07149 02475 42908 10150 20100 30106 40214 53006 60006 82801 90600 333 10199 20141 60004=
07149,1998-06-29 09:00:00,19,1021.1,-0.1,56,10,25000,14.816,,,260,,,,,,,,,,,wg-a,,,,AAXX 29094 07149 12675 52608 10190 20100 30105 40211 58001 60006 84801 90900=
07149,1998-06-29 12:00:00,21,1020.4,-0.7,46,9,500,14.816,,,290,,,,,,,,,,,wg-a,,,,AAXX 29124 07149 12600 72908 10210 20090 30098 40204 58007 60006 85502 91200=
07149,1998-06-29 15:00:00,22,1019.2,-1.1,43,9,500,14.816,,,280,,,,,,,,,,,wg-a,,,,AAXX 29154 07149 12600 /2808 10220 20090 30087 40192 56011 60006 84532 91500=
07149,1998-06-29 21:00:00,17,1019,0.3,68,11,500,18.52,,,350,,,,,,,,,,,wg-a,,,,AAXX 29214 07149 12/00 13510 10170 20110 30083 40190 53003 60006 81031 92100=
07149,1998-06-30 00:00:00,12,1018.5,-0.7,88,10,25000,11.112,,,250,,,,,,,,,,,wg-a,,,,AAXX 30004 07149 12/75 12506 10120 20100 30076 40185 58007 60006 80001 90000=
07149,1998-06-30 03:00:00,11,1017.6,-0.9,94,10,25000,11.112,,,230,,,,,,,,,,,wg-a,,,,AAXX 30034 07149 12/75 42306 10110 20100 30067 40176 58009 60006 81032 90300=
07149,1998-06-30 06:00:00,14,1016.2,-1.2,82,11,25000,7.408,,,240,10.6,21.4,,,,,,,,,wg-a,,,,AAXX 30064 07149 02/75 72404 10140 20110 30055 40162 58012 60006 84036 90600 333 10214 20106 60004=
07149,1998-06-30 09:00:00,17,1015.5,-0.6,68,11,25000,18.52,,,240,,,,,,,,,,,wg-a,,,,AAXX 30094 07149 12575 82410 10170 20110 30049 40155 58006 60006 84136 90900=
07149,1998-06-30 12:00:00,19,1014.9,-0.6,64,12,18000,31.484,,,260,,,,,,,,,,60,wg-a,,,,AAXX 30124 07149 02568 82617 10190 20120 30043 40149 56006 61000 76062 84576 91200 333 6100=
07149,1998-06-30 15:00:00,20,1014.5,-0.3,64,13,22000,29.632,,,270,,,,,,,,,,3,wg-a,,,,AAXX 30154 07149 02572 72716 10200 20130 30040 40145 57003 61000 70362 8657/ 91500 333 ////=
07149,1998-06-30 18:00:00,19,1013.5,-1,73,14,22000,18.52,,,240,14.1,20.2,,,,,,,,1,wg-a,,,,AAXX 30184 07149 12472 /2410 10190 20140 30030 40135 58010 60006 70161 82531 91800 333 10202 20141=
07149,1998-07-01 00:00:00,16,1013.9,-0,94,15,20000,7.408,,,260,,,,2,,,,,,1,wg-a,,,,AAXX 01004 07149 02370 /2604 10160 20150 30033 40139 55000 60026 70165 85530 90000 333 60027=
07149,1998-07-01 03:00:00,16,1013.5,-0.5,88,14,12000,11.112,,,10,,,,,,,,,,,wg-a,,,,AAXX 01034 07149 12262 70106 10160 20140 30028 40135 56005 60006 875// 90300=
07149,1998-07-01 06:00:00,15,1013.2,-0.3,82,12,16000,11.112,,,50,14.8,19.7,,,,,2,,,,wg-a,,,,AAXX 01064 07149 02466 70506 10150 20120 30025 40132 55003 60006 81532 90600 333 10197 20148 60024=
07149,1998-07-01 09:00:00,17,1013,-0.1,72,12,16000,7.408,,,80,,,,,,,,,,,wg-a,,,,AAXX 01094 07149 12466 70804 10170 20120 30024 40130 58001 60006 84832 90900=
07149,1998-07-01 12:00:00,20,1012.6,-0.3,60,12,20000,11.112,,,100,,,,,,,,,,,wg-a,,,,AAXX 01124 07149 12570 71006 10200 20120 30021 40126 58003 60006 83832 91200=
07149,1998-07-01 15:00:00,20,1011,-1.6,53,10,20000,18.52,,,70,,,,,,,,,,,wg-a,,,,AAXX 01154 07149 12670 70710 10200 20100 30005 40110 56016 60006 82272 91500=
07149,1998-07-01 18:00:00,19,1010.9,-0.1,60,11,11000,25.928,,,50,15,21.2,,,,,,,,,wg-a,,,,AAXX 01184 07149 12/61 /0514 10190 20110 30004 40109 55001 60006 91800 333 10212 20150=
07149,1998-07-01 21:00:00,17,1012,1,68,11,15000,18.52,,,40,,,,,,,,,,,wg-a,,,,AAXX 01214 07149 12/65 70410 10170 20110 30014 40120 53010 60006 8707/ 92100=
07149,1998-07-02 00:00:00,16,1011.7,-0.3,72,11,15000,25.928,,,40,,,,,,,,,,,wg-a,,,,AAXX 02004 07149 12/65 60414 10160 20110 30011 40117 56003 60006 86070 90000=
07149,1998-07-02 03:00:00,14,1012.2,0.4,82,11,15000,25.928,,,40,,,,,,,,,,,wg-a,,,,AAXX 02034 07149 12/65 70414 10140 20110 30015 40122 51004 60006 85071 90300=
07149,1998-07-02 06:00:00,14,1013,0.8,82,11,12000,18.52,,,50,13.6,18.8,,,,,,,,,wg-a,,,,AAXX 02064 07149 02/62 70510 10140 20110 30023 40130 51008 60006 84072 90600 333 10188 20136 61000=
07149,1998-07-02 09:00:00,16,1013.6,0.6,72,11,14000,14.816,,,60,,,,,,,,,,,wg-a,,,,AAXX 02094 07149 12764 80608 10160 20110 30029 40136 51006 60006 8457/ 90900=
07149,1998-07-02 12:00:00,17,1015.7,2.2,72,12,15000,14.816,,,10,,,,,,,,,,60,wg-a,,,,AAXX 02124 07149 02765 80108 10170 20120 30051 40157 53022 61000 76062 8697/ 91200 333 6100=
07149,1998-07-02 15:00:00,20,1013.9,-1.7,60,12,18000,22.224,,,60,,,,1,,,,,,1,wg-a,,,,AAXX 02154 07149 12668 60612 10200 20120 30034 40139 56017 60017 70162 81132 91500=
07149,1998-07-02 18:00:00,19,1014.2,0.3,64,12,20000,22.224,,,50,14.2,21,,,,,,,,3,wg-a,,,,AAXX 02184 07149 12670 60512 10190 20120 30037 40142 53003 60006 70361 84202 91800 333 10210 20142=
07149,1998-07-03 00:00:00,15,1015.7,0.4,77,11,20000,18.52,,,20,,,,,,,,,,,wg-a,,,,AAXX 03004 07149 12670 /0210 10150 20110 30050 40157 53004 60006 84502 90000=
07149,1998-07-03 03:00:00,14,1016.2,0.4,82,11,9000,18.52,,,30,,,,,,,,,,,wg-a,,,,AAXX 03034 07149 12359 70310 10140 20110 30054 40162 53004 60006 875// 90300=
07149,1998-07-03 06:00:00,14,1017.2,1,82,11,6000,22.224,,,30,13.5,19.3,,,,,1,,,,wg-a,,,,AAXX 03064 07149 02456 70312 10140 20110 30064 40172 53010 60006 875// 90600 333 10193 20135 60014=
07149,1998-07-03 09:00:00,17,1018.1,1,68,11,7000,18.52,,,20,,,,,,,,,,,wg-a,,,,AAXX 03094 07149 12457 70210 10170 20110 30074 40181 53010 60006 875// 90900=
07149,1998-07-03 12:00:00,21,1018.9,1,49,10,17000,14.816,,,40,,,,,,,,,,,wg-a,,,,AAXX 03124 07149 12567 40408 10210 20100 30084 40189 51010 60006 83201 91200=
07149,1998-07-03 15:00:00,21,1019.5,0.6,46,9,20000,18.52,,,10,,,,,,,,,,,wg-a,,,,AAXX 03154 07149 12670 30110 10210 20090 30090 40195 53006 60006 83101 91500=
07149,1998-07-03 18:00:00,19,1021.1,1.5,52,9,25000,18.52,,,10,14.1,22.4,,,,,,,,,wg-a,,,,AAXX 03184 07149 12675 /0110 10190 20090 30105 40211 52015 60006 85501 91800 333 10224 20141=
07149,1998-07-03 21:00:00,17,1023.2,2,59,9,25000,18.52,,,10,,,,,,,,,,,wg-a,,,,AAXX 03214 07149 12675 /0110 10170 20090 30125 40232 53020 60006 86500 92100=
07149,1998-07-04 00:00:00,13,1024.1,0.7,77,9,20000,11.112,,,10,,,,,,,,,,,wg-a,,,,AAXX 04004 07149 12570 20106 10130 20090 30132 40241 51007 60006 82500 90000=
07149,1998-07-04 03:00:00,11,1024.6,0.4,82,8,20000,7.408,,,320,,,,,,,,,,,wg-a,,,,AAXX 04034 07149 12/70 03204 10110 20080 30136 40246 51004 60006 80000 90300=
07149,1998-07-04 06:00:00,13,1025.3,0.8,77,9,10000,3.704,,,280,9.9,18.9,,,,,,,,,wg-a,,,,AAXX 04064 07149 02/60 /2802 10130 20090 30144 40253 52008 60006 90600 333 10189 20099 60004=
07149,1998-07-04 09:00:00,18,1025.4,0.3,52,8,20000,7.408,,,320,,,,,,,,,,,wg-a,,,,AAXX 04094 07149 12570 53204 10180 20080 30147 40254 51003 60006 83801 90900=
07149,1998-07-04 12:00:00,22,1024.7,-0.6,41,8,20000,11.112,,,290,,,,,,,,,,,wg-a,,,,AAXX 04124 07149 12670 /2906 10220 20080 30141 40247 58006 60006 83400 91200=
07149,1998-07-04 15:00:00,23,1023.5,-1.1,47,11,20000,18.52,,,300,,,,,,,,,,,wg-a,,,,AAXX 04154 07149 12670 /3010 10230 20110 30130 40235 58011 60006 84401 91500=
07149,1998-07-04 18:00:00,21,1022.8,-0.7,56,12,15000,14.816,,,310,12.6,23.1,,,,,,,,,wg-a,,,,AAXX 04184 07149 12665 53108 10210 20120 30123 40228 56007 60006 84801 91800 333 10231 20126=
07149,1998-07-04 21:00:00,18,1023.8,0.8,64,11,13000,14.816,,,350,,,,,,,,,,,wg-a,,,,AAXX 04214 07149 12563 /3508 10180 20110 30131 40238 53008 60006 83801 92100=
07149,1998-07-05 00:00:00,16,1023.5,-0.4,72,11,13000,18.52,,,340,,,,,,,,,,,wg-a,,,,AAXX 05004 07149 12/63 03410 10160 20110 30127 40235 57004 60006 80000 90000=
07149,1998-07-05 03:00:00,12,1022.8,-0.8,82,9,13000,11.112,,,290,,,,,,,,,,,wg-a,,,,AAXX 05034 07149 12/63 12906 10120 20090 30119 40228 56008 60006 80001 90300=
07149,1998-07-05 06:00:00,13,1022.2,-0.5,82,10,9000,14.816,,,280,10.5,21.4,,,,,,,,,wg-a,,,,AAXX 05064 07149 02559 32808 10130 20100 30114 40222 56005 60006 82531 90600 333 10214 20105 60004=
07149,1998-07-05 09:00:00,17,1022.1,0,63,10,14000,22.224,,,300,,,,,,,,,,,wg-a,,,,AAXX 05094 07149 12564 73012 10170 20100 30114 40221 50000 60006 875// 90900=
07149,1998-07-05 12:00:00,18,1021.3,-0.8,68,12,15000,22.224,,,280,,,,,,,,,,,wg-a,,,,AAXX 05124 07149 12565 72812 10180 20120 30106 40213 58008 60006 875// 91200=
07149,1998-07-05 15:00:00,18,1020.8,-0.4,64,11,15000,18.52,,,280,,,,,,,,,,,wg-a,,,,AAXX 05154 07149 12565 72810 10180 20110 30102 40208 58004 60006 875// 91500=
07149,1998-07-05 18:00:00,18,1019.5,-1.3,64,11,20000,18.52,,,290,13.2,18.8,,,,,,,,,wg-a,,,,AAXX 05184 07149 12570 72910 10180 20110 30089 40195 58013 60006 875// 91800 333 10188 20132=
07149,1998-07-05 21:00:00,17,1019.2,-0.4,68,11,20000,14.816,,,290,,,,,,,,,,,wg-a,,,,AAXX 05214 07149 12570 72908 10170 20110 30085 40192 56004 60006 875// 92100=
07149,1998-07-06 00:00:00,16,1018.2,-1,77,12,20000,11.112,,,280,,,,,,,,,,,wg-a,,,,AAXX 06004 07149 12570 82806 10160 20120 30075 40182 58010 60006 875// 90000=
07149,1998-07-06 03:00:00,16,1016.6,-1.6,72,11,20000,11.112,,,260,,,,,,,,,,,wg-a,,,,AAXX 06034 07149 12570 82606 10160 20110 30059 40166 57016 60006 875// 90300=
07149,1998-07-06 06:00:00,16,1015.9,-0.7,72,11,20000,14.816,,,260,15.4,17.9,,,,,,,,,wg-a,,,,AAXX 06064 07149 02570 82608 10160 20110 30052 40159 56007 60006 875// 90600 333 10179 20154 60004=
07149,1998-07-06 09:00:00,17,1015.5,-0.3,63,10,20000,11.112,,,280,,,,,,,,,,,wg-a,,,,AAXX 06094 07149 12570 82806 10170 20100 30049 40155 58003 60006 875// 90900=
07149,1998-07-06 12:00:00,18,1014.9,-0.6,59,10,25000,14.816,,,260,,,,,,,,,,,wg-a,,,,AAXX 06124 07149 12575 82608 10180 20100 30043 40149 57006 60006 885// 91200=
07149,1998-07-06 15:00:00,19,1013.5,-1.3,60,11,25000,11.112,,,300,,,,,,,,,,,wg-a,,,,AAXX 06154 07149 12575 83006 10190 20110 30030 40135 56013 60006 885// 91500=
07149,1998-07-06 18:00:00,18,1012.4,-1.2,68,12,20000,11.112,,,340,15.7,19,,,,,,,,,wg-a,,,,AAXX 06184 07149 12570 73406 10180 20120 30018 40124 56012 60006 875// 91800 333 10190 20157=
07149,1998-07-06 21:00:00,16,1012.2,-0.2,82,13,15000,11.112,,,30,,,,,,,,,,,wg-a,,,,AAXX 06214 07149 12465 70306 10160 20130 30016 40122 55002 60006 875// 92100=
07149,1998-07-07 03:00:00,15,1010.8,-1,82,12,13000,11.112,,,20,,,,,,,,,,,wg-a,,,,AAXX 07034 07149 12463 70206 10150 20120 30002 40108 55010 60006 878// 90300=
07149,1998-07-07 06:00:00,15,1010.9,-0,82,12,10000,14.816,,,320,14.3,18.2,,,,,,,,,wg-a,,,,AAXX 07064 07149 02460 73208 10150 20120 30002 40109 55000 60006 875// 90600 333 10182 20143 60004=
07149,1998-07-07 09:00:00,13,1012.6,1.7,88,11,6000,18.52,,,50,,,,,,,,,,50,wg-a,,,,AAXX 07094 07149 02356 80510 10130 20110 30019 40126 53017 61000 75052 887// 90900 333 ////=
07149,1998-07-07 12:00:00,16,1013.4,0.9,63,9,16000,11.112,,,10,,,,,,,,,,1,wg-a,,,,AAXX 07124 07149 02566 80106 10160 20090 30028 40134 51009 61000 70152 85802 91200 333 6100=
07149,1998-07-07 15:00:00,19,1013.2,-0.1,52,9,18000,14.816,,,10,,,,,,,,,,,wg-a,,,,AAXX 07154 07149 12668 70108 10190 20090 30027 40132 58001 60006 84232 91500=
07149,1998-07-07 18:00:00,19,1013.6,0.3,52,9,25000,18.52,,,350,12.6,19.9,,,,,,,,,wg-a,,,,AAXX 07184 07149 12675 73510 10190 20090 30030 40136 53003 60006 84831 91800 333 10199 20126=
07149,1998-07-07 21:00:00,14,1016,2.2,63,7,25000,11.112,,,360,,,,,,,,,,,wg-a,,,,AAXX 07214 07149 12775 33606 10140 20070 30052 40160 53022 60006 815/1 92100=
07149,1998-07-08 00:00:00,13,1016.5,0.5,67,7,25000,11.112,,,260,,,,,,,,,,,wg-a,,,,AAXX 08004 07149 12/75 72606 10130 20070 30057 40165 51005 60006 8703/ 90000=
07149,1998-07-08 03:00:00,13,1016.1,-0.4,67,7,25000,11.112,,,280,,,,,,,,,,,wg-a,,,,AAXX 08034 07149 12/75 72806 10130 20070 30053 40161 55004 60006 8703/ 90300=
07149,1998-07-08 06:00:00,14,1016.6,0.6,82,11,12000,14.816,,,340,12.3,18.6,,,,,,,,,wg-a,,,,AAXX 08064 07149 02462 73408 10140 20110 30059 40166 51006 60006 83531 90600 333 10186 20123 61000=
07149,1998-07-08 09:00:00,18,1016.7,0.2,59,10,12000,3.704,,,290,,,,,,,,,,,wg-a,,,,AAXX 08094 07149 12562 72902 10180 20100 30061 40167 50002 60006 86801 90900=
07149,1998-07-08 12:00:00,20,1016.7,0.1,53,10,17000,14.816,,,300,,,,,,,,,,,wg-a,,,,AAXX 08124 07149 12567 /3008 10200 20100 30062 40167 50001 60006 84201 91200=
07149,1998-07-08 15:00:00,22,1016.3,-0.4,41,8,18000,22.224,,,320,,,,,,,,,,,wg-a,,,,AAXX 08154 07149 12668 63212 10220 20080 30058 40163 56004 60006 84801 91500=
07149,1998-07-08 18:00:00,21,1016.1,-0.2,40,7,18000,22.224,,,320,14.3,22.3,,,,,,,,,wg-a,,,,AAXX 08184 07149 12768 23212 10210 20070 30056 40161 55002 60006 81101 91800 333 10223 20143=
07149,1998-07-08 21:00:00,16,1017.7,1.4,59,8,25000,18.52,,,310,,,,,,,,,,,wg-a,,,,AAXX 08214 07149 12/75 23110 10160 20080 30070 40177 52014 60006 80002 92100=
07149,1998-07-09 00:00:00,13,1017.5,-0.3,77,9,20000,3.704,,,220,,,,,,,,,,,wg-a,,,,AAXX 09004 07149 12/70 52202 10130 20090 30067 40175 58003 60006 84032 90000=
07149,1998-07-09 03:00:00,13,1016.7,-0.8,82,10,20000,14.816,,,280,,,,,,,,,,,wg-a,,,,AAXX 09034 07149 12570 72808 10130 20100 30059 40167 57008 60006 8155/ 90300=
07149,1998-07-09 06:00:00,14,1016.9,0.2,77,10,16000,18.52,,,260,12.6,20.8,,,,,,,,21,wg-a,,,,AAXX 09064 07149 02466 72610 10140 20100 30061 40169 53002 61000 72162 875// 90600 333 10208 20126 6100=
07149,1998-07-09 09:00:00,16,1016.7,-0.1,72,11,20000,22.224,,,260,,,,,,,,,,21,wg-a,,,,AAXX 09094 07149 02470 72612 10160 20110 30060 40167 57001 61000 72162 878// 90900 333 ////=
07149,1998-07-09 12:00:00,18,1016.5,-0.1,59,10,20000,22.224,,,270,,,,,,,,,,2,wg-a,,,,AAXX 09124 07149 02570 82712 10180 20100 30059 40165 58001 61000 70262 875// 91200 333 6100=
07149,1998-07-09 15:00:00,17,1016.6,0.1,77,13,20000,25.928,,,250,,,,0,,,,,,21,wg-a,,,,AAXX 09154 07149 12470 82514 10170 20130 30060 40166 50001 60007 72162 878// 91500=
07149,1998-07-09 18:00:00,18,1016.2,-0.4,73,13,11000,18.52,,,260,13.8,18.4,,,,,,,,,wg-a,,,,AAXX 09184 07149 12/61 /2610 10180 20130 30056 40162 56004 60006 91800 333 10184 20138=
07149,1998-07-09 21:00:00,16,1016.6,0.3,88,14,12000,14.816,,,230,,,,,,,,,,21,wg-a,,,,AAXX 09214 07149 02462 72308 10160 20140 30059 40166 52003 61000 72165 875// 92100 333 ////=
07149,1998-07-10 00:00:00,16,1016.4,-0.2,88,14,10000,22.224,,,260,,,,,,,,,,50,wg-a,,,,AAXX 10004 07149 02360 72612 10160 20140 30057 40164 58002 61000 75065 875// 90000 333 6100=
07149,1998-07-10 03:00:00,16,1015.7,-0.7,88,14,11000,11.112,,,250,,,,,,,,,,1,wg-a,,,,AAXX 10034 07149 02461 72506 10160 20140 30050 40157 57007 61000 70165 875// 90300 333 ////=
07149,1998-07-10 06:00:00,15,1015.4,-0.3,100,15,7000,3.704,,,300,15.1,18,,,,,,,,10,wg-a,,,,AAXX 10064 07149 02157 83002 10150 20150 30047 40154 56003 61000 71065 8777/ 90600 333 10180 20151 6001=
07149,1998-07-10 09:00:00,18,1015.2,-0.1,73,13,25000,18.52,,,270,,,,0,,,,,,3,wg-a,,,,AAXX 10094 07149 12475 72710 10180 20130 30046 40152 58001 60007 70352 878// 90900=
07149,1998-07-10 12:00:00,20,1015.5,0.4,64,13,25000,18.52,,,300,,,,,,,,,,25,wg-a,,,,AAXX 10124 07149 02475 73010 10200 20130 30050 40155 52004 60006 72586 878// 91200 333 61000=
07149,1998-07-10 15:00:00,21,1015.1,-0.4,56,12,25000,25.928,,,280,,,,,,,,,,,wg-a,,,,AAXX 10154 07149 12575 72814 10210 20120 30046 40151 58004 60006 878// 91500=
07149,1998-07-10 18:00:00,20,1014.7,-0.4,56,11,25000,29.632,,,270,15.3,21.2,,,,,,,,,wg-a,,,,AAXX 10184 07149 12675 72716 10200 20110 30042 40147 56004 60006 878// 91800 333 10212 20153=
07149,1998-07-10 21:00:00,18,1015.2,0.4,68,12,20000,18.52,,,250,,,,,,,,,,,wg-a,,,,AAXX 10214 07149 12670 72510 10180 20120 30046 40152 52004 60006 875// 92100=
07149,1998-07-11 00:00:00,17,1014.8,-0.4,77,13,20000,22.224,,,250,,,,,,,,,,,wg-a,,,,AAXX 11004 07149 12570 72512 10170 20130 30042 40148 58004 60006 875// 90000=
07149,1998-07-11 03:00:00,17,1014.3,-0.5,77,13,18000,22.224,,,250,,,,,,,,,,,wg-a,,,,AAXX 11034 07149 12768 72512 10170 20130 30037 40143 56005 60006 875// 90300=
07149,1998-07-11 06:00:00,16,1015.1,0.7,77,12,20000,22.224,,,270,16.1,19.8,,,,,,,,,wg-a,,,,AAXX 11064 07149 02570 82712 10160 20120 30044 40151 50007 60006 86802 90600 333 10198 20161 60004=
07149,1998-07-11 09:00:00,18,1016.3,1.3,73,13,22000,22.224,,,280,,,,,,,,,,1,wg-a,,,,AAXX 11094 07149 02472 82812 10180 20130 30057 40163 51013 61000 70152 878// 90900 333 ////=
07149,1998-07-11 12:00:00,21,1016,-0.2,53,11,25000,25.928,,,300,,,,,,,,,,1,wg-a,,,,AAXX 11124 07149 02675 73014 10210 20110 30055 40160 58002 61000 70152 84132 91200 333 ////=
07149,1998-07-11 15:00:00,23,1015.3,-0.6,44,10,25000,25.928,,,250,,,,,,,,,,,wg-a,,,,AAXX 11154 07149 12775 72514 10230 20100 30049 40153 56006 60006 81132 91500=
07149,1998-07-11 18:00:00,22,1014.7,-0.7,50,11,25000,22.224,,,250,15.7,23.4,,,,,,,,,wg-a,,,,AAXX 11184 07149 12675 82512 10220 20110 30042 40147 55007 60006 8157/ 91800 333 10234 20157=
07149,1998-07-11 21:00:00,21,1013.6,-1.1,53,11,18000,31.484,,,250,,,,,,,,,,2,wg-a,,,,AAXX 11214 07149 02668 82517 10210 20110 30031 40136 56011 61000 70262 8257/ 92100 333 ////=
07149,1998-07-12 00:00:00,18,1012.9,-0.8,68,12,18000,31.484,,,250,,,,,,,,,,3,wg-a,,,,AAXX 12004 07149 02568 72517 10180 20120 30023 40129 56008 61000 70362 8557/ 90000 333 ////=
07149,1998-07-12 03:00:00,17,1012.3,-0.6,77,13,18000,25.928,,,240,,,,,,,,,,,wg-a,,,,AAXX 12034 07149 12468 82414 10170 20130 30017 40123 58006 60006 855// 90300=
07149,1998-07-12 06:00:00,17,1012.7,0.4,82,14,18000,25.928,,,250,16.8,21.6,,,,,,,,,wg-a,,,,AAXX 12064 07149 02368 82514 10170 20140 30021 40127 53004 60006 875// 90600 333 10216 20168 61000=
07149,1998-07-12 09:00:00,19,1012.8,0.2,73,14,25000,29.632,,,230,,,,,,,,,,1,wg-a,,,,AAXX 12094 07149 02475 82316 10190 20140 30023 40128 50002 61000 70165 875// 90900 333 ////=
07149,1998-07-12 12:00:00,23,1011.9,-0.8,61,15,25000,35.188,,,230,,,,,,,,,,1,wg-a,,,,AAXX 12124 07149 02575 52319 10230 20150 30015 40119 58008 61000 70165 84531 91200 333 ////=
07149,1998-07-12 15:00:00,26,1010.3,-1.5,45,13,25000,35.188,,,230,,,,,,,,,,,wg-a,,,,AAXX 12154 07149 12675 /2319 10260 20130 30000 40103 56015 60006 81501 91500=
07149,1998-07-12 18:00:00,25,1008.6,-1.7,44,12,25000,35.188,,,240,17,26.5,,,,,,,,,wg-a,,,,AAXX 12184 07149 12775 12419 10250 20120 39983 40086 56017 60006 81101 91800 333 10265 20170=
07149,1998-07-12 21:00:00,21,1009.6,0.9,60,13,25000,35.188,,,240,,,,,,,,,,,wg-a,,,,AAXX 12214 07149 12/75 32419 10210 20130 39992 40096 53009 60006 82031 92100=
07149,1998-07-13 00:00:00,18,1009.2,-0.5,73,13,25000,31.484,,,240,,,,,,,,,,,wg-a,,,,AAXX 13004 07149 12575 /2417 10180 20130 39987 40092 58005 60006 81531 90000=
07149,1998-07-13 06:00:00,16,1008.4,0,94,15,7000,25.928,,,220,15.9,25.1,,,,,,,,60,wg-a,,,,AAXX 13064 07149 02257 82214 10160 20150 39978 40084 50000 61000 76062 885// 90600 333 10251 20159 6003=
07149,1998-07-13 09:00:00,15,1009.5,1.1,94,14,4500,14.816,,,320,,,,2,,,,,,61,wg-a,,,,AAXX 13094 07149 12345 83208 10150 20140 39989 40095 51011 60027 76166 887// 90900=
07149,1998-07-13 12:00:00,15,1010.4,0.9,88,13,11000,14.816,,,280,,,,2,,,,,,21,wg-a,,,,AAXX 13124 07149 02361 /2808 10150 20130 39998 40104 53009 60046 72162 86800 91200 333 60027=
07149,1998-07-13 15:00:00,21,1010.6,0.3,40,7,25000,25.928,,,310,,,,,,,,,,,wg-a,,,,AAXX 13154 07149 12675 43114 10210 20070 30001 40106 53003 60006 84100 91500=
07149,1998-07-13 18:00:00,19,1012.1,1.5,49,8,25000,29.632,,,310,14.1,21.2,,,,,,,,,wg-a,,,,AAXX 13184 07149 12775 23116 10190 20080 30016 40121 53015 60006 821// 91800 333 10212 20141=
07149,1998-07-13 21:00:00,16,1014.6,2.3,63,9,25000,22.224,,,320,,,,,,,,,,,wg-a,,,,AAXX 13214 07149 12/75 03212 10160 20090 30039 40146 53023 60006 80000 92100=
07149,1998-07-14 00:00:00,11,1015.7,0.9,82,8,20000,7.408,,,220,,,,,,,,,,,wg-a,,,,AAXX 14004 07149 12/70 02204 10110 20080 30048 40157 51009 60006 80000 90000=
07149,1998-07-14 03:00:00,9,1015.8,0.1,93,8,20000,11.112,,,260,,,,,,,,,,,wg-a,,,,AAXX 14034 07149 12/70 02606 10090 20080 30049 40158 52001 60006 80000 90300=
07149,1998-07-14 06:00:00,12,1016.3,0.6,88,10,18000,18.52,,,270,9.2,19.5,,,,,4,,,,wg-a,,,,AAXX 14064 07149 02368 /2710 10120 20100 30055 40163 51006 60006 81600 90600 333 10195 20092 60044=
07149,1998-07-14 09:00:00,16,1016.8,0.6,68,10,20000,18.52,,,280,,,,,,,,,,,wg-a,,,,AAXX 14094 07149 12570 /2810 10160 20100 30061 40168 52006 60006 85100 90900=
07149,1998-07-14 12:00:00,21,1016,-0.6,46,9,22000,18.52,,,270,,,,,,,,,,,wg-a,,,,AAXX 14124 07149 12672 42710 10210 20090 30055 40160 58006 60006 84800 91200=
07149,1998-07-14 15:00:00,21,1015.5,-0.5,38,6,25000,25.928,,,280,,,,,,,,,,,wg-a,,,,AAXX 14154 07149 12775 52814 10210 20060 30050 40155 57005 60006 85800 91500=
07149,1998-07-14 18:00:00,21,1015.4,-0.1,43,8,25000,22.224,,,330,11.7,22.1,,,,,,,,,wg-a,,,,AAXX 14184 07149 12775 43312 10210 20080 30049 40154 55001 60006 84801 91800 333 10221 20117=
07149,1998-07-14 21:00:00,16,1017.1,1.5,59,8,25000,22.224,,,310,,,,,,,,,,,wg-a,,,,AAXX 14214 07149 12775 43112 10160 20080 30064 40171 53015 60006 83501 92100=
07149,1998-07-15 00:00:00,11,1017.7,0.4,82,8,25000,7.408,,,280,,,,,,,,,,,wg-a,,,,AAXX 15004 07149 12775 12804 10110 20080 30068 40177 51004 60006 81500 90000=
07149,1998-07-15 06:00:00,12,1017.3,-0.1,88,10,25000,18.52,,,260,10.2,20.4,,,,,,,,,wg-a,,,,AAXX 15064 07149 02675 62610 10120 20100 30065 40173 58001 60006 85531 90600 333 10204 20102 60004=
07149,1998-07-15 09:00:00,16,1017.8,0.6,68,10,25000,22.224,,,260,,,,,,,,,,,wg-a,,,,AAXX 15094 07149 12575 72612 10160 20100 30071 40178 51006 60006 878// 90900=
07149,1998-07-15 12:00:00,19,1017.8,0.1,52,9,25000,22.224,,,260,,,,,,,,,,,wg-a,,,,AAXX 15124 07149 12675 72612 10190 20090 30072 40178 50001 60006 878// 91200=
07149,1998-07-15 15:00:00,20,1017.5,-0.3,53,10,25000,22.224,,,270,,,,,,,,,,,wg-a,,,,AAXX 15154 07149 12675 72712 10200 20100 30069 40175 55003 60006 878// 91500=
07149,1998-07-15 18:00:00,19,1017,-0.5,56,10,25000,11.112,,,330,12.2,20.1,,,,,,,,,wg-a,,,,AAXX 15184 07149 12675 73306 10190 20100 30064 40170 58005 60006 875// 91800 333 10201 20122=
07149,1998-07-15 21:00:00,16,1017.3,0.2,68,10,20000,11.112,,,240,,,,,,,,,,,wg-a,,,,AAXX 15214 07149 12670 72406 10160 20100 30066 40173 53002 60006 8153/ 92100=
07149,1998-07-16 00:00:00,16,1016.2,-1.1,68,10,20000,7.408,,,220,,,,,,,,,,,wg-a,,,,AAXX 16004 07149 12770 82204 10160 20100 30055 40162 56011 60006 875// 90000=
07149,1998-07-16 03:00:00,15,1014.3,-1.9,77,11,20000,3.704,,,180,,,,,,,,,,3,wg-a,,,,AAXX 16034 07149 02670 81802 10150 20110 30036 40143 58019 61000 70362 8552/ 90300 333 ////=
07149,1998-07-16 06:00:00,13,1013.5,-0.9,88,11,12000,14.816,,,230,13,18.9,,,,,,,,61,wg-a,,,,AAXX 16064 07149 02662 82308 10130 20110 30027 40135 57009 61000 76162 8657/ 90600 333 10189 20130 6002=
07149,1998-07-16 09:00:00,13,1012.4,-1,100,13,3500,18.52,,,200,,,,4,,,,,,10,wg-a,,,,AAXX 16094 07149 12235 82010 10130 20130 30017 40124 58010 60047 71066 877// 90900=
07149,1998-07-16 12:00:00,17,1012.6,0.3,88,15,7000,22.224,,,240,,,,1,,,,,,51,wg-a,,,,AAXX 16124 07149 02357 82412 10170 20150 30020 40126 53003 60056 75165 877// 91200 333 60017=
07149,1998-07-16 15:00:00,19,1012.6,0.1,83,16,18000,25.928,,,230,,,,,,,,,,1,wg-a,,,,AAXX 16154 07149 02468 72314 10190 20160 30021 40126 53001 61000 70152 878// 91500 333 ////=
07149,1998-07-16 18:00:00,20,1012.8,0.2,78,16,12000,29.632,,,260,12.9,21.5,,,,,,,,16,wg-a,,,,AAXX 16184 07149 02562 72616 10200 20160 30023 40128 53002 61000 71686 878// 91800 333 10215 20129 6100=
07149,1998-07-16 21:00:00,19,1013.9,1.1,83,16,14000,11.112,,,260,,,,,,,,,,3,wg-a,,,,AAXX 16214 07149 02464 72606 10190 20160 30034 40139 53011 61000 70386 878// 92100 333 ////=
07149,1998-07-17 00:00:00,17,1014.4,0.4,88,15,14000,14.816,,,250,,,,,,,,,,3,wg-a,,,,AAXX 17004 07149 02464 72508 10170 20150 30038 40144 52004 61000 70386 878// 90000 333 ////=
07149,1998-07-17 03:00:00,15,1014.5,-0,88,13,12000,25.928,,,270,,,,0,,,,,,20,wg-a,,,,AAXX 17034 07149 12462 82714 10150 20130 30038 40145 55000 60007 72052 875// 90300=
07149,1998-07-17 06:00:00,15,1015.4,0.9,82,12,18000,14.816,,,240,14.5,20,,,,,5,,,1,wg-a,,,,AAXX 17064 07149 02568 72408 10150 20120 30047 40154 52009 60006 70152 875// 90600 333 10200 20145 60054=
07149,1998-07-17 09:00:00,17,1014.9,-0.4,72,12,25000,29.632,,,220,,,,,,,,,,,wg-a,,,,AAXX 17094 07149 12475 72216 10170 20120 30043 40149 58004 60006 875// 90900=
07149,1998-07-17 12:00:00,18,1014.8,-0.1,77,14,15000,25.928,,,220,,,,,,,,,,21,wg-a,,,,AAXX 17124 07149 02465 72214 10180 20140 30042 40148 58001 61000 72165 875// 91200 333 6100=
07149,1998-07-17 15:00:00,20,1013.9,-0.8,78,16,25000,25.928,,,220,,,,0,,,,,,21,wg-a,,,,AAXX 17154 07149 12475 /2214 10200 20160 30034 40139 58008 60007 72165 84230 91500=
07149,1998-07-17 18:00:00,21,1013.9,-0,64,14,25000,22.224,,,320,15.1,22.6,,,,,,,,3,wg-a,,,,AAXX 17184 07149 12575 /3212 10210 20140 30034 40139 55000 60006 70365 85800 91800 333 10226 20151=
07149,1998-07-17 21:00:00,17,1015.5,1.5,68,11,25000,11.112,,,290,,,,,,,,,,,wg-a,,,,AAXX 17214 07149 12675 42906 10170 20110 30049 40155 51015 60006 84500 92100=
07149,1998-07-18 00:00:00,16,1015.4,-0.2,82,13,11000,7.408,,,250,,,,,,,,,,,wg-a,,,,AAXX 18004 07149 12/61 /2504 10160 20130 30047 40154 58002 60006 90000=
07149,1998-07-18 03:00:00,15,1015.2,-0.2,82,12,20000,11.112,,,280,,,,,,,,,,,wg-a,,,,AAXX 18034 07149 12670 72806 10150 20120 30045 40152 56002 60006 875// 90300=
07149,1998-07-18 06:00:00,15,1015.8,0.6,77,11,22000,11.112,,,250,14.5,21.4,,,,,,,,,wg-a,,,,AAXX 18064 07149 02672 72506 10150 20110 30051 40158 52006 60006 875// 90600 333 10214 20145 60004=
07149,1998-07-18 09:00:00,17,1016.3,0.6,68,11,25000,11.112,,,270,,,,,,,,,,,wg-a,,,,AAXX 18094 07149 12575 72706 10170 20110 30057 40163 51006 60006 878// 90900=
07149,1998-07-18 12:00:00,21,1015.7,-0.5,53,11,500,18.52,,,240,,,,,,,,,,,wg-a,,,,AAXX 18124 07149 12600 72410 10210 20110 30052 40157 57005 60006 85802 91200=
07149,1998-07-18 15:00:00,22,1015.1,-0.5,46,10,500,18.52,,,260,,,,,,,,,,,wg-a,,,,AAXX 18154 07149 12600 72610 10220 20100 30047 40151 55005 60006 84801 91500=
07149,1998-07-18 18:00:00,21,1015.5,0.3,49,10,500,18.52,,,300,15.2,23.2,,,,,,,,,wg-a,,,,AAXX 18184 07149 12700 73010 10210 20100 30050 40155 53003 60006 81832 91800 333 10232 20152=
07149,1998-07-18 21:00:00,18,1016.4,0.8,68,12,25000,7.408,,,360,,,,,,,,,,,wg-a,,,,AAXX 18214 07149 12/75 43604 10180 20120 30058 40164 53008 60006 83031 92100=
07149,1998-07-19 00:00:00,14,1016.7,0.2,88,12,25000,3.704,,,60,,,,,,,,,,,wg-a,,,,AAXX 19004 07149 12/75 00602 10140 20120 30060 40167 50002 60006 80000 90000=
07149,1998-07-19 03:00:00,12,1016.6,-0.2,94,11,20000,3.704,,,160,,,,,,,,,,,wg-a,,,,AAXX 19034 07149 12/70 11602 10120 20110 30058 40166 56002 60006 81030 90300=
07149,1998-07-19 06:00:00,15,1016.2,-0.3,88,13,18000,3.704,,,100,11.4,21,,,,,,,,,wg-a,,,,AAXX 19064 07149 02/68 51002 10150 20130 30055 40162 57003 60006 82081 90600 333 10210 20114 60004=
07149,1998-07-19 09:00:00,21,1015.6,-0.4,60,13,25000,11.112,,,150,,,,,,,,,,,wg-a,,,,AAXX 19094 07149 12/75 21506 10210 20130 30051 40156 58004 60006 80001 90900=
07149,1998-07-19 12:00:00,26,1014.1,-1.3,42,12,25000,11.112,,,160,,,,,,,,,,,wg-a,,,,AAXX 19124 07149 12/75 51606 10260 20120 30038 40141 58013 60006 80001 91200=
07149,1998-07-19 15:00:00,29,1012.3,-1.7,33,11,500,11.112,,,150,,,,,,,,,,,wg-a,,,,AAXX 19154 07149 12/00 61506 10290 20110 30021 40123 56017 60006 80001 91500=
07149,1998-07-19 18:00:00,29,1010.4,-1.8,35,12,500,7.408,,,110,15,29.9,,,,,,,,,wg-a,,,,AAXX 19184 07149 12/00 61104 10290 20120 30003 40104 56018 60006 80001 91800 333 10299 20150=
07149,1998-07-19 21:00:00,25,1010.3,-0.3,50,14,10000,7.408,,,120,,,,,,,,,,,wg-a,,,,AAXX 19214 07149 12/60 /1204 10250 20140 30000 40103 58003 60006 92100=
07149,1998-07-20 00:00:00,21,1010.1,-0.3,64,14,10000,3.704,,,210,,,,,,,,,,,wg-a,,,,AAXX 20004 07149 12/60 /2102 10210 20140 39997 40101 56003 60006 90000=
07149,1998-07-20 06:00:00,20,1010.1,0.4,78,16,20000,7.408,,,210,17.2,29.4,,,,,,,,,wg-a,,,,AAXX 20064 07149 02/70 32104 10200 20160 39996 40101 51004 60006 81081 90600 333 10294 20172 60004=
07149,1998-07-20 09:00:00,26,1009.8,0,51,15,25000,7.408,,,150,,,,,,,,,,,wg-a,,,,AAXX 20094 07149 12775 41504 10260 20150 39996 40098 50000 60006 83281 90900=
07149,1998-07-20 12:00:00,32,1008.1,-1.5,41,17,25000,18.52,,,190,,,,,,,,,,1,wg-a,,,,AAXX 20124 07149 12/75 41910 10320 20170 39981 40081 58015 60006 70191 82081 91200=
07149,1998-07-20 15:00:00,31,1006.1,-2,43,17,25000,14.816,,,170,,,,,,,,,,1,wg-a,,,,AAXX 20154 07149 12775 71708 10310 20170 39961 40061 57020 60006 70191 84281 91500=
07149,1998-07-20 18:00:00,32,1003.6,-2.5,38,16,25000,7.408,,,140,19.7,33.5,,,,,,,,1,wg-a,,,,AAXX 20184 07149 12/75 31404 10320 20160 39936 40036 56025 60006 70191 81081 91800 333 10335 20197=
07149,1998-07-21 00:00:00,21,1007.4,3.5,78,17,18000,29.632,,,260,,,,1,,,,,,29,wg-a,,,,AAXX 21004 07149 02768 /2616 10210 20170 39970 40074 53035 60016 72998 83981 90000 333 60017=
07149,1998-07-21 03:00:00,18,1008.4,0.9,88,16,18000,14.816,,35.188,210,,,,1,,,,,,80,wg-a,,,,AAXX 21034 07149 12468 82108 10180 20160 39979 40084 53009 60017 78098 8698/ 90300 333 91019=
07149,1998-07-21 06:00:00,18,1010.1,1.7,88,16,7000,22.224,,,210,17.7,31.9,,,,,,,,51,wg-a,,,,AAXX 21064 07149 02357 82112 10180 20160 39996 40101 53017 61000 75198 887// 90600 333 10319 20177 6001=
07149,1998-07-21 09:00:00,20,1011.7,1.6,78,16,16000,29.632,,,220,,,,1,,,,,,1,wg-a,,,,AAXX 21094 07149 12466 72216 10200 20160 30012 40117 51016 60017 70165 872// 90900=
07149,1998-07-21 12:00:00,22,1013.2,1.6,57,13,500,22.224,,,280,,,,,,,,,,1,wg-a,,,,AAXX 21124 07149 12500 32812 10220 20130 30028 40132 53016 60016 70165 83200 91200=
07149,1998-07-21 15:00:00,24,1014.1,0.9,41,10,500,25.928,,,270,,,,,,,,,,,wg-a,,,,AAXX 21154 07149 12700 32714 10240 20100 30037 40141 51009 60006 83800 91500=
07149,1998-07-21 18:00:00,22,1014.7,0.6,46,10,500,25.928,,,280,17.1,24.6,,,,,,,,15,wg-a,,,,AAXX 21184 07149 12700 52814 10220 20100 30043 40147 53006 60006 71511 84980 91800 333 10246 20171=
07149,1998-07-21 21:00:00,14,1017.9,2.8,88,12,500,11.112,,,240,,,,1,,,,,,1,wg-a,,,,AAXX 21214 07149 12700 12406 10140 20120 30071 40179 51028 60017 70198 81530 92100=
07149,1998-07-22 00:00:00,12,1018.7,0.8,94,11,500,7.408,,,230,,,,,,,,,,3,wg-a,,,,AAXX 22004 07149 12/00 12304 10120 20110 30079 40187 51008 60016 70398 80001 90000=
07149,1998-07-22 03:00:00,12,1019.1,0.4,100,12,500,7.408,,,200,,,,0,,,,,,,wg-a,,,,AAXX 22034 07149 12/00 12004 10120 20120 30083 40191 51004 60007 80001 90300=
07149,1998-07-22 06:00:00,13,1019.6,0.5,88,11,20000,11.112,,,200,11.8,22.1,,,,,2,,,,wg-a,,,,AAXX 22064 07149 02/70 22006 10130 20110 30088 40196 53005 60006 80001 90600 333 10221 20118 60024=
07149,1998-07-22 09:00:00,20,1019.7,0.3,56,11,25000,14.816,,,220,,,,,,,,,,,wg-a,,,,AAXX 22094 07149 12575 12208 10200 20110 30091 40197 51003 60006 81101 90900=
07149,1998-07-22 12:00:00,24,1017.9,-1.6,41,10,500,11.112,,,210,,,,,,,,,,,wg-a,,,,AAXX 22124 07149 12600 /2106 10240 20100 30075 40179 58016 60006 81131 91200=
07149,1998-07-22 15:00:00,26,1016.4,-1.4,37,10,500,18.52,,38.892,230,,,,,,,,,,,wg-a,,,,AAXX 22154 07149 12/00 72310 10260 20100 30061 40164 57014 60006 83032 91500 333 91021=
07149,1998-07-22 18:00:00,26,1015.5,-0.9,30,7,500,18.52,,,230,13.4,26.8,,,,,,,,,wg-a,,,,AAXX 22184 07149 12/00 52310 10260 20070 30052 40155 55009 60006 81082 91800 333 10268 20134=
07149,1998-07-22 21:00:00,22,1015.7,0,46,10,22000,7.408,,,190,,,,,,,,,,60,wg-a,,,,AAXX 22214 07149 02772 71904 10220 20100 30052 40157 50000 61000 76062 84582 92100 333 ////=
07149,1998-07-23 00:00:00,20,1015.2,-0.5,64,13,25000,3.704,,,160,,,,0,,,,,,25,wg-a,,,,AAXX 23004 07149 02775 61602 10200 20130 30047 40152 58005 60016 72586 855/2 90000 333 60007=
07149,1998-07-23 03:00:00,18,1014.5,-0.8,73,13,25000,11.112,,,220,,,,,,,,,,,wg-a,,,,AAXX 23034 07149 12775 72206 10180 20130 30039 40145 56008 60006 83572 90300=
07149,1998-07-23 06:00:00,17,1015.8,1.3,88,15,12000,18.52,,,250,16.9,25.4,,,,,,,,61,wg-a,,,,AAXX 23064 07149 02462 82510 10170 20150 30052 40158 53013 61000 76162 8482/ 90600 333 10254 20169 6001=
07149,1998-07-23 09:00:00,19,1016.8,1,73,14,20000,18.52,,,250,,,,0,,,,,,1,wg-a,,,,AAXX 23094 07149 12470 72510 10190 20140 30062 40168 51010 60007 70162 8387/ 90900=
07149,1998-07-23 12:00:00,19,1017.5,0.7,73,14,20000,14.816,,,300,,,,,,,,,,61,wg-a,,,,AAXX 23124 07149 02570 73008 10190 20140 30069 40175 50007 60006 76162 8687/ 91200 333 61000=
07149,1998-07-23 15:00:00,20,1018,0.5,73,15,25000,22.224,,,260,,,,1,,,,,,1,wg-a,,,,AAXX 23154 07149 12575 72612 10200 20150 30074 40180 52005 60017 70162 878// 91500=
07149,1998-07-23 18:00:00,20,1018.5,0.5,73,15,25000,22.224,,,270,16.8,20.3,,,,,,,,2,wg-a,,,,AAXX 23184 07149 12575 72712 10200 20150 30079 40185 53005 60006 70262 8287/ 91800 333 10203 20168=
07149,1998-07-23 21:00:00,18,1019.6,1.1,83,15,25000,11.112,,,250,,,,0,,,,,,60,wg-a,,,,AAXX 23214 07149 12575 72506 10180 20150 30090 40196 53011 60007 76062 8283/ 92100=
07149,1998-07-24 00:00:00,18,1019.7,0.1,88,16,22000,11.112,,,340,,,,0,,,,,,1,wg-a,,,,AAXX 24004 07149 02672 /3406 10180 20160 30091 40197 53001 60016 70162 82831 90000 333 60007=
07149,1998-07-24 03:00:00,17,1020.5,0.7,77,13,22000,11.112,,,10,,,,,,,,,,,wg-a,,,,AAXX 24034 07149 12572 70106 10170 20130 30098 40205 51007 60006 875// 90300=
07149,1998-07-24 06:00:00,17,1021.2,0.7,72,12,25000,11.112,,,340,16.2,19.7,,,,,1,,,,wg-a,,,,AAXX 24064 07149 02675 73406 10170 20120 30105 40212 53007 60006 85531 90600 333 10197 20162 60014=
07149,1998-07-24 09:00:00,19,1021.5,0.4,68,13,25000,7.408,,,20,,,,,,,,,,,wg-a,,,,AAXX 24094 07149 12575 70204 10190 20130 30109 40215 51004 60006 84831 90900=
07149,1998-07-24 12:00:00,24,1021,-0.4,44,11,25000,7.408,,,360,,,,,,,,,,,wg-a,,,,AAXX 24124 07149 12675 /3604 10240 20110 30105 40210 56004 60006 82831 91200=
07149,1998-07-24 15:00:00,24,1020.2,-0.7,38,9,500,11.112,,,350,,,,,,,,,,,wg-a,,,,AAXX 24154 07149 12700 53506 10240 20090 30098 40202 56007 60006 81132 91500=
07149,1998-07-24 18:00:00,23,1020.4,0.1,41,9,500,14.816,,,20,16.4,25.2,,,,,,,,,wg-a,,,,AAXX 24184 07149 12700 60208 10230 20090 30099 40204 53001 60006 81132 91800 333 10252 20164=
07149,1998-07-24 21:00:00,19,1022.4,1.8,49,8,500,18.52,,,20,,,,,,,,,,,wg-a,,,,AAXX 24214 07149 12/00 10210 10190 20080 30117 40224 53018 60006 81031 92100=
07149,1998-07-25 00:00:00,14,1023,0.5,67,8,500,11.112,,,30,,,,,,,,,,,wg-a,,,,AAXX 25004 07149 12/00 00306 10140 20080 30122 40230 51005 60006 80000 90000=
07149,1998-07-25 03:00:00,13,1022.9,-0.2,77,9,500,14.816,,,10,,,,,,,,,,,wg-a,,,,AAXX 25034 07149 12/00 00108 10130 20090 30120 40229 58002 60006 80000 90300=
07149,1998-07-25 06:00:00,14,1023.3,0.5,77,10,16000,11.112,,,30,12.1,22.8,,,,,,,,,wg-a,,,,AAXX 25064 07149 02/66 10306 10140 20100 30125 40233 53005 60006 80001 90600 333 10228 20121 60004=
07149,1998-07-25 09:00:00,19,1023.3,0.2,46,7,18000,14.816,,,40,,,,,,,,,,,wg-a,,,,AAXX 25094 07149 12/68 00408 10190 20070 30127 40233 50002 60006 80000 90900=
07149,1998-07-25 12:00:00,23,1022.2,-1,33,6,25000,14.816,,,50,,,,,,,,,,,wg-a,,,,AAXX 25124 07149 12775 20508 10230 20060 30117 40222 58010 60006 81101 91200=
07149,1998-07-25 15:00:00,24,1020.8,-1.3,29,5,25000,14.816,,,20,,,,,,,,,,,wg-a,,,,AAXX 25154 07149 12775 60208 10240 20050 30104 40208 56013 60006 81101 91500=
07149,1998-07-25 18:00:00,23,1020,-0.9,36,7,25000,14.816,,,50,14.3,24.6,,,,,,,,,wg-a,,,,AAXX 25184 07149 12/75 60508 10230 20070 30095 40200 56009 60006 80002 91800 333 10246 20143=
07149,1998-07-25 21:00:00,18,1020.1,-0.1,49,7,25000,7.408,,,70,,,,,,,,,,,wg-a,,,,AAXX 25214 07149 12/75 50704 10180 20070 30094 40201 55001 60006 80002 92100=
07149,1998-07-26 00:00:00,16,1019.4,-0.7,55,7,25000,11.112,,,70,,,,,,,,,,,wg-a,,,,AAXX 26004 07149 12/75 30706 10160 20070 30087 40194 56007 60006 80001 90000=
07149,1998-07-26 03:00:00,13,1018.4,-1.1,67,7,20000,7.408,,,80,,,,,,,,,,,wg-a,,,,AAXX 26034 07149 12/70 00804 10130 20070 30076 40184 58011 60006 80000 90300=
07149,1998-07-26 06:00:00,15,1017.7,-0.6,63,8,25000,3.704,,,60,11.2,22.8,,,,,,,,,wg-a,,,,AAXX 26064 07149 02/75 40602 10150 20080 30070 40177 56006 60006 80002 90600 333 10228 20112 60004=
07149,1998-07-26 09:00:00,22,1016.3,-1.2,38,7,25000,3.704,,,60,,,,,,,,,,,wg-a,,,,AAXX 26094 07149 12/75 70602 10220 20070 30058 40163 58012 60006 82082 90900=
07149,1998-07-26 12:00:00,24,1015.1,-1.1,31,6,25000,3.704,,,60,,,,,,,,,,,wg-a,,,,AAXX 26124 07149 12/75 70602 10240 20060 30047 40151 58011 60006 82082 91200=
07149,1998-07-26 15:00:00,25,1014.2,-0.9,28,5,25000,11.112,,,310,,,,,,,,,,,wg-a,,,,AAXX 26154 07149 12775 73106 10250 20050 30038 40142 57009 60006 81582 91500=
07149,1998-07-26 18:00:00,23,1012.9,-1.3,33,6,25000,7.408,,,80,15,25.9,,,,,,,,,wg-a,,,,AAXX 26184 07149 12/75 70804 10230 20060 30025 40129 58013 60006 8707/ 91800 333 10259 20150=
07149,1998-07-26 21:00:00,17,1013.7,0.6,59,9,25000,7.408,,,120,,,,,,,,,,,wg-a,,,,AAXX 26214 07149 12/75 31204 10170 20090 30031 40137 52006 60006 83040 92100=
07149,1998-07-27 00:00:00,14,1013.2,-0.6,77,10,25000,3.704,,,250,,,,,,,,,,,wg-a,,,,AAXX 27004 07149 12/75 02502 10140 20100 30025 40132 58006 60006 80000 90000=
07149,1998-07-27 03:00:00,12,1012,-1.3,88,10,25000,0,,,0,,,,,,,,,,,wg-a,,,,AAXX 27034 07149 12775 40000 10120 20100 30012 40120 56013 60006 82580 90300=
07149,1998-07-27 06:00:00,16,1011.9,0.1,72,11,16000,3.704,,,100,11.8,23.5,,,,,,,,,wg-a,,,,AAXX 27064 07149 02766 71002 10160 20110 30013 40119 52001 60006 83581 90600 333 10235 20118 60004=
07149,1998-07-27 09:00:00,21,1012.2,0.4,49,10,16000,11.112,,,220,,,,,,,,,,,wg-a,,,,AAXX 27094 07149 12766 82206 10210 20100 30017 40122 53004 60006 8458/ 90900=
07149,1998-07-27 12:00:00,18,1013,0.7,77,14,18000,7.408,,,220,,,,0,,,,,,21,wg-a,,,,AAXX 27124 07149 02668 72204 10180 20140 30024 40130 51007 60016 72162 8588/ 91200 333 60007=
07149,1998-07-27 15:00:00,22,1012.6,-0.2,60,14,18000,3.704,,,290,,,,0,,,,,,1,wg-a,,,,AAXX 27154 07149 12568 72902 10220 20140 30022 40126 56002 60007 70162 83831 91500=
07149,1998-07-27 18:00:00,20,1013.2,0.5,64,13,20000,22.224,,,310,15.6,22.8,,,,,,,,3,wg-a,,,,AAXX 27184 07149 12570 73112 10200 20130 30027 40132 53005 60006 70362 85801 91800 333 10228 20156=
07149,1998-07-27 21:00:00,17,1015.1,1.8,77,13,20000,14.816,,,300,,,,,,,,,,,wg-a,,,,AAXX 27214 07149 12670 43008 10170 20130 30045 40151 52018 60006 83180 92100=
07149,1998-07-28 00:00:00,15,1016,0.8,82,12,20000,11.112,,,290,,,,,,,,,,,wg-a,,,,AAXX 28004 07149 12770 42906 10150 20120 30053 40160 51008 60006 84500 90000=
07149,1998-07-28 03:00:00,15,1015.4,-0.6,82,12,20000,11.112,,,270,,,,,,,,,,,wg-a,,,,AAXX 28034 07149 12670 72706 10150 20120 30047 40154 58006 60006 8583/ 90300=
07149,1998-07-28 06:00:00,14,1015.3,-0.1,88,12,15000,14.816,,,260,13.5,20.3,,,,,1,,,,wg-a,,,,AAXX 28064 07149 02465 72608 10140 20120 30046 40153 58001 60006 8483/ 90600 333 10203 20135 60014=
07149,1998-07-28 09:00:00,17,1015.1,-0.1,68,11,20000,18.52,,,250,,,,,,,,,,,wg-a,,,,AAXX 28094 07149 12470 72510 10170 20110 30045 40151 58001 60006 878// 90900=
07149,1998-07-28 12:00:00,17,1014.6,-0.5,72,12,20000,29.632,,,250,,,,,,,,,,25,wg-a,,,,AAXX 28124 07149 02570 82516 10170 20120 30040 40146 55005 61000 72586 8583/ 91200 333 6100=
07149,1998-07-28 15:00:00,17,1013.7,-0.9,77,13,14000,25.928,,,230,,,,,,,,,,60,wg-a,,,,AAXX 28154 07149 02464 82314 10170 20130 30031 40137 56009 61000 76062 8583/ 91500 333 ////=
07149,1998-07-28 18:00:00,16,1012.6,-1.1,94,15,4000,14.816,,,200,14.2,18.8,,,,,,,,51,wg-a,,,,AAXX 28184 07149 02240 82008 10160 20150 30020 40126 56011 61000 75165 877// 91800 333 10188 20142 6100=
07149,1998-07-28 21:00:00,16,1012.1,-0.5,100,16,25000,7.408,,,210,,,,,,,,,,1,wg-a,,,,AAXX 28214 07149 02275 72104 10160 20160 30015 40121 57005 61000 70152 878// 92100 333 ////=
07149,1998-07-29 00:00:00,16,1012.1,-0,94,15,25000,11.112,,,240,,,,,,,,,,1,wg-a,,,,AAXX 29004 07149 02275 /2406 10160 20150 30015 40121 54000 61000 70152 85800 90000 333 ////=
07149,1998-07-29 03:00:00,17,1011.7,-0.4,88,15,25000,14.816,,,250,,,,,,,,,,,wg-a,,,,AAXX 29034 07149 12375 72508 10170 20150 30011 40117 56004 60006 875// 90300=
07149,1998-07-29 06:00:00,17,1011.9,0.2,88,15,8000,18.52,,,260,15.7,16.7,,,,,,,,20,wg-a,,,,AAXX 29064 07149 02258 82610 10170 20150 30013 40119 53002 61000 72052 877// 90600 333 10167 20157 6000=
07149,1998-07-29 09:00:00,18,1013,1.1,68,12,20000,25.928,,,280,,,,,,,,,,,wg-a,,,,AAXX 29094 07149 12570 72814 10180 20120 30024 40130 51011 60006 878// 90900=
07149,1998-07-29 12:00:00,20,1011.9,-1,60,12,22000,29.632,,,250,,,,,,,,,,,wg-a,,,,AAXX 29124 07149 12572 /2516 10200 20120 30014 40119 58010 60006 84431 91200=
07149,1998-07-29 15:00:00,21,1010.6,-1.2,56,12,18000,29.632,,,240,,,,,,,,,,21,wg-a,,,,AAXX 29154 07149 02568 72416 10210 20120 30002 40106 56012 61000 72162 878// 91500 333 ////=
07149,1998-07-29 18:00:00,20,1010,-0.7,68,14,20000,31.484,,,250,16.5,21.5,,,,,,,,3,wg-a,,,,AAXX 29184 07149 02570 82517 10200 20140 39995 40100 56007 60006 70362 875// 91800 333 10215 20165 61000=
07149,1998-07-30 00:00:00,16,1011.2,0.1,88,14,22000,22.224,,,270,,,,,,,,,,1,wg-a,,,,AAXX 30004 07149 02472 72712 10160 20140 30006 40112 52001 60006 70186 84501 90000 333 61000=
07149,1998-07-30 03:00:00,14,1011.1,-0.2,88,12,20000,14.816,,,260,,,,,,,,,,,wg-a,,,,AAXX 30034 07149 12670 62608 10140 20120 30004 40111 58002 60006 83502 90300=
07149,1998-07-30 06:00:00,14,1011.8,0.7,88,12,25000,18.52,,,280,12.6,19.8,,,,,,,,,wg-a,,,,AAXX 30064 07149 02475 62810 10140 20120 30011 40118 53007 60006 83801 90600 333 10198 20126 60004=
07149,1998-07-30 09:00:00,18,1011.5,-0.1,64,11,25000,25.928,,,260,,,,0,,,,,,,wg-a,,,,AAXX 30094 07149 12575 52614 10180 20110 30010 40115 58001 60007 85800 90900=
07149,1998-07-30 12:00:00,20,1011.7,0.2,46,8,500,22.224,,,280,,,,,,,,,,,wg-a,,,,AAXX 30124 07149 12600 42812 10200 20080 30012 40117 52002 60006 84800 91200=
07149,1998-07-30 15:00:00,23,1011.4,-0.2,38,8,500,25.928,,,270,,,,,,,,,,,wg-a,,,,AAXX 30154 07149 12700 42714 10230 20080 30010 40114 56002 60006 84800 91500=
07149,1998-07-30 18:00:00,21,1011.8,0.3,43,8,500,25.928,,,290,14.1,23.7,,,,,,,,,wg-a,,,,AAXX 30184 07149 12700 32914 10210 20080 30013 40118 53003 60006 83100 91800 333 10237 20141=
07149,1998-07-30 21:00:00,17,1013.8,1.9,55,8,25000,14.816,,,300,,,,,,,,,,,wg-a,,,,AAXX 30214 07149 12/75 13008 10170 20080 30032 40138 53019 60006 80001 92100=
07149,1998-07-31 00:00:00,14,1014.4,0.5,67,8,25000,18.52,,,280,,,,,,,,,,,wg-a,,,,AAXX 31004 07149 12775 12810 10140 20080 30037 40144 51005 60006 81500 90000=
07149,1998-07-31 03:00:00,11,1015.3,0.7,87,9,25000,11.112,,,250,,,,,,,,,,,wg-a,,,,AAXX 31034 07149 12/75 12506 10110 20090 30044 40153 53007 60006 81030 90300=
07149,1998-07-31 06:00:00,13,1015.9,0.7,82,10,25000,14.816,,,260,10.6,21.4,,,,,,,,,wg-a,,,,AAXX 31064 07149 02475 /2608 10130 20100 30051 40159 53007 60006 81500 90600 333 10214 20106 60004=
07149,1998-07-31 09:00:00,19,1016.5,0.8,60,11,25000,14.816,,,270,,,,,,,,,,,wg-a,,,,AAXX 31094 07149 12575 42708 10190 20110 30059 40165 52008 60006 83101 90900=
07149,1998-07-31 12:00:00,21,1016.5,0.1,49,10,25000,7.408,,,290,,,,,,,,,,,wg-a,,,,AAXX 31124 07149 12675 62904 10210 20100 30060 40165 51001 60006 86801 91200=
07149,1998-07-31 15:00:00,23,1016.2,-0.3,38,8,25000,7.408,,25.928,230,,,,,,,,,,,wg-a,,,,AAXX 31154 07149 12675 52304 10230 20080 30057 40162 58003 60006 85800 91500 333 91014=
07149,1998-07-31 18:00:00,22,1016.2,-0,41,8,25000,14.816,,,310,13,24.2,,,,,,,,,wg-a,,,,AAXX 31184 07149 12775 53108 10220 20080 30057 40162 54000 60006 83831 91800 333 10242 20130=
07149,1998-07-31 21:00:00,19,1017.4,1.1,52,9,25000,11.112,,,350,,,,,,,,,,,wg-a,,,,AAXX 31214 07149 12875 63506 10190 20090 30068 40174 52011 60006 86500 92100=
07149,1998-08-01 00:00:00,18,1017.4,0,64,11,25000,7.408,,,340,,,,,,,,,,,wg-a,,,,AAXX 01004 07149 12775 /3404 10180 20110 30068 40174 50000 60006 86500 90000=
07149,1998-08-01 03:00:00,14,1016.5,-1,88,12,18000,7.408,,,20,,,,,,,,,,1,wg-a,,,,AAXX 01034 07149 02768 50204 10140 20120 30058 40165 58010 61000 70162 825/1 90300 333 ////=
07149,1998-08-01 06:00:00,16,1016.6,0.1,77,12,16000,11.112,,,30,13.8,21.8,,,,,,,,1,wg-a,,,,AAXX 01064 07149 02/66 70306 10160 20120 30059 40166 52001 60006 70162 83032 90600 333 10218 20138 61000=
07149,1998-08-01 09:00:00,18,1016.6,0.1,68,12,18000,11.112,,,30,,,,,,,,,,,wg-a,,,,AAXX 01094 07149 12/68 70306 10180 20120 30060 40166 53001 60006 85032 90900=
07149,1998-08-01 12:00:00,22,1016.2,-0.3,53,12,20000,11.112,,,50,,,,,,,,,,,wg-a,,,,AAXX 01124 07149 12570 70506 10220 20120 30057 40162 58003 60006 83832 91200=
07149,1998-08-01 15:00:00,24,1015.1,-1,41,10,22000,14.816,,,100,,,,,,,,,,,wg-a,,,,AAXX 01154 07149 12672 /1008 10240 20100 30047 40151 56010 60006 83282 91500=
07149,1998-08-01 18:00:00,15,1017,1.6,82,12,8000,29.632,,,300,15.3,24.5,,,,,,,,17,wg-a,,,,AAXX 01184 07149 02558 73016 10150 20120 30063 40170 53016 61000 71798 86902 91800 333 10245 20153 6100=
07149,1998-08-01 21:00:00,15,1018.1,1.1,88,13,17000,11.112,,,20,,,,1,,,,,,3,wg-a,,,,AAXX 01214 07149 12267 70206 10150 20130 30074 40181 51011 60017 70398 875// 92100=
07149,1998-08-02 00:00:00,14,1018.2,0,94,13,15000,3.704,,,50,,,,,,,,,,2,wg-a,,,,AAXX 02004 07149 12765 70502 10140 20130 30074 40182 50000 60016 70298 875// 90000=
07149,1998-08-02 03:00:00,13,1018.3,0.1,94,12,11000,0,,,0,,,,,,,,,,,wg-a,,,,AAXX 02034 07149 12761 70000 10130 20120 30075 40183 52001 60006 875// 90300=
07149,1998-08-02 06:00:00,14,1019.5,1.2,94,13,9000,7.408,,,40,13.2,15.4,,,,,,,,60,wg-a,,,,AAXX 02064 07149 02659 70404 10140 20130 30087 40195 51012 61000 76062 8487/ 90600 333 10154 20132 6001=
07149,1998-08-02 09:00:00,17,1020,0.6,77,13,12000,7.408,,,10,,,,,,,,,,60,wg-a,,,,AAXX 02094 07149 02562 /0104 10170 20130 30093 40200 51006 61000 76062 84880 90900 333 ////=
07149,1998-08-02 12:00:00,20,1019.9,0,64,13,14000,14.816,,,30,,,,0,,,,,,3,wg-a,,,,AAXX 02124 07149 02564 70308 10200 20130 30093 40199 50000 60006 70362 8638/ 91200 333 60007=
07149,1998-08-02 15:00:00,18,1019.8,-0.1,77,14,11000,7.408,,,340,,,,8,,,,,,80,wg-a,,,,AAXX 02154 07149 12561 /3404 10180 20140 30092 40198 58001 60087 78098 83983 91500=
07149,1998-08-02 18:00:00,17,1021.1,1.2,77,13,13000,7.408,,,100,14.2,21.3,,,,,,,,17,wg-a,,,,AAXX 02184 07149 02563 71004 10170 20130 30104 40211 53012 60006 71798 879// 91800 333 10213 20142 61000=
07149,1998-08-02 21:00:00,14,1022.4,1.2,88,12,13000,0,,,0,,,,,,,,,,1,wg-a,,,,AAXX 02214 07149 02663 20000 10140 20120 30116 40224 51012 61000 70198 81801 92100 333 ////=
07149,1998-08-03 00:00:00,14,1023,0.6,94,13,8000,11.112,,,350,,,,0,,,,,,2,wg-a,,,,AAXX 03004 07149 02758 /3506 10140 20130 30122 40230 50006 60006 70298 81500 90000 333 60007=
07149,1998-08-03 03:00:00,12,1023.5,0.4,94,11,500,7.408,,,20,,,,,,,,,,40,wg-a,,,,AAXX 03034 07149 12/00 /0204 10120 20110 30126 40235 53004 60006 74000 80001 90300=
07149,1998-08-03 06:00:00,13,1024.6,1.1,100,13,3000,7.408,,,310,10.8,17,,,,,8,,,11,wg-a,,,,AAXX 03064 07149 02230 /3104 10130 20130 30137 40246 51011 60006 71100 81701 90600 333 10170 20108 60084=
07149,1998-08-03 09:00:00,19,1024.8,0.5,68,13,8000,7.408,,,300,,,,,,,,,,,wg-a,,,,AAXX 03094 07149 12458 43004 10190 20130 30142 40248 50005 60006 82101 90900=
07149,1998-08-03 12:00:00,23,1024.1,-0.6,50,12,17000,14.816,,,230,,,,,,,,,,,wg-a,,,,AAXX 03124 07149 12667 52308 10230 20120 30136 40241 58006 60006 84201 91200=
07149,1998-08-03 15:00:00,25,1023,-1,39,10,25000,14.816,,,300,,,,,,,,,,,wg-a,,,,AAXX 03154 07149 12775 33008 10250 20100 30126 40230 58010 60006 81401 91500=
07149,1998-08-03 18:00:00,24,1022.5,-0.6,34,7,25000,14.816,,,270,13,25.4,,,,,,,,,wg-a,,,,AAXX 03184 07149 12/75 32708 10240 20070 30120 40225 55006 60006 81031 91800 333 10254 20130=
07149,1998-08-03 21:00:00,19,1023.2,0.6,56,10,25000,11.112,,,290,,,,,,,,,,,wg-a,,,,AAXX 03214 07149 12775 52906 10190 20100 30126 40232 53006 60006 84531 92100=
07149,1998-08-04 00:00:00,19,1022.7,-0.5,60,11,25000,18.52,,,280,,,,,,,,,,,wg-a,,,,AAXX 04004 07149 12775 42810 10190 20110 30121 40227 58005 60006 82531 90000=
07149,1998-08-04 03:00:00,18,1022.9,0.1,73,13,25000,14.816,,,280,,,,,,,,,,,wg-a,,,,AAXX 04034 07149 12475 72808 10180 20130 30122 40229 53001 60006 8553/ 90300=
07149,1998-08-04 06:00:00,17,1023.4,0.5,94,16,12000,14.816,,,230,16.3,24.6,,,,,,,,60,wg-a,,,,AAXX 04064 07149 02362 72308 10170 20160 30127 40234 53005 61000 76065 8557/ 90600 333 10246 20163 6000=
07149,1998-08-04 09:00:00,20,1024.5,1.2,78,16,20000,18.52,,,310,,,,,,,,,,1,wg-a,,,,AAXX 04094 07149 02470 73110 10200 20160 30139 40245 52012 61000 70162 878// 90900 333 ////=
07149,1998-08-04 12:00:00,22,1025.6,1.2,69,16,20000,14.816,,,330,,,,,,,,,,21,wg-a,,,,AAXX 04124 07149 02470 /3308 10220 20160 30151 40256 51012 61000 72162 86800 91200 333 6100=
07149,1998-08-04 18:00:00,23,1026.5,0.9,44,10,25000,18.52,,,360,16.8,25.7,,,,,,,,,wg-a,,,,AAXX 04184 07149 12/75 13610 10230 20100 30160 40265 53009 60006 80001 91800 333 10257 20168=
07149,1998-08-04 21:00:00,18,1029.4,2.7,56,9,25000,14.816,,,360,,,,,,,,,,,wg-a,,,,AAXX 04214 07149 12/75 03608 10180 20090 30187 40294 53027 60006 80000 92100=
07149,1998-08-05 00:00:00,13,1030.4,0.8,77,9,22000,7.408,,,10,,,,,,,,,,,wg-a,,,,AAXX 05004 07149 12/72 00104 10130 20090 30195 40304 51008 60006 80000 90000=
07149,1998-08-05 03:00:00,12,1030.3,-0.2,88,10,20000,0,,,0,,,,,,,,,,,wg-a,,,,AAXX 05034 07149 12/70 00000 10120 20100 30193 40303 58002 60006 80000 90300=
07149,1998-08-05 06:00:00,13,1030.8,0.6,94,12,13000,7.408,,,330,9.8,22.8,,,,,,,,,wg-a,,,,AAXX 05064 07149 02/63 03304 10130 20120 30199 40308 53006 60006 80000 90600 333 10228 20098 61000=
07149,1998-08-05 09:00:00,21,1031.5,0.9,53,11,15000,7.408,,,310,,,,,,,,,,,wg-a,,,,AAXX 05094 07149 12665 13104 10210 20110 30208 40315 51009 60006 81101 90900=
07149,1998-08-05 12:00:00,24,1030.3,-1,41,10,25000,14.816,,,340,,,,,,,,,,,wg-a,,,,AAXX 05124 07149 12675 /3408 10240 20100 30198 40303 58010 60006 81100 91200=
07149,1998-08-05 15:00:00,26,1029.3,-1,37,10,25000,7.408,,,40,,,,,,,,,,,wg-a,,,,AAXX 05154 07149 12775 10404 10260 20100 30188 40293 58010 60006 81100 91500=
07149,1998-08-05 18:00:00,26,1028.2,-1.1,37,10,25000,7.408,,,40,13.1,27.1,,,,,,,,,wg-a,,,,AAXX 05184 07149 12775 10404 10260 20100 30177 40282 56011 60006 81500 91800 333 10271 20131=
07149,1998-08-05 21:00:00,22,1028.7,0.4,50,11,18000,18.52,,,10,,,,,,,,,,,wg-a,,,,AAXX 05214 07149 12/68 00110 10220 20110 30181 40287 53004 60006 80000 92100=
07149,1998-08-06 03:00:00,15,1028.6,-0.4,55,6,10000,11.112,,,350,,,,,,,,,,,wg-a,,,,AAXX 06034 07149 12/60 /3506 10150 20060 30177 40286 56004 60006 90300=
07149,1998-08-06 06:00:00,14,1028.1,-0.5,72,9,25000,0,,,0,11.9,25.5,,,,,,,,,wg-a,,,,AAXX 06064 07149 02/75 00000 10140 20090 30172 40281 56005 60006 80000 90600 333 10255 20119 60004=
07149,1998-08-06 09:00:00,23,1027.6,-0.2,31,5,23000,3.704,,,60,,,,,,,,,,,wg-a,,,,AAXX 06094 07149 12/73 00602 10230 20050 30170 40276 58002 60006 80000 90900=
07149,1998-08-06 12:00:00,26,1026.2,-1.2,32,8,22000,7.408,,,310,,,,,,,,,,,wg-a,,,,AAXX 06124 07149 12772 13104 10260 20080 30158 40262 58012 60006 81500 91200=
07149,1998-08-06 15:00:00,27,1024.8,-1.4,28,7,25000,11.112,,,360,,,,,,,,,,,wg-a,,,,AAXX 06154 07149 12/75 23606 10270 20070 30144 40248 58014 60006 80002 91500=
07149,1998-08-06 18:00:00,27,1024,-0.8,20,2,25000,11.112,,,350,13.7,28.4,,,,,,,,,wg-a,,,,AAXX 06184 07149 12/75 33506 10270 20020 30136 40240 56008 60006 80002 91800 333 10284 20137=
07149,1998-08-06 21:00:00,22,1024.8,0.6,35,6,25000,7.408,,,320,,,,,,,,,,,wg-a,,,,AAXX 06214 07149 12/75 03204 10220 20060 30142 40248 53006 60006 80000 92100=
07149,1998-08-07 00:00:00,17,1024.4,-0.5,63,10,20000,11.112,,,30,,,,,,,,,,,wg-a,,,,AAXX 07004 07149 12/70 00306 10170 20100 30137 40244 58005 60006 80000 90000=
07149,1998-08-07 03:00:00,13,1024.3,-0.3,82,10,20000,3.704,,,40,,,,,,,,,,,wg-a,,,,AAXX 07034 07149 12/70 00402 10130 20100 30134 40243 55003 60006 80000 90300=
07149,1998-08-07 06:00:00,16,1024.4,0.2,77,12,17000,7.408,,,40,12.3,27,,,,,,,,,wg-a,,,,AAXX 07064 07149 02/67 10404 10160 20120 30136 40244 53002 60006 80001 90600 333 10270 20123 60004=
07149,1998-08-07 09:00:00,24,1024.1,0,34,7,22000,3.704,,,30,,,,,,,,,,,wg-a,,,,AAXX 07094 07149 12/72 10302 10240 20070 30136 40241 50000 60006 80001 90900=
07149,1998-08-07 12:00:00,28,1023,-0.9,27,7,22000,3.704,,,50,,,,,,,,,,,wg-a,,,,AAXX 07124 07149 12/72 10502 10280 20070 30127 40230 58009 60006 80001 91200=
07149,1998-08-07 15:00:00,31,1021.2,-1.7,22,7,25000,11.112,,,40,,,,,,,,,,,wg-a,,,,AAXX 07154 07149 12/75 10406 10310 20070 30110 40212 56017 60006 80001 91500=
07149,1998-08-07 18:00:00,29,1020.4,-0.9,31,10,28000,11.112,,,50,15.6,31.2,,,,,,,,,wg-a,,,,AAXX 07184 07149 12/78 10506 10290 20100 30101 40204 56009 60006 80001 91800 333 10312 20156=
07149,1998-08-08 00:00:00,20,1020.3,-0.7,68,14,25000,7.408,,,50,,,,,,,,,,,wg-a,,,,AAXX 08004 07149 12/75 10504 10200 20140 30097 40203 58007 60006 80001 90000=
07149,1998-08-08 03:00:00,17,1019.5,-0.9,77,13,20000,7.408,,,40,,,,,,,,,,,wg-a,,,,AAXX 08034 07149 12/70 00404 10170 20130 30088 40195 58009 60006 80000 90300=
07149,1998-08-08 09:00:00,27,1017.9,-0.5,48,15,20000,7.408,,,50,,,,,,,,,,,wg-a,,,,AAXX 08094 07149 12/70 00504 10270 20150 30076 40179 58005 60006 80000 90900=
07149,1998-08-08 12:00:00,33,1016.4,-1.3,28,12,20000,7.408,,,110,,,,,,,,,,,wg-a,,,,AAXX 08124 07149 12/70 01104 10330 20120 30063 40164 58013 60006 80000 91200=
07149,1998-08-08 15:00:00,36,1014.4,-1.9,17,7,25000,11.112,,,140,,,,,,,,,,,wg-a,,,,AAXX 08154 07149 12/75 01406 10360 20070 30044 40144 57019 60006 80000 91500=
07149,1998-08-08 18:00:00,34,1013.5,-0.9,25,11,28000,11.112,,,90,18.2,35.9,,,,,,,,,wg-a,,,,AAXX 08184 07149 12/78 00906 10340 20110 30035 40135 56009 60006 80000 91800 333 10359 20182=
07149,1998-08-08 21:00:00,25,1014.5,0.7,44,12,10000,11.112,,,40,,,,,,,,,,,wg-a,,,,AAXX 08214 07149 12/60 /0406 10250 20120 30042 40145 53007 60006 92100=
07149,1998-08-09 00:00:00,22,1015.1,0.5,57,13,25000,11.112,,,40,,,,,,,,,,,wg-a,,,,AAXX 09004 07149 12/75 00406 10220 20130 30047 40151 53005 60006 80000 90000=
07149,1998-08-09 03:00:00,20,1015.3,0.1,73,15,25000,7.408,,,50,,,,,,,,,,,wg-a,,,,AAXX 09034 07149 12/75 00504 10200 20150 30048 40153 53001 60006 80000 90300=
07149,1998-08-09 06:00:00,21,1015.5,0.2,73,16,23000,14.816,,,40,16.7,33.7,,,,,,,,,wg-a,,,,AAXX 09064 07149 02/73 10408 10210 20160 30050 40155 53002 60006 80001 90600 333 10337 20167 60004=
07149,1998-08-09 09:00:00,27,1015.7,0.4,51,16,23000,7.408,,,40,,,,,,,,,,,wg-a,,,,AAXX 09094 07149 12/73 00404 10270 20160 30054 40157 51004 60006 80000 90900=
07149,1998-08-09 12:00:00,33,1015.3,-0.2,26,11,23000,7.408,,,360,,,,,,,,,,,wg-a,,,,AAXX 09124 07149 12/73 03604 10330 20110 30052 40153 58002 60006 80000 91200=
07149,1998-08-09 15:00:00,35,1013.7,-1.5,19,8,25000,3.704,,,150,,,,,,,,,,,wg-a,,,,AAXX 09154 07149 12/75 01502 10350 20080 30037 40137 58015 60006 80000 91500=
07149,1998-08-09 18:00:00,34,1012.7,-1,22,9,25000,11.112,,,80,20.5,35.8,,,,,,,,,wg-a,,,,AAXX 09184 07149 12/75 00806 10340 20090 30027 40127 56010 60006 80000 91800 333 10358 20205=
07149,1998-08-09 21:00:00,24,1014,0.9,44,11,23000,11.112,,,30,,,,,,,,,,,wg-a,,,,AAXX 09214 07149 12/73 00306 10240 20110 30036 40140 53009 60006 80000 92100=
07149,1998-08-10 00:00:00,24,1014.2,0.2,57,15,23000,3.704,,,60,,,,,,,,,,,wg-a,,,,AAXX 10004 07149 12/73 00602 10240 20150 30038 40142 50002 60006 80000 90000=
07149,1998-08-10 03:00:00,20,1014,-0.3,73,15,10000,3.704,,,50,,,,,,,,,,,wg-a,,,,AAXX 10034 07149 12/60 /0502 10200 20150 30035 40140 58003 60006 90300=
07149,1998-08-10 06:00:00,20,1014.6,0.6,83,17,18000,3.704,,,130,18.4,33.7,,,,,,,,,wg-a,,,,AAXX 10064 07149 02/68 01302 10200 20170 30041 40146 51006 60006 80000 90600 333 10337 20184 60004=
07149,1998-08-10 09:00:00,30,1015.2,0.9,43,16,16000,7.408,,,300,,,,,,,,,,,wg-a,,,,AAXX 10094 07149 12/66 03004 10300 20160 30050 40152 51009 60006 80000 90900=
07149,1998-08-10 12:00:00,35,1015.1,0.1,27,13,18000,7.408,,,230,,,,,,,,,,,wg-a,,,,AAXX 10124 07149 12/68 02304 10350 20130 30051 40151 51001 60006 80000 91200=
07149,1998-08-10 15:00:00,37,1014.5,-0.6,15,6,23000,18.52,,,270,,,,,,,,,,,wg-a,,,,AAXX 10154 07149 12/73 12710 10370 20060 30045 40145 56006 60006 80001 91500=
07149,1998-08-10 18:00:00,34,1014.7,0.1,25,11,22000,7.408,,,20,20.1,37.3,,,,,,,,,wg-a,,,,AAXX 10184 07149 12/72 30204 10340 20110 30046 40147 51001 60006 80001 91800 333 10373 20201=
07149,1998-08-10 21:00:00,24,1016,1,47,12,18000,3.704,,,140,,,,,,,,,,,wg-a,,,,AAXX 10214 07149 12/68 11402 10240 20120 30056 40160 53010 60006 80001 92100=
07149,1998-08-11 00:00:00,21,1017,0.9,60,13,18000,7.408,,,30,,,,,,,,,,,wg-a,,,,AAXX 11004 07149 12/68 10304 10210 20130 30065 40170 52009 60006 80001 90000=
07149,1998-08-11 06:00:00,21,1017,0.3,60,13,18000,0,,,0,18.8,33.6,,,,,,,,,wg-a,,,,AAXX 11064 07149 02/68 10000 10210 20130 30065 40170 53003 60006 80001 90600 333 10336 20188 60004=
07149,1998-08-11 09:00:00,28,1017.1,0.3,40,13,15000,3.704,,,180,,,,,,,,,,,wg-a,,,,AAXX 11094 07149 12/65 11802 10280 20130 30068 40171 53003 60006 80001 90900=
07149,1998-08-11 12:00:00,36,1015.8,-1,24,12,12000,7.408,,,190,,,,,,,,,,,wg-a,,,,AAXX 11124 07149 12/62 11904 10360 20120 30058 40158 58010 60006 80001 91200=
07149,1998-08-11 15:00:00,37,1014.5,-1.2,20,10,14000,11.112,,,210,,,,,,,,,,,wg-a,,,,AAXX 11154 07149 12/64 32106 10370 20100 30046 40145 56012 60006 80001 91500=
07149,1998-08-11 18:00:00,34,1014.5,-0.1,30,14,17000,18.52,,,270,20.7,37.7,,,,,,,,,wg-a,,,,AAXX 11184 07149 12/67 32710 10340 20140 30045 40145 55001 60006 80001 91800 333 10377 20207=
07149,1998-08-11 21:00:00,29,1015.9,1.2,43,15,20000,18.52,,,350,,,,,,,,,,,wg-a,,,,AAXX 11214 07149 12/70 23510 10290 20150 30057 40159 53012 60006 80001 92100=
07149,1998-08-12 00:00:00,24,1016.4,0.3,50,13,20000,14.816,,,330,,,,,,,,,,,wg-a,,,,AAXX 12004 07149 12770 63308 10240 20130 30060 40164 50003 60006 815/1 90000=
07149,1998-08-12 03:00:00,21,1016.3,-0.2,64,14,20000,14.816,,,340,,,,,,,,,,,wg-a,,,,AAXX 12034 07149 12770 73408 10210 20140 30058 40163 56002 60006 835/1 90300=
07149,1998-08-12 06:00:00,21,1016.7,0.4,60,13,18000,14.816,,,330,20.6,34.1,,,,,,,,,wg-a,,,,AAXX 12064 07149 02/68 63308 10210 20130 30062 40167 53004 60006 84081 90600 333 10341 20206 60004=
07149,1998-08-12 09:00:00,24,1017.2,0.6,47,12,16000,14.816,,,330,,,,,,,,,,,wg-a,,,,AAXX 12094 07149 12/66 53308 10240 20120 30068 40172 51006 60006 81081 90900=
07149,1998-08-12 12:00:00,26,1017.1,-0,39,11,20000,7.408,,,260,,,,,,,,,,,wg-a,,,,AAXX 12124 07149 12/70 52604 10260 20110 30068 40171 54000 60006 83081 91200=
07149,1998-08-12 18:00:00,24,1016.6,-0.3,50,13,20000,22.224,,,350,20.8,26.9,,,,,,,,,wg-a,,,,AAXX 12184 07149 12/70 73512 10240 20130 30062 40166 55003 60006 86081 91800 333 10269 20208=
07149,1998-08-12 21:00:00,20,1018.4,1.6,53,10,20000,22.224,,,340,,,,,,,,,,,wg-a,,,,AAXX 12214 07149 12/70 83412 10200 20100 30078 40184 52016 60006 82081 92100=
07149,1998-08-13 00:00:00,16,1019.9,1.4,68,10,28000,14.816,,,350,,,,,,,,,,,wg-a,,,,AAXX 13004 07149 12/78 13508 10160 20100 30092 40199 53014 60006 80001 90000=
07149,1998-08-13 03:00:00,14,1019.1,-0.9,82,11,20000,14.816,,,330,,,,,,,,,,,wg-a,,,,AAXX 13034 07149 12/70 03308 10140 20110 30083 40191 56009 60006 80000 90300=
07149,1998-08-13 06:00:00,14,1019.5,0.4,88,12,20000,14.816,,,340,11.6,23.7,,,,,,,,,wg-a,,,,AAXX 13064 07149 02/70 13408 10140 20120 30087 40195 53004 60006 80001 90600 333 10237 20116 60004=
07149,1998-08-13 09:00:00,20,1019.7,0.4,53,10,20000,11.112,,,360,,,,,,,,,,,wg-a,,,,AAXX 13094 07149 12570 43606 10200 20100 30091 40197 53004 60006 81101 90900=
07149,1998-08-13 12:00:00,22,1019.4,-0.2,35,6,25000,18.52,,,340,,,,,,,,,,,wg-a,,,,AAXX 13124 07149 12675 /3410 10220 20060 30089 40194 58002 60006 81101 91200=
07149,1998-08-13 15:00:00,23,1018.5,-0.9,33,6,500,14.816,,,340,,,,,,,,,,,wg-a,,,,AAXX 13154 07149 12700 63408 10230 20060 30080 40185 56009 60006 814/1 91500=
07149,1998-08-13 18:00:00,22,1017.4,-1.1,38,7,500,14.816,,,330,14.3,24,,,,,,,,,wg-a,,,,AAXX 13184 07149 12/00 53308 10220 20070 30069 40174 56011 60006 80001 91800 333 10240 20143=
07149,1998-08-13 21:00:00,19,1018.5,1,46,7,500,18.52,,,330,,,,,,,,,,,wg-a,,,,AAXX 13214 07149 12/00 53310 10190 20070 30079 40185 52010 60006 80001 92100=
07149,1998-08-14 00:00:00,15,1019,0.3,63,8,25000,7.408,,,300,,,,,,,,,,,wg-a,,,,AAXX 14004 07149 12/75 63004 10150 20080 30082 40190 50003 60006 82031 90000=
07149,1998-08-14 03:00:00,12,1018.3,-0.7,76,8,20000,7.408,,,290,,,,,,,,,,,wg-a,,,,AAXX 14034 07149 12/70 32904 10120 20080 30075 40183 56007 60006 80001 90300=
07149,1998-08-14 06:00:00,13,1017.8,-0.5,77,9,20000,3.704,,,180,11.5,22.5,,,,,,,,,wg-a,,,,AAXX 14064 07149 02/70 31802 10130 20090 30070 40178 56005 60006 80001 90600 333 10225 20115 60004=
07149,1998-08-14 09:00:00,21,1017,-0.5,46,9,17000,3.704,,,80,,,,,,,,,,,wg-a,,,,AAXX 14094 07149 12/67 40802 10210 20090 30065 40170 58005 60006 80001 90900=
07149,1998-08-14 12:00:00,24,1015.9,-1,41,10,17000,3.704,,,250,,,,,,,,,,,wg-a,,,,AAXX 14124 07149 12/67 32502 10240 20100 30055 40159 58010 60006 80001 91200=
07149,1998-08-14 15:00:00,27,1013.8,-2,34,10,25000,7.408,,,140,,,,,,,,,,,wg-a,,,,AAXX 14154 07149 12/75 51404 10270 20100 30035 40138 58020 60006 80001 91500=
07149,1998-08-15 03:00:00,15,1013.7,0,82,12,20000,3.704,,,90,,,,,,,,,,,wg-a,,,,AAXX 15034 07149 12/70 00902 10150 20120 30030 40137 50000 60006 80000 90300=
07149,1998-08-15 06:00:00,15,1014.3,0.6,88,13,22000,3.704,,,220,13.7,26.1,,,,,,,,,wg-a,,,,AAXX 15064 07149 02/72 12202 10150 20130 30036 40143 53006 60006 80001 90600 333 10261 20137 60004=
07149,1998-08-15 09:00:00,24,1015.1,1.1,47,12,22000,7.408,,,320,,,,,,,,,,,wg-a,,,,AAXX 15094 07149 12/72 13204 10240 20120 30047 40151 51011 60006 80001 90900=
07149,1998-08-15 12:00:00,28,1015.1,0.2,37,12,500,11.112,,,310,,,,,,,,,,,wg-a,,,,AAXX 15124 07149 12700 13106 10280 20120 30049 40151 51002 60006 81102 91200=
07149,1998-08-15 15:00:00,29,1015.4,0.3,31,10,27000,14.816,,,270,,,,,,,,,,,wg-a,,,,AAXX 15154 07149 12777 32708 10290 20100 30052 40154 51003 60006 81132 91500=
07149,1998-08-15 18:00:00,28,1015.8,0.3,32,10,27000,11.112,,,350,15,29.8,,,,,,,,,wg-a,,,,AAXX 15184 07149 12/77 63506 10280 20100 30055 40158 53003 60006 80001 91800 333 10298 20150=
07149,1998-08-16 15:00:00,28,1019.7,-1.3,37,12,28000,14.816,,,320,,,,,,,,,,,wg-a,,,,AAXX 16154 07149 12778 43208 10280 20120 30094 40197 57013 60006 81101 91500=
07149,1998-08-16 21:00:00,22,1019.9,0.9,43,9,500,11.112,,,10,,,,,,,,,,,wg-a,,,,AAXX 16214 07149 12/00 30106 10220 20090 30094 40199 53009 60006 80001 92100=
07149,1998-08-17 00:00:00,17,1020,-0.1,59,9,25000,11.112,,,20,,,,,,,,,,,wg-a,,,,AAXX 17004 07149 12/75 00206 10170 20090 30093 40200 58001 60006 80000 90000=
07149,1998-08-17 03:00:00,16,1019.6,-0.4,68,10,20000,7.408,,,20,,,,,,,,,,,wg-a,,,,AAXX 17034 07149 12/70 00204 10160 20100 30089 40196 56004 60006 80000 90300=
07149,1998-08-17 06:00:00,15,1019.6,-0,77,11,17000,3.704,,,30,13.5,27.3,,,,,,,,,wg-a,,,,AAXX 17064 07149 02/67 20302 10150 20110 30089 40196 55000 60006 80001 90600 333 10273 20135 60004=
07149,1998-08-17 09:00:00,22,1019.3,-0.1,46,10,14000,7.408,,,40,,,,,,,,,,,wg-a,,,,AAXX 17094 07149 12/64 00404 10220 20100 30088 40193 58001 60006 80000 90900=
07149,1998-08-17 12:00:00,27,1018.1,-1,37,11,16000,11.112,,,300,,,,,,,,,,,wg-a,,,,AAXX 17124 07149 12/66 13006 10270 20110 30078 40181 58010 60006 80001 91200=
07149,1998-08-17 15:00:00,29,1016.7,-1.3,27,8,28000,11.112,,,320,,,,,,,,,,,wg-a,,,,AAXX 17154 07149 12/78 23206 10290 20080 30065 40167 56013 60006 81081 91500=
07149,1998-08-17 18:00:00,26,1016.1,-0.7,28,6,28000,11.112,,,360,15.4,29.3,,,,,,,,,wg-a,,,,AAXX 17184 07149 12/78 23606 10260 20060 30058 40161 55007 60006 82080 91800 333 10293 20154=
07149,1998-08-17 21:00:00,20,1017.7,1.4,60,12,25000,18.52,,,350,,,,,,,,,,,wg-a,,,,AAXX 17214 07149 12/75 23510 10200 20120 30072 40177 52014 60006 80002 92100=
07149,1998-08-18 03:00:00,16,1018.1,-0.4,77,12,25000,11.112,,,350,,,,,,,,,,,wg-a,,,,AAXX 18034 07149 12/75 53506 10160 20120 30074 40181 58004 60006 81032 90300=
07149,1998-08-18 06:00:00,16,1018.5,0.4,82,13,17000,11.112,,,20,15,26.4,,,,,,,,,wg-a,,,,AAXX 18064 07149 02467 70206 10160 20130 30078 40185 53004 60006 84532 90600 333 10264 20150 60004=
07149,1998-08-18 09:00:00,18,1019.3,0.9,77,14,16000,7.408,,,340,,,,,,,,,,,wg-a,,,,AAXX 18094 07149 12366 73404 10180 20140 30087 40193 51009 60006 875// 90900=
07149,1998-08-18 12:00:00,22,1018.7,-0.5,65,15,18000,11.112,,,340,,,,,,,,,,,wg-a,,,,AAXX 18124 07149 12568 /3406 10220 20150 30082 40187 58005 60006 84500 91200=
07149,1998-08-18 15:00:00,24,1017.7,-0.9,57,15,25000,11.112,,,350,,,,,,,,,,,wg-a,,,,AAXX 18154 07149 12675 23506 10240 20150 30073 40177 56009 60006 82101 91500=
07149,1998-08-18 18:00:00,24,1017.6,-0.1,54,14,28000,22.224,,,330,15.9,26.1,,,,,,,,,wg-a,,,,AAXX 18184 07149 12678 /3312 10240 20140 30072 40176 55001 60006 85800 91800 333 10261 20159=
07149,1998-08-18 21:00:00,22,1019,1.3,57,13,25000,18.52,,,360,,,,,,,,,,,wg-a,,,,AAXX 18214 07149 12675 73610 10220 20130 30085 40190 51013 60006 875// 92100=
07149,1998-08-19 00:00:00,19,1020.1,1,64,12,22000,11.112,,,20,,,,,,,,,,,wg-a,,,,AAXX 19004 07149 12772 60206 10190 20120 30095 40201 51010 60006 86500 90000=
07149,1998-08-19 03:00:00,17,1020.4,0.2,72,12,15000,14.816,,,30,,,,,,,,,,,wg-a,,,,AAXX 19034 07149 12765 70308 10170 20120 30097 40204 51002 60006 875// 90300=
07149,1998-08-19 06:00:00,17,1020.7,0.3,72,12,12000,14.816,,,30,16.1,23.8,,,,,,,,,wg-a,,,,AAXX 19064 07149 02762 30308 10170 20120 30100 40207 53003 60006 83500 90600 333 10238 20161 60004=
07149,1998-08-19 09:00:00,21,1020.9,0.4,60,13,15000,11.112,,,40,,,,,,,,,,,wg-a,,,,AAXX 19094 07149 12/65 10406 10210 20130 30104 40209 50004 60006 80001 90900=
07149,1998-08-19 12:00:00,23,1020.6,-0.3,50,12,20000,11.112,,,20,,,,,,,,,,,wg-a,,,,AAXX 19124 07149 12670 20206 10230 20120 30101 40206 58003 60006 81102 91200=
07149,1998-08-19 15:00:00,25,1019.2,-1.3,39,10,20000,11.112,,,340,,,,,,,,,,,wg-a,,,,AAXX 19154 07149 12770 13406 10250 20100 30088 40192 56013 60006 81400 91500=
07149,1998-08-19 18:00:00,24,1018.3,-0.9,41,10,20000,11.112,,,340,16.5,26,,,,,,,,,wg-a,,,,AAXX 19184 07149 12770 23406 10240 20100 30079 40183 56009 60006 81501 91800 333 10260 20165=
07149,1998-08-20 00:00:00,16,1019.3,-0.2,63,9,18000,11.112,,,30,,,,,,,,,,,wg-a,,,,AAXX 20004 07149 12768 20306 10160 20090 30086 40193 58002 60006 82530 90000=
07149,1998-08-20 03:00:00,16,1018.7,-0.6,68,10,12000,7.408,,,10,,,,,,,,,,,wg-a,,,,AAXX 20034 07149 12762 50104 10160 20100 30080 40187 58006 60006 85500 90300=
07149,1998-08-20 06:00:00,15,1018.8,0.1,72,10,13000,7.408,,,30,13.3,24.1,,,,,,,,,wg-a,,,,AAXX 20064 07149 02763 60304 10150 20100 30081 40188 53001 60006 86500 90600 333 10241 20133 60004=
07149,1998-08-20 09:00:00,22,1018.7,0.1,43,9,14000,11.112,,,30,,,,,,,,,,,wg-a,,,,AAXX 20094 07149 12764 10306 10220 20090 30082 40187 51001 60006 81500 90900=
07149,1998-08-20 12:00:00,24,1017.5,-1.1,44,11,20000,11.112,,,260,,,,,,,,,,,wg-a,,,,AAXX 20124 07149 12/70 02606 10240 20110 30071 40175 58011 60006 80000 91200=
07149,1998-08-20 15:00:00,26,1016.3,-1.1,37,10,20000,18.52,,,270,,,,,,,,,,,wg-a,,,,AAXX 20154 07149 12/70 52710 10260 20100 30060 40163 58011 60006 81032 91500=
07149,1998-08-20 18:00:00,23,1015.8,-0.6,44,10,18000,25.928,,,320,15.1,26.4,,,,,,,,,wg-a,,,,AAXX 20184 07149 12/68 73214 10230 20100 30054 40158 55006 60006 84032 91800 333 10264 20151=
07149,1998-08-20 21:00:00,19,1016.6,0.6,60,11,18000,22.224,,,290,,,,,,,,,,,wg-a,,,,AAXX 20214 07149 12768 82912 10190 20110 30060 40166 50006 60006 8453/ 92100=
07149,1998-08-21 00:00:00,17,1015.1,-1.5,63,10,18000,18.52,,,260,,,,,,,,,,,wg-a,,,,AAXX 21004 07149 12768 82610 10170 20100 30045 40151 58015 60006 8653/ 90000=
07149,1998-08-21 03:00:00,17,1013.2,-1.9,68,11,18000,18.52,,,240,,,,,,,,,,61,wg-a,,,,AAXX 21034 07149 02568 82410 10170 20110 30026 40132 56019 61000 76162 8657/ 90300 333 ////=
07149,1998-08-21 06:00:00,15,1011.4,-1.9,82,12,8000,31.484,,44.448,230,15,22.5,,,,,,,,61,wg-a,,,,AAXX 21064 07149 02558 82317 10150 20120 30007 40114 56019 61000 76162 875// 90600 333 10225 20150 6001 91024=
07149,1998-08-21 09:00:00,16,1010.8,-0.5,82,13,15000,31.484,,,240,,,,0,,,,,,21,wg-a,,,,AAXX 21094 07149 12465 82417 10160 20130 30002 40108 55005 60007 72162 875// 90900=
07149,1998-08-21 12:00:00,18,1009.8,-0.9,94,17,500,25.928,,,240,,,,0,,,,,,60,wg-a,,,,AAXX 21124 07149 02200 82414 10180 20170 39993 40098 56009 60016 76065 875// 91200 333 60007=
07149,1998-08-21 15:00:00,20,1009.9,0.2,78,16,20000,22.224,,,280,,,,0,,,,,,25,wg-a,,,,AAXX 21154 07149 12470 72812 10200 20160 39995 40099 53002 60007 72586 878// 91500=
07149,1998-08-21 18:00:00,19,1010.6,0.6,78,15,20000,18.52,,,280,13.9,20.9,,1,,,,,,1,wg-a,,,,AAXX 21184 07149 02570 72810 10190 20150 30001 40106 53006 60006 70186 878// 91800 333 10209 20139 60017=
07149,1998-08-21 21:00:00,17,1012.6,1.9,77,13,20000,22.224,,,280,,,,,,,,,,,wg-a,,,,AAXX 21214 07149 12570 /2812 10170 20130 30020 40126 53019 60006 85800 92100=
07149,1998-08-22 00:00:00,16,1013.5,0.9,77,12,18000,18.52,,,280,,,,,,,,,,,wg-a,,,,AAXX 22004 07149 12768 /2810 10160 20120 30029 40135 51009 60006 85500 90000=
07149,1998-08-22 03:00:00,15,1014.3,0.7,82,12,20000,18.52,,,270,,,,,,,,,,,wg-a,,,,AAXX 22034 07149 12570 72710 10150 20120 30036 40143 51007 60006 8553/ 90300=
07149,1998-08-22 06:00:00,14,1014.3,-0,88,12,20000,14.816,,,260,14,18.9,,,,,1,,,,wg-a,,,,AAXX 22064 07149 02470 62608 10140 20120 30036 40143 55000 60006 83830 90600 333 10189 20140 60014=
07149,1998-08-22 09:00:00,17,1013.9,-0.3,77,13,20000,18.52,,,260,,,,,,,,,,,wg-a,,,,AAXX 22094 07149 12470 82610 10170 20130 30033 40139 58003 60006 8683/ 90900=
07149,1998-08-22 12:00:00,17,1012.8,-1.1,82,14,18000,11.112,,,300,,,,0,,,,,,21,wg-a,,,,AAXX 22124 07149 02468 83006 10170 20140 30022 40128 58011 60006 72162 878// 91200 333 60007=
07149,1998-08-22 15:00:00,17,1011.2,-1.6,88,15,7000,11.112,,,250,,,,1,,,,,,61,wg-a,,,,AAXX 22154 07149 12457 82506 10170 20150 30006 40112 56016 60017 76162 875// 91500=
07149,1998-08-22 18:00:00,15,1012.3,1,94,14,20000,18.52,,,310,14,18.2,,,,,,,,21,wg-a,,,,AAXX 22184 07149 02270 73110 10150 20140 30016 40123 53010 61000 72162 8353/ 91800 333 10182 20140 6003=
07149,1998-08-22 21:00:00,13,1015.5,3.1,94,12,20000,11.112,,,290,,,,,,,,,,,wg-a,,,,AAXX 22214 07149 12470 22906 10130 20120 30047 40155 51031 60006 81101 92100=
07149,1998-08-23 00:00:00,11,1017.1,1.5,94,10,8000,7.408,,,260,,,,0,,,,,,11,wg-a,,,,AAXX 23004 07149 02/58 12604 10110 20100 30062 40171 52015 60006 71111 80001 90000 333 60007=
07149,1998-08-23 03:00:00,12,1017.6,0.6,94,11,500,11.112,,,260,,,,,,,,,,45,wg-a,,,,AAXX 23034 07149 12/05 92606 10120 20110 30068 40176 50006 60006 74541 89/// 90300=
07149,1998-08-23 06:00:00,11,1018.7,1,100,11,300,7.408,,,210,10.7,15.5,,,,,4,,,45,wg-a,,,,AAXX 23064 07149 02/03 92104 10110 20110 30078 40187 53010 60006 74541 89/// 90600 333 10155 20107 60044=
07149,1998-08-23 09:00:00,13,1019.3,0.7,94,12,1100,11.112,,,190,,,,,,,,,,10,wg-a,,,,AAXX 23094 07149 12111 81906 10130 20120 30085 40193 51007 60006 71042 887// 90900=
07149,1998-08-23 12:00:00,20,1017.8,-1.2,64,13,25000,11.112,,,230,,,,,,,,,,3,wg-a,,,,AAXX 23124 07149 12575 72306 10200 20130 30073 40178 58012 60006 70342 83802 91200=
07149,1998-08-23 15:00:00,22,1015.7,-2,46,10,25000,25.928,,,250,,,,,,,,,,,wg-a,,,,AAXX 23154 07149 12675 72514 10220 20100 30053 40157 58020 60006 8353/ 91500=
07149,1998-08-23 18:00:00,22,1013.8,-1.9,57,13,25000,25.928,,,260,11.2,22.8,,,,,,,,,wg-a,,,,AAXX 23184 07149 12675 72614 10220 20130 30034 40138 56019 60006 8553/ 91800 333 10228 20112=
07149,1998-08-23 21:00:00,20,1012.8,-1.1,68,14,25000,22.224,,,250,,,,,,,,,,,wg-a,,,,AAXX 23214 07149 12675 72512 10200 20140 30023 40128 58011 60006 8557/ 92100=
07149,1998-08-24 00:00:00,18,1009.9,-2.9,83,15,10000,31.484,,,230,,,,1,,,,,,61,wg-a,,,,AAXX 24004 07149 02560 82317 10180 20150 39994 40099 56029 60016 76162 875// 90000 333 60017=
07149,1998-08-24 03:00:00,15,1010.5,0.5,88,13,15000,25.928,,66.672,290,,,,2,,,,,,10,wg-a,,,,AAXX 24034 07149 12465 82914 10150 20130 39999 40105 53005 60027 71062 875// 90300 333 91036=
07149,1998-08-24 06:00:00,15,1011.9,1.3,82,12,20000,25.928,,,280,14.9,21.6,,,,,3,,,3,wg-a,,,,AAXX 24064 07149 02470 82814 10150 20120 30012 40119 53013 60006 70362 85832 90600 333 10216 20149 60034=
07149,1998-08-24 09:00:00,17,1013.8,2,77,13,18000,22.224,,,300,,,,,,,,,,,wg-a,,,,AAXX 24094 07149 12568 73012 10170 20130 30032 40138 51020 60006 8583/ 90900=
07149,1998-08-24 12:00:00,17,1015.2,1.4,77,13,12000,14.816,,,300,,,,0,,,,,,25,wg-a,,,,AAXX 24124 07149 02462 73008 10170 20130 30046 40152 51014 60006 72586 878// 91200 333 60007=
07149,1998-08-24 15:00:00,20,1016.5,1.4,60,12,25000,31.484,,,310,,,,,,,,,,1,wg-a,,,,AAXX 24154 07149 02575 63117 10200 20120 30060 40165 51014 61000 70186 86800 91500 333 ////=
07149,1998-08-24 18:00:00,18,1018,1.4,64,11,25000,18.52,,,340,15.1,20.9,,,,,,,,1,wg-a,,,,AAXX 24184 07149 12675 /3410 10180 20110 30074 40180 53014 60006 70186 86800 91800 333 10209 20151=
07149,1998-08-24 21:00:00,16,1020,1.9,72,11,25000,11.112,,,320,,,,,,,,,,,wg-a,,,,AAXX 24214 07149 12775 23206 10160 20110 30093 40200 51019 60006 82500 92100=
07149,1998-08-25 00:00:00,12,1021.1,0.9,88,10,14000,3.704,,,360,,,,,,,,,,,wg-a,,,,AAXX 25004 07149 12/64 03602 10120 20100 30102 40211 50009 60006 80000 90000=
07149,1998-08-25 03:00:00,10,1021.3,0.1,93,9,13000,3.704,,,20,,,,,,,,,,11,wg-a,,,,AAXX 25034 07149 12/63 00202 10100 20090 30103 40213 50001 60006 71100 80000 90300=
07149,1998-08-25 06:00:00,12,1022,0.8,94,11,8000,3.704,,,50,9.3,18.3,,,,,,,,,wg-a,,,,AAXX 25064 07149 02/58 /0502 10120 20110 30111 40220 53008 60006 90600 333 10183 20093 60004=
07149,1998-08-25 09:00:00,18,1022,0.2,68,12,13000,11.112,,,180,,,,,,,,,,,wg-a,,,,AAXX 25094 07149 12463 31806 10180 20120 30113 40220 51002 60006 82130 90900=
07149,1998-08-25 12:00:00,20,1021.4,-0.5,49,9,20000,7.408,,,240,,,,,,,,,,,wg-a,,,,AAXX 25124 07149 12670 /2404 10200 20090 30108 40214 58005 60006 85200 91200=
07149,1998-08-25 15:00:00,23,1020,-1.3,41,9,25000,7.408,,,280,,,,,,,,,,,wg-a,,,,AAXX 25154 07149 12675 42804 10230 20090 30095 40200 58013 60006 84500 91500=
07149,1998-08-25 18:00:00,22,1018.9,-1.1,43,9,25000,14.816,,,310,11.9,23.5,,,,,,,,,wg-a,,,,AAXX 25184 07149 12775 13108 10220 20090 30084 40189 56011 60006 81500 91800 333 10235 20119=
07149,1998-08-25 21:00:00,14,1019.4,0.2,77,10,20000,3.704,,,270,,,,,,,,,,,wg-a,,,,AAXX 25214 07149 12/70 02702 10140 20100 30086 40194 53002 60006 80000 92100=
07149,1998-08-26 00:00:00,12,1018.8,-0.7,88,10,18000,7.408,,,250,,,,,,,,,,,wg-a,,,,AAXX 26004 07149 12/68 02504 10120 20100 30079 40188 58007 60006 80000 90000=
07149,1998-08-26 03:00:00,10,1017.7,-1.1,93,9,18000,11.112,,,250,,,,,,,,,,,wg-a,,,,AAXX 26034 07149 12/68 22506 10100 20090 30068 40177 56011 60006 80001 90300=
07149,1998-08-26 06:00:00,11,1017.3,-0.4,94,10,10000,11.112,,,230,9.5,21.5,,,,,,,,,wg-a,,,,AAXX 26064 07149 02760 42306 10110 20100 30064 40173 56004 60006 84500 90600 333 10215 20095 60004=
07149,1998-08-26 09:00:00,18,1016.8,-0.2,73,13,10000,18.52,,,300,,,,,,,,,,,wg-a,,,,AAXX 26094 07149 12560 73010 10180 20130 30062 40168 58002 60006 875// 90900=
07149,1998-08-26 12:00:00,20,1016.4,-0.3,64,13,25000,25.928,,,290,,,,,,,,,,1,wg-a,,,,AAXX 26124 07149 02575 /2914 10200 20130 30059 40164 58003 61000 70161 85800 91200 333 6100=
07149,1998-08-26 15:00:00,20,1016.4,-0,60,12,25000,25.928,,,300,,,,,,,,,,,wg-a,,,,AAXX 26154 07149 12675 /3014 10200 20120 30059 40164 55000 60006 86800 91500=
07149,1998-08-26 18:00:00,19,1016.1,-0.3,68,13,20000,14.816,,,320,11.2,22.4,,,,,,,,,wg-a,,,,AAXX 26184 07149 12670 73208 10190 20130 30056 40161 56003 60006 878// 91800 333 10224 20112=
07149,1998-08-26 21:00:00,17,1017.7,1.4,72,12,20000,25.928,,,30,,,,,,,,,,,wg-a,,,,AAXX 26214 07149 12470 80314 10170 20120 30070 40177 53014 60006 875// 92100=
07149,1998-08-27 00:00:00,15,1019.4,1.6,72,10,25000,14.816,,,40,,,,,,,,,,,wg-a,,,,AAXX 27004 07149 12575 70408 10150 20100 30086 40194 53016 60006 878// 90000=
07149,1998-08-27 03:00:00,14,1019.5,0.1,72,9,15000,14.816,,,30,,,,,,,,,,,wg-a,,,,AAXX 27034 07149 12565 70308 10140 20090 30087 40195 53001 60006 878// 90300=
07149,1998-08-27 06:00:00,13,1020.6,1.1,72,8,20000,14.816,,,20,13.2,19.3,,,,,,,,,wg-a,,,,AAXX 27064 07149 02770 /0208 10130 20080 30098 40206 53011 60006 86500 90600 333 10193 20132 61000=
07149,1998-08-27 09:00:00,15,1021.6,1,63,8,20000,18.52,,,10,,,,,,,,,,,wg-a,,,,AAXX 27094 07149 12570 70110 10150 20080 30108 40216 52010 60006 878// 90900=
07149,1998-08-27 12:00:00,18,1021.5,0,42,5,25000,14.816,,,20,,,,,,,,,,,wg-a,,,,AAXX 27124 07149 12675 /0208 10180 20050 30108 40215 50000 60006 85800 91200=
07149,1998-08-27 15:00:00,17,1021.3,-0.2,42,4,25000,14.816,,,20,,,,,,,,,,,wg-a,,,,AAXX 27154 07149 12775 60208 10170 20040 30106 40213 55002 60006 86800 91500=
07149,1998-08-27 18:00:00,16,1021.7,0.3,48,5,25000,18.52,,,20,13,18.3,,,,,,,,,wg-a,,,,AAXX 27184 07149 12675 /0210 10160 20050 30109 40217 52003 60006 86400 91800 333 10183 20130=
07149,1998-08-27 21:00:00,12,1023.2,1.4,62,5,20000,11.112,,,360,,,,,,,,,,,wg-a,,,,AAXX 27214 07149 12770 13606 10120 20050 30123 40232 51014 60006 81500 92100=
07149,1998-08-28 00:00:00,11,1023.8,0.5,71,6,20000,11.112,,,10,,,,,,,,,,,wg-a,,,,AAXX 28004 07149 12/70 00106 10110 20060 30128 40238 51005 60006 80000 90000=
07149,1998-08-28 03:00:00,9,1023.4,-0.4,81,6,20000,3.704,,,340,,,,,,,,,,,wg-a,,,,AAXX 28034 07149 12/70 03402 10090 20060 30124 40234 56004 60006 80000 90300=
07149,1998-08-28 06:00:00,8,1023.4,-0.1,93,7,15000,3.704,,,290,6.8,15.7,,,,,,,,,wg-a,,,,AAXX 28064 07149 02765 62902 10080 20070 30123 40234 55001 60006 86501 90600 333 10157 20068 60004=
07149,1998-08-28 09:00:00,16,1023.7,0.6,59,8,20000,11.112,,,40,,,,,,,,,,,wg-a,,,,AAXX 28094 07149 12570 10406 10160 20080 30129 40237 53006 60006 81100 90900=
07149,1998-08-28 12:00:00,18,1022.7,-0.9,42,5,500,18.52,,,10,,,,,,,,,,,wg-a,,,,AAXX 28124 07149 12600 /0110 10180 20050 30120 40227 58009 60006 85200 91200=
07149,1998-08-28 15:00:00,19,1022.4,-0.3,37,4,500,18.52,,,360,,,,,,,,,,,wg-a,,,,AAXX 28154 07149 12700 73610 10190 20040 30117 40224 57003 60006 87800 91500=
07149,1998-08-28 18:00:00,17,1022.2,-0.2,42,4,25000,18.52,,,10,8.2,20,,,,,,,,,wg-a,,,,AAXX 28184 07149 12775 50110 10170 20040 30115 40222 55002 60006 85800 91800 333 10200 20082=
07149,1998-08-28 21:00:00,13,1023.5,1.1,62,6,20000,11.112,,,50,,,,,,,,,,,wg-a,,,,AAXX 28214 07149 12770 30506 10130 20060 30126 40235 51011 60006 83500 92100=
07149,1998-08-29 00:00:00,10,1023.5,-0.1,76,6,20000,7.408,,,20,,,,,,,,,,,wg-a,,,,AAXX 29004 07149 12/70 30204 10100 20060 30125 40235 58001 60006 82031 90000=
07149,1998-08-29 03:00:00,8,1023.1,-0.5,87,6,20000,7.408,,,10,,,,,,,,,,,wg-a,,,,AAXX 29034 07149 12/70 30104 10080 20060 30120 40231 56005 60006 81031 90300=
07149,1998-08-29 06:00:00,9,1023.3,0.3,87,7,18000,7.408,,,330,7,17,,,,,,,,,wg-a,,,,AAXX 29064 07149 02768 63304 10090 20070 30123 40233 53003 60006 85530 90600 333 10170 20070 60004=
07149,1998-08-29 09:00:00,16,1023.5,0.4,55,7,20000,11.112,,,30,,,,,,,,,,,wg-a,,,,AAXX 29094 07149 12570 70306 10160 20070 30127 40235 53004 60006 878// 90900=
07149,1998-08-29 12:00:00,18,1022.3,-1.1,49,7,20000,3.704,,,10,,,,,,,,,,,wg-a,,,,AAXX 29124 07149 12670 /0102 10180 20070 30116 40223 58011 60006 86801 91200=
07149,1998-08-29 15:00:00,20,1020.8,-1.4,43,7,20000,7.408,,,20,,,,,,,,,,,wg-a,,,,AAXX 29154 07149 12670 60204 10200 20070 30102 40208 58014 60006 85801 91500=
07149,1998-08-29 18:00:00,18,1020.8,-0.1,49,7,28000,11.112,,,80,9.3,20.3,,,,,,,,,wg-a,,,,AAXX 29184 07149 12778 40806 10180 20070 30101 40208 55001 60006 82801 91800 333 10203 20093=
07149,1998-08-29 21:00:00,12,1021.4,0.4,71,7,25000,7.408,,,60,,,,,,,,,,,wg-a,,,,AAXX 29214 07149 12775 10604 10120 20070 30105 40214 50004 60006 81501 92100=
07149,1998-08-30 00:00:00,9,1020.9,-0.6,87,7,25000,3.704,,,90,,,,,,,,,,,wg-a,,,,AAXX 30004 07149 12/75 00902 10090 20070 30099 40209 58006 60006 80000 90000=
07149,1998-08-30 03:00:00,11,1020.6,-0.2,87,9,20000,3.704,,,240,,,,,,,,,,,wg-a,,,,AAXX 30034 07149 12770 72402 10110 20090 30097 40206 58002 60006 875// 90300=
07149,1998-08-30 06:00:00,12,1020.8,0.2,88,10,10000,3.704,,,180,8.4,18.2,,,,,,,,,wg-a,,,,AAXX 30064 07149 02760 71802 10120 20100 30099 40208 53002 60006 875// 90600 333 10182 20084 60004=
07149,1998-08-30 09:00:00,17,1020.8,0.2,63,10,10000,3.704,,,180,,,,,,,,,,,wg-a,,,,AAXX 30094 07149 12760 71802 10170 20100 30101 40208 51002 60006 875// 90900=
07149,1998-08-30 12:00:00,22,1019.9,-0.7,43,9,14000,7.408,,,110,,,,,,,,,,,wg-a,,,,AAXX 30124 07149 12664 /1104 10220 20090 30094 40199 58007 60006 81800 91200=
07149,1998-08-30 15:00:00,22,1018.5,-1.4,43,9,25000,11.112,,,50,,,,,,,,,,,wg-a,,,,AAXX 30154 07149 12675 20506 10220 20090 30080 40185 57014 60006 82400 91500=
07149,1998-08-30 18:00:00,21,1018,-0.5,46,9,25000,11.112,,,80,12.4,23,,,,,,,,,wg-a,,,,AAXX 30184 07149 12775 20806 10210 20090 30075 40180 58005 60006 82500 91800 333 10230 20124=
07149,1998-08-30 21:00:00,15,1018.6,0.3,72,10,25000,3.704,,,60,,,,,,,,,,,wg-a,,,,AAXX 30214 07149 12/75 00602 10150 20100 30078 40186 53003 60006 80000 92100=
07149,1998-08-31 00:00:00,15,1018.1,-0.4,77,11,20000,11.112,,,80,,,,,,,,,,,wg-a,,,,AAXX 31004 07149 12/70 10806 10150 20110 30074 40181 58004 60006 80001 90000=
07149,1998-08-31 06:00:00,11,1017,-0.2,94,10,9000,7.408,,,50,10.9,20.5,,,,,,,,,wg-a,,,,AAXX 31064 07149 02/59 /0504 10110 20100 30061 40170 55002 60006 80001 90600 333 10205 20109 60004=
07149,1998-08-31 12:00:00,24,1014.7,-1.7,41,10,18000,14.816,,,130,,,,,,,,,,,wg-a,,,,AAXX 31124 07149 12/68 41308 10240 20100 30043 40147 58017 60006 80001 91200=
07149,1998-08-31 15:00:00,25,1013.2,-1.4,36,9,20000,14.816,,,120,,,,,,,,,,,wg-a,,,,AAXX 31154 07149 12/70 41208 10250 20090 30029 40132 57014 60006 80002 91500=
07149,1998-08-31 18:00:00,23,1012.8,-0.5,44,10,25000,11.112,,,80,11.4,25.4,,,,,,,,,wg-a,,,,AAXX 31184 07149 12/75 70806 10230 20100 30024 40128 56005 60006 84032 91800 333 10254 20114=
07149,1998-08-31 21:00:00,21,1013.1,0.2,49,10,25000,11.112,,,90,,,,,,,,,,,wg-a,,,,AAXX 31214 07149 12775 70906 10210 20100 30026 40131 53002 60006 8357/ 92100=
07149,1998-09-01 00:00:00,19,1012.3,-0.8,56,10,25000,11.112,,,100,,,,,,,,,,,wg-a,,,,AAXX 01004 07149 12775 71006 10190 20100 30018 40123 56008 60006 82532 90000=
07149,1998-09-01 03:00:00,17,1011.3,-1.1,63,10,25000,7.408,,,110,,,,,,,,,,,wg-a,,,,AAXX 01034 07149 12775 71104 10170 20100 30007 40113 58011 60006 83532 90300=
07149,1998-09-01 06:00:00,17,1011.5,0.2,68,11,15000,7.408,,,110,16.5,23.1,,,,,,,,,wg-a,,,,AAXX 01064 07149 02765 71104 10170 20110 30009 40115 53002 60006 81532 90600 333 10231 20165 60004=
07149,1998-09-01 09:00:00,16,1011.4,-0.1,82,13,8000,14.816,,,120,,,,1,,,,,,60,wg-a,,,,AAXX 01094 07149 12658 71208 10160 20130 30008 40114 58001 60017 76062 8398/ 90900=
07149,1998-09-01 10:00:00,17,1011.5,0.3,82,14,20000,14.816,,,190,15.7,28.2,,,,,,,,,wg-a,,,,AAXX 01104 07149 32/70 /1908 10170 20140 30012 40115 53003 91000 333 10282 20157=
07149,1998-09-01 12:00:00,25,1012.1,1,57,16,17000,11.112,,,180,,,,,,,,,,1,wg-a,,,,AAXX 01124 07149 02/67 11806 10250 20160 30018 40121 51010 60016 70161 81031 91200 333 61000=
07149,1998-09-01 15:00:00,28,1011.1,-0.9,48,16,22000,25.928,,,220,,,,,,,,,,,wg-a,,,,AAXX 01154 07149 12672 /2214 10280 20160 30009 40111 58009 60006 81131 91500=
07149,1998-09-01 18:00:00,26,1011.5,0.3,54,16,20000,14.816,,,190,15.7,28.2,,,,,,,,,wg-a,,,,AAXX 01184 07149 12770 71908 10260 20160 30012 40115 53003 60006 81281 91800 333 10282 20157=
07149,1998-09-01 21:00:00,23,1013,1.4,61,15,18000,14.816,,,350,,,,,,,,,,,wg-a,,,,AAXX 01214 07149 12768 73508 10230 20150 30026 40130 51014 60006 8155/ 92100=
07149,1998-09-02 00:00:00,20,1013.7,0.6,68,14,18000,11.112,,,30,,,,,,,,,,60,wg-a,,,,AAXX 02004 07149 02568 70306 10200 20140 30032 40137 51006 61000 76062 8285/ 90000 333 6100=
07149,1998-09-02 03:00:00,19,1012.9,-0.8,73,14,18000,14.816,,,40,,,,,,,,,,1,wg-a,,,,AAXX 02034 07149 02768 70408 10190 20140 30024 40129 58008 61000 70161 82532 90300 333 ////=
07149,1998-09-02 06:00:00,18,1014.5,1.5,83,15,9000,14.816,,,350,17.9,25.5,,,,,,,,61,wg-a,,,,AAXX 02064 07149 02459 73508 10180 20150 30039 40145 53015 61000 76196 8593/ 90600 333 10255 20179 6001=
07149,1998-09-02 09:00:00,18,1013.3,-1.2,94,17,4000,11.112,,,10,,,,12,,,,,,10,wg-a,,,,AAXX 02094 07149 12240 70106 10180 20170 30027 40133 55012 60127 71098 8587/ 90900=
07149,1998-09-02 12:00:00,22,1012,-1.1,83,19,7000,14.816,,,120,,,,0,,,,,,1,wg-a,,,,AAXX 02124 07149 02457 /1208 10220 20190 30016 40120 58011 60126 70198 81131 91200 333 60007=
07149,1998-09-02 15:00:00,24,1010.4,-1.5,69,18,16000,14.816,,,170,,,,,,,,,,,wg-a,,,,AAXX 02154 07149 12566 71708 10240 20180 30001 40104 58015 60006 8487/ 91500=
07149,1998-09-02 18:00:00,23,1009.3,-1.1,73,18,18000,14.816,,,170,17.2,24.3,,,,,,,,,wg-a,,,,AAXX 02184 07149 12768 71708 10230 20180 39990 40093 56011 60006 8258/ 91800 333 10243 20172=
07149,1998-09-02 21:00:00,22,1009.1,-0.3,78,18,18000,11.112,,,170,,,,,,,,,,,wg-a,,,,AAXX 02214 07149 12668 71706 10220 20180 39987 40091 58003 60006 83582 92100=
07149,1998-09-03 00:00:00,20,1008.9,-0.2,88,18,14000,14.816,,,230,,,,,,,,,,,wg-a,,,,AAXX 03004 07149 12464 72308 10200 20180 39985 40089 56002 60006 82532 90000=
07149,1998-09-03 03:00:00,20,1008.3,-0.6,78,16,12000,29.632,,,210,,,,,,,,,,,wg-a,,,,AAXX 03034 07149 12562 72116 10200 20160 39979 40083 58006 60006 875// 90300=
07149,1998-09-03 06:00:00,17,1008.8,0.3,88,15,10000,29.632,,,210,16.5,23.3,,,,,,,,61,wg-a,,,,AAXX 03064 07149 02360 82116 10170 20150 39982 40088 53003 61000 76161 877// 90600 333 10233 20165 6012=
07149,1998-09-03 09:00:00,16,1011.1,2.3,88,14,16000,31.484,,,280,,,,0,,,,,,21,wg-a,,,,AAXX 03094 07149 12466 82817 10160 20140 30005 40111 53023 60007 72165 875// 90900=
07149,1998-09-03 12:00:00,16,1013.8,2.7,88,14,17000,25.928,,,270,,,,,,,,,,60,wg-a,,,,AAXX 03124 07149 02367 82714 10160 20140 30032 40138 51027 60016 76065 878// 91200 333 61000=
07149,1998-09-03 15:00:00,21,1014.1,0.4,60,13,25000,22.224,,,290,,,,,,,,,,1,wg-a,,,,AAXX 03154 07149 02575 /2912 10210 20130 30036 40141 50004 61000 70161 83830 91500 333 ////=
07149,1998-09-03 18:00:00,20,1014.8,0.7,60,12,20000,14.816,,,300,15.7,22,,,,,,,,1,wg-a,,,,AAXX 03184 07149 12670 23008 10200 20120 30043 40148 53007 60006 70161 81801 91800 333 10220 20157=
07149,1998-09-04 03:00:00,11,1013.6,-1.2,100,11,8000,3.704,,,140,,,,0,,,,,,12,wg-a,,,,AAXX 04034 07149 12/58 31402 10110 20110 30028 40136 58012 60007 71200 80001 90300=
07149,1998-09-04 06:00:00,12,1012.8,-0.8,94,11,4500,3.704,,,130,10.1,19.7,,,,,1,,,10,wg-a,,,,AAXX 04064 07149 02/45 /1302 10120 20110 30020 40128 56008 60006 71011 82084 90600 333 10197 20101 60014=
07149,1998-09-04 09:00:00,15,1011.4,-1.2,88,13,10000,7.408,,,150,,,,,,,,,,,wg-a,,,,AAXX 04094 07149 12760 71504 10150 20130 30008 40114 58012 60006 81552 90900=
07149,1998-09-04 12:00:00,18,1009.2,-2.1,77,14,15000,3.704,,,150,,,,1,,,,,,21,wg-a,,,,AAXX 04124 07149 02565 71502 10180 20140 39987 40092 58021 60016 72162 8357/ 91200 333 60017=
07149,1998-09-04 15:00:00,19,1006.1,-3,68,13,17000,11.112,,,130,,,,0,,,,,,21,wg-a,,,,AAXX 04154 07149 12567 71306 10190 20130 39957 40061 58030 60007 72162 8557/ 91500=
07149,1998-09-04 18:00:00,17,1003.7,-2.5,82,14,7000,11.112,,,110,11.6,19.6,,,,,,,,61,wg-a,,,,AAXX 04184 07149 02557 81106 10170 20140 39932 40037 56025 61000 76162 8687/ 91800 333 10196 20116 6001=
07149,1998-09-04 21:00:00,16,1004.6,0.8,94,15,20000,11.112,,,230,,,,3,,,,,,21,wg-a,,,,AAXX 04214 07149 12570 72306 10160 20150 39940 40046 53008 60037 72162 8453/ 92100=
07149,1998-09-05 00:00:00,15,1005.5,0.9,94,14,20000,14.816,,,240,,,,0,,,,,,3,wg-a,,,,AAXX 05004 07149 02370 52408 10150 20140 39949 40055 53009 60046 70361 83530 90000 333 60007=
07149,1998-09-05 03:00:00,14,1006,0.5,94,13,25000,18.52,,,240,,,,,,,,,,,wg-a,,,,AAXX 05034 07149 12375 /2410 10140 20130 39954 40060 53005 60006 81100 90300=
07149,1998-09-05 06:00:00,14,1006.8,0.7,94,13,12000,18.52,,,220,13.5,16.9,,,,,6,,,,wg-a,,,,AAXX 05064 07149 02362 52210 10140 20130 39961 40068 53007 60006 83531 90600 333 10169 20135 60064=
07149,1998-09-05 09:00:00,18,1007.4,0.8,77,14,15000,25.928,,,240,,,,,,,,,,,wg-a,,,,AAXX 05094 07149 12465 72414 10180 20140 39969 40074 51008 60006 87800 90900=
07149,1998-09-05 12:00:00,21,1007.3,-0,60,13,25000,31.484,,,270,,,,,,,,,,25,wg-a,,,,AAXX 05124 07149 02575 52717 10210 20130 39969 40073 55000 61000 72586 85900 91200 333 6100=
07149,1998-09-05 15:00:00,20,1008.5,1.2,73,15,20000,25.928,,,270,,,,0,,,,,,25,wg-a,,,,AAXX 05154 07149 12570 52714 10200 20150 39981 40085 51012 60007 72598 84902 91500=
07149,1998-09-05 18:00:00,17,1010.2,1.5,88,15,25000,11.112,,,240,13.7,21.6,,2,,,,,,3,wg-a,,,,AAXX 05184 07149 02675 52406 10170 20150 39996 40102 51015 60006 70398 83202 91800 333 10216 20137 60027=
07149,1998-09-05 21:00:00,15,1012,1.7,77,11,25000,11.112,,,290,,,,0,,,,,,1,wg-a,,,,AAXX 05214 07149 12/75 42906 10150 20110 30013 40120 51017 60007 70186 80002 92100=
07149,1998-09-06 00:00:00,13,1012.3,0.3,88,11,25000,11.112,,,250,,,,,,,,,,3,wg-a,,,,AAXX 06004 07149 12675 52506 10130 20110 30016 40123 51003 60006 70386 82502 90000=
07149,1998-09-06 03:00:00,12,1012.8,0.4,94,11,25000,11.112,,,240,,,,,,,,,,,wg-a,,,,AAXX 06034 07149 12675 52406 10120 20110 30020 40128 51004 60006 84502 90300=
07149,1998-09-06 06:00:00,12,1012.9,0.1,94,11,12000,7.408,,,220,11.3,17.1,,,,,2,,,,wg-a,,,,AAXX 06064 07149 02662 /2204 10120 20110 30021 40129 53001 60006 83502 90600 333 10171 20113 60024=
07149,1998-09-06 09:00:00,16,1012.5,-0.2,88,14,9000,18.52,,,200,,,,,,,,,,,wg-a,,,,AAXX 06094 07149 12259 52010 10160 20140 30019 40125 58002 60006 83101 90900=
07149,1998-09-06 12:00:00,19,1011.7,-0.7,68,13,25000,18.52,,,190,,,,,,,,,,,wg-a,,,,AAXX 06124 07149 12475 71910 10190 20130 30012 40117 58007 60006 85132 91200=
07149,1998-09-06 15:00:00,20,1009.7,-1.9,64,13,25000,14.816,,,190,,,,,,,,,,,wg-a,,,,AAXX 06154 07149 12675 /1908 10200 20130 39993 40097 58019 60006 81182 91500=
07149,1998-09-06 18:00:00,20,1008.4,-1.3,68,14,25000,7.408,,,150,12,21.8,,,,,,,,,wg-a,,,,AAXX 06184 07149 12/75 61504 10200 20140 39980 40084 58013 60006 84082 91800 333 10218 20120=
07149,1998-09-06 21:00:00,17,1008.2,-0.4,72,12,20000,14.816,,,150,,,,,,,,,,,wg-a,,,,AAXX 06214 07149 12/70 61508 10170 20120 39976 40082 58004 60006 86082 92100=
07149,1998-09-07 00:00:00,16,1006.3,-1.9,82,13,12000,7.408,,,160,,,,,,,,,,60,wg-a,,,,AAXX 07004 07149 02762 71604 10160 20130 39957 40063 58019 61000 76062 8658/ 90000 333 6100=
07149,1998-09-07 03:00:00,15,1005.3,-1,88,13,25000,3.704,,,120,,,,0,,,,,,3,wg-a,,,,AAXX 07034 07149 12775 71202 10150 20130 39947 40053 56010 60007 70362 8252/ 90300=
07149,1998-09-07 06:00:00,15,1005.6,0.3,94,14,12000,7.408,,,150,14.9,20,,,,,,,,21,wg-a,,,,AAXX 07064 07149 02562 /1504 10150 20140 39950 40056 50003 61000 72162 8682/ 90600 333 10200 20149 6001=
07149,1998-09-07 09:00:00,16,1006.6,1,94,15,8000,14.816,,,190,,,,,,,,,,,wg-a,,,,AAXX 07094 07149 32/58 /1908 10160 20150 39960 40066 50010 90900=
07149,1998-09-07 12:00:00,19,1005.9,-0.5,88,17,20000,14.816,,,180,,,,,,,,,,3,wg-a,,,,AAXX 07124 07149 12470 71808 10190 20170 39955 40059 58005 60056 70398 84301 91200=
07149,1998-09-07 15:00:00,22,1004.8,-1,65,15,25000,14.816,,,210,,,,,,,,,,,wg-a,,,,AAXX 07154 07149 12575 72108 10220 20150 39945 40048 57010 60006 83201 91500=
07149,1998-09-07 18:00:00,21,1005.2,0.3,64,14,25000,11.112,,,250,14.9,23.1,,,,,,,,,wg-a,,,,AAXX 07184 07149 12675 32506 10210 20140 39948 40052 52003 60006 82301 91800 333 10231 20149=
07149,1998-09-07 21:00:00,16,1007.7,2.3,82,13,25000,11.112,,,200,,,,,,,,,,,wg-a,,,,AAXX 07214 07149 12675 42006 10160 20130 39971 40077 51023 60006 81380 92100=
07149,1998-09-08 00:00:00,16,1008.1,0.4,82,13,25000,14.816,,,240,,,,,,,,,,,wg-a,,,,AAXX 08004 07149 12/75 52408 10160 20130 39975 40081 51004 60006 85030 90000=
07149,1998-09-08 03:00:00,14,1008.3,0.1,88,12,25000,14.816,,,210,,,,,,,,,,,wg-a,,,,AAXX 08034 07149 12/75 72108 10140 20120 39976 40083 53001 60006 8703/ 90300=
07149,1998-09-08 06:00:00,15,1008.9,0.7,88,13,17000,18.52,,,220,14.1,20.5,,,,,5,,,,wg-a,,,,AAXX 08064 07149 02567 /2210 10150 20130 39983 40089 53007 60006 83530 90600 333 10205 20141 60054=
07149,1998-09-08 09:00:00,18,1009.5,0.7,73,13,16000,25.928,,,220,,,,,,,,,,,wg-a,,,,AAXX 08094 07149 12466 72214 10180 20130 39990 40095 51007 60006 878// 90900=
07149,1998-09-08 12:00:00,17,1008.9,-0.7,94,16,500,25.928,,,200,,,,2,,,,,,58,wg-a,,,,AAXX 08124 07149 02200 82014 10170 20160 39983 40089 58007 60026 75865 875// 91200 333 60027=
07149,1998-09-08 15:00:00,18,1008.3,-0.5,94,17,18000,25.928,,,210,,,,1,,,,,,21,wg-a,,,,AAXX 08154 07149 12268 82114 10180 20170 39978 40083 58005 60017 72165 877// 91500=
07149,1998-09-08 18:00:00,19,1008.1,-0.1,88,17,25000,22.224,,,210,14.7,20.5,,,,,,,,1,wg-a,,,,AAXX 08184 07149 12475 42112 10190 20170 39977 40081 57001 60006 70165 84100 91800 333 10205 20147=
07149,1998-09-08 21:00:00,18,1009.3,1.1,94,17,20000,22.224,,,220,,,,,,,,,,,wg-a,,,,AAXX 08214 07149 12370 32212 10180 20170 39988 40093 51011 60006 83600 92100=
07149,1998-09-09 00:00:00,18,1008.5,-0.8,94,17,7000,22.224,,,210,,,,0,,,,,,51,wg-a,,,,AAXX 09004 07149 02257 82112 10180 20170 39980 40085 58008 60016 75165 875// 90000 333 60007=
07149,1998-09-09 03:00:00,18,1007.3,-1.2,94,17,18000,29.632,,,220,,,,0,,,,,,21,wg-a,,,,AAXX 09034 07149 12368 72216 10180 20170 39968 40073 56012 60007 72165 875// 90300=
07149,1998-09-09 06:00:00,18,1006.6,-0.7,83,15,16000,31.484,,55.56,220,17.5,19.3,,,,,3,,,3,wg-a,,,,AAXX 09064 07149 02466 72217 10180 20150 39961 40066 57007 60006 70365 875// 90600 333 10193 20175 60034 91030=
07149,1998-09-09 09:00:00,19,1006.7,0.1,83,16,16000,35.188,,,220,,,,,,,,,,60,wg-a,,,,AAXX 09094 07149 02466 82219 10190 20160 39962 40067 53001 61000 76062 875// 90900 333 ////=
07149,1998-09-09 12:00:00,21,1005.7,-0.9,69,15,17000,35.188,,59.264,220,,,,,,,,,,21,wg-a,,,,AAXX 09124 07149 02567 /2219 10210 20150 39953 40057 58009 61000 72162 86500 91200 333 6100 91032=
07149,1998-09-09 15:00:00,24,1004.9,-0.7,57,15,25000,38.892,,,230,,,,,,,,,,1,wg-a,,,,AAXX 09154 07149 02675 42321 10240 20150 39946 40049 58007 61000 70186 84800 91500 333 ////=
07149,1998-09-09 18:00:00,21,1004.7,-0.3,69,15,20000,29.632,,,220,17.5,23.8,,,,,,,,80,wg-a,,,,AAXX 09184 07149 02670 52216 10210 20150 39943 40047 55003 61000 78086 84201 91800 333 10238 20175 6100=
07149,1998-09-09 21:00:00,19,1006.4,1.6,73,14,25000,22.224,,,220,,,,,,,,,,3,wg-a,,,,AAXX 09214 07149 02675 32212 10190 20140 39959 40064 51016 61000 70386 83500 92100 333 ////=
07149,1998-09-10 00:00:00,17,1006.8,0.4,82,14,25000,29.632,,,220,,,,,,,,,,3,wg-a,,,,AAXX 10004 07149 02775 12216 10170 20140 39963 40068 53004 61000 70386 81500 90000 333 ////=
07149,1998-09-10 03:00:00,17,1006.5,-0.3,88,15,25000,29.632,,,220,,,,,,,,,,,wg-a,,,,AAXX 10034 07149 12475 52216 10170 20150 39960 40065 55003 60006 85800 90300=
07149,1998-09-10 06:00:00,16,1007.5,0.9,82,13,20000,22.224,,,230,15.9,21.5,,,,,,,,,wg-a,,,,AAXX 10064 07149 02470 32312 10160 20130 39969 40075 53009 60006 82101 90600 333 10215 20159 61000=
07149,1998-09-10 09:00:00,19,1008.1,0.7,68,13,25000,29.632,,,240,,,,,,,,,,,wg-a,,,,AAXX 10094 07149 12575 52416 10190 20130 39976 40081 53007 60006 84231 90900=
07149,1998-09-10 12:00:00,22,1007.1,-0.9,53,12,25000,35.188,,,230,,,,,,,,,,,wg-a,,,,AAXX 10124 07149 12675 /2319 10220 20120 39967 40071 58009 60006 85201 91200=
07149,1998-09-10 15:00:00,20,1006.4,-0.7,78,16,25000,31.484,,,240,,,,1,,,,,,25,wg-a,,,,AAXX 10154 07149 12675 32417 10200 20160 39960 40064 55007 60017 72586 83902 91500=
07149,1998-09-10 18:00:00,18,1007.5,1,73,13,25000,18.52,,,250,16,23.4,,,,,,,,25,wg-a,,,,AAXX 10184 07149 02675 72510 10180 20130 39970 40075 51010 61000 72586 879// 91800 333 10234 20160 6000=
07149,1998-09-10 21:00:00,16,1008.8,1.2,82,13,500,14.816,,,250,,,,,,,,,,,wg-a,,,,AAXX 10214 07149 12700 62508 10160 20130 39982 40088 51012 60006 81531 92100=
07149,1998-09-11 00:00:00,15,1009.1,0.3,88,13,14000,14.816,,,240,,,,,,,,,,25,wg-a,,,,AAXX 11004 07149 02464 72408 10150 20130 39985 40091 51003 61000 72586 878// 90000 333 6100=
07149,1998-09-11 03:00:00,14,1008.3,-0.9,94,13,8000,18.52,,,220,,,,0,,,,,,80,wg-a,,,,AAXX 11034 07149 12458 82210 10140 20130 39976 40083 57009 60007 78086 888// 90300=
07149,1998-09-11 06:00:00,13,1007.2,-1.1,94,12,12000,18.52,,,230,13,17.8,,,,,2,,,3,wg-a,,,,AAXX 11064 07149 02362 72310 10130 20120 39965 40072 55011 60006 70386 86830 90600 333 10178 20130 60024=
07149,1998-09-11 09:00:00,16,1006.2,-0.9,82,13,18000,18.52,,,220,,,,,,,,,,,wg-a,,,,AAXX 11094 07149 12468 72210 10160 20130 39956 40062 58009 60006 86801 90900=
07149,1998-09-11 12:00:00,18,1003.8,-2.3,64,11,25000,25.928,,,210,,,,,,,,,,,wg-a,,,,AAXX 11124 07149 12575 72114 10180 20110 39933 40038 58023 60006 8583/ 91200=
07149,1998-09-11 15:00:00,15,1001.8,-2.1,82,12,500,18.52,,,230,,,,2,,,,,,21,wg-a,,,,AAXX 11154 07149 12400 72310 10150 20120 39912 40018 58021 60027 72162 82232 91500=
07149,1998-09-11 18:00:00,13,1000,-1.8,94,12,25000,7.408,,,190,12.6,17.7,,,,,,,,25,wg-a,,,,AAXX 11184 07149 02475 71904 10130 20120 39894 40000 56018 61000 72586 8392/ 91800 333 10177 20126 6001=
07149,1998-09-11 21:00:00,13,999.9,-0.1,94,12,12000,11.112,,,300,,,,7,,,,,,61,wg-a,,,,AAXX 11214 07149 12562 83006 10130 20120 39893 49999 58001 60077 76162 8382/ 92100=
07149,1998-09-12 00:00:00,12,1000.4,0.4,94,11,10000,18.52,,,310,,,,1,,,,,,60,wg-a,,,,AAXX 12004 07149 02260 83110 10120 20110 39897 40004 51004 60086 76062 8672/ 90000 333 60017=
07149,1998-09-12 03:00:00,11,1000.6,0.2,94,10,17000,18.52,,,300,,,,0,,,,,,1,wg-a,,,,AAXX 12034 07149 12467 /3010 10110 20100 39899 40006 50002 60007 70165 86500 90300=
07149,1998-09-12 06:00:00,11,1002,1.4,87,9,17000,18.52,,,300,10.4,13.4,,,,,,,,21,wg-a,,,,AAXX 12064 07149 02467 /3010 10110 20090 39913 40020 53014 61000 72165 85500 90600 333 10134 20104 6012=
07149,1998-09-12 09:00:00,13,1002.7,0.7,82,10,18000,18.52,,,280,,,,0,,,,,,3,wg-a,,,,AAXX 12094 07149 12468 /2810 10130 20100 39920 40027 50007 60007 70386 86800 90900=
07149,1998-09-12 12:00:00,17,1000.8,-1.7,52,7,500,31.484,,,260,,,,,,,,,,1,wg-a,,,,AAXX 12124 07149 12600 42617 10170 20070 39903 40008 58017 60016 70186 84800 91200=
07149,1998-09-12 15:00:00,12,999.5,-1.4,88,10,12000,25.928,,61.116,260,,,,1,,,,,,61,wg-a,,,,AAXX 12154 07149 12462 82614 10120 20100 39889 49995 56014 60017 76186 8422/ 91500 333 91033=
07149,1998-09-12 18:00:00,12,998.8,-0.8,71,7,20000,22.224,,,320,10.7,17.1,,,,,,,,80,wg-a,,,,AAXX 12184 07149 02470 53212 10120 20070 39881 49988 55008 61000 78086 84330 91800 333 10171 20107 6000=
07149,1998-09-12 21:00:00,8,999.3,0.4,87,6,25000,14.816,,,270,,,,,,,,,,1,wg-a,,,,AAXX 12214 07149 02775 12708 10080 20060 39885 49993 50004 61000 70186 81500 92100 333 ////=
07149,1998-09-13 00:00:00,8,999,-0.3,81,5,25000,14.816,,,270,,,,,,,,,,3,wg-a,,,,AAXX 13004 07149 02775 32708 10080 20050 39882 49990 58003 61000 70386 82501 90000 333 ////=
07149,1998-09-13 03:00:00,8,997.7,-1.3,81,5,20000,18.52,,,240,,,,,,,,,,60,wg-a,,,,AAXX 13034 07149 02770 62410 10080 20050 39869 49977 58013 61000 76061 86500 90300 333 ////=
07149,1998-09-13 06:00:00,8,996.1,-1.6,93,7,15000,22.224,,,220,7.4,11.7,,,,,,,,61,wg-a,,,,AAXX 13064 07149 02265 82212 10080 20070 39853 49961 57016 61000 76161 885// 90600 333 10117 20074 6006=
07149,1998-09-13 09:00:00,9,995.3,-0.7,93,8,9000,22.224,,,250,,,,1,,,,,,61,wg-a,,,,AAXX 13094 07149 12359 82512 10090 20080 39846 49953 56007 60017 76162 877// 90900=
07149,1998-09-13 12:00:00,11,997.1,1.8,82,8,500,25.928,,,330,,,,4,,,,,,3,wg-a,,,,AAXX 13124 07149 02400 73314 10110 20080 39864 49971 53018 60056 70362 878// 91200 333 60047=
07149,1998-09-13 18:00:00,12,1002.6,2.6,71,7,500,29.632,,,330,8.1,14,,,,,,,,80,wg-a,,,,AAXX 13184 07149 02500 63316 10120 20070 39919 40026 53026 61000 78086 86800 91800 333 10140 20081 6001=
07149,1998-09-13 21:00:00,11,1003.2,0.6,82,8,8000,31.484,,,290,,,,1,,,,,,81,wg-a,,,,AAXX 13214 07149 12558 72917 10110 20080 39925 40032 53006 60017 78186 87804 92100=
07149,1998-09-14 00:00:00,10,1002.9,-0.4,82,7,25000,25.928,,,280,,,,,,,,,,3,wg-a,,,,AAXX 14004 07149 02675 52814 10100 20070 39921 40029 56004 60016 70386 84504 90000 333 61000=
07149,1998-09-14 03:00:00,9,1003,0.1,87,7,25000,18.52,,,270,,,,,,,,,,,wg-a,,,,AAXX 14034 07149 12775 /2710 10090 20070 39922 40030 52001 60006 82501 90300=
07149,1998-09-14 06:00:00,8,1003.6,0.5,81,5,20000,18.52,,,250,7.5,11.6,,,,,7,,,,wg-a,,,,AAXX 14064 07149 02770 42510 10080 20050 39927 40036 53005 60006 83532 90600 333 10116 20075 60074=
07149,1998-09-14 09:00:00,12,1004.2,0.8,71,7,20000,29.632,,,280,,,,,,,,,,,wg-a,,,,AAXX 14094 07149 12470 72816 10120 20070 39935 40042 53008 60006 878// 90900=
07149,1998-09-14 12:00:00,15,1004.9,0.8,67,9,25000,29.632,,,280,,,,,,,,,,,wg-a,,,,AAXX 14124 07149 12575 72816 10150 20090 39943 40049 51008 60006 8523/ 91200=
07149,1998-09-14 15:00:00,16,1005.1,0.2,55,7,25000,29.632,,,300,,,,,,,,,,25,wg-a,,,,AAXX 14154 07149 02575 63016 10160 20070 39945 40051 53002 61000 72586 86800 91500 333 ////=
07149,1998-09-14 18:00:00,13,1006.9,1.7,77,9,10000,35.188,,,300,7.5,16.8,,,,,,,,16,wg-a,,,,AAXX 14184 07149 02560 63019 10130 20090 39962 40069 53017 61000 71686 86804 91800 333 10168 20075 6000=
07149,1998-09-14 21:00:00,12,1008.8,1.9,88,10,25000,25.928,,,280,,,,,,,,,,3,wg-a,,,,AAXX 14214 07149 02475 42814 10120 20100 39981 40088 52019 61000 70386 84800 92100 333 ////=
07149,1998-09-15 00:00:00,13,1009.6,0.8,82,10,25000,25.928,,,280,,,,,,,,,,1,wg-a,,,,AAXX 15004 07149 02575 62814 10130 20100 39989 40096 51008 61000 70186 86800 90000 333 6100=
07149,1998-09-15 03:00:00,12,1010.5,0.8,82,9,25000,18.52,,,260,,,,,,,,,,,wg-a,,,,AAXX 15034 07149 12475 72610 10120 20090 39997 40105 52008 60006 8483/ 90300=
07149,1998-09-15 06:00:00,11,1011.8,1.3,82,8,25000,22.224,,,250,10.7,12.9,,,,,,,,,wg-a,,,,AAXX 15064 07149 02575 /2512 10110 20080 30010 40118 53013 60006 86831 90600 333 10129 20107 60004=
07149,1998-09-15 09:00:00,14,1012.9,1.2,77,10,20000,25.928,,,250,,,,,,,,,,,wg-a,,,,AAXX 15094 07149 12470 72514 10140 20100 30022 40129 53012 60006 8183/ 90900=
07149,1998-09-15 12:00:00,12,1011.8,-1.2,94,11,4000,25.928,,,210,,,,0,,,,,,10,wg-a,,,,AAXX 15124 07149 02340 82114 10120 20110 30010 40118 58012 60016 71065 875// 91200 333 60007=
07149,1998-09-15 15:00:00,15,1010,-1.7,94,14,17000,18.52,,,220,,,,1,,,,,,21,wg-a,,,,AAXX 15154 07149 12267 72210 10150 20140 39993 40100 56017 60017 72165 877// 91500=
07149,1998-09-15 18:00:00,16,1009.1,-0.8,94,15,25000,14.816,,,230,10.3,17.2,,,,,,,,1,wg-a,,,,AAXX 15184 07149 32475 42308 10160 20150 39985 40091 55008 70165 84801 91800 333 10172 20103=
07149,1998-09-16 00:00:00,15,1011,0.7,77,11,28000,22.224,,,280,,,,,,,,,,,wg-a,,,,AAXX 16004 07149 12578 72812 10150 20110 30003 40110 53007 60006 875// 90000=
07149,1998-09-16 06:00:00,13,1011.3,0.2,82,10,20000,18.52,,,240,12.4,16.5,,,,,1,,,,wg-a,,,,AAXX 16064 07149 02570 /2410 10130 20100 30006 40113 53002 60006 86501 90600 333 10165 20124 60014=
07149,1998-09-16 18:00:00,15,1012.6,0,63,8,25000,18.52,,,280,12.8,17.9,,,,,,,,,wg-a,,,,AAXX 16184 07149 12675 /2810 10150 20080 30019 40126 50000 60006 83831 91800 333 10179 20128=
07149,1998-09-17 00:00:00,12,1013.4,0.3,88,10,25000,25.928,,,270,,,,,,,,,,,wg-a,,,,AAXX 17004 07149 12475 42714 10120 20100 30026 40134 50003 60006 84400 90000=
07149,1998-09-17 03:00:00,12,1013.6,0.2,88,10,22000,14.816,,,280,,,,,,,,,,1,wg-a,,,,AAXX 17034 07149 02572 42808 10120 20100 30028 40136 53002 61000 70186 84500 90300 333 ////=
07149,1998-09-17 06:00:00,11,1015.1,1.5,82,8,22000,11.112,,,290,11.2,14.5,,,,,,,,3,wg-a,,,,AAXX 17064 07149 02572 42906 10110 20080 30043 40151 53015 60006 70386 82804 90600 333 10145 20112 61000=
07149,1998-09-17 09:00:00,15,1016.8,1.8,63,8,22000,22.224,,,340,,,,,,,,,,,wg-a,,,,AAXX 17094 07149 12572 53412 10150 20080 30061 40168 52018 60006 83101 90900=
07149,1998-09-17 12:00:00,16,1017.5,0.7,59,8,500,18.52,,,330,,,,,,,,,,,wg-a,,,,AAXX 17124 07149 12600 73310 10160 20080 30068 40175 53007 60006 86801 91200=
07149,1998-09-17 15:00:00,17,1017.9,0.4,55,8,500,18.52,,,290,,,,,,,,,,,wg-a,,,,AAXX 17154 07149 12600 42910 10170 20080 30072 40179 51004 60006 84501 91500=
07149,1998-09-17 18:00:00,16,1019.1,1.2,55,7,500,11.112,,,320,11.3,17.8,,,,,,,,,wg-a,,,,AAXX 17184 07149 12600 43206 10160 20070 30084 40191 53012 60006 83501 91800 333 10178 20113=
07149,1998-09-17 21:00:00,10,1020.9,1.5,87,8,25000,3.704,,,30,,,,,,,,,,,wg-a,,,,AAXX 17214 07149 12675 20302 10100 20080 30099 40209 52015 60006 82500 92100=
07149,1998-09-18 00:00:00,8,1021.8,0.8,93,7,22000,3.704,,,270,,,,,,,,,,,wg-a,,,,AAXX 18004 07149 12/72 22702 10080 20070 30107 40218 51008 60006 80001 90000=
07149,1998-09-18 03:00:00,7,1022.2,0.4,93,6,15000,3.704,,,270,,,,,,,,,,,wg-a,,,,AAXX 18034 07149 12/65 12702 10070 20060 30111 40222 53004 60006 81030 90300=
07149,1998-09-18 06:00:00,7,1023.5,1.3,100,7,8000,3.704,,,150,6.1,15.8,,,,,,,,11,wg-a,,,,AAXX 18064 07149 02/58 21502 10070 20070 30124 40235 53013 60006 71100 82031 90600 333 10158 20061 60004=
07149,1998-09-18 09:00:00,16,1024.9,1.7,72,11,11000,7.408,,,160,,,,,,,,,,,wg-a,,,,AAXX 18094 07149 12/61 21604 10160 20110 30141 40249 52017 60006 80001 90900=
07149,1998-09-18 12:00:00,19,1025,0.2,56,10,20000,11.112,,,170,,,,,,,,,,,wg-a,,,,AAXX 18124 07149 12670 /1706 10190 20100 30143 40250 50002 60006 81101 91200=
07149,1998-09-18 15:00:00,21,1024.7,-0.2,43,8,25000,3.704,,,170,,,,,,,,,,,wg-a,,,,AAXX 18154 07149 12/75 11702 10210 20080 30141 40247 57002 60006 80001 91500=
07149,1998-09-18 18:00:00,18,1025.9,1.1,56,9,22000,7.408,,,110,7.3,21.1,,,,,,,,,wg-a,,,,AAXX 18184 07149 12/72 41104 10180 20090 30152 40259 53011 60006 80001 91800 333 10211 20073=
07149,1998-09-18 21:00:00,14,1027.6,1.5,72,9,20000,11.112,,,140,,,,,,,,,,,wg-a,,,,AAXX 18214 07149 12/70 21406 10140 20090 30167 40276 51015 60006 80001 92100=
07149,1998-09-19 00:00:00,12,1028.5,0.8,76,8,20000,7.408,,,150,,,,,,,,,,,wg-a,,,,AAXX 19004 07149 12/70 41504 10120 20080 30175 40285 51008 60006 80001 90000=
07149,1998-09-19 03:00:00,8,1029.3,0.7,93,7,17000,0,,,0,,,,,,,,,,,wg-a,,,,AAXX 19034 07149 12/67 00000 10080 20070 30182 40293 51007 60006 80000 90300=
07149,1998-09-19 06:00:00,8,1030.1,0.8,93,7,17000,7.408,,,60,7.4,17.6,,,,,,,,,wg-a,,,,AAXX 19064 07149 02/67 20604 10080 20070 30190 40301 53008 60006 81031 90600 333 10176 20074 60004=
07149,1998-09-19 09:00:00,17,1030.9,1.1,55,8,17000,7.408,,,100,,,,,,,,,,,wg-a,,,,AAXX 19094 07149 12/67 41004 10170 20080 30201 40309 52011 60006 80001 90900=
07149,1998-09-19 12:00:00,21,1030.5,-0.3,46,9,20000,18.52,,,110,,,,,,,,,,,wg-a,,,,AAXX 19124 07149 12/70 21110 10210 20090 30198 40305 57003 60006 80001 91200=
07149,1998-09-19 15:00:00,22,1029.5,-0.9,46,10,25000,14.816,,,80,,,,,,,,,,,wg-a,,,,AAXX 19154 07149 12/75 20808 10220 20100 30189 40295 56009 60006 80001 91500=
07149,1998-09-19 18:00:00,19,1029.8,0.2,56,10,22000,11.112,,,90,7.7,22.3,,,,,,,,,wg-a,,,,AAXX 19184 07149 12/72 10906 10190 20100 30191 40298 53002 60006 80001 91800 333 10223 20077=
07149,1998-09-19 21:00:00,14,1030.7,0.7,82,11,20000,11.112,,,60,,,,,,,,,,,wg-a,,,,AAXX 19214 07149 12/70 00606 10140 20110 30198 40307 51007 60006 80000 92100=
07149,1998-09-20 00:00:00,12,1030.8,-0,88,10,16000,7.408,,,40,,,,,,,,,,,wg-a,,,,AAXX 20004 07149 12/66 00404 10120 20100 30198 40308 55000 60006 80000 90000=
07149,1998-09-20 03:00:00,11,1030.9,0.1,94,10,14000,11.112,,,40,,,,,,,,,,,wg-a,,,,AAXX 20034 07149 12/64 00406 10110 20100 30199 40309 52001 60006 80000 90300=
07149,1998-09-20 06:00:00,10,1031.4,0.4,93,9,9000,11.112,,,40,10.3,19.4,,,,,,,,,wg-a,,,,AAXX 20064 07149 02/59 /0406 10100 20090 30203 40314 53004 60006 81030 90600 333 10194 20103 60004=
07149,1998-09-20 09:00:00,17,1031.7,0.6,72,12,10000,11.112,,,30,,,,,,,,,,,wg-a,,,,AAXX 20094 07149 12560 60306 10170 20120 30209 40317 51006 60006 83531 90900=
07149,1998-09-20 12:00:00,21,1030.7,-0.9,60,13,15000,14.816,,,60,,,,,,,,,,,wg-a,,,,AAXX 20124 07149 12565 50608 10210 20130 30200 40307 58009 60006 85800 91200=
07149,1998-09-20 15:00:00,21,1029.3,-1.3,56,12,17000,18.52,,,60,,,,,,,,,,,wg-a,,,,AAXX 20154 07149 12667 30610 10210 20120 30187 40293 56013 60006 83400 91500=
07149,1998-09-20 18:00:00,18,1029.3,-0.1,59,10,17000,14.816,,,60,10.3,21.6,,,,,,,,,wg-a,,,,AAXX 20184 07149 12/67 10608 10180 20100 30186 40293 55001 60006 80001 91800 333 10216 20103=
07149,1998-09-21 00:00:00,12,1030.3,0.1,88,10,20000,11.112,,,40,,,,,,,,,,,wg-a,,,,AAXX 21004 07149 12/70 00406 10120 20100 30193 40303 52001 60006 80000 90000=
07149,1998-09-21 03:00:00,12,1030,-0.3,82,9,15000,11.112,,,60,,,,,,,,,,,wg-a,,,,AAXX 21034 07149 12/65 00606 10120 20090 30190 40300 58003 60006 80000 90300=
07149,1998-09-21 06:00:00,10,1029.9,-0.1,93,9,9000,14.816,,,40,9.4,18.2,,,,,,,,,wg-a,,,,AAXX 21064 07149 02/59 10408 10100 20090 30189 40299 55001 60006 80001 90600 333 10182 20094 60004=
07149,1998-09-21 09:00:00,16,1029.2,-0.5,68,10,12000,18.52,,,60,,,,,,,,,,,wg-a,,,,AAXX 21094 07149 12/62 20610 10160 20100 30184 40292 58005 60006 80001 90900=
07149,1998-09-21 12:00:00,21,1027,-2,40,7,20000,18.52,,,70,,,,,,,,,,,wg-a,,,,AAXX 21124 07149 12/70 50710 10210 20070 30164 40270 57020 60006 80004 91200=
07149,1998-09-21 15:00:00,21,1025.5,-1.5,43,8,25000,22.224,,,80,,,,,,,,,,,wg-a,,,,AAXX 21154 07149 12/75 50812 10210 20080 30149 40255 57015 60006 80004 91500=
07149,1998-09-21 18:00:00,18,1025.7,0.1,49,7,25000,18.52,,,80,10.4,21.3,,,,,,,,,wg-a,,,,AAXX 21184 07149 12/75 50810 10180 20070 30150 40257 53001 60006 80002 91800 333 10213 20104=
07149,1998-09-21 21:00:00,15,1025.5,-0.3,67,9,25000,14.816,,,60,,,,,,,,,,,wg-a,,,,AAXX 21214 07149 12/75 30608 10150 20090 30147 40255 58003 60006 80001 92100=
07149,1998-09-22 00:00:00,11,1024.8,-0.9,82,8,25000,11.112,,,40,,,,,,,,,,,wg-a,,,,AAXX 22004 07149 12/75 00406 10110 20080 30138 40248 57009 60006 80000 90000=
07149,1998-09-22 03:00:00,10,1024,-0.8,87,8,22000,11.112,,,50,,,,,,,,,,,wg-a,,,,AAXX 22034 07149 12/72 00506 10100 20080 30130 40240 56008 60006 80000 90300=
07149,1998-09-22 06:00:00,10,1023.6,-0.4,87,8,14000,14.816,,,50,8.4,18.3,,,,,,,,,wg-a,,,,AAXX 22064 07149 02/64 20508 10100 20080 30126 40236 55004 60006 81031 90600 333 10183 20084 60004=
07149,1998-09-22 09:00:00,16,1022.8,-0.5,63,9,15000,14.816,,,90,,,,,,,,,,,wg-a,,,,AAXX 22094 07149 12/65 10908 10160 20090 30121 40228 57005 60006 80001 90900=
07149,1998-09-22 12:00:00,20,1020.4,-2.3,43,7,20000,25.928,,,90,,,,,,,,,,,wg-a,,,,AAXX 22124 07149 12670 /0914 10200 20070 30098 40204 58023 60006 81100 91200=
07149,1998-09-22 15:00:00,21,1018.6,-1.7,40,7,500,25.928,,,80,,,,,,,,,,,wg-a,,,,AAXX 22154 07149 12700 30814 10210 20070 30081 40186 56017 60006 83100 91500=
07149,1998-09-22 18:00:00,17,1018.5,-0.3,52,7,500,14.816,,,80,9.5,21.5,,,,,,,,,wg-a,,,,AAXX 22184 07149 12700 10808 10170 20070 30078 40185 56003 60006 81500 91800 333 10215 20095=
07149,1998-09-22 21:00:00,16,1019,0.5,55,7,25000,18.52,,,90,,,,,,,,,,,wg-a,,,,AAXX 22214 07149 12675 40910 10160 20070 30083 40190 52005 60006 84500 92100=
07149,1998-09-23 00:00:00,13,1019,-0.1,72,8,25000,14.816,,,100,,,,,,,,,,,wg-a,,,,AAXX 23004 07149 12775 11008 10130 20080 30082 40190 58001 60006 81500 90000=
07149,1998-09-23 03:00:00,12,1019.1,-0,82,9,25000,11.112,,,60,,,,,,,,,,,wg-a,,,,AAXX 23034 07149 12/75 00606 10120 20090 30082 40191 55000 60006 80000 90300=
07149,1998-09-23 06:00:00,10,1019.7,0.6,87,8,13000,7.408,,,80,8.8,17.1,,,,,,,,,wg-a,,,,AAXX 23064 07149 02/63 10804 10100 20080 30088 40197 53006 60006 80001 90600 333 10171 20088 60004=
07149,1998-09-23 09:00:00,16,1020.2,0.7,68,10,12000,7.408,,,120,,,,,,,,,,,wg-a,,,,AAXX 23094 07149 12/62 11204 10160 20100 30095 40202 51007 60006 80001 90900=
07149,1998-09-23 12:00:00,23,1018.8,-1.2,47,11,14000,11.112,,,100,,,,,,,,,,,wg-a,,,,AAXX 23124 07149 12/64 01006 10230 20110 30083 40188 56012 60006 80000 91200=
07149,1998-09-23 15:00:00,24,1017.3,-1.4,41,10,17000,11.112,,,120,,,,,,,,,,,wg-a,,,,AAXX 23154 07149 12/67 01206 10240 20100 30069 40173 58014 60006 80000 91500=
07149,1998-09-23 18:00:00,20,1017.2,-0.2,56,11,15000,7.408,,,100,10.2,24.1,,,,,,,,,wg-a,,,,AAXX 23184 07149 12/65 01004 10200 20110 30067 40172 56002 60006 80000 91800 333 10241 20102=
07149,1998-09-23 21:00:00,16,1017.4,0,72,11,15000,7.408,,,50,,,,,,,,,,,wg-a,,,,AAXX 23214 07149 12/65 10504 10160 20110 30067 40174 50000 60006 80001 92100=
07149,1998-09-24 00:00:00,15,1016.8,-0.6,77,11,15000,7.408,,,120,,,,,,,,,,,wg-a,,,,AAXX 24004 07149 12/65 21204 10150 20110 30061 40168 56006 60006 80001 90000=
07149,1998-09-24 03:00:00,12,1016.2,-0.7,88,10,15000,3.704,,,120,,,,,,,,,,,wg-a,,,,AAXX 24034 07149 12/65 21202 10120 20100 30054 40162 56007 60006 80001 90300=
07149,1998-09-24 06:00:00,12,1015.6,-0.6,88,10,8000,3.704,,,110,11.4,20.1,,,,,,,,,wg-a,,,,AAXX 24064 07149 02/58 41102 10120 20100 30048 40156 56006 60006 80001 90600 333 10201 20114 60004=
07149,1998-09-24 09:00:00,17,1015.5,0.1,68,11,12000,14.816,,,160,,,,,,,,,,,wg-a,,,,AAXX 24094 07149 12/62 51608 10170 20110 30049 40155 50001 60006 82031 90900=
07149,1998-09-24 12:00:00,21,1014.9,-0.5,60,13,14000,18.52,,,210,,,,,,,,,,,wg-a,,,,AAXX 24124 07149 12/64 52110 10210 20130 30044 40149 56005 60006 84031 91200=
07149,1998-09-24 15:00:00,23,1013.4,-1.4,50,12,17000,14.816,,,190,,,,,,,,,,,wg-a,,,,AAXX 24154 07149 12667 /1908 10230 20120 30030 40134 56014 60006 82231 91500=
07149,1998-09-24 18:00:00,19,1013.1,-0.4,60,11,15000,11.112,,,160,11.9,23.3,,,,,,,,,wg-a,,,,AAXX 24184 07149 12/65 61606 10190 20110 30026 40131 55004 60006 84031 91800 333 10233 20119=
07149,1998-09-24 21:00:00,17,1013.4,0.4,68,11,15000,7.408,,,150,,,,,,,,,,,wg-a,,,,AAXX 24214 07149 12/65 61504 10170 20110 30028 40134 51004 60006 84031 92100=
07149,1998-09-25 00:00:00,15,1013.4,-0.3,77,11,15000,3.704,,,110,,,,,,,,,,,wg-a,,,,AAXX 25004 07149 12665 51102 10150 20110 30027 40134 58003 60006 83531 90000=
07149,1998-09-25 03:00:00,14,1012.5,-0.9,82,11,12000,11.112,,,150,,,,,,,,,,,wg-a,,,,AAXX 25034 07149 12762 61506 10140 20110 30018 40125 58009 60006 82531 90300=
07149,1998-09-25 06:00:00,13,1012,-0.5,88,11,12000,7.408,,,130,12.7,19.3,,,,,,,,,wg-a,,,,AAXX 25064 07149 02762 61304 10130 20110 30013 40120 56005 60006 82531 90600 333 10193 20127 60004=
07149,1998-09-25 09:00:00,18,1011,-0.5,68,12,13000,11.112,,,160,,,,,,,,,,,wg-a,,,,AAXX 25094 07149 12/63 31606 10180 20120 30005 40110 57005 60006 81031 90900=
07149,1998-09-25 12:00:00,22,1008.7,-2.2,57,13,16000,14.816,,,130,,,,,,,,,,,wg-a,,,,AAXX 25124 07149 12/66 51308 10220 20130 39983 40087 58022 60006 80001 91200=
07149,1998-09-25 15:00:00,24,1007.1,-1.5,50,13,18000,14.816,,,170,,,,,,,,,,,wg-a,,,,AAXX 25154 07149 12668 /1708 10240 20130 39968 40071 57015 60006 82801 91500=
07149,1998-09-25 18:00:00,20,1007,-0.2,64,13,18000,7.408,,,190,13.2,24.5,,,,,,,,,wg-a,,,,AAXX 25184 07149 12768 81904 10200 20130 39966 40070 56002 60006 8388/ 91800 333 10245 20132=
07149,1998-09-25 21:00:00,16,1006.8,-0.4,94,15,9000,11.112,,,160,,,,1,,,,,,1,wg-a,,,,AAXX 25214 07149 12759 71606 10160 20150 39962 40068 58004 60017 70162 83531 92100=
07149,1998-09-26 00:00:00,15,1005.8,-1,94,14,10000,11.112,,,130,,,,,,,,,,1,wg-a,,,,AAXX 26004 07149 12/60 11306 10150 20140 39952 40058 58010 60016 70161 8/0/1 90000=
07149,1998-09-26 06:00:00,14,1002.2,-1.5,94,13,12000,14.816,,,130,13.9,20.2,,,,,1,,,,wg-a,,,,AAXX 26064 07149 02/62 71308 10140 20130 39916 40022 56015 60006 84082 90600 333 10202 20139 60014=
07149,1998-09-26 12:00:00,16,1000.8,-0.4,94,15,12000,7.408,,,170,,,,4,,,,,,61,wg-a,,,,AAXX 26124 07149 02262 81704 10160 20150 39903 40008 58004 60046 76166 8472/ 91200 333 60047=
07149,1998-09-26 15:00:00,17,1000,-0.8,94,16,14000,11.112,,,190,,,,0,,,,,,21,wg-a,,,,AAXX 26154 07149 12364 81906 10170 20160 39895 40000 57008 60007 72162 8612/ 91500=
07149,1998-09-26 18:00:00,16,999.7,-0.3,94,15,16000,14.816,,,150,14.3,17,,,,,,,,1,wg-a,,,,AAXX 26184 07149 12466 71508 10160 20150 39892 49997 56003 60006 70162 85802 91800 333 10170 20143=
07149,1998-09-26 21:00:00,14,1000,0.2,94,13,10000,7.408,,,120,,,,,,,,,,11,wg-a,,,,AAXX 26214 07149 12660 31204 10140 20130 39894 40000 50002 60006 71111 82501 92100=
07149,1998-09-27 00:00:00,12,999.9,-0.2,94,11,15000,11.112,,,170,,,,,,,,,,,wg-a,,,,AAXX 27004 07149 12765 31706 10120 20110 39892 49999 55002 60006 82501 90000=
07149,1998-09-27 03:00:00,12,998.2,-1.6,94,11,20000,11.112,,,110,,,,,,,,,,,wg-a,,,,AAXX 27034 07149 12770 61106 10120 20110 39876 49982 58016 60006 82571 90300=
07149,1998-09-27 06:00:00,13,996.4,-1.8,94,12,20000,14.816,,,130,11.8,15.7,,,,,6,,,1,wg-a,,,,AAXX 27064 07149 02270 /1308 10130 20120 39858 49964 57018 60006 70161 84571 90600 333 10157 20118 60064=
07149,1998-09-27 09:00:00,14,995,-1.3,94,13,7000,22.224,,,140,,,,0,,,,,,61,wg-a,,,,AAXX 27094 07149 12357 81412 10140 20130 39845 49950 56013 60007 76165 875// 90900=
07149,1998-09-27 12:00:00,14,994.7,-0.3,94,13,6000,14.816,,,160,,,,1,,,,,,10,wg-a,,,,AAXX 27124 07149 02256 81608 10140 20130 39842 49947 58003 60026 71065 877// 91200 333 60017=
07149,1998-09-27 15:00:00,15,996.2,1.5,94,14,10000,22.224,,,310,,,,4,,,,,,61,wg-a,,,,AAXX 27154 07149 12360 83112 10150 20140 39857 49962 53015 60047 76166 885// 91500=
07149,1998-09-27 18:00:00,15,1000.5,4.3,88,13,13000,25.928,,,290,12.7,15.1,,,,,,,,21,wg-a,,,,AAXX 27184 07149 02463 82914 10150 20130 39900 40005 53043 61000 72162 8557/ 91800 333 10151 20127 6003=
07149,1998-09-27 21:00:00,14,1003.4,2.8,94,13,17000,14.816,,,260,,,,,,,,,,,wg-a,,,,AAXX 27214 07149 12567 72608 10140 20130 39928 40034 51028 60006 8357/ 92100=
07149,1998-09-28 00:00:00,13,1003.8,0.3,94,12,15000,11.112,,,240,,,,,,,,,,,wg-a,,,,AAXX 28004 07149 12665 42406 10130 20120 39931 40038 51003 60006 82530 90000=
07149,1998-09-28 03:00:00,13,1003.3,-0.4,94,12,12000,11.112,,,220,,,,,,,,,,,wg-a,,,,AAXX 28034 07149 12562 72206 10130 20120 39927 40033 58004 60006 875// 90300=
07149,1998-09-28 06:00:00,14,1003.7,0.4,94,13,7000,11.112,,,220,12.4,14.9,,,,,,,,21,wg-a,,,,AAXX 28064 07149 02357 82206 10140 20130 39931 40037 53004 61000 72165 875// 90600 333 10149 20124 6005=
07149,1998-09-28 12:00:00,17,1005.8,0.8,82,14,10000,18.52,,,310,,,,,,,,,,15,wg-a,,,,AAXX 28124 07149 02460 73110 10170 20140 39953 40058 53008 61000 71552 878// 91200 333 ////=
07149,1998-09-28 15:00:00,19,1005.8,-0,68,13,10000,22.224,,,310,,,,,,,,,,,wg-a,,,,AAXX 28154 07149 12560 73112 10190 20130 39953 40058 55000 60006 87800 91500=
07149,1998-09-28 18:00:00,17,1007.2,1.4,82,14,6000,11.112,,,310,,,,,,,,,,,wg-a,,,,AAXX 28184 07149 12556 73106 10170 20140 39967 40072 53014 60006 8688/ 91800=
07149,1998-09-28 21:00:00,14,1008.8,1.4,94,13,7000,11.112,,,280,,,,,,,,,,,wg-a,,,,AAXX 28214 07149 12757 42806 10140 20130 39981 40088 51014 60006 84500 92100=
07149,1998-09-29 00:00:00,14,1009.2,0.4,94,13,7000,7.408,,,280,,,,0,,,,,,21,wg-a,,,,AAXX 29004 07149 02757 72804 10140 20130 39985 40092 51004 60006 72161 875// 90000 333 60007=
07149,1998-09-29 03:00:00,14,1009,-0.2,94,13,3000,11.112,,,240,,,,,,,,,,10,wg-a,,,,AAXX 29034 07149 12130 72406 10140 20130 39983 40090 55002 60006 71022 876// 90300=
07149,1998-09-29 06:00:00,14,1008.8,-0.2,94,13,2500,7.408,,,220,13.2,17,,,,,,,,10,wg-a,,,,AAXX 29064 07149 02225 72204 10140 20130 39981 40088 55002 60006 71022 876// 90600 333 10170 20132 60004=
07149,1998-09-29 09:00:00,15,1008.8,0.1,88,13,6000,14.816,,,210,,,,,,,,,,,wg-a,,,,AAXX 29094 07149 12356 72108 10150 20130 39982 40088 53001 60006 875// 90900=
07149,1998-09-29 12:00:00,17,1007.8,-1,77,13,10000,11.112,,,230,,,,,,,,,,,wg-a,,,,AAXX 29124 07149 12460 72306 10170 20130 39972 40078 56010 60006 878// 91200=
07149,1998-09-29 15:00:00,17,1005.6,-2.1,77,13,14000,11.112,,,180,,,,,,,,,,,wg-a,,,,AAXX 29154 07149 12464 71806 10170 20130 39951 40056 56021 60006 85802 91500=
07149,1998-09-29 18:00:00,16,1004,-1.7,82,13,10000,11.112,,,140,14,17.1,,,,,,,,,wg-a,,,,AAXX 29184 07149 12760 81406 10160 20130 39934 40040 56017 60006 8557/ 91800 333 10171 20140=
07149,1998-09-30 00:00:00,15,999.8,-2.3,88,13,10000,11.112,,,140,,,,0,,,,,,61,wg-a,,,,AAXX 30004 07149 02460 81406 10150 20130 39893 49998 56023 60016 76162 875// 90000 333 60007=
07149,1998-09-30 03:00:00,15,998.4,-1.4,94,14,7000,22.224,,,200,,,,4,,,,,,60,wg-a,,,,AAXX 30034 07149 12257 82012 10150 20140 39879 49984 56014 60047 76066 875// 90300=
07149,1998-09-30 06:00:00,14,1000.3,1.8,94,13,11000,29.632,,,210,13.9,15.7,,,,,,,,61,wg-a,,,,AAXX 30064 07149 02361 /2116 10140 20130 39897 40003 51018 61000 76161 83800 90600 333 10157 20139 6004=
07149,1998-09-30 09:00:00,15,1001.3,1.1,82,12,25000,29.632,,,220,,,,,,,,,,3,wg-a,,,,AAXX 30094 07149 32475 72216 10150 20120 39908 40013 51011 70361 872// 90900=
07149,1998-09-30 12:00:00,19,1001.4,0.2,56,10,25000,35.188,,,210,,,,,,,,,,1,wg-a,,,,AAXX 30124 07149 02575 42119 10190 20100 39910 40014 51002 61000 70186 84200 91200 333 6100=
07149,1998-09-30 15:00:00,18,1000.5,-0.9,64,11,20000,29.632,,,190,,,,0,,,,,,25,wg-a,,,,AAXX 30154 07149 12670 41916 10180 20110 39901 40005 56009 60007 72586 83301 91500=
07149,1998-09-30 18:00:00,16,1001.3,0.7,68,10,25000,18.52,,44.448,190,13.9,19.8,,,,,,,,1,wg-a,,,,AAXX 30184 07149 12675 41910 10160 20100 39908 40013 53007 60006 70186 83232 91800 333 10198 20139 91024=
07149,1998-09-30 21:00:00,14,1002.2,0.8,72,9,25000,25.928,,,200,,,,,,,,,,,wg-a,,,,AAXX 30214 07149 12675 42014 10140 20090 39916 40022 51008 60006 84800 92100=
07149,1998-10-01 00:00:00,13,1002.5,,82,10,25000,22.224,,,190,,,,,,,,,,,wg-a,,,,AAXX 01004 07149 12675 /1912 10130 20100 39918 40025 60006 83500 90000=
07149,1998-10-01 03:00:00,11,1002.8,,87,9,25000,14.816,,,170,,,,,,,,,,,wg-a,,,,AAXX 01034 07149 12475 31708 10110 20090 39921 40028 60006 82130 90300=
07149,1998-10-01 06:00:00,11,1003.4,0.5,87,9,22000,14.816,,,160,10.4,15.5,,,,,,,,,wg-a,,,,AAXX 01064 07149 02772 41608 10110 20090 39926 40034 53005 60006 82530 90600 333 10155 20104 60004=
07149,1998-10-01 09:00:00,14,1003.5,0.3,77,10,25000,18.52,,,170,,,,,,,,,,,wg-a,,,,AAXX 01094 07149 12475 71710 10140 20100 39929 40035 50003 60006 83131 90900=
07149,1998-10-01 12:00:00,16,1003.2,-0.2,68,10,25000,18.52,,,160,,,,,,,,,,,wg-a,,,,AAXX 01124 07149 12575 71610 10160 20100 39927 40032 58002 60006 878// 91200=
07149,1998-10-01 18:00:00,13,1003.8,0.5,94,12,18000,7.408,,,110,10.5,16.9,,0,,,,,,1,wg-a,,,,AAXX 01184 07149 02668 71104 10130 20120 39932 40038 52005 60006 70186 8553/ 91800 333 10169 20105 60007=
07149,1998-10-01 21:00:00,13,1004.5,0.6,88,11,25000,7.408,,,110,,,,,,,,,,,wg-a,,,,AAXX 01214 07149 12575 71104 10130 20110 39938 40045 53006 60006 835// 92100=
07149,1998-10-02 00:00:00,13,1004.7,0.2,82,10,25000,7.408,,,110,,,,,,,,,,,wg-a,,,,AAXX 02004 07149 12775 71104 10130 20100 39940 40047 52002 60006 875// 90000=
07149,1998-10-02 03:00:00,12,1004.9,0.2,88,10,22000,7.408,,,60,,,,,,,,,,60,wg-a,,,,AAXX 02034 07149 02772 80604 10120 20100 39942 40049 53002 61000 76062 875// 90300 333 ////=
07149,1998-10-02 06:00:00,12,1005.7,0.8,88,10,12000,11.112,,,50,11.3,13.3,,,,,,,,21,wg-a,,,,AAXX 02064 07149 02662 70506 10120 20100 39950 40057 53008 61000 72162 8587/ 90600 333 10133 20113 6000=
07149,1998-10-02 09:00:00,13,1007.1,1.4,82,10,12000,18.52,,,30,,,,,,,,,,,wg-a,,,,AAXX 02094 07149 12462 /0310 10130 20100 39964 40071 52014 60006 84830 90900=
07149,1998-10-02 12:00:00,15,1007.6,0.6,77,11,12000,22.224,,,20,,,,,,,,,,,wg-a,,,,AAXX 02124 07149 12462 50212 10150 20110 39970 40076 51006 60006 84830 91200=
07149,1998-10-02 15:00:00,13,1008.6,0.9,82,10,6000,22.224,,,10,,,,2,,,,,,,wg-a,,,,AAXX 02154 07149 12456 70112 10130 20100 39979 40086 53009 60027 872// 91500=
07149,1998-10-02 18:00:00,12,1010.2,1.5,82,9,4000,18.52,,,360,11.2,15.8,,,,,,,,10,wg-a,,,,AAXX 02184 07149 12440 83610 10120 20090 39994 40102 53015 60006 71022 875// 91800 333 10158 20112=
07149,1998-10-02 21:00:00,11,1011.6,1.4,82,8,7000,14.816,,,20,,,,,,,,,,,wg-a,,,,AAXX 02214 07149 12457 80208 10110 20080 30008 40116 51014 60006 875// 92100=
07149,1998-10-03 00:00:00,10,1011.6,-0.1,87,8,6000,14.816,,,10,,,,,,,,,,20,wg-a,,,,AAXX 03004 07149 02356 80108 10100 20080 30007 40116 58001 61000 72052 875// 90000 333 6100=
07149,1998-10-03 03:00:00,8,1012.3,0.6,93,7,2500,11.112,,,30,,,,,,,,,,51,wg-a,,,,AAXX 03034 07149 02225 80306 10080 20070 30013 40123 51006 61000 75152 877// 90300 333 ////=
07149,1998-10-03 06:00:00,7,1012.7,0.4,93,6,4500,11.112,,,20,7.2,12,,,,,2,,,10,wg-a,,,,AAXX 03064 07149 02445 80206 10070 20060 30017 40127 52004 60006 71052 875// 90600 333 10120 20072 60024=
07149,1998-10-03 09:00:00,7,1013.9,1.2,70,2,13000,14.816,,,10,,,,,,,,,,,wg-a,,,,AAXX 03094 07149 12563 80108 10070 20020 30029 40139 53012 60006 875// 90900=
07149,1998-10-03 12:00:00,11,1012.9,-0.9,58,3,14000,7.408,,,10,,,,,,,,,,,wg-a,,,,AAXX 03124 07149 12564 20104 10110 20030 30020 40129 58009 60006 82800 91200=
07149,1998-10-03 15:00:00,11,1011.8,-1,50,1,17000,11.112,,,340,,,,,,,,,,,wg-a,,,,AAXX 03154 07149 12667 73406 10110 20010 30010 40118 56010 60006 875// 91500=
07149,1998-10-03 18:00:00,10,1011.6,-0.3,66,4,13000,18.52,,,290,6.2,12.4,,,,,,,,,wg-a,,,,AAXX 03184 07149 12763 72910 10100 20040 30007 40116 55003 60006 875// 91800 333 10124 20062=
07149,1998-10-03 21:00:00,9,1011,-0.6,76,5,12000,7.408,,,300,,,,,,,,,,,wg-a,,,,AAXX 03214 07149 12662 73004 10090 20050 30001 40110 58006 60006 875// 92100=
07149,1998-10-04 00:00:00,8,1009.7,-1.3,81,5,12000,7.408,,,230,,,,,,,,,,,wg-a,,,,AAXX 04004 07149 12662 72304 10080 20050 39988 40097 56013 60006 875// 90000=
07149,1998-10-04 03:00:00,8,1007.9,-1.8,81,5,10000,7.408,,,200,,,,,,,,,,,wg-a,,,,AAXX 04034 07149 12660 72004 10080 20050 39970 40079 56018 60006 875// 90300=
07149,1998-10-04 06:00:00,8,1006.4,-1.5,81,5,6000,7.408,,,200,7.1,9.5,,,,,,,,,wg-a,,,,AAXX 04064 07149 02656 72004 10080 20050 39955 40064 56015 60006 875// 90600 333 10095 20071 60004=
07149,1998-10-04 09:00:00,9,1005.8,-0.5,76,5,9000,7.408,,,210,,,,,,,,,,,wg-a,,,,AAXX 04094 07149 12759 82104 10090 20050 39950 40058 56005 60006 875// 90900=
07149,1998-10-04 12:00:00,11,1005.1,-0.7,66,5,10000,11.112,,,210,,,,,,,,,,,wg-a,,,,AAXX 04124 07149 12560 82106 10110 20050 39943 40051 58007 60006 878// 91200=
07149,1998-10-04 15:00:00,11,1004.3,-0.7,66,5,11000,3.704,,,200,,,,,,,,,,,wg-a,,,,AAXX 04154 07149 12561 82002 10110 20050 39936 40043 56007 60006 878// 91500=
07149,1998-10-04 18:00:00,10,1004.8,0.4,87,8,4000,3.704,,,30,7.5,11.3,,,,,,,,60,wg-a,,,,AAXX 04184 07149 02540 80302 10100 20080 39940 40048 53004 61000 76062 875// 91800 333 10113 20075 6100=
07149,1998-10-04 21:00:00,9,1005.5,0.7,87,7,6000,3.704,,,70,,,,,,,,,,21,wg-a,,,,AAXX 04214 07149 02556 80702 10090 20070 39947 40055 51007 61000 72165 875// 92100 333 ////=
07149,1998-10-05 00:00:00,9,1005.9,0.3,93,8,4000,7.408,,,40,,,,,,,,,,10,wg-a,,,,AAXX 05004 07149 02240 80404 10090 20080 39950 40059 51003 61000 71065 875// 90000 333 ////=
07149,1998-10-05 03:00:00,8,1006,0.1,93,7,4000,7.408,,,60,,,,,,,,,,10,wg-a,,,,AAXX 05034 07149 12240 80604 10080 20070 39951 40060 51001 60006 71022 875// 90300=
07149,1998-10-05 06:00:00,8,1006.8,0.8,93,7,3500,11.112,,,30,7.7,9.6,,,,,,,,,wg-a,,,,AAXX 05064 07149 02/35 /0306 10080 20070 39959 40068 53008 60006 90600 333 10096 20077 61000=
07149,1998-10-05 09:00:00,10,1007.9,1.2,82,7,500,7.408,,,40,,,,,,,,,,,wg-a,,,,AAXX 05094 07149 12400 70404 10100 20070 39971 40079 51012 60006 8163/ 90900=
07149,1998-10-05 12:00:00,12,1008.3,0.4,71,7,9000,3.704,,,70,,,,,,,,,,,wg-a,,,,AAXX 05124 07149 12559 70702 10120 20070 39975 40083 51004 60006 872// 91200=
07149,1998-10-05 15:00:00,12,1008.5,0.2,76,8,8000,11.112,,,50,,,,,,,,,,,wg-a,,,,AAXX 05154 07149 12558 70506 10120 20080 39977 40085 53002 60006 872// 91500=
07149,1998-10-05 18:00:00,10,1009.8,1.3,82,7,6000,14.816,,,50,7.9,12.7,,,,,,,,,wg-a,,,,AAXX 05184 07149 12756 70508 10100 20070 39990 40098 53013 60006 8357/ 91800 333 10127 20079=
07149,1998-10-06 00:00:00,7,1010.8,0,93,6,6000,11.112,,,40,,,,,,,,,,,wg-a,,,,AAXX 06004 07149 12/56 40406 10070 20060 39998 40108 50000 60006 82031 90000=
07149,1998-10-06 06:00:00,6,1010.3,-0.7,93,5,6000,14.816,,,20,5.4,10.2,,,,,,,,,wg-a,,,,AAXX 06064 07149 02/56 20208 10060 20050 39993 40103 56007 60006 80001 90600 333 10102 20054 60004=
07149,1998-10-06 09:00:00,8,1011.9,1.6,87,6,4500,14.816,,,20,,,,,,,,,,10,wg-a,,,,AAXX 06094 07149 12245 70208 10080 20060 30009 40119 51016 60006 71011 85601 90900=
07149,1998-10-06 12:00:00,10,1011.6,-0.1,87,8,4800,14.816,,,20,,,,,,,,,,10,wg-a,,,,AAXX 06124 07149 12348 80208 10100 20080 30008 40116 58001 60006 71011 877// 91200=
07149,1998-10-06 15:00:00,11,1011.9,0.3,87,9,4000,14.816,,,360,,,,,,,,,,10,wg-a,,,,AAXX 06154 07149 02340 83608 10110 20090 30011 40119 52003 61000 71062 875// 91500 333 ////=
07149,1998-10-06 18:00:00,10,1013.5,1.5,82,7,4000,18.52,,,10,6.4,11.4,,,,,,,,10,wg-a,,,,AAXX 06184 07149 02440 80110 10100 20070 30026 40135 53015 60006 71062 875// 91800 333 10114 20064 61000=
07149,1998-10-06 21:00:00,9,1014.5,1,81,6,500,14.816,,,10,,,,,,,,,,,wg-a,,,,AAXX 06214 07149 12400 80108 10090 20060 30036 40145 51010 60006 875// 92100=
07149,1998-10-07 00:00:00,9,1014.7,0.1,81,6,4500,11.112,,,10,,,,,,,,,,10,wg-a,,,,AAXX 07004 07149 12445 80106 10090 20060 30037 40147 53001 60006 71022 875// 90000=
07149,1998-10-07 03:00:00,8,1015.2,0.5,81,5,4000,14.816,,,360,,,,,,,,,,10,wg-a,,,,AAXX 07034 07149 02440 83608 10080 20050 30042 40152 51005 61000 71062 885// 90300 333 ////=
07149,1998-10-07 06:00:00,7,1016.1,0.9,93,6,3500,11.112,,,30,7.2,10,,,,,,,,10,wg-a,,,,AAXX 07064 07149 02335 80306 10070 20060 30051 40161 53009 61000 71065 885// 90600 333 10100 20072 6100=
07149,1998-10-07 09:00:00,8,1017.6,1.5,76,4,8000,11.112,,,360,,,,,,,,,,3,wg-a,,,,AAXX 07094 07149 02458 83606 10080 20040 30066 40176 51015 61000 70352 885// 90900 333 ////=
07149,1998-10-07 12:00:00,11,1017.2,-0.3,71,6,9000,14.816,,,340,,,,,,,,,,1,wg-a,,,,AAXX 07124 07149 02459 83408 10110 20060 30063 40172 55003 61000 70152 885// 91200 333 ////=
07149,1998-10-07 15:00:00,11,1017.8,0.6,76,7,9000,14.816,,,300,,,,,,,,,,,wg-a,,,,AAXX 07154 07149 12459 83008 10110 20070 30069 40178 51006 60006 885// 91500=
07149,1998-10-07 21:00:00,11,1018.2,-0.5,87,9,12000,18.52,,,310,,,,2,,,,,,20,wg-a,,,,AAXX 07214 07149 12362 73110 10110 20090 30073 40182 58005 60027 72065 875// 92100=
07149,1998-10-08 00:00:00,11,1018,-0.2,87,9,13000,18.52,,,330,,,,,,,,,,1,wg-a,,,,AAXX 08004 07149 12263 83310 10110 20090 30071 40180 58002 60026 70165 877// 90000=
07149,1998-10-08 03:00:00,10,1017.3,-0.7,93,9,14000,18.52,,,340,,,,,,,,,,3,wg-a,,,,AAXX 08034 07149 02364 83410 10100 20090 30064 40173 58007 61000 70352 875// 90300 333 ////=
07149,1998-10-08 06:00:00,10,1017.9,0.6,93,9,6000,14.816,,,350,10.2,10.7,,,,,2,,,1,wg-a,,,,AAXX 08064 07149 02456 83508 10100 20090 30070 40179 53006 60006 70165 875// 90600 333 10107 20102 60024=
07149,1998-10-08 09:00:00,10,1018.9,1,93,9,4000,14.816,,,320,,,,1,,,,,,10,wg-a,,,,AAXX 08094 07149 12240 83208 10100 20090 30080 40189 51010 60017 71065 887// 90900=
07149,1998-10-08 12:00:00,12,1017.9,-0.9,94,11,7000,18.52,,,330,,,,2,,,,,,51,wg-a,,,,AAXX 08124 07149 02357 83310 10120 20110 30071 40179 58009 60036 75165 887// 91200 333 60027=
07149,1998-10-08 15:00:00,12,1016.5,-1.5,88,10,4500,29.632,,,320,,,,3,,,,,,51,wg-a,,,,AAXX 08154 07149 12345 83216 10120 20100 30056 40165 56015 60037 75166 887// 91500=
07149,1998-10-08 18:00:00,10,1017.3,0.8,93,9,8000,22.224,,,10,9.9,12.1,,,,,,,,51,wg-a,,,,AAXX 08184 07149 02358 80112 10100 20090 30064 40173 53008 61000 75166 877// 91800 333 10121 20099 6001=
07149,1998-10-08 21:00:00,9,1018.5,1.1,93,8,10000,22.224,,,10,,,,0,,,,,,20,wg-a,,,,AAXX 08214 07149 12260 70112 10090 20080 30075 40185 53011 60007 72065 877// 92100=
07149,1998-10-09 00:00:00,10,1020.6,2.1,87,8,12000,18.52,,,70,,,,,,,,,,1,wg-a,,,,AAXX 09004 07149 12362 70710 10100 20080 30096 40206 53021 60006 70165 877// 90000=
07149,1998-10-09 03:00:00,7,1022.1,1.4,93,6,500,14.816,,,30,,,,,,,,,,,wg-a,,,,AAXX 09034 07149 12200 70308 10070 20060 30110 40221 51014 60006 87700 90300=
07149,1998-10-09 06:00:00,8,1022.9,0.8,93,7,500,11.112,,,60,7.1,9.9,,,,,8,,,,wg-a,,,,AAXX 09064 07149 02200 70606 10080 20070 30118 40229 51008 60006 877// 90600 333 10099 20071 60084=
07149,1998-10-09 09:00:00,9,1023.3,0.5,87,7,7000,0,,,0,,,,,,,,,,,wg-a,,,,AAXX 09094 07149 12257 80000 10090 20070 30123 40233 53005 60006 877// 90900=
07149,1998-10-09 12:00:00,11,1022,-1.2,76,7,9000,3.704,,,270,,,,,,,,,,,wg-a,,,,AAXX 09124 07149 12459 82702 10110 20070 30111 40220 58012 60006 875// 91200=
07149,1998-10-09 15:00:00,12,1019.8,-2.2,76,8,15000,14.816,,,250,,,,,,,,,,,wg-a,,,,AAXX 09154 07149 12465 72508 10120 20080 30089 40198 56022 60006 878// 91500=
07149,1998-10-09 18:00:00,11,1019.1,-0.7,82,8,15000,11.112,,,250,7.9,12,,,,,,,,,wg-a,,,,AAXX 09184 07149 12465 72506 10110 20080 30082 40191 56007 60006 878// 91800 333 10120 20079=
07149,1998-10-09 21:00:00,10,1017.9,-1.2,87,8,15000,14.816,,,220,,,,,,,,,,,wg-a,,,,AAXX 09214 07149 12565 72208 10100 20080 30070 40179 58012 60006 875// 92100=
07149,1998-10-10 00:00:00,10,1015.9,-2,87,8,20000,18.52,,,230,,,,,,,,,,,wg-a,,,,AAXX 10004 07149 12570 82310 10100 20080 30050 40159 56020 60006 875// 90000=
07149,1998-10-10 03:00:00,10,1014,-1.9,87,8,15000,25.928,,,220,,,,,,,,,,,wg-a,,,,AAXX 10034 07149 12465 82214 10100 20080 30031 40140 57019 60006 875// 90300=
07149,1998-10-10 06:00:00,10,1012.3,-1.7,93,9,4000,29.632,,,220,9.9,10.5,,,,,,,,61,wg-a,,,,AAXX 10064 07149 02240 82216 10100 20090 30014 40123 56017 61000 76162 885// 90600 333 10105 20099 6003=
07149,1998-10-10 09:00:00,11,1012.6,0.4,94,10,8000,25.928,,,230,,,,2,,,,,,61,wg-a,,,,AAXX 10094 07149 12258 82314 10110 20100 30018 40126 53004 60027 76166 887// 90900=
07149,1998-10-10 12:00:00,14,1012.9,0.4,88,12,20000,22.224,,,240,,,,,,,,,,21,wg-a,,,,AAXX 10124 07149 02370 72412 10140 20120 30022 40129 50004 60026 72162 8683/ 91200 333 61000=
07149,1998-10-10 15:00:00,15,1012.6,-0.3,67,9,25000,18.52,,,300,,,,,,,,,,,wg-a,,,,AAXX 10154 07149 12475 73010 10150 20090 30019 40126 55003 60006 85801 91500=
07149,1998-10-10 18:00:00,13,1014.7,2,77,9,25000,11.112,,,300,10,15.6,,,,,,,,,wg-a,,,,AAXX 10184 07149 12675 73006 10130 20090 30039 40147 53020 60006 86801 91800 333 10156 20100=
07149,1998-10-10 21:00:00,12,1016.4,1.7,82,9,25000,11.112,,,290,,,,,,,,,,,wg-a,,,,AAXX 10214 07149 12775 72906 10120 20090 30056 40164 51017 60006 875// 92100=
07149,1998-10-11 00:00:00,11,1016.5,-0,87,9,22000,14.816,,,260,,,,,,,,,,,wg-a,,,,AAXX 11004 07149 12772 62608 10110 20090 30056 40165 55000 60006 86500 90000=
07149,1998-10-11 06:00:00,10,1016.5,-0.1,93,9,12000,14.816,,,250,9,13.6,,,,,2,,,,wg-a,,,,AAXX 11064 07149 02262 72508 10100 20090 30056 40165 55001 60006 875// 90600 333 10136 20090 60024=
07149,1998-10-11 09:00:00,11,1015.2,-1.3,87,9,16000,25.928,,,220,,,,,,,,,,,wg-a,,,,AAXX 11094 07149 12466 82214 10110 20090 30043 40152 58013 60006 878// 90900=
07149,1998-10-11 12:00:00,12,1013.6,-1.5,94,11,3500,29.632,,,240,,,,5,,,,,,10,wg-a,,,,AAXX 11124 07149 02235 82416 10120 20110 30028 40136 58015 60056 71062 877// 91200 333 60057=
07149,1998-10-11 15:00:00,14,1012.4,-1.1,94,13,10000,18.52,,,250,,,,1,,,,,,60,wg-a,,,,AAXX 11154 07149 12360 82510 10140 20130 30017 40124 56011 60017 76062 877// 91500=
07149,1998-10-11 18:00:00,14,1013.1,0.7,94,13,18000,7.408,,,290,9.9,14.7,,0,,,,,,3,wg-a,,,,AAXX 11184 07149 02268 72904 10140 20130 30024 40131 53007 60006 70362 878// 91800 333 10147 20099 60007=
07149,1998-10-11 21:00:00,12,1014,0.8,88,10,18000,14.816,,,280,,,,,,,,,,,wg-a,,,,AAXX 11214 07149 12668 /2808 10120 20100 30032 40140 50008 60006 86500 92100=
07149,1998-10-12 03:00:00,11,1013.7,-0.1,87,9,20000,11.112,,,250,,,,,,,,,,,wg-a,,,,AAXX 12034 07149 12670 72506 10110 20090 30029 40137 58001 60006 875// 90300=
07149,1998-10-12 06:00:00,11,1014.7,0.9,82,8,20000,22.224,,,290,10.7,14.5,,,,,,,,60,wg-a,,,,AAXX 12064 07149 02470 72912 10110 20080 30038 40147 53009 61000 76062 875// 90600 333 10145 20107 6007=
07149,1998-10-12 09:00:00,13,1016.2,1.6,77,9,18000,25.928,,,280,,,,,,,,,,2,wg-a,,,,AAXX 12094 07149 02468 /2814 10130 20090 30054 40162 53016 61000 70262 85800 90900 333 ////=
07149,1998-10-12 12:00:00,15,1017.6,1.4,51,5,20000,31.484,,,330,,,,,,,,,,1,wg-a,,,,AAXX 12124 07149 02670 33317 10150 20050 30068 40176 51014 61000 70186 83200 91200 333 6100=
07149,1998-10-12 15:00:00,15,1018.7,1.1,51,5,11000,25.928,,,310,,,,,,,,,,,wg-a,,,,AAXX 12154 07149 12/61 /3114 10150 20050 30079 40187 53011 60006 91500=
07149,1998-10-12 18:00:00,12,1021.2,2.4,62,5,22000,14.816,,,310,10.3,15.8,,,,,,,,,wg-a,,,,AAXX 12184 07149 12672 33108 10120 20050 30103 40212 53024 60006 83400 91800 333 10158 20103=
07149,1998-10-12 21:00:00,10,1022.8,1.5,76,6,20000,11.112,,,280,,,,,,,,,,,wg-a,,,,AAXX 12214 07149 12670 /2806 10100 20060 30118 40228 51015 60006 86500 92100=
07149,1998-10-13 00:00:00,9,1022.5,-0.3,81,6,11000,11.112,,,250,,,,,,,,,,,wg-a,,,,AAXX 13004 07149 12/61 /2506 10090 20060 30115 40225 58003 60006 90000=
07149,1998-10-13 03:00:00,9,1022.7,0.2,81,6,15000,11.112,,,240,,,,,,,,,,,wg-a,,,,AAXX 13034 07149 12665 62406 10090 20060 30117 40227 50002 60006 84532 90300=
07149,1998-10-13 06:00:00,10,1022.9,0.2,76,6,17000,11.112,,,250,7.9,11.4,,,,,,,,,wg-a,,,,AAXX 13064 07149 02667 72506 10100 20060 30119 40229 53002 60006 875// 90600 333 10114 20079 61000=
07149,1998-10-13 09:00:00,12,1023.5,0.7,71,7,18000,14.816,,,230,,,,,,,,,,,wg-a,,,,AAXX 13094 07149 12668 72308 10120 20070 30126 40235 51007 60006 875// 90900=
07149,1998-10-13 12:00:00,14,1022.8,-0.6,63,7,20000,22.224,,,240,,,,,,,,,,,wg-a,,,,AAXX 13124 07149 12570 72412 10140 20070 30120 40228 58006 60006 8483/ 91200=
07149,1998-10-13 15:00:00,12,1022.1,-0.8,88,10,6000,22.224,,,230,,,,,,,,,,60,wg-a,,,,AAXX 13154 07149 02456 82312 10120 20100 30112 40221 56008 61000 76062 8552/ 91500 333 ////=
07149,1998-10-13 18:00:00,12,1021.4,-0.7,94,11,4000,25.928,,,220,9.5,14.5,,,,,,,,10,wg-a,,,,AAXX 13184 07149 02240 82214 10120 20110 30105 40214 56007 61000 71065 877// 91800 333 10145 20095 6000=
07149,1998-10-13 21:00:00,13,1021.1,-0.3,94,12,8000,22.224,,,230,,,,0,,,,,,21,wg-a,,,,AAXX 13214 07149 12258 82312 10130 20120 30102 40211 55003 60007 72165 877// 92100=
07149,1998-10-14 00:00:00,13,1020.5,-0.5,94,12,9000,18.52,,,230,,,,,,,,,,20,wg-a,,,,AAXX 14004 07149 02259 82310 10130 20120 30097 40205 58005 60006 72065 877// 90000 333 61000=
07149,1998-10-14 03:00:00,14,1019.7,-0.8,94,13,7000,18.52,,,240,,,,,,,,,,,wg-a,,,,AAXX 14034 07149 12257 82410 10140 20130 30089 40197 57008 60006 877// 90300=
07149,1998-10-14 06:00:00,15,1020.3,0.7,94,14,15000,18.52,,,250,11.7,15.1,,,,,,,,,wg-a,,,,AAXX 14064 07149 02465 82510 10150 20140 30096 40203 53007 60006 885// 90600 333 10151 20117 60004=
07149,1998-10-14 09:00:00,16,1021.3,,88,14,20000,25.928,,,230,,,,,,,,,,20,wg-a,,,,AAXX 14094 07149 02470 72314 10160 20140 30106 40213 61000 72052 875// 90900 333 ////=
07149,1998-10-14 12:00:00,19,1021.3,,68,13,20000,25.928,,,250,,,,,,,,,,3,wg-a,,,,AAXX 14124 07149 02470 72514 10190 20130 30107 40213 61000 70351 86530 91200 333 ////=
07149,1998-10-14 15:00:00,18,1021.2,-0.1,73,13,20000,29.632,,,240,,,,,,,,,,,wg-a,,,,AAXX 14154 07149 12570 72416 10180 20130 30106 40212 55001 60006 875// 91500=
07149,1998-10-14 18:00:00,16,1022.3,1,82,13,12000,25.928,,,230,14.7,18.9,,,,,,,,21,wg-a,,,,AAXX 14184 07149 02462 72314 10160 20130 30116 40223 53010 61000 72165 875// 91800 333 10189 20147 6100=
07149,1998-10-14 21:00:00,15,1022.8,0.4,94,14,11000,22.224,,,230,,,,,,,,,,20,wg-a,,,,AAXX 14214 07149 02261 82312 10150 20140 30120 40228 51004 61000 72065 887// 92100 333 ////=
07149,1998-10-15 00:00:00,15,1022.8,0,94,14,500,14.816,,,230,,,,0,,,,,,10,wg-a,,,,AAXX 15004 07149 02200 82308 10150 20140 30120 40228 50000 60016 71065 887// 90000 333 60007=
07149,1998-10-15 03:00:00,15,1022.3,-0.5,94,14,500,7.408,,,260,,,,1,,,,,,10,wg-a,,,,AAXX 15034 07149 12200 82604 10150 20140 30115 40223 58005 60017 71052 877// 90300=
07149,1998-10-15 06:00:00,14,1022.6,0.3,94,13,7000,11.112,,,320,13.8,15.8,,,,,,,,10,wg-a,,,,AAXX 15064 07149 02357 83206 10140 20130 30118 40226 53003 61000 71052 885// 90600 333 10158 20138 6001=
07149,1998-10-15 09:00:00,14,1023.9,1.3,88,12,3000,11.112,,,20,,,,,,,,,,10,wg-a,,,,AAXX 15094 07149 02230 80206 10140 20120 30131 40239 51013 61000 71052 887// 90900 333 ////=
07149,1998-10-15 12:00:00,14,1023.7,-0.2,88,12,3000,0,,,0,,,,1,,,,,,10,wg-a,,,,AAXX 15124 07149 02230 80000 10140 20120 30129 40237 58002 60016 71052 877// 91200 333 60017=
07149,1998-10-15 15:00:00,14,1022.7,-1,88,12,10000,7.408,,,340,,,,1,,,,,,60,wg-a,,,,AAXX 15154 07149 12460 83404 10140 20120 30119 40227 58010 60017 76065 875// 91500=
07149,1998-10-15 18:00:00,13,1023,0.3,94,12,15000,3.704,,,300,13,14.4,,,,,,,,1,wg-a,,,,AAXX 15184 07149 02565 73002 10130 20120 30122 40230 53003 60006 70165 8653/ 91800 333 10144 20130 61000=
07149,1998-10-15 21:00:00,14,1023.1,0.1,88,12,15000,7.408,,,170,,,,,,,,,,,wg-a,,,,AAXX 15214 07149 12465 71704 10140 20120 30123 40231 50001 60006 875// 92100=
07149,1998-10-16 00:00:00,13,1022.4,-0.8,94,12,9000,3.704,,,160,,,,,,,,,,,wg-a,,,,AAXX 16004 07149 12559 71602 10130 20120 30115 40224 57008 60006 875// 90000=
07149,1998-10-16 03:00:00,13,1020.9,-1.5,94,12,3000,7.408,,,150,,,,,,,,,,10,wg-a,,,,AAXX 16034 07149 12130 81504 10130 20120 30100 40209 58015 60006 71022 876// 90300=
07149,1998-10-16 06:00:00,12,1019.8,-1,100,12,1800,7.408,,,170,12.3,13.5,,,,,,,,10,wg-a,,,,AAXX 16064 07149 02018 81704 10120 20120 30090 40198 58010 61000 71052 877// 90600 333 10135 20123 6002=
07149,1998-10-16 09:00:00,15,1019.1,-0.6,94,14,6000,14.816,,,210,,,,,,,,,,1,wg-a,,,,AAXX 16094 07149 02256 72108 10150 20140 30084 40191 56006 61000 70154 876// 90900 333 ////=
07149,1998-10-16 12:00:00,17,1017.2,-1.9,77,13,22000,18.52,,,240,,,,,,,,,,2,wg-a,,,,AAXX 16124 07149 02472 72410 10170 20130 30065 40172 58019 61000 70254 878// 91200 333 ////=
07149,1998-10-16 15:00:00,17,1014.6,-2.5,82,14,22000,18.52,,,210,,,,,,,,,,,wg-a,,,,AAXX 16154 07149 12472 72110 10170 20140 30040 40146 56025 60006 878// 91500=
07149,1998-10-16 18:00:00,16,1013.1,-1.5,88,14,18000,14.816,,,190,12.4,17.6,,,,,,,,,wg-a,,,,AAXX 16184 07149 12568 71908 10160 20140 30025 40131 56015 60006 875// 91800 333 10176 20124=
07149,1998-10-16 21:00:00,14,1011.3,-1.9,88,12,18000,14.816,,,180,,,,,,,,,,,wg-a,,,,AAXX 16214 07149 12668 /1808 10140 20120 30006 40113 58019 60006 81500 92100=
07149,1998-10-17 00:00:00,13,1009.4,-1.9,94,12,18000,18.52,,,200,,,,,,,,,,,wg-a,,,,AAXX 17004 07149 12568 52010 10130 20120 39987 40094 58019 60006 85500 90000=
07149,1998-10-17 03:00:00,15,1007.5,-1.8,82,12,18000,35.188,,,230,,,,,,,,,,,wg-a,,,,AAXX 17034 07149 12468 72319 10150 20120 39969 40075 58018 60006 875// 90300=
07149,1998-10-17 06:00:00,15,1006.7,-0.8,77,11,18000,35.188,,,220,13,16.2,,,,,,,,,wg-a,,,,AAXX 17064 07149 02468 82219 10150 20110 39961 40067 58008 60006 885// 90600 333 10162 20130 61000=
07149,1998-10-17 09:00:00,16,1006.5,-0.2,82,13,11000,38.892,,57.412,220,,,,,,,,,,,wg-a,,,,AAXX 17094 07149 12461 72221 10160 20130 39959 40065 55002 60006 875// 90900 333 91031=
07149,1998-10-17 12:00:00,15,1006.4,-0.1,94,14,7000,35.188,,,220,,,,1,,,,,,61,wg-a,,,,AAXX 17124 07149 02357 82219 10150 20140 39958 40064 55001 60016 76162 885// 91200 333 60017=
07149,1998-10-17 15:00:00,15,1008.8,2.4,67,9,500,29.632,,,280,,,,3,,,,,,1,wg-a,,,,AAXX 17154 07149 12500 22816 10150 20090 39982 40088 52024 60037 70161 82230 91500=
07149,1998-10-17 18:00:00,11,1011.7,2.7,71,6,20000,18.52,,,270,11.4,16.7,,,,,,,,1,wg-a,,,,AAXX 17184 07149 12/70 /2710 10110 20060 30009 40117 53027 60006 70161 80000 91800 333 10167 20114=
07149,1998-10-17 21:00:00,10,1014,2.2,76,6,20000,22.224,,,260,,,,,,,,,,,wg-a,,,,AAXX 17214 07149 12/70 02612 10100 20060 30031 40140 51022 60006 80000 92100=
07149,1998-10-18 03:00:00,7,1018.1,1.8,93,6,18000,11.112,,,240,,,,,,,,,,,wg-a,,,,AAXX 18034 07149 12568 42406 10070 20060 30070 40181 51018 60006 81530 90300=
07149,1998-10-18 06:00:00,7,1019.8,1.7,93,6,15000,7.408,,,230,6.4,11.5,,,,,4,,,,wg-a,,,,AAXX 18064 07149 02665 72304 10070 20060 30087 40198 53017 60006 875// 90600 333 10115 20064 60044=
07149,1998-10-18 09:00:00,10,1021,1.3,87,8,25000,3.704,,,240,,,,,,,,,,,wg-a,,,,AAXX 18094 07149 12575 /2402 10100 20080 30100 40210 51013 60006 84802 90900=
07149,1998-10-18 12:00:00,13,1020.4,-0.5,51,3,25000,11.112,,,240,,,,,,,,,,,wg-a,,,,AAXX 18124 07149 12675 62406 10130 20030 30095 40204 58005 60006 85801 91200=
07149,1998-10-18 15:00:00,14,1019.1,-1.2,55,5,500,11.112,,,310,,,,,,,,,,,wg-a,,,,AAXX 18154 07149 12600 43106 10140 20050 30083 40191 57012 60006 84800 91500=
07149,1998-10-18 18:00:00,10,1019.4,0.1,76,6,25000,11.112,,,80,6.3,15,,,,,,,,,wg-a,,,,AAXX 18184 07149 12675 40806 10100 20060 30084 40194 53001 60006 84500 91800 333 10150 20063=
07149,1998-10-18 21:00:00,7,1019.4,-0.1,93,6,25000,7.408,,,140,,,,,,,,,,,wg-a,,,,AAXX 18214 07149 12675 /1404 10070 20060 30083 40194 58001 60006 81500 92100=
07149,1998-10-19 00:00:00,7,1018.7,-0.6,93,6,25000,3.704,,,190,,,,,,,,,,,wg-a,,,,AAXX 19004 07149 12775 61902 10070 20060 30077 40187 58006 60006 86500 90000=
07149,1998-10-19 03:00:00,8,1017.6,-1.1,93,7,20000,3.704,,,190,,,,,,,,,,,wg-a,,,,AAXX 19034 07149 12770 11902 10080 20070 30066 40176 58011 60006 81500 90300=
07149,1998-10-19 06:00:00,6,1017.8,0.1,93,5,4500,7.408,,,210,5.4,10.2,,,,,,,,11,wg-a,,,,AAXX 19064 07149 02645 22104 10060 20050 30067 40178 53001 60006 71111 82500 90600 333 10102 20054 60004=
07149,1998-10-19 09:00:00,11,1019.2,1.6,82,8,18000,7.408,,,270,,,,,,,,,,,wg-a,,,,AAXX 19094 07149 12768 12704 10110 20080 30083 40192 52016 60006 81500 90900=
07149,1998-10-19 12:00:00,14,1019,-0.1,63,7,11000,18.52,,,320,,,,,,,,,,,wg-a,,,,AAXX 19124 07149 12/61 /3210 10140 20070 30082 40190 58001 60006 91200=
07149,1998-10-19 15:00:00,14,1019.2,0.2,55,5,25000,22.224,,,330,,,,,,,,,,,wg-a,,,,AAXX 19154 07149 12675 43312 10140 20050 30084 40192 53002 60006 84800 91500=
07149,1998-10-19 18:00:00,11,1020.9,1.6,66,5,25000,14.816,,,320,5.4,14.4,,,,,,,,,wg-a,,,,AAXX 19184 07149 12675 63208 10110 20050 30100 40209 53016 60006 86500 91800 333 10144 20054=
07149,1998-10-19 21:00:00,8,1022.4,1.3,81,5,25000,11.112,,,290,,,,,,,,,,,wg-a,,,,AAXX 19214 07149 12675 32906 10080 20050 30113 40224 51013 60006 83500 92100=
07149,1998-10-20 00:00:00,8,1022.6,0.2,87,6,25000,11.112,,,270,,,,,,,,,,,wg-a,,,,AAXX 20004 07149 12675 42706 10080 20060 30115 40226 50002 60006 84500 90000=
07149,1998-10-20 03:00:00,7,1022.8,0.2,87,5,20000,14.816,,,290,,,,,,,,,,,wg-a,,,,AAXX 20034 07149 12670 42908 10070 20050 30117 40228 53002 60006 84500 90300=
07149,1998-10-20 06:00:00,6,1023.2,0.4,93,5,11000,14.816,,,250,5.6,11.1,,,,,,,,,wg-a,,,,AAXX 20064 07149 02761 12508 10060 20050 30121 40232 52004 60006 81500 90600 333 10111 20056 60004=
07149,1998-10-20 09:00:00,11,1024.5,1.4,76,7,16000,18.52,,,260,,,,,,,,,,,wg-a,,,,AAXX 20094 07149 12766 12610 10110 20070 30135 40245 53014 60006 81501 90900=
07149,1998-10-20 12:00:00,13,1024.3,-0.1,58,5,500,22.224,,,240,,,,,,,,,,,wg-a,,,,AAXX 20124 07149 12600 52412 10130 20050 30134 40243 58001 60006 82201 91200=
07149,1998-10-20 15:00:00,14,1023.6,-0.6,55,5,500,18.52,,,230,,,,,,,,,,,wg-a,,,,AAXX 20154 07149 12600 42310 10140 20050 30128 40236 56006 60006 82201 91500=
07149,1998-10-20 18:00:00,11,1023.7,-0.1,76,7,25000,11.112,,,180,5.4,15.2,,,,,,,,,wg-a,,,,AAXX 20184 07149 12675 /1806 10110 20070 30127 40237 55001 60006 82432 91800 333 10152 20054=
07149,1998-10-20 21:00:00,9,1022.9,-0.8,81,6,25000,18.52,,,190,,,,,,,,,,,wg-a,,,,AAXX 20214 07149 12/75 71910 10090 20060 30119 40229 58008 60006 81032 92100=
07149,1998-10-21 00:00:00,8,1022.2,-0.7,81,5,25000,14.816,,,190,,,,,,,,,,,wg-a,,,,AAXX 21004 07149 12/75 71908 10080 20050 30112 40222 58007 60006 83032 90000=
07149,1998-10-21 03:00:00,8,1020.1,-2.1,81,5,10000,22.224,,,200,,,,,,,,,,,wg-a,,,,AAXX 21034 07149 12/60 /2012 10080 20050 30091 40201 58021 60006 90300=
07149,1998-10-21 06:00:00,9,1019.2,-0.9,76,5,25000,22.224,,,210,7.9,10.8,,,,,,,,,wg-a,,,,AAXX 21064 07149 02/75 62112 10090 20050 30082 40192 58009 60006 86030 90600 333 10108 20079 60004=
07149,1998-10-21 09:00:00,11,1019.8,0.7,76,7,25000,22.224,,,210,,,,,,,,,,,wg-a,,,,AAXX 21094 07149 12675 72112 10110 20070 30089 40198 53007 60006 8357/ 90900=
07149,1998-10-21 12:00:00,15,1019,-0.6,63,8,25000,31.484,,,220,,,,,,,,,,,wg-a,,,,AAXX 21124 07149 12675 /2217 10150 20080 30083 40190 58006 60006 82532 91200=
07149,1998-10-21 15:00:00,16,1018.4,-0.6,59,8,25000,35.188,,,220,,,,,,,,,,60,wg-a,,,,AAXX 21154 07149 02675 /2219 10160 20080 30077 40184 56006 61000 76062 83532 91500 333 ////=
07149,1998-10-21 18:00:00,16,1020.1,1.7,63,9,20000,31.484,,,220,8.6,17.6,,,,,,,,3,wg-a,,,,AAXX 21184 07149 02570 72217 10160 20090 30094 40201 53017 60006 70362 875// 91800 333 10176 20086 61000=
07149,1998-10-21 21:00:00,14,1021,0.8,67,8,20000,25.928,,,200,,,,,,,,,,,wg-a,,,,AAXX 21214 07149 12570 72014 10140 20080 30102 40210 51008 60006 875// 92100=
07149,1998-10-22 00:00:00,14,1021.3,0.3,77,10,20000,25.928,,,230,,,,,,,,,,,wg-a,,,,AAXX 22004 07149 12470 72314 10140 20100 30105 40213 51003 60006 875// 90000=
07149,1998-10-22 03:00:00,14,1021.6,0.3,77,10,18000,29.632,,,220,,,,,,,,,,,wg-a,,,,AAXX 22034 07149 12468 72216 10140 20100 30108 40216 50003 60006 875// 90300=
07149,1998-10-22 06:00:00,12,1022.2,0.5,88,10,12000,31.484,,,220,12.3,15.5,,,,,,,,60,wg-a,,,,AAXX 22064 07149 02462 72217 10120 20100 30113 40222 53005 61000 76062 875// 90600 333 10155 20123 6000=
07149,1998-10-22 09:00:00,13,1023.6,1.4,82,10,17000,22.224,,,220,,,,0,,,,,,2,wg-a,,,,AAXX 22094 07149 12567 72212 10130 20100 30127 40236 51014 60007 70262 875// 90900=
07149,1998-10-22 12:00:00,18,1023.5,0.1,64,11,20000,29.632,,,230,,,,,,,,,,3,wg-a,,,,AAXX 22124 07149 12670 72316 10180 20110 30128 40235 51001 60006 70362 85532 91200=
07149,1998-10-22 15:00:00,17,1022.1,-1.4,63,10,20000,29.632,,,210,,,,,,,,,,,wg-a,,,,AAXX 22154 07149 12670 62116 10170 20100 30114 40221 55014 60006 85530 91500=
07149,1998-10-22 18:00:00,17,1022.8,0.7,63,10,20000,18.52,,,200,11.9,18.3,,,,,,,,,wg-a,,,,AAXX 22184 07149 12670 72010 10170 20100 30121 40228 53007 60006 875// 91800 333 10183 20119=
07149,1998-10-22 21:00:00,15,1021.9,-1,72,10,25000,22.224,,,200,,,,,,,,,,,wg-a,,,,AAXX 22214 07149 12575 /2012 10150 20100 30111 40219 57010 60006 86500 92100=
07149,1998-10-23 00:00:00,15,1020.1,-1.8,77,11,25000,22.224,,,190,,,,,,,,,,,wg-a,,,,AAXX 23004 07149 12575 /1912 10150 20110 30093 40201 58018 60006 86500 90000=
07149,1998-10-23 03:00:00,15,1018.5,-1.5,77,11,25000,31.484,,,220,,,,,,,,,,,wg-a,,,,AAXX 23034 07149 12575 72217 10150 20110 30078 40185 58015 60006 875// 90300=
07149,1998-10-23 06:00:00,15,1017.2,-1.3,82,12,25000,31.484,,,220,14.9,16.6,,,,,,,,,wg-a,,,,AAXX 23064 07149 02775 82217 10150 20120 30065 40172 56013 60006 8452/ 90600 333 10166 20149 60004=
07149,1998-10-23 09:00:00,16,1017.2,-0,68,10,20000,35.188,,,220,,,,,,,,,,,wg-a,,,,AAXX 23094 07149 12670 82219 10160 20100 30065 40172 55000 60006 84577 90900=
07149,1998-10-23 12:00:00,15,1016,-1.2,88,13,11000,35.188,,,220,,,,1,,,,,,61,wg-a,,,,AAXX 23124 07149 02461 82219 10150 20130 30053 40160 56012 60016 76162 875// 91200 333 60017=
07149,1998-10-23 15:00:00,15,1015.1,-0.9,94,14,4700,25.928,,,230,,,,2,,,,,,61,wg-a,,,,AAXX 23154 07149 12247 82314 10150 20140 30044 40151 55009 60027 76162 877// 91500=
07149,1998-10-23 18:00:00,15,1014.6,-0.5,94,14,8000,11.112,,,230,14.9,15.9,,,,,,,,60,wg-a,,,,AAXX 23184 07149 02258 72306 10150 20140 30039 40146 56005 61000 76062 8684/ 91800 333 10159 20149 6001=
07149,1998-10-23 21:00:00,12,1016.3,1.6,82,9,20000,25.928,,,280,,,,,,,,,,1,wg-a,,,,AAXX 23214 07149 32/70 02814 10120 20090 30055 40163 53016 70161 80000 92100=
07149,1998-10-24 00:00:00,11,1018.1,1.7,76,7,25000,22.224,,,270,,,,,,,,,,3,wg-a,,,,AAXX 24004 07149 12575 22712 10110 20070 30072 40181 51017 60016 70361 82500 90000=
07149,1998-10-24 03:00:00,9,1019.2,1,87,7,25000,25.928,,,260,,,,,,,,,,,wg-a,,,,AAXX 24034 07149 12575 /2614 10090 20070 30082 40192 51010 60006 81500 90300=
07149,1998-10-24 06:00:00,9,1019,-0.2,87,7,25000,14.816,,,210,8.6,15.1,,,,,4,,,,wg-a,,,,AAXX 24064 07149 02/75 72108 10090 20070 30080 40190 58002 60006 85031 90600 333 10151 20086 60044=
07149,1998-10-24 09:00:00,10,1016.8,-2.1,87,8,17000,18.52,,,190,,,,,,,,,,,wg-a,,,,AAXX 24094 07149 12367 71910 10100 20080 30059 40168 58021 60006 8171/ 90900=
07149,1998-10-24 12:00:00,11,1010.9,-5.8,94,10,7000,29.632,,,200,,,,2,,,,,,61,wg-a,,,,AAXX 24124 07149 02257 82016 10110 20100 30001 40109 58058 60026 76162 877// 91200 333 60027=
07149,1998-10-24 15:00:00,13,1003.2,-7.6,94,12,7000,38.892,,,200,,,,6,,,,,,61,wg-a,,,,AAXX 24154 07149 12257 82021 10130 20120 39925 40032 56076 60067 76166 877// 91500=
07149,1998-10-24 18:00:00,15,995.1,-7.9,94,14,4000,53.708,,74.08,210,8.5,15.5,,,,,,,,10,wg-a,,,,AAXX 24184 07149 02240 82129 10150 20140 39846 49951 56079 61000 71066 877// 91800 333 10155 20085 6005 91040=
07149,1998-10-24 21:00:00,14,993.9,-1.2,94,13,12000,29.632,,,240,,,,14,,,,,,61,wg-a,,,,AAXX 24214 07149 12362 82416 10140 20130 39834 49939 58012 60147 76166 875// 92100=
07149,1998-10-25 00:00:00,13,995,1,77,9,20000,42.596,,,250,,,,0,,,,,,2,wg-a,,,,AAXX 25004 07149 02470 /2523 10130 20090 39844 49950 51010 60146 70262 8213/ 90000 333 60007=
07149,1998-10-25 03:00:00,13,997.1,2.1,72,8,25000,35.188,,68.524,270,,,,,,,,,,,wg-a,,,,AAXX 25034 07149 12675 42719 10130 20080 39865 49971 53021 60006 84800 90300 333 91037=
07149,1998-10-25 06:00:00,11,1000.6,3.4,66,5,25000,31.484,,,270,11.1,16,,,,,26,,,,wg-a,,,,AAXX 25064 07149 02675 /2717 10110 20050 39899 40006 51034 60006 81100 90600 333 10160 20111 60264=
07149,1998-10-25 09:00:00,13,1003.6,3,67,7,25000,29.632,,,270,,,,,,,,,,,wg-a,,,,AAXX 25094 07149 12575 /2716 10130 20070 39929 40036 51030 60006 81100 90900=
07149,1998-10-25 12:00:00,14,1004.2,0.7,67,8,25000,35.188,,,260,,,,,,,,,,,wg-a,,,,AAXX 25124 07149 12575 52619 10140 20080 39936 40042 50007 60006 85200 91200=
07149,1998-10-25 15:00:00,10,1005.1,0.7,76,6,500,29.632,,,290,,,,4,,,,,,25,wg-a,,,,AAXX 25154 07149 12600 42916 10100 20060 39943 40051 53007 60047 72598 84900 91500=
07149,1998-10-25 18:00:00,10,1008,2.9,82,7,20000,18.52,,,270,8.3,14.7,,,,,,,,1,wg-a,,,,AAXX 25184 07149 12670 /2710 10100 20070 39972 40080 53029 60006 70198 81100 91800 333 10147 20083=
07149,1998-10-25 21:00:00,8,1009.9,1.8,87,6,25000,14.816,,,250,,,,,,,,,,,wg-a,,,,AAXX 25214 07149 12775 32508 10080 20060 39990 40099 53018 60006 81530 92100=
07149,1998-10-26 00:00:00,8,1011.4,1.4,87,6,25000,14.816,,,250,,,,,,,,,,,wg-a,,,,AAXX 26004 07149 12675 32508 10080 20060 30004 40114 51014 60006 81530 90000=
07149,1998-10-26 03:00:00,7,1011.9,0.5,87,5,25000,14.816,,,260,,,,,,,,,,,wg-a,,,,AAXX 26034 07149 12775 12608 10070 20050 30009 40119 50005 60006 81500 90300=
07149,1998-10-26 06:00:00,6,1012.8,0.9,93,5,22000,14.816,,,240,5.9,9.7,,,,,4,,,,wg-a,,,,AAXX 26064 07149 02772 42408 10060 20050 30018 40128 53009 60006 82530 90600 333 10097 20059 60044=
07149,1998-10-26 09:00:00,8,1012.8,-0,87,6,11000,25.928,,,220,,,,,,,,,,,wg-a,,,,AAXX 26094 07149 12361 72214 10080 20060 30018 40128 55000 60006 8463/ 90900=
07149,1998-10-26 12:00:00,12,1012.2,-0.4,76,8,20000,31.484,,,270,,,,1,,,,,,1,wg-a,,,,AAXX 26124 07149 02570 72717 10120 20080 30014 40122 56004 60016 70161 8323/ 91200 333 60017=
07149,1998-10-26 15:00:00,12,1013.2,1,71,7,20000,11.112,,,290,,,,1,,,,,,25,wg-a,,,,AAXX 26154 07149 12570 /2906 10120 20070 30024 40132 53010 60017 72586 81931 91500=
07149,1998-10-26 18:00:00,8,1016.8,3.4,87,6,16000,18.52,,,280,6.2,12.8,,,,,,,,25,wg-a,,,,AAXX 26184 07149 02566 22810 10080 20060 30058 40168 53034 61000 72586 81130 91800 333 10128 20062 6002=
07149,1998-10-27 00:00:00,7,1020.5,1,87,5,25000,14.816,,,260,,,,,,,,,,,wg-a,,,,AAXX 27004 07149 12675 /2608 10070 20050 30094 40205 51010 60006 81500 90000=
07149,1998-10-27 06:00:00,9,1019.5,-0.1,87,7,23000,31.484,,,240,6.8,8.9,,,,,3,,,,wg-a,,,,AAXX 27064 07149 02473 /2417 10090 20070 30085 40195 58001 60006 83501 90600 333 10089 20068 60034=
07149,1998-10-27 09:00:00,11,1019.3,-0.1,87,9,23000,35.188,,,230,,,,,,,,,,,wg-a,,,,AAXX 27094 07149 12473 42319 10110 20090 30084 40193 58001 60006 84501 90900=
07149,1998-10-27 12:00:00,13,1017.7,-1.5,82,10,25000,42.596,,,230,,,,,,,,,,,wg-a,,,,AAXX 27124 07149 12475 72323 10130 20100 30069 40177 58015 60006 86802 91200=
07149,1998-10-27 15:00:00,14,1016,-1.6,77,10,25000,42.596,,,230,,,,,,,,,,,wg-a,,,,AAXX 27154 07149 12675 72323 10140 20100 30053 40160 58016 60006 83532 91500=
07149,1998-10-27 18:00:00,14,1015.9,-0.2,72,9,20000,42.596,,,230,8.7,15.1,,,,,,,,,wg-a,,,,AAXX 27184 07149 12570 72323 10140 20090 30051 40159 55002 60006 875// 91800 333 10151 20087=
07149,1998-10-27 21:00:00,13,1014.3,-1.6,82,10,20000,42.596,,,220,,,,,,,,,,,wg-a,,,,AAXX 27214 07149 12470 82223 10130 20100 30035 40143 58016 60006 875// 92100=
07149,1998-10-28 00:00:00,13,1011.1,-3.1,88,11,18000,46.3,,,220,,,,,,,,,,21,wg-a,,,,AAXX 28004 07149 02468 82225 10130 20110 30004 40111 58031 61000 72162 875// 90000 333 6100=
07149,1998-10-28 03:00:00,13,1008.6,-2.5,94,12,8000,42.596,,,230,,,,0,,,,,,51,wg-a,,,,AAXX 28034 07149 12358 82323 10130 20120 39979 40086 58025 60007 75165 877// 90300=
07149,1998-10-28 06:00:00,15,1008.9,0.4,94,14,7000,35.188,,,230,12.6,14.8,,,,,,,,51,wg-a,,,,AAXX 28064 07149 02357 82319 10150 20140 39983 40089 53004 61000 75165 877// 90600 333 10148 20126 6001=
07149,1998-10-28 09:00:00,16,1009.4,0.5,88,14,9000,42.596,,57.412,240,,,,,,,,,,51,wg-a,,,,AAXX 28094 07149 02459 82423 10160 20140 39988 40094 51005 61000 75165 875// 90900 333 //// 91031=
07149,1998-10-28 12:00:00,18,1008.6,-0.7,77,14,20000,46.3,,,240,,,,0,,,,,,60,wg-a,,,,AAXX 28124 07149 02570 82425 10180 20140 39981 40086 58007 60006 76065 875// 91200 333 60007=
07149,1998-10-28 18:00:00,16,1010.4,1.3,88,14,20000,22.224,,,250,14.8,17.9,,,,,,,,60,wg-a,,,,AAXX 28184 07149 02470 72512 10160 20140 39998 40104 51013 61000 76062 875// 91800 333 10179 20148 6002=
07149,1998-10-28 21:00:00,13,1010.1,-0.4,88,11,500,25.928,,,340,,,,4,,,,,,61,wg-a,,,,AAXX 28214 07149 12200 83414 10130 20110 39994 40101 55004 60047 76166 875// 92100=
07149,1998-10-29 00:00:00,11,1010,-0.2,94,10,500,29.632,,,280,,,,3,,,,,,61,wg-a,,,,AAXX 29004 07149 02300 82816 10110 20100 39992 40100 58002 60076 76166 875// 90000 333 60037=
07149,1998-10-29 06:00:00,11,1010.8,1.7,82,8,18000,25.928,,,280,10.7,15.8,,,,,18,,,1,wg-a,,,,AAXX 29064 07149 02768 72814 10110 20080 30000 40108 53017 60006 70162 8253/ 90600 333 10158 20107 60184=
07149,1998-10-29 09:00:00,10,1014.4,3.5,76,6,15000,35.188,,55.56,290,,,,0,,,,,,80,wg-a,,,,AAXX 29094 07149 12465 72919 10100 20060 30035 40144 53035 60007 78086 878// 90900 333 91030=
07149,1998-10-29 12:00:00,12,1018.6,4.2,67,6,25000,38.892,,,300,,,,,,,,,,1,wg-a,,,,AAXX 29124 07149 02575 23021 10120 20060 30077 40186 51042 60006 70186 82200 91200 333 61000=
07149,1998-10-29 18:00:00,9,1023.8,2.3,66,3,25000,18.52,,,270,8.8,12.9,,,,,,,,,wg-a,,,,AAXX 29184 07149 12/75 32710 10090 20030 30128 40238 51023 60006 80001 91800 333 10129 20088=
07149,1998-10-29 21:00:00,8,1023.6,-0.3,76,4,25000,22.224,,,250,,,,,,,,,,,wg-a,,,,AAXX 29214 07149 12/75 42512 10080 20040 30125 40236 55003 60006 80002 92100=
07149,1998-10-30 00:00:00,9,1022.6,-0.9,71,4,25000,29.632,,,260,,,,,,,,,,,wg-a,,,,AAXX 30004 07149 12/75 62616 10090 20040 30116 40226 57009 60006 86070 90000=
07149,1998-10-30 03:00:00,8,1021.5,-1.2,81,5,25000,25.928,,,250,,,,,,,,,,,wg-a,,,,AAXX 30034 07149 12475 62514 10080 20050 30104 40215 58012 60006 83830 90300=
07149,1998-10-30 06:00:00,8,1018.8,-2.6,81,5,20000,29.632,,,240,7.6,9.3,,,,,,,,,wg-a,,,,AAXX 30064 07149 02470 /2416 10080 20050 30078 40188 56026 60006 85830 90600 333 10093 20076 60004=
07149,1998-10-30 12:00:00,8,1018.7,-1.1,93,7,6000,29.632,,,290,,,,9,,,,,,81,wg-a,,,,AAXX 30124 07149 02456 82916 10080 20070 30077 40187 56011 60126 78198 879// 91200 333 60097=
07149,1998-10-30 15:00:00,10,1018.6,-0,87,8,18000,25.928,,,280,,,,2,,,,,,21,wg-a,,,,AAXX 30154 07149 12568 72814 10100 20080 30077 40186 55000 60027 72196 878// 91500=
07149,1998-10-30 18:00:00,8,1020.7,2,87,6,25000,11.112,,,300,7.8,10.5,,,,,,,,1,wg-a,,,,AAXX 30184 07149 12575 43006 10080 20060 30097 40207 53020 60006 70196 83801 91800 333 10105 20078=
07149,1998-10-30 21:00:00,8,1021.3,0.5,87,6,25000,14.816,,,270,,,,,,,,,,,wg-a,,,,AAXX 30214 07149 12775 32708 10080 20060 30102 40213 51005 60006 83500 92100=
07149,1998-10-31 00:00:00,8,1020.3,-0.9,93,7,25000,11.112,,,250,,,,,,,,,,,wg-a,,,,AAXX 31004 07149 12775 62506 10080 20070 30093 40203 58009 60006 82530 90000=
07149,1998-10-31 03:00:00,8,1019,-1.3,93,7,20000,11.112,,,250,,,,,,,,,,,wg-a,,,,AAXX 31034 07149 12770 72506 10080 20070 30080 40190 58013 60006 81532 90300=
07149,1998-10-31 06:00:00,9,1017.4,-1.6,87,7,20000,14.816,,,230,6.5,8.6,,,,,14,,,,wg-a,,,,AAXX 31064 07149 02370 72308 10090 20070 30064 40174 58016 60006 8157/ 90600 333 10086 20065 60144=
07149,1998-10-31 09:00:00,10,1016.2,-1.1,87,8,12000,25.928,,,230,,,,,,,,,,3,wg-a,,,,AAXX 31094 07149 02262 82314 10100 20080 30053 40162 56011 61000 70362 877// 90900 333 ////=
07149,1998-10-31 12:00:00,10,1013,-3.2,93,9,11000,25.928,,,220,,,,0,,,,,,61,wg-a,,,,AAXX 31124 07149 02261 82214 10100 20090 30021 40130 58032 60016 76162 877// 91200 333 60007=
07149,1998-10-31 15:00:00,11,1009,-3.9,87,9,8000,29.632,,,220,,,,2,,,,,,61,wg-a,,,,AAXX 31154 07149 12358 82216 10110 20090 39982 40090 58039 60027 76166 887// 91500=
07149,1998-10-31 18:00:00,11,1004.5,-4.4,94,10,7000,42.596,,,230,8.5,10.9,,,,,,,,61,wg-a,,,,AAXX 31184 07149 02357 72323 10110 20100 39938 40045 56044 61000 76162 877// 91800 333 10109 20085 6002=
07149,1998-10-31 21:00:00,11,1000.7,-3.8,94,10,20000,35.188,,64.82,230,,,,1,,,,,,61,wg-a,,,,AAXX 31214 07149 12470 82319 10110 20100 39900 40007 56038 60017 76162 877// 92100 333 91035=
07149,1998-11-01 00:00:00,12,996,-4.6,88,10,7000,46.3,,,230,,,,1,,,,,,61,wg-a,,,,AAXX 01004 07149 02257 82325 10120 20100 39854 49960 57046 60026 76162 877// 90000 333 60017=
07149,1998-11-01 03:00:00,14,995.6,-0.4,77,10,25000,42.596,,68.524,280,,,,3,,,,,,21,wg-a,,,,AAXX 01034 07149 12475 /2823 10140 20100 39850 49956 55004 60037 72165 85500 90300 333 91037=
07149,1998-11-01 06:00:00,11,1001.8,6.1,76,7,500,25.928,,,310,10.6,14.2,,,,,9,,,3,wg-a,,,,AAXX 01064 07149 02400 73114 10110 20070 39911 40018 51061 60006 70365 875// 90600 333 10142 20106 60094=
07149,1998-11-01 09:00:00,11,1006.7,4.8,76,7,17000,14.816,,,330,,,,,,,,,,25,wg-a,,,,AAXX 01094 07149 02467 73308 10110 20070 39959 40067 51048 61000 72586 878// 90900 333 ////=
07149,1998-11-01 12:00:00,11,1008.7,2.1,71,6,20000,16.668,,,340,,,,,,,,,,2,wg-a,,,,AAXX 01124 07149 02570 /3409 10110 20060 39979 40087 51021 61000 70286 86800 91200 333 ////=
07149,1998-11-01 15:00:00,11,1010.3,1.5,58,3,20000,22.224,,,300,,,,,,,,,,,wg-a,,,,AAXX 01154 07149 12670 /3012 10110 20030 39995 40103 53015 60006 82201 91500=
07149,1998-11-02 00:00:00,5,1013.2,-0.2,87,3,20000,11.112,,,230,,,,,,,,,,,wg-a,,,,AAXX 02004 07149 12770 52306 10050 20030 30021 40132 58002 60006 815/1 90000=
07149,1998-11-02 03:00:00,4,1011.9,-1.3,87,2,20000,7.408,,,200,,,,,,,,,,,wg-a,,,,AAXX 02034 07149 12/70 52004 10040 20020 30008 40119 56013 60006 80001 90300=
07149,1998-11-02 06:00:00,3,1010.9,,93,2,18000,11.112,,,190,3.2,,,,,,,,,,wg-a,,,,AAXX 02064 07149 12/68 51906 10030 20020 39998 40109 60006 80001 90600 333 10081 20032=
07149,1998-11-02 09:00:00,7,1009.1,-1.7,76,3,15000,14.816,,,180,,,,,,,,,,,wg-a,,,,AAXX 02094 07149 12665 /1808 10070 20030 39981 40091 58017 60006 81502 90900=
07149,1998-11-02 12:00:00,10,1006,-2.9,62,3,25000,22.224,,,200,,,,,,,,,,,wg-a,,,,AAXX 02124 07149 12575 72012 10100 20030 39952 40060 56029 60006 878// 91200=
07149,1998-11-02 15:00:00,11,1001.1,-4.8,71,6,15000,29.632,,,210,,,,,,,,,,61,wg-a,,,,AAXX 02154 07149 02565 72116 10110 20060 39904 40011 56048 61000 76162 8553/ 91500 333 ////=
07149,1998-11-02 18:00:00,10,997.7,-3.4,87,8,12000,22.224,,,190,2.9,11.6,,,,,,,,21,wg-a,,,,AAXX 02184 07149 02462 81912 10100 20080 39870 49977 58034 61000 72162 875// 91800 333 10116 20029 6000=
07149,1998-11-02 21:00:00,12,995.3,-2.3,88,10,20000,35.188,,,220,,,,,,,,,,,wg-a,,,,AAXX 02214 07149 12470 82219 10120 20100 39847 49953 56023 60006 877// 92100=
07149,1998-11-03 00:00:00,10,996.9,1.5,76,6,20000,29.632,,,250,,,,2,,,,,,2,wg-a,,,,AAXX 03004 07149 02770 62516 10100 20060 39862 49969 51015 60026 70262 84530 90000 333 60027=
07149,1998-11-03 03:00:00,10,997.1,0.2,76,6,20000,31.484,,,240,,,,,,,,,,,wg-a,,,,AAXX 03034 07149 12770 62417 10100 20060 39864 49971 50002 60006 83530 90300=
07149,1998-11-03 06:00:00,9,997.6,0.4,76,5,20000,31.484,,,240,8.5,12.3,,,,,2,,,,wg-a,,,,AAXX 03064 07149 02/70 52417 10090 20050 39868 49976 53004 60006 85030 90600 333 10123 20085 60024=
07149,1998-11-03 09:00:00,10,998.8,1.3,71,5,28000,31.484,,,240,,,,,,,,,,,wg-a,,,,AAXX 03094 07149 12/78 22417 10100 20050 39881 49988 51013 60006 81031 90900=
07149,1998-11-03 12:00:00,12,998.3,-0.5,62,5,500,38.892,,,240,,,,,,,,,,,wg-a,,,,AAXX 03124 07149 12500 52421 10120 20050 39876 49983 58005 60006 85800 91200=
07149,1998-11-03 15:00:00,11,997.8,-0.5,58,3,500,29.632,,,250,,,,,,,,,,,wg-a,,,,AAXX 03154 07149 12600 32516 10110 20030 39871 49978 56005 60006 83201 91500=
07149,1998-11-03 18:00:00,9,998.3,0.4,76,5,25000,22.224,,,220,8.4,12.5,,,,,,,,,wg-a,,,,AAXX 03184 07149 12675 /2212 10090 20050 39875 49983 53004 60006 81201 91800 333 10125 20084=
07149,1998-11-03 21:00:00,7,999.1,0.8,87,5,25000,18.52,,,230,,,,,,,,,,,wg-a,,,,AAXX 03214 07149 12/75 12310 10070 20050 39883 49991 51008 60006 80001 92100=
07149,1998-11-04 00:00:00,6,999.6,0.4,93,5,25000,22.224,,,220,,,,,,,,,,,wg-a,,,,AAXX 04004 07149 12/75 12212 10060 20050 39887 49996 50004 60006 80001 90000=
07149,1998-11-04 03:00:00,5,999.5,-0.1,93,4,25000,18.52,,,240,,,,,,,,,,,wg-a,,,,AAXX 04034 07149 12/75 02410 10050 20040 39886 49995 58001 60006 80000 90300=
07149,1998-11-04 06:00:00,5,1000,0.5,87,3,20000,22.224,,,240,4.9,9.2,,,,,,,,,wg-a,,,,AAXX 04064 07149 02470 52412 10050 20030 39891 40000 53005 60006 85500 90600 333 10092 20049 60004=
07149,1998-11-04 12:00:00,9,1005,2.3,76,5,20000,11.112,,,330,,,,,,,,,,3,wg-a,,,,AAXX 04124 07149 02570 73306 10090 20050 39942 40050 51023 60006 70362 878// 91200 333 61000=
07149,1998-11-04 15:00:00,11,1006.3,1.3,58,3,22000,14.816,,,340,,,,,,,,,,,wg-a,,,,AAXX 04154 07149 12572 63408 10110 20030 39955 40063 53013 60006 84901 91500=
07149,1998-11-04 18:00:00,7,1009.2,2.7,70,2,22000,7.408,,,300,5,10.7,,,,,,,,,wg-a,,,,AAXX 04184 07149 12772 23004 10070 20020 39982 40092 52027 60006 81531 91800 333 10107 20050=
07149,1998-11-04 21:00:00,3,1011.7,2.4,93,2,20000,11.112,,,260,,,,,,,,,,,wg-a,,,,AAXX 04214 07149 12670 22606 10030 20020 30006 40117 52024 60006 82500 92100=
07149,1998-11-05 00:00:00,3,1013.8,2,87,1,20000,14.816,,,250,,,,,,,,,,,wg-a,,,,AAXX 05004 07149 12670 /2508 10030 20010 30026 40138 51020 60006 82500 90000=
07149,1998-11-05 03:00:00,2,1016.1,2.2,93,1,20000,11.112,,,290,,,,,,,,,,,wg-a,,,,AAXX 05034 07149 12/70 02906 10020 20010 30048 40161 51022 60006 80000 90300=
07149,1998-11-05 06:00:00,1,1018.5,2.4,93,0,20000,11.112,,,260,0.5,6.6,,,,,,,,,wg-a,,,,AAXX 05064 07149 02/70 02606 10010 20000 30072 40185 51024 60006 80000 90600 333 10066 20005 60004=
07149,1998-11-05 09:00:00,6,1021,,75,2,18000,14.816,,,250,,,,,,,,,,,wg-a,,,,AAXX 05094 07149 32/68 02508 10060 20020 30098 40210 80000 90900=
07149,1998-11-05 12:00:00,10,1021.6,0.7,57,2,500,22.224,,,240,,,,,,,,,,,wg-a,,,,AAXX 05124 07149 12500 22412 10100 20020 30106 40216 50007 60006 81101 91200=
07149,1998-11-05 15:00:00,10,1021.5,-0.1,57,2,500,25.928,,,240,,,,,,,,,,,wg-a,,,,AAXX 05154 07149 12600 42414 10100 20020 30105 40215 58001 60006 81101 91500=
07149,1998-11-05 18:00:00,7,1022.6,1,70,2,25000,22.224,,,220,0.1,10.4,,,,,,,,,wg-a,,,,AAXX 05184 07149 12/75 02212 10070 20020 30115 40226 51010 60006 80000 91800 333 10104 20001=
07149,1998-11-05 21:00:00,7,1023.2,0.6,70,2,25000,22.224,,,240,,,,,,,,,,,wg-a,,,,AAXX 05214 07149 12775 62412 10070 20020 30121 40232 51006 60006 86500 92100=
07149,1998-11-06 00:00:00,7,1023.5,0.3,76,3,25000,25.928,,,240,,,,,,,,,,,wg-a,,,,AAXX 06004 07149 12675 72414 10070 20030 30124 40235 52003 60006 875// 90000=
07149,1998-11-06 03:00:00,7,1023.6,0.1,81,4,25000,18.52,,,230,,,,,,,,,,,wg-a,,,,AAXX 06034 07149 12675 72310 10070 20040 30125 40236 50001 60006 875// 90300=
07149,1998-11-06 06:00:00,7,1025,1.4,87,5,11000,14.816,,,260,6,7.4,,,,,,,,,wg-a,,,,AAXX 06064 07149 02/61 /2608 10070 20050 30139 40250 53014 60006 90600 333 10074 20060 61000=
07149,1998-11-06 09:00:00,9,1026.4,1.5,87,7,20000,18.52,,,260,,,,,,,,,,,wg-a,,,,AAXX 06094 07149 12570 22610 10090 20070 30154 40264 52015 60006 82800 90900=
07149,1998-11-06 12:00:00,12,1026.8,0.4,71,7,25000,18.52,,,290,,,,,,,,,,,wg-a,,,,AAXX 06124 07149 12575 /2910 10120 20070 30158 40268 51004 60006 86800 91200=
07149,1998-11-06 15:00:00,11,1027.4,0.6,82,8,7000,7.408,,,10,,,,,,,,,,80,wg-a,,,,AAXX 06154 07149 02557 70104 10110 20080 30164 40274 53006 61000 78086 878// 91500 333 ////=
07149,1998-11-06 18:00:00,8,1028.9,1.4,93,7,12000,0,,,0,7,12.6,,,,,,,,80,wg-a,,,,AAXX 06184 07149 02562 70000 10080 20070 30178 40289 53014 61000 78086 878// 91800 333 10126 20070 6001=
07149,1998-11-06 21:00:00,7,1030,1,93,6,20000,7.408,,,240,,,,0,,,,,,11,wg-a,,,,AAXX 06214 07149 12470 32404 10070 20060 30188 40300 51010 60007 71186 82830 92100=
07149,1998-11-07 00:00:00,6,1030,-0,93,5,8000,7.408,,,230,,,,,,,,,,40,wg-a,,,,AAXX 07004 07149 12658 /2304 10060 20050 30188 40300 55000 60006 74086 81500 90000=
07149,1998-11-07 03:00:00,4,1029.4,-0.7,100,4,4000,7.408,,,230,,,,,,,,,,40,wg-a,,,,AAXX 07034 07149 12/40 02304 10040 20040 30181 40294 58007 60006 74000 80000 90300=
07149,1998-11-07 06:00:00,3,1029.7,0.3,100,3,300,3.704,,,160,2.2,8.7,,,,,1,,,44,wg-a,,,,AAXX 07064 07149 02/03 01602 10030 20030 30184 40297 50003 60006 74440 80000 90600 333 10087 20022 60014=
07149,1998-11-07 09:00:00,4,1030.6,0.9,93,3,200,3.704,,,150,,,,,,,,,,45,wg-a,,,,AAXX 07094 07149 12/02 91502 10040 20030 30193 40306 51009 60006 74544 89/// 90900=
07149,1998-11-07 12:00:00,7,1029.4,-1.1,93,6,400,7.408,,,130,,,,,,,,,,43,wg-a,,,,AAXX 07124 07149 12/04 91304 10070 20060 30182 40294 56011 60006 74344 89/// 91200=
07149,1998-11-07 15:00:00,7,1027.9,-1.5,100,7,3000,11.112,,,170,,,,,,,,,,10,wg-a,,,,AAXX 07154 07149 12130 81706 10070 20070 30167 40279 56015 60006 71042 876// 91500=
07149,1998-11-07 18:00:00,7,1027.1,-0.8,93,6,6000,7.408,,,130,3.1,7.3,,,,,,,,1,wg-a,,,,AAXX 07184 07149 12356 81304 10070 20060 30159 40271 58008 60006 70142 876// 91800 333 10073 20031=
07149,1998-11-07 21:00:00,6,1026.1,-1,100,6,6000,11.112,,,130,,,,,,,,,,,wg-a,,,,AAXX 07214 07149 12156 71306 10060 20060 30149 40261 56010 60006 876// 92100=
07149,1998-11-08 00:00:00,5,1024.6,-1.5,100,5,4000,11.112,,,160,,,,,,,,,,10,wg-a,,,,AAXX 08004 07149 12140 81606 10050 20050 30134 40246 56015 60006 71022 876// 90000=
07149,1998-11-08 03:00:00,4,1023.1,-1.5,93,3,4000,14.816,,,200,,,,,,,,,,10,wg-a,,,,AAXX 08034 07149 12140 72008 10040 20030 30119 40231 58015 60006 71022 876// 90300=
07149,1998-11-08 06:00:00,3,1023.2,0,100,3,7000,11.112,,,180,3.1,6.7,,,,,,,,,wg-a,,,,AAXX 08064 07149 02257 71806 10030 20030 30119 40232 50000 60006 81632 90600 333 10067 20031 60004=
07149,1998-11-08 09:00:00,6,1023.1,0.1,81,3,17000,22.224,,,210,,,,,,,,,,,wg-a,,,,AAXX 08094 07149 12/67 72112 10060 20030 30120 40231 50001 60006 84032 90900=
07149,1998-11-08 12:00:00,10,1022.5,-0.5,71,5,18000,31.484,,,210,,,,,,,,,,,wg-a,,,,AAXX 08124 07149 12668 72117 10100 20050 30115 40225 57005 60006 8653/ 91200=
07149,1998-11-08 15:00:00,12,1021.5,-0.9,71,7,18000,22.224,,,220,,,,,,,,,,,wg-a,,,,AAXX 08154 07149 12468 72212 10120 20070 30106 40215 56009 60006 875// 91500=
07149,1998-11-08 18:00:00,12,1021.3,-0.2,76,8,18000,25.928,,,210,3.1,12.3,,,,,,,,21,wg-a,,,,AAXX 08184 07149 02468 82114 10120 20080 30104 40213 55002 61000 72162 875// 91800 333 10123 20031 6100=
07149,1998-11-08 21:00:00,13,1020.7,-0.5,77,9,18000,35.188,,,230,,,,,,,,,,,wg-a,,,,AAXX 08214 07149 12468 /2319 10130 20090 30099 40207 58005 60006 82530 92100=
07149,1998-11-09 00:00:00,13,1021.5,0.7,72,8,18000,25.928,,,210,,,,,,,,,,,wg-a,,,,AAXX 09004 07149 12668 /2114 10130 20080 30106 40215 51007 60006 83530 90000=
07149,1998-11-09 03:00:00,13,1020.2,-1.3,72,8,18000,29.632,,,210,,,,,,,,,,,wg-a,,,,AAXX 09034 07149 12668 82116 10130 20080 30093 40202 58013 60006 8353/ 90300=
07149,1998-11-09 06:00:00,13,1019.7,-0.5,67,7,18000,31.484,,,220,12.2,13.1,,,,,,,,21,wg-a,,,,AAXX 09064 07149 02668 82217 10130 20070 30088 40197 58005 61000 72162 8657/ 90600 333 10131 20122 6100=
07149,1998-11-09 09:00:00,12,1020.5,0.8,82,9,17000,25.928,,,220,,,,0,,,,,,21,wg-a,,,,AAXX 09094 07149 12667 82214 10120 20090 30096 40205 50008 60007 72162 8557/ 90900=
07149,1998-11-09 12:00:00,14,1019.5,-0.9,82,11,20000,29.632,,,230,,,,,,,,,,3,wg-a,,,,AAXX 09124 07149 12470 72316 10140 20110 30087 40195 57009 60016 70362 875// 91200=
07149,1998-11-09 15:00:00,14,1018.6,-0.9,88,12,6000,22.224,,,230,,,,,,,,,,61,wg-a,,,,AAXX 09154 07149 02456 82312 10140 20120 30078 40186 55009 61000 76162 875// 91500 333 ////=
07149,1998-11-09 18:00:00,14,1019.2,0.6,94,13,7000,14.816,,,250,11.2,14.7,,,,,,,,3,wg-a,,,,AAXX 09184 07149 02257 72508 10140 20130 30084 40192 53006 60006 70365 877// 91800 333 10147 20112 61000=
07149,1998-11-09 21:00:00,13,1019.5,0.3,94,12,7000,14.816,,,250,,,,,,,,,,,wg-a,,,,AAXX 09214 07149 12657 72508 10130 20120 30087 40195 52003 60006 875// 92100=
07149,1998-11-10 00:00:00,11,1018.9,-0.7,100,11,8000,11.112,,,240,,,,,,,,,,,wg-a,,,,AAXX 10004 07149 12658 62406 10110 20110 30080 40189 55007 60006 86530 90000=
07149,1998-11-10 03:00:00,11,1017.8,-1.1,100,11,500,14.816,,,270,,,,,,,,,,,wg-a,,,,AAXX 10034 07149 12000 72708 10110 20110 30069 40178 55011 60006 8357/ 90300=
07149,1998-11-10 06:00:00,11,1016.7,-1.1,100,11,500,18.52,,,240,10.7,13.6,,,,,1,,,,wg-a,,,,AAXX 10064 07149 02100 72410 10110 20110 30058 40167 56011 60006 8667/ 90600 333 10136 20107 60014=
07149,1998-11-10 09:00:00,12,1017.3,0.7,88,10,10000,22.224,,,260,,,,,,,,,,21,wg-a,,,,AAXX 10094 07149 02460 72612 10120 20100 30065 40173 50007 61000 72162 8583/ 90900 333 ////=
07149,1998-11-10 12:00:00,12,1018.5,1.1,58,4,25000,29.632,,,310,,,,,,,,,,80,wg-a,,,,AAXX 10124 07149 02575 73116 10120 20040 30076 40185 52011 61000 78086 878// 91200 333 6100=
07149,1998-11-10 15:00:00,12,1020.3,1.8,47,1,25000,29.632,,,310,,,,,,,,,,1,wg-a,,,,AAXX 10154 07149 02675 23116 10120 20010 30094 40203 53018 61000 70186 82800 91500 333 ////=
07149,1998-11-10 18:00:00,9,1023.2,2.8,61,2,25000,18.52,,,320,9.2,13.6,,,,,,,,2,wg-a,,,,AAXX 10184 07149 12775 13210 10090 20020 30122 40232 51028 60006 70286 815/0 91800 333 10136 20092=
07149,1998-11-10 21:00:00,6,1025.3,1.9,81,3,20000,14.816,,,290,,,,,,,,,,,wg-a,,,,AAXX 10214 07149 12670 12908 10060 20030 30141 40253 51019 60006 81500 92100=
07149,1998-11-11 00:00:00,5,1027,1.6,87,3,20000,11.112,,,270,,,,,,,,,,,wg-a,,,,AAXX 11004 07149 12/70 02706 10050 20030 30157 40270 51016 60006 80000 90000=
07149,1998-11-11 03:00:00,3,1027.8,0.8,93,2,20000,11.112,,,280,,,,,,,,,,,wg-a,,,,AAXX 11034 07149 12/70 02806 10030 20020 30165 40278 51008 60006 80000 90300=
07149,1998-11-11 06:00:00,2,1028.8,0.9,93,1,15000,3.704,,,260,2,9.3,,,,,,,,,wg-a,,,,AAXX 11064 07149 02/65 02602 10020 20010 30174 40288 53009 60006 80000 90600 333 10093 20020 61000=
07149,1998-11-11 09:00:00,6,1028.5,-0.1,87,4,18000,3.704,,,230,,,,,,,,,,,wg-a,,,,AAXX 11094 07149 12/68 12302 10060 20040 30173 40285 58001 60006 80001 90900=
07149,1998-11-11 12:00:00,10,1027.4,-0.9,62,3,18000,7.408,,,120,,,,,,,,,,,wg-a,,,,AAXX 11124 07149 12568 31204 10100 20030 30164 40274 58009 60006 83101 91200=
07149,1998-11-11 15:00:00,10,1024.8,-2.6,57,2,18000,3.704,,,190,,,,,,,,,,,wg-a,,,,AAXX 11154 07149 12668 31902 10100 20020 30138 40248 56026 60006 82101 91500=
07149,1998-11-11 18:00:00,5,1023.1,-1.9,81,2,18000,7.408,,,170,1.6,11.6,,,,,,,,,wg-a,,,,AAXX 11184 07149 12/68 01704 10050 20020 30119 40231 56019 60006 80000 91800 333 10116 20016=
07149,1998-11-11 21:00:00,5,1019.8,-3.3,81,2,18000,11.112,,,140,,,,,,,,,,,wg-a,,,,AAXX 11214 07149 12/68 61406 10050 20020 30086 40198 56033 60006 83034 92100=
07149,1998-11-12 00:00:00,4,1017.2,-2.6,87,2,18000,11.112,,,150,,,,,,,,,,,wg-a,,,,AAXX 12004 07149 12/68 61506 10040 20020 30060 40172 58026 60006 83031 90000=
07149,1998-11-12 03:00:00,3,1013.6,-3.6,93,2,15000,7.408,,,150,,,,,,,,,,,wg-a,,,,AAXX 12034 07149 12/65 71504 10030 20020 30024 40136 56036 60006 83032 90300=
07149,1998-11-12 12:00:00,6,1011.2,-0.6,93,5,500,14.816,,,230,,,,0,,,,,,60,wg-a,,,,AAXX 12124 07149 02200 82308 10060 20050 30002 40112 56006 60016 76062 877// 91200 333 60007=
07149,1998-11-12 15:00:00,10,1011,-0.1,76,6,18000,18.52,,,240,,,,,,,,,,3,wg-a,,,,AAXX 12154 07149 02468 42410 10100 20060 30001 40110 55001 61000 70361 84900 91500 333 ////=
07149,1998-11-12 18:00:00,8,1012.6,1.5,81,5,18000,18.52,,,260,3.4,9.8,,,,,,,,1,wg-a,,,,AAXX 12184 07149 02668 52610 10080 20050 30016 40126 53015 60006 70161 85500 91800 333 10098 20034 61000=
07149,1998-11-12 21:00:00,7,1013,0.4,87,5,25000,25.928,,,250,,,,,,,,,,,wg-a,,,,AAXX 12214 07149 12675 /2514 10070 20050 30020 40130 51004 60006 81500 92100=
07149,1998-11-13 00:00:00,5,1013.7,0.6,93,4,25000,18.52,,,250,,,,,,,,,,,wg-a,,,,AAXX 13004 07149 12775 12510 10050 20040 30026 40137 53006 60006 81500 90000=
07149,1998-11-13 03:00:00,6,1012.3,-1.4,87,4,25000,14.816,,,230,,,,,,,,,,,wg-a,,,,AAXX 13034 07149 12675 62308 10060 20040 30012 40123 58014 60006 86500 90300=
07149,1998-11-13 06:00:00,5,1011.6,-0.7,93,4,20000,22.224,,,220,4.8,8.2,,,,,1,,,,wg-a,,,,AAXX 13064 07149 02770 72212 10050 20040 30005 40116 55007 60006 82531 90600 333 10082 20048 60014=
07149,1998-11-13 09:00:00,5,1010.2,-1.3,87,3,14000,18.52,,,210,,,,,,,,,,,wg-a,,,,AAXX 13094 07149 12764 72110 10050 20030 39992 40102 58013 60006 8457/ 90900=
07149,1998-11-13 12:00:00,7,1008.8,-1.4,87,5,12000,11.112,,,190,,,,0,,,,,,60,wg-a,,,,AAXX 13124 07149 02562 81906 10070 20050 39978 40088 58014 60006 76062 8457/ 91200 333 60007=
07149,1998-11-13 15:00:00,5,1011.6,-0.7,93,4,20000,22.224,,,220,4.8,8.2,,,,,1,,,,wg-a,,,,AAXX 13154 07149 02770 72212 10050 20040 30005 40116 55007 60006 82531 91500 333 10082 20048 60014=
07149,1998-11-13 18:00:00,7,1006,-0.9,87,5,15000,14.816,,,150,5,7.6,,,,,,,,61,wg-a,,,,AAXX 13184 07149 02465 81508 10070 20050 39951 40060 57009 61000 76162 875// 91800 333 10076 20050 6000=
07149,1998-11-13 21:00:00,6,1003.8,-2.2,93,5,15000,11.112,,,140,,,,,,,,,,60,wg-a,,,,AAXX 13214 07149 02665 81406 10060 20050 39929 40038 58022 61000 76062 8552/ 92100 333 ////=
07149,1998-11-14 00:00:00,6,1002.2,-1.6,87,4,18000,7.408,,,140,,,,,,,,,,21,wg-a,,,,AAXX 14004 07149 02668 81404 10060 20040 39913 40022 58016 61000 72162 875// 90000 333 6100=
07149,1998-11-14 03:00:00,6,1000.4,-1.8,93,5,500,3.704,,,90,,,,1,,,,,,61,wg-a,,,,AAXX 14034 07149 12400 80902 10060 20050 39895 40004 57018 60017 76162 875// 90300=
07149,1998-11-14 06:00:00,7,1000,-0.4,93,6,15000,18.52,,,280,5.4,6.7,,,,,,,,21,wg-a,,,,AAXX 14064 07149 02265 82810 10070 20060 39891 40000 55004 61000 72165 8677/ 90600 333 10067 20054 6002=
07149,1998-11-14 09:00:00,7,1002.2,2.2,81,4,20000,29.632,,,270,,,,,,,,,,25,wg-a,,,,AAXX 14094 07149 02370 32716 10070 20040 39913 40022 51022 61000 72586 83800 90900 333 ////=
07149,1998-11-14 12:00:00,9,1002,-0.1,71,4,20000,35.188,,,270,,,,,,,,,,25,wg-a,,,,AAXX 14124 07149 02570 72719 10090 20040 39912 40020 58001 61000 72586 87200 91200 333 6100=
07149,1998-11-14 15:00:00,7,1003.8,1.7,87,5,20000,25.928,,,290,,,,4,,,,,,1,wg-a,,,,AAXX 14154 07149 12570 72914 10070 20050 39929 40038 53017 60047 70187 85801 91500=
07149,1998-11-14 18:00:00,6,1007.4,3.5,87,4,25000,18.52,,,300,5.3,9.6,,,,,,,,1,wg-a,,,,AAXX 14184 07149 12575 /3010 10060 20040 39964 40074 53035 60006 70187 82802 91800 333 10096 20053=
07149,1998-11-14 21:00:00,6,1009.6,2.2,87,4,15000,18.52,,,270,,,,,,,,,,21,wg-a,,,,AAXX 14214 07149 02265 72710 10060 20040 39986 40096 51022 61000 72161 875// 92100 333 ////=
07149,1998-11-15 00:00:00,5,1010.4,0.7,87,3,25000,22.224,,,250,,,,,,,,,,3,wg-a,,,,AAXX 15004 07149 02675 32512 10050 20030 39993 40104 51007 61000 70361 83500 90000 333 ////=
07149,1998-11-15 03:00:00,5,1010.5,0.1,93,4,25000,14.816,,,250,,,,,,,,,,,wg-a,,,,AAXX 15034 07149 12675 /2508 10050 20040 39994 40105 50001 60006 82500 90300=
07149,1998-11-15 06:00:00,6,1011.5,1.1,87,4,25000,18.52,,,260,4.6,6.3,,,,,4,,,,wg-a,,,,AAXX 15064 07149 02475 /2610 10060 20040 30005 40115 53011 60006 86800 90600 333 10063 20046 60044=
07149,1998-11-15 09:00:00,7,1014.2,2.7,81,4,25000,22.224,,,300,,,,,,,,,,25,wg-a,,,,AAXX 15094 07149 02475 73012 10070 20040 30032 40142 53027 61000 72586 87800 90900 333 ////=
07149,1998-11-15 12:00:00,9,1016.2,2,66,3,25000,25.928,,,330,,,,,,,,,,1,wg-a,,,,AAXX 15124 07149 02575 /3314 10090 20030 30052 40162 51020 61000 70186 85200 91200 333 ////=
07149,1998-11-15 15:00:00,9,1017.9,1.7,66,3,25000,22.224,,,310,,,,,,,,,,25,wg-a,,,,AAXX 15154 07149 02675 53112 10090 20030 30069 40179 53017 61000 72586 85800 91500 333 ////=
07149,1998-11-15 21:00:00,7,1021.1,1.3,81,4,22000,18.52,,,280,,,,,,,,,,,wg-a,,,,AAXX 15214 07149 12572 72810 10070 20040 30100 40211 52013 60006 878// 92100=
07149,1998-11-16 00:00:00,5,1021.3,0.1,87,3,22000,18.52,,,290,,,,,,,,,,,wg-a,,,,AAXX 16004 07149 12572 /2910 10050 20030 30101 40213 53001 60006 83800 90000=
07149,1998-11-16 03:00:00,4,1021.8,0.5,87,2,22000,14.816,,,280,,,,,,,,,,25,wg-a,,,,AAXX 16034 07149 02572 52808 10040 20020 30106 40218 53005 61000 72586 85800 90300 333 ////=
07149,1998-11-16 06:00:00,5,1022.9,1.1,81,2,11000,18.52,,,330,3.1,8.1,,,,,,,,,wg-a,,,,AAXX 16064 07149 02/61 /3310 10050 20020 30117 40229 53011 60006 90600 333 10081 20031 61000=
07149,1998-11-16 09:00:00,5,1024.8,1.9,75,1,20000,18.52,,,330,,,,,,,,,,,wg-a,,,,AAXX 16094 07149 12570 63310 10050 20010 30136 40248 52019 60006 86500 90900=
07149,1998-11-16 12:00:00,8,1025.7,1,66,2,25000,22.224,,,340,,,,,,,,,,,wg-a,,,,AAXX 16124 07149 12575 /3412 10080 20020 30146 40257 51010 60006 85200 91200=
07149,1998-11-16 15:00:00,8,1026.6,0.9,61,1,25000,22.224,,,340,,,,,,,,,,,wg-a,,,,AAXX 16154 07149 12575 63412 10080 20010 30155 40266 53009 60006 85801 91500=
07149,1998-11-16 18:00:00,7,1027.9,1.2,66,1,25000,18.52,,,360,2.9,7.9,,,,,,,,,wg-a,,,,AAXX 16184 07149 12575 /3610 10070 20010 30167 40279 52012 60006 86800 91800 333 10079 20029=
07149,1998-11-17 00:00:00,0,1030.7,1,93,-1,20000,3.704,,,290,,,,,,,,,,,wg-a,,,,AAXX 17004 07149 12/70 02902 10000 21010 30192 40307 51010 60006 80000 90000=
07149,1998-11-17 03:00:00,0,1030.6,-0.1,93,-1,10000,3.704,,,110,,,,,,,,,,,wg-a,,,,AAXX 17034 07149 12/60 21102 10000 21010 30191 40306 58001 60006 80001 90300=
07149,1998-11-17 06:00:00,0,1030.7,0.1,93,-1,300,0,,,0,-1.3,6.6,,,,,,,,48,wg-a,,,,AAXX 17064 07149 02/03 20000 10000 21010 30192 40307 52001 60006 74841 80001 90600 333 10066 21013 60004=
07149,1998-11-17 09:00:00,0,1031.9,1.2,100,0,400,0,,,0,,,,,,,,,,42,wg-a,,,,AAXX 17094 07149 12/04 20000 10000 20000 30204 40319 53012 60006 74244 80001 90900=
07149,1998-11-17 12:00:00,6,1030.6,-1,65,0,8000,7.408,,,150,,,,,,,,,,3,wg-a,,,,AAXX 17124 07149 12558 21504 10060 20000 30194 40306 58010 60006 70341 81101 91200=
07149,1998-11-17 15:00:00,6,1029.3,-1.3,56,-2,15000,11.112,,,140,,,,,,,,,,,wg-a,,,,AAXX 17154 07149 12665 21406 10060 21020 30181 40293 56013 60006 81501 91500=
07149,1998-11-17 18:00:00,2,1030.1,0.6,75,-2,18000,7.408,,,120,-0.7,7.2,,,,,,,,,wg-a,,,,AAXX 17184 07149 12668 41204 10020 21020 30187 40301 53006 60006 83501 91800 333 10072 21007=
07149,1998-11-17 21:00:00,0,1030.2,-0,86,-2,18000,7.408,,,80,,,,,,,,,,,wg-a,,,,AAXX 17214 07149 12/68 00804 10000 21020 30187 40302 54000 60006 80000 92100=
07149,1998-11-18 00:00:00,-2,1029.6,-0.7,93,-3,14000,3.704,,,30,,,,,,,,,,,wg-a,,,,AAXX 18004 07149 12/64 30302 11020 21030 30180 40296 57007 60006 80001 90000=
07149,1998-11-18 03:00:00,-2,1029,-0.6,93,-3,12000,7.408,,,40,,,,,,,,,,,wg-a,,,,AAXX 18034 07149 12/62 20404 11020 21030 30174 40290 56006 60006 80001 90300=
07149,1998-11-18 06:00:00,-3,1028.8,-0.2,100,-3,9000,7.408,,,40,-2.9,2.3,,,,,,,,,wg-a,,,,AAXX 18064 07149 02/59 30404 11030 21030 30172 40288 58002 60006 80001 90600 333 10023 21029 60004=
07149,1998-11-18 09:00:00,-1,1029.2,0.5,93,-2,7000,7.408,,,40,,,,,,,,,,,wg-a,,,,AAXX 18094 07149 12757 70404 11010 21020 30177 40292 53005 60006 83501 90900=
07149,1998-11-18 12:00:00,3,1028.7,-0.4,75,-1,8000,11.112,,,70,,,,,,,,,,,wg-a,,,,AAXX 18124 07149 12/58 40706 10030 21010 30173 40287 58004 60006 80001 91200=
07149,1998-11-18 15:00:00,4,1028,-0.6,70,-1,12000,14.816,,,40,,,,,,,,,,,wg-a,,,,AAXX 18154 07149 12562 20408 10040 21010 30167 40280 56006 60006 81101 91500=
07149,1998-11-18 18:00:00,0,1028.5,0.3,93,-1,9000,11.112,,,30,-3,4.3,,,,,,,,,wg-a,,,,AAXX 18184 07149 12/59 00306 10000 21010 30170 40285 53003 60006 80000 91800 333 10043 21030=
07149,1998-11-18 21:00:00,-1,1028.8,0.3,100,-1,7000,3.704,,,10,,,,,,,,,,,wg-a,,,,AAXX 18214 07149 12/57 00102 11010 21010 30173 40288 52003 60006 80000 92100=
07149,1998-11-19 00:00:00,-2,1028.1,-0.7,100,-2,6000,3.704,,,310,,,,,,,,,,,wg-a,,,,AAXX 19004 07149 12/56 03102 11020 21020 30166 40281 58007 60006 80000 90000=
07149,1998-11-19 03:00:00,-3,1024.2,,46,-13,0,7.408,,,250,,,,,,,,,,0,wg-a,,,,AAXX 19034 07149 32/// /2504 11030 21130 30127 40242 700// 815// 90300=
07149,1998-11-19 06:00:00,-1,1027.6,0.2,93,-2,4500,7.408,,,250,-3.5,0.9,,,,,,,,10,wg-a,,,,AAXX 19064 07149 02745 72504 11010 21020 30161 40276 50002 60006 71011 875// 90600 333 10009 21035 60004=
07149,1998-11-19 09:00:00,0,1027.5,0,93,-1,8000,11.112,,,260,,,,,,,,,,,wg-a,,,,AAXX 19094 07149 12758 72606 10000 21010 30161 40275 50000 60006 8553/ 90900=
07149,1998-11-19 12:00:00,3,1027.5,0.1,70,-2,15000,11.112,,,300,,,,,,,,,,60,wg-a,,,,AAXX 19124 07149 02565 73006 10030 21020 30162 40275 50001 61000 76062 8653/ 91200 333 6100=
07149,1998-11-19 15:00:00,4,1027.3,-0.2,70,-1,12000,11.112,,,300,,,,,,,,,,21,wg-a,,,,AAXX 19154 07149 02562 73006 10040 21010 30160 40273 55002 61000 72162 875// 91500 333 ////=
07149,1998-11-19 18:00:00,4,1028.2,0.9,81,1,10000,7.408,,,50,-1.4,4.2,,,,,,,,2,wg-a,,,,AAXX 19184 07149 12460 70504 10040 20010 30169 40282 53009 60006 70262 875// 91800 333 10042 21014=
07149,1998-11-19 21:00:00,2,1029.6,1.3,93,1,7000,7.408,,,120,,,,,,,,,,,wg-a,,,,AAXX 19214 07149 12/57 /1204 10020 20010 30182 40296 53013 60006 92100=
07149,1998-11-20 00:00:00,0,1030.4,0.7,93,-1,10000,3.704,,,90,,,,,,,,,,,wg-a,,,,AAXX 20004 07149 12460 40902 10000 21010 30189 40304 52007 60006 84501 90000=
07149,1998-11-20 03:00:00,0,1031.4,1,93,-1,7000,3.704,,,130,,,,,,,,,,,wg-a,,,,AAXX 20034 07149 12457 71302 10000 21010 30199 40314 51010 60006 875// 90300=
07149,1998-11-20 06:00:00,-3,1032.7,1.2,100,-3,500,0,,,0,-2.7,3.9,,,,,,,,,wg-a,,,,AAXX 20064 07149 02/00 00000 11030 21030 30211 40327 53012 60006 80000 90600 333 10039 21027 61000=
07149,1998-11-20 09:00:00,-1,1034.6,1.9,100,-1,500,7.408,,,110,,,,,,,,,,,wg-a,,,,AAXX 20094 07149 12400 81104 11010 21010 30230 40346 51019 60006 876// 90900=
07149,1998-11-20 12:00:00,1,1034.9,0.4,80,-2,12000,11.112,,,140,,,,,,,,,,,wg-a,,,,AAXX 20124 07149 12462 51406 10010 21020 30234 40349 50004 60006 85200 91200=
07149,1998-11-20 15:00:00,0,1035.5,0.6,80,-3,8000,11.112,,,60,,,,,,,,,,,wg-a,,,,AAXX 20154 07149 12458 /0606 10000 21030 30240 40355 53006 60006 82501 91500=
07149,1998-11-20 18:00:00,-3,1036.6,0.9,93,-4,7000,11.112,,,50,-3.2,2.7,,,,,,,,,wg-a,,,,AAXX 20184 07149 12/57 /0506 11030 21040 30249 40366 51009 60006 80000 91800 333 10027 21032=
07149,1998-11-20 21:00:00,-2,1037.5,0.9,74,-6,14000,14.816,,,70,,,,,,,,,,,wg-a,,,,AAXX 20214 07149 12/64 00708 11020 21060 30258 40375 52009 60006 80000 92100=
07149,1998-11-21 00:00:00,-5,1038,0.4,93,-6,17000,11.112,,,70,,,,,,,,,,,wg-a,,,,AAXX 21004 07149 12/67 00706 11050 21060 30262 40380 51004 60006 80000 90000=
07149,1998-11-21 06:00:00,-4,1037.7,-0.3,86,-6,15000,7.408,,,90,-5.8,-1.5,,,,,,,,,wg-a,,,,AAXX 21064 07149 02/65 10904 11040 21060 30259 40377 56003 60006 80001 90600 333 11015 21058 60004=
07149,1998-11-21 09:00:00,-2,1038.5,0.9,80,-5,13000,7.408,,,70,,,,,,,,,,,wg-a,,,,AAXX 21094 07149 12/63 10704 11020 21050 30268 40385 51009 60006 80001 90900=
07149,1998-11-21 12:00:00,2,1037,-1.3,60,-5,22000,11.112,,,110,,,,,,,,,,,wg-a,,,,AAXX 21124 07149 12/72 11106 10020 21050 30255 40370 58013 60006 80001 91200=
07149,1998-11-21 15:00:00,3,1035.3,-1.6,48,-7,25000,7.408,,,110,,,,,,,,,,,wg-a,,,,AAXX 21154 07149 12/75 31104 10030 21070 30239 40353 56016 60006 80001 91500=
07149,1998-11-21 18:00:00,-1,1034.9,-0.6,69,-6,23000,11.112,,,80,-4.4,3,,,,,,,,,wg-a,,,,AAXX 21184 07149 12/73 50806 11010 21060 30233 40349 58006 60006 80001 91800 333 10030 21044=
07149,1998-11-21 21:00:00,-2,1033.2,-1.7,74,-6,18000,11.112,,,90,,,,,,,,,,,wg-a,,,,AAXX 21214 07149 12/68 00906 11020 21060 30216 40332 58017 60006 80000 92100=
07149,1998-11-22 00:00:00,-3,1031.9,-1.3,74,-7,15000,11.112,,,80,,,,,,,,,,,wg-a,,,,AAXX 22004 07149 12/65 00806 11030 21070 30203 40319 58013 60006 80000 90000=
07149,1998-11-22 03:00:00,-4,1030.5,-1.5,80,-7,15000,7.408,,,80,,,,,,,,,,,wg-a,,,,AAXX 22034 07149 12/65 00804 11040 21070 30188 40305 56015 60006 80000 90300=
07149,1998-11-22 06:00:00,-5,1029.5,-1,79,-8,15000,11.112,,,70,-6.4,-0.6,,,,,,,,,wg-a,,,,AAXX 22064 07149 02/65 10706 11050 21080 30178 40295 58010 60006 80001 90600 333 11006 21064 60004=
07149,1998-11-22 09:00:00,-4,1029,-0.4,80,-7,10000,7.408,,,100,,,,,,,,,,,wg-a,,,,AAXX 22094 07149 12/60 01004 11040 21070 30174 40290 55004 60006 80000 90900=
07149,1998-11-22 12:00:00,-1,1027,-1.9,59,-8,12000,11.112,,,130,,,,,,,,,,,wg-a,,,,AAXX 22124 07149 12/62 01306 11010 21080 30155 40270 58019 60006 80000 91200=
07149,1998-11-22 15:00:00,-1,1025.1,-1.9,64,-7,12000,11.112,,,110,,,,,,,,,,,wg-a,,,,AAXX 22154 07149 12/62 11106 11010 21070 30136 40251 56019 60006 80001 91500=
07149,1998-11-22 18:00:00,-3,1025.1,-0.1,74,-7,9000,11.112,,,110,-6.3,-0.6,,,,,,,,,wg-a,,,,AAXX 22184 07149 12/59 /1106 11030 21070 30135 40251 56001 60006 80001 91800 333 11006 21063=
07149,1998-11-23 00:00:00,-6,1024.1,-1,86,-8,6000,3.704,,,30,,,,,,,,,,,wg-a,,,,AAXX 23004 07149 12/56 00302 11060 21080 30124 40241 55010 60006 80000 90000=
07149,1998-11-23 03:00:00,-8,1023.5,-0.6,92,-9,6000,3.704,,,70,,,,,,,,,,,wg-a,,,,AAXX 23034 07149 12/56 00702 11080 21090 30118 40235 56006 60006 80000 90300=
07149,1998-11-23 06:00:00,-8,1023.7,0.1,92,-9,500,7.408,,,80,-8.2,-3.4,,,,,,,,,wg-a,,,,AAXX 23064 07149 02/00 00804 11080 21090 30119 40237 52001 60006 80000 90600 333 11034 21082 60004=
07149,1998-11-23 09:00:00,-5,1024.5,1,86,-7,500,7.408,,,70,,,,,,,,,,,wg-a,,,,AAXX 23094 07149 12/00 20704 11050 21070 30129 40245 51010 60006 80001 90900=
07149,1998-11-23 12:00:00,-1,1024.3,-0.1,64,-7,8000,7.408,,,60,,,,,,,,,,,wg-a,,,,AAXX 23124 07149 12/58 00604 11010 21070 30128 40243 58001 60006 80000 91200=
07149,1998-11-23 18:00:00,-3,1024.8,1,80,-6,6000,7.408,,,70,-8.3,0.9,,,,,,,,,wg-a,,,,AAXX 23184 07149 12/56 00704 11030 21060 30132 40248 53010 60006 80000 91800 333 10009 21083=
07149,1998-11-23 21:00:00,-6,1025.1,0.2,93,-7,500,3.704,,,310,,,,,,,,,,,wg-a,,,,AAXX 23214 07149 12/00 03102 11060 21070 30134 40251 53002 60006 80000 92100=
07149,1998-11-24 00:00:00,-7,1025.4,0.3,100,-7,3000,3.704,,,270,,,,,,,,,,10,wg-a,,,,AAXX 24004 07149 12/30 02702 11070 21070 30137 40254 53003 60006 71000 80000 90000=
07149,1998-11-24 03:00:00,-7,1024.2,-1.2,93,-8,3000,7.408,,,170,,,,,,,,,,10,wg-a,,,,AAXX 24034 07149 12/30 01704 11070 21080 30125 40242 56012 60006 71000 80000 90300=
07149,1998-11-24 06:00:00,-8,1024.7,0.4,100,-8,2200,7.408,,,190,-8.1,-2.4,,,,,,,,10,wg-a,,,,AAXX 24064 07149 02/22 01904 11080 21080 30129 40247 51004 60006 71000 80000 90600 333 11024 21081 60004=
07149,1998-11-24 09:00:00,-5,1024.6,-0,93,-6,2000,7.408,,,180,,,,,,,,,,10,wg-a,,,,AAXX 24094 07149 12/20 71804 11050 21060 30129 40246 55000 60006 71011 83032 90900=
07149,1998-11-24 12:00:00,-1,1023.5,-0.8,80,-4,4700,14.816,,,200,,,,,,,,,,10,wg-a,,,,AAXX 24124 07149 12/47 72008 11010 21040 30121 40235 58008 60006 71011 8703/ 91200=
07149,1998-11-24 15:00:00,0,1022.5,-1,80,-3,4000,11.112,,,200,,,,,,,,,,10,wg-a,,,,AAXX 24154 07149 12740 82006 10000 21030 30111 40225 56010 60006 71022 8357/ 91500=
07149,1998-11-24 18:00:00,0,1022.1,-0.4,80,-3,4000,14.816,,,190,-7.7,0.5,,,,,,,,10,wg-a,,,,AAXX 24184 07149 12740 81908 10000 21030 30107 40221 56004 60006 71022 8357/ 91800 333 10005 21077=
07149,1998-11-24 21:00:00,1,1021.1,-1,75,-3,500,11.112,,,160,,,,,,,,,,,wg-a,,,,AAXX 24214 07149 12400 81606 10010 21030 30097 40211 58010 60006 8657/ 92100=
07149,1998-11-25 00:00:00,1,1019.4,-1.6,80,-2,500,11.112,,,170,,,,,,,,,,21,wg-a,,,,AAXX 25004 07149 02400 81706 10010 21020 30081 40194 56016 61000 72162 875// 90000 333 6100=
07149,1998-11-25 03:00:00,1,1017.5,-1.9,93,0,3500,11.112,,,150,,,,0,,,,,,10,wg-a,,,,AAXX 25034 07149 12435 81506 10010 20000 30062 40175 56019 60007 71065 887// 90300=
07149,1998-11-25 06:00:00,1,1015.5,-2,100,1,1800,11.112,,,160,0.4,1.2,,,,,,,,10,wg-a,,,,AAXX 25064 07149 02118 81606 10010 20010 30042 40155 56020 61000 71065 887// 90600 333 10012 20004 6001=
07149,1998-11-25 09:00:00,1,1015.1,-0.4,100,1,1800,7.408,,,150,,,,2,,,,,,10,wg-a,,,,AAXX 25094 07149 12118 81504 10010 20010 30038 40151 58004 60027 71065 877// 90900=
07149,1998-11-25 12:00:00,2,1014.5,-0.5,100,2,1100,3.704,,,150,,,,,,,,,,10,wg-a,,,,AAXX 25124 07149 02011 81502 10020 20020 30033 40145 58005 60026 71065 877// 91200 333 61000=
07149,1998-11-25 15:00:00,2,1015.4,0.9,100,2,400,3.704,,,280,,,,,,,,,,45,wg-a,,,,AAXX 25154 07149 32/04 92802 10020 20020 30042 40154 53009 74554 89/// 91500=
07149,1998-11-25 18:00:00,3,1017.7,2.3,100,3,4500,14.816,,,340,0.9,3,,,,,,,,10,wg-a,,,,AAXX 25184 07149 02245 83408 10030 20030 30065 40177 53023 60006 71054 877// 91800 333 10030 20009 61000=
07149,1998-11-26 00:00:00,4,1020.5,1.4,93,3,500,7.408,,,330,,,,,,,,,,,wg-a,,,,AAXX 26004 07149 12200 83304 10040 20030 30093 40205 51014 60006 876// 90000=
07149,1998-11-26 03:00:00,3,1021.7,1.1,100,3,500,7.408,,,350,,,,,,,,,,,wg-a,,,,AAXX 26034 07149 12200 73504 10030 20030 30104 40217 53011 60006 876// 90300=
07149,1998-11-26 06:00:00,2,1022.7,1,100,2,800,0,,,0,2.2,3.7,,,,,2,,,40,wg-a,,,,AAXX 26064 07149 02108 80000 10020 20020 30114 40227 53010 60006 74042 886// 90600 333 10037 20022 60024=
07149,1998-11-26 09:00:00,3,1024.1,1.4,100,3,2800,7.408,,,200,,,,,,,,,,10,wg-a,,,,AAXX 26094 07149 12128 72004 10030 20030 30128 40241 51014 60006 71042 875// 90900=
07149,1998-11-26 12:00:00,5,1024,0,100,5,500,11.112,,,230,,,,,,,,,,41,wg-a,,,,AAXX 26124 07149 12105 82306 10050 20050 30128 40240 50000 60006 74142 886// 91200=
07149,1998-11-26 15:00:00,5,1023,-1,100,5,4000,18.52,,,230,,,,,,,,,,10,wg-a,,,,AAXX 26154 07149 12140 82310 10050 20050 30118 40230 56010 60006 71042 876// 91500=
07149,1998-11-26 18:00:00,6,1021.8,-1.1,100,6,8000,22.224,,,230,2.1,5.9,,,,,,,,1,wg-a,,,,AAXX 26184 07149 12358 72312 10060 20060 30107 40218 56011 60006 70142 8557/ 91800 333 10059 20021=
07149,1998-11-26 21:00:00,7,1020.2,-1.6,100,7,7000,22.224,,,260,,,,0,,,,,,60,wg-a,,,,AAXX 26214 07149 12457 72612 10070 20070 30091 40202 56016 60007 76062 8557/ 92100=
07149,1998-11-27 00:00:00,8,1019.2,-0.9,93,7,8000,22.224,,,270,,,,0,,,,,,21,wg-a,,,,AAXX 27004 07149 02458 72712 10080 20070 30082 40192 56009 60016 72162 875// 90000 333 60007=
07149,1998-11-27 03:00:00,8,1019.4,0.2,100,8,6000,11.112,,,290,,,,2,,,,,,61,wg-a,,,,AAXX 27034 07149 12456 72906 10080 20080 30084 40194 52002 60027 76162 875// 90300=
07149,1998-11-27 06:00:00,8,1019.7,0.3,100,8,10000,11.112,,,290,5.8,8.3,,,,,3,,,3,wg-a,,,,AAXX 27064 07149 02460 72906 10080 20080 30087 40197 53003 60006 70362 875// 90600 333 10083 20058 60034=
07149,1998-11-27 09:00:00,8,1020.8,1,100,8,500,11.112,,,300,,,,,,,,,,,wg-a,,,,AAXX 27094 07149 12500 73006 10080 20080 30097 40208 52010 60006 875// 90900=
07149,1998-11-27 12:00:00,10,1020.9,0.2,82,7,10000,14.816,,,330,,,,,,,,,,,wg-a,,,,AAXX 27124 07149 12460 73308 10100 20070 30099 40209 50002 60006 878// 91200=
07149,1998-11-27 15:00:00,10,1020.7,-0.2,76,6,15000,14.816,,,330,,,,,,,,,,,wg-a,,,,AAXX 27154 07149 12465 73308 10100 20060 30097 40207 57002 60006 8583/ 91500=
07149,1998-11-27 18:00:00,8,1021.3,0.6,87,6,13000,3.704,,,120,6.7,10.1,,,,,,,,,wg-a,,,,AAXX 27184 07149 12563 71202 10080 20060 30103 40213 51006 60006 8323/ 91800 333 10101 20067=
07149,1998-11-27 21:00:00,6,1022,0.6,93,5,7000,7.408,,,150,,,,,,,,,,,wg-a,,,,AAXX 27214 07149 12457 71504 10060 20050 30109 40220 51006 60006 8657/ 92100=
07149,1998-11-28 00:00:00,5,1021.9,-0.2,100,5,7000,7.408,,,140,,,,,,,,,,,wg-a,,,,AAXX 28004 07149 12557 71404 10050 20050 30107 40219 57002 60006 8357/ 90000=
07149,1998-11-28 03:00:00,4,1021.2,-0.7,93,3,500,7.408,,,140,,,,,,,,,,,wg-a,,,,AAXX 28034 07149 12200 71404 10040 20030 30100 40212 56007 60006 875// 90300=
07149,1998-11-28 06:00:00,3,1020.7,-0.5,100,3,4000,7.408,,,130,3.3,8,,,,,,,,10,wg-a,,,,AAXX 28064 07149 02240 71304 10030 20030 30095 40207 55005 60006 71022 875// 90600 333 10080 20033 60004=
07149,1998-11-28 12:00:00,5,1018,-1.7,100,5,1700,14.816,,,170,,,,,,,,,,10,wg-a,,,,AAXX 28124 07149 02217 81708 10050 20050 30069 40180 58017 61000 71065 887// 91200 333 6100=
07149,1998-11-28 15:00:00,6,1015.6,-2.4,100,6,3000,14.816,,,170,,,,1,,,,,,10,wg-a,,,,AAXX 28154 07149 12130 81708 10060 20060 30045 40156 56024 60017 71052 887// 91500=
07149,1998-11-28 18:00:00,6,1013.7,-1.8,100,6,2500,14.816,,,170,2.8,6.4,,,,,,,,10,wg-a,,,,AAXX 28184 07149 02125 81708 10060 20060 30027 40137 58018 61000 71052 887// 91800 333 10064 20028 6100=
07149,1998-11-28 21:00:00,7,1013.1,-0.6,100,7,500,3.704,,,220,,,,5,,,,,,61,wg-a,,,,AAXX 28214 07149 12200 82202 10070 20070 30021 40131 56006 60057 76165 885// 92100=
07149,1998-11-29 00:00:00,8,1013,-0.1,93,7,12000,18.52,,,330,,,,4,,,,,,61,wg-a,,,,AAXX 29004 07149 02462 83310 10080 20070 30020 40130 58001 60106 76165 885// 90000 333 60047=
07149,1998-11-29 03:00:00,8,1013.2,0.2,93,7,12000,22.224,,,330,,,,0,,,,,,60,wg-a,,,,AAXX 29034 07149 12462 83312 10080 20070 30022 40132 52002 60007 76062 878// 90300=
07149,1998-11-29 06:00:00,7,1014.7,1.5,93,6,15000,22.224,,,330,6.3,7.9,,,,,,,,21,wg-a,,,,AAXX 29064 07149 02465 73312 10070 20060 30037 40147 53015 61000 72162 878// 90600 333 10079 20063 6012=
07149,1998-11-29 09:00:00,6,1016,1.2,87,4,25000,25.928,,,340,,,,,,,,,,,wg-a,,,,AAXX 29094 07149 12475 53414 10060 20040 30049 40160 53012 60006 81131 90900=
07149,1998-11-29 12:00:00,7,1016.5,0.6,81,4,25000,25.928,,,340,,,,,,,,,,,wg-a,,,,AAXX 29124 07149 12475 /3414 10070 20040 30055 40165 51006 60006 82131 91200=
07149,1998-11-29 15:00:00,8,1016.9,0.4,66,2,25000,29.632,,48.152,340,,,,,,,,,,,wg-a,,,,AAXX 29154 07149 12775 /3416 10080 20020 30059 40169 52004 60006 81101 91500 333 91026=
07149,1998-11-29 18:00:00,6,1018.6,1.6,81,3,20000,25.928,,50.004,340,6,8.3,,,,,,,,,wg-a,,,,AAXX 29184 07149 12570 /3414 10060 20030 30075 40186 51016 60006 84501 91800 333 10083 20060 91027=
07149,1998-11-29 21:00:00,6,1019.4,0.8,81,3,25000,29.632,,,340,,,,,,,,,,21,wg-a,,,,AAXX 29214 07149 02575 /3416 10060 20030 30083 40194 51008 61000 72162 86800 92100 333 ////=
07149,1998-11-30 00:00:00,7,1019.9,0.5,70,2,25000,29.632,,,340,,,,,,,,,,3,wg-a,,,,AAXX 30004 07149 02475 83416 10070 20020 30088 40199 51005 61000 70362 885// 90000 333 ////=
07149,1998-11-30 03:00:00,6,1019.9,-0,87,4,14000,22.224,,,340,,,,,,,,,,3,wg-a,,,,AAXX 30034 07149 02464 83412 10060 20040 30088 40199 54000 61000 70362 885// 90300 333 ////=
07149,1998-11-30 06:00:00,4,1021.4,1.4,93,3,10000,18.52,,,40,3.9,6.5,,,,,,,,61,wg-a,,,,AAXX 30064 07149 02360 80410 10040 20030 30102 40214 53014 61000 76162 887// 90600 333 10065 20039 6000=
07149,1998-11-30 09:00:00,3,1024,2.5,87,1,11000,22.224,,,40,,,,1,,,,,,1,wg-a,,,,AAXX 30094 07149 12461 80412 10030 20010 30127 40240 51025 60017 70162 878// 90900=
07149,1998-11-30 12:00:00,3,1025.5,1.5,87,1,6000,22.224,,,50,,,,,,,,,,51,wg-a,,,,AAXX 30124 07149 02456 80512 10030 20010 30142 40255 51015 60016 75165 875// 91200 333 61000=
07149,1998-11-30 15:00:00,2,1026.4,0.8,87,0,8000,18.52,,,50,,,,,,,,,,21,wg-a,,,,AAXX 30154 07149 02458 70510 10020 20000 30150 40264 52008 61000 72165 875// 91500 333 ////=
07149,1998-11-30 18:00:00,2,1027.7,1.3,93,1,6000,22.224,,,40,1.9,4,,,,,,,,50,wg-a,,,,AAXX 30184 07149 02456 80412 10020 20010 30163 40277 51013 61000 75065 875// 91800 333 10040 20019 6100=
07149,1998-11-30 21:00:00,2,1028.5,0.8,80,-1,6000,25.928,,,50,,,,,,,,,,20,wg-a,,,,AAXX 30214 07149 02456 80514 10020 21010 30171 40285 52008 61000 72075 875// 92100 333 ////=
07149,1998-12-01 00:00:00,1,1029.4,0.9,86,-1,6000,22.224,,,50,,,,,,,,,,1,wg-a,,,,AAXX 01004 07149 02456 80512 10010 21010 30180 40294 51009 61000 70175 875// 90000 333 ////=
07149,1998-12-01 03:00:00,1,1030.1,0.7,86,-1,7000,18.52,,,50,,,,,,,,,,,wg-a,,,,AAXX 01034 07149 12557 80510 10010 21010 30187 40301 50007 60006 875// 90300=
07149,1998-12-01 06:00:00,2,1030.5,0.4,80,-1,7000,18.52,,,40,0.9,2.4,,,,,1,,,,wg-a,,,,AAXX 01064 07149 02457 80410 10020 21010 30191 40305 53004 60006 875// 90600 333 10024 20009 60014=
07149,1998-12-01 12:00:00,2,1031.4,-0.5,80,-1,10000,25.928,,,50,,,,,,,,,,,wg-a,,,,AAXX 01124 07149 12460 80514 10020 21010 30200 40314 58005 60006 885// 91200=
07149,1998-12-01 15:00:00,2,1030.4,-1,80,-1,8000,18.52,,,50,,,,,,,,,,,wg-a,,,,AAXX 01154 07149 12458 80510 10020 21010 30190 40304 57010 60006 885// 91500=
07149,1998-12-01 18:00:00,1,1029.9,-0.5,80,-2,7000,22.224,,,40,1,2.6,,,,,,,,,wg-a,,,,AAXX 01184 07149 12457 80412 10010 21020 30185 40299 58005 60006 885// 91800 333 10026 20010=
07149,1998-12-01 21:00:00,1,1030,0,80,-2,7000,22.224,,,50,,,,,,,,,,,wg-a,,,,AAXX 01214 07149 12457 80512 10010 21020 30185 40300 50000 60006 885// 92100=
07149,1998-12-02 00:00:00,0,1029.3,-0.7,86,-2,6000,18.52,,,50,,,,,,,,,,,wg-a,,,,AAXX 02004 07149 12456 80510 10000 21020 30178 40293 58007 60006 885// 90000=
07149,1998-12-02 03:00:00,0,1028.1,-1.2,80,-3,7000,18.52,,,70,,,,,,,,,,,wg-a,,,,AAXX 02034 07149 12457 80710 10000 21030 30166 40281 57012 60006 875// 90300=
07149,1998-12-02 06:00:00,-1,1027.9,-0.2,74,-5,9000,18.52,,,70,-0.7,1,,,,,,,,,wg-a,,,,AAXX 02064 07149 02459 80710 11010 21050 30164 40279 55002 60006 885// 90600 333 10010 21007 60004=
07149,1998-12-02 09:00:00,-1,1027.8,-0.1,74,-5,6000,14.816,,,100,,,,,,,,,,,wg-a,,,,AAXX 02094 07149 12/56 /1008 11010 21050 30163 40278 56001 60006 90900=
07149,1998-12-02 12:00:00,-1,1026.9,-0.9,74,-5,6000,14.816,,,80,,,,,,,,,,20,wg-a,,,,AAXX 02124 07149 02556 /0808 11010 21050 30154 40269 58009 61000 72072 878// 91200 333 6100=
07149,1998-12-02 15:00:00,-1,1025.6,-1.3,80,-4,10000,14.816,,,70,,,,,,,,,,3,wg-a,,,,AAXX 02154 07149 02460 80708 11010 21040 30141 40256 56013 61000 70372 885// 91500 333 ////=
07149,1998-12-02 18:00:00,-1,1025.4,-0.2,80,-4,6000,11.112,,,80,-1.7,-0.6,,,,,,,,20,wg-a,,,,AAXX 02184 07149 02256 80806 11010 21040 30139 40254 56002 61000 72072 875// 91800 333 11006 21017 6100=
07149,1998-12-02 21:00:00,-2,1025,-0.4,93,-3,500,11.112,,,60,,,,,,,,,,77,wg-a,,,,AAXX 02214 07149 02200 70606 11020 21030 30135 40250 58004 61000 77772 875// 92100 333 ////=
07149,1998-12-03 00:00:00,-1,1024.3,-0.7,86,-3,6000,7.408,,,70,,,,,,,,,,1,wg-a,,,,AAXX 03004 07149 02456 70704 11010 21030 30128 40243 58007 61000 70172 875// 90000 333 6100=
07149,1998-12-03 03:00:00,-1,1023.2,-1.1,86,-3,6000,7.408,,,60,,,,,,,,,,,wg-a,,,,AAXX 03034 07149 12456 70604 11010 21030 30117 40232 57011 60006 875// 90300=
07149,1998-12-03 06:00:00,-1,1022.3,-0.8,86,-3,6000,7.408,,,90,-1.6,-0.9,,,,,,,,,wg-a,,0,,AAXX 03064 07149 02556 70904 11010 21030 30109 40223 56008 60006 875// 90600 333 11009 21016 4/9999 61000=
07149,1998-12-03 09:00:00,-1,1021.9,-0.4,86,-3,500,3.704,,,140,,,,,,,,,,,wg-a,,,,AAXX 03094 07149 12400 81402 11010 21030 30105 40219 56004 60006 885// 90900=
07149,1998-12-03 12:00:00,1,1020.4,-1.5,75,-3,6000,3.704,,,110,,,,,,,,,,,wg-a,,,,AAXX 03124 07149 12556 81102 10010 21030 30090 40204 58015 60006 885// 91200=
07149,1998-12-03 15:00:00,1,1018.4,-1.9,80,-2,7000,7.408,,,50,,,,,,,,,,,wg-a,,,,AAXX 03154 07149 12557 80504 10010 21020 30071 40184 56019 60006 885// 91500=
07149,1998-12-03 21:00:00,0,1017,-0.7,80,-3,500,11.112,,,50,,,,,,,,,,,wg-a,,,,AAXX 03214 07149 12400 70506 10000 21030 30057 40170 58007 60006 875// 92100=
07149,1998-12-04 00:00:00,0,1015.5,-1.5,80,-3,7000,3.704,,,20,,,,,,,,,,,wg-a,,,,AAXX 04004 07149 12557 70202 10000 21030 30042 40155 58015 60006 875// 90000=
07149,1998-12-04 03:00:00,-1,1013.9,-1.7,86,-3,10000,7.408,,,300,,,,,,,,,,,wg-a,,,,AAXX 04034 07149 12560 73004 11010 21030 30025 40139 56017 60006 875// 90300=
07149,1998-12-04 06:00:00,-1,1013.1,-0.7,86,-3,8000,14.816,,,290,-1.7,0.3,,,,,,,,,wg-a,,,,AAXX 04064 07149 02558 72908 11010 21030 30018 40131 56007 60006 875// 90600 333 10003 21017 60004=
07149,1998-12-04 12:00:00,1,1011.9,-0.7,93,0,500,14.816,,,290,,,,,,,,,,70,wg-a,,,,AAXX 04124 07149 02200 72908 10010 20000 30007 40119 58007 61000 77075 877// 91200 333 6100=
07149,1998-12-04 15:00:00,2,1011.9,-0,93,1,2800,11.112,,,300,,,,,,,,,,10,wg-a,,,,AAXX 04154 07149 02228 73006 10020 20010 30007 40119 55000 61000 71076 877// 91500 333 ////=
07149,1998-12-04 21:00:00,2,1014.5,1,93,1,7000,14.816,,,310,,,,,,,,,,,wg-a,,,,AAXX 04214 07149 12657 /3108 10020 20010 30033 40145 52010 60006 84500 92100=
07149,1998-12-05 00:00:00,2,1015.4,0.8,93,1,7000,11.112,,,310,,,,0,,,,,,25,wg-a,,,,AAXX 05004 07149 02457 /3106 10020 20010 30041 40154 51008 60006 72586 86800 90000 333 60007=
07149,1998-12-05 03:00:00,1,1015.3,-0.1,93,0,8000,14.816,,,290,,,,,,,,,,1,wg-a,,,,AAXX 05034 07149 02558 /2908 10010 20000 30040 40153 56001 61000 70186 84800 90300 333 ////=
07149,1998-12-05 06:00:00,0,1015.5,0.2,93,-1,8000,14.816,,,280,-0.7,2.8,,,,,,,,1,wg-a,,,,AAXX 05064 07149 02/58 02808 10000 21010 30042 40155 53002 60006 70186 80000 90600 333 10028 21007 60004=
07149,1998-12-05 09:00:00,1,1017,1.5,86,-1,18000,11.112,,,280,,,,,,,,,,,wg-a,,,,AAXX 05094 07149 12768 12806 10010 21010 30057 40170 51015 60006 81501 90900=
07149,1998-12-05 12:00:00,5,1017.5,0.6,60,-2,25000,22.224,,,310,,,,,,,,,,,wg-a,,,,AAXX 05124 07149 12575 53112 10050 21020 30063 40175 50006 60006 81131 91200=
07149,1998-12-05 15:00:00,5,1016.8,-0.7,65,-1,500,18.52,,,280,,,,,,,,,,,wg-a,,,,AAXX 05154 07149 12600 72810 10050 21010 30056 40168 56007 60006 8113/ 91500=
07149,1998-12-05 18:00:00,4,1016.5,-0.3,75,0,25000,29.632,,,270,-0.5,4.8,,,,,,,,21,wg-a,,,,AAXX 05184 07149 02675 72716 10040 20000 30053 40165 55003 61000 72162 8553/ 91800 333 10048 21005 6100=
07149,1998-12-05 21:00:00,3,1016.6,0.1,93,2,16000,18.52,,,280,,,,,,,,,,61,wg-a,,,,AAXX 05214 07149 02466 82810 10030 20020 30054 40166 53001 61000 76162 875// 92100 333 ////=
07149,1998-12-06 00:00:00,3,1018.2,1.6,93,2,10000,14.816,,,330,,,,1,,,,,,3,wg-a,,,,AAXX 06004 07149 02260 73308 10030 20020 30070 40182 53016 60016 70362 875// 90000 333 60017=
07149,1998-12-06 03:00:00,1,1020,1.7,93,0,12000,11.112,,,300,,,,,,,,,,,wg-a,,,,AAXX 06034 07149 12462 /3006 10010 20000 30087 40200 51017 60006 81100 90300=
07149,1998-12-06 06:00:00,0,1021.7,1.6,93,-1,18000,14.816,,,320,-0.3,3.5,,,,,1,,,,wg-a,,,,AAXX 06064 07149 02468 33208 10000 21010 30103 40217 53016 60006 83100 90600 333 10035 21003 60014=
07149,1998-12-06 09:00:00,0,1024,2.3,93,-1,17000,11.112,,,290,,,,,,,,,,,wg-a,,,,AAXX 06094 07149 12467 /2906 10000 21010 30126 40240 51023 60006 81100 90900=
07149,1998-12-06 12:00:00,4,1024.9,1,81,1,17000,22.224,,,340,,,,,,,,,,,wg-a,,,,AAXX 06124 07149 12467 13412 10040 20010 30136 40249 51010 60006 81101 91200=
07149,1998-12-06 15:00:00,4,1026.1,1.2,70,-1,22000,18.52,,,330,,,,,,,,,,,wg-a,,,,AAXX 06154 07149 12572 23310 10040 21010 30148 40261 53012 60006 82101 91500=
07149,1998-12-06 18:00:00,1,1027.6,1.4,80,-2,10000,11.112,,,300,-1.5,4.9,,,,,,,,,wg-a,,,,AAXX 06184 07149 12/60 /3006 10010 21020 30162 40276 52014 60006 91800 333 10049 21015=
07149,1998-12-06 21:00:00,-1,1028.4,0.7,93,-2,20000,14.816,,,260,,,,,,,,,,,wg-a,,,,AAXX 06214 07149 12/70 02608 11010 21020 30169 40284 51007 60006 80000 92100=
07149,1998-12-07 00:00:00,-2,1029,0.6,100,-2,20000,11.112,,,260,,,,,,,,,,,wg-a,,,,AAXX 07004 07149 12/70 02606 11020 21020 30175 40290 51006 60006 80000 90000=
07149,1998-12-07 03:00:00,-2,1029.7,0.6,93,-3,15000,7.408,,,260,,,,,,,,,,,wg-a,,,,AAXX 07034 07149 12/65 32604 11020 21030 30181 40297 52006 60006 83030 90300=
07149,1998-12-07 06:00:00,-2,1030.1,0.4,93,-3,15000,11.112,,,260,-2,1,,,,,,,,,wg-a,,,,AAXX 07064 07149 02665 52606 11020 21030 30185 40301 53004 60006 84530 90600 333 10010 21020 60004=
07149,1998-12-07 09:00:00,0,1030.7,0.7,86,-2,20000,11.112,,,240,,,,,,,,,,,wg-a,,,,AAXX 07094 07149 12570 72406 10000 21020 30192 40307 52007 60006 875// 90900=
07149,1998-12-07 12:00:00,2,1030.8,0.2,80,-1,13000,11.112,,,240,,,,,,,,,,60,wg-a,,,,AAXX 07124 07149 02463 82406 10020 21010 30194 40308 50002 61000 76076 875// 91200 333 6100=
07149,1998-12-07 15:00:00,1,1031.2,0.4,100,1,4000,7.408,,,240,,,,,,,,,,60,wg-a,,,,AAXX 07154 07149 02440 82404 10010 20010 30198 40312 51004 61000 76066 875// 91500 333 ////=
07149,1998-12-07 18:00:00,1,1031.9,0.7,100,1,6000,7.408,,,220,-2,1.5,,,,,,,,10,wg-a,,,,AAXX 07184 07149 02356 82204 10010 20010 30205 40319 51007 61000 71065 877// 91800 333 10015 21020 6100=
07149,1998-12-07 21:00:00,2,1032.2,0.3,93,1,500,7.408,,,210,,,,,,,,,,1,wg-a,,,,AAXX 07214 07149 02400 82104 10020 20010 30208 40322 50003 61000 70165 875// 92100 333 ////=
07149,1998-12-08 00:00:00,2,1032.2,0,93,1,3500,7.408,,,200,,,,,,,,,,10,wg-a,,,,AAXX 08004 07149 02335 82004 10020 20010 30208 40322 50000 61000 71065 875// 90000 333 6100=
07149,1998-12-08 03:00:00,1,1031.5,-0.7,100,1,3500,7.408,,,210,,,,,,,,,,10,wg-a,,,,AAXX 08034 07149 02535 82104 10010 20010 30201 40315 58007 61000 71065 875// 90300 333 ////=
07149,1998-12-08 06:00:00,1,1031.2,-0.3,100,1,4000,7.408,,,160,1.3,1.8,,,,,,,,10,wg-a,,,,AAXX 08064 07149 02440 71604 10010 20010 30198 40312 58003 60006 71065 875// 90600 333 10018 20013 61000=
07149,1998-12-08 09:00:00,2,1031.2,-0,100,2,1500,14.816,,,190,,,,,,,,,,10,wg-a,,,,AAXX 08094 07149 02115 81908 10020 20020 30198 40312 54000 61000 71052 887// 90900 333 ////=
07149,1998-12-08 12:00:00,2,1030,-1.2,100,2,1800,18.52,,,200,,,,,,,,,,10,wg-a,,,,AAXX 08124 07149 02118 82010 10020 20020 30186 40300 58012 61000 71052 887// 91200 333 6100=
07149,1998-12-08 18:00:00,3,1029,-0.3,100,3,3500,14.816,,,190,1.3,2.9,,,,,,,,10,wg-a,,,,AAXX 08184 07149 02235 81908 10030 20030 30177 40290 57003 61000 71065 887// 91800 333 10029 20013 6000=
07149,1998-12-08 21:00:00,3,1028.4,-0.6,100,3,6000,14.816,,,190,,,,,,,,,,61,wg-a,,,,AAXX 08214 07149 02256 81908 10030 20030 30171 40284 56006 61000 76165 8652/ 92100 333 ////=
07149,1998-12-09 00:00:00,4,1026.9,-1.5,93,3,6000,14.816,,,190,,,,,,,,,,60,wg-a,,,,AAXX 09004 07149 02656 81908 10040 20030 30156 40269 58015 61000 76065 875// 90000 333 6100=
07149,1998-12-09 03:00:00,4,1025.6,-1.3,100,4,500,11.112,,,180,,,,0,,,,,,61,wg-a,,,,AAXX 09034 07149 12500 81806 10040 20040 30143 40256 56013 60007 76166 8451/ 90300=
07149,1998-12-09 06:00:00,4,1024.4,-1.1,100,4,500,18.52,,,190,2.9,4,,,,,,,,61,wg-a,,,,AAXX 09064 07149 02600 81910 10040 20040 30132 40244 56011 61000 76166 8252/ 90600 333 10040 20029 6002=
07149,1998-12-09 09:00:00,4,1023.9,-0.5,93,3,6000,18.52,,,170,,,,1,,,,,,1,wg-a,,,,AAXX 09094 07149 12256 81710 10040 20030 30127 40239 56005 60017 70162 8262/ 90900=
07149,1998-12-09 12:00:00,5,1022.9,-1,93,4,7000,14.816,,,190,,,,0,,,,,,60,wg-a,,,,AAXX 09124 07149 02457 81908 10050 20040 30117 40229 58010 60016 76062 8552/ 91200 333 60007=
07149,1998-12-09 15:00:00,6,1022.6,-0.3,93,5,6000,14.816,,,200,,,,,,,,,,3,wg-a,,,,AAXX 09154 07149 02256 82008 10060 20050 30114 40226 55003 61000 70362 876// 91500 333 ////=
07149,1998-12-09 18:00:00,6,1023.1,0.6,100,6,3000,11.112,,,220,3.9,6.4,,,,,,,,10,wg-a,,,,AAXX 09184 07149 12130 82206 10060 20060 30120 40231 52006 60006 71062 886// 91800 333 10064 20039=
07149,1998-12-09 21:00:00,6,1023.9,0.7,100,6,1300,18.52,,,230,,,,,,,,,,10,wg-a,,,,AAXX 09214 07149 12013 82310 10060 20060 30127 40239 53007 60006 71042 886// 92100=
07149,1998-12-10 00:00:00,6,1023.5,-0.4,100,6,600,14.816,,,220,,,,,,,,,,45,wg-a,,,,AAXX 10004 07149 12/06 92208 10060 20060 30123 40235 55004 60006 74542 89/// 90000=
07149,1998-12-10 03:00:00,6,1023,-0.5,100,6,1100,11.112,,,220,,,,,,,,,,40,wg-a,,,,AAXX 10034 07149 12111 82206 10060 20060 30118 40230 56005 60006 74042 886// 90300=
07149,1998-12-10 06:00:00,6,1022.4,-0.5,100,6,600,7.408,,,210,5.8,6.4,,,,,1,,,45,wg-a,,,,AAXX 10064 07149 02/06 92104 10060 20060 30113 40224 56005 60006 74542 89/// 90600 333 10064 20058 60014=
07149,1998-12-10 09:00:00,6,1022.4,0,100,6,700,11.112,,,200,,,,,,,,,,45,wg-a,,,,AAXX 10094 07149 12/07 92006 10060 20060 30113 40224 50000 60006 74542 89/// 90900=
07149,1998-12-10 12:00:00,7,1020.8,-1.6,100,7,4500,11.112,,,190,,,,,,,,,,10,wg-a,,,,AAXX 10124 07149 12145 81906 10070 20070 30097 40208 58016 60006 71042 886// 91200=
07149,1998-12-10 15:00:00,8,1018.2,-2.5,93,7,7000,14.816,,,210,,,,,,,,,,,wg-a,,,,AAXX 10154 07149 12257 82108 10080 20070 30072 40182 56025 60006 886// 91500=
07149,1998-12-10 18:00:00,7,1016.4,-1.8,100,7,7000,11.112,,,170,5.9,8,,,,,,,,60,wg-a,,,,AAXX 10184 07149 02257 81706 10070 20070 30054 40164 58018 61000 76062 877// 91800 333 10080 20059 6100=
07149,1998-12-10 21:00:00,8,1014.6,-1.8,100,8,6000,11.112,,,180,,,,3,,,,,,60,wg-a,,,,AAXX 10214 07149 12156 81806 10080 20080 30036 40146 56018 60037 76066 877// 92100=
07149,1998-12-11 00:00:00,9,1014.2,-0.3,100,9,15000,14.816,,,300,,,,1,,,,,,21,wg-a,,,,AAXX 11004 07149 02465 /3008 10090 20090 30033 40142 55003 60046 72165 85500 90000 333 60017=
07149,1998-12-11 03:00:00,8,1016,1.7,93,7,15000,22.224,,,300,,,,,,,,,,,wg-a,,,,AAXX 11034 07149 12465 /3012 10080 20070 30050 40160 53017 60006 86100 90300=
07149,1998-12-11 06:00:00,8,1017.7,1.7,93,7,12000,18.52,,,290,7.2,9.6,,,,,4,,,,wg-a,,,,AAXX 11064 07149 02462 62910 10080 20070 30067 40177 53017 60006 86800 90600 333 10096 20072 60044=
07149,1998-12-11 09:00:00,8,1020,2.3,100,8,16000,11.112,,,260,,,,,,,,,,,wg-a,,,,AAXX 11094 07149 12466 72606 10080 20080 30090 40200 51023 60006 878// 90900=
07149,1998-12-11 12:00:00,9,1020.9,0.9,93,8,17000,14.816,,,250,,,,,,,,,,,wg-a,,,,AAXX 11124 07149 12467 72508 10090 20080 30099 40209 51009 60006 878// 91200=
07149,1998-12-11 15:00:00,9,1021.3,0.4,87,7,18000,18.52,,,250,,,,,,,,,,,wg-a,,,,AAXX 11154 07149 12468 72510 10090 20070 30103 40213 53004 60006 85802 91500=
07149,1998-12-11 18:00:00,8,1022.4,1,93,7,14000,14.816,,,210,7.7,10.2,,,,,,,,,wg-a,,,,AAXX 11184 07149 12464 72108 10080 20070 30113 40224 53010 60006 85532 91800 333 10102 20077=
07149,1998-12-11 21:00:00,8,1022.7,0.3,93,7,12000,14.816,,,200,,,,,,,,,,,wg-a,,,,AAXX 11214 07149 12262 72008 10080 20070 30116 40227 51003 60006 8563/ 92100=
07149,1998-12-12 00:00:00,8,1022.1,-0.5,100,8,7000,18.52,,,220,,,,0,,,,,,60,wg-a,,,,AAXX 12004 07149 02257 82210 10080 20080 30111 40221 58005 60006 76062 877// 90000 333 60007=
07149,1998-12-12 03:00:00,9,1021.1,-1,93,8,12000,25.928,,,200,,,,0,,,,,,20,wg-a,,,,AAXX 12034 07149 12262 82014 10090 20080 30101 40211 58010 60007 72065 877// 90300=
07149,1998-12-12 06:00:00,9,1020.4,-0.7,100,9,2000,14.816,,,200,7.4,8.8,,,,,,,,61,wg-a,,,,AAXX 12064 07149 02120 82008 10090 20090 30094 40204 56007 61000 76165 877// 90600 333 10088 20074 6002=
07149,1998-12-12 09:00:00,10,1020.7,0.3,100,10,1800,18.52,,,230,,,,2,,,,,,10,wg-a,,,,AAXX 12094 07149 12118 82310 10100 20100 30097 40207 53003 60027 71066 877// 90900=
07149,1998-12-12 12:00:00,12,1020.5,-0.1,100,12,6000,14.816,,,220,,,,,,,,,,1,wg-a,,,,AAXX 12124 07149 02156 82208 10120 20120 30096 40205 58001 60026 70165 877// 91200 333 61000=
07149,1998-12-12 15:00:00,15,1020.6,0.2,88,13,18000,22.224,,,240,,,,,,,,,,,wg-a,,,,AAXX 12154 07149 12468 72412 10150 20130 30098 40206 53002 60006 85531 91500=
07149,1998-12-12 18:00:00,14,1020.7,0.1,94,13,18000,31.484,,,220,8.8,15.2,,,,,,,,,wg-a,,,,AAXX 12184 07149 12468 72217 10140 20130 30099 40207 50001 60006 85531 91800 333 10152 20088=
07149,1998-12-12 21:00:00,14,1020.7,-0,94,13,7000,38.892,,57.412,230,,,,,,,,,,60,wg-a,,,,AAXX 12214 07149 02257 82321 10140 20130 30099 40207 55000 61000 76062 875// 92100 333 //// 91031=
07149,1998-12-13 00:00:00,14,1022.6,1.9,88,12,20000,31.484,,,250,,,,,,,,,,1,wg-a,,,,AAXX 13004 07149 02470 72517 10140 20120 30118 40226 53019 61000 70162 875// 90000 333 6100=
07149,1998-12-13 03:00:00,11,1026.1,3.3,82,8,20000,14.816,,,250,,,,,,,,,,,wg-a,,,,AAXX 13034 07149 12570 32508 10110 20080 30151 40261 51033 60006 83500 90300=
07149,1998-12-13 06:00:00,9,1030.3,4.1,87,7,20000,18.52,,,260,9.2,14.2,,,,,2,,,,wg-a,,,,AAXX 13064 07149 02570 42610 10090 20070 30192 40303 53041 60006 84500 90600 333 10142 20092 60024=
07149,1998-12-13 09:00:00,9,1032.8,2.5,87,7,20000,22.224,,,270,,,,,,,,,,,wg-a,,,,AAXX 13094 07149 12470 /2712 10090 20070 30217 40328 53025 60006 82131 90900=
07149,1998-12-13 12:00:00,11,1034,1.2,82,8,25000,22.224,,,270,,,,,,,,,,,wg-a,,,,AAXX 13124 07149 12475 72712 10110 20080 30229 40340 50012 60006 82101 91200=
07149,1998-12-13 15:00:00,10,1034.1,0.1,82,7,25000,11.112,,,230,,,,,,,,,,,wg-a,,,,AAXX 13154 07149 12575 72306 10100 20070 30230 40341 50001 60006 81132 91500=
07149,1998-12-13 18:00:00,8,1034.8,0.6,93,7,25000,14.816,,,230,8.3,11.4,,,,,,,,,wg-a,,,,AAXX 13184 07149 12/75 52308 10080 20070 30236 40348 51006 60006 82031 91800 333 10114 20083=
07149,1998-12-13 21:00:00,8,1034.3,-0.5,93,7,22000,18.52,,,210,,,,,,,,,,,wg-a,,,,AAXX 13214 07149 12/72 62110 10080 20070 30231 40343 58005 60006 84031 92100=
07149,1998-12-14 00:00:00,7,1033.6,-0.7,100,7,10000,29.632,,,240,,,,,,,,,,,wg-a,,,,AAXX 14004 07149 12260 72416 10070 20070 30224 40336 58007 60006 876// 90000=
07149,1998-12-14 06:00:00,9,1032.2,-0.4,93,8,7000,22.224,,,220,6.5,9.1,,,,,,,,,wg-a,,,,AAXX 14064 07149 02257 72212 10090 20080 30211 40322 55004 60006 876// 90600 333 10091 20065 60004=
07149,1998-12-14 09:00:00,9,1033.1,0.9,100,9,500,14.816,,,210,,,,,,,,,,,wg-a,,,,AAXX 14094 07149 12200 82108 10090 20090 30220 40331 53009 60006 886// 90900=
07149,1998-12-14 12:00:00,11,1032.5,-0.6,94,10,7000,18.52,,,220,,,,,,,,,,,wg-a,,,,AAXX 14124 07149 12257 82210 10110 20100 30214 40325 58006 60006 876// 91200=
07149,1998-12-14 15:00:00,11,1031.5,-0.9,94,10,10000,18.52,,,210,,,,,,,,,,,wg-a,,,,AAXX 14154 07149 12260 82110 10110 20100 30205 40315 56009 60006 886// 91500=
07149,1998-12-14 18:00:00,11,1031.8,0.3,94,10,9000,22.224,,,230,8.6,11.7,,,,,,,,,wg-a,,,,AAXX 14184 07149 12259 82312 10110 20100 30208 40318 53003 60006 886// 91800 333 10117 20086=
07149,1998-12-15 00:00:00,9,1031.4,-0.4,100,9,7000,12.964,,,210,,,,,,,,,,0,wg-a,,,,AAXX 15004 07149 12557 82107 10090 20090 30209 40314 57004 60006 700// 886// 90000=
07149,1998-12-15 06:00:00,8,1030.1,-0.3,100,8,1800,14.816,,,230,7.9,10.8,,,,,,,,10,wg-a,,,,AAXX 15064 07149 02118 82308 10080 20080 30190 40301 55003 60006 71022 886// 90600 333 10108 20079 60004=
07149,1998-12-15 09:00:00,8,1030.7,0.5,100,8,1700,14.816,,,240,,,,,,,,,,10,wg-a,,,,AAXX 15094 07149 12117 82408 10080 20080 30195 40307 53005 60006 71022 886// 90900=
07149,1998-12-15 12:00:00,9,1029.5,-1.1,93,8,3000,18.52,,,220,,,,,,,,,,10,wg-a,,,,AAXX 15124 07149 12130 82210 10090 20080 30184 40295 58011 60006 71022 886// 91200=
07149,1998-12-15 15:00:00,9,1028.2,-1.3,100,9,2800,14.816,,,240,,,,,,,,,,10,wg-a,,,,AAXX 15154 07149 12128 82408 10090 20090 30171 40282 56013 60006 71022 886// 91500=
07149,1998-12-15 18:00:00,10,1028.9,0.7,93,9,7000,11.112,,,230,7.6,9.7,,,,,,,,,wg-a,,,,AAXX 15184 07149 12357 72306 10100 20090 30178 40289 52007 60006 875// 91800 333 10097 20076=
07149,1998-12-15 21:00:00,10,1030.3,1.4,93,9,6000,18.52,,,250,,,,,,,,,,,wg-a,,,,AAXX 15214 07149 12256 72510 10100 20090 30192 40303 53014 60006 875// 92100=
07149,1998-12-16 00:00:00,9,1031.6,1.3,100,9,6000,11.112,,,270,,,,,,,,,,,wg-a,,,,AAXX 16004 07149 12456 82706 10090 20090 30205 40316 53013 60006 875// 90000=
07149,1998-12-16 03:00:00,8,1033.2,1.5,100,8,500,7.408,,,270,,,,,,,,,,,wg-a,,,,AAXX 16034 07149 12400 /2704 10080 20080 30220 40332 53015 60006 84500 90300=
07149,1998-12-16 06:00:00,7,1034.6,1.4,100,7,10000,7.408,,,20,7,10,,,,,,,,11,wg-a,,,,AAXX 16064 07149 02460 30204 10070 20070 30234 40346 51014 60006 71141 83500 90600 333 10100 20070 60004=
07149,1998-12-16 09:00:00,4,1035.5,0.7,100,4,100,7.408,,,180,,,,,,,,,,44,wg-a,,,,AAXX 16094 07149 12001 /1804 10040 20040 30241 40355 51007 60006 74441 82601 90900=
07149,1998-12-16 12:00:00,7,1034.9,-0.4,100,7,200,0,,,0,,,,,,,,,,42,wg-a,,,,AAXX 16124 07149 12002 90000 10070 20070 30237 40349 58004 60006 74241 8960/ 91200=
07149,1998-12-16 15:00:00,7,1034,-0.9,100,7,900,11.112,,,200,,,,,,,,,,41,wg-a,,,,AAXX 16154 07149 12009 82006 10070 20070 30228 40340 57009 60006 74144 886// 91500=
07149,1998-12-16 18:00:00,7,1034,-0,100,7,500,7.408,,,160,4.2,7.1,,,,,,,,1,wg-a,,,,AAXX 16184 07149 12200 81604 10070 20070 30228 40340 55000 60006 70142 886// 91800 333 10071 20042=
07149,1998-12-16 21:00:00,6,1033.6,-0.4,100,6,500,14.816,,,130,,,,,,,,,,,wg-a,,,,AAXX 16214 07149 12200 81308 10060 20060 30224 40336 58004 60006 886// 92100=
07149,1998-12-17 03:00:00,5,1030.1,-1.8,93,4,4500,11.112,,,150,,,,,,,,,,10,wg-a,,,,AAXX 17034 07149 12245 71506 10050 20040 30188 40301 56018 60006 71022 876// 90300=
07149,1998-12-17 06:00:00,4,1028.9,-1.2,100,4,3000,11.112,,,90,3.7,6.9,,,,,,,,10,wg-a,,,,AAXX 17064 07149 02130 70906 10040 20040 30176 40289 56012 60006 71022 876// 90600 333 10069 20037 60004=
07149,1998-12-17 12:00:00,6,1026,-2,87,4,8000,11.112,,,140,,,,,,,,,,,wg-a,,,,AAXX 17124 07149 12358 31406 10060 20040 30148 40260 58020 60006 81601 91200=
07149,1998-12-17 18:00:00,4,1024.6,0,100,4,2200,14.816,,,200,2.9,7.5,,,,,,,,10,wg-a,,,,AAXX 17184 07149 12122 82008 10040 20040 30133 40246 50000 60006 71011 886// 91800 333 10075 20029=
07149,1998-12-17 21:00:00,5,1024.4,-0.1,100,5,3500,22.224,,,230,,,,,,,,,,10,wg-a,,,,AAXX 17214 07149 12135 82312 10050 20050 30132 40244 56001 60006 71022 886// 92100=
07149,1998-12-18 00:00:00,5,1024.1,-0.3,100,5,4000,18.52,,,240,,,,,,,,,,10,wg-a,,,,AAXX 18004 07149 12140 82410 10050 20050 30129 40241 56003 60006 71022 886// 90000=
07149,1998-12-18 03:00:00,5,1024.1,0,93,4,500,18.52,,,210,,,,,,,,,,,wg-a,,,,AAXX 18034 07149 12200 72110 10050 20040 30129 40241 50000 60006 875// 90300=
07149,1998-12-18 06:00:00,6,1023.5,-0.6,93,5,6000,14.816,,,190,3.7,5.7,,,,,,,,,wg-a,,,,AAXX 18064 07149 02356 71908 10060 20050 30123 40235 58006 60006 876// 90600 333 10057 20037 60004=
07149,1998-12-18 09:00:00,7,1023.2,-0.2,100,7,6000,18.52,,,210,,,,,,,,,,20,wg-a,,,,AAXX 18094 07149 02356 82110 10070 20070 30121 40232 57002 61000 72052 877// 90900 333 ////=
07149,1998-12-18 12:00:00,8,1021.5,-1.7,100,8,2000,18.52,,,210,,,,1,,,,,,10,wg-a,,,,AAXX 18124 07149 02120 82110 10080 20080 30104 40215 58017 60016 71065 887// 91200 333 60017=
07149,1998-12-18 15:00:00,9,1019.5,-1.9,100,9,2000,25.928,,,220,,,,2,,,,,,10,wg-a,,,,AAXX 18154 07149 12120 82214 10090 20090 30085 40195 58019 60027 71065 887// 91500=
07149,1998-12-18 18:00:00,9,1018.2,-1.3,100,9,500,25.928,,,220,5.7,8.9,,,,,,,,1,wg-a,,,,AAXX 18184 07149 02200 82214 10090 20090 30072 40182 58013 60006 70165 886// 91800 333 10089 20057 61000=
07149,1998-12-18 21:00:00,9,1016.7,-1.4,93,8,8000,31.484,,,220,,,,,,,,,,,wg-a,,,,AAXX 18214 07149 12358 72217 10090 20080 30058 40167 58014 60006 875// 92100=
07149,1998-12-19 00:00:00,9,1014.6,-2.1,93,8,15000,31.484,,,230,,,,,,,,,,25,wg-a,,,,AAXX 19004 07149 02465 72317 10090 20080 30037 40146 58021 61000 72586 87800 90000 333 6100=
07149,1998-12-19 03:00:00,8,1013.7,-1,87,6,20000,31.484,,,230,,,,,,,,,,,wg-a,,,,AAXX 19034 07149 12570 42317 10080 20060 30027 40137 58010 60006 84800 90300=
07149,1998-12-19 06:00:00,8,1015.8,2.1,87,6,12000,31.484,,,290,7.9,9.5,,,,,,,,80,wg-a,,,,AAXX 19064 07149 02462 82917 10080 20060 30048 40158 53021 61000 78086 878// 90600 333 10095 20079 6003=
07149,1998-12-19 09:00:00,7,1019.2,3.3,81,4,25000,25.928,,,290,,,,0,,,,,,1,wg-a,,,,AAXX 19094 07149 12575 22914 10070 20040 30081 40192 51033 60007 70186 82200 90900=
07149,1998-12-19 12:00:00,9,1019.8,0.7,66,3,500,31.484,,,280,,,,,,,,,,3,wg-a,,,,AAXX 19124 07149 12500 42817 10090 20030 30088 40198 50007 60006 70386 83801 91200=
07149,1998-12-19 15:00:00,9,1018.9,-0.9,61,2,500,22.224,,,270,,,,,,,,,,,wg-a,,,,AAXX 19154 07149 12600 72712 10090 20020 30079 40189 56009 60006 85804 91500=
07149,1998-12-19 18:00:00,7,1018.2,-0.8,87,5,500,22.224,,,260,6.8,9.3,,,,,,,,80,wg-a,,,,AAXX 19184 07149 02400 /2612 10070 20050 30071 40182 56008 61000 78086 85831 91800 333 10093 20068 6000=
07149,1998-12-19 21:00:00,6,1015.9,-2.3,93,5,25000,18.52,,,240,,,,0,,,,,,3,wg-a,,,,AAXX 19214 07149 12775 82410 10060 20050 30048 40159 58023 60007 70386 8457/ 92100=
07149,1998-12-20 00:00:00,5,1013,-2.9,87,3,16000,14.816,,,230,,,,,,,,,,61,wg-a,,,,AAXX 20004 07149 02566 82308 10050 20030 30019 40130 58029 60006 76186 8657/ 90000 333 61000=
07149,1998-12-20 03:00:00,5,1009,-4,93,4,6000,11.112,,,140,,,,0,,,,,,61,wg-a,,,,AAXX 20034 07149 12256 81406 10050 20040 39979 40090 56040 60007 76166 8777/ 90300=
07149,1998-12-20 06:00:00,4,1004.9,-4,100,4,8000,14.816,,,90,4.4,6.8,,,,,,,,61,wg-a,,,,AAXX 20064 07149 02258 80908 10040 20040 39939 40049 56040 61000 76166 877// 90600 333 10068 20044 6003=
07149,1998-12-20 09:00:00,4,1005.9,1,100,4,12000,22.224,,,70,,,,2,,,,,,61,wg-a,,,,AAXX 20094 07149 12362 80712 10040 20040 39949 40059 53010 60027 76166 875// 90900=
07149,1998-12-20 12:00:00,4,1008.3,2.3,100,4,13000,25.928,,,50,,,,1,,,,,,60,wg-a,,,,AAXX 20124 07149 02263 80514 10040 20040 39972 40083 51023 60026 76066 872// 91200 333 60017=
07149,1998-12-20 15:00:00,5,1010.5,2.2,87,3,25000,25.928,,,30,,,,,,,,,,2,wg-a,,,,AAXX 20154 07149 02475 /0314 10050 20030 39994 40105 53022 61000 70262 84202 91500 333 ////=
07149,1998-12-20 18:00:00,4,1014.6,4,70,-1,25000,25.928,,,20,3.6,5,,,,,,,,1,wg-a,,,,AAXX 20184 07149 12/75 00214 10040 21010 30034 40146 51040 60006 70161 80000 91800 333 10050 20036=
07149,1998-12-20 21:00:00,3,1017.5,2.9,81,0,25000,22.224,,,360,,,,,,,,,,,wg-a,,,,AAXX 20214 07149 12/75 03612 10030 20000 30063 40175 53029 60006 80000 92100=
07149,1998-12-21 00:00:00,1,1019.4,1.8,93,0,20000,11.112,,,360,,,,,,,,,,,wg-a,,,,AAXX 21004 07149 12470 /3606 10010 20000 30081 40194 51018 60006 81500 90000=
07149,1998-12-21 06:00:00,1,1022.7,1.3,93,0,20000,14.816,,,320,1,3.7,,,,,2,,,,wg-a,,,,AAXX 21064 07149 02/70 /3208 10010 20000 30113 40227 53013 60006 80000 90600 333 10037 20010 60024=
07149,1998-12-21 09:00:00,2,1024.6,2,87,0,18000,14.816,,,330,,,,,,,,,,,wg-a,,,,AAXX 21094 07149 12/68 13308 10020 20000 30133 40246 53020 60006 80001 90900=
07149,1998-12-21 12:00:00,4,1025.5,0.9,56,-4,23000,18.52,,,330,,,,,,,,,,,wg-a,,,,AAXX 21124 07149 12/73 23310 10040 21040 30142 40255 51009 60006 81031 91200=
07149,1998-12-21 15:00:00,4,1026.4,0.9,56,-4,28000,18.52,,,330,,,,,,,,,,,wg-a,,,,AAXX 21154 07149 12678 33310 10040 21040 30151 40264 53009 60006 81131 91500=
07149,1998-12-21 18:00:00,0,1027.4,0.9,86,-2,11000,7.408,,,270,0.4,4.7,,,,,,,,,wg-a,,,,AAXX 21184 07149 12/61 /2704 10000 21020 30160 40274 51009 60006 91800 333 10047 20004=
07149,1998-12-21 21:00:00,1,1028.1,0.7,86,-1,22000,11.112,,,250,,,,,,,,,,,wg-a,,,,AAXX 21214 07149 12/72 52506 10010 21010 30167 40281 52007 60006 85030 92100=
07149,1998-12-22 00:00:00,0,1028,-0.2,86,-2,22000,14.816,,,210,,,,,,,,,,,wg-a,,,,AAXX 22004 07149 12/72 12108 10000 21020 30165 40280 58002 60006 81030 90000=
07149,1998-12-22 03:00:00,-1,1027.6,-0.4,100,-1,20000,11.112,,,200,,,,,,,,,,,wg-a,,,,AAXX 22034 07149 12/70 42006 11010 21010 30161 40276 58004 60006 84031 90300=
07149,1998-12-22 06:00:00,0,1027.4,-0.2,93,-1,20000,14.816,,,210,-0.7,0.9,,,,,,,,,wg-a,,,,AAXX 22064 07149 02670 /2108 10000 21010 30159 40274 57002 60006 82531 90600 333 10009 21007 60004=
07149,1998-12-22 09:00:00,1,1028.5,1.2,86,-1,7000,14.816,,,220,,,,,,,,,,,wg-a,,,,AAXX 22094 07149 12657 72208 10010 21010 30171 40285 51012 60006 8653/ 90900=
07149,1998-12-22 12:00:00,4,1027.8,-0.6,75,0,15000,18.52,,,240,,,,,,,,,,,wg-a,,,,AAXX 22124 07149 12665 62410 10040 20000 30165 40278 58006 60006 85501 91200=
07149,1998-12-22 15:00:00,4,1027.5,-0.3,75,0,15000,14.816,,,220,,,,,,,,,,,wg-a,,,,AAXX 22154 07149 12565 72208 10040 20000 30162 40275 55003 60006 875// 91500=
07149,1998-12-22 18:00:00,3,1027.9,0.3,81,0,11000,14.816,,,220,-0.3,4.8,,,,,,,,,wg-a,,,,AAXX 22184 07149 12561 /2208 10030 20000 30165 40279 53003 60006 86500 91800 333 10048 21003=
07149,1998-12-22 21:00:00,1,1027.6,-0.3,86,-1,11000,11.112,,,210,,,,,,,,,,,wg-a,,,,AAXX 22214 07149 12761 62106 10010 21010 30162 40276 55003 60006 86500 92100=
07149,1998-12-23 00:00:00,0,1027.1,-0.5,93,-1,15000,11.112,,,200,,,,,,,,,,,wg-a,,,,AAXX 23004 07149 12765 62006 10000 21010 30157 40271 58005 60006 86500 90000=
07149,1998-12-23 03:00:00,-1,1026.3,-0.9,93,-2,7000,3.704,,,160,,,,,,,,,,,wg-a,,,,AAXX 23034 07149 12/57 01602 11010 21020 30148 40263 56009 60006 80000 90300=
07149,1998-12-23 06:00:00,-2,1024.9,-1.4,100,-2,900,7.408,,,170,-1.6,2.5,,,,,,,,41,wg-a,,,,AAXX 23064 07149 02109 81704 11020 21020 30134 40249 56014 60006 74141 886// 90600 333 10025 21016 60004=
07149,1998-12-23 09:00:00,-2,1024.7,,100,-2,500,5.556,,,150,,,,,,,,,,48,wg-a,,,,AAXX 23094 07149 32105 /1503 11020 21020 30132 40247 74842 86600 90900=
07149,1998-12-23 12:00:00,3,1021.9,-2.6,75,-1,9000,11.112,,,180,,,,,,,,,,1,wg-a,,,,AAXX 23124 07149 12/59 /1806 10030 21010 30106 40219 58026 60006 70142 82031 91200=
07149,1998-12-23 15:00:00,3,1019.4,-2.4,75,-1,17000,7.408,,,120,,,,,,,,,,,wg-a,,,,AAXX 23154 07149 12/67 71204 10030 21010 30082 40194 56024 60006 80005 91500=
07149,1998-12-23 18:00:00,1,1018.9,-0.6,86,-1,10000,14.816,,,200,-2.1,3.3,,,,,,,,,wg-a,,,,AAXX 23184 07149 12/60 72008 10010 21010 30076 40189 57006 60006 80002 91800 333 10033 21021=
07149,1998-12-23 21:00:00,1,1018.7,-0.2,86,-1,8000,14.816,,,220,,,,,,,,,,0,wg-a,,,,AAXX 23214 07149 32658 72208 10010 21010 30074 40187 55002 700// 84532 92100=
07149,1998-12-24 00:00:00,2,1018.4,-0.3,93,1,7000,14.816,,,240,,,,,,,,,,0,wg-a,,,,AAXX 24004 07149 32357 72408 10020 20010 30071 40184 58003 700// 875// 90000=
07149,1998-12-24 03:00:00,2,1019.3,0.9,100,2,500,14.816,,,250,,,,1,,,,,,61,wg-a,,,,AAXX 24034 07149 12200 82508 10020 20020 30080 40193 53009 60017 76162 877// 90300=
07149,1998-12-24 06:00:00,3,1020.8,1.5,93,2,4000,14.816,,,270,0.4,2.5,,,,,1,,,10,wg-a,,,,AAXX 24064 07149 02240 82708 10030 20020 30095 40208 53015 60014 71062 8652/ 90600 333 10025 20004 61000=
07149,1998-12-24 12:00:00,6,1024.6,1.2,81,3,18000,14.816,,,280,,,,,,,,,,0,wg-a,,,,AAXX 24124 07149 32668 42808 10060 20030 30134 40246 51012 700// 84200 91200=
07149,1998-12-24 15:00:00,7,1025.4,0.8,76,3,22000,14.816,,,270,,,,,,,,,,0,wg-a,,,,AAXX 24154 07149 32572 42708 10070 20030 30142 40254 53008 700// 82204 91500=
07149,1998-12-24 18:00:00,4,1027.2,1.7,93,3,22000,14.816,,,220,1.2,7.3,,,,,,,,0,wg-a,,,,AAXX 24184 07149 32/72 52208 10040 20030 30159 40272 51017 700// 80004 91800 333 10073 20012=
07149,1998-12-24 21:00:00,4,1027.5,0.3,93,3,8000,22.224,,,210,,,,,,,,,,0,wg-a,,,,AAXX 24214 07149 32258 72112 10040 20030 30162 40275 53003 700// 8452/ 92100=
07149,1998-12-25 00:00:00,3,1026.7,-0.8,100,3,8000,18.52,,,200,,,,,,,,,,60,wg-a,,,,AAXX 25004 07149 02258 82010 10030 20030 30154 40267 58008 61000 76062 875// 90000 333 ////=
07149,1998-12-25 03:00:00,4,1026.1,-0.6,100,4,3500,25.928,,,210,,,,1,,,,,,51,wg-a,,,,AAXX 25034 07149 12135 82114 10040 20040 30148 40261 56006 60017 75165 887// 90300=
07149,1998-12-25 06:00:00,5,1025.7,-0.3,100,5,3000,29.632,,,220,3.4,5,,1,,,2,,,51,wg-a,,,,AAXX 25064 07149 02130 82216 10050 20050 30145 40257 55003 60024 75165 887// 90600 333 10050 20034 60017=
07149,1998-12-25 09:00:00,6,1026.8,1.1,100,6,6000,22.224,,,210,,,,,,,,,,2,wg-a,,,,AAXX 25094 07149 02156 82112 10060 20060 30156 40268 53011 61000 70265 886// 90900 333 ////=
07149,1998-12-25 12:00:00,8,1025.8,-0.9,100,8,500,22.224,,,210,,,,,,,,,,1,wg-a,,,,AAXX 25124 07149 32200 82112 10080 20080 30147 40258 58009 70165 886// 91200=
07149,1998-12-25 15:00:00,9,1023.8,-1.9,93,8,14000,25.928,,,210,,,,,,,,,,0,wg-a,,,,AAXX 25154 07149 32464 72114 10090 20080 30128 40238 56019 700// 875// 91500=
07149,1998-12-25 18:00:00,9,1022.9,-0.9,87,7,12000,35.188,,,220,4.9,9.3,,,,,,,,1,wg-a,,,,AAXX 25184 07149 02462 72219 10090 20070 30119 40229 58009 61000 70152 875// 91800 333 10093 20049 ////=
07149,1998-12-25 21:00:00,9,1020.9,-2,87,7,14000,35.188,,,220,,,,,,,,,,0,wg-a,,,,AAXX 25214 07149 32464 72219 10090 20070 30099 40209 58020 700// 875// 92100=
07149,1998-12-26 00:00:00,9,1021.4,0.5,93,8,14000,42.596,,,220,,,,,,,,,,61,wg-a,,,,AAXX 26004 07149 02364 72223 10090 20080 30104 40214 51005 61000 76162 877// 90000 333 6100=
07149,1998-12-26 03:00:00,8,1022.2,0.7,100,8,10000,29.632,,,230,,,,0,,,,,,60,wg-a,,,,AAXX 26034 07149 12260 82316 10080 20080 30111 40222 53007 60007 76062 887// 90300=
07149,1998-12-26 06:00:00,7,1022,-0.2,100,7,8000,29.632,,,220,7.3,8.8,,,,,,,,21,wg-a,,,,AAXX 26064 07149 02258 82216 10070 20070 30109 40220 56002 61000 72165 887// 90600 333 10088 20073 6001=
07149,1998-12-26 09:00:00,7,1021.6,-0.4,100,7,8000,31.484,,,220,,,,0,,,,,,21,wg-a,,,,AAXX 26094 07149 12258 82217 10070 20070 30105 40216 57004 60007 72165 887// 90900=
07149,1998-12-26 12:00:00,7,1019.1,-2.5,93,6,10000,29.632,,,210,,,,,,,,,,1,wg-a,,,,AAXX 26124 07149 02360 82116 10070 20060 30080 40191 58025 60006 70165 877// 91200 333 61000=
07149,1998-12-26 15:00:00,9,1014.9,-4,93,8,18000,42.596,,59.264,220,,,,2,,,,,,21,wg-a,,,,AAXX 26154 07149 12468 82223 10090 20080 30040 40149 56040 60027 72162 875// 91500 333 91032=
07149,1998-12-26 18:00:00,10,1012.1,-2.8,82,7,11000,46.3,,68.524,210,6.5,10.3,,,,,,,,,wg-a,,,,AAXX 26184 07149 12/61 /2125 10100 20070 30012 40121 58028 60006 91800 333 10103 20065 91037=
07149,1998-12-26 21:00:00,9,1010.9,-1.2,87,7,18000,53.708,,66.672,220,,,,,,,,,,21,wg-a,,,,AAXX 26214 07149 02468 72229 10090 20070 30000 40109 58012 61000 72162 875// 92100 333 //// 91036=
07149,1998-12-27 00:00:00,9,1010.5,,93,8,18000,38.892,,,230,,,,,,,,,,3,wg-a,,,,AAXX 27004 07149 12468 72321 10090 20080 39996 40105 60006 70362 875// 90000=
07149,1998-12-27 03:00:00,9,1010.3,-0.2,93,8,8000,35.188,,,230,,,,,,,,,,60,wg-a,,,,AAXX 27034 07149 02358 82319 10090 20080 39994 40103 55002 61000 76062 877// 90300 333 ////=
07149,1998-12-27 06:00:00,9,1008.8,-1.5,100,9,10000,35.188,,,220,8.9,10.3,,,,,,,,61,wg-a,,,,AAXX 27064 07149 02360 82219 10090 20090 39979 40088 58015 61000 76162 887// 90600 333 10103 20089 6005=
07149,1998-12-27 09:00:00,10,1007.3,-1.4,82,7,16000,38.892,,59.264,200,,,,1,,,,,,21,wg-a,,,,AAXX 27094 07149 12566 82021 10100 20070 39965 40073 56014 60017 72162 885// 90900 333 91032=
07149,1998-12-27 12:00:00,11,1006.1,-1.2,76,7,20000,50.004,,70.376,220,,,,,,,,,,1,wg-a,,,,AAXX 27124 07149 12570 82227 10110 20070 39953 40061 58012 60016 70162 875// 91200 333 91038=
07149,1998-12-27 15:00:00,11,1005.8,-0.3,71,6,25000,42.596,,,220,,,,,,,,,,,wg-a,,,,AAXX 27154 07149 12575 72223 10110 20060 39950 40058 55003 60006 8553/ 91500=
07149,1998-12-27 18:00:00,11,1006.9,1.1,71,6,25000,35.188,,62.968,220,9.2,11.6,,,,,,,,,wg-a,,,,AAXX 27184 07149 12575 72219 10110 20060 39961 40069 51011 60006 8553/ 91800 333 10116 20092 91034=
07149,1998-12-27 21:00:00,10,1007.3,0.4,76,6,10000,35.188,,,220,,,,,,,,,,60,wg-a,,,,AAXX 27214 07149 02560 82219 10100 20060 39965 40073 52004 61000 76062 8557/ 92100 333 ////=
07149,1998-12-28 00:00:00,10,1008.2,0.9,76,6,15000,25.928,,,220,,,,0,,,,,,21,wg-a,,,,AAXX 28004 07149 02465 82214 10100 20060 39974 40082 53009 60016 72162 875// 90000 333 60007=
07149,1998-12-28 03:00:00,10,1007.9,-0.3,87,8,18000,31.484,,,220,,,,,,,,,,,wg-a,,,,AAXX 28034 07149 12568 82217 10100 20080 39971 40079 58003 60006 8453/ 90300=
07149,1998-12-28 09:00:00,7,1011.4,2.3,93,6,17000,18.52,,,240,,,,1,,,,,,61,wg-a,,,,AAXX 28094 07149 12667 82410 10070 20060 30004 40114 51023 60017 76162 875// 90900=
07149,1998-12-28 12:00:00,7,1012.9,1.5,93,6,17000,22.224,,,210,,,,1,,,,,,60,wg-a,,,,AAXX 28124 07149 02467 82112 10070 20060 30019 40129 51015 60016 76062 875// 91200 333 60017=
07149,1998-12-28 18:00:00,5,1015.9,2,93,4,25000,14.816,,,200,5.4,8.6,,,,,,,,1,wg-a,,,,AAXX 28184 07149 12775 /2008 10050 20040 30048 40159 52020 60006 70161 84500 91800 333 10086 20054=
07149,1998-12-28 21:00:00,5,1017.5,1.5,93,4,25000,18.52,,,200,,,,,,,,,,,wg-a,,,,AAXX 28214 07149 12275 /2010 10050 20040 30063 40175 51015 60006 84500 92100=
07149,1998-12-29 00:00:00,4,1017.9,0.4,100,4,25000,11.112,,,180,,,,,,,,,,,wg-a,,,,AAXX 29004 07149 12275 81806 10040 20040 30067 40179 50004 60006 876// 90000=
07149,1998-12-29 03:00:00,4,1016.5,-1.4,93,3,12000,11.112,,,160,,,,,,,,,,,wg-a,,,,AAXX 29034 07149 12162 81606 10040 20030 30053 40165 56014 60006 886// 90300=
07149,1998-12-29 06:00:00,3,1015.1,-1.4,100,3,1500,11.112,,,130,2.7,5.4,,,,,1,,,10,wg-a,,,,AAXX 29064 07149 02115 81306 10030 20030 30039 40151 56014 60006 71022 886// 90600 333 10054 20027 60014=
07149,1998-12-29 09:00:00,4,1013.7,-1.4,100,4,1600,14.816,,,110,,,,,,,,,,28,wg-a,,,,AAXX 29094 07149 12116 81108 10040 20040 30025 40137 57014 60006 72842 886// 90900=
07149,1998-12-29 12:00:00,7,1010.9,-2.6,87,5,15000,14.816,,,140,,,,,,,,,,1,wg-a,,,,AAXX 29124 07149 12765 71408 10070 20050 39999 40109 58026 60006 70142 85501 91200=
07149,1998-12-29 15:00:00,10,1008.5,-2.2,76,6,20000,14.816,,,140,,,,,,,,,,,wg-a,,,,AAXX 29154 07149 12/70 61408 10100 20060 39977 40085 56022 60006 80002 91500=
07149,1998-12-29 18:00:00,8,1008,-0.6,87,6,16000,7.408,,,140,2.4,10.5,,,,,,,,,wg-a,,,,AAXX 29184 07149 12/66 61404 10080 20060 39971 40080 58006 60006 80002 91800 333 10105 20024=
07149,1998-12-29 21:00:00,8,1007.8,-0.2,76,4,25000,18.52,,,180,,,,,,,,,,0,wg-a,,,,AAXX 29214 07149 32/75 31810 10080 20040 39969 40078 55002 700// 80001 92100=
07149,1998-12-30 00:00:00,7,1008.2,0.4,81,4,25000,18.52,,,170,,,,,,,,,,0,wg-a,,,,AAXX 30004 07149 32/75 31710 10070 20040 39973 40082 51004 700// 80001 90000=
07149,1998-12-30 03:00:00,7,1008.1,-0.1,76,3,25000,22.224,,,170,,,,,,,,,,0,wg-a,,,,AAXX 30034 07149 32/75 21712 10070 20030 39972 40081 56001 700// 81031 90300=
07149,1998-12-30 06:00:00,8,1008.6,0.5,76,4,25000,18.52,,,180,7.1,8.4,,,,,,,,0,wg-a,,,,AAXX 30064 07149 12/75 71810 10080 20040 39977 40086 53005 60004 700// 85031 90600 333 10084 20071=
07149,1998-12-30 09:00:00,9,1010.1,1.5,71,4,20000,22.224,,,180,,,,,,,,,,60,wg-a,,,,AAXX 30094 07149 02670 71812 10090 20040 39992 40101 51015 61000 76062 83531 90900 333 ////=
07149,1998-12-30 12:00:00,11,1010.3,0.3,66,5,20000,18.52,,,190,,,,,,,,,,1,wg-a,,,,AAXX 30124 07149 02670 71910 10110 20050 39995 40103 50003 61000 70162 81532 91200 333 ////=
07149,1998-12-30 15:00:00,11,1009.9,-0.4,66,5,25000,14.816,,,180,,,,,,,,,,0,wg-a,,,,AAXX 30154 07149 32675 71808 10110 20050 39991 40099 55004 700// 82572 91500=
07149,1998-12-30 18:00:00,10,1009.8,-0.2,76,6,20000,7.408,,,190,8.1,10.9,,,,,,,,1,wg-a,,,,AAXX 30184 07149 02670 81904 10100 20060 39989 40098 56002 61000 70162 875// 91800 333 10109 20081 ////=
07149,1998-12-30 21:00:00,9,1009.3,-0.5,81,6,20000,11.112,,,170,,,,,,,,,,60,wg-a,,,,AAXX 30214 07149 02670 81706 10090 20060 39984 40093 58005 61000 76062 875// 92100 333 ////=
07149,1998-12-31 00:00:00,8,1008.8,-0.5,93,7,20000,18.52,,,170,,,,0,,,,,,60,wg-a,,,,AAXX 31004 07149 12570 81710 10080 20070 39979 40088 58005 60007 76062 875// 90000=
07149,1998-12-31 03:00:00,8,1007.2,-1.6,100,8,10000,22.224,,42.596,170,,,,1,,,,,,61,wg-a,,,,AAXX 31034 07149 12360 81712 10080 20080 39963 40072 58016 60017 76166 885// 90300 333 91023=
07149,1998-12-31 06:00:00,8,1006.3,-0.9,93,7,18000,18.52,,,160,7.9,9.6,,1,,,2,,,60,wg-a,,,,AAXX 31064 07149 02468 81610 10080 20070 39954 40063 56009 60024 76062 875// 90600 333 10096 20079 60017=
07149,1998-12-31 12:00:00,9,1004.5,-1.6,81,6,23000,11.112,,,150,,,,0,,,,,,21,wg-a,,,,AAXX 31124 07149 12673 81506 10090 20060 39937 40045 58016 60007 72162 8657/ 91200=
07149,1998-12-31 18:00:00,10,1003.7,0.2,66,4,25000,14.816,,,150,7.8,11.1,,,,,,,,1,wg-a,,,,AAXX 31184 07149 32775 51508 10100 20040 39929 40037 53002 70162 82532 91800 333 10111 20078=
07149,1998-12-31 21:00:00,10,1004.2,0.5,62,3,25000,14.816,,,160,,,,,,,,,,0,wg-a,,,,AAXX 31214 07149 32775 61608 10100 20030 39934 40042 53005 700// 81532 92100=
