station_id,dh_utc,temperature,pression,pression_variation_3h,humidite,point_de_rosee,visibilite,vent_moyen,vent_rafales,vent_rafales_10min,vent_direction,temperature_min,temperature_max,pluie_1h,pluie_3h,pluie_6h,pluie_12h,pluie_24h,ensoleillement,temperature_sol,temps_omm,source,radiations,neige_au_sol,nebulosite,raw_msg
07558,1996-01-01 00:00:00,7,1003.1,0.3,87,5,0,29.632,,,300,,,,,,,,,,,wg-a,,,,AAXX 01004 07558 12/// /3016 10070 20050 39203 40031 51003 60016 90000=
07558,1996-01-01 06:00:00,5,1002,-1.3,100,5,10000,3.704,,,330,4.6,7.1,,,,,4,,,28,wg-a,,,,AAXX 01064 07558 12260 43302 10050 20050 39187 40020 58013 60044 7284/ 84500 90600 333 10071 20046=
07558,1996-01-01 12:00:00,8,997.5,-1.8,76,4,0,14.816,,,150,,,,,,,,,,,wg-a,,,,AAXX 01124 07558 12/// /1508 10080 20040 39155 49975 56018 60006 91200=
07558,1996-01-01 18:00:00,6,1000.2,2.1,93,5,0,3.704,,,210,4.2,8.3,,,,,,,,,wg-a,,,,AAXX 01184 07558 32/// /2102 10060 20050 39174 40002 53021 91800 333 10083 20042=
07558,1996-01-02 00:00:00,7,1003.1,0.7,93,6,0,35.188,,,260,,,,1,,,,,,,wg-a,,,,AAXX 02004 07558 02/// /2619 10070 20060 39204 40031 51007 60066 90000 333 60017=
07558,1996-01-02 06:00:00,6,1005.1,-0.2,93,5,10000,42.596,,,250,5.7,8,,1,,,11,,,61,wg-a,,,,AAXX 02064 07558 02260 82523 10060 20050 39219 40051 58002 60114 76162 877// 90600 333 10080 20057 60017=
07558,1996-01-02 12:00:00,6,1008.9,1.2,93,5,10000,46.3,,,290,,,,2,,,,,,61,wg-a,,,,AAXX 02124 07558 02560 82925 10060 20050 39254 40089 50012 60046 76162 8487/ 91200 333 60027=
07558,1996-01-02 18:00:00,6,1015.1,2,87,4,0,53.708,,,310,5.5,7,,,,,,,,,wg-a,,,,AAXX 02184 07558 02/// /3129 10060 20040 39310 40151 51020 61000 91800 333 10070 20055 ////=
07558,1996-01-03 00:00:00,4,1016,1.3,81,1,0,25.928,,,330,,,,,,,,,,,wg-a,,,,AAXX 03004 07558 12/// /3314 10040 20010 39340 40160 51013 60006 90000=
07558,1996-01-03 06:00:00,1,1019.5,-0.5,100,1,15000,3.704,,,40,1.3,5.9,,,,,5,,,,wg-a,,,,AAXX 03064 07558 02/65 20402 10010 20010 39337 40195 55005 60006 81032 90600 333 10059 20013 60054=
07558,1996-01-03 12:00:00,6,1018.5,-0.5,75,2,500,22.224,,,360,,,,,,,,,,,wg-a,,,,AAXX 03124 07558 12500 23612 10060 20020 39341 40185 58005 60006 81102 91200=
07558,1996-01-03 18:00:00,5,1019.5,1.3,65,-1,0,14.816,,,20,1.2,7.2,,,,,,,,,wg-a,,,,AAXX 03184 07558 12/// /0208 10050 21010 39347 40195 53013 60006 91800 333 10072 20012=
07558,1996-01-04 00:00:00,3,1019.7,-0.4,65,-3,0,14.816,,,40,,,,,,,,,,,wg-a,,,,AAXX 04004 07558 12/// /0408 10030 21030 39343 40197 58004 60006 90000=
07558,1996-01-04 06:00:00,3,1016.3,-1.4,52,-6,20000,3.704,,,360,1.4,5.2,,,,,,,,,wg-a,,,,AAXX 04064 07558 12/70 63602 10030 21060 39310 40163 56014 60006 86080 90600 333 10052 20014=
07558,1996-01-04 12:00:00,7,1013.4,-0.9,57,-1,50000,18.52,,,130,,,,,,,,,,,wg-a,,,,AAXX 04124 07558 12/84 71310 10070 21010 39298 40134 58009 60006 8707/ 91200=
07558,1996-01-04 18:00:00,5,1012.8,-0.8,75,1,0,18.52,,,120,2.8,8.5,,,,,,,,,wg-a,,,,AAXX 04184 07558 12/// /1210 10050 20010 39286 40128 58008 60006 91800 333 10085 20028=
07558,1996-01-05 00:00:00,3,1010.7,-1.7,93,2,0,11.112,,,120,,,,,,,,,,,wg-a,,,,AAXX 05004 07558 12/// /1206 10030 20020 39262 40107 58017 60006 90000=
07558,1996-01-05 06:00:00,4,1006.2,-2.2,93,3,10000,14.816,,,110,3,4.9,,,,,,,,,wg-a,,,,AAXX 05064 07558 12460 71108 10040 20030 39224 40062 56022 60006 8553/ 90600 333 10049 20030=
07558,1996-01-05 12:00:00,7,1001,-2.6,87,5,10000,29.632,,,120,,,,,,,,,,,wg-a,,,,AAXX 05124 07558 12360 71216 10070 20050 39184 40010 58026 60006 875// 91200=
07558,1996-01-05 18:00:00,6,999.3,1.1,100,6,0,14.816,,,220,4.1,7.1,,,,,,,,,wg-a,,,,AAXX 05184 07558 32/// /2208 10060 20060 39166 49993 51011 91800 333 10071 20041=
07558,1996-01-06 00:00:00,3,1002.4,0.6,93,2,0,25.928,,,290,,,,,,,,,,,wg-a,,,,AAXX 06004 07558 12/// /2914 10030 20020 39186 40024 50006 60016 90000=
07558,1996-01-06 06:00:00,3,1001.6,-0.6,93,2,20000,3.704,,,10,3.1,6.1,,,,,3,,,,wg-a,,,,AAXX 06064 07558 12570 70102 10030 20020 39178 40016 56006 60034 8257/ 90600 333 10061 20031=
07558,1996-01-06 12:00:00,7,999.2,-1.1,81,4,0,22.224,,,130,,,,,,,,,,,wg-a,,,,AAXX 06124 07558 12/// /1312 10070 20040 39167 49992 58011 60006 91200=
07558,1996-01-06 18:00:00,6,998.9,-0.1,87,4,0,31.484,,,120,2.4,7.8,,1,,,,,,,wg-a,,,,AAXX 06184 07558 12/// /1217 10060 20040 39162 49989 55001 60017 91800 333 10078 20024=
07558,1996-01-07 00:00:00,8,997,-0.4,87,6,0,29.632,,,110,,,,,,,,,,,wg-a,,,,AAXX 07004 07558 12/// /1116 10080 20060 39150 49970 58004 60026 90000=
07558,1996-01-07 06:00:00,6,999.6,1.6,93,5,20000,11.112,,,40,5.5,7.8,,2,,,6,,,1,wg-a,,,,AAXX 07064 07558 02170 50406 10060 20050 39168 49996 51016 60064 7016/ 82770 90600 333 10078 20055 60027=
07558,1996-01-07 12:00:00,9,1002.3,1.5,87,7,0,3.704,,,240,,,,,,,,,,,wg-a,,,,AAXX 07124 07558 12/// /2402 10090 20070 39202 40023 51015 60006 91200=
07558,1996-01-07 18:00:00,6,1008.2,2.9,81,3,0,31.484,,,280,5.6,11.4,,,,,,,,,wg-a,,,,AAXX 07184 07558 12/// /2817 10060 20030 39247 40082 51029 60006 91800 333 10114 20056=
07558,1996-01-08 00:00:00,6,1013.6,1.5,81,3,0,11.112,,,300,,,,,,,,,,,wg-a,,,,AAXX 08004 07558 12/// /3006 10060 20030 39295 40136 51015 60006 90000=
07558,1996-01-08 06:00:00,4,1015.3,1.3,93,3,40000,11.112,,,80,2.8,11.4,,,,,,,,,wg-a,,,,AAXX 08064 07558 12482 10806 10040 20030 39306 40153 53013 60006 81500 90600 333 10114 20028=
07558,1996-01-08 12:00:00,11,1011,-1.6,54,2,50000,14.816,,,100,,,,,,,,,,,wg-a,,,,AAXX 08124 07558 12/84 11008 10110 20020 39286 40110 58016 60006 80001 91200=
07558,1996-01-08 18:00:00,5,1010.5,-0.2,81,2,0,22.224,,,130,3,12.7,,,,,,,,,wg-a,,,,AAXX 08184 07558 12/// /1312 10050 20020 39266 40105 55002 60006 91800 333 10127 20030=
07558,1996-01-09 00:00:00,7,1008.1,-0.9,87,5,0,35.188,,,120,,,,,,,,,,,wg-a,,,,AAXX 09004 07558 12/// /1219 10070 20050 39250 40081 56009 60006 90000=
07558,1996-01-09 06:00:00,9,1005.7,-0.6,87,7,10000,38.892,,,140,5.6,9.2,,,,,,,,,wg-a,,,,AAXX 09064 07558 12460 71421 10090 20070 39234 40057 58006 60006 875// 90600 333 10092 20056=
07558,1996-01-09 12:00:00,9,1006.1,0.5,87,7,10000,42.596,,,140,,,,0,,,,,,3,wg-a,,,,AAXX 09124 07558 02460 71423 10090 20070 39238 40061 53005 60016 70362 875// 91200 333 60007=
07558,1996-01-09 18:00:00,7,1007.2,0.3,93,6,0,35.188,,,120,7.3,9.6,,,,,,,,,wg-a,,,,AAXX 09184 07558 32/// /1219 10070 20060 39242 40072 53003 91800 333 10096 20073=
07558,1996-01-10 00:00:00,7,1005,-1.7,81,4,0,38.892,,,130,,,,,,,,,,,wg-a,,,,AAXX 10004 07558 12/// /1321 10070 20040 39221 40050 56017 60006 90000=
07558,1996-01-10 06:00:00,7,999.9,-2.5,93,6,6000,53.708,,,110,6.4,7.5,,3,,,3,,,63,wg-a,,,,AAXX 10064 07558 02156 81129 10070 20060 39174 49999 56025 60034 7636/ 877// 90600 333 10075 20064 60037=
07558,1996-01-10 12:00:00,5,1004,1.5,100,5,10000,14.816,,,190,,,,2,,,,,,60,wg-a,,,,AAXX 10124 07558 02260 81908 10050 20050 39207 40040 51015 60106 76062 877// 91200 333 60027=
07558,1996-01-10 18:00:00,4,1009.9,4.1,100,4,0,14.816,,,250,4,7.7,,,,,,,,,wg-a,,,,AAXX 10184 07558 32/// /2508 10040 20040 39257 40099 53041 91800 333 10077 20040=
07558,1996-01-11 00:00:00,4,1012.6,0.3,87,2,0,3.704,,,20,,,,,,,,,,,wg-a,,,,AAXX 11004 07558 12/// /0202 10040 20020 39280 40126 51003 60006 90000=
07558,1996-01-11 06:00:00,2,1009.3,-2.1,93,1,25000,11.112,,,110,1.4,4.9,,,,,11,,,,wg-a,,,,AAXX 11064 07558 02/75 31106 10020 20010 39246 40093 56021 60006 81032 90600 333 10049 20014 60114=
07558,1996-01-11 12:00:00,7,1006.7,-1.9,81,4,15000,29.632,,,140,,,,,,,,,,,wg-a,,,,AAXX 11124 07558 12465 71416 10070 20040 39235 40067 56019 60006 875// 91200=
07558,1996-01-11 18:00:00,7,1005.1,0.3,81,4,0,25.928,,,150,2.4,7.7,,,,,,,,,wg-a,,,,AAXX 11184 07558 12/// /1514 10070 20040 39221 40051 53003 60006 91800 333 10077 20024=
07558,1996-01-12 00:00:00,7,1002.9,-1.1,93,6,0,18.52,,,140,,,,,,,,,,,wg-a,,,,AAXX 12004 07558 12/// /1410 10070 20060 39202 40029 56011 60006 90000=
07558,1996-01-12 06:00:00,7,1000.1,-1.2,100,7,8000,14.816,,,200,6.5,7.7,,2,,,2,,,60,wg-a,,,,AAXX 12064 07558 02158 82008 10070 20070 39177 40001 56012 60024 7606/ 877// 90600 333 10077 20065 60027=
07558,1996-01-12 12:00:00,6,1003.5,1.3,93,5,10000,11.112,,,10,,,,2,,,,,,60,wg-a,,,,AAXX 12124 07558 02160 80106 10060 20050 39203 40035 51013 60056 76062 8577/ 91200 333 60027=
07558,1996-01-12 18:00:00,6,1008.1,2.5,87,4,0,14.816,,,350,5.3,7.7,,,,,,,,,wg-a,,,,AAXX 12184 07558 32/// /3508 10060 20040 39245 40081 53025 91800 333 10077 20053=
07558,1996-01-13 00:00:00,5,1012.1,1.4,93,4,0,18.52,,,10,,,,,,,,,,,wg-a,,,,AAXX 13004 07558 12/// /0110 10050 20040 39280 40121 51014 60026 90000=
07558,1996-01-13 06:00:00,5,1015,1.6,100,5,200,7.408,,,190,5,7.7,,3,,,13,,,61,wg-a,,,,AAXX 13064 07558 02102 81904 10050 20050 39307 40150 53016 60134 76164 887// 90600 333 10077 20050 60037=
07558,1996-01-13 12:00:00,6,1016.8,0.2,100,6,0,3.704,,,260,,,,,,,,,,,wg-a,,,,AAXX 13124 07558 12/// /2602 10060 20060 39326 40168 50002 60016 91200=
07558,1996-01-13 18:00:00,8,1016.6,0.6,93,7,0,18.52,,,110,4.8,7.9,,,,,,,,,wg-a,,,,AAXX 13184 07558 32/// /1110 10080 20070 39330 40166 53006 91800 333 10079 20048=
07558,1996-01-14 00:00:00,8,1016.4,-0.6,93,7,0,29.632,,,130,,,,,,,,,,,wg-a,,,,AAXX 14004 07558 12/// /1316 10080 20070 39329 40164 58006 60006 90000=
07558,1996-01-14 06:00:00,8,1015.9,-0,93,7,8000,31.484,,,130,7.6,8.4,,0,,,2,,,61,wg-a,,,,AAXX 14064 07558 02358 81317 10080 20070 39323 40159 55000 60024 7616/ 885// 90600 333 10084 20076 60007=
07558,1996-01-14 12:00:00,9,1015.8,-0.2,87,7,0,38.892,,,130,,,,,,,,,,,wg-a,,,,AAXX 14124 07558 02/// /1321 10090 20070 39325 40158 58002 61000 91200 333 6100=
07558,1996-01-14 18:00:00,9,1017.4,1.3,87,7,0,29.632,,,130,7.4,9.2,,,,,,,,,wg-a,,,,AAXX 14184 07558 32/// /1316 10090 20070 39339 40174 53013 91800 333 10092 20074=
07558,1996-01-15 00:00:00,9,1019.2,-0.1,87,7,0,31.484,,,140,,,,,,,,,,,wg-a,,,,AAXX 15004 07558 12/// /1417 10090 20070 39357 40192 55001 60006 90000=
07558,1996-01-15 06:00:00,9,1021,0.8,87,7,10000,25.928,,,130,8.5,9.1,,,,,,,,,wg-a,,,,AAXX 15064 07558 02460 71314 10090 20070 39373 40210 53008 60006 875// 90600 333 10091 20085 60004=
07558,1996-01-15 12:00:00,8,1023.3,0.5,100,8,7000,18.52,,,130,,,,0,,,,,,60,wg-a,,,,AAXX 15124 07558 02357 71310 10080 20080 39393 40233 50005 60006 76062 875// 91200 333 60007=
07558,1996-01-15 18:00:00,9,1024.1,1.2,87,7,0,25.928,,,130,8.3,9.4,,,,,,,,,wg-a,,,,AAXX 15184 07558 32/// /1314 10090 20070 39401 40241 52012 91800 333 10094 20083=
07558,1996-01-16 00:00:00,8,1025.6,0.2,93,7,0,18.52,,,120,,,,,,,,,,,wg-a,,,,AAXX 16004 07558 12/// /1210 10080 20070 39413 40256 52002 60006 90000=
07558,1996-01-16 06:00:00,8,1026.6,0.2,87,6,10000,11.112,,,100,7.6,8.6,,,,,,,,,wg-a,,,,AAXX 16064 07558 02160 81006 10080 20060 39421 40266 53002 60006 877// 90600 333 10086 20076 60004=
07558,1996-01-16 12:00:00,9,1026.6,-0.5,87,7,10000,14.816,,,110,,,,,,,,,,,wg-a,,,,AAXX 16124 07558 12460 81108 10090 20070 39424 40266 58005 60006 878// 91200=
07558,1996-01-16 18:00:00,8,1026.5,0.3,87,6,0,14.816,,,120,7.5,8.7,,,,,,,,,wg-a,,,,AAXX 16184 07558 12/// /1208 10080 20060 39420 40265 53003 60006 91800 333 10087 20075=
07558,1996-01-17 00:00:00,7,1026.8,-0.8,87,5,0,18.52,,,130,,,,,,,,,,,wg-a,,,,AAXX 17004 07558 12/// /1310 10070 20050 39420 40268 56008 60006 90000=
07558,1996-01-17 06:00:00,6,1025.7,-0.5,93,5,7000,25.928,,,130,5.9,8.7,,,,,,,,51,wg-a,,,,AAXX 17064 07558 02357 81314 10060 20050 39408 40257 58005 61000 7515/ 887// 90600 333 10087 20059 6100=
07558,1996-01-17 12:00:00,7,1025.4,-0.8,70,2,500,35.188,,,130,,,,,,,,,,1,wg-a,,,,AAXX 17124 07558 02500 51319 10070 20020 39407 40254 58008 61000 70151 85201 91200 333 ////=
07558,1996-01-17 18:00:00,4,1025.6,0.1,87,2,0,25.928,,,120,3.8,8,,,,,,,,,wg-a,,,,AAXX 17184 07558 32/// /1214 10040 20020 39400 40256 50001 91800 333 10080 20038=
07558,1996-01-18 00:00:00,4,1025.1,-0.3,81,1,0,25.928,,,110,,,,,,,,,,,wg-a,,,,AAXX 18004 07558 12/// /1114 10040 20010 39395 40251 57003 60006 90000=
07558,1996-01-18 06:00:00,2,1024,-0.7,87,0,10000,29.632,,,120,2.2,4.1,,,,,,,,,wg-a,,,,AAXX 18064 07558 02560 21216 10020 20000 39381 40240 57007 60006 82500 90600 333 10041 20022 61000=
07558,1996-01-18 12:00:00,6,1022.2,-0.9,70,1,25000,31.484,,,120,,,,,,,,,,,wg-a,,,,AAXX 18124 07558 12575 61217 10060 20010 39374 40222 58009 60006 86500 91200=
07558,1996-01-18 18:00:00,4,1021.5,-0,81,1,0,14.816,,,130,1.9,7.1,,,,,,,,,wg-a,,,,AAXX 18184 07558 12/// /1308 10040 20010 39363 40215 55000 60006 91800 333 10071 20019=
07558,1996-01-19 00:00:00,4,1020.2,-0.8,87,2,0,14.816,,,130,,,,,,,,,,,wg-a,,,,AAXX 19004 07558 12/// /1308 10040 20020 39352 40202 57008 60006 90000=
07558,1996-01-19 06:00:00,4,1017.8,-1.2,93,3,7000,11.112,,,120,3.5,7.1,,,,,,,,,wg-a,,,,AAXX 19064 07558 12357 81206 10040 20030 39329 40178 56012 60006 885// 90600 333 10071 20035=
07558,1996-01-19 12:00:00,7,1015,-1.3,76,3,25000,22.224,,,150,,,,,,,,,,,wg-a,,,,AAXX 19124 07558 12575 71512 10070 20030 39312 40150 58013 60006 875// 91200=
07558,1996-01-19 18:00:00,4,1013.7,-0.5,81,1,0,14.816,,,120,3.8,8,,,,,,,,,wg-a,,,,AAXX 19184 07558 12/// /1208 10040 20010 39291 40137 56005 60006 91800 333 10080 20038=
07558,1996-01-20 00:00:00,4,1012.1,-0.9,81,1,0,22.224,,,130,,,,,,,,,,,wg-a,,,,AAXX 20004 07558 12/// /1312 10040 20010 39277 40121 58009 60006 90000=
07558,1996-01-20 06:00:00,4,1009.5,-1,93,3,15000,25.928,,,120,2.9,4.3,,,,,,,,,wg-a,,,,AAXX 20064 07558 12565 71214 10040 20030 39254 40095 56010 60006 875// 90600 333 10043 20029=
07558,1996-01-20 12:00:00,5,1008.1,-0.7,100,5,0,22.224,,,130,,,,,,,,,,,wg-a,,,,AAXX 20124 07558 12/// /1312 10050 20050 39245 40081 58007 60006 91200=
07558,1996-01-20 18:00:00,6,1007.5,0.3,87,4,0,25.928,,,120,4.1,6.1,,,,,,,,,wg-a,,,,AAXX 20184 07558 12/// /1214 10060 20040 39241 40075 51003 60006 91800 333 10061 20041=
07558,1996-01-21 00:00:00,6,1009.1,0.4,87,4,0,29.632,,,120,,,,,,,,,,,wg-a,,,,AAXX 21004 07558 12/// /1216 10060 20040 39256 40091 50004 60006 90000=
07558,1996-01-21 06:00:00,6,1009.1,-0.1,93,5,15000,31.484,,,120,5.1,7.1,,1,,,1,,,60,wg-a,,,,AAXX 21064 07558 02465 71217 10060 20050 39255 40091 58001 60014 76086 878// 90600 333 10071 20051 60017=
07558,1996-01-21 12:00:00,7,1009.7,-0.1,93,6,0,25.928,,,130,,,,,,,,,,,wg-a,,,,AAXX 21124 07558 12/// /1314 10070 20060 39263 40097 58001 60026 91200=
07558,1996-01-21 18:00:00,7,1009.3,0.5,87,5,0,38.892,,,130,5.3,7.6,,,,,,,,,wg-a,,,,AAXX 21184 07558 32/// /1321 10070 20050 39261 40093 51005 91800 333 10076 20053=
07558,1996-01-22 00:00:00,6,1008.8,-0.7,100,6,0,46.3,,,120,,,,1,,,,,,,wg-a,,,,AAXX 22004 07558 02/// /1225 10060 20060 39254 40088 58007 60026 90000 333 60017=
07558,1996-01-22 06:00:00,7,1006.2,-1,93,6,7000,57.412,,,130,6.3,7.5,,1,,,7,,,61,wg-a,,,,AAXX 22064 07558 02457 71331 10070 20060 39232 40062 56010 60074 76166 875// 90600 333 10075 20063 60017=
07558,1996-01-22 12:00:00,8,1005.1,-0.7,87,6,8000,68.524,,,130,,,,3,,,,,,61,wg-a,,,,AAXX 22124 07558 02358 81337 10080 20060 39223 40051 58007 60066 76166 885// 91200 333 60037=
07558,1996-01-22 18:00:00,7,1004,-0.6,93,6,0,61.116,,,120,7,7.9,,1,,,,,,,wg-a,,,,AAXX 22184 07558 12/// /1233 10070 20060 39212 40040 58006 60017 91800 333 10079 20070=
07558,1996-01-23 00:00:00,7,1003.6,-0.8,100,7,0,57.412,,,130,,,,7,,,,,,,wg-a,,,,AAXX 23004 07558 02/// /1331 10070 20070 39209 40036 58008 60106 90000 333 60077=
07558,1996-01-23 06:00:00,8,999.7,-2.7,87,6,6000,72.228,,,130,7,7.9,,5,,,28,,,61,wg-a,,,,AAXX 23064 07558 02356 81339 10080 20060 39174 49997 56027 60284 7616/ 885// 90600 333 10079 20070 60057=
07558,1996-01-23 12:00:00,9,1000.4,1.3,87,7,10000,35.188,,,150,,,,3,,,,,,60,wg-a,,,,AAXX 23124 07558 02360 81519 10090 20070 39185 40004 50013 60106 76062 885// 91200 333 60037=
07558,1996-01-23 18:00:00,8,1003.1,2.8,81,5,0,22.224,,,120,7.6,9.3,,,,,,,,,wg-a,,,,AAXX 23184 07558 32/// /1212 10080 20050 39206 40031 51028 91800 333 10093 20076=
07558,1996-01-24 00:00:00,7,1002.4,-1.1,87,5,0,22.224,,,120,,,,,,,,,,,wg-a,,,,AAXX 24004 07558 12/// /1212 10070 20050 39196 40024 58011 60006 90000=
07558,1996-01-24 06:00:00,6,1001.2,-0.4,87,4,15000,25.928,,,120,6,7.8,,,,,10,,,,wg-a,,,,AAXX 24064 07558 02565 71214 10060 20040 39184 40012 55004 60006 875// 90600 333 10078 20060 60104=
07558,1996-01-24 12:00:00,7,1000.6,-1.1,81,4,15000,29.632,,,110,,,,,,,,,,15,wg-a,,,,AAXX 24124 07558 12565 71116 10070 20040 39180 40006 58011 60006 71522 875// 91200=
07558,1996-01-24 18:00:00,5,999.6,0.2,87,3,0,29.632,,,100,4.4,7.5,,8,,,,,,,wg-a,,,,AAXX 24184 07558 12/// /1016 10050 20030 39164 49996 50002 60087 91800 333 10075 20044=
07558,1996-01-25 00:00:00,5,1001,0.2,93,4,0,14.816,,,110,,,,,,,,,,,wg-a,,,,AAXX 25004 07558 12/// /1108 10050 20040 39177 40010 51002 60046 90000=
07558,1996-01-25 06:00:00,5,1000,-0.2,93,4,12000,11.112,,,120,3,5.1,,,,,19,,,1,wg-a,,,,AAXX 25064 07558 12462 71206 10050 20040 39168 40000 55002 60194 7016/ 875// 90600 333 10051 20030=
07558,1996-01-25 12:00:00,3,1002.3,0.7,100,3,8000,7.408,,,250,,,,2,,,,,,21,wg-a,,,,AAXX 25124 07558 02258 82504 10030 20030 39185 40023 50007 60086 72162 885// 91200 333 60027=
07558,1996-01-25 18:00:00,4,1004.2,1.7,93,3,0,7.408,,,140,3,4.6,,,,,,,,,wg-a,,,,AAXX 25184 07558 32/// /1404 10040 20030 39203 40042 53017 91800 333 10046 20030=
07558,1996-01-26 00:00:00,4,1006.2,0.6,100,4,0,14.816,,,200,,,,,,,,,,,wg-a,,,,AAXX 26004 07558 12/// /2008 10040 20040 39223 40062 52006 60006 90000=
07558,1996-01-26 06:00:00,4,1006.9,0.3,100,4,400,14.816,,,200,3.4,4.1,,0,,,8,,,60,wg-a,,,,AAXX 26064 07558 02104 82008 10040 20040 39230 40069 53003 60084 76064 877// 90600 333 10041 20034 60007=
07558,1996-01-26 12:00:00,5,1008.6,0.6,100,5,6000,7.408,,,240,,,,,,,,,,1,wg-a,,,,AAXX 26124 07558 02256 82404 10050 20050 39248 40086 50006 61000 70165 878// 91200 333 ////=
07558,1996-01-27 00:00:00,2,1011.4,0.3,100,2,0,14.816,,,70,,,,,,,,,,,wg-a,,,,AAXX 27004 07558 12/// /0708 10020 20020 39266 40114 50003 60006 90000=
07558,1996-01-27 06:00:00,4,1010.5,-0.1,93,3,0,11.112,,,100,2.2,4.9,,,,,,,,,wg-a,,,,AAXX 27064 07558 02/// /1006 10040 20030 39262 40105 55001 60006 90600 333 10049 20022 61000=
07558,1996-01-27 12:00:00,7,1010.1,-0.6,87,5,0,31.484,,,120,,,,,,,,,,,wg-a,,,,AAXX 27124 07558 12/// /1217 10070 20050 39267 40101 58006 60006 91200=
07558,1996-01-27 18:00:00,6,1011.1,0.7,93,5,0,22.224,,,110,3.6,7.5,,,,,,,,,wg-a,,,,AAXX 27184 07558 12/// /1112 10060 20050 39272 40111 51007 60006 91800 333 10075 20036=
07558,1996-01-28 00:00:00,6,1011.4,0.1,87,4,0,38.892,,,120,,,,,,,,,,,wg-a,,,,AAXX 28004 07558 12/// /1221 10060 20040 39276 40114 53001 60006 90000=
07558,1996-01-28 06:00:00,6,1009.3,-0.7,87,4,8000,31.484,,,120,5.5,7.5,,,,,,,,,wg-a,,,,AAXX 28064 07558 12458 81217 10060 20040 39258 40093 56007 60006 885// 90600 333 10075 20055=
07558,1996-01-28 12:00:00,6,1007.9,-1,93,5,0,38.892,,,120,,,,,,,,,,,wg-a,,,,AAXX 28124 07558 02/// /1221 10060 20050 39245 40079 58010 61000 91200 333 6100=
07558,1996-01-28 18:00:00,4,1007.8,1.4,93,3,0,18.52,,,80,4.1,6.9,,,,,,,,,wg-a,,,,AAXX 28184 07558 32/// /0810 10040 20030 39238 40078 53014 91800 333 10069 20041=
07558,1996-01-29 00:00:00,3,1008.5,0.2,100,3,0,14.816,,,20,,,,,,,,,,,wg-a,,,,AAXX 29004 07558 12/// /0208 10030 20030 39242 40085 50002 60356 90000=
07558,1996-01-29 06:00:00,4,1008.1,-0.1,100,4,10000,11.112,,,60,2.9,4.6,,0,,,44,,,3,wg-a,,,,AAXX 29064 07558 02360 80606 10040 20040 39241 40081 55001 60444 7036/ 885// 90600 333 10046 20029 60007=
07558,1996-01-29 12:00:00,6,1009.2,0.1,87,4,15000,31.484,,,110,,,,,,,,,,,wg-a,,,,AAXX 29124 07558 12465 71117 10060 20040 39257 40092 50001 60006 875// 91200=
07558,1996-01-29 18:00:00,6,1010.5,1.3,87,4,0,22.224,,,100,4.3,6.5,,,,,,,,,wg-a,,,,AAXX 29184 07558 12/// /1012 10060 20040 39269 40105 51013 60006 91800 333 10065 20043=
07558,1996-01-30 00:00:00,6,1012.1,0.7,81,3,0,11.112,,,50,,,,,,,,,,,wg-a,,,,AAXX 30004 07558 12/// /0506 10060 20030 39284 40121 51007 60006 90000=
07558,1996-01-30 06:00:00,6,1013.4,0.8,75,2,15000,11.112,,,40,5.7,7.2,,,,,,,,,wg-a,,,,AAXX 30064 07558 12565 70406 10060 20020 39294 40134 53008 60006 875// 90600 333 10072 20057=
07558,1996-01-30 12:00:00,12,1013.9,0.7,54,3,500,7.408,,,100,,,,,,,,,,,wg-a,,,,AAXX 30124 07558 12600 31004 10120 20030 39315 40139 50007 60006 81131 91200=
07558,1996-01-30 18:00:00,8,1014.4,0.2,66,2,0,7.408,,,260,5.2,12.8,,,,,,,,,wg-a,,,,AAXX 30184 07558 12/// /2604 10080 20020 39309 40144 52002 60006 91800 333 10128 20052=
07558,1996-01-31 00:00:00,3,1016.5,0.2,87,1,0,3.704,,,130,,,,,,,,,,,wg-a,,,,AAXX 31004 07558 12/// /1302 10030 20010 39315 40165 51002 60006 90000=
07558,1996-01-31 06:00:00,2,1016.6,0.1,87,0,15000,7.408,,,60,1.1,12.8,,,,,,,,,wg-a,,,,AAXX 31064 07558 12/65 60604 10020 20000 39313 40166 52001 60006 83031 90600 333 10128 20011=
07558,1996-01-31 12:00:00,5,1015.5,-0.2,87,3,8000,22.224,,,150,,,,,,,,,,,wg-a,,,,AAXX 31124 07558 12358 81512 10050 20030 39311 40155 58002 60006 885// 91200=
07558,1996-01-31 18:00:00,2,1016.9,0.8,93,1,0,22.224,,,130,1.7,5.1,,,,,,,,,wg-a,,,,AAXX 31184 07558 12/// /1312 10020 20010 39315 40169 53008 60006 91800 333 10051 20017=
07558,1996-02-01 00:00:00,1,1017.7,0,80,-2,0,38.892,,,120,,,,,,,,,,,wg-a,,,,AAXX 01004 07558 12/// /1221 10010 21020 39318 40177 50000 60006 90000=
07558,1996-02-01 06:00:00,1,1016,-0.6,75,-3,15000,22.224,,,110,0.6,2.4,,,,,,,,,wg-a,,,,AAXX 01064 07558 12565 71112 10010 21030 39302 40160 56006 60006 875// 90600 333 10024 20006=
07558,1996-02-01 12:00:00,4,1014,-0.7,81,1,0,42.596,,,120,,,,,,,,,,,wg-a,,,,AAXX 01124 07558 02/// /1223 10040 20010 39294 40140 58007 61000 91200 333 6100=
07558,1996-02-01 18:00:00,4,1012.3,-0.5,93,3,0,25.928,,,110,0.6,4.7,,,,,,,,,wg-a,,,,AAXX 01184 07558 32/// /1114 10040 20030 39279 40123 57005 91800 333 10047 20006=
07558,1996-02-02 00:00:00,4,1011.4,-0.8,93,3,0,14.816,,,120,,,,,,,,,,,wg-a,,,,AAXX 02004 07558 12/// /1208 10040 20030 39272 40114 58008 60006 90000=
07558,1996-02-02 06:00:00,5,1009.4,-0.2,93,4,8000,7.408,,,10,4,5.5,,1,,,1,,,61,wg-a,,,,AAXX 02064 07558 02458 80104 10050 20040 39254 40094 56002 60014 7616/ 885// 90600 333 10055 20040 60017=
07558,1996-02-05 06:00:00,-4,1013.9,-0.3,80,-7,15000,22.224,,,320,-3.9,4.8,,,,,,,,,wg-a,,,,AAXX 05064 07558 12465 73212 11040 21070 39270 40139 58003 60006 878// 90600 333 10048 21039=
07558,1996-02-05 12:00:00,-3,1012.5,-0.9,68,-8,20000,29.632,,,310,,,,,,,,,,,wg-a,,,,AAXX 05124 07558 12670 23116 11030 21080 39259 40125 58009 60006 82200 91200=
07558,1996-02-05 18:00:00,-3,1008.5,-1,68,-8,0,11.112,,,300,-4.5,0.1,,,,,,,,,wg-a,,,,AAXX 05184 07558 12/// /3006 11030 21080 39222 40085 56010 60006 91800 333 10001 21045=
07558,1996-02-06 00:00:00,-5,1001.7,-3,79,-8,0,11.112,,,30,,,,,,,,,,,wg-a,,,,AAXX 06004 07558 12/// /0306 11050 21080 39153 40017 58030 60006 90000=
07558,1996-02-06 06:00:00,-4,995.9,-1.5,100,-4,3000,14.816,,,150,-5.6,-2.6,,1,,,1,,,71,wg-a,,3,,AAXX 06064 07558 02230 81508 11040 21040 39105 49959 58015 60014 7717/ 885// 90600 333 11026 21056 4/003 60017=
07558,1996-02-06 12:00:00,-1,993.9,-0.1,93,-2,500,3.704,,,120,,,,2,,,,,,71,wg-a,,,,AAXX 06124 07558 02205 81202 11010 21020 39095 49939 58001 60046 77174 885// 91200 333 60027=
07558,1996-02-06 18:00:00,0,1000,4.5,100,0,0,22.224,,,290,-3.8,0.2,,,,,,,,,wg-a,,,,AAXX 06184 07558 32/// /2912 10000 20000 39155 40000 52045 91800 333 10002 21038=
07558,1996-02-07 00:00:00,0,1005,2.6,93,-1,0,35.188,,,310,,,,,,,,,,,wg-a,,,,AAXX 07004 07558 12/// /3119 10000 21010 39201 40050 53026 60006 90000=
07558,1996-02-07 06:00:00,-2,1006.2,-0.1,86,-4,25000,18.52,,,260,-2.1,1.6,,,,,8,,,1,wg-a,,10,,AAXX 07064 07558 12575 32610 11020 21040 39205 40062 58001 60084 70187 83500 90600 333 10016 21021 4/010=
07558,1996-02-07 12:00:00,-2,999.1,-3.6,100,-2,400,11.112,,,120,,,,1,,,,,,71,wg-a,,,,AAXX 07124 07558 02204 81206 11020 21020 39141 49991 58036 60016 77174 885// 91200 333 60017=
07558,1996-02-07 18:00:00,1,995.6,-0.1,100,1,0,14.816,,,230,-2.1,0.7,,,,,,,,,wg-a,,,,AAXX 07184 07558 32/// /2308 10010 20010 39116 49956 58001 91800 333 10007 21021=
07558,1996-02-08 00:00:00,1,992.3,-0.8,93,0,0,42.596,,,270,,,,3,,,,,,,wg-a,,,,AAXX 08004 07558 02/// /2723 10010 20000 39087 49923 55008 60046 90000 333 60037=
07558,1996-02-08 06:00:00,-1,1005.3,5.2,80,-4,500,87.044,,,320,-1.1,2.2,,,,,10,,,1,wg-a,,15,,AAXX 08064 07558 02400 63247 11010 21040 39200 40053 51052 60104 70187 86800 90600 333 10022 21011 4/015 61000=
07558,1996-02-08 12:00:00,0,1013,2,69,-5,20000,64.82,,,310,,,,,,,,,,,wg-a,,,,AAXX 08124 07558 12670 13135 10000 21050 39273 40130 53020 60006 81230 91200=
07558,1996-02-08 18:00:00,-1,1021.8,5.6,74,-5,0,31.484,,,330,-1.2,0.7,,,,,,,,,wg-a,,,,AAXX 08184 07558 32/// /3317 11010 21050 39351 40218 53056 91800 333 10007 21012=
07558,1996-02-09 00:00:00,-3,1022.7,-0.6,80,-6,0,25.928,,,340,,,,,,,,,,,wg-a,,,,AAXX 09004 07558 12/// /3414 11030 21060 39352 40227 58006 60006 90000=
07558,1996-02-09 06:00:00,-5,1022.3,-0.1,79,-8,50000,14.816,,,360,-4.8,0.7,,,,,,,,,wg-a,,12,,AAXX 09064 07558 02/84 03608 11050 21080 39343 40223 58001 60006 80000 90600 333 10007 21048 4/012 61000=
07558,1996-02-09 12:00:00,2,1017.1,-2.1,47,-8,50000,11.112,,,20,,,,,,,,,,,wg-a,,,,AAXX 09124 07558 12/84 60206 10020 21080 39314 40171 58021 60006 80001 91200=
07558,1996-02-09 18:00:00,3,1015.3,0.3,44,-8,0,11.112,,,110,-5.9,5.3,,,,,,,,,wg-a,,,,AAXX 09184 07558 12/// /1106 10030 21080 39301 40153 53003 60006 91800 333 10053 21059=
07558,1996-02-10 00:00:00,1,1017.8,0.9,51,-8,0,0,,,0,,,,,,,,,,,wg-a,,,,AAXX 10004 07558 12/// /0000 10010 21080 39318 40178 51009 60006 90000=
07558,1996-02-10 06:00:00,-1,1018.8,0.6,86,-3,15000,0,,,0,-0.6,2.8,,,,,,,,,wg-a,,10,,AAXX 10064 07558 12465 70000 11010 21030 39324 40188 53006 60006 875// 90600 333 10028 21006 4/010=
07558,1996-02-10 12:00:00,5,1018.1,-0.4,70,0,0,11.112,,,250,,,,,,,,,,,wg-a,,,,AAXX 10124 07558 12/// /2506 10050 20000 39335 40181 58004 60006 91200=
07558,1996-02-10 18:00:00,2,1019,0.7,93,1,0,22.224,,,260,-0.6,6.4,,,,,,,,,wg-a,,,,AAXX 10184 07558 12/// /2612 10020 20010 39334 40190 53007 60006 91800 333 10064 21006=
07558,1996-02-11 00:00:00,2,1019.7,-0.2,93,1,0,18.52,,,260,,,,,,,,,,,wg-a,,,,AAXX 11004 07558 12/// /2610 10020 20010 39339 40197 55002 60006 90000=
07558,1996-02-11 06:00:00,1,1020.1,0.7,100,1,12000,11.112,,,240,0.8,2.2,,1,,,7,,,25,wg-a,,4,,AAXX 11064 07558 02462 62406 10010 20010 39341 40201 53007 60074 7258/ 86800 90600 333 10022 20008 4/004 60017=
07558,1996-02-11 12:00:00,3,1020.6,0.1,93,2,0,14.816,,,250,,,,,,,,,,,wg-a,,,,AAXX 11124 07558 12/// /2508 10030 20020 39353 40206 50001 60006 91200=
07558,1996-02-11 18:00:00,2,1021,0.7,93,1,0,7.408,,,240,1,4.8,,,,,,,,,wg-a,,,,AAXX 11184 07558 32/// /2404 10020 20010 39352 40210 53007 91800 333 10048 20010=
07558,1996-02-12 00:00:00,2,1021.3,-0.5,100,2,0,7.408,,,240,,,,,,,,,,,wg-a,,,,AAXX 12004 07558 12/// /2404 10020 20020 39355 40213 56005 60016 90000=
07558,1996-02-12 06:00:00,3,1018.2,-1.3,100,3,300,18.52,,,240,1.6,4.8,,0,,,3,,,61,wg-a,,0,,AAXX 12064 07558 02103 82410 10030 20030 39329 40182 58013 60034 76164 887// 90600 333 10048 20016 4/000 60007=
07558,1996-02-12 12:00:00,6,1013.1,-2.8,81,3,12000,31.484,,,230,,,,,,,,,,3,wg-a,,,,AAXX 12124 07558 02462 72317 10060 20030 39291 40131 58028 61000 70364 8483/ 91200 333 6100=
07558,1996-02-12 18:00:00,6,1006.4,-2.6,100,6,0,38.892,,,230,2.6,6.2,,4,,,,,,,wg-a,,,,AAXX 12184 07558 12/// /2321 10060 20060 39231 40064 56026 60047 91800 333 10062 20026=
07558,1996-02-13 00:00:00,3,1009.3,1,87,1,0,29.632,,,270,,,,,,,,,,,wg-a,,,,AAXX 13004 07558 12/// /2716 10030 20010 39249 40093 51010 60026 90000=
07558,1996-02-13 06:00:00,3,1008.1,0.1,87,1,15000,42.596,,,290,2.7,6.2,,,,,8,,,3,wg-a,,,,AAXX 13064 07558 12565 42923 10030 20010 39238 40081 53001 60084 7038/ 84500 90600 333 10062 20027=
07558,1996-02-13 18:00:00,3,1011.8,1.6,65,-3,0,18.52,,,320,2.3,6,,,,,,,,,wg-a,,,,AAXX 13184 07558 32/// /3210 10030 21030 39270 40118 51016 91800 333 10060 20023=
07558,1996-02-14 00:00:00,0,1013.6,0.7,86,-2,0,25.928,,,320,,,,,,,,,,,wg-a,,,,AAXX 14004 07558 12/// /3214 10000 21020 39278 40136 53007 60006 90000=
07558,1996-02-14 06:00:00,-1,1015.6,1.3,86,-3,15000,25.928,,,320,-1.4,3,,,,,,,,22,wg-a,,0,,AAXX 14064 07558 02265 73214 11010 21030 39294 40156 53013 60004 7227/ 877// 90600 333 10030 21014 4/9999 61000=
07558,1996-02-14 12:00:00,1,1019,1.4,64,-5,15000,31.484,,,340,,,,,,,,,,,wg-a,,,,AAXX 14124 07558 12465 83417 10010 21050 39329 40190 53014 60006 878// 91200=
07558,1996-02-14 18:00:00,-1,1022.4,2.2,69,-6,0,42.596,,,350,-1.1,1.9,,,,,,,,,wg-a,,,,AAXX 14184 07558 12/// /3523 11010 21060 39357 40224 53022 60006 91800 333 10019 21011=
07558,1996-02-15 00:00:00,-1,1026,1,69,-6,0,38.892,,,350,,,,,,,,,,,wg-a,,,,AAXX 15004 07558 12/// /3521 11010 21060 39388 40260 51010 60006 90000=
07558,1996-02-15 06:00:00,-2,1029.3,2.7,74,-6,15000,7.408,,,340,-2.5,1.9,,,,,,,,,wg-a,,,,AAXX 15064 07558 12565 63404 11020 21060 39415 40293 51027 60006 86500 90600 333 10019 21025=
07558,1996-02-15 12:00:00,2,1029,-0.5,55,-6,500,25.928,,,340,,,,,,,,,,,wg-a,,,,AAXX 15124 07558 12600 13414 10020 21060 39424 40290 58005 60006 81100 91200=
07558,1996-02-15 18:00:00,-2,1030.5,1.1,80,-5,0,25.928,,,320,-2.2,2.9,,,,,,,,,wg-a,,,,AAXX 15184 07558 12/// /3214 11020 21050 39427 40305 51011 60006 91800 333 10029 21022=
07558,1996-02-16 00:00:00,-4,1032,-0,80,-7,0,18.52,,,300,,,,,,,,,,,wg-a,,,,AAXX 16004 07558 12/// /3010 11040 21070 39435 40320 55000 60006 90000=
07558,1996-02-16 06:00:00,-4,1031.1,-0.2,74,-8,15000,7.408,,,280,-5.2,-1.8,,,,,,,,,wg-a,,,,AAXX 16064 07558 12565 32804 11040 21080 39426 40311 58002 60006 82530 90600 333 11018 21052=
07558,1996-02-16 12:00:00,2,1028.9,-0.6,55,-6,20000,35.188,,,300,,,,,,,,,,,wg-a,,,,AAXX 16124 07558 12/70 73019 10020 21060 39423 40289 58006 60006 85032 91200=
07558,1996-02-16 18:00:00,2,1029,0.7,75,-2,0,25.928,,,300,-4.6,4,,,,,,,,,wg-a,,,,AAXX 16184 07558 12/// /3014 10020 21020 39424 40290 52007 60006 91800 333 10040 21046=
07558,1996-02-17 00:00:00,1,1030.2,0.5,86,-1,0,25.928,,,300,,,,,,,,,,,wg-a,,,,AAXX 17004 07558 12/// /3014 10010 21010 39433 40302 51005 60006 90000=
07558,1996-02-17 06:00:00,2,1027.5,-1.5,93,1,15000,50.004,,,300,0.5,2.1,,,,,,,,,wg-a,,,,AAXX 17064 07558 12265 53027 10020 20010 39412 40275 58015 60006 85700 90600 333 10021 20005=
07558,1996-02-17 12:00:00,3,1028.1,0.5,87,1,0,42.596,,,300,,,,,,,,,,,wg-a,,,,AAXX 17124 07558 12/// /3023 10030 20010 39420 40281 51005 60006 91200=
07558,1996-02-17 18:00:00,3,1027.9,0.8,87,1,0,35.188,,,300,1.8,3.8,,,,,,,,,wg-a,,,,AAXX 17184 07558 12/// /3019 10030 20010 39417 40279 53008 60006 91800 333 10038 20018=
07558,1996-02-18 00:00:00,3,1026.4,-1.8,81,0,0,31.484,,,320,,,,,,,,,,,wg-a,,,,AAXX 18004 07558 12/// /3217 10030 20000 39403 40264 56018 60006 90000=
07558,1996-02-18 06:00:00,2,1023.5,-1.6,80,-1,15000,25.928,,,290,1.8,3,,,,,,,,,wg-a,,,,AAXX 18064 07558 12565 72914 10020 21010 39374 40235 58016 60006 875// 90600 333 10030 20018=
07558,1996-02-18 12:00:00,6,1017.3,-2.3,65,0,0,18.52,,,300,,,,,,,,,,,wg-a,,,,AAXX 18124 07558 12/// /3010 10060 20000 39330 40173 58023 60006 91200=
07558,1996-02-18 18:00:00,5,1010,-2.1,75,1,0,25.928,,,240,1.5,9.1,,,,,,,,,wg-a,,,,AAXX 18184 07558 12/// /2414 10050 20010 39260 40100 56021 60006 91800 333 10091 20015=
07558,1996-02-19 00:00:00,1,1006.4,-1.5,100,1,0,18.52,,,330,,,,,,,,,,,wg-a,,,,AAXX 19004 07558 12/// /3310 10010 20010 39216 40064 56015 60046 90000=
07558,1996-02-19 06:00:00,0,1003.1,-1.4,100,0,6000,14.816,,,250,0,4.9,,,,,5,,,1,wg-a,,,,AAXX 19064 07558 12556 62508 10000 20000 39182 40031 58014 60054 7016/ 83532 90600 333 10049 20000=
07558,1996-02-19 12:00:00,1,1001.1,-1.1,100,1,500,22.224,,,250,,,,1,,,,,,85,wg-a,,,,AAXX 19124 07558 02200 82512 10010 20010 39168 40011 58011 60026 78587 885// 91200 333 60017=
07558,1996-02-19 18:00:00,1,999.1,0.3,93,0,0,29.632,,,290,0,2.9,,,,,,,,,wg-a,,,,AAXX 19184 07558 32/// /2916 10010 20000 39150 49991 53003 91800 333 10029 20000=
07558,1996-02-20 00:00:00,-2,1006,2.3,86,-4,0,35.188,,,320,,,,,,,,,,,wg-a,,,,AAXX 20004 07558 12/// /3219 11020 21040 39202 40060 53023 60006 90000=
07558,1996-02-20 06:00:00,-6,1009.4,0.6,79,-9,0,25.928,,,340,-6.4,1.4,,,,,3,,,,wg-a,,,,AAXX 20064 07558 12/// /3414 11060 21090 39220 40094 51006 60034 90600 333 10014 21064=
07558,1996-02-20 12:00:00,-2,1008,-0.6,50,-11,500,35.188,,,320,,,,,,,,,,,wg-a,,,,AAXX 20124 07558 12500 23219 11020 21110 39220 40080 58006 60006 82100 91200=
07558,1996-02-20 18:00:00,-5,1010.4,-0,68,-10,0,18.52,,,330,-6.8,-1.6,,,,,,,,,wg-a,,,,AAXX 20184 07558 12/// /3310 11050 21100 39232 40104 54000 60006 91800 333 11016 21068=
07558,1996-02-21 00:00:00,-7,1010.9,-0.9,73,-11,0,29.632,,,310,,,,,,,,,,,wg-a,,,,AAXX 21004 07558 12/// /3116 11070 21110 39233 40109 56009 60006 90000=
07558,1996-02-21 06:00:00,-5,1008.6,-0.6,79,-8,15000,31.484,,,320,-7.5,-5.1,,,,,,,,,wg-a,,,,AAXX 21064 07558 12265 43217 11050 21080 39216 40086 57006 60006 84500 90600 333 11051 21075=
07558,1996-02-21 12:00:00,-3,1008.6,0.1,86,-5,6000,31.484,,53.708,310,,,,,,,,,,70,wg-a,,,,AAXX 21124 07558 02256 83117 11030 21050 39225 40086 50001 61000 77072 877// 91200 333 6100 91029=
07558,1996-02-21 18:00:00,-4,1012.7,2,74,-8,0,38.892,,,340,-5.4,-1.5,,,,,,,,,wg-a,,,,AAXX 21184 07558 02/// /3421 11040 21080 39257 40127 53020 61000 91800 333 11015 21054 ////=
07558,1996-02-22 00:00:00,-7,1018.7,2,73,-11,0,29.632,,,320,,,,,,,,,,,wg-a,,,,AAXX 22004 07558 12/// /3216 11070 21110 39304 40187 53020 60006 90000=
07558,1996-02-22 06:00:00,-9,1022,1.3,79,-12,10000,18.52,,,300,-9.6,-1.5,,,,,,,,,wg-a,,,,AAXX 22064 07558 02560 13010 11090 21120 39325 40220 52013 60006 81500 90600 333 11015 21096 61000=
07558,1996-02-22 12:00:00,-6,1023.4,0.5,62,-12,15000,46.3,,,300,,,,,,,,,,3,wg-a,,,,AAXX 22124 07558 02565 13025 11060 21120 39347 40234 50005 61000 70370 81200 91200 333 ////=
07558,1996-02-22 18:00:00,-5,1024.2,0.6,63,-11,0,31.484,,,310,-9.5,-3.6,,,,,,,,,wg-a,,,,AAXX 22184 07558 32/// /3117 11050 21110 39359 40242 53006 91800 333 11036 21095=
07558,1996-02-23 00:00:00,-5,1021.7,-1.6,93,-6,0,11.112,,,290,,,,,,,,,,,wg-a,,,,AAXX 23004 07558 12/// /2906 11050 21060 39338 40217 58016 60006 90000=
07558,1996-02-23 06:00:00,-4,1018.1,-0.7,93,-5,0,7.408,,,240,-5.3,-4.2,,,,,,,,,wg-a,,,,AAXX 23064 07558 02/// /2404 11040 21050 39306 40181 55007 60006 90600 333 11042 21053 61000=
07558,1996-02-23 12:00:00,1,1018,0.1,80,-2,15000,22.224,,,280,,,,,,,,,,,wg-a,,,,AAXX 23124 07558 12465 72812 10010 21020 39321 40180 50001 60006 878// 91200=
07558,1996-02-23 18:00:00,-1,1018.7,0.7,86,-3,0,25.928,,,330,-4.3,1.1,,,,,,,,,wg-a,,,,AAXX 23184 07558 12/// /3314 11010 21030 39323 40187 53007 60006 91800 333 10011 21043=
07558,1996-02-24 00:00:00,-2,1019.9,0.4,80,-5,0,22.224,,,310,,,,,,,,,,,wg-a,,,,AAXX 24004 07558 12/// /3112 11020 21050 39329 40199 51004 60006 90000=
07558,1996-02-24 06:00:00,-5,1020,-0.4,86,-7,40000,14.816,,,350,-4.9,1.1,,,,,,,,,wg-a,,,,AAXX 24064 07558 12/82 13508 11050 21070 39322 40200 56004 60006 81041 90600 333 10011 21049=
07558,1996-02-24 12:00:00,5,1016.6,-0.5,56,-3,0,7.408,,,150,,,,,,,,,,,wg-a,,,,AAXX 24124 07558 12/// /1504 10050 21030 39321 40166 58005 60006 91200=
07558,1996-02-24 18:00:00,5,1015.2,0.1,70,0,0,3.704,,,220,-4.9,7.6,,,,,,,,,wg-a,,,,AAXX 24184 07558 12/// /2202 10050 20000 39307 40152 53001 60006 91800 333 10076 21049=
07558,1996-02-25 00:00:00,1,1017.3,0,93,0,0,11.112,,,60,,,,,,,,,,,wg-a,,,,AAXX 25004 07558 12/// /0606 10010 20000 39315 40173 50000 60006 90000=
07558,1996-02-25 06:00:00,3,1015.1,-0.4,93,2,6000,18.52,,,120,0.1,7.6,,,,,,,,,wg-a,,,,AAXX 25064 07558 12356 71210 10030 20020 39300 40151 56004 60006 875// 90600 333 10076 20001=
07558,1996-02-25 12:00:00,5,1013.6,-0.9,87,3,0,31.484,,,110,,,,,,,,,,,wg-a,,,,AAXX 25124 07558 12/// /1117 10050 20030 39295 40136 58009 60006 91200=
07558,1996-02-25 18:00:00,6,1013.1,1,81,3,0,31.484,,,150,2.4,6.9,,,,,,,,,wg-a,,,,AAXX 25184 07558 12/// /1517 10060 20030 39292 40131 53010 60006 91800 333 10069 20024=
07558,1996-02-26 00:00:00,5,1013.6,0.1,93,4,0,50.004,,,140,,,,1,,,,,,,wg-a,,,,AAXX 26004 07558 02/// /1427 10050 20040 39293 40136 53001 60026 90000 333 60017=
07558,1996-02-26 06:00:00,5,1012.2,-0.4,93,4,15000,31.484,,,140,3.8,6.5,,1,,,6,,,60,wg-a,,,,AAXX 26064 07558 02265 81417 10050 20040 39280 40122 56004 60064 76062 877// 90600 333 10065 20038 60017=
07558,1996-02-26 12:00:00,5,1012.7,-0.4,87,3,10000,42.596,,,130,,,,2,,,,,,60,wg-a,,,,AAXX 26124 07558 02460 81323 10050 20030 39284 40127 58004 60076 76096 877// 91200 333 60027=
07558,1996-02-26 18:00:00,4,1012.5,0.2,93,3,0,25.928,,,110,2,5,,,,,,,,,wg-a,,,,AAXX 26184 07558 32/// /1114 10040 20030 39282 40125 50002 91800 333 10050 20020=
07558,1996-02-27 00:00:00,3,1014.9,0.4,93,2,0,7.408,,,120,,,,,,,,,,,wg-a,,,,AAXX 27004 07558 12/// /1204 10030 20020 39298 40149 52004 60086 90000=
07558,1996-02-27 06:00:00,0,1016.1,1.1,100,0,3000,7.408,,,340,0.2,5,,6,,,28,,,71,wg-a,,1,,AAXX 27064 07558 02230 83404 10000 20000 39302 40161 53011 60284 77176 887// 90600 333 10050 20002 4/001 60067=
07558,1996-02-27 12:00:00,3,1017,0.3,100,3,800,3.704,,,360,,,,1,,,,,,60,wg-a,,,,AAXX 27124 07558 02308 83602 10030 20030 39320 40170 50003 60036 76074 885// 91200 333 60017=
07558,1996-02-27 18:00:00,3,1018.2,0.9,100,3,0,3.704,,,20,0.2,4.6,,,,,,,,,wg-a,,,,AAXX 27184 07558 32/// /0202 10030 20030 39330 40182 53009 91800 333 10046 20002=
07558,1996-02-28 00:00:00,3,1019.6,0.1,100,3,0,3.704,,,340,,,,,,,,,,,wg-a,,,,AAXX 28004 07558 12/// /3402 10030 20030 39342 40196 51001 60016 90000=
07558,1996-02-28 06:00:00,4,1019,0.6,93,3,15000,3.704,,,30,2.4,3.9,,,,,5,,,,wg-a,,,,AAXX 28064 07558 12/65 70302 10040 20030 39340 40190 53006 60054 8707/ 90600 333 10039 20024=
07558,1996-02-28 12:00:00,10,1018.5,0.1,71,5,15000,3.704,,,190,,,,,,,,,,,wg-a,,,,AAXX 28124 07558 12465 51902 10100 20050 39353 40185 50001 60006 85800 91200=
07558,1996-02-28 18:00:00,7,1019.7,0.8,81,4,0,14.816,,,330,3.6,12.1,,,,,,,,,wg-a,,,,AAXX 28184 07558 12/// /3308 10070 20040 39354 40197 53008 60006 91800 333 10121 20036=
07558,1996-02-29 06:00:00,1,1023.1,0.5,100,1,500,3.704,,,170,0.1,11.7,,,,,,,,44,wg-a,,,,AAXX 29064 07558 12000 81702 10010 20010 39368 40231 53005 60006 7444/ 886// 90600 333 10117 20001=
07558,1996-02-29 12:00:00,5,1023.1,0.4,100,5,2000,11.112,,,200,,,,,,,,,,28,wg-a,,,,AAXX 29124 07558 12120 72006 10050 20050 39380 40231 50004 60006 72842 876// 91200=
07558,1996-02-29 18:00:00,5,1023.9,1.2,93,4,0,7.408,,,250,-0.2,8.7,,,,,,,,,wg-a,,,,AAXX 29184 07558 12/// /2504 10050 20040 39389 40239 53012 60006 91800 333 10087 21002=
07558,1996-03-01 00:00:00,1,1027,0.2,93,0,0,14.816,,,300,,,,,,,,,,,wg-a,,,,AAXX 01004 07558 12/// /3008 10010 20000 39404 40270 51002 60006 90000=
07558,1996-03-01 06:00:00,-1,1026.7,-0.3,93,-2,100,7.408,,,190,-1.4,8.7,,,,,,,,41,wg-a,,,,AAXX 01064 07558 12/01 01904 11010 21020 39395 40267 55003 60006 7414/ 80000 90600 333 10087 21014=
07558,1996-03-01 12:00:00,7,1022.9,-1.9,61,0,0,29.632,,,310,,,,,,,,,,,wg-a,,,,AAXX 01124 07558 12/// /3116 10070 20000 39383 40229 56019 60006 91200=
07558,1996-03-01 18:00:00,2,1022.1,0.1,75,-2,0,22.224,,,310,-1.3,8.1,,,,,,,,,wg-a,,,,AAXX 01184 07558 12/// /3112 10020 21020 39362 40221 50001 60006 91800 333 10081 21013=
07558,1996-03-02 00:00:00,2,1020.2,-0.8,75,-2,0,35.188,,,330,,,,,,,,,,,wg-a,,,,AAXX 02004 07558 12/// /3319 10020 21020 39346 40202 55008 60006 90000=
07558,1996-03-02 06:00:00,2,1018.2,-0.5,80,-1,15000,25.928,,,310,1.4,2.5,,,,,,,,,wg-a,,,,AAXX 02064 07558 12565 73114 10020 21010 39326 40182 58005 60006 875// 90600 333 10025 20014=
07558,1996-03-02 12:00:00,5,1017.7,0.1,56,-3,0,35.188,,,340,,,,,,,,,,,wg-a,,,,AAXX 02124 07558 12/// /3419 10050 21030 39329 40177 50001 60006 91200=
07558,1996-03-02 18:00:00,1,1019.2,1.2,59,-6,0,29.632,,,340,0.5,5.5,,,,,,,,,wg-a,,,,AAXX 02184 07558 12/// /3416 10010 21060 39331 40192 53012 60006 91800 333 10055 20005=
07558,1996-03-03 00:00:00,-2,1020.4,-0.2,59,-9,0,7.408,,,310,,,,,,,,,,,wg-a,,,,AAXX 03004 07558 12/// /3104 11020 21090 39333 40204 58002 60006 90000=
07558,1996-03-03 06:00:00,-3,1019.1,-0.3,58,-10,20000,18.52,,,350,-3.4,0.5,,,,,,,,,wg-a,,,,AAXX 03064 07558 12870 53510 11030 21100 39319 40191 56003 60006 83042 90600 333 10005 21034=
07558,1996-03-03 12:00:00,3,1015.8,-1.3,35,-11,0,29.632,,,330,,,,,,,,,,,wg-a,,,,AAXX 03124 07558 12/// /3316 10030 21110 39307 40158 58013 60006 91200=
07558,1996-03-03 18:00:00,1,1016.5,1.4,59,-6,0,29.632,,,340,-2.9,5,,,,,,,,,wg-a,,,,AAXX 03184 07558 12/// /3416 10010 21060 39308 40165 53014 60006 91800 333 10050 21029=
07558,1996-03-04 00:00:00,0,1018.2,-0,69,-5,0,25.928,,,350,,,,,,,,,,,wg-a,,,,AAXX 04004 07558 12/// /3514 10000 21050 39319 40182 55000 60006 90000=
07558,1996-03-04 06:00:00,-4,1019.6,0.4,74,-8,50000,14.816,,,350,-4.2,5,,,,,,,,,wg-a,,,,AAXX 04064 07558 12/84 03508 11040 21080 39320 40196 53004 60006 80000 90600 333 10050 21042=
07558,1996-03-04 12:00:00,4,1017.8,-0.2,35,-10,50000,25.928,,,310,,,,,,,,,,,wg-a,,,,AAXX 04124 07558 12/84 03114 10040 21100 39328 40178 58002 60006 80000 91200=
07558,1996-03-04 18:00:00,3,1018.8,1.2,30,-13,0,29.632,,,330,-4.5,5.7,,,,,,,,,wg-a,,,,AAXX 04184 07558 12/// /3316 10030 21130 39333 40188 53012 60006 91800 333 10057 21045=
07558,1996-03-05 00:00:00,-2,1022.6,0.4,63,-8,0,22.224,,,10,,,,,,,,,,,wg-a,,,,AAXX 05004 07558 12/// /0112 11020 21080 39355 40226 50004 60006 90000=
07558,1996-03-05 06:00:00,-3,1025.1,1.3,74,-7,50000,7.408,,,30,-3.7,2.8,,,,,,,,,wg-a,,,,AAXX 05064 07558 12/84 00304 11030 21070 39373 40251 53013 60006 80000 90600 333 10028 21037=
07558,1996-03-05 12:00:00,5,1023.1,-0.3,41,-7,20000,7.408,,,190,,,,,,,,,,,wg-a,,,,AAXX 05124 07558 12570 21904 10050 21070 39381 40231 56003 60006 82500 91200=
07558,1996-03-05 18:00:00,3,1023.1,0.4,56,-5,0,18.52,,,320,-3.7,7.5,,,,,,,,,wg-a,,,,AAXX 05184 07558 12/// /3210 10030 21050 39373 40231 53004 60006 91800 333 10075 21037=
07558,1996-03-06 00:00:00,1,1024.6,-0.1,69,-4,0,3.704,,,30,,,,,,,,,,,wg-a,,,,AAXX 06004 07558 12/// /0302 10010 21040 39382 40246 55001 60006 90000=
07558,1996-03-06 06:00:00,0,1023.4,0.1,74,-4,10000,3.704,,,20,0.2,7.5,,,,,,,,,wg-a,,,,AAXX 06064 07558 12460 80202 10000 21040 39369 40234 53001 60006 885// 90600 333 10075 20002=
07558,1996-03-06 12:00:00,7,1019.3,-1.5,45,-4,15000,11.112,,,200,,,,,,,,,,,wg-a,,,,AAXX 06124 07558 12665 52006 10070 21040 39349 40193 58015 60006 85201 91200=
07558,1996-03-06 18:00:00,4,1017.7,-0.4,65,-2,0,11.112,,,220,0.3,7.3,,,,,,,,,wg-a,,,,AAXX 06184 07558 12/// /2206 10040 21020 39327 40177 56004 60006 91800 333 10073 20003=
07558,1996-03-07 00:00:00,1,1017.4,-0.9,69,-4,0,3.704,,,20,,,,,,,,,,,wg-a,,,,AAXX 07004 07558 12/// /0202 10010 21040 39315 40174 58009 60006 90000=
07558,1996-03-07 06:00:00,-3,1014.5,-1.7,86,-5,15000,7.408,,,20,-2.6,3.8,,,,,,,,,wg-a,,,,AAXX 07064 07558 12/65 00204 11030 21050 39278 40145 56017 60006 80000 90600 333 10038 21026=
07558,1996-03-07 12:00:00,6,1010.8,-0.7,49,-4,15000,7.408,,,180,,,,,,,,,,,wg-a,,,,AAXX 07124 07558 12565 61804 10060 21040 39269 40108 58007 60006 86800 91200=
07558,1996-03-07 18:00:00,4,1012.3,1.8,75,0,0,25.928,,,150,-3.3,6.4,,,,,,,,,wg-a,,,,AAXX 07184 07558 12/// /1514 10040 20000 39278 40123 53018 60006 91800 333 10064 21033=
07558,1996-03-08 00:00:00,1,1015.9,0.6,100,1,0,29.632,,,140,,,,1,,,,,,,wg-a,,,,AAXX 08004 07558 02/// /1416 10010 20010 39304 40159 52006 60016 90000 333 60017=
07558,1996-03-08 06:00:00,1,1017.3,0.7,93,0,6000,35.188,,,130,0.7,3.9,,1,,,2,,,68,wg-a,,,,AAXX 08064 07558 02156 81319 10010 20000 39315 40173 53007 60024 76876 877// 90600 333 10039 20007 60017=
07558,1996-03-08 12:00:00,4,1018.9,0.6,75,0,10000,38.892,,,140,,,,,,,,,,3,wg-a,,,,AAXX 08124 07558 12460 81421 10040 20000 39337 40189 50006 60006 70376 8457/ 91200=
07558,1996-03-08 18:00:00,4,1019.6,0.8,87,2,0,29.632,,,130,0.7,4.2,,,,,,,,,wg-a,,,,AAXX 08184 07558 32/// /1316 10040 20020 39345 40196 53008 91800 333 10042 20007=
07558,1996-03-09 00:00:00,4,1019.9,0,93,3,0,22.224,,,130,,,,,,,,,,,wg-a,,,,AAXX 09004 07558 12/// /1312 10040 20030 39348 40199 50000 60006 90000=
07558,1996-03-09 06:00:00,3,1020.2,0.2,87,1,10000,14.816,,,100,2.4,4.2,,,,,,,,3,wg-a,,,,AAXX 09064 07558 12460 81008 10030 20010 39347 40202 52002 60004 7038/ 885// 90600 333 10042 20024=
07558,1996-03-09 12:00:00,4,1019.7,-0.6,87,2,0,25.928,,,120,,,,,,,,,,,wg-a,,,,AAXX 09124 07558 12/// /1214 10040 20020 39347 40197 58006 60006 91200=
07558,1996-03-09 18:00:00,5,1018.6,0.1,81,2,0,25.928,,,120,2.7,6,,,,,,,,,wg-a,,,,AAXX 09184 07558 12/// /1214 10050 20020 39338 40186 53001 60006 91800 333 10060 20027=
07558,1996-03-10 00:00:00,4,1018.8,-0.3,87,2,0,22.224,,,120,,,,,,,,,,,wg-a,,,,AAXX 10004 07558 12/// /1212 10040 20020 39338 40188 58003 60006 90000=
07558,1996-03-10 06:00:00,2,1019,-0.2,93,1,4000,3.704,,,180,2,6,,,,,,,,10,wg-a,,,,AAXX 10064 07558 12540 21802 10020 20010 39334 40190 56002 60006 710// 82500 90600 333 10060 20020=
07558,1996-03-10 12:00:00,9,1015.8,-1.3,57,1,0,7.408,,,40,,,,,,,,,,,wg-a,,,,AAXX 10124 07558 12/// /0404 10090 20010 39326 40158 58013 60006 91200=
07558,1996-03-10 18:00:00,8,1014.9,0.3,36,-6,0,22.224,,,330,1.7,11.3,,,,,,,,,wg-a,,,,AAXX 10184 07558 12/// /3312 10080 21060 39312 40149 53003 60006 91800 333 10113 20017=
07558,1996-03-11 06:00:00,-1,1015.5,-0.5,80,-4,8000,22.224,,,20,-0.5,7.9,,,,,,,,,wg-a,,,,AAXX 11064 07558 12458 50212 11010 21040 39294 40155 56005 60006 85500 90600 333 10079 21005=
07558,1996-03-11 12:00:00,9,1013.4,-0.1,43,-3,15000,7.408,,,200,,,,,,,,,,,wg-a,,,,AAXX 11124 07558 12/65 02004 10090 21030 39303 40134 58001 60006 80000 91200=
07558,1996-03-12 00:00:00,1,1014.4,-1.1,75,-3,0,7.408,,,220,,,,,,,,,,,wg-a,,,,AAXX 12004 07558 12/// /2204 10010 21030 39288 40144 58011 60006 90000=
07558,1996-03-12 06:00:00,-1,1010.8,-1.7,69,-6,20000,7.408,,,350,-1.5,6.6,,,,,,,,,wg-a,,,,AAXX 12064 07558 12/70 23504 11010 21060 39250 40108 56017 60006 82040 90600 333 10066 21015=
07558,1996-03-12 12:00:00,10,1004.3,-1.8,17,-14,20000,22.224,,,350,,,,,,,,,,,wg-a,,,,AAXX 12124 07558 12/70 23512 10100 21140 39222 40043 58018 60006 81032 91200=
07558,1996-03-12 18:00:00,8,1001.4,-1.2,27,-10,0,11.112,,,310,-0.6,12.9,,,,,,,,,wg-a,,,,AAXX 12184 07558 12/// /3106 10080 21100 39189 40014 57012 60006 91800 333 10129 21006=
07558,1996-03-13 00:00:00,3,1003,0.4,56,-5,0,14.816,,,110,,,,,,,,,,,wg-a,,,,AAXX 13004 07558 12/// /1108 10030 21050 39190 40030 51004 60006 90000=
07558,1996-03-13 06:00:00,1,1002.7,-0.4,55,-7,12000,11.112,,,40,0.9,8.1,,,,,,,,,wg-a,,,,AAXX 13064 07558 12/62 30406 10010 21070 39181 40027 56004 60006 80002 90600 333 10081 20009=
07558,1996-03-13 12:00:00,7,1000.4,-0.1,70,2,15000,42.596,,,120,,,,,,,,,,,wg-a,,,,AAXX 13124 07558 12465 71223 10070 20020 39179 40004 58001 60006 86532 91200=
07558,1996-03-13 18:00:00,6,1001.6,1.2,81,3,0,35.188,,,140,0.7,8.6,,,,,,,,,wg-a,,,,AAXX 13184 07558 12/// /1419 10060 20030 39187 40016 53012 60006 91800 333 10086 20007=
07558,1996-03-14 00:00:00,5,1003.5,0,81,2,0,35.188,,,130,,,,0,,,,,,,wg-a,,,,AAXX 14004 07558 02/// /1319 10050 20020 39201 40035 50000 60006 90000 333 60007=
07558,1996-03-14 06:00:00,3,1002.3,-0.5,93,2,0,22.224,,,100,3.2,6.1,,,,,1,,,,wg-a,,,,AAXX 14064 07558 12/// /1012 10030 20020 39185 40023 58005 60014 90600 333 10061 20032=
07558,1996-03-14 12:00:00,7,1001.4,0,87,5,10000,14.816,,,120,,,,,,,,,,60,wg-a,,,,AAXX 14124 07558 02460 81208 10070 20050 39187 40014 50000 60006 76062 875// 91200 333 61000=
07558,1996-03-14 18:00:00,6,1003,1.2,93,5,0,29.632,,,120,3.4,7.3,,,,,,,,,wg-a,,,,AAXX 14184 07558 32/// /1216 10060 20050 39201 40030 51012 91800 333 10073 20034=
07558,1996-03-15 00:00:00,5,1004.5,-0.3,93,4,0,3.704,,,130,,,,,,,,,,,wg-a,,,,AAXX 15004 07558 12/// /1302 10050 20040 39210 40045 58003 60016 90000=
07558,1996-03-15 06:00:00,4,1004.2,-0.1,100,4,10000,7.408,,,30,4.1,6.5,,1,,,3,,,60,wg-a,,,,AAXX 15064 07558 02260 80304 10040 20040 39205 40042 55001 60034 7606/ 885// 90600 333 10065 20041 60017=
07558,1996-03-15 12:00:00,3,1005.4,0.1,100,3,10000,7.408,,,10,,,,4,,,,,,61,wg-a,,,,AAXX 15124 07558 02260 80104 10030 20030 39213 40054 51001 60076 76166 885// 91200 333 60047=
07558,1996-03-15 18:00:00,3,1005.4,0.7,93,2,0,11.112,,,350,2.9,4.1,,,,,,,,,wg-a,,,,AAXX 15184 07558 32/// /3506 10030 20020 39213 40054 53007 91800 333 10041 20029=
07558,1996-03-16 00:00:00,2,1007.5,0.7,100,2,0,7.408,,,190,,,,,,,,,,,wg-a,,,,AAXX 16004 07558 12/// /1904 10020 20020 39230 40075 52007 60076 90000=
07558,1996-03-16 06:00:00,2,1008.6,0.8,93,1,15000,14.816,,,280,1.6,3.1,,,,,20,,,16,wg-a,,,,AAXX 16064 07558 12265 82808 10020 20010 39239 40086 52008 60204 71662 877// 90600 333 10031 20016=
07558,1996-03-16 12:00:00,4,1010.9,1.6,87,2,0,25.928,,,290,,,,,,,,,,,wg-a,,,,AAXX 16124 07558 12/// /2914 10040 20020 39265 40109 51016 60006 91200=
07558,1996-03-16 18:00:00,4,1013.3,1.8,87,2,0,25.928,,,320,2,5.1,,,,,,,,,wg-a,,,,AAXX 16184 07558 32/// /3214 10040 20020 39286 40133 52018 91800 333 10051 20020=
07558,1996-03-17 00:00:00,3,1015.5,0.4,93,2,0,22.224,,,320,,,,,,,,,,,wg-a,,,,AAXX 17004 07558 12/// /3212 10030 20020 39306 40155 52004 60006 90000=
07558,1996-03-17 06:00:00,2,1016.4,0.6,93,1,15000,31.484,,,300,2.3,3.8,,,,,,,,,wg-a,,,,AAXX 17064 07558 02265 83017 10020 20010 39311 40164 53006 60006 877// 90600 333 10038 20023 60004=
07558,1996-03-17 12:00:00,6,1016,0.1,75,2,0,25.928,,,310,,,,,,,,,,,wg-a,,,,AAXX 17124 07558 12/// /3114 10060 20020 39318 40160 50001 60006 91200=
07558,1996-03-17 18:00:00,5,1016.7,0.6,81,2,0,14.816,,,10,2.3,6.5,,,,,,,,,wg-a,,,,AAXX 17184 07558 12/// /0108 10050 20020 39320 40167 53006 60006 91800 333 10065 20023=
07558,1996-03-18 00:00:00,3,1017.8,0.2,81,0,0,18.52,,,350,,,,,,,,,,,wg-a,,,,AAXX 18004 07558 12/// /3510 10030 20000 39325 40178 51002 60006 90000=
07558,1996-03-18 06:00:00,1,1017.9,0.2,86,-1,50000,11.112,,,10,0.7,6.5,,,,,,,,,wg-a,,,,AAXX 18064 07558 12/84 10106 10010 21010 39320 40179 53002 60006 81030 90600 333 10065 20007=
07558,1996-03-18 12:00:00,8,1015.4,-0.6,61,1,50000,14.816,,,340,,,,,,,,,,,wg-a,,,,AAXX 18124 07558 12584 53408 10080 20010 39319 40154 58006 60006 85200 91200=
07558,1996-03-18 18:00:00,6,1015.7,0.5,61,-1,0,18.52,,,20,0.6,10.4,,,,,,,,,wg-a,,,,AAXX 18184 07558 12/// /0210 10060 21010 39316 40157 53005 60006 91800 333 10104 20006=
07558,1996-03-19 00:00:00,1,1018.1,0,80,-2,0,7.408,,,40,,,,,,,,,,,wg-a,,,,AAXX 19004 07558 12/// /0404 10010 21020 39323 40181 50000 60006 90000=
07558,1996-03-19 06:00:00,0,1016.5,-0.9,80,-3,25000,11.112,,,20,-0.4,6.1,,,,,,,,,wg-a,,,,AAXX 19064 07558 12/75 30206 10000 21030 39304 40165 56009 60006 80002 90600 333 10061 21004=
07558,1996-03-19 12:00:00,12,1010.7,-1.5,44,0,500,14.816,,,130,,,,,,,,,,,wg-a,,,,AAXX 19124 07558 12/00 51308 10120 20000 39285 40107 58015 60006 80002 91200=
07558,1996-03-19 18:00:00,7,1010.2,-0.1,70,2,0,25.928,,,130,-0.4,12.8,,,,,,,,,wg-a,,,,AAXX 19184 07558 12/// /1314 10070 20020 39268 40102 55001 60006 91800 333 10128 21004=
07558,1996-03-20 00:00:00,4,1011.2,0.1,87,2,0,18.52,,,140,,,,,,,,,,,wg-a,,,,AAXX 20004 07558 12/// /1410 10040 20020 39270 40112 53001 60006 90000=
07558,1996-03-20 06:00:00,6,1010.4,0.4,87,4,15000,3.704,,,140,4,7,,,,,,,,,wg-a,,,,AAXX 20064 07558 12265 81402 10060 20040 39266 40104 53004 60006 877// 90600 333 10070 20040=
07558,1996-03-20 12:00:00,7,1012,0.7,100,7,6000,3.704,,,160,,,,0,,,,,,60,wg-a,,,,AAXX 20124 07558 02156 81602 10070 20070 39286 40120 51007 60016 76062 877// 91200 333 60007=
07558,1996-03-21 00:00:00,6,1013.8,0.2,93,5,0,7.408,,,70,,,,,,,,,,,wg-a,,,,AAXX 21004 07558 12/// /0704 10060 20050 39298 40138 50002 60006 90000=
07558,1996-03-21 06:00:00,4,1014.5,0.4,100,4,1500,3.704,,,60,4.4,9.6,,,,,1,,,10,wg-a,,,,AAXX 21064 07558 02215 80602 10040 20040 39300 40145 53004 60006 710// 886// 90600 333 10096 20044 60014=
07558,1996-03-21 12:00:00,12,1014.2,0.4,67,6,20000,7.408,,,130,,,,,,,,,,,wg-a,,,,AAXX 21124 07558 12570 31304 10120 20060 39320 40142 50004 60006 81201 91200=
07558,1996-03-21 18:00:00,12,1014.7,0.8,58,4,0,11.112,,,310,4.2,14.6,,,,,,,,,wg-a,,,,AAXX 21184 07558 12/// /3106 10120 20040 39322 40147 53008 60006 91800 333 10146 20042=
07558,1996-03-22 00:00:00,7,1017.8,0.7,87,5,0,3.704,,,30,,,,,,,,,,,wg-a,,,,AAXX 22004 07558 12/// /0302 10070 20050 39338 40178 51007 60006 90000=
07558,1996-03-22 06:00:00,5,1018.5,0.5,93,4,15000,3.704,,,20,5,11.5,,,,,,,,,wg-a,,,,AAXX 22064 07558 12/65 40202 10050 20040 39339 40185 53005 60006 82072 90600 333 10115 20050=
07558,1996-03-22 12:00:00,16,1015.9,-0.2,48,5,20000,7.408,,,180,,,,,,,,,,,wg-a,,,,AAXX 22124 07558 12/70 51804 10160 20050 39347 40159 58002 60006 80002 91200=
07558,1996-03-22 18:00:00,16,1015.7,0.3,48,5,0,3.704,,,180,5,18,,,,,,,,,wg-a,,,,AAXX 22184 07558 12/// /1802 10160 20050 39343 40157 53003 60006 91800 333 10180 20050=
07558,1996-03-23 00:00:00,10,1018.7,0.4,66,4,0,7.408,,,70,,,,,,,,,,,wg-a,,,,AAXX 23004 07558 12/// /0704 10100 20040 39355 40187 53004 60006 90000=
07558,1996-03-23 06:00:00,8,1018.2,-0.2,76,4,500,11.112,,,60,7.4,15.6,,,,,,,,,wg-a,,,,AAXX 23064 07558 12/00 00606 10080 20040 39343 40182 57002 60006 80000 90600 333 10156 20074=
07558,1996-03-23 12:00:00,18,1015.2,-0.4,37,3,0,31.484,,,140,,,,,,,,,,,wg-a,,,,AAXX 23124 07558 12/// /1417 10180 20030 39343 40152 58004 60006 91200=
07558,1996-03-23 18:00:00,10,1017.5,0.6,82,7,0,29.632,,,130,7.2,18.7,,,,,,,,,wg-a,,,,AAXX 23184 07558 12/// /1316 10100 20070 39345 40175 53006 60006 91800 333 10187 20072=
07558,1996-03-24 00:00:00,7,1021.2,1.3,87,5,0,22.224,,,130,,,,,,,,,,,wg-a,,,,AAXX 24004 07558 12/// /1312 10070 20050 39368 40212 52013 60006 90000=
07558,1996-03-24 06:00:00,7,1021.9,0.6,87,5,10000,18.52,,,130,5.6,10.3,,,,,,,,,wg-a,,,,AAXX 24064 07558 12460 71310 10070 20050 39376 40219 53006 60006 875// 90600 333 10103 20056=
07558,1996-03-24 12:00:00,14,1019.2,-1.4,67,8,0,25.928,,,140,,,,,,,,,,,wg-a,,,,AAXX 24124 07558 12/// /1414 10140 20080 39370 40192 58014 60006 91200=
07558,1996-03-25 00:00:00,8,1017.5,-0.7,76,4,0,18.52,,,130,,,,,,,,,,,wg-a,,,,AAXX 25004 07558 12/// /1310 10080 20040 39339 40175 57007 60006 90000=
07558,1996-03-25 06:00:00,6,1019.3,-0.1,93,5,20000,3.704,,,60,6.3,10.8,,,,,,,,,wg-a,,,,AAXX 25064 07558 12670 20602 10060 20050 39350 40193 58001 60006 82500 90600 333 10108 20063=
07558,1996-03-25 12:00:00,16,1015.9,-0.9,55,7,15000,7.408,,,190,,,,,,,,,,,wg-a,,,,AAXX 25124 07558 12565 51904 10160 20070 39347 40159 57009 60006 82501 91200=
07558,1996-03-25 18:00:00,14,1014.4,-0.3,72,9,0,14.816,,,210,6.3,18.6,,,,,,,,,wg-a,,,,AAXX 25184 07558 12/// /2108 10140 20090 39328 40144 55003 60006 91800 333 10186 20063=
07558,1996-03-26 00:00:00,9,1015.1,-0.8,93,8,0,11.112,,,90,,,,,,,,,,,wg-a,,,,AAXX 26004 07558 12/// /0906 10090 20080 39321 40151 58008 60006 90000=
07558,1996-03-26 06:00:00,7,1014.1,-0.3,100,7,2000,14.816,,,110,5.9,14.2,,,,,,,,10,wg-a,,,,AAXX 26064 07558 12220 71108 10070 20070 39304 40141 58003 60006 710// 875// 90600 333 10142 20059=
07558,1996-03-26 12:00:00,10,1012.7,-0.4,87,8,10000,11.112,,,210,,,,,,,,,,,wg-a,,,,AAXX 26124 07558 12360 72106 10100 20080 39299 40127 56004 60006 875// 91200=
07558,1996-03-26 18:00:00,9,1010.9,-0.3,93,8,0,14.816,,,240,6.8,10.8,,,,,,,,,wg-a,,,,AAXX 26184 07558 32/// /2408 10090 20080 39281 40109 55003 91800 333 10108 20068=
07558,1996-03-27 00:00:00,8,1010.9,-0.7,87,6,0,29.632,,,290,,,,,,,,,,,wg-a,,,,AAXX 27004 07558 12/// /2916 10080 20060 39279 40109 58007 60006 90000=
07558,1996-03-27 06:00:00,8,1010.1,0.1,87,6,20000,46.3,,,310,7.4,8.9,,0,,,1,,,1,wg-a,,,,AAXX 27064 07558 02470 53125 10080 20060 39269 40101 53001 60014 7018/ 85800 90600 333 10089 20074 60007=
07558,1996-03-27 12:00:00,8,1011.6,-0.2,87,6,10000,31.484,,,300,,,,0,,,,,,25,wg-a,,,,AAXX 27124 07558 02260 83017 10080 20060 39284 40116 57002 60016 72582 878// 91200 333 60007=
07558,1996-03-27 18:00:00,8,1011.3,0.3,87,6,0,18.52,,,290,7.3,11.1,,,,,,,,,wg-a,,,,AAXX 27184 07558 32/// /2910 10080 20060 39282 40113 53003 91800 333 10111 20073=
07558,1996-03-28 00:00:00,2,1014.9,1,87,0,0,25.928,,,30,,,,,,,,,,,wg-a,,,,AAXX 28004 07558 12/// /0314 10020 20000 39297 40149 51010 60006 90000=
07558,1996-03-28 06:00:00,-1,1016.1,0.8,93,-2,20000,18.52,,,340,-1.2,8.2,,,,,1,,,,wg-a,,,,AAXX 28064 07558 02570 23410 11010 21020 39298 40161 53008 60006 82500 90600 333 10082 21012 60014=
07558,1996-03-28 12:00:00,10,1013.8,-1.5,32,-6,500,25.928,,,320,,,,,,,,,,,wg-a,,,,AAXX 28124 07558 12/00 03214 10100 21060 39308 40138 58015 60006 80000 91200=
07558,1996-03-28 18:00:00,7,1015.7,0.7,42,-5,0,29.632,,,290,-1,10.7,,,,,,,,,wg-a,,,,AAXX 28184 07558 12/// /2916 10070 21050 39317 40157 53007 60006 91800 333 10107 21010=
07558,1996-03-29 06:00:00,0,1017.8,0.1,80,-3,20000,11.112,,,320,-0.9,6.8,,,,,,,,,wg-a,,,,AAXX 29064 07558 12/70 03206 10000 21030 39316 40178 53001 60006 80000 90600 333 10068 21009=
07558,1996-03-29 12:00:00,8,1014.5,-1.1,39,-5,20000,29.632,,,330,,,,,,,,,,,wg-a,,,,AAXX 29124 07558 12/70 03316 10080 21050 39310 40145 58011 60006 80000 91200=
07558,1996-03-29 18:00:00,6,1013.2,-0.5,52,-3,0,22.224,,,290,-0.3,10.3,,,,,,,,,wg-a,,,,AAXX 29184 07558 12/// /2912 10060 21030 39292 40132 55005 60006 91800 333 10103 21003=
07558,1996-03-30 00:00:00,1,1013.6,-0.9,69,-4,0,18.52,,,20,,,,,,,,,,,wg-a,,,,AAXX 30004 07558 12/// /0210 10010 21040 39281 40136 56009 60006 90000=
07558,1996-03-30 06:00:00,-1,1012.4,-0,74,-5,25000,11.112,,,40,-1.1,5.8,,,,,,,,,wg-a,,,,AAXX 30064 07558 12/75 20406 11010 21050 39264 40124 55000 60006 80002 90600 333 10058 21011=
07558,1996-03-30 12:00:00,10,1008.9,-0.2,40,-3,0,14.816,,,330,,,,,,,,,,,wg-a,,,,AAXX 30124 07558 12/// /3308 10100 21030 39265 40089 57002 60006 91200=
07558,1996-03-30 18:00:00,6,1012.3,1.8,49,-4,50000,25.928,,,10,-0.8,11,,,,,,,,,wg-a,,,,AAXX 30184 07558 12/84 /0114 10060 21040 39284 40123 53018 60006 91800 333 10110 21008=
07558,1996-03-31 00:00:00,1,1016.6,0.2,59,-6,0,31.484,,,10,,,,,,,,,,,wg-a,,,,AAXX 31004 07558 12/// /0117 10010 21060 39307 40166 51002 60006 90000=
07558,1996-03-31 06:00:00,-3,1017.3,0.2,68,-8,500,18.52,,,10,-2.6,6.1,,,,,,,,,wg-a,,,,AAXX 31064 07558 12/00 00110 11030 21080 39304 40173 53002 60006 80000 90600 333 10061 21026=
07558,1996-03-31 12:00:00,9,1012.5,-1.3,40,-4,0,14.816,,,220,,,,,,,,,,,wg-a,,,,AAXX 31124 07558 12/// /2208 10090 21040 39294 40125 58013 60006 91200=
07558,1996-03-31 18:00:00,8,1010.8,-0.4,39,-5,0,14.816,,,270,-2.6,11.8,,,,,,,,,wg-a,,,,AAXX 31184 07558 12/// /2708 10080 21050 39274 40108 56004 60006 91800 333 10118 21026=
07558,1996-04-01 00:00:00,4,1009.9,-1.4,65,-2,0,7.408,,,100,,,,,,,,,,,wg-a,,,,AAXX 01004 07558 12/// /1004 10040 21020 39255 40099 57014 60006 90000=
07558,1996-04-01 06:00:00,4,1004.2,-2.3,75,0,15000,7.408,,,20,2.8,7.5,,,,,,,,,wg-a,,,,AAXX 01064 07558 12265 80204 10040 20000 39205 40042 56023 60006 877// 90600 333 10075 20028=
07558,1996-04-01 12:00:00,7,1000.6,-1.7,100,7,8000,11.112,,,140,,,,,,,,,,,wg-a,,,,AAXX 01124 07558 12258 81406 10070 20070 39182 40006 56017 60006 887// 91200=
07558,1996-04-02 00:00:00,7,1001.2,0.6,100,7,0,11.112,,,250,,,,,,,,,,,wg-a,,,,AAXX 02004 07558 12/// /2506 10070 20070 39185 40012 52006 60026 90000=
07558,1996-04-02 06:00:00,2,1006.1,2.8,93,1,8000,22.224,,,350,1.6,8.3,,1,,,7,,,60,wg-a,,,,AAXX 02064 07558 02358 73512 10020 20010 39215 40061 53028 60074 7606/ 875// 90600 333 10083 20016 60017=
07558,1996-04-02 12:00:00,7,1008.7,1.1,53,-2,20000,46.3,,,340,,,,0,,,,,,1,wg-a,,,,AAXX 02124 07558 02570 43425 10070 21020 39253 40087 51011 60006 70161 84100 91200 333 60007=
07558,1996-04-02 18:00:00,4,1013.6,2.5,48,-6,0,29.632,,,340,1.7,7.4,,,,,,,,,wg-a,,,,AAXX 02184 07558 32/// /3416 10040 21060 39288 40136 53025 91800 333 10074 20017=
07558,1996-04-03 00:00:00,-1,1016,-0.7,54,-9,0,35.188,,,340,,,,,,,,,,,wg-a,,,,AAXX 03004 07558 12/// /3419 11010 21090 39297 40160 58007 60006 90000=
07558,1996-04-03 06:00:00,-2,1017.1,1,59,-9,500,35.188,,,330,-2.6,3.5,,,,,,,,,wg-a,,,,AAXX 03064 07558 02500 23319 11020 21090 39302 40171 53010 60006 81170 90600 333 10035 21026 60004=
07558,1996-04-03 12:00:00,2,1016.8,0.2,51,-7,15000,46.3,,,320,,,,,,,,,,,wg-a,,,,AAXX 03124 07558 12465 63225 10020 21070 39313 40168 53002 60006 86800 91200=
07558,1996-04-03 18:00:00,2,1019.6,2.3,51,-7,0,38.892,,,330,-2.4,4,,,,,,,,,wg-a,,,,AAXX 03184 07558 12/// /3321 10020 21070 39338 40196 51023 60006 91800 333 10040 21024=
07558,1996-04-04 00:00:00,-1,1022,0.1,74,-5,0,31.484,,,310,,,,,,,,,,,wg-a,,,,AAXX 04004 07558 12/// /3117 11010 21050 39352 40220 51001 60006 90000=
07558,1996-04-04 06:00:00,-2,1022.7,0.3,69,-7,15000,25.928,,,330,-2.1,1.8,,,,,,,,,wg-a,,,,AAXX 04064 07558 12/65 03314 11020 21070 39355 40227 53003 60006 80000 90600 333 10018 21021=
07558,1996-04-04 12:00:00,7,1016.8,-1.9,45,-4,20000,42.596,,,340,,,,,,,,,,,wg-a,,,,AAXX 04124 07558 12/70 03423 10070 21040 39329 40168 58019 60006 80000 91200=
07558,1996-04-04 18:00:00,4,1017.6,0.2,56,-4,0,31.484,,,10,-2,9.5,,,,,,,,,wg-a,,,,AAXX 04184 07558 12/// /0117 10040 21040 39327 40176 51002 60006 91800 333 10095 21020=
07558,1996-04-05 00:00:00,-1,1018.4,-0.9,74,-5,0,22.224,,,20,,,,,,,,,,,wg-a,,,,AAXX 05004 07558 12/// /0212 11010 21050 39320 40184 58009 60006 90000=
07558,1996-04-05 06:00:00,-3,1017.2,-0.4,86,-5,500,7.408,,,20,-2.9,4,,,,,,,,,wg-a,,,,AAXX 05064 07558 12/00 00204 11030 21050 39303 40172 55004 60006 80000 90600 333 10040 21029=
07558,1996-04-05 12:00:00,12,1011.1,-1,38,-2,500,18.52,,,140,,,,,,,,,,,wg-a,,,,AAXX 05124 07558 12/00 01410 10120 21020 39289 40111 58010 60006 80000 91200=
07558,1996-04-05 18:00:00,9,1012.5,0.6,46,-2,0,18.52,,,120,-2.5,13.5,,,,,,,,,wg-a,,,,AAXX 05184 07558 12/// /1210 10090 21020 39294 40125 51006 60006 91800 333 10135 21025=
07558,1996-04-06 00:00:00,4,1016.2,0.8,87,2,0,11.112,,,130,,,,,,,,,,,wg-a,,,,AAXX 06004 07558 12/// /1306 10040 20020 39315 40162 51008 60006 90000=
07558,1996-04-06 06:00:00,5,1,,87,3,10000,11.112,,,120,,,,,,,,,,,wg-a,,,,AAXX 06064 07558 32460 71206 10050 20030 875// 90600=
07558,1996-04-06 12:00:00,12,1015.7,-0,58,4,0,18.52,,,120,,,,,,,,,,,wg-a,,,,AAXX 06124 07558 12/// /1210 10120 20040 39334 40157 55000 60006 91200=
07558,1996-04-06 18:00:00,10,1017.2,0.9,66,4,0,18.52,,,150,4.8,14.4,,,,,,,,,wg-a,,,,AAXX 06184 07558 12/// /1510 10100 20040 39341 40172 53009 60006 91800 333 10144 20048=
07558,1996-04-07 00:00:00,6,1019.5,0,81,3,0,7.408,,,30,,,,,,,,,,,wg-a,,,,AAXX 07004 07558 12/// /0304 10060 20030 39352 40195 50000 60006 90000=
07558,1996-04-07 06:00:00,3,1021.3,0.8,93,2,15000,3.704,,,210,3.2,10.1,,,,,,,,,wg-a,,,,AAXX 07064 07558 12/65 22102 10030 20020 39359 40213 53008 60006 80002 90600 333 10101 20032=
07558,1996-04-07 12:00:00,13,1018.5,-0.7,62,6,0,18.52,,,210,,,,,,,,,,,wg-a,,,,AAXX 07124 07558 12/// /2110 10130 20060 39362 40185 58007 60006 91200=
07558,1996-04-07 18:00:00,11,1019.6,1,50,1,0,22.224,,,290,3.4,16.1,,,,,,,,,wg-a,,,,AAXX 07184 07558 12/// /2912 10110 20010 39366 40196 53010 60006 91800 333 10161 20034=
07558,1996-04-08 00:00:00,7,1024.3,0.8,66,1,0,0,,,0,,,,,,,,,,,wg-a,,,,AAXX 08004 07558 12/// /0000 10070 20010 39396 40243 51008 60006 90000=
07558,1996-04-08 06:00:00,4,1025.9,0.8,87,2,8000,3.704,,,200,4,11.2,,,,,,,,,wg-a,,,,AAXX 08064 07558 12/58 62002 10040 20020 39403 40259 53008 60006 83032 90600 333 10112 20040=
07558,1996-04-08 12:00:00,14,1022.9,-1.3,55,5,0,25.928,,,300,,,,,,,,,,,wg-a,,,,AAXX 08124 07558 12/// /3014 10140 20050 39405 40229 58013 60006 91200=
07558,1996-04-08 18:00:00,12,1023.2,0.6,58,4,0,29.632,,,300,4,15.5,,,,,,,,,wg-a,,,,AAXX 08184 07558 12/// /3016 10120 20040 39403 40232 53006 60006 91800 333 10155 20040=
07558,1996-04-09 06:00:00,5,1025.5,-0.4,81,2,8000,7.408,,,60,3.8,15.5,,,,,,,,,wg-a,,,,AAXX 09064 07558 12/58 10604 10050 20020 39402 40255 55004 60006 80001 90600 333 10155 20038=
07558,1996-04-09 12:00:00,15,1020.4,-1.4,51,5,15000,11.112,,,190,,,,,,,,,,,wg-a,,,,AAXX 09124 07558 12765 11906 10150 20050 39385 40204 58014 60006 81101 91200=
07558,1996-04-09 18:00:00,14,1019.3,-0.1,44,2,0,22.224,,,300,4.7,17.7,,,,,,,,,wg-a,,,,AAXX 09184 07558 12/// /3012 10140 20020 39372 40193 56001 60006 91800 333 10177 20047=
07558,1996-04-10 00:00:00,8,1022.3,-0.2,76,4,0,0,,,0,,,,,,,,,,,wg-a,,,,AAXX 10004 07558 12/// /0000 10080 20040 39382 40223 58002 60006 90000=
07558,1996-04-10 06:00:00,5,1021.7,-0,87,3,12000,3.704,,,330,5,17.7,,,,,,,,,wg-a,,,,AAXX 10064 07558 12/62 13302 10050 20030 39369 40217 55000 60006 80001 90600 333 10177 20050=
07558,1996-04-10 12:00:00,16,1017.2,-1.1,39,2,20000,25.928,,,300,,,,,,,,,,,wg-a,,,,AAXX 10124 07558 12/70 53014 10160 20020 39357 40172 58011 60006 81034 91200=
07558,1996-04-10 18:00:00,13,1017.2,-0.1,54,4,0,22.224,,,290,5.3,17.1,,,,,,,,,wg-a,,,,AAXX 10184 07558 12/// /2912 10130 20040 39349 40172 55001 60006 91800 333 10171 20053=
07558,1996-04-11 00:00:00,9,1017.4,-0.7,93,8,0,25.928,,,320,,,,,,,,,,,wg-a,,,,AAXX 11004 07558 12/// /3214 10090 20080 39342 40174 58007 60006 90000=
07558,1996-04-11 06:00:00,8,1016.4,-0.2,100,8,8000,7.408,,,310,8.2,13,,1,,,1,,,21,wg-a,,,,AAXX 11064 07558 02258 73104 10080 20080 39330 40164 55002 60014 7216/ 875// 90600 333 10130 20082 60017=
07558,1996-04-11 12:00:00,14,1013.4,-1.2,51,4,500,22.224,,,300,,,,,,,,,,,wg-a,,,,AAXX 11124 07558 12500 53012 10140 20040 39318 40134 58012 60006 84102 91200=
07558,1996-04-11 18:00:00,13,1011.6,-0.4,51,3,0,25.928,,,310,8.4,15.8,,,,,,,,,wg-a,,,,AAXX 11184 07558 12/// /3114 10130 20030 39298 40116 58004 60006 91800 333 10158 20084=
07558,1996-04-12 00:00:00,8,1013.6,-0,61,1,0,18.52,,,20,,,,,,,,,,,wg-a,,,,AAXX 12004 07558 12/// /0210 10080 20010 39303 40136 54000 60006 90000=
07558,1996-04-12 06:00:00,6,1014,0.2,75,2,15000,11.112,,,20,5.3,15.8,,,,,,,,,wg-a,,,,AAXX 12064 07558 12/65 70206 10060 20020 39299 40140 53002 60006 86071 90600 333 10158 20053=
07558,1996-04-12 12:00:00,16,1010,-1,39,2,50000,11.112,,,310,,,,,,,,,,,wg-a,,,,AAXX 12124 07558 12/84 23106 10160 20020 39291 40100 58010 60006 80001 91200=
07558,1996-04-12 18:00:00,15,1009.6,0.2,31,-2,0,18.52,,,300,5.5,18.1,,,,,,,,,wg-a,,,,AAXX 12184 07558 12/// /3010 10150 21020 39284 40096 52002 60006 91800 333 10181 20055=
07558,1996-04-13 06:00:00,7,1014.3,0.9,66,1,20000,3.704,,,230,7,15,,,,,,,,,wg-a,,,,AAXX 13064 07558 12/70 42302 10070 20010 39306 40143 53009 60006 80002 90600 333 10150 20070=
07558,1996-04-13 12:00:00,17,1011.5,-0.4,39,3,0,29.632,,,320,,,,,,,,,,,wg-a,,,,AAXX 13124 07558 12/// /3216 10170 20030 39308 40115 57004 60006 91200=
07558,1996-04-13 18:00:00,14,1013.1,0.6,51,4,0,29.632,,,320,7.1,17.7,,,,,,,,,wg-a,,,,AAXX 13184 07558 12/// /3216 10140 20040 39313 40131 53006 60006 91800 333 10177 20071=
07558,1996-04-14 00:00:00,9,1016.3,-0,81,6,0,29.632,,,320,,,,,,,,,,,wg-a,,,,AAXX 14004 07558 12/// /3216 10090 20060 39330 40163 55000 60006 90000=
07558,1996-04-14 06:00:00,6,1019.7,1.6,93,5,12000,7.408,,,290,5.8,13.5,,,,,,,,,wg-a,,,,AAXX 14064 07558 12562 62904 10060 20050 39352 40197 53016 60006 83532 90600 333 10135 20058=
07558,1996-04-14 12:00:00,12,1018.3,-0.2,67,6,0,29.632,,,310,,,,,,,,,,,wg-a,,,,AAXX 14124 07558 12/// /3116 10120 20060 39357 40183 58002 60006 91200=
07558,1996-04-14 18:00:00,11,1018.3,0.8,66,5,0,46.3,,,300,,,,,,,,,,,wg-a,,,,AAXX 14184 07558 12/// /3025 10110 20050 39354 40183 53008 60006 91800=
07558,1996-04-15 00:00:00,7,1022.6,0.8,76,3,0,29.632,,,330,,,,,,,,,,,wg-a,,,,AAXX 15004 07558 12/// /3316 10070 20030 39380 40226 51008 60006 90000=
07558,1996-04-15 06:00:00,7,1022.8,0.3,76,3,15000,18.52,,,320,5.5,11,,,,,,,,,wg-a,,,,AAXX 15064 07558 12/65 43210 10070 20030 39382 40228 53003 60006 84030 90600 333 10110 20055=
07558,1996-04-15 12:00:00,14,1020.8,-0.4,33,-2,15000,18.52,,,320,,,,,,,,,,,wg-a,,,,AAXX 15124 07558 12565 33210 10140 21020 39385 40208 58004 60006 83100 91200=
07558,1996-04-15 18:00:00,13,1020.2,0.2,30,-4,0,29.632,,,320,6.5,16.4,,,,,,,,,wg-a,,,,AAXX 15184 07558 12/// /3216 10130 21040 39377 40202 53002 60006 91800 333 10164 20065=
07558,1996-04-16 00:00:00,6,1023.4,-0.5,45,-5,0,3.704,,,350,,,,,,,,,,,wg-a,,,,AAXX 16004 07558 12/// /3502 10060 21050 39386 40234 58005 60006 90000=
07558,1996-04-16 06:00:00,4,1020.6,-1.2,48,-6,500,14.816,,,40,2.1,13.4,,,,,,,,,wg-a,,,,AAXX 16064 07558 12/00 30408 10040 21060 39352 40206 56012 60006 80002 90600 333 10134 20021=
07558,1996-04-16 12:00:00,18,1012.5,-2,19,-6,500,22.224,,,140,,,,,,,,,,,wg-a,,,,AAXX 16124 07558 12/00 61412 10180 21060 39317 40125 58020 60006 80002 91200=
07558,1996-04-16 18:00:00,13,1011.2,-0.6,44,1,0,14.816,,,140,3.3,18.6,,,,,,,,,wg-a,,,,AAXX 16184 07558 12/// /1408 10130 20010 39293 40112 57006 60006 91800 333 10186 20033=
07558,1996-04-17 00:00:00,9,1011.4,-0.5,81,6,0,14.816,,,130,,,,,,,,,,,wg-a,,,,AAXX 17004 07558 12/// /1308 10090 20060 39285 40114 56005 60006 90000=
07558,1996-04-17 06:00:00,6,1012.8,1.6,93,5,8000,22.224,,,270,6.1,12.6,,10,,,10,,,61,wg-a,,,,AAXX 17064 07558 02158 82712 10060 20050 39290 40128 53016 60104 76162 887// 90600 333 10126 20061 60107=
07558,1996-04-17 12:00:00,7,1014.8,1,87,5,15000,29.632,,,300,,,,0,,,,,,25,wg-a,,,,AAXX 17124 07558 02465 83016 10070 20050 39312 40148 51010 60026 72586 878// 91200 333 60007=
07558,1996-04-17 18:00:00,8,1016.3,1.2,76,4,0,38.892,,,300,5.8,10,,,,,,,,,wg-a,,,,AAXX 17184 07558 32/// /3021 10080 20040 39326 40163 53012 91800 333 10100 20058=
07558,1996-04-18 00:00:00,6,1020,1.1,87,4,0,42.596,,,320,,,,,,,,,,,wg-a,,,,AAXX 18004 07558 12/// /3223 10060 20040 39356 40200 51011 60006 90000=
07558,1996-04-18 06:00:00,5,1021.9,1,93,4,20000,11.112,,,340,4.3,7.6,,,,,2,,,,wg-a,,,,AAXX 18064 07558 02570 23406 10050 20040 39369 40219 53010 60006 82500 90600 333 10076 20043 60024=
07558,1996-04-18 12:00:00,13,1018.7,-1,51,3,500,14.816,,,20,,,,,,,,,,,wg-a,,,,AAXX 18124 07558 12500 40208 10130 20030 39363 40187 58010 60006 83102 91200=
07558,1996-04-18 18:00:00,14,1017.4,0.1,58,6,0,18.52,,,240,4.8,16.7,,,,,,,,,wg-a,,,,AAXX 18184 07558 12/// /2410 10140 20060 39353 40174 53001 60006 91800 333 10167 20048=
07558,1996-04-19 00:00:00,9,1020.2,0,76,5,0,11.112,,,80,,,,,,,,,,,wg-a,,,,AAXX 19004 07558 12/// /0806 10090 20050 39366 40202 50000 60006 90000=
07558,1996-04-19 06:00:00,9,1020,0.3,71,4,25000,11.112,,,100,7.4,13.5,,,,,,,,,wg-a,,,,AAXX 19064 07558 12/75 21006 10090 20040 39364 40200 53003 60006 80002 90600 333 10135 20074=
07558,1996-04-19 12:00:00,17,1017.4,-0.6,32,0,500,35.188,,,140,,,,,,,,,,,wg-a,,,,AAXX 19124 07558 12/00 41419 10170 20000 39362 40174 58006 60006 80002 91200=
07558,1996-04-19 18:00:00,11,1018.3,-0.4,54,2,0,29.632,,,120,9,18,,,,,,,,,wg-a,,,,AAXX 19184 07558 12/// /1216 10110 20020 39354 40183 55004 60006 91800 333 10180 20090=
07558,1996-04-20 00:00:00,7,1019.5,-0.8,76,3,0,22.224,,,120,,,,,,,,,,,wg-a,,,,AAXX 20004 07558 12/// /1212 10070 20030 39354 40195 58008 60006 90000=
07558,1996-04-20 06:00:00,7,1018.7,0.2,81,4,20000,22.224,,,120,5.8,11.4,,,,,,,,,wg-a,,,,AAXX 20064 07558 12470 51212 10070 20040 39347 40187 53002 60006 83502 90600 333 10114 20058=
07558,1996-04-20 12:00:00,14,1016.1,-0.5,44,2,0,35.188,,,140,,,,,,,,,,,wg-a,,,,AAXX 20124 07558 12/// /1419 10140 20020 39342 40161 57005 60006 91200=
07558,1996-04-20 18:00:00,12,1015.3,-0.4,40,-1,0,29.632,,,140,7.3,14.7,,,,,,,,,wg-a,,,,AAXX 20184 07558 12/// /1416 10120 21010 39327 40153 57004 60006 91800 333 10147 20073=
07558,1996-04-21 00:00:00,9,1015.6,-0.4,71,4,0,29.632,,,120,,,,,,,,,,,wg-a,,,,AAXX 21004 07558 12/// /1216 10090 20040 39322 40156 58004 60006 90000=
07558,1996-04-21 06:00:00,10,1014.1,-0.1,57,2,15000,29.632,,,130,8.2,11.5,,,,,,,,,wg-a,,,,AAXX 21064 07558 12565 71316 10100 20020 39312 40141 55001 60006 81578 90600 333 10115 20082=
07558,1996-04-21 12:00:00,16,1012.3,0.1,45,4,0,46.3,,,130,,,,,,,,,,,wg-a,,,,AAXX 21124 07558 12/// /1325 10160 20040 39312 40123 50001 60006 91200=
07558,1996-04-21 18:00:00,12,1013.1,-0,54,3,0,42.596,,,120,9.7,17.2,,,,,,,,,wg-a,,,,AAXX 21184 07558 12/// /1223 10120 20030 39308 40131 55000 60006 91800 333 10172 20097=
07558,1996-04-22 06:00:00,11,1011.6,-0.1,71,6,12000,25.928,,,120,10.2,11.6,,,,,,,,,wg-a,,,,AAXX 22064 07558 12562 71214 10110 20060 39291 40116 55001 60006 875// 90600 333 10116 20102=
07558,1996-04-22 12:00:00,10,1011.9,-0,82,7,10000,38.892,,,120,,,,,,,,,,,wg-a,,,,AAXX 22124 07558 12460 71221 10100 20070 39294 40119 55000 60006 8557/ 91200=
07558,1996-04-22 18:00:00,9,1010,-1.2,93,8,0,61.116,,,130,8.9,11.2,,0,,,,,,,wg-a,,,,AAXX 22184 07558 12/// /1333 10090 20080 39273 40100 56012 60007 91800 333 10112 20089=
07558,1996-04-23 00:00:00,9,1010,-0.8,100,9,0,46.3,,,140,,,,4,,,,,,,wg-a,,,,AAXX 23004 07558 02/// /1425 10090 20090 39274 40100 58008 60046 90000 333 60047=
07558,1996-04-23 06:00:00,9,1012,1.7,93,8,6000,18.52,,,190,8.9,9.9,,2,,,6,,,61,wg-a,,,,AAXX 23064 07558 02156 81910 10090 20080 39291 40120 53017 60064 76162 877// 90600 333 10099 20089 60027=
07558,1996-04-23 12:00:00,9,1014.9,1,93,8,15000,14.816,,,350,,,,2,,,,,,21,wg-a,,,,AAXX 23124 07558 02265 83508 10090 20080 39317 40149 51010 60056 72162 878// 91200 333 60027=
07558,1996-04-23 18:00:00,9,1016.3,0.4,81,6,0,7.408,,,100,7.7,9.8,,,,,,,,,wg-a,,,,AAXX 23184 07558 32/// /1004 10090 20060 39330 40163 53004 91800 333 10098 20077=
07558,1996-04-24 00:00:00,5,1021.2,0.7,87,3,0,7.408,,,330,,,,,,,,,,,wg-a,,,,AAXX 24004 07558 12/// /3304 10050 20030 39363 40212 51007 60006 90000=
07558,1996-04-24 06:00:00,4,1022.3,0.7,93,3,500,3.704,,,330,3.5,8.9,,,,,5,,,,wg-a,,,,AAXX 24064 07558 02/00 03302 10040 20030 39370 40223 52007 60006 80000 90600 333 10089 20035 60054=
07558,1996-04-24 12:00:00,13,1021.1,0.4,51,3,500,29.632,,,330,,,,,,,,,,,wg-a,,,,AAXX 24124 07558 12500 43316 10130 20030 39385 40211 50004 60006 83201 91200=
07558,1996-04-24 18:00:00,11,1021.3,0.7,66,5,0,25.928,,,300,3.9,14.2,,,,,,,,,wg-a,,,,AAXX 24184 07558 12/// /3014 10110 20050 39383 40213 53007 60006 91800 333 10142 20039=
07558,1996-04-25 00:00:00,8,1023.5,-0.3,71,3,0,35.188,,,330,,,,,,,,,,,wg-a,,,,AAXX 25004 07558 12/// /3319 10080 20030 39392 40235 56003 60006 90000=
07558,1996-04-25 06:00:00,6,1024.4,0.6,75,2,500,25.928,,,350,4.8,11.4,,,,,,,,,wg-a,,,,AAXX 25064 07558 12/00 33514 10060 20020 39394 40244 51006 60006 80002 90600 333 10114 20048=
07558,1996-04-25 12:00:00,15,1020.6,-1,41,2,500,22.224,,,350,,,,,,,,,,,wg-a,,,,AAXX 25124 07558 12500 63512 10150 20020 39384 40206 56010 60006 84102 91200=
07558,1996-04-25 18:00:00,13,1019.8,0.8,47,2,0,25.928,,,360,5.5,16.1,,,,,,,,,wg-a,,,,AAXX 25184 07558 12/// /3614 10130 20020 39372 40198 53008 60006 91800 333 10161 20055=
07558,1996-04-26 00:00:00,8,1021.2,-1,66,2,0,31.484,,,10,,,,,,,,,,,wg-a,,,,AAXX 26004 07558 12/// /0117 10080 20020 39372 40212 58010 60006 90000=
07558,1996-04-26 06:00:00,7,1018.8,-0.6,76,3,500,22.224,,,20,5.7,12.6,,,,,,,,,wg-a,,,,AAXX 26064 07558 12/00 30212 10070 20030 39347 40188 56006 60006 80002 90600 333 10126 20057=
07558,1996-04-26 12:00:00,16,1014.5,-1.2,45,4,20000,7.408,,,190,,,,,,,,,,,wg-a,,,,AAXX 26124 07558 12670 71904 10160 20040 39331 40145 58012 60006 83172 91200=
07558,1996-04-26 18:00:00,11,1014.7,-0.5,82,8,0,11.112,,,240,7,16.4,,,,,,,,,wg-a,,,,AAXX 26184 07558 32/// /2406 10110 20080 39321 40147 58005 91800 333 10164 20070=
07558,1996-04-27 00:00:00,9,1014.8,-0.8,100,9,0,3.704,,,360,,,,,,,,,,,wg-a,,,,AAXX 27004 07558 12/// /3602 10090 20090 39317 40148 58008 60016 90000=
07558,1996-04-27 06:00:00,9,1013.4,-0,93,8,8000,7.408,,,30,8.5,10.8,,0,,,1,,,60,wg-a,,,,AAXX 27064 07558 02258 80304 10090 20080 39303 40134 55000 60014 7606/ 8657/ 90600 333 10108 20085 60007=
07558,1996-04-27 12:00:00,11,1012.3,-0.3,94,10,0,3.704,,,160,,,,,,,,,,,wg-a,,,,AAXX 27124 07558 12/// /1602 10110 20100 39300 40123 58003 60016 91200=
07558,1996-04-27 18:00:00,11,1011.2,0.2,94,10,0,11.112,,,160,8.6,13.2,,,,,,,,,wg-a,,,,AAXX 27184 07558 32/// /1606 10110 20100 39290 40112 53002 91800 333 10132 20086=
07558,1996-04-28 00:00:00,10,1011.3,-0.7,93,9,0,3.704,,,110,,,,,,,,,,,wg-a,,,,AAXX 28004 07558 12/// /1102 10100 20090 39289 40113 58007 60006 90000=
07558,1996-04-28 06:00:00,9,1009.9,-0.4,93,8,12000,3.704,,,20,9.2,11.1,,0,,,2,,,60,wg-a,,,,AAXX 28064 07558 02462 70202 10090 20080 39273 40099 55004 60024 76086 875// 90600 333 10111 20092 60007=
07558,1996-04-28 12:00:00,12,1007.8,-0.7,88,10,0,11.112,,,20,,,,,,,,,,,wg-a,,,,AAXX 28124 07558 12/// /0206 10120 20100 39261 40078 58007 60016 91200=
07558,1996-04-28 18:00:00,11,1006.6,-0.3,94,10,0,3.704,,,190,9.3,12.7,,,,,,,,,wg-a,,,,AAXX 28184 07558 32/// /1902 10110 20100 39246 40066 56003 91800 333 10127 20093=
07558,1996-04-29 00:00:00,9,1007,-0.6,100,9,0,0,,,0,,,,,,,,,,,wg-a,,,,AAXX 29004 07558 12/// /0000 10090 20090 39246 40070 58006 60016 90000=
07558,1996-04-29 06:00:00,10,1005.8,-0.2,93,9,1500,3.704,,,60,8.9,10.5,,,,,4,,,10,wg-a,,,,AAXX 29064 07558 12015 80602 10100 20090 39236 40058 55002 60044 71062 877// 90600 333 10105 20089=
07558,1996-04-29 12:00:00,13,1004.5,-0.8,82,10,15000,3.704,,,200,,,,0,,,,,,1,wg-a,,,,AAXX 29124 07558 02465 82002 10130 20100 39234 40045 58008 60006 70162 878// 91200 333 60007=
07558,1996-04-29 18:00:00,10,1004.6,-0,93,9,0,18.52,,,300,9.5,14.7,,,,,,,,,wg-a,,,,AAXX 29184 07558 32/// /3010 10100 20090 39226 40046 54000 91800 333 10147 20095=
07558,1996-04-30 00:00:00,9,1006.2,-0.1,100,9,0,11.112,,,260,,,,,,,,,,,wg-a,,,,AAXX 30004 07558 12/// /2606 10090 20090 39238 40062 58001 60026 90000=
07558,1996-04-30 06:00:00,9,1005.7,0.5,93,8,6000,11.112,,,280,8.3,9.9,,,,,4,,,,wg-a,,,,AAXX 30064 07558 12256 72806 10090 20080 39233 40057 53005 60044 875// 90600 333 10099 20083=
07558,1996-04-30 12:00:00,11,1005.1,-0.8,76,7,6000,11.112,,,240,,,,,,,,,,28,wg-a,,,,AAXX 30124 07558 12256 72406 10110 20070 39232 40051 58008 60006 72864 875// 91200=
07558,1996-04-30 18:00:00,12,1002.4,-0.6,62,5,0,14.816,,,280,7.6,13.8,,,,,,,,,wg-a,,,,AAXX 30184 07558 32/// /2808 10120 20050 39210 40024 55006 91800 333 10138 20076=
07558,1996-05-01 00:00:00,7,1004.4,-0.2,81,4,0,0,,,0,,,,,,,,,,,wg-a,,,,AAXX 01004 07558 12/// /0000 10070 20040 39215 40044 58002 60006 90000=
07558,1996-05-01 06:00:00,6,1003.3,-0.5,93,5,12000,3.704,,,270,5.5,13.8,,1,,,2,,,3,wg-a,,,,AAXX 01064 07558 02462 72702 10060 20050 39202 40033 55005 60024 7036/ 878// 90600 333 10138 20055 60017=
07558,1996-05-01 12:00:00,9,1001.8,-0.4,93,8,0,7.408,,,210,,,,,,,,,,,wg-a,,,,AAXX 01124 07558 12/// /2104 10090 20080 39199 40018 57004 60016 91200=
07558,1996-05-01 18:00:00,10,999.8,-0.1,76,6,0,11.112,,,190,5.8,12.4,,,,,,,,,wg-a,,,,AAXX 01184 07558 32/// /1906 10100 20060 39182 49998 58001 91800 333 10124 20058=
07558,1996-05-02 00:00:00,6,1001.2,-0.3,93,5,0,3.704,,,40,,,,,,,,,,,wg-a,,,,AAXX 02004 07558 12/// /0402 10060 20050 39184 40012 56003 60006 90000=
07558,1996-05-02 06:00:00,6,1000.4,0.6,93,5,10000,14.816,,,220,4.8,10.2,,,,,1,,,,wg-a,,,,AAXX 02064 07558 02460 72208 10060 20050 39175 40004 51006 60006 875// 90600 333 10102 20048 60014=
07558,1996-05-02 12:00:00,9,1000.6,-0.3,76,5,25000,11.112,,,260,,,,,,,,,,1,wg-a,,,,AAXX 02124 07558 12475 62606 10090 20050 39185 40006 58003 60026 70165 86800 91200=
07558,1996-05-02 18:00:00,4,1003.7,0.3,100,4,0,3.704,,,20,4,11,,,,,,,,,wg-a,,,,AAXX 02184 07558 32/// /0202 10040 20040 39201 40037 50003 91800 333 10110 20040=
07558,1996-05-03 00:00:00,4,1004.4,-0.3,100,4,0,14.816,,,210,,,,,,,,,,,wg-a,,,,AAXX 03004 07558 12/// /2108 10040 20040 39206 40044 58003 60016 90000=
07558,1996-05-03 06:00:00,5,1004,0.5,100,5,6000,29.632,,,230,2.8,4.7,,1,,,9,,,60,wg-a,,,,AAXX 03064 07558 02156 82316 10050 20050 39205 40040 53005 60094 76062 877// 90600 333 10047 20028 60017=
07558,1996-05-03 12:00:00,8,1005.7,1.1,93,7,8000,25.928,,,240,,,,1,,,,,,60,wg-a,,,,AAXX 03124 07558 02158 82414 10080 20070 39230 40057 51011 60016 76062 877// 91200 333 60017=
07558,1996-05-03 18:00:00,11,1006.9,0.9,66,5,0,14.816,,,270,4.6,11.3,,,,,,,,,wg-a,,,,AAXX 03184 07558 32/// /2708 10110 20050 39248 40069 52009 91800 333 10113 20046=
07558,1996-05-04 00:00:00,7,1011,0.7,87,5,0,7.408,,,340,,,,,,,,,,,wg-a,,,,AAXX 04004 07558 12/// /3404 10070 20050 39274 40110 51007 60006 90000=
07558,1996-05-04 06:00:00,6,1012.5,1.1,93,5,40000,7.408,,,10,4.3,11.3,,,,,3,,,,wg-a,,,,AAXX 04064 07558 02782 10104 10060 20050 39286 40125 53011 60006 81530 90600 333 10113 20043 60034=
07558,1996-05-04 12:00:00,15,1011.2,0.2,48,4,0,11.112,,,240,,,,,,,,,,,wg-a,,,,AAXX 04124 07558 12/// /2406 10150 20040 39300 40112 50002 60006 91200=
07558,1996-05-04 18:00:00,13,1011.8,0.5,62,6,0,3.704,,,170,5.5,16.6,,,,,,,,,wg-a,,,,AAXX 04184 07558 12/// /1702 10130 20060 39301 40118 51005 60006 91800 333 10166 20055=
07558,1996-05-05 00:00:00,8,1015,0.1,87,6,0,11.112,,,50,,,,,,,,,,,wg-a,,,,AAXX 05004 07558 12/// /0506 10080 20060 39315 40150 50001 60006 90000=
07558,1996-05-05 06:00:00,7,1014.8,0.3,87,5,50000,7.408,,,50,6.3,16.6,,,,,,,,,wg-a,,,,AAXX 05064 07558 12/84 70504 10070 20050 39312 40148 53003 60006 86022 90600 333 10166 20063=
07558,1996-05-05 12:00:00,17,1011.7,-0.7,39,3,0,25.928,,,140,,,,,,,,,,,wg-a,,,,AAXX 05124 07558 12/// /1414 10170 20030 39308 40117 58007 60006 91200=
07558,1996-05-05 18:00:00,13,1011.4,-0.1,58,5,0,22.224,,,160,7.4,17.6,,,,,,,,,wg-a,,,,AAXX 05184 07558 12/// /1612 10130 20050 39297 40114 55001 60006 91800 333 10176 20074=
07558,1996-05-06 00:00:00,9,1012.5,-0.7,87,7,0,22.224,,,120,,,,,,,,,,,wg-a,,,,AAXX 06004 07558 12/// /1212 10090 20070 39297 40125 58007 60006 90000=
07558,1996-05-06 06:00:00,10,1011,-0.1,93,9,20000,25.928,,,130,8.7,13.2,,,,,,,,,wg-a,,,,AAXX 06064 07558 12570 71314 10100 20090 39285 40110 55001 60006 878// 90600 333 10132 20087=
07558,1996-05-06 12:00:00,12,1009.9,-0.2,82,9,20000,31.484,,,140,,,,,,,,,,,wg-a,,,,AAXX 06124 07558 12470 81417 10120 20090 39282 40099 55002 60006 878// 91200=
07558,1996-05-06 18:00:00,12,1008.5,-0.4,82,9,0,38.892,,,130,10.1,13.5,,,,,,,,,wg-a,,,,AAXX 06184 07558 12/// /1321 10120 20090 39268 40085 55004 60006 91800 333 10135 20101=
07558,1996-05-07 00:00:00,10,1009,-0.5,87,8,0,25.928,,,120,,,,,,,,,,,wg-a,,,,AAXX 07004 07558 12/// /1214 10100 20080 39267 40090 56005 60006 90000=
07558,1996-05-07 06:00:00,11,1007.6,-0,82,8,500,31.484,,,120,9.9,13.5,,,,,,,,,wg-a,,,,AAXX 07064 07558 12400 71217 10110 20080 39256 40076 54000 60006 878// 90600 333 10135 20099=
07558,1996-05-07 12:00:00,11,1006.8,0.6,94,10,6000,31.484,,,130,,,,6,,,,,,63,wg-a,,,,AAXX 07124 07558 02356 81317 10110 20100 39248 40068 53006 60086 76386 882// 91200 333 60067=
07558,1996-05-07 18:00:00,12,1008.2,1.2,88,10,0,11.112,,,140,9.4,14.1,,,,,,,,,wg-a,,,,AAXX 07184 07558 32/// /1406 10120 20100 39266 40082 53012 91800 333 10141 20094=
07558,1996-05-08 00:00:00,10,1010.6,0.2,87,8,0,11.112,,,100,,,,,,,,,,,wg-a,,,,AAXX 08004 07558 12/// /1006 10100 20080 39282 40106 52002 60006 90000=
07558,1996-05-08 06:00:00,10,1011.2,0.8,87,8,15000,11.112,,,100,9.3,12.2,,,,,8,,,,wg-a,,,,AAXX 08064 07558 02465 71006 10100 20080 39288 40112 53008 60006 84582 90600 333 10122 20093 60084=
07558,1996-05-08 12:00:00,11,1011.8,0.4,82,8,0,29.632,,,180,,,,,,,,,,,wg-a,,,,AAXX 08124 07558 12/// /1816 10110 20080 39296 40118 53004 60006 91200=
07558,1996-05-08 18:00:00,13,1010.3,-0.3,82,10,0,11.112,,,230,10.3,16.1,,,,,,,,,wg-a,,,,AAXX 08184 07558 32/// /2306 10130 20100 39287 40103 56003 91800 333 10161 20103=
07558,1996-05-09 00:00:00,10,1011.4,-0.7,87,8,0,0,,,0,,,,,,,,,,,wg-a,,,,AAXX 09004 07558 12/// /0000 10100 20080 39288 40114 58007 60006 90000=
07558,1996-05-09 06:00:00,8,1010.5,-0.1,100,8,500,3.704,,,90,8.1,13,,,,,1,,,42,wg-a,,,,AAXX 09064 07558 02105 60902 10080 20080 39275 40105 55001 60006 7424/ 86500 90600 333 10130 20081 60014=
07558,1996-05-09 12:00:00,12,1007.8,-1.1,94,11,10000,3.704,,,140,,,,1,,,,,,25,wg-a,,,,AAXX 09124 07558 02460 71402 10120 20110 39262 40078 58011 60016 72584 8588/ 91200 333 60017=
07558,1996-05-09 18:00:00,11,1007.1,0.1,76,7,0,31.484,,,10,8.2,12.9,,,,,,,,,wg-a,,,,AAXX 09184 07558 32/// /0117 10110 20070 39251 40071 53001 91800 333 10129 20082=
07558,1996-05-10 00:00:00,6,1007.8,-0.9,87,4,0,22.224,,,10,,,,,,,,,,,wg-a,,,,AAXX 10004 07558 12/// /0112 10060 20040 39245 40078 57009 60006 90000=
07558,1996-05-10 06:00:00,7,1006,-0.1,87,5,500,11.112,,,20,5.1,12.9,,,,,3,,,,wg-a,,,,AAXX 10064 07558 12600 70206 10070 20050 39230 40060 55001 60034 878// 90600 333 10129 20051=
07558,1996-05-10 12:00:00,15,1002.7,-0.8,59,7,500,11.112,,,220,,,,,,,,,,,wg-a,,,,AAXX 10124 07558 12500 72206 10150 20070 39221 40027 58008 60006 872// 91200=
07558,1996-05-10 18:00:00,10,1005.1,1.4,93,9,0,7.408,,,110,7,15.8,,,,,,,,,wg-a,,,,AAXX 10184 07558 12/// /1104 10100 20090 39231 40051 53014 60006 91800 333 10158 20070=
07558,1996-05-11 00:00:00,8,1007.6,0.2,87,6,0,14.816,,,30,,,,,,,,,,,wg-a,,,,AAXX 11004 07558 12/// /0308 10080 20060 39247 40076 52002 60006 90000=
07558,1996-05-11 06:00:00,7,1007.6,0.1,87,5,20000,7.408,,,20,6.1,10.1,,,,,,,,,wg-a,,,,AAXX 11064 07558 12/70 60204 10070 20050 39246 40076 53001 60004 86070 90600 333 10101 20061=
07558,1996-05-11 12:00:00,14,1005.9,-0.1,72,9,0,18.52,,,240,,,,,,,,,,,wg-a,,,,AAXX 11124 07558 12/// /2410 10140 20090 39248 40059 56001 60006 91200=
07558,1996-05-11 18:00:00,9,1008.5,0.7,93,8,0,18.52,,,210,7.5,14.8,,,,,,,,,wg-a,,,,AAXX 11184 07558 32/// /2110 10090 20080 39258 40085 53007 91800 333 10148 20075=
07558,1996-05-12 00:00:00,6,1010.8,-0.1,100,6,0,7.408,,,210,,,,,,,,,,,wg-a,,,,AAXX 12004 07558 12/// /2104 10060 20060 39273 40108 58001 60016 90000=
07558,1996-05-12 06:00:00,7,1012.2,1.3,100,7,10000,14.816,,,320,6.4,8.7,,0,,,4,,,60,wg-a,,,,AAXX 12064 07558 02260 73208 10070 20070 39288 40122 53013 60044 76062 8377/ 90600 333 10087 20064 60007=
07558,1996-05-12 12:00:00,8,1015.7,1.7,81,5,0,38.892,,,300,,,,,,,,,,,wg-a,,,,AAXX 12124 07558 02/// /3021 10080 20050 39321 40157 53017 61000 91200 333 ////=
07558,1996-05-12 18:00:00,7,1018.3,0.8,87,5,0,35.188,,,300,6.8,8.9,,,,,,,,,wg-a,,,,AAXX 12184 07558 32/// /3019 10070 20050 39342 40183 51008 91800 333 10089 20068=
07558,1996-05-13 00:00:00,6,1020.6,0.3,81,3,0,31.484,,,320,,,,,,,,,,,wg-a,,,,AAXX 13004 07558 12/// /3217 10060 20030 39362 40206 53003 60006 90000=
07558,1996-05-13 06:00:00,6,1020.6,0.2,81,3,10000,31.484,,,300,5.3,6.9,,,,,,,,,wg-a,,,,AAXX 13064 07558 02460 73017 10060 20030 39359 40206 50002 60006 878// 90600 333 10069 20053 61000=
07558,1996-05-13 12:00:00,8,1019.2,-0.4,76,4,10000,31.484,,,300,,,,,,,,,,,wg-a,,,,AAXX 13124 07558 12460 83017 10080 20040 39354 40192 58004 60006 888// 91200=
07558,1996-05-13 18:00:00,7,1019.7,-0.1,81,4,0,29.632,,,330,5.5,9.2,,,,,,,,,wg-a,,,,AAXX 13184 07558 12/// /3316 10070 20040 39354 40197 56001 60006 91800 333 10092 20055=
07558,1996-05-14 00:00:00,6,1018.7,-1,81,3,0,14.816,,,290,,,,,,,,,,,wg-a,,,,AAXX 14004 07558 12/// /2908 10060 20030 39342 40187 56010 60006 90000=
07558,1996-05-14 06:00:00,6,1015.3,-0.8,87,4,500,3.704,,,270,4.8,6.6,,,,,,,,,wg-a,,,,AAXX 14064 07558 12/00 22702 10060 20040 39313 40153 56008 60006 80002 90600 333 10066 20048=
07558,1996-05-14 12:00:00,16,1010.3,-1.2,59,8,500,11.112,,,200,,,,,,,,,,,wg-a,,,,AAXX 14124 07558 12500 42006 10160 20080 39294 40103 57012 60006 82102 91200=
07558,1996-05-14 18:00:00,15,1009.2,-0.2,72,10,0,18.52,,,250,6,18.5,,,,,,,,,wg-a,,,,AAXX 14184 07558 12/// /2510 10150 20100 39283 40092 57002 60006 91800 333 10185 20060=
07558,1996-05-15 00:00:00,9,1011.3,-0.6,93,8,0,7.408,,,200,,,,,,,,,,,wg-a,,,,AAXX 15004 07558 12/// /2004 10090 20080 39285 40113 58006 60006 90000=
07558,1996-05-15 06:00:00,8,1011,-0,100,8,6000,3.704,,,10,7.7,18.5,,,,,,,,,wg-a,,,,AAXX 15064 07558 12556 10102 10080 20080 39280 40110 54000 60006 81501 90600 333 10185 20077=
07558,1996-05-15 12:00:00,18,1007.7,-0.4,64,11,50000,14.816,,,220,,,,,,,,,,,wg-a,,,,AAXX 15124 07558 12684 22208 10180 20110 39278 40077 57004 60006 82200 91200=
07558,1996-05-15 18:00:00,19,1006.2,-0.4,49,8,0,7.408,,,240,8.4,20.6,,,,,,,,,wg-a,,,,AAXX 15184 07558 12/// /2404 10190 20080 39266 40062 56004 60006 91800 333 10206 20084=
07558,1996-05-16 00:00:00,12,1009.8,0.1,76,8,0,14.816,,,90,,,,,,,,,,,wg-a,,,,AAXX 16004 07558 12/// /0908 10120 20080 39280 40098 50001 60006 90000=
07558,1996-05-16 06:00:00,12,1009.3,-0.3,71,7,500,18.52,,,110,10.8,19.3,,,,,,,,,wg-a,,,,AAXX 16064 07558 12/00 01110 10120 20070 39274 40093 56003 60006 80000 90600 333 10193 20108=
07558,1996-05-16 12:00:00,17,1008.6,-1.2,63,10,0,35.188,,,140,,,,,,,,,,,wg-a,,,,AAXX 16124 07558 12/// /1419 10170 20100 39281 40086 58012 60006 91200=
07558,1996-05-16 18:00:00,13,1009.7,0.2,77,9,0,31.484,,,140,11.9,17.9,,,,,,,,,wg-a,,,,AAXX 16184 07558 12/// /1417 10130 20090 39280 40097 53002 60006 91800 333 10179 20119=
07558,1996-05-17 00:00:00,11,1012.4,0.8,94,10,0,14.816,,,190,,,,,,,,,,,wg-a,,,,AAXX 17004 07558 12/// /1908 10110 20100 39302 40124 53008 60016 90000=
07558,1996-05-17 06:00:00,10,1010.1,-0.2,100,10,10000,25.928,,,110,9.7,12.6,,,,,3,,,2,wg-a,,,,AAXX 17064 07558 12260 71114 10100 20100 39278 40101 57002 60034 7026/ 877// 90600 333 10126 20097=
07558,1996-05-17 12:00:00,12,1009.4,-0.4,94,11,10000,25.928,,,130,,,,,,,,,,,wg-a,,,,AAXX 17124 07558 12260 81314 10120 20110 39276 40094 58004 60006 877// 91200=
07558,1996-05-17 18:00:00,13,1006.3,-1.1,82,10,0,29.632,,,130,10.2,16,,,,,,,,,wg-a,,,,AAXX 17184 07558 12/// /1316 10130 20100 39251 40063 56011 60006 91800 333 10160 20102=
07558,1996-05-18 00:00:00,12,1006.4,-0.8,94,11,0,22.224,,,130,,,,,,,,,,,wg-a,,,,AAXX 18004 07558 12/// /1312 10120 20110 39248 40064 58008 60006 90000=
07558,1996-05-18 06:00:00,13,1004.3,0.4,88,11,12000,22.224,,,130,11.5,16,,,,,,,,,wg-a,,,,AAXX 18064 07558 12462 71312 10130 20110 39231 40043 50004 60006 872// 90600 333 10160 20115=
07558,1996-05-18 12:00:00,13,1004.3,-0.1,94,12,0,25.928,,,140,,,,,,,,,,,wg-a,,,,AAXX 18124 07558 12/// /1414 10130 20120 39232 40043 58001 60006 91200=
07558,1996-05-18 18:00:00,13,1004.7,1.9,94,12,0,25.928,,,150,12.6,13.7,,,,,,,,,wg-a,,,,AAXX 18184 07558 32/// /1514 10130 20120 39235 40047 51019 91800 333 10137 20126=
07558,1996-05-19 06:00:00,6,1010.3,1.6,93,5,15000,7.408,,,30,5.4,13.7,,1,,,19,,,1,wg-a,,,,AAXX 19064 07558 02465 80304 10060 20050 39265 40103 53016 60194 70164 888// 90600 333 10137 20054 60017=
07558,1996-05-19 12:00:00,10,1010.2,0.4,71,5,0,22.224,,,310,,,,,,,,,,,wg-a,,,,AAXX 19124 07558 12/// /3112 10100 20050 39277 40102 51004 60006 91200=
07558,1996-05-19 18:00:00,12,1009.3,-0,54,3,0,18.52,,,290,5.9,13,,,,,,,,,wg-a,,,,AAXX 19184 07558 12/// /2910 10120 20030 39274 40093 54000 60006 91800 333 10130 20059=
07558,1996-05-20 00:00:00,7,1012.8,-0,81,4,0,3.704,,,20,,,,,,,,,,,wg-a,,,,AAXX 20004 07558 12/// /0202 10070 20040 39293 40128 55000 60006 90000=
07558,1996-05-20 06:00:00,7,1015,1.3,81,4,15000,3.704,,,10,4.2,12,,,,,,,,,wg-a,,,,AAXX 20064 07558 12565 60102 10070 20040 39313 40150 53013 60006 82572 90600 333 10120 20042=
07558,1996-05-20 12:00:00,12,1017.5,1.2,67,6,15000,29.632,,,220,,,,,,,,,,,wg-a,,,,AAXX 20124 07558 12565 52216 10120 20060 39350 40175 52012 60006 85200 91200=
07558,1996-05-20 18:00:00,12,1019,0.9,67,6,0,22.224,,,280,6.1,14.6,,,,,,,,,wg-a,,,,AAXX 20184 07558 12/// /2812 10120 20060 39365 40190 53009 60006 91800 333 10146 20061=
07558,1996-05-21 00:00:00,7,1023.3,0.2,81,4,0,3.704,,,330,,,,,,,,,,,wg-a,,,,AAXX 21004 07558 12/// /3302 10070 20040 39389 40233 53002 60006 90000=
07558,1996-05-21 06:00:00,7,1024.8,1.4,87,5,60000,14.816,,,350,4.8,14.6,,,,,,,,,wg-a,,,,AAXX 21064 07558 12486 13508 10070 20050 39402 40248 53014 60006 81201 90600 333 10146 20048=
07558,1996-05-21 12:00:00,13,1024.2,0.7,62,6,60000,31.484,,,260,,,,,,,,,,,wg-a,,,,AAXX 21124 07558 12586 62617 10130 20060 39414 40242 51007 60006 86800 91200=
07558,1996-05-21 18:00:00,10,1026.4,0.8,76,6,0,25.928,,,310,6.7,14.4,,,,,,,,,wg-a,,,,AAXX 21184 07558 12/// /3114 10100 20060 39424 40264 51008 60006 91800 333 10144 20067=
07558,1996-05-22 00:00:00,6,1029.5,0.1,93,5,0,14.816,,,320,,,,,,,,,,,wg-a,,,,AAXX 22004 07558 12/// /3208 10060 20050 39443 40295 53001 60006 90000=
07558,1996-05-22 06:00:00,6,1028.2,-0.2,93,5,500,7.408,,,100,4.3,9.8,,,,,,,,,wg-a,,,,AAXX 22064 07558 12400 31004 10060 20050 39429 40282 55002 60004 81502 90600 333 10098 20043=
07558,1996-05-22 12:00:00,16,1024.4,-0.7,55,7,500,7.408,,,260,,,,,,,,,,,wg-a,,,,AAXX 22124 07558 12500 62604 10160 20070 39424 40244 58007 60006 81102 91200=
07558,1996-05-22 18:00:00,17,1023.1,-0.2,36,2,0,22.224,,,310,5.5,18.9,,,,,,,,,wg-a,,,,AAXX 22184 07558 12/// /3112 10170 20020 39413 40231 56002 60006 91800 333 10189 20055=
07558,1996-05-23 00:00:00,11,1025.6,-0.2,66,5,0,11.112,,,310,,,,,,,,,,,wg-a,,,,AAXX 23004 07558 12/// /3106 10110 20050 39422 40256 58002 60006 90000=
07558,1996-05-23 06:00:00,11,1025.7,0.5,87,9,40000,18.52,,,300,10.5,16.6,,,,,,,,,wg-a,,,,AAXX 23064 07558 12482 73010 10110 20090 39423 40257 51005 60006 8683/ 90600 333 10166 20105=
07558,1996-05-23 12:00:00,19,1022.4,-0.9,52,9,60000,22.224,,,320,,,,,,,,,,,wg-a,,,,AAXX 23124 07558 12686 13212 10190 20090 39415 40224 58009 60006 81101 91200=
07558,1996-05-23 18:00:00,20,1019.4,-0.9,49,9,0,11.112,,,300,11.2,21.4,,,,,,,,,wg-a,,,,AAXX 23184 07558 12/// /3006 10200 20090 39389 40194 56009 60006 91800 333 10214 20112=
07558,1996-05-24 00:00:00,14,1020.7,-0.7,67,8,0,7.408,,,350,,,,,,,,,,,wg-a,,,,AAXX 24004 07558 12/// /3504 10140 20080 39384 40207 58007 60006 90000=
07558,1996-05-24 06:00:00,14,1019.4,0.1,72,9,50000,3.704,,,40,11.1,19.9,,,,,,,,,wg-a,,,,AAXX 24064 07558 12/84 00402 10140 20090 39372 40194 53001 60006 80000 90600 333 10199 20111=
07558,1996-05-24 12:00:00,22,1015.9,-0.7,50,11,500,31.484,,,140,,,,,,,,,,,wg-a,,,,AAXX 24124 07558 12500 31417 10220 20110 39362 40159 58007 60006 83200 91200=
07558,1996-05-24 18:00:00,18,1015.2,-0.4,56,9,0,14.816,,,140,13.6,22.6,,,,,,,,,wg-a,,,,AAXX 24184 07558 12/// /1408 10180 20090 39345 40152 55004 60006 91800 333 10226 20136=
07558,1996-05-25 00:00:00,13,1018.1,0.5,88,11,0,25.928,,,330,,,,,,,,,,,wg-a,,,,AAXX 25004 07558 12/// /3314 10130 20110 39359 40181 53005 60026 90000=
07558,1996-05-25 06:00:00,12,1016.8,-0.2,100,12,6000,0,,,0,11.6,18,,,,,6,,,3,wg-a,,,,AAXX 25064 07558 12256 70000 10120 20120 39345 40168 55002 60064 70398 8657/ 90600 333 10180 20116=
07558,1996-05-25 12:00:00,16,1016.7,0.5,82,13,0,7.408,,,250,,,,,,,,,,,wg-a,,,,AAXX 25124 07558 12/// /2504 10160 20130 39354 40167 53005 60006 91200=
07558,1996-05-25 18:00:00,17,1016.9,0.7,68,11,0,18.52,,,290,12.2,19,,,,,,,,,wg-a,,,,AAXX 25184 07558 12/// /2910 10170 20110 39359 40169 53007 60006 91800 333 10190 20122=
07558,1996-05-26 00:00:00,14,1019.3,0.2,82,11,0,29.632,,,290,,,,0,,,,,,,wg-a,,,,AAXX 26004 07558 02/// /2916 10140 20110 39372 40193 53002 60006 90000 333 60007=
07558,1996-05-26 06:00:00,12,1020.5,1.3,88,10,15000,29.632,,,300,12,17.1,,0,,,,,,1,wg-a,,,,AAXX 26064 07558 02465 73016 10120 20100 39379 40205 53013 60004 7018/ 85532 90600 333 10171 20120 60007=
07558,1996-05-26 12:00:00,16,1021.2,-0,68,10,0,31.484,,,290,,,,,,,,,,,wg-a,,,,AAXX 26124 07558 12/// /2917 10160 20100 39396 40212 54000 60006 91200=
07558,1996-05-26 18:00:00,16,1020.9,-0.3,68,10,0,29.632,,,290,12,18.1,,,,,,,,,wg-a,,,,AAXX 26184 07558 12/// /2916 10160 20100 39392 40209 56003 60006 91800 333 10181 20120=
07558,1996-05-27 00:00:00,13,1021.5,-0.5,77,9,0,29.632,,,290,,,,,,,,,,,wg-a,,,,AAXX 27004 07558 12/// /2916 10130 20090 39390 40215 56005 60006 90000=
07558,1996-05-27 06:00:00,12,1020.5,-0.6,88,10,8000,25.928,,,260,11.5,15.9,,,,,,,,,wg-a,,,,AAXX 27064 07558 12458 72614 10120 20100 39377 40205 55006 60006 875// 90600 333 10159 20115=
07558,1996-05-27 12:00:00,15,1019.5,-0.2,63,8,0,38.892,,,280,,,,,,,,,,,wg-a,,,,AAXX 27124 07558 12/// /2821 10150 20080 39378 40195 58002 60006 91200=
07558,1996-05-27 18:00:00,14,1020.1,0.6,67,8,0,38.892,,,300,11.7,16.9,,,,,,,,,wg-a,,,,AAXX 27184 07558 12/// /3021 10140 20080 39379 40201 53006 60006 91800 333 10169 20117=
07558,1996-05-28 00:00:00,10,1023.3,0.1,82,7,0,22.224,,,310,,,,,,,,,,,wg-a,,,,AAXX 28004 07558 12/// /3112 10100 20070 39398 40233 53001 60006 90000=
07558,1996-05-28 06:00:00,9,1023.9,1,87,7,20000,31.484,,,300,8.1,16.9,,,,,,,,,wg-a,,,,AAXX 28064 07558 12470 73017 10090 20070 39401 40239 53010 60006 878// 90600 333 10169 20081=
07558,1996-05-28 12:00:00,14,1022.8,-0.1,67,8,60000,31.484,,,330,,,,,,,,,,,wg-a,,,,AAXX 28124 07558 12686 53317 10140 20080 39405 40228 58001 60006 858/1 91200=
07558,1996-05-28 18:00:00,16,1020.3,-0.6,55,7,0,31.484,,,320,9.1,17.6,,,,,,,,,wg-a,,,,AAXX 28184 07558 12/// /3217 10160 20070 39388 40203 56006 60006 91800 333 10176 20091=
07558,1996-05-29 00:00:00,9,1023.5,-0.6,81,6,0,18.52,,,350,,,,,,,,,,,wg-a,,,,AAXX 29004 07558 12/// /3510 10090 20060 39397 40235 57006 60006 90000=
07558,1996-05-29 06:00:00,11,1021.9,0.4,58,3,50000,3.704,,,20,8.6,16.5,,,,,,,,,wg-a,,,,AAXX 29064 07558 12/84 00202 10110 20030 39388 40219 53004 60006 80000 90600 333 10165 20086=
07558,1996-05-29 12:00:00,23,1018.1,-0.5,29,4,50000,7.408,,,30,,,,,,,,,,,wg-a,,,,AAXX 29124 07558 12/84 00304 10230 20040 39383 40181 58005 60006 80000 91200=
07558,1996-05-29 18:00:00,24,1015.9,-0.3,41,10,0,11.112,,,320,11.3,25,,,,,,,,,wg-a,,,,AAXX 29184 07558 12/// /3206 10240 20100 39367 40159 55003 60006 91800 333 10250 20113=
07558,1996-05-30 00:00:00,15,1020.6,0.2,44,3,0,7.408,,,120,,,,,,,,,,,wg-a,,,,AAXX 30004 07558 12/// /1204 10150 20030 39385 40206 50002 60006 90000=
07558,1996-05-30 06:00:00,15,1019.9,-0,51,5,40000,3.704,,,30,12.3,23.7,,,,,,,,,wg-a,,,,AAXX 30064 07558 12/82 00302 10150 20050 39380 40199 55000 60006 80000 90600 333 10237 20123=
07558,1996-05-30 12:00:00,21,1019,0,30,3,50000,35.188,,,140,,,,,,,,,,,wg-a,,,,AAXX 30124 07558 12/84 01419 10210 20030 39388 40190 50000 60006 80000 91200=
07558,1996-05-30 18:00:00,18,1020,0.1,37,3,0,22.224,,,140,15.1,22.2,,,,,,,,,wg-a,,,,AAXX 30184 07558 12/// /1412 10180 20030 39388 40200 53001 60006 91800 333 10222 20151=
07558,1996-05-31 00:00:00,14,1022.2,0,33,-2,0,14.816,,,100,,,,,,,,,,,wg-a,,,,AAXX 31004 07558 12/// /1008 10140 21020 39396 40222 50000 60006 90000=
07558,1996-05-31 06:00:00,14,1023.2,1,41,1,60000,3.704,,,30,12.8,22.2,,,,,,,,,wg-a,,,,AAXX 31064 07558 12/86 00302 10140 20010 39407 40232 53010 60006 80000 90600 333 10222 20128=
07558,1996-05-31 12:00:00,22,1020.4,-0.9,41,8,60000,7.408,,,210,,,,,,,,,,,wg-a,,,,AAXX 31124 07558 12/86 12104 10220 20080 39404 40204 58009 60006 81081 91200=
07558,1996-05-31 18:00:00,20,1019,-0.4,43,7,0,18.52,,,150,14,25,,,,,,,,,wg-a,,,,AAXX 31184 07558 12/// /1510 10200 20070 39386 40190 55004 60006 91800 333 10250 20140=
07558,1996-06-01 00:00:00,14,1022.4,-0.6,94,13,0,14.816,,,20,,,,,,,,,,,wg-a,,,,AAXX 01004 07558 12/// /0208 10140 20130 39402 40224 58006 60006 90000=
07558,1996-06-01 06:00:00,13,1022.8,0.7,94,12,20000,14.816,,,320,12.9,20.5,,,,,,,,,wg-a,,,,AAXX 01064 07558 12270 83208 10130 20120 39402 40228 53007 60006 8457/ 90600 333 10205 20129=
07558,1996-06-01 12:00:00,15,1021.6,-1.2,82,12,0,22.224,,,340,,,,,,,,,,,wg-a,,,,AAXX 01124 07558 02/// /3412 10150 20120 39396 40216 58012 61000 91200 333 ////=
07558,1996-06-01 18:00:00,11,1021.2,-1.3,94,10,0,11.112,,,350,10.7,14.9,,,,,,,,,wg-a,,,,AAXX 01184 07558 32/// /3506 10110 20100 39381 40212 58013 91800 333 10149 20107=
07558,1996-06-02 00:00:00,9,1020.3,-1.6,93,8,0,7.408,,,220,,,,,,,,,,,wg-a,,,,AAXX 02004 07558 12/// /2204 10090 20080 39367 40203 57016 60006 90000=
07558,1996-06-02 06:00:00,9,1017.1,-0.8,100,9,1500,3.704,,,240,8.4,10.8,,1,,,7,,,60,wg-a,,,,AAXX 02064 07558 02015 82402 10090 20090 39337 40171 56008 60074 760// 877// 90600 333 10108 20084 60017=
07558,1996-06-02 12:00:00,11,1014.1,-0.9,100,11,0,7.408,,,230,,,,,,,,,,,wg-a,,,,AAXX 02124 07558 12/// /2304 10110 20110 39315 40141 56009 60086 91200=
07558,1996-06-02 18:00:00,10,1014.1,0.3,87,8,0,25.928,,,320,8.7,11,,,,,,,,,wg-a,,,,AAXX 02184 07558 32/// /3214 10100 20080 39313 40141 53003 91800 333 10110 20087=
07558,1996-06-03 00:00:00,9,1016.3,0.6,87,7,0,11.112,,,320,,,,,,,,,,,wg-a,,,,AAXX 03004 07558 12/// /3206 10090 20070 39331 40163 53006 60006 90000=
07558,1996-06-03 06:00:00,10,1017.8,1.3,87,8,8000,18.52,,,310,8.6,11,,,,,10,,,3,wg-a,,,,AAXX 03064 07558 12458 73110 10100 20080 39347 40178 51013 60104 7038/ 878// 90600 333 10110 20086=
07558,1996-06-03 12:00:00,14,1018.7,0.6,72,9,40000,25.928,,,330,,,,,,,,,,,wg-a,,,,AAXX 03124 07558 12482 73314 10140 20090 39367 40187 53006 60006 878// 91200=
07558,1996-06-04 00:00:00,10,1023.3,0.4,87,8,0,22.224,,,340,,,,,,,,,,,wg-a,,,,AAXX 04004 07558 12/// /3412 10100 20080 39398 40233 50004 60006 90000=
07558,1996-06-04 06:00:00,13,1023.7,1,77,9,25000,18.52,,,360,9.7,13.9,,,,,,,,,wg-a,,,,AAXX 04064 07558 12/75 23610 10130 20090 39409 40237 51010 60006 82030 90600 333 10139 20097=
07558,1996-06-04 12:00:00,20,1021.6,-0.3,53,10,500,11.112,,,320,,,,,,,,,,,wg-a,,,,AAXX 04124 07558 12500 43206 10200 20100 39411 40216 57003 60006 84100 91200=
07558,1996-06-04 18:00:00,21,1021,-0.1,53,11,0,18.52,,,350,12.7,22.6,,,,,,,,,wg-a,,,,AAXX 04184 07558 12/// /3510 10210 20110 39406 40210 55001 60006 91800 333 10226 20127=
07558,1996-06-05 00:00:00,14,1023.4,-0.1,77,10,0,18.52,,,20,,,,,,,,,,,wg-a,,,,AAXX 05004 07558 12/// /0210 10140 20100 39411 40234 58001 60006 90000=
07558,1996-06-05 06:00:00,15,1023.3,0.6,77,11,20000,7.408,,,30,12.5,20.5,,,,,,,,,wg-a,,,,AAXX 05064 07558 12/70 00304 10150 20110 39411 40233 53006 60006 80000 90600 333 10205 20125=
07558,1996-06-05 12:00:00,25,1020,-0.3,44,12,20000,14.816,,,130,,,,,,,,,,,wg-a,,,,AAXX 05124 07558 12570 11308 10250 20120 39408 40200 58003 60006 81100 91200=
07558,1996-06-05 18:00:00,23,1020.1,-0.3,44,10,0,11.112,,,170,14.3,25.9,,,,,,,,,wg-a,,,,AAXX 05184 07558 12/// /1706 10230 20100 39403 40201 55003 60006 91800 333 10259 20143=
07558,1996-06-06 00:00:00,17,1022.4,0,59,9,0,7.408,,,70,,,,,,,,,,,wg-a,,,,AAXX 06004 07558 12/// /0704 10170 20090 39408 40224 50000 60006 90000=
07558,1996-06-06 06:00:00,17,1022.4,0.5,63,10,500,7.408,,,40,14.3,22.8,,,,,,,,,wg-a,,,,AAXX 06064 07558 12/00 00404 10170 20100 39408 40224 53005 60006 80000 90600 333 10228 20143=
07558,1996-06-06 12:00:00,25,1020.2,-0.1,54,15,500,25.928,,,140,,,,,,,,,,,wg-a,,,,AAXX 06124 07558 12600 21414 10250 20150 39410 40202 58001 60006 82100 91200=
07558,1996-06-06 18:00:00,22,1020,-0.5,50,11,0,25.928,,,140,16.6,25.1,,,,,,,,,wg-a,,,,AAXX 06184 07558 12/// /1414 10220 20110 39400 40200 56005 60006 91800 333 10251 20166=
07558,1996-06-07 00:00:00,18,1021.3,-0.4,64,11,0,14.816,,,100,,,,,,,,,,,wg-a,,,,AAXX 07004 07558 12/// /1008 10180 20110 39402 40213 58004 60006 90000=
07558,1996-06-07 06:00:00,18,1021,0.5,64,11,20000,18.52,,,110,16.4,21.9,,,,,,,,,wg-a,,,,AAXX 07064 07558 12/70 01110 10180 20110 39398 40210 53005 60006 80000 90600 333 10219 20164=
07558,1996-06-07 12:00:00,24,1018.7,-0.5,50,13,20000,35.188,,,150,,,,,,,,,,,wg-a,,,,AAXX 07124 07558 12/70 01519 10240 20130 39393 40187 58005 60006 80000 91200=
07558,1996-06-07 18:00:00,20,1018.9,-0.2,56,11,0,31.484,,,140,17.6,24.1,,,,,,,,,wg-a,,,,AAXX 07184 07558 12/// /1417 10200 20110 39386 40189 58002 60006 91800 333 10241 20176=
07558,1996-06-08 00:00:00,15,1020.9,0.1,77,11,0,14.816,,,120,,,,,,,,,,,wg-a,,,,AAXX 08004 07558 12/// /1208 10150 20110 39391 40209 53001 60006 90000=
07558,1996-06-08 06:00:00,15,1022.5,0.5,82,12,10000,7.408,,,50,13.1,24.1,,,,,,,,,wg-a,,,,AAXX 08064 07558 12/60 00504 10150 20120 39405 40225 53005 60006 80000 90600 333 10241 20131=
07558,1996-06-08 12:00:00,20,1020.7,-0,68,14,0,18.52,,,160,,,,,,,,,,,wg-a,,,,AAXX 08124 07558 12/// /1610 10200 20140 39403 40207 55000 60006 91200=
07558,1996-06-08 18:00:00,21,1019.5,-0.5,69,15,0,7.408,,,260,14.7,22.6,,,,,,,,,wg-a,,,,AAXX 08184 07558 12/// /2604 10210 20150 39394 40195 56005 60006 91800 333 10226 20147=
07558,1996-06-09 00:00:00,16,1021.8,-0.2,88,14,0,7.408,,,20,,,,,,,,,,,wg-a,,,,AAXX 09004 07558 12/// /0204 10160 20140 39403 40218 58002 60006 90000=
07558,1996-06-09 06:00:00,16,1021.7,0.2,88,14,10000,3.704,,,350,14.4,22.6,,,,,,,,,wg-a,,,,AAXX 09064 07558 12/60 13502 10160 20140 39400 40217 51002 60006 80001 90600 333 10226 20144=
07558,1996-06-09 12:00:00,24,1018.9,-0.6,50,13,0,11.112,,,190,,,,,,,,,,,wg-a,,,,AAXX 09124 07558 12/// /1906 10240 20130 39396 40189 58006 60006 91200=
07558,1996-06-09 18:00:00,20,1019.2,1.4,68,14,0,7.408,,,20,15.6,25.8,,,,,,,,,wg-a,,,,AAXX 09184 07558 32/// /0204 10200 20140 39388 40192 52014 91800 333 10258 20156=
07558,1996-06-10 00:00:00,16,1021.2,-0.3,88,14,0,3.704,,,40,,,,,,,,,,,wg-a,,,,AAXX 10004 07558 12/// /0402 10160 20140 39397 40212 58003 60006 90000=
07558,1996-06-10 06:00:00,16,1022.3,1.2,82,13,20000,7.408,,,40,14.6,19.6,,,,,,,,,wg-a,,,,AAXX 10064 07558 02/70 00404 10160 20130 39407 40223 53012 60006 80000 90600 333 10196 20146 60004=
07558,1996-06-10 12:00:00,26,1019,-0.7,42,12,500,11.112,,,200,,,,,,,,,,,wg-a,,,,AAXX 10124 07558 12600 32006 10260 20120 39402 40190 58007 60006 82202 91200=
07558,1996-06-10 18:00:00,23,1019.3,0.3,57,14,0,7.408,,,60,16.3,28.2,,,,,,,,,wg-a,,,,AAXX 10184 07558 12/// /0604 10230 20140 39398 40193 53003 60006 91800 333 10282 20163=
07558,1996-06-11 00:00:00,18,1022.7,0,77,14,0,3.704,,,350,,,,,,,,,,,wg-a,,,,AAXX 11004 07558 12/// /3502 10180 20140 39416 40227 50000 60006 90000=
07558,1996-06-11 06:00:00,17,1024.1,1.1,82,14,20000,3.704,,,360,14.9,23.2,,,,,,,,,wg-a,,,,AAXX 11064 07558 12/70 03602 10170 20140 39425 40241 53011 60006 80000 90600 333 10232 20149=
07558,1996-06-11 12:00:00,28,1021.5,-0.4,45,15,15000,11.112,,,240,,,,,,,,,,,wg-a,,,,AAXX 11124 07558 12565 32406 10280 20150 39429 40215 58004 60006 83200 91200=
07558,1996-06-11 18:00:00,24,1022.1,0.7,57,15,0,11.112,,,350,16.8,28,,,,,,,,,wg-a,,,,AAXX 11184 07558 12/// /3506 10240 20150 39426 40221 51007 60006 91800 333 10280 20168=
07558,1996-06-12 00:00:00,19,1025.1,-0.1,78,15,0,7.408,,,40,,,,,,,,,,,wg-a,,,,AAXX 12004 07558 12/// /0404 10190 20150 39439 40251 58001 60006 90000=
07558,1996-06-12 06:00:00,16,1026.8,1.3,94,15,2000,11.112,,,190,15.2,28,,,,,,,,10,wg-a,,,,AAXX 12064 07558 12120 11906 10160 20150 39448 40268 53013 60006 710// 81600 90600 333 10280 20152=
07558,1996-06-12 12:00:00,26,1023.2,-1,61,18,15000,18.52,,,250,,,,,,,,,,3,wg-a,,,,AAXX 12124 07558 12565 12510 10260 20180 39442 40232 58010 60006 70341 81900 91200=
07558,1996-06-12 18:00:00,25,1021.8,-0.4,61,17,0,29.632,,,320,15.8,27.4,,,,,,,,,wg-a,,,,AAXX 12184 07558 12/// /3216 10250 20170 39426 40218 55004 60006 91800 333 10274 20158=
07558,1996-06-13 00:00:00,18,1025.2,-0.2,77,14,0,29.632,,,10,,,,,,,,,,,wg-a,,,,AAXX 13004 07558 12/// /0116 10180 20140 39439 40252 58002 60006 90000=
07558,1996-06-13 06:00:00,17,1024.7,0.1,72,12,20000,18.52,,,20,15.4,24.6,,,,,,,,,wg-a,,,,AAXX 13064 07558 12/70 00210 10170 20120 39430 40247 53001 60006 80000 90600 333 10246 20154=
07558,1996-06-13 12:00:00,23,1022,-0.4,50,12,20000,25.928,,,350,,,,,,,,,,,wg-a,,,,AAXX 13124 07558 12570 13514 10230 20120 39422 40220 58004 60006 81100 91200=
07558,1996-06-13 18:00:00,22,1019.6,-0.5,50,11,0,31.484,,,350,16.7,25.4,,,,,,,,,wg-a,,,,AAXX 13184 07558 12/// /3517 10220 20110 39398 40196 55005 60006 91800 333 10254 20167=
07558,1996-06-14 00:00:00,15,1022.1,-0.8,59,7,0,31.484,,,10,,,,,,,,,,,wg-a,,,,AAXX 14004 07558 12/// /0117 10150 20070 39399 40221 58008 60006 90000=
07558,1996-06-14 06:00:00,14,1021.3,-0.2,63,7,40000,22.224,,,20,12,25.4,,,,,,,,,wg-a,,,,AAXX 14064 07558 12/82 00212 10140 20070 39390 40213 57002 60006 80000 90600 333 10254 20120=
07558,1996-06-14 12:00:00,26,1017.8,-0.1,32,8,60000,3.704,,,130,,,,,,,,,,,wg-a,,,,AAXX 14124 07558 12686 11302 10260 20080 39389 40178 58001 60006 81200 91200=
07558,1996-06-14 18:00:00,24,1017.2,-0,54,14,0,14.816,,,160,14,27.6,,,,,,,,,wg-a,,,,AAXX 14184 07558 12/// /1608 10240 20140 39382 40172 55000 60006 91800 333 10276 20140=
07558,1996-06-15 00:00:00,16,1021.4,-0.1,68,10,0,14.816,,,20,,,,,,,,,,,wg-a,,,,AAXX 15004 07558 12/// /0208 10160 20100 39398 40214 57001 60006 90000=
07558,1996-06-15 06:00:00,15,1020.6,-0.1,67,9,500,11.112,,,20,13.5,24.3,,,,,,,,,wg-a,,,,AAXX 15064 07558 12/00 00206 10150 20090 39388 40206 55001 60006 80000 90600 333 10243 20135=
07558,1996-06-15 12:00:00,26,1016.8,-0.3,39,11,0,11.112,,,190,,,,,,,,,,,wg-a,,,,AAXX 15124 07558 12/// /1906 10260 20110 39381 40168 57003 60006 91200=
07558,1996-06-15 18:00:00,24,1015.6,-0.5,54,14,0,14.816,,,160,15.5,27.5,,,,,,,,,wg-a,,,,AAXX 15184 07558 12/// /1608 10240 20140 39365 40156 55005 60006 91800 333 10275 20155=
07558,1996-06-16 00:00:00,17,1019.5,-0.5,72,12,0,11.112,,,90,,,,,,,,,,,wg-a,,,,AAXX 16004 07558 12/// /0906 10170 20120 39382 40195 58005 60016 90000=
07558,1996-06-16 06:00:00,15,1018.9,-0,88,13,15000,7.408,,,30,13.4,23.6,,,,,1,,,,wg-a,,,,AAXX 16064 07558 12/65 00304 10150 20130 39373 40189 55000 60014 80000 90600 333 10236 20134=
07558,1996-06-16 12:00:00,24,1015.9,-0.6,44,11,0,7.408,,,310,,,,,,,,,,,wg-a,,,,AAXX 16124 07558 12/// /3104 10240 20110 39368 40159 56006 60006 91200=
07558,1996-06-16 18:00:00,26,1012.7,-1.2,37,10,0,11.112,,,60,15.3,27.2,,,,,,,,,wg-a,,,,AAXX 16184 07558 12/// /0606 10260 20100 39344 40127 56012 60006 91800 333 10272 20153=
07558,1996-06-17 00:00:00,17,1017.2,0.2,63,10,0,14.816,,,30,,,,,,,,,,,wg-a,,,,AAXX 17004 07558 12/// /0308 10170 20100 39362 40172 50002 60006 90000=
07558,1996-06-17 06:00:00,16,1017.7,0.3,68,10,20000,3.704,,,20,14.6,26.2,,,,,,,,,wg-a,,,,AAXX 17064 07558 12/70 00202 10160 20100 39364 40177 53003 60006 80000 90600 333 10262 20146=
07558,1996-06-17 12:00:00,24,1016.2,0.2,50,13,20000,22.224,,,150,,,,,,,,,,,wg-a,,,,AAXX 17124 07558 12570 41512 10240 20130 39371 40162 51002 60006 84200 91200=
07558,1996-06-17 18:00:00,21,1016.3,-0.2,69,15,0,18.52,,,150,16.3,24.7,,,,,,,,,wg-a,,,,AAXX 17184 07558 12/// /1510 10210 20150 39365 40163 55002 60006 91800 333 10247 20163=
07558,1996-06-18 00:00:00,16,1018.9,0,88,14,0,11.112,,,90,,,,,,,,,,,wg-a,,,,AAXX 18004 07558 12/// /0906 10160 20140 39374 40189 50000 60006 90000=
07558,1996-06-18 06:00:00,15,1017.9,-0.2,94,14,12000,3.704,,,30,13.8,21,,,,,,,,,wg-a,,,,AAXX 18064 07558 12/62 40302 10150 20140 39364 40179 57002 60006 82032 90600 333 10210 20138=
07558,1996-06-18 12:00:00,25,1014.1,-0.6,50,14,25000,14.816,,,180,,,,,,,,,,,wg-a,,,,AAXX 18124 07558 12675 61808 10250 20140 39354 40141 58006 60006 83132 91200=
07558,1996-06-18 18:00:00,25,1011.9,-0.6,44,12,0,22.224,,,270,15.2,27.6,,,,,,,,,wg-a,,,,AAXX 18184 07558 12/// /2712 10250 20120 39334 40119 56006 60006 91800 333 10276 20152=
07558,1996-06-19 00:00:00,18,1014.3,-0.5,83,15,0,7.408,,,190,,,,,,,,,,,wg-a,,,,AAXX 19004 07558 12/// /1904 10180 20150 39338 40143 58005 60006 90000=
07558,1996-06-19 12:00:00,26,1011.8,-0.7,34,9,15000,14.816,,,330,,,,,,,,,,,wg-a,,,,AAXX 19124 07558 12565 53308 10260 20090 39334 40118 58007 60006 82101 91200=
07558,1996-06-19 18:00:00,25,1009.9,-0.8,44,12,0,18.52,,,290,15.4,27.2,,,,,,,,,wg-a,,,,AAXX 19184 07558 12/// /2910 10250 20120 39315 40099 56008 60006 91800 333 10272 20154=
07558,1996-06-20 00:00:00,18,1011.1,-1.3,68,12,0,22.224,,,320,,,,,,,,,,,wg-a,,,,AAXX 20004 07558 12/// /3212 10180 20120 39309 40111 58013 60006 90000=
07558,1996-06-20 06:00:00,15,1012.3,0.6,88,13,6000,3.704,,,170,13.7,27.2,,,,,,,,,wg-a,,,,AAXX 20064 07558 12456 71702 10150 20130 39312 40123 51006 60006 872// 90600 333 10272 20137=
07558,1996-06-20 12:00:00,22,1009.5,-0.6,60,14,20000,14.816,,,330,,,,,,,,,,,wg-a,,,,AAXX 20124 07558 12570 63308 10220 20140 39305 40095 58006 60006 84280 91200=
07558,1996-06-20 18:00:00,22,1006.8,-1.5,57,13,0,22.224,,,330,15,24.9,,,,,,,,,wg-a,,,,AAXX 20184 07558 12/// /3312 10220 20130 39278 40068 58015 60006 91800 333 10249 20150=
07558,1996-06-21 00:00:00,14,1007.7,-1.2,100,14,0,14.816,,,100,,,,,,,,,,,wg-a,,,,AAXX 21004 07558 12/// /1008 10140 20140 39268 40077 58012 60086 90000=
07558,1996-06-21 06:00:00,15,1005.6,-0.9,94,14,25000,7.408,,,50,13.9,21.6,,,,,8,,,,wg-a,,,,AAXX 21064 07558 12/75 30504 10150 20140 39251 40056 57009 60084 81032 90600 333 10216 20139=
07558,1996-06-21 12:00:00,14,1006.2,1,94,13,12000,22.224,,,200,,,,9,,,,,,29,wg-a,,,,AAXX 21124 07558 02462 72012 10140 20130 39252 40062 53010 60096 72998 879// 91200 333 60097=
07558,1996-06-21 18:00:00,15,1006.4,0.2,77,11,0,29.632,,,300,13.7,20.6,,,,,,,,,wg-a,,,,AAXX 21184 07558 32/// /3016 10150 20110 39258 40064 53002 91800 333 10206 20137=
07558,1996-06-22 00:00:00,11,1009.9,0.6,94,10,0,22.224,,,290,,,,,,,,,,,wg-a,,,,AAXX 22004 07558 12/// /2912 10110 20100 39278 40099 53006 60016 90000=
07558,1996-06-22 06:00:00,11,1012.1,1.7,87,9,8000,35.188,,,330,10.4,20.6,,,,,10,,,,wg-a,,,,AAXX 22064 07558 12458 63319 10110 20090 39298 40121 53017 60104 85830 90600 333 10206 20104=
07558,1996-06-22 12:00:00,13,1016.1,1.9,51,3,0,38.892,,,330,,,,,,,,,,,wg-a,,,,AAXX 22124 07558 12/// /3321 10130 20030 39340 40161 52019 60006 91200=
07558,1996-06-22 18:00:00,13,1018.5,0.8,51,3,0,38.892,,,330,10.9,15.4,,,,,,,,,wg-a,,,,AAXX 22184 07558 12/// /3321 10130 20030 39362 40185 53008 60006 91800 333 10154 20109=
07558,1996-06-23 00:00:00,9,1021.7,0.3,76,5,0,29.632,,,320,,,,,,,,,,,wg-a,,,,AAXX 23004 07558 12/// /3216 10090 20050 39380 40217 53003 60006 90000=
07558,1996-06-23 06:00:00,10,1020.6,-0,76,6,20000,22.224,,,320,7.9,15.4,,,,,,,,,wg-a,,,,AAXX 23064 07558 12470 73212 10100 20060 39371 40206 55000 60006 878// 90600 333 10154 20079=
07558,1996-06-23 12:00:00,10,1021.3,-0.2,82,7,0,25.928,,,340,,,,,,,,,,,wg-a,,,,AAXX 23124 07558 02/// /3414 10100 20070 39379 40213 58002 61000 91200 333 ////=
07558,1996-06-23 18:00:00,13,1019.7,0.6,58,5,0,22.224,,,320,8.8,15.9,,,,,,,,,wg-a,,,,AAXX 23184 07558 32/// /3212 10130 20050 39372 40197 52006 91800 333 10159 20088=
07558,1996-06-24 00:00:00,8,1022.7,-0.5,76,4,0,35.188,,,330,,,,,,,,,,,wg-a,,,,AAXX 24004 07558 12/// /3319 10080 20040 39385 40227 57005 60006 90000=
07558,1996-06-24 06:00:00,9,1023.5,1.1,76,5,500,14.816,,,350,6.6,12.8,,,,,,,,,wg-a,,,,AAXX 24064 07558 02500 33508 10090 20050 39396 40235 51011 60006 81532 90600 333 10128 20066 61000=
07558,1996-06-24 12:00:00,14,1022.5,-0.1,47,3,25000,31.484,,,330,,,,,,,,,,,wg-a,,,,AAXX 24124 07558 12575 73317 10140 20030 39399 40225 58001 60006 86802 91200=
07558,1996-06-24 18:00:00,14,1021.4,0.1,55,5,0,31.484,,,320,9,16.7,,,,,,,,,wg-a,,,,AAXX 24184 07558 12/// /3217 10140 20050 39391 40214 53001 60006 91800 333 10167 20090=
07558,1996-06-25 00:00:00,10,1022.6,-0.9,71,5,0,22.224,,,340,,,,,,,,,,,wg-a,,,,AAXX 25004 07558 12/// /3412 10100 20050 39390 40226 58009 60006 90000=
07558,1996-06-25 06:00:00,9,1022.4,0.1,76,5,40000,18.52,,,350,8.1,16.7,,,,,,,,,wg-a,,,,AAXX 25064 07558 12482 13510 10090 20050 39387 40224 50001 60006 81830 90600 333 10167 20081=
07558,1996-06-25 12:00:00,15,1020.3,-0.4,51,5,40000,22.224,,,330,,,,,,,,,,,wg-a,,,,AAXX 25124 07558 12582 73312 10150 20050 39382 40203 57004 60006 878// 91200=
07558,1996-06-25 18:00:00,14,1020.4,0.3,58,6,0,25.928,,,320,9.4,16.8,,,,,,,,,wg-a,,,,AAXX 25184 07558 12/// /3214 10140 20060 39381 40204 53003 60006 91800 333 10168 20094=
07558,1996-06-26 00:00:00,11,1022,-0.2,71,6,0,29.632,,,320,,,,,,,,,,,wg-a,,,,AAXX 26004 07558 12/// /3216 10110 20060 39388 40220 57002 60006 90000=
07558,1996-06-26 06:00:00,10,1021.3,-0,76,6,25000,29.632,,,320,8.6,16.8,,,,,,,,,wg-a,,,,AAXX 26064 07558 12475 13216 10100 20060 39379 40213 55000 60006 81840 90600 333 10168 20086=
07558,1996-06-26 12:00:00,15,1020.8,0.2,55,6,500,25.928,,,320,,,,,,,,,,,wg-a,,,,AAXX 26124 07558 12500 73214 10150 20060 39389 40208 53002 60006 878// 91200=
07558,1996-06-26 18:00:00,17,1020.4,0.6,55,8,0,25.928,,,310,10.1,18.7,,,,,,,,,wg-a,,,,AAXX 26184 07558 12/// /3114 10170 20080 39391 40204 53006 60006 91800 333 10187 20101=
07558,1996-06-27 00:00:00,12,1024.1,0.3,71,7,0,11.112,,,10,,,,,,,,,,,wg-a,,,,AAXX 27004 07558 12/// /0106 10120 20070 39410 40241 50003 60006 90000=
07558,1996-06-27 06:00:00,13,1024.2,0.9,72,8,25000,14.816,,,340,10.9,17.3,,,,,,,,,wg-a,,,,AAXX 27064 07558 12/75 13408 10130 20080 39415 40242 53009 60006 80001 90600 333 10173 20109=
07558,1996-06-27 12:00:00,21,1022.3,-0.6,46,9,25000,25.928,,,330,,,,,,,,,,,wg-a,,,,AAXX 27124 07558 12575 43314 10210 20090 39418 40223 57006 60006 84100 91200=
07558,1996-06-27 18:00:00,21,1021.3,-0.1,49,10,0,25.928,,,320,13.2,23.1,,,,,,,,,wg-a,,,,AAXX 27184 07558 12/// /3214 10210 20100 39409 40213 55001 60006 91800 333 10231 20132=
07558,1996-06-28 00:00:00,15,1023.9,0.2,72,10,0,7.408,,,20,,,,,,,,,,,wg-a,,,,AAXX 28004 07558 12/// /0204 10150 20100 39417 40239 50002 60006 90000=
07558,1996-06-28 06:00:00,14,1023.5,0.3,77,10,15000,3.704,,,30,12.6,23.1,,,,,,,,,wg-a,,,,AAXX 28064 07558 12/65 10302 10140 20100 39411 40235 53003 60006 80001 90600 333 10231 20126=
07558,1996-06-28 12:00:00,23,1019.6,-1.3,44,10,500,11.112,,,210,,,,,,,,,,,wg-a,,,,AAXX 28124 07558 12700 12106 10230 20100 39400 40196 58013 60006 81201 91200=
07558,1996-06-28 18:00:00,24,1017.4,-0.8,36,8,0,18.52,,,270,14,25.9,,,,,,,,,wg-a,,,,AAXX 28184 07558 12/// /2710 10240 20080 39381 40174 56008 60006 91800 333 10259 20140=
07558,1996-06-29 00:00:00,17,1019.7,-0.1,55,8,0,14.816,,,320,,,,,,,,,,,wg-a,,,,AAXX 29004 07558 12/// /3208 10170 20080 39383 40197 58001 60006 90000=
07558,1996-06-29 06:00:00,14,1021,0.8,82,11,15000,3.704,,,290,12.2,24,,,,,,,,,wg-a,,,,AAXX 29064 07558 12565 42902 10140 20110 39389 40210 51008 60006 84500 90600 333 10240 20122=
07558,1996-06-29 12:00:00,17,1020.8,0.1,72,12,0,22.224,,,300,,,,,,,,,,,wg-a,,,,AAXX 29124 07558 12/// /3012 10170 20120 39395 40208 50001 60006 91200=
07558,1996-06-29 18:00:00,18,1019,-0.6,64,11,0,29.632,,,300,14.1,19.4,,,,,,,,,wg-a,,,,AAXX 29184 07558 12/// /3016 10180 20110 39381 40190 56006 60006 91800 333 10194 20141=
07558,1996-06-30 00:00:00,12,1022.7,0.4,88,10,0,14.816,,,280,,,,,,,,,,,wg-a,,,,AAXX 30004 07558 12/// /2808 10120 20100 39399 40227 50004 60006 90000=
07558,1996-06-30 06:00:00,10,1022.3,0.1,87,8,15000,22.224,,,310,9.3,18.8,,,,,,,,,wg-a,,,,AAXX 30064 07558 12565 73112 10100 20080 39390 40223 53001 60006 875// 90600 333 10188 20093=
07558,1996-06-30 12:00:00,17,1019,-1,59,9,0,29.632,,,310,,,,,,,,,,,wg-a,,,,AAXX 30124 07558 12/// /3116 10170 20090 39379 40190 58010 60006 91200=
07558,1996-06-30 18:00:00,19,1016.2,-0.8,52,9,0,29.632,,,310,10.3,20.8,,,,,,,,,wg-a,,,,AAXX 30184 07558 12/// /3116 10190 20090 39357 40162 55008 60006 91800 333 10208 20103=
07558,1996-07-01 00:00:00,13,1017.1,-1.2,77,9,0,11.112,,,300,,,,,,,,,,,wg-a,,,,AAXX 01004 07558 12/// /3006 10130 20090 39350 40171 58012 60006 90000=
07558,1996-07-01 06:00:00,13,1015.4,-0.2,82,10,20000,7.408,,,250,11.6,19,,,,,,,,,wg-a,,,,AAXX 01064 07558 12570 62504 10130 20100 39333 40154 55002 60006 82532 90600 333 10190 20116=
07558,1996-07-01 12:00:00,17,1013.6,-0.6,59,9,25000,25.928,,,300,,,,,,,,,,,wg-a,,,,AAXX 01124 07558 12575 63014 10170 20090 39328 40136 57006 60006 81132 91200=
07558,1996-07-01 18:00:00,15,1013.7,0.2,77,11,0,18.52,,,300,11.3,20,,,,,,,,,wg-a,,,,AAXX 01184 07558 12/// /3010 10150 20110 39325 40137 51002 60006 91800 333 10200 20113=
07558,1996-07-02 00:00:00,12,1014.7,-0.5,88,10,0,18.52,,,300,,,,,,,,,,,wg-a,,,,AAXX 02004 07558 12/// /3010 10120 20100 39324 40147 58005 60006 90000=
07558,1996-07-02 06:00:00,10,1014.7,0.9,87,8,12000,18.52,,,330,9.9,15.2,,0,,,,,,60,wg-a,,,,AAXX 02064 07558 02462 73310 10100 20080 39319 40147 50009 60004 7606/ 8457/ 90600 333 10152 20099 60007=
07558,1996-07-02 12:00:00,13,1014.8,-0.1,82,10,25000,11.112,,,270,,,,0,,,,,,2,wg-a,,,,AAXX 02124 07558 12575 72706 10130 20100 39328 40148 58001 60007 70262 875// 91200=
07558,1996-07-02 18:00:00,15,1014,0.3,67,9,0,18.52,,,300,9.5,17.5,,,,,,,,,wg-a,,,,AAXX 02184 07558 32/// /3010 10150 20090 39325 40140 50003 91800 333 10175 20095=
07558,1996-07-03 00:00:00,10,1016.1,0,87,8,0,14.816,,,300,,,,,,,,,,,wg-a,,,,AAXX 03004 07558 12/// /3008 10100 20080 39333 40161 50000 60006 90000=
07558,1996-07-03 06:00:00,10,1016.6,0.8,93,9,20000,0,,,0,8.5,15.1,,,,,4,,,,wg-a,,,,AAXX 03064 07558 02270 20000 10100 20090 39337 40166 53008 60006 82101 90600 333 10151 20085 60044=
07558,1996-07-03 12:00:00,19,1014.8,0.1,60,11,20000,7.408,,,240,,,,,,,,,,,wg-a,,,,AAXX 03124 07558 12570 62404 10190 20110 39345 40148 53001 60006 86100 91200=
07558,1996-07-03 18:00:00,20,1014.4,-0.2,60,12,0,14.816,,,280,10.2,22.1,,,,,,,,,wg-a,,,,AAXX 03184 07558 12/// /2808 10200 20120 39345 40144 55002 60006 91800 333 10221 20102=
07558,1996-07-04 00:00:00,16,1017.1,0.3,82,13,0,3.704,,,100,,,,,,,,,,,wg-a,,,,AAXX 04004 07558 12/// /1002 10160 20130 39357 40171 51003 60006 90000=
07558,1996-07-04 06:00:00,15,1017.5,0.5,88,13,15000,3.704,,,110,13.6,20.6,,,,,,,,,wg-a,,,,AAXX 04064 07558 12565 61102 10150 20130 39359 40175 52005 60006 84570 90600 333 10206 20136=
07558,1996-07-04 12:00:00,20,1016.8,-0.3,73,15,20000,14.816,,,320,,,,,,,,,,,wg-a,,,,AAXX 04124 07558 12570 73208 10200 20150 39366 40168 56003 60006 8427/ 91200=
07558,1996-07-04 18:00:00,20,1015.2,-0.7,68,14,0,18.52,,,340,14.1,22.3,,,,,,,,,wg-a,,,,AAXX 04184 07558 12/// /3410 10200 20140 39353 40152 56007 60006 91800 333 10223 20141=
07558,1996-07-05 00:00:00,17,1014.7,-1.3,94,16,0,11.112,,,120,,,,,,,,,,,wg-a,,,,AAXX 05004 07558 12/// /1206 10170 20160 39340 40147 56013 60016 90000=
07558,1996-07-05 06:00:00,17,1011.7,-1.4,94,16,10000,18.52,,,130,16.1,20.4,,,,,2,,,3,wg-a,,,,AAXX 05064 07558 12260 81310 10170 20160 39311 40117 56014 60024 7036/ 885// 90600 333 10204 20161=
07558,1996-07-05 12:00:00,18,1010,-0.7,94,17,6000,22.224,,,210,,,,3,,,,,,95,wg-a,,,,AAXX 05124 07558 02356 72112 10180 20170 39300 40100 56007 60036 79598 879// 91200 333 60037=
07558,1996-07-05 18:00:00,16,1011.4,-0.8,94,15,0,22.224,,,230,13.5,19.1,,,,,,,,,wg-a,,,,AAXX 05184 07558 32/// /2312 10160 20150 39307 40114 55008 91800 333 10191 20135=
07558,1996-07-06 00:00:00,14,1012.3,-0.4,100,14,0,14.816,,,200,,,,,,,,,,,wg-a,,,,AAXX 06004 07558 12/// /2008 10140 20140 39308 40123 58004 60006 90000=
07558,1996-07-06 06:00:00,13,1012.5,-0,100,13,800,22.224,,,230,12.4,16.1,,0,,,15,,,42,wg-a,,,,AAXX 06064 07558 02208 72312 10130 20130 39307 40125 55000 60154 74265 877// 90600 333 10161 20124 60007=
07558,1996-07-06 12:00:00,17,1012.5,-0.3,59,9,0,14.816,,,310,,,,,,,,,,,wg-a,,,,AAXX 06124 07558 12/// /3108 10170 20090 39317 40125 58003 60006 91200=
07558,1996-07-06 18:00:00,16,1011,-0.6,51,6,0,22.224,,,310,12.2,18.4,,,,,,,,,wg-a,,,,AAXX 06184 07558 12/// /3112 10160 20060 39300 40110 56006 60006 91800 333 10184 20122=
07558,1996-07-07 00:00:00,11,1010.2,-1.4,76,7,0,3.704,,,40,,,,,,,,,,,wg-a,,,,AAXX 07004 07558 12/// /0402 10110 20070 39280 40102 58014 60006 90000=
07558,1996-07-07 06:00:00,13,1003.5,-2.4,77,9,15000,7.408,,,130,10.2,16.1,,,,,,,,,wg-a,,,,AAXX 07064 07558 12565 71304 10130 20090 39225 40035 56024 60006 8557/ 90600 333 10161 20102=
07558,1996-07-07 12:00:00,14,1001,-0.5,88,12,0,22.224,,,160,,,,,,,,,,,wg-a,,,,AAXX 07124 07558 12/// /1612 10140 20120 39206 40010 55005 60006 91200=
07558,1996-07-07 18:00:00,11,1003.7,0.8,94,10,0,35.188,,,270,10.9,16.3,,1,,,,,,,wg-a,,,,AAXX 07184 07558 12/// /2719 10110 20100 39221 40037 53008 60017 91800 333 10163 20109=
07558,1996-07-08 00:00:00,8,1010.7,2.4,93,7,0,38.892,,,300,,,,0,,,,,,,wg-a,,,,AAXX 08004 07558 02/// /3021 10080 20070 39277 40107 53024 60016 90000 333 60007=
07558,1996-07-08 06:00:00,9,1015.5,3.2,87,7,10000,53.708,,,310,8,10.9,,0,,,12,,,21,wg-a,,,,AAXX 08064 07558 02460 73129 10090 20070 39323 40155 53032 60124 7216/ 878// 90600 333 10109 20080 60007=
07558,1996-07-08 12:00:00,14,1019.5,1.8,63,7,25000,46.3,,,310,,,,,,,,,,,wg-a,,,,AAXX 08124 07558 12575 63125 10140 20070 39373 40195 51018 60006 86200 91200=
07558,1996-07-08 18:00:00,14,1022.1,1,63,7,0,46.3,,,300,8.8,15.7,,,,,,,,,wg-a,,,,AAXX 08184 07558 12/// /3025 10140 20070 39398 40221 53010 60006 91800 333 10157 20088=
07558,1996-07-09 00:00:00,11,1026.1,0.7,87,9,0,29.632,,,310,,,,1,,,,,,,wg-a,,,,AAXX 09004 07558 02/// /3116 10110 20090 39425 40261 53007 60016 90000 333 60017=
07558,1996-07-09 06:00:00,11,1026.7,0.4,82,8,20000,31.484,,,310,9.3,14.2,,,,,1,,,,wg-a,,,,AAXX 09064 07558 12470 33117 10110 20080 39431 40267 53004 60014 83500 90600 333 10142 20093=
07558,1996-07-09 12:00:00,16,1025.6,-0.2,59,8,25000,38.892,,,300,,,,,,,,,,,wg-a,,,,AAXX 09124 07558 12575 43021 10160 20080 39437 40256 58002 60006 84100 91200=
07558,1996-07-09 18:00:00,17,1025.4,0.2,59,9,0,29.632,,,300,10.8,18.3,,,,,,,,,wg-a,,,,AAXX 09184 07558 12/// /3016 10170 20090 39435 40254 53002 60006 91800 333 10183 20108=
07558,1996-07-10 00:00:00,12,1027.1,-0,82,9,0,22.224,,,310,,,,,,,,,,,wg-a,,,,AAXX 10004 07558 12/// /3112 10120 20090 39438 40271 54000 60006 90000=
07558,1996-07-10 06:00:00,12,1027,0.3,82,9,25000,7.408,,,340,9.3,16.4,,,,,,,,,wg-a,,,,AAXX 10064 07558 12/75 23404 10120 20090 39436 40270 52003 60006 81031 90600 333 10164 20093=
07558,1996-07-10 12:00:00,17,1023.1,-1.1,68,11,25000,38.892,,,300,,,,,,,,,,,wg-a,,,,AAXX 10124 07558 12575 33021 10170 20110 39417 40231 57011 60006 83100 91200=
07558,1996-07-10 18:00:00,16,1021.9,-0.3,77,12,0,50.004,,,300,11.5,18.8,,,,,,,,,wg-a,,,,AAXX 10184 07558 12/// /3027 10160 20120 39403 40219 56003 60006 91800 333 10188 20115=
07558,1996-07-11 00:00:00,14,1023.2,0.1,88,12,0,29.632,,,320,,,,,,,,,,,wg-a,,,,AAXX 11004 07558 12/// /3216 10140 20120 39408 40232 52001 60006 90000=
07558,1996-07-11 06:00:00,13,1022.6,-0.1,82,10,500,11.112,,,330,12.1,18.8,,,,,,,,,wg-a,,,,AAXX 11064 07558 12400 13306 10130 20100 39401 40226 58001 60006 81131 90600 333 10188 20121=
07558,1996-07-11 12:00:00,20,1019.4,-0.5,53,10,40000,31.484,,,330,,,,,,,,,,,wg-a,,,,AAXX 11124 07558 12782 13317 10200 20100 39389 40194 58005 60006 81200 91200=
07558,1996-07-11 18:00:00,20,1018.6,-0.1,60,12,0,25.928,,,300,13.3,22.3,,,,,,,,,wg-a,,,,AAXX 11184 07558 12/// /3014 10200 20120 39384 40186 55001 60006 91800 333 10223 20133=
07558,1996-07-12 00:00:00,14,1021.7,0,77,10,0,11.112,,,340,,,,,,,,,,,wg-a,,,,AAXX 12004 07558 12/// /3406 10140 20100 39395 40217 50000 60006 90000=
07558,1996-07-12 06:00:00,14,1020.9,-0,77,10,25000,7.408,,,10,11.3,20.4,,,,,,,,,wg-a,,,,AAXX 12064 07558 12/75 10104 10140 20100 39386 40209 55000 60006 81030 90600 333 10204 20113=
07558,1996-07-12 12:00:00,22,1018.1,-0.6,53,12,25000,25.928,,,330,,,,,,,,,,,wg-a,,,,AAXX 12124 07558 12575 33314 10220 20120 39383 40181 58006 60006 83100 91200=
07558,1996-07-12 18:00:00,22,1017.4,-0.2,57,13,0,29.632,,,300,13.7,24,,,,,,,,,wg-a,,,,AAXX 12184 07558 12/// /3016 10220 20130 39377 40174 56002 60006 91800 333 10240 20137=
07558,1996-07-13 00:00:00,17,1020.8,0.1,82,14,0,11.112,,,320,,,,,,,,,,,wg-a,,,,AAXX 13004 07558 12/// /3206 10170 20140 39395 40208 51001 60006 90000=
07558,1996-07-13 06:00:00,16,1021.6,0.8,88,14,15000,0,,,0,14.1,24,,,,,,,,,wg-a,,,,AAXX 13064 07558 12/65 30000 10160 20140 39399 40216 53008 60006 83030 90600 333 10240 20141=
07558,1996-07-13 12:00:00,23,1020.1,-0.2,53,13,0,11.112,,,260,,,,,,,,,,,wg-a,,,,AAXX 13124 07558 12/// /2606 10230 20130 39406 40201 58002 60006 91200=
07558,1996-07-13 18:00:00,24,1020.1,0.5,54,14,0,0,,,0,15.6,25.8,,,,,,,,,wg-a,,,,AAXX 13184 07558 32/// /0000 10240 20140 39407 40201 53005 91800 333 10258 20156=
07558,1996-07-14 00:00:00,17,1024.1,0.6,82,14,0,11.112,,,30,,,,,,,,,,,wg-a,,,,AAXX 14004 07558 12/// /0306 10170 20140 39427 40241 51006 60006 90000=
07558,1996-07-14 06:00:00,16,1025.4,0.9,88,14,40000,7.408,,,20,15.6,25.8,,,,,,,,,wg-a,,,,AAXX 14064 07558 02/82 10204 10160 20140 39436 40254 53009 60006 80001 90600 333 10258 20156 60004=
07558,1996-07-14 12:00:00,27,1022.3,-0.5,45,14,0,3.704,,,170,,,,,,,,,,,wg-a,,,,AAXX 14124 07558 12/// /1702 10270 20140 39435 40223 58005 60006 91200=
07558,1996-07-14 18:00:00,25,1020.9,-0.6,50,14,0,18.52,,,320,16.3,28.7,,,,,,,,,wg-a,,,,AAXX 14184 07558 12/// /3210 10250 20140 39418 40209 55006 60006 91800 333 10287 20163=
07558,1996-07-15 00:00:00,20,1022.3,-0.1,73,15,0,18.52,,,30,,,,,,,,,,,wg-a,,,,AAXX 15004 07558 12/// /0310 10200 20150 39419 40223 57001 60006 90000=
07558,1996-07-15 06:00:00,19,1022.1,0,78,15,25000,7.408,,,30,17.2,25.1,,,,,,,,,wg-a,,,,AAXX 15064 07558 12/75 00304 10190 20150 39413 40221 50000 60006 80000 90600 333 10251 20172=
07558,1996-07-15 12:00:00,27,1019,-0.8,48,15,25000,14.816,,,340,,,,,,,,,,,wg-a,,,,AAXX 15124 07558 12575 43408 10270 20150 39405 40190 58008 60006 84200 91200=
07558,1996-07-15 18:00:00,27,1017.2,-0.7,45,14,0,18.52,,,310,18.9,29.3,,,,,,,,,wg-a,,,,AAXX 15184 07558 12/// /3110 10270 20140 39388 40172 56007 60006 91800 333 10293 20189=
07558,1996-07-16 00:00:00,20,1020.6,0.4,78,16,0,11.112,,,50,,,,,,,,,,,wg-a,,,,AAXX 16004 07558 12/// /0506 10200 20160 39402 40206 51004 60006 90000=
07558,1996-07-16 06:00:00,19,1020.2,0.2,78,15,35000,7.408,,,20,17.1,26.9,,,,,,,,,wg-a,,,,AAXX 16064 07558 12/81 00204 10190 20150 39395 40202 53002 60006 80000 90600 333 10269 20171=
07558,1996-07-16 12:00:00,28,1017.1,-0.6,45,15,35000,3.704,,,300,,,,,,,,,,,wg-a,,,,AAXX 16124 07558 12681 23002 10280 20150 39390 40171 58006 60006 82100 91200=
07558,1996-07-16 18:00:00,28,1014.6,-1.2,42,14,0,14.816,,,300,18.9,29.5,,,,,,,,,wg-a,,,,AAXX 16184 07558 12/// /3008 10280 20140 39367 40146 56012 60006 91800 333 10295 20189=
07558,1996-07-17 00:00:00,20,1018.2,0.2,78,16,0,14.816,,,20,,,,,,,,,,,wg-a,,,,AAXX 17004 07558 12/// /0208 10200 20160 39380 40182 50002 60006 90000=
07558,1996-07-17 06:00:00,19,1017.8,0.1,83,16,20000,11.112,,,30,17.7,28,,,,,,,,,wg-a,,,,AAXX 17064 07558 12/70 00306 10190 20160 39374 40178 53001 60006 80000 90600 333 10280 20177=
07558,1996-07-17 12:00:00,29,1014.3,-0.6,43,15,20000,14.816,,,300,,,,,,,,,,,wg-a,,,,AAXX 17124 07558 12570 53008 10290 20150 39366 40143 58006 60006 83201 91200=
07558,1996-07-17 18:00:00,28,1013,-0.5,42,14,0,14.816,,,330,18.9,30.9,,,,,,,,,wg-a,,,,AAXX 17184 07558 12/// /3308 10280 20140 39351 40130 55005 60006 91800 333 10309 20189=
07558,1996-07-18 00:00:00,20,1017.1,0.9,83,17,0,7.408,,,80,,,,,,,,,,,wg-a,,,,AAXX 18004 07558 12/// /0804 10200 20170 39371 40171 51009 60006 90000=
07558,1996-07-18 06:00:00,19,1017.4,0.3,83,16,20000,3.704,,,40,17.3,27.7,,,,,,,,,wg-a,,,,AAXX 18064 07558 12570 10402 10190 20160 39369 40174 52003 60006 81100 90600 333 10277 20173=
07558,1996-07-18 12:00:00,28,1015.6,-0,42,14,25000,18.52,,,280,,,,,,,,,,,wg-a,,,,AAXX 18124 07558 12575 42810 10280 20140 39375 40156 54000 60006 84100 91200=
07558,1996-07-18 18:00:00,27,1015.1,-0.1,30,8,0,22.224,,,310,18.5,29.4,,,,,,,,,wg-a,,,,AAXX 18184 07558 12/// /3112 10270 20080 39367 40151 55001 60006 91800 333 10294 20185=
07558,1996-07-19 00:00:00,18,1019.6,0.9,56,9,0,14.816,,,20,,,,,,,,,,,wg-a,,,,AAXX 19004 07558 12/// /0208 10180 20090 39386 40196 51009 60006 90000=
07558,1996-07-19 06:00:00,17,1020.2,0.7,48,6,20000,11.112,,,20,14.7,26.9,,,,,,,,,wg-a,,,,AAXX 19064 07558 12/70 00206 10170 20060 39387 40202 53007 60006 80000 90600 333 10269 20147=
07558,1996-07-19 12:00:00,27,1016.8,-0.5,20,2,20000,29.632,,,330,,,,,,,,,,,wg-a,,,,AAXX 19124 07558 12/70 03316 10270 20020 39381 40168 56005 60006 80000 91200=
07558,1996-07-19 18:00:00,26,1016.2,-0.3,34,9,0,25.928,,,320,16.6,28.2,,,,,,,,,wg-a,,,,AAXX 19184 07558 12/// /3214 10260 20090 39375 40162 56003 60006 91800 333 10282 20166=
07558,1996-07-20 00:00:00,17,1020.1,0.2,52,7,0,18.52,,,20,,,,,,,,,,,wg-a,,,,AAXX 20004 07558 12/// /0210 10170 20070 39386 40201 51002 60006 90000=
07558,1996-07-20 06:00:00,16,1020.3,0.6,55,7,50000,0,,,0,13.8,25.8,,,,,,,,,wg-a,,,,AAXX 20064 07558 12/84 40000 10160 20070 39385 40203 53006 60006 80002 90600 333 10258 20138=
07558,1996-07-20 12:00:00,25,1017.1,-0.6,28,5,0,18.52,,,330,,,,,,,,,,,wg-a,,,,AAXX 20124 07558 12/// /3310 10250 20050 39381 40171 58006 60006 91200=
07558,1996-07-20 18:00:00,25,1016.7,-0.2,30,6,0,25.928,,,330,15.5,27.2,,,,,,,,,wg-a,,,,AAXX 20184 07558 12/// /3314 10250 20060 39377 40167 55002 60006 91800 333 10272 20155=
07558,1996-07-21 00:00:00,17,1020.8,0.2,59,9,0,14.816,,,30,,,,,,,,,,,wg-a,,,,AAXX 21004 07558 12/// /0308 10170 20090 39394 40208 50002 60006 90000=
07558,1996-07-21 06:00:00,16,1021.4,0.6,48,5,500,11.112,,,30,13.6,24.9,,,,,,,,,wg-a,,,,AAXX 21064 07558 12/00 00306 10160 20050 39396 40214 53006 60006 80000 90600 333 10249 20136=
07558,1996-07-21 12:00:00,27,1017.6,-0.7,21,3,0,11.112,,,210,,,,,,,,,,,wg-a,,,,AAXX 21124 07558 12/// /2106 10270 20030 39388 40176 58007 60006 91200=
07558,1996-07-21 18:00:00,25,1016.5,-0.2,41,11,0,18.52,,,170,16,29.3,,,,,,,,,wg-a,,,,AAXX 21184 07558 12/// /1710 10250 20110 39375 40165 55002 60006 91800 333 10293 20160=
07558,1996-07-22 00:00:00,18,1020,0.1,64,11,0,11.112,,,130,,,,,,,,,,,wg-a,,,,AAXX 22004 07558 12/// /1306 10180 20110 39389 40200 50001 60006 90000=
07558,1996-07-22 06:00:00,18,1020,0.5,56,9,20000,11.112,,,130,15.9,24.6,,,,,,,,,wg-a,,,,AAXX 22064 07558 12/70 01306 10180 20090 39388 40200 52005 60006 80000 90600 333 10246 20159=
07558,1996-07-22 12:00:00,24,1018.5,0.3,44,11,20000,35.188,,,160,,,,,,,,,,,wg-a,,,,AAXX 22124 07558 12/70 01619 10240 20110 39392 40185 50003 60006 80000 91200=
07558,1996-07-22 18:00:00,22,1018.2,0.1,46,10,0,25.928,,,140,17.5,25.4,,,,,,,,,wg-a,,,,AAXX 22184 07558 12/// /1414 10220 20100 39383 40182 53001 60006 91800 333 10254 20175=
07558,1996-07-23 00:00:00,17,1020.3,0.1,63,10,0,18.52,,,110,,,,,,,,,,,wg-a,,,,AAXX 23004 07558 12/// /1110 10170 20100 39391 40203 50001 60006 90000=
07558,1996-07-23 06:00:00,17,1019.8,-0,82,14,12000,18.52,,,130,15.4,21.5,,,,,,,,,wg-a,,,,AAXX 23064 07558 12462 71310 10170 20140 39386 40198 54000 60006 875// 90600 333 10215 20154=
07558,1996-07-23 12:00:00,23,1017.2,-0.5,57,14,500,35.188,,,150,,,,,,,,,,,wg-a,,,,AAXX 23124 07558 12500 51519 10230 20140 39379 40172 58005 60006 82182 91200=
07558,1996-07-23 18:00:00,20,1017.5,-0.5,73,15,0,29.632,,,130,16.7,24.9,,,,,,,,,wg-a,,,,AAXX 23184 07558 12/// /1316 10200 20150 39374 40175 58005 60006 91800 333 10249 20167=
07558,1996-07-24 00:00:00,17,1018.2,-0.1,94,16,0,18.52,,,130,,,,,,,,,,,wg-a,,,,AAXX 24004 07558 12/// /1310 10170 20160 39372 40182 58001 60006 90000=
07558,1996-07-24 06:00:00,18,1017.4,0.3,94,17,6000,3.704,,,110,16.6,20.3,,,,,,,,,wg-a,,,,AAXX 24064 07558 12456 71102 10180 20170 39368 40174 53003 60006 875// 90600 333 10203 20166=
07558,1996-07-24 12:00:00,27,1013.9,-0.3,58,18,20000,18.52,,,210,,,,,,,,,,,wg-a,,,,AAXX 24124 07558 12570 42110 10270 20180 39359 40139 58003 60006 83132 91200=
07558,1996-07-24 18:00:00,25,1014.4,-0.2,57,16,0,22.224,,,310,18,28.2,,,,,,,,,wg-a,,,,AAXX 24184 07558 12/// /3112 10250 20160 39357 40144 56002 60006 91800 333 10282 20180=
07558,1996-07-25 00:00:00,19,1017.3,0.2,83,16,0,11.112,,,360,,,,,,,,,,,wg-a,,,,AAXX 25004 07558 12/// /3606 10190 20160 39369 40173 50002 60006 90000=
07558,1996-07-25 06:00:00,18,1016.6,-0.8,83,15,15000,18.52,,,20,16.9,24.7,,,,,,,,,wg-a,,,,AAXX 25064 07558 12/65 60210 10180 20150 39359 40166 58008 60006 83071 90600 333 10247 20169=
07558,1996-07-25 12:00:00,26,1016.5,0.6,51,15,15000,25.928,,,290,,,,,,,,,,,wg-a,,,,AAXX 25124 07558 12565 82914 10260 20150 39379 40165 53006 60006 81137 91200=
07558,1996-07-25 18:00:00,27,1011.9,-1.4,34,10,0,7.408,,,200,17.6,28.2,,,,,,,,,wg-a,,,,AAXX 25184 07558 12/// /2004 10270 20100 39339 40119 56014 60006 91800 333 10282 20176=
07558,1996-07-26 00:00:00,19,1015.1,-2.3,78,15,0,18.52,,,20,,,,,,,,,,,wg-a,,,,AAXX 26004 07558 12/// /0210 10190 20150 39348 40151 56023 60006 90000=
07558,1996-07-26 06:00:00,18,1014.6,0.1,68,12,25000,14.816,,,10,16.5,27.2,,,,,,,,3,wg-a,,,,AAXX 26064 07558 12/75 60108 10180 20120 39340 40146 52001 60004 7038/ 84082 90600 333 10272 20165=
07558,1996-07-26 12:00:00,29,1011.5,-0.7,37,13,500,11.112,,,190,,,,,,,,,,,wg-a,,,,AAXX 26124 07558 12600 21906 10290 20130 39340 40115 56007 60006 81102 91200=
07558,1996-07-26 18:00:00,26,1011.9,0.2,45,13,0,18.52,,,170,17.9,30.7,,,,,,,,,wg-a,,,,AAXX 26184 07558 12/// /1710 10260 20130 39336 40119 53002 60006 91800 333 10307 20179=
07558,1996-07-27 00:00:00,19,1015,-0.2,83,16,0,7.408,,,340,,,,,,,,,,,wg-a,,,,AAXX 27004 07558 12/// /3404 10190 20160 39348 40150 57002 60006 90000=
07558,1996-07-27 06:00:00,16,1016,0.5,100,16,6000,11.112,,,350,16,25.9,,,,,,,,28,wg-a,,,,AAXX 27064 07558 12256 73506 10160 20160 39350 40160 53005 60006 728// 875// 90600 333 10259 20160=
07558,1996-07-27 12:00:00,24,1014.5,0.2,65,17,0,11.112,,,250,,,,,,,,,,,wg-a,,,,AAXX 27124 07558 12/// /2506 10240 20170 39358 40145 53002 60006 91200=
07558,1996-07-27 18:00:00,17,1017,0.4,94,16,0,14.816,,,220,16.3,25,,,,,,,,,wg-a,,,,AAXX 27184 07558 32/// /2208 10170 20160 39361 40170 51004 91800 333 10250 20163=
07558,1996-07-28 00:00:00,15,1018.8,-0.5,100,15,0,3.704,,,210,,,,,,,,,,,wg-a,,,,AAXX 28004 07558 12/// /2102 10150 20150 39373 40188 56005 60006 90000=
07558,1996-07-28 06:00:00,15,1019.2,0.6,100,15,10000,3.704,,,220,14.4,17.4,,,,,,,,,wg-a,,,,AAXX 28064 07558 02060 62202 10150 20150 39376 40192 53006 60006 86700 90600 333 10174 20144 60004=
07558,1996-07-28 12:00:00,22,1018.1,0,69,16,0,14.816,,,290,,,,,,,,,,,wg-a,,,,AAXX 28124 07558 12/// /2908 10220 20160 39384 40181 50000 60006 91200=
07558,1996-07-28 18:00:00,22,1017.3,-0.3,60,14,0,14.816,,,320,15,23.9,,,,,,,,,wg-a,,,,AAXX 28184 07558 12/// /3208 10220 20140 39376 40173 55003 60006 91800 333 10239 20150=
07558,1996-07-29 00:00:00,16,1019.6,-0.5,82,13,0,14.816,,,350,,,,,,,,,,,wg-a,,,,AAXX 29004 07558 12/// /3508 10160 20130 39381 40196 58005 60006 90000=
07558,1996-07-29 06:00:00,15,1019,0.4,94,14,12000,7.408,,,20,14.1,21.9,,,,,,,,,wg-a,,,,AAXX 29064 07558 12/62 00204 10150 20140 39374 40190 52004 60006 80000 90600 333 10219 20141=
07558,1996-07-29 12:00:00,26,1014.5,-1.2,51,15,500,14.816,,,220,,,,,,,,,,,wg-a,,,,AAXX 29124 07558 12500 22208 10260 20150 39362 40145 58012 60006 82102 91200=
07558,1996-07-29 18:00:00,24,1012.9,-0.8,50,13,0,14.816,,,310,15.1,28.3,,,,,,,,,wg-a,,,,AAXX 29184 07558 12/// /3108 10240 20130 39342 40129 56008 60006 91800 333 10283 20151=
07558,1996-07-30 00:00:00,18,1017.2,1.1,83,15,0,14.816,,,250,,,,,,,,,,,wg-a,,,,AAXX 30004 07558 12/// /2508 10180 20150 39366 40172 50011 60006 90000=
07558,1996-07-30 06:00:00,16,1018.2,0.9,82,13,15000,0,,,0,15.2,24.4,,,,,,,,,wg-a,,,,AAXX 30064 07558 12465 60000 10160 20130 39369 40182 53009 60006 86500 90600 333 10244 20152=
07558,1996-07-30 12:00:00,20,1017.3,-0.3,53,10,25000,35.188,,,300,,,,,,,,,,,wg-a,,,,AAXX 30124 07558 12675 53019 10200 20100 39370 40173 57003 60006 85100 91200=
07558,1996-07-30 18:00:00,19,1017.4,-0.2,60,11,0,42.596,,,300,16.1,21.2,,,,,,,,,wg-a,,,,AAXX 30184 07558 12/// /3023 10190 20110 39369 40174 56002 60006 91800 333 10212 20161=
07558,1996-07-31 00:00:00,15,1019.2,-0.5,82,12,0,35.188,,,320,,,,,,,,,,,wg-a,,,,AAXX 31004 07558 12/// /3219 10150 20120 39375 40192 57005 60006 90000=
07558,1996-07-31 06:00:00,14,1019.6,0.9,88,12,25000,11.112,,,350,12.9,19.3,,,,,,,,,wg-a,,,,AAXX 31064 07558 12/75 03506 10140 20120 39377 40196 52009 60006 80000 90600 333 10193 20129=
07558,1996-07-31 12:00:00,25,1015.5,-1,41,11,500,7.408,,,10,,,,,,,,,,,wg-a,,,,AAXX 31124 07558 12/00 00104 10250 20110 39367 40155 58010 60006 80000 91200=
07558,1996-07-31 18:00:00,25,1014.2,-0.2,47,13,0,22.224,,,300,14.3,28.7,,,,,,,,,wg-a,,,,AAXX 31184 07558 12/// /3012 10250 20130 39356 40142 55002 60006 91800 333 10287 20143=
07558,1996-08-01 00:00:00,18,1017.3,0,73,13,0,7.408,,,200,,,,,,,,,,,wg-a,,,,AAXX 01004 07558 12/// /2004 10180 20130 39366 40173 50000 60006 90000=
07558,1996-08-01 06:00:00,17,1018,0.6,77,13,60000,7.408,,,20,15.2,28.7,,,,,,,,,wg-a,,,,AAXX 01064 07558 12/86 00204 10170 20130 39368 40180 51006 60006 80000 90600 333 10287 20152=
07558,1996-08-01 12:00:00,28,1014.5,-0.6,40,13,0,18.52,,,170,,,,,,,,,,,wg-a,,,,AAXX 01124 07558 12/// /1710 10280 20130 39366 40145 58006 60006 91200=
07558,1996-08-01 18:00:00,27,1014.3,0.2,45,14,0,18.52,,,260,16.5,29.7,,,,,,,,,wg-a,,,,AAXX 01184 07558 12/// /2610 10270 20140 39361 40143 53002 60006 91800 333 10297 20165=
07558,1996-08-02 00:00:00,19,1018.9,0.1,68,13,0,7.408,,,340,,,,,,,,,,,wg-a,,,,AAXX 02004 07558 12/// /3404 10190 20130 39384 40189 50001 60006 90000=
07558,1996-08-02 06:00:00,17,1020,0.9,82,14,25000,0,,,0,16,26.9,,,,,,,,,wg-a,,,,AAXX 02064 07558 12/75 30000 10170 20140 39388 40200 52009 60006 80002 90600 333 10269 20160=
07558,1996-08-02 12:00:00,21,1020.3,0.2,64,14,15000,31.484,,,350,,,,,,,,,,17,wg-a,,,,AAXX 02124 07558 12465 73517 10210 20140 39400 40203 50002 60006 71792 8397/ 91200=
07558,1996-08-03 12:00:00,23,1019.5,-1,53,13,0,18.52,,,340,,,,,,,,,,,wg-a,,,,AAXX 03124 07558 12/// /3410 10230 20130 39399 40195 58010 60006 91200=
07558,1996-08-03 18:00:00,21,1018.6,-0.1,64,14,0,25.928,,,320,15.3,24.8,,,,,,,,,wg-a,,,,AAXX 03184 07558 12/// /3214 10210 20140 39387 40186 55001 60006 91800 333 10248 20153=
07558,1996-08-04 00:00:00,15,1020.7,-0.6,77,11,0,14.816,,,10,,,,,,,,,,,wg-a,,,,AAXX 04004 07558 12/// /0108 10150 20110 39389 40207 58006 60006 90000=
07558,1996-08-04 06:00:00,14,1019.4,-0.2,72,9,50000,22.224,,,20,12.3,24.8,,,,,,,,,wg-a,,,,AAXX 04064 07558 12/84 10212 10140 20090 39374 40194 55002 60006 80001 90600 333 10248 20123=
07558,1996-08-04 12:00:00,25,1013.1,-1.9,32,7,0,7.408,,,110,,,,,,,,,,,wg-a,,,,AAXX 04124 07558 12/// /1104 10250 20070 39345 40131 58019 60006 91200=
07558,1996-08-04 18:00:00,23,1011.9,-0.5,47,11,0,22.224,,,150,14.2,27.7,,,,,,,,,wg-a,,,,AAXX 04184 07558 12/// /1512 10230 20110 39328 40119 55005 60006 91800 333 10277 20142=
07558,1996-08-05 00:00:00,17,1015,1.1,63,10,0,38.892,,,220,,,,,,,,,,,wg-a,,,,AAXX 05004 07558 12/// /2221 10170 20100 39342 40150 53011 60006 90000=
07558,1996-08-05 06:00:00,14,1014.1,0.8,94,13,15000,0,,,0,13.8,27.7,,3,,,3,,,1,wg-a,,,,AAXX 05064 07558 02565 70000 10140 20130 39326 40141 53008 60034 70198 8583/ 90600 333 10277 20138 60037=
07558,1996-08-05 12:00:00,20,1012.6,-0.2,73,15,500,11.112,,,200,,,,,,,,,,1,wg-a,,,,AAXX 05124 07558 02500 72006 10200 20150 39329 40126 56002 61000 70182 8683/ 91200 333 6100=
07558,1996-08-05 18:00:00,22,1011.5,0.2,57,13,0,11.112,,,250,14.1,22.6,,,,,,,,,wg-a,,,,AAXX 05184 07558 32/// /2506 10220 20130 39322 40115 51002 91800 333 10226 20141=
07558,1996-08-06 00:00:00,16,1014.3,-0.1,94,15,0,7.408,,,350,,,,,,,,,,,wg-a,,,,AAXX 06004 07558 12/// /3504 10160 20150 39334 40143 55001 60006 90000=
07558,1996-08-06 06:00:00,15,1014.3,0.4,100,15,10000,7.408,,,20,14.7,21.7,,,,,,,,,wg-a,,,,AAXX 06064 07558 02460 70204 10150 20150 39331 40143 52004 60006 8457/ 90600 333 10217 20147 61000=
07558,1996-08-06 12:00:00,23,1011.9,-0.5,65,16,15000,25.928,,,150,,,,,,,,,,,wg-a,,,,AAXX 06124 07558 12565 71514 10230 20160 39330 40119 58005 60006 875// 91200=
07558,1996-08-06 18:00:00,19,1014.5,1.1,94,18,0,7.408,,,90,15.1,24,,,,,,,,,wg-a,,,,AAXX 06184 07558 32/// /0904 10190 20180 39343 40145 51011 91800 333 10240 20151=
07558,1996-08-07 00:00:00,17,1017.6,0.4,94,16,0,0,,,0,,,,,,,,,,,wg-a,,,,AAXX 07004 07558 12/// /0000 10170 20160 39366 40176 51004 60126 90000=
07558,1996-08-07 06:00:00,15,1018.1,0.3,100,15,1500,0,,,0,14.3,24,,,,,18,,,40,wg-a,,,,AAXX 07064 07558 12215 20000 10150 20150 39366 40181 52003 60184 740// 82500 90600 333 10240 20143=
07558,1996-08-07 12:00:00,23,1015.2,-1,57,14,20000,3.704,,,240,,,,,,,,,,,wg-a,,,,AAXX 07124 07558 12570 72402 10230 20140 39361 40152 58010 60006 81222 91200=
07558,1996-08-07 18:00:00,22,1013.9,-0.5,69,16,0,14.816,,,320,15.2,25.4,,,,,,,,,wg-a,,,,AAXX 07184 07558 12/// /3208 10220 20160 39346 40139 56005 60006 91800 333 10254 20152=
07558,1996-08-08 00:00:00,16,1016.1,-0.3,94,15,0,14.816,,,30,,,,,,,,,,,wg-a,,,,AAXX 08004 07558 12/// /0308 10160 20150 39351 40161 58003 60046 90000=
07558,1996-08-08 06:00:00,15,1015,-0.3,100,15,6000,14.816,,,60,15,22,,16,,,21,,,95,wg-a,,,,AAXX 08064 07558 02156 80608 10150 20150 39337 40150 55003 60214 79596 879// 90600 333 10220 20150 60167=
07558,1996-08-08 12:00:00,21,1013.9,-0.2,73,16,20000,7.408,,,260,,,,,,,,,,1,wg-a,,,,AAXX 08124 07558 12570 62604 10210 20160 39343 40139 58002 60086 70196 86800 91200=
07558,1996-08-08 18:00:00,22,1013.5,0.4,65,15,0,18.52,,,300,14.8,24.7,,,,,,,,,wg-a,,,,AAXX 08184 07558 32/// /3010 10220 20150 39341 40135 53004 91800 333 10247 20148=
07558,1996-08-09 00:00:00,17,1016.9,0.3,77,13,0,11.112,,,340,,,,,,,,,,,wg-a,,,,AAXX 09004 07558 12/// /3406 10170 20130 39358 40169 51003 60006 90000=
07558,1996-08-09 06:00:00,15,1016.5,0.1,94,14,50000,3.704,,,340,14.4,24.7,,,,,8,,,,wg-a,,,,AAXX 09064 07558 02/84 13402 10150 20140 39351 40165 53001 60006 80001 90600 333 10247 20144 60084=
07558,1996-08-09 12:00:00,25,1013.3,-0.5,47,13,60000,11.112,,,170,,,,,,,,,,,wg-a,,,,AAXX 09124 07558 12786 11706 10250 20130 39347 40133 57005 60006 81201 91200=
07558,1996-08-09 18:00:00,24,1011.9,-0.5,61,16,0,14.816,,,150,15.1,27.8,,,,,,,,,wg-a,,,,AAXX 09184 07558 12/// /1508 10240 20160 39331 40119 56005 60006 91800 333 10278 20151=
07558,1996-08-10 00:00:00,19,1014,-0.9,73,14,0,7.408,,,10,,,,,,,,,,,wg-a,,,,AAXX 10004 07558 12/// /0104 10190 20140 39337 40140 56009 60006 90000=
07558,1996-08-10 06:00:00,19,1012,-0.3,73,14,20000,7.408,,,140,17.9,23.6,,,,,,,,,wg-a,,,,AAXX 10064 07558 12/70 51404 10190 20140 39320 40120 56003 60006 82082 90600 333 10236 20179=
07558,1996-08-10 12:00:00,24,1009.1,-1,69,18,0,29.632,,,140,,,,,,,,,,,wg-a,,,,AAXX 10124 07558 12/// /1416 10240 20180 39307 40091 58010 60006 91200=
07558,1996-08-10 18:00:00,19,1010.3,1.8,83,16,0,7.408,,,320,18.8,24.4,,,,,,,,,wg-a,,,,AAXX 10184 07558 32/// /3204 10190 20160 39306 40103 51018 91800 333 10244 20188=
07558,1996-08-11 00:00:00,16,1013.5,-0.1,88,14,0,11.112,,,280,,,,,,,,,,,wg-a,,,,AAXX 11004 07558 12/// /2806 10160 20140 39325 40135 57001 60016 90000=
07558,1996-08-11 06:00:00,15,1012.8,0.1,82,12,15000,18.52,,,290,14.4,20,,,,,4,,,,wg-a,,,,AAXX 11064 07558 12465 82910 10150 20120 39315 40128 53001 60044 8377/ 90600 333 10200 20144=
07558,1996-08-11 12:00:00,18,1011.9,-0.3,68,12,0,29.632,,,260,,,,,,,,,,,wg-a,,,,AAXX 11124 07558 12/// /2616 10180 20120 39315 40119 58003 60016 91200=
07558,1996-08-11 18:00:00,16,1012.2,-0.2,88,14,0,18.52,,,240,14,19.1,,,,,,,,,wg-a,,,,AAXX 11184 07558 32/// /2410 10160 20140 39313 40122 55002 91800 333 10191 20140=
07558,1996-08-12 00:00:00,12,1014.3,0.4,88,10,0,14.816,,,280,,,,,,,,,,,wg-a,,,,AAXX 12004 07558 12/// /2808 10120 20100 39322 40143 50004 60016 90000=
07558,1996-08-12 06:00:00,12,1014,0.3,94,11,10000,18.52,,,260,11.6,19.1,,0,,,3,,,21,wg-a,,,,AAXX 12064 07558 02460 72610 10120 20110 39318 40140 53003 60034 721// 878// 90600 333 10191 20116 60007=
07558,1996-08-12 12:00:00,17,1013.8,0.2,68,11,40000,31.484,,,300,,,,,,,,,,2,wg-a,,,,AAXX 12124 07558 02482 63017 10170 20110 39330 40138 51002 61000 70282 86800 91200 333 ////=
07558,1996-08-12 18:00:00,17,1014,-0.4,72,12,0,22.224,,,290,11.6,19,,,,,,,,,wg-a,,,,AAXX 12184 07558 32/// /2912 10170 20120 39331 40140 55004 91800 333 10190 20116=
07558,1996-08-13 00:00:00,13,1016.6,0,94,12,0,3.704,,,180,,,,,,,,,,,wg-a,,,,AAXX 13004 07558 12/// /1802 10130 20120 39345 40166 50000 60006 90000=
07558,1996-08-13 06:00:00,12,1016.5,0.4,94,11,25000,22.224,,,330,10.9,16.6,,,,,,,,,wg-a,,,,AAXX 13064 07558 02575 43312 10120 20110 39342 40165 51004 60006 82570 90600 333 10166 20109 61000=
07558,1996-08-13 12:00:00,17,1015.5,-0.2,59,9,500,22.224,,,320,,,,,,,,,,,wg-a,,,,AAXX 13124 07558 12500 63212 10170 20090 39347 40155 58002 60006 86800 91200=
07558,1996-08-13 18:00:00,18,1014.9,-0.3,56,9,0,29.632,,,310,12.2,20.2,,,,,,,,,wg-a,,,,AAXX 13184 07558 12/// /3116 10180 20090 39342 40149 55003 60006 91800 333 10202 20122=
07558,1996-08-14 00:00:00,13,1018,0.2,82,10,0,14.816,,,20,,,,,,,,,,,wg-a,,,,AAXX 14004 07558 12/// /0208 10130 20100 39357 40180 52002 60006 90000=
07558,1996-08-14 06:00:00,11,1017.4,-0.1,94,10,20000,7.408,,,30,10.6,20.2,,,,,,,,,wg-a,,,,AAXX 14064 07558 12/70 30304 10110 20100 39348 40174 58001 60006 80004 90600 333 10202 20106=
07558,1996-08-14 12:00:00,22,1013.7,-1.3,53,12,40000,11.112,,,340,,,,,,,,,,,wg-a,,,,AAXX 14124 07558 12782 23406 10220 20120 39341 40137 56013 60006 81201 91200=
07558,1996-08-14 18:00:00,20,1013.1,0.2,64,13,0,25.928,,,320,11.2,23.3,,,,,,,,,wg-a,,,,AAXX 14184 07558 12/// /3214 10200 20130 39333 40131 53002 60006 91800 333 10233 20112=
07558,1996-08-15 00:00:00,14,1016.9,-0.1,77,10,0,25.928,,,20,,,,,,,,,,,wg-a,,,,AAXX 15004 07558 12/// /0214 10140 20100 39351 40169 55001 60006 90000=
07558,1996-08-15 06:00:00,13,1017.6,1,82,10,25000,22.224,,,20,12,20.1,,,,,,,,,wg-a,,,,AAXX 15064 07558 12/75 00212 10130 20100 39355 40176 53010 60006 80000 90600 333 10201 20120=
07558,1996-08-15 12:00:00,22,1015,-0.4,53,12,0,11.112,,,320,,,,,,,,,,,wg-a,,,,AAXX 15124 07558 12/// /3206 10220 20120 39355 40150 58004 60006 91200=
07558,1996-08-15 18:00:00,22,1014.9,0.2,53,12,0,29.632,,,320,13.3,24.4,,,,,,,,,wg-a,,,,AAXX 15184 07558 12/// /3216 10220 20120 39353 40149 53002 60006 91800 333 10244 20133=
07558,1996-08-16 00:00:00,15,1018,-0.2,77,11,0,31.484,,,10,,,,,,,,,,,wg-a,,,,AAXX 16004 07558 12/// /0117 10150 20110 39364 40180 58002 60006 90000=
07558,1996-08-16 06:00:00,13,1018.9,0.4,82,10,25000,22.224,,,30,12.3,21.6,,,,,,,,,wg-a,,,,AAXX 16064 07558 12/75 00312 10130 20100 39367 40189 53004 60006 80000 90600 333 10216 20123=
07558,1996-08-16 12:00:00,25,1015.8,-0.6,32,7,25000,3.704,,,290,,,,,,,,,,,wg-a,,,,AAXX 16124 07558 12/75 02902 10250 20070 39367 40158 57006 60006 80000 91200=
07558,1996-08-16 18:00:00,24,1015.5,0.3,41,10,0,14.816,,,300,13.3,26.8,,,,,,,,,wg-a,,,,AAXX 16184 07558 12/// /3008 10240 20100 39365 40155 53003 60006 91800 333 10268 20133=
07558,1996-08-17 00:00:00,17,1019.3,0.5,59,9,0,3.704,,,20,,,,,,,,,,,wg-a,,,,AAXX 17004 07558 12/// /0202 10170 20090 39382 40193 51005 60006 90000=
07558,1996-08-17 06:00:00,15,1020.3,0.5,77,11,500,7.408,,,20,13.7,25.9,,,,,,,,,wg-a,,,,AAXX 17064 07558 12/00 10204 10150 20110 39384 40203 53005 60006 80001 90600 333 10259 20137=
07558,1996-08-17 12:00:00,25,1017,-0.7,41,11,0,14.816,,,290,,,,,,,,,,,wg-a,,,,AAXX 17124 07558 12/// /2908 10250 20110 39381 40170 58007 60006 91200=
07558,1996-08-17 18:00:00,24,1016.2,-0.3,41,10,0,14.816,,,310,14.8,26.1,,,,,,,,,wg-a,,,,AAXX 17184 07558 12/// /3108 10240 20100 39370 40162 56003 60006 91800 333 10261 20148=
07558,1996-08-18 00:00:00,17,1018.3,-0.5,68,11,0,11.112,,,20,,,,,,,,,,,wg-a,,,,AAXX 18004 07558 12/// /0206 10170 20110 39371 40183 58005 60006 90000=
07558,1996-08-18 06:00:00,15,1017.7,-0.1,77,11,500,14.816,,,20,14.2,26.1,,,,,,,,,wg-a,,,,AAXX 18064 07558 12/00 00208 10150 20110 39362 40177 56001 60006 80000 90600 333 10261 20142=
07558,1996-08-18 12:00:00,26,1013.7,-1.1,32,8,0,3.704,,,180,,,,,,,,,,,wg-a,,,,AAXX 18124 07558 12/// /1802 10260 20080 39351 40137 58011 60006 91200=
07558,1996-08-18 18:00:00,26,1011.8,-0.9,37,10,0,7.408,,,250,15.3,27,,,,,,,,,wg-a,,,,AAXX 18184 07558 12/// /2504 10260 20100 39334 40118 56009 60006 91800 333 10270 20153=
07558,1996-08-19 00:00:00,18,1015,0.1,68,12,0,7.408,,,70,,,,,,,,,,,wg-a,,,,AAXX 19004 07558 12/// /0704 10180 20120 39345 40150 50001 60006 90000=
07558,1996-08-19 06:00:00,17,1015.1,0.1,68,11,500,7.408,,,70,16.2,25.6,,,,,,,,,wg-a,,,,AAXX 19064 07558 12/00 10704 10170 20110 39343 40151 53001 60006 80001 90600 333 10256 20162=
07558,1996-08-19 12:00:00,25,1012.8,-0.4,47,13,500,25.928,,,150,,,,,,,,,,,wg-a,,,,AAXX 19124 07558 12500 11514 10250 20130 39343 40128 58004 60006 81101 91200=
07558,1996-08-19 18:00:00,21,1013.1,-0.2,64,14,0,18.52,,,150,16.9,25.6,,,,,,,,,wg-a,,,,AAXX 19184 07558 12/// /1510 10210 20140 39335 40131 55002 60006 91800 333 10256 20169=
07558,1996-08-20 00:00:00,16,1015.5,0.2,88,14,0,22.224,,,110,,,,,,,,,,,wg-a,,,,AAXX 20004 07558 12/// /1112 10160 20140 39345 40155 50002 60006 90000=
07558,1996-08-20 06:00:00,17,1014.8,-0.2,88,15,8000,11.112,,,100,15.9,25.6,,,,,,,,,wg-a,,,,AAXX 20064 07558 12458 71006 10170 20150 39340 40148 56002 60006 8552/ 90600 333 10256 20159=
07558,1996-08-20 12:00:00,21,1013.2,-0.2,73,16,0,25.928,,,130,,,,,,,,,,,wg-a,,,,AAXX 20124 07558 12/// /1314 10210 20160 39338 40132 57002 60006 91200=
07558,1996-08-20 18:00:00,18,1013.9,0.8,77,14,0,18.52,,,20,16.6,22.3,,,,,,,,,wg-a,,,,AAXX 20184 07558 12/// /0210 10180 20140 39335 40139 51008 60006 91800 333 10223 20166=
07558,1996-08-21 06:00:00,14,1014.7,0.6,94,13,8000,3.704,,,140,13.5,17.9,,0,,,24,,,60,wg-a,,,,AAXX 21064 07558 02558 71402 10140 20130 39331 40147 53006 60244 76086 8258/ 90600 333 10179 20135 60007=
07558,1996-08-21 12:00:00,17,1012.7,-0.7,88,15,6000,11.112,,,160,,,,2,,,,,,95,wg-a,,,,AAXX 21124 07558 02556 71606 10170 20150 39321 40127 58007 60046 79596 8698/ 91200 333 60027=
07558,1996-08-22 06:00:00,12,1016.1,-0.1,94,11,10000,11.112,,,310,11.4,18.8,,,,,17,,,,wg-a,,,,AAXX 22064 07558 12460 33106 10120 20110 39338 40161 58001 60174 82831 90600 333 10188 20114=
07558,1996-08-22 12:00:00,19,1015.1,0.1,60,11,60000,18.52,,,300,,,,,,,,,,,wg-a,,,,AAXX 22124 07558 12686 13010 10190 20110 39347 40151 52001 60006 81200 91200=
07558,1996-08-22 18:00:00,18,1014.5,-0,56,9,0,14.816,,,310,12.1,20.4,,,,,,,,,wg-a,,,,AAXX 22184 07558 12/// /3108 10180 20090 39339 40145 55000 60006 91800 333 10204 20121=
07558,1996-08-23 00:00:00,13,1016.3,-0.5,77,9,0,3.704,,,340,,,,,,,,,,,wg-a,,,,AAXX 23004 07558 12/// /3402 10130 20090 39343 40163 56005 60006 90000=
07558,1996-08-23 06:00:00,12,1015.1,-0.1,82,9,60000,7.408,,,20,10.9,20.4,,,,,,,,,wg-a,,,,AAXX 23064 07558 12/86 10204 10120 20090 39328 40151 55001 60006 80001 90600 333 10204 20109=
07558,1996-08-23 12:00:00,22,1012.5,0.2,53,12,60000,22.224,,,240,,,,,,,,,,,wg-a,,,,AAXX 23124 07558 12786 62412 10220 20120 39333 40125 51002 60006 83530 91200=
07558,1996-08-23 18:00:00,18,1014.2,0.2,77,14,0,22.224,,,320,11.8,23.6,,,,,,,,,wg-a,,,,AAXX 23184 07558 12/// /3212 10180 20140 39337 40142 53002 60006 91800 333 10236 20118=
07558,1996-08-24 00:00:00,14,1017,0.2,88,12,0,11.112,,,300,,,,,,,,,,,wg-a,,,,AAXX 24004 07558 12/// /3006 10140 20120 39353 40170 51002 60006 90000=
07558,1996-08-24 06:00:00,13,1016.5,-0.1,82,10,20000,22.224,,,320,12.6,23.6,,,,,,,,0,wg-a,,,,AAXX 24064 07558 12470 63212 10130 20100 39343 40165 55001 60004 7008/ 86500 90600 333 10236 20126=
07558,1996-08-24 12:00:00,18,1014.9,-1,56,9,0,18.52,,,280,,,,,,,,,,,wg-a,,,,AAXX 24124 07558 12/// /2810 10180 20090 39342 40149 58010 60006 91200=
07558,1996-08-24 18:00:00,16,1015.6,0.7,77,12,0,29.632,,,300,12.6,20.3,,,,,,,,,wg-a,,,,AAXX 24184 07558 12/// /3016 10160 20120 39343 40156 53007 60006 91800 333 10203 20126=
07558,1996-08-25 00:00:00,13,1017.7,0,88,11,0,22.224,,,270,,,,,,,,,,,wg-a,,,,AAXX 25004 07558 12/// /2712 10130 20110 39355 40177 50000 60006 90000=
07558,1996-08-25 06:00:00,12,1017.4,0.2,88,10,15000,14.816,,,280,11.3,15.5,,,,,,,,,wg-a,,,,AAXX 25064 07558 12465 72808 10120 20100 39350 40174 53002 60006 875// 90600 333 10155 20113=
07558,1996-08-25 12:00:00,18,1015.6,-0.8,59,10,0,14.816,,,310,,,,,,,,,,,wg-a,,,,AAXX 25124 07558 12/// /3108 10180 20100 39350 40156 58008 60006 91200=
07558,1996-08-25 18:00:00,16,1015.2,0,72,11,0,11.112,,,280,12,20.4,,,,,,,,,wg-a,,,,AAXX 25184 07558 12/// /2806 10160 20110 39342 40152 50000 60006 91800 333 10204 20120=
07558,1996-08-26 00:00:00,13,1015.7,-0.9,88,11,0,7.408,,,20,,,,,,,,,,,wg-a,,,,AAXX 26004 07558 12/// /0204 10130 20110 39337 40157 57009 60006 90000=
07558,1996-08-26 06:00:00,12,1016,0.5,94,11,10000,7.408,,,20,11.4,16.4,,1,,,1,,,61,wg-a,,,,AAXX 26064 07558 02460 80204 10120 20110 39336 40160 51005 60014 7616/ 8557/ 90600 333 10164 20114 60017=
07558,1996-08-26 12:00:00,15,1016.2,-0.3,82,12,20000,3.704,,,60,,,,,,,,,,1,wg-a,,,,AAXX 26124 07558 02470 70602 10150 20120 39347 40162 58003 60026 70162 8357/ 91200 333 61000=
07558,1996-08-26 18:00:00,15,1015.7,0.2,94,14,0,3.704,,,240,11.5,16.2,,,,,,,,,wg-a,,,,AAXX 26184 07558 32/// /2402 10150 20140 39344 40157 53002 91800 333 10162 20115=
07558,1996-08-27 00:00:00,14,1016.6,-0.2,94,13,0,3.704,,,20,,,,,,,,,,,wg-a,,,,AAXX 27004 07558 12/// /0202 10140 20130 39350 40166 58002 60006 90000=
07558,1996-08-27 06:00:00,13,1015.6,-0.2,100,13,15000,7.408,,,20,13.2,15.3,,,,,2,,,,wg-a,,,,AAXX 27064 07558 02565 80204 10130 20130 39338 40156 55002 60006 8357/ 90600 333 10153 20132 60024=
07558,1996-08-27 12:00:00,15,1016.3,-0.1,94,14,2500,3.704,,,190,,,,2,,,,,,61,wg-a,,,,AAXX 27124 07558 02225 81902 10150 20140 39348 40163 56001 60036 76166 875// 91200 333 60027=
07558,1996-08-28 00:00:00,12,1019.9,-0.2,88,10,0,29.632,,,300,,,,,,,,,,,wg-a,,,,AAXX 28004 07558 12/// /3016 10120 20100 39371 40199 57002 60006 90000=
07558,1996-08-28 06:00:00,9,1020.4,0.7,93,8,15000,3.704,,,160,8.7,13.2,,,,,9,,,,wg-a,,,,AAXX 28064 07558 12465 51602 10090 20080 39369 40204 53007 60094 84532 90600 333 10132 20087=
07558,1996-08-28 12:00:00,15,1018.9,-0.3,63,8,25000,31.484,,,290,,,,,,,,,,,wg-a,,,,AAXX 28124 07558 12575 62917 10150 20080 39372 40189 56003 60006 85802 91200=
07558,1996-08-28 18:00:00,14,1018.2,-0.1,67,8,0,22.224,,,300,9.1,16.9,,,,,,,,,wg-a,,,,AAXX 28184 07558 12/// /3012 10140 20080 39362 40182 55001 60006 91800 333 10169 20091=
07558,1996-08-29 00:00:00,10,1020.2,-0.1,93,9,0,14.816,,,310,,,,,,,,,,,wg-a,,,,AAXX 29004 07558 12/// /3108 10100 20090 39370 40202 58001 60006 90000=
07558,1996-08-29 06:00:00,8,1020.2,0.5,100,8,15000,14.816,,,270,8.1,16.9,,,,,,,,,wg-a,,,,AAXX 29064 07558 12465 12708 10080 20080 39364 40202 53005 60006 81800 90600 333 10169 20081=
07558,1996-08-29 12:00:00,15,1018.3,-0.5,63,8,500,22.224,,,350,,,,,,,,,,1,wg-a,,,,AAXX 29124 07558 12500 63512 10150 20080 39365 40183 58005 60006 70141 86800 91200=
07558,1996-08-29 18:00:00,14,1018.2,0.3,67,8,0,18.52,,,310,7.8,16.6,,,,,,,,,wg-a,,,,AAXX 29184 07558 12/// /3110 10140 20080 39361 40182 53003 60006 91800 333 10166 20078=
07558,1996-08-30 00:00:00,10,1021.2,0.4,93,9,0,7.408,,,30,,,,,,,,,,,wg-a,,,,AAXX 30004 07558 12/// /0304 10100 20090 39378 40212 51004 60006 90000=
07558,1996-08-30 06:00:00,9,1021.5,0.8,100,9,10000,18.52,,,340,8.2,13.4,,,,,,,,,wg-a,,,,AAXX 30064 07558 12460 63410 10090 20090 39380 40215 53008 60006 86500 90600 333 10134 20082=
07558,1996-08-30 12:00:00,16,1020.4,-0.1,59,8,20000,25.928,,,310,,,,,,,,,,,wg-a,,,,AAXX 30124 07558 12570 73114 10160 20080 39387 40204 56001 60006 85802 91200=
07558,1996-08-30 18:00:00,14,1020.9,0.2,72,9,0,25.928,,,330,9.4,17,,,,,,,,,wg-a,,,,AAXX 30184 07558 12/// /3314 10140 20090 39386 40209 53002 60006 91800 333 10170 20094=
07558,1996-08-31 00:00:00,12,1022.3,-0.1,82,9,0,25.928,,,320,,,,,,,,,,,wg-a,,,,AAXX 31004 07558 12/// /3214 10120 20090 39395 40223 57001 60006 90000=
07558,1996-08-31 06:00:00,10,1023.4,0.3,82,7,40000,18.52,,,330,9.3,17,,,,,,,,,wg-a,,,,AAXX 31064 07558 12/82 23310 10100 20070 39398 40234 53003 60006 81041 90600 333 10170 20093=
07558,1996-08-31 12:00:00,17,1021.3,-0.4,52,7,0,22.224,,,330,,,,,,,,,,,wg-a,,,,AAXX 31124 07558 12/// /3312 10170 20070 39398 40213 58004 60006 91200=
07558,1996-08-31 18:00:00,15,1021.3,0.1,63,8,0,22.224,,,330,9.5,18.7,,,,,,,,,wg-a,,,,AAXX 31184 07558 12/// /3312 10150 20080 39394 40213 50001 60006 91800 333 10187 20095=
07558,1996-09-01 00:00:00,11,1023.7,-0,82,8,0,29.632,,,320,,,,,,,,,,,wg-a,,,,AAXX 01004 07558 12/// /3216 10110 20080 39405 40237 55000 60006 90000=
07558,1996-09-01 06:00:00,9,1023.8,0.4,81,6,40000,22.224,,,340,8.9,18.7,,,,,,,,,wg-a,,,,AAXX 01064 07558 12582 23412 10090 20060 39399 40238 53004 60006 81142 90600 333 10187 20089=
07558,1996-09-01 12:00:00,17,1020.9,-0.6,42,4,0,29.632,,,350,,,,,,,,,,,wg-a,,,,AAXX 01124 07558 12/// /3516 10170 20040 39393 40209 58006 60006 91200=
07558,1996-09-01 18:00:00,15,1020,-0.3,51,5,0,35.188,,,340,9,17.7,,,,,,,,,wg-a,,,,AAXX 01184 07558 12/// /3419 10150 20050 39380 40200 57003 60006 91800 333 10177 20090=
07558,1996-09-02 00:00:00,9,1021.9,-0.6,71,4,0,25.928,,,340,,,,,,,,,,,wg-a,,,,AAXX 02004 07558 12/// /3414 10090 20040 39382 40219 58006 60006 90000=
07558,1996-09-02 06:00:00,8,1019.9,-0.7,76,4,20000,25.928,,,340,7.5,14.6,,,,,,,,,wg-a,,,,AAXX 02064 07558 12/70 33414 10080 20040 39360 40199 56007 60006 80002 90600 333 10146 20075=
07558,1996-09-02 12:00:00,15,1016.5,-1.2,51,5,500,29.632,,,360,,,,,,,,,,,wg-a,,,,AAXX 02124 07558 12500 33616 10150 20050 39349 40165 56012 60006 83100 91200=
07558,1996-09-02 18:00:00,13,1017,0.2,58,5,0,22.224,,,340,8.2,16.5,,,,,,,,,wg-a,,,,AAXX 02184 07558 12/// /3412 10130 20050 39347 40170 52002 60006 91800 333 10165 20082=
07558,1996-09-03 00:00:00,9,1017.6,-0.7,81,6,0,14.816,,,350,,,,,,,,,,,wg-a,,,,AAXX 03004 07558 12/// /3508 10090 20060 39342 40176 57007 60006 90000=
07558,1996-09-03 06:00:00,8,1016,-0.9,93,7,20000,14.816,,,350,6.7,16.5,,,,,,,,,wg-a,,,,AAXX 03064 07558 12/70 13508 10080 20070 39325 40160 56009 60006 81031 90600 333 10165 20067=
07558,1996-09-03 12:00:00,18,1012.7,-0.4,56,9,500,7.408,,,260,,,,,,,,,,,wg-a,,,,AAXX 03124 07558 12500 42604 10180 20090 39321 40127 58004 60006 83232 91200=
07558,1996-09-03 18:00:00,11,1015.2,0.3,100,11,0,3.704,,,210,8.1,18.3,,,,,,,,,wg-a,,,,AAXX 03184 07558 32/// /2102 10110 20110 39327 40152 51003 91800 333 10183 20081=
07558,1996-09-04 00:00:00,10,1015.9,-0.3,93,9,0,18.52,,,10,,,,,,,,,,,wg-a,,,,AAXX 04004 07558 12/// /0110 10100 20090 39329 40159 58003 60016 90000=
07558,1996-09-04 06:00:00,8,1016.4,0.4,93,7,15000,11.112,,,20,7.7,11,,,,,10,,,,wg-a,,,,AAXX 04064 07558 12/65 20206 10080 20070 39329 40164 53004 60104 80002 90600 333 10110 20077=
07558,1996-09-04 12:00:00,19,1013.2,0.3,64,12,20000,11.112,,,250,,,,,,,,,,,wg-a,,,,AAXX 04124 07558 12570 42506 10190 20120 39329 40132 50003 60006 84102 91200=
07558,1996-09-04 18:00:00,17,1012.9,-0.2,72,12,0,11.112,,,200,8.2,20.2,,,,,,,,,wg-a,,,,AAXX 04184 07558 12/// /2006 10170 20120 39323 40129 55002 60006 91800 333 10202 20082=
07558,1996-09-05 00:00:00,13,1014.9,-0.1,88,11,0,3.704,,,20,,,,,,,,,,,wg-a,,,,AAXX 05004 07558 12/// /0202 10130 20110 39331 40149 58001 60006 90000=
07558,1996-09-05 06:00:00,12,1015.3,0.1,94,11,500,14.816,,,30,11.1,17.3,,,,,,,,,wg-a,,,,AAXX 05064 07558 12/00 00308 10120 20110 39330 40153 53001 60006 80000 90600 333 10173 20111=
07558,1996-09-05 12:00:00,21,1012,-0.8,64,14,25000,11.112,,,260,,,,,,,,,,,wg-a,,,,AAXX 05124 07558 12575 12606 10210 20140 39326 40120 58008 60006 81100 91200=
07558,1996-09-05 18:00:00,19,1012.1,-0,56,10,0,18.52,,,300,11.5,22.7,,,,,,,,,wg-a,,,,AAXX 05184 07558 12/// /3010 10190 20100 39319 40121 55000 60006 91800 333 10227 20115=
07558,1996-09-06 00:00:00,15,1015.1,0.5,82,12,0,3.704,,,270,,,,,,,,,,,wg-a,,,,AAXX 06004 07558 12/// /2702 10150 20120 39337 40151 52005 60006 90000=
07558,1996-09-06 06:00:00,12,1016.6,0.6,82,9,15000,3.704,,,260,12,18.8,,,,,,,,,wg-a,,,,AAXX 06064 07558 12/65 02602 10120 20090 39343 40166 53006 60006 80000 90600 333 10188 20120=
07558,1996-09-06 12:00:00,20,1014.4,-0.5,46,8,500,31.484,,,340,,,,,,,,,,,wg-a,,,,AAXX 06124 07558 12500 13417 10200 20080 39343 40144 58005 60006 81100 91200=
07558,1996-09-06 18:00:00,19,1014,-0.2,52,9,0,18.52,,,300,12.2,21.7,,,,,,,,,wg-a,,,,AAXX 06184 07558 12/// /3010 10190 20090 39336 40140 55002 60006 91800 333 10217 20122=
07558,1996-09-07 00:00:00,13,1017.1,0.1,54,4,0,18.52,,,350,,,,,,,,,,,wg-a,,,,AAXX 07004 07558 12/// /3510 10130 20040 39349 40171 50001 60006 90000=
07558,1996-09-07 06:00:00,11,1017.3,0.5,58,3,500,3.704,,,30,9.8,18.6,,,,,,,,,wg-a,,,,AAXX 07064 07558 12/00 00302 10110 20030 39343 40173 53005 60006 80000 90600 333 10186 20098=
07558,1996-09-07 12:00:00,20,1014.5,-0.4,37,5,0,22.224,,,350,,,,,,,,,,,wg-a,,,,AAXX 07124 07558 12/// /3512 10200 20050 39342 40145 58004 60006 91200=
07558,1996-09-07 18:00:00,17,1015.9,0.7,42,4,0,29.632,,,330,10.1,20.9,,,,,,,,,wg-a,,,,AAXX 07184 07558 12/// /3316 10170 20040 39347 40159 53007 60006 91800 333 10209 20101=
07558,1996-09-08 00:00:00,10,1019.1,-0.1,50,0,0,18.52,,,20,,,,,,,,,,,wg-a,,,,AAXX 08004 07558 12/// /0210 10100 20000 39357 40191 56001 60006 90000=
07558,1996-09-08 06:00:00,9,1017.9,-0.1,49,-1,50000,11.112,,,60,8,16.6,,,,,,,,,wg-a,,,,AAXX 08064 07558 12/84 40606 10090 21010 39342 40179 55001 60006 80002 90600 333 10166 20080=
07558,1996-09-08 12:00:00,19,1014,-0.7,32,2,0,3.704,,,340,,,,,,,,,,,wg-a,,,,AAXX 08124 07558 12/// /3402 10190 20020 39335 40140 57007 60006 91200=
07558,1996-09-08 18:00:00,17,1012.9,-0.1,34,1,0,29.632,,,360,8.5,20.7,,,,,,,,,wg-a,,,,AAXX 08184 07558 12/// /3616 10170 20010 39319 40129 55001 60006 91800 333 10207 20085=
07558,1996-09-09 00:00:00,10,1015,-0.3,50,0,0,22.224,,,30,,,,,,,,,,,wg-a,,,,AAXX 09004 07558 12/// /0312 10100 20000 39320 40150 58003 60006 90000=
07558,1996-09-09 06:00:00,7,1015,0.5,70,2,60000,25.928,,,20,6.9,20.7,,,,,,,,,wg-a,,,,AAXX 09064 07558 12/86 10214 10070 20020 39312 40150 50005 60006 81032 90600 333 10207 20069=
07558,1996-09-09 12:00:00,18,1013,0.2,42,5,60000,3.704,,,210,,,,,,,,,,,wg-a,,,,AAXX 09124 07558 12786 52102 10180 20050 39323 40130 53002 60006 81134 91200=
07558,1996-09-09 18:00:00,16,1014.2,0.9,39,2,0,0,,,0,7.1,18.7,,,,,,,,,wg-a,,,,AAXX 09184 07558 12/// /0000 10160 20020 39330 40142 53009 60006 91800 333 10187 20071=
07558,1996-09-10 00:00:00,11,1017.9,0.2,76,7,0,14.816,,,20,,,,,,,,,,,wg-a,,,,AAXX 10004 07558 12/// /0208 10110 20070 39352 40179 50002 60006 90000=
07558,1996-09-10 06:00:00,8,1018.7,0.3,71,3,500,18.52,,,30,7.5,16.2,,,,,,,,,wg-a,,,,AAXX 10064 07558 12/00 00310 10080 20030 39349 40187 53003 60006 80000 90600 333 10162 20075=
07558,1996-09-10 12:00:00,18,1015.6,-0.2,45,6,500,7.408,,,300,,,,,,,,,,,wg-a,,,,AAXX 10124 07558 12500 23004 10180 20060 39349 40156 58002 60006 82100 91200=
07558,1996-09-10 18:00:00,16,1014.4,-0.4,48,5,0,18.52,,,320,7.9,20.6,,,,,,,,,wg-a,,,,AAXX 10184 07558 12/// /3210 10160 20050 39333 40144 58004 60006 91800 333 10206 20079=
07558,1996-09-11 00:00:00,11,1017.1,0.1,62,4,0,14.816,,,30,,,,,,,,,,,wg-a,,,,AAXX 11004 07558 12/// /0308 10110 20040 39343 40171 52001 60006 90000=
07558,1996-09-11 06:00:00,9,1016.2,-0.8,71,4,500,11.112,,,20,8.5,16.2,,,,,,,,,wg-a,,,,AAXX 11064 07558 12/00 00206 10090 20040 39329 40162 56008 60006 80000 90600 333 10162 20085=
07558,1996-09-11 12:00:00,19,1011.6,-1.2,43,6,500,11.112,,,210,,,,,,,,,,,wg-a,,,,AAXX 11124 07558 12500 32106 10190 20060 39314 40116 58012 60006 82102 91200=
07558,1996-09-11 18:00:00,16,1009.9,-0.7,55,7,0,14.816,,,240,9.1,20.7,,,,,,,,,wg-a,,,,AAXX 11184 07558 12/// /2408 10160 20070 39292 40099 56007 60006 91800 333 10207 20091=
07558,1996-09-12 00:00:00,12,1010.4,-1.1,67,6,0,3.704,,,360,,,,,,,,,,,wg-a,,,,AAXX 12004 07558 12/// /3602 10120 20060 39285 40104 58011 60006 90000=
07558,1996-09-12 06:00:00,10,1008.7,-0.8,76,6,40000,7.408,,,20,9.4,20.7,,,,,,,,,wg-a,,,,AAXX 12064 07558 12/82 20204 10100 20060 39262 40087 55008 60006 81031 90600 333 10207 20094=
07558,1996-09-12 12:00:00,19,1004.3,-1.3,40,5,40000,22.224,,,320,,,,,,,,,,,wg-a,,,,AAXX 12124 07558 12782 13212 10190 20050 39247 40043 58013 60006 81201 91200=
07558,1996-09-12 18:00:00,16,1005.4,0.9,51,6,0,22.224,,,300,9.5,19.8,,,,,,,,,wg-a,,,,AAXX 12184 07558 12/// /3012 10160 20060 39250 40054 53009 60006 91800 333 10198 20095=
07558,1996-09-13 00:00:00,11,1010.8,1.2,66,5,0,29.632,,,310,,,,,,,,,,,wg-a,,,,AAXX 13004 07558 12/// /3116 10110 20050 39285 40108 51012 60006 90000=
07558,1996-09-13 06:00:00,10,1012.5,0.9,82,7,20000,29.632,,,300,9.7,16.2,,,,,,,,,wg-a,,,,AAXX 13064 07558 12570 53016 10100 20070 39298 40125 53009 60006 85800 90600 333 10162 20097=
07558,1996-09-13 12:00:00,14,1012.7,0.3,51,4,20000,42.596,,,300,,,,,,,,,,,wg-a,,,,AAXX 13124 07558 12570 63023 10140 20040 39310 40127 51003 60006 86800 91200=
07558,1996-09-13 18:00:00,12,1015.1,1.8,50,2,0,29.632,,,310,9.9,15.4,,,,,,,,,wg-a,,,,AAXX 13184 07558 12/// /3116 10120 20020 39326 40151 53018 60006 91800 333 10154 20099=
07558,1996-09-14 00:00:00,7,1019.1,0.1,61,0,0,22.224,,,340,,,,,,,,,,,wg-a,,,,AAXX 14004 07558 12/// /3412 10070 20000 39350 40191 53001 60006 90000=
07558,1996-09-14 06:00:00,5,1020.4,0.5,75,1,60000,18.52,,,10,4.8,11.6,,,,,,,,,wg-a,,,,AAXX 14064 07558 12/86 00110 10050 20010 39357 40204 53005 60006 80000 90600 333 10116 20048=
07558,1996-09-14 12:00:00,16,1017.2,-0.6,45,4,0,22.224,,,350,,,,,,,,,,,wg-a,,,,AAXX 14124 07558 12/// /3512 10160 20040 39357 40172 58006 60006 91200=
07558,1996-09-14 18:00:00,14,1017.2,0.2,51,4,0,14.816,,,340,5.4,17.6,,,,,,,,,wg-a,,,,AAXX 14184 07558 12/// /3408 10140 20040 39352 40172 53002 60006 91800 333 10176 20054=
07558,1996-09-15 00:00:00,9,1020.4,0.3,71,4,0,29.632,,,10,,,,,,,,,,,wg-a,,,,AAXX 15004 07558 12/// /0116 10090 20040 39366 40204 50003 60006 90000=
07558,1996-09-15 06:00:00,7,1020.4,0.2,81,4,60000,22.224,,,10,6.3,13.9,,,,,,,,,wg-a,,,,AAXX 15064 07558 12/86 00112 10070 20040 39360 40204 53002 60006 80000 90600 333 10139 20063=
07558,1996-09-15 12:00:00,18,1017.7,-0.1,32,1,0,7.408,,,190,,,,,,,,,,,wg-a,,,,AAXX 15124 07558 12/// /1904 10180 20010 39367 40177 57001 60006 91200=
07558,1996-09-15 18:00:00,16,1017.8,0.2,48,5,0,18.52,,,230,6.6,20.5,,,,,,,,,wg-a,,,,AAXX 15184 07558 12/// /2310 10160 20050 39362 40178 53002 60006 91800 333 10205 20066=
07558,1996-09-16 00:00:00,10,1019.9,-0.5,71,5,0,18.52,,,20,,,,,,,,,,,wg-a,,,,AAXX 16004 07558 12/// /0210 10100 20050 39366 40199 58005 60006 90000=
07558,1996-09-16 06:00:00,8,1019,-0.4,81,5,50000,11.112,,,40,7.8,15.7,,,,,,,,,wg-a,,,,AAXX 16064 07558 12/84 00406 10080 20050 39352 40190 56004 60006 80000 90600 333 10157 20078=
07558,1996-09-16 12:00:00,20,1014.2,-1,46,8,500,7.408,,,190,,,,,,,,,,,wg-a,,,,AAXX 16124 07558 12/00 01904 10200 20080 39342 40142 57010 60006 80000 91200=
07558,1996-09-16 18:00:00,16,1013.4,-0.3,59,8,0,22.224,,,130,7.8,22.1,,,,,,,,,wg-a,,,,AAXX 16184 07558 12/// /1312 10160 20080 39323 40134 56003 60006 91800 333 10221 20078=
07558,1996-09-17 00:00:00,12,1014.3,-0.8,67,6,0,11.112,,,120,,,,,,,,,,,wg-a,,,,AAXX 17004 07558 12/// /1206 10120 20060 39320 40143 58008 60006 90000=
07558,1996-09-17 06:00:00,13,1011.4,-1.1,72,8,500,11.112,,,130,10.9,22.1,,,,,,,,,wg-a,,,,AAXX 17064 07558 12500 81306 10130 20080 39295 40114 55011 60006 885// 90600 333 10221 20109=
07558,1996-09-17 12:00:00,11,1012.2,-0.2,100,11,700,3.704,,,200,,,,18,,,,,,95,wg-a,,,,AAXX 17124 07558 02407 82002 10110 20110 39300 40122 55002 60186 79594 8392/ 91200 333 60187=
07558,1996-09-17 18:00:00,12,1010.4,-0.1,100,12,0,11.112,,,20,11.3,13,,,,,,,,,wg-a,,,,AAXX 17184 07558 32/// /0206 10120 20120 39284 40104 55001 91800 333 10130 20113=
07558,1996-09-18 00:00:00,11,1010.2,-0.6,100,11,0,14.816,,,30,,,,,,,,,,,wg-a,,,,AAXX 18004 07558 12/// /0308 10110 20110 39280 40102 58006 60026 90000=
07558,1996-09-18 06:00:00,11,1008.4,-1.1,94,10,20000,3.704,,,70,10.3,11.5,,,,,31,,,3,wg-a,,,,AAXX 18064 07558 12470 70702 10110 20100 39263 40084 56011 60314 7036/ 875// 90600 333 10115 20103=
07558,1996-09-18 12:00:00,14,1006.3,-0.4,88,12,15000,11.112,,,130,,,,,,,,,,,wg-a,,,,AAXX 18124 07558 12465 71306 10140 20120 39253 40063 58004 60006 875// 91200=
07558,1996-09-18 18:00:00,13,1004.4,-0.7,88,11,0,14.816,,,150,10.6,13.7,,,,,,,,,wg-a,,,,AAXX 18184 07558 32/// /1508 10130 20110 39232 40044 56007 91800 333 10137 20106=
07558,1996-09-19 00:00:00,12,1003.2,-1.1,94,11,0,14.816,,,140,,,,,,,,,,,wg-a,,,,AAXX 19004 07558 12/// /1408 10120 20110 39220 40032 58011 60006 90000=
07558,1996-09-19 06:00:00,10,1001.6,0.3,100,10,500,11.112,,,240,10,12.7,,11,,,14,,,95,wg-a,,,,AAXX 19064 07558 02305 72406 10100 20100 39199 40016 53003 60144 79596 879// 90600 333 10127 20100 60117=
07558,1996-09-19 18:00:00,12,1005.6,1.7,100,12,0,7.408,,,200,9.7,15,,,,,,,,,wg-a,,,,AAXX 19184 07558 32/// /2004 10120 20120 39240 40056 51017 91800 333 10150 20097=
07558,1996-09-20 00:00:00,8,1009.6,0.7,81,5,0,18.52,,,260,,,,,,,,,,,wg-a,,,,AAXX 20004 07558 12/// /2610 10080 20050 39265 40096 53007 60016 90000=
07558,1996-09-20 06:00:00,6,1008.2,-0.8,93,5,20000,3.704,,,350,5.9,11.5,,,,,12,,,,wg-a,,,,AAXX 20064 07558 12270 33502 10060 20050 39247 40082 57008 60124 81601 90600 333 10115 20059=
07558,1996-09-20 12:00:00,13,1004.8,-1.1,77,9,15000,7.408,,,180,,,,,,,,,,,wg-a,,,,AAXX 20124 07558 12465 71804 10130 20090 39237 40048 58011 60006 8217/ 91200=
07558,1996-09-20 18:00:00,11,1004.1,-1.3,94,10,0,7.408,,,90,5.9,14.1,,,,,,,,,wg-a,,,,AAXX 20184 07558 32/// /0904 10110 20100 39224 40041 58013 91800 333 10141 20059=
07558,1996-09-21 00:00:00,10,1003,-1,93,9,0,7.408,,,40,,,,,,,,,,,wg-a,,,,AAXX 21004 07558 12/// /0404 10100 20090 39211 40030 58010 60006 90000=
07558,1996-09-21 06:00:00,9,1001.9,-0.2,100,9,500,11.112,,,30,8.6,14.1,,,,,2,,,46,wg-a,,,,AAXX 21064 07558 12/00 90306 10090 20090 39198 40019 55002 60024 7464/ 89/// 90600 333 10141 20086=
07558,1996-09-21 12:00:00,16,999.6,-0.3,77,12,0,14.816,,,150,,,,,,,,,,,wg-a,,,,AAXX 21124 07558 12/// /1508 10160 20120 39198 49996 56003 60006 91200=
07558,1996-09-23 12:00:00,10,1009.9,-0.3,71,5,15000,25.928,,,310,,,,,,,,,,,wg-a,,,,AAXX 23124 07558 12565 73114 10100 20050 39274 40099 58003 60006 878// 91200=
07558,1996-09-23 18:00:00,10,1011.5,1.2,76,6,0,25.928,,,300,6.5,11.4,,,,,,,,,wg-a,,,,AAXX 23184 07558 12/// /3014 10100 20060 39288 40115 53012 60006 91800 333 10114 20065=
07558,1996-09-24 00:00:00,7,1013.7,0.2,87,5,0,11.112,,,340,,,,,,,,,,,wg-a,,,,AAXX 24004 07558 12/// /3406 10070 20050 39302 40137 52002 60006 90000=
07558,1996-09-24 06:00:00,7,1013.3,0.2,87,5,15000,7.408,,,30,5.9,9.7,,,,,,,,,wg-a,,,,AAXX 24064 07558 12565 70304 10070 20050 39297 40133 52002 60006 8357/ 90600 333 10097 20059=
07558,1996-09-24 12:00:00,15,1011.3,-0.3,63,8,25000,14.816,,,240,,,,,,,,,,,wg-a,,,,AAXX 24124 07558 12575 42408 10150 20080 39302 40113 57003 60006 83130 91200=
07558,1996-09-24 18:00:00,12,1013.2,0.9,71,7,0,11.112,,,310,6.9,16.1,,,,,,,,,wg-a,,,,AAXX 24184 07558 12/// /3106 10120 20070 39310 40132 53009 60006 91800 333 10161 20069=
07558,1996-09-25 00:00:00,10,1013.3,-0.5,100,10,0,3.704,,,250,,,,,,,,,,,wg-a,,,,AAXX 25004 07558 12/// /2502 10100 20100 39308 40133 58005 60026 90000=
07558,1996-09-25 06:00:00,10,1011.6,-0.6,100,10,100,14.816,,,230,9.5,16.1,,0,,,3,,,61,wg-a,,,,AAXX 25064 07558 02001 82308 10100 20100 39291 40116 56006 60034 76164 887// 90600 333 10161 20095 60007=
07558,1996-09-25 12:00:00,13,1011.9,-0.1,77,9,15000,14.816,,,280,,,,4,,,,,,1,wg-a,,,,AAXX 25124 07558 02465 72808 10130 20090 39302 40119 58001 60066 70164 878// 91200 333 60047=
07558,1996-09-25 18:00:00,9,1014.8,1.6,93,8,0,0,,,0,9.2,15.4,,,,,,,,,wg-a,,,,AAXX 25184 07558 32/// /0000 10090 20080 39318 40148 53016 91800 333 10154 20092=
07558,1996-09-26 00:00:00,9,1018.1,1.3,93,8,0,11.112,,,290,,,,,,,,,,,wg-a,,,,AAXX 26004 07558 12/// /2906 10090 20080 39348 40181 53013 60006 90000=
07558,1996-09-26 12:00:00,14,1020.1,-0.4,67,8,500,22.224,,,310,,,,,,,,,,,wg-a,,,,AAXX 26124 07558 12500 43112 10140 20080 39378 40201 58004 60006 84500 91200=
07558,1996-09-26 18:00:00,12,1020,0.5,76,8,0,11.112,,,320,8.5,15.1,,,,,,,,,wg-a,,,,AAXX 26184 07558 12/// /3206 10120 20080 39373 40200 53005 60006 91800 333 10151 20085=
07558,1996-09-27 00:00:00,11,1021.2,-0.1,82,8,0,3.704,,,250,,,,,,,,,,,wg-a,,,,AAXX 27004 07558 12/// /2502 10110 20080 39381 40212 58001 60006 90000=
07558,1996-09-27 06:00:00,10,1021.3,0.1,100,10,10000,0,,,0,10.1,11.9,,,,,,,,,wg-a,,,,AAXX 27064 07558 12260 80000 10100 20100 39381 40213 51001 60006 885// 90600 333 10119 20101=
07558,1996-09-27 12:00:00,15,1020.5,0.1,100,15,1500,7.408,,,250,,,,0,,,,,,60,wg-a,,,,AAXX 27124 07558 02115 82504 10150 20150 39387 40205 53001 60016 76065 885// 91200 333 60007=
07558,1996-09-27 18:00:00,14,1021.6,1.1,88,12,0,29.632,,,280,10.2,15.5,,,,,,,,,wg-a,,,,AAXX 27184 07558 32/// /2816 10140 20120 39395 40216 53011 91800 333 10155 20102=
07558,1996-09-28 00:00:00,11,1025.5,0.8,87,9,0,18.52,,,320,,,,,,,,,,,wg-a,,,,AAXX 28004 07558 12/// /3210 10110 20090 39422 40255 53008 60006 90000=
07558,1996-09-28 06:00:00,9,1027.5,0.9,93,8,500,3.704,,,230,8.4,14.4,,,,,1,,,,wg-a,,,,AAXX 28064 07558 12200 32302 10090 20080 39432 40275 53009 60014 82501 90600 333 10144 20084=
07558,1996-09-28 12:00:00,16,1025.9,-0.1,55,7,0,25.928,,,340,,,,,,,,,,,wg-a,,,,AAXX 28124 07558 12/// /3414 10160 20070 39438 40259 55001 60006 91200=
07558,1996-09-28 18:00:00,14,1025.3,0.3,72,9,0,22.224,,,330,8.4,18.1,,,,,,,,,wg-a,,,,AAXX 28184 07558 12/// /3312 10140 20090 39428 40253 53003 60006 91800 333 10181 20084=
07558,1996-09-29 00:00:00,10,1027.2,-0.2,87,8,0,3.704,,,340,,,,,,,,,,,wg-a,,,,AAXX 29004 07558 12/// /3402 10100 20080 39432 40272 55002 60006 90000=
07558,1996-09-29 06:00:00,6,1028.3,0.5,87,4,500,7.408,,,30,6.1,14,,,,,,,,,wg-a,,,,AAXX 29064 07558 12/00 30304 10060 20040 39432 40283 53005 60006 80001 90600 333 10140 20061=
07558,1996-09-29 12:00:00,20,1024.5,-0.5,49,9,0,7.408,,,230,,,,,,,,,,,wg-a,,,,AAXX 29124 07558 12/// /2304 10200 20090 39435 40245 58005 60006 91200=
07558,1996-09-29 18:00:00,17,1024.2,-0.1,45,5,0,14.816,,,220,6.1,21.6,,,,,,,,,wg-a,,,,AAXX 29184 07558 12/// /2208 10170 20050 39424 40242 55001 60006 91800 333 10216 20061=
07558,1996-09-30 00:00:00,12,1024.6,-0.9,76,8,0,3.704,,,60,,,,,,,,,,,wg-a,,,,AAXX 30004 07558 12/// /0602 10120 20080 39415 40246 58009 60006 90000=
07558,1996-09-30 06:00:00,10,1022.9,-0.7,82,7,60000,7.408,,,20,9.4,21.6,,,,,,,,,wg-a,,,,AAXX 30064 07558 12/86 10204 10100 20070 39393 40229 56007 60006 8/0/1 90600 333 10216 20094=
07558,1996-09-30 12:00:00,20,1016.9,-2.1,53,10,60000,22.224,,,160,,,,,,,,,,,wg-a,,,,AAXX 30124 07558 12/86 01612 10200 20100 39367 40169 58021 60006 80000 91200=
07558,1996-09-30 18:00:00,16,1015.8,-0.6,82,13,0,29.632,,,140,9.8,20.6,,,,,,,,,wg-a,,,,AAXX 30184 07558 12/// /1416 10160 20130 39346 40158 56006 60006 91800 333 10206 20098=
07558,1996-10-01 00:00:00,14,1012.4,-2.5,88,12,0,53.708,,,120,,,,,,,,,,,wg-a,,,,AAXX 01004 07558 12/// /1229 10140 20120 39309 40124 58025 60006 90000=
07558,1996-10-01 06:00:00,15,1006.5,-2.6,88,13,15000,46.3,,,140,13,15.7,,,,,,,,16,wg-a,,,,AAXX 01064 07558 12265 81425 10150 20130 39258 40065 56026 60006 716// 877// 90600 333 10157 20130=
07558,1996-10-01 12:00:00,10,1013.3,0.3,93,9,20000,25.928,,,240,,,,2,,,,,,3,wg-a,,,,AAXX 01124 07558 02270 82414 10100 20090 39305 40133 51003 60146 70396 877// 91200 333 60027=
07558,1996-10-01 18:00:00,9,1015.9,2.3,93,8,0,42.596,,,290,8.8,14.9,,1,,,,,,,wg-a,,,,AAXX 01184 07558 12/// /2923 10090 20080 39327 40159 53023 60017 91800 333 10149 20088=
07558,1996-10-02 00:00:00,8,1018.5,0.3,87,6,0,25.928,,,290,,,,,,,,,,,wg-a,,,,AAXX 02004 07558 12/// /2914 10080 20060 39348 40185 50003 60006 90000=
07558,1996-10-02 06:00:00,7,1016.8,-0.7,93,6,15000,22.224,,,290,6.6,9.2,,0,,,15,,,21,wg-a,,,,AAXX 02064 07558 02465 62912 10070 20060 39330 40168 58007 60154 7216/ 86500 90600 333 10092 20066 60007=
07558,1996-10-02 12:00:00,,1015.8,-0.6,,,6000,3.704,,,190,,,,1,,,,,,60,wg-a,,,,AAXX 02124 07558 02256 71902 1//// 2//// 39327 40158 58006 60016 76062 875// 91200 333 60017=
07558,1996-10-02 18:00:00,9,1018.7,2.1,87,7,0,25.928,,,340,7.2,10.8,,,,,,,,,wg-a,,,,AAXX 02184 07558 32/// /3414 10090 20070 39352 40187 53021 91800 333 10108 20072=
07558,1996-10-03 00:00:00,8,1022.9,0.8,81,5,0,35.188,,,330,,,,,,,,,,,wg-a,,,,AAXX 03004 07558 12/// /3319 10080 20050 39387 40229 51008 60006 90000=
07558,1996-10-03 06:00:00,7,1025.9,1.3,76,3,50000,25.928,,,320,6.5,9,,,,,5,,,,wg-a,,,,AAXX 03064 07558 02584 23214 10070 20030 39411 40259 53013 60006 82500 90600 333 10090 20065 60054=
07558,1996-10-03 12:00:00,13,1025.1,-0.3,58,5,50000,22.224,,,310,,,,,,,,,,,wg-a,,,,AAXX 03124 07558 12584 13112 10130 20050 39423 40251 58003 60006 81100 91200=
07558,1996-10-03 18:00:00,10,1026.3,0.8,87,8,0,18.52,,,300,6.6,14.8,,,,,,,,,wg-a,,,,AAXX 03184 07558 12/// /3010 10100 20080 39426 40263 53008 60006 91800 333 10148 20066=
07558,1996-10-04 00:00:00,7,1027.4,-0.5,87,5,0,18.52,,,350,,,,,,,,,,,wg-a,,,,AAXX 04004 07558 12/// /3510 10070 20050 39425 40274 56005 60006 90000=
07558,1996-10-04 06:00:00,5,1026.4,-0.5,93,4,500,7.408,,,360,4.9,14.8,,,,,,,,,wg-a,,,,AAXX 04064 07558 12/00 13604 10050 20040 39411 40264 56005 60006 80001 90600 333 10148 20049=
07558,1996-10-04 12:00:00,14,1021.9,-1.3,67,8,40000,25.928,,,290,,,,,,,,,,2,wg-a,,,,AAXX 04124 07558 12582 12914 10140 20080 39396 40219 58013 60006 70240 81201 91200=
07558,1996-10-04 18:00:00,11,1020,-0.7,76,7,0,25.928,,,320,4.8,14.4,,,,,,,,,wg-a,,,,AAXX 04184 07558 12/// /3214 10110 20070 39370 40200 56007 60006 91800 333 10144 20048=
07558,1996-10-05 00:00:00,10,1018.4,-1.9,93,9,0,11.112,,,210,,,,,,,,,,,wg-a,,,,AAXX 05004 07558 12/// /2106 10100 20090 39352 40184 58019 60006 90000=
07558,1996-10-05 06:00:00,6,1018.4,0.8,87,4,15000,18.52,,,320,6.4,11.1,,,,,,,,,wg-a,,,,AAXX 05064 07558 12465 63210 10060 20040 39342 40184 53008 60006 84830 90600 333 10111 20064=
07558,1996-10-05 12:00:00,10,1017,-1.3,71,5,0,22.224,,,310,,,,,,,,,,,wg-a,,,,AAXX 05124 07558 12/// /3112 10100 20050 39339 40170 58013 60006 91200=
07558,1996-10-05 18:00:00,8,1016.5,0.5,71,3,0,31.484,,,320,5.9,11.7,,,,,,,,,wg-a,,,,AAXX 05184 07558 12/// /3217 10080 20030 39327 40165 53005 60006 91800 333 10117 20059=
07558,1996-10-06 00:00:00,5,1016.7,-1.5,81,2,0,31.484,,,340,,,,,,,,,,,wg-a,,,,AAXX 06004 07558 12/// /3417 10050 20020 39320 40167 58015 60006 90000=
07558,1996-10-06 06:00:00,4,1016.1,-0.3,87,2,20000,29.632,,,330,3.2,7.4,,,,,,,,,wg-a,,,,AAXX 06064 07558 12570 53316 10040 20020 39313 40161 55003 60006 85500 90600 333 10074 20032=
07558,1996-10-06 12:00:00,9,1014.9,-0.2,61,2,0,46.3,,,340,,,,,,,,,,,wg-a,,,,AAXX 06124 07558 12/// /3425 10090 20020 39318 40149 58002 60006 91200=
07558,1996-10-06 18:00:00,7,1017.3,,76,3,0,29.632,,,350,3.8,9.6,,,,,,,,,wg-a,,,,AAXX 06184 07558 12/// /3516 10070 20030 39334 40173 60006 91800 333 10096 20038=
07558,1996-10-07 00:00:00,7,1018.2,-0.3,76,3,0,29.632,,,340,,,,,,,,,,,wg-a,,,,AAXX 07004 07558 12/// /3416 10070 20030 39342 40182 56003 60006 90000=
07558,1996-10-07 06:00:00,4,1017.8,-0.6,93,3,500,29.632,,,300,3.9,7.7,,,,,,,,,wg-a,,,,AAXX 07064 07558 12/00 43016 10040 20030 39330 40178 56006 60006 84070 90600 333 10077 20039=
07558,1996-10-07 12:00:00,10,1016.9,0.3,71,5,20000,14.816,,,320,,,,,,,,,,,wg-a,,,,AAXX 07124 07558 12570 73208 10100 20050 39338 40169 53003 60006 875// 91200=
07558,1996-10-07 18:00:00,9,1018.1,0.9,81,6,0,18.52,,,300,4.4,10.2,,,,,,,,,wg-a,,,,AAXX 07184 07558 12/// /3010 10090 20060 39346 40181 51009 60006 91800 333 10102 20044=
07558,1996-10-08 00:00:00,8,1018.2,-0.6,81,5,0,25.928,,,320,,,,,,,,,,,wg-a,,,,AAXX 08004 07558 12/// /3214 10080 20050 39344 40182 58006 60006 90000=
07558,1996-10-08 06:00:00,8,1017.7,0.4,87,6,8000,25.928,,,310,7.7,8.7,,,,,,,,,wg-a,,,,AAXX 08064 07558 12458 73114 10080 20060 39340 40177 51004 60006 875// 90600 333 10087 20077=
07558,1996-10-08 12:00:00,9,1017.3,-0.7,81,6,10000,29.632,,,300,,,,,,,,,,,wg-a,,,,AAXX 08124 07558 12460 73016 10090 20060 39340 40173 58007 60006 875// 91200=
07558,1996-10-08 18:00:00,9,1018.9,1.3,81,6,0,29.632,,,310,8,9.8,,,,,,,,,wg-a,,,,AAXX 08184 07558 12/// /3116 10090 20060 39355 40189 53013 60006 91800 333 10098 20080=
07558,1996-10-09 00:00:00,10,1019.6,0.2,76,6,0,18.52,,,300,,,,,,,,,,,wg-a,,,,AAXX 09004 07558 12/// /3010 10100 20060 39362 40196 53002 60006 90000=
07558,1996-10-09 06:00:00,8,1020.2,0.3,76,4,15000,29.632,,,290,7.7,9.8,,,,,,,,,wg-a,,,,AAXX 09064 07558 12565 52916 10080 20040 39362 40202 53003 60006 85500 90600 333 10098 20077=
07558,1996-10-09 12:00:00,12,1019.6,-0.3,62,5,15000,31.484,,,320,,,,,,,,,,,wg-a,,,,AAXX 09124 07558 12565 63217 10120 20050 39370 40196 56003 60006 83570 91200=
07558,1996-10-09 18:00:00,10,1020.2,0.8,87,8,0,29.632,,,300,7.4,14.1,,,,,,,,,wg-a,,,,AAXX 09184 07558 12/// /3016 10100 20080 39370 40202 53008 60006 91800 333 10141 20074=
07558,1996-10-10 00:00:00,10,1021.1,-0.4,82,7,0,29.632,,,320,,,,,,,,,,,wg-a,,,,AAXX 10004 07558 12/// /3216 10100 20070 39377 40211 58004 60006 90000=
07558,1996-10-10 06:00:00,8,1020.8,-0,87,6,40000,25.928,,,320,8.4,10.3,,,,,,,,,wg-a,,,,AAXX 10064 07558 12582 23214 10080 20060 39370 40208 54000 60006 82500 90600 333 10103 20084=
07558,1996-10-10 12:00:00,15,1019.1,-0.9,59,7,40000,29.632,,,340,,,,,,,,,,,wg-a,,,,AAXX 10124 07558 12582 63416 10150 20070 39372 40191 58009 60006 86800 91200=
07558,1996-10-10 18:00:00,11,1020.2,0.6,76,7,0,14.816,,,340,8.2,15,,,,,,,,,wg-a,,,,AAXX 10184 07558 12/// /3408 10110 20070 39373 40202 53006 60006 91800 333 10150 20082=
07558,1996-10-11 00:00:00,9,1021.1,-0.9,81,6,0,7.408,,,50,,,,,,,,,,,wg-a,,,,AAXX 11004 07558 12/// /0504 10090 20060 39375 40211 58009 60006 90000=
07558,1996-10-11 06:00:00,7,1021,0.3,87,5,10000,7.408,,,340,6.5,11.4,,,,,,,,,wg-a,,,,AAXX 11064 07558 12/60 03404 10070 20050 39366 40210 52003 60006 80000 90600 333 10114 20065=
07558,1996-10-11 12:00:00,15,1018.5,-1,63,8,25000,11.112,,,190,,,,,,,,,,,wg-a,,,,AAXX 11124 07558 12575 21906 10150 20080 39367 40185 58010 60006 82100 91200=
07558,1996-10-11 18:00:00,12,1018.4,0.3,76,8,0,11.112,,,150,6.6,16.7,,,,,,,,,wg-a,,,,AAXX 11184 07558 12/// /1506 10120 20080 39359 40184 53003 60006 91800 333 10167 20066=
07558,1996-10-12 00:00:00,9,1019.3,-0.4,93,8,0,18.52,,,120,,,,,,,,,,,wg-a,,,,AAXX 12004 07558 12/// /1210 10090 20080 39359 40193 57004 60006 90000=
07558,1996-10-12 06:00:00,9,1018,-0.2,93,8,10000,14.816,,,130,8.4,12.2,,,,,,,,,wg-a,,,,AAXX 12064 07558 12460 21308 10090 20080 39346 40180 55002 60006 82502 90600 333 10122 20084=
07558,1996-10-12 12:00:00,13,1017,-0.7,82,10,0,35.188,,,150,,,,,,,,,,,wg-a,,,,AAXX 12124 07558 12/// /1519 10130 20100 39349 40170 58007 60006 91200=
07558,1996-10-12 18:00:00,11,1016.1,-0.2,87,9,0,22.224,,,130,8.6,14.8,,,,,,,,,wg-a,,,,AAXX 12184 07558 12/// /1312 10110 20090 39335 40161 55002 60006 91800 333 10148 20086=
07558,1996-10-13 00:00:00,12,1014.3,-1,88,10,0,35.188,,,140,,,,,,,,,,,wg-a,,,,AAXX 13004 07558 12/// /1419 10120 20100 39321 40143 58010 60006 90000=
07558,1996-10-13 06:00:00,11,1011.5,-1.4,87,9,10000,35.188,,,130,10.9,12.1,,,,,,,,61,wg-a,,,,AAXX 13064 07558 02460 71319 10110 20090 39293 40115 57014 61000 7616/ 878// 90600 333 10121 20109 6100=
07558,1996-10-13 12:00:00,13,1008.9,-1.4,82,10,0,46.3,,,150,,,,0,,,,,,,wg-a,,,,AAXX 13124 07558 02/// /1525 10130 20100 39275 40089 58014 60006 91200 333 60007=
07558,1996-10-13 18:00:00,12,1009.2,-0.2,94,11,0,25.928,,,130,11.3,14.4,,,,,,,,,wg-a,,,,AAXX 13184 07558 32/// /1314 10120 20110 39275 40092 55002 91800 333 10144 20113=
07558,1996-10-14 00:00:00,11,1007.6,-0.6,100,11,0,50.004,,,130,,,,3,,,,,,,wg-a,,,,AAXX 14004 07558 02/// /1327 10110 20110 39258 40076 56006 60066 90000 333 60037=
07558,1996-10-14 06:00:00,11,1005.8,-0.3,100,11,9000,42.596,,,120,10.9,14.4,,5,,,16,,,61,wg-a,,,,AAXX 14064 07558 02459 81223 10110 20110 39241 40058 57003 60164 76166 885// 90600 333 10144 20109 60057=
07558,1996-10-14 12:00:00,12,1005.8,-0.5,100,12,6000,31.484,,,130,,,,5,,,,,,61,wg-a,,,,AAXX 14124 07558 02456 81317 10120 20120 39245 40058 58005 60106 76166 882// 91200 333 60057=
07558,1996-10-14 18:00:00,12,1007.6,1.6,94,11,0,22.224,,,170,11.1,13,,,,,,,,,wg-a,,,,AAXX 14184 07558 32/// /1712 10120 20110 39260 40076 53016 91800 333 10130 20111=
07558,1996-10-15 00:00:00,11,1008,-0.4,100,11,0,7.408,,,350,,,,,,,,,,,wg-a,,,,AAXX 15004 07558 12/// /3504 10110 20110 39262 40080 58004 60146 90000=
07558,1996-10-15 06:00:00,10,1009.6,1.3,93,9,6000,3.704,,,250,9.5,12.1,,13,,,48,,,61,wg-a,,,,AAXX 15064 07558 02156 82502 10100 20090 39271 40096 53013 60484 761// 887// 90600 333 10121 20095 60137=
07558,1996-10-15 12:00:00,11,1010.5,0.3,82,8,20000,38.892,,,320,,,,,,,,,,1,wg-a,,,,AAXX 15124 07558 12470 83221 10110 20080 39283 40105 50003 60126 70162 8487/ 91200=
07558,1996-10-15 18:00:00,10,1012.1,0.8,82,7,0,31.484,,,310,9.2,11.8,,,,,,,,,wg-a,,,,AAXX 15184 07558 32/// /3117 10100 20070 39294 40121 53008 91800 333 10118 20092=
07558,1996-10-16 00:00:00,9,1011.4,-0.9,87,7,0,38.892,,,320,,,,,,,,,,,wg-a,,,,AAXX 16004 07558 12/// /3221 10090 20070 39285 40114 58009 60006 90000=
07558,1996-10-16 06:00:00,6,1012.4,0.1,81,3,15000,31.484,,,320,5.8,9.8,,,,,12,,,,wg-a,,,,AAXX 16064 07558 02465 43217 10060 20030 39285 40124 50001 60006 83502 90600 333 10098 20058 60124=
07558,1996-10-16 12:00:00,10,1011.6,-0.4,66,4,20000,35.188,,,310,,,,,,,,,,,wg-a,,,,AAXX 16124 07558 12570 63119 10100 20040 39289 40116 58004 60006 85802 91200=
07558,1996-10-16 18:00:00,7,1012.8,0.5,87,5,0,25.928,,,300,5.6,10.3,,,,,,,,,wg-a,,,,AAXX 16184 07558 12/// /3014 10070 20050 39293 40128 53005 60006 91800 333 10103 20056=
07558,1996-10-17 00:00:00,8,1012.9,-0.5,81,5,0,31.484,,,300,,,,,,,,,,,wg-a,,,,AAXX 17004 07558 12/// /3017 10080 20050 39295 40129 56005 60006 90000=
07558,1996-10-17 06:00:00,7,1012.2,-0.6,100,7,0,11.112,,,230,6.6,8.1,,1,,,1,,,,wg-a,,,,AAXX 17064 07558 02/// /2306 10070 20070 39288 40122 57006 60014 90600 333 10081 20066 60017=
07558,1996-10-17 12:00:00,9,1012,0.3,87,7,0,22.224,,,300,,,,,,,,,,,wg-a,,,,AAXX 17124 07558 12/// /3012 10090 20070 39292 40120 51003 60016 91200=
07558,1996-10-17 18:00:00,7,1013.7,0.8,81,4,0,29.632,,,320,6.9,10.7,,,,,,,,,wg-a,,,,AAXX 17184 07558 32/// /3216 10070 20040 39300 40137 53008 91800 333 10107 20069=
07558,1996-10-18 00:00:00,5,1015.8,0,93,4,0,3.704,,,10,,,,,,,,,,,wg-a,,,,AAXX 18004 07558 12/// /0102 10050 20040 39313 40158 50000 60006 90000=
07558,1996-10-18 06:00:00,2,1017.6,0.7,100,2,60000,7.408,,,30,1.5,10.7,,,,,1,,,,wg-a,,,,AAXX 18064 07558 02/86 00304 10020 20020 39321 40176 52007 60006 80000 90600 333 10107 20015 60014=
07558,1996-10-18 12:00:00,10,1017.3,0.3,71,5,8000,7.408,,,240,,,,,,,,,,50,wg-a,,,,AAXX 18124 07558 02258 82404 10100 20050 39341 40173 51003 61000 75011 885// 91200 333 6100=
07558,1996-10-18 18:00:00,11,1018.8,1.5,94,10,0,22.224,,,280,1.7,11.8,,,,,,,,,wg-a,,,,AAXX 18184 07558 32/// /2812 10110 20100 39361 40188 53015 91800 333 10118 20017=
07558,1996-10-19 00:00:00,10,1021.4,0.8,87,8,0,22.224,,,330,,,,,,,,,,,wg-a,,,,AAXX 19004 07558 12/// /3312 10100 20080 39381 40214 51008 60006 90000=
07558,1996-10-19 06:00:00,9,1023.5,0.8,93,8,15000,7.408,,,210,9,11.9,,,,,,,,,wg-a,,,,AAXX 19064 07558 02165 72104 10090 20080 39397 40235 53008 60006 877// 90600 333 10119 20090 60004=
07558,1996-10-19 12:00:00,12,1024.8,0.3,76,8,0,38.892,,,290,,,,,,,,,,,wg-a,,,,AAXX 19124 07558 12/// /2921 10120 20080 39418 40248 50003 60006 91200=
07558,1996-10-19 18:00:00,10,1027.5,1.1,76,6,0,31.484,,,300,8.8,14.3,,,,,,,,,wg-a,,,,AAXX 19184 07558 12/// /3017 10100 20060 39437 40275 53011 60006 91800 333 10143 20088=
07558,1996-10-20 00:00:00,8,1029.8,0.6,87,6,0,14.816,,,10,,,,,,,,,,,wg-a,,,,AAXX 20004 07558 12/// /0108 10080 20060 39452 40298 53006 60006 90000=
07558,1996-10-20 06:00:00,6,1029.2,0.1,93,5,500,7.408,,,10,6.2,10.2,,,,,,,,,wg-a,,,,AAXX 20064 07558 12/00 30104 10060 20050 39441 40292 53001 60006 80001 90600 333 10102 20062=
07558,1996-10-20 12:00:00,18,1025.2,-0.9,56,9,0,11.112,,,250,,,,,,,,,,,wg-a,,,,AAXX 20124 07558 12/// /2506 10180 20090 39437 40252 58009 60006 91200=
07558,1996-10-20 18:00:00,13,1026.5,0.7,67,7,0,14.816,,,310,5.8,18.7,,,,,,,,,wg-a,,,,AAXX 20184 07558 12/// /3108 10130 20070 39436 40265 53007 60006 91800 333 10187 20058=
07558,1996-10-21 00:00:00,12,1026.5,-0.3,62,5,0,7.408,,,330,,,,,,,,,,,wg-a,,,,AAXX 21004 07558 12/// /3304 10120 20050 39431 40265 58003 60006 90000=
07558,1996-10-21 06:00:00,10,1025.4,-0.3,93,9,12000,11.112,,,180,9.3,18.7,,,,,,,,,wg-a,,,,AAXX 21064 07558 12462 81806 10100 20090 39418 40254 58003 60006 888// 90600 333 10187 20093=
07558,1996-10-21 12:00:00,15,1023.5,-1.2,82,12,20000,29.632,,,290,,,,,,,,,,,wg-a,,,,AAXX 21124 07558 12470 72916 10150 20120 39415 40235 58012 60006 875// 91200=
07558,1996-10-21 18:00:00,14,1023.5,0.5,94,13,0,22.224,,,330,10.1,16.6,,,,,,,,,wg-a,,,,AAXX 21184 07558 12/// /3312 10140 20130 39412 40235 53005 60006 91800 333 10166 20101=
07558,1996-10-22 00:00:00,12,1023.6,-0.6,94,11,0,18.52,,,340,,,,,,,,,,,wg-a,,,,AAXX 22004 07558 12/// /3410 10120 20110 39407 40236 58006 60006 90000=
07558,1996-10-22 06:00:00,10,1022.4,-0.4,87,8,25000,29.632,,,10,9.3,14,,,,,,,,,wg-a,,,,AAXX 22064 07558 12/75 20116 10100 20080 39390 40224 58004 60006 80002 90600 333 10140 20093=
07558,1996-10-22 12:00:00,20,1018.6,-1.6,35,4,50000,14.816,,,350,,,,,,,,,,,wg-a,,,,AAXX 22124 07558 12/84 23508 10200 20040 39381 40186 58016 60006 80002 91200=
07558,1996-10-22 18:00:00,17,1018.8,0.2,27,-2,0,18.52,,,20,10.2,22.3,,,,,,,,,wg-a,,,,AAXX 22184 07558 12/// /0210 10170 21020 39374 40188 53002 60006 91800 333 10223 20102=
07558,1996-10-23 00:00:00,13,1019.9,-0.5,24,-7,0,11.112,,,30,,,,,,,,,,,wg-a,,,,AAXX 23004 07558 12/// /0306 10130 21070 39372 40199 58005 60006 90000=
07558,1996-10-23 06:00:00,12,1020.7,0.6,32,-4,50000,11.112,,,20,11.5,17.1,,,,,,,,,wg-a,,,,AAXX 23064 07558 12/84 00206 10120 21040 39376 40207 53006 60006 80000 90600 333 10171 20115=
07558,1996-10-23 12:00:00,21,1018.4,-0.4,40,7,50000,11.112,,,140,,,,,,,,,,,wg-a,,,,AAXX 23124 07558 12/84 21406 10210 20070 39381 40184 58004 60006 80001 91200=
07558,1996-10-23 18:00:00,13,1021.5,1.1,82,10,0,11.112,,,140,11.5,21,,,,,,,,,wg-a,,,,AAXX 23184 07558 12/// /1406 10130 20100 39391 40215 53011 60006 91800 333 10210 20115=
07558,1996-10-24 00:00:00,11,1023.4,0.4,71,6,0,11.112,,,100,,,,,,,,,,,wg-a,,,,AAXX 24004 07558 12/// /1006 10110 20060 39402 40234 53004 60006 90000=
07558,1996-10-24 06:00:00,10,1024.2,0.2,93,9,8000,11.112,,,110,9.1,13.3,,,,,,,,,wg-a,,,,AAXX 24064 07558 12458 81106 10100 20090 39407 40242 53002 60006 885// 90600 333 10133 20091=
07558,1996-10-24 12:00:00,16,1021.5,-1.5,68,10,20000,22.224,,,130,,,,,,,,,,,wg-a,,,,AAXX 24124 07558 12570 31312 10160 20100 39397 40215 58015 60006 83500 91200=
07558,1996-10-24 18:00:00,10,1022.7,0.6,93,9,0,11.112,,,130,9.9,16.2,,,,,,,,,wg-a,,,,AAXX 24184 07558 12/// /1306 10100 20090 39392 40227 53006 60006 91800 333 10162 20099=
07558,1996-10-25 00:00:00,10,1023.4,0.4,93,9,0,14.816,,,110,,,,,,,,,,,wg-a,,,,AAXX 25004 07558 12/// /1108 10100 20090 39400 40234 53004 60006 90000=
07558,1996-10-25 06:00:00,10,1024.2,0.5,93,9,15000,14.816,,,100,9.4,10.9,,,,,,,,,wg-a,,,,AAXX 25064 07558 12565 71008 10100 20090 39407 40242 51005 60006 875// 90600 333 10109 20094=
07558,1996-10-25 12:00:00,17,1023.3,0.2,68,11,15000,7.408,,,170,,,,,,,,,,,wg-a,,,,AAXX 25124 07558 12/65 21704 10170 20110 39416 40233 50002 60006 82030 91200=
07558,1996-10-25 18:00:00,13,1025,1.2,82,10,0,14.816,,,320,10.3,18,,,,,,,,,wg-a,,,,AAXX 25184 07558 12/// /3208 10130 20100 39423 40250 53012 60006 91800 333 10180 20103=
07558,1996-10-26 00:00:00,11,1027.3,-0.2,94,10,0,11.112,,,310,,,,,,,,,,,wg-a,,,,AAXX 26004 07558 12/// /3106 10110 20100 39438 40273 55002 60006 90000=
07558,1996-10-26 06:00:00,8,1028.6,0.5,100,8,15000,18.52,,,20,8.1,13.2,,,,,,,,,wg-a,,,,AAXX 26064 07558 12265 40210 10080 20080 39441 40286 51005 60006 83602 90600 333 10132 20081=
07558,1996-10-26 12:00:00,15,1026.9,-0.8,51,5,0,25.928,,,340,,,,,,,,,,,wg-a,,,,AAXX 26124 07558 12/// /3414 10150 20050 39443 40269 58008 60006 91200=
07558,1996-10-26 18:00:00,10,1027.9,0.6,82,7,0,22.224,,,310,8,14.8,,,,,,,,,wg-a,,,,AAXX 26184 07558 12/// /3112 10100 20070 39441 40279 53006 60006 91800 333 10148 20080=
07558,1996-10-27 00:00:00,9,1027.7,-0.4,87,7,0,7.408,,,70,,,,,,,,,,,wg-a,,,,AAXX 27004 07558 12/// /0704 10090 20070 39434 40277 58004 60006 90000=
07558,1996-10-27 06:00:00,8,1026.8,0.3,87,6,20000,7.408,,,70,7.8,10.5,,,,,,,,,wg-a,,,,AAXX 27064 07558 12/70 40704 10080 20060 39423 40268 50003 60006 82032 90600 333 10105 20078=
07558,1996-10-27 12:00:00,17,1023.9,-1,55,8,0,14.816,,,110,,,,,,,,,,,wg-a,,,,AAXX 27124 07558 12/// /1108 10170 20080 39422 40239 58010 60006 91200=
07558,1996-10-27 18:00:00,11,1025,0.4,87,9,0,14.816,,,120,7.5,17,,,,,,,,,wg-a,,,,AAXX 27184 07558 12/// /1208 10110 20090 39416 40250 53004 60006 91800 333 10170 20075=
07558,1996-10-28 00:00:00,8,1024.8,-0.6,100,8,0,14.816,,,110,,,,,,,,,,,wg-a,,,,AAXX 28004 07558 12/// /1108 10080 20080 39407 40248 58006 60006 90000=
07558,1996-10-28 06:00:00,8,1022.6,-0.7,100,8,7000,3.704,,,40,8,10.9,,,,,,,,,wg-a,,,,AAXX 28064 07558 12257 70402 10080 20080 39387 40226 57007 60006 875// 90600 333 10109 20080=
07558,1996-10-28 12:00:00,15,1019.1,-1.2,72,10,15000,3.704,,,160,,,,,,,,,,,wg-a,,,,AAXX 28124 07558 12465 61602 10150 20100 39375 40191 58012 60006 81502 91200=
07558,1996-10-28 18:00:00,13,1019.3,0.5,72,8,0,11.112,,,210,8,16.8,,,,,,,,,wg-a,,,,AAXX 28184 07558 12/// /2106 10130 20080 39369 40193 53005 60006 91800 333 10168 20080=
07558,1996-10-29 00:00:00,11,1018.6,-0.3,87,9,0,7.408,,,240,,,,,,,,,,,wg-a,,,,AAXX 29004 07558 12/// /2404 10110 20090 39358 40186 58003 60006 90000=
07558,1996-10-29 06:00:00,10,1018.7,0.2,87,8,10000,18.52,,,250,9.8,13.3,,0,,,1,,,21,wg-a,,,,AAXX 29064 07558 02260 82510 10100 20080 39356 40187 53002 60014 72164 877// 90600 333 10133 20098 60007=
07558,1996-10-29 12:00:00,11,1019.5,-0.6,76,7,15000,35.188,,,300,,,,,,,,,,,wg-a,,,,AAXX 29124 07558 12565 53019 10110 20070 39366 40195 58006 60006 85200 91200=
07558,1996-10-29 18:00:00,8,1022.1,1.8,81,5,0,31.484,,,320,8.4,13.2,,,,,,,,,wg-a,,,,AAXX 29184 07558 32/// /3217 10080 20050 39382 40221 53018 91800 333 10132 20084=
07558,1996-10-30 00:00:00,6,1,0.7,87,4,0,29.632,,,320,,,,,,,,,,,wg-a,,,,AAXX 30004 07558 12/// /3216 10060 20040 39400 53007 60006 90000=
07558,1996-10-30 06:00:00,5,1028.2,1.2,93,4,25000,22.224,,,310,4.9,8.4,,,,,,,,,wg-a,,,,AAXX 30064 07558 02575 33112 10050 20040 39427 40282 50012 60006 82530 90600 333 10084 20049 60004=
07558,1996-10-30 12:00:00,9,1028.1,-0.8,57,1,40000,35.188,,,340,,,,,,,,,,,wg-a,,,,AAXX 30124 07558 12582 33419 10090 20010 39439 40281 58008 60006 81102 91200=
07558,1996-10-30 18:00:00,7,1029.2,0.7,70,2,0,18.52,,,10,4.5,10.9,,,,,,,,,wg-a,,,,AAXX 30184 07558 12/// /0110 10070 20020 39442 40292 53007 60006 91800 333 10109 20045=
07558,1996-10-31 00:00:00,3,1030.4,0.1,81,0,0,7.408,,,70,,,,,,,,,,,wg-a,,,,AAXX 31004 07558 12/// /0704 10030 20000 39442 40304 50001 60006 90000=
07558,1996-10-31 06:00:00,2,1029.4,-0.4,80,-1,500,7.408,,,30,0.5,6.8,,,,,,,,,wg-a,,,,AAXX 31064 07558 12/00 00304 10020 21010 39429 40294 58004 60006 80000 90600 333 10068 20005=
07558,1996-10-31 12:00:00,11,1027.2,-0.4,62,4,40000,11.112,,,210,,,,,,,,,,,wg-a,,,,AAXX 31124 07558 12/82 22106 10110 20040 39437 40272 58004 60006 80002 91200=
07558,1996-10-31 18:00:00,7,1029.2,1,76,3,0,18.52,,,220,1.4,14.4,,,,,,,,,wg-a,,,,AAXX 31184 07558 12/// /2210 10070 20030 39442 40292 53010 60006 91800 333 10144 20014=
07558,1996-11-01 00:00:00,9,1029.8,0.8,100,9,10000,25.928,,,270,5.2,9,,,,,,,,,wg-a,,,,AAXX 01004 07558 12160 82714 10090 20090 39454 40298 51008 60006 877// 90000 333 10090 20052=
07558,1996-11-01 06:00:00,9,1029.8,0.8,100,9,10000,25.928,,,270,5.2,9,,,,,,,,,wg-a,,,,AAXX 01064 07558 12160 82714 10090 20090 39454 40298 51008 60006 877// 90600 333 10090 20052=
07558,1996-11-01 12:00:00,10,1031.6,0.7,93,9,0,11.112,,,280,,,,,,,,,,,wg-a,,,,AAXX 01124 07558 12/// /2806 10100 20090 39475 40316 51007 60006 91200=
07558,1996-11-01 18:00:00,10,1031.3,0.6,93,9,0,22.224,,,330,8.5,13.2,,,,,,,,,wg-a,,,,AAXX 01184 07558 12/// /3312 10100 20090 39472 40313 52006 60006 91800 333 10132 20085=
07558,1996-11-02 00:00:00,9,1031.3,-0.4,93,8,0,18.52,,,340,,,,,,,,,,,wg-a,,,,AAXX 02004 07558 12/// /3410 10090 20080 39470 40313 58004 60006 90000=
07558,1996-11-02 06:00:00,6,1031.6,-0.6,100,6,20000,3.704,,,20,5.9,10.6,,,,,,,,,wg-a,,,,AAXX 02064 07558 12/70 00202 10060 20060 39462 40316 56006 60006 80000 90600 333 10106 20059=
07558,1996-11-02 12:00:00,15,1028.3,-0.8,67,9,0,11.112,,,240,,,,,,,,,,,wg-a,,,,AAXX 02124 07558 12/// /2406 10150 20090 39459 40283 58008 60006 91200=
07558,1996-11-02 18:00:00,12,1028.9,0.4,82,9,0,7.408,,,340,5.9,16.7,,,,,,,,,wg-a,,,,AAXX 02184 07558 12/// /3404 10120 20090 39456 40289 53004 60006 91800 333 10167 20059=
07558,1996-11-03 00:00:00,8,1030.1,-0.3,100,8,0,3.704,,,30,,,,,,,,,,,wg-a,,,,AAXX 03004 07558 12/// /0302 10080 20080 39455 40301 58003 60006 90000=
07558,1996-11-03 06:00:00,5,1030.2,-0,100,5,15000,3.704,,,250,4.9,12.5,,,,,,,,,wg-a,,,,AAXX 03064 07558 12/65 02502 10050 20050 39446 40302 55000 60004 80000 90600 333 10125 20049=
07558,1996-11-03 12:00:00,15,1027,-1,59,7,0,3.704,,,210,,,,,,,,,,,wg-a,,,,AAXX 03124 07558 12/// /2102 10150 20070 39446 40270 58010 60006 91200=
07558,1996-11-03 18:00:00,13,1026.4,-0.2,67,7,0,3.704,,,170,4.5,16.8,,,,,,,,,wg-a,,,,AAXX 03184 07558 12/// /1702 10130 20070 39434 40264 55002 60006 91800 333 10168 20045=
07558,1996-11-04 00:00:00,8,1026.1,-1.1,81,5,0,11.112,,,100,,,,,,,,,,,wg-a,,,,AAXX 04004 07558 12/// /1006 10080 20050 39418 40261 56011 60006 90000=
07558,1996-11-04 06:00:00,7,1024.7,-0,100,7,1500,14.816,,,140,6,12.9,,,,,,,,10,wg-a,,,,AAXX 04064 07558 12215 71408 10070 20070 39402 40247 55000 60006 710// 875// 90600 333 10129 20060=
07558,1996-11-04 12:00:00,12,1020.9,-1.7,88,10,10000,18.52,,,120,,,,,,,,,,,wg-a,,,,AAXX 04124 07558 12260 71210 10120 20100 39381 40209 58017 60006 875// 91200=
07558,1996-11-04 18:00:00,11,1016.8,-1.7,94,10,0,25.928,,,120,6.7,13.4,,,,,,,,,wg-a,,,,AAXX 04184 07558 12/// /1214 10110 20100 39342 40168 58017 60006 91800 333 10134 20067=
07558,1996-11-05 00:00:00,12,1014.8,-0.9,94,11,0,11.112,,,130,,,,,,,,,,,wg-a,,,,AAXX 05004 07558 12/// /1306 10120 20110 39325 40148 55009 60006 90000=
07558,1996-11-05 06:00:00,8,1017,1,93,7,15000,18.52,,,270,7.6,12,,0,,,6,,,60,wg-a,,,,AAXX 05064 07558 02265 82710 10080 20070 39334 40170 51010 60064 760// 877// 90600 333 10120 20076 60007=
07558,1996-11-05 12:00:00,10,1020.2,0.8,76,6,15000,31.484,,,280,,,,,,,,,,1,wg-a,,,,AAXX 05124 07558 12465 62817 10100 20060 39369 40202 50008 60016 70186 86800 91200=
07558,1996-11-05 18:00:00,6,1024.2,2.2,87,4,0,22.224,,,320,6.4,10.3,,,,,,,,,wg-a,,,,AAXX 05184 07558 32/// /3212 10060 20040 39395 40242 52022 91800 333 10103 20064=
07558,1996-11-06 00:00:00,5,1027.1,0.2,87,3,0,18.52,,,320,,,,,,,,,,,wg-a,,,,AAXX 06004 07558 12/// /3210 10050 20030 39418 40271 53002 60006 90000=
07558,1996-11-06 06:00:00,5,1027.7,0.3,87,3,20000,14.816,,,320,4.5,10.3,,,,,,,,,wg-a,,,,AAXX 06064 07558 02570 13208 10050 20030 39422 40277 53003 60006 81501 90600 333 10103 20045 60004=
07558,1996-11-06 12:00:00,11,1025.3,-1,71,6,20000,18.52,,,290,,,,,,,,,,,wg-a,,,,AAXX 06124 07558 12570 72910 10110 20060 39420 40253 58010 60006 875// 91200=
07558,1996-11-06 18:00:00,8,1026.4,0.4,93,7,0,7.408,,,250,4.3,11.4,,,,,,,,,wg-a,,,,AAXX 06184 07558 12/// /2504 10080 20070 39422 40264 53004 60006 91800 333 10114 20043=
07558,1996-11-07 00:00:00,9,1025.4,-0.7,93,8,0,11.112,,,240,,,,,,,,,,,wg-a,,,,AAXX 07004 07558 12/// /2406 10090 20080 39414 40254 58007 60006 90000=
07558,1996-11-07 06:00:00,8,1023.7,-0.5,100,8,10000,3.704,,,200,7.9,9.5,,,,,,,,,wg-a,,,,AAXX 07064 07558 12560 72002 10080 20080 39397 40237 56005 60006 8557/ 90600 333 10095 20079=
07558,1996-11-07 12:00:00,14,1022.4,-0.6,77,10,12000,14.816,,,240,,,,,,,,,,,wg-a,,,,AAXX 07124 07558 12462 72408 10140 20100 39401 40224 58006 60006 8657/ 91200=
07558,1996-11-07 18:00:00,11,1023.7,0.6,100,11,0,14.816,,,250,8.3,14,,,,,,,,,wg-a,,,,AAXX 07184 07558 32/// /2508 10110 20110 39405 40237 53006 91800 333 10140 20083=
07558,1996-11-08 00:00:00,7,1027.4,1.2,87,5,0,25.928,,,320,,,,,,,,,,,wg-a,,,,AAXX 08004 07558 12/// /3214 10070 20050 39427 40274 53012 60006 90000=
07558,1996-11-08 06:00:00,5,1029.3,0.6,93,4,20000,25.928,,,320,5.4,11,,,,,,,,,wg-a,,,,AAXX 08064 07558 12570 43214 10050 20040 39439 40293 53006 60004 84500 90600 333 10110 20054=
07558,1996-11-08 12:00:00,10,1029.2,-0.1,57,2,20000,31.484,,,320,,,,,,,,,,,wg-a,,,,AAXX 08124 07558 12570 33217 10100 20020 39451 40292 58001 60006 83100 91200=
07558,1996-11-08 18:00:00,7,1031.2,0.6,76,3,0,22.224,,,310,5,10.4,,,,,,,,,wg-a,,,,AAXX 08184 07558 12/// /3112 10070 20030 39459 40312 53006 60006 91800 333 10104 20050=
07558,1996-11-09 00:00:00,4,1032.8,0.1,93,3,0,14.816,,,10,,,,,,,,,,,wg-a,,,,AAXX 09004 07558 12/// /0108 10040 20030 39467 40328 50001 60006 90000=
07558,1996-11-09 06:00:00,3,1032.7,-0,87,1,40000,18.52,,,20,2.9,10.4,,,,,,,,,wg-a,,,,AAXX 09064 07558 12/82 20210 10030 20010 39462 40327 55000 60006 80001 90600 333 10104 20029=
07558,1996-11-09 12:00:00,9,1,,66,3,0,3.704,,,180,,,,,,,,,,,wg-a,,,,AAXX 09124 07558 12/// /1802 10090 20030 39450 60006 91200=
07558,1996-11-09 18:00:00,7,1027.8,-0.6,76,3,0,0,,,0,2.4,9.8,,,,,,,,,wg-a,,,,AAXX 09184 07558 12/// /0000 10070 20030 39430 40278 56006 60006 91800 333 10098 20024=
07558,1996-11-10 00:00:00,6,1026,-1.5,70,1,0,11.112,,,100,,,,,,,,,,,wg-a,,,,AAXX 10004 07558 12/// /1006 10060 20010 39409 40260 58015 60006 90000=
07558,1996-11-10 06:00:00,6,1021.6,-1.5,81,3,20000,7.408,,,60,4.8,9.8,,,,,,,,,wg-a,,,,AAXX 10064 07558 12470 80604 10060 20030 39370 40216 57015 60006 885// 90600 333 10098 20048=
07558,1996-11-10 12:00:00,10,1016.3,-2.9,82,7,0,18.52,,,130,,,,,,,,,,,wg-a,,,,AAXX 10124 07558 12/// /1310 10100 20070 39332 40163 58029 60006 91200=
07558,1996-11-10 18:00:00,10,1010.9,-2.1,93,9,0,11.112,,,130,5.9,10.4,,,,,,,,,wg-a,,,,AAXX 10184 07558 12/// /1306 10100 20090 39284 40109 56021 60006 91800 333 10104 20059=
07558,1996-11-11 00:00:00,11,1005,-2.4,87,9,0,29.632,,,160,,,,,,,,,,,wg-a,,,,AAXX 11004 07558 12/// /1616 10110 20090 39234 40050 57024 60006 90000=
07558,1996-11-11 06:00:00,12,996.8,-2.4,82,9,15000,61.116,,,150,9.9,12,,,,,,,,,wg-a,,,,AAXX 11064 07558 12465 71533 10120 20090 39159 49968 58024 60006 878// 90600 333 10120 20099=
07558,1996-11-11 12:00:00,12,993.2,-1.4,76,8,0,50.004,,,150,,,,,,,,,,,wg-a,,,,AAXX 11124 07558 12/// /1527 10120 20080 39127 49932 56014 60006 91200=
07558,1996-11-11 18:00:00,11,993.4,0.7,87,9,0,38.892,,,130,11.1,12.9,,,,,,,,,wg-a,,,,AAXX 11184 07558 12/// /1321 10110 20090 39127 49934 50007 60006 91800 333 10129 20111=
07558,1996-11-12 00:00:00,13,993.7,-0.7,82,10,0,38.892,,,150,,,,,,,,,,,wg-a,,,,AAXX 12004 07558 12/// /1521 10130 20100 39133 49937 58007 60006 90000=
07558,1996-11-12 06:00:00,11,994.4,0.3,87,9,20000,42.596,,,150,10.9,12.9,,,,,,,,,wg-a,,,,AAXX 12064 07558 12470 71523 10110 20090 39136 49944 53003 60006 875// 90600 333 10129 20109=
07558,1996-11-12 12:00:00,13,996.8,1.9,94,12,8000,38.892,,,150,,,,0,,,,,,61,wg-a,,,,AAXX 12124 07558 02458 81521 10130 20120 39164 49968 51019 60006 76162 885// 91200 333 60007=
07558,1996-11-12 18:00:00,9,1000.9,2.3,93,8,0,18.52,,,310,9.2,14.7,,,,,,,,,wg-a,,,,AAXX 12184 07558 32/// /3110 10090 20080 39190 40009 53023 91800 333 10147 20092=
07558,1996-11-13 00:00:00,8,1004.4,0.5,100,8,0,14.816,,,30,,,,,,,,,,,wg-a,,,,AAXX 13004 07558 12/// /0308 10080 20080 39217 40044 52005 60206 90000=
07558,1996-11-13 06:00:00,5,1008.3,1.6,100,5,20000,7.408,,,350,5,9.5,,,,,23,,,1,wg-a,,,,AAXX 13064 07558 12470 33504 10050 20050 39245 40083 51016 60234 7016/ 82570 90600 333 10095 20050=
07558,1996-11-13 12:00:00,10,1010,0.2,71,5,500,14.816,,,320,,,,,,,,,,,wg-a,,,,AAXX 13124 07558 12500 43208 10100 20050 39275 40100 50002 60006 83101 91200=
07558,1996-11-13 18:00:00,7,1011.2,0.3,93,6,0,22.224,,,330,3.9,10.5,,,,,,,,,wg-a,,,,AAXX 13184 07558 12/// /3312 10070 20060 39279 40112 53003 60006 91800 333 10105 20039=
07558,1996-11-14 00:00:00,6,1012.8,0.3,87,4,0,25.928,,,350,,,,,,,,,,,wg-a,,,,AAXX 14004 07558 12/// /3514 10060 20040 39290 40128 50003 60006 90000=
07558,1996-11-14 06:00:00,4,1013.7,0.4,87,2,20000,31.484,,,10,4.3,7.3,,,,,,,,,wg-a,,,,AAXX 14064 07558 12/70 30117 10040 20020 39292 40137 52004 60006 80002 90600 333 10073 20043=
07558,1996-11-14 12:00:00,7,1013.8,-0.5,61,0,500,22.224,,,10,,,,,,,,,,,wg-a,,,,AAXX 14124 07558 12600 60112 10070 20000 39299 40138 58005 60006 82532 91200=
07558,1996-11-14 18:00:00,2,1015.4,-0.1,80,-1,0,25.928,,,20,1.5,6.6,,,,,,,,,wg-a,,,,AAXX 14184 07558 12/// /0214 10020 21010 39300 40154 58001 60006 91800 333 10066 20015=
07558,1996-11-15 00:00:00,1,1015.6,-0.6,80,-2,0,25.928,,,350,,,,,,,,,,,wg-a,,,,AAXX 15004 07558 12/// /3514 10010 21020 39299 40156 56006 60006 90000=
07558,1996-11-15 06:00:00,0,1016,0.5,86,-2,15000,3.704,,,270,-0.1,1.7,,,,,,,,,wg-a,,,,AAXX 15064 07558 12565 72702 10000 21020 39301 40160 53005 60006 8257/ 90600 333 10017 21001=
07558,1996-11-15 12:00:00,2,1016.6,-0.3,80,-1,10000,3.704,,,250,,,,,,,,,,22,wg-a,,,,AAXX 15124 07558 02560 72502 10020 21010 39312 40166 58003 61000 72272 8257/ 91200 333 6100=
07558,1996-11-15 18:00:00,1,1018.4,1.2,100,1,0,3.704,,,230,-0.1,2.1,,,,,,,,,wg-a,,,,AAXX 15184 07558 32/// /2302 10010 20010 39325 40184 53012 91800 333 10021 21001=
07558,1996-11-16 00:00:00,1,1019.3,-0.2,100,1,0,3.704,,,300,,,,,,,,,,,wg-a,,,,AAXX 16004 07558 12/// /3002 10010 20010 39335 40193 55002 60006 90000=
07558,1996-11-16 06:00:00,1,1019.9,0.6,100,1,100,3.704,,,260,0.6,1.6,,,,,1,,,44,wg-a,,,,AAXX 16064 07558 12101 82602 10010 20010 39340 40199 53006 60014 7444/ 885// 90600 333 10016 20006=
07558,1996-11-16 12:00:00,4,1018.2,-1,100,4,0,7.408,,,250,,,,,,,,,,,wg-a,,,,AAXX 16124 07558 12/// /2504 10040 20040 39333 40182 58010 60006 91200=
07558,1996-11-16 18:00:00,4,1016.7,-0.5,100,4,0,7.408,,,220,1,5.2,,,,,,,,,wg-a,,,,AAXX 16184 07558 32/// /2204 10040 20040 39318 40167 58005 91800 333 10052 20010=
07558,1996-11-17 00:00:00,1,1015.8,-1.2,100,1,0,18.52,,,210,,,,,,,,,,,wg-a,,,,AAXX 17004 07558 12/// /2110 10010 20010 39302 40158 57012 60026 90000=
07558,1996-11-17 06:00:00,0,1012.8,-1.4,100,0,300,11.112,,,210,-0.4,4.6,,0,,,6,,,60,wg-a,,,,AAXX 17064 07558 02103 82106 10000 20000 39270 40128 58014 60064 76064 885// 90600 333 10046 21004 60007=
07558,1996-11-17 12:00:00,0,1010.6,-1.9,100,0,0,0,,,0,,,,,,,,,,,wg-a,,,,AAXX 17124 07558 12/// /0000 10000 20000 39252 40106 58019 60016 91200=
07558,1996-11-17 18:00:00,1,1007.9,-1,100,1,0,7.408,,,240,-0.5,1.1,,,,,,,,,wg-a,,,,AAXX 17184 07558 32/// /2404 10010 20010 39229 40079 58010 91800 333 10011 21005=
07558,1996-11-18 00:00:00,1,1005.1,-2.2,100,1,0,7.408,,,270,,,,,,,,,,,wg-a,,,,AAXX 18004 07558 12/// /2704 10010 20010 39203 40051 56022 60006 90000=
07558,1996-11-18 06:00:00,0,1003.6,-0.8,100,0,6000,0,,,0,-0.2,1,,0,,,4,,,22,wg-a,,1,,AAXX 18064 07558 02156 70000 10000 20000 39187 40036 56008 60044 72274 877// 90600 333 10010 21002 4/001 60007=
07558,1996-11-18 12:00:00,2,1007,2.1,93,1,10000,31.484,,,290,,,,,,,,,,16,wg-a,,,,AAXX 18124 07558 12260 72917 10020 20010 39224 40070 52021 60006 71622 877// 91200=
07558,1996-11-18 18:00:00,2,1010.2,0.6,87,0,0,46.3,,,300,0,2,,,,,,,,,wg-a,,,,AAXX 18184 07558 32/// /3025 10020 20000 39252 40102 51006 91800 333 10020 20000=
07558,1996-11-19 00:00:00,0,1013.6,1.6,86,-2,0,29.632,,,300,,,,,,,,,,,wg-a,,,,AAXX 19004 07558 12/// /3016 10000 21020 39278 40136 51016 60006 90000=
07558,1996-11-19 06:00:00,-2,1012.7,-1.4,93,-3,15000,7.408,,,240,-2.2,1.6,,,,,,,,,wg-a,,,,AAXX 19064 07558 02565 32404 11020 21030 39263 40127 56014 60006 83500 90600 333 10016 21022 60004=
07558,1996-11-19 12:00:00,2,1004.4,-4.2,93,1,10000,7.408,,,110,,,,,,,,,,,wg-a,,,,AAXX 19124 07558 12460 81104 10020 20010 39200 40044 58042 60006 8557/ 91200=
07558,1996-11-19 18:00:00,3,999.9,-1.2,100,3,0,7.408,,,200,-2.4,3.2,,,,,,,,,wg-a,,,,AAXX 19184 07558 32/// /2004 10030 20030 39163 49999 58012 91800 333 10032 21024=
07558,1996-11-20 00:00:00,4,997.8,-1.1,100,4,0,35.188,,,230,,,,5,,,,,,,wg-a,,,,AAXX 20004 07558 02/// /2319 10040 20040 39146 49978 58011 60136 90000 333 60057=
07558,1996-11-20 06:00:00,2,998.8,0.9,100,2,6000,22.224,,,260,1.5,4.1,,5,,,28,,,61,wg-a,,,,AAXX 20064 07558 02356 82612 10020 20020 39149 49988 53009 60284 76166 885// 90600 333 10041 20015 60057=
07558,1996-11-20 12:00:00,4,1002,1.5,87,2,20000,38.892,,,260,,,,2,,,,,,22,wg-a,,,,AAXX 20124 07558 02470 82621 10040 20020 39183 40020 51015 60046 72276 888// 91200 333 60027=
07558,1996-11-20 18:00:00,3,1007.2,2.8,93,2,0,38.892,,,270,1.3,4.2,,2,,,,,,,wg-a,,,,AAXX 20184 07558 12/// /2721 10030 20020 39228 40072 51028 60027 91800 333 10042 20013=
07558,1996-11-21 00:00:00,2,1010.9,1.2,93,1,0,25.928,,,260,,,,,,,,,,,wg-a,,,,AAXX 21004 07558 12/// /2614 10020 20010 39260 40109 51012 60006 90000=
07558,1996-11-21 06:00:00,2,1013,1.1,100,2,0,3.704,,,230,0.9,3.2,,,,,7,,,,wg-a,,,,AAXX 21064 07558 12/// /2302 10020 20020 39278 40130 53011 60074 90600 333 10032 20009=
07558,1996-11-21 12:00:00,4,1013.4,-0.1,81,1,20000,11.112,,,350,,,,,,,,,,2,wg-a,,,,AAXX 21124 07558 12570 73506 10040 20010 39289 40134 58001 60006 70252 875// 91200=
07558,1996-11-21 18:00:00,2,1009.4,-2.8,100,2,0,14.816,,,130,1.5,4.7,,,,,,,,,wg-a,,,,AAXX 21184 07558 32/// /1308 10020 20020 39246 40094 58028 91800 333 10047 20015=
07558,1996-11-22 00:00:00,7,1002.5,-2.3,100,7,0,46.3,,,230,,,,7,,,,,,,wg-a,,,,AAXX 22004 07558 02/// /2325 10070 20070 39199 40025 58023 60146 90000 333 60077=
07558,1996-11-22 06:00:00,2,1011.3,9,93,1,10000,31.484,,,290,1.9,8.4,,,,,18,,,3,wg-a,,,,AAXX 22064 07558 02460 72917 10020 20010 39263 40113 53090 60184 70386 875// 90600 333 10084 20019 61000=
07558,1996-11-22 12:00:00,3,1016.1,1.5,65,-3,20000,25.928,,,360,,,,,,,,,,,wg-a,,,,AAXX 22124 07558 12570 53614 10030 21030 39311 40161 50015 60006 85800 91200=
07558,1996-11-23 06:00:00,-1,1016,0.4,100,-1,20000,7.408,,,20,,,,2,,,2,,,1,wg-a,,1,,AAXX 23064 07558 02170 60204 11010 21010 39297 40160 53004 60024 70172 86700 90600 333 10005 21019 4/001 60027=
07558,1996-11-23 12:00:00,2,1017.3,0.4,100,2,0,14.816,,,240,,,,,,,,,,,wg-a,,,,AAXX 23124 07558 12/// /2408 10020 20020 39320 40173 51004 60006 91200=
07558,1996-11-23 18:00:00,3,1020.8,2.4,87,1,0,14.816,,,310,-1.1,4.1,,,,,,,,,wg-a,,,,AAXX 23184 07558 32/// /3108 10030 20010 39352 40208 53024 91800 333 10041 21011=
07558,1996-11-24 00:00:00,1,1025.3,1.6,80,-2,0,18.52,,,290,,,,,,,,,,,wg-a,,,,AAXX 24004 07558 12/// /2910 10010 21020 39387 40253 51016 60006 90000=
07558,1996-11-24 06:00:00,-1,1028.2,0.6,86,-3,50000,18.52,,,310,-1.5,3,,,,,,,,,wg-a,,,,AAXX 24064 07558 02584 13110 11010 21030 39408 40282 52006 60006 81500 90600 333 10030 21015 60004=
07558,1996-11-24 12:00:00,3,1027.4,-1,65,-3,0,29.632,,,340,,,,,,,,,,,wg-a,,,,AAXX 24124 07558 12/// /3416 10030 21030 39413 40274 58010 60006 91200=
07558,1996-11-24 18:00:00,1,1025.1,-1.1,75,-3,0,7.408,,,20,-1.9,3.6,,,,,,,,,wg-a,,,,AAXX 24184 07558 12/// /0204 10010 21030 39387 40251 58011 60006 91800 333 10036 21019=
07558,1996-11-25 00:00:00,0,1022.9,-1.6,80,-3,0,7.408,,,60,,,,,,,,,,,wg-a,,,,AAXX 25004 07558 12/// /0604 10000 21030 39362 40229 58016 60006 90000=
07558,1996-11-25 06:00:00,0,1017.9,-2.6,93,-1,8000,3.704,,,130,-0.9,3.6,,2,,,2,,,61,wg-a,,,,AAXX 25064 07558 02458 81302 10000 21010 39319 40179 58026 60024 7616/ 885// 90600 333 10036 21009 60027=
07558,1996-11-25 12:00:00,6,1010.2,-3.5,100,6,400,29.632,,,220,,,,4,,,,,,58,wg-a,,,,AAXX 25124 07558 02104 82216 10060 20060 39265 40102 58035 60066 75864 887// 91200 333 60047=
07558,1996-11-25 18:00:00,7,1006.2,-0.7,100,7,0,25.928,,,290,0.3,7.9,,,,,,,,,wg-a,,,,AAXX 25184 07558 32/// /2914 10070 20070 39233 40062 56007 91800 333 10079 20003=
07558,1996-11-26 00:00:00,5,1006.1,-0,93,4,0,38.892,,,290,,,,2,,,,,,,wg-a,,,,AAXX 26004 07558 02/// /2921 10050 20040 39225 40061 55000 60026 90000 333 60027=
07558,1996-11-26 06:00:00,4,1010.8,2.5,93,3,15000,31.484,,,310,3.7,7.3,,1,,,15,,,61,wg-a,,,,AAXX 26064 07558 02265 83117 10040 20030 39265 40108 51025 60154 76186 877// 90600 333 10073 20037 60017=
07558,1996-11-26 12:00:00,5,1013.1,0.3,70,0,20000,31.484,,,300,,,,0,,,,,,1,wg-a,,,,AAXX 26124 07558 02470 63017 10050 20000 39289 40131 51003 60006 70186 86800 91200 333 60007=
07558,1996-11-26 18:00:00,3,1015.7,1.3,81,0,0,14.816,,,310,2.9,5.8,,,,,,,,,wg-a,,,,AAXX 26184 07558 32/// /3108 10030 20000 39306 40157 53013 91800 333 10058 20029=
07558,1996-11-27 00:00:00,1,1016,-0.2,86,-1,0,29.632,,,330,,,,,,,,,,,wg-a,,,,AAXX 27004 07558 12/// /3316 10010 21010 39303 40160 55002 60006 90000=
07558,1996-11-27 06:00:00,1,1014.1,-0.9,86,-1,20000,18.52,,,360,0.7,3,,,,,,,,,wg-a,,,,AAXX 27064 07558 02570 73610 10010 21010 39286 40141 56009 60006 83532 90600 333 10030 20007 60004=
07558,1996-11-27 12:00:00,3,1010.1,-2.5,100,3,400,7.408,,,160,,,,3,,,,,,58,wg-a,,,,AAXX 27124 07558 02104 81604 10030 20030 39255 40101 58025 60046 75864 885// 91200 333 60037=
07558,1996-11-27 18:00:00,7,1006.6,0.7,87,5,0,72.228,,,290,0.5,9.3,,6,,,,,,,wg-a,,,,AAXX 27184 07558 12/// /2939 10070 20050 39234 40066 53007 60067 91800 333 10093 20005=
07558,1996-11-28 00:00:00,4,1009.1,0.6,87,2,0,31.484,,,290,,,,1,,,,,,,wg-a,,,,AAXX 28004 07558 02/// /2917 10040 20020 39250 40091 53006 60036 90000 333 60017=
07558,1996-11-28 06:00:00,1,1009.8,1.9,93,0,8000,38.892,,,350,0.4,6.8,,2,,,16,,,68,wg-a,,,,AAXX 28064 07558 02458 73521 10010 20000 39246 40098 53019 60164 76876 875// 90600 333 10068 20004 60027=
07558,1996-11-28 12:00:00,-1,1019,2.3,86,-3,10000,38.892,,,300,,,,,,,,,,26,wg-a,,,,AAXX 28124 07558 02460 73021 11010 21030 39325 40190 50023 60006 72687 878// 91200 333 61000=
07558,1996-11-28 18:00:00,-1,1022,2,74,-5,0,38.892,,,310,-1.3,0.9,,,,,,,,,wg-a,,,,AAXX 28184 07558 32/// /3121 11010 21050 39351 40220 51020 91800 333 10009 21013=
07558,1996-11-29 00:00:00,-1,1023.6,0.1,86,-3,0,35.188,,,310,,,,,,,,,,,wg-a,,,,AAXX 29004 07558 12/// /3119 11010 21030 39367 40236 51001 60006 90000=
07558,1996-11-29 06:00:00,-2,1024.3,0.1,86,-4,15000,29.632,,,300,-2.5,-0.6,,,,,,,,,wg-a,,,,AAXX 29064 07558 02565 33016 11020 21040 39370 40243 50001 60006 83500 90600 333 11006 21025 60004=
07558,1996-11-29 12:00:00,3,1021.6,-1.6,87,1,10000,29.632,,,270,,,,,,,,,,15,wg-a,,,,AAXX 29124 07558 12560 72716 10030 20010 39362 40216 58016 60006 71522 875// 91200=
07558,1996-11-29 18:00:00,5,1017.7,-1,100,5,0,25.928,,,260,-2.4,4.9,,,,,,,,,wg-a,,,,AAXX 29184 07558 32/// /2614 10050 20050 39331 40177 58010 91800 333 10049 21024=
07558,1996-11-30 00:00:00,6,1014.3,-1.9,100,6,0,25.928,,,240,,,,,,,,,,,wg-a,,,,AAXX 30004 07558 12/// /2414 10060 20060 39304 40143 58019 60026 90000=
07558,1996-11-30 06:00:00,8,1009.4,-2.1,100,8,8000,38.892,,,270,4.9,7.7,,1,,,4,,,61,wg-a,,,,AAXX 30064 07558 02458 82721 10080 20080 39264 40094 56021 60044 7616/ 885// 90600 333 10077 20049 60017=
07558,1996-11-30 12:00:00,9,1007.1,-1.1,93,8,0,61.116,,,300,,,,3,,,,,,,wg-a,,,,AAXX 30124 07558 02/// /3033 10090 20080 39246 40071 58011 60066 91200 333 60037=
07558,1996-11-30 18:00:00,7,1008.3,1.2,93,6,0,61.116,,,320,6.8,9.3,,3,,,,,,,wg-a,,,,AAXX 30184 07558 12/// /3233 10070 20060 39251 40083 53012 60037 91800 333 10093 20068=
07558,1996-12-01 00:00:00,4,1016.5,3.4,81,1,0,38.892,,,300,,,,,,,,,,,wg-a,,,,AAXX 01004 07558 12/// /3021 10040 20010 39316 40165 51034 60006 90000=
07558,1996-12-01 06:00:00,2,1021.1,1.2,93,1,20000,25.928,,,310,2.3,9.3,,,,,11,,,,wg-a,,,,AAXX 01064 07558 02470 13114 10020 20010 39354 40211 53012 60006 81200 90600 333 10093 20023 60114=
07558,1996-12-01 12:00:00,5,1022.8,0.1,70,0,0,35.188,,,320,,,,,,,,,,,wg-a,,,,AAXX 01124 07558 12/// /3219 10050 20000 39379 40228 51001 60006 91200=
07558,1996-12-01 18:00:00,4,1023.8,1.1,87,2,0,35.188,,,300,1.6,5.9,,,,,,,,,wg-a,,,,AAXX 01184 07558 12/// /3019 10040 20020 39385 40238 51011 60006 91800 333 10059 20016=
07558,1996-12-02 00:00:00,6,1022.6,-0.5,100,6,0,14.816,,,240,,,,,,,,,,,wg-a,,,,AAXX 02004 07558 12/// /2408 10060 20060 39379 40226 58005 60016 90000=
07558,1996-12-02 06:00:00,7,1021.7,0.3,100,7,15000,38.892,,,310,3.2,8.7,,0,,,1,,,3,wg-a,,,,AAXX 02064 07558 02265 73121 10070 20070 39375 40217 53003 60014 7036/ 877// 90600 333 10087 20032 60007=
07558,1996-12-02 12:00:00,6,1022.8,-0.2,75,2,20000,35.188,,,310,,,,,,,,,,,wg-a,,,,AAXX 02124 07558 12570 63119 10060 20020 39381 40228 58002 60006 84102 91200=
07558,1996-12-02 18:00:00,4,1024.9,1,87,2,0,22.224,,,290,3.6,7.2,,,,,,,,,wg-a,,,,AAXX 02184 07558 12/// /2912 10040 20020 39393 40249 51010 60006 91800 333 10072 20036=
07558,1996-12-03 00:00:00,2,1025.5,-0.6,93,1,0,18.52,,,300,,,,,,,,,,,wg-a,,,,AAXX 03004 07558 12/// /3010 10020 20010 39393 40255 57006 60006 90000=
07558,1996-12-03 06:00:00,0,1022.4,-2.3,100,0,10000,7.408,,,10,0.3,7.2,,,,,,,,,wg-a,,,,AAXX 03064 07558 12260 60104 10000 20000 39360 40224 58023 60006 85501 90600 333 10072 20003=
07558,1996-12-03 12:00:00,8,1015.8,-2.7,57,0,50000,3.704,,,130,,,,,,,,,,,wg-a,,,,AAXX 03124 07558 12/84 11302 10080 20000 39322 40158 58027 60006 80001 91200=
07558,1996-12-03 18:00:00,4,1014.3,-0.1,75,0,0,18.52,,,120,0.2,9.6,,,,,,,,,wg-a,,,,AAXX 03184 07558 12/// /1210 10040 20000 39296 40143 55001 60006 91800 333 10096 20002=
07558,1996-12-04 00:00:00,6,1011.7,-1.3,87,4,0,18.52,,,130,,,,,,,,,,,wg-a,,,,AAXX 04004 07558 12/// /1310 10060 20040 39279 40117 58013 60006 90000=
07558,1996-12-04 06:00:00,7,1009.4,-0.4,93,6,10000,29.632,,,140,2.9,7.2,,,,,,,,,wg-a,,,,AAXX 04064 07558 12360 71416 10070 20060 39261 40094 55004 60006 875// 90600 333 10072 20029=
07558,1996-12-04 12:00:00,10,1006.7,-1,87,8,12000,46.3,,,150,,,,,,,,,,,wg-a,,,,AAXX 04124 07558 12462 71525 10100 20080 39246 40067 58010 60006 875// 91200=
07558,1996-12-04 18:00:00,7,1009.3,1,93,6,0,38.892,,,140,6.8,11.7,,0,,,,,,,wg-a,,,,AAXX 04184 07558 12/// /1421 10070 20060 39261 40093 51010 60007 91800 333 10117 20068=
07558,1996-12-05 00:00:00,7,1009.6,-0.4,93,6,0,42.596,,,120,,,,,,,,,,,wg-a,,,,AAXX 05004 07558 12/// /1223 10070 20060 39263 40096 58004 60006 90000=
07558,1996-12-05 06:00:00,7,1008.6,0.1,100,7,6000,38.892,,,120,6,7.3,,6,,,8,,,61,wg-a,,,,AAXX 05064 07558 02156 81221 10070 20070 39255 40086 53001 60084 76162 877// 90600 333 10073 20060 60067=
07558,1996-12-05 12:00:00,7,1010,0.6,100,7,8000,53.708,,,130,,,,2,,,,,,60,wg-a,,,,AAXX 05124 07558 02158 81329 10070 20070 39268 40100 51006 60076 76062 877// 91200 333 60027=
07558,1996-12-05 18:00:00,7,1010.7,0.2,87,5,0,50.004,,,120,6.7,7.8,,,,,,,,,wg-a,,,,AAXX 05184 07558 32/// /1227 10070 20050 39274 40107 52002 91800 333 10078 20067=
07558,1996-12-06 00:00:00,6,1011.4,0.3,81,3,0,25.928,,,120,,,,,,,,,,,wg-a,,,,AAXX 06004 07558 12/// /1214 10060 20030 39277 40114 50003 60006 90000=
07558,1996-12-06 06:00:00,6,1011.7,0.6,100,6,6000,35.188,,,110,5.7,7.3,,2,,,9,,,61,wg-a,,,,AAXX 06064 07558 02456 81119 10060 20060 39280 40117 53006 60094 7616/ 888// 90600 333 10073 20057 60027=
07558,1996-12-06 12:00:00,7,1013,-0.8,100,7,10000,46.3,,,120,,,,2,,,,,,61,wg-a,,,,AAXX 06124 07558 02360 71225 10070 20070 39294 40130 58008 60196 76166 8682/ 91200 333 60027=
07558,1996-12-06 18:00:00,7,1015.3,1,93,6,0,25.928,,,90,5,7.5,,,,,,,,,wg-a,,,,AAXX 06184 07558 32/// /0914 10070 20060 39315 40153 52010 91800 333 10075 20050=
07558,1996-12-07 00:00:00,8,1015.3,0.5,93,7,0,29.632,,,120,,,,4,,,,,,,wg-a,,,,AAXX 07004 07558 02/// /1216 10080 20070 39317 40153 53005 60096 90000 333 60047=
07558,1996-12-07 06:00:00,6,1017.4,0.4,100,6,7000,11.112,,,10,5.6,7.8,,7,,,50,,,61,wg-a,,,,AAXX 07064 07558 02457 80106 10060 20060 39331 40174 53004 60504 76166 885// 90600 333 10078 20056 60077=
07558,1996-12-07 12:00:00,11,1018.4,0.9,82,8,0,31.484,,,110,,,,,,,,,,,wg-a,,,,AAXX 07124 07558 02/// /1117 10110 20080 39354 40184 51009 60006 91200 333 61000=
07558,1996-12-07 18:00:00,10,1019.5,0.7,82,7,0,14.816,,,60,5.6,11.1,,,,,,,,,wg-a,,,,AAXX 07184 07558 32/// /0608 10100 20070 39362 40195 51007 91800 333 10111 20056=
07558,1996-12-08 00:00:00,8,1020.5,-0.3,81,5,0,14.816,,,80,,,,,,,,,,,wg-a,,,,AAXX 08004 07558 12/// /0808 10080 20050 39366 40205 56003 60006 90000=
07558,1996-12-08 06:00:00,7,1019.1,-0.6,76,3,15000,7.408,,,70,6.3,9.7,,,,,,,,,wg-a,,,,AAXX 08064 07558 02565 70704 10070 20030 39348 40191 55006 60006 85502 90600 333 10097 20063 60004=
07558,1996-12-08 12:00:00,10,1018.5,-0.6,66,4,0,22.224,,,100,,,,,,,,,,,wg-a,,,,AAXX 08124 07558 12/// /1012 10100 20040 39352 40185 56006 60006 91200=
07558,1996-12-08 18:00:00,7,1018.9,0.3,93,6,0,18.52,,,90,5.8,10.4,,,,,,,,,wg-a,,,,AAXX 08184 07558 32/// /0910 10070 20060 39348 40189 53003 91800 333 10104 20058=
07558,1996-12-09 00:00:00,6,1019.1,-1.1,93,5,0,7.408,,,50,,,,,,,,,,,wg-a,,,,AAXX 09004 07558 12/// /0504 10060 20050 39346 40191 58011 60016 90000=
07558,1996-12-09 06:00:00,6,1016.3,-0.7,93,5,20000,3.704,,,360,5.5,7,,0,,,2,,,2,wg-a,,,,AAXX 09064 07558 02070 83602 10060 20050 39322 40163 56007 60024 7026/ 8477/ 90600 333 10070 20055 60007=
07558,1996-12-09 12:00:00,6,1015.1,-0.6,100,6,600,3.704,,,160,,,,0,,,,,,46,wg-a,,,,AAXX 09124 07558 02006 81602 10060 20060 39311 40151 58006 60016 74664 877// 91200 333 60007=
07558,1996-12-09 18:00:00,5,1015.7,-0.5,93,4,0,3.704,,,70,5.2,6.9,,,,,,,,,wg-a,,,,AAXX 09184 07558 32/// /0702 10050 20040 39314 40157 55005 91800 333 10069 20052=
07558,1996-12-10 00:00:00,4,1014.5,-1.2,100,4,0,11.112,,,30,,,,,,,,,,,wg-a,,,,AAXX 10004 07558 12/// /0306 10040 20040 39299 40145 58012 60006 90000=
07558,1996-12-10 06:00:00,4,1012.2,-1,87,2,20000,11.112,,,350,2.7,6.9,,,,,3,,,,wg-a,,,,AAXX 10064 07558 02570 73506 10040 20020 39276 40122 56010 60006 8452/ 90600 333 10069 20027 60034=
07558,1996-12-10 12:00:00,7,1010.5,-1.6,81,4,40000,18.52,,,360,,,,0,,,,,,1,wg-a,,,,AAXX 10124 07558 02782 73610 10070 20040 39272 40105 58016 60006 70162 8157/ 91200 333 60007=
07558,1996-12-10 18:00:00,5,1012.7,1.3,93,4,0,3.704,,,250,3.2,7.9,,,,,,,,,wg-a,,,,AAXX 10184 07558 32/// /2502 10050 20040 39286 40127 51013 91800 333 10079 20032=
07558,1996-12-11 00:00:00,5,1014.4,0.4,93,4,0,11.112,,,40,,,,,,,,,,,wg-a,,,,AAXX 11004 07558 12/// /0406 10050 20040 39300 40144 51004 60006 90000=
07558,1996-12-11 06:00:00,3,1014.8,-0,93,2,25000,11.112,,,30,2.9,5.5,,,,,,,,,wg-a,,,,AAXX 11064 07558 02/75 20306 10030 20020 39299 40148 55000 60006 81032 90600 333 10055 20029 60004=
07558,1996-12-11 12:00:00,8,1013.5,-0.6,81,5,20000,22.224,,,130,,,,,,,,,,,wg-a,,,,AAXX 11124 07558 12570 71312 10080 20050 39301 40135 58006 60006 875// 91200=
07558,1996-12-11 18:00:00,7,1014,0.7,87,5,0,22.224,,,120,3.1,8.7,,,,,,,,,wg-a,,,,AAXX 11184 07558 12/// /1212 10070 20050 39303 40140 53007 60006 91800 333 10087 20031=
07558,1996-12-12 00:00:00,7,1013.2,0.1,93,6,0,35.188,,,120,,,,,,,,,,,wg-a,,,,AAXX 12004 07558 12/// /1219 10070 20060 39296 40132 53001 60006 90000=
07558,1996-12-12 06:00:00,7,1012.5,0.6,87,5,10000,25.928,,,130,6.4,,,,,,,,,,wg-a,,,,AAXX 12064 07558 12060 81314 10070 20050 39290 40125 53006 60006 877// 90600 333 20064=
07558,1996-12-12 12:00:00,8,1012.1,-0.8,93,7,20000,14.816,,,120,,,,0,,,,,,1,wg-a,,,,AAXX 12124 07558 02270 81208 10080 20070 39290 40121 58008 60036 70162 877// 91200 333 60007=
07558,1996-12-12 18:00:00,7,1011.5,-0.4,100,7,0,22.224,,,130,6.3,8.7,,,,,,,,,wg-a,,,,AAXX 12184 07558 32/// /1312 10070 20070 39281 40115 55004 91800 333 10087 20063=
07558,1996-12-13 00:00:00,7,1008.9,-1.2,100,7,0,18.52,,,120,,,,,,,,,,,wg-a,,,,AAXX 13004 07558 12/// /1210 10070 20070 39258 40089 58012 60006 90000=
07558,1996-12-13 06:00:00,8,1004.4,-1.4,100,8,12000,14.816,,,80,7,8.3,,,,,3,,,21,wg-a,,,,AAXX 13064 07558 02462 70808 10080 20080 39219 40044 58014 60034 7216/ 875// 90600 333 10083 20070 61000=
07558,1996-12-13 12:00:00,10,1001.3,-1.6,93,9,20000,3.704,,,350,,,,,,,,,,,wg-a,,,,AAXX 13124 07558 12470 73502 10100 20090 39197 40013 58016 60006 875// 91200=
07558,1996-12-13 18:00:00,9,999.9,0.2,100,9,0,0,,,0,8.2,10.3,,,,,,,,,wg-a,,,,AAXX 13184 07558 32/// /0000 10090 20090 39181 49999 51002 91800 333 10103 20082=
07558,1996-12-14 00:00:00,8,999.4,-0.5,100,8,0,3.704,,,200,,,,,,,,,,,wg-a,,,,AAXX 14004 07558 12/// /2002 10080 20080 39173 49994 58005 60006 90000=
07558,1996-12-14 06:00:00,7,999.1,-0,100,7,500,11.112,,,10,6.9,10.3,,,,,,,,44,wg-a,,,,AAXX 14064 07558 12/00 90106 10070 20070 39167 49991 55000 60004 7444/ 89/// 90600 333 10103 20069=
07558,1996-12-14 12:00:00,8,1001,0.7,100,8,0,11.112,,,200,,,,,,,,,,,wg-a,,,,AAXX 14124 07558 12/// /2006 10080 20080 39188 40010 50007 60016 91200=
07558,1996-12-14 18:00:00,6,1005.8,2.3,87,4,0,25.928,,,10,5.8,8.6,,,,,,,,,wg-a,,,,AAXX 14184 07558 32/// /0114 10060 20040 39225 40058 51023 91800 333 10086 20058=
07558,1996-12-15 00:00:00,3,1011.5,1.8,100,3,0,11.112,,,290,,,,,,,,,,,wg-a,,,,AAXX 15004 07558 12/// /2906 10030 20030 39270 40115 51018 60006 90000=
07558,1996-12-15 06:00:00,2,1014.7,1.2,87,0,15000,25.928,,,340,2,8.6,,,,,4,,,,wg-a,,,,AAXX 15064 07558 02365 83414 10020 20000 39295 40147 53012 60006 886// 90600 333 10086 20020 60044=
07558,1996-12-15 12:00:00,4,1015.2,-0.7,81,1,0,7.408,,,290,,,,,,,,,,,wg-a,,,,AAXX 15124 07558 12/// /2904 10040 20010 39304 40152 58007 60006 91200=
07558,1996-12-15 18:00:00,1,1016.9,1.1,100,1,0,7.408,,,230,0.6,5.3,,,,,,,,,wg-a,,,,AAXX 15184 07558 12/// /2304 10010 20010 39313 40169 53011 60006 91800 333 10053 20006=
07558,1996-12-16 00:00:00,0,1017.8,0,100,0,0,3.704,,,80,,,,,,,,,,,wg-a,,,,AAXX 16004 07558 12/// /0802 10000 20000 39317 40178 50000 60006 90000=
07558,1996-12-16 06:00:00,-1,1017.8,0.1,100,-1,20000,3.704,,,70,-1.7,1.4,,,,,,,,,wg-a,,,,AAXX 16064 07558 12/70 00702 11010 21010 39315 40178 53001 60006 80000 90600 333 10014 21017=
07558,1996-12-16 12:00:00,4,1017.2,0,87,2,15000,14.816,,,140,,,,,,,,,,,wg-a,,,,AAXX 16124 07558 12565 71408 10040 20020 39323 40172 50000 60006 875// 91200=
07558,1996-12-16 18:00:00,6,1017.6,1,87,4,0,14.816,,,110,-0.9,6,,,,,,,,,wg-a,,,,AAXX 16184 07558 12/// /1108 10060 20040 39333 40176 51010 60006 91800 333 10060 21009=
07558,1996-12-17 00:00:00,7,1017.7,0.2,93,6,0,25.928,,,120,,,,,,,,,,,wg-a,,,,AAXX 17004 07558 12/// /1214 10070 20060 39336 40177 50002 60006 90000=
07558,1996-12-17 06:00:00,6,1017.7,0.1,100,6,8000,22.224,,,130,5.7,6.7,,,,,,,,,wg-a,,,,AAXX 17064 07558 12358 81312 10060 20060 39336 40177 53001 60006 885// 90600 333 10067 20057=
07558,1996-12-17 12:00:00,8,1017.3,-0.5,87,6,40000,22.224,,,120,,,,,,,,,,,wg-a,,,,AAXX 17124 07558 12482 71212 10080 20060 39337 40173 58005 60006 875// 91200=
07558,1996-12-17 18:00:00,7,1016.9,0.1,93,6,0,25.928,,,120,6.4,9.4,,,,,,,,,wg-a,,,,AAXX 17184 07558 12/// /1214 10070 20060 39330 40169 51001 60006 91800 333 10094 20064=
07558,1996-12-18 00:00:00,7,1015.6,-1.1,93,6,0,22.224,,,120,,,,,,,,,,,wg-a,,,,AAXX 18004 07558 12/// /1212 10070 20060 39318 40156 58011 60006 90000=
07558,1996-12-18 06:00:00,7,1012.4,-1.6,93,6,15000,22.224,,,110,6.7,7.3,,,,,,,,,wg-a,,,,AAXX 18064 07558 12465 71112 10070 20060 39290 40124 56016 60006 875// 90600 333 10073 20067=
07558,1996-12-18 12:00:00,9,1009.6,-1.5,87,7,12000,35.188,,,120,,,,,,,,,,,wg-a,,,,AAXX 18124 07558 12462 71219 10090 20070 39269 40096 58015 60006 875// 91200=
07558,1996-12-18 18:00:00,8,1007.6,-0.7,93,7,0,29.632,,,120,7.3,9,,,,,,,,,wg-a,,,,AAXX 18184 07558 12/// /1216 10080 20070 39248 40076 58007 60006 91800 333 10090 20073=
07558,1996-12-19 00:00:00,9,1005.5,-1,100,9,0,35.188,,,130,,,,1,,,,,,,wg-a,,,,AAXX 19004 07558 02/// /1319 10090 20090 39232 40055 56010 60016 90000 333 60017=
07558,1996-12-19 06:00:00,9,1003.4,-1.5,93,8,15000,31.484,,,120,8.1,9.3,,,,,2,,,3,wg-a,,,,AAXX 19064 07558 12465 81217 10090 20080 39212 40034 56015 60024 7036/ 8557/ 90600 333 10093 20081=
07558,1996-12-19 12:00:00,8,1002.9,-0,100,8,10000,11.112,,,250,,,,7,,,,,,61,wg-a,,,,AAXX 19124 07558 02360 82506 10080 20080 39205 40029 54000 60096 76166 8557/ 91200 333 60077=
07558,1996-12-19 18:00:00,7,1002.5,0.7,100,7,0,3.704,,,350,7.2,8.9,,,,,,,,,wg-a,,,,AAXX 19184 07558 32/// /3502 10070 20070 39199 40025 52007 91800 333 10089 20072=
07558,1996-12-20 00:00:00,7,1003.2,0.2,87,5,0,3.704,,,240,,,,,,,,,,,wg-a,,,,AAXX 20004 07558 12/// /2402 10070 20050 39203 40032 50002 60016 90000=
07558,1996-12-20 06:00:00,6,1001.7,-0.5,100,6,600,11.112,,,90,5.2,7.4,,,,,15,,,46,wg-a,,,,AAXX 20064 07558 12106 70906 10060 20060 39186 40017 57005 60154 74664 877// 90600 333 10074 20052=
07558,1996-12-20 12:00:00,7,1001.5,-0.7,100,7,0,14.816,,,130,,,,,,,,,,,wg-a,,,,AAXX 20124 07558 12/// /1308 10070 20070 39189 40015 58007 60006 91200=
07558,1996-12-20 18:00:00,6,1001.7,0.2,93,5,0,11.112,,,100,4.2,8.4,,,,,,,,,wg-a,,,,AAXX 20184 07558 12/// /1006 10060 20050 39187 40017 50002 60006 91800 333 10084 20042=
07558,1996-12-21 00:00:00,6,1002.2,-0.1,87,4,0,14.816,,,70,,,,,,,,,,,wg-a,,,,AAXX 21004 07558 12/// /0708 10060 20040 39192 40022 57001 60006 90000=
07558,1996-12-21 06:00:00,8,1001,-1,87,6,15000,35.188,,,120,5.1,7.5,,,,,,,,,wg-a,,,,AAXX 21064 07558 12565 61219 10080 20060 39186 40010 55010 60006 86500 90600 333 10075 20051=
07558,1996-12-21 12:00:00,11,1000.5,0.3,87,9,0,31.484,,,130,,,,,,,,,,,wg-a,,,,AAXX 21124 07558 02/// /1317 10110 20090 39191 40005 50003 61000 91200 333 6100=
07558,1996-12-21 18:00:00,11,1001.4,0.3,87,9,0,35.188,,,120,7.5,11.1,,,,,,,,,wg-a,,,,AAXX 21184 07558 32/// /1219 10110 20090 39199 40014 53003 91800 333 10111 20075=
07558,1996-12-22 00:00:00,11,1003.8,1.1,87,9,0,35.188,,,140,,,,,,,,,,,wg-a,,,,AAXX 22004 07558 12/// /1419 10110 20090 39221 40038 50011 60006 90000=
07558,1996-12-22 06:00:00,10,1004.2,0.2,87,8,15000,46.3,,,120,9.8,10.9,,,,,,,,,wg-a,,,,AAXX 22064 07558 02465 71225 10100 20080 39222 40042 53002 60006 875// 90600 333 10109 20098 61000=
07558,1996-12-22 12:00:00,10,1004.6,-0.7,87,8,0,29.632,,,120,,,,,,,,,,,wg-a,,,,AAXX 22124 07558 02/// /1216 10100 20080 39226 40046 58007 61000 91200 333 ////=
07558,1996-12-22 18:00:00,10,1001.6,-0.9,93,9,0,38.892,,,120,9.6,10.2,,,,,,,,,wg-a,,,,AAXX 22184 07558 32/// /1221 10100 20090 39199 40016 56009 91800 333 10102 20096=
07558,1996-12-23 00:00:00,10,999.2,0.1,93,9,0,25.928,,,170,,,,,,,,,,,wg-a,,,,AAXX 23004 07558 12/// /1714 10100 20090 39177 49992 52001 60026 90000=
07558,1996-12-23 06:00:00,8,999.3,0.2,100,8,300,11.112,,,220,8.3,10.3,,,,,,,,46,wg-a,,,,AAXX 23064 07558 32203 82206 10080 20080 39173 49993 53002 74664 885// 90600 333 10103 20083=
07558,1996-12-23 12:00:00,9,998.7,-0.5,100,9,15000,3.704,,,20,,,,,,,,,,28,wg-a,,,,AAXX 23124 07558 12265 70202 10090 20090 39171 49987 58005 60006 72842 85532 91200=
07558,1996-12-23 18:00:00,9,997.7,-0,87,7,0,3.704,,,350,7,11.5,,,,,,,,,wg-a,,,,AAXX 23184 07558 12/// /3502 10090 20070 39161 49977 55000 60006 91800 333 10115 20070=
07558,1996-12-24 00:00:00,7,997.3,-0.7,93,6,0,3.704,,,20,,,,,,,,,,,wg-a,,,,AAXX 24004 07558 12/// /0202 10070 20060 39150 49973 58007 60006 90000=
07558,1996-12-24 06:00:00,6,996.4,-0.5,100,6,100,3.704,,,70,5,11.5,,,,,,,,44,wg-a,,,,AAXX 24064 07558 12001 80702 10060 20060 39138 49964 56005 60006 7444/ 886// 90600 333 10115 20050=
07558,1996-12-24 12:00:00,7,996.4,-0.3,100,7,8000,3.704,,,20,,,,,,,,,,1,wg-a,,,,AAXX 24124 07558 12458 80202 10070 20070 39142 49964 58003 60006 70142 888// 91200=
07558,1996-12-24 18:00:00,7,996.9,1,93,6,0,11.112,,,330,5.1,7.8,,,,,,,,,wg-a,,,,AAXX 24184 07558 12/// /3306 10070 20060 39145 49969 53010 60006 91800 333 10078 20051=
07558,1996-12-25 00:00:00,6,1000.4,1.8,93,5,0,11.112,,,320,,,,,,,,,,,wg-a,,,,AAXX 25004 07558 12/// /3206 10060 20050 39175 40004 51018 60006 90000=
07558,1996-12-25 06:00:00,6,1003.2,1.2,93,5,15000,29.632,,,300,5.1,7.8,,,,,,,,,wg-a,,,,AAXX 25064 07558 12465 73016 10060 20050 39202 40032 53012 60006 878// 90600 333 10078 20051=
07558,1996-12-25 12:00:00,3,1007.7,1.2,100,3,0,29.632,,,260,,,,,,,,,,,wg-a,,,,AAXX 25124 07558 02/// /2616 10030 20030 39235 40077 51012 61000 91200 333 ////=
07558,1996-12-25 18:00:00,1,1012.4,2.3,93,0,0,14.816,,,270,1.2,6.6,,,,,,,,,wg-a,,,,AAXX 25184 07558 32/// /2708 10010 20000 39272 40124 51023 91800 333 10066 20012=
07558,1996-12-26 00:00:00,0,1016.6,1.5,93,-1,0,29.632,,,330,,,,,,,,,,,wg-a,,,,AAXX 26004 07558 12/// /3316 10000 21010 39306 40166 53015 60006 90000=
07558,1996-12-26 06:00:00,-4,1022,2,86,-6,15000,31.484,,,340,-3.6,1.4,,,,,,,,,wg-a,,,,AAXX 26064 07558 02465 23417 11040 21060 39344 40220 52020 60006 82500 90600 333 10014 21036 61000=
07558,1996-12-26 12:00:00,-1,1025.3,0.8,54,-9,500,18.52,,,310,,,,,,,,,,,wg-a,,,,AAXX 26124 07558 12400 13110 11010 21090 39381 40253 51008 60006 81500 91200=
07558,1996-12-26 18:00:00,-5,1030.5,2.4,63,-11,0,11.112,,,310,-5,-0.6,,,,,,,,,wg-a,,,,AAXX 26184 07558 12/// /3106 11050 21110 39417 40305 53024 60006 91800 333 11006 21050=
07558,1996-12-27 00:00:00,-8,1032.1,0.3,85,-10,0,3.704,,,280,,,,,,,,,,,wg-a,,,,AAXX 27004 07558 12/// /2802 11080 21100 39423 40321 53003 60006 90000=
07558,1996-12-27 06:00:00,-8,1030,-1.1,73,-12,20000,3.704,,,240,-8.5,-4.9,,,,,,,,,wg-a,,,,AAXX 27064 07558 12/70 22402 11080 21120 39403 40300 56011 60006 80002 90600 333 11049 21085=
07558,1996-12-27 12:00:00,-1,1024.6,-2.2,50,-10,25000,3.704,,,270,,,,,,,,,,,wg-a,,,,AAXX 27124 07558 12/75 22702 11010 21100 39375 40246 58022 60006 80002 91200=
07558,1996-12-27 18:00:00,-2,1021.3,-1,54,-10,0,11.112,,,100,-7.9,3.2,,,,,,,,,wg-a,,,,AAXX 27184 07558 12/// /1006 11020 21100 39343 40213 58010 60006 91800 333 10032 21079=
07558,1996-12-28 00:00:00,-3,1017.3,-1.9,63,-9,0,7.408,,,100,,,,,,,,,,,wg-a,,,,AAXX 28004 07558 12/// /1004 11030 21090 39303 40173 58019 60006 90000=
07558,1996-12-28 06:00:00,-6,1014.8,-1.2,93,-7,12000,0,,,0,-5.5,3.2,,,,,,,,,wg-a,,,,AAXX 28064 07558 12/62 00000 11060 21070 39272 40148 56012 60006 80000 90600 333 10032 21055=
07558,1996-12-28 12:00:00,-2,1012.5,-0.7,80,-5,0,14.816,,,210,,,,,,,,,,,wg-a,,,,AAXX 28124 07558 12/// /2108 11020 21050 39261 40125 58007 60006 91200=
07558,1996-12-28 18:00:00,-5,1013.7,0.5,100,-5,0,7.408,,,230,-6.2,-2.3,,,,,,,,,wg-a,,,,AAXX 28184 07558 12/// /2304 11050 21050 39263 40137 53005 60006 91800 333 11023 21062=
07558,1996-12-29 00:00:00,-7,1014.3,-0.1,100,-7,0,3.704,,,280,,,,,,,,,,,wg-a,,,,AAXX 29004 07558 12/// /2802 11070 21070 39263 40143 58001 60006 90000=
07558,1996-12-29 06:00:00,-8,1013.4,-0.7,100,-8,200,3.704,,,20,-8.2,-2.3,,,,,,,,48,wg-a,,,,AAXX 29064 07558 12202 70202 11080 21080 39251 40134 58007 60006 7484/ 876// 90600 333 11023 21082=
07558,1996-12-29 12:00:00,-2,1010.6,-0.8,74,-6,0,7.408,,,40,,,,,,,,,,,wg-a,,,,AAXX 29124 07558 12/// /0404 11020 21060 39246 40106 58008 60006 91200=
07558,1996-12-29 18:00:00,-3,1010.7,0.2,74,-7,0,11.112,,,340,-8.6,1.8,,,,,,,,,wg-a,,,,AAXX 29184 07558 12/// /3406 11030 21070 39243 40107 51002 60006 91800 333 10018 21086=
07558,1996-12-30 00:00:00,-7,1011.1,-0.6,67,-12,0,11.112,,,20,,,,,,,,,,,wg-a,,,,AAXX 30004 07558 12/// /0206 11070 21120 39232 40111 57006 60006 90000=
07558,1996-12-30 06:00:00,-8,1008.2,-1.5,67,-13,40000,3.704,,,30,-8.4,1.8,,,,,,,,,wg-a,,,,AAXX 30064 07558 12/82 00302 11080 21130 39203 40082 56015 60006 80000 90600 333 10018 21084=
07558,1996-12-30 12:00:00,-2,1004.6,-1.2,63,-8,60000,7.408,,,220,,,,,,,,,,,wg-a,,,,AAXX 30124 07558 12/86 12204 11020 21080 39190 40046 58012 60006 8/0/2 91200=
07558,1996-12-30 18:00:00,-5,1005.6,0.7,93,-6,0,7.408,,,300,-8.1,-1.1,,,,,,,,,wg-a,,,,AAXX 30184 07558 12/// /3004 11050 21060 39189 40056 51007 60006 91800 333 11011 21081=
07558,1996-12-31 00:00:00,-6,1007.5,0.3,93,-7,0,0,,,0,,,,,,,,,,,wg-a,,,,AAXX 31004 07558 12/// /0000 11060 21070 39203 40075 50003 60006 90000=
07558,1996-12-31 06:00:00,-6,1007.7,0.1,100,-6,10000,7.408,,,30,-6.6,-4.6,,,,,,,,,wg-a,,,,AAXX 31064 07558 12460 70304 11060 21060 39206 40077 53001 60006 8553/ 90600 333 11046 21066=
07558,1996-12-31 12:00:00,1,1005.9,-0.5,69,-4,12000,11.112,,,130,,,,,,,,,,,wg-a,,,,AAXX 31124 07558 12462 61306 10010 21040 39209 40059 58005 60006 83532 91200=
07558,1996-12-31 18:00:00,-2,1006.1,-0.2,93,-3,0,11.112,,,30,-6.3,0.9,,,,,,,,,wg-a,,,,AAXX 31184 07558 12/// /0306 11020 21030 39203 40061 58002 60006 91800 333 10009 21063=
