station_id,dh_utc,temperature,pression,pression_variation_3h,humidite,point_de_rosee,visibilite,vent_moyen,vent_rafales,vent_rafales_10min,vent_direction,temperature_min,temperature_max,pluie_1h,pluie_3h,pluie_6h,pluie_12h,pluie_24h,ensoleillement,temperature_sol,temps_omm,source,radiations,neige_au_sol,nebulosite,raw_msg
07558,1999-01-01 00:00:00,5,1006.4,0.3,100,5,0,29.632,,,120,,,,2,,,,,,,wg-a,,,,AAXX 01004 07558 12/// /1216 10050 20050 39223 40064 51003 60027 90000=
07558,1999-01-01 06:00:00,6,1008.4,1.6,93,5,15000,22.224,,,120,4.7,6.7,,,,,35,,,2,wg-a,,,,AAXX 01064 07558 02465 71212 10060 20050 39243 40084 53016 60354 70262 875// 90600 333 10067 20047 61000=
07558,1999-01-01 12:00:00,6,1012.9,1.3,93,5,0,25.928,,,110,,,,0,,,,,,,wg-a,,,,AAXX 01124 07558 12/// /1114 10060 20050 39285 40129 51013 60007 91200=
07558,1999-01-01 18:00:00,6,1015,0.7,87,4,0,18.52,,,120,4.9,6.2,,,,,,,,,wg-a,,,,AAXX 01184 07558 32/// /1210 10060 20040 39303 40150 53007 91800 333 10062 20049=
07558,1999-01-02 00:00:00,6,1015.8,0.3,93,5,0,25.928,,,120,,,,,,,,,,,wg-a,,,,AAXX 02004 07558 32/// /1214 10060 20050 39310 40158 50003 90000=
07558,1999-01-02 06:00:00,6,1015.2,-0.8,93,5,12000,18.52,,,140,5.2,5.8,,,,,1,,,2,wg-a,,,,AAXX 02064 07558 12462 71410 10060 20050 39305 40152 56008 60014 70262 875// 90600 333 10058 20052=
07558,1999-01-02 12:00:00,7,1015,-0.5,87,5,0,11.112,,,180,,,,,,,,,,,wg-a,,,,AAXX 02124 07558 32/// /1806 10070 20050 39307 40150 58005 91200=
07558,1999-01-02 18:00:00,5,1017.1,1.5,93,4,0,22.224,,,280,4.7,7.6,,,,,,,,,wg-a,,,,AAXX 02184 07558 32/// /2812 10050 20040 39320 40171 53015 91800 333 10076 20047=
07558,1999-01-03 00:00:00,5,1019.2,0.9,87,3,0,25.928,,,280,,,,,,,,,,,wg-a,,,,AAXX 03004 07558 32/// /2814 10050 20030 39339 40192 53009 90000=
07558,1999-01-03 06:00:00,5,1020.9,0.4,93,4,15000,14.816,,,260,3.8,5.2,,,,,4,,,,wg-a,,,,AAXX 03064 07558 12465 72608 10050 20040 39355 40209 53004 60044 84532 90600 333 10052 20038=
07558,1999-01-03 12:00:00,7,1020.9,-0.2,87,5,0,22.224,,,260,,,,,,,,,,,wg-a,,,,AAXX 03124 07558 32/// /2612 10070 20050 39360 40209 58002 91200=
07558,1999-01-03 18:00:00,6,1022.5,1.1,100,6,0,18.52,,,240,4.8,6.9,,,,,,,,,wg-a,,,,AAXX 03184 07558 32/// /2410 10060 20060 39374 40225 51011 91800 333 10069 20048=
07558,1999-01-04 00:00:00,7,1023.1,0.1,100,7,0,22.224,,,280,,,,,,,,,,,wg-a,,,,AAXX 04004 07558 32/// /2812 10070 20070 39381 40231 50001 90000=
07558,1999-01-04 06:00:00,7,1023.5,0.4,100,7,800,3.704,,,190,6.2,7.2,,0,,,2,,,50,wg-a,,,,AAXX 04064 07558 02408 81902 10070 20070 39384 40235 53004 60024 75054 887// 90600 333 10072 20062 60007=
07558,1999-01-04 12:00:00,12,1021.9,-0.2,76,8,20000,14.816,,,340,,,,,,,,,,3,wg-a,,,,AAXX 04124 07558 32570 53408 10120 20080 39385 40219 58002 70354 81101 91200=
07558,1999-01-04 18:00:00,11,1022.9,0.7,82,8,0,3.704,,,130,6.2,13.9,,,,,,,,,wg-a,,,,AAXX 04184 07558 32/// /1302 10110 20080 39391 40229 53007 91800 333 10139 20062=
07558,1999-01-05 00:00:00,8,1023.2,-0.2,93,7,0,7.408,,,20,,,,,,,,,,,wg-a,,,,AAXX 05004 07558 32/// /0204 10080 20070 39386 40232 56002 90000=
07558,1999-01-05 06:00:00,8,1021.8,-1.1,87,6,500,11.112,,,40,7.1,10.9,,,,,,,,,wg-a,,,,AAXX 05064 07558 12/00 30406 10080 20060 39371 40218 56011 60004 80002 90600 333 10109 20071=
07558,1999-01-05 12:00:00,11,1022.5,0.6,82,8,500,18.52,,,160,,,,,,,,,,,wg-a,,,,AAXX 05124 07558 32400 31610 10110 20080 39387 40225 51006 81502 91200=
07558,1999-01-05 18:00:00,6,1024.4,0.5,100,6,0,14.816,,,130,5.9,12.2,,,,,,,,,wg-a,,,,AAXX 05184 07558 32/// /1308 10060 20060 39391 40244 53005 91800 333 10122 20059=
07558,1999-01-06 00:00:00,7,1024.6,0,93,6,0,18.52,,,130,,,,,,,,,,,wg-a,,,,AAXX 06004 07558 32/// /1310 10070 20060 39395 40246 50000 90000=
07558,1999-01-06 06:00:00,6,1023.7,-0.3,93,5,10000,22.224,,,130,6,7.1,,,,,,,,,wg-a,,,,AAXX 06064 07558 12460 71312 10060 20050 39385 40237 55003 60004 875// 90600 333 10071 20060=
07558,1999-01-06 12:00:00,8,1023.9,-0.2,87,6,15000,22.224,,,130,,,,,,,,,,,wg-a,,,,AAXX 06124 07558 32465 71312 10080 20060 39391 40239 58002 875// 91200=
07558,1999-01-06 18:00:00,5,1024.7,0.2,93,4,0,18.52,,,120,5,9.9,,,,,,,,,wg-a,,,,AAXX 06184 07558 32/// /1210 10050 20040 39390 40247 53002 91800 333 10099 20050=
07558,1999-01-07 00:00:00,5,1024.4,-0.9,93,4,0,11.112,,,100,,,,,,,,,,,wg-a,,,,AAXX 07004 07558 32/// /1006 10050 20040 39388 40244 58009 90000=
07558,1999-01-07 06:00:00,6,1022.8,-0,93,5,10000,7.408,,,80,4.9,6.3,,,,,,,,,wg-a,,,,AAXX 07064 07558 12560 60804 10060 20050 39376 40228 55000 60004 8650/ 90600 333 10063 20049=
07558,1999-01-07 12:00:00,11,1020.8,-0.5,76,7,20000,7.408,,,210,,,,,,,,,,,wg-a,,,,AAXX 07124 07558 32/70 02104 10110 20070 39370 40208 58005 80000 91200=
07558,1999-01-07 18:00:00,8,1020.2,-0.5,87,6,0,22.224,,,270,5.5,13,,,,,,,,,wg-a,,,,AAXX 07184 07558 32/// /2712 10080 20060 39358 40202 58005 91800 333 10130 20055=
07558,1999-01-08 00:00:00,8,1018.1,-0.6,87,6,0,29.632,,,270,,,,,,,,,,,wg-a,,,,AAXX 08004 07558 32/// /2716 10080 20060 39339 40181 58006 90000=
07558,1999-01-08 06:00:00,7,1015.3,-1.2,87,5,10000,29.632,,,290,7.4,8.9,,,,,,,,,wg-a,,,,AAXX 08064 07558 12560 72916 10070 20050 39311 40153 56012 60004 87550 90600 333 10089 20074=
07558,1999-01-08 12:00:00,7,1013.9,-1.4,93,6,4000,11.112,,,240,,,,0,,,,,,60,wg-a,,,,AAXX 08124 07558 12440 82406 10070 20060 39296 40139 58014 60007 76062 885// 91200=
07558,1999-01-08 18:00:00,7,1011.9,0.2,87,5,0,31.484,,,280,6.4,7.6,,0,,,,,,,wg-a,,,,AAXX 08184 07558 12/// /2817 10070 20050 39278 40119 53002 60007 91800 333 10076 20064=
07558,1999-01-09 00:00:00,4,1013.8,0,87,2,0,22.224,,,300,,,,,,,,,,,wg-a,,,,AAXX 09004 07558 02/// /3012 10040 20020 39287 40138 50000 61000 90000 333 ////=
07558,1999-01-09 06:00:00,3,1012.3,-0.5,87,1,12000,25.928,,,300,2.7,6.9,,0,,,1,,,21,wg-a,,,,AAXX 09064 07558 02262 73014 10030 20010 39270 40123 56005 60014 72162 84532 90600 333 10069 20027 60007=
07558,1999-01-09 12:00:00,5,1010.9,-0.9,70,0,0,18.52,,,310,,,,,,,,,,,wg-a,,,,AAXX 09124 07558 32/// /3110 10050 20000 39262 40109 58009 91200=
07558,1999-01-09 18:00:00,3,1008.2,-1.1,87,1,0,7.408,,,30,2.8,5.8,,,,,,,,,wg-a,,,,AAXX 09184 07558 32/// /0304 10030 20010 39232 40082 58011 91800 333 10058 20028=
07558,1999-01-11 00:00:00,-3,1004.8,1.1,100,-3,0,18.52,,,270,,,,,,,,,,,wg-a,,,,AAXX 11004 07558 32/// /2710 11030 21030 39184 40048 53011 90000=
07558,1999-01-11 06:00:00,-4,1007.7,0.8,100,-4,7000,14.816,,,280,-3.7,-1.8,,,,,14,,,,wg-a,,25,,AAXX 11064 07558 12257 72808 11040 21040 39207 40077 53008 60144 875// 90600 333 11018 21037 4/025=
07558,1999-01-11 12:00:00,-3,1011.9,1.6,93,-4,7000,18.52,,,270,,,,,,,,,,22,wg-a,,,,AAXX 11124 07558 02257 82710 11030 21040 39247 40119 51016 61000 72272 885// 91200 333 ////=
07558,1999-01-11 18:00:00,-4,1016,2.1,93,-5,0,22.224,,,300,-3.8,-2.7,,,,,,,,,wg-a,,,,AAXX 11184 07558 32/// /3012 11040 21050 39283 40160 51021 91800 333 11027 21038=
07558,1999-01-12 00:00:00,-4,1020.3,1.3,100,-4,0,11.112,,,270,,,,,,,,,,,wg-a,,,,AAXX 12004 07558 32/// /2706 11040 21040 39323 40203 51013 90000=
07558,1999-01-12 06:00:00,-4,1022.5,1.1,93,-5,6000,25.928,,,320,-3.9,-3.5,,,,,,,,,wg-a,,25,,AAXX 12064 07558 12256 83214 11040 21050 39342 40225 53011 60004 885// 90600 333 11035 21039 4/025=
07558,1999-01-12 12:00:00,-4,1022.5,1.1,93,-5,6000,25.928,,,320,,-3.5,,,,,,,,,wg-a,,25,,AAXX 12124 07558 12256 83214 11040 21050 39342 40225 53011 60004 885// 91200 333 11035 4/025=
07558,1999-01-12 18:00:00,-5,1021.4,-0.6,93,-6,0,3.704,,,150,-5.4,-2.6,,,,,,,,,wg-a,,,,AAXX 12184 07558 32/// /1502 11050 21060 39327 40214 58006 91800 333 11026 21054=
07558,1999-01-13 00:00:00,-6,1020.4,-0.8,100,-6,0,0,,,0,,,,,,,,,,,wg-a,,,,AAXX 13004 07558 32/// /0000 11060 21060 39317 40204 58008 90000=
07558,1999-01-13 06:00:00,-3,1017.5,-0.4,100,-3,6000,11.112,,,210,-5.9,-3.1,,0,,,,,,0,wg-a,,10,,AAXX 13064 07558 02456 82106 11030 21030 39299 40175 55004 60004 7//52 885// 90600 333 11031 21059 4/010 60007=
07558,1999-01-13 12:00:00,1,1020.3,1.5,86,-1,10000,14.816,,,300,,,,,,,,,,2,wg-a,,,,AAXX 13124 07558 32460 53008 10010 21010 39336 40203 51015 70252 85500 91200=
07558,1999-01-13 18:00:00,0,1022.4,2,86,-2,0,11.112,,,300,-3.6,1.3,,,,,,,,,wg-a,,,,AAXX 13184 07558 32/// /3006 10000 21020 39353 40224 51020 91800 333 10013 21036=
07558,1999-01-14 00:00:00,2,1019.9,-1.4,93,1,0,3.704,,,220,,,,,,,,,,,wg-a,,,,AAXX 14004 07558 32/// /2202 10020 20010 39336 40199 56014 90000=
07558,1999-01-14 06:00:00,1,1018.8,-0.6,100,1,3000,11.112,,,250,-0.8,2,,,,,,,,10,wg-a,,8,,AAXX 14064 07558 12430 82506 10010 20010 39324 40188 56006 60004 71022 887// 90600 333 10020 21008 4/008=
07558,1999-01-14 12:00:00,4,1018.4,0.4,100,4,6000,18.52,,,300,,,,0,,,,,,28,wg-a,,,,AAXX 14124 07558 12456 63010 10040 20040 39330 40184 50004 60007 72854 86500 91200=
07558,1999-01-14 18:00:00,1,1021.6,1.9,93,0,0,18.52,,,310,0.9,5.3,,,,,,,,,wg-a,,,,AAXX 14184 07558 32/// /3110 10010 20000 39350 40216 53019 91800 333 10053 20009=
07558,1999-01-15 00:00:00,-1,1024.8,0.6,93,-2,0,7.408,,,350,,,,,,,,,,,wg-a,,,,AAXX 15004 07558 32/// /3504 11010 21020 39371 40248 51006 90000=
07558,1999-01-15 06:00:00,-2,1024.9,0.3,93,-3,25000,3.704,,,360,-1.6,1.5,,,,,,,,,wg-a,,4,,AAXX 15064 07558 32/75 03602 11020 21030 39371 40249 52003 80000 90600 333 10015 21016 4/004=
07558,1999-01-15 18:00:00,4,1021.8,0.4,70,-1,0,11.112,,,100,-2.7,7,,,,,,,,,wg-a,,,,AAXX 15184 07558 32/// /1006 10040 21010 39358 40218 53004 91800 333 10070 21027=
07558,1999-01-16 00:00:00,2,1023,0.1,69,-3,0,18.52,,,120,,,,,,,,,,,wg-a,,,,AAXX 16004 07558 32/// /1210 10020 21030 39365 40230 53001 90000=
07558,1999-01-16 06:00:00,3,1021.3,-0.4,93,2,20000,25.928,,,120,1.2,3.6,,,,,,,,,wg-a,,2,,AAXX 16064 07558 12570 21214 10030 20020 39351 40213 56004 60004 82500 90600 333 10036 20012 4/002=
07558,1999-01-16 12:00:00,5,1019.5,-1.4,87,3,0,31.484,,,130,,,,,,,,,,,wg-a,,,,AAXX 16124 07558 32/// /1317 10050 20030 39342 40195 58014 91200=
07558,1999-01-16 18:00:00,6,1017.2,-0.5,87,4,0,46.3,,,120,2.3,6.1,,,,,,,,,wg-a,,,,AAXX 16184 07558 32/// /1225 10060 20040 39324 40172 56005 91800 333 10061 20023=
07558,1999-01-17 00:00:00,6,1015.5,-1.4,87,4,0,42.596,,,120,,,,,,,,,,,wg-a,,,,AAXX 17004 07558 32/// /1223 10060 20040 39309 40155 58014 90000=
07558,1999-01-17 06:00:00,7,1013.1,-0.8,87,5,8000,31.484,,,150,6,7.2,,,,,,,,,wg-a,,,,AAXX 17064 07558 12458 71517 10070 20050 39290 40131 55008 60004 875// 90600 333 10072 20060=
07558,1999-01-17 12:00:00,8,1013,0.3,81,5,0,31.484,,,150,,,,,,,,,,,wg-a,,,,AAXX 17124 07558 32/// /1517 10080 20050 39291 40130 50003 91200=
07558,1999-01-17 18:00:00,7,1012.8,0.4,87,5,0,22.224,,,120,7,7.9,,,,,,,,,wg-a,,,,AAXX 17184 07558 32/// /1212 10070 20050 39287 40128 53004 91800 333 10079 20070=
07558,1999-01-18 00:00:00,1,1019.3,2.4,100,1,0,7.408,,,280,,,,,,,,,,,wg-a,,,,AAXX 18004 07558 32/// /2804 10010 20010 39329 40193 53024 90000=
07558,1999-01-18 06:00:00,0,1022.3,1.6,100,0,15000,0,,,0,0,7.2,,4,,,22,,,70,wg-a,,0,,AAXX 18064 07558 02365 80000 10000 20000 39354 40223 52016 60224 77076 877// 90600 333 10072 20000 4/9999 60047=
07558,1999-01-18 12:00:00,3,1025.8,1.2,100,3,800,0,,,0,,,,,,,,,,47,wg-a,,,,AAXX 18124 07558 32/08 90000 10030 20030 39393 40258 51012 74775 89/// 91200=
07558,1999-01-18 18:00:00,3,1027.1,0.9,100,3,0,7.408,,,260,0.3,3.4,,,,,,,,,wg-a,,,,AAXX 18184 07558 32/// /2604 10030 20030 39406 40271 53009 91800 333 10034 20003=
07558,1999-01-19 00:00:00,3,1027.3,-0.3,93,2,0,22.224,,,360,,,,,,,,,,,wg-a,,,,AAXX 19004 07558 32/// /3612 10030 20020 39407 40273 57003 90000=
07558,1999-01-19 06:00:00,1,1026.5,-0.6,100,1,4000,7.408,,,360,1,3.1,,,,,2,,,10,wg-a,,,,AAXX 19064 07558 12340 83604 10010 20010 39394 40265 56006 60024 71022 877// 90600 333 10031 20010=
07558,1999-01-19 12:00:00,4,1025.5,-0.4,100,4,4000,3.704,,,250,,,,,,,,,,42,wg-a,,,,AAXX 19124 07558 32340 52502 10040 20040 39393 40255 58004 74242 85700 91200=
07558,1999-01-19 18:00:00,6,1024.2,0.5,87,4,0,3.704,,,20,0.3,9.8,,,,,,,,,wg-a,,,,AAXX 19184 07558 32/// /0202 10060 20040 39389 40242 53005 91800 333 10098 20003=
07558,1999-01-20 00:00:00,5,1024.5,-0.2,87,3,0,7.408,,,70,,,,,,,,,,,wg-a,,,,AAXX 20004 07558 32/// /0704 10050 20030 39387 40245 58002 90000=
07558,1999-01-20 06:00:00,5,1023.3,-0.2,87,3,500,11.112,,,100,3.6,6.5,,,,,,,,,wg-a,,,,AAXX 20064 07558 32/00 01006 10050 20030 39377 40233 56002 80000 90600 333 10065 20036=
07558,1999-01-20 12:00:00,9,1022.5,-0.4,71,4,500,31.484,,,130,,,,,,,,,,,wg-a,,,,AAXX 20124 07558 32400 21317 10090 20040 39382 40225 58004 82500 91200=
07558,1999-01-20 18:00:00,6,1023.6,0.7,87,4,0,29.632,,,120,4.7,10,,,,,,,,,wg-a,,,,AAXX 20184 07558 32/// /1216 10060 20040 39383 40236 52007 91800 333 10100 20047=
07558,1999-01-21 00:00:00,6,1023.3,-0.3,87,4,0,25.928,,,120,,,,,,,,,,,wg-a,,,,AAXX 21004 07558 32/// /1214 10060 20040 39379 40233 58003 90000=
07558,1999-01-21 06:00:00,6,1022.8,-0,87,4,25000,18.52,,,130,4.7,6.2,,,,,,,,,wg-a,,,,AAXX 21064 07558 12575 51310 10060 20040 39374 40228 55000 60004 85500 90600 333 10062 20047=
07558,1999-01-21 12:00:00,8,1022.2,-0.3,81,5,25000,31.484,,,130,,,,,,,,,,,wg-a,,,,AAXX 21124 07558 32675 71317 10080 20050 39376 40222 58003 86501 91200=
07558,1999-01-21 18:00:00,6,1022.9,0.6,87,4,0,18.52,,,120,5.5,8.7,,,,,,,,,wg-a,,,,AAXX 21184 07558 32/// /1210 10060 20040 39377 40229 53006 91800 333 10087 20055=
07558,1999-01-22 00:00:00,6,1023.4,0.3,87,4,0,18.52,,,120,,,,,,,,,,,wg-a,,,,AAXX 22004 07558 32/// /1210 10060 20040 39382 40234 50003 90000=
07558,1999-01-22 06:00:00,5,1023.3,-0.2,93,4,20000,14.816,,,110,5.3,6.4,,,,,,,,,wg-a,,,,AAXX 22064 07558 12570 51108 10050 20040 39378 40233 56002 60004 85500 90600 333 10064 20053=
07558,1999-01-22 12:00:00,8,1023.3,0,81,5,20000,22.224,,,140,,,,,,,,,,,wg-a,,,,AAXX 22124 07558 32570 71412 10080 20050 39385 40233 50000 875// 91200=
07558,1999-01-22 18:00:00,7,1023.4,0.4,76,3,0,7.408,,,120,5.1,8,,,,,,,,,wg-a,,,,AAXX 22184 07558 32/// /1204 10070 20030 39382 40234 52004 91800 333 10080 20051=
07558,1999-01-23 00:00:00,4,1024.7,0.2,87,2,0,7.408,,,90,,,,,,,,,,,wg-a,,,,AAXX 23004 07558 32/// /0904 10040 20020 39386 40247 51002 90000=
07558,1999-01-23 06:00:00,3,1024.4,-0,93,2,8000,11.112,,,110,2.2,6.4,,,,,,,,,wg-a,,,,AAXX 23064 07558 12458 71106 10030 20020 39382 40244 55000 60004 875// 90600 333 10064 20022=
07558,1999-01-23 12:00:00,7,1024.6,0,70,2,0,7.408,,,130,,,,,,,,,,,wg-a,,,,AAXX 23124 07558 32/// /1304 10070 20020 39394 40246 50000 91200=
07558,1999-01-23 18:00:00,4,1025.1,0.7,87,2,0,7.408,,,130,3,8.4,,,,,,,,,wg-a,,,,AAXX 23184 07558 32/// /1304 10040 20020 39391 40251 52007 91800 333 10084 20030=
07558,1999-01-24 00:00:00,3,1026.5,0.3,87,1,0,7.408,,,60,,,,,,,,,,,wg-a,,,,AAXX 24004 07558 32/// /0604 10030 20010 39401 40265 52003 90000=
07558,1999-01-24 06:00:00,1,1027.6,0.2,86,-1,12000,3.704,,,20,0.5,4.3,,,,,,,,,wg-a,,,,AAXX 24064 07558 32/62 00202 10010 21010 39402 40276 53002 80000 90600 333 10043 20005=
07558,1999-01-24 12:00:00,7,1027.3,0.1,76,3,0,7.408,,,180,,,,,,,,,,,wg-a,,,,AAXX 24124 07558 32/// /1804 10070 20030 39420 40273 50001 91200=
07558,1999-01-24 18:00:00,6,1028.8,1.6,70,1,0,18.52,,,320,-0.4,10.2,,,,,,,,,wg-a,,,,AAXX 24184 07558 32/// /3210 10060 20010 39430 40288 53016 91800 333 10102 21004=
07558,1999-01-25 00:00:00,3,1031.3,0.5,87,1,0,7.408,,,10,,,,,,,,,,,wg-a,,,,AAXX 25004 07558 32/// /0104 10030 20010 39444 40313 53005 90000=
07558,1999-01-25 06:00:00,1,1032.2,0.2,93,0,500,3.704,,,50,0.8,6.1,,,,,,,,,wg-a,,,,AAXX 25064 07558 32/00 00502 10010 20000 39445 40322 53002 80000 90600 333 10061 20008=
07558,1999-01-25 12:00:00,9,1030,-0.3,71,4,500,3.704,,,300,,,,,,,,,,,wg-a,,,,AAXX 25124 07558 32600 13002 10090 20040 39449 40300 58003 81100 91200=
07558,1999-01-25 18:00:00,8,1029.1,0.5,81,5,0,14.816,,,320,0.6,11.9,,,,,,,,,wg-a,,,,AAXX 25184 07558 32/// /3208 10080 20050 39438 40291 52005 91800 333 10119 20006=
07558,1999-01-26 00:00:00,5,1027.9,-1.2,87,3,0,7.408,,,350,,,,,,,,,,,wg-a,,,,AAXX 26004 07558 32/// /3504 10050 20030 39420 40279 58012 90000=
07558,1999-01-26 06:00:00,3,1024.9,-1.6,93,2,15000,7.408,,,60,2.2,7.6,,,,,,,,,wg-a,,,,AAXX 26064 07558 12/65 20604 10030 20020 39384 40249 57016 60004 80002 90600 333 10076 20022=
07558,1999-01-26 12:00:00,6,1021.1,-1.6,87,4,0,14.816,,,220,,,,,,,,,,,wg-a,,,,AAXX 26124 07558 32/// /2208 10060 20040 39359 40211 58016 91200=
07558,1999-01-26 18:00:00,5,1020.2,0.8,93,4,0,25.928,,,290,1.3,7.4,,1,,,,,,,wg-a,,,,AAXX 26184 07558 12/// /2914 10050 20040 39348 40202 53008 60017 91800 333 10074 20013=
07558,1999-01-27 00:00:00,3,1020.3,-0.8,87,1,0,35.188,,,300,,,,,,,,,,,wg-a,,,,AAXX 27004 07558 02/// /3019 10030 20010 39344 40203 55008 61000 90000 333 ////=
07558,1999-01-27 06:00:00,4,1016,-2.1,93,3,15000,18.52,,,220,3.1,4.6,,0,,,2,,,60,wg-a,,,,AAXX 27064 07558 02365 82210 10040 20030 39306 40160 58021 60024 76062 885// 90600 333 10046 20031 60007=
07558,1999-01-27 12:00:00,2,1017.6,2.6,87,0,25000,25.928,,,300,,,,2,,,,,,1,wg-a,,,,AAXX 27124 07558 12575 43014 10020 20000 39315 40176 53026 60027 70176 83530 91200=
07558,1999-01-27 18:00:00,2,1022.8,2.2,75,-2,0,25.928,,,270,0.5,5.5,,,,,,,,,wg-a,,,,AAXX 27184 07558 32/// /2714 10020 21020 39362 40228 51022 91800 333 10055 20005=
07558,1999-01-28 00:00:00,2,1023.9,-0.5,87,0,0,7.408,,,300,,,,,,,,,,,wg-a,,,,AAXX 28004 07558 32/// /3004 10020 20000 39372 40239 56005 90000=
07558,1999-01-28 06:00:00,4,1021.4,-1,93,3,10000,25.928,,,240,0.9,3.5,,,,,6,,,60,wg-a,,,,AAXX 28064 07558 02460 82414 10040 20030 39355 40214 58010 60064 76062 887// 90600 333 10035 20009 61000=
07558,1999-01-28 12:00:00,7,1019.6,-0.8,93,6,10000,31.484,,,270,,,,2,,,,,,51,wg-a,,,,AAXX 28124 07558 12360 82717 10070 20060 39348 40196 58008 60027 75165 887// 91200=
07558,1999-01-28 18:00:00,7,1017.7,-0.2,87,5,0,50.004,,,290,3.4,7.4,,1,,,,,,,wg-a,,,,AAXX 28184 07558 12/// /2927 10070 20050 39331 40177 56002 60017 91800 333 10074 20034=
07558,1999-01-29 00:00:00,7,1016.8,0.3,87,5,0,53.708,,,310,,,,0,,,,,,,wg-a,,,,AAXX 29004 07558 12/// /3129 10070 20050 39322 40168 53003 60007 90000=
07558,1999-01-29 06:00:00,3,1020.1,2.2,93,2,20000,31.484,,,320,3.2,6.9,,1,,,4,,,21,wg-a,,,,AAXX 29064 07558 02370 73217 10030 20020 39342 40201 51022 60044 72162 875// 90600 333 10069 20032 60017=
07558,1999-01-29 12:00:00,5,1022.9,0.8,65,-1,500,29.632,,,330,,,,,,,,,,,wg-a,,,,AAXX 29124 07558 32500 53316 10050 21010 39372 40229 50008 85100 91200=
07558,1999-01-29 18:00:00,2,1026.5,1.7,64,-4,0,25.928,,,10,1.9,5.8,,,,,,,,,wg-a,,,,AAXX 29184 07558 32/// /0114 10020 21040 39396 40265 51017 91800 333 10058 20019=
07558,1999-01-30 00:00:00,0,1028.3,0.2,64,-6,0,38.892,,,340,,,,,,,,,,,wg-a,,,,AAXX 30004 07558 32/// /3421 10000 21060 39406 40283 53002 90000=
07558,1999-01-30 06:00:00,-3,1029.8,0.6,54,-11,500,29.632,,,360,-3.4,2,,,,,,,,,wg-a,,,,AAXX 30064 07558 12/00 03616 11030 21110 39410 40298 53006 60004 80000 90600 333 10020 21034=
07558,1999-01-30 12:00:00,1,1029.4,-0.4,31,-14,0,35.188,,,10,,,,,,,,,,,wg-a,,,,AAXX 30124 07558 32/// /0119 10010 21140 39418 40294 58004 91200=
07558,1999-01-30 18:00:00,-3,1029.8,0.2,46,-13,0,42.596,,,340,-3.6,1.9,,,,,,,,,wg-a,,,,AAXX 30184 07558 32/// /3423 11030 21130 39411 40298 50002 91800 333 10019 21036=
07558,1999-01-31 00:00:00,-6,1028.1,-2.7,45,-16,0,68.524,,,360,,,,,,,,,,,wg-a,,,,AAXX 31004 07558 32/// /3637 11060 21160 39387 40281 58027 90000=
07558,1999-01-31 06:00:00,-7,1030.5,0,53,-15,500,29.632,,,320,-7.4,-2.9,,,,,,,,,wg-a,,,,AAXX 31064 07558 12/00 03216 11070 21150 39404 40305 50000 60004 80000 90600 333 11029 21074=
07558,1999-01-31 12:00:00,-2,1029.7,0.1,39,-14,0,35.188,,,10,,,,,,,,,,,wg-a,,,,AAXX 31124 07558 32/// /0119 11020 21140 39413 40297 52001 91200=
07558,1999-01-31 18:00:00,-4,1031.5,0.4,58,-11,0,29.632,,,320,-8,-1.2,,,,,,,,,wg-a,,,,AAXX 31184 07558 32/// /3216 11040 21110 39422 40315 53004 91800 333 11012 21080=
07558,1999-02-01 00:00:00,-6,1032.2,0.1,62,-12,0,11.112,,,290,,,,,,,,,,,wg-a,,,,AAXX 01004 07558 32/// /2906 11060 21120 39422 40322 53001 90000=
07558,1999-02-01 06:00:00,-7,1031.6,-0.5,62,-13,500,18.52,,,340,-8.6,-4.1,,,,,,,,,wg-a,,,,AAXX 01064 07558 32/00 03410 11070 21130 39413 40316 58005 80000 90600 333 11041 21086=
07558,1999-02-01 12:00:00,2,1027.9,-1,18,-20,500,50.004,,,360,,,,,,,,,,,wg-a,,,,AAXX 01124 07558 32/00 13627 10020 21200 39407 40279 58010 80001 91200=
07558,1999-02-01 18:00:00,0,1029.9,1.9,40,-12,0,29.632,,,330,-8,3.4,,,,,,,,,wg-a,,,,AAXX 01184 07558 32/// /3316 10000 21120 39420 40299 51019 91800 333 10034 21080=
07558,1999-02-02 00:00:00,-2,1032.6,1.3,74,-6,0,7.408,,,230,,,,,,,,,,,wg-a,,,,AAXX 02004 07558 32/// /2304 11020 21060 39439 40326 53013 90000=
07558,1999-02-02 06:00:00,-1,1032.9,0.1,86,-3,10000,14.816,,,310,-2.7,-0.1,,,,,,,,,wg-a,,,,AAXX 02064 07558 12460 73108 11010 21030 39446 40329 53001 60004 875// 90600 333 11001 21027=
07558,1999-02-02 12:00:00,2,1032.6,-0.6,75,-2,15000,14.816,,,310,,,,,,,,,,,wg-a,,,,AAXX 02124 07558 32565 73108 10020 21020 39454 40326 58006 875// 91200=
07558,1999-02-03 00:00:00,0,1036.8,0.4,93,-1,0,18.52,,,290,,,,,,,,,,,wg-a,,,,AAXX 03004 07558 32/// /2910 10000 21010 39485 40368 51004 90000=
07558,1999-02-03 06:00:00,-1,1038.2,0.8,93,-2,20000,3.704,,,270,-1.5,1.2,,,,,,,,,wg-a,,,,AAXX 03064 07558 12570 22702 11010 21020 39494 40382 53008 60004 81101 90600 333 10012 21015=
07558,1999-02-03 12:00:00,0,1038.1,-0.4,100,0,20000,7.408,,,240,,,,,,,,,,3,wg-a,,,,AAXX 03124 07558 32/70 72404 10000 20000 39497 40381 58004 70341 85032 91200=
07558,1999-02-03 18:00:00,2,1037.3,0.6,87,0,0,14.816,,,280,-2.1,2.3,,,,,,,,,wg-a,,,,AAXX 03184 07558 32/// /2808 10020 20000 39494 40373 53006 91800 333 10023 21021=
07558,1999-02-04 00:00:00,1,1037.4,-0.3,100,1,0,11.112,,,210,,,,,,,,,,,wg-a,,,,AAXX 04004 07558 32/// /2106 10010 20010 39493 40374 58003 90000=
07558,1999-02-04 06:00:00,0,1036.3,-0.1,100,0,3000,7.408,,,200,-0.1,2,,,,,,,,10,wg-a,,,,AAXX 04064 07558 12/30 72004 10000 20000 39480 40363 55001 60004 71022 82036 90600 333 10020 21001=
07558,1999-02-04 12:00:00,4,1035.7,0,75,0,20000,22.224,,,310,,,,,,,,,,,wg-a,,,,AAXX 04124 07558 32570 63112 10040 20000 39487 40357 50000 82501 91200=
07558,1999-02-04 18:00:00,3,1034.5,-0,87,1,0,3.704,,,300,-0.2,4.8,,,,,,,,,wg-a,,,,AAXX 04184 07558 32/// /3002 10030 20010 39472 40345 55000 91800 333 10048 21002=
07558,1999-02-05 00:00:00,3,1033.4,-0.3,100,3,0,31.484,,,310,,,,,,,,,,,wg-a,,,,AAXX 05004 07558 32/// /3117 10030 20030 39464 40334 58003 90000=
07558,1999-02-05 06:00:00,3,1029.3,-2.2,93,2,7000,31.484,,,290,2.3,3.2,,,,,,,,,wg-a,,,,AAXX 05064 07558 12357 72917 10030 20020 39426 40293 56022 60004 875// 90600 333 10032 20023=
07558,1999-02-05 12:00:00,4,1026.7,-1.2,100,4,800,22.224,,,240,,,,0,,,,,,60,wg-a,,,,AAXX 05124 07558 12208 72412 10040 20040 39405 40267 58012 60007 76064 875// 91200=
07558,1999-02-05 18:00:00,5,1023.4,-0.5,87,3,0,31.484,,,280,3.1,5.9,,,,,,,,,wg-a,,,,AAXX 05184 07558 32/// /2817 10050 20030 39377 40234 57005 91800 333 10059 20031=
07558,1999-02-06 00:00:00,2,1024.6,-0.5,93,1,0,29.632,,,290,,,,,,,,,,,wg-a,,,,AAXX 06004 07558 32/// /2916 10020 20010 39380 40246 57005 90000=
07558,1999-02-06 06:00:00,3,1022.9,-0.7,81,0,10000,29.632,,,290,2.1,4.8,,,,,1,,,1,wg-a,,,,AAXX 06064 07558 12460 72916 10030 20000 39365 40229 55007 60014 70162 875// 90600 333 10048 20021=
07558,1999-02-06 12:00:00,3,1022.6,-0.6,81,0,0,29.632,,,280,,,,,,,,,,,wg-a,,,,AAXX 06124 07558 32/// /2816 10030 20000 39365 40226 56006 91200=
07558,1999-02-06 18:00:00,3,1020.3,-0.7,81,0,0,29.632,,,280,2.4,3.5,,,,,,,,,wg-a,,,,AAXX 06184 07558 32/// /2816 10030 20000 39342 40203 58007 91800 333 10035 20024=
07558,1999-02-07 00:00:00,3,1018.3,-1.3,87,1,0,14.816,,,260,,,,,,,,,,,wg-a,,,,AAXX 07004 07558 32/// /2608 10030 20010 39324 40183 58013 90000=
07558,1999-02-07 06:00:00,2,1013.4,-2.3,100,2,8000,22.224,,,230,1.8,2.8,,,,,,,,60,wg-a,,,,AAXX 07064 07558 02358 72312 10020 20020 39278 40134 57023 61000 76062 875// 90600 333 10028 20018 6100=
07558,1999-02-07 12:00:00,5,1009.5,-1.7,87,3,0,31.484,,,280,,,,0,,,,,,,wg-a,,,,AAXX 07124 07558 12/// /2817 10050 20030 39249 40095 58017 60007 91200=
07558,1999-02-07 18:00:00,2,1010.4,2,93,1,0,31.484,,,310,1.9,5.9,,2,,,,,,,wg-a,,,,AAXX 07184 07558 12/// /3117 10020 20010 39250 40104 53020 60027 91800 333 10059 20019=
07558,1999-02-08 00:00:00,0,1014.5,1.6,74,-4,0,31.484,,,310,,,,,,,,,,,wg-a,,,,AAXX 08004 07558 02/// /3117 10000 21040 39280 40145 53016 61000 90000 333 ////=
07558,1999-02-08 06:00:00,-3,1017.6,-0,74,-7,20000,18.52,,,280,-3.2,2,,,,,3,,,,wg-a,,,,AAXX 08064 07558 12/70 42810 11030 21070 39299 40176 55000 60034 80002 90600 333 10020 21032=
07558,1999-02-08 12:00:00,1,1015.8,-1.3,69,-4,20000,29.632,,,250,,,,,,,,,,,wg-a,,,,AAXX 08124 07558 32470 62516 10010 21040 39297 40158 58013 86500 91200=
07558,1999-02-08 18:00:00,1,1010.4,-2.8,100,1,0,31.484,,,220,-3.8,1.9,,,,,,,,,wg-a,,,,AAXX 08184 07558 32/// /2217 10010 20010 39248 40104 56028 91800 333 10019 21038=
07558,1999-02-09 00:00:00,5,1006.5,-1.2,93,4,0,31.484,,,260,,,,0,,,,,,,wg-a,,,,AAXX 09004 07558 12/// /2617 10050 20040 39222 40065 58012 60007 90000=
07558,1999-02-09 06:00:00,4,1001.1,-3.2,100,4,12000,29.632,,,230,1.4,4.7,,2,,,5,,,21,wg-a,,,,AAXX 09064 07558 02262 82316 10040 20040 39171 40011 58032 60054 72162 878// 90600 333 10047 20014 60027=
07558,1999-02-09 12:00:00,4,996.9,-2.1,100,4,8000,42.596,,,230,,,,6,,,,,,61,wg-a,,,,AAXX 09124 07558 12358 82323 10040 20040 39133 49969 58021 60067 76162 875// 91200=
07558,1999-02-09 18:00:00,1,1001.6,2.3,80,-2,0,35.188,,,310,0.5,4.4,,,,,,,,,wg-a,,,,AAXX 09184 07558 32/// /3119 10010 21020 39164 40016 53023 91800 333 10044 20005=
07558,1999-02-10 00:00:00,-2,1007.7,1.7,74,-6,0,31.484,,,330,,,,,,,,,,,wg-a,,,,AAXX 10004 07558 32/// /3317 11020 21060 39212 40077 53017 90000=
07558,1999-02-10 06:00:00,-4,1010.1,1.1,80,-7,20000,31.484,,,310,-4.2,0.5,,,,,12,,,,wg-a,,,,AAXX 10064 07558 12470 33117 11040 21070 39228 40101 53011 60124 83500 90600 333 10005 21042=
07558,1999-02-10 12:00:00,-2,1009.6,-0.4,74,-6,3000,35.188,,,310,,,,,,,,,,85,wg-a,,,,AAXX 10124 07558 02430 73119 11020 21060 39228 40096 58004 61000 78587 8683/ 91200 333 ////=
07558,1999-02-10 18:00:00,-4,1010.5,0.8,80,-7,0,35.188,,,330,-4.4,-1.2,,,,,,,,,wg-a,,,,AAXX 10184 07558 02/// /3319 11040 21070 39232 40105 53008 61000 91800 333 11012 21044 ////=
07558,1999-02-11 00:00:00,-4,1013.4,0.7,86,-6,0,42.596,,,320,,,,,,,,,,,wg-a,,,,AAXX 11004 07558 32/// /3223 11040 21060 39257 40134 51007 90000=
07558,1999-02-11 06:00:00,-5,1015.1,1.3,86,-7,25000,38.892,,72.228,310,-5.3,-3.7,,,,,,,,,wg-a,,0,,AAXX 11064 07558 02475 13121 11050 21070 39272 40151 51013 61000 81500 90600 333 11037 21053 4/000 //// 91039=
07558,1999-02-11 12:00:00,-1,1016.3,0,64,-7,25000,46.3,,79.636,310,,,,,,,,,,,wg-a,,,,AAXX 11124 07558 32575 33125 11010 21070 39294 40163 50000 83200 91200 333 91043=
07558,1999-02-11 18:00:00,-3,1019.5,1.8,80,-6,0,31.484,,,320,-4.7,0.2,,,,,,,,,wg-a,,,,AAXX 11184 07558 02/// /3217 11030 21060 39318 40195 53018 61000 91800 333 10002 21047 ////=
07558,1999-02-12 00:00:00,-5,1021.3,0.6,73,-9,0,42.596,,,330,,,,,,,,,,,wg-a,,,,AAXX 12004 07558 02/// /3323 11050 21090 39328 40213 51006 61000 90000 333 ////=
07558,1999-02-12 06:00:00,-7,1023,0.6,79,-10,25000,14.816,,94.452,340,-6.8,-2.7,,,,,,,,,wg-a,,0,,AAXX 12064 07558 02475 13408 11070 21100 39337 40230 52006 61000 81100 90600 333 11027 21068 4/000 6100 91051=
07558,1999-02-12 12:00:00,-1,1022.3,-0.3,36,-14,50000,31.484,,,340,,,,,,,,,,,wg-a,,,,AAXX 12124 07558 32/84 03417 11010 21140 39347 40223 58003 80000 91200=
07558,1999-02-12 18:00:00,-4,1023.9,1.4,39,-16,0,35.188,,,330,-7.2,-0.4,,,,,,,,,wg-a,,,,AAXX 12184 07558 32/// /3319 11040 21160 39354 40239 52014 91800 333 11004 21072=
07558,1999-02-13 00:00:00,-7,1026.6,0.3,62,-13,0,18.52,,,320,,,,,,,,,,,wg-a,,,,AAXX 13004 07558 32/// /3210 11070 21130 39369 40266 51003 90000=
07558,1999-02-13 06:00:00,-8,1025.9,0.1,52,-16,500,29.632,,,320,-7.9,-3.9,,,,,,,,,wg-a,,,,AAXX 13064 07558 32/00 03216 11080 21160 39360 40259 51001 80000 90600 333 11039 21079=
07558,1999-02-13 12:00:00,-3,1024.7,0,36,-16,0,46.3,,,360,,,,,,,,,,,wg-a,,,,AAXX 13124 07558 32/// /3625 11030 21160 39364 40247 50000 91200=
07558,1999-02-13 18:00:00,-5,1027.1,1.6,53,-13,0,29.632,,,360,-8,-1.9,,,,,,,,,wg-a,,,,AAXX 13184 07558 32/// /3616 11050 21130 39380 40271 53016 91800 333 11019 21080=
07558,1999-02-14 00:00:00,-7,1029.4,0.6,67,-12,0,25.928,,,350,,,,,,,,,,,wg-a,,,,AAXX 14004 07558 32/// /3514 11070 21120 39393 40294 53006 90000=
07558,1999-02-14 06:00:00,-9,1029.9,0.1,79,-12,500,7.408,,,330,-9.3,-4.9,,,,,,,,,wg-a,,,,AAXX 14064 07558 32/00 03304 11090 21120 39393 40299 53001 80000 90600 333 11049 21093=
07558,1999-02-14 12:00:00,0,1027.4,-0.4,51,-9,0,11.112,,,320,,,,,,,,,,,wg-a,,,,AAXX 14124 07558 32/// /3206 10000 21090 39398 40274 58004 91200=
07558,1999-02-14 18:00:00,-2,1029.8,1.6,69,-7,0,29.632,,,300,-9.4,1.5,,,,,,,,,wg-a,,,,AAXX 14184 07558 32/// /3016 11020 21070 39414 40298 53016 91800 333 10015 21094=
07558,1999-02-15 00:00:00,-2,1030,-0.3,74,-6,0,42.596,,,310,,,,,,,,,,,wg-a,,,,AAXX 15004 07558 32/// /3123 11020 21060 39416 40300 58003 90000=
07558,1999-02-15 06:00:00,-3,1029.2,-0.5,86,-5,500,22.224,,,330,-3.6,-1.3,,,,,,,,,wg-a,,,,AAXX 15064 07558 12/00 53312 11030 21050 39406 40292 58005 60004 84031 90600 333 11013 21036=
07558,1999-02-15 12:00:00,-2,1029.1,-0.5,100,-2,10000,11.112,,,230,,,,,,,,,,71,wg-a,,,,AAXX 15124 07558 02560 72306 11020 21020 39409 40291 58005 61000 77172 8551/ 91200 333 ////=
07558,1999-02-15 18:00:00,-2,1028.3,-0,100,-2,0,0,,,0,-3.7,-1.3,,,,,,,,,wg-a,,,,AAXX 15184 07558 32/// /0000 11020 21020 39401 40283 54000 91800 333 11013 21037=
07558,1999-02-16 00:00:00,-2,1027.6,-0.6,100,-2,0,0,,,0,,,,,,,,,,,wg-a,,,,AAXX 16004 07558 32/// /0000 11020 21020 39395 40276 58006 90000=
07558,1999-02-16 06:00:00,-1,1025,-0.6,100,-1,6000,3.704,,,360,-2,-1.3,,0,,,1,,,22,wg-a,,1,,AAXX 16064 07558 02356 83602 11010 21010 39373 40250 56006 60014 72272 878// 90600 333 11013 21020 4/001 60007=
07558,1999-02-16 12:00:00,1,1023,-1.3,100,1,100,3.704,,,210,,,,,,,,,,45,wg-a,,,,AAXX 16124 07558 02/01 92102 10010 20010 39361 40230 58013 61000 74575 89/// 91200 333 ////=
07558,1999-02-16 18:00:00,2,1021.5,0.1,93,1,0,25.928,,,310,-1.3,2.4,,,,,,,,,wg-a,,,,AAXX 16184 07558 32/// /3114 10020 20010 39351 40215 53001 91800 333 10024 21013=
07558,1999-02-17 00:00:00,3,1020.2,-1.1,100,3,0,25.928,,,270,,,,,,,,,,,wg-a,,,,AAXX 17004 07558 32/// /2714 10030 20030 39342 40202 58011 90000=
07558,1999-02-17 06:00:00,2,1019.9,0.4,87,0,15000,38.892,,,310,1.2,3.5,,,,,1,,,2,wg-a,,,,AAXX 17064 07558 12465 73121 10020 20000 39337 40199 53004 60014 70262 875// 90600 333 10035 20012=
07558,1999-02-17 12:00:00,2,1022,0.4,80,-1,25000,38.892,,,300,,,,,,,,,,,wg-a,,,,AAXX 17124 07558 32475 73021 10020 21010 39356 40220 50004 877// 91200=
07558,1999-02-17 18:00:00,2,1022.3,0.9,93,1,0,35.188,,,300,0.8,2.7,,,,,,,,,wg-a,,,,AAXX 17184 07558 02/// /3019 10020 20010 39359 40223 52009 61000 91800 333 10027 20008 ////=
07558,1999-02-18 00:00:00,3,1024,0.2,87,1,0,38.892,,,300,,,,,,,,,,,wg-a,,,,AAXX 18004 07558 32/// /3021 10030 20010 39377 40240 51002 90000=
07558,1999-02-18 06:00:00,3,1021.9,-0.8,93,2,15000,25.928,,,270,2,3,,,,,,,,,wg-a,,,,AAXX 18064 07558 12365 82714 10030 20020 39357 40219 56008 60004 885// 90600 333 10030 20020=
07558,1999-02-18 12:00:00,6,1023.3,1.5,93,5,10000,25.928,,,330,,,,0,,,,,,61,wg-a,,,,AAXX 18124 07558 12360 83314 10060 20050 39379 40233 53015 60007 76165 885// 91200=
07558,1999-02-18 18:00:00,5,1025.2,1.8,93,4,0,35.188,,,300,2.7,7.6,,,,,,,,,wg-a,,,,AAXX 18184 07558 02/// /3019 10050 20040 39396 40252 53018 61000 91800 333 10076 20027 ////=
07558,1999-02-19 00:00:00,5,1027.9,0.3,87,3,0,29.632,,,310,,,,0,,,,,,,wg-a,,,,AAXX 19004 07558 12/// /3116 10050 20030 39418 40279 53003 60007 90000=
07558,1999-02-19 06:00:00,5,1027.4,0,93,4,20000,29.632,,,300,4.3,5.4,,,,,2,,,,wg-a,,,,AAXX 19064 07558 12470 73016 10050 20040 39414 40274 50000 60024 8553/ 90600 333 10054 20043=
07558,1999-02-19 12:00:00,6,1028.8,0.1,100,6,3000,18.52,,,280,,,,0,,,,,,51,wg-a,,,,AAXX 19124 07558 12230 82810 10060 20060 39431 40288 50001 60007 75152 877// 91200=
07558,1999-02-19 18:00:00,7,1028.7,0.8,93,6,0,18.52,,,290,4.3,7.5,,,,,,,,,wg-a,,,,AAXX 19184 07558 32/// /2910 10070 20060 39431 40287 53008 91800 333 10075 20043=
07558,1999-02-20 00:00:00,6,1028.9,-0.3,100,6,0,18.52,,,280,,,,,,,,,,,wg-a,,,,AAXX 20004 07558 32/// /2810 10060 20060 39431 40289 55003 90000=
07558,1999-02-20 06:00:00,6,1026.8,-0.5,100,6,25000,25.928,,,270,5.5,6.5,,,,,,,,,wg-a,,,,AAXX 20064 07558 12575 62714 10060 20060 39412 40268 55005 60004 86500 90600 333 10065 20055=
07558,1999-02-20 12:00:00,8,1025.9,-0.2,93,7,0,29.632,,,290,,,,,,,,,,,wg-a,,,,AAXX 20124 07558 32/// /2916 10080 20070 39410 40259 55002 91200=
07558,1999-02-20 18:00:00,7,1024.4,0.2,100,7,0,29.632,,,270,5.6,9.6,,1,,,,,,,wg-a,,,,AAXX 20184 07558 12/// /2716 10070 20070 39393 40244 53002 60017 91800 333 10096 20056=
07558,1999-02-21 00:00:00,7,1023.7,-0.6,100,7,0,25.928,,,260,,,,,,,,,,,wg-a,,,,AAXX 21004 07558 32/// /2614 10070 20070 39387 40237 57006 90000=
07558,1999-02-21 06:00:00,8,1021.4,-0.6,93,7,20000,18.52,,,270,6.5,7.8,,0,,,4,,,3,wg-a,,,,AAXX 21064 07558 02570 62710 10080 20070 39368 40214 55006 60044 70352 86500 90600 333 10078 20065 60007=
07558,1999-02-21 12:00:00,9,1021.4,-0.8,87,7,0,25.928,,,290,,,,,,,,,,,wg-a,,,,AAXX 21124 07558 32/// /2914 10090 20070 39371 40214 58008 91200=
07558,1999-02-21 18:00:00,8,1019.3,-0.6,100,8,0,18.52,,,260,7.3,8.8,,0,,,,,,,wg-a,,,,AAXX 21184 07558 12/// /2610 10080 20080 39350 40193 58006 60007 91800 333 10088 20073=
07558,1999-02-22 00:00:00,7,1016.4,-2.3,93,6,0,22.224,,,260,,,,,,,,,,,wg-a,,,,AAXX 22004 07558 32/// /2612 10070 20060 39319 40164 58023 90000=
07558,1999-02-22 06:00:00,6,1011.5,-2.1,93,5,20000,53.708,,,280,6.1,8.3,,0,,,2,,,3,wg-a,,,,AAXX 22064 07558 02570 62829 10060 20050 39273 40115 56021 60024 70352 86500 90600 333 10083 20061 60007=
07558,1999-02-22 12:00:00,4,1011.9,-0.1,87,2,25000,87.044,,,300,,,,1,,,,,,25,wg-a,,,,AAXX 22124 07558 12575 63047 10040 20020 39269 40119 58001 60017 72586 84231 91200=
07558,1999-02-22 18:00:00,1,1015.4,2.2,93,0,0,72.228,,,300,0.6,6.3,,1,,,,,,,wg-a,,,,AAXX 22184 07558 12/// /3039 10010 20000 39291 40154 53022 60017 91800 333 10063 20006=
07558,1999-02-23 00:00:00,1,1020.5,1.7,80,-2,0,38.892,,,300,,,,,,,,,,,wg-a,,,,AAXX 23004 07558 32/// /3021 10010 21020 39338 40205 53017 90000=
07558,1999-02-23 06:00:00,0,1020.9,0.3,80,-3,500,35.188,,,290,0.1,1.7,,,,,5,,,,wg-a,,,,AAXX 23064 07558 12600 72919 10000 21030 39340 40209 53003 60054 86530 90600 333 10017 20001=
07558,1999-02-23 12:00:00,3,1020.2,-0.6,81,0,500,42.596,,,320,,,,,,,,,,1,wg-a,,,,AAXX 23124 07558 02500 63223 10030 20000 39341 40202 58006 61000 70172 86200 91200 333 ////=
07558,1999-02-23 18:00:00,3,1020.7,0.6,70,-2,0,25.928,,,290,-0.1,5.2,,,,,,,,,wg-a,,,,AAXX 23184 07558 32/// /2914 10030 21020 39345 40207 51006 91800 333 10052 21001=
07558,1999-02-24 00:00:00,1,1020.7,-0.8,86,-1,0,18.52,,,310,,,,,,,,,,,wg-a,,,,AAXX 24004 07558 32/// /3110 10010 21010 39341 40207 58008 90000=
07558,1999-02-24 06:00:00,0,1016.2,-2,100,0,1500,0,,,0,0.4,2.5,,1,,,1,,,60,wg-a,,,,AAXX 24064 07558 02215 70000 10000 20000 39298 40162 56020 60014 76062 875// 90600 333 10025 20004 60017=
07558,1999-02-24 12:00:00,4,1012.7,-1.3,100,4,300,3.704,,,160,,,,,,,,,,44,wg-a,,,,AAXX 24124 07558 02203 81602 10040 20040 39277 40127 58013 61000 74464 885// 91200 333 ////=
07558,1999-02-24 18:00:00,6,1011.3,0.1,87,4,0,3.704,,,320,0.5,6.5,,,,,,,,,wg-a,,,,AAXX 24184 07558 32/// /3202 10060 20040 39269 40113 53001 91800 333 10065 20005=
07558,1999-02-25 00:00:00,5,1013.4,1,93,4,0,11.112,,,10,,,,,,,,,,,wg-a,,,,AAXX 25004 07558 32/// /0106 10050 20040 39285 40134 51010 90000=
07558,1999-02-25 06:00:00,3,1015.3,0.9,93,2,500,11.112,,,350,2.9,5.7,,,,,,,,,wg-a,,,,AAXX 25064 07558 12500 13506 10030 20020 39298 40153 51009 60004 81530 90600 333 10057 20029=
07558,1999-02-25 12:00:00,11,1015.2,0.2,58,3,50000,25.928,,,350,,,,,,,,,,,wg-a,,,,AAXX 25124 07558 32684 13514 10110 20030 39318 40152 51002 81400 91200=
07558,1999-02-25 18:00:00,8,1018.9,1.7,76,4,0,18.52,,,320,2.9,11.8,,,,,,,,,wg-a,,,,AAXX 25184 07558 32/// /3210 10080 20040 39346 40189 53017 91800 333 10118 20029=
07558,1999-02-26 00:00:00,4,1022.2,0.7,93,3,0,11.112,,,360,,,,,,,,,,,wg-a,,,,AAXX 26004 07558 32/// /3606 10040 20030 39363 40222 51007 90000=
07558,1999-02-26 06:00:00,1,1022.4,-0.2,100,1,100,0,,,0,1.2,8,,,,,,,,47,wg-a,,,,AAXX 26064 07558 32/01 90000 10010 20010 39357 40224 58002 74741 89/// 90600 333 10080 20012=
07558,1999-02-26 12:00:00,4,1021.4,-0.2,100,4,1500,7.408,,,250,,,,,,,,,,28,wg-a,,,,AAXX 26124 07558 32015 22504 10040 20040 39358 40214 58002 72841 82601 91200=
07558,1999-02-26 18:00:00,7,1018.3,-0,53,-2,0,22.224,,,130,0.5,13.1,,,,,,,,,wg-a,,,,AAXX 26184 07558 32/// /1312 10070 21020 39337 40183 55000 91800 333 10131 20005=
07558,1999-02-27 00:00:00,4,1018.6,-0.5,93,3,0,18.52,,,120,,,,,,,,,,,wg-a,,,,AAXX 27004 07558 32/// /1210 10040 20030 39332 40186 57005 90000=
07558,1999-02-27 06:00:00,6,1016.9,-0,93,5,15000,29.632,,,130,3,7.3,,,,,,,,,wg-a,,,,AAXX 27064 07558 12365 71316 10060 20050 39320 40169 55000 60004 875// 90600 333 10073 20030=
07558,1999-02-27 12:00:00,7,1018.7,0.3,87,5,0,25.928,,,130,,,,,,,,,,,wg-a,,,,AAXX 27124 07558 32/// /1314 10070 20050 39339 40187 50003 91200=
07558,1999-02-27 18:00:00,6,1019.3,1.4,93,5,0,18.52,,,140,5.5,7.7,,,,,,,,,wg-a,,,,AAXX 27184 07558 32/// /1410 10060 20050 39344 40193 53014 91800 333 10077 20055=
07558,1999-02-28 00:00:00,5,1022.3,0.6,100,5,0,3.704,,,10,,,,,,,,,,,wg-a,,,,AAXX 28004 07558 32/// /0102 10050 20050 39369 40223 52006 90000=
07558,1999-02-28 06:00:00,5,1023.2,0.7,100,5,200,3.704,,,250,5.1,6.2,,,,,,,,46,wg-a,,,,AAXX 28064 07558 02502 72502 10050 20050 39377 40232 53007 60004 74654 875// 90600 333 10062 20051 61000=
07558,1999-02-28 12:00:00,8,1024.2,0.3,87,6,0,7.408,,,250,,,,,,,,,,,wg-a,,,,AAXX 28124 07558 32/// /2504 10080 20060 39394 40242 50003 91200=
07558,1999-02-28 18:00:00,6,1025.6,1.1,87,4,0,18.52,,,320,5.2,8.5,,,,,,,,,wg-a,,,,AAXX 28184 07558 32/// /3210 10060 20040 39401 40256 53011 91800 333 10085 20052=
07558,1999-03-01 00:00:00,1,1029.5,0.7,93,0,0,18.52,,,340,,,,,,,,,,,wg-a,,,,AAXX 01004 07558 32/// /3410 10010 20000 39422 40295 51007 90000=
07558,1999-03-01 06:00:00,0,1029.3,-0,93,-1,25000,7.408,,,300,0.1,5.9,,,,,,,,,wg-a,,,,AAXX 01064 07558 32/75 03004 10000 21010 39417 40293 55000 80000 90600 333 10059 20001=
07558,1999-03-01 12:00:00,9,1027.6,-0.3,53,0,500,22.224,,,340,,,,,,,,,,,wg-a,,,,AAXX 01124 07558 32500 43412 10090 20000 39427 40276 58003 81102 91200=
07558,1999-03-01 18:00:00,7,1028,0.9,70,2,0,14.816,,,300,-0.2,10.6,,,,,,,,,wg-a,,,,AAXX 01184 07558 32/// /3008 10070 20020 39425 40280 53009 91800 333 10106 21002=
07558,1999-03-02 00:00:00,6,1028.6,-0.5,81,3,0,25.928,,,310,,,,,,,,,,,wg-a,,,,AAXX 02004 07558 32/// /3114 10060 20030 39427 40286 58005 90000=
07558,1999-03-02 12:00:00,7,1024.3,-1.1,93,6,15000,14.816,,,210,,,,,,,,,,,wg-a,,,,AAXX 02124 07558 32465 72108 10070 20060 39393 40243 58011 875// 91200=
07558,1999-03-02 18:00:00,7,1020.7,-1.3,87,5,0,18.52,,,300,5.4,9.2,,,,,,,,,wg-a,,,,AAXX 02184 07558 32/// /3010 10070 20050 39359 40207 56013 91800 333 10092 20054=
07558,1999-03-03 00:00:00,5,1017.3,-2.4,100,5,0,11.112,,,240,,,,,,,,,,,wg-a,,,,AAXX 03004 07558 32/// /2406 10050 20050 39323 40173 58024 90000=
07558,1999-03-03 06:00:00,5,1013,-1.8,100,5,15000,7.408,,,170,4.5,7,,,,,,,,,wg-a,,,,AAXX 03064 07558 12565 71704 10050 20050 39283 40130 56018 60004 875// 90600 333 10070 20045=
07558,1999-03-03 12:00:00,9,1007.4,-2.8,76,5,25000,14.816,,,150,,,,,,,,,,,wg-a,,,,AAXX 03124 07558 32675 71508 10090 20050 39243 40074 58028 8553/ 91200=
07558,1999-03-03 18:00:00,7,1001.5,-2.2,93,6,0,22.224,,,150,4.7,9.8,,,,,,,,,wg-a,,,,AAXX 03184 07558 32/// /1512 10070 20060 39184 40015 56022 91800 333 10098 20047=
07558,1999-03-04 00:00:00,0,1001.9,-1.6,100,0,0,14.816,,,220,,,,3,,,,,,,wg-a,,,,AAXX 04004 07558 12/// /2208 10000 20000 39166 40019 58016 60037 90000=
07558,1999-03-04 06:00:00,1,997.9,-1.1,100,1,400,11.112,,,210,-0.1,7.2,,0,,,3,,,60,wg-a,,0,,AAXX 04064 07558 02104 82106 10010 20010 39132 49979 56011 60034 76076 885// 90600 333 10072 21001 4/9999 60007=
07558,1999-03-04 12:00:00,3,998.1,0.5,100,3,3000,31.484,,,260,,,,0,,,,,,23,wg-a,,,,AAXX 04124 07558 12130 82617 10030 20030 39140 49981 50005 60007 72376 885// 91200=
07558,1999-03-04 18:00:00,2,998.3,0.3,100,2,0,35.188,,,250,0.9,4.8,,,,,,,,,wg-a,,,,AAXX 04184 07558 32/// /2519 10020 20020 39140 49983 53003 91800 333 10048 20009=
07558,1999-03-05 00:00:00,2,1000.3,0.5,93,1,0,18.52,,,290,,,,,,,,,,,wg-a,,,,AAXX 05004 07558 32/// /2910 10020 20010 39156 40003 51005 90000=
07558,1999-03-05 06:00:00,1,1000.4,0.5,93,0,20000,18.52,,,260,0.2,2.2,,,,,5,,,3,wg-a,,,,AAXX 05064 07558 12570 72610 10010 20000 39154 40004 53005 60054 70387 86201 90600 333 10022 20002=
07558,1999-03-05 12:00:00,3,1002.1,0.7,87,1,20000,25.928,,,260,,,,0,,,,,,85,wg-a,,,,AAXX 05124 07558 12570 72614 10030 20010 39176 40021 51007 60007 78587 86201 91200=
07558,1999-03-05 18:00:00,1,1003.7,0.9,93,0,0,29.632,,,250,0,4,,,,,,,,,wg-a,,,,AAXX 05184 07558 32/// /2516 10010 20000 39186 40037 51009 91800 333 10040 20000=
07558,1999-03-06 00:00:00,-1,1005.7,-0.1,100,-1,0,18.52,,,220,,,,,,,,,,,wg-a,,,,AAXX 06004 07558 32/// /2210 11010 21010 39199 40057 58001 90000=
07558,1999-03-06 06:00:00,-1,1006.4,0.4,100,-1,20000,25.928,,,260,-1.2,1.4,,,,,,,,22,wg-a,,1,,AAXX 06064 07558 02470 72614 11010 21010 39203 40064 53004 60004 72272 878// 90600 333 10014 21012 4/001 61000=
07558,1999-03-06 12:00:00,1,1008.2,1.3,86,-1,0,18.52,,,240,,,,,,,,,,,wg-a,,,,AAXX 06124 07558 32/// /2410 10010 21010 39226 40082 51013 91200=
07558,1999-03-06 18:00:00,-1,1009.6,0.5,93,-2,0,18.52,,,270,-1.3,3.8,,,,,,,,,wg-a,,,,AAXX 06184 07558 32/// /2710 11010 21020 39234 40096 53005 91800 333 10038 21013=
07558,1999-03-07 00:00:00,-1,1011.7,0.4,93,-2,0,7.408,,,250,,,,,,,,,,,wg-a,,,,AAXX 07004 07558 32/// /2504 11010 21020 39252 40117 50004 90000=
07558,1999-03-07 06:00:00,-2,1011.7,0.9,100,-2,25000,11.112,,,290,-1.9,-0.6,,,,,1,,,3,wg-a,,2,,AAXX 07064 07558 02475 52906 11020 21020 39250 40117 53009 60014 70387 85201 90600 333 11006 21019 4/002 61000=
07558,1999-03-07 12:00:00,2,1012.8,0.7,75,-2,0,14.816,,,270,,,,,,,,,,,wg-a,,,,AAXX 07124 07558 32/// /2708 10020 21020 39270 40128 50007 91200=
07558,1999-03-07 18:00:00,1,1013.5,0.5,75,-3,0,11.112,,,270,-2,4.6,,,,,,,,,wg-a,,,,AAXX 07184 07558 32/// /2706 10010 21030 39274 40135 53005 91800 333 10046 21020=
07558,1999-03-08 00:00:00,-1,1014,-0.6,86,-3,0,7.408,,,60,,,,,,,,,,,wg-a,,,,AAXX 08004 07558 32/// /0604 11010 21030 39273 40140 56006 90000=
07558,1999-03-08 06:00:00,2,1011.8,-0.5,93,1,500,14.816,,,110,-1.4,1.9,,,,,,,,,wg-a,,,,AAXX 08064 07558 12600 71108 10020 20010 39262 40118 57005 60004 875// 90600 333 10019 21014=
07558,1999-03-08 12:00:00,8,1009.4,-0.5,66,2,500,29.632,,,140,,,,,,,,,,,wg-a,,,,AAXX 08124 07558 32600 61416 10080 20020 39258 40094 58005 83101 91200=
07558,1999-03-08 18:00:00,6,1009.2,0.4,87,4,0,18.52,,,120,1.5,10.6,,,,,,,,,wg-a,,,,AAXX 08184 07558 32/// /1210 10060 20040 39252 40092 53004 91800 333 10106 20015=
07558,1999-03-09 00:00:00,7,1009.5,-0.3,93,6,0,14.816,,,120,,,,,,,,,,,wg-a,,,,AAXX 09004 07558 32/// /1208 10070 20060 39257 40095 58003 90000=
07558,1999-03-09 06:00:00,7,1008.4,-0,93,6,15000,18.52,,,110,5.7,7.3,,,,,,,,,wg-a,,,,AAXX 09064 07558 12465 61110 10070 20060 39246 40084 55000 60004 86500 90600 333 10073 20057=
07558,1999-03-09 12:00:00,8,1010.5,1,87,6,18000,38.892,,,120,,,,,,,,,,,wg-a,,,,AAXX 09124 07558 32468 71221 10080 20060 39268 40105 51010 875// 91200=
07558,1999-03-09 18:00:00,7,1011.5,0.9,87,5,0,31.484,,,140,6.7,9.9,,,,,,,,,wg-a,,,,AAXX 09184 07558 32/// /1417 10070 20050 39275 40115 53009 91800 333 10099 20067=
07558,1999-03-10 00:00:00,7,1013.4,0.8,87,5,0,25.928,,,130,,,,,,,,,,,wg-a,,,,AAXX 10004 07558 32/// /1314 10070 20050 39291 40134 51008 90000=
07558,1999-03-10 12:00:00,8,1013.2,0.5,93,7,12000,18.52,,,130,,,,,,,,,,,wg-a,,,,AAXX 10124 07558 32462 81310 10080 20070 39295 40132 51005 885// 91200=
07558,1999-03-10 18:00:00,9,1013,0.5,87,7,0,22.224,,,130,6.5,11.5,,,,,,,,,wg-a,,,,AAXX 10184 07558 32/// /1312 10090 20070 39293 40130 53005 91800 333 10115 20065=
07558,1999-03-11 00:00:00,7,1014.3,0.4,93,6,0,18.52,,,130,,,,,,,,,,,wg-a,,,,AAXX 11004 07558 32/// /1310 10070 20060 39302 40143 51004 90000=
07558,1999-03-11 06:00:00,8,1013.6,0.1,93,7,8000,14.816,,,120,6.8,8.6,,,,,,,,,wg-a,,,,AAXX 11064 07558 12458 71208 10080 20070 39296 40136 53001 60004 875// 90600 333 10086 20068=
07558,1999-03-11 12:00:00,12,1013,-0.1,76,8,15000,18.52,,,140,,,,,,,,,,,wg-a,,,,AAXX 11124 07558 32565 61410 10120 20080 39302 40130 58001 86504 91200=
07558,1999-03-11 18:00:00,10,1012.8,0.2,82,7,0,25.928,,,120,7.5,14.7,,,,,,,,,wg-a,,,,AAXX 11184 07558 32/// /1214 10100 20070 39296 40128 53002 91800 333 10147 20075=
07558,1999-03-12 00:00:00,9,1014.2,0.5,87,7,0,18.52,,,130,,,,,,,,,,,wg-a,,,,AAXX 12004 07558 32/// /1310 10090 20070 39305 40142 53005 90000=
07558,1999-03-12 06:00:00,8,1014.1,-0.3,93,7,15000,22.224,,,120,7.9,10.2,,,,,,,,,wg-a,,,,AAXX 12064 07558 12465 71212 10080 20070 39303 40141 55003 60004 875// 90600 333 10102 20079=
07558,1999-03-12 12:00:00,9,1015.1,-0.2,81,6,15000,46.3,,,140,,,,,,,,,,,wg-a,,,,AAXX 12124 07558 32565 81425 10090 20060 39315 40151 58002 875// 91200=
07558,1999-03-12 18:00:00,8,1015,0.1,81,5,0,35.188,,,120,7.9,10.5,,,,,,,,,wg-a,,,,AAXX 12184 07558 32/// /1219 10080 20050 39310 40150 52001 91800 333 10105 20079=
07558,1999-03-13 00:00:00,7,1016.2,-0.4,87,5,0,22.224,,,110,,,,,,,,,,,wg-a,,,,AAXX 13004 07558 32/// /1112 10070 20050 39318 40162 58004 90000=
07558,1999-03-13 06:00:00,7,1016.6,0.7,87,5,15000,22.224,,,110,6.3,8,,,,,,,,,wg-a,,,,AAXX 13064 07558 12565 61112 10070 20050 39320 40166 53007 60004 82532 90600 333 10080 20063=
07558,1999-03-13 12:00:00,14,1014.9,-0.3,55,5,0,25.928,,,120,,,,,,,,,,,wg-a,,,,AAXX 13124 07558 32/// /1214 10140 20050 39325 40149 58003 91200=
07558,1999-03-13 18:00:00,11,1016.2,0.4,50,1,0,11.112,,,70,6.4,14,,,,,,,,,wg-a,,,,AAXX 13184 07558 32/// /0706 10110 20010 39327 40162 52004 91800 333 10140 20064=
07558,1999-03-14 00:00:00,9,1018.6,0.7,46,-2,0,7.408,,,90,,,,,,,,,,,wg-a,,,,AAXX 14004 07558 32/// /0904 10090 21020 39344 40186 51007 90000=
07558,1999-03-14 06:00:00,7,1019.6,0.5,61,0,15000,0,,,0,6.9,10.8,,,,,,,,,wg-a,,,,AAXX 14064 07558 12565 70000 10070 20000 39348 40196 53005 60004 85532 90600 333 10108 20069=
07558,1999-03-14 12:00:00,14,1019.4,0,47,3,0,3.704,,,200,,,,,,,,,,,wg-a,,,,AAXX 14124 07558 32/// /2002 10140 20030 39366 40194 50000 91200=
07558,1999-03-14 18:00:00,13,1020.2,1.1,47,2,0,11.112,,,160,6.7,16.3,,,,,,,,,wg-a,,,,AAXX 14184 07558 32/// /1606 10130 20020 39370 40202 53011 91800 333 10163 20067=
07558,1999-03-15 00:00:00,10,1022,0.3,57,2,0,7.408,,,60,,,,,,,,,,,wg-a,,,,AAXX 15004 07558 32/// /0604 10100 20020 39380 40220 52003 90000=
07558,1999-03-15 06:00:00,9,1022.5,0.5,61,2,500,14.816,,,20,8.5,12.7,,,,,,,,,wg-a,,,,AAXX 15064 07558 12/00 50208 10090 20020 39380 40225 53005 60004 83031 90600 333 10127 20085=
07558,1999-03-15 12:00:00,19,1020.2,-0.1,34,3,500,11.112,,,210,,,,,,,,,,,wg-a,,,,AAXX 15124 07558 32600 32106 10190 20030 39386 40202 58001 81101 91200=
07558,1999-03-15 18:00:00,16,1020.6,0.7,39,2,0,7.408,,,30,8.4,20.4,,,,,,,,,wg-a,,,,AAXX 15184 07558 32/// /0304 10160 20020 39382 40206 53007 91800 333 10204 20084=
07558,1999-03-16 00:00:00,11,1023.3,0.2,62,4,0,11.112,,,30,,,,,,,,,,,wg-a,,,,AAXX 16004 07558 32/// /0306 10110 20040 39394 40233 50002 90000=
07558,1999-03-16 06:00:00,8,1022.6,-0.4,66,2,0,18.52,,,30,7.7,15.6,,,,,,,,,wg-a,,,,AAXX 16064 07558 32/// /0310 10080 20020 39379 40226 56004 90600 333 10156 20077=
07558,1999-03-16 12:00:00,16,1019.2,-1.1,31,-1,0,29.632,,,360,,,,,,,,,,,wg-a,,,,AAXX 16124 07558 32/// /3616 10160 21010 39370 40192 58011 91200=
07558,1999-03-16 18:00:00,13,1019.4,0.8,41,0,0,31.484,,,350,7.9,17.7,,,,,,,,,wg-a,,,,AAXX 16184 07558 32/// /3517 10130 20000 39363 40194 53008 91800 333 10177 20079=
07558,1999-03-17 00:00:00,8,1021.7,-0.7,57,0,0,25.928,,,360,,,,,,,,,,,wg-a,,,,AAXX 17004 07558 32/// /3614 10080 20000 39370 40217 58007 90000=
07558,1999-03-17 06:00:00,5,1020.8,-0.6,75,1,500,7.408,,,240,4.7,12.9,,,,,,,,,wg-a,,,,AAXX 17064 07558 12/00 42404 10050 20010 39353 40208 56006 60004 82041 90600 333 10129 20047=
07558,1999-03-17 12:00:00,8,1020,-0.2,81,5,20000,11.112,,,210,,,,,,,,,,,wg-a,,,,AAXX 17124 07558 32/70 72106 10080 20050 39357 40200 58002 81032 91200=
07558,1999-03-17 18:00:00,10,1019,0.4,37,-4,0,29.632,,,320,3.3,12.5,,,,,,,,,wg-a,,,,AAXX 17184 07558 32/// /3216 10100 21040 39350 40190 53004 91800 333 10125 20033=
07558,1999-03-18 00:00:00,5,1021.5,-0.1,48,-5,0,29.632,,,10,,,,,,,,,,,wg-a,,,,AAXX 18004 07558 32/// /0116 10050 21050 39360 40215 58001 90000=
07558,1999-03-18 06:00:00,2,1021.3,0.2,55,-6,500,7.408,,,10,1.7,9.8,,,,,,,,,wg-a,,,,AAXX 18064 07558 32/00 00104 10020 21060 39349 40213 53002 80000 90600 333 10098 20017=
07558,1999-03-18 09:00:00,6.4,1020,0.1,43,-5.2,30000,7.408,,,230,,,,,,,,,,,og-post,,,,AAXX 18094 07558 32980 12304 10064 21052 39350 40200 53001 81041 333 81360=
07558,1999-03-18 12:00:00,13,1017.2,-0.8,24,-7,500,35.188,,,340,,,,,,,,,,,wg-a,,,,AAXX 18124 07558 32/00 33419 10130 21070 39342 40172 58008 81031 91200=
07558,1999-03-18 18:00:00,11,1016.7,-0.2,32,-5,0,35.188,,,310,2.2,13.4,,,,,,,,,wg-a,,,,AAXX 18184 07558 32/// /3119 10110 21050 39331 40167 55002 91800 333 10134 20022=
07558,1999-03-19 00:00:00,6,1019.9,0.8,49,-4,0,18.52,,,320,,,,,,,,,,,wg-a,,,,AAXX 19004 07558 32/// /3210 10060 21040 39347 40199 51008 90000=
07558,1999-03-19 06:00:00,5,1017.7,-1,93,4,8000,38.892,,,300,5,10.5,,,,,,,,,wg-a,,,,AAXX 19064 07558 12558 63021 10050 20040 39326 40177 56010 60004 82532 90600 333 10105 20050=
07558,1999-03-19 12:00:00,9,1018.9,0.5,43,-3,20000,46.3,,,340,,,,,,,,,,,wg-a,,,,AAXX 19124 07558 32570 53425 10090 21030 39347 40189 50005 83802 91200=
07558,1999-03-19 18:00:00,5,1022,1.2,52,-4,0,38.892,,,340,4.9,9.4,,,,,,,,,wg-a,,,,AAXX 19184 07558 32/// /3421 10050 21040 39364 40220 53012 91800 333 10094 20049=
07558,1999-03-20 00:00:00,1,1025,0.2,75,-3,0,25.928,,,320,,,,,,,,,,,wg-a,,,,AAXX 20004 07558 32/// /3214 10010 21030 39380 40250 51002 90000=
07558,1999-03-20 06:00:00,1,1023.8,-0.2,69,-4,20000,22.224,,,340,0.7,4.9,,,,,,,,,wg-a,,,,AAXX 20064 07558 12/70 43412 10010 21040 39370 40238 55002 60004 80002 90600 333 10049 20007=
07558,1999-03-20 12:00:00,9,1022,-0.4,43,-3,0,29.632,,,340,,,,,,,,,,,wg-a,,,,AAXX 20124 07558 32/// /3416 10090 21030 39377 40220 58004 91200=
07558,1999-03-20 18:00:00,7,1022,0.3,49,-3,0,18.52,,,340,0.8,10.9,,,,,,,,,wg-a,,,,AAXX 20184 07558 32/// /3410 10070 21030 39369 40220 53003 91800 333 10109 20008=
07558,1999-03-21 00:00:00,2,1023.8,-0.2,69,-3,0,18.52,,,360,,,,,,,,,,,wg-a,,,,AAXX 21004 07558 32/// /3610 10020 21030 39372 40238 58002 90000=
07558,1999-03-21 06:00:00,1,1022.5,-0.3,69,-4,20000,7.408,,,30,-0.3,6.6,,,,,,,,,wg-a,,,,AAXX 21064 07558 12/70 20304 10010 21040 39356 40225 57003 60004 80002 90600 333 10066 21003=
07558,1999-03-21 12:00:00,11,1017.6,-1.5,43,-1,0,18.52,,,230,,,,,,,,,,,wg-a,,,,AAXX 21124 07558 32/// /2310 10110 21010 39342 40176 58015 91200=
07558,1999-03-21 18:00:00,8,1015.5,-1.2,53,-1,0,42.596,,,270,-0.1,12.4,,,,,,,,,wg-a,,,,AAXX 21184 07558 32/// /2723 10080 21010 39312 40155 56012 91800 333 10124 21001=
07558,1999-03-22 00:00:00,3,1015.8,-0.8,100,3,0,22.224,,,240,,,,0,,,,,,,wg-a,,,,AAXX 22004 07558 12/// /2412 10030 20030 39303 40158 58008 60007 90000=
07558,1999-03-22 06:00:00,3,1013.8,0.3,93,2,8000,35.188,,,300,2.5,7.6,,1,,,2,,,25,wg-a,,,,AAXX 22064 07558 02458 73019 10030 20020 39282 40138 51003 60024 72586 878// 90600 333 10076 20025 60017=
07558,1999-03-22 12:00:00,4,1016.3,0.3,87,2,10000,42.596,,,300,,,,,,,,,,,wg-a,,,,AAXX 22124 07558 32460 73023 10040 20020 39309 40163 53003 878// 91200=
07558,1999-03-22 18:00:00,4,1017.2,1.5,87,2,0,31.484,,,280,2.4,6,,,,,,,,,wg-a,,,,AAXX 22184 07558 32/// /2817 10040 20020 39319 40172 52015 91800 333 10060 20024=
07558,1999-03-23 00:00:00,4,1019.7,0.8,87,2,0,31.484,,,300,,,,,,,,,,,wg-a,,,,AAXX 23004 07558 32/// /3017 10040 20020 39340 40197 52008 90000=
07558,1999-03-23 06:00:00,2,1020.1,-0,93,1,15000,18.52,,,320,1.9,4.3,,,,,,,,,wg-a,,,,AAXX 23064 07558 12265 53210 10020 20010 39339 40201 54000 60004 84530 90600 333 10043 20019=
07558,1999-03-23 12:00:00,8,1019.1,-0.6,66,2,10000,38.892,,,340,,,,,,,,,,,wg-a,,,,AAXX 23124 07558 32560 53421 10080 20020 39346 40191 58006 85200 91200=
07558,1999-03-23 18:00:00,8,1017.7,-0.1,76,4,0,11.112,,,310,1.9,10.2,,,,,,,,,wg-a,,,,AAXX 23184 07558 32/// /3106 10080 20040 39335 40177 55001 91800 333 10102 20019=
07558,1999-03-24 00:00:00,4,1018.1,-1.1,93,3,0,18.52,,,30,,,,,,,,,,,wg-a,,,,AAXX 24004 07558 32/// /0310 10040 20030 39326 40181 58011 90000=
07558,1999-03-24 06:00:00,2,1015.5,-0.9,93,1,20000,11.112,,,20,2,8.1,,,,,,,,,wg-a,,,,AAXX 24064 07558 32/70 00206 10020 20010 39297 40155 56009 80000 90600 333 10081 20020=
07558,1999-03-24 12:00:00,14,1010.5,-1.2,38,0,20000,38.892,,,130,,,,,,,,,,,wg-a,,,,AAXX 24124 07558 32/70 11321 10140 20000 39285 40105 58012 80002 91200=
07558,1999-03-24 18:00:00,7,1011.4,-0.4,81,4,0,42.596,,,120,2.3,14.9,,,,,,,,,wg-a,,,,AAXX 24184 07558 32/// /1223 10070 20040 39275 40114 56004 91800 333 10149 20023=
07558,1999-03-25 00:00:00,7,1009.5,-1.4,93,6,0,35.188,,,120,,,,,,,,,,,wg-a,,,,AAXX 25004 07558 32/// /1219 10070 20060 39256 40095 56014 90000=
07558,1999-03-25 06:00:00,6,1005.6,-1.5,93,5,10000,46.3,,,120,5.7,7.5,,0,,,,,,61,wg-a,,,,AAXX 25064 07558 02260 81225 10060 20050 39218 40056 58015 60004 76162 8657/ 90600 333 10075 20057 60007=
07558,1999-03-25 12:00:00,8,1003.6,-0.2,100,8,9000,42.596,,,130,,,,1,,,,,,61,wg-a,,,,AAXX 25124 07558 12359 71323 10080 20080 39206 40036 56002 60017 76162 86800 91200=
07558,1999-03-25 18:00:00,7,1004.9,0.2,93,6,0,14.816,,,90,5.9,8.3,,2,,,,,,,wg-a,,,,AAXX 25184 07558 12/// /0908 10070 20060 39213 40049 53002 60027 91800 333 10083 20059=
07558,1999-03-26 00:00:00,6,1004.2,-1,93,5,0,3.704,,,20,,,,,,,,,,,wg-a,,,,AAXX 26004 07558 32/// /0202 10060 20050 39204 40042 58010 90000=
07558,1999-03-26 06:00:00,5,1002.9,0.3,100,5,200,22.224,,,200,4.8,7,,0,,,,,,47,wg-a,,,,AAXX 26064 07558 12/02 92012 10050 20050 39190 40029 53003 60007 74742 89/// 90600 333 10070 20048=
07558,1999-03-26 12:00:00,6,1004.8,0.3,87,4,10000,14.816,,,300,,,,,,,,,,21,wg-a,,,,AAXX 26124 07558 02160 73008 10060 20040 39211 40048 50003 61000 72187 868// 91200 333 ////=
07558,1999-03-26 18:00:00,5,1005.2,0.6,87,3,0,31.484,,,300,3.9,6.2,,,,,,,,,wg-a,,,,AAXX 26184 07558 32/// /3017 10050 20030 39210 40052 51006 91800 333 10062 20039=
07558,1999-03-27 00:00:00,3,1006.8,-0.3,87,1,0,25.928,,,320,,,,,,,,,,,wg-a,,,,AAXX 27004 07558 02/// /3214 10030 20010 39219 40068 58003 61000 90000 333 ////=
07558,1999-03-27 06:00:00,1,1006,-0.2,93,0,20000,3.704,,,180,0.7,4.7,,,,,2,,,,wg-a,,,,AAXX 27064 07558 12470 71802 10010 20000 39206 40060 55002 60024 83832 90600 333 10047 20007=
07558,1999-03-27 12:00:00,4,1005.7,0.1,87,2,0,29.632,,,290,,,,,,,,,,,wg-a,,,,AAXX 27124 07558 32/// /2916 10040 20020 39213 40057 50001 91200=
07558,1999-03-27 18:00:00,4,1006.1,1,87,2,0,29.632,,,300,0.8,6.2,,,,,,,,,wg-a,,,,AAXX 27184 07558 32/// /3016 10040 20020 39216 40061 53010 91800 333 10062 20008=
07558,1999-03-28 00:00:00,3,1008.2,0.6,100,3,0,25.928,,,320,,,,,,,,,,,wg-a,,,,AAXX 28004 07558 32/// /3214 10030 20030 39233 40082 52006 90000=
07558,1999-03-28 06:00:00,2,1010.5,1.7,87,0,12000,25.928,,,320,2.1,3.8,,,,,2,,,1,wg-a,,,,AAXX 28064 07558 12462 73214 10020 20000 39251 40105 53017 60024 70186 85802 90600 333 10038 20021=
07558,1999-03-28 12:00:00,6,1013.5,1.7,65,0,0,35.188,,,350,,,,,,,,,,,wg-a,,,,AAXX 28124 07558 32/// /3519 10060 20000 39290 40135 53017 91200=
07558,1999-03-28 18:00:00,7,1015.9,1.7,49,-3,0,25.928,,,340,2.1,7.7,,,,,,,,,wg-a,,,,AAXX 28184 07558 32/// /3414 10070 21030 39313 40159 53017 91800 333 10077 20021=
07558,1999-03-29 00:00:00,5,1018.5,0.4,65,-1,0,29.632,,,330,,,,,,,,,,,wg-a,,,,AAXX 29004 07558 32/// /3316 10050 21010 39331 40185 50004 90000=
07558,1999-03-29 06:00:00,3,1019.9,1.2,70,-2,500,18.52,,,330,2.8,6.5,,,,,,,,,wg-a,,,,AAXX 29064 07558 12/00 13310 10030 21020 39339 40199 53012 60004 81030 90600 333 10065 20028=
07558,1999-03-29 12:00:00,11,1017.8,-0.6,50,1,500,25.928,,,320,,,,,,,,,,,wg-a,,,,AAXX 29124 07558 32600 13214 10110 20010 39344 40178 58006 81100 91200=
07558,1999-03-29 18:00:00,10,1018,0.5,57,2,0,29.632,,,300,2.9,13.3,,,,,,,,,wg-a,,,,AAXX 29184 07558 32/// /3016 10100 20020 39342 40180 53005 91800 333 10133 20029=
07558,1999-03-30 00:00:00,5,1021.2,0.3,75,1,0,11.112,,,350,,,,,,,,,,,wg-a,,,,AAXX 30004 07558 32/// /3506 10050 20010 39356 40212 51003 90000=
07558,1999-03-30 06:00:00,3,1020.6,-0.5,81,0,20000,14.816,,,30,2.5,9.7,,,,,,,,,wg-a,,,,AAXX 30064 07558 32/70 00308 10030 20000 39346 40206 56005 80000 90600 333 10097 20025=
07558,1999-03-30 12:00:00,15,1015.9,-0.8,41,2,500,11.112,,,130,,,,,,,,,,,wg-a,,,,AAXX 30124 07558 32/00 01306 10150 20020 39337 40159 58008 80000 91200=
07558,1999-03-30 18:00:00,14,1014.9,-0,44,2,0,14.816,,,230,3,17.7,,,,,,,,,wg-a,,,,AAXX 30184 07558 32/// /2308 10140 20020 39324 40149 55000 91800 333 10177 20030=
07558,1999-03-31 00:00:00,8,1018.4,0.2,66,2,0,3.704,,,50,,,,,,,,,,,wg-a,,,,AAXX 31004 07558 32/// /0502 10080 20020 39341 40184 51002 90000=
07558,1999-03-31 06:00:00,5,1018.8,-0.1,81,2,25000,7.408,,,20,4.7,13.6,,,,,,,,,wg-a,,,,AAXX 31064 07558 32/75 00204 10050 20020 39335 40188 56001 80000 90600 333 10136 20047=
07558,1999-03-31 12:00:00,17,1014.2,-1.2,42,4,500,11.112,,,160,,,,,,,,,,,wg-a,,,,AAXX 31124 07558 32/00 01606 10170 20040 39328 40142 58012 80000 91200=
07558,1999-03-31 18:00:00,12,1014.4,-0,54,3,0,22.224,,,130,4.7,18.6,,,,,,,,,wg-a,,,,AAXX 31184 07558 32/// /1312 10120 20030 39315 40144 55000 91800 333 10186 20047=
07558,1999-04-01 00:00:00,9,1015.3,-0.5,43,-3,0,25.928,,,110,,,,,,,,,,,wg-a,,,,AAXX 01004 07558 32/// /1114 10090 21030 39314 40153 58005 90000=
07558,1999-04-01 06:00:00,5,1015.8,-0.2,93,4,20000,14.816,,,120,4.5,11.9,,,,,,,,,wg-a,,,,AAXX 01064 07558 12570 41208 10050 20040 39308 40158 55002 60004 84501 90600 333 10119 20045=
07558,1999-04-01 12:00:00,13,1013.2,-0.5,62,6,500,31.484,,,120,,,,,,,,,,,wg-a,,,,AAXX 01124 07558 32600 51217 10130 20060 39306 40132 58005 83101 91200=
07558,1999-04-01 18:00:00,10,1013.8,0.2,53,1,0,18.52,,,120,4.9,13.6,,,,,,,,,wg-a,,,,AAXX 01184 07558 32/// /1210 10100 20010 39303 40138 53002 91800 333 10136 20049=
07558,1999-04-02 00:00:00,7,1017.6,1.1,76,3,0,0,,,0,,,,,,,,,,,wg-a,,,,AAXX 02004 07558 32/// /0000 10070 20030 39329 40176 51011 90000=
07558,1999-04-02 06:00:00,6,1017.8,0.8,70,1,500,7.408,,,10,5.1,9.8,,,,,,,,,wg-a,,,,AAXX 02064 07558 12500 40104 10060 20010 39328 40178 53008 60004 83531 90600 333 10098 20051=
07558,1999-04-02 12:00:00,16,1016.2,-0.1,42,3,500,25.928,,,280,,,,,,,,,,,wg-a,,,,AAXX 02124 07558 32600 42814 10160 20030 39343 40162 58001 83101 91200=
07558,1999-04-02 18:00:00,13,1018.6,1.3,54,4,0,18.52,,,290,5.5,16.9,,,,,,,,,wg-a,,,,AAXX 02184 07558 32/// /2910 10130 20040 39357 40186 53013 91800 333 10169 20055=
07558,1999-04-03 00:00:00,10,1021.7,0.8,76,6,0,29.632,,,320,,,,,,,,,,,wg-a,,,,AAXX 03004 07558 32/// /3216 10100 20060 39378 40217 51008 90000=
07558,1999-04-03 06:00:00,8,1023.6,0.4,81,5,25000,11.112,,,350,7.5,13.1,,,,,,,,,wg-a,,,,AAXX 03064 07558 12/75 63506 10080 20050 39388 40236 53004 60004 83032 90600 333 10131 20075=
07558,1999-04-03 12:00:00,13,1023.1,0,72,8,0,35.188,,,300,,,,,,,,,,,wg-a,,,,AAXX 03124 07558 32/// /3019 10130 20080 39399 40231 50000 91200=
07558,1999-04-03 18:00:00,11,1024.2,-0.1,100,11,0,18.52,,,300,7.8,15.3,,,,,,,,,wg-a,,,,AAXX 03184 07558 32/// /3010 10110 20110 39404 40242 56001 91800 333 10153 20078=
07558,1999-04-04 00:00:00,11,1026.1,0.5,94,10,0,18.52,,,320,,,,,,,,,,,wg-a,,,,AAXX 04004 07558 32/// /3210 10110 20100 39421 40261 51005 90000=
07558,1999-04-04 06:00:00,10,1027.5,0.9,93,9,10000,18.52,,,300,9.3,11.6,,,,,,,,3,wg-a,,,,AAXX 04064 07558 12460 73010 10100 20090 39430 40275 53009 60004 70362 85532 90600 333 10116 20093=
07558,1999-04-04 12:00:00,17,1025,-0.5,59,9,0,22.224,,,330,,,,,,,,,,,wg-a,,,,AAXX 04124 07558 32/// /3312 10170 20090 39427 40250 58005 91200=
07558,1999-04-04 18:00:00,15,1024.9,0.6,67,9,0,25.928,,,310,9.6,18.9,,,,,,,,,wg-a,,,,AAXX 04184 07558 32/// /3114 10150 20090 39422 40249 53006 91800 333 10189 20096=
07558,1999-04-05 00:00:00,10,1028.1,-0.2,76,6,0,14.816,,,360,,,,,,,,,,,wg-a,,,,AAXX 05004 07558 32/// /3608 10100 20060 39436 40281 58002 90000=
07558,1999-04-05 06:00:00,8,1029.2,0.8,81,5,40000,7.408,,,20,7.8,15.2,,,,,,,,,wg-a,,,,AAXX 05064 07558 12/82 20204 10080 20050 39440 40292 53008 60004 80002 90600 333 10152 20078=
07558,1999-04-05 12:00:00,20,1025.8,-0.7,21,-3,0,29.632,,,340,,,,,,,,,,,wg-a,,,,AAXX 05124 07558 32/// /3416 10200 21030 39440 40258 58007 91200=
07558,1999-04-05 18:00:00,18,1025.8,0.1,39,4,0,18.52,,,310,8,21.1,,,,,,,,,wg-a,,,,AAXX 05184 07558 32/// /3110 10180 20040 39436 40258 53001 91800 333 10211 20080=
07558,1999-04-06 00:00:00,12,1028.5,0,62,5,0,11.112,,,30,,,,,,,,,,,wg-a,,,,AAXX 06004 07558 32/// /0306 10120 20050 39445 40285 50000 90000=
07558,1999-04-06 06:00:00,10,1028.4,-0.1,66,4,500,0,,,0,9.4,17.7,,,,,,,,,wg-a,,,,AAXX 06064 07558 12/00 20000 10100 20040 39439 40284 55001 60004 80001 90600 333 10177 20094=
07558,1999-04-06 12:00:00,22,1024.5,-1.1,29,3,500,11.112,,,200,,,,,,,,,,,wg-a,,,,AAXX 06124 07558 32400 52006 10220 20030 39434 40245 58011 81101 91200=
07558,1999-04-06 18:00:00,19,1022.7,-0.7,40,5,0,18.52,,,290,10.3,23.1,,,,,,,,,wg-a,,,,AAXX 06184 07558 32/// /2910 10190 20050 39411 40227 56007 91800 333 10231 20103=
07558,1999-04-07 00:00:00,10,1026.3,0,100,10,0,18.52,,,220,,,,,,,,,,,wg-a,,,,AAXX 07004 07558 32/// /2210 10100 20100 39420 40263 50000 90000=
07558,1999-04-07 06:00:00,8,1023.3,-1,100,8,400,18.52,,,220,7.8,18.8,,,,,,,,50,wg-a,,,,AAXX 07064 07558 02204 82210 10080 20080 39386 40233 58010 61000 75054 885// 90600 333 10188 20078 6100=
07558,1999-04-07 12:00:00,7,1022.3,-1,81,4,12000,29.632,,,300,,,,1,,,,,,25,wg-a,,,,AAXX 07124 07558 12462 73016 10070 20040 39373 40223 56010 60017 72586 86802 91200=
07558,1999-04-07 18:00:00,7,1021,0.1,81,4,0,42.596,,,310,4.3,10.6,,,,,,,,,wg-a,,,,AAXX 07184 07558 32/// /3123 10070 20040 39360 40210 53001 91800 333 10106 20043=
07558,1999-04-08 00:00:00,6,1019.5,-1.5,81,3,0,50.004,,,310,,,,1,,,,,,,wg-a,,,,AAXX 08004 07558 12/// /3127 10060 20030 39344 40195 58015 60017 90000=
07558,1999-04-08 06:00:00,4,1019.2,0.6,87,2,15000,38.892,,,330,3.7,6.7,,,,,3,,,,wg-a,,,,AAXX 08064 07558 12465 63321 10040 20020 39335 40192 53006 60034 86800 90600 333 10067 20037=
07558,1999-04-09 00:00:00,7,1021.4,0.5,66,1,0,35.188,,,320,,,,,,,,,,,wg-a,,,,AAXX 09004 07558 32/// /3219 10070 20010 39366 40214 50005 90000=
07558,1999-04-09 06:00:00,7,1021.4,0.2,70,2,15000,35.188,,,330,6,8.3,,,,,,,,,wg-a,,,,AAXX 09064 07558 12465 63319 10070 20020 39364 40214 53002 60004 86500 90600 333 10083 20060=
07558,1999-04-09 12:00:00,10,1022.4,-0,53,1,15000,29.632,,,330,,,,,,,,,,,wg-a,,,,AAXX 09124 07558 32465 63316 10100 20010 39383 40224 55000 86800 91200=
07558,1999-04-09 18:00:00,10,1022.1,0.4,50,0,0,18.52,,,330,6.9,13.5,,,,,,,,,wg-a,,,,AAXX 09184 07558 32/// /3310 10100 20000 39381 40221 53004 91800 333 10135 20069=
07558,1999-04-10 00:00:00,6,1023.8,-0.4,70,1,0,18.52,,,330,,,,,,,,,,,wg-a,,,,AAXX 10004 07558 32/// /3310 10060 20010 39385 40238 57004 90000=
07558,1999-04-10 06:00:00,4,1024,0.4,87,2,20000,11.112,,,280,4.4,10.4,,,,,,,,,wg-a,,,,AAXX 10064 07558 12470 22806 10040 20020 39381 40240 53004 60004 81601 90600 333 10104 20044=
07558,1999-04-10 12:00:00,14,1019.9,-0.8,44,2,0,25.928,,,310,,,,,,,,,,,wg-a,,,,AAXX 10124 07558 32/// /3114 10140 20020 39372 40199 57008 91200=
07558,1999-04-10 18:00:00,11,1020.1,0.3,71,6,0,42.596,,,300,4.3,15.6,,,,,,,,,wg-a,,,,AAXX 10184 07558 32/// /3023 10110 20060 39364 40201 53003 91800 333 10156 20043=
07558,1999-04-11 00:00:00,8,1022.9,0.1,87,6,0,25.928,,,300,,,,,,,,,,,wg-a,,,,AAXX 11004 07558 32/// /3014 10080 20060 39382 40229 52001 90000=
07558,1999-04-11 06:00:00,7,1022.3,0.1,87,5,10000,31.484,,,290,6.7,10.5,,,,,,,,1,wg-a,,,,AAXX 11064 07558 02460 62917 10070 20050 39373 40223 53001 61000 70154 86500 90600 333 10105 20067 6100=
07558,1999-04-11 12:00:00,8,1023.8,0.3,57,0,0,46.3,,,300,,,,,,,,,,,wg-a,,,,AAXX 11124 07558 32/// /3025 10080 20000 39390 40238 50003 91200=
07558,1999-04-11 18:00:00,6,1023.2,0.1,81,3,0,35.188,,,310,5.4,10.1,,,,,,,,,wg-a,,,,AAXX 11184 07558 32/// /3119 10060 20030 39379 40232 52001 91800 333 10101 20054=
07558,1999-04-12 00:00:00,6,1021.4,-1.8,87,4,0,31.484,,,300,,,,,,,,,,,wg-a,,,,AAXX 12004 07558 32/// /3017 10060 20040 39362 40214 58018 90000=
07558,1999-04-12 06:00:00,4,1019,-1,93,3,20000,18.52,,,260,4,6.1,,0,,,,,,2,wg-a,,,,AAXX 12064 07558 02470 82610 10040 20030 39335 40190 56010 60004 70262 875// 90600 333 10061 20040 60007=
07558,1999-04-12 12:00:00,6,1013.4,-3,100,6,10000,22.224,,,230,,,,1,,,,,,61,wg-a,,,,AAXX 12124 07558 12460 82312 10060 20060 39291 40134 58030 60017 76162 885// 91200=
07558,1999-04-12 18:00:00,7,1007.2,-1.9,100,7,0,42.596,,,260,4.1,7.2,,3,,,,,,,wg-a,,,,AAXX 12184 07558 12/// /2623 10070 20070 39236 40072 56019 60037 91800 333 10072 20041=
07558,1999-04-13 00:00:00,4,1010,1,87,2,0,38.892,,,280,,,,0,,,,,,,wg-a,,,,AAXX 13004 07558 12/// /2821 10040 20020 39252 40100 51010 60007 90000=
07558,1999-04-13 06:00:00,4,1011,1.2,93,3,7000,42.596,,,290,2.8,7.4,,1,,,9,,,21,wg-a,,,,AAXX 13064 07558 02457 72923 10040 20030 39260 40110 53012 60094 72162 875// 90600 333 10074 20028 60017=
07558,1999-04-13 11:00:00,8.3,1011.7,2.1,60,1,10000,42.596,75.932,72.228,310,,,,,,,,,,,og-post,,,,AAXX 13114 07558 32460 53123 10083 20010 39280 40117 50021 85800 333 83813 91039 91141=
07558,1999-04-13 12:00:00,7,1012.3,0.5,66,1,10000,42.596,,,310,,,,,,,,,,3,wg-a,,,,AAXX 13124 07558 32460 63123 10070 20010 39282 40123 51005 70362 86800 91200=
07558,1999-04-13 18:00:00,6,1013.3,0.7,70,1,0,42.596,,,300,3.1,10,,0,,,,,,,wg-a,,,,AAXX 13184 07558 12/// /3023 10060 20010 39288 40133 51007 60007 91800 333 10100 20031=
07558,1999-04-14 00:00:00,4,1014.5,-0.9,87,2,0,31.484,,,270,,,,,,,,,,,wg-a,,,,AAXX 14004 07558 32/// /2717 10040 20020 39292 40145 55009 90000=
07558,1999-04-14 06:00:00,3,1011.7,-1,87,1,7000,7.408,,,240,1.9,6,,,,,2,,,,wg-a,,,,AAXX 14064 07558 12357 82404 10030 20010 39264 40117 56010 60024 888// 90600 333 10060 20019=
07558,1999-04-14 12:00:00,9,1004.7,-3.3,71,4,15000,18.52,,,190,,,,,,,,,,,wg-a,,,,AAXX 14124 07558 32565 61910 10090 20040 39218 40047 58033 86801 91200=
07558,1999-04-15 06:00:00,-1,1008.5,0.9,100,-1,6000,11.112,,,350,-0.6,7.3,,,,,7,,,71,wg-a,,,,AAXX 15064 07558 02456 83506 11010 21010 39224 40085 53009 60074 77172 885// 90600 333 10073 21006 61000=
07558,1999-04-15 12:00:00,3,1008.3,-0.2,93,2,6000,14.816,,,230,,,,,,,,,,2,wg-a,,,,AAXX 15124 07558 32256 82308 10030 20020 39232 40083 58002 70272 885// 91200=
07558,1999-04-15 18:00:00,4,1008,0.4,75,0,0,11.112,,,320,-0.8,4.9,,,,,,,,,wg-a,,,,AAXX 15184 07558 32/// /3206 10040 20000 39233 40080 51004 91800 333 10049 21008=
07558,1999-04-16 00:00:00,1,1010.5,0.1,93,0,0,18.52,,,320,,,,,,,,,,,wg-a,,,,AAXX 16004 07558 32/// /3210 10010 20000 39249 40105 53001 90000=
07558,1999-04-16 06:00:00,1,1009.7,-0,86,-1,25000,22.224,,,300,0.4,4,,,,,,,,,wg-a,,,,AAXX 16064 07558 12575 53012 10010 21010 39240 40097 55000 60004 85500 90600 333 10040 20004=
07558,1999-04-16 12:00:00,7,1006.9,-1.3,53,-2,500,18.52,,,320,,,,,,,,,,,wg-a,,,,AAXX 16124 07558 32500 53210 10070 21020 39231 40069 58013 85100 91200=
07558,1999-04-16 18:00:00,8,1003.8,-0.8,36,-6,0,11.112,,,210,0.9,10.2,,,,,,,,,wg-a,,,,AAXX 16184 07558 32/// /2106 10080 21060 39204 40038 56008 91800 333 10102 20009=
07558,1999-04-17 00:00:00,3,1003.5,-1.3,70,-2,0,11.112,,,60,,,,,,,,,,,wg-a,,,,AAXX 17004 07558 32/// /0606 10030 21020 39188 40035 57013 90000=
07558,1999-04-17 06:00:00,2,1003.8,1.1,93,1,25000,3.704,,,130,1.9,7.5,,,,,,,,60,wg-a,,,,AAXX 17064 07558 02575 61302 10020 20010 39189 40038 53011 61000 76062 85531 90600 333 10075 20019 6100=
07558,1999-04-17 12:00:00,8,1004.3,0.9,53,-1,0,22.224,,,270,,,,,,,,,,,wg-a,,,,AAXX 17124 07558 32/// /2712 10080 21010 39211 40043 51009 91200=
07558,1999-04-17 18:00:00,3,1010.5,1.7,100,3,0,11.112,,,240,2,9.3,,,,,,,,,wg-a,,,,AAXX 17184 07558 32/// /2406 10030 20030 39253 40105 53017 91800 333 10093 20020=
07558,1999-04-18 00:00:00,3,1015.5,1.4,93,2,0,29.632,,,280,,,,,,,,,,,wg-a,,,,AAXX 18004 07558 32/// /2816 10030 20020 39301 40155 51014 90000=
07558,1999-04-18 06:00:00,2,1018.3,0.8,100,2,10000,22.224,,,210,1.8,3.6,,0,,,3,,,60,wg-a,,,,AAXX 18064 07558 02360 82112 10020 20020 39322 40183 51008 60034 76086 886// 90600 333 10036 20018 60007=
07558,1999-04-18 12:00:00,7,1020.1,1.2,49,-3,0,42.596,,,290,,,,,,,,,,,wg-a,,,,AAXX 18124 07558 32/// /2923 10070 21030 39354 40201 51012 91200=
07558,1999-04-18 18:00:00,5,1022,0.6,87,3,0,31.484,,,280,1.4,9.9,,0,,,,,,,wg-a,,,,AAXX 18184 07558 12/// /2817 10050 20030 39364 40220 53006 60007 91800 333 10099 20014=
07558,1999-04-19 00:00:00,4,1022.6,-0.2,100,4,0,25.928,,,280,,,,0,,,,,,,wg-a,,,,AAXX 19004 07558 12/// /2814 10040 20040 39369 40226 58002 60007 90000=
07558,1999-04-19 06:00:00,5,1021.6,-0,100,5,500,7.408,,,270,3.7,4.6,,0,,,2,,,50,wg-a,,,,AAXX 19064 07558 02205 82704 10050 20050 39360 40216 55000 60024 75054 885// 90600 333 10046 20037 60007=
07558,1999-04-19 12:00:00,10,1019.1,-0.5,71,5,20000,22.224,,,280,,,,,,,,,,1,wg-a,,,,AAXX 19124 07558 32470 72812 10100 20050 39352 40191 58005 70154 878// 91200=
07558,1999-04-19 18:00:00,10,1017.7,-0.3,66,4,0,7.408,,,260,4.5,11.3,,,,,,,,,wg-a,,,,AAXX 19184 07558 32/// /2604 10100 20040 39339 40177 56003 91800 333 10113 20045=
07558,1999-04-20 00:00:00,7,1018.1,-0.4,93,6,0,3.704,,,150,,,,,,,,,,,wg-a,,,,AAXX 20004 07558 32/// /1502 10070 20060 39335 40181 58004 90000=
07558,1999-04-20 06:00:00,6,1016.1,-0.5,100,6,25000,7.408,,,30,5.6,9.5,,0,,,1,,,1,wg-a,,,,AAXX 20064 07558 02675 80304 10060 20060 39315 40161 55005 60014 70162 8453/ 90600 333 10095 20056 60007=
07558,1999-04-20 12:00:00,11,1013.1,-1.1,71,6,500,25.928,,,150,,,,,,,,,,,wg-a,,,,AAXX 20124 07558 32/00 71514 10110 20060 39302 40131 58011 85032 91200=
07558,1999-04-20 18:00:00,10,1011.7,-0.3,87,8,0,18.52,,,130,6.2,12.9,,,,,,,,,wg-a,,,,AAXX 20184 07558 32/// /1310 10100 20080 39286 40117 56003 91800 333 10129 20062=
07558,1999-04-21 00:00:00,9,1011.6,-0.1,100,9,0,22.224,,,140,,,,,,,,,,,wg-a,,,,AAXX 21004 07558 32/// /1412 10090 20090 39281 40116 56001 90000=
07558,1999-04-21 06:00:00,8,1011.1,-0.1,93,7,15000,14.816,,,340,7,10.2,,3,,,4,,,28,wg-a,,,,AAXX 21064 07558 02165 73408 10080 20070 39274 40111 55001 60044 72864 875// 90600 333 10102 20070 60037=
07558,1999-04-21 12:00:00,14,1009.6,-0.1,63,7,25000,14.816,,,220,,,,,,,,,,,wg-a,,,,AAXX 21124 07558 32575 62208 10140 20070 39278 40096 58001 86100 91200=
07558,1999-04-21 18:00:00,8,1013.4,1.9,81,5,0,25.928,,,330,7.7,16.6,,0,,,,,,,wg-a,,,,AAXX 21184 07558 12/// /3314 10080 20050 39296 40134 53019 60007 91800 333 10166 20077=
07558,1999-04-22 00:00:00,7,1016.9,0.9,87,5,0,3.704,,,270,,,,,,,,,,,wg-a,,,,AAXX 22004 07558 32/// /2702 10070 20050 39323 40169 53009 90000=
07558,1999-04-22 06:00:00,5,1018.1,0.8,100,5,500,3.704,,,160,4.2,8.2,,,,,,,,,wg-a,,,,AAXX 22064 07558 12600 51602 10050 20050 39330 40181 53008 60004 82131 90600 333 10082 20042=
07558,1999-04-22 12:00:00,8,1019,0.7,100,8,20000,7.408,,,260,,,,1,,,,,,60,wg-a,,,,AAXX 22124 07558 12570 82604 10080 20080 39348 40190 51007 60017 76062 878// 91200=
07558,1999-04-22 18:00:00,10,1018.4,0.4,76,6,0,11.112,,,290,5.3,11.5,,,,,,,,,wg-a,,,,AAXX 22184 07558 32/// /2906 10100 20060 39345 40184 50004 91800 333 10115 20053=
07558,1999-04-23 00:00:00,5,1018.5,-1.8,100,5,0,7.408,,,110,,,,,,,,,,,wg-a,,,,AAXX 23004 07558 32/// /1104 10050 20050 39332 40185 57018 90000=
07558,1999-04-23 06:00:00,6,1015,-0.8,87,4,15000,11.112,,,90,4.3,9.5,,,,,1,,,,wg-a,,,,AAXX 23064 07558 12/65 50906 10060 20040 39305 40150 55008 60014 85031 90600 333 10095 20043=
07558,1999-04-23 12:00:00,8,1016.6,1.6,81,5,500,18.52,,,300,,,,0,,,,,,25,wg-a,,,,AAXX 23124 07558 12500 83010 10080 20050 39324 40166 53016 60007 72586 8743/ 91200=
07558,1999-04-23 18:00:00,8,1017.3,1.1,76,4,0,31.484,,,300,6.3,10.4,,,,,,,,,wg-a,,,,AAXX 23184 07558 32/// /3017 10080 20040 39330 40173 53011 91800 333 10104 20063=
07558,1999-04-24 00:00:00,5,1019.9,0.2,87,3,0,31.484,,,290,,,,,,,,,,,wg-a,,,,AAXX 24004 07558 32/// /2917 10050 20030 39346 40199 51002 90000=
07558,1999-04-24 06:00:00,4,1019.4,-0,87,2,15000,31.484,,,300,3.4,7.6,,,,,,,,,wg-a,,,,AAXX 24064 07558 12465 43017 10040 20020 39339 40194 55000 60004 84800 90600 333 10076 20034=
07558,1999-04-24 12:00:00,9.2,1018.3,-0.4,66,3.2,,35.188,61.116,,340,,,,,,,,,,,og-post,,,,AAXX 24124 07558 36/// /3419 10092 20032 39343 40183 58004 333 91133=
07558,1999-04-24 18:00:00,10,1017.5,-0,57,2,0,29.632,,,310,4.2,12.4,,,,,,,,,wg-a,,,,AAXX 24184 07558 32/// /3116 10100 20020 39337 40175 55000 91800 333 10124 20042=
07558,1999-04-25 00:00:00,6,1018.9,-0.3,75,2,0,11.112,,,330,,,,,,,,,,,wg-a,,,,AAXX 25004 07558 32/// /3306 10060 20020 39338 40189 57003 90000=
07558,1999-04-25 06:00:00,3,1017.5,-0.5,87,1,500,14.816,,,40,1.9,9.6,,,,,,,,,wg-a,,,,AAXX 25064 07558 12/00 20408 10030 20010 39318 40175 57005 60004 80001 90600 333 10096 20019=
07558,1999-04-25 12:00:00,15,1011.3,-1.9,41,2,0,18.52,,,140,,,,,,,,,,,wg-a,,,,AAXX 25124 07558 32/// /1410 10150 20020 39295 40113 57019 91200=
07558,1999-04-25 18:00:00,11,1011.7,-0,58,3,0,18.52,,,140,3.2,15.3,,,,,,,,,wg-a,,,,AAXX 25184 07558 32/// /1410 10110 20030 39288 40117 55000 91800 333 10153 20032=
07558,1999-04-26 00:00:00,7,1012.8,-0.6,93,6,0,14.816,,,140,,,,,,,,,,,wg-a,,,,AAXX 26004 07558 32/// /1408 10070 20060 39288 40128 58006 90000=
07558,1999-04-26 06:00:00,6,1010.4,-0.9,100,6,3000,22.224,,,10,6.3,10.9,,7,,,10,,,61,wg-a,,,,AAXX 26064 07558 02330 80112 10060 20060 39263 40104 58009 60104 76166 885// 90600 333 10109 20063 60077=
07558,1999-04-26 12:00:00,7,1010.2,-0,100,7,800,14.816,,,190,,,,4,,,,,,60,wg-a,,,,AAXX 26124 07558 12308 81908 10070 20070 39263 40102 55000 60047 76066 885// 91200=
07558,1999-04-26 18:00:00,7,1011.6,0.9,93,6,0,22.224,,,100,6.2,7.9,,,,,,,,,wg-a,,,,AAXX 26184 07558 32/// /1012 10070 20060 39276 40116 53009 91800 333 10079 20062=
07558,1999-04-27 00:00:00,6,1012.8,-0.3,93,5,0,14.816,,,110,,,,,,,,,,,wg-a,,,,AAXX 27004 07558 32/// /1108 10060 20050 39284 40128 57003 90000=
07558,1999-04-27 12:00:00,14,1011.4,-0.1,55,5,500,11.112,,,70,,,,,,,,,,,wg-a,,,,AAXX 27124 07558 32500 60706 10140 20050 39292 40114 55001 86230 91200=
07558,1999-04-27 18:00:00,12,1012.7,0.4,67,6,0,18.52,,,130,6.3,14.5,,,,,,,,,wg-a,,,,AAXX 27184 07558 32/// /1310 10120 20060 39300 40127 53004 91800 333 10145 20063=
07558,1999-04-28 00:00:00,10,1015.2,0.1,87,8,0,18.52,,,100,,,,,,,,,,,wg-a,,,,AAXX 28004 07558 32/// /1010 10100 20080 39317 40152 53001 90000=
07558,1999-04-28 06:00:00,9,1013.1,-0.5,87,7,12000,11.112,,,100,8.6,11.8,,,,,,,,,wg-a,,,,AAXX 28064 07558 12462 71006 10090 20070 39297 40131 58005 60004 84532 90600 333 10118 20086=
07558,1999-04-28 12:00:00,17,1008.1,-2.3,42,4,25000,14.816,,,90,,,,,,,,,,,wg-a,,,,AAXX 28124 07558 32475 70908 10170 20040 39271 40081 58023 82132 91200=
07558,1999-04-28 18:00:00,15.6,1005.1,-0.8,52,5.8,,35.188,72.228,,110,9.4,18.4,,,,,,,,,og-post,,,,AAXX 28184 07558 36/// /1119 10156 20058 39240 40051 55008 333 10184 20094 91139=
07558,1999-04-29 00:00:00,14,1005.7,0,55,5,0,42.596,,,110,,,,,,,,,,,wg-a,,,,AAXX 29004 07558 32/// /1123 10140 20050 39240 40057 50000 90000=
07558,1999-04-29 06:00:00,10,1006.7,1,100,10,7000,35.188,,,120,10.1,15.6,,0,,,,,,60,wg-a,,,,AAXX 29064 07558 02357 71219 10100 20100 39241 40067 53010 60004 76062 875// 90600 333 10156 20101 60007=
07558,1999-04-29 12:00:00,14,1009.6,0.9,67,8,20000,35.188,,,140,,,,,,,,,,1,wg-a,,,,AAXX 29124 07558 32470 71419 10140 20080 39278 40096 51009 70162 878// 91200=
07558,1999-04-29 18:00:00,12,1011,0.4,71,7,0,25.928,,,130,10.3,15.9,,,,,,,,,wg-a,,,,AAXX 29184 07558 32/// /1314 10120 20070 39285 40110 53004 91800 333 10159 20103=
07558,1999-04-30 00:00:00,8,1015.3,0.4,93,7,0,7.408,,,200,,,,,,,,,,,wg-a,,,,AAXX 30004 07558 32/// /2004 10080 20070 39314 40153 50004 90000=
07558,1999-04-30 06:00:00,8,1016.5,1.1,93,7,10000,7.408,,,140,6.4,12,,,,,,,,,wg-a,,,,AAXX 30064 07558 12360 41404 10080 20070 39323 40165 53011 60004 84800 90600 333 10120 20064=
07558,1999-04-30 12:00:00,18,1014.3,-0.2,52,8,500,7.408,,,190,,,,,,,,,,,wg-a,,,,AAXX 30124 07558 32400 41904 10180 20080 39330 40143 58002 84100 91200=
07558,1999-04-30 18:00:00,18,1013.9,0.2,39,4,0,14.816,,,230,7.6,20.4,,,,,,,,,wg-a,,,,AAXX 30184 07558 32/// /2308 10180 20040 39327 40139 53002 91800 333 10204 20076=
07558,1999-05-01 00:00:00,11,1017.2,-0.1,87,9,0,7.408,,,40,,,,,,,,,,,wg-a,,,,AAXX 01004 07558 32/// /0404 10110 20090 39340 40172 57001 90000=
07558,1999-05-01 06:00:00,10,1017.4,-0,87,8,20000,11.112,,,20,8.8,17.9,,0,,,,,,,wg-a,,,,AAXX 01064 07558 02/70 20206 10100 20080 39338 40174 55000 60004 80002 90600 333 10179 20088 60007=
07558,1999-05-01 12:00:00,19,1015,-0.4,46,7,0,25.928,,,150,,,,,,,,,,,wg-a,,,,AAXX 01124 07558 32/// /1514 10190 20070 39339 40150 58004 91200=
07558,1999-05-01 18:00:00,16,1014.6,-0.3,48,5,0,11.112,,,160,10,20.5,,,,,,,,,wg-a,,,,AAXX 01184 07558 32/// /1606 10160 20050 39328 40146 58003 91800 333 10205 20100=
07558,1999-05-02 00:00:00,13,1016.1,0.2,62,6,0,11.112,,,30,,,,,,,,,,,wg-a,,,,AAXX 02004 07558 32/// /0306 10130 20060 39334 40161 50002 90000=
07558,1999-05-02 06:00:00,10,1015.8,0.2,87,8,10000,11.112,,,350,10.4,16.1,,,,,,,,,wg-a,,,,AAXX 02064 07558 12460 83506 10100 20080 39324 40158 52002 60004 8/55/ 90600 333 10161 20104=
07558,1999-05-02 12:00:00,16,1014.3,0,39,2,0,25.928,,,120,,,,,,,,,,,wg-a,,,,AAXX 02124 07558 32/// /1214 10160 20020 39326 40143 50000 91200=
07558,1999-05-02 18:00:00,16,1013.3,-0.1,55,7,0,22.224,,,110,10.4,20.3,,,,,,,,,wg-a,,,,AAXX 02184 07558 32/// /1112 10160 20070 39317 40133 58001 91800 333 10203 20104=
07558,1999-05-03 00:00:00,13,1015.4,0,72,8,0,14.816,,,120,,,,,,,,,,,wg-a,,,,AAXX 03004 07558 32/// /1208 10130 20080 39329 40154 50000 90000=
07558,1999-05-03 06:00:00,11,1014,-0.8,94,10,8000,14.816,,,20,10.6,16.1,,1,,,1,,,60,wg-a,,,,AAXX 03064 07558 02458 80208 10110 20100 39310 40140 55008 60014 76066 8/57/ 90600 333 10161 20106 60017=
07558,1999-05-03 12:00:00,12,1012.7,-1.7,100,12,6000,7.408,,,40,,,,10,,,,,,63,wg-a,,,,AAXX 03124 07558 12256 80404 10120 20120 39301 40127 56017 60107 76366 8/57/ 91200=
07558,1999-05-03 18:00:00,11,1010.2,-0.9,100,11,0,3.704,,,20,10.7,11.8,,,,,,,,,wg-a,,,,AAXX 03184 07558 32/// /0202 10110 20110 39276 40102 56009 91800 333 10118 20107=
07558,1999-05-04 00:00:00,11,1007.3,-2,100,11,0,7.408,,,320,,,,,,,,,,,wg-a,,,,AAXX 04004 07558 32/// /3204 10110 20110 39248 40073 58020 90000=
07558,1999-05-04 06:00:00,11,1004.3,-0.7,100,11,10000,7.408,,,350,10.6,11.4,,8,,,65,,,63,wg-a,,,,AAXX 04064 07558 02460 83504 10110 20110 39222 40043 56007 60654 76364 885// 90600 333 10114 20106 60087=
07558,1999-05-04 12:00:00,12,1006.1,1,100,12,10000,14.816,,,140,,,,9,,,,,,63,wg-a,,,,AAXX 04124 07558 12460 81408 10120 20120 39240 40061 52010 60097 76365 885// 91200=
07558,1999-05-04 18:00:00,13,1007.1,1.2,100,13,0,14.816,,,240,10.8,13.3,,,,,,,,,wg-a,,,,AAXX 04184 07558 32/// /2408 10130 20130 39252 40071 53012 91800 333 10133 20108=
07558,1999-05-05 00:00:00,10,1010.7,0.6,100,10,0,18.52,,,220,,,,,,,,,,,wg-a,,,,AAXX 05004 07558 32/// /2210 10100 20100 39278 40107 51006 90000=
07558,1999-05-05 06:00:00,10,1011.4,0.5,100,10,400,7.408,,,230,9.8,12.8,,,,,30,,,42,wg-a,,,,AAXX 05064 07558 12104 72304 10100 20100 39284 40114 53005 60304 74264 875// 90600 333 10128 20098=
07558,1999-05-05 12:00:00,16,1011.5,0.6,88,14,15000,18.52,,,200,,,,,,,,,,1,wg-a,,,,AAXX 05124 07558 32465 72010 10160 20140 39302 40115 53006 70142 85802 91200=
07558,1999-05-05 18:00:00,16,1012.4,1.1,68,10,0,22.224,,,320,10,19.1,,,,,,,,,wg-a,,,,AAXX 05184 07558 32/// /3212 10160 20100 39310 40124 51011 91800 333 10191 20100=
07558,1999-05-06 00:00:00,11,1016.8,1,94,10,0,7.408,,,60,,,,,,,,,,,wg-a,,,,AAXX 06004 07558 32/// /0604 10110 20100 39337 40168 51010 90000=
07558,1999-05-06 06:00:00,10,1018,0.6,93,9,500,3.704,,,50,9.3,16.2,,,,,,,,,wg-a,,,,AAXX 06064 07558 12/00 40502 10100 20090 39344 40180 53006 60004 84030 90600 333 10162 20093=
07558,1999-05-06 12:00:00,21,1014.3,-0.7,40,7,40000,14.816,,,130,,,,,,,,,,,wg-a,,,,AAXX 06124 07558 32782 31308 10210 20070 39340 40143 58007 81101 91200=
07558,1999-05-06 18:00:00,18,1013.6,-0.5,56,9,0,14.816,,,140,10,22.2,,,,,,,,,wg-a,,,,AAXX 06184 07558 32/// /1408 10180 20090 39326 40136 55005 91800 333 10222 20100=
07558,1999-05-07 00:00:00,13,1015.8,-0.6,77,9,0,18.52,,,130,,,,,,,,,,,wg-a,,,,AAXX 07004 07558 32/// /1310 10130 20090 39331 40158 56006 90000=
07558,1999-05-07 06:00:00,12,1014.8,0.2,94,11,25000,25.928,,,140,10.9,18.3,,,,,,,,,wg-a,,,,AAXX 07064 07558 12575 71414 10120 20110 39320 40148 53002 60004 875// 90600 333 10183 20109=
07558,1999-05-07 12:00:00,13,1013.6,0,94,12,20000,22.224,,,140,,,,,,,,,,,wg-a,,,,AAXX 07124 07558 32570 71412 10130 20120 39313 40136 50000 875// 91200=
07558,1999-05-07 18:00:00,12,1012.4,-0.1,94,11,0,22.224,,,130,11.7,13.6,,,,,,,,,wg-a,,,,AAXX 07184 07558 32/// /1312 10120 20110 39299 40124 57001 91800 333 10136 20117=
07558,1999-05-08 00:00:00,11,1014.2,0.6,100,11,0,7.408,,,120,,,,,,,,,,,wg-a,,,,AAXX 08004 07558 32/// /1204 10110 20110 39313 40142 51006 90000=
07558,1999-05-08 06:00:00,11,1014.8,0.5,100,11,6000,7.408,,,50,10.7,12.1,,1,,,13,,,60,wg-a,,,,AAXX 08064 07558 02256 70504 10110 20110 39318 40148 53005 60134 76064 875// 90600 333 10121 20107 60017=
07558,1999-05-08 12:00:00,15,1015.2,0.1,82,12,0,11.112,,,220,,,,,,,,,,,wg-a,,,,AAXX 08124 07558 32/// /2206 10150 20120 39333 40152 53001 91200=
07558,1999-05-08 18:00:00,17,1015.2,0.8,55,8,0,11.112,,,310,10.9,18.3,,,,,,,,,wg-a,,,,AAXX 08184 07558 32/// /3106 10170 20080 39337 40152 53008 91800 333 10183 20109=
07558,1999-05-09 00:00:00,10,1019.3,0.2,82,7,0,18.52,,,20,,,,,,,,,,,wg-a,,,,AAXX 09004 07558 32/// /0210 10100 20070 39356 40193 50002 90000=
07558,1999-05-09 06:00:00,9,1019.3,0.1,87,7,500,7.408,,,20,8.1,17.1,,,,,1,,,,wg-a,,,,AAXX 09064 07558 12/00 20204 10090 20070 39354 40193 53001 60014 80002 90600 333 10171 20081=
07558,1999-05-09 12:00:00,19,1015.3,-0.8,49,8,0,25.928,,,150,,,,,,,,,,,wg-a,,,,AAXX 09124 07558 32/// /1514 10190 20080 39344 40153 58008 91200=
07558,1999-05-09 18:00:00,15,1017,0.8,51,5,0,18.52,,,130,9.5,20.4,,,,,,,,,wg-a,,,,AAXX 09184 07558 32/// /1310 10150 20050 39347 40170 53008 91800 333 10204 20095=
07558,1999-05-10 00:00:00,12,1018,0,71,7,0,14.816,,,110,,,,,,,,,,,wg-a,,,,AAXX 10004 07558 32/// /1108 10120 20070 39350 40180 50000 90000=
07558,1999-05-10 06:00:00,11,1019.3,0.6,94,10,500,18.52,,,130,10.3,14.9,,,,,,,,,wg-a,,,,AAXX 10064 07558 12600 71310 10110 20100 39360 40193 52006 60004 875// 90600 333 10149 20103=
07558,1999-05-10 12:00:00,17,1018.9,0,77,13,500,18.52,,,130,,,,,,,,,,,wg-a,,,,AAXX 10124 07558 32600 61310 10170 20130 39371 40189 50000 86101 91200=
07558,1999-05-10 18:00:00,15,1019.1,0.3,82,12,0,14.816,,,140,11.4,17.5,,,,,,,,,wg-a,,,,AAXX 10184 07558 32/// /1408 10150 20120 39369 40191 53003 91800 333 10175 20114=
07558,1999-05-11 00:00:00,13,1019.6,-0.9,88,11,0,3.704,,,340,,,,,,,,,,,wg-a,,,,AAXX 11004 07558 32/// /3402 10130 20110 39367 40196 58009 90000=
07558,1999-05-11 06:00:00,14,1017.7,-0.5,72,9,500,3.704,,,110,12.4,15.2,,,,,,,,,wg-a,,,,AAXX 11064 07558 12500 71102 10140 20090 39351 40177 56005 60004 81532 90600 333 10152 20124=
07558,1999-05-11 12:00:00,23,1014.7,-0.3,50,12,500,14.816,,,210,,,,,,,,,,,wg-a,,,,AAXX 11124 07558 32500 72108 10230 20120 39348 40147 58003 82102 91200=
07558,1999-05-11 18:00:00,21,1015,0.4,56,12,0,14.816,,,280,13.6,24.1,,,,,,,,,wg-a,,,,AAXX 11184 07558 32/// /2808 10210 20120 39346 40150 53004 91800 333 10241 20136=
07558,1999-05-12 00:00:00,16,1017.2,-0.2,82,13,0,3.704,,,30,,,,,,,,,,,wg-a,,,,AAXX 12004 07558 32/// /0302 10160 20130 39353 40172 58002 90000=
07558,1999-05-12 06:00:00,13,1017.3,0.4,100,13,20000,7.408,,,30,12.7,20.8,,,,,,,,,wg-a,,,,AAXX 12064 07558 12/70 60304 10130 20130 39347 40173 53004 60004 81032 90600 333 10208 20127=
07558,1999-05-12 12:00:00,24,1012.8,-1.1,44,11,0,22.224,,,230,,,,,,,,,,,wg-a,,,,AAXX 12124 07558 32/// /2312 10240 20110 39334 40128 58011 91200=
07558,1999-05-12 18:00:00,22,1013.2,0.3,46,10,0,25.928,,,260,13.3,25.2,,,,,,,,,wg-a,,,,AAXX 12184 07558 32/// /2614 10220 20100 39331 40132 51003 91800 333 10252 20133=
07558,1999-05-13 00:00:00,16,1016.3,0,82,13,0,11.112,,,290,,,,,,,,,,,wg-a,,,,AAXX 13004 07558 32/// /2906 10160 20130 39346 40163 50000 90000=
07558,1999-05-13 06:00:00,14,1016.4,-0,88,12,500,3.704,,,230,13.5,21.5,,,,,,,,,wg-a,,,,AAXX 13064 07558 12/00 42302 10140 20120 39340 40164 55000 60004 81031 90600 333 10215 20135=
07558,1999-05-13 12:00:00,21,1012.7,-1.4,64,14,0,11.112,,,140,,,,,,,,,,,wg-a,,,,AAXX 13124 07558 32/// /1406 10210 20140 39327 40127 58014 91200=
07558,1999-05-13 18:00:00,21,1010.3,-0.5,64,14,0,11.112,,,180,13.5,24.9,,,,,,,,,wg-a,,,,AAXX 13184 07558 32/// /1806 10210 20140 39303 40103 55005 91800 333 10249 20135=
07558,1999-05-14 06:00:00,13,1012.7,0.2,100,13,20000,11.112,,,210,13.2,20.4,,2,,,2,,,1,wg-a,,,,AAXX 14064 07558 02570 62106 10130 20130 39305 40127 53002 60024 70186 84531 90600 333 10204 20132 60027=
07558,1999-05-14 12:00:00,18,1011,-0.3,68,12,20000,29.632,,,290,,,,,,,,,,,wg-a,,,,AAXX 14124 07558 32570 62916 10180 20120 39302 40110 55003 86230 91200=
07558,1999-05-14 18:00:00,15,1011.1,-0.7,77,11,0,22.224,,,340,13.2,18.4,,,,,,,,,wg-a,,,,AAXX 14184 07558 32/// /3412 10150 20110 39295 40111 56007 91800 333 10184 20132=
07558,1999-05-15 00:00:00,11,1011.8,-0.9,100,11,0,14.816,,,10,,,,,,,,,,,wg-a,,,,AAXX 15004 07558 32/// /0108 10110 20110 39291 40118 58009 90000=
07558,1999-05-15 06:00:00,11,1011.3,,94,10,20000,7.408,,,360,10.8,15.1,,0,,,2,,,61,wg-a,,,,AAXX 15064 07558 02570 83604 10110 20100 39286 40113 60024 76162 878// 90600 333 10151 20108 60007=
07558,1999-05-15 12:00:00,16,1010.7,0.4,63,9,0,18.52,,,330,,,,,,,,,,,wg-a,,,,AAXX 15124 07558 32/// /3310 10160 20090 39293 40107 52004 91200=
07558,1999-05-15 18:00:00,17,1010.4,0.7,55,8,0,18.52,,,310,11.1,18.9,,,,,,,,,wg-a,,,,AAXX 15184 07558 32/// /3110 10170 20080 39292 40104 53007 91800 333 10189 20111=
07558,1999-05-16 00:00:00,10,1014.6,0.2,82,7,0,18.52,,,10,,,,,,,,,,,wg-a,,,,AAXX 16004 07558 32/// /0110 10100 20070 39312 40146 50002 90000=
07558,1999-05-16 06:00:00,9,1014,-0.3,87,7,500,22.224,,,20,7.4,16.7,,,,,,,,,wg-a,,,,AAXX 16064 07558 32/00 00212 10090 20070 39304 40140 57003 80000 90600 333 10167 20074=
07558,1999-05-16 12:00:00,20,1009.8,-1,37,5,0,7.408,,,100,,,,,,,,,,,wg-a,,,,AAXX 16124 07558 32/// /1004 10200 20050 39294 40098 56010 91200=
07558,1999-05-16 18:00:00,17,1008.3,-0.1,48,6,0,25.928,,,110,9,21.3,,,,,,,,,wg-a,,,,AAXX 16184 07558 32/// /1114 10170 20060 39273 40083 58001 91800 333 10213 20090=
07558,1999-05-17 00:00:00,13,1008.4,-0.4,67,7,0,29.632,,,120,,,,,,,,,,,wg-a,,,,AAXX 17004 07558 32/// /1216 10130 20070 39264 40084 55004 90000=
07558,1999-05-17 06:00:00,13,1005.3,-1.1,94,12,8000,22.224,,,130,12.1,16.9,,,,,,,,,wg-a,,,,AAXX 17064 07558 12358 71312 10130 20120 39237 40053 58011 60004 875// 90600 333 10169 20121=
07558,1999-05-17 12:00:00,11,1005.5,0.5,100,11,500,29.632,,,190,,,,31,,,,,,61,wg-a,,,,AAXX 17124 07558 12205 81916 10110 20110 39232 40055 53005 60317 76164 885// 91200=
07558,1999-05-17 18:00:00,7,1007,0.3,100,7,0,22.224,,,360,7.2,13.7,,,,,,,,,wg-a,,,,AAXX 17184 07558 32/// /3612 10070 20070 39235 40070 51003 91800 333 10137 20072=
07558,1999-05-18 00:00:00,10,1008.2,0.7,100,10,0,14.816,,,130,,,,,,,,,,,wg-a,,,,AAXX 18004 07558 32/// /1308 10100 20100 39255 40082 52007 90000=
07558,1999-05-18 06:00:00,11,1008.6,0.8,94,10,15000,22.224,,,130,6.8,11.5,,,,,59,,,,wg-a,,,,AAXX 18064 07558 12365 71312 10110 20100 39262 40086 53008 60594 875// 90600 333 10115 20068=
07558,1999-05-18 12:00:00,16,1008,-0.2,72,11,25000,50.004,,,140,,,,,,,,,,,wg-a,,,,AAXX 18124 07558 32475 61427 10160 20110 39270 40080 58002 86200 91200=
07558,1999-05-18 18:00:00,13,1007.8,-0.3,72,8,0,31.484,,,120,11.4,17.3,,,,,,,,,wg-a,,,,AAXX 18184 07558 32/// /1217 10130 20080 39258 40078 58003 91800 333 10173 20114=
07558,1999-05-19 00:00:00,11,1009.6,-0.7,94,10,0,31.484,,,130,,,,1,,,,,,,wg-a,,,,AAXX 19004 07558 12/// /1317 10110 20100 39269 40096 58007 60017 90000=
07558,1999-05-19 06:00:00,8,1012,1.7,100,8,20000,22.224,,,300,7.6,12.8,,30,,,31,,,91,wg-a,,,,AAXX 19064 07558 02570 73012 10080 20080 39283 40120 53017 60314 79198 8693/ 90600 333 10128 20076 60307=
07558,1999-05-19 12:00:00,14,1012.2,0.3,72,9,500,22.224,,,230,,,,,,,,,,1,wg-a,,,,AAXX 19124 07558 32500 62312 10140 20090 39301 40122 52003 70162 85231 91200=
07558,1999-05-19 18:00:00,11,1014,0.7,82,8,0,22.224,,,230,8.1,15.6,,,,,,,,,wg-a,,,,AAXX 19184 07558 32/// /2312 10110 20080 39311 40140 53007 91800 333 10156 20081=
07558,1999-05-20 00:00:00,9,1016.2,-0.4,100,9,0,7.408,,,190,,,,,,,,,,,wg-a,,,,AAXX 20004 07558 32/// /1904 10090 20090 39323 40162 58004 90000=
07558,1999-05-20 06:00:00,8,1016.4,0.4,100,8,500,3.704,,,270,7.6,11.4,,1,,,5,,,61,wg-a,,,,AAXX 20064 07558 02300 82702 10080 20080 39324 40164 53004 60054 76186 885// 90600 333 10114 20076 60017=
07558,1999-05-20 12:00:00,11,1015.8,0,87,9,10000,29.632,,,300,,,,1,,,,,,25,wg-a,,,,AAXX 20124 07558 12460 83016 10110 20090 39327 40158 50000 60017 72586 875// 91200=
07558,1999-05-20 18:00:00,10,1017.1,0.8,87,8,0,18.52,,,270,8.1,13.4,,2,,,,,,,wg-a,,,,AAXX 20184 07558 12/// /2710 10100 20080 39335 40171 53008 60027 91800 333 10134 20081=
07558,1999-05-21 00:00:00,8,1018.3,-0.2,100,8,0,25.928,,,270,,,,0,,,,,,,wg-a,,,,AAXX 21004 07558 12/// /2714 10080 20080 39341 40183 56002 60007 90000=
07558,1999-05-21 06:00:00,9,1017.6,0.2,100,9,6000,46.3,,,290,8.1,10,,0,,,9,,,50,wg-a,,,,AAXX 21064 07558 02456 82925 10090 20090 39337 40176 53002 60094 75065 885// 90600 333 10100 20081 60007=
07558,1999-05-21 12:00:00,10,1020,0.9,93,9,6000,42.596,,,300,,,,,,,,,,2,wg-a,,,,AAXX 21124 07558 02456 73023 10100 20090 39362 40200 51009 61000 70252 875// 91200 333 ////=
07558,1999-05-21 18:00:00,11,1020.6,0.4,87,9,0,42.596,,,300,8.8,12.7,,,,,,,,,wg-a,,,,AAXX 21184 07558 32/// /3023 10110 20090 39371 40206 53004 91800 333 10127 20088=
07558,1999-05-22 00:00:00,10,1021.9,-0.1,93,9,0,38.892,,,300,,,,,,,,,,,wg-a,,,,AAXX 22004 07558 32/// /3021 10100 20090 39380 40219 58001 90000=
07558,1999-05-22 06:00:00,9,1022.6,0.5,93,8,7000,35.188,,,300,8.8,11.2,,,,,,,,,wg-a,,,,AAXX 22064 07558 12457 73019 10090 20080 39384 40226 53005 60004 86551 90600 333 10112 20088=
07558,1999-05-22 12:00:00,13,1022.7,-0.1,82,10,0,31.484,,,320,,,,,,,,,,,wg-a,,,,AAXX 22124 07558 32/// /3217 10130 20100 39394 40227 58001 91200=
07558,1999-05-22 18:00:00,13,1022.9,0.6,88,11,0,14.816,,,320,8.9,14,,,,,,,,,wg-a,,,,AAXX 22184 07558 32/// /3208 10130 20110 39397 40229 52006 91800 333 10140 20089=
07558,1999-05-23 06:00:00,11,1023.2,0.4,94,10,10000,29.632,,,320,10.7,12.8,,,,,,,,,wg-a,,,,AAXX 23064 07558 12460 73216 10110 20100 39395 40232 53004 60004 878// 90600 333 10128 20107=
07558,1999-05-23 12:00:00,16,1020.9,-0.7,63,9,0,22.224,,,340,,,,,,,,,,,wg-a,,,,AAXX 23124 07558 32/// /3412 10160 20090 39387 40209 58007 91200=
07558,1999-05-23 18:00:00,15,1020.4,-0,77,11,0,25.928,,,320,11.1,18.8,,,,,,,,,wg-a,,,,AAXX 23184 07558 32/// /3214 10150 20110 39381 40204 55000 91800 333 10188 20111=
07558,1999-05-24 00:00:00,10,1022.7,-0.4,82,7,0,11.112,,,20,,,,,,,,,,,wg-a,,,,AAXX 24004 07558 32/// /0206 10100 20070 39385 40227 58004 90000=
07558,1999-05-24 06:00:00,10,1022.3,0.6,87,8,500,7.408,,,360,7.8,15.9,,,,,,,,,wg-a,,,,AAXX 24064 07558 32/00 03604 10100 20080 39382 40223 53006 80000 90600 333 10159 20078=
07558,1999-05-24 12:00:00,20,1018.5,-0.6,60,12,0,11.112,,,250,,,,,,,,,,,wg-a,,,,AAXX 24124 07558 32/// /2506 10200 20120 39376 40185 58006 91200=
07558,1999-05-24 18:00:00,21,1017,-0.3,53,11,0,14.816,,,250,9.7,22,,,,,,,,,wg-a,,,,AAXX 24184 07558 32/// /2508 10210 20110 39365 40170 55003 91800 333 10220 20097=
07558,1999-05-25 00:00:00,14,1019.8,-0.6,88,12,0,3.704,,,270,,,,,,,,,,,wg-a,,,,AAXX 25004 07558 32/// /2702 10140 20120 39372 40198 58006 90000=
07558,1999-05-25 06:00:00,13,1020.3,0.4,94,12,0,7.408,,,320,10.7,21,,0,,,,,,,wg-a,,,,AAXX 25064 07558 12/// /3204 10130 20120 39374 40203 53004 60007 90600 333 10210 20107=
07558,1999-05-25 12:00:00,21,1017.2,-0.9,56,12,20000,14.816,,,340,,,,,,,,,,,wg-a,,,,AAXX 25124 07558 32570 33408 10210 20120 39368 40172 58009 82101 91200=
07558,1999-05-25 18:00:00,20,1016.4,-0.4,53,10,0,22.224,,,300,12.9,22.6,,,,,,,,,wg-a,,,,AAXX 25184 07558 32/// /3012 10200 20100 39358 40164 55004 91800 333 10226 20129=
07558,1999-05-26 00:00:00,15,1018.7,-0.6,72,10,0,0,,,0,,,,,,,,,,,wg-a,,,,AAXX 26004 07558 32/// /0000 10150 20100 39364 40187 58006 90000=
07558,1999-05-26 06:00:00,13,1018.3,0.2,88,11,500,7.408,,,20,11.8,20.4,,,,,,,,,wg-a,,,,AAXX 26064 07558 12/00 30204 10130 20110 39357 40183 53002 60004 80002 90600 333 10204 20118=
07558,1999-05-26 12:00:00,23,1015.4,-0.8,44,10,500,11.112,,,120,,,,,,,,,,,wg-a,,,,AAXX 26124 07558 32600 41206 10230 20100 39354 40154 58008 83102 91200=
07558,1999-05-26 18:00:00,20,1015.1,-0,53,10,0,25.928,,,140,13.3,23.9,,,,,,,,,wg-a,,,,AAXX 26184 07558 32/// /1414 10200 20100 39344 40151 55000 91800 333 10239 20133=
07558,1999-05-27 00:00:00,15,1017.8,0,59,7,0,14.816,,,130,,,,,,,,,,,wg-a,,,,AAXX 27004 07558 32/// /1308 10150 20070 39354 40178 50000 90000=
07558,1999-05-27 06:00:00,15,1017.6,0.9,51,5,500,11.112,,,100,14.1,19.9,,,,,,,,,wg-a,,,,AAXX 27064 07558 12/00 31006 10150 20050 39354 40176 53009 60004 80001 90600 333 10199 20141=
07558,1999-05-27 12:00:00,19,1017.5,0.6,52,9,500,29.632,,,130,,,,,,,,,,,wg-a,,,,AAXX 27124 07558 32/00 61316 10190 20090 39362 40175 53006 82032 91200=
07558,1999-05-27 18:00:00,16,1019.3,1.1,59,8,0,18.52,,,110,15.3,20.2,,,,,,,,,wg-a,,,,AAXX 27184 07558 32/// /1110 10160 20080 39372 40193 50011 91800 333 10202 20153=
07558,1999-05-28 00:00:00,12,1022.7,1.4,94,11,0,7.408,,,90,,,,,,,,,,,wg-a,,,,AAXX 28004 07558 32/// /0904 10120 20110 39393 40227 51014 90000=
07558,1999-05-28 06:00:00,15,1022.1,0.3,59,7,500,3.704,,,360,11.9,16.2,,,,,,,,,wg-a,,,,AAXX 28064 07558 12/00 23602 10150 20070 39395 40221 53003 60004 82031 90600 333 10162 20119=
07558,1999-05-28 12:00:00,15,1022.1,0.3,59,7,500,3.704,,,360,11.9,16.2,,,,,,,,,wg-a,,,,AAXX 28124 07558 12/00 23602 10150 20070 39395 40221 53003 60004 82031 91200 333 10162 20119=
07558,1999-05-28 18:00:00,19,1018.8,-0.8,46,7,0,29.632,,,130,15.1,23.5,,,,,,,,,wg-a,,,,AAXX 28184 07558 32/// /1316 10190 20070 39375 40188 56008 91800 333 10235 20151=
07558,1999-05-29 00:00:00,15,1020.2,-0.4,59,7,0,22.224,,,120,,,,,,,,,,,wg-a,,,,AAXX 29004 07558 32/// /1212 10150 20070 39376 40202 58004 90000=
07558,1999-05-29 06:00:00,14,1020.2,0.6,63,7,500,14.816,,,130,13.1,18.8,,,,,,,,,wg-a,,,,AAXX 29064 07558 12/00 41308 10140 20070 39376 40202 53006 60004 80002 90600 333 10188 20131=
07558,1999-05-29 12:00:00,22,1017.9,-0.4,43,9,0,31.484,,,130,,,,,,,,,,,wg-a,,,,AAXX 29124 07558 32/// /1317 10220 20090 39376 40179 58004 91200=
07558,1999-05-29 18:00:00,19,1017.5,-0.1,52,9,0,18.52,,,130,14.5,23,,,,,,,,,wg-a,,,,AAXX 29184 07558 32/// /1310 10190 20090 39364 40175 55001 91800 333 10230 20145=
07558,1999-05-30 00:00:00,16,1017.6,-0.8,48,5,0,22.224,,,130,,,,,,,,,,,wg-a,,,,AAXX 30004 07558 32/// /1312 10160 20050 39357 40176 57008 90000=
07558,1999-05-30 06:00:00,15,1017.8,1.1,72,10,20000,18.52,,,120,14,19,,,,,,,,,wg-a,,,,AAXX 30064 07558 12570 61210 10150 20100 39357 40178 53011 60004 82182 90600 333 10190 20140=
07558,1999-05-30 12:00:00,23,1016.1,-0.2,47,11,0,29.632,,,140,,,,,,,,,,,wg-a,,,,AAXX 30124 07558 32/// /1416 10230 20110 39361 40161 56002 91200=
07558,1999-05-30 18:00:00,21,1016.4,-0.4,40,7,0,18.52,,,110,15.4,23.7,,,,,,,,,wg-a,,,,AAXX 30184 07558 32/// /1110 10210 20070 39358 40164 56004 91800 333 10237 20154=
07558,1999-05-31 00:00:00,16,1019.6,0.6,55,7,0,7.408,,,120,,,,,,,,,,,wg-a,,,,AAXX 31004 07558 32/// /1204 10160 20070 39375 40196 53006 90000=
07558,1999-05-31 06:00:00,16,1019.6,0.6,59,8,15000,0,,,0,14.4,20.8,,,,,,,,,wg-a,,,,AAXX 31064 07558 12/65 60000 10160 20080 39376 40196 53006 60004 84082 90600 333 10208 20144=
07558,1999-05-31 12:00:00,22,1018.3,-0.3,53,12,15000,14.816,,,150,,,,,,,,,,,wg-a,,,,AAXX 31124 07558 32/65 71508 10220 20120 39380 40183 55003 85082 91200=
07558,1999-05-31 18:00:00,21,1017.6,-0,49,10,0,14.816,,,150,16.3,23.4,,,,,,,,,wg-a,,,,AAXX 31184 07558 32/// /1508 10210 20100 39370 40176 55000 91800 333 10234 20163=
07558,1999-06-01 00:00:00,17,1019,0,59,9,0,7.408,,,20,,,,,,,,,,,wg-a,,,,AAXX 01004 07558 32/// /0204 10170 20090 39373 40190 50000 90000=
07558,1999-06-01 06:00:00,14,1020,-0.8,77,10,20000,7.408,,,30,13.3,20.8,,,,,,,,,wg-a,,,,AAXX 01064 07558 12/70 30304 10140 20100 39374 40200 56008 60004 80001 90600 333 10208 20133=
07558,1999-06-01 12:00:00,27,1015.3,-0.5,42,13,500,14.816,,,160,,,,,,,,,,,wg-a,,,,AAXX 01124 07558 32400 41608 10270 20130 39365 40153 58005 81101 91200=
07558,1999-06-01 18:00:00,22,1013.5,-3.2,57,13,0,25.928,,,120,14,27.5,,,,,,,,,wg-a,,,,AAXX 01184 07558 32/// /1214 10220 20130 39336 40135 58032 91800 333 10275 20140=
07558,1999-06-02 00:00:00,17,1017,-0.1,63,10,0,7.408,,,80,,,,,,,,,,,wg-a,,,,AAXX 02004 07558 32/// /0804 10170 20100 39353 40170 58001 90000=
07558,1999-06-02 06:00:00,17,1015.4,-0.1,59,9,25000,11.112,,,130,15.9,22,,,,,,,,,wg-a,,,,AAXX 02064 07558 12/75 71306 10170 20090 39338 40154 58001 60004 85082 90600 333 10220 20159=
07558,1999-06-02 12:00:00,19,1016,0.2,56,10,25000,22.224,,,300,,,,,,,,,,,wg-a,,,,AAXX 02124 07558 32575 63012 10190 20100 39349 40160 52002 85282 91200=
07558,1999-06-02 18:00:00,18,1017.7,0.3,56,9,0,22.224,,,290,14.1,21.7,,,,,,,,,wg-a,,,,AAXX 02184 07558 32/// /2912 10180 20090 39363 40177 53003 91800 333 10217 20141=
07558,1999-06-03 00:00:00,12,1020.3,-0.4,82,9,0,11.112,,,360,,,,,,,,,,,wg-a,,,,AAXX 03004 07558 32/// /3606 10120 20090 39370 40203 58004 90000=
07558,1999-06-03 06:00:00,12,1018.1,-0.5,82,9,500,7.408,,,10,10.2,18,,,,,,,,,wg-a,,,,AAXX 03064 07558 32/00 00104 10120 20090 39351 40181 56005 80000 90600 333 10180 20102=
07558,1999-06-03 12:00:00,22,1013.4,-1.3,50,11,500,14.816,,,160,,,,,,,,,,,wg-a,,,,AAXX 03124 07558 32500 21608 10220 20110 39335 40134 57013 82102 91200=
07558,1999-06-03 18:00:00,15,1015.7,1.3,72,10,0,25.928,,,320,12.4,24.2,,1,,,,,,,wg-a,,,,AAXX 03184 07558 12/// /3214 10150 20100 39337 40157 53013 60017 91800 333 10242 20124=
07558,1999-06-04 00:00:00,10,1020.9,0.2,82,7,0,18.52,,,270,,,,,,,,,,,wg-a,,,,AAXX 04004 07558 32/// /2710 10100 20070 39370 40209 53002 90000=
07558,1999-06-04 06:00:00,10,1021.3,0.9,87,8,20000,11.112,,,250,9.2,15.2,,,,,2,,,,wg-a,,,,AAXX 04064 07558 12570 72506 10100 20080 39374 40213 51009 60024 875// 90600 333 10152 20092=
07558,1999-06-04 12:00:00,16,1018,-0.7,55,7,500,29.632,,,290,,,,,,,,,,,wg-a,,,,AAXX 04124 07558 32500 52916 10160 20070 39359 40180 58007 85200 91200=
07558,1999-06-04 18:00:00,15,1016.8,-0.8,67,9,0,11.112,,,290,9.7,16.4,,,,,,,,,wg-a,,,,AAXX 04184 07558 32/// /2906 10150 20090 39346 40168 56008 91800 333 10164 20097=
07558,1999-06-05 00:00:00,11,1015.9,-1.6,82,8,0,7.408,,,80,,,,,,,,,,,wg-a,,,,AAXX 05004 07558 32/// /0804 10110 20080 39326 40159 58016 90000=
07558,1999-06-05 06:00:00,9,1014,-0.5,93,8,500,7.408,,,340,8.3,15,,0,,,,,,,wg-a,,,,AAXX 05064 07558 02/00 63404 10090 20080 39304 40140 56005 60004 85031 90600 333 10150 20083 60007=
07558,1999-06-05 12:00:00,18,1009.9,-0.7,68,12,0,11.112,,,290,,,,,,,,,,,wg-a,,,,AAXX 05124 07558 32/// /2906 10180 20120 39293 40099 58007 91200=
07558,1999-06-05 18:00:00,12,1010.7,0.1,82,9,0,18.52,,,350,9.1,19.2,,,,,,,,,wg-a,,,,AAXX 05184 07558 32/// /3510 10120 20090 39281 40107 53001 91800 333 10192 20091=
07558,1999-06-06 00:00:00,8,1014,-0.1,93,7,0,14.816,,,350,,,,3,,,,,,,wg-a,,,,AAXX 06004 07558 12/// /3508 10080 20070 39302 40140 58001 60037 90000=
07558,1999-06-06 06:00:00,8,1014.4,0.7,100,8,15000,3.704,,,270,7.9,11.6,,,,,4,,,,wg-a,,,,AAXX 06064 07558 12565 72702 10080 20080 39306 40144 51007 60044 8683/ 90600 333 10116 20079=
07558,1999-06-06 12:00:00,8,1014.4,0.7,100,8,15000,3.704,,,270,7.9,,,,,,4,,,,wg-a,,,,AAXX 06124 07558 12565 72702 10080 20080 39306 40144 51007 60044 8683/ 91200 333 20079=
07558,1999-06-06 18:00:00,16,1013,0.4,51,6,0,14.816,,,280,8.3,17.2,,,,,,,,,wg-a,,,,AAXX 06184 07558 32/// /2808 10160 20060 39314 40130 53004 91800 333 10172 20083=
07558,1999-06-07 00:00:00,10,1016.4,-0,82,7,0,7.408,,,350,,,,,,,,,,,wg-a,,,,AAXX 07004 07558 32/// /3504 10100 20070 39328 40164 54000 90000=
07558,1999-06-07 06:00:00,10,1016.7,0.2,87,8,500,7.408,,,10,8.6,16.3,,,,,,,,,wg-a,,,,AAXX 07064 07558 12/00 50104 10100 20080 39331 40167 50002 60004 82031 90600 333 10163 20086=
07558,1999-06-07 12:00:00,16,1015.4,0.4,51,6,500,11.112,,,240,,,,,,,,,,,wg-a,,,,AAXX 07124 07558 32600 72406 10160 20060 39337 40154 53004 82136 91200=
07558,1999-06-07 18:00:00,14,1017,0.7,82,11,0,7.408,,,250,9.8,16.9,,,,,,,,,wg-a,,,,AAXX 07184 07558 32/// /2504 10140 20110 39346 40170 53007 91800 333 10169 20098=
07558,1999-06-08 00:00:00,10,1021.8,0.8,87,8,0,25.928,,,320,,,,,,,,,,,wg-a,,,,AAXX 08004 07558 32/// /3214 10100 20080 39379 40218 51008 90000=
07558,1999-06-08 06:00:00,10,1024.3,1.4,76,6,500,14.816,,,310,8.2,13.8,,,,,,,,,wg-a,,,,AAXX 08064 07558 12600 33108 10100 20060 39400 40243 53014 60004 83101 90600 333 10138 20082=
07558,1999-06-08 12:00:00,14,1024.2,0.4,47,3,500,31.484,,,310,,,,,,,,,,,wg-a,,,,AAXX 08124 07558 32600 53117 10140 20030 39411 40242 51004 85100 91200=
07558,1999-06-08 18:00:00,14,1023.9,0.3,51,4,0,25.928,,,320,9.5,15.9,,,,,,,,,wg-a,,,,AAXX 08184 07558 32/// /3214 10140 20040 39409 40239 53003 91800 333 10159 20095=
07558,1999-06-09 00:00:00,9,1026.2,-0.6,71,4,0,11.112,,,310,,,,,,,,,,,wg-a,,,,AAXX 09004 07558 32/// /3106 10090 20040 39415 40262 55006 90000=
07558,1999-06-09 12:00:00,19,1021.4,-1.1,40,5,500,18.52,,,340,,,,,,,,,,,wg-a,,,,AAXX 09124 07558 32/00 23410 10190 20050 39399 40214 58011 80001 91200=
07558,1999-06-09 18:00:00,20,1019.4,-0.4,46,8,0,25.928,,,310,9.5,22.1,,,,,,,,,wg-a,,,,AAXX 09184 07558 32/// /3114 10200 20080 39383 40194 56004 91800 333 10221 20095=
07558,1999-06-10 00:00:00,14,1022.8,-0.2,67,8,0,7.408,,,250,,,,,,,,,,,wg-a,,,,AAXX 10004 07558 32/// /2504 10140 20080 39399 40228 56002 90000=
07558,1999-06-10 06:00:00,12,1022.5,0,88,10,10000,3.704,,,260,11.5,19.9,,,,,,,,,wg-a,,,,AAXX 10064 07558 12/60 72602 10120 20100 39391 40225 50000 60004 8705/ 90600 333 10199 20115=
07558,1999-06-10 12:00:00,16,1021.4,-0.5,72,11,15000,14.816,,,190,,,,,,,,,,,wg-a,,,,AAXX 10124 07558 32465 61908 10160 20110 39391 40214 58005 8685/ 91200=
07558,1999-06-10 18:00:00,16,1020.8,0.3,68,10,0,22.224,,,330,11.9,20,,,,,,,,,wg-a,,,,AAXX 10184 07558 32/// /3312 10160 20100 39386 40208 51003 91800 333 10200 20119=
07558,1999-06-11 00:00:00,13,1022.1,-0.4,77,9,0,14.816,,,330,,,,,,,,,,,wg-a,,,,AAXX 11004 07558 32/// /3308 10130 20090 39391 40221 58004 90000=
07558,1999-06-11 06:00:00,12,1022.3,0.4,71,7,20000,3.704,,,340,10,16.8,,,,,,,,,wg-a,,,,AAXX 11064 07558 12470 13402 10120 20070 39389 40223 51004 60004 81600 90600 333 10168 20100=
07558,1999-06-11 12:00:00,19,1019.5,-0.7,40,5,500,29.632,,,330,,,,,,,,,,,wg-a,,,,AAXX 11124 07558 32400 43316 10190 20050 39380 40195 58007 84100 91200=
07558,1999-06-11 18:00:00,18,1018.8,-0.3,42,5,0,29.632,,,320,12.4,20.7,,,,,,,,,wg-a,,,,AAXX 11184 07558 32/// /3216 10180 20050 39373 40188 55003 91800 333 10207 20124=
07558,1999-06-12 00:00:00,12,1021.8,0.1,62,5,0,11.112,,,10,,,,,,,,,,,wg-a,,,,AAXX 12004 07558 32/// /0106 10120 20050 39384 40218 51001 90000=
07558,1999-06-12 06:00:00,12,1021.8,0.2,71,7,500,7.408,,,360,9.3,18,,,,,,,,,wg-a,,,,AAXX 12064 07558 32/00 03604 10120 20070 39383 40218 53002 80000 90600 333 10180 20093=
07558,1999-06-12 12:00:00,22,1018.5,-0.3,35,6,0,11.112,,,250,,,,,,,,,,,wg-a,,,,AAXX 12124 07558 32/// /2506 10220 20060 39380 40185 58003 91200=
07558,1999-06-12 18:00:00,21,1017.6,-0.6,35,5,0,14.816,,,330,11.7,22.8,,,,,,,,,wg-a,,,,AAXX 12184 07558 32/// /3308 10210 20050 39368 40176 55006 91800 333 10228 20117=
07558,1999-06-13 00:00:00,14,1020.6,0.1,67,8,0,7.408,,,330,,,,,,,,,,,wg-a,,,,AAXX 13004 07558 32/// /3304 10140 20080 39378 40206 52001 90000=
07558,1999-06-13 06:00:00,13,1020,-0,72,8,20000,7.408,,,20,11.5,20.7,,,,,,,,,wg-a,,,,AAXX 13064 07558 12570 60204 10130 20080 39370 40200 55000 60004 83582 90600 333 10207 20115=
07558,1999-06-13 12:00:00,21,1018.1,-0.1,43,8,0,25.928,,,280,,,,,,,,,,,wg-a,,,,AAXX 13124 07558 32/// /2814 10210 20080 39374 40181 58001 91200=
07558,1999-06-13 18:00:00,20,1017.8,-0.1,37,5,0,29.632,,,290,12.8,22.4,,,,,,,,,wg-a,,,,AAXX 13184 07558 32/// /2916 10200 20050 39367 40178 55001 91800 333 10224 20128=
07558,1999-06-14 00:00:00,13,1020.7,-0.3,67,7,0,11.112,,,340,,,,,,,,,,,wg-a,,,,AAXX 14004 07558 32/// /3406 10130 20070 39375 40207 58003 90000=
07558,1999-06-14 06:00:00,11,1020.8,0.5,76,7,500,18.52,,,340,8.8,19.6,,,,,,,,,wg-a,,,,AAXX 14064 07558 12/00 33410 10110 20070 39371 40208 53005 60004 82031 90600 333 10196 20088=
07558,1999-06-14 12:00:00,18,1018.7,-0.3,42,5,500,25.928,,,330,,,,,,,,,,,wg-a,,,,AAXX 14124 07558 32600 53314 10180 20050 39370 40187 57003 85100 91200=
07558,1999-06-14 18:00:00,16,1019.5,0.7,48,5,0,25.928,,,340,10.8,19.1,,,,,,,,,wg-a,,,,AAXX 14184 07558 32/// /3414 10160 20050 39374 40195 53007 91800 333 10191 20108=
07558,1999-06-15 00:00:00,12,1021.8,-0.2,71,7,0,22.224,,,320,,,,,,,,,,,wg-a,,,,AAXX 15004 07558 32/// /3212 10120 20070 39384 40218 58002 90000=
07558,1999-06-15 06:00:00,14,1021.4,1,67,8,15000,18.52,,,300,11.5,16.7,,,,,,,,,wg-a,,,,AAXX 15064 07558 12565 53010 10140 20080 39386 40214 53010 60004 85500 90600 333 10167 20115=
07558,1999-06-15 12:00:00,19,1020.6,0.3,52,9,20000,31.484,,,350,,,,,,,,,,,wg-a,,,,AAXX 15124 07558 32470 63517 10190 20090 39391 40206 52003 86800 91200=
07558,1999-06-15 18:00:00,19,1019.8,0.5,49,8,0,18.52,,,20,13.9,21.2,,,,,,,,,wg-a,,,,AAXX 15184 07558 32/// /0210 10190 20080 39385 40198 53005 91800 333 10212 20139=
07558,1999-06-16 00:00:00,14,1021.8,-0.2,58,6,0,14.816,,,10,,,,,,,,,,,wg-a,,,,AAXX 16004 07558 32/// /0108 10140 20060 39389 40218 57002 90000=
07558,1999-06-16 06:00:00,15,1020.9,-0.1,59,7,500,11.112,,,360,12.3,19.1,,,,,,,,,wg-a,,,,AAXX 16064 07558 32/00 03606 10150 20070 39383 40209 57001 80000 90600 333 10191 20123=
07558,1999-06-16 12:00:00,24,1017.9,-0.2,38,9,500,11.112,,,180,,,,,,,,,,,wg-a,,,,AAXX 16124 07558 32600 31806 10240 20090 39380 40179 58002 83100 91200=
07558,1999-06-16 18:00:00,23,1016.8,-0.2,38,8,0,18.52,,,210,14.7,25.2,,,,,,,,,wg-a,,,,AAXX 16184 07558 32/// /2110 10230 20080 39367 40168 55002 91800 333 10252 20147=
07558,1999-06-17 06:00:00,16,1019.3,0.6,63,9,25000,7.408,,,360,14.1,23.4,,,,,,,,,wg-a,,,,AAXX 17064 07558 12/75 53604 10160 20090 39373 40193 53006 60004 80004 90600 333 10234 20141=
07558,1999-06-17 12:00:00,23,1017.2,-0.5,36,7,500,14.816,,,350,,,,,,,,,,,wg-a,,,,AAXX 17124 07558 32600 53508 10230 20070 39372 40172 56005 81102 91200=
07558,1999-06-17 18:00:00,22,1016.7,-0.3,38,7,0,29.632,,,340,16,24.4,,,,,,,,,wg-a,,,,AAXX 17184 07558 32/// /3416 10220 20070 39364 40167 55003 91800 333 10244 20160=
07558,1999-06-18 00:00:00,16,1020.2,0.2,59,8,0,18.52,,,350,,,,,,,,,,,wg-a,,,,AAXX 18004 07558 32/// /3510 10160 20080 39379 40202 51002 90000=
07558,1999-06-18 06:00:00,15,1020.2,0.4,77,11,15000,11.112,,,250,13.5,22.5,,,,,,,,,wg-a,,,,AAXX 18064 07558 12/65 22506 10150 20110 39377 40202 53004 60004 80002 90600 333 10225 20135=
07558,1999-06-18 12:00:00,22,1017.4,-0.7,41,8,500,31.484,,,290,,,,,,,,,,,wg-a,,,,AAXX 18124 07558 32500 52917 10220 20080 39370 40174 56007 84102 91200=
07558,1999-06-18 18:00:00,20,1016.6,-0.1,46,8,0,31.484,,,310,14.6,24.3,,,,,,,,,wg-a,,,,AAXX 18184 07558 32/// /3117 10200 20080 39358 40166 55001 91800 333 10243 20146=
07558,1999-06-19 00:00:00,13,1020.3,0.4,67,7,0,14.816,,,330,,,,,,,,,,,wg-a,,,,AAXX 19004 07558 32/// /3308 10130 20070 39373 40203 51004 90000=
07558,1999-06-19 06:00:00,13,1020.6,0.5,62,6,500,11.112,,,340,10.2,20.1,,,,,,,,,wg-a,,,,AAXX 19064 07558 12/00 23406 10130 20060 39375 40206 53005 60004 80002 90600 333 10201 20102=
07558,1999-06-19 12:00:00,20,1017.7,-0.5,40,6,0,31.484,,,310,,,,,,,,,,,wg-a,,,,AAXX 19124 07558 32/// /3117 10200 20060 39368 40177 56005 91200=
07558,1999-06-19 18:00:00,21,1016.8,-0.2,30,3,0,29.632,,,310,12.9,22.5,,,,,,,,,wg-a,,,,AAXX 19184 07558 32/// /3116 10210 20030 39361 40168 55002 91800 333 10225 20129=
07558,1999-06-20 00:00:00,13,1020.8,0,51,3,0,25.928,,,340,,,,,,,,,,,wg-a,,,,AAXX 20004 07558 32/// /3414 10130 20030 39377 40208 50000 90000=
07558,1999-06-20 06:00:00,13,1020.5,0.2,58,5,500,14.816,,,340,10.1,20.7,,,,,,,,,wg-a,,,,AAXX 20064 07558 12/00 53408 10130 20050 39373 40205 53002 60004 80002 90600 333 10207 20101=
07558,1999-06-20 12:00:00,20,1018,-0.5,43,7,0,35.188,,,290,,,,,,,,,,,wg-a,,,,AAXX 20124 07558 32/// /2919 10200 20070 39370 40180 57005 91200=
07558,1999-06-20 18:00:00,18,1017.5,-0.1,56,9,0,29.632,,,290,12.5,20.9,,,,,,,,,wg-a,,,,AAXX 20184 07558 32/// /2916 10180 20090 39362 40175 55001 91800 333 10209 20125=
07558,1999-06-21 00:00:00,14,1018.4,-0.9,72,9,0,14.816,,,290,,,,,,,,,,,wg-a,,,,AAXX 21004 07558 32/// /2908 10140 20090 39358 40184 58009 90000=
07558,1999-06-21 06:00:00,12,1017.1,-0.5,94,11,6000,14.816,,,250,11.4,18.3,,,,,,,,50,wg-a,,,,AAXX 21064 07558 02456 82508 10120 20110 39341 40171 57005 61000 75052 885// 90600 333 10183 20114 6100=
07558,1999-06-21 12:00:00,16,1015.2,-0.4,42,3,20000,50.004,,,310,,,,,,,,,,1,wg-a,,,,AAXX 21124 07558 32570 23127 10160 20030 39334 40152 58004 70154 82100 91200=
07558,1999-06-21 18:00:00,14,1017.6,0.9,44,2,0,38.892,,,320,11.6,17.9,,,,,,,,,wg-a,,,,AAXX 21184 07558 32/// /3221 10140 20020 39351 40176 53009 91800 333 10179 20116=
07558,1999-06-22 00:00:00,9,1021.7,0.5,66,3,0,35.188,,,320,,,,,,,,,,,wg-a,,,,AAXX 22004 07558 32/// /3219 10090 20030 39374 40217 50005 90000=
07558,1999-06-22 06:00:00,10,1022.4,0.9,62,3,500,18.52,,,340,7.4,14.3,,,,,,,,,wg-a,,,,AAXX 22064 07558 32/00 03410 10100 20030 39382 40224 51009 80000 90600 333 10143 20074=
07558,1999-06-22 12:00:00,18,1018.7,-0.5,34,2,0,29.632,,,330,,,,,,,,,,,wg-a,,,,AAXX 22124 07558 32/// /3316 10180 20020 39369 40187 58005 91200=
07558,1999-06-22 18:00:00,18,1016.4,-0.6,30,0,0,25.928,,,340,9.7,20.2,,,,,,,,,wg-a,,,,AAXX 22184 07558 32/// /3414 10180 20000 39350 40164 56006 91800 333 10202 20097=
07558,1999-06-23 00:00:00,10,1019.7,-0.1,53,1,0,25.928,,,10,,,,,,,,,,,wg-a,,,,AAXX 23004 07558 32/// /0114 10100 20010 39359 40197 58001 90000=
07558,1999-06-23 06:00:00,10,1019.4,0.1,53,1,500,11.112,,,360,6.7,18.2,,,,,,,,,wg-a,,,,AAXX 23064 07558 12/00 23606 10100 20010 39354 40194 51001 60004 81031 90600 333 10182 20067=
07558,1999-06-23 12:00:00,22,1016,-0.1,20,-2,500,7.408,,,90,,,,,,,,,,,wg-a,,,,AAXX 23124 07558 32600 20904 10220 21020 39356 40160 58001 81131 91200=
07558,1999-06-23 18:00:00,24,1015.1,0.3,25,3,0,14.816,,,260,9.5,24.7,,,,,,,,,wg-a,,,,AAXX 23184 07558 32/// /2608 10240 20030 39354 40151 53003 91800 333 10247 20095=
07558,1999-06-24 00:00:00,15,1019.8,0.2,48,4,0,0,,,0,,,,,,,,,,,wg-a,,,,AAXX 24004 07558 32/// /0000 10150 20040 39373 40198 53002 90000=
07558,1999-06-24 06:00:00,14,1020.3,0.1,55,5,500,7.408,,,20,11.8,24.1,,,,,,,,,wg-a,,,,AAXX 24064 07558 32/00 00204 10140 20050 39376 40203 53001 80000 90600 333 10241 20118=
07558,1999-06-24 12:00:00,25,1017.2,-0.3,21,1,40000,7.408,,,170,,,,,,,,,,,wg-a,,,,AAXX 24124 07558 32/82 01704 10250 20010 39376 40172 58003 80000 91200=
07558,1999-06-24 18:00:00,24,1015.7,-0.5,29,5,0,25.928,,,140,14.4,27.9,,,,,,,,,wg-a,,,,AAXX 24184 07558 32/// /1414 10240 20050 39358 40157 55005 91800 333 10279 20144=
07558,1999-06-25 00:00:00,17,1019,-0.4,36,2,0,11.112,,,70,,,,,,,,,,,wg-a,,,,AAXX 25004 07558 32/// /0706 10170 20020 39370 40190 58004 90000=
07558,1999-06-25 06:00:00,18,1018.2,-0.2,32,1,500,3.704,,,70,15.7,23.5,,,,,,,,,wg-a,,,,AAXX 25064 07558 12/00 60702 10180 20010 39366 40182 55002 60004 80002 90600 333 10235 20157=
07558,1999-06-25 12:00:00,22,1018.1,1.3,27,2,500,18.52,,,170,,,,,,,,,,17,wg-a,,,,AAXX 25124 07558 32600 71710 10220 20020 39377 40181 53013 71791 83982 91200=
07558,1999-06-25 18:00:00,20,1015.7,-0.2,23,-2,0,18.52,,,100,17.8,25.1,,,,,,,,,wg-a,,,,AAXX 25184 07558 32/// /1010 10200 21020 39348 40157 58002 91800 333 10251 20178=
07558,1999-06-26 06:00:00,17,1013.5,-0.8,32,0,500,11.112,,,150,14.5,19.9,,,,,1,,,,wg-a,,,,AAXX 26064 07558 12/00 71506 10170 20000 39320 40135 55008 60014 84036 90600 333 10199 20145=
07558,1999-06-26 18:00:00,19,1011.3,-0.6,56,10,0,14.816,,,160,13.5,22.2,,,,,,,,,wg-a,,,,AAXX 26184 07558 32/// /1608 10190 20100 39307 40113 56006 91800 333 10222 20135=
07558,1999-06-27 00:00:00,14,1012.7,-1,63,7,0,11.112,,,30,,,,,,,,,,,wg-a,,,,AAXX 27004 07558 32/// /0306 10140 20070 39306 40127 58010 90000=
07558,1999-06-27 06:00:00,11,1012.1,-0.6,94,10,500,18.52,,,20,10.7,18.8,,9,,,9,,,29,wg-a,,,,AAXX 27064 07558 02500 50210 10110 20100 39292 40121 58006 60094 72998 82993 90600 333 10188 20107 60097=
07558,1999-06-27 12:00:00,22,1008.7,-0.3,46,10,0,22.224,,,190,,,,,,,,,,,wg-a,,,,AAXX 27124 07558 32/// /1912 10220 20100 39290 40087 58003 91200=
07558,1999-06-28 06:00:00,11,1019.2,1.4,76,7,20000,11.112,,,300,9.7,14.8,,,,,2,,,,wg-a,,,,AAXX 28064 07558 12570 73006 10110 20070 39358 40192 52014 60024 878// 90600 333 10148 20097=
07558,1999-06-28 12:00:00,17,1019,0.4,52,7,25000,22.224,,,300,,,,,,,,,,,wg-a,,,,AAXX 28124 07558 32575 63012 10170 20070 39372 40190 50004 86800 91200=
07558,1999-06-28 18:00:00,19,1018.1,-0.3,49,8,0,11.112,,,330,11.3,19.9,,,,,,,,,wg-a,,,,AAXX 28184 07558 32/// /3306 10190 20080 39370 40181 56003 91800 333 10199 20113=
07558,1999-06-29 00:00:00,14,1020.3,-0.8,63,7,0,7.408,,,20,,,,,,,,,,,wg-a,,,,AAXX 29004 07558 32/// /0204 10140 20070 39375 40203 57008 90000=
07558,1999-06-29 06:00:00,14,1020.8,0.6,67,8,500,7.408,,,40,11.9,19.5,,,,,,,,,wg-a,,,,AAXX 29064 07558 12/00 60404 10140 20080 39379 40208 53006 60004 85031 90600 333 10195 20119=
07558,1999-06-29 12:00:00,24,1018,-0.2,38,9,500,11.112,,,220,,,,,,,,,,,wg-a,,,,AAXX 29124 07558 32/00 52206 10240 20090 39382 40180 58002 80001 91200=
07558,1999-06-29 18:00:00,24,1018.2,0.4,41,10,0,29.632,,,290,13.1,26.7,,,,,,,,,wg-a,,,,AAXX 29184 07558 32/// /2916 10240 20100 39384 40182 53004 91800 333 10267 20131=
07558,1999-06-30 00:00:00,17,1022.7,0.3,72,12,0,25.928,,,310,,,,,,,,,,,wg-a,,,,AAXX 30004 07558 32/// /3114 10170 20120 39406 40227 51003 90000=
07558,1999-06-30 06:00:00,14,1024.1,1,82,11,20000,31.484,,,290,13.5,24.4,,,,,,,,,wg-a,,,,AAXX 30064 07558 12670 72917 10140 20110 39412 40241 53010 60004 875// 90600 333 10244 20135=
07558,1999-06-30 12:00:00,19,1022.9,-0.4,52,9,500,25.928,,,290,,,,,,,,,,,wg-a,,,,AAXX 30124 07558 32600 52914 10190 20090 39414 40229 56004 85500 91200=
07558,1999-06-30 18:00:00,20,1021.5,-0.3,53,10,0,22.224,,,320,14.3,21.4,,,,,,,,,wg-a,,,,AAXX 30184 07558 32/// /3212 10200 20100 39403 40215 56003 91800 333 10214 20143=
07558,1999-07-01 00:00:00,14,1023.2,-0.6,77,10,0,11.112,,,320,,,,,,,,,,,wg-a,,,,AAXX 01004 07558 32/// /3206 10140 20100 39404 40232 58006 90000=
07558,1999-07-01 06:00:00,14,1021.8,0.1,77,10,500,11.112,,,30,12.2,19.7,,,,,,,,,wg-a,,,,AAXX 01064 07558 32/00 00306 10140 20100 39391 40218 53001 80000 90600 333 10197 20122=
07558,1999-07-01 12:00:00,26,1017.3,-0.8,42,12,60000,11.112,,,250,,,,,,,,,,,wg-a,,,,AAXX 01124 07558 32/86 02506 10260 20120 39382 40173 57008 80000 91200=
07558,1999-07-01 18:00:00,28,1014.8,-0.8,27,7,0,14.816,,,320,14.4,29.9,,,,,,,,,wg-a,,,,AAXX 01184 07558 32/// /3208 10280 20070 39362 40148 56008 91800 333 10299 20144=
07558,1999-07-02 00:00:00,20,1016.6,-0.6,49,9,0,0,,,0,,,,,,,,,,,wg-a,,,,AAXX 02004 07558 32/// /0000 10200 20090 39359 40166 56006 90000=
07558,1999-07-02 06:00:00,19,1015.4,-0.7,56,10,20000,11.112,,,30,17.6,28,,,,,,,,,wg-a,,,,AAXX 02064 07558 12/70 20306 10190 20100 39346 40154 58007 60004 80001 90600 333 10280 20176=
07558,1999-07-02 12:00:00,31,1011,-0.7,27,10,20000,25.928,,,120,,,,,,,,,,,wg-a,,,,AAXX 02124 07558 32570 41214 10310 20100 39333 40110 58007 82201 91200=
07558,1999-07-02 18:00:00,26,1011.6,0.3,37,10,0,14.816,,,150,19.3,31.5,,,,,,,,,wg-a,,,,AAXX 02184 07558 32/// /1508 10260 20100 39328 40116 53003 91800 333 10315 20193=
07558,1999-07-03 00:00:00,19,1015.8,0.2,49,8,0,7.408,,,170,,,,,,,,,,,wg-a,,,,AAXX 03004 07558 32/// /1704 10190 20080 39348 40158 51002 90000=
07558,1999-07-03 06:00:00,17,1014.8,-0.1,63,10,20000,3.704,,,30,15.7,26.1,,,,,,,,,wg-a,,,,AAXX 03064 07558 12/70 40302 10170 20100 39334 40148 58001 60004 82081 90600 333 10261 20157=
07558,1999-07-03 12:00:00,,1014.8,-0.1,,10,0,3.704,,,30,15.7,26.1,,,,,,,,,wg-a,,,,AAXX 03124 07558 32/// /0302 1//// 20100 39334 40148 58001 91200 333 10261 20157=
07558,1999-07-03 18:00:00,25,1011.9,0.3,30,6,0,14.816,,,170,16.8,29.4,,,,,,,,,wg-a,,,,AAXX 03184 07558 32/// /1708 10250 20060 39326 40119 53003 91800 333 10294 20168=
07558,1999-07-04 00:00:00,19,1013,-0.8,43,6,0,7.408,,,90,,,,,,,,,,,wg-a,,,,AAXX 04004 07558 32/// /0904 10190 20060 39322 40130 56008 90000=
07558,1999-07-04 06:00:00,19,1011.5,-0.2,46,7,20000,11.112,,,130,17,24.5,,,,,,,,,wg-a,,,,AAXX 04064 07558 12/70 21306 10190 20070 39308 40115 56002 60004 80001 90600 333 10245 20170=
07558,1999-07-04 12:00:00,27,1007.8,-0.6,30,8,0,38.892,,,130,,,,,,,,,,,wg-a,,,,AAXX 04124 07558 32/// /1321 10270 20080 39295 40078 57006 91200=
07558,1999-07-04 18:00:00,23,1007.5,-0.4,53,13,0,29.632,,,130,19.2,28.4,,,,,,,,,wg-a,,,,AAXX 04184 07558 32/// /1316 10230 20130 39282 40075 56004 91800 333 10284 20192=
07558,1999-07-05 00:00:00,17,1011.1,0.2,72,12,0,11.112,,,20,,,,,,,,,,,wg-a,,,,AAXX 05004 07558 32/// /0206 10170 20120 39301 40111 51002 90000=
07558,1999-07-05 06:00:00,17,1010.9,0.2,72,12,500,3.704,,,270,15.3,22.5,,,,,,,,,wg-a,,,,AAXX 05064 07558 12/00 52702 10170 20120 39298 40109 53002 60004 85030 90600 333 10225 20153=
07558,1999-07-05 12:00:00,22,1009.6,0.2,53,12,500,7.408,,,160,,,,,,,,,,,wg-a,,,,AAXX 05124 07558 32600 61604 10220 20120 39300 40096 50002 83232 91200=
07558,1999-07-05 18:00:00,17,1009.6,0.3,63,10,0,64.82,,,300,16.7,26.2,,,,,,,,,wg-a,,,,AAXX 05184 07558 32/// /3035 10170 20100 39287 40096 53003 91800 333 10262 20167=
07558,1999-07-06 00:00:00,13,1016,0.4,88,11,0,7.408,,,10,,,,0,,,,,,,wg-a,,,,AAXX 06004 07558 12/// /0104 10130 20110 39334 40160 53004 60007 90000=
07558,1999-07-06 06:00:00,13,1017.7,0.9,88,11,10000,3.704,,,320,11.2,17,,,,,1,,,,wg-a,,,,AAXX 06064 07558 12260 63202 10130 20110 39349 40177 52009 60014 86500 90600 333 10170 20112=
07558,1999-07-06 12:00:00,19,1017.8,0.6,56,10,10000,22.224,,,270,,,,,,,,,,,wg-a,,,,AAXX 06124 07558 32560 62712 10190 20100 39366 40178 51006 86800 91200=
07558,1999-07-06 18:00:00,16,1020,1,77,12,0,29.632,,,290,12.8,20.5,,0,,,,,,,wg-a,,,,AAXX 06184 07558 12/// /2916 10160 20120 39380 40200 53010 60007 91800 333 10205 20128=
07558,1999-07-07 00:00:00,14,1023,0.9,82,11,0,18.52,,,300,,,,,,,,,,,wg-a,,,,AAXX 07004 07558 32/// /3010 10140 20110 39402 40230 50009 90000=
07558,1999-07-07 06:00:00,15,1024.3,2,82,12,8000,11.112,,,250,13.5,16.5,,,,,,,,,wg-a,,,,AAXX 07064 07558 12558 62506 10150 20120 39415 40243 51020 60004 86500 90600 333 10165 20135=
07558,1999-07-07 12:00:00,21,1021,-1.4,53,11,20000,35.188,,,290,,,,,,,,,,,wg-a,,,,AAXX 07124 07558 32670 42919 10210 20110 39403 40210 58014 82101 91200=
07558,1999-07-07 18:00:00,21,1021.1,-0.3,49,10,0,35.188,,,300,14.6,21.8,,,,,,,,,wg-a,,,,AAXX 07184 07558 32/// /3019 10210 20100 39401 40211 55003 91800 333 10218 20146=
07558,1999-07-08 00:00:00,15,1024,-0.1,72,10,0,29.632,,,340,,,,,,,,,,,wg-a,,,,AAXX 08004 07558 32/// /3416 10150 20100 39413 40240 58001 90000=
07558,1999-07-08 06:00:00,14,1024,0.4,72,9,500,7.408,,,280,13.3,20.5,,,,,,,,,wg-a,,,,AAXX 08064 07558 12600 42804 10140 20090 39410 40240 53004 60004 81101 90600 333 10205 20133=
07558,1999-07-08 12:00:00,23,1019.6,-1.3,36,7,500,31.484,,,350,,,,,,,,,,,wg-a,,,,AAXX 08124 07558 32600 33517 10230 20070 39394 40196 58013 83101 91200=
07558,1999-07-08 18:00:00,22,1018.8,-0,38,7,0,31.484,,,350,14.1,24.8,,,,,,,,,wg-a,,,,AAXX 08184 07558 32/// /3517 10220 20070 39383 40188 55000 91800 333 10248 20141=
07558,1999-07-09 00:00:00,16,1019.8,-1.6,68,10,0,25.928,,,330,,,,,,,,,,,wg-a,,,,AAXX 09004 07558 32/// /3314 10160 20100 39377 40198 58016 90000=
07558,1999-07-09 06:00:00,16,1018.2,0.2,59,8,500,7.408,,,350,14.8,22.1,,,,,,,,,wg-a,,,,AAXX 09064 07558 32/00 03504 10160 20080 39363 40182 51002 80000 90600 333 10221 20148=
07558,1999-07-09 12:00:00,25,1013.7,-1.2,30,6,40000,25.928,,,350,,,,,,,,,,,wg-a,,,,AAXX 09124 07558 32582 23514 10250 20060 39343 40137 56012 82100 91200=
07558,1999-07-09 18:00:00,24,1013.2,-0.2,34,7,0,29.632,,,360,16.3,26.8,,,,,,,,,wg-a,,,,AAXX 09184 07558 32/// /3616 10240 20070 39335 40132 55002 91800 333 10268 20163=
07558,1999-07-10 00:00:00,16,1015.6,-0.9,63,9,0,18.52,,,10,,,,,,,,,,,wg-a,,,,AAXX 10004 07558 32/// /0110 10160 20090 39338 40156 58009 90000=
07558,1999-07-10 06:00:00,16,1014.3,-0.1,63,9,500,25.928,,,360,13.5,23.4,,,,,,,,,wg-a,,,,AAXX 10064 07558 32/00 03614 10160 20090 39326 40143 57001 80000 90600 333 10234 20135=
07558,1999-07-10 12:00:00,23,1011.4,-0.5,36,7,0,14.816,,,310,,,,,,,,,,,wg-a,,,,AAXX 10124 07558 32/// /3108 10230 20070 39317 40114 56005 91200=
07558,1999-07-10 18:00:00,23,1010.9,0.1,38,8,0,18.52,,,290,15.8,25.7,,,,,,,,,wg-a,,,,AAXX 10184 07558 32/// /2910 10230 20080 39313 40109 53001 91800 333 10257 20158=
07558,1999-07-11 00:00:00,15,1014.1,0.1,72,10,0,7.408,,,360,,,,,,,,,,,wg-a,,,,AAXX 11004 07558 32/// /3604 10150 20100 39323 40141 51001 90000=
07558,1999-07-11 06:00:00,15,1014,0.2,77,11,500,3.704,,,320,13.9,23,,,,,,,,,wg-a,,,,AAXX 11064 07558 12/00 43202 10150 20110 39320 40140 53002 60004 81032 90600 333 10230 20139=
07558,1999-07-11 12:00:00,23,1011.6,-0.3,47,11,0,7.408,,,150,,,,,,,,,,,wg-a,,,,AAXX 11124 07558 32/// /1504 10230 20110 39320 40116 58003 91200=
07558,1999-07-11 18:00:00,22,1011.5,0.5,57,13,0,11.112,,,170,14.6,26.5,,,,,,,,,wg-a,,,,AAXX 11184 07558 32/// /1706 10220 20130 39318 40115 53005 91800 333 10265 20146=
07558,1999-07-12 00:00:00,17,1014.1,-0.1,72,12,0,11.112,,,120,,,,,,,,,,,wg-a,,,,AAXX 12004 07558 32/// /1206 10170 20120 39328 40141 58001 90000=
07558,1999-07-12 06:00:00,18,1013.2,-0.1,59,10,20000,3.704,,,20,16,22.3,,,,,,,,,wg-a,,,,AAXX 12064 07558 12/70 40202 10180 20100 39322 40132 58001 60004 82081 90600 333 10223 20160=
07558,1999-07-12 12:00:00,27,1010.2,-0.4,32,9,500,22.224,,,120,,,,,,,,,,,wg-a,,,,AAXX 12124 07558 32500 21212 10270 20090 39316 40102 58004 81101 91200=
07558,1999-07-12 18:00:00,24,1009.4,-0.1,31,6,0,22.224,,,150,18.1,27.7,,,,,,,,,wg-a,,,,AAXX 12184 07558 32/// /1512 10240 20060 39301 40094 55001 91800 333 10277 20181=
07558,1999-07-13 00:00:00,18,1012.4,0.3,52,8,0,3.704,,,330,,,,,,,,,,,wg-a,,,,AAXX 13004 07558 32/// /3302 10180 20080 39313 40124 50003 90000=
07558,1999-07-13 06:00:00,15,1011.9,0.2,72,10,15000,7.408,,,200,14.4,23.9,,,,,,,,,wg-a,,,,AAXX 13064 07558 12/65 52004 10150 20100 39303 40119 53002 60004 83081 90600 333 10239 20144=
07558,1999-07-13 12:00:00,23,1009.1,-0.4,50,12,15000,18.52,,,260,,,,,,,,,,,wg-a,,,,AAXX 13124 07558 32565 62610 10230 20120 39298 40091 58004 85201 91200=
07558,1999-07-13 18:00:00,20,1010.5,1,64,13,0,31.484,,,260,15.5,26.3,,,,,,,,,wg-a,,,,AAXX 13184 07558 32/// /2617 10200 20130 39304 40105 53010 91800 333 10263 20155=
07558,1999-07-14 00:00:00,16,1014,0.7,94,15,0,18.52,,,240,,,,,,,,,,,wg-a,,,,AAXX 14004 07558 32/// /2410 10160 20150 39325 40140 53007 90000=
07558,1999-07-14 06:00:00,14,1017.2,1.6,82,11,15000,35.188,,,300,13.5,20.3,,,,,9,,,1,wg-a,,,,AAXX 14064 07558 12565 73019 10140 20110 39347 40172 53016 60094 70162 875// 90600 333 10203 20135=
07558,1999-07-14 12:00:00,19,1016.8,0.6,56,10,0,35.188,,,300,,,,,,,,,,,wg-a,,,,AAXX 14124 07558 32/// /3019 10190 20100 39356 40168 53006 91200=
07558,1999-07-14 18:00:00,18,1016.5,-0.1,64,11,0,25.928,,,300,13.2,20.4,,,,,,,,,wg-a,,,,AAXX 14184 07558 32/// /3014 10180 20110 39353 40165 55001 91800 333 10204 20132=
07558,1999-07-15 00:00:00,16,1018.3,0,77,12,0,18.52,,,270,,,,,,,,,,,wg-a,,,,AAXX 15004 07558 32/// /2710 10160 20120 39363 40183 50000 90000=
07558,1999-07-15 06:00:00,14,1018.3,0.1,72,9,25000,22.224,,,320,14.3,18.6,,,,,,,,,wg-a,,,,AAXX 15064 07558 12575 73212 10140 20090 39359 40183 53001 60004 875// 90600 333 10186 20143=
07558,1999-07-15 12:00:00,18,1018,0,64,11,25000,14.816,,,300,,,,,,,,,,,wg-a,,,,AAXX 15124 07558 32575 63008 10180 20110 39365 40180 50000 86800 91200=
07558,1999-07-15 18:00:00,18,1017.5,0.3,64,11,0,29.632,,,320,14.4,21.2,,,,,,,,,wg-a,,,,AAXX 15184 07558 32/// /3216 10180 20110 39361 40175 53003 91800 333 10212 20144=
07558,1999-07-16 00:00:00,14,1019.9,0.4,88,12,0,11.112,,,310,,,,,,,,,,,wg-a,,,,AAXX 16004 07558 32/// /3106 10140 20120 39374 40199 50004 90000=
07558,1999-07-16 06:00:00,16,1018.8,0.4,77,12,15000,29.632,,,330,14,18,,,,,,,,,wg-a,,,,AAXX 16064 07558 12465 43316 10160 20120 39368 40188 52004 60004 84500 90600 333 10180 20140=
07558,1999-07-16 12:00:00,24,1017,-0.1,38,9,0,25.928,,,330,,,,,,,,,,,wg-a,,,,AAXX 16124 07558 32/// /3314 10240 20090 39372 40170 58001 91200=
07558,1999-07-16 18:00:00,25,1015.2,-0.5,34,8,0,18.52,,,330,15.7,26.6,,,,,,,,,wg-a,,,,AAXX 16184 07558 32/// /3310 10250 20080 39358 40152 55005 91800 333 10266 20157=
07558,1999-07-17 00:00:00,17,1018.1,-0.2,59,9,0,14.816,,,20,,,,,,,,,,,wg-a,,,,AAXX 17004 07558 32/// /0208 10170 20090 39363 40181 57002 90000=
07558,1999-07-17 06:00:00,16,1017.3,-0.2,68,10,500,11.112,,,20,14.4,25.1,,,,,,,,,wg-a,,,,AAXX 17064 07558 32/00 00206 10160 20100 39354 40173 56002 80000 90600 333 10251 20144=
07558,1999-07-17 12:00:00,28,1014.1,-0.3,30,9,0,25.928,,,160,,,,,,,,,,,wg-a,,,,AAXX 17124 07558 32/// /1614 10280 20090 39354 40141 57003 91200=
07558,1999-07-17 18:00:00,25,1015.1,0.5,39,10,0,14.816,,,150,16.1,28.6,,,,,,,,,wg-a,,,,AAXX 17184 07558 32/// /1508 10250 20100 39357 40151 53005 91800 333 10286 20161=
07558,1999-07-18 00:00:00,18,1017.6,-0,64,11,0,7.408,,,70,,,,,,,,,,,wg-a,,,,AAXX 18004 07558 32/// /0704 10180 20110 39364 40176 54000 90000=
07558,1999-07-18 06:00:00,17,1017.7,0.4,68,11,500,3.704,,,50,15.8,24.7,,,,,,,,,wg-a,,,,AAXX 18064 07558 12/00 20502 10170 20110 39362 40177 53004 60004 80001 90600 333 10247 20158=
07558,1999-07-18 12:00:00,28,1013,-1.3,35,11,0,31.484,,,150,,,,,,,,,,,wg-a,,,,AAXX 18124 07558 32/// /1517 10280 20110 39345 40130 57013 91200=
07558,1999-07-18 18:00:00,24,1014.1,0.1,47,12,0,22.224,,,160,17.2,28.7,,,,,,,,,wg-a,,,,AAXX 18184 07558 32/// /1612 10240 20120 39345 40141 53001 91800 333 10287 20172=
07558,1999-07-19 00:00:00,18,1016.9,1,64,11,0,14.816,,,160,,,,,,,,,,,wg-a,,,,AAXX 19004 07558 32/// /1608 10180 20110 39356 40169 51010 90000=
07558,1999-07-19 06:00:00,18,1015.9,-0,59,10,20000,0,,,0,16.8,23.6,,,,,,,,,wg-a,,,,AAXX 19064 07558 12/70 60000 10180 20100 39346 40159 55000 60004 84031 90600 333 10236 20168=
07558,1999-07-19 12:00:00,23,1015.1,-0.1,53,13,20000,25.928,,,140,,,,,,,,,,,wg-a,,,,AAXX 19124 07558 32670 61414 10230 20130 39354 40151 58001 85281 91200=
07558,1999-07-19 18:00:00,19,1016.1,-0.2,73,14,0,18.52,,,220,17.8,25.4,,,,,,,,,wg-a,,,,AAXX 19184 07558 32/// /2210 10190 20140 39353 40161 56002 91800 333 10254 20178=
07558,1999-07-20 00:00:00,16,1018.2,0.1,100,16,0,0,,,0,,,,,,,,,,,wg-a,,,,AAXX 20004 07558 32/// /0000 10160 20160 39364 40182 52001 90000=
07558,1999-07-20 06:00:00,15,1019.2,1.1,100,15,800,3.704,,,120,13.8,19.2,,0,,,,,,46,wg-a,,,,AAXX 20064 07558 02308 61202 10150 20150 39370 40192 53011 60004 74641 86600 90600 333 10192 20138 60007=
07558,1999-07-20 12:00:00,27,1015.7,-0.7,42,13,500,11.112,,,230,,,,,,,,,,3,wg-a,,,,AAXX 20124 07558 32600 12306 10270 20130 39368 40157 58007 70341 81100 91200=
07558,1999-07-20 18:00:00,26,1015.3,-0,45,13,0,18.52,,,330,14.7,29.5,,,,,,,,,wg-a,,,,AAXX 20184 07558 32/// /3310 10260 20130 39363 40153 55000 91800 333 10295 20147=
07558,1999-07-21 00:00:00,19,1018.7,0.3,78,15,0,14.816,,,350,,,,,,,,,,,wg-a,,,,AAXX 21004 07558 32/// /3508 10190 20150 39377 40187 50003 90000=
07558,1999-07-21 06:00:00,18,1019.3,0.8,77,14,20000,7.408,,,260,17.7,26.1,,,,,,,,,wg-a,,,,AAXX 21064 07558 12670 52604 10180 20140 39379 40193 53008 60004 85500 90600 333 10261 20177=
07558,1999-07-21 12:00:00,23,1019.3,0.2,50,12,20000,18.52,,,280,,,,,,,,,,,wg-a,,,,AAXX 21124 07558 32670 62810 10230 20120 39390 40193 51002 86800 91200=
07558,1999-07-21 18:00:00,23,1017.7,-0.6,44,10,0,29.632,,,300,18.1,24.7,,,,,,,,,wg-a,,,,AAXX 21184 07558 32/// /3016 10230 20100 39376 40177 56006 91800 333 10247 20181=
07558,1999-07-22 00:00:00,17,1019.7,-0.3,72,12,0,22.224,,,330,,,,,,,,,,,wg-a,,,,AAXX 22004 07558 32/// /3312 10170 20120 39379 40197 58003 90000=
07558,1999-07-22 06:00:00,16,1019.6,0.7,77,12,20000,18.52,,,300,15.4,22.9,,,,,,,,,wg-a,,,,AAXX 22064 07558 12570 53010 10160 20120 39376 40196 53007 60004 85800 90600 333 10229 20154=
07558,1999-07-22 12:00:00,19,1019,0.2,46,7,500,31.484,,,290,,,,,,,,,,,wg-a,,,,AAXX 22124 07558 32600 42917 10190 20070 39378 40190 50002 84101 91200=
07558,1999-07-22 18:00:00,18,1017.5,-0.6,45,6,0,42.596,,,300,15.9,21.4,,,,,,,,,wg-a,,,,AAXX 22184 07558 32/// /3023 10180 20060 39360 40175 56006 91800 333 10214 20159=
07558,1999-07-23 00:00:00,12,1020.9,0,62,5,0,31.484,,,320,,,,,,,,,,,wg-a,,,,AAXX 23004 07558 32/// /3217 10120 20050 39374 40209 50000 90000=
07558,1999-07-23 06:00:00,12,1020.4,-0.3,62,5,0,35.188,,,340,10,17.9,,,,,,,,,wg-a,,,,AAXX 23064 07558 12/// /3419 10120 20050 39371 40204 56003 60004 90600 333 10179 20100=
07558,1999-07-23 12:00:00,21,1017.8,-0.4,35,5,500,35.188,,,350,,,,,,,,,,,wg-a,,,,AAXX 23124 07558 32500 23519 10210 20050 39371 40178 58004 82100 91200=
07558,1999-07-23 18:00:00,18,1018.4,0.5,45,6,0,31.484,,,340,12,21.7,,,,,,,,,wg-a,,,,AAXX 23184 07558 32/// /3417 10180 20060 39369 40184 52005 91800 333 10217 20120=
07558,1999-07-24 00:00:00,11,1020.9,-0.3,62,4,0,14.816,,,10,,,,,,,,,,,wg-a,,,,AAXX 24004 07558 32/// /0108 10110 20040 39373 40209 58003 90000=
07558,1999-07-24 06:00:00,11,1019,-0.6,58,3,0,22.224,,,20,9,18,,,,,,,,,wg-a,,,,AAXX 24064 07558 32/// /0212 10110 20030 39355 40190 56006 90600 333 10180 20090=
07558,1999-07-24 12:00:00,25,1014.2,-1.1,12,-6,0,7.408,,,20,,,,,,,,,,,wg-a,,,,AAXX 24124 07558 32/// /0204 10250 21060 39346 40142 56011 91200=
07558,1999-07-24 18:00:00,26,1012.5,-0.2,23,3,0,18.52,,,260,11.1,28.7,,,,,,,,,wg-a,,,,AAXX 24184 07558 32/// /2610 10260 20030 39336 40125 55002 91800 333 10287 20111=
07558,1999-07-25 00:00:00,17,1016.8,0.3,48,6,0,0,,,0,,,,,,,,,,,wg-a,,,,AAXX 25004 07558 32/// /0000 10170 20060 39350 40168 51003 90000=
07558,1999-07-25 06:00:00,15,1016.2,-0.3,59,7,500,7.408,,,30,13.4,26.4,,,,,,,,,wg-a,,,,AAXX 25064 07558 32/00 00304 10150 20070 39340 40162 56003 80000 90600 333 10264 20134=
07558,1999-07-25 12:00:00,27,1011.8,-0.8,20,2,0,7.408,,,170,,,,,,,,,,,wg-a,,,,AAXX 25124 07558 32/// /1704 10270 20020 39331 40118 58008 91200=
07558,1999-07-25 18:00:00,25,1010.7,0.1,34,8,0,18.52,,,140,14.8,30.3,,,,,,,,,wg-a,,,,AAXX 25184 07558 32/// /1410 10250 20080 39317 40107 53001 91800 333 10303 20148=
07558,1999-07-26 00:00:00,18,1014.7,-0,45,6,0,7.408,,,30,,,,,,,,,,,wg-a,,,,AAXX 26004 07558 32/// /0304 10180 20060 39335 40147 55000 90000=
07558,1999-07-26 06:00:00,17,1014.6,0.2,52,7,500,7.408,,,20,15.7,25.2,,,,,,,,,wg-a,,,,AAXX 26064 07558 32/00 00204 10170 20070 39332 40146 53002 80000 90600 333 10252 20157=
07558,1999-07-26 12:00:00,29,1010.7,-0.9,23,6,500,11.112,,,160,,,,,,,,,,,wg-a,,,,AAXX 26124 07558 32/00 01606 10290 20060 39327 40107 58009 80000 91200=
07558,1999-07-26 18:00:00,26,1009.8,-0.5,42,12,0,29.632,,,140,17.3,31.7,,,,,,,,,wg-a,,,,AAXX 26184 07558 32/// /1416 10260 20120 39312 40098 55005 91800 333 10317 20173=
07558,1999-07-27 00:00:00,21,1013.5,0.5,38,6,0,3.704,,,350,,,,,,,,,,,wg-a,,,,AAXX 27004 07558 32/// /3502 10210 20060 39332 40135 53005 90000=
07558,1999-07-27 06:00:00,19,1012.9,0,46,7,20000,11.112,,,70,16.2,26.3,,,,,,,,,wg-a,,,,AAXX 27064 07558 12/70 40706 10190 20070 39320 40129 50000 60004 82042 90600 333 10263 20162=
07558,1999-07-27 12:00:00,26,1010.9,-0.1,42,12,20000,31.484,,,180,,,,,,,,,,,wg-a,,,,AAXX 27124 07558 32570 51817 10260 20120 39322 40109 55001 84182 91200=
07558,1999-07-27 18:00:00,21,1011.8,-1.1,43,8,0,18.52,,,130,18.2,27.1,,,,,,,,,wg-a,,,,AAXX 27184 07558 32/// /1310 10210 20080 39316 40118 58011 91800 333 10271 20182=
07558,1999-07-28 00:00:00,17,1013.6,-1,59,9,0,7.408,,,350,,,,,,,,,,,wg-a,,,,AAXX 28004 07558 32/// /3504 10170 20090 39323 40136 58010 90000=
07558,1999-07-28 06:00:00,15,1014.8,0.6,82,12,15000,7.408,,,200,14,20.8,,,,,1,,,,wg-a,,,,AAXX 28064 07558 12/65 42004 10150 20120 39328 40148 51006 60014 82051 90600 333 10208 20140=
07558,1999-07-28 12:00:00,21,1013.1,0.1,60,13,15000,22.224,,,310,,,,,,,,,,16,wg-a,,,,AAXX 28124 07558 32565 63112 10210 20130 39330 40131 50001 71611 85251 91200=
07558,1999-07-28 17:00:00,23.4,1012.2,0.3,45,10.8,,25.928,53.708,,340,,,,,,,,,,,og-post,,,,AAXX 28174 07558 36/// /3414 10234 20108 39327 40122 53003 333 91129=
07558,1999-07-28 18:00:00,20,1013.6,1.2,64,13,0,14.816,,,120,14.7,26.2,,,,,,,,,wg-a,,,,AAXX 28184 07558 32/// /1208 10200 20130 39333 40136 53012 91800 333 10262 20147=
07558,1999-07-29 00:00:00,17,1016.4,0.5,77,13,0,7.408,,,190,,,,,,,,,,,wg-a,,,,AAXX 29004 07558 32/// /1904 10170 20130 39349 40164 51005 90000=
07558,1999-07-29 06:00:00,17,1015.9,0.2,88,15,20000,11.112,,,300,15.4,20.4,,,,,,,,,wg-a,,,,AAXX 29064 07558 12570 73006 10170 20150 39344 40159 53002 60004 8653/ 90600 333 10204 20154=
07558,1999-07-29 12:00:00,23,1013.1,-0.6,57,14,500,25.928,,,290,,,,,,,,,,,wg-a,,,,AAXX 29124 07558 32500 62914 10230 20140 39336 40131 58006 85201 91200=
07558,1999-07-30 00:00:00,18,1015.1,-0,83,15,0,7.408,,,220,,,,,,,,,,,wg-a,,,,AAXX 30004 07558 32/// /2204 10180 20150 39341 40151 54000 90000=
07558,1999-07-30 06:00:00,17,1014.7,0.1,100,17,2000,7.408,,,210,16.6,20.2,,,,,1,,,28,wg-a,,,,AAXX 30064 07558 12520 62104 10170 20170 39334 40147 53001 60014 72842 82531 90600 333 10202 20166=
07558,1999-07-30 12:00:00,24,1011.9,-1,47,12,25000,29.632,,,300,,,,,,,,,,,wg-a,,,,AAXX 30124 07558 32675 63016 10240 20120 39326 40119 58010 84202 91200=
07558,1999-07-30 18:00:00,25,1010.9,0.1,36,9,0,29.632,,,300,16.7,27,,,,,,,,,wg-a,,,,AAXX 30184 07558 32/// /3016 10250 20090 39318 40109 53001 91800 333 10270 20167=
07558,1999-07-31 00:00:00,18,1013.4,-0.3,64,11,0,0,,,0,,,,,,,,,,,wg-a,,,,AAXX 31004 07558 32/// /0000 10180 20110 39324 40134 58003 90000=
07558,1999-07-31 06:00:00,16,1013.8,0.1,72,11,20000,7.408,,,20,15,24.8,,,,,,,,,wg-a,,,,AAXX 31064 07558 12/70 50204 10160 20110 39321 40138 53001 60004 80001 90600 333 10248 20150=
07558,1999-07-31 12:00:00,25,1010.2,-1.1,36,9,0,18.52,,,250,,,,,,,,,,,wg-a,,,,AAXX 31124 07558 32/// /2510 10250 20090 39311 40102 57011 91200=
07558,1999-07-31 18:00:00,19,1011.9,-0.1,64,12,0,11.112,,,120,15.7,26.1,,,,,,,,,wg-a,,,,AAXX 31184 07558 32/// /1206 10190 20120 39313 40119 55001 91800 333 10261 20157=
07558,1999-08-01 00:00:00,15,1015,0.2,82,12,0,7.408,,,250,,,,,,,,,,,wg-a,,,,AAXX 01004 07558 32/// /2504 10150 20120 39332 40150 50002 90000=
07558,1999-08-01 06:00:00,14,1016,0.8,100,14,15000,3.704,,,50,13.7,19,,,,,,,,,wg-a,,,,AAXX 01064 07558 12/65 40502 10140 20140 39339 40160 53008 60004 84030 90600 333 10190 20137=
07558,1999-08-01 12:00:00,26,1012,-0.8,34,9,0,14.816,,,170,,,,,,,,,,,wg-a,,,,AAXX 01124 07558 32/// /1708 10260 20090 39331 40120 58008 91200=
07558,1999-08-01 18:00:00,22,1013,0.1,57,13,0,25.928,,,130,14.3,27.5,,,,,,,,,wg-a,,,,AAXX 01184 07558 32/// /1314 10220 20130 39331 40130 53001 91800 333 10275 20143=
07558,1999-08-02 00:00:00,18,1015.4,-0.1,73,13,0,11.112,,,40,,,,,,,,,,,wg-a,,,,AAXX 02004 07558 32/// /0406 10180 20130 39342 40154 58001 90000=
07558,1999-08-02 06:00:00,17,1015.5,0.1,77,13,15000,7.408,,,20,15.6,21.8,,,,,,,,,wg-a,,,,AAXX 02064 07558 12/65 20204 10170 20130 39340 40155 53001 60004 80002 90600 333 10218 20156=
07558,1999-08-02 12:00:00,29,1010.5,-1.3,29,9,40000,22.224,,,140,,,,,,,,,,,wg-a,,,,AAXX 02124 07558 32582 21412 10290 20090 39324 40105 57013 82202 91200=
07558,1999-08-02 18:00:00,22,1010.5,-0.6,65,15,0,22.224,,,130,16.8,28.9,,,,,,,,,wg-a,,,,AAXX 02184 07558 32/// /1312 10220 20150 39308 40105 58006 91800 333 10289 20168=
07558,1999-08-03 06:00:00,15,1015.4,0.3,100,15,500,3.704,,,130,13.9,21.5,,0,,,13,,,3,wg-a,,,,AAXX 03064 07558 02400 71302 10150 20150 39335 40154 53003 60134 70342 875// 90600 333 10215 20139 60007=
07558,1999-08-03 12:00:00,25,1011.1,-1,50,14,500,11.112,,,170,,,,,,,,,,,wg-a,,,,AAXX 03124 07558 32600 31706 10250 20140 39323 40111 58010 82101 91200=
07558,1999-08-03 18:00:00,22,1011.1,-0.2,73,17,0,22.224,,,150,14.7,27.1,,,,,,,,,wg-a,,,,AAXX 03184 07558 32/// /1512 10220 20170 39314 40111 56002 91800 333 10271 20147=
07558,1999-08-04 00:00:00,18,1012.2,-0.9,94,17,0,22.224,,,110,,,,,,,,,,,wg-a,,,,AAXX 04004 07558 32/// /1112 10180 20170 39315 40122 57009 90000=
07558,1999-08-04 06:00:00,18,1010.6,-0.1,88,16,7000,22.224,,,120,17.2,21.5,,,,,2,,,21,wg-a,,,,AAXX 04064 07558 02357 71212 10180 20160 39301 40106 58001 60024 72162 878// 90600 333 10215 20172 61000=
07558,1999-08-04 18:00:00,21,1010.1,0.1,69,15,0,31.484,,,130,18.3,24.2,,,,,,,,,wg-a,,,,AAXX 04184 07558 32/// /1317 10210 20150 39302 40101 53001 91800 333 10242 20183=
07558,1999-08-05 00:00:00,18,1012.7,0,94,17,0,11.112,,,100,,,,,,,,,,,wg-a,,,,AAXX 05004 07558 32/// /1006 10180 20170 39320 40127 50000 90000=
07558,1999-08-05 06:00:00,19,1013.4,1.2,88,17,20000,3.704,,,60,18,20.9,,,,,,,,,wg-a,,,,AAXX 05064 07558 12670 70602 10190 20170 39327 40134 51012 60004 875// 90600 333 10209 20180=
07558,1999-08-05 12:00:00,25,1011,-0.9,65,18,500,22.224,,,130,,,,,,,,,,,wg-a,,,,AAXX 05124 07558 32600 51312 10250 20180 39322 40110 58009 85230 91200=
07558,1999-08-05 18:00:00,23,1010.8,-0.3,73,18,0,18.52,,,150,18.5,27.1,,,,,,,,,wg-a,,,,AAXX 05184 07558 32/// /1510 10230 20180 39315 40108 55003 91800 333 10271 20185=
07558,1999-08-06 00:00:00,19,1012.8,-0.2,94,18,0,11.112,,,130,,,,,,,,,,,wg-a,,,,AAXX 06004 07558 32/// /1306 10190 20180 39325 40128 58002 90000=
07558,1999-08-06 06:00:00,19,1011.1,-0.6,94,18,15000,25.928,,,130,18.3,22.7,,,,,,,,,wg-a,,,,AAXX 06064 07558 12565 71314 10190 20180 39309 40111 55006 60004 875// 90600 333 10227 20183=
07558,1999-08-06 12:00:00,25,1008.5,-1,61,17,500,35.188,,,140,,,,,,,,,,,wg-a,,,,AAXX 06124 07558 32600 51419 10250 20170 39299 40085 58010 85100 91200=
07558,1999-08-07 06:00:00,14,1010.8,-0.7,94,13,500,14.816,,,50,,,,,,,67,,,3,wg-a,,,,AAXX 07064 07558 12/00 70508 10140 20130 39289 40108 58007 60674 70386 85032 90600 333 10150 20128=
07558,1999-08-07 12:00:00,25,1005.2,-1.3,54,15,0,29.632,,,140,,,,,,,,,,,wg-a,,,,AAXX 07124 07558 32/// /1416 10250 20150 39267 40052 58013 91200=
07558,1999-08-07 18:00:00,22,1002.6,-1.8,73,17,0,25.928,,,140,13.5,25.2,,,,,,,,,wg-a,,,,AAXX 07184 07558 32/// /1414 10220 20170 39236 40026 58018 91800 333 10252 20135=
07558,1999-08-08 00:00:00,15,1003.7,-0.3,100,15,0,29.632,,,20,,,,,,,,,,,wg-a,,,,AAXX 08004 07558 32/// /0216 10150 20150 39229 40037 58003 90000=
07558,1999-08-08 06:00:00,16,1004.4,1,94,15,500,7.408,,,60,14.7,21.7,,,,,17,,,,wg-a,,,,AAXX 08064 07558 12500 60604 10160 20150 39236 40044 51010 60174 82532 90600 333 10217 20147=
07558,1999-08-08 12:00:00,24,1002.7,-0.4,47,12,0,7.408,,,260,,,,,,,,,,,wg-a,,,,AAXX 08124 07558 32/// /2604 10240 20120 39241 40027 58004 91200=
07558,1999-08-08 18:00:00,25,1001.6,-0.5,44,12,0,7.408,,,260,15.6,26.3,,,,,,,,,wg-a,,,,AAXX 08184 07558 32/// /2604 10250 20120 39234 40016 56005 91800 333 10263 20156=
07558,1999-08-09 00:00:00,18,1006,0.4,88,16,0,7.408,,,120,,,,,,,,,,,wg-a,,,,AAXX 09004 07558 32/// /1204 10180 20160 39256 40060 51004 90000=
07558,1999-08-09 06:00:00,16,1006.8,0.3,100,16,20000,7.408,,,360,15.6,25.3,,0,,,,,,,wg-a,,,,AAXX 09064 07558 02/70 23604 10160 20160 39260 40068 51003 60004 81031 90600 333 10253 20156 60007=
07558,1999-08-09 12:00:00,25,1005.3,-0,54,15,50000,22.224,,,150,,,,,,,,,,,wg-a,,,,AAXX 09124 07558 32684 41512 10250 20150 39269 40053 54000 82101 91200=
07558,1999-08-09 18:00:00,22,1007.1,0.8,69,16,0,11.112,,,240,16,26.4,,,,,,,,,wg-a,,,,AAXX 09184 07558 32/// /2406 10220 20160 39277 40071 53008 91800 333 10264 20160=
07558,1999-08-10 00:00:00,16,1012.8,0.7,82,13,0,3.704,,,240,,,,,,,,,,,wg-a,,,,AAXX 10004 07558 32/// /2402 10160 20130 39315 40128 51007 90000=
07558,1999-08-10 06:00:00,15,1015.8,0.8,82,12,20000,7.408,,,260,13.5,22,,,,,1,,,,wg-a,,,,AAXX 10064 07558 12570 72604 10150 20120 39337 40158 53008 60014 875// 90600 333 10220 20135=
07558,1999-08-10 12:00:00,21,1014.9,0.1,56,12,25000,25.928,,,250,,,,,,,,,,,wg-a,,,,AAXX 10124 07558 32575 62514 10210 20120 39346 40149 50001 86800 91200=
07558,1999-08-10 18:00:00,19,1017.1,1,64,12,0,31.484,,,290,14.1,22.5,,,,,,,,,wg-a,,,,AAXX 10184 07558 32/// /2917 10190 20120 39360 40171 53010 91800 333 10225 20141=
07558,1999-08-11 00:00:00,15,1020.4,0.1,82,12,0,22.224,,,330,,,,,,,,,,,wg-a,,,,AAXX 11004 07558 32/// /3312 10150 20120 39380 40204 50001 90000=
07558,1999-08-11 06:00:00,13,1021,0.2,88,11,500,25.928,,,320,12,18.3,,,,,,,,,wg-a,,,,AAXX 11064 07558 12500 13214 10130 20110 39381 40210 53002 60004 81100 90600 333 10183 20120=
07558,1999-08-11 12:00:00,18,1020,0,59,10,500,18.52,,,310,,,,,,,,,,,wg-a,,,,AAXX 11124 07558 32600 53110 10180 20100 39385 40200 50000 83104 91200=
07558,1999-08-11 18:00:00,18,1017.6,-0.6,64,11,0,18.52,,,310,13.2,20.6,,,,,,,,,wg-a,,,,AAXX 11184 07558 32/// /3110 10180 20110 39362 40176 57006 91800 333 10206 20132=
07558,1999-08-12 00:00:00,14,1018.4,-0.3,82,11,0,7.408,,,310,,,,,,,,,,,wg-a,,,,AAXX 12004 07558 32/// /3104 10140 20110 39360 40184 58003 90000=
07558,1999-08-12 06:00:00,13,1018.2,0.2,88,11,15000,7.408,,,310,12.5,18.1,,,,,,,,,wg-a,,,,AAXX 12064 07558 12465 73104 10130 20110 39354 40182 53002 60004 8453/ 90600 333 10181 20125=
07558,1999-08-12 12:00:00,20,1014.9,-0.7,46,8,500,35.188,,,320,,,,,,,,,,1,wg-a,,,,AAXX 12124 07558 32500 63219 10200 20080 39343 40149 56007 70186 85830 91200=
07558,1999-08-12 18:00:00,18,1015.2,0.3,56,9,0,29.632,,,300,12.8,22.3,,,,,,,,,wg-a,,,,AAXX 12184 07558 32/// /3016 10180 20090 39339 40152 53003 91800 333 10223 20128=
07558,1999-08-13 00:00:00,13,1017.6,-0.8,77,9,0,18.52,,,320,,,,,,,,,,,wg-a,,,,AAXX 13004 07558 32/// /3210 10130 20090 39349 40176 55008 90000=
07558,1999-08-13 06:00:00,13,1017.7,0.6,77,9,20000,11.112,,,350,11,17.8,,,,,,,,,wg-a,,,,AAXX 13064 07558 32/70 03506 10130 20090 39348 40177 53006 80000 90600 333 10178 20110=
07558,1999-08-13 12:00:00,20,1014.4,-0.6,43,7,500,31.484,,,310,,,,,,,,,,,wg-a,,,,AAXX 13124 07558 32600 23117 10200 20070 39339 40144 58006 81101 91200=
07558,1999-08-13 18:00:00,20,1013.6,-0.5,46,8,0,29.632,,,310,12.5,22.4,,,,,,,,,wg-a,,,,AAXX 13184 07558 32/// /3116 10200 20080 39329 40136 56005 91800 333 10224 20125=
07558,1999-08-14 00:00:00,15,1016.1,-0,72,10,0,3.704,,,300,,,,,,,,,,,wg-a,,,,AAXX 14004 07558 32/// /3002 10150 20100 39339 40161 55000 90000=
07558,1999-08-14 06:00:00,12,1016.1,0.1,88,10,20000,3.704,,,20,11.6,19.6,,,,,,,,,wg-a,,,,AAXX 14064 07558 12/70 10202 10120 20100 39332 40161 53001 60004 81030 90600 333 10196 20116=
07558,1999-08-14 12:00:00,22,1012.8,-0.8,46,10,0,18.52,,,270,,,,,,,,,,,wg-a,,,,AAXX 14124 07558 32/// /2710 10220 20100 39327 40128 58008 91200=
07558,1999-08-14 18:00:00,20,1012.2,-0.4,60,12,0,14.816,,,260,12.1,22.5,,,,,,,,,wg-a,,,,AAXX 14184 07558 32/// /2608 10200 20120 39318 40122 58004 91800 333 10225 20121=
07558,1999-08-15 00:00:00,16,1014.5,0.2,88,14,0,18.52,,,250,,,,,,,,,,,wg-a,,,,AAXX 15004 07558 32/// /2510 10160 20140 39330 40145 51002 90000=
07558,1999-08-15 06:00:00,15,1014.8,0.6,100,15,500,18.52,,,230,14.8,20,,0,,,,,,50,wg-a,,,,AAXX 15064 07558 02105 82310 10150 20150 39330 40148 53006 60004 75086 885// 90600 333 10200 20148 60007=
07558,1999-08-15 12:00:00,21,1013.1,-0.2,53,11,0,29.632,,,300,,,,,,,,,,,wg-a,,,,AAXX 15124 07558 32/// /3016 10210 20110 39328 40131 58002 91200=
07558,1999-08-15 18:00:00,21,1011.8,-0.6,60,13,0,11.112,,,260,14.6,23.1,,,,,,,,,wg-a,,,,AAXX 15184 07558 32/// /2606 10210 20130 39317 40118 58006 91800 333 10231 20146=
07558,1999-08-16 00:00:00,15,1013.1,-0.9,82,12,0,7.408,,,40,,,,,,,,,,,wg-a,,,,AAXX 16004 07558 32/// /0404 10150 20120 39313 40131 58009 90000=
07558,1999-08-16 06:00:00,15,1010.6,-0.4,82,12,20000,7.408,,,350,13.8,20.6,,,,,,,,,wg-a,,,,AAXX 16064 07558 12570 73504 10150 20120 39290 40106 55004 60004 8258/ 90600 333 10206 20138=
07558,1999-08-16 12:00:00,19,1009.4,0.2,78,15,10000,7.408,,,310,,,,,,,,,,,wg-a,,,,AAXX 16124 07558 32360 73104 10190 20150 39290 40094 53002 875// 91200=
07558,1999-08-16 18:00:00,20,1009,0.3,68,14,0,14.816,,,300,14.5,23.1,,,,,,,,,wg-a,,,,AAXX 16184 07558 32/// /3008 10200 20140 39290 40090 53003 91800 333 10231 20145=
07558,1999-08-17 00:00:00,16,1012.3,0.3,82,13,0,7.408,,,300,,,,,,,,,,,wg-a,,,,AAXX 17004 07558 32/// /3004 10160 20130 39308 40123 50003 90000=
07558,1999-08-17 06:00:00,14,1012.5,0.4,94,13,8000,7.408,,,340,13.5,20.1,,,,,,,,,wg-a,,,,AAXX 17064 07558 12458 43404 10140 20130 39305 40125 53004 60004 83502 90600 333 10201 20135=
07558,1999-08-17 12:00:00,21,1010.3,-0.5,53,11,500,14.816,,,290,,,,,,,,,,,wg-a,,,,AAXX 17124 07558 32500 72908 10210 20110 39304 40103 56005 84132 91200=
07558,1999-08-17 18:00:00,20,1009.6,-0.7,56,11,0,11.112,,,290,13.9,21.9,,,,,,,,,wg-a,,,,AAXX 17184 07558 32/// /2906 10200 20110 39293 40096 56007 91800 333 10219 20139=
07558,1999-08-18 00:00:00,14,1010.7,-1.1,82,11,0,11.112,,,120,,,,,,,,,,,wg-a,,,,AAXX 18004 07558 32/// /1206 10140 20110 39289 40107 58011 90000=
07558,1999-08-18 06:00:00,14,1010.2,0.5,82,11,20000,7.408,,,10,12.3,19.4,,,,,,,,,wg-a,,,,AAXX 18064 07558 12/70 20104 10140 20110 39284 40102 53005 60004 82030 90600 333 10194 20123=
07558,1999-08-18 12:00:00,23,1008.6,0.1,53,13,20000,22.224,,,220,,,,,,,,,,,wg-a,,,,AAXX 18124 07558 32570 52212 10230 20130 39294 40086 50001 84881 91200=
07558,1999-08-18 18:00:00,19,1011.8,0.8,68,13,0,22.224,,,310,14,24.2,,,,,,,,,wg-a,,,,AAXX 18184 07558 32/// /3112 10190 20130 39313 40118 53008 91800 333 10242 20140=
07558,1999-08-19 00:00:00,15,1015.7,0.4,77,11,0,7.408,,,330,,,,,,,,,,,wg-a,,,,AAXX 19004 07558 32/// /3304 10150 20110 39337 40157 53004 90000=
07558,1999-08-19 06:00:00,14,1016.7,0.2,82,11,25000,18.52,,,360,13.1,19.2,,,,,,,,,wg-a,,,,AAXX 19064 07558 12/75 63610 10140 20110 39342 40167 52002 60004 84032 90600 333 10192 20131=
07558,1999-08-19 12:00:00,22,1014.6,-0.1,53,12,500,7.408,,,300,,,,,,,,,,,wg-a,,,,AAXX 19124 07558 32/00 63004 10220 20120 39345 40146 55001 84082 91200=
07558,1999-08-19 18:00:00,19,1013.7,-0.8,60,11,0,22.224,,,340,13.6,22.9,,,,,,,,,wg-a,,,,AAXX 19184 07558 32/// /3412 10190 20110 39330 40137 58008 91800 333 10229 20136=
07558,1999-08-20 00:00:00,15,1017.5,0.3,77,11,0,3.704,,,350,,,,,,,,,,,wg-a,,,,AAXX 20004 07558 32/// /3502 10150 20110 39354 40175 52003 90000=
07558,1999-08-20 06:00:00,15,1017,0.2,77,11,20000,11.112,,,310,13.4,19.3,,,,,,,,,wg-a,,,,AAXX 20064 07558 12670 53106 10150 20110 39348 40170 53002 60004 84531 90600 333 10193 20134=
07558,1999-08-20 12:00:00,23,1016.1,0.1,44,10,500,25.928,,,320,,,,,,,,,,,wg-a,,,,AAXX 20124 07558 32500 23214 10230 20100 39360 40161 50001 82100 91200=
07558,1999-08-20 18:00:00,20,1015.8,-0.4,49,9,0,25.928,,,300,14.5,23.3,,,,,,,,,wg-a,,,,AAXX 20184 07558 32/// /3014 10200 20090 39352 40158 56004 91800 333 10233 20145=
07558,1999-08-21 00:00:00,14,1019.1,-0.1,72,9,0,14.816,,,20,,,,,,,,,,,wg-a,,,,AAXX 21004 07558 32/// /0208 10140 20090 39365 40191 58001 90000=
07558,1999-08-21 06:00:00,13,1018.9,-0.2,72,8,500,18.52,,,30,11.5,20.3,,,,,,,,,wg-a,,,,AAXX 21064 07558 32/00 00310 10130 20080 39360 40189 55002 80000 90600 333 10203 20115=
07558,1999-08-21 12:00:00,24,1014.7,-1.2,29,5,0,11.112,,,310,,,,,,,,,,,wg-a,,,,AAXX 21124 07558 32/// /3106 10240 20050 39351 40147 58012 91200=
07558,1999-08-21 18:00:00,23,1013.8,-0.3,33,6,0,14.816,,,310,12.9,26.3,,,,,,,,,wg-a,,,,AAXX 21184 07558 32/// /3108 10230 20060 39339 40138 57003 91800 333 10263 20129=
07558,1999-08-22 00:00:00,15,1017.3,-0.2,63,8,0,11.112,,,30,,,,,,,,,,,wg-a,,,,AAXX 22004 07558 32/// /0306 10150 20080 39351 40173 58002 90000=
07558,1999-08-22 06:00:00,14,1017.2,0.3,63,7,500,7.408,,,10,13,22.9,,,,,,,,,wg-a,,,,AAXX 22064 07558 32/00 00104 10140 20070 39347 40172 53003 80000 90600 333 10229 20130=
07558,1999-08-22 12:00:00,26,1013.6,-0.5,37,10,0,7.408,,,240,,,,,,,,,,,wg-a,,,,AAXX 22124 07558 32/// /2404 10260 20100 39345 40136 58005 91200=
07558,1999-08-22 18:00:00,26,1012.8,-0.3,30,7,0,11.112,,,310,14,28.8,,,,,,,,,wg-a,,,,AAXX 22184 07558 32/// /3106 10260 20070 39337 40128 56003 91800 333 10288 20140=
07558,1999-08-23 00:00:00,19,1016.4,0.3,40,5,0,0,,,0,,,,,,,,,,,wg-a,,,,AAXX 23004 07558 32/// /0000 10190 20050 39353 40164 51003 90000=
07558,1999-08-23 06:00:00,16,1017.5,0.8,55,7,500,7.408,,,360,15.4,25.6,,,,,,,,,wg-a,,,,AAXX 23064 07558 12/00 63604 10160 20070 39355 40175 53008 60004 86030 90600 333 10256 20154=
07558,1999-08-23 12:00:00,27,1014.3,-0.2,39,12,50000,3.704,,,240,,,,,,,,,,,wg-a,,,,AAXX 23124 07558 32/84 32402 10270 20120 39355 40143 58002 80001 91200=
07558,1999-08-23 18:00:00,25,1013.7,0.2,44,12,0,14.816,,,160,15.8,29.2,,,,,,,,,wg-a,,,,AAXX 23184 07558 32/// /1608 10250 20120 39345 40137 53002 91800 333 10292 20158=
07558,1999-08-24 00:00:00,20,1016.2,-0.3,56,11,0,7.408,,,80,,,,,,,,,,,wg-a,,,,AAXX 24004 07558 32/// /0804 10200 20110 39355 40162 56003 90000=
07558,1999-08-24 06:00:00,17,1016.9,0.4,88,15,20000,7.408,,,20,15.3,24.8,,,,,,,,,wg-a,,,,AAXX 24064 07558 12570 50204 10170 20150 39355 40169 51004 60004 85500 90600 333 10248 20153=
07558,1999-08-24 12:00:00,25,1014.7,-0.3,65,18,500,25.928,,,160,,,,,,,,,,,wg-a,,,,AAXX 24124 07558 32/00 01614 10250 20180 39356 40147 55003 80000 91200=
07558,1999-08-24 18:00:00,22,1015.1,0.4,78,18,0,11.112,,,130,17.1,27.2,,,,,,,,,wg-a,,,,AAXX 24184 07558 32/// /1306 10220 20180 39351 40151 53004 91800 333 10272 20171=
07558,1999-08-25 00:00:00,18,1016.5,-0.3,100,18,0,11.112,,,20,,,,,,,,,,,wg-a,,,,AAXX 25004 07558 32/// /0206 10180 20180 39355 40165 58003 90000=
07558,1999-08-25 06:00:00,19,1017,1.2,78,15,20000,14.816,,,110,18.1,21.7,,,,,1,,,3,wg-a,,,,AAXX 25064 07558 12570 71108 10190 20150 39360 40170 53012 60014 70398 84532 90600 333 10217 20181=
07558,1999-08-25 12:00:00,25,1013.8,-1.1,57,16,500,29.632,,,130,,,,,,,,,,,wg-a,,,,AAXX 25124 07558 32/00 31316 10250 20160 39347 40138 58011 81031 91200=
07558,1999-08-25 18:00:00,23,1014.8,-0.2,61,15,0,14.816,,,130,18.5,26.5,,,,,,,,,wg-a,,,,AAXX 25184 07558 32/// /1308 10230 20150 39350 40148 56002 91800 333 10265 20185=
07558,1999-08-26 00:00:00,20,1016.3,-0.3,53,10,0,7.408,,,110,,,,,,,,,,,wg-a,,,,AAXX 26004 07558 32/// /1104 10200 20100 39356 40163 58003 90000=
07558,1999-08-26 06:00:00,17,1017.6,1.9,82,14,7000,18.52,,,310,17.2,22.6,,1,,,1,,,80,wg-a,,,,AAXX 26064 07558 02557 83110 10170 20140 39361 40176 53019 60014 78086 8/35/ 90600 333 10226 20172 60017=
07558,1999-08-26 12:00:00,20,1017.6,2.4,83,17,10000,7.408,,,220,,,,,,,,,,2,wg-a,,,,AAXX 26124 07558 32660 72204 10200 20170 39369 40176 51024 70298 8755/ 91200=
07558,1999-08-27 00:00:00,18,1018.8,-0,88,16,0,3.704,,,350,,,,,,,,,,,wg-a,,,,AAXX 27004 07558 32/// /3502 10180 20160 39374 40188 55000 90000=
07558,1999-08-27 06:00:00,17,1018.8,-0,94,16,6000,7.408,,,10,16.1,20.5,,0,,,,,,,wg-a,,,,AAXX 27064 07558 12256 40104 10170 20160 39371 40188 55000 60007 84630 90600 333 10205 20161=
07558,1999-08-27 12:00:00,27,1016,-0.5,48,15,15000,3.704,,,120,,,,,,,,,,,wg-a,,,,AAXX 27124 07558 32565 21202 10270 20150 39371 40160 58005 82100 91200=
07558,1999-08-27 18:00:00,25,1015.3,-0.1,54,15,0,7.408,,,310,16.4,28.6,,,,,,,,,wg-a,,,,AAXX 27184 07558 32/// /3104 10250 20150 39360 40153 56001 91800 333 10286 20164=
07558,1999-08-28 00:00:00,20,1018.5,0.3,73,15,0,7.408,,,20,,,,,,,,,,,wg-a,,,,AAXX 28004 07558 32/// /0204 10200 20150 39377 40185 50003 90000=
07558,1999-08-28 06:00:00,18,1019.5,0.4,83,15,10000,3.704,,,50,17.2,24.7,,,,,,,,,wg-a,,,,AAXX 28064 07558 12260 40502 10180 20150 39380 40195 53004 60004 83631 90600 333 10247 20172=
07558,1999-08-28 12:00:00,25,1016.8,-0.5,54,15,0,11.112,,,220,,,,,,,,,,,wg-a,,,,AAXX 28124 07558 32/// /2206 10250 20150 39375 40168 58005 91200=
07558,1999-08-28 18:00:00,23,1016.1,-0,57,14,0,22.224,,,300,17.6,26.9,,,,,,,,,wg-a,,,,AAXX 28184 07558 32/// /3012 10230 20140 39362 40161 55000 91800 333 10269 20176=
07558,1999-08-29 00:00:00,14,1019.8,-1.4,100,14,0,14.816,,,270,,,,,,,,,,,wg-a,,,,AAXX 29004 07558 32/// /2708 10140 20140 39373 40198 58014 90000=
07558,1999-08-29 06:00:00,14,1018.5,-0.6,94,13,20000,11.112,,,320,13.7,22.6,,,,,15,,,,wg-a,,,,AAXX 29064 07558 12/70 43206 10140 20130 39360 40185 56006 60154 82031 90600 333 10226 20137=
07558,1999-08-29 12:00:00,22,1015.6,-0.9,69,16,0,7.408,,,230,,,,,,,,,,,wg-a,,,,AAXX 29124 07558 32/// /2304 10220 20160 39355 40156 58009 91200=
07558,1999-08-29 18:00:00,21,1015,0.1,60,13,0,25.928,,,300,13.8,22.9,,,,,,,,,wg-a,,,,AAXX 29184 07558 32/// /3014 10210 20130 39346 40150 53001 91800 333 10229 20138=
07558,1999-08-30 00:00:00,16,1017.5,-0.2,68,10,0,22.224,,,350,,,,,,,,,,,wg-a,,,,AAXX 30004 07558 32/// /3512 10160 20100 39355 40175 58002 90000=
07558,1999-08-30 06:00:00,13,1017.6,0.1,77,9,20000,0,,,0,12.6,20.4,,,,,,,,,wg-a,,,,AAXX 30064 07558 12/70 40000 10130 20090 39349 40176 53001 60004 82031 90600 333 10204 20126=
07558,1999-08-30 12:00:00,22,1014.5,-0.9,43,9,500,11.112,,,310,,,,,,,,,,,wg-a,,,,AAXX 30124 07558 32/00 53106 10220 20090 39345 40145 58009 80001 91200=
07558,1999-08-30 18:00:00,20,1014.1,0.1,60,12,0,18.52,,,300,13.1,23.3,,,,,,,,,wg-a,,,,AAXX 30184 07558 32/// /3010 10200 20120 39336 40141 53001 91800 333 10233 20131=
07558,1999-08-31 00:00:00,15,1016.8,0,72,10,0,25.928,,,360,,,,,,,,,,,wg-a,,,,AAXX 31004 07558 32/// /3614 10150 20100 39347 40168 50000 90000=
07558,1999-08-31 06:00:00,14,1016.7,0.3,72,9,500,14.816,,,10,13.5,19.9,,,,,,,,,wg-a,,,,AAXX 31064 07558 12/00 10108 10140 20090 39343 40167 53003 60004 80001 90600 333 10199 20135=
07558,1999-08-31 12:00:00,23,1014.6,-0.3,47,11,500,7.408,,,330,,,,,,,,,,,wg-a,,,,AAXX 31124 07558 32500 13304 10230 20110 39348 40146 58003 81101 91200=
07558,1999-08-31 18:00:00,22,1014.1,-0.1,46,10,0,25.928,,,310,14.1,25,,,,,,,,,wg-a,,,,AAXX 31184 07558 32/// /3114 10220 20100 39340 40141 55001 91800 333 10250 20141=
07558,1999-09-01 00:00:00,11.2,1015.6,1.2,87,9.1,,23,68.524,,300,,,,0.4,,,,,,,,,,,
07558,1999-09-01 01:00:00,10.8,1016.7,1.9,90,9.2,,14,61.116,,280,,,,,,,,,,,,,,,
07558,1999-09-01 02:00:00,10.9,1016.5,1.5,87,8.8,,16,,,280,,,0.2,,,,,,,,,,,,
07558,1999-09-01 03:00:00,10.6,1016.7,0.8,83,7.8,,17,61.116,53.708,280,,,,0.2,,,,,,,,,,,
07558,1999-09-01 04:00:00,10.3,1016.9,-0,86,8.1,24076,21,61.116,61.116,290,,,,,,,,,,,,,,7,
07558,1999-09-01 05:00:00,9.9,1017.3,0.4,92,8.7,,14,57.412,,280,,,,,,,,,,50,,,,7,
07558,1999-09-01 06:00:00,10.2,1017.5,0.7,86,8,24076,17,61.116,,300,9.8,12.7,,,,,5,,9,20,,,,6,
07558,1999-09-01 07:00:00,10.6,1018.6,1.7,85,8.2,24076,16,,,290,,,,,,,,,,,,,,7,
07558,1999-09-01 08:00:00,10.7,1019.2,2,91,9.3,24076,8,,,260,,,,,,,,,,,,,,7,
07558,1999-09-01 09:00:00,11.2,1019.6,2.2,93,10.1,24076,6,,,260,,,,,,,,,,50,,,,7,
07558,1999-09-01 10:00:00,11.6,1018.8,0.5,96,11,24076,10,,,280,,,0.8,,,,,,,20,,,,5,
07558,1999-09-01 11:00:00,13.3,1018.1,-0.3,76,9.2,24076,16,64.82,50.004,290,,,,,,,,,,,,,,5,
07558,1999-09-01 12:00:00,13.2,1017.9,-1,78,9.5,24076,12,64.82,,280,,,,0.8,,,,,,3,,,,7,
07558,1999-09-01 13:00:00,13.6,1017.7,-0.5,76,9.5,24076,8,,,310,,,,,,,,,,,,,,7,
07558,1999-09-01 14:00:00,13.8,1017.1,-0.8,73,9,24076,8,,,300,,,,,,,,,,,,,,7,
07558,1999-09-01 15:00:00,14.2,1016.5,-1,73,9.4,24076,10,,,290,,,,,,,,,,,,,,6,
07558,1999-09-01 16:00:00,13.4,1016.2,-1.4,74,8.9,,12,,,330,,,,,,,,,,,,,,,
07558,1999-09-01 17:00:00,12.7,1016.4,-0.9,79,9.2,,10,,,320,,,,,,,,,,,,,,,
07558,1999-09-01 18:00:00,11.6,1016.4,-0.8,86,9.3,,8,,,320,10.2,14.4,,,,,,,,,,,,,
07558,1999-09-01 20:00:00,11.3,1016.9,0.1,89,9.6,,6,,,290,,,,,,,,,,,,,,,
07558,1999-09-02 00:00:00,18,1017.4,-0.4,64,11,0,29.632,,,10,,,,,,,,,,,wg-a,,,,AAXX 02004 07558 32/// /0116 10180 20110 39360 40174 58004 90000=
07558,1999-09-02 06:00:00,16,1017,-0.5,63,9,20000,11.112,,,10,15.1,23.4,,,,,,,,,wg-a,,,,AAXX 02064 07558 12/70 10106 10160 20090 39350 40170 55005 60004 80001 90600 333 10234 20151=
07558,1999-09-02 12:00:00,26,1013.2,-0.7,28,6,500,7.408,,,330,,,,,,,,,,,wg-a,,,,AAXX 02124 07558 32/00 23304 10260 20060 39343 40132 58007 80001 91200=
07558,1999-09-02 18:00:00,25,1011,-0.8,36,9,0,11.112,,,350,15.3,28.4,,,,,,,,,wg-a,,,,AAXX 02184 07558 32/// /3506 10250 20090 39319 40110 56008 91800 333 10284 20153=
07558,1999-09-03 00:00:00,18,1012.4,-1.1,56,9,0,7.408,,,120,,,,,,,,,,,wg-a,,,,AAXX 03004 07558 32/// /1204 10180 20090 39314 40124 58011 90000=
07558,1999-09-03 06:00:00,15,1011.7,,82,12,10000,7.408,,,30,,25,,,,,,,,,wg-a,,,,AAXX 03064 07558 12560 70304 10150 20120 39301 40117 60004 90600 333 10250=
07558,1999-09-03 12:00:00,16,1013,1,88,14,10000,18.52,,,110,,,,,,,,,,80,wg-a,,,,AAXX 03124 07558 02560 71110 10160 20140 39314 40130 53010 61000 78086 8745/ 91200 333 ////=
07558,1999-09-03 18:00:00,14,1016.2,1.7,77,10,0,25.928,,,140,13.5,20.3,,,,,,,,,wg-a,,,,AAXX 03184 07558 32/// /1414 10140 20100 39337 40162 51017 91800 333 10203 20135=
07558,1999-09-04 00:00:00,13,1017.1,-0.2,94,12,0,7.408,,,110,,,,,,,,,,,wg-a,,,,AAXX 04004 07558 32/// /1104 10130 20120 39345 40171 58002 90000=
07558,1999-09-04 06:00:00,13,1017,0.4,88,11,10000,3.704,,,20,12.4,13.6,,,,,,,,,wg-a,,,,AAXX 04064 07558 12460 70202 10130 20110 39345 40170 53004 60004 875// 90600 333 10136 20124=
07558,1999-09-04 12:00:00,21,1014.8,-0.9,53,11,0,3.704,,,240,,,,,,,,,,,wg-a,,,,AAXX 04124 07558 32/// /2402 10210 20110 39345 40148 56009 91200=
07558,1999-09-04 18:00:00,19,1015,0.5,64,12,0,18.52,,,150,13.4,23.2,,,,,,,,,wg-a,,,,AAXX 04184 07558 32/// /1510 10190 20120 39341 40150 53005 91800 333 10232 20134=
07558,1999-09-05 00:00:00,14,1017.2,-0.6,88,12,0,11.112,,,70,,,,,,,,,,,wg-a,,,,AAXX 05004 07558 32/// /0706 10140 20120 39347 40172 55006 90000=
07558,1999-09-07 12:00:00,22,1015.8,0.1,60,14,15000,11.112,,,300,,,,,,,,,,3,wg-a,,,,AAXX 07124 07558 32565 43006 10220 20140 39358 40158 50001 70340 84100 91200=
07558,1999-09-07 18:00:00,19,1017.2,0.6,60,11,0,11.112,,,320,13.3,23.4,,,,,,,,,wg-a,,,,AAXX 07184 07558 32/// /3206 10190 20110 39362 40172 53006 91800 333 10234 20133=
07558,1999-09-08 00:00:00,15,1019.8,-0.3,82,12,0,14.816,,,10,,,,,,,,,,,wg-a,,,,AAXX 08004 07558 32/// /0108 10150 20120 39375 40198 58003 90000=
07558,1999-09-08 06:00:00,13,1020.1,-0.1,94,12,7000,3.704,,,340,13,19.3,,,,,,,,,wg-a,,,,AAXX 08064 07558 12/57 23402 10130 20120 39373 40201 55001 60004 80002 90600 333 10193 20130=
07558,1999-09-08 12:00:00,23,1016.7,-0.6,50,12,20000,11.112,,,250,,,,,,,,,,,wg-a,,,,AAXX 08124 07558 32570 12506 10230 20120 39368 40167 58006 81100 91200=
07558,1999-09-08 18:00:00,22,1016.6,-0.1,35,6,0,7.408,,,250,13.1,25,,,,,,,,,wg-a,,,,AAXX 08184 07558 32/// /2504 10220 20060 39363 40166 56001 91800 333 10250 20131=
07558,1999-09-09 00:00:00,16,1020.4,0.6,72,11,0,0,,,0,,,,,,,,,,,wg-a,,,,AAXX 09004 07558 32/// /0000 10160 20110 39384 40204 51006 90000=
07558,1999-09-09 12:00:00,24,1020.5,-0.2,47,12,25000,11.112,,,240,,,,,,,,,,,wg-a,,,,AAXX 09124 07558 32675 12406 10240 20120 39406 40205 58002 81100 91200=
07558,1999-09-09 18:00:00,22,1020,-0.1,57,13,0,31.484,,,320,13.2,25.6,,,,,,,,,wg-a,,,,AAXX 09184 07558 32/// /3217 10220 20130 39396 40200 55001 91800 333 10256 20132=
07558,1999-09-10 00:00:00,17,1023.9,0.3,59,9,0,22.224,,,20,,,,,,,,,,,wg-a,,,,AAXX 10004 07558 32/// /0212 10170 20090 39417 40239 51003 90000=
07558,1999-09-10 06:00:00,15,1023.6,-0,72,10,25000,11.112,,,10,14.6,22,,,,,,,,,wg-a,,,,AAXX 10064 07558 12/75 20106 10150 20100 39410 40236 55000 60004 80002 90600 333 10220 20146=
07558,1999-09-10 12:00:00,25,1020.8,-1,41,11,500,11.112,,,170,,,,,,,,,,,wg-a,,,,AAXX 10124 07558 32500 31706 10250 20110 39410 40208 58010 82102 91200=
07558,1999-09-10 18:00:00,21,1020.7,-0.1,64,14,0,18.52,,,110,15.1,26.5,,,,,,,,,wg-a,,,,AAXX 10184 07558 32/// /1110 10210 20140 39399 40207 58001 91800 333 10265 20151=
07558,1999-09-11 00:00:00,17,1022.3,0,72,12,0,11.112,,,90,,,,,,,,,,,wg-a,,,,AAXX 11004 07558 32/// /0906 10170 20120 39403 40223 50000 90000=
07558,1999-09-11 06:00:00,17,1021.2,0.1,68,11,20000,7.408,,,80,16,20.7,,,,,,,,,wg-a,,,,AAXX 11064 07558 12/70 10804 10170 20110 39392 40212 53001 60004 80001 90600 333 10207 20160=
07558,1999-09-11 12:00:00,25,1018.6,-0.5,36,9,0,29.632,,,160,,,,,,,,,,,wg-a,,,,AAXX 11124 07558 32/// /1616 10250 20090 39389 40186 58005 91200=
07558,1999-09-11 18:00:00,21,1018.4,-0.1,40,7,0,14.816,,,140,16.6,25.5,,,,,,,,,wg-a,,,,AAXX 11184 07558 32/// /1408 10210 20070 39376 40184 57001 91800 333 10255 20166=
07558,1999-09-12 00:00:00,17,1019.7,-0.3,55,8,0,7.408,,,30,,,,,,,,,,,wg-a,,,,AAXX 12004 07558 32/// /0304 10170 20080 39379 40197 58003 90000=
07558,1999-09-12 12:00:00,26,1014.3,-1.7,34,9,0,7.408,,,210,,,,,,,,,,,wg-a,,,,AAXX 12124 07558 32/// /2104 10260 20090 39353 40143 57017 91200=
07558,1999-09-12 18:00:00,21,1013.4,-0.4,53,11,0,14.816,,,130,14.1,27.6,,,,,,,,,wg-a,,,,AAXX 12184 07558 32/// /1308 10210 20110 39332 40134 55004 91800 333 10276 20141=
07558,1999-09-13 00:00:00,16,1013.7,-1.1,59,8,0,7.408,,,50,,,,,,,,,,,wg-a,,,,AAXX 13004 07558 32/// /0504 10160 20080 39322 40137 58011 90000=
07558,1999-09-13 06:00:00,16,1012.6,-0.1,51,6,20000,18.52,,,90,15.5,21,,,,,,,,,wg-a,,,,AAXX 13064 07558 12/70 20910 10160 20060 39311 40126 55001 60004 80001 90600 333 10210 20155=
07558,1999-09-13 18:00:00,19,1010.1,-0,60,11,0,25.928,,,110,16,23.7,,,,,,,,,wg-a,,,,AAXX 13184 07558 32/// /1114 10190 20110 39295 40101 55000 91800 333 10237 20160=
07558,1999-09-14 00:00:00,17,1010.6,-0.4,82,14,0,18.52,,,120,,,,,,,,,,,wg-a,,,,AAXX 14004 07558 32/// /1210 10170 20140 39296 40106 58004 90000=
07558,1999-09-14 06:00:00,15,1012.5,0.5,88,13,7000,14.816,,,130,15.3,18.6,,0,,,,,,1,wg-a,,,,AAXX 14064 07558 02557 81308 10150 20130 39309 40125 53005 60004 70186 8/47/ 90600 333 10186 20153 60007=
07558,1999-09-14 12:00:00,16,1013.4,0.1,94,15,7000,3.704,,,90,,,,3,,,,,,1,wg-a,,,,AAXX 14124 07558 12457 80902 10160 20150 39319 40134 51001 60037 70186 8/55/ 91200=
07558,1999-09-14 15:00:00,17.5,1012.5,-0.3,89,15.7,7000,3.704,,,270,,,,,,,,,,,og-post,,,,AAXX 14154 07558 32457 72702 10175 20157 39316 40125 56003 8755/ 333 83616 84360=
07558,1999-09-14 16:00:00,17.5,1012.4,-0.2,89,15.7,,3.704,,,60,,,,,,,,,,,og-post,,,,AAXX 14164 07558 36/// /0602 10175 20157 39315 40124 57002=
07558,1999-09-14 17:00:00,17.4,1012.6,-0,89,15.6,,7.408,,,90,,,,,,,,,,,og-post,,,,AAXX 14174 07558 36/// /0904 10174 20156 39316 40126 55000=
07558,1999-09-14 18:00:00,16.8,1012.1,-0.6,91,15.3,,11.112,,,60,14.6,17.5,,,,3,,,,,og-post,,,,AAXX 14184 07558 16/// /0606 10168 20153 39310 40121 58006 60032 333 10175 20146=
07558,1999-09-14 19:00:00,16.5,1012.5,-0.2,93,15.4,,7.408,,,100,,,1,,,,,,,,og-post,,,,AAXX 14194 07558 26/// /1004 10165 20154 39313 40125 55002 333 60015=
07558,1999-09-14 20:00:00,15.7,1013.4,0.3,98,15.4,,11.112,,,90,,,7,,,,,,,,og-post,,,,AAXX 14204 07558 26/// /0906 10157 20154 39319 40134 53003 333 60075=
07558,1999-09-14 21:00:00,15.4,1013.6,1,98,15.1,,7.408,,,70,,,,16,,,,,,,og-post,,,,AAXX 14214 07558 26/// /0704 10154 20151 39320 40136 51010 333 60167=
07558,1999-09-14 22:00:00,15.1,1013.4,0.4,99,14.9,,3.704,,,50,,,1,,,,,,,,og-post,,,,AAXX 14224 07558 26/// /0502 10151 20149 39317 40134 50004 333 60015=
07558,1999-09-14 23:00:00,14.8,1013.3,-0.3,99,14.6,,7.408,,,250,,,1,,,,,,,,og-post,,,,AAXX 14234 07558 26/// /2504 10148 20146 39316 40133 58003 333 60015=
07558,1999-09-15 00:00:00,14.2,1012.5,-1.4,98,13.9,,7.408,,,20,,,,4,19,,,,,,og-post,,,,AAXX 15004 07558 /6/// /0204 10142 20139 39306 40125 58014 60191 333 60047=
07558,1999-09-15 01:00:00,14.4,1011.7,-1.7,100,14.4,,14.816,,,30,,,0.6,,,,,,,,og-post,,,,AAXX 15014 07558 26/// /0308 10144 20144 39300 40117 58017 333 69965=
07558,1999-09-15 02:00:00,14.5,1012,-1.3,99,14.3,,3.704,,,170,,,1,,,,,,,,og-post,,,,AAXX 15024 07558 26/// /1702 10145 20143 39303 40120 55013 333 60015=
07558,1999-09-15 03:00:00,13.9,1011.8,-0.7,99,13.7,,7.408,,,260,,,,6,,,,,,,og-post,,,,AAXX 15034 07558 26/// /2604 10139 20137 39299 40118 56007 333 60067=
07558,1999-09-15 06:00:00,14,1011.5,-0.4,94,13,6000,7.408,,,340,13.4,16.7,,3,,,31,,,60,wg-a,,,,AAXX 15064 07558 02556 83404 10140 20130 39295 40115 55004 60314 76062 885// 90600 333 10167 20134 60037=
07558,1999-09-15 12:00:00,14,1013,0.5,100,14,500,14.816,,,210,,,,,,,,,,60,wg-a,,,,AAXX 15124 07558 32/00 92108 10140 20140 39310 40130 53005 76064 89/// 91200=
07558,1999-09-15 18:00:00,13,1014.7,1.2,100,13,0,18.52,,,290,13.3,15.4,,,,,,,,,wg-a,,,,AAXX 15184 07558 32/// /2910 10130 20130 39324 40147 53012 91800 333 10154 20133=
07558,1999-09-16 00:00:00,12,1016.4,0.2,94,11,0,11.112,,,290,,,,,,,,,,,wg-a,,,,AAXX 16004 07558 32/// /2906 10120 20110 39334 40164 51002 90000=
07558,1999-09-16 06:00:00,9,1016.2,-0.1,100,9,500,7.408,,,360,8.9,13.5,,0,,,,,,,wg-a,,,,AAXX 16064 07558 12/00 03604 10090 20090 39325 40162 56001 60007 80000 90600 333 10135 20089=
07558,1999-09-16 12:00:00,18,1013.3,-0.5,64,11,40000,3.704,,,180,,,,,,,,,,1,wg-a,,,,AAXX 16124 07558 32482 11802 10180 20110 39322 40133 58005 70140 81100 91200=
07558,1999-09-16 18:00:00,16.2,1013,-0,49,5.5,,3.704,,,250,9.1,20.1,,,,,,,,,og-post,,,,AAXX 16184 07558 36/// /2502 10162 20055 39314 40130 55000 333 10201 20091=
07558,1999-09-16 19:00:00,14,1013.5,0,66,7.8,,14.816,,,10,,,,,,,,,,,og-post,,,,AAXX 16194 07558 36/// /0108 10140 20078 39313 40135 50000=
07558,1999-09-16 20:00:00,13.8,1013.8,0.3,70,8.4,,18.52,,,340,,,,,,,,,,,og-post,,,,AAXX 16204 07558 36/// /3410 10138 20084 39316 40138 53003=
07558,1999-09-16 21:00:00,13.5,1014.2,0.4,69,7.9,,3.704,,,350,,,,,,,,,,,og-post,,,,AAXX 16214 07558 36/// /3502 10135 20079 39318 40142 53004=
07558,1999-09-16 22:00:00,13.1,1014,0.2,70,7.8,,7.408,,,360,,,,,,,,,,,og-post,,,,AAXX 16224 07558 36/// /3604 10131 20078 39315 40140 50002=
07558,1999-09-16 23:00:00,12.5,1013.3,-0.8,78,8.8,,14.816,,,30,,,,,,,,,,,og-post,,,,AAXX 16234 07558 36/// /0308 10125 20088 39308 40133 58008=
07558,1999-09-17 00:00:00,11.6,1013.6,-1,82,8.6,,7.408,,,220,,,,,,,,,,,og-post,,,,AAXX 17004 07558 36/// /2204 10116 20086 39308 40136 56010=
07558,1999-09-17 01:00:00,11.6,1013.2,-1.1,84,9,,,,,,,,,,,,,,,,og-post,,,,AAXX 17014 07558 36/// /0000 10116 20090 39304 40132 56011=
07558,1999-09-17 02:00:00,11,1012.9,-0.8,87,8.9,,7.408,,,20,,,,,,,,,,,og-post,,,,AAXX 17024 07558 36/// /0204 10110 20089 39300 40129 58008=
07558,1999-09-17 03:00:00,10.4,1012.5,-1.4,89,8.7,,11.112,,,20,,,,,,,,,,,og-post,,,,AAXX 17034 07558 36/// /0206 10104 20087 39294 40125 58014=
07558,1999-09-17 04:00:00,10.3,1012.3,-1.2,88,8.4,20000,7.408,,,350,,,,,,,,,,,og-post,,,,AAXX 17044 07558 32970 33504 10103 20084 39292 40123 56012 80001 333 83075=
07558,1999-09-17 05:00:00,9.9,1012.5,-0.7,92,8.7,20000,7.408,,,30,,,,,,,,,,,og-post,,,,AAXX 17054 07558 32970 40304 10099 20087 39293 40125 55007 82031 333 82360 83075=
07558,1999-09-17 06:00:00,9.4,1013.1,0.3,93,8.3,20000,7.408,,,280,9.4,16.2,,,,,0,11,8,,og-post,,,,AAXX 17064 07558 32970 42804 10094 20083 39297 40131 53003 83031 333 10162 20094 30008 55110 70000 83360 83075=
07558,1999-09-17 07:00:00,10.9,1013.3,1.1,90,9.3,20000,3.704,,,210,,,,,,,,,,,og-post,,,,AAXX 17074 07558 32970 32102 10109 20093 39303 40133 53011 83081 333 83360=
07558,1999-09-17 08:00:00,12.7,1013.8,2,81,9.5,20000,11.112,,,240,,,,,,,,,,,og-post,,,,AAXX 17084 07558 32570 62406 10127 20095 39313 40138 53020 85830 333 83826 84630 85360=
07558,1999-09-17 09:00:00,13.3,1013.6,1.6,76,9.2,30000,31.484,53.708,53.708,320,,,,,,,,,,,og-post,,,,AAXX 17094 07558 32580 73217 10133 20092 39313 40136 51016 8583/ 333 83826 84630 85360 91029 91129=
07558,1999-09-17 11:00:00,15.6,1011.9,-1,61,8.1,30000,18.52,,,340,,,,,,,,,,,og-post,,,,AAXX 17114 07558 32580 63410 10156 20081 39303 40119 58010 83531 333 83630 83360 85075=
07558,1999-09-17 12:00:00,16.8,1011.2,-1.3,59,8.7,30000,7.408,53.708,,330,,,,,,,,,,,og-post,,,,AAXX 17124 07558 32580 53304 10168 20087 39300 40112 58013 82131 333 82830 83360 91129=
07558,1999-09-17 13:00:00,18.6,1010.4,-1.3,60,10.7,30000,14.816,,,220,,,,,,,,,,,og-post,,,,AAXX 17134 07558 32680 42208 10186 20107 39298 40104 56013 84130 333 84833=
07558,1999-09-17 14:00:00,18,1010.2,-0.8,66,11.6,30000,11.112,,,210,,,,,,,,,,,og-post,,,,AAXX 17144 07558 32680 42106 10180 20116 39295 40102 57008 83131 333 83833=
07558,1999-09-17 15:00:00,16.3,1010.7,-0.6,62,9,30000,22.224,,,320,,,,,,,,,,,og-post,,,,AAXX 17154 07558 32680 53212 10163 20090 39294 40107 56006 85131 333 85833 83075=
07558,1999-09-17 16:00:00,16,1010.8,-0.4,61,8.5,,22.224,,,300,,,,,,,,,,,og-post,,,,AAXX 17164 07558 36/// /3012 10160 20085 39294 40108 56004=
07558,1999-09-17 17:00:00,15.4,1011.2,0.1,68,9.5,,14.816,,,310,,,,,,,,,,,og-post,,,,AAXX 17174 07558 36/// /3108 10154 20095 39296 40112 53001=
07558,1999-09-17 18:00:00,13.4,1012.2,0.6,77,9.5,,11.112,,,290,9.4,18.8,,,,,,,,,og-post,,,,AAXX 17184 07558 36/// /2906 10134 20095 39300 40122 53006 333 10188 20094=
07558,1999-09-17 19:00:00,13.3,1012.3,0.7,75,9,,11.112,,,320,,,,,,,,,,,og-post,,,,AAXX 17194 07558 36/// /3206 10133 20090 39301 40123 51007=
07558,1999-09-18 00:00:00,12,1012.5,-0.2,88,10,0,3.704,,,50,,,,,,,,,,,wg-a,,,,AAXX 18004 07558 32/// /0502 10120 20100 39300 40125 57002 90000=
07558,1999-09-18 06:00:00,10,1012,-0.1,93,9,500,3.704,,,290,9.7,13.5,,0,,,,,,,wg-a,,,,AAXX 18064 07558 02500 32902 10100 20090 39288 40120 55001 60004 82502 90600 333 10135 20097 60007=
07558,1999-09-18 12:00:00,19,1006.8,-2.2,49,8,0,7.408,,,180,,,,,,,,,,,wg-a,,,,AAXX 18124 07558 32/// /1804 10190 20080 39264 40068 56022 91200=
07558,1999-09-18 18:00:00,15,1006.1,-0.2,67,9,0,22.224,,,150,9.8,20,,,,,,,,,wg-a,,,,AAXX 18184 07558 32/// /1512 10150 20090 39247 40061 56002 91800 333 10200 20098=
07558,1999-09-19 00:00:00,15,1003.3,-1.5,82,12,0,29.632,,,120,,,,,,,,,,,wg-a,,,,AAXX 19004 07558 32/// /1216 10150 20120 39224 40033 56015 90000=
07558,1999-09-19 06:00:00,16,998.3,-2.2,82,13,15000,29.632,,,140,13.8,16.1,,,,,,,,,wg-a,,,,AAXX 19064 07558 12465 71416 10160 20130 39181 49983 56022 60004 875// 90600 333 10161 20138=
07558,1999-09-19 12:00:00,17,993.7,-2.3,72,12,0,64.82,,,140,,,,,,,,,,,wg-a,,,,AAXX 19124 07558 32/// /1435 10170 20120 39141 49937 56023 91200=
07558,1999-09-19 18:00:00,15,992.3,-0.1,88,13,0,35.188,,,150,14.2,19.6,,0,,,,,,,wg-a,,,,AAXX 19184 07558 12/// /1519 10150 20130 39122 49923 55001 60007 91800 333 10196 20142=
07558,1999-09-20 00:00:00,11,997.2,2.8,87,9,0,18.52,,,230,,,,4,,,,,,,wg-a,,,,AAXX 20004 07558 12/// /2310 10110 20090 39155 49972 52028 60047 90000=
07558,1999-09-20 06:00:00,8,1001.1,1.3,100,8,20000,3.704,,,240,7.9,14.7,,,,,11,,,,wg-a,,,,AAXX 20064 07558 12570 42402 10080 20080 39184 40011 53013 60114 84500 90600 333 10147 20079=
07558,1999-09-20 18:00:00,14,1003.4,0.7,63,7,0,7.408,,,240,8.3,18.5,,,,,,,,,wg-a,,,,AAXX 20184 07558 32/// /2404 10140 20070 39221 40034 53007 91800 333 10185 20083=
07558,1999-09-21 00:00:00,11,1006.9,0.7,82,8,0,7.408,,,80,,,,,,,,,,,wg-a,,,,AAXX 21004 07558 32/// /0804 10110 20080 39245 40069 50007 90000=
07558,1999-09-21 06:00:00,9,1008.7,0.2,93,8,500,3.704,,,20,9,14.1,,,,,,,,3,wg-a,,,,AAXX 21064 07558 12500 30202 10090 20080 39256 40087 52002 60004 70386 81502 90600 333 10141 20090=
07558,1999-09-21 12:00:00,19,1006.8,-0.1,40,5,40000,29.632,,,170,,,,,,,,,,,wg-a,,,,AAXX 21124 07558 32582 51716 10190 20050 39264 40068 57001 81132 91200=
07558,1999-09-21 18:00:00,16,1008.7,0.7,72,11,0,14.816,,,140,9.1,20.3,,,,,,,,,wg-a,,,,AAXX 21184 07558 32/// /1408 10160 20110 39274 40087 51007 91800 333 10203 20091=
07558,1999-09-22 00:00:00,14,1011.2,0.2,72,9,0,11.112,,,100,,,,,,,,,,,wg-a,,,,AAXX 22004 07558 32/// /1006 10140 20090 39292 40112 50002 90000=
07558,1999-09-22 06:00:00,15,1010.7,0.2,82,12,20000,11.112,,,80,12.5,15.6,,,,,,,,,wg-a,,,,AAXX 22064 07558 12570 30806 10150 20120 39290 40107 53002 60004 82531 90600 333 10156 20125=
07558,1999-09-22 12:00:00,19,1009.3,-0.6,73,14,500,31.484,,,130,,,,,,,,,,,wg-a,,,,AAXX 22124 07558 32600 71317 10190 20140 39291 40093 58006 85501 91200=
07558,1999-09-22 18:00:00,18,1011.3,1.3,77,14,0,29.632,,,120,14.5,21.4,,,,,,,,,wg-a,,,,AAXX 22184 07558 32/// /1216 10180 20140 39305 40113 53013 91800 333 10214 20145=
07558,1999-09-23 00:00:00,17,1013.5,0.3,77,13,0,25.928,,,130,,,,,,,,,,,wg-a,,,,AAXX 23004 07558 32/// /1314 10170 20130 39323 40135 52003 90000=
07558,1999-09-23 06:00:00,17,1013.1,0.1,88,15,20000,22.224,,,140,17,17.8,,,,,,,,,wg-a,,,,AAXX 23064 07558 12570 71412 10170 20150 39321 40131 53001 60004 878// 90600 333 10178 20170=
07558,1999-09-23 12:00:00,23,1013.2,0.1,61,15,500,25.928,,,140,,,,,,,,,,,wg-a,,,,AAXX 23124 07558 32600 61414 10230 20150 39336 40132 53001 84231 91200=
07558,1999-09-23 18:00:00,19,1015.8,1.1,83,16,0,18.52,,,150,17.3,23.1,,,,,,,,,wg-a,,,,AAXX 23184 07558 32/// /1510 10190 20160 39349 40158 53011 91800 333 10231 20173=
07558,1999-09-24 00:00:00,17,1018.8,0.5,94,16,0,3.704,,,240,,,,,,,,,,,wg-a,,,,AAXX 24004 07558 32/// /2402 10170 20160 39372 40188 53005 90000=
07558,1999-09-24 06:00:00,15,1019.4,-0,100,15,12000,7.408,,,30,14.4,18.5,,,,,,,,28,wg-a,,,,AAXX 24064 07558 12462 30304 10150 20150 39371 40194 55000 60004 72840 81502 90600 333 10185 20144=
07558,1999-09-24 12:00:00,22,1017.5,-0.6,69,16,25000,22.224,,,130,,,,,,,,,,,wg-a,,,,AAXX 24124 07558 32575 61312 10220 20160 39373 40175 58006 86800 91200=
07558,1999-09-24 18:00:00,19,1016.9,-0.2,83,16,0,22.224,,,140,14.6,23.9,,,,,,,,,wg-a,,,,AAXX 24184 07558 32/// /1412 10190 20160 39359 40169 56002 91800 333 10239 20146=
07558,1999-09-25 00:00:00,18,1015.5,-2.2,88,16,0,25.928,,,120,,,,,,,,,,,wg-a,,,,AAXX 25004 07558 32/// /1214 10180 20160 39344 40155 58022 90000=
07558,1999-09-25 06:00:00,14,1015.8,0.1,94,13,20000,7.408,,,300,13.8,18.6,,1,,,1,,,21,wg-a,,,,AAXX 25064 07558 02670 73004 10140 20130 39336 40158 53001 60014 72162 875// 90600 333 10186 20138 60017=
07558,1999-09-25 12:00:00,20,1012.1,-1.4,78,16,0,22.224,,,150,,,,,,,,,,,wg-a,,,,AAXX 25124 07558 32/// /1512 10200 20160 39318 40121 56014 91200=
07558,1999-09-25 18:00:00,14,1012.2,0.4,100,14,0,7.408,,,90,14,20.1,,,,,,,,,wg-a,,,,AAXX 25184 07558 32/// /0904 10140 20140 39304 40122 51004 91800 333 10201 20140=
07558,1999-09-26 00:00:00,13,1012.8,-0.2,100,13,0,11.112,,,260,,,,,,,,,,,wg-a,,,,AAXX 26004 07558 32/// /2606 10130 20130 39306 40128 58002 90000=
07558,1999-09-26 06:00:00,12,1013.9,0.6,94,11,15000,7.408,,,360,11.9,14.6,,,,,19,,,3,wg-a,,,,AAXX 26064 07558 12465 73604 10120 20110 39312 40139 53006 60194 70392 8457/ 90600 333 10146 20119=
07558,1999-09-26 12:00:00,17,1013.2,-0.6,68,11,0,11.112,,,230,,,,,,,,,,,wg-a,,,,AAXX 26124 07558 32/// /2306 10170 20110 39320 40132 58006 91200=
07558,1999-09-26 18:00:00,14,1013.5,0.4,72,9,0,11.112,,,300,11.9,19.2,,,,,,,,,wg-a,,,,AAXX 26184 07558 32/// /3006 10140 20090 39313 40135 53004 91800 333 10192 20119=
07558,1999-09-27 00:00:00,11,1015.1,-0.4,87,9,0,7.408,,,10,,,,,,,,,,,wg-a,,,,AAXX 27004 07558 32/// /0104 10110 20090 39320 40151 58004 90000=
07558,1999-09-27 06:00:00,8,1014.2,-0.7,100,8,20000,7.408,,,360,8.4,13.9,,,,,,,,,wg-a,,,,AAXX 27064 07558 12/70 43604 10080 20080 39304 40142 56007 60004 82031 90600 333 10139 20084=
07558,1999-09-27 12:00:00,18,1011.1,-1,64,11,500,14.816,,,150,,,,,,,,,,,wg-a,,,,AAXX 27124 07558 32600 61508 10180 20110 39303 40111 58010 83132 91200=
07558,1999-09-27 18:00:00,14,1012,0.5,72,9,0,3.704,,,330,8.4,19.9,,,,,,,,,wg-a,,,,AAXX 27184 07558 32/// /3302 10140 20090 39301 40120 52005 91800 333 10199 20084=
07558,1999-09-27 20:00:00,12.9,1012.7,0.4,86,10.6,,14.816,,,350,,,,,,,,,,,og-post,,,,AAXX 27204 07558 36/// /3508 10129 20106 39304 40127 51004=
07558,1999-09-27 21:00:00,12.7,1013.4,0.9,88,10.8,,3.704,,,160,,,,,,,,,,,og-post,,,,AAXX 27214 07558 36/// /1602 10127 20108 39310 40134 53009=
07558,1999-09-27 22:00:00,13.2,1013.4,0.7,85,10.7,,7.408,,,220,,,,,,,,,,,og-post,,,,AAXX 27224 07558 36/// /2204 10132 20107 39311 40134 53007=
07558,1999-09-27 23:00:00,12.6,1014.1,1.2,92,11.3,,14.816,,,220,,,,,,,,,,,og-post,,,,AAXX 27234 07558 36/// /2208 10126 20113 39316 40141 51012=
07558,1999-09-28 00:00:00,12.1,1014,0.4,98,11.8,,14.816,,,230,,,,0.6,0.6,,,,,,og-post,,,,AAXX 28004 07558 /6/// /2308 10121 20118 39314 40140 50004 69961 333 69967=
07558,1999-09-28 01:00:00,11.8,1013.8,0,99,11.6,,7.408,,,250,,,,,,,,,,,og-post,,,,AAXX 28014 07558 36/// /2504 10118 20116 39311 40138 50000=
07558,1999-09-28 02:00:00,11.9,1013.5,-0.7,99,11.7,,11.112,,,240,,,,,,,,,,,og-post,,,,AAXX 28024 07558 36/// /2406 10119 20117 39309 40135 57007=
07558,1999-09-28 03:00:00,11.5,1013.3,-0.8,100,11.5,,14.816,,,240,,,,,,,,,,,og-post,,,,AAXX 28034 07558 36/// /2408 10115 20115 39306 40133 57008=
07558,1999-09-28 04:00:00,11.8,1013.4,-0.4,100,11.8,1500,14.816,,,220,,,,,,,,,,10,og-post,,,,AAXX 28044 07558 31415 72208 10118 20118 39307 40134 55004 71022 875// 333 83610 86620=
07558,1999-09-28 05:00:00,11.6,1013.9,0.2,100,11.6,400,22.224,,,220,,,,,,,,,,46,og-post,,,,AAXX 28054 07558 31304 62212 10116 20116 39311 40139 53002 74642 86500 333 83606 84620=
07558,1999-09-28 06:00:00,11.6,1014.5,1.1,100,11.6,800,14.816,,,230,11.4,14.5,,,,0.6,1.2,3.6,11,42,og-post,,,,AAXX 28064 07558 11208 72308 10116 20116 39317 40145 53011 69962 74264 875// 333 10145 20114 31011 55036 70012 83703 83608 85620=
07558,1999-09-28 09:00:00,12.4,1016.2,1.8,100,12.4,1100,14.816,,,240,,,,0.6,,,,,,60,og-post,,,,AAXX 28094 07558 21211 72408 10124 20124 39335 40162 51018 76064 875// 333 69967 84703 87608=
07558,1999-09-28 12:00:00,16.4,1015.1,0.1,75,12,15000,18.52,,,260,,,,0.4,1,,,,,1,og-post,,,,AAXX 28124 07558 /1465 72610 10164 20120 39336 40151 50001 60011 70164 878// 333 69947 84815 84626=
07558,1999-09-28 14:00:00,16.8,1014.7,-0.6,62,9.5,20000,31.484,,,260,,,,,,,,,,,og-post,,,,AAXX 28144 07558 32470 72617 10168 20095 39332 40147 55006 86802 333 84816 83630=
07558,1999-09-28 15:00:00,16.9,1014.7,-0.3,65,10.3,15000,29.632,,,270,,,,,,,,,,,og-post,,,,AAXX 28154 07558 32465 72716 10169 20103 39333 40147 55003 86802 333 84816 84630=
07558,1999-09-28 16:00:00,14.9,1015.4,0.3,81,11.7,,22.224,,,310,,,,,,,,,,,og-post,,,,AAXX 28164 07558 36/// /3112 10149 20117 39334 40154 52003=
07558,1999-09-28 18:00:00,14,1016.5,0.9,87,11.9,,14.816,,,310,11.5,18.1,,,,1,,,,,og-post,,,,AAXX 28184 07558 16/// /3108 10140 20119 39342 40165 53009 60012 333 10181 20115=
07558,1999-09-28 20:00:00,12.9,1018,1.4,90,11.3,,7.408,,,290,,,,,,,,,,,og-post,,,,AAXX 28204 07558 36/// /2904 10129 20113 39353 40180 53014=
07558,1999-09-28 21:00:00,13.2,1018.1,1.2,89,11.4,,,,,,,,,,,,,,,,og-post,,,,AAXX 28214 07558 36/// /0000 10132 20114 39354 40181 51012=
07558,1999-09-28 22:00:00,13.1,1018.2,0.8,89,11.3,,3.704,,,360,,,,,,,,,,,og-post,,,,AAXX 28224 07558 36/// /3602 10131 20113 39355 40182 51008=
07558,1999-09-28 23:00:00,12.5,1018.2,0,90,10.9,,11.112,,,350,,,,,,,,,,,og-post,,,,AAXX 28234 07558 36/// /3506 10125 20109 39353 40182 50000=
07558,1999-09-29 00:00:00,12.7,1018.2,-0,88,10.8,,7.408,,,320,,,,,,,,,,,og-post,,,,AAXX 29004 07558 36/// /3204 10127 20108 39354 40182 54000=
07558,1999-09-29 01:00:00,12.4,1018.1,-0.3,89,10.6,,3.704,,,330,,,,,,,,,,,og-post,,,,AAXX 29014 07558 36/// /3302 10124 20106 39352 40181 57003=
07558,1999-09-29 02:00:00,11.5,1017.8,-0.6,94,10.6,,7.408,,,350,,,,,,,,,,,og-post,,,,AAXX 29024 07558 36/// /3504 10115 20106 39347 40178 58006=
07558,1999-09-29 03:00:00,11.2,1017.4,-1.2,97,10.7,,3.704,,,10,,,,,,,,,,,og-post,,,,AAXX 29034 07558 36/// /0102 10112 20107 39342 40174 58012=
07558,1999-09-29 04:00:00,10.8,1017.2,-1.3,99,10.6,10000,3.704,,,110,,,,,,,,,,,og-post,,,,AAXX 29044 07558 32960 01102 10108 20106 39339 40172 56013=
07558,1999-09-29 05:00:00,10,1017.7,-0.6,100,10,800,11.112,,,10,,,0.2,,,,,,,46,og-post,,,,AAXX 29054 07558 21908 00106 10100 20100 39341 40177 55006 74640 333 69925=
07558,1999-09-29 07:00:00,10.2,1018,0.6,100,10.2,800,7.408,,,10,,,,,,,,,,44,og-post,,,,AAXX 29074 07558 31908 00104 10102 20102 39345 40180 52006 74444=
07558,1999-09-29 08:00:00,10.7,1017.8,0.3,100,10.7,800,7.408,,,360,,,,,,,,,,44,og-post,,,,AAXX 29084 07558 31908 03604 10107 20107 39344 40178 50003 74444=
07558,1999-09-29 09:00:00,12.7,1017.3,0.3,100,12.7,20000,3.704,,,40,,,,,,,,,,28,og-post,,,,AAXX 29094 07558 31970 00402 10127 20127 39346 40173 52003 72840=
07558,1999-09-29 10:00:00,16.1,1016.1,-0.1,79,12.5,20000,3.704,,,360,,,,,,,,,,,og-post,,,,AAXX 29104 07558 32970 03602 10161 20125 39344 40161 58001=
07558,1999-09-29 11:00:00,20.1,1014.7,-0.3,50,9.4,30000,7.408,,,190,,,,,,,,,,,og-post,,,,AAXX 29114 07558 32980 11904 10201 20094 39341 40147 58003 81030 333 81360=
07558,1999-09-29 12:00:00,21.2,1013.6,-1.2,47,9.4,30000,7.408,,,170,,,,,,,,,,2,og-post,,,,AAXX 29124 07558 31980 11704 10212 20094 39334 40136 58012 70240 81030 333 81360=
07558,1999-09-29 13:00:00,22.3,1012.5,-1.8,40,8.1,30000,11.112,,,220,,,,,,,,,,,og-post,,,,AAXX 29134 07558 32980 12206 10223 20081 39326 40125 58018 81030 333 81360=
07558,1999-09-29 14:00:00,23.6,1011.5,-2.1,33,6.4,30000,14.816,,,230,,,,,,,,,,,og-post,,,,AAXX 29144 07558 32980 02308 10236 20064 39320 40115 56021=
07558,1999-09-29 15:00:00,23.5,1010.9,-2,34,6.7,30000,11.112,,,230,,,,,,,,,,,og-post,,,,AAXX 29154 07558 32980 02306 10235 20067 39314 40109 56020=
07558,1999-09-29 16:00:00,23,1010.1,-2,36,7.1,,11.112,,,220,,,,,,,,,,,og-post,,,,AAXX 29164 07558 36/// /2206 10230 20071 39306 40101 58020=
07558,1999-09-29 17:00:00,21.5,1010.1,-1.8,41,7.7,,7.408,,,220,,,,,,,,,,,og-post,,,,AAXX 29174 07558 36/// /2204 10215 20077 39302 40101 56018=
07558,1999-09-29 18:00:00,17.9,1010.9,-1.4,56,9,,14.816,,,140,9.8,23.8,,,,,,,,,og-post,,,,AAXX 29184 07558 36/// /1408 10179 20090 39300 40109 56014 333 10238 20098=
07558,1999-09-29 19:00:00,17.6,1010.8,-0.7,60,9.7,,7.408,,,120,,,,,,,,,,,og-post,,,,AAXX 29194 07558 36/// /1204 10176 20097 39299 40108 56007=
07558,1999-09-29 20:00:00,16.2,1011.1,-0.4,65,9.6,,14.816,,,100,,,,,,,,,,,og-post,,,,AAXX 29204 07558 36/// /1008 10162 20096 39298 40111 56004=
07558,1999-09-29 21:00:00,15.7,1010.9,-0.5,71,10.5,,11.112,,,100,,,,,,,,,,,og-post,,,,AAXX 29214 07558 36/// /1006 10157 20105 39295 40109 58005=
07558,1999-09-29 22:00:00,15.4,1009.8,-1.6,55,6.4,,11.112,,,80,,,,,,,,,,,og-post,,,,AAXX 29224 07558 36/// /0806 10154 20064 39283 40098 58016=
07558,1999-09-29 23:00:00,15.3,1008.9,-2.4,54,6.1,,3.704,,,50,,,,,,,,,,,og-post,,,,AAXX 29234 07558 36/// /0502 10153 20061 39274 40089 58024=
07558,1999-09-30 00:00:00,14.6,1008.1,-3,58,6.4,,7.408,,,30,,,,,,,,,,,og-post,,,,AAXX 30004 07558 36/// /0304 10146 20064 39265 40081 56030=
07558,1999-09-30 01:00:00,14,1007.3,-2.7,55,5.1,,18.52,,,120,,,,,,,,,,,og-post,,,,AAXX 30014 07558 36/// /1210 10140 20051 39256 40073 57027=
07558,1999-09-30 02:00:00,12.7,1007.1,-2.2,91,11.3,,3.704,,,110,,,,,,,,,,,og-post,,,,AAXX 30024 07558 36/// /1102 10127 20113 39252 40071 56022=
07558,1999-09-30 03:00:00,14.4,1004.9,-2.8,94,13.4,,14.816,,,120,,,,,,,,,,,og-post,,,,AAXX 30034 07558 36/// /1208 10144 20134 39237 40049 58028=
07558,1999-09-30 04:00:00,14.8,1004.3,-2.3,94,13.8,10000,11.112,,,150,,,,,,,,,,,og-post,,,,AAXX 30044 07558 32460 61506 10148 20138 39233 40043 57023 86500 333 83610 85620=
07558,1999-09-30 05:00:00,14.5,1004.8,-1.6,94,13.5,10000,11.112,,,190,,,,,,,,,,,og-post,,,,AAXX 30054 07558 32460 61906 10145 20135 39236 40048 55016 86532 333 81610 83620=
07558,1999-09-30 06:00:00,14.9,1005.4,0.6,95,14.1,8000,11.112,,,200,12.1,17.9,,,,,0,9.7,10,,og-post,,,,AAXX 30064 07558 32358 72006 10149 20141 39243 40054 53006 85532 333 10179 20121 30010 55097 70000 83608 83620=
07558,1999-09-30 07:00:00,12.8,1007.6,2.3,83,10,10000,50.004,79.636,79.636,290,,,0.2,,,,,,,61,og-post,,,,AAXX 30074 07558 21360 72927 10128 20100 39256 40076 53023 76162 875// 333 69925 83608 87616 91043 91143=
07558,1999-09-30 08:00:00,11.9,1009.6,3.6,91,10.5,10000,11.112,,,210,,,0.2,,,,,,,60,og-post,,,,AAXX 30084 07558 21460 72106 10119 20105 39272 40096 53036 76066 875// 333 69925 84610 87616=
07558,1999-09-30 09:00:00,11.6,1009.8,3,91,10.2,12000,25.928,79.636,,290,,,,2,,,,,,61,og-post,,,,AAXX 30094 07558 21462 72914 10116 20102 39273 40098 51030 76162 875// 333 60027 83610 86620 91143=
07558,1999-09-30 10:00:00,12.4,1009.3,1.5,87,10.3,15000,22.224,,,260,,,0.2,,,,,,,21,og-post,,,,AAXX 30104 07558 21465 72612 10124 20103 39271 40093 50015 72162 878// 333 69925 82810 83613 85625=
07558,1999-09-30 11:00:00,13.3,1008.6,-0.5,70,8,15000,38.892,57.412,,260,,,0.6,,,,,,,25,og-post,,,,AAXX 30114 07558 21465 72621 10133 2008 39267 40086 58005 72522 878// 333 69965 84813 84626 91131=
07558,1999-09-30 12:00:00,13.5,1008.7,-0.4,82,10.5,10000,29.632,79.636,,260,,,,0.8,3,,,,,3,og-post,,,,AAXX 30124 07558 /1460 72616 10135 20105 39269 40087 55004 60031 70386 878// 333 69987 85813 85623 91143=
07558,1999-09-30 13:00:00,13,1008.7,-0.4,86,10.7,,18.52,,,220,,,,,,,,,,,og-post,,,,AAXX 30134 07558 36/// /2210 10130 20107 39267 40087 56004=
07558,1999-09-30 14:00:00,14.8,1008,-0.1,76,10.6,15000,31.484,72.228,57.412,260,,,,,,,,,,,og-post,,,,AAXX 30144 07558 32465 72617 10148 20106 39266 40080 58001 878// 333 84815 85623 91031 91139=
07558,1999-09-30 15:00:00,12.6,1008.7,-0.3,90,11,12000,35.188,72.228,61.116,280,,,,1,,,,,,25,og-post,,,,AAXX 30154 07558 21462 72819 10126 20110 39266 40087 56003 72586 878// 333 60017 83813 85623 91033 91139=
07558,1999-09-30 16:00:00,13.3,1009,0.4,80,9.9,,35.188,75.932,75.932,280,,,0.2,,,,,,,,og-post,,,,AAXX 30164 07558 26/// /2819 10133 20099 39271 40090 53004 333 69925 91041 91141=
07558,1999-09-30 17:00:00,12.3,1010.2,1.3,87,10.2,,35.188,72.228,61.116,280,,,,,,,,,,,og-post,,,,AAXX 30174 07558 36/// /2819 10123 20102 39279 40102 53013 333 91033 91139=
07558,1999-09-30 18:00:00,12.7,1011.3,2.4,82,9.7,,29.632,75.932,,260,11.3,15.4,,0.2,,4,,,,,og-post,,,,AAXX 30184 07558 /6/// /2616 10127 20097 39290 40113 53024 60042 333 10154 20113 69927 91141=
07558,1999-09-30 19:00:00,12.6,1012.2,2.7,85,10.1,,29.632,50.004,50.004,260,,,,,,,,,,,og-post,,,,AAXX 30194 07558 36/// /2616 10126 20101 39298 40122 52027 333 91027 91127=
07558,1999-09-30 20:00:00,12.4,1013.2,2.8,84,9.8,,29.632,,,280,,,0.2,,,,,,,,og-post,,,,AAXX 30204 07558 26/// /2816 10124 20098 39307 40132 51028 333 69925=
07558,1999-09-30 21:00:00,12,1014,2.3,85,9.6,,29.632,57.412,50.004,290,,,,0.2,,,,,,,og-post,,,,AAXX 30214 07558 26/// /2916 10120 20096 39313 40140 51023 333 69927 91027 91131=
07558,1999-09-30 22:00:00,12,1014.2,1.7,87,9.9,,31.484,68.524,57.412,280,,,,,,,,,,,og-post,,,,AAXX 30224 07558 36/// /2817 10120 20099 39315 40142 51017 333 91031 91137=
07558,1999-09-30 23:00:00,11.2,1014.8,1.1,91,9.8,,42.596,64.82,64.82,290,,,0.2,,,,,,,,og-post,,,,AAXX 30234 07558 26/// /2923 10112 20098 39318 40148 51011 333 69925 91035 91135=
07558,1999-10-01 00:00:00,11.2,1015.6,1.2,87,9.1,,42.596,68.524,,300,,,,0.4,0.6,,,,,,og-post,,,,AAXX 01004 07558 /6/// /3023 10112 20091 39325 40156 53012 69961 333 69947 91137=
07558,1999-10-01 01:00:00,10.8,1016.7,1.9,90,9.2,,25.928,61.116,,280,,,,,,,,,,,og-post,,,,AAXX 01014 07558 36/// /2814 10108 20092 39334 40167 53019 333 91133=
07558,1999-10-01 02:00:00,10.9,1016.5,1.5,87,8.8,,29.632,,,280,,,0.2,,,,,,,,og-post,,,,AAXX 01024 07558 26/// /2816 10109 20088 39333 40165 50015 333 69925=
07558,1999-10-01 03:00:00,10.6,1016.7,0.8,83,7.8,,31.484,61.116,53.708,280,,,,0.2,,,,,,,og-post,,,,AAXX 01034 07558 26/// /2817 10106 20078 39333 40167 51008 333 69927 91029 91133=
07558,1999-10-01 04:00:00,10.3,1016.9,-0,86,8.1,20000,38.892,61.116,61.116,290,,,,,,,,,,,og-post,,,,AAXX 01044 07558 32570 72921 10103 20081 39334 40169 55000 878// 333 84826 86633 91033 91133=
07558,1999-10-01 05:00:00,9.9,1017.3,0.4,92,8.7,15000,25.928,57.412,,280,,,,,,,,,,50,og-post,,,,AAXX 01054 07558 21565 72814 10099 20087 39337 40173 53004 75052 875// 333 69905 87626 91131=
07558,1999-10-01 06:00:00,10.2,1017.5,0.7,86,8,20000,31.484,61.116,,300,9.8,12.7,,,,0.8,5,1.4,9,20,og-post,,,,AAXX 01064 07558 /1570 63017 10102 20080 39340 40175 53007 69982 72086 86500 333 10127 20098 31009 55014 69907 70050 86626 91133=
07558,1999-10-01 07:00:00,10.6,1018.6,1.7,85,8.2,20000,29.632,,,290,,,,,,,,,,,og-post,,,,AAXX 01074 07558 32570 72916 10106 20082 39351 40186 53017 87800 333 83823 87626=
07558,1999-10-01 08:00:00,10.7,1019.2,2,91,9.3,20000,14.816,,,260,,,,,,,,,,,og-post,,,,AAXX 01084 07558 32570 72608 10107 20093 39357 40192 53020 87800 333 83823 87626=
07558,1999-10-01 09:00:00,11.2,1019.6,2.2,93,10.1,20000,11.112,,,260,,,,,,,,,,50,og-post,,,,AAXX 01094 07558 21470 72606 10112 20101 39362 40196 51022 75052 875// 333 69907 83710 87626=
07558,1999-10-01 10:00:00,11.6,1018.8,0.5,96,11,20000,18.52,,,280,,,0.8,,,,,,,20,og-post,,,,AAXX 01104 07558 21570 52810 10116 20110 39356 40188 50005 72052 85800 333 69985 84823 84626=
07558,1999-10-01 11:00:00,13.3,1018.1,-0.3,76,9.2,20000,29.632,64.82,50.004,290,,,,,,,,,,,og-post,,,,AAXX 01114 07558 32570 52916 10133 20092 39354 40181 58003 84231 333 84826 83075 91027 91135=
07558,1999-10-01 12:00:00,13.2,1017.9,-1,78,9.5,20000,22.224,64.82,,280,,,,0.8,0.8,,,,,3,og-post,,,,AAXX 01124 07558 /1570 72812 10132 20095 39352 40179 56010 69981 70352 86231 333 69987 86826 83075 91135=
07558,1999-10-01 13:00:00,13.6,1017.7,-0.5,76,9.5,20000,14.816,,,310,,,,,,,,,,,og-post,,,,AAXX 01134 07558 32570 73108 10136 20095 39351 40177 56005 8623/ 333 86826=
07558,1999-10-01 14:00:00,13.8,1017.1,-0.8,73,9,20000,14.816,,,300,,,,,,,,,,,og-post,,,,AAXX 01144 07558 32570 73008 10138 20090 39346 40171 58008 8623/ 333 86826=
07558,1999-10-01 15:00:00,14.2,1016.5,-1,73,9.4,20000,18.52,,,290,,,,,,,,,,,og-post,,,,AAXX 01154 07558 32670 62910 10142 20094 39342 40165 58010 85131 333 85833 84075=
07558,1999-10-01 16:00:00,13.4,1016.2,-1.4,74,8.9,,22.224,,,330,,,,,,,,,,,og-post,,,,AAXX 01164 07558 36/// /3312 10134 20089 39337 40162 57014=
07558,1999-10-01 17:00:00,12.7,1016.4,-0.9,79,9.2,,18.52,,,320,,,,,,,,,,,og-post,,,,AAXX 01174 07558 36/// /3210 10127 20092 39337 40164 56009=
07558,1999-10-01 18:00:00,11.6,1016.4,-0.8,86,9.3,,14.816,,,320,10.2,14.4,,,,0.8,,,,,og-post,,,,AAXX 01184 07558 16/// /3208 10116 20093 39334 40164 56008 69982 333 10144 20102=
07558,1999-10-01 20:00:00,11.3,1016.9,0.1,89,9.6,,11.112,,,290,,,,,,,,,,,og-post,,,,AAXX 01204 07558 36/// /2906 10113 20096 39338 40169 53001=
07558,1999-10-02 00:00:00,10.2,1015.9,-1.3,94,9.3,,7.408,,,30,,,,,,,,,,,og-post,,,,AAXX 02004 07558 36/// /0304 10102 20093 39325 40159 58013=
07558,1999-10-02 01:00:00,9.8,1015.9,-1.3,96,9.2,,11.112,,,360,,,,,,,,,,,og-post,,,,AAXX 02014 07558 36/// /3606 10098 20092 39324 40159 56013=
07558,1999-10-02 02:00:00,9.6,1015.2,-1.6,96,9,,3.704,,,50,,,,,,,,,,,og-post,,,,AAXX 02024 07558 36/// /0502 10096 20090 39317 40152 56016=
07558,1999-10-02 03:00:00,9.6,1014.4,-1.5,96,9,,3.704,,,340,,,,,,,,,,,og-post,,,,AAXX 02034 07558 36/// /3402 10096 20090 39310 40144 58015=
07558,1999-10-02 04:00:00,9.6,1014.2,-1.6,98,9.3,15000,11.112,,,40,,,,,,,,,,,og-post,,,,AAXX 02044 07558 32565 50406 10096 20093 39308 40142 56016 82530 333 82623 84360=
07558,1999-10-02 05:00:00,9.3,1014,-1.2,98,9,15000,3.704,,,310,,,,,,,,,,,og-post,,,,AAXX 02054 07558 32565 53102 10093 20090 39305 40140 56012 81532 333 81623 83360=
07558,1999-10-02 06:00:00,9.2,1014.1,-0.4,99,9.1,20000,3.704,,,60,9.2,11.7,,,,,0.8,0.5,7,,og-post,,,,AAXX 02064 07558 32970 60602 10092 20091 39306 40141 55004 82032 333 10117 20092 30007 55005 70008 82360 86075=
07558,1999-10-02 07:00:00,9.3,1014.5,0.2,100,9.3,20000,3.704,,,10,,,,,,,,,,,og-post,,,,AAXX 02074 07558 32970 60102 10093 20093 39310 40145 53002 84032 333 84360 85075=
07558,1999-10-02 08:00:00,10.1,1014.4,0.6,99,9.9,20000,3.704,,,40,,,,,,,,,,,og-post,,,,AAXX 02084 07558 32970 60402 10101 20099 39311 40144 52006 84032 333 84360 85075=
07558,1999-10-02 09:00:00,11.4,1014.2,0.7,94,10.5,20000,3.704,,,40,,,,,,,,,,,og-post,,,,AAXX 02094 07558 32970 70402 10114 20105 39313 40142 51007 85032 333 85360 85075=
07558,1999-10-02 10:00:00,13.2,1013.5,0.2,84,10.6,,3.704,,,330,,,,,,,,,,,og-post,,,,AAXX 02104 07558 32/// /3302 10132 20106 39312 40135 50002=
07558,1999-10-02 11:00:00,16.7,1011.9,-0.4,70,11.2,,7.408,,,160,,,,,,,,,,,og-post,,,,AAXX 02114 07558 36/// /1604 10167 20112 39307 40119 58004=
07558,1999-10-02 12:00:00,18.1,1011,-1.1,63,11,,11.112,,,180,,,,,,,,,,,og-post,,,,AAXX 02124 07558 36/// /1806 10181 20110 39302 40110 58011=
07558,1999-10-02 13:00:00,18.5,1010.2,-1.6,59,10.3,,11.112,,,180,,,,,,,,,,,og-post,,,,AAXX 02134 07558 36/// /1806 10185 20103 39296 40102 58016=
07558,1999-10-02 14:00:00,17.6,1010.3,-1.3,60,9.7,,11.112,,,190,,,,,,,,,,,og-post,,,,AAXX 02144 07558 36/// /1906 10176 20097 39294 40103 56013=
07558,1999-10-02 15:00:00,17.8,1010,-1,66,11.4,,22.224,,,140,,,,,,,,,,,og-post,,,,AAXX 02154 07558 36/// /1412 10178 20114 39292 40100 56010=
07558,1999-10-02 16:00:00,15.5,1010.6,-0.4,75,11.1,,18.52,,,130,,,,,,,,,,,og-post,,,,AAXX 02164 07558 36/// /1310 10155 20111 39292 40106 56004=
07558,1999-10-02 17:00:00,15.1,1010.5,-0.4,79,11.5,,14.816,,,140,,,,,,,,,,,og-post,,,,AAXX 02174 07558 36/// /1408 10151 20115 39290 40105 57004=
07558,1999-10-02 18:00:00,14.2,1010.9,-0.1,85,11.7,,11.112,,,120,8.7,18.9,,,,,,,,,og-post,,,,AAXX 02184 07558 36/// /1206 10142 20117 39291 40109 55001 333 10189 20087=
07558,1999-10-02 19:00:00,14.2,1011,-0,85,11.7,,11.112,,,110,,,,,,,,,,,og-post,,,,AAXX 02194 07558 36/// /1106 10142 20117 39292 40110 55000=
07558,1999-10-02 20:00:00,14.2,1011.3,0.5,87,12.1,,7.408,,,150,,,,,,,,,,,og-post,,,,AAXX 02204 07558 36/// /1504 10142 20121 39295 40113 53005=
07558,1999-10-02 21:00:00,14.2,1011.2,0.3,89,12.4,,3.704,,,160,,,,,,,,,,,og-post,,,,AAXX 02214 07558 36/// /1602 10142 20124 39294 40112 50003=
07558,1999-10-02 22:00:00,14.4,1011.1,0.2,90,12.8,,3.704,,,180,,,,,,,,,,,og-post,,,,AAXX 02224 07558 36/// /1802 10144 20128 39294 40111 51002=
07558,1999-10-02 23:00:00,14.4,1011,-0.2,92,13.1,,3.704,,,240,,,,,,,,,,,og-post,,,,AAXX 02234 07558 36/// /2402 10144 20131 39293 40110 57002=
07558,1999-10-03 00:00:00,14.4,1010.7,-0.4,92,13.1,,3.704,,,270,,,,,,,,,,,og-post,,,,AAXX 03004 07558 36/// /2702 10144 20131 39290 40107 58004=
07558,1999-10-03 01:00:00,13.9,1010.2,-1,95,13.1,,3.704,,,210,,,,,,,,,,,og-post,,,,AAXX 03014 07558 36/// /2102 10139 20131 39284 40102 58010=
07558,1999-10-03 02:00:00,13.5,1009.7,-1.5,96,12.9,,11.112,,,200,,,,,,,,,,,og-post,,,,AAXX 03024 07558 36/// /2006 10135 20129 39278 40097 58015=
07558,1999-10-03 03:00:00,13.1,1009.2,-1.7,98,12.8,,3.704,,,210,,,,,,,,,,,og-post,,,,AAXX 03034 07558 36/// /2102 10131 20128 39273 40092 56017=
07558,1999-10-03 04:00:00,12.8,1009.5,-0.9,99,12.6,8000,11.112,,,220,,,,,,,,,,,og-post,,,,AAXX 03044 07558 32258 72206 10128 20126 39275 40095 55009 875// 333 83705 86610=
07558,1999-10-03 05:00:00,12.6,1009.7,-0.2,100,12.6,8000,11.112,,,210,,,,,,,,,,,og-post,,,,AAXX 03054 07558 32258 72106 10126 20126 39276 40097 55002 875// 333 84705 87610=
07558,1999-10-03 06:00:00,10.8,1010.6,0.5,93,9.7,10000,25.928,,,320,10.8,14.6,,,,,0,4.4,10,60,og-post,,,,AAXX 03064 07558 /1260 73214 10108 20097 39278 40106 52005 69902 76062 875// 333 10146 20108 32010 55044 69907 79999 83705 87610=
07558,1999-10-03 07:00:00,10.1,1011.7,1.1,93,9,12000,22.224,,,350,,,0.4,,,,,,,60,og-post,,,,AAXX 03074 07558 21262 73512 10101 20090 39286 40117 53011 76066 875// 333 69945 83705 87613=
07558,1999-10-03 08:00:00,10.1,1013.1,2.3,94,9.2,10000,14.816,,,330,,,,,,,,,,60,og-post,,,,AAXX 03084 07558 21260 73308 10101 20092 39299 40131 53023 76066 875// 333 69905 84705 87608=
07558,1999-10-03 09:00:00,9.8,1013.9,2.8,95,9,7000,18.52,,,310,,,,1,,,,,,60,og-post,,,,AAXX 03094 07558 21257 83110 10098 20090 39306 40139 51028 76066 885// 333 60017 84705 88608=
07558,1999-10-03 10:00:00,9.2,1014.9,2.7,89,7.5,15000,25.928,,,340,,,0.2,,,,,,,21,og-post,,,,AAXX 03104 07558 21365 73414 10092 20075 39313 40149 51027 72162 8557/ 333 69925 83608 84616 87360=
07558,1999-10-03 11:00:00,10.4,1014.7,1.6,91,9,,11.112,,,320,,,0.4,,,,,,,,og-post,,,,AAXX 03114 07558 26/// /3206 10104 20090 39315 40147 51016 333 69945=
07558,1999-10-03 12:00:00,11.6,1014.1,0.6,70,6.3,,35.188,53.708,53.708,300,,,,0.8,2,,,,,,og-post,,,,AAXX 03124 07558 /6/// /3019 10116 20063 39312 40141 50006 60021 333 69987 91029 91129=
07558,1999-10-03 13:00:00,12.2,1013.6,-0.4,68,6.5,,31.484,,,300,,,,,,,,,,,og-post,,,,AAXX 03134 07558 36/// /3017 10122 20065 39309 40136 58004=
07558,1999-10-03 14:00:00,11,1014.2,-0.4,71,6,,25.928,,,290,,,,,,,,,,,og-post,,,,AAXX 03144 07558 36/// /2914 10110 20060 39311 40142 55004=
07558,1999-10-03 15:00:00,10.6,1014.9,0.4,72,5.8,,25.928,,,270,,,,,,,,,,,og-post,,,,AAXX 03154 07558 36/// /2714 10106 20058 39316 40149 53004=
07558,1999-10-03 16:00:00,11,1015,0.9,69,5.5,,25.928,,,300,,,,,,,,,,,og-post,,,,AAXX 03164 07558 36/// /3014 10110 20055 39318 40150 52009=
07558,1999-10-03 17:00:00,9.7,1015.9,1.2,81,6.6,,22.224,,,270,,,,,,,,,,,og-post,,,,AAXX 03174 07558 36/// /2712 10097 20066 39323 40159 52012=
07558,1999-10-03 18:00:00,7.4,1016.9,1,88,5.5,,29.632,,,320,7.3,12.7,,0.6,,2,,,,,og-post,,,,AAXX 03184 07558 /6/// /3216 10074 20055 39326 40169 53010 60022 333 10127 20073 69967=
07558,1999-10-03 19:00:00,7.6,1018,1.8,83,4.9,,7.408,,,320,,,,,,,,,,,og-post,,,,AAXX 03194 07558 36/// /3204 10076 20049 39336 40180 53018=
07558,1999-10-03 20:00:00,6.6,1018.8,1.8,89,4.9,,7.408,,,320,,,,,,,,,,,og-post,,,,AAXX 03204 07558 36/// /3204 10066 20049 39341 40188 53018=
07558,1999-10-03 21:00:00,7.1,1019.4,2.2,90,5.6,,14.816,,,310,,,,,,,,,,,og-post,,,,AAXX 03214 07558 36/// /3108 10071 20056 39348 40194 51022=
07558,1999-10-03 22:00:00,7.1,1019.9,1.6,90,5.6,,14.816,,,270,,,,,,,,,,,og-post,,,,AAXX 03224 07558 36/// /2708 10071 20056 39352 40199 51016=
07558,1999-10-03 23:00:00,7.7,1019.7,1.1,88,5.8,,14.816,,,280,,,,,,,,,,,og-post,,,,AAXX 03234 07558 36/// /2808 10077 20058 39352 40197 51011=
07558,1999-10-04 00:00:00,7.3,1019.9,0.5,89,5.6,,18.52,,,290,,,,,,,,,,,og-post,,,,AAXX 04004 07558 36/// /2910 10073 20056 39353 40199 51005=
07558,1999-10-04 01:00:00,7.5,1019.7,0,89,5.8,,14.816,,,280,,,,,,,,,,,og-post,,,,AAXX 04014 07558 36/// /2808 10075 20058 39352 40197 50000=
07558,1999-10-04 03:00:00,7.5,1018.9,-0.9,89,5.8,,31.484,,,300,,,,0.2,,,,,,,og-post,,,,AAXX 04034 07558 26/// /3017 10075 20058 39344 40189 58009 333 69927=
07558,1999-10-04 04:00:00,7.4,1019,-0.7,88,5.5,20000,22.224,,,280,,,,,,,,,,,og-post,,,,AAXX 04044 07558 32570 42812 10074 20055 39345 40190 55007 84500 333 84620=
07558,1999-10-04 05:00:00,7.2,1018.9,-0.8,90,5.7,20000,22.224,,,280,,,,,,,,,,,og-post,,,,AAXX 04054 07558 32570 42812 10072 20057 39343 40189 56008 84500 33 84620=
07558,1999-10-04 06:00:00,7.2,1018.9,-0,94,6.3,10000,18.52,,,250,6.5,7.8,,,,0.2,2.6,1.1,5,3,og-post,,,,AAXX 04064 07558 11360 72510 10072 20063 39344 40189 54000 69922 70386 875// 333 10078 20065 31005 55011 70026 84608 86613=
07558,1999-10-04 07:00:00,7.7,1019.3,0.4,94,6.8,10000,18.52,,,260,,,0.2,,,,,,,25,og-post,,,,AAXX 04074 07558 21360 72610 10077 20068 39349 40193 53004 72586 878// 333 69925 83808 86613=
07558,1999-10-04 08:00:00,8.4,1019.2,0.7,95,7.6,,11.112,,,250,,,,,,,,,,,og-post,,,,AAXX 04084 07558 36/// /2506 10084 20076 39350 40192 52007=
07558,1999-10-04 09:00:00,9.8,1019.2,1,83,7.1,10000,25.928,,,260,,,,0.2,,,,,,2,og-post,,,,AAXX 04094 07558 21460 72614 10098 20071 39354 40192 51010 70286 878// 333 69927 83810 86613=
07558,1999-10-04 10:00:00,10.3,1019.1,0.5,76,6.3,10000,22.224,,,280,,,,,,,,,,,og-post,,,,AAXX 04104 07558 32460 72812 10103 20063 39354 40191 51005 878// 333 83810 86613=
07558,1999-10-04 12:00:00,10.1,1018.3,-0.8,76,6.1,10000,25.928,,,320,,,,,0.2,,,,,2,og-post,,,,AAXX 04124 07558 11460 73214 10101 20061 39346 40183 58008 69921 70286 878// 333 83810 85613=
07558,1999-10-04 13:00:00,11.6,1017.4,-1.2,70,6.3,10000,35.188,61.116,53.708,300,,,0.2,,,,,,,,og-post,,,,AAXX 04134 07558 22460 53019 10116 20063 39342 40174 58012 85800 333 69925 83816 91029 91133=
07558,1999-10-04 15:00:00,8.8,1018.1,-0.5,78,5.2,8000,31.484,61.116,,310,,,,0.4,,,,,,3,og-post,,,,AAXX 04154 07558 21458 73117 10088 20052 39341 40181 56005 70386 87800 333 69947 83816 84620 91133=
07558,1999-10-04 17:00:00,8.1,1019.2,0.8,79,4.7,,22.224,,,310,,,,,,,,,,,og-post,,,,AAXX 04174 07558 36/// /3112 10081 20047 39349 40192 53008=
07558,1999-10-04 18:00:00,7.3,1020.3,1.5,83,4.6,,25.928,61.116,,320,7.1,12.2,,,,0.6,,,,,og-post,,,,AAXX 04184 07558 16/// /3214 10073 20046 39356 40203 53015 69962 333 10122 20071 91133=
07558,1999-10-04 19:00:00,6.7,1021.2,2,84,4.2,,22.224,,,320,,,,,,,,,,,og-post,,,,AAXX 04194 07558 36/// /3212 10067 20042 39363 40212 53020=
07558,1999-10-04 21:00:00,5.5,1023,2,90,4,,18.52,,,320,,,,,,,,,,,og-post,,,,AAXX 04214 07558 36/// /3210 10055 20040 39376 40230 51020=
07558,1999-10-04 22:00:00,5.5,1022.9,1.2,89,3.8,,25.928,,,320,,,,,,,,,,,og-post,,,,AAXX 04224 07558 36/// /3214 10055 20038 39375 40229 50012=
07558,1999-10-04 23:00:00,5.1,1022.9,0,83,2.5,,29.632,,,310,,,,,,,,,,,og-post,,,,AAXX 04234 07558 36/// /3116 10051 20025 39373 40229 50000=
07558,1999-10-05 00:00:00,4.5,1022.9,-0.4,82,1.7,,22.224,,,310,,,,,,,,,,,og-post,,,,AAXX 05004 07558 36/// /3112 10045 20017 39372 40229 57004=
07558,1999-10-05 01:00:00,3.9,1023.1,-0.3,84,1.4,,22.224,,,310,,,,,,,,,,,og-post,,,,AAXX 05014 07558 36/// /3112 10039 20014 39372 40231 56003=
07558,1999-10-05 02:00:00,3.7,1023,-0.3,85,1.4,,25.928,,,330,,,,,,,,,,,og-post,,,,AAXX 05024 07558 36/// /3314 10037 20014 39370 40230 58003=
07558,1999-10-05 03:00:00,3.4,1023.1,-0.2,84,1,,18.52,,,340,,,,,,,,,,,og-post,,,,AAXX 05034 07558 36/// /3410 10034 20010 39370 40231 57002=
07558,1999-10-05 04:00:00,3,1023.2,-0.2,83,0.4,10000,22.224,,,340,,,,,,,,,,,og-post,,,,AAXX 05044 07558 32960 03412 10030 20004 39370 40232 56002=
07558,1999-10-05 05:00:00,2.6,1023.7,0.3,86,0.5,10000,11.112,,,330,,,,,,,,,,,og-post,,,,AAXX 05054 07558 32960 03306 10026 20005 39373 40237 53003=
07558,1999-10-05 06:00:00,2.4,1024.1,0.6,84,0,20000,7.408,,,300,2.2,7.3,,,,,0.6,3,0,,og-post,,,,AAXX 05064 07558 32970 23004 10024 20000 39376 40241 53006 80001 333 10073 20022 31000 55030 70006 82073=
07558,1999-10-05 07:00:00,3.2,1024.3,1,82,0.4,20000,7.408,,,330,,,,,,,,,,,og-post,,,,AAXX 05074 07558 32970 23304 10032 20004 39380 40243 53010 80001 333 82073=
07558,1999-10-05 08:00:00,5.6,1023.7,0.9,75,1.5,20000,14.816,,,350,,,,,,,,,,,og-post,,,,AAXX 05084 07558 32970 23508 10056 20015 39382 40237 51009 80001 333 82073=
07558,1999-10-05 09:00:00,7,1023.5,0.8,64,0.7,30000,18.52,,,360,,,,,,,,,,,og-post,,,,AAXX 05094 07558 32480 33610 10070 20007 39384 40235 51008 81101 333 81810=
07558,1999-10-05 10:00:00,8.2,1022.9,0.2,61,1.1,30000,22.224,,,360,,,,,,,,,,,og-post,,,,AAXX 05104 07558 32480 33612 10082 20011 39382 40229 50002 81101 333 81810=
07558,1999-10-05 11:00:00,9,1021.9,-0.7,57,1,30000,29.632,,,330,,,,,,,,,,,og-post,,,,AAXX 05114 07558 32480 33316 10090 20010 39375 40219 58007 82101 333 82813=
07558,1999-10-05 12:00:00,9.6,1021.4,-1.2,55,1,30000,31.484,,,340,,,,,,,,,,,og-post,,,,AAXX 05124 07558 32580 33417 10096 20010 39372 40214 58012 83100 333 83820=
07558,1999-10-05 13:00:00,11.2,1020.4,-1.4,49,0.9,30000,25.928,,,340,,,,,,,,,,,og-post,,,,AAXX 05134 07558 32580 33414 10112 20009 39368 40204 56014 83100 333 83820=
07558,1999-10-05 14:00:00,10.5,1020.6,-0.8,49,0.3,30000,29.632,,,360,,,,,,,,,,,og-post,,,,AAXX 05144 07558 32580 33616 10105 20003 39367 40206 56008 83100 333 83820=
07558,1999-10-05 15:00:00,10.2,1021,-0.2,46,-0.9,30000,25.928,50.004,,10,,,,,,,,,,,og-post,,,,AAXX 05154 07558 32580 20114 10102 21009 39370 40210 55002 82100 333 82820 91127=
07558,1999-10-05 16:00:00,9.9,1020.9,0,44,-1.8,,25.928,,,350,,,,,,,,,,,og-post,,,,AAXX 05164 07558 36/// /3514 10099 21018 39368 40209 50000=
07558,1999-10-05 17:00:00,8.3,1021.8,0.5,50,-1.5,,18.52,,,350,,,,,,,,,,,og-post,,,,AAXX 05174 07558 36/// /3510 10083 21015 39372 40218 53005=
07558,1999-10-05 18:00:00,6.9,1022.6,0.5,56,-1.3,,18.52,50.004,,330,2.3,11.6,,,,,,,,,og-post,,,,AAXX 05184 07558 36/// /3310 10069 21013 39375 40226 53005 333 10116 20023 91127=
07558,1999-10-05 19:00:00,6,1023.4,1.2,61,-0.9,,18.52,,,340,,,,,,,,,,,og-post,,,,AAXX 05194 07558 36/// /3410 10060 21009 39380 40234 53012=
07558,1999-10-05 20:00:00,5.1,1024,1.1,68,-0.3,,25.928,,,350,,,,,,,,,,,og-post,,,,AAXX 05204 07558 36/// /3514 10051 21003 39383 40240 52011=
07558,1999-10-05 21:00:00,5.2,1023.9,0.8,71,0.4,,31.484,,,360,,,,,,,,,,,og-post,,,,AAXX 05214 07558 36/// /3617 10052 20004 39383 40239 51008=
07558,1999-10-05 22:00:00,4.8,1024,0.2,72,0.2,,35.188,,,360,,,,,,,,,,,og-post,,,,AAXX 05224 07558 36/// /3619 10048 20002 39382 40240 50002=
07558,1999-10-05 23:00:00,4.4,1024.4,0.2,73,0,,22.224,,,10,,,,,,,,,,,og-post,,,,AAXX 05234 07558 36/// /0112 10044 20000 39385 40244 53002=
07558,1999-10-06 00:00:00,4,1024.1,-0.2,74,-0.2,,18.52,,,20,,,,,,,,,,,og-post,,,,AAXX 06004 07558 36/// /0210 10040 21002 39381 40241 58002=
07558,1999-10-06 01:00:00,3.6,1024.1,-0.2,76,-0.2,,14.816,,,20,,,,,,,,,,,og-post,,,,AAXX 06014 07558 36/// /0208 10036 21002 39380 40241 58002=
07558,1999-10-06 02:00:00,3.6,1023.9,-0.7,75,-0.4,,22.224,,,20,,,,,,,,,,,og-post,,,,AAXX 06024 07558 36/// /0212 10036 21004 39378 40239 56007=
07558,1999-10-06 03:00:00,3.2,1023.9,-0.4,77,-0.4,,22.224,,,20,,,,,,,,,,,og-post,,,,AAXX 06034 07558 36/// /0212 10032 21004 39377 40239 57004=
07558,1999-10-06 04:00:00,3.2,1024.1,-0.2,77,-0.4,20000,25.928,,,20,,,,,,,,,,,og-post,,,,AAXX 06044 07558 32970 00214 10032 21004 39378 40241 55002=
07558,1999-10-06 05:00:00,3.2,1024.2,0.1,76,-0.6,25000,22.224,,,20,,,,,,,,,,,og-post,,,,AAXX 06054 07558 32975 00212 10032 21006 39379 40242 53001=
07558,1999-10-06 06:00:00,2.4,1024.8,0.5,80,-0.7,30000,14.816,,,30,2.4,7,,,,,,10.8,1,,og-post,,,,AAXX 06064 07558 32980 00308 10024 21007 39382 40248 53005 333 10070 20024 30001 55108 70000=
07558,1999-10-06 07:00:00,3.8,1024.7,0.8,75,-0.2,30000,14.816,,,20,,,,,,,,,,,og-post,,,,AAXX 06074 07558 32980 00208 10038 21002 39386 40247 53008=
07558,1999-10-06 08:00:00,5.8,1024.5,1.1,67,0.2,30000,18.52,,,30,,,,,,,,,,,og-post,,,,AAXX 06084 07558 32980 00310 10058 20002 39390 40245 53011=
07558,1999-10-06 09:00:00,8.2,1024,1,58,0.4,30000,18.52,,,20,,,,,,,,,,,og-post,,,,AAXX 06094 07558 32980 00210 10082 20004 39392 40240 51010=
07558,1999-10-06 10:00:00,10.2,1023.6,0.8,56,1.8,60000,11.112,,,20,,,,,,,,,,,og-post,,,,AAXX 06104 07558 32986 00206 10102 20018 39394 40236 51008=
07558,1999-10-06 11:00:00,12.1,1023,0.4,40,-1.1,60000,3.704,,,70,,,,,,,,,,,og-post,,,,AAXX 06114 07558 32986 00702 10121 21011 39394 40230 51004=
07558,1999-10-06 12:00:00,14.2,1022.2,0,32,-2.2,60000,3.704,,,110,,,,,,,,,,,og-post,,,,AAXX 06124 07558 32986 01102 10142 21022 39392 40222 50000=
07558,1999-10-06 13:00:00,14.2,1021.7,-0.6,34,-1.4,60000,3.704,,,50,,,,,,,,,,,og-post,,,,AAXX 06134 07558 32986 00502 10142 21014 39388 40217 58006=
07558,1999-10-06 14:00:00,15.3,1021.1,-0.9,33,-0.9,60000,3.704,,,200,,,,,,,,,,,og-post,,,,AAXX 06144 07558 32986 02002 10153 21009 39385 40211 58009=
07558,1999-10-06 15:00:00,15.7,1020.9,-0.8,30,-1.8,60000,3.704,,,140,,,,,,,,,,,og-post,,,,AAXX 06154 07558 32986 01402 10157 21018 39384 40209 56008=
07558,1999-10-06 16:00:00,15.2,1020.7,-0.7,31,-1.8,,3.704,,,120,,,,,,,,,,,og-post,,,,AAXX 06164 07558 36/// /1202 10152 21018 39381 40207 57007=
07558,1999-10-06 17:00:00,14,1021.3,-0.1,38,-0.1,,7.408,,,230,,,,,,,,,,,og-post,,,,AAXX 06174 07558 36/// /2304 10140 21001 39384 40213 55001=
07558,1999-10-06 18:00:00,12.1,1022.5,0.5,38,-1.8,,7.408,,,240,2.3,16.1,,,,,,,,,og-post,,,,AAXX 06184 07558 36/// /2404 10121 21018 39389 40225 53005 333 10161 20023=
07558,1999-10-06 19:00:00,10.3,1023.7,1.4,50,0.3,,14.816,,,30,,,,,,,,,,,og-post,,,,AAXX 06194 07558 36/// /0308 10103 20003 39395 40237 53014=
07558,1999-10-06 20:00:00,8.5,1024.7,1.5,56,0.2,,14.816,,,20,,,,,,,,,,,og-post,,,,AAXX 06204 07558 36/// /0208 10085 20002 39399 40247 51015=
07558,1999-10-06 21:00:00,7.4,1025.4,1.4,61,0.4,,11.112,,,20,,,,,,,,,,,og-post,,,,AAXX 06214 07558 36/// /0206 10074 20004 39403 40254 51014=
07558,1999-10-06 22:00:00,6.9,1025.9,1.1,63,0.4,,14.816,,,30,,,,,,,,,,,og-post,,,,AAXX 06224 07558 36/// /0308 10069 20004 39406 40259 51011=
07558,1999-10-06 23:00:00,6.3,1026.2,0.8,66,0.4,,14.816,,,30,,,,,,,,,,,og-post,,,,AAXX 06234 07558 36/// /0308 10063 20004 39407 40262 51008=
07558,1999-10-07 01:00:00,5.6,1026.8,0.4,70,0.6,,11.112,,,20,,,,,,,,,,,og-post,,,,AAXX 07014 07558 36/// /0206 10056 20006 39410 40268 52004=
07558,1999-10-07 02:00:00,5.3,1026.6,0.1,73,0.9,,11.112,,,10,,,,,,,,,,,og-post,,,,AAXX 07024 07558 36/// /0106 10053 20009 39408 40266 50001=
07558,1999-10-07 03:00:00,5,1026.8,-0,74,0.8,,14.816,,,10,,,,,,,,,,,og-post,,,,AAXX 07034 07558 36/// /0108 10050 20008 39409 40268 54000=
07558,1999-10-07 04:00:00,5,1026.8,-0.1,74,0.8,20000,14.816,,,20,,,,,,,,,,,og-post,,,,AAXX 07044 07558 32970 00208 10050 20008 39409 40268 56001=
07558,1999-10-07 06:00:00,4.2,1027.8,0.6,79,0.9,,11.112,,,20,3.5,12.1,,,,,,11.2,2,,og-post,,,,AAXX 07064 07558 36/// /0206 10042 20009 39415 40278 53006 333 10121 20035 3/002 55112 70000=
07558,1999-10-07 09:00:00,9.5,1027.8,1.6,66,3.5,40000,3.704,,,200,,,,,,,,,,,og-post,,,,AAXX 07094 07558 32982 22002 10095 20035 39431 40278 51016 80002 333 82075=
07558,1999-10-07 12:00:00,15.4,1026.1,0,27,-3.5,,7.408,,,170,,,,,,,,,,,og-post,,,,AAXX 07124 07558 36/// /1704 10154 21035 39431 40261 50000=
07558,1999-10-07 13:00:00,16.1,1025.4,-0.5,30,-1.5,40000,3.704,,,330,,,,,,,,,,,og-post,,,,AAXX 07134 07558 32982 23302 10161 21015 39427 40254 58005 80002 333 82075=
07558,1999-10-07 14:00:00,16.7,1025,-0.6,30,-0.9,40000,7.408,,,240,,,,,,,,,,,og-post,,,,AAXX 07144 07558 32582 22404 10167 21009 39425 40250 58006 81102 333 81830=
07558,1999-10-07 15:00:00,16.5,1024.9,-0.7,37,1.8,40000,11.112,,,210,,,,,,,,,,,og-post,,,,AAXX 07154 07558 32682 22106 10165 20018 39424 40249 56007 81102 333 81833=
07558,1999-10-07 16:00:00,15.6,1025.5,-0.1,32,-1,,11.112,,,200,,,,,,,,,,,og-post,,,,AAXX 07164 07558 36/// /2006 10156 21010 39426 40255 55001=
07558,1999-10-07 17:00:00,14,1026.4,0.5,36,-0.8,,11.112,,,230,,,,,,,,,,,og-post,,,,AAXX 07174 07558 36/// /2306 10140 21008 39430 40264 53005=
07558,1999-10-07 18:00:00,11.5,1027.7,1.2,56,3,,18.52,,,330,3.4,17.2,,,,,,,,,og-post,,,,AAXX 07184 07558 36/// /3310 10115 20030 39436 40277 53012 333 10172 20034=
07558,1999-10-07 19:00:00,10.6,1028.5,1.5,58,2.7,,14.816,,,330,,,,,,,,,,,og-post,,,,AAXX 07194 07558 36/// /3308 10106 20027 39441 40285 53015=
07558,1999-10-07 20:00:00,9.8,1029.1,1.4,59,2.2,,11.112,,,20,,,,,,,,,,,og-post,,,,AAXX 07204 07558 36/// /0206 10098 20022 39444 40291 51014=
07558,1999-10-07 21:00:00,9.8,1029.8,1.4,57,1.7,,7.408,,,360,,,,,,,,,,,og-post,,,,AAXX 07214 07558 36/// /3604 10098 20017 39450 40298 53014=
07558,1999-10-07 22:00:00,9.7,1029.7,0.8,58,1.8,,3.704,,,300,,,,,,,,,,,og-post,,,,AAXX 07224 07558 36/// /3002 10097 20018 39449 40297 50008=
07558,1999-10-07 23:00:00,8.4,1030.2,0.6,64,2,,,,,,,,,,,,,,,,og-post,,,,AAXX 07234 07558 36/// /0000 10084 20020 39450 40302 51006=
07558,1999-10-08 00:00:00,7.9,1030.4,-0,63,1.3,,7.408,,,350,,,,,,,,,,,og-post,,,,AAXX 08004 07558 36/// /3504 10079 20013 39450 40304 55000=
07558,1999-10-08 01:00:00,7.1,1030.5,0,70,2,,7.408,,,330,,,,,,,,,,,og-post,,,,AAXX 08014 07558 36/// /3304 10071 20020 39449 40305 50000=
07558,1999-10-08 02:00:00,6.6,1030.6,-0.2,72,1.9,,7.408,,,360,,,,,,,,,,,og-post,,,,AAXX 08024 07558 36/// /3604 10066 20019 39448 40306 58002=
07558,1999-10-08 03:00:00,4.9,1031.1,-0.2,82,2.1,,11.112,,,10,,,,,,,,,,,og-post,,,,AAXX 08034 07558 36/// /0106 10049 20021 39448 40311 56002=
07558,1999-10-08 04:00:00,5,1031,-0.2,82,2.2,10000,3.704,,,350,,,,,,,,,,,og-post,,,,AAXX 08044 07558 32960 03502 10050 20022 39447 40310 57002=
07558,1999-10-08 05:00:00,5.6,1030.6,-0.3,80,2.4,10000,7.408,,,350,,,,,,,,,,,og-post,,,,AAXX 08054 07558 32960 03504 10056 20024 39445 40306 58003=
07558,1999-10-08 06:00:00,4.8,1031.1,-0,82,2,20000,3.704,,,330,4.6,11.7,,,,,,10.9,1,,og-post,,,,AAXX 08064 07558 32970 03302 10048 20020 39448 40311 55000 333 10117 20046 30001 55109 70000=
07558,1999-10-08 07:00:00,5.2,1031.6,0.6,81,2.2,,3.704,,,20,,,,,,,,,,,og-post,,,,AAXX 08074 07558 36/// /0202 10052 20022 39453 40316 53006=
07558,1999-10-08 08:00:00,7.2,1031,0.9,79,3.8,20000,,,,,,,,,,,,,,,og-post,,,,AAXX 08084 07558 32970 00000 10072 20038 39454 40310 51009=
07558,1999-10-08 09:00:00,9.7,1030.5,0.9,73,5.1,20000,3.704,,,150,,,,,,,,,,,og-post,,,,AAXX 08094 07558 32970 01502 10097 20051 39457 40305 51009=
07558,1999-10-08 10:00:00,12.2,1029.7,0.4,62,5.1,20000,3.704,,,240,,,,,,,,,,,og-post,,,,AAXX 08104 07558 32970 02402 10122 20051 39457 40297 51004=
07558,1999-10-08 11:00:00,14,1028.7,-0.2,51,4,20000,14.816,,,290,,,,,,,,,,,og-post,,,,AAXX 08114 07558 32970 02908 10140 20040 39452 40287 58002=
07558,1999-10-08 12:00:00,14.6,1028,-1,49,4,20000,18.52,,,300,,,,,,,,,,,og-post,,,,AAXX 08124 07558 32970 03010 10146 20040 39447 40280 58010=
07558,1999-10-08 13:00:00,15,1027.3,-1.5,46,3.5,20000,18.52,,,320,,,,,,,,,,,og-post,,,,AAXX 08134 07558 32970 03210 10150 20035 39442 40273 57015=
07558,1999-10-08 14:00:00,15.3,1026.5,-1.7,43,2.8,20000,22.224,,,300,,,,,,,,,,,og-post,,,,AAXX 08144 07558 32970 03012 10153 20028 39435 40265 58017=
07558,1999-10-08 15:00:00,15,1026.5,-1.2,47,3.8,20000,18.52,,,290,,,,,,,,,,,og-post,,,,AAXX 08154 07558 32970 02910 10150 20038 39435 40265 56012=
07558,1999-10-08 16:00:00,13.6,1026.8,-0.9,49,3.1,,25.928,,,310,,,,,,,,,,,og-post,,,,AAXX 08164 07558 36/// /3114 10136 20031 39433 40268 56009=
07558,1999-10-08 17:00:00,12.1,1027.2,-0.2,59,4.3,,14.816,,,290,,,,,,,,,,,og-post,,,,AAXX 08174 07558 36/// /2908 10121 20043 39433 40272 57002=
07558,1999-10-08 18:00:00,11.2,1028,0.3,61,4,,11.112,,,300,4.7,15.6,,,,,,,,,og-post,,,,AAXX 08184 07558 36/// /3006 10112 20040 39438 40280 53003 333 10156 20047=
07558,1999-10-08 19:00:00,10.8,1028.2,0.6,63,4,,14.816,,,300,,,,,,,,,,,og-post,,,,AAXX 08194 07558 36/// /3008 10108 20040 39439 40282 53006=
07558,1999-10-08 20:00:00,9.9,1029,1,63,3.2,,7.408,,,320,,,,,,,,,,,og-post,,,,AAXX 08204 07558 36/// /3204 10099 20032 39443 40290 51010=
07558,1999-10-08 21:00:00,9.8,1029.2,0.7,72,5,,11.112,,,310,,,,,,,,,,,og-post,,,,AAXX 08214 07558 36/// /3106 10098 20050 39445 40292 53007=
07558,1999-10-08 22:00:00,9.9,1029.3,0.7,71,4.9,,18.52,,,320,,,,,,,,,,,og-post,,,,AAXX 08224 07558 36/// /3210 10099 20049 39446 40293 51007=
07558,1999-10-08 23:00:00,8.2,1029.7,0.2,78,4.6,,14.816,,,360,,,,,,,,,,,og-post,,,,AAXX 08234 07558 36/// /3608 10082 20046 39445 40297 50002=
07558,1999-10-09 00:00:00,8,1029.6,-0.1,79,4.6,,11.112,,,350,,,,,,,,,,,og-post,,,,AAXX 09004 07558 36/// /3506 10080 20046 39444 40296 58001=
07558,1999-10-09 01:00:00,7.5,1029.9,-0.1,84,5,,7.408,,,360,,,,,,,,,,,og-post,,,,AAXX 09014 07558 36/// /3604 10075 20050 39445 40299 55001=
07558,1999-10-09 02:00:00,6.7,1029.6,-0.5,87,4.7,,7.408,,,350,,,,,,,,,,,og-post,,,,AAXX 09024 07558 36/// /3504 10067 20047 39440 40296 58005=
07558,1999-10-09 03:00:00,6.6,1029.5,-0.5,88,4.8,,3.704,,,60,,,,,,,,,,,og-post,,,,AAXX 09034 07558 36/// /0602 10066 20048 39439 40295 58005=
07558,1999-10-09 04:00:00,6.5,1029.5,-0.7,89,4.8,10000,7.408,,,350,,,,,,,,,,,og-post,,,,AAXX 09044 07558 32960 03504 10065 20048 39438 40295 56007=
07558,1999-10-09 05:00:00,6.1,1029.3,-0.5,90,4.6,10000,,,,,,,,,,,,,,,og-post,,,,AAXX 09054 07558 32960 00000 10061 20046 39435 40293 58005=
07558,1999-10-09 06:00:00,5.7,1029.5,-0.3,94,4.8,10000,,,,,5.7,11.2,,,,,,10.9,3,,og-post,,,,AAXX 09064 07558 32960 00000 10057 20048 39436 40295 55003 333 10112 20057 30003 55109 70000=
07558,1999-10-09 07:00:00,6.3,1029.8,0.3,92,5.1,20000,3.704,,,350,,,,,,,,,,,og-post,,,,AAXX 09074 07558 32970 03502 10063 20051 39441 40298 53003=
07558,1999-10-09 08:00:00,8.5,1029.2,0.7,87,6.5,20000,3.704,,,30,,,,,,,,,,,og-post,,,,AAXX 09084 07558 32970 10302 10085 20065 39442 40292 52007 80001 333 81073=
07558,1999-10-09 09:00:00,9.7,1029.4,1.1,78,6.1,20000,3.704,,,30,,,,,,,,,,,og-post,,,,AAXX 09094 07558 32370 20302 10097 20061 39447 40294 52011 81101 333 81806=
07558,1999-10-09 10:00:00,11.4,1028.9,0.6,75,7.1,20000,7.408,,,230,,,,,,,,,,,og-post,,,,AAXX 09104 07558 32470 42304 10114 20071 39447 40289 51006 81101 333 82813=
07558,1999-10-09 11:00:00,13.1,1027.8,0,67,7.1,,7.408,,,270,,,,,,,,,,,og-post,,,,AAXX 09114 07558 36/// /2704 10131 20071 39442 40278 50000=
07558,1999-10-09 12:00:00,14.4,1027,-0.9,64,7.7,,18.52,,,320,,,,,,,,,,,og-post,,,,AAXX 09124 07558 36/// /3210 10144 20077 39438 40270 58009=
07558,1999-10-09 13:00:00,14.5,1025.9,-1.8,63,7.5,,22.224,,,330,,,,,,,,,,,og-post,,,,AAXX 09134 07558 36/// /3312 10145 20075 39429 40259 58018=
07558,1999-10-09 14:00:00,14.5,1025.8,-1.4,68,8.7,,22.224,,,310,,,,,,,,,,,og-post,,,,AAXX 09144 07558 36/// /3112 10145 20087 39428 40258 56014=
07558,1999-10-09 15:00:00,14,1025.9,-1.1,68,8.2,,25.928,,,310,,,,,,,,,,,og-post,,,,AAXX 09154 07558 36/// /3114 10140 20082 39427 40259 56011=
07558,1999-10-09 16:00:00,13.9,1025.9,-0.2,67,7.9,,11.112,,,280,,,,,,,,,,,og-post,,,,AAXX 09164 07558 36/// /2806 10139 20079 39427 40259 56002=
07558,1999-10-09 17:00:00,12.1,1026.3,-0.2,73,7.4,,18.52,,,310,,,,,,,,,,,og-post,,,,AAXX 09174 07558 36/// /3110 10121 20074 39426 40263 57002=
07558,1999-10-09 18:00:00,10.3,1027.3,0.3,81,7.2,,18.52,,,320,5.7,14.9,,,,,,,,,og-post,,,,AAXX 09184 07558 36/// /3210 10103 20072 39430 40273 53003 333 10149 20057=
07558,1999-10-09 19:00:00,9.5,1027.8,0.5,85,7.1,,7.408,,,300,,,,,,,,,,,og-post,,,,AAXX 09194 07558 36/// /3004 10095 20071 39432 40278 53005=
07558,1999-10-09 20:00:00,9.1,1028.3,0.9,85,6.7,,7.408,,,310,,,,,,,,,,,og-post,,,,AAXX 09204 07558 36/// /3104 10091 20067 39435 40283 51009=
07558,1999-10-09 21:00:00,8.1,1028.7,0.6,91,6.7,,14.816,,,330,,,,,,,,,,,og-post,,,,AAXX 09214 07558 36/// /3308 10081 20067 39436 40287 51006=
07558,1999-10-09 22:00:00,8.3,1028.5,0.3,88,6.4,,14.816,,,320,,,,,,,,,,,og-post,,,,AAXX 09224 07558 36/// /3208 10083 20064 39435 40285 50003=
07558,1999-10-09 23:00:00,7.5,1028.7,-0.1,93,6.4,,11.112,,,320,,,,,,,,,,,og-post,,,,AAXX 09234 07558 36/// /3206 10075 20064 39434 40287 58001=
07558,1999-10-10 00:00:00,6.9,1028.5,-0.5,95,6.2,,14.816,,,340,,,,,,,,,,,og-post,,,,AAXX 10004 07558 36/// /3408 10069 20062 39431 40285 58005=
07558,1999-10-10 01:00:00,6.3,1028.7,-0.4,98,6,,11.112,,,360,,,,,,,,,,,og-post,,,,AAXX 10014 07558 36/// /3606 10063 20060 39431 40287 56004=
07558,1999-10-10 02:00:00,6,1028.5,-0.6,98,5.7,,7.408,,,340,,,,,,,,,,,og-post,,,,AAXX 10024 07558 36/// /3404 10060 20057 39428 40285 57006=
07558,1999-10-10 03:00:00,5.8,1028,-0.8,96,5.2,,11.112,,,360,,,,0.2,,,,,,,og-post,,,,AAXX 10034 07558 26/// /3606 10058 20052 39423 40280 58008 333 69927=
07558,1999-10-10 04:00:00,5.6,1028.1,-0.8,97,5.2,20000,3.704,,,340,,,,,,,,,,,og-post,,,,AAXX 10044 07558 32970 03402 10056 20052 39423 40281 56008=
07558,1999-10-10 05:00:00,5.6,1027.9,-0.7,95,4.9,,3.704,,,320,,,,,,,,,,,og-post,,,,AAXX 10054 07558 36/// /3202 10056 20049 39421 40279 56007=
07558,1999-10-10 06:00:00,5.6,1028,-0.1,94,4.7,20000,3.704,,,340,5.4,10.4,,,,0.2,,10.9,2,,og-post,,,,AAXX 10064 07558 12970 03402 10056 20047 39422 40280 55001 69922 333 10104 20054 30002 55109 70002=
07558,1999-10-10 07:00:00,5.5,1028.4,0.2,96,4.9,20000,,,,,,,,,,,,,,,og-post,,,,AAXX 10074 07558 32970 00000 10055 20049 39425 40284 53002=
07558,1999-10-10 08:00:00,7.3,1028.2,0.8,96,6.7,15000,3.704,,,200,,,,,,,,,,,og-post,,,,AAXX 10084 07558 32965 02002 10073 20067 39429 40282 53008=
07558,1999-10-10 09:00:00,8.7,1027.9,0.9,94,7.8,800,3.704,,,220,,,,,,,,,,42,og-post,,,,AAXX 10094 07558 31908 02202 10087 20078 39431 40279 51009 74240=
07558,1999-10-10 10:00:00,10.3,1027.4,0.6,87,8.2,,7.408,,,220,,,,,,,,,,28,og-post,,,,AAXX 10104 07558 31/// /2204 10103 20082 39431 40274 51006 72840=
07558,1999-10-10 11:00:00,11.5,1026.7,-0.1,83,8.7,,7.408,,,240,,,,,,,,,,,og-post,,,,AAXX 10114 07558 36/// /2404 10115 20087 39428 40267 58001=
07558,1999-10-10 12:00:00,13.7,1025.7,-0.6,76,9.5,,11.112,,,200,,,,,,,,,,,og-post,,,,AAXX 10124 07558 36/// /2006 10137 20095 39425 40257 58006=
07558,1999-10-10 13:00:00,16.3,1024.4,-1,72,11.2,,11.112,,,230,,,,,,,,,,,og-post,,,,AAXX 10134 07558 36/// /2306 10163 20112 39421 40244 58010=
07558,1999-10-10 14:00:00,17.6,1023.9,-0.9,64,10.7,,11.112,,,220,,,,,,,,,,,og-post,,,,AAXX 10144 07558 36/// /2206 10176 20107 39419 40239 56009=
07558,1999-10-10 15:00:00,17.7,1023.4,-1,65,11,,14.816,,,210,,,,,,,,,,,og-post,,,,AAXX 10154 07558 36/// /2108 10177 20110 39415 40234 57010=
07558,1999-10-10 16:00:00,16.8,1023.8,-0.5,66,10.4,,14.816,,,210,,,,,,,,,,,og-post,,,,AAXX 10164 07558 36/// /2108 10168 20104 39416 40238 55005=
07558,1999-10-10 17:00:00,14.2,1024.6,-0.3,76,10,,11.112,,,200,,,,,,,,,,,og-post,,,,AAXX 10174 07558 36/// /2006 10142 20100 39416 40246 56003=
07558,1999-10-10 18:00:00,12.7,1025.3,0.4,83,9.9,,11.112,,,220,4.7,18.5,,,,,,,,,og-post,,,,AAXX 10184 07558 36/// /2206 10127 20099 39419 40253 53004 333 10185 20047=
07558,1999-10-10 19:00:00,11.7,1025.9,0.5,86,9.4,,7.408,,,210,,,,,,,,,,,og-post,,,,AAXX 10194 07558 36/// /2104 10117 20094 39421 40259 53005=
07558,1999-10-10 20:00:00,10.7,1026.7,1,89,9,,14.816,,,210,,,,,,,,,,,og-post,,,,AAXX 10204 07558 36/// /2108 10107 20090 39426 40267 53010=
07558,1999-10-10 21:00:00,10.2,1027.1,0.9,92,9,,7.408,,,190,,,,,,,,,,,og-post,,,,AAXX 10214 07558 36/// /1904 10102 20090 39428 40271 52009=
07558,1999-10-10 22:00:00,10.1,1027.3,0.8,92,8.9,,,,,,,,,,,,,,,,og-post,,,,AAXX 10224 07558 36/// /0000 10101 20089 39429 40273 51008=
07558,1999-10-10 23:00:00,9.7,1027.4,0.3,95,8.9,,,,,,,,0.2,,,,,,,,og-post,,,,AAXX 10234 07558 26/// /0000 10097 20089 39429 40274 51003 333 69925=
07558,1999-10-11 00:00:00,8.9,1027.5,0,98,8.6,,3.704,,,200,,,,0.2,0.2,,,,,,og-post,,,,AAXX 11004 07558 /6/// /2002 10089 20086 39428 40275 50000 69921 333 69927=
07558,1999-10-11 01:00:00,8.5,1027.3,-0.4,99,8.4,,3.704,,,20,,,,,,,,,,,og-post,,,,AAXX 11014 07558 36/// /0202 10085 20084 39425 40273 58004=
07558,1999-10-11 02:00:00,8.1,1026.9,-0.9,100,8.1,,7.408,,,350,,,,,,,,,,,og-post,,,,AAXX 11024 07558 36/// /3504 10081 20081 3942 40269 58009=
07558,1999-10-11 03:00:00,7.9,1026.9,-0.9,100,7.9,,,,,,,,,0.2,,,,,,,og-post,,,,AAXX 11034 07558 26/// /0000 10079 20079 39419 40269 56009 333 69927=
07558,1999-10-11 04:00:00,7.5,1026.7,-0.9,100,7.5,10000,7.408,,,10,,,,,,,,,,,og-post,,,,AAXX 11044 07558 32960 00104 10075 20075 39416 40267 56009=
07558,1999-10-11 05:00:00,6.8,1026.9,-0.4,100,6.8,100,7.408,,,10,,,,,,,,,,42,og-post,,,,AAXX 11054 07558 31901 00104 10068 20068 39416 40269 56004 74240=
07558,1999-10-11 06:00:00,6.1,1027.4,-0.1,100,6.1,100,7.408,,,10,5.8,12.7,,0.2,,0.6,,10.8,4,42,og-post,,,,AAXX 11064 07558 /1901 00104 10061 20061 39418 40274 55001 69962 74240 333 10127 20058 31004 55108 69927 70006=
07558,1999-10-11 07:00:00,6.2,1027.9,0.7,100,6.2,100,7.408,,,20,,,,,,,,,,42,og-post,,,,AAXX 11074 07558 31901 00204 10062 20062 39423 40279 53007 74244=
07558,1999-10-11 08:00:00,7.5,1027.5,0.8,100,7.5,100,7.408,,,30,,,,,,,,,,42,og-post,,,,AAXX 11084 07558 31901 00304 10075 20075 39424 40275 51008 74244=
07558,1999-10-11 09:00:00,9.1,1027.6,1.1,100,9.1,100,3.704,,,30,,,,,,,,,,42,og-post,,,,AAXX 11094 07558 31901 10302 10091 20091 39429 40276 52011 74244 80001 333 81073=
07558,1999-10-11 10:00:00,12.1,1026.7,0.7,99,11.9,,,,,,,,,,,,,,,,og-post,,,,AAXX 11104 07558 36/// /0000 10121 20119 39430 40267 52007=
07558,1999-10-11 11:00:00,15.9,1025.5,0.6,77,11.9,10000,3.704,,,240,,,,,,,,,,28,og-post,,,,AAXX 11114 07558 31960 22402 10159 20119 39430 40255 51006 72840 80001 333 82073=
07558,1999-10-11 12:00:00,17.2,1024.9,-0.3,48,6.1,,11.112,,,200,,,,,,,,,,,og-post,,,,AAXX 11124 07558 36/// /2006 10172 20061 39426 40249 58003=
07558,1999-10-11 13:00:00,18.3,1024,-0.9,40,4.5,20000,7.408,,,190,,,,,,,,,,,og-post,,,,AAXX 11134 07558 32970 31904 10183 20045 39421 40240 58009 80001 333 83073=
07558,1999-10-11 14:00:00,19.3,1023.3,-1.4,28,0.4,20000,7.408,,,160,,,,,,,,,,,og-post,,,,AAXX 11144 07558 32970 31604 10193 20004 39416 40233 58014 80001 333 83073=
07558,1999-10-11 15:00:00,19.3,1023.2,-1.1,27,-0.1,20000,11.112,,,210,,,,,,,,,,,og-post,,,,AAXX 11154 07558 32970 32106 10193 21001 39415 40232 56011 80001 333 83073=
07558,1999-10-11 16:00:00,18.6,1023,-0.9,32,1.6,,7.408,,,250,,,,,,,,,,,og-post,,,,AAXX 11164 07558 36/// /2504 10186 20016 39412 40230 56009=
07558,1999-10-11 17:00:00,17,1023.6,-0.3,33,0.6,,7.408,,,240,,,,,,,,,,,og-post,,,,AAXX 11174 07558 36/// /2404 10170 20006 39413 40236 55003=
07558,1999-10-11 18:00:00,15.2,1024.8,0.4,38,1,,11.112,,,180,5.7,20,,,,,,,,,og-post,,,,AAXX 11184 07558 36/// /1806 10152 20010 39419 40248 53004 333 10200 20057=
07558,1999-10-11 19:00:00,13.8,1025.4,1,68,8,,7.408,,,100,,,,,,,,,,,og-post,,,,AAXX 11194 07558 36/// /1004 10138 20080 39422 40254 53010=
07558,1999-10-11 20:00:00,12.8,1026.2,1.3,67,6.8,,7.408,,,110,,,,,,,,,,,og-post,,,,AAXX 11204 07558 36/// /1104 10128 20068 39426 40262 51013=
07558,1999-10-11 21:00:00,12.5,1026.1,0.6,65,6.1,,7.408,,,70,,,,,,,,,,,og-post,,,,AAXX 11214 07558 36/// /0704 10125 20061 39425 40261 50006=
07558,1999-10-11 22:00:00,11.8,1025.7,-0.3,68,6.1,,14.816,,,30,,,,,,,,,,,og-post,,,,AAXX 11224 07558 36/// /0308 10118 20061 39419 40257 58003=
07558,1999-10-11 23:00:00,11.6,1025.7,-0.7,75,7.3,,3.704,,,20,,,,,,,,,,,og-post,,,,AAXX 11234 07558 36/// /0202 10116 20073 39419 40257 56007=
07558,1999-10-12 00:00:00,10.8,1026,-0.6,78,7.1,,3.704,,,30,,,,,,,,,,,og-post,,,,AAXX 12004 07558 36/// /0302 10108 20071 39419 40260 56006=
07558,1999-10-12 01:00:00,10.5,1026.2,0.1,81,7.4,,3.704,,,50,,,,,,,,,,,og-post,,,,AAXX 12014 07558 36/// /0502 10105 20074 39420 40262 53001=
07558,1999-10-12 02:00:00,9.8,1025.6,-0.6,84,7.2,,7.408,,,40,,,,,,,,,,,og-post,,,,AAXX 12024 07558 36/// /0404 10098 20072 39413 40256 58006=
07558,1999-10-12 03:00:00,9.3,1025.4,-1,86,7.1,,11.112,,,20,,,,,,,,,,,og-post,,,,AAXX 12034 07558 36/// /0206 10093 20071 39409 40254 58010=
07558,1999-10-12 04:00:00,9.3,1025.4,-1.1,87,7.2,10000,7.408,,,10,,,,,,,,,,,og-post,,,,AAXX 12044 07558 32960 00104 10093 20072 39409 40254 56011=
07558,1999-10-12 05:00:00,9.6,1025.6,-0.1,88,7.7,10000,3.704,,,30,,,,,,,,,,,og-post,,,,AAXX 12054 07558 32960 00302 10096 20077 39412 40256 55001=
07558,1999-10-12 06:00:00,8.3,1025.9,0.2,90,6.8,10000,7.408,,,20,8.3,15.3,,,,,0,9.8,5,,og-post,,,,AAXX 12064 07558 32960 20204 10083 20068 39411 40259 50002 80001 333 10153 20083 31005 55098 70000 82073=
07558,1999-10-12 07:00:00,8.5,1026.3,0.6,92,7.3,15000,7.408,,,10,,,,,,,,,,,og-post,,,,AAXX 12074 07558 32965 20104 10085 20073 39415 40263 53006 80001 333 82073=
07558,1999-10-12 08:00:00,10.2,1025.8,0.4,86,8,15000,11.112,,,30,,,,,,,,,,,og-post,,,,AAXX 12084 07558 32965 30306 10102 20080 39416 40258 53004 80001 333 83073=
07558,1999-10-12 09:00:00,11.8,1025.2,0.4,82,8.8,15000,3.704,,,40,,,,,,,,,,,og-post,,,,AAXX 12094 07558 32965 50402 10118 20088 39415 40252 50004 81031 333 81360 84073=
07558,1999-10-12 10:00:00,14.7,1024.7,0.3,67,8.6,15000,11.112,,,150,,,,,,,,,,,og-post,,,,AAXX 12104 07558 32965 41506 10147 20086 39418 40247 53003 80001 333 84073=
07558,1999-10-12 11:00:00,16.6,1023.7,-0.2,58,8.3,15000,11.112,,,130,,,,,,,,,,,og-post,,,,AAXX 12114 07558 32965 41306 10166 20083 39414 40237 58002 80001 333 84073=
07558,1999-10-12 12:00:00,17.5,1023,-0.5,54,8.1,15000,14.816,,,120,,,,,,,,,,,og-post,,,,AAXX 12124 07558 32965 51208 10175 20081 39410 40230 58005 80001 333 85073=
07558,1999-10-12 13:00:00,16.6,1022.4,-1.6,52,6.7,15000,22.224,,,130,,,,,,,,,,,og-post,,,,AAXX 12134 07558 32965 61312 10166 20067 39402 40224 58016 80002 333 86073=
07558,1999-10-12 14:00:00,15.9,1022.4,-1.4,54,6.6,15000,25.928,,,130,,,,,,,,,,,og-post,,,,AAXX 12144 07558 32965 71314 10159 20066 39400 40224 56014 86012 333 86460=
07558,1999-10-12 15:00:00,14.9,1022.6,-1,66,8.6,15000,18.52,,,150,,,,,,,,,,,og-post,,,,AAXX 12154 07558 32565 71510 10149 20086 39400 40226 56010 8751/ 333 82630 86460=
07558,1999-10-12 16:00:00,14.1,1022.9,-0.2,75,9.7,,22.224,,,130,,,,,,,,,,,og-post,,,,AAXX 12164 07558 36/// /1312 10141 20097 39400 40229 56002=
07558,1999-10-12 17:00:00,13.5,1023,-0,77,9.6,,14.816,,,120,,,,,,,,,,,og-post,,,,AAXX 12174 07558 36/// /1208 10135 20096 39400 40230 54000=
07558,1999-10-12 18:00:00,13,1023.6,0.4,82,10,,18.52,,,120,7.8,18,,,,,,,,,og-post,,,,AAXX 12184 07558 36/// /1210 10130 20100 39404 40236 53004 333 10180 20078=
07558,1999-10-12 19:00:00,13.1,1023.6,0.4,83,10.3,,14.816,,,100,,,,,,,,,,,og-post,,,,AAXX 12194 07558 36/// /1008 10131 20103 39404 40236 52004=
07558,1999-10-12 20:00:00,12.9,1023.4,0.2,87,10.8,,22.224,,,120,,,0.2,,,,,,,,og-post,,,,AAXX 12204 07558 26/// /1212 10129 20108 39402 40234 50002 333 69925=
07558,1999-10-12 21:00:00,13.2,1023.4,-0.1,87,11.1,,25.928,,,120,,,,0.2,,,,,,,og-post,,,,AAXX 12214 07558 26/// /1214 10132 20111 39403 40234 55001 333 69927=
07558,1999-10-12 22:00:00,13.2,1023.2,-0.3,88,11.3,,25.928,,,130,,,,,,,,,,,og-post,,,,AAXX 12224 07558 36/// /1314 10132 20113 39401 40232 57003=
07558,1999-10-12 23:00:00,12.8,1023.3,-0.1,91,11.4,,22.224,,,120,,,,,,,,,,,og-post,,,,AAXX 12234 07558 36/// /1212 10128 20114 39401 40233 58001=
07558,1999-10-13 00:00:00,12.6,1023.1,-0.4,92,11.3,,22.224,,,110,,,,0.2,0.4,,,,,,og-post,,,,AAXX 13004 07558 /6/// /1112 10126 20113 39399 40231 57004 69941 333 69927=
07558,1999-10-13 01:00:00,12.8,1023.1,-0.2,89,11,,22.224,,,110,,,,,,,,,,,og-post,,,,AAXX 13014 07558 36/// /1112 10128 20110 39399 40231 57002=
07558,1999-10-13 02:00:00,12.7,1023,-0.3,87,10.6,,18.52,,,110,,,,,,,,,,,og-post,,,,AAXX 13024 07558 36/// /1110 10127 20106 39398 40230 56003=
07558,1999-10-13 03:00:00,12.5,1022.7,-0.5,83,9.7,,29.632,,,120,,,,,,,,,,,og-post,,,,AAXX 13034 07558 36/// /1216 10125 20097 39394 40227 58005=
07558,1999-10-13 04:00:00,12.5,1022.4,-0.8,84,9.9,8000,25.928,,,110,,,,,,,,,,,og-post,,,,AAXX 13044 07558 32458 71114 10125 20099 39391 40224 58008 875// 333 87616=
07558,1999-10-13 05:00:00,12,1022.6,-0.6,86,9.7,8000,31.484,50.004,,120,,,0.6,,,,,,,60,og-post,,,,AAXX 13054 07558 21458 71217 10120 20097 39392 40226 55006 76062 875// 333 69965 83610 87616 91127=
07558,1999-10-13 06:00:00,11.7,1022.4,-0.5,91,10.3,7000,14.816,,,100,11.7,13.4,,1,,2,1.6,4.8,11,60,og-post,,,,AAXX 13064 07558 /1457 81008 10117 20103 39389 40224 57005 60022 76062 885// 333 10134 20117 32011 55048 60017 70016 84610 87613=
07558,1999-10-13 07:00:00,12.1,1022.5,0.1,94,11.2,7000,18.52,,,120,,,,,,,,,,60,og-post,,,,AAXX 13074 07558 21457 81210 10121 20112 39392 40225 53001 76066 885// 333 69905 84610 87613=
07558,1999-10-13 08:00:00,12,1023,0.4,94,11.1,6000,31.484,50.004,,120,,,0.6,,,,,,,61,og-post,,,,AAXX 13084 07558 21356 81217 10120 20111 39396 40230 53004 76166 885// 333 69965 84606 87611 91127=
07558,1999-10-13 09:00:00,12.1,1023.4,1.1,92,10.8,10000,22.224,50.004,,110,,,,0.6,,,,,,60,og-post,,,,AAXX 13094 07558 21360 81112 10121 20108 39400 40234 53011 76066 885// 333 69967 85606 87611 91127=
07558,1999-10-13 10:00:00,12.7,1023.2,0.8,92,11.4,10000,11.112,,,130,,,,,,,,,,21,og-post,,,,AAXX 13104 07558 21360 71306 10127 20114 39400 40232 51008 72162 875// 333 69905 83606 86613=
07558,1999-10-13 11:00:00,12.9,1023.1,0.4,94,12,10000,14.816,,,130,,,0.2,,,,,,,60,og-post,,,,AAXX 13114 07558 21360 71308 10129 20120 39400 40231 51004 76062 875// 333 69925 83606 86613=
07558,1999-10-13 12:00:00,12.9,1022.8,-0.3,93,11.8,8000,18.52,50.004,,130,,,,0.2,0.8,,,,,60,og-post,,,,AAXX 13124 07558 /1358 71310 10129 20118 39397 40228 58003 69981 76062 875// 333 69927 83606 86613 91127=
07558,1999-10-13 13:00:00,13.2,1022.4,-0.6,94,12.3,10000,18.52,,,130,,,0.8,,,,,,,60,og-post,,,,AAXX 13134 07558 21360 71310 10132 20123 39394 40224 58006 76066 875// 333 69985 83608 86615=
07558,1999-10-13 14:00:00,13.6,1022.2,-0.7,91,12.2,12000,14.816,,,140,,,,,,,,,,21,og-post,,,,AAXX 13144 07558 21462 71408 10136 20122 39393 40222 56007 72162 875// 333 69905 83610 86616=
07558,1999-10-13 15:00:00,13.4,1022.1,-0.5,91,12,10000,22.224,,,140,,,,0.8,,,,,,3,og-post,,,,AAXX 13154 07558 21460 71412 10134 20120 39392 40221 56005 70362 875// 333 69987 84610 86615=
07558,1999-10-13 16:00:00,13.3,1022,-0.3,91,11.9,,11.112,,,120,,,,,,,,,,,og-post,,,,AAXX 13164 07558 36/// /1206 10133 20119 39391 40220 57003=
07558,1999-10-13 17:00:00,13.3,1022.3,-0,92,12,,11.112,,,130,,,,,,,,,,,og-post,,,,AAXX 13174 07558 36/// /1306 10133 20120 39393 40223 55000=
07558,1999-10-13 18:00:00,13.2,1022.6,0.4,92,11.9,,7.408,,,100,11.7,13.7,,,,2,,,,,og-post,,,,AAXX 13184 07558 16/// /1004 10132 20119 39396 40226 53004 60022 333 10137 20117=
07558,1999-10-13 19:00:00,13.2,1022.7,0.6,93,12.1,,3.704,,,120,,,,,,,,,,,og-post,,,,AAXX 13194 07558 36/// /1202 10132 20121 39397 40227 51006=
07558,1999-10-13 20:00:00,13,1022.9,0.5,95,12.2,,3.704,,,350,,,3,,,,,,,,og-post,,,,AAXX 13204 07558 26/// /3502 10130 20122 39398 40229 51005 333 60035=
07558,1999-10-13 21:00:00,12.6,1023.2,0.4,99,12.4,,7.408,,,340,,,,4,,,,,,,og-post,,,,AAXX 13214 07558 26/// /3404 10126 20124 39400 40232 53004 333 60047=
07558,1999-10-13 22:00:00,12.7,1023.2,0.3,99,12.5,,7.408,,,340,,,,,,,,,,,og-post,,,,AAXX 13224 07558 36/// /3404 10127 20125 39400 40232 51003=
07558,1999-10-13 23:00:00,12.6,1023.2,0.2,99,12.4,,7.408,,,10,,,4,,,,,,,,og-post,,,,AAXX 13234 07558 26/// /0104 10126 20124 39400 40232 51002 333 60045=
07558,1999-10-14 00:00:00,12.7,1023.2,-0,98,12.4,,7.408,,,10,,,,4,8,,,,,,og-post,,,,AAXX 14004 07558 /6/// /0104 10127 20124 39400 40232 54000 60081 333 60047=
07558,1999-10-14 01:00:00,12.6,1023.1,-0.1,99,12.4,,7.408,,,10,,,4,,,,,,,,og-post,,,,AAXX 14014 07558 26/// /0104 10126 20124 39399 40231 58001 333 60045=
07558,1999-10-14 02:00:00,12.4,1022.6,-0.6,99,12.2,,3.704,,,340,,,,,,,,,,,og-post,,,,AAXX 14024 07558 36/// /3402 10124 20122 39394 40226 58006=
07558,1999-10-14 03:00:00,12.6,1022.1,-1,98,12.3,,7.408,,,30,,,,4,,,,,,,og-post,,,,AAXX 14034 07558 26/// /0304 10126 20123 39390 40221 58010 333 60047=
07558,1999-10-14 04:00:00,12.7,1022.2,-0.8,97,12.2,8000,7.408,,,10,,,,,,,,,,,og-post,,,,AAXX 14044 07558 32358 80104 10127 20122 39391 40222 55008 885// 333 84606 87610=
07558,1999-10-14 05:00:00,12.5,1022.1,-0.5,98,12.2,10000,7.408,,,10,,,,,,,,,,,og-post,,,,AAXX 14054 07558 32360 80104 10125 20122 39389 40221 56005 885// 333 84606 87610=
07558,1999-10-14 06:00:00,12.5,1022.2,-0,98,12.2,10000,7.408,,,30,12.3,13.3,,,,13,14.2,,11,2,og-post,,,,AAXX 14064 07558 11360 80304 10125 20122 39390 40222 54000 60132 70286 885// 333 10133 20123 31011 55000 70142 84606 87610=
07558,1999-10-14 07:00:00,12.4,1022.6,0.3,99,12.2,12000,7.408,,,20,,,,,,,,,,,og-post,,,,AAXX 14074 07558 32462 70204 10124 20122 39394 40226 53003 875// 333 83610 86615=
07558,1999-10-14 08:00:00,13.2,1022.8,0.9,97,12.7,15000,7.408,,,350,,,,,,,,,,,og-post,,,,AAXX 14084 07558 32465 73504 10132 20127 39398 40228 53009 875// 333 83613 85623=
07558,1999-10-14 09:00:00,14.3,1022.5,0.8,92,13,20000,7.408,,,10,,,,,,,,,,,og-post,,,,AAXX 14094 07558 32470 70104 10143 20130 39398 40225 51008 875// 333 83615 85626=
07558,1999-10-14 10:00:00,16,1021.8,0.2,83,13.1,20000,3.704,,,330,,,,,,,,,,,og-post,,,,AAXX 14104 07558 32470 73302 10160 20131 39396 40218 50002 87802 333 83815 84626=
07558,1999-10-14 11:00:00,17.8,1021.1,-0.3,78,13.9,20000,11.112,,,220,,,,,,,,,,,og-post,,,,AAXX 14114 07558 32470 72206 10178 20139 39395 40211 58003 87802 333 83815 84626=
07558,1999-10-14 12:00:00,18,1020.5,-0.8,77,13.9,20000,11.112,,,200,,,,,,,,,,,og-post,,,,AAXX 14124 07558 32470 72006 10180 20139 39390 40205 58008 87802 333 83816 84630=
07558,1999-10-14 13:00:00,18.9,1019.7,-1.1,71,13.5,20000,11.112,,,240,,,,,,,,,,,og-post,,,,AAXX 14134 07558 32470 72406 10189 20135 39385 40197 58011 87802 333 84816 84630=
07558,1999-10-14 14:00:00,19.6,1019.4,-1.1,68,13.5,20000,11.112,,,230,,,,,,,,,,,og-post,,,,AAXX 14144 07558 32470 72306 10196 20135 39384 40194 56011 87802 333 84816 84630=
07558,1999-10-14 15:00:00,17.6,1019.7,-0.8,79,13.9,20000,14.816,,,320,,,,,,,,,,,og-post,,,,AAXX 14154 07558 32570 73208 10176 20139 39382 40197 56008 86802 333 85820 85075=
07558,1999-10-14 16:00:00,17.1,1019.7,-0.5,83,14.2,,7.408,,,330,,,,,,,,,,,og-post,,,,AAXX 14164 07558 36/// /3304 10171 20142 39380 40197 58005=
07558,1999-10-14 17:00:00,16.5,1020.2,-0.1,84,13.8,,7.408,,,240,,,,,,,,,,,og-post,,,,AAXX 14174 07558 36/// /2404 10165 20138 39383 40202 55001=
07558,1999-10-14 18:00:00,16,1020.3,0.1,84,13.3,,11.112,,,360,12.4,20.2,,,,,,,,,og-post,,,,AAXX 14184 07558 36/// /3606 10160 20133 39383 40203 53001 333 10202 20124=
07558,1999-10-14 19:00:00,15.4,1020.6,0.4,86,13.1,,3.704,,,280,,,,,,,,,,,og-post,,,,AAXX 14194 07558 36/// /2802 10154 20131 39384 40206 51004=
07558,1999-10-14 20:00:00,14.8,1020.8,0.1,88,12.8,,7.408,,,280,,,,,,,,,,,og-post,,,,AAXX 14204 07558 36/// /2804 10148 20128 39384 40208 52001=
07558,1999-10-14 21:00:00,14.2,1020.9,0,94,13.2,,3.704,,,210,,,,,,,,,,,og-post,,,,AAXX 14214 07558 36/// /2102 10142 20132 39383 40209 50000=
07558,1999-10-14 22:00:00,13.5,1021,-0.2,99,13.3,,7.408,,,240,,,,,,,,,,,og-post,,,,AAXX 14224 07558 36/// /2404 10135 20133 39382 40210 58002=
07558,1999-10-14 23:00:00,12.9,1021.3,-0.1,99,12.7,,3.704,,,290,,,,,,,,,,,og-post,,,,AAXX 14234 07558 36/// /2902 10129 20127 39383 40213 55001=
07558,1999-10-15 00:00:00,12.8,1021.2,-0.1,99,12.6,,7.408,,,340,,,,,,,,,,,og-post,,,,AAXX 15004 07558 36/// /3404 10128 20126 39382 40212 57001=
07558,1999-10-15 01:00:00,12.8,1020.9,-0.3,99,12.6,,3.704,,,280,,,,,,,,,,,og-post,,,,AAXX 15014 07558 36/// /2802 10128 20126 39379 40209 58003=
07558,1999-10-15 02:00:00,12.8,1020.2,-1,99,12.6,,11.112,,,310,,,,,,,,,,,og-post,,,,AAXX 15024 07558 36/// /3106 10128 20126 39373 40202 58010=
07558,1999-10-15 03:00:00,13,1019.9,-1.1,98,12.7,,11.112,,,350,,,,0.2,,,,,,,og-post,,,,AAXX 15034 07558 26/// /3506 10130 20127 39371 40199 56011 333 69927=
07558,1999-10-15 04:00:00,13.1,1019.7,-1,97,12.6,8000,14.816,,,330,,,,,,,,,,,og-post,,,,AAXX 15044 07558 32358 23308 10131 20126 39369 40197 56010 82600 333 82706=
07558,1999-10-15 05:00:00,13.1,1019.7,-0.4,96,12.5,8000,3.704,,,310,,,,,,,,,,,og-post,,,,AAXX 15054 07558 32358 23102 10131 20125 39369 40197 56004 82600 333 82706=
07558,1999-10-15 07:00:00,12.7,1019.8,-0,98,12.4,8000,,,,,,,,,,,,,,,og-post,,,,AAXX 15074 07558 32558 60000 10127 20124 39369 40198 55000 85531 333 82626 83360=
07558,1999-10-15 08:00:00,13.2,1019.9,0.2,98,12.9,300,3.704,,,360,,,,,,,,,,44,og-post,,,,AAXX 15084 07558 31503 63602 10132 20129 39371 40199 53002 74442 85531 333 82626 83360=
07558,1999-10-15 09:00:00,13.8,1019.4,0,91,12.4,,7.408,,,340,,,,,,,,,,,og-post,,,,AAXX 15094 07558 36/// /3404 10138 20124 39368 40194 50000=
07558,1999-10-15 10:00:00,14.3,1019.3,0,95,13.5,6000,3.704,,,170,,,,,,,,,,28,og-post,,,,AAXX 15104 07558 31556 61702 10143 20135 39369 40193 50000 72842 82501 333 84626 85073=
07558,1999-10-15 11:00:00,15.6,1018.8,-0.4,76,11.4,10000,18.52,,,320,,,,,,,,,,,og-post,,,,AAXX 15114 07558 32560 53210 10156 20114 39367 40188 56004 83801 333 81823 83073=
07558,1999-10-15 12:00:00,16.4,1017.7,-0.9,74,11.8,15000,22.224,,,330,,,,,,,,,,1,og-post,,,,AAXX 15124 07558 31565 43312 10164 20118 39359 40177 58009 70141 83101 333 83826=
07558,1999-10-15 13:00:00,17.5,1016.8,-1.5,63,10.4,15000,18.52,,,320,,,,,,,,,,,og-post,,,,AAXX 15134 07558 32565 43210 10175 20104 39354 40168 58015 83101 333 83826=
07558,1999-10-15 14:00:00,17.7,1016.6,-1.5,61,10.1,15000,22.224,,,300,,,,,,,,,,,og-post,,,,AAXX 15144 07558 32565 33012 10177 20101 39352 40166 56015 82101 333 82826=
07558,1999-10-15 15:00:00,17.4,1016.4,-0.9,64,10.5,15000,22.224,,,320,,,,,,,,,,,og-post,,,,AAXX 15154 07558 32565 33212 10174 20105 39350 40164 56009 82101 333 82826=
07558,1999-10-15 16:00:00,16.3,1016.6,-0.5,69,10.6,,25.928,,,300,,,,,,,,,,,og-post,,,,AAXX 15164 07558 36/// /3014 10163 20106 39349 40166 56005=
07558,1999-10-15 17:00:00,14.7,1017.4,-0,77,10.7,,29.632,,,310,,,,,,,,,,,og-post,,,,AAXX 15174 07558 36/// /3116 10147 20107 39352 40174 55000=
07558,1999-10-15 19:00:00,13,1018.8,1.1,81,9.8,,11.112,,,280,,,,,,,,,,,og-post,,,,AAXX 15194 07558 36/// /2806 10130 20098 39360 40188 52011=
07558,1999-10-15 20:00:00,12.1,1019,0.7,88,10.2,,14.816,,,360,,,,,,,,,,,og-post,,,,AAXX 15204 07558 36/// /3608 10121 20102 39359 40190 50007=
07558,1999-10-15 21:00:00,11.6,1019,0.1,92,10.3,,18.52,,,10,,,,,,,,,,,og-post,,,,AAXX 15214 07558 36/// /0110 10116 20103 39358 40190 50001=
07558,1999-10-15 22:00:00,11.5,1019.1,-0.1,94,10.6,,18.52,,,20,,,,,,,,,,,og-post,,,,AAXX 15224 07558 36/// /0210 10115 20106 39359 40191 55001=
07558,1999-10-15 23:00:00,10.6,1019.2,-0.2,92,9.4,,11.112,,,360,,,,,,,,,,,og-post,,,,AAXX 15234 07558 36/// /3606 10106 20094 39357 40192 58002=
07558,1999-10-16 00:00:00,10.7,1019.2,-0.1,90,9.1,,3.704,,,340,,,,,,,,,,,og-post,,,,AAXX 16004 07558 36/// /3402 10107 20091 39357 40192 58001=
07558,1999-10-16 01:00:00,10.5,1019.1,-0.4,89,8.8,,3.704,,,320,,,,,,,,,,,og-post,,,,AAXX 16014 07558 36/// /3202 10105 20088 39355 40191 57004=
07558,1999-10-16 02:00:00,10.1,1018.6,-0.7,92,8.9,,3.704,,,10,,,,,,,,,,,og-post,,,,AAXX 16024 07558 36/// /0102 10101 20089 39350 40186 58007=
07558,1999-10-16 03:00:00,9.9,1018.4,-1,98,9.6,,3.704,,,320,,,,,,,,,,,og-post,,,,AAXX 16034 07558 36/// /3202 10099 20096 39347 40184 58010=
07558,1999-10-16 04:00:00,9.3,1018.7,-0.7,94,8.4,,7.408,,,330,,,,,,,,,,,og-post,,,,AAXX 16044 07558 36/// /3304 10093 20084 39348 40187 55007=
07558,1999-10-16 05:00:00,9.1,1018.8,-0.2,92,7.9,10000,3.704,,,320,,,0.2,,,,,,,,og-post,,,,AAXX 16054 07558 22360 13202 10091 20079 39348 40188 56002 81600 333 69925 81706=
07558,1999-10-16 06:00:00,8.5,1018.5,-0.3,94,7.6,10000,11.112,,,10,8.5,13.9,,0.2,,0.2,0.2,5.7,5,,og-post,,,,AAXX 16064 07558 /2360 10106 10085 20076 39344 40185 58003 69922 81600 333 10139 20085 31005 55057 69927 70002 81706=
07558,1999-10-16 07:00:00,8.5,1018.8,-0.1,95,7.7,10000,11.112,,,20,,,,,,,,,,,og-post,,,,AAXX 16074 07558 32360 20206 10085 20077 39347 40188 55001 82600 333 82706=
07558,1999-10-16 08:00:00,10.6,1018.5,0.2,86,8.4,8000,18.52,,,360,,,,,,,,,,,og-post,,,,AAXX 16084 07558 32358 33610 10106 20084 39350 40185 53002 83600 333 83706=
07558,1999-10-16 09:00:00,12,1017.8,0.3,75,7.7,8000,22.224,,,10,,,,,,,,,,,og-post,,,,AAXX 16094 07558 32358 30112 10120 20077 39347 40178 50003 83600 333 83706=
07558,1999-10-16 10:00:00,13.9,1017.2,0,65,7.4,15000,11.112,,,20,,,,,,,,,,,og-post,,,,AAXX 16104 07558 32965 00206 10139 20074 39347 40172 50000=
07558,1999-10-16 11:00:00,16,1016.2,-0.6,67,9.9,,7.408,,,140,,,,,,,,,,,og-post,,,,AAXX 16114 07558 36/// /1404 10160 20099 39344 40162 57006=
07558,1999-10-16 12:00:00,17.3,1015.1,-1,60,9.5,,7.408,,,240,,,,,,,,,,,og-post,,,,AAXX 16124 07558 36/// /2404 10173 20095 39337 40151 58010=
07558,1999-10-16 13:00:00,18.4,1014.1,-1.6,56,9.5,,7.408,,,210,,,,,,,,,,,og-post,,,,AAXX 16134 07558 36/// /2104 10184 20095 39331 40141 58016=
07558,1999-10-16 14:00:00,19.2,1013.6,-1.5,56,10.2,,7.408,,,220,,,,,,,,,,,og-post,,,,AAXX 16144 07558 36/// /2204 10192 20102 39329 40136 56015=
07558,1999-10-16 15:00:00,18.4,1013.4,-1.3,53,8.7,,7.408,,,180,,,,,,,,,,,og-post,,,,AAXX 16154 07558 36/// /1804 10184 20087 39324 40134 56013=
07558,1999-10-16 16:00:00,17.4,1013.3,-1,56,8.5,,7.408,,,170,,,,,,,,,,,og-post,,,,AAXX 16164 07558 36/// /1704 10174 20085 39321 40133 58010=
07558,1999-10-16 18:00:00,13.1,1014.7,-0.2,81,9.9,,14.816,,,120,7.8,19.2,,,,,,,,,og-post,,,,AAXX 16184 07558 36/// /1208 10131 20099 39322 40147 55002 333 10192 20078=
07558,1999-10-16 19:00:00,12.2,1015.2,0.4,90,10.6,,14.816,,,130,,,,,,,,,,,og-post,,,,AAXX 16194 07558 36/// /1308 10122 20106 39325 40152 53004=
07558,1999-10-16 20:00:00,11.7,1016,1.1,93,10.6,,11.112,,,100,,,,,,,,,,,og-post,,,,AAXX 16204 07558 36/// /1006 10117 20106 39331 40160 53011=
07558,1999-10-16 21:00:00,11.3,1016,0.8,96,10.7,,14.816,,,100,,,,,,,,,,,og-post,,,,AAXX 16214 07558 36/// /1008 10113 20107 39330 40160 50008=
07558,1999-10-16 22:00:00,11,1016,0.4,98,10.7,,7.408,,,90,,,,,,,,,,,og-post,,,,AAXX 16224 07558 36/// /0904 10110 20107 39329 40160 50004=
07558,1999-10-16 23:00:00,10.6,1015.7,-0.6,98,10.3,,7.408,,,30,,,0.2,,,,,,,,og-post,,,,AAXX 16234 07558 26/// /0304 10106 20103 39325 40157 58006 333 69925=
07558,1999-10-17 00:00:00,9.9,1015.6,-0.8,99,9.7,,7.408,,,360,,,,0.2,0.2,,,,,,og-post,,,,AAXX 17004 07558 /6/// /3604 10099 20097 39322 40156 58008 69921 333 69927=
07558,1999-10-17 01:00:00,9.6,1015.5,-0.9,99,9.4,,7.408,,,20,,,,,,,,,,,og-post,,,,AAXX 17014 07558 36/// /0204 10096 20094 39320 40155 56009=
07558,1999-10-17 02:00:00,9.8,1015.3,-0.6,99,9.6,,7.408,,,90,,,,,,,,,,,og-post,,,,AAXX 17024 07558 36/// /0904 10098 20096 39319 40153 56006=
07558,1999-10-17 03:00:00,9.4,1015.3,-0.5,98,9.1,,3.704,,,30,,,,,,,,,,,og-post,,,,AAXX 17034 07558 36/// /0302 10094 20091 39317 40153 57005=
07558,1999-10-17 04:00:00,9.1,1015.1,-0.5,98,8.8,10000,7.408,,,30,,,0.2,,,,,,,,og-post,,,,AAXX 17044 07558 22960 30304 10091 20088 39315 40151 58005 80002 333 69925 83075=
07558,1999-10-17 05:00:00,9.1,1015,-0.5,98,8.8,10000,11.112,,,40,,,,,,,,,,,og-post,,,,AAXX 17054 07558 32960 50406 10091 20088 39314 40150 56005 80002 333 85075=
07558,1999-10-17 06:00:00,8.9,1015.3,-0.1,97,8.4,10000,7.408,,,350,8.9,13.2,,0.2,,0.4,0.4,9.7,6,,og-post,,,,AAXX 17064 07558 /2960 63504 10089 20084 39316 40153 55001 69942 81032 333 10132 20089 31006 55097 69927 70004 81360 86075=
07558,1999-10-17 07:00:00,10.1,1015.1,0.3,95,9.3,10000,7.408,,,30,,,,,,,,,,,og-post,,,,AAXX 17074 07558 32560 70304 10101 20093 39318 40151 53003 83532 333 83620 86075=
07558,1999-10-17 08:00:00,11.2,1015.1,0.7,94,10.3,8000,3.704,,,40,,,,,,,,,,,og-post,,,,AAXX 17084 07558 32458 70402 10112 20103 39321 40151 53007 85532 333 85616 83360 86075=
07558,1999-10-17 09:00:00,12.1,1014.8,0.5,90,10.5,8000,7.408,,,40,,,,,,,,,,,og-post,,,,AAXX 17094 07558 32458 70404 10121 20105 39321 40148 51005 875// 333 87616=
07558,1999-10-17 10:00:00,13.7,1014.2,0.2,86,11.4,9000,11.112,,,100,,,,,,,,,,,og-post,,,,AAXX 17104 07558 32459 71006 10137 20114 39320 40142 50002 875// 333 87616=
07558,1999-10-17 11:00:00,-46,1013.2,-0.8,127,11.9,,22.224,,,120,,,,,,,,,,,og-post,,,,AAXX 17114 07558 36/// /1212 1146 20119 39313 40132 58008=
07558,1999-10-17 12:00:00,15.1,1012.5,-1.3,81,11.9,,22.224,,,130,,,,,,,,,,,og-post,,,,AAXX 17124 07558 36/// /1312 10151 20119 39308 40125 58013=
07558,1999-10-17 13:00:00,14.3,1012.6,-1.3,86,12,,25.928,,,140,,,,,,,,,,,og-post,,,,AAXX 17134 07558 36/// /1414 10143 20120 39307 40126 56013=
07558,1999-10-17 14:00:00,14,1012.3,-1,88,12,,18.52,,,130,,,,,,,,,,,og-post,,,,AAXX 17144 07558 36/// /1310 10140 20120 39303 40123 56010=
07558,1999-10-17 15:00:00,13.7,1011.9,-0.9,90,12.1,,25.928,,,120,,,,,,,,,,,og-post,,,,AAXX 17154 07558 36/// /1214 10137 20121 39299 40119 58009=
07558,1999-10-17 16:00:00,13.6,1011.6,-1.1,90,12,,22.224,,,120,,,,,,,,,,,og-post,,,,AAXX 17164 07558 36/// /1212 10136 20120 39296 40116 56011=
07558,1999-10-17 17:00:00,13.6,1011.8,-0.5,90,12,,25.928,,,120,,,,,,,,,,,og-post,,,,AAXX 17174 07558 36/// /1214 10136 20120 39298 40118 55005=
07558,1999-10-17 18:00:00,13.6,1011.3,-0.6,89,11.8,,25.928,,,120,8.9,15.5,,,,,,,,,og-post,,,,AAXX 17184 07558 36/// /1214 10136 20118 39293 40113 58006 333 10155 20089=
07558,1999-10-17 19:00:00,13.5,1011,-0.6,90,11.9,,18.52,,,100,,,,,,,,,,,og-post,,,,AAXX 17194 07558 36/// /1010 10135 20119 39290 40110 58006=
07558,1999-10-17 20:00:00,13.3,1010.8,-1.1,84,10.7,,22.224,,,100,,,,,,,,,,,og-post,,,,AAXX 17204 07558 36/// /1012 10133 20107 39287 40108 56011=
07558,1999-10-17 21:00:00,13.3,1010.1,-1.2,87,11.2,,22.224,,,100,,,,,,,,,,,og-post,,,,AAXX 17214 07558 36/// /1012 10133 20112 39281 40101 58012=
07558,1999-10-17 22:00:00,11.9,1011.3,-0.2,92,10.6,,25.928,,,120,,,2,,,,,,,,og-post,,,,AAXX 17224 07558 26/// /1214 10119 20106 39288 40113 55002 333 60025=
07558,1999-10-18 05:00:00,10.9,1005.4,-1.2,98,10.6,,11.112,,,110,,,3,,,,,,,,og-post,,,,AAXX 18054 07558 26/// /1106 10109 20106 39231 40054 58012 333 60035=
07558,1999-10-18 06:00:00,10.4,1004.4,-2,100,10.4,5000,18.52,57.412,,10,10.4,13.6,,13,,45,45,0.2,10,63,og-post,,,,AAXX 18064 07558 /1450 80110 10104 20104 39221 40044 58020 60452 76366 885// 333 10136 20104 32010 55002 60137 70450 88616 91131=
07558,1999-10-18 07:00:00,10.3,1004.4,-1.9,98,10,5000,29.632,,50.004,90,,,8,,,,,,,92,og-post,,,,AAXX 18074 07558 21350 80916 10103 20100 39220 40044 56019 79266 889// 333 60085 85706 85916 91027=
07558,1999-10-18 08:00:00,9.3,1005.3,-0.6,99,9.2,500,18.52,68.524,,130,,,2,,,,,,,92,og-post,,,,AAXX 18084 07558 21/00 91310 10093 20092 39225 40053 55006 79266 333 60025 91137=
07558,1999-10-18 09:00:00,8.7,1006.9,1.7,100,8.7,5000,29.632,68.524,,200,,,,10,,,,,,28,og-post,,,,AAXX 18094 07558 21350 82016 10087 20087 39238 40069 53017 72862 885// 333 60107 83706 86610 91137=
07558,1999-10-18 10:00:00,9.2,1007.6,2.6,100,9.2,8000,18.52,,,190,,,0.2,,,,,,,21,og-post,,,,AAXX 18104 07558 21458 81910 10092 20092 39246 40076 53026 72162 885// 333 69925 82710 86613=
07558,1999-10-18 11:00:00,9.9,1007.9,2.6,100,9.9,8000,14.816,,,230,,,,,,,,,,,og-post,,,,AAXX 18114 07558 32458 82308 10099 20099 39251 40079 51026 885// 333 82710 86613=
07558,1999-10-18 14:00:00,12.2,1007.5,0.3,87,10.1,8000,11.112,,,220,,,,,,,,,,,og-post,,,,AAXX 18144 07558 32458 72206 10122 20101 39254 40075 51003 875// 333 82710 85613=
07558,1999-10-18 15:00:00,11.8,1007.5,0,86,9.5,8000,14.816,,,210,,,,,,,,,,2,og-post,,,,AAXX 18154 07558 21458 72108 10118 20095 39253 40075 50000 70252 8755/ 333 69907 83616 84360=
07558,1999-10-18 16:00:00,11.4,1008,0.3,89,9.7,,7.408,,,180,,,,,,,,,,,og-post,,,,AAXX 18164 07558 36/// /1804 10114 20097 39256 40080 53003=
07558,1999-10-18 17:00:00,10.8,1008.5,0.5,92,9.6,,7.408,,,170,,,,,,,,,,,og-post,,,,AAXX 18174 07558 36/// /1704 10108 20096 39259 40085 53005=
07558,1999-10-18 19:00:00,9.5,1009.5,0.9,99,9.3,,18.52,,,220,,,0.2,,,,,,,,og-post,,,,AAXX 18194 07558 26/// /2210 10095 20093 39265 40095 51009 333 69925=
07558,1999-10-18 20:00:00,9.1,1010.1,1,100,9.1,,22.224,,,230,,,,,,,,,,,og-post,,,,AAXX 18204 07558 36/// /2312 10091 20091 39269 40101 52010=
07558,1999-10-18 21:00:00,8.7,1010.7,1,98,8.4,,22.224,,,230,,,,0.2,,,,,,,og-post,,,,AAXX 18214 07558 26/// /2312 10087 20084 39273 40107 53010 333 69927=
07558,1999-10-18 22:00:00,8.6,1010.7,0.8,98,8.3,,14.816,,,210,,,,,,,,,,,og-post,,,,AAXX 18224 07558 36/// /2108 10086 20083 39273 40107 51008=
07558,1999-10-18 23:00:00,8.1,1010.3,-0.1,99,8,,22.224,,,210,,,,,,,,,,,og-post,,,,AAXX 18234 07558 36/// /2112 10081 20080 39268 40103 58001=
07558,1999-10-19 00:00:00,7.9,1009.7,-1.1,99,7.8,,14.816,,,200,,,,0.4,0.6,,,,,,og-post,,,,AAXX 19004 07558 /6/// /2008 10079 20078 39262 40097 58011 69961 333 69947=
07558,1999-10-19 02:00:00,7.9,1008.8,-1.5,100,7.9,,22.224,,,190,,,1,,,,,,,,og-post,,,,AAXX 19024 07558 26/// /1912 10079 20079 39253 40088 56015 333 60015=
07558,1999-10-19 04:00:00,8.1,1008,-1.1,100,8.1,300,22.224,,,200,,,1,,,,,,,61,og-post,,,,AAXX 19044 07558 21103 82012 10081 20081 39247 40080 56011 76164 885// 333 60015 85701 88606=
07558,1999-10-19 05:00:00,8.2,1008.1,-0.5,100,8.2,400,18.52,,,200,,,1,,,,,,,61,og-post,,,,AAXX 19054 07558 21104 82010 10082 20082 39248 40081 55005 76166 885// 333 60015 85701 88606=
07558,1999-10-19 06:00:00,8.3,1008.2,-0,100,8.3,400,22.224,,,210,,,,3,,8,23,0.5,8,61,og-post,,,,AAXX 19064 07558 /1104 82112 10083 20083 39249 40082 55000 60082 76166 885// 333 10095 20078 32008 55005 60037 70230 85701 88606=
07558,1999-10-19 07:00:00,8.5,1008.3,0.4,100,8.5,400,29.632,,,220,,,0.6,,,,,,,61,og-post,,,,AAXX 19074 07558 21104 82216 10085 20085 39251 40083 53004 76166 885// 333 69965 85701 88606=
07558,1999-10-19 08:00:00,8.5,1008.7,0.6,100,8.5,300,29.632,,,220,,,,,,,,,,61,og-post,,,,AAXX 19084 07558 21103 82216 10085 20085 39254 40087 53006 76166 885// 333 69905 85701 88606=
07558,1999-10-19 09:00:00,8.5,1008.8,0.6,100,8.5,300,29.632,,,220,,,,1,,,,,,61,og-post,,,,AAXX 19094 07558 21103 82216 10085 20085 39255 40088 51006 76166 885// 333 60017 85701 88606=
07558,1999-10-19 10:00:00,8.6,1009.1,0.7,100,8.6,200,25.928,,,220,,,,,,,,,,61,og-post,,,,AAXX 19104 07558 21102 82214 10086 20086 39258 40091 52007 76166 885// 333 69905 85701 88605=
07558,1999-10-19 11:00:00,8.9,1009,0.4,100,8.9,300,22.224,,,210,,,0.4,,,,,,,61,og-post,,,,AAXX 19114 07558 21103 82112 10089 20089 39258 40090 51004 76166 885// 333 69945 85701 88605=
07558,1999-10-19 12:00:00,9.8,1008.2,-0.1,100,9.8,600,18.52,,,210,,,,0.8,2,,,,,60,og-post,,,,AAXX 19124 07558 /1106 82110 10098 20098 39254 40082 58001 60021 76066 885// 333 69987 85701 87606=
07558,1999-10-19 13:00:00,9.8,1007.7,-0.9,100,9.8,12000,18.52,,,220,,,,,,,,,,28,og-post,,,,AAXX 19134 07558 21462 72210 10098 20098 39249 40077 58009 72864 878// 333 69905 84810 85620=
07558,1999-10-19 14:00:00,11.2,1007.7,-0.5,91,9.8,15000,11.112,,,210,,,,,,,,,,,og-post,,,,AAXX 19144 07558 32465 72106 10112 20098 39253 40077 55005 85832 333 83810 83620 85075=
07558,1999-10-19 15:00:00,11.7,1007.6,-0.1,84,9.1,20000,11.112,,,160,,,,,,,,,,3,og-post,,,,AAXX 19154 07558 21470 71606 10117 20091 39253 40076 56001 70364 86832 333 69907 84813 83620 85075=
07558,1999-10-19 16:00:00,11.5,1007.4,0.2,85,9.1,,3.704,,,160,,,,,,,,,,,og-post,,,,AAXX 19164 07558 36/// /1602 10115 20091 39251 40074 50002=
07558,1999-10-19 17:00:00,11,1007.9,0.1,85,8.6,,7.408,,,200,,,,,,,,,,,og-post,,,,AAXX 19174 07558 36/// /2004 10110 20086 39254 40079 53001=
07558,1999-10-19 18:00:00,10.3,1008.1,0.1,94,9.4,,14.816,,,100,8.3,12.6,,,,2,,,,,og-post,,,,AAXX 19184 07558 16/// /1008 10103 20094 39254 40081 53001 60022 333 10126 20083=
07558,1999-10-19 19:00:00,10.3,1008.7,0.8,89,8.6,,3.704,,,180,,,,,,,,,,,og-post,,,,AAXX 19194 07558 36/// /1802 10103 20086 39259 40087 53008=
07558,1999-10-19 20:00:00,10.3,1008.7,0.5,91,8.9,,7.408,,,130,,,,,,,,,,,og-post,,,,AAXX 19204 07558 36/// /1304 10103 20089 39259 40087 52005=
07558,1999-10-19 21:00:00,9.9,1008.7,0.4,94,9,,11.112,,,100,,,,,,,,,,,og-post,,,,AAXX 19214 07558 36/// /1006 10099 20090 39258 40087 50004=
07558,1999-10-19 22:00:00,9.9,1008.8,-0,94,9,,7.408,,,140,,,,,,,,,,,og-post,,,,AAXX 19224 07558 36/// /1404 10099 20090 39259 40088 55000=
07558,1999-10-19 23:00:00,9.8,1008.3,-0.5,95,9,,11.112,,,120,,,,,,,,,,,og-post,,,,AAXX 19234 07558 36/// /1206 10098 20090 39254 40083 58005=
07558,1999-10-20 00:00:00,9.7,1007.9,-0.8,92,8.5,,14.816,,,100,,,,,,,,,,,og-post,,,,AAXX 20004 07558 36/// /1008 10097 20085 39250 40079 58008=
07558,1999-10-20 01:00:00,9.9,1007.3,-1.4,91,8.5,,18.52,,,110,,,,,,,,,,,og-post,,,,AAXX 20014 07558 36/// /1110 10099 20085 39245 40073 57014=
07558,1999-10-20 02:00:00,10.1,1006.2,-1.8,92,8.9,,22.224,,,110,,,,,,,,,,,og-post,,,,AAXX 20024 07558 36/// /1112 10101 20089 39236 40062 58018=
07558,1999-10-20 03:00:00,10.2,1005.1,-2.4,91,8.8,,14.816,,,90,,,,,,,,,,,og-post,,,,AAXX 20034 07558 36/// /0908 10102 20088 39226 40051 58024=
07558,1999-10-20 04:00:00,10.1,1004.1,-2.8,94,9.2,6000,31.484,57.412,53.708,110,,,,,,,,,,,og-post,,,,AAXX 20044 07558 32356 71117 10101 20092 39217 40041 57028 875// 333 82706 85616 91029 91131=
07558,1999-10-20 05:00:00,10,1003.6,-2.4,94,9.1,6000,31.484,57.412,,110,,,,,,,,,,,og-post,,,,AAXX 20054 07558 32356 71117 10100 20091 39212 40036 56024 875// 333 82706 85616 91131=
07558,1999-10-20 06:00:00,9.9,1003.1,-1.9,95,9.1,6000,29.632,64.82,50.004,130,9.5,10.5,,,,,2.2,0.3,8,50,og-post,,,,AAXX 20064 07558 /1356 71316 10099 20091 39207 40031 56019 69902 75052 875// 333 10105 20095 32008 55003 69907 70022 82706 85616 91027 91135=
07558,1999-10-20 07:00:00,10.8,1001.6,-2.1,92,9.6,,46.3,68.524,68.524,130,,,0.2,,,,,,,,og-post,,,,AAXX 20074 07558 26/// /1325 10108 20096 39196 40016 58021 333 69925 91037 91137=
07558,1999-10-20 08:00:00,11.6,1001.2,-1.8,88,9.7,8000,46.3,83.34,83.34,130,,,,,,,,,,20,og-post,,,,AAXX 20084 07558 21358 71325 10116 20097 39194 40012 56018 72052 875// 333 69905 82706 85616 91045 91145=
07558,1999-10-20 09:00:00,12.1,999.8,-2.4,87,10,8000,50.004,83.34,79.636,130,,,,0.2,,,,,,2,og-post,,,,AAXX 20094 07558 21358 71327 10121 20100 39183 49998 57024 70252 875// 333 69927 82706 85616 91043 91145=
07558,1999-10-20 10:00:00,13.5,999.4,-1.3,84,10.9,8000,50.004,87.044,75.932,140,,,,,,,,,,,og-post,,,,AAXX 20104 07558 32358 71427 10135 20109 39183 49994 56013 875// 333 82706 85616 91041 91147=
07558,1999-10-20 11:00:00,13.4,999,-1.5,79,9.8,10000,53.708,90.748,87.044,130,,,,,,,,,,,og-post,,,,AAXX 20114 07558 32460 71329 10134 20098 39179 49990 56015 875// 333 82616 85623 91047 91149=
07558,1999-10-20 12:00:00,13.8,997.5,-1.7,73,9,10000,50.004,103.712,87.044,140,,,,,0.2,,,,,3,og-post,,,,AAXX 20124 07558 11460 81427 10138 20090 39166 49975 58017 69921 70352 885// 333 83616 85623 91047 91156=
07558,1999-10-20 13:00:00,13.4,996.5,-2.7,79,9.8,10000,61.116,96.304,96.304,140,,,,,,,,,,,og-post,,,,AAXX 20134 07558 32560 81433 10134 20098 39156 49965 58027 8853/ 333 85623 83360 91052 91152=
07558,1999-10-20 14:00:00,12.8,996,-2.9,84,10.2,10000,61.116,100.008,94.452,140,,,,,,,,,,,og-post,,,,AAXX 20144 07558 32560 81433 10128 20102 39150 49960 56029 8853/ 333 85623 83360 91051 91154=
07558,1999-10-20 15:00:00,12.8,995.4,-2.1,89,11,10000,61.116,100.008,94.452,140,,,,,,,,,,,og-post,,,,AAXX 20154 07558 32560 81433 10128 20110 39145 49954 56021 8853/ 333 85623 83360 91051 91154=
07558,1999-10-20 16:00:00,12.2,995,-1.6,97,11.7,,46.3,90.748,75.932,120,,,3,,,,,,,,og-post,,,,AAXX 20164 07558 26/// /1225 10122 20117 39140 49950 56016 333 60035 91041 91149=
07558,1999-10-20 17:00:00,12.7,995,-0.9,93,11.6,,46.3,75.932,64.82,140,,,0.4,,,,,,,,og-post,,,,AAXX 20174 07558 26/// /1425 10127 20116 39141 49950 55009 333 69945 91035 91141=
07558,1999-10-20 18:00:00,12.9,995.2,-0.2,92,11.6,,38.892,100.008,61.116,150,9.9,13.9,,4,,4,,,,,og-post,,,,AAXX 20184 07558 /6/// /1521 10129 20116 39143 49952 55002 60042 333 10139 20099 60047 91033 91154=
07558,1999-10-20 19:00:00,13.5,994.3,-0.4,85,11,,38.892,,,140,,,,,,,,,,,og-post,,,,AAXX 20194 07558 36/// /1421 10135 20110 39136 49943 58004=
07558,1999-10-20 20:00:00,13.2,995.2,0.3,83,10.4,,29.632,,57.412,160,,,,,,,,,,,og-post,,,,AAXX 20204 07558 36/// /1616 10132 20104 39144 49952 53003 333 91031=
07558,1999-10-20 21:00:00,12.3,995.4,-0,91,10.9,,25.928,,,140,,,,0.6,,,,,,,og-post,,,,AAXX 20214 07558 26/// /1414 10123 20109 39143 49954 55000 333 69967=
07558,1999-10-20 22:00:00,12.2,995.4,0.7,87,10.1,,3.704,,,210,,,0.6,,,,,,,,og-post,,,,AAXX 20224 07558 26/// /2102 10122 20101 39143 49954 51007 333 69965=
07558,1999-10-20 23:00:00,11.5,995.3,-0.4,95,10.7,,3.704,,,170,,,2,,,,,,,,og-post,,,,AAXX 20234 07558 26/// /1702 10115 20107 39140 49953 58004 333 60025=
07558,1999-10-21 00:00:00,11,994.9,-0.8,98,10.7,,11.112,,,40,,,,4,5,,,,,,og-post,,,,AAXX 21004 07558 /6/// /0406 10110 20107 39135 49949 58008 60051 333 60047=
07558,1999-10-21 01:00:00,10.8,995.6,-0.2,100,10.8,,,,,,,,,,,,,,,,og-post,,,,AAXX 21014 07558 36/// /0000 10108 20108 39141 49956 55002=
07558,1999-10-21 02:00:00,10.6,996.3,0.7,100,10.6,,7.408,,,180,,,0.2,,,,,,,,og-post,,,,AAXX 21024 07558 26/// /1804 10106 20106 39147 49963 53007 333 69925=
07558,1999-10-21 03:00:00,10.1,997,1.7,98,9.8,,14.816,,,320,,,,4,,,,,,,og-post,,,,AAXX 21034 07558 26/// /3208 10101 20098 39152 49970 51017 333 60047=
07558,1999-10-21 04:00:00,10,997.7,1.7,95,9.2,15000,11.112,,,360,,,,,,,,,,21,og-post,,,,AAXX 21044 07558 31465 83606 10100 20092 39158 49977 52017 72122 875// 333 83710 87623=
07558,1999-10-21 05:00:00,10.4,998.4,1.8,92,9.2,15000,18.52,,,290,,,,,,,,,,,og-post,,,,AAXX 21054 07558 32465 82910 10104 20092 39165 49984 53018 875// 333 83710 87623=
07558,1999-10-21 06:00:00,10.4,999,1.9,89,8.7,25000,25.928,,,300,9.9,13.5,,,,9,13.6,0.2,9,1,og-post,,,,AAXX 21064 07558 /1575 73014 10104 20087 39171 49990 52019 60092 70162 875// 333 10135 20099 31009 55002 69907 70136 87630=
07558,1999-10-21 07:00:00,10,1000,2.1,90,8.4,25000,18.52,,,290,,,,,,,,,,,og-post,,,,AAXX 21074 07558 32575 72910 10100 20084 39179 40000 53021 8683/ 333 82826 85630=
07558,1999-10-21 08:00:00,10.1,1001.1,2.4,91,8.7,25000,14.816,,,260,,,,,,,,,,,og-post,,,,AAXX 21084 07558 32575 72608 10101 20087 39189 40011 53024 878// 333 84826 86630=
07558,1999-10-21 09:00:00,10.7,1001.4,2.2,86,8.5,30000,22.224,,,290,,,,,,,,,,,og-post,,,,AAXX 21094 07558 32580 72912 10107 20085 39193 40014 51022 878// 333 84826 86630=
07558,1999-10-21 10:00:00,11.3,1001.5,1.7,81,8.2,30000,14.816,,,280,,,,,,,,,,,og-post,,,,AAXX 21104 07558 32580 72808 10113 20082 39196 40015 51017 878// 333 82826 87630=
07558,1999-10-21 11:00:00,10.7,1002.1,1.1,92,9.5,20000,11.112,,,260,,,,,,,,,,,og-post,,,,AAXX 21114 07558 32570 82606 10107 20095 39200 40021 52011 885// 333 84620 87626=
07558,1999-10-21 12:00:00,10.5,1002.4,0.9,98,10.2,10000,11.112,,,230,,,,,,,,,,51,og-post,,,,AAXX 21124 07558 /1460 82306 10105 20102 39202 40024 51009 69901 75152 885// 333 69907 84616 87626=
07558,1999-10-21 14:00:00,10.8,1003.5,1.3,98,10.5,10000,11.112,,,280,,,0.2,,,,,,,20,og-post,,,,AAXX 21144 07558 21560 72806 10108 20105 39213 40035 53013 72052 875// 333 69925 84620 85626=
07558,1999-10-21 15:00:00,11.3,1003.9,1.6,94,10.4,25000,7.408,,,210,,,,0.4,,,,,,1,og-post,,,,AAXX 21154 07558 21575 72104 10113 20104 39218 40039 53016 70152 878// 333 69947 86823 84626=
07558,1999-10-21 16:00:00,11.8,1004.6,2.1,93,10.7,,11.112,,,250,,,,,,,,,,,og-post,,,,AAXX 21164 07558 36/// /2506 10118 20107 39226 40046 52021=
07558,1999-10-21 17:00:00,10.7,1004.7,1.1,91,9.3,,7.408,,,50,,,,,,,,,,,og-post,,,,AAXX 21174 07558 36/// /0504 10107 20093 39224 40047 50011=
07558,1999-10-21 18:00:00,10,1005.4,1,94,9.1,,7.408,,,50,9.9,12.1,,,,0.4,,,,,og-post,,,,AAXX 21184 07558 16/// /0504 10100 20091 39228 40054 51010 69942 333 10121 20099=
07558,1999-10-21 19:00:00,9.8,1005.9,0.6,96,9.2,,3.704,,,20,,,,,,,,,,,og-post,,,,AAXX 21194 07558 36/// /0202 10098 20092 39232 40059 53006=
07558,1999-10-21 20:00:00,9.3,1006.9,1.6,99,9.2,,3.704,,,190,,,,,,,,,,,og-post,,,,AAXX 21204 07558 36/// /1902 10093 20092 39240 40069 53016=
07558,1999-10-21 21:00:00,8.9,1007.1,1.3,99,8.8,,7.408,,,50,,,,,,,,,,,og-post,,,,AAXX 21214 07558 36/// /0504 10089 20088 39241 40071 51013=
07558,1999-10-21 22:00:00,8.2,1007.5,1,100,8.2,,3.704,,,20,,,,,,,,,,,og-post,,,,AAXX 21224 07558 36/// /0202 10082 20082 39242 40075 51010=
07558,1999-10-21 23:00:00,7.9,1007.8,0.4,100,7.9,,11.112,,,20,,,0.2,,,,,,,,og-post,,,,AAXX 21234 07558 26/// /0206 10079 20079 39244 40078 53004 333 69925=
07558,1999-10-22 00:00:00,8,1007.9,0.4,100,8,,11.112,,,30,,,,0.2,0.2,,,,,,og-post,,,,AAXX 22004 07558 /6/// /0306 10080 20080 39245 40079 52004 69921 333 69927=
07558,1999-10-22 01:00:00,7.6,1006.8,-0.8,100,7.6,,18.52,,,30,,,,,,,,,,,og-post,,,,AAXX 22014 07558 36/// /0310 10076 20076 39234 40068 58008=
07558,1999-10-22 02:00:00,7.5,1005.8,-1.9,100,7.5,,7.408,,,20,,,,,,,,,,,og-post,,,,AAXX 22024 07558 36/// /0204 10075 20075 39225 40058 58019=
07558,1999-10-22 03:00:00,8.2,1005.6,-2,97,7.8,,3.704,,,20,,,,,,,,,,,og-post,,,,AAXX 22034 07558 36/// /0202 10082 20078 39225 40056 56020=
07558,1999-10-22 04:00:00,9.5,1005.8,-0.4,92,8.3,25000,22.224,,,140,,,,,,,,,,,og-post,,,,AAXX 22044 07558 32575 31412 10095 20083 39230 40058 55004 82501 333 82630 83075=
07558,1999-10-22 05:00:00,9.1,1005.9,0.5,96,8.5,25000,18.52,,,140,,,,,,,,,,,og-post,,,,AAXX 22054 07558 32575 51410 10091 20085 39230 40059 52005 84501 333 84630 84075=
07558,1999-10-22 06:00:00,10,1005.3,0.2,93,8.9,25000,14.816,,,110,7.3,10.2,,,,0.2,0.6,1,6,,og-post,,,,AAXX 22064 07558 12575 71108 10100 20089 39227 40053 50002 69922 875// 333 10102 20073 30006 55010 70006 87630=
07558,1999-10-22 07:00:00,10.5,1003.9,-1.4,92,9.3,25000,18.52,,,90,,,,,,,,,,,og-post,,,,AAXX 22074 07558 32575 70910 10105 20093 39216 40039 58014 875// 333 87630=
07558,1999-10-22 08:00:00,11.6,1004,-1,95,10.8,20000,29.632,,,120,,,,,,,,,,,og-post,,,,AAXX 22084 07558 32570 71216 10116 20108 39220 40040 55010 875// 333 87626=
07558,1999-10-22 09:00:00,12.7,1003.1,-1.2,93,11.6,20000,42.596,64.82,64.82,120,,,,,,,,,,,og-post,,,,AAXX 22094 07558 32570 71223 10127 20116 39215 40031 56012 875// 333 87626 91035 91135=
07558,1999-10-22 10:00:00,13,1003.8,0.6,90,11.4,20000,35.188,68.524,57.412,120,,,,,,,,,,,og-post,,,,AAXX 22104 07558 32570 71219 10130 20114 39222 40038 53006 872// 333 87826 91031 91137=
07558,1999-10-22 11:00:00,13.3,1004.1,0.6,91,11.9,20000,29.632,57.412,57.412,130,,,,,,,,,,,og-post,,,,AAXX 22114 07558 32570 71316 10133 20119 39226 40041 53006 872// 333 87826 91031 91131=
07558,1999-10-22 12:00:00,13.7,1003.3,0.5,90,12.1,20000,22.224,68.524,,130,,,,,,,,,,,og-post,,,,AAXX 22124 07558 32570 71312 10137 20121 39220 40033 50005 872// 333 87826 91137=
07558,1999-10-22 13:00:00,14.7,1002.5,-0.7,86,12.4,20000,35.188,64.82,64.82,120,,,,,,,,,,,og-post,,,,AAXX 22134 07558 32570 71219 10147 20124 39215 40025 58007 86231 333 86826 83360 91035 91135=
07558,1999-10-22 14:00:00,15,1001.2,-2.2,85,12.5,20000,35.188,72.228,61.116,120,,,,,,,,,,,og-post,,,,AAXX 22144 07558 32570 71219 10150 20125 39204 40012 58022 86232 333 86826 83360 85075 91033 91139=
07558,1999-10-22 15:00:00,15.2,1000.6,-2.1,87,13.1,20000,38.892,72.228,61.116,110,,,,,,,,,,,og-post,,,,AAXX 22154 07558 32570 71121 10152 20131 39199 40006 57021 86232 333 86826 83360 85075 91033 91139=
07558,1999-10-22 16:00:00,15.1,1001,-1.2,89,13.3,,29.632,68.524,,130,,,,,,,,,,,og-post,,,,AAXX 22164 07558 36/// /1316 10151 20133 39203 40010 55012 333 91137=
07558,1999-10-22 17:00:00,15.1,1000.9,-0.2,88,13.1,,29.632,,57.412,120,,,,,,,,,,,og-post,,,,AAXX 22174 07558 36/// /1216 10151 20131 39202 40009 56002 333 91031=
07558,1999-10-22 18:00:00,15,1001.8,1.1,89,13.2,,14.816,72.228,,140,9.8,15.3,,,,,,,,,og-post,,,,AAXX 22184 07558 36/// /1408 10150 20132 39210 40018 53011 333 10153 20098 91139=
07558,1999-10-22 19:00:00,14.7,1002.1,0.9,93,13.6,,25.928,,,160,,,,,,,,,,,og-post,,,,AAXX 22194 07558 36/// /1614 10147 20136 39212 40021 53009=
07558,1999-10-22 20:00:00,14.3,1002.1,0.9,95,13.5,,14.816,,,160,,,,,,,,,,,og-post,,,,AAXX 22204 07558 36/// /1608 10143 20135 39211 40021 50009=
07558,1999-10-22 21:00:00,14.2,1002.3,0.3,97,13.7,,11.112,,,180,,,,,,,,,,,og-post,,,,AAXX 22214 07558 36/// /1806 10142 20137 39213 40023 52003=
07558,1999-10-22 22:00:00,14.1,1002.2,-0.1,97,13.6,,11.112,,,140,,,,,,,,,,,og-post,,,,AAXX 22224 07558 36/// /1406 10141 20136 39211 40022 58001=
07558,1999-10-22 23:00:00,13.9,1002,-0.2,93,12.8,,11.112,,,110,,,,,,,,,,,og-post,,,,AAXX 22234 07558 36/// /1106 10139 20128 39209 40020 58002=
07558,1999-10-23 00:00:00,13.4,1002.2,-0.4,92,12.1,,3.704,,,50,,,,,,,,,,,og-post,,,,AAXX 23004 07558 36/// /0502 10134 20121 39209 40022 56004=
07558,1999-10-23 01:00:00,12.2,1002.9,0.1,89,10.4,,11.112,,,20,,,,,,,,,,,og-post,,,,AAXX 23014 07558 36/// /0206 10122 20104 39212 40029 53001=
07558,1999-10-23 02:00:00,11,1004.1,1,83,8.2,,18.52,,,350,,,0.2,,,,,,,,og-post,,,,AAXX 23024 07558 26/// /3510 10110 20082 39219 40041 53010 333 69925=
07558,1999-10-23 03:00:00,11.1,1003.8,0.7,74,6.6,,22.224,,,320,,,,0.2,,,,,,,og-post,,,,AAXX 23034 07558 26/// /3212 10111 20066 39216 40038 50007 333 69927=
07558,1999-10-23 04:00:00,9.6,1003.8,0,83,6.9,25000,14.816,,,350,,,,,,,,,,,og-post,,,,AAXX 23044 07558 32575 23508 10096 20069 39212 40038 50000 81902 333 81926=
07558,1999-10-23 05:00:00,9.7,1004,-0.5,78,6.1,25000,18.52,,,350,,,,,,,,,,,og-post,,,,AAXX 23054 07558 32575 23510 10097 20061 39214 40040 55005 81902 333 81926=
07558,1999-10-23 06:00:00,10.1,1004.5,0.4,75,5.9,40000,18.52,,,350,9.2,15,,,,0.2,0.2,,7,2,og-post,,,,AAXX 23064 07558 11582 23510 10101 20059 39220 40045 53004 69922 70286 81902 333 10150 20092 31007 55000 70002 81926=
07558,1999-10-23 09:00:00,13.6,1006,2.3,64,6.9,30000,7.408,,,350,,,,,,,,,,,og-post,,,,AAXX 23094 07558 32580 53504 10136 20069 39243 40060 53023 81532 333 81626 83360=
07558,1999-10-23 10:00:00,15.2,1005.8,1.8,57,6.7,,22.224,,,290,,,,,,,,,,,og-post,,,,AAXX 23104 07558 32/// /2912 10152 20067 39246 40058 51018=
07558,1999-10-23 11:00:00,14.9,1006.3,1.5,55,5.9,,29.632,,,270,,,,,,,,,,,og-post,,,,AAXX 23114 07558 36/// /2716 10149 20059 39249 40063 51015=
07558,1999-10-23 12:00:00,15.4,1005.7,0.2,55,6.4,,25.928,50.004,,290,,,,,,,,,,,og-post,,,,AAXX 23124 07558 36/// /2914 10154 20064 39245 40057 50002 333 91127=
07558,1999-10-23 14:00:00,17.4,1003.9,-1.5,46,5.7,,7.408,,,290,,,,,,,,,,,og-post,,,,AAXX 23144 07558 36/// /2904 10174 20057 39234 40039 56015=
07558,1999-10-23 15:00:00,17.1,1004,-1.1,47,5.7,,14.816,,,220,,,,,,,,,,,og-post,,,,AAXX 23154 07558 36/// /2208 10171 20057 39234 40040 56011=
07558,1999-10-23 16:00:00,15.8,1004.4,-0.3,55,6.8,,11.112,,,190,,,,,,,,,,,og-post,,,,AAXX 23164 07558 36/// /1906 10158 20068 39234 40044 56003=
07558,1999-10-23 17:00:00,13.1,1005,-0.1,69,7.5,,14.816,,,150,,,,,,,,,,,og-post,,,,AAXX 23174 07558 36/// /1508 10131 20075 39233 40050 58001=
07558,1999-10-23 18:00:00,12.4,1005.2,-0.1,75,8.1,,11.112,,,150,9,17.9,,,,,,,,,og-post,,,,AAXX 23184 07558 36/// /1506 10124 20081 39233 40052 57001 333 10179 20090=
07558,1999-10-23 19:00:00,11.6,1005.1,-0.4,79,8.1,,18.52,,,130,,,,,,,,,,,og-post,,,,AAXX 23194 07558 36/// /1310 10116 20081 39230 40051 58004=
07558,1999-10-23 20:00:00,11,1004.4,-1.2,76,6.9,,18.52,,,110,,,,,,,,,,,og-post,,,,AAXX 23204 07558 36/// /1110 10110 20069 39221 40044 58012=
07558,1999-10-23 21:00:00,11.9,1003,-2.2,68,6.2,,29.632,,50.004,120,,,,,,,,,,,og-post,,,,AAXX 23214 07558 36/// /1216 10119 20062 39211 40030 58022 333 91027=
07558,1999-10-23 22:00:00,12.2,1002.9,-1.9,65,5.8,,18.52,,,150,,,,,,,,,,,og-post,,,,AAXX 23224 07558 36/// /1510 10122 20058 39211 40029 56019=
07558,1999-10-23 23:00:00,12.4,1001.8,-2,64,5.8,,29.632,,53.708,120,,,,,,,,,,,og-post,,,,AAXX 23234 07558 36/// /1216 10124 20058 39201 40018 57020 333 91029=
07558,1999-10-24 00:00:00,12.4,1000.1,-2.5,71,7.3,,29.632,,,120,,,,,,,,,,,og-post,,,,AAXX 24004 07558 36/// /1216 10124 20073 39186 40001 58025=
07558,1999-10-24 01:00:00,12,1000.4,-2.3,81,8.8,,25.928,,,120,,,,,,,,,,,og-post,,,,AAXX 24014 07558 36/// /1214 10120 20088 39188 40004 55023=
07558,1999-10-24 02:00:00,11.7,999.6,-2.1,86,9.4,,22.224,,,110,,,,,,,,,,,og-post,,,,AAXX 24024 07558 36/// /1112 10117 20094 39180 49996 56021=
07558,1999-10-24 03:00:00,11.9,998.8,-1.3,80,8.6,,22.224,,,120,,,,0.4,,,,,,,og-post,,,,AAXX 24034 07558 26/// /1212 10119 20086 39173 49988 58013 333 69947=
07558,1999-10-24 04:00:00,12.8,997.8,-2.2,80,9.4,10000,38.892,61.116,61.116,120,,,,,,,,,,,og-post,,,,AAXX 24044 07558 32360 71221 10128 20094 39166 49978 56022 875// 333 83608 87616 91033 91133=
07558,1999-10-24 05:00:00,13.1,998.5,-0.6,80,9.7,10000,18.52,61.116,,140,,,,,,,,,,60,og-post,,,,AAXX 24054 07558 21360 71410 10131 20097 39174 49985 55006 76062 875// 333 69905 83606 87615 91133=
07558,1999-10-24 06:00:00,12.3,999,0.3,89,10.5,8000,11.112,61.116,,120,10.9,13.2,,0.4,,0.8,0.8,8.5,10,60,og-post,,,,AAXX 24064 07558 /1358 71206 10123 20105 39176 49990 53003 69982 76086 875// 333 10132 20109 32010 55085 69947 70008 83606 87613 91133=
07558,1999-10-24 07:00:00,12.1,996.7,-1.1,95,11.3,10000,31.484,,,120,,,0.2,,,,,,,60,og-post,,,,AAXX 24074 07558 21360 71217 10121 20113 39155 49967 58011 76066 875// 333 69925 83608 87620=
07558,1999-10-24 08:00:00,13.8,996.2,-1.9,82,10.8,12000,38.892,61.116,61.116,130,,,,,,,,,,21,og-post,,,,AAXX 24084 07558 21462 71321 10138 20108 39155 49962 58019 72162 8557/ 333 69905 83610 83630 87360 91033 91133=
07558,1999-10-24 09:00:00,13.9,996.4,-1.9,86,11.6,15000,22.224,61.116,,140,,,,0.2,,,,,,3,og-post,,,,AAXX 24094 07558 21465 71412 10139 20116 39157 49964 55019 70362 8657/ 333 69927 83610 84626 87360 91133=
07558,1999-10-24 10:00:00,14.1,996.3,0.2,85,11.6,15000,22.224,53.708,,150,,,,,,,,,,,og-post,,,,AAXX 24104 07558 32465 71512 10141 20116 39157 49963 52002 875// 333 83610 86623 91129=
07558,1999-10-24 11:00:00,14.9,995.7,-0.2,83,12,,18.52,,,130,,,,,,,,,,,og-post,,,,AAXX 24114 07558 36/// /1310 10149 20120 39153 49957 58002=
07558,1999-10-24 12:00:00,16.2,995.2,-0.5,,,,14.816,61.116,,140,,,,,0.2,,,,,,og-post,,,,AAXX 24124 07558 16/// /1408 10162 0124 39152 49952 58005 69921 333 91133=
07558,1999-10-24 13:00:00,16.2,995.3,-0.4,80,12.7,,,,,,,,,,,,,,,,og-post,,,,AAXX 24134 07558 36/// /0000 10162 20127 39153 49953 55004=
07558,1999-10-24 14:00:00,14.7,995.4,-0.3,75,10.3,,18.52,,,340,,,,,,,,,,,og-post,,,,AAXX 24144 07558 36/// /3410 10147 20103 39150 49954 58003=
07558,1999-10-24 15:00:00,14.5,995.6,-0.1,76,10.3,,14.816,,,350,,,,,,,,,,,og-post,,,,AAXX 24154 07558 36/// /3508 10145 20103 39151 49956 57001=
07558,1999-10-24 16:00:00,13.8,996,-0,81,10.6,,7.408,,,30,,,,,,,,,,,og-post,,,,AAXX 24164 07558 36/// /0304 10138 20106 39153 49960 55000=
07558,1999-10-24 17:00:00,13.2,995.6,-0.3,75,8.9,,7.408,,,60,,,,,,,,,,,og-post,,,,AAXX 24174 07558 36/// /0604 10132 20089 39147 49956 58003=
07558,1999-10-24 18:00:00,12.4,996.4,0.1,81,9.2,,11.112,,,50,11.9,16.9,,,,0.2,,,,,og-post,,,,AAXX 24184 07558 16/// /0506 10124 20092 39152 49964 53001 69922 333 10169 20119=
07558,1999-10-24 19:00:00,13.2,996.7,0.4,70,7.9,,3.704,,,80,,,,,,,,,,,og-post,,,,AAXX 24194 07558 36/// /0802 10132 20079 39157 49967 53004=
07558,1999-10-24 20:00:00,13.5,996.6,1.1,86,11.2,,14.816,,,130,,,,,,,,,,,og-post,,,,AAXX 24204 07558 36/// /1308 10135 20112 39158 49966 51011=
07558,1999-10-24 21:00:00,12.4,997.1,0.7,91,11,,3.704,,,30,,,,,,,,,,,og-post,,,,AAXX 24214 07558 36/// /0302 10124 20110 39159 49971 51007=
07558,1999-10-24 22:00:00,11.7,998.1,0.9,91,10.3,,7.408,,,140,,,,,,,,,,,og-post,,,,AAXX 24224 07558 36/// /1404 10117 20103 39166 49981 53009=
07558,1999-10-24 23:00:00,11.9,997.9,0.7,94,11,,18.52,,,110,,,,,,,,,,,og-post,,,,AAXX 24234 07558 36/// /1110 10119 20110 39165 49979 50007=
07558,1999-10-25 00:00:00,11.8,998.2,0.9,93,10.7,,11.112,,,100,,,,,,,,,,,og-post,,,,AAXX 25004 07558 36/// /1006 10118 20107 39168 49982 51009=
07558,1999-10-25 01:00:00,12.1,998,0.1,92,10.8,,18.52,,,110,,,,,,,,,,,og-post,,,,AAXX 25014 07558 36/// /1110 10121 20108 39167 49980 52001=
07558,1999-10-25 02:00:00,12.7,997.9,0.2,89,10.9,,11.112,,,120,,,,,,,,,,,og-post,,,,AAXX 25024 07558 36/// /1206 10127 20109 39167 49979 51002=
07558,1999-10-25 03:00:00,12.4,997.7,-0.3,91,11,,11.112,,,110,,,,,,,,,,,og-post,,,,AAXX 25034 07558 36/// /1106 10124 20110 39165 49977 58003=
07558,1999-10-25 04:00:00,11.9,998.5,0.4,94,11,20000,18.52,,,120,,,,,,,,,,,og-post,,,,AAXX 25044 07558 32570 51210 10119 20110 39171 49985 53004 85530 333 85630=
07558,1999-10-25 05:00:00,11.7,999,0.8,95,10.9,20000,7.408,,,130,,,0.2,,,,,,,,og-post,,,,AAXX 25054 07558 22570 51304 10117 20109 39175 49990 53008 85530 333 69925 85630=
07558,1999-10-25 06:00:00,11.8,999.7,1.6,95,11,20000,,,,,11.5,13.6,,0.2,,0.2,0.4,0.6,9,2,og-post,,,,AAXX 25064 07558 /1570 60000 10118 20110 39181 49997 52016 69922 70262 86530 333 10136 20115 31009 55006 69927 70004 83623 85630=
07558,1999-10-25 07:00:00,11,1000.9,1.9,86,8.8,20000,18.52,,,310,,,0.4,,,,,,,81,og-post,,,,AAXX 25074 07558 21570 63110 10110 20088 39190 40009 53019 78186 85930 333 69945 82923 84830=
07558,1999-10-25 08:00:00,10.8,1002.7,3,70,5.6,40000,14.816,,,310,,,,,,,,,,25,og-post,,,,AAXX 25084 07558 21582 33108 10108 20056 39205 40027 53030 72586 82230 333 69905 82830=
07558,1999-10-25 09:00:00,12.6,1003.3,3.4,64,6,40000,3.704,,,350,,,,0.4,,,,,,1,og-post,,,,AAXX 25094 07558 21582 23502 10126 20060 39215 40033 53034 70186 81131 333 69947 81830=
07558,1999-10-25 10:00:00,13.5,1004,3.4,55,4.6,40000,3.704,,,360,,,,,,,,,,,og-post,,,,AAXX 25104 07558 32582 13602 10135 20046 39224 40040 51034 81101 333 81830=
07558,1999-10-25 11:00:00,15.8,1003.4,2,50,5.4,40000,7.408,,,220,,,,,,,,,,,og-post,,,,AAXX 25114 07558 32582 12204 10158 20054 39225 40034 51020 81101 333 81830=
07558,1999-10-25 12:00:00,15.6,1003.7,1.2,46,4,40000,7.408,,,310,,,,,0.4,,,,,2,og-post,,,,AAXX 25124 07558 11582 13104 10156 20040 39227 40037 51012 69941 70286 81101 333 81830=
07558,1999-10-25 13:00:00,16,1003.7,0.4,47,4.7,40000,7.408,,,330,,,,,,,,,,,og-post,,,,AAXX 25134 07558 32582 23304 10160 20047 39228 40037 52004 81101 333 81830=
07558,1999-10-25 14:00:00,16.9,1004,0.8,46,5.2,40000,7.408,,,110,,,,,,,,,,,og-post,,,,AAXX 25144 07558 32582 11104 10169 20052 39233 40040 53008 81101 333 81830=
07558,1999-10-25 17:00:00,14,1006.3,1.4,55,5.1,,3.704,,,260,,,,,,,,,,,og-post,,,,AAXX 25174 07558 36/// /2602 10140 20051 39247 40063 53014=
07558,1999-10-25 18:00:00,13.3,1007.6,2,56,4.7,,3.704,,,20,10.3,17.2,,,,0.4,,,,,og-post,,,,AAXX 25184 07558 16/// /0202 10133 20047 39257 40076 53020 69942 333 10172 20103=
07558,1999-10-25 21:00:00,10.9,1011,2.4,71,5.9,,7.408,,,30,,,,,,,,,,,og-post,,,,AAXX 25214 07558 36/// /0304 10109 20059 39281 40110 53024=
07558,1999-10-25 23:00:00,9.8,1012.7,2.2,83,7.1,,3.704,,,30,,,,,,,,,,,og-post,,,,AAXX 25234 07558 36/// /0302 10098 20071 39294 40127 51022=
07558,1999-10-26 00:00:00,9.8,1013,1.6,82,6.9,,7.408,,,10,,,,,,,,,,,og-post,,,,AAXX 26004 07558 36/// /0104 10098 20069 39297 40130 51016=
07558,1999-10-26 02:00:00,9.3,1014.1,1.2,88,7.4,,11.112,,,360,,,0.2,,,,,,,,og-post,,,,AAXX 26024 07558 26/// /3606 10093 20074 39306 40141 53012 333 69925=
07558,1999-10-26 03:00:00,8.7,1014.4,1,91,7.3,,11.112,,,20,,,,0.2,,,,,,,og-post,,,,AAXX 26034 07558 26/// /0206 10087 20073 39307 40144 51010 333 69927=
07558,1999-10-26 06:00:00,8.6,1016.3,1.7,91,7.2,30000,7.408,,,360,8.4,13.3,,,,0.2,0.6,9.1,5,,og-post,,,,AAXX 26064 07558 12980 23604 10086 20072 39324 40163 53017 69922 80001 333 10133 20084 31005 55091 70006 82075=
07558,1999-10-26 07:00:00,8.4,1017.1,1.9,92,7.2,30000,11.112,,,20,,,,,,,,,,,og-post,,,,AAXX 26074 07558 32980 20206 10084 20072 39331 40171 53019 81032 333 81360=
07558,1999-10-26 08:00:00,9.7,1017,1.9,89,8,30000,14.816,,,20,,,,,,,,,,,og-post,,,,AAXX 26084 07558 32980 30208 10097 20080 39334 40170 51019 80001 333 83075=
07558,1999-10-26 09:00:00,11.4,1017.8,2.2,83,8.6,30000,7.408,,,350,,,,,,,,,,,og-post,,,,AAXX 26094 07558 32980 33504 10114 20086 39346 40178 53022 80001 333 83075=
07558,1999-10-26 10:00:00,13.7,1017.8,2.1,75,9.4,30000,7.408,,,20,,,,,,,,,,,og-post,,,,AAXX 26104 07558 32980 30204 10137 20094 39352 40178 53021 80001 333 83075=
07558,1999-10-26 11:00:00,15.4,1017.7,2.2,63,8.4,30000,7.408,,,150,,,,,,,,,,,og-post,,,,AAXX 26114 07558 32680 31504 10154 20084 39356 40177 51022 81101 333 81833 83075=
07558,1999-10-26 12:00:00,16.3,1017.4,1,60,8.5,30000,7.408,,,130,,,,,,,,,,,og-post,,,,AAXX 26124 07558 32680 41304 10163 20085 39356 40174 51010 81101 333 81833 84075=
07558,1999-10-26 13:00:00,15.4,1017.7,0.4,61,7.9,30000,11.112,,,140,,,,,,,,,,,og-post,,,,AAXX 26134 07558 32680 51406 10154 20079 39356 40177 51004 81102 333 81833 85075=
07558,1999-10-26 14:00:00,15.1,1017.9,0.1,66,8.8,30000,11.112,,,160,,,,,,,,,,,og-post,,,,AAXX 26144 07558 32680 51606 10151 20088 39357 40179 53001 81102 333 81833 85075=
07558,1999-10-26 15:00:00,15.2,1018,0.2,67,9.1,30000,11.112,,,150,,,,,,,,,,,og-post,,,,AAXX 26154 07558 32680 51506 10152 20091 39358 40180 53002 81102 333 81833 85075=
07558,1999-10-26 16:00:00,15.2,1018.5,0.7,65,8.7,,7.408,,,150,,,,,,,,,,,og-post,,,,AAXX 26164 07558 36/// /1504 10152 20087 39363 40185 53007=
07558,1999-10-26 17:00:00,13.1,1020.1,1.5,74,8.6,,11.112,,,140,,,,,,,,,,,og-post,,,,AAXX 26174 07558 36/// /1406 10131 20086 39372 40201 53015=
07558,1999-10-26 18:00:00,12.5,1021.2,2.2,77,8.6,,7.408,,,160,8.2,16.4,,,,,,,,,og-post,,,,AAXX 26184 07558 36/// /1604 10125 20086 39380 40212 53022 333 10164 20082=
07558,1999-10-26 19:00:00,12,1022,2.3,83,9.2,,3.704,,,110,,,,,,,,,,,og-post,,,,AAXX 26194 07558 36/// /1102 10120 20092 39386 40220 51023=
07558,1999-10-26 20:00:00,11.8,1022.5,1.8,82,8.8,,7.408,,,80,,,,,,,,,,,og-post,,,,AAXX 26204 07558 36/// /0804 10118 20088 39390 40225 51018=
07558,1999-10-26 21:00:00,10.9,1023.2,1.4,85,8.5,,14.816,,,30,,,,,,,,,,,og-post,,,,AAXX 26214 07558 36/// /0308 10109 20085 39394 40232 51014=
07558,1999-10-26 22:00:00,10.8,1023.8,1.3,85,8.4,,11.112,,,20,,,,,,,,,,,og-post,,,,AAXX 26224 07558 36/// /0206 10108 20084 39399 40238 53013=
07558,1999-10-26 23:00:00,9.8,1024.4,1.2,89,8.1,,11.112,,,40,,,,,,,,,,,og-post,,,,AAXX 26234 07558 36/// /0406 10098 20081 39402 40244 51012=
07558,1999-10-27 00:00:00,9.9,1024.5,0.9,86,7.7,,11.112,,,20,,,,,,,,,,,og-post,,,,AAXX 27004 07558 36/// /0206 10099 20077 39403 40245 51009=
07558,1999-10-27 01:00:00,8.9,1024.8,0.4,88,7,,3.704,,,70,,,,,,,,,,,og-post,,,,AAXX 27014 07558 36/// /0702 10089 20070 39403 40248 51004=
07558,1999-10-27 02:00:00,9.2,1025.4,0.7,84,6.6,,3.704,,,20,,,,,,,,,,,og-post,,,,AAXX 27024 07558 36/// /0202 10092 20066 39409 40254 53007=
07558,1999-10-27 03:00:00,8.7,1025.7,0.7,84,6.2,,7.408,,,30,,,,,,,,,,,og-post,,,,AAXX 27034 07558 36/// /0304 10087 20062 39410 40257 53007=
07558,1999-10-27 04:00:00,8.7,1026.2,1.2,84,6.2,30000,11.112,,,20,,,0.2,,,,,,,,og-post,,,,AAXX 27044 07558 22980 10206 10087 20062 39415 40262 51012 80001 333 69925 81075=
07558,1999-10-27 05:00:00,8.7,1026.7,1,81,5.6,30000,7.408,,,10,,,,,,,,,,,og-post,,,,AAXX 27054 07558 32980 10104 10087 20056 39419 40267 53010 80001 333 81075=
07558,1999-10-27 06:00:00,9,1026.6,0.9,76,5,,11.112,,,20,8.3,12.4,,0.2,,0.2,,6.1,6,,og-post,,,,AAXX 27064 07558 /6/// /0206 10090 20050 39419 40266 51009 69922 333 10124 20083 3/006 55061 69927 70002=
07558,1999-10-27 07:00:00,8.9,1027.3,1,76,4.9,,14.816,,,20,,,,,,,,,,,og-post,,,,AAXX 27074 07558 36/// /0208 10089 20049 39425 40273 53010=
07558,1999-10-27 08:00:00,9.9,1028,1.6,76,5.9,30000,7.408,,,70,,,,,,,,,,,og-post,,,,AAXX 27084 07558 32980 20704 10099 20059 39435 40280 53016 80001 333 82075=
07558,1999-10-27 09:00:00,11.2,1027.6,1.6,69,5.7,30000,11.112,,,10,,,,,,,,,,,og-post,,,,AAXX 27094 07558 32980 20106 10112 20057 39435 40276 51016 80001 333 82075=
07558,1999-10-27 10:00:00,14.1,1027.2,1.4,60,6.5,30000,3.704,,,360,,,,,,,,,,,og-post,,,,AAXX 27104 07558 32980 43602 10141 20065 39439 40272 51014 81031 333 81360 84075=
07558,1999-10-27 11:00:00,16.6,1026.4,0.4,55,7.5,30000,3.704,,,360,,,,,,,,,,,og-post,,,,AAXX 27114 07558 32980 43602 10166 20075 39439 40264 52004 81031 333 81360 84075=
07558,1999-10-27 12:00:00,19.3,1025.1,-0.1,47,7.7,30000,3.704,,,120,,,,,,,,,,,og-post,,,,AAXX 27124 07558 32980 31202 10193 20077 39434 40251 58001 81031 333 81360 83075=
07558,1999-10-27 13:00:00,20.5,1024,-1.2,45,8.2,30000,3.704,,,60,,,,,,,,,,,og-post,,,,AAXX 27134 07558 32980 30602 10205 20082 39427 40240 58012 81031 333 81360 83075=
07558,1999-10-27 14:00:00,19.3,1023.6,-1.8,54,9.8,30000,7.408,,,30,,,,,,,,,,,og-post,,,,AAXX 27144 07558 32980 40304 10193 20098 39421 40236 58018 82031 333 82360 84075=
07558,1999-10-27 15:00:00,20.5,1023.6,-1,51,10,30000,3.704,,,80,,,,,,,,,,,og-post,,,,AAXX 27154 07558 32980 40802 10205 20100 39424 40236 55010 82031 333 82360 84075=
07558,1999-10-27 16:00:00,19.2,1024.2,-0.1,55,9.9,,11.112,,,130,,,,,,,,,,,og-post,,,,AAXX 27164 07558 36/// /1306 10192 20099 39426 40242 55001=
07558,1999-10-27 17:00:00,15.9,1025.4,0.7,66,9.6,,14.816,,,120,,,,,,,,,,,og-post,,,,AAXX 27174 07558 36/// /1208 10159 20096 39428 40254 51007=
07558,1999-10-27 18:00:00,16,1025.9,0.9,62,8.7,,11.112,,,100,8.2,21,,,,,,,,,og-post,,,,AAXX 27184 07558 36/// /1006 10160 20087 39433 40259 53009 333 10210 20082=
07558,1999-10-27 19:00:00,15.3,1026.3,0.9,65,8.8,,11.112,,,120,,,,,,,,,,,og-post,,,,AAXX 27194 07558 36/// /1206 10153 20088 39435 40263 52009=
07558,1999-10-27 20:00:00,15.4,1026.4,0.8,62,8.2,,3.704,,,320,,,,,,,,,,,og-post,,,,AAXX 27204 07558 36/// /3202 10154 20082 39436 40264 51008=
07558,1999-10-27 21:00:00,14.9,1026.8,0.5,65,8.4,,3.704,,,360,,,,,,,,,,,og-post,,,,AAXX 27214 07558 36/// /3602 10149 20084 39438 40268 52005=
07558,1999-10-27 22:00:00,15.5,1026.3,0,59,7.5,,7.408,,,70,,,,,,,,,,,og-post,,,,AAXX 27224 07558 36/// /0704 10155 20075 39435 40263 50000=
07558,1999-10-27 23:00:00,15.9,1026,-0.3,54,6.6,,7.408,,,130,,,,,,,,,,,og-post,,,,AAXX 27234 07558 36/// /1304 10159 20066 39433 40260 58003=
07558,1999-10-28 00:00:00,15.5,1026,-0.6,54,6.2,,11.112,,,100,,,,,,,,,,,og-post,,,,AAXX 28004 07558 36/// /1006 10155 20062 39432 40260 56006=
07558,1999-10-28 01:00:00,14.5,1026,-0.6,61,7.1,,7.408,,,60,,,,,,,,,,,og-post,,,,AAXX 28014 07558 36/// /0604 10145 20071 39429 40260 58006=
07558,1999-10-28 02:00:00,15.2,1025.7,-0.5,57,6.7,,7.408,,,60,,,,,,,,,,,og-post,,,,AAXX 28024 07558 36/// /0604 10152 20067 39428 40257 57005=
07558,1999-10-28 03:00:00,14.8,1025.6,-0.6,58,6.6,,7.408,,,30,,,,,,,,,,,og-post,,,,AAXX 28034 07558 36/// /0304 10148 20066 39426 40256 56006=
07558,1999-10-28 04:00:00,13.9,1025.8,-0.3,64,7.2,10000,14.816,,,20,,,,,,,,,,,og-post,,,,AAXX 28044 07558 32960 20208 10139 20072 39426 40258 56003 80001 333 82073=
07558,1999-10-28 05:00:00,14.7,1026.1,0.3,60,7,10000,3.704,,,350,,,,,,,,,,,og-post,,,,AAXX 28054 07558 32960 23502 10147 20070 39431 40261 53003 80001 333 82073=
07558,1999-10-28 06:00:00,14.4,1026.3,0.6,60,6.7,10000,3.704,,,120,13.4,16,,,,,0,9.3,10,,og-post,,,,AAXX 28064 07558 32960 21202 10144 20067 39432 40263 53006 80001 333 10160 20134 30010 55093 70000 82073=
07558,1999-10-28 07:00:00,14,1027.4,1.5,57,5.6,20000,3.704,,,110,,,,,,,,,,,og-post,,,,AAXX 28074 07558 32970 21102 10140 20056 39441 40274 53015 80001 333 82073=
07558,1999-10-28 08:00:00,12.7,1028.2,1.4,71,7.6,20000,11.112,,,30,,,,,,,,,,,og-post,,,,AAXX 28084 07558 32970 40306 10127 20076 39445 40282 53014 80002 333 84073=
07558,1999-10-28 09:00:00,13.7,1027.9,1.3,64,7,15000,7.408,,,360,,,,,,,,,,,og-post,,,,AAXX 28094 07558 32965 63604 10137 20070 39445 40279 51013 80002 333 86073=
07558,1999-10-28 10:00:00,15.2,1027.5,0.4,64,8.4,15000,7.408,,,340,,,,,,,,,,,og-post,,,,AAXX 28104 07558 32965 73404 10152 20084 39445 40275 51004 80002 333 87073=
07558,1999-10-28 11:00:00,16.4,1026.5,-0.5,62,9.1,15000,3.704,,,30,,,,,,,,,,,og-post,,,,AAXX 28114 07558 32965 70302 10164 20091 39440 40265 58005 80002 333 87073=
07558,1999-10-28 12:00:00,17.5,1026,-0.7,57,8.9,15000,3.704,,,280,,,,,,,,,,,og-post,,,,AAXX 28124 07558 32965 72802 10175 20089 39438 40260 58007 80002 333 87073=
07558,1999-10-28 13:00:00,18.4,1025.5,-0.9,61,10.7,15000,,,,,,,,,,,,,,,og-post,,,,AAXX 28134 07558 32965 70000 10184 20107 39436 40255 56009 80002 333 87073=
07558,1999-10-28 14:00:00,17.8,1024.9,-1,74,13.1,15000,,,,,,,,,,,,,,,og-post,,,,AAXX 28144 07558 32965 70000 10178 20131 39430 40249 58010 80002 333 87073=
07558,1999-10-28 15:00:00,17.2,1024.9,-1,68,11.2,15000,3.704,,,10,,,,,,,,,,,og-post,,,,AAXX 28154 07558 32965 70102 10172 20112 39428 40249 57010 80002 333 87073=
07558,1999-10-28 16:00:00,16.8,1024.9,-1,65,10.2,,11.112,,,130,,,,,,,,,,,og-post,,,,AAXX 28164 07558 36/// /1306 10168 20102 39426 40249 56010=
07558,1999-10-28 17:00:00,15.9,1025.4,-0.2,65,9.3,,7.408,,,130,,,,,,,,,,,og-post,,,,AAXX 28174 07558 36/// /1304 10159 20093 39428 40254 55002=
07558,1999-10-28 19:00:00,15.2,1026.4,0.9,66,8.9,,3.704,,,360,,,,,,,,,,,og-post,,,,AAXX 28194 07558 36/// /3602 10152 20089 39435 40264 53009=
07558,1999-10-28 20:00:00,15.2,1026.1,0.5,66,8.9,,7.408,,,80,,,,,,,,,,,og-post,,,,AAXX 28204 07558 36/// /0804 10152 20089 39433 40261 50005=
07558,1999-10-28 21:00:00,14.7,1026.5,0.3,68,8.9,,3.704,,,60,,,,,,,,,,,og-post,,,,AAXX 28214 07558 36/// /0602 10147 20089 39435 40265 51003=
07558,1999-10-28 22:00:00,13.8,1026.9,0.1,75,9.4,,7.408,,,40,,,,,,,,,,,og-post,,,,AAXX 28224 07558 36/// /0404 10138 20094 39436 40269 53001=
07558,1999-10-28 23:00:00,13.9,1026.6,0.1,72,8.9,,11.112,,,20,,,,,,,,,,,og-post,,,,AAXX 28234 07558 36/// /0206 10139 20089 39434 40266 50001=
07558,1999-10-29 00:00:00,13.9,1026.2,-0.5,70,8.5,,3.704,,,70,,,,,,,,,,,og-post,,,,AAXX 29004 07558 36/// /0702 10139 20085 39430 40262 58005=
07558,1999-10-29 01:00:00,14.2,1025.8,-0.9,67,8.2,,3.704,,,360,,,,,,,,,,,og-post,,,,AAXX 29014 07558 36/// /3602 10142 20082 39427 40258 58009=
07558,1999-10-29 02:00:00,13.3,1025.5,-1.2,72,8.4,,3.704,,,40,,,,,,,,,,,og-post,,,,AAXX 29024 07558 36/// /0402 10133 20084 39422 40255 58012=
07558,1999-10-29 03:00:00,12.2,1025.4,-1.2,76,8.1,,7.408,,,20,,,,,,,,,,,og-post,,,,AAXX 29034 07558 36/// /0204 10122 20081 39418 40254 58012=
07558,1999-10-29 04:00:00,12.7,1025.2,-1,72,7.8,15000,7.408,,,30,,,,,,,,,,,og-post,,,,AAXX 29044 07558 32965 60304 10127 20078 39417 40252 56010 83032 333 83360 86075=
07558,1999-10-29 05:00:00,12.7,1025.2,-0.5,71,7.6,15000,3.704,,,30,,,,,,,,,,,og-post,,,,AAXX 29054 07558 32965 60302 10127 20076 39417 40252 56005 83032 333 83360 86075=
07558,1999-10-29 06:00:00,11.7,1025.2,-0.4,76,7.6,25000,7.408,,,10,11.7,15.3,,,,,0,,9,,og-post,,,,AAXX 29064 07558 32975 60104 10117 20076 39414 40252 58004 81032 333 10153 20117 30009 55000 70000 81360 86075=
07558,1999-10-29 07:00:00,12.3,1025.3,-0,73,7.6,25000,7.408,,,30,,,,,,,,,,,og-post,,,,AAXX 29074 07558 32975 60304 10123 20076 39417 40253 55000 81032 333 81360 86075=
07558,1999-10-29 08:00:00,12.5,1025.6,0.3,74,8,20000,7.408,,,20,,,,,,,,,,,og-post,,,,AAXX 29084 07558 32970 70204 10125 20080 39420 40256 53003 84032 333 84360 86075=
07558,1999-10-29 09:00:00,13.4,1025.3,0.6,70,8,20000,7.408,,,10,,,,,,,,,,,og-post,,,,AAXX 29094 07558 32970 70104 10134 20080 39420 40253 51006 84032 333 84360 86075=
07558,1999-10-29 10:00:00,14.9,1024.6,0.1,67,8.8,,7.408,,,10,,,,,,,,,,,og-post,,,,AAXX 29104 07558 36/// /0104 10149 20088 39418 40246 50001=
07558,1999-10-29 11:00:00,15.4,1024.1,-0.5,66,9.1,20000,7.408,,,10,,,,,,,,,,,og-post,,,,AAXX 29114 07558 32970 70104 10154 20091 39415 40241 58005 85032 333 85360 86075=
07558,1999-10-29 12:00:00,16.3,1023,-1.3,65,9.7,20000,3.704,,,10,,,,,,,,,,,og-post,,,,AAXX 29124 07558 32970 70102 10163 20097 39407 40230 58013 86072 333 86360 86075=
07558,1999-10-29 13:00:00,16.7,1022.1,-1.8,64,9.9,20000,3.704,,,20,,,,,,,,,,,og-post,,,,AAXX 29134 07558 32970 70202 10167 20099 39400 40221 58018 86072 333 86360 86075=
07558,1999-10-29 14:00:00,17.2,1021.4,-2,64,10.3,20000,3.704,,,10,,,,,,,,,,,og-post,,,,AAXX 29144 07558 32970 70102 10172 20103 39395 40214 56020 86072 333 86360 86075=
07558,1999-10-29 15:00:00,17.4,1020.8,-1.7,66,11,15000,3.704,,,20,,,,,,,,,,,og-post,,,,AAXX 29154 07558 32965 70202 10174 20110 39390 40208 56017 8707/ 333 87360=
07558,1999-10-29 16:00:00,17.2,1021.2,-0.7,60,9.4,,14.816,,,140,,,,,,,,,,,og-post,,,,AAXX 29164 07558 36/// /1408 10172 20094 39393 40212 55007=
07558,1999-10-29 17:00:00,16.2,1020.8,-0.8,63,9.2,,11.112,,,120,,,,,,,,,,,og-post,,,,AAXX 29174 07558 36/// /1206 10162 20092 39387 40208 58008=
07558,1999-10-29 18:00:00,16.2,1020.9,-0.3,60,8.4,,11.112,,,150,11.7,17.7,,,,,,,,,og-post,,,,AAXX 29184 07558 36/// /1506 10162 20084 39387 40209 58003 333 10177 20117=
07558,1999-10-29 19:00:00,16.2,1020.7,-0.7,61,8.7,,3.704,,,150,,,,,,,,,,,og-post,,,,AAXX 29194 07558 36/// /1502 10162 20087 39386 40207 56007=
07558,1999-10-29 20:00:00,15.8,1020.2,-0.7,59,7.8,,11.112,,,100,,,,,,,,,,,og-post,,,,AAXX 29204 07558 36/// /1006 10158 20078 39380 40202 58007=
07558,1999-10-29 21:00:00,15.7,1020,-0.9,59,7.7,,14.816,,,130,,,,,,,,,,,og-post,,,,AAXX 29214 07558 36/// /1308 10157 20077 39378 40200 58009=
07558,1999-10-29 22:00:00,14.9,1019.8,-1.2,64,8.2,,14.816,,,150,,,,,,,,,,,og-post,,,,AAXX 29224 07558 36/// /1508 10149 20082 39374 40198 56012=
07558,1999-10-29 23:00:00,14.4,1019.7,-0.8,70,9,,18.52,,,160,,,,,,,,,,,og-post,,,,AAXX 29234 07558 36/// /1610 10144 20090 39372 40197 57008=
07558,1999-10-30 00:00:00,13.3,1020,-0.6,88,11.4,,22.224,,,140,,,,,,,,,,,og-post,,,,AAXX 30004 07558 36/// /1412 10133 20114 39372 40200 56006=
07558,1999-10-30 01:00:00,13.3,1019.6,-0.6,90,11.7,,11.112,,,120,,,,,,,,,,,og-post,,,,AAXX 30014 07558 36/// /1206 10133 20117 39368 40196 58006=
07558,1999-10-30 02:00:00,13.6,1019.2,-0.6,90,12,,14.816,,,130,,,,,,,,,,,og-post,,,,AAXX 30024 07558 36/// /1308 10136 20120 39366 40192 58006=
07558,1999-10-30 03:00:00,14.1,1018.4,-1.2,90,12.5,,18.52,,,130,,,,,,,,,,,og-post,,,,AAXX 30034 07558 36/// /1310 10141 20125 39360 40184 58012=
07558,1999-10-30 04:00:00,14.4,1018.4,-0.7,90,12.8,10000,18.52,,,120,,,,,,,,,,,og-post,,,,AAXX 30044 07558 32560 71210 10144 20128 39361 40184 55007 875// 333 87620=
07558,1999-10-30 05:00:00,14.6,1018.3,-0.6,90,13,10000,22.224,,,130,,,,,,,,,,,og-post,,,,AAXX 30054 07558 32460 71312 10146 20130 39360 40183 56006 875// 333 87616=
07558,1999-10-30 06:00:00,14.6,1017.6,-0.6,91,13.1,8000,29.632,,,120,13,16.2,,,,,0,0.3,12,60,og-post,,,,AAXX 30064 07558 /1458 71216 10146 20131 39354 40176 58006 69902 76062 875// 333 10162 20130 31012 55003 69907 79999 87615=
07558,1999-10-30 07:00:00,14.8,1018,-0.3,89,13,8000,29.632,,,120,,,,,,,,,,21,og-post,,,,AAXX 30074 07558 21458 71216 10148 20130 39358 40180 55003 72162 875// 333 69905 84610 86615=
07558,1999-10-30 08:00:00,14.7,1018.3,0.1,90,13.1,10000,22.224,,,120,,,,,,,,,,,og-post,,,,AAXX 30084 07558 32360 71212 10147 20131 39361 40183 53001 875// 333 84608 86613=
07558,1999-10-30 09:00:00,14.4,1018.3,0.6,92,13.1,10000,18.52,,,120,,,,,,,,,,25,og-post,,,,AAXX 30094 07558 21360 71210 10144 20131 39360 40183 50006 72586 878// 333 69907 83806 86613=
07558,1999-10-30 10:00:00,14.8,1017.9,-0.1,88,12.8,8000,25.928,,,110,,,,,,,,,,,og-post,,,,AAXX 30104 07558 32358 71114 10148 20128 39357 40179 58001 878// 333 83806 86613=
07558,1999-10-30 11:00:00,15,1017.7,-0.5,87,12.9,,25.928,,,120,,,,,,,,,,,og-post,,,,AAXX 30114 07558 36/// /1214 10150 20129 39356 40177 57005=
07558,1999-10-30 12:00:00,15.5,1016.8,-1.1,86,13.2,,31.484,50.004,,130,,,,,,,,,,,og-post,,,,AAXX 30124 07558 16/// /1317 10155 20132 39349 40168 58011 69901 333 91127=
07558,1999-10-30 13:00:00,15.8,1016.2,-1.3,84,13.1,,25.928,57.412,,130,,,,,,,,,,,og-post,,,,AAXX 30134 07558 36/// /1314 10158 20131 39344 40162 58013 333 91131=
07558,1999-10-30 14:00:00,15.4,1016.6,-0.9,86,13.1,,14.816,,,120,,,,,,,,,,,og-post,,,,AAXX 30144 07558 36/// /1208 10154 20131 39347 40166 55009=
07558,1999-10-30 15:00:00,15.6,1016.5,-0.2,84,12.9,,22.224,57.412,,150,,,,,,,,,,,og-post,,,,AAXX 30154 07558 36/// /1512 10156 20129 39347 40165 56002 333 91131=
07558,1999-10-30 16:00:00,15.4,1016.9,0.6,86,13.1,,14.816,,,140,,,,,,,,,,,og-post,,,,AAXX 30164 07558 36/// /1408 10154 20131 39350 40169 52006=
07558,1999-10-30 17:00:00,14.9,1017.3,0.5,88,12.9,,18.52,,,130,,,,,,,,,,,og-post,,,,AAXX 30174 07558 36/// /1310 10149 20129 39352 40173 53005=
07558,1999-10-30 18:00:00,14.8,1017.6,0.8,89,13,,14.816,57.412,,140,14.4,16.2,,,,,,,,,og-post,,,,AAXX 30184 07558 16/// /1408 10148 20130 39355 40176 52008 69902 333 10162 20144 91131=
07558,1999-10-30 19:00:00,14.6,1019.4,2.1,91,13.1,,7.408,,,240,,,,,,,,,,,og-post,,,,AAXX 30194 07558 36/// /2404 10146 20131 39371 40194 53021=
07558,1999-10-30 20:00:00,14.2,1019.8,2.1,93,13.1,,3.704,,,250,,,,,,,,,,,og-post,,,,AAXX 30204 07558 36/// /2502 10142 20131 39373 40198 51021=
07558,1999-10-30 21:00:00,14.2,1020.4,2.4,94,13.2,,3.704,,,160,,,,,,,,,,,og-post,,,,AAXX 30214 07558 36/// /1602 10142 20132 39379 40204 51024=
07558,1999-10-30 22:00:00,14,1021.3,1.5,95,13.2,,3.704,,,150,,,,,,,,,,,og-post,,,,AAXX 30224 07558 36/// /1502 10140 20132 39386 40213 53015=
07558,1999-10-30 23:00:00,13.8,1021.6,1.6,96,13.2,,,,,,,,0.2,,,,,,,,og-post,,,,AAXX 30234 07558 26/// /0000 10138 20132 39389 40216 51016 333 69925=
07558,1999-10-31 00:00:00,13.3,1022.2,1.4,99,13.1,,3.704,,,240,,,,0.4,0.4,,,,,,og-post,,,,AAXX 31004 07558 /6/// /2402 10133 20131 39393 40222 51014 69941 333 69947=
07558,1999-10-31 01:00:00,12.7,1022.9,1.1,97,12.2,,7.408,,,280,,,,,,,,,,,og-post,,,,AAXX 31014 07558 36/// /2804 10127 20122 39397 40229 53011=
07558,1999-10-31 02:00:00,12.3,1023.5,1.2,89,10.5,,22.224,,,320,,,0.2,,,,,,,,og-post,,,,AAXX 31024 07558 26/// /3212 10123 20105 39401 40235 52012 333 69925=
07558,1999-10-31 03:00:00,11.9,1023.5,0.7,91,10.5,,22.224,,,350,,,,0.2,,,,,,,og-post,,,,AAXX 31034 07558 26/// /3512 10119 20105 39400 40235 50007 333 69927=
07558,1999-10-31 04:00:00,11.3,1024.3,0.9,94,10.4,,18.52,,,360,,,,,,,,,,,og-post,,,,AAXX 31044 07558 36/// /3610 10113 20104 39406 40243 53009=
07558,1999-10-31 05:00:00,11.7,1024.9,1.1,89,9.9,10000,7.408,,,350,,,,,,,,,,,og-post,,,,AAXX 31054 07558 32560 63504 10117 20099 39412 40249 53011 84570 333 84630 84360=
07558,1999-10-31 06:00:00,11.6,1024.9,1.2,83,8.8,25000,18.52,,,350,11.3,14.7,,,,0.6,0.6,,10,1,og-post,,,,AAXX 31064 07558 11675 63510 10116 20088 39412 40249 51012 69962 70162 84530 333 10147 20113 31010 55000 70006 83633 84360=
07558,1999-10-31 07:00:00,11.6,1026,1.6,84,9,25000,11.112,,,360,,,,,,,,,,,og-post,,,,AAXX 31074 07558 32475 63606 10116 20090 39422 40260 53016 83530 333 82615 85360=
07558,1999-10-31 08:00:00,11.1,1026.8,1.6,92,9.8,25000,11.112,,,20,,,,,,,,,,,og-post,,,,AAXX 31084 07558 32475 60206 10111 20098 39428 40268 53016 82530 333 81616 84360=
07558,1999-10-31 09:00:00,12.9,1026.5,1.8,77,9,30000,18.52,,,340,,,,,,,,,,,og-post,,,,AAXX 31094 07558 32680 43410 10129 20090 39430 40265 51018 82530 333 82633 83389=
07558,1999-10-31 10:00:00,14.1,1026.1,0.7,60,6.5,30000,25.928,,,350,,,,,,,,,,,og-post,,,,AAXX 31104 07558 32480 23514 10141 20065 39429 40261 50007 82100 333 82816=
07558,1999-10-31 11:00:00,15,1025.5,-0.2,52,5.2,,22.224,,,340,,,,,,,,,,,og-post,,,,AAXX 31114 07558 32/// /3412 10150 20052 39426 40255 58002=
07558,1999-10-31 12:00:00,15.9,1024.6,-1,47,4.6,,14.816,,,340,,,,,,,,,,,og-post,,,,AAXX 31124 07558 36/// /3408 10159 20046 39420 40246 58010=
07558,1999-10-31 13:00:00,16.7,1023.9,-1.4,41,3.4,,7.408,,,340,,,,,,,,,,,og-post,,,,AAXX 31134 07558 36/// /3404 10167 20034 39415 40239 58014=
07558,1999-10-31 14:00:00,17.5,1023.2,-1.5,37,2.7,,7.408,,,270,,,,,,,,,,,og-post,,,,AAXX 31144 07558 36/// /2704 10175 20027 39411 40232 56015=
07558,1999-10-31 15:00:00,17.5,1022.8,-1.3,37,2.7,,,,,,,,,,,,,,,,og-post,,,,AAXX 31154 07558 36/// /0000 10175 20027 39407 40228 56013=
07558,1999-10-31 16:00:00,16.9,1022.8,-0.9,43,4.3,,3.704,,,150,,,,,,,,,,,og-post,,,,AAXX 31164 07558 36/// /1502 10169 20043 39406 40228 56009=
07558,1999-10-31 17:00:00,14.5,1023.9,-0.2,47,3.3,,7.408,,,30,,,,,,,,,,,og-post,,,,AAXX 31174 07558 36/// /0304 10145 20033 39409 40239 55002=
07558,1999-10-31 18:00:00,13.5,1024.3,0.3,51,3.6,,,,,,11,17.8,,,,,,,,,og-post,,,,AAXX 31184 07558 36/// /0000 10135 20036 39410 40243 53003 333 10178 20110=
07558,1999-10-31 19:00:00,12.8,1024.5,0.4,53,3.5,,3.704,,,120,,,,,,,,,,,og-post,,,,AAXX 31194 07558 36/// /1202 10128 20035 39410 40245 51004=
07558,1999-10-31 20:00:00,12.1,1025,0.4,58,4.1,,7.408,,,90,,,,,,,,,,,og-post,,,,AAXX 31204 07558 36/// /0904 10121 20041 39413 40250 53004=
07558,1999-10-31 21:00:00,11.4,1025.5,0.6,66,5.3,,11.112,,,80,,,,,,,,,,,og-post,,,,AAXX 31214 07558 36/// /0806 10114 20053 39416 40255 53006=
07558,1999-10-31 22:00:00,10.8,1025.9,0.8,79,7.3,,7.408,,,90,,,,,,,,,,,og-post,,,,AAXX 31224 07558 36/// /0904 10108 20073 39418 40259 51008=
07558,1999-10-31 23:00:00,10.5,1026.3,0.8,86,8.3,,3.704,,,100,,,,,,,,,,,og-post,,,,AAXX 31234 07558 36/// /1002 10105 20083 39421 40263 52008=
07558,1999-11-01 00:00:00,10.4,1025.9,0.1,82,7.5,,14.816,,,80,,,,,,,,,,,og-post,,,,AAXX 01004 07558 36/// /0808 10104 20075 39417 40259 50001=
07558,1999-11-01 01:00:00,10.4,1025.7,-0.2,89,8.7,,14.816,,,110,,,,,,,,,,,og-post,,,,AAXX 01014 07558 36/// /1108 10104 20087 39416 40257 58002=
07558,1999-11-01 02:00:00,10.5,1025.6,-0.6,91,9.1,,14.816,,,100,,,,,,,,,,,og-post,,,,AAXX 01024 07558 36/// /1008 10105 20091 39415 40256 56006=
07558,1999-11-01 03:00:00,10.1,1025.3,-0.6,91,8.7,,14.816,,,100,,,,,,,,,,,og-post,,,,AAXX 01034 07558 36/// /1008 10101 20087 39411 40253 58006=
07558,1999-11-01 04:00:00,10.2,1025.2,-0.6,87,8.1,,11.112,,,100,,,,,,,,,,,og-post,,,,AAXX 01044 07558 36/// /1006 10102 20081 39410 40252 57006=
07558,1999-11-01 05:00:00,10.4,1025,-0.6,83,7.6,30000,11.112,,,110,,,,,,,,,,,og-post,,,,AAXX 01054 07558 32980 01106 10104 20076 39409 40250 56006=
07558,1999-11-01 06:00:00,11,1025.1,-0,77,7.1,30000,14.816,,,110,10,13.7,,,,,0,8.6,7,,og-post,,,,AAXX 01064 07558 32980 21108 10110 20071 39411 40251 55000 80002 333 10137 20100 30007 55086 70000 82075=
07558,1999-11-01 07:00:00,11.3,1025.3,0.4,78,7.6,30000,18.52,,,130,,,,,,,,,,,og-post,,,,AAXX 01074 07558 32980 21310 10113 20076 39414 40253 53004 81032 333 81360=
07558,1999-11-01 08:00:00,12.4,1025.9,1.4,84,9.8,20000,7.408,,,130,,,,,,,,,,,og-post,,,,AAXX 01084 07558 32470 31304 10124 20098 39423 40259 53014 82532 333 82616=
07558,1999-11-01 09:00:00,13.8,1025.8,1.5,80,10.4,20000,18.52,,,130,,,,,,,,,,,og-post,,,,AAXX 01094 07558 32470 51310 10138 20104 39426 40258 52015 83532 333 83616 83075=
07558,1999-11-01 10:00:00,15.1,1025.3,1.1,74,10.5,20000,29.632,,,120,,,,,,,,,,,og-post,,,,AAXX 01104 07558 32470 61216 10151 20105 39425 40253 50011 83532 333 83616 84075=
07558,1999-11-01 11:00:00,15.7,1024.6,-0.2,71,10.5,,29.632,,,140,,,,,,,,,,,og-post,,,,AAXX 01114 07558 32/// /1416 10157 20105 39421 40246 58002=
07558,1999-11-01 12:00:00,15.4,1024.4,-0.8,72,10.4,,29.632,,,120,,,,,,,,,,,og-post,,,,AAXX 01124 07558 36/// /1216 10154 20104 39418 40244 58008=
07558,1999-11-01 13:00:00,15,1023.9,-1.3,73,10.2,,29.632,53.708,53.708,140,,,,,,,,,,,og-post,,,,AAXX 01134 07558 36/// /1416 10150 20102 39412 40239 58013 333 91029 91129=
07558,1999-11-01 14:00:00,14.8,1023.8,-1,76,10.6,,25.928,,,130,,,,,,,,,,,og-post,,,,AAXX 01144 07558 36/// /1314 10148 20106 39411 40238 56010=
07558,1999-11-01 15:00:00,14.5,1023.2,-1.3,78,10.7,,22.224,53.708,,130,,,,,,,,,,,og-post,,,,AAXX 01154 07558 36/// /1312 10145 20107 39405 40232 57013 333 91129=
07558,1999-11-01 16:00:00,14.1,1023.4,-0.7,80,10.7,,25.928,,,130,,,,,,,,,,,og-post,,,,AAXX 01164 07558 36/// /1314 10141 20107 39405 40234 56007=
07558,1999-11-01 17:00:00,13.9,1024,-0.1,81,10.7,,25.928,,,140,,,,,,,,,,,og-post,,,,AAXX 01174 07558 36/// /1414 10139 20107 39410 40240 55001=
07558,1999-11-01 18:00:00,13.7,1024.6,1,84,11,,22.224,53.708,,120,10.5,16.4,,,,,,,,,og-post,,,,AAXX 01184 07558 36/// /1212 10137 20110 39415 40246 53010 333 10164 20105 91129=
07558,1999-11-01 19:00:00,13.4,1024.4,0.8,85,10.9,,18.52,,,120,,,,,,,,,,,og-post,,,,AAXX 01194 07558 36/// /1210 10134 20109 39413 40244 50008=
07558,1999-11-01 20:00:00,13.7,1024,0,85,11.2,,29.632,53.708,,120,,,,,,,,,,,og-post,,,,AAXX 01204 07558 36/// /1216 10137 20112 39410 40240 50000 333 91129=
07558,1999-11-01 21:00:00,13.4,1024.4,-0.2,85,10.9,,22.224,53.708,,130,,,,,,,,,,,og-post,,,,AAXX 01214 07558 36/// /1312 10134 20109 39413 40244 55002 333 91129=
07558,1999-11-01 22:00:00,13.5,1024.1,-0.3,83,10.7,,25.928,,,130,,,,,,,,,,,og-post,,,,AAXX 01224 07558 36/// /1314 10135 20107 39410 40241 57003=
07558,1999-11-01 23:00:00,13.6,1023.7,-0.3,84,10.9,,25.928,,,110,,,,,,,,,,,og-post,,,,AAXX 01234 07558 36/// /1114 10136 20109 39407 40237 58003=
07558,1999-11-02 00:00:00,13.5,1022.9,-1.4,84,10.9,,31.484,53.708,,120,,,,,,,,,,,og-post,,,,AAXX 02004 07558 36/// /1217 10135 20109 39399 40229 58014 333 91129=
07558,1999-11-02 01:00:00,13.6,1022,-1.9,82,10.6,,35.188,53.708,,120,,,,,,,,,,,og-post,,,,AAXX 02014 07558 36/// /1219 10136 20106 39391 40220 58019 333 91129=
07558,1999-11-02 02:00:00,13.6,1021.4,-2.2,81,10.4,,31.484,64.82,64.82,120,,,,,,,,,,,og-post,,,,AAXX 02024 07558 36/// /1217 10136 20104 39385 40214 56022 333 91035 91135=
07558,1999-11-02 03:00:00,13.5,1020.7,-2,83,10.7,,29.632,64.82,,120,,,,,,,,,,,og-post,,,,AAXX 02034 07558 36/// /1216 10135 20107 39379 40207 56020 333 91135=
07558,1999-11-02 04:00:00,13.3,1020.2,-1.7,85,10.8,,29.632,50.004,,120,,,,,,,,,,,og-post,,,,AAXX 02044 07558 36/// /1216 10133 20108 39374 40202 56017 333 91127=
07558,1999-11-02 05:00:00,13.6,1019.8,-1.4,84,10.9,10000,31.484,53.708,,130,,,,,,,,,,,og-post,,,,AAXX 02054 07558 32460 71317 10136 20109 39371 40198 56014 8753/ 333 84610 83360 91129=
07558,1999-11-02 06:00:00,13.7,1020.5,-0.1,83,10.9,10000,25.928,64.82,,140,13.2,13.8,,,,,0,4.3,13,,og-post,,,,AAXX 02064 07558 32460 71414 10137 20109 39378 40205 55001 875// 333 10138 20132 30013 55043 70000 84613 83620 91135=
07558,1999-11-02 07:00:00,13.4,1020.6,0.4,92,12.1,10000,29.632,,,130,,,,,,,,,,60,og-post,,,,AAXX 02074 07558 21460 81316 10134 20121 39378 40206 53004 76062 885// 333 69905 84613 84620=
07558,1999-11-02 08:00:00,14.1,1020.6,0.9,87,12,10000,29.632,53.708,53.708,130,,,,,,,,,,,og-post,,,,AAXX 02084 07558 32460 81316 10141 20120 39380 40206 51009 885// 333 84613 84620 91029 91129=
07558,1999-11-02 09:00:00,14.6,1021.1,0.8,82,11.6,10000,18.52,,,140,,,,,,,,,,,og-post,,,,AAXX 02094 07558 32460 71410 10146 20116 39386 40211 53008 875// 333 84613 83620=
07558,1999-11-02 10:00:00,14.6,1021.4,1.1,84,11.9,10000,18.52,,,130,,,,,,,,,,,og-post,,,,AAXX 02104 07558 32460 71310 10146 20119 39389 40214 53011 875// 333 84613 83620=
07558,1999-11-02 11:00:00,14.8,1021.3,0.8,84,12.1,10000,18.52,,,150,,,,,,,,,,,og-post,,,,AAXX 02114 07558 32460 71510 10148 20121 39388 40213 50008 875// 333 84613 83620=
07558,1999-11-02 12:00:00,15.5,1020.4,-0.4,81,12.3,10000,14.816,,,130,,,,,,,,,,,og-post,,,,AAXX 02124 07558 32460 71308 10155 20123 39382 40204 58004 875// 333 84613 83620=
07558,1999-11-02 13:00:00,15.4,1020.5,-0.6,84,12.7,10000,11.112,,,110,,,,,,,,,,,og-post,,,,AAXX 02134 07558 32460 71106 10154 20127 39383 40205 55006 875// 333 84613 83620=
07558,1999-11-02 14:00:00,15.4,1020.3,-0.7,83,12.5,10000,14.816,,,120,,,,,,,,,,,og-post,,,,AAXX 02144 07558 32460 71208 10154 20125 39381 40203 56007 875// 333 84613 83620=
07558,1999-11-02 15:00:00,15,1020.9,0.3,87,12.9,10000,7.408,,,160,,,,1,,,,,,80,og-post,,,,AAXX 02154 07558 21460 81604 10150 20129 39385 40209 53003 78086 885// 333 60017 84613 84620=
07558,1999-11-02 16:00:00,14.3,1021.3,0.4,94,13.3,10000,11.112,,,130,,,0.4,,,,,,,25,og-post,,,,AAXX 02164 07558 21460 81306 10143 20133 39387 40213 53004 72586 885// 333 69945 84613 84620=
07558,1999-11-02 17:00:00,13.6,1022.2,1.3,97,13.1,,7.408,,,100,,,4,,,,,,,,og-post,,,,AAXX 02174 07558 26/// /1004 10136 20131 39394 40222 53013 333 60045=
07558,1999-11-02 18:00:00,13.8,1022.5,1.2,90,12.2,,7.408,,,320,13.3,15.9,,4,,5,,,,,og-post,,,,AAXX 02184 07558 /6/// /3204 10138 20122 39397 40225 53012 60052 333 10159 20133 60047=
07558,1999-11-02 19:00:00,13.3,1023.4,1.6,84,10.7,,11.112,,,310,,,,,,,,,,,og-post,,,,AAXX 02194 07558 36/// /3106 10133 20107 39403 40234 51016=
07558,1999-11-02 20:00:00,11.6,1024.6,1.5,93,10.5,,18.52,,,300,,,5,,,,,,,,og-post,,,,AAXX 02204 07558 26/// /3010 10116 20105 39409 40246 53015 333 60055=
07558,1999-11-02 21:00:00,10.6,1025.7,1.9,93,9.5,,18.52,,,310,,,,5,,,,,,,og-post,,,,AAXX 02214 07558 26/// /3110 10106 20095 39416 40257 53019 333 60057=
07558,1999-11-02 22:00:00,10.5,1026.2,1.8,92,9.3,,29.632,,,310,,,,,,,,,,,og-post,,,,AAXX 02224 07558 36/// /3116 10105 20093 39421 40262 51018=
07558,1999-11-02 23:00:00,9.7,1026.9,1.6,96,9.1,,18.52,,,310,,,0.2,,,,,,,,og-post,,,,AAXX 02234 07558 26/// /3110 10097 20091 39425 40269 51016 333 69925=
07558,1999-11-03 00:00:00,9.3,1026.6,0.5,94,8.4,,35.188,53.708,,330,,,,0.6,6,,,,,,og-post,,,,AAXX 03004 07558 /6/// /3319 10093 20084 39421 40266 50005 60061 333 69967 91129=
07558,1999-11-03 01:00:00,8.5,1027.7,0.7,92,7.3,,35.188,,,330,,,0.2,,,,,,,,og-post,,,,AAXX 03014 07558 26/// /3319 10085 20073 39428 40277 53007 333 69925=
07558,1999-11-03 02:00:00,8.2,1028.2,0.7,88,6.3,,29.632,,,320,,,,,,,,,,,og-post,,,,AAXX 03024 07558 36/// /3216 10082 20063 39432 40282 53007=
07558,1999-11-03 03:00:00,7.8,1028.3,1,85,5.4,,25.928,,,330,,,,0.2,,,,,,,og-post,,,,AAXX 03034 07558 26/// /3314 10078 20054 39431 40283 50010 333 69927=
07558,1999-11-03 04:00:00,7.2,1028.5,0.3,87,5.2,,25.928,,,310,,,,,,,,,,,og-post,,,,AAXX 03044 07558 36/// /3114 10072 20052 39431 40285 51003=
07558,1999-11-03 05:00:00,7.1,1028.8,0.2,87,5.1,8000,22.224,,,310,,,,,,,,,,,og-post,,,,AAXX 03054 07558 32358 43112 10071 20051 39434 40288 53002 84500 333 84606=
07558,1999-11-03 06:00:00,7.1,1029.1,0.5,83,4.4,8000,22.224,,,320,7,13.8,,,,6,10.8,,6,2,og-post,,,,AAXX 03064 07558 11458 43212 10071 20044 39436 40291 53005 60062 70260 84500 333 10138 20070 31006 55000 70108 84613=
07558,1999-11-03 07:00:00,6.7,1029.6,0.9,83,4,8000,25.928,,,310,,,,,,,,,,,og-post,,,,AAXX 03074 07558 32358 63114 10067 20040 39440 40296 53009 86500 333 82606 84613=
07558,1999-11-03 08:00:00,7,1029.8,0.9,85,4.7,10000,25.928,,,320,,,,,,,,,,,og-post,,,,AAXX 03084 07558 32360 53214 10070 20047 39443 40298 53009 85800 333 82606 83813=
07558,1999-11-03 09:00:00,7.9,1029.7,0.8,77,4.1,10000,25.928,,,330,,,,,,,,,,,og-post,,,,AAXX 03094 07558 32460 43314 10079 20041 39444 40297 51008 84800 333 82610=
07558,1999-11-03 10:00:00,8.5,1029.4,0.3,69,3.1,10000,29.632,,,340,,,,,,,,,,,og-post,,,,AAXX 03104 07558 32460 53416 10085 20031 39443 40294 50003 85800 333 83616=
07558,1999-11-03 11:00:00,9.2,1028.9,-0.3,66,3.2,10000,18.52,,,350,,,,,,,,,,,og-post,,,,AAXX 03114 07558 32460 53510 10092 20032 39440 40289 58003 85800 333 83816=
07558,1999-11-03 12:00:00,9,1028.3,-1,64,2.6,10000,31.484,,,10,,,,,,,,,,,og-post,,,,AAXX 03124 07558 32460 50117 10090 20026 39434 40283 58010 85800 333 83816=
07558,1999-11-03 14:00:00,9.4,1026.8,-1.8,62,2.5,10000,22.224,,,360,,,,,,,,,,,og-post,,,,AAXX 03144 07558 32460 53612 10094 20025 39422 40268 57018 85800 333 83816=
07558,1999-11-03 15:00:00,9.3,1026.2,-1.8,59,1.7,15000,22.224,,,360,,,,,,,,,,,og-post,,,,AAXX 03154 07558 32565 43612 10093 20017 39416 40262 57018 84800 333 83820=
07558,1999-11-03 16:00:00,8.6,1026.2,-1.4,59,1.1,15000,25.928,,,350,,,,,,,,,,,og-post,,,,AAXX 03164 07558 32565 43514 10086 20011 39414 40262 56014 84800 333 83820=
07558,1999-11-03 17:00:00,7.3,1026.4,-1,65,1.2,,22.224,,,350,,,,,,,,,,,og-post,,,,AAXX 03174 07558 36/// /3512 10073 20012 39412 40264 56010=
07558,1999-11-03 18:00:00,6.3,1026.4,-0.7,68,0.8,,29.632,,,350,6.1,9.9,,,,,,,,,og-post,,,,AAXX 03184 07558 36/// /3516 10063 20008 39409 40264 58007 333 10099 20061=
07558,1999-11-03 19:00:00,5.2,1026,-1.2,74,1,,31.484,,,340,,,,,,,,,,,og-post,,,,AAXX 03194 07558 36/// /3417 10052 20010 39402 40260 58012=
07558,1999-11-03 20:00:00,5,1026.1,-1,73,0.6,,25.928,,,350,,,,,,,,,,,og-post,,,,AAXX 03204 07558 36/// /3514 10050 20006 39402 40261 56010=
07558,1999-11-03 21:00:00,5.4,1026,-0.7,70,0.4,,18.52,,,360,,,,,,,,,,,og-post,,,,AAXX 03214 07558 36/// /3610 10054 20004 39402 40260 56007=
07558,1999-11-03 22:00:00,5.2,1025.7,-0.3,73,0.8,,25.928,,,360,,,,,,,,,,,og-post,,,,AAXX 03224 07558 36/// /3614 10052 20008 39399 40257 58003=
07558,1999-11-03 23:00:00,5.3,1025.1,-0.8,76,1.4,,22.224,,,360,,,,,,,,,,,og-post,,,,AAXX 03234 07558 36/// /3612 10053 20014 39394 40251 58008=
07558,1999-11-04 00:00:00,5.2,1024.5,-1.4,76,1.3,,22.224,,,360,,,,,,,,,,,og-post,,,,AAXX 04004 07558 36/// /3612 10052 20013 39388 40245 58014=
07558,1999-11-04 01:00:00,4.8,1024.1,-1.6,76,0.9,,25.928,,,360,,,,,,,,,,,og-post,,,,AAXX 04014 07558 36/// /3614 10048 20009 39383 40241 57016=
07558,1999-11-04 02:00:00,4.6,1023.4,-1.8,77,0.9,,29.632,,,360,,,,,,,,,,,og-post,,,,AAXX 04024 07558 36/// /3616 10046 20009 39376 40234 58018=
07558,1999-11-04 03:00:00,4,1023.1,-1.6,82,1.2,,22.224,,,350,,,,,,,,,,,og-post,,,,AAXX 04034 07558 36/// /3512 10040 20012 39372 40231 56016=
07558,1999-11-04 04:00:00,4.3,1022.7,-1.4,81,1.3,,14.816,,,350,,,,,,,,,,,og-post,,,,AAXX 04044 07558 36/// /3508 10043 20013 39369 40227 56014=
07558,1999-11-04 05:00:00,4.4,1022.4,-0.9,80,1.3,20000,18.52,,,350,,,,,,,,,,,og-post,,,,AAXX 04054 07558 32970 03510 10044 20013 39367 40224 56009=
07558,1999-11-04 06:00:00,4.3,1022.3,-0.7,80,1.2,20000,29.632,,,360,3.9,6.5,,,,,,3.4,2,,og-post,,,,AAXX 04064 07558 32970 03616 10043 20012 39365 40223 56007 333 10065 20039 31002 55034 70000=
07558,1999-11-04 07:00:00,3.6,1022.6,-0.3,83,1,30000,25.928,,,350,,,,,,,,,,,og-post,,,,AAXX 04074 07558 32980 03514 10036 20010 39366 40226 55003=
07558,1999-11-04 08:00:00,5,1022.3,0.1,80,1.8,30000,14.816,,,350,,,,,,,,,,,og-post,,,,AAXX 04084 07558 32980 03508 10050 20018 39368 40223 53001=
07558,1999-11-04 09:00:00,6.5,1021.8,0.2,75,2.4,30000,11.112,,,350,,,,,,,,,,,og-post,,,,AAXX 04094 07558 32580 13506 10065 20024 39367 40218 50002 81100 333 81830=
07558,1999-11-04 10:00:00,8.6,1021.1,0.1,69,3.2,30000,3.704,,,180,,,,,,,,,,,og-post,,,,AAXX 04104 07558 32580 11802 10086 20032 39367 40211 51001 81100 333 81830=
07558,1999-11-04 11:00:00,9.2,1020.5,-0.5,65,3,,11.112,,,30,,,,,,,,,,,og-post,,,,AAXX 04114 07558 36/// /0306 10092 20030 39363 40205 58005=
07558,1999-11-04 12:00:00,10.4,1019.3,-1.1,61,3.2,30000,3.704,,,10,,,,,,,,,,,og-post,,,,AAXX 04124 07558 32980 00102 10104 20032 39356 40193 58011=
07558,1999-11-04 13:00:00,12.2,1018.2,-1.6,59,4.4,30000,11.112,,,240,,,,,,,,,,,og-post,,,,AAXX 04134 07558 32680 12406 10122 20044 39351 40182 58016 81100 333 81833=
07558,1999-11-04 14:00:00,12.6,1017.9,-1.4,60,5.1,30000,11.112,,,250,,,,,,,,,,,og-post,,,,AAXX 04144 07558 32680 12506 10126 20051 39349 40179 56014 81100 333 81833=
07558,1999-11-04 15:00:00,11.3,1018.1,-0.8,67,5.4,30000,14.816,,,210,,,,,,,,,,,og-post,,,,AAXX 04154 07558 32680 12108 10113 20054 39348 40181 56008 81100 333 81833=
07558,1999-11-04 16:00:00,9.9,1019,0.1,73,5.3,30000,18.52,,,210,,,,,,,,,,,og-post,,,,AAXX 04164 07558 32980 02110 10099 20053 39352 40190 53001=
07558,1999-11-04 17:00:00,7.8,1019.9,0.5,79,4.4,,11.112,,,230,,,,,,,,,,,og-post,,,,AAXX 04174 07558 36/// /2306 10078 20044 39354 40199 53005=
07558,1999-11-04 18:00:00,6.8,1020.6,0.9,74,2.5,,11.112,,,350,3.4,12.6,,,,,,,,,og-post,,,,AAXX 04184 07558 36/// /3506 10068 20025 39357 40206 51009 333 10126 20034=
07558,1999-11-04 19:00:00,6.7,1020.7,0.6,76,2.8,,7.408,,,360,,,,,,,,,,,og-post,,,,AAXX 04194 07558 36/// /3604 10067 20028 39358 40207 51006=
07558,1999-11-04 20:00:00,6.5,1020.9,0.5,78,2.9,,,,,,,,,,,,,,,,og-post,,,,AAXX 04204 07558 36/// /0000 10065 20029 39359 40209 51005=
07558,1999-11-04 21:00:00,5.8,1020.9,0,85,3.5,,,,,,,,,,,,,,,,og-post,,,,AAXX 04214 07558 36/// /0000 10058 20035 39357 40209 50000=
07558,1999-11-04 22:00:00,5.4,1020.9,-0.2,84,2.9,,7.408,,,20,,,,,,,,,,,og-post,,,,AAXX 04224 07558 36/// /0204 10054 20029 39356 40209 58002=
07558,1999-11-04 23:00:00,5.3,1020.5,-0.7,87,3.3,,3.704,,,30,,,,,,,,,,,og-post,,,,AAXX 04234 07558 36/// /0302 10053 20033 39352 40205 58007=
07558,1999-11-05 00:00:00,4.9,1020.5,-0.6,87,2.9,,7.408,,,40,,,,,,,,,,,og-post,,,,AAXX 05004 07558 36/// /0404 10049 20029 39351 40205 57006=
07558,1999-11-05 01:00:00,4.6,1020.2,-0.9,91,3.3,,11.112,,,30,,,,,,,,,,,og-post,,,,AAXX 05014 07558 36/// /0306 10046 20033 39347 40202 57009=
07558,1999-11-05 02:00:00,4.5,1020.1,-0.6,91,3.2,,11.112,,,10,,,,,,,,,,,og-post,,,,AAXX 05024 07558 36/// /0106 10045 20032 39346 40201 57006=
07558,1999-11-05 03:00:00,4,1019.6,-1.1,93,3,,11.112,,,20,,,,,,,,,,,og-post,,,,AAXX 05034 07558 36/// /0206 10040 20030 39340 40196 58011=
07558,1999-11-05 04:00:00,4.5,1019.3,-0.8,91,3.2,,14.816,,,30,,,,,,,,,,,og-post,,,,AAXX 05044 07558 36/// /0308 10045 20032 39339 40193 57008=
07558,1999-11-05 05:00:00,3.9,1019.4,-0.8,95,3.2,20000,7.408,,,340,,,,,,,,,,,og-post,,,,AAXX 05054 07558 32970 03404 10039 20032 39338 40194 56008=
07558,1999-11-05 06:00:00,4.6,1019.1,-0.3,95,3.9,20000,11.112,,,360,3.5,6.9,,,,,0,9.7,1,,og-post,,,,AAXX 05064 07558 32970 33606 10046 20039 39337 40191 57003 80001 333 10069 20035 31001 55097 70000 83075=
07558,1999-11-05 07:00:00,4.7,1019.5,0.2,91,3.4,20000,7.408,,,360,,,,,,,,,,,og-post,,,,AAXX 05074 07558 32970 43604 10047 20034 39341 40195 53002 80001 333 84075=
07558,1999-11-05 08:00:00,6.2,1019.3,0.6,90,4.7,30000,7.408,,,20,,,,,,,,,,,og-post,,,,AAXX 05084 07558 32980 60204 10062 20047 39344 40193 53006 80001 333 86075=
07558,1999-11-05 09:00:00,6.2,1019.1,0.5,87,4.2,30000,7.408,,,40,,,,,,,,,,,og-post,,,,AAXX 05094 07558 32980 60404 10062 20042 39342 40191 50005 80002 333 86075=
07558,1999-11-05 10:00:00,10.1,1017.8,0.1,77,6.3,30000,7.408,,,80,,,,,,,,,,,og-post,,,,AAXX 05104 07558 32980 60804 10101 20063 39342 40178 51001 80002 333 86075=
07558,1999-11-05 11:00:00,11.3,1017.2,-0.4,73,6.6,30000,7.408,,,80,,,,,,,,,,,og-post,,,,AAXX 05114 07558 32980 70804 10113 20066 39340 40172 57004 80002 333 87075=
07558,1999-11-05 12:00:00,12.8,1015.6,-1.3,56,4.3,30000,14.816,,,100,,,,,,,,,,,og-post,,,,AAXX 05124 07558 32980 71008 10128 20043 39329 40156 58013 80002 333 87075=
07558,1999-11-05 13:00:00,12.9,1015.9,-1.1,50,2.7,30000,11.112,,,130,,,,,,,,,,,og-post,,,,AAXX 05134 07558 32980 71306 10129 20027 39331 40159 55011 80002 333 87075=
07558,1999-11-05 14:00:00,12.5,1015.7,-1.2,48,1.8,30000,18.52,,,120,,,,,,,,,,,og-post,,,,AAXX 05144 07558 32980 61210 10125 20018 39328 40157 56012 80002 333 8605=
07558,1999-11-05 15:00:00,13.2,1015.3,-0.3,38,-0.8,30000,18.52,,,130,,,,,,,,,,,og-post,,,,AAXX 05154 07558 32980 61310 10132 21008 39326 40153 58003 80002 333 86075=
07558,1999-11-05 16:00:00,11.2,1016.2,-0.2,40,-1.9,30000,22.224,,,160,,,,,,,,,,,og-post,,,,AAXX 05164 07558 32980 61612 10112 21019 39329 40162 55002 81032 333 81360 86075=
07558,1999-11-05 17:00:00,9.5,1017.9,1.2,54,0.7,,18.52,,,130,,,,,,,,,,,og-post,,,,AAXX 05174 07558 36/// /1310 10095 20007 39340 40179 53012=
07558,1999-11-05 18:00:00,8.7,1018.5,1.8,72,3.9,,18.52,,,140,4.5,13.2,,,,,,,,,og-post,,,,AAXX 05184 07558 36/// /1410 10087 20039 39344 40185 53018 333 10132 20045=
07558,1999-11-05 19:00:00,8.5,1018.5,1.4,75,4.3,,3.704,,,170,,,,,,,,,,,og-post,,,,AAXX 05194 07558 36/// /1702 10085 20043 39343 40185 50014=
07558,1999-11-05 20:00:00,7.7,1018.3,-0.1,81,4.7,,11.112,,,130,,,,,,,,,,,og-post,,,,AAXX 05204 07558 36/// /1306 10077 20047 39339 40183 58001=
07558,1999-11-05 21:00:00,7.4,1018.8,-0.1,85,5,,11.112,,,120,,,,,,,,,,,og-post,,,,AAXX 05214 07558 36/// /1206 10074 20050 39343 40188 55001=
07558,1999-11-05 22:00:00,7.5,1019,0.2,88,5.6,,3.704,,,110,,,,,,,,,,,og-post,,,,AAXX 05224 07558 36/// /1102 10075 20056 39345 40190 53002=
07558,1999-11-05 23:00:00,7,1018.4,-0.1,89,5.3,,11.112,,,100,,,,,,,,,,,og-post,,,,AAXX 05234 07558 36/// /1006 10070 20053 39338 40184 58001=
07558,1999-11-06 00:00:00,6.8,1017.9,-1,94,5.9,,7.408,,,110,,,,,,,,,,,og-post,,,,AAXX 06004 07558 36/// /1104 10068 20059 39333 40179 58010=
07558,1999-11-06 01:00:00,6.8,1016.9,-2.1,96,6.2,,3.704,,,120,,,,,,,,,,,og-post,,,,AAXX 06014 07558 36/// /1202 10068 20062 39324 40169 58021=
07558,1999-11-06 02:00:00,6.6,1016.2,-2.1,95,5.9,,7.408,,,150,,,,,,,,,,,og-post,,,,AAXX 06024 07558 36/// /1504 10066 20059 39317 40162 58021=
07558,1999-11-06 03:00:00,6.8,1015.6,-2.1,97,6.4,,7.408,,,210,,,,,,,,,,,og-post,,,,AAXX 06034 07558 36/// /2104 10068 20064 39312 40156 56021=
07558,1999-11-06 04:00:00,6.8,1015.7,-1.1,96,6.2,,11.112,,,180,,,0.2,,,,,,,,og-post,,,,AAXX 06044 07558 26/// /1806 10068 20062 39313 40157 55011 333 69925=
07558,1999-11-06 05:00:00,6.2,1014.9,-1.3,99,6.1,8000,18.52,,,200,,,0.4,,,,,,,60,og-post,,,,AAXX 06054 07558 21258 72010 10062 20061 39304 40149 58013 76066 875// 333 69945 84605 86610=
07558,1999-11-06 06:00:00,6.6,1014.1,-1.4,100,6.6,300,25.928,,,220,6,8.7,,2,,2,2.2,3.2,4,58,og-post,,,,AAXX 06064 07558 /1103 82214 10066 20066 39298 40141 58014 60022 75865 885// 333 10087 20060 32004 55032 60027 70022 84701 87605=
07558,1999-11-06 07:00:00,6.1,1014.5,-1.3,90,4.6,6000,61.116,83.34,,300,,,0.6,,,,,,,60,og-post,,,,AAXX 06074 07558 21256 73033 10061 20046 39300 40145 55013 76066 875// 333 69965 83703 86608 91145=
07558,1999-11-06 08:00:00,6.8,1014.7,-0,86,4.6,8000,50.004,83.34,83.34,280,,,0.2,,,,,,,60,og-post,,,,AAXX 06084 07558 21258 72827 10068 20046 39304 40147 55000 76066 875// 333 69925 83703 84610 85623 91045 91145=
07558,1999-11-06 09:00:00,6.9,1014.3,0.2,84,4.4,15000,57.412,96.304,87.044,290,,,,1,,,,,,21,og-post,,,,AAXX 06094 07558 21365 62931 10069 20044 39300 40143 50002 72165 85830 333 60017 82806 84616 91047 91152=
07558,1999-11-06 10:00:00,6.9,1015.6,1.2,79,3.5,25000,50.004,94.452,79.636,300,,,,,,,,,,,og-post,,,,AAXX 06104 07558 32475 73027 10069 20035 39312 40156 53012 878// 333 83813 84623 85633 91043 91151=
07558,1999-11-06 11:00:00,7.5,1015.7,1,70,2.4,30000,57.412,79.636,75.932,290,,,,,,,,,,,og-post,,,,AAXX 06114 07558 32480 62931 10075 20024 39314 40157 53010 86800 333 83816 84630 91041 91143=
07558,1999-11-06 12:00:00,8,1015.4,1.3,65,1.8,,53.708,96.304,83.34,290,,,,,1,,,,,,og-post,,,,AAXX 06124 07558 16/// /2929 10080 20018 39313 40154 50013 60011 333 91045 91152=
07558,1999-11-06 13:00:00,8.1,1015.6,0.3,60,0.8,,53.708,90.748,90.748,290,,,,,,,,,,,og-post,,,,AAXX 06134 07558 36/// /2929 10081 20008 39315 40156 52003 333 91049 91149=
07558,1999-11-06 14:00:00,7.9,1015.9,0.3,57,-0.1,,53.708,87.044,87.044,300,,,,,,,,,,,og-post,,,,AAXX 06144 07558 36/// /3029 10079 21001 39317 40159 53003 333 91047 91147=
07558,1999-11-06 15:00:00,7.3,1016.9,1.2,64,1,,38.892,90.748,,300,,,,,,,,,,,og-post,,,,AAXX 06154 07558 36/// /3021 10073 20010 39325 40169 53012 333 91149=
07558,1999-11-06 16:00:00,6.7,1017.5,1.3,65,0.6,,38.892,61.116,,310,,,,,,,,,,,og-post,,,,AAXX 06164 07558 36/// /3121 10067 20006 39328 40175 53013 333 91133=
07558,1999-11-06 17:00:00,5,1018.9,1.9,78,1.5,,38.892,72.228,,320,,,,,,,,,,,og-post,,,,AAXX 06174 07558 36/// /3221 10050 20015 39336 40189 52019 333 91139=
07558,1999-11-06 18:00:00,4.6,1020,2,80,1.5,,35.188,90.748,,310,4.6,8.4,,,,1,,,,,og-post,,,,AAXX 06184 07558 16/// /3119 10046 20015 39345 40200 53020 60012 333 10084 20046 91149=
07558,1999-11-06 19:00:00,4.6,1020.6,2.3,81,1.6,,35.188,,,310,,,,,,,,,,,og-post,,,,AAXX 06194 07558 36/// /3119 10046 20016 39351 40206 51023=
07558,1999-11-06 20:00:00,4.6,1020.5,1.4,81,1.6,,46.3,68.524,68.524,320,,,,,,,,,,,og-post,,,,AAXX 06204 07558 36/// /3225 10046 20016 39350 40205 50014 333 91037 91137=
07558,1999-11-06 21:00:00,4.7,1021.5,1.4,81,1.7,,29.632,68.524,,310,,,,,,,,,,,og-post,,,,AAXX 06214 07558 36/// /3116 10047 20017 39359 40215 53014 333 91137=
07558,1999-11-06 22:00:00,4,1021.8,0.9,81,1,,29.632,53.708,,310,,,,,,,,,,,og-post,,,,AAXX 06224 07558 36/// /3116 10040 20010 39360 40218 53009 333 91129=
07558,1999-11-06 23:00:00,3.5,1021.9,0.9,82,0.7,,38.892,57.412,,310,,,,,,,,,,,og-post,,,,AAXX 06234 07558 36/// /3121 10035 20007 39359 40219 50009 333 91131=
07558,1999-11-07 00:00:00,3.1,1022,0,81,0.2,,35.188,68.524,,320,,,,,,,,,,,og-post,,,,AAXX 07004 07558 36/// /3219 10031 20002 39359 40220 50000 333 91137=
07558,1999-11-07 01:00:00,2.8,1022,-0.2,83,0.2,,35.188,,,320,,,,,,,,,,,og-post,,,,AAXX 07014 07558 36/// /3219 10028 20002 39358 40220 57002=
07558,1999-11-07 02:00:00,2.7,1021.9,-0.2,81,-0.2,,38.892,,,310,,,,,,,,,,,og-post,,,,AAXX 07024 07558 36/// /3121 10027 21002 39357 40219 58002=
07558,1999-11-07 03:00:00,2.7,1022.4,0.2,79,-0.6,,29.632,,50.004,320,,,,,,,,,,,og-post,,,,AAXX 07034 07558 36/// /3216 10027 21006 39361 40224 53002 333 91027=
07558,1999-11-07 04:00:00,2.5,1022.4,0.3,79,-0.8,,35.188,,,320,,,,,,,,,,,og-post,,,,AAXX 07044 07558 36/// /3219 10025 21008 39361 40224 53003=
07558,1999-11-07 05:00:00,2.8,1022.6,0.6,76,-1,25000,46.3,64.82,,330,,,,,,,,,,,og-post,,,,AAXX 07054 07558 32975 03325 10028 21010 39363 40226 51006 333 91135=
07558,1999-11-07 06:00:00,2.8,1022.9,0.5,72,-1.7,25000,42.596,64.82,,330,2.4,4.9,,,,,1.2,5,2,,og-post,,,,AAXX 07064 07558 32575 23323 10028 21017 39366 40229 53005 82500 333 10049 20024 30002 55050 70012 82625 91135=
07558,1999-11-07 07:00:00,2.9,1023.5,1.1,72,-1.6,30000,38.892,,,330,,,,,,,,,,,og-post,,,,AAXX 07074 07558 32580 33321 10029 21016 39372 40235 53011 83500 333 83625=
07558,1999-11-07 08:00:00,3.3,1024.3,1.7,71,-1.4,30000,38.892,64.82,64.82,320,,,,,,,,,,,og-post,,,,AAXX 07084 07558 32580 33221 10033 21014 39380 40243 53017 83500 333 83630 91035 91135=
07558,1999-11-07 09:00:00,4.8,1024.2,1.8,64,-1.4,30000,35.188,68.524,68.524,330,,,,,,,,,,,og-post,,,,AAXX 07094 07558 32580 33319 10048 21014 39384 40242 51018 83500 333 83630 91037 91137=
07558,1999-11-07 10:00:00,5.9,1024.4,1.7,63,-0.6,30000,31.484,61.116,,320,,,,,,,,,,,og-post,,,,AAXX 07104 07558 32580 43217 10059 21006 39389 40244 51017 84500 333 84630 91133=
07558,1999-11-07 11:00:00,5.8,1024.6,1.1,64,-0.5,30000,50.004,90.748,75.932,340,,,,,,,,,,,og-post,,,,AAXX 07114 07558 32580 53427 10058 21005 39391 40246 51011 85500 333 85630 91041 91149=
07558,1999-11-07 12:00:00,6.4,1024.1,0.3,52,-2.7,,64.82,90.748,,350,,,,,,,,,,,og-post,,,,AAXX 07124 07558 36/// /3535 10064 21027 39387 40241 50003 333 91149=
07558,1999-11-07 13:00:00,6.2,1024.6,0.2,52,-2.9,,57.412,,,340,,,,,,,,,,,og-post,,,,AAXX 07134 07558 36/// /3431 10062 21029 39391 40246 53002=
07558,1999-11-07 14:00:00,6.9,1024.8,0.4,54,-1.7,,50.004,,,340,,,,,,,,,,,og-post,,,,AAXX 07144 07558 36/// /3427 10069 21017 39395 40248 53004=
07558,1999-11-07 15:00:00,6.8,1025.4,1.4,53,-2.1,,38.892,,64.82,340,,,,,,,,,,,og-post,,,,AAXX 07154 07558 36/// /3421 10068 21021 39401 40254 53014 333 91035=
07558,1999-11-07 16:00:00,5.8,1026.6,1.8,60,-1.3,,29.632,64.82,,350,,,,,,,,,,,og-post,,,,AAXX 07164 07558 36/// /3516 10058 21013 39409 40266 53018 333 91135=
07558,1999-11-07 17:00:00,4.5,1027.7,2,64,-1.7,,22.224,,,350,,,,,,,,,,,og-post,,,,AAXX 07174 07558 36/// /3512 10045 21017 39415 40277 52020=
07558,1999-11-07 18:00:00,4.1,1028.3,1.8,64,-2.1,,29.632,,,350,2.6,7.1,,,,,,,,,og-post,,,,AAXX 07184 07558 36/// /3516 10041 21021 39419 40283 51018 333 10071 20026=
07558,1999-11-07 19:00:00,4.2,1028.3,1.1,64,-2,,38.892,,,340,,,,,,,,,,,og-post,,,,AAXX 07194 07558 36/// /3421 10042 21020 39420 40283 51011=
07558,1999-11-07 20:00:00,4,1028.8,0.9,66,-1.8,,31.484,,,330,,,,,,,,,,,og-post,,,,AAXX 07204 07558 36/// /3317 10040 21018 39424 40288 52009=
07558,1999-11-07 21:00:00,3.8,1029.2,0.8,68,-1.5,,29.632,,,310,,,,,,,,,,,og-post,,,,AAXX 07214 07558 36/// /3116 10038 21015 39427 40292 53008=
07558,1999-11-07 22:00:00,3.4,1029.5,0.8,70,-1.5,,29.632,,,320,,,,,,,,,,,og-post,,,,AAXX 07224 07558 36/// /3216 10034 21015 39428 40295 51008=
07558,1999-11-07 23:00:00,3.2,1029.1,0,70,-1.7,,35.188,,,330,,,,,,,,,,,og-post,,,,AAXX 07234 07558 36/// /3319 10032 21017 39424 40291 50000=
07558,1999-11-08 01:00:00,2.2,1029.3,-0.5,74,-1.9,,18.52,,,330,,,,,,,,,,,og-post,,,,AAXX 08014 07558 36/// /3310 10022 21019 39423 40293 56005=
07558,1999-11-08 02:00:00,2.2,1028.7,-0.7,72,-2.3,,29.632,,,330,,,,,,,,,,,og-post,,,,AAXX 08024 07558 36/// /3316 10022 21023 39417 40287 58007=
07558,1999-11-08 03:00:00,1.9,1028.7,-0.8,75,-2.1,,29.632,,,330,,,,,,,,,,,og-post,,,,AAXX 08034 07558 36/// /3316 10019 21021 39416 40287 57008=
07558,1999-11-08 04:00:00,1.8,1029,-0.4,76,-2,,31.484,,,320,,,,,,,,,,,og-post,,,,AAXX 08044 07558 36/// /3217 10018 21020 39419 40290 55004=
07558,1999-11-08 05:00:00,1.5,1029.4,0.5,78,-1.9,20000,25.928,,,320,,,,,,,,,,,og-post,,,,AAXX 08054 07558 32970 03214 10015 21019 39422 40294 53005=
07558,1999-11-08 06:00:00,1.4,1029.8,0.9,77,-2.2,30000,25.928,,,330,1.3,4.2,,,,,,5.7,0,,og-post,,,,AAXX 08064 07558 32980 03314 10014 21022 39425 40298 52009 333 10042 20013 30000 55057 70000=
07558,1999-11-08 07:00:00,1.1,1030.5,1.1,79,-2.1,30000,18.52,,,320,,,,,,,,,,,og-post,,,,AAXX 08074 07558 32980 13210 10011 21021 39430 40305 53011 81030 333 81360=
07558,1999-11-08 08:00:00,2.7,1030,0.9,74,-1.5,30000,22.224,,,330,,,,,,,,,,,og-post,,,,AAXX 08084 07558 32980 13312 10027 21015 39431 40300 51009 81030 333 81360=
07558,1999-11-08 09:00:00,4.6,1029.4,0.6,66,-1.2,30000,14.816,,,360,,,,,,,,,,,og-post,,,,AAXX 08094 07558 32980 13608 10046 21012 39431 40294 51006 81030 333 81360=
07558,1999-11-08 10:00:00,6.2,1028.7,-0.1,61,-0.7,30000,22.224,,,330,,,,,,,,,,,og-post,,,,AAXX 08104 07558 32980 13312 10062 21007 39429 40287 58001 81030 333 81360=
07558,1999-11-08 11:00:00,8.1,1027.6,-0.6,53,-0.9,30000,25.928,,,340,,,,,,,,,,,og-post,,,,AAXX 08114 07558 32980 13414 10081 21009 39425 40276 58006 81030 333 81360=
07558,1999-11-08 12:00:00,9,1026.6,-1.3,51,-0.6,30000,35.188,,,310,,,,,,,,,,,og-post,,,,AAXX 08124 07558 32980 13119 10090 21006 39418 40266 58013 81030 333 81360=
07558,1999-11-08 13:00:00,10.1,1026,-1.3,45,-1.3,30000,35.188,,,320,,,,,,,,,,,og-post,,,,AAXX 08134 07558 32980 13219 10101 21013 39416 40260 56013 81030 333 81360=
07558,1999-11-08 14:00:00,9.7,1026,-1.1,38,-3.9,30000,38.892,61.116,61.116,330,,,,,,,,,,,og-post,,,,AAXX 08144 07558 32980 13321 10097 21039 39414 40260 56011 81030 333 81360 91033 91133=
07558,1999-11-08 15:00:00,9.2,1026.3,-0.2,44,-2.4,30000,42.596,64.82,,320,,,,,,,,,,,og-post,,,,AAXX 08154 07558 32980 13223 10092 21024 39416 40263 55002 81030 333 81360 91135=
07558,1999-11-08 16:00:00,8.4,1026.9,0.3,38,-5.1,30000,31.484,,,320,,,,,,,,,,,og-post,,,,AAXX 08164 07558 32980 13217 10084 21051 39419 40269 53003 81040 333 81360=
07558,1999-11-08 17:00:00,7.1,1027.6,0.8,59,-0.4,,31.484,,,310,,,,,,,,,,,og-post,,,,AAXX 08174 07558 36/// /3117 10071 21004 39422 40276 53008=
07558,1999-11-08 18:00:00,6.6,1028.1,0.9,61,-0.4,,29.632,64.82,,310,1,10.1,,,,,,,,,og-post,,,,AAXX 08184 07558 36/// /3116 10066 21004 39425 40281 52009 333 10101 20010 91135=
07558,1999-11-08 19:00:00,6,1028.6,0.9,70,1,,31.484,,,320,,,,,,,,,,,og-post,,,,AAXX 08194 07558 36/// /3217 10060 20010 39428 40286 52009=
07558,1999-11-08 20:00:00,6.1,1028.7,0.7,74,1.8,,35.188,,,320,,,,,,,,,,,og-post,,,,AAXX 08204 07558 36/// /3219 10061 20018 39429 40287 51007=
07558,1999-11-08 21:00:00,5.5,1029,0.5,79,2.2,,25.928,,,320,,,,,,,,,,,og-post,,,,AAXX 08214 07558 36/// /3214 10055 20022 39430 40290 51005=
07558,1999-11-08 22:00:00,5.5,1028.8,0.1,80,2.3,,31.484,,,320,,,,,,,,,,,og-post,,,,AAXX 08224 07558 36/// /3217 10055 20023 39429 40288 50001=
07558,1999-11-08 23:00:00,5.1,1029.2,0.2,84,2.6,,25.928,,,330,,,,,,,,,,,og-post,,,,AAXX 08234 07558 36/// /3314 10051 20026 39431 40292 53002=
07558,1999-11-09 00:00:00,5.5,1028.6,-0.3,84,3,,29.632,,,320,,,,,,,,,,,og-post,,,,AAXX 09004 07558 36/// /3216 10055 20030 39427 40286 58003=
07558,1999-11-09 01:00:00,5.5,1028.4,-0.4,84,3,,31.484,,,330,,,,,,,,,,,og-post,,,,AAXX 09014 07558 36/// /3317 10055 20030 39425 40284 58004=
07558,1999-11-09 02:00:00,5.6,1028.1,-0.8,83,2.9,,29.632,,,330,,,,,,,,,,,og-post,,,,AAXX 09024 07558 36/// /3316 10056 20029 39423 40281 56008=
07558,1999-11-09 03:00:00,6.2,1028.1,-0.3,80,3,,25.928,,,330,,,,,,,,,,,og-post,,,,AAXX 09034 07558 36/// /3314 10062 20030 39424 40281 55003=
07558,1999-11-09 04:00:00,6.5,1027.7,-0.3,79,3.1,,31.484,,,320,,,,,,,,,,,og-post,,,,AAXX 09044 07558 36/// /3217 10065 20031 39422 40277 57003=
07558,1999-11-09 05:00:00,6.5,1027.7,-0.1,78,2.9,20000,31.484,,,320,,,,,,,,,,,og-post,,,,AAXX 09054 07558 32570 63217 10065 20029 39422 40277 58001 86500 333 86626=
07558,1999-11-09 06:00:00,6.4,1028,-0,78,2.9,20000,25.928,,,320,5,6.6,,,,,0,9.5,4,,og-post,,,,AAXX 09064 07558 32570 73214 10064 20029 39424 40280 55000 87500 333 10066 20050 3/004 55095 70000 87626=
07558,1999-11-09 07:00:00,6.2,1028,0.1,77,2.5,20000,35.188,,,330,,,,,,,,,,,og-post,,,,AAXX 09074 07558 32570 53319 10062 20025 39423 40280 50001 85500 333 85626=
07558,1999-11-09 08:00:00,6.6,1028.4,0.6,76,2.7,20000,29.632,,,330,,,,,,,,,,,og-post,,,,AAXX 09084 07558 32570 63316 10066 20027 39428 40284 53006 86500 333 86626=
07558,1999-11-09 09:00:00,7.2,1028.3,0.5,73,2.7,20000,31.484,,,330,,,,,,,,,,,og-post,,,,AAXX 09094 07558 32570 63317 10072 20027 39429 40283 53005 86500 333 86626=
07558,1999-11-09 10:00:00,8,1028,0.6,72,3.3,20000,25.928,,,330,,,,,,,,,,,og-post,,,,AAXX 09104 07558 32570 63314 10080 20033 39429 40280 51006 86500 333 86630=
07558,1999-11-09 11:00:00,9,1027.5,-0.1,65,2.8,20000,25.928,,,350,,,,,,,,,,,og-post,,,,AAXX 09114 07558 32570 63514 10090 20028 39427 40275 58001 86500 333 86630=
07558,1999-11-09 12:00:00,10.1,1026.8,-0.6,56,1.7,20000,35.188,57.412,57.412,360,,,,,,,,,,,og-post,,,,AAXX 09124 07558 32570 63619 10101 20017 39423 40268 58006 86500 333 86630 91031 91131=
07558,1999-11-09 13:00:00,10.1,1026.3,-1,63,3.4,20000,18.52,,,340,,,,,,,,,,,og-post,,,,AAXX 09134 07558 32570 63410 10101 20034 39419 40263 58010 86500 333 86630=
07558,1999-11-09 14:00:00,9.4,1026.1,-1.2,65,3.2,,29.632,,,330,,,,,,,,,,,og-post,,,,AAXX 09144 07558 36/// /3316 10094 20032 39415 40261 57012=
07558,1999-11-09 15:00:00,9.3,1026.3,-0.6,65,3.1,30000,25.928,,,320,,,,,,,,,,,og-post,,,,AAXX 09154 07558 32680 53214 10093 20031 39417 40263 55006 85500 333 85633=
07558,1999-11-09 16:00:00,8.9,1025.9,-0.7,63,2.3,30000,29.632,,,330,,,,,,,,,,,og-post,,,,AAXX 09164 07558 32680 53316 10089 20023 39412 40259 58007 85500 333 85633=
07558,1999-11-09 17:00:00,7.5,1026.5,-0.2,72,2.8,,38.892,64.82,,330,,,,,,,,,,,og-post,,,,AAXX 09174 07558 36/// /3321 10075 20028 39413 40265 58002 333 91135=
07558,1999-11-09 18:00:00,7.4,1026.7,-0.2,73,2.9,,29.632,64.82,,320,6.1,10.8,,,,,,,,,og-post,,,,AAXX 09184 07558 36/// /3216 10074 20029 39415 40267 55002 333 10108 20061 91135=
07558,1999-11-09 19:00:00,7.2,1026.7,0.2,74,2.9,,31.484,,,320,,,,,,,,,,,og-post,,,,AAXX 09194 07558 36/// /3217 10072 20029 39414 40267 50002=
07558,1999-11-09 20:00:00,7.5,1026.6,0.1,74,3.2,,29.632,,,320,,,,,,,,,,,og-post,,,,AAXX 09204 07558 36/// /3216 10075 20032 39414 40266 51001=
07558,1999-11-09 21:00:00,7.7,1026.4,-0.2,72,3,,29.632,,,320,,,,,,,,,,,og-post,,,,AAXX 09214 07558 36/// /3216 10077 20030 39413 40264 57002=
07558,1999-11-09 22:00:00,7.2,1026.3,-0.3,77,3.4,,35.188,,,320,,,,,,,,,,,og-post,,,,AAXX 09224 07558 36/// /3219 10072 20034 39411 40263 58003=
07558,1999-11-09 23:00:00,6.8,1026.6,-0.2,77,3.1,,22.224,,,320,,,,,,,,,,,og-post,,,,AAXX 09234 07558 36/// /3212 10068 20031 39412 40266 55002=
07558,1999-11-10 00:00:00,6.5,1026.7,-0.1,79,3.1,,18.52,,,320,,,,,,,,,,,og-post,,,,AAXX 10004 07558 36/// /3210 10065 20031 39412 40267 56001=
07558,1999-11-10 03:00:00,6.2,1026.1,-0.6,73,1.7,,25.928,53.708,,320,,,,,,,,,,,og-post,,,,AAXX 10034 07558 36/// /3214 10062 20017 39406 40261 56006 333 91129=
07558,1999-11-10 04:00:00,6.1,1026.3,-0.2,69,0.9,,25.928,,,330,,,,,,,,,,,og-post,,,,AAXX 10044 07558 36/// /3314 10061 20009 39407 40263 55002=
07558,1999-11-10 05:00:00,6.1,1025.7,-0.6,67,0.4,10000,29.632,,,330,,,,,,,,,,,og-post,,,,AAXX 10054 07558 32460 23316 10061 20004 39402 40257 58006 82600 333 82713=
07558,1999-11-10 06:00:00,6,1025.5,-0.6,69,0.8,10000,35.188,53.708,,330,5.9,7.8,,,,,0,0.5,6,,og-post,,,,AAXX 10064 07558 32560 73319 10060 20008 39400 40255 58006 87500 333 10078 20059 30006 55005 70000 87623 91129=
07558,1999-11-10 07:00:00,5.8,1025.7,-0.6,74,1.5,10000,29.632,57.412,,320,,,,,,,,,,,og-post,,,,AAXX 10074 07558 32560 73216 10058 20015 39401 40257 55006 87500 333 87623 91131=
07558,1999-11-10 09:00:00,5.7,1025.2,-0.4,76,1.8,10000,,,,,,,,,,,,,,,og-post,,,,AAXX 10094 07558 32560 6//// 10057 20018 39396 40252 58004 86530 333 84626 83360=
07558,1999-11-10 10:00:00,6.6,1024.6,-0.8,72,1.9,10000,,,,,,,,,,,,,,,og-post,,,,AAXX 10104 07558 32560 6//// 10066 20019 39393 40246 58008 86531 333 84626=
07558,1999-11-10 11:00:00,6.9,1023.9,-1.5,68,1.4,10000,,,,,,,,,,,,,,,og-post,,,,AAXX 10114 07558 32560 5//// 10069 20014 39388 40239 56015 85530 333 84626=
07558,1999-11-10 12:00:00,6.6,1023.3,-1.5,71,1.7,10000,,,,,,,,,,,,,,,og-post,,,,AAXX 10124 07558 32560 5//// 10066 20017 39381 40233 58015 85530 333 84626=
07558,1999-11-10 13:00:00,6.7,1022.8,-1.6,71,1.8,10000,,,,,,,,,,,,,,,og-post,,,,AAXX 10134 07558 32560 7//// 10067 20018 39377 40228 56016 875// 333 87630=
07558,1999-11-10 14:00:00,7,1022.4,-1.4,65,0.9,10000,,,,,,,,,,,,,,,og-post,,,,AAXX 10144 07558 32560 6//// 10070 20009 39374 40224 56014 8653/ 333 85630=
07558,1999-11-10 15:00:00,5.7,1022.9,-0.6,65,-0.4,10000,,,,,,,,,,,,,,,og-post,,,,AAXX 10154 07558 33560 6//// 10057 21004 39375 40229 55006 8653/ 333 85630=
07558,1999-11-10 16:00:00,5,1022.7,-0.6,66,-0.8,10000,25.928,,,360,,,,,,,,,,,og-post,,,,AAXX 10164 07558 33560 53614 10050 21008 39371 40227 58006 85531 333 83630=
07558,1999-11-10 17:00:00,4.1,1023,-0.3,66,-1.7,,25.928,,,350,,,,,,,,,,,og-post,,,,AAXX 10174 07558 36/// /3514 10041 21017 39371 40230 58003=
07558,1999-11-10 18:00:00,3,1023.3,-0.5,72,-1.5,,25.928,,,330,3,7.4,,,,,,,,,og-post,,,,AAXX 10184 07558 36/// /3314 10030 21015 39370 40233 56005 333 10074 20030=
07558,1999-11-10 19:00:00,3.5,1022.5,-0.6,73,-0.9,,31.484,,,340,,,,,,,,,,,og-post,,,,AAXX 10194 07558 36/// /3417 10035 21009 39365 40225 58006=
07558,1999-11-10 20:00:00,3.9,1022.6,-0.4,72,-0.7,,29.632,,,350,,,,,,,,,,,og-post,,,,AAXX 10204 07558 36/// /3516 10039 21007 39367 40226 55004=
07558,1999-11-10 21:00:00,4,1022.9,-0,70,-1,,25.928,,,350,,,,,,,,,,,og-post,,,,AAXX 10214 07558 36/// /3514 10040 21010 39370 40229 55000=
07558,1999-11-10 22:00:00,3.7,1023.1,0.6,71,-1.1,,25.928,,,350,,,,,,,,,,,og-post,,,,AAXX 10224 07558 36/// /3514 10037 21011 39371 40231 51006=
07558,1999-11-10 23:00:00,3.5,1023.2,0.4,72,-1.1,,22.224,,,350,,,,,,,,,,,og-post,,,,AAXX 10234 07558 36/// /3512 10035 21011 39371 40232 51004=
07558,1999-11-11 00:00:00,3.5,1022.8,-0.3,71,-1.3,,31.484,,,350,,,,,,,,,,,og-post,,,,AAXX 11004 07558 36/// /3517 10035 21013 39367 40228 58003=
07558,1999-11-11 01:00:00,2.8,1022.9,-0.5,75,-1.2,,22.224,,,350,,,,,,,,,,,og-post,,,,AAXX 11014 07558 36/// /3512 10028 21012 39366 40229 58005=
07558,1999-11-11 02:00:00,2.9,1022.9,-0.5,74,-1.3,,11.112,,,330,,,,,,,,,,,og-post,,,,AAXX 11024 07558 36/// /3306 10029 21013 39366 40229 56005=
07558,1999-11-11 03:00:00,2.9,1022.6,-0.3,74,-1.3,,11.112,,,350,,,,,,,,,,,og-post,,,,AAXX 11034 07558 36/// /3506 10029 21013 39364 40226 58003=
07558,1999-11-11 04:00:00,2.1,1023,-0.1,78,-1.3,,7.408,,,330,,,,,,,,,,,og-post,,,,AAXX 11044 07558 36/// /3304 10021 21013 39365 40230 55001=
07558,1999-11-11 05:00:00,1.7,1023,-0.2,82,-1,10000,7.408,,,330,,,,,,,,,,,og-post,,,,AAXX 11054 07558 32360 13304 10017 21010 39364 40230 56002 81600 333 81706=
07558,1999-11-11 06:00:00,1.6,1023.1,0,81,-1.3,10000,3.704,,,330,1.1,4.1,,,,,0,1.2,-1,,og-post,,,,AAXX 11064 07558 32360 13302 10016 21013 39364 40231 50000 81600 333 10041 20011 31101 55012 70000 81706=
07558,1999-11-11 07:00:00,0.2,1023.7,0.1,94,-0.6,15000,7.408,,,290,,,,,,,,,,,og-post,,,,AAXX 11074 07558 32365 22904 10002 21006 39366 40237 53001 81601 333 81706=
07558,1999-11-11 08:00:00,2.4,1023,0.2,78,-1,15000,7.408,,,350,,,,,,,,,,,og-post,,,,AAXX 11084 07558 32365 23504 10024 21010 39366 40230 52002 81601 333 81706=
07558,1999-11-11 09:00:00,3.8,1022.8,0.4,75,-0.2,15000,7.408,,,350,,,,,,,,,,,og-post,,,,AAXX 11094 07558 32365 33504 10038 21002 39368 40228 52004 81601 333 81706 83073=
07558,1999-11-11 10:00:00,5.6,1022.2,0.2,65,-0.4,15000,7.408,,,360,,,,,,,,,,,og-post,,,,AAXX 11104 07558 32565 43604 10056 21004 39368 40222 52002 82101 333 82820 83073=
07558,1999-11-11 11:00:00,6.8,1021.4,-0.2,61,-0.2,15000,14.816,,,30,,,,,,,,,,,og-post,,,,AAXX 11114 07558 32565 50308 10068 21002 39364 40214 58002 83101 333 83820 83073=
07558,1999-11-11 12:00:00,6.3,1021.1,-0.8,60,-0.9,,14.816,,,350,,,,,,,,,,,og-post,,,,AAXX 11124 07558 36/// /3508 10063 21009 39360 40211 58008=
07558,1999-11-11 13:00:00,6.8,1020.6,-1.1,57,-1.1,,11.112,,,10,,,,,,,,,,,og-post,,,,AAXX 11134 07558 36/// /0106 10068 21011 39357 40206 56011=
07558,1999-11-11 14:00:00,6.7,1020.2,-1.1,55,-1.7,,14.816,,,360,,,,,,,,,,,og-post,,,,AAXX 11144 07558 36/// /3608 10067 21017 39353 40202 57011=
07558,1999-11-11 15:00:00,6.3,1020.1,-0.9,59,-1.1,,7.408,,,350,,,,,,,,,,,og-post,,,,AAXX 11154 07558 36/// /3504 10063 21011 39351 40201 56009=
07558,1999-11-11 16:00:00,5,1020.5,-0.6,82,2.2,,11.112,,,210,,,,,,,,,,,og-post,,,,AAXX 11164 07558 36/// /2106 10050 20022 39351 40205 56006=
07558,1999-11-11 17:00:00,4,1021.1,0.1,89,2.4,,11.112,,,210,,,,,,,,,,,og-post,,,,AAXX 11174 07558 36/// /2106 10040 20024 39354 40211 53001=
07558,1999-11-11 18:00:00,3,1021.8,0.6,94,2.1,,11.112,,,210,0.2,7.9,,,,,,,,,og-post,,,,AAXX 11184 07558 36/// /2106 10030 20021 39357 40218 53006 333 10079 20002=
07558,1999-11-11 19:00:00,2.8,1022.2,0.9,97,2.4,,14.816,,,190,,,,,,,,,,,og-post,,,,AAXX 11194 07558 36/// /1908 10028 20024 39360 40222 52009=
07558,1999-11-11 20:00:00,2.7,1022.2,0.6,98,2.4,,11.112,,,190,,,,,,,,,,,og-post,,,,AAXX 11204 07558 36/// /1906 10027 20024 39360 40222 51006=
07558,1999-11-11 21:00:00,2.7,1022.4,0.5,99,2.6,,7.408,,,200,,,,,,,,,,,og-post,,,,AAXX 11214 07558 36/// /2004 10027 20026 39362 40224 51005=
07558,1999-11-11 22:00:00,2.5,1022.5,0.2,99,2.4,,3.704,,,220,,,,,,,,,,,og-post,,,,AAXX 11224 07558 36/// /2202 10025 20024 39362 40225 52002=
07558,1999-11-11 23:00:00,2.6,,,99,2.5,,3.704,,,340,,,,,,,,,,,og-post,,,,AAXX 11234 07558 36/// /3402 10026 20025 3//// 4////=
07558,1999-11-12 00:00:00,2.8,,,99,2.7,,7.408,,,30,,,,,,,,,,,og-post,,,,AAXX 12004 07558 36/// /0304 10028 20027 3//// 4////=
07558,1999-11-12 01:00:00,2.9,,,98,2.6,,14.816,,,30,,,0.4,,,,,,,,og-post,,,,AAXX 12014 07558 26/// /0308 10029 20026 3//// 4//// 333 69945=
07558,1999-11-12 02:00:00,3.4,,,98,3.1,,7.408,,,30,,,,,,,,,,,og-post,,,,AAXX 12024 07558 36/// /0304 10034 20031 3//// 4////=
07558,1999-11-12 03:00:00,3.3,,,99,3.2,,3.704,,,10,,,,0.4,,,,,,,og-post,,,,AAXX 12034 07558 26/// /0102 10033 20032 3//// 4//// 333 69947=
07558,1999-11-12 04:00:00,4.8,,,97,4.4,,18.52,,,90,,,0.6,,,,,,,,og-post,,,,AAXX 12044 07558 26/// /0910 10048 20044 3//// 4//// 333 69965=
07558,1999-11-12 05:00:00,5.1,,,93,4.1,8000,25.928,,,100,,,,,,,,,,60,og-post,,,,AAXX 12054 07558 21458 71014 10051 20041 3//// 4//// 76062 875// 333 69905 83610 86620=
07558,1999-11-12 06:00:00,5.2,,,94,4.3,8000,18.52,,,80,2.5,5.2,,1,,2,1.6,4.8,2,61,og-post,,,,AAXX 12064 07558 /1458 70810 10052 20043 3//// 4//// 60022 76162 875// 333 10052 20025 32002 55048 60017 70016 84610 86616=
07558,1999-11-12 07:00:00,5.4,,,94,4.5,7000,18.52,,,90,,,2,,,,,,,61,og-post,,,,AAXX 12074 07558 21357 70910 10054 20045 3//// 4//// 76166 875// 333 60025 84608 86615=
07558,1999-11-12 08:00:00,4.5,,,98,4.2,8000,14.816,,,30,,,2,,,,,,,61,og-post,,,,AAXX 12084 07558 21358 70308 10045 20042 3//// 4//// 76166 875// 333 60025 84608 86615=
07558,1999-11-12 09:00:00,6,,,92,4.8,10000,18.52,,,80,,,,3,,,,,,60,og-post,,,,AAXX 12094 07558 21460 70810 10060 20048 3//// 4//// 76066 875// 333 60037 84610 87616=
07558,1999-11-12 10:00:00,6.9,,,82,4,12000,22.224,,,70,,,,,,,,,,21,og-post,,,,AAXX 12104 07558 21462 70712 10069 20040 3//// 4//// 72162 875// 333 69905 83613 86620=
07558,1999-11-12 12:00:00,6.8,1018,,87,4.8,10000,29.632,,57.412,90,,,,,,,,,,61,og-post,,,,AAXX 12124 07558 41460 70916 10068 20048 39334 40180 76162 8657/ 333 83616 84630 87360 91031=
07558,1999-11-12 13:00:00,7.4,1016.7,,80,4.2,10000,35.188,64.82,61.116,90,,,0.2,,,,,,,60,og-post,,,,AAXX 12134 07558 21460 70919 10074 20042 39324 40167 76066 8657/ 333 69925 84616 85630 87360 91033 91135=
07558,1999-11-12 15:00:00,6.8,1016.5,-1.4,93,5.7,8000,38.892,83.34,64.82,100,,,,4,,,,,,61,og-post,,,,AAXX 12154 07558 21458 81021 10068 20057 39320 40165 56014 76166 885// 333 60047 84610 87620 91035 91145=
07558,1999-11-12 16:00:00,7.7,1015.6,-0.9,91,6.3,7000,35.188,72.228,57.412,100,,,1,,,,,,,61,og-post,,,,AAXX 12164 07558 21457 81019 10077 20063 39315 40156 58009 76166 885// 333 60015 84610 87616 91031 91139=
07558,1999-11-12 17:00:00,7.6,1015.3,-1.2,93,6.5,,22.224,,,80,,,4,,,,,,,,og-post,,,,AAXX 12174 07558 26/// /0812 10076 20065 39312 40153 56012 333 60045=
07558,1999-11-12 18:00:00,8.3,1015,-0.9,90,6.8,,50.004,90.748,90.748,100,,,,7,,,,,,,og-post,,,,AAXX 12184 07558 26/// /1027 10083 20068 39311 40150 56009 333 60077 91049 91149=
07558,1999-11-12 19:00:00,8.2,1015.1,-0.3,92,7,,31.484,72.228,53.708,100,,,1,,,,,,,,og-post,,,,AAXX 12194 07558 26/// /1017 10082 20070 39312 40151 55003 333 60015 91029 91139=
07558,1999-11-12 20:00:00,8.8,1014.2,-0.7,88,6.9,,57.412,94.452,94.452,110,,,0.4,,,,,,,,og-post,,,,AAXX 12204 07558 26/// /1131 10088 20069 39305 40142 58007 333 69945 91051 91151=
07558,1999-11-12 21:00:00,9.2,1014.3,-0.4,87,7.2,,64.82,96.304,96.304,110,,,,1,,,,,,,og-post,,,,AAXX 12214 07558 26/// /1135 10092 20072 39307 40143 55004 333 60017 91052 91152=
07558,1999-11-12 22:00:00,8.8,1014.5,-0.4,92,7.6,,61.116,111.12,90.748,110,,,0.4,,,,,,,,og-post,,,,AAXX 12224 07558 26/// /1133 10088 20076 39308 40145 55004 333 69945 91049 91160=
07558,1999-11-12 23:00:00,8.7,1014,-0.2,92,7.5,,53.708,96.304,87.044,110,,,0.4,,,,,,,,og-post,,,,AAXX 12234 07558 26/// /1129 10087 20075 39303 40140 58002 333 69945 91047 91152=
07558,1999-11-13 00:00:00,9.2,1014.2,-0.1,89,7.5,,57.412,111.12,87.044,110,,,,1,3,,,,,,og-post,,,,AAXX 13004 07558 /6/// /1131 10092 20075 39306 40142 55001 60031 333 60017 91047 91160=
07558,1999-11-13 01:00:00,9.3,1013.7,-0.6,89,7.6,,57.412,94.452,90.748,110,,,,,,,,,,,og-post,,,,AAXX 13014 07558 26/// /1131 10093 20076 39302 40137 56006 333 69905 91049 91151=
07558,1999-11-13 02:00:00,9.4,1013.8,0,87,7.3,,50.004,83.34,75.932,110,,,0.2,,,,,,,,og-post,,,,AAXX 13024 07558 26/// /1127 10094 20073 39303 40138 50000 333 69925 91041 91145=
07558,1999-11-13 03:00:00,9.5,1013.4,-0.6,87,7.4,,42.596,94.452,72.228,100,,,,0.2,,,,,,,og-post,,,,AAXX 13034 07558 26/// /1023 10095 20074 39300 40134 56006 333 69927 91039 91151=
07558,1999-11-13 04:00:00,9.5,1012.8,-0.8,87,7.4,,46.3,75.932,75.932,100,,,,,,,,,,,og-post,,,,AAXX 13044 07558 26/// /1025 10095 20074 39294 40128 58008 333 69905 91041 91141=
07558,1999-11-13 05:00:00,9,1013.2,-0.6,91,7.6,8000,42.596,83.34,64.82,110,,,0.6,,,,,,,60,og-post,,,,AAXX 13054 07558 21458 81123 10090 20076 39297 40132 55006 76062 885// 333 69965 84610 86620 91035 91145=
07558,1999-11-13 06:00:00,8.5,1014,0.3,93,7.4,10000,18.52,94.452,,130,8,9.7,,2,,5,,,7,61,og-post,,,,AAXX 13064 07558 /1460 81310 10085 20074 39303 40140 53003 60052 76162 885// 333 10097 20080 32007 55/// 60027 83610 87620 91151=
07558,1999-11-13 07:00:00,8.3,1014.7,1.4,94,7.4,7000,25.928,,,100,,,3,,,,,,,95,og-post,,,,AAXX 13074 07558 21457 81014 10083 20074 39308 40147 53014 79596 889// 333 60035 83810 84913 86620=
07558,1999-11-13 08:00:00,8.2,1014.5,0.9,95,7.4,6000,14.816,,,70,,,4,,,,,,,95,og-post,,,,AAXX 13084 07558 21456 80708 10082 20074 39306 40145 50009 79599 889// 333 60045 83810 84913 86620=
07558,1999-11-13 09:00:00,8.3,1013.8,-0.3,97,7.9,6000,11.112,,,60,,,,11,,,,,,95,og-post,,,,AAXX 13094 07558 21456 80606 10083 20079 39300 40138 58003 79596 889// 333 60117 83810 84913 87620=
07558,1999-11-13 10:00:00,8.6,1013.7,-0.8,95,7.8,6000,11.112,,,90,,,4,,,,,,,95,og-post,,,,AAXX 13104 07558 21456 80906 10086 20078 39300 40137 56008 79599 889// 333 60045 84810 82915 87620=
07558,1999-11-13 11:00:00,8.6,1013.2,-1,97,8.2,7000,7.408,,,50,,,5,,,,,,,95,og-post,,,,AAXX 13114 07558 21457 80504 10086 20082 39296 40132 56010 79599 889// 333 60055 85810 83916 87620=
07558,1999-11-13 12:00:00,8.6,1012.8,-0.8,97,8.2,,11.112,,,70,,,,16,28,,,,,,og-post,,,,AAXX 13124 07558 /6/// /0706 10086 20082 39292 40128 58008 60281 333 60167=
07558,1999-11-13 13:00:00,8.6,1011.6,-1.9,98,8.3,,14.816,,,50,,,8,,,,,,,,og-post,,,,AAXX 13134 07558 26/// /0508 10086 20083 39281 40116 58019 333 60085=
07558,1999-11-13 14:00:00,9,1010.3,-2.6,93,7.9,,25.928,,,70,,,4,,,,,,,,og-post,,,,AAXX 13144 07558 26/// /0714 10090 20079 39270 40103 58026 333 60045=
07558,1999-11-13 15:00:00,9.1,1010.1,-2.3,94,8.2,,22.224,,,90,,,,14,,,,,,,og-post,,,,AAXX 13154 07558 26/// /0912 10091 20082 39269 40101 56023 333 60147=
07558,1999-11-13 16:00:00,9,1009.8,-1.5,93,7.9,,22.224,,,100,,,0.4,,,,,,,,og-post,,,,AAXX 13164 07558 26/// /1012 10090 20079 39266 40098 56015 333 69945=
07558,1999-11-13 17:00:00,9,1009.8,-0.4,93,7.9,,22.224,,,100,,,0.6,,,,,,,,og-post,,,,AAXX 13174 07558 26/// /1012 10090 20079 39266 40098 56004 333 69965=
07558,1999-11-13 18:00:00,9,1009.6,-0.5,93,7.9,,29.632,,50.004,90,7.9,9.2,,2,,44,,,,,og-post,,,,AAXX 13184 07558 /6/// /0916 10090 20079 39264 40096 56005 60442 333 10092 20079 60027 91027=
07558,1999-11-13 19:00:00,8.5,1009.8,-0.2,93,7.4,,22.224,,,100,,,1,,,,,,,,og-post,,,,AAXX 13194 07558 26/// /1012 10085 20074 39264 40098 57002 333 60015=
07558,1999-11-13 20:00:00,8.5,1009.8,-0.2,92,7.3,,22.224,,,90,,,0.2,,,,,,,,og-post,,,,AAXX 13204 07558 26/// /0912 10085 20073 39264 40098 56002 333 69925=
07558,1999-11-13 21:00:00,8.2,1010.1,0.2,94,7.3,,11.112,,,70,,,,2,,,,,,,og-post,,,,AAXX 13214 07558 26/// /0706 10082 20073 39266 40101 53002 333 60027=
07558,1999-11-14 00:00:00,7.3,1010.1,-0.3,98,7,,7.408,,,30,,,,1,3,,,,,,og-post,,,,AAXX 14004 07558 /6/// /0304 10073 20070 39263 40101 58003 60031 333 60017=
07558,1999-11-14 03:00:00,6.5,1009,-1.2,98,6.2,,7.408,,,30,,,,0.2,,,,,,,og-post,,,,AAXX 14034 07558 26/// /0304 10065 20062 39251 40090 58012 333 69927=
07558,1999-11-14 04:00:00,6.4,1008.8,-1.1,98,6.1,,3.704,,,10,,,,,,,,,,,og-post,,,,AAXX 14044 07558 36/// /0102 10064 20061 39249 40088 56011=
07558,1999-11-14 05:00:00,6.4,1008.6,-0.9,97,6,15000,11.112,,,30,,,,,,,,,,,og-post,,,,AAXX 14054 07558 32565 70306 10064 20060 39247 40086 56009 875//333 84620 85630=
07558,1999-11-14 06:00:00,6.3,1008.9,-0.2,99,6.2,20000,7.408,,,80,6.3,9,,,,4,47.2,,6,1,og-post,,,,AAXX 14064 07558 11570 70804 10063 20062 39249 40089 55002 60042 70162 875// 333 10090 20063 31006 55000 70472 83620 85633=
07558,1999-11-14 07:00:00,6.3,1009.3,0.4,96,5.7,12000,7.408,,,70,,,0.8,,,,,,,61,og-post,,,,AAXX 14074 07558 21462 70704 10063 20057 39253 40093 53004 76162 875// 333 69985 84616 86630=
07558,1999-11-14 08:00:00,6.6,1009.8,1.1,94,5.7,15000,14.816,,,110,,,,,,,,,,21,og-post,,,,AAXX 14084 07558 21465 71108 10066 20057 39258 40098 53011 72162 875// 333 69905 83613 86626=
07558,1999-11-14 09:00:00,7.4,1009.6,1,89,5.7,20000,14.816,,,110,,,,0.8,,,,,,1,og-post,,,,AAXX 14094 07558 21470 71108 10074 20057 39259 40096 51010 70162 878// 333 69987 83811 86625=
07558,1999-11-14 10:00:00,8.2,1009.3,0.5,84,5.7,12000,18.52,,,110,,,,,,,,,,,og-post,,,,AAXX 14104 07558 32462 71110 10082 20057 39258 40093 50005 878// 333 84810 86620=
07558,1999-11-14 11:00:00,7.9,1009.3,-0.1,80,4.7,15000,29.632,,,110,,,,,,,,,,,og-post,,,,AAXX 14114 07558 32465 71116 10079 20047 39257 40093 58001 878// 333 83813 86625=
07558,1999-11-14 12:00:00,7.9,1008.9,-0.5,80,4.7,,14.816,,,100,,,,,0.8,,,,,,og-post,,,,AAXX 14124 07558 16/// /1008 10079 20047 39254 40089 58005 69981=
07558,1999-11-14 13:00:00,8.5,1008.3,-0.8,79,5.1,,25.928,,,110,,,,,,,,,,,og-post,,,,AAXX 14134 07558 36/// /1114 10085 20051 39250 40083 58008=
07558,1999-11-14 14:00:00,8.8,1008.1,-0.8,77,5,,22.224,,,120,,,,,,,,,,,og-post,,,,AAXX 14144 07558 36/// /1212 10088 20050 39249 40081 56008=
07558,1999-11-14 15:00:00,7.6,1008.5,-0.5,79,4.2,,22.224,,,120,,,,,,,,,,,og-post,,,,AAXX 14154 07558 36/// /1212 10076 20042 39249 40085 56005=
07558,1999-11-14 16:00:00,7.5,1008.3,-0.3,81,4.5,,22.224,,,100,,,,,,,,,,,og-post,,,,AAXX 14164 07558 36/// /1012 10075 20045 39247 40083 58003=
07558,1999-11-14 17:00:00,6.4,1008.7,-0.2,83,3.7,,18.52,,,90,,,,,,,,,,,og-post,,,,AAXX 14174 07558 36/// /0910 10064 20037 39247 40087 57002=
07558,1999-11-14 18:00:00,6.6,1009.2,0.3,82,3.8,,22.224,,,100,6.2,9.6,,,,0.8,,,,,og-post,,,,AAXX 14184 07558 16/// /1012 10066 20038 39252 40092 53003 69982 333 10096 20062=
07558,1999-11-14 19:00:00,5.4,1010.1,1,92,4.2,,14.816,,,70,,,0.8,,,,,,,,og-post,,,,AAXX 14194 07558 26/// /0708 10054 20042 39257 40101 53010 333 69985=
07558,1999-11-14 20:00:00,4.5,1010.2,0.9,97,4.1,,14.816,,,20,,,2,,,,,,,,og-post,,,,AAXX 14204 07558 26/// /0208 10045 20041 39256 40102 50009 333 60025=
07558,1999-11-14 21:00:00,4.8,1009.8,0.1,94,3.9,,18.52,,,50,,,,3,,,,,,,og-post,,,,AAXX 14214 07558 26/// /0510 10048 20039 39253 40098 50001 333 60037=
07558,1999-11-14 22:00:00,5.4,1009.5,-0.5,93,4.4,,14.816,,,60,,,0.4,,,,,,,,og-post,,,,AAXX 14224 07558 26/// /0608 10054 20044 39252 40095 57005 333 69945=
07558,1999-11-14 23:00:00,5.5,1009.6,-0.3,93,4.5,,14.816,,,40,,,,,,,,,,,og-post,,,,AAXX 14234 07558 36/// /0408 10055 20045 39253 40096 55003=
07558,1999-11-15 00:00:00,6.3,1009,-0.3,83,3.6,,22.224,,,90,,,,0.4,3,,,,,,og-post,,,,AAXX 15004 07558 /6/// /0912 10063 20036 39250 40090 58003 60031 333 69947=
07558,1999-11-15 01:00:00,4.6,1009.5,-0.2,98,4.3,,3.704,,,290,,,,,,,,,,,og-post,,,,AAXX 15014 07558 36/// /2902 10046 20043 39250 40095 58002=
07558,1999-11-15 02:00:00,4.8,1009.3,-0.5,96,4.2,,11.112,,,40,,,,,,,,,,,og-post,,,,AAXX 15024 07558 36/// /0406 10048 20042 39248 40093 56005=
07558,1999-11-15 03:00:00,4.5,1009.3,-0.3,87,2.5,,22.224,,,10,,,,,,,,,,,og-post,,,,AAXX 15034 07558 36/// /0112 10045 20025 39247 40093 58003=
07558,1999-11-15 04:00:00,4.6,1009.5,-0.1,82,1.8,,22.224,,,10,,,,,,,,,,,og-post,,,,AAXX 15044 07558 36/// /0112 10046 20018 39249 40095 55001=
07558,1999-11-15 05:00:00,3.9,1009.6,-0,83,1.3,25000,22.224,,,10,,,,,,,,,,,og-post,,,,AAXX 15054 07558 32975 30112 10039 20013 39248 40096 54000 81031 333 81360 83075=
07558,1999-11-15 06:00:00,3.6,1010.5,0.8,83,1,25000,29.632,,,10,3.6,6.5,,,,3,4,1,2,,og-post,,,,AAXX 15064 07558 12575 40116 10036 20010 39255 40105 53008 60032 82530 333 10065 20036 31002 55010 70040 82630 83360=
07558,1999-11-15 07:00:00,2.9,1011.1,1,85,0.6,25000,22.224,,,30,,,,,,,,,,,og-post,,,,AAXX 15074 07558 32575 20312 10029 20006 39259 40111 53010 82500 333 82630=
07558,1999-11-15 08:00:00,3.4,1011.4,1.5,82,0.6,30000,25.928,,,10,,,,,,,,,,,og-post,,,,AAXX 15084 07558 32580 20114 10034 20006 39263 40114 51015 82500 333 82630=
07558,1999-11-15 09:00:00,4.8,1011,0.8,77,1.1,30000,25.928,,,20,,,,,,,,,,,og-post,,,,AAXX 15094 07558 32580 10214 10048 20011 39263 40110 51008 81500 333 81630=
07558,1999-11-15 10:00:00,5.8,1011.1,0.8,73,1.3,30000,29.632,,,10,,,,,,,,,,,og-post,,,,AAXX 15104 07558 32580 10116 10058 20013 39267 40111 52008 81100 333 81830=
07558,1999-11-15 11:00:00,6.3,1011.1,0.6,69,1,30000,22.224,,,10,,,,,,,,,,,og-post,,,,AAXX 15114 07558 32580 20112 10063 20010 39269 40111 53006 82101 333 82830=
07558,1999-11-15 12:00:00,6.3,1010.8,0.3,67,0.6,30000,22.224,,,360,,,,,,,,,,,og-post,,,,AAXX 15124 07558 32580 43612 10063 20006 39266 40108 50003 83130 333 83830 83360=
07558,1999-11-15 13:00:00,6.3,1010.6,-0.3,65,0.2,20000,22.224,,,360,,,,,,,,,,,og-post,,,,AAXX 15134 07558 32570 53612 10063 20002 39264 40106 58003 85830 333 83830 84633=
07558,1999-11-15 14:00:00,5.8,1010.6,-0.7,66,0,20000,29.632,,,10,,,,,,,,,,,og-post,,,,AAXX 15144 07558 32570 50116 10058 20000 39262 40106 56007 85830 333 83830 84633=
07558,1999-11-15 15:00:00,4.9,1011.4,0.1,63,-1.5,20000,31.484,,,10,,,,,,,,,,,og-post,,,,AAXX 15154 07558 32570 60117 10049 21015 39267 40114 53001 86800 333 83830 85633=
07558,1999-11-15 16:00:00,3.6,1012.4,0.8,66,-2.1,20000,25.928,,,10,,,,,,,,,,,og-post,,,,AAXX 15164 07558 32570 40114 10036 21021 39272 40124 53008 84800 333 82830 84633=
07558,1999-11-15 17:00:00,2.8,1013.3,1.6,67,-2.7,,22.224,,,360,,,,,,,,,,,og-post,,,,AAXX 15174 07558 36/// /3612 10028 21027 39278 40133 53016=
07558,1999-11-15 18:00:00,2.1,1014.2,1.7,70,-2.8,,18.52,,,360,2,6.9,,,,,,,,,og-post,,,,AAXX 15184 07558 36/// /3610 10021 21028 39284 40142 53017 333 10069 20020=
07558,1999-11-15 19:00:00,1.7,1014.3,1.2,71,-3,,29.632,,,360,,,,,,,,,,,og-post,,,,AAXX 15194 07558 36/// /3616 10017 21030 39284 40143 51012=
07558,1999-11-15 20:00:00,1.4,1014.6,0.8,69,-3.6,,31.484,,,360,,,,,,,,,,,og-post,,,,AAXX 15204 07558 36/// /3617 10014 21036 39286 40146 51008=
07558,1999-11-15 21:00:00,1.5,1014.8,0.4,70,-3.4,,25.928,,,360,,,,,,,,,,,og-post,,,,AAXX 15214 07558 36/// /3614 10015 21034 39288 40148 53004=
07558,1999-11-15 22:00:00,1.3,1015.1,0.6,71,-3.4,,29.632,,,350,,,,,,,,,,,og-post,,,,AAXX 15224 07558 36/// /3516 10013 21034 39290 40151 52006=
07558,1999-11-15 23:00:00,1.1,1015.3,0.5,72,-3.4,,22.224,,,350,,,,,,,,,,,og-post,,,,AAXX 15234 07558 36/// /3512 10011 21034 39291 40153 51005=
07558,1999-11-16 00:00:00,1.4,1015.4,0.5,71,-3.3,,18.52,,,350,,,,,,,,,,,og-post,,,,AAXX 16004 07558 36/// /3510 10014 21033 39293 40154 52005=
07558,1999-11-16 01:00:00,0.8,1015.7,0.4,70,-4,,18.52,,,340,,,,,,,,,,,og-post,,,,AAXX 16014 07558 36/// /3410 10008 21040 39294 40157 52004=
07558,1999-11-16 02:00:00,0.9,1016.1,0.7,73,-3.4,,14.816,,,300,,,,,,,,,,,og-post,,,,AAXX 16024 07558 36/// /3008 10009 21034 39298 40161 53007=
07558,1999-11-16 03:00:00,0.8,1015.8,0.2,76,-2.9,,11.112,,,300,,,,,,,,,,,og-post,,,,AAXX 16034 07558 36/// /3006 10008 21029 39295 40158 50002=
07558,1999-11-16 04:00:00,0.7,1016,0.2,72,-3.8,,11.112,,,310,,,,,,,,,,,og-post,,,,AAXX 16044 07558 36/// /3106 10007 21038 39296 40160 51002=
07558,1999-11-16 05:00:00,0.7,1016,-0.2,69,-4.3,25000,7.408,,,310,,,,,,,,,,,og-post,,,,AAXX 16054 07558 32675 33104 10007 21043 39296 40160 56002 83500 333 83633=
07558,1999-11-16 06:00:00,-0.2,1016.6,0.4,75,-4.1,25000,7.408,,,290,-0.2,2.1,,,,,0,5.1,-2,,og-post,,,,AAXX 16064 07558 32675 42904 11002 21041 39299 40166 53004 84500 333 10021 21002 30102 55051 70000 84633=
07558,1999-11-16 07:00:00,-0.7,1017.3,0.8,78,-4,25000,11.112,,,290,,,,,,,,,,,og-post,,,,AAXX 16074 07558 32675 32906 11007 21040 39304 40173 53008 83500 333 83633=
07558,1999-11-16 08:00:00,0.3,1017.4,1.2,82,-2.4,20000,11.112,,,300,,,,,,,,,,,og-post,,,,AAXX 16084 07558 32670 43006 10003 21024 39308 40174 53012 84500 333 84633=
07558,1999-11-16 09:00:00,1.4,1017.5,1.3,78,-2,20000,14.816,,,280,,,,,,,,,,,og-post,,,,AAXX 16094 07558 32670 52808 10014 21020 39312 40175 51013 85500 333 85633=
07558,1999-11-16 10:00:00,2.4,1017.4,1,68,-2.9,20000,18.52,,,290,,,,,,,,,,,og-post,,,,AAXX 16104 07558 32570 62910 10024 21029 39314 40174 51010 86800 333 83830 84640=
07558,1999-11-16 11:00:00,2.4,1017.1,0.4,67,-3.1,20000,18.52,,,290,,,,,,,,,,,og-post,,,,AAXX 16114 07558 32570 62910 10024 21031 39312 40171 50004 86800 333 84830 84640=
07558,1999-11-16 12:00:00,2.1,1016.9,-0.3,69,-3,20000,22.224,,,290,,,,,,,,,,,og-post,,,,AAXX 16124 07558 32570 72912 10021 21030 39309 40169 58003 878// 333 84830 86633=
07558,1999-11-16 13:00:00,1.9,1016.9,-0.6,67,-3.6,20000,25.928,,,300,,,,,,,,,,,og-post,,,,AAXX 16134 07558 32570 73014 10019 21036 39308 40169 56006 878// 333 84823 86630=
07558,1999-11-16 14:00:00,0.1,1017.6,-0.2,92,-1,15000,25.928,,,240,,,,,,,,,,,og-post,,,,AAXX 16144 07558 32565 72414 10001 21010 39310 40176 55002 878// 333 84820 86626=
07558,1999-11-16 16:00:00,0,1018.2,0.7,83,-2.5,15000,25.928,,,260,,,,,,,,,,,og-post,,,,AAXX 16164 07558 32565 62614 10000 21025 39315 40182 51007 86500 333 86626=
07558,1999-11-16 17:00:00,-0.3,1019,1.1,83,-2.8,,22.224,,,280,,,,,,,,,,,og-post,,,,AAXX 16174 07558 36/// /2812 11003 21028 39321 40190 53011=
07558,1999-11-16 18:00:00,-0.5,1019.7,1.2,85,-2.7,,38.892,,,300,-1.1,2.7,,,,,,,,,og-post,,,,AAXX 16184 07558 36/// /3021 11005 21027 39327 40197 53012 333 10027 21011=
07558,1999-11-16 19:00:00,-0.6,1020.3,1.7,81,-3.4,,35.188,53.708,,300,,,,,,,,,,,og-post,,,,AAXX 16194 07558 36/// /3019 11006 21034 39332 40203 51017 333 91129=
07558,1999-11-16 20:00:00,-0.7,1020.7,1.4,78,-4,,29.632,,50.004,300,,,,,,,,,,,og-post,,,,AAXX 16204 07558 36/// /3016 11007 21040 39335 40207 51014 333 91027=
07558,1999-11-16 21:00:00,-1.2,1021.4,1.3,80,-4.2,,22.224,53.708,,290,,,,,,,,,,,og-post,,,,AAXX 16214 07558 36/// /2912 11012 21042 39340 40214 52013 333 91129=
07558,1999-11-16 22:00:00,-1.5,1021.1,0.4,82,-4.2,,18.52,,,300,,,,,,,,,,,og-post,,,,AAXX 16224 07558 36/// /3010 11015 21042 39336 40211 50004=
07558,1999-11-16 23:00:00,-1.9,1020.8,-0.3,83,-4.4,,11.112,,,300,,,,,,,,,,,og-post,,,,AAXX 16234 07558 36/// /3006 11019 21044 39332 40208 58003=
07558,1999-11-17 00:00:00,-1.9,1020.8,-0.8,82,-4.6,,18.52,53.708,,300,,,,,,,,,,,og-post,,,,AAXX 17004 07558 36/// /3010 11019 21046 39332 40208 56008 333 91129=
07558,1999-11-17 01:00:00,-2,1020.7,-0.5,83,-4.5,,18.52,,,280,,,,,,,,,,,og-post,,,,AAXX 17014 07558 36/// /2810 11020 21045 39331 40207 56005=
07558,1999-11-17 02:00:00,-2.1,1020.6,-0.2,87,-4,,3.704,,,280,,,,,,,,,,,og-post,,,,AAXX 17024 07558 36/// /2802 11021 21040 39330 40206 58002=
07558,1999-11-17 03:00:00,-1.5,1019.6,-0.9,88,-3.2,,29.632,,,300,,,,,,,,,,,og-post,,,,AAXX 17034 07558 36/// /3016 11015 21032 39323 40196 58009=
07558,1999-11-17 04:00:00,-1.6,1019.7,-0.8,89,-3.2,,18.52,,,270,,,,,,,,,,,og-post,,,,AAXX 17044 07558 36/// /2710 11016 21032 39323 40197 56008=
07558,1999-11-17 05:00:00,-1.4,1019.7,-0.6,92,-2.5,15000,11.112,,,310,,,,,,,,,,71,og-post,,,,AAXX 17054 07558 21565 63106 11014 21025 39324 40197 55006 77172 86500 333 69905 86626=
07558,1999-11-17 06:00:00,-1.5,1019.7,0.1,99,-1.6,,14.816,,,260,-2.2,-0.4,,0.6,,0.6,,1.2,-3,,og-post,,,,AAXX 17064 07558 /6/// /2608 11015 21016 39324 40197 52001 69962 333 11004 21022 3/103 55012 69967 70006=
07558,1999-11-17 07:00:00,-1.2,1019.7,0.2,100,-1.2,800,7.408,,,220,,,0.2,,,,,,,85,og-post,,,,AAXX 17074 07558 21/08 92204 11012 21012 39325 40197 52002 78587 333 69925 93101=
07558,1999-11-17 08:00:00,-0.7,1020.5,1,100,-0.7,2000,3.704,,,270,,,0.4,,,,,,,28,og-post,,,,AAXX 17084 07558 21320 72702 11007 21007 39334 40205 53010 72874 875// 333 69945 83706 86626=
07558,1999-11-17 09:00:00,0.2,1020.3,1.1,96,-0.4,20000,25.928,,,320,,,,0.6,,,,,,1,og-post,,,,AAXX 17094 07558 21370 73214 10002 21004 39335 40203 52011 70174 875// 333 69967 82706 87626=
07558,1999-11-17 10:00:00,0.1,1021.3,1.8,93,-0.9,20000,25.928,53.708,,320,,,,,,,,,,,og-post,,,,AAXX 17104 07558 32370 73214 10001 21009 39343 40213 51018 875// 333 82706 87626 91129=
07558,1999-11-17 11:00:00,0.1,1021.5,1.1,91,-1.2,20000,29.632,,,310,,,,,,,,,,,og-post,,,,AAXX 17114 07558 32570 73116 10001 21012 39345 40215 53011 875// 333 87626=
07558,1999-11-17 12:00:00,0.3,1021.3,0.9,89,-1.3,20000,31.484,57.412,,320,,,,,0.6,,,,,1,og-post,,,,AAXX 17124 07558 11570 63217 10003 21013 39344 40213 50009 69961 70174 86200 333 86826 91131=
07558,1999-11-17 13:00:00,0.6,1021,-0.1,87,-1.3,30000,25.928,,,310,,,,,,,,,,,og-post,,,,AAXX 17134 07558 32580 63114 10006 21013 39342 40210 58001 86200 333 86826=
07558,1999-11-17 14:00:00,0.6,1021,-0.3,85,-1.6,30000,29.632,57.412,50.004,290,,,,,,,,,,,og-post,,,,AAXX 17144 07558 33580 62916 10006 21016 39342 40210 56003 86200 333 86826 91027 91131=
07558,1999-11-17 15:00:00,0.8,1020.7,-0.4,88,-1,30000,29.632,57.412,,300,,,,,,,,,,,og-post,,,,AAXX 17154 07558 32580 63016 10008 21010 39340 40207 57004 86200 333 86826 91131=
07558,1999-11-17 16:00:00,1.2,1020,-0.7,87,-0.7,30000,25.928,,,270,,,,,,,,,,,og-post,,,,AAXX 17164 07558 32580 62714 10012 21007 39335 40200 58007 86200 333 83823 85826=
07558,1999-11-17 17:00:00,1,1020.2,-0.6,92,-0.1,,11.112,,,270,,,0.2,,,,,,,,og-post,,,,AAXX 17174 07558 26/// /2706 10010 21001 39336 40202 55006 333 69925=
07558,1999-11-17 18:00:00,1,1020.5,-0.1,97,0.6,,22.224,57.412,,300,-1.5,1.3,,1,,2,,,,,og-post,,,,AAXX 17184 07558 /6/// /3012 10010 20006 39339 40205 55001 60022 333 10013 21015 60017 91131=
07558,1999-11-17 19:00:00,0.8,1020.8,0.6,98,0.5,,11.112,,,260,,,1,,,,,,,,og-post,,,,AAXX 17194 07558 26/// /2606 10008 20005 39341 40208 53006 333 60015=
07558,1999-11-17 20:00:00,1.6,1020.4,0.4,91,0.3,,29.632,50.004,50.004,310,,,,,,,,,,,og-post,,,,AAXX 17204 07558 36/// /3116 10016 20003 39340 40204 50004 333 91027 91127=
07558,1999-11-17 21:00:00,1.4,1021.1,0.7,88,-0.4,,25.928,,,300,,,,1,,,,,,,og-post,,,,AAXX 17214 07558 26/// /3014 10014 21004 39346 40211 53007 333 60017=
07558,1999-11-17 22:00:00,0.4,1021.6,0.6,97,0,,11.112,,,300,,,0.6,,,,,,,,og-post,,,,AAXX 17224 07558 26/// /3006 10004 20000 39347 40216 53006 333 69965=
07558,1999-11-17 23:00:00,0.2,1022,1,89,-1.4,,29.632,,,300,,,,,,,,,,,og-post,,,,AAXX 17234 07558 36/// /3016 10002 21014 39350 40220 51010=
07558,1999-11-18 00:00:00,0.2,1022.2,0.6,83,-2.3,,31.484,57.412,57.412,290,,,,0.6,2,,,,,,og-post,,,,AAXX 18004 07558 /6/// /2917 10002 21023 39352 40222 53006 60021 333 69967 91031 91131=
07558,1999-11-18 01:00:00,-0.1,1022.4,0.6,84,-2.5,,35.188,,,300,,,,,,,,,,,og-post,,,,AAXX 18014 07558 36/// /3019 11001 21025 39353 40224 51006=
07558,1999-11-18 02:00:00,-0.6,1023.4,1,83,-3.1,,29.632,57.412,,300,,,,,,,,,,,og-post,,,,AAXX 18024 07558 36/// /3016 11006 21031 39360 40234 53010 333 91131=
07558,1999-11-18 03:00:00,-0.9,1023.1,0.5,85,-3.1,,31.484,57.412,,310,,,,,,,,,,,og-post,,,,AAXX 18034 07558 36/// /3117 11009 21031 39357 40231 50005 333 91131=
07558,1999-11-18 04:00:00,-1.2,1022.9,0.1,87,-3.1,,29.632,,,300,,,,,,,,,,,og-post,,,,AAXX 18044 07558 36/// /3016 11012 21031 39354 40229 50001=
07558,1999-11-18 05:00:00,-1.9,1023,-0.7,90,-3.3,10000,14.816,,,280,,,,,,,,,,,og-post,,,,AAXX 18054 07558 32960 02808 11019 21033 39353 40230 56007=
07558,1999-11-18 06:00:00,-1.2,1022.3,-0.9,90,-2.6,10000,22.224,57.412,,260,-1.9,1.7,,,,2,3.4,,-3,,og-post,,,,AAXX 18064 07558 12960 02612 11012 21026 39348 40223 58009 60022 333 10017 21019 31103 55000 70034 91131=
07558,1999-11-18 07:00:00,-0.7,1021.9,-0.8,91,-2,10000,11.112,,,250,,,,,,,,,,,og-post,,,,AAXX 18074 07558 32560 52506 11007 21020 39346 40219 58008 85500 333 85626=
07558,1999-11-18 08:00:00,0.4,1,-1,89,-1.2,10000,14.816,,,250,,,,,,,,,,,og-post,,,,AAXX 18084 07558 32560 62508 10004 21012 3934340212 56010 86500 333 85626=
07558,1999-11-18 09:00:00,1.7,1019.8,-1.3,89,0.1,10000,14.816,,,240,,,,,,,,,,,og-post,,,,AAXX 18094 07558 32560 72408 10017 20001 39335 40198 58013 87500 333 87626=
07558,1999-11-18 10:00:00,2,1018.8,-1.9,97,1.6,,14.816,,,240,,,0.2,,,,,,,,og-post,,,,AAXX 18104 07558 26/// /2408 10020 20016 39327 40188 58019 333 69925=
07558,1999-11-18 11:00:00,2.3,1016.8,-3.4,99,2.2,6000,22.224,,,230,,,0.2,,,,,,,25,og-post,,,,AAXX 18114 07558 21556 82312 10023 20022 39309 40168 58034 72586 885// 333 69925 88620=
07558,1999-11-18 12:00:00,3,1014.7,-4.3,100,3,1000,25.928,,,220,,,,0.6,0.6,,,,,25,og-post,,,,AAXX 18124 07558 /1410 82214 10030 20030 39292 40147 58043 69961 72586 885// 333 69967 88616=
07558,1999-11-18 13:00:00,3.9,1013.2,-4.6,100,3.9,4000,25.928,50.004,,220,,,0.6,,,,,,,60,og-post,,,,AAXX 18134 07558 21440 82214 10039 20039 39281 40132 56046 76086 885// 333 69965 88616 91127=
07558,1999-11-18 14:00:00,4.9,1011.3,-4.2,100,4.9,4000,25.928,,,230,,,0.4,,,,,,,60,og-post,,,,AAXX 18144 07558 21440 82314 10049 20049 39267 40113 56042 76066 885// 333 69945 88616=
07558,1999-11-18 15:00:00,5.8,1009.8,-3.6,99,5.7,4000,22.224,50.004,,240,,,,1,,,,,,60,og-post,,,,AAXX 18154 07558 21440 82412 10058 20057 39256 40098 57036 76086 885// 333 60017 88616 91127=
07558,1999-11-18 16:00:00,6.2,1008.1,-3.9,98,5.9,4000,25.928,,,260,,,0.8,,,,,,,60,og-post,,,,AAXX 18164 07558 21440 82614 10062 20059 39242 40081 57039 76066 885// 333 69985 88616=
07558,1999-11-18 19:00:00,6.8,1002.6,-4.9,98,6.5,,42.596,79.636,64.82,250,,,1,,,,,,,,og-post,,,,AAXX 18194 07558 26/// /2523 10068 20065 39193 40026 58049 333 60015 91035 91143=
07558,1999-11-18 20:00:00,6.9,1000.6,-5.2,99,6.8,,42.596,75.932,68.524,250,,,4,,,,,,,,og-post,,,,AAXX 18204 07558 26/// /2523 10069 20068 39175 40006 58052 333 60045 91037 91141=
07558,1999-11-18 21:00:00,4.1,1003,-2.6,96,3.5,,53.708,79.636,,340,,,,12,,,,,,,og-post,,,,AAXX 18214 07558 26/// /3429 10041 20035 39188 40030 55026 333 60127 91143=
07558,1999-11-18 22:00:00,3,1003.3,-0.5,93,2,,50.004,96.304,,330,,,0.4,,,,,,,,og-post,,,,AAXX 18224 07558 26/// /3327 10030 20020 39188 40033 56005 333 69945 91152=
07558,1999-11-18 23:00:00,1.6,1005.6,2.9,92,0.4,,38.892,68.524,,330,,,,,,,,,,,og-post,,,,AAXX 18234 07558 26/// /3321 10016 20004 39204 40056 53029 333 69905 91137=
07558,1999-11-19 00:00:00,1,1007.7,3.4,86,-1.1,,38.892,96.304,,330,,,,0.4,12,,,,,,og-post,,,,AAXX 19004 07558 /6/// /3321 10010 21011 39222 40077 53034 60121 333 69947 91152=
07558,1999-11-19 01:00:00,-0.2,1009.8,4.9,68,-5.4,,38.892,64.82,,350,,,,,,,,,,,og-post,,,,AAXX 19014 07558 26/// /3521 11002 21054 39237 40098 51049 333 69905 91135=
07558,1999-11-19 02:00:00,-1.1,1011.5,4.6,70,-5.9,,25.928,,,330,,,,,,,,,,,og-post,,,,AAXX 19024 07558 26/// /3314 11011 21059 39250 40115 51046 333 69905=
07558,1999-11-19 03:00:00,-1.8,1012.5,3.5,77,-5.3,,18.52,64.82,,290,,,,,,,,,,,og-post,,,,AAXX 19034 07558 26/// /2910 11018 21053 39257 40125 51035 333 69907 91135=
07558,1999-11-19 04:00:00,-2,1013.2,2.6,83,-4.5,,14.816,,,270,,,,,,,,,,,og-post,,,,AAXX 19044 07558 26/// /2708 11020 21045 39263 40132 51026 333 69905=
07558,1999-11-19 06:00:00,-1.4,1013.7,1.2,84,-3.7,10000,7.408,64.82,,270,-2.2,7.2,,,,12,16.8,0.2,-3,,og-post,,,,AAXX 19064 07558 12560 52704 11014 21037 39269 40137 51012 60122 85500 333 10072 21022 31103 55002 70168 85620 91135=
07558,1999-11-19 07:00:00,-1.4,1013.9,0.8,90,-2.8,10000,14.816,,,260,,,,,,,,,,,og-post,,,,AAXX 19074 07558 32560 72608 11014 21028 39271 40139 51008 87500 333 87620=
07558,1999-11-19 08:00:00,-0.7,1013.8,0.6,86,-2.7,10000,22.224,,,300,,,,,,,,,,,og-post,,,,AAXX 19084 07558 32560 73012 11007 21027 39272 40138 51006 87500 333 87620=
07558,1999-11-19 09:00:00,-0.1,1012.8,-0.4,82,-2.8,15000,35.188,,,310,,,,,,,,,,,og-post,,,,AAXX 19094 07558 32565 63119 11001 21028 39265 40128 58004 86500 333 86620=
07558,1999-11-19 10:00:00,0.3,1011.9,-1.3,77,-3.2,15000,35.188,61.116,61.116,300,,,,,,,,,,,og-post,,,,AAXX 19104 07558 32565 43019 10003 21032 39258 40119 58013 84500 333 84620 91033 91133=
07558,1999-11-19 11:00:00,0,1012.3,-1.1,81,-2.9,15000,25.928,,,310,,,,,,,,,,,og-post,,,,AAXX 19114 07558 32565 53114 10000 21029 39261 40123 55011 84500 333 85620=
07558,1999-11-19 12:00:00,-0.1,1012.5,-0.3,81,-3,15000,25.928,61.116,,290,,,,,,,,,,,og-post,,,,AAXX 19124 07558 32565 72914 11001 21030 39262 40125 55003 84700 333 87626 91133=
07558,1999-11-19 13:00:00,0.5,1012,0.1,78,-2.9,15000,25.928,,,280,,,,,,,,,,,og-post,,,,AAXX 19134 07558 32565 72814 10005 21029 39259 40120 50001 84700 333 87626=
07558,1999-11-19 14:00:00,0.5,1011.1,-1,79,-2.7,15000,35.188,,,300,,,,,,,,,,,og-post,,,,AAXX 19144 07558 32565 73019 10005 21027 39251 40111 58010 87700 333 87626=
07558,1999-11-19 15:00:00,0,1010.9,-1.4,88,-1.7,,35.188,61.116,,290,,,,,,,,,,,og-post,,,,AAXX 19154 07558 36/// /2919 10000 21017 39248 40109 57014 333 91133=
07558,1999-11-19 16:00:00,-0.1,1011.2,-0.9,88,-1.8,3000,38.892,,,300,,,,,,,,,,85,og-post,,,,AAXX 19164 07558 21530 83021 11001 21018 39250 40112 55009 78587 88800 333 69905 82820 86623=
07558,1999-11-19 17:00:00,-0.3,1011.1,-0.2,90,-1.7,,25.928,,,270,,,,,,,,,,,og-post,,,,AAXX 19174 07558 26/// /2714 11003 21017 39249 40111 56002 333 69905=
07558,1999-11-19 18:00:00,0.1,1010.9,0,86,-2,,29.632,61.116,,300,-1.5,1,,,,,,,,,og-post,,,,AAXX 19184 07558 /6/// /3016 10001 21020 39248 40109 50000 69902 333 10010 21015 69907 91133=
07558,1999-11-19 19:00:00,-0.4,1011.4,0.1,92,-1.5,,18.52,,,290,,,,,,,,,,,og-post,,,,AAXX 19194 07558 36/// /2910 11004 21015 39251 40114 53001=
07558,1999-11-19 20:00:00,-0.3,1010.8,-0.3,86,-2.3,,29.632,,,300,,,,,,,,,,,og-post,,,,AAXX 19204 07558 36/// /3016 11003 21023 39246 40108 58003=
07558,1999-11-19 21:00:00,-0.5,1010.5,-0.5,90,-1.9,,11.112,,,280,,,,,,,,,,,og-post,,,,AAXX 19214 07558 36/// /2806 11005 21019 39243 40105 58005=
07558,1999-11-19 22:00:00,-1,1010.4,-1.1,98,-1.3,,7.408,,,330,,,2,,,,,,,,og-post,,,,AAXX 19224 07558 26/// /3304 11010 21013 39240 40104 56011 333 60025=
07558,1999-11-19 23:00:00,-1.4,1009.8,-1.2,94,-2.2,,22.224,,,350,,,1,,,,,,,,og-post,,,,AAXX 19234 07558 26/// /3512 11014 21022 39234 40098 58012 333 60015=
07558,1999-11-20 00:00:00,-2,1010.7,-0.3,91,-3.3,,14.816,,,340,,,,3,3,,,,,,og-post,,,,AAXX 20004 07558 /6/// /3408 11020 21033 39240 40107 55003 60031 333 60037=
07558,1999-11-20 01:00:00,-2.2,1011.1,0.3,89,-3.8,,14.816,,,350,,,,,,,,,,,og-post,,,,AAXX 20014 07558 36/// /3508 11022 21038 39243 40111 53003=
07558,1999-11-20 02:00:00,-2.9,1011,0.6,88,-4.6,,29.632,,,330,,,,,,,,,,,og-post,,,,AAXX 20024 07558 36/// /3316 11029 21046 39240 40110 50006=
07558,1999-11-20 03:00:00,-3.9,1011.2,-0.2,87,-5.7,,25.928,,,340,,,,,,,,,,,og-post,,,,AAXX 20034 07558 36/// /3414 11039 21057 39238 40112 58002=
07558,1999-11-20 04:00:00,-3.7,1011.5,-0.1,78,-7,,14.816,,,350,,,,,,,,,,,og-post,,,,AAXX 20044 07558 36/// /3508 11037 21070 39242 40115 55001=
07558,1999-11-20 05:00:00,-4.6,1012,0.3,82,-7.2,10000,22.224,,,340,,,,,,,,,,,og-post,,,,AAXX 20054 07558 32360 13412 11046 21072 39243 40120 53003 81600 333 81706=
07558,1999-11-20 06:00:00,-3.9,1011.6,0.4,83,-6.4,10000,29.632,,,330,-4.6,0.1,,,,3,3.4,1.4,-6,,og-post,,4,,AAXX 20064 07558 12460 43316 11039 21064 39242 40116 50004 60032 84500 333 10001 21046 3/106 43004 55014 70034 84616=
07558,1999-11-20 07:00:00,-4.2,1011.5,-0.2,81,-7,15000,25.928,,,330,,,,,,,,,,,og-post,,,,AAXX 20074 07558 32565 43314 11042 21070 39240 40115 58002 84501 333 83620=
07558,1999-11-20 09:00:00,-2.5,1011.8,0.6,75,-6.3,15000,18.52,,,320,,,,,,,,,,,og-post,,,,AAXX 20094 07558 32565 43210 11025 21063 39248 40118 53006 83501 333 83620=
07558,1999-11-20 10:00:00,-1.9,1011.8,1,77,-5.4,15000,25.928,,,330,,,,,,,,,,,og-post,,,,AAXX 20104 07558 32565 43314 11019 21054 39250 40118 51010 83501 333 83620=
07558,1999-11-20 11:00:00,-1.7,1011.6,0.3,71,-6.2,15000,25.928,,,340,,,,,,,,,,,og-post,,,,AAXX 20114 07558 32565 53414 11017 21062 39249 40116 50003 85500 333 85623=
07558,1999-11-20 12:00:00,-2,1011.3,-0.3,76,-5.6,,29.632,,,340,,,,,,,,,,,og-post,,,,AAXX 20124 07558 36/// /3416 11020 21056 39245 40113 58003=
07558,1999-11-20 13:00:00,-1.7,1011,-0.7,78,-5,,29.632,,,330,,,,,,,,,,,og-post,,,,AAXX 20134 07558 36/// /3316 11017 21050 39243 40110 58007=
07558,1999-11-20 14:00:00,-2.2,1010.6,-1.1,74,-6.2,,31.484,50.004,,320,,,,,,,,,,,og-post,,,,AAXX 20144 07558 36/// /3217 11022 21062 39238 40106 58011 333 91127=
07558,1999-11-20 15:00:00,-3.1,1011,-0.6,88,-4.8,,29.632,50.004,,320,,,,,,,,,,,og-post,,,,AAXX 20154 07558 36/// /3216 11031 21048 39239 40110 55006 333 91127=
07558,1999-11-20 16:00:00,-3,1010.9,-0.5,83,-5.5,,31.484,,,330,,,,,,,,,,,og-post,,,,AAXX 20164 07558 36/// /3317 11030 21055 39238 40109 56005=
07558,1999-11-20 17:00:00,-3.3,1011.3,0.3,83,-5.8,,29.632,,,330,,,,,,,,,,,og-post,,,,AAXX 20174 07558 36/// /3316 11033 21058 39241 40113 53003=
07558,1999-11-20 18:00:00,-3.7,1011.8,0.5,84,-6,,25.928,50.004,,330,-4.2,-1.5,,,,,,,,,og-post,,,,AAXX 20184 07558 36/// /3314 11037 21060 39244 40118 53005 333 11015 21042 91127=
07558,1999-11-20 19:00:00,-3.8,1011.7,0.5,82,-6.4,,25.928,,,330,,,,,,,,,,,og-post,,,,AAXX 20194 07558 36/// /3314 11038 21064 39243 40117 50005=
07558,1999-11-20 20:00:00,-4.5,1011.4,-0.3,85,-6.6,,29.632,,,340,,,,,,,,,,,og-post,,,,AAXX 20204 07558 36/// /3416 11045 21066 39238 40114 58003=
07558,1999-11-20 21:00:00,-4.6,1011.7,-0.3,83,-7,,22.224,,,350,,,,,,,,,,,og-post,,,,AAXX 20214 07558 36/// /3512 11046 21070 39241 40117 55003=
07558,1999-11-20 22:00:00,-4.2,1011.6,-0.2,81,-7,,18.52,,,340,,,,,,,,,,,og-post,,,,AAXX 20224 07558 36/// /3410 11042 21070 39241 40116 56002=
07558,1999-11-20 23:00:00,-4.6,1011.5,0.1,83,-7,,7.408,,,320,,,,,,,,,,,og-post,,,,AAXX 20234 07558 36/// /3204 11046 21070 39239 40115 50001=
07558,1999-11-21 00:00:00,-4.8,1011,-0.7,86,-6.8,,14.816,,,350,,,,,,,,,,,og-post,,,,AAXX 21004 07558 36/// /3508 11048 21068 39234 40110 58007=
07558,1999-11-21 01:00:00,-4.7,1010.7,-1,82,-7.3,,14.816,,,330,,,,,,,,,,,og-post,,,,AAXX 21014 07558 36/// /3308 11047 21073 39231 40107 58010=
07558,1999-11-21 02:00:00,-4.9,1010.5,-1,80,-7.8,,11.112,,,320,,,,,,,,,,,og-post,,,,AAXX 21024 07558 36/// /3206 11049 21078 39229 40105 56010=
07558,1999-11-21 03:00:00,-5.1,1010.3,-0.8,81,-7.8,,14.816,,,330,,,,,,,,,,,og-post,,,,AAXX 21034 07558 36/// /3308 11051 21078 39226 40103 57008=
07558,1999-11-21 04:00:00,-5.6,1010.4,-0.5,83,-8,,18.52,,,350,,,,,,,,,,,og-post,,,,AAXX 21044 07558 36/// /3510 11056 21080 39226 40104 56005=
07558,1999-11-21 05:00:00,-6.1,1010.7,-0.2,86,-8.1,10000,14.816,,,320,,,,,,,,,,,og-post,,,,AAXX 21054 07558 32560 23208 11061 21081 39227 40107 55002 82500 333 82620=
07558,1999-11-21 06:00:00,63,1010.8,0.1,1,-8.1,10000,3.704,,,270,-6.3,-3.6,,,,,0,2.2,-9,,og-post,,0,,AAXX 21064 07558 32560 22702 1063 21081 39227 40108 52001 82500 333 11036 21063 3/109 42999 55022 70000 82620=
07558,1999-11-21 07:00:00,-6.7,1011,0.2,87,-8.5,15000,11.112,,,290,,,,,,,,,,,og-post,,,,AAXX 21074 07558 32565 32906 11067 21085 39228 40110 52002 82501 333 82620=
07558,1999-11-21 08:00:00,-5.7,1011,0.4,87,-7.5,15000,7.408,,,260,,,,,,,,,,,og-post,,,,AAXX 21084 07558 32565 42604 11057 21075 39231 40110 53004 84530 333 81620 83360=
07558,1999-11-21 09:00:00,-5.2,1011.5,1,81,-7.9,15000,3.704,,,350,,,,,,,,,,,og-post,,,,AAXX 21094 07558 32465 83502 11052 21079 39237 40115 53010 8867/ 333 81710 87360=
07558,1999-11-21 10:00:00,-4.5,1011.5,1.1,90,-5.9,15000,7.408,,,210,,,,,,,,,,,og-post,,,,AAXX 21104 07558 32465 82104 11045 21059 39239 40115 51011 8865/ 333 81710 87360=
07558,1999-11-21 11:00:00,-3.5,1011.1,0.8,88,-5.2,10000,11.112,,,240,,,,,,,,,,,og-post,,,,AAXX 21114 07558 32960 82406 11035 21052 39239 40111 51008 8805/ 333 88360=
07558,1999-11-21 12:00:00,-2.8,1010.8,0.1,85,-5,,11.112,,,230,,,,,,,,,,,og-post,,,,AAXX 21124 07558 36/// /2306 11028 21050 39238 40108 50001=
07558,1999-11-21 13:00:00,-3,1011,-0,85,-5.2,,22.224,,,300,,,,,,,,,,,og-post,,,,AAXX 21134 07558 36/// /3012 11030 21052 39239 40110 55000=
07558,1999-11-21 14:00:00,-2.9,1011.1,0.2,84,-5.2,,18.52,,,300,,,,,,,,,,,og-post,,,,AAXX 21144 07558 36/// /3010 11029 21052 39241 40111 53002=
07558,1999-11-21 15:00:00,-2.6,1011.4,0.6,82,-5.2,,14.816,,,300,,,,,,,,,,,og-post,,,,AAXX 21154 07558 36/// /3008 11026 21052 39244 40114 53006=
07558,1999-11-21 16:00:00,-3.2,1011.8,0.7,83,-5.7,,14.816,,,300,,,,,,,,,,,og-post,,,,AAXX 21164 07558 36/// /3008 11032 21057 39246 40118 52007=
07558,1999-11-21 17:00:00,-4,1012.5,0.9,83,-6.4,,22.224,,,330,,,,,,,,,,,og-post,,,,AAXX 21174 07558 36/// /3312 11040 21064 39250 40125 53009=
07558,1999-11-21 18:00:00,-4,1013.1,1.1,83,-6.4,,14.816,,,340,-6.9,-2.2,,,,,,,,,og-post,,,,AAXX 21184 07558 36/// /3408 11040 21064 39255 40131 53011 333 11022 21069=
07558,1999-11-21 19:00:00,-4,1013.6,1.4,83,-6.4,,14.816,,,340,,,,,,,,,,,og-post,,,,AAXX 21194 07558 36/// /3408 11040 21064 39260 40136 53014=
07558,1999-11-21 20:00:00,-4.3,1014.1,1.3,79,-7.4,,18.52,,,340,,,,,,,,,,,og-post,,,,AAXX 21204 07558 36/// /3410 11043 21074 39263 40141 51013=
07558,1999-11-21 21:00:00,-4.6,1014.7,1.3,77,-8,,11.112,,,330,,,,,,,,,,,og-post,,,,AAXX 21214 07558 36/// /3306 11046 21080 39268 40147 52013=
07558,1999-11-21 22:00:00,-4.9,1015.1,1.1,79,-8,,14.816,,,320,,,,,,,,,,,og-post,,,,AAXX 21224 07558 36/// /3208 11049 21080 39271 40151 52011=
07558,1999-11-21 23:00:00,-5,1015.4,1,81,-7.7,,18.52,,,310,,,,,,,,,,,og-post,,,,AAXX 21234 07558 36/// /3110 11050 21077 39273 40154 51010=
07558,1999-11-22 00:00:00,-56,1015.8,0.7,127,-8.5,,18.52,,,310,,,,,,,,,,,og-post,,,,AAXX 22004 07558 36/// /3110 1156 21085 39275 40158 51007=
07558,1999-11-22 01:00:00,-5.4,1016,0.6,76,-8.9,,22.224,,,320,,,,,,,,,,,og-post,,,,AAXX 22014 07558 36/// /3212 11054 21089 39277 40160 52006=
07558,1999-11-22 02:00:00,-5.2,1016.1,0.6,76,-8.8,,29.632,,,310,,,,,,,,,,,og-post,,,,AAXX 22024 07558 36/// /3116 11052 21088 39279 40161 52006=
07558,1999-11-22 03:00:00,-5.8,1016.5,0.6,79,-8.8,,31.484,,,320,,,,,,,,,,,og-post,,,,AAXX 22034 07558 36/// /3217 11058 21088 39281 40165 52006=
07558,1999-11-22 04:00:00,-5.9,1017,0.8,78,-9.1,,29.632,,,320,,,,,,,,,,,og-post,,,,AAXX 22044 07558 36/// /3216 11059 21091 39285 40170 53008=
07558,1999-11-22 05:00:00,-6,1017.6,1.1,73,-10,8000,29.632,,,320,,,,,,,,,,,og-post,,,,AAXX 22054 07558 32458 73216 11060 21100 39290 40176 53011 875// 333 87610=
07558,1999-11-22 06:00:00,-6,1017.9,1.2,79,-9,7000,29.632,,,330,-6.1,-4,,,,,0,0.8,-7,,og-post,,2,,AAXX 22064 07558 32457 73316 11060 21090 39293 40179 51012 875// 333 11040 21061 3/107 44002 55008 70000 87610=
07558,1999-11-22 07:00:00,-5.9,1018.6,1.4,77,-9.3,12000,25.928,,,320,,,,,,,,,,,og-post,,,,AAXX 22074 07558 32462 73214 11059 21093 39299 40186 53014 875// 333 83610 83716=
07558,1999-11-22 08:00:00,-6.2,1019.3,1.5,74,-10.1,15000,31.484,,,320,,,,,,,,,,,og-post,,,,AAXX 22084 07558 32465 73217 11062 21101 39305 40193 53015 875// 333 83613 86626=
07558,1999-11-22 09:00:00,-5.6,1019.7,1.7,70,-10.2,20000,31.484,,,300,,,,,,,,,,,og-post,,,,AAXX 22094 07558 32470 43017 11056 21102 39310 40197 51017 84500 333 83615=
07558,1999-11-22 10:00:00,-4.9,1019.6,1.3,67,-10.1,20000,29.632,61.116,50.004,320,,,,,,,,,,,og-post,,,,AAXX 22104 07558 32470 43216 11049 21101 39312 40196 51013 84500 333 83616 91027 91133=
07558,1999-11-22 11:00:00,-4.1,1019.4,0.7,68,-9.1,20000,29.632,53.708,,330,,,,,,,,,,,og-post,,,,AAXX 22114 07558 32470 43316 11041 21091 39312 40194 51007 84500 333 83616 91129=
07558,1999-11-22 12:00:00,-3.9,1019.5,0.4,67,-9.1,20000,35.188,61.116,,320,,,,,,,,,,,og-post,,,,AAXX 22124 07558 32470 53219 11039 21091 39314 40195 52004 85500 333 84616 83630 91133=
07558,1999-11-22 13:00:00,-3.7,1020.2,0.9,70,-8.4,20000,31.484,,,320,,,,,,,,,,,og-post,,,,AAXX 22134 07558 32470 53217 11037 21084 39321 40202 53009 85500 333 84616 83630=
07558,1999-11-22 14:00:00,-3.4,1020.6,1.4,71,-7.9,15000,31.484,57.412,,300,,,,,,,,,,,og-post,,,,AAXX 22144 07558 32565 63017 11034 21079 39326 40206 53014 86500 333 86620 91131=
07558,1999-11-22 15:00:00,-4.2,1021.7,1.9,76,-7.8,15000,35.188,61.116,,310,,,,,,,,,,,og-post,,,,AAXX 22154 07558 32465 63119 11042 21078 39333 40217 52019 86500 333 83610 85620 91133=
07558,1999-11-22 16:00:00,-4.1,1022.4,1.9,76,-7.7,12000,35.188,57.412,,310,,,,,,,,,,,og-post,,,,AAXX 22164 07558 32462 73119 11041 21077 39340 40224 53019 875// 333 87616 91131=
07558,1999-11-22 17:00:00,-4.1,1023.5,2.4,80,-7,,31.484,,,310,,,,,,,,,,,og-post,,,,AAXX 22174 07558 36/// /3117 11041 21070 39350 40235 53024=
07558,1999-11-22 18:00:00,-4.1,1024.5,2.6,78,-7.4,,29.632,61.116,,320,-6.2,-3.4,,,,,,,,,og-post,,,,AAXX 22184 07558 36/// /3216 11041 21074 39359 40245 53026 333 11034 21062 91133=
07558,1999-11-22 19:00:00,-4.3,1025.4,2.7,78,-7.5,,22.224,,,320,,,,,,,,,,,og-post,,,,AAXX 22194 07558 36/// /3212 11043 21075 39367 40254 51027=
07558,1999-11-22 20:00:00,-5.2,1026.5,2.4,80,-8.1,,11.112,,,310,,,,,,,,,,,og-post,,,,AAXX 22204 07558 36/// /3106 11052 21081 39374 40265 51024=
07558,1999-11-22 21:00:00,-5.3,1027.3,2.2,81,-8,,14.816,,,310,,,,,,,,,,,og-post,,,,AAXX 22214 07558 36/// /3108 11053 21080 39381 40273 51022=
07558,1999-11-22 22:00:00,-5.2,1027.9,2,81,-7.9,,18.52,,,330,,,,,,,,,,,og-post,,,,AAXX 22224 07558 36/// /3310 11052 21079 39387 40279 51020=
07558,1999-11-22 23:00:00,-4.9,1028.4,1.8,82,-7.5,,14.816,,,320,,,,,,,,,,,og-post,,,,AAXX 22234 07558 36/// /3208 11049 21075 39392 40284 51018=
07558,1999-11-23 00:00:00,-4.6,1028.8,1.6,83,-7,,7.408,,,300,,,,,,,,,,,og-post,,,,AAXX 23004 07558 36/// /3004 11046 21070 39397 40288 51016=
07558,1999-11-23 01:00:00,-3.9,1028.5,0.9,83,-6.4,,14.816,,,310,,,,,,,,,,,og-post,,,,AAXX 23014 07558 36/// /3108 11039 21064 39396 40285 50009=
07558,1999-11-23 02:00:00,-3.4,1028.6,0.7,83,-5.9,,11.112,,,290,,,,,,,,,,,og-post,,,,AAXX 23024 07558 36/// /2906 11034 21059 39399 40286 51007=
07558,1999-11-23 03:00:00,-3.3,1028.5,0.1,87,-5.1,,3.704,,,340,,,,,,,,,,,og-post,,,,AAXX 23034 07558 36/// /3402 11033 21051 3998 40285 52001=
07558,1999-11-23 04:00:00,-3.3,1028.5,0.2,93,-4.3,,3.704,,,350,,,,,,,,,,,og-post,,,,AAXX 23044 07558 36/// /3502 11033 21043 39398 40285 51002=
07558,1999-11-23 05:00:00,-3.1,1028.5,-0,94,-3.9,10000,3.704,,,230,,,,,,,,,,,og-post,,,,AAXX 23054 07558 32560 82302 11031 21039 39399 40285 55000 885// 333 88623=
07558,1999-11-23 06:00:00,-2.6,1028.6,0.4,95,-3.3,10000,3.704,,,280,-5.5,-2.6,,,,,0,6.2,-7,,og-post,,1,,AAXX 23064 07558 32560 82802 11026 21033 39402 40286 53004 885// 333 11026 21055 3/107 44001 55062 70000 88623 93101=
07558,1999-11-23 07:00:00,-2,1028.3,0.3,97,-2.4,6000,7.408,,,360,,,,,,,,,,,og-post,,,,AAXX 23074 07558 32556 83604 11020 21024 39401 40283 50003 885// 333 88623=
07558,1999-11-23 08:00:00,-1.3,1028.3,0.4,98,-1.6,6000,11.112,,,360,,,,,,,,,,,og-post,,,,AAXX 23084 07558 32556 83606 11013 21016 39403 40283 51004 885// 333 88623=
07558,1999-11-23 09:00:00,-0.6,1028.2,0.2,97,-1,6000,7.408,,,340,,,,,,,,,,,og-post,,,,AAXX 23094 07558 32556 83404 11006 21010 39404 40282 53002 885// 333 88623=
07558,1999-11-23 10:00:00,0.5,1028,0.5,96,-0.1,6000,,,,,,,,,,,,,,,og-post,,,,AAXX 23104 07558 32556 80000 10005 21001 39406 40280 52005 885// 333 88623=
07558,1999-11-23 11:00:00,1.9,1027.3,0.1,92,0.7,6000,11.112,,,300,,,,,,,,,,,og-post,,,,AAXX 23114 07558 32556 83006 10019 20007 39404 40273 50001 885// 333 88623=
07558,1999-11-23 12:00:00,2.6,1026.6,-0.4,92,1.4,8000,29.632,,,300,,,,,,,,,,,og-post,,,,AAXX 23124 07558 32558 83016 10026 20014 39400 40266 58004 885// 333 88623=
07558,1999-11-23 13:00:00,3.5,1026.1,-0.8,91,2.2,10000,18.52,,,300,,,,,,,,,,,og-post,,,,AAXX 23134 07558 32560 73010 10035 20022 39398 40261 57008 875// 333 87623=
07558,1999-11-23 14:00:00,3.8,1025.4,-1.2,88,2,10000,31.484,,,320,,,,,,,,,,,og-post,,,,AAXX 23144 07558 32560 53217 10038 20020 39392 40254 58012 85500 333 85626=
07558,1999-11-23 15:00:00,3.8,1025.6,-0.6,93,2.8,10000,29.632,,,310,,,,,,,,,,,og-post,,,,AAXX 23154 07558 32560 53116 10038 20028 39394 40256 55006 85500 333 85626=
07558,1999-11-23 16:00:00,3.1,1025.8,-0.4,95,2.4,10000,31.484,,,330,,,,,,,,,,,og-post,,,,AAXX 23164 07558 32560 53317 10031 20024 39394 40258 56004 85500 333 85626=
07558,1999-11-23 17:00:00,2.6,1026.1,0.3,96,2,,29.632,,,340,,,,,,,,,,,og-post,,,,AAXX 23174 07558 36/// /3416 10026 20020 39395 40261 51003=
07558,1999-11-23 18:00:00,3.2,1026.3,0.5,93,2.2,,18.52,,,300,-2.6,4.7,,,,,,,,,og-post,,,,AAXX 23184 07558 36/// /3010 10032 20022 39399 40263 53005 333 10047 21026=
07558,1999-11-23 19:00:00,3.5,1026.2,0.5,91,2.2,,31.484,,,330,,,,,,,,,,,og-post,,,,AAXX 23194 07558 36/// /3317 10035 20022 39399 40262 51005=
07558,1999-11-23 20:00:00,2.5,1026.3,0.2,93,1.5,,31.484,,,330,,,,,,,,,,,og-post,,,,AAXX 23204 07558 36/// /3317 10025 20015 39397 40263 50002=
07558,1999-11-23 21:00:00,1.8,1026.5,-0.3,92,0.6,,38.892,,,330,,,,,,,,,,,og-post,,,,AAXX 23214 07558 36/// /3321 10018 20006 39396 40265 58003=
07558,1999-11-23 22:00:00,0.7,1027.4,0.2,97,0.3,,29.632,,,350,,,,,,,,,,,og-post,,,,AAXX 23224 07558 36/// /3516 10007 20003 39401 40274 53002=
07558,1999-11-23 23:00:00,0.3,1027.7,0.6,97,-0.1,,14.816,,,10,,,,,,,,,,,og-post,,,,AAXX 23234 07558 36/// /0108 10003 21001 39403 40277 53006=
07558,1999-11-24 00:00:00,-0.1,1028,0.8,98,-0.4,,18.52,,,10,,,,,,,,,,,og-post,,,,AAXX 24004 07558 36/// /0110 11001 21004 39404 40280 51008=
07558,1999-11-24 01:00:00,-0.5,1028,0.2,95,-1.2,,,,,,,,,,,,,,,,og-post,,,,AAXX 24014 07558 36/// /0000 11005 21012 39403 40280 50002=
07558,1999-11-24 02:00:00,-0.6,1028.4,0.3,99,-0.7,,3.704,,,160,,,,,,,,,,,og-post,,,,AAXX 24024 07558 36/// /1602 11006 21007 39406 40284 53003=
07558,1999-11-24 03:00:00,-0.4,1028.1,0,97,-0.8,,3.704,,,180,,,,,,,,,,,og-post,,,,AAXX 24034 07558 36/// /1802 11004 21008 39404 40281 50000=
07558,1999-11-24 04:00:00,-0.7,1028.3,0.2,97,-1.1,,3.704,,,20,,,,,,,,,,,og-post,,,,AAXX 24044 07558 36/// /0202 11007 21011 39405 40283 51002=
07558,1999-11-24 05:00:00,-1.3,1028.8,0.2,98,-1.6,10000,14.816,,,40,,,,,,,,,,,og-post,,,,AAXX 24054 07558 32560 30408 11013 21016 39408 40288 53002 83500 333 83620=
07558,1999-11-24 06:00:00,-1.6,1029.3,0.7,100,-1.6,10000,11.112,,,20,-1.8,3.5,,,,,0,1.8,-5,,og-post,,,,AAXX 24064 07558 32560 30206 11016 21016 39411 40293 53007 83500 333 10035 21018 34105 55018 70000 83620=
07558,1999-11-24 07:00:00,-1.3,1029.5,0.9,100,-1.3,10000,14.816,,,350,,,,,,,,,,,og-post,,,,AAXX 24074 07558 32560 33508 11013 21013 39414 40295 52009 83500 333 83620=
07558,1999-11-24 08:00:00,-0.2,1029.7,1.1,95,-0.9,10000,11.112,,,340,,,,,,,,,,,og-post,,,,AAXX 24084 07558 32360 33406 11002 21009 39419 40297 53011 83600 333 82706=
07558,1999-11-24 09:00:00,1.2,1029.7,1.3,94,0.3,10000,11.112,,,330,,,,,,,,,,,og-post,,,,AAXX 24094 07558 32360 33306 10012 20003 39424 40297 53013 83600 333 82706=
07558,1999-11-24 10:00:00,3.9,1028.7,0.9,77,0.2,10000,25.928,,,340,,,,,,,,,,,og-post,,,,AAXX 24104 07558 32360 33414 10039 20002 39423 40287 50009 83600 333 82706=
07558,1999-11-24 11:00:00,5,1028.4,0.4,71,0.2,10000,31.484,,,340,,,,,,,,,,,og-post,,,,AAXX 24114 07558 32560 43417 10050 20002 39423 40284 51004 84800 333 82823=
07558,1999-11-24 12:00:00,5.4,1028.4,-0,68,0,10000,22.224,,,350,,,,,,,,,,,og-post,,,,AAXX 24124 07558 32560 43512 10054 20000 39424 40284 55000 84800 333 82823=
07558,1999-11-24 13:00:00,5.4,1027.9,-0.3,65,-0.6,15000,22.224,,,350,,,,,,,,,,,og-post,,,,AAXX 24134 07558 32565 43512 10054 21006 39420 40279 58003 84800 333 82823=
07558,1999-11-24 14:00:00,5.8,1027.7,-0.4,64,-0.5,15000,25.928,,,350,,,,,,,,,,,og-post,,,,AAXX 24144 07558 32565 43514 10058 21005 39419 40277 58004 84800 333 83823=
07558,1999-11-24 15:00:00,4.8,1027.9,-0.6,74,0.6,15000,22.224,,,340,,,,,,,,,,,og-post,,,,AAXX 24154 07558 32565 43412 10048 20006 39418 40279 56006 84800 333 83823=
07558,1999-11-24 16:00:00,4.3,1028.4,0.1,74,0.1,15000,18.52,,,350,,,,,,,,,,,og-post,,,,AAXX 24164 07558 32565 43510 10043 20001 39421 40284 53001 84800 333 83823=
07558,1999-11-24 17:00:00,2.3,1029.6,0.7,83,-0.3,,11.112,,,340,,,,,,,,,,,og-post,,,,AAXX 24174 07558 36/// /3406 10023 21003 39426 40296 53007=
07558,1999-11-24 18:00:00,1.8,1030,1,85,-0.4,,14.816,,,340,-1.8,5.9,,,,,,,,,og-post,,,,AAXX 24184 07558 36/// /3408 10018 21004 39428 40300 51010 333 10059 21018=
07558,1999-11-24 19:00:00,1.4,1030.4,1,83,-1.2,,14.816,,,320,,,,,,,,,,,og-post,,,,AAXX 24194 07558 36/// /3208 10014 21012 39431 40304 51010=
07558,1999-11-24 20:00:00,1.3,1030.6,0.6,82,-1.4,,18.52,,,310,,,,,,,,,,,og-post,,,,AAXX 24204 07558 36/// /3110 10013 21014 39432 40306 51006=
07558,1999-11-24 21:00:00,1.8,1030.7,0.6,76,-2,,11.112,,,360,,,,,,,,,,,og-post,,,,AAXX 24214 07558 36/// /3606 10018 21020 39434 40307 51006=
07558,1999-11-24 22:00:00,1.8,1030.8,0.4,74,-2.3,,14.816,,,350,,,,,,,,,,,og-post,,,,AAXX 24224 07558 36/// /3508 10018 21023 39435 40308 52004=
07558,1999-11-24 23:00:00,1.6,1030.9,0.4,73,-2.7,,18.52,,,350,,,,,,,,,,,og-post,,,,AAXX 24234 07558 36/// /3510 10016 21027 39436 40309 51004=
07558,1999-11-25 00:00:00,1.5,1031.3,0.5,74,-2.6,,11.112,,,340,,,,,,,,,,,og-post,,,,AAXX 25004 07558 36/// /3406 10015 21026 39439 40313 53005=
07558,1999-11-25 01:00:00,0.6,1031.7,0.5,81,-2.3,,11.112,,,330,,,,,,,,,,,og-post,,,,AAXX 25014 07558 36/// /3306 10006 21023 39440 40317 52005=
07558,1999-11-25 02:00:00,0,1032,0.5,85,-2.2,,11.112,,,330,,,,,,,,,,,og-post,,,,AAXX 25024 07558 36/// /3306 10000 21022 39441 40320 51005=
07558,1999-11-25 03:00:00,-1.2,1032.4,0.2,94,-2,,7.408,,,320,,,,,,,,,,,og-post,,,,AAXX 25034 07558 36/// /3204 11012 21020 39441 40324 51002=
07558,1999-11-25 04:00:00,-1.6,1032.3,-0.1,100,-1.6,,3.704,,,340,,,,,,,,,,,og-post,,,,AAXX 25044 07558 36/// /3402 11016 21016 39439 40323 58001=
07558,1999-11-25 05:00:00,-1.4,1032.4,-0.1,89,-3,30000,11.112,,,360,,,,,,,,,,,og-post,,,,AAXX 25054 07558 32980 03606 11014 21030 39440 40324 55001=
07558,1999-11-25 06:00:00,-1.8,1032.8,0.2,95,-2.5,30000,3.704,,,270,-2.5,1.9,,,,,,7.5,-5,,og-post,,,,AAXX 25064 07558 32980 02702 11018 21025 39443 40328 53002 333 10019 21025 31105 55075 70000=
07558,1999-11-25 08:00:00,-3.3,1034.5,1.3,99,-3.4,800,3.704,,,260,,,,,,,,,,46,og-post,,,,AAXX 25084 07558 31908 02602 11033 21034 39453 40345 53013 74640=
07558,1999-11-25 09:00:00,-2.2,1034.4,1.3,100,-2.2,800,3.704,,,260,,,,,,,,,,44,og-post,,,,AAXX 25094 07558 31908 02602 11022 21022 39456 40344 51013 74440=
07558,1999-11-25 10:00:00,-1.4,1034.4,1.1,100,-1.4,800,3.704,,,260,,,,,,,,,,44,og-post,,,,AAXX 25104 07558 31908 02602 11014 21014 39459 40344 51011 74444=
07558,1999-11-25 11:00:00,0.1,1033.6,0.3,100,0.1,1500,7.408,,,260,,,,,,,,,,28,og-post,,,,AAXX 25114 07558 31915 02604 10001 20001 39456 40336 50003 72840=
07558,1999-11-25 12:00:00,1.7,1032.7,-0.3,96,1.1,15000,7.408,,,250,,,,,,,,,,2,og-post,,,,AAXX 25124 07558 31965 02504 10017 20011 39453 40327 58003 70240=
07558,1999-11-25 13:00:00,2.4,1032,-1,96,1.8,2000,7.408,,,240,,,,,,,,,,10,og-post,,,,AAXX 25134 07558 31920 02404 10024 20018 39449 40320 58010 71000=
07558,1999-11-25 14:00:00,4.8,1031.3,-0.7,83,2.2,15000,7.408,,,240,,,,,,,,,,,og-post,,,,AAXX 25144 07558 32965 02404 10048 20022 39449 40313 56007=
07558,1999-11-25 15:00:00,5.3,1031.2,-0.3,78,1.8,25000,11.112,,,240,,,,,,,,,,,og-post,,,,AAXX 25154 07558 32975 02406 10053 20018 39450 40312 55003=
07558,1999-11-25 16:00:00,4.2,1032.2,0.7,79,0.9,25000,11.112,,,230,,,,,,,,,,,og-post,,,,AAXX 25164 07558 32975 02306 10042 20009 39456 40322 53007=
07558,1999-11-25 17:00:00,3.1,1032.8,0.9,89,1.5,,7.408,,,210,,,,,,,,,,,og-post,,,,AAXX 25174 07558 36/// /2104 10031 20015 39458 40328 53009=
07558,1999-11-25 18:00:00,3.1,1033,1,88,1.3,,7.408,,,210,-3.5,5.6,,,,,,,,,og-post,,,,AAXX 25184 07558 36/// /2104 10031 20013 39460 40330 51010 333 10056 21035=
07558,1999-11-25 19:00:00,2.5,1033.3,0.5,91,1.2,,3.704,,,360,,,,,,,,,,,og-post,,,,AAXX 25194 07558 36/// /3602 10025 20012 39461 40333 51005=
07558,1999-11-25 20:00:00,1.8,1033.7,0.4,90,0.3,,11.112,,,30,,,,,,,,,,,og-post,,,,AAXX 25204 07558 36/// /0306 10018 20003 39462 40337 51004=
07558,1999-11-25 21:00:00,1.6,1033.7,0.1,82,-1.1,,7.408,,,20,,,,,,,,,,,og-post,,,,AAXX 25214 07558 36/// /0204 10016 21011 39461 40337 50001=
07558,1999-11-25 22:00:00,0.7,1034.1,0.1,83,-1.8,,14.816,,,30,,,,,,,,,,,og-post,,,,AAXX 25224 07558 36/// /0308 10007 21018 39462 40341 52001=
07558,1999-11-25 23:00:00,0.7,1034,-0.1,80,-2.3,,11.112,,,20,,,,,,,,,,,og-post,,,,AAXX 25234 07558 36/// /0206 10007 21023 39461 40340 57001=
07558,1999-11-26 00:00:00,0.6,1033.9,-0.1,82,-2.1,,11.112,,,30,,,,,,,,,,,og-post,,,,AAXX 26004 07558 36/// /0306 10006 21021 39460 40339 58001=
07558,1999-11-26 01:00:00,0.2,1033.6,-0.6,83,-2.3,,7.408,,,20,,,,,,,,,,,og-post,,,,AAXX 26014 07558 36/// /0204 10002 21023 39456 40336 58006=
07558,1999-11-26 02:00:00,0.2,1033.3,-0.8,85,-2,,3.704,,,70,,,,,,,,,,,og-post,,,,AAXX 26024 07558 36/// /0702 10002 21020 39453 40333 58008=
07558,1999-11-26 03:00:00,-0.5,1033,-1.2,85,-2.7,,7.408,,,20,,,,,,,,,,,og-post,,,,AAXX 26034 07558 36/// /0204 11005 21027 39448 40330 58012=
07558,1999-11-26 04:00:00,-0.5,1033,-0.8,85,-2.7,,11.112,,,30,,,,,,,,,,,og-post,,,,AAXX 26044 07558 36/// /0306 11005 21027 39448 40330 56008=
07558,1999-11-26 05:00:00,1,1032.6,-0.4,83,-1.6,20000,11.112,,,50,,,,,,,,,,,og-post,,,,AAXX 26054 07558 32670 50506 10010 21016 39449 40326 55004 85500 333 85640=
07558,1999-11-26 06:00:00,1.3,1032.8,0.4,84,-1.1,20000,7.408,,,30,-0.7,3.1,,,,,0,8.1,-4,,og-post,,,,AAXX 26064 07558 32670 50304 10013 21011 39452 40328 53004 85500 333 10031 21007 30104 55081 70000 85640=
07558,1999-11-26 07:00:00,2.1,1032.5,0.4,89,0.5,20000,7.408,,,60,,,,,,,,,,,og-post,,,,AAXX 26074 07558 32670 30604 10021 20005 39452 40325 51004 83500 333 83640=
07558,1999-11-26 08:00:00,4.1,1032,0.5,88,2.3,30000,11.112,,,100,,,,,,,,,,,og-post,,,,AAXX 26084 07558 32680 31006 10041 20023 39454 40320 51005 83100 333 83840=
07558,1999-11-26 09:00:00,6,1031.4,0,83,3.3,30000,14.816,,,120,,,,,,,,,,,og-post,,,,AAXX 26094 07558 32680 31208 10060 20033 39454 40314 5200 83100 333 83840=
07558,1999-11-26 10:00:00,6.5,1031.4,0.4,85,4.2,30000,18.52,,,130,,,,,,,,,,,og-post,,,,AAXX 26104 07558 32680 51310 10065 20042 39456 40314 52004 85100 333 85833=
07558,1999-11-26 11:00:00,7.7,1030.6,-0.2,83,5,30000,25.928,,,130,,,,,,,,,,,og-post,,,,AAXX 26114 07558 32680 51314 10077 20050 39452 40306 58002 85100 333 85833=
07558,1999-11-26 12:00:00,7.7,1030.1,-0.7,77,3.9,30000,25.928,,,140,,,,,,,,,,,og-post,,,,AAXX 26124 07558 32680 51414 10077 20039 39447 40301 58007 85100 333 85833=
07558,1999-11-26 13:00:00,8.1,1029.2,-1.6,69,2.8,30000,35.188,,,140,,,,,,,,,,,og-post,,,,AAXX 26134 07558 32680 41419 10081 20028 39440 40292 58016 84100 333 84833=
07558,1999-11-26 14:00:00,8.7,1028.8,-1.4,67,2.9,30000,25.928,,,130,,,,,,,,,,,og-post,,,,AAXX 26144 07558 32680 31314 10087 20029 39438 40288 56014 83100 333 83833=
07558,1999-11-26 15:00:00,8.2,1028.9,-0.9,73,3.7,30000,29.632,,,130,,,,,,,,,,,og-post,,,,AAXX 26154 07558 32680 41316 10082 20037 39438 40289 56009 84100 333 84833=
07558,1999-11-26 16:00:00,6.4,1029.8,0.1,84,3.9,30000,25.928,,,130,,,,,,,,,,,og-post,,,,AAXX 26164 07558 33680 51314 10064 20039 39441 40298 53001 85200 333 85833=
07558,1999-11-26 17:00:00,6.1,1030.1,0.5,87,4.1,,25.928,,,140,,,,,,,,,,,og-post,,,,AAXX 26174 07558 36/// /1414 10061 20041 39443 40301 53005=
07558,1999-11-26 18:00:00,5.6,1030.6,0.8,90,4.1,,18.52,,,130,1.1,9.2,,,,,,,,,og-post,,,,AAXX 26184 07558 36/// /1310 10056 20041 39446 40306 52008 333 10092 20011=
07558,1999-11-26 19:00:00,6,1030.8,0.8,91,4.6,,18.52,,,140,,,,,,,,,,,og-post,,,,AAXX 26194 07558 36/// /1410 10060 20046 39449 40308 53008=
07558,1999-11-26 20:00:00,6.2,1030.9,0.7,92,5,,11.112,,,130,,,,,,,,,,,og-post,,,,AAXX 26204 07558 36/// /1306 10062 20050 39450 40309 51007=
07558,1999-11-26 21:00:00,6.1,1031.1,0.6,93,5.1,,11.112,,,130,,,,,,,,,,,og-post,,,,AAXX 26214 07558 36/// /1306 10061 20051 39452 40311 51006=
07558,1999-11-26 22:00:00,6,1030.9,0.1,93,5,,14.816,,,130,,,,,,,,,,,og-post,,,,AAXX 26224 07558 36/// /1308 10060 20050 39450 40309 50001=
07558,1999-11-26 23:00:00,6.2,1031,0.1,93,5.2,,11.112,,,140,,,,,,,,,,,og-post,,,,AAXX 26234 07558 36/// /1406 10062 20052 39451 40310 51001=
07558,1999-11-27 00:00:00,5,1031,-0.4,92,3.8,,11.112,,,140,,,,,,,,,,,og-post,,,,AAXX 27004 07558 36/// /1406 10050 20038 39448 40310 58004=
07558,1999-11-27 01:00:00,5.5,1030.9,-0.2,95,4.8,,7.408,,,130,,,,,,,,,,,og-post,,,,AAXX 27014 07558 36/// /1304 10055 20048 39448 40309 58002=
07558,1999-11-27 02:00:00,5.6,1030.6,-0.5,97,5.2,,14.816,,,120,,,,,,,,,,,og-post,,,,AAXX 27024 07558 36/// /1208 10056 20052 39446 40306 56005=
07558,1999-11-27 03:00:00,5.7,1030.2,-0.5,98,5.4,,14.816,,,130,,,,,,,,,,,og-post,,,,AAXX 27034 07558 36/// /1308 10057 20054 39443 40302 58005=
07558,1999-11-27 04:00:00,5.6,1030.4,-0.4,98,5.3,,7.408,,,140,,,,,,,,,,,og-post,,,,AAXX 27044 07558 36/// /1404 10056 20053 39444 40304 55004=
07558,1999-11-27 05:00:00,5.6,1030.8,0.2,99,5.5,8000,11.112,,,120,,,,,,,,,,50,og-post,,,,AAXX 27054 07558 21258 71206 10056 20055 39448 40308 53002 75052 875// 333 69905 84703 87610=
07558,1999-11-27 06:00:00,5,1031.1,0.6,101,5.2,400,7.408,,,100,4.9,6.4,,,,,0,5.7,3,50,og-post,,,,AAXX 27064 07558 /1104 71004 1005 20052 39449 40311 52006 69902 75054 875// 333 10064 20049 31003 55057 69907 79999 85701 86608=
07558,1999-11-27 07:00:00,4.6,1031.3,0.5,100,4.6,6000,14.816,,,110,,,,,,,,,,28,og-post,,,,AAXX 27074 07558 21156 51108 10046 20046 39449 40313 51005 72854 85500 333 69905 82701 84608=
07558,1999-11-27 08:00:00,5.2,1031.7,0.7,100,5.2,8000,11.112,,,140,,,,,,,,,,,og-post,,,,AAXX 27084 07558 32258 71406 10052 20052 39455 40317 53007 875// 333 83703 87608=
07558,1999-11-27 09:00:00,5.6,1032.5,1.4,100,5.6,8000,,,,,,,,,,,,,,2,og-post,,,,AAXX 27094 07558 21258 70000 10056 20056 39463 40325 53014 70254 875// 333 69907 83703 87608=
07558,1999-11-27 10:00:00,7.5,1032.2,1.7,90,6,10000,7.408,,,110,,,,,,,,,,,og-post,,,,AAXX 27104 07558 32360 61104 10075 20060 39466 40322 51017 86500 333 83606 86613=
07558,1999-11-27 11:00:00,8.3,1031.6,0.8,81,5.2,,11.112,,,130,,,,,,,,,,,og-post,,,,AAXX 27114 07558 32/// /1306 10083 20052 39463 40316 50008=
07558,1999-11-27 12:00:00,9.6,1030.5,-0.6,74,5.2,,18.52,,,120,,,,,,,,,,,og-post,,,,AAXX 27124 07558 16/// /1210 10096 20052 39457 40305 58006 69901=
07558,1999-11-27 13:00:00,10.4,1030,-1.2,66,4.3,,14.816,,,150,,,,,,,,,,,og-post,,,,AAXX 27134 07558 36/// /1508 10104 20043 39454 40300 57012=
07558,1999-11-27 15:00:00,9.1,1030,-0.7,70,3.9,,18.52,,,120,,,,,,,,,,,og-post,,,,AAXX 27154 07558 36/// /1210 10091 20039 39450 40300 56007=
07558,1999-11-27 18:00:00,4.8,1032.5,1.1,91,3.5,,14.816,,,130,4.4,10.8,,,,,,,,,og-post,,,,AAXX 27184 07558 16/// /1308 10048 20035 39461 40325 53011 69902 333 10108 20044=
07558,1999-11-27 21:00:00,4.2,1032.6,-0.1,95,3.5,,14.816,,,100,,,,,,,,,,,og-post,,,,AAXX 27214 07558 36/// /1008 10042 20035 39460 40326 58001=
07558,1999-11-28 00:00:00,4.3,1032.3,-0.3,94,3.4,,18.52,,,90,,,,,,,,,,,og-post,,,,AAXX 28004 07558 36/// /0910 10043 20034 39457 40323 58003=
07558,1999-11-28 03:00:00,3.8,1031.6,-0.8,94,2.9,,14.816,,,100,,,,,,,,,,,og-post,,,,AAXX 28034 07558 36/// /1008 10038 20029 39449 40316 56008=
07558,1999-11-28 06:00:00,5.6,1030.7,-0.2,92,4.4,20000,18.52,,,130,3.4,5.6,,,,,0,3.8,2,,og-post,,,,AAXX 28064 07558 32570 61310 10056 20044 39447 40307 58002 86500 333 10056 20034 30002 55038 79999 86630=
07558,1999-11-28 09:00:00,6.2,1030.8,0.3,94,5.3,20000,35.188,,,130,,,,,,,,,,,og-post,,,,AAXX 28094 07558 32570 71319 10062 20053 39450 40308 50003 87500 333 87630=
07558,1999-11-28 12:00:00,7.1,1029.4,-1.1,87,5.1,,29.632,,50.004,130,,,,,,,,,,,og-post,,,,AAXX 28124 07558 36/// /1316 10071 20051 39439 40294 58011 333 91027=
07558,1999-11-28 15:00:00,6.9,1028.3,-1,89,5.2,,31.484,57.412,53.708,130,,,,,,,,,,,og-post,,,,AAXX 28154 07558 36/// /1317 10069 20052 39429 40283 56010 333 91029 91131=
07558,1999-11-28 18:00:00,7.2,1028.1,-0.1,85,4.9,,25.928,57.412,,140,5.5,7.3,,,,,,,,,og-post,,,,AAXX 28184 07558 36/// /1414 10072 20049 39428 40281 55001 333 10073 20055 91131=
07558,1999-11-28 21:00:00,6.8,1028.2,-0.1,84,4.3,,42.596,,,130,,,,,,,,,,,og-post,,,,AAXX 28214 07558 36/// /1323 10068 20043 39427 40282 58001=
07558,1999-11-29 00:00:00,6.5,1027.6,-0.6,80,3.3,,31.484,68.524,,140,,,,,,,,,,,og-post,,,,AAXX 29004 07558 36/// /1417 10065 20033 39421 40276 58006 333 91137=
07558,1999-11-29 03:00:00,5.3,1027.6,-0.4,81,2.3,,38.892,72.228,61.116,120,,,,,,,,,,,og-post,,,,AAXX 29034 07558 36/// /1221 10053 20023 39417 40276 58004 333 91033 91139=
07558,1999-11-29 06:00:00,5.4,1027.7,0.1,87,3.4,25000,25.928,72.228,,130,4.9,7.2,,,,,0,,4,,og-post,,,,AAXX 29064 07558 32675 51314 10054 20034 39418 40277 53001 85500 333 10072 20049 30004 55000 70000 85633 91139=
07558,1999-11-29 09:00:00,6.4,1027.9,0.5,80,3.2,,31.484,61.116,,140,,,,,,,,,,,og-post,,,,AAXX 29094 07558 36/// /1417 10064 20032 39423 40279 53005 333 91133=
07558,1999-11-29 12:00:00,7.8,1027.3,-0.1,70,2.7,30000,38.892,61.116,,130,,,,,,,,,,,og-post,,,,AAXX 29124 07558 32680 51321 10078 20027 39422 40273 58001 84101 333 84833 84075 91133=
07558,1999-11-29 14:00:00,8.1,1027.1,-0.2,73,3.6,30000,25.928,,,130,,,,,,,,,,,og-post,,,,AAXX 29144 07558 32680 51314 10081 20036 39421 40271 57002 85101 333 85833=
07558,1999-11-29 15:00:00,7.7,1027.3,-0,77,3.9,30000,22.224,,,120,,,,,,,,,,,og-post,,,,AAXX 29154 07558 32680 51212 10077 20039 39422 40273 55000 85101 333 85833=
07558,1999-11-29 16:00:00,6.5,1027.8,0.1,83,3.8,30000,18.52,,,120,,,,,,,,,,,og-post,,,,AAXX 29164 07558 32680 31210 10065 20038 39423 40278 53001 82101 333 82833 83075=
07558,1999-11-29 17:00:00,5.7,1028.5,0.6,87,3.7,,22.224,,,120,,,,,,,,,,,og-post,,,,AAXX 29174 07558 36/// /1212 10057 20037 39427 40285 53006=
07558,1999-11-29 18:00:00,5.4,1029.3,1.1,90,3.9,,22.224,,,110,5.2,8.6,,,,,,,,,og-post,,,,AAXX 29184 07558 36/// /1112 10054 20039 39433 40293 53011 333 10086 20052=
07558,1999-11-29 19:00:00,5.5,1029.9,1.6,89,3.8,,18.52,,,110,,,,,,,,,,,og-post,,,,AAXX 29194 07558 36/// /1110 10055 20038 39439 40299 53016=
07558,1999-11-29 20:00:00,5.8,1030.3,1.7,90,4.3,,11.112,,,110,,,,,,,,,,,og-post,,,,AAXX 29204 07558 36/// /1106 10058 20043 39444 40303 51017=
07558,1999-11-29 21:00:00,5.6,1030.3,1,91,4.2,,18.52,,,110,,,,,,,,,,,og-post,,,,AAXX 29214 07558 36/// /1110 10056 20042 39443 40303 50010=
07558,1999-11-29 22:00:00,4.8,1030.9,0.7,90,3.3,,7.408,,,70,,,,,,,,,,,og-post,,,,AAXX 29224 07558 36/// /0704 10048 20033 39446 40309 51007=
07558,1999-11-29 23:00:00,3.8,1031.5,0.4,92,2.6,,7.408,,,50,,,,,,,,,,,og-post,,,,AAXX 29234 07558 36/// /0504 10038 20026 39448 40315 53004=
07558,1999-11-30 00:00:00,3.5,1031.5,0.4,89,1.9,,11.112,,,60,,,,,,,,,,,og-post,,,,AAXX 30004 07558 36/// /0606 10035 20019 39447 40315 50004=
07558,1999-11-30 01:00:00,3.3,1031.2,-0.2,82,0.5,,11.112,,,60,,,,,,,,,,,og-post,,,,AAXX 30014 07558 36/// /0606 10033 20005 39444 40312 58002=
07558,1999-11-30 02:00:00,4,1030.9,-0.5,68,-1.4,,18.52,,,90,,,,,,,,,,,og-post,,,,AAXX 30024 07558 36/// /0910 10040 21014 39443 40309 57005=
07558,1999-11-30 03:00:00,4.9,1030.4,-0.6,61,-2,,18.52,,,100,,,,,,,,,,,og-post,,,,AAXX 30034 07558 36/// /1010 10049 21020 39441 40304 56006=
07558,1999-11-30 04:00:00,3.5,1030.8,-0.4,66,-2.2,,11.112,,,40,,,,,,,,,,,og-post,,,,AAXX 30044 07558 36/// /0406 10035 21022 39440 40308 57004=
07558,1999-11-30 06:00:00,3.9,1031.6,0.8,55,-4.3,20000,11.112,,,20,2.6,5.9,,,,,,1,-1,,og-post,,,,AAXX 30064 07558 32970 00206 10039 21043 39449 40316 53008 333 10059 20026 30101 55010 70000=
07558,1999-11-30 07:00:00,4.4,1031.9,1.3,47,-5.9,25000,11.112,,,20,,,,,,,,,,,og-post,,,,AAXX 30074 07558 32975 00206 10044 21059 39453 40319 53013=
07558,1999-11-30 08:00:00,4.3,1032.2,1.2,48,-5.7,25000,7.408,,,20,,,,,,,,,,,og-post,,,,AAXX 30084 07558 32975 00204 10043 21057 39455 40322 51012=
07558,1999-11-30 09:00:00,4.7,1032.4,0.9,47,-5.6,25000,11.112,,,20,,,,,,,,,,,og-post,,,,AAXX 30094 07558 32975 20206 10047 21056 39458 40324 51009 80002 333 82075=
07558,1999-11-30 10:00:00,7.3,1031.8,0.7,41,-5.1,25000,3.704,,,360,,,,,,,,,,,og-post,,,,AAXX 30104 07558 32975 23602 10073 21051 39460 40318 52007 80002 333 82075=
07558,1999-11-30 11:00:00,9.5,1030.5,0,38,-4.1,25000,3.704,,,340,,,,,,,,,,,og-post,,,,AAXX 30114 07558 32975 23402 10095 21041 39455 40305 50000 80002 333 82075=
07558,1999-11-30 12:00:00,12.3,1029.1,-0.8,36,-2.3,25000,3.704,,,100,,,,,,,,,,,og-post,,,,AAXX 30124 07558 32975 21002 10123 21023 39450 40291 58008 80002 333 82075=
07558,1999-11-30 15:00:00,12.3,1028.1,-0.9,38,-1.6,30000,7.408,,,230,,,,,,,,,,,og-post,,,,AAXX 30154 07558 32980 32304 10123 21016 39441 40281 56009 80002 333 83075=
07558,1999-11-30 16:00:00,11.3,1028.5,-0.3,35,-3.6,30000,3.704,,,230,,,,,,,,,,,og-post,,,,AAXX 30164 07558 32980 22302 10113 21036 39442 40285 55003 80002 333 82075=
07558,1999-11-30 17:00:00,10.1,1029.4,0.4,35,-4.6,,3.704,,,150,,,,,,,,,,,og-post,,,,AAXX 30174 07558 36/// /1502 10101 21046 39446 40294 53004=
07558,1999-11-30 18:00:00,9.2,1029.9,0.8,39,-4,,3.704,,,40,3,14,,,,,,,,,og-post,,,,AAXX 30184 07558 36/// /0402 10092 21040 39449 40299 53008 333 10140 20030=
07558,1999-11-30 20:00:00,7.5,1031,0.8,44,-3.9,,7.408,,,350,,,,,,,,,,,og-post,,,,AAXX 30204 07558 36/// /3504 10075 21039 39454 40310 53008=
07558,1999-11-30 21:00:00,6.2,1031.6,0.7,52,-2.9,,7.408,,,40,,,,,,,,,,,og-post,,,,AAXX 30214 07558 36/// /0404 10062 21029 39456 40316 53007=
07558,1999-11-30 22:00:00,5.7,1031.7,0.5,52,-3.4,,3.704,,,90,,,,,,,,,,,og-post,,,,AAXX 30224 07558 36/// /0902 10057 21034 39455 40317 50005=
07558,1999-11-30 23:00:00,4.8,1032.2,0.3,57,-3,,3.704,,,10,,,,,,,,,,,og-post,,,,AAXX 30234 07558 36/// /0102 10048 21030 39457 40322 52003=
07558,1999-12-01 00:00:00,4.3,1031.7,-0.5,58,-3.2,,3.704,,,50,,,,,,,,,,,og-post,,,,AAXX 01004 07558 36/// /0502 10043 21032 39451 40317 58005=
07558,1999-12-01 01:00:00,4.2,1031.6,-0.5,59,-3.1,,3.704,,,20,,,,,,,,,,,og-post,,,,AAXX 01014 07558 36/// /0202 10042 21031 39450 40316 58005=
07558,1999-12-01 02:00:00,3.4,1031.8,-0.8,63,-3,,3.704,,,150,,,,,,,,,,,og-post,,,,AAXX 01024 07558 36/// /1502 10034 21030 39449 40318 56008=
07558,1999-12-01 03:00:00,3.1,1031.8,-0.3,62,-3.5,,,,,,,,,,,,,,,,og-post,,,,AAXX 01034 07558 36/// /0000 10031 21035 39448 40318 57003=
07558,1999-12-01 04:00:00,2.7,1031.7,-0.4,65,-3.2,,3.704,,,10,,,,,,,,,,,og-post,,,,AAXX 01044 07558 36/// /0102 10027 21032 39446 40317 58004=
07558,1999-12-01 05:00:00,2.6,1031.3,-0.7,66,-3.1,25000,,,,,,,,,,,,,,,og-post,,,,AAXX 01054 07558 32975 40000 10026 21031 39442 40313 58007 80002 333 84075=
07558,1999-12-01 06:00:00,2.5,1031.2,-0.7,67,-3,25000,3.704,,,60,1.7,9.4,,,,,0,8.6,-2,,og-post,,,,AAXX 01064 07558 32975 50602 10025 21030 39441 40312 56007 83032 333 10094 20017 30102 55086 70000 83360 85075=
07558,1999-12-01 07:00:00,2.3,1031.4,-0.4,66,-3.4,25000,,,,,,,,,,,,,,,og-post,,,,AAXX 01074 07558 32975 50000 10023 21034 3942 40314 55004 82032 333 82360 85075=
07558,1999-12-01 08:00:00,2.2,1031.9,0.5,74,-1.9,25000,,,,,,,,,,,,,,,og-post,,,,AAXX 01084 07558 32975 50000 10022 21019 39447 40319 53005 83032 333 83360 85075=
07558,1999-12-01 09:00:00,3.1,1032,0.9,73,-1.3,25000,3.704,,,200,,,,,,,,,,,og-post,,,,AAXX 01094 07558 32975 52002 10031 21013 39450 40320 53009 83032 333 83360 85075=
07558,1999-12-01 10:00:00,4.6,1031.8,1.1,75,0.6,25000,7.408,,,200,,,,,,,,,,,og-post,,,,AAXX 01104 07558 32975 42004 10046 20006 3953 40318 51011 80002 333 84075=
07558,1999-12-01 11:00:00,5.9,1030.8,0.1,72,1.2,25000,11.112,,,210,,,,,,,,,,,og-post,,,,AAXX 01114 07558 32975 42106 10059 20012 39448 40308 50001 80001 333 84075=
07558,1999-12-01 12:00:00,7.2,1029.7,-0.8,70,2.1,25000,11.112,,,250,,,,,,,,,,,og-post,,,,AAXX 01124 07558 32975 42506 10072 20021 39442 40297 58008 80001 333 84075=
07558,1999-12-01 13:00:00,6.9,1029.2,-1.7,75,2.8,25000,11.112,,,230,,,,,,,,,,,og-post,,,,AAXX 01134 07558 32975 52306 10069 20028 39436 40292 58017 80002 333 85075=
07558,1999-12-01 15:00:00,8.5,1028,-1.2,69,3.1,25000,11.112,,,250,,,,,,,,,,,og-post,,,,AAXX 01154 07558 32975 42506 10085 20031 39430 40280 56012 80002 333 84075=
07558,1999-12-01 16:00:00,6.7,1028.7,-0.5,62,-0.1,25000,18.52,,,310,,,,,,,,,,,og-post,,,,AAXX 01164 07558 32975 33110 10067 21001 39431 40287 55005 80001 333 83075=
07558,1999-12-01 17:00:00,5.8,1029.1,0.1,69,0.6,,22.224,,,310,,,,,,,,,,,og-post,,,,AAXX 01174 07558 36/// /3112 10058 20006 39432 40291 53001=
07558,1999-12-01 18:00:00,5,1029.5,0.3,76,1.1,,22.224,,,330,1.7,8.6,,,,,,,,,og-post,,,,AAXX 01184 07558 36/// /3312 10050 20011 39433 40295 52003 333 10086 20017=
07558,1999-12-01 19:00:00,3.7,1030.4,0.7,86,1.6,,11.112,,,320,,,,,,,,,,,og-post,,,,AAXX 01194 07558 36/// /3206 10037 20016 39438 40304 53007=
07558,1999-12-01 20:00:00,2.9,1030.9,0.8,93,1.9,,,,,,,,,,,,,,,,og-post,,,,AAXX 01204 07558 36/// /0000 10029 20019 39440 40309 53008=
07558,1999-12-01 21:00:00,2.1,1031.1,0.6,94,1.2,,7.408,,,20,,,,,,,,,,,og-post,,,,AAXX 01214 07558 36/// /0204 10021 20012 39439 40311 50006=
07558,1999-12-01 22:00:00,1.5,1030.9,-0.2,98,1.2,,11.112,,,340,,,,,,,,,,,og-post,,,,AAXX 01224 07558 36/// /3406 10015 20012 39436 40309 58002=
07558,1999-12-01 23:00:00,1.1,1030.9,-0.5,99,1,,14.816,,,340,,,,,,,,,,,og-post,,,,AAXX 01234 07558 36/// /3408 10011 20010 39435 40309 57005=
07558,1999-12-02 00:00:00,0.6,1031.3,-0.2,100,0.6,,11.112,,,340,,,,,,,,,,,og-post,,,,AAXX 02004 07558 36/// /3406 10006 20006 39437 40313 55002=
07558,1999-12-02 01:00:00,0,1031.4,-0,100,0,,7.408,,,330,,,,,,,,,,,og-post,,,,AAXX 02014 07558 36/// /3304 10000 20000 39436 40314 54000=
07558,1999-12-02 02:00:00,-0.1,1031.9,0.5,100,-0.1,,7.408,,,320,,,,,,,,,,,og-post,,,,AAXX 02024 07558 36/// /3204 11001 21001 39440 40319 53005=
07558,1999-12-02 03:00:00,-0.4,1031.9,0.2,100,-0.4,,3.704,,,340,,,,,,,,,,,og-post,,,,AAXX 02034 07558 36/// /3402 11004 21004 39439 40319 52002=
07558,1999-12-02 06:00:00,-0.2,1032.6,0.7,100,-0.2,200,3.704,,,240,-0.6,5,,,,,0,5.5,-2,42,og-post,,,,AAXX 02064 07558 31102 82402 11002 21002 39446 40326 53007 74242 885// 333 10050 21006 30102 55055 70000 85701 88606=
07558,1999-12-02 09:00:00,0.6,1034.1,1.6,100,0.6,200,3.704,,,200,,,,,,,,,,44,og-post,,,,AAXX 02094 07558 31102 82002 10006 20006 39462 40341 52016 74444 885// 333 85701 88608=
07558,1999-12-02 12:00:00,3.3,1031.9,-1.1,100,3.3,500,,,,,,,,,,,,,,46,og-post,,,,AAXX 02124 07558 31205 70000 10033 20033 39451 40319 58011 74644 875// 333 84703 86610=
07558,1999-12-02 13:00:00,4.2,1031.4,-1.7,100,4.2,2000,7.408,,,330,,,,,,,,,,28,og-post,,,,AAXX 02134 07558 31220 73304 10042 20042 39449 40314 56017 72842 875// 333 83703 86610=
07558,1999-12-02 14:00:00,4.9,1031.1,-0.9,98,4.6,4000,14.816,,,320,,,,,,,,,,10,og-post,,,,AAXX 02144 07558 41240 73208 10049 20046 39448 40311 56009 71022 875// 333 83703 86610=
07558,1999-12-02 15:00:00,5,1030.8,-0.5,95,4.3,7000,18.52,,,320,,,,,,,,,,1,og-post,,,,AAXX 02154 07558 41257 73210 10050 20043 39446 40308 57005 70142 875// 333 83705 86613=
07558,1999-12-02 16:00:00,4.8,1031.1,-0.1,95,4.1,8000,14.816,,,300,,,,,,,,,,,og-post,,,,AAXX 02164 07558 32258 73008 10048 20041 39448 40311 55001 875// 333 83705 86615=
07558,1999-12-02 17:00:00,4.4,1031.5,0.2,96,3.8,,11.112,,,360,,,,,,,,,,,og-post,,,,AAXX 02174 07558 36/// /3606 10044 20038 39450 40315 53002=
07558,1999-12-02 18:00:00,3.8,1031.3,0.1,98,3.5,,22.224,,,340,-0.2,5.1,,,,,,,,,og-post,,,,AAXX 02184 07558 46/// /3412 10038 20035 39447 40313 50001 333 10051 21002=
07558,1999-12-02 19:00:00,3.4,1031.8,0.2,98,3.1,,22.224,,,360,,,,,,,,,,,og-post,,,,AAXX 02194 07558 36/// /3612 10034 20031 39450 40318 53002=
07558,1999-12-02 20:00:00,3.3,1031.8,-0,97,2.9,,3.704,,,320,,,,,,,,,,,og-post,,,,AAXX 02204 07558 36/// /3202 10033 20029 39450 40318 55000=
07558,1999-12-02 21:00:00,3,1031.6,0,98,2.7,,3.704,,,250,,,,,,,,,,,og-post,,,,AAXX 02214 07558 36/// /2502 10030 20027 39447 40316 50000=
07558,1999-12-02 22:00:00,2.7,1031.3,-0.7,99,2.6,,,,,,,,,,,,,,,,og-post,,,,AAXX 02224 07558 36/// /0000 10027 20026 39443 40313 58007=
07558,1999-12-02 23:00:00,2.2,1031,-1.1,100,2.2,,3.704,,,280,,,,,,,,,,,og-post,,,,AAXX 02234 07558 36/// /2802 10022 20022 39439 40310 58011=
07558,1999-12-03 00:00:00,2.3,1030.4,-1.3,100,2.3,,7.408,,,360,,,,,,,,,,,og-post,,,,AAXX 03004 07558 36/// /3604 10023 20023 39434 40304 58013=
07558,1999-12-03 01:00:00,1,1029.9,-1.8,99,0.9,,11.112,,,10,,,,,,,,,,,og-post,,,,AAXX 03014 07558 36/// /0106 10010 20009 39425 40299 58018=
07558,1999-12-03 02:00:00,1.2,1029.5,-1.7,100,1.2,,7.408,,,30,,,,,,,,,,,og-post,,,,AAXX 03024 07558 36/// /0304 10012 20012 39422 40295 56017=
07558,1999-12-03 03:00:00,0.9,1028.7,-2,99,0.8,,7.408,,,30,,,,,,,,,,,og-post,,,,AAXX 03034 07558 36/// /0304 10009 20008 39414 40287 56020=
07558,1999-12-03 04:00:00,1.3,1027.9,-1.7,95,0.6,,7.408,,,20,,,,,,,,,,,og-post,,,,AAXX 03044 07558 36/// /0204 10013 20006 39408 40279 58017=
07558,1999-12-03 05:00:00,0.3,1028.1,-1.6,95,-0.4,30000,14.816,,,30,,,,,,,,,,,og-post,,,,AAXX 03054 07558 32980 00308 10003 21004 39406 40281 56016=
07558,1999-12-03 06:00:00,1.1,1027.8,-0.8,85,-1.1,30000,11.112,,,20,0,3.9,,,,,,,-3,,og-post,,,,AAXX 03064 07558 32980 10206 10011 21011 39406 40278 56008 80001 333 10039 20000 34103 55/// 81075=
07558,1999-12-03 07:00:00,2,1028,0.2,75,-2,30000,11.112,,,20,,,,,,,,,,,og-post,,,,AAXX 03074 07558 32980 20206 10020 21020 39410 40280 53002 80001 333 82075=
07558,1999-12-03 08:00:00,3,1027.4,0.2,68,-2.3,30000,7.408,,,40,,,,,,,,,,,og-post,,,,AAXX 03084 07558 32980 30404 10030 21023 39408 40274 50002 80001 333 83075=
07558,1999-12-03 09:00:00,3.6,1027.4,0.4,67,-1.9,30000,3.704,,,360,,,,,,,,,,,og-post,,,,AAXX 03094 07558 32980 33602 10036 21019 39410 40274 51004 80001 333 83075=
07558,1999-12-03 10:00:00,5.8,1026.7,-0,64,-0.5,30000,3.704,,,40,,,,,,,,,,,og-post,,,,AAXX 03104 07558 32980 30402 10058 21005 39410 40267 55000 80001 333 83075=
07558,1999-12-03 11:00:00,7.4,1025.4,-0.5,65,1.3,30000,3.704,,,60,,,,,,,,,,,og-post,,,,AAXX 03114 07558 32980 30602 10074 20013 39403 40254 58005 80001 333 83075=
07558,1999-12-03 12:00:00,8.9,1024.5,-1.1,62,2,30000,3.704,,,360,,,,,,,,,,,og-post,,,,AAXX 03124 07558 32980 43602 10089 20020 39399 40245 58011 80001 333 84075=
07558,1999-12-03 13:00:00,10,1023.7,-1.5,58,2.1,30000,3.704,,,250,,,,,,,,,,,og-post,,,,AAXX 03134 07558 32980 42502 10100 20021 39395 40237 56015 80001 333 84075=
07558,1999-12-03 14:00:00,10.1,1023.1,-1.3,61,2.9,30000,7.408,,,220,,,,,,,,,,,og-post,,,,AAXX 03144 07558 32980 52204 10101 20029 39390 40231 58013 80002 333 85075=
07558,1999-12-03 15:00:00,8.2,1023.6,-1,70,3.1,30000,11.112,,,240,,,,,,,,,,,og-post,,,,AAXX 03154 07558 32980 52406 10082 20031 39389 40236 56010 80002 333 85075=
07558,1999-12-03 16:00:00,7.1,1024.2,-0.4,73,2.6,30000,14.816,,,220,,,,,,,,,,,og-post,,,,AAXX 03164 07558 32980 52208 10071 20026 39391 40242 55004 80002 333 85075=
07558,1999-12-03 17:00:00,6.2,1024.6,0.2,77,2.5,,14.816,,,220,,,,,,,,,,,og-post,,,,AAXX 03174 07558 36/// /2208 10062 20025 39392 40246 53002=
07558,1999-12-03 18:00:00,5.5,1025.2,0.6,73,1.1,,11.112,,,230,1.1,10.4,,,,,,,,,og-post,,,,AAXX 03184 07558 36/// /2306 10055 20011 39395 40252 53006 333 10104 20011=
07558,1999-12-03 20:00:00,3.9,1025.9,0.5,85,1.6,,11.112,,,200,,,,,,,,,,,og-post,,,,AAXX 03204 07558 36/// /2006 10039 20016 39397 40259 52005=
07558,1999-12-03 21:00:00,3.6,1025.7,0,89,2,,3.704,,,210,,,,,,,,,,,og-post,,,,AAXX 03214 07558 36/// /2102 10036 20020 39395 40257 50000=
07558,1999-12-03 22:00:00,3.4,1025.6,-0.1,86,1.3,,7.408,,,200,,,,,,,,,,,og-post,,,,AAXX 03224 07558 36/// /2004 10034 20013 39393 40256 58001=
07558,1999-12-03 23:00:00,3,1025.9,-0.3,85,0.7,,3.704,,,290,,,,,,,,,,,og-post,,,,AAXX 03234 07558 36/// /2902 10030 20007 39394 40259 55003=
07558,1999-12-04 00:00:00,3.3,1025.2,-0.6,83,0.7,,3.704,,,210,,,,,,,,,,,og-post,,,,AAXX 04004 07558 36/// /2102 10033 20007 39389 40252 58006=
07558,1999-12-04 01:00:00,1,1025.2,-1.1,94,0.1,,11.112,,,170,,,,,,,,,,,og-post,,,,AAXX 04014 07558 36/// /1706 10010 20001 39382 40252 58011=
07558,1999-12-04 02:00:00,2,1024.7,-1.3,96,1.4,,3.704,,,300,,,,,,,,,,,og-post,,,,AAXX 04024 07558 36/// /3002 10020 20014 39381 40247 56013=
07558,1999-12-04 03:00:00,2.4,1024.1,-1.3,95,1.7,,3.704,,,360,,,,,,,,,,,og-post,,,,AAXX 04034 07558 36/// /3602 10024 20017 39376 40241 56013=
07558,1999-12-04 04:00:00,2.9,1023.6,-0.9,92,1.7,,3.704,,,310,,,,,,,,,,,og-post,,,,AAXX 04044 07558 36/// /3102 10029 20017 39373 40236 58009=
07558,1999-12-04 05:00:00,3.2,1022.9,-1.3,91,1.9,8000,3.704,,,300,,,,,,,,,,,og-post,,,,AAXX 04054 07558 32358 73002 10032 20019 39368 40229 57013 875// 333 83608 86615=
07558,1999-12-04 06:00:00,2.9,1022.9,-0.9,92,1.7,7000,7.408,,,300,0.7,5.6,,,,,0,7.3,-2,,og-post,,,,AAXX 04064 07558 32357 73004 10029 20017 39367 40229 56009 875// 333 10056 20007 30102 55073 70000 83606 87613=
07558,1999-12-04 07:00:00,2.8,1022.9,-0.7,88,1,8000,18.52,,,310,,,,,,,,,,,og-post,,,,AAXX 04074 07558 32358 73110 10028 20010 39366 40229 56007 875// 333 83606 87613=
07558,1999-12-04 08:00:00,3,1023.2,0.2,85,0.7,10000,,,,,,,,,,,,,,,og-post,,,,AAXX 04084 07558 32460 70000 10030 20007 39370 40232 53002 875// 333 87615=
07558,1999-12-04 09:00:00,3.4,1023.2,0.4,86,1.3,10000,3.704,,,260,,,,,,,,,,,og-post,,,,AAXX 04094 07558 32460 72602 10034 20013 39371 40232 53004 875// 333 87615=
07558,1999-12-04 10:00:00,3.7,1023.4,0.8,90,2.2,8000,7.408,,,240,,,,,,,,,,,og-post,,,,AAXX 04104 07558 32458 72404 10037 20022 39374 40234 51008 875// 333 87613=
07558,1999-12-04 11:00:00,3.5,1023.3,0.2,93,2.5,6000,11.112,,,200,,,,,,,,,,,og-post,,,,AAXX 04114 07558 32356 72006 10035 20025 39372 40233 50002 875// 333 83606 87613=
07558,1999-12-04 13:00:00,4.9,1021,-1.8,92,3.7,,7.408,,,200,,,,,,,,,,,og-post,,,,AAXX 04134 07558 36/// /2004 10049 20037 39356 40210 58018=
07558,1999-12-04 14:00:00,5.5,1020,-2.4,90,4,,18.52,,,240,,,,,,,,,,,og-post,,,,AAXX 04144 07558 36/// /2410 10055 20040 39348 40200 56024=
07558,1999-12-04 15:00:00,5.2,1020.1,-1.5,92,4,,22.224,,,240,,,,,,,,,,,og-post,,,,AAXX 04154 07558 36/// /2412 10052 20040 39348 40201 56015=
07558,1999-12-04 16:00:00,5,1019.6,-1.3,97,4.6,,25.928,,,240,,,,,,,,,,,og-post,,,,AAXX 04164 07558 36/// /2414 10050 20046 39343 40196 56013=
07558,1999-12-04 17:00:00,5,1019.5,-0.6,99,4.9,,22.224,,,230,,,,,,,,,,,og-post,,,,AAXX 04174 07558 36/// /2312 10050 20049 39342 40195 58006=
07558,1999-12-04 18:00:00,5,1019.6,-0.5,100,5,,22.224,,,220,2.7,5.5,,,,,,,,,og-post,,,,AAXX 04184 07558 36/// /2212 10050 20050 39343 40196 55005 333 10055 20027=
07558,1999-12-04 19:00:00,5.3,1019.6,0.1,100,5.3,,25.928,,,230,,,,,,,,,,,og-post,,,,AAXX 04194 07558 36/// /2314 10053 20053 39344 40196 53001=
07558,1999-12-04 20:00:00,5.4,1019.4,0.1,100,5.4,,22.224,,,220,,,0.4,,,,,,,,og-post,,,,AAXX 04204 07558 26/// /2212 10054 20054 39343 40194 50001 333 69945=
07558,1999-12-04 21:00:00,5.7,1019.2,-0.1,100,5.7,,18.52,,,230,,,,0.8,,,,,,,og-post,,,,AAXX 04214 07558 26/// /2310 10057 20057 39342 40192 58001 333 69987=
07558,1999-12-04 22:00:00,5.8,1019.5,0.1,99,5.7,,22.224,,,310,,,,,,,,,,,og-post,,,,AAXX 04224 07558 36/// /3112 10058 20057 39345 40195 53001=
07558,1999-12-04 23:00:00,4.3,1020.5,0.6,83,1.7,,29.632,,,320,,,,,,,,,,,og-post,,,,AAXX 04234 07558 36/// /3216 10043 20017 39349 40205 53006=
07558,1999-12-05 00:00:00,3.5,1021.6,1.4,78,0,,25.928,,,310,,,,,0.8,,,,,,og-post,,,,AAXX 05004 07558 16/// /3114 10035 20000 39356 40216 53014 69981=
07558,1999-12-05 01:00:00,3.6,1022.2,1.7,85,1.3,,18.52,,,290,,,,,,,,,,,og-post,,,,AAXX 05014 07558 36/// /2910 10036 20013 39362 40222 53017=
07558,1999-12-05 02:00:00,3.8,1022.2,1.4,85,1.5,,22.224,,,300,,,,,,,,,,,og-post,,,,AAXX 05024 07558 36/// /3012 10038 20015 39363 40222 51014=
07558,1999-12-05 03:00:00,3.2,1022.9,1.2,85,0.9,,18.52,,,320,,,,,,,,,,,og-post,,,,AAXX 05034 07558 36/// /3210 10032 20009 39368 40229 51012=
07558,1999-12-05 04:00:00,2.6,1023.3,0.7,85,0.3,,14.816,,,280,,,,,,,,,,,og-post,,,,AAXX 05044 07558 36/// /2808 10026 20003 39369 40233 52007=
07558,1999-12-05 05:00:00,2.7,1023.9,1.2,83,0.1,10000,22.224,,,300,,,,,,,,,,,og-post,,,,AAXX 05054 07558 32560 63012 10027 20001 39375 40239 53012 86500 333 86620=
07558,1999-12-05 06:00:00,2.3,1024.2,0.9,81,-0.6,12000,31.484,,,300,2.1,5.8,,,,0.8,0.8,,1,,og-post,,,,AAXX 05064 07558 12562 63017 10023 21006 39377 40242 53009 69982 86500 333 10058 20021 30001 55000 70008 86623=
07558,1999-12-05 07:00:00,1.8,1024.9,1.2,79,-1.4,15000,31.484,,,300,,,,,,,,,,,og-post,,,,AAXX 05074 07558 32565 53017 10018 21014 39381 40249 51012 85500 333 85623=
07558,1999-12-05 08:00:00,1.3,1026.2,1.7,79,-1.9,20000,25.928,,,310,,,,,,,,,,,og-post,,,,AAXX 05084 07558 32570 53114 10013 21019 39392 40262 53017 84502 333 84620 83075=
07558,1999-12-05 09:00:00,1.6,1026.7,2,75,-2.3,30000,31.484,,,330,,,,,,,,,,,og-post,,,,AAXX 05094 07558 32580 43317 10016 21023 39397 40267 53020 82502 333 82620 83075=
07558,1999-12-05 10:00:00,2.4,1027,2.1,69,-2.7,30000,31.484,,,320,,,,,,,,,,,og-post,,,,AAXX 05104 07558 32580 33217 10024 21027 39402 40270 51021 82502 333 82623=
07558,1999-12-05 11:00:00,3,1026.6,0.8,60,-4,30000,38.892,61.116,,330,,,,,,,,,,,og-post,,,,AAXX 05114 07558 32580 33321 10030 21040 39400 40266 50008 82502 333 82623 91133=
07558,1999-12-05 12:00:00,3.4,1026.7,0.5,57,-4.3,,38.892,61.116,,330,,,,,,,,,,,og-post,,,,AAXX 05124 07558 36/// /3321 10034 21043 39402 40267 51005 333 91133=
07558,1999-12-05 13:00:00,3.7,1026.6,-0,59,-3.6,,31.484,64.82,,310,,,,,,,,,,,og-post,,,,AAXX 05134 07558 36/// /3117 10037 21036 39402 40266 55000 333 91135=
07558,1999-12-05 14:00:00,3.2,1026.9,0.3,54,-5.2,,31.484,,,330,,,,,,,,,,,og-post,,,,AAXX 05144 07558 36/// /3317 10032 21052 39403 40269 51003=
07558,1999-12-05 15:00:00,2.9,1024,0.5,52,-6,,29.632,64.82,,320,,,,,,,,,,,og-post,,,,AAXX 05154 07558 36/// /3216 10029 21060 39407 4024 53005 333 91135=
07558,1999-12-05 16:00:00,1.9,1028.5,1.2,54,-6.4,,25.928,,,330,,,,,,,,,,,og-post,,,,AAXX 05164 07558 36/// /3314 10019 21064 39414 40285 53012=
07558,1999-12-05 17:00:00,0.6,1029.5,1.6,58,-6.7,,25.928,,,320,,,,,,,,,,,og-post,,,,AAXX 05174 07558 36/// /3214 10006 21067 39419 40295 53016=
07558,1999-12-05 18:00:00,0,1030.1,1.6,60,-6.8,,25.928,64.82,,310,0,3.7,,,,,,,,,og-post,,,,AAXX 05184 07558 36/// /3114 10000 21068 39423 40301 51016 333 10037 20000 91135=
07558,1999-12-05 19:00:00,0.4,1030.6,1.5,60,-6.4,,29.632,,,330,,,,,,,,,,,og-post,,,,AAXX 05194 07558 36/// /3316 10004 21064 39429 40306 53015=
07558,1999-12-05 20:00:00,-0.3,1031.6,1.7,64,-6.3,,25.928,,,330,,,,,,,,,,,og-post,,,,AAXX 05204 07558 36/// /3314 11003 21063 39436 40316 53017=
07558,1999-12-05 21:00:00,-0.3,1032.2,1.8,65,-6.1,,31.484,,,330,,,,,,,,,,,og-post,,,,AAXX 05214 07558 36/// /3317 11003 21061 39441 40322 51018=
07558,1999-12-05 22:00:00,-0.4,1032.2,1.2,67,-5.8,,31.484,,,330,,,,,,,,,,,og-post,,,,AAXX 05224 07558 36/// /3317 11004 21058 39441 40322 51012=
07558,1999-12-05 23:00:00,-0.7,1032.4,0.6,68,-5.9,,31.484,,,330,,,,,,,,,,,og-post,,,,AAXX 05234 07558 36/// /3317 11007 21059 39442 40324 51006=
07558,1999-12-06 00:00:00,-0.5,1032.5,0.2,67,-5.9,,25.928,,,330,,,,,,,,,,,og-post,,,,AAXX 06004 07558 36/// /3314 11005 21059 39443 40325 53002=
07558,1999-12-06 01:00:00,-1.1,1032.4,0,71,-5.7,,25.928,,,340,,,,,,,,,,,og-post,,,,AAXX 06014 07558 36/// /3414 11011 21057 39441 40324 50000=
07558,1999-12-06 02:00:00,-1,1032.6,0.1,71,-5.6,,22.224,,,350,,,,,,,,,,,og-post,,,,AAXX 06024 07558 36/// /3512 11010 21056 39443 40326 53001=
07558,1999-12-06 03:00:00,-0.9,1032.4,-0.2,70,-5.7,,18.52,,,350,,,,,,,,,,,og-post,,,,AAXX 06034 07558 36/// /3510 11009 21057 39441 40324 57002=
07558,1999-12-06 04:00:00,-0.8,1032.3,0,68,-5.9,,14.816,,,340,,,,,,,,,,,og-post,,,,AAXX 06044 07558 36/// /3408 11008 21059 39441 40323 50000=
07558,1999-12-06 05:00:00,-1.3,1032.5,-0.2,70,-6,10000,22.224,,,330,,,,,,,,,,,og-post,,,,AAXX 06054 07558 32960 03312 11013 21060 39441 40325 56002=
07558,1999-12-06 06:00:00,-2.3,1033.3,0.4,75,-6.1,10000,11.112,,,330,-2.5,0.5,,,,,,8.2,-5,,og-post,,,,AAXX 06064 07558 32960 03306 11023 21061 39445 40333 53004 333 10005 21025 3/105 55082 70000=
07558,1999-12-06 07:00:00,-2.1,1033.6,0.8,75,-5.9,15000,22.224,,,340,,,,,,,,,,,og-post,,,,AAXX 06074 07558 32965 33412 11021 21059 39449 40336 53008 80001 333 83073=
07558,1999-12-06 08:00:00,-1.4,1033.2,0.6,73,-5.6,,22.224,,,360,,,,,,,,,,,og-post,,,,AAXX 06084 07558 36/// /3612 11014 21056 39447 40332 50006=
07558,1999-12-06 09:00:00,-0.3,1033.1,0.5,71,-4.9,15000,14.816,,,30,,,,,,,,,,,og-post,,,,AAXX 06094 07558 32965 30308 11003 21049 39450 40331 51005 80001 333 83073=
07558,1999-12-06 11:00:00,3.6,1031.1,-0.4,49,-6.1,20000,22.224,,,350,,,,,,,,,,,og-post,,,,AAXX 06114 07558 32970 23512 10036 21061 39443 40311 58004 80001 333 82073=
07558,1999-12-06 12:00:00,5.6,1029.7,-1.4,50,-4,20000,7.408,,,230,,,,,,,,,,,og-post,,,,AAXX 06124 07558 32970 22304 10056 21040 39436 40297 58014 80001 333 82073=
07558,1999-12-06 13:00:00,6.9,1028.9,-1.7,47,-3.6,20000,11.112,,,240,,,,,,,,,,,og-post,,,,AAXX 06134 07558 32970 22406 10069 21036 39433 40289 56017 80001 333 82073=
07558,1999-12-06 14:00:00,6.6,1028.5,-1.5,50,-3.1,20000,14.816,,,220,,,,,,,,,,,og-post,,,,AAXX 06144 07558 32970 22208 10066 21031 39428 40285 56015 80001 333 82073=
07558,1999-12-06 15:00:00,5.9,1028.8,-0.7,55,-2.4,20000,14.816,,,210,,,,,,,,,,,og-post,,,,AAXX 06154 07558 32970 22108 10059 21024 39429 40288 55007 80001 333 82073=
07558,1999-12-06 16:00:00,4,1029.7,-0.1,60,-3,20000,11.112,,,210,,,,,,,,,,,og-post,,,,AAXX 06164 07558 32970 22106 10040 21030 39432 40297 55001 80001 333 82073=
07558,1999-12-06 17:00:00,3,1030.1,0.4,65,-2.9,,11.112,,,210,,,,,,,,,,,og-post,,,,AAXX 06174 07558 36/// /2106 10030 21029 39432 40301 51004=
07558,1999-12-06 18:00:00,3.2,1030.1,0.4,64,-2.9,,3.704,,,10,-2.5,7,,,,,,,,,og-post,,,,AAXX 06184 07558 36/// /0102 10032 21029 39433 40301 51004 333 10070 21025=
07558,1999-12-06 19:00:00,2.7,1030.3,0.1,65,-3.2,,3.704,,,40,,,,,,,,,,,og-post,,,,AAXX 06194 07558 36/// /0402 10027 21032 39433 40303 52001=
07558,1999-12-06 20:00:00,2.6,1030.3,0.1,64,-3.5,,7.408,,,360,,,,,,,,,,,og-post,,,,AAXX 06204 07558 36/// /3604 10026 21035 39433 40303 51001=
07558,1999-12-06 21:00:00,2.6,1030.2,-0.1,63,-3.7,,11.112,,,30,,,,,,,,,,,og-post,,,,AAXX 06214 07558 36/// /0306 10026 21037 39432 40302 58001=
07558,1999-12-06 22:00:00,1.9,1030.2,-0.3,65,-4,,7.408,,,30,,,,,,,,,,,og-post,,,,AAXX 06224 07558 36/// /0304 10019 21040 39430 40302 58003=
07558,1999-12-06 23:00:00,2.4,1029.8,-0.5,59,-4.8,,7.408,,,20,,,,,,,,,,,og-post,,,,AAXX 06234 07558 36/// /0204 10024 21048 39428 40298 58005=
07558,1999-12-07 00:00:00,2.9,1029.1,-0.9,56,-5,,11.112,,,20,,,,,,,,,,,og-post,,,,AAXX 07004 07558 36/// /0206 10029 21050 39423 40291 58009=
07558,1999-12-07 01:00:00,2.6,1028.6,-1.3,57,-5,,7.408,,,30,,,,,,,,,,,og-post,,,,AAXX 07014 07558 36/// /0304 10026 21050 39417 40286 58013=
07558,1999-12-07 02:00:00,2.6,1028.4,-1.3,57,-5,,14.816,,,30,,,,,,,,,,,og-post,,,,AAXX 07024 07558 36/// /0308 10026 21050 39415 40284 56013=
07558,1999-12-07 03:00:00,2.5,1027.9,-1.2,59,-4.7,,3.704,,,350,,,,,,,,,,,og-post,,,,AAXX 07034 07558 36/// /3502 10025 21047 39411 40279 56012=
07558,1999-12-07 04:00:00,2.5,1027.4,-1.1,63,-3.8,,7.408,,,30,,,,,,,,,,,og-post,,,,AAXX 07044 07558 36/// /0304 10025 21038 39406 40274 58011=
07558,1999-12-07 05:00:00,2.5,1027.2,-1.1,65,-3.4,10000,7.408,,,30,,,,,,,,,,,og-post,,,,AAXX 07054 07558 32960 00304 10025 21034 39404 40272 56011=
07558,1999-12-07 06:00:00,3.6,1026.8,-0.7,64,-2.6,10000,7.408,,,30,1.5,3.6,,,,,,8.7,-2,,og-post,,,,AAXX 07064 07558 32960 00304 10036 21026 39404 40268 56007 333 10036 20015 30102 55087 70000=
07558,1999-12-07 07:00:00,3.5,1026.8,-0.2,66,-2.2,20000,11.112,,,70,,,,,,,,,,,og-post,,,,AAXX 07074 07558 32970 00706 10035 21022 39404 40268 56002=
07558,1999-12-07 08:00:00,4.7,1026.6,0.2,64,-1.5,20000,,,,,,,,,,,,,,,og-post,,,,AAXX 07084 07558 32970 00000 10047 21015 39406 40266 53002=
07558,1999-12-07 09:00:00,4.6,1027.1,0.6,64,-1.6,20000,3.704,,,350,,,,,,,,,,,og-post,,,,AAXX 07094 07558 32970 03502 10046 21016 39410 40271 53006=
07558,1999-12-07 10:00:00,6.1,1026.6,0.6,62,-0.6,20000,3.704,,,70,,,,,,,,,,,og-post,,,,AAXX 07104 07558 32970 00702 10061 21006 39410 40266 51006=
07558,1999-12-07 11:00:00,7.9,1026.1,0.4,53,-1.1,500,11.112,,,200,,,,,,,,,,,og-post,,,,AAXX 07114 07558 32900 02006 10079 21011 39410 40261 51004=
07558,1999-12-07 12:00:00,7.6,1025.4,-0.7,55,-0.8,20000,18.52,,,210,,,,,,,,,,,og-post,,,,AAXX 07124 07558 32970 02110 10076 21008 39403 40254 58007=
07558,1999-12-07 13:00:00,9.5,1024.5,-1,47,-1.2,,11.112,,,230,,,,,,,,,,,og-post,,,,AAXX 07134 07558 36/// /2306 10095 21012 39400 40245 58010=
07558,1999-12-07 14:00:00,9.9,1024.1,-1.2,46,-1.2,20000,14.816,,,230,,,,,,,,,,,og-post,,,,AAXX 07144 07558 32970 02308 10099 21012 39398 40241 56012=
07558,1999-12-07 15:00:00,7.7,1024.8,-0.5,58,0,,18.52,,,210,,,,,,,,,,,og-post,,,,AAXX 07154 07558 36/// /2110 10077 20000 39398 40248 56005=
07558,1999-12-07 16:00:00,4.3,1025.9,-0.2,78,0.8,20000,22.224,,,220,,,,,,,,,,,og-post,,,,AAXX 07164 07558 32970 02212 10043 20008 39398 40259 56002=
07558,1999-12-07 17:00:00,2.5,1026.7,0.2,94,1.6,,11.112,,,260,,,,,,,,,,,og-post,,,,AAXX 07174 07558 36/// /2606 10025 20016 39400 40267 53002=
07558,1999-12-07 18:00:00,3.6,1026.4,0.3,83,1,,11.112,,,320,2.3,10.2,,,,,,,,,og-post,,,,AAXX 07184 07558 36/// /3206 10036 20010 39401 40264 53003 333 10102 20023=
07558,1999-12-07 19:00:00,2.9,1027.2,0.8,90,1.4,,3.704,,,290,,,,,,,,,,,og-post,,,,AAXX 07194 07558 36/// /2902 10029 20014 39406 40272 53008=
07558,1999-12-07 20:00:00,4.5,1027,0.9,83,1.9,,7.408,,,350,,,,,,,,,,,og-post,,,,AAXX 07204 07558 36/// /3504 10045 20019 39409 40270 53009=
07558,1999-12-07 21:00:00,4.5,1027,0.8,83,1.9,,3.704,,,110,,,,,,,,,,,og-post,,,,AAXX 07214 07558 36/// /1102 10045 20019 39409 40270 51008=
07558,1999-12-07 22:00:00,4.7,1026.7,0.1,81,1.7,,7.408,,,360,,,,,,,,,,,og-post,,,,AAXX 07224 07558 36/// /3604 10047 20017 39407 40267 50001=
07558,1999-12-07 23:00:00,4.2,1026.9,-0.2,83,1.6,,3.704,,,110,,,,,,,,,,,og-post,,,,AAXX 07234 07558 36/// /1102 10042 20016 39407 40269 57002=
07558,1999-12-08 00:00:00,4.5,1026.7,-0.3,82,1.7,,11.112,,,350,,,,,,,,,,,og-post,,,,AAXX 08004 07558 36/// /3506 10045 20017 39406 40267 56003=
07558,1999-12-08 01:00:00,4.6,1026,-0.7,82,1.8,,3.704,,,150,,,,,,,,,,,og-post,,,,AAXX 08014 07558 36/// /1502 10046 20018 39400 40260 58007=
07558,1999-12-08 02:00:00,4.6,1025.6,-1,81,1.6,,7.408,,,30,,,,,,,,,,,og-post,,,,AAXX 08024 07558 36/// /0304 10046 20016 39397 40256 58010=
07558,1999-12-08 03:00:00,4.3,1025.1,-1.5,84,1.8,,7.408,,,20,,,,,,,,,,,og-post,,,,AAXX 08034 07558 36/// /0204 10043 20018 39391 40251 57015=
07558,1999-12-08 04:00:00,4.4,1024.8,-1.1,85,2.1,,3.704,,,350,,,,,,,,,,,og-post,,,,AAXX 08044 07558 36/// /3502 10044 20021 39389 40248 56011=
07558,1999-12-08 05:00:00,4.7,1024.5,-1,86,2.6,7000,11.112,,,20,,,,,,,,,,,og-post,,,,AAXX 08054 07558 32457 50206 10047 20026 39387 40245 56010 85500 333 85613=
07558,1999-12-08 06:00:00,4.7,1024.3,-0.6,86,2.6,7000,14.816,,,20,2.9,5.2,,,,,0,8.6,-0,,og-post,,,,AAXX 08064 07558 32457 50208 10047 20026 39385 40243 57006 85500 333 10052 20029 30100 55086 70000 85613=
07558,1999-12-08 07:00:00,4.6,1024.1,-0.6,86,2.5,7000,7.408,,,20,,,,,,,,,,,og-post,,,,AAXX 08074 07558 32457 80204 10046 20025 39383 40241 57006 885// 333 88613=
07558,1999-12-08 08:00:00,4.6,1023.8,-0.7,86,2.5,8000,11.112,,,30,,,,,,,,,,,og-post,,,,AAXX 08084 07558 32558 60306 10046 20025 39380 40238 58007 83501 333 83620 84073=
07558,1999-12-08 09:00:00,5.5,1023,-0.9,85,3.2,10000,7.408,,,10,,,,,,,,,,,og-post,,,,AAXX 08094 07558 32560 40104 10055 20032 39376 40230 58009 81501 333 81620 84073=
07558,1999-12-08 10:00:00,6.3,1022.9,-0.6,80,3.1,10000,3.704,,,10,,,,,,,,,,,og-post,,,,AAXX 08104 07558 32960 40102 10063 20031 39377 40229 55006 80001 333 84073=
07558,1999-12-08 11:00:00,7.4,1021.8,-1,77,3.6,10000,3.704,,,20,,,,,,,,,,,og-post,,,,AAXX 08114 07558 32960 40202 10074 20036 39370 40218 58010 80001 333 84073=
07558,1999-12-08 12:00:00,7.9,1020.6,-1.5,75,3.8,15000,7.408,,,40,,,,,,,,,,,og-post,,,,AAXX 08124 07558 32965 40404 10079 20038 39361 40206 58015 80001 333 84073=
07558,1999-12-08 13:00:00,9.4,1019.3,-2.4,68,3.8,15000,,,,,,,,,,,,,,,og-post,,,,AAXX 08134 07558 32965 40000 10094 20038 39353 40193 58024 80001 333 84073=
07558,1999-12-08 14:00:00,10.9,1017.6,-2.8,62,3.9,15000,3.704,,,140,,,,,,,,,,,og-post,,,,AAXX 08144 07558 32965 41402 10109 20039 39342 40176 58028 80001 333 84073=
07558,1999-12-08 15:00:00,10.5,1017.2,-2.4,67,4.6,15000,3.704,,,220,,,,,,,,,,,og-post,,,,AAXX 08154 07558 32965 42202 10105 20046 39337 40172 56024 80001 333 84073=
07558,1999-12-08 16:00:00,8.2,1017.8,-1.7,71,3.3,15000,18.52,,,150,,,,,,,,,,,og-post,,,,AAXX 08164 07558 32965 51510 10082 20033 39336 40178 56017 80001 333 85073=
07558,1999-12-08 17:00:00,7,1018.1,-0.7,77,3.3,,11.112,,,150,,,,,,,,,,,og-post,,,,AAXX 08174 07558 36/// /1506 10070 20033 39335 40181 56007=
07558,1999-12-08 18:00:00,6.7,1018.3,-0.1,74,2.4,,11.112,,,150,4.5,11.3,,,,,,,,,og-post,,,,AAXX 08184 07558 36/// /1506 10067 20024 39336 40183 55001 333 10113 20045=
07558,1999-12-08 19:00:00,6.5,1018.4,-0,73,2,,3.704,,,160,,,,,,,,,,,og-post,,,,AAXX 08194 07558 36/// /1602 10065 20020 39336 40184 55000=
07558,1999-12-08 21:00:00,4.8,1018.7,-0.2,82,2,,3.704,,,170,,,,,,,,,,,og-post,,,,AAXX 08214 07558 36/// /1702 10048 20020 39334 40187 58002=
07558,1999-12-08 22:00:00,4,1018.7,-0.4,86,1.9,,7.408,,,60,,,,,,,,,,,og-post,,,,AAXX 08224 07558 36/// /0604 10040 20019 39332 40187 58004=
07558,1999-12-08 23:00:00,3.9,1018.4,-0.6,87,1.9,,11.112,,,110,,,,,,,,,,,og-post,,,,AAXX 08234 07558 36/// /1106 10039 20019 39329 40184 58006=
07558,1999-12-09 00:00:00,4.3,1017.7,-1,91,3,,3.704,,,110,,,,,,,,,,,og-post,,,,AAXX 09004 07558 36/// /1102 10043 20030 39324 40177 58010=
07558,1999-12-09 01:00:00,5.3,1016.6,-1.5,93,4.3,,7.408,,,130,,,,,,,,,,,og-post,,,,AAXX 09014 07558 36/// /1304 10053 20043 39317 40166 58015=
07558,1999-12-09 02:00:00,5.5,1016.1,-1.6,94,4.6,,11.112,,,120,,,,,,,,,,,og-post,,,,AAXX 09024 07558 36/// /1206 10055 20046 39313 40161 56016=
07558,1999-12-09 03:00:00,4.9,1015.2,-2.1,95,4.2,,14.816,,,110,,,,,,,,,,,og-post,,,,AAXX 09034 07558 36/// /1108 10049 20042 39303 40152 58021=
07558,1999-12-09 04:00:00,5.4,1014.6,-1.8,95,4.7,,11.112,,,110,,,,,,,,,,,og-post,,,,AAXX 09044 07558 36/// /1106 10054 20047 39299 40146 57018=
07558,1999-12-09 05:00:00,5.7,1013.9,-2,93,4.7,8000,14.816,,,110,,,,,,,,,,,og-post,,,,AAXX 09054 07558 32558 71108 10057 20047 39293 40139 56020 875// 333 87623=
07558,1999-12-09 06:00:00,5.6,1013.6,-1.3,92,4.4,8000,7.408,,,100,3.8,6.8,,,,,0,6.8,1,,og-post,,,,AAXX 09064 07558 32458 71004 10056 20044 39290 40136 56013 875// 333 10068 20038 30001 55068 70000 87616=
07558,1999-12-09 07:00:00,5.3,1012.8,-1.7,91,4,8000,18.52,,,110,,,,,,,,,,,og-post,,,,AAXX 09074 07558 32458 71110 10053 20040 39282 40128 58017 875// 333 87615=
07558,1999-12-09 08:00:00,5.7,1012.7,-1.1,89,4,10000,18.52,,,130,,,,,,,,,,,og-post,,,,AAXX 09084 07558 32460 71310 10057 20040 39282 40127 56011 875// 333 87615=
07558,1999-12-09 09:00:00,5.4,1013.1,-0.5,88,3.6,7000,18.52,,,140,,,,,,,,,,,og-post,,,,AAXX 09094 07558 32457 71410 10054 20036 39285 40131 55005 875// 333 87613=
07558,1999-12-09 10:00:00,5.7,1013,0.3,85,3.4,7000,14.816,,,150,,,,,,,,,,,og-post,,,,AAXX 09104 07558 32357 71508 10057 20034 39285 40130 52003 875// 333 83608 87613=
07558,1999-12-09 11:00:00,6.5,1011.8,-0.6,82,3.7,8000,14.816,,,140,,,,,,,,,,,og-post,,,,AAXX 09114 07558 32358 71408 10065 20037 39276 40118 58006 875// 333 83608 87616=
07558,1999-12-09 12:00:00,6.4,1011.3,-1.4,80,3.2,8000,3.704,,,130,,,,,,,,,,,og-post,,,,AAXX 09124 07558 32358 71302 10064 20032 39271 40113 58014 875// 333 83608 87616=
07558,1999-12-09 13:00:00,6.7,1009.7,-2.8,79,3.3,8000,11.112,,,100,,,,,,,,,,,og-post,,,,AAXX 09134 07558 32358 71006 10067 20033 39257 40097 58028 875// 333 83608 87615=
07558,1999-12-09 14:00:00,6.6,1009.3,-2.3,81,3.6,10000,11.112,,,180,,,,,,,,,,,og-post,,,,AAXX 09144 07558 32360 71806 10066 20036 39253 40093 56023 875// 333 83608 87615=
07558,1999-12-09 15:00:00,6.1,1009.1,-2.1,82,3.3,8000,14.816,,,250,,,,,,,,,,,og-post,,,,AAXX 09154 07558 32358 72508 10061 20033 39250 40091 56021 875// 333 83608 87615=
07558,1999-12-09 16:00:00,5.6,1009,-0.9,85,3.3,8000,11.112,,,240,,,,,,,,,,,og-post,,,,AAXX 09164 07558 32358 72406 10056 20033 39248 40090 56009 875// 333 84608 87615=
07558,1999-12-09 17:00:00,4.9,1009.2,-0.6,87,2.9,,11.112,,,240,,,,,,,,,,,og-post,,,,AAXX 09174 07558 26/// /2406 10049 20029 39247 40092 56006 333 69905=
07558,1999-12-09 18:00:00,4.4,1009.4,-0.2,91,3.1,,11.112,,,240,4.4,6.8,,,,,,,,,og-post,,,,AAXX 09184 07558 /6/// /2406 10044 20031 39248 40094 55002 69902 333 10068 20044 69907=
07558,1999-12-09 19:00:00,3.9,1009.4,-0.2,96,3.3,,14.816,,,220,,,0.2,,,,,,,,og-post,,,,AAXX 09194 07558 26/// /2208 10039 20033 39246 40094 58002 333 69925=
07558,1999-12-09 20:00:00,3.6,1009.3,-0.2,99,3.5,,11.112,,,210,,,,,,,,,,,og-post,,,,AAXX 09204 07558 26/// /2106 10036 20035 39245 40093 58002 333 69905=
07558,1999-12-09 21:00:00,3.8,1009,-0.5,100,3.8,,14.816,,,230,,,,0.6,,,,,,,og-post,,,,AAXX 09214 07558 26/// /2308 10038 20038 39243 40090 57005 333 69967=
07558,1999-12-09 22:00:00,3.7,1008.9,-0.5,100,3.7,,14.816,,,260,,,0.4,,,,,,,,og-post,,,,AAXX 09224 07558 26/// /2608 10037 20037 39241 40089 58005 333 69945=
07558,1999-12-09 23:00:00,3.4,1008.7,-0.6,100,3.4,,22.224,,,270,,,0.2,,,,,,,,og-post,,,,AAXX 09234 07558 26/// /2712 10034 20034 39239 40087 57006 333 69925=
07558,1999-12-10 00:00:00,3.4,1008.7,-0.4,99,3.3,,18.52,,,260,,,,0.8,1,,,,,,og-post,,,,AAXX 10004 07558 /6/// /2610 10034 20033 39239 40087 56004 60011 333 69987=
07558,1999-12-10 01:00:00,3.1,1008.6,-0.4,96,2.5,,29.632,,,270,,,,,,,,,,,og-post,,,,AAXX 10014 07558 26/// /2716 10031 20025 39237 40086 57004 333 69905=
07558,1999-12-10 02:00:00,3,1008.8,-0.1,92,1.8,,25.928,50.004,,270,,,,,,,,,,,og-post,,,,AAXX 10024 07558 26/// /2714 10030 20018 39238 40088 55001 333 69905 91127=
07558,1999-12-10 03:00:00,2.3,1009.1,-0,96,1.7,,14.816,50.004,,270,,,,,,,,,,,og-post,,,,AAXX 10034 07558 26/// /2708 10023 20017 39239 40091 55000 333 69907 91127=
07558,1999-12-10 04:00:00,1.9,1009.3,0.2,94,1,,25.928,53.708,,280,,,,,,,,,,,og-post,,,,AAXX 10044 07558 26/// /2814 10019 20010 39239 40093 51002 333 69905 91129=
07558,1999-12-10 05:00:00,2.2,1009.6,0.5,94,1.3,10000,25.928,,,290,,,0.2,,,,,,,,og-post,,,,AAXX 10054 07558 22360 72914 10022 20013 39243 40096 53005 875// 333 69925 84606 87613=
07558,1999-12-10 06:00:00,2,1010.5,1.2,95,1.3,10000,11.112,53.708,,260,1.9,4.4,,0.2,,2,1.6,,1,1,og-post,,,,AAXX 10064 07558 /1360 62606 10020 20013 39251 40105 53012 60022 70186 86500 333 10044 20019 32001 55000 69927 70016 83606 85615 91129=
07558,1999-12-10 07:00:00,2.1,1011.3,1.9,92,0.9,12000,22.224,,,280,,,,,,,,,,,og-post,,,,AAXX 10074 07558 32362 72812 10021 20009 39258 40113 53019 878// 333 83806 86613=
07558,1999-12-10 08:00:00,1.7,1012.2,2.2,98,1.4,6000,14.816,,,250,,,0.2,,,,,,,68,og-post,,,,AAXX 10084 07558 21356 72508 10017 20014 39265 40122 51022 76876 875// 333 69925 84606 87613=
07558,1999-12-10 09:00:00,2.3,1012.7,2.1,94,1.4,8000,25.928,,,300,,,,0.4,,,,,,60,og-post,,,,AAXX 10094 07558 21358 73014 10023 20014 39272 40127 52021 76076 875// 333 69947 84608 87615=
07558,1999-12-10 10:00:00,2.7,1013.5,2.2,90,1.2,10000,25.928,,,290,,,,,,,,,,21,og-post,,,,AAXX 10104 07558 21460 72914 10027 20012 39280 40135 53022 72162 878// 333 69905 84810 85616=
07558,1999-12-10 11:00:00,3.4,1013.5,1.7,90,1.9,8000,29.632,,,300,,,,,,,,,,80,og-post,,,,AAXX 10114 07558 21458 73016 10034 20019 39282 40135 51017 78086 878// 333 69905 85810 86615=
07558,1999-12-10 12:00:00,2.5,1013.9,1.1,94,1.6,8000,18.52,,,280,,,,0.6,1,,,,,25,og-post,,,,AAXX 10124 07558 /1358 72810 10025 20016 39283 40139 51011 60011 72587 878// 333 69967 83808 86615=
07558,1999-12-10 13:00:00,3.3,1013.9,0.5,80,0.2,12000,31.484,,,300,,,,,,,,,,,og-post,,,,AAXX 10134 07558 32462 73017 10033 20002 39285 40139 52005 878// 333 83813 85620=
07558,1999-12-10 14:00:00,2.3,1014.3,0.4,92,1.1,7000,29.632,,,290,,,0.2,,,,,,,80,og-post,,,,AAXX 10144 07558 21357 72916 10023 20011 39286 40143 52004 78086 878// 333 69925 84808 86616=
07558,1999-12-10 15:00:00,2.4,1014.8,0.8,87,0.5,12000,25.928,,,300,,,,0.2,,,,,,25,og-post,,,,AAXX 10154 07558 21462 63014 10024 20005 39291 40148 53008 72586 86800 333 69927 83810 84620=
07558,1999-12-10 16:00:00,1.8,1015.8,1.3,89,0.2,10000,25.928,50.004,,310,,,,,,,,,,,og-post,,,,AAXX 10164 07558 32360 73114 10018 20002 39298 40158 53013 878// 333 84808 86616 91127=
07558,1999-12-10 17:00:00,1.6,1016.5,1.8,90,0.1,,29.632,,,300,,,,,,,,,,,og-post,,,,AAXX 10174 07558 36/// /3016 10016 20001 39304 40165 53018=
07558,1999-12-10 18:00:00,1.9,1016.9,1.8,88,0.1,,25.928,,,290,1.4,3.7,,,,1,,,,,og-post,,,,AAXX 10184 07558 16/// /2914 10019 20001 39309 40169 51018 60012 333 10037 20014=
07558,1999-12-10 19:00:00,2.1,1017.2,1.4,88,0.3,,18.52,,,280,,,,,,,,,,,og-post,,,,AAXX 10194 07558 36/// /2810 10021 20003 39312 40172 51014=
07558,1999-12-10 20:00:00,2.1,1017.3,0.9,87,0.2,,18.52,,,280,,,,,,,,,,,og-post,,,,AAXX 10204 07558 36/// /2810 10021 20002 39313 40173 51009=
07558,1999-12-10 21:00:00,1.9,1017,0.1,92,0.7,,14.816,,,260,,,,,,,,,,,og-post,,,,AAXX 10214 07558 36/// /2608 10019 20007 39310 40170 50001=
07558,1999-12-10 22:00:00,2.2,1017,-0.1,93,1.2,,18.52,,,260,,,,,,,,,,,og-post,,,,AAXX 10224 07558 36/// /2610 10022 20012 39311 40170 57001=
07558,1999-12-10 23:00:00,2.2,1016.9,-0.3,97,1.8,,18.52,,,260,,,,,,,,,,,og-post,,,,AAXX 10234 07558 36/// /2610 10022 20018 39310 40169 56003=
07558,1999-12-11 00:00:00,1.9,1017,0,99,1.8,,18.52,,,270,,,,0.2,0.2,,,,,,og-post,,,,AAXX 11004 07558 /6/// /2710 10019 20018 39310 40170 50000 69921 333 69927=
07558,1999-12-11 01:00:00,1.7,1016.6,-0.5,99,1.6,,14.816,,,270,,,0.2,,,,,,,,og-post,,,,AAXX 11014 07558 26/// /2708 10017 20016 39306 40166 58005 333 69925=
07558,1999-12-11 02:00:00,1.7,1016.2,-0.8,99,1.6,,3.704,,,350,,,0.2,,,,,,,,og-post,,,,AAXX 11024 07558 26/// /3502 10017 20016 39302 40162 58008 333 69925=
07558,1999-12-11 03:00:00,1.8,1015.5,-1.4,99,1.7,,3.704,,,250,,,,0.4,,,,,,,og-post,,,,AAXX 11034 07558 26/// /2502 10018 20017 39296 40155 58014 333 69947=
07558,1999-12-11 04:00:00,2.5,1014.8,-1.4,100,2.5,,11.112,,,220,,,,,,,,,,,og-post,,,,AAXX 11044 07558 36/// /2206 10025 20025 39292 40148 57014=
07558,1999-12-11 05:00:00,2.8,1014.5,-1.2,100,2.8,500,14.816,,,200,,,0.8,,,,,,,60,og-post,,,,AAXX 11054 07558 21/00 92008 10028 20028 39290 40145 56012 76064 333 69985=
07558,1999-12-11 06:00:00,3.7,1014.3,-0.5,100,3.7,500,18.52,,,200,1.7,3.8,,1,,2,,1.3,1,60,og-post,,,,AAXX 11064 07558 /1/00 92010 10037 20037 39291 40143 55005 60022 76064 333 10038 20017 32001 55013 60017 70030=
07558,1999-12-11 07:00:00,4.6,1014,-0.1,100,4.6,500,14.816,,,190,,,0.8,,,,,,,60,og-post,,,,AAXX 11074 07558 21/00 91908 10046 20046 39291 40140 56001 76066 333 69985=
07558,1999-12-11 08:00:00,5.8,1013.6,0.1,100,5.8,500,29.632,,,210,,,1,,,,,,,60,og-post,,,,AAXX 11084 07558 21/00 92116 10058 20058 39291 40136 51001 76066 333 60015=
07558,1999-12-11 09:00:00,7,1013.8,0.5,100,7,500,29.632,,,220,,,,3,,,,,,60,og-post,,,,AAXX 11094 07558 21/00 92216 10070 20070 39296 40138 53005 76066 333 60037=
07558,1999-12-11 10:00:00,7.9,1013.9,0.9,100,7.9,100,29.632,,,240,,,0.6,,,,,,,60,og-post,,,,AAXX 11104 07558 21401 82416 10079 20079 39300 40139 53009 76066 885// 333 69965 88616=
07558,1999-12-11 11:00:00,8.2,1014.2,1.3,100,8.2,6000,29.632,,,270,,,1,,,,,,,60,og-post,,,,AAXX 11114 07558 21456 82716 10082 20082 39304 40142 51013 76066 885// 333 60015 88616=
07558,1999-12-11 12:00:00,8.8,1013.5,0.3,97,8.3,,35.188,68.524,,290,,,,2,5,,,,,,og-post,,,,AAXX 11124 07558 /6/// /2919 10088 20083 39299 40135 50003 60051 333 60027 91137=
07558,1999-12-11 13:00:00,8.8,1013.4,-0.2,93,7.7,,38.892,79.636,61.116,280,,,0.2,,,,,,,,og-post,,,,AAXX 11134 07558 26/// /2821 10088 20077 39298 40134 58002 333 69925 91033 91143=
07558,1999-12-11 14:00:00,8.6,1014.2,0.1,96,8,,29.632,75.932,,280,,,,,,,,,,,og-post,,,,AAXX 11144 07558 26/// /2816 10086 20080 39305 40142 53001 333 69905 91141=
07558,1999-12-11 15:00:00,8.6,1014.6,0.9,94,7.7,,35.188,79.636,57.412,290,,,,0.4,,,,,,,og-post,,,,AAXX 11154 07558 26/// /2919 10086 20077 39308 40146 53009 333 69947 91031 91143=
07558,1999-12-11 16:00:00,8.1,1014.5,0.8,94,7.2,,46.3,,72.228,270,,,0.4,,,,,,,,og-post,,,,AAXX 11164 07558 26/// /2725 10081 20072 39306 40145 50008 333 69945 91039=
07558,1999-12-11 17:00:00,7.8,1015.7,1.1,93,6.7,,31.484,75.932,,270,,,0.2,,,,,,,,og-post,,,,AAXX 11174 07558 26/// /2717 10078 20067 39316 40157 53011 333 69925 91141=
07558,1999-12-11 18:00:00,8.1,1015.7,0.9,91,6.7,,31.484,79.636,,270,3.7,9.2,,0.6,,6,,,,,og-post,,,,AAXX 11184 07558 /6/// /2717 10081 20067 39317 40157 53009 60062 333 10092 20037 69967 91143=
07558,1999-12-11 19:00:00,7.5,1016,1.2,99,7.4,,25.928,,,240,,,,,,,,,,,og-post,,,,AAXX 11194 07558 26/// /2414 10075 20074 39318 40160 51012 333 69905=
07558,1999-12-11 20:00:00,7.5,1015.8,0,97,7.1,,35.188,,,260,,,0.2,,,,,,,,og-post,,,,AAXX 11204 07558 26/// /2619 10075 20071 39316 40158 50000 333 69925=
07558,1999-12-11 21:00:00,7.2,1016.1,0.1,98,6.9,,29.632,61.116,,260,,,,0.2,,,,,,,og-post,,,,AAXX 11214 07558 26/// /2616 10072 20069 39318 40161 53001 333 69927 91133=
07558,1999-12-11 22:00:00,6.9,1015.5,-0.6,100,6.9,,25.928,,,230,,,0.4,,,,,,,,og-post,,,,AAXX 11224 07558 26/// /2314 10069 20069 39312 40155 58006 333 69945=
07558,1999-12-12 00:00:00,6.8,1014.8,-1.3,100,6.8,,22.224,61.116,,220,,,,0.6,0.8,,,,,,og-post,,,,AAXX 12004 07558 /6/// /2212 10068 20068 39305 40148 57013 69981 333 69967 91133=
07558,1999-12-12 01:00:00,7,1014,-1.4,100,7,,14.816,,,210,,,,,,,,,,,og-post,,,,AAXX 12014 07558 36/// /2108 10070 20070 39298 40140 58014=
07558,1999-12-12 02:00:00,7.2,1012.5,-2.6,95,6.5,,14.816,,,190,,,,,,,,,,,og-post,,,,AAXX 12024 07558 36/// /1908 10072 20065 39285 40125 58026=
07558,1999-12-12 03:00:00,6.9,1011.4,-3.1,94,6,,3.704,,,50,,,,,,,,,,,og-post,,,,AAXX 12034 07558 36/// /0502 10069 20060 39274 40114 58031=
07558,1999-12-12 04:00:00,6.4,1010.3,-3.6,95,5.7,,7.408,,,60,,,,,,,,,,,og-post,,,,AAXX 12044 07558 36/// /0604 10064 20057 39262 40103 56036=
07558,1999-12-12 05:00:00,5.9,1010.4,-2.3,98,5.6,8000,11.112,,,120,,,,,,,,,,,og-post,,,,AAXX 12054 07558 32458 71206 10059 20056 39262 40104 56023 875// 333 84616 85630=
07558,1999-12-12 06:00:00,6.4,1010.1,-1.4,91,5,10000,11.112,,,120,5.9,8.1,,,,0.8,6.8,,4,,og-post,,,,AAXX 12064 07558 12460 71206 10064 20050 39260 40101 56014 69982 875// 333 10081 20059 31004 55000 70068 84613 86625=
07558,1999-12-12 08:00:00,6.7,1010.2,-0,90,5.2,15000,7.408,,,180,,,0.2,,,,,,,60,og-post,,,,AAXX 12084 07558 21465 71804 10067 20052 39262 40102 55000 76062 8657/ 333 69925 83613 85626 87360=
07558,1999-12-12 09:00:00,6.7,1010.3,0.3,93,5.6,10000,3.704,,,210,,,,0.4,,,,,,61,og-post,,,,AAXX 12094 07558 21460 72102 10067 20056 39263 40103 52003 76162 875// 333 69947 85613 87626=
07558,1999-12-12 10:00:00,6.7,1011.2,1.1,97,6.3,6000,31.484,,,250,,,2,,,,,,,61,og-post,,,,AAXX 12104 07558 21356 72517 10067 20063 39272 40112 53011 76166 875// 333 60025 84608 87620=
07558,1999-12-12 11:00:00,7.4,1010.4,0.4,89,5.7,10000,38.892,64.82,64.82,260,,,,,,,,,,21,og-post,,,,AAXX 12114 07558 21460 72621 10074 20057 39266 40104 50004 72162 878// 333 69905 83810 86620 91035 91135=
07558,1999-12-12 12:00:00,6.1,1010.6,0.1,88,4.3,,57.412,87.044,79.636,290,,,,2,3,,,,,,og-post,,,,AAXX 12124 07558 /6/// /2931 10061 20043 39264 40106 50001 60031 333 60027 91043 91147=
07558,1999-12-12 13:00:00,7.3,1010.9,-0.2,84,4.8,,42.596,87.044,68.524,280,,,0.8,,,,,,,,og-post,,,,AAXX 12134 07558 26/// /2823 10073 20048 39270 40109 55002 333 69985 91037 91147=
07558,1999-12-12 14:00:00,5.6,1011.4,0.4,85,3.3,,53.708,90.748,83.34,290,,,0.6,,,,,,,,og-post,,,,AAXX 12144 07558 26/// /2929 10056 20033 39270 40114 53004 333 69965 91045 91149=
07558,1999-12-12 15:00:00,5.1,1012.4,1.3,87,3.1,,42.596,90.748,68.524,290,,,,3,,,,,,,og-post,,,,AAXX 12154 07558 26/// /2923 10051 20031 39277 40124 53013 333 60037 91037 91149=
07558,1999-12-12 16:00:00,5.4,1013.3,1.6,81,2.4,,46.3,75.932,72.228,300,,,,,,,,,,,og-post,,,,AAXX 12164 07558 36/// /3025 10054 20024 39286 40133 53016 333 91039 91141=
07558,1999-12-12 17:00:00,5.4,1014.5,2.7,82,2.6,,38.892,72.228,61.116,290,,,,,,,,,,,og-post,,,,AAXX 12174 07558 36/// /2921 10054 20026 39297 40145 53027 333 91033 91139=
07558,1999-12-12 18:00:00,2.6,1016.1,2.7,90,1.1,,35.188,90.748,,320,2.6,7.9,,0.4,,6,,,,,og-post,,,,AAXX 12184 07558 /6/// /3219 10026 20011 39304 40161 51027 60062 333 10079 20026 69947 91149=
07558,1999-12-12 19:00:00,3.9,1016.5,2.5,85,1.6,,29.632,,50.004,270,,,,,,,,,,,og-post,,,,AAXX 12194 07558 36/// /2716 10039 20016 39311 40165 51025 333 91027=
07558,1999-12-12 20:00:00,3,1016.9,1.5,92,1.8,,38.892,61.116,61.116,290,,,0.4,,,,,,,,og-post,,,,AAXX 12204 07558 26/// /2921 10030 20018 39312 40169 51015 333 69945 91033 91133=
07558,1999-12-12 21:00:00,3.1,1017.3,1.2,93,2.1,,35.188,68.524,,280,,,,0.8,,,,,,,og-post,,,,AAXX 12214 07558 26/// /2819 10031 20021 39316 40173 51012 333 69987 91137=
07558,1999-12-12 22:00:00,3.5,1017.9,1.2,91,2.2,,35.188,64.82,57.412,280,,,,,,,,,,,og-post,,,,AAXX 12224 07558 36/// /2819 10035 20022 39323 40179 53012 333 91031 91135=
07558,1999-12-12 23:00:00,3.6,1018.2,1.4,84,1.2,,46.3,68.524,68.524,280,,,,,,,,,,,og-post,,,,AAXX 12234 07558 36/// /2825 10036 20012 39326 40182 51014 333 91037 91137=
07558,1999-12-13 00:00:00,3.6,1018.6,1.3,79,0.3,,46.3,79.636,79.636,290,,,,,0.8,,,,,,og-post,,,,AAXX 13004 07558 16/// /2925 10036 20003 39329 40186 51013 69981 333 91043 91143=
07558,1999-12-13 01:00:00,3.2,1019.5,1.3,82,0.4,,31.484,83.34,57.412,290,,,,,,,,,,,og-post,,,,AAXX 13014 07558 36/// /2917 10032 20004 39336 40195 53013 333 91031 91145=
07558,1999-12-13 02:00:00,3.3,1020,1.5,81,0.4,,38.892,64.82,,300,,,,,,,,,,,og-post,,,,AAXX 13024 07558 36/// /3021 10033 20004 39341 40200 53015 333 91135=
07558,1999-12-13 03:00:00,2.6,1020.7,1.7,90,1.1,,25.928,83.34,,290,,,,,,,,,,,og-post,,,,AAXX 13034 07558 36/// /2914 10026 20011 39346 40207 51017 333 91145=
07558,1999-12-13 04:00:00,2.9,1021,1.3,85,0.6,,29.632,50.004,50.004,290,,,0.2,,,,,,,,og-post,,,,AAXX 13044 07558 26/// /2916 10029 20006 39349 40210 51013 333 69925 91027 91127=
07558,1999-12-13 05:00:00,2.8,1021.5,1.3,86,0.7,20000,18.52,50.004,,280,,,,,,,,,,,og-post,,,,AAXX 13054 07558 32570 62810 10028 20007 39354 40215 52013 86500 333 86626 91127=
07558,1999-12-13 06:00:00,2.3,1021.9,1,92,1.1,20000,14.816,83.34,,260,2.2,3.9,,0.2,,1,7.4,1.4,2,2,og-post,,,,AAXX 13064 07558 /1570 62608 10023 20011 39356 40219 51010 60012 70286 86500 333 10039 20022 31002 55014 69927 70074 86626 91145=
07558,1999-12-13 07:00:00,2.4,1022.2,1,95,1.7,30000,11.112,,,270,,,0.6,,,,,,,,og-post,,,,AAXX 13074 07558 22580 72706 10024 20017 39359 40222 51010 875// 333 69965 87626=
07558,1999-12-13 08:00:00,2.8,1022.1,0.5,94,1.9,30000,11.112,,,270,,,,,,,,,,,og-post,,,,AAXX 13084 07558 32580 72706 10028 20019 39359 40221 51005 875// 333 87626=
07558,1999-12-13 09:00:00,3.3,1022.1,0.5,93,2.3,30000,11.112,,,260,,,,0.6,,,,,,,og-post,,,,AAXX 13094 07558 22580 62606 10033 20023 39361 40221 51005 86800 333 69967 82823 86626=
07558,1999-12-13 10:00:00,3.9,1021.7,0,91,2.6,30000,18.52,,,260,,,,,,,,,,,og-post,,,,AAXX 13104 07558 32580 62610 10039 20026 39359 40217 50000 86800 333 82823 86626=
07558,1999-12-13 11:00:00,4.4,1021.5,-0.1,83,1.8,30000,18.52,,,270,,,,,,,,,,,og-post,,,,AAXX 13114 07558 32580 62710 10044 20018 39358 40215 58001 86800 333 82823 86626=
07558,1999-12-13 12:00:00,4.6,1021.3,-0.4,86,2.5,30000,11.112,,,250,,,,,0.6,,,,,,og-post,,,,AAXX 13124 07558 12580 72506 10046 20025 39357 40213 56004 69961 87500 333 87626=
07558,1999-12-13 13:00:00,4,1020.3,-1.2,97,3.6,30000,18.52,,,220,,,,,,,,,,60,og-post,,,,AAXX 13134 07558 21580 72210 10040 20036 39347 40203 58012 76062 87500 333 69905 87626=
07558,1999-12-13 14:00:00,4.1,1019.8,-1.6,96,3.5,15000,14.816,,,250,,,0.2,,,,,,,21,og-post,,,,AAXX 13144 07558 21565 62508 10041 20035 39342 40198 58016 72162 85201 333 69925 85826 84075=
07558,1999-12-13 15:00:00,3.8,1019.9,-1.5,98,3.5,25000,11.112,,,220,,,,0.2,,,,,,60,og-post,,,,AAXX 13154 07558 21575 72206 10038 20035 39342 40199 56015 76062 86801 333 69927 84826 85630=
07558,1999-12-13 16:00:00,4,1019.5,-0.8,99,3.9,25000,14.816,,,200,,,,,,,,,,,og-post,,,,AAXX 13164 07558 33575 72008 10040 20039 39339 40195 56008 86801 333 84820 84630=
07558,1999-12-13 17:00:00,4.1,1019.1,-0.6,98,3.8,,18.52,,,230,,,,,,,,,,,og-post,,,,AAXX 13174 07558 36/// /2310 10041 20038 39336 40191 58006=
07558,1999-12-13 19:00:00,3.9,1018.5,-0.9,99,3.8,,14.816,,,200,,,0.2,,,,,,,,og-post,,,,AAXX 13194 07558 26/// /2008 10039 20038 39330 40185 58009 333 69925=
07558,1999-12-13 20:00:00,3.8,1018.1,-1,99,3.7,,18.52,,,210,,,,,,,,,,,og-post,,,,AAXX 13204 07558 36/// /2110 10038 20037 39326 40181 58010=
07558,1999-12-13 21:00:00,3.5,1017.6,-1.4,99,3.4,,11.112,,,230,,,,0.2,,,,,,,og-post,,,,AAXX 13214 07558 26/// /2306 10035 20034 39320 40176 58014 333 69927=
07558,1999-12-13 22:00:00,3.2,1017,-1.6,99,3.1,,14.816,,,210,,,,,,,,,,,og-post,,,,AAXX 13224 07558 36/// /2108 10032 20031 39314 40170 58016=
07558,1999-12-13 23:00:00,3.2,1015.8,-2.3,97,2.8,,14.816,,,210,,,,,,,,,,,og-post,,,,AAXX 13234 07558 36/// /2108 10032 20028 39303 40158 58023=
07558,1999-12-14 00:00:00,3.3,1015,-2.4,95,2.6,,11.112,,,230,,,,,0.2,,,,,,og-post,,,,AAXX 14004 07558 16/// /2306 10033 20026 39296 40150 58024 69921=
07558,1999-12-14 01:00:00,3,1013.6,-3.2,93,2,,7.408,,,190,,,,,,,,,,,og-post,,,,AAXX 14014 07558 36/// /1904 10030 20020 39282 40136 58032=
07558,1999-12-14 02:00:00,3,1012.6,-3,94,2.1,,,,,,,,,,,,,,,,og-post,,,,AAXX 14024 07558 36/// /0000 10030 20021 39273 40126 58030=
07558,1999-12-14 03:00:00,3.2,1011.6,-3.2,89,1.6,,3.704,,,120,,,,,,,,,,,og-post,,,,AAXX 14034 07558 36/// /1202 10032 20016 39264 40116 56032=
07558,1999-12-14 04:00:00,3,1011,-2.4,92,1.8,,11.112,,,210,,,0.4,,,,,,,,og-post,,,,AAXX 14044 07558 26/// /2106 10030 20018 39258 40110 56024 333 69945=
07558,1999-12-14 05:00:00,2.5,1010.6,-2,97,2.1,10000,11.112,,,190,,,0.8,,,,,,,61,og-post,,,,AAXX 14054 07558 21460 81906 10025 20021 39253 40106 56020 76166 885// 333 69985 84710 87623=
07558,1999-12-14 06:00:00,2.3,1010.2,-1.5,99,2.2,10000,7.408,,,200,2.3,4,,2,,2,2.6,0.1,1,21,og-post,,,,AAXX 14064 07558 /1460 82004 10023 20022 39249 40102 56015 60022 72162 885// 333 10040 20023 3/001 55001 60027 70026 84710 87623=
07558,1999-12-14 07:00:00,2.2,1009.5,-1.6,100,2.2,15000,7.408,,,200,,,,,,,,,,,og-post,,,,AAXX 14074 07558 32465 82004 10022 20022 39242 40095 58016 885// 333 82710 87623=
07558,1999-12-14 08:00:00,2.4,1009.2,-1.3,99,2.3,15000,,,,,,,,,,,,,,,og-post,,,,AAXX 14084 07558 32565 70000 10024 20023 39240 40092 56013 875// 333 87626=
07558,1999-12-14 09:00:00,2.5,1008.5,-1.5,99,2.4,3000,3.704,,,120,,,,0.2,,,,,,60,og-post,,,,AAXX 14094 07558 21430 81202 10025 20024 39234 40085 56015 76062 885// 333 69927 83710 87626=
07558,1999-12-14 10:00:00,2.8,1008,-1.2,100,2.8,15000,7.408,,,130,,,,,,,,,,21,og-post,,,,AAXX 14104 07558 21465 81304 10028 20028 39230 40080 58012 72162 885// 333 69905 83710 87626=
07558,1999-12-14 11:00:00,3.1,1007.1,-1.7,99,3,15000,7.408,,,220,,,,,,,,,,,og-post,,,,AAXX 14114 07558 32465 82204 10031 20030 39223 40071 58017 885// 333 83710 87626=
07558,1999-12-14 12:00:00,3.5,1006.4,-1.6,100,3.5,2000,11.112,,,220,,,,,0.2,,,,,10,og-post,,,,AAXX 14124 07558 /1420 82206 10035 20035 39218 40064 58016 69921 71062 885// 333 69907 84710 87626=
07558,1999-12-14 13:00:00,3.7,1005.6,-1.9,100,3.7,500,7.408,,,190,,,0.2,,,,,,,60,og-post,,,,AAXX 14134 07558 21405 81904 10037 20037 39211 40056 57019 76065 887// 333 69925 87710=
07558,1999-12-14 14:00:00,4.3,1004.6,-1.9,100,4.3,500,7.408,,,200,,,,,,,,,,,og-post,,,,AAXX 14144 07558 23405 82004 10043 20043 39204 40046 58019 887// 333 69905 87710=
07558,1999-12-14 15:00:00,4.3,1004.5,-1.5,100,4.3,1500,7.408,,,220,,,,0.4,,,,,,60,og-post,,,,AAXX 14154 07558 21415 82204 10043 20043 39203 40045 56015 76065 887// 333 69947 87710=
07558,1999-12-14 16:00:00,4.4,1004.7,-0.6,100,4.4,800,7.408,,,220,,,0.2,,,,,,,60,og-post,,,,AAXX 14164 07558 21408 82204 10044 20044 39205 40047 55006 76066 887// 333 69925 87710=
07558,1999-12-14 17:00:00,4.4,1005,0.4,100,4.4,,11.112,,,210,,,0.4,,,,,,,,og-post,,,,AAXX 14174 07558 26/// /2106 10044 20044 39208 40050 53004 333 69945=
07558,1999-12-14 18:00:00,,1014.9,-1.9,,11.1,25000,14.816,,,220,,15,,,,,,,,,og-post,,,,AAXX 14184 07558 32575 82208 18138 20111 39856 40149 57019 8527/ 333 10150 85820 87399=
07558,1999-12-14 19:00:00,3.8,1004.7,-0.2,100,3.8,,18.52,,,320,,,0.2,,,,,,,,og-post,,,,AAXX 14194 07558 26/// /3210 10038 20038 39203 40047 58002 333 69925=
07558,1999-12-14 20:00:00,3.6,1004.3,-0.9,96,3,,3.704,,,360,,,,,,,,,,,og-post,,,,AAXX 14204 07558 26/// /3602 10036 20030 39199 40043 58009 333 69905=
07558,1999-12-14 21:00:00,3.3,1004.4,-1,98,3,,7.408,,,360,,,,0.8,,,,,,,og-post,,,,AAXX 14214 07558 26/// /3604 10033 20030 39199 40044 56010 333 69987=
07558,1999-12-14 22:00:00,3,1004.2,-0.7,98,2.7,,7.408,,,10,,,0.4,,,,,,,,og-post,,,,AAXX 14224 07558 26/// /0104 10030 20027 39196 40042 56007 333 69945=
07558,1999-12-14 23:00:00,2.8,1003.9,-0.6,98,2.5,,14.816,,,340,,,0.4,,,,,,,,og-post,,,,AAXX 14234 07558 26/// /3408 10028 20025 39193 40039 58006 333 69945=
07558,1999-12-15 00:00:00,2.6,1003.7,-0.9,97,2.2,,14.816,,,350,,,,0.8,2,,,,,,og-post,,,,AAXX 15004 07558 /6/// /3508 10026 20022 39190 40037 57009 60021 333 69987=
07558,1999-12-15 01:00:00,1.9,1003.4,-1.1,98,1.6,,25.928,,,350,,,0.8,,,,,,,,og-post,,,,AAXX 15014 07558 26/// /3514 10019 20016 39185 40034 58011 333 69985=
07558,1999-12-15 02:00:00,1.9,1003.7,-0.5,98,1.6,,11.112,,,350,,,0.2,,,,,,,,og-post,,,,AAXX 15024 07558 26/// /3506 10019 20016 39188 40037 55005 333 69925=
07558,1999-12-15 03:00:00,1.9,1003.4,-0.5,92,0.7,,14.816,,,20,,,,1,,,,,,,og-post,,,,AAXX 15034 07558 26/// /0208 10019 20007 39185 40034 56005 333 60017=
07558,1999-12-15 04:00:00,1.9,1003.3,-0.1,92,0.7,,14.816,,,340,,,,,,,,,,,og-post,,,,AAXX 15044 07558 26/// /3408 10019 20007 39184 40033 58001 333 69905=
07558,1999-12-15 05:00:00,1.6,1003.8,-0,90,0.1,10000,7.408,,,300,,,,,,,,,,,og-post,,,,AAXX 15054 07558 22460 73004 10016 20001 39188 40038 55000 875// 333 69905 83613 86625=
07558,1999-12-15 06:00:00,1.2,1003.9,0.3,95,0.5,8000,11.112,,,330,1.2,4.3,,,,3,4.8,,1,3,og-post,,,,AAXX 15064 07558 11458 73306 10012 20005 39188 40039 53003 60032 70362 875// 333 10043 20012 31001 55000 70048 84613 86623=
07558,1999-12-15 07:00:00,1,1005,1.3,96,0.4,8000,22.224,,,330,,,,,,,,,,,og-post,,,,AAXX 15074 07558 32358 73312 10010 20004 39197 40050 53013 875// 333 84608 87613=
07558,1999-12-15 08:00:00,0.9,1005.2,1.1,94,0,12000,25.928,,,350,,,,,,,,,,,og-post,,,,AAXX 15084 07558 32462 73514 10009 20000 39199 40052 53011 875// 333 83610 84620 86633=
07558,1999-12-15 09:00:00,0.9,1005.8,1.6,89,-0.7,15000,29.632,,,330,,,,,,,,,,,og-post,,,,AAXX 15094 07558 32465 73316 10009 21007 39204 40058 51016 8683/ 333 83810 83620 85633=
07558,1999-12-15 12:00:00,2.4,1006,0.6,69,-2.7,20000,25.928,,,320,,,,,,,,,,,og-post,,,,AAXX 15124 07558 32470 73214 10024 21027 39210 40060 50006 8583/ 333 83813 85625 85360=
07558,1999-12-15 13:00:00,2,1005.9,-0.6,67,-3.5,20000,35.188,,,340,,,,,,,,,,,og-post,,,,AAXX 15134 07558 32470 73419 10020 21035 39208 40059 57006 878// 333 84816 86626=
07558,1999-12-15 14:00:00,1.6,1006.2,-0.3,62,-4.9,20000,35.188,,,350,,,,,,,,,,,og-post,,,,AAXX 15144 07558 32470 63519 10016 21049 39209 40062 55003 86800 333 83816 85626=
07558,1999-12-15 15:00:00,1.2,1006.5,0.1,66,-4.4,20000,29.632,,,10,,,,,,,,,,,og-post,,,,AAXX 15154 07558 32570 60116 10012 21044 39211 40065 53001 86800 333 83820 84630=
07558,1999-12-15 16:00:00,0.4,1007.1,0.6,68,-4.8,20000,29.632,,,350,,,,,,,,,,,og-post,,,,AAXX 15164 07558 32570 63516 10004 21048 39214 40071 53006 86800 333 83820 84630=
07558,1999-12-15 18:00:00,-1,1009.4,2,66,-6.5,,22.224,,,350,-1,2.8,,,,,,,,,og-post,,,,AAXX 15184 07558 36/// /3512 11010 21065 39231 40094 53020 333 10028 21010=
07558,1999-12-15 19:00:00,-1.4,1009.9,2,69,-6.3,,25.928,,,330,,,,,,,,,,,og-post,,,,AAXX 15194 07558 36/// /3314 11014 21063 39234 40099 51020=
07558,1999-12-15 20:00:00,-1.5,1010.5,1.6,75,-5.3,,25.928,,,330,,,,,,,,,,,og-post,,,,AAXX 15204 07558 36/// /3314 11015 21053 39239 40105 51016=
07558,1999-12-15 21:00:00,-1.9,1011.4,1.5,78,-5.2,,18.52,,,330,,,,,,,,,,,og-post,,,,AAXX 15214 07558 36/// /3310 11019 21052 39246 40114 53015=
07558,1999-12-15 22:00:00,-2.3,1011.8,1.5,74,-6.3,,29.632,,,320,,,,,,,,,,,og-post,,,,AAXX 15224 07558 36/// /3216 11023 21063 39249 40118 51015=
07558,1999-12-15 23:00:00,-2.4,1012.3,1.4,75,-6.2,,35.188,53.708,,330,,,,,,,,,,,og-post,,,,AAXX 15234 07558 36/// /3319 11024 21062 39253 40123 51014 333 91129=
07558,1999-12-16 00:00:00,-2.8,1012.7,0.9,75,-6.6,,35.188,,,330,,,,,,,,,,,og-post,,,,AAXX 16004 07558 36/// /3319 11028 21066 39255 40127 51009=
07558,1999-12-16 01:00:00,-3,1012.8,0.7,75,-6.8,,38.892,61.116,,330,,,,,,,,,,,og-post,,,,AAXX 16014 07558 36/// /3321 11030 21068 39256 40128 51007 333 91133=
07558,1999-12-16 02:00:00,-3.3,1012.7,0.1,78,-6.6,,50.004,72.228,72.228,330,,,,,,,,,,,og-post,,,,AAXX 16024 07558 36/// /3327 11033 21066 39254 40127 50001 333 91039 91139=
07558,1999-12-16 03:00:00,-3.6,1013.9,0.9,63,-9.6,,50.004,79.636,75.932,340,,,,,,,,,,,og-post,,,,AAXX 16034 07558 36/// /3427 11036 21096 39264 40139 53009 333 91041 91143=
07558,1999-12-16 04:00:00,-3.8,1014.7,1.4,66,-9.2,,46.3,75.932,,330,,,,,,,,,,,og-post,,,,AAXX 16044 07558 36/// /3325 11038 21092 39270 40147 53014 333 91141=
07558,1999-12-16 05:00:00,-3.9,1015.5,2.3,70,-8.5,,35.188,,57.412,330,,,,,,,,,,,og-post,,,,AAXX 16054 07558 36/// /3319 11039 21085 39277 40155 51023 333 91031=
07558,1999-12-16 06:00:00,-3.9,1016.5,2.2,65,-9.5,,22.224,79.636,,340,-4.1,-0.9,,,,,0,2.1,-5,,og-post,,,,AAXX 16064 07558 36/// /3412 11039 21095 39286 40165 53022 333 11009 21041 3/105 55021 70000 91143=
07558,1999-12-16 07:00:00,-4.1,1016.9,1.9,62,-10.3,,38.892,,64.82,350,,,,,,,,,,,og-post,,,,AAXX 16074 07558 36/// /3521 11041 21103 39289 40169 51019 333 91035=
07558,1999-12-16 08:00:00,-4.3,1018.6,2.7,63,-10.3,,25.928,64.82,,340,,,,,,,,,,,og-post,,,,AAXX 16084 07558 36/// /3414 11043 21103 39304 40186 53027 333 91135=
07558,1999-12-16 09:00:00,-3.5,1019.1,2.5,58,-10.5,,35.188,,57.412,350,,,,,,,,,,,og-post,,,,AAXX 16094 07558 36/// /3519 11035 21105 39311 40191 53025 333 91031=
07558,1999-12-16 10:00:00,-2.7,1018.6,2,54,-10.7,,50.004,79.636,,340,,,,,,,,,,,og-post,,,,AAXX 16104 07558 36/// /3427 11027 21107 39309 40186 50020 333 91143=
07558,1999-12-16 11:00:00,-2.3,1018.4,0.5,52,-10.8,,57.412,83.34,83.34,340,,,,,,,,,,,og-post,,,,AAXX 16114 07558 36/// /3431 11023 21108 39309 40184 51005 333 91045 91145=
07558,1999-12-16 12:00:00,-2.1,1018.6,-0,49,-11.3,,57.412,90.748,87.044,350,,,,,,,,,,,og-post,,,,AAXX 16124 07558 36/// /3531 11021 21113 39311 40186 55000 333 91047 91149=
07558,1999-12-16 13:00:00,-2,1018.3,0,51,-10.8,,68.524,94.452,90.748,350,,,,,,,,,,,og-post,,,,AAXX 16134 07558 36/// /3537 11020 21108 39309 40183 50000 333 91049 91151=
07558,1999-12-16 14:00:00,-1.6,1018.8,0.5,48,-11.1,,61.116,94.452,94.452,360,,,,,,,,,,,og-post,,,,AAXX 16144 07558 36/// /3633 11016 21111 39314 40188 53005 333 91051 91151=
07558,1999-12-16 15:00:00,-2.1,1020.3,1.6,50,-11.1,,57.412,94.452,79.636,350,,,,,,,,,,,og-post,,,,AAXX 16154 07558 36/// /3531 11021 21111 39327 40203 53016 333 91043 91151=
07558,1999-12-16 16:00:00,-2.8,1021.3,2.5,54,-10.8,,57.412,79.636,79.636,350,,,,,,,,,,,og-post,,,,AAXX 16164 07558 36/// /3531 11028 21108 39334 40213 53025 333 91043 91143=
07558,1999-12-16 17:00:00,-3,1022.3,2.8,54,-11,,46.3,83.34,72.228,360,,,,,,,,,,,og-post,,,,AAXX 16174 07558 36/// /3625 11030 21110 39342 40223 51028 333 91039 91145=
07558,1999-12-16 18:00:00,-3.4,1023.6,2.6,57,-10.7,,35.188,94.452,57.412,360,-4.4,-1.5,,,,,,,,,og-post,,,,AAXX 16184 07558 36/// /3619 11034 21107 39353 40236 53026 333 11015 21044 91031 91151=
07558,1999-12-16 19:00:00,-3.5,1024.5,2.7,56,-11,,42.596,,,360,,,,,,,,,,,og-post,,,,AAXX 16194 07558 36/// /3623 11035 21110 39361 40245 52027=
07558,1999-12-16 20:00:00,-3.7,1025.5,2.7,57,-11,,31.484,,,360,,,,,,,,,,,og-post,,,,AAXX 16204 07558 36/// /3617 11037 21110 39369 40255 51027=
07558,1999-12-16 21:00:00,-3.6,1025.8,1.9,56,-11.1,,35.188,,,10,,,,,,,,,,,og-post,,,,AAXX 16214 07558 36/// /0119 11036 21111 39372 40258 51019=
07558,1999-12-16 22:00:00,-3.9,1026.2,1.4,55,-11.6,,31.484,,,10,,,,,,,,,,,og-post,,,,AAXX 16224 07558 36/// /0117 11039 21116 39375 40262 51014=
07558,1999-12-16 23:00:00,-3.2,1026.4,1,46,-13.1,,42.596,,,10,,,,,,,,,,,og-post,,,,AAXX 16234 07558 36/// /0123 11032 21131 39379 40264 53010=
07558,1999-12-17 00:00:00,-3.7,1027.7,1.7,46,-13.6,,29.632,,,360,,,,,,,,,,,og-post,,,,AAXX 17004 07558 36/// /3616 11037 21136 39389 40277 53017=
07558,1999-12-17 01:00:00,-4,1028.1,1.7,49,-13.1,,29.632,,,350,,,,,,,,,,,og-post,,,,AAXX 17014 07558 36/// /3516 11040 21131 39392 40281 51017=
07558,1999-12-17 02:00:00,-4.7,1029.1,2,54,-12.6,,14.816,,,320,,,,,,,,,,,og-post,,,,AAXX 17024 07558 36/// /3208 11047 21126 39399 40291 51020=
07558,1999-12-17 03:00:00,-5.9,1030.3,1.7,68,-10.8,,7.408,,,280,,,,,,,,,,,og-post,,,,AAXX 17034 07558 36/// /2804 11059 21108 39406 40303 53017=
07558,1999-12-17 04:00:00,-6.6,1030.9,1.7,73,-10.6,,7.408,,,270,,,,,,,,,,,og-post,,,,AAXX 17044 07558 36/// /2704 11066 21106 39409 40309 51017=
07558,1999-12-17 05:00:00,-6.7,1031.4,1.5,75,-10.4,10000,3.704,,,230,,,,,,,,,,,og-post,,,,AAXX 17054 07558 32960 02302 11067 21104 39414 40314 51015=
07558,1999-12-17 06:00:00,-7.5,1032,1.1,87,-9.3,10000,7.408,,,210,-7.5,-3.1,,,,,,6.6,-10,,og-post,,,,AAXX 17064 07558 32960 02104 11075 21093 39417 40320 52011 333 11031 21075 30110 55066 70000=
07558,1999-12-17 07:00:00,-8.1,1032.3,0.8,95,-8.8,15000,11.112,,,200,,,,,,,,,,,og-post,,,,AAXX 17074 07558 32965 02006 11081 21088 39417 40323 51008=
07558,1999-12-17 08:00:00,-7,1032.5,0.9,95,-7.7,15000,3.704,,,230,,,,,,,,,,,og-post,,,,AAXX 17084 07558 32965 22302 11070 21077 39423 40325 53009 80001 333 82073=
07558,1999-12-17 09:00:00,-5.4,1032.7,1.3,92,-6.5,15000,3.704,,,190,,,,,,,,,,,og-post,,,,AAXX 17094 07558 32965 31902 11054 21065 39430 40327 53013 80001 333 83073=
07558,1999-12-17 10:00:00,-3.6,1032.7,1.9,79,-6.7,15000,3.704,,,200,,,,,,,,,,,og-post,,,,AAXX 17104 07558 32365 42002 11036 21067 39436 40327 52019 81101 333 81806 83073=
07558,1999-12-17 11:00:00,-2.3,1032.3,1.3,77,-5.8,15000,7.408,,,210,,,,,,,,,,,og-post,,,,AAXX 17114 07558 32965 42104 11023 21058 39436 40323 51013 83031 333 83360=
07558,1999-12-17 12:00:00,-0.8,1031.3,0.2,72,-5.2,15000,3.704,,,220,,,,,,,,,,,og-post,,,,AAXX 17124 07558 32965 42202 11008 21052 39432 40313 50002 83031 333 83360=
07558,1999-12-17 13:00:00,-0.3,1030.6,-0.9,73,-4.5,15000,7.408,,,210,,,,,,,,,,,og-post,,,,AAXX 17134 07558 32965 52104 11003 21045 39427 40306 58009 84031 333 84360=
07558,1999-12-17 14:00:00,-1.6,1030.8,-1.1,81,-4.4,15000,7.408,,,210,,,,,,,,,,,og-post,,,,AAXX 17144 07558 32965 62104 11016 21044 39425 40308 56011 85051 333 85360=
07558,1999-12-17 15:00:00,-2,1031.1,-0.6,83,-4.5,15000,7.408,,,240,,,,,,,,,,,og-post,,,,AAXX 17154 07558 32965 62404 11020 21045 39426 40311 55006 85051 333 85360=
07558,1999-12-17 16:00:00,-2.6,1031.4,-0,86,-4.6,15000,3.704,,,230,,,,,,,,,,,og-post,,,,AAXX 17164 07558 32965 62302 11026 21046 39427 40314 55000 85051 333 85360=
07558,1999-12-17 17:00:00,-2.1,1031.6,0.5,84,-4.4,,7.408,,,310,,,,,,,,,,,og-post,,,,AAXX 17174 07558 36/// /3104 11021 21044 39430 40316 53005=
07558,1999-12-17 18:00:00,-2.3,1032.1,0.8,86,-4.3,,3.704,,,310,-8.2,0.3,,,,,,,,,og-post,,,,AAXX 17184 07558 36/// /3102 11023 21043 39434 40321 53008 333 10003 21082=
07558,1999-12-17 19:00:00,-2.8,1032.1,0.6,91,-4.1,,3.704,,,240,,,,,,,,,,,og-post,,,,AAXX 17194 07558 36/// /2402 11028 21041 39433 40321 50006=
07558,1999-12-17 20:00:00,-2.9,1032.3,0.4,95,-3.6,,,,,,,,,,,,,,,,og-post,,,,AAXX 17204 07558 36/// /0000 11029 21036 39434 40323 51004=
07558,1999-12-17 21:00:00,-2.7,1032.2,-0,95,-3.4,,,,,,,,,,,,,,,,og-post,,,,AAXX 17214 07558 36/// /0000 11027 21034 39434 40322 55000=
07558,1999-12-17 22:00:00,-2.5,1032.1,0.1,93,-3.5,,3.704,,,300,,,,,,,,,,,og-post,,,,AAXX 17224 07558 36/// /3002 11025 21035 39434 40321 51001=
07558,1999-12-17 23:00:00,-2.1,1032,-0,91,-3.4,,,,,,,,,,,,,,,,og-post,,,,AAXX 17234 07558 36/// /0000 11021 21034 39434 40320 54000=
07558,1999-12-18 00:00:00,-2.6,1032,-0.1,95,-3.3,,3.704,,,260,,,,,,,,,,,og-post,,,,AAXX 18004 07558 36/// /2602 11026 21033 39433 40320 58001=
07558,1999-12-18 01:00:00,-2.3,1031.5,-0.5,97,-2.7,,3.704,,,90,,,0.2,,,,,,,,og-post,,,,AAXX 18014 07558 26/// /0902 11023 21027 39429 40315 58005 333 69925=
07558,1999-12-18 02:00:00,-2.3,1031.2,-0.8,99,-2.4,,3.704,,,50,,,0.2,,,,,,,,og-post,,,,AAXX 18024 07558 26/// /0502 11023 21024 39426 40312 58008 333 69925=
07558,1999-12-18 03:00:00,-2.1,1030.3,-1.4,99,-2.2,,3.704,,,150,,,,0.6,,,,,,,og-post,,,,AAXX 18034 07558 26/// /1502 11021 21022 39419 40303 58014 333 69967=
07558,1999-12-18 04:00:00,-2,1029.5,-1.7,99,-2.1,,3.704,,,40,,,,,,,,,,,og-post,,,,AAXX 18044 07558 36/// /0402 11020 21021 39412 40295 58017=
07558,1999-12-18 05:00:00,-1,1028.7,-1.8,100,-1,500,3.704,,,160,,,,,,,,,,70,og-post,,,,AAXX 18054 07558 21105 81602 11010 21010 39408 40287 56018 77074 885// 333 69905 85701 87606=
07558,1999-12-18 06:00:00,-0.6,1028.5,-1.2,100,-0.6,600,3.704,,,200,-3,-0.6,,,,0.6,0.6,4.8,-3,70,og-post,,2,,AAXX 18064 07558 /1106 82002 11006 21006 39407 40285 56012 69962 77074 885// 333 11006 21030 3/103 43002 55048 69907 70006 85701 87608 93102=
07558,1999-12-18 07:00:00,0.3,1028.2,-0.5,100,0.3,600,7.408,,,220,,,,,,,,,,50,og-post,,,,AAXX 18074 07558 21106 82204 10003 20003 39407 40282 56005 75074 885// 333 69905 85701 87606=
07558,1999-12-18 08:00:00,0.8,1028.3,0.2,100,0.8,700,3.704,,,250,,,,,,,,,,50,og-post,,,,AAXX 18084 07558 21107 82502 10008 20008 39410 40283 53002 75055 885// 333 69905 85701 87606=
07558,1999-12-18 09:00:00,1.6,1028.2,0.4,100,1.6,800,11.112,,,200,,,,,,,,,,50,og-post,,,,AAXX 18094 07558 21108 82006 10016 20016 39411 40282 53004 75074 885// 333 69907 85701 87608=
07558,1999-12-18 11:00:00,2.4,1027.3,-0.4,100,2.4,,11.112,,,210,,,0.2,,,,,,,51,og-post,,,,AAXX 18114 07558 21/// /2106 10024 20024 39406 40273 58004 75155 333 69925=
07558,1999-12-18 12:00:00,2.8,1026.6,-1,100,2.8,,3.704,,,190,,,,0.2,0.2,,,,,,og-post,,,,AAXX 18124 07558 /6/// /1902 10028 20028 39401 40266 58010 69921 333 69927=
07558,1999-12-18 13:00:00,3.3,1025.8,-1.6,100,3.3,,7.408,,,200,,,0.2,,,,,,,,og-post,,,,AAXX 18134 07558 26/// /2004 10033 20033 39395 40258 58016 333 69925=
07558,1999-12-18 14:00:00,4.1,1024.9,-1.7,100,4.1,,14.816,,,250,,,,,,,,,,,og-post,,,,AAXX 18144 07558 26/// /2508 10041 20041 39389 40249 58017 333 69905=
07558,1999-12-18 15:00:00,5.2,1024.3,-1.4,100,5.2,,18.52,,,240,,,,0.2,,,,,,,og-post,,,,AAXX 18154 07558 26/// /2410 10052 20052 39387 40243 56014 333 69927=
07558,1999-12-18 16:00:00,5.5,1024.3,-0.7,100,5.5,,22.224,,,240,,,0.2,,,,,,,,og-post,,,,AAXX 18164 07558 26/// /2412 10055 20055 39388 40243 55007 333 69925=
07558,1999-12-18 17:00:00,5.6,1024,-0.3,100,5.6,,14.816,,,260,,,0.2,,,,,,,,og-post,,,,AAXX 18174 07558 26/// /2608 10056 20056 39386 40240 57003 333 69925=
07558,1999-12-18 18:00:00,5.7,1024,-0.1,100,5.7,,18.52,,,270,-0.5,5.8,,0.4,,0.8,,,,,og-post,,,,AAXX 18184 07558 /6/// /2710 10057 20057 39386 40240 58001 69982 333 10058 21005 69947=
07558,1999-12-18 19:00:00,6.3,1022.8,-1.1,100,6.3,,29.632,,,270,,,0.2,,,,,,,,og-post,,,,AAXX 18194 07558 26/// /2716 10063 20063 39377 40228 58011 333 69925=
07558,1999-12-18 20:00:00,6.7,1022.9,-0.7,99,6.6,,29.632,64.82,,280,,,,,,,,,,,og-post,,,,AAXX 18204 07558 26/// /2816 10067 20066 39379 40229 55007 333 69905 91135=
07558,1999-12-18 21:00:00,7,1022.8,-0.7,96,6.4,,25.928,64.82,,270,,,,0.2,,,,,,,og-post,,,,AAXX 18214 07558 26/// /2714 10070 20064 39379 40228 56007 333 69927 91135=
07558,1999-12-18 22:00:00,7.1,1022.6,0,95,6.4,,25.928,,,260,,,,,,,,,,,og-post,,,,AAXX 18224 07558 26/// /2614 10071 20064 39377 40226 50000 333 69905=
07558,1999-12-18 23:00:00,6.3,1022.7,-0.3,100,6.3,,14.816,,,220,,,,,,,,,,,og-post,,,,AAXX 18234 07558 26/// /2208 10063 20063 39376 40227 58003 333 69905=
07558,1999-12-19 00:00:00,6.2,1022.4,-0.6,100,6.2,,22.224,64.82,,250,,,,,0.2,,,,,,og-post,,,,AAXX 19004 07558 /6/// /2512 10062 20062 39373 40224 58006 69921 333 69907 91135=
07558,1999-12-19 01:00:00,6.2,1021.8,-1,100,6.2,,22.224,,,260,,,,,,,,,,,og-post,,,,AAXX 19014 07558 36/// /2612 10062 20062 39367 40218 58010=
07558,1999-12-19 02:00:00,6.5,1020.9,-1.6,100,6.5,,25.928,,,270,,,,,,,,,,,og-post,,,,AAXX 19024 07558 36/// /2714 10065 20065 39360 40209 58016=
07558,1999-12-19 03:00:00,6.7,1020.4,-1.7,100,6.7,,22.224,,,270,,,,,,,,,,,og-post,,,,AAXX 19034 07558 36/// /2712 10067 20067 39356 40204 56017=
07558,1999-12-19 04:00:00,6.9,1019,-2.3,97,6.5,,29.632,,,270,,,,,,,,,,,og-post,,,,AAXX 19044 07558 36/// /2716 10069 20065 39344 40190 58023=
07558,1999-12-19 05:00:00,6.6,1018.9,-1.8,97,6.2,8000,25.928,,,270,,,,,,,,,,,og-post,,,,AAXX 19054 07558 32358 72714 10066 20062 39342 40189 56018 875// 333 83608 86616=
07558,1999-12-19 06:00:00,6.6,1018.4,-1.9,93,5.6,10000,25.928,,,280,5.7,7.3,,,,0.2,1,,6,,og-post,,,,AAXX 19064 07558 12360 72814 10066 20056 39337 40184 56019 69922 875// 333 10073 20057 31006 55000 70010 84608 86615=
07558,1999-12-19 07:00:00,6.3,1017.9,-1.2,95,5.6,8000,18.52,,,270,,,,,,,,,,60,og-post,,,,AAXX 19074 07558 21358 82710 10063 20056 39332 40179 58012 76062 885// 333 69905 84606 87613=
07558,1999-12-19 08:00:00,6,1017.7,-1.3,98,5.7,700,18.52,,,240,,,,,,,,,,60,og-post,,,,AAXX 19084 07558 21207 82410 10060 20057 39329 40177 56013 76066 885// 333 69905 84605 87610=
07558,1999-12-19 09:00:00,6,1017.5,-1,100,6,400,22.224,,,230,,,,0.2,,,,,,60,og-post,,,,AAXX 19094 07558 21204 82312 10060 20060 39327 40175 56010 76064 885// 333 69927 84603 87608=
07558,1999-12-19 10:00:00,5.9,1017.1,-0.9,100,5.9,800,25.928,,,240,,,0.2,,,,,,,60,og-post,,,,AAXX 19104 07558 21208 82414 10059 20059 39323 40171 58009 76066 885// 333 69925 84603 87608=
07558,1999-12-19 11:00:00,5.7,1016.7,-1,100,5.7,800,22.224,,,240,,,0.2,,,,,,,60,og-post,,,,AAXX 19114 07558 21208 82412 10057 20057 39319 40167 58010 76066 885// 333 69925 84603 87608=
07558,1999-12-19 12:00:00,5.6,1015.9,-1.6,100,5.6,,14.816,,,230,,,,0.8,1,,,,,,og-post,,,,AAXX 19124 07558 /6/// /2308 10056 20056 39311 40159 58016 60011 333 69987=
07558,1999-12-19 13:00:00,6.1,1014.5,-2.3,100,6.1,,7.408,,,230,,,,,,,,,,,og-post,,,,AAXX 19134 07558 26/// /2304 10061 20061 39300 40145 58023 333 69905=
07558,1999-12-19 14:00:00,6,1013.7,-2.7,100,6,,11.112,,,290,,,,,,,,,,,og-post,,,,AAXX 19144 07558 26/// /2906 10060 20060 39292 40137 57027 333 69905=
07558,1999-12-19 15:00:00,6.1,1013.3,-2.2,100,6.1,,11.112,,,270,,,,,,,,,,,og-post,,,,AAXX 19154 07558 26/// /2706 10061 20061 39289 40133 56022 333 69907=
07558,1999-12-19 16:00:00,6.2,1012.8,-1.5,100,6.2,,11.112,,,260,,,,,,,,,,,og-post,,,,AAXX 19164 07558 26/// /2606 10062 20062 39285 40128 56015 333 69905=
07558,1999-12-19 17:00:00,5.9,1013,-0.6,100,5.9,,3.704,,,160,,,,,,,,,,,og-post,,,,AAXX 19174 07558 26/// /1602 10059 20059 39286 40130 55006 333 69905=
07558,1999-12-19 18:00:00,6.1,1013.2,-0.1,100,6.1,,11.112,,,290,5.5,6.6,,,,1,,,,,og-post,,,,AAXX 19184 07558 /6/// /2906 10061 20061 39288 40132 55001 60012 333 10066 20055 69907=
07558,1999-12-19 19:00:00,5.9,1013.3,0.3,100,5.9,,11.112,,,270,,,,,,,,,,,og-post,,,,AAXX 19194 07558 26/// /2706 10059 20059 39288 40133 51003 333 69905=
07558,1999-12-19 20:00:00,6.8,1013.3,0.5,99,6.7,,18.52,,,330,,,,,,,,,,,og-post,,,,AAXX 19204 07558 26/// /3310 10068 20067 39291 40133 53005 333 69905=
07558,1999-12-19 21:00:00,6.3,1013.6,0.4,93,5.3,,29.632,,,350,,,,,,,,,,,og-post,,,,AAXX 19214 07558 26/// /3516 10063 20053 39292 40136 53004 333 69907=
07558,1999-12-19 22:00:00,3.8,1014.7,0.6,87,1.8,,38.892,,,10,,,,,,,,,,,og-post,,,,AAXX 19224 07558 26/// /0121 10038 20018 39294 40147 51006 333 69905=
07558,1999-12-19 23:00:00,1.3,1016.2,0.9,82,-1.4,,38.892,,,10,,,,,,,,,,,og-post,,,,AAXX 19234 07558 26/// /0121 10013 21014 39300 40162 53009 333 69905=
07558,1999-12-20 00:00:00,0,1016.7,0.9,81,-2.9,,35.188,,,10,,,,,,,,,,,og-post,,,,AAXX 20004 07558 /6/// /0119 10000 21029 39301 40167 51009 69901 333 69907=
07558,1999-12-20 01:00:00,-0.9,1017.6,1.2,81,-3.7,,25.928,,,10,,,,,,,,,,,og-post,,,,AAXX 20014 07558 36/// /0114 11009 21037 39306 40176 51012=
07558,1999-12-20 02:00:00,-1.7,1017.9,0.6,82,-4.4,,31.484,,,360,,,,,,,,,,,og-post,,,,AAXX 20024 07558 36/// /3617 11017 21044 39306 40179 51006=
07558,1999-12-20 03:00:00,-2.3,1018.3,0.7,78,-5.6,,38.892,,,10,,,,,,,,,,,og-post,,,,AAXX 20034 07558 36/// /0121 11023 21056 39308 40183 51007=
07558,1999-12-20 04:00:00,-2.8,1017.9,-0.3,70,-7.5,,42.596,,,360,,,,,,,,,,,og-post,,,,AAXX 20044 07558 36/// /3623 11028 21075 39303 40179 58003=
07558,1999-12-20 05:00:00,-3.2,1019,0.6,71,-7.7,15000,25.928,,,350,,,,,,,,,,,og-post,,,,AAXX 20054 07558 32965 03514 11032 21077 39312 40190 53006=
07558,1999-12-20 06:00:00,-3.8,1019.6,0.7,74,-7.7,20000,25.928,,,330,-4,7.1,,,,,,0.1,-5,,og-post,,,,AAXX 20064 07558 12970 03314 11038 21077 39315 40196 53007 69902 333 10071 21040 34105 55001 70010=
07558,1999-12-20 07:00:00,-3.6,1020.2,1.8,67,-8.8,40000,25.928,,,310,,,,,,,,,,,og-post,,,,AAXX 20074 07558 32982 03114 11036 21088 39321 40202 51018=
07558,1999-12-20 08:00:00,-3.4,1020.9,1.6,62,-9.6,40000,22.224,,,330,,,,,,,,,,,og-post,,,,AAXX 20084 07558 32982 03312 11034 21096 39328 40209 53016=
07558,1999-12-20 09:00:00,-3,1021.6,2.1,63,-9,40000,25.928,,,310,,,,,,,,,,,og-post,,,,AAXX 20094 07558 32982 03114 11030 21090 39336 40216 53021=
07558,1999-12-20 10:00:00,-1.8,1022.1,2.3,58,-8.9,40000,22.224,,,310,,,,,,,,,,,og-post,,,,AAXX 20104 07558 32482 13112 11018 21089 39344 40221 53023 81500 333 81615=
07558,1999-12-20 11:00:00,-1.3,1021.9,1.6,55,-9.2,,35.188,,,320,,,,,,,,,,,og-post,,,,AAXX 20114 07558 36/// /3219 11013 21092 39344 40219 51016=
07558,1999-12-20 12:00:00,-0.8,1021.7,0.7,52,-9.4,40000,46.3,72.228,68.524,340,,,,,,,,,,,og-post,,,,AAXX 20124 07558 32482 13425 11008 21094 39343 40217 50007 81500 333 81615 91037 91139=
07558,1999-12-20 13:00:00,-1,1021.2,-0.6,52,-9.6,50000,50.004,,,340,,,,,,,,,,,og-post,,,,AAXX 20134 07558 32484 13427 11010 21096 39338 40212 58006 81500 333 81615=
07558,1999-12-20 14:00:00,-1.1,1021.8,-0.1,51,-9.9,50000,50.004,,,340,,,,,,,,,,,og-post,,,,AAXX 20144 07558 32984 03427 11011 21099 39343 40218 55001=
07558,1999-12-20 15:00:00,-1.3,1022.4,0.5,50,-10.4,50000,50.004,,,340,,,,,,,,,,,og-post,,,,AAXX 20154 07558 32984 03427 11013 21104 39348 40224 53005=
07558,1999-12-20 16:00:00,-2.2,1023.9,2.1,56,-9.8,50000,35.188,,57.412,320,,,,,,,,,,,og-post,,,,AAXX 20164 07558 32984 03219 11022 21098 39359 40239 53021 333 91031=
07558,1999-12-20 17:00:00,-3,1025.1,2.5,56,-10.5,,29.632,64.82,50.004,320,,,,,,,,,,,og-post,,,,AAXX 20174 07558 36/// /3216 11030 21105 39368 40251 53025 333 91027 91135=
07558,1999-12-20 18:00:00,-3.7,1026.1,2.7,60,-10.3,,14.816,,,310,-3.9,-0.7,,,,,,,,,og-post,,,,AAXX 20184 07558 36/// /3108 11037 21103 39375 40261 51027 333 11007 21039=
07558,1999-12-20 19:00:00,-4.1,1026.7,2,63,-10.1,,18.52,,,320,,,,,,,,,,,og-post,,,,AAXX 20194 07558 36/// /3210 11041 21101 39379 40267 51020=
07558,1999-12-20 20:00:00,-4.2,1027,1.3,62,-10.4,,25.928,,,330,,,,,,,,,,,og-post,,,,AAXX 20204 07558 36/// /3314 11042 21104 39381 40270 51013=
07558,1999-12-20 21:00:00,-4.9,1027.7,1.1,68,-9.9,,18.52,,,340,,,,,,,,,,,og-post,,,,AAXX 20214 07558 36/// /3410 11049 21099 39386 40277 53011=
07558,1999-12-20 22:00:00,-4.5,1027.8,0.9,67,-9.7,,18.52,,,340,,,,,,,,,,,og-post,,,,AAXX 20224 07558 36/// /3410 11045 21097 39388 40278 52009=
07558,1999-12-20 23:00:00,-4.4,1028,0.9,68,-9.4,,25.928,,,360,,,,,,,,,,,og-post,,,,AAXX 20234 07558 36/// /3614 11044 21094 39390 40280 51009=
07558,1999-12-21 00:00:00,-5,1028.3,0.5,72,-9.2,,14.816,,,300,,,,,,,,,,,og-post,,,,AAXX 21004 07558 36/// /3008 11050 21092 39391 40283 51005=
07558,1999-12-21 01:00:00,-4.4,1028,0.2,69,-9.2,,22.224,,,360,,,,,,,,,,,og-post,,,,AAXX 21014 07558 36/// /3612 11044 21092 39390 40280 50002=
07558,1999-12-21 02:00:00,-5.2,1028.8,0.5,73,-9.3,,14.816,,,20,,,,,,,,,,,og-post,,,,AAXX 21024 07558 36/// /0208 11052 21093 39395 40288 53005=
07558,1999-12-21 03:00:00,-6,1028.6,-0.1,77,-9.4,,14.816,,,20,,,,,,,,,,,og-post,,,,AAXX 21034 07558 36/// /0208 11060 21094 39390 40286 58001=
07558,1999-12-21 04:00:00,-5.2,1027.8,-0.4,74,-9.1,,14.816,,,20,,,,,,,,,,,og-post,,,,AAXX 21044 07558 36/// /0208 11052 21091 39386 40278 58004=
07558,1999-12-21 05:00:00,-4.7,1027.7,-0.9,69,-9.5,10000,14.816,,,60,,,,,,,,,,,og-post,,,,AAXX 21054 07558 32960 20608 11047 21095 39386 40277 56009 80001 333 82073=
07558,1999-12-21 06:00:00,-5.2,1028.1,-0.2,71,-9.6,10000,7.408,,,30,-6,-3.7,,,,,0,8.6,-8,,og-post,,,,AAXX 21064 07558 32960 20304 11052 21096 39388 40281 55002 80001 333 11037 21060 34108 55086 70000 82073=
07558,1999-12-21 08:00:00,-4.5,1028.3,0.6,65,-10.1,15000,22.224,,,30,,,,,,,,,,,og-post,,,,AAXX 21084 07558 32965 20312 11045 21101 39392 40283 51006 80001 333 82073=
07558,1999-12-21 09:00:00,-2.6,1028.1,0.8,57,-9.9,15000,29.632,,,30,,,,,,,,,,,og-post,,,,AAXX 21094 07558 32965 30316 11026 21099 39396 40281 52008 82031 333 82360=
07558,1999-12-21 11:00:00,0.7,1027.1,0.5,43,-10.4,15000,14.816,,,10,,,,,,,,,,,og-post,,,,AAXX 21114 07558 32965 50108 10007 21104 39397 40271 50005 85031 333 85360=
07558,1999-12-21 12:00:00,2.5,1026.4,0,39,-10,15000,7.408,,,330,,,,,,,,,,,og-post,,,,AAXX 21124 07558 32965 53304 10025 21100 39396 40264 50000 82031 333 82360 84073=
07558,1999-12-21 13:00:00,3.9,1025.5,-0.9,38,-9.1,15000,7.408,,,70,,,,,,,,,,,og-post,,,,AAXX 21134 07558 32965 50704 10039 21091 39392 40255 57009 81031 333 81360 84073=
07558,1999-12-21 14:00:00,4.3,1025.2,-0.6,32,-10.9,15000,11.112,,,10,,,,,,,,,,,og-post,,,,AAXX 21144 07558 33965 40106 10043 21109 39391 40252 57006 80001 333 84073=
07558,1999-12-21 15:00:00,4.5,1025.6,-0.1,33,-10.3,20000,3.704,,,20,,,,,,,,,,,og-post,,,,AAXX 21154 07558 32970 30202 10045 21103 39395 40256 55001 80001 333 83073=
07558,1999-12-21 17:00:00,2.8,1027.2,1.4,42,-8.8,,3.704,,,170,,,,,,,,,,,og-post,,,,AAXX 21174 07558 36/// /1702 10028 21088 39405 40272 53014=
07558,1999-12-21 18:00:00,1.6,1028.1,1.4,44,-9.3,,3.704,,,150,-5.7,5.5,,,,,,,,,og-post,,,,AAXX 21184 07558 36/// /1502 10016 21093 39409 40281 52014 333 10055 21057=
07558,1999-12-21 20:00:00,0.8,1028.8,0.8,52,-7.9,,11.112,,,110,,,,,,,,,,,og-post,,,,AAXX 21204 07558 36/// /1106 10008 21079 39413 40288 50008=
07558,1999-12-21 21:00:00,0.3,1029.4,0.8,54,-7.9,,3.704,,,340,,,,,,,,,,,og-post,,,,AAXX 21214 07558 36/// /3402 10003 21079 39417 40294 51008=
07558,1999-12-22 01:00:00,-0.4,1030,0.2,58,-7.6,,11.112,,,20,,,,,,,,,,,og-post,,,,AAXX 22014 07558 36/// /0206 11004 21076 39421 40300 50002=
07558,1999-12-22 02:00:00,-0.5,1030.5,0.5,56,-8.2,,11.112,,,350,,,,,,,,,,,og-post,,,,AAXX 22024 07558 36/// /3506 11005 21082 39425 40305 53005=
07558,1999-12-22 03:00:00,-0.4,1030.1,0,55,-8.3,,3.704,,,360,,,,,,,,,,,og-post,,,,AAXX 22034 07558 36/// /3602 11004 21083 39422 40301 50000=
07558,1999-12-22 04:00:00,-0.9,1030.4,0.2,57,-8.3,,11.112,,,350,,,,,,,,,,,og-post,,,,AAXX 22044 07558 36/// /3506 11009 21083 39423 40304 51002=
07558,1999-12-22 05:00:00,-0.7,1030.4,-0.2,54,-8.8,10000,7.408,,,30,,,,,,,,,,,og-post,,,,AAXX 22054 07558 32960 20304 11007 21088 39423 40304 56002 80002 333 82073=
07558,1999-12-22 06:00:00,-1.1,1030.4,0,51,-9.9,10000,7.408,,,10,-1.3,1.7,,,,,0,7.4,-4,,og-post,,,,AAXX 22064 07558 32960 20104 11011 21099 39422 40304 50000 80002 333 10017 21013 30104 55074 70000 82073=
07558,1999-12-22 07:00:00,-0.2,1030.9,0.6,45,-10.7,15000,3.704,,,70,,,,,,,,,,,og-post,,,,AAXX 22074 07558 32965 10702 11002 21107 39429 40309 53006 80001 333 81073=
07558,1999-12-22 08:00:00,-0.7,1031.1,0.7,51,-9.6,15000,7.408,,,40,,,,,,,,,,,og-post,,,,AAXX 22084 07558 32965 20404 11007 21096 39430 40311 53007 80001 333 82073=
07558,1999-12-22 09:00:00,0.1,1031.1,1,45,-10.4,15000,7.408,,,330,,,,,,,,,,,og-post,,,,AAXX 22094 07558 32965 23304 10001 21104 39432 40311 51010 80001 333 82073=
07558,1999-12-22 10:00:00,1.6,1030.7,0.4,45,-9,15000,7.408,,,350,,,,,,,,,,,og-post,,,,AAXX 22104 07558 32965 23504 10016 21090 39433 40307 52004 80001 333 82073=
07558,1999-12-22 11:00:00,4.3,1029.6,0.1,37,-9.1,15000,7.408,,,,,,,,,,,,,,og-post,,,,AAXX 22114 07558 32965 2//04 10043 21091 39431 40296 50001 80001 333 82073=
07558,1999-12-22 12:00:00,7.3,1028.3,-0.4,28,-10,15000,7.408,,,,,,,,,,,,,,og-post,,,,AAXX 22124 07558 32965 3//04 10073 21100 39428 40283 58004 80001 333 83073=
07558,1999-12-22 13:00:00,7.3,1027.6,-1.1,33,-7.9,15000,14.816,,,,,,,,,,,,,,og-post,,,,AAXX 22134 07558 32965 3//08 10073 21079 39422 40276 58011 80001 333 83073=
07558,1999-12-22 14:00:00,7.5,1027.5,-1,35,-6.9,15000,18.52,,,,,,,,,,,,,,og-post,,,,AAXX 22144 07558 32965 2//10 10075 21069 39421 40275 56010 80001 333 82073=
07558,1999-12-22 15:00:00,6.3,1028.1,-0.5,127,76,15000,18.52,,,,,,,,,,,,,,og-post,,,,AAXX 22154 07558 32965 2//10 10063 2076 39423 40281 55005 80001 333 82073=
07558,1999-12-22 16:00:00,3.9,1028.8,0.1,38,-9.1,15000,14.816,,,,,,,,,,,,,,og-post,,,,AAXX 22164 07558 32965 2//08 10039 21091 39423 40288 53001 80001 333 82073=
07558,1999-12-22 17:00:00,2.8,1029.4,0.4,41,-9.1,,18.52,,,,,,,,,,,,,,og-post,,,,AAXX 22174 07558 36/// ///10 10028 21091 39425 40294 52004=
07558,1999-12-22 18:00:00,2.4,1030,0.6,57,-5.2,,22.224,,,,-1.1,7.7,,,,,,,,,og-post,,,,AAXX 22184 07558 36/// ///12 10024 21052 39429 40300 53006 333 10077 21011=
07558,1999-12-22 19:00:00,2.1,1030.1,0.7,71,-2.6,,22.224,,,,,,,,,,,,,,og-post,,,,AAXX 22194 07558 36/// ///12 10021 21026 39430 40301 51007=
07558,1999-12-22 20:00:00,2.3,1030,0.5,82,-0.4,,14.816,,,,,,,,,,,,,,og-post,,,,AAXX 22204 07558 36/// ///08 10023 21004 39430 40300 51005=
07558,1999-12-22 21:00:00,2.6,1029.8,0,83,0,,25.928,,,,,,,,,,,,,,og-post,,,,AAXX 22214 07558 36/// ///14 10026 20000 39429 40298 50000=
07558,1999-12-22 22:00:00,2.8,1029.6,-0.2,84,0.4,,22.224,,,,,,,,,,,,,,og-post,,,,AAXX 22224 07558 36/// ///12 10028 20004 39428 40296 58002=
07558,1999-12-22 23:00:00,2.7,1029.5,-0.4,83,0.1,,22.224,,,130,,,,,,,,,,,og-post,,,,AAXX 22234 07558 36/// /1312 10027 20001 39426 40295 58004=
07558,1999-12-23 00:00:00,2.7,1029.2,-0.5,83,0.1,,22.224,,,140,,,,,,,,,,,og-post,,,,AAXX 23004 07558 36/// /1412 10027 20001 39424 40292 58005=
07558,1999-12-23 01:00:00,3.2,1028.6,-0.8,82,0.4,,18.52,,,,,,,,,,,,,,og-post,,,,AAXX 23014 07558 36/// ///10 10032 20004 39420 40286 58008=
07558,1999-12-23 02:00:00,3.6,1028.7,-0.4,84,1.2,,22.224,,,,,,,,,,,,,,og-post,,,,AAXX 23024 07558 36/// ///12 10036 20012 39422 40287 55004=
07558,1999-12-23 03:00:00,3.6,1028.6,-0.3,91,2.3,,22.224,,,,,,,,,,,,,,og-post,,,,AAXX 23034 07558 36/// ///12 10036 20023 39421 40286 56003=
07558,1999-12-23 04:00:00,3.5,1028.9,0.4,95,2.8,,22.224,,,,,,,,,,,,,,og-post,,,,AAXX 23044 07558 36/// ///12 10035 20028 39424 40289 53004=
07558,1999-12-23 06:00:00,3.7,1029.6,1,99,3.6,15000,14.816,,,140,2,3.8,,,,,0,8.5,1,,og-post,,,,AAXX 23064 07558 32565 71408 10037 20036 39431 40296 53010 875// 333 10038 20020 3/001 55085 70000 87623=
07558,1999-12-23 07:00:00,3.7,1029.9,1,99,3.6,15000,11.112,,,,,,,,,,,,,,og-post,,,,AAXX 23074 07558 32565 7//06 10037 20036 39434 40299 52010 875// 333 87623=
07558,1999-12-23 08:00:00,3.7,1030,0.8,100,3.7,10000,11.112,,,,,,,,,,,,,,og-post,,,,AAXX 23084 07558 32560 8//06 10037 20037 39435 40300 51008 885// 333 88623=
07558,1999-12-23 09:00:00,3.9,1030.3,0.7,100,3.9,10000,7.408,,,120,,,,,,,,,,,og-post,,,,AAXX 23094 07558 32560 81204 10039 20039 39438 40303 52007 885// 333 88623=
07558,1999-12-23 10:00:00,4.4,1030.2,0.5,100,4.4,10000,11.112,,,,,,,,,,,,,,og-post,,,,AAXX 23104 07558 32560 8//06 10044 20044 39439 40302 52005 885// 333 88623=
07558,1999-12-23 11:00:00,4.6,1030.1,0.3,99,4.5,15000,7.408,,,10,,,,,,,,,,,og-post,,,,AAXX 23114 07558 32565 80104 10046 20045 39438 40301 50003 885// 333 88623=
07558,1999-12-23 12:00:00,4.9,1029.2,-0.7,99,4.8,8000,11.112,,,160,,,,,,,,,,,og-post,,,,AAXX 23124 07558 32558 81606 10049 20048 39431 40292 58007 885// 333 88623=
07558,1999-12-23 13:00:00,4.9,1028.4,-1.5,100,4.9,2000,7.408,,,160,,,,,,,,,,10,og-post,,,,AAXX 23134 07558 31320 81604 10049 20049 39424 40284 58015 71022 876// 333 87706=
07558,1999-12-23 14:00:00,4.9,1028,-1.8,100,4.9,3000,3.704,,,100,,,,,,,,,,10,og-post,,,,AAXX 23144 07558 31330 81002 10049 20049 39420 40280 56018 71022 876// 333 87706=
07558,1999-12-23 15:00:00,4.9,1028,-1.1,100,4.9,8000,3.704,,,140,,,,,,,,,,,og-post,,,,AAXX 23154 07558 32358 81402 10049 20049 39420 40280 56011 885// 333 84706 87623=
07558,1999-12-23 16:00:00,4.7,1028.1,-0.4,100,4.7,8000,11.112,,,,,,,,,,,,,,og-post,,,,AAXX 23164 07558 32358 8//06 10047 20047 39420 40281 56004 885// 333 83706 87623=
07558,1999-12-23 17:00:00,4.6,1028.2,0.1,100,4.6,,11.112,,,,,,,,,,,,,,og-post,,,,AAXX 23174 07558 36/// ///06 10046 20046 39421 40282 53001=
07558,1999-12-23 20:00:00,4.5,1028,-0.2,99,4.4,,7.408,,,110,,,,,,,,,,,og-post,,,,AAXX 23204 07558 36/// /1104 10045 20044 39419 40280 58002=
07558,1999-12-23 21:00:00,4.2,1027.8,-0.4,99,4.1,,3.704,,,60,,,,,,,,,,,og-post,,,,AAXX 23214 07558 36/// /0602 10042 20041 39416 40278 58004=
07558,1999-12-23 22:00:00,3.8,1027.7,-0.8,100,3.8,,7.408,,,360,,,,,,,,,,,og-post,,,,AAXX 23224 07558 36/// /3604 10038 20038 39414 40277 56008=
07558,1999-12-23 23:00:00,2.8,1027.5,-1,100,2.8,,11.112,,,120,,,,,,,,,,,og-post,,,,AAXX 23234 07558 36/// /1206 10028 20028 39409 40275 58010=
07558,1999-12-24 00:00:00,1.7,1027.7,-0.9,100,1.7,,11.112,,,130,,,,,,,,,,,og-post,,,,AAXX 24004 07558 36/// /1306 10017 20017 39407 40277 57009=
07558,1999-12-24 01:00:00,2.6,1027.1,-0.9,100,2.6,,3.704,,,90,,,,,,,,,,,og-post,,,,AAXX 24014 07558 36/// /0902 10026 20026 39405 40271 56009=
07558,1999-12-24 02:00:00,3.2,1026.9,-0.4,100,3.2,,7.408,,,80,,,,,,,,,,,og-post,,,,AAXX 24024 07558 36/// /0804 10032 20032 39405 40269 56004=
07558,1999-12-24 03:00:00,3.4,1026.7,-0.4,100,3.4,,11.112,,,90,,,,,,,,,,,og-post,,,,AAXX 24034 07558 36/// /0906 10034 20034 39403 40267 57004=
07558,1999-12-24 04:00:00,3.4,1026.2,-0.6,100,3.4,,7.408,,,80,,,,,,,,,,,og-post,,,,AAXX 24044 07558 36/// /0804 10034 20034 39399 40262 58006=
07558,1999-12-24 05:00:00,3.5,1026.6,-0.2,100,3.5,8000,3.704,,,60,,,,,,,,,,,og-post,,,,AAXX 24054 07558 32358 80602 10035 20035 39403 40266 55002 885// 333 84706 87623=
07558,1999-12-24 06:00:00,3.6,1026.3,-0.3,100,3.6,10000,7.408,,,80,1.5,4.6,,,,,0,,0,,og-post,,,,AAXX 24064 07558 32360 80804 10036 20036 39400 40263 56003 885// 333 10046 20015 31000 55000 70000 83706 87623=
07558,1999-12-24 07:00:00,3.9,1026.3,0.2,100,3.9,15000,11.112,,,100,,,,,,,,,,,og-post,,,,AAXX 24074 07558 32365 71006 10039 20039 39401 40263 51002 875// 333 82706 87623=
07558,1999-12-24 08:00:00,4,1025.9,-0.5,100,4,,11.112,,,110,,,,,,,,,,,og-post,,,,AAXX 24084 07558 36/// /1106 10040 20040 39398 40259 57005=
07558,1999-12-24 09:00:00,4.4,1026.1,0.1,100,4.4,10000,11.112,,,100,,,,,,,,,,,og-post,,,,AAXX 24094 07558 32360 81006 10044 20044 39401 40261 53001 885// 333 82706 87623=
07558,1999-12-24 10:00:00,4.9,1026,0.1,100,4.9,20000,7.408,,,110,,,,,,,,,,,og-post,,,,AAXX 24104 07558 32570 71104 10049 20049 39402 40260 53001 875// 333 87623=
07558,1999-12-24 11:00:00,5.5,1025,-0.4,98,5.2,20000,7.408,,,140,,,,,,,,,,,og-post,,,,AAXX 24114 07558 32570 71404 10055 20052 39394 40250 58004 875// 333 87623=
07558,1999-12-24 12:00:00,6.3,1024.5,-0.9,90,4.8,20000,3.704,,,140,,,,,,,,,,,og-post,,,,AAXX 24124 07558 32570 71402 10063 20048 39392 40245 58009 875// 333 87626=
07558,1999-12-24 13:00:00,6.7,1023.4,-1.9,87,4.7,20000,7.408,,,110,,,,,,,,,,,og-post,,,,AAXX 24134 07558 32570 71104 10067 20047 39383 40234 58019 875// 333 87626=
07558,1999-12-24 14:00:00,6.8,1022.2,-2.2,88,5,20000,11.112,,,110,,,,,,,,,,,og-post,,,,AAXX 24144 07558 32570 71106 10068 20050 39372 40222 58022 875// 333 87626=
07558,1999-12-24 15:00:00,5.9,1022.5,-2,90,4.4,20000,14.816,,,130,,,,,,,,,,,og-post,,,,AAXX 24154 07558 32570 71308 10059 20044 39372 40225 56020 875// 333 87626=
07558,1999-12-24 16:00:00,5.4,1022.7,-1,91,4.1,20000,11.112,,,150,,,,,,,,,,,og-post,,,,AAXX 24164 07558 32570 71506 10054 20041 39373 40227 55010 875// 333 87626=
07558,1999-12-24 17:00:00,5,1023.6,0.8,92,3.8,,11.112,,,150,,,,,,,,,,,og-post,,,,AAXX 24174 07558 36/// /1506 10050 20038 39380 40236 53008=
07558,1999-12-24 18:00:00,5,1022.7,0,94,4.1,,14.816,,,130,3.6,7,,,,,,,,,og-post,,,,AAXX 24184 07558 36/// /1308 10050 20041 39372 40227 50000 333 10070 20036=
07558,1999-12-24 19:00:00,5.2,1022.1,-0.6,93,4.2,,14.816,,,150,,,,,,,,,,,og-post,,,,AAXX 24194 07558 36/// /1508 10052 20042 39367 40221 58006=
07558,1999-12-24 20:00:00,5.2,1021.6,-1.8,94,4.3,,14.816,,,140,,,,,,,,,,,og-post,,,,AAXX 24204 07558 36/// /1408 10052 20043 39362 40216 56018=
07558,1999-12-24 21:00:00,5.3,1021.4,-1.1,95,4.6,,18.52,,,150,,,,,,,,,,,og-post,,,,AAXX 24214 07558 36/// /1510 10053 20046 39361 40214 56011=
07558,1999-12-24 22:00:00,5.2,1019.4,-2.5,97,4.8,,22.224,,,130,,,,,,,,,,,og-post,,,,AAXX 24224 07558 36/// /1312 10052 20048 39342 40194 58025=
07558,1999-12-24 23:00:00,5.2,1019.8,-1.6,95,4.5,,14.816,,,140,,,,,,,,,,,og-post,,,,AAXX 24234 07558 36/// /1408 10052 20045 39346 40198 55016=
07558,1999-12-25 00:00:00,5.6,1019.2,-2,91,4.2,,11.112,,,130,,,,,,,,,,,og-post,,,,AAXX 25004 07558 36/// /1306 10056 20042 39341 40192 56020=
07558,1999-12-25 05:00:00,5,1016.7,-1.1,97,4.6,20000,3.704,,,100,,,,,,,,,,,og-post,,,,AAXX 25054 07558 32570 71002 10050 20046 39317 40167 56011 8351/ 333 83626 87460=
07558,1999-12-25 06:00:00,4.5,1016.4,-1,98,4.2,20000,3.704,,,130,4.5,6.1,,,,,0,,3,,og-post,,,,AAXX 25064 07558 32570 71302 10045 20042 39312 40164 58010 8551/ 333 10061 20045 30003 55000 70000 85626 87460=
07558,1999-12-25 09:00:00,4.4,1017.6,1.1,99,4.3,10000,11.112,,,140,,,,1,,,,,,21,og-post,,,,AAXX 25094 07558 21660 71406 10044 20043 39323 40176 51011 72162 875// 333 60017 87640=
07558,1999-12-25 10:00:00,,1016.9,-0.1,,4.8,10000,3.704,,,220,,,,,,,,,,,og-post,,,,AAXX 25104 07558 32660 7220210048 20048 39318 40169 58001 8453/ 333 84640 87360=
07558,1999-12-25 11:00:00,5.2,1015.7,-0.9,99,5.1,10000,3.704,,,210,,,,,,,,,,,og-post,,,,AAXX 25114 07558 32660 72102 10052 20051 39308 40157 58009 8453/ 333 84640 87360=
07558,1999-12-25 13:00:00,8.7,1015.4,-0.2,81,5.6,,53.708,83.34,79.636,270,,,0.6,,,,,,,,og-post,,,,AAXX 25134 07558 26/// /2729 10087 20056 39316 40154 56002 333 69965 91043 91145=
07558,1999-12-25 14:00:00,8.5,1015.8,1.1,80,5.3,,46.3,103.712,75.932,270,,,,,,,,,,,og-post,,,,AAXX 25144 07558 36/// /2725 10085 20053 39319 40158 51011 333 91041 91156=
07558,1999-12-25 15:00:00,8.4,1015.5,-0.4,73,3.8,,38.892,103.712,,270,,,,0.6,,,,,,,og-post,,,,AAXX 25154 07558 26/// /2721 10084 20038 39315 40155 58004 333 69967 91156=
07558,1999-12-25 16:00:00,7.6,1016,0.2,84,5.1,,31.484,79.636,57.412,260,,,,,,,,,,,og-post,,,,AAXX 25164 07558 36/// /2617 10076 20051 39318 40160 52002 333 91031 91143=
07558,1999-12-25 17:00:00,7.1,1016.7,0.4,87,5.1,,22.224,,,260,,,,,,,,,,,og-post,,,,AAXX 25174 07558 36/// /2612 10071 20051 39323 40167 53004=
07558,1999-12-25 18:00:00,7.4,1016.7,0.9,86,5.2,,31.484,103.712,,260,4.2,8.9,,,,2,,,,,og-post,,,,AAXX 25184 07558 16/// /2617 10074 20052 39324 40167 51009 60022 333 10089 20042 91156=
07558,1999-12-25 22:00:00,6.9,1016.4,-0.6,81,3.9,,25.928,,,260,,,,,,,,,,,og-post,,,,AAXX 25224 07558 36/// /2614 10069 20039 39319 40164 58006=
07558,1999-12-25 23:00:00,7.2,1016.4,-0.5,85,4.9,,22.224,,,260,,,,,,,,,,,og-post,,,,AAXX 25234 07558 36/// /2612 10072 20049 39320 40164 55005=
07558,1999-12-26 01:00:00,6.6,1014.3,-1.9,97,6.2,,18.52,,,220,,,,,,,,,,,og-post,,,,AAXX 26014 07558 36/// /2210 10066 20062 39300 40143 58019=
07558,1999-12-26 02:00:00,6.3,1013.2,-3.1,98,6,,11.112,,,200,,,,,,,,,,,og-post,,,,AAXX 26024 07558 36/// /2006 10063 20060 39289 40132 58031=
07558,1999-12-26 03:00:00,6.2,1011.6,-4,99,6.1,,18.52,,,190,,,,,,,,,,,og-post,,,,AAXX 26034 07558 36/// /1910 10062 20061 39274 40116 58040=
07558,1999-12-26 04:00:00,6.2,1010.5,-3.6,100,6.2,,18.52,,,200,,,0.2,,,,,,,,og-post,,,,AAXX 26044 07558 26/// /2010 10062 20062 39264 40105 56036 333 69925=
07558,1999-12-26 05:00:00,5.8,1009.5,-3.6,100,5.8,10000,11.112,,,190,,,,,,,,,,60,og-post,,,,AAXX 26054 07558 21460 71906 10058 20058 39253 40095 56036 76062 8557/ 333 69905 85616 87358=
07558,1999-12-26 06:00:00,5.9,1009.5,-2,99,5.8,10000,7.408,,,240,5.8,8.4,,0.4,,0.4,2.6,0.2,5,60,og-post,,,,AAXX 26064 07558 /1460 72404 10059 20058 39254 40095 55020 69942 76062 8657/ 333 10084 20058 32005 55002 69947 70026 86616 87358=
07558,1999-12-26 07:00:00,5.9,1008.8,-1.7,96,5.3,10000,14.816,,,150,,,0.6,,,,,,,60,og-post,,,,AAXX 26074 07558 21460 71508 10059 20053 39247 40088 56017 76066 8557/ 333 69965 85616 87358=
07558,1999-12-26 08:00:00,7.3,1009,-0,98,7,6000,31.484,,,230,,,,,,,,,,,og-post,,,,AAXX 26084 07558 21356 82317 10073 20070 39253 40090 55000=
07558,1999-12-26 09:00:00,9.2,1009.1,0.6,98,8.9,6000,46.3,94.452,87.044,260,,,,5,,,,,,61,og-post,,,,AAXX 26094 07558 21356 82625 10092 20089 39260 40091 53006 76166 885// 333 60057 84606 87613 91047 91151=
07558,1999-12-26 11:00:00,10.9,1009.1,1.1,78,7.2,10000,57.412,103.712,94.452,270,,,,,,,,,,21,og-post,,,,AAXX 26114 07558 21460 72731 10109 20072 39264 40091 50011 72162 878// 333 69905 83813 85620 91051 91156=
07558,1999-12-26 12:00:00,11.5,1008.9,0.4,69,6,,72.228,114.824,107.416,270,,,,0.8,6,,,,,,og-post,,,,AAXX 26124 07558 /6/// /2739 10115 20060 39264 40089 51004 60061 333 69987 91058 91162=
07558,1999-12-26 13:00:00,12.1,1008.7,-0.1,65,5.7,,53.708,107.416,79.636,260,,,,,,,,,,,og-post,,,,AAXX 26134 07558 36/// /2629 10121 20057 39264 40087 56001 333 91043 91158=
07558,1999-12-26 14:00:00,11.5,1009.4,0.4,67,5.6,,50.004,90.748,75.932,260,,,,,,,,,,,og-post,,,,AAXX 26144 07558 36/// /2627 10115 20056 39268 40094 53004 333 91041 91149=
07558,1999-12-26 15:00:00,10.2,1010.1,0.7,67,4.4,,42.596,107.416,68.524,270,,,,,,,,,,,og-post,,,,AAXX 26154 07558 36/// /2723 10102 20044 39271 40101 53007 333 91037 91158=
07558,1999-12-26 16:00:00,9.7,1010.5,0.9,73,5.1,,35.188,75.932,,270,,,,,,,,,,,og-post,,,,AAXX 26164 07558 36/// /2719 10097 20051 39273 40105 51009 333 91141=
07558,1999-12-26 17:00:00,9,1010.2,0.1,80,5.7,,42.596,64.82,64.82,260,,,,,,,,,,,og-post,,,,AAXX 26174 07558 36/// /2623 10090 20057 39269 40102 50001 333 91035 91135=
07558,1999-12-26 18:00:00,7.6,1009.7,-1.1,87,5.6,,75.932,122.232,122.232,270,5.8,12.3,,1,,7,,,,,og-post,,,,AAXX 26184 07558 /6/// /2741 10076 20056 39260 40097 58011 60072 333 10123 20058 60017 91066 91166=
07558,1999-12-26 19:00:00,7.1,1009.8,-1.3,85,4.8,,57.412,96.304,90.748,270,,,0.8,,,,,,,,og-post,,,,AAXX 26194 07558 26/// /2731 10071 20048 39260 40098 56013 333 69985 91049 91152=
07558,1999-12-26 20:00:00,6.4,1011.2,0.1,91,5,,46.3,90.748,75.932,260,,,2,,,,,,,,og-post,,,,AAXX 26204 07558 26/// /2625 10064 20050 39270 40112 53001 333 60025 91041 91149=
07558,1999-12-26 22:00:00,5.6,1010.9,0.5,94,4.7,,38.892,72.228,68.524,260,,,2,,,,,,,,og-post,,,,AAXX 26224 07558 26/// /2621 10056 20047 39265 40109 50005 333 60025 91037 91139=
07558,1999-12-26 23:00:00,5.6,1009.9,-1.4,93,4.6,,46.3,75.932,72.228,260,,,0.6,,,,,,,,og-post,,,,AAXX 26234 07558 26/// /2625 10056 20046 39256 40099 58014 333 69965 91039 91141=
07558,1999-12-27 00:00:00,6.1,1009.1,-2.1,93,5.1,,42.596,96.304,68.524,260,,,,3,7,,,,,,og-post,,,,AAXX 27004 07558 /6/// /2623 10061 20051 39250 40091 57021 60071 333 60037 91037 91152=
07558,1999-12-27 01:00:00,6.1,1007.9,-2.6,94,5.2,,38.892,68.524,,260,,,2,,,,,,,,og-post,,,,AAXX 27014 07558 26/// /2621 10061 20052 39239 40079 58026 333 60025 91137=
07558,1999-12-27 03:00:00,6.9,1006.9,-1.7,91,5.5,,46.3,83.34,83.34,280,,,,5,,,,,,,og-post,,,,AAXX 27034 07558 26/// /2825 10069 20055 39233 40069 56017 333 60057 91045 91145=
07558,1999-12-27 04:00:00,6.9,1006.8,-0.7,89,5.2,,57.412,100.008,90.748,290,,,2,,,,,,,,og-post,,,,AAXX 27044 07558 26/// /2931 10069 20052 39232 40068 56007 333 60025 91049 91154=
07558,1999-12-27 05:00:00,6.6,1007.8,0.4,86,4.4,20000,35.188,87.044,,300,,,,,,,,,,,og-post,,,,AAXX 27054 07558 32570 73019 10066 20044 39240 40078 53004 878// 333 84823 86630 91147=
07558,1999-12-27 06:00:00,5.3,1009,1.4,92,4.1,20000,29.632,100.008,53.708,300,5.3,7.7,,2,,14,21,2,5,61,og-post,,,,AAXX 27064 07558 /1570 83016 10053 20041 39247 40090 53014 60142 76162 885// 333 10077 20053 3/005 55020 60027 70210 84620 87630 91029 91154=
07558,1999-12-27 07:00:00,4.9,1009.6,1.9,95,4.2,20000,18.52,,,300,,,1,,,,,,,60,og-post,,,,AAXX 27074 07558 21570 83010 10049 20042 39251 40096 51019 76066 885// 333 60015 84620 87630=
07558,1999-12-27 08:00:00,4.7,1009.6,1.1,95,4,20000,14.816,,,310,,,0.2,,,,,,,21,og-post,,,,AAXX 27084 07558 21570 83108 10047 20040 39251 40096 51011 72162 885// 333 69925 84620 87630=
07558,1999-12-27 09:00:00,4.8,1009.3,0.1,94,3.9,20000,14.816,,,260,,,,2,,,,,,60,og-post,,,,AAXX 27094 07558 21570 82608 10048 20039 39248 40093 50001 76062 885// 333 60027 84620 87630=
07558,1999-12-27 10:00:00,4.8,1008.3,-1.2,91,3.5,30000,11.112,,,300,,,0.2,,,,,,,21,og-post,,,,AAXX 27104 07558 21580 73006 10048 20035 39239 40083 58012 72162 875// 333 69925 87630=
07558,1999-12-27 12:00:00,4.6,1005.5,-3.5,98,4.3,20000,22.224,,,210,,,,0.6,2,,,,,61,og-post,,,,AAXX 27124 07558 /1570 82112 10046 20043 39213 40055 58035 60021 76162 885// 333 69967 87623=
07558,1999-12-27 13:00:00,3.9,1003.3,-4.8,99,3.8,10000,18.52,,,190,,,0.4,,,,,,,61,og-post,,,,AAXX 27134 07558 21360 81910 10039 20038 39191 40033 58048 76166 885// 333 69945 84706 87623=
07558,1999-12-27 14:00:00,4,1001.4,-5,100,4,3000,11.112,,,170,,,0.4,,,,,,,,og-post,,,,AAXX 27144 07558 23330 81706 10040 20040 39174 40014 58050 885// 333 69945 82706 87623=
07558,1999-12-27 15:00:00,4.1,1000.1,-5.1,100,4.1,8000,3.704,,,140,,,,2,,,,,,61,og-post,,,,AAXX 27154 07558 21358 81402 10041 20041 39162 40001 56051 76166 885// 333 60027 84706 87623=
07558,1999-12-27 16:00:00,4.2,998.3,-4.5,100,4.2,800,11.112,,,140,,,3,,,,,,,61,og-post,,,,AAXX 27164 07558 21308 81406 10042 20042 39146 49983 56045 76166 885// 333 60035 84706 87623=
07558,1999-12-27 17:00:00,4.6,996.7,-4.2,100,4.6,,14.816,,,140,,,1,,,,,,,,og-post,,,,AAXX 27174 07558 26/// /1408 10046 20046 39132 49967 58042 333 60015=
07558,1999-12-27 18:00:00,4.8,993.3,-6,100,4.8,,22.224,,,140,3.9,5.4,,4,,8,,,,,og-post,,,,AAXX 27184 07558 /6/// /1412 10048 20048 39102 49933 58060 60082 333 10054 20039 60047=
07558,1999-12-27 19:00:00,4.9,993.6,-4.1,100,4.9,,3.704,,,240,,,0.6,,,,,,,,og-post,,,,AAXX 27194 07558 26/// /2402 10049 20049 39105 49936 55041 333 69965=
07558,1999-12-27 20:00:00,6.4,992.8,-3,93,5.4,,75.932,140.752,140.752,260,,,4,,,,,,,,og-post,,,,AAXX 27204 07558 26/// /2641 10064 20054 39102 49928 56030 333 60045 91076 91176=
07558,1999-12-28 05:00:00,2,1000.7,3.7,89,0.4,25000,79.636,118.528,114.824,290,,,0.4,,,,,,,21,og-post,,,,AAXX 28054 07558 21575 62943 10020 20004 39161 40007 51037 72162 86200 333 69945 86826 91062 91164=
07558,1999-12-28 06:00:00,1.4,1002.4,3.3,93,0.4,25000,61.116,140.752,83.34,290,1.4,6.5,,1,,15,22.4,,1,80,og-post,,,,AAXX 28064 07558 /1575 62933 10014 20004 39175 40024 53033 60152 78086 86200 333 10065 20014 31001 55000 60017 70224 86826 91045 91176=
07558,1999-12-28 07:00:00,1.4,1003.9,4.1,89,-0.2,15000,64.82,100.008,96.304,300,,,0.2,,,,,,,26,og-post,,,,AAXX 28074 07558 21565 63035 10014 21002 39188 40039 51041 72687 86230 333 69925 86826 83360 91052 91154=
07558,1999-12-28 08:00:00,1.7,1005.1,3.9,80,-1.4,30000,57.412,111.12,90.748,290,,,0.2,,,,,,,,og-post,,,,AAXX 28084 07558 22580 62931 10017 21014 39200 40051 51039 86200 333 69925 86826 91049 91160=
07558,1999-12-28 09:00:00,1.9,1006.9,4.2,78,-1.5,,61.116,111.12,87.044,300,,,,0.4,,,,,,,og-post,,,,AAXX 28094 07558 26/// /3033 10019 21015 39217 40069 53042 333 69947 91047 91160=
07558,1999-12-28 10:00:00,0.7,1008,3.6,97,0.3,,38.892,83.34,,300,,,,,,,,,,,og-post,,,,AAXX 28104 07558 26/// /3021 10007 20003 39224 40080 51036 333 69905 91145=
07558,1999-12-28 12:00:00,2.4,1007,0.2,77,-1.2,30000,57.412,111.12,,300,,,,,0.4,,,,,1,og-post,,,,AAXX 28124 07558 /1580 53031 10024 21012 39219 40070 50002 69941 70187 84231 333 69907 84826 83360 91160=
07558,1999-12-28 13:00:00,1.3,1007.8,-0,89,-0.3,15000,50.004,107.416,,300,,,,,,,,,,85,og-post,,,,AAXX 28134 07558 21565 73027 10013 21003 39224 40078 55000 78587 8522/ 333 69905 85826 85460 91158=
07558,1999-12-28 14:00:00,1.3,1008.1,0.2,89,-0.3,20000,46.3,,,300,,,,,,,,,,26,og-post,,,,AAXX 28144 07558 21570 63025 10013 21003 39226 40081 53002 72687 85231 333 69905 85826 83360=
07558,1999-12-28 15:00:00,1.4,1008.1,0.7,80,-1.7,20000,57.412,107.416,,300,,,,,,,,,,,og-post,,,,AAXX 28154 07558 23570 43031 10014 21017 39226 40081 51007 84230 333 69907 84826 91158=
07558,1999-12-28 16:00:00,1.2,1008.9,0.9,82,-1.5,20000,38.892,,,300,,,,,,,,,,,og-post,,,,AAXX 28164 07558 32570 53021 10012 21015 39233 40089 53009 84130 333 84826=
07558,1999-12-28 17:00:00,1.3,1009.2,1,82,-1.4,,42.596,68.524,,300,,,,,,,,,,,og-post,,,,AAXX 28174 07558 36/// /3023 10013 21014 39236 40092 53010 333 91137=
07558,1999-12-28 18:00:00,1.4,1094,1.2,82,-1.3,,38.892,107.416,,300,0.6,2.7,,,,0.4,,,,,og-post,,,,AAXX 28184 07558 16/// /3021 10014 21013 39238 4094 51012 69942 333 10027 20006 91158=
07558,1999-12-28 19:00:00,1.2,1009.9,0.9,83,-1.4,,42.596,,,300,,,,,,,,,,,og-post,,,,AAXX 28194 07558 36/// /3023 10012 21014 39242 40099 53009=
07558,1999-12-28 20:00:00,1.2,1010.5,1.2,85,-1,,31.484,,,300,,,,,,,,,,,og-post,,,,AAXX 28204 07558 36/// /3017 10012 21010 39248 40105 53012=
07558,1999-12-28 21:00:00,1.3,1010.7,1.2,84,-1.1,,31.484,,,300,,,,,,,,,,,og-post,,,,AAXX 28214 07558 36/// /3017 10013 21011 39250 40107 51012=
07558,1999-12-28 22:00:00,-0.4,1011.2,0.8,98,-0.7,,35.188,,,310,,,0.4,,,,,,,,og-post,,,,AAXX 28224 07558 26/// /3119 11004 21007 39250 40112 51008 333 69945=
07558,1999-12-28 23:00:00,0,1012.1,1.1,95,-0.7,,22.224,53.708,,330,,,,,,,,,,,og-post,,,,AAXX 28234 07558 36/// /3312 10000 21007 39259 40121 53011 333 91129=
07558,1999-12-29 00:00:00,0.1,1012.5,1.3,92,-1,,25.928,,,310,,,,0.4,0.4,,,,,,og-post,,,,AAXX 29004 07558 /6/// /3114 10001 21010 39263 40125 53013 69941 333 69947=
07558,1999-12-29 01:00:00,-0.1,1012.7,1.4,93,-1.1,,22.224,,,300,,,,,,,,,,,og-post,,,,AAXX 29014 07558 36/// /3012 11001 21011 39264 40127 51014=
07558,1999-12-29 02:00:00,-0.1,1013.7,1.4,89,-1.7,,22.224,50.004,,310,,,,,,,,,,,og-post,,,,AAXX 29024 07558 36/// /3112 11001 21017 39273 40137 53014 333 91127=
07558,1999-12-29 03:00:00,-0.3,1013.9,1.1,88,-2,,29.632,50.004,,310,,,,,,,,,,,og-post,,,,AAXX 29034 07558 36/// /3116 11003 21020 39274 40139 52011 333 91127=
07558,1999-12-29 04:00:00,-0.4,1014.4,1.5,88,-2.1,,29.632,,,300,,,,,,,,,,,og-post,,,,AAXX 29044 07558 36/// /3016 11004 21021 39279 40144 51015=
07558,1999-12-29 05:00:00,-0.9,1015.2,1.1,88,-2.6,20000,18.52,,,290,,,,,,,,,,,og-post,,,,AAXX 29054 07558 32670 52910 11009 21026 39284 40152 53011 85500 333 85633=
07558,1999-12-29 06:00:00,-1.2,1016,1.7,88,-2.9,20000,18.52,50.004,,330,-1.3,1.4,,,,0.4,0.8,3.7,-3,,og-post,,1,,AAXX 29064 07558 12670 43310 11012 21029 39291 40160 53017 69942 84500 333 10014 21013 3/103 44001 55037 70008 84636 91127 93101=
07558,1999-12-29 07:00:00,-1.1,1016.5,1.7,88,-2.8,15000,25.928,,,330,,,,,,,,,,,og-post,,,,AAXX 29074 07558 32465 63314 11011 21028 39296 40165 52017 86500 333 82615 86630=
07558,1999-12-29 08:00:00,-1.6,1017.1,1.6,89,-3.2,15000,29.632,,,340,,,,,,,,,,,og-post,,,,AAXX 29084 07558 32465 63416 11016 21032 39300 40171 51016 86500 333 82615 86630=
07558,1999-12-29 09:00:00,-0.9,1018.4,2.3,88,-2.6,15000,18.52,,,330,,,,,,,,,,,og-post,,,,AAXX 29094 07558 32465 73310 11009 21026 39314 40184 53023 875// 333 83613 86626=
07558,1999-12-29 10:00:00,-0.6,1018.7,2.1,86,-2.6,20000,18.52,,,290,,,,,,,,,,,og-post,,,,AAXX 29104 07558 32470 62910 11006 21026 39317 40187 51021 86500 333 83613 85626=
07558,1999-12-29 11:00:00,0.6,1018.4,1.8,76,-3.1,20000,18.52,,,320,,,,,,,,,,,og-post,,,,AAXX 29114 07558 32470 63210 10006 21031 39318 40184 51018 85502 333 82615 84630=
07558,1999-12-29 12:00:00,0.9,1018.7,0.8,78,-2.5,20000,22.224,,,300,,,,,,,,,,,og-post,,,,AAXX 29124 07558 32470 63012 10009 21025 39322 40187 53008 85502 333 82616 84630=
07558,1999-12-29 13:00:00,0.8,1019.1,0.8,78,-2.6,20000,31.484,,,300,,,,,,,,,,,og-post,,,,AAXX 29134 07558 32470 63017 10008 21026 39325 40191 53008 84532 333 82616 83630=
07558,1999-12-29 14:00:00,0.7,1019.6,1.1,78,-2.7,20000,35.188,,,300,,,,,,,,,,,og-post,,,,AAXX 29144 07558 32470 73019 10007 21027 39329 40196 52011 8553/ 333 83616 84630 85360=
07558,1999-12-29 15:00:00,0.6,1019.7,0.8,75,-3.3,25000,31.484,,,290,,,,,,,,,,,og-post,,,,AAXX 29154 07558 32575 62917 10006 21033 39330 40197 51008 84530 333 83620 83630=
07558,1999-12-29 16:00:00,-0.3,1020.5,1,80,-3.3,25000,25.928,,,310,,,,,,,,,,,og-post,,,,AAXX 29164 07558 32575 63114 11003 21033 39335 40205 53010 84530 333 83620 83630=
07558,1999-12-29 17:00:00,-0.7,1021.2,1.1,81,-3.5,,31.484,,,320,,,,,,,,,,,og-post,,,,AAXX 29174 07558 36/// /3217 11007 21035 39340 40212 53011=
07558,1999-12-29 18:00:00,-1,1022.5,2.1,84,-3.4,,22.224,,,320,-1.8,1.3,,,,,,,,,og-post,,,,AAXX 29184 07558 36/// /3212 11010 21034 39351 40225 53021 333 10013 21018=
07558,1999-12-29 19:00:00,-0.7,1023.3,2.4,86,-2.7,,22.224,,,340,,,,,,,,,,,og-post,,,,AAXX 29194 07558 36/// /3412 11007 21027 39359 40233 53024=
07558,1999-12-29 20:00:00,-1.1,1023.9,2.3,85,-3.3,,29.632,,,330,,,,,,,,,,,og-post,,,,AAXX 29204 07558 36/// /3316 11011 21033 39363 40239 51023=
07558,1999-12-29 21:00:00,-1.3,1024.4,1.6,87,-3.2,,25.928,,,320,,,,,,,,,,,og-post,,,,AAXX 29214 07558 36/// /3214 11013 21032 39367 40244 51016=
07558,1999-12-29 22:00:00,-1.5,1024.9,1.2,87,-3.4,,29.632,,,320,,,,,,,,,,,og-post,,,,AAXX 29224 07558 36/// /3216 11015 21034 39371 40249 52012=
07558,1999-12-29 23:00:00,-1.6,1025.7,1.5,85,-3.8,,25.928,,,320,,,,,,,,,,,og-post,,,,AAXX 29234 07558 36/// /3214 11016 21038 39378 40257 53015=
07558,1999-12-30 00:00:00,-2.1,1026.7,1.9,86,-4.1,,25.928,,,320,,,,,,,,,,,og-post,,,,AAXX 30004 07558 36/// /3214 11021 21041 39386 40267 53019=
07558,1999-12-30 01:00:00,-2.5,1027,1.6,90,-3.9,,29.632,,,300,,,,,,,,,,,og-post,,,,AAXX 30014 07558 36/// /3016 11025 21039 39387 40270 51016=
07558,1999-12-30 02:00:00,-2.6,1028,1.8,88,-4.3,,22.224,,,310,,,,,,,,,,,og-post,,,,AAXX 30024 07558 36/// /3112 11026 21043 39396 40280 53018=
07558,1999-12-30 03:00:00,-2,1027.9,1.1,91,-3.3,,25.928,,,310,,,,,,,,,,,og-post,,,,AAXX 30034 07558 36/// /3114 11020 21033 39397 40279 52011=
07558,1999-12-30 04:00:00,-1.5,1027.8,1.1,90,-2.9,,14.816,,,300,,,,,,,,,,,og-post,,,,AAXX 30044 07558 36/// /3008 11015 21029 39398 40278 51011=
07558,1999-12-30 05:00:00,-1.4,1027.6,0,91,-2.7,10000,25.928,,,320,,,,,,,,,,,og-post,,,,AAXX 30054 07558 32560 43214 11014 21027 39396 40276 50000 84500 333 84620=
07558,1999-12-30 06:00:00,-1.5,1028.3,0.5,89,-3.1,10000,18.52,,,320,-2.6,-0.6,,,,,0,4.6,-3,,og-post,,,,AAXX 30064 07558 32460 63210 11015 21031 39402 40283 53005 84502 333 11006 21026 30103 55046 70000 84616 84075=
07558,1999-12-30 07:00:00,-1.6,1029.4,1.4,89,-3.2,12000,22.224,,,320,,,,,,,,,,,og-post,,,,AAXX 30074 07558 32462 63212 11016 21032 39412 40294 53014 85502 333 85616 83075=
07558,1999-12-30 08:00:00,-1.4,1030.3,2.5,90,-2.8,10000,18.52,,,340,,,,,,,,,,,og-post,,,,AAXX 30084 07558 32460 73410 11014 21028 39421 40303 53025 875// 333 84613 86623=
07558,1999-12-30 09:00:00,-1.2,1030,1.7,85,-3.4,20000,25.928,,,310,,,,,,,,,,,og-post,,,,AAXX 30094 07558 32470 43114 11012 21034 39419 40300 50017 84500 333 82613 83625=
07558,1999-12-30 10:00:00,-0.5,1030.3,1.2,81,-3.3,25000,25.928,,,310,,,,,,,,,,,og-post,,,,AAXX 30104 07558 32475 33114 11005 21033 39424 40303 51012 83500 333 82613=
07558,1999-12-30 11:00:00,0.9,1030.1,0.5,69,-4.1,30000,14.816,,,310,,,,,,,,,,,og-post,,,,AAXX 30114 07558 32480 33108 10009 21041 39426 40301 53005 82502 333 82613=
07558,1999-12-30 12:00:00,1.9,1029.7,0.6,61,-4.8,30000,18.52,,,310,,,,,,,,,,,og-post,,,,AAXX 30124 07558 32480 33110 10019 21048 39425 40297 50006 82502 333 82615=
07558,1999-12-30 13:00:00,1.4,1029.6,-0.1,69,-3.6,30000,25.928,,,310,,,,,,,,,,,og-post,,,,AAXX 30134 07558 32480 33114 10014 21036 39423 40296 58001 82502 333 82615=
07558,1999-12-30 14:00:00,1.5,1029.2,-0.6,68,-3.7,25000,18.52,,,310,,,,,,,,,,,og-post,,,,AAXX 30144 07558 32475 63110 10015 21037 39420 40292 58006 83502 333 83615 85075=
07558,1999-12-30 15:00:00,0.9,1029.7,-0.3,74,-3.2,25000,25.928,,,320,,,,,,,,,,,og-post,,,,AAXX 30154 07558 32475 63214 10009 21032 39422 40297 55003 83502 333 83613 86075=
07558,1999-12-30 16:00:00,-0.4,1030.3,0.1,83,-2.9,20000,18.52,,,330,,,,,,,,,,,og-post,,,,AAXX 30164 07558 32470 73310 11004 21029 39424 40303 53001 85532 333 85613 85360 86075=
07558,1999-12-30 17:00:00,-0.8,1030.4,0.4,87,-2.7,,11.112,,,310,,,,,,,,,,,og-post,,,,AAXX 30174 07558 36/// /3106 11008 21027 39424 40304 51004=
07558,1999-12-30 18:00:00,-1,1030.4,0.1,89,-2.6,,14.816,,,340,-1.8,1.9,,,,,,,,,og-post,,,,AAXX 30184 07558 36/// /3408 11010 21026 39423 40304 50001 333 10019 21018=
07558,1999-12-30 19:00:00,-1.1,1029.9,-0.6,89,-2.7,,18.52,,,340,,,,,,,,,,,og-post,,,,AAXX 30194 07558 36/// /3410 11011 21027 39418 40299 58006=
07558,1999-12-30 20:00:00,-1,1029.8,-0.6,88,-2.7,,11.112,,,340,,,,,,,,,,,og-post,,,,AAXX 30204 07558 36/// /3406 11010 21027 39418 40298 56006=
07558,1999-12-30 21:00:00,-0.8,1029.6,-0.7,88,-2.5,,11.112,,,330,,,,,,,,,,,og-post,,,,AAXX 30214 07558 36/// /3306 11008 21025 39416 40296 56007=
07558,1999-12-30 22:00:00,-1.5,1029.6,-0.4,91,-2.8,,7.408,,,330,,,,,,,,,,,og-post,,,,AAXX 30224 07558 36/// /3304 11015 21028 39414 40296 58004=
07558,1999-12-30 23:00:00,-1.2,1029.4,-0.5,90,-2.6,,3.704,,,30,,,,,,,,,,,og-post,,,,AAXX 30234 07558 36/// /0302 11012 21026 39413 40294 56005=
07558,1999-12-31 00:00:00,-1.3,1029.4,-0.3,89,-2.9,,7.408,,,330,,,,,,,,,,,og-post,,,,AAXX 31004 07558 36/// /3304 11013 21029 39413 40294 56003=
07558,1999-12-31 01:00:00,-1,1028.6,-0.7,90,-2.4,,3.704,,,310,,,,,,,,,,,og-post,,,,AAXX 31014 07558 36/// /3102 11010 21024 39407 40286 58007=
07558,1999-12-31 02:00:00,-1,1028.5,-0.7,91,-2.3,,,,,,,,,,,,,,,,og-post,,,,AAXX 31024 07558 36/// /0000 11010 21023 39406 40285 58007=
07558,1999-12-31 03:00:00,-1.4,1028,-1.3,95,-2.1,,3.704,,,250,,,,,,,,,,,og-post,,,,AAXX 31034 07558 36/// /2502 11014 21021 39400 40280 57013=
07558,1999-12-31 04:00:00,-1.5,1027.7,-1,97,-1.9,,3.704,,,180,,,,,,,,,,,og-post,,,,AAXX 31044 07558 36/// /1802 11015 21019 39397 40277 58010=
07558,1999-12-31 05:00:00,-1.5,1027.2,-1.4,99,-1.6,6000,3.704,,,250,,,,,,,,,,,og-post,,,,AAXX 31054 07558 32556 82502 11015 21016 39392 40272 56014 885// 333 88620=
07558,1999-12-31 06:00:00,-1.2,1027,-0.8,100,-1.2,6000,3.704,,,230,-1.7,-0.8,,,,,0,6.6,-4,,og-post,,1,,AAXX 31064 07558 32556 82302 11012 21012 39392 40270 56008 885// 333 11008 21017 3/104 41001 55066 70000 88620=
07558,1999-12-31 07:00:00,-1.1,1026.8,-0.7,100,-1.1,500,3.704,,,220,,,,,,,,,,45,og-post,,,,AAXX 31074 07558 31/05 92202 11011 21011 39390 40268 56007 74542=
07558,1999-12-31 08:00:00,-0.8,1026.8,-0.1,100,-0.8,500,3.704,,,180,,,,,,,,,,45,og-post,,,,AAXX 31084 07558 31/05 91802 11008 21008 39391 40268 55001 74544=
07558,1999-12-31 09:00:00,-0.7,1027.1,0.2,100,-0.7,500,3.704,,,170,,,,,,,,,,45,og-post,,,,AAXX 31094 07558 31/05 91702 11007 21007 39394 40271 53002 74542=
07558,1999-12-31 10:00:00,-0.5,1027.4,0.7,100,-0.5,500,3.704,,,190,,,,,,,,,,45,og-post,,,,AAXX 31104 07558 31/05 91902 11005 21005 39397 40274 53007 74544=
07558,1999-12-31 11:00:00,0.2,1026.5,0,100,0.2,,11.112,,,200,,,,,,,,,,,og-post,,,,AAXX 31114 07558 36/// /2006 10002 20002 39391 40265 50000=
07558,1999-12-31 12:00:00,0.7,1025.7,-0.8,100,0.7,500,11.112,,,190,,,,,,,,,,,og-post,,,,AAXX 31124 07558 33/05 91906 10007 20007 39386 40257 58008=
07558,1999-12-31 13:00:00,2.2,1024.8,-1.5,100,2.2,500,7.408,,,250,,,,,,,,,,45,og-post,,,,AAXX 31134 07558 31/05 92504 10022 20022 39382 40248 56015 74544=
07558,1999-12-31 14:00:00,1.3,1025,-1,100,1.3,500,,,,,,,0.4,,,,,,,60,og-post,,,,AAXX 31144 07558 21/05 90000 10013 20013 39381 40250 56010 76064 333 69945=
07558,1999-12-31 15:00:00,1.6,1025,-0.4,100,1.6,500,3.704,,,20,,,,0.6,,,,,,,og-post,,,,AAXX 31154 07558 23/05 90202 10016 20016 39382 40250 55004 333 69967=
07558,1999-12-31 16:00:00,2.5,1024.6,-0.1,100,2.5,2000,7.408,,,290,,,0.2,,,,,,,51,og-post,,,,AAXX 31164 07558 21220 82904 10025 20025 39381 40246 57001 75165 885// 333 69925 82703 86610=
07558,1999-12-31 17:00:00,1.9,1025,0.2,100,1.9,,3.704,,,330,,,,,,,,,,,og-post,,,,AAXX 31174 07558 26/// /3302 10019 20019 39383 40250 53002 333 69905=
07558,1999-12-31 18:00:00,1.8,1025.3,0.4,100,1.8,,7.408,,,340,-1.2,2.6,,0.4,,1,,,,,og-post,,,,AAXX 31184 07558 /6/// /3404 10018 20018 39386 40253 53004 60012 333 10026 21012 69947=
07558,1999-12-31 19:00:00,1.7,1025.5,0.6,100,1.7,,7.408,,,340,,,,,,,,,,,og-post,,,,AAXX 31194 07558 26/// /3404 10017 20017 39387 40255 51006 333 69905=
07558,1999-12-31 20:00:00,1.7,1026.1,1,100,1.7,,7.408,,,340,,,,,,,,,,,og-post,,,,AAXX 31204 07558 26/// /3404 10017 20017 39393 40261 53010 333 69905=
07558,1999-12-31 21:00:00,2.4,1026.3,1.1,100,2.4,,3.704,,,330,,,,,,,,,,,og-post,,,,AAXX 31214 07558 26/// /3302 10024 20024 39397 40263 53011 333 69907=
07558,1999-12-31 22:00:00,3,1026.5,1.3,100,3,,7.408,,,330,,,,,,,,,,,og-post,,,,AAXX 31224 07558 36/// /3304 10030 20030 39400 40265 51013=
07558,1999-12-31 23:00:00,3,1026.7,0.9,100,3,,14.816,,,340,,,,,,,,,,,og-post,,,,AAXX 31234 07558 36/// /3408 10030 20030 39402 40267 51009=
